{
  "0130000": {
    "zipcode": "0130000",
    "prefectureCode": "05",
    "prefectureNumber": 5,
    "prefecture": "秋田県",
    "city": "横手市",
    "town": "以下に掲載がない場合"
  },
  "0130001": {
    "zipcode": "0130001",
    "prefectureCode": "05",
    "prefectureNumber": 5,
    "prefecture": "秋田県",
    "city": "横手市",
    "town": "杉沢"
  },
  "0130002": {
    "zipcode": "0130002",
    "prefectureCode": "05",
    "prefectureNumber": 5,
    "prefecture": "秋田県",
    "city": "横手市",
    "town": "追廻"
  },
  "0130003": {
    "zipcode": "0130003",
    "prefectureCode": "05",
    "prefectureNumber": 5,
    "prefecture": "秋田県",
    "city": "横手市",
    "town": "台所町"
  },
  "0130004": {
    "zipcode": "0130004",
    "prefectureCode": "05",
    "prefectureNumber": 5,
    "prefecture": "秋田県",
    "city": "横手市",
    "town": "明永町"
  },
  "0130005": {
    "zipcode": "0130005",
    "prefectureCode": "05",
    "prefectureNumber": 5,
    "prefecture": "秋田県",
    "city": "横手市",
    "town": "幸町"
  },
  "0130006": {
    "zipcode": "0130006",
    "prefectureCode": "05",
    "prefectureNumber": 5,
    "prefecture": "秋田県",
    "city": "横手市",
    "town": "新坂町"
  },
  "0130007": {
    "zipcode": "0130007",
    "prefectureCode": "05",
    "prefectureNumber": 5,
    "prefecture": "秋田県",
    "city": "横手市",
    "town": "大鳥町"
  },
  "0130008": {
    "zipcode": "0130008",
    "prefectureCode": "05",
    "prefectureNumber": 5,
    "prefecture": "秋田県",
    "city": "横手市",
    "town": "睦成"
  },
  "0130011": {
    "zipcode": "0130011",
    "prefectureCode": "05",
    "prefectureNumber": 5,
    "prefecture": "秋田県",
    "city": "横手市",
    "town": "城西町"
  },
  "0130012": {
    "zipcode": "0130012",
    "prefectureCode": "05",
    "prefectureNumber": 5,
    "prefecture": "秋田県",
    "city": "横手市",
    "town": "城山町"
  },
  "0130013": {
    "zipcode": "0130013",
    "prefectureCode": "05",
    "prefectureNumber": 5,
    "prefecture": "秋田県",
    "city": "横手市",
    "town": "城南町"
  },
  "0130014": {
    "zipcode": "0130014",
    "prefectureCode": "05",
    "prefectureNumber": 5,
    "prefecture": "秋田県",
    "city": "横手市",
    "town": "上内町"
  },
  "0130015": {
    "zipcode": "0130015",
    "prefectureCode": "05",
    "prefectureNumber": 5,
    "prefecture": "秋田県",
    "city": "横手市",
    "town": "羽黒町"
  },
  "0130016": {
    "zipcode": "0130016",
    "prefectureCode": "05",
    "prefectureNumber": 5,
    "prefecture": "秋田県",
    "city": "横手市",
    "town": "根岸町"
  },
  "0130017": {
    "zipcode": "0130017",
    "prefectureCode": "05",
    "prefectureNumber": 5,
    "prefecture": "秋田県",
    "city": "横手市",
    "town": "蛇の崎町"
  },
  "0130018": {
    "zipcode": "0130018",
    "prefectureCode": "05",
    "prefectureNumber": 5,
    "prefecture": "秋田県",
    "city": "横手市",
    "town": "本町"
  },
  "0130019": {
    "zipcode": "0130019",
    "prefectureCode": "05",
    "prefectureNumber": 5,
    "prefecture": "秋田県",
    "city": "横手市",
    "town": "二葉町"
  },
  "0130021": {
    "zipcode": "0130021",
    "prefectureCode": "05",
    "prefectureNumber": 5,
    "prefecture": "秋田県",
    "city": "横手市",
    "town": "大町"
  },
  "0130022": {
    "zipcode": "0130022",
    "prefectureCode": "05",
    "prefectureNumber": 5,
    "prefecture": "秋田県",
    "city": "横手市",
    "town": "四日町"
  },
  "0130023": {
    "zipcode": "0130023",
    "prefectureCode": "05",
    "prefectureNumber": 5,
    "prefecture": "秋田県",
    "city": "横手市",
    "town": "中央町"
  },
  "0130024": {
    "zipcode": "0130024",
    "prefectureCode": "05",
    "prefectureNumber": 5,
    "prefecture": "秋田県",
    "city": "横手市",
    "town": "田中町"
  },
  "0130025": {
    "zipcode": "0130025",
    "prefectureCode": "05",
    "prefectureNumber": 5,
    "prefecture": "秋田県",
    "city": "横手市",
    "town": "寿町"
  },
  "0130026": {
    "zipcode": "0130026",
    "prefectureCode": "05",
    "prefectureNumber": 5,
    "prefecture": "秋田県",
    "city": "横手市",
    "town": "大水戸町"
  },
  "0130027": {
    "zipcode": "0130027",
    "prefectureCode": "05",
    "prefectureNumber": 5,
    "prefecture": "秋田県",
    "city": "横手市",
    "town": "平城町"
  },
  "0130028": {
    "zipcode": "0130028",
    "prefectureCode": "05",
    "prefectureNumber": 5,
    "prefecture": "秋田県",
    "city": "横手市",
    "town": "朝倉町"
  },
  "0130031": {
    "zipcode": "0130031",
    "prefectureCode": "05",
    "prefectureNumber": 5,
    "prefecture": "秋田県",
    "city": "横手市",
    "town": "鍛冶町"
  },
  "0130032": {
    "zipcode": "0130032",
    "prefectureCode": "05",
    "prefectureNumber": 5,
    "prefecture": "秋田県",
    "city": "横手市",
    "town": "清川町"
  },
  "0130033": {
    "zipcode": "0130033",
    "prefectureCode": "05",
    "prefectureNumber": 5,
    "prefecture": "秋田県",
    "city": "横手市",
    "town": "旭川"
  },
  "0130034": {
    "zipcode": "0130034",
    "prefectureCode": "05",
    "prefectureNumber": 5,
    "prefecture": "秋田県",
    "city": "横手市",
    "town": "本郷町"
  },
  "0130035": {
    "zipcode": "0130035",
    "prefectureCode": "05",
    "prefectureNumber": 5,
    "prefecture": "秋田県",
    "city": "横手市",
    "town": "平和町"
  },
  "0130036": {
    "zipcode": "0130036",
    "prefectureCode": "05",
    "prefectureNumber": 5,
    "prefecture": "秋田県",
    "city": "横手市",
    "town": "駅前町"
  },
  "0130037": {
    "zipcode": "0130037",
    "prefectureCode": "05",
    "prefectureNumber": 5,
    "prefecture": "秋田県",
    "city": "横手市",
    "town": "前郷二番町"
  },
  "0130038": {
    "zipcode": "0130038",
    "prefectureCode": "05",
    "prefectureNumber": 5,
    "prefecture": "秋田県",
    "city": "横手市",
    "town": "前郷一番町"
  },
  "0130041": {
    "zipcode": "0130041",
    "prefectureCode": "05",
    "prefectureNumber": 5,
    "prefecture": "秋田県",
    "city": "横手市",
    "town": "大沢"
  },
  "0130042": {
    "zipcode": "0130042",
    "prefectureCode": "05",
    "prefectureNumber": 5,
    "prefecture": "秋田県",
    "city": "横手市",
    "town": "前郷"
  },
  "0130043": {
    "zipcode": "0130043",
    "prefectureCode": "05",
    "prefectureNumber": 5,
    "prefecture": "秋田県",
    "city": "横手市",
    "town": "安田"
  },
  "0130044": {
    "zipcode": "0130044",
    "prefectureCode": "05",
    "prefectureNumber": 5,
    "prefecture": "秋田県",
    "city": "横手市",
    "town": "横山町"
  },
  "0130045": {
    "zipcode": "0130045",
    "prefectureCode": "05",
    "prefectureNumber": 5,
    "prefecture": "秋田県",
    "city": "横手市",
    "town": "南町"
  },
  "0130046": {
    "zipcode": "0130046",
    "prefectureCode": "05",
    "prefectureNumber": 5,
    "prefecture": "秋田県",
    "city": "横手市",
    "town": "神明町"
  },
  "0130047": {
    "zipcode": "0130047",
    "prefectureCode": "05",
    "prefectureNumber": 5,
    "prefecture": "秋田県",
    "city": "横手市",
    "town": "松原町"
  },
  "0130048": {
    "zipcode": "0130048",
    "prefectureCode": "05",
    "prefectureNumber": 5,
    "prefecture": "秋田県",
    "city": "横手市",
    "town": "安田原町"
  },
  "0130049": {
    "zipcode": "0130049",
    "prefectureCode": "05",
    "prefectureNumber": 5,
    "prefecture": "秋田県",
    "city": "横手市",
    "town": "駅西"
  },
  "0130051": {
    "zipcode": "0130051",
    "prefectureCode": "05",
    "prefectureNumber": 5,
    "prefecture": "秋田県",
    "city": "横手市",
    "town": "大屋新町"
  },
  "0130052": {
    "zipcode": "0130052",
    "prefectureCode": "05",
    "prefectureNumber": 5,
    "prefecture": "秋田県",
    "city": "横手市",
    "town": "大屋寺内"
  },
  "0130053": {
    "zipcode": "0130053",
    "prefectureCode": "05",
    "prefectureNumber": 5,
    "prefecture": "秋田県",
    "city": "横手市",
    "town": "外目"
  },
  "0130054": {
    "zipcode": "0130054",
    "prefectureCode": "05",
    "prefectureNumber": 5,
    "prefecture": "秋田県",
    "city": "横手市",
    "town": "柳田"
  },
  "0130055": {
    "zipcode": "0130055",
    "prefectureCode": "05",
    "prefectureNumber": 5,
    "prefecture": "秋田県",
    "city": "横手市",
    "town": "朝日が丘"
  },
  "0130056": {
    "zipcode": "0130056",
    "prefectureCode": "05",
    "prefectureNumber": 5,
    "prefecture": "秋田県",
    "city": "横手市",
    "town": "清水町新田"
  },
  "0130060": {
    "zipcode": "0130060",
    "prefectureCode": "05",
    "prefectureNumber": 5,
    "prefecture": "秋田県",
    "city": "横手市",
    "town": "条里"
  },
  "0130061": {
    "zipcode": "0130061",
    "prefectureCode": "05",
    "prefectureNumber": 5,
    "prefecture": "秋田県",
    "city": "横手市",
    "town": "横手町"
  },
  "0130062": {
    "zipcode": "0130062",
    "prefectureCode": "05",
    "prefectureNumber": 5,
    "prefecture": "秋田県",
    "city": "横手市",
    "town": "駅南"
  },
  "0130063": {
    "zipcode": "0130063",
    "prefectureCode": "05",
    "prefectureNumber": 5,
    "prefecture": "秋田県",
    "city": "横手市",
    "town": "婦気大堤"
  },
  "0130064": {
    "zipcode": "0130064",
    "prefectureCode": "05",
    "prefectureNumber": 5,
    "prefecture": "秋田県",
    "city": "横手市",
    "town": "赤坂"
  },
  "0130065": {
    "zipcode": "0130065",
    "prefectureCode": "05",
    "prefectureNumber": 5,
    "prefecture": "秋田県",
    "city": "横手市",
    "town": "猪岡"
  },
  "0130066": {
    "zipcode": "0130066",
    "prefectureCode": "05",
    "prefectureNumber": 5,
    "prefecture": "秋田県",
    "city": "横手市",
    "town": "塚堀"
  },
  "0130068": {
    "zipcode": "0130068",
    "prefectureCode": "05",
    "prefectureNumber": 5,
    "prefecture": "秋田県",
    "city": "横手市",
    "town": "梅の木町"
  },
  "0130069": {
    "zipcode": "0130069",
    "prefectureCode": "05",
    "prefectureNumber": 5,
    "prefecture": "秋田県",
    "city": "横手市",
    "town": "三枚橋"
  },
  "0130071": {
    "zipcode": "0130071",
    "prefectureCode": "05",
    "prefectureNumber": 5,
    "prefecture": "秋田県",
    "city": "横手市",
    "town": "八幡"
  },
  "0130072": {
    "zipcode": "0130072",
    "prefectureCode": "05",
    "prefectureNumber": 5,
    "prefecture": "秋田県",
    "city": "横手市",
    "town": "卸町"
  },
  "0130073": {
    "zipcode": "0130073",
    "prefectureCode": "05",
    "prefectureNumber": 5,
    "prefecture": "秋田県",
    "city": "横手市",
    "town": "赤川"
  },
  "0130074": {
    "zipcode": "0130074",
    "prefectureCode": "05",
    "prefectureNumber": 5,
    "prefecture": "秋田県",
    "city": "横手市",
    "town": "三本柳"
  },
  "0130075": {
    "zipcode": "0130075",
    "prefectureCode": "05",
    "prefectureNumber": 5,
    "prefecture": "秋田県",
    "city": "横手市",
    "town": "静町"
  },
  "0130076": {
    "zipcode": "0130076",
    "prefectureCode": "05",
    "prefectureNumber": 5,
    "prefecture": "秋田県",
    "city": "横手市",
    "town": "杉目"
  },
  "0130101": {
    "zipcode": "0130101",
    "prefectureCode": "05",
    "prefectureNumber": 5,
    "prefecture": "秋田県",
    "city": "横手市",
    "town": "平鹿町上吉田"
  },
  "0130102": {
    "zipcode": "0130102",
    "prefectureCode": "05",
    "prefectureNumber": 5,
    "prefecture": "秋田県",
    "city": "横手市",
    "town": "平鹿町醍醐"
  },
  "0130103": {
    "zipcode": "0130103",
    "prefectureCode": "05",
    "prefectureNumber": 5,
    "prefecture": "秋田県",
    "city": "横手市",
    "town": "平鹿町下鍋倉"
  },
  "0130104": {
    "zipcode": "0130104",
    "prefectureCode": "05",
    "prefectureNumber": 5,
    "prefecture": "秋田県",
    "city": "横手市",
    "town": "平鹿町樽見内"
  },
  "0130105": {
    "zipcode": "0130105",
    "prefectureCode": "05",
    "prefectureNumber": 5,
    "prefecture": "秋田県",
    "city": "横手市",
    "town": "平鹿町浅舞"
  },
  "0130106": {
    "zipcode": "0130106",
    "prefectureCode": "05",
    "prefectureNumber": 5,
    "prefecture": "秋田県",
    "city": "横手市",
    "town": "平鹿町中吉田"
  },
  "0130107": {
    "zipcode": "0130107",
    "prefectureCode": "05",
    "prefectureNumber": 5,
    "prefecture": "秋田県",
    "city": "横手市",
    "town": "平鹿町下吉田"
  },
  "0130201": {
    "zipcode": "0130201",
    "prefectureCode": "05",
    "prefectureNumber": 5,
    "prefecture": "秋田県",
    "city": "横手市",
    "town": "雄物川町会塚"
  },
  "0130202": {
    "zipcode": "0130202",
    "prefectureCode": "05",
    "prefectureNumber": 5,
    "prefecture": "秋田県",
    "city": "横手市",
    "town": "雄物川町砂子田"
  },
  "0130203": {
    "zipcode": "0130203",
    "prefectureCode": "05",
    "prefectureNumber": 5,
    "prefecture": "秋田県",
    "city": "横手市",
    "town": "雄物川町東里"
  },
  "0130204": {
    "zipcode": "0130204",
    "prefectureCode": "05",
    "prefectureNumber": 5,
    "prefecture": "秋田県",
    "city": "横手市",
    "town": "雄物川町谷地新田"
  },
  "0130205": {
    "zipcode": "0130205",
    "prefectureCode": "05",
    "prefectureNumber": 5,
    "prefecture": "秋田県",
    "city": "横手市",
    "town": "雄物川町今宿"
  },
  "0130206": {
    "zipcode": "0130206",
    "prefectureCode": "05",
    "prefectureNumber": 5,
    "prefecture": "秋田県",
    "city": "横手市",
    "town": "雄物川町二井山"
  },
  "0130207": {
    "zipcode": "0130207",
    "prefectureCode": "05",
    "prefectureNumber": 5,
    "prefecture": "秋田県",
    "city": "横手市",
    "town": "雄物川町矢神"
  },
  "0130208": {
    "zipcode": "0130208",
    "prefectureCode": "05",
    "prefectureNumber": 5,
    "prefecture": "秋田県",
    "city": "横手市",
    "town": "雄物川町沼館"
  },
  "0130211": {
    "zipcode": "0130211",
    "prefectureCode": "05",
    "prefectureNumber": 5,
    "prefecture": "秋田県",
    "city": "横手市",
    "town": "雄物川町深井"
  },
  "0130212": {
    "zipcode": "0130212",
    "prefectureCode": "05",
    "prefectureNumber": 5,
    "prefecture": "秋田県",
    "city": "横手市",
    "town": "雄物川町造山"
  },
  "0130213": {
    "zipcode": "0130213",
    "prefectureCode": "05",
    "prefectureNumber": 5,
    "prefecture": "秋田県",
    "city": "横手市",
    "town": "雄物川町南形"
  },
  "0130214": {
    "zipcode": "0130214",
    "prefectureCode": "05",
    "prefectureNumber": 5,
    "prefecture": "秋田県",
    "city": "横手市",
    "town": "雄物川町柏木"
  },
  "0130215": {
    "zipcode": "0130215",
    "prefectureCode": "05",
    "prefectureNumber": 5,
    "prefecture": "秋田県",
    "city": "横手市",
    "town": "雄物川町常野"
  },
  "0130216": {
    "zipcode": "0130216",
    "prefectureCode": "05",
    "prefectureNumber": 5,
    "prefecture": "秋田県",
    "city": "横手市",
    "town": "雄物川町西野"
  },
  "0130217": {
    "zipcode": "0130217",
    "prefectureCode": "05",
    "prefectureNumber": 5,
    "prefecture": "秋田県",
    "city": "横手市",
    "town": "雄物川町道地"
  },
  "0130218": {
    "zipcode": "0130218",
    "prefectureCode": "05",
    "prefectureNumber": 5,
    "prefecture": "秋田県",
    "city": "横手市",
    "town": "雄物川町大沢"
  },
  "0130301": {
    "zipcode": "0130301",
    "prefectureCode": "05",
    "prefectureNumber": 5,
    "prefecture": "秋田県",
    "city": "横手市",
    "town": "大雄福島"
  },
  "0130302": {
    "zipcode": "0130302",
    "prefectureCode": "05",
    "prefectureNumber": 5,
    "prefecture": "秋田県",
    "city": "横手市",
    "town": "大雄新町北"
  },
  "0130303": {
    "zipcode": "0130303",
    "prefectureCode": "05",
    "prefectureNumber": 5,
    "prefecture": "秋田県",
    "city": "横手市",
    "town": "大雄福島南"
  },
  "0130304": {
    "zipcode": "0130304",
    "prefectureCode": "05",
    "prefectureNumber": 5,
    "prefecture": "秋田県",
    "city": "横手市",
    "town": "大雄新町南"
  },
  "0130305": {
    "zipcode": "0130305",
    "prefectureCode": "05",
    "prefectureNumber": 5,
    "prefecture": "秋田県",
    "city": "横手市",
    "town": "大雄柏木南"
  },
  "0130306": {
    "zipcode": "0130306",
    "prefectureCode": "05",
    "prefectureNumber": 5,
    "prefecture": "秋田県",
    "city": "横手市",
    "town": "大雄田村"
  },
  "0130307": {
    "zipcode": "0130307",
    "prefectureCode": "05",
    "prefectureNumber": 5,
    "prefecture": "秋田県",
    "city": "横手市",
    "town": "大雄新町東"
  },
  "0130308": {
    "zipcode": "0130308",
    "prefectureCode": "05",
    "prefectureNumber": 5,
    "prefecture": "秋田県",
    "city": "横手市",
    "town": "大雄佐加里"
  },
  "0130309": {
    "zipcode": "0130309",
    "prefectureCode": "05",
    "prefectureNumber": 5,
    "prefecture": "秋田県",
    "city": "横手市",
    "town": "大雄佐加里南"
  },
  "0130311": {
    "zipcode": "0130311",
    "prefectureCode": "05",
    "prefectureNumber": 5,
    "prefecture": "秋田県",
    "city": "横手市",
    "town": "大雄中野東"
  },
  "0130312": {
    "zipcode": "0130312",
    "prefectureCode": "05",
    "prefectureNumber": 5,
    "prefecture": "秋田県",
    "city": "横手市",
    "town": "大雄中野"
  },
  "0130313": {
    "zipcode": "0130313",
    "prefectureCode": "05",
    "prefectureNumber": 5,
    "prefecture": "秋田県",
    "city": "横手市",
    "town": "大雄大森道北"
  },
  "0130314": {
    "zipcode": "0130314",
    "prefectureCode": "05",
    "prefectureNumber": 5,
    "prefecture": "秋田県",
    "city": "横手市",
    "town": "大雄傾城塚"
  },
  "0130315": {
    "zipcode": "0130315",
    "prefectureCode": "05",
    "prefectureNumber": 5,
    "prefecture": "秋田県",
    "city": "横手市",
    "town": "大雄下根田谷地"
  },
  "0130316": {
    "zipcode": "0130316",
    "prefectureCode": "05",
    "prefectureNumber": 5,
    "prefecture": "秋田県",
    "city": "横手市",
    "town": "大雄潤井谷地"
  },
  "0130317": {
    "zipcode": "0130317",
    "prefectureCode": "05",
    "prefectureNumber": 5,
    "prefecture": "秋田県",
    "city": "横手市",
    "town": "大雄大戸川端"
  },
  "0130318": {
    "zipcode": "0130318",
    "prefectureCode": "05",
    "prefectureNumber": 5,
    "prefecture": "秋田県",
    "city": "横手市",
    "town": "大雄根田谷地南"
  },
  "0130319": {
    "zipcode": "0130319",
    "prefectureCode": "05",
    "prefectureNumber": 5,
    "prefecture": "秋田県",
    "city": "横手市",
    "town": "大雄四ツ屋東"
  },
  "0130321": {
    "zipcode": "0130321",
    "prefectureCode": "05",
    "prefectureNumber": 5,
    "prefecture": "秋田県",
    "city": "横手市",
    "town": "大雄根田谷地西"
  },
  "0130322": {
    "zipcode": "0130322",
    "prefectureCode": "05",
    "prefectureNumber": 5,
    "prefecture": "秋田県",
    "city": "横手市",
    "town": "大雄伝蔵村"
  },
  "0130323": {
    "zipcode": "0130323",
    "prefectureCode": "05",
    "prefectureNumber": 5,
    "prefecture": "秋田県",
    "city": "横手市",
    "town": "大雄根田谷地東"
  },
  "0130324": {
    "zipcode": "0130324",
    "prefectureCode": "05",
    "prefectureNumber": 5,
    "prefecture": "秋田県",
    "city": "横手市",
    "town": "大雄根田谷地"
  },
  "0130325": {
    "zipcode": "0130325",
    "prefectureCode": "05",
    "prefectureNumber": 5,
    "prefecture": "秋田県",
    "city": "横手市",
    "town": "大雄田根森東"
  },
  "0130326": {
    "zipcode": "0130326",
    "prefectureCode": "05",
    "prefectureNumber": 5,
    "prefecture": "秋田県",
    "city": "横手市",
    "town": "大雄上田村東"
  },
  "0130327": {
    "zipcode": "0130327",
    "prefectureCode": "05",
    "prefectureNumber": 5,
    "prefecture": "秋田県",
    "city": "横手市",
    "town": "大雄焼野"
  },
  "0130331": {
    "zipcode": "0130331",
    "prefectureCode": "05",
    "prefectureNumber": 5,
    "prefecture": "秋田県",
    "city": "横手市",
    "town": "大雄東高津野"
  },
  "0130332": {
    "zipcode": "0130332",
    "prefectureCode": "05",
    "prefectureNumber": 5,
    "prefecture": "秋田県",
    "city": "横手市",
    "town": "大雄新町西野添"
  },
  "0130333": {
    "zipcode": "0130333",
    "prefectureCode": "05",
    "prefectureNumber": 5,
    "prefecture": "秋田県",
    "city": "横手市",
    "town": "大雄新町西"
  },
  "0130334": {
    "zipcode": "0130334",
    "prefectureCode": "05",
    "prefectureNumber": 5,
    "prefecture": "秋田県",
    "city": "横手市",
    "town": "大雄新町"
  },
  "0130335": {
    "zipcode": "0130335",
    "prefectureCode": "05",
    "prefectureNumber": 5,
    "prefecture": "秋田県",
    "city": "横手市",
    "town": "大雄折橋"
  },
  "0130336": {
    "zipcode": "0130336",
    "prefectureCode": "05",
    "prefectureNumber": 5,
    "prefecture": "秋田県",
    "city": "横手市",
    "town": "大雄傾城塚南"
  },
  "0130337": {
    "zipcode": "0130337",
    "prefectureCode": "05",
    "prefectureNumber": 5,
    "prefecture": "秋田県",
    "city": "横手市",
    "town": "大雄折橋南"
  },
  "0130338": {
    "zipcode": "0130338",
    "prefectureCode": "05",
    "prefectureNumber": 5,
    "prefecture": "秋田県",
    "city": "横手市",
    "town": "大雄耳取西"
  },
  "0130339": {
    "zipcode": "0130339",
    "prefectureCode": "05",
    "prefectureNumber": 5,
    "prefecture": "秋田県",
    "city": "横手市",
    "town": "大雄耳取"
  },
  "0130341": {
    "zipcode": "0130341",
    "prefectureCode": "05",
    "prefectureNumber": 5,
    "prefecture": "秋田県",
    "city": "横手市",
    "town": "大雄四ッ屋"
  },
  "0130342": {
    "zipcode": "0130342",
    "prefectureCode": "05",
    "prefectureNumber": 5,
    "prefecture": "秋田県",
    "city": "横手市",
    "town": "大雄精兵村"
  },
  "0130343": {
    "zipcode": "0130343",
    "prefectureCode": "05",
    "prefectureNumber": 5,
    "prefecture": "秋田県",
    "city": "横手市",
    "town": "大雄田根森西"
  },
  "0130344": {
    "zipcode": "0130344",
    "prefectureCode": "05",
    "prefectureNumber": 5,
    "prefecture": "秋田県",
    "city": "横手市",
    "town": "大雄精兵西"
  },
  "0130345": {
    "zipcode": "0130345",
    "prefectureCode": "05",
    "prefectureNumber": 5,
    "prefecture": "秋田県",
    "city": "横手市",
    "town": "大雄本庄道北堰間"
  },
  "0130346": {
    "zipcode": "0130346",
    "prefectureCode": "05",
    "prefectureNumber": 5,
    "prefecture": "秋田県",
    "city": "横手市",
    "town": "大雄四ツ屋西"
  },
  "0130347": {
    "zipcode": "0130347",
    "prefectureCode": "05",
    "prefectureNumber": 5,
    "prefecture": "秋田県",
    "city": "横手市",
    "town": "大雄本庄道南"
  },
  "0130348": {
    "zipcode": "0130348",
    "prefectureCode": "05",
    "prefectureNumber": 5,
    "prefecture": "秋田県",
    "city": "横手市",
    "town": "大雄田根森"
  },
  "0130349": {
    "zipcode": "0130349",
    "prefectureCode": "05",
    "prefectureNumber": 5,
    "prefecture": "秋田県",
    "city": "横手市",
    "town": "大雄上田村西"
  },
  "0130351": {
    "zipcode": "0130351",
    "prefectureCode": "05",
    "prefectureNumber": 5,
    "prefecture": "秋田県",
    "city": "横手市",
    "town": "大雄上田村"
  },
  "0130352": {
    "zipcode": "0130352",
    "prefectureCode": "05",
    "prefectureNumber": 5,
    "prefecture": "秋田県",
    "city": "横手市",
    "town": "大雄一ノ関東"
  },
  "0130353": {
    "zipcode": "0130353",
    "prefectureCode": "05",
    "prefectureNumber": 5,
    "prefecture": "秋田県",
    "city": "横手市",
    "town": "大雄一ノ関"
  },
  "0130354": {
    "zipcode": "0130354",
    "prefectureCode": "05",
    "prefectureNumber": 5,
    "prefecture": "秋田県",
    "city": "横手市",
    "town": "大雄狐塚"
  },
  "0130355": {
    "zipcode": "0130355",
    "prefectureCode": "05",
    "prefectureNumber": 5,
    "prefecture": "秋田県",
    "city": "横手市",
    "town": "大雄上桜森"
  },
  "0130356": {
    "zipcode": "0130356",
    "prefectureCode": "05",
    "prefectureNumber": 5,
    "prefecture": "秋田県",
    "city": "横手市",
    "town": "大雄一ノ関南"
  },
  "0130357": {
    "zipcode": "0130357",
    "prefectureCode": "05",
    "prefectureNumber": 5,
    "prefecture": "秋田県",
    "city": "横手市",
    "town": "大雄向東"
  },
  "0130358": {
    "zipcode": "0130358",
    "prefectureCode": "05",
    "prefectureNumber": 5,
    "prefecture": "秋田県",
    "city": "横手市",
    "town": "大雄向"
  },
  "0130359": {
    "zipcode": "0130359",
    "prefectureCode": "05",
    "prefectureNumber": 5,
    "prefecture": "秋田県",
    "city": "横手市",
    "town": "大雄柏木"
  },
  "0130361": {
    "zipcode": "0130361",
    "prefectureCode": "05",
    "prefectureNumber": 5,
    "prefecture": "秋田県",
    "city": "横手市",
    "town": "大雄柏木西"
  },
  "0130362": {
    "zipcode": "0130362",
    "prefectureCode": "05",
    "prefectureNumber": 5,
    "prefecture": "秋田県",
    "city": "横手市",
    "town": "大雄柏木下"
  },
  "0130363": {
    "zipcode": "0130363",
    "prefectureCode": "05",
    "prefectureNumber": 5,
    "prefecture": "秋田県",
    "city": "横手市",
    "town": "大雄桜森西"
  },
  "0130364": {
    "zipcode": "0130364",
    "prefectureCode": "05",
    "prefectureNumber": 5,
    "prefecture": "秋田県",
    "city": "横手市",
    "town": "大雄袋谷地"
  },
  "0130365": {
    "zipcode": "0130365",
    "prefectureCode": "05",
    "prefectureNumber": 5,
    "prefecture": "秋田県",
    "city": "横手市",
    "town": "大雄鍛治村"
  },
  "0130371": {
    "zipcode": "0130371",
    "prefectureCode": "05",
    "prefectureNumber": 5,
    "prefecture": "秋田県",
    "city": "横手市",
    "town": "大雄文蔵開"
  },
  "0130372": {
    "zipcode": "0130372",
    "prefectureCode": "05",
    "prefectureNumber": 5,
    "prefecture": "秋田県",
    "city": "横手市",
    "town": "大雄上田村南"
  },
  "0130373": {
    "zipcode": "0130373",
    "prefectureCode": "05",
    "prefectureNumber": 5,
    "prefecture": "秋田県",
    "city": "横手市",
    "town": "大雄八柏谷地"
  },
  "0130374": {
    "zipcode": "0130374",
    "prefectureCode": "05",
    "prefectureNumber": 5,
    "prefecture": "秋田県",
    "city": "横手市",
    "town": "大雄八柏中村東"
  },
  "0130375": {
    "zipcode": "0130375",
    "prefectureCode": "05",
    "prefectureNumber": 5,
    "prefecture": "秋田県",
    "city": "横手市",
    "town": "大雄八柏釜蓋"
  },
  "0130376": {
    "zipcode": "0130376",
    "prefectureCode": "05",
    "prefectureNumber": 5,
    "prefecture": "秋田県",
    "city": "横手市",
    "town": "大雄八柏馬道添"
  },
  "0130377": {
    "zipcode": "0130377",
    "prefectureCode": "05",
    "prefectureNumber": 5,
    "prefecture": "秋田県",
    "city": "横手市",
    "town": "大雄八柏中村"
  },
  "0130378": {
    "zipcode": "0130378",
    "prefectureCode": "05",
    "prefectureNumber": 5,
    "prefecture": "秋田県",
    "city": "横手市",
    "town": "大雄八柏街道添"
  },
  "0130379": {
    "zipcode": "0130379",
    "prefectureCode": "05",
    "prefectureNumber": 5,
    "prefecture": "秋田県",
    "city": "横手市",
    "town": "大雄八柏家間"
  },
  "0130381": {
    "zipcode": "0130381",
    "prefectureCode": "05",
    "prefectureNumber": 5,
    "prefecture": "秋田県",
    "city": "横手市",
    "town": "大雄八柏下村"
  },
  "0130382": {
    "zipcode": "0130382",
    "prefectureCode": "05",
    "prefectureNumber": 5,
    "prefecture": "秋田県",
    "city": "横手市",
    "town": "大雄上堰東"
  },
  "0130383": {
    "zipcode": "0130383",
    "prefectureCode": "05",
    "prefectureNumber": 5,
    "prefecture": "秋田県",
    "city": "横手市",
    "town": "大雄八柏村西"
  },
  "0130384": {
    "zipcode": "0130384",
    "prefectureCode": "05",
    "prefectureNumber": 5,
    "prefecture": "秋田県",
    "city": "横手市",
    "town": "大雄八柏村表"
  },
  "0130385": {
    "zipcode": "0130385",
    "prefectureCode": "05",
    "prefectureNumber": 5,
    "prefecture": "秋田県",
    "city": "横手市",
    "town": "大雄万貝"
  },
  "0130402": {
    "zipcode": "0130402",
    "prefectureCode": "05",
    "prefectureNumber": 5,
    "prefecture": "秋田県",
    "city": "横手市",
    "town": "大雄八柏"
  },
  "0130404": {
    "zipcode": "0130404",
    "prefectureCode": "05",
    "prefectureNumber": 5,
    "prefecture": "秋田県",
    "city": "横手市",
    "town": "大雄上柏木"
  },
  "0130405": {
    "zipcode": "0130405",
    "prefectureCode": "05",
    "prefectureNumber": 5,
    "prefecture": "秋田県",
    "city": "横手市",
    "town": "大雄南四津屋"
  },
  "0130406": {
    "zipcode": "0130406",
    "prefectureCode": "05",
    "prefectureNumber": 5,
    "prefecture": "秋田県",
    "city": "横手市",
    "town": "大雄西四津屋"
  },
  "0130407": {
    "zipcode": "0130407",
    "prefectureCode": "05",
    "prefectureNumber": 5,
    "prefecture": "秋田県",
    "city": "横手市",
    "town": "大雄四津屋下"
  },
  "0130408": {
    "zipcode": "0130408",
    "prefectureCode": "05",
    "prefectureNumber": 5,
    "prefecture": "秋田県",
    "city": "横手市",
    "town": "大雄北四津屋"
  },
  "0130409": {
    "zipcode": "0130409",
    "prefectureCode": "05",
    "prefectureNumber": 5,
    "prefecture": "秋田県",
    "city": "横手市",
    "town": "大雄東四津屋"
  },
  "0130411": {
    "zipcode": "0130411",
    "prefectureCode": "05",
    "prefectureNumber": 5,
    "prefecture": "秋田県",
    "city": "横手市",
    "town": "大雄剰水東"
  },
  "0130412": {
    "zipcode": "0130412",
    "prefectureCode": "05",
    "prefectureNumber": 5,
    "prefecture": "秋田県",
    "city": "横手市",
    "town": "大雄剰水"
  },
  "0130413": {
    "zipcode": "0130413",
    "prefectureCode": "05",
    "prefectureNumber": 5,
    "prefecture": "秋田県",
    "city": "横手市",
    "town": "大雄宮田"
  },
  "0130414": {
    "zipcode": "0130414",
    "prefectureCode": "05",
    "prefectureNumber": 5,
    "prefecture": "秋田県",
    "city": "横手市",
    "town": "大雄藤巻"
  },
  "0130415": {
    "zipcode": "0130415",
    "prefectureCode": "05",
    "prefectureNumber": 5,
    "prefecture": "秋田県",
    "city": "横手市",
    "town": "大雄藤巻西"
  },
  "0130416": {
    "zipcode": "0130416",
    "prefectureCode": "05",
    "prefectureNumber": 5,
    "prefecture": "秋田県",
    "city": "横手市",
    "town": "大雄藤巻中島"
  },
  "0130417": {
    "zipcode": "0130417",
    "prefectureCode": "05",
    "prefectureNumber": 5,
    "prefecture": "秋田県",
    "city": "横手市",
    "town": "大雄六町下"
  },
  "0130418": {
    "zipcode": "0130418",
    "prefectureCode": "05",
    "prefectureNumber": 5,
    "prefecture": "秋田県",
    "city": "横手市",
    "town": "大雄六町東"
  },
  "0130419": {
    "zipcode": "0130419",
    "prefectureCode": "05",
    "prefectureNumber": 5,
    "prefecture": "秋田県",
    "city": "横手市",
    "town": "大雄六町"
  },
  "0130421": {
    "zipcode": "0130421",
    "prefectureCode": "05",
    "prefectureNumber": 5,
    "prefecture": "秋田県",
    "city": "横手市",
    "town": "大雄江原"
  },
  "0130422": {
    "zipcode": "0130422",
    "prefectureCode": "05",
    "prefectureNumber": 5,
    "prefecture": "秋田県",
    "city": "横手市",
    "town": "大雄南阿気"
  },
  "0130423": {
    "zipcode": "0130423",
    "prefectureCode": "05",
    "prefectureNumber": 5,
    "prefecture": "秋田県",
    "city": "横手市",
    "town": "大雄土井尻"
  },
  "0130424": {
    "zipcode": "0130424",
    "prefectureCode": "05",
    "prefectureNumber": 5,
    "prefecture": "秋田県",
    "city": "横手市",
    "town": "大雄中館合"
  },
  "0130425": {
    "zipcode": "0130425",
    "prefectureCode": "05",
    "prefectureNumber": 5,
    "prefecture": "秋田県",
    "city": "横手市",
    "town": "大雄西館合"
  },
  "0130426": {
    "zipcode": "0130426",
    "prefectureCode": "05",
    "prefectureNumber": 5,
    "prefecture": "秋田県",
    "city": "横手市",
    "town": "大雄木戸口"
  },
  "0130427": {
    "zipcode": "0130427",
    "prefectureCode": "05",
    "prefectureNumber": 5,
    "prefecture": "秋田県",
    "city": "横手市",
    "town": "大雄阿気"
  },
  "0130428": {
    "zipcode": "0130428",
    "prefectureCode": "05",
    "prefectureNumber": 5,
    "prefecture": "秋田県",
    "city": "横手市",
    "town": "大雄鶴巻田"
  },
  "0130429": {
    "zipcode": "0130429",
    "prefectureCode": "05",
    "prefectureNumber": 5,
    "prefecture": "秋田県",
    "city": "横手市",
    "town": "大雄宮小路"
  },
  "0130431": {
    "zipcode": "0130431",
    "prefectureCode": "05",
    "prefectureNumber": 5,
    "prefecture": "秋田県",
    "city": "横手市",
    "town": "大雄牛中島"
  },
  "0130432": {
    "zipcode": "0130432",
    "prefectureCode": "05",
    "prefectureNumber": 5,
    "prefecture": "秋田県",
    "city": "横手市",
    "town": "大雄東中島"
  },
  "0130433": {
    "zipcode": "0130433",
    "prefectureCode": "05",
    "prefectureNumber": 5,
    "prefecture": "秋田県",
    "city": "横手市",
    "town": "大雄西中島"
  },
  "0130434": {
    "zipcode": "0130434",
    "prefectureCode": "05",
    "prefectureNumber": 5,
    "prefecture": "秋田県",
    "city": "横手市",
    "town": "大雄山王"
  },
  "0130435": {
    "zipcode": "0130435",
    "prefectureCode": "05",
    "prefectureNumber": 5,
    "prefecture": "秋田県",
    "city": "横手市",
    "town": "大雄木戸口西"
  },
  "0130436": {
    "zipcode": "0130436",
    "prefectureCode": "05",
    "prefectureNumber": 5,
    "prefecture": "秋田県",
    "city": "横手市",
    "town": "大雄小林西"
  },
  "0130437": {
    "zipcode": "0130437",
    "prefectureCode": "05",
    "prefectureNumber": 5,
    "prefecture": "秋田県",
    "city": "横手市",
    "town": "大雄小林"
  },
  "0130438": {
    "zipcode": "0130438",
    "prefectureCode": "05",
    "prefectureNumber": 5,
    "prefecture": "秋田県",
    "city": "横手市",
    "town": "大雄木戸口下"
  },
  "0130439": {
    "zipcode": "0130439",
    "prefectureCode": "05",
    "prefectureNumber": 5,
    "prefecture": "秋田県",
    "city": "横手市",
    "town": "大雄山王西"
  },
  "0130441": {
    "zipcode": "0130441",
    "prefectureCode": "05",
    "prefectureNumber": 5,
    "prefecture": "秋田県",
    "city": "横手市",
    "town": "大雄野中"
  },
  "0130442": {
    "zipcode": "0130442",
    "prefectureCode": "05",
    "prefectureNumber": 5,
    "prefecture": "秋田県",
    "city": "横手市",
    "town": "大雄高津野下"
  },
  "0130443": {
    "zipcode": "0130443",
    "prefectureCode": "05",
    "prefectureNumber": 5,
    "prefecture": "秋田県",
    "city": "横手市",
    "town": "大雄高津野"
  },
  "0130444": {
    "zipcode": "0130444",
    "prefectureCode": "05",
    "prefectureNumber": 5,
    "prefecture": "秋田県",
    "city": "横手市",
    "town": "大雄向田東"
  },
  "0130445": {
    "zipcode": "0130445",
    "prefectureCode": "05",
    "prefectureNumber": 5,
    "prefecture": "秋田県",
    "city": "横手市",
    "town": "大雄向田"
  },
  "0130446": {
    "zipcode": "0130446",
    "prefectureCode": "05",
    "prefectureNumber": 5,
    "prefecture": "秋田県",
    "city": "横手市",
    "town": "大雄乗阿気"
  },
  "0130447": {
    "zipcode": "0130447",
    "prefectureCode": "05",
    "prefectureNumber": 5,
    "prefecture": "秋田県",
    "city": "横手市",
    "town": "大雄阿久戸"
  },
  "0130448": {
    "zipcode": "0130448",
    "prefectureCode": "05",
    "prefectureNumber": 5,
    "prefecture": "秋田県",
    "city": "横手市",
    "town": "大雄乗阿気下"
  },
  "0130451": {
    "zipcode": "0130451",
    "prefectureCode": "05",
    "prefectureNumber": 5,
    "prefecture": "秋田県",
    "city": "横手市",
    "town": "大雄折橋西"
  },
  "0130452": {
    "zipcode": "0130452",
    "prefectureCode": "05",
    "prefectureNumber": 5,
    "prefecture": "秋田県",
    "city": "横手市",
    "town": "大雄大関"
  },
  "0130453": {
    "zipcode": "0130453",
    "prefectureCode": "05",
    "prefectureNumber": 5,
    "prefecture": "秋田県",
    "city": "横手市",
    "town": "大雄三村北"
  },
  "0130454": {
    "zipcode": "0130454",
    "prefectureCode": "05",
    "prefectureNumber": 5,
    "prefecture": "秋田県",
    "city": "横手市",
    "town": "大雄大谷地"
  },
  "0130455": {
    "zipcode": "0130455",
    "prefectureCode": "05",
    "prefectureNumber": 5,
    "prefecture": "秋田県",
    "city": "横手市",
    "town": "大雄大谷地西"
  },
  "0130456": {
    "zipcode": "0130456",
    "prefectureCode": "05",
    "prefectureNumber": 5,
    "prefecture": "秋田県",
    "city": "横手市",
    "town": "大雄大慈寺前"
  },
  "0130457": {
    "zipcode": "0130457",
    "prefectureCode": "05",
    "prefectureNumber": 5,
    "prefecture": "秋田県",
    "city": "横手市",
    "town": "大雄大慈寺東"
  },
  "0130458": {
    "zipcode": "0130458",
    "prefectureCode": "05",
    "prefectureNumber": 5,
    "prefecture": "秋田県",
    "city": "横手市",
    "town": "大雄大慈寺谷地"
  },
  "0130459": {
    "zipcode": "0130459",
    "prefectureCode": "05",
    "prefectureNumber": 5,
    "prefecture": "秋田県",
    "city": "横手市",
    "town": "大雄赤沼"
  },
  "0130461": {
    "zipcode": "0130461",
    "prefectureCode": "05",
    "prefectureNumber": 5,
    "prefecture": "秋田県",
    "city": "横手市",
    "town": "大雄三村東"
  },
  "0130462": {
    "zipcode": "0130462",
    "prefectureCode": "05",
    "prefectureNumber": 5,
    "prefecture": "秋田県",
    "city": "横手市",
    "town": "大雄樋脇"
  },
  "0130463": {
    "zipcode": "0130463",
    "prefectureCode": "05",
    "prefectureNumber": 5,
    "prefecture": "秋田県",
    "city": "横手市",
    "town": "大雄石持前"
  },
  "0130464": {
    "zipcode": "0130464",
    "prefectureCode": "05",
    "prefectureNumber": 5,
    "prefecture": "秋田県",
    "city": "横手市",
    "town": "大雄石持"
  },
  "0130465": {
    "zipcode": "0130465",
    "prefectureCode": "05",
    "prefectureNumber": 5,
    "prefecture": "秋田県",
    "city": "横手市",
    "town": "大雄石持下"
  },
  "0130466": {
    "zipcode": "0130466",
    "prefectureCode": "05",
    "prefectureNumber": 5,
    "prefecture": "秋田県",
    "city": "横手市",
    "town": "大雄三村"
  },
  "0130467": {
    "zipcode": "0130467",
    "prefectureCode": "05",
    "prefectureNumber": 5,
    "prefecture": "秋田県",
    "city": "横手市",
    "town": "大雄三村西"
  },
  "0130468": {
    "zipcode": "0130468",
    "prefectureCode": "05",
    "prefectureNumber": 5,
    "prefecture": "秋田県",
    "city": "横手市",
    "town": "大雄中谷地"
  },
  "0130471": {
    "zipcode": "0130471",
    "prefectureCode": "05",
    "prefectureNumber": 5,
    "prefecture": "秋田県",
    "city": "横手市",
    "town": "大雄板橋堰添"
  },
  "0130472": {
    "zipcode": "0130472",
    "prefectureCode": "05",
    "prefectureNumber": 5,
    "prefecture": "秋田県",
    "city": "横手市",
    "town": "大雄東阿気"
  },
  "0130473": {
    "zipcode": "0130473",
    "prefectureCode": "05",
    "prefectureNumber": 5,
    "prefecture": "秋田県",
    "city": "横手市",
    "town": "大雄東桜森"
  },
  "0130474": {
    "zipcode": "0130474",
    "prefectureCode": "05",
    "prefectureNumber": 5,
    "prefecture": "秋田県",
    "city": "横手市",
    "town": "大雄桜森"
  },
  "0130475": {
    "zipcode": "0130475",
    "prefectureCode": "05",
    "prefectureNumber": 5,
    "prefecture": "秋田県",
    "city": "横手市",
    "town": "大雄桜森前"
  },
  "0130476": {
    "zipcode": "0130476",
    "prefectureCode": "05",
    "prefectureNumber": 5,
    "prefecture": "秋田県",
    "city": "横手市",
    "town": "大雄西桜森"
  },
  "0130477": {
    "zipcode": "0130477",
    "prefectureCode": "05",
    "prefectureNumber": 5,
    "prefecture": "秋田県",
    "city": "横手市",
    "town": "大雄桜森東"
  },
  "0130481": {
    "zipcode": "0130481",
    "prefectureCode": "05",
    "prefectureNumber": 5,
    "prefecture": "秋田県",
    "city": "横手市",
    "town": "雄物川町薄井"
  },
  "0130482": {
    "zipcode": "0130482",
    "prefectureCode": "05",
    "prefectureNumber": 5,
    "prefecture": "秋田県",
    "city": "横手市",
    "town": "大雄平柳"
  },
  "0130483": {
    "zipcode": "0130483",
    "prefectureCode": "05",
    "prefectureNumber": 5,
    "prefecture": "秋田県",
    "city": "横手市",
    "town": "大雄島田"
  },
  "0130484": {
    "zipcode": "0130484",
    "prefectureCode": "05",
    "prefectureNumber": 5,
    "prefecture": "秋田県",
    "city": "横手市",
    "town": "大雄新処"
  },
  "0130485": {
    "zipcode": "0130485",
    "prefectureCode": "05",
    "prefectureNumber": 5,
    "prefecture": "秋田県",
    "city": "横手市",
    "town": "大雄下新処"
  },
  "0130486": {
    "zipcode": "0130486",
    "prefectureCode": "05",
    "prefectureNumber": 5,
    "prefecture": "秋田県",
    "city": "横手市",
    "town": "大雄田町"
  },
  "0130487": {
    "zipcode": "0130487",
    "prefectureCode": "05",
    "prefectureNumber": 5,
    "prefecture": "秋田県",
    "city": "横手市",
    "town": "大雄下田町"
  },
  "0130488": {
    "zipcode": "0130488",
    "prefectureCode": "05",
    "prefectureNumber": 5,
    "prefecture": "秋田県",
    "city": "横手市",
    "town": "大雄東館合"
  },
  "0130501": {
    "zipcode": "0130501",
    "prefectureCode": "05",
    "prefectureNumber": 5,
    "prefecture": "秋田県",
    "city": "横手市",
    "town": "大森町板井田"
  },
  "0130502": {
    "zipcode": "0130502",
    "prefectureCode": "05",
    "prefectureNumber": 5,
    "prefecture": "秋田県",
    "city": "横手市",
    "town": "大森町袴形"
  },
  "0130503": {
    "zipcode": "0130503",
    "prefectureCode": "05",
    "prefectureNumber": 5,
    "prefecture": "秋田県",
    "city": "横手市",
    "town": "大森町十日町"
  },
  "0130511": {
    "zipcode": "0130511",
    "prefectureCode": "05",
    "prefectureNumber": 5,
    "prefecture": "秋田県",
    "city": "横手市",
    "town": "大森町牛中島"
  },
  "0130512": {
    "zipcode": "0130512",
    "prefectureCode": "05",
    "prefectureNumber": 5,
    "prefecture": "秋田県",
    "city": "横手市",
    "town": "大森町湯ノ沢"
  },
  "0130513": {
    "zipcode": "0130513",
    "prefectureCode": "05",
    "prefectureNumber": 5,
    "prefecture": "秋田県",
    "city": "横手市",
    "town": "大森町湯ノ島"
  },
  "0130514": {
    "zipcode": "0130514",
    "prefectureCode": "05",
    "prefectureNumber": 5,
    "prefecture": "秋田県",
    "city": "横手市",
    "town": "大森町大中島"
  },
  "0130515": {
    "zipcode": "0130515",
    "prefectureCode": "05",
    "prefectureNumber": 5,
    "prefecture": "秋田県",
    "city": "横手市",
    "town": "大森町西中島"
  },
  "0130516": {
    "zipcode": "0130516",
    "prefectureCode": "05",
    "prefectureNumber": 5,
    "prefecture": "秋田県",
    "city": "横手市",
    "town": "大森町東中島"
  },
  "0130517": {
    "zipcode": "0130517",
    "prefectureCode": "05",
    "prefectureNumber": 5,
    "prefecture": "秋田県",
    "city": "横手市",
    "town": "大森町高口下水戸堤"
  },
  "0130518": {
    "zipcode": "0130518",
    "prefectureCode": "05",
    "prefectureNumber": 5,
    "prefecture": "秋田県",
    "city": "横手市",
    "town": "大森町文天鏡田"
  },
  "0130519": {
    "zipcode": "0130519",
    "prefectureCode": "05",
    "prefectureNumber": 5,
    "prefecture": "秋田県",
    "city": "横手市",
    "town": "大森町持向"
  },
  "0130521": {
    "zipcode": "0130521",
    "prefectureCode": "05",
    "prefectureNumber": 5,
    "prefecture": "秋田県",
    "city": "横手市",
    "town": "大森町大森"
  },
  "0130522": {
    "zipcode": "0130522",
    "prefectureCode": "05",
    "prefectureNumber": 5,
    "prefecture": "秋田県",
    "city": "横手市",
    "town": "大森町町回"
  },
  "0130523": {
    "zipcode": "0130523",
    "prefectureCode": "05",
    "prefectureNumber": 5,
    "prefecture": "秋田県",
    "city": "横手市",
    "town": "大森町堂林"
  },
  "0130524": {
    "zipcode": "0130524",
    "prefectureCode": "05",
    "prefectureNumber": 5,
    "prefecture": "秋田県",
    "city": "横手市",
    "town": "大森町清水上"
  },
  "0130525": {
    "zipcode": "0130525",
    "prefectureCode": "05",
    "prefectureNumber": 5,
    "prefecture": "秋田県",
    "city": "横手市",
    "town": "大森町菅生田"
  },
  "0130526": {
    "zipcode": "0130526",
    "prefectureCode": "05",
    "prefectureNumber": 5,
    "prefecture": "秋田県",
    "city": "横手市",
    "town": "大森町西野"
  },
  "0130531": {
    "zipcode": "0130531",
    "prefectureCode": "05",
    "prefectureNumber": 5,
    "prefecture": "秋田県",
    "city": "横手市",
    "town": "大森町佐渡"
  },
  "0130532": {
    "zipcode": "0130532",
    "prefectureCode": "05",
    "prefectureNumber": 5,
    "prefecture": "秋田県",
    "city": "横手市",
    "town": "大森町久保"
  },
  "0130533": {
    "zipcode": "0130533",
    "prefectureCode": "05",
    "prefectureNumber": 5,
    "prefecture": "秋田県",
    "city": "横手市",
    "town": "大森町中田"
  },
  "0130534": {
    "zipcode": "0130534",
    "prefectureCode": "05",
    "prefectureNumber": 5,
    "prefecture": "秋田県",
    "city": "横手市",
    "town": "大森町峠町頭"
  },
  "0130535": {
    "zipcode": "0130535",
    "prefectureCode": "05",
    "prefectureNumber": 5,
    "prefecture": "秋田県",
    "city": "横手市",
    "town": "大森町町田"
  },
  "0130536": {
    "zipcode": "0130536",
    "prefectureCode": "05",
    "prefectureNumber": 5,
    "prefecture": "秋田県",
    "city": "横手市",
    "town": "大森町真山"
  },
  "0130541": {
    "zipcode": "0130541",
    "prefectureCode": "05",
    "prefectureNumber": 5,
    "prefecture": "秋田県",
    "city": "横手市",
    "town": "大森町中嶋"
  },
  "0130542": {
    "zipcode": "0130542",
    "prefectureCode": "05",
    "prefectureNumber": 5,
    "prefecture": "秋田県",
    "city": "横手市",
    "town": "大森町高野中島"
  },
  "0130543": {
    "zipcode": "0130543",
    "prefectureCode": "05",
    "prefectureNumber": 5,
    "prefecture": "秋田県",
    "city": "横手市",
    "town": "大森町本郷"
  },
  "0130544": {
    "zipcode": "0130544",
    "prefectureCode": "05",
    "prefectureNumber": 5,
    "prefecture": "秋田県",
    "city": "横手市",
    "town": "大森町長助巻"
  },
  "0130545": {
    "zipcode": "0130545",
    "prefectureCode": "05",
    "prefectureNumber": 5,
    "prefecture": "秋田県",
    "city": "横手市",
    "town": "大森町鯲沼"
  },
  "0130546": {
    "zipcode": "0130546",
    "prefectureCode": "05",
    "prefectureNumber": 5,
    "prefecture": "秋田県",
    "city": "横手市",
    "town": "大森町牛ケ沢"
  },
  "0130551": {
    "zipcode": "0130551",
    "prefectureCode": "05",
    "prefectureNumber": 5,
    "prefecture": "秋田県",
    "city": "横手市",
    "town": "大森町猿田"
  },
  "0130552": {
    "zipcode": "0130552",
    "prefectureCode": "05",
    "prefectureNumber": 5,
    "prefecture": "秋田県",
    "city": "横手市",
    "town": "大森町上溝"
  },
  "0130561": {
    "zipcode": "0130561",
    "prefectureCode": "05",
    "prefectureNumber": 5,
    "prefecture": "秋田県",
    "city": "横手市",
    "town": "大森町八沢木"
  },
  "0130562": {
    "zipcode": "0130562",
    "prefectureCode": "05",
    "prefectureNumber": 5,
    "prefecture": "秋田県",
    "city": "横手市",
    "town": "大森町坂部"
  },
  "0130811": {
    "zipcode": "0130811",
    "prefectureCode": "05",
    "prefectureNumber": 5,
    "prefecture": "秋田県",
    "city": "横手市",
    "town": "安本"
  },
  "0130812": {
    "zipcode": "0130812",
    "prefectureCode": "05",
    "prefectureNumber": 5,
    "prefecture": "秋田県",
    "city": "横手市",
    "town": "金沢本町"
  },
  "0130813": {
    "zipcode": "0130813",
    "prefectureCode": "05",
    "prefectureNumber": 5,
    "prefecture": "秋田県",
    "city": "横手市",
    "town": "金沢"
  },
  "0130814": {
    "zipcode": "0130814",
    "prefectureCode": "05",
    "prefectureNumber": 5,
    "prefecture": "秋田県",
    "city": "横手市",
    "town": "金沢中野"
  },
  "0130821": {
    "zipcode": "0130821",
    "prefectureCode": "05",
    "prefectureNumber": 5,
    "prefecture": "秋田県",
    "city": "横手市",
    "town": "上境"
  },
  "0130822": {
    "zipcode": "0130822",
    "prefectureCode": "05",
    "prefectureNumber": 5,
    "prefecture": "秋田県",
    "city": "横手市",
    "town": "上八丁"
  },
  "0130823": {
    "zipcode": "0130823",
    "prefectureCode": "05",
    "prefectureNumber": 5,
    "prefecture": "秋田県",
    "city": "横手市",
    "town": "下八丁"
  },
  "0130824": {
    "zipcode": "0130824",
    "prefectureCode": "05",
    "prefectureNumber": 5,
    "prefecture": "秋田県",
    "city": "横手市",
    "town": "下境"
  },
  "0130825": {
    "zipcode": "0130825",
    "prefectureCode": "05",
    "prefectureNumber": 5,
    "prefecture": "秋田県",
    "city": "横手市",
    "town": "百万刈"
  },
  "0130826": {
    "zipcode": "0130826",
    "prefectureCode": "05",
    "prefectureNumber": 5,
    "prefecture": "秋田県",
    "city": "横手市",
    "town": "黒川"
  }
}
