{
  "0150000": {
    "zipcode": "0150000",
    "prefectureCode": "05",
    "prefectureNumber": 5,
    "prefecture": "秋田県",
    "city": "由利本荘市",
    "town": "以下に掲載がない場合"
  },
  "0150011": {
    "zipcode": "0150011",
    "prefectureCode": "05",
    "prefectureNumber": 5,
    "prefecture": "秋田県",
    "city": "由利本荘市",
    "town": "石脇（その他）"
  },
  "0150012": {
    "zipcode": "0150012",
    "prefectureCode": "05",
    "prefectureNumber": 5,
    "prefecture": "秋田県",
    "city": "由利本荘市",
    "town": "石脇（田尻）"
  },
  "0150013": {
    "zipcode": "0150013",
    "prefectureCode": "05",
    "prefectureNumber": 5,
    "prefecture": "秋田県",
    "city": "由利本荘市",
    "town": "石脇（田尻野）"
  },
  "0150014": {
    "zipcode": "0150014",
    "prefectureCode": "05",
    "prefectureNumber": 5,
    "prefecture": "秋田県",
    "city": "由利本荘市",
    "town": "石脇（山ノ神）"
  },
  "0150021": {
    "zipcode": "0150021",
    "prefectureCode": "05",
    "prefectureNumber": 5,
    "prefecture": "秋田県",
    "city": "由利本荘市",
    "town": "大浦"
  },
  "0150022": {
    "zipcode": "0150022",
    "prefectureCode": "05",
    "prefectureNumber": 5,
    "prefecture": "秋田県",
    "city": "由利本荘市",
    "town": "内黒瀬"
  },
  "0150023": {
    "zipcode": "0150023",
    "prefectureCode": "05",
    "prefectureNumber": 5,
    "prefecture": "秋田県",
    "city": "由利本荘市",
    "town": "赤田"
  },
  "0150024": {
    "zipcode": "0150024",
    "prefectureCode": "05",
    "prefectureNumber": 5,
    "prefecture": "秋田県",
    "city": "由利本荘市",
    "town": "内越"
  },
  "0150025": {
    "zipcode": "0150025",
    "prefectureCode": "05",
    "prefectureNumber": 5,
    "prefecture": "秋田県",
    "city": "由利本荘市",
    "town": "山田"
  },
  "0150031": {
    "zipcode": "0150031",
    "prefectureCode": "05",
    "prefectureNumber": 5,
    "prefecture": "秋田県",
    "city": "由利本荘市",
    "town": "浜三川"
  },
  "0150032": {
    "zipcode": "0150032",
    "prefectureCode": "05",
    "prefectureNumber": 5,
    "prefecture": "秋田県",
    "city": "由利本荘市",
    "town": "松ケ崎"
  },
  "0150033": {
    "zipcode": "0150033",
    "prefectureCode": "05",
    "prefectureNumber": 5,
    "prefecture": "秋田県",
    "city": "由利本荘市",
    "town": "神沢"
  },
  "0150034": {
    "zipcode": "0150034",
    "prefectureCode": "05",
    "prefectureNumber": 5,
    "prefecture": "秋田県",
    "city": "由利本荘市",
    "town": "芦川"
  },
  "0150035": {
    "zipcode": "0150035",
    "prefectureCode": "05",
    "prefectureNumber": 5,
    "prefecture": "秋田県",
    "city": "由利本荘市",
    "town": "親川"
  },
  "0150041": {
    "zipcode": "0150041",
    "prefectureCode": "05",
    "prefectureNumber": 5,
    "prefecture": "秋田県",
    "city": "由利本荘市",
    "town": "薬師堂"
  },
  "0150042": {
    "zipcode": "0150042",
    "prefectureCode": "05",
    "prefectureNumber": 5,
    "prefecture": "秋田県",
    "city": "由利本荘市",
    "town": "埋田"
  },
  "0150043": {
    "zipcode": "0150043",
    "prefectureCode": "05",
    "prefectureNumber": 5,
    "prefecture": "秋田県",
    "city": "由利本荘市",
    "town": "宮内"
  },
  "0150044": {
    "zipcode": "0150044",
    "prefectureCode": "05",
    "prefectureNumber": 5,
    "prefecture": "秋田県",
    "city": "由利本荘市",
    "town": "玉ノ池"
  },
  "0150045": {
    "zipcode": "0150045",
    "prefectureCode": "05",
    "prefectureNumber": 5,
    "prefecture": "秋田県",
    "city": "由利本荘市",
    "town": "葛法"
  },
  "0150046": {
    "zipcode": "0150046",
    "prefectureCode": "05",
    "prefectureNumber": 5,
    "prefecture": "秋田県",
    "city": "由利本荘市",
    "town": "船岡"
  },
  "0150047": {
    "zipcode": "0150047",
    "prefectureCode": "05",
    "prefectureNumber": 5,
    "prefecture": "秋田県",
    "city": "由利本荘市",
    "town": "藤崎"
  },
  "0150051": {
    "zipcode": "0150051",
    "prefectureCode": "05",
    "prefectureNumber": 5,
    "prefecture": "秋田県",
    "city": "由利本荘市",
    "town": "川口"
  },
  "0150052": {
    "zipcode": "0150052",
    "prefectureCode": "05",
    "prefectureNumber": 5,
    "prefecture": "秋田県",
    "city": "由利本荘市",
    "town": "畑谷"
  },
  "0150053": {
    "zipcode": "0150053",
    "prefectureCode": "05",
    "prefectureNumber": 5,
    "prefecture": "秋田県",
    "city": "由利本荘市",
    "town": "福山"
  },
  "0150054": {
    "zipcode": "0150054",
    "prefectureCode": "05",
    "prefectureNumber": 5,
    "prefecture": "秋田県",
    "city": "由利本荘市",
    "town": "土谷（谷地）"
  },
  "0150055": {
    "zipcode": "0150055",
    "prefectureCode": "05",
    "prefectureNumber": 5,
    "prefecture": "秋田県",
    "city": "由利本荘市",
    "town": "土谷（その他）"
  },
  "0150061": {
    "zipcode": "0150061",
    "prefectureCode": "05",
    "prefectureNumber": 5,
    "prefecture": "秋田県",
    "city": "由利本荘市",
    "town": "二十六木"
  },
  "0150062": {
    "zipcode": "0150062",
    "prefectureCode": "05",
    "prefectureNumber": 5,
    "prefecture": "秋田県",
    "city": "由利本荘市",
    "town": "大中ノ沢"
  },
  "0150063": {
    "zipcode": "0150063",
    "prefectureCode": "05",
    "prefectureNumber": 5,
    "prefecture": "秋田県",
    "city": "由利本荘市",
    "town": "舘前"
  },
  "0150064": {
    "zipcode": "0150064",
    "prefectureCode": "05",
    "prefectureNumber": 5,
    "prefecture": "秋田県",
    "city": "由利本荘市",
    "town": "万願寺"
  },
  "0150065": {
    "zipcode": "0150065",
    "prefectureCode": "05",
    "prefectureNumber": 5,
    "prefecture": "秋田県",
    "city": "由利本荘市",
    "town": "荒町"
  },
  "0150066": {
    "zipcode": "0150066",
    "prefectureCode": "05",
    "prefectureNumber": 5,
    "prefecture": "秋田県",
    "city": "由利本荘市",
    "town": "金山"
  },
  "0150067": {
    "zipcode": "0150067",
    "prefectureCode": "05",
    "prefectureNumber": 5,
    "prefecture": "秋田県",
    "city": "由利本荘市",
    "town": "三条"
  },
  "0150068": {
    "zipcode": "0150068",
    "prefectureCode": "05",
    "prefectureNumber": 5,
    "prefecture": "秋田県",
    "city": "由利本荘市",
    "town": "南ノ股"
  },
  "0150069": {
    "zipcode": "0150069",
    "prefectureCode": "05",
    "prefectureNumber": 5,
    "prefecture": "秋田県",
    "city": "由利本荘市",
    "town": "北ノ股"
  },
  "0150071": {
    "zipcode": "0150071",
    "prefectureCode": "05",
    "prefectureNumber": 5,
    "prefecture": "秋田県",
    "city": "由利本荘市",
    "town": "赤沼町"
  },
  "0150072": {
    "zipcode": "0150072",
    "prefectureCode": "05",
    "prefectureNumber": 5,
    "prefecture": "秋田県",
    "city": "由利本荘市",
    "town": "裏尾崎町"
  },
  "0150073": {
    "zipcode": "0150073",
    "prefectureCode": "05",
    "prefectureNumber": 5,
    "prefecture": "秋田県",
    "city": "由利本荘市",
    "town": "笹道"
  },
  "0150074": {
    "zipcode": "0150074",
    "prefectureCode": "05",
    "prefectureNumber": 5,
    "prefecture": "秋田県",
    "city": "由利本荘市",
    "town": "桜小路"
  },
  "0150075": {
    "zipcode": "0150075",
    "prefectureCode": "05",
    "prefectureNumber": 5,
    "prefecture": "秋田県",
    "city": "由利本荘市",
    "town": "花畑町"
  },
  "0150076": {
    "zipcode": "0150076",
    "prefectureCode": "05",
    "prefectureNumber": 5,
    "prefecture": "秋田県",
    "city": "由利本荘市",
    "town": "東町"
  },
  "0150077": {
    "zipcode": "0150077",
    "prefectureCode": "05",
    "prefectureNumber": 5,
    "prefecture": "秋田県",
    "city": "由利本荘市",
    "town": "本田仲町"
  },
  "0150078": {
    "zipcode": "0150078",
    "prefectureCode": "05",
    "prefectureNumber": 5,
    "prefecture": "秋田県",
    "city": "由利本荘市",
    "town": "谷地町"
  },
  "0150079": {
    "zipcode": "0150079",
    "prefectureCode": "05",
    "prefectureNumber": 5,
    "prefecture": "秋田県",
    "city": "由利本荘市",
    "town": "赤沼下道"
  },
  "0150081": {
    "zipcode": "0150081",
    "prefectureCode": "05",
    "prefectureNumber": 5,
    "prefecture": "秋田県",
    "city": "由利本荘市",
    "town": "雪車町"
  },
  "0150082": {
    "zipcode": "0150082",
    "prefectureCode": "05",
    "prefectureNumber": 5,
    "prefecture": "秋田県",
    "city": "由利本荘市",
    "town": "宮沢"
  },
  "0150083": {
    "zipcode": "0150083",
    "prefectureCode": "05",
    "prefectureNumber": 5,
    "prefecture": "秋田県",
    "city": "由利本荘市",
    "town": "滝ノ沢"
  },
  "0150084": {
    "zipcode": "0150084",
    "prefectureCode": "05",
    "prefectureNumber": 5,
    "prefecture": "秋田県",
    "city": "由利本荘市",
    "town": "鮎瀬"
  },
  "0150085": {
    "zipcode": "0150085",
    "prefectureCode": "05",
    "prefectureNumber": 5,
    "prefecture": "秋田県",
    "city": "由利本荘市",
    "town": "烏川"
  },
  "0150086": {
    "zipcode": "0150086",
    "prefectureCode": "05",
    "prefectureNumber": 5,
    "prefecture": "秋田県",
    "city": "由利本荘市",
    "town": "舘"
  },
  "0150087": {
    "zipcode": "0150087",
    "prefectureCode": "05",
    "prefectureNumber": 5,
    "prefecture": "秋田県",
    "city": "由利本荘市",
    "town": "湯沢"
  },
  "0150088": {
    "zipcode": "0150088",
    "prefectureCode": "05",
    "prefectureNumber": 5,
    "prefecture": "秋田県",
    "city": "由利本荘市",
    "town": "柳生"
  },
  "0150089": {
    "zipcode": "0150089",
    "prefectureCode": "05",
    "prefectureNumber": 5,
    "prefecture": "秋田県",
    "city": "由利本荘市",
    "town": "鳥田目"
  },
  "0150091": {
    "zipcode": "0150091",
    "prefectureCode": "05",
    "prefectureNumber": 5,
    "prefecture": "秋田県",
    "city": "由利本荘市",
    "town": "大簗"
  },
  "0150092": {
    "zipcode": "0150092",
    "prefectureCode": "05",
    "prefectureNumber": 5,
    "prefecture": "秋田県",
    "city": "由利本荘市",
    "town": "山内（その他）"
  },
  "0150093": {
    "zipcode": "0150093",
    "prefectureCode": "05",
    "prefectureNumber": 5,
    "prefecture": "秋田県",
    "city": "由利本荘市",
    "town": "大沢"
  },
  "0150094": {
    "zipcode": "0150094",
    "prefectureCode": "05",
    "prefectureNumber": 5,
    "prefecture": "秋田県",
    "city": "由利本荘市",
    "town": "上野"
  },
  "0150201": {
    "zipcode": "0150201",
    "prefectureCode": "05",
    "prefectureNumber": 5,
    "prefecture": "秋田県",
    "city": "由利本荘市",
    "town": "東由利法内"
  },
  "0150202": {
    "zipcode": "0150202",
    "prefectureCode": "05",
    "prefectureNumber": 5,
    "prefecture": "秋田県",
    "city": "由利本荘市",
    "town": "東由利蔵"
  },
  "0150211": {
    "zipcode": "0150211",
    "prefectureCode": "05",
    "prefectureNumber": 5,
    "prefecture": "秋田県",
    "city": "由利本荘市",
    "town": "東由利老方"
  },
  "0150221": {
    "zipcode": "0150221",
    "prefectureCode": "05",
    "prefectureNumber": 5,
    "prefecture": "秋田県",
    "city": "由利本荘市",
    "town": "東由利舘合"
  },
  "0150231": {
    "zipcode": "0150231",
    "prefectureCode": "05",
    "prefectureNumber": 5,
    "prefecture": "秋田県",
    "city": "由利本荘市",
    "town": "東由利黒渕"
  },
  "0150232": {
    "zipcode": "0150232",
    "prefectureCode": "05",
    "prefectureNumber": 5,
    "prefecture": "秋田県",
    "city": "由利本荘市",
    "town": "東由利田代"
  },
  "0150241": {
    "zipcode": "0150241",
    "prefectureCode": "05",
    "prefectureNumber": 5,
    "prefecture": "秋田県",
    "city": "由利本荘市",
    "town": "東由利宿"
  },
  "0150242": {
    "zipcode": "0150242",
    "prefectureCode": "05",
    "prefectureNumber": 5,
    "prefecture": "秋田県",
    "city": "由利本荘市",
    "town": "東由利杉森"
  },
  "0150243": {
    "zipcode": "0150243",
    "prefectureCode": "05",
    "prefectureNumber": 5,
    "prefecture": "秋田県",
    "city": "由利本荘市",
    "town": "山内（三ツ方森）"
  },
  "0150301": {
    "zipcode": "0150301",
    "prefectureCode": "05",
    "prefectureNumber": 5,
    "prefecture": "秋田県",
    "city": "由利本荘市",
    "town": "飯沢"
  },
  "0150302": {
    "zipcode": "0150302",
    "prefectureCode": "05",
    "prefectureNumber": 5,
    "prefecture": "秋田県",
    "city": "由利本荘市",
    "town": "久保田"
  },
  "0150303": {
    "zipcode": "0150303",
    "prefectureCode": "05",
    "prefectureNumber": 5,
    "prefecture": "秋田県",
    "city": "由利本荘市",
    "town": "陳ケ森"
  },
  "0150304": {
    "zipcode": "0150304",
    "prefectureCode": "05",
    "prefectureNumber": 5,
    "prefecture": "秋田県",
    "city": "由利本荘市",
    "town": "曲沢"
  },
  "0150311": {
    "zipcode": "0150311",
    "prefectureCode": "05",
    "prefectureNumber": 5,
    "prefecture": "秋田県",
    "city": "由利本荘市",
    "town": "五十土"
  },
  "0150312": {
    "zipcode": "0150312",
    "prefectureCode": "05",
    "prefectureNumber": 5,
    "prefecture": "秋田県",
    "city": "由利本荘市",
    "town": "大水口"
  },
  "0150313": {
    "zipcode": "0150313",
    "prefectureCode": "05",
    "prefectureNumber": 5,
    "prefecture": "秋田県",
    "city": "由利本荘市",
    "town": "小菅野"
  },
  "0150314": {
    "zipcode": "0150314",
    "prefectureCode": "05",
    "prefectureNumber": 5,
    "prefecture": "秋田県",
    "city": "由利本荘市",
    "town": "東中沢"
  },
  "0150321": {
    "zipcode": "0150321",
    "prefectureCode": "05",
    "prefectureNumber": 5,
    "prefecture": "秋田県",
    "city": "由利本荘市",
    "town": "蟹沢"
  },
  "0150322": {
    "zipcode": "0150322",
    "prefectureCode": "05",
    "prefectureNumber": 5,
    "prefecture": "秋田県",
    "city": "由利本荘市",
    "town": "新上条"
  },
  "0150323": {
    "zipcode": "0150323",
    "prefectureCode": "05",
    "prefectureNumber": 5,
    "prefecture": "秋田県",
    "city": "由利本荘市",
    "town": "土倉"
  },
  "0150324": {
    "zipcode": "0150324",
    "prefectureCode": "05",
    "prefectureNumber": 5,
    "prefecture": "秋田県",
    "city": "由利本荘市",
    "town": "吉沢"
  },
  "0150331": {
    "zipcode": "0150331",
    "prefectureCode": "05",
    "prefectureNumber": 5,
    "prefecture": "秋田県",
    "city": "由利本荘市",
    "town": "川西"
  },
  "0150332": {
    "zipcode": "0150332",
    "prefectureCode": "05",
    "prefectureNumber": 5,
    "prefecture": "秋田県",
    "city": "由利本荘市",
    "town": "森子"
  },
  "0150333": {
    "zipcode": "0150333",
    "prefectureCode": "05",
    "prefectureNumber": 5,
    "prefecture": "秋田県",
    "city": "由利本荘市",
    "town": "山本"
  },
  "0150341": {
    "zipcode": "0150341",
    "prefectureCode": "05",
    "prefectureNumber": 5,
    "prefecture": "秋田県",
    "city": "由利本荘市",
    "town": "前郷"
  },
  "0150351": {
    "zipcode": "0150351",
    "prefectureCode": "05",
    "prefectureNumber": 5,
    "prefecture": "秋田県",
    "city": "由利本荘市",
    "town": "堰口"
  },
  "0150352": {
    "zipcode": "0150352",
    "prefectureCode": "05",
    "prefectureNumber": 5,
    "prefecture": "秋田県",
    "city": "由利本荘市",
    "town": "西沢"
  },
  "0150353": {
    "zipcode": "0150353",
    "prefectureCode": "05",
    "prefectureNumber": 5,
    "prefecture": "秋田県",
    "city": "由利本荘市",
    "town": "平石"
  },
  "0150361": {
    "zipcode": "0150361",
    "prefectureCode": "05",
    "prefectureNumber": 5,
    "prefecture": "秋田県",
    "city": "由利本荘市",
    "town": "黒沢"
  },
  "0150362": {
    "zipcode": "0150362",
    "prefectureCode": "05",
    "prefectureNumber": 5,
    "prefecture": "秋田県",
    "city": "由利本荘市",
    "town": "東鮎川"
  },
  "0150363": {
    "zipcode": "0150363",
    "prefectureCode": "05",
    "prefectureNumber": 5,
    "prefecture": "秋田県",
    "city": "由利本荘市",
    "town": "町村"
  },
  "0150364": {
    "zipcode": "0150364",
    "prefectureCode": "05",
    "prefectureNumber": 5,
    "prefecture": "秋田県",
    "city": "由利本荘市",
    "town": "南福田"
  },
  "0150401": {
    "zipcode": "0150401",
    "prefectureCode": "05",
    "prefectureNumber": 5,
    "prefecture": "秋田県",
    "city": "由利本荘市",
    "town": "矢島町田中町"
  },
  "0150402": {
    "zipcode": "0150402",
    "prefectureCode": "05",
    "prefectureNumber": 5,
    "prefecture": "秋田県",
    "city": "由利本荘市",
    "town": "矢島町矢島町"
  },
  "0150403": {
    "zipcode": "0150403",
    "prefectureCode": "05",
    "prefectureNumber": 5,
    "prefecture": "秋田県",
    "city": "由利本荘市",
    "town": "矢島町舘町"
  },
  "0150404": {
    "zipcode": "0150404",
    "prefectureCode": "05",
    "prefectureNumber": 5,
    "prefecture": "秋田県",
    "city": "由利本荘市",
    "town": "矢島町七日町"
  },
  "0150411": {
    "zipcode": "0150411",
    "prefectureCode": "05",
    "prefectureNumber": 5,
    "prefecture": "秋田県",
    "city": "由利本荘市",
    "town": "矢島町城内"
  },
  "0150412": {
    "zipcode": "0150412",
    "prefectureCode": "05",
    "prefectureNumber": 5,
    "prefecture": "秋田県",
    "city": "由利本荘市",
    "town": "矢島町川辺"
  },
  "0150413": {
    "zipcode": "0150413",
    "prefectureCode": "05",
    "prefectureNumber": 5,
    "prefecture": "秋田県",
    "city": "由利本荘市",
    "town": "矢島町木在"
  },
  "0150414": {
    "zipcode": "0150414",
    "prefectureCode": "05",
    "prefectureNumber": 5,
    "prefecture": "秋田県",
    "city": "由利本荘市",
    "town": "矢島町立石"
  },
  "0150415": {
    "zipcode": "0150415",
    "prefectureCode": "05",
    "prefectureNumber": 5,
    "prefecture": "秋田県",
    "city": "由利本荘市",
    "town": "矢島町新荘"
  },
  "0150416": {
    "zipcode": "0150416",
    "prefectureCode": "05",
    "prefectureNumber": 5,
    "prefecture": "秋田県",
    "city": "由利本荘市",
    "town": "矢島町坂之下"
  },
  "0150417": {
    "zipcode": "0150417",
    "prefectureCode": "05",
    "prefectureNumber": 5,
    "prefecture": "秋田県",
    "city": "由利本荘市",
    "town": "矢島町元町"
  },
  "0150418": {
    "zipcode": "0150418",
    "prefectureCode": "05",
    "prefectureNumber": 5,
    "prefecture": "秋田県",
    "city": "由利本荘市",
    "town": "矢島町荒沢"
  },
  "0150501": {
    "zipcode": "0150501",
    "prefectureCode": "05",
    "prefectureNumber": 5,
    "prefecture": "秋田県",
    "city": "由利本荘市",
    "town": "鳥海町伏見"
  },
  "0150502": {
    "zipcode": "0150502",
    "prefectureCode": "05",
    "prefectureNumber": 5,
    "prefecture": "秋田県",
    "city": "由利本荘市",
    "town": "鳥海町下川内"
  },
  "0150503": {
    "zipcode": "0150503",
    "prefectureCode": "05",
    "prefectureNumber": 5,
    "prefecture": "秋田県",
    "city": "由利本荘市",
    "town": "鳥海町栗沢"
  },
  "0150504": {
    "zipcode": "0150504",
    "prefectureCode": "05",
    "prefectureNumber": 5,
    "prefecture": "秋田県",
    "city": "由利本荘市",
    "town": "鳥海町上川内"
  },
  "0150505": {
    "zipcode": "0150505",
    "prefectureCode": "05",
    "prefectureNumber": 5,
    "prefecture": "秋田県",
    "city": "由利本荘市",
    "town": "鳥海町小川"
  },
  "0150511": {
    "zipcode": "0150511",
    "prefectureCode": "05",
    "prefectureNumber": 5,
    "prefecture": "秋田県",
    "city": "由利本荘市",
    "town": "鳥海町戈之神"
  },
  "0150512": {
    "zipcode": "0150512",
    "prefectureCode": "05",
    "prefectureNumber": 5,
    "prefecture": "秋田県",
    "city": "由利本荘市",
    "town": "鳥海町猿倉"
  },
  "0150513": {
    "zipcode": "0150513",
    "prefectureCode": "05",
    "prefectureNumber": 5,
    "prefecture": "秋田県",
    "city": "由利本荘市",
    "town": "鳥海町下直根"
  },
  "0150514": {
    "zipcode": "0150514",
    "prefectureCode": "05",
    "prefectureNumber": 5,
    "prefecture": "秋田県",
    "city": "由利本荘市",
    "town": "鳥海町中直根"
  },
  "0150515": {
    "zipcode": "0150515",
    "prefectureCode": "05",
    "prefectureNumber": 5,
    "prefecture": "秋田県",
    "city": "由利本荘市",
    "town": "鳥海町上直根"
  },
  "0150516": {
    "zipcode": "0150516",
    "prefectureCode": "05",
    "prefectureNumber": 5,
    "prefecture": "秋田県",
    "city": "由利本荘市",
    "town": "鳥海町百宅"
  },
  "0150721": {
    "zipcode": "0150721",
    "prefectureCode": "05",
    "prefectureNumber": 5,
    "prefecture": "秋田県",
    "city": "由利本荘市",
    "town": "鳥海町上笹子"
  },
  "0150722": {
    "zipcode": "0150722",
    "prefectureCode": "05",
    "prefectureNumber": 5,
    "prefecture": "秋田県",
    "city": "由利本荘市",
    "town": "鳥海町下笹子"
  },
  "0150801": {
    "zipcode": "0150801",
    "prefectureCode": "05",
    "prefectureNumber": 5,
    "prefecture": "秋田県",
    "city": "由利本荘市",
    "town": "美倉町"
  },
  "0150802": {
    "zipcode": "0150802",
    "prefectureCode": "05",
    "prefectureNumber": 5,
    "prefecture": "秋田県",
    "city": "由利本荘市",
    "town": "表尾崎町"
  },
  "0150803": {
    "zipcode": "0150803",
    "prefectureCode": "05",
    "prefectureNumber": 5,
    "prefecture": "秋田県",
    "city": "由利本荘市",
    "town": "中竪町"
  },
  "0150804": {
    "zipcode": "0150804",
    "prefectureCode": "05",
    "prefectureNumber": 5,
    "prefecture": "秋田県",
    "city": "由利本荘市",
    "town": "谷山小路"
  },
  "0150807": {
    "zipcode": "0150807",
    "prefectureCode": "05",
    "prefectureNumber": 5,
    "prefecture": "秋田県",
    "city": "由利本荘市",
    "town": "中横町"
  },
  "0150808": {
    "zipcode": "0150808",
    "prefectureCode": "05",
    "prefectureNumber": 5,
    "prefecture": "秋田県",
    "city": "由利本荘市",
    "town": "大門"
  },
  "0150809": {
    "zipcode": "0150809",
    "prefectureCode": "05",
    "prefectureNumber": 5,
    "prefecture": "秋田県",
    "city": "由利本荘市",
    "town": "本荘"
  },
  "0150811": {
    "zipcode": "0150811",
    "prefectureCode": "05",
    "prefectureNumber": 5,
    "prefecture": "秋田県",
    "city": "由利本荘市",
    "town": "桶屋町"
  },
  "0150812": {
    "zipcode": "0150812",
    "prefectureCode": "05",
    "prefectureNumber": 5,
    "prefecture": "秋田県",
    "city": "由利本荘市",
    "town": "鍛治町"
  },
  "0150813": {
    "zipcode": "0150813",
    "prefectureCode": "05",
    "prefectureNumber": 5,
    "prefecture": "秋田県",
    "city": "由利本荘市",
    "town": "日役町"
  },
  "0150814": {
    "zipcode": "0150814",
    "prefectureCode": "05",
    "prefectureNumber": 5,
    "prefecture": "秋田県",
    "city": "由利本荘市",
    "town": "後町"
  },
  "0150815": {
    "zipcode": "0150815",
    "prefectureCode": "05",
    "prefectureNumber": 5,
    "prefecture": "秋田県",
    "city": "由利本荘市",
    "town": "猟師町"
  },
  "0150816": {
    "zipcode": "0150816",
    "prefectureCode": "05",
    "prefectureNumber": 5,
    "prefecture": "秋田県",
    "city": "由利本荘市",
    "town": "大町"
  },
  "0150817": {
    "zipcode": "0150817",
    "prefectureCode": "05",
    "prefectureNumber": 5,
    "prefecture": "秋田県",
    "city": "由利本荘市",
    "town": "中町"
  },
  "0150821": {
    "zipcode": "0150821",
    "prefectureCode": "05",
    "prefectureNumber": 5,
    "prefecture": "秋田県",
    "city": "由利本荘市",
    "town": "肴町"
  },
  "0150822": {
    "zipcode": "0150822",
    "prefectureCode": "05",
    "prefectureNumber": 5,
    "prefecture": "秋田県",
    "city": "由利本荘市",
    "town": "田町"
  },
  "0150823": {
    "zipcode": "0150823",
    "prefectureCode": "05",
    "prefectureNumber": 5,
    "prefecture": "秋田県",
    "city": "由利本荘市",
    "town": "和泉町"
  },
  "0150824": {
    "zipcode": "0150824",
    "prefectureCode": "05",
    "prefectureNumber": 5,
    "prefecture": "秋田県",
    "city": "由利本荘市",
    "town": "古雪町"
  },
  "0150825": {
    "zipcode": "0150825",
    "prefectureCode": "05",
    "prefectureNumber": 5,
    "prefecture": "秋田県",
    "city": "由利本荘市",
    "town": "観音町"
  },
  "0150826": {
    "zipcode": "0150826",
    "prefectureCode": "05",
    "prefectureNumber": 5,
    "prefecture": "秋田県",
    "city": "由利本荘市",
    "town": "片町"
  },
  "0150827": {
    "zipcode": "0150827",
    "prefectureCode": "05",
    "prefectureNumber": 5,
    "prefecture": "秋田県",
    "city": "由利本荘市",
    "town": "浜ノ町"
  },
  "0150831": {
    "zipcode": "0150831",
    "prefectureCode": "05",
    "prefectureNumber": 5,
    "prefecture": "秋田県",
    "city": "由利本荘市",
    "town": "北裏地"
  },
  "0150832": {
    "zipcode": "0150832",
    "prefectureCode": "05",
    "prefectureNumber": 5,
    "prefecture": "秋田県",
    "city": "由利本荘市",
    "town": "下川原中島"
  },
  "0150833": {
    "zipcode": "0150833",
    "prefectureCode": "05",
    "prefectureNumber": 5,
    "prefecture": "秋田県",
    "city": "由利本荘市",
    "town": "巣組"
  },
  "0150834": {
    "zipcode": "0150834",
    "prefectureCode": "05",
    "prefectureNumber": 5,
    "prefecture": "秋田県",
    "city": "由利本荘市",
    "town": "岩渕下"
  },
  "0150835": {
    "zipcode": "0150835",
    "prefectureCode": "05",
    "prefectureNumber": 5,
    "prefecture": "秋田県",
    "city": "由利本荘市",
    "town": "八幡下"
  },
  "0150836": {
    "zipcode": "0150836",
    "prefectureCode": "05",
    "prefectureNumber": 5,
    "prefecture": "秋田県",
    "city": "由利本荘市",
    "town": "赤沼下"
  },
  "0150837": {
    "zipcode": "0150837",
    "prefectureCode": "05",
    "prefectureNumber": 5,
    "prefecture": "秋田県",
    "city": "由利本荘市",
    "town": "出戸町（赤沼下道）"
  },
  "0150838": {
    "zipcode": "0150838",
    "prefectureCode": "05",
    "prefectureNumber": 5,
    "prefecture": "秋田県",
    "city": "由利本荘市",
    "town": "梵天谷地"
  },
  "0150839": {
    "zipcode": "0150839",
    "prefectureCode": "05",
    "prefectureNumber": 5,
    "prefecture": "秋田県",
    "city": "由利本荘市",
    "town": "古川端"
  },
  "0150840": {
    "zipcode": "0150840",
    "prefectureCode": "05",
    "prefectureNumber": 5,
    "prefecture": "秋田県",
    "city": "由利本荘市",
    "town": "瀬越場"
  },
  "0150841": {
    "zipcode": "0150841",
    "prefectureCode": "05",
    "prefectureNumber": 5,
    "prefecture": "秋田県",
    "city": "由利本荘市",
    "town": "下大野"
  },
  "0150842": {
    "zipcode": "0150842",
    "prefectureCode": "05",
    "prefectureNumber": 5,
    "prefecture": "秋田県",
    "city": "由利本荘市",
    "town": "出戸上野"
  },
  "0150843": {
    "zipcode": "0150843",
    "prefectureCode": "05",
    "prefectureNumber": 5,
    "prefecture": "秋田県",
    "city": "由利本荘市",
    "town": "東梵天"
  },
  "0150851": {
    "zipcode": "0150851",
    "prefectureCode": "05",
    "prefectureNumber": 5,
    "prefecture": "秋田県",
    "city": "由利本荘市",
    "town": "中梵天"
  },
  "0150852": {
    "zipcode": "0150852",
    "prefectureCode": "05",
    "prefectureNumber": 5,
    "prefecture": "秋田県",
    "city": "由利本荘市",
    "town": "一番堰"
  },
  "0150853": {
    "zipcode": "0150853",
    "prefectureCode": "05",
    "prefectureNumber": 5,
    "prefecture": "秋田県",
    "city": "由利本荘市",
    "town": "松街道"
  },
  "0150854": {
    "zipcode": "0150854",
    "prefectureCode": "05",
    "prefectureNumber": 5,
    "prefecture": "秋田県",
    "city": "由利本荘市",
    "town": "上大野"
  },
  "0150855": {
    "zipcode": "0150855",
    "prefectureCode": "05",
    "prefectureNumber": 5,
    "prefecture": "秋田県",
    "city": "由利本荘市",
    "town": "二番堰"
  },
  "0150856": {
    "zipcode": "0150856",
    "prefectureCode": "05",
    "prefectureNumber": 5,
    "prefecture": "秋田県",
    "city": "由利本荘市",
    "town": "円正脇"
  },
  "0150857": {
    "zipcode": "0150857",
    "prefectureCode": "05",
    "prefectureNumber": 5,
    "prefecture": "秋田県",
    "city": "由利本荘市",
    "town": "寺後"
  },
  "0150858": {
    "zipcode": "0150858",
    "prefectureCode": "05",
    "prefectureNumber": 5,
    "prefecture": "秋田県",
    "city": "由利本荘市",
    "town": "西梵天"
  },
  "0150861": {
    "zipcode": "0150861",
    "prefectureCode": "05",
    "prefectureNumber": 5,
    "prefecture": "秋田県",
    "city": "由利本荘市",
    "town": "御門"
  },
  "0150862": {
    "zipcode": "0150862",
    "prefectureCode": "05",
    "prefectureNumber": 5,
    "prefecture": "秋田県",
    "city": "由利本荘市",
    "town": "小人町"
  },
  "0150863": {
    "zipcode": "0150863",
    "prefectureCode": "05",
    "prefectureNumber": 5,
    "prefecture": "秋田県",
    "city": "由利本荘市",
    "town": "不戻沢"
  },
  "0150864": {
    "zipcode": "0150864",
    "prefectureCode": "05",
    "prefectureNumber": 5,
    "prefecture": "秋田県",
    "city": "由利本荘市",
    "town": "大鍬町"
  },
  "0150865": {
    "zipcode": "0150865",
    "prefectureCode": "05",
    "prefectureNumber": 5,
    "prefecture": "秋田県",
    "city": "由利本荘市",
    "town": "西大鍬町"
  },
  "0150866": {
    "zipcode": "0150866",
    "prefectureCode": "05",
    "prefectureNumber": 5,
    "prefecture": "秋田県",
    "city": "由利本荘市",
    "town": "堤脇"
  },
  "0150867": {
    "zipcode": "0150867",
    "prefectureCode": "05",
    "prefectureNumber": 5,
    "prefecture": "秋田県",
    "city": "由利本荘市",
    "town": "千刈"
  },
  "0150868": {
    "zipcode": "0150868",
    "prefectureCode": "05",
    "prefectureNumber": 5,
    "prefecture": "秋田県",
    "city": "由利本荘市",
    "town": "大堤下"
  },
  "0150869": {
    "zipcode": "0150869",
    "prefectureCode": "05",
    "prefectureNumber": 5,
    "prefecture": "秋田県",
    "city": "由利本荘市",
    "town": "陳場岱"
  },
  "0150871": {
    "zipcode": "0150871",
    "prefectureCode": "05",
    "prefectureNumber": 5,
    "prefecture": "秋田県",
    "city": "由利本荘市",
    "town": "尾崎"
  },
  "0150872": {
    "zipcode": "0150872",
    "prefectureCode": "05",
    "prefectureNumber": 5,
    "prefecture": "秋田県",
    "city": "由利本荘市",
    "town": "瓦谷地"
  },
  "0150873": {
    "zipcode": "0150873",
    "prefectureCode": "05",
    "prefectureNumber": 5,
    "prefecture": "秋田県",
    "city": "由利本荘市",
    "town": "鶴沼"
  },
  "0150874": {
    "zipcode": "0150874",
    "prefectureCode": "05",
    "prefectureNumber": 5,
    "prefecture": "秋田県",
    "city": "由利本荘市",
    "town": "給人町"
  },
  "0150875": {
    "zipcode": "0150875",
    "prefectureCode": "05",
    "prefectureNumber": 5,
    "prefecture": "秋田県",
    "city": "由利本荘市",
    "town": "砂子下"
  },
  "0150876": {
    "zipcode": "0150876",
    "prefectureCode": "05",
    "prefectureNumber": 5,
    "prefecture": "秋田県",
    "city": "由利本荘市",
    "town": "井戸尻"
  },
  "0150877": {
    "zipcode": "0150877",
    "prefectureCode": "05",
    "prefectureNumber": 5,
    "prefecture": "秋田県",
    "city": "由利本荘市",
    "town": "濡浜北"
  },
  "0150878": {
    "zipcode": "0150878",
    "prefectureCode": "05",
    "prefectureNumber": 5,
    "prefecture": "秋田県",
    "city": "由利本荘市",
    "town": "観音森"
  },
  "0150881": {
    "zipcode": "0150881",
    "prefectureCode": "05",
    "prefectureNumber": 5,
    "prefecture": "秋田県",
    "city": "由利本荘市",
    "town": "切通"
  },
  "0150882": {
    "zipcode": "0150882",
    "prefectureCode": "05",
    "prefectureNumber": 5,
    "prefecture": "秋田県",
    "city": "由利本荘市",
    "town": "西小人町"
  },
  "0150883": {
    "zipcode": "0150883",
    "prefectureCode": "05",
    "prefectureNumber": 5,
    "prefecture": "秋田県",
    "city": "由利本荘市",
    "town": "下地ケ沢"
  },
  "0150884": {
    "zipcode": "0150884",
    "prefectureCode": "05",
    "prefectureNumber": 5,
    "prefecture": "秋田県",
    "city": "由利本荘市",
    "town": "狐森"
  },
  "0150885": {
    "zipcode": "0150885",
    "prefectureCode": "05",
    "prefectureNumber": 5,
    "prefecture": "秋田県",
    "city": "由利本荘市",
    "town": "水林"
  },
  "0150886": {
    "zipcode": "0150886",
    "prefectureCode": "05",
    "prefectureNumber": 5,
    "prefecture": "秋田県",
    "city": "由利本荘市",
    "town": "調練場"
  },
  "0150887": {
    "zipcode": "0150887",
    "prefectureCode": "05",
    "prefectureNumber": 5,
    "prefecture": "秋田県",
    "city": "由利本荘市",
    "town": "今野谷地"
  },
  "0150888": {
    "zipcode": "0150888",
    "prefectureCode": "05",
    "prefectureNumber": 5,
    "prefecture": "秋田県",
    "city": "由利本荘市",
    "town": "新組町"
  },
  "0150889": {
    "zipcode": "0150889",
    "prefectureCode": "05",
    "prefectureNumber": 5,
    "prefecture": "秋田県",
    "city": "由利本荘市",
    "town": "砂糖畑"
  },
  "0150890": {
    "zipcode": "0150890",
    "prefectureCode": "05",
    "prefectureNumber": 5,
    "prefecture": "秋田県",
    "city": "由利本荘市",
    "town": "船ケ台"
  },
  "0150891": {
    "zipcode": "0150891",
    "prefectureCode": "05",
    "prefectureNumber": 5,
    "prefecture": "秋田県",
    "city": "由利本荘市",
    "town": "小防ケ沢"
  },
  "0150892": {
    "zipcode": "0150892",
    "prefectureCode": "05",
    "prefectureNumber": 5,
    "prefecture": "秋田県",
    "city": "由利本荘市",
    "town": "蟻山"
  }
}
