{
  "0160000": {
    "zipcode": "0160000",
    "prefectureCode": "05",
    "prefectureNumber": 5,
    "prefecture": "秋田県",
    "city": "能代市",
    "town": "以下に掲載がない場合"
  },
  "0160001": {
    "zipcode": "0160001",
    "prefectureCode": "05",
    "prefectureNumber": 5,
    "prefecture": "秋田県",
    "city": "能代市",
    "town": "外荒巻"
  },
  "0160002": {
    "zipcode": "0160002",
    "prefectureCode": "05",
    "prefectureNumber": 5,
    "prefecture": "秋田県",
    "city": "能代市",
    "town": "朴瀬"
  },
  "0160003": {
    "zipcode": "0160003",
    "prefectureCode": "05",
    "prefectureNumber": 5,
    "prefecture": "秋田県",
    "city": "能代市",
    "town": "荷八田"
  },
  "0160004": {
    "zipcode": "0160004",
    "prefectureCode": "05",
    "prefectureNumber": 5,
    "prefecture": "秋田県",
    "city": "能代市",
    "town": "吹越"
  },
  "0160005": {
    "zipcode": "0160005",
    "prefectureCode": "05",
    "prefectureNumber": 5,
    "prefecture": "秋田県",
    "city": "能代市",
    "town": "真壁地"
  },
  "0160011": {
    "zipcode": "0160011",
    "prefectureCode": "05",
    "prefectureNumber": 5,
    "prefecture": "秋田県",
    "city": "能代市",
    "town": "坂形"
  },
  "0160012": {
    "zipcode": "0160012",
    "prefectureCode": "05",
    "prefectureNumber": 5,
    "prefecture": "秋田県",
    "city": "能代市",
    "town": "比八田"
  },
  "0160013": {
    "zipcode": "0160013",
    "prefectureCode": "05",
    "prefectureNumber": 5,
    "prefecture": "秋田県",
    "city": "能代市",
    "town": "向能代"
  },
  "0160014": {
    "zipcode": "0160014",
    "prefectureCode": "05",
    "prefectureNumber": 5,
    "prefecture": "秋田県",
    "city": "能代市",
    "town": "落合"
  },
  "0160015": {
    "zipcode": "0160015",
    "prefectureCode": "05",
    "prefectureNumber": 5,
    "prefecture": "秋田県",
    "city": "能代市",
    "town": "須田"
  },
  "0160016": {
    "zipcode": "0160016",
    "prefectureCode": "05",
    "prefectureNumber": 5,
    "prefecture": "秋田県",
    "city": "能代市",
    "town": "竹生"
  },
  "0160017": {
    "zipcode": "0160017",
    "prefectureCode": "05",
    "prefectureNumber": 5,
    "prefecture": "秋田県",
    "city": "能代市",
    "town": "磐"
  },
  "0160101": {
    "zipcode": "0160101",
    "prefectureCode": "05",
    "prefectureNumber": 5,
    "prefecture": "秋田県",
    "city": "能代市",
    "town": "中関"
  },
  "0160102": {
    "zipcode": "0160102",
    "prefectureCode": "05",
    "prefectureNumber": 5,
    "prefecture": "秋田県",
    "city": "能代市",
    "town": "一本木"
  },
  "0160103": {
    "zipcode": "0160103",
    "prefectureCode": "05",
    "prefectureNumber": 5,
    "prefecture": "秋田県",
    "city": "能代市",
    "town": "宮ノ前"
  },
  "0160104": {
    "zipcode": "0160104",
    "prefectureCode": "05",
    "prefectureNumber": 5,
    "prefecture": "秋田県",
    "city": "能代市",
    "town": "下関"
  },
  "0160111": {
    "zipcode": "0160111",
    "prefectureCode": "05",
    "prefectureNumber": 5,
    "prefecture": "秋田県",
    "city": "能代市",
    "town": "仁井田白山"
  },
  "0160112": {
    "zipcode": "0160112",
    "prefectureCode": "05",
    "prefectureNumber": 5,
    "prefecture": "秋田県",
    "city": "能代市",
    "town": "中嶋（その他）"
  },
  "0160113": {
    "zipcode": "0160113",
    "prefectureCode": "05",
    "prefectureNumber": 5,
    "prefecture": "秋田県",
    "city": "能代市",
    "town": "下悪戸"
  },
  "0160114": {
    "zipcode": "0160114",
    "prefectureCode": "05",
    "prefectureNumber": 5,
    "prefecture": "秋田県",
    "city": "能代市",
    "town": "中悪戸"
  },
  "0160115": {
    "zipcode": "0160115",
    "prefectureCode": "05",
    "prefectureNumber": 5,
    "prefecture": "秋田県",
    "city": "能代市",
    "town": "悪戸"
  },
  "0160116": {
    "zipcode": "0160116",
    "prefectureCode": "05",
    "prefectureNumber": 5,
    "prefecture": "秋田県",
    "city": "能代市",
    "town": "機織轌ノ目"
  },
  "0160121": {
    "zipcode": "0160121",
    "prefectureCode": "05",
    "prefectureNumber": 5,
    "prefecture": "秋田県",
    "city": "能代市",
    "town": "鰄渕"
  },
  "0160122": {
    "zipcode": "0160122",
    "prefectureCode": "05",
    "prefectureNumber": 5,
    "prefecture": "秋田県",
    "city": "能代市",
    "town": "扇田"
  },
  "0160123": {
    "zipcode": "0160123",
    "prefectureCode": "05",
    "prefectureNumber": 5,
    "prefecture": "秋田県",
    "city": "能代市",
    "town": "田床内"
  },
  "0160131": {
    "zipcode": "0160131",
    "prefectureCode": "05",
    "prefectureNumber": 5,
    "prefecture": "秋田県",
    "city": "能代市",
    "town": "鶴形"
  },
  "0160132": {
    "zipcode": "0160132",
    "prefectureCode": "05",
    "prefectureNumber": 5,
    "prefecture": "秋田県",
    "city": "能代市",
    "town": "町後"
  },
  "0160133": {
    "zipcode": "0160133",
    "prefectureCode": "05",
    "prefectureNumber": 5,
    "prefecture": "秋田県",
    "city": "能代市",
    "town": "向田表"
  },
  "0160134": {
    "zipcode": "0160134",
    "prefectureCode": "05",
    "prefectureNumber": 5,
    "prefecture": "秋田県",
    "city": "能代市",
    "town": "戸草沢"
  },
  "0160135": {
    "zipcode": "0160135",
    "prefectureCode": "05",
    "prefectureNumber": 5,
    "prefecture": "秋田県",
    "city": "能代市",
    "town": "姥懐"
  },
  "0160136": {
    "zipcode": "0160136",
    "prefectureCode": "05",
    "prefectureNumber": 5,
    "prefecture": "秋田県",
    "city": "能代市",
    "town": "鵜鳥"
  },
  "0160137": {
    "zipcode": "0160137",
    "prefectureCode": "05",
    "prefectureNumber": 5,
    "prefecture": "秋田県",
    "city": "能代市",
    "town": "鵜鳥悪戸"
  },
  "0160138": {
    "zipcode": "0160138",
    "prefectureCode": "05",
    "prefectureNumber": 5,
    "prefecture": "秋田県",
    "city": "能代市",
    "town": "鵜鳥川原"
  },
  "0160139": {
    "zipcode": "0160139",
    "prefectureCode": "05",
    "prefectureNumber": 5,
    "prefecture": "秋田県",
    "city": "能代市",
    "town": "谷地上"
  },
  "0160141": {
    "zipcode": "0160141",
    "prefectureCode": "05",
    "prefectureNumber": 5,
    "prefecture": "秋田県",
    "city": "能代市",
    "town": "鵜ノ沢"
  },
  "0160142": {
    "zipcode": "0160142",
    "prefectureCode": "05",
    "prefectureNumber": 5,
    "prefecture": "秋田県",
    "city": "能代市",
    "town": "半戸沢"
  },
  "0160143": {
    "zipcode": "0160143",
    "prefectureCode": "05",
    "prefectureNumber": 5,
    "prefecture": "秋田県",
    "city": "能代市",
    "town": "上ノ山"
  },
  "0160144": {
    "zipcode": "0160144",
    "prefectureCode": "05",
    "prefectureNumber": 5,
    "prefecture": "秋田県",
    "city": "能代市",
    "town": "上ノ山台"
  },
  "0160145": {
    "zipcode": "0160145",
    "prefectureCode": "05",
    "prefectureNumber": 5,
    "prefecture": "秋田県",
    "city": "能代市",
    "town": "若田"
  },
  "0160146": {
    "zipcode": "0160146",
    "prefectureCode": "05",
    "prefectureNumber": 5,
    "prefecture": "秋田県",
    "city": "能代市",
    "town": "外堤"
  },
  "0160147": {
    "zipcode": "0160147",
    "prefectureCode": "05",
    "prefectureNumber": 5,
    "prefecture": "秋田県",
    "city": "能代市",
    "town": "鳥矢場"
  },
  "0160148": {
    "zipcode": "0160148",
    "prefectureCode": "05",
    "prefectureNumber": 5,
    "prefecture": "秋田県",
    "city": "能代市",
    "town": "冷清水"
  },
  "0160149": {
    "zipcode": "0160149",
    "prefectureCode": "05",
    "prefectureNumber": 5,
    "prefecture": "秋田県",
    "city": "能代市",
    "town": "田中谷地"
  },
  "0160151": {
    "zipcode": "0160151",
    "prefectureCode": "05",
    "prefectureNumber": 5,
    "prefecture": "秋田県",
    "city": "能代市",
    "town": "檜山"
  },
  "0160152": {
    "zipcode": "0160152",
    "prefectureCode": "05",
    "prefectureNumber": 5,
    "prefecture": "秋田県",
    "city": "能代市",
    "town": "母体"
  },
  "0160153": {
    "zipcode": "0160153",
    "prefectureCode": "05",
    "prefectureNumber": 5,
    "prefecture": "秋田県",
    "city": "能代市",
    "town": "上関"
  },
  "0160154": {
    "zipcode": "0160154",
    "prefectureCode": "05",
    "prefectureNumber": 5,
    "prefecture": "秋田県",
    "city": "能代市",
    "town": "上谷地"
  },
  "0160155": {
    "zipcode": "0160155",
    "prefectureCode": "05",
    "prefectureNumber": 5,
    "prefecture": "秋田県",
    "city": "能代市",
    "town": "大森"
  },
  "0160156": {
    "zipcode": "0160156",
    "prefectureCode": "05",
    "prefectureNumber": 5,
    "prefecture": "秋田県",
    "city": "能代市",
    "town": "中沢"
  },
  "0160157": {
    "zipcode": "0160157",
    "prefectureCode": "05",
    "prefectureNumber": 5,
    "prefecture": "秋田県",
    "city": "能代市",
    "town": "腹鞁ノ沢"
  },
  "0160161": {
    "zipcode": "0160161",
    "prefectureCode": "05",
    "prefectureNumber": 5,
    "prefecture": "秋田県",
    "city": "能代市",
    "town": "松長布"
  },
  "0160162": {
    "zipcode": "0160162",
    "prefectureCode": "05",
    "prefectureNumber": 5,
    "prefecture": "秋田県",
    "city": "能代市",
    "town": "大内田"
  },
  "0160163": {
    "zipcode": "0160163",
    "prefectureCode": "05",
    "prefectureNumber": 5,
    "prefecture": "秋田県",
    "city": "能代市",
    "town": "袖又"
  },
  "0160164": {
    "zipcode": "0160164",
    "prefectureCode": "05",
    "prefectureNumber": 5,
    "prefecture": "秋田県",
    "city": "能代市",
    "town": "大塚"
  },
  "0160165": {
    "zipcode": "0160165",
    "prefectureCode": "05",
    "prefectureNumber": 5,
    "prefecture": "秋田県",
    "city": "能代市",
    "town": "田屋"
  },
  "0160166": {
    "zipcode": "0160166",
    "prefectureCode": "05",
    "prefectureNumber": 5,
    "prefecture": "秋田県",
    "city": "能代市",
    "town": "柏子所"
  },
  "0160167": {
    "zipcode": "0160167",
    "prefectureCode": "05",
    "prefectureNumber": 5,
    "prefecture": "秋田県",
    "city": "能代市",
    "town": "塩干田前"
  },
  "0160168": {
    "zipcode": "0160168",
    "prefectureCode": "05",
    "prefectureNumber": 5,
    "prefecture": "秋田県",
    "city": "能代市",
    "town": "十洲崎"
  },
  "0160169": {
    "zipcode": "0160169",
    "prefectureCode": "05",
    "prefectureNumber": 5,
    "prefecture": "秋田県",
    "city": "能代市",
    "town": "坊ケ崎"
  },
  "0160171": {
    "zipcode": "0160171",
    "prefectureCode": "05",
    "prefectureNumber": 5,
    "prefecture": "秋田県",
    "city": "能代市",
    "town": "河戸川"
  },
  "0160172": {
    "zipcode": "0160172",
    "prefectureCode": "05",
    "prefectureNumber": 5,
    "prefecture": "秋田県",
    "city": "能代市",
    "town": "上古川布"
  },
  "0160173": {
    "zipcode": "0160173",
    "prefectureCode": "05",
    "prefectureNumber": 5,
    "prefecture": "秋田県",
    "city": "能代市",
    "town": "下古川布"
  },
  "0160174": {
    "zipcode": "0160174",
    "prefectureCode": "05",
    "prefectureNumber": 5,
    "prefecture": "秋田県",
    "city": "能代市",
    "town": "新山前"
  },
  "0160175": {
    "zipcode": "0160175",
    "prefectureCode": "05",
    "prefectureNumber": 5,
    "prefecture": "秋田県",
    "city": "能代市",
    "town": "古屋布"
  },
  "0160176": {
    "zipcode": "0160176",
    "prefectureCode": "05",
    "prefectureNumber": 5,
    "prefecture": "秋田県",
    "city": "能代市",
    "town": "戸川向"
  },
  "0160177": {
    "zipcode": "0160177",
    "prefectureCode": "05",
    "prefectureNumber": 5,
    "prefecture": "秋田県",
    "city": "能代市",
    "town": "権現台"
  },
  "0160178": {
    "zipcode": "0160178",
    "prefectureCode": "05",
    "prefectureNumber": 5,
    "prefecture": "秋田県",
    "city": "能代市",
    "town": "九郎左衛門笹台"
  },
  "0160179": {
    "zipcode": "0160179",
    "prefectureCode": "05",
    "prefectureNumber": 5,
    "prefecture": "秋田県",
    "city": "能代市",
    "town": "浅内"
  },
  "0160181": {
    "zipcode": "0160181",
    "prefectureCode": "05",
    "prefectureNumber": 5,
    "prefecture": "秋田県",
    "city": "能代市",
    "town": "大瀬儘下"
  },
  "0160182": {
    "zipcode": "0160182",
    "prefectureCode": "05",
    "prefectureNumber": 5,
    "prefecture": "秋田県",
    "city": "能代市",
    "town": "上柳"
  },
  "0160183": {
    "zipcode": "0160183",
    "prefectureCode": "05",
    "prefectureNumber": 5,
    "prefecture": "秋田県",
    "city": "能代市",
    "town": "中柳"
  },
  "0160184": {
    "zipcode": "0160184",
    "prefectureCode": "05",
    "prefectureNumber": 5,
    "prefecture": "秋田県",
    "city": "能代市",
    "town": "高塙"
  },
  "0160185": {
    "zipcode": "0160185",
    "prefectureCode": "05",
    "prefectureNumber": 5,
    "prefecture": "秋田県",
    "city": "能代市",
    "town": "下瀬"
  },
  "0160186": {
    "zipcode": "0160186",
    "prefectureCode": "05",
    "prefectureNumber": 5,
    "prefecture": "秋田県",
    "city": "能代市",
    "town": "下野"
  },
  "0160187": {
    "zipcode": "0160187",
    "prefectureCode": "05",
    "prefectureNumber": 5,
    "prefecture": "秋田県",
    "city": "能代市",
    "town": "下柳"
  },
  "0160188": {
    "zipcode": "0160188",
    "prefectureCode": "05",
    "prefectureNumber": 5,
    "prefecture": "秋田県",
    "city": "能代市",
    "town": "寺向"
  },
  "0160801": {
    "zipcode": "0160801",
    "prefectureCode": "05",
    "prefectureNumber": 5,
    "prefecture": "秋田県",
    "city": "能代市",
    "town": "浜通町"
  },
  "0160802": {
    "zipcode": "0160802",
    "prefectureCode": "05",
    "prefectureNumber": 5,
    "prefecture": "秋田県",
    "city": "能代市",
    "town": "川反町"
  },
  "0160803": {
    "zipcode": "0160803",
    "prefectureCode": "05",
    "prefectureNumber": 5,
    "prefecture": "秋田県",
    "city": "能代市",
    "town": "大町"
  },
  "0160804": {
    "zipcode": "0160804",
    "prefectureCode": "05",
    "prefectureNumber": 5,
    "prefecture": "秋田県",
    "city": "能代市",
    "town": "万町"
  },
  "0160805": {
    "zipcode": "0160805",
    "prefectureCode": "05",
    "prefectureNumber": 5,
    "prefecture": "秋田県",
    "city": "能代市",
    "town": "大手町"
  },
  "0160806": {
    "zipcode": "0160806",
    "prefectureCode": "05",
    "prefectureNumber": 5,
    "prefecture": "秋田県",
    "city": "能代市",
    "town": "清助町"
  },
  "0160807": {
    "zipcode": "0160807",
    "prefectureCode": "05",
    "prefectureNumber": 5,
    "prefecture": "秋田県",
    "city": "能代市",
    "town": "大森山"
  },
  "0160808": {
    "zipcode": "0160808",
    "prefectureCode": "05",
    "prefectureNumber": 5,
    "prefecture": "秋田県",
    "city": "能代市",
    "town": "日和山下"
  },
  "0160811": {
    "zipcode": "0160811",
    "prefectureCode": "05",
    "prefectureNumber": 5,
    "prefecture": "秋田県",
    "city": "能代市",
    "town": "日吉町"
  },
  "0160812": {
    "zipcode": "0160812",
    "prefectureCode": "05",
    "prefectureNumber": 5,
    "prefecture": "秋田県",
    "city": "能代市",
    "town": "中嶋（１−９７〜１１６）"
  },
  "0160813": {
    "zipcode": "0160813",
    "prefectureCode": "05",
    "prefectureNumber": 5,
    "prefecture": "秋田県",
    "city": "能代市",
    "town": "能代町"
  },
  "0160814": {
    "zipcode": "0160814",
    "prefectureCode": "05",
    "prefectureNumber": 5,
    "prefecture": "秋田県",
    "city": "能代市",
    "town": "中川原"
  },
  "0160815": {
    "zipcode": "0160815",
    "prefectureCode": "05",
    "prefectureNumber": 5,
    "prefecture": "秋田県",
    "city": "能代市",
    "town": "御指南町"
  },
  "0160816": {
    "zipcode": "0160816",
    "prefectureCode": "05",
    "prefectureNumber": 5,
    "prefecture": "秋田県",
    "city": "能代市",
    "town": "富町"
  },
  "0160817": {
    "zipcode": "0160817",
    "prefectureCode": "05",
    "prefectureNumber": 5,
    "prefecture": "秋田県",
    "city": "能代市",
    "town": "上町"
  },
  "0160821": {
    "zipcode": "0160821",
    "prefectureCode": "05",
    "prefectureNumber": 5,
    "prefecture": "秋田県",
    "city": "能代市",
    "town": "畠町"
  },
  "0160822": {
    "zipcode": "0160822",
    "prefectureCode": "05",
    "prefectureNumber": 5,
    "prefecture": "秋田県",
    "city": "能代市",
    "town": "東町"
  },
  "0160823": {
    "zipcode": "0160823",
    "prefectureCode": "05",
    "prefectureNumber": 5,
    "prefecture": "秋田県",
    "city": "能代市",
    "town": "若松町"
  },
  "0160824": {
    "zipcode": "0160824",
    "prefectureCode": "05",
    "prefectureNumber": 5,
    "prefecture": "秋田県",
    "city": "能代市",
    "town": "住吉町"
  },
  "0160825": {
    "zipcode": "0160825",
    "prefectureCode": "05",
    "prefectureNumber": 5,
    "prefecture": "秋田県",
    "city": "能代市",
    "town": "柳町"
  },
  "0160831": {
    "zipcode": "0160831",
    "prefectureCode": "05",
    "prefectureNumber": 5,
    "prefecture": "秋田県",
    "city": "能代市",
    "town": "元町"
  },
  "0160832": {
    "zipcode": "0160832",
    "prefectureCode": "05",
    "prefectureNumber": 5,
    "prefecture": "秋田県",
    "city": "能代市",
    "town": "南元町"
  },
  "0160833": {
    "zipcode": "0160833",
    "prefectureCode": "05",
    "prefectureNumber": 5,
    "prefecture": "秋田県",
    "city": "能代市",
    "town": "明治町"
  },
  "0160834": {
    "zipcode": "0160834",
    "prefectureCode": "05",
    "prefectureNumber": 5,
    "prefecture": "秋田県",
    "city": "能代市",
    "town": "下内崎"
  },
  "0160835": {
    "zipcode": "0160835",
    "prefectureCode": "05",
    "prefectureNumber": 5,
    "prefecture": "秋田県",
    "city": "能代市",
    "town": "赤沼"
  },
  "0160836": {
    "zipcode": "0160836",
    "prefectureCode": "05",
    "prefectureNumber": 5,
    "prefecture": "秋田県",
    "city": "能代市",
    "town": "東赤沼"
  },
  "0160837": {
    "zipcode": "0160837",
    "prefectureCode": "05",
    "prefectureNumber": 5,
    "prefecture": "秋田県",
    "city": "能代市",
    "town": "西赤沼"
  },
  "0160838": {
    "zipcode": "0160838",
    "prefectureCode": "05",
    "prefectureNumber": 5,
    "prefecture": "秋田県",
    "city": "能代市",
    "town": "養蚕脇"
  },
  "0160839": {
    "zipcode": "0160839",
    "prefectureCode": "05",
    "prefectureNumber": 5,
    "prefecture": "秋田県",
    "city": "能代市",
    "town": "東大瀬"
  },
  "0160841": {
    "zipcode": "0160841",
    "prefectureCode": "05",
    "prefectureNumber": 5,
    "prefecture": "秋田県",
    "city": "能代市",
    "town": "養蚕"
  },
  "0160842": {
    "zipcode": "0160842",
    "prefectureCode": "05",
    "prefectureNumber": 5,
    "prefecture": "秋田県",
    "city": "能代市",
    "town": "追分町"
  },
  "0160843": {
    "zipcode": "0160843",
    "prefectureCode": "05",
    "prefectureNumber": 5,
    "prefecture": "秋田県",
    "city": "能代市",
    "town": "中和"
  },
  "0160844": {
    "zipcode": "0160844",
    "prefectureCode": "05",
    "prefectureNumber": 5,
    "prefecture": "秋田県",
    "city": "能代市",
    "town": "花園町"
  },
  "0160845": {
    "zipcode": "0160845",
    "prefectureCode": "05",
    "prefectureNumber": 5,
    "prefecture": "秋田県",
    "city": "能代市",
    "town": "通町"
  },
  "0160846": {
    "zipcode": "0160846",
    "prefectureCode": "05",
    "prefectureNumber": 5,
    "prefecture": "秋田県",
    "city": "能代市",
    "town": "栄町"
  },
  "0160851": {
    "zipcode": "0160851",
    "prefectureCode": "05",
    "prefectureNumber": 5,
    "prefecture": "秋田県",
    "city": "能代市",
    "town": "緑町"
  },
  "0160852": {
    "zipcode": "0160852",
    "prefectureCode": "05",
    "prefectureNumber": 5,
    "prefecture": "秋田県",
    "city": "能代市",
    "town": "出戸本町"
  },
  "0160853": {
    "zipcode": "0160853",
    "prefectureCode": "05",
    "prefectureNumber": 5,
    "prefecture": "秋田県",
    "city": "能代市",
    "town": "出戸後"
  },
  "0160854": {
    "zipcode": "0160854",
    "prefectureCode": "05",
    "prefectureNumber": 5,
    "prefecture": "秋田県",
    "city": "能代市",
    "town": "豊祥岱"
  },
  "0160855": {
    "zipcode": "0160855",
    "prefectureCode": "05",
    "prefectureNumber": 5,
    "prefecture": "秋田県",
    "city": "能代市",
    "town": "西大瀬"
  },
  "0160856": {
    "zipcode": "0160856",
    "prefectureCode": "05",
    "prefectureNumber": 5,
    "prefecture": "秋田県",
    "city": "能代市",
    "town": "藤山"
  },
  "0160857": {
    "zipcode": "0160857",
    "prefectureCode": "05",
    "prefectureNumber": 5,
    "prefecture": "秋田県",
    "city": "能代市",
    "town": "田子向"
  },
  "0160861": {
    "zipcode": "0160861",
    "prefectureCode": "05",
    "prefectureNumber": 5,
    "prefecture": "秋田県",
    "city": "能代市",
    "town": "彩霞長根"
  },
  "0160862": {
    "zipcode": "0160862",
    "prefectureCode": "05",
    "prefectureNumber": 5,
    "prefecture": "秋田県",
    "city": "能代市",
    "town": "寿域長根"
  },
  "0160863": {
    "zipcode": "0160863",
    "prefectureCode": "05",
    "prefectureNumber": 5,
    "prefecture": "秋田県",
    "city": "能代市",
    "town": "後谷地"
  },
  "0160864": {
    "zipcode": "0160864",
    "prefectureCode": "05",
    "prefectureNumber": 5,
    "prefecture": "秋田県",
    "city": "能代市",
    "town": "鳥小屋"
  },
  "0160865": {
    "zipcode": "0160865",
    "prefectureCode": "05",
    "prefectureNumber": 5,
    "prefecture": "秋田県",
    "city": "能代市",
    "town": "青葉町"
  },
  "0160871": {
    "zipcode": "0160871",
    "prefectureCode": "05",
    "prefectureNumber": 5,
    "prefecture": "秋田県",
    "city": "能代市",
    "town": "昇平岱"
  },
  "0160872": {
    "zipcode": "0160872",
    "prefectureCode": "05",
    "prefectureNumber": 5,
    "prefecture": "秋田県",
    "city": "能代市",
    "town": "芝童森"
  },
  "0160873": {
    "zipcode": "0160873",
    "prefectureCode": "05",
    "prefectureNumber": 5,
    "prefecture": "秋田県",
    "city": "能代市",
    "town": "長崎"
  },
  "0160874": {
    "zipcode": "0160874",
    "prefectureCode": "05",
    "prefectureNumber": 5,
    "prefecture": "秋田県",
    "city": "能代市",
    "town": "沼ノ上"
  },
  "0160875": {
    "zipcode": "0160875",
    "prefectureCode": "05",
    "prefectureNumber": 5,
    "prefecture": "秋田県",
    "city": "能代市",
    "town": "南陽崎"
  },
  "0160876": {
    "zipcode": "0160876",
    "prefectureCode": "05",
    "prefectureNumber": 5,
    "prefecture": "秋田県",
    "city": "能代市",
    "town": "海詠坂"
  },
  "0160877": {
    "zipcode": "0160877",
    "prefectureCode": "05",
    "prefectureNumber": 5,
    "prefecture": "秋田県",
    "city": "能代市",
    "town": "仙遊長根"
  },
  "0160878": {
    "zipcode": "0160878",
    "prefectureCode": "05",
    "prefectureNumber": 5,
    "prefecture": "秋田県",
    "city": "能代市",
    "town": "臥竜山"
  },
  "0160879": {
    "zipcode": "0160879",
    "prefectureCode": "05",
    "prefectureNumber": 5,
    "prefecture": "秋田県",
    "city": "能代市",
    "town": "不老岱"
  },
  "0160881": {
    "zipcode": "0160881",
    "prefectureCode": "05",
    "prefectureNumber": 5,
    "prefecture": "秋田県",
    "city": "能代市",
    "town": "砂留山"
  },
  "0160882": {
    "zipcode": "0160882",
    "prefectureCode": "05",
    "prefectureNumber": 5,
    "prefecture": "秋田県",
    "city": "能代市",
    "town": "鳳凰岱"
  },
  "0160883": {
    "zipcode": "0160883",
    "prefectureCode": "05",
    "prefectureNumber": 5,
    "prefecture": "秋田県",
    "city": "能代市",
    "town": "五雲岱"
  },
  "0160884": {
    "zipcode": "0160884",
    "prefectureCode": "05",
    "prefectureNumber": 5,
    "prefecture": "秋田県",
    "city": "能代市",
    "town": "卸町"
  },
  "0160891": {
    "zipcode": "0160891",
    "prefectureCode": "05",
    "prefectureNumber": 5,
    "prefecture": "秋田県",
    "city": "能代市",
    "town": "西通町"
  },
  "0160892": {
    "zipcode": "0160892",
    "prefectureCode": "05",
    "prefectureNumber": 5,
    "prefecture": "秋田県",
    "city": "能代市",
    "town": "景林町"
  },
  "0160893": {
    "zipcode": "0160893",
    "prefectureCode": "05",
    "prefectureNumber": 5,
    "prefecture": "秋田県",
    "city": "能代市",
    "town": "松美町"
  },
  "0160894": {
    "zipcode": "0160894",
    "prefectureCode": "05",
    "prefectureNumber": 5,
    "prefecture": "秋田県",
    "city": "能代市",
    "town": "萩の台"
  },
  "0160895": {
    "zipcode": "0160895",
    "prefectureCode": "05",
    "prefectureNumber": 5,
    "prefecture": "秋田県",
    "city": "能代市",
    "town": "末広町"
  },
  "0160896": {
    "zipcode": "0160896",
    "prefectureCode": "05",
    "prefectureNumber": 5,
    "prefecture": "秋田県",
    "city": "能代市",
    "town": "盤若町"
  },
  "0160897": {
    "zipcode": "0160897",
    "prefectureCode": "05",
    "prefectureNumber": 5,
    "prefecture": "秋田県",
    "city": "能代市",
    "town": "昭南町"
  }
}
