{
  "0180101": {
    "zipcode": "0180101",
    "prefectureCode": "05",
    "prefectureNumber": 5,
    "prefecture": "秋田県",
    "city": "にかほ市",
    "town": "象潟町浜山"
  },
  "0180102": {
    "zipcode": "0180102",
    "prefectureCode": "05",
    "prefectureNumber": 5,
    "prefecture": "秋田県",
    "city": "にかほ市",
    "town": "象潟町木戸口"
  },
  "0180103": {
    "zipcode": "0180103",
    "prefectureCode": "05",
    "prefectureNumber": 5,
    "prefecture": "秋田県",
    "city": "にかほ市",
    "town": "象潟町上狐森"
  },
  "0180104": {
    "zipcode": "0180104",
    "prefectureCode": "05",
    "prefectureNumber": 5,
    "prefecture": "秋田県",
    "city": "にかほ市",
    "town": "象潟町狐森"
  },
  "0180105": {
    "zipcode": "0180105",
    "prefectureCode": "05",
    "prefectureNumber": 5,
    "prefecture": "秋田県",
    "city": "にかほ市",
    "town": "象潟町荒屋妻"
  },
  "0180106": {
    "zipcode": "0180106",
    "prefectureCode": "05",
    "prefectureNumber": 5,
    "prefecture": "秋田県",
    "city": "にかほ市",
    "town": "象潟町５丁目塩越"
  },
  "0180107": {
    "zipcode": "0180107",
    "prefectureCode": "05",
    "prefectureNumber": 5,
    "prefecture": "秋田県",
    "city": "にかほ市",
    "town": "象潟町荒屋下"
  },
  "0180108": {
    "zipcode": "0180108",
    "prefectureCode": "05",
    "prefectureNumber": 5,
    "prefecture": "秋田県",
    "city": "にかほ市",
    "town": "象潟町入湖の澗"
  },
  "0180109": {
    "zipcode": "0180109",
    "prefectureCode": "05",
    "prefectureNumber": 5,
    "prefecture": "秋田県",
    "city": "にかほ市",
    "town": "象潟町冠石下"
  },
  "0180111": {
    "zipcode": "0180111",
    "prefectureCode": "05",
    "prefectureNumber": 5,
    "prefecture": "秋田県",
    "city": "にかほ市",
    "town": "象潟町武道島"
  },
  "0180112": {
    "zipcode": "0180112",
    "prefectureCode": "05",
    "prefectureNumber": 5,
    "prefecture": "秋田県",
    "city": "にかほ市",
    "town": "象潟町家の後"
  },
  "0180113": {
    "zipcode": "0180113",
    "prefectureCode": "05",
    "prefectureNumber": 5,
    "prefecture": "秋田県",
    "city": "にかほ市",
    "town": "象潟町浜の田"
  },
  "0180114": {
    "zipcode": "0180114",
    "prefectureCode": "05",
    "prefectureNumber": 5,
    "prefecture": "秋田県",
    "city": "にかほ市",
    "town": "象潟町沖の田"
  },
  "0180115": {
    "zipcode": "0180115",
    "prefectureCode": "05",
    "prefectureNumber": 5,
    "prefecture": "秋田県",
    "city": "にかほ市",
    "town": "象潟町後田"
  },
  "0180116": {
    "zipcode": "0180116",
    "prefectureCode": "05",
    "prefectureNumber": 5,
    "prefecture": "秋田県",
    "city": "にかほ市",
    "town": "象潟町４丁目塩越"
  },
  "0180117": {
    "zipcode": "0180117",
    "prefectureCode": "05",
    "prefectureNumber": 5,
    "prefecture": "秋田県",
    "city": "にかほ市",
    "town": "象潟町浜畑"
  },
  "0180118": {
    "zipcode": "0180118",
    "prefectureCode": "05",
    "prefectureNumber": 5,
    "prefecture": "秋田県",
    "city": "にかほ市",
    "town": "象潟町２丁目塩越"
  },
  "0180119": {
    "zipcode": "0180119",
    "prefectureCode": "05",
    "prefectureNumber": 5,
    "prefecture": "秋田県",
    "city": "にかほ市",
    "town": "象潟町３丁目塩越"
  },
  "0180121": {
    "zipcode": "0180121",
    "prefectureCode": "05",
    "prefectureNumber": 5,
    "prefecture": "秋田県",
    "city": "にかほ市",
    "town": "象潟町大塩越"
  },
  "0180122": {
    "zipcode": "0180122",
    "prefectureCode": "05",
    "prefectureNumber": 5,
    "prefecture": "秋田県",
    "city": "にかほ市",
    "town": "象潟町象潟島"
  },
  "0180123": {
    "zipcode": "0180123",
    "prefectureCode": "05",
    "prefectureNumber": 5,
    "prefecture": "秋田県",
    "city": "にかほ市",
    "town": "象潟町妙見下"
  },
  "0180124": {
    "zipcode": "0180124",
    "prefectureCode": "05",
    "prefectureNumber": 5,
    "prefecture": "秋田県",
    "city": "にかほ市",
    "town": "象潟町入道島"
  },
  "0180125": {
    "zipcode": "0180125",
    "prefectureCode": "05",
    "prefectureNumber": 5,
    "prefecture": "秋田県",
    "city": "にかほ市",
    "town": "象潟町二の丸"
  },
  "0180126": {
    "zipcode": "0180126",
    "prefectureCode": "05",
    "prefectureNumber": 5,
    "prefecture": "秋田県",
    "city": "にかほ市",
    "town": "象潟町１丁目塩越"
  },
  "0180127": {
    "zipcode": "0180127",
    "prefectureCode": "05",
    "prefectureNumber": 5,
    "prefecture": "秋田県",
    "city": "にかほ市",
    "town": "象潟町中橋町"
  },
  "0180128": {
    "zipcode": "0180128",
    "prefectureCode": "05",
    "prefectureNumber": 5,
    "prefecture": "秋田県",
    "city": "にかほ市",
    "town": "象潟町太郎島"
  },
  "0180129": {
    "zipcode": "0180129",
    "prefectureCode": "05",
    "prefectureNumber": 5,
    "prefecture": "秋田県",
    "city": "にかほ市",
    "town": "象潟町才の神"
  },
  "0180131": {
    "zipcode": "0180131",
    "prefectureCode": "05",
    "prefectureNumber": 5,
    "prefecture": "秋田県",
    "city": "にかほ市",
    "town": "象潟町大谷地"
  },
  "0180132": {
    "zipcode": "0180132",
    "prefectureCode": "05",
    "prefectureNumber": 5,
    "prefecture": "秋田県",
    "city": "にかほ市",
    "town": "象潟町鳥の海"
  },
  "0180133": {
    "zipcode": "0180133",
    "prefectureCode": "05",
    "prefectureNumber": 5,
    "prefecture": "秋田県",
    "city": "にかほ市",
    "town": "象潟町関"
  },
  "0180134": {
    "zipcode": "0180134",
    "prefectureCode": "05",
    "prefectureNumber": 5,
    "prefecture": "秋田県",
    "city": "にかほ市",
    "town": "象潟町西中野沢"
  },
  "0180135": {
    "zipcode": "0180135",
    "prefectureCode": "05",
    "prefectureNumber": 5,
    "prefecture": "秋田県",
    "city": "にかほ市",
    "town": "象潟町洗釜"
  },
  "0180136": {
    "zipcode": "0180136",
    "prefectureCode": "05",
    "prefectureNumber": 5,
    "prefecture": "秋田県",
    "city": "にかほ市",
    "town": "象潟町大砂川"
  },
  "0180141": {
    "zipcode": "0180141",
    "prefectureCode": "05",
    "prefectureNumber": 5,
    "prefecture": "秋田県",
    "city": "にかほ市",
    "town": "象潟町川袋"
  },
  "0180142": {
    "zipcode": "0180142",
    "prefectureCode": "05",
    "prefectureNumber": 5,
    "prefecture": "秋田県",
    "city": "にかほ市",
    "town": "象潟町大須郷"
  },
  "0180143": {
    "zipcode": "0180143",
    "prefectureCode": "05",
    "prefectureNumber": 5,
    "prefecture": "秋田県",
    "city": "にかほ市",
    "town": "象潟町小砂川"
  },
  "0180144": {
    "zipcode": "0180144",
    "prefectureCode": "05",
    "prefectureNumber": 5,
    "prefecture": "秋田県",
    "city": "にかほ市",
    "town": "象潟町中谷地"
  },
  "0180145": {
    "zipcode": "0180145",
    "prefectureCode": "05",
    "prefectureNumber": 5,
    "prefecture": "秋田県",
    "city": "にかほ市",
    "town": "象潟町源蔵潟"
  },
  "0180146": {
    "zipcode": "0180146",
    "prefectureCode": "05",
    "prefectureNumber": 5,
    "prefecture": "秋田県",
    "city": "にかほ市",
    "town": "象潟町蒲谷地"
  },
  "0180147": {
    "zipcode": "0180147",
    "prefectureCode": "05",
    "prefectureNumber": 5,
    "prefecture": "秋田県",
    "city": "にかほ市",
    "town": "象潟町立石"
  },
  "0180148": {
    "zipcode": "0180148",
    "prefectureCode": "05",
    "prefectureNumber": 5,
    "prefecture": "秋田県",
    "city": "にかほ市",
    "town": "象潟町下浜山"
  },
  "0180149": {
    "zipcode": "0180149",
    "prefectureCode": "05",
    "prefectureNumber": 5,
    "prefecture": "秋田県",
    "city": "にかほ市",
    "town": "象潟町上谷地"
  },
  "0180151": {
    "zipcode": "0180151",
    "prefectureCode": "05",
    "prefectureNumber": 5,
    "prefecture": "秋田県",
    "city": "にかほ市",
    "town": "象潟町横岡"
  },
  "0180152": {
    "zipcode": "0180152",
    "prefectureCode": "05",
    "prefectureNumber": 5,
    "prefecture": "秋田県",
    "city": "にかほ市",
    "town": "象潟町本郷"
  },
  "0180153": {
    "zipcode": "0180153",
    "prefectureCode": "05",
    "prefectureNumber": 5,
    "prefecture": "秋田県",
    "city": "にかほ市",
    "town": "象潟町小滝"
  },
  "0180154": {
    "zipcode": "0180154",
    "prefectureCode": "05",
    "prefectureNumber": 5,
    "prefecture": "秋田県",
    "city": "にかほ市",
    "town": "象潟町二階谷地"
  },
  "0180155": {
    "zipcode": "0180155",
    "prefectureCode": "05",
    "prefectureNumber": 5,
    "prefecture": "秋田県",
    "city": "にかほ市",
    "town": "象潟町弁天島"
  },
  "0180156": {
    "zipcode": "0180156",
    "prefectureCode": "05",
    "prefectureNumber": 5,
    "prefecture": "秋田県",
    "city": "にかほ市",
    "town": "象潟町大門先"
  },
  "0180157": {
    "zipcode": "0180157",
    "prefectureCode": "05",
    "prefectureNumber": 5,
    "prefecture": "秋田県",
    "city": "にかほ市",
    "town": "象潟町鷹放"
  },
  "0180158": {
    "zipcode": "0180158",
    "prefectureCode": "05",
    "prefectureNumber": 5,
    "prefecture": "秋田県",
    "city": "にかほ市",
    "town": "象潟町琴和喜"
  },
  "0180161": {
    "zipcode": "0180161",
    "prefectureCode": "05",
    "prefectureNumber": 5,
    "prefecture": "秋田県",
    "city": "にかほ市",
    "town": "象潟町大飯郷"
  },
  "0180162": {
    "zipcode": "0180162",
    "prefectureCode": "05",
    "prefectureNumber": 5,
    "prefecture": "秋田県",
    "city": "にかほ市",
    "town": "象潟町大森"
  },
  "0180163": {
    "zipcode": "0180163",
    "prefectureCode": "05",
    "prefectureNumber": 5,
    "prefecture": "秋田県",
    "city": "にかほ市",
    "town": "象潟町長岡"
  },
  "0180164": {
    "zipcode": "0180164",
    "prefectureCode": "05",
    "prefectureNumber": 5,
    "prefecture": "秋田県",
    "city": "にかほ市",
    "town": "象潟町丸山"
  },
  "0180165": {
    "zipcode": "0180165",
    "prefectureCode": "05",
    "prefectureNumber": 5,
    "prefecture": "秋田県",
    "city": "にかほ市",
    "town": "象潟町狸森"
  },
  "0180166": {
    "zipcode": "0180166",
    "prefectureCode": "05",
    "prefectureNumber": 5,
    "prefecture": "秋田県",
    "city": "にかほ市",
    "town": "象潟町高田"
  },
  "0180167": {
    "zipcode": "0180167",
    "prefectureCode": "05",
    "prefectureNumber": 5,
    "prefecture": "秋田県",
    "city": "にかほ市",
    "town": "象潟町田の神"
  },
  "0180171": {
    "zipcode": "0180171",
    "prefectureCode": "05",
    "prefectureNumber": 5,
    "prefecture": "秋田県",
    "city": "にかほ市",
    "town": "象潟町続島"
  },
  "0180172": {
    "zipcode": "0180172",
    "prefectureCode": "05",
    "prefectureNumber": 5,
    "prefecture": "秋田県",
    "city": "にかほ市",
    "town": "象潟町小才の神"
  },
  "0180173": {
    "zipcode": "0180173",
    "prefectureCode": "05",
    "prefectureNumber": 5,
    "prefecture": "秋田県",
    "city": "にかほ市",
    "town": "象潟町四隅池"
  },
  "0180174": {
    "zipcode": "0180174",
    "prefectureCode": "05",
    "prefectureNumber": 5,
    "prefecture": "秋田県",
    "city": "にかほ市",
    "town": "象潟町林の下"
  },
  "0180175": {
    "zipcode": "0180175",
    "prefectureCode": "05",
    "prefectureNumber": 5,
    "prefecture": "秋田県",
    "city": "にかほ市",
    "town": "象潟町坂の下"
  },
  "0180176": {
    "zipcode": "0180176",
    "prefectureCode": "05",
    "prefectureNumber": 5,
    "prefecture": "秋田県",
    "city": "にかほ市",
    "town": "象潟町横山"
  },
  "0180181": {
    "zipcode": "0180181",
    "prefectureCode": "05",
    "prefectureNumber": 5,
    "prefecture": "秋田県",
    "city": "にかほ市",
    "town": "象潟町白山堂"
  },
  "0180182": {
    "zipcode": "0180182",
    "prefectureCode": "05",
    "prefectureNumber": 5,
    "prefecture": "秋田県",
    "city": "にかほ市",
    "town": "象潟町不動沢"
  },
  "0180183": {
    "zipcode": "0180183",
    "prefectureCode": "05",
    "prefectureNumber": 5,
    "prefecture": "秋田県",
    "city": "にかほ市",
    "town": "象潟町小坂"
  },
  "0180184": {
    "zipcode": "0180184",
    "prefectureCode": "05",
    "prefectureNumber": 5,
    "prefecture": "秋田県",
    "city": "にかほ市",
    "town": "象潟町上小坂"
  },
  "0180185": {
    "zipcode": "0180185",
    "prefectureCode": "05",
    "prefectureNumber": 5,
    "prefecture": "秋田県",
    "city": "にかほ市",
    "town": "象潟町屋敷田"
  },
  "0180186": {
    "zipcode": "0180186",
    "prefectureCode": "05",
    "prefectureNumber": 5,
    "prefecture": "秋田県",
    "city": "にかほ市",
    "town": "象潟町能因島"
  },
  "0180187": {
    "zipcode": "0180187",
    "prefectureCode": "05",
    "prefectureNumber": 5,
    "prefecture": "秋田県",
    "city": "にかほ市",
    "town": "象潟町小烏島"
  },
  "0180188": {
    "zipcode": "0180188",
    "prefectureCode": "05",
    "prefectureNumber": 5,
    "prefecture": "秋田県",
    "city": "にかほ市",
    "town": "象潟町烏島"
  },
  "0180301": {
    "zipcode": "0180301",
    "prefectureCode": "05",
    "prefectureNumber": 5,
    "prefecture": "秋田県",
    "city": "にかほ市",
    "town": "飛"
  },
  "0180302": {
    "zipcode": "0180302",
    "prefectureCode": "05",
    "prefectureNumber": 5,
    "prefecture": "秋田県",
    "city": "にかほ市",
    "town": "黒川"
  },
  "0180311": {
    "zipcode": "0180311",
    "prefectureCode": "05",
    "prefectureNumber": 5,
    "prefecture": "秋田県",
    "city": "にかほ市",
    "town": "金浦"
  },
  "0180321": {
    "zipcode": "0180321",
    "prefectureCode": "05",
    "prefectureNumber": 5,
    "prefecture": "秋田県",
    "city": "にかほ市",
    "town": "前川"
  },
  "0180322": {
    "zipcode": "0180322",
    "prefectureCode": "05",
    "prefectureNumber": 5,
    "prefecture": "秋田県",
    "city": "にかほ市",
    "town": "大竹"
  },
  "0180400": {
    "zipcode": "0180400",
    "prefectureCode": "05",
    "prefectureNumber": 5,
    "prefecture": "秋田県",
    "city": "にかほ市",
    "town": "以下に掲載がない場合"
  },
  "0180401": {
    "zipcode": "0180401",
    "prefectureCode": "05",
    "prefectureNumber": 5,
    "prefecture": "秋田県",
    "city": "にかほ市",
    "town": "両前寺"
  },
  "0180402": {
    "zipcode": "0180402",
    "prefectureCode": "05",
    "prefectureNumber": 5,
    "prefecture": "秋田県",
    "city": "にかほ市",
    "town": "平沢"
  },
  "0180403": {
    "zipcode": "0180403",
    "prefectureCode": "05",
    "prefectureNumber": 5,
    "prefecture": "秋田県",
    "city": "にかほ市",
    "town": "三森"
  },
  "0180404": {
    "zipcode": "0180404",
    "prefectureCode": "05",
    "prefectureNumber": 5,
    "prefecture": "秋田県",
    "city": "にかほ市",
    "town": "芹田"
  },
  "0180411": {
    "zipcode": "0180411",
    "prefectureCode": "05",
    "prefectureNumber": 5,
    "prefecture": "秋田県",
    "city": "にかほ市",
    "town": "院内"
  },
  "0180412": {
    "zipcode": "0180412",
    "prefectureCode": "05",
    "prefectureNumber": 5,
    "prefecture": "秋田県",
    "city": "にかほ市",
    "town": "小国"
  },
  "0180413": {
    "zipcode": "0180413",
    "prefectureCode": "05",
    "prefectureNumber": 5,
    "prefecture": "秋田県",
    "city": "にかほ市",
    "town": "馬場"
  },
  "0180414": {
    "zipcode": "0180414",
    "prefectureCode": "05",
    "prefectureNumber": 5,
    "prefecture": "秋田県",
    "city": "にかほ市",
    "town": "田抓"
  },
  "0180421": {
    "zipcode": "0180421",
    "prefectureCode": "05",
    "prefectureNumber": 5,
    "prefecture": "秋田県",
    "city": "にかほ市",
    "town": "釜ケ台"
  },
  "0180422": {
    "zipcode": "0180422",
    "prefectureCode": "05",
    "prefectureNumber": 5,
    "prefecture": "秋田県",
    "city": "にかほ市",
    "town": "冬師"
  },
  "0180431": {
    "zipcode": "0180431",
    "prefectureCode": "05",
    "prefectureNumber": 5,
    "prefecture": "秋田県",
    "city": "にかほ市",
    "town": "伊勢居地"
  },
  "0180432": {
    "zipcode": "0180432",
    "prefectureCode": "05",
    "prefectureNumber": 5,
    "prefecture": "秋田県",
    "city": "にかほ市",
    "town": "水沢"
  },
  "0180433": {
    "zipcode": "0180433",
    "prefectureCode": "05",
    "prefectureNumber": 5,
    "prefecture": "秋田県",
    "city": "にかほ市",
    "town": "畑"
  },
  "0180434": {
    "zipcode": "0180434",
    "prefectureCode": "05",
    "prefectureNumber": 5,
    "prefecture": "秋田県",
    "city": "にかほ市",
    "town": "寺田"
  },
  "0180435": {
    "zipcode": "0180435",
    "prefectureCode": "05",
    "prefectureNumber": 5,
    "prefecture": "秋田県",
    "city": "にかほ市",
    "town": "中三地"
  },
  "0180436": {
    "zipcode": "0180436",
    "prefectureCode": "05",
    "prefectureNumber": 5,
    "prefecture": "秋田県",
    "city": "にかほ市",
    "town": "樋目野"
  },
  "0180601": {
    "zipcode": "0180601",
    "prefectureCode": "05",
    "prefectureNumber": 5,
    "prefecture": "秋田県",
    "city": "由利本荘市",
    "town": "西目町海士剥"
  },
  "0180602": {
    "zipcode": "0180602",
    "prefectureCode": "05",
    "prefectureNumber": 5,
    "prefecture": "秋田県",
    "city": "由利本荘市",
    "town": "西目町出戸"
  },
  "0180603": {
    "zipcode": "0180603",
    "prefectureCode": "05",
    "prefectureNumber": 5,
    "prefecture": "秋田県",
    "city": "由利本荘市",
    "town": "西目町西目"
  },
  "0180604": {
    "zipcode": "0180604",
    "prefectureCode": "05",
    "prefectureNumber": 5,
    "prefecture": "秋田県",
    "city": "由利本荘市",
    "town": "西目町沼田"
  },
  "0180711": {
    "zipcode": "0180711",
    "prefectureCode": "05",
    "prefectureNumber": 5,
    "prefecture": "秋田県",
    "city": "由利本荘市",
    "town": "岩谷町"
  },
  "0180721": {
    "zipcode": "0180721",
    "prefectureCode": "05",
    "prefectureNumber": 5,
    "prefecture": "秋田県",
    "city": "由利本荘市",
    "town": "大谷"
  },
  "0180722": {
    "zipcode": "0180722",
    "prefectureCode": "05",
    "prefectureNumber": 5,
    "prefecture": "秋田県",
    "city": "由利本荘市",
    "town": "中館"
  },
  "0180723": {
    "zipcode": "0180723",
    "prefectureCode": "05",
    "prefectureNumber": 5,
    "prefecture": "秋田県",
    "city": "由利本荘市",
    "town": "牛寺"
  },
  "0180724": {
    "zipcode": "0180724",
    "prefectureCode": "05",
    "prefectureNumber": 5,
    "prefecture": "秋田県",
    "city": "由利本荘市",
    "town": "深沢"
  },
  "0180725": {
    "zipcode": "0180725",
    "prefectureCode": "05",
    "prefectureNumber": 5,
    "prefecture": "秋田県",
    "city": "由利本荘市",
    "town": "米坂"
  },
  "0180726": {
    "zipcode": "0180726",
    "prefectureCode": "05",
    "prefectureNumber": 5,
    "prefecture": "秋田県",
    "city": "由利本荘市",
    "town": "岩谷麓"
  },
  "0180731": {
    "zipcode": "0180731",
    "prefectureCode": "05",
    "prefectureNumber": 5,
    "prefecture": "秋田県",
    "city": "由利本荘市",
    "town": "大内三川"
  },
  "0180732": {
    "zipcode": "0180732",
    "prefectureCode": "05",
    "prefectureNumber": 5,
    "prefecture": "秋田県",
    "city": "由利本荘市",
    "town": "徳沢"
  },
  "0180733": {
    "zipcode": "0180733",
    "prefectureCode": "05",
    "prefectureNumber": 5,
    "prefecture": "秋田県",
    "city": "由利本荘市",
    "town": "大倉沢"
  },
  "0180734": {
    "zipcode": "0180734",
    "prefectureCode": "05",
    "prefectureNumber": 5,
    "prefecture": "秋田県",
    "city": "由利本荘市",
    "town": "北福田"
  },
  "0180841": {
    "zipcode": "0180841",
    "prefectureCode": "05",
    "prefectureNumber": 5,
    "prefecture": "秋田県",
    "city": "由利本荘市",
    "town": "加賀沢"
  },
  "0180842": {
    "zipcode": "0180842",
    "prefectureCode": "05",
    "prefectureNumber": 5,
    "prefecture": "秋田県",
    "city": "由利本荘市",
    "town": "新沢"
  },
  "0180843": {
    "zipcode": "0180843",
    "prefectureCode": "05",
    "prefectureNumber": 5,
    "prefecture": "秋田県",
    "city": "由利本荘市",
    "town": "中帳"
  },
  "0180844": {
    "zipcode": "0180844",
    "prefectureCode": "05",
    "prefectureNumber": 5,
    "prefecture": "秋田県",
    "city": "由利本荘市",
    "town": "高尾"
  },
  "0180845": {
    "zipcode": "0180845",
    "prefectureCode": "05",
    "prefectureNumber": 5,
    "prefecture": "秋田県",
    "city": "由利本荘市",
    "town": "中俣"
  },
  "0180851": {
    "zipcode": "0180851",
    "prefectureCode": "05",
    "prefectureNumber": 5,
    "prefecture": "秋田県",
    "city": "由利本荘市",
    "town": "平岫"
  },
  "0180852": {
    "zipcode": "0180852",
    "prefectureCode": "05",
    "prefectureNumber": 5,
    "prefecture": "秋田県",
    "city": "由利本荘市",
    "town": "葛岡"
  },
  "0180853": {
    "zipcode": "0180853",
    "prefectureCode": "05",
    "prefectureNumber": 5,
    "prefecture": "秋田県",
    "city": "由利本荘市",
    "town": "長坂"
  },
  "0180854": {
    "zipcode": "0180854",
    "prefectureCode": "05",
    "prefectureNumber": 5,
    "prefecture": "秋田県",
    "city": "由利本荘市",
    "town": "及位"
  },
  "0180855": {
    "zipcode": "0180855",
    "prefectureCode": "05",
    "prefectureNumber": 5,
    "prefecture": "秋田県",
    "city": "由利本荘市",
    "town": "松本"
  },
  "0180901": {
    "zipcode": "0180901",
    "prefectureCode": "05",
    "prefectureNumber": 5,
    "prefecture": "秋田県",
    "city": "由利本荘市",
    "town": "中田代"
  },
  "0180902": {
    "zipcode": "0180902",
    "prefectureCode": "05",
    "prefectureNumber": 5,
    "prefecture": "秋田県",
    "city": "由利本荘市",
    "town": "新田"
  },
  "0180903": {
    "zipcode": "0180903",
    "prefectureCode": "05",
    "prefectureNumber": 5,
    "prefecture": "秋田県",
    "city": "由利本荘市",
    "town": "小栗山"
  },
  "0180904": {
    "zipcode": "0180904",
    "prefectureCode": "05",
    "prefectureNumber": 5,
    "prefecture": "秋田県",
    "city": "由利本荘市",
    "town": "岩野目沢"
  },
  "0180905": {
    "zipcode": "0180905",
    "prefectureCode": "05",
    "prefectureNumber": 5,
    "prefecture": "秋田県",
    "city": "由利本荘市",
    "town": "滝"
  },
  "0180906": {
    "zipcode": "0180906",
    "prefectureCode": "05",
    "prefectureNumber": 5,
    "prefecture": "秋田県",
    "city": "由利本荘市",
    "town": "羽広"
  },
  "0180907": {
    "zipcode": "0180907",
    "prefectureCode": "05",
    "prefectureNumber": 5,
    "prefecture": "秋田県",
    "city": "由利本荘市",
    "town": "坂部"
  },
  "0181211": {
    "zipcode": "0181211",
    "prefectureCode": "05",
    "prefectureNumber": 5,
    "prefecture": "秋田県",
    "city": "由利本荘市",
    "town": "岩城滝俣"
  },
  "0181212": {
    "zipcode": "0181212",
    "prefectureCode": "05",
    "prefectureNumber": 5,
    "prefecture": "秋田県",
    "city": "由利本荘市",
    "town": "岩城福俣"
  },
  "0181213": {
    "zipcode": "0181213",
    "prefectureCode": "05",
    "prefectureNumber": 5,
    "prefecture": "秋田県",
    "city": "由利本荘市",
    "town": "岩城泉田"
  },
  "0181214": {
    "zipcode": "0181214",
    "prefectureCode": "05",
    "prefectureNumber": 5,
    "prefecture": "秋田県",
    "city": "由利本荘市",
    "town": "岩城富田"
  },
  "0181215": {
    "zipcode": "0181215",
    "prefectureCode": "05",
    "prefectureNumber": 5,
    "prefecture": "秋田県",
    "city": "由利本荘市",
    "town": "岩城赤平"
  },
  "0181216": {
    "zipcode": "0181216",
    "prefectureCode": "05",
    "prefectureNumber": 5,
    "prefecture": "秋田県",
    "city": "由利本荘市",
    "town": "岩城亀田愛宕町"
  },
  "0181217": {
    "zipcode": "0181217",
    "prefectureCode": "05",
    "prefectureNumber": 5,
    "prefecture": "秋田県",
    "city": "由利本荘市",
    "town": "岩城亀田亀田町"
  },
  "0181218": {
    "zipcode": "0181218",
    "prefectureCode": "05",
    "prefectureNumber": 5,
    "prefecture": "秋田県",
    "city": "由利本荘市",
    "town": "岩城亀田大町"
  },
  "0181221": {
    "zipcode": "0181221",
    "prefectureCode": "05",
    "prefectureNumber": 5,
    "prefecture": "秋田県",
    "city": "由利本荘市",
    "town": "岩城亀田最上町"
  },
  "0181222": {
    "zipcode": "0181222",
    "prefectureCode": "05",
    "prefectureNumber": 5,
    "prefecture": "秋田県",
    "city": "由利本荘市",
    "town": "岩城上蛇田"
  },
  "0181223": {
    "zipcode": "0181223",
    "prefectureCode": "05",
    "prefectureNumber": 5,
    "prefecture": "秋田県",
    "city": "由利本荘市",
    "town": "岩城下蛇田"
  },
  "0181224": {
    "zipcode": "0181224",
    "prefectureCode": "05",
    "prefectureNumber": 5,
    "prefecture": "秋田県",
    "city": "由利本荘市",
    "town": "岩城六呂田"
  },
  "0181225": {
    "zipcode": "0181225",
    "prefectureCode": "05",
    "prefectureNumber": 5,
    "prefecture": "秋田県",
    "city": "由利本荘市",
    "town": "岩城上黒川"
  },
  "0181226": {
    "zipcode": "0181226",
    "prefectureCode": "05",
    "prefectureNumber": 5,
    "prefecture": "秋田県",
    "city": "由利本荘市",
    "town": "岩城下黒川"
  },
  "0181301": {
    "zipcode": "0181301",
    "prefectureCode": "05",
    "prefectureNumber": 5,
    "prefecture": "秋田県",
    "city": "由利本荘市",
    "town": "岩城内道川"
  },
  "0181302": {
    "zipcode": "0181302",
    "prefectureCode": "05",
    "prefectureNumber": 5,
    "prefecture": "秋田県",
    "city": "由利本荘市",
    "town": "岩城勝手"
  },
  "0181303": {
    "zipcode": "0181303",
    "prefectureCode": "05",
    "prefectureNumber": 5,
    "prefecture": "秋田県",
    "city": "由利本荘市",
    "town": "岩城君ケ野"
  },
  "0181304": {
    "zipcode": "0181304",
    "prefectureCode": "05",
    "prefectureNumber": 5,
    "prefecture": "秋田県",
    "city": "由利本荘市",
    "town": "岩城道川"
  },
  "0181305": {
    "zipcode": "0181305",
    "prefectureCode": "05",
    "prefectureNumber": 5,
    "prefecture": "秋田県",
    "city": "由利本荘市",
    "town": "岩城二古"
  },
  "0181400": {
    "zipcode": "0181400",
    "prefectureCode": "05",
    "prefectureNumber": 5,
    "prefecture": "秋田県",
    "city": "潟上市",
    "town": "以下に掲載がない場合"
  },
  "0181401": {
    "zipcode": "0181401",
    "prefectureCode": "05",
    "prefectureNumber": 5,
    "prefecture": "秋田県",
    "city": "潟上市",
    "town": "昭和大久保"
  },
  "0181402": {
    "zipcode": "0181402",
    "prefectureCode": "05",
    "prefectureNumber": 5,
    "prefecture": "秋田県",
    "city": "潟上市",
    "town": "昭和乱橋"
  },
  "0181403": {
    "zipcode": "0181403",
    "prefectureCode": "05",
    "prefectureNumber": 5,
    "prefecture": "秋田県",
    "city": "潟上市",
    "town": "昭和八丁目"
  },
  "0181411": {
    "zipcode": "0181411",
    "prefectureCode": "05",
    "prefectureNumber": 5,
    "prefecture": "秋田県",
    "city": "潟上市",
    "town": "昭和豊川上虻川"
  },
  "0181412": {
    "zipcode": "0181412",
    "prefectureCode": "05",
    "prefectureNumber": 5,
    "prefecture": "秋田県",
    "city": "潟上市",
    "town": "昭和豊川岡井戸"
  },
  "0181413": {
    "zipcode": "0181413",
    "prefectureCode": "05",
    "prefectureNumber": 5,
    "prefecture": "秋田県",
    "city": "潟上市",
    "town": "昭和豊川船橋"
  },
  "0181414": {
    "zipcode": "0181414",
    "prefectureCode": "05",
    "prefectureNumber": 5,
    "prefecture": "秋田県",
    "city": "潟上市",
    "town": "昭和豊川槻木"
  },
  "0181415": {
    "zipcode": "0181415",
    "prefectureCode": "05",
    "prefectureNumber": 5,
    "prefecture": "秋田県",
    "city": "潟上市",
    "town": "昭和豊川竜毛"
  },
  "0181416": {
    "zipcode": "0181416",
    "prefectureCode": "05",
    "prefectureNumber": 5,
    "prefecture": "秋田県",
    "city": "潟上市",
    "town": "昭和豊川山田"
  },
  "0181500": {
    "zipcode": "0181500",
    "prefectureCode": "05",
    "prefectureNumber": 5,
    "prefecture": "秋田県",
    "city": "南秋田郡井川町",
    "town": "以下に掲載がない場合"
  },
  "0181501": {
    "zipcode": "0181501",
    "prefectureCode": "05",
    "prefectureNumber": 5,
    "prefecture": "秋田県",
    "city": "潟上市",
    "town": "飯田川金山"
  },
  "0181502": {
    "zipcode": "0181502",
    "prefectureCode": "05",
    "prefectureNumber": 5,
    "prefecture": "秋田県",
    "city": "潟上市",
    "town": "飯田川下虻川"
  },
  "0181503": {
    "zipcode": "0181503",
    "prefectureCode": "05",
    "prefectureNumber": 5,
    "prefecture": "秋田県",
    "city": "潟上市",
    "town": "飯田川和田妹川"
  },
  "0181504": {
    "zipcode": "0181504",
    "prefectureCode": "05",
    "prefectureNumber": 5,
    "prefecture": "秋田県",
    "city": "潟上市",
    "town": "飯田川飯塚"
  },
  "0181511": {
    "zipcode": "0181511",
    "prefectureCode": "05",
    "prefectureNumber": 5,
    "prefecture": "秋田県",
    "city": "南秋田郡井川町",
    "town": "今戸"
  },
  "0181512": {
    "zipcode": "0181512",
    "prefectureCode": "05",
    "prefectureNumber": 5,
    "prefecture": "秋田県",
    "city": "南秋田郡井川町",
    "town": "北川尻"
  },
  "0181513": {
    "zipcode": "0181513",
    "prefectureCode": "05",
    "prefectureNumber": 5,
    "prefecture": "秋田県",
    "city": "南秋田郡井川町",
    "town": "黒坪"
  },
  "0181514": {
    "zipcode": "0181514",
    "prefectureCode": "05",
    "prefectureNumber": 5,
    "prefecture": "秋田県",
    "city": "南秋田郡井川町",
    "town": "宇治木"
  },
  "0181515": {
    "zipcode": "0181515",
    "prefectureCode": "05",
    "prefectureNumber": 5,
    "prefecture": "秋田県",
    "city": "南秋田郡井川町",
    "town": "小竹花"
  },
  "0181516": {
    "zipcode": "0181516",
    "prefectureCode": "05",
    "prefectureNumber": 5,
    "prefecture": "秋田県",
    "city": "南秋田郡井川町",
    "town": "浜井川"
  },
  "0181521": {
    "zipcode": "0181521",
    "prefectureCode": "05",
    "prefectureNumber": 5,
    "prefecture": "秋田県",
    "city": "南秋田郡井川町",
    "town": "八田大倉"
  },
  "0181522": {
    "zipcode": "0181522",
    "prefectureCode": "05",
    "prefectureNumber": 5,
    "prefecture": "秋田県",
    "city": "南秋田郡井川町",
    "town": "保野子"
  },
  "0181523": {
    "zipcode": "0181523",
    "prefectureCode": "05",
    "prefectureNumber": 5,
    "prefecture": "秋田県",
    "city": "南秋田郡井川町",
    "town": "坂本"
  },
  "0181524": {
    "zipcode": "0181524",
    "prefectureCode": "05",
    "prefectureNumber": 5,
    "prefecture": "秋田県",
    "city": "南秋田郡井川町",
    "town": "大麦"
  },
  "0181525": {
    "zipcode": "0181525",
    "prefectureCode": "05",
    "prefectureNumber": 5,
    "prefecture": "秋田県",
    "city": "南秋田郡井川町",
    "town": "赤沢"
  },
  "0181526": {
    "zipcode": "0181526",
    "prefectureCode": "05",
    "prefectureNumber": 5,
    "prefecture": "秋田県",
    "city": "南秋田郡井川町",
    "town": "寺沢"
  },
  "0181527": {
    "zipcode": "0181527",
    "prefectureCode": "05",
    "prefectureNumber": 5,
    "prefecture": "秋田県",
    "city": "南秋田郡井川町",
    "town": "井内"
  },
  "0181528": {
    "zipcode": "0181528",
    "prefectureCode": "05",
    "prefectureNumber": 5,
    "prefecture": "秋田県",
    "city": "南秋田郡井川町",
    "town": "葹田"
  },
  "0181600": {
    "zipcode": "0181600",
    "prefectureCode": "05",
    "prefectureNumber": 5,
    "prefecture": "秋田県",
    "city": "南秋田郡八郎潟町",
    "town": "以下に掲載がない場合"
  },
  "0181601": {
    "zipcode": "0181601",
    "prefectureCode": "05",
    "prefectureNumber": 5,
    "prefecture": "秋田県",
    "city": "南秋田郡八郎潟町",
    "town": "真坂"
  },
  "0181602": {
    "zipcode": "0181602",
    "prefectureCode": "05",
    "prefectureNumber": 5,
    "prefecture": "秋田県",
    "city": "南秋田郡八郎潟町",
    "town": "浦大町"
  },
  "0181603": {
    "zipcode": "0181603",
    "prefectureCode": "05",
    "prefectureNumber": 5,
    "prefecture": "秋田県",
    "city": "南秋田郡八郎潟町",
    "town": "小池"
  },
  "0181604": {
    "zipcode": "0181604",
    "prefectureCode": "05",
    "prefectureNumber": 5,
    "prefecture": "秋田県",
    "city": "南秋田郡八郎潟町",
    "town": "野田"
  },
  "0181605": {
    "zipcode": "0181605",
    "prefectureCode": "05",
    "prefectureNumber": 5,
    "prefecture": "秋田県",
    "city": "南秋田郡八郎潟町",
    "town": "川崎"
  },
  "0181606": {
    "zipcode": "0181606",
    "prefectureCode": "05",
    "prefectureNumber": 5,
    "prefecture": "秋田県",
    "city": "南秋田郡八郎潟町",
    "town": "夜叉袋"
  },
  "0181611": {
    "zipcode": "0181611",
    "prefectureCode": "05",
    "prefectureNumber": 5,
    "prefecture": "秋田県",
    "city": "南秋田郡八郎潟町",
    "town": "上沖谷地"
  },
  "0181612": {
    "zipcode": "0181612",
    "prefectureCode": "05",
    "prefectureNumber": 5,
    "prefecture": "秋田県",
    "city": "南秋田郡八郎潟町",
    "town": "昼根下"
  },
  "0181613": {
    "zipcode": "0181613",
    "prefectureCode": "05",
    "prefectureNumber": 5,
    "prefecture": "秋田県",
    "city": "南秋田郡八郎潟町",
    "town": "上昼根"
  },
  "0181614": {
    "zipcode": "0181614",
    "prefectureCode": "05",
    "prefectureNumber": 5,
    "prefecture": "秋田県",
    "city": "南秋田郡八郎潟町",
    "town": "中田"
  },
  "0181615": {
    "zipcode": "0181615",
    "prefectureCode": "05",
    "prefectureNumber": 5,
    "prefecture": "秋田県",
    "city": "南秋田郡八郎潟町",
    "town": "蒲沼"
  },
  "0181616": {
    "zipcode": "0181616",
    "prefectureCode": "05",
    "prefectureNumber": 5,
    "prefecture": "秋田県",
    "city": "南秋田郡八郎潟町",
    "town": "大道"
  },
  "0181617": {
    "zipcode": "0181617",
    "prefectureCode": "05",
    "prefectureNumber": 5,
    "prefecture": "秋田県",
    "city": "南秋田郡八郎潟町",
    "town": "イカリ"
  },
  "0181618": {
    "zipcode": "0181618",
    "prefectureCode": "05",
    "prefectureNumber": 5,
    "prefecture": "秋田県",
    "city": "南秋田郡八郎潟町",
    "town": "川口"
  },
  "0181621": {
    "zipcode": "0181621",
    "prefectureCode": "05",
    "prefectureNumber": 5,
    "prefecture": "秋田県",
    "city": "南秋田郡八郎潟町",
    "town": "家の後"
  },
  "0181622": {
    "zipcode": "0181622",
    "prefectureCode": "05",
    "prefectureNumber": 5,
    "prefecture": "秋田県",
    "city": "南秋田郡八郎潟町",
    "town": "一日市"
  },
  "0181623": {
    "zipcode": "0181623",
    "prefectureCode": "05",
    "prefectureNumber": 5,
    "prefecture": "秋田県",
    "city": "南秋田郡八郎潟町",
    "town": "下川原"
  },
  "0181624": {
    "zipcode": "0181624",
    "prefectureCode": "05",
    "prefectureNumber": 5,
    "prefecture": "秋田県",
    "city": "南秋田郡八郎潟町",
    "town": "中久保"
  },
  "0181625": {
    "zipcode": "0181625",
    "prefectureCode": "05",
    "prefectureNumber": 5,
    "prefecture": "秋田県",
    "city": "南秋田郡八郎潟町",
    "town": "久保見"
  },
  "0181626": {
    "zipcode": "0181626",
    "prefectureCode": "05",
    "prefectureNumber": 5,
    "prefecture": "秋田県",
    "city": "南秋田郡八郎潟町",
    "town": "細川"
  },
  "0181627": {
    "zipcode": "0181627",
    "prefectureCode": "05",
    "prefectureNumber": 5,
    "prefecture": "秋田県",
    "city": "南秋田郡八郎潟町",
    "town": "押切"
  },
  "0181628": {
    "zipcode": "0181628",
    "prefectureCode": "05",
    "prefectureNumber": 5,
    "prefecture": "秋田県",
    "city": "南秋田郡八郎潟町",
    "town": "島ノ内"
  },
  "0181629": {
    "zipcode": "0181629",
    "prefectureCode": "05",
    "prefectureNumber": 5,
    "prefecture": "秋田県",
    "city": "南秋田郡八郎潟町",
    "town": "中嶋"
  },
  "0181631": {
    "zipcode": "0181631",
    "prefectureCode": "05",
    "prefectureNumber": 5,
    "prefecture": "秋田県",
    "city": "南秋田郡八郎潟町",
    "town": "八幡沼"
  },
  "0181632": {
    "zipcode": "0181632",
    "prefectureCode": "05",
    "prefectureNumber": 5,
    "prefecture": "秋田県",
    "city": "南秋田郡八郎潟町",
    "town": "長沼"
  },
  "0181633": {
    "zipcode": "0181633",
    "prefectureCode": "05",
    "prefectureNumber": 5,
    "prefecture": "秋田県",
    "city": "南秋田郡八郎潟町",
    "town": "中谷地"
  },
  "0181634": {
    "zipcode": "0181634",
    "prefectureCode": "05",
    "prefectureNumber": 5,
    "prefecture": "秋田県",
    "city": "南秋田郡八郎潟町",
    "town": "軒嶋"
  },
  "0181635": {
    "zipcode": "0181635",
    "prefectureCode": "05",
    "prefectureNumber": 5,
    "prefecture": "秋田県",
    "city": "南秋田郡八郎潟町",
    "town": "洲先"
  },
  "0181700": {
    "zipcode": "0181700",
    "prefectureCode": "05",
    "prefectureNumber": 5,
    "prefecture": "秋田県",
    "city": "南秋田郡五城目町",
    "town": "以下に掲載がない場合"
  },
  "0181701": {
    "zipcode": "0181701",
    "prefectureCode": "05",
    "prefectureNumber": 5,
    "prefecture": "秋田県",
    "city": "南秋田郡五城目町",
    "town": "兎品沢"
  },
  "0181702": {
    "zipcode": "0181702",
    "prefectureCode": "05",
    "prefectureNumber": 5,
    "prefecture": "秋田県",
    "city": "南秋田郡五城目町",
    "town": "杉ケ崎"
  },
  "0181703": {
    "zipcode": "0181703",
    "prefectureCode": "05",
    "prefectureNumber": 5,
    "prefecture": "秋田県",
    "city": "南秋田郡五城目町",
    "town": "羽黒前"
  },
  "0181704": {
    "zipcode": "0181704",
    "prefectureCode": "05",
    "prefectureNumber": 5,
    "prefecture": "秋田県",
    "city": "南秋田郡五城目町",
    "town": "石田六ケ村堰添"
  },
  "0181705": {
    "zipcode": "0181705",
    "prefectureCode": "05",
    "prefectureNumber": 5,
    "prefecture": "秋田県",
    "city": "南秋田郡五城目町",
    "town": "上町"
  },
  "0181706": {
    "zipcode": "0181706",
    "prefectureCode": "05",
    "prefectureNumber": 5,
    "prefecture": "秋田県",
    "city": "南秋田郡五城目町",
    "town": "下タ町"
  },
  "0181711": {
    "zipcode": "0181711",
    "prefectureCode": "05",
    "prefectureNumber": 5,
    "prefecture": "秋田県",
    "city": "南秋田郡五城目町",
    "town": "高崎"
  },
  "0181712": {
    "zipcode": "0181712",
    "prefectureCode": "05",
    "prefectureNumber": 5,
    "prefecture": "秋田県",
    "city": "南秋田郡五城目町",
    "town": "久保"
  },
  "0181713": {
    "zipcode": "0181713",
    "prefectureCode": "05",
    "prefectureNumber": 5,
    "prefecture": "秋田県",
    "city": "南秋田郡五城目町",
    "town": "馬場目"
  },
  "0181714": {
    "zipcode": "0181714",
    "prefectureCode": "05",
    "prefectureNumber": 5,
    "prefecture": "秋田県",
    "city": "南秋田郡五城目町",
    "town": "舘越"
  },
  "0181721": {
    "zipcode": "0181721",
    "prefectureCode": "05",
    "prefectureNumber": 5,
    "prefecture": "秋田県",
    "city": "南秋田郡五城目町",
    "town": "七倉"
  },
  "0181722": {
    "zipcode": "0181722",
    "prefectureCode": "05",
    "prefectureNumber": 5,
    "prefecture": "秋田県",
    "city": "南秋田郡五城目町",
    "town": "鵜ノ木"
  },
  "0181723": {
    "zipcode": "0181723",
    "prefectureCode": "05",
    "prefectureNumber": 5,
    "prefecture": "秋田県",
    "city": "南秋田郡五城目町",
    "town": "上樋口"
  },
  "0181724": {
    "zipcode": "0181724",
    "prefectureCode": "05",
    "prefectureNumber": 5,
    "prefecture": "秋田県",
    "city": "南秋田郡五城目町",
    "town": "東磯ノ目"
  },
  "0181725": {
    "zipcode": "0181725",
    "prefectureCode": "05",
    "prefectureNumber": 5,
    "prefecture": "秋田県",
    "city": "南秋田郡五城目町",
    "town": "西磯ノ目"
  },
  "0181731": {
    "zipcode": "0181731",
    "prefectureCode": "05",
    "prefectureNumber": 5,
    "prefecture": "秋田県",
    "city": "南秋田郡五城目町",
    "town": "大川石崎"
  },
  "0181732": {
    "zipcode": "0181732",
    "prefectureCode": "05",
    "prefectureNumber": 5,
    "prefecture": "秋田県",
    "city": "南秋田郡五城目町",
    "town": "大川西野"
  },
  "0181733": {
    "zipcode": "0181733",
    "prefectureCode": "05",
    "prefectureNumber": 5,
    "prefecture": "秋田県",
    "city": "南秋田郡五城目町",
    "town": "大川谷地中"
  },
  "0181734": {
    "zipcode": "0181734",
    "prefectureCode": "05",
    "prefectureNumber": 5,
    "prefecture": "秋田県",
    "city": "南秋田郡五城目町",
    "town": "大川大川"
  },
  "0181735": {
    "zipcode": "0181735",
    "prefectureCode": "05",
    "prefectureNumber": 5,
    "prefecture": "秋田県",
    "city": "南秋田郡五城目町",
    "town": "大川下樋口"
  },
  "0181741": {
    "zipcode": "0181741",
    "prefectureCode": "05",
    "prefectureNumber": 5,
    "prefecture": "秋田県",
    "city": "南秋田郡五城目町",
    "town": "浦大町"
  },
  "0181742": {
    "zipcode": "0181742",
    "prefectureCode": "05",
    "prefectureNumber": 5,
    "prefecture": "秋田県",
    "city": "南秋田郡五城目町",
    "town": "浦横町"
  },
  "0181743": {
    "zipcode": "0181743",
    "prefectureCode": "05",
    "prefectureNumber": 5,
    "prefecture": "秋田県",
    "city": "南秋田郡五城目町",
    "town": "稲荷前"
  },
  "0181744": {
    "zipcode": "0181744",
    "prefectureCode": "05",
    "prefectureNumber": 5,
    "prefecture": "秋田県",
    "city": "南秋田郡五城目町",
    "town": "神明前"
  },
  "0181745": {
    "zipcode": "0181745",
    "prefectureCode": "05",
    "prefectureNumber": 5,
    "prefecture": "秋田県",
    "city": "南秋田郡五城目町",
    "town": "川崎"
  },
  "0181746": {
    "zipcode": "0181746",
    "prefectureCode": "05",
    "prefectureNumber": 5,
    "prefecture": "秋田県",
    "city": "南秋田郡五城目町",
    "town": "小池"
  },
  "0181747": {
    "zipcode": "0181747",
    "prefectureCode": "05",
    "prefectureNumber": 5,
    "prefecture": "秋田県",
    "city": "南秋田郡五城目町",
    "town": "野田"
  },
  "0181851": {
    "zipcode": "0181851",
    "prefectureCode": "05",
    "prefectureNumber": 5,
    "prefecture": "秋田県",
    "city": "南秋田郡五城目町",
    "town": "内川浅見内"
  },
  "0181852": {
    "zipcode": "0181852",
    "prefectureCode": "05",
    "prefectureNumber": 5,
    "prefecture": "秋田県",
    "city": "南秋田郡五城目町",
    "town": "内川湯ノ又"
  },
  "0181853": {
    "zipcode": "0181853",
    "prefectureCode": "05",
    "prefectureNumber": 5,
    "prefecture": "秋田県",
    "city": "南秋田郡五城目町",
    "town": "富津内中津又"
  },
  "0181854": {
    "zipcode": "0181854",
    "prefectureCode": "05",
    "prefectureNumber": 5,
    "prefecture": "秋田県",
    "city": "南秋田郡五城目町",
    "town": "内川黒土"
  },
  "0181855": {
    "zipcode": "0181855",
    "prefectureCode": "05",
    "prefectureNumber": 5,
    "prefecture": "秋田県",
    "city": "南秋田郡五城目町",
    "town": "富津内富田"
  },
  "0181856": {
    "zipcode": "0181856",
    "prefectureCode": "05",
    "prefectureNumber": 5,
    "prefecture": "秋田県",
    "city": "南秋田郡五城目町",
    "town": "富津内下山内"
  },
  "0181857": {
    "zipcode": "0181857",
    "prefectureCode": "05",
    "prefectureNumber": 5,
    "prefecture": "秋田県",
    "city": "南秋田郡五城目町",
    "town": "内川小倉"
  },
  "0182101": {
    "zipcode": "0182101",
    "prefectureCode": "05",
    "prefectureNumber": 5,
    "prefecture": "秋田県",
    "city": "山本郡三種町",
    "town": "上岩川"
  },
  "0182102": {
    "zipcode": "0182102",
    "prefectureCode": "05",
    "prefectureNumber": 5,
    "prefecture": "秋田県",
    "city": "山本郡三種町",
    "town": "天瀬川"
  },
  "0182103": {
    "zipcode": "0182103",
    "prefectureCode": "05",
    "prefectureNumber": 5,
    "prefecture": "秋田県",
    "city": "山本郡三種町",
    "town": "鯉川"
  },
  "0182104": {
    "zipcode": "0182104",
    "prefectureCode": "05",
    "prefectureNumber": 5,
    "prefecture": "秋田県",
    "city": "山本郡三種町",
    "town": "鹿渡"
  },
  "0182301": {
    "zipcode": "0182301",
    "prefectureCode": "05",
    "prefectureNumber": 5,
    "prefecture": "秋田県",
    "city": "山本郡三種町",
    "town": "志戸橋"
  },
  "0182302": {
    "zipcode": "0182302",
    "prefectureCode": "05",
    "prefectureNumber": 5,
    "prefecture": "秋田県",
    "city": "山本郡三種町",
    "town": "下岩川"
  },
  "0182303": {
    "zipcode": "0182303",
    "prefectureCode": "05",
    "prefectureNumber": 5,
    "prefecture": "秋田県",
    "city": "山本郡三種町",
    "town": "森岳"
  },
  "0182304": {
    "zipcode": "0182304",
    "prefectureCode": "05",
    "prefectureNumber": 5,
    "prefecture": "秋田県",
    "city": "山本郡三種町",
    "town": "豊岡金田"
  },
  "0182305": {
    "zipcode": "0182305",
    "prefectureCode": "05",
    "prefectureNumber": 5,
    "prefecture": "秋田県",
    "city": "山本郡三種町",
    "town": "外岡"
  },
  "0182400": {
    "zipcode": "0182400",
    "prefectureCode": "05",
    "prefectureNumber": 5,
    "prefecture": "秋田県",
    "city": "山本郡三種町",
    "town": "以下に掲載がない場合"
  },
  "0182401": {
    "zipcode": "0182401",
    "prefectureCode": "05",
    "prefectureNumber": 5,
    "prefecture": "秋田県",
    "city": "山本郡三種町",
    "town": "鵜川"
  },
  "0182402": {
    "zipcode": "0182402",
    "prefectureCode": "05",
    "prefectureNumber": 5,
    "prefecture": "秋田県",
    "city": "山本郡三種町",
    "town": "川尻"
  },
  "0182403": {
    "zipcode": "0182403",
    "prefectureCode": "05",
    "prefectureNumber": 5,
    "prefecture": "秋田県",
    "city": "山本郡三種町",
    "town": "久米岡新田"
  },
  "0182404": {
    "zipcode": "0182404",
    "prefectureCode": "05",
    "prefectureNumber": 5,
    "prefecture": "秋田県",
    "city": "山本郡三種町",
    "town": "富岡新田"
  },
  "0182405": {
    "zipcode": "0182405",
    "prefectureCode": "05",
    "prefectureNumber": 5,
    "prefecture": "秋田県",
    "city": "山本郡三種町",
    "town": "芦崎"
  },
  "0182406": {
    "zipcode": "0182406",
    "prefectureCode": "05",
    "prefectureNumber": 5,
    "prefecture": "秋田県",
    "city": "山本郡三種町",
    "town": "大口"
  },
  "0182407": {
    "zipcode": "0182407",
    "prefectureCode": "05",
    "prefectureNumber": 5,
    "prefecture": "秋田県",
    "city": "山本郡三種町",
    "town": "浜田"
  },
  "0182500": {
    "zipcode": "0182500",
    "prefectureCode": "05",
    "prefectureNumber": 5,
    "prefecture": "秋田県",
    "city": "山本郡八峰町",
    "town": "以下に掲載がない場合"
  },
  "0182501": {
    "zipcode": "0182501",
    "prefectureCode": "05",
    "prefectureNumber": 5,
    "prefecture": "秋田県",
    "city": "山本郡八峰町",
    "town": "峰浜水沢"
  },
  "0182502": {
    "zipcode": "0182502",
    "prefectureCode": "05",
    "prefectureNumber": 5,
    "prefecture": "秋田県",
    "city": "山本郡八峰町",
    "town": "峰浜目名潟"
  },
  "0182503": {
    "zipcode": "0182503",
    "prefectureCode": "05",
    "prefectureNumber": 5,
    "prefecture": "秋田県",
    "city": "山本郡八峰町",
    "town": "峰浜塙"
  },
  "0182504": {
    "zipcode": "0182504",
    "prefectureCode": "05",
    "prefectureNumber": 5,
    "prefecture": "秋田県",
    "city": "山本郡八峰町",
    "town": "峰浜石川"
  },
  "0182505": {
    "zipcode": "0182505",
    "prefectureCode": "05",
    "prefectureNumber": 5,
    "prefecture": "秋田県",
    "city": "山本郡八峰町",
    "town": "峰浜内荒巻"
  },
  "0182506": {
    "zipcode": "0182506",
    "prefectureCode": "05",
    "prefectureNumber": 5,
    "prefecture": "秋田県",
    "city": "山本郡八峰町",
    "town": "峰浜小手萩"
  },
  "0182507": {
    "zipcode": "0182507",
    "prefectureCode": "05",
    "prefectureNumber": 5,
    "prefecture": "秋田県",
    "city": "山本郡八峰町",
    "town": "峰浜田中"
  },
  "0182508": {
    "zipcode": "0182508",
    "prefectureCode": "05",
    "prefectureNumber": 5,
    "prefecture": "秋田県",
    "city": "山本郡八峰町",
    "town": "峰浜坂形"
  },
  "0182509": {
    "zipcode": "0182509",
    "prefectureCode": "05",
    "prefectureNumber": 5,
    "prefecture": "秋田県",
    "city": "山本郡八峰町",
    "town": "峰浜沼田"
  },
  "0182511": {
    "zipcode": "0182511",
    "prefectureCode": "05",
    "prefectureNumber": 5,
    "prefecture": "秋田県",
    "city": "山本郡八峰町",
    "town": "峰浜高野々"
  },
  "0182512": {
    "zipcode": "0182512",
    "prefectureCode": "05",
    "prefectureNumber": 5,
    "prefecture": "秋田県",
    "city": "山本郡八峰町",
    "town": "峰浜畑谷"
  },
  "0182601": {
    "zipcode": "0182601",
    "prefectureCode": "05",
    "prefectureNumber": 5,
    "prefecture": "秋田県",
    "city": "山本郡八峰町",
    "town": "八森乙の水"
  },
  "0182602": {
    "zipcode": "0182602",
    "prefectureCode": "05",
    "prefectureNumber": 5,
    "prefecture": "秋田県",
    "city": "山本郡八峰町",
    "town": "八森チゴキ"
  },
  "0182603": {
    "zipcode": "0182603",
    "prefectureCode": "05",
    "prefectureNumber": 5,
    "prefecture": "秋田県",
    "city": "山本郡八峰町",
    "town": "八森物見"
  },
  "0182604": {
    "zipcode": "0182604",
    "prefectureCode": "05",
    "prefectureNumber": 5,
    "prefecture": "秋田県",
    "city": "山本郡八峰町",
    "town": "八森和田表"
  },
  "0182605": {
    "zipcode": "0182605",
    "prefectureCode": "05",
    "prefectureNumber": 5,
    "prefecture": "秋田県",
    "city": "山本郡八峰町",
    "town": "八森岩館塚の台"
  },
  "0182606": {
    "zipcode": "0182606",
    "prefectureCode": "05",
    "prefectureNumber": 5,
    "prefecture": "秋田県",
    "city": "山本郡八峰町",
    "town": "八森釜の上"
  },
  "0182607": {
    "zipcode": "0182607",
    "prefectureCode": "05",
    "prefectureNumber": 5,
    "prefecture": "秋田県",
    "city": "山本郡八峰町",
    "town": "八森林の沢"
  },
  "0182608": {
    "zipcode": "0182608",
    "prefectureCode": "05",
    "prefectureNumber": 5,
    "prefecture": "秋田県",
    "city": "山本郡八峰町",
    "town": "八森岩館向台"
  },
  "0182609": {
    "zipcode": "0182609",
    "prefectureCode": "05",
    "prefectureNumber": 5,
    "prefecture": "秋田県",
    "city": "山本郡八峰町",
    "town": "八森門の沢"
  },
  "0182611": {
    "zipcode": "0182611",
    "prefectureCode": "05",
    "prefectureNumber": 5,
    "prefecture": "秋田県",
    "city": "山本郡八峰町",
    "town": "八森岩館"
  },
  "0182612": {
    "zipcode": "0182612",
    "prefectureCode": "05",
    "prefectureNumber": 5,
    "prefecture": "秋田県",
    "city": "山本郡八峰町",
    "town": "八森ノケソリ"
  },
  "0182613": {
    "zipcode": "0182613",
    "prefectureCode": "05",
    "prefectureNumber": 5,
    "prefecture": "秋田県",
    "city": "山本郡八峰町",
    "town": "八森鉱山"
  },
  "0182614": {
    "zipcode": "0182614",
    "prefectureCode": "05",
    "prefectureNumber": 5,
    "prefecture": "秋田県",
    "city": "山本郡八峰町",
    "town": "八森小入川家の上"
  },
  "0182615": {
    "zipcode": "0182615",
    "prefectureCode": "05",
    "prefectureNumber": 5,
    "prefecture": "秋田県",
    "city": "山本郡八峰町",
    "town": "八森伊勢鉢台"
  },
  "0182616": {
    "zipcode": "0182616",
    "prefectureCode": "05",
    "prefectureNumber": 5,
    "prefecture": "秋田県",
    "city": "山本郡八峰町",
    "town": "八森三沢"
  },
  "0182617": {
    "zipcode": "0182617",
    "prefectureCode": "05",
    "prefectureNumber": 5,
    "prefecture": "秋田県",
    "city": "山本郡八峰町",
    "town": "八森御所の台"
  },
  "0182618": {
    "zipcode": "0182618",
    "prefectureCode": "05",
    "prefectureNumber": 5,
    "prefecture": "秋田県",
    "city": "山本郡八峰町",
    "town": "八森木戸の沢"
  },
  "0182619": {
    "zipcode": "0182619",
    "prefectureCode": "05",
    "prefectureNumber": 5,
    "prefecture": "秋田県",
    "city": "山本郡八峰町",
    "town": "八森長坂"
  },
  "0182621": {
    "zipcode": "0182621",
    "prefectureCode": "05",
    "prefectureNumber": 5,
    "prefecture": "秋田県",
    "city": "山本郡八峰町",
    "town": "八森茶の沢"
  },
  "0182622": {
    "zipcode": "0182622",
    "prefectureCode": "05",
    "prefectureNumber": 5,
    "prefecture": "秋田県",
    "city": "山本郡八峰町",
    "town": "八森家の向"
  },
  "0182623": {
    "zipcode": "0182623",
    "prefectureCode": "05",
    "prefectureNumber": 5,
    "prefecture": "秋田県",
    "city": "山本郡八峰町",
    "town": "八森滝ノ間"
  },
  "0182624": {
    "zipcode": "0182624",
    "prefectureCode": "05",
    "prefectureNumber": 5,
    "prefecture": "秋田県",
    "city": "山本郡八峰町",
    "town": "八森横間台"
  },
  "0182625": {
    "zipcode": "0182625",
    "prefectureCode": "05",
    "prefectureNumber": 5,
    "prefecture": "秋田県",
    "city": "山本郡八峰町",
    "town": "八森山内台"
  },
  "0182626": {
    "zipcode": "0182626",
    "prefectureCode": "05",
    "prefectureNumber": 5,
    "prefecture": "秋田県",
    "city": "山本郡八峰町",
    "town": "八森横間"
  },
  "0182627": {
    "zipcode": "0182627",
    "prefectureCode": "05",
    "prefectureNumber": 5,
    "prefecture": "秋田県",
    "city": "山本郡八峰町",
    "town": "八森山内"
  },
  "0182628": {
    "zipcode": "0182628",
    "prefectureCode": "05",
    "prefectureNumber": 5,
    "prefecture": "秋田県",
    "city": "山本郡八峰町",
    "town": "八森立石"
  },
  "0182631": {
    "zipcode": "0182631",
    "prefectureCode": "05",
    "prefectureNumber": 5,
    "prefecture": "秋田県",
    "city": "山本郡八峰町",
    "town": "八森五輪台下段"
  },
  "0182632": {
    "zipcode": "0182632",
    "prefectureCode": "05",
    "prefectureNumber": 5,
    "prefecture": "秋田県",
    "city": "山本郡八峰町",
    "town": "八森三十釜"
  },
  "0182633": {
    "zipcode": "0182633",
    "prefectureCode": "05",
    "prefectureNumber": 5,
    "prefecture": "秋田県",
    "city": "山本郡八峰町",
    "town": "八森五輪台上段"
  },
  "0182634": {
    "zipcode": "0182634",
    "prefectureCode": "05",
    "prefectureNumber": 5,
    "prefecture": "秋田県",
    "city": "山本郡八峰町",
    "town": "八森滝の上"
  },
  "0182635": {
    "zipcode": "0182635",
    "prefectureCode": "05",
    "prefectureNumber": 5,
    "prefecture": "秋田県",
    "city": "山本郡八峰町",
    "town": "八森下嘉治助台"
  },
  "0182636": {
    "zipcode": "0182636",
    "prefectureCode": "05",
    "prefectureNumber": 5,
    "prefecture": "秋田県",
    "city": "山本郡八峰町",
    "town": "八森上嘉治助台"
  },
  "0182637": {
    "zipcode": "0182637",
    "prefectureCode": "05",
    "prefectureNumber": 5,
    "prefecture": "秋田県",
    "city": "山本郡八峰町",
    "town": "八森家の後"
  },
  "0182638": {
    "zipcode": "0182638",
    "prefectureCode": "05",
    "prefectureNumber": 5,
    "prefecture": "秋田県",
    "city": "山本郡八峰町",
    "town": "八森茂浦"
  },
  "0182641": {
    "zipcode": "0182641",
    "prefectureCode": "05",
    "prefectureNumber": 5,
    "prefecture": "秋田県",
    "city": "山本郡八峰町",
    "town": "八森中浜"
  },
  "0182642": {
    "zipcode": "0182642",
    "prefectureCode": "05",
    "prefectureNumber": 5,
    "prefecture": "秋田県",
    "city": "山本郡八峰町",
    "town": "八森椿"
  },
  "0182643": {
    "zipcode": "0182643",
    "prefectureCode": "05",
    "prefectureNumber": 5,
    "prefecture": "秋田県",
    "city": "山本郡八峰町",
    "town": "八森家の上"
  },
  "0182644": {
    "zipcode": "0182644",
    "prefectureCode": "05",
    "prefectureNumber": 5,
    "prefecture": "秋田県",
    "city": "山本郡八峰町",
    "town": "八森椿台"
  },
  "0182645": {
    "zipcode": "0182645",
    "prefectureCode": "05",
    "prefectureNumber": 5,
    "prefecture": "秋田県",
    "city": "山本郡八峰町",
    "town": "八森中嶋"
  },
  "0182646": {
    "zipcode": "0182646",
    "prefectureCode": "05",
    "prefectureNumber": 5,
    "prefecture": "秋田県",
    "city": "山本郡八峰町",
    "town": "八森塚の台"
  },
  "0182647": {
    "zipcode": "0182647",
    "prefectureCode": "05",
    "prefectureNumber": 5,
    "prefecture": "秋田県",
    "city": "山本郡八峰町",
    "town": "八森鹿の浦"
  },
  "0182648": {
    "zipcode": "0182648",
    "prefectureCode": "05",
    "prefectureNumber": 5,
    "prefecture": "秋田県",
    "city": "山本郡八峰町",
    "town": "八森泊台"
  },
  "0182651": {
    "zipcode": "0182651",
    "prefectureCode": "05",
    "prefectureNumber": 5,
    "prefecture": "秋田県",
    "city": "山本郡八峰町",
    "town": "八森下館下"
  },
  "0182652": {
    "zipcode": "0182652",
    "prefectureCode": "05",
    "prefectureNumber": 5,
    "prefecture": "秋田県",
    "city": "山本郡八峰町",
    "town": "八森本館中台"
  },
  "0182653": {
    "zipcode": "0182653",
    "prefectureCode": "05",
    "prefectureNumber": 5,
    "prefecture": "秋田県",
    "city": "山本郡八峰町",
    "town": "八森倉の沢"
  },
  "0182654": {
    "zipcode": "0182654",
    "prefectureCode": "05",
    "prefectureNumber": 5,
    "prefecture": "秋田県",
    "city": "山本郡八峰町",
    "town": "八森諸沢口"
  },
  "0182655": {
    "zipcode": "0182655",
    "prefectureCode": "05",
    "prefectureNumber": 5,
    "prefecture": "秋田県",
    "city": "山本郡八峰町",
    "town": "八森本館"
  },
  "0182656": {
    "zipcode": "0182656",
    "prefectureCode": "05",
    "prefectureNumber": 5,
    "prefecture": "秋田県",
    "city": "山本郡八峰町",
    "town": "八森諸沢下脇"
  },
  "0182661": {
    "zipcode": "0182661",
    "prefectureCode": "05",
    "prefectureNumber": 5,
    "prefecture": "秋田県",
    "city": "山本郡八峰町",
    "town": "八森浜田"
  },
  "0182662": {
    "zipcode": "0182662",
    "prefectureCode": "05",
    "prefectureNumber": 5,
    "prefecture": "秋田県",
    "city": "山本郡八峰町",
    "town": "八森新浜田"
  },
  "0182663": {
    "zipcode": "0182663",
    "prefectureCode": "05",
    "prefectureNumber": 5,
    "prefecture": "秋田県",
    "city": "山本郡八峰町",
    "town": "八森樋長"
  },
  "0182664": {
    "zipcode": "0182664",
    "prefectureCode": "05",
    "prefectureNumber": 5,
    "prefecture": "秋田県",
    "city": "山本郡八峰町",
    "town": "八森古屋敷"
  },
  "0182665": {
    "zipcode": "0182665",
    "prefectureCode": "05",
    "prefectureNumber": 5,
    "prefecture": "秋田県",
    "city": "山本郡八峰町",
    "town": "八森寺の後川向"
  },
  "0182666": {
    "zipcode": "0182666",
    "prefectureCode": "05",
    "prefectureNumber": 5,
    "prefecture": "秋田県",
    "city": "山本郡八峰町",
    "town": "八森寺の後"
  },
  "0182667": {
    "zipcode": "0182667",
    "prefectureCode": "05",
    "prefectureNumber": 5,
    "prefecture": "秋田県",
    "city": "山本郡八峰町",
    "town": "八森八森家後"
  },
  "0182671": {
    "zipcode": "0182671",
    "prefectureCode": "05",
    "prefectureNumber": 5,
    "prefecture": "秋田県",
    "city": "山本郡八峰町",
    "town": "八森湯の尻"
  },
  "0182672": {
    "zipcode": "0182672",
    "prefectureCode": "05",
    "prefectureNumber": 5,
    "prefecture": "秋田県",
    "city": "山本郡八峰町",
    "town": "八森下家後"
  },
  "0182673": {
    "zipcode": "0182673",
    "prefectureCode": "05",
    "prefectureNumber": 5,
    "prefecture": "秋田県",
    "city": "山本郡八峰町",
    "town": "八森中家後"
  },
  "0182674": {
    "zipcode": "0182674",
    "prefectureCode": "05",
    "prefectureNumber": 5,
    "prefecture": "秋田県",
    "city": "山本郡八峰町",
    "town": "八森上家後"
  },
  "0182675": {
    "zipcode": "0182675",
    "prefectureCode": "05",
    "prefectureNumber": 5,
    "prefecture": "秋田県",
    "city": "山本郡八峰町",
    "town": "八森篭田"
  },
  "0182676": {
    "zipcode": "0182676",
    "prefectureCode": "05",
    "prefectureNumber": 5,
    "prefecture": "秋田県",
    "city": "山本郡八峰町",
    "town": "八森磯村"
  },
  "0182677": {
    "zipcode": "0182677",
    "prefectureCode": "05",
    "prefectureNumber": 5,
    "prefecture": "秋田県",
    "city": "山本郡八峰町",
    "town": "八森八森後"
  },
  "0182678": {
    "zipcode": "0182678",
    "prefectureCode": "05",
    "prefectureNumber": 5,
    "prefecture": "秋田県",
    "city": "山本郡八峰町",
    "town": "八森八森"
  },
  "0182801": {
    "zipcode": "0182801",
    "prefectureCode": "05",
    "prefectureNumber": 5,
    "prefecture": "秋田県",
    "city": "能代市",
    "town": "常盤"
  },
  "0182802": {
    "zipcode": "0182802",
    "prefectureCode": "05",
    "prefectureNumber": 5,
    "prefecture": "秋田県",
    "city": "能代市",
    "town": "天内"
  },
  "0182803": {
    "zipcode": "0182803",
    "prefectureCode": "05",
    "prefectureNumber": 5,
    "prefecture": "秋田県",
    "city": "能代市",
    "town": "外割田"
  },
  "0182804": {
    "zipcode": "0182804",
    "prefectureCode": "05",
    "prefectureNumber": 5,
    "prefecture": "秋田県",
    "city": "能代市",
    "town": "槐"
  },
  "0182805": {
    "zipcode": "0182805",
    "prefectureCode": "05",
    "prefectureNumber": 5,
    "prefecture": "秋田県",
    "city": "能代市",
    "town": "轟"
  },
  "0182806": {
    "zipcode": "0182806",
    "prefectureCode": "05",
    "prefectureNumber": 5,
    "prefecture": "秋田県",
    "city": "能代市",
    "town": "久喜沢"
  },
  "0182811": {
    "zipcode": "0182811",
    "prefectureCode": "05",
    "prefectureNumber": 5,
    "prefecture": "秋田県",
    "city": "能代市",
    "town": "産物"
  },
  "0182812": {
    "zipcode": "0182812",
    "prefectureCode": "05",
    "prefectureNumber": 5,
    "prefecture": "秋田県",
    "city": "能代市",
    "town": "大曲"
  },
  "0182813": {
    "zipcode": "0182813",
    "prefectureCode": "05",
    "prefectureNumber": 5,
    "prefecture": "秋田県",
    "city": "能代市",
    "town": "上悪土"
  },
  "0182814": {
    "zipcode": "0182814",
    "prefectureCode": "05",
    "prefectureNumber": 5,
    "prefecture": "秋田県",
    "city": "能代市",
    "town": "狐森"
  },
  "0182815": {
    "zipcode": "0182815",
    "prefectureCode": "05",
    "prefectureNumber": 5,
    "prefecture": "秋田県",
    "city": "能代市",
    "town": "東面"
  },
  "0183101": {
    "zipcode": "0183101",
    "prefectureCode": "05",
    "prefectureNumber": 5,
    "prefecture": "秋田県",
    "city": "能代市",
    "town": "二ツ井町麻生"
  },
  "0183102": {
    "zipcode": "0183102",
    "prefectureCode": "05",
    "prefectureNumber": 5,
    "prefecture": "秋田県",
    "city": "能代市",
    "town": "二ツ井町小繋"
  },
  "0183103": {
    "zipcode": "0183103",
    "prefectureCode": "05",
    "prefectureNumber": 5,
    "prefecture": "秋田県",
    "city": "能代市",
    "town": "二ツ井町荷上場"
  },
  "0183104": {
    "zipcode": "0183104",
    "prefectureCode": "05",
    "prefectureNumber": 5,
    "prefecture": "秋田県",
    "city": "能代市",
    "town": "二ツ井町沢口"
  },
  "0183105": {
    "zipcode": "0183105",
    "prefectureCode": "05",
    "prefectureNumber": 5,
    "prefecture": "秋田県",
    "city": "能代市",
    "town": "二ツ井町上山崎"
  },
  "0183106": {
    "zipcode": "0183106",
    "prefectureCode": "05",
    "prefectureNumber": 5,
    "prefecture": "秋田県",
    "city": "能代市",
    "town": "二ツ井町濁川"
  },
  "0183107": {
    "zipcode": "0183107",
    "prefectureCode": "05",
    "prefectureNumber": 5,
    "prefecture": "秋田県",
    "city": "能代市",
    "town": "二ツ井町苅又石"
  },
  "0183111": {
    "zipcode": "0183111",
    "prefectureCode": "05",
    "prefectureNumber": 5,
    "prefecture": "秋田県",
    "city": "能代市",
    "town": "二ツ井町田代"
  },
  "0183112": {
    "zipcode": "0183112",
    "prefectureCode": "05",
    "prefectureNumber": 5,
    "prefecture": "秋田県",
    "city": "能代市",
    "town": "二ツ井町小掛"
  },
  "0183113": {
    "zipcode": "0183113",
    "prefectureCode": "05",
    "prefectureNumber": 5,
    "prefecture": "秋田県",
    "city": "能代市",
    "town": "二ツ井町仁鮒"
  },
  "0183114": {
    "zipcode": "0183114",
    "prefectureCode": "05",
    "prefectureNumber": 5,
    "prefecture": "秋田県",
    "city": "能代市",
    "town": "二ツ井町桜台"
  },
  "0183115": {
    "zipcode": "0183115",
    "prefectureCode": "05",
    "prefectureNumber": 5,
    "prefecture": "秋田県",
    "city": "能代市",
    "town": "二ツ井町海道上"
  },
  "0183116": {
    "zipcode": "0183116",
    "prefectureCode": "05",
    "prefectureNumber": 5,
    "prefecture": "秋田県",
    "city": "能代市",
    "town": "二ツ井町家後"
  },
  "0183117": {
    "zipcode": "0183117",
    "prefectureCode": "05",
    "prefectureNumber": 5,
    "prefecture": "秋田県",
    "city": "能代市",
    "town": "二ツ井町塚台"
  },
  "0183118": {
    "zipcode": "0183118",
    "prefectureCode": "05",
    "prefectureNumber": 5,
    "prefecture": "秋田県",
    "city": "能代市",
    "town": "二ツ井町上台"
  },
  "0183119": {
    "zipcode": "0183119",
    "prefectureCode": "05",
    "prefectureNumber": 5,
    "prefecture": "秋田県",
    "city": "能代市",
    "town": "二ツ井町薄井"
  },
  "0183121": {
    "zipcode": "0183121",
    "prefectureCode": "05",
    "prefectureNumber": 5,
    "prefecture": "秋田県",
    "city": "能代市",
    "town": "二ツ井町飛根（富根）"
  },
  "0183122": {
    "zipcode": "0183122",
    "prefectureCode": "05",
    "prefectureNumber": 5,
    "prefecture": "秋田県",
    "city": "能代市",
    "town": "二ツ井町飛根（その他）"
  },
  "0183123": {
    "zipcode": "0183123",
    "prefectureCode": "05",
    "prefectureNumber": 5,
    "prefecture": "秋田県",
    "city": "能代市",
    "town": "二ツ井町駒形"
  },
  "0183124": {
    "zipcode": "0183124",
    "prefectureCode": "05",
    "prefectureNumber": 5,
    "prefecture": "秋田県",
    "city": "能代市",
    "town": "二ツ井町切石"
  },
  "0183125": {
    "zipcode": "0183125",
    "prefectureCode": "05",
    "prefectureNumber": 5,
    "prefecture": "秋田県",
    "city": "能代市",
    "town": "二ツ井町茶屋下"
  },
  "0183126": {
    "zipcode": "0183126",
    "prefectureCode": "05",
    "prefectureNumber": 5,
    "prefecture": "秋田県",
    "city": "能代市",
    "town": "二ツ井町狐台"
  },
  "0183127": {
    "zipcode": "0183127",
    "prefectureCode": "05",
    "prefectureNumber": 5,
    "prefecture": "秋田県",
    "city": "能代市",
    "town": "二ツ井町稗川原"
  },
  "0183128": {
    "zipcode": "0183128",
    "prefectureCode": "05",
    "prefectureNumber": 5,
    "prefecture": "秋田県",
    "city": "能代市",
    "town": "二ツ井町下稗柄"
  },
  "0183129": {
    "zipcode": "0183129",
    "prefectureCode": "05",
    "prefectureNumber": 5,
    "prefecture": "秋田県",
    "city": "能代市",
    "town": "二ツ井町稗柄"
  },
  "0183131": {
    "zipcode": "0183131",
    "prefectureCode": "05",
    "prefectureNumber": 5,
    "prefecture": "秋田県",
    "city": "能代市",
    "town": "二ツ井町梅内"
  },
  "0183132": {
    "zipcode": "0183132",
    "prefectureCode": "05",
    "prefectureNumber": 5,
    "prefecture": "秋田県",
    "city": "能代市",
    "town": "二ツ井町種（その他）"
  },
  "0183133": {
    "zipcode": "0183133",
    "prefectureCode": "05",
    "prefectureNumber": 5,
    "prefecture": "秋田県",
    "city": "能代市",
    "town": "二ツ井町種（竹原）"
  },
  "0183134": {
    "zipcode": "0183134",
    "prefectureCode": "05",
    "prefectureNumber": 5,
    "prefecture": "秋田県",
    "city": "能代市",
    "town": "二ツ井町高関"
  },
  "0183135": {
    "zipcode": "0183135",
    "prefectureCode": "05",
    "prefectureNumber": 5,
    "prefecture": "秋田県",
    "city": "能代市",
    "town": "二ツ井町山根"
  },
  "0183141": {
    "zipcode": "0183141",
    "prefectureCode": "05",
    "prefectureNumber": 5,
    "prefecture": "秋田県",
    "city": "能代市",
    "town": "二ツ井町五千苅"
  },
  "0183142": {
    "zipcode": "0183142",
    "prefectureCode": "05",
    "prefectureNumber": 5,
    "prefecture": "秋田県",
    "city": "能代市",
    "town": "二ツ井町上野"
  },
  "0183143": {
    "zipcode": "0183143",
    "prefectureCode": "05",
    "prefectureNumber": 5,
    "prefecture": "秋田県",
    "city": "能代市",
    "town": "二ツ井町太田面"
  },
  "0183144": {
    "zipcode": "0183144",
    "prefectureCode": "05",
    "prefectureNumber": 5,
    "prefecture": "秋田県",
    "city": "能代市",
    "town": "二ツ井町中坪"
  },
  "0183145": {
    "zipcode": "0183145",
    "prefectureCode": "05",
    "prefectureNumber": 5,
    "prefecture": "秋田県",
    "city": "能代市",
    "town": "二ツ井町道上中坪"
  },
  "0183146": {
    "zipcode": "0183146",
    "prefectureCode": "05",
    "prefectureNumber": 5,
    "prefecture": "秋田県",
    "city": "能代市",
    "town": "二ツ井町中坪道下"
  },
  "0183147": {
    "zipcode": "0183147",
    "prefectureCode": "05",
    "prefectureNumber": 5,
    "prefecture": "秋田県",
    "city": "能代市",
    "town": "二ツ井町小槻木"
  },
  "0183148": {
    "zipcode": "0183148",
    "prefectureCode": "05",
    "prefectureNumber": 5,
    "prefecture": "秋田県",
    "city": "能代市",
    "town": "二ツ井町槻ノ木"
  },
  "0183151": {
    "zipcode": "0183151",
    "prefectureCode": "05",
    "prefectureNumber": 5,
    "prefecture": "秋田県",
    "city": "能代市",
    "town": "二ツ井町三千苅"
  },
  "0183152": {
    "zipcode": "0183152",
    "prefectureCode": "05",
    "prefectureNumber": 5,
    "prefecture": "秋田県",
    "city": "能代市",
    "town": "二ツ井町下野家後"
  },
  "0183153": {
    "zipcode": "0183153",
    "prefectureCode": "05",
    "prefectureNumber": 5,
    "prefecture": "秋田県",
    "city": "能代市",
    "town": "二ツ井町滑良子川端"
  },
  "0183154": {
    "zipcode": "0183154",
    "prefectureCode": "05",
    "prefectureNumber": 5,
    "prefecture": "秋田県",
    "city": "能代市",
    "town": "二ツ井町町尻"
  },
  "0183155": {
    "zipcode": "0183155",
    "prefectureCode": "05",
    "prefectureNumber": 5,
    "prefecture": "秋田県",
    "city": "能代市",
    "town": "二ツ井町比井野"
  },
  "0183156": {
    "zipcode": "0183156",
    "prefectureCode": "05",
    "prefectureNumber": 5,
    "prefecture": "秋田県",
    "city": "能代市",
    "town": "二ツ井町下野川端"
  },
  "0183157": {
    "zipcode": "0183157",
    "prefectureCode": "05",
    "prefectureNumber": 5,
    "prefecture": "秋田県",
    "city": "能代市",
    "town": "二ツ井町下野"
  },
  "0183200": {
    "zipcode": "0183200",
    "prefectureCode": "05",
    "prefectureNumber": 5,
    "prefecture": "秋田県",
    "city": "山本郡藤里町",
    "town": "以下に掲載がない場合"
  },
  "0183201": {
    "zipcode": "0183201",
    "prefectureCode": "05",
    "prefectureNumber": 5,
    "prefecture": "秋田県",
    "city": "山本郡藤里町",
    "town": "藤琴"
  },
  "0183202": {
    "zipcode": "0183202",
    "prefectureCode": "05",
    "prefectureNumber": 5,
    "prefecture": "秋田県",
    "city": "山本郡藤里町",
    "town": "太良"
  },
  "0183203": {
    "zipcode": "0183203",
    "prefectureCode": "05",
    "prefectureNumber": 5,
    "prefecture": "秋田県",
    "city": "山本郡藤里町",
    "town": "大沢"
  },
  "0183204": {
    "zipcode": "0183204",
    "prefectureCode": "05",
    "prefectureNumber": 5,
    "prefecture": "秋田県",
    "city": "山本郡藤里町",
    "town": "矢坂"
  },
  "0183205": {
    "zipcode": "0183205",
    "prefectureCode": "05",
    "prefectureNumber": 5,
    "prefecture": "秋田県",
    "city": "山本郡藤里町",
    "town": "粕毛"
  },
  "0183300": {
    "zipcode": "0183300",
    "prefectureCode": "05",
    "prefectureNumber": 5,
    "prefecture": "秋田県",
    "city": "北秋田市",
    "town": "以下に掲載がない場合"
  },
  "0183301": {
    "zipcode": "0183301",
    "prefectureCode": "05",
    "prefectureNumber": 5,
    "prefecture": "秋田県",
    "city": "北秋田市",
    "town": "綴子"
  },
  "0183302": {
    "zipcode": "0183302",
    "prefectureCode": "05",
    "prefectureNumber": 5,
    "prefecture": "秋田県",
    "city": "北秋田市",
    "town": "栄"
  },
  "0183311": {
    "zipcode": "0183311",
    "prefectureCode": "05",
    "prefectureNumber": 5,
    "prefecture": "秋田県",
    "city": "北秋田市",
    "town": "材木町"
  },
  "0183312": {
    "zipcode": "0183312",
    "prefectureCode": "05",
    "prefectureNumber": 5,
    "prefecture": "秋田県",
    "city": "北秋田市",
    "town": "花園町"
  },
  "0183313": {
    "zipcode": "0183313",
    "prefectureCode": "05",
    "prefectureNumber": 5,
    "prefecture": "秋田県",
    "city": "北秋田市",
    "town": "旭町"
  },
  "0183314": {
    "zipcode": "0183314",
    "prefectureCode": "05",
    "prefectureNumber": 5,
    "prefecture": "秋田県",
    "city": "北秋田市",
    "town": "伊勢町"
  },
  "0183315": {
    "zipcode": "0183315",
    "prefectureCode": "05",
    "prefectureNumber": 5,
    "prefecture": "秋田県",
    "city": "北秋田市",
    "town": "宮前町"
  },
  "0183316": {
    "zipcode": "0183316",
    "prefectureCode": "05",
    "prefectureNumber": 5,
    "prefecture": "秋田県",
    "city": "北秋田市",
    "town": "東横町"
  },
  "0183321": {
    "zipcode": "0183321",
    "prefectureCode": "05",
    "prefectureNumber": 5,
    "prefecture": "秋田県",
    "city": "北秋田市",
    "town": "松葉町"
  },
  "0183322": {
    "zipcode": "0183322",
    "prefectureCode": "05",
    "prefectureNumber": 5,
    "prefecture": "秋田県",
    "city": "北秋田市",
    "town": "住吉町"
  },
  "0183323": {
    "zipcode": "0183323",
    "prefectureCode": "05",
    "prefectureNumber": 5,
    "prefecture": "秋田県",
    "city": "北秋田市",
    "town": "米代町"
  },
  "0183324": {
    "zipcode": "0183324",
    "prefectureCode": "05",
    "prefectureNumber": 5,
    "prefecture": "秋田県",
    "city": "北秋田市",
    "town": "大町"
  },
  "0183325": {
    "zipcode": "0183325",
    "prefectureCode": "05",
    "prefectureNumber": 5,
    "prefecture": "秋田県",
    "city": "北秋田市",
    "town": "元町"
  },
  "0183331": {
    "zipcode": "0183331",
    "prefectureCode": "05",
    "prefectureNumber": 5,
    "prefecture": "秋田県",
    "city": "北秋田市",
    "town": "鷹巣（その他）"
  },
  "0183332": {
    "zipcode": "0183332",
    "prefectureCode": "05",
    "prefectureNumber": 5,
    "prefecture": "秋田県",
    "city": "北秋田市",
    "town": "鷹巣（平崎上岱）"
  },
  "0183333": {
    "zipcode": "0183333",
    "prefectureCode": "05",
    "prefectureNumber": 5,
    "prefecture": "秋田県",
    "city": "北秋田市",
    "town": "坊沢"
  },
  "0183341": {
    "zipcode": "0183341",
    "prefectureCode": "05",
    "prefectureNumber": 5,
    "prefecture": "秋田県",
    "city": "北秋田市",
    "town": "黒沢"
  },
  "0183342": {
    "zipcode": "0183342",
    "prefectureCode": "05",
    "prefectureNumber": 5,
    "prefecture": "秋田県",
    "city": "北秋田市",
    "town": "前山"
  },
  "0183343": {
    "zipcode": "0183343",
    "prefectureCode": "05",
    "prefectureNumber": 5,
    "prefecture": "秋田県",
    "city": "北秋田市",
    "town": "今泉"
  },
  "0183451": {
    "zipcode": "0183451",
    "prefectureCode": "05",
    "prefectureNumber": 5,
    "prefecture": "秋田県",
    "city": "北秋田市",
    "town": "小森"
  },
  "0183452": {
    "zipcode": "0183452",
    "prefectureCode": "05",
    "prefectureNumber": 5,
    "prefecture": "秋田県",
    "city": "北秋田市",
    "town": "七日市"
  },
  "0183453": {
    "zipcode": "0183453",
    "prefectureCode": "05",
    "prefectureNumber": 5,
    "prefecture": "秋田県",
    "city": "北秋田市",
    "town": "中屋敷"
  },
  "0183454": {
    "zipcode": "0183454",
    "prefectureCode": "05",
    "prefectureNumber": 5,
    "prefecture": "秋田県",
    "city": "北秋田市",
    "town": "脇神"
  },
  "0183501": {
    "zipcode": "0183501",
    "prefectureCode": "05",
    "prefectureNumber": 5,
    "prefecture": "秋田県",
    "city": "大館市",
    "town": "岩瀬"
  },
  "0183502": {
    "zipcode": "0183502",
    "prefectureCode": "05",
    "prefectureNumber": 5,
    "prefecture": "秋田県",
    "city": "大館市",
    "town": "山田"
  },
  "0183503": {
    "zipcode": "0183503",
    "prefectureCode": "05",
    "prefectureNumber": 5,
    "prefecture": "秋田県",
    "city": "大館市",
    "town": "外川原"
  },
  "0183504": {
    "zipcode": "0183504",
    "prefectureCode": "05",
    "prefectureNumber": 5,
    "prefecture": "秋田県",
    "city": "大館市",
    "town": "長坂"
  },
  "0183505": {
    "zipcode": "0183505",
    "prefectureCode": "05",
    "prefectureNumber": 5,
    "prefecture": "秋田県",
    "city": "大館市",
    "town": "早口"
  },
  "0183506": {
    "zipcode": "0183506",
    "prefectureCode": "05",
    "prefectureNumber": 5,
    "prefecture": "秋田県",
    "city": "大館市",
    "town": "山瀬"
  },
  "0184201": {
    "zipcode": "0184201",
    "prefectureCode": "05",
    "prefectureNumber": 5,
    "prefecture": "秋田県",
    "city": "北秋田市",
    "town": "増沢"
  },
  "0184202": {
    "zipcode": "0184202",
    "prefectureCode": "05",
    "prefectureNumber": 5,
    "prefecture": "秋田県",
    "city": "北秋田市",
    "town": "八幡岱新田"
  },
  "0184203": {
    "zipcode": "0184203",
    "prefectureCode": "05",
    "prefectureNumber": 5,
    "prefecture": "秋田県",
    "city": "北秋田市",
    "town": "木戸石"
  },
  "0184211": {
    "zipcode": "0184211",
    "prefectureCode": "05",
    "prefectureNumber": 5,
    "prefecture": "秋田県",
    "city": "北秋田市",
    "town": "川井"
  },
  "0184221": {
    "zipcode": "0184221",
    "prefectureCode": "05",
    "prefectureNumber": 5,
    "prefecture": "秋田県",
    "city": "北秋田市",
    "town": "下杉"
  },
  "0184231": {
    "zipcode": "0184231",
    "prefectureCode": "05",
    "prefectureNumber": 5,
    "prefecture": "秋田県",
    "city": "北秋田市",
    "town": "上杉"
  },
  "0184241": {
    "zipcode": "0184241",
    "prefectureCode": "05",
    "prefectureNumber": 5,
    "prefecture": "秋田県",
    "city": "北秋田市",
    "town": "道城"
  },
  "0184251": {
    "zipcode": "0184251",
    "prefectureCode": "05",
    "prefectureNumber": 5,
    "prefecture": "秋田県",
    "city": "北秋田市",
    "town": "鎌沢"
  },
  "0184261": {
    "zipcode": "0184261",
    "prefectureCode": "05",
    "prefectureNumber": 5,
    "prefecture": "秋田県",
    "city": "北秋田市",
    "town": "芹沢"
  },
  "0184262": {
    "zipcode": "0184262",
    "prefectureCode": "05",
    "prefectureNumber": 5,
    "prefecture": "秋田県",
    "city": "北秋田市",
    "town": "三里"
  },
  "0184263": {
    "zipcode": "0184263",
    "prefectureCode": "05",
    "prefectureNumber": 5,
    "prefecture": "秋田県",
    "city": "北秋田市",
    "town": "三木田"
  },
  "0184271": {
    "zipcode": "0184271",
    "prefectureCode": "05",
    "prefectureNumber": 5,
    "prefecture": "秋田県",
    "city": "北秋田市",
    "town": "福田"
  },
  "0184272": {
    "zipcode": "0184272",
    "prefectureCode": "05",
    "prefectureNumber": 5,
    "prefecture": "秋田県",
    "city": "北秋田市",
    "town": "新田目"
  },
  "0184273": {
    "zipcode": "0184273",
    "prefectureCode": "05",
    "prefectureNumber": 5,
    "prefecture": "秋田県",
    "city": "北秋田市",
    "town": "根田"
  },
  "0184281": {
    "zipcode": "0184281",
    "prefectureCode": "05",
    "prefectureNumber": 5,
    "prefecture": "秋田県",
    "city": "北秋田市",
    "town": "羽根山"
  },
  "0184282": {
    "zipcode": "0184282",
    "prefectureCode": "05",
    "prefectureNumber": 5,
    "prefecture": "秋田県",
    "city": "北秋田市",
    "town": "李岱"
  },
  "0184301": {
    "zipcode": "0184301",
    "prefectureCode": "05",
    "prefectureNumber": 5,
    "prefecture": "秋田県",
    "city": "北秋田市",
    "town": "米内沢"
  },
  "0184302": {
    "zipcode": "0184302",
    "prefectureCode": "05",
    "prefectureNumber": 5,
    "prefecture": "秋田県",
    "city": "北秋田市",
    "town": "浦田"
  },
  "0184303": {
    "zipcode": "0184303",
    "prefectureCode": "05",
    "prefectureNumber": 5,
    "prefecture": "秋田県",
    "city": "北秋田市",
    "town": "本城"
  },
  "0184400": {
    "zipcode": "0184400",
    "prefectureCode": "05",
    "prefectureNumber": 5,
    "prefecture": "秋田県",
    "city": "北秋田郡上小阿仁村",
    "town": "以下に掲載がない場合"
  },
  "0184401": {
    "zipcode": "0184401",
    "prefectureCode": "05",
    "prefectureNumber": 5,
    "prefecture": "秋田県",
    "city": "北秋田郡上小阿仁村",
    "town": "沖田面"
  },
  "0184411": {
    "zipcode": "0184411",
    "prefectureCode": "05",
    "prefectureNumber": 5,
    "prefecture": "秋田県",
    "city": "北秋田郡上小阿仁村",
    "town": "福舘"
  },
  "0184412": {
    "zipcode": "0184412",
    "prefectureCode": "05",
    "prefectureNumber": 5,
    "prefecture": "秋田県",
    "city": "北秋田郡上小阿仁村",
    "town": "五反沢"
  },
  "0184413": {
    "zipcode": "0184413",
    "prefectureCode": "05",
    "prefectureNumber": 5,
    "prefecture": "秋田県",
    "city": "北秋田郡上小阿仁村",
    "town": "杉花"
  },
  "0184421": {
    "zipcode": "0184421",
    "prefectureCode": "05",
    "prefectureNumber": 5,
    "prefecture": "秋田県",
    "city": "北秋田郡上小阿仁村",
    "town": "小沢田"
  },
  "0184422": {
    "zipcode": "0184422",
    "prefectureCode": "05",
    "prefectureNumber": 5,
    "prefecture": "秋田県",
    "city": "北秋田郡上小阿仁村",
    "town": "堂川"
  },
  "0184423": {
    "zipcode": "0184423",
    "prefectureCode": "05",
    "prefectureNumber": 5,
    "prefecture": "秋田県",
    "city": "北秋田郡上小阿仁村",
    "town": "仏社"
  },
  "0184431": {
    "zipcode": "0184431",
    "prefectureCode": "05",
    "prefectureNumber": 5,
    "prefecture": "秋田県",
    "city": "北秋田郡上小阿仁村",
    "town": "大林"
  },
  "0184432": {
    "zipcode": "0184432",
    "prefectureCode": "05",
    "prefectureNumber": 5,
    "prefecture": "秋田県",
    "city": "北秋田郡上小阿仁村",
    "town": "南沢"
  },
  "0184511": {
    "zipcode": "0184511",
    "prefectureCode": "05",
    "prefectureNumber": 5,
    "prefecture": "秋田県",
    "city": "北秋田市",
    "town": "森吉"
  },
  "0184512": {
    "zipcode": "0184512",
    "prefectureCode": "05",
    "prefectureNumber": 5,
    "prefecture": "秋田県",
    "city": "北秋田市",
    "town": "根森田"
  },
  "0184513": {
    "zipcode": "0184513",
    "prefectureCode": "05",
    "prefectureNumber": 5,
    "prefecture": "秋田県",
    "city": "北秋田市",
    "town": "小又"
  },
  "0184514": {
    "zipcode": "0184514",
    "prefectureCode": "05",
    "prefectureNumber": 5,
    "prefecture": "秋田県",
    "city": "北秋田市",
    "town": "五味堀"
  },
  "0184515": {
    "zipcode": "0184515",
    "prefectureCode": "05",
    "prefectureNumber": 5,
    "prefecture": "秋田県",
    "city": "北秋田市",
    "town": "阿仁前田"
  },
  "0184516": {
    "zipcode": "0184516",
    "prefectureCode": "05",
    "prefectureNumber": 5,
    "prefecture": "秋田県",
    "city": "北秋田市",
    "town": "桂瀬"
  },
  "0184601": {
    "zipcode": "0184601",
    "prefectureCode": "05",
    "prefectureNumber": 5,
    "prefecture": "秋田県",
    "city": "北秋田市",
    "town": "阿仁吉田"
  },
  "0184602": {
    "zipcode": "0184602",
    "prefectureCode": "05",
    "prefectureNumber": 5,
    "prefecture": "秋田県",
    "city": "北秋田市",
    "town": "阿仁小渕"
  },
  "0184603": {
    "zipcode": "0184603",
    "prefectureCode": "05",
    "prefectureNumber": 5,
    "prefecture": "秋田県",
    "city": "北秋田市",
    "town": "阿仁小様"
  },
  "0184604": {
    "zipcode": "0184604",
    "prefectureCode": "05",
    "prefectureNumber": 5,
    "prefecture": "秋田県",
    "city": "北秋田市",
    "town": "阿仁三枚鉱山"
  },
  "0184611": {
    "zipcode": "0184611",
    "prefectureCode": "05",
    "prefectureNumber": 5,
    "prefecture": "秋田県",
    "city": "北秋田市",
    "town": "阿仁水無"
  },
  "0184612": {
    "zipcode": "0184612",
    "prefectureCode": "05",
    "prefectureNumber": 5,
    "prefecture": "秋田県",
    "city": "北秋田市",
    "town": "阿仁真木沢鉱山"
  },
  "0184613": {
    "zipcode": "0184613",
    "prefectureCode": "05",
    "prefectureNumber": 5,
    "prefecture": "秋田県",
    "city": "北秋田市",
    "town": "阿仁銀山"
  },
  "0184621": {
    "zipcode": "0184621",
    "prefectureCode": "05",
    "prefectureNumber": 5,
    "prefecture": "秋田県",
    "city": "北秋田市",
    "town": "阿仁荒瀬"
  },
  "0184622": {
    "zipcode": "0184622",
    "prefectureCode": "05",
    "prefectureNumber": 5,
    "prefecture": "秋田県",
    "city": "北秋田市",
    "town": "阿仁小沢鉱山"
  },
  "0184623": {
    "zipcode": "0184623",
    "prefectureCode": "05",
    "prefectureNumber": 5,
    "prefecture": "秋田県",
    "city": "北秋田市",
    "town": "阿仁荒瀬川櫃畑"
  },
  "0184624": {
    "zipcode": "0184624",
    "prefectureCode": "05",
    "prefectureNumber": 5,
    "prefecture": "秋田県",
    "city": "北秋田市",
    "town": "阿仁鍵ノ滝"
  },
  "0184731": {
    "zipcode": "0184731",
    "prefectureCode": "05",
    "prefectureNumber": 5,
    "prefecture": "秋田県",
    "city": "北秋田市",
    "town": "阿仁打当"
  },
  "0184732": {
    "zipcode": "0184732",
    "prefectureCode": "05",
    "prefectureNumber": 5,
    "prefecture": "秋田県",
    "city": "北秋田市",
    "town": "阿仁中村"
  },
  "0184733": {
    "zipcode": "0184733",
    "prefectureCode": "05",
    "prefectureNumber": 5,
    "prefecture": "秋田県",
    "city": "北秋田市",
    "town": "阿仁戸鳥内"
  },
  "0184734": {
    "zipcode": "0184734",
    "prefectureCode": "05",
    "prefectureNumber": 5,
    "prefecture": "秋田県",
    "city": "北秋田市",
    "town": "阿仁長畑"
  },
  "0184735": {
    "zipcode": "0184735",
    "prefectureCode": "05",
    "prefectureNumber": 5,
    "prefecture": "秋田県",
    "city": "北秋田市",
    "town": "阿仁比立内"
  },
  "0184741": {
    "zipcode": "0184741",
    "prefectureCode": "05",
    "prefectureNumber": 5,
    "prefecture": "秋田県",
    "city": "北秋田市",
    "town": "阿仁幸屋"
  },
  "0184742": {
    "zipcode": "0184742",
    "prefectureCode": "05",
    "prefectureNumber": 5,
    "prefecture": "秋田県",
    "city": "北秋田市",
    "town": "阿仁幸屋渡"
  },
  "0184743": {
    "zipcode": "0184743",
    "prefectureCode": "05",
    "prefectureNumber": 5,
    "prefecture": "秋田県",
    "city": "北秋田市",
    "town": "阿仁笑内"
  },
  "0184744": {
    "zipcode": "0184744",
    "prefectureCode": "05",
    "prefectureNumber": 5,
    "prefecture": "秋田県",
    "city": "北秋田市",
    "town": "阿仁根子"
  },
  "0184745": {
    "zipcode": "0184745",
    "prefectureCode": "05",
    "prefectureNumber": 5,
    "prefecture": "秋田県",
    "city": "北秋田市",
    "town": "阿仁萱草"
  },
  "0184746": {
    "zipcode": "0184746",
    "prefectureCode": "05",
    "prefectureNumber": 5,
    "prefecture": "秋田県",
    "city": "北秋田市",
    "town": "阿仁伏影"
  },
  "0185141": {
    "zipcode": "0185141",
    "prefectureCode": "05",
    "prefectureNumber": 5,
    "prefecture": "秋田県",
    "city": "鹿角市",
    "town": "八幡平"
  },
  "0185200": {
    "zipcode": "0185200",
    "prefectureCode": "05",
    "prefectureNumber": 5,
    "prefecture": "秋田県",
    "city": "鹿角市",
    "town": "以下に掲載がない場合"
  },
  "0185201": {
    "zipcode": "0185201",
    "prefectureCode": "05",
    "prefectureNumber": 5,
    "prefecture": "秋田県",
    "city": "鹿角市",
    "town": "花輪"
  },
  "0185202": {
    "zipcode": "0185202",
    "prefectureCode": "05",
    "prefectureNumber": 5,
    "prefecture": "秋田県",
    "city": "鹿角市",
    "town": "尾去沢"
  },
  "0185331": {
    "zipcode": "0185331",
    "prefectureCode": "05",
    "prefectureNumber": 5,
    "prefecture": "秋田県",
    "city": "鹿角市",
    "town": "十和田山根"
  },
  "0185332": {
    "zipcode": "0185332",
    "prefectureCode": "05",
    "prefectureNumber": 5,
    "prefecture": "秋田県",
    "city": "鹿角市",
    "town": "十和田上向"
  },
  "0185333": {
    "zipcode": "0185333",
    "prefectureCode": "05",
    "prefectureNumber": 5,
    "prefecture": "秋田県",
    "city": "鹿角市",
    "town": "十和田岡田"
  },
  "0185334": {
    "zipcode": "0185334",
    "prefectureCode": "05",
    "prefectureNumber": 5,
    "prefecture": "秋田県",
    "city": "鹿角市",
    "town": "十和田毛馬内"
  },
  "0185335": {
    "zipcode": "0185335",
    "prefectureCode": "05",
    "prefectureNumber": 5,
    "prefecture": "秋田県",
    "city": "鹿角市",
    "town": "十和田瀬田石"
  },
  "0185336": {
    "zipcode": "0185336",
    "prefectureCode": "05",
    "prefectureNumber": 5,
    "prefecture": "秋田県",
    "city": "鹿角市",
    "town": "十和田錦木"
  },
  "0185337": {
    "zipcode": "0185337",
    "prefectureCode": "05",
    "prefectureNumber": 5,
    "prefecture": "秋田県",
    "city": "鹿角市",
    "town": "十和田末広"
  },
  "0185421": {
    "zipcode": "0185421",
    "prefectureCode": "05",
    "prefectureNumber": 5,
    "prefecture": "秋田県",
    "city": "鹿角市",
    "town": "十和田大湯"
  },
  "0185422": {
    "zipcode": "0185422",
    "prefectureCode": "05",
    "prefectureNumber": 5,
    "prefecture": "秋田県",
    "city": "鹿角市",
    "town": "十和田草木"
  },
  "0185501": {
    "zipcode": "0185501",
    "prefectureCode": "02",
    "prefectureNumber": 2,
    "prefecture": "青森県",
    "city": "十和田市",
    "town": "奥瀬（青撫、小畳石、十和田、十和田湖畔宇樽部、十和田湖畔子ノ口、十和田湖畔休屋）"
  },
  "0185511": {
    "zipcode": "0185511",
    "prefectureCode": "05",
    "prefectureNumber": 5,
    "prefecture": "秋田県",
    "city": "鹿角郡小坂町",
    "town": "十和田湖"
  },
  "0185601": {
    "zipcode": "0185601",
    "prefectureCode": "05",
    "prefectureNumber": 5,
    "prefecture": "秋田県",
    "city": "大館市",
    "town": "十二所"
  },
  "0185602": {
    "zipcode": "0185602",
    "prefectureCode": "05",
    "prefectureNumber": 5,
    "prefecture": "秋田県",
    "city": "大館市",
    "town": "道目木"
  },
  "0185603": {
    "zipcode": "0185603",
    "prefectureCode": "05",
    "prefectureNumber": 5,
    "prefecture": "秋田県",
    "city": "大館市",
    "town": "曲田"
  },
  "0185604": {
    "zipcode": "0185604",
    "prefectureCode": "05",
    "prefectureNumber": 5,
    "prefecture": "秋田県",
    "city": "大館市",
    "town": "軽井沢"
  },
  "0185605": {
    "zipcode": "0185605",
    "prefectureCode": "05",
    "prefectureNumber": 5,
    "prefecture": "秋田県",
    "city": "大館市",
    "town": "猿間"
  },
  "0185606": {
    "zipcode": "0185606",
    "prefectureCode": "05",
    "prefectureNumber": 5,
    "prefecture": "秋田県",
    "city": "大館市",
    "town": "葛原"
  },
  "0185701": {
    "zipcode": "0185701",
    "prefectureCode": "05",
    "prefectureNumber": 5,
    "prefecture": "秋田県",
    "city": "大館市",
    "town": "比内町扇田"
  },
  "0185711": {
    "zipcode": "0185711",
    "prefectureCode": "05",
    "prefectureNumber": 5,
    "prefecture": "秋田県",
    "city": "大館市",
    "town": "比内町味噌内"
  },
  "0185712": {
    "zipcode": "0185712",
    "prefectureCode": "05",
    "prefectureNumber": 5,
    "prefecture": "秋田県",
    "city": "大館市",
    "town": "比内町新館"
  },
  "0185721": {
    "zipcode": "0185721",
    "prefectureCode": "05",
    "prefectureNumber": 5,
    "prefecture": "秋田県",
    "city": "大館市",
    "town": "比内町独鈷"
  },
  "0185722": {
    "zipcode": "0185722",
    "prefectureCode": "05",
    "prefectureNumber": 5,
    "prefecture": "秋田県",
    "city": "大館市",
    "town": "比内町中野"
  },
  "0185731": {
    "zipcode": "0185731",
    "prefectureCode": "05",
    "prefectureNumber": 5,
    "prefecture": "秋田県",
    "city": "大館市",
    "town": "比内町笹館"
  },
  "0185732": {
    "zipcode": "0185732",
    "prefectureCode": "05",
    "prefectureNumber": 5,
    "prefecture": "秋田県",
    "city": "大館市",
    "town": "比内町谷地中"
  },
  "0185741": {
    "zipcode": "0185741",
    "prefectureCode": "05",
    "prefectureNumber": 5,
    "prefecture": "秋田県",
    "city": "大館市",
    "town": "比内町達子"
  },
  "0185742": {
    "zipcode": "0185742",
    "prefectureCode": "05",
    "prefectureNumber": 5,
    "prefecture": "秋田県",
    "city": "大館市",
    "town": "比内町白沢水沢"
  },
  "0185743": {
    "zipcode": "0185743",
    "prefectureCode": "05",
    "prefectureNumber": 5,
    "prefecture": "秋田県",
    "city": "大館市",
    "town": "比内町小坪沢"
  },
  "0185744": {
    "zipcode": "0185744",
    "prefectureCode": "05",
    "prefectureNumber": 5,
    "prefecture": "秋田県",
    "city": "大館市",
    "town": "比内町八木橋"
  },
  "0185745": {
    "zipcode": "0185745",
    "prefectureCode": "05",
    "prefectureNumber": 5,
    "prefecture": "秋田県",
    "city": "大館市",
    "town": "比内町片貝"
  },
  "0185751": {
    "zipcode": "0185751",
    "prefectureCode": "05",
    "prefectureNumber": 5,
    "prefecture": "秋田県",
    "city": "大館市",
    "town": "二井田"
  },
  "0185752": {
    "zipcode": "0185752",
    "prefectureCode": "05",
    "prefectureNumber": 5,
    "prefecture": "秋田県",
    "city": "大館市",
    "town": "本宮"
  },
  "0185753": {
    "zipcode": "0185753",
    "prefectureCode": "05",
    "prefectureNumber": 5,
    "prefecture": "秋田県",
    "city": "大館市",
    "town": "比内前田"
  },
  "0185754": {
    "zipcode": "0185754",
    "prefectureCode": "05",
    "prefectureNumber": 5,
    "prefecture": "秋田県",
    "city": "大館市",
    "town": "大子内"
  },
  "0185755": {
    "zipcode": "0185755",
    "prefectureCode": "05",
    "prefectureNumber": 5,
    "prefecture": "秋田県",
    "city": "大館市",
    "town": "杉沢"
  },
  "0185756": {
    "zipcode": "0185756",
    "prefectureCode": "05",
    "prefectureNumber": 5,
    "prefecture": "秋田県",
    "city": "大館市",
    "town": "下川原"
  },
  "0185851": {
    "zipcode": "0185851",
    "prefectureCode": "05",
    "prefectureNumber": 5,
    "prefecture": "秋田県",
    "city": "大館市",
    "town": "比内町大葛"
  }
}
