{
  "0190111": {
    "zipcode": "0190111",
    "prefectureCode": "05",
    "prefectureNumber": 5,
    "prefecture": "秋田県",
    "city": "湯沢市",
    "town": "上院内"
  },
  "0190112": {
    "zipcode": "0190112",
    "prefectureCode": "05",
    "prefectureNumber": 5,
    "prefecture": "秋田県",
    "city": "湯沢市",
    "town": "下院内"
  },
  "0190113": {
    "zipcode": "0190113",
    "prefectureCode": "05",
    "prefectureNumber": 5,
    "prefecture": "秋田県",
    "city": "湯沢市",
    "town": "院内銀山町"
  },
  "0190201": {
    "zipcode": "0190201",
    "prefectureCode": "05",
    "prefectureNumber": 5,
    "prefecture": "秋田県",
    "city": "湯沢市",
    "town": "泉沢"
  },
  "0190202": {
    "zipcode": "0190202",
    "prefectureCode": "05",
    "prefectureNumber": 5,
    "prefecture": "秋田県",
    "city": "湯沢市",
    "town": "桑崎"
  },
  "0190203": {
    "zipcode": "0190203",
    "prefectureCode": "05",
    "prefectureNumber": 5,
    "prefecture": "秋田県",
    "city": "湯沢市",
    "town": "寺沢"
  },
  "0190204": {
    "zipcode": "0190204",
    "prefectureCode": "05",
    "prefectureNumber": 5,
    "prefecture": "秋田県",
    "city": "湯沢市",
    "town": "横堀"
  },
  "0190205": {
    "zipcode": "0190205",
    "prefectureCode": "05",
    "prefectureNumber": 5,
    "prefecture": "秋田県",
    "city": "湯沢市",
    "town": "小野"
  },
  "0190321": {
    "zipcode": "0190321",
    "prefectureCode": "05",
    "prefectureNumber": 5,
    "prefecture": "秋田県",
    "city": "湯沢市",
    "town": "秋ノ宮"
  },
  "0190401": {
    "zipcode": "0190401",
    "prefectureCode": "05",
    "prefectureNumber": 5,
    "prefecture": "秋田県",
    "city": "湯沢市",
    "town": "酒蒔"
  },
  "0190402": {
    "zipcode": "0190402",
    "prefectureCode": "05",
    "prefectureNumber": 5,
    "prefecture": "秋田県",
    "city": "湯沢市",
    "town": "相川"
  },
  "0190403": {
    "zipcode": "0190403",
    "prefectureCode": "05",
    "prefectureNumber": 5,
    "prefecture": "秋田県",
    "city": "湯沢市",
    "town": "宇留院内"
  },
  "0190404": {
    "zipcode": "0190404",
    "prefectureCode": "05",
    "prefectureNumber": 5,
    "prefecture": "秋田県",
    "city": "湯沢市",
    "town": "高松"
  },
  "0190481": {
    "zipcode": "0190481",
    "prefectureCode": "05",
    "prefectureNumber": 5,
    "prefecture": "秋田県",
    "city": "湯沢市",
    "town": "皆瀬（水上沢）"
  },
  "0190501": {
    "zipcode": "0190501",
    "prefectureCode": "05",
    "prefectureNumber": 5,
    "prefecture": "秋田県",
    "city": "横手市",
    "town": "十文字町腕越"
  },
  "0190502": {
    "zipcode": "0190502",
    "prefectureCode": "05",
    "prefectureNumber": 5,
    "prefecture": "秋田県",
    "city": "横手市",
    "town": "十文字町西原２番町"
  },
  "0190503": {
    "zipcode": "0190503",
    "prefectureCode": "05",
    "prefectureNumber": 5,
    "prefecture": "秋田県",
    "city": "横手市",
    "town": "十文字町西原１番町"
  },
  "0190505": {
    "zipcode": "0190505",
    "prefectureCode": "05",
    "prefectureNumber": 5,
    "prefecture": "秋田県",
    "city": "横手市",
    "town": "十文字町仁井田"
  },
  "0190506": {
    "zipcode": "0190506",
    "prefectureCode": "05",
    "prefectureNumber": 5,
    "prefecture": "秋田県",
    "city": "横手市",
    "town": "十文字町佐賀会"
  },
  "0190507": {
    "zipcode": "0190507",
    "prefectureCode": "05",
    "prefectureNumber": 5,
    "prefecture": "秋田県",
    "city": "横手市",
    "town": "十文字町上鍋倉"
  },
  "0190508": {
    "zipcode": "0190508",
    "prefectureCode": "05",
    "prefectureNumber": 5,
    "prefecture": "秋田県",
    "city": "横手市",
    "town": "十文字町十五野新田"
  },
  "0190509": {
    "zipcode": "0190509",
    "prefectureCode": "05",
    "prefectureNumber": 5,
    "prefecture": "秋田県",
    "city": "横手市",
    "town": "十文字町梨木"
  },
  "0190511": {
    "zipcode": "0190511",
    "prefectureCode": "05",
    "prefectureNumber": 5,
    "prefecture": "秋田県",
    "city": "横手市",
    "town": "十文字町鼎"
  },
  "0190512": {
    "zipcode": "0190512",
    "prefectureCode": "05",
    "prefectureNumber": 5,
    "prefecture": "秋田県",
    "city": "横手市",
    "town": "十文字町越前"
  },
  "0190513": {
    "zipcode": "0190513",
    "prefectureCode": "05",
    "prefectureNumber": 5,
    "prefecture": "秋田県",
    "city": "横手市",
    "town": "十文字町植田"
  },
  "0190514": {
    "zipcode": "0190514",
    "prefectureCode": "05",
    "prefectureNumber": 5,
    "prefecture": "秋田県",
    "city": "横手市",
    "town": "十文字町睦合"
  },
  "0190515": {
    "zipcode": "0190515",
    "prefectureCode": "05",
    "prefectureNumber": 5,
    "prefecture": "秋田県",
    "city": "横手市",
    "town": "十文字町谷地新田"
  },
  "0190516": {
    "zipcode": "0190516",
    "prefectureCode": "05",
    "prefectureNumber": 5,
    "prefecture": "秋田県",
    "city": "横手市",
    "town": "十文字町源太左馬"
  },
  "0190517": {
    "zipcode": "0190517",
    "prefectureCode": "05",
    "prefectureNumber": 5,
    "prefecture": "秋田県",
    "city": "横手市",
    "town": "十文字町木下"
  },
  "0190518": {
    "zipcode": "0190518",
    "prefectureCode": "05",
    "prefectureNumber": 5,
    "prefecture": "秋田県",
    "city": "横手市",
    "town": "十文字町宝竜"
  },
  "0190521": {
    "zipcode": "0190521",
    "prefectureCode": "05",
    "prefectureNumber": 5,
    "prefecture": "秋田県",
    "city": "横手市",
    "town": "十文字町西下"
  },
  "0190522": {
    "zipcode": "0190522",
    "prefectureCode": "05",
    "prefectureNumber": 5,
    "prefecture": "秋田県",
    "city": "横手市",
    "town": "十文字町西上"
  },
  "0190523": {
    "zipcode": "0190523",
    "prefectureCode": "05",
    "prefectureNumber": 5,
    "prefecture": "秋田県",
    "city": "横手市",
    "town": "十文字町十文字"
  },
  "0190524": {
    "zipcode": "0190524",
    "prefectureCode": "05",
    "prefectureNumber": 5,
    "prefecture": "秋田県",
    "city": "横手市",
    "town": "十文字町本町"
  },
  "0190525": {
    "zipcode": "0190525",
    "prefectureCode": "05",
    "prefectureNumber": 5,
    "prefecture": "秋田県",
    "city": "横手市",
    "town": "十文字町曙町"
  },
  "0190526": {
    "zipcode": "0190526",
    "prefectureCode": "05",
    "prefectureNumber": 5,
    "prefecture": "秋田県",
    "city": "横手市",
    "town": "十文字町通町"
  },
  "0190527": {
    "zipcode": "0190527",
    "prefectureCode": "05",
    "prefectureNumber": 5,
    "prefecture": "秋田県",
    "city": "横手市",
    "town": "十文字町大道東"
  },
  "0190528": {
    "zipcode": "0190528",
    "prefectureCode": "05",
    "prefectureNumber": 5,
    "prefecture": "秋田県",
    "city": "横手市",
    "town": "十文字町栄町"
  },
  "0190529": {
    "zipcode": "0190529",
    "prefectureCode": "05",
    "prefectureNumber": 5,
    "prefecture": "秋田県",
    "city": "横手市",
    "town": "十文字町海道下"
  },
  "0190531": {
    "zipcode": "0190531",
    "prefectureCode": "05",
    "prefectureNumber": 5,
    "prefecture": "秋田県",
    "city": "横手市",
    "town": "十文字町上佐吉開"
  },
  "0190532": {
    "zipcode": "0190532",
    "prefectureCode": "05",
    "prefectureNumber": 5,
    "prefecture": "秋田県",
    "city": "横手市",
    "town": "十文字町麻当"
  },
  "0190533": {
    "zipcode": "0190533",
    "prefectureCode": "05",
    "prefectureNumber": 5,
    "prefecture": "秋田県",
    "city": "横手市",
    "town": "十文字町下佐吉開"
  },
  "0190701": {
    "zipcode": "0190701",
    "prefectureCode": "05",
    "prefectureNumber": 5,
    "prefecture": "秋田県",
    "city": "横手市",
    "town": "増田町増田"
  },
  "0190702": {
    "zipcode": "0190702",
    "prefectureCode": "05",
    "prefectureNumber": 5,
    "prefecture": "秋田県",
    "city": "横手市",
    "town": "増田町亀田"
  },
  "0190703": {
    "zipcode": "0190703",
    "prefectureCode": "05",
    "prefectureNumber": 5,
    "prefecture": "秋田県",
    "city": "横手市",
    "town": "増田町吉野"
  },
  "0190704": {
    "zipcode": "0190704",
    "prefectureCode": "05",
    "prefectureNumber": 5,
    "prefecture": "秋田県",
    "city": "横手市",
    "town": "増田町湯野沢"
  },
  "0190705": {
    "zipcode": "0190705",
    "prefectureCode": "05",
    "prefectureNumber": 5,
    "prefecture": "秋田県",
    "city": "横手市",
    "town": "増田町狙半内"
  },
  "0190711": {
    "zipcode": "0190711",
    "prefectureCode": "05",
    "prefectureNumber": 5,
    "prefecture": "秋田県",
    "city": "横手市",
    "town": "増田町荻袋"
  },
  "0190712": {
    "zipcode": "0190712",
    "prefectureCode": "05",
    "prefectureNumber": 5,
    "prefecture": "秋田県",
    "city": "横手市",
    "town": "増田町熊渕"
  },
  "0190713": {
    "zipcode": "0190713",
    "prefectureCode": "05",
    "prefectureNumber": 5,
    "prefecture": "秋田県",
    "city": "横手市",
    "town": "増田町三又"
  },
  "0190714": {
    "zipcode": "0190714",
    "prefectureCode": "05",
    "prefectureNumber": 5,
    "prefecture": "秋田県",
    "city": "横手市",
    "town": "増田町戸波"
  },
  "0190715": {
    "zipcode": "0190715",
    "prefectureCode": "05",
    "prefectureNumber": 5,
    "prefecture": "秋田県",
    "city": "横手市",
    "town": "増田町八木"
  },
  "0190800": {
    "zipcode": "0190800",
    "prefectureCode": "05",
    "prefectureNumber": 5,
    "prefecture": "秋田県",
    "city": "雄勝郡東成瀬村",
    "town": "以下に掲載がない場合"
  },
  "0190801": {
    "zipcode": "0190801",
    "prefectureCode": "05",
    "prefectureNumber": 5,
    "prefecture": "秋田県",
    "city": "雄勝郡東成瀬村",
    "town": "田子内"
  },
  "0190802": {
    "zipcode": "0190802",
    "prefectureCode": "05",
    "prefectureNumber": 5,
    "prefecture": "秋田県",
    "city": "雄勝郡東成瀬村",
    "town": "岩井川"
  },
  "0190803": {
    "zipcode": "0190803",
    "prefectureCode": "05",
    "prefectureNumber": 5,
    "prefecture": "秋田県",
    "city": "雄勝郡東成瀬村",
    "town": "椿川"
  },
  "0191101": {
    "zipcode": "0191101",
    "prefectureCode": "05",
    "prefectureNumber": 5,
    "prefecture": "秋田県",
    "city": "横手市",
    "town": "山内大松川"
  },
  "0191102": {
    "zipcode": "0191102",
    "prefectureCode": "05",
    "prefectureNumber": 5,
    "prefecture": "秋田県",
    "city": "横手市",
    "town": "山内小松川"
  },
  "0191103": {
    "zipcode": "0191103",
    "prefectureCode": "05",
    "prefectureNumber": 5,
    "prefecture": "秋田県",
    "city": "横手市",
    "town": "山内黒沢"
  },
  "0191104": {
    "zipcode": "0191104",
    "prefectureCode": "05",
    "prefectureNumber": 5,
    "prefecture": "秋田県",
    "city": "横手市",
    "town": "山内三又"
  },
  "0191105": {
    "zipcode": "0191105",
    "prefectureCode": "05",
    "prefectureNumber": 5,
    "prefecture": "秋田県",
    "city": "横手市",
    "town": "山内南郷"
  },
  "0191106": {
    "zipcode": "0191106",
    "prefectureCode": "05",
    "prefectureNumber": 5,
    "prefecture": "秋田県",
    "city": "横手市",
    "town": "山内平野沢"
  },
  "0191107": {
    "zipcode": "0191107",
    "prefectureCode": "05",
    "prefectureNumber": 5,
    "prefecture": "秋田県",
    "city": "横手市",
    "town": "山内筏"
  },
  "0191108": {
    "zipcode": "0191108",
    "prefectureCode": "05",
    "prefectureNumber": 5,
    "prefecture": "秋田県",
    "city": "横手市",
    "town": "山内土渕"
  },
  "0191109": {
    "zipcode": "0191109",
    "prefectureCode": "05",
    "prefectureNumber": 5,
    "prefecture": "秋田県",
    "city": "横手市",
    "town": "山内大沢"
  },
  "0191231": {
    "zipcode": "0191231",
    "prefectureCode": "05",
    "prefectureNumber": 5,
    "prefecture": "秋田県",
    "city": "仙北郡美郷町",
    "town": "南町"
  },
  "0191232": {
    "zipcode": "0191232",
    "prefectureCode": "05",
    "prefectureNumber": 5,
    "prefecture": "秋田県",
    "city": "仙北郡美郷町",
    "town": "天神堂"
  },
  "0191233": {
    "zipcode": "0191233",
    "prefectureCode": "05",
    "prefectureNumber": 5,
    "prefecture": "秋田県",
    "city": "仙北郡美郷町",
    "town": "境田"
  },
  "0191234": {
    "zipcode": "0191234",
    "prefectureCode": "05",
    "prefectureNumber": 5,
    "prefecture": "秋田県",
    "city": "仙北郡美郷町",
    "town": "飯詰"
  },
  "0191235": {
    "zipcode": "0191235",
    "prefectureCode": "05",
    "prefectureNumber": 5,
    "prefecture": "秋田県",
    "city": "仙北郡美郷町",
    "town": "金沢西根"
  },
  "0191236": {
    "zipcode": "0191236",
    "prefectureCode": "05",
    "prefectureNumber": 5,
    "prefecture": "秋田県",
    "city": "仙北郡美郷町",
    "town": "上深井"
  },
  "0191237": {
    "zipcode": "0191237",
    "prefectureCode": "05",
    "prefectureNumber": 5,
    "prefecture": "秋田県",
    "city": "仙北郡美郷町",
    "town": "佐野"
  },
  "0191301": {
    "zipcode": "0191301",
    "prefectureCode": "05",
    "prefectureNumber": 5,
    "prefecture": "秋田県",
    "city": "仙北郡美郷町",
    "town": "野荒町"
  },
  "0191302": {
    "zipcode": "0191302",
    "prefectureCode": "05",
    "prefectureNumber": 5,
    "prefecture": "秋田県",
    "city": "仙北郡美郷町",
    "town": "金沢"
  },
  "0191400": {
    "zipcode": "0191400",
    "prefectureCode": "05",
    "prefectureNumber": 5,
    "prefecture": "秋田県",
    "city": "仙北郡美郷町",
    "town": "以下に掲載がない場合"
  },
  "0191401": {
    "zipcode": "0191401",
    "prefectureCode": "05",
    "prefectureNumber": 5,
    "prefecture": "秋田県",
    "city": "仙北郡美郷町",
    "town": "鑓田"
  },
  "0191402": {
    "zipcode": "0191402",
    "prefectureCode": "05",
    "prefectureNumber": 5,
    "prefecture": "秋田県",
    "city": "仙北郡美郷町",
    "town": "野中"
  },
  "0191403": {
    "zipcode": "0191403",
    "prefectureCode": "05",
    "prefectureNumber": 5,
    "prefecture": "秋田県",
    "city": "仙北郡美郷町",
    "town": "六郷東根"
  },
  "0191404": {
    "zipcode": "0191404",
    "prefectureCode": "05",
    "prefectureNumber": 5,
    "prefecture": "秋田県",
    "city": "仙北郡美郷町",
    "town": "六郷"
  },
  "0191501": {
    "zipcode": "0191501",
    "prefectureCode": "05",
    "prefectureNumber": 5,
    "prefecture": "秋田県",
    "city": "仙北郡美郷町",
    "town": "浪花"
  },
  "0191502": {
    "zipcode": "0191502",
    "prefectureCode": "05",
    "prefectureNumber": 5,
    "prefecture": "秋田県",
    "city": "仙北郡美郷町",
    "town": "千屋"
  },
  "0191511": {
    "zipcode": "0191511",
    "prefectureCode": "05",
    "prefectureNumber": 5,
    "prefecture": "秋田県",
    "city": "仙北郡美郷町",
    "town": "黒沢"
  },
  "0191512": {
    "zipcode": "0191512",
    "prefectureCode": "05",
    "prefectureNumber": 5,
    "prefecture": "秋田県",
    "city": "仙北郡美郷町",
    "town": "本堂城回"
  },
  "0191521": {
    "zipcode": "0191521",
    "prefectureCode": "05",
    "prefectureNumber": 5,
    "prefecture": "秋田県",
    "city": "仙北郡美郷町",
    "town": "中野"
  },
  "0191522": {
    "zipcode": "0191522",
    "prefectureCode": "05",
    "prefectureNumber": 5,
    "prefecture": "秋田県",
    "city": "仙北郡美郷町",
    "town": "金沢東根"
  },
  "0191531": {
    "zipcode": "0191531",
    "prefectureCode": "05",
    "prefectureNumber": 5,
    "prefecture": "秋田県",
    "city": "仙北郡美郷町",
    "town": "畑屋"
  },
  "0191532": {
    "zipcode": "0191532",
    "prefectureCode": "05",
    "prefectureNumber": 5,
    "prefecture": "秋田県",
    "city": "仙北郡美郷町",
    "town": "羽貫谷地"
  },
  "0191533": {
    "zipcode": "0191533",
    "prefectureCode": "05",
    "prefectureNumber": 5,
    "prefecture": "秋田県",
    "city": "仙北郡美郷町",
    "town": "安城寺"
  },
  "0191541": {
    "zipcode": "0191541",
    "prefectureCode": "05",
    "prefectureNumber": 5,
    "prefecture": "秋田県",
    "city": "仙北郡美郷町",
    "town": "土崎"
  },
  "0191542": {
    "zipcode": "0191542",
    "prefectureCode": "05",
    "prefectureNumber": 5,
    "prefecture": "秋田県",
    "city": "仙北郡美郷町",
    "town": "小荒川"
  },
  "0191601": {
    "zipcode": "0191601",
    "prefectureCode": "05",
    "prefectureNumber": 5,
    "prefecture": "秋田県",
    "city": "大仙市",
    "town": "太田町横沢"
  },
  "0191602": {
    "zipcode": "0191602",
    "prefectureCode": "05",
    "prefectureNumber": 5,
    "prefecture": "秋田県",
    "city": "大仙市",
    "town": "太田町三本扇"
  },
  "0191603": {
    "zipcode": "0191603",
    "prefectureCode": "05",
    "prefectureNumber": 5,
    "prefecture": "秋田県",
    "city": "大仙市",
    "town": "太田町中里"
  },
  "0191604": {
    "zipcode": "0191604",
    "prefectureCode": "05",
    "prefectureNumber": 5,
    "prefecture": "秋田県",
    "city": "大仙市",
    "town": "太田町駒場"
  },
  "0191605": {
    "zipcode": "0191605",
    "prefectureCode": "05",
    "prefectureNumber": 5,
    "prefecture": "秋田県",
    "city": "大仙市",
    "town": "太田町国見"
  },
  "0191611": {
    "zipcode": "0191611",
    "prefectureCode": "05",
    "prefectureNumber": 5,
    "prefecture": "秋田県",
    "city": "大仙市",
    "town": "太田町斉内"
  },
  "0191612": {
    "zipcode": "0191612",
    "prefectureCode": "05",
    "prefectureNumber": 5,
    "prefecture": "秋田県",
    "city": "大仙市",
    "town": "太田町小神成"
  },
  "0191613": {
    "zipcode": "0191613",
    "prefectureCode": "05",
    "prefectureNumber": 5,
    "prefecture": "秋田県",
    "city": "大仙市",
    "town": "太田町太田"
  },
  "0191614": {
    "zipcode": "0191614",
    "prefectureCode": "05",
    "prefectureNumber": 5,
    "prefecture": "秋田県",
    "city": "大仙市",
    "town": "太田町東今泉"
  },
  "0191615": {
    "zipcode": "0191615",
    "prefectureCode": "05",
    "prefectureNumber": 5,
    "prefecture": "秋田県",
    "city": "大仙市",
    "town": "太田町川口"
  },
  "0191616": {
    "zipcode": "0191616",
    "prefectureCode": "05",
    "prefectureNumber": 5,
    "prefecture": "秋田県",
    "city": "大仙市",
    "town": "太田町永代"
  },
  "0191701": {
    "zipcode": "0191701",
    "prefectureCode": "05",
    "prefectureNumber": 5,
    "prefecture": "秋田県",
    "city": "大仙市",
    "town": "神宮寺"
  },
  "0191702": {
    "zipcode": "0191702",
    "prefectureCode": "05",
    "prefectureNumber": 5,
    "prefecture": "秋田県",
    "city": "大仙市",
    "town": "北楢岡"
  },
  "0191801": {
    "zipcode": "0191801",
    "prefectureCode": "05",
    "prefectureNumber": 5,
    "prefecture": "秋田県",
    "city": "大仙市",
    "town": "南外物渡台"
  },
  "0191802": {
    "zipcode": "0191802",
    "prefectureCode": "05",
    "prefectureNumber": 5,
    "prefecture": "秋田県",
    "city": "大仙市",
    "town": "南外小春木沢"
  },
  "0191803": {
    "zipcode": "0191803",
    "prefectureCode": "05",
    "prefectureNumber": 5,
    "prefecture": "秋田県",
    "city": "大仙市",
    "town": "南外坊田石兀ノ下"
  },
  "0191804": {
    "zipcode": "0191804",
    "prefectureCode": "05",
    "prefectureNumber": 5,
    "prefecture": "秋田県",
    "city": "大仙市",
    "town": "南外西野"
  },
  "0191805": {
    "zipcode": "0191805",
    "prefectureCode": "05",
    "prefectureNumber": 5,
    "prefecture": "秋田県",
    "city": "大仙市",
    "town": "南外西板戸"
  },
  "0191806": {
    "zipcode": "0191806",
    "prefectureCode": "05",
    "prefectureNumber": 5,
    "prefecture": "秋田県",
    "city": "大仙市",
    "town": "南外十二袋"
  },
  "0191807": {
    "zipcode": "0191807",
    "prefectureCode": "05",
    "prefectureNumber": 5,
    "prefecture": "秋田県",
    "city": "大仙市",
    "town": "南外川口本町"
  },
  "0191808": {
    "zipcode": "0191808",
    "prefectureCode": "05",
    "prefectureNumber": 5,
    "prefecture": "秋田県",
    "city": "大仙市",
    "town": "南外川口"
  },
  "0191811": {
    "zipcode": "0191811",
    "prefectureCode": "05",
    "prefectureNumber": 5,
    "prefecture": "秋田県",
    "city": "大仙市",
    "town": "南外本宿"
  },
  "0191812": {
    "zipcode": "0191812",
    "prefectureCode": "05",
    "prefectureNumber": 5,
    "prefecture": "秋田県",
    "city": "大仙市",
    "town": "南外沖田"
  },
  "0191813": {
    "zipcode": "0191813",
    "prefectureCode": "05",
    "prefectureNumber": 5,
    "prefecture": "秋田県",
    "city": "大仙市",
    "town": "南外猿ケ瀬出野"
  },
  "0191814": {
    "zipcode": "0191814",
    "prefectureCode": "05",
    "prefectureNumber": 5,
    "prefecture": "秋田県",
    "city": "大仙市",
    "town": "南外下木直"
  },
  "0191815": {
    "zipcode": "0191815",
    "prefectureCode": "05",
    "prefectureNumber": 5,
    "prefecture": "秋田県",
    "city": "大仙市",
    "town": "南外平形"
  },
  "0191816": {
    "zipcode": "0191816",
    "prefectureCode": "05",
    "prefectureNumber": 5,
    "prefecture": "秋田県",
    "city": "大仙市",
    "town": "南外上木直"
  },
  "0191817": {
    "zipcode": "0191817",
    "prefectureCode": "05",
    "prefectureNumber": 5,
    "prefecture": "秋田県",
    "city": "大仙市",
    "town": "南外木直沢"
  },
  "0191822": {
    "zipcode": "0191822",
    "prefectureCode": "05",
    "prefectureNumber": 5,
    "prefecture": "秋田県",
    "city": "大仙市",
    "town": "南外田屋村"
  },
  "0191824": {
    "zipcode": "0191824",
    "prefectureCode": "05",
    "prefectureNumber": 5,
    "prefecture": "秋田県",
    "city": "大仙市",
    "town": "南外宮田"
  },
  "0191825": {
    "zipcode": "0191825",
    "prefectureCode": "05",
    "prefectureNumber": 5,
    "prefecture": "秋田県",
    "city": "大仙市",
    "town": "南外坊田"
  },
  "0191826": {
    "zipcode": "0191826",
    "prefectureCode": "05",
    "prefectureNumber": 5,
    "prefecture": "秋田県",
    "city": "大仙市",
    "town": "南外田中田"
  },
  "0191827": {
    "zipcode": "0191827",
    "prefectureCode": "05",
    "prefectureNumber": 5,
    "prefecture": "秋田県",
    "city": "大仙市",
    "town": "南外田中田山根"
  },
  "0191831": {
    "zipcode": "0191831",
    "prefectureCode": "05",
    "prefectureNumber": 5,
    "prefecture": "秋田県",
    "city": "大仙市",
    "town": "南外壇ノ平山"
  },
  "0191832": {
    "zipcode": "0191832",
    "prefectureCode": "05",
    "prefectureNumber": 5,
    "prefecture": "秋田県",
    "city": "大仙市",
    "town": "南外北田山田ケ沢"
  },
  "0191834": {
    "zipcode": "0191834",
    "prefectureCode": "05",
    "prefectureNumber": 5,
    "prefecture": "秋田県",
    "city": "大仙市",
    "town": "南外北田黒瀬"
  },
  "0191835": {
    "zipcode": "0191835",
    "prefectureCode": "05",
    "prefectureNumber": 5,
    "prefecture": "秋田県",
    "city": "大仙市",
    "town": "南外揚土"
  },
  "0191841": {
    "zipcode": "0191841",
    "prefectureCode": "05",
    "prefectureNumber": 5,
    "prefecture": "秋田県",
    "city": "大仙市",
    "town": "南外大杉山岸"
  },
  "0191842": {
    "zipcode": "0191842",
    "prefectureCode": "05",
    "prefectureNumber": 5,
    "prefecture": "秋田県",
    "city": "大仙市",
    "town": "南外大杉"
  },
  "0191843": {
    "zipcode": "0191843",
    "prefectureCode": "05",
    "prefectureNumber": 5,
    "prefecture": "秋田県",
    "city": "大仙市",
    "town": "南外大杉二タ又杉"
  },
  "0191846": {
    "zipcode": "0191846",
    "prefectureCode": "05",
    "prefectureNumber": 5,
    "prefecture": "秋田県",
    "city": "大仙市",
    "town": "南外梨木田"
  },
  "0191847": {
    "zipcode": "0191847",
    "prefectureCode": "05",
    "prefectureNumber": 5,
    "prefecture": "秋田県",
    "city": "大仙市",
    "town": "南外小出"
  },
  "0191848": {
    "zipcode": "0191848",
    "prefectureCode": "05",
    "prefectureNumber": 5,
    "prefecture": "秋田県",
    "city": "大仙市",
    "town": "南外鞦田"
  },
  "0191851": {
    "zipcode": "0191851",
    "prefectureCode": "05",
    "prefectureNumber": 5,
    "prefecture": "秋田県",
    "city": "大仙市",
    "town": "南外山王台"
  },
  "0191852": {
    "zipcode": "0191852",
    "prefectureCode": "05",
    "prefectureNumber": 5,
    "prefecture": "秋田県",
    "city": "大仙市",
    "town": "南外太田"
  },
  "0191853": {
    "zipcode": "0191853",
    "prefectureCode": "05",
    "prefectureNumber": 5,
    "prefecture": "秋田県",
    "city": "大仙市",
    "town": "南外坊田黒沢"
  },
  "0191855": {
    "zipcode": "0191855",
    "prefectureCode": "05",
    "prefectureNumber": 5,
    "prefecture": "秋田県",
    "city": "大仙市",
    "town": "南外大畑"
  },
  "0191856": {
    "zipcode": "0191856",
    "prefectureCode": "05",
    "prefectureNumber": 5,
    "prefecture": "秋田県",
    "city": "大仙市",
    "town": "南外大畑深山"
  },
  "0191857": {
    "zipcode": "0191857",
    "prefectureCode": "05",
    "prefectureNumber": 5,
    "prefecture": "秋田県",
    "city": "大仙市",
    "town": "南外大畑潜沢"
  },
  "0191858": {
    "zipcode": "0191858",
    "prefectureCode": "05",
    "prefectureNumber": 5,
    "prefecture": "秋田県",
    "city": "大仙市",
    "town": "南外赤平六郎沢"
  },
  "0191861": {
    "zipcode": "0191861",
    "prefectureCode": "05",
    "prefectureNumber": 5,
    "prefecture": "秋田県",
    "city": "大仙市",
    "town": "南外寺沢"
  },
  "0191862": {
    "zipcode": "0191862",
    "prefectureCode": "05",
    "prefectureNumber": 5,
    "prefecture": "秋田県",
    "city": "大仙市",
    "town": "南外和合"
  },
  "0191863": {
    "zipcode": "0191863",
    "prefectureCode": "05",
    "prefectureNumber": 5,
    "prefecture": "秋田県",
    "city": "大仙市",
    "town": "南外赤平貝沼"
  },
  "0191864": {
    "zipcode": "0191864",
    "prefectureCode": "05",
    "prefectureNumber": 5,
    "prefecture": "秋田県",
    "city": "大仙市",
    "town": "南外赤平大道東"
  },
  "0191865": {
    "zipcode": "0191865",
    "prefectureCode": "05",
    "prefectureNumber": 5,
    "prefecture": "秋田県",
    "city": "大仙市",
    "town": "南外赤平後野"
  },
  "0191866": {
    "zipcode": "0191866",
    "prefectureCode": "05",
    "prefectureNumber": 5,
    "prefecture": "秋田県",
    "city": "大仙市",
    "town": "南外赤平台野"
  },
  "0191868": {
    "zipcode": "0191868",
    "prefectureCode": "05",
    "prefectureNumber": 5,
    "prefecture": "秋田県",
    "city": "大仙市",
    "town": "南外赤平平家"
  },
  "0191871": {
    "zipcode": "0191871",
    "prefectureCode": "05",
    "prefectureNumber": 5,
    "prefecture": "秋田県",
    "city": "大仙市",
    "town": "南外谷地田"
  },
  "0191872": {
    "zipcode": "0191872",
    "prefectureCode": "05",
    "prefectureNumber": 5,
    "prefecture": "秋田県",
    "city": "大仙市",
    "town": "南外上中宿"
  },
  "0191873": {
    "zipcode": "0191873",
    "prefectureCode": "05",
    "prefectureNumber": 5,
    "prefecture": "秋田県",
    "city": "大仙市",
    "town": "南外田中"
  },
  "0191874": {
    "zipcode": "0191874",
    "prefectureCode": "05",
    "prefectureNumber": 5,
    "prefecture": "秋田県",
    "city": "大仙市",
    "town": "南外中宿"
  },
  "0191875": {
    "zipcode": "0191875",
    "prefectureCode": "05",
    "prefectureNumber": 5,
    "prefecture": "秋田県",
    "city": "大仙市",
    "town": "南外落合"
  },
  "0191876": {
    "zipcode": "0191876",
    "prefectureCode": "05",
    "prefectureNumber": 5,
    "prefecture": "秋田県",
    "city": "大仙市",
    "town": "南外新屋布"
  },
  "0191877": {
    "zipcode": "0191877",
    "prefectureCode": "05",
    "prefectureNumber": 5,
    "prefecture": "秋田県",
    "city": "大仙市",
    "town": "南外水沢"
  },
  "0191878": {
    "zipcode": "0191878",
    "prefectureCode": "05",
    "prefectureNumber": 5,
    "prefecture": "秋田県",
    "city": "大仙市",
    "town": "南外及位"
  },
  "0191881": {
    "zipcode": "0191881",
    "prefectureCode": "05",
    "prefectureNumber": 5,
    "prefecture": "秋田県",
    "city": "大仙市",
    "town": "南外葎沢"
  },
  "0191882": {
    "zipcode": "0191882",
    "prefectureCode": "05",
    "prefectureNumber": 5,
    "prefecture": "秋田県",
    "city": "大仙市",
    "town": "南外大和野"
  },
  "0191883": {
    "zipcode": "0191883",
    "prefectureCode": "05",
    "prefectureNumber": 5,
    "prefecture": "秋田県",
    "city": "大仙市",
    "town": "南外平沢"
  },
  "0191884": {
    "zipcode": "0191884",
    "prefectureCode": "05",
    "prefectureNumber": 5,
    "prefecture": "秋田県",
    "city": "大仙市",
    "town": "南外林ノ沢"
  },
  "0191885": {
    "zipcode": "0191885",
    "prefectureCode": "05",
    "prefectureNumber": 5,
    "prefecture": "秋田県",
    "city": "大仙市",
    "town": "南外無尻橋"
  },
  "0191886": {
    "zipcode": "0191886",
    "prefectureCode": "05",
    "prefectureNumber": 5,
    "prefecture": "秋田県",
    "city": "大仙市",
    "town": "南外西ノ又"
  },
  "0191887": {
    "zipcode": "0191887",
    "prefectureCode": "05",
    "prefectureNumber": 5,
    "prefecture": "秋田県",
    "city": "大仙市",
    "town": "南外中渡"
  },
  "0191888": {
    "zipcode": "0191888",
    "prefectureCode": "05",
    "prefectureNumber": 5,
    "prefecture": "秋田県",
    "city": "大仙市",
    "town": "南外土場"
  },
  "0191901": {
    "zipcode": "0191901",
    "prefectureCode": "05",
    "prefectureNumber": 5,
    "prefecture": "秋田県",
    "city": "大仙市",
    "town": "南外悪戸野"
  },
  "0191902": {
    "zipcode": "0191902",
    "prefectureCode": "05",
    "prefectureNumber": 5,
    "prefecture": "秋田県",
    "city": "大仙市",
    "town": "南外下袋"
  },
  "0191903": {
    "zipcode": "0191903",
    "prefectureCode": "05",
    "prefectureNumber": 5,
    "prefecture": "秋田県",
    "city": "大仙市",
    "town": "南外下鎌田"
  },
  "0191904": {
    "zipcode": "0191904",
    "prefectureCode": "05",
    "prefectureNumber": 5,
    "prefecture": "秋田県",
    "city": "大仙市",
    "town": "南外中袋"
  },
  "0191905": {
    "zipcode": "0191905",
    "prefectureCode": "05",
    "prefectureNumber": 5,
    "prefecture": "秋田県",
    "city": "大仙市",
    "town": "南外大向"
  },
  "0191906": {
    "zipcode": "0191906",
    "prefectureCode": "05",
    "prefectureNumber": 5,
    "prefecture": "秋田県",
    "city": "大仙市",
    "town": "南外金屋"
  },
  "0191907": {
    "zipcode": "0191907",
    "prefectureCode": "05",
    "prefectureNumber": 5,
    "prefecture": "秋田県",
    "city": "大仙市",
    "town": "南外上鎌田"
  },
  "0191908": {
    "zipcode": "0191908",
    "prefectureCode": "05",
    "prefectureNumber": 5,
    "prefecture": "秋田県",
    "city": "大仙市",
    "town": "南外上野"
  },
  "0191909": {
    "zipcode": "0191909",
    "prefectureCode": "05",
    "prefectureNumber": 5,
    "prefecture": "秋田県",
    "city": "大仙市",
    "town": "南外杉橋"
  },
  "0191911": {
    "zipcode": "0191911",
    "prefectureCode": "05",
    "prefectureNumber": 5,
    "prefecture": "秋田県",
    "city": "大仙市",
    "town": "南外坊村"
  },
  "0191912": {
    "zipcode": "0191912",
    "prefectureCode": "05",
    "prefectureNumber": 5,
    "prefecture": "秋田県",
    "city": "大仙市",
    "town": "南外丸木橋"
  },
  "0191913": {
    "zipcode": "0191913",
    "prefectureCode": "05",
    "prefectureNumber": 5,
    "prefecture": "秋田県",
    "city": "大仙市",
    "town": "南外湯神台"
  },
  "0191914": {
    "zipcode": "0191914",
    "prefectureCode": "05",
    "prefectureNumber": 5,
    "prefecture": "秋田県",
    "city": "大仙市",
    "town": "南外湯ノ又"
  },
  "0191915": {
    "zipcode": "0191915",
    "prefectureCode": "05",
    "prefectureNumber": 5,
    "prefecture": "秋田県",
    "city": "大仙市",
    "town": "南外下湯ノ又"
  },
  "0191916": {
    "zipcode": "0191916",
    "prefectureCode": "05",
    "prefectureNumber": 5,
    "prefecture": "秋田県",
    "city": "大仙市",
    "town": "南外石仏"
  },
  "0191917": {
    "zipcode": "0191917",
    "prefectureCode": "05",
    "prefectureNumber": 5,
    "prefecture": "秋田県",
    "city": "大仙市",
    "town": "南外薬師堂"
  },
  "0191918": {
    "zipcode": "0191918",
    "prefectureCode": "05",
    "prefectureNumber": 5,
    "prefecture": "秋田県",
    "city": "大仙市",
    "town": "南外広表"
  },
  "0191921": {
    "zipcode": "0191921",
    "prefectureCode": "05",
    "prefectureNumber": 5,
    "prefecture": "秋田県",
    "city": "大仙市",
    "town": "南外中野"
  },
  "0191922": {
    "zipcode": "0191922",
    "prefectureCode": "05",
    "prefectureNumber": 5,
    "prefecture": "秋田県",
    "city": "大仙市",
    "town": "南外上中野"
  },
  "0191923": {
    "zipcode": "0191923",
    "prefectureCode": "05",
    "prefectureNumber": 5,
    "prefecture": "秋田県",
    "city": "大仙市",
    "town": "南外巣ノ沢"
  },
  "0191924": {
    "zipcode": "0191924",
    "prefectureCode": "05",
    "prefectureNumber": 5,
    "prefecture": "秋田県",
    "city": "大仙市",
    "town": "南外巣ノ沢石切場"
  },
  "0191925": {
    "zipcode": "0191925",
    "prefectureCode": "05",
    "prefectureNumber": 5,
    "prefecture": "秋田県",
    "city": "大仙市",
    "town": "南外上巣ノ沢"
  },
  "0191926": {
    "zipcode": "0191926",
    "prefectureCode": "05",
    "prefectureNumber": 5,
    "prefecture": "秋田県",
    "city": "大仙市",
    "town": "南外上桑台"
  },
  "0191927": {
    "zipcode": "0191927",
    "prefectureCode": "05",
    "prefectureNumber": 5,
    "prefecture": "秋田県",
    "city": "大仙市",
    "town": "南外中桑台"
  },
  "0191928": {
    "zipcode": "0191928",
    "prefectureCode": "05",
    "prefectureNumber": 5,
    "prefecture": "秋田県",
    "city": "大仙市",
    "town": "南外滝中田表"
  },
  "0191929": {
    "zipcode": "0191929",
    "prefectureCode": "05",
    "prefectureNumber": 5,
    "prefecture": "秋田県",
    "city": "大仙市",
    "town": "南外中野山"
  },
  "0191931": {
    "zipcode": "0191931",
    "prefectureCode": "05",
    "prefectureNumber": 5,
    "prefecture": "秋田県",
    "city": "大仙市",
    "town": "南外下滝"
  },
  "0191932": {
    "zipcode": "0191932",
    "prefectureCode": "05",
    "prefectureNumber": 5,
    "prefecture": "秋田県",
    "city": "大仙市",
    "town": "南外大黒森"
  },
  "0191933": {
    "zipcode": "0191933",
    "prefectureCode": "05",
    "prefectureNumber": 5,
    "prefecture": "秋田県",
    "city": "大仙市",
    "town": "南外滝ノ沢"
  },
  "0191934": {
    "zipcode": "0191934",
    "prefectureCode": "05",
    "prefectureNumber": 5,
    "prefecture": "秋田県",
    "city": "大仙市",
    "town": "南外田尻"
  },
  "0191935": {
    "zipcode": "0191935",
    "prefectureCode": "05",
    "prefectureNumber": 5,
    "prefecture": "秋田県",
    "city": "大仙市",
    "town": "南外大平"
  },
  "0191936": {
    "zipcode": "0191936",
    "prefectureCode": "05",
    "prefectureNumber": 5,
    "prefecture": "秋田県",
    "city": "大仙市",
    "town": "南外中荒沢"
  },
  "0191937": {
    "zipcode": "0191937",
    "prefectureCode": "05",
    "prefectureNumber": 5,
    "prefecture": "秋田県",
    "city": "大仙市",
    "town": "南外小荒沢"
  },
  "0191938": {
    "zipcode": "0191938",
    "prefectureCode": "05",
    "prefectureNumber": 5,
    "prefecture": "秋田県",
    "city": "大仙市",
    "town": "南外下荒沢"
  },
  "0191939": {
    "zipcode": "0191939",
    "prefectureCode": "05",
    "prefectureNumber": 5,
    "prefecture": "秋田県",
    "city": "大仙市",
    "town": "南外水上沢"
  },
  "0191941": {
    "zipcode": "0191941",
    "prefectureCode": "05",
    "prefectureNumber": 5,
    "prefecture": "秋田県",
    "city": "大仙市",
    "town": "南外松木田"
  },
  "0191942": {
    "zipcode": "0191942",
    "prefectureCode": "05",
    "prefectureNumber": 5,
    "prefecture": "秋田県",
    "city": "大仙市",
    "town": "南外岩倉"
  },
  "0191943": {
    "zipcode": "0191943",
    "prefectureCode": "05",
    "prefectureNumber": 5,
    "prefecture": "秋田県",
    "city": "大仙市",
    "town": "南外一ト刎"
  },
  "0191944": {
    "zipcode": "0191944",
    "prefectureCode": "05",
    "prefectureNumber": 5,
    "prefecture": "秋田県",
    "city": "大仙市",
    "town": "南外湯元"
  },
  "0191945": {
    "zipcode": "0191945",
    "prefectureCode": "05",
    "prefectureNumber": 5,
    "prefecture": "秋田県",
    "city": "大仙市",
    "town": "南外岩瀬"
  },
  "0191946": {
    "zipcode": "0191946",
    "prefectureCode": "05",
    "prefectureNumber": 5,
    "prefecture": "秋田県",
    "city": "大仙市",
    "town": "南外十二ノ前"
  },
  "0191947": {
    "zipcode": "0191947",
    "prefectureCode": "05",
    "prefectureNumber": 5,
    "prefecture": "秋田県",
    "city": "大仙市",
    "town": "南外下釜坂"
  },
  "0191948": {
    "zipcode": "0191948",
    "prefectureCode": "05",
    "prefectureNumber": 5,
    "prefecture": "秋田県",
    "city": "大仙市",
    "town": "南外上釜坂"
  },
  "0191949": {
    "zipcode": "0191949",
    "prefectureCode": "05",
    "prefectureNumber": 5,
    "prefecture": "秋田県",
    "city": "大仙市",
    "town": "南外赤畑"
  },
  "0191951": {
    "zipcode": "0191951",
    "prefectureCode": "05",
    "prefectureNumber": 5,
    "prefecture": "秋田県",
    "city": "大仙市",
    "town": "南外黒滝"
  },
  "0191952": {
    "zipcode": "0191952",
    "prefectureCode": "05",
    "prefectureNumber": 5,
    "prefecture": "秋田県",
    "city": "大仙市",
    "town": "南外下荒又"
  },
  "0191953": {
    "zipcode": "0191953",
    "prefectureCode": "05",
    "prefectureNumber": 5,
    "prefecture": "秋田県",
    "city": "大仙市",
    "town": "南外外小友"
  },
  "0191954": {
    "zipcode": "0191954",
    "prefectureCode": "05",
    "prefectureNumber": 5,
    "prefecture": "秋田県",
    "city": "大仙市",
    "town": "南外中荒又"
  },
  "0191955": {
    "zipcode": "0191955",
    "prefectureCode": "05",
    "prefectureNumber": 5,
    "prefecture": "秋田県",
    "city": "大仙市",
    "town": "南外外山"
  },
  "0191956": {
    "zipcode": "0191956",
    "prefectureCode": "05",
    "prefectureNumber": 5,
    "prefecture": "秋田県",
    "city": "大仙市",
    "town": "南外上荒又"
  },
  "0191957": {
    "zipcode": "0191957",
    "prefectureCode": "05",
    "prefectureNumber": 5,
    "prefecture": "秋田県",
    "city": "大仙市",
    "town": "南外小浪滝"
  },
  "0191958": {
    "zipcode": "0191958",
    "prefectureCode": "05",
    "prefectureNumber": 5,
    "prefecture": "秋田県",
    "city": "大仙市",
    "town": "南外向ノ沢"
  },
  "0191961": {
    "zipcode": "0191961",
    "prefectureCode": "05",
    "prefectureNumber": 5,
    "prefecture": "秋田県",
    "city": "大仙市",
    "town": "南外大柳"
  },
  "0191962": {
    "zipcode": "0191962",
    "prefectureCode": "05",
    "prefectureNumber": 5,
    "prefecture": "秋田県",
    "city": "大仙市",
    "town": "南外若林"
  },
  "0191963": {
    "zipcode": "0191963",
    "prefectureCode": "05",
    "prefectureNumber": 5,
    "prefecture": "秋田県",
    "city": "大仙市",
    "town": "南外西ノ又滝ノ沢"
  },
  "0192103": {
    "zipcode": "0192103",
    "prefectureCode": "05",
    "prefectureNumber": 5,
    "prefecture": "秋田県",
    "city": "大仙市",
    "town": "大沢郷寺"
  },
  "0192111": {
    "zipcode": "0192111",
    "prefectureCode": "05",
    "prefectureNumber": 5,
    "prefecture": "秋田県",
    "city": "大仙市",
    "town": "土川"
  },
  "0192112": {
    "zipcode": "0192112",
    "prefectureCode": "05",
    "prefectureNumber": 5,
    "prefecture": "秋田県",
    "city": "大仙市",
    "town": "刈和野"
  },
  "0192121": {
    "zipcode": "0192121",
    "prefectureCode": "05",
    "prefectureNumber": 5,
    "prefecture": "秋田県",
    "city": "大仙市",
    "town": "北野目"
  },
  "0192122": {
    "zipcode": "0192122",
    "prefectureCode": "05",
    "prefectureNumber": 5,
    "prefecture": "秋田県",
    "city": "大仙市",
    "town": "高城"
  },
  "0192123": {
    "zipcode": "0192123",
    "prefectureCode": "05",
    "prefectureNumber": 5,
    "prefecture": "秋田県",
    "city": "大仙市",
    "town": "寺館"
  },
  "0192201": {
    "zipcode": "0192201",
    "prefectureCode": "05",
    "prefectureNumber": 5,
    "prefecture": "秋田県",
    "city": "大仙市",
    "town": "円行寺"
  },
  "0192202": {
    "zipcode": "0192202",
    "prefectureCode": "05",
    "prefectureNumber": 5,
    "prefecture": "秋田県",
    "city": "大仙市",
    "town": "大沢郷宿"
  },
  "0192204": {
    "zipcode": "0192204",
    "prefectureCode": "05",
    "prefectureNumber": 5,
    "prefecture": "秋田県",
    "city": "大仙市",
    "town": "正手沢"
  },
  "0192205": {
    "zipcode": "0192205",
    "prefectureCode": "05",
    "prefectureNumber": 5,
    "prefecture": "秋田県",
    "city": "大仙市",
    "town": "杉山田"
  },
  "0192331": {
    "zipcode": "0192331",
    "prefectureCode": "05",
    "prefectureNumber": 5,
    "prefecture": "秋田県",
    "city": "大仙市",
    "town": "大巻"
  },
  "0192332": {
    "zipcode": "0192332",
    "prefectureCode": "05",
    "prefectureNumber": 5,
    "prefecture": "秋田県",
    "city": "大仙市",
    "town": "九升田"
  },
  "0192333": {
    "zipcode": "0192333",
    "prefectureCode": "05",
    "prefectureNumber": 5,
    "prefecture": "秋田県",
    "city": "大仙市",
    "town": "金山沢"
  },
  "0192334": {
    "zipcode": "0192334",
    "prefectureCode": "05",
    "prefectureNumber": 5,
    "prefecture": "秋田県",
    "city": "大仙市",
    "town": "木原田"
  },
  "0192335": {
    "zipcode": "0192335",
    "prefectureCode": "05",
    "prefectureNumber": 5,
    "prefecture": "秋田県",
    "city": "大仙市",
    "town": "強首"
  },
  "0192401": {
    "zipcode": "0192401",
    "prefectureCode": "05",
    "prefectureNumber": 5,
    "prefecture": "秋田県",
    "city": "大仙市",
    "town": "協和船岡"
  },
  "0192402": {
    "zipcode": "0192402",
    "prefectureCode": "05",
    "prefectureNumber": 5,
    "prefecture": "秋田県",
    "city": "大仙市",
    "town": "協和船沢"
  },
  "0192411": {
    "zipcode": "0192411",
    "prefectureCode": "05",
    "prefectureNumber": 5,
    "prefecture": "秋田県",
    "city": "大仙市",
    "town": "協和境"
  },
  "0192412": {
    "zipcode": "0192412",
    "prefectureCode": "05",
    "prefectureNumber": 5,
    "prefecture": "秋田県",
    "city": "大仙市",
    "town": "協和荒川"
  },
  "0192413": {
    "zipcode": "0192413",
    "prefectureCode": "05",
    "prefectureNumber": 5,
    "prefecture": "秋田県",
    "city": "大仙市",
    "town": "協和上淀川"
  },
  "0192431": {
    "zipcode": "0192431",
    "prefectureCode": "05",
    "prefectureNumber": 5,
    "prefecture": "秋田県",
    "city": "大仙市",
    "town": "協和峰吉川"
  },
  "0192441": {
    "zipcode": "0192441",
    "prefectureCode": "05",
    "prefectureNumber": 5,
    "prefecture": "秋田県",
    "city": "大仙市",
    "town": "協和小種"
  },
  "0192442": {
    "zipcode": "0192442",
    "prefectureCode": "05",
    "prefectureNumber": 5,
    "prefecture": "秋田県",
    "city": "大仙市",
    "town": "協和下淀川"
  },
  "0192443": {
    "zipcode": "0192443",
    "prefectureCode": "05",
    "prefectureNumber": 5,
    "prefecture": "秋田県",
    "city": "大仙市",
    "town": "協和中淀川"
  },
  "0192521": {
    "zipcode": "0192521",
    "prefectureCode": "05",
    "prefectureNumber": 5,
    "prefecture": "秋田県",
    "city": "大仙市",
    "town": "協和稲沢"
  },
  "0192601": {
    "zipcode": "0192601",
    "prefectureCode": "05",
    "prefectureNumber": 5,
    "prefecture": "秋田県",
    "city": "秋田市",
    "town": "河辺和田"
  },
  "0192611": {
    "zipcode": "0192611",
    "prefectureCode": "05",
    "prefectureNumber": 5,
    "prefecture": "秋田県",
    "city": "秋田市",
    "town": "河辺戸島"
  },
  "0192612": {
    "zipcode": "0192612",
    "prefectureCode": "05",
    "prefectureNumber": 5,
    "prefecture": "秋田県",
    "city": "秋田市",
    "town": "河辺畑谷"
  },
  "0192613": {
    "zipcode": "0192613",
    "prefectureCode": "05",
    "prefectureNumber": 5,
    "prefecture": "秋田県",
    "city": "秋田市",
    "town": "河辺松渕"
  },
  "0192614": {
    "zipcode": "0192614",
    "prefectureCode": "05",
    "prefectureNumber": 5,
    "prefecture": "秋田県",
    "city": "秋田市",
    "town": "河辺豊成"
  },
  "0192621": {
    "zipcode": "0192621",
    "prefectureCode": "05",
    "prefectureNumber": 5,
    "prefecture": "秋田県",
    "city": "秋田市",
    "town": "河辺諸井"
  },
  "0192622": {
    "zipcode": "0192622",
    "prefectureCode": "05",
    "prefectureNumber": 5,
    "prefecture": "秋田県",
    "city": "秋田市",
    "town": "河辺高岡"
  },
  "0192623": {
    "zipcode": "0192623",
    "prefectureCode": "05",
    "prefectureNumber": 5,
    "prefecture": "秋田県",
    "city": "秋田市",
    "town": "河辺赤平"
  },
  "0192624": {
    "zipcode": "0192624",
    "prefectureCode": "05",
    "prefectureNumber": 5,
    "prefecture": "秋田県",
    "city": "秋田市",
    "town": "河辺大沢"
  },
  "0192625": {
    "zipcode": "0192625",
    "prefectureCode": "05",
    "prefectureNumber": 5,
    "prefecture": "秋田県",
    "city": "秋田市",
    "town": "河辺北野田高屋"
  },
  "0192631": {
    "zipcode": "0192631",
    "prefectureCode": "05",
    "prefectureNumber": 5,
    "prefecture": "秋田県",
    "city": "秋田市",
    "town": "河辺神内"
  },
  "0192632": {
    "zipcode": "0192632",
    "prefectureCode": "05",
    "prefectureNumber": 5,
    "prefecture": "秋田県",
    "city": "秋田市",
    "town": "河辺大張野"
  },
  "0192741": {
    "zipcode": "0192741",
    "prefectureCode": "05",
    "prefectureNumber": 5,
    "prefecture": "秋田県",
    "city": "秋田市",
    "town": "河辺岩見"
  },
  "0192742": {
    "zipcode": "0192742",
    "prefectureCode": "05",
    "prefectureNumber": 5,
    "prefecture": "秋田県",
    "city": "秋田市",
    "town": "河辺三内"
  }
}
