{
  "0200000": {
    "zipcode": "0200000",
    "prefectureCode": "03",
    "prefectureNumber": 3,
    "prefecture": "岩手県",
    "city": "盛岡市",
    "town": "以下に掲載がない場合"
  },
  "0200001": {
    "zipcode": "0200001",
    "prefectureCode": "03",
    "prefectureNumber": 3,
    "prefecture": "岩手県",
    "city": "盛岡市",
    "town": "上米内"
  },
  "0200002": {
    "zipcode": "0200002",
    "prefectureCode": "03",
    "prefectureNumber": 3,
    "prefecture": "岩手県",
    "city": "盛岡市",
    "town": "桜台"
  },
  "0200003": {
    "zipcode": "0200003",
    "prefectureCode": "03",
    "prefectureNumber": 3,
    "prefecture": "岩手県",
    "city": "盛岡市",
    "town": "下米内"
  },
  "0200004": {
    "zipcode": "0200004",
    "prefectureCode": "03",
    "prefectureNumber": 3,
    "prefecture": "岩手県",
    "city": "盛岡市",
    "town": "山岸"
  },
  "0200005": {
    "zipcode": "0200005",
    "prefectureCode": "03",
    "prefectureNumber": 3,
    "prefecture": "岩手県",
    "city": "盛岡市",
    "town": "紅葉が丘"
  },
  "0200011": {
    "zipcode": "0200011",
    "prefectureCode": "03",
    "prefectureNumber": 3,
    "prefecture": "岩手県",
    "city": "盛岡市",
    "town": "三ツ割"
  },
  "0200012": {
    "zipcode": "0200012",
    "prefectureCode": "03",
    "prefectureNumber": 3,
    "prefecture": "岩手県",
    "city": "盛岡市",
    "town": "岩清水"
  },
  "0200013": {
    "zipcode": "0200013",
    "prefectureCode": "03",
    "prefectureNumber": 3,
    "prefecture": "岩手県",
    "city": "盛岡市",
    "town": "愛宕町"
  },
  "0200014": {
    "zipcode": "0200014",
    "prefectureCode": "03",
    "prefectureNumber": 3,
    "prefecture": "岩手県",
    "city": "盛岡市",
    "town": "愛宕下"
  },
  "0200015": {
    "zipcode": "0200015",
    "prefectureCode": "03",
    "prefectureNumber": 3,
    "prefecture": "岩手県",
    "city": "盛岡市",
    "town": "本町通"
  },
  "0200016": {
    "zipcode": "0200016",
    "prefectureCode": "03",
    "prefectureNumber": 3,
    "prefecture": "岩手県",
    "city": "盛岡市",
    "town": "名須川町"
  },
  "0200021": {
    "zipcode": "0200021",
    "prefectureCode": "03",
    "prefectureNumber": 3,
    "prefecture": "岩手県",
    "city": "盛岡市",
    "town": "中央通"
  },
  "0200022": {
    "zipcode": "0200022",
    "prefectureCode": "03",
    "prefectureNumber": 3,
    "prefecture": "岩手県",
    "city": "盛岡市",
    "town": "大通"
  },
  "0200023": {
    "zipcode": "0200023",
    "prefectureCode": "03",
    "prefectureNumber": 3,
    "prefecture": "岩手県",
    "city": "盛岡市",
    "town": "内丸"
  },
  "0200024": {
    "zipcode": "0200024",
    "prefectureCode": "03",
    "prefectureNumber": 3,
    "prefecture": "岩手県",
    "city": "盛岡市",
    "town": "菜園"
  },
  "0200025": {
    "zipcode": "0200025",
    "prefectureCode": "03",
    "prefectureNumber": 3,
    "prefecture": "岩手県",
    "city": "盛岡市",
    "town": "大沢川原"
  },
  "0200026": {
    "zipcode": "0200026",
    "prefectureCode": "03",
    "prefectureNumber": 3,
    "prefecture": "岩手県",
    "city": "盛岡市",
    "town": "開運橋通"
  },
  "0200031": {
    "zipcode": "0200031",
    "prefectureCode": "03",
    "prefectureNumber": 3,
    "prefecture": "岩手県",
    "city": "盛岡市",
    "town": "北夕顔瀬町"
  },
  "0200032": {
    "zipcode": "0200032",
    "prefectureCode": "03",
    "prefectureNumber": 3,
    "prefecture": "岩手県",
    "city": "盛岡市",
    "town": "夕顔瀬町"
  },
  "0200033": {
    "zipcode": "0200033",
    "prefectureCode": "03",
    "prefectureNumber": 3,
    "prefecture": "岩手県",
    "city": "盛岡市",
    "town": "盛岡駅前北通"
  },
  "0200034": {
    "zipcode": "0200034",
    "prefectureCode": "03",
    "prefectureNumber": 3,
    "prefecture": "岩手県",
    "city": "盛岡市",
    "town": "盛岡駅前通"
  },
  "0200041": {
    "zipcode": "0200041",
    "prefectureCode": "03",
    "prefectureNumber": 3,
    "prefecture": "岩手県",
    "city": "盛岡市",
    "town": "境田町"
  },
  "0200042": {
    "zipcode": "0200042",
    "prefectureCode": "03",
    "prefectureNumber": 3,
    "prefecture": "岩手県",
    "city": "盛岡市",
    "town": "新田町"
  },
  "0200043": {
    "zipcode": "0200043",
    "prefectureCode": "03",
    "prefectureNumber": 3,
    "prefecture": "岩手県",
    "city": "盛岡市",
    "town": "中川町"
  },
  "0200044": {
    "zipcode": "0200044",
    "prefectureCode": "03",
    "prefectureNumber": 3,
    "prefecture": "岩手県",
    "city": "盛岡市",
    "town": "城西町"
  },
  "0200045": {
    "zipcode": "0200045",
    "prefectureCode": "03",
    "prefectureNumber": 3,
    "prefecture": "岩手県",
    "city": "盛岡市",
    "town": "盛岡駅西通"
  },
  "0200051": {
    "zipcode": "0200051",
    "prefectureCode": "03",
    "prefectureNumber": 3,
    "prefecture": "岩手県",
    "city": "盛岡市",
    "town": "下太田"
  },
  "0200052": {
    "zipcode": "0200052",
    "prefectureCode": "03",
    "prefectureNumber": 3,
    "prefecture": "岩手県",
    "city": "盛岡市",
    "town": "中太田"
  },
  "0200053": {
    "zipcode": "0200053",
    "prefectureCode": "03",
    "prefectureNumber": 3,
    "prefecture": "岩手県",
    "city": "盛岡市",
    "town": "上太田"
  },
  "0200054": {
    "zipcode": "0200054",
    "prefectureCode": "03",
    "prefectureNumber": 3,
    "prefecture": "岩手県",
    "city": "盛岡市",
    "town": "猪去"
  },
  "0200055": {
    "zipcode": "0200055",
    "prefectureCode": "03",
    "prefectureNumber": 3,
    "prefecture": "岩手県",
    "city": "盛岡市",
    "town": "繋"
  },
  "0200061": {
    "zipcode": "0200061",
    "prefectureCode": "03",
    "prefectureNumber": 3,
    "prefecture": "岩手県",
    "city": "盛岡市",
    "town": "北山"
  },
  "0200062": {
    "zipcode": "0200062",
    "prefectureCode": "03",
    "prefectureNumber": 3,
    "prefecture": "岩手県",
    "city": "盛岡市",
    "town": "長田町"
  },
  "0200063": {
    "zipcode": "0200063",
    "prefectureCode": "03",
    "prefectureNumber": 3,
    "prefecture": "岩手県",
    "city": "盛岡市",
    "town": "材木町"
  },
  "0200064": {
    "zipcode": "0200064",
    "prefectureCode": "03",
    "prefectureNumber": 3,
    "prefecture": "岩手県",
    "city": "盛岡市",
    "town": "梨木町"
  },
  "0200065": {
    "zipcode": "0200065",
    "prefectureCode": "03",
    "prefectureNumber": 3,
    "prefecture": "岩手県",
    "city": "盛岡市",
    "town": "西下台町"
  },
  "0200066": {
    "zipcode": "0200066",
    "prefectureCode": "03",
    "prefectureNumber": 3,
    "prefecture": "岩手県",
    "city": "盛岡市",
    "town": "上田（１〜４丁目、北山）"
  },
  "0200101": {
    "zipcode": "0200101",
    "prefectureCode": "03",
    "prefectureNumber": 3,
    "prefecture": "岩手県",
    "city": "盛岡市",
    "town": "岩脇町"
  },
  "0200102": {
    "zipcode": "0200102",
    "prefectureCode": "03",
    "prefectureNumber": 3,
    "prefecture": "岩手県",
    "city": "盛岡市",
    "town": "上田（その他）"
  },
  "0200103": {
    "zipcode": "0200103",
    "prefectureCode": "03",
    "prefectureNumber": 3,
    "prefecture": "岩手県",
    "city": "盛岡市",
    "town": "西松園"
  },
  "0200104": {
    "zipcode": "0200104",
    "prefectureCode": "03",
    "prefectureNumber": 3,
    "prefecture": "岩手県",
    "city": "盛岡市",
    "town": "小鳥沢"
  },
  "0200105": {
    "zipcode": "0200105",
    "prefectureCode": "03",
    "prefectureNumber": 3,
    "prefecture": "岩手県",
    "city": "盛岡市",
    "town": "北松園"
  },
  "0200106": {
    "zipcode": "0200106",
    "prefectureCode": "03",
    "prefectureNumber": 3,
    "prefecture": "岩手県",
    "city": "盛岡市",
    "town": "東松園"
  },
  "0200107": {
    "zipcode": "0200107",
    "prefectureCode": "03",
    "prefectureNumber": 3,
    "prefecture": "岩手県",
    "city": "盛岡市",
    "town": "松園"
  },
  "0200108": {
    "zipcode": "0200108",
    "prefectureCode": "03",
    "prefectureNumber": 3,
    "prefecture": "岩手県",
    "city": "盛岡市",
    "town": "東黒石野"
  },
  "0200111": {
    "zipcode": "0200111",
    "prefectureCode": "03",
    "prefectureNumber": 3,
    "prefecture": "岩手県",
    "city": "盛岡市",
    "town": "黒石野"
  },
  "0200112": {
    "zipcode": "0200112",
    "prefectureCode": "03",
    "prefectureNumber": 3,
    "prefecture": "岩手県",
    "city": "盛岡市",
    "town": "東緑が丘"
  },
  "0200113": {
    "zipcode": "0200113",
    "prefectureCode": "03",
    "prefectureNumber": 3,
    "prefecture": "岩手県",
    "city": "盛岡市",
    "town": "上田堤"
  },
  "0200114": {
    "zipcode": "0200114",
    "prefectureCode": "03",
    "prefectureNumber": 3,
    "prefecture": "岩手県",
    "city": "盛岡市",
    "town": "高松"
  },
  "0200115": {
    "zipcode": "0200115",
    "prefectureCode": "03",
    "prefectureNumber": 3,
    "prefecture": "岩手県",
    "city": "盛岡市",
    "town": "館向町"
  },
  "0200116": {
    "zipcode": "0200116",
    "prefectureCode": "03",
    "prefectureNumber": 3,
    "prefecture": "岩手県",
    "city": "盛岡市",
    "town": "箱清水"
  },
  "0200117": {
    "zipcode": "0200117",
    "prefectureCode": "03",
    "prefectureNumber": 3,
    "prefecture": "岩手県",
    "city": "盛岡市",
    "town": "緑が丘"
  },
  "0200121": {
    "zipcode": "0200121",
    "prefectureCode": "03",
    "prefectureNumber": 3,
    "prefecture": "岩手県",
    "city": "盛岡市",
    "town": "月が丘"
  },
  "0200122": {
    "zipcode": "0200122",
    "prefectureCode": "03",
    "prefectureNumber": 3,
    "prefecture": "岩手県",
    "city": "盛岡市",
    "town": "みたけ"
  },
  "0200123": {
    "zipcode": "0200123",
    "prefectureCode": "03",
    "prefectureNumber": 3,
    "prefecture": "岩手県",
    "city": "盛岡市",
    "town": "下厨川"
  },
  "0200124": {
    "zipcode": "0200124",
    "prefectureCode": "03",
    "prefectureNumber": 3,
    "prefecture": "岩手県",
    "city": "盛岡市",
    "town": "厨川"
  },
  "0200125": {
    "zipcode": "0200125",
    "prefectureCode": "03",
    "prefectureNumber": 3,
    "prefecture": "岩手県",
    "city": "盛岡市",
    "town": "上堂"
  },
  "0200126": {
    "zipcode": "0200126",
    "prefectureCode": "03",
    "prefectureNumber": 3,
    "prefecture": "岩手県",
    "city": "盛岡市",
    "town": "安倍館町"
  },
  "0200127": {
    "zipcode": "0200127",
    "prefectureCode": "03",
    "prefectureNumber": 3,
    "prefecture": "岩手県",
    "city": "盛岡市",
    "town": "前九年"
  },
  "0200131": {
    "zipcode": "0200131",
    "prefectureCode": "03",
    "prefectureNumber": 3,
    "prefecture": "岩手県",
    "city": "盛岡市",
    "town": "中堤町"
  },
  "0200132": {
    "zipcode": "0200132",
    "prefectureCode": "03",
    "prefectureNumber": 3,
    "prefecture": "岩手県",
    "city": "盛岡市",
    "town": "西青山"
  },
  "0200133": {
    "zipcode": "0200133",
    "prefectureCode": "03",
    "prefectureNumber": 3,
    "prefecture": "岩手県",
    "city": "盛岡市",
    "town": "青山"
  },
  "0200134": {
    "zipcode": "0200134",
    "prefectureCode": "03",
    "prefectureNumber": 3,
    "prefecture": "岩手県",
    "city": "盛岡市",
    "town": "南青山町"
  },
  "0200135": {
    "zipcode": "0200135",
    "prefectureCode": "03",
    "prefectureNumber": 3,
    "prefecture": "岩手県",
    "city": "盛岡市",
    "town": "大新町"
  },
  "0200136": {
    "zipcode": "0200136",
    "prefectureCode": "03",
    "prefectureNumber": 3,
    "prefecture": "岩手県",
    "city": "盛岡市",
    "town": "北天昌寺町"
  },
  "0200137": {
    "zipcode": "0200137",
    "prefectureCode": "03",
    "prefectureNumber": 3,
    "prefecture": "岩手県",
    "city": "盛岡市",
    "town": "天昌寺町"
  },
  "0200141": {
    "zipcode": "0200141",
    "prefectureCode": "03",
    "prefectureNumber": 3,
    "prefecture": "岩手県",
    "city": "盛岡市",
    "town": "中屋敷町"
  },
  "0200142": {
    "zipcode": "0200142",
    "prefectureCode": "03",
    "prefectureNumber": 3,
    "prefecture": "岩手県",
    "city": "盛岡市",
    "town": "稲荷町"
  },
  "0200143": {
    "zipcode": "0200143",
    "prefectureCode": "03",
    "prefectureNumber": 3,
    "prefecture": "岩手県",
    "city": "盛岡市",
    "town": "上厨川"
  },
  "0200144": {
    "zipcode": "0200144",
    "prefectureCode": "03",
    "prefectureNumber": 3,
    "prefecture": "岩手県",
    "city": "盛岡市",
    "town": "土淵"
  },
  "0200145": {
    "zipcode": "0200145",
    "prefectureCode": "03",
    "prefectureNumber": 3,
    "prefecture": "岩手県",
    "city": "盛岡市",
    "town": "平賀新田"
  },
  "0200146": {
    "zipcode": "0200146",
    "prefectureCode": "03",
    "prefectureNumber": 3,
    "prefecture": "岩手県",
    "city": "盛岡市",
    "town": "長橋町"
  },
  "0200147": {
    "zipcode": "0200147",
    "prefectureCode": "03",
    "prefectureNumber": 3,
    "prefecture": "岩手県",
    "city": "盛岡市",
    "town": "大館町"
  },
  "0200148": {
    "zipcode": "0200148",
    "prefectureCode": "03",
    "prefectureNumber": 3,
    "prefecture": "岩手県",
    "city": "盛岡市",
    "town": "前潟"
  },
  "0200201": {
    "zipcode": "0200201",
    "prefectureCode": "03",
    "prefectureNumber": 3,
    "prefecture": "岩手県",
    "city": "盛岡市",
    "town": "日戸"
  },
  "0200202": {
    "zipcode": "0200202",
    "prefectureCode": "03",
    "prefectureNumber": 3,
    "prefecture": "岩手県",
    "city": "盛岡市",
    "town": "玉山"
  },
  "0200203": {
    "zipcode": "0200203",
    "prefectureCode": "03",
    "prefectureNumber": 3,
    "prefecture": "岩手県",
    "city": "盛岡市",
    "town": "川又"
  },
  "0200204": {
    "zipcode": "0200204",
    "prefectureCode": "03",
    "prefectureNumber": 3,
    "prefecture": "岩手県",
    "city": "盛岡市",
    "town": "上田（糠森、小野松）"
  },
  "0200311": {
    "zipcode": "0200311",
    "prefectureCode": "03",
    "prefectureNumber": 3,
    "prefecture": "岩手県",
    "city": "盛岡市",
    "town": "簗川"
  },
  "0200312": {
    "zipcode": "0200312",
    "prefectureCode": "03",
    "prefectureNumber": 3,
    "prefecture": "岩手県",
    "city": "盛岡市",
    "town": "砂子沢"
  },
  "0200313": {
    "zipcode": "0200313",
    "prefectureCode": "03",
    "prefectureNumber": 3,
    "prefecture": "岩手県",
    "city": "盛岡市",
    "town": "根田茂"
  },
  "0200401": {
    "zipcode": "0200401",
    "prefectureCode": "03",
    "prefectureNumber": 3,
    "prefecture": "岩手県",
    "city": "盛岡市",
    "town": "手代森"
  },
  "0200402": {
    "zipcode": "0200402",
    "prefectureCode": "03",
    "prefectureNumber": 3,
    "prefecture": "岩手県",
    "city": "盛岡市",
    "town": "黒川"
  },
  "0200403": {
    "zipcode": "0200403",
    "prefectureCode": "03",
    "prefectureNumber": 3,
    "prefecture": "岩手県",
    "city": "盛岡市",
    "town": "乙部"
  },
  "0200404": {
    "zipcode": "0200404",
    "prefectureCode": "03",
    "prefectureNumber": 3,
    "prefecture": "岩手県",
    "city": "盛岡市",
    "town": "大ケ生"
  },
  "0200500": {
    "zipcode": "0200500",
    "prefectureCode": "03",
    "prefectureNumber": 3,
    "prefecture": "岩手県",
    "city": "岩手郡雫石町",
    "town": "以下に掲載がない場合"
  },
  "0200501": {
    "zipcode": "0200501",
    "prefectureCode": "03",
    "prefectureNumber": 3,
    "prefecture": "岩手県",
    "city": "岩手郡雫石町",
    "town": "仁佐瀬"
  },
  "0200502": {
    "zipcode": "0200502",
    "prefectureCode": "03",
    "prefectureNumber": 3,
    "prefecture": "岩手県",
    "city": "岩手郡雫石町",
    "town": "板橋"
  },
  "0200503": {
    "zipcode": "0200503",
    "prefectureCode": "03",
    "prefectureNumber": 3,
    "prefecture": "岩手県",
    "city": "岩手郡雫石町",
    "town": "七ツ森"
  },
  "0200504": {
    "zipcode": "0200504",
    "prefectureCode": "03",
    "prefectureNumber": 3,
    "prefecture": "岩手県",
    "city": "岩手郡雫石町",
    "town": "中沼"
  },
  "0200505": {
    "zipcode": "0200505",
    "prefectureCode": "03",
    "prefectureNumber": 3,
    "prefecture": "岩手県",
    "city": "岩手郡雫石町",
    "town": "中黒沢川"
  },
  "0200506": {
    "zipcode": "0200506",
    "prefectureCode": "03",
    "prefectureNumber": 3,
    "prefecture": "岩手県",
    "city": "岩手郡雫石町",
    "town": "沼返"
  },
  "0200507": {
    "zipcode": "0200507",
    "prefectureCode": "03",
    "prefectureNumber": 3,
    "prefecture": "岩手県",
    "city": "岩手郡雫石町",
    "town": "丸谷地"
  },
  "0200511": {
    "zipcode": "0200511",
    "prefectureCode": "03",
    "prefectureNumber": 3,
    "prefecture": "岩手県",
    "city": "岩手郡雫石町",
    "town": "長畑"
  },
  "0200512": {
    "zipcode": "0200512",
    "prefectureCode": "03",
    "prefectureNumber": 3,
    "prefecture": "岩手県",
    "city": "岩手郡雫石町",
    "town": "塩ケ森"
  },
  "0200513": {
    "zipcode": "0200513",
    "prefectureCode": "03",
    "prefectureNumber": 3,
    "prefecture": "岩手県",
    "city": "岩手郡雫石町",
    "town": "下兎野"
  },
  "0200514": {
    "zipcode": "0200514",
    "prefectureCode": "03",
    "prefectureNumber": 3,
    "prefecture": "岩手県",
    "city": "岩手郡雫石町",
    "town": "野中"
  },
  "0200515": {
    "zipcode": "0200515",
    "prefectureCode": "03",
    "prefectureNumber": 3,
    "prefecture": "岩手県",
    "city": "岩手郡雫石町",
    "town": "下長根"
  },
  "0200517": {
    "zipcode": "0200517",
    "prefectureCode": "03",
    "prefectureNumber": 3,
    "prefecture": "岩手県",
    "city": "岩手郡雫石町",
    "town": "黒沢川"
  },
  "0200520": {
    "zipcode": "0200520",
    "prefectureCode": "03",
    "prefectureNumber": 3,
    "prefecture": "岩手県",
    "city": "岩手郡雫石町",
    "town": "下町東"
  },
  "0200521": {
    "zipcode": "0200521",
    "prefectureCode": "03",
    "prefectureNumber": 3,
    "prefecture": "岩手県",
    "city": "岩手郡雫石町",
    "town": "麁津田"
  },
  "0200522": {
    "zipcode": "0200522",
    "prefectureCode": "03",
    "prefectureNumber": 3,
    "prefecture": "岩手県",
    "city": "岩手郡雫石町",
    "town": "下久保"
  },
  "0200523": {
    "zipcode": "0200523",
    "prefectureCode": "03",
    "prefectureNumber": 3,
    "prefecture": "岩手県",
    "city": "岩手郡雫石町",
    "town": "根堀"
  },
  "0200524": {
    "zipcode": "0200524",
    "prefectureCode": "03",
    "prefectureNumber": 3,
    "prefecture": "岩手県",
    "city": "岩手郡雫石町",
    "town": "寺の下"
  },
  "0200525": {
    "zipcode": "0200525",
    "prefectureCode": "03",
    "prefectureNumber": 3,
    "prefecture": "岩手県",
    "city": "岩手郡雫石町",
    "town": "源大堂"
  },
  "0200527": {
    "zipcode": "0200527",
    "prefectureCode": "03",
    "prefectureNumber": 3,
    "prefecture": "岩手県",
    "city": "岩手郡雫石町",
    "town": "中町"
  },
  "0200528": {
    "zipcode": "0200528",
    "prefectureCode": "03",
    "prefectureNumber": 3,
    "prefecture": "岩手県",
    "city": "岩手郡雫石町",
    "town": "下町"
  },
  "0200529": {
    "zipcode": "0200529",
    "prefectureCode": "03",
    "prefectureNumber": 3,
    "prefecture": "岩手県",
    "city": "岩手郡雫石町",
    "town": "下町西"
  },
  "0200530": {
    "zipcode": "0200530",
    "prefectureCode": "03",
    "prefectureNumber": 3,
    "prefecture": "岩手県",
    "city": "岩手郡雫石町",
    "town": "上町南"
  },
  "0200531": {
    "zipcode": "0200531",
    "prefectureCode": "03",
    "prefectureNumber": 3,
    "prefecture": "岩手県",
    "city": "岩手郡雫石町",
    "town": "麻見田"
  },
  "0200532": {
    "zipcode": "0200532",
    "prefectureCode": "03",
    "prefectureNumber": 3,
    "prefecture": "岩手県",
    "city": "岩手郡雫石町",
    "town": "払川"
  },
  "0200533": {
    "zipcode": "0200533",
    "prefectureCode": "03",
    "prefectureNumber": 3,
    "prefecture": "岩手県",
    "city": "岩手郡雫石町",
    "town": "林"
  },
  "0200534": {
    "zipcode": "0200534",
    "prefectureCode": "03",
    "prefectureNumber": 3,
    "prefecture": "岩手県",
    "city": "岩手郡雫石町",
    "town": "川原"
  },
  "0200535": {
    "zipcode": "0200535",
    "prefectureCode": "03",
    "prefectureNumber": 3,
    "prefecture": "岩手県",
    "city": "岩手郡雫石町",
    "town": "小日谷地"
  },
  "0200536": {
    "zipcode": "0200536",
    "prefectureCode": "03",
    "prefectureNumber": 3,
    "prefecture": "岩手県",
    "city": "岩手郡雫石町",
    "town": "八卦"
  },
  "0200537": {
    "zipcode": "0200537",
    "prefectureCode": "03",
    "prefectureNumber": 3,
    "prefecture": "岩手県",
    "city": "岩手郡雫石町",
    "town": "上町西"
  },
  "0200538": {
    "zipcode": "0200538",
    "prefectureCode": "03",
    "prefectureNumber": 3,
    "prefecture": "岩手県",
    "city": "岩手郡雫石町",
    "town": "上町北"
  },
  "0200539": {
    "zipcode": "0200539",
    "prefectureCode": "03",
    "prefectureNumber": 3,
    "prefecture": "岩手県",
    "city": "岩手郡雫石町",
    "town": "上町東"
  },
  "0200541": {
    "zipcode": "0200541",
    "prefectureCode": "03",
    "prefectureNumber": 3,
    "prefecture": "岩手県",
    "city": "岩手郡雫石町",
    "town": "千刈田"
  },
  "0200542": {
    "zipcode": "0200542",
    "prefectureCode": "03",
    "prefectureNumber": 3,
    "prefecture": "岩手県",
    "city": "岩手郡雫石町",
    "town": "万田渡"
  },
  "0200543": {
    "zipcode": "0200543",
    "prefectureCode": "03",
    "prefectureNumber": 3,
    "prefecture": "岩手県",
    "city": "岩手郡雫石町",
    "town": "高前田"
  },
  "0200544": {
    "zipcode": "0200544",
    "prefectureCode": "03",
    "prefectureNumber": 3,
    "prefecture": "岩手県",
    "city": "岩手郡雫石町",
    "town": "柿木"
  },
  "0200545": {
    "zipcode": "0200545",
    "prefectureCode": "03",
    "prefectureNumber": 3,
    "prefecture": "岩手県",
    "city": "岩手郡雫石町",
    "town": "谷地"
  },
  "0200546": {
    "zipcode": "0200546",
    "prefectureCode": "03",
    "prefectureNumber": 3,
    "prefecture": "岩手県",
    "city": "岩手郡雫石町",
    "town": "稲荷下"
  },
  "0200547": {
    "zipcode": "0200547",
    "prefectureCode": "03",
    "prefectureNumber": 3,
    "prefecture": "岩手県",
    "city": "岩手郡雫石町",
    "town": "晴山"
  },
  "0200551": {
    "zipcode": "0200551",
    "prefectureCode": "03",
    "prefectureNumber": 3,
    "prefecture": "岩手県",
    "city": "岩手郡雫石町",
    "town": "笹森"
  },
  "0200552": {
    "zipcode": "0200552",
    "prefectureCode": "03",
    "prefectureNumber": 3,
    "prefecture": "岩手県",
    "city": "岩手郡雫石町",
    "town": "下平"
  },
  "0200553": {
    "zipcode": "0200553",
    "prefectureCode": "03",
    "prefectureNumber": 3,
    "prefecture": "岩手県",
    "city": "岩手郡雫石町",
    "town": "下曽根田"
  },
  "0200554": {
    "zipcode": "0200554",
    "prefectureCode": "03",
    "prefectureNumber": 3,
    "prefecture": "岩手県",
    "city": "岩手郡雫石町",
    "town": "町裏"
  },
  "0200555": {
    "zipcode": "0200555",
    "prefectureCode": "03",
    "prefectureNumber": 3,
    "prefecture": "岩手県",
    "city": "岩手郡雫石町",
    "town": "上曽根田"
  },
  "0200556": {
    "zipcode": "0200556",
    "prefectureCode": "03",
    "prefectureNumber": 3,
    "prefecture": "岩手県",
    "city": "岩手郡雫石町",
    "town": "名子"
  },
  "0200557": {
    "zipcode": "0200557",
    "prefectureCode": "03",
    "prefectureNumber": 3,
    "prefecture": "岩手県",
    "city": "岩手郡雫石町",
    "town": "上平"
  },
  "0200558": {
    "zipcode": "0200558",
    "prefectureCode": "03",
    "prefectureNumber": 3,
    "prefecture": "岩手県",
    "city": "岩手郡雫石町",
    "town": "下笹森"
  },
  "0200559": {
    "zipcode": "0200559",
    "prefectureCode": "03",
    "prefectureNumber": 3,
    "prefecture": "岩手県",
    "city": "岩手郡雫石町",
    "town": "上笹森"
  },
  "0200571": {
    "zipcode": "0200571",
    "prefectureCode": "03",
    "prefectureNumber": 3,
    "prefecture": "岩手県",
    "city": "岩手郡雫石町",
    "town": "繋"
  },
  "0200572": {
    "zipcode": "0200572",
    "prefectureCode": "03",
    "prefectureNumber": 3,
    "prefecture": "岩手県",
    "city": "岩手郡雫石町",
    "town": "西安庭"
  },
  "0200573": {
    "zipcode": "0200573",
    "prefectureCode": "03",
    "prefectureNumber": 3,
    "prefecture": "岩手県",
    "city": "岩手郡雫石町",
    "town": "南畑"
  },
  "0200574": {
    "zipcode": "0200574",
    "prefectureCode": "03",
    "prefectureNumber": 3,
    "prefecture": "岩手県",
    "city": "岩手郡雫石町",
    "town": "鴬宿"
  },
  "0200581": {
    "zipcode": "0200581",
    "prefectureCode": "03",
    "prefectureNumber": 3,
    "prefecture": "岩手県",
    "city": "岩手郡雫石町",
    "town": "御明神"
  },
  "0200582": {
    "zipcode": "0200582",
    "prefectureCode": "03",
    "prefectureNumber": 3,
    "prefecture": "岩手県",
    "city": "岩手郡雫石町",
    "town": "橋場"
  },
  "0200583": {
    "zipcode": "0200583",
    "prefectureCode": "03",
    "prefectureNumber": 3,
    "prefecture": "岩手県",
    "city": "岩手郡雫石町",
    "town": "上野"
  },
  "0200584": {
    "zipcode": "0200584",
    "prefectureCode": "03",
    "prefectureNumber": 3,
    "prefecture": "岩手県",
    "city": "岩手郡雫石町",
    "town": "西根"
  },
  "0200585": {
    "zipcode": "0200585",
    "prefectureCode": "03",
    "prefectureNumber": 3,
    "prefecture": "岩手県",
    "city": "岩手郡雫石町",
    "town": "長山"
  },
  "0200600": {
    "zipcode": "0200600",
    "prefectureCode": "03",
    "prefectureNumber": 3,
    "prefecture": "岩手県",
    "city": "滝沢市",
    "town": "以下に掲載がない場合"
  },
  "0200601": {
    "zipcode": "0200601",
    "prefectureCode": "03",
    "prefectureNumber": 3,
    "prefecture": "岩手県",
    "city": "滝沢市",
    "town": "後"
  },
  "0200602": {
    "zipcode": "0200602",
    "prefectureCode": "03",
    "prefectureNumber": 3,
    "prefecture": "岩手県",
    "city": "滝沢市",
    "town": "大森平"
  },
  "0200603": {
    "zipcode": "0200603",
    "prefectureCode": "03",
    "prefectureNumber": 3,
    "prefecture": "岩手県",
    "city": "滝沢市",
    "town": "留が森"
  },
  "0200604": {
    "zipcode": "0200604",
    "prefectureCode": "03",
    "prefectureNumber": 3,
    "prefecture": "岩手県",
    "city": "滝沢市",
    "town": "一本木"
  },
  "0200605": {
    "zipcode": "0200605",
    "prefectureCode": "03",
    "prefectureNumber": 3,
    "prefecture": "岩手県",
    "city": "滝沢市",
    "town": "砂込"
  },
  "0200606": {
    "zipcode": "0200606",
    "prefectureCode": "03",
    "prefectureNumber": 3,
    "prefecture": "岩手県",
    "city": "滝沢市",
    "town": "加賀内"
  },
  "0200607": {
    "zipcode": "0200607",
    "prefectureCode": "03",
    "prefectureNumber": 3,
    "prefecture": "岩手県",
    "city": "滝沢市",
    "town": "弥兵エ林"
  },
  "0200608": {
    "zipcode": "0200608",
    "prefectureCode": "03",
    "prefectureNumber": 3,
    "prefecture": "岩手県",
    "city": "滝沢市",
    "town": "長太郎林"
  },
  "0200609": {
    "zipcode": "0200609",
    "prefectureCode": "03",
    "prefectureNumber": 3,
    "prefecture": "岩手県",
    "city": "滝沢市",
    "town": "柳原"
  },
  "0200611": {
    "zipcode": "0200611",
    "prefectureCode": "03",
    "prefectureNumber": 3,
    "prefecture": "岩手県",
    "city": "滝沢市",
    "town": "巣子"
  },
  "0200612": {
    "zipcode": "0200612",
    "prefectureCode": "03",
    "prefectureNumber": 3,
    "prefecture": "岩手県",
    "city": "滝沢市",
    "town": "柳沢"
  },
  "0200613": {
    "zipcode": "0200613",
    "prefectureCode": "03",
    "prefectureNumber": 3,
    "prefecture": "岩手県",
    "city": "滝沢市",
    "town": "大石渡"
  },
  "0200614": {
    "zipcode": "0200614",
    "prefectureCode": "03",
    "prefectureNumber": 3,
    "prefecture": "岩手県",
    "city": "滝沢市",
    "town": "上中村"
  },
  "0200615": {
    "zipcode": "0200615",
    "prefectureCode": "03",
    "prefectureNumber": 3,
    "prefecture": "岩手県",
    "city": "滝沢市",
    "town": "卯遠坂"
  },
  "0200616": {
    "zipcode": "0200616",
    "prefectureCode": "03",
    "prefectureNumber": 3,
    "prefecture": "岩手県",
    "city": "滝沢市",
    "town": "木賊川"
  },
  "0200617": {
    "zipcode": "0200617",
    "prefectureCode": "03",
    "prefectureNumber": 3,
    "prefecture": "岩手県",
    "city": "滝沢市",
    "town": "湯舟沢"
  },
  "0200618": {
    "zipcode": "0200618",
    "prefectureCode": "03",
    "prefectureNumber": 3,
    "prefecture": "岩手県",
    "city": "滝沢市",
    "town": "岩手山"
  },
  "0200619": {
    "zipcode": "0200619",
    "prefectureCode": "03",
    "prefectureNumber": 3,
    "prefecture": "岩手県",
    "city": "滝沢市",
    "town": "上岩手山"
  },
  "0200621": {
    "zipcode": "0200621",
    "prefectureCode": "03",
    "prefectureNumber": 3,
    "prefecture": "岩手県",
    "city": "滝沢市",
    "town": "大崎"
  },
  "0200622": {
    "zipcode": "0200622",
    "prefectureCode": "03",
    "prefectureNumber": 3,
    "prefecture": "岩手県",
    "city": "滝沢市",
    "town": "野沢"
  },
  "0200623": {
    "zipcode": "0200623",
    "prefectureCode": "03",
    "prefectureNumber": 3,
    "prefecture": "岩手県",
    "city": "滝沢市",
    "town": "楢の木沢"
  },
  "0200624": {
    "zipcode": "0200624",
    "prefectureCode": "03",
    "prefectureNumber": 3,
    "prefecture": "岩手県",
    "city": "滝沢市",
    "town": "妻の神"
  },
  "0200625": {
    "zipcode": "0200625",
    "prefectureCode": "03",
    "prefectureNumber": 3,
    "prefecture": "岩手県",
    "city": "滝沢市",
    "town": "葉の木沢山"
  },
  "0200626": {
    "zipcode": "0200626",
    "prefectureCode": "03",
    "prefectureNumber": 3,
    "prefecture": "岩手県",
    "city": "滝沢市",
    "town": "明神平"
  },
  "0200627": {
    "zipcode": "0200627",
    "prefectureCode": "03",
    "prefectureNumber": 3,
    "prefecture": "岩手県",
    "city": "滝沢市",
    "town": "狼久保"
  },
  "0200631": {
    "zipcode": "0200631",
    "prefectureCode": "03",
    "prefectureNumber": 3,
    "prefecture": "岩手県",
    "city": "滝沢市",
    "town": "根堀坂"
  },
  "0200632": {
    "zipcode": "0200632",
    "prefectureCode": "03",
    "prefectureNumber": 3,
    "prefecture": "岩手県",
    "city": "滝沢市",
    "town": "牧野林"
  },
  "0200633": {
    "zipcode": "0200633",
    "prefectureCode": "03",
    "prefectureNumber": 3,
    "prefecture": "岩手県",
    "city": "滝沢市",
    "town": "穴口"
  },
  "0200634": {
    "zipcode": "0200634",
    "prefectureCode": "03",
    "prefectureNumber": 3,
    "prefecture": "岩手県",
    "city": "滝沢市",
    "town": "室小路"
  },
  "0200635": {
    "zipcode": "0200635",
    "prefectureCode": "03",
    "prefectureNumber": 3,
    "prefecture": "岩手県",
    "city": "滝沢市",
    "town": "耳取山"
  },
  "0200636": {
    "zipcode": "0200636",
    "prefectureCode": "03",
    "prefectureNumber": 3,
    "prefecture": "岩手県",
    "city": "滝沢市",
    "town": "大久保"
  },
  "0200637": {
    "zipcode": "0200637",
    "prefectureCode": "03",
    "prefectureNumber": 3,
    "prefecture": "岩手県",
    "city": "滝沢市",
    "town": "高屋敷平"
  },
  "0200638": {
    "zipcode": "0200638",
    "prefectureCode": "03",
    "prefectureNumber": 3,
    "prefecture": "岩手県",
    "city": "滝沢市",
    "town": "土沢"
  },
  "0200641": {
    "zipcode": "0200641",
    "prefectureCode": "03",
    "prefectureNumber": 3,
    "prefecture": "岩手県",
    "city": "滝沢市",
    "town": "祢宜屋敷"
  },
  "0200642": {
    "zipcode": "0200642",
    "prefectureCode": "03",
    "prefectureNumber": 3,
    "prefecture": "岩手県",
    "city": "滝沢市",
    "town": "中村"
  },
  "0200643": {
    "zipcode": "0200643",
    "prefectureCode": "03",
    "prefectureNumber": 3,
    "prefecture": "岩手県",
    "city": "滝沢市",
    "town": "外山"
  },
  "0200644": {
    "zipcode": "0200644",
    "prefectureCode": "03",
    "prefectureNumber": 3,
    "prefecture": "岩手県",
    "city": "滝沢市",
    "town": "平蔵沢"
  },
  "0200645": {
    "zipcode": "0200645",
    "prefectureCode": "03",
    "prefectureNumber": 3,
    "prefecture": "岩手県",
    "city": "滝沢市",
    "town": "高屋敷"
  },
  "0200646": {
    "zipcode": "0200646",
    "prefectureCode": "03",
    "prefectureNumber": 3,
    "prefecture": "岩手県",
    "city": "滝沢市",
    "town": "黒沢"
  },
  "0200651": {
    "zipcode": "0200651",
    "prefectureCode": "03",
    "prefectureNumber": 3,
    "prefecture": "岩手県",
    "city": "滝沢市",
    "town": "鵜飼細谷地"
  },
  "0200652": {
    "zipcode": "0200652",
    "prefectureCode": "03",
    "prefectureNumber": 3,
    "prefecture": "岩手県",
    "city": "滝沢市",
    "town": "鵜飼洞畑"
  },
  "0200653": {
    "zipcode": "0200653",
    "prefectureCode": "03",
    "prefectureNumber": 3,
    "prefecture": "岩手県",
    "city": "滝沢市",
    "town": "鵜飼迫"
  },
  "0200654": {
    "zipcode": "0200654",
    "prefectureCode": "03",
    "prefectureNumber": 3,
    "prefecture": "岩手県",
    "city": "滝沢市",
    "town": "中鵜飼"
  },
  "0200655": {
    "zipcode": "0200655",
    "prefectureCode": "03",
    "prefectureNumber": 3,
    "prefecture": "岩手県",
    "city": "滝沢市",
    "town": "鵜飼御庭田"
  },
  "0200656": {
    "zipcode": "0200656",
    "prefectureCode": "03",
    "prefectureNumber": 3,
    "prefecture": "岩手県",
    "city": "滝沢市",
    "town": "鵜飼上山"
  },
  "0200657": {
    "zipcode": "0200657",
    "prefectureCode": "03",
    "prefectureNumber": 3,
    "prefecture": "岩手県",
    "city": "滝沢市",
    "town": "鵜飼鰍森"
  },
  "0200658": {
    "zipcode": "0200658",
    "prefectureCode": "03",
    "prefectureNumber": 3,
    "prefecture": "岩手県",
    "city": "滝沢市",
    "town": "鵜飼清水沢"
  },
  "0200659": {
    "zipcode": "0200659",
    "prefectureCode": "03",
    "prefectureNumber": 3,
    "prefecture": "岩手県",
    "city": "滝沢市",
    "town": "鵜飼外久保"
  },
  "0200661": {
    "zipcode": "0200661",
    "prefectureCode": "03",
    "prefectureNumber": 3,
    "prefecture": "岩手県",
    "city": "滝沢市",
    "town": "鵜飼白石"
  },
  "0200662": {
    "zipcode": "0200662",
    "prefectureCode": "03",
    "prefectureNumber": 3,
    "prefecture": "岩手県",
    "city": "滝沢市",
    "town": "鵜飼大緩"
  },
  "0200663": {
    "zipcode": "0200663",
    "prefectureCode": "03",
    "prefectureNumber": 3,
    "prefecture": "岩手県",
    "city": "滝沢市",
    "town": "鵜飼諸葛川"
  },
  "0200664": {
    "zipcode": "0200664",
    "prefectureCode": "03",
    "prefectureNumber": 3,
    "prefecture": "岩手県",
    "city": "滝沢市",
    "town": "鵜飼笹森"
  },
  "0200665": {
    "zipcode": "0200665",
    "prefectureCode": "03",
    "prefectureNumber": 3,
    "prefecture": "岩手県",
    "city": "滝沢市",
    "town": "下鵜飼"
  },
  "0200666": {
    "zipcode": "0200666",
    "prefectureCode": "03",
    "prefectureNumber": 3,
    "prefecture": "岩手県",
    "city": "滝沢市",
    "town": "鵜飼先古川"
  },
  "0200667": {
    "zipcode": "0200667",
    "prefectureCode": "03",
    "prefectureNumber": 3,
    "prefecture": "岩手県",
    "city": "滝沢市",
    "town": "鵜飼向新田"
  },
  "0200668": {
    "zipcode": "0200668",
    "prefectureCode": "03",
    "prefectureNumber": 3,
    "prefecture": "岩手県",
    "city": "滝沢市",
    "town": "鵜飼狐洞"
  },
  "0200671": {
    "zipcode": "0200671",
    "prefectureCode": "03",
    "prefectureNumber": 3,
    "prefecture": "岩手県",
    "city": "滝沢市",
    "town": "鵜飼上高柳"
  },
  "0200672": {
    "zipcode": "0200672",
    "prefectureCode": "03",
    "prefectureNumber": 3,
    "prefecture": "岩手県",
    "city": "滝沢市",
    "town": "鵜飼下高柳"
  },
  "0200673": {
    "zipcode": "0200673",
    "prefectureCode": "03",
    "prefectureNumber": 3,
    "prefecture": "岩手県",
    "city": "滝沢市",
    "town": "鵜飼石留"
  },
  "0200674": {
    "zipcode": "0200674",
    "prefectureCode": "03",
    "prefectureNumber": 3,
    "prefecture": "岩手県",
    "city": "滝沢市",
    "town": "鵜飼高柳"
  },
  "0200675": {
    "zipcode": "0200675",
    "prefectureCode": "03",
    "prefectureNumber": 3,
    "prefecture": "岩手県",
    "city": "滝沢市",
    "town": "鵜飼滝向"
  },
  "0200676": {
    "zipcode": "0200676",
    "prefectureCode": "03",
    "prefectureNumber": 3,
    "prefecture": "岩手県",
    "city": "滝沢市",
    "town": "鵜飼八人打"
  },
  "0200677": {
    "zipcode": "0200677",
    "prefectureCode": "03",
    "prefectureNumber": 3,
    "prefecture": "岩手県",
    "city": "滝沢市",
    "town": "鵜飼樋の口"
  },
  "0200678": {
    "zipcode": "0200678",
    "prefectureCode": "03",
    "prefectureNumber": 3,
    "prefecture": "岩手県",
    "city": "滝沢市",
    "town": "鵜飼年毛"
  },
  "0200681": {
    "zipcode": "0200681",
    "prefectureCode": "03",
    "prefectureNumber": 3,
    "prefecture": "岩手県",
    "city": "滝沢市",
    "town": "鵜飼姥屋敷"
  },
  "0200682": {
    "zipcode": "0200682",
    "prefectureCode": "03",
    "prefectureNumber": 3,
    "prefecture": "岩手県",
    "city": "滝沢市",
    "town": "鵜飼臨安"
  },
  "0200683": {
    "zipcode": "0200683",
    "prefectureCode": "03",
    "prefectureNumber": 3,
    "prefecture": "岩手県",
    "city": "滝沢市",
    "town": "鵜飼花平"
  },
  "0200684": {
    "zipcode": "0200684",
    "prefectureCode": "03",
    "prefectureNumber": 3,
    "prefecture": "岩手県",
    "city": "滝沢市",
    "town": "鵜飼沼森"
  },
  "0200685": {
    "zipcode": "0200685",
    "prefectureCode": "03",
    "prefectureNumber": 3,
    "prefecture": "岩手県",
    "city": "滝沢市",
    "town": "鵜飼安達"
  },
  "0200686": {
    "zipcode": "0200686",
    "prefectureCode": "03",
    "prefectureNumber": 3,
    "prefecture": "岩手県",
    "city": "滝沢市",
    "town": "鵜飼鬼越"
  },
  "0200687": {
    "zipcode": "0200687",
    "prefectureCode": "03",
    "prefectureNumber": 3,
    "prefecture": "岩手県",
    "city": "滝沢市",
    "town": "上鵜飼"
  },
  "0200688": {
    "zipcode": "0200688",
    "prefectureCode": "03",
    "prefectureNumber": 3,
    "prefecture": "岩手県",
    "city": "滝沢市",
    "town": "鵜飼上前田"
  },
  "0200701": {
    "zipcode": "0200701",
    "prefectureCode": "03",
    "prefectureNumber": 3,
    "prefecture": "岩手県",
    "city": "滝沢市",
    "town": "大沢籠屋敷"
  },
  "0200702": {
    "zipcode": "0200702",
    "prefectureCode": "03",
    "prefectureNumber": 3,
    "prefecture": "岩手県",
    "city": "滝沢市",
    "town": "大沢上鶴子"
  },
  "0200703": {
    "zipcode": "0200703",
    "prefectureCode": "03",
    "prefectureNumber": 3,
    "prefecture": "岩手県",
    "city": "滝沢市",
    "town": "大沢堰合"
  },
  "0200704": {
    "zipcode": "0200704",
    "prefectureCode": "03",
    "prefectureNumber": 3,
    "prefecture": "岩手県",
    "city": "滝沢市",
    "town": "大沢谷地中"
  },
  "0200705": {
    "zipcode": "0200705",
    "prefectureCode": "03",
    "prefectureNumber": 3,
    "prefecture": "岩手県",
    "city": "滝沢市",
    "town": "大沢二タ又"
  },
  "0200706": {
    "zipcode": "0200706",
    "prefectureCode": "03",
    "prefectureNumber": 3,
    "prefecture": "岩手県",
    "city": "滝沢市",
    "town": "大沢割田"
  },
  "0200707": {
    "zipcode": "0200707",
    "prefectureCode": "03",
    "prefectureNumber": 3,
    "prefecture": "岩手県",
    "city": "滝沢市",
    "town": "大沢館"
  },
  "0200708": {
    "zipcode": "0200708",
    "prefectureCode": "03",
    "prefectureNumber": 3,
    "prefecture": "岩手県",
    "city": "滝沢市",
    "town": "大沢箸木平"
  },
  "0200709": {
    "zipcode": "0200709",
    "prefectureCode": "03",
    "prefectureNumber": 3,
    "prefecture": "岩手県",
    "city": "滝沢市",
    "town": "大沢外山野"
  },
  "0200710": {
    "zipcode": "0200710",
    "prefectureCode": "03",
    "prefectureNumber": 3,
    "prefecture": "岩手県",
    "city": "滝沢市",
    "town": "大沢弥作畑"
  },
  "0200711": {
    "zipcode": "0200711",
    "prefectureCode": "03",
    "prefectureNumber": 3,
    "prefecture": "岩手県",
    "city": "滝沢市",
    "town": "大沢谷地上"
  },
  "0200712": {
    "zipcode": "0200712",
    "prefectureCode": "03",
    "prefectureNumber": 3,
    "prefecture": "岩手県",
    "city": "滝沢市",
    "town": "大沢長坪"
  },
  "0200713": {
    "zipcode": "0200713",
    "prefectureCode": "03",
    "prefectureNumber": 3,
    "prefecture": "岩手県",
    "city": "滝沢市",
    "town": "大沢新道"
  },
  "0200714": {
    "zipcode": "0200714",
    "prefectureCode": "03",
    "prefectureNumber": 3,
    "prefecture": "岩手県",
    "city": "滝沢市",
    "town": "大沢舛村"
  },
  "0200715": {
    "zipcode": "0200715",
    "prefectureCode": "03",
    "prefectureNumber": 3,
    "prefecture": "岩手県",
    "city": "滝沢市",
    "town": "大沢下屋敷"
  },
  "0200716": {
    "zipcode": "0200716",
    "prefectureCode": "03",
    "prefectureNumber": 3,
    "prefecture": "岩手県",
    "city": "滝沢市",
    "town": "大沢米倉"
  },
  "0200717": {
    "zipcode": "0200717",
    "prefectureCode": "03",
    "prefectureNumber": 3,
    "prefecture": "岩手県",
    "city": "滝沢市",
    "town": "大沢四つ家"
  },
  "0200718": {
    "zipcode": "0200718",
    "prefectureCode": "03",
    "prefectureNumber": 3,
    "prefecture": "岩手県",
    "city": "滝沢市",
    "town": "大沢小谷地"
  },
  "0200719": {
    "zipcode": "0200719",
    "prefectureCode": "03",
    "prefectureNumber": 3,
    "prefecture": "岩手県",
    "city": "滝沢市",
    "town": "大沢鶴子"
  },
  "0200721": {
    "zipcode": "0200721",
    "prefectureCode": "03",
    "prefectureNumber": 3,
    "prefecture": "岩手県",
    "city": "滝沢市",
    "town": "篠木中村"
  },
  "0200722": {
    "zipcode": "0200722",
    "prefectureCode": "03",
    "prefectureNumber": 3,
    "prefecture": "岩手県",
    "city": "滝沢市",
    "town": "篠木上綾織"
  },
  "0200723": {
    "zipcode": "0200723",
    "prefectureCode": "03",
    "prefectureNumber": 3,
    "prefecture": "岩手県",
    "city": "滝沢市",
    "town": "篠木綾織"
  },
  "0200724": {
    "zipcode": "0200724",
    "prefectureCode": "03",
    "prefectureNumber": 3,
    "prefecture": "岩手県",
    "city": "滝沢市",
    "town": "篠木小谷地"
  },
  "0200725": {
    "zipcode": "0200725",
    "prefectureCode": "03",
    "prefectureNumber": 3,
    "prefecture": "岩手県",
    "city": "滝沢市",
    "town": "篠木中屋敷"
  },
  "0200726": {
    "zipcode": "0200726",
    "prefectureCode": "03",
    "prefectureNumber": 3,
    "prefecture": "岩手県",
    "city": "滝沢市",
    "town": "篠木荒屋"
  },
  "0200727": {
    "zipcode": "0200727",
    "prefectureCode": "03",
    "prefectureNumber": 3,
    "prefecture": "岩手県",
    "city": "滝沢市",
    "town": "篠木鳥谷平"
  },
  "0200728": {
    "zipcode": "0200728",
    "prefectureCode": "03",
    "prefectureNumber": 3,
    "prefecture": "岩手県",
    "city": "滝沢市",
    "town": "篠木上篠木"
  },
  "0200731": {
    "zipcode": "0200731",
    "prefectureCode": "03",
    "prefectureNumber": 3,
    "prefecture": "岩手県",
    "city": "滝沢市",
    "town": "篠木明法"
  },
  "0200732": {
    "zipcode": "0200732",
    "prefectureCode": "03",
    "prefectureNumber": 3,
    "prefecture": "岩手県",
    "city": "滝沢市",
    "town": "篠木樋の口"
  },
  "0200733": {
    "zipcode": "0200733",
    "prefectureCode": "03",
    "prefectureNumber": 3,
    "prefecture": "岩手県",
    "city": "滝沢市",
    "town": "篠木待場"
  },
  "0200734": {
    "zipcode": "0200734",
    "prefectureCode": "03",
    "prefectureNumber": 3,
    "prefecture": "岩手県",
    "city": "滝沢市",
    "town": "篠木上黒畑"
  },
  "0200735": {
    "zipcode": "0200735",
    "prefectureCode": "03",
    "prefectureNumber": 3,
    "prefecture": "岩手県",
    "city": "滝沢市",
    "town": "篠木黒畑"
  },
  "0200736": {
    "zipcode": "0200736",
    "prefectureCode": "03",
    "prefectureNumber": 3,
    "prefecture": "岩手県",
    "city": "滝沢市",
    "town": "篠木参郷"
  },
  "0200737": {
    "zipcode": "0200737",
    "prefectureCode": "03",
    "prefectureNumber": 3,
    "prefecture": "岩手県",
    "city": "滝沢市",
    "town": "篠木堤"
  },
  "0200738": {
    "zipcode": "0200738",
    "prefectureCode": "03",
    "prefectureNumber": 3,
    "prefecture": "岩手県",
    "city": "滝沢市",
    "town": "篠木参郷の森"
  },
  "0200741": {
    "zipcode": "0200741",
    "prefectureCode": "03",
    "prefectureNumber": 3,
    "prefecture": "岩手県",
    "city": "滝沢市",
    "town": "篠木矢取森"
  },
  "0200742": {
    "zipcode": "0200742",
    "prefectureCode": "03",
    "prefectureNumber": 3,
    "prefecture": "岩手県",
    "city": "滝沢市",
    "town": "篠木苧桶沢"
  },
  "0200743": {
    "zipcode": "0200743",
    "prefectureCode": "03",
    "prefectureNumber": 3,
    "prefecture": "岩手県",
    "city": "滝沢市",
    "town": "篠木外山"
  },
  "0200744": {
    "zipcode": "0200744",
    "prefectureCode": "03",
    "prefectureNumber": 3,
    "prefecture": "岩手県",
    "city": "滝沢市",
    "town": "篠木館が沢"
  },
  "0200745": {
    "zipcode": "0200745",
    "prefectureCode": "03",
    "prefectureNumber": 3,
    "prefecture": "岩手県",
    "city": "滝沢市",
    "town": "篠木大寺沢"
  },
  "0200746": {
    "zipcode": "0200746",
    "prefectureCode": "03",
    "prefectureNumber": 3,
    "prefecture": "岩手県",
    "city": "滝沢市",
    "town": "篠木仁沢瀬"
  },
  "0200751": {
    "zipcode": "0200751",
    "prefectureCode": "03",
    "prefectureNumber": 3,
    "prefecture": "岩手県",
    "city": "滝沢市",
    "town": "大釜千が窪"
  },
  "0200752": {
    "zipcode": "0200752",
    "prefectureCode": "03",
    "prefectureNumber": 3,
    "prefecture": "岩手県",
    "city": "滝沢市",
    "town": "大釜白山"
  },
  "0200753": {
    "zipcode": "0200753",
    "prefectureCode": "03",
    "prefectureNumber": 3,
    "prefecture": "岩手県",
    "city": "滝沢市",
    "town": "大釜細屋"
  },
  "0200754": {
    "zipcode": "0200754",
    "prefectureCode": "03",
    "prefectureNumber": 3,
    "prefecture": "岩手県",
    "city": "滝沢市",
    "town": "大釜上釜"
  },
  "0200755": {
    "zipcode": "0200755",
    "prefectureCode": "03",
    "prefectureNumber": 3,
    "prefecture": "岩手県",
    "city": "滝沢市",
    "town": "大釜釜口"
  },
  "0200756": {
    "zipcode": "0200756",
    "prefectureCode": "03",
    "prefectureNumber": 3,
    "prefecture": "岩手県",
    "city": "滝沢市",
    "town": "大釜高森"
  },
  "0200757": {
    "zipcode": "0200757",
    "prefectureCode": "03",
    "prefectureNumber": 3,
    "prefecture": "岩手県",
    "city": "滝沢市",
    "town": "大釜風林"
  },
  "0200758": {
    "zipcode": "0200758",
    "prefectureCode": "03",
    "prefectureNumber": 3,
    "prefecture": "岩手県",
    "city": "滝沢市",
    "town": "大釜大清水"
  },
  "0200761": {
    "zipcode": "0200761",
    "prefectureCode": "03",
    "prefectureNumber": 3,
    "prefecture": "岩手県",
    "city": "滝沢市",
    "town": "大釜田の尻"
  },
  "0200762": {
    "zipcode": "0200762",
    "prefectureCode": "03",
    "prefectureNumber": 3,
    "prefecture": "岩手県",
    "city": "滝沢市",
    "town": "大釜外館"
  },
  "0200763": {
    "zipcode": "0200763",
    "prefectureCode": "03",
    "prefectureNumber": 3,
    "prefecture": "岩手県",
    "city": "滝沢市",
    "town": "大釜大畑"
  },
  "0200764": {
    "zipcode": "0200764",
    "prefectureCode": "03",
    "prefectureNumber": 3,
    "prefecture": "岩手県",
    "city": "滝沢市",
    "town": "大釜土井尻"
  },
  "0200765": {
    "zipcode": "0200765",
    "prefectureCode": "03",
    "prefectureNumber": 3,
    "prefecture": "岩手県",
    "city": "滝沢市",
    "town": "大釜小屋敷"
  },
  "0200766": {
    "zipcode": "0200766",
    "prefectureCode": "03",
    "prefectureNumber": 3,
    "prefecture": "岩手県",
    "city": "滝沢市",
    "town": "大釜八幡前"
  },
  "0200767": {
    "zipcode": "0200767",
    "prefectureCode": "03",
    "prefectureNumber": 3,
    "prefecture": "岩手県",
    "city": "滝沢市",
    "town": "大釜中道"
  },
  "0200768": {
    "zipcode": "0200768",
    "prefectureCode": "03",
    "prefectureNumber": 3,
    "prefecture": "岩手県",
    "city": "滝沢市",
    "town": "大釜和田"
  },
  "0200769": {
    "zipcode": "0200769",
    "prefectureCode": "03",
    "prefectureNumber": 3,
    "prefecture": "岩手県",
    "city": "滝沢市",
    "town": "大釜荒屋敷"
  },
  "0200771": {
    "zipcode": "0200771",
    "prefectureCode": "03",
    "prefectureNumber": 3,
    "prefecture": "岩手県",
    "city": "滝沢市",
    "town": "大釜竹鼻"
  },
  "0200772": {
    "zipcode": "0200772",
    "prefectureCode": "03",
    "prefectureNumber": 3,
    "prefecture": "岩手県",
    "city": "滝沢市",
    "town": "大釜中瀬"
  },
  "0200773": {
    "zipcode": "0200773",
    "prefectureCode": "03",
    "prefectureNumber": 3,
    "prefecture": "岩手県",
    "city": "滝沢市",
    "town": "大釜上竹鼻"
  },
  "0200774": {
    "zipcode": "0200774",
    "prefectureCode": "03",
    "prefectureNumber": 3,
    "prefecture": "岩手県",
    "city": "滝沢市",
    "town": "大釜塩の森"
  },
  "0200775": {
    "zipcode": "0200775",
    "prefectureCode": "03",
    "prefectureNumber": 3,
    "prefecture": "岩手県",
    "city": "滝沢市",
    "town": "大釜沼袋"
  },
  "0200776": {
    "zipcode": "0200776",
    "prefectureCode": "03",
    "prefectureNumber": 3,
    "prefecture": "岩手県",
    "city": "滝沢市",
    "town": "大釜鬼が滝"
  },
  "0200777": {
    "zipcode": "0200777",
    "prefectureCode": "03",
    "prefectureNumber": 3,
    "prefecture": "岩手県",
    "city": "滝沢市",
    "town": "大釜仁沢瀬"
  },
  "0200778": {
    "zipcode": "0200778",
    "prefectureCode": "03",
    "prefectureNumber": 3,
    "prefecture": "岩手県",
    "city": "滝沢市",
    "town": "大釜吉水"
  },
  "0200779": {
    "zipcode": "0200779",
    "prefectureCode": "03",
    "prefectureNumber": 3,
    "prefecture": "岩手県",
    "city": "滝沢市",
    "town": "大釜吉清水"
  },
  "0200801": {
    "zipcode": "0200801",
    "prefectureCode": "03",
    "prefectureNumber": 3,
    "prefecture": "岩手県",
    "city": "盛岡市",
    "town": "浅岸"
  },
  "0200802": {
    "zipcode": "0200802",
    "prefectureCode": "03",
    "prefectureNumber": 3,
    "prefecture": "岩手県",
    "city": "盛岡市",
    "town": "つつじが丘"
  },
  "0200803": {
    "zipcode": "0200803",
    "prefectureCode": "03",
    "prefectureNumber": 3,
    "prefecture": "岩手県",
    "city": "盛岡市",
    "town": "新庄"
  },
  "0200804": {
    "zipcode": "0200804",
    "prefectureCode": "03",
    "prefectureNumber": 3,
    "prefecture": "岩手県",
    "city": "盛岡市",
    "town": "東桜山"
  },
  "0200805": {
    "zipcode": "0200805",
    "prefectureCode": "03",
    "prefectureNumber": 3,
    "prefecture": "岩手県",
    "city": "盛岡市",
    "town": "東新庄"
  },
  "0200806": {
    "zipcode": "0200806",
    "prefectureCode": "03",
    "prefectureNumber": 3,
    "prefecture": "岩手県",
    "city": "盛岡市",
    "town": "新庄町"
  },
  "0200807": {
    "zipcode": "0200807",
    "prefectureCode": "03",
    "prefectureNumber": 3,
    "prefecture": "岩手県",
    "city": "盛岡市",
    "town": "加賀野"
  },
  "0200811": {
    "zipcode": "0200811",
    "prefectureCode": "03",
    "prefectureNumber": 3,
    "prefecture": "岩手県",
    "city": "盛岡市",
    "town": "川目町"
  },
  "0200812": {
    "zipcode": "0200812",
    "prefectureCode": "03",
    "prefectureNumber": 3,
    "prefecture": "岩手県",
    "city": "盛岡市",
    "town": "川目"
  },
  "0200813": {
    "zipcode": "0200813",
    "prefectureCode": "03",
    "prefectureNumber": 3,
    "prefecture": "岩手県",
    "city": "盛岡市",
    "town": "東山"
  },
  "0200814": {
    "zipcode": "0200814",
    "prefectureCode": "03",
    "prefectureNumber": 3,
    "prefecture": "岩手県",
    "city": "盛岡市",
    "town": "東中野町"
  },
  "0200815": {
    "zipcode": "0200815",
    "prefectureCode": "03",
    "prefectureNumber": 3,
    "prefecture": "岩手県",
    "city": "盛岡市",
    "town": "小杉山"
  },
  "0200816": {
    "zipcode": "0200816",
    "prefectureCode": "03",
    "prefectureNumber": 3,
    "prefecture": "岩手県",
    "city": "盛岡市",
    "town": "中野"
  },
  "0200817": {
    "zipcode": "0200817",
    "prefectureCode": "03",
    "prefectureNumber": 3,
    "prefecture": "岩手県",
    "city": "盛岡市",
    "town": "東中野"
  },
  "0200821": {
    "zipcode": "0200821",
    "prefectureCode": "03",
    "prefectureNumber": 3,
    "prefecture": "岩手県",
    "city": "盛岡市",
    "town": "山王町"
  },
  "0200822": {
    "zipcode": "0200822",
    "prefectureCode": "03",
    "prefectureNumber": 3,
    "prefecture": "岩手県",
    "city": "盛岡市",
    "town": "茶畑"
  },
  "0200823": {
    "zipcode": "0200823",
    "prefectureCode": "03",
    "prefectureNumber": 3,
    "prefecture": "岩手県",
    "city": "盛岡市",
    "town": "門"
  },
  "0200824": {
    "zipcode": "0200824",
    "prefectureCode": "03",
    "prefectureNumber": 3,
    "prefecture": "岩手県",
    "city": "盛岡市",
    "town": "東安庭"
  },
  "0200825": {
    "zipcode": "0200825",
    "prefectureCode": "03",
    "prefectureNumber": 3,
    "prefecture": "岩手県",
    "city": "盛岡市",
    "town": "高崩"
  },
  "0200826": {
    "zipcode": "0200826",
    "prefectureCode": "03",
    "prefectureNumber": 3,
    "prefecture": "岩手県",
    "city": "盛岡市",
    "town": "神子田町"
  },
  "0200827": {
    "zipcode": "0200827",
    "prefectureCode": "03",
    "prefectureNumber": 3,
    "prefecture": "岩手県",
    "city": "盛岡市",
    "town": "鉈屋町"
  },
  "0200828": {
    "zipcode": "0200828",
    "prefectureCode": "03",
    "prefectureNumber": 3,
    "prefecture": "岩手県",
    "city": "盛岡市",
    "town": "大慈寺町"
  },
  "0200831": {
    "zipcode": "0200831",
    "prefectureCode": "03",
    "prefectureNumber": 3,
    "prefecture": "岩手県",
    "city": "盛岡市",
    "town": "三本柳"
  },
  "0200832": {
    "zipcode": "0200832",
    "prefectureCode": "03",
    "prefectureNumber": 3,
    "prefecture": "岩手県",
    "city": "盛岡市",
    "town": "東見前"
  },
  "0200833": {
    "zipcode": "0200833",
    "prefectureCode": "03",
    "prefectureNumber": 3,
    "prefecture": "岩手県",
    "city": "盛岡市",
    "town": "西見前"
  },
  "0200834": {
    "zipcode": "0200834",
    "prefectureCode": "03",
    "prefectureNumber": 3,
    "prefecture": "岩手県",
    "city": "盛岡市",
    "town": "永井"
  },
  "0200835": {
    "zipcode": "0200835",
    "prefectureCode": "03",
    "prefectureNumber": 3,
    "prefecture": "岩手県",
    "city": "盛岡市",
    "town": "津志田"
  },
  "0200836": {
    "zipcode": "0200836",
    "prefectureCode": "03",
    "prefectureNumber": 3,
    "prefecture": "岩手県",
    "city": "盛岡市",
    "town": "津志田西"
  },
  "0200837": {
    "zipcode": "0200837",
    "prefectureCode": "03",
    "prefectureNumber": 3,
    "prefecture": "岩手県",
    "city": "盛岡市",
    "town": "津志田町"
  },
  "0200838": {
    "zipcode": "0200838",
    "prefectureCode": "03",
    "prefectureNumber": 3,
    "prefecture": "岩手県",
    "city": "盛岡市",
    "town": "津志田中央"
  },
  "0200839": {
    "zipcode": "0200839",
    "prefectureCode": "03",
    "prefectureNumber": 3,
    "prefecture": "岩手県",
    "city": "盛岡市",
    "town": "津志田南"
  },
  "0200841": {
    "zipcode": "0200841",
    "prefectureCode": "03",
    "prefectureNumber": 3,
    "prefecture": "岩手県",
    "city": "盛岡市",
    "town": "羽場"
  },
  "0200842": {
    "zipcode": "0200842",
    "prefectureCode": "03",
    "prefectureNumber": 3,
    "prefecture": "岩手県",
    "city": "盛岡市",
    "town": "湯沢"
  },
  "0200843": {
    "zipcode": "0200843",
    "prefectureCode": "03",
    "prefectureNumber": 3,
    "prefecture": "岩手県",
    "city": "盛岡市",
    "town": "湯沢西"
  },
  "0200844": {
    "zipcode": "0200844",
    "prefectureCode": "03",
    "prefectureNumber": 3,
    "prefecture": "岩手県",
    "city": "盛岡市",
    "town": "湯沢東"
  },
  "0200845": {
    "zipcode": "0200845",
    "prefectureCode": "03",
    "prefectureNumber": 3,
    "prefecture": "岩手県",
    "city": "盛岡市",
    "town": "湯沢南"
  },
  "0200846": {
    "zipcode": "0200846",
    "prefectureCode": "03",
    "prefectureNumber": 3,
    "prefecture": "岩手県",
    "city": "盛岡市",
    "town": "流通センター北"
  },
  "0200851": {
    "zipcode": "0200851",
    "prefectureCode": "03",
    "prefectureNumber": 3,
    "prefecture": "岩手県",
    "city": "盛岡市",
    "town": "向中野"
  },
  "0200852": {
    "zipcode": "0200852",
    "prefectureCode": "03",
    "prefectureNumber": 3,
    "prefecture": "岩手県",
    "city": "盛岡市",
    "town": "飯岡新田"
  },
  "0200853": {
    "zipcode": "0200853",
    "prefectureCode": "03",
    "prefectureNumber": 3,
    "prefecture": "岩手県",
    "city": "盛岡市",
    "town": "下飯岡"
  },
  "0200854": {
    "zipcode": "0200854",
    "prefectureCode": "03",
    "prefectureNumber": 3,
    "prefecture": "岩手県",
    "city": "盛岡市",
    "town": "上飯岡"
  },
  "0200855": {
    "zipcode": "0200855",
    "prefectureCode": "03",
    "prefectureNumber": 3,
    "prefecture": "岩手県",
    "city": "盛岡市",
    "town": "上鹿妻"
  },
  "0200856": {
    "zipcode": "0200856",
    "prefectureCode": "03",
    "prefectureNumber": 3,
    "prefecture": "岩手県",
    "city": "盛岡市",
    "town": "下鹿妻"
  },
  "0200857": {
    "zipcode": "0200857",
    "prefectureCode": "03",
    "prefectureNumber": 3,
    "prefecture": "岩手県",
    "city": "盛岡市",
    "town": "北飯岡"
  },
  "0200861": {
    "zipcode": "0200861",
    "prefectureCode": "03",
    "prefectureNumber": 3,
    "prefecture": "岩手県",
    "city": "盛岡市",
    "town": "仙北"
  },
  "0200862": {
    "zipcode": "0200862",
    "prefectureCode": "03",
    "prefectureNumber": 3,
    "prefecture": "岩手県",
    "city": "盛岡市",
    "town": "東仙北"
  },
  "0200863": {
    "zipcode": "0200863",
    "prefectureCode": "03",
    "prefectureNumber": 3,
    "prefecture": "岩手県",
    "city": "盛岡市",
    "town": "南仙北"
  },
  "0200864": {
    "zipcode": "0200864",
    "prefectureCode": "03",
    "prefectureNumber": 3,
    "prefecture": "岩手県",
    "city": "盛岡市",
    "town": "西仙北"
  },
  "0200865": {
    "zipcode": "0200865",
    "prefectureCode": "03",
    "prefectureNumber": 3,
    "prefecture": "岩手県",
    "city": "盛岡市",
    "town": "仙北町"
  },
  "0200866": {
    "zipcode": "0200866",
    "prefectureCode": "03",
    "prefectureNumber": 3,
    "prefecture": "岩手県",
    "city": "盛岡市",
    "town": "本宮"
  },
  "0200871": {
    "zipcode": "0200871",
    "prefectureCode": "03",
    "prefectureNumber": 3,
    "prefecture": "岩手県",
    "city": "盛岡市",
    "town": "中ノ橋通"
  },
  "0200872": {
    "zipcode": "0200872",
    "prefectureCode": "03",
    "prefectureNumber": 3,
    "prefecture": "岩手県",
    "city": "盛岡市",
    "town": "八幡町"
  },
  "0200873": {
    "zipcode": "0200873",
    "prefectureCode": "03",
    "prefectureNumber": 3,
    "prefecture": "岩手県",
    "city": "盛岡市",
    "town": "松尾町"
  },
  "0200874": {
    "zipcode": "0200874",
    "prefectureCode": "03",
    "prefectureNumber": 3,
    "prefecture": "岩手県",
    "city": "盛岡市",
    "town": "南大通"
  },
  "0200875": {
    "zipcode": "0200875",
    "prefectureCode": "03",
    "prefectureNumber": 3,
    "prefecture": "岩手県",
    "city": "盛岡市",
    "town": "清水町"
  },
  "0200876": {
    "zipcode": "0200876",
    "prefectureCode": "03",
    "prefectureNumber": 3,
    "prefecture": "岩手県",
    "city": "盛岡市",
    "town": "馬場町"
  },
  "0200877": {
    "zipcode": "0200877",
    "prefectureCode": "03",
    "prefectureNumber": 3,
    "prefecture": "岩手県",
    "city": "盛岡市",
    "town": "下ノ橋町"
  },
  "0200878": {
    "zipcode": "0200878",
    "prefectureCode": "03",
    "prefectureNumber": 3,
    "prefecture": "岩手県",
    "city": "盛岡市",
    "town": "肴町"
  },
  "0200881": {
    "zipcode": "0200881",
    "prefectureCode": "03",
    "prefectureNumber": 3,
    "prefecture": "岩手県",
    "city": "盛岡市",
    "town": "天神町"
  },
  "0200882": {
    "zipcode": "0200882",
    "prefectureCode": "03",
    "prefectureNumber": 3,
    "prefecture": "岩手県",
    "city": "盛岡市",
    "town": "住吉町"
  },
  "0200883": {
    "zipcode": "0200883",
    "prefectureCode": "03",
    "prefectureNumber": 3,
    "prefecture": "岩手県",
    "city": "盛岡市",
    "town": "志家町"
  },
  "0200884": {
    "zipcode": "0200884",
    "prefectureCode": "03",
    "prefectureNumber": 3,
    "prefecture": "岩手県",
    "city": "盛岡市",
    "town": "神明町"
  },
  "0200885": {
    "zipcode": "0200885",
    "prefectureCode": "03",
    "prefectureNumber": 3,
    "prefecture": "岩手県",
    "city": "盛岡市",
    "town": "紺屋町"
  },
  "0200886": {
    "zipcode": "0200886",
    "prefectureCode": "03",
    "prefectureNumber": 3,
    "prefecture": "岩手県",
    "city": "盛岡市",
    "town": "若園町"
  },
  "0200887": {
    "zipcode": "0200887",
    "prefectureCode": "03",
    "prefectureNumber": 3,
    "prefecture": "岩手県",
    "city": "盛岡市",
    "town": "上ノ橋町"
  },
  "0200891": {
    "zipcode": "0200891",
    "prefectureCode": "03",
    "prefectureNumber": 3,
    "prefecture": "岩手県",
    "city": "紫波郡矢巾町",
    "town": "流通センター南"
  }
}
