{
  "0210000": {
    "zipcode": "0210000",
    "prefectureCode": "03",
    "prefectureNumber": 3,
    "prefecture": "岩手県",
    "city": "一関市",
    "town": "以下に掲載がない場合"
  },
  "0210001": {
    "zipcode": "0210001",
    "prefectureCode": "03",
    "prefectureNumber": 3,
    "prefecture": "岩手県",
    "city": "一関市",
    "town": "新町"
  },
  "0210002": {
    "zipcode": "0210002",
    "prefectureCode": "03",
    "prefectureNumber": 3,
    "prefecture": "岩手県",
    "city": "一関市",
    "town": "中里（その他）"
  },
  "0210003": {
    "zipcode": "0210003",
    "prefectureCode": "03",
    "prefectureNumber": 3,
    "prefecture": "岩手県",
    "city": "一関市",
    "town": "東五代"
  },
  "0210004": {
    "zipcode": "0210004",
    "prefectureCode": "03",
    "prefectureNumber": 3,
    "prefecture": "岩手県",
    "city": "一関市",
    "town": "町浦"
  },
  "0210005": {
    "zipcode": "0210005",
    "prefectureCode": "03",
    "prefectureNumber": 3,
    "prefecture": "岩手県",
    "city": "一関市",
    "town": "中里（沢田）"
  },
  "0210006": {
    "zipcode": "0210006",
    "prefectureCode": "03",
    "prefectureNumber": 3,
    "prefecture": "岩手県",
    "city": "一関市",
    "town": "上坊"
  },
  "0210007": {
    "zipcode": "0210007",
    "prefectureCode": "03",
    "prefectureNumber": 3,
    "prefecture": "岩手県",
    "city": "一関市",
    "town": "上日照"
  },
  "0210008": {
    "zipcode": "0210008",
    "prefectureCode": "03",
    "prefectureNumber": 3,
    "prefecture": "岩手県",
    "city": "一関市",
    "town": "石畑"
  },
  "0210011": {
    "zipcode": "0210011",
    "prefectureCode": "03",
    "prefectureNumber": 3,
    "prefecture": "岩手県",
    "city": "一関市",
    "town": "山目町"
  },
  "0210012": {
    "zipcode": "0210012",
    "prefectureCode": "03",
    "prefectureNumber": 3,
    "prefecture": "岩手県",
    "city": "一関市",
    "town": "宮前町"
  },
  "0210013": {
    "zipcode": "0210013",
    "prefectureCode": "03",
    "prefectureNumber": 3,
    "prefecture": "岩手県",
    "city": "一関市",
    "town": "宮下町"
  },
  "0210014": {
    "zipcode": "0210014",
    "prefectureCode": "03",
    "prefectureNumber": 3,
    "prefecture": "岩手県",
    "city": "一関市",
    "town": "蘭梅町"
  },
  "0210021": {
    "zipcode": "0210021",
    "prefectureCode": "03",
    "prefectureNumber": 3,
    "prefecture": "岩手県",
    "city": "一関市",
    "town": "中央町"
  },
  "0210022": {
    "zipcode": "0210022",
    "prefectureCode": "03",
    "prefectureNumber": 3,
    "prefecture": "岩手県",
    "city": "一関市",
    "town": "五代町"
  },
  "0210023": {
    "zipcode": "0210023",
    "prefectureCode": "03",
    "prefectureNumber": 3,
    "prefecture": "岩手県",
    "city": "一関市",
    "town": "銅谷町"
  },
  "0210024": {
    "zipcode": "0210024",
    "prefectureCode": "03",
    "prefectureNumber": 3,
    "prefecture": "岩手県",
    "city": "一関市",
    "town": "幸町"
  },
  "0210025": {
    "zipcode": "0210025",
    "prefectureCode": "03",
    "prefectureNumber": 3,
    "prefecture": "岩手県",
    "city": "一関市",
    "town": "山目（向野）"
  },
  "0210026": {
    "zipcode": "0210026",
    "prefectureCode": "03",
    "prefectureNumber": 3,
    "prefecture": "岩手県",
    "city": "一関市",
    "town": "山目（前田）"
  },
  "0210027": {
    "zipcode": "0210027",
    "prefectureCode": "03",
    "prefectureNumber": 3,
    "prefecture": "岩手県",
    "city": "一関市",
    "town": "竹山町"
  },
  "0210031": {
    "zipcode": "0210031",
    "prefectureCode": "03",
    "prefectureNumber": 3,
    "prefecture": "岩手県",
    "city": "一関市",
    "town": "青葉"
  },
  "0210032": {
    "zipcode": "0210032",
    "prefectureCode": "03",
    "prefectureNumber": 3,
    "prefecture": "岩手県",
    "city": "一関市",
    "town": "末広"
  },
  "0210033": {
    "zipcode": "0210033",
    "prefectureCode": "03",
    "prefectureNumber": 3,
    "prefecture": "岩手県",
    "city": "一関市",
    "town": "山目（里前）"
  },
  "0210034": {
    "zipcode": "0210034",
    "prefectureCode": "03",
    "prefectureNumber": 3,
    "prefecture": "岩手県",
    "city": "一関市",
    "town": "山目（立沢）"
  },
  "0210035": {
    "zipcode": "0210035",
    "prefectureCode": "03",
    "prefectureNumber": 3,
    "prefecture": "岩手県",
    "city": "一関市",
    "town": "山目（才天）"
  },
  "0210036": {
    "zipcode": "0210036",
    "prefectureCode": "03",
    "prefectureNumber": 3,
    "prefecture": "岩手県",
    "city": "一関市",
    "town": "山目（十二神）"
  },
  "0210041": {
    "zipcode": "0210041",
    "prefectureCode": "03",
    "prefectureNumber": 3,
    "prefecture": "岩手県",
    "city": "一関市",
    "town": "赤荻"
  },
  "0210051": {
    "zipcode": "0210051",
    "prefectureCode": "03",
    "prefectureNumber": 3,
    "prefecture": "岩手県",
    "city": "一関市",
    "town": "山目（三反田）"
  },
  "0210052": {
    "zipcode": "0210052",
    "prefectureCode": "03",
    "prefectureNumber": 3,
    "prefecture": "岩手県",
    "city": "一関市",
    "town": "寿町"
  },
  "0210053": {
    "zipcode": "0210053",
    "prefectureCode": "03",
    "prefectureNumber": 3,
    "prefecture": "岩手県",
    "city": "一関市",
    "town": "山目（中野）"
  },
  "0210054": {
    "zipcode": "0210054",
    "prefectureCode": "03",
    "prefectureNumber": 3,
    "prefecture": "岩手県",
    "city": "一関市",
    "town": "山目（境）"
  },
  "0210055": {
    "zipcode": "0210055",
    "prefectureCode": "03",
    "prefectureNumber": 3,
    "prefecture": "岩手県",
    "city": "一関市",
    "town": "山目（泥田）"
  },
  "0210056": {
    "zipcode": "0210056",
    "prefectureCode": "03",
    "prefectureNumber": 3,
    "prefecture": "岩手県",
    "city": "一関市",
    "town": "山目（泥田山下）"
  },
  "0210061": {
    "zipcode": "0210061",
    "prefectureCode": "03",
    "prefectureNumber": 3,
    "prefecture": "岩手県",
    "city": "一関市",
    "town": "山目（館）"
  },
  "0210062": {
    "zipcode": "0210062",
    "prefectureCode": "03",
    "prefectureNumber": 3,
    "prefecture": "岩手県",
    "city": "一関市",
    "town": "山目（寺前）"
  },
  "0210063": {
    "zipcode": "0210063",
    "prefectureCode": "03",
    "prefectureNumber": 3,
    "prefecture": "岩手県",
    "city": "一関市",
    "town": "山目（大槻）"
  },
  "0210064": {
    "zipcode": "0210064",
    "prefectureCode": "03",
    "prefectureNumber": 3,
    "prefecture": "岩手県",
    "city": "一関市",
    "town": "山目（沢内）"
  },
  "0210101": {
    "zipcode": "0210101",
    "prefectureCode": "03",
    "prefectureNumber": 3,
    "prefecture": "岩手県",
    "city": "一関市",
    "town": "厳美町"
  },
  "0210102": {
    "zipcode": "0210102",
    "prefectureCode": "03",
    "prefectureNumber": 3,
    "prefecture": "岩手県",
    "city": "一関市",
    "town": "萩荘（赤猪子、芦ノ口、甘蕨、老流、大沢、上宇津野、上本郷、上要害、化粧坂、三月田、下宇津野、下本郷、外山、堂の沢、栃倉、栃倉南、長倉、中沢、八森、馬場、広面、平場、古釜場、曲淵、松原、南沢、谷起、焼切、八瀬、八幡、山ノ沢）"
  },
  "0210221": {
    "zipcode": "0210221",
    "prefectureCode": "03",
    "prefectureNumber": 3,
    "prefecture": "岩手県",
    "city": "一関市",
    "town": "舞川"
  },
  "0210801": {
    "zipcode": "0210801",
    "prefectureCode": "03",
    "prefectureNumber": 3,
    "prefecture": "岩手県",
    "city": "一関市",
    "town": "桜街"
  },
  "0210802": {
    "zipcode": "0210802",
    "prefectureCode": "03",
    "prefectureNumber": 3,
    "prefecture": "岩手県",
    "city": "一関市",
    "town": "北十軒街"
  },
  "0210803": {
    "zipcode": "0210803",
    "prefectureCode": "03",
    "prefectureNumber": 3,
    "prefecture": "岩手県",
    "city": "一関市",
    "town": "南十軒街"
  },
  "0210804": {
    "zipcode": "0210804",
    "prefectureCode": "03",
    "prefectureNumber": 3,
    "prefecture": "岩手県",
    "city": "一関市",
    "town": "五十人町"
  },
  "0210805": {
    "zipcode": "0210805",
    "prefectureCode": "03",
    "prefectureNumber": 3,
    "prefecture": "岩手県",
    "city": "一関市",
    "town": "豊町"
  },
  "0210806": {
    "zipcode": "0210806",
    "prefectureCode": "03",
    "prefectureNumber": 3,
    "prefecture": "岩手県",
    "city": "一関市",
    "town": "下大槻街"
  },
  "0210807": {
    "zipcode": "0210807",
    "prefectureCode": "03",
    "prefectureNumber": 3,
    "prefecture": "岩手県",
    "city": "一関市",
    "town": "東花王町"
  },
  "0210811": {
    "zipcode": "0210811",
    "prefectureCode": "03",
    "prefectureNumber": 3,
    "prefecture": "岩手県",
    "city": "一関市",
    "town": "久保"
  },
  "0210812": {
    "zipcode": "0210812",
    "prefectureCode": "03",
    "prefectureNumber": 3,
    "prefecture": "岩手県",
    "city": "一関市",
    "town": "樋渡"
  },
  "0210813": {
    "zipcode": "0210813",
    "prefectureCode": "03",
    "prefectureNumber": 3,
    "prefecture": "岩手県",
    "city": "一関市",
    "town": "南ほうりょう"
  },
  "0210814": {
    "zipcode": "0210814",
    "prefectureCode": "03",
    "prefectureNumber": 3,
    "prefecture": "岩手県",
    "city": "一関市",
    "town": "北ほうりょう"
  },
  "0210815": {
    "zipcode": "0210815",
    "prefectureCode": "03",
    "prefectureNumber": 3,
    "prefecture": "岩手県",
    "city": "一関市",
    "town": "要害"
  },
  "0210821": {
    "zipcode": "0210821",
    "prefectureCode": "03",
    "prefectureNumber": 3,
    "prefecture": "岩手県",
    "city": "一関市",
    "town": "三関"
  },
  "0210822": {
    "zipcode": "0210822",
    "prefectureCode": "03",
    "prefectureNumber": 3,
    "prefecture": "岩手県",
    "city": "一関市",
    "town": "東台"
  },
  "0210831": {
    "zipcode": "0210831",
    "prefectureCode": "03",
    "prefectureNumber": 3,
    "prefecture": "岩手県",
    "city": "一関市",
    "town": "沼田"
  },
  "0210832": {
    "zipcode": "0210832",
    "prefectureCode": "03",
    "prefectureNumber": 3,
    "prefecture": "岩手県",
    "city": "一関市",
    "town": "散田"
  },
  "0210833": {
    "zipcode": "0210833",
    "prefectureCode": "03",
    "prefectureNumber": 3,
    "prefecture": "岩手県",
    "city": "一関市",
    "town": "柄貝"
  },
  "0210834": {
    "zipcode": "0210834",
    "prefectureCode": "03",
    "prefectureNumber": 3,
    "prefecture": "岩手県",
    "city": "一関市",
    "town": "宇南"
  },
  "0210835": {
    "zipcode": "0210835",
    "prefectureCode": "03",
    "prefectureNumber": 3,
    "prefecture": "岩手県",
    "city": "一関市",
    "town": "二本木"
  },
  "0210836": {
    "zipcode": "0210836",
    "prefectureCode": "03",
    "prefectureNumber": 3,
    "prefecture": "岩手県",
    "city": "一関市",
    "town": "鳴神"
  },
  "0210841": {
    "zipcode": "0210841",
    "prefectureCode": "03",
    "prefectureNumber": 3,
    "prefecture": "岩手県",
    "city": "一関市",
    "town": "吸川街"
  },
  "0210842": {
    "zipcode": "0210842",
    "prefectureCode": "03",
    "prefectureNumber": 3,
    "prefecture": "岩手県",
    "city": "一関市",
    "town": "柳町"
  },
  "0210843": {
    "zipcode": "0210843",
    "prefectureCode": "03",
    "prefectureNumber": 3,
    "prefecture": "岩手県",
    "city": "一関市",
    "town": "深町"
  },
  "0210844": {
    "zipcode": "0210844",
    "prefectureCode": "03",
    "prefectureNumber": 3,
    "prefecture": "岩手県",
    "city": "一関市",
    "town": "反町"
  },
  "0210851": {
    "zipcode": "0210851",
    "prefectureCode": "03",
    "prefectureNumber": 3,
    "prefecture": "岩手県",
    "city": "一関市",
    "town": "関が丘"
  },
  "0210852": {
    "zipcode": "0210852",
    "prefectureCode": "03",
    "prefectureNumber": 3,
    "prefecture": "岩手県",
    "city": "一関市",
    "town": "沢"
  },
  "0210853": {
    "zipcode": "0210853",
    "prefectureCode": "03",
    "prefectureNumber": 3,
    "prefecture": "岩手県",
    "city": "一関市",
    "town": "相去"
  },
  "0210854": {
    "zipcode": "0210854",
    "prefectureCode": "03",
    "prefectureNumber": 3,
    "prefecture": "岩手県",
    "city": "一関市",
    "town": "西沢"
  },
  "0210861": {
    "zipcode": "0210861",
    "prefectureCode": "03",
    "prefectureNumber": 3,
    "prefecture": "岩手県",
    "city": "一関市",
    "town": "機織山"
  },
  "0210862": {
    "zipcode": "0210862",
    "prefectureCode": "03",
    "prefectureNumber": 3,
    "prefecture": "岩手県",
    "city": "一関市",
    "town": "千代田町"
  },
  "0210863": {
    "zipcode": "0210863",
    "prefectureCode": "03",
    "prefectureNumber": 3,
    "prefecture": "岩手県",
    "city": "一関市",
    "town": "南町"
  },
  "0210864": {
    "zipcode": "0210864",
    "prefectureCode": "03",
    "prefectureNumber": 3,
    "prefecture": "岩手県",
    "city": "一関市",
    "town": "旭町"
  },
  "0210865": {
    "zipcode": "0210865",
    "prefectureCode": "03",
    "prefectureNumber": 3,
    "prefecture": "岩手県",
    "city": "一関市",
    "town": "新山"
  },
  "0210866": {
    "zipcode": "0210866",
    "prefectureCode": "03",
    "prefectureNumber": 3,
    "prefecture": "岩手県",
    "city": "一関市",
    "town": "南新町"
  },
  "0210867": {
    "zipcode": "0210867",
    "prefectureCode": "03",
    "prefectureNumber": 3,
    "prefecture": "岩手県",
    "city": "一関市",
    "town": "駅前"
  },
  "0210871": {
    "zipcode": "0210871",
    "prefectureCode": "03",
    "prefectureNumber": 3,
    "prefecture": "岩手県",
    "city": "一関市",
    "town": "八幡町"
  },
  "0210872": {
    "zipcode": "0210872",
    "prefectureCode": "03",
    "prefectureNumber": 3,
    "prefecture": "岩手県",
    "city": "一関市",
    "town": "宮坂町"
  },
  "0210873": {
    "zipcode": "0210873",
    "prefectureCode": "03",
    "prefectureNumber": 3,
    "prefecture": "岩手県",
    "city": "一関市",
    "town": "台町"
  },
  "0210874": {
    "zipcode": "0210874",
    "prefectureCode": "03",
    "prefectureNumber": 3,
    "prefecture": "岩手県",
    "city": "一関市",
    "town": "釣山"
  },
  "0210875": {
    "zipcode": "0210875",
    "prefectureCode": "03",
    "prefectureNumber": 3,
    "prefecture": "岩手県",
    "city": "一関市",
    "town": "高崎町"
  },
  "0210876": {
    "zipcode": "0210876",
    "prefectureCode": "03",
    "prefectureNumber": 3,
    "prefecture": "岩手県",
    "city": "一関市",
    "town": "広街"
  },
  "0210877": {
    "zipcode": "0210877",
    "prefectureCode": "03",
    "prefectureNumber": 3,
    "prefecture": "岩手県",
    "city": "一関市",
    "town": "城内"
  },
  "0210881": {
    "zipcode": "0210881",
    "prefectureCode": "03",
    "prefectureNumber": 3,
    "prefecture": "岩手県",
    "city": "一関市",
    "town": "大町"
  },
  "0210882": {
    "zipcode": "0210882",
    "prefectureCode": "03",
    "prefectureNumber": 3,
    "prefecture": "岩手県",
    "city": "一関市",
    "town": "上大槻街"
  },
  "0210883": {
    "zipcode": "0210883",
    "prefectureCode": "03",
    "prefectureNumber": 3,
    "prefecture": "岩手県",
    "city": "一関市",
    "town": "新大町"
  },
  "0210884": {
    "zipcode": "0210884",
    "prefectureCode": "03",
    "prefectureNumber": 3,
    "prefecture": "岩手県",
    "city": "一関市",
    "town": "大手町"
  },
  "0210885": {
    "zipcode": "0210885",
    "prefectureCode": "03",
    "prefectureNumber": 3,
    "prefecture": "岩手県",
    "city": "一関市",
    "town": "田村町"
  },
  "0210891": {
    "zipcode": "0210891",
    "prefectureCode": "03",
    "prefectureNumber": 3,
    "prefecture": "岩手県",
    "city": "一関市",
    "town": "桜木町"
  },
  "0210892": {
    "zipcode": "0210892",
    "prefectureCode": "03",
    "prefectureNumber": 3,
    "prefecture": "岩手県",
    "city": "一関市",
    "town": "東地主町"
  },
  "0210893": {
    "zipcode": "0210893",
    "prefectureCode": "03",
    "prefectureNumber": 3,
    "prefecture": "岩手県",
    "city": "一関市",
    "town": "地主町"
  },
  "0210894": {
    "zipcode": "0210894",
    "prefectureCode": "03",
    "prefectureNumber": 3,
    "prefecture": "岩手県",
    "city": "一関市",
    "town": "磐井町"
  },
  "0210901": {
    "zipcode": "0210901",
    "prefectureCode": "03",
    "prefectureNumber": 3,
    "prefecture": "岩手県",
    "city": "一関市",
    "town": "真柴"
  },
  "0210902": {
    "zipcode": "0210902",
    "prefectureCode": "03",
    "prefectureNumber": 3,
    "prefecture": "岩手県",
    "city": "一関市",
    "town": "萩荘（その他）"
  }
}
