{
  "0230000": {
    "zipcode": "0230000",
    "prefectureCode": "03",
    "prefectureNumber": 3,
    "prefecture": "岩手県",
    "city": "奥州市",
    "town": "以下に掲載がない場合"
  },
  "0230001": {
    "zipcode": "0230001",
    "prefectureCode": "03",
    "prefectureNumber": 3,
    "prefecture": "岩手県",
    "city": "奥州市",
    "town": "水沢卸町"
  },
  "0230002": {
    "zipcode": "0230002",
    "prefectureCode": "03",
    "prefectureNumber": 3,
    "prefecture": "岩手県",
    "city": "奥州市",
    "town": "水沢工業団地"
  },
  "0230003": {
    "zipcode": "0230003",
    "prefectureCode": "03",
    "prefectureNumber": 3,
    "prefecture": "岩手県",
    "city": "奥州市",
    "town": "水沢佐倉河"
  },
  "0230011": {
    "zipcode": "0230011",
    "prefectureCode": "03",
    "prefectureNumber": 3,
    "prefecture": "岩手県",
    "city": "奥州市",
    "town": "水沢稲荷田"
  },
  "0230012": {
    "zipcode": "0230012",
    "prefectureCode": "03",
    "prefectureNumber": 3,
    "prefecture": "岩手県",
    "city": "奥州市",
    "town": "水沢斉勝田"
  },
  "0230013": {
    "zipcode": "0230013",
    "prefectureCode": "03",
    "prefectureNumber": 3,
    "prefecture": "岩手県",
    "city": "奥州市",
    "town": "水沢一本柳"
  },
  "0230014": {
    "zipcode": "0230014",
    "prefectureCode": "03",
    "prefectureNumber": 3,
    "prefecture": "岩手県",
    "city": "奥州市",
    "town": "水沢地蔵田"
  },
  "0230015": {
    "zipcode": "0230015",
    "prefectureCode": "03",
    "prefectureNumber": 3,
    "prefecture": "岩手県",
    "city": "奥州市",
    "town": "水沢五千刈"
  },
  "0230016": {
    "zipcode": "0230016",
    "prefectureCode": "03",
    "prefectureNumber": 3,
    "prefecture": "岩手県",
    "city": "奥州市",
    "town": "水沢平沢"
  },
  "0230017": {
    "zipcode": "0230017",
    "prefectureCode": "03",
    "prefectureNumber": 3,
    "prefecture": "岩手県",
    "city": "奥州市",
    "town": "水沢渋田"
  },
  "0230018": {
    "zipcode": "0230018",
    "prefectureCode": "03",
    "prefectureNumber": 3,
    "prefecture": "岩手県",
    "city": "奥州市",
    "town": "水沢小中"
  },
  "0230019": {
    "zipcode": "0230019",
    "prefectureCode": "03",
    "prefectureNumber": 3,
    "prefecture": "岩手県",
    "city": "奥州市",
    "town": "水沢築舘"
  },
  "0230021": {
    "zipcode": "0230021",
    "prefectureCode": "03",
    "prefectureNumber": 3,
    "prefecture": "岩手県",
    "city": "奥州市",
    "town": "水沢欠ノ下"
  },
  "0230022": {
    "zipcode": "0230022",
    "prefectureCode": "03",
    "prefectureNumber": 3,
    "prefecture": "岩手県",
    "city": "奥州市",
    "town": "水沢中城"
  },
  "0230023": {
    "zipcode": "0230023",
    "prefectureCode": "03",
    "prefectureNumber": 3,
    "prefecture": "岩手県",
    "city": "奥州市",
    "town": "水沢八反町"
  },
  "0230024": {
    "zipcode": "0230024",
    "prefectureCode": "03",
    "prefectureNumber": 3,
    "prefecture": "岩手県",
    "city": "奥州市",
    "town": "水沢名残"
  },
  "0230025": {
    "zipcode": "0230025",
    "prefectureCode": "03",
    "prefectureNumber": 3,
    "prefecture": "岩手県",
    "city": "奥州市",
    "town": "水沢高網"
  },
  "0230026": {
    "zipcode": "0230026",
    "prefectureCode": "03",
    "prefectureNumber": 3,
    "prefecture": "岩手県",
    "city": "奥州市",
    "town": "水沢里鎗"
  },
  "0230027": {
    "zipcode": "0230027",
    "prefectureCode": "03",
    "prefectureNumber": 3,
    "prefecture": "岩手県",
    "city": "奥州市",
    "town": "水沢幅下"
  },
  "0230031": {
    "zipcode": "0230031",
    "prefectureCode": "03",
    "prefectureNumber": 3,
    "prefecture": "岩手県",
    "city": "奥州市",
    "town": "水沢北丑沢"
  },
  "0230032": {
    "zipcode": "0230032",
    "prefectureCode": "03",
    "prefectureNumber": 3,
    "prefecture": "岩手県",
    "city": "奥州市",
    "town": "水沢多賀"
  },
  "0230033": {
    "zipcode": "0230033",
    "prefectureCode": "03",
    "prefectureNumber": 3,
    "prefecture": "岩手県",
    "city": "奥州市",
    "town": "水沢不断町"
  },
  "0230034": {
    "zipcode": "0230034",
    "prefectureCode": "03",
    "prefectureNumber": 3,
    "prefecture": "岩手県",
    "city": "奥州市",
    "town": "水沢川口町"
  },
  "0230035": {
    "zipcode": "0230035",
    "prefectureCode": "03",
    "prefectureNumber": 3,
    "prefecture": "岩手県",
    "city": "奥州市",
    "town": "水沢赤土田"
  },
  "0230036": {
    "zipcode": "0230036",
    "prefectureCode": "03",
    "prefectureNumber": 3,
    "prefecture": "岩手県",
    "city": "奥州市",
    "town": "水沢北栗林"
  },
  "0230037": {
    "zipcode": "0230037",
    "prefectureCode": "03",
    "prefectureNumber": 3,
    "prefecture": "岩手県",
    "city": "奥州市",
    "town": "水沢南丑沢"
  },
  "0230041": {
    "zipcode": "0230041",
    "prefectureCode": "03",
    "prefectureNumber": 3,
    "prefecture": "岩手県",
    "city": "奥州市",
    "town": "水沢秋葉町"
  },
  "0230042": {
    "zipcode": "0230042",
    "prefectureCode": "03",
    "prefectureNumber": 3,
    "prefecture": "岩手県",
    "city": "奥州市",
    "town": "水沢柳町"
  },
  "0230043": {
    "zipcode": "0230043",
    "prefectureCode": "03",
    "prefectureNumber": 3,
    "prefecture": "岩手県",
    "city": "奥州市",
    "town": "水沢道合"
  },
  "0230044": {
    "zipcode": "0230044",
    "prefectureCode": "03",
    "prefectureNumber": 3,
    "prefecture": "岩手県",
    "city": "奥州市",
    "town": "水沢三本木"
  },
  "0230045": {
    "zipcode": "0230045",
    "prefectureCode": "03",
    "prefectureNumber": 3,
    "prefecture": "岩手県",
    "city": "奥州市",
    "town": "水沢大町"
  },
  "0230046": {
    "zipcode": "0230046",
    "prefectureCode": "03",
    "prefectureNumber": 3,
    "prefecture": "岩手県",
    "city": "奥州市",
    "town": "水沢川原小路"
  },
  "0230047": {
    "zipcode": "0230047",
    "prefectureCode": "03",
    "prefectureNumber": 3,
    "prefecture": "岩手県",
    "city": "奥州市",
    "town": "水沢立町"
  },
  "0230051": {
    "zipcode": "0230051",
    "prefectureCode": "03",
    "prefectureNumber": 3,
    "prefecture": "岩手県",
    "city": "奥州市",
    "town": "水沢勝手町"
  },
  "0230052": {
    "zipcode": "0230052",
    "prefectureCode": "03",
    "prefectureNumber": 3,
    "prefecture": "岩手県",
    "city": "奥州市",
    "town": "水沢搦手丁"
  },
  "0230053": {
    "zipcode": "0230053",
    "prefectureCode": "03",
    "prefectureNumber": 3,
    "prefecture": "岩手県",
    "city": "奥州市",
    "town": "水沢大手町"
  },
  "0230054": {
    "zipcode": "0230054",
    "prefectureCode": "03",
    "prefectureNumber": 3,
    "prefecture": "岩手県",
    "city": "奥州市",
    "town": "水沢吉小路"
  },
  "0230055": {
    "zipcode": "0230055",
    "prefectureCode": "03",
    "prefectureNumber": 3,
    "prefecture": "岩手県",
    "city": "奥州市",
    "town": "水沢虚空蔵小路"
  },
  "0230056": {
    "zipcode": "0230056",
    "prefectureCode": "03",
    "prefectureNumber": 3,
    "prefecture": "岩手県",
    "city": "奥州市",
    "town": "水沢久田"
  },
  "0230057": {
    "zipcode": "0230057",
    "prefectureCode": "03",
    "prefectureNumber": 3,
    "prefecture": "岩手県",
    "city": "奥州市",
    "town": "水沢上町"
  },
  "0230058": {
    "zipcode": "0230058",
    "prefectureCode": "03",
    "prefectureNumber": 3,
    "prefecture": "岩手県",
    "city": "奥州市",
    "town": "水沢堀ノ内"
  },
  "0230061": {
    "zipcode": "0230061",
    "prefectureCode": "03",
    "prefectureNumber": 3,
    "prefecture": "岩手県",
    "city": "奥州市",
    "town": "水沢長町"
  },
  "0230062": {
    "zipcode": "0230062",
    "prefectureCode": "03",
    "prefectureNumber": 3,
    "prefecture": "岩手県",
    "city": "奥州市",
    "town": "水沢小石田"
  },
  "0230063": {
    "zipcode": "0230063",
    "prefectureCode": "03",
    "prefectureNumber": 3,
    "prefecture": "岩手県",
    "city": "奥州市",
    "town": "水沢聖天"
  },
  "0230064": {
    "zipcode": "0230064",
    "prefectureCode": "03",
    "prefectureNumber": 3,
    "prefecture": "岩手県",
    "city": "奥州市",
    "town": "水沢土器田"
  },
  "0230065": {
    "zipcode": "0230065",
    "prefectureCode": "03",
    "prefectureNumber": 3,
    "prefecture": "岩手県",
    "city": "奥州市",
    "town": "水沢水山"
  },
  "0230066": {
    "zipcode": "0230066",
    "prefectureCode": "03",
    "prefectureNumber": 3,
    "prefecture": "岩手県",
    "city": "奥州市",
    "town": "水沢前田袋"
  },
  "0230067": {
    "zipcode": "0230067",
    "prefectureCode": "03",
    "prefectureNumber": 3,
    "prefecture": "岩手県",
    "city": "奥州市",
    "town": "水沢二反田"
  },
  "0230071": {
    "zipcode": "0230071",
    "prefectureCode": "03",
    "prefectureNumber": 3,
    "prefecture": "岩手県",
    "city": "奥州市",
    "town": "水沢黒子"
  },
  "0230072": {
    "zipcode": "0230072",
    "prefectureCode": "03",
    "prefectureNumber": 3,
    "prefecture": "岩手県",
    "city": "奥州市",
    "town": "水沢樋渡"
  },
  "0230073": {
    "zipcode": "0230073",
    "prefectureCode": "03",
    "prefectureNumber": 3,
    "prefecture": "岩手県",
    "city": "奥州市",
    "town": "水沢寺領"
  },
  "0230074": {
    "zipcode": "0230074",
    "prefectureCode": "03",
    "prefectureNumber": 3,
    "prefecture": "岩手県",
    "city": "奥州市",
    "town": "水沢極楽"
  },
  "0230075": {
    "zipcode": "0230075",
    "prefectureCode": "03",
    "prefectureNumber": 3,
    "prefecture": "岩手県",
    "city": "奥州市",
    "town": "水沢水ノ口"
  },
  "0230076": {
    "zipcode": "0230076",
    "prefectureCode": "03",
    "prefectureNumber": 3,
    "prefecture": "岩手県",
    "city": "奥州市",
    "town": "水沢造道"
  },
  "0230077": {
    "zipcode": "0230077",
    "prefectureCode": "03",
    "prefectureNumber": 3,
    "prefecture": "岩手県",
    "city": "奥州市",
    "town": "水沢桑畑"
  },
  "0230081": {
    "zipcode": "0230081",
    "prefectureCode": "03",
    "prefectureNumber": 3,
    "prefecture": "岩手県",
    "city": "奥州市",
    "town": "水沢橇町"
  },
  "0230082": {
    "zipcode": "0230082",
    "prefectureCode": "03",
    "prefectureNumber": 3,
    "prefecture": "岩手県",
    "city": "奥州市",
    "town": "水沢東半郷"
  },
  "0230083": {
    "zipcode": "0230083",
    "prefectureCode": "03",
    "prefectureNumber": 3,
    "prefecture": "岩手県",
    "city": "奥州市",
    "town": "水沢前郷"
  },
  "0230084": {
    "zipcode": "0230084",
    "prefectureCode": "03",
    "prefectureNumber": 3,
    "prefecture": "岩手県",
    "city": "奥州市",
    "town": "水沢大上"
  },
  "0230085": {
    "zipcode": "0230085",
    "prefectureCode": "03",
    "prefectureNumber": 3,
    "prefecture": "岩手県",
    "city": "奥州市",
    "town": "水沢踊子"
  },
  "0230086": {
    "zipcode": "0230086",
    "prefectureCode": "03",
    "prefectureNumber": 3,
    "prefecture": "岩手県",
    "city": "奥州市",
    "town": "水沢谷地中"
  },
  "0230087": {
    "zipcode": "0230087",
    "prefectureCode": "03",
    "prefectureNumber": 3,
    "prefecture": "岩手県",
    "city": "奥州市",
    "town": "水沢高谷宿"
  },
  "0230091": {
    "zipcode": "0230091",
    "prefectureCode": "03",
    "prefectureNumber": 3,
    "prefecture": "岩手県",
    "city": "奥州市",
    "town": "水沢高山"
  },
  "0230092": {
    "zipcode": "0230092",
    "prefectureCode": "03",
    "prefectureNumber": 3,
    "prefecture": "岩手県",
    "city": "奥州市",
    "town": "水沢北半郷"
  },
  "0230093": {
    "zipcode": "0230093",
    "prefectureCode": "03",
    "prefectureNumber": 3,
    "prefecture": "岩手県",
    "city": "奥州市",
    "town": "水沢水神"
  },
  "0230094": {
    "zipcode": "0230094",
    "prefectureCode": "03",
    "prefectureNumber": 3,
    "prefecture": "岩手県",
    "city": "奥州市",
    "town": "水沢五輪"
  },
  "0230095": {
    "zipcode": "0230095",
    "prefectureCode": "03",
    "prefectureNumber": 3,
    "prefecture": "岩手県",
    "city": "奥州市",
    "town": "水沢雀田"
  },
  "0230096": {
    "zipcode": "0230096",
    "prefectureCode": "03",
    "prefectureNumber": 3,
    "prefecture": "岩手県",
    "city": "奥州市",
    "town": "水沢向田"
  },
  "0230101": {
    "zipcode": "0230101",
    "prefectureCode": "03",
    "prefectureNumber": 3,
    "prefecture": "岩手県",
    "city": "奥州市",
    "town": "水沢黒石町"
  },
  "0230102": {
    "zipcode": "0230102",
    "prefectureCode": "03",
    "prefectureNumber": 3,
    "prefecture": "岩手県",
    "city": "奥州市",
    "town": "水沢羽田町駅東"
  },
  "0230103": {
    "zipcode": "0230103",
    "prefectureCode": "03",
    "prefectureNumber": 3,
    "prefecture": "岩手県",
    "city": "奥州市",
    "town": "水沢羽田町駅南"
  },
  "0230104": {
    "zipcode": "0230104",
    "prefectureCode": "03",
    "prefectureNumber": 3,
    "prefecture": "岩手県",
    "city": "奥州市",
    "town": "水沢羽田町駅前"
  },
  "0230105": {
    "zipcode": "0230105",
    "prefectureCode": "03",
    "prefectureNumber": 3,
    "prefecture": "岩手県",
    "city": "奥州市",
    "town": "水沢羽田町宝生"
  },
  "0230106": {
    "zipcode": "0230106",
    "prefectureCode": "03",
    "prefectureNumber": 3,
    "prefecture": "岩手県",
    "city": "奥州市",
    "town": "水沢羽田町久保"
  },
  "0230107": {
    "zipcode": "0230107",
    "prefectureCode": "03",
    "prefectureNumber": 3,
    "prefecture": "岩手県",
    "city": "奥州市",
    "town": "水沢羽田町宝柳木"
  },
  "0230108": {
    "zipcode": "0230108",
    "prefectureCode": "03",
    "prefectureNumber": 3,
    "prefecture": "岩手県",
    "city": "奥州市",
    "town": "水沢羽田町向畑"
  },
  "0230132": {
    "zipcode": "0230132",
    "prefectureCode": "03",
    "prefectureNumber": 3,
    "prefecture": "岩手県",
    "city": "奥州市",
    "town": "水沢羽田町（その他）"
  },
  "0230171": {
    "zipcode": "0230171",
    "prefectureCode": "03",
    "prefectureNumber": 3,
    "prefecture": "岩手県",
    "city": "奥州市",
    "town": "江刺田原"
  },
  "0230401": {
    "zipcode": "0230401",
    "prefectureCode": "03",
    "prefectureNumber": 3,
    "prefecture": "岩手県",
    "city": "奥州市",
    "town": "胆沢南都田"
  },
  "0230402": {
    "zipcode": "0230402",
    "prefectureCode": "03",
    "prefectureNumber": 3,
    "prefecture": "岩手県",
    "city": "奥州市",
    "town": "胆沢小山"
  },
  "0230403": {
    "zipcode": "0230403",
    "prefectureCode": "03",
    "prefectureNumber": 3,
    "prefecture": "岩手県",
    "city": "奥州市",
    "town": "胆沢若柳"
  },
  "0230801": {
    "zipcode": "0230801",
    "prefectureCode": "03",
    "prefectureNumber": 3,
    "prefecture": "岩手県",
    "city": "奥州市",
    "town": "水沢横町"
  },
  "0230802": {
    "zipcode": "0230802",
    "prefectureCode": "03",
    "prefectureNumber": 3,
    "prefecture": "岩手県",
    "city": "奥州市",
    "town": "水沢大畑小路"
  },
  "0230803": {
    "zipcode": "0230803",
    "prefectureCode": "03",
    "prefectureNumber": 3,
    "prefecture": "岩手県",
    "city": "奥州市",
    "town": "水沢田小路"
  },
  "0230804": {
    "zipcode": "0230804",
    "prefectureCode": "03",
    "prefectureNumber": 3,
    "prefecture": "岩手県",
    "city": "奥州市",
    "town": "水沢谷地明円"
  },
  "0230805": {
    "zipcode": "0230805",
    "prefectureCode": "03",
    "prefectureNumber": 3,
    "prefecture": "岩手県",
    "city": "奥州市",
    "town": "水沢斉の神"
  },
  "0230806": {
    "zipcode": "0230806",
    "prefectureCode": "03",
    "prefectureNumber": 3,
    "prefecture": "岩手県",
    "city": "奥州市",
    "town": "水沢日高西"
  },
  "0230807": {
    "zipcode": "0230807",
    "prefectureCode": "03",
    "prefectureNumber": 3,
    "prefecture": "岩手県",
    "city": "奥州市",
    "town": "水沢新小路"
  },
  "0230808": {
    "zipcode": "0230808",
    "prefectureCode": "03",
    "prefectureNumber": 3,
    "prefecture": "岩手県",
    "city": "奥州市",
    "town": "水沢日高小路"
  },
  "0230811": {
    "zipcode": "0230811",
    "prefectureCode": "03",
    "prefectureNumber": 3,
    "prefecture": "岩手県",
    "city": "奥州市",
    "town": "水沢寺小路"
  },
  "0230812": {
    "zipcode": "0230812",
    "prefectureCode": "03",
    "prefectureNumber": 3,
    "prefecture": "岩手県",
    "city": "奥州市",
    "town": "水沢寺脇"
  },
  "0230813": {
    "zipcode": "0230813",
    "prefectureCode": "03",
    "prefectureNumber": 3,
    "prefecture": "岩手県",
    "city": "奥州市",
    "town": "水沢中町"
  },
  "0230814": {
    "zipcode": "0230814",
    "prefectureCode": "03",
    "prefectureNumber": 3,
    "prefecture": "岩手県",
    "city": "奥州市",
    "town": "水沢袋町"
  },
  "0230815": {
    "zipcode": "0230815",
    "prefectureCode": "03",
    "prefectureNumber": 3,
    "prefecture": "岩手県",
    "city": "奥州市",
    "town": "水沢天文台通り"
  },
  "0230816": {
    "zipcode": "0230816",
    "prefectureCode": "03",
    "prefectureNumber": 3,
    "prefecture": "岩手県",
    "city": "奥州市",
    "town": "水沢西町"
  },
  "0230817": {
    "zipcode": "0230817",
    "prefectureCode": "03",
    "prefectureNumber": 3,
    "prefecture": "岩手県",
    "city": "奥州市",
    "town": "水沢宮下町"
  },
  "0230818": {
    "zipcode": "0230818",
    "prefectureCode": "03",
    "prefectureNumber": 3,
    "prefecture": "岩手県",
    "city": "奥州市",
    "town": "水沢東町"
  },
  "0230821": {
    "zipcode": "0230821",
    "prefectureCode": "03",
    "prefectureNumber": 3,
    "prefecture": "岩手県",
    "city": "奥州市",
    "town": "水沢神明町"
  },
  "0230822": {
    "zipcode": "0230822",
    "prefectureCode": "03",
    "prefectureNumber": 3,
    "prefecture": "岩手県",
    "city": "奥州市",
    "town": "水沢東中通り"
  },
  "0230823": {
    "zipcode": "0230823",
    "prefectureCode": "03",
    "prefectureNumber": 3,
    "prefecture": "岩手県",
    "city": "奥州市",
    "town": "水沢朝日町"
  },
  "0230824": {
    "zipcode": "0230824",
    "prefectureCode": "03",
    "prefectureNumber": 3,
    "prefecture": "岩手県",
    "city": "奥州市",
    "town": "水沢泉町"
  },
  "0230825": {
    "zipcode": "0230825",
    "prefectureCode": "03",
    "prefectureNumber": 3,
    "prefecture": "岩手県",
    "city": "奥州市",
    "town": "水沢台町"
  },
  "0230826": {
    "zipcode": "0230826",
    "prefectureCode": "03",
    "prefectureNumber": 3,
    "prefecture": "岩手県",
    "city": "奥州市",
    "town": "水沢中田町"
  },
  "0230827": {
    "zipcode": "0230827",
    "prefectureCode": "03",
    "prefectureNumber": 3,
    "prefecture": "岩手県",
    "city": "奥州市",
    "town": "水沢太日通り"
  },
  "0230828": {
    "zipcode": "0230828",
    "prefectureCode": "03",
    "prefectureNumber": 3,
    "prefecture": "岩手県",
    "city": "奥州市",
    "town": "水沢東大通り"
  },
  "0230829": {
    "zipcode": "0230829",
    "prefectureCode": "03",
    "prefectureNumber": 3,
    "prefecture": "岩手県",
    "city": "奥州市",
    "town": "水沢花園町"
  },
  "0230831": {
    "zipcode": "0230831",
    "prefectureCode": "03",
    "prefectureNumber": 3,
    "prefecture": "岩手県",
    "city": "奥州市",
    "town": "水沢姉体町"
  },
  "0230832": {
    "zipcode": "0230832",
    "prefectureCode": "03",
    "prefectureNumber": 3,
    "prefecture": "岩手県",
    "city": "奥州市",
    "town": "水沢羽田町（草井沼、下沼、谷木、元谷木）"
  },
  "0230833": {
    "zipcode": "0230833",
    "prefectureCode": "03",
    "prefectureNumber": 3,
    "prefecture": "岩手県",
    "city": "奥州市",
    "town": "水沢上姉体"
  },
  "0230841": {
    "zipcode": "0230841",
    "prefectureCode": "03",
    "prefectureNumber": 3,
    "prefecture": "岩手県",
    "city": "奥州市",
    "town": "水沢真城"
  },
  "0230842": {
    "zipcode": "0230842",
    "prefectureCode": "03",
    "prefectureNumber": 3,
    "prefecture": "岩手県",
    "city": "奥州市",
    "town": "水沢真城が丘"
  },
  "0230851": {
    "zipcode": "0230851",
    "prefectureCode": "03",
    "prefectureNumber": 3,
    "prefecture": "岩手県",
    "city": "奥州市",
    "town": "水沢南町"
  },
  "0230852": {
    "zipcode": "0230852",
    "prefectureCode": "03",
    "prefectureNumber": 3,
    "prefecture": "岩手県",
    "city": "奥州市",
    "town": "水沢山崎町"
  },
  "0230853": {
    "zipcode": "0230853",
    "prefectureCode": "03",
    "prefectureNumber": 3,
    "prefecture": "岩手県",
    "city": "奥州市",
    "town": "水沢東上野町"
  },
  "0230854": {
    "zipcode": "0230854",
    "prefectureCode": "03",
    "prefectureNumber": 3,
    "prefecture": "岩手県",
    "city": "奥州市",
    "town": "水沢大鐘町"
  },
  "0230855": {
    "zipcode": "0230855",
    "prefectureCode": "03",
    "prefectureNumber": 3,
    "prefecture": "岩手県",
    "city": "奥州市",
    "town": "水沢南大鐘"
  },
  "0230856": {
    "zipcode": "0230856",
    "prefectureCode": "03",
    "prefectureNumber": 3,
    "prefecture": "岩手県",
    "city": "奥州市",
    "town": "水沢西上野町"
  },
  "0230857": {
    "zipcode": "0230857",
    "prefectureCode": "03",
    "prefectureNumber": 3,
    "prefecture": "岩手県",
    "city": "奥州市",
    "town": "水沢中上野町"
  },
  "0230861": {
    "zipcode": "0230861",
    "prefectureCode": "03",
    "prefectureNumber": 3,
    "prefecture": "岩手県",
    "city": "奥州市",
    "town": "水沢星ガ丘町"
  },
  "0230862": {
    "zipcode": "0230862",
    "prefectureCode": "03",
    "prefectureNumber": 3,
    "prefecture": "岩手県",
    "city": "奥州市",
    "town": "水沢福吉町"
  },
  "0230863": {
    "zipcode": "0230863",
    "prefectureCode": "03",
    "prefectureNumber": 3,
    "prefecture": "岩手県",
    "city": "奥州市",
    "town": "水沢川端"
  },
  "0230864": {
    "zipcode": "0230864",
    "prefectureCode": "03",
    "prefectureNumber": 3,
    "prefecture": "岩手県",
    "city": "奥州市",
    "town": "水沢龍ヶ馬場"
  },
  "0230865": {
    "zipcode": "0230865",
    "prefectureCode": "03",
    "prefectureNumber": 3,
    "prefecture": "岩手県",
    "city": "奥州市",
    "town": "水沢桜屋敷"
  },
  "0230866": {
    "zipcode": "0230866",
    "prefectureCode": "03",
    "prefectureNumber": 3,
    "prefecture": "岩手県",
    "city": "奥州市",
    "town": "水沢堰合"
  },
  "0230867": {
    "zipcode": "0230867",
    "prefectureCode": "03",
    "prefectureNumber": 3,
    "prefecture": "岩手県",
    "city": "奥州市",
    "town": "水沢大橋"
  },
  "0230871": {
    "zipcode": "0230871",
    "prefectureCode": "03",
    "prefectureNumber": 3,
    "prefecture": "岩手県",
    "city": "奥州市",
    "town": "水沢外谷地"
  },
  "0230872": {
    "zipcode": "0230872",
    "prefectureCode": "03",
    "prefectureNumber": 3,
    "prefecture": "岩手県",
    "city": "奥州市",
    "town": "水沢桜屋敷西"
  },
  "0230873": {
    "zipcode": "0230873",
    "prefectureCode": "03",
    "prefectureNumber": 3,
    "prefecture": "岩手県",
    "city": "奥州市",
    "town": "水沢笹森谷地"
  },
  "0230874": {
    "zipcode": "0230874",
    "prefectureCode": "03",
    "prefectureNumber": 3,
    "prefecture": "岩手県",
    "city": "奥州市",
    "town": "水沢見分森"
  },
  "0230875": {
    "zipcode": "0230875",
    "prefectureCode": "03",
    "prefectureNumber": 3,
    "prefecture": "岩手県",
    "city": "奥州市",
    "town": "水沢森下"
  },
  "0230876": {
    "zipcode": "0230876",
    "prefectureCode": "03",
    "prefectureNumber": 3,
    "prefecture": "岩手県",
    "city": "奥州市",
    "town": "水沢鶴淵"
  },
  "0230877": {
    "zipcode": "0230877",
    "prefectureCode": "03",
    "prefectureNumber": 3,
    "prefecture": "岩手県",
    "city": "奥州市",
    "town": "水沢袖谷地"
  },
  "0230881": {
    "zipcode": "0230881",
    "prefectureCode": "03",
    "prefectureNumber": 3,
    "prefecture": "岩手県",
    "city": "奥州市",
    "town": "水沢北田"
  },
  "0230882": {
    "zipcode": "0230882",
    "prefectureCode": "03",
    "prefectureNumber": 3,
    "prefecture": "岩手県",
    "city": "奥州市",
    "town": "水沢福原"
  },
  "0230883": {
    "zipcode": "0230883",
    "prefectureCode": "03",
    "prefectureNumber": 3,
    "prefecture": "岩手県",
    "city": "奥州市",
    "town": "水沢町裏"
  },
  "0230884": {
    "zipcode": "0230884",
    "prefectureCode": "03",
    "prefectureNumber": 3,
    "prefecture": "岩手県",
    "city": "奥州市",
    "town": "水沢前谷地"
  },
  "0230885": {
    "zipcode": "0230885",
    "prefectureCode": "03",
    "prefectureNumber": 3,
    "prefecture": "岩手県",
    "city": "奥州市",
    "town": "水沢西田"
  },
  "0230886": {
    "zipcode": "0230886",
    "prefectureCode": "03",
    "prefectureNumber": 3,
    "prefecture": "岩手県",
    "city": "奥州市",
    "town": "水沢南矢中"
  },
  "0230887": {
    "zipcode": "0230887",
    "prefectureCode": "03",
    "prefectureNumber": 3,
    "prefecture": "岩手県",
    "city": "奥州市",
    "town": "水沢矢中"
  },
  "0230888": {
    "zipcode": "0230888",
    "prefectureCode": "03",
    "prefectureNumber": 3,
    "prefecture": "岩手県",
    "city": "奥州市",
    "town": "水沢八反田"
  },
  "0230889": {
    "zipcode": "0230889",
    "prefectureCode": "03",
    "prefectureNumber": 3,
    "prefecture": "岩手県",
    "city": "奥州市",
    "town": "水沢高屋敷"
  },
  "0230891": {
    "zipcode": "0230891",
    "prefectureCode": "03",
    "prefectureNumber": 3,
    "prefecture": "岩手県",
    "city": "奥州市",
    "town": "水沢内匠田"
  },
  "0230892": {
    "zipcode": "0230892",
    "prefectureCode": "03",
    "prefectureNumber": 3,
    "prefecture": "岩手県",
    "city": "奥州市",
    "town": "水沢釜田"
  },
  "0230893": {
    "zipcode": "0230893",
    "prefectureCode": "03",
    "prefectureNumber": 3,
    "prefecture": "岩手県",
    "city": "奥州市",
    "town": "水沢蓬田"
  },
  "0230894": {
    "zipcode": "0230894",
    "prefectureCode": "03",
    "prefectureNumber": 3,
    "prefecture": "岩手県",
    "city": "奥州市",
    "town": "水沢大明神"
  },
  "0230895": {
    "zipcode": "0230895",
    "prefectureCode": "03",
    "prefectureNumber": 3,
    "prefecture": "岩手県",
    "city": "奥州市",
    "town": "水沢足袋針"
  },
  "0230896": {
    "zipcode": "0230896",
    "prefectureCode": "03",
    "prefectureNumber": 3,
    "prefecture": "岩手県",
    "city": "奥州市",
    "town": "水沢西光田"
  },
  "0230897": {
    "zipcode": "0230897",
    "prefectureCode": "03",
    "prefectureNumber": 3,
    "prefecture": "岩手県",
    "city": "奥州市",
    "town": "水沢桜川"
  },
  "0230898": {
    "zipcode": "0230898",
    "prefectureCode": "03",
    "prefectureNumber": 3,
    "prefecture": "岩手県",
    "city": "奥州市",
    "town": "水沢後田"
  },
  "0231101": {
    "zipcode": "0231101",
    "prefectureCode": "03",
    "prefectureNumber": 3,
    "prefecture": "岩手県",
    "city": "奥州市",
    "town": "江刺岩谷堂"
  },
  "0231102": {
    "zipcode": "0231102",
    "prefectureCode": "03",
    "prefectureNumber": 3,
    "prefecture": "岩手県",
    "city": "奥州市",
    "town": "江刺八日町"
  },
  "0231103": {
    "zipcode": "0231103",
    "prefectureCode": "03",
    "prefectureNumber": 3,
    "prefecture": "岩手県",
    "city": "奥州市",
    "town": "江刺西大通り"
  },
  "0231104": {
    "zipcode": "0231104",
    "prefectureCode": "03",
    "prefectureNumber": 3,
    "prefecture": "岩手県",
    "city": "奥州市",
    "town": "江刺豊田町"
  },
  "0231105": {
    "zipcode": "0231105",
    "prefectureCode": "03",
    "prefectureNumber": 3,
    "prefecture": "岩手県",
    "city": "奥州市",
    "town": "江刺杉ノ町"
  },
  "0231111": {
    "zipcode": "0231111",
    "prefectureCode": "03",
    "prefectureNumber": 3,
    "prefecture": "岩手県",
    "city": "奥州市",
    "town": "江刺大通り"
  },
  "0231112": {
    "zipcode": "0231112",
    "prefectureCode": "03",
    "prefectureNumber": 3,
    "prefecture": "岩手県",
    "city": "奥州市",
    "town": "江刺南大通り"
  },
  "0231113": {
    "zipcode": "0231113",
    "prefectureCode": "03",
    "prefectureNumber": 3,
    "prefecture": "岩手県",
    "city": "奥州市",
    "town": "江刺中町"
  },
  "0231114": {
    "zipcode": "0231114",
    "prefectureCode": "03",
    "prefectureNumber": 3,
    "prefecture": "岩手県",
    "city": "奥州市",
    "town": "江刺川原町"
  },
  "0231115": {
    "zipcode": "0231115",
    "prefectureCode": "03",
    "prefectureNumber": 3,
    "prefecture": "岩手県",
    "city": "奥州市",
    "town": "江刺本町"
  },
  "0231116": {
    "zipcode": "0231116",
    "prefectureCode": "03",
    "prefectureNumber": 3,
    "prefecture": "岩手県",
    "city": "奥州市",
    "town": "江刺重染寺"
  },
  "0231117": {
    "zipcode": "0231117",
    "prefectureCode": "03",
    "prefectureNumber": 3,
    "prefecture": "岩手県",
    "city": "奥州市",
    "town": "江刺南町"
  },
  "0231118": {
    "zipcode": "0231118",
    "prefectureCode": "03",
    "prefectureNumber": 3,
    "prefecture": "岩手県",
    "city": "奥州市",
    "town": "江刺栄町"
  },
  "0231121": {
    "zipcode": "0231121",
    "prefectureCode": "03",
    "prefectureNumber": 3,
    "prefecture": "岩手県",
    "city": "奥州市",
    "town": "江刺男石"
  },
  "0231122": {
    "zipcode": "0231122",
    "prefectureCode": "03",
    "prefectureNumber": 3,
    "prefecture": "岩手県",
    "city": "奥州市",
    "town": "江刺館山"
  },
  "0231123": {
    "zipcode": "0231123",
    "prefectureCode": "03",
    "prefectureNumber": 3,
    "prefecture": "岩手県",
    "city": "奥州市",
    "town": "江刺前田町"
  },
  "0231124": {
    "zipcode": "0231124",
    "prefectureCode": "03",
    "prefectureNumber": 3,
    "prefecture": "岩手県",
    "city": "奥州市",
    "town": "江刺六日町"
  },
  "0231125": {
    "zipcode": "0231125",
    "prefectureCode": "03",
    "prefectureNumber": 3,
    "prefecture": "岩手県",
    "city": "奥州市",
    "town": "江刺銭町"
  },
  "0231131": {
    "zipcode": "0231131",
    "prefectureCode": "03",
    "prefectureNumber": 3,
    "prefecture": "岩手県",
    "city": "奥州市",
    "town": "江刺愛宕"
  },
  "0231132": {
    "zipcode": "0231132",
    "prefectureCode": "03",
    "prefectureNumber": 3,
    "prefecture": "岩手県",
    "city": "奥州市",
    "town": "江刺稲瀬"
  },
  "0231133": {
    "zipcode": "0231133",
    "prefectureCode": "03",
    "prefectureNumber": 3,
    "prefecture": "岩手県",
    "city": "奥州市",
    "town": "江刺広瀬"
  },
  "0231134": {
    "zipcode": "0231134",
    "prefectureCode": "03",
    "prefectureNumber": 3,
    "prefecture": "岩手県",
    "city": "奥州市",
    "town": "江刺玉里"
  },
  "0231341": {
    "zipcode": "0231341",
    "prefectureCode": "03",
    "prefectureNumber": 3,
    "prefecture": "岩手県",
    "city": "奥州市",
    "town": "江刺梁川"
  },
  "0231551": {
    "zipcode": "0231551",
    "prefectureCode": "03",
    "prefectureNumber": 3,
    "prefecture": "岩手県",
    "city": "奥州市",
    "town": "江刺米里"
  },
  "0231761": {
    "zipcode": "0231761",
    "prefectureCode": "03",
    "prefectureNumber": 3,
    "prefecture": "岩手県",
    "city": "奥州市",
    "town": "江刺伊手"
  },
  "0231762": {
    "zipcode": "0231762",
    "prefectureCode": "03",
    "prefectureNumber": 3,
    "prefecture": "岩手県",
    "city": "奥州市",
    "town": "江刺藤里"
  }
}
