{
  "0240000": {
    "zipcode": "0240000",
    "prefectureCode": "03",
    "prefectureNumber": 3,
    "prefecture": "岩手県",
    "city": "北上市",
    "town": "以下に掲載がない場合"
  },
  "0240001": {
    "zipcode": "0240001",
    "prefectureCode": "03",
    "prefectureNumber": 3,
    "prefecture": "岩手県",
    "city": "北上市",
    "town": "飯豊"
  },
  "0240002": {
    "zipcode": "0240002",
    "prefectureCode": "03",
    "prefectureNumber": 3,
    "prefecture": "岩手県",
    "city": "北上市",
    "town": "北工業団地（その他）"
  },
  "0240003": {
    "zipcode": "0240003",
    "prefectureCode": "03",
    "prefectureNumber": 3,
    "prefecture": "岩手県",
    "city": "北上市",
    "town": "成田"
  },
  "0240004": {
    "zipcode": "0240004",
    "prefectureCode": "03",
    "prefectureNumber": 3,
    "prefecture": "岩手県",
    "city": "北上市",
    "town": "村崎野"
  },
  "0240011": {
    "zipcode": "0240011",
    "prefectureCode": "03",
    "prefectureNumber": 3,
    "prefecture": "岩手県",
    "city": "北上市",
    "town": "堤ケ丘"
  },
  "0240012": {
    "zipcode": "0240012",
    "prefectureCode": "03",
    "prefectureNumber": 3,
    "prefecture": "岩手県",
    "city": "北上市",
    "town": "常盤台"
  },
  "0240013": {
    "zipcode": "0240013",
    "prefectureCode": "03",
    "prefectureNumber": 3,
    "prefecture": "岩手県",
    "city": "北上市",
    "town": "藤沢"
  },
  "0240014": {
    "zipcode": "0240014",
    "prefectureCode": "03",
    "prefectureNumber": 3,
    "prefecture": "岩手県",
    "city": "北上市",
    "town": "流通センター"
  },
  "0240021": {
    "zipcode": "0240021",
    "prefectureCode": "03",
    "prefectureNumber": 3,
    "prefecture": "岩手県",
    "city": "北上市",
    "town": "上野町"
  },
  "0240022": {
    "zipcode": "0240022",
    "prefectureCode": "03",
    "prefectureNumber": 3,
    "prefecture": "岩手県",
    "city": "北上市",
    "town": "黒沢尻"
  },
  "0240023": {
    "zipcode": "0240023",
    "prefectureCode": "03",
    "prefectureNumber": 3,
    "prefecture": "岩手県",
    "city": "北上市",
    "town": "里分"
  },
  "0240024": {
    "zipcode": "0240024",
    "prefectureCode": "03",
    "prefectureNumber": 3,
    "prefecture": "岩手県",
    "city": "北上市",
    "town": "中野町"
  },
  "0240025": {
    "zipcode": "0240025",
    "prefectureCode": "03",
    "prefectureNumber": 3,
    "prefecture": "岩手県",
    "city": "北上市",
    "town": "孫屋敷"
  },
  "0240031": {
    "zipcode": "0240031",
    "prefectureCode": "03",
    "prefectureNumber": 3,
    "prefecture": "岩手県",
    "city": "北上市",
    "town": "青柳町"
  },
  "0240032": {
    "zipcode": "0240032",
    "prefectureCode": "03",
    "prefectureNumber": 3,
    "prefecture": "岩手県",
    "city": "北上市",
    "town": "川岸"
  },
  "0240033": {
    "zipcode": "0240033",
    "prefectureCode": "03",
    "prefectureNumber": 3,
    "prefecture": "岩手県",
    "city": "北上市",
    "town": "幸町"
  },
  "0240034": {
    "zipcode": "0240034",
    "prefectureCode": "03",
    "prefectureNumber": 3,
    "prefecture": "岩手県",
    "city": "北上市",
    "town": "諏訪町"
  },
  "0240035": {
    "zipcode": "0240035",
    "prefectureCode": "03",
    "prefectureNumber": 3,
    "prefecture": "岩手県",
    "city": "北上市",
    "town": "花園町"
  },
  "0240041": {
    "zipcode": "0240041",
    "prefectureCode": "03",
    "prefectureNumber": 3,
    "prefecture": "岩手県",
    "city": "北上市",
    "town": "稲瀬町"
  },
  "0240042": {
    "zipcode": "0240042",
    "prefectureCode": "03",
    "prefectureNumber": 3,
    "prefecture": "岩手県",
    "city": "北上市",
    "town": "黒岩"
  },
  "0240043": {
    "zipcode": "0240043",
    "prefectureCode": "03",
    "prefectureNumber": 3,
    "prefecture": "岩手県",
    "city": "北上市",
    "town": "立花"
  },
  "0240044": {
    "zipcode": "0240044",
    "prefectureCode": "03",
    "prefectureNumber": 3,
    "prefecture": "岩手県",
    "city": "北上市",
    "town": "平沢"
  },
  "0240045": {
    "zipcode": "0240045",
    "prefectureCode": "03",
    "prefectureNumber": 3,
    "prefecture": "岩手県",
    "city": "北上市",
    "town": "湯沢"
  },
  "0240051": {
    "zipcode": "0240051",
    "prefectureCode": "03",
    "prefectureNumber": 3,
    "prefecture": "岩手県",
    "city": "北上市",
    "town": "相去町"
  },
  "0240052": {
    "zipcode": "0240052",
    "prefectureCode": "03",
    "prefectureNumber": 3,
    "prefecture": "岩手県",
    "city": "北上市",
    "town": "大堤北"
  },
  "0240053": {
    "zipcode": "0240053",
    "prefectureCode": "03",
    "prefectureNumber": 3,
    "prefecture": "岩手県",
    "city": "北上市",
    "town": "大堤西"
  },
  "0240054": {
    "zipcode": "0240054",
    "prefectureCode": "03",
    "prefectureNumber": 3,
    "prefecture": "岩手県",
    "city": "北上市",
    "town": "大堤東"
  },
  "0240055": {
    "zipcode": "0240055",
    "prefectureCode": "03",
    "prefectureNumber": 3,
    "prefecture": "岩手県",
    "city": "北上市",
    "town": "大堤南"
  },
  "0240056": {
    "zipcode": "0240056",
    "prefectureCode": "03",
    "prefectureNumber": 3,
    "prefecture": "岩手県",
    "city": "北上市",
    "town": "鬼柳町"
  },
  "0240057": {
    "zipcode": "0240057",
    "prefectureCode": "03",
    "prefectureNumber": 3,
    "prefecture": "岩手県",
    "city": "北上市",
    "town": "上鬼柳"
  },
  "0240058": {
    "zipcode": "0240058",
    "prefectureCode": "03",
    "prefectureNumber": 3,
    "prefecture": "岩手県",
    "city": "北上市",
    "town": "下鬼柳"
  },
  "0240061": {
    "zipcode": "0240061",
    "prefectureCode": "03",
    "prefectureNumber": 3,
    "prefecture": "岩手県",
    "city": "北上市",
    "town": "大通り"
  },
  "0240062": {
    "zipcode": "0240062",
    "prefectureCode": "03",
    "prefectureNumber": 3,
    "prefecture": "岩手県",
    "city": "北上市",
    "town": "鍛冶町"
  },
  "0240063": {
    "zipcode": "0240063",
    "prefectureCode": "03",
    "prefectureNumber": 3,
    "prefecture": "岩手県",
    "city": "北上市",
    "town": "九年橋"
  },
  "0240064": {
    "zipcode": "0240064",
    "prefectureCode": "03",
    "prefectureNumber": 3,
    "prefecture": "岩手県",
    "city": "北上市",
    "town": "若宮町"
  },
  "0240071": {
    "zipcode": "0240071",
    "prefectureCode": "03",
    "prefectureNumber": 3,
    "prefecture": "岩手県",
    "city": "北上市",
    "town": "上江釣子"
  },
  "0240072": {
    "zipcode": "0240072",
    "prefectureCode": "03",
    "prefectureNumber": 3,
    "prefecture": "岩手県",
    "city": "北上市",
    "town": "北鬼柳"
  },
  "0240073": {
    "zipcode": "0240073",
    "prefectureCode": "03",
    "prefectureNumber": 3,
    "prefecture": "岩手県",
    "city": "北上市",
    "town": "下江釣子"
  },
  "0240074": {
    "zipcode": "0240074",
    "prefectureCode": "03",
    "prefectureNumber": 3,
    "prefecture": "岩手県",
    "city": "北上市",
    "town": "滑田"
  },
  "0240075": {
    "zipcode": "0240075",
    "prefectureCode": "03",
    "prefectureNumber": 3,
    "prefecture": "岩手県",
    "city": "北上市",
    "town": "新平"
  },
  "0240076": {
    "zipcode": "0240076",
    "prefectureCode": "03",
    "prefectureNumber": 3,
    "prefecture": "岩手県",
    "city": "北上市",
    "town": "鳩岡崎"
  },
  "0240081": {
    "zipcode": "0240081",
    "prefectureCode": "03",
    "prefectureNumber": 3,
    "prefecture": "岩手県",
    "city": "北上市",
    "town": "有田町"
  },
  "0240082": {
    "zipcode": "0240082",
    "prefectureCode": "03",
    "prefectureNumber": 3,
    "prefecture": "岩手県",
    "city": "北上市",
    "town": "町分"
  },
  "0240083": {
    "zipcode": "0240083",
    "prefectureCode": "03",
    "prefectureNumber": 3,
    "prefecture": "岩手県",
    "city": "北上市",
    "town": "柳原町"
  },
  "0240084": {
    "zipcode": "0240084",
    "prefectureCode": "03",
    "prefectureNumber": 3,
    "prefecture": "岩手県",
    "city": "北上市",
    "town": "さくら通り"
  },
  "0240085": {
    "zipcode": "0240085",
    "prefectureCode": "03",
    "prefectureNumber": 3,
    "prefecture": "岩手県",
    "city": "北上市",
    "town": "しらゆり"
  },
  "0240091": {
    "zipcode": "0240091",
    "prefectureCode": "03",
    "prefectureNumber": 3,
    "prefecture": "岩手県",
    "city": "北上市",
    "town": "大曲町"
  },
  "0240092": {
    "zipcode": "0240092",
    "prefectureCode": "03",
    "prefectureNumber": 3,
    "prefecture": "岩手県",
    "city": "北上市",
    "town": "新穀町"
  },
  "0240093": {
    "zipcode": "0240093",
    "prefectureCode": "03",
    "prefectureNumber": 3,
    "prefecture": "岩手県",
    "city": "北上市",
    "town": "本石町"
  },
  "0240094": {
    "zipcode": "0240094",
    "prefectureCode": "03",
    "prefectureNumber": 3,
    "prefecture": "岩手県",
    "city": "北上市",
    "town": "本通り"
  },
  "0240095": {
    "zipcode": "0240095",
    "prefectureCode": "03",
    "prefectureNumber": 3,
    "prefecture": "岩手県",
    "city": "北上市",
    "town": "芳町"
  },
  "0240101": {
    "zipcode": "0240101",
    "prefectureCode": "03",
    "prefectureNumber": 3,
    "prefecture": "岩手県",
    "city": "北上市",
    "town": "臥牛"
  },
  "0240102": {
    "zipcode": "0240102",
    "prefectureCode": "03",
    "prefectureNumber": 3,
    "prefecture": "岩手県",
    "city": "北上市",
    "town": "北工業団地（３、５番地）"
  },
  "0240103": {
    "zipcode": "0240103",
    "prefectureCode": "03",
    "prefectureNumber": 3,
    "prefecture": "岩手県",
    "city": "北上市",
    "town": "更木"
  },
  "0240104": {
    "zipcode": "0240104",
    "prefectureCode": "03",
    "prefectureNumber": 3,
    "prefecture": "岩手県",
    "city": "北上市",
    "town": "二子町"
  },
  "0240105": {
    "zipcode": "0240105",
    "prefectureCode": "03",
    "prefectureNumber": 3,
    "prefecture": "岩手県",
    "city": "北上市",
    "town": "小鳥崎"
  },
  "0240211": {
    "zipcode": "0240211",
    "prefectureCode": "03",
    "prefectureNumber": 3,
    "prefecture": "岩手県",
    "city": "北上市",
    "town": "口内町"
  },
  "0240321": {
    "zipcode": "0240321",
    "prefectureCode": "03",
    "prefectureNumber": 3,
    "prefecture": "岩手県",
    "city": "北上市",
    "town": "和賀町岩崎"
  },
  "0240322": {
    "zipcode": "0240322",
    "prefectureCode": "03",
    "prefectureNumber": 3,
    "prefecture": "岩手県",
    "city": "北上市",
    "town": "和賀町岩崎新田"
  },
  "0240323": {
    "zipcode": "0240323",
    "prefectureCode": "03",
    "prefectureNumber": 3,
    "prefecture": "岩手県",
    "city": "北上市",
    "town": "和賀町煤孫"
  },
  "0240324": {
    "zipcode": "0240324",
    "prefectureCode": "03",
    "prefectureNumber": 3,
    "prefecture": "岩手県",
    "city": "北上市",
    "town": "和賀町山口"
  },
  "0240325": {
    "zipcode": "0240325",
    "prefectureCode": "03",
    "prefectureNumber": 3,
    "prefecture": "岩手県",
    "city": "北上市",
    "town": "和賀町岩沢"
  },
  "0240326": {
    "zipcode": "0240326",
    "prefectureCode": "03",
    "prefectureNumber": 3,
    "prefecture": "岩手県",
    "city": "北上市",
    "town": "和賀町仙人"
  },
  "0240331": {
    "zipcode": "0240331",
    "prefectureCode": "03",
    "prefectureNumber": 3,
    "prefecture": "岩手県",
    "city": "北上市",
    "town": "和賀町横川目"
  },
  "0240332": {
    "zipcode": "0240332",
    "prefectureCode": "03",
    "prefectureNumber": 3,
    "prefecture": "岩手県",
    "city": "北上市",
    "town": "和賀町竪川目"
  },
  "0240333": {
    "zipcode": "0240333",
    "prefectureCode": "03",
    "prefectureNumber": 3,
    "prefecture": "岩手県",
    "city": "北上市",
    "town": "和賀町長沼"
  },
  "0240334": {
    "zipcode": "0240334",
    "prefectureCode": "03",
    "prefectureNumber": 3,
    "prefecture": "岩手県",
    "city": "北上市",
    "town": "和賀町藤根"
  },
  "0240335": {
    "zipcode": "0240335",
    "prefectureCode": "03",
    "prefectureNumber": 3,
    "prefecture": "岩手県",
    "city": "北上市",
    "town": "和賀町後藤"
  },
  "0240341": {
    "zipcode": "0240341",
    "prefectureCode": "03",
    "prefectureNumber": 3,
    "prefecture": "岩手県",
    "city": "和賀郡西和賀町",
    "town": "杉名畑４４地割（湯田ダム管理事務所、後口山、当楽）"
  }
}
