{
  "0270000": {
    "zipcode": "0270000",
    "prefectureCode": "03",
    "prefectureNumber": 3,
    "prefecture": "岩手県",
    "city": "宮古市",
    "town": "以下に掲載がない場合"
  },
  "0270001": {
    "zipcode": "0270001",
    "prefectureCode": "03",
    "prefectureNumber": 3,
    "prefecture": "岩手県",
    "city": "宮古市",
    "town": "日立浜町"
  },
  "0270002": {
    "zipcode": "0270002",
    "prefectureCode": "03",
    "prefectureNumber": 3,
    "prefecture": "岩手県",
    "city": "宮古市",
    "town": "山根町"
  },
  "0270003": {
    "zipcode": "0270003",
    "prefectureCode": "03",
    "prefectureNumber": 3,
    "prefecture": "岩手県",
    "city": "宮古市",
    "town": "港町"
  },
  "0270004": {
    "zipcode": "0270004",
    "prefectureCode": "03",
    "prefectureNumber": 3,
    "prefecture": "岩手県",
    "city": "宮古市",
    "town": "臨港通"
  },
  "0270005": {
    "zipcode": "0270005",
    "prefectureCode": "03",
    "prefectureNumber": 3,
    "prefecture": "岩手県",
    "city": "宮古市",
    "town": "光岸地"
  },
  "0270006": {
    "zipcode": "0270006",
    "prefectureCode": "03",
    "prefectureNumber": 3,
    "prefecture": "岩手県",
    "city": "宮古市",
    "town": "鍬ケ崎"
  },
  "0270007": {
    "zipcode": "0270007",
    "prefectureCode": "03",
    "prefectureNumber": 3,
    "prefecture": "岩手県",
    "city": "宮古市",
    "town": "日影町"
  },
  "0270008": {
    "zipcode": "0270008",
    "prefectureCode": "03",
    "prefectureNumber": 3,
    "prefecture": "岩手県",
    "city": "宮古市",
    "town": "熊野町"
  },
  "0270009": {
    "zipcode": "0270009",
    "prefectureCode": "03",
    "prefectureNumber": 3,
    "prefecture": "岩手県",
    "city": "宮古市",
    "town": "蛸の浜町"
  },
  "0270021": {
    "zipcode": "0270021",
    "prefectureCode": "03",
    "prefectureNumber": 3,
    "prefecture": "岩手県",
    "city": "宮古市",
    "town": "藤原上町"
  },
  "0270022": {
    "zipcode": "0270022",
    "prefectureCode": "03",
    "prefectureNumber": 3,
    "prefecture": "岩手県",
    "city": "宮古市",
    "town": "磯鶏石崎"
  },
  "0270023": {
    "zipcode": "0270023",
    "prefectureCode": "03",
    "prefectureNumber": 3,
    "prefecture": "岩手県",
    "city": "宮古市",
    "town": "磯鶏沖"
  },
  "0270024": {
    "zipcode": "0270024",
    "prefectureCode": "03",
    "prefectureNumber": 3,
    "prefecture": "岩手県",
    "city": "宮古市",
    "town": "磯鶏"
  },
  "0270025": {
    "zipcode": "0270025",
    "prefectureCode": "03",
    "prefectureNumber": 3,
    "prefecture": "岩手県",
    "city": "宮古市",
    "town": "実田"
  },
  "0270026": {
    "zipcode": "0270026",
    "prefectureCode": "03",
    "prefectureNumber": 3,
    "prefecture": "岩手県",
    "city": "宮古市",
    "town": "上村"
  },
  "0270027": {
    "zipcode": "0270027",
    "prefectureCode": "03",
    "prefectureNumber": 3,
    "prefecture": "岩手県",
    "city": "宮古市",
    "town": "磯鶏西"
  },
  "0270028": {
    "zipcode": "0270028",
    "prefectureCode": "03",
    "prefectureNumber": 3,
    "prefecture": "岩手県",
    "city": "宮古市",
    "town": "神林"
  },
  "0270029": {
    "zipcode": "0270029",
    "prefectureCode": "03",
    "prefectureNumber": 3,
    "prefecture": "岩手県",
    "city": "宮古市",
    "town": "藤の川"
  },
  "0270031": {
    "zipcode": "0270031",
    "prefectureCode": "03",
    "prefectureNumber": 3,
    "prefecture": "岩手県",
    "city": "宮古市",
    "town": "八木沢"
  },
  "0270032": {
    "zipcode": "0270032",
    "prefectureCode": "03",
    "prefectureNumber": 3,
    "prefecture": "岩手県",
    "city": "宮古市",
    "town": "高浜"
  },
  "0270033": {
    "zipcode": "0270033",
    "prefectureCode": "03",
    "prefectureNumber": 3,
    "prefecture": "岩手県",
    "city": "宮古市",
    "town": "金浜"
  },
  "0270034": {
    "zipcode": "0270034",
    "prefectureCode": "03",
    "prefectureNumber": 3,
    "prefecture": "岩手県",
    "city": "宮古市",
    "town": "長沢"
  },
  "0270035": {
    "zipcode": "0270035",
    "prefectureCode": "03",
    "prefectureNumber": 3,
    "prefecture": "岩手県",
    "city": "宮古市",
    "town": "花輪"
  },
  "0270036": {
    "zipcode": "0270036",
    "prefectureCode": "03",
    "prefectureNumber": 3,
    "prefecture": "岩手県",
    "city": "宮古市",
    "town": "田鎖"
  },
  "0270037": {
    "zipcode": "0270037",
    "prefectureCode": "03",
    "prefectureNumber": 3,
    "prefecture": "岩手県",
    "city": "宮古市",
    "town": "松山"
  },
  "0270038": {
    "zipcode": "0270038",
    "prefectureCode": "03",
    "prefectureNumber": 3,
    "prefecture": "岩手県",
    "city": "宮古市",
    "town": "小山田"
  },
  "0270039": {
    "zipcode": "0270039",
    "prefectureCode": "03",
    "prefectureNumber": 3,
    "prefecture": "岩手県",
    "city": "宮古市",
    "town": "河南"
  },
  "0270041": {
    "zipcode": "0270041",
    "prefectureCode": "03",
    "prefectureNumber": 3,
    "prefecture": "岩手県",
    "city": "宮古市",
    "town": "西ケ丘"
  },
  "0270042": {
    "zipcode": "0270042",
    "prefectureCode": "03",
    "prefectureNumber": 3,
    "prefecture": "岩手県",
    "city": "宮古市",
    "town": "神田沢町"
  },
  "0270043": {
    "zipcode": "0270043",
    "prefectureCode": "03",
    "prefectureNumber": 3,
    "prefecture": "岩手県",
    "city": "宮古市",
    "town": "千徳町"
  },
  "0270044": {
    "zipcode": "0270044",
    "prefectureCode": "03",
    "prefectureNumber": 3,
    "prefecture": "岩手県",
    "city": "宮古市",
    "town": "上鼻"
  },
  "0270045": {
    "zipcode": "0270045",
    "prefectureCode": "03",
    "prefectureNumber": 3,
    "prefecture": "岩手県",
    "city": "宮古市",
    "town": "老木"
  },
  "0270046": {
    "zipcode": "0270046",
    "prefectureCode": "03",
    "prefectureNumber": 3,
    "prefecture": "岩手県",
    "city": "宮古市",
    "town": "花原市"
  },
  "0270047": {
    "zipcode": "0270047",
    "prefectureCode": "03",
    "prefectureNumber": 3,
    "prefecture": "岩手県",
    "city": "宮古市",
    "town": "根市"
  },
  "0270048": {
    "zipcode": "0270048",
    "prefectureCode": "03",
    "prefectureNumber": 3,
    "prefecture": "岩手県",
    "city": "宮古市",
    "town": "板屋"
  },
  "0270051": {
    "zipcode": "0270051",
    "prefectureCode": "03",
    "prefectureNumber": 3,
    "prefecture": "岩手県",
    "city": "宮古市",
    "town": "南町"
  },
  "0270052": {
    "zipcode": "0270052",
    "prefectureCode": "03",
    "prefectureNumber": 3,
    "prefecture": "岩手県",
    "city": "宮古市",
    "town": "宮町"
  },
  "0270053": {
    "zipcode": "0270053",
    "prefectureCode": "03",
    "prefectureNumber": 3,
    "prefecture": "岩手県",
    "city": "宮古市",
    "town": "長町"
  },
  "0270054": {
    "zipcode": "0270054",
    "prefectureCode": "03",
    "prefectureNumber": 3,
    "prefecture": "岩手県",
    "city": "宮古市",
    "town": "太田"
  },
  "0270055": {
    "zipcode": "0270055",
    "prefectureCode": "03",
    "prefectureNumber": 3,
    "prefecture": "岩手県",
    "city": "宮古市",
    "town": "長根"
  },
  "0270056": {
    "zipcode": "0270056",
    "prefectureCode": "03",
    "prefectureNumber": 3,
    "prefecture": "岩手県",
    "city": "宮古市",
    "town": "近内"
  },
  "0270058": {
    "zipcode": "0270058",
    "prefectureCode": "03",
    "prefectureNumber": 3,
    "prefecture": "岩手県",
    "city": "宮古市",
    "town": "千徳"
  },
  "0270061": {
    "zipcode": "0270061",
    "prefectureCode": "03",
    "prefectureNumber": 3,
    "prefecture": "岩手県",
    "city": "宮古市",
    "town": "西町"
  },
  "0270062": {
    "zipcode": "0270062",
    "prefectureCode": "03",
    "prefectureNumber": 3,
    "prefecture": "岩手県",
    "city": "宮古市",
    "town": "泉町"
  },
  "0270063": {
    "zipcode": "0270063",
    "prefectureCode": "03",
    "prefectureNumber": 3,
    "prefecture": "岩手県",
    "city": "宮古市",
    "town": "山口"
  },
  "0270064": {
    "zipcode": "0270064",
    "prefectureCode": "03",
    "prefectureNumber": 3,
    "prefecture": "岩手県",
    "city": "宮古市",
    "town": "宮園"
  },
  "0270065": {
    "zipcode": "0270065",
    "prefectureCode": "03",
    "prefectureNumber": 3,
    "prefecture": "岩手県",
    "city": "宮古市",
    "town": "黒森町"
  },
  "0270066": {
    "zipcode": "0270066",
    "prefectureCode": "03",
    "prefectureNumber": 3,
    "prefecture": "岩手県",
    "city": "宮古市",
    "town": "田の神"
  },
  "0270067": {
    "zipcode": "0270067",
    "prefectureCode": "03",
    "prefectureNumber": 3,
    "prefecture": "岩手県",
    "city": "宮古市",
    "town": "田代"
  },
  "0270071": {
    "zipcode": "0270071",
    "prefectureCode": "03",
    "prefectureNumber": 3,
    "prefecture": "岩手県",
    "city": "宮古市",
    "town": "小沢"
  },
  "0270072": {
    "zipcode": "0270072",
    "prefectureCode": "03",
    "prefectureNumber": 3,
    "prefecture": "岩手県",
    "city": "宮古市",
    "town": "五月町"
  },
  "0270073": {
    "zipcode": "0270073",
    "prefectureCode": "03",
    "prefectureNumber": 3,
    "prefecture": "岩手県",
    "city": "宮古市",
    "town": "緑ケ丘"
  },
  "0270074": {
    "zipcode": "0270074",
    "prefectureCode": "03",
    "prefectureNumber": 3,
    "prefecture": "岩手県",
    "city": "宮古市",
    "town": "保久田"
  },
  "0270075": {
    "zipcode": "0270075",
    "prefectureCode": "03",
    "prefectureNumber": 3,
    "prefecture": "岩手県",
    "city": "宮古市",
    "town": "和見町"
  },
  "0270076": {
    "zipcode": "0270076",
    "prefectureCode": "03",
    "prefectureNumber": 3,
    "prefecture": "岩手県",
    "city": "宮古市",
    "town": "栄町"
  },
  "0270077": {
    "zipcode": "0270077",
    "prefectureCode": "03",
    "prefectureNumber": 3,
    "prefecture": "岩手県",
    "city": "宮古市",
    "town": "舘合町"
  },
  "0270078": {
    "zipcode": "0270078",
    "prefectureCode": "03",
    "prefectureNumber": 3,
    "prefecture": "岩手県",
    "city": "宮古市",
    "town": "鴨崎町"
  },
  "0270081": {
    "zipcode": "0270081",
    "prefectureCode": "03",
    "prefectureNumber": 3,
    "prefecture": "岩手県",
    "city": "宮古市",
    "town": "新川町"
  },
  "0270082": {
    "zipcode": "0270082",
    "prefectureCode": "03",
    "prefectureNumber": 3,
    "prefecture": "岩手県",
    "city": "宮古市",
    "town": "向町"
  },
  "0270083": {
    "zipcode": "0270083",
    "prefectureCode": "03",
    "prefectureNumber": 3,
    "prefecture": "岩手県",
    "city": "宮古市",
    "town": "大通"
  },
  "0270084": {
    "zipcode": "0270084",
    "prefectureCode": "03",
    "prefectureNumber": 3,
    "prefecture": "岩手県",
    "city": "宮古市",
    "town": "末広町"
  },
  "0270085": {
    "zipcode": "0270085",
    "prefectureCode": "03",
    "prefectureNumber": 3,
    "prefecture": "岩手県",
    "city": "宮古市",
    "town": "黒田町"
  },
  "0270086": {
    "zipcode": "0270086",
    "prefectureCode": "03",
    "prefectureNumber": 3,
    "prefecture": "岩手県",
    "city": "宮古市",
    "town": "新町"
  },
  "0270087": {
    "zipcode": "0270087",
    "prefectureCode": "03",
    "prefectureNumber": 3,
    "prefecture": "岩手県",
    "city": "宮古市",
    "town": "横町"
  },
  "0270088": {
    "zipcode": "0270088",
    "prefectureCode": "03",
    "prefectureNumber": 3,
    "prefecture": "岩手県",
    "city": "宮古市",
    "town": "沢田"
  },
  "0270089": {
    "zipcode": "0270089",
    "prefectureCode": "03",
    "prefectureNumber": 3,
    "prefecture": "岩手県",
    "city": "宮古市",
    "town": "本町"
  },
  "0270091": {
    "zipcode": "0270091",
    "prefectureCode": "03",
    "prefectureNumber": 3,
    "prefecture": "岩手県",
    "city": "宮古市",
    "town": "築地"
  },
  "0270092": {
    "zipcode": "0270092",
    "prefectureCode": "03",
    "prefectureNumber": 3,
    "prefecture": "岩手県",
    "city": "宮古市",
    "town": "愛宕"
  },
  "0270093": {
    "zipcode": "0270093",
    "prefectureCode": "03",
    "prefectureNumber": 3,
    "prefecture": "岩手県",
    "city": "宮古市",
    "town": "中里団地"
  },
  "0270094": {
    "zipcode": "0270094",
    "prefectureCode": "03",
    "prefectureNumber": 3,
    "prefecture": "岩手県",
    "city": "宮古市",
    "town": "日の出町"
  },
  "0270095": {
    "zipcode": "0270095",
    "prefectureCode": "03",
    "prefectureNumber": 3,
    "prefecture": "岩手県",
    "city": "宮古市",
    "town": "佐原"
  },
  "0270096": {
    "zipcode": "0270096",
    "prefectureCode": "03",
    "prefectureNumber": 3,
    "prefecture": "岩手県",
    "city": "宮古市",
    "town": "崎鍬ケ崎"
  },
  "0270097": {
    "zipcode": "0270097",
    "prefectureCode": "03",
    "prefectureNumber": 3,
    "prefecture": "岩手県",
    "city": "宮古市",
    "town": "崎山"
  },
  "0270111": {
    "zipcode": "0270111",
    "prefectureCode": "03",
    "prefectureNumber": 3,
    "prefecture": "岩手県",
    "city": "宮古市",
    "town": "重茂"
  },
  "0270112": {
    "zipcode": "0270112",
    "prefectureCode": "03",
    "prefectureNumber": 3,
    "prefecture": "岩手県",
    "city": "宮古市",
    "town": "音部"
  },
  "0270201": {
    "zipcode": "0270201",
    "prefectureCode": "03",
    "prefectureNumber": 3,
    "prefecture": "岩手県",
    "city": "宮古市",
    "town": "白浜"
  },
  "0270202": {
    "zipcode": "0270202",
    "prefectureCode": "03",
    "prefectureNumber": 3,
    "prefecture": "岩手県",
    "city": "宮古市",
    "town": "赤前"
  },
  "0270203": {
    "zipcode": "0270203",
    "prefectureCode": "03",
    "prefectureNumber": 3,
    "prefecture": "岩手県",
    "city": "宮古市",
    "town": "津軽石"
  },
  "0270301": {
    "zipcode": "0270301",
    "prefectureCode": "03",
    "prefectureNumber": 3,
    "prefecture": "岩手県",
    "city": "宮古市",
    "town": "田老館が森"
  },
  "0270302": {
    "zipcode": "0270302",
    "prefectureCode": "03",
    "prefectureNumber": 3,
    "prefecture": "岩手県",
    "city": "宮古市",
    "town": "田老田中"
  },
  "0270303": {
    "zipcode": "0270303",
    "prefectureCode": "03",
    "prefectureNumber": 3,
    "prefecture": "岩手県",
    "city": "宮古市",
    "town": "田老田の沢"
  },
  "0270304": {
    "zipcode": "0270304",
    "prefectureCode": "03",
    "prefectureNumber": 3,
    "prefecture": "岩手県",
    "city": "宮古市",
    "town": "田老ケラス"
  },
  "0270305": {
    "zipcode": "0270305",
    "prefectureCode": "03",
    "prefectureNumber": 3,
    "prefecture": "岩手県",
    "city": "宮古市",
    "town": "田老荒谷"
  },
  "0270306": {
    "zipcode": "0270306",
    "prefectureCode": "03",
    "prefectureNumber": 3,
    "prefecture": "岩手県",
    "city": "宮古市",
    "town": "田老川向"
  },
  "0270307": {
    "zipcode": "0270307",
    "prefectureCode": "03",
    "prefectureNumber": 3,
    "prefecture": "岩手県",
    "city": "宮古市",
    "town": "田老"
  },
  "0270311": {
    "zipcode": "0270311",
    "prefectureCode": "03",
    "prefectureNumber": 3,
    "prefecture": "岩手県",
    "city": "宮古市",
    "town": "田老和野"
  },
  "0270312": {
    "zipcode": "0270312",
    "prefectureCode": "03",
    "prefectureNumber": 3,
    "prefecture": "岩手県",
    "city": "宮古市",
    "town": "田老越田"
  },
  "0270313": {
    "zipcode": "0270313",
    "prefectureCode": "03",
    "prefectureNumber": 3,
    "prefecture": "岩手県",
    "city": "宮古市",
    "town": "田老駿達"
  },
  "0270321": {
    "zipcode": "0270321",
    "prefectureCode": "03",
    "prefectureNumber": 3,
    "prefecture": "岩手県",
    "city": "宮古市",
    "town": "田老乙部"
  },
  "0270322": {
    "zipcode": "0270322",
    "prefectureCode": "03",
    "prefectureNumber": 3,
    "prefecture": "岩手県",
    "city": "宮古市",
    "town": "田老青砂里"
  },
  "0270323": {
    "zipcode": "0270323",
    "prefectureCode": "03",
    "prefectureNumber": 3,
    "prefecture": "岩手県",
    "city": "宮古市",
    "town": "田老野原"
  },
  "0270324": {
    "zipcode": "0270324",
    "prefectureCode": "03",
    "prefectureNumber": 3,
    "prefecture": "岩手県",
    "city": "宮古市",
    "town": "田老向山"
  },
  "0270325": {
    "zipcode": "0270325",
    "prefectureCode": "03",
    "prefectureNumber": 3,
    "prefecture": "岩手県",
    "city": "宮古市",
    "town": "田老三王"
  },
  "0270331": {
    "zipcode": "0270331",
    "prefectureCode": "03",
    "prefectureNumber": 3,
    "prefecture": "岩手県",
    "city": "宮古市",
    "town": "田老西向山"
  },
  "0270332": {
    "zipcode": "0270332",
    "prefectureCode": "03",
    "prefectureNumber": 3,
    "prefecture": "岩手県",
    "city": "宮古市",
    "town": "田老樫内"
  },
  "0270333": {
    "zipcode": "0270333",
    "prefectureCode": "03",
    "prefectureNumber": 3,
    "prefecture": "岩手県",
    "city": "宮古市",
    "town": "田老古田"
  },
  "0270341": {
    "zipcode": "0270341",
    "prefectureCode": "03",
    "prefectureNumber": 3,
    "prefecture": "岩手県",
    "city": "宮古市",
    "town": "田老養呂地"
  },
  "0270342": {
    "zipcode": "0270342",
    "prefectureCode": "03",
    "prefectureNumber": 3,
    "prefecture": "岩手県",
    "city": "宮古市",
    "town": "田老小田代"
  },
  "0270343": {
    "zipcode": "0270343",
    "prefectureCode": "03",
    "prefectureNumber": 3,
    "prefecture": "岩手県",
    "city": "宮古市",
    "town": "田老上小田代"
  },
  "0270344": {
    "zipcode": "0270344",
    "prefectureCode": "03",
    "prefectureNumber": 3,
    "prefecture": "岩手県",
    "city": "宮古市",
    "town": "田老辰の口"
  },
  "0270345": {
    "zipcode": "0270345",
    "prefectureCode": "03",
    "prefectureNumber": 3,
    "prefecture": "岩手県",
    "city": "宮古市",
    "town": "田老篠倉"
  },
  "0270346": {
    "zipcode": "0270346",
    "prefectureCode": "03",
    "prefectureNumber": 3,
    "prefecture": "岩手県",
    "city": "宮古市",
    "town": "田老七滝"
  },
  "0270347": {
    "zipcode": "0270347",
    "prefectureCode": "03",
    "prefectureNumber": 3,
    "prefecture": "岩手県",
    "city": "宮古市",
    "town": "田老笹見平"
  },
  "0270351": {
    "zipcode": "0270351",
    "prefectureCode": "03",
    "prefectureNumber": 3,
    "prefecture": "岩手県",
    "city": "宮古市",
    "town": "田老小林"
  },
  "0270352": {
    "zipcode": "0270352",
    "prefectureCode": "03",
    "prefectureNumber": 3,
    "prefecture": "岩手県",
    "city": "宮古市",
    "town": "田老八幡水神"
  },
  "0270353": {
    "zipcode": "0270353",
    "prefectureCode": "03",
    "prefectureNumber": 3,
    "prefecture": "岩手県",
    "city": "宮古市",
    "town": "田老和蒔"
  },
  "0270354": {
    "zipcode": "0270354",
    "prefectureCode": "03",
    "prefectureNumber": 3,
    "prefecture": "岩手県",
    "city": "宮古市",
    "town": "田老森崎"
  },
  "0270355": {
    "zipcode": "0270355",
    "prefectureCode": "03",
    "prefectureNumber": 3,
    "prefecture": "岩手県",
    "city": "宮古市",
    "town": "田老末前"
  },
  "0270356": {
    "zipcode": "0270356",
    "prefectureCode": "03",
    "prefectureNumber": 3,
    "prefecture": "岩手県",
    "city": "宮古市",
    "town": "田老和山"
  },
  "0270357": {
    "zipcode": "0270357",
    "prefectureCode": "03",
    "prefectureNumber": 3,
    "prefecture": "岩手県",
    "city": "宮古市",
    "town": "田老向桑畑"
  },
  "0270358": {
    "zipcode": "0270358",
    "prefectureCode": "03",
    "prefectureNumber": 3,
    "prefecture": "岩手県",
    "city": "宮古市",
    "town": "田老立腰"
  },
  "0270359": {
    "zipcode": "0270359",
    "prefectureCode": "03",
    "prefectureNumber": 3,
    "prefecture": "岩手県",
    "city": "宮古市",
    "town": "田老青倉"
  },
  "0270361": {
    "zipcode": "0270361",
    "prefectureCode": "03",
    "prefectureNumber": 3,
    "prefecture": "岩手県",
    "city": "宮古市",
    "town": "田老小堀内"
  },
  "0270362": {
    "zipcode": "0270362",
    "prefectureCode": "03",
    "prefectureNumber": 3,
    "prefecture": "岩手県",
    "city": "宮古市",
    "town": "田老小堀内南"
  },
  "0270363": {
    "zipcode": "0270363",
    "prefectureCode": "03",
    "prefectureNumber": 3,
    "prefecture": "岩手県",
    "city": "宮古市",
    "town": "田老長畑"
  },
  "0270364": {
    "zipcode": "0270364",
    "prefectureCode": "03",
    "prefectureNumber": 3,
    "prefecture": "岩手県",
    "city": "宮古市",
    "town": "田老新田"
  },
  "0270365": {
    "zipcode": "0270365",
    "prefectureCode": "03",
    "prefectureNumber": 3,
    "prefecture": "岩手県",
    "city": "宮古市",
    "town": "田老滝の沢"
  },
  "0270366": {
    "zipcode": "0270366",
    "prefectureCode": "03",
    "prefectureNumber": 3,
    "prefecture": "岩手県",
    "city": "宮古市",
    "town": "田老新田平"
  },
  "0270367": {
    "zipcode": "0270367",
    "prefectureCode": "03",
    "prefectureNumber": 3,
    "prefecture": "岩手県",
    "city": "宮古市",
    "town": "田老鈴子沢"
  },
  "0270371": {
    "zipcode": "0270371",
    "prefectureCode": "03",
    "prefectureNumber": 3,
    "prefecture": "岩手県",
    "city": "宮古市",
    "town": "田老水沢"
  },
  "0270372": {
    "zipcode": "0270372",
    "prefectureCode": "03",
    "prefectureNumber": 3,
    "prefecture": "岩手県",
    "city": "宮古市",
    "town": "田老水沢南"
  },
  "0270373": {
    "zipcode": "0270373",
    "prefectureCode": "03",
    "prefectureNumber": 3,
    "prefecture": "岩手県",
    "city": "宮古市",
    "town": "田老向新田"
  },
  "0270374": {
    "zipcode": "0270374",
    "prefectureCode": "03",
    "prefectureNumber": 3,
    "prefecture": "岩手県",
    "city": "宮古市",
    "town": "田老青野滝北"
  },
  "0270375": {
    "zipcode": "0270375",
    "prefectureCode": "03",
    "prefectureNumber": 3,
    "prefecture": "岩手県",
    "city": "宮古市",
    "town": "田老青野滝"
  },
  "0270376": {
    "zipcode": "0270376",
    "prefectureCode": "03",
    "prefectureNumber": 3,
    "prefecture": "岩手県",
    "city": "宮古市",
    "town": "田老青野滝南"
  },
  "0270377": {
    "zipcode": "0270377",
    "prefectureCode": "03",
    "prefectureNumber": 3,
    "prefecture": "岩手県",
    "city": "宮古市",
    "town": "田老重津部北"
  },
  "0270378": {
    "zipcode": "0270378",
    "prefectureCode": "03",
    "prefectureNumber": 3,
    "prefecture": "岩手県",
    "city": "宮古市",
    "town": "田老重津部"
  },
  "0270379": {
    "zipcode": "0270379",
    "prefectureCode": "03",
    "prefectureNumber": 3,
    "prefecture": "岩手県",
    "city": "宮古市",
    "town": "田老乙部野"
  },
  "0270381": {
    "zipcode": "0270381",
    "prefectureCode": "03",
    "prefectureNumber": 3,
    "prefecture": "岩手県",
    "city": "宮古市",
    "town": "田老星山"
  },
  "0270382": {
    "zipcode": "0270382",
    "prefectureCode": "03",
    "prefectureNumber": 3,
    "prefecture": "岩手県",
    "city": "宮古市",
    "town": "田老片巻"
  },
  "0270383": {
    "zipcode": "0270383",
    "prefectureCode": "03",
    "prefectureNumber": 3,
    "prefecture": "岩手県",
    "city": "宮古市",
    "town": "田老上摂待"
  },
  "0270384": {
    "zipcode": "0270384",
    "prefectureCode": "03",
    "prefectureNumber": 3,
    "prefecture": "岩手県",
    "city": "宮古市",
    "town": "田老摂待"
  },
  "0270385": {
    "zipcode": "0270385",
    "prefectureCode": "03",
    "prefectureNumber": 3,
    "prefecture": "岩手県",
    "city": "宮古市",
    "town": "田老下摂待"
  },
  "0270386": {
    "zipcode": "0270386",
    "prefectureCode": "03",
    "prefectureNumber": 3,
    "prefecture": "岩手県",
    "city": "宮古市",
    "town": "田老胡桃畑"
  },
  "0270387": {
    "zipcode": "0270387",
    "prefectureCode": "03",
    "prefectureNumber": 3,
    "prefecture": "岩手県",
    "city": "宮古市",
    "town": "田老畑"
  },
  "0270388": {
    "zipcode": "0270388",
    "prefectureCode": "03",
    "prefectureNumber": 3,
    "prefecture": "岩手県",
    "city": "宮古市",
    "town": "田老上沖"
  },
  "0270421": {
    "zipcode": "0270421",
    "prefectureCode": "03",
    "prefectureNumber": 3,
    "prefecture": "岩手県",
    "city": "下閉伊郡岩泉町",
    "town": "小本"
  },
  "0270422": {
    "zipcode": "0270422",
    "prefectureCode": "03",
    "prefectureNumber": 3,
    "prefecture": "岩手県",
    "city": "下閉伊郡岩泉町",
    "town": "中島"
  },
  "0270423": {
    "zipcode": "0270423",
    "prefectureCode": "03",
    "prefectureNumber": 3,
    "prefecture": "岩手県",
    "city": "下閉伊郡岩泉町",
    "town": "中里"
  },
  "0270424": {
    "zipcode": "0270424",
    "prefectureCode": "03",
    "prefectureNumber": 3,
    "prefecture": "岩手県",
    "city": "下閉伊郡岩泉町",
    "town": "袰野"
  },
  "0270500": {
    "zipcode": "0270500",
    "prefectureCode": "03",
    "prefectureNumber": 3,
    "prefecture": "岩手県",
    "city": "下閉伊郡岩泉町",
    "town": "以下に掲載がない場合"
  },
  "0270501": {
    "zipcode": "0270501",
    "prefectureCode": "03",
    "prefectureNumber": 3,
    "prefecture": "岩手県",
    "city": "下閉伊郡岩泉町",
    "town": "岩泉"
  },
  "0270502": {
    "zipcode": "0270502",
    "prefectureCode": "03",
    "prefectureNumber": 3,
    "prefecture": "岩手県",
    "city": "下閉伊郡岩泉町",
    "town": "乙茂"
  },
  "0270503": {
    "zipcode": "0270503",
    "prefectureCode": "03",
    "prefectureNumber": 3,
    "prefecture": "岩手県",
    "city": "下閉伊郡岩泉町",
    "town": "猿沢"
  },
  "0270504": {
    "zipcode": "0270504",
    "prefectureCode": "03",
    "prefectureNumber": 3,
    "prefecture": "岩手県",
    "city": "下閉伊郡岩泉町",
    "town": "下有芸"
  },
  "0270505": {
    "zipcode": "0270505",
    "prefectureCode": "03",
    "prefectureNumber": 3,
    "prefecture": "岩手県",
    "city": "下閉伊郡岩泉町",
    "town": "上有芸"
  },
  "0270506": {
    "zipcode": "0270506",
    "prefectureCode": "03",
    "prefectureNumber": 3,
    "prefecture": "岩手県",
    "city": "下閉伊郡岩泉町",
    "town": "鼠入"
  },
  "0270507": {
    "zipcode": "0270507",
    "prefectureCode": "03",
    "prefectureNumber": 3,
    "prefecture": "岩手県",
    "city": "下閉伊郡岩泉町",
    "town": "二升石"
  },
  "0270508": {
    "zipcode": "0270508",
    "prefectureCode": "03",
    "prefectureNumber": 3,
    "prefecture": "岩手県",
    "city": "下閉伊郡岩泉町",
    "town": "尼額"
  },
  "0270611": {
    "zipcode": "0270611",
    "prefectureCode": "03",
    "prefectureNumber": 3,
    "prefecture": "岩手県",
    "city": "下閉伊郡岩泉町",
    "town": "安家"
  }
}
