{
  "0290131": {
    "zipcode": "0290131",
    "prefectureCode": "03",
    "prefectureNumber": 3,
    "prefecture": "岩手県",
    "city": "一関市",
    "town": "狐禅寺"
  },
  "0290132": {
    "zipcode": "0290132",
    "prefectureCode": "03",
    "prefectureNumber": 3,
    "prefecture": "岩手県",
    "city": "一関市",
    "town": "滝沢"
  },
  "0290201": {
    "zipcode": "0290201",
    "prefectureCode": "03",
    "prefectureNumber": 3,
    "prefecture": "岩手県",
    "city": "一関市",
    "town": "川崎町門崎"
  },
  "0290202": {
    "zipcode": "0290202",
    "prefectureCode": "03",
    "prefectureNumber": 3,
    "prefecture": "岩手県",
    "city": "一関市",
    "town": "川崎町薄衣"
  },
  "0290211": {
    "zipcode": "0290211",
    "prefectureCode": "03",
    "prefectureNumber": 3,
    "prefecture": "岩手県",
    "city": "一関市",
    "town": "弥栄"
  },
  "0290301": {
    "zipcode": "0290301",
    "prefectureCode": "03",
    "prefectureNumber": 3,
    "prefecture": "岩手県",
    "city": "一関市",
    "town": "東山町田河津"
  },
  "0290302": {
    "zipcode": "0290302",
    "prefectureCode": "03",
    "prefectureNumber": 3,
    "prefecture": "岩手県",
    "city": "一関市",
    "town": "東山町長坂"
  },
  "0290303": {
    "zipcode": "0290303",
    "prefectureCode": "03",
    "prefectureNumber": 3,
    "prefecture": "岩手県",
    "city": "一関市",
    "town": "東山町松川"
  },
  "0290431": {
    "zipcode": "0290431",
    "prefectureCode": "03",
    "prefectureNumber": 3,
    "prefecture": "岩手県",
    "city": "一関市",
    "town": "大東町猿沢"
  },
  "0290521": {
    "zipcode": "0290521",
    "prefectureCode": "03",
    "prefectureNumber": 3,
    "prefecture": "岩手県",
    "city": "一関市",
    "town": "大東町渋民"
  },
  "0290522": {
    "zipcode": "0290522",
    "prefectureCode": "03",
    "prefectureNumber": 3,
    "prefecture": "岩手県",
    "city": "一関市",
    "town": "大東町曽慶"
  },
  "0290523": {
    "zipcode": "0290523",
    "prefectureCode": "03",
    "prefectureNumber": 3,
    "prefecture": "岩手県",
    "city": "一関市",
    "town": "大東町摺沢"
  },
  "0290601": {
    "zipcode": "0290601",
    "prefectureCode": "03",
    "prefectureNumber": 3,
    "prefecture": "岩手県",
    "city": "一関市",
    "town": "大東町中川"
  },
  "0290602": {
    "zipcode": "0290602",
    "prefectureCode": "03",
    "prefectureNumber": 3,
    "prefecture": "岩手県",
    "city": "一関市",
    "town": "大東町鳥海"
  },
  "0290603": {
    "zipcode": "0290603",
    "prefectureCode": "03",
    "prefectureNumber": 3,
    "prefecture": "岩手県",
    "city": "一関市",
    "town": "大東町沖田"
  },
  "0290711": {
    "zipcode": "0290711",
    "prefectureCode": "03",
    "prefectureNumber": 3,
    "prefecture": "岩手県",
    "city": "一関市",
    "town": "大東町大原"
  },
  "0290801": {
    "zipcode": "0290801",
    "prefectureCode": "03",
    "prefectureNumber": 3,
    "prefecture": "岩手県",
    "city": "一関市",
    "town": "千厩町清田"
  },
  "0290802": {
    "zipcode": "0290802",
    "prefectureCode": "03",
    "prefectureNumber": 3,
    "prefecture": "岩手県",
    "city": "一関市",
    "town": "千厩町小梨"
  },
  "0290803": {
    "zipcode": "0290803",
    "prefectureCode": "03",
    "prefectureNumber": 3,
    "prefecture": "岩手県",
    "city": "一関市",
    "town": "千厩町千厩"
  },
  "0290804": {
    "zipcode": "0290804",
    "prefectureCode": "03",
    "prefectureNumber": 3,
    "prefecture": "岩手県",
    "city": "一関市",
    "town": "千厩町磐清水"
  },
  "0291111": {
    "zipcode": "0291111",
    "prefectureCode": "03",
    "prefectureNumber": 3,
    "prefecture": "岩手県",
    "city": "一関市",
    "town": "千厩町奥玉"
  },
  "0291201": {
    "zipcode": "0291201",
    "prefectureCode": "03",
    "prefectureNumber": 3,
    "prefecture": "岩手県",
    "city": "一関市",
    "town": "室根町折壁"
  },
  "0291202": {
    "zipcode": "0291202",
    "prefectureCode": "03",
    "prefectureNumber": 3,
    "prefecture": "岩手県",
    "city": "一関市",
    "town": "室根町矢越"
  },
  "0291211": {
    "zipcode": "0291211",
    "prefectureCode": "03",
    "prefectureNumber": 3,
    "prefecture": "岩手県",
    "city": "一関市",
    "town": "室根町津谷川"
  },
  "0292200": {
    "zipcode": "0292200",
    "prefectureCode": "03",
    "prefectureNumber": 3,
    "prefecture": "岩手県",
    "city": "陸前高田市",
    "town": "以下に掲載がない場合"
  },
  "0292201": {
    "zipcode": "0292201",
    "prefectureCode": "03",
    "prefectureNumber": 3,
    "prefecture": "岩手県",
    "city": "陸前高田市",
    "town": "矢作町"
  },
  "0292202": {
    "zipcode": "0292202",
    "prefectureCode": "03",
    "prefectureNumber": 3,
    "prefecture": "岩手県",
    "city": "陸前高田市",
    "town": "横田町"
  },
  "0292203": {
    "zipcode": "0292203",
    "prefectureCode": "03",
    "prefectureNumber": 3,
    "prefecture": "岩手県",
    "city": "陸前高田市",
    "town": "竹駒町"
  },
  "0292204": {
    "zipcode": "0292204",
    "prefectureCode": "03",
    "prefectureNumber": 3,
    "prefecture": "岩手県",
    "city": "陸前高田市",
    "town": "気仙町"
  },
  "0292205": {
    "zipcode": "0292205",
    "prefectureCode": "03",
    "prefectureNumber": 3,
    "prefecture": "岩手県",
    "city": "陸前高田市",
    "town": "高田町"
  },
  "0292206": {
    "zipcode": "0292206",
    "prefectureCode": "03",
    "prefectureNumber": 3,
    "prefecture": "岩手県",
    "city": "陸前高田市",
    "town": "米崎町"
  },
  "0292207": {
    "zipcode": "0292207",
    "prefectureCode": "03",
    "prefectureNumber": 3,
    "prefecture": "岩手県",
    "city": "陸前高田市",
    "town": "小友町"
  },
  "0292208": {
    "zipcode": "0292208",
    "prefectureCode": "03",
    "prefectureNumber": 3,
    "prefecture": "岩手県",
    "city": "陸前高田市",
    "town": "広田町"
  },
  "0292300": {
    "zipcode": "0292300",
    "prefectureCode": "03",
    "prefectureNumber": 3,
    "prefecture": "岩手県",
    "city": "気仙郡住田町",
    "town": "以下に掲載がない場合"
  },
  "0292311": {
    "zipcode": "0292311",
    "prefectureCode": "03",
    "prefectureNumber": 3,
    "prefecture": "岩手県",
    "city": "気仙郡住田町",
    "town": "世田米"
  },
  "0292501": {
    "zipcode": "0292501",
    "prefectureCode": "03",
    "prefectureNumber": 3,
    "prefecture": "岩手県",
    "city": "気仙郡住田町",
    "town": "上有住"
  },
  "0292502": {
    "zipcode": "0292502",
    "prefectureCode": "03",
    "prefectureNumber": 3,
    "prefecture": "岩手県",
    "city": "気仙郡住田町",
    "town": "下有住"
  },
  "0293101": {
    "zipcode": "0293101",
    "prefectureCode": "03",
    "prefectureNumber": 3,
    "prefecture": "岩手県",
    "city": "一関市",
    "town": "花泉町花泉"
  },
  "0293102": {
    "zipcode": "0293102",
    "prefectureCode": "03",
    "prefectureNumber": 3,
    "prefecture": "岩手県",
    "city": "一関市",
    "town": "花泉町金沢"
  },
  "0293103": {
    "zipcode": "0293103",
    "prefectureCode": "03",
    "prefectureNumber": 3,
    "prefecture": "岩手県",
    "city": "一関市",
    "town": "花泉町老松"
  },
  "0293104": {
    "zipcode": "0293104",
    "prefectureCode": "03",
    "prefectureNumber": 3,
    "prefecture": "岩手県",
    "city": "一関市",
    "town": "花泉町日形"
  },
  "0293105": {
    "zipcode": "0293105",
    "prefectureCode": "03",
    "prefectureNumber": 3,
    "prefecture": "岩手県",
    "city": "一関市",
    "town": "花泉町涌津（一ノ町、二ノ町、上原、境、古川、道下）"
  },
  "0293205": {
    "zipcode": "0293205",
    "prefectureCode": "03",
    "prefectureNumber": 3,
    "prefecture": "岩手県",
    "city": "一関市",
    "town": "花泉町涌津（その他）"
  },
  "0293206": {
    "zipcode": "0293206",
    "prefectureCode": "03",
    "prefectureNumber": 3,
    "prefecture": "岩手県",
    "city": "一関市",
    "town": "花泉町永井"
  },
  "0293207": {
    "zipcode": "0293207",
    "prefectureCode": "03",
    "prefectureNumber": 3,
    "prefecture": "岩手県",
    "city": "一関市",
    "town": "花泉町油島"
  },
  "0293311": {
    "zipcode": "0293311",
    "prefectureCode": "03",
    "prefectureNumber": 3,
    "prefecture": "岩手県",
    "city": "一関市",
    "town": "藤沢町黄海"
  },
  "0293401": {
    "zipcode": "0293401",
    "prefectureCode": "03",
    "prefectureNumber": 3,
    "prefecture": "岩手県",
    "city": "一関市",
    "town": "藤沢町増沢"
  },
  "0293402": {
    "zipcode": "0293402",
    "prefectureCode": "03",
    "prefectureNumber": 3,
    "prefecture": "岩手県",
    "city": "一関市",
    "town": "藤沢町新沼"
  },
  "0293403": {
    "zipcode": "0293403",
    "prefectureCode": "03",
    "prefectureNumber": 3,
    "prefecture": "岩手県",
    "city": "一関市",
    "town": "藤沢町砂子田"
  },
  "0293404": {
    "zipcode": "0293404",
    "prefectureCode": "03",
    "prefectureNumber": 3,
    "prefecture": "岩手県",
    "city": "一関市",
    "town": "藤沢町徳田"
  },
  "0293405": {
    "zipcode": "0293405",
    "prefectureCode": "03",
    "prefectureNumber": 3,
    "prefecture": "岩手県",
    "city": "一関市",
    "town": "藤沢町藤沢"
  },
  "0293406": {
    "zipcode": "0293406",
    "prefectureCode": "03",
    "prefectureNumber": 3,
    "prefecture": "岩手県",
    "city": "一関市",
    "town": "藤沢町西口"
  },
  "0293521": {
    "zipcode": "0293521",
    "prefectureCode": "03",
    "prefectureNumber": 3,
    "prefecture": "岩手県",
    "city": "一関市",
    "town": "藤沢町保呂羽"
  },
  "0293522": {
    "zipcode": "0293522",
    "prefectureCode": "03",
    "prefectureNumber": 3,
    "prefecture": "岩手県",
    "city": "一関市",
    "town": "藤沢町大籠"
  },
  "0294100": {
    "zipcode": "0294100",
    "prefectureCode": "03",
    "prefectureNumber": 3,
    "prefecture": "岩手県",
    "city": "西磐井郡平泉町",
    "town": "以下に掲載がない場合"
  },
  "0294101": {
    "zipcode": "0294101",
    "prefectureCode": "03",
    "prefectureNumber": 3,
    "prefecture": "岩手県",
    "city": "西磐井郡平泉町",
    "town": "長島"
  },
  "0294102": {
    "zipcode": "0294102",
    "prefectureCode": "03",
    "prefectureNumber": 3,
    "prefecture": "岩手県",
    "city": "西磐井郡平泉町",
    "town": "平泉"
  },
  "0294201": {
    "zipcode": "0294201",
    "prefectureCode": "03",
    "prefectureNumber": 3,
    "prefecture": "岩手県",
    "city": "奥州市",
    "town": "前沢古城"
  },
  "0294202": {
    "zipcode": "0294202",
    "prefectureCode": "03",
    "prefectureNumber": 3,
    "prefecture": "岩手県",
    "city": "奥州市",
    "town": "前沢白山"
  },
  "0294203": {
    "zipcode": "0294203",
    "prefectureCode": "03",
    "prefectureNumber": 3,
    "prefecture": "岩手県",
    "city": "奥州市",
    "town": "前沢生母"
  },
  "0294204": {
    "zipcode": "0294204",
    "prefectureCode": "03",
    "prefectureNumber": 3,
    "prefecture": "岩手県",
    "city": "奥州市",
    "town": "前沢八幡前"
  },
  "0294205": {
    "zipcode": "0294205",
    "prefectureCode": "03",
    "prefectureNumber": 3,
    "prefecture": "岩手県",
    "city": "奥州市",
    "town": "前沢六本松"
  },
  "0294206": {
    "zipcode": "0294206",
    "prefectureCode": "03",
    "prefectureNumber": 3,
    "prefecture": "岩手県",
    "city": "奥州市",
    "town": "前沢養ケ森"
  },
  "0294207": {
    "zipcode": "0294207",
    "prefectureCode": "03",
    "prefectureNumber": 3,
    "prefecture": "岩手県",
    "city": "奥州市",
    "town": "前沢屋敷"
  },
  "0294208": {
    "zipcode": "0294208",
    "prefectureCode": "03",
    "prefectureNumber": 3,
    "prefecture": "岩手県",
    "city": "奥州市",
    "town": "前沢山下"
  },
  "0294209": {
    "zipcode": "0294209",
    "prefectureCode": "03",
    "prefectureNumber": 3,
    "prefecture": "岩手県",
    "city": "奥州市",
    "town": "前沢あすか通"
  },
  "0294211": {
    "zipcode": "0294211",
    "prefectureCode": "03",
    "prefectureNumber": 3,
    "prefecture": "岩手県",
    "city": "奥州市",
    "town": "前沢駅東"
  },
  "0294303": {
    "zipcode": "0294303",
    "prefectureCode": "03",
    "prefectureNumber": 3,
    "prefecture": "岩手県",
    "city": "奥州市",
    "town": "衣川衣原"
  },
  "0294304": {
    "zipcode": "0294304",
    "prefectureCode": "03",
    "prefectureNumber": 3,
    "prefecture": "岩手県",
    "city": "奥州市",
    "town": "衣川外の沢"
  },
  "0294305": {
    "zipcode": "0294305",
    "prefectureCode": "03",
    "prefectureNumber": 3,
    "prefecture": "岩手県",
    "city": "奥州市",
    "town": "衣川長袋"
  },
  "0294306": {
    "zipcode": "0294306",
    "prefectureCode": "03",
    "prefectureNumber": 3,
    "prefecture": "岩手県",
    "city": "奥州市",
    "town": "衣川小田"
  },
  "0294307": {
    "zipcode": "0294307",
    "prefectureCode": "03",
    "prefectureNumber": 3,
    "prefecture": "岩手県",
    "city": "奥州市",
    "town": "衣川有浦"
  },
  "0294308": {
    "zipcode": "0294308",
    "prefectureCode": "03",
    "prefectureNumber": 3,
    "prefecture": "岩手県",
    "city": "奥州市",
    "town": "衣川大平"
  },
  "0294311": {
    "zipcode": "0294311",
    "prefectureCode": "03",
    "prefectureNumber": 3,
    "prefecture": "岩手県",
    "city": "奥州市",
    "town": "衣川古館"
  },
  "0294312": {
    "zipcode": "0294312",
    "prefectureCode": "03",
    "prefectureNumber": 3,
    "prefecture": "岩手県",
    "city": "奥州市",
    "town": "衣川西窪"
  },
  "0294313": {
    "zipcode": "0294313",
    "prefectureCode": "03",
    "prefectureNumber": 3,
    "prefecture": "岩手県",
    "city": "奥州市",
    "town": "衣川石生"
  },
  "0294314": {
    "zipcode": "0294314",
    "prefectureCode": "03",
    "prefectureNumber": 3,
    "prefecture": "岩手県",
    "city": "奥州市",
    "town": "衣川中屋敷"
  },
  "0294315": {
    "zipcode": "0294315",
    "prefectureCode": "03",
    "prefectureNumber": 3,
    "prefecture": "岩手県",
    "city": "奥州市",
    "town": "衣川天田"
  },
  "0294316": {
    "zipcode": "0294316",
    "prefectureCode": "03",
    "prefectureNumber": 3,
    "prefecture": "岩手県",
    "city": "奥州市",
    "town": "衣川苗代沢"
  },
  "0294317": {
    "zipcode": "0294317",
    "prefectureCode": "03",
    "prefectureNumber": 3,
    "prefecture": "岩手県",
    "city": "奥州市",
    "town": "衣川桑畑"
  },
  "0294321": {
    "zipcode": "0294321",
    "prefectureCode": "03",
    "prefectureNumber": 3,
    "prefecture": "岩手県",
    "city": "奥州市",
    "town": "衣川雲南田"
  },
  "0294322": {
    "zipcode": "0294322",
    "prefectureCode": "03",
    "prefectureNumber": 3,
    "prefecture": "岩手県",
    "city": "奥州市",
    "town": "衣川板倉"
  },
  "0294323": {
    "zipcode": "0294323",
    "prefectureCode": "03",
    "prefectureNumber": 3,
    "prefecture": "岩手県",
    "city": "奥州市",
    "town": "衣川小安代"
  },
  "0294324": {
    "zipcode": "0294324",
    "prefectureCode": "03",
    "prefectureNumber": 3,
    "prefecture": "岩手県",
    "city": "奥州市",
    "town": "衣川正板"
  },
  "0294325": {
    "zipcode": "0294325",
    "prefectureCode": "03",
    "prefectureNumber": 3,
    "prefecture": "岩手県",
    "city": "奥州市",
    "town": "衣川小正板"
  },
  "0294326": {
    "zipcode": "0294326",
    "prefectureCode": "03",
    "prefectureNumber": 3,
    "prefecture": "岩手県",
    "city": "奥州市",
    "town": "衣川懸田"
  },
  "0294327": {
    "zipcode": "0294327",
    "prefectureCode": "03",
    "prefectureNumber": 3,
    "prefecture": "岩手県",
    "city": "奥州市",
    "town": "衣川馬懸"
  },
  "0294328": {
    "zipcode": "0294328",
    "prefectureCode": "03",
    "prefectureNumber": 3,
    "prefecture": "岩手県",
    "city": "奥州市",
    "town": "衣川下寺田"
  },
  "0294329": {
    "zipcode": "0294329",
    "prefectureCode": "03",
    "prefectureNumber": 3,
    "prefecture": "岩手県",
    "city": "奥州市",
    "town": "衣川上寺田"
  },
  "0294331": {
    "zipcode": "0294331",
    "prefectureCode": "03",
    "prefectureNumber": 3,
    "prefecture": "岩手県",
    "city": "奥州市",
    "town": "衣川深沢"
  },
  "0294332": {
    "zipcode": "0294332",
    "prefectureCode": "03",
    "prefectureNumber": 3,
    "prefecture": "岩手県",
    "city": "奥州市",
    "town": "衣川古戸"
  },
  "0294333": {
    "zipcode": "0294333",
    "prefectureCode": "03",
    "prefectureNumber": 3,
    "prefecture": "岩手県",
    "city": "奥州市",
    "town": "衣川駒場"
  },
  "0294334": {
    "zipcode": "0294334",
    "prefectureCode": "03",
    "prefectureNumber": 3,
    "prefecture": "岩手県",
    "city": "奥州市",
    "town": "衣川百ヶ袋"
  },
  "0294341": {
    "zipcode": "0294341",
    "prefectureCode": "03",
    "prefectureNumber": 3,
    "prefecture": "岩手県",
    "city": "奥州市",
    "town": "衣川六道"
  },
  "0294342": {
    "zipcode": "0294342",
    "prefectureCode": "03",
    "prefectureNumber": 3,
    "prefecture": "岩手県",
    "city": "奥州市",
    "town": "衣川高保呂"
  },
  "0294343": {
    "zipcode": "0294343",
    "prefectureCode": "03",
    "prefectureNumber": 3,
    "prefecture": "岩手県",
    "city": "奥州市",
    "town": "衣川能登屋敷"
  },
  "0294344": {
    "zipcode": "0294344",
    "prefectureCode": "03",
    "prefectureNumber": 3,
    "prefecture": "岩手県",
    "city": "奥州市",
    "town": "衣川沢田"
  },
  "0294345": {
    "zipcode": "0294345",
    "prefectureCode": "03",
    "prefectureNumber": 3,
    "prefecture": "岩手県",
    "city": "奥州市",
    "town": "衣川館城"
  },
  "0294346": {
    "zipcode": "0294346",
    "prefectureCode": "03",
    "prefectureNumber": 3,
    "prefecture": "岩手県",
    "city": "奥州市",
    "town": "衣川豊巻"
  },
  "0294347": {
    "zipcode": "0294347",
    "prefectureCode": "03",
    "prefectureNumber": 3,
    "prefecture": "岩手県",
    "city": "奥州市",
    "town": "衣川大西"
  },
  "0294348": {
    "zipcode": "0294348",
    "prefectureCode": "03",
    "prefectureNumber": 3,
    "prefecture": "岩手県",
    "city": "奥州市",
    "town": "衣川杉野"
  },
  "0294351": {
    "zipcode": "0294351",
    "prefectureCode": "03",
    "prefectureNumber": 3,
    "prefecture": "岩手県",
    "city": "奥州市",
    "town": "衣川夏秋"
  },
  "0294352": {
    "zipcode": "0294352",
    "prefectureCode": "03",
    "prefectureNumber": 3,
    "prefecture": "岩手県",
    "city": "奥州市",
    "town": "衣川岩の上"
  },
  "0294353": {
    "zipcode": "0294353",
    "prefectureCode": "03",
    "prefectureNumber": 3,
    "prefecture": "岩手県",
    "city": "奥州市",
    "town": "衣川旧殿"
  },
  "0294354": {
    "zipcode": "0294354",
    "prefectureCode": "03",
    "prefectureNumber": 3,
    "prefecture": "岩手県",
    "city": "奥州市",
    "town": "衣川除"
  },
  "0294355": {
    "zipcode": "0294355",
    "prefectureCode": "03",
    "prefectureNumber": 3,
    "prefecture": "岩手県",
    "city": "奥州市",
    "town": "衣川山岸"
  },
  "0294361": {
    "zipcode": "0294361",
    "prefectureCode": "03",
    "prefectureNumber": 3,
    "prefecture": "岩手県",
    "city": "奥州市",
    "town": "衣川長嚢"
  },
  "0294362": {
    "zipcode": "0294362",
    "prefectureCode": "03",
    "prefectureNumber": 3,
    "prefecture": "岩手県",
    "city": "奥州市",
    "town": "衣川小林山"
  },
  "0294363": {
    "zipcode": "0294363",
    "prefectureCode": "03",
    "prefectureNumber": 3,
    "prefecture": "岩手県",
    "city": "奥州市",
    "town": "衣川夏梨"
  },
  "0294364": {
    "zipcode": "0294364",
    "prefectureCode": "03",
    "prefectureNumber": 3,
    "prefecture": "岩手県",
    "city": "奥州市",
    "town": "衣川西風山"
  },
  "0294365": {
    "zipcode": "0294365",
    "prefectureCode": "03",
    "prefectureNumber": 3,
    "prefecture": "岩手県",
    "city": "奥州市",
    "town": "衣川天土"
  },
  "0294371": {
    "zipcode": "0294371",
    "prefectureCode": "03",
    "prefectureNumber": 3,
    "prefecture": "岩手県",
    "city": "奥州市",
    "town": "衣川桧山沢"
  },
  "0294372": {
    "zipcode": "0294372",
    "prefectureCode": "03",
    "prefectureNumber": 3,
    "prefecture": "岩手県",
    "city": "奥州市",
    "town": "衣川松林"
  },
  "0294373": {
    "zipcode": "0294373",
    "prefectureCode": "03",
    "prefectureNumber": 3,
    "prefecture": "岩手県",
    "city": "奥州市",
    "town": "衣川山田"
  },
  "0294374": {
    "zipcode": "0294374",
    "prefectureCode": "03",
    "prefectureNumber": 3,
    "prefecture": "岩手県",
    "city": "奥州市",
    "town": "衣川桧山沢山"
  },
  "0294375": {
    "zipcode": "0294375",
    "prefectureCode": "03",
    "prefectureNumber": 3,
    "prefecture": "岩手県",
    "city": "奥州市",
    "town": "衣川鞍掛"
  },
  "0294376": {
    "zipcode": "0294376",
    "prefectureCode": "03",
    "prefectureNumber": 3,
    "prefecture": "岩手県",
    "city": "奥州市",
    "town": "衣川本巻"
  },
  "0294377": {
    "zipcode": "0294377",
    "prefectureCode": "03",
    "prefectureNumber": 3,
    "prefecture": "岩手県",
    "city": "奥州市",
    "town": "衣川後山"
  },
  "0294378": {
    "zipcode": "0294378",
    "prefectureCode": "03",
    "prefectureNumber": 3,
    "prefecture": "岩手県",
    "city": "奥州市",
    "town": "衣川菖蒲平"
  },
  "0294381": {
    "zipcode": "0294381",
    "prefectureCode": "03",
    "prefectureNumber": 3,
    "prefecture": "岩手県",
    "city": "奥州市",
    "town": "衣川石ヶ沢"
  },
  "0294382": {
    "zipcode": "0294382",
    "prefectureCode": "03",
    "prefectureNumber": 3,
    "prefecture": "岩手県",
    "city": "奥州市",
    "town": "衣川関袋"
  },
  "0294383": {
    "zipcode": "0294383",
    "prefectureCode": "03",
    "prefectureNumber": 3,
    "prefecture": "岩手県",
    "city": "奥州市",
    "town": "衣川沖の野"
  },
  "0294384": {
    "zipcode": "0294384",
    "prefectureCode": "03",
    "prefectureNumber": 3,
    "prefecture": "岩手県",
    "city": "奥州市",
    "town": "衣川石神"
  },
  "0294385": {
    "zipcode": "0294385",
    "prefectureCode": "03",
    "prefectureNumber": 3,
    "prefecture": "岩手県",
    "city": "奥州市",
    "town": "衣川富沢"
  },
  "0294386": {
    "zipcode": "0294386",
    "prefectureCode": "03",
    "prefectureNumber": 3,
    "prefecture": "岩手県",
    "city": "奥州市",
    "town": "衣川女石"
  },
  "0294387": {
    "zipcode": "0294387",
    "prefectureCode": "03",
    "prefectureNumber": 3,
    "prefecture": "岩手県",
    "city": "奥州市",
    "town": "衣川下大森"
  },
  "0294388": {
    "zipcode": "0294388",
    "prefectureCode": "03",
    "prefectureNumber": 3,
    "prefecture": "岩手県",
    "city": "奥州市",
    "town": "衣川上大森"
  },
  "0294389": {
    "zipcode": "0294389",
    "prefectureCode": "03",
    "prefectureNumber": 3,
    "prefecture": "岩手県",
    "city": "奥州市",
    "town": "衣川長板沢"
  },
  "0294401": {
    "zipcode": "0294401",
    "prefectureCode": "03",
    "prefectureNumber": 3,
    "prefecture": "岩手県",
    "city": "奥州市",
    "town": "衣川張山"
  },
  "0294402": {
    "zipcode": "0294402",
    "prefectureCode": "03",
    "prefectureNumber": 3,
    "prefecture": "岩手県",
    "city": "奥州市",
    "town": "衣川星屋"
  },
  "0294403": {
    "zipcode": "0294403",
    "prefectureCode": "03",
    "prefectureNumber": 3,
    "prefecture": "岩手県",
    "city": "奥州市",
    "town": "衣川本田原"
  },
  "0294404": {
    "zipcode": "0294404",
    "prefectureCode": "03",
    "prefectureNumber": 3,
    "prefecture": "岩手県",
    "city": "奥州市",
    "town": "衣川寺袋"
  },
  "0294405": {
    "zipcode": "0294405",
    "prefectureCode": "03",
    "prefectureNumber": 3,
    "prefecture": "岩手県",
    "city": "奥州市",
    "town": "衣川桑木谷地"
  },
  "0294406": {
    "zipcode": "0294406",
    "prefectureCode": "03",
    "prefectureNumber": 3,
    "prefecture": "岩手県",
    "city": "奥州市",
    "town": "衣川大坂"
  },
  "0294407": {
    "zipcode": "0294407",
    "prefectureCode": "03",
    "prefectureNumber": 3,
    "prefecture": "岩手県",
    "city": "奥州市",
    "town": "衣川金成"
  },
  "0294408": {
    "zipcode": "0294408",
    "prefectureCode": "03",
    "prefectureNumber": 3,
    "prefecture": "岩手県",
    "city": "奥州市",
    "town": "衣川土屋"
  },
  "0294411": {
    "zipcode": "0294411",
    "prefectureCode": "03",
    "prefectureNumber": 3,
    "prefecture": "岩手県",
    "city": "奥州市",
    "town": "衣川上小路"
  },
  "0294412": {
    "zipcode": "0294412",
    "prefectureCode": "03",
    "prefectureNumber": 3,
    "prefecture": "岩手県",
    "city": "奥州市",
    "town": "衣川富田"
  },
  "0294413": {
    "zipcode": "0294413",
    "prefectureCode": "03",
    "prefectureNumber": 3,
    "prefecture": "岩手県",
    "city": "奥州市",
    "town": "衣川堰下"
  },
  "0294414": {
    "zipcode": "0294414",
    "prefectureCode": "03",
    "prefectureNumber": 3,
    "prefecture": "岩手県",
    "city": "奥州市",
    "town": "衣川野田"
  },
  "0294415": {
    "zipcode": "0294415",
    "prefectureCode": "03",
    "prefectureNumber": 3,
    "prefecture": "岩手県",
    "city": "奥州市",
    "town": "衣川向館谷起"
  },
  "0294416": {
    "zipcode": "0294416",
    "prefectureCode": "03",
    "prefectureNumber": 3,
    "prefecture": "岩手県",
    "city": "奥州市",
    "town": "衣川向館"
  },
  "0294417": {
    "zipcode": "0294417",
    "prefectureCode": "03",
    "prefectureNumber": 3,
    "prefecture": "岩手県",
    "city": "奥州市",
    "town": "衣川富田前"
  },
  "0294418": {
    "zipcode": "0294418",
    "prefectureCode": "03",
    "prefectureNumber": 3,
    "prefecture": "岩手県",
    "city": "奥州市",
    "town": "衣川杉林"
  },
  "0294419": {
    "zipcode": "0294419",
    "prefectureCode": "03",
    "prefectureNumber": 3,
    "prefecture": "岩手県",
    "city": "奥州市",
    "town": "衣川大面"
  },
  "0294421": {
    "zipcode": "0294421",
    "prefectureCode": "03",
    "prefectureNumber": 3,
    "prefecture": "岩手県",
    "city": "奥州市",
    "town": "衣川日向"
  },
  "0294422": {
    "zipcode": "0294422",
    "prefectureCode": "03",
    "prefectureNumber": 3,
    "prefecture": "岩手県",
    "city": "奥州市",
    "town": "衣川瀬原"
  },
  "0294423": {
    "zipcode": "0294423",
    "prefectureCode": "03",
    "prefectureNumber": 3,
    "prefecture": "岩手県",
    "city": "奥州市",
    "town": "衣川瀬原西浦"
  },
  "0294424": {
    "zipcode": "0294424",
    "prefectureCode": "03",
    "prefectureNumber": 3,
    "prefecture": "岩手県",
    "city": "奥州市",
    "town": "衣川九輪堂"
  },
  "0294425": {
    "zipcode": "0294425",
    "prefectureCode": "03",
    "prefectureNumber": 3,
    "prefecture": "岩手県",
    "city": "奥州市",
    "town": "衣川采女沢"
  },
  "0294426": {
    "zipcode": "0294426",
    "prefectureCode": "03",
    "prefectureNumber": 3,
    "prefecture": "岩手県",
    "city": "奥州市",
    "town": "衣川愛宕下"
  },
  "0294427": {
    "zipcode": "0294427",
    "prefectureCode": "03",
    "prefectureNumber": 3,
    "prefecture": "岩手県",
    "city": "奥州市",
    "town": "衣川陣場下"
  },
  "0294431": {
    "zipcode": "0294431",
    "prefectureCode": "03",
    "prefectureNumber": 3,
    "prefecture": "岩手県",
    "city": "奥州市",
    "town": "衣川田中"
  },
  "0294432": {
    "zipcode": "0294432",
    "prefectureCode": "03",
    "prefectureNumber": 3,
    "prefecture": "岩手県",
    "city": "奥州市",
    "town": "衣川小林"
  },
  "0294433": {
    "zipcode": "0294433",
    "prefectureCode": "03",
    "prefectureNumber": 3,
    "prefecture": "岩手県",
    "city": "奥州市",
    "town": "衣川池田西"
  },
  "0294434": {
    "zipcode": "0294434",
    "prefectureCode": "03",
    "prefectureNumber": 3,
    "prefecture": "岩手県",
    "city": "奥州市",
    "town": "衣川池田"
  },
  "0294435": {
    "zipcode": "0294435",
    "prefectureCode": "03",
    "prefectureNumber": 3,
    "prefecture": "岩手県",
    "city": "奥州市",
    "town": "衣川押切"
  },
  "0294436": {
    "zipcode": "0294436",
    "prefectureCode": "03",
    "prefectureNumber": 3,
    "prefecture": "岩手県",
    "city": "奥州市",
    "town": "衣川大石ヶ沢"
  },
  "0294437": {
    "zipcode": "0294437",
    "prefectureCode": "03",
    "prefectureNumber": 3,
    "prefecture": "岩手県",
    "city": "奥州市",
    "town": "衣川唐金"
  },
  "0294438": {
    "zipcode": "0294438",
    "prefectureCode": "03",
    "prefectureNumber": 3,
    "prefecture": "岩手県",
    "city": "奥州市",
    "town": "衣川室の木"
  },
  "0294439": {
    "zipcode": "0294439",
    "prefectureCode": "03",
    "prefectureNumber": 3,
    "prefecture": "岩手県",
    "city": "奥州市",
    "town": "衣川田中西"
  },
  "0294441": {
    "zipcode": "0294441",
    "prefectureCode": "03",
    "prefectureNumber": 3,
    "prefecture": "岩手県",
    "city": "奥州市",
    "town": "衣川並木前"
  },
  "0294442": {
    "zipcode": "0294442",
    "prefectureCode": "03",
    "prefectureNumber": 3,
    "prefecture": "岩手県",
    "city": "奥州市",
    "town": "衣川上野"
  },
  "0294443": {
    "zipcode": "0294443",
    "prefectureCode": "03",
    "prefectureNumber": 3,
    "prefecture": "岩手県",
    "city": "奥州市",
    "town": "衣川六日市場"
  },
  "0294444": {
    "zipcode": "0294444",
    "prefectureCode": "03",
    "prefectureNumber": 3,
    "prefecture": "岩手県",
    "city": "奥州市",
    "town": "衣川清水の上"
  },
  "0294445": {
    "zipcode": "0294445",
    "prefectureCode": "03",
    "prefectureNumber": 3,
    "prefecture": "岩手県",
    "city": "奥州市",
    "town": "衣川七日市場"
  },
  "0294446": {
    "zipcode": "0294446",
    "prefectureCode": "03",
    "prefectureNumber": 3,
    "prefecture": "岩手県",
    "city": "奥州市",
    "town": "衣川川端"
  },
  "0294451": {
    "zipcode": "0294451",
    "prefectureCode": "03",
    "prefectureNumber": 3,
    "prefecture": "岩手県",
    "city": "奥州市",
    "town": "衣川東裏"
  },
  "0294452": {
    "zipcode": "0294452",
    "prefectureCode": "03",
    "prefectureNumber": 3,
    "prefecture": "岩手県",
    "city": "奥州市",
    "town": "衣川月山"
  },
  "0294453": {
    "zipcode": "0294453",
    "prefectureCode": "03",
    "prefectureNumber": 3,
    "prefecture": "岩手県",
    "city": "奥州市",
    "town": "衣川山口"
  },
  "0294454": {
    "zipcode": "0294454",
    "prefectureCode": "03",
    "prefectureNumber": 3,
    "prefecture": "岩手県",
    "city": "奥州市",
    "town": "衣川表"
  },
  "0294455": {
    "zipcode": "0294455",
    "prefectureCode": "03",
    "prefectureNumber": 3,
    "prefecture": "岩手県",
    "city": "奥州市",
    "town": "衣川横道下"
  },
  "0294456": {
    "zipcode": "0294456",
    "prefectureCode": "03",
    "prefectureNumber": 3,
    "prefecture": "岩手県",
    "city": "奥州市",
    "town": "衣川西裏"
  },
  "0294461": {
    "zipcode": "0294461",
    "prefectureCode": "03",
    "prefectureNumber": 3,
    "prefecture": "岩手県",
    "city": "奥州市",
    "town": "衣川平"
  },
  "0294462": {
    "zipcode": "0294462",
    "prefectureCode": "03",
    "prefectureNumber": 3,
    "prefecture": "岩手県",
    "city": "奥州市",
    "town": "衣川八千"
  },
  "0294463": {
    "zipcode": "0294463",
    "prefectureCode": "03",
    "prefectureNumber": 3,
    "prefecture": "岩手県",
    "city": "奥州市",
    "town": "衣川葭ヶ沢"
  },
  "0294464": {
    "zipcode": "0294464",
    "prefectureCode": "03",
    "prefectureNumber": 3,
    "prefecture": "岩手県",
    "city": "奥州市",
    "town": "衣川前滝の沢"
  },
  "0294465": {
    "zipcode": "0294465",
    "prefectureCode": "03",
    "prefectureNumber": 3,
    "prefecture": "岩手県",
    "city": "奥州市",
    "town": "衣川後滝の沢"
  },
  "0294471": {
    "zipcode": "0294471",
    "prefectureCode": "03",
    "prefectureNumber": 3,
    "prefecture": "岩手県",
    "city": "奥州市",
    "town": "衣川下河内"
  },
  "0294472": {
    "zipcode": "0294472",
    "prefectureCode": "03",
    "prefectureNumber": 3,
    "prefecture": "岩手県",
    "city": "奥州市",
    "town": "衣川中河内"
  },
  "0294473": {
    "zipcode": "0294473",
    "prefectureCode": "03",
    "prefectureNumber": 3,
    "prefecture": "岩手県",
    "city": "奥州市",
    "town": "衣川向"
  },
  "0294474": {
    "zipcode": "0294474",
    "prefectureCode": "03",
    "prefectureNumber": 3,
    "prefecture": "岩手県",
    "city": "奥州市",
    "town": "衣川上河内"
  },
  "0294475": {
    "zipcode": "0294475",
    "prefectureCode": "03",
    "prefectureNumber": 3,
    "prefecture": "岩手県",
    "city": "奥州市",
    "town": "衣川中山"
  },
  "0294481": {
    "zipcode": "0294481",
    "prefectureCode": "03",
    "prefectureNumber": 3,
    "prefecture": "岩手県",
    "city": "奥州市",
    "town": "衣川畦畑山"
  },
  "0294482": {
    "zipcode": "0294482",
    "prefectureCode": "03",
    "prefectureNumber": 3,
    "prefecture": "岩手県",
    "city": "奥州市",
    "town": "衣川畦畑"
  },
  "0294483": {
    "zipcode": "0294483",
    "prefectureCode": "03",
    "prefectureNumber": 3,
    "prefecture": "岩手県",
    "city": "奥州市",
    "town": "衣川沼野"
  },
  "0294484": {
    "zipcode": "0294484",
    "prefectureCode": "03",
    "prefectureNumber": 3,
    "prefecture": "岩手県",
    "city": "奥州市",
    "town": "衣川噌味"
  },
  "0294485": {
    "zipcode": "0294485",
    "prefectureCode": "03",
    "prefectureNumber": 3,
    "prefecture": "岩手県",
    "city": "奥州市",
    "town": "衣川宝塔谷地"
  },
  "0294486": {
    "zipcode": "0294486",
    "prefectureCode": "03",
    "prefectureNumber": 3,
    "prefecture": "岩手県",
    "city": "奥州市",
    "town": "衣川鷹の巣"
  },
  "0294487": {
    "zipcode": "0294487",
    "prefectureCode": "03",
    "prefectureNumber": 3,
    "prefecture": "岩手県",
    "city": "奥州市",
    "town": "衣川大原山"
  },
  "0294488": {
    "zipcode": "0294488",
    "prefectureCode": "03",
    "prefectureNumber": 3,
    "prefecture": "岩手県",
    "city": "奥州市",
    "town": "衣川大原"
  },
  "0294491": {
    "zipcode": "0294491",
    "prefectureCode": "03",
    "prefectureNumber": 3,
    "prefecture": "岩手県",
    "city": "奥州市",
    "town": "衣川上立沢"
  },
  "0294492": {
    "zipcode": "0294492",
    "prefectureCode": "03",
    "prefectureNumber": 3,
    "prefecture": "岩手県",
    "city": "奥州市",
    "town": "衣川下立沢"
  },
  "0294493": {
    "zipcode": "0294493",
    "prefectureCode": "03",
    "prefectureNumber": 3,
    "prefecture": "岩手県",
    "city": "奥州市",
    "town": "衣川野崎"
  },
  "0294494": {
    "zipcode": "0294494",
    "prefectureCode": "03",
    "prefectureNumber": 3,
    "prefecture": "岩手県",
    "city": "奥州市",
    "town": "衣川楢原山"
  },
  "0294495": {
    "zipcode": "0294495",
    "prefectureCode": "03",
    "prefectureNumber": 3,
    "prefecture": "岩手県",
    "city": "奥州市",
    "town": "衣川楢原"
  },
  "0294496": {
    "zipcode": "0294496",
    "prefectureCode": "03",
    "prefectureNumber": 3,
    "prefecture": "岩手県",
    "city": "奥州市",
    "town": "衣川真打"
  },
  "0294497": {
    "zipcode": "0294497",
    "prefectureCode": "03",
    "prefectureNumber": 3,
    "prefecture": "岩手県",
    "city": "奥州市",
    "town": "衣川餅転"
  },
  "0294500": {
    "zipcode": "0294500",
    "prefectureCode": "03",
    "prefectureNumber": 3,
    "prefecture": "岩手県",
    "city": "胆沢郡金ケ崎町",
    "town": "以下に掲載がない場合"
  },
  "0294501": {
    "zipcode": "0294501",
    "prefectureCode": "03",
    "prefectureNumber": 3,
    "prefecture": "岩手県",
    "city": "胆沢郡金ケ崎町",
    "town": "六原"
  },
  "0294502": {
    "zipcode": "0294502",
    "prefectureCode": "03",
    "prefectureNumber": 3,
    "prefecture": "岩手県",
    "city": "胆沢郡金ケ崎町",
    "town": "三ケ尻"
  },
  "0294503": {
    "zipcode": "0294503",
    "prefectureCode": "03",
    "prefectureNumber": 3,
    "prefecture": "岩手県",
    "city": "胆沢郡金ケ崎町",
    "town": "西根"
  },
  "0294504": {
    "zipcode": "0294504",
    "prefectureCode": "03",
    "prefectureNumber": 3,
    "prefecture": "岩手県",
    "city": "胆沢郡金ケ崎町",
    "town": "永沢"
  },
  "0294505": {
    "zipcode": "0294505",
    "prefectureCode": "03",
    "prefectureNumber": 3,
    "prefecture": "岩手県",
    "city": "胆沢郡金ケ崎町",
    "town": "永栄"
  },
  "0295500": {
    "zipcode": "0295500",
    "prefectureCode": "03",
    "prefectureNumber": 3,
    "prefecture": "岩手県",
    "city": "和賀郡西和賀町",
    "town": "以下に掲載がない場合"
  },
  "0295501": {
    "zipcode": "0295501",
    "prefectureCode": "03",
    "prefectureNumber": 3,
    "prefecture": "岩手県",
    "city": "和賀郡西和賀町",
    "town": "下左草７７地割〜下左草８０地割"
  },
  "0295502": {
    "zipcode": "0295502",
    "prefectureCode": "03",
    "prefectureNumber": 3,
    "prefecture": "岩手県",
    "city": "和賀郡西和賀町",
    "town": "寅沢１５地割"
  },
  "0295503": {
    "zipcode": "0295503",
    "prefectureCode": "03",
    "prefectureNumber": 3,
    "prefecture": "岩手県",
    "city": "和賀郡西和賀町",
    "town": "湯田１９地割〜湯田２１地割"
  },
  "0295504": {
    "zipcode": "0295504",
    "prefectureCode": "03",
    "prefectureNumber": 3,
    "prefecture": "岩手県",
    "city": "和賀郡西和賀町",
    "town": "槻沢２５地割〜槻沢２８地割"
  },
  "0295505": {
    "zipcode": "0295505",
    "prefectureCode": "03",
    "prefectureNumber": 3,
    "prefecture": "岩手県",
    "city": "和賀郡西和賀町",
    "town": "湯本２９地割、湯本３０地割"
  },
  "0295506": {
    "zipcode": "0295506",
    "prefectureCode": "03",
    "prefectureNumber": 3,
    "prefecture": "岩手県",
    "city": "和賀郡西和賀町",
    "town": "湯之沢３１地割〜湯之沢３５地割"
  },
  "0295507": {
    "zipcode": "0295507",
    "prefectureCode": "03",
    "prefectureNumber": 3,
    "prefecture": "岩手県",
    "city": "和賀郡西和賀町",
    "town": "大沓３６地割"
  },
  "0295511": {
    "zipcode": "0295511",
    "prefectureCode": "03",
    "prefectureNumber": 3,
    "prefecture": "岩手県",
    "city": "和賀郡西和賀町",
    "town": "上野々３９地割"
  },
  "0295512": {
    "zipcode": "0295512",
    "prefectureCode": "03",
    "prefectureNumber": 3,
    "prefecture": "岩手県",
    "city": "和賀郡西和賀町",
    "town": "川尻４０地割、川尻４１地割"
  },
  "0295513": {
    "zipcode": "0295513",
    "prefectureCode": "03",
    "prefectureNumber": 3,
    "prefecture": "岩手県",
    "city": "和賀郡西和賀町",
    "town": "鷲之巣５０地割"
  },
  "0295514": {
    "zipcode": "0295514",
    "prefectureCode": "03",
    "prefectureNumber": 3,
    "prefecture": "岩手県",
    "city": "和賀郡西和賀町",
    "town": "湯川５２地割、湯川５３地割"
  },
  "0295521": {
    "zipcode": "0295521",
    "prefectureCode": "03",
    "prefectureNumber": 3,
    "prefecture": "岩手県",
    "city": "和賀郡西和賀町",
    "town": "小繋沢５４地割〜小繋沢５６地割"
  },
  "0295522": {
    "zipcode": "0295522",
    "prefectureCode": "03",
    "prefectureNumber": 3,
    "prefecture": "岩手県",
    "city": "和賀郡西和賀町",
    "town": "野々宿６０地割〜野々宿６２地割"
  },
  "0295523": {
    "zipcode": "0295523",
    "prefectureCode": "03",
    "prefectureNumber": 3,
    "prefecture": "岩手県",
    "city": "和賀郡西和賀町",
    "town": "芦ケ沢７２地割"
  },
  "0295611": {
    "zipcode": "0295611",
    "prefectureCode": "03",
    "prefectureNumber": 3,
    "prefecture": "岩手県",
    "city": "和賀郡西和賀町",
    "town": "沢内新町"
  },
  "0295612": {
    "zipcode": "0295612",
    "prefectureCode": "03",
    "prefectureNumber": 3,
    "prefecture": "岩手県",
    "city": "和賀郡西和賀町",
    "town": "沢内大野"
  },
  "0295613": {
    "zipcode": "0295613",
    "prefectureCode": "03",
    "prefectureNumber": 3,
    "prefecture": "岩手県",
    "city": "和賀郡西和賀町",
    "town": "沢内前郷"
  },
  "0295614": {
    "zipcode": "0295614",
    "prefectureCode": "03",
    "prefectureNumber": 3,
    "prefecture": "岩手県",
    "city": "和賀郡西和賀町",
    "town": "沢内太田"
  },
  "0295615": {
    "zipcode": "0295615",
    "prefectureCode": "03",
    "prefectureNumber": 3,
    "prefecture": "岩手県",
    "city": "和賀郡西和賀町",
    "town": "沢内猿橋"
  },
  "0295616": {
    "zipcode": "0295616",
    "prefectureCode": "03",
    "prefectureNumber": 3,
    "prefecture": "岩手県",
    "city": "和賀郡西和賀町",
    "town": "沢内泉沢"
  },
  "0295617": {
    "zipcode": "0295617",
    "prefectureCode": "03",
    "prefectureNumber": 3,
    "prefecture": "岩手県",
    "city": "和賀郡西和賀町",
    "town": "沢内長瀬野"
  },
  "0295618": {
    "zipcode": "0295618",
    "prefectureCode": "03",
    "prefectureNumber": 3,
    "prefecture": "岩手県",
    "city": "和賀郡西和賀町",
    "town": "沢内両沢"
  },
  "0295619": {
    "zipcode": "0295619",
    "prefectureCode": "03",
    "prefectureNumber": 3,
    "prefecture": "岩手県",
    "city": "和賀郡西和賀町",
    "town": "沢内弁天"
  },
  "0295621": {
    "zipcode": "0295621",
    "prefectureCode": "03",
    "prefectureNumber": 3,
    "prefecture": "岩手県",
    "city": "和賀郡西和賀町",
    "town": "沢内鍵飯"
  },
  "0295701": {
    "zipcode": "0295701",
    "prefectureCode": "03",
    "prefectureNumber": 3,
    "prefecture": "岩手県",
    "city": "和賀郡西和賀町",
    "town": "沢内川舟"
  },
  "0295702": {
    "zipcode": "0295702",
    "prefectureCode": "03",
    "prefectureNumber": 3,
    "prefecture": "岩手県",
    "city": "和賀郡西和賀町",
    "town": "沢内若畑"
  },
  "0295703": {
    "zipcode": "0295703",
    "prefectureCode": "03",
    "prefectureNumber": 3,
    "prefecture": "岩手県",
    "city": "和賀郡西和賀町",
    "town": "沢内貝沢"
  }
}
