{
  "0300111": {
    "zipcode": "0300111",
    "prefectureCode": "02",
    "prefectureNumber": 2,
    "prefecture": "青森県",
    "city": "青森市",
    "town": "荒川"
  },
  "0300112": {
    "zipcode": "0300112",
    "prefectureCode": "02",
    "prefectureNumber": 2,
    "prefecture": "青森県",
    "city": "青森市",
    "town": "八ツ役"
  },
  "0300113": {
    "zipcode": "0300113",
    "prefectureCode": "02",
    "prefectureNumber": 2,
    "prefecture": "青森県",
    "city": "青森市",
    "town": "第二問屋町"
  },
  "0300121": {
    "zipcode": "0300121",
    "prefectureCode": "02",
    "prefectureNumber": 2,
    "prefecture": "青森県",
    "city": "青森市",
    "town": "妙見"
  },
  "0300122": {
    "zipcode": "0300122",
    "prefectureCode": "02",
    "prefectureNumber": 2,
    "prefecture": "青森県",
    "city": "青森市",
    "town": "野尻"
  },
  "0300123": {
    "zipcode": "0300123",
    "prefectureCode": "02",
    "prefectureNumber": 2,
    "prefecture": "青森県",
    "city": "青森市",
    "town": "大矢沢"
  },
  "0300124": {
    "zipcode": "0300124",
    "prefectureCode": "02",
    "prefectureNumber": 2,
    "prefecture": "青森県",
    "city": "青森市",
    "town": "田茂木野"
  },
  "0300125": {
    "zipcode": "0300125",
    "prefectureCode": "02",
    "prefectureNumber": 2,
    "prefecture": "青森県",
    "city": "青森市",
    "town": "四ツ石"
  },
  "0300131": {
    "zipcode": "0300131",
    "prefectureCode": "02",
    "prefectureNumber": 2,
    "prefecture": "青森県",
    "city": "青森市",
    "town": "問屋町"
  },
  "0300132": {
    "zipcode": "0300132",
    "prefectureCode": "02",
    "prefectureNumber": 2,
    "prefecture": "青森県",
    "city": "青森市",
    "town": "横内"
  },
  "0300133": {
    "zipcode": "0300133",
    "prefectureCode": "02",
    "prefectureNumber": 2,
    "prefecture": "青森県",
    "city": "青森市",
    "town": "雲谷"
  },
  "0300134": {
    "zipcode": "0300134",
    "prefectureCode": "02",
    "prefectureNumber": 2,
    "prefecture": "青森県",
    "city": "青森市",
    "town": "合子沢"
  },
  "0300135": {
    "zipcode": "0300135",
    "prefectureCode": "02",
    "prefectureNumber": 2,
    "prefecture": "青森県",
    "city": "青森市",
    "town": "新町野"
  },
  "0300136": {
    "zipcode": "0300136",
    "prefectureCode": "02",
    "prefectureNumber": 2,
    "prefecture": "青森県",
    "city": "青森市",
    "town": "牛館"
  },
  "0300137": {
    "zipcode": "0300137",
    "prefectureCode": "02",
    "prefectureNumber": 2,
    "prefecture": "青森県",
    "city": "青森市",
    "town": "卸町"
  },
  "0300141": {
    "zipcode": "0300141",
    "prefectureCode": "02",
    "prefectureNumber": 2,
    "prefecture": "青森県",
    "city": "青森市",
    "town": "上野"
  },
  "0300142": {
    "zipcode": "0300142",
    "prefectureCode": "02",
    "prefectureNumber": 2,
    "prefecture": "青森県",
    "city": "青森市",
    "town": "野木"
  },
  "0300143": {
    "zipcode": "0300143",
    "prefectureCode": "02",
    "prefectureNumber": 2,
    "prefecture": "青森県",
    "city": "青森市",
    "town": "小畑沢"
  },
  "0300144": {
    "zipcode": "0300144",
    "prefectureCode": "02",
    "prefectureNumber": 2,
    "prefecture": "青森県",
    "city": "青森市",
    "town": "大別内"
  },
  "0300145": {
    "zipcode": "0300145",
    "prefectureCode": "02",
    "prefectureNumber": 2,
    "prefecture": "青森県",
    "city": "青森市",
    "town": "金浜"
  },
  "0300151": {
    "zipcode": "0300151",
    "prefectureCode": "02",
    "prefectureNumber": 2,
    "prefecture": "青森県",
    "city": "青森市",
    "town": "高田"
  },
  "0300152": {
    "zipcode": "0300152",
    "prefectureCode": "02",
    "prefectureNumber": 2,
    "prefecture": "青森県",
    "city": "青森市",
    "town": "野沢"
  },
  "0300153": {
    "zipcode": "0300153",
    "prefectureCode": "02",
    "prefectureNumber": 2,
    "prefecture": "青森県",
    "city": "青森市",
    "town": "小館"
  },
  "0300154": {
    "zipcode": "0300154",
    "prefectureCode": "02",
    "prefectureNumber": 2,
    "prefecture": "青森県",
    "city": "青森市",
    "town": "入内"
  },
  "0300155": {
    "zipcode": "0300155",
    "prefectureCode": "02",
    "prefectureNumber": 2,
    "prefecture": "青森県",
    "city": "青森市",
    "town": "大谷"
  },
  "0300801": {
    "zipcode": "0300801",
    "prefectureCode": "02",
    "prefectureNumber": 2,
    "prefecture": "青森県",
    "city": "青森市",
    "town": "新町"
  },
  "0300802": {
    "zipcode": "0300802",
    "prefectureCode": "02",
    "prefectureNumber": 2,
    "prefecture": "青森県",
    "city": "青森市",
    "town": "本町"
  },
  "0300803": {
    "zipcode": "0300803",
    "prefectureCode": "02",
    "prefectureNumber": 2,
    "prefecture": "青森県",
    "city": "青森市",
    "town": "安方"
  },
  "0300811": {
    "zipcode": "0300811",
    "prefectureCode": "02",
    "prefectureNumber": 2,
    "prefecture": "青森県",
    "city": "青森市",
    "town": "青柳"
  },
  "0300812": {
    "zipcode": "0300812",
    "prefectureCode": "02",
    "prefectureNumber": 2,
    "prefecture": "青森県",
    "city": "青森市",
    "town": "堤町"
  },
  "0300813": {
    "zipcode": "0300813",
    "prefectureCode": "02",
    "prefectureNumber": 2,
    "prefecture": "青森県",
    "city": "青森市",
    "town": "松原"
  },
  "0300821": {
    "zipcode": "0300821",
    "prefectureCode": "02",
    "prefectureNumber": 2,
    "prefecture": "青森県",
    "city": "青森市",
    "town": "勝田"
  },
  "0300822": {
    "zipcode": "0300822",
    "prefectureCode": "02",
    "prefectureNumber": 2,
    "prefecture": "青森県",
    "city": "青森市",
    "town": "中央"
  },
  "0300823": {
    "zipcode": "0300823",
    "prefectureCode": "02",
    "prefectureNumber": 2,
    "prefecture": "青森県",
    "city": "青森市",
    "town": "橋本"
  },
  "0300841": {
    "zipcode": "0300841",
    "prefectureCode": "02",
    "prefectureNumber": 2,
    "prefecture": "青森県",
    "city": "青森市",
    "town": "奥野"
  },
  "0300842": {
    "zipcode": "0300842",
    "prefectureCode": "02",
    "prefectureNumber": 2,
    "prefecture": "青森県",
    "city": "青森市",
    "town": "浦町"
  },
  "0300843": {
    "zipcode": "0300843",
    "prefectureCode": "02",
    "prefectureNumber": 2,
    "prefecture": "青森県",
    "city": "青森市",
    "town": "浜田"
  },
  "0300844": {
    "zipcode": "0300844",
    "prefectureCode": "02",
    "prefectureNumber": 2,
    "prefecture": "青森県",
    "city": "青森市",
    "town": "桂木"
  },
  "0300845": {
    "zipcode": "0300845",
    "prefectureCode": "02",
    "prefectureNumber": 2,
    "prefecture": "青森県",
    "city": "青森市",
    "town": "緑"
  },
  "0300846": {
    "zipcode": "0300846",
    "prefectureCode": "02",
    "prefectureNumber": 2,
    "prefecture": "青森県",
    "city": "青森市",
    "town": "青葉"
  },
  "0300847": {
    "zipcode": "0300847",
    "prefectureCode": "02",
    "prefectureNumber": 2,
    "prefecture": "青森県",
    "city": "青森市",
    "town": "東大野"
  },
  "0300851": {
    "zipcode": "0300851",
    "prefectureCode": "02",
    "prefectureNumber": 2,
    "prefecture": "青森県",
    "city": "青森市",
    "town": "旭町"
  },
  "0300852": {
    "zipcode": "0300852",
    "prefectureCode": "02",
    "prefectureNumber": 2,
    "prefecture": "青森県",
    "city": "青森市",
    "town": "大野"
  },
  "0300853": {
    "zipcode": "0300853",
    "prefectureCode": "02",
    "prefectureNumber": 2,
    "prefecture": "青森県",
    "city": "青森市",
    "town": "金沢"
  },
  "0300854": {
    "zipcode": "0300854",
    "prefectureCode": "02",
    "prefectureNumber": 2,
    "prefecture": "青森県",
    "city": "青森市",
    "town": "千富町"
  },
  "0300855": {
    "zipcode": "0300855",
    "prefectureCode": "02",
    "prefectureNumber": 2,
    "prefecture": "青森県",
    "city": "青森市",
    "town": "北金沢"
  },
  "0300856": {
    "zipcode": "0300856",
    "prefectureCode": "02",
    "prefectureNumber": 2,
    "prefecture": "青森県",
    "city": "青森市",
    "town": "西大野"
  },
  "0300861": {
    "zipcode": "0300861",
    "prefectureCode": "02",
    "prefectureNumber": 2,
    "prefecture": "青森県",
    "city": "青森市",
    "town": "長島"
  },
  "0300862": {
    "zipcode": "0300862",
    "prefectureCode": "02",
    "prefectureNumber": 2,
    "prefecture": "青森県",
    "city": "青森市",
    "town": "古川"
  },
  "0300901": {
    "zipcode": "0300901",
    "prefectureCode": "02",
    "prefectureNumber": 2,
    "prefecture": "青森県",
    "city": "青森市",
    "town": "港町"
  },
  "0300902": {
    "zipcode": "0300902",
    "prefectureCode": "02",
    "prefectureNumber": 2,
    "prefecture": "青森県",
    "city": "青森市",
    "town": "合浦"
  },
  "0300903": {
    "zipcode": "0300903",
    "prefectureCode": "02",
    "prefectureNumber": 2,
    "prefecture": "青森県",
    "city": "青森市",
    "town": "栄町"
  },
  "0300904": {
    "zipcode": "0300904",
    "prefectureCode": "02",
    "prefectureNumber": 2,
    "prefecture": "青森県",
    "city": "青森市",
    "town": "茶屋町"
  },
  "0300911": {
    "zipcode": "0300911",
    "prefectureCode": "02",
    "prefectureNumber": 2,
    "prefecture": "青森県",
    "city": "青森市",
    "town": "造道"
  },
  "0300912": {
    "zipcode": "0300912",
    "prefectureCode": "02",
    "prefectureNumber": 2,
    "prefecture": "青森県",
    "city": "青森市",
    "town": "八重田"
  },
  "0300913": {
    "zipcode": "0300913",
    "prefectureCode": "02",
    "prefectureNumber": 2,
    "prefecture": "青森県",
    "city": "青森市",
    "town": "東造道"
  },
  "0300914": {
    "zipcode": "0300914",
    "prefectureCode": "02",
    "prefectureNumber": 2,
    "prefecture": "青森県",
    "city": "青森市",
    "town": "岡造道"
  },
  "0300915": {
    "zipcode": "0300915",
    "prefectureCode": "02",
    "prefectureNumber": 2,
    "prefecture": "青森県",
    "city": "青森市",
    "town": "小柳"
  },
  "0300916": {
    "zipcode": "0300916",
    "prefectureCode": "02",
    "prefectureNumber": 2,
    "prefecture": "青森県",
    "city": "青森市",
    "town": "田屋敷"
  },
  "0300917": {
    "zipcode": "0300917",
    "prefectureCode": "02",
    "prefectureNumber": 2,
    "prefecture": "青森県",
    "city": "青森市",
    "town": "矢作"
  },
  "0300918": {
    "zipcode": "0300918",
    "prefectureCode": "02",
    "prefectureNumber": 2,
    "prefecture": "青森県",
    "city": "青森市",
    "town": "けやき"
  },
  "0300919": {
    "zipcode": "0300919",
    "prefectureCode": "02",
    "prefectureNumber": 2,
    "prefecture": "青森県",
    "city": "青森市",
    "town": "はまなす"
  },
  "0300921": {
    "zipcode": "0300921",
    "prefectureCode": "02",
    "prefectureNumber": 2,
    "prefecture": "青森県",
    "city": "青森市",
    "town": "原別"
  },
  "0300922": {
    "zipcode": "0300922",
    "prefectureCode": "02",
    "prefectureNumber": 2,
    "prefecture": "青森県",
    "city": "青森市",
    "town": "泉野"
  },
  "0300923": {
    "zipcode": "0300923",
    "prefectureCode": "02",
    "prefectureNumber": 2,
    "prefecture": "青森県",
    "city": "青森市",
    "town": "八幡林"
  },
  "0300924": {
    "zipcode": "0300924",
    "prefectureCode": "02",
    "prefectureNumber": 2,
    "prefecture": "青森県",
    "city": "青森市",
    "town": "滝沢（下川原１９０−１）"
  },
  "0300925": {
    "zipcode": "0300925",
    "prefectureCode": "02",
    "prefectureNumber": 2,
    "prefecture": "青森県",
    "city": "青森市",
    "town": "築木館"
  },
  "0300931": {
    "zipcode": "0300931",
    "prefectureCode": "02",
    "prefectureNumber": 2,
    "prefecture": "青森県",
    "city": "青森市",
    "town": "平新田"
  },
  "0300932": {
    "zipcode": "0300932",
    "prefectureCode": "02",
    "prefectureNumber": 2,
    "prefecture": "青森県",
    "city": "青森市",
    "town": "後萢"
  },
  "0300933": {
    "zipcode": "0300933",
    "prefectureCode": "02",
    "prefectureNumber": 2,
    "prefecture": "青森県",
    "city": "青森市",
    "town": "諏訪沢"
  },
  "0300934": {
    "zipcode": "0300934",
    "prefectureCode": "02",
    "prefectureNumber": 2,
    "prefecture": "青森県",
    "city": "青森市",
    "town": "戸崎"
  },
  "0300935": {
    "zipcode": "0300935",
    "prefectureCode": "02",
    "prefectureNumber": 2,
    "prefecture": "青森県",
    "city": "青森市",
    "town": "桑原"
  },
  "0300936": {
    "zipcode": "0300936",
    "prefectureCode": "02",
    "prefectureNumber": 2,
    "prefecture": "青森県",
    "city": "青森市",
    "town": "矢田前"
  },
  "0300937": {
    "zipcode": "0300937",
    "prefectureCode": "02",
    "prefectureNumber": 2,
    "prefecture": "青森県",
    "city": "青森市",
    "town": "本泉"
  },
  "0300941": {
    "zipcode": "0300941",
    "prefectureCode": "02",
    "prefectureNumber": 2,
    "prefecture": "青森県",
    "city": "青森市",
    "town": "自由ケ丘"
  },
  "0300942": {
    "zipcode": "0300942",
    "prefectureCode": "02",
    "prefectureNumber": 2,
    "prefecture": "青森県",
    "city": "青森市",
    "town": "沢山"
  },
  "0300943": {
    "zipcode": "0300943",
    "prefectureCode": "02",
    "prefectureNumber": 2,
    "prefecture": "青森県",
    "city": "青森市",
    "town": "幸畑"
  },
  "0300944": {
    "zipcode": "0300944",
    "prefectureCode": "02",
    "prefectureNumber": 2,
    "prefecture": "青森県",
    "city": "青森市",
    "town": "筒井"
  },
  "0300945": {
    "zipcode": "0300945",
    "prefectureCode": "02",
    "prefectureNumber": 2,
    "prefecture": "青森県",
    "city": "青森市",
    "town": "桜川"
  },
  "0300946": {
    "zipcode": "0300946",
    "prefectureCode": "02",
    "prefectureNumber": 2,
    "prefecture": "青森県",
    "city": "青森市",
    "town": "古館"
  },
  "0300947": {
    "zipcode": "0300947",
    "prefectureCode": "02",
    "prefectureNumber": 2,
    "prefecture": "青森県",
    "city": "青森市",
    "town": "浜館"
  },
  "0300948": {
    "zipcode": "0300948",
    "prefectureCode": "02",
    "prefectureNumber": 2,
    "prefecture": "青森県",
    "city": "青森市",
    "town": "虹ケ丘"
  },
  "0300951": {
    "zipcode": "0300951",
    "prefectureCode": "02",
    "prefectureNumber": 2,
    "prefecture": "青森県",
    "city": "青森市",
    "town": "戸山（その他）"
  },
  "0300952": {
    "zipcode": "0300952",
    "prefectureCode": "02",
    "prefectureNumber": 2,
    "prefecture": "青森県",
    "city": "青森市",
    "town": "戸山（赤坂）"
  },
  "0300953": {
    "zipcode": "0300953",
    "prefectureCode": "02",
    "prefectureNumber": 2,
    "prefecture": "青森県",
    "city": "青森市",
    "town": "駒込（蛍沢）"
  },
  "0300954": {
    "zipcode": "0300954",
    "prefectureCode": "02",
    "prefectureNumber": 2,
    "prefecture": "青森県",
    "city": "青森市",
    "town": "駒込（月見野）"
  },
  "0300955": {
    "zipcode": "0300955",
    "prefectureCode": "02",
    "prefectureNumber": 2,
    "prefecture": "青森県",
    "city": "青森市",
    "town": "駒込（その他）"
  },
  "0300956": {
    "zipcode": "0300956",
    "prefectureCode": "02",
    "prefectureNumber": 2,
    "prefecture": "青森県",
    "city": "青森市",
    "town": "赤坂"
  },
  "0300957": {
    "zipcode": "0300957",
    "prefectureCode": "02",
    "prefectureNumber": 2,
    "prefecture": "青森県",
    "city": "青森市",
    "town": "蛍沢"
  },
  "0300958": {
    "zipcode": "0300958",
    "prefectureCode": "02",
    "prefectureNumber": 2,
    "prefecture": "青森県",
    "city": "青森市",
    "town": "月見野"
  },
  "0300961": {
    "zipcode": "0300961",
    "prefectureCode": "02",
    "prefectureNumber": 2,
    "prefecture": "青森県",
    "city": "青森市",
    "town": "浪打"
  },
  "0300962": {
    "zipcode": "0300962",
    "prefectureCode": "02",
    "prefectureNumber": 2,
    "prefecture": "青森県",
    "city": "青森市",
    "town": "佃"
  },
  "0300963": {
    "zipcode": "0300963",
    "prefectureCode": "02",
    "prefectureNumber": 2,
    "prefecture": "青森県",
    "city": "青森市",
    "town": "中佃"
  },
  "0300964": {
    "zipcode": "0300964",
    "prefectureCode": "02",
    "prefectureNumber": 2,
    "prefecture": "青森県",
    "city": "青森市",
    "town": "南佃"
  },
  "0300965": {
    "zipcode": "0300965",
    "prefectureCode": "02",
    "prefectureNumber": 2,
    "prefecture": "青森県",
    "city": "青森市",
    "town": "松森"
  },
  "0300966": {
    "zipcode": "0300966",
    "prefectureCode": "02",
    "prefectureNumber": 2,
    "prefecture": "青森県",
    "city": "青森市",
    "town": "花園"
  },
  "0301200": {
    "zipcode": "0301200",
    "prefectureCode": "02",
    "prefectureNumber": 2,
    "prefecture": "青森県",
    "city": "東津軽郡蓬田村",
    "town": "以下に掲載がない場合"
  },
  "0301201": {
    "zipcode": "0301201",
    "prefectureCode": "02",
    "prefectureNumber": 2,
    "prefecture": "青森県",
    "city": "東津軽郡蓬田村",
    "town": "広瀬"
  },
  "0301202": {
    "zipcode": "0301202",
    "prefectureCode": "02",
    "prefectureNumber": 2,
    "prefecture": "青森県",
    "city": "東津軽郡蓬田村",
    "town": "瀬辺地"
  },
  "0301203": {
    "zipcode": "0301203",
    "prefectureCode": "02",
    "prefectureNumber": 2,
    "prefecture": "青森県",
    "city": "東津軽郡蓬田村",
    "town": "郷沢"
  },
  "0301211": {
    "zipcode": "0301211",
    "prefectureCode": "02",
    "prefectureNumber": 2,
    "prefecture": "青森県",
    "city": "東津軽郡蓬田村",
    "town": "蓬田"
  },
  "0301212": {
    "zipcode": "0301212",
    "prefectureCode": "02",
    "prefectureNumber": 2,
    "prefecture": "青森県",
    "city": "東津軽郡蓬田村",
    "town": "阿弥陀川"
  },
  "0301213": {
    "zipcode": "0301213",
    "prefectureCode": "02",
    "prefectureNumber": 2,
    "prefecture": "青森県",
    "city": "東津軽郡蓬田村",
    "town": "長科"
  },
  "0301214": {
    "zipcode": "0301214",
    "prefectureCode": "02",
    "prefectureNumber": 2,
    "prefecture": "青森県",
    "city": "東津軽郡蓬田村",
    "town": "中沢"
  },
  "0301261": {
    "zipcode": "0301261",
    "prefectureCode": "02",
    "prefectureNumber": 2,
    "prefecture": "青森県",
    "city": "青森市",
    "town": "四戸橋"
  },
  "0301262": {
    "zipcode": "0301262",
    "prefectureCode": "02",
    "prefectureNumber": 2,
    "prefecture": "青森県",
    "city": "青森市",
    "town": "後潟"
  },
  "0301271": {
    "zipcode": "0301271",
    "prefectureCode": "02",
    "prefectureNumber": 2,
    "prefecture": "青森県",
    "city": "青森市",
    "town": "六枚橋"
  },
  "0301272": {
    "zipcode": "0301272",
    "prefectureCode": "02",
    "prefectureNumber": 2,
    "prefecture": "青森県",
    "city": "青森市",
    "town": "小橋"
  },
  "0301273": {
    "zipcode": "0301273",
    "prefectureCode": "02",
    "prefectureNumber": 2,
    "prefecture": "青森県",
    "city": "青森市",
    "town": "左堰"
  },
  "0301301": {
    "zipcode": "0301301",
    "prefectureCode": "02",
    "prefectureNumber": 2,
    "prefecture": "青森県",
    "city": "東津軽郡外ヶ浜町",
    "town": "蟹田石浜"
  },
  "0301302": {
    "zipcode": "0301302",
    "prefectureCode": "02",
    "prefectureNumber": 2,
    "prefecture": "青森県",
    "city": "東津軽郡外ヶ浜町",
    "town": "蟹田中師"
  },
  "0301303": {
    "zipcode": "0301303",
    "prefectureCode": "02",
    "prefectureNumber": 2,
    "prefecture": "青森県",
    "city": "東津軽郡外ヶ浜町",
    "town": "蟹田"
  },
  "0301304": {
    "zipcode": "0301304",
    "prefectureCode": "02",
    "prefectureNumber": 2,
    "prefecture": "青森県",
    "city": "東津軽郡外ヶ浜町",
    "town": "蟹田南沢"
  },
  "0301305": {
    "zipcode": "0301305",
    "prefectureCode": "02",
    "prefectureNumber": 2,
    "prefecture": "青森県",
    "city": "東津軽郡外ヶ浜町",
    "town": "蟹田小国"
  },
  "0301306": {
    "zipcode": "0301306",
    "prefectureCode": "02",
    "prefectureNumber": 2,
    "prefecture": "青森県",
    "city": "東津軽郡外ヶ浜町",
    "town": "蟹田山本"
  },
  "0301307": {
    "zipcode": "0301307",
    "prefectureCode": "02",
    "prefectureNumber": 2,
    "prefecture": "青森県",
    "city": "東津軽郡外ヶ浜町",
    "town": "蟹田大平"
  },
  "0301308": {
    "zipcode": "0301308",
    "prefectureCode": "02",
    "prefectureNumber": 2,
    "prefecture": "青森県",
    "city": "東津軽郡外ヶ浜町",
    "town": "下蟹田"
  },
  "0301309": {
    "zipcode": "0301309",
    "prefectureCode": "02",
    "prefectureNumber": 2,
    "prefecture": "青森県",
    "city": "東津軽郡外ヶ浜町",
    "town": "上蟹田"
  },
  "0301311": {
    "zipcode": "0301311",
    "prefectureCode": "02",
    "prefectureNumber": 2,
    "prefecture": "青森県",
    "city": "東津軽郡外ヶ浜町",
    "town": "蟹田塩越"
  },
  "0301400": {
    "zipcode": "0301400",
    "prefectureCode": "02",
    "prefectureNumber": 2,
    "prefecture": "青森県",
    "city": "東津軽郡外ヶ浜町",
    "town": "以下に掲載がない場合"
  },
  "0301402": {
    "zipcode": "0301402",
    "prefectureCode": "02",
    "prefectureNumber": 2,
    "prefecture": "青森県",
    "city": "東津軽郡外ヶ浜町",
    "town": "平舘"
  },
  "0301403": {
    "zipcode": "0301403",
    "prefectureCode": "02",
    "prefectureNumber": 2,
    "prefecture": "青森県",
    "city": "東津軽郡外ヶ浜町",
    "town": "平舘元宇田"
  },
  "0301404": {
    "zipcode": "0301404",
    "prefectureCode": "02",
    "prefectureNumber": 2,
    "prefecture": "青森県",
    "city": "東津軽郡外ヶ浜町",
    "town": "平舘弥蔵釜"
  },
  "0301405": {
    "zipcode": "0301405",
    "prefectureCode": "02",
    "prefectureNumber": 2,
    "prefecture": "青森県",
    "city": "東津軽郡外ヶ浜町",
    "town": "平舘石崎沢"
  },
  "0301411": {
    "zipcode": "0301411",
    "prefectureCode": "02",
    "prefectureNumber": 2,
    "prefecture": "青森県",
    "city": "東津軽郡外ヶ浜町",
    "town": "平舘根岸"
  },
  "0301412": {
    "zipcode": "0301412",
    "prefectureCode": "02",
    "prefectureNumber": 2,
    "prefecture": "青森県",
    "city": "東津軽郡外ヶ浜町",
    "town": "平舘野田"
  },
  "0301413": {
    "zipcode": "0301413",
    "prefectureCode": "02",
    "prefectureNumber": 2,
    "prefecture": "青森県",
    "city": "東津軽郡外ヶ浜町",
    "town": "平舘今津"
  },
  "0301415": {
    "zipcode": "0301415",
    "prefectureCode": "02",
    "prefectureNumber": 2,
    "prefecture": "青森県",
    "city": "東津軽郡外ヶ浜町",
    "town": "平舘舟岡"
  },
  "0301416": {
    "zipcode": "0301416",
    "prefectureCode": "02",
    "prefectureNumber": 2,
    "prefecture": "青森県",
    "city": "東津軽郡外ヶ浜町",
    "town": "平舘磯山"
  },
  "0301500": {
    "zipcode": "0301500",
    "prefectureCode": "02",
    "prefectureNumber": 2,
    "prefecture": "青森県",
    "city": "東津軽郡今別町",
    "town": "以下に掲載がない場合"
  },
  "0301501": {
    "zipcode": "0301501",
    "prefectureCode": "02",
    "prefectureNumber": 2,
    "prefecture": "青森県",
    "city": "東津軽郡今別町",
    "town": "浜名"
  },
  "0301502": {
    "zipcode": "0301502",
    "prefectureCode": "02",
    "prefectureNumber": 2,
    "prefecture": "青森県",
    "city": "東津軽郡今別町",
    "town": "今別"
  },
  "0301503": {
    "zipcode": "0301503",
    "prefectureCode": "02",
    "prefectureNumber": 2,
    "prefecture": "青森県",
    "city": "東津軽郡今別町",
    "town": "村元"
  },
  "0301504": {
    "zipcode": "0301504",
    "prefectureCode": "02",
    "prefectureNumber": 2,
    "prefecture": "青森県",
    "city": "東津軽郡今別町",
    "town": "鍋田"
  },
  "0301505": {
    "zipcode": "0301505",
    "prefectureCode": "02",
    "prefectureNumber": 2,
    "prefecture": "青森県",
    "city": "東津軽郡今別町",
    "town": "大川平"
  },
  "0301511": {
    "zipcode": "0301511",
    "prefectureCode": "02",
    "prefectureNumber": 2,
    "prefecture": "青森県",
    "city": "東津軽郡今別町",
    "town": "山崎"
  },
  "0301512": {
    "zipcode": "0301512",
    "prefectureCode": "02",
    "prefectureNumber": 2,
    "prefecture": "青森県",
    "city": "東津軽郡今別町",
    "town": "大泊"
  },
  "0301513": {
    "zipcode": "0301513",
    "prefectureCode": "02",
    "prefectureNumber": 2,
    "prefecture": "青森県",
    "city": "東津軽郡今別町",
    "town": "袰月"
  },
  "0301514": {
    "zipcode": "0301514",
    "prefectureCode": "02",
    "prefectureNumber": 2,
    "prefecture": "青森県",
    "city": "東津軽郡今別町",
    "town": "砂ケ森"
  },
  "0301515": {
    "zipcode": "0301515",
    "prefectureCode": "02",
    "prefectureNumber": 2,
    "prefecture": "青森県",
    "city": "東津軽郡今別町",
    "town": "奥平部"
  },
  "0301701": {
    "zipcode": "0301701",
    "prefectureCode": "02",
    "prefectureNumber": 2,
    "prefecture": "青森県",
    "city": "北津軽郡中泊町",
    "town": "小泊袰内"
  },
  "0301711": {
    "zipcode": "0301711",
    "prefectureCode": "02",
    "prefectureNumber": 2,
    "prefecture": "青森県",
    "city": "東津軽郡外ヶ浜町",
    "town": "三厩龍浜"
  },
  "0301712": {
    "zipcode": "0301712",
    "prefectureCode": "02",
    "prefectureNumber": 2,
    "prefecture": "青森県",
    "city": "東津軽郡外ヶ浜町",
    "town": "三厩木落"
  },
  "0301713": {
    "zipcode": "0301713",
    "prefectureCode": "02",
    "prefectureNumber": 2,
    "prefecture": "青森県",
    "city": "東津軽郡外ヶ浜町",
    "town": "三厩鎧嶋"
  },
  "0301714": {
    "zipcode": "0301714",
    "prefectureCode": "02",
    "prefectureNumber": 2,
    "prefecture": "青森県",
    "city": "東津軽郡外ヶ浜町",
    "town": "三厩梹榔"
  },
  "0301715": {
    "zipcode": "0301715",
    "prefectureCode": "02",
    "prefectureNumber": 2,
    "prefecture": "青森県",
    "city": "東津軽郡外ヶ浜町",
    "town": "三厩鳴神"
  },
  "0301716": {
    "zipcode": "0301716",
    "prefectureCode": "02",
    "prefectureNumber": 2,
    "prefecture": "青森県",
    "city": "東津軽郡外ヶ浜町",
    "town": "三厩尻神"
  },
  "0301717": {
    "zipcode": "0301717",
    "prefectureCode": "02",
    "prefectureNumber": 2,
    "prefecture": "青森県",
    "city": "東津軽郡外ヶ浜町",
    "town": "三厩川柱"
  },
  "0301718": {
    "zipcode": "0301718",
    "prefectureCode": "02",
    "prefectureNumber": 2,
    "prefecture": "青森県",
    "city": "東津軽郡外ヶ浜町",
    "town": "三厩梨ノ木間"
  },
  "0301719": {
    "zipcode": "0301719",
    "prefectureCode": "02",
    "prefectureNumber": 2,
    "prefecture": "青森県",
    "city": "東津軽郡外ヶ浜町",
    "town": "三厩宇鉄山"
  },
  "0301720": {
    "zipcode": "0301720",
    "prefectureCode": "02",
    "prefectureNumber": 2,
    "prefecture": "青森県",
    "city": "東津軽郡外ヶ浜町",
    "town": "三厩四枚橋"
  },
  "0301721": {
    "zipcode": "0301721",
    "prefectureCode": "02",
    "prefectureNumber": 2,
    "prefecture": "青森県",
    "city": "東津軽郡外ヶ浜町",
    "town": "三厩鐇泊"
  },
  "0301722": {
    "zipcode": "0301722",
    "prefectureCode": "02",
    "prefectureNumber": 2,
    "prefecture": "青森県",
    "city": "東津軽郡外ヶ浜町",
    "town": "三厩上宇鉄"
  },
  "0301723": {
    "zipcode": "0301723",
    "prefectureCode": "02",
    "prefectureNumber": 2,
    "prefecture": "青森県",
    "city": "東津軽郡外ヶ浜町",
    "town": "三厩元宇鉄"
  },
  "0301724": {
    "zipcode": "0301724",
    "prefectureCode": "02",
    "prefectureNumber": 2,
    "prefecture": "青森県",
    "city": "東津軽郡外ヶ浜町",
    "town": "三厩釜野澤"
  },
  "0301725": {
    "zipcode": "0301725",
    "prefectureCode": "02",
    "prefectureNumber": 2,
    "prefecture": "青森県",
    "city": "東津軽郡外ヶ浜町",
    "town": "三厩藤嶋"
  },
  "0301726": {
    "zipcode": "0301726",
    "prefectureCode": "02",
    "prefectureNumber": 2,
    "prefecture": "青森県",
    "city": "東津軽郡外ヶ浜町",
    "town": "三厩六條間"
  },
  "0301727": {
    "zipcode": "0301727",
    "prefectureCode": "02",
    "prefectureNumber": 2,
    "prefecture": "青森県",
    "city": "東津軽郡外ヶ浜町",
    "town": "三厩算用師"
  },
  "0301728": {
    "zipcode": "0301728",
    "prefectureCode": "02",
    "prefectureNumber": 2,
    "prefecture": "青森県",
    "city": "東津軽郡外ヶ浜町",
    "town": "三厩中浜"
  },
  "0301729": {
    "zipcode": "0301729",
    "prefectureCode": "02",
    "prefectureNumber": 2,
    "prefecture": "青森県",
    "city": "東津軽郡外ヶ浜町",
    "town": "三厩下平"
  },
  "0301731": {
    "zipcode": "0301731",
    "prefectureCode": "02",
    "prefectureNumber": 2,
    "prefecture": "青森県",
    "city": "東津軽郡外ヶ浜町",
    "town": "三厩本町"
  },
  "0301732": {
    "zipcode": "0301732",
    "prefectureCode": "02",
    "prefectureNumber": 2,
    "prefecture": "青森県",
    "city": "東津軽郡外ヶ浜町",
    "town": "三厩家ノ上"
  },
  "0301733": {
    "zipcode": "0301733",
    "prefectureCode": "02",
    "prefectureNumber": 2,
    "prefecture": "青森県",
    "city": "東津軽郡外ヶ浜町",
    "town": "三厩新町"
  },
  "0301734": {
    "zipcode": "0301734",
    "prefectureCode": "02",
    "prefectureNumber": 2,
    "prefecture": "青森県",
    "city": "東津軽郡外ヶ浜町",
    "town": "三厩増川"
  },
  "0301735": {
    "zipcode": "0301735",
    "prefectureCode": "02",
    "prefectureNumber": 2,
    "prefecture": "青森県",
    "city": "東津軽郡外ヶ浜町",
    "town": "三厩緑ケ丘"
  },
  "0301736": {
    "zipcode": "0301736",
    "prefectureCode": "02",
    "prefectureNumber": 2,
    "prefecture": "青森県",
    "city": "東津軽郡外ヶ浜町",
    "town": "三厩桃ケ丘"
  },
  "0301737": {
    "zipcode": "0301737",
    "prefectureCode": "02",
    "prefectureNumber": 2,
    "prefecture": "青森県",
    "city": "東津軽郡外ヶ浜町",
    "town": "三厩東町"
  }
}
