{
  "0360000": {
    "zipcode": "0360000",
    "prefectureCode": "02",
    "prefectureNumber": 2,
    "prefecture": "青森県",
    "city": "弘前市",
    "town": "以下に掲載がない場合"
  },
  "0360100": {
    "zipcode": "0360100",
    "prefectureCode": "02",
    "prefectureNumber": 2,
    "prefecture": "青森県",
    "city": "平川市",
    "town": "以下に掲載がない場合"
  },
  "0360101": {
    "zipcode": "0360101",
    "prefectureCode": "02",
    "prefectureNumber": 2,
    "prefecture": "青森県",
    "city": "平川市",
    "town": "大光寺四滝本"
  },
  "0360102": {
    "zipcode": "0360102",
    "prefectureCode": "02",
    "prefectureNumber": 2,
    "prefecture": "青森県",
    "city": "平川市",
    "town": "光城"
  },
  "0360103": {
    "zipcode": "0360103",
    "prefectureCode": "02",
    "prefectureNumber": 2,
    "prefecture": "青森県",
    "city": "平川市",
    "town": "本町村元"
  },
  "0360104": {
    "zipcode": "0360104",
    "prefectureCode": "02",
    "prefectureNumber": 2,
    "prefecture": "青森県",
    "city": "平川市",
    "town": "柏木町柳田"
  },
  "0360111": {
    "zipcode": "0360111",
    "prefectureCode": "02",
    "prefectureNumber": 2,
    "prefecture": "青森県",
    "city": "平川市",
    "town": "小和森松村"
  },
  "0360112": {
    "zipcode": "0360112",
    "prefectureCode": "02",
    "prefectureNumber": 2,
    "prefecture": "青森県",
    "city": "平川市",
    "town": "荒田南岡部"
  },
  "0360113": {
    "zipcode": "0360113",
    "prefectureCode": "02",
    "prefectureNumber": 2,
    "prefecture": "青森県",
    "city": "平川市",
    "town": "平田森若松"
  },
  "0360114": {
    "zipcode": "0360114",
    "prefectureCode": "02",
    "prefectureNumber": 2,
    "prefecture": "青森県",
    "city": "平川市",
    "town": "町居横山"
  },
  "0360115": {
    "zipcode": "0360115",
    "prefectureCode": "02",
    "prefectureNumber": 2,
    "prefecture": "青森県",
    "city": "平川市",
    "town": "新館藤山"
  },
  "0360121": {
    "zipcode": "0360121",
    "prefectureCode": "02",
    "prefectureNumber": 2,
    "prefecture": "青森県",
    "city": "平川市",
    "town": "新屋山下"
  },
  "0360122": {
    "zipcode": "0360122",
    "prefectureCode": "02",
    "prefectureNumber": 2,
    "prefecture": "青森県",
    "city": "平川市",
    "town": "尾崎安田"
  },
  "0360131": {
    "zipcode": "0360131",
    "prefectureCode": "02",
    "prefectureNumber": 2,
    "prefecture": "青森県",
    "city": "平川市",
    "town": "広船山下"
  },
  "0360132": {
    "zipcode": "0360132",
    "prefectureCode": "02",
    "prefectureNumber": 2,
    "prefecture": "青森県",
    "city": "平川市",
    "town": "唐竹薬師沢"
  },
  "0360141": {
    "zipcode": "0360141",
    "prefectureCode": "02",
    "prefectureNumber": 2,
    "prefecture": "青森県",
    "city": "平川市",
    "town": "沖館和田"
  },
  "0360142": {
    "zipcode": "0360142",
    "prefectureCode": "02",
    "prefectureNumber": 2,
    "prefecture": "青森県",
    "city": "平川市",
    "town": "高畑前田"
  },
  "0360143": {
    "zipcode": "0360143",
    "prefectureCode": "02",
    "prefectureNumber": 2,
    "prefecture": "青森県",
    "city": "平川市",
    "town": "吹上安田"
  },
  "0360144": {
    "zipcode": "0360144",
    "prefectureCode": "02",
    "prefectureNumber": 2,
    "prefecture": "青森県",
    "city": "平川市",
    "town": "原田村元"
  },
  "0360145": {
    "zipcode": "0360145",
    "prefectureCode": "02",
    "prefectureNumber": 2,
    "prefecture": "青森県",
    "city": "平川市",
    "town": "岩館山の井"
  },
  "0360146": {
    "zipcode": "0360146",
    "prefectureCode": "02",
    "prefectureNumber": 2,
    "prefecture": "青森県",
    "city": "平川市",
    "town": "大坊前田"
  },
  "0360151": {
    "zipcode": "0360151",
    "prefectureCode": "02",
    "prefectureNumber": 2,
    "prefecture": "青森県",
    "city": "平川市",
    "town": "石郷柳田"
  },
  "0360152": {
    "zipcode": "0360152",
    "prefectureCode": "02",
    "prefectureNumber": 2,
    "prefecture": "青森県",
    "city": "平川市",
    "town": "石畑岡元"
  },
  "0360153": {
    "zipcode": "0360153",
    "prefectureCode": "02",
    "prefectureNumber": 2,
    "prefecture": "青森県",
    "city": "平川市",
    "town": "小杉西田"
  },
  "0360154": {
    "zipcode": "0360154",
    "prefectureCode": "02",
    "prefectureNumber": 2,
    "prefecture": "青森県",
    "city": "平川市",
    "town": "四ツ屋亀田"
  },
  "0360155": {
    "zipcode": "0360155",
    "prefectureCode": "02",
    "prefectureNumber": 2,
    "prefecture": "青森県",
    "city": "平川市",
    "town": "館田柳原"
  },
  "0360161": {
    "zipcode": "0360161",
    "prefectureCode": "02",
    "prefectureNumber": 2,
    "prefecture": "青森県",
    "city": "平川市",
    "town": "杉館宮元"
  },
  "0360162": {
    "zipcode": "0360162",
    "prefectureCode": "02",
    "prefectureNumber": 2,
    "prefecture": "青森県",
    "city": "平川市",
    "town": "館山前田"
  },
  "0360163": {
    "zipcode": "0360163",
    "prefectureCode": "02",
    "prefectureNumber": 2,
    "prefecture": "青森県",
    "city": "平川市",
    "town": "苗生松元東田"
  },
  "0360164": {
    "zipcode": "0360164",
    "prefectureCode": "02",
    "prefectureNumber": 2,
    "prefecture": "青森県",
    "city": "平川市",
    "town": "松崎西田"
  },
  "0360165": {
    "zipcode": "0360165",
    "prefectureCode": "02",
    "prefectureNumber": 2,
    "prefecture": "青森県",
    "city": "平川市",
    "town": "松館松元"
  },
  "0360171": {
    "zipcode": "0360171",
    "prefectureCode": "02",
    "prefectureNumber": 2,
    "prefecture": "青森県",
    "city": "平川市",
    "town": "小国山下"
  },
  "0360172": {
    "zipcode": "0360172",
    "prefectureCode": "02",
    "prefectureNumber": 2,
    "prefecture": "青森県",
    "city": "平川市",
    "town": "葛川家岸"
  },
  "0360173": {
    "zipcode": "0360173",
    "prefectureCode": "02",
    "prefectureNumber": 2,
    "prefecture": "青森県",
    "city": "平川市",
    "town": "切明山下"
  },
  "0360201": {
    "zipcode": "0360201",
    "prefectureCode": "02",
    "prefectureNumber": 2,
    "prefecture": "青森県",
    "city": "平川市",
    "town": "李平南豊田"
  },
  "0360202": {
    "zipcode": "0360202",
    "prefectureCode": "02",
    "prefectureNumber": 2,
    "prefecture": "青森県",
    "city": "平川市",
    "town": "金屋西松元"
  },
  "0360203": {
    "zipcode": "0360203",
    "prefectureCode": "02",
    "prefectureNumber": 2,
    "prefecture": "青森県",
    "city": "平川市",
    "town": "南田中村内"
  },
  "0360211": {
    "zipcode": "0360211",
    "prefectureCode": "02",
    "prefectureNumber": 2,
    "prefecture": "青森県",
    "city": "平川市",
    "town": "高木松元"
  },
  "0360212": {
    "zipcode": "0360212",
    "prefectureCode": "02",
    "prefectureNumber": 2,
    "prefecture": "青森県",
    "city": "平川市",
    "town": "尾上栄松"
  },
  "0360213": {
    "zipcode": "0360213",
    "prefectureCode": "02",
    "prefectureNumber": 2,
    "prefecture": "青森県",
    "city": "平川市",
    "town": "新屋町村元"
  },
  "0360221": {
    "zipcode": "0360221",
    "prefectureCode": "02",
    "prefectureNumber": 2,
    "prefecture": "青森県",
    "city": "平川市",
    "town": "中佐渡村元"
  },
  "0360222": {
    "zipcode": "0360222",
    "prefectureCode": "02",
    "prefectureNumber": 2,
    "prefecture": "青森県",
    "city": "平川市",
    "town": "長田元村"
  },
  "0360223": {
    "zipcode": "0360223",
    "prefectureCode": "02",
    "prefectureNumber": 2,
    "prefecture": "青森県",
    "city": "平川市",
    "town": "西野曽江広田"
  },
  "0360231": {
    "zipcode": "0360231",
    "prefectureCode": "02",
    "prefectureNumber": 2,
    "prefecture": "青森県",
    "city": "平川市",
    "town": "新山早稲田"
  },
  "0360232": {
    "zipcode": "0360232",
    "prefectureCode": "02",
    "prefectureNumber": 2,
    "prefecture": "青森県",
    "city": "平川市",
    "town": "蒲田元宮"
  },
  "0360233": {
    "zipcode": "0360233",
    "prefectureCode": "02",
    "prefectureNumber": 2,
    "prefecture": "青森県",
    "city": "平川市",
    "town": "日沼富岳"
  },
  "0360241": {
    "zipcode": "0360241",
    "prefectureCode": "02",
    "prefectureNumber": 2,
    "prefecture": "青森県",
    "city": "平川市",
    "town": "八幡崎本宮"
  },
  "0360242": {
    "zipcode": "0360242",
    "prefectureCode": "02",
    "prefectureNumber": 2,
    "prefecture": "青森県",
    "city": "平川市",
    "town": "猿賀安田"
  },
  "0360243": {
    "zipcode": "0360243",
    "prefectureCode": "02",
    "prefectureNumber": 2,
    "prefecture": "青森県",
    "city": "平川市",
    "town": "原北原"
  },
  "0360300": {
    "zipcode": "0360300",
    "prefectureCode": "02",
    "prefectureNumber": 2,
    "prefecture": "青森県",
    "city": "黒石市",
    "town": "以下に掲載がない場合"
  },
  "0360301": {
    "zipcode": "0360301",
    "prefectureCode": "02",
    "prefectureNumber": 2,
    "prefecture": "青森県",
    "city": "黒石市",
    "town": "一番町"
  },
  "0360302": {
    "zipcode": "0360302",
    "prefectureCode": "02",
    "prefectureNumber": 2,
    "prefecture": "青森県",
    "city": "黒石市",
    "town": "油横丁"
  },
  "0360303": {
    "zipcode": "0360303",
    "prefectureCode": "02",
    "prefectureNumber": 2,
    "prefecture": "青森県",
    "city": "黒石市",
    "town": "株梗木横丁"
  },
  "0360304": {
    "zipcode": "0360304",
    "prefectureCode": "02",
    "prefectureNumber": 2,
    "prefecture": "青森県",
    "city": "黒石市",
    "town": "甲徳兵衛町"
  },
  "0360305": {
    "zipcode": "0360305",
    "prefectureCode": "02",
    "prefectureNumber": 2,
    "prefecture": "青森県",
    "city": "黒石市",
    "town": "乙徳兵衛町"
  },
  "0360306": {
    "zipcode": "0360306",
    "prefectureCode": "02",
    "prefectureNumber": 2,
    "prefecture": "青森県",
    "city": "黒石市",
    "town": "内町"
  },
  "0360307": {
    "zipcode": "0360307",
    "prefectureCode": "02",
    "prefectureNumber": 2,
    "prefecture": "青森県",
    "city": "黒石市",
    "town": "市ノ町"
  },
  "0360308": {
    "zipcode": "0360308",
    "prefectureCode": "02",
    "prefectureNumber": 2,
    "prefecture": "青森県",
    "city": "黒石市",
    "town": "寺小路"
  },
  "0360311": {
    "zipcode": "0360311",
    "prefectureCode": "02",
    "prefectureNumber": 2,
    "prefecture": "青森県",
    "city": "黒石市",
    "town": "吉乃町"
  },
  "0360312": {
    "zipcode": "0360312",
    "prefectureCode": "02",
    "prefectureNumber": 2,
    "prefecture": "青森県",
    "city": "黒石市",
    "town": "昭和町"
  },
  "0360313": {
    "zipcode": "0360313",
    "prefectureCode": "02",
    "prefectureNumber": 2,
    "prefecture": "青森県",
    "city": "黒石市",
    "town": "松葉町"
  },
  "0360314": {
    "zipcode": "0360314",
    "prefectureCode": "02",
    "prefectureNumber": 2,
    "prefecture": "青森県",
    "city": "黒石市",
    "town": "道北町"
  },
  "0360315": {
    "zipcode": "0360315",
    "prefectureCode": "02",
    "prefectureNumber": 2,
    "prefecture": "青森県",
    "city": "黒石市",
    "town": "寿町"
  },
  "0360316": {
    "zipcode": "0360316",
    "prefectureCode": "02",
    "prefectureNumber": 2,
    "prefecture": "青森県",
    "city": "黒石市",
    "town": "ぐみの木"
  },
  "0360317": {
    "zipcode": "0360317",
    "prefectureCode": "02",
    "prefectureNumber": 2,
    "prefecture": "青森県",
    "city": "黒石市",
    "town": "住吉町"
  },
  "0360318": {
    "zipcode": "0360318",
    "prefectureCode": "02",
    "prefectureNumber": 2,
    "prefecture": "青森県",
    "city": "黒石市",
    "town": "岩木町"
  },
  "0360321": {
    "zipcode": "0360321",
    "prefectureCode": "02",
    "prefectureNumber": 2,
    "prefecture": "青森県",
    "city": "黒石市",
    "town": "あけぼの町"
  },
  "0360322": {
    "zipcode": "0360322",
    "prefectureCode": "02",
    "prefectureNumber": 2,
    "prefecture": "青森県",
    "city": "黒石市",
    "town": "竹田町"
  },
  "0360323": {
    "zipcode": "0360323",
    "prefectureCode": "02",
    "prefectureNumber": 2,
    "prefecture": "青森県",
    "city": "黒石市",
    "town": "上十川"
  },
  "0360324": {
    "zipcode": "0360324",
    "prefectureCode": "02",
    "prefectureNumber": 2,
    "prefecture": "青森県",
    "city": "黒石市",
    "town": "東野添"
  },
  "0360325": {
    "zipcode": "0360325",
    "prefectureCode": "02",
    "prefectureNumber": 2,
    "prefecture": "青森県",
    "city": "黒石市",
    "town": "青山"
  },
  "0360326": {
    "zipcode": "0360326",
    "prefectureCode": "02",
    "prefectureNumber": 2,
    "prefecture": "青森県",
    "city": "黒石市",
    "town": "野添町"
  },
  "0360331": {
    "zipcode": "0360331",
    "prefectureCode": "02",
    "prefectureNumber": 2,
    "prefecture": "青森県",
    "city": "黒石市",
    "town": "八甲"
  },
  "0360332": {
    "zipcode": "0360332",
    "prefectureCode": "02",
    "prefectureNumber": 2,
    "prefecture": "青森県",
    "city": "黒石市",
    "town": "牡丹平"
  },
  "0360333": {
    "zipcode": "0360333",
    "prefectureCode": "02",
    "prefectureNumber": 2,
    "prefecture": "青森県",
    "city": "黒石市",
    "town": "柵ノ木"
  },
  "0360334": {
    "zipcode": "0360334",
    "prefectureCode": "02",
    "prefectureNumber": 2,
    "prefecture": "青森県",
    "city": "黒石市",
    "town": "東新町"
  },
  "0360335": {
    "zipcode": "0360335",
    "prefectureCode": "02",
    "prefectureNumber": 2,
    "prefecture": "青森県",
    "city": "黒石市",
    "town": "幸町"
  },
  "0360336": {
    "zipcode": "0360336",
    "prefectureCode": "02",
    "prefectureNumber": 2,
    "prefecture": "青森県",
    "city": "黒石市",
    "town": "桜木町"
  },
  "0360337": {
    "zipcode": "0360337",
    "prefectureCode": "02",
    "prefectureNumber": 2,
    "prefecture": "青森県",
    "city": "黒石市",
    "town": "角田"
  },
  "0360338": {
    "zipcode": "0360338",
    "prefectureCode": "02",
    "prefectureNumber": 2,
    "prefecture": "青森県",
    "city": "黒石市",
    "town": "春日町"
  },
  "0360339": {
    "zipcode": "0360339",
    "prefectureCode": "02",
    "prefectureNumber": 2,
    "prefecture": "青森県",
    "city": "黒石市",
    "town": "美原町"
  },
  "0360341": {
    "zipcode": "0360341",
    "prefectureCode": "02",
    "prefectureNumber": 2,
    "prefecture": "青森県",
    "city": "黒石市",
    "town": "豊岡"
  },
  "0360342": {
    "zipcode": "0360342",
    "prefectureCode": "02",
    "prefectureNumber": 2,
    "prefecture": "青森県",
    "city": "黒石市",
    "town": "石名坂"
  },
  "0360343": {
    "zipcode": "0360343",
    "prefectureCode": "02",
    "prefectureNumber": 2,
    "prefecture": "青森県",
    "city": "黒石市",
    "town": "浅瀬石"
  },
  "0360344": {
    "zipcode": "0360344",
    "prefectureCode": "02",
    "prefectureNumber": 2,
    "prefecture": "青森県",
    "city": "黒石市",
    "town": "高賀野"
  },
  "0360345": {
    "zipcode": "0360345",
    "prefectureCode": "02",
    "prefectureNumber": 2,
    "prefecture": "青森県",
    "city": "黒石市",
    "town": "中川"
  },
  "0360351": {
    "zipcode": "0360351",
    "prefectureCode": "02",
    "prefectureNumber": 2,
    "prefecture": "青森県",
    "city": "黒石市",
    "town": "黒石"
  },
  "0360352": {
    "zipcode": "0360352",
    "prefectureCode": "02",
    "prefectureNumber": 2,
    "prefecture": "青森県",
    "city": "黒石市",
    "town": "甲大工町"
  },
  "0360353": {
    "zipcode": "0360353",
    "prefectureCode": "02",
    "prefectureNumber": 2,
    "prefecture": "青森県",
    "city": "黒石市",
    "town": "乙大工町"
  },
  "0360354": {
    "zipcode": "0360354",
    "prefectureCode": "02",
    "prefectureNumber": 2,
    "prefecture": "青森県",
    "city": "黒石市",
    "town": "後大工町"
  },
  "0360355": {
    "zipcode": "0360355",
    "prefectureCode": "02",
    "prefectureNumber": 2,
    "prefecture": "青森県",
    "city": "黒石市",
    "town": "袋井"
  },
  "0360356": {
    "zipcode": "0360356",
    "prefectureCode": "02",
    "prefectureNumber": 2,
    "prefecture": "青森県",
    "city": "黒石市",
    "town": "ちとせ"
  },
  "0360357": {
    "zipcode": "0360357",
    "prefectureCode": "02",
    "prefectureNumber": 2,
    "prefecture": "青森県",
    "city": "黒石市",
    "town": "追子野木"
  },
  "0360361": {
    "zipcode": "0360361",
    "prefectureCode": "02",
    "prefectureNumber": 2,
    "prefecture": "青森県",
    "city": "黒石市",
    "town": "弥生町"
  },
  "0360362": {
    "zipcode": "0360362",
    "prefectureCode": "02",
    "prefectureNumber": 2,
    "prefecture": "青森県",
    "city": "黒石市",
    "town": "京町"
  },
  "0360363": {
    "zipcode": "0360363",
    "prefectureCode": "02",
    "prefectureNumber": 2,
    "prefecture": "青森県",
    "city": "黒石市",
    "town": "鍛治町"
  },
  "0360364": {
    "zipcode": "0360364",
    "prefectureCode": "02",
    "prefectureNumber": 2,
    "prefecture": "青森県",
    "city": "黒石市",
    "town": "山形町"
  },
  "0360365": {
    "zipcode": "0360365",
    "prefectureCode": "02",
    "prefectureNumber": 2,
    "prefecture": "青森県",
    "city": "黒石市",
    "town": "長崎"
  },
  "0360366": {
    "zipcode": "0360366",
    "prefectureCode": "02",
    "prefectureNumber": 2,
    "prefecture": "青森県",
    "city": "黒石市",
    "town": "浦町"
  },
  "0360367": {
    "zipcode": "0360367",
    "prefectureCode": "02",
    "prefectureNumber": 2,
    "prefecture": "青森県",
    "city": "黒石市",
    "town": "前町"
  },
  "0360368": {
    "zipcode": "0360368",
    "prefectureCode": "02",
    "prefectureNumber": 2,
    "prefecture": "青森県",
    "city": "黒石市",
    "town": "横町"
  },
  "0360371": {
    "zipcode": "0360371",
    "prefectureCode": "02",
    "prefectureNumber": 2,
    "prefecture": "青森県",
    "city": "黒石市",
    "town": "花園町"
  },
  "0360372": {
    "zipcode": "0360372",
    "prefectureCode": "02",
    "prefectureNumber": 2,
    "prefecture": "青森県",
    "city": "黒石市",
    "town": "錦町"
  },
  "0360373": {
    "zipcode": "0360373",
    "prefectureCode": "02",
    "prefectureNumber": 2,
    "prefecture": "青森県",
    "city": "黒石市",
    "town": "東町"
  },
  "0360374": {
    "zipcode": "0360374",
    "prefectureCode": "02",
    "prefectureNumber": 2,
    "prefecture": "青森県",
    "city": "黒石市",
    "town": "泉町"
  },
  "0360375": {
    "zipcode": "0360375",
    "prefectureCode": "02",
    "prefectureNumber": 2,
    "prefecture": "青森県",
    "city": "黒石市",
    "town": "若葉町"
  },
  "0360376": {
    "zipcode": "0360376",
    "prefectureCode": "02",
    "prefectureNumber": 2,
    "prefecture": "青森県",
    "city": "黒石市",
    "town": "旭町"
  },
  "0360377": {
    "zipcode": "0360377",
    "prefectureCode": "02",
    "prefectureNumber": 2,
    "prefecture": "青森県",
    "city": "黒石市",
    "town": "中町"
  },
  "0360378": {
    "zipcode": "0360378",
    "prefectureCode": "02",
    "prefectureNumber": 2,
    "prefecture": "青森県",
    "city": "黒石市",
    "town": "浜町"
  },
  "0360381": {
    "zipcode": "0360381",
    "prefectureCode": "02",
    "prefectureNumber": 2,
    "prefecture": "青森県",
    "city": "黒石市",
    "town": "株梗木"
  },
  "0360382": {
    "zipcode": "0360382",
    "prefectureCode": "02",
    "prefectureNumber": 2,
    "prefecture": "青森県",
    "city": "黒石市",
    "town": "作場町"
  },
  "0360383": {
    "zipcode": "0360383",
    "prefectureCode": "02",
    "prefectureNumber": 2,
    "prefecture": "青森県",
    "city": "黒石市",
    "town": "緑町"
  },
  "0360384": {
    "zipcode": "0360384",
    "prefectureCode": "02",
    "prefectureNumber": 2,
    "prefecture": "青森県",
    "city": "黒石市",
    "town": "大町"
  },
  "0360385": {
    "zipcode": "0360385",
    "prefectureCode": "02",
    "prefectureNumber": 2,
    "prefecture": "青森県",
    "city": "黒石市",
    "town": "大板町"
  },
  "0360386": {
    "zipcode": "0360386",
    "prefectureCode": "02",
    "prefectureNumber": 2,
    "prefecture": "青森県",
    "city": "黒石市",
    "town": "上町"
  },
  "0360387": {
    "zipcode": "0360387",
    "prefectureCode": "02",
    "prefectureNumber": 2,
    "prefecture": "青森県",
    "city": "黒石市",
    "town": "元町"
  },
  "0360388": {
    "zipcode": "0360388",
    "prefectureCode": "02",
    "prefectureNumber": 2,
    "prefecture": "青森県",
    "city": "黒石市",
    "town": "西ケ丘"
  },
  "0360389": {
    "zipcode": "0360389",
    "prefectureCode": "02",
    "prefectureNumber": 2,
    "prefecture": "青森県",
    "city": "黒石市",
    "town": "境松"
  },
  "0360401": {
    "zipcode": "0360401",
    "prefectureCode": "02",
    "prefectureNumber": 2,
    "prefecture": "青森県",
    "city": "黒石市",
    "town": "大川原"
  },
  "0360402": {
    "zipcode": "0360402",
    "prefectureCode": "02",
    "prefectureNumber": 2,
    "prefecture": "青森県",
    "city": "黒石市",
    "town": "沖浦"
  },
  "0360403": {
    "zipcode": "0360403",
    "prefectureCode": "02",
    "prefectureNumber": 2,
    "prefecture": "青森県",
    "city": "黒石市",
    "town": "二庄内"
  },
  "0360404": {
    "zipcode": "0360404",
    "prefectureCode": "02",
    "prefectureNumber": 2,
    "prefecture": "青森県",
    "city": "黒石市",
    "town": "板留"
  },
  "0360405": {
    "zipcode": "0360405",
    "prefectureCode": "02",
    "prefectureNumber": 2,
    "prefecture": "青森県",
    "city": "黒石市",
    "town": "南中野"
  },
  "0360411": {
    "zipcode": "0360411",
    "prefectureCode": "02",
    "prefectureNumber": 2,
    "prefecture": "青森県",
    "city": "黒石市",
    "town": "温湯"
  },
  "0360412": {
    "zipcode": "0360412",
    "prefectureCode": "02",
    "prefectureNumber": 2,
    "prefecture": "青森県",
    "city": "黒石市",
    "town": "袋"
  },
  "0360413": {
    "zipcode": "0360413",
    "prefectureCode": "02",
    "prefectureNumber": 2,
    "prefecture": "青森県",
    "city": "黒石市",
    "town": "花巻"
  },
  "0360414": {
    "zipcode": "0360414",
    "prefectureCode": "02",
    "prefectureNumber": 2,
    "prefecture": "青森県",
    "city": "黒石市",
    "town": "下山形"
  },
  "0360415": {
    "zipcode": "0360415",
    "prefectureCode": "02",
    "prefectureNumber": 2,
    "prefecture": "青森県",
    "city": "黒石市",
    "town": "上山形"
  },
  "0360501": {
    "zipcode": "0360501",
    "prefectureCode": "02",
    "prefectureNumber": 2,
    "prefecture": "青森県",
    "city": "黒石市",
    "town": "東馬場尻"
  },
  "0360502": {
    "zipcode": "0360502",
    "prefectureCode": "02",
    "prefectureNumber": 2,
    "prefecture": "青森県",
    "city": "黒石市",
    "town": "馬場尻北"
  },
  "0360503": {
    "zipcode": "0360503",
    "prefectureCode": "02",
    "prefectureNumber": 2,
    "prefecture": "青森県",
    "city": "黒石市",
    "town": "馬場尻下"
  },
  "0360504": {
    "zipcode": "0360504",
    "prefectureCode": "02",
    "prefectureNumber": 2,
    "prefecture": "青森県",
    "city": "黒石市",
    "town": "馬場尻東"
  },
  "0360505": {
    "zipcode": "0360505",
    "prefectureCode": "02",
    "prefectureNumber": 2,
    "prefecture": "青森県",
    "city": "黒石市",
    "town": "馬場尻南"
  },
  "0360506": {
    "zipcode": "0360506",
    "prefectureCode": "02",
    "prefectureNumber": 2,
    "prefecture": "青森県",
    "city": "黒石市",
    "town": "馬場尻西"
  },
  "0360507": {
    "zipcode": "0360507",
    "prefectureCode": "02",
    "prefectureNumber": 2,
    "prefecture": "青森県",
    "city": "黒石市",
    "town": "西馬場尻"
  },
  "0360511": {
    "zipcode": "0360511",
    "prefectureCode": "02",
    "prefectureNumber": 2,
    "prefecture": "青森県",
    "city": "黒石市",
    "town": "小屋敷"
  },
  "0360512": {
    "zipcode": "0360512",
    "prefectureCode": "02",
    "prefectureNumber": 2,
    "prefecture": "青森県",
    "city": "黒石市",
    "town": "小屋敷南"
  },
  "0360513": {
    "zipcode": "0360513",
    "prefectureCode": "02",
    "prefectureNumber": 2,
    "prefecture": "青森県",
    "city": "黒石市",
    "town": "小屋敷西"
  },
  "0360514": {
    "zipcode": "0360514",
    "prefectureCode": "02",
    "prefectureNumber": 2,
    "prefecture": "青森県",
    "city": "黒石市",
    "town": "富田"
  },
  "0360515": {
    "zipcode": "0360515",
    "prefectureCode": "02",
    "prefectureNumber": 2,
    "prefecture": "青森県",
    "city": "黒石市",
    "town": "富士見"
  },
  "0360516": {
    "zipcode": "0360516",
    "prefectureCode": "02",
    "prefectureNumber": 2,
    "prefecture": "青森県",
    "city": "黒石市",
    "town": "相野"
  },
  "0360517": {
    "zipcode": "0360517",
    "prefectureCode": "02",
    "prefectureNumber": 2,
    "prefecture": "青森県",
    "city": "黒石市",
    "town": "松原"
  },
  "0360521": {
    "zipcode": "0360521",
    "prefectureCode": "02",
    "prefectureNumber": 2,
    "prefecture": "青森県",
    "city": "黒石市",
    "town": "末広"
  },
  "0360522": {
    "zipcode": "0360522",
    "prefectureCode": "02",
    "prefectureNumber": 2,
    "prefecture": "青森県",
    "city": "黒石市",
    "town": "田中"
  },
  "0360523": {
    "zipcode": "0360523",
    "prefectureCode": "02",
    "prefectureNumber": 2,
    "prefecture": "青森県",
    "city": "黒石市",
    "town": "北田中"
  },
  "0360524": {
    "zipcode": "0360524",
    "prefectureCode": "02",
    "prefectureNumber": 2,
    "prefecture": "青森県",
    "city": "黒石市",
    "town": "緑ケ丘"
  },
  "0360531": {
    "zipcode": "0360531",
    "prefectureCode": "02",
    "prefectureNumber": 2,
    "prefecture": "青森県",
    "city": "黒石市",
    "town": "飛内"
  },
  "0360532": {
    "zipcode": "0360532",
    "prefectureCode": "02",
    "prefectureNumber": 2,
    "prefecture": "青森県",
    "city": "黒石市",
    "town": "飛内北"
  },
  "0360533": {
    "zipcode": "0360533",
    "prefectureCode": "02",
    "prefectureNumber": 2,
    "prefecture": "青森県",
    "city": "黒石市",
    "town": "二双子"
  },
  "0360534": {
    "zipcode": "0360534",
    "prefectureCode": "02",
    "prefectureNumber": 2,
    "prefecture": "青森県",
    "city": "黒石市",
    "town": "竹鼻"
  },
  "0360535": {
    "zipcode": "0360535",
    "prefectureCode": "02",
    "prefectureNumber": 2,
    "prefecture": "青森県",
    "city": "黒石市",
    "town": "高舘"
  },
  "0360536": {
    "zipcode": "0360536",
    "prefectureCode": "02",
    "prefectureNumber": 2,
    "prefecture": "青森県",
    "city": "黒石市",
    "town": "三島"
  },
  "0360537": {
    "zipcode": "0360537",
    "prefectureCode": "02",
    "prefectureNumber": 2,
    "prefecture": "青森県",
    "city": "黒石市",
    "town": "赤坂"
  },
  "0360538": {
    "zipcode": "0360538",
    "prefectureCode": "02",
    "prefectureNumber": 2,
    "prefecture": "青森県",
    "city": "黒石市",
    "town": "上目内澤"
  },
  "0360539": {
    "zipcode": "0360539",
    "prefectureCode": "02",
    "prefectureNumber": 2,
    "prefecture": "青森県",
    "city": "黒石市",
    "town": "下目内澤"
  },
  "0360541": {
    "zipcode": "0360541",
    "prefectureCode": "02",
    "prefectureNumber": 2,
    "prefecture": "青森県",
    "city": "黒石市",
    "town": "北美町"
  },
  "0360542": {
    "zipcode": "0360542",
    "prefectureCode": "02",
    "prefectureNumber": 2,
    "prefecture": "青森県",
    "city": "黒石市",
    "town": "野際"
  },
  "0361201": {
    "zipcode": "0361201",
    "prefectureCode": "02",
    "prefectureNumber": 2,
    "prefecture": "青森県",
    "city": "弘前市",
    "town": "十腰内"
  },
  "0361202": {
    "zipcode": "0361202",
    "prefectureCode": "02",
    "prefectureNumber": 2,
    "prefecture": "青森県",
    "city": "弘前市",
    "town": "十面沢"
  },
  "0361203": {
    "zipcode": "0361203",
    "prefectureCode": "02",
    "prefectureNumber": 2,
    "prefecture": "青森県",
    "city": "弘前市",
    "town": "大森"
  },
  "0361204": {
    "zipcode": "0361204",
    "prefectureCode": "02",
    "prefectureNumber": 2,
    "prefecture": "青森県",
    "city": "弘前市",
    "town": "貝沢"
  },
  "0361205": {
    "zipcode": "0361205",
    "prefectureCode": "02",
    "prefectureNumber": 2,
    "prefecture": "青森県",
    "city": "弘前市",
    "town": "鬼沢"
  },
  "0361206": {
    "zipcode": "0361206",
    "prefectureCode": "02",
    "prefectureNumber": 2,
    "prefecture": "青森県",
    "city": "弘前市",
    "town": "楢木"
  },
  "0361301": {
    "zipcode": "0361301",
    "prefectureCode": "02",
    "prefectureNumber": 2,
    "prefecture": "青森県",
    "city": "弘前市",
    "town": "鼻和"
  },
  "0361302": {
    "zipcode": "0361302",
    "prefectureCode": "02",
    "prefectureNumber": 2,
    "prefecture": "青森県",
    "city": "弘前市",
    "town": "愛宕"
  },
  "0361303": {
    "zipcode": "0361303",
    "prefectureCode": "02",
    "prefectureNumber": 2,
    "prefecture": "青森県",
    "city": "弘前市",
    "town": "葛原"
  },
  "0361304": {
    "zipcode": "0361304",
    "prefectureCode": "02",
    "prefectureNumber": 2,
    "prefecture": "青森県",
    "city": "弘前市",
    "town": "新岡"
  },
  "0361311": {
    "zipcode": "0361311",
    "prefectureCode": "02",
    "prefectureNumber": 2,
    "prefecture": "青森県",
    "city": "弘前市",
    "town": "横町"
  },
  "0361312": {
    "zipcode": "0361312",
    "prefectureCode": "02",
    "prefectureNumber": 2,
    "prefecture": "青森県",
    "city": "弘前市",
    "town": "高屋"
  },
  "0361313": {
    "zipcode": "0361313",
    "prefectureCode": "02",
    "prefectureNumber": 2,
    "prefecture": "青森県",
    "city": "弘前市",
    "town": "賀田"
  },
  "0361314": {
    "zipcode": "0361314",
    "prefectureCode": "02",
    "prefectureNumber": 2,
    "prefecture": "青森県",
    "city": "弘前市",
    "town": "八幡"
  },
  "0361321": {
    "zipcode": "0361321",
    "prefectureCode": "02",
    "prefectureNumber": 2,
    "prefecture": "青森県",
    "city": "弘前市",
    "town": "熊嶋"
  },
  "0361322": {
    "zipcode": "0361322",
    "prefectureCode": "02",
    "prefectureNumber": 2,
    "prefecture": "青森県",
    "city": "弘前市",
    "town": "駒越"
  },
  "0361323": {
    "zipcode": "0361323",
    "prefectureCode": "02",
    "prefectureNumber": 2,
    "prefecture": "青森県",
    "city": "弘前市",
    "town": "真土"
  },
  "0361324": {
    "zipcode": "0361324",
    "prefectureCode": "02",
    "prefectureNumber": 2,
    "prefecture": "青森県",
    "city": "弘前市",
    "town": "龍ノ口"
  },
  "0361325": {
    "zipcode": "0361325",
    "prefectureCode": "02",
    "prefectureNumber": 2,
    "prefecture": "青森県",
    "city": "弘前市",
    "town": "一町田"
  },
  "0361331": {
    "zipcode": "0361331",
    "prefectureCode": "02",
    "prefectureNumber": 2,
    "prefecture": "青森県",
    "city": "弘前市",
    "town": "五代"
  },
  "0361332": {
    "zipcode": "0361332",
    "prefectureCode": "02",
    "prefectureNumber": 2,
    "prefecture": "青森県",
    "city": "弘前市",
    "town": "兼平"
  },
  "0361333": {
    "zipcode": "0361333",
    "prefectureCode": "02",
    "prefectureNumber": 2,
    "prefecture": "青森県",
    "city": "弘前市",
    "town": "鳥井野"
  },
  "0361334": {
    "zipcode": "0361334",
    "prefectureCode": "02",
    "prefectureNumber": 2,
    "prefecture": "青森県",
    "city": "弘前市",
    "town": "如来瀬"
  },
  "0361341": {
    "zipcode": "0361341",
    "prefectureCode": "02",
    "prefectureNumber": 2,
    "prefecture": "青森県",
    "city": "弘前市",
    "town": "宮地"
  },
  "0361342": {
    "zipcode": "0361342",
    "prefectureCode": "02",
    "prefectureNumber": 2,
    "prefecture": "青森県",
    "city": "弘前市",
    "town": "新法師"
  },
  "0361343": {
    "zipcode": "0361343",
    "prefectureCode": "02",
    "prefectureNumber": 2,
    "prefecture": "青森県",
    "city": "弘前市",
    "town": "百沢"
  },
  "0361344": {
    "zipcode": "0361344",
    "prefectureCode": "02",
    "prefectureNumber": 2,
    "prefecture": "青森県",
    "city": "弘前市",
    "town": "高岡"
  },
  "0361345": {
    "zipcode": "0361345",
    "prefectureCode": "02",
    "prefectureNumber": 2,
    "prefecture": "青森県",
    "city": "弘前市",
    "town": "常盤野"
  },
  "0361361": {
    "zipcode": "0361361",
    "prefectureCode": "02",
    "prefectureNumber": 2,
    "prefecture": "青森県",
    "city": "弘前市",
    "town": "弥生"
  },
  "0361400": {
    "zipcode": "0361400",
    "prefectureCode": "02",
    "prefectureNumber": 2,
    "prefecture": "青森県",
    "city": "中津軽郡西目屋村",
    "town": "以下に掲載がない場合"
  },
  "0361411": {
    "zipcode": "0361411",
    "prefectureCode": "02",
    "prefectureNumber": 2,
    "prefecture": "青森県",
    "city": "中津軽郡西目屋村",
    "town": "田代"
  },
  "0361412": {
    "zipcode": "0361412",
    "prefectureCode": "02",
    "prefectureNumber": 2,
    "prefecture": "青森県",
    "city": "中津軽郡西目屋村",
    "town": "杉ケ沢"
  },
  "0361413": {
    "zipcode": "0361413",
    "prefectureCode": "02",
    "prefectureNumber": 2,
    "prefecture": "青森県",
    "city": "中津軽郡西目屋村",
    "town": "大秋"
  },
  "0361414": {
    "zipcode": "0361414",
    "prefectureCode": "02",
    "prefectureNumber": 2,
    "prefecture": "青森県",
    "city": "中津軽郡西目屋村",
    "town": "白沢"
  },
  "0361415": {
    "zipcode": "0361415",
    "prefectureCode": "02",
    "prefectureNumber": 2,
    "prefecture": "青森県",
    "city": "中津軽郡西目屋村",
    "town": "村市"
  },
  "0361421": {
    "zipcode": "0361421",
    "prefectureCode": "02",
    "prefectureNumber": 2,
    "prefecture": "青森県",
    "city": "中津軽郡西目屋村",
    "town": "藤川"
  },
  "0361422": {
    "zipcode": "0361422",
    "prefectureCode": "02",
    "prefectureNumber": 2,
    "prefecture": "青森県",
    "city": "中津軽郡西目屋村",
    "town": "居森平"
  },
  "0361423": {
    "zipcode": "0361423",
    "prefectureCode": "02",
    "prefectureNumber": 2,
    "prefecture": "青森県",
    "city": "中津軽郡西目屋村",
    "town": "砂子瀬"
  },
  "0361424": {
    "zipcode": "0361424",
    "prefectureCode": "02",
    "prefectureNumber": 2,
    "prefecture": "青森県",
    "city": "中津軽郡西目屋村",
    "town": "川原平"
  },
  "0361431": {
    "zipcode": "0361431",
    "prefectureCode": "02",
    "prefectureNumber": 2,
    "prefecture": "青森県",
    "city": "弘前市",
    "town": "高野"
  },
  "0361432": {
    "zipcode": "0361432",
    "prefectureCode": "02",
    "prefectureNumber": 2,
    "prefecture": "青森県",
    "city": "弘前市",
    "town": "館後"
  },
  "0361433": {
    "zipcode": "0361433",
    "prefectureCode": "02",
    "prefectureNumber": 2,
    "prefecture": "青森県",
    "city": "弘前市",
    "town": "国吉"
  },
  "0361434": {
    "zipcode": "0361434",
    "prefectureCode": "02",
    "prefectureNumber": 2,
    "prefecture": "青森県",
    "city": "弘前市",
    "town": "黒土"
  },
  "0361435": {
    "zipcode": "0361435",
    "prefectureCode": "02",
    "prefectureNumber": 2,
    "prefecture": "青森県",
    "city": "弘前市",
    "town": "吉川"
  },
  "0361441": {
    "zipcode": "0361441",
    "prefectureCode": "02",
    "prefectureNumber": 2,
    "prefecture": "青森県",
    "city": "弘前市",
    "town": "桜庭"
  },
  "0361442": {
    "zipcode": "0361442",
    "prefectureCode": "02",
    "prefectureNumber": 2,
    "prefecture": "青森県",
    "city": "弘前市",
    "town": "平山"
  },
  "0361443": {
    "zipcode": "0361443",
    "prefectureCode": "02",
    "prefectureNumber": 2,
    "prefecture": "青森県",
    "city": "弘前市",
    "town": "米ケ袋"
  },
  "0361451": {
    "zipcode": "0361451",
    "prefectureCode": "02",
    "prefectureNumber": 2,
    "prefecture": "青森県",
    "city": "弘前市",
    "town": "中野（その他）"
  },
  "0361452": {
    "zipcode": "0361452",
    "prefectureCode": "02",
    "prefectureNumber": 2,
    "prefecture": "青森県",
    "city": "弘前市",
    "town": "中畑"
  },
  "0361453": {
    "zipcode": "0361453",
    "prefectureCode": "02",
    "prefectureNumber": 2,
    "prefecture": "青森県",
    "city": "弘前市",
    "town": "番館"
  },
  "0361501": {
    "zipcode": "0361501",
    "prefectureCode": "02",
    "prefectureNumber": 2,
    "prefecture": "青森県",
    "city": "弘前市",
    "town": "湯口"
  },
  "0361502": {
    "zipcode": "0361502",
    "prefectureCode": "02",
    "prefectureNumber": 2,
    "prefecture": "青森県",
    "city": "弘前市",
    "town": "黒滝"
  },
  "0361503": {
    "zipcode": "0361503",
    "prefectureCode": "02",
    "prefectureNumber": 2,
    "prefecture": "青森県",
    "city": "弘前市",
    "town": "五所"
  },
  "0361504": {
    "zipcode": "0361504",
    "prefectureCode": "02",
    "prefectureNumber": 2,
    "prefecture": "青森県",
    "city": "弘前市",
    "town": "紙漉沢"
  },
  "0361505": {
    "zipcode": "0361505",
    "prefectureCode": "02",
    "prefectureNumber": 2,
    "prefecture": "青森県",
    "city": "弘前市",
    "town": "水木在家"
  },
  "0361506": {
    "zipcode": "0361506",
    "prefectureCode": "02",
    "prefectureNumber": 2,
    "prefecture": "青森県",
    "city": "弘前市",
    "town": "昴"
  },
  "0361511": {
    "zipcode": "0361511",
    "prefectureCode": "02",
    "prefectureNumber": 2,
    "prefecture": "青森県",
    "city": "弘前市",
    "town": "坂市"
  },
  "0361512": {
    "zipcode": "0361512",
    "prefectureCode": "02",
    "prefectureNumber": 2,
    "prefecture": "青森県",
    "city": "弘前市",
    "town": "藤沢"
  },
  "0361513": {
    "zipcode": "0361513",
    "prefectureCode": "02",
    "prefectureNumber": 2,
    "prefecture": "青森県",
    "city": "弘前市",
    "town": "大助"
  },
  "0361514": {
    "zipcode": "0361514",
    "prefectureCode": "02",
    "prefectureNumber": 2,
    "prefecture": "青森県",
    "city": "弘前市",
    "town": "沢田"
  },
  "0361515": {
    "zipcode": "0361515",
    "prefectureCode": "02",
    "prefectureNumber": 2,
    "prefecture": "青森県",
    "city": "弘前市",
    "town": "相馬"
  },
  "0361516": {
    "zipcode": "0361516",
    "prefectureCode": "02",
    "prefectureNumber": 2,
    "prefecture": "青森県",
    "city": "弘前市",
    "town": "藍内"
  },
  "0368001": {
    "zipcode": "0368001",
    "prefectureCode": "02",
    "prefectureNumber": 2,
    "prefecture": "青森県",
    "city": "弘前市",
    "town": "代官町"
  },
  "0368002": {
    "zipcode": "0368002",
    "prefectureCode": "02",
    "prefectureNumber": 2,
    "prefecture": "青森県",
    "city": "弘前市",
    "town": "駅前"
  },
  "0368003": {
    "zipcode": "0368003",
    "prefectureCode": "02",
    "prefectureNumber": 2,
    "prefecture": "青森県",
    "city": "弘前市",
    "town": "駅前町"
  },
  "0368004": {
    "zipcode": "0368004",
    "prefectureCode": "02",
    "prefectureNumber": 2,
    "prefecture": "青森県",
    "city": "弘前市",
    "town": "大町"
  },
  "0368005": {
    "zipcode": "0368005",
    "prefectureCode": "02",
    "prefectureNumber": 2,
    "prefecture": "青森県",
    "city": "弘前市",
    "town": "楮町"
  },
  "0368006": {
    "zipcode": "0368006",
    "prefectureCode": "02",
    "prefectureNumber": 2,
    "prefecture": "青森県",
    "city": "弘前市",
    "town": "南大町"
  },
  "0368011": {
    "zipcode": "0368011",
    "prefectureCode": "02",
    "prefectureNumber": 2,
    "prefecture": "青森県",
    "city": "弘前市",
    "town": "山下町"
  },
  "0368012": {
    "zipcode": "0368012",
    "prefectureCode": "02",
    "prefectureNumber": 2,
    "prefecture": "青森県",
    "city": "弘前市",
    "town": "北瓦ケ町"
  },
  "0368013": {
    "zipcode": "0368013",
    "prefectureCode": "02",
    "prefectureNumber": 2,
    "prefecture": "青森県",
    "city": "弘前市",
    "town": "上瓦ケ町"
  },
  "0368014": {
    "zipcode": "0368014",
    "prefectureCode": "02",
    "prefectureNumber": 2,
    "prefecture": "青森県",
    "city": "弘前市",
    "town": "南瓦ケ町"
  },
  "0368015": {
    "zipcode": "0368015",
    "prefectureCode": "02",
    "prefectureNumber": 2,
    "prefecture": "青森県",
    "city": "弘前市",
    "town": "中瓦ケ町"
  },
  "0368016": {
    "zipcode": "0368016",
    "prefectureCode": "02",
    "prefectureNumber": 2,
    "prefecture": "青森県",
    "city": "弘前市",
    "town": "坂本町"
  },
  "0368017": {
    "zipcode": "0368017",
    "prefectureCode": "02",
    "prefectureNumber": 2,
    "prefecture": "青森県",
    "city": "弘前市",
    "town": "西川岸町"
  },
  "0368018": {
    "zipcode": "0368018",
    "prefectureCode": "02",
    "prefectureNumber": 2,
    "prefecture": "青森県",
    "city": "弘前市",
    "town": "田代町"
  },
  "0368021": {
    "zipcode": "0368021",
    "prefectureCode": "02",
    "prefectureNumber": 2,
    "prefecture": "青森県",
    "city": "弘前市",
    "town": "和徳町"
  },
  "0368022": {
    "zipcode": "0368022",
    "prefectureCode": "02",
    "prefectureNumber": 2,
    "prefecture": "青森県",
    "city": "弘前市",
    "town": "萱町"
  },
  "0368023": {
    "zipcode": "0368023",
    "prefectureCode": "02",
    "prefectureNumber": 2,
    "prefecture": "青森県",
    "city": "弘前市",
    "town": "植田町"
  },
  "0368024": {
    "zipcode": "0368024",
    "prefectureCode": "02",
    "prefectureNumber": 2,
    "prefecture": "青森県",
    "city": "弘前市",
    "town": "緑町"
  },
  "0368025": {
    "zipcode": "0368025",
    "prefectureCode": "02",
    "prefectureNumber": 2,
    "prefecture": "青森県",
    "city": "弘前市",
    "town": "南柳町"
  },
  "0368026": {
    "zipcode": "0368026",
    "prefectureCode": "02",
    "prefectureNumber": 2,
    "prefecture": "青森県",
    "city": "弘前市",
    "town": "南横町"
  },
  "0368031": {
    "zipcode": "0368031",
    "prefectureCode": "02",
    "prefectureNumber": 2,
    "prefecture": "青森県",
    "city": "弘前市",
    "town": "北柳町"
  },
  "0368032": {
    "zipcode": "0368032",
    "prefectureCode": "02",
    "prefectureNumber": 2,
    "prefecture": "青森県",
    "city": "弘前市",
    "town": "徳田町"
  },
  "0368033": {
    "zipcode": "0368033",
    "prefectureCode": "02",
    "prefectureNumber": 2,
    "prefecture": "青森県",
    "city": "弘前市",
    "town": "徒町川端町"
  },
  "0368034": {
    "zipcode": "0368034",
    "prefectureCode": "02",
    "prefectureNumber": 2,
    "prefecture": "青森県",
    "city": "弘前市",
    "town": "徒町"
  },
  "0368035": {
    "zipcode": "0368035",
    "prefectureCode": "02",
    "prefectureNumber": 2,
    "prefecture": "青森県",
    "city": "弘前市",
    "town": "百石町"
  },
  "0368036": {
    "zipcode": "0368036",
    "prefectureCode": "02",
    "prefectureNumber": 2,
    "prefecture": "青森県",
    "city": "弘前市",
    "town": "鉄砲町"
  },
  "0368041": {
    "zipcode": "0368041",
    "prefectureCode": "02",
    "prefectureNumber": 2,
    "prefecture": "青森県",
    "city": "弘前市",
    "town": "俵元"
  },
  "0368042": {
    "zipcode": "0368042",
    "prefectureCode": "02",
    "prefectureNumber": 2,
    "prefecture": "青森県",
    "city": "弘前市",
    "town": "松ケ枝"
  },
  "0368043": {
    "zipcode": "0368043",
    "prefectureCode": "02",
    "prefectureNumber": 2,
    "prefecture": "青森県",
    "city": "弘前市",
    "town": "東和徳町"
  },
  "0368044": {
    "zipcode": "0368044",
    "prefectureCode": "02",
    "prefectureNumber": 2,
    "prefecture": "青森県",
    "city": "弘前市",
    "town": "茶畑町"
  },
  "0368045": {
    "zipcode": "0368045",
    "prefectureCode": "02",
    "prefectureNumber": 2,
    "prefecture": "青森県",
    "city": "弘前市",
    "town": "野田"
  },
  "0368046": {
    "zipcode": "0368046",
    "prefectureCode": "02",
    "prefectureNumber": 2,
    "prefecture": "青森県",
    "city": "弘前市",
    "town": "北横町"
  },
  "0368051": {
    "zipcode": "0368051",
    "prefectureCode": "02",
    "prefectureNumber": 2,
    "prefecture": "青森県",
    "city": "弘前市",
    "town": "宮川"
  },
  "0368052": {
    "zipcode": "0368052",
    "prefectureCode": "02",
    "prefectureNumber": 2,
    "prefecture": "青森県",
    "city": "弘前市",
    "town": "堅田"
  },
  "0368053": {
    "zipcode": "0368053",
    "prefectureCode": "02",
    "prefectureNumber": 2,
    "prefecture": "青森県",
    "city": "弘前市",
    "town": "和泉"
  },
  "0368054": {
    "zipcode": "0368054",
    "prefectureCode": "02",
    "prefectureNumber": 2,
    "prefecture": "青森県",
    "city": "弘前市",
    "town": "田町"
  },
  "0368055": {
    "zipcode": "0368055",
    "prefectureCode": "02",
    "prefectureNumber": 2,
    "prefecture": "青森県",
    "city": "弘前市",
    "town": "田茂木町"
  },
  "0368056": {
    "zipcode": "0368056",
    "prefectureCode": "02",
    "prefectureNumber": 2,
    "prefecture": "青森県",
    "city": "弘前市",
    "town": "禰宜町"
  },
  "0368057": {
    "zipcode": "0368057",
    "prefectureCode": "02",
    "prefectureNumber": 2,
    "prefecture": "青森県",
    "city": "弘前市",
    "town": "八幡町"
  },
  "0368061": {
    "zipcode": "0368061",
    "prefectureCode": "02",
    "prefectureNumber": 2,
    "prefecture": "青森県",
    "city": "弘前市",
    "town": "神田"
  },
  "0368062": {
    "zipcode": "0368062",
    "prefectureCode": "02",
    "prefectureNumber": 2,
    "prefecture": "青森県",
    "city": "弘前市",
    "town": "青山"
  },
  "0368063": {
    "zipcode": "0368063",
    "prefectureCode": "02",
    "prefectureNumber": 2,
    "prefecture": "青森県",
    "city": "弘前市",
    "town": "宮園"
  },
  "0368064": {
    "zipcode": "0368064",
    "prefectureCode": "02",
    "prefectureNumber": 2,
    "prefecture": "青森県",
    "city": "弘前市",
    "town": "東城北"
  },
  "0368065": {
    "zipcode": "0368065",
    "prefectureCode": "02",
    "prefectureNumber": 2,
    "prefecture": "青森県",
    "city": "弘前市",
    "town": "西城北"
  },
  "0368066": {
    "zipcode": "0368066",
    "prefectureCode": "02",
    "prefectureNumber": 2,
    "prefecture": "青森県",
    "city": "弘前市",
    "town": "向外瀬"
  },
  "0368071": {
    "zipcode": "0368071",
    "prefectureCode": "02",
    "prefectureNumber": 2,
    "prefecture": "青森県",
    "city": "弘前市",
    "town": "大久保"
  },
  "0368072": {
    "zipcode": "0368072",
    "prefectureCode": "02",
    "prefectureNumber": 2,
    "prefecture": "青森県",
    "city": "弘前市",
    "town": "清野袋"
  },
  "0368073": {
    "zipcode": "0368073",
    "prefectureCode": "02",
    "prefectureNumber": 2,
    "prefecture": "青森県",
    "city": "弘前市",
    "town": "岩賀"
  },
  "0368074": {
    "zipcode": "0368074",
    "prefectureCode": "02",
    "prefectureNumber": 2,
    "prefecture": "青森県",
    "city": "弘前市",
    "town": "津賀野（瀬ノ上）"
  },
  "0368075": {
    "zipcode": "0368075",
    "prefectureCode": "02",
    "prefectureNumber": 2,
    "prefecture": "青森県",
    "city": "弘前市",
    "town": "撫牛子"
  },
  "0368076": {
    "zipcode": "0368076",
    "prefectureCode": "02",
    "prefectureNumber": 2,
    "prefecture": "青森県",
    "city": "弘前市",
    "town": "境関"
  },
  "0368081": {
    "zipcode": "0368081",
    "prefectureCode": "02",
    "prefectureNumber": 2,
    "prefecture": "青森県",
    "city": "弘前市",
    "town": "福田"
  },
  "0368082": {
    "zipcode": "0368082",
    "prefectureCode": "02",
    "prefectureNumber": 2,
    "prefecture": "青森県",
    "city": "弘前市",
    "town": "福村"
  },
  "0368083": {
    "zipcode": "0368083",
    "prefectureCode": "02",
    "prefectureNumber": 2,
    "prefecture": "青森県",
    "city": "弘前市",
    "town": "新里"
  },
  "0368084": {
    "zipcode": "0368084",
    "prefectureCode": "02",
    "prefectureNumber": 2,
    "prefecture": "青森県",
    "city": "弘前市",
    "town": "高田"
  },
  "0368085": {
    "zipcode": "0368085",
    "prefectureCode": "02",
    "prefectureNumber": 2,
    "prefecture": "青森県",
    "city": "弘前市",
    "town": "末広"
  },
  "0368086": {
    "zipcode": "0368086",
    "prefectureCode": "02",
    "prefectureNumber": 2,
    "prefecture": "青森県",
    "city": "弘前市",
    "town": "田園"
  },
  "0368087": {
    "zipcode": "0368087",
    "prefectureCode": "02",
    "prefectureNumber": 2,
    "prefecture": "青森県",
    "city": "弘前市",
    "town": "早稲田"
  },
  "0368091": {
    "zipcode": "0368091",
    "prefectureCode": "02",
    "prefectureNumber": 2,
    "prefecture": "青森県",
    "city": "弘前市",
    "town": "高崎"
  },
  "0368092": {
    "zipcode": "0368092",
    "prefectureCode": "02",
    "prefectureNumber": 2,
    "prefecture": "青森県",
    "city": "弘前市",
    "town": "城東北"
  },
  "0368093": {
    "zipcode": "0368093",
    "prefectureCode": "02",
    "prefectureNumber": 2,
    "prefecture": "青森県",
    "city": "弘前市",
    "town": "城東中央"
  },
  "0368094": {
    "zipcode": "0368094",
    "prefectureCode": "02",
    "prefectureNumber": 2,
    "prefecture": "青森県",
    "city": "弘前市",
    "town": "外崎"
  },
  "0368095": {
    "zipcode": "0368095",
    "prefectureCode": "02",
    "prefectureNumber": 2,
    "prefecture": "青森県",
    "city": "弘前市",
    "town": "城東"
  },
  "0368096": {
    "zipcode": "0368096",
    "prefectureCode": "02",
    "prefectureNumber": 2,
    "prefecture": "青森県",
    "city": "弘前市",
    "town": "表町"
  },
  "0368097": {
    "zipcode": "0368097",
    "prefectureCode": "02",
    "prefectureNumber": 2,
    "prefecture": "青森県",
    "city": "弘前市",
    "town": "稲田"
  },
  "0368101": {
    "zipcode": "0368101",
    "prefectureCode": "02",
    "prefectureNumber": 2,
    "prefecture": "青森県",
    "city": "弘前市",
    "town": "豊田"
  },
  "0368102": {
    "zipcode": "0368102",
    "prefectureCode": "02",
    "prefectureNumber": 2,
    "prefecture": "青森県",
    "city": "弘前市",
    "town": "小比内"
  },
  "0368103": {
    "zipcode": "0368103",
    "prefectureCode": "02",
    "prefectureNumber": 2,
    "prefecture": "青森県",
    "city": "弘前市",
    "town": "川先"
  },
  "0368104": {
    "zipcode": "0368104",
    "prefectureCode": "02",
    "prefectureNumber": 2,
    "prefecture": "青森県",
    "city": "弘前市",
    "town": "扇町"
  },
  "0368111": {
    "zipcode": "0368111",
    "prefectureCode": "02",
    "prefectureNumber": 2,
    "prefecture": "青森県",
    "city": "弘前市",
    "town": "門外"
  },
  "0368112": {
    "zipcode": "0368112",
    "prefectureCode": "02",
    "prefectureNumber": 2,
    "prefecture": "青森県",
    "city": "弘前市",
    "town": "堀越"
  },
  "0368113": {
    "zipcode": "0368113",
    "prefectureCode": "02",
    "prefectureNumber": 2,
    "prefecture": "青森県",
    "city": "弘前市",
    "town": "清水森"
  },
  "0368114": {
    "zipcode": "0368114",
    "prefectureCode": "02",
    "prefectureNumber": 2,
    "prefecture": "青森県",
    "city": "弘前市",
    "town": "川合"
  },
  "0368115": {
    "zipcode": "0368115",
    "prefectureCode": "02",
    "prefectureNumber": 2,
    "prefecture": "青森県",
    "city": "弘前市",
    "town": "広野"
  },
  "0368121": {
    "zipcode": "0368121",
    "prefectureCode": "02",
    "prefectureNumber": 2,
    "prefecture": "青森県",
    "city": "弘前市",
    "town": "薬師堂"
  },
  "0368122": {
    "zipcode": "0368122",
    "prefectureCode": "02",
    "prefectureNumber": 2,
    "prefecture": "青森県",
    "city": "弘前市",
    "town": "乳井"
  },
  "0368123": {
    "zipcode": "0368123",
    "prefectureCode": "02",
    "prefectureNumber": 2,
    "prefecture": "青森県",
    "city": "弘前市",
    "town": "小金崎"
  },
  "0368124": {
    "zipcode": "0368124",
    "prefectureCode": "02",
    "prefectureNumber": 2,
    "prefecture": "青森県",
    "city": "弘前市",
    "town": "石川"
  },
  "0368125": {
    "zipcode": "0368125",
    "prefectureCode": "02",
    "prefectureNumber": 2,
    "prefecture": "青森県",
    "city": "弘前市",
    "town": "大沢"
  },
  "0368126": {
    "zipcode": "0368126",
    "prefectureCode": "02",
    "prefectureNumber": 2,
    "prefecture": "青森県",
    "city": "弘前市",
    "town": "松木平"
  },
  "0368127": {
    "zipcode": "0368127",
    "prefectureCode": "02",
    "prefectureNumber": 2,
    "prefecture": "青森県",
    "city": "弘前市",
    "town": "小栗山"
  },
  "0368131": {
    "zipcode": "0368131",
    "prefectureCode": "02",
    "prefectureNumber": 2,
    "prefecture": "青森県",
    "city": "弘前市",
    "town": "千年"
  },
  "0368132": {
    "zipcode": "0368132",
    "prefectureCode": "02",
    "prefectureNumber": 2,
    "prefecture": "青森県",
    "city": "弘前市",
    "town": "狼森"
  },
  "0368133": {
    "zipcode": "0368133",
    "prefectureCode": "02",
    "prefectureNumber": 2,
    "prefecture": "青森県",
    "city": "弘前市",
    "town": "大和沢"
  },
  "0368134": {
    "zipcode": "0368134",
    "prefectureCode": "02",
    "prefectureNumber": 2,
    "prefecture": "青森県",
    "city": "弘前市",
    "town": "一野渡"
  },
  "0368141": {
    "zipcode": "0368141",
    "prefectureCode": "02",
    "prefectureNumber": 2,
    "prefecture": "青森県",
    "city": "弘前市",
    "town": "松原東"
  },
  "0368142": {
    "zipcode": "0368142",
    "prefectureCode": "02",
    "prefectureNumber": 2,
    "prefecture": "青森県",
    "city": "弘前市",
    "town": "松原西"
  },
  "0368143": {
    "zipcode": "0368143",
    "prefectureCode": "02",
    "prefectureNumber": 2,
    "prefecture": "青森県",
    "city": "弘前市",
    "town": "富士見台"
  },
  "0368144": {
    "zipcode": "0368144",
    "prefectureCode": "02",
    "prefectureNumber": 2,
    "prefecture": "青森県",
    "city": "弘前市",
    "town": "原ケ平"
  },
  "0368151": {
    "zipcode": "0368151",
    "prefectureCode": "02",
    "prefectureNumber": 2,
    "prefecture": "青森県",
    "city": "弘前市",
    "town": "北園"
  },
  "0368152": {
    "zipcode": "0368152",
    "prefectureCode": "02",
    "prefectureNumber": 2,
    "prefecture": "青森県",
    "city": "弘前市",
    "town": "学園町"
  },
  "0368153": {
    "zipcode": "0368153",
    "prefectureCode": "02",
    "prefectureNumber": 2,
    "prefecture": "青森県",
    "city": "弘前市",
    "town": "三岳町"
  },
  "0368154": {
    "zipcode": "0368154",
    "prefectureCode": "02",
    "prefectureNumber": 2,
    "prefecture": "青森県",
    "city": "弘前市",
    "town": "豊原"
  },
  "0368155": {
    "zipcode": "0368155",
    "prefectureCode": "02",
    "prefectureNumber": 2,
    "prefecture": "青森県",
    "city": "弘前市",
    "town": "中野（丁目）"
  },
  "0368161": {
    "zipcode": "0368161",
    "prefectureCode": "02",
    "prefectureNumber": 2,
    "prefecture": "青森県",
    "city": "弘前市",
    "town": "大清水"
  },
  "0368162": {
    "zipcode": "0368162",
    "prefectureCode": "02",
    "prefectureNumber": 2,
    "prefecture": "青森県",
    "city": "弘前市",
    "town": "安原"
  },
  "0368163": {
    "zipcode": "0368163",
    "prefectureCode": "02",
    "prefectureNumber": 2,
    "prefecture": "青森県",
    "city": "弘前市",
    "town": "清原"
  },
  "0368164": {
    "zipcode": "0368164",
    "prefectureCode": "02",
    "prefectureNumber": 2,
    "prefecture": "青森県",
    "city": "弘前市",
    "town": "泉野"
  },
  "0368171": {
    "zipcode": "0368171",
    "prefectureCode": "02",
    "prefectureNumber": 2,
    "prefecture": "青森県",
    "city": "弘前市",
    "town": "取上"
  },
  "0368172": {
    "zipcode": "0368172",
    "prefectureCode": "02",
    "prefectureNumber": 2,
    "prefecture": "青森県",
    "city": "弘前市",
    "town": "南富田町"
  },
  "0368173": {
    "zipcode": "0368173",
    "prefectureCode": "02",
    "prefectureNumber": 2,
    "prefecture": "青森県",
    "city": "弘前市",
    "town": "富田町"
  },
  "0368174": {
    "zipcode": "0368174",
    "prefectureCode": "02",
    "prefectureNumber": 2,
    "prefecture": "青森県",
    "city": "弘前市",
    "town": "富野町"
  },
  "0368175": {
    "zipcode": "0368175",
    "prefectureCode": "02",
    "prefectureNumber": 2,
    "prefecture": "青森県",
    "city": "弘前市",
    "town": "大富町"
  },
  "0368181": {
    "zipcode": "0368181",
    "prefectureCode": "02",
    "prefectureNumber": 2,
    "prefecture": "青森県",
    "city": "弘前市",
    "town": "山道町"
  },
  "0368182": {
    "zipcode": "0368182",
    "prefectureCode": "02",
    "prefectureNumber": 2,
    "prefecture": "青森県",
    "city": "弘前市",
    "town": "土手町"
  },
  "0368183": {
    "zipcode": "0368183",
    "prefectureCode": "02",
    "prefectureNumber": 2,
    "prefecture": "青森県",
    "city": "弘前市",
    "town": "品川町"
  },
  "0368184": {
    "zipcode": "0368184",
    "prefectureCode": "02",
    "prefectureNumber": 2,
    "prefecture": "青森県",
    "city": "弘前市",
    "town": "松森町"
  },
  "0368185": {
    "zipcode": "0368185",
    "prefectureCode": "02",
    "prefectureNumber": 2,
    "prefecture": "青森県",
    "city": "弘前市",
    "town": "御幸町"
  },
  "0368186": {
    "zipcode": "0368186",
    "prefectureCode": "02",
    "prefectureNumber": 2,
    "prefecture": "青森県",
    "city": "弘前市",
    "town": "富田"
  },
  "0368187": {
    "zipcode": "0368187",
    "prefectureCode": "02",
    "prefectureNumber": 2,
    "prefecture": "青森県",
    "city": "弘前市",
    "town": "住吉町"
  },
  "0368188": {
    "zipcode": "0368188",
    "prefectureCode": "02",
    "prefectureNumber": 2,
    "prefecture": "青森県",
    "city": "弘前市",
    "town": "吉野町"
  },
  "0368191": {
    "zipcode": "0368191",
    "prefectureCode": "02",
    "prefectureNumber": 2,
    "prefecture": "青森県",
    "city": "弘前市",
    "town": "親方町"
  },
  "0368192": {
    "zipcode": "0368192",
    "prefectureCode": "02",
    "prefectureNumber": 2,
    "prefecture": "青森県",
    "city": "弘前市",
    "town": "鍛冶町"
  },
  "0368193": {
    "zipcode": "0368193",
    "prefectureCode": "02",
    "prefectureNumber": 2,
    "prefecture": "青森県",
    "city": "弘前市",
    "town": "新鍛冶町"
  },
  "0368194": {
    "zipcode": "0368194",
    "prefectureCode": "02",
    "prefectureNumber": 2,
    "prefecture": "青森県",
    "city": "弘前市",
    "town": "北川端町"
  },
  "0368195": {
    "zipcode": "0368195",
    "prefectureCode": "02",
    "prefectureNumber": 2,
    "prefecture": "青森県",
    "city": "弘前市",
    "town": "南川端町"
  },
  "0368196": {
    "zipcode": "0368196",
    "prefectureCode": "02",
    "prefectureNumber": 2,
    "prefecture": "青森県",
    "city": "弘前市",
    "town": "銅屋町"
  },
  "0368197": {
    "zipcode": "0368197",
    "prefectureCode": "02",
    "prefectureNumber": 2,
    "prefecture": "青森県",
    "city": "弘前市",
    "town": "桶屋町"
  },
  "0368198": {
    "zipcode": "0368198",
    "prefectureCode": "02",
    "prefectureNumber": 2,
    "prefecture": "青森県",
    "city": "弘前市",
    "town": "元長町"
  },
  "0368201": {
    "zipcode": "0368201",
    "prefectureCode": "02",
    "prefectureNumber": 2,
    "prefecture": "青森県",
    "city": "弘前市",
    "town": "一番町"
  },
  "0368202": {
    "zipcode": "0368202",
    "prefectureCode": "02",
    "prefectureNumber": 2,
    "prefecture": "青森県",
    "city": "弘前市",
    "town": "元大工町"
  },
  "0368203": {
    "zipcode": "0368203",
    "prefectureCode": "02",
    "prefectureNumber": 2,
    "prefecture": "青森県",
    "city": "弘前市",
    "town": "本町"
  },
  "0368204": {
    "zipcode": "0368204",
    "prefectureCode": "02",
    "prefectureNumber": 2,
    "prefecture": "青森県",
    "city": "弘前市",
    "town": "覚仙町"
  },
  "0368205": {
    "zipcode": "0368205",
    "prefectureCode": "02",
    "prefectureNumber": 2,
    "prefecture": "青森県",
    "city": "弘前市",
    "town": "森町"
  },
  "0368206": {
    "zipcode": "0368206",
    "prefectureCode": "02",
    "prefectureNumber": 2,
    "prefecture": "青森県",
    "city": "弘前市",
    "town": "塩分町"
  },
  "0368207": {
    "zipcode": "0368207",
    "prefectureCode": "02",
    "prefectureNumber": 2,
    "prefecture": "青森県",
    "city": "弘前市",
    "town": "上白銀町"
  },
  "0368211": {
    "zipcode": "0368211",
    "prefectureCode": "02",
    "prefectureNumber": 2,
    "prefecture": "青森県",
    "city": "弘前市",
    "town": "相良町"
  },
  "0368212": {
    "zipcode": "0368212",
    "prefectureCode": "02",
    "prefectureNumber": 2,
    "prefecture": "青森県",
    "city": "弘前市",
    "town": "南塘町"
  },
  "0368213": {
    "zipcode": "0368213",
    "prefectureCode": "02",
    "prefectureNumber": 2,
    "prefecture": "青森県",
    "city": "弘前市",
    "town": "北新寺町"
  },
  "0368214": {
    "zipcode": "0368214",
    "prefectureCode": "02",
    "prefectureNumber": 2,
    "prefecture": "青森県",
    "city": "弘前市",
    "town": "新寺町"
  },
  "0368215": {
    "zipcode": "0368215",
    "prefectureCode": "02",
    "prefectureNumber": 2,
    "prefecture": "青森県",
    "city": "弘前市",
    "town": "新寺町新割町"
  },
  "0368216": {
    "zipcode": "0368216",
    "prefectureCode": "02",
    "prefectureNumber": 2,
    "prefecture": "青森県",
    "city": "弘前市",
    "town": "在府町"
  },
  "0368217": {
    "zipcode": "0368217",
    "prefectureCode": "02",
    "prefectureNumber": 2,
    "prefecture": "青森県",
    "city": "弘前市",
    "town": "茂森町"
  },
  "0368221": {
    "zipcode": "0368221",
    "prefectureCode": "02",
    "prefectureNumber": 2,
    "prefecture": "青森県",
    "city": "弘前市",
    "town": "紙漉町"
  },
  "0368222": {
    "zipcode": "0368222",
    "prefectureCode": "02",
    "prefectureNumber": 2,
    "prefecture": "青森県",
    "city": "弘前市",
    "town": "桜林町"
  },
  "0368223": {
    "zipcode": "0368223",
    "prefectureCode": "02",
    "prefectureNumber": 2,
    "prefecture": "青森県",
    "city": "弘前市",
    "town": "富士見町"
  },
  "0368224": {
    "zipcode": "0368224",
    "prefectureCode": "02",
    "prefectureNumber": 2,
    "prefecture": "青森県",
    "city": "弘前市",
    "town": "文京町"
  },
  "0368225": {
    "zipcode": "0368225",
    "prefectureCode": "02",
    "prefectureNumber": 2,
    "prefecture": "青森県",
    "city": "弘前市",
    "town": "西ケ丘町"
  },
  "0368226": {
    "zipcode": "0368226",
    "prefectureCode": "02",
    "prefectureNumber": 2,
    "prefecture": "青森県",
    "city": "弘前市",
    "town": "寒沢町"
  },
  "0368227": {
    "zipcode": "0368227",
    "prefectureCode": "02",
    "prefectureNumber": 2,
    "prefecture": "青森県",
    "city": "弘前市",
    "town": "桔梗野"
  },
  "0368228": {
    "zipcode": "0368228",
    "prefectureCode": "02",
    "prefectureNumber": 2,
    "prefecture": "青森県",
    "city": "弘前市",
    "town": "樹木"
  },
  "0368231": {
    "zipcode": "0368231",
    "prefectureCode": "02",
    "prefectureNumber": 2,
    "prefecture": "青森県",
    "city": "弘前市",
    "town": "稔町"
  },
  "0368232": {
    "zipcode": "0368232",
    "prefectureCode": "02",
    "prefectureNumber": 2,
    "prefecture": "青森県",
    "city": "弘前市",
    "town": "城南"
  },
  "0368233": {
    "zipcode": "0368233",
    "prefectureCode": "02",
    "prefectureNumber": 2,
    "prefecture": "青森県",
    "city": "弘前市",
    "town": "山崎"
  },
  "0368234": {
    "zipcode": "0368234",
    "prefectureCode": "02",
    "prefectureNumber": 2,
    "prefecture": "青森県",
    "city": "弘前市",
    "town": "館野"
  },
  "0368241": {
    "zipcode": "0368241",
    "prefectureCode": "02",
    "prefectureNumber": 2,
    "prefecture": "青森県",
    "city": "弘前市",
    "town": "桜ケ丘"
  },
  "0368242": {
    "zipcode": "0368242",
    "prefectureCode": "02",
    "prefectureNumber": 2,
    "prefecture": "青森県",
    "city": "弘前市",
    "town": "大原"
  },
  "0368243": {
    "zipcode": "0368243",
    "prefectureCode": "02",
    "prefectureNumber": 2,
    "prefecture": "青森県",
    "city": "弘前市",
    "town": "小沢"
  },
  "0368244": {
    "zipcode": "0368244",
    "prefectureCode": "02",
    "prefectureNumber": 2,
    "prefecture": "青森県",
    "city": "弘前市",
    "town": "坂元"
  },
  "0368245": {
    "zipcode": "0368245",
    "prefectureCode": "02",
    "prefectureNumber": 2,
    "prefecture": "青森県",
    "city": "弘前市",
    "town": "金属町"
  },
  "0368246": {
    "zipcode": "0368246",
    "prefectureCode": "02",
    "prefectureNumber": 2,
    "prefecture": "青森県",
    "city": "弘前市",
    "town": "青樹町"
  },
  "0368247": {
    "zipcode": "0368247",
    "prefectureCode": "02",
    "prefectureNumber": 2,
    "prefecture": "青森県",
    "city": "弘前市",
    "town": "大開"
  },
  "0368251": {
    "zipcode": "0368251",
    "prefectureCode": "02",
    "prefectureNumber": 2,
    "prefecture": "青森県",
    "city": "弘前市",
    "town": "清富町"
  },
  "0368252": {
    "zipcode": "0368252",
    "prefectureCode": "02",
    "prefectureNumber": 2,
    "prefecture": "青森県",
    "city": "弘前市",
    "town": "旭ケ丘"
  },
  "0368253": {
    "zipcode": "0368253",
    "prefectureCode": "02",
    "prefectureNumber": 2,
    "prefecture": "青森県",
    "city": "弘前市",
    "town": "緑ケ丘"
  },
  "0368254": {
    "zipcode": "0368254",
    "prefectureCode": "02",
    "prefectureNumber": 2,
    "prefecture": "青森県",
    "city": "弘前市",
    "town": "清水"
  },
  "0368255": {
    "zipcode": "0368255",
    "prefectureCode": "02",
    "prefectureNumber": 2,
    "prefecture": "青森県",
    "city": "弘前市",
    "town": "若葉"
  },
  "0368261": {
    "zipcode": "0368261",
    "prefectureCode": "02",
    "prefectureNumber": 2,
    "prefecture": "青森県",
    "city": "弘前市",
    "town": "茂森新町"
  },
  "0368262": {
    "zipcode": "0368262",
    "prefectureCode": "02",
    "prefectureNumber": 2,
    "prefecture": "青森県",
    "city": "弘前市",
    "town": "清水富田"
  },
  "0368263": {
    "zipcode": "0368263",
    "prefectureCode": "02",
    "prefectureNumber": 2,
    "prefecture": "青森県",
    "city": "弘前市",
    "town": "常盤坂"
  },
  "0368264": {
    "zipcode": "0368264",
    "prefectureCode": "02",
    "prefectureNumber": 2,
    "prefecture": "青森県",
    "city": "弘前市",
    "town": "悪戸"
  },
  "0368265": {
    "zipcode": "0368265",
    "prefectureCode": "02",
    "prefectureNumber": 2,
    "prefecture": "青森県",
    "city": "弘前市",
    "town": "下湯口"
  },
  "0368266": {
    "zipcode": "0368266",
    "prefectureCode": "02",
    "prefectureNumber": 2,
    "prefecture": "青森県",
    "city": "弘前市",
    "town": "自由ケ丘"
  },
  "0368271": {
    "zipcode": "0368271",
    "prefectureCode": "02",
    "prefectureNumber": 2,
    "prefecture": "青森県",
    "city": "弘前市",
    "town": "鷹匠町"
  },
  "0368272": {
    "zipcode": "0368272",
    "prefectureCode": "02",
    "prefectureNumber": 2,
    "prefecture": "青森県",
    "city": "弘前市",
    "town": "南袋町"
  },
  "0368273": {
    "zipcode": "0368273",
    "prefectureCode": "02",
    "prefectureNumber": 2,
    "prefecture": "青森県",
    "city": "弘前市",
    "town": "西茂森"
  },
  "0368274": {
    "zipcode": "0368274",
    "prefectureCode": "02",
    "prefectureNumber": 2,
    "prefecture": "青森県",
    "city": "弘前市",
    "town": "南城西"
  },
  "0368275": {
    "zipcode": "0368275",
    "prefectureCode": "02",
    "prefectureNumber": 2,
    "prefecture": "青森県",
    "city": "弘前市",
    "town": "城西"
  },
  "0368276": {
    "zipcode": "0368276",
    "prefectureCode": "02",
    "prefectureNumber": 2,
    "prefecture": "青森県",
    "city": "弘前市",
    "town": "樋の口町"
  },
  "0368277": {
    "zipcode": "0368277",
    "prefectureCode": "02",
    "prefectureNumber": 2,
    "prefecture": "青森県",
    "city": "弘前市",
    "town": "河原町"
  },
  "0368278": {
    "zipcode": "0368278",
    "prefectureCode": "02",
    "prefectureNumber": 2,
    "prefecture": "青森県",
    "city": "弘前市",
    "town": "樋の口"
  },
  "0368279": {
    "zipcode": "0368279",
    "prefectureCode": "02",
    "prefectureNumber": 2,
    "prefecture": "青森県",
    "city": "弘前市",
    "town": "茜町"
  },
  "0368301": {
    "zipcode": "0368301",
    "prefectureCode": "02",
    "prefectureNumber": 2,
    "prefecture": "青森県",
    "city": "弘前市",
    "town": "糠坪"
  },
  "0368302": {
    "zipcode": "0368302",
    "prefectureCode": "02",
    "prefectureNumber": 2,
    "prefecture": "青森県",
    "city": "弘前市",
    "town": "高杉"
  },
  "0368303": {
    "zipcode": "0368303",
    "prefectureCode": "02",
    "prefectureNumber": 2,
    "prefecture": "青森県",
    "city": "弘前市",
    "town": "前坂"
  },
  "0368311": {
    "zipcode": "0368311",
    "prefectureCode": "02",
    "prefectureNumber": 2,
    "prefecture": "青森県",
    "city": "弘前市",
    "town": "大川"
  },
  "0368312": {
    "zipcode": "0368312",
    "prefectureCode": "02",
    "prefectureNumber": 2,
    "prefecture": "青森県",
    "city": "弘前市",
    "town": "三世寺"
  },
  "0368313": {
    "zipcode": "0368313",
    "prefectureCode": "02",
    "prefectureNumber": 2,
    "prefecture": "青森県",
    "city": "弘前市",
    "town": "中崎"
  },
  "0368314": {
    "zipcode": "0368314",
    "prefectureCode": "02",
    "prefectureNumber": 2,
    "prefecture": "青森県",
    "city": "弘前市",
    "town": "町田"
  },
  "0368315": {
    "zipcode": "0368315",
    "prefectureCode": "02",
    "prefectureNumber": 2,
    "prefecture": "青森県",
    "city": "弘前市",
    "town": "船水"
  },
  "0368316": {
    "zipcode": "0368316",
    "prefectureCode": "02",
    "prefectureNumber": 2,
    "prefecture": "青森県",
    "city": "弘前市",
    "town": "石渡"
  },
  "0368317": {
    "zipcode": "0368317",
    "prefectureCode": "02",
    "prefectureNumber": 2,
    "prefecture": "青森県",
    "city": "弘前市",
    "town": "外瀬"
  },
  "0368318": {
    "zipcode": "0368318",
    "prefectureCode": "02",
    "prefectureNumber": 2,
    "prefecture": "青森県",
    "city": "弘前市",
    "town": "八代町"
  },
  "0368319": {
    "zipcode": "0368319",
    "prefectureCode": "02",
    "prefectureNumber": 2,
    "prefecture": "青森県",
    "city": "弘前市",
    "town": "藤内町"
  },
  "0368321": {
    "zipcode": "0368321",
    "prefectureCode": "02",
    "prefectureNumber": 2,
    "prefecture": "青森県",
    "city": "弘前市",
    "town": "萢中"
  },
  "0368323": {
    "zipcode": "0368323",
    "prefectureCode": "02",
    "prefectureNumber": 2,
    "prefecture": "青森県",
    "city": "弘前市",
    "town": "浜の町東"
  },
  "0368324": {
    "zipcode": "0368324",
    "prefectureCode": "02",
    "prefectureNumber": 2,
    "prefecture": "青森県",
    "city": "弘前市",
    "town": "浜の町西"
  },
  "0368325": {
    "zipcode": "0368325",
    "prefectureCode": "02",
    "prefectureNumber": 2,
    "prefecture": "青森県",
    "city": "弘前市",
    "town": "浜の町北"
  },
  "0368326": {
    "zipcode": "0368326",
    "prefectureCode": "02",
    "prefectureNumber": 2,
    "prefecture": "青森県",
    "city": "弘前市",
    "town": "藤野"
  },
  "0368331": {
    "zipcode": "0368331",
    "prefectureCode": "02",
    "prefectureNumber": 2,
    "prefecture": "青森県",
    "city": "弘前市",
    "town": "小人町"
  },
  "0368332": {
    "zipcode": "0368332",
    "prefectureCode": "02",
    "prefectureNumber": 2,
    "prefecture": "青森県",
    "city": "弘前市",
    "town": "亀甲町"
  },
  "0368333": {
    "zipcode": "0368333",
    "prefectureCode": "02",
    "prefectureNumber": 2,
    "prefecture": "青森県",
    "city": "弘前市",
    "town": "若党町"
  },
  "0368334": {
    "zipcode": "0368334",
    "prefectureCode": "02",
    "prefectureNumber": 2,
    "prefecture": "青森県",
    "city": "弘前市",
    "town": "馬喰町"
  },
  "0368335": {
    "zipcode": "0368335",
    "prefectureCode": "02",
    "prefectureNumber": 2,
    "prefecture": "青森県",
    "city": "弘前市",
    "town": "春日町"
  },
  "0368336": {
    "zipcode": "0368336",
    "prefectureCode": "02",
    "prefectureNumber": 2,
    "prefecture": "青森県",
    "city": "弘前市",
    "town": "栄町"
  },
  "0368341": {
    "zipcode": "0368341",
    "prefectureCode": "02",
    "prefectureNumber": 2,
    "prefecture": "青森県",
    "city": "弘前市",
    "town": "山王町"
  },
  "0368342": {
    "zipcode": "0368342",
    "prefectureCode": "02",
    "prefectureNumber": 2,
    "prefecture": "青森県",
    "city": "弘前市",
    "town": "笹森町"
  },
  "0368343": {
    "zipcode": "0368343",
    "prefectureCode": "02",
    "prefectureNumber": 2,
    "prefecture": "青森県",
    "city": "弘前市",
    "town": "東長町"
  },
  "0368344": {
    "zipcode": "0368344",
    "prefectureCode": "02",
    "prefectureNumber": 2,
    "prefecture": "青森県",
    "city": "弘前市",
    "town": "長坂町"
  },
  "0368345": {
    "zipcode": "0368345",
    "prefectureCode": "02",
    "prefectureNumber": 2,
    "prefecture": "青森県",
    "city": "弘前市",
    "town": "蔵主町"
  },
  "0368346": {
    "zipcode": "0368346",
    "prefectureCode": "02",
    "prefectureNumber": 2,
    "prefecture": "青森県",
    "city": "弘前市",
    "town": "大浦町"
  },
  "0368351": {
    "zipcode": "0368351",
    "prefectureCode": "02",
    "prefectureNumber": 2,
    "prefecture": "青森県",
    "city": "弘前市",
    "town": "百石町小路"
  },
  "0368352": {
    "zipcode": "0368352",
    "prefectureCode": "02",
    "prefectureNumber": 2,
    "prefecture": "青森県",
    "city": "弘前市",
    "town": "元寺町小路"
  },
  "0368353": {
    "zipcode": "0368353",
    "prefectureCode": "02",
    "prefectureNumber": 2,
    "prefecture": "青森県",
    "city": "弘前市",
    "town": "下鞘師町"
  },
  "0368354": {
    "zipcode": "0368354",
    "prefectureCode": "02",
    "prefectureNumber": 2,
    "prefecture": "青森県",
    "city": "弘前市",
    "town": "上鞘師町"
  },
  "0368355": {
    "zipcode": "0368355",
    "prefectureCode": "02",
    "prefectureNumber": 2,
    "prefecture": "青森県",
    "city": "弘前市",
    "town": "元寺町"
  },
  "0368356": {
    "zipcode": "0368356",
    "prefectureCode": "02",
    "prefectureNumber": 2,
    "prefecture": "青森県",
    "city": "弘前市",
    "town": "下白銀町"
  },
  "0368357": {
    "zipcode": "0368357",
    "prefectureCode": "02",
    "prefectureNumber": 2,
    "prefecture": "青森県",
    "city": "弘前市",
    "town": "馬屋町"
  },
  "0368361": {
    "zipcode": "0368361",
    "prefectureCode": "02",
    "prefectureNumber": 2,
    "prefecture": "青森県",
    "city": "弘前市",
    "town": "紺屋町"
  },
  "0368362": {
    "zipcode": "0368362",
    "prefectureCode": "02",
    "prefectureNumber": 2,
    "prefecture": "青森県",
    "city": "弘前市",
    "town": "五十石町"
  },
  "0368363": {
    "zipcode": "0368363",
    "prefectureCode": "02",
    "prefectureNumber": 2,
    "prefecture": "青森県",
    "city": "弘前市",
    "town": "袋町"
  },
  "0368364": {
    "zipcode": "0368364",
    "prefectureCode": "02",
    "prefectureNumber": 2,
    "prefecture": "青森県",
    "city": "弘前市",
    "town": "新町"
  },
  "0368365": {
    "zipcode": "0368365",
    "prefectureCode": "02",
    "prefectureNumber": 2,
    "prefecture": "青森県",
    "city": "弘前市",
    "town": "西大工町"
  },
  "0368366": {
    "zipcode": "0368366",
    "prefectureCode": "02",
    "prefectureNumber": 2,
    "prefecture": "青森県",
    "city": "弘前市",
    "town": "駒越町"
  },
  "0368367": {
    "zipcode": "0368367",
    "prefectureCode": "02",
    "prefectureNumber": 2,
    "prefecture": "青森県",
    "city": "弘前市",
    "town": "平岡町"
  },
  "0368368": {
    "zipcode": "0368368",
    "prefectureCode": "02",
    "prefectureNumber": 2,
    "prefecture": "青森県",
    "city": "弘前市",
    "town": "和田町"
  },
  "0368371": {
    "zipcode": "0368371",
    "prefectureCode": "02",
    "prefectureNumber": 2,
    "prefecture": "青森県",
    "city": "弘前市",
    "town": "蒔苗"
  },
  "0368372": {
    "zipcode": "0368372",
    "prefectureCode": "02",
    "prefectureNumber": 2,
    "prefecture": "青森県",
    "city": "弘前市",
    "town": "元薬師堂"
  },
  "0368373": {
    "zipcode": "0368373",
    "prefectureCode": "02",
    "prefectureNumber": 2,
    "prefecture": "青森県",
    "city": "弘前市",
    "town": "藤代"
  },
  "0368374": {
    "zipcode": "0368374",
    "prefectureCode": "02",
    "prefectureNumber": 2,
    "prefecture": "青森県",
    "city": "弘前市",
    "town": "土堂"
  },
  "0368375": {
    "zipcode": "0368375",
    "prefectureCode": "02",
    "prefectureNumber": 2,
    "prefecture": "青森県",
    "city": "弘前市",
    "town": "細越"
  },
  "0368381": {
    "zipcode": "0368381",
    "prefectureCode": "02",
    "prefectureNumber": 2,
    "prefecture": "青森県",
    "city": "弘前市",
    "town": "独狐"
  },
  "0368382": {
    "zipcode": "0368382",
    "prefectureCode": "02",
    "prefectureNumber": 2,
    "prefecture": "青森県",
    "city": "弘前市",
    "town": "富栄"
  },
  "0368383": {
    "zipcode": "0368383",
    "prefectureCode": "02",
    "prefectureNumber": 2,
    "prefecture": "青森県",
    "city": "弘前市",
    "town": "折笠"
  },
  "0368384": {
    "zipcode": "0368384",
    "prefectureCode": "02",
    "prefectureNumber": 2,
    "prefecture": "青森県",
    "city": "弘前市",
    "town": "宮舘"
  },
  "0368385": {
    "zipcode": "0368385",
    "prefectureCode": "02",
    "prefectureNumber": 2,
    "prefecture": "青森県",
    "city": "弘前市",
    "town": "中別所"
  }
}
