{
  "0370000": {
    "zipcode": "0370000",
    "prefectureCode": "02",
    "prefectureNumber": 2,
    "prefecture": "青森県",
    "city": "五所川原市",
    "town": "以下に掲載がない場合"
  },
  "0370001": {
    "zipcode": "0370001",
    "prefectureCode": "02",
    "prefectureNumber": 2,
    "prefecture": "青森県",
    "city": "五所川原市",
    "town": "下岩崎"
  },
  "0370002": {
    "zipcode": "0370002",
    "prefectureCode": "02",
    "prefectureNumber": 2,
    "prefecture": "青森県",
    "city": "五所川原市",
    "town": "飯詰"
  },
  "0370003": {
    "zipcode": "0370003",
    "prefectureCode": "02",
    "prefectureNumber": 2,
    "prefecture": "青森県",
    "city": "五所川原市",
    "town": "吹畑"
  },
  "0370004": {
    "zipcode": "0370004",
    "prefectureCode": "02",
    "prefectureNumber": 2,
    "prefecture": "青森県",
    "city": "五所川原市",
    "town": "唐笠柳"
  },
  "0370005": {
    "zipcode": "0370005",
    "prefectureCode": "02",
    "prefectureNumber": 2,
    "prefecture": "青森県",
    "city": "五所川原市",
    "town": "石岡"
  },
  "0370006": {
    "zipcode": "0370006",
    "prefectureCode": "02",
    "prefectureNumber": 2,
    "prefecture": "青森県",
    "city": "五所川原市",
    "town": "松島町"
  },
  "0370011": {
    "zipcode": "0370011",
    "prefectureCode": "02",
    "prefectureNumber": 2,
    "prefecture": "青森県",
    "city": "五所川原市",
    "town": "金山"
  },
  "0370012": {
    "zipcode": "0370012",
    "prefectureCode": "02",
    "prefectureNumber": 2,
    "prefecture": "青森県",
    "city": "五所川原市",
    "town": "水野尾"
  },
  "0370013": {
    "zipcode": "0370013",
    "prefectureCode": "02",
    "prefectureNumber": 2,
    "prefecture": "青森県",
    "city": "五所川原市",
    "town": "米田"
  },
  "0370014": {
    "zipcode": "0370014",
    "prefectureCode": "02",
    "prefectureNumber": 2,
    "prefecture": "青森県",
    "city": "五所川原市",
    "town": "稲実"
  },
  "0370015": {
    "zipcode": "0370015",
    "prefectureCode": "02",
    "prefectureNumber": 2,
    "prefecture": "青森県",
    "city": "五所川原市",
    "town": "姥萢"
  },
  "0370016": {
    "zipcode": "0370016",
    "prefectureCode": "02",
    "prefectureNumber": 2,
    "prefecture": "青森県",
    "city": "五所川原市",
    "town": "一ツ谷"
  },
  "0370017": {
    "zipcode": "0370017",
    "prefectureCode": "02",
    "prefectureNumber": 2,
    "prefecture": "青森県",
    "city": "五所川原市",
    "town": "漆川"
  },
  "0370021": {
    "zipcode": "0370021",
    "prefectureCode": "02",
    "prefectureNumber": 2,
    "prefecture": "青森県",
    "city": "五所川原市",
    "town": "中泉"
  },
  "0370022": {
    "zipcode": "0370022",
    "prefectureCode": "02",
    "prefectureNumber": 2,
    "prefecture": "青森県",
    "city": "五所川原市",
    "town": "梅田"
  },
  "0370023": {
    "zipcode": "0370023",
    "prefectureCode": "02",
    "prefectureNumber": 2,
    "prefecture": "青森県",
    "city": "五所川原市",
    "town": "広田"
  },
  "0370024": {
    "zipcode": "0370024",
    "prefectureCode": "02",
    "prefectureNumber": 2,
    "prefecture": "青森県",
    "city": "五所川原市",
    "town": "みどり町"
  },
  "0370025": {
    "zipcode": "0370025",
    "prefectureCode": "02",
    "prefectureNumber": 2,
    "prefecture": "青森県",
    "city": "五所川原市",
    "town": "七ツ館"
  },
  "0370032": {
    "zipcode": "0370032",
    "prefectureCode": "02",
    "prefectureNumber": 2,
    "prefecture": "青森県",
    "city": "五所川原市",
    "town": "烏森"
  },
  "0370033": {
    "zipcode": "0370033",
    "prefectureCode": "02",
    "prefectureNumber": 2,
    "prefecture": "青森県",
    "city": "五所川原市",
    "town": "鎌谷町"
  },
  "0370034": {
    "zipcode": "0370034",
    "prefectureCode": "02",
    "prefectureNumber": 2,
    "prefecture": "青森県",
    "city": "五所川原市",
    "town": "八重菊"
  },
  "0370035": {
    "zipcode": "0370035",
    "prefectureCode": "02",
    "prefectureNumber": 2,
    "prefecture": "青森県",
    "city": "五所川原市",
    "town": "湊"
  },
  "0370036": {
    "zipcode": "0370036",
    "prefectureCode": "02",
    "prefectureNumber": 2,
    "prefecture": "青森県",
    "city": "五所川原市",
    "town": "中央"
  },
  "0370041": {
    "zipcode": "0370041",
    "prefectureCode": "02",
    "prefectureNumber": 2,
    "prefecture": "青森県",
    "city": "五所川原市",
    "town": "田町"
  },
  "0370042": {
    "zipcode": "0370042",
    "prefectureCode": "02",
    "prefectureNumber": 2,
    "prefecture": "青森県",
    "city": "五所川原市",
    "town": "不魚住"
  },
  "0370043": {
    "zipcode": "0370043",
    "prefectureCode": "02",
    "prefectureNumber": 2,
    "prefecture": "青森県",
    "city": "五所川原市",
    "town": "蓮沼"
  },
  "0370044": {
    "zipcode": "0370044",
    "prefectureCode": "02",
    "prefectureNumber": 2,
    "prefecture": "青森県",
    "city": "五所川原市",
    "town": "元町"
  },
  "0370045": {
    "zipcode": "0370045",
    "prefectureCode": "02",
    "prefectureNumber": 2,
    "prefecture": "青森県",
    "city": "五所川原市",
    "town": "新町"
  },
  "0370046": {
    "zipcode": "0370046",
    "prefectureCode": "02",
    "prefectureNumber": 2,
    "prefecture": "青森県",
    "city": "五所川原市",
    "town": "栄町"
  },
  "0370051": {
    "zipcode": "0370051",
    "prefectureCode": "02",
    "prefectureNumber": 2,
    "prefecture": "青森県",
    "city": "五所川原市",
    "town": "弥生町"
  },
  "0370052": {
    "zipcode": "0370052",
    "prefectureCode": "02",
    "prefectureNumber": 2,
    "prefecture": "青森県",
    "city": "五所川原市",
    "town": "東町"
  },
  "0370053": {
    "zipcode": "0370053",
    "prefectureCode": "02",
    "prefectureNumber": 2,
    "prefecture": "青森県",
    "city": "五所川原市",
    "town": "布屋町"
  },
  "0370054": {
    "zipcode": "0370054",
    "prefectureCode": "02",
    "prefectureNumber": 2,
    "prefecture": "青森県",
    "city": "五所川原市",
    "town": "上平井町"
  },
  "0370055": {
    "zipcode": "0370055",
    "prefectureCode": "02",
    "prefectureNumber": 2,
    "prefecture": "青森県",
    "city": "五所川原市",
    "town": "柏原町"
  },
  "0370056": {
    "zipcode": "0370056",
    "prefectureCode": "02",
    "prefectureNumber": 2,
    "prefecture": "青森県",
    "city": "五所川原市",
    "town": "末広町"
  },
  "0370057": {
    "zipcode": "0370057",
    "prefectureCode": "02",
    "prefectureNumber": 2,
    "prefecture": "青森県",
    "city": "五所川原市",
    "town": "幾島町"
  },
  "0370058": {
    "zipcode": "0370058",
    "prefectureCode": "02",
    "prefectureNumber": 2,
    "prefecture": "青森県",
    "city": "五所川原市",
    "town": "錦町"
  },
  "0370061": {
    "zipcode": "0370061",
    "prefectureCode": "02",
    "prefectureNumber": 2,
    "prefecture": "青森県",
    "city": "五所川原市",
    "town": "雛田"
  },
  "0370062": {
    "zipcode": "0370062",
    "prefectureCode": "02",
    "prefectureNumber": 2,
    "prefecture": "青森県",
    "city": "五所川原市",
    "town": "旭町"
  },
  "0370063": {
    "zipcode": "0370063",
    "prefectureCode": "02",
    "prefectureNumber": 2,
    "prefecture": "青森県",
    "city": "五所川原市",
    "town": "大町"
  },
  "0370064": {
    "zipcode": "0370064",
    "prefectureCode": "02",
    "prefectureNumber": 2,
    "prefecture": "青森県",
    "city": "五所川原市",
    "town": "下平井町"
  },
  "0370065": {
    "zipcode": "0370065",
    "prefectureCode": "02",
    "prefectureNumber": 2,
    "prefecture": "青森県",
    "city": "五所川原市",
    "town": "幾世森"
  },
  "0370066": {
    "zipcode": "0370066",
    "prefectureCode": "02",
    "prefectureNumber": 2,
    "prefecture": "青森県",
    "city": "五所川原市",
    "town": "中平井町"
  },
  "0370067": {
    "zipcode": "0370067",
    "prefectureCode": "02",
    "prefectureNumber": 2,
    "prefecture": "青森県",
    "city": "五所川原市",
    "town": "敷島町"
  },
  "0370068": {
    "zipcode": "0370068",
    "prefectureCode": "02",
    "prefectureNumber": 2,
    "prefecture": "青森県",
    "city": "五所川原市",
    "town": "長橋"
  },
  "0370069": {
    "zipcode": "0370069",
    "prefectureCode": "02",
    "prefectureNumber": 2,
    "prefecture": "青森県",
    "city": "五所川原市",
    "town": "若葉"
  },
  "0370071": {
    "zipcode": "0370071",
    "prefectureCode": "02",
    "prefectureNumber": 2,
    "prefecture": "青森県",
    "city": "五所川原市",
    "town": "本町"
  },
  "0370072": {
    "zipcode": "0370072",
    "prefectureCode": "02",
    "prefectureNumber": 2,
    "prefecture": "青森県",
    "city": "五所川原市",
    "town": "川端町"
  },
  "0370073": {
    "zipcode": "0370073",
    "prefectureCode": "02",
    "prefectureNumber": 2,
    "prefecture": "青森県",
    "city": "五所川原市",
    "town": "柳町"
  },
  "0370074": {
    "zipcode": "0370074",
    "prefectureCode": "02",
    "prefectureNumber": 2,
    "prefecture": "青森県",
    "city": "五所川原市",
    "town": "岩木町"
  },
  "0370075": {
    "zipcode": "0370075",
    "prefectureCode": "02",
    "prefectureNumber": 2,
    "prefecture": "青森県",
    "city": "五所川原市",
    "town": "寺町"
  },
  "0370076": {
    "zipcode": "0370076",
    "prefectureCode": "02",
    "prefectureNumber": 2,
    "prefecture": "青森県",
    "city": "五所川原市",
    "town": "小曲"
  },
  "0370081": {
    "zipcode": "0370081",
    "prefectureCode": "02",
    "prefectureNumber": 2,
    "prefecture": "青森県",
    "city": "五所川原市",
    "town": "新宮"
  },
  "0370082": {
    "zipcode": "0370082",
    "prefectureCode": "02",
    "prefectureNumber": 2,
    "prefecture": "青森県",
    "city": "五所川原市",
    "town": "種井"
  },
  "0370083": {
    "zipcode": "0370083",
    "prefectureCode": "02",
    "prefectureNumber": 2,
    "prefecture": "青森県",
    "city": "五所川原市",
    "town": "新宮町"
  },
  "0370084": {
    "zipcode": "0370084",
    "prefectureCode": "02",
    "prefectureNumber": 2,
    "prefecture": "青森県",
    "city": "五所川原市",
    "town": "蘇鉄"
  },
  "0370085": {
    "zipcode": "0370085",
    "prefectureCode": "02",
    "prefectureNumber": 2,
    "prefecture": "青森県",
    "city": "五所川原市",
    "town": "芭蕉"
  },
  "0370086": {
    "zipcode": "0370086",
    "prefectureCode": "02",
    "prefectureNumber": 2,
    "prefecture": "青森県",
    "city": "五所川原市",
    "town": "田川"
  },
  "0370087": {
    "zipcode": "0370087",
    "prefectureCode": "02",
    "prefectureNumber": 2,
    "prefecture": "青森県",
    "city": "五所川原市",
    "town": "高瀬"
  },
  "0370088": {
    "zipcode": "0370088",
    "prefectureCode": "02",
    "prefectureNumber": 2,
    "prefecture": "青森県",
    "city": "五所川原市",
    "town": "鶴ケ岡"
  },
  "0370089": {
    "zipcode": "0370089",
    "prefectureCode": "02",
    "prefectureNumber": 2,
    "prefecture": "青森県",
    "city": "五所川原市",
    "town": "藻川"
  },
  "0370091": {
    "zipcode": "0370091",
    "prefectureCode": "02",
    "prefectureNumber": 2,
    "prefecture": "青森県",
    "city": "五所川原市",
    "town": "太刀打"
  },
  "0370092": {
    "zipcode": "0370092",
    "prefectureCode": "02",
    "prefectureNumber": 2,
    "prefecture": "青森県",
    "city": "五所川原市",
    "town": "沖飯詰"
  },
  "0370093": {
    "zipcode": "0370093",
    "prefectureCode": "02",
    "prefectureNumber": 2,
    "prefecture": "青森県",
    "city": "五所川原市",
    "town": "一野坪"
  },
  "0370094": {
    "zipcode": "0370094",
    "prefectureCode": "02",
    "prefectureNumber": 2,
    "prefecture": "青森県",
    "city": "五所川原市",
    "town": "川山"
  },
  "0370095": {
    "zipcode": "0370095",
    "prefectureCode": "02",
    "prefectureNumber": 2,
    "prefecture": "青森県",
    "city": "五所川原市",
    "town": "桜田"
  },
  "0370096": {
    "zipcode": "0370096",
    "prefectureCode": "02",
    "prefectureNumber": 2,
    "prefecture": "青森県",
    "city": "五所川原市",
    "town": "毘沙門"
  },
  "0370097": {
    "zipcode": "0370097",
    "prefectureCode": "02",
    "prefectureNumber": 2,
    "prefecture": "青森県",
    "city": "五所川原市",
    "town": "長富"
  },
  "0370101": {
    "zipcode": "0370101",
    "prefectureCode": "02",
    "prefectureNumber": 2,
    "prefecture": "青森県",
    "city": "つがる市",
    "town": "稲垣町下繁田"
  },
  "0370102": {
    "zipcode": "0370102",
    "prefectureCode": "02",
    "prefectureNumber": 2,
    "prefecture": "青森県",
    "city": "つがる市",
    "town": "稲垣町繁田"
  },
  "0370103": {
    "zipcode": "0370103",
    "prefectureCode": "02",
    "prefectureNumber": 2,
    "prefecture": "青森県",
    "city": "つがる市",
    "town": "稲垣町穂積"
  },
  "0370104": {
    "zipcode": "0370104",
    "prefectureCode": "02",
    "prefectureNumber": 2,
    "prefecture": "青森県",
    "city": "つがる市",
    "town": "稲垣町豊川"
  },
  "0370105": {
    "zipcode": "0370105",
    "prefectureCode": "02",
    "prefectureNumber": 2,
    "prefecture": "青森県",
    "city": "つがる市",
    "town": "稲垣町福富"
  },
  "0370106": {
    "zipcode": "0370106",
    "prefectureCode": "02",
    "prefectureNumber": 2,
    "prefecture": "青森県",
    "city": "つがる市",
    "town": "稲垣町沼崎"
  },
  "0370107": {
    "zipcode": "0370107",
    "prefectureCode": "02",
    "prefectureNumber": 2,
    "prefecture": "青森県",
    "city": "つがる市",
    "town": "稲垣町沼舘"
  },
  "0370108": {
    "zipcode": "0370108",
    "prefectureCode": "02",
    "prefectureNumber": 2,
    "prefecture": "青森県",
    "city": "つがる市",
    "town": "稲垣町吉出"
  },
  "0370109": {
    "zipcode": "0370109",
    "prefectureCode": "02",
    "prefectureNumber": 2,
    "prefecture": "青森県",
    "city": "つがる市",
    "town": "稲垣町千年"
  },
  "0370201": {
    "zipcode": "0370201",
    "prefectureCode": "02",
    "prefectureNumber": 2,
    "prefecture": "青森県",
    "city": "五所川原市",
    "town": "金木町川倉"
  },
  "0370202": {
    "zipcode": "0370202",
    "prefectureCode": "02",
    "prefectureNumber": 2,
    "prefecture": "青森県",
    "city": "五所川原市",
    "town": "金木町"
  },
  "0370203": {
    "zipcode": "0370203",
    "prefectureCode": "02",
    "prefectureNumber": 2,
    "prefecture": "青森県",
    "city": "五所川原市",
    "town": "金木町喜良市"
  },
  "0370204": {
    "zipcode": "0370204",
    "prefectureCode": "02",
    "prefectureNumber": 2,
    "prefecture": "青森県",
    "city": "五所川原市",
    "town": "金木町嘉瀬"
  },
  "0370205": {
    "zipcode": "0370205",
    "prefectureCode": "02",
    "prefectureNumber": 2,
    "prefecture": "青森県",
    "city": "五所川原市",
    "town": "金木町中柏木"
  },
  "0370206": {
    "zipcode": "0370206",
    "prefectureCode": "02",
    "prefectureNumber": 2,
    "prefecture": "青森県",
    "city": "五所川原市",
    "town": "金木町神原"
  },
  "0370207": {
    "zipcode": "0370207",
    "prefectureCode": "02",
    "prefectureNumber": 2,
    "prefecture": "青森県",
    "city": "五所川原市",
    "town": "金木町蒔田"
  },
  "0370208": {
    "zipcode": "0370208",
    "prefectureCode": "02",
    "prefectureNumber": 2,
    "prefecture": "青森県",
    "city": "五所川原市",
    "town": "金木町藤枝"
  },
  "0370300": {
    "zipcode": "0370300",
    "prefectureCode": "02",
    "prefectureNumber": 2,
    "prefecture": "青森県",
    "city": "北津軽郡中泊町",
    "town": "以下に掲載がない場合"
  },
  "0370301": {
    "zipcode": "0370301",
    "prefectureCode": "02",
    "prefectureNumber": 2,
    "prefecture": "青森県",
    "city": "北津軽郡中泊町",
    "town": "今泉"
  },
  "0370302": {
    "zipcode": "0370302",
    "prefectureCode": "02",
    "prefectureNumber": 2,
    "prefecture": "青森県",
    "city": "北津軽郡中泊町",
    "town": "薄市"
  },
  "0370303": {
    "zipcode": "0370303",
    "prefectureCode": "02",
    "prefectureNumber": 2,
    "prefecture": "青森県",
    "city": "北津軽郡中泊町",
    "town": "高根"
  },
  "0370304": {
    "zipcode": "0370304",
    "prefectureCode": "02",
    "prefectureNumber": 2,
    "prefecture": "青森県",
    "city": "北津軽郡中泊町",
    "town": "尾別"
  },
  "0370305": {
    "zipcode": "0370305",
    "prefectureCode": "02",
    "prefectureNumber": 2,
    "prefecture": "青森県",
    "city": "北津軽郡中泊町",
    "town": "中里"
  },
  "0370306": {
    "zipcode": "0370306",
    "prefectureCode": "02",
    "prefectureNumber": 2,
    "prefecture": "青森県",
    "city": "北津軽郡中泊町",
    "town": "宮川"
  },
  "0370307": {
    "zipcode": "0370307",
    "prefectureCode": "02",
    "prefectureNumber": 2,
    "prefecture": "青森県",
    "city": "北津軽郡中泊町",
    "town": "宮野沢"
  },
  "0370308": {
    "zipcode": "0370308",
    "prefectureCode": "02",
    "prefectureNumber": 2,
    "prefecture": "青森県",
    "city": "北津軽郡中泊町",
    "town": "深郷田"
  },
  "0370309": {
    "zipcode": "0370309",
    "prefectureCode": "02",
    "prefectureNumber": 2,
    "prefecture": "青森県",
    "city": "北津軽郡中泊町",
    "town": "八幡"
  },
  "0370311": {
    "zipcode": "0370311",
    "prefectureCode": "02",
    "prefectureNumber": 2,
    "prefecture": "青森県",
    "city": "北津軽郡中泊町",
    "town": "大沢内"
  },
  "0370312": {
    "zipcode": "0370312",
    "prefectureCode": "02",
    "prefectureNumber": 2,
    "prefecture": "青森県",
    "city": "北津軽郡中泊町",
    "town": "豊島"
  },
  "0370313": {
    "zipcode": "0370313",
    "prefectureCode": "02",
    "prefectureNumber": 2,
    "prefecture": "青森県",
    "city": "北津軽郡中泊町",
    "town": "富野"
  },
  "0370314": {
    "zipcode": "0370314",
    "prefectureCode": "02",
    "prefectureNumber": 2,
    "prefecture": "青森県",
    "city": "北津軽郡中泊町",
    "town": "福浦"
  },
  "0370315": {
    "zipcode": "0370315",
    "prefectureCode": "02",
    "prefectureNumber": 2,
    "prefecture": "青森県",
    "city": "北津軽郡中泊町",
    "town": "豊岡"
  },
  "0370316": {
    "zipcode": "0370316",
    "prefectureCode": "02",
    "prefectureNumber": 2,
    "prefecture": "青森県",
    "city": "北津軽郡中泊町",
    "town": "芦野"
  },
  "0370317": {
    "zipcode": "0370317",
    "prefectureCode": "02",
    "prefectureNumber": 2,
    "prefecture": "青森県",
    "city": "北津軽郡中泊町",
    "town": "長泥"
  },
  "0370318": {
    "zipcode": "0370318",
    "prefectureCode": "02",
    "prefectureNumber": 2,
    "prefecture": "青森県",
    "city": "北津軽郡中泊町",
    "town": "田茂木"
  },
  "0370401": {
    "zipcode": "0370401",
    "prefectureCode": "02",
    "prefectureNumber": 2,
    "prefecture": "青森県",
    "city": "五所川原市",
    "town": "相内"
  },
  "0370402": {
    "zipcode": "0370402",
    "prefectureCode": "02",
    "prefectureNumber": 2,
    "prefecture": "青森県",
    "city": "五所川原市",
    "town": "太田"
  },
  "0370403": {
    "zipcode": "0370403",
    "prefectureCode": "02",
    "prefectureNumber": 2,
    "prefecture": "青森県",
    "city": "五所川原市",
    "town": "十三"
  },
  "0370404": {
    "zipcode": "0370404",
    "prefectureCode": "02",
    "prefectureNumber": 2,
    "prefecture": "青森県",
    "city": "五所川原市",
    "town": "磯松"
  },
  "0370405": {
    "zipcode": "0370405",
    "prefectureCode": "02",
    "prefectureNumber": 2,
    "prefecture": "青森県",
    "city": "五所川原市",
    "town": "脇元"
  },
  "0370511": {
    "zipcode": "0370511",
    "prefectureCode": "02",
    "prefectureNumber": 2,
    "prefecture": "青森県",
    "city": "北津軽郡中泊町",
    "town": "小泊砂山"
  },
  "0370512": {
    "zipcode": "0370512",
    "prefectureCode": "02",
    "prefectureNumber": 2,
    "prefecture": "青森県",
    "city": "北津軽郡中泊町",
    "town": "小泊朝間"
  },
  "0370513": {
    "zipcode": "0370513",
    "prefectureCode": "02",
    "prefectureNumber": 2,
    "prefecture": "青森県",
    "city": "北津軽郡中泊町",
    "town": "小泊割長根"
  },
  "0370514": {
    "zipcode": "0370514",
    "prefectureCode": "02",
    "prefectureNumber": 2,
    "prefecture": "青森県",
    "city": "北津軽郡中泊町",
    "town": "小泊浜野"
  },
  "0370515": {
    "zipcode": "0370515",
    "prefectureCode": "02",
    "prefectureNumber": 2,
    "prefecture": "青森県",
    "city": "北津軽郡中泊町",
    "town": "小泊築上"
  },
  "0370516": {
    "zipcode": "0370516",
    "prefectureCode": "02",
    "prefectureNumber": 2,
    "prefecture": "青森県",
    "city": "北津軽郡中泊町",
    "town": "小泊山崎"
  },
  "0370521": {
    "zipcode": "0370521",
    "prefectureCode": "02",
    "prefectureNumber": 2,
    "prefecture": "青森県",
    "city": "北津軽郡中泊町",
    "town": "小泊折戸"
  },
  "0370522": {
    "zipcode": "0370522",
    "prefectureCode": "02",
    "prefectureNumber": 2,
    "prefecture": "青森県",
    "city": "北津軽郡中泊町",
    "town": "小泊小泊"
  },
  "0370523": {
    "zipcode": "0370523",
    "prefectureCode": "02",
    "prefectureNumber": 2,
    "prefecture": "青森県",
    "city": "北津軽郡中泊町",
    "town": "小泊稲荷"
  },
  "0370524": {
    "zipcode": "0370524",
    "prefectureCode": "02",
    "prefectureNumber": 2,
    "prefecture": "青森県",
    "city": "北津軽郡中泊町",
    "town": "小泊水澗"
  },
  "0370525": {
    "zipcode": "0370525",
    "prefectureCode": "02",
    "prefectureNumber": 2,
    "prefecture": "青森県",
    "city": "北津軽郡中泊町",
    "town": "小泊鮫貝"
  },
  "0370531": {
    "zipcode": "0370531",
    "prefectureCode": "02",
    "prefectureNumber": 2,
    "prefecture": "青森県",
    "city": "北津軽郡中泊町",
    "town": "小泊長坂"
  },
  "0370532": {
    "zipcode": "0370532",
    "prefectureCode": "02",
    "prefectureNumber": 2,
    "prefecture": "青森県",
    "city": "北津軽郡中泊町",
    "town": "小泊梨子木平"
  },
  "0370533": {
    "zipcode": "0370533",
    "prefectureCode": "02",
    "prefectureNumber": 2,
    "prefecture": "青森県",
    "city": "北津軽郡中泊町",
    "town": "小泊白倉"
  },
  "0370534": {
    "zipcode": "0370534",
    "prefectureCode": "02",
    "prefectureNumber": 2,
    "prefecture": "青森県",
    "city": "北津軽郡中泊町",
    "town": "小泊漆流"
  },
  "0370535": {
    "zipcode": "0370535",
    "prefectureCode": "02",
    "prefectureNumber": 2,
    "prefecture": "青森県",
    "city": "北津軽郡中泊町",
    "town": "小泊尾崎道"
  },
  "0370536": {
    "zipcode": "0370536",
    "prefectureCode": "02",
    "prefectureNumber": 2,
    "prefecture": "青森県",
    "city": "北津軽郡中泊町",
    "town": "小泊中間"
  },
  "0370537": {
    "zipcode": "0370537",
    "prefectureCode": "02",
    "prefectureNumber": 2,
    "prefecture": "青森県",
    "city": "北津軽郡中泊町",
    "town": "小泊渕岩"
  },
  "0370538": {
    "zipcode": "0370538",
    "prefectureCode": "02",
    "prefectureNumber": 2,
    "prefecture": "青森県",
    "city": "北津軽郡中泊町",
    "town": "小泊下前"
  },
  "0370541": {
    "zipcode": "0370541",
    "prefectureCode": "02",
    "prefectureNumber": 2,
    "prefecture": "青森県",
    "city": "北津軽郡中泊町",
    "town": "小泊嗽沢"
  },
  "0370542": {
    "zipcode": "0370542",
    "prefectureCode": "02",
    "prefectureNumber": 2,
    "prefecture": "青森県",
    "city": "北津軽郡中泊町",
    "town": "小泊大山長根"
  },
  "0370543": {
    "zipcode": "0370543",
    "prefectureCode": "02",
    "prefectureNumber": 2,
    "prefecture": "青森県",
    "city": "北津軽郡中泊町",
    "town": "小泊坊主沢"
  },
  "0370601": {
    "zipcode": "0370601",
    "prefectureCode": "02",
    "prefectureNumber": 2,
    "prefecture": "青森県",
    "city": "五所川原市",
    "town": "戸沢"
  },
  "0370602": {
    "zipcode": "0370602",
    "prefectureCode": "02",
    "prefectureNumber": 2,
    "prefecture": "青森県",
    "city": "五所川原市",
    "town": "松野木"
  },
  "0370611": {
    "zipcode": "0370611",
    "prefectureCode": "02",
    "prefectureNumber": 2,
    "prefecture": "青森県",
    "city": "五所川原市",
    "town": "神山"
  },
  "0370612": {
    "zipcode": "0370612",
    "prefectureCode": "02",
    "prefectureNumber": 2,
    "prefecture": "青森県",
    "city": "五所川原市",
    "town": "福山"
  },
  "0370613": {
    "zipcode": "0370613",
    "prefectureCode": "02",
    "prefectureNumber": 2,
    "prefecture": "青森県",
    "city": "五所川原市",
    "town": "浅井"
  },
  "0370614": {
    "zipcode": "0370614",
    "prefectureCode": "02",
    "prefectureNumber": 2,
    "prefecture": "青森県",
    "city": "五所川原市",
    "town": "野里"
  },
  "0370621": {
    "zipcode": "0370621",
    "prefectureCode": "02",
    "prefectureNumber": 2,
    "prefecture": "青森県",
    "city": "五所川原市",
    "town": "豊成"
  },
  "0370622": {
    "zipcode": "0370622",
    "prefectureCode": "02",
    "prefectureNumber": 2,
    "prefecture": "青森県",
    "city": "五所川原市",
    "town": "原子"
  },
  "0370623": {
    "zipcode": "0370623",
    "prefectureCode": "02",
    "prefectureNumber": 2,
    "prefecture": "青森県",
    "city": "五所川原市",
    "town": "俵元"
  },
  "0370631": {
    "zipcode": "0370631",
    "prefectureCode": "02",
    "prefectureNumber": 2,
    "prefecture": "青森県",
    "city": "五所川原市",
    "town": "前田野目"
  },
  "0370632": {
    "zipcode": "0370632",
    "prefectureCode": "02",
    "prefectureNumber": 2,
    "prefecture": "青森県",
    "city": "五所川原市",
    "town": "高野"
  },
  "0370641": {
    "zipcode": "0370641",
    "prefectureCode": "02",
    "prefectureNumber": 2,
    "prefecture": "青森県",
    "city": "五所川原市",
    "town": "羽野木沢"
  },
  "0370642": {
    "zipcode": "0370642",
    "prefectureCode": "02",
    "prefectureNumber": 2,
    "prefecture": "青森県",
    "city": "五所川原市",
    "town": "持子沢"
  }
}
