{
  "0380000": {
    "zipcode": "0380000",
    "prefectureCode": "02",
    "prefectureNumber": 2,
    "prefecture": "青森県",
    "city": "青森市",
    "town": "以下に掲載がない場合"
  },
  "0380001": {
    "zipcode": "0380001",
    "prefectureCode": "02",
    "prefectureNumber": 2,
    "prefecture": "青森県",
    "city": "青森市",
    "town": "新田"
  },
  "0380002": {
    "zipcode": "0380002",
    "prefectureCode": "02",
    "prefectureNumber": 2,
    "prefecture": "青森県",
    "city": "青森市",
    "town": "沖館"
  },
  "0380003": {
    "zipcode": "0380003",
    "prefectureCode": "02",
    "prefectureNumber": 2,
    "prefecture": "青森県",
    "city": "青森市",
    "town": "石江"
  },
  "0380004": {
    "zipcode": "0380004",
    "prefectureCode": "02",
    "prefectureNumber": 2,
    "prefecture": "青森県",
    "city": "青森市",
    "town": "富田"
  },
  "0380006": {
    "zipcode": "0380006",
    "prefectureCode": "02",
    "prefectureNumber": 2,
    "prefecture": "青森県",
    "city": "青森市",
    "town": "三好"
  },
  "0380011": {
    "zipcode": "0380011",
    "prefectureCode": "02",
    "prefectureNumber": 2,
    "prefecture": "青森県",
    "city": "青森市",
    "town": "篠田"
  },
  "0380012": {
    "zipcode": "0380012",
    "prefectureCode": "02",
    "prefectureNumber": 2,
    "prefecture": "青森県",
    "city": "青森市",
    "town": "柳川"
  },
  "0380013": {
    "zipcode": "0380013",
    "prefectureCode": "02",
    "prefectureNumber": 2,
    "prefecture": "青森県",
    "city": "青森市",
    "town": "久須志"
  },
  "0380014": {
    "zipcode": "0380014",
    "prefectureCode": "02",
    "prefectureNumber": 2,
    "prefecture": "青森県",
    "city": "青森市",
    "town": "西滝"
  },
  "0380015": {
    "zipcode": "0380015",
    "prefectureCode": "02",
    "prefectureNumber": 2,
    "prefecture": "青森県",
    "city": "青森市",
    "town": "千刈"
  },
  "0380021": {
    "zipcode": "0380021",
    "prefectureCode": "02",
    "prefectureNumber": 2,
    "prefecture": "青森県",
    "city": "青森市",
    "town": "安田"
  },
  "0380022": {
    "zipcode": "0380022",
    "prefectureCode": "02",
    "prefectureNumber": 2,
    "prefecture": "青森県",
    "city": "青森市",
    "town": "浪館"
  },
  "0380023": {
    "zipcode": "0380023",
    "prefectureCode": "02",
    "prefectureNumber": 2,
    "prefecture": "青森県",
    "city": "青森市",
    "town": "細越"
  },
  "0380024": {
    "zipcode": "0380024",
    "prefectureCode": "02",
    "prefectureNumber": 2,
    "prefecture": "青森県",
    "city": "青森市",
    "town": "浪館前田"
  },
  "0380031": {
    "zipcode": "0380031",
    "prefectureCode": "02",
    "prefectureNumber": 2,
    "prefecture": "青森県",
    "city": "青森市",
    "town": "三内"
  },
  "0380032": {
    "zipcode": "0380032",
    "prefectureCode": "02",
    "prefectureNumber": 2,
    "prefecture": "青森県",
    "city": "青森市",
    "town": "里見"
  },
  "0380041": {
    "zipcode": "0380041",
    "prefectureCode": "02",
    "prefectureNumber": 2,
    "prefecture": "青森県",
    "city": "青森市",
    "town": "岡町"
  },
  "0380042": {
    "zipcode": "0380042",
    "prefectureCode": "02",
    "prefectureNumber": 2,
    "prefecture": "青森県",
    "city": "青森市",
    "town": "新城"
  },
  "0380043": {
    "zipcode": "0380043",
    "prefectureCode": "02",
    "prefectureNumber": 2,
    "prefecture": "青森県",
    "city": "青森市",
    "town": "岩渡"
  },
  "0380044": {
    "zipcode": "0380044",
    "prefectureCode": "02",
    "prefectureNumber": 2,
    "prefecture": "青森県",
    "city": "青森市",
    "town": "孫内"
  },
  "0380045": {
    "zipcode": "0380045",
    "prefectureCode": "02",
    "prefectureNumber": 2,
    "prefecture": "青森県",
    "city": "青森市",
    "town": "鶴ケ坂"
  },
  "0380046": {
    "zipcode": "0380046",
    "prefectureCode": "02",
    "prefectureNumber": 2,
    "prefecture": "青森県",
    "city": "青森市",
    "town": "戸門"
  },
  "0380051": {
    "zipcode": "0380051",
    "prefectureCode": "02",
    "prefectureNumber": 2,
    "prefecture": "青森県",
    "city": "青森市",
    "town": "内真部"
  },
  "0380052": {
    "zipcode": "0380052",
    "prefectureCode": "02",
    "prefectureNumber": 2,
    "prefecture": "青森県",
    "city": "青森市",
    "town": "清水"
  },
  "0380053": {
    "zipcode": "0380053",
    "prefectureCode": "02",
    "prefectureNumber": 2,
    "prefecture": "青森県",
    "city": "青森市",
    "town": "前田"
  },
  "0380054": {
    "zipcode": "0380054",
    "prefectureCode": "02",
    "prefectureNumber": 2,
    "prefecture": "青森県",
    "city": "青森市",
    "town": "奥内"
  },
  "0380055": {
    "zipcode": "0380055",
    "prefectureCode": "02",
    "prefectureNumber": 2,
    "prefecture": "青森県",
    "city": "青森市",
    "town": "瀬戸子"
  },
  "0380056": {
    "zipcode": "0380056",
    "prefectureCode": "02",
    "prefectureNumber": 2,
    "prefecture": "青森県",
    "city": "青森市",
    "town": "飛鳥"
  },
  "0380057": {
    "zipcode": "0380057",
    "prefectureCode": "02",
    "prefectureNumber": 2,
    "prefecture": "青森県",
    "city": "青森市",
    "town": "西田沢"
  },
  "0380058": {
    "zipcode": "0380058",
    "prefectureCode": "02",
    "prefectureNumber": 2,
    "prefecture": "青森県",
    "city": "青森市",
    "town": "羽白"
  },
  "0380059": {
    "zipcode": "0380059",
    "prefectureCode": "02",
    "prefectureNumber": 2,
    "prefecture": "青森県",
    "city": "青森市",
    "town": "油川"
  },
  "0380101": {
    "zipcode": "0380101",
    "prefectureCode": "02",
    "prefectureNumber": 2,
    "prefecture": "青森県",
    "city": "平川市",
    "town": "碇ケ関横町"
  },
  "0380102": {
    "zipcode": "0380102",
    "prefectureCode": "02",
    "prefectureNumber": 2,
    "prefecture": "青森県",
    "city": "平川市",
    "town": "碇ケ関古懸安田"
  },
  "0380103": {
    "zipcode": "0380103",
    "prefectureCode": "02",
    "prefectureNumber": 2,
    "prefecture": "青森県",
    "city": "平川市",
    "town": "碇ケ関久吉山岸"
  },
  "0380200": {
    "zipcode": "0380200",
    "prefectureCode": "02",
    "prefectureNumber": 2,
    "prefecture": "青森県",
    "city": "南津軽郡大鰐町",
    "town": "以下に掲載がない場合"
  },
  "0380201": {
    "zipcode": "0380201",
    "prefectureCode": "02",
    "prefectureNumber": 2,
    "prefecture": "青森県",
    "city": "南津軽郡大鰐町",
    "town": "苦木"
  },
  "0380202": {
    "zipcode": "0380202",
    "prefectureCode": "02",
    "prefectureNumber": 2,
    "prefecture": "青森県",
    "city": "南津軽郡大鰐町",
    "town": "長峰"
  },
  "0380203": {
    "zipcode": "0380203",
    "prefectureCode": "02",
    "prefectureNumber": 2,
    "prefecture": "青森県",
    "city": "南津軽郡大鰐町",
    "town": "駒木"
  },
  "0380204": {
    "zipcode": "0380204",
    "prefectureCode": "02",
    "prefectureNumber": 2,
    "prefecture": "青森県",
    "city": "南津軽郡大鰐町",
    "town": "唐牛"
  },
  "0380211": {
    "zipcode": "0380211",
    "prefectureCode": "02",
    "prefectureNumber": 2,
    "prefecture": "青森県",
    "city": "南津軽郡大鰐町",
    "town": "大鰐"
  },
  "0380212": {
    "zipcode": "0380212",
    "prefectureCode": "02",
    "prefectureNumber": 2,
    "prefecture": "青森県",
    "city": "南津軽郡大鰐町",
    "town": "蔵館"
  },
  "0380221": {
    "zipcode": "0380221",
    "prefectureCode": "02",
    "prefectureNumber": 2,
    "prefecture": "青森県",
    "city": "南津軽郡大鰐町",
    "town": "虹貝"
  },
  "0380222": {
    "zipcode": "0380222",
    "prefectureCode": "02",
    "prefectureNumber": 2,
    "prefecture": "青森県",
    "city": "南津軽郡大鰐町",
    "town": "早瀬野"
  },
  "0380223": {
    "zipcode": "0380223",
    "prefectureCode": "02",
    "prefectureNumber": 2,
    "prefecture": "青森県",
    "city": "南津軽郡大鰐町",
    "town": "島田"
  },
  "0380231": {
    "zipcode": "0380231",
    "prefectureCode": "02",
    "prefectureNumber": 2,
    "prefecture": "青森県",
    "city": "南津軽郡大鰐町",
    "town": "宿川原"
  },
  "0380232": {
    "zipcode": "0380232",
    "prefectureCode": "02",
    "prefectureNumber": 2,
    "prefecture": "青森県",
    "city": "南津軽郡大鰐町",
    "town": "三ツ目内"
  },
  "0380233": {
    "zipcode": "0380233",
    "prefectureCode": "02",
    "prefectureNumber": 2,
    "prefecture": "青森県",
    "city": "南津軽郡大鰐町",
    "town": "居土"
  },
  "0380241": {
    "zipcode": "0380241",
    "prefectureCode": "02",
    "prefectureNumber": 2,
    "prefecture": "青森県",
    "city": "南津軽郡大鰐町",
    "town": "鯖石"
  },
  "0380242": {
    "zipcode": "0380242",
    "prefectureCode": "02",
    "prefectureNumber": 2,
    "prefecture": "青森県",
    "city": "南津軽郡大鰐町",
    "town": "森山"
  },
  "0380243": {
    "zipcode": "0380243",
    "prefectureCode": "02",
    "prefectureNumber": 2,
    "prefecture": "青森県",
    "city": "南津軽郡大鰐町",
    "town": "八幡館"
  },
  "0381100": {
    "zipcode": "0381100",
    "prefectureCode": "02",
    "prefectureNumber": 2,
    "prefecture": "青森県",
    "city": "南津軽郡田舎館村",
    "town": "以下に掲載がない場合"
  },
  "0381101": {
    "zipcode": "0381101",
    "prefectureCode": "02",
    "prefectureNumber": 2,
    "prefecture": "青森県",
    "city": "南津軽郡田舎館村",
    "town": "東光寺"
  },
  "0381102": {
    "zipcode": "0381102",
    "prefectureCode": "02",
    "prefectureNumber": 2,
    "prefecture": "青森県",
    "city": "南津軽郡田舎館村",
    "town": "堂野前"
  },
  "0381103": {
    "zipcode": "0381103",
    "prefectureCode": "02",
    "prefectureNumber": 2,
    "prefecture": "青森県",
    "city": "南津軽郡田舎館村",
    "town": "十二川原"
  },
  "0381104": {
    "zipcode": "0381104",
    "prefectureCode": "02",
    "prefectureNumber": 2,
    "prefecture": "青森県",
    "city": "南津軽郡田舎館村",
    "town": "枝川"
  },
  "0381111": {
    "zipcode": "0381111",
    "prefectureCode": "02",
    "prefectureNumber": 2,
    "prefecture": "青森県",
    "city": "南津軽郡田舎館村",
    "town": "高樋"
  },
  "0381112": {
    "zipcode": "0381112",
    "prefectureCode": "02",
    "prefectureNumber": 2,
    "prefecture": "青森県",
    "city": "南津軽郡田舎館村",
    "town": "垂柳"
  },
  "0381113": {
    "zipcode": "0381113",
    "prefectureCode": "02",
    "prefectureNumber": 2,
    "prefecture": "青森県",
    "city": "南津軽郡田舎館村",
    "town": "田舎舘"
  },
  "0381121": {
    "zipcode": "0381121",
    "prefectureCode": "02",
    "prefectureNumber": 2,
    "prefecture": "青森県",
    "city": "南津軽郡田舎館村",
    "town": "畑中"
  },
  "0381122": {
    "zipcode": "0381122",
    "prefectureCode": "02",
    "prefectureNumber": 2,
    "prefecture": "青森県",
    "city": "南津軽郡田舎館村",
    "town": "八反田"
  },
  "0381123": {
    "zipcode": "0381123",
    "prefectureCode": "02",
    "prefectureNumber": 2,
    "prefecture": "青森県",
    "city": "南津軽郡田舎館村",
    "town": "大曲"
  },
  "0381131": {
    "zipcode": "0381131",
    "prefectureCode": "02",
    "prefectureNumber": 2,
    "prefecture": "青森県",
    "city": "南津軽郡田舎館村",
    "town": "大袋"
  },
  "0381132": {
    "zipcode": "0381132",
    "prefectureCode": "02",
    "prefectureNumber": 2,
    "prefecture": "青森県",
    "city": "南津軽郡田舎館村",
    "town": "諏訪堂"
  },
  "0381133": {
    "zipcode": "0381133",
    "prefectureCode": "02",
    "prefectureNumber": 2,
    "prefecture": "青森県",
    "city": "南津軽郡田舎館村",
    "town": "大根子"
  },
  "0381134": {
    "zipcode": "0381134",
    "prefectureCode": "02",
    "prefectureNumber": 2,
    "prefecture": "青森県",
    "city": "南津軽郡田舎館村",
    "town": "豊蒔"
  },
  "0381141": {
    "zipcode": "0381141",
    "prefectureCode": "02",
    "prefectureNumber": 2,
    "prefecture": "青森県",
    "city": "南津軽郡田舎館村",
    "town": "川部"
  },
  "0381142": {
    "zipcode": "0381142",
    "prefectureCode": "02",
    "prefectureNumber": 2,
    "prefecture": "青森県",
    "city": "南津軽郡田舎館村",
    "town": "和泉"
  },
  "0381143": {
    "zipcode": "0381143",
    "prefectureCode": "02",
    "prefectureNumber": 2,
    "prefecture": "青森県",
    "city": "南津軽郡田舎館村",
    "town": "境森"
  },
  "0381144": {
    "zipcode": "0381144",
    "prefectureCode": "02",
    "prefectureNumber": 2,
    "prefecture": "青森県",
    "city": "南津軽郡田舎館村",
    "town": "前田屋敷"
  },
  "0381145": {
    "zipcode": "0381145",
    "prefectureCode": "02",
    "prefectureNumber": 2,
    "prefecture": "青森県",
    "city": "南津軽郡田舎館村",
    "town": "土矢倉"
  },
  "0381201": {
    "zipcode": "0381201",
    "prefectureCode": "02",
    "prefectureNumber": 2,
    "prefecture": "青森県",
    "city": "南津軽郡藤崎町",
    "town": "福舘"
  },
  "0381202": {
    "zipcode": "0381202",
    "prefectureCode": "02",
    "prefectureNumber": 2,
    "prefecture": "青森県",
    "city": "南津軽郡藤崎町",
    "town": "富柳"
  },
  "0381203": {
    "zipcode": "0381203",
    "prefectureCode": "02",
    "prefectureNumber": 2,
    "prefecture": "青森県",
    "city": "南津軽郡藤崎町",
    "town": "久井名舘"
  },
  "0381204": {
    "zipcode": "0381204",
    "prefectureCode": "02",
    "prefectureNumber": 2,
    "prefecture": "青森県",
    "city": "南津軽郡藤崎町",
    "town": "水木"
  },
  "0381205": {
    "zipcode": "0381205",
    "prefectureCode": "02",
    "prefectureNumber": 2,
    "prefecture": "青森県",
    "city": "南津軽郡藤崎町",
    "town": "吉野田"
  },
  "0381206": {
    "zipcode": "0381206",
    "prefectureCode": "02",
    "prefectureNumber": 2,
    "prefecture": "青森県",
    "city": "南津軽郡藤崎町",
    "town": "郷山前"
  },
  "0381207": {
    "zipcode": "0381207",
    "prefectureCode": "02",
    "prefectureNumber": 2,
    "prefecture": "青森県",
    "city": "南津軽郡藤崎町",
    "town": "増館"
  },
  "0381211": {
    "zipcode": "0381211",
    "prefectureCode": "02",
    "prefectureNumber": 2,
    "prefecture": "青森県",
    "city": "南津軽郡藤崎町",
    "town": "福島"
  },
  "0381212": {
    "zipcode": "0381212",
    "prefectureCode": "02",
    "prefectureNumber": 2,
    "prefecture": "青森県",
    "city": "南津軽郡藤崎町",
    "town": "三ツ屋"
  },
  "0381213": {
    "zipcode": "0381213",
    "prefectureCode": "02",
    "prefectureNumber": 2,
    "prefecture": "青森県",
    "city": "南津軽郡藤崎町",
    "town": "徳下"
  },
  "0381214": {
    "zipcode": "0381214",
    "prefectureCode": "02",
    "prefectureNumber": 2,
    "prefecture": "青森県",
    "city": "南津軽郡藤崎町",
    "town": "常盤"
  },
  "0381215": {
    "zipcode": "0381215",
    "prefectureCode": "02",
    "prefectureNumber": 2,
    "prefecture": "青森県",
    "city": "南津軽郡藤崎町",
    "town": "若松"
  },
  "0381216": {
    "zipcode": "0381216",
    "prefectureCode": "02",
    "prefectureNumber": 2,
    "prefecture": "青森県",
    "city": "南津軽郡藤崎町",
    "town": "榊"
  },
  "0381301": {
    "zipcode": "0381301",
    "prefectureCode": "02",
    "prefectureNumber": 2,
    "prefecture": "青森県",
    "city": "青森市",
    "town": "浪岡大釈迦"
  },
  "0381302": {
    "zipcode": "0381302",
    "prefectureCode": "02",
    "prefectureNumber": 2,
    "prefecture": "青森県",
    "city": "青森市",
    "town": "浪岡長沼"
  },
  "0381303": {
    "zipcode": "0381303",
    "prefectureCode": "02",
    "prefectureNumber": 2,
    "prefecture": "青森県",
    "city": "青森市",
    "town": "浪岡徳才子"
  },
  "0381304": {
    "zipcode": "0381304",
    "prefectureCode": "02",
    "prefectureNumber": 2,
    "prefecture": "青森県",
    "city": "青森市",
    "town": "浪岡高屋敷"
  },
  "0381305": {
    "zipcode": "0381305",
    "prefectureCode": "02",
    "prefectureNumber": 2,
    "prefecture": "青森県",
    "city": "青森市",
    "town": "浪岡杉沢"
  },
  "0381306": {
    "zipcode": "0381306",
    "prefectureCode": "02",
    "prefectureNumber": 2,
    "prefecture": "青森県",
    "city": "青森市",
    "town": "浪岡福田"
  },
  "0381311": {
    "zipcode": "0381311",
    "prefectureCode": "02",
    "prefectureNumber": 2,
    "prefecture": "青森県",
    "city": "青森市",
    "town": "浪岡浪岡"
  },
  "0381312": {
    "zipcode": "0381312",
    "prefectureCode": "02",
    "prefectureNumber": 2,
    "prefecture": "青森県",
    "city": "青森市",
    "town": "浪岡五本松"
  },
  "0381313": {
    "zipcode": "0381313",
    "prefectureCode": "02",
    "prefectureNumber": 2,
    "prefecture": "青森県",
    "city": "青森市",
    "town": "浪岡王余魚沢"
  },
  "0381321": {
    "zipcode": "0381321",
    "prefectureCode": "02",
    "prefectureNumber": 2,
    "prefecture": "青森県",
    "city": "青森市",
    "town": "浪岡相沢"
  },
  "0381322": {
    "zipcode": "0381322",
    "prefectureCode": "02",
    "prefectureNumber": 2,
    "prefecture": "青森県",
    "city": "青森市",
    "town": "浪岡細野"
  },
  "0381323": {
    "zipcode": "0381323",
    "prefectureCode": "02",
    "prefectureNumber": 2,
    "prefecture": "青森県",
    "city": "青森市",
    "town": "浪岡本郷"
  },
  "0381324": {
    "zipcode": "0381324",
    "prefectureCode": "02",
    "prefectureNumber": 2,
    "prefecture": "青森県",
    "city": "青森市",
    "town": "浪岡吉内"
  },
  "0381325": {
    "zipcode": "0381325",
    "prefectureCode": "02",
    "prefectureNumber": 2,
    "prefecture": "青森県",
    "city": "青森市",
    "town": "浪岡北中野"
  },
  "0381331": {
    "zipcode": "0381331",
    "prefectureCode": "02",
    "prefectureNumber": 2,
    "prefecture": "青森県",
    "city": "青森市",
    "town": "浪岡女鹿沢"
  },
  "0381332": {
    "zipcode": "0381332",
    "prefectureCode": "02",
    "prefectureNumber": 2,
    "prefecture": "青森県",
    "city": "青森市",
    "town": "浪岡下十川"
  },
  "0381333": {
    "zipcode": "0381333",
    "prefectureCode": "02",
    "prefectureNumber": 2,
    "prefecture": "青森県",
    "city": "青森市",
    "town": "浪岡増館"
  },
  "0381341": {
    "zipcode": "0381341",
    "prefectureCode": "02",
    "prefectureNumber": 2,
    "prefecture": "青森県",
    "city": "青森市",
    "town": "浪岡銀"
  },
  "0381342": {
    "zipcode": "0381342",
    "prefectureCode": "02",
    "prefectureNumber": 2,
    "prefecture": "青森県",
    "city": "青森市",
    "town": "浪岡樽沢"
  },
  "0381343": {
    "zipcode": "0381343",
    "prefectureCode": "02",
    "prefectureNumber": 2,
    "prefecture": "青森県",
    "city": "青森市",
    "town": "浪岡郷山前"
  },
  "0381344": {
    "zipcode": "0381344",
    "prefectureCode": "02",
    "prefectureNumber": 2,
    "prefecture": "青森県",
    "city": "青森市",
    "town": "浪岡吉野田"
  },
  "0381345": {
    "zipcode": "0381345",
    "prefectureCode": "02",
    "prefectureNumber": 2,
    "prefecture": "青森県",
    "city": "青森市",
    "town": "浪岡下石川"
  },
  "0382201": {
    "zipcode": "0382201",
    "prefectureCode": "02",
    "prefectureNumber": 2,
    "prefecture": "青森県",
    "city": "西津軽郡深浦町",
    "town": "沢辺"
  },
  "0382202": {
    "zipcode": "0382202",
    "prefectureCode": "02",
    "prefectureNumber": 2,
    "prefecture": "青森県",
    "city": "西津軽郡深浦町",
    "town": "岩崎"
  },
  "0382203": {
    "zipcode": "0382203",
    "prefectureCode": "02",
    "prefectureNumber": 2,
    "prefecture": "青森県",
    "city": "西津軽郡深浦町",
    "town": "正道尻"
  },
  "0382204": {
    "zipcode": "0382204",
    "prefectureCode": "02",
    "prefectureNumber": 2,
    "prefecture": "青森県",
    "city": "西津軽郡深浦町",
    "town": "久田"
  },
  "0382205": {
    "zipcode": "0382205",
    "prefectureCode": "02",
    "prefectureNumber": 2,
    "prefecture": "青森県",
    "city": "西津軽郡深浦町",
    "town": "森山"
  },
  "0382206": {
    "zipcode": "0382206",
    "prefectureCode": "02",
    "prefectureNumber": 2,
    "prefecture": "青森県",
    "city": "西津軽郡深浦町",
    "town": "松神"
  },
  "0382207": {
    "zipcode": "0382207",
    "prefectureCode": "02",
    "prefectureNumber": 2,
    "prefecture": "青森県",
    "city": "西津軽郡深浦町",
    "town": "黒崎"
  },
  "0382208": {
    "zipcode": "0382208",
    "prefectureCode": "02",
    "prefectureNumber": 2,
    "prefecture": "青森県",
    "city": "西津軽郡深浦町",
    "town": "大間越"
  },
  "0382300": {
    "zipcode": "0382300",
    "prefectureCode": "02",
    "prefectureNumber": 2,
    "prefecture": "青森県",
    "city": "西津軽郡深浦町",
    "town": "以下に掲載がない場合"
  },
  "0382321": {
    "zipcode": "0382321",
    "prefectureCode": "02",
    "prefectureNumber": 2,
    "prefecture": "青森県",
    "city": "西津軽郡深浦町",
    "town": "広戸"
  },
  "0382322": {
    "zipcode": "0382322",
    "prefectureCode": "02",
    "prefectureNumber": 2,
    "prefecture": "青森県",
    "city": "西津軽郡深浦町",
    "town": "長慶平"
  },
  "0382323": {
    "zipcode": "0382323",
    "prefectureCode": "02",
    "prefectureNumber": 2,
    "prefecture": "青森県",
    "city": "西津軽郡深浦町",
    "town": "上長慶平"
  },
  "0382324": {
    "zipcode": "0382324",
    "prefectureCode": "02",
    "prefectureNumber": 2,
    "prefecture": "青森県",
    "city": "西津軽郡深浦町",
    "town": "深浦"
  },
  "0382325": {
    "zipcode": "0382325",
    "prefectureCode": "02",
    "prefectureNumber": 2,
    "prefecture": "青森県",
    "city": "西津軽郡深浦町",
    "town": "横磯"
  },
  "0382326": {
    "zipcode": "0382326",
    "prefectureCode": "02",
    "prefectureNumber": 2,
    "prefecture": "青森県",
    "city": "西津軽郡深浦町",
    "town": "月屋"
  },
  "0382327": {
    "zipcode": "0382327",
    "prefectureCode": "02",
    "prefectureNumber": 2,
    "prefecture": "青森県",
    "city": "西津軽郡深浦町",
    "town": "舮作"
  },
  "0382411": {
    "zipcode": "0382411",
    "prefectureCode": "02",
    "prefectureNumber": 2,
    "prefecture": "青森県",
    "city": "西津軽郡深浦町",
    "town": "風合瀬"
  },
  "0382412": {
    "zipcode": "0382412",
    "prefectureCode": "02",
    "prefectureNumber": 2,
    "prefecture": "青森県",
    "city": "西津軽郡深浦町",
    "town": "驫木"
  },
  "0382413": {
    "zipcode": "0382413",
    "prefectureCode": "02",
    "prefectureNumber": 2,
    "prefecture": "青森県",
    "city": "西津軽郡深浦町",
    "town": "追良瀬"
  },
  "0382501": {
    "zipcode": "0382501",
    "prefectureCode": "02",
    "prefectureNumber": 2,
    "prefecture": "青森県",
    "city": "西津軽郡深浦町",
    "town": "柳田"
  },
  "0382502": {
    "zipcode": "0382502",
    "prefectureCode": "02",
    "prefectureNumber": 2,
    "prefecture": "青森県",
    "city": "西津軽郡深浦町",
    "town": "岩坂"
  },
  "0382503": {
    "zipcode": "0382503",
    "prefectureCode": "02",
    "prefectureNumber": 2,
    "prefecture": "青森県",
    "city": "西津軽郡深浦町",
    "town": "関"
  },
  "0382504": {
    "zipcode": "0382504",
    "prefectureCode": "02",
    "prefectureNumber": 2,
    "prefecture": "青森県",
    "city": "西津軽郡深浦町",
    "town": "北金ケ沢"
  },
  "0382505": {
    "zipcode": "0382505",
    "prefectureCode": "02",
    "prefectureNumber": 2,
    "prefecture": "青森県",
    "city": "西津軽郡深浦町",
    "town": "田野沢"
  },
  "0382700": {
    "zipcode": "0382700",
    "prefectureCode": "02",
    "prefectureNumber": 2,
    "prefecture": "青森県",
    "city": "西津軽郡鰺ヶ沢町",
    "town": "以下に掲載がない場合"
  },
  "0382701": {
    "zipcode": "0382701",
    "prefectureCode": "02",
    "prefectureNumber": 2,
    "prefecture": "青森県",
    "city": "西津軽郡鰺ヶ沢町",
    "town": "北浮田町"
  },
  "0382702": {
    "zipcode": "0382702",
    "prefectureCode": "02",
    "prefectureNumber": 2,
    "prefecture": "青森県",
    "city": "西津軽郡鰺ヶ沢町",
    "town": "建石町"
  },
  "0382703": {
    "zipcode": "0382703",
    "prefectureCode": "02",
    "prefectureNumber": 2,
    "prefecture": "青森県",
    "city": "西津軽郡鰺ヶ沢町",
    "town": "小屋敷町"
  },
  "0382704": {
    "zipcode": "0382704",
    "prefectureCode": "02",
    "prefectureNumber": 2,
    "prefecture": "青森県",
    "city": "西津軽郡鰺ヶ沢町",
    "town": "湯舟町"
  },
  "0382705": {
    "zipcode": "0382705",
    "prefectureCode": "02",
    "prefectureNumber": 2,
    "prefecture": "青森県",
    "city": "西津軽郡鰺ヶ沢町",
    "town": "南浮田町"
  },
  "0382711": {
    "zipcode": "0382711",
    "prefectureCode": "02",
    "prefectureNumber": 2,
    "prefecture": "青森県",
    "city": "西津軽郡鰺ヶ沢町",
    "town": "中村町"
  },
  "0382712": {
    "zipcode": "0382712",
    "prefectureCode": "02",
    "prefectureNumber": 2,
    "prefecture": "青森県",
    "city": "西津軽郡鰺ヶ沢町",
    "town": "長平町"
  },
  "0382713": {
    "zipcode": "0382713",
    "prefectureCode": "02",
    "prefectureNumber": 2,
    "prefecture": "青森県",
    "city": "西津軽郡鰺ヶ沢町",
    "town": "松代町"
  },
  "0382714": {
    "zipcode": "0382714",
    "prefectureCode": "02",
    "prefectureNumber": 2,
    "prefecture": "青森県",
    "city": "西津軽郡鰺ヶ沢町",
    "town": "芦萢町"
  },
  "0382715": {
    "zipcode": "0382715",
    "prefectureCode": "02",
    "prefectureNumber": 2,
    "prefecture": "青森県",
    "city": "西津軽郡鰺ヶ沢町",
    "town": "浜横沢町"
  },
  "0382721": {
    "zipcode": "0382721",
    "prefectureCode": "02",
    "prefectureNumber": 2,
    "prefecture": "青森県",
    "city": "西津軽郡鰺ヶ沢町",
    "town": "深谷町"
  },
  "0382722": {
    "zipcode": "0382722",
    "prefectureCode": "02",
    "prefectureNumber": 2,
    "prefecture": "青森県",
    "city": "西津軽郡鰺ヶ沢町",
    "town": "小森町"
  },
  "0382723": {
    "zipcode": "0382723",
    "prefectureCode": "02",
    "prefectureNumber": 2,
    "prefecture": "青森県",
    "city": "西津軽郡鰺ヶ沢町",
    "town": "一ツ森町"
  },
  "0382724": {
    "zipcode": "0382724",
    "prefectureCode": "02",
    "prefectureNumber": 2,
    "prefecture": "青森県",
    "city": "西津軽郡鰺ヶ沢町",
    "town": "鬼袋町"
  },
  "0382725": {
    "zipcode": "0382725",
    "prefectureCode": "02",
    "prefectureNumber": 2,
    "prefecture": "青森県",
    "city": "西津軽郡鰺ヶ沢町",
    "town": "種里町"
  },
  "0382731": {
    "zipcode": "0382731",
    "prefectureCode": "02",
    "prefectureNumber": 2,
    "prefecture": "青森県",
    "city": "西津軽郡鰺ヶ沢町",
    "town": "赤石町"
  },
  "0382732": {
    "zipcode": "0382732",
    "prefectureCode": "02",
    "prefectureNumber": 2,
    "prefecture": "青森県",
    "city": "西津軽郡鰺ヶ沢町",
    "town": "日照田町"
  },
  "0382733": {
    "zipcode": "0382733",
    "prefectureCode": "02",
    "prefectureNumber": 2,
    "prefecture": "青森県",
    "city": "西津軽郡鰺ヶ沢町",
    "town": "館前町"
  },
  "0382734": {
    "zipcode": "0382734",
    "prefectureCode": "02",
    "prefectureNumber": 2,
    "prefecture": "青森県",
    "city": "西津軽郡鰺ヶ沢町",
    "town": "南金沢町"
  },
  "0382735": {
    "zipcode": "0382735",
    "prefectureCode": "02",
    "prefectureNumber": 2,
    "prefecture": "青森県",
    "city": "西津軽郡鰺ヶ沢町",
    "town": "姥袋町"
  },
  "0382741": {
    "zipcode": "0382741",
    "prefectureCode": "02",
    "prefectureNumber": 2,
    "prefecture": "青森県",
    "city": "西津軽郡鰺ヶ沢町",
    "town": "浜町"
  },
  "0382742": {
    "zipcode": "0382742",
    "prefectureCode": "02",
    "prefectureNumber": 2,
    "prefecture": "青森県",
    "city": "西津軽郡鰺ヶ沢町",
    "town": "新町"
  },
  "0382743": {
    "zipcode": "0382743",
    "prefectureCode": "02",
    "prefectureNumber": 2,
    "prefecture": "青森県",
    "city": "西津軽郡鰺ヶ沢町",
    "town": "釣町"
  },
  "0382744": {
    "zipcode": "0382744",
    "prefectureCode": "02",
    "prefectureNumber": 2,
    "prefecture": "青森県",
    "city": "西津軽郡鰺ヶ沢町",
    "town": "漁師町"
  },
  "0382745": {
    "zipcode": "0382745",
    "prefectureCode": "02",
    "prefectureNumber": 2,
    "prefecture": "青森県",
    "city": "西津軽郡鰺ヶ沢町",
    "town": "新地町"
  },
  "0382746": {
    "zipcode": "0382746",
    "prefectureCode": "02",
    "prefectureNumber": 2,
    "prefecture": "青森県",
    "city": "西津軽郡鰺ヶ沢町",
    "town": "富根町"
  },
  "0382747": {
    "zipcode": "0382747",
    "prefectureCode": "02",
    "prefectureNumber": 2,
    "prefecture": "青森県",
    "city": "西津軽郡鰺ヶ沢町",
    "town": "淀町"
  },
  "0382751": {
    "zipcode": "0382751",
    "prefectureCode": "02",
    "prefectureNumber": 2,
    "prefecture": "青森県",
    "city": "西津軽郡鰺ヶ沢町",
    "town": "田中町"
  },
  "0382752": {
    "zipcode": "0382752",
    "prefectureCode": "02",
    "prefectureNumber": 2,
    "prefecture": "青森県",
    "city": "西津軽郡鰺ヶ沢町",
    "town": "七ツ石町"
  },
  "0382753": {
    "zipcode": "0382753",
    "prefectureCode": "02",
    "prefectureNumber": 2,
    "prefecture": "青森県",
    "city": "西津軽郡鰺ヶ沢町",
    "town": "本町"
  },
  "0382754": {
    "zipcode": "0382754",
    "prefectureCode": "02",
    "prefectureNumber": 2,
    "prefecture": "青森県",
    "city": "西津軽郡鰺ヶ沢町",
    "town": "米町"
  },
  "0382761": {
    "zipcode": "0382761",
    "prefectureCode": "02",
    "prefectureNumber": 2,
    "prefecture": "青森県",
    "city": "西津軽郡鰺ヶ沢町",
    "town": "舞戸町"
  },
  "0382801": {
    "zipcode": "0382801",
    "prefectureCode": "02",
    "prefectureNumber": 2,
    "prefecture": "青森県",
    "city": "つがる市",
    "town": "木造丸山"
  },
  "0382803": {
    "zipcode": "0382803",
    "prefectureCode": "02",
    "prefectureNumber": 2,
    "prefecture": "青森県",
    "city": "つがる市",
    "town": "木造下福原"
  },
  "0382804": {
    "zipcode": "0382804",
    "prefectureCode": "02",
    "prefectureNumber": 2,
    "prefecture": "青森県",
    "city": "つがる市",
    "town": "木造三ツ館"
  },
  "0382806": {
    "zipcode": "0382806",
    "prefectureCode": "02",
    "prefectureNumber": 2,
    "prefecture": "青森県",
    "city": "つがる市",
    "town": "木造越水"
  },
  "0382808": {
    "zipcode": "0382808",
    "prefectureCode": "02",
    "prefectureNumber": 2,
    "prefecture": "青森県",
    "city": "つがる市",
    "town": "木造吹原"
  },
  "0382811": {
    "zipcode": "0382811",
    "prefectureCode": "02",
    "prefectureNumber": 2,
    "prefecture": "青森県",
    "city": "つがる市",
    "town": "森田町上相野"
  },
  "0382812": {
    "zipcode": "0382812",
    "prefectureCode": "02",
    "prefectureNumber": 2,
    "prefecture": "青森県",
    "city": "つがる市",
    "town": "森田町下相野"
  },
  "0382813": {
    "zipcode": "0382813",
    "prefectureCode": "02",
    "prefectureNumber": 2,
    "prefecture": "青森県",
    "city": "つがる市",
    "town": "森田町妙堂崎"
  },
  "0382814": {
    "zipcode": "0382814",
    "prefectureCode": "02",
    "prefectureNumber": 2,
    "prefecture": "青森県",
    "city": "つがる市",
    "town": "森田町中田"
  },
  "0382815": {
    "zipcode": "0382815",
    "prefectureCode": "02",
    "prefectureNumber": 2,
    "prefecture": "青森県",
    "city": "つがる市",
    "town": "森田町山田"
  },
  "0382816": {
    "zipcode": "0382816",
    "prefectureCode": "02",
    "prefectureNumber": 2,
    "prefecture": "青森県",
    "city": "つがる市",
    "town": "森田町森田"
  },
  "0382817": {
    "zipcode": "0382817",
    "prefectureCode": "02",
    "prefectureNumber": 2,
    "prefecture": "青森県",
    "city": "つがる市",
    "town": "森田町床舞"
  },
  "0382818": {
    "zipcode": "0382818",
    "prefectureCode": "02",
    "prefectureNumber": 2,
    "prefecture": "青森県",
    "city": "つがる市",
    "town": "森田町大館"
  },
  "0383100": {
    "zipcode": "0383100",
    "prefectureCode": "02",
    "prefectureNumber": 2,
    "prefecture": "青森県",
    "city": "つがる市",
    "town": "以下に掲載がない場合"
  },
  "0383101": {
    "zipcode": "0383101",
    "prefectureCode": "02",
    "prefectureNumber": 2,
    "prefecture": "青森県",
    "city": "つがる市",
    "town": "柏鷺坂"
  },
  "0383102": {
    "zipcode": "0383102",
    "prefectureCode": "02",
    "prefectureNumber": 2,
    "prefecture": "青森県",
    "city": "つがる市",
    "town": "柏下古川"
  },
  "0383103": {
    "zipcode": "0383103",
    "prefectureCode": "02",
    "prefectureNumber": 2,
    "prefecture": "青森県",
    "city": "つがる市",
    "town": "柏上古川"
  },
  "0383104": {
    "zipcode": "0383104",
    "prefectureCode": "02",
    "prefectureNumber": 2,
    "prefecture": "青森県",
    "city": "つがる市",
    "town": "柏桑野木田"
  },
  "0383105": {
    "zipcode": "0383105",
    "prefectureCode": "02",
    "prefectureNumber": 2,
    "prefecture": "青森県",
    "city": "つがる市",
    "town": "柏広須"
  },
  "0383106": {
    "zipcode": "0383106",
    "prefectureCode": "02",
    "prefectureNumber": 2,
    "prefecture": "青森県",
    "city": "つがる市",
    "town": "柏玉水"
  },
  "0383107": {
    "zipcode": "0383107",
    "prefectureCode": "02",
    "prefectureNumber": 2,
    "prefecture": "青森県",
    "city": "つがる市",
    "town": "柏稲盛"
  },
  "0383111": {
    "zipcode": "0383111",
    "prefectureCode": "02",
    "prefectureNumber": 2,
    "prefecture": "青森県",
    "city": "つがる市",
    "town": "木造豊田"
  },
  "0383112": {
    "zipcode": "0383112",
    "prefectureCode": "02",
    "prefectureNumber": 2,
    "prefecture": "青森県",
    "city": "つがる市",
    "town": "木造川除"
  },
  "0383113": {
    "zipcode": "0383113",
    "prefectureCode": "02",
    "prefectureNumber": 2,
    "prefecture": "青森県",
    "city": "つがる市",
    "town": "木造芦沼"
  },
  "0383114": {
    "zipcode": "0383114",
    "prefectureCode": "02",
    "prefectureNumber": 2,
    "prefecture": "青森県",
    "city": "つがる市",
    "town": "木造成田"
  },
  "0383115": {
    "zipcode": "0383115",
    "prefectureCode": "02",
    "prefectureNumber": 2,
    "prefecture": "青森県",
    "city": "つがる市",
    "town": "木造蓮川"
  },
  "0383121": {
    "zipcode": "0383121",
    "prefectureCode": "02",
    "prefectureNumber": 2,
    "prefecture": "青森県",
    "city": "つがる市",
    "town": "木造早田"
  },
  "0383122": {
    "zipcode": "0383122",
    "prefectureCode": "02",
    "prefectureNumber": 2,
    "prefecture": "青森県",
    "city": "つがる市",
    "town": "木造追広"
  },
  "0383123": {
    "zipcode": "0383123",
    "prefectureCode": "02",
    "prefectureNumber": 2,
    "prefecture": "青森県",
    "city": "つがる市",
    "town": "木造藤田"
  },
  "0383124": {
    "zipcode": "0383124",
    "prefectureCode": "02",
    "prefectureNumber": 2,
    "prefecture": "青森県",
    "city": "つがる市",
    "town": "木造朝日"
  },
  "0383125": {
    "zipcode": "0383125",
    "prefectureCode": "02",
    "prefectureNumber": 2,
    "prefecture": "青森県",
    "city": "つがる市",
    "town": "木造鶴泊"
  },
  "0383126": {
    "zipcode": "0383126",
    "prefectureCode": "02",
    "prefectureNumber": 2,
    "prefecture": "青森県",
    "city": "つがる市",
    "town": "木造森内"
  },
  "0383127": {
    "zipcode": "0383127",
    "prefectureCode": "02",
    "prefectureNumber": 2,
    "prefecture": "青森県",
    "city": "つがる市",
    "town": "木造森山"
  },
  "0383128": {
    "zipcode": "0383128",
    "prefectureCode": "02",
    "prefectureNumber": 2,
    "prefecture": "青森県",
    "city": "つがる市",
    "town": "木造森本"
  },
  "0383131": {
    "zipcode": "0383131",
    "prefectureCode": "02",
    "prefectureNumber": 2,
    "prefecture": "青森県",
    "city": "つがる市",
    "town": "木造千年"
  },
  "0383132": {
    "zipcode": "0383132",
    "prefectureCode": "02",
    "prefectureNumber": 2,
    "prefecture": "青森県",
    "city": "つがる市",
    "town": "木造清水"
  },
  "0383133": {
    "zipcode": "0383133",
    "prefectureCode": "02",
    "prefectureNumber": 2,
    "prefecture": "青森県",
    "city": "つがる市",
    "town": "木造末広"
  },
  "0383134": {
    "zipcode": "0383134",
    "prefectureCode": "02",
    "prefectureNumber": 2,
    "prefecture": "青森県",
    "city": "つがる市",
    "town": "木造種取"
  },
  "0383135": {
    "zipcode": "0383135",
    "prefectureCode": "02",
    "prefectureNumber": 2,
    "prefecture": "青森県",
    "city": "つがる市",
    "town": "木造有楽町"
  },
  "0383136": {
    "zipcode": "0383136",
    "prefectureCode": "02",
    "prefectureNumber": 2,
    "prefecture": "青森県",
    "city": "つがる市",
    "town": "木造萩野"
  },
  "0383137": {
    "zipcode": "0383137",
    "prefectureCode": "02",
    "prefectureNumber": 2,
    "prefecture": "青森県",
    "city": "つがる市",
    "town": "木造若宮"
  },
  "0383138": {
    "zipcode": "0383138",
    "prefectureCode": "02",
    "prefectureNumber": 2,
    "prefecture": "青森県",
    "city": "つがる市",
    "town": "木造若緑"
  },
  "0383139": {
    "zipcode": "0383139",
    "prefectureCode": "02",
    "prefectureNumber": 2,
    "prefecture": "青森県",
    "city": "つがる市",
    "town": "木造萩流"
  },
  "0383141": {
    "zipcode": "0383141",
    "prefectureCode": "02",
    "prefectureNumber": 2,
    "prefecture": "青森県",
    "city": "つがる市",
    "town": "木造浮巣"
  },
  "0383142": {
    "zipcode": "0383142",
    "prefectureCode": "02",
    "prefectureNumber": 2,
    "prefecture": "青森県",
    "city": "つがる市",
    "town": "木造赤根"
  },
  "0383143": {
    "zipcode": "0383143",
    "prefectureCode": "02",
    "prefectureNumber": 2,
    "prefecture": "青森県",
    "city": "つがる市",
    "town": "木造日向"
  },
  "0383144": {
    "zipcode": "0383144",
    "prefectureCode": "02",
    "prefectureNumber": 2,
    "prefecture": "青森県",
    "city": "つがる市",
    "town": "木造曙"
  },
  "0383145": {
    "zipcode": "0383145",
    "prefectureCode": "02",
    "prefectureNumber": 2,
    "prefecture": "青森県",
    "city": "つがる市",
    "town": "木造千代町"
  },
  "0383146": {
    "zipcode": "0383146",
    "prefectureCode": "02",
    "prefectureNumber": 2,
    "prefecture": "青森県",
    "city": "つがる市",
    "town": "木造桜木"
  },
  "0383151": {
    "zipcode": "0383151",
    "prefectureCode": "02",
    "prefectureNumber": 2,
    "prefecture": "青森県",
    "city": "つがる市",
    "town": "木造若竹"
  },
  "0383152": {
    "zipcode": "0383152",
    "prefectureCode": "02",
    "prefectureNumber": 2,
    "prefecture": "青森県",
    "city": "つがる市",
    "town": "木造藤岡"
  },
  "0383153": {
    "zipcode": "0383153",
    "prefectureCode": "02",
    "prefectureNumber": 2,
    "prefecture": "青森県",
    "city": "つがる市",
    "town": "木造野宮"
  },
  "0383154": {
    "zipcode": "0383154",
    "prefectureCode": "02",
    "prefectureNumber": 2,
    "prefecture": "青森県",
    "city": "つがる市",
    "town": "木造照日"
  },
  "0383155": {
    "zipcode": "0383155",
    "prefectureCode": "02",
    "prefectureNumber": 2,
    "prefecture": "青森県",
    "city": "つがる市",
    "town": "木造増田"
  },
  "0383156": {
    "zipcode": "0383156",
    "prefectureCode": "02",
    "prefectureNumber": 2,
    "prefecture": "青森県",
    "city": "つがる市",
    "town": "木造宮井"
  },
  "0383157": {
    "zipcode": "0383157",
    "prefectureCode": "02",
    "prefectureNumber": 2,
    "prefecture": "青森県",
    "city": "つがる市",
    "town": "木造宮崎"
  },
  "0383158": {
    "zipcode": "0383158",
    "prefectureCode": "02",
    "prefectureNumber": 2,
    "prefecture": "青森県",
    "city": "つがる市",
    "town": "木造房松"
  },
  "0383159": {
    "zipcode": "0383159",
    "prefectureCode": "02",
    "prefectureNumber": 2,
    "prefecture": "青森県",
    "city": "つがる市",
    "town": "木造桜川"
  },
  "0383161": {
    "zipcode": "0383161",
    "prefectureCode": "02",
    "prefectureNumber": 2,
    "prefecture": "青森県",
    "city": "つがる市",
    "town": "木造濁川"
  },
  "0383162": {
    "zipcode": "0383162",
    "prefectureCode": "02",
    "prefectureNumber": 2,
    "prefecture": "青森県",
    "city": "つがる市",
    "town": "木造浦船"
  },
  "0383163": {
    "zipcode": "0383163",
    "prefectureCode": "02",
    "prefectureNumber": 2,
    "prefecture": "青森県",
    "city": "つがる市",
    "town": "木造中館"
  },
  "0383164": {
    "zipcode": "0383164",
    "prefectureCode": "02",
    "prefectureNumber": 2,
    "prefecture": "青森県",
    "city": "つがる市",
    "town": "木造柴田"
  },
  "0383165": {
    "zipcode": "0383165",
    "prefectureCode": "02",
    "prefectureNumber": 2,
    "prefecture": "青森県",
    "city": "つがる市",
    "town": "木造菊川"
  },
  "0383166": {
    "zipcode": "0383166",
    "prefectureCode": "02",
    "prefectureNumber": 2,
    "prefecture": "青森県",
    "city": "つがる市",
    "town": "木造福原"
  },
  "0383167": {
    "zipcode": "0383167",
    "prefectureCode": "02",
    "prefectureNumber": 2,
    "prefecture": "青森県",
    "city": "つがる市",
    "town": "木造千代田"
  },
  "0383271": {
    "zipcode": "0383271",
    "prefectureCode": "02",
    "prefectureNumber": 2,
    "prefecture": "青森県",
    "city": "つがる市",
    "town": "木造善積"
  },
  "0383272": {
    "zipcode": "0383272",
    "prefectureCode": "02",
    "prefectureNumber": 2,
    "prefecture": "青森県",
    "city": "つがる市",
    "town": "木造兼館"
  },
  "0383273": {
    "zipcode": "0383273",
    "prefectureCode": "02",
    "prefectureNumber": 2,
    "prefecture": "青森県",
    "city": "つがる市",
    "town": "木造出野里"
  },
  "0383274": {
    "zipcode": "0383274",
    "prefectureCode": "02",
    "prefectureNumber": 2,
    "prefecture": "青森県",
    "city": "つがる市",
    "town": "木造蓮花田"
  },
  "0383275": {
    "zipcode": "0383275",
    "prefectureCode": "02",
    "prefectureNumber": 2,
    "prefecture": "青森県",
    "city": "つがる市",
    "town": "木造永田"
  },
  "0383276": {
    "zipcode": "0383276",
    "prefectureCode": "02",
    "prefectureNumber": 2,
    "prefecture": "青森県",
    "city": "つがる市",
    "town": "木造林"
  },
  "0383277": {
    "zipcode": "0383277",
    "prefectureCode": "02",
    "prefectureNumber": 2,
    "prefecture": "青森県",
    "city": "つがる市",
    "town": "木造大畑"
  },
  "0383278": {
    "zipcode": "0383278",
    "prefectureCode": "02",
    "prefectureNumber": 2,
    "prefecture": "青森県",
    "city": "つがる市",
    "town": "木造土滝"
  },
  "0383281": {
    "zipcode": "0383281",
    "prefectureCode": "02",
    "prefectureNumber": 2,
    "prefecture": "青森県",
    "city": "つがる市",
    "town": "木造平滝"
  },
  "0383282": {
    "zipcode": "0383282",
    "prefectureCode": "02",
    "prefectureNumber": 2,
    "prefecture": "青森県",
    "city": "つがる市",
    "town": "木造筒木坂"
  },
  "0383283": {
    "zipcode": "0383283",
    "prefectureCode": "02",
    "prefectureNumber": 2,
    "prefecture": "青森県",
    "city": "つがる市",
    "town": "木造館岡"
  },
  "0383284": {
    "zipcode": "0383284",
    "prefectureCode": "02",
    "prefectureNumber": 2,
    "prefecture": "青森県",
    "city": "つがる市",
    "town": "木造亀ケ岡"
  },
  "0383285": {
    "zipcode": "0383285",
    "prefectureCode": "02",
    "prefectureNumber": 2,
    "prefecture": "青森県",
    "city": "つがる市",
    "town": "木造大湯町"
  },
  "0383286": {
    "zipcode": "0383286",
    "prefectureCode": "02",
    "prefectureNumber": 2,
    "prefecture": "青森県",
    "city": "つがる市",
    "town": "木造菰槌"
  },
  "0383287": {
    "zipcode": "0383287",
    "prefectureCode": "02",
    "prefectureNumber": 2,
    "prefecture": "青森県",
    "city": "つがる市",
    "town": "木造下遠山里"
  },
  "0383288": {
    "zipcode": "0383288",
    "prefectureCode": "02",
    "prefectureNumber": 2,
    "prefecture": "青森県",
    "city": "つがる市",
    "town": "木造出来島"
  },
  "0383301": {
    "zipcode": "0383301",
    "prefectureCode": "02",
    "prefectureNumber": 2,
    "prefecture": "青森県",
    "city": "つがる市",
    "town": "富萢町"
  },
  "0383302": {
    "zipcode": "0383302",
    "prefectureCode": "02",
    "prefectureNumber": 2,
    "prefecture": "青森県",
    "city": "つがる市",
    "town": "豊富町"
  },
  "0383303": {
    "zipcode": "0383303",
    "prefectureCode": "02",
    "prefectureNumber": 2,
    "prefecture": "青森県",
    "city": "つがる市",
    "town": "車力町"
  },
  "0383304": {
    "zipcode": "0383304",
    "prefectureCode": "02",
    "prefectureNumber": 2,
    "prefecture": "青森県",
    "city": "つがる市",
    "town": "下車力町"
  },
  "0383305": {
    "zipcode": "0383305",
    "prefectureCode": "02",
    "prefectureNumber": 2,
    "prefecture": "青森県",
    "city": "つがる市",
    "town": "牛潟町"
  },
  "0383306": {
    "zipcode": "0383306",
    "prefectureCode": "02",
    "prefectureNumber": 2,
    "prefecture": "青森県",
    "city": "つがる市",
    "town": "下牛潟町"
  },
  "0383500": {
    "zipcode": "0383500",
    "prefectureCode": "02",
    "prefectureNumber": 2,
    "prefecture": "青森県",
    "city": "北津軽郡鶴田町",
    "town": "以下に掲載がない場合"
  },
  "0383501": {
    "zipcode": "0383501",
    "prefectureCode": "02",
    "prefectureNumber": 2,
    "prefecture": "青森県",
    "city": "北津軽郡鶴田町",
    "town": "大巻"
  },
  "0383502": {
    "zipcode": "0383502",
    "prefectureCode": "02",
    "prefectureNumber": 2,
    "prefecture": "青森県",
    "city": "北津軽郡鶴田町",
    "town": "強巻"
  },
  "0383503": {
    "zipcode": "0383503",
    "prefectureCode": "02",
    "prefectureNumber": 2,
    "prefecture": "青森県",
    "city": "北津軽郡鶴田町",
    "town": "鶴田"
  },
  "0383511": {
    "zipcode": "0383511",
    "prefectureCode": "02",
    "prefectureNumber": 2,
    "prefecture": "青森県",
    "city": "北津軽郡鶴田町",
    "town": "横萢"
  },
  "0383512": {
    "zipcode": "0383512",
    "prefectureCode": "02",
    "prefectureNumber": 2,
    "prefecture": "青森県",
    "city": "北津軽郡鶴田町",
    "town": "瀬良沢"
  },
  "0383513": {
    "zipcode": "0383513",
    "prefectureCode": "02",
    "prefectureNumber": 2,
    "prefecture": "青森県",
    "city": "北津軽郡鶴田町",
    "town": "沖"
  },
  "0383514": {
    "zipcode": "0383514",
    "prefectureCode": "02",
    "prefectureNumber": 2,
    "prefecture": "青森県",
    "city": "北津軽郡鶴田町",
    "town": "中野"
  },
  "0383515": {
    "zipcode": "0383515",
    "prefectureCode": "02",
    "prefectureNumber": 2,
    "prefecture": "青森県",
    "city": "北津軽郡鶴田町",
    "town": "山道"
  },
  "0383521": {
    "zipcode": "0383521",
    "prefectureCode": "02",
    "prefectureNumber": 2,
    "prefecture": "青森県",
    "city": "北津軽郡鶴田町",
    "town": "菖蒲川"
  },
  "0383522": {
    "zipcode": "0383522",
    "prefectureCode": "02",
    "prefectureNumber": 2,
    "prefecture": "青森県",
    "city": "北津軽郡鶴田町",
    "town": "鶴泊"
  },
  "0383523": {
    "zipcode": "0383523",
    "prefectureCode": "02",
    "prefectureNumber": 2,
    "prefecture": "青森県",
    "city": "北津軽郡鶴田町",
    "town": "胡桃舘"
  },
  "0383524": {
    "zipcode": "0383524",
    "prefectureCode": "02",
    "prefectureNumber": 2,
    "prefecture": "青森県",
    "city": "北津軽郡鶴田町",
    "town": "境"
  },
  "0383525": {
    "zipcode": "0383525",
    "prefectureCode": "02",
    "prefectureNumber": 2,
    "prefecture": "青森県",
    "city": "北津軽郡鶴田町",
    "town": "大性"
  },
  "0383531": {
    "zipcode": "0383531",
    "prefectureCode": "02",
    "prefectureNumber": 2,
    "prefecture": "青森県",
    "city": "北津軽郡鶴田町",
    "town": "木筒"
  },
  "0383532": {
    "zipcode": "0383532",
    "prefectureCode": "02",
    "prefectureNumber": 2,
    "prefecture": "青森県",
    "city": "北津軽郡鶴田町",
    "town": "野木"
  },
  "0383541": {
    "zipcode": "0383541",
    "prefectureCode": "02",
    "prefectureNumber": 2,
    "prefecture": "青森県",
    "city": "北津軽郡鶴田町",
    "town": "尾原"
  },
  "0383542": {
    "zipcode": "0383542",
    "prefectureCode": "02",
    "prefectureNumber": 2,
    "prefecture": "青森県",
    "city": "北津軽郡鶴田町",
    "town": "廻堰"
  },
  "0383543": {
    "zipcode": "0383543",
    "prefectureCode": "02",
    "prefectureNumber": 2,
    "prefecture": "青森県",
    "city": "北津軽郡鶴田町",
    "town": "妙堂崎"
  },
  "0383600": {
    "zipcode": "0383600",
    "prefectureCode": "02",
    "prefectureNumber": 2,
    "prefecture": "青森県",
    "city": "北津軽郡板柳町",
    "town": "以下に掲載がない場合"
  },
  "0383611": {
    "zipcode": "0383611",
    "prefectureCode": "02",
    "prefectureNumber": 2,
    "prefecture": "青森県",
    "city": "弘前市",
    "town": "三和"
  },
  "0383612": {
    "zipcode": "0383612",
    "prefectureCode": "02",
    "prefectureNumber": 2,
    "prefecture": "青森県",
    "city": "弘前市",
    "town": "笹舘"
  },
  "0383613": {
    "zipcode": "0383613",
    "prefectureCode": "02",
    "prefectureNumber": 2,
    "prefecture": "青森県",
    "city": "弘前市",
    "town": "小友"
  },
  "0383614": {
    "zipcode": "0383614",
    "prefectureCode": "02",
    "prefectureNumber": 2,
    "prefecture": "青森県",
    "city": "弘前市",
    "town": "種市"
  },
  "0383615": {
    "zipcode": "0383615",
    "prefectureCode": "02",
    "prefectureNumber": 2,
    "prefecture": "青森県",
    "city": "弘前市",
    "town": "青女子"
  },
  "0383621": {
    "zipcode": "0383621",
    "prefectureCode": "02",
    "prefectureNumber": 2,
    "prefecture": "青森県",
    "city": "北津軽郡板柳町",
    "town": "五林平"
  },
  "0383622": {
    "zipcode": "0383622",
    "prefectureCode": "02",
    "prefectureNumber": 2,
    "prefecture": "青森県",
    "city": "北津軽郡板柳町",
    "town": "夕顔関"
  },
  "0383623": {
    "zipcode": "0383623",
    "prefectureCode": "02",
    "prefectureNumber": 2,
    "prefecture": "青森県",
    "city": "北津軽郡板柳町",
    "town": "常海橋"
  },
  "0383624": {
    "zipcode": "0383624",
    "prefectureCode": "02",
    "prefectureNumber": 2,
    "prefecture": "青森県",
    "city": "北津軽郡板柳町",
    "town": "滝井"
  },
  "0383625": {
    "zipcode": "0383625",
    "prefectureCode": "02",
    "prefectureNumber": 2,
    "prefecture": "青森県",
    "city": "北津軽郡板柳町",
    "town": "舘野越"
  },
  "0383631": {
    "zipcode": "0383631",
    "prefectureCode": "02",
    "prefectureNumber": 2,
    "prefecture": "青森県",
    "city": "北津軽郡板柳町",
    "town": "牡丹森"
  },
  "0383632": {
    "zipcode": "0383632",
    "prefectureCode": "02",
    "prefectureNumber": 2,
    "prefecture": "青森県",
    "city": "北津軽郡板柳町",
    "town": "柏木"
  },
  "0383633": {
    "zipcode": "0383633",
    "prefectureCode": "02",
    "prefectureNumber": 2,
    "prefecture": "青森県",
    "city": "北津軽郡板柳町",
    "town": "狐森"
  },
  "0383634": {
    "zipcode": "0383634",
    "prefectureCode": "02",
    "prefectureNumber": 2,
    "prefecture": "青森県",
    "city": "北津軽郡板柳町",
    "town": "高増"
  },
  "0383635": {
    "zipcode": "0383635",
    "prefectureCode": "02",
    "prefectureNumber": 2,
    "prefecture": "青森県",
    "city": "北津軽郡板柳町",
    "town": "大俵"
  },
  "0383636": {
    "zipcode": "0383636",
    "prefectureCode": "02",
    "prefectureNumber": 2,
    "prefecture": "青森県",
    "city": "北津軽郡板柳町",
    "town": "五幾形"
  },
  "0383641": {
    "zipcode": "0383641",
    "prefectureCode": "02",
    "prefectureNumber": 2,
    "prefecture": "青森県",
    "city": "北津軽郡板柳町",
    "town": "深味"
  },
  "0383642": {
    "zipcode": "0383642",
    "prefectureCode": "02",
    "prefectureNumber": 2,
    "prefecture": "青森県",
    "city": "北津軽郡板柳町",
    "town": "太田"
  },
  "0383643": {
    "zipcode": "0383643",
    "prefectureCode": "02",
    "prefectureNumber": 2,
    "prefecture": "青森県",
    "city": "北津軽郡板柳町",
    "town": "長野"
  },
  "0383644": {
    "zipcode": "0383644",
    "prefectureCode": "02",
    "prefectureNumber": 2,
    "prefecture": "青森県",
    "city": "北津軽郡板柳町",
    "town": "横沢"
  },
  "0383645": {
    "zipcode": "0383645",
    "prefectureCode": "02",
    "prefectureNumber": 2,
    "prefecture": "青森県",
    "city": "北津軽郡板柳町",
    "town": "辻"
  },
  "0383651": {
    "zipcode": "0383651",
    "prefectureCode": "02",
    "prefectureNumber": 2,
    "prefecture": "青森県",
    "city": "北津軽郡板柳町",
    "town": "飯田"
  },
  "0383661": {
    "zipcode": "0383661",
    "prefectureCode": "02",
    "prefectureNumber": 2,
    "prefecture": "青森県",
    "city": "北津軽郡板柳町",
    "town": "福野田"
  },
  "0383662": {
    "zipcode": "0383662",
    "prefectureCode": "02",
    "prefectureNumber": 2,
    "prefecture": "青森県",
    "city": "北津軽郡板柳町",
    "town": "板柳"
  },
  "0383671": {
    "zipcode": "0383671",
    "prefectureCode": "02",
    "prefectureNumber": 2,
    "prefecture": "青森県",
    "city": "北津軽郡板柳町",
    "town": "掛落林"
  },
  "0383672": {
    "zipcode": "0383672",
    "prefectureCode": "02",
    "prefectureNumber": 2,
    "prefecture": "青森県",
    "city": "北津軽郡板柳町",
    "town": "灰沼"
  },
  "0383673": {
    "zipcode": "0383673",
    "prefectureCode": "02",
    "prefectureNumber": 2,
    "prefecture": "青森県",
    "city": "北津軽郡板柳町",
    "town": "小幡"
  },
  "0383681": {
    "zipcode": "0383681",
    "prefectureCode": "02",
    "prefectureNumber": 2,
    "prefecture": "青森県",
    "city": "北津軽郡板柳町",
    "town": "野中"
  },
  "0383682": {
    "zipcode": "0383682",
    "prefectureCode": "02",
    "prefectureNumber": 2,
    "prefecture": "青森県",
    "city": "北津軽郡板柳町",
    "town": "石野"
  },
  "0383683": {
    "zipcode": "0383683",
    "prefectureCode": "02",
    "prefectureNumber": 2,
    "prefecture": "青森県",
    "city": "北津軽郡板柳町",
    "town": "赤田"
  },
  "0383684": {
    "zipcode": "0383684",
    "prefectureCode": "02",
    "prefectureNumber": 2,
    "prefecture": "青森県",
    "city": "北津軽郡板柳町",
    "town": "三千石"
  },
  "0383685": {
    "zipcode": "0383685",
    "prefectureCode": "02",
    "prefectureNumber": 2,
    "prefecture": "青森県",
    "city": "北津軽郡板柳町",
    "town": "いたや町"
  },
  "0383800": {
    "zipcode": "0383800",
    "prefectureCode": "02",
    "prefectureNumber": 2,
    "prefecture": "青森県",
    "city": "南津軽郡藤崎町",
    "town": "以下に掲載がない場合"
  },
  "0383801": {
    "zipcode": "0383801",
    "prefectureCode": "02",
    "prefectureNumber": 2,
    "prefecture": "青森県",
    "city": "南津軽郡藤崎町",
    "town": "藤越"
  },
  "0383802": {
    "zipcode": "0383802",
    "prefectureCode": "02",
    "prefectureNumber": 2,
    "prefecture": "青森県",
    "city": "南津軽郡藤崎町",
    "town": "藤崎"
  },
  "0383803": {
    "zipcode": "0383803",
    "prefectureCode": "02",
    "prefectureNumber": 2,
    "prefecture": "青森県",
    "city": "南津軽郡藤崎町",
    "town": "西豊田"
  },
  "0383804": {
    "zipcode": "0383804",
    "prefectureCode": "02",
    "prefectureNumber": 2,
    "prefecture": "青森県",
    "city": "南津軽郡藤崎町",
    "town": "葛野"
  },
  "0383805": {
    "zipcode": "0383805",
    "prefectureCode": "02",
    "prefectureNumber": 2,
    "prefecture": "青森県",
    "city": "南津軽郡藤崎町",
    "town": "五林"
  },
  "0383806": {
    "zipcode": "0383806",
    "prefectureCode": "02",
    "prefectureNumber": 2,
    "prefecture": "青森県",
    "city": "南津軽郡藤崎町",
    "town": "林崎"
  },
  "0383811": {
    "zipcode": "0383811",
    "prefectureCode": "02",
    "prefectureNumber": 2,
    "prefecture": "青森県",
    "city": "南津軽郡藤崎町",
    "town": "中島"
  },
  "0383812": {
    "zipcode": "0383812",
    "prefectureCode": "02",
    "prefectureNumber": 2,
    "prefecture": "青森県",
    "city": "南津軽郡藤崎町",
    "town": "小畑"
  },
  "0383813": {
    "zipcode": "0383813",
    "prefectureCode": "02",
    "prefectureNumber": 2,
    "prefecture": "青森県",
    "city": "南津軽郡藤崎町",
    "town": "矢沢"
  },
  "0383814": {
    "zipcode": "0383814",
    "prefectureCode": "02",
    "prefectureNumber": 2,
    "prefecture": "青森県",
    "city": "南津軽郡藤崎町",
    "town": "水沼"
  },
  "0383821": {
    "zipcode": "0383821",
    "prefectureCode": "02",
    "prefectureNumber": 2,
    "prefecture": "青森県",
    "city": "弘前市",
    "town": "百田"
  },
  "0383831": {
    "zipcode": "0383831",
    "prefectureCode": "02",
    "prefectureNumber": 2,
    "prefecture": "青森県",
    "city": "南津軽郡藤崎町",
    "town": "中野目"
  },
  "0383832": {
    "zipcode": "0383832",
    "prefectureCode": "02",
    "prefectureNumber": 2,
    "prefecture": "青森県",
    "city": "南津軽郡藤崎町",
    "town": "吉向"
  },
  "0383833": {
    "zipcode": "0383833",
    "prefectureCode": "02",
    "prefectureNumber": 2,
    "prefecture": "青森県",
    "city": "南津軽郡藤崎町",
    "town": "亀岡"
  },
  "0383834": {
    "zipcode": "0383834",
    "prefectureCode": "02",
    "prefectureNumber": 2,
    "prefecture": "青森県",
    "city": "南津軽郡藤崎町",
    "town": "西中野目"
  },
  "0383835": {
    "zipcode": "0383835",
    "prefectureCode": "02",
    "prefectureNumber": 2,
    "prefecture": "青森県",
    "city": "南津軽郡藤崎町",
    "town": "俵舛"
  },
  "0383836": {
    "zipcode": "0383836",
    "prefectureCode": "02",
    "prefectureNumber": 2,
    "prefecture": "青森県",
    "city": "南津軽郡藤崎町",
    "town": "下俵舛"
  },
  "0383837": {
    "zipcode": "0383837",
    "prefectureCode": "02",
    "prefectureNumber": 2,
    "prefecture": "青森県",
    "city": "南津軽郡藤崎町",
    "town": "柏木堰"
  },
  "0383874": {
    "zipcode": "0383874",
    "prefectureCode": "02",
    "prefectureNumber": 2,
    "prefecture": "青森県",
    "city": "弘前市",
    "town": "津賀野（その他）"
  }
}
