{
  "0390100": {
    "zipcode": "0390100",
    "prefectureCode": "02",
    "prefectureNumber": 2,
    "prefecture": "青森県",
    "city": "三戸郡南部町",
    "town": "以下に掲載がない場合"
  },
  "0390101": {
    "zipcode": "0390101",
    "prefectureCode": "02",
    "prefectureNumber": 2,
    "prefecture": "青森県",
    "city": "三戸郡南部町",
    "town": "玉掛"
  },
  "0390102": {
    "zipcode": "0390102",
    "prefectureCode": "02",
    "prefectureNumber": 2,
    "prefecture": "青森県",
    "city": "三戸郡南部町",
    "town": "赤石"
  },
  "0390103": {
    "zipcode": "0390103",
    "prefectureCode": "02",
    "prefectureNumber": 2,
    "prefecture": "青森県",
    "city": "三戸郡南部町",
    "town": "大向"
  },
  "0390104": {
    "zipcode": "0390104",
    "prefectureCode": "02",
    "prefectureNumber": 2,
    "prefecture": "青森県",
    "city": "三戸郡南部町",
    "town": "小向"
  },
  "0390105": {
    "zipcode": "0390105",
    "prefectureCode": "02",
    "prefectureNumber": 2,
    "prefecture": "青森県",
    "city": "三戸郡南部町",
    "town": "沖田面"
  },
  "0390106": {
    "zipcode": "0390106",
    "prefectureCode": "02",
    "prefectureNumber": 2,
    "prefecture": "青森県",
    "city": "三戸郡南部町",
    "town": "相内（その他）"
  },
  "0390111": {
    "zipcode": "0390111",
    "prefectureCode": "02",
    "prefectureNumber": 2,
    "prefecture": "青森県",
    "city": "三戸郡三戸町",
    "town": "泉山"
  },
  "0390112": {
    "zipcode": "0390112",
    "prefectureCode": "02",
    "prefectureNumber": 2,
    "prefecture": "青森県",
    "city": "三戸郡三戸町",
    "town": "梅内"
  },
  "0390113": {
    "zipcode": "0390113",
    "prefectureCode": "02",
    "prefectureNumber": 2,
    "prefecture": "青森県",
    "city": "三戸郡三戸町",
    "town": "目時"
  },
  "0390121": {
    "zipcode": "0390121",
    "prefectureCode": "02",
    "prefectureNumber": 2,
    "prefecture": "青森県",
    "city": "三戸郡三戸町",
    "town": "豊川"
  },
  "0390122": {
    "zipcode": "0390122",
    "prefectureCode": "02",
    "prefectureNumber": 2,
    "prefecture": "青森県",
    "city": "三戸郡三戸町",
    "town": "斗内"
  },
  "0390131": {
    "zipcode": "0390131",
    "prefectureCode": "02",
    "prefectureNumber": 2,
    "prefecture": "青森県",
    "city": "三戸郡三戸町",
    "town": "二日町"
  },
  "0390132": {
    "zipcode": "0390132",
    "prefectureCode": "02",
    "prefectureNumber": 2,
    "prefecture": "青森県",
    "city": "三戸郡三戸町",
    "town": "在府小路町"
  },
  "0390133": {
    "zipcode": "0390133",
    "prefectureCode": "02",
    "prefectureNumber": 2,
    "prefecture": "青森県",
    "city": "三戸郡三戸町",
    "town": "馬喰町"
  },
  "0390134": {
    "zipcode": "0390134",
    "prefectureCode": "02",
    "prefectureNumber": 2,
    "prefecture": "青森県",
    "city": "三戸郡三戸町",
    "town": "同心町"
  },
  "0390135": {
    "zipcode": "0390135",
    "prefectureCode": "02",
    "prefectureNumber": 2,
    "prefecture": "青森県",
    "city": "三戸郡三戸町",
    "town": "八日町"
  },
  "0390141": {
    "zipcode": "0390141",
    "prefectureCode": "02",
    "prefectureNumber": 2,
    "prefecture": "青森県",
    "city": "三戸郡三戸町",
    "town": "川守田"
  },
  "0390142": {
    "zipcode": "0390142",
    "prefectureCode": "02",
    "prefectureNumber": 2,
    "prefecture": "青森県",
    "city": "三戸郡三戸町",
    "town": "久慈町"
  },
  "0390143": {
    "zipcode": "0390143",
    "prefectureCode": "02",
    "prefectureNumber": 2,
    "prefecture": "青森県",
    "city": "三戸郡三戸町",
    "town": "川守田町"
  },
  "0390144": {
    "zipcode": "0390144",
    "prefectureCode": "02",
    "prefectureNumber": 2,
    "prefecture": "青森県",
    "city": "三戸郡三戸町",
    "town": "六日町"
  },
  "0390200": {
    "zipcode": "0390200",
    "prefectureCode": "02",
    "prefectureNumber": 2,
    "prefecture": "青森県",
    "city": "三戸郡田子町",
    "town": "以下に掲載がない場合"
  },
  "0390201": {
    "zipcode": "0390201",
    "prefectureCode": "02",
    "prefectureNumber": 2,
    "prefecture": "青森県",
    "city": "三戸郡田子町",
    "town": "田子"
  },
  "0390202": {
    "zipcode": "0390202",
    "prefectureCode": "02",
    "prefectureNumber": 2,
    "prefecture": "青森県",
    "city": "三戸郡田子町",
    "town": "相米"
  },
  "0390311": {
    "zipcode": "0390311",
    "prefectureCode": "02",
    "prefectureNumber": 2,
    "prefecture": "青森県",
    "city": "三戸郡田子町",
    "town": "原"
  },
  "0390312": {
    "zipcode": "0390312",
    "prefectureCode": "02",
    "prefectureNumber": 2,
    "prefecture": "青森県",
    "city": "三戸郡田子町",
    "town": "石亀"
  },
  "0390313": {
    "zipcode": "0390313",
    "prefectureCode": "02",
    "prefectureNumber": 2,
    "prefecture": "青森県",
    "city": "三戸郡田子町",
    "town": "茂市"
  },
  "0390314": {
    "zipcode": "0390314",
    "prefectureCode": "02",
    "prefectureNumber": 2,
    "prefecture": "青森県",
    "city": "三戸郡田子町",
    "town": "遠瀬"
  },
  "0390315": {
    "zipcode": "0390315",
    "prefectureCode": "02",
    "prefectureNumber": 2,
    "prefecture": "青森県",
    "city": "三戸郡田子町",
    "town": "夏坂"
  },
  "0390316": {
    "zipcode": "0390316",
    "prefectureCode": "02",
    "prefectureNumber": 2,
    "prefecture": "青森県",
    "city": "三戸郡田子町",
    "town": "関"
  },
  "0390317": {
    "zipcode": "0390317",
    "prefectureCode": "02",
    "prefectureNumber": 2,
    "prefecture": "青森県",
    "city": "三戸郡田子町",
    "town": "山口"
  },
  "0390451": {
    "zipcode": "0390451",
    "prefectureCode": "02",
    "prefectureNumber": 2,
    "prefecture": "青森県",
    "city": "三戸郡三戸町",
    "town": "蛇沼"
  },
  "0390452": {
    "zipcode": "0390452",
    "prefectureCode": "02",
    "prefectureNumber": 2,
    "prefecture": "青森県",
    "city": "三戸郡三戸町",
    "town": "袴田"
  },
  "0390453": {
    "zipcode": "0390453",
    "prefectureCode": "02",
    "prefectureNumber": 2,
    "prefecture": "青森県",
    "city": "三戸郡三戸町",
    "town": "貝守"
  },
  "0390501": {
    "zipcode": "0390501",
    "prefectureCode": "02",
    "prefectureNumber": 2,
    "prefecture": "青森県",
    "city": "三戸郡南部町",
    "town": "上名久井"
  },
  "0390502": {
    "zipcode": "0390502",
    "prefectureCode": "02",
    "prefectureNumber": 2,
    "prefecture": "青森県",
    "city": "三戸郡南部町",
    "town": "下名久井"
  },
  "0390503": {
    "zipcode": "0390503",
    "prefectureCode": "02",
    "prefectureNumber": 2,
    "prefecture": "青森県",
    "city": "三戸郡南部町",
    "town": "平"
  },
  "0390504": {
    "zipcode": "0390504",
    "prefectureCode": "02",
    "prefectureNumber": 2,
    "prefecture": "青森県",
    "city": "三戸郡南部町",
    "town": "鳥舌内"
  },
  "0390505": {
    "zipcode": "0390505",
    "prefectureCode": "02",
    "prefectureNumber": 2,
    "prefecture": "青森県",
    "city": "三戸郡南部町",
    "town": "鳥谷"
  },
  "0390506": {
    "zipcode": "0390506",
    "prefectureCode": "02",
    "prefectureNumber": 2,
    "prefecture": "青森県",
    "city": "三戸郡南部町",
    "town": "法光寺"
  },
  "0390507": {
    "zipcode": "0390507",
    "prefectureCode": "02",
    "prefectureNumber": 2,
    "prefecture": "青森県",
    "city": "三戸郡南部町",
    "town": "高瀬"
  },
  "0390606": {
    "zipcode": "0390606",
    "prefectureCode": "02",
    "prefectureNumber": 2,
    "prefecture": "青森県",
    "city": "三戸郡南部町",
    "town": "相内（柏木久保、鴨ノ首、留ノ沢、沼久保、屋敷久保）"
  },
  "0390611": {
    "zipcode": "0390611",
    "prefectureCode": "02",
    "prefectureNumber": 2,
    "prefecture": "青森県",
    "city": "三戸郡南部町",
    "town": "斗賀"
  },
  "0390612": {
    "zipcode": "0390612",
    "prefectureCode": "02",
    "prefectureNumber": 2,
    "prefecture": "青森県",
    "city": "三戸郡南部町",
    "town": "剣吉"
  },
  "0390613": {
    "zipcode": "0390613",
    "prefectureCode": "02",
    "prefectureNumber": 2,
    "prefecture": "青森県",
    "city": "三戸郡南部町",
    "town": "森越"
  },
  "0390614": {
    "zipcode": "0390614",
    "prefectureCode": "02",
    "prefectureNumber": 2,
    "prefecture": "青森県",
    "city": "三戸郡南部町",
    "town": "虎渡"
  },
  "0390801": {
    "zipcode": "0390801",
    "prefectureCode": "02",
    "prefectureNumber": 2,
    "prefecture": "青森県",
    "city": "三戸郡南部町",
    "town": "片岸"
  },
  "0390802": {
    "zipcode": "0390802",
    "prefectureCode": "02",
    "prefectureNumber": 2,
    "prefecture": "青森県",
    "city": "三戸郡南部町",
    "town": "苫米地"
  },
  "0390803": {
    "zipcode": "0390803",
    "prefectureCode": "02",
    "prefectureNumber": 2,
    "prefecture": "青森県",
    "city": "三戸郡南部町",
    "town": "麦沢"
  },
  "0390804": {
    "zipcode": "0390804",
    "prefectureCode": "02",
    "prefectureNumber": 2,
    "prefecture": "青森県",
    "city": "三戸郡南部町",
    "town": "高橋"
  },
  "0390805": {
    "zipcode": "0390805",
    "prefectureCode": "02",
    "prefectureNumber": 2,
    "prefecture": "青森県",
    "city": "三戸郡南部町",
    "town": "小泉"
  },
  "0390811": {
    "zipcode": "0390811",
    "prefectureCode": "02",
    "prefectureNumber": 2,
    "prefecture": "青森県",
    "city": "三戸郡南部町",
    "town": "法師岡"
  },
  "0390812": {
    "zipcode": "0390812",
    "prefectureCode": "02",
    "prefectureNumber": 2,
    "prefecture": "青森県",
    "city": "三戸郡南部町",
    "town": "椛木"
  },
  "0390813": {
    "zipcode": "0390813",
    "prefectureCode": "02",
    "prefectureNumber": 2,
    "prefecture": "青森県",
    "city": "三戸郡南部町",
    "town": "杉沢"
  },
  "0390814": {
    "zipcode": "0390814",
    "prefectureCode": "02",
    "prefectureNumber": 2,
    "prefecture": "青森県",
    "city": "三戸郡南部町",
    "town": "埖渡"
  },
  "0390815": {
    "zipcode": "0390815",
    "prefectureCode": "02",
    "prefectureNumber": 2,
    "prefecture": "青森県",
    "city": "三戸郡南部町",
    "town": "福田"
  },
  "0391101": {
    "zipcode": "0391101",
    "prefectureCode": "02",
    "prefectureNumber": 2,
    "prefecture": "青森県",
    "city": "八戸市",
    "town": "尻内町"
  },
  "0391102": {
    "zipcode": "0391102",
    "prefectureCode": "02",
    "prefectureNumber": 2,
    "prefecture": "青森県",
    "city": "八戸市",
    "town": "一番町"
  },
  "0391103": {
    "zipcode": "0391103",
    "prefectureCode": "02",
    "prefectureNumber": 2,
    "prefecture": "青森県",
    "city": "八戸市",
    "town": "長苗代"
  },
  "0391104": {
    "zipcode": "0391104",
    "prefectureCode": "02",
    "prefectureNumber": 2,
    "prefecture": "青森県",
    "city": "八戸市",
    "town": "田面木"
  },
  "0391105": {
    "zipcode": "0391105",
    "prefectureCode": "02",
    "prefectureNumber": 2,
    "prefecture": "青森県",
    "city": "八戸市",
    "town": "八幡"
  },
  "0391106": {
    "zipcode": "0391106",
    "prefectureCode": "02",
    "prefectureNumber": 2,
    "prefecture": "青森県",
    "city": "八戸市",
    "town": "坂牛"
  },
  "0391107": {
    "zipcode": "0391107",
    "prefectureCode": "02",
    "prefectureNumber": 2,
    "prefecture": "青森県",
    "city": "八戸市",
    "town": "櫛引（その他）"
  },
  "0391108": {
    "zipcode": "0391108",
    "prefectureCode": "02",
    "prefectureNumber": 2,
    "prefecture": "青森県",
    "city": "八戸市",
    "town": "上野"
  },
  "0391109": {
    "zipcode": "0391109",
    "prefectureCode": "02",
    "prefectureNumber": 2,
    "prefecture": "青森県",
    "city": "八戸市",
    "town": "豊崎町"
  },
  "0391111": {
    "zipcode": "0391111",
    "prefectureCode": "02",
    "prefectureNumber": 2,
    "prefecture": "青森県",
    "city": "八戸市",
    "town": "東白山台"
  },
  "0391112": {
    "zipcode": "0391112",
    "prefectureCode": "02",
    "prefectureNumber": 2,
    "prefecture": "青森県",
    "city": "八戸市",
    "town": "南白山台"
  },
  "0391113": {
    "zipcode": "0391113",
    "prefectureCode": "02",
    "prefectureNumber": 2,
    "prefecture": "青森県",
    "city": "八戸市",
    "town": "西白山台"
  },
  "0391114": {
    "zipcode": "0391114",
    "prefectureCode": "02",
    "prefectureNumber": 2,
    "prefecture": "青森県",
    "city": "八戸市",
    "town": "北白山台"
  },
  "0391121": {
    "zipcode": "0391121",
    "prefectureCode": "02",
    "prefectureNumber": 2,
    "prefecture": "青森県",
    "city": "八戸市",
    "town": "卸センター"
  },
  "0391160": {
    "zipcode": "0391160",
    "prefectureCode": "02",
    "prefectureNumber": 2,
    "prefecture": "青森県",
    "city": "八戸市",
    "town": "小田"
  },
  "0391161": {
    "zipcode": "0391161",
    "prefectureCode": "02",
    "prefectureNumber": 2,
    "prefecture": "青森県",
    "city": "八戸市",
    "town": "河原木"
  },
  "0391162": {
    "zipcode": "0391162",
    "prefectureCode": "02",
    "prefectureNumber": 2,
    "prefecture": "青森県",
    "city": "八戸市",
    "town": "豊洲"
  },
  "0391163": {
    "zipcode": "0391163",
    "prefectureCode": "02",
    "prefectureNumber": 2,
    "prefecture": "青森県",
    "city": "八戸市",
    "town": "高州"
  },
  "0391164": {
    "zipcode": "0391164",
    "prefectureCode": "02",
    "prefectureNumber": 2,
    "prefecture": "青森県",
    "city": "八戸市",
    "town": "下長"
  },
  "0391165": {
    "zipcode": "0391165",
    "prefectureCode": "02",
    "prefectureNumber": 2,
    "prefecture": "青森県",
    "city": "八戸市",
    "town": "石堂"
  },
  "0391166": {
    "zipcode": "0391166",
    "prefectureCode": "02",
    "prefectureNumber": 2,
    "prefecture": "青森県",
    "city": "八戸市",
    "town": "根城"
  },
  "0391167": {
    "zipcode": "0391167",
    "prefectureCode": "02",
    "prefectureNumber": 2,
    "prefecture": "青森県",
    "city": "八戸市",
    "town": "沢里"
  },
  "0391168": {
    "zipcode": "0391168",
    "prefectureCode": "02",
    "prefectureNumber": 2,
    "prefecture": "青森県",
    "city": "八戸市",
    "town": "八太郎"
  },
  "0391169": {
    "zipcode": "0391169",
    "prefectureCode": "02",
    "prefectureNumber": 2,
    "prefecture": "青森県",
    "city": "八戸市",
    "town": "日計"
  },
  "0391200": {
    "zipcode": "0391200",
    "prefectureCode": "02",
    "prefectureNumber": 2,
    "prefecture": "青森県",
    "city": "三戸郡階上町",
    "town": "以下に掲載がない場合"
  },
  "0391201": {
    "zipcode": "0391201",
    "prefectureCode": "02",
    "prefectureNumber": 2,
    "prefecture": "青森県",
    "city": "三戸郡階上町",
    "town": "道仏"
  },
  "0391202": {
    "zipcode": "0391202",
    "prefectureCode": "02",
    "prefectureNumber": 2,
    "prefecture": "青森県",
    "city": "三戸郡階上町",
    "town": "赤保内"
  },
  "0391203": {
    "zipcode": "0391203",
    "prefectureCode": "02",
    "prefectureNumber": 2,
    "prefecture": "青森県",
    "city": "三戸郡階上町",
    "town": "鳥屋部"
  },
  "0391204": {
    "zipcode": "0391204",
    "prefectureCode": "02",
    "prefectureNumber": 2,
    "prefecture": "青森県",
    "city": "三戸郡階上町",
    "town": "平内"
  },
  "0391205": {
    "zipcode": "0391205",
    "prefectureCode": "02",
    "prefectureNumber": 2,
    "prefecture": "青森県",
    "city": "三戸郡階上町",
    "town": "晴山沢"
  },
  "0391206": {
    "zipcode": "0391206",
    "prefectureCode": "02",
    "prefectureNumber": 2,
    "prefecture": "青森県",
    "city": "三戸郡階上町",
    "town": "田代"
  },
  "0391207": {
    "zipcode": "0391207",
    "prefectureCode": "02",
    "prefectureNumber": 2,
    "prefecture": "青森県",
    "city": "三戸郡階上町",
    "town": "金山沢"
  },
  "0391208": {
    "zipcode": "0391208",
    "prefectureCode": "02",
    "prefectureNumber": 2,
    "prefecture": "青森県",
    "city": "三戸郡階上町",
    "town": "角柄折"
  },
  "0391211": {
    "zipcode": "0391211",
    "prefectureCode": "02",
    "prefectureNumber": 2,
    "prefecture": "青森県",
    "city": "三戸郡階上町",
    "town": "蒼前東"
  },
  "0391212": {
    "zipcode": "0391212",
    "prefectureCode": "02",
    "prefectureNumber": 2,
    "prefecture": "青森県",
    "city": "三戸郡階上町",
    "town": "蒼前西"
  },
  "0391500": {
    "zipcode": "0391500",
    "prefectureCode": "02",
    "prefectureNumber": 2,
    "prefecture": "青森県",
    "city": "三戸郡五戸町",
    "town": "以下に掲載がない場合"
  },
  "0391501": {
    "zipcode": "0391501",
    "prefectureCode": "02",
    "prefectureNumber": 2,
    "prefecture": "青森県",
    "city": "三戸郡五戸町",
    "town": "上市川"
  },
  "0391502": {
    "zipcode": "0391502",
    "prefectureCode": "02",
    "prefectureNumber": 2,
    "prefecture": "青森県",
    "city": "三戸郡五戸町",
    "town": "切谷内（その他）"
  },
  "0391503": {
    "zipcode": "0391503",
    "prefectureCode": "02",
    "prefectureNumber": 2,
    "prefecture": "青森県",
    "city": "三戸郡五戸町",
    "town": "鮫ノ口"
  },
  "0391504": {
    "zipcode": "0391504",
    "prefectureCode": "02",
    "prefectureNumber": 2,
    "prefecture": "青森県",
    "city": "三戸郡五戸町",
    "town": "上兎内"
  },
  "0391505": {
    "zipcode": "0391505",
    "prefectureCode": "02",
    "prefectureNumber": 2,
    "prefecture": "青森県",
    "city": "三戸郡五戸町",
    "town": "石仏前"
  },
  "0391506": {
    "zipcode": "0391506",
    "prefectureCode": "02",
    "prefectureNumber": 2,
    "prefecture": "青森県",
    "city": "三戸郡五戸町",
    "town": "熊野林前"
  },
  "0391507": {
    "zipcode": "0391507",
    "prefectureCode": "02",
    "prefectureNumber": 2,
    "prefecture": "青森県",
    "city": "三戸郡五戸町",
    "town": "中森"
  },
  "0391508": {
    "zipcode": "0391508",
    "prefectureCode": "02",
    "prefectureNumber": 2,
    "prefecture": "青森県",
    "city": "三戸郡五戸町",
    "town": "中寄"
  },
  "0391511": {
    "zipcode": "0391511",
    "prefectureCode": "02",
    "prefectureNumber": 2,
    "prefecture": "青森県",
    "city": "三戸郡五戸町",
    "town": "丁塚"
  },
  "0391512": {
    "zipcode": "0391512",
    "prefectureCode": "02",
    "prefectureNumber": 2,
    "prefecture": "青森県",
    "city": "三戸郡五戸町",
    "town": "西ノ沢"
  },
  "0391513": {
    "zipcode": "0391513",
    "prefectureCode": "02",
    "prefectureNumber": 2,
    "prefecture": "青森県",
    "city": "三戸郡五戸町",
    "town": "古舘脇"
  },
  "0391514": {
    "zipcode": "0391514",
    "prefectureCode": "02",
    "prefectureNumber": 2,
    "prefecture": "青森県",
    "city": "三戸郡五戸町",
    "town": "中崎"
  },
  "0391515": {
    "zipcode": "0391515",
    "prefectureCode": "02",
    "prefectureNumber": 2,
    "prefecture": "青森県",
    "city": "三戸郡五戸町",
    "town": "治郎左エ門長根"
  },
  "0391516": {
    "zipcode": "0391516",
    "prefectureCode": "02",
    "prefectureNumber": 2,
    "prefecture": "青森県",
    "city": "三戸郡五戸町",
    "town": "市川道十文字"
  },
  "0391517": {
    "zipcode": "0391517",
    "prefectureCode": "02",
    "prefectureNumber": 2,
    "prefecture": "青森県",
    "city": "三戸郡五戸町",
    "town": "沢向"
  },
  "0391518": {
    "zipcode": "0391518",
    "prefectureCode": "02",
    "prefectureNumber": 2,
    "prefecture": "青森県",
    "city": "三戸郡五戸町",
    "town": "下モ沢向"
  },
  "0391519": {
    "zipcode": "0391519",
    "prefectureCode": "02",
    "prefectureNumber": 2,
    "prefecture": "青森県",
    "city": "三戸郡五戸町",
    "town": "天満下川原"
  },
  "0391521": {
    "zipcode": "0391521",
    "prefectureCode": "02",
    "prefectureNumber": 2,
    "prefecture": "青森県",
    "city": "三戸郡五戸町",
    "town": "久蔵窪"
  },
  "0391522": {
    "zipcode": "0391522",
    "prefectureCode": "02",
    "prefectureNumber": 2,
    "prefecture": "青森県",
    "city": "三戸郡五戸町",
    "town": "苗代沢"
  },
  "0391523": {
    "zipcode": "0391523",
    "prefectureCode": "02",
    "prefectureNumber": 2,
    "prefecture": "青森県",
    "city": "三戸郡五戸町",
    "town": "新蔵長根"
  },
  "0391524": {
    "zipcode": "0391524",
    "prefectureCode": "02",
    "prefectureNumber": 2,
    "prefecture": "青森県",
    "city": "三戸郡五戸町",
    "town": "豊間内"
  },
  "0391525": {
    "zipcode": "0391525",
    "prefectureCode": "02",
    "prefectureNumber": 2,
    "prefecture": "青森県",
    "city": "三戸郡五戸町",
    "town": "地蔵岱"
  },
  "0391526": {
    "zipcode": "0391526",
    "prefectureCode": "02",
    "prefectureNumber": 2,
    "prefecture": "青森県",
    "city": "三戸郡五戸町",
    "town": "惣林橋"
  },
  "0391527": {
    "zipcode": "0391527",
    "prefectureCode": "02",
    "prefectureNumber": 2,
    "prefecture": "青森県",
    "city": "三戸郡五戸町",
    "town": "扇田"
  },
  "0391528": {
    "zipcode": "0391528",
    "prefectureCode": "02",
    "prefectureNumber": 2,
    "prefecture": "青森県",
    "city": "三戸郡五戸町",
    "town": "浅水"
  },
  "0391529": {
    "zipcode": "0391529",
    "prefectureCode": "02",
    "prefectureNumber": 2,
    "prefecture": "青森県",
    "city": "三戸郡五戸町",
    "town": "手倉橋"
  },
  "0391531": {
    "zipcode": "0391531",
    "prefectureCode": "02",
    "prefectureNumber": 2,
    "prefecture": "青森県",
    "city": "三戸郡五戸町",
    "town": "狐森北"
  },
  "0391532": {
    "zipcode": "0391532",
    "prefectureCode": "02",
    "prefectureNumber": 2,
    "prefecture": "青森県",
    "city": "三戸郡五戸町",
    "town": "観音堂"
  },
  "0391533": {
    "zipcode": "0391533",
    "prefectureCode": "02",
    "prefectureNumber": 2,
    "prefecture": "青森県",
    "city": "三戸郡五戸町",
    "town": "野月"
  },
  "0391534": {
    "zipcode": "0391534",
    "prefectureCode": "02",
    "prefectureNumber": 2,
    "prefecture": "青森県",
    "city": "三戸郡五戸町",
    "town": "荒町"
  },
  "0391535": {
    "zipcode": "0391535",
    "prefectureCode": "02",
    "prefectureNumber": 2,
    "prefecture": "青森県",
    "city": "三戸郡五戸町",
    "town": "新丁"
  },
  "0391536": {
    "zipcode": "0391536",
    "prefectureCode": "02",
    "prefectureNumber": 2,
    "prefecture": "青森県",
    "city": "三戸郡五戸町",
    "town": "愛宕丁"
  },
  "0391537": {
    "zipcode": "0391537",
    "prefectureCode": "02",
    "prefectureNumber": 2,
    "prefecture": "青森県",
    "city": "三戸郡五戸町",
    "town": "二本柳向"
  },
  "0391538": {
    "zipcode": "0391538",
    "prefectureCode": "02",
    "prefectureNumber": 2,
    "prefecture": "青森県",
    "city": "三戸郡五戸町",
    "town": "古街道長根"
  },
  "0391539": {
    "zipcode": "0391539",
    "prefectureCode": "02",
    "prefectureNumber": 2,
    "prefecture": "青森県",
    "city": "三戸郡五戸町",
    "town": "中ノ沢西張"
  },
  "0391541": {
    "zipcode": "0391541",
    "prefectureCode": "02",
    "prefectureNumber": 2,
    "prefecture": "青森県",
    "city": "三戸郡五戸町",
    "town": "新田窪"
  },
  "0391542": {
    "zipcode": "0391542",
    "prefectureCode": "02",
    "prefectureNumber": 2,
    "prefecture": "青森県",
    "city": "三戸郡五戸町",
    "town": "中道十文字"
  },
  "0391543": {
    "zipcode": "0391543",
    "prefectureCode": "02",
    "prefectureNumber": 2,
    "prefecture": "青森県",
    "city": "三戸郡五戸町",
    "town": "竹原"
  },
  "0391544": {
    "zipcode": "0391544",
    "prefectureCode": "02",
    "prefectureNumber": 2,
    "prefecture": "青森県",
    "city": "三戸郡五戸町",
    "town": "二階平下タ"
  },
  "0391545": {
    "zipcode": "0391545",
    "prefectureCode": "02",
    "prefectureNumber": 2,
    "prefecture": "青森県",
    "city": "三戸郡五戸町",
    "town": "正場沢長根"
  },
  "0391546": {
    "zipcode": "0391546",
    "prefectureCode": "02",
    "prefectureNumber": 2,
    "prefecture": "青森県",
    "city": "三戸郡五戸町",
    "town": "土井頭"
  },
  "0391547": {
    "zipcode": "0391547",
    "prefectureCode": "02",
    "prefectureNumber": 2,
    "prefecture": "青森県",
    "city": "三戸郡五戸町",
    "town": "神明後"
  },
  "0391548": {
    "zipcode": "0391548",
    "prefectureCode": "02",
    "prefectureNumber": 2,
    "prefecture": "青森県",
    "city": "三戸郡五戸町",
    "town": "新町"
  },
  "0391551": {
    "zipcode": "0391551",
    "prefectureCode": "02",
    "prefectureNumber": 2,
    "prefecture": "青森県",
    "city": "三戸郡五戸町",
    "town": "上新井田前"
  },
  "0391552": {
    "zipcode": "0391552",
    "prefectureCode": "02",
    "prefectureNumber": 2,
    "prefecture": "青森県",
    "city": "三戸郡五戸町",
    "town": "中高田"
  },
  "0391553": {
    "zipcode": "0391553",
    "prefectureCode": "02",
    "prefectureNumber": 2,
    "prefecture": "青森県",
    "city": "三戸郡五戸町",
    "town": "川原町西裏"
  },
  "0391554": {
    "zipcode": "0391554",
    "prefectureCode": "02",
    "prefectureNumber": 2,
    "prefecture": "青森県",
    "city": "三戸郡五戸町",
    "town": "傳兵ヱ丁"
  },
  "0391555": {
    "zipcode": "0391555",
    "prefectureCode": "02",
    "prefectureNumber": 2,
    "prefecture": "青森県",
    "city": "三戸郡五戸町",
    "town": "古堂後"
  },
  "0391556": {
    "zipcode": "0391556",
    "prefectureCode": "02",
    "prefectureNumber": 2,
    "prefecture": "青森県",
    "city": "三戸郡五戸町",
    "town": "油出"
  },
  "0391557": {
    "zipcode": "0391557",
    "prefectureCode": "02",
    "prefectureNumber": 2,
    "prefecture": "青森県",
    "city": "三戸郡五戸町",
    "town": "八景"
  },
  "0391558": {
    "zipcode": "0391558",
    "prefectureCode": "02",
    "prefectureNumber": 2,
    "prefecture": "青森県",
    "city": "三戸郡五戸町",
    "town": "堀合"
  },
  "0391559": {
    "zipcode": "0391559",
    "prefectureCode": "02",
    "prefectureNumber": 2,
    "prefecture": "青森県",
    "city": "三戸郡五戸町",
    "town": "横丁"
  },
  "0391561": {
    "zipcode": "0391561",
    "prefectureCode": "02",
    "prefectureNumber": 2,
    "prefecture": "青森県",
    "city": "三戸郡五戸町",
    "town": "越掛沢道下モ"
  },
  "0391562": {
    "zipcode": "0391562",
    "prefectureCode": "02",
    "prefectureNumber": 2,
    "prefecture": "青森県",
    "city": "三戸郡五戸町",
    "town": "白山前"
  },
  "0391563": {
    "zipcode": "0391563",
    "prefectureCode": "02",
    "prefectureNumber": 2,
    "prefecture": "青森県",
    "city": "三戸郡五戸町",
    "town": "平佐窪"
  },
  "0391564": {
    "zipcode": "0391564",
    "prefectureCode": "02",
    "prefectureNumber": 2,
    "prefecture": "青森県",
    "city": "三戸郡五戸町",
    "town": "六角"
  },
  "0391565": {
    "zipcode": "0391565",
    "prefectureCode": "02",
    "prefectureNumber": 2,
    "prefecture": "青森県",
    "city": "三戸郡五戸町",
    "town": "花道川原"
  },
  "0391566": {
    "zipcode": "0391566",
    "prefectureCode": "02",
    "prefectureNumber": 2,
    "prefecture": "青森県",
    "city": "三戸郡五戸町",
    "town": "幸ノ神前"
  },
  "0391567": {
    "zipcode": "0391567",
    "prefectureCode": "02",
    "prefectureNumber": 2,
    "prefecture": "青森県",
    "city": "三戸郡五戸町",
    "town": "下大平楽"
  },
  "0391568": {
    "zipcode": "0391568",
    "prefectureCode": "02",
    "prefectureNumber": 2,
    "prefecture": "青森県",
    "city": "三戸郡五戸町",
    "town": "傘松前"
  },
  "0391569": {
    "zipcode": "0391569",
    "prefectureCode": "02",
    "prefectureNumber": 2,
    "prefecture": "青森県",
    "city": "三戸郡五戸町",
    "town": "虫追塚前"
  },
  "0391701": {
    "zipcode": "0391701",
    "prefectureCode": "02",
    "prefectureNumber": 2,
    "prefecture": "青森県",
    "city": "三戸郡五戸町",
    "town": "倉石石沢"
  },
  "0391702": {
    "zipcode": "0391702",
    "prefectureCode": "02",
    "prefectureNumber": 2,
    "prefecture": "青森県",
    "city": "三戸郡五戸町",
    "town": "倉石中市"
  },
  "0391703": {
    "zipcode": "0391703",
    "prefectureCode": "02",
    "prefectureNumber": 2,
    "prefecture": "青森県",
    "city": "三戸郡五戸町",
    "town": "倉石又重"
  },
  "0391800": {
    "zipcode": "0391800",
    "prefectureCode": "02",
    "prefectureNumber": 2,
    "prefecture": "青森県",
    "city": "三戸郡新郷村",
    "town": "以下に掲載がない場合"
  },
  "0391801": {
    "zipcode": "0391801",
    "prefectureCode": "02",
    "prefectureNumber": 2,
    "prefecture": "青森県",
    "city": "三戸郡新郷村",
    "town": "戸来"
  },
  "0391802": {
    "zipcode": "0391802",
    "prefectureCode": "02",
    "prefectureNumber": 2,
    "prefecture": "青森県",
    "city": "三戸郡新郷村",
    "town": "西越"
  },
  "0392102": {
    "zipcode": "0392102",
    "prefectureCode": "02",
    "prefectureNumber": 2,
    "prefecture": "青森県",
    "city": "上北郡おいらせ町",
    "town": "豊栄"
  },
  "0392111": {
    "zipcode": "0392111",
    "prefectureCode": "02",
    "prefectureNumber": 2,
    "prefecture": "青森県",
    "city": "上北郡おいらせ町",
    "town": "西後谷地"
  },
  "0392112": {
    "zipcode": "0392112",
    "prefectureCode": "02",
    "prefectureNumber": 2,
    "prefecture": "青森県",
    "city": "上北郡おいらせ町",
    "town": "中野平"
  },
  "0392113": {
    "zipcode": "0392113",
    "prefectureCode": "02",
    "prefectureNumber": 2,
    "prefecture": "青森県",
    "city": "上北郡おいらせ町",
    "town": "犬毛谷地"
  },
  "0392114": {
    "zipcode": "0392114",
    "prefectureCode": "02",
    "prefectureNumber": 2,
    "prefecture": "青森県",
    "city": "上北郡おいらせ町",
    "town": "高田"
  },
  "0392115": {
    "zipcode": "0392115",
    "prefectureCode": "02",
    "prefectureNumber": 2,
    "prefecture": "青森県",
    "city": "上北郡おいらせ町",
    "town": "菜飯"
  },
  "0392116": {
    "zipcode": "0392116",
    "prefectureCode": "02",
    "prefectureNumber": 2,
    "prefecture": "青森県",
    "city": "上北郡おいらせ町",
    "town": "秋堂"
  },
  "0392117": {
    "zipcode": "0392117",
    "prefectureCode": "02",
    "prefectureNumber": 2,
    "prefecture": "青森県",
    "city": "上北郡おいらせ町",
    "town": "川端"
  },
  "0392118": {
    "zipcode": "0392118",
    "prefectureCode": "02",
    "prefectureNumber": 2,
    "prefecture": "青森県",
    "city": "上北郡おいらせ町",
    "town": "彦七川原"
  },
  "0392121": {
    "zipcode": "0392121",
    "prefectureCode": "02",
    "prefectureNumber": 2,
    "prefecture": "青森県",
    "city": "上北郡おいらせ町",
    "town": "下境"
  },
  "0392122": {
    "zipcode": "0392122",
    "prefectureCode": "02",
    "prefectureNumber": 2,
    "prefecture": "青森県",
    "city": "上北郡おいらせ町",
    "town": "沼小屋"
  },
  "0392123": {
    "zipcode": "0392123",
    "prefectureCode": "02",
    "prefectureNumber": 2,
    "prefecture": "青森県",
    "city": "上北郡おいらせ町",
    "town": "西下谷地"
  },
  "0392124": {
    "zipcode": "0392124",
    "prefectureCode": "02",
    "prefectureNumber": 2,
    "prefecture": "青森県",
    "city": "上北郡おいらせ町",
    "town": "境田"
  },
  "0392125": {
    "zipcode": "0392125",
    "prefectureCode": "02",
    "prefectureNumber": 2,
    "prefecture": "青森県",
    "city": "上北郡おいらせ町",
    "town": "三本木"
  },
  "0392126": {
    "zipcode": "0392126",
    "prefectureCode": "02",
    "prefectureNumber": 2,
    "prefecture": "青森県",
    "city": "上北郡おいらせ町",
    "town": "間木"
  },
  "0392127": {
    "zipcode": "0392127",
    "prefectureCode": "02",
    "prefectureNumber": 2,
    "prefecture": "青森県",
    "city": "上北郡おいらせ町",
    "town": "木崎"
  },
  "0392128": {
    "zipcode": "0392128",
    "prefectureCode": "02",
    "prefectureNumber": 2,
    "prefecture": "青森県",
    "city": "上北郡おいらせ町",
    "town": "染屋"
  },
  "0392129": {
    "zipcode": "0392129",
    "prefectureCode": "02",
    "prefectureNumber": 2,
    "prefecture": "青森県",
    "city": "上北郡おいらせ町",
    "town": "中平下長根山"
  },
  "0392131": {
    "zipcode": "0392131",
    "prefectureCode": "02",
    "prefectureNumber": 2,
    "prefecture": "青森県",
    "city": "上北郡おいらせ町",
    "town": "向川原"
  },
  "0392132": {
    "zipcode": "0392132",
    "prefectureCode": "02",
    "prefectureNumber": 2,
    "prefecture": "青森県",
    "city": "上北郡おいらせ町",
    "town": "西前川原"
  },
  "0392133": {
    "zipcode": "0392133",
    "prefectureCode": "02",
    "prefectureNumber": 2,
    "prefecture": "青森県",
    "city": "上北郡おいらせ町",
    "town": "上川原"
  },
  "0392134": {
    "zipcode": "0392134",
    "prefectureCode": "02",
    "prefectureNumber": 2,
    "prefecture": "青森県",
    "city": "上北郡おいらせ町",
    "town": "馳下り"
  },
  "0392135": {
    "zipcode": "0392135",
    "prefectureCode": "02",
    "prefectureNumber": 2,
    "prefecture": "青森県",
    "city": "上北郡おいらせ町",
    "town": "立蛇"
  },
  "0392136": {
    "zipcode": "0392136",
    "prefectureCode": "02",
    "prefectureNumber": 2,
    "prefecture": "青森県",
    "city": "上北郡おいらせ町",
    "town": "中下田"
  },
  "0392141": {
    "zipcode": "0392141",
    "prefectureCode": "02",
    "prefectureNumber": 2,
    "prefecture": "青森県",
    "city": "上北郡おいらせ町",
    "town": "明土"
  },
  "0392142": {
    "zipcode": "0392142",
    "prefectureCode": "02",
    "prefectureNumber": 2,
    "prefecture": "青森県",
    "city": "上北郡おいらせ町",
    "town": "小前谷地"
  },
  "0392143": {
    "zipcode": "0392143",
    "prefectureCode": "02",
    "prefectureNumber": 2,
    "prefecture": "青森県",
    "city": "上北郡おいらせ町",
    "town": "上水下"
  },
  "0392144": {
    "zipcode": "0392144",
    "prefectureCode": "02",
    "prefectureNumber": 2,
    "prefecture": "青森県",
    "city": "上北郡おいらせ町",
    "town": "丈の端"
  },
  "0392145": {
    "zipcode": "0392145",
    "prefectureCode": "02",
    "prefectureNumber": 2,
    "prefecture": "青森県",
    "city": "上北郡おいらせ町",
    "town": "上谷地"
  },
  "0392146": {
    "zipcode": "0392146",
    "prefectureCode": "02",
    "prefectureNumber": 2,
    "prefecture": "青森県",
    "city": "上北郡おいらせ町",
    "town": "中谷地"
  },
  "0392147": {
    "zipcode": "0392147",
    "prefectureCode": "02",
    "prefectureNumber": 2,
    "prefecture": "青森県",
    "city": "上北郡おいらせ町",
    "town": "赤田前"
  },
  "0392151": {
    "zipcode": "0392151",
    "prefectureCode": "02",
    "prefectureNumber": 2,
    "prefecture": "青森県",
    "city": "上北郡おいらせ町",
    "town": "向山"
  },
  "0392152": {
    "zipcode": "0392152",
    "prefectureCode": "02",
    "prefectureNumber": 2,
    "prefecture": "青森県",
    "city": "上北郡おいらせ町",
    "town": "向山東"
  },
  "0392153": {
    "zipcode": "0392153",
    "prefectureCode": "02",
    "prefectureNumber": 2,
    "prefecture": "青森県",
    "city": "上北郡おいらせ町",
    "town": "山崎"
  },
  "0392154": {
    "zipcode": "0392154",
    "prefectureCode": "02",
    "prefectureNumber": 2,
    "prefecture": "青森県",
    "city": "上北郡おいらせ町",
    "town": "豊原"
  },
  "0392155": {
    "zipcode": "0392155",
    "prefectureCode": "02",
    "prefectureNumber": 2,
    "prefecture": "青森県",
    "city": "上北郡おいらせ町",
    "town": "木ノ下西"
  },
  "0392156": {
    "zipcode": "0392156",
    "prefectureCode": "02",
    "prefectureNumber": 2,
    "prefecture": "青森県",
    "city": "上北郡おいらせ町",
    "town": "木ノ下南"
  },
  "0392157": {
    "zipcode": "0392157",
    "prefectureCode": "02",
    "prefectureNumber": 2,
    "prefecture": "青森県",
    "city": "上北郡おいらせ町",
    "town": "木ノ下東"
  },
  "0392158": {
    "zipcode": "0392158",
    "prefectureCode": "02",
    "prefectureNumber": 2,
    "prefecture": "青森県",
    "city": "上北郡おいらせ町",
    "town": "向山南"
  },
  "0392161": {
    "zipcode": "0392161",
    "prefectureCode": "02",
    "prefectureNumber": 2,
    "prefecture": "青森県",
    "city": "上北郡おいらせ町",
    "town": "西下川原"
  },
  "0392162": {
    "zipcode": "0392162",
    "prefectureCode": "02",
    "prefectureNumber": 2,
    "prefecture": "青森県",
    "city": "上北郡おいらせ町",
    "town": "南下田"
  },
  "0392163": {
    "zipcode": "0392163",
    "prefectureCode": "02",
    "prefectureNumber": 2,
    "prefecture": "青森県",
    "city": "上北郡おいらせ町",
    "town": "館越"
  },
  "0392164": {
    "zipcode": "0392164",
    "prefectureCode": "02",
    "prefectureNumber": 2,
    "prefecture": "青森県",
    "city": "上北郡おいらせ町",
    "town": "神明前"
  },
  "0392165": {
    "zipcode": "0392165",
    "prefectureCode": "02",
    "prefectureNumber": 2,
    "prefecture": "青森県",
    "city": "上北郡おいらせ町",
    "town": "阿光坊"
  },
  "0392171": {
    "zipcode": "0392171",
    "prefectureCode": "02",
    "prefectureNumber": 2,
    "prefecture": "青森県",
    "city": "上北郡おいらせ町",
    "town": "新敷"
  },
  "0392172": {
    "zipcode": "0392172",
    "prefectureCode": "02",
    "prefectureNumber": 2,
    "prefecture": "青森県",
    "city": "上北郡おいらせ町",
    "town": "洗平"
  },
  "0392173": {
    "zipcode": "0392173",
    "prefectureCode": "02",
    "prefectureNumber": 2,
    "prefecture": "青森県",
    "city": "上北郡おいらせ町",
    "town": "瓢"
  },
  "0392180": {
    "zipcode": "0392180",
    "prefectureCode": "02",
    "prefectureNumber": 2,
    "prefecture": "青森県",
    "city": "上北郡おいらせ町",
    "town": "住吉"
  },
  "0392181": {
    "zipcode": "0392181",
    "prefectureCode": "02",
    "prefectureNumber": 2,
    "prefecture": "青森県",
    "city": "上北郡おいらせ町",
    "town": "古間木山"
  },
  "0392182": {
    "zipcode": "0392182",
    "prefectureCode": "02",
    "prefectureNumber": 2,
    "prefecture": "青森県",
    "city": "上北郡おいらせ町",
    "town": "鶉久保"
  },
  "0392183": {
    "zipcode": "0392183",
    "prefectureCode": "02",
    "prefectureNumber": 2,
    "prefecture": "青森県",
    "city": "上北郡おいらせ町",
    "town": "鶉久保山"
  },
  "0392184": {
    "zipcode": "0392184",
    "prefectureCode": "02",
    "prefectureNumber": 2,
    "prefecture": "青森県",
    "city": "上北郡おいらせ町",
    "town": "浜道"
  },
  "0392185": {
    "zipcode": "0392185",
    "prefectureCode": "02",
    "prefectureNumber": 2,
    "prefecture": "青森県",
    "city": "上北郡おいらせ町",
    "town": "上久保"
  },
  "0392186": {
    "zipcode": "0392186",
    "prefectureCode": "02",
    "prefectureNumber": 2,
    "prefecture": "青森県",
    "city": "上北郡おいらせ町",
    "town": "北下田"
  },
  "0392187": {
    "zipcode": "0392187",
    "prefectureCode": "02",
    "prefectureNumber": 2,
    "prefecture": "青森県",
    "city": "上北郡おいらせ町",
    "town": "緑ケ丘"
  },
  "0392188": {
    "zipcode": "0392188",
    "prefectureCode": "02",
    "prefectureNumber": 2,
    "prefecture": "青森県",
    "city": "上北郡おいらせ町",
    "town": "若葉"
  },
  "0392189": {
    "zipcode": "0392189",
    "prefectureCode": "02",
    "prefectureNumber": 2,
    "prefecture": "青森県",
    "city": "上北郡おいらせ町",
    "town": "青葉"
  },
  "0392200": {
    "zipcode": "0392200",
    "prefectureCode": "02",
    "prefectureNumber": 2,
    "prefecture": "青森県",
    "city": "上北郡おいらせ町",
    "town": "以下に掲載がない場合"
  },
  "0392201": {
    "zipcode": "0392201",
    "prefectureCode": "02",
    "prefectureNumber": 2,
    "prefecture": "青森県",
    "city": "上北郡おいらせ町",
    "town": "二川目"
  },
  "0392202": {
    "zipcode": "0392202",
    "prefectureCode": "02",
    "prefectureNumber": 2,
    "prefecture": "青森県",
    "city": "上北郡おいらせ町",
    "town": "向平"
  },
  "0392203": {
    "zipcode": "0392203",
    "prefectureCode": "02",
    "prefectureNumber": 2,
    "prefecture": "青森県",
    "city": "上北郡おいらせ町",
    "town": "一川目"
  },
  "0392204": {
    "zipcode": "0392204",
    "prefectureCode": "02",
    "prefectureNumber": 2,
    "prefecture": "青森県",
    "city": "上北郡おいらせ町",
    "town": "深沢"
  },
  "0392205": {
    "zipcode": "0392205",
    "prefectureCode": "02",
    "prefectureNumber": 2,
    "prefecture": "青森県",
    "city": "上北郡おいらせ町",
    "town": "深沢平"
  },
  "0392206": {
    "zipcode": "0392206",
    "prefectureCode": "02",
    "prefectureNumber": 2,
    "prefecture": "青森県",
    "city": "上北郡おいらせ町",
    "town": "松原"
  },
  "0392211": {
    "zipcode": "0392211",
    "prefectureCode": "02",
    "prefectureNumber": 2,
    "prefecture": "青森県",
    "city": "上北郡おいらせ町",
    "town": "新田"
  },
  "0392212": {
    "zipcode": "0392212",
    "prefectureCode": "02",
    "prefectureNumber": 2,
    "prefecture": "青森県",
    "city": "上北郡おいらせ町",
    "town": "東下川原"
  },
  "0392213": {
    "zipcode": "0392213",
    "prefectureCode": "02",
    "prefectureNumber": 2,
    "prefecture": "青森県",
    "city": "上北郡おいらせ町",
    "town": "堀ノ内"
  },
  "0392214": {
    "zipcode": "0392214",
    "prefectureCode": "02",
    "prefectureNumber": 2,
    "prefecture": "青森県",
    "city": "上北郡おいらせ町",
    "town": "東前川原"
  },
  "0392215": {
    "zipcode": "0392215",
    "prefectureCode": "02",
    "prefectureNumber": 2,
    "prefecture": "青森県",
    "city": "上北郡おいらせ町",
    "town": "下屋敷"
  },
  "0392216": {
    "zipcode": "0392216",
    "prefectureCode": "02",
    "prefectureNumber": 2,
    "prefecture": "青森県",
    "city": "上北郡おいらせ町",
    "town": "後田"
  },
  "0392217": {
    "zipcode": "0392217",
    "prefectureCode": "02",
    "prefectureNumber": 2,
    "prefecture": "青森県",
    "city": "上北郡おいらせ町",
    "town": "牛込平"
  },
  "0392221": {
    "zipcode": "0392221",
    "prefectureCode": "02",
    "prefectureNumber": 2,
    "prefecture": "青森県",
    "city": "上北郡おいらせ町",
    "town": "上前田"
  },
  "0392222": {
    "zipcode": "0392222",
    "prefectureCode": "02",
    "prefectureNumber": 2,
    "prefecture": "青森県",
    "city": "上北郡おいらせ町",
    "town": "下前田"
  },
  "0392223": {
    "zipcode": "0392223",
    "prefectureCode": "02",
    "prefectureNumber": 2,
    "prefecture": "青森県",
    "city": "上北郡おいらせ町",
    "town": "苗平谷地"
  },
  "0392224": {
    "zipcode": "0392224",
    "prefectureCode": "02",
    "prefectureNumber": 2,
    "prefecture": "青森県",
    "city": "上北郡おいらせ町",
    "town": "下明堂"
  },
  "0392225": {
    "zipcode": "0392225",
    "prefectureCode": "02",
    "prefectureNumber": 2,
    "prefecture": "青森県",
    "city": "上北郡おいらせ町",
    "town": "上明堂"
  },
  "0392226": {
    "zipcode": "0392226",
    "prefectureCode": "02",
    "prefectureNumber": 2,
    "prefecture": "青森県",
    "city": "上北郡おいらせ町",
    "town": "新助川原"
  },
  "0392231": {
    "zipcode": "0392231",
    "prefectureCode": "02",
    "prefectureNumber": 2,
    "prefecture": "青森県",
    "city": "上北郡おいらせ町",
    "town": "東下谷地"
  },
  "0392232": {
    "zipcode": "0392232",
    "prefectureCode": "02",
    "prefectureNumber": 2,
    "prefecture": "青森県",
    "city": "上北郡おいらせ町",
    "town": "東後谷地"
  },
  "0392233": {
    "zipcode": "0392233",
    "prefectureCode": "02",
    "prefectureNumber": 2,
    "prefecture": "青森県",
    "city": "上北郡おいらせ町",
    "town": "沼端"
  },
  "0392234": {
    "zipcode": "0392234",
    "prefectureCode": "02",
    "prefectureNumber": 2,
    "prefecture": "青森県",
    "city": "上北郡おいらせ町",
    "town": "堤田"
  },
  "0392235": {
    "zipcode": "0392235",
    "prefectureCode": "02",
    "prefectureNumber": 2,
    "prefecture": "青森県",
    "city": "上北郡おいらせ町",
    "town": "千刈田"
  },
  "0392236": {
    "zipcode": "0392236",
    "prefectureCode": "02",
    "prefectureNumber": 2,
    "prefecture": "青森県",
    "city": "上北郡おいらせ町",
    "town": "洋光台"
  },
  "0392241": {
    "zipcode": "0392241",
    "prefectureCode": "02",
    "prefectureNumber": 2,
    "prefecture": "青森県",
    "city": "八戸市",
    "town": "市川町"
  },
  "0392242": {
    "zipcode": "0392242",
    "prefectureCode": "02",
    "prefectureNumber": 2,
    "prefecture": "青森県",
    "city": "八戸市",
    "town": "多賀台"
  },
  "0392243": {
    "zipcode": "0392243",
    "prefectureCode": "02",
    "prefectureNumber": 2,
    "prefecture": "青森県",
    "city": "八戸市",
    "town": "松ケ丘"
  },
  "0392245": {
    "zipcode": "0392245",
    "prefectureCode": "02",
    "prefectureNumber": 2,
    "prefecture": "青森県",
    "city": "八戸市",
    "town": "北インター工業団地"
  },
  "0392246": {
    "zipcode": "0392246",
    "prefectureCode": "02",
    "prefectureNumber": 2,
    "prefecture": "青森県",
    "city": "八戸市",
    "town": "桔梗野工業団地"
  },
  "0392251": {
    "zipcode": "0392251",
    "prefectureCode": "02",
    "prefectureNumber": 2,
    "prefecture": "青森県",
    "city": "上北郡おいらせ町",
    "town": "向坂"
  },
  "0392252": {
    "zipcode": "0392252",
    "prefectureCode": "02",
    "prefectureNumber": 2,
    "prefecture": "青森県",
    "city": "上北郡おいらせ町",
    "town": "黒坂谷地"
  },
  "0392253": {
    "zipcode": "0392253",
    "prefectureCode": "02",
    "prefectureNumber": 2,
    "prefecture": "青森県",
    "city": "上北郡おいらせ町",
    "town": "獺野"
  },
  "0392254": {
    "zipcode": "0392254",
    "prefectureCode": "02",
    "prefectureNumber": 2,
    "prefecture": "青森県",
    "city": "上北郡おいらせ町",
    "town": "苗振谷地"
  },
  "0392255": {
    "zipcode": "0392255",
    "prefectureCode": "02",
    "prefectureNumber": 2,
    "prefecture": "青森県",
    "city": "上北郡おいらせ町",
    "town": "土取"
  },
  "0392300": {
    "zipcode": "0392300",
    "prefectureCode": "02",
    "prefectureNumber": 2,
    "prefecture": "青森県",
    "city": "上北郡六戸町",
    "town": "以下に掲載がない場合"
  },
  "0392302": {
    "zipcode": "0392302",
    "prefectureCode": "02",
    "prefectureNumber": 2,
    "prefecture": "青森県",
    "city": "三戸郡五戸町",
    "town": "切谷内（北田ノ沢）"
  },
  "0392311": {
    "zipcode": "0392311",
    "prefectureCode": "02",
    "prefectureNumber": 2,
    "prefecture": "青森県",
    "city": "上北郡六戸町",
    "town": "上吉田"
  },
  "0392312": {
    "zipcode": "0392312",
    "prefectureCode": "02",
    "prefectureNumber": 2,
    "prefecture": "青森県",
    "city": "上北郡六戸町",
    "town": "下吉田"
  },
  "0392313": {
    "zipcode": "0392313",
    "prefectureCode": "02",
    "prefectureNumber": 2,
    "prefecture": "青森県",
    "city": "上北郡六戸町",
    "town": "鶴喰"
  },
  "0392314": {
    "zipcode": "0392314",
    "prefectureCode": "02",
    "prefectureNumber": 2,
    "prefecture": "青森県",
    "city": "上北郡六戸町",
    "town": "小平"
  },
  "0392315": {
    "zipcode": "0392315",
    "prefectureCode": "02",
    "prefectureNumber": 2,
    "prefecture": "青森県",
    "city": "上北郡六戸町",
    "town": "柳町"
  },
  "0392371": {
    "zipcode": "0392371",
    "prefectureCode": "02",
    "prefectureNumber": 2,
    "prefecture": "青森県",
    "city": "上北郡六戸町",
    "town": "犬落瀬（その他）"
  },
  "0392372": {
    "zipcode": "0392372",
    "prefectureCode": "02",
    "prefectureNumber": 2,
    "prefecture": "青森県",
    "city": "上北郡六戸町",
    "town": "折茂（その他）"
  },
  "0392401": {
    "zipcode": "0392401",
    "prefectureCode": "02",
    "prefectureNumber": 2,
    "prefecture": "青森県",
    "city": "上北郡東北町",
    "town": "上野"
  },
  "0392402": {
    "zipcode": "0392402",
    "prefectureCode": "02",
    "prefectureNumber": 2,
    "prefecture": "青森県",
    "city": "上北郡東北町",
    "town": "大浦"
  },
  "0392403": {
    "zipcode": "0392403",
    "prefectureCode": "02",
    "prefectureNumber": 2,
    "prefecture": "青森県",
    "city": "上北郡東北町",
    "town": "新舘"
  },
  "0392404": {
    "zipcode": "0392404",
    "prefectureCode": "02",
    "prefectureNumber": 2,
    "prefecture": "青森県",
    "city": "上北郡東北町",
    "town": "上北北"
  },
  "0392405": {
    "zipcode": "0392405",
    "prefectureCode": "02",
    "prefectureNumber": 2,
    "prefecture": "青森県",
    "city": "上北郡東北町",
    "town": "上北南"
  },
  "0392406": {
    "zipcode": "0392406",
    "prefectureCode": "02",
    "prefectureNumber": 2,
    "prefecture": "青森県",
    "city": "上北郡東北町",
    "town": "旭北"
  },
  "0392407": {
    "zipcode": "0392407",
    "prefectureCode": "02",
    "prefectureNumber": 2,
    "prefecture": "青森県",
    "city": "上北郡東北町",
    "town": "旭南"
  },
  "0392500": {
    "zipcode": "0392500",
    "prefectureCode": "02",
    "prefectureNumber": 2,
    "prefecture": "青森県",
    "city": "上北郡七戸町",
    "town": "以下に掲載がない場合"
  },
  "0392501": {
    "zipcode": "0392501",
    "prefectureCode": "02",
    "prefectureNumber": 2,
    "prefecture": "青森県",
    "city": "上北郡七戸町",
    "town": "荒熊内"
  },
  "0392502": {
    "zipcode": "0392502",
    "prefectureCode": "02",
    "prefectureNumber": 2,
    "prefecture": "青森県",
    "city": "上北郡七戸町",
    "town": "大沢"
  },
  "0392503": {
    "zipcode": "0392503",
    "prefectureCode": "02",
    "prefectureNumber": 2,
    "prefecture": "青森県",
    "city": "上北郡七戸町",
    "town": "豊間内"
  },
  "0392504": {
    "zipcode": "0392504",
    "prefectureCode": "02",
    "prefectureNumber": 2,
    "prefecture": "青森県",
    "city": "上北郡七戸町",
    "town": "寒水"
  },
  "0392505": {
    "zipcode": "0392505",
    "prefectureCode": "02",
    "prefectureNumber": 2,
    "prefecture": "青森県",
    "city": "上北郡七戸町",
    "town": "立野頭"
  },
  "0392506": {
    "zipcode": "0392506",
    "prefectureCode": "02",
    "prefectureNumber": 2,
    "prefecture": "青森県",
    "city": "上北郡七戸町",
    "town": "膝森"
  },
  "0392507": {
    "zipcode": "0392507",
    "prefectureCode": "02",
    "prefectureNumber": 2,
    "prefecture": "青森県",
    "city": "上北郡七戸町",
    "town": "えぞ花"
  },
  "0392508": {
    "zipcode": "0392508",
    "prefectureCode": "02",
    "prefectureNumber": 2,
    "prefecture": "青森県",
    "city": "上北郡七戸町",
    "town": "大池"
  },
  "0392511": {
    "zipcode": "0392511",
    "prefectureCode": "02",
    "prefectureNumber": 2,
    "prefecture": "青森県",
    "city": "上北郡七戸町",
    "town": "笊田川久保"
  },
  "0392512": {
    "zipcode": "0392512",
    "prefectureCode": "02",
    "prefectureNumber": 2,
    "prefecture": "青森県",
    "city": "上北郡七戸町",
    "town": "笊田"
  },
  "0392513": {
    "zipcode": "0392513",
    "prefectureCode": "02",
    "prefectureNumber": 2,
    "prefecture": "青森県",
    "city": "上北郡七戸町",
    "town": "東槻木"
  },
  "0392514": {
    "zipcode": "0392514",
    "prefectureCode": "02",
    "prefectureNumber": 2,
    "prefecture": "青森県",
    "city": "上北郡七戸町",
    "town": "太田野"
  },
  "0392515": {
    "zipcode": "0392515",
    "prefectureCode": "02",
    "prefectureNumber": 2,
    "prefecture": "青森県",
    "city": "上北郡七戸町",
    "town": "蒼前"
  },
  "0392516": {
    "zipcode": "0392516",
    "prefectureCode": "02",
    "prefectureNumber": 2,
    "prefecture": "青森県",
    "city": "上北郡七戸町",
    "town": "舘野"
  },
  "0392517": {
    "zipcode": "0392517",
    "prefectureCode": "02",
    "prefectureNumber": 2,
    "prefecture": "青森県",
    "city": "上北郡七戸町",
    "town": "夏焼"
  },
  "0392518": {
    "zipcode": "0392518",
    "prefectureCode": "02",
    "prefectureNumber": 2,
    "prefecture": "青森県",
    "city": "上北郡七戸町",
    "town": "天神林"
  },
  "0392521": {
    "zipcode": "0392521",
    "prefectureCode": "02",
    "prefectureNumber": 2,
    "prefecture": "青森県",
    "city": "上北郡七戸町",
    "town": "天王"
  },
  "0392522": {
    "zipcode": "0392522",
    "prefectureCode": "02",
    "prefectureNumber": 2,
    "prefecture": "青森県",
    "city": "上北郡七戸町",
    "town": "倉越"
  },
  "0392523": {
    "zipcode": "0392523",
    "prefectureCode": "02",
    "prefectureNumber": 2,
    "prefecture": "青森県",
    "city": "上北郡七戸町",
    "town": "影津内"
  },
  "0392524": {
    "zipcode": "0392524",
    "prefectureCode": "02",
    "prefectureNumber": 2,
    "prefecture": "青森県",
    "city": "上北郡七戸町",
    "town": "寺裏"
  },
  "0392525": {
    "zipcode": "0392525",
    "prefectureCode": "02",
    "prefectureNumber": 2,
    "prefecture": "青森県",
    "city": "上北郡七戸町",
    "town": "七戸"
  },
  "0392526": {
    "zipcode": "0392526",
    "prefectureCode": "02",
    "prefectureNumber": 2,
    "prefecture": "青森県",
    "city": "上北郡七戸町",
    "town": "上町野"
  },
  "0392527": {
    "zipcode": "0392527",
    "prefectureCode": "02",
    "prefectureNumber": 2,
    "prefecture": "青森県",
    "city": "上北郡七戸町",
    "town": "町"
  },
  "0392531": {
    "zipcode": "0392531",
    "prefectureCode": "02",
    "prefectureNumber": 2,
    "prefecture": "青森県",
    "city": "上北郡七戸町",
    "town": "太田"
  },
  "0392532": {
    "zipcode": "0392532",
    "prefectureCode": "02",
    "prefectureNumber": 2,
    "prefecture": "青森県",
    "city": "上北郡七戸町",
    "town": "大林"
  },
  "0392533": {
    "zipcode": "0392533",
    "prefectureCode": "02",
    "prefectureNumber": 2,
    "prefecture": "青森県",
    "city": "上北郡七戸町",
    "town": "川去"
  },
  "0392534": {
    "zipcode": "0392534",
    "prefectureCode": "02",
    "prefectureNumber": 2,
    "prefecture": "青森県",
    "city": "上北郡七戸町",
    "town": "荒屋"
  },
  "0392535": {
    "zipcode": "0392535",
    "prefectureCode": "02",
    "prefectureNumber": 2,
    "prefecture": "青森県",
    "city": "上北郡七戸町",
    "town": "沼ノ沢"
  },
  "0392536": {
    "zipcode": "0392536",
    "prefectureCode": "02",
    "prefectureNumber": 2,
    "prefecture": "青森県",
    "city": "上北郡七戸町",
    "town": "野左掛"
  },
  "0392537": {
    "zipcode": "0392537",
    "prefectureCode": "02",
    "prefectureNumber": 2,
    "prefecture": "青森県",
    "city": "上北郡七戸町",
    "town": "賽ノ神"
  },
  "0392538": {
    "zipcode": "0392538",
    "prefectureCode": "02",
    "prefectureNumber": 2,
    "prefecture": "青森県",
    "city": "上北郡七戸町",
    "town": "寺下"
  },
  "0392539": {
    "zipcode": "0392539",
    "prefectureCode": "02",
    "prefectureNumber": 2,
    "prefecture": "青森県",
    "city": "上北郡七戸町",
    "town": "中村"
  },
  "0392541": {
    "zipcode": "0392541",
    "prefectureCode": "02",
    "prefectureNumber": 2,
    "prefecture": "青森県",
    "city": "上北郡七戸町",
    "town": "都平"
  },
  "0392542": {
    "zipcode": "0392542",
    "prefectureCode": "02",
    "prefectureNumber": 2,
    "prefecture": "青森県",
    "city": "上北郡七戸町",
    "town": "萩ノ沢"
  },
  "0392543": {
    "zipcode": "0392543",
    "prefectureCode": "02",
    "prefectureNumber": 2,
    "prefecture": "青森県",
    "city": "上北郡七戸町",
    "town": "有田沢"
  },
  "0392544": {
    "zipcode": "0392544",
    "prefectureCode": "02",
    "prefectureNumber": 2,
    "prefecture": "青森県",
    "city": "上北郡七戸町",
    "town": "八栗平"
  },
  "0392545": {
    "zipcode": "0392545",
    "prefectureCode": "02",
    "prefectureNumber": 2,
    "prefecture": "青森県",
    "city": "上北郡七戸町",
    "town": "別曽"
  },
  "0392546": {
    "zipcode": "0392546",
    "prefectureCode": "02",
    "prefectureNumber": 2,
    "prefecture": "青森県",
    "city": "上北郡七戸町",
    "town": "清水頭"
  },
  "0392547": {
    "zipcode": "0392547",
    "prefectureCode": "02",
    "prefectureNumber": 2,
    "prefecture": "青森県",
    "city": "上北郡七戸町",
    "town": "矢倉"
  },
  "0392548": {
    "zipcode": "0392548",
    "prefectureCode": "02",
    "prefectureNumber": 2,
    "prefecture": "青森県",
    "city": "上北郡七戸町",
    "town": "見町"
  },
  "0392549": {
    "zipcode": "0392549",
    "prefectureCode": "02",
    "prefectureNumber": 2,
    "prefecture": "青森県",
    "city": "上北郡七戸町",
    "town": "下見町"
  },
  "0392551": {
    "zipcode": "0392551",
    "prefectureCode": "02",
    "prefectureNumber": 2,
    "prefecture": "青森県",
    "city": "上北郡七戸町",
    "town": "薬師平"
  },
  "0392552": {
    "zipcode": "0392552",
    "prefectureCode": "02",
    "prefectureNumber": 2,
    "prefecture": "青森県",
    "city": "上北郡七戸町",
    "town": "鶴打田"
  },
  "0392553": {
    "zipcode": "0392553",
    "prefectureCode": "02",
    "prefectureNumber": 2,
    "prefecture": "青森県",
    "city": "上北郡七戸町",
    "town": "八尺堂"
  },
  "0392554": {
    "zipcode": "0392554",
    "prefectureCode": "02",
    "prefectureNumber": 2,
    "prefecture": "青森県",
    "city": "上北郡七戸町",
    "town": "中岫"
  },
  "0392555": {
    "zipcode": "0392555",
    "prefectureCode": "02",
    "prefectureNumber": 2,
    "prefecture": "青森県",
    "city": "上北郡七戸町",
    "town": "前田"
  },
  "0392556": {
    "zipcode": "0392556",
    "prefectureCode": "02",
    "prefectureNumber": 2,
    "prefecture": "青森県",
    "city": "上北郡七戸町",
    "town": "西槻木"
  },
  "0392557": {
    "zipcode": "0392557",
    "prefectureCode": "02",
    "prefectureNumber": 2,
    "prefecture": "青森県",
    "city": "上北郡七戸町",
    "town": "西野"
  },
  "0392558": {
    "zipcode": "0392558",
    "prefectureCode": "02",
    "prefectureNumber": 2,
    "prefecture": "青森県",
    "city": "上北郡七戸町",
    "town": "高屋敷"
  },
  "0392559": {
    "zipcode": "0392559",
    "prefectureCode": "02",
    "prefectureNumber": 2,
    "prefecture": "青森県",
    "city": "上北郡七戸町",
    "town": "山屋"
  },
  "0392561": {
    "zipcode": "0392561",
    "prefectureCode": "02",
    "prefectureNumber": 2,
    "prefecture": "青森県",
    "city": "上北郡七戸町",
    "town": "銀南木"
  },
  "0392562": {
    "zipcode": "0392562",
    "prefectureCode": "02",
    "prefectureNumber": 2,
    "prefecture": "青森県",
    "city": "上北郡七戸町",
    "town": "倉岡"
  },
  "0392563": {
    "zipcode": "0392563",
    "prefectureCode": "02",
    "prefectureNumber": 2,
    "prefecture": "青森県",
    "city": "上北郡七戸町",
    "town": "向平"
  },
  "0392564": {
    "zipcode": "0392564",
    "prefectureCode": "02",
    "prefectureNumber": 2,
    "prefecture": "青森県",
    "city": "上北郡七戸町",
    "town": "古屋敷"
  },
  "0392565": {
    "zipcode": "0392565",
    "prefectureCode": "02",
    "prefectureNumber": 2,
    "prefecture": "青森県",
    "city": "上北郡七戸町",
    "town": "治部袋"
  },
  "0392566": {
    "zipcode": "0392566",
    "prefectureCode": "02",
    "prefectureNumber": 2,
    "prefecture": "青森県",
    "city": "上北郡七戸町",
    "town": "放森"
  },
  "0392567": {
    "zipcode": "0392567",
    "prefectureCode": "02",
    "prefectureNumber": 2,
    "prefecture": "青森県",
    "city": "上北郡七戸町",
    "town": "鶴児平"
  },
  "0392568": {
    "zipcode": "0392568",
    "prefectureCode": "02",
    "prefectureNumber": 2,
    "prefecture": "青森県",
    "city": "上北郡七戸町",
    "town": "左組"
  },
  "0392569": {
    "zipcode": "0392569",
    "prefectureCode": "02",
    "prefectureNumber": 2,
    "prefecture": "青森県",
    "city": "上北郡七戸町",
    "town": "馬門川原"
  },
  "0392571": {
    "zipcode": "0392571",
    "prefectureCode": "02",
    "prefectureNumber": 2,
    "prefecture": "青森県",
    "city": "上北郡七戸町",
    "town": "蛇坂"
  },
  "0392572": {
    "zipcode": "0392572",
    "prefectureCode": "02",
    "prefectureNumber": 2,
    "prefecture": "青森県",
    "city": "上北郡七戸町",
    "town": "城ノ後"
  },
  "0392573": {
    "zipcode": "0392573",
    "prefectureCode": "02",
    "prefectureNumber": 2,
    "prefecture": "青森県",
    "city": "上北郡七戸町",
    "town": "野続"
  },
  "0392574": {
    "zipcode": "0392574",
    "prefectureCode": "02",
    "prefectureNumber": 2,
    "prefecture": "青森県",
    "city": "上北郡七戸町",
    "town": "宇道坂"
  },
  "0392575": {
    "zipcode": "0392575",
    "prefectureCode": "02",
    "prefectureNumber": 2,
    "prefecture": "青森県",
    "city": "上北郡七戸町",
    "town": "作田"
  },
  "0392576": {
    "zipcode": "0392576",
    "prefectureCode": "02",
    "prefectureNumber": 2,
    "prefecture": "青森県",
    "city": "上北郡七戸町",
    "town": "桜田"
  },
  "0392577": {
    "zipcode": "0392577",
    "prefectureCode": "02",
    "prefectureNumber": 2,
    "prefecture": "青森県",
    "city": "上北郡七戸町",
    "town": "鍛治林"
  },
  "0392578": {
    "zipcode": "0392578",
    "prefectureCode": "02",
    "prefectureNumber": 2,
    "prefecture": "青森県",
    "city": "上北郡七戸町",
    "town": "貝ノ口"
  },
  "0392579": {
    "zipcode": "0392579",
    "prefectureCode": "02",
    "prefectureNumber": 2,
    "prefecture": "青森県",
    "city": "上北郡七戸町",
    "town": "十役野"
  },
  "0392581": {
    "zipcode": "0392581",
    "prefectureCode": "02",
    "prefectureNumber": 2,
    "prefecture": "青森県",
    "city": "上北郡七戸町",
    "town": "東上川原"
  },
  "0392582": {
    "zipcode": "0392582",
    "prefectureCode": "02",
    "prefectureNumber": 2,
    "prefecture": "青森県",
    "city": "上北郡七戸町",
    "town": "西上川原"
  },
  "0392583": {
    "zipcode": "0392583",
    "prefectureCode": "02",
    "prefectureNumber": 2,
    "prefecture": "青森県",
    "city": "上北郡七戸町",
    "town": "前川原"
  },
  "0392584": {
    "zipcode": "0392584",
    "prefectureCode": "02",
    "prefectureNumber": 2,
    "prefecture": "青森県",
    "city": "上北郡七戸町",
    "town": "後川原"
  },
  "0392585": {
    "zipcode": "0392585",
    "prefectureCode": "02",
    "prefectureNumber": 2,
    "prefecture": "青森県",
    "city": "上北郡七戸町",
    "town": "上ノ山"
  },
  "0392586": {
    "zipcode": "0392586",
    "prefectureCode": "02",
    "prefectureNumber": 2,
    "prefecture": "青森県",
    "city": "上北郡七戸町",
    "town": "海内"
  },
  "0392587": {
    "zipcode": "0392587",
    "prefectureCode": "02",
    "prefectureNumber": 2,
    "prefecture": "青森県",
    "city": "上北郡七戸町",
    "town": "上屋田"
  },
  "0392588": {
    "zipcode": "0392588",
    "prefectureCode": "02",
    "prefectureNumber": 2,
    "prefecture": "青森県",
    "city": "上北郡七戸町",
    "town": "和田下"
  },
  "0392589": {
    "zipcode": "0392589",
    "prefectureCode": "02",
    "prefectureNumber": 2,
    "prefecture": "青森県",
    "city": "上北郡七戸町",
    "town": "和田"
  },
  "0392600": {
    "zipcode": "0392600",
    "prefectureCode": "02",
    "prefectureNumber": 2,
    "prefecture": "青森県",
    "city": "上北郡東北町",
    "town": "以下に掲載がない場合"
  },
  "0392601": {
    "zipcode": "0392601",
    "prefectureCode": "02",
    "prefectureNumber": 2,
    "prefecture": "青森県",
    "city": "上北郡東北町",
    "town": "ガス平"
  },
  "0392602": {
    "zipcode": "0392602",
    "prefectureCode": "02",
    "prefectureNumber": 2,
    "prefecture": "青森県",
    "city": "上北郡東北町",
    "town": "細津橋ノ上"
  },
  "0392603": {
    "zipcode": "0392603",
    "prefectureCode": "02",
    "prefectureNumber": 2,
    "prefecture": "青森県",
    "city": "上北郡東北町",
    "town": "横沢山"
  },
  "0392604": {
    "zipcode": "0392604",
    "prefectureCode": "02",
    "prefectureNumber": 2,
    "prefecture": "青森県",
    "city": "上北郡東北町",
    "town": "横沢頭"
  },
  "0392605": {
    "zipcode": "0392605",
    "prefectureCode": "02",
    "prefectureNumber": 2,
    "prefecture": "青森県",
    "city": "上北郡東北町",
    "town": "高森"
  },
  "0392606": {
    "zipcode": "0392606",
    "prefectureCode": "02",
    "prefectureNumber": 2,
    "prefecture": "青森県",
    "city": "上北郡東北町",
    "town": "谷地頭"
  },
  "0392607": {
    "zipcode": "0392607",
    "prefectureCode": "02",
    "prefectureNumber": 2,
    "prefecture": "青森県",
    "city": "上北郡東北町",
    "town": "姥沢"
  },
  "0392611": {
    "zipcode": "0392611",
    "prefectureCode": "02",
    "prefectureNumber": 2,
    "prefecture": "青森県",
    "city": "上北郡東北町",
    "town": "中村道ノ下"
  },
  "0392612": {
    "zipcode": "0392612",
    "prefectureCode": "02",
    "prefectureNumber": 2,
    "prefecture": "青森県",
    "city": "上北郡東北町",
    "town": "浜台"
  },
  "0392613": {
    "zipcode": "0392613",
    "prefectureCode": "02",
    "prefectureNumber": 2,
    "prefecture": "青森県",
    "city": "上北郡東北町",
    "town": "野田尻"
  },
  "0392614": {
    "zipcode": "0392614",
    "prefectureCode": "02",
    "prefectureNumber": 2,
    "prefecture": "青森県",
    "city": "上北郡東北町",
    "town": "切左坂道ノ下"
  },
  "0392615": {
    "zipcode": "0392615",
    "prefectureCode": "02",
    "prefectureNumber": 2,
    "prefecture": "青森県",
    "city": "上北郡東北町",
    "town": "萌出道ノ下"
  },
  "0392616": {
    "zipcode": "0392616",
    "prefectureCode": "02",
    "prefectureNumber": 2,
    "prefecture": "青森県",
    "city": "上北郡東北町",
    "town": "切左坂道ノ上"
  },
  "0392617": {
    "zipcode": "0392617",
    "prefectureCode": "02",
    "prefectureNumber": 2,
    "prefecture": "青森県",
    "city": "上北郡東北町",
    "town": "水喰向"
  },
  "0392621": {
    "zipcode": "0392621",
    "prefectureCode": "02",
    "prefectureNumber": 2,
    "prefecture": "青森県",
    "city": "上北郡東北町",
    "town": "田ノ沢"
  },
  "0392622": {
    "zipcode": "0392622",
    "prefectureCode": "02",
    "prefectureNumber": 2,
    "prefecture": "青森県",
    "city": "上北郡東北町",
    "town": "船ケ沢"
  },
  "0392623": {
    "zipcode": "0392623",
    "prefectureCode": "02",
    "prefectureNumber": 2,
    "prefecture": "青森県",
    "city": "上北郡東北町",
    "town": "横志多"
  },
  "0392624": {
    "zipcode": "0392624",
    "prefectureCode": "02",
    "prefectureNumber": 2,
    "prefecture": "青森県",
    "city": "上北郡東北町",
    "town": "道ノ北"
  },
  "0392625": {
    "zipcode": "0392625",
    "prefectureCode": "02",
    "prefectureNumber": 2,
    "prefecture": "青森県",
    "city": "上北郡東北町",
    "town": "長久保"
  },
  "0392626": {
    "zipcode": "0392626",
    "prefectureCode": "02",
    "prefectureNumber": 2,
    "prefecture": "青森県",
    "city": "上北郡東北町",
    "town": "堤尻"
  },
  "0392627": {
    "zipcode": "0392627",
    "prefectureCode": "02",
    "prefectureNumber": 2,
    "prefecture": "青森県",
    "city": "上北郡東北町",
    "town": "漆玉"
  },
  "0392631": {
    "zipcode": "0392631",
    "prefectureCode": "02",
    "prefectureNumber": 2,
    "prefecture": "青森県",
    "city": "上北郡東北町",
    "town": "滝沢平"
  },
  "0392632": {
    "zipcode": "0392632",
    "prefectureCode": "02",
    "prefectureNumber": 2,
    "prefecture": "青森県",
    "city": "上北郡東北町",
    "town": "日影林ノ上山"
  },
  "0392633": {
    "zipcode": "0392633",
    "prefectureCode": "02",
    "prefectureNumber": 2,
    "prefecture": "青森県",
    "city": "上北郡東北町",
    "town": "和山平"
  },
  "0392634": {
    "zipcode": "0392634",
    "prefectureCode": "02",
    "prefectureNumber": 2,
    "prefecture": "青森県",
    "city": "上北郡東北町",
    "town": "往来ノ下"
  },
  "0392635": {
    "zipcode": "0392635",
    "prefectureCode": "02",
    "prefectureNumber": 2,
    "prefecture": "青森県",
    "city": "上北郡東北町",
    "town": "鳥口平"
  },
  "0392636": {
    "zipcode": "0392636",
    "prefectureCode": "02",
    "prefectureNumber": 2,
    "prefecture": "青森県",
    "city": "上北郡東北町",
    "town": "往来ノ上"
  },
  "0392641": {
    "zipcode": "0392641",
    "prefectureCode": "02",
    "prefectureNumber": 2,
    "prefecture": "青森県",
    "city": "上北郡東北町",
    "town": "枋木"
  },
  "0392642": {
    "zipcode": "0392642",
    "prefectureCode": "02",
    "prefectureNumber": 2,
    "prefecture": "青森県",
    "city": "上北郡東北町",
    "town": "寒水山"
  },
  "0392643": {
    "zipcode": "0392643",
    "prefectureCode": "02",
    "prefectureNumber": 2,
    "prefecture": "青森県",
    "city": "上北郡東北町",
    "town": "乙部道ノ下"
  },
  "0392644": {
    "zipcode": "0392644",
    "prefectureCode": "02",
    "prefectureNumber": 2,
    "prefecture": "青森県",
    "city": "上北郡東北町",
    "town": "保戸沢家ノ後"
  },
  "0392645": {
    "zipcode": "0392645",
    "prefectureCode": "02",
    "prefectureNumber": 2,
    "prefecture": "青森県",
    "city": "上北郡東北町",
    "town": "外蛯沢前平"
  },
  "0392646": {
    "zipcode": "0392646",
    "prefectureCode": "02",
    "prefectureNumber": 2,
    "prefecture": "青森県",
    "city": "上北郡東北町",
    "town": "外蛯沢西平"
  },
  "0392647": {
    "zipcode": "0392647",
    "prefectureCode": "02",
    "prefectureNumber": 2,
    "prefecture": "青森県",
    "city": "上北郡東北町",
    "town": "外蛯沢後久保"
  },
  "0392648": {
    "zipcode": "0392648",
    "prefectureCode": "02",
    "prefectureNumber": 2,
    "prefecture": "青森県",
    "city": "上北郡東北町",
    "town": "外蛯沢北久保"
  },
  "0392651": {
    "zipcode": "0392651",
    "prefectureCode": "02",
    "prefectureNumber": 2,
    "prefecture": "青森県",
    "city": "上北郡東北町",
    "town": "大沢"
  },
  "0392652": {
    "zipcode": "0392652",
    "prefectureCode": "02",
    "prefectureNumber": 2,
    "prefecture": "青森県",
    "city": "上北郡東北町",
    "town": "ほとけ沢"
  },
  "0392653": {
    "zipcode": "0392653",
    "prefectureCode": "02",
    "prefectureNumber": 2,
    "prefecture": "青森県",
    "city": "上北郡東北町",
    "town": "下山"
  },
  "0392654": {
    "zipcode": "0392654",
    "prefectureCode": "02",
    "prefectureNumber": 2,
    "prefecture": "青森県",
    "city": "上北郡東北町",
    "town": "塔ノ沢山"
  },
  "0392655": {
    "zipcode": "0392655",
    "prefectureCode": "02",
    "prefectureNumber": 2,
    "prefecture": "青森県",
    "city": "上北郡東北町",
    "town": "内蛯沢道ノ上"
  },
  "0392656": {
    "zipcode": "0392656",
    "prefectureCode": "02",
    "prefectureNumber": 2,
    "prefecture": "青森県",
    "city": "上北郡東北町",
    "town": "内蛯沢向"
  },
  "0392657": {
    "zipcode": "0392657",
    "prefectureCode": "02",
    "prefectureNumber": 2,
    "prefecture": "青森県",
    "city": "上北郡東北町",
    "town": "赤川道"
  },
  "0392661": {
    "zipcode": "0392661",
    "prefectureCode": "02",
    "prefectureNumber": 2,
    "prefecture": "青森県",
    "city": "上北郡東北町",
    "town": "上笹橋"
  },
  "0392662": {
    "zipcode": "0392662",
    "prefectureCode": "02",
    "prefectureNumber": 2,
    "prefecture": "青森県",
    "city": "上北郡東北町",
    "town": "下笹橋"
  },
  "0392663": {
    "zipcode": "0392663",
    "prefectureCode": "02",
    "prefectureNumber": 2,
    "prefecture": "青森県",
    "city": "上北郡東北町",
    "town": "舘花"
  },
  "0392664": {
    "zipcode": "0392664",
    "prefectureCode": "02",
    "prefectureNumber": 2,
    "prefecture": "青森県",
    "city": "上北郡東北町",
    "town": "乙供"
  },
  "0392665": {
    "zipcode": "0392665",
    "prefectureCode": "02",
    "prefectureNumber": 2,
    "prefecture": "青森県",
    "city": "上北郡東北町",
    "town": "柳沢"
  },
  "0392666": {
    "zipcode": "0392666",
    "prefectureCode": "02",
    "prefectureNumber": 2,
    "prefecture": "青森県",
    "city": "上北郡東北町",
    "town": "乙供山"
  },
  "0392667": {
    "zipcode": "0392667",
    "prefectureCode": "02",
    "prefectureNumber": 2,
    "prefecture": "青森県",
    "city": "上北郡東北町",
    "town": "膳前"
  },
  "0392668": {
    "zipcode": "0392668",
    "prefectureCode": "02",
    "prefectureNumber": 2,
    "prefecture": "青森県",
    "city": "上北郡東北町",
    "town": "篠内平"
  },
  "0392671": {
    "zipcode": "0392671",
    "prefectureCode": "02",
    "prefectureNumber": 2,
    "prefecture": "青森県",
    "city": "上北郡東北町",
    "town": "小沢"
  },
  "0392672": {
    "zipcode": "0392672",
    "prefectureCode": "02",
    "prefectureNumber": 2,
    "prefecture": "青森県",
    "city": "上北郡東北町",
    "town": "向籏屋"
  },
  "0392673": {
    "zipcode": "0392673",
    "prefectureCode": "02",
    "prefectureNumber": 2,
    "prefecture": "青森県",
    "city": "上北郡東北町",
    "town": "山ノ下"
  },
  "0392674": {
    "zipcode": "0392674",
    "prefectureCode": "02",
    "prefectureNumber": 2,
    "prefecture": "青森県",
    "city": "上北郡東北町",
    "town": "夫雑原"
  },
  "0392675": {
    "zipcode": "0392675",
    "prefectureCode": "02",
    "prefectureNumber": 2,
    "prefecture": "青森県",
    "city": "上北郡東北町",
    "town": "千曳"
  },
  "0392676": {
    "zipcode": "0392676",
    "prefectureCode": "02",
    "prefectureNumber": 2,
    "prefecture": "青森県",
    "city": "上北郡東北町",
    "town": "下板橋"
  },
  "0392677": {
    "zipcode": "0392677",
    "prefectureCode": "02",
    "prefectureNumber": 2,
    "prefecture": "青森県",
    "city": "上北郡東北町",
    "town": "夫雑原下山"
  },
  "0392678": {
    "zipcode": "0392678",
    "prefectureCode": "02",
    "prefectureNumber": 2,
    "prefecture": "青森県",
    "city": "上北郡東北町",
    "town": "長者久保"
  },
  "0392681": {
    "zipcode": "0392681",
    "prefectureCode": "02",
    "prefectureNumber": 2,
    "prefecture": "青森県",
    "city": "上北郡東北町",
    "town": "山添"
  },
  "0392682": {
    "zipcode": "0392682",
    "prefectureCode": "02",
    "prefectureNumber": 2,
    "prefecture": "青森県",
    "city": "上北郡東北町",
    "town": "湯沢"
  },
  "0392683": {
    "zipcode": "0392683",
    "prefectureCode": "02",
    "prefectureNumber": 2,
    "prefecture": "青森県",
    "city": "上北郡東北町",
    "town": "大平"
  },
  "0392684": {
    "zipcode": "0392684",
    "prefectureCode": "02",
    "prefectureNumber": 2,
    "prefecture": "青森県",
    "city": "上北郡東北町",
    "town": "向平"
  },
  "0392685": {
    "zipcode": "0392685",
    "prefectureCode": "02",
    "prefectureNumber": 2,
    "prefecture": "青森県",
    "city": "上北郡東北町",
    "town": "上板橋家ノ後"
  },
  "0392686": {
    "zipcode": "0392686",
    "prefectureCode": "02",
    "prefectureNumber": 2,
    "prefecture": "青森県",
    "city": "上北郡東北町",
    "town": "添ノ沢"
  },
  "0392687": {
    "zipcode": "0392687",
    "prefectureCode": "02",
    "prefectureNumber": 2,
    "prefecture": "青森県",
    "city": "上北郡東北町",
    "town": "林ノ下"
  },
  "0392688": {
    "zipcode": "0392688",
    "prefectureCode": "02",
    "prefectureNumber": 2,
    "prefecture": "青森県",
    "city": "上北郡東北町",
    "town": "大撫沢"
  },
  "0392711": {
    "zipcode": "0392711",
    "prefectureCode": "02",
    "prefectureNumber": 2,
    "prefecture": "青森県",
    "city": "上北郡七戸町",
    "town": "中天間舘"
  },
  "0392712": {
    "zipcode": "0392712",
    "prefectureCode": "02",
    "prefectureNumber": 2,
    "prefecture": "青森県",
    "city": "上北郡七戸町",
    "town": "北天間舘"
  },
  "0392713": {
    "zipcode": "0392713",
    "prefectureCode": "02",
    "prefectureNumber": 2,
    "prefecture": "青森県",
    "city": "上北郡七戸町",
    "town": "東天間舘"
  },
  "0392714": {
    "zipcode": "0392714",
    "prefectureCode": "02",
    "prefectureNumber": 2,
    "prefecture": "青森県",
    "city": "上北郡七戸町",
    "town": "上志多"
  },
  "0392715": {
    "zipcode": "0392715",
    "prefectureCode": "02",
    "prefectureNumber": 2,
    "prefecture": "青森県",
    "city": "上北郡七戸町",
    "town": "尾山頭"
  },
  "0392716": {
    "zipcode": "0392716",
    "prefectureCode": "02",
    "prefectureNumber": 2,
    "prefecture": "青森県",
    "city": "上北郡七戸町",
    "town": "菩提木"
  },
  "0392717": {
    "zipcode": "0392717",
    "prefectureCode": "02",
    "prefectureNumber": 2,
    "prefecture": "青森県",
    "city": "上北郡七戸町",
    "town": "柳平"
  },
  "0392721": {
    "zipcode": "0392721",
    "prefectureCode": "02",
    "prefectureNumber": 2,
    "prefecture": "青森県",
    "city": "上北郡七戸町",
    "town": "志茂川原"
  },
  "0392722": {
    "zipcode": "0392722",
    "prefectureCode": "02",
    "prefectureNumber": 2,
    "prefecture": "青森県",
    "city": "上北郡七戸町",
    "town": "向川原"
  },
  "0392723": {
    "zipcode": "0392723",
    "prefectureCode": "02",
    "prefectureNumber": 2,
    "prefecture": "青森県",
    "city": "上北郡七戸町",
    "town": "下志多"
  },
  "0392724": {
    "zipcode": "0392724",
    "prefectureCode": "02",
    "prefectureNumber": 2,
    "prefecture": "青森県",
    "city": "上北郡七戸町",
    "town": "上平"
  },
  "0392725": {
    "zipcode": "0392725",
    "prefectureCode": "02",
    "prefectureNumber": 2,
    "prefecture": "青森県",
    "city": "上北郡七戸町",
    "town": "上川原"
  },
  "0392726": {
    "zipcode": "0392726",
    "prefectureCode": "02",
    "prefectureNumber": 2,
    "prefecture": "青森県",
    "city": "上北郡七戸町",
    "town": "李川原"
  },
  "0392731": {
    "zipcode": "0392731",
    "prefectureCode": "02",
    "prefectureNumber": 2,
    "prefecture": "青森県",
    "city": "上北郡七戸町",
    "town": "後平"
  },
  "0392732": {
    "zipcode": "0392732",
    "prefectureCode": "02",
    "prefectureNumber": 2,
    "prefecture": "青森県",
    "city": "上北郡七戸町",
    "town": "卒古沢"
  },
  "0392733": {
    "zipcode": "0392733",
    "prefectureCode": "02",
    "prefectureNumber": 2,
    "prefecture": "青森県",
    "city": "上北郡七戸町",
    "town": "天間舘前川原"
  },
  "0392741": {
    "zipcode": "0392741",
    "prefectureCode": "02",
    "prefectureNumber": 2,
    "prefecture": "青森県",
    "city": "上北郡七戸町",
    "town": "猪ノ鼻"
  },
  "0392742": {
    "zipcode": "0392742",
    "prefectureCode": "02",
    "prefectureNumber": 2,
    "prefecture": "青森県",
    "city": "上北郡七戸町",
    "town": "舟場向川久保"
  },
  "0392743": {
    "zipcode": "0392743",
    "prefectureCode": "02",
    "prefectureNumber": 2,
    "prefecture": "青森県",
    "city": "上北郡七戸町",
    "town": "寺沢前"
  },
  "0392744": {
    "zipcode": "0392744",
    "prefectureCode": "02",
    "prefectureNumber": 2,
    "prefecture": "青森県",
    "city": "上北郡七戸町",
    "town": "塚長根"
  },
  "0392745": {
    "zipcode": "0392745",
    "prefectureCode": "02",
    "prefectureNumber": 2,
    "prefecture": "青森県",
    "city": "上北郡七戸町",
    "town": "夷堂"
  },
  "0392746": {
    "zipcode": "0392746",
    "prefectureCode": "02",
    "prefectureNumber": 2,
    "prefecture": "青森県",
    "city": "上北郡七戸町",
    "town": "附田川目"
  },
  "0392747": {
    "zipcode": "0392747",
    "prefectureCode": "02",
    "prefectureNumber": 2,
    "prefecture": "青森県",
    "city": "上北郡七戸町",
    "town": "附田家ノ前"
  },
  "0392748": {
    "zipcode": "0392748",
    "prefectureCode": "02",
    "prefectureNumber": 2,
    "prefecture": "青森県",
    "city": "上北郡七戸町",
    "town": "南舘向"
  },
  "0392751": {
    "zipcode": "0392751",
    "prefectureCode": "02",
    "prefectureNumber": 2,
    "prefecture": "青森県",
    "city": "上北郡七戸町",
    "town": "貝塚家ノ前"
  },
  "0392752": {
    "zipcode": "0392752",
    "prefectureCode": "02",
    "prefectureNumber": 2,
    "prefecture": "青森県",
    "city": "上北郡七戸町",
    "town": "鉢森平"
  },
  "0392753": {
    "zipcode": "0392753",
    "prefectureCode": "02",
    "prefectureNumber": 2,
    "prefecture": "青森県",
    "city": "上北郡七戸町",
    "town": "竿打川原"
  },
  "0392754": {
    "zipcode": "0392754",
    "prefectureCode": "02",
    "prefectureNumber": 2,
    "prefecture": "青森県",
    "city": "上北郡七戸町",
    "town": "地蔵堂"
  },
  "0392755": {
    "zipcode": "0392755",
    "prefectureCode": "02",
    "prefectureNumber": 2,
    "prefecture": "青森県",
    "city": "上北郡七戸町",
    "town": "榎林家ノ前"
  },
  "0392756": {
    "zipcode": "0392756",
    "prefectureCode": "02",
    "prefectureNumber": 2,
    "prefecture": "青森県",
    "city": "上北郡七戸町",
    "town": "榎林家ノ後"
  },
  "0392757": {
    "zipcode": "0392757",
    "prefectureCode": "02",
    "prefectureNumber": 2,
    "prefecture": "青森県",
    "city": "上北郡七戸町",
    "town": "卒古沢南平"
  },
  "0392761": {
    "zipcode": "0392761",
    "prefectureCode": "02",
    "prefectureNumber": 2,
    "prefecture": "青森県",
    "city": "上北郡七戸町",
    "town": "二ツ森家ノ後"
  },
  "0392762": {
    "zipcode": "0392762",
    "prefectureCode": "02",
    "prefectureNumber": 2,
    "prefecture": "青森県",
    "city": "上北郡七戸町",
    "town": "二ツ森家ノ下"
  },
  "0392763": {
    "zipcode": "0392763",
    "prefectureCode": "02",
    "prefectureNumber": 2,
    "prefecture": "青森県",
    "city": "上北郡七戸町",
    "town": "二ツ森家ノ表"
  },
  "0392771": {
    "zipcode": "0392771",
    "prefectureCode": "02",
    "prefectureNumber": 2,
    "prefecture": "青森県",
    "city": "上北郡七戸町",
    "town": "姥沢"
  },
  "0392772": {
    "zipcode": "0392772",
    "prefectureCode": "02",
    "prefectureNumber": 2,
    "prefecture": "青森県",
    "city": "上北郡七戸町",
    "town": "下田坪"
  },
  "0392773": {
    "zipcode": "0392773",
    "prefectureCode": "02",
    "prefectureNumber": 2,
    "prefecture": "青森県",
    "city": "上北郡七戸町",
    "town": "前左野"
  },
  "0392774": {
    "zipcode": "0392774",
    "prefectureCode": "02",
    "prefectureNumber": 2,
    "prefecture": "青森県",
    "city": "上北郡七戸町",
    "town": "柴舘道ノ下"
  },
  "0392775": {
    "zipcode": "0392775",
    "prefectureCode": "02",
    "prefectureNumber": 2,
    "prefecture": "青森県",
    "city": "上北郡七戸町",
    "town": "李沢道ノ下"
  },
  "0392776": {
    "zipcode": "0392776",
    "prefectureCode": "02",
    "prefectureNumber": 2,
    "prefecture": "青森県",
    "city": "上北郡七戸町",
    "town": "李沢家ノ前"
  },
  "0392777": {
    "zipcode": "0392777",
    "prefectureCode": "02",
    "prefectureNumber": 2,
    "prefecture": "青森県",
    "city": "上北郡七戸町",
    "town": "李沢家ノ後"
  },
  "0392778": {
    "zipcode": "0392778",
    "prefectureCode": "02",
    "prefectureNumber": 2,
    "prefecture": "青森県",
    "city": "上北郡七戸町",
    "town": "坂ノ外"
  },
  "0392779": {
    "zipcode": "0392779",
    "prefectureCode": "02",
    "prefectureNumber": 2,
    "prefecture": "青森県",
    "city": "上北郡七戸町",
    "town": "榎林古屋敷"
  },
  "0392781": {
    "zipcode": "0392781",
    "prefectureCode": "02",
    "prefectureNumber": 2,
    "prefecture": "青森県",
    "city": "上北郡七戸町",
    "town": "花松林ノ根"
  },
  "0392782": {
    "zipcode": "0392782",
    "prefectureCode": "02",
    "prefectureNumber": 2,
    "prefecture": "青森県",
    "city": "上北郡七戸町",
    "town": "中岫太田嶋"
  },
  "0392783": {
    "zipcode": "0392783",
    "prefectureCode": "02",
    "prefectureNumber": 2,
    "prefecture": "青森県",
    "city": "上北郡七戸町",
    "town": "中岫番屋"
  },
  "0392784": {
    "zipcode": "0392784",
    "prefectureCode": "02",
    "prefectureNumber": 2,
    "prefecture": "青森県",
    "city": "上北郡七戸町",
    "town": "中岫長沢下"
  },
  "0392785": {
    "zipcode": "0392785",
    "prefectureCode": "02",
    "prefectureNumber": 2,
    "prefecture": "青森県",
    "city": "上北郡七戸町",
    "town": "中岫村ノ上"
  },
  "0392786": {
    "zipcode": "0392786",
    "prefectureCode": "02",
    "prefectureNumber": 2,
    "prefecture": "青森県",
    "city": "上北郡七戸町",
    "town": "中岫東道添"
  },
  "0392801": {
    "zipcode": "0392801",
    "prefectureCode": "02",
    "prefectureNumber": 2,
    "prefecture": "青森県",
    "city": "上北郡七戸町",
    "town": "野崎"
  },
  "0392802": {
    "zipcode": "0392802",
    "prefectureCode": "02",
    "prefectureNumber": 2,
    "prefecture": "青森県",
    "city": "上北郡七戸町",
    "town": "野崎前平"
  },
  "0392803": {
    "zipcode": "0392803",
    "prefectureCode": "02",
    "prefectureNumber": 2,
    "prefecture": "青森県",
    "city": "上北郡七戸町",
    "town": "野崎森ノ下"
  },
  "0392804": {
    "zipcode": "0392804",
    "prefectureCode": "02",
    "prefectureNumber": 2,
    "prefecture": "青森県",
    "city": "上北郡七戸町",
    "town": "野崎狐久保"
  },
  "0392805": {
    "zipcode": "0392805",
    "prefectureCode": "02",
    "prefectureNumber": 2,
    "prefecture": "青森県",
    "city": "上北郡七戸町",
    "town": "原久保"
  },
  "0392811": {
    "zipcode": "0392811",
    "prefectureCode": "02",
    "prefectureNumber": 2,
    "prefecture": "青森県",
    "city": "上北郡七戸町",
    "town": "天間舘荒谷"
  },
  "0392812": {
    "zipcode": "0392812",
    "prefectureCode": "02",
    "prefectureNumber": 2,
    "prefecture": "青森県",
    "city": "上北郡七戸町",
    "town": "小田下"
  },
  "0392813": {
    "zipcode": "0392813",
    "prefectureCode": "02",
    "prefectureNumber": 2,
    "prefecture": "青森県",
    "city": "上北郡七戸町",
    "town": "小田平"
  },
  "0392814": {
    "zipcode": "0392814",
    "prefectureCode": "02",
    "prefectureNumber": 2,
    "prefecture": "青森県",
    "city": "上北郡七戸町",
    "town": "道ノ下"
  },
  "0392815": {
    "zipcode": "0392815",
    "prefectureCode": "02",
    "prefectureNumber": 2,
    "prefecture": "青森県",
    "city": "上北郡七戸町",
    "town": "森ノ下"
  },
  "0392816": {
    "zipcode": "0392816",
    "prefectureCode": "02",
    "prefectureNumber": 2,
    "prefecture": "青森県",
    "city": "上北郡七戸町",
    "town": "家ノ裏"
  },
  "0392821": {
    "zipcode": "0392821",
    "prefectureCode": "02",
    "prefectureNumber": 2,
    "prefecture": "青森県",
    "city": "上北郡七戸町",
    "town": "大平"
  },
  "0392822": {
    "zipcode": "0392822",
    "prefectureCode": "02",
    "prefectureNumber": 2,
    "prefecture": "青森県",
    "city": "上北郡七戸町",
    "town": "小又"
  },
  "0392823": {
    "zipcode": "0392823",
    "prefectureCode": "02",
    "prefectureNumber": 2,
    "prefecture": "青森県",
    "city": "上北郡七戸町",
    "town": "舘ノ下"
  },
  "0392824": {
    "zipcode": "0392824",
    "prefectureCode": "02",
    "prefectureNumber": 2,
    "prefecture": "青森県",
    "city": "上北郡七戸町",
    "town": "家ノ下"
  },
  "0392825": {
    "zipcode": "0392825",
    "prefectureCode": "02",
    "prefectureNumber": 2,
    "prefecture": "青森県",
    "city": "上北郡七戸町",
    "town": "家ノ上"
  },
  "0392826": {
    "zipcode": "0392826",
    "prefectureCode": "02",
    "prefectureNumber": 2,
    "prefecture": "青森県",
    "city": "上北郡七戸町",
    "town": "中野"
  },
  "0392827": {
    "zipcode": "0392827",
    "prefectureCode": "02",
    "prefectureNumber": 2,
    "prefecture": "青森県",
    "city": "上北郡七戸町",
    "town": "森ノ上"
  },
  "0392828": {
    "zipcode": "0392828",
    "prefectureCode": "02",
    "prefectureNumber": 2,
    "prefecture": "青森県",
    "city": "上北郡七戸町",
    "town": "森ケ沢"
  },
  "0392831": {
    "zipcode": "0392831",
    "prefectureCode": "02",
    "prefectureNumber": 2,
    "prefecture": "青森県",
    "city": "上北郡七戸町",
    "town": "金沢平"
  },
  "0392832": {
    "zipcode": "0392832",
    "prefectureCode": "02",
    "prefectureNumber": 2,
    "prefecture": "青森県",
    "city": "上北郡七戸町",
    "town": "道ノ上"
  },
  "0392833": {
    "zipcode": "0392833",
    "prefectureCode": "02",
    "prefectureNumber": 2,
    "prefecture": "青森県",
    "city": "上北郡七戸町",
    "town": "家ノ前"
  },
  "0392834": {
    "zipcode": "0392834",
    "prefectureCode": "02",
    "prefectureNumber": 2,
    "prefecture": "青森県",
    "city": "上北郡七戸町",
    "town": "向中野川向"
  },
  "0392835": {
    "zipcode": "0392835",
    "prefectureCode": "02",
    "prefectureNumber": 2,
    "prefecture": "青森県",
    "city": "上北郡七戸町",
    "town": "松ケ沢"
  },
  "0392841": {
    "zipcode": "0392841",
    "prefectureCode": "02",
    "prefectureNumber": 2,
    "prefecture": "青森県",
    "city": "上北郡七戸町",
    "town": "下鳥谷部"
  },
  "0392842": {
    "zipcode": "0392842",
    "prefectureCode": "02",
    "prefectureNumber": 2,
    "prefecture": "青森県",
    "city": "上北郡七戸町",
    "town": "中鳥谷"
  },
  "0392843": {
    "zipcode": "0392843",
    "prefectureCode": "02",
    "prefectureNumber": 2,
    "prefecture": "青森県",
    "city": "上北郡七戸町",
    "town": "橋ノ上"
  },
  "0392844": {
    "zipcode": "0392844",
    "prefectureCode": "02",
    "prefectureNumber": 2,
    "prefecture": "青森県",
    "city": "上北郡七戸町",
    "town": "手代森"
  },
  "0392845": {
    "zipcode": "0392845",
    "prefectureCode": "02",
    "prefectureNumber": 2,
    "prefecture": "青森県",
    "city": "上北郡七戸町",
    "town": "作田道"
  },
  "0392846": {
    "zipcode": "0392846",
    "prefectureCode": "02",
    "prefectureNumber": 2,
    "prefecture": "青森県",
    "city": "上北郡七戸町",
    "town": "鳥谷部"
  },
  "0392851": {
    "zipcode": "0392851",
    "prefectureCode": "02",
    "prefectureNumber": 2,
    "prefecture": "青森県",
    "city": "上北郡七戸町",
    "town": "堰根"
  },
  "0392852": {
    "zipcode": "0392852",
    "prefectureCode": "02",
    "prefectureNumber": 2,
    "prefecture": "青森県",
    "city": "上北郡七戸町",
    "town": "さそう"
  },
  "0392853": {
    "zipcode": "0392853",
    "prefectureCode": "02",
    "prefectureNumber": 2,
    "prefecture": "青森県",
    "city": "上北郡七戸町",
    "town": "さそう平"
  },
  "0392854": {
    "zipcode": "0392854",
    "prefectureCode": "02",
    "prefectureNumber": 2,
    "prefecture": "青森県",
    "city": "上北郡七戸町",
    "town": "高井名"
  },
  "0392855": {
    "zipcode": "0392855",
    "prefectureCode": "02",
    "prefectureNumber": 2,
    "prefecture": "青森県",
    "city": "上北郡七戸町",
    "town": "底田"
  },
  "0392856": {
    "zipcode": "0392856",
    "prefectureCode": "02",
    "prefectureNumber": 2,
    "prefecture": "青森県",
    "city": "上北郡七戸町",
    "town": "古和備"
  },
  "0392857": {
    "zipcode": "0392857",
    "prefectureCode": "02",
    "prefectureNumber": 2,
    "prefecture": "青森県",
    "city": "上北郡七戸町",
    "town": "天間舘倉越"
  },
  "0392861": {
    "zipcode": "0392861",
    "prefectureCode": "02",
    "prefectureNumber": 2,
    "prefecture": "青森県",
    "city": "上北郡七戸町",
    "town": "天間舘大沢"
  },
  "0392862": {
    "zipcode": "0392862",
    "prefectureCode": "02",
    "prefectureNumber": 2,
    "prefecture": "青森県",
    "city": "上北郡七戸町",
    "town": "夏間木"
  },
  "0392863": {
    "zipcode": "0392863",
    "prefectureCode": "02",
    "prefectureNumber": 2,
    "prefecture": "青森県",
    "city": "上北郡七戸町",
    "town": "十枝内"
  },
  "0392864": {
    "zipcode": "0392864",
    "prefectureCode": "02",
    "prefectureNumber": 2,
    "prefecture": "青森県",
    "city": "上北郡七戸町",
    "town": "下モ川原"
  },
  "0392865": {
    "zipcode": "0392865",
    "prefectureCode": "02",
    "prefectureNumber": 2,
    "prefecture": "青森県",
    "city": "上北郡七戸町",
    "town": "市ノ渡"
  },
  "0392866": {
    "zipcode": "0392866",
    "prefectureCode": "02",
    "prefectureNumber": 2,
    "prefecture": "青森県",
    "city": "上北郡七戸町",
    "town": "栗ノ木沢"
  },
  "0392871": {
    "zipcode": "0392871",
    "prefectureCode": "02",
    "prefectureNumber": 2,
    "prefecture": "青森県",
    "city": "上北郡七戸町",
    "town": "白石"
  },
  "0392872": {
    "zipcode": "0392872",
    "prefectureCode": "02",
    "prefectureNumber": 2,
    "prefecture": "青森県",
    "city": "上北郡七戸町",
    "town": "下タ川原"
  },
  "0392873": {
    "zipcode": "0392873",
    "prefectureCode": "02",
    "prefectureNumber": 2,
    "prefecture": "青森県",
    "city": "上北郡七戸町",
    "town": "天間舘寒水"
  },
  "0392874": {
    "zipcode": "0392874",
    "prefectureCode": "02",
    "prefectureNumber": 2,
    "prefecture": "青森県",
    "city": "上北郡七戸町",
    "town": "坪川原"
  },
  "0392875": {
    "zipcode": "0392875",
    "prefectureCode": "02",
    "prefectureNumber": 2,
    "prefecture": "青森県",
    "city": "上北郡七戸町",
    "town": "淋代"
  },
  "0392876": {
    "zipcode": "0392876",
    "prefectureCode": "02",
    "prefectureNumber": 2,
    "prefecture": "青森県",
    "city": "上北郡七戸町",
    "town": "堰代"
  },
  "0392877": {
    "zipcode": "0392877",
    "prefectureCode": "02",
    "prefectureNumber": 2,
    "prefecture": "青森県",
    "city": "上北郡七戸町",
    "town": "五庵ノ下"
  },
  "0393100": {
    "zipcode": "0393100",
    "prefectureCode": "02",
    "prefectureNumber": 2,
    "prefecture": "青森県",
    "city": "上北郡野辺地町",
    "town": "以下に掲載がない場合"
  },
  "0393101": {
    "zipcode": "0393101",
    "prefectureCode": "02",
    "prefectureNumber": 2,
    "prefecture": "青森県",
    "city": "上北郡野辺地町",
    "town": "浜掛"
  },
  "0393102": {
    "zipcode": "0393102",
    "prefectureCode": "02",
    "prefectureNumber": 2,
    "prefecture": "青森県",
    "city": "上北郡野辺地町",
    "town": "米内沢"
  },
  "0393103": {
    "zipcode": "0393103",
    "prefectureCode": "02",
    "prefectureNumber": 2,
    "prefecture": "青森県",
    "city": "上北郡野辺地町",
    "town": "田名部道"
  },
  "0393104": {
    "zipcode": "0393104",
    "prefectureCode": "02",
    "prefectureNumber": 2,
    "prefecture": "青森県",
    "city": "上北郡野辺地町",
    "town": "大月平"
  },
  "0393105": {
    "zipcode": "0393105",
    "prefectureCode": "02",
    "prefectureNumber": 2,
    "prefecture": "青森県",
    "city": "上北郡野辺地町",
    "town": "干草橋"
  },
  "0393106": {
    "zipcode": "0393106",
    "prefectureCode": "02",
    "prefectureNumber": 2,
    "prefecture": "青森県",
    "city": "上北郡野辺地町",
    "town": "明前"
  },
  "0393107": {
    "zipcode": "0393107",
    "prefectureCode": "02",
    "prefectureNumber": 2,
    "prefecture": "青森県",
    "city": "上北郡野辺地町",
    "town": "小沢平"
  },
  "0393108": {
    "zipcode": "0393108",
    "prefectureCode": "02",
    "prefectureNumber": 2,
    "prefecture": "青森県",
    "city": "上北郡野辺地町",
    "town": "中田"
  },
  "0393109": {
    "zipcode": "0393109",
    "prefectureCode": "02",
    "prefectureNumber": 2,
    "prefecture": "青森県",
    "city": "上北郡野辺地町",
    "town": "向田"
  },
  "0393111": {
    "zipcode": "0393111",
    "prefectureCode": "02",
    "prefectureNumber": 2,
    "prefecture": "青森県",
    "city": "上北郡野辺地町",
    "town": "石神裏"
  },
  "0393112": {
    "zipcode": "0393112",
    "prefectureCode": "02",
    "prefectureNumber": 2,
    "prefecture": "青森県",
    "city": "上北郡野辺地町",
    "town": "中道"
  },
  "0393113": {
    "zipcode": "0393113",
    "prefectureCode": "02",
    "prefectureNumber": 2,
    "prefecture": "青森県",
    "city": "上北郡野辺地町",
    "town": "田狭沢"
  },
  "0393114": {
    "zipcode": "0393114",
    "prefectureCode": "02",
    "prefectureNumber": 2,
    "prefecture": "青森県",
    "city": "上北郡野辺地町",
    "town": "助佐小路"
  },
  "0393115": {
    "zipcode": "0393115",
    "prefectureCode": "02",
    "prefectureNumber": 2,
    "prefecture": "青森県",
    "city": "上北郡野辺地町",
    "town": "タラノ木"
  },
  "0393116": {
    "zipcode": "0393116",
    "prefectureCode": "02",
    "prefectureNumber": 2,
    "prefecture": "青森県",
    "city": "上北郡野辺地町",
    "town": "赤坂"
  },
  "0393117": {
    "zipcode": "0393117",
    "prefectureCode": "02",
    "prefectureNumber": 2,
    "prefecture": "青森県",
    "city": "上北郡野辺地町",
    "town": "下坂"
  },
  "0393118": {
    "zipcode": "0393118",
    "prefectureCode": "02",
    "prefectureNumber": 2,
    "prefecture": "青森県",
    "city": "上北郡野辺地町",
    "town": "寺ノ沢"
  },
  "0393121": {
    "zipcode": "0393121",
    "prefectureCode": "02",
    "prefectureNumber": 2,
    "prefecture": "青森県",
    "city": "上北郡野辺地町",
    "town": "船橋"
  },
  "0393122": {
    "zipcode": "0393122",
    "prefectureCode": "02",
    "prefectureNumber": 2,
    "prefecture": "青森県",
    "city": "上北郡野辺地町",
    "town": "雑吉沢"
  },
  "0393123": {
    "zipcode": "0393123",
    "prefectureCode": "02",
    "prefectureNumber": 2,
    "prefecture": "青森県",
    "city": "上北郡野辺地町",
    "town": "種川"
  },
  "0393124": {
    "zipcode": "0393124",
    "prefectureCode": "02",
    "prefectureNumber": 2,
    "prefecture": "青森県",
    "city": "上北郡野辺地町",
    "town": "白岩"
  },
  "0393125": {
    "zipcode": "0393125",
    "prefectureCode": "02",
    "prefectureNumber": 2,
    "prefecture": "青森県",
    "city": "上北郡野辺地町",
    "town": "坊ノ塚"
  },
  "0393126": {
    "zipcode": "0393126",
    "prefectureCode": "02",
    "prefectureNumber": 2,
    "prefecture": "青森県",
    "city": "上北郡野辺地町",
    "town": "下前田"
  },
  "0393127": {
    "zipcode": "0393127",
    "prefectureCode": "02",
    "prefectureNumber": 2,
    "prefecture": "青森県",
    "city": "上北郡野辺地町",
    "town": "上川原"
  },
  "0393128": {
    "zipcode": "0393128",
    "prefectureCode": "02",
    "prefectureNumber": 2,
    "prefecture": "青森県",
    "city": "上北郡野辺地町",
    "town": "昼場"
  },
  "0393129": {
    "zipcode": "0393129",
    "prefectureCode": "02",
    "prefectureNumber": 2,
    "prefecture": "青森県",
    "city": "上北郡野辺地町",
    "town": "餅粟川原"
  },
  "0393131": {
    "zipcode": "0393131",
    "prefectureCode": "02",
    "prefectureNumber": 2,
    "prefecture": "青森県",
    "city": "上北郡野辺地町",
    "town": "野辺地"
  },
  "0393141": {
    "zipcode": "0393141",
    "prefectureCode": "02",
    "prefectureNumber": 2,
    "prefecture": "青森県",
    "city": "上北郡野辺地町",
    "town": "鳴沢"
  },
  "0393142": {
    "zipcode": "0393142",
    "prefectureCode": "02",
    "prefectureNumber": 2,
    "prefecture": "青森県",
    "city": "上北郡野辺地町",
    "town": "久田"
  },
  "0393143": {
    "zipcode": "0393143",
    "prefectureCode": "02",
    "prefectureNumber": 2,
    "prefecture": "青森県",
    "city": "上北郡野辺地町",
    "town": "中屋敷"
  },
  "0393144": {
    "zipcode": "0393144",
    "prefectureCode": "02",
    "prefectureNumber": 2,
    "prefecture": "青森県",
    "city": "上北郡野辺地町",
    "town": "一ノ渡"
  },
  "0393145": {
    "zipcode": "0393145",
    "prefectureCode": "02",
    "prefectureNumber": 2,
    "prefecture": "青森県",
    "city": "上北郡野辺地町",
    "town": "松ノ木平"
  },
  "0393146": {
    "zipcode": "0393146",
    "prefectureCode": "02",
    "prefectureNumber": 2,
    "prefecture": "青森県",
    "city": "上北郡野辺地町",
    "town": "下松ノ木平"
  },
  "0393147": {
    "zipcode": "0393147",
    "prefectureCode": "02",
    "prefectureNumber": 2,
    "prefecture": "青森県",
    "city": "上北郡野辺地町",
    "town": "下与田川"
  },
  "0393148": {
    "zipcode": "0393148",
    "prefectureCode": "02",
    "prefectureNumber": 2,
    "prefecture": "青森県",
    "city": "上北郡野辺地町",
    "town": "与田川尻"
  },
  "0393151": {
    "zipcode": "0393151",
    "prefectureCode": "02",
    "prefectureNumber": 2,
    "prefecture": "青森県",
    "city": "上北郡野辺地町",
    "town": "白岩向"
  },
  "0393152": {
    "zipcode": "0393152",
    "prefectureCode": "02",
    "prefectureNumber": 2,
    "prefecture": "青森県",
    "city": "上北郡野辺地町",
    "town": "下小中野"
  },
  "0393153": {
    "zipcode": "0393153",
    "prefectureCode": "02",
    "prefectureNumber": 2,
    "prefecture": "青森県",
    "city": "上北郡野辺地町",
    "town": "中小中野"
  },
  "0393154": {
    "zipcode": "0393154",
    "prefectureCode": "02",
    "prefectureNumber": 2,
    "prefecture": "青森県",
    "city": "上北郡野辺地町",
    "town": "上小中野"
  },
  "0393155": {
    "zipcode": "0393155",
    "prefectureCode": "02",
    "prefectureNumber": 2,
    "prefecture": "青森県",
    "city": "上北郡野辺地町",
    "town": "切明"
  },
  "0393156": {
    "zipcode": "0393156",
    "prefectureCode": "02",
    "prefectureNumber": 2,
    "prefecture": "青森県",
    "city": "上北郡野辺地町",
    "town": "枇杷野"
  },
  "0393157": {
    "zipcode": "0393157",
    "prefectureCode": "02",
    "prefectureNumber": 2,
    "prefecture": "青森県",
    "city": "上北郡野辺地町",
    "town": "松ノ木"
  },
  "0393158": {
    "zipcode": "0393158",
    "prefectureCode": "02",
    "prefectureNumber": 2,
    "prefecture": "青森県",
    "city": "上北郡野辺地町",
    "town": "観音林後"
  },
  "0393159": {
    "zipcode": "0393159",
    "prefectureCode": "02",
    "prefectureNumber": 2,
    "prefecture": "青森県",
    "city": "上北郡野辺地町",
    "town": "観音林脇"
  },
  "0393161": {
    "zipcode": "0393161",
    "prefectureCode": "02",
    "prefectureNumber": 2,
    "prefecture": "青森県",
    "city": "上北郡野辺地町",
    "town": "馬門道"
  },
  "0393162": {
    "zipcode": "0393162",
    "prefectureCode": "02",
    "prefectureNumber": 2,
    "prefecture": "青森県",
    "city": "上北郡野辺地町",
    "town": "笹館"
  },
  "0393163": {
    "zipcode": "0393163",
    "prefectureCode": "02",
    "prefectureNumber": 2,
    "prefecture": "青森県",
    "city": "上北郡野辺地町",
    "town": "新町裏"
  },
  "0393164": {
    "zipcode": "0393164",
    "prefectureCode": "02",
    "prefectureNumber": 2,
    "prefecture": "青森県",
    "city": "上北郡野辺地町",
    "town": "前田"
  },
  "0393165": {
    "zipcode": "0393165",
    "prefectureCode": "02",
    "prefectureNumber": 2,
    "prefecture": "青森県",
    "city": "上北郡野辺地町",
    "town": "観音林前田"
  },
  "0393166": {
    "zipcode": "0393166",
    "prefectureCode": "02",
    "prefectureNumber": 2,
    "prefecture": "青森県",
    "city": "上北郡野辺地町",
    "town": "二本木向前田"
  },
  "0393167": {
    "zipcode": "0393167",
    "prefectureCode": "02",
    "prefectureNumber": 2,
    "prefecture": "青森県",
    "city": "上北郡野辺地町",
    "town": "二本木向"
  },
  "0393168": {
    "zipcode": "0393168",
    "prefectureCode": "02",
    "prefectureNumber": 2,
    "prefecture": "青森県",
    "city": "上北郡野辺地町",
    "town": "前平"
  },
  "0393171": {
    "zipcode": "0393171",
    "prefectureCode": "02",
    "prefectureNumber": 2,
    "prefecture": "青森県",
    "city": "上北郡野辺地町",
    "town": "御手洗瀬"
  },
  "0393172": {
    "zipcode": "0393172",
    "prefectureCode": "02",
    "prefectureNumber": 2,
    "prefecture": "青森県",
    "city": "上北郡野辺地町",
    "town": "鳥井平"
  },
  "0393173": {
    "zipcode": "0393173",
    "prefectureCode": "02",
    "prefectureNumber": 2,
    "prefecture": "青森県",
    "city": "上北郡野辺地町",
    "town": "陣場川原"
  },
  "0393174": {
    "zipcode": "0393174",
    "prefectureCode": "02",
    "prefectureNumber": 2,
    "prefecture": "青森県",
    "city": "上北郡野辺地町",
    "town": "田端"
  },
  "0393175": {
    "zipcode": "0393175",
    "prefectureCode": "02",
    "prefectureNumber": 2,
    "prefecture": "青森県",
    "city": "上北郡野辺地町",
    "town": "湯沢尻"
  },
  "0393176": {
    "zipcode": "0393176",
    "prefectureCode": "02",
    "prefectureNumber": 2,
    "prefecture": "青森県",
    "city": "上北郡野辺地町",
    "town": "中渡"
  },
  "0393177": {
    "zipcode": "0393177",
    "prefectureCode": "02",
    "prefectureNumber": 2,
    "prefecture": "青森県",
    "city": "上北郡野辺地町",
    "town": "八ノ木谷地"
  },
  "0393178": {
    "zipcode": "0393178",
    "prefectureCode": "02",
    "prefectureNumber": 2,
    "prefecture": "青森県",
    "city": "上北郡野辺地町",
    "town": "家ノ上"
  },
  "0393179": {
    "zipcode": "0393179",
    "prefectureCode": "02",
    "prefectureNumber": 2,
    "prefecture": "青森県",
    "city": "上北郡野辺地町",
    "town": "馬門"
  },
  "0393200": {
    "zipcode": "0393200",
    "prefectureCode": "02",
    "prefectureNumber": 2,
    "prefecture": "青森県",
    "city": "上北郡六ヶ所村",
    "town": "以下に掲載がない場合"
  },
  "0393211": {
    "zipcode": "0393211",
    "prefectureCode": "02",
    "prefectureNumber": 2,
    "prefecture": "青森県",
    "city": "上北郡六ヶ所村",
    "town": "出戸"
  },
  "0393212": {
    "zipcode": "0393212",
    "prefectureCode": "02",
    "prefectureNumber": 2,
    "prefecture": "青森県",
    "city": "上北郡六ヶ所村",
    "town": "尾駮"
  },
  "0393213": {
    "zipcode": "0393213",
    "prefectureCode": "02",
    "prefectureNumber": 2,
    "prefecture": "青森県",
    "city": "上北郡六ヶ所村",
    "town": "鷹架"
  },
  "0393214": {
    "zipcode": "0393214",
    "prefectureCode": "02",
    "prefectureNumber": 2,
    "prefecture": "青森県",
    "city": "上北郡六ヶ所村",
    "town": "平沼"
  },
  "0393215": {
    "zipcode": "0393215",
    "prefectureCode": "02",
    "prefectureNumber": 2,
    "prefecture": "青森県",
    "city": "上北郡六ヶ所村",
    "town": "倉内"
  },
  "0393300": {
    "zipcode": "0393300",
    "prefectureCode": "02",
    "prefectureNumber": 2,
    "prefecture": "青森県",
    "city": "東津軽郡平内町",
    "town": "以下に掲載がない場合"
  },
  "0393301": {
    "zipcode": "0393301",
    "prefectureCode": "02",
    "prefectureNumber": 2,
    "prefecture": "青森県",
    "city": "東津軽郡平内町",
    "town": "東田沢"
  },
  "0393302": {
    "zipcode": "0393302",
    "prefectureCode": "02",
    "prefectureNumber": 2,
    "prefecture": "青森県",
    "city": "東津軽郡平内町",
    "town": "白砂"
  },
  "0393303": {
    "zipcode": "0393303",
    "prefectureCode": "02",
    "prefectureNumber": 2,
    "prefecture": "青森県",
    "city": "東津軽郡平内町",
    "town": "東滝"
  },
  "0393311": {
    "zipcode": "0393311",
    "prefectureCode": "02",
    "prefectureNumber": 2,
    "prefecture": "青森県",
    "city": "東津軽郡平内町",
    "town": "福館"
  },
  "0393312": {
    "zipcode": "0393312",
    "prefectureCode": "02",
    "prefectureNumber": 2,
    "prefecture": "青森県",
    "city": "東津軽郡平内町",
    "town": "浅所"
  },
  "0393313": {
    "zipcode": "0393313",
    "prefectureCode": "02",
    "prefectureNumber": 2,
    "prefecture": "青森県",
    "city": "東津軽郡平内町",
    "town": "沼館"
  },
  "0393314": {
    "zipcode": "0393314",
    "prefectureCode": "02",
    "prefectureNumber": 2,
    "prefecture": "青森県",
    "city": "東津軽郡平内町",
    "town": "盛田"
  },
  "0393315": {
    "zipcode": "0393315",
    "prefectureCode": "02",
    "prefectureNumber": 2,
    "prefecture": "青森県",
    "city": "東津軽郡平内町",
    "town": "福島"
  },
  "0393321": {
    "zipcode": "0393321",
    "prefectureCode": "02",
    "prefectureNumber": 2,
    "prefecture": "青森県",
    "city": "東津軽郡平内町",
    "town": "小湊"
  },
  "0393331": {
    "zipcode": "0393331",
    "prefectureCode": "02",
    "prefectureNumber": 2,
    "prefecture": "青森県",
    "city": "東津軽郡平内町",
    "town": "浜子"
  },
  "0393332": {
    "zipcode": "0393332",
    "prefectureCode": "02",
    "prefectureNumber": 2,
    "prefecture": "青森県",
    "city": "東津軽郡平内町",
    "town": "清水川"
  },
  "0393333": {
    "zipcode": "0393333",
    "prefectureCode": "02",
    "prefectureNumber": 2,
    "prefecture": "青森県",
    "city": "東津軽郡平内町",
    "town": "松野木"
  },
  "0393341": {
    "zipcode": "0393341",
    "prefectureCode": "02",
    "prefectureNumber": 2,
    "prefecture": "青森県",
    "city": "東津軽郡平内町",
    "town": "薬師野"
  },
  "0393342": {
    "zipcode": "0393342",
    "prefectureCode": "02",
    "prefectureNumber": 2,
    "prefecture": "青森県",
    "city": "東津軽郡平内町",
    "town": "口広"
  },
  "0393343": {
    "zipcode": "0393343",
    "prefectureCode": "02",
    "prefectureNumber": 2,
    "prefecture": "青森県",
    "city": "東津軽郡平内町",
    "town": "狩場沢"
  },
  "0393351": {
    "zipcode": "0393351",
    "prefectureCode": "02",
    "prefectureNumber": 2,
    "prefecture": "青森県",
    "city": "東津軽郡平内町",
    "town": "外童子"
  },
  "0393352": {
    "zipcode": "0393352",
    "prefectureCode": "02",
    "prefectureNumber": 2,
    "prefecture": "青森県",
    "city": "東津軽郡平内町",
    "town": "内童子"
  },
  "0393353": {
    "zipcode": "0393353",
    "prefectureCode": "02",
    "prefectureNumber": 2,
    "prefecture": "青森県",
    "city": "東津軽郡平内町",
    "town": "田茂木"
  },
  "0393361": {
    "zipcode": "0393361",
    "prefectureCode": "02",
    "prefectureNumber": 2,
    "prefecture": "青森県",
    "city": "東津軽郡平内町",
    "town": "藤沢"
  },
  "0393362": {
    "zipcode": "0393362",
    "prefectureCode": "02",
    "prefectureNumber": 2,
    "prefecture": "青森県",
    "city": "東津軽郡平内町",
    "town": "増田"
  },
  "0393363": {
    "zipcode": "0393363",
    "prefectureCode": "02",
    "prefectureNumber": 2,
    "prefecture": "青森県",
    "city": "東津軽郡平内町",
    "town": "山口"
  },
  "0393364": {
    "zipcode": "0393364",
    "prefectureCode": "02",
    "prefectureNumber": 2,
    "prefecture": "青森県",
    "city": "東津軽郡平内町",
    "town": "小豆沢"
  },
  "0393371": {
    "zipcode": "0393371",
    "prefectureCode": "02",
    "prefectureNumber": 2,
    "prefecture": "青森県",
    "city": "東津軽郡平内町",
    "town": "中野"
  },
  "0393372": {
    "zipcode": "0393372",
    "prefectureCode": "02",
    "prefectureNumber": 2,
    "prefecture": "青森県",
    "city": "東津軽郡平内町",
    "town": "土屋"
  },
  "0393373": {
    "zipcode": "0393373",
    "prefectureCode": "02",
    "prefectureNumber": 2,
    "prefecture": "青森県",
    "city": "東津軽郡平内町",
    "town": "浪打"
  },
  "0393381": {
    "zipcode": "0393381",
    "prefectureCode": "02",
    "prefectureNumber": 2,
    "prefecture": "青森県",
    "city": "東津軽郡平内町",
    "town": "茂浦"
  },
  "0393382": {
    "zipcode": "0393382",
    "prefectureCode": "02",
    "prefectureNumber": 2,
    "prefecture": "青森県",
    "city": "東津軽郡平内町",
    "town": "稲生"
  },
  "0393501": {
    "zipcode": "0393501",
    "prefectureCode": "02",
    "prefectureNumber": 2,
    "prefecture": "青森県",
    "city": "青森市",
    "town": "浅虫"
  },
  "0393502": {
    "zipcode": "0393502",
    "prefectureCode": "02",
    "prefectureNumber": 2,
    "prefecture": "青森県",
    "city": "青森市",
    "town": "久栗坂"
  },
  "0393503": {
    "zipcode": "0393503",
    "prefectureCode": "02",
    "prefectureNumber": 2,
    "prefecture": "青森県",
    "city": "青森市",
    "town": "野内"
  },
  "0393504": {
    "zipcode": "0393504",
    "prefectureCode": "02",
    "prefectureNumber": 2,
    "prefecture": "青森県",
    "city": "青森市",
    "town": "矢田"
  },
  "0393505": {
    "zipcode": "0393505",
    "prefectureCode": "02",
    "prefectureNumber": 2,
    "prefecture": "青森県",
    "city": "青森市",
    "town": "宮田"
  },
  "0393506": {
    "zipcode": "0393506",
    "prefectureCode": "02",
    "prefectureNumber": 2,
    "prefecture": "青森県",
    "city": "青森市",
    "town": "三本木"
  },
  "0393507": {
    "zipcode": "0393507",
    "prefectureCode": "02",
    "prefectureNumber": 2,
    "prefecture": "青森県",
    "city": "青森市",
    "town": "馬屋尻"
  },
  "0393524": {
    "zipcode": "0393524",
    "prefectureCode": "02",
    "prefectureNumber": 2,
    "prefecture": "青森県",
    "city": "青森市",
    "town": "滝沢（その他）"
  },
  "0394100": {
    "zipcode": "0394100",
    "prefectureCode": "02",
    "prefectureNumber": 2,
    "prefecture": "青森県",
    "city": "上北郡横浜町",
    "town": "以下に掲載がない場合"
  },
  "0394101": {
    "zipcode": "0394101",
    "prefectureCode": "02",
    "prefectureNumber": 2,
    "prefecture": "青森県",
    "city": "上北郡横浜町",
    "town": "林尻"
  },
  "0394102": {
    "zipcode": "0394102",
    "prefectureCode": "02",
    "prefectureNumber": 2,
    "prefecture": "青森県",
    "city": "上北郡横浜町",
    "town": "浜田"
  },
  "0394103": {
    "zipcode": "0394103",
    "prefectureCode": "02",
    "prefectureNumber": 2,
    "prefecture": "青森県",
    "city": "上北郡横浜町",
    "town": "川太郎川目"
  },
  "0394104": {
    "zipcode": "0394104",
    "prefectureCode": "02",
    "prefectureNumber": 2,
    "prefecture": "青森県",
    "city": "上北郡横浜町",
    "town": "下苗代川目"
  },
  "0394105": {
    "zipcode": "0394105",
    "prefectureCode": "02",
    "prefectureNumber": 2,
    "prefecture": "青森県",
    "city": "上北郡横浜町",
    "town": "苗代川目"
  },
  "0394106": {
    "zipcode": "0394106",
    "prefectureCode": "02",
    "prefectureNumber": 2,
    "prefecture": "青森県",
    "city": "上北郡横浜町",
    "town": "有畑"
  },
  "0394111": {
    "zipcode": "0394111",
    "prefectureCode": "02",
    "prefectureNumber": 2,
    "prefecture": "青森県",
    "city": "上北郡横浜町",
    "town": "大畑"
  },
  "0394112": {
    "zipcode": "0394112",
    "prefectureCode": "02",
    "prefectureNumber": 2,
    "prefecture": "青森県",
    "city": "上北郡横浜町",
    "town": "夷ケ沢平"
  },
  "0394113": {
    "zipcode": "0394113",
    "prefectureCode": "02",
    "prefectureNumber": 2,
    "prefecture": "青森県",
    "city": "上北郡横浜町",
    "town": "家ノ前川目"
  },
  "0394114": {
    "zipcode": "0394114",
    "prefectureCode": "02",
    "prefectureNumber": 2,
    "prefecture": "青森県",
    "city": "上北郡横浜町",
    "town": "大豆田"
  },
  "0394115": {
    "zipcode": "0394115",
    "prefectureCode": "02",
    "prefectureNumber": 2,
    "prefecture": "青森県",
    "city": "上北郡横浜町",
    "town": "稲荷平"
  },
  "0394116": {
    "zipcode": "0394116",
    "prefectureCode": "02",
    "prefectureNumber": 2,
    "prefecture": "青森県",
    "city": "上北郡横浜町",
    "town": "中畑"
  },
  "0394117": {
    "zipcode": "0394117",
    "prefectureCode": "02",
    "prefectureNumber": 2,
    "prefecture": "青森県",
    "city": "上北郡横浜町",
    "town": "鶏沢"
  },
  "0394121": {
    "zipcode": "0394121",
    "prefectureCode": "02",
    "prefectureNumber": 2,
    "prefecture": "青森県",
    "city": "上北郡横浜町",
    "town": "桧木"
  },
  "0394122": {
    "zipcode": "0394122",
    "prefectureCode": "02",
    "prefectureNumber": 2,
    "prefecture": "青森県",
    "city": "上北郡横浜町",
    "town": "鶏ケ唄"
  },
  "0394123": {
    "zipcode": "0394123",
    "prefectureCode": "02",
    "prefectureNumber": 2,
    "prefecture": "青森県",
    "city": "上北郡横浜町",
    "town": "茅平"
  },
  "0394124": {
    "zipcode": "0394124",
    "prefectureCode": "02",
    "prefectureNumber": 2,
    "prefecture": "青森県",
    "city": "上北郡横浜町",
    "town": "川尻"
  },
  "0394131": {
    "zipcode": "0394131",
    "prefectureCode": "02",
    "prefectureNumber": 2,
    "prefecture": "青森県",
    "city": "上北郡横浜町",
    "town": "椛名木"
  },
  "0394132": {
    "zipcode": "0394132",
    "prefectureCode": "02",
    "prefectureNumber": 2,
    "prefecture": "青森県",
    "city": "上北郡横浜町",
    "town": "太郎須田"
  },
  "0394133": {
    "zipcode": "0394133",
    "prefectureCode": "02",
    "prefectureNumber": 2,
    "prefecture": "青森県",
    "city": "上北郡横浜町",
    "town": "舘の後"
  },
  "0394134": {
    "zipcode": "0394134",
    "prefectureCode": "02",
    "prefectureNumber": 2,
    "prefecture": "青森県",
    "city": "上北郡横浜町",
    "town": "林の脇"
  },
  "0394135": {
    "zipcode": "0394135",
    "prefectureCode": "02",
    "prefectureNumber": 2,
    "prefecture": "青森県",
    "city": "上北郡横浜町",
    "town": "林の後"
  },
  "0394136": {
    "zipcode": "0394136",
    "prefectureCode": "02",
    "prefectureNumber": 2,
    "prefecture": "青森県",
    "city": "上北郡横浜町",
    "town": "横浜"
  },
  "0394137": {
    "zipcode": "0394137",
    "prefectureCode": "02",
    "prefectureNumber": 2,
    "prefecture": "青森県",
    "city": "上北郡横浜町",
    "town": "下川原"
  },
  "0394138": {
    "zipcode": "0394138",
    "prefectureCode": "02",
    "prefectureNumber": 2,
    "prefecture": "青森県",
    "city": "上北郡横浜町",
    "town": "塚名平"
  },
  "0394141": {
    "zipcode": "0394141",
    "prefectureCode": "02",
    "prefectureNumber": 2,
    "prefecture": "青森県",
    "city": "上北郡横浜町",
    "town": "三保野"
  },
  "0394142": {
    "zipcode": "0394142",
    "prefectureCode": "02",
    "prefectureNumber": 2,
    "prefecture": "青森県",
    "city": "上北郡横浜町",
    "town": "上イタヤノ木"
  },
  "0394143": {
    "zipcode": "0394143",
    "prefectureCode": "02",
    "prefectureNumber": 2,
    "prefecture": "青森県",
    "city": "上北郡横浜町",
    "town": "屋敷形"
  },
  "0394144": {
    "zipcode": "0394144",
    "prefectureCode": "02",
    "prefectureNumber": 2,
    "prefecture": "青森県",
    "city": "上北郡横浜町",
    "town": "浜懸"
  },
  "0394145": {
    "zipcode": "0394145",
    "prefectureCode": "02",
    "prefectureNumber": 2,
    "prefecture": "青森県",
    "city": "上北郡横浜町",
    "town": "寺下"
  },
  "0394151": {
    "zipcode": "0394151",
    "prefectureCode": "02",
    "prefectureNumber": 2,
    "prefecture": "青森県",
    "city": "上北郡横浜町",
    "town": "向平"
  },
  "0394152": {
    "zipcode": "0394152",
    "prefectureCode": "02",
    "prefectureNumber": 2,
    "prefecture": "青森県",
    "city": "上北郡横浜町",
    "town": "百目木"
  },
  "0394153": {
    "zipcode": "0394153",
    "prefectureCode": "02",
    "prefectureNumber": 2,
    "prefecture": "青森県",
    "city": "上北郡横浜町",
    "town": "吹越"
  },
  "0394154": {
    "zipcode": "0394154",
    "prefectureCode": "02",
    "prefectureNumber": 2,
    "prefecture": "青森県",
    "city": "上北郡横浜町",
    "town": "明神平"
  },
  "0394155": {
    "zipcode": "0394155",
    "prefectureCode": "02",
    "prefectureNumber": 2,
    "prefecture": "青森県",
    "city": "上北郡横浜町",
    "town": "豊栄平"
  },
  "0394156": {
    "zipcode": "0394156",
    "prefectureCode": "02",
    "prefectureNumber": 2,
    "prefecture": "青森県",
    "city": "上北郡横浜町",
    "town": "雲雀平"
  },
  "0394157": {
    "zipcode": "0394157",
    "prefectureCode": "02",
    "prefectureNumber": 2,
    "prefecture": "青森県",
    "city": "上北郡横浜町",
    "town": "二又"
  },
  "0394221": {
    "zipcode": "0394221",
    "prefectureCode": "02",
    "prefectureNumber": 2,
    "prefecture": "青森県",
    "city": "下北郡東通村",
    "town": "猿ケ森"
  },
  "0394222": {
    "zipcode": "0394222",
    "prefectureCode": "02",
    "prefectureNumber": 2,
    "prefecture": "青森県",
    "city": "下北郡東通村",
    "town": "砂子又"
  },
  "0394223": {
    "zipcode": "0394223",
    "prefectureCode": "02",
    "prefectureNumber": 2,
    "prefecture": "青森県",
    "city": "下北郡東通村",
    "town": "小田野沢"
  },
  "0394224": {
    "zipcode": "0394224",
    "prefectureCode": "02",
    "prefectureNumber": 2,
    "prefecture": "青森県",
    "city": "下北郡東通村",
    "town": "白糠"
  },
  "0394301": {
    "zipcode": "0394301",
    "prefectureCode": "02",
    "prefectureNumber": 2,
    "prefecture": "青森県",
    "city": "上北郡六ヶ所村",
    "town": "泊"
  },
  "0394401": {
    "zipcode": "0394401",
    "prefectureCode": "02",
    "prefectureNumber": 2,
    "prefecture": "青森県",
    "city": "むつ市",
    "town": "大畑町"
  },
  "0394402": {
    "zipcode": "0394402",
    "prefectureCode": "02",
    "prefectureNumber": 2,
    "prefecture": "青森県",
    "city": "むつ市",
    "town": "大畑町正津川"
  },
  "0394500": {
    "zipcode": "0394500",
    "prefectureCode": "02",
    "prefectureNumber": 2,
    "prefecture": "青森県",
    "city": "下北郡風間浦村",
    "town": "以下に掲載がない場合"
  },
  "0394501": {
    "zipcode": "0394501",
    "prefectureCode": "02",
    "prefectureNumber": 2,
    "prefecture": "青森県",
    "city": "下北郡風間浦村",
    "town": "下風呂"
  },
  "0394502": {
    "zipcode": "0394502",
    "prefectureCode": "02",
    "prefectureNumber": 2,
    "prefecture": "青森県",
    "city": "下北郡風間浦村",
    "town": "易国間"
  },
  "0394503": {
    "zipcode": "0394503",
    "prefectureCode": "02",
    "prefectureNumber": 2,
    "prefecture": "青森県",
    "city": "下北郡風間浦村",
    "town": "蛇浦"
  },
  "0394600": {
    "zipcode": "0394600",
    "prefectureCode": "02",
    "prefectureNumber": 2,
    "prefecture": "青森県",
    "city": "下北郡大間町",
    "town": "以下に掲載がない場合"
  },
  "0394601": {
    "zipcode": "0394601",
    "prefectureCode": "02",
    "prefectureNumber": 2,
    "prefecture": "青森県",
    "city": "下北郡大間町",
    "town": "大間"
  },
  "0394602": {
    "zipcode": "0394602",
    "prefectureCode": "02",
    "prefectureNumber": 2,
    "prefecture": "青森県",
    "city": "下北郡大間町",
    "town": "奥戸"
  },
  "0394700": {
    "zipcode": "0394700",
    "prefectureCode": "02",
    "prefectureNumber": 2,
    "prefecture": "青森県",
    "city": "下北郡佐井村",
    "town": "以下に掲載がない場合"
  },
  "0394701": {
    "zipcode": "0394701",
    "prefectureCode": "02",
    "prefectureNumber": 2,
    "prefecture": "青森県",
    "city": "むつ市",
    "town": "川内町（板家戸、野平、福浦山）"
  },
  "0394711": {
    "zipcode": "0394711",
    "prefectureCode": "02",
    "prefectureNumber": 2,
    "prefecture": "青森県",
    "city": "下北郡佐井村",
    "town": "佐井"
  },
  "0394712": {
    "zipcode": "0394712",
    "prefectureCode": "02",
    "prefectureNumber": 2,
    "prefecture": "青森県",
    "city": "下北郡佐井村",
    "town": "長後"
  },
  "0395201": {
    "zipcode": "0395201",
    "prefectureCode": "02",
    "prefectureNumber": 2,
    "prefecture": "青森県",
    "city": "むつ市",
    "town": "川内町（その他）"
  },
  "0395202": {
    "zipcode": "0395202",
    "prefectureCode": "02",
    "prefectureNumber": 2,
    "prefecture": "青森県",
    "city": "むつ市",
    "town": "川内町桧川"
  },
  "0395203": {
    "zipcode": "0395203",
    "prefectureCode": "02",
    "prefectureNumber": 2,
    "prefecture": "青森県",
    "city": "むつ市",
    "town": "川内町宿野部"
  },
  "0395204": {
    "zipcode": "0395204",
    "prefectureCode": "02",
    "prefectureNumber": 2,
    "prefecture": "青森県",
    "city": "むつ市",
    "town": "川内町蛎崎（その他）"
  },
  "0395304": {
    "zipcode": "0395304",
    "prefectureCode": "02",
    "prefectureNumber": 2,
    "prefecture": "青森県",
    "city": "むつ市",
    "town": "川内町蛎崎（半右エ門沢）"
  },
  "0395321": {
    "zipcode": "0395321",
    "prefectureCode": "02",
    "prefectureNumber": 2,
    "prefecture": "青森県",
    "city": "むつ市",
    "town": "脇野沢源藤城"
  },
  "0395322": {
    "zipcode": "0395322",
    "prefectureCode": "02",
    "prefectureNumber": 2,
    "prefecture": "青森県",
    "city": "むつ市",
    "town": "脇野沢滝山"
  },
  "0395323": {
    "zipcode": "0395323",
    "prefectureCode": "02",
    "prefectureNumber": 2,
    "prefecture": "青森県",
    "city": "むつ市",
    "town": "脇野沢七引"
  },
  "0395324": {
    "zipcode": "0395324",
    "prefectureCode": "02",
    "prefectureNumber": 2,
    "prefecture": "青森県",
    "city": "むつ市",
    "town": "脇野沢田ノ頭"
  },
  "0395325": {
    "zipcode": "0395325",
    "prefectureCode": "02",
    "prefectureNumber": 2,
    "prefecture": "青森県",
    "city": "むつ市",
    "town": "脇野沢辰内"
  },
  "0395326": {
    "zipcode": "0395326",
    "prefectureCode": "02",
    "prefectureNumber": 2,
    "prefecture": "青森県",
    "city": "むつ市",
    "town": "脇野沢桂沢"
  },
  "0395327": {
    "zipcode": "0395327",
    "prefectureCode": "02",
    "prefectureNumber": 2,
    "prefecture": "青森県",
    "city": "むつ市",
    "town": "脇野沢本村"
  },
  "0395331": {
    "zipcode": "0395331",
    "prefectureCode": "02",
    "prefectureNumber": 2,
    "prefecture": "青森県",
    "city": "むつ市",
    "town": "脇野沢渡向"
  },
  "0395332": {
    "zipcode": "0395332",
    "prefectureCode": "02",
    "prefectureNumber": 2,
    "prefecture": "青森県",
    "city": "むつ市",
    "town": "脇野沢瀬野川目"
  },
  "0395333": {
    "zipcode": "0395333",
    "prefectureCode": "02",
    "prefectureNumber": 2,
    "prefecture": "青森県",
    "city": "むつ市",
    "town": "脇野沢黒岩"
  },
  "0395334": {
    "zipcode": "0395334",
    "prefectureCode": "02",
    "prefectureNumber": 2,
    "prefecture": "青森県",
    "city": "むつ市",
    "town": "脇野沢新井田"
  },
  "0395335": {
    "zipcode": "0395335",
    "prefectureCode": "02",
    "prefectureNumber": 2,
    "prefecture": "青森県",
    "city": "むつ市",
    "town": "脇野沢寄浪"
  },
  "0395336": {
    "zipcode": "0395336",
    "prefectureCode": "02",
    "prefectureNumber": 2,
    "prefecture": "青森県",
    "city": "むつ市",
    "town": "脇野沢蛸田"
  },
  "0395337": {
    "zipcode": "0395337",
    "prefectureCode": "02",
    "prefectureNumber": 2,
    "prefecture": "青森県",
    "city": "むつ市",
    "town": "脇野沢九艘泊"
  },
  "0395341": {
    "zipcode": "0395341",
    "prefectureCode": "02",
    "prefectureNumber": 2,
    "prefecture": "青森県",
    "city": "むつ市",
    "town": "脇野沢鹿間平"
  },
  "0395342": {
    "zipcode": "0395342",
    "prefectureCode": "02",
    "prefectureNumber": 2,
    "prefecture": "青森県",
    "city": "むつ市",
    "town": "脇野沢小沢"
  },
  "0395343": {
    "zipcode": "0395343",
    "prefectureCode": "02",
    "prefectureNumber": 2,
    "prefecture": "青森県",
    "city": "むつ市",
    "town": "脇野沢小サ沢"
  },
  "0395344": {
    "zipcode": "0395344",
    "prefectureCode": "02",
    "prefectureNumber": 2,
    "prefecture": "青森県",
    "city": "むつ市",
    "town": "脇野沢稲平"
  },
  "0395345": {
    "zipcode": "0395345",
    "prefectureCode": "02",
    "prefectureNumber": 2,
    "prefecture": "青森県",
    "city": "むつ市",
    "town": "脇野沢赤坂"
  },
  "0395346": {
    "zipcode": "0395346",
    "prefectureCode": "02",
    "prefectureNumber": 2,
    "prefecture": "青森県",
    "city": "むつ市",
    "town": "脇野沢口広"
  }
}
