{
  "0400000": {
    "zipcode": "0400000",
    "prefectureCode": "01",
    "prefectureNumber": 1,
    "prefecture": "北海道",
    "city": "函館市",
    "town": "以下に掲載がない場合"
  },
  "0400001": {
    "zipcode": "0400001",
    "prefectureCode": "01",
    "prefectureNumber": 1,
    "prefecture": "北海道",
    "city": "函館市",
    "town": "五稜郭町"
  },
  "0400002": {
    "zipcode": "0400002",
    "prefectureCode": "01",
    "prefectureNumber": 1,
    "prefecture": "北海道",
    "city": "函館市",
    "town": "柳町"
  },
  "0400003": {
    "zipcode": "0400003",
    "prefectureCode": "01",
    "prefectureNumber": 1,
    "prefecture": "北海道",
    "city": "函館市",
    "town": "松陰町"
  },
  "0400004": {
    "zipcode": "0400004",
    "prefectureCode": "01",
    "prefectureNumber": 1,
    "prefecture": "北海道",
    "city": "函館市",
    "town": "杉並町"
  },
  "0400005": {
    "zipcode": "0400005",
    "prefectureCode": "01",
    "prefectureNumber": 1,
    "prefecture": "北海道",
    "city": "函館市",
    "town": "人見町"
  },
  "0400011": {
    "zipcode": "0400011",
    "prefectureCode": "01",
    "prefectureNumber": 1,
    "prefecture": "北海道",
    "city": "函館市",
    "town": "本町"
  },
  "0400012": {
    "zipcode": "0400012",
    "prefectureCode": "01",
    "prefectureNumber": 1,
    "prefecture": "北海道",
    "city": "函館市",
    "town": "時任町"
  },
  "0400013": {
    "zipcode": "0400013",
    "prefectureCode": "01",
    "prefectureNumber": 1,
    "prefecture": "北海道",
    "city": "函館市",
    "town": "千代台町"
  },
  "0400014": {
    "zipcode": "0400014",
    "prefectureCode": "01",
    "prefectureNumber": 1,
    "prefecture": "北海道",
    "city": "函館市",
    "town": "中島町"
  },
  "0400015": {
    "zipcode": "0400015",
    "prefectureCode": "01",
    "prefectureNumber": 1,
    "prefecture": "北海道",
    "city": "函館市",
    "town": "梁川町"
  },
  "0400021": {
    "zipcode": "0400021",
    "prefectureCode": "01",
    "prefectureNumber": 1,
    "prefecture": "北海道",
    "city": "函館市",
    "town": "的場町"
  },
  "0400022": {
    "zipcode": "0400022",
    "prefectureCode": "01",
    "prefectureNumber": 1,
    "prefecture": "北海道",
    "city": "函館市",
    "town": "日乃出町"
  },
  "0400023": {
    "zipcode": "0400023",
    "prefectureCode": "01",
    "prefectureNumber": 1,
    "prefecture": "北海道",
    "city": "函館市",
    "town": "宇賀浦町"
  },
  "0400024": {
    "zipcode": "0400024",
    "prefectureCode": "01",
    "prefectureNumber": 1,
    "prefecture": "北海道",
    "city": "函館市",
    "town": "高盛町"
  },
  "0400025": {
    "zipcode": "0400025",
    "prefectureCode": "01",
    "prefectureNumber": 1,
    "prefecture": "北海道",
    "city": "函館市",
    "town": "堀川町"
  },
  "0400031": {
    "zipcode": "0400031",
    "prefectureCode": "01",
    "prefectureNumber": 1,
    "prefecture": "北海道",
    "city": "函館市",
    "town": "上新川町"
  },
  "0400032": {
    "zipcode": "0400032",
    "prefectureCode": "01",
    "prefectureNumber": 1,
    "prefecture": "北海道",
    "city": "函館市",
    "town": "新川町"
  },
  "0400033": {
    "zipcode": "0400033",
    "prefectureCode": "01",
    "prefectureNumber": 1,
    "prefecture": "北海道",
    "city": "函館市",
    "town": "千歳町"
  },
  "0400034": {
    "zipcode": "0400034",
    "prefectureCode": "01",
    "prefectureNumber": 1,
    "prefecture": "北海道",
    "city": "函館市",
    "town": "大森町"
  },
  "0400035": {
    "zipcode": "0400035",
    "prefectureCode": "01",
    "prefectureNumber": 1,
    "prefecture": "北海道",
    "city": "函館市",
    "town": "松風町"
  },
  "0400036": {
    "zipcode": "0400036",
    "prefectureCode": "01",
    "prefectureNumber": 1,
    "prefecture": "北海道",
    "city": "函館市",
    "town": "東雲町"
  },
  "0400037": {
    "zipcode": "0400037",
    "prefectureCode": "01",
    "prefectureNumber": 1,
    "prefecture": "北海道",
    "city": "函館市",
    "town": "旭町"
  },
  "0400041": {
    "zipcode": "0400041",
    "prefectureCode": "01",
    "prefectureNumber": 1,
    "prefecture": "北海道",
    "city": "函館市",
    "town": "栄町"
  },
  "0400042": {
    "zipcode": "0400042",
    "prefectureCode": "01",
    "prefectureNumber": 1,
    "prefecture": "北海道",
    "city": "函館市",
    "town": "東川町"
  },
  "0400043": {
    "zipcode": "0400043",
    "prefectureCode": "01",
    "prefectureNumber": 1,
    "prefecture": "北海道",
    "city": "函館市",
    "town": "宝来町"
  },
  "0400044": {
    "zipcode": "0400044",
    "prefectureCode": "01",
    "prefectureNumber": 1,
    "prefecture": "北海道",
    "city": "函館市",
    "town": "青柳町"
  },
  "0400045": {
    "zipcode": "0400045",
    "prefectureCode": "01",
    "prefectureNumber": 1,
    "prefecture": "北海道",
    "city": "函館市",
    "town": "住吉町"
  },
  "0400046": {
    "zipcode": "0400046",
    "prefectureCode": "01",
    "prefectureNumber": 1,
    "prefecture": "北海道",
    "city": "函館市",
    "town": "谷地頭町"
  },
  "0400051": {
    "zipcode": "0400051",
    "prefectureCode": "01",
    "prefectureNumber": 1,
    "prefecture": "北海道",
    "city": "函館市",
    "town": "弁天町"
  },
  "0400052": {
    "zipcode": "0400052",
    "prefectureCode": "01",
    "prefectureNumber": 1,
    "prefecture": "北海道",
    "city": "函館市",
    "town": "大町"
  },
  "0400053": {
    "zipcode": "0400053",
    "prefectureCode": "01",
    "prefectureNumber": 1,
    "prefecture": "北海道",
    "city": "函館市",
    "town": "末広町"
  },
  "0400054": {
    "zipcode": "0400054",
    "prefectureCode": "01",
    "prefectureNumber": 1,
    "prefecture": "北海道",
    "city": "函館市",
    "town": "元町"
  },
  "0400055": {
    "zipcode": "0400055",
    "prefectureCode": "01",
    "prefectureNumber": 1,
    "prefecture": "北海道",
    "city": "函館市",
    "town": "船見町"
  },
  "0400056": {
    "zipcode": "0400056",
    "prefectureCode": "01",
    "prefectureNumber": 1,
    "prefecture": "北海道",
    "city": "函館市",
    "town": "弥生町"
  },
  "0400057": {
    "zipcode": "0400057",
    "prefectureCode": "01",
    "prefectureNumber": 1,
    "prefecture": "北海道",
    "city": "函館市",
    "town": "入舟町"
  },
  "0400061": {
    "zipcode": "0400061",
    "prefectureCode": "01",
    "prefectureNumber": 1,
    "prefecture": "北海道",
    "city": "函館市",
    "town": "海岸町"
  },
  "0400062": {
    "zipcode": "0400062",
    "prefectureCode": "01",
    "prefectureNumber": 1,
    "prefecture": "北海道",
    "city": "函館市",
    "town": "大縄町"
  },
  "0400063": {
    "zipcode": "0400063",
    "prefectureCode": "01",
    "prefectureNumber": 1,
    "prefecture": "北海道",
    "city": "函館市",
    "town": "若松町"
  },
  "0400064": {
    "zipcode": "0400064",
    "prefectureCode": "01",
    "prefectureNumber": 1,
    "prefecture": "北海道",
    "city": "函館市",
    "town": "大手町"
  },
  "0400065": {
    "zipcode": "0400065",
    "prefectureCode": "01",
    "prefectureNumber": 1,
    "prefecture": "北海道",
    "city": "函館市",
    "town": "豊川町"
  },
  "0400071": {
    "zipcode": "0400071",
    "prefectureCode": "01",
    "prefectureNumber": 1,
    "prefecture": "北海道",
    "city": "函館市",
    "town": "追分町"
  },
  "0400072": {
    "zipcode": "0400072",
    "prefectureCode": "01",
    "prefectureNumber": 1,
    "prefecture": "北海道",
    "city": "函館市",
    "town": "亀田町"
  },
  "0400073": {
    "zipcode": "0400073",
    "prefectureCode": "01",
    "prefectureNumber": 1,
    "prefecture": "北海道",
    "city": "函館市",
    "town": "宮前町"
  },
  "0400074": {
    "zipcode": "0400074",
    "prefectureCode": "01",
    "prefectureNumber": 1,
    "prefecture": "北海道",
    "city": "函館市",
    "town": "松川町"
  },
  "0400075": {
    "zipcode": "0400075",
    "prefectureCode": "01",
    "prefectureNumber": 1,
    "prefecture": "北海道",
    "city": "函館市",
    "town": "万代町"
  },
  "0400076": {
    "zipcode": "0400076",
    "prefectureCode": "01",
    "prefectureNumber": 1,
    "prefecture": "北海道",
    "city": "函館市",
    "town": "浅野町"
  },
  "0400077": {
    "zipcode": "0400077",
    "prefectureCode": "01",
    "prefectureNumber": 1,
    "prefecture": "北海道",
    "city": "函館市",
    "town": "吉川町"
  },
  "0400078": {
    "zipcode": "0400078",
    "prefectureCode": "01",
    "prefectureNumber": 1,
    "prefecture": "北海道",
    "city": "函館市",
    "town": "北浜町"
  },
  "0400081": {
    "zipcode": "0400081",
    "prefectureCode": "01",
    "prefectureNumber": 1,
    "prefecture": "北海道",
    "city": "函館市",
    "town": "田家町"
  },
  "0400082": {
    "zipcode": "0400082",
    "prefectureCode": "01",
    "prefectureNumber": 1,
    "prefecture": "北海道",
    "city": "函館市",
    "town": "白鳥町"
  },
  "0400083": {
    "zipcode": "0400083",
    "prefectureCode": "01",
    "prefectureNumber": 1,
    "prefecture": "北海道",
    "city": "函館市",
    "town": "八幡町"
  },
  "0400084": {
    "zipcode": "0400084",
    "prefectureCode": "01",
    "prefectureNumber": 1,
    "prefecture": "北海道",
    "city": "函館市",
    "town": "大川町"
  }
}
