{
  "0420901": {
    "zipcode": "0420901",
    "prefectureCode": "01",
    "prefectureNumber": 1,
    "prefecture": "北海道",
    "city": "函館市",
    "town": "蛾眉野町"
  },
  "0420902": {
    "zipcode": "0420902",
    "prefectureCode": "01",
    "prefectureNumber": 1,
    "prefecture": "北海道",
    "city": "函館市",
    "town": "鉄山町"
  },
  "0420903": {
    "zipcode": "0420903",
    "prefectureCode": "01",
    "prefectureNumber": 1,
    "prefecture": "北海道",
    "city": "函館市",
    "town": "東畑町"
  },
  "0420904": {
    "zipcode": "0420904",
    "prefectureCode": "01",
    "prefectureNumber": 1,
    "prefecture": "北海道",
    "city": "函館市",
    "town": "庵原町"
  },
  "0420905": {
    "zipcode": "0420905",
    "prefectureCode": "01",
    "prefectureNumber": 1,
    "prefecture": "北海道",
    "city": "函館市",
    "town": "紅葉山町"
  },
  "0420906": {
    "zipcode": "0420906",
    "prefectureCode": "01",
    "prefectureNumber": 1,
    "prefecture": "北海道",
    "city": "函館市",
    "town": "三森町"
  },
  "0420907": {
    "zipcode": "0420907",
    "prefectureCode": "01",
    "prefectureNumber": 1,
    "prefecture": "北海道",
    "city": "函館市",
    "town": "鱒川町"
  },
  "0420908": {
    "zipcode": "0420908",
    "prefectureCode": "01",
    "prefectureNumber": 1,
    "prefecture": "北海道",
    "city": "函館市",
    "town": "銅山町"
  },
  "0420911": {
    "zipcode": "0420911",
    "prefectureCode": "01",
    "prefectureNumber": 1,
    "prefecture": "北海道",
    "city": "函館市",
    "town": "石倉町"
  },
  "0420912": {
    "zipcode": "0420912",
    "prefectureCode": "01",
    "prefectureNumber": 1,
    "prefecture": "北海道",
    "city": "函館市",
    "town": "中野町"
  },
  "0420913": {
    "zipcode": "0420913",
    "prefectureCode": "01",
    "prefectureNumber": 1,
    "prefecture": "北海道",
    "city": "函館市",
    "town": "赤坂町"
  },
  "0420914": {
    "zipcode": "0420914",
    "prefectureCode": "01",
    "prefectureNumber": 1,
    "prefecture": "北海道",
    "city": "函館市",
    "town": "上湯川町"
  },
  "0420915": {
    "zipcode": "0420915",
    "prefectureCode": "01",
    "prefectureNumber": 1,
    "prefecture": "北海道",
    "city": "函館市",
    "town": "西旭岡町"
  },
  "0420916": {
    "zipcode": "0420916",
    "prefectureCode": "01",
    "prefectureNumber": 1,
    "prefecture": "北海道",
    "city": "函館市",
    "town": "旭岡町"
  },
  "0420917": {
    "zipcode": "0420917",
    "prefectureCode": "01",
    "prefectureNumber": 1,
    "prefecture": "北海道",
    "city": "函館市",
    "town": "亀尾町"
  },
  "0420918": {
    "zipcode": "0420918",
    "prefectureCode": "01",
    "prefectureNumber": 1,
    "prefecture": "北海道",
    "city": "函館市",
    "town": "米原町"
  },
  "0420921": {
    "zipcode": "0420921",
    "prefectureCode": "01",
    "prefectureNumber": 1,
    "prefecture": "北海道",
    "city": "函館市",
    "town": "新湊町"
  },
  "0420922": {
    "zipcode": "0420922",
    "prefectureCode": "01",
    "prefectureNumber": 1,
    "prefecture": "北海道",
    "city": "函館市",
    "town": "銭亀町"
  },
  "0420923": {
    "zipcode": "0420923",
    "prefectureCode": "01",
    "prefectureNumber": 1,
    "prefecture": "北海道",
    "city": "函館市",
    "town": "志海苔町"
  },
  "0420924": {
    "zipcode": "0420924",
    "prefectureCode": "01",
    "prefectureNumber": 1,
    "prefecture": "北海道",
    "city": "函館市",
    "town": "根崎町"
  },
  "0420931": {
    "zipcode": "0420931",
    "prefectureCode": "01",
    "prefectureNumber": 1,
    "prefecture": "北海道",
    "city": "函館市",
    "town": "榎本町"
  },
  "0420932": {
    "zipcode": "0420932",
    "prefectureCode": "01",
    "prefectureNumber": 1,
    "prefecture": "北海道",
    "city": "函館市",
    "town": "湯川町"
  },
  "0420933": {
    "zipcode": "0420933",
    "prefectureCode": "01",
    "prefectureNumber": 1,
    "prefecture": "北海道",
    "city": "函館市",
    "town": "湯浜町"
  },
  "0420934": {
    "zipcode": "0420934",
    "prefectureCode": "01",
    "prefectureNumber": 1,
    "prefecture": "北海道",
    "city": "函館市",
    "town": "広野町"
  },
  "0420935": {
    "zipcode": "0420935",
    "prefectureCode": "01",
    "prefectureNumber": 1,
    "prefecture": "北海道",
    "city": "函館市",
    "town": "駒場町"
  },
  "0420941": {
    "zipcode": "0420941",
    "prefectureCode": "01",
    "prefectureNumber": 1,
    "prefecture": "北海道",
    "city": "函館市",
    "town": "深堀町"
  },
  "0420942": {
    "zipcode": "0420942",
    "prefectureCode": "01",
    "prefectureNumber": 1,
    "prefecture": "北海道",
    "city": "函館市",
    "town": "柏木町"
  },
  "0420943": {
    "zipcode": "0420943",
    "prefectureCode": "01",
    "prefectureNumber": 1,
    "prefecture": "北海道",
    "city": "函館市",
    "town": "乃木町"
  },
  "0420944": {
    "zipcode": "0420944",
    "prefectureCode": "01",
    "prefectureNumber": 1,
    "prefecture": "北海道",
    "city": "函館市",
    "town": "金堀町"
  },
  "0420951": {
    "zipcode": "0420951",
    "prefectureCode": "01",
    "prefectureNumber": 1,
    "prefecture": "北海道",
    "city": "函館市",
    "town": "瀬戸川町"
  },
  "0420952": {
    "zipcode": "0420952",
    "prefectureCode": "01",
    "prefectureNumber": 1,
    "prefecture": "北海道",
    "city": "函館市",
    "town": "高松町"
  },
  "0420953": {
    "zipcode": "0420953",
    "prefectureCode": "01",
    "prefectureNumber": 1,
    "prefecture": "北海道",
    "city": "函館市",
    "town": "戸倉町"
  },
  "0420954": {
    "zipcode": "0420954",
    "prefectureCode": "01",
    "prefectureNumber": 1,
    "prefecture": "北海道",
    "city": "函館市",
    "town": "上野町"
  },
  "0420955": {
    "zipcode": "0420955",
    "prefectureCode": "01",
    "prefectureNumber": 1,
    "prefecture": "北海道",
    "city": "函館市",
    "town": "高丘町"
  },
  "0420956": {
    "zipcode": "0420956",
    "prefectureCode": "01",
    "prefectureNumber": 1,
    "prefecture": "北海道",
    "city": "函館市",
    "town": "見晴町"
  },
  "0420957": {
    "zipcode": "0420957",
    "prefectureCode": "01",
    "prefectureNumber": 1,
    "prefecture": "北海道",
    "city": "函館市",
    "town": "滝沢町"
  },
  "0420958": {
    "zipcode": "0420958",
    "prefectureCode": "01",
    "prefectureNumber": 1,
    "prefecture": "北海道",
    "city": "函館市",
    "town": "鈴蘭丘町"
  }
}
