{
  "0440000": {
    "zipcode": "0440000",
    "prefectureCode": "01",
    "prefectureNumber": 1,
    "prefecture": "北海道",
    "city": "虻田郡倶知安町",
    "town": "以下に掲載がない場合"
  },
  "0440001": {
    "zipcode": "0440001",
    "prefectureCode": "01",
    "prefectureNumber": 1,
    "prefecture": "北海道",
    "city": "虻田郡倶知安町",
    "town": "北一条東"
  },
  "0440002": {
    "zipcode": "0440002",
    "prefectureCode": "01",
    "prefectureNumber": 1,
    "prefecture": "北海道",
    "city": "虻田郡倶知安町",
    "town": "北二条東"
  },
  "0440003": {
    "zipcode": "0440003",
    "prefectureCode": "01",
    "prefectureNumber": 1,
    "prefecture": "北海道",
    "city": "虻田郡倶知安町",
    "town": "北三条東"
  },
  "0440004": {
    "zipcode": "0440004",
    "prefectureCode": "01",
    "prefectureNumber": 1,
    "prefecture": "北海道",
    "city": "虻田郡倶知安町",
    "town": "北四条東"
  },
  "0440005": {
    "zipcode": "0440005",
    "prefectureCode": "01",
    "prefectureNumber": 1,
    "prefecture": "北海道",
    "city": "虻田郡倶知安町",
    "town": "北五条東"
  },
  "0440006": {
    "zipcode": "0440006",
    "prefectureCode": "01",
    "prefectureNumber": 1,
    "prefecture": "北海道",
    "city": "虻田郡倶知安町",
    "town": "北六条東"
  },
  "0440007": {
    "zipcode": "0440007",
    "prefectureCode": "01",
    "prefectureNumber": 1,
    "prefecture": "北海道",
    "city": "虻田郡倶知安町",
    "town": "北七条東"
  },
  "0440011": {
    "zipcode": "0440011",
    "prefectureCode": "01",
    "prefectureNumber": 1,
    "prefecture": "北海道",
    "city": "虻田郡倶知安町",
    "town": "南一条東"
  },
  "0440012": {
    "zipcode": "0440012",
    "prefectureCode": "01",
    "prefectureNumber": 1,
    "prefecture": "北海道",
    "city": "虻田郡倶知安町",
    "town": "南二条東"
  },
  "0440013": {
    "zipcode": "0440013",
    "prefectureCode": "01",
    "prefectureNumber": 1,
    "prefecture": "北海道",
    "city": "虻田郡倶知安町",
    "town": "南三条東"
  },
  "0440014": {
    "zipcode": "0440014",
    "prefectureCode": "01",
    "prefectureNumber": 1,
    "prefecture": "北海道",
    "city": "虻田郡倶知安町",
    "town": "南四条東"
  },
  "0440015": {
    "zipcode": "0440015",
    "prefectureCode": "01",
    "prefectureNumber": 1,
    "prefecture": "北海道",
    "city": "虻田郡倶知安町",
    "town": "南五条東"
  },
  "0440016": {
    "zipcode": "0440016",
    "prefectureCode": "01",
    "prefectureNumber": 1,
    "prefecture": "北海道",
    "city": "虻田郡倶知安町",
    "town": "南六条東"
  },
  "0440021": {
    "zipcode": "0440021",
    "prefectureCode": "01",
    "prefectureNumber": 1,
    "prefecture": "北海道",
    "city": "虻田郡倶知安町",
    "town": "南七条東"
  },
  "0440022": {
    "zipcode": "0440022",
    "prefectureCode": "01",
    "prefectureNumber": 1,
    "prefecture": "北海道",
    "city": "虻田郡倶知安町",
    "town": "南八条東"
  },
  "0440023": {
    "zipcode": "0440023",
    "prefectureCode": "01",
    "prefectureNumber": 1,
    "prefecture": "北海道",
    "city": "虻田郡倶知安町",
    "town": "南九条東"
  },
  "0440024": {
    "zipcode": "0440024",
    "prefectureCode": "01",
    "prefectureNumber": 1,
    "prefecture": "北海道",
    "city": "虻田郡倶知安町",
    "town": "南十条東"
  },
  "0440025": {
    "zipcode": "0440025",
    "prefectureCode": "01",
    "prefectureNumber": 1,
    "prefecture": "北海道",
    "city": "虻田郡倶知安町",
    "town": "南十一条東"
  },
  "0440031": {
    "zipcode": "0440031",
    "prefectureCode": "01",
    "prefectureNumber": 1,
    "prefecture": "北海道",
    "city": "虻田郡倶知安町",
    "town": "南一条西"
  },
  "0440032": {
    "zipcode": "0440032",
    "prefectureCode": "01",
    "prefectureNumber": 1,
    "prefecture": "北海道",
    "city": "虻田郡倶知安町",
    "town": "南二条西"
  },
  "0440033": {
    "zipcode": "0440033",
    "prefectureCode": "01",
    "prefectureNumber": 1,
    "prefecture": "北海道",
    "city": "虻田郡倶知安町",
    "town": "南三条西"
  },
  "0440034": {
    "zipcode": "0440034",
    "prefectureCode": "01",
    "prefectureNumber": 1,
    "prefecture": "北海道",
    "city": "虻田郡倶知安町",
    "town": "南四条西"
  },
  "0440035": {
    "zipcode": "0440035",
    "prefectureCode": "01",
    "prefectureNumber": 1,
    "prefecture": "北海道",
    "city": "虻田郡倶知安町",
    "town": "南五条西"
  },
  "0440036": {
    "zipcode": "0440036",
    "prefectureCode": "01",
    "prefectureNumber": 1,
    "prefecture": "北海道",
    "city": "虻田郡倶知安町",
    "town": "南六条西"
  },
  "0440041": {
    "zipcode": "0440041",
    "prefectureCode": "01",
    "prefectureNumber": 1,
    "prefecture": "北海道",
    "city": "虻田郡倶知安町",
    "town": "南七条西"
  },
  "0440042": {
    "zipcode": "0440042",
    "prefectureCode": "01",
    "prefectureNumber": 1,
    "prefecture": "北海道",
    "city": "虻田郡倶知安町",
    "town": "南八条西"
  },
  "0440043": {
    "zipcode": "0440043",
    "prefectureCode": "01",
    "prefectureNumber": 1,
    "prefecture": "北海道",
    "city": "虻田郡倶知安町",
    "town": "南九条西"
  },
  "0440044": {
    "zipcode": "0440044",
    "prefectureCode": "01",
    "prefectureNumber": 1,
    "prefecture": "北海道",
    "city": "虻田郡倶知安町",
    "town": "南十条西"
  },
  "0440045": {
    "zipcode": "0440045",
    "prefectureCode": "01",
    "prefectureNumber": 1,
    "prefecture": "北海道",
    "city": "虻田郡倶知安町",
    "town": "南十一条西"
  },
  "0440051": {
    "zipcode": "0440051",
    "prefectureCode": "01",
    "prefectureNumber": 1,
    "prefecture": "北海道",
    "city": "虻田郡倶知安町",
    "town": "北一条西"
  },
  "0440052": {
    "zipcode": "0440052",
    "prefectureCode": "01",
    "prefectureNumber": 1,
    "prefecture": "北海道",
    "city": "虻田郡倶知安町",
    "town": "北二条西"
  },
  "0440053": {
    "zipcode": "0440053",
    "prefectureCode": "01",
    "prefectureNumber": 1,
    "prefecture": "北海道",
    "city": "虻田郡倶知安町",
    "town": "北三条西"
  },
  "0440054": {
    "zipcode": "0440054",
    "prefectureCode": "01",
    "prefectureNumber": 1,
    "prefecture": "北海道",
    "city": "虻田郡倶知安町",
    "town": "北四条西"
  },
  "0440055": {
    "zipcode": "0440055",
    "prefectureCode": "01",
    "prefectureNumber": 1,
    "prefecture": "北海道",
    "city": "虻田郡倶知安町",
    "town": "北五条西"
  },
  "0440056": {
    "zipcode": "0440056",
    "prefectureCode": "01",
    "prefectureNumber": 1,
    "prefecture": "北海道",
    "city": "虻田郡倶知安町",
    "town": "北六条西"
  },
  "0440057": {
    "zipcode": "0440057",
    "prefectureCode": "01",
    "prefectureNumber": 1,
    "prefecture": "北海道",
    "city": "虻田郡倶知安町",
    "town": "北七条西"
  },
  "0440061": {
    "zipcode": "0440061",
    "prefectureCode": "01",
    "prefectureNumber": 1,
    "prefecture": "北海道",
    "city": "虻田郡倶知安町",
    "town": "大和"
  },
  "0440062": {
    "zipcode": "0440062",
    "prefectureCode": "01",
    "prefectureNumber": 1,
    "prefecture": "北海道",
    "city": "虻田郡倶知安町",
    "town": "扶桑"
  },
  "0440063": {
    "zipcode": "0440063",
    "prefectureCode": "01",
    "prefectureNumber": 1,
    "prefecture": "北海道",
    "city": "虻田郡倶知安町",
    "town": "末広"
  },
  "0440064": {
    "zipcode": "0440064",
    "prefectureCode": "01",
    "prefectureNumber": 1,
    "prefecture": "北海道",
    "city": "虻田郡倶知安町",
    "town": "出雲"
  },
  "0440065": {
    "zipcode": "0440065",
    "prefectureCode": "01",
    "prefectureNumber": 1,
    "prefecture": "北海道",
    "city": "虻田郡倶知安町",
    "town": "高見"
  },
  "0440066": {
    "zipcode": "0440066",
    "prefectureCode": "01",
    "prefectureNumber": 1,
    "prefecture": "北海道",
    "city": "虻田郡倶知安町",
    "town": "琴平"
  },
  "0440067": {
    "zipcode": "0440067",
    "prefectureCode": "01",
    "prefectureNumber": 1,
    "prefecture": "北海道",
    "city": "虻田郡倶知安町",
    "town": "瑞穂"
  },
  "0440068": {
    "zipcode": "0440068",
    "prefectureCode": "01",
    "prefectureNumber": 1,
    "prefecture": "北海道",
    "city": "虻田郡倶知安町",
    "town": "緑"
  },
  "0440071": {
    "zipcode": "0440071",
    "prefectureCode": "01",
    "prefectureNumber": 1,
    "prefecture": "北海道",
    "city": "虻田郡倶知安町",
    "town": "寒別"
  },
  "0440072": {
    "zipcode": "0440072",
    "prefectureCode": "01",
    "prefectureNumber": 1,
    "prefecture": "北海道",
    "city": "虻田郡倶知安町",
    "town": "八幡"
  },
  "0440073": {
    "zipcode": "0440073",
    "prefectureCode": "01",
    "prefectureNumber": 1,
    "prefecture": "北海道",
    "city": "虻田郡倶知安町",
    "town": "豊岡"
  },
  "0440074": {
    "zipcode": "0440074",
    "prefectureCode": "01",
    "prefectureNumber": 1,
    "prefecture": "北海道",
    "city": "虻田郡倶知安町",
    "town": "巽"
  },
  "0440075": {
    "zipcode": "0440075",
    "prefectureCode": "01",
    "prefectureNumber": 1,
    "prefecture": "北海道",
    "city": "虻田郡倶知安町",
    "town": "富士見"
  },
  "0440076": {
    "zipcode": "0440076",
    "prefectureCode": "01",
    "prefectureNumber": 1,
    "prefecture": "北海道",
    "city": "虻田郡倶知安町",
    "town": "高砂"
  },
  "0440077": {
    "zipcode": "0440077",
    "prefectureCode": "01",
    "prefectureNumber": 1,
    "prefecture": "北海道",
    "city": "虻田郡倶知安町",
    "town": "比羅夫"
  },
  "0440078": {
    "zipcode": "0440078",
    "prefectureCode": "01",
    "prefectureNumber": 1,
    "prefecture": "北海道",
    "city": "虻田郡倶知安町",
    "town": "樺山"
  },
  "0440080": {
    "zipcode": "0440080",
    "prefectureCode": "01",
    "prefectureNumber": 1,
    "prefecture": "北海道",
    "city": "虻田郡倶知安町",
    "town": "ニセコひらふ一条"
  },
  "0440081": {
    "zipcode": "0440081",
    "prefectureCode": "01",
    "prefectureNumber": 1,
    "prefecture": "北海道",
    "city": "虻田郡倶知安町",
    "town": "山田"
  },
  "0440082": {
    "zipcode": "0440082",
    "prefectureCode": "01",
    "prefectureNumber": 1,
    "prefecture": "北海道",
    "city": "虻田郡倶知安町",
    "town": "岩尾別"
  },
  "0440083": {
    "zipcode": "0440083",
    "prefectureCode": "01",
    "prefectureNumber": 1,
    "prefecture": "北海道",
    "city": "虻田郡倶知安町",
    "town": "旭"
  },
  "0440084": {
    "zipcode": "0440084",
    "prefectureCode": "01",
    "prefectureNumber": 1,
    "prefecture": "北海道",
    "city": "虻田郡倶知安町",
    "town": "花園"
  },
  "0440085": {
    "zipcode": "0440085",
    "prefectureCode": "01",
    "prefectureNumber": 1,
    "prefecture": "北海道",
    "city": "虻田郡倶知安町",
    "town": "峠下"
  },
  "0440086": {
    "zipcode": "0440086",
    "prefectureCode": "01",
    "prefectureNumber": 1,
    "prefecture": "北海道",
    "city": "虻田郡倶知安町",
    "town": "ニセコひらふ五条"
  },
  "0440087": {
    "zipcode": "0440087",
    "prefectureCode": "01",
    "prefectureNumber": 1,
    "prefecture": "北海道",
    "city": "虻田郡倶知安町",
    "town": "ニセコひらふ四条"
  },
  "0440088": {
    "zipcode": "0440088",
    "prefectureCode": "01",
    "prefectureNumber": 1,
    "prefecture": "北海道",
    "city": "虻田郡倶知安町",
    "town": "ニセコひらふ三条"
  },
  "0440089": {
    "zipcode": "0440089",
    "prefectureCode": "01",
    "prefectureNumber": 1,
    "prefecture": "北海道",
    "city": "虻田郡倶知安町",
    "town": "ニセコひらふ二条"
  },
  "0440100": {
    "zipcode": "0440100",
    "prefectureCode": "01",
    "prefectureNumber": 1,
    "prefecture": "北海道",
    "city": "虻田郡京極町",
    "town": "以下に掲載がない場合"
  },
  "0440101": {
    "zipcode": "0440101",
    "prefectureCode": "01",
    "prefectureNumber": 1,
    "prefecture": "北海道",
    "city": "虻田郡京極町",
    "town": "京極"
  },
  "0440111": {
    "zipcode": "0440111",
    "prefectureCode": "01",
    "prefectureNumber": 1,
    "prefecture": "北海道",
    "city": "虻田郡京極町",
    "town": "北岡"
  },
  "0440112": {
    "zipcode": "0440112",
    "prefectureCode": "01",
    "prefectureNumber": 1,
    "prefecture": "北海道",
    "city": "虻田郡京極町",
    "town": "春日"
  },
  "0440113": {
    "zipcode": "0440113",
    "prefectureCode": "01",
    "prefectureNumber": 1,
    "prefecture": "北海道",
    "city": "虻田郡京極町",
    "town": "松川"
  },
  "0440121": {
    "zipcode": "0440121",
    "prefectureCode": "01",
    "prefectureNumber": 1,
    "prefecture": "北海道",
    "city": "虻田郡京極町",
    "town": "三崎"
  },
  "0440122": {
    "zipcode": "0440122",
    "prefectureCode": "01",
    "prefectureNumber": 1,
    "prefecture": "北海道",
    "city": "虻田郡京極町",
    "town": "大富"
  },
  "0440123": {
    "zipcode": "0440123",
    "prefectureCode": "01",
    "prefectureNumber": 1,
    "prefecture": "北海道",
    "city": "虻田郡京極町",
    "town": "脇方"
  },
  "0440124": {
    "zipcode": "0440124",
    "prefectureCode": "01",
    "prefectureNumber": 1,
    "prefecture": "北海道",
    "city": "虻田郡京極町",
    "town": "錦"
  },
  "0440125": {
    "zipcode": "0440125",
    "prefectureCode": "01",
    "prefectureNumber": 1,
    "prefecture": "北海道",
    "city": "虻田郡京極町",
    "town": "東花"
  },
  "0440131": {
    "zipcode": "0440131",
    "prefectureCode": "01",
    "prefectureNumber": 1,
    "prefecture": "北海道",
    "city": "虻田郡京極町",
    "town": "川西"
  },
  "0440132": {
    "zipcode": "0440132",
    "prefectureCode": "01",
    "prefectureNumber": 1,
    "prefecture": "北海道",
    "city": "虻田郡京極町",
    "town": "更進"
  },
  "0440200": {
    "zipcode": "0440200",
    "prefectureCode": "01",
    "prefectureNumber": 1,
    "prefecture": "北海道",
    "city": "虻田郡喜茂別町",
    "town": "以下に掲載がない場合"
  },
  "0440201": {
    "zipcode": "0440201",
    "prefectureCode": "01",
    "prefectureNumber": 1,
    "prefecture": "北海道",
    "city": "虻田郡喜茂別町",
    "town": "緑町"
  },
  "0440211": {
    "zipcode": "0440211",
    "prefectureCode": "01",
    "prefectureNumber": 1,
    "prefecture": "北海道",
    "city": "虻田郡喜茂別町",
    "town": "富士見台"
  },
  "0440212": {
    "zipcode": "0440212",
    "prefectureCode": "01",
    "prefectureNumber": 1,
    "prefecture": "北海道",
    "city": "虻田郡喜茂別町",
    "town": "留産"
  },
  "0440213": {
    "zipcode": "0440213",
    "prefectureCode": "01",
    "prefectureNumber": 1,
    "prefecture": "北海道",
    "city": "虻田郡喜茂別町",
    "town": "比羅岡"
  },
  "0440214": {
    "zipcode": "0440214",
    "prefectureCode": "01",
    "prefectureNumber": 1,
    "prefecture": "北海道",
    "city": "虻田郡喜茂別町",
    "town": "尻別"
  },
  "0440215": {
    "zipcode": "0440215",
    "prefectureCode": "01",
    "prefectureNumber": 1,
    "prefecture": "北海道",
    "city": "虻田郡喜茂別町",
    "town": "相川"
  },
  "0440221": {
    "zipcode": "0440221",
    "prefectureCode": "01",
    "prefectureNumber": 1,
    "prefecture": "北海道",
    "city": "虻田郡喜茂別町",
    "town": "伏見"
  },
  "0440222": {
    "zipcode": "0440222",
    "prefectureCode": "01",
    "prefectureNumber": 1,
    "prefecture": "北海道",
    "city": "虻田郡喜茂別町",
    "town": "栄"
  },
  "0440223": {
    "zipcode": "0440223",
    "prefectureCode": "01",
    "prefectureNumber": 1,
    "prefecture": "北海道",
    "city": "虻田郡喜茂別町",
    "town": "川上"
  },
  "0440224": {
    "zipcode": "0440224",
    "prefectureCode": "01",
    "prefectureNumber": 1,
    "prefecture": "北海道",
    "city": "虻田郡喜茂別町",
    "town": "知来別"
  },
  "0440225": {
    "zipcode": "0440225",
    "prefectureCode": "01",
    "prefectureNumber": 1,
    "prefecture": "北海道",
    "city": "虻田郡喜茂別町",
    "town": "福島"
  },
  "0440441": {
    "zipcode": "0440441",
    "prefectureCode": "01",
    "prefectureNumber": 1,
    "prefecture": "北海道",
    "city": "伊達市",
    "town": "大滝区愛地町"
  },
  "0440442": {
    "zipcode": "0440442",
    "prefectureCode": "01",
    "prefectureNumber": 1,
    "prefecture": "北海道",
    "city": "伊達市",
    "town": "大滝区宮城町"
  },
  "0440443": {
    "zipcode": "0440443",
    "prefectureCode": "01",
    "prefectureNumber": 1,
    "prefecture": "北海道",
    "city": "伊達市",
    "town": "大滝区清原町"
  },
  "0440444": {
    "zipcode": "0440444",
    "prefectureCode": "01",
    "prefectureNumber": 1,
    "prefecture": "北海道",
    "city": "伊達市",
    "town": "大滝区豊里町"
  },
  "0440451": {
    "zipcode": "0440451",
    "prefectureCode": "01",
    "prefectureNumber": 1,
    "prefecture": "北海道",
    "city": "虻田郡喜茂別町",
    "town": "鈴川"
  },
  "0440452": {
    "zipcode": "0440452",
    "prefectureCode": "01",
    "prefectureNumber": 1,
    "prefecture": "北海道",
    "city": "虻田郡喜茂別町",
    "town": "福丘"
  },
  "0440453": {
    "zipcode": "0440453",
    "prefectureCode": "01",
    "prefectureNumber": 1,
    "prefecture": "北海道",
    "city": "虻田郡喜茂別町",
    "town": "御園"
  },
  "0440454": {
    "zipcode": "0440454",
    "prefectureCode": "01",
    "prefectureNumber": 1,
    "prefecture": "北海道",
    "city": "虻田郡喜茂別町",
    "town": "金山"
  },
  "0440461": {
    "zipcode": "0440461",
    "prefectureCode": "01",
    "prefectureNumber": 1,
    "prefecture": "北海道",
    "city": "虻田郡喜茂別町",
    "town": "福里"
  },
  "0440462": {
    "zipcode": "0440462",
    "prefectureCode": "01",
    "prefectureNumber": 1,
    "prefecture": "北海道",
    "city": "虻田郡喜茂別町",
    "town": "花丘"
  },
  "0440463": {
    "zipcode": "0440463",
    "prefectureCode": "01",
    "prefectureNumber": 1,
    "prefecture": "北海道",
    "city": "虻田郡喜茂別町",
    "town": "双葉"
  }
}
