{
  "0450000": {
    "zipcode": "0450000",
    "prefectureCode": "01",
    "prefectureNumber": 1,
    "prefecture": "北海道",
    "city": "岩内郡岩内町",
    "town": "以下に掲載がない場合"
  },
  "0450001": {
    "zipcode": "0450001",
    "prefectureCode": "01",
    "prefectureNumber": 1,
    "prefecture": "北海道",
    "city": "岩内郡岩内町",
    "town": "大浜"
  },
  "0450002": {
    "zipcode": "0450002",
    "prefectureCode": "01",
    "prefectureNumber": 1,
    "prefecture": "北海道",
    "city": "岩内郡岩内町",
    "town": "東山"
  },
  "0450003": {
    "zipcode": "0450003",
    "prefectureCode": "01",
    "prefectureNumber": 1,
    "prefecture": "北海道",
    "city": "岩内郡岩内町",
    "town": "万代"
  },
  "0450011": {
    "zipcode": "0450011",
    "prefectureCode": "01",
    "prefectureNumber": 1,
    "prefecture": "北海道",
    "city": "岩内郡岩内町",
    "town": "栄"
  },
  "0450012": {
    "zipcode": "0450012",
    "prefectureCode": "01",
    "prefectureNumber": 1,
    "prefecture": "北海道",
    "city": "岩内郡岩内町",
    "town": "宮園"
  },
  "0450013": {
    "zipcode": "0450013",
    "prefectureCode": "01",
    "prefectureNumber": 1,
    "prefecture": "北海道",
    "city": "岩内郡岩内町",
    "town": "高台"
  },
  "0450021": {
    "zipcode": "0450021",
    "prefectureCode": "01",
    "prefectureNumber": 1,
    "prefecture": "北海道",
    "city": "岩内郡岩内町",
    "town": "大和"
  },
  "0450022": {
    "zipcode": "0450022",
    "prefectureCode": "01",
    "prefectureNumber": 1,
    "prefecture": "北海道",
    "city": "岩内郡岩内町",
    "town": "清住"
  },
  "0450023": {
    "zipcode": "0450023",
    "prefectureCode": "01",
    "prefectureNumber": 1,
    "prefecture": "北海道",
    "city": "岩内郡岩内町",
    "town": "相生"
  },
  "0450024": {
    "zipcode": "0450024",
    "prefectureCode": "01",
    "prefectureNumber": 1,
    "prefecture": "北海道",
    "city": "岩内郡岩内町",
    "town": "野束"
  },
  "0450025": {
    "zipcode": "0450025",
    "prefectureCode": "01",
    "prefectureNumber": 1,
    "prefecture": "北海道",
    "city": "岩内郡岩内町",
    "town": "敷島内"
  },
  "0450026": {
    "zipcode": "0450026",
    "prefectureCode": "01",
    "prefectureNumber": 1,
    "prefecture": "北海道",
    "city": "岩内郡岩内町",
    "town": "御崎"
  },
  "0450031": {
    "zipcode": "0450031",
    "prefectureCode": "01",
    "prefectureNumber": 1,
    "prefecture": "北海道",
    "city": "岩内郡共和町",
    "town": "梨野舞納"
  },
  "0450032": {
    "zipcode": "0450032",
    "prefectureCode": "01",
    "prefectureNumber": 1,
    "prefecture": "北海道",
    "city": "岩内郡共和町",
    "town": "老古美"
  },
  "0450121": {
    "zipcode": "0450121",
    "prefectureCode": "01",
    "prefectureNumber": 1,
    "prefecture": "北海道",
    "city": "岩内郡共和町",
    "town": "幌似"
  },
  "0450122": {
    "zipcode": "0450122",
    "prefectureCode": "01",
    "prefectureNumber": 1,
    "prefecture": "北海道",
    "city": "岩内郡共和町",
    "town": "発足"
  },
  "0450123": {
    "zipcode": "0450123",
    "prefectureCode": "01",
    "prefectureNumber": 1,
    "prefecture": "北海道",
    "city": "岩内郡共和町",
    "town": "宮丘"
  },
  "0450200": {
    "zipcode": "0450200",
    "prefectureCode": "01",
    "prefectureNumber": 1,
    "prefecture": "北海道",
    "city": "古宇郡泊村",
    "town": "以下に掲載がない場合"
  },
  "0450201": {
    "zipcode": "0450201",
    "prefectureCode": "01",
    "prefectureNumber": 1,
    "prefecture": "北海道",
    "city": "古宇郡泊村",
    "town": "堀株村"
  },
  "0450202": {
    "zipcode": "0450202",
    "prefectureCode": "01",
    "prefectureNumber": 1,
    "prefecture": "北海道",
    "city": "古宇郡泊村",
    "town": "茅沼村"
  },
  "0450203": {
    "zipcode": "0450203",
    "prefectureCode": "01",
    "prefectureNumber": 1,
    "prefecture": "北海道",
    "city": "古宇郡泊村",
    "town": "泊村"
  },
  "0450204": {
    "zipcode": "0450204",
    "prefectureCode": "01",
    "prefectureNumber": 1,
    "prefecture": "北海道",
    "city": "古宇郡泊村",
    "town": "盃村"
  },
  "0450205": {
    "zipcode": "0450205",
    "prefectureCode": "01",
    "prefectureNumber": 1,
    "prefecture": "北海道",
    "city": "古宇郡泊村",
    "town": "興志内村"
  },
  "0450300": {
    "zipcode": "0450300",
    "prefectureCode": "01",
    "prefectureNumber": 1,
    "prefecture": "北海道",
    "city": "古宇郡神恵内村",
    "town": "以下に掲載がない場合"
  },
  "0450301": {
    "zipcode": "0450301",
    "prefectureCode": "01",
    "prefectureNumber": 1,
    "prefecture": "北海道",
    "city": "古宇郡神恵内村",
    "town": "神恵内村"
  },
  "0450302": {
    "zipcode": "0450302",
    "prefectureCode": "01",
    "prefectureNumber": 1,
    "prefecture": "北海道",
    "city": "古宇郡神恵内村",
    "town": "赤石村"
  },
  "0450303": {
    "zipcode": "0450303",
    "prefectureCode": "01",
    "prefectureNumber": 1,
    "prefecture": "北海道",
    "city": "古宇郡神恵内村",
    "town": "珊内村"
  }
}
