{
  "0460000": {
    "zipcode": "0460000",
    "prefectureCode": "01",
    "prefectureNumber": 1,
    "prefecture": "北海道",
    "city": "余市郡余市町",
    "town": "以下に掲載がない場合"
  },
  "0460001": {
    "zipcode": "0460001",
    "prefectureCode": "01",
    "prefectureNumber": 1,
    "prefecture": "北海道",
    "city": "余市郡余市町",
    "town": "栄町"
  },
  "0460002": {
    "zipcode": "0460002",
    "prefectureCode": "01",
    "prefectureNumber": 1,
    "prefecture": "北海道",
    "city": "余市郡余市町",
    "town": "登町"
  },
  "0460003": {
    "zipcode": "0460003",
    "prefectureCode": "01",
    "prefectureNumber": 1,
    "prefecture": "北海道",
    "city": "余市郡余市町",
    "town": "黒川町"
  },
  "0460004": {
    "zipcode": "0460004",
    "prefectureCode": "01",
    "prefectureNumber": 1,
    "prefecture": "北海道",
    "city": "余市郡余市町",
    "town": "大川町"
  },
  "0460011": {
    "zipcode": "0460011",
    "prefectureCode": "01",
    "prefectureNumber": 1,
    "prefecture": "北海道",
    "city": "余市郡余市町",
    "town": "入舟町"
  },
  "0460012": {
    "zipcode": "0460012",
    "prefectureCode": "01",
    "prefectureNumber": 1,
    "prefecture": "北海道",
    "city": "余市郡余市町",
    "town": "山田町"
  },
  "0460013": {
    "zipcode": "0460013",
    "prefectureCode": "01",
    "prefectureNumber": 1,
    "prefecture": "北海道",
    "city": "余市郡余市町",
    "town": "豊丘町"
  },
  "0460014": {
    "zipcode": "0460014",
    "prefectureCode": "01",
    "prefectureNumber": 1,
    "prefecture": "北海道",
    "city": "余市郡余市町",
    "town": "美園町"
  },
  "0460015": {
    "zipcode": "0460015",
    "prefectureCode": "01",
    "prefectureNumber": 1,
    "prefecture": "北海道",
    "city": "余市郡余市町",
    "town": "朝日町"
  },
  "0460021": {
    "zipcode": "0460021",
    "prefectureCode": "01",
    "prefectureNumber": 1,
    "prefecture": "北海道",
    "city": "余市郡余市町",
    "town": "浜中町"
  },
  "0460022": {
    "zipcode": "0460022",
    "prefectureCode": "01",
    "prefectureNumber": 1,
    "prefecture": "北海道",
    "city": "余市郡余市町",
    "town": "沢町"
  },
  "0460023": {
    "zipcode": "0460023",
    "prefectureCode": "01",
    "prefectureNumber": 1,
    "prefecture": "北海道",
    "city": "余市郡余市町",
    "town": "梅川町"
  },
  "0460024": {
    "zipcode": "0460024",
    "prefectureCode": "01",
    "prefectureNumber": 1,
    "prefecture": "北海道",
    "city": "余市郡余市町",
    "town": "港町"
  },
  "0460025": {
    "zipcode": "0460025",
    "prefectureCode": "01",
    "prefectureNumber": 1,
    "prefecture": "北海道",
    "city": "余市郡余市町",
    "town": "富沢町"
  },
  "0460031": {
    "zipcode": "0460031",
    "prefectureCode": "01",
    "prefectureNumber": 1,
    "prefecture": "北海道",
    "city": "余市郡余市町",
    "town": "白岩町"
  },
  "0460032": {
    "zipcode": "0460032",
    "prefectureCode": "01",
    "prefectureNumber": 1,
    "prefecture": "北海道",
    "city": "余市郡余市町",
    "town": "豊浜町"
  },
  "0460033": {
    "zipcode": "0460033",
    "prefectureCode": "01",
    "prefectureNumber": 1,
    "prefecture": "北海道",
    "city": "余市郡余市町",
    "town": "潮見町"
  },
  "0460100": {
    "zipcode": "0460100",
    "prefectureCode": "01",
    "prefectureNumber": 1,
    "prefecture": "北海道",
    "city": "古平郡古平町",
    "town": "以下に掲載がない場合"
  },
  "0460101": {
    "zipcode": "0460101",
    "prefectureCode": "01",
    "prefectureNumber": 1,
    "prefecture": "北海道",
    "city": "古平郡古平町",
    "town": "御崎町"
  },
  "0460102": {
    "zipcode": "0460102",
    "prefectureCode": "01",
    "prefectureNumber": 1,
    "prefecture": "北海道",
    "city": "古平郡古平町",
    "town": "丸山町"
  },
  "0460103": {
    "zipcode": "0460103",
    "prefectureCode": "01",
    "prefectureNumber": 1,
    "prefecture": "北海道",
    "city": "古平郡古平町",
    "town": "本町"
  },
  "0460104": {
    "zipcode": "0460104",
    "prefectureCode": "01",
    "prefectureNumber": 1,
    "prefecture": "北海道",
    "city": "古平郡古平町",
    "town": "入船町"
  },
  "0460111": {
    "zipcode": "0460111",
    "prefectureCode": "01",
    "prefectureNumber": 1,
    "prefecture": "北海道",
    "city": "古平郡古平町",
    "town": "群来町"
  },
  "0460112": {
    "zipcode": "0460112",
    "prefectureCode": "01",
    "prefectureNumber": 1,
    "prefecture": "北海道",
    "city": "古平郡古平町",
    "town": "新地町"
  },
  "0460113": {
    "zipcode": "0460113",
    "prefectureCode": "01",
    "prefectureNumber": 1,
    "prefecture": "北海道",
    "city": "古平郡古平町",
    "town": "港町"
  },
  "0460121": {
    "zipcode": "0460121",
    "prefectureCode": "01",
    "prefectureNumber": 1,
    "prefecture": "北海道",
    "city": "古平郡古平町",
    "town": "浜町"
  },
  "0460131": {
    "zipcode": "0460131",
    "prefectureCode": "01",
    "prefectureNumber": 1,
    "prefecture": "北海道",
    "city": "古平郡古平町",
    "town": "沢江町"
  },
  "0460132": {
    "zipcode": "0460132",
    "prefectureCode": "01",
    "prefectureNumber": 1,
    "prefecture": "北海道",
    "city": "古平郡古平町",
    "town": "歌棄町"
  },
  "0460133": {
    "zipcode": "0460133",
    "prefectureCode": "01",
    "prefectureNumber": 1,
    "prefecture": "北海道",
    "city": "古平郡古平町",
    "town": "沖町"
  },
  "0460200": {
    "zipcode": "0460200",
    "prefectureCode": "01",
    "prefectureNumber": 1,
    "prefecture": "北海道",
    "city": "積丹郡積丹町",
    "town": "以下に掲載がない場合"
  },
  "0460201": {
    "zipcode": "0460201",
    "prefectureCode": "01",
    "prefectureNumber": 1,
    "prefecture": "北海道",
    "city": "積丹郡積丹町",
    "town": "美国町"
  },
  "0460202": {
    "zipcode": "0460202",
    "prefectureCode": "01",
    "prefectureNumber": 1,
    "prefecture": "北海道",
    "city": "積丹郡積丹町",
    "town": "婦美町"
  },
  "0460321": {
    "zipcode": "0460321",
    "prefectureCode": "01",
    "prefectureNumber": 1,
    "prefecture": "北海道",
    "city": "積丹郡積丹町",
    "town": "神岬町"
  },
  "0460322": {
    "zipcode": "0460322",
    "prefectureCode": "01",
    "prefectureNumber": 1,
    "prefecture": "北海道",
    "city": "積丹郡積丹町",
    "town": "余別町"
  },
  "0460323": {
    "zipcode": "0460323",
    "prefectureCode": "01",
    "prefectureNumber": 1,
    "prefecture": "北海道",
    "city": "積丹郡積丹町",
    "town": "来岸町"
  },
  "0460324": {
    "zipcode": "0460324",
    "prefectureCode": "01",
    "prefectureNumber": 1,
    "prefecture": "北海道",
    "city": "積丹郡積丹町",
    "town": "西河町"
  },
  "0460325": {
    "zipcode": "0460325",
    "prefectureCode": "01",
    "prefectureNumber": 1,
    "prefecture": "北海道",
    "city": "積丹郡積丹町",
    "town": "野塚町"
  },
  "0460326": {
    "zipcode": "0460326",
    "prefectureCode": "01",
    "prefectureNumber": 1,
    "prefecture": "北海道",
    "city": "積丹郡積丹町",
    "town": "日司町"
  },
  "0460327": {
    "zipcode": "0460327",
    "prefectureCode": "01",
    "prefectureNumber": 1,
    "prefecture": "北海道",
    "city": "積丹郡積丹町",
    "town": "入舸町"
  },
  "0460328": {
    "zipcode": "0460328",
    "prefectureCode": "01",
    "prefectureNumber": 1,
    "prefecture": "北海道",
    "city": "積丹郡積丹町",
    "town": "幌武意町"
  },
  "0460500": {
    "zipcode": "0460500",
    "prefectureCode": "01",
    "prefectureNumber": 1,
    "prefecture": "北海道",
    "city": "余市郡赤井川村",
    "town": "以下に掲載がない場合"
  },
  "0460501": {
    "zipcode": "0460501",
    "prefectureCode": "01",
    "prefectureNumber": 1,
    "prefecture": "北海道",
    "city": "余市郡赤井川村",
    "town": "赤井川"
  },
  "0460511": {
    "zipcode": "0460511",
    "prefectureCode": "01",
    "prefectureNumber": 1,
    "prefecture": "北海道",
    "city": "余市郡赤井川村",
    "town": "日ノ出"
  },
  "0460512": {
    "zipcode": "0460512",
    "prefectureCode": "01",
    "prefectureNumber": 1,
    "prefecture": "北海道",
    "city": "余市郡赤井川村",
    "town": "山梨"
  },
  "0460521": {
    "zipcode": "0460521",
    "prefectureCode": "01",
    "prefectureNumber": 1,
    "prefecture": "北海道",
    "city": "余市郡赤井川村",
    "town": "池田"
  },
  "0460531": {
    "zipcode": "0460531",
    "prefectureCode": "01",
    "prefectureNumber": 1,
    "prefecture": "北海道",
    "city": "余市郡赤井川村",
    "town": "旭丘"
  },
  "0460532": {
    "zipcode": "0460532",
    "prefectureCode": "01",
    "prefectureNumber": 1,
    "prefecture": "北海道",
    "city": "余市郡赤井川村",
    "town": "富田"
  },
  "0460541": {
    "zipcode": "0460541",
    "prefectureCode": "01",
    "prefectureNumber": 1,
    "prefecture": "北海道",
    "city": "余市郡赤井川村",
    "town": "都"
  },
  "0460542": {
    "zipcode": "0460542",
    "prefectureCode": "01",
    "prefectureNumber": 1,
    "prefecture": "北海道",
    "city": "余市郡赤井川村",
    "town": "曲川"
  },
  "0460551": {
    "zipcode": "0460551",
    "prefectureCode": "01",
    "prefectureNumber": 1,
    "prefecture": "北海道",
    "city": "余市郡赤井川村",
    "town": "轟"
  },
  "0460552": {
    "zipcode": "0460552",
    "prefectureCode": "01",
    "prefectureNumber": 1,
    "prefecture": "北海道",
    "city": "余市郡赤井川村",
    "town": "明治"
  },
  "0460561": {
    "zipcode": "0460561",
    "prefectureCode": "01",
    "prefectureNumber": 1,
    "prefecture": "北海道",
    "city": "余市郡赤井川村",
    "town": "落合"
  },
  "0460571": {
    "zipcode": "0460571",
    "prefectureCode": "01",
    "prefectureNumber": 1,
    "prefecture": "北海道",
    "city": "余市郡赤井川村",
    "town": "常盤"
  }
}
