{
  "0470000": {
    "zipcode": "0470000",
    "prefectureCode": "01",
    "prefectureNumber": 1,
    "prefecture": "北海道",
    "city": "小樽市",
    "town": "以下に掲載がない場合"
  },
  "0470001": {
    "zipcode": "0470001",
    "prefectureCode": "01",
    "prefectureNumber": 1,
    "prefecture": "北海道",
    "city": "小樽市",
    "town": "若竹町"
  },
  "0470002": {
    "zipcode": "0470002",
    "prefectureCode": "01",
    "prefectureNumber": 1,
    "prefecture": "北海道",
    "city": "小樽市",
    "town": "潮見台"
  },
  "0470003": {
    "zipcode": "0470003",
    "prefectureCode": "01",
    "prefectureNumber": 1,
    "prefecture": "北海道",
    "city": "小樽市",
    "town": "真栄"
  },
  "0470004": {
    "zipcode": "0470004",
    "prefectureCode": "01",
    "prefectureNumber": 1,
    "prefecture": "北海道",
    "city": "小樽市",
    "town": "新富町"
  },
  "0470005": {
    "zipcode": "0470005",
    "prefectureCode": "01",
    "prefectureNumber": 1,
    "prefecture": "北海道",
    "city": "小樽市",
    "town": "勝納町"
  },
  "0470006": {
    "zipcode": "0470006",
    "prefectureCode": "01",
    "prefectureNumber": 1,
    "prefecture": "北海道",
    "city": "小樽市",
    "town": "有幌町"
  },
  "0470007": {
    "zipcode": "0470007",
    "prefectureCode": "01",
    "prefectureNumber": 1,
    "prefecture": "北海道",
    "city": "小樽市",
    "town": "港町"
  },
  "0470008": {
    "zipcode": "0470008",
    "prefectureCode": "01",
    "prefectureNumber": 1,
    "prefecture": "北海道",
    "city": "小樽市",
    "town": "築港"
  },
  "0470011": {
    "zipcode": "0470011",
    "prefectureCode": "01",
    "prefectureNumber": 1,
    "prefecture": "北海道",
    "city": "小樽市",
    "town": "天神"
  },
  "0470012": {
    "zipcode": "0470012",
    "prefectureCode": "01",
    "prefectureNumber": 1,
    "prefecture": "北海道",
    "city": "小樽市",
    "town": "天狗山"
  },
  "0470013": {
    "zipcode": "0470013",
    "prefectureCode": "01",
    "prefectureNumber": 1,
    "prefecture": "北海道",
    "city": "小樽市",
    "town": "奥沢"
  },
  "0470014": {
    "zipcode": "0470014",
    "prefectureCode": "01",
    "prefectureNumber": 1,
    "prefecture": "北海道",
    "city": "小樽市",
    "town": "住ノ江"
  },
  "0470015": {
    "zipcode": "0470015",
    "prefectureCode": "01",
    "prefectureNumber": 1,
    "prefecture": "北海道",
    "city": "小樽市",
    "town": "住吉町"
  },
  "0470016": {
    "zipcode": "0470016",
    "prefectureCode": "01",
    "prefectureNumber": 1,
    "prefecture": "北海道",
    "city": "小樽市",
    "town": "信香町"
  },
  "0470017": {
    "zipcode": "0470017",
    "prefectureCode": "01",
    "prefectureNumber": 1,
    "prefecture": "北海道",
    "city": "小樽市",
    "town": "若松"
  },
  "0470021": {
    "zipcode": "0470021",
    "prefectureCode": "01",
    "prefectureNumber": 1,
    "prefecture": "北海道",
    "city": "小樽市",
    "town": "入船"
  },
  "0470022": {
    "zipcode": "0470022",
    "prefectureCode": "01",
    "prefectureNumber": 1,
    "prefecture": "北海道",
    "city": "小樽市",
    "town": "松ケ枝"
  },
  "0470023": {
    "zipcode": "0470023",
    "prefectureCode": "01",
    "prefectureNumber": 1,
    "prefecture": "北海道",
    "city": "小樽市",
    "town": "最上"
  },
  "0470024": {
    "zipcode": "0470024",
    "prefectureCode": "01",
    "prefectureNumber": 1,
    "prefecture": "北海道",
    "city": "小樽市",
    "town": "花園"
  },
  "0470025": {
    "zipcode": "0470025",
    "prefectureCode": "01",
    "prefectureNumber": 1,
    "prefecture": "北海道",
    "city": "小樽市",
    "town": "山田町"
  },
  "0470026": {
    "zipcode": "0470026",
    "prefectureCode": "01",
    "prefectureNumber": 1,
    "prefecture": "北海道",
    "city": "小樽市",
    "town": "東雲町"
  },
  "0470027": {
    "zipcode": "0470027",
    "prefectureCode": "01",
    "prefectureNumber": 1,
    "prefecture": "北海道",
    "city": "小樽市",
    "town": "堺町"
  },
  "0470028": {
    "zipcode": "0470028",
    "prefectureCode": "01",
    "prefectureNumber": 1,
    "prefecture": "北海道",
    "city": "小樽市",
    "town": "相生町"
  },
  "0470031": {
    "zipcode": "0470031",
    "prefectureCode": "01",
    "prefectureNumber": 1,
    "prefecture": "北海道",
    "city": "小樽市",
    "town": "色内"
  },
  "0470032": {
    "zipcode": "0470032",
    "prefectureCode": "01",
    "prefectureNumber": 1,
    "prefecture": "北海道",
    "city": "小樽市",
    "town": "稲穂"
  },
  "0470033": {
    "zipcode": "0470033",
    "prefectureCode": "01",
    "prefectureNumber": 1,
    "prefecture": "北海道",
    "city": "小樽市",
    "town": "富岡"
  },
  "0470034": {
    "zipcode": "0470034",
    "prefectureCode": "01",
    "prefectureNumber": 1,
    "prefecture": "北海道",
    "city": "小樽市",
    "town": "緑"
  },
  "0470035": {
    "zipcode": "0470035",
    "prefectureCode": "01",
    "prefectureNumber": 1,
    "prefecture": "北海道",
    "city": "小樽市",
    "town": "旭町"
  },
  "0470036": {
    "zipcode": "0470036",
    "prefectureCode": "01",
    "prefectureNumber": 1,
    "prefecture": "北海道",
    "city": "小樽市",
    "town": "長橋"
  },
  "0470037": {
    "zipcode": "0470037",
    "prefectureCode": "01",
    "prefectureNumber": 1,
    "prefecture": "北海道",
    "city": "小樽市",
    "town": "幸"
  },
  "0470038": {
    "zipcode": "0470038",
    "prefectureCode": "01",
    "prefectureNumber": 1,
    "prefecture": "北海道",
    "city": "小樽市",
    "town": "石山町"
  },
  "0470039": {
    "zipcode": "0470039",
    "prefectureCode": "01",
    "prefectureNumber": 1,
    "prefecture": "北海道",
    "city": "小樽市",
    "town": "錦町"
  },
  "0470041": {
    "zipcode": "0470041",
    "prefectureCode": "01",
    "prefectureNumber": 1,
    "prefecture": "北海道",
    "city": "小樽市",
    "town": "手宮"
  },
  "0470042": {
    "zipcode": "0470042",
    "prefectureCode": "01",
    "prefectureNumber": 1,
    "prefecture": "北海道",
    "city": "小樽市",
    "town": "末広町"
  },
  "0470043": {
    "zipcode": "0470043",
    "prefectureCode": "01",
    "prefectureNumber": 1,
    "prefecture": "北海道",
    "city": "小樽市",
    "town": "豊川町"
  },
  "0470044": {
    "zipcode": "0470044",
    "prefectureCode": "01",
    "prefectureNumber": 1,
    "prefecture": "北海道",
    "city": "小樽市",
    "town": "梅ケ枝町"
  },
  "0470045": {
    "zipcode": "0470045",
    "prefectureCode": "01",
    "prefectureNumber": 1,
    "prefecture": "北海道",
    "city": "小樽市",
    "town": "清水町"
  },
  "0470046": {
    "zipcode": "0470046",
    "prefectureCode": "01",
    "prefectureNumber": 1,
    "prefecture": "北海道",
    "city": "小樽市",
    "town": "赤岩"
  },
  "0470047": {
    "zipcode": "0470047",
    "prefectureCode": "01",
    "prefectureNumber": 1,
    "prefecture": "北海道",
    "city": "小樽市",
    "town": "祝津"
  },
  "0470048": {
    "zipcode": "0470048",
    "prefectureCode": "01",
    "prefectureNumber": 1,
    "prefecture": "北海道",
    "city": "小樽市",
    "town": "高島"
  },
  "0470151": {
    "zipcode": "0470151",
    "prefectureCode": "01",
    "prefectureNumber": 1,
    "prefecture": "北海道",
    "city": "小樽市",
    "town": "朝里"
  },
  "0470152": {
    "zipcode": "0470152",
    "prefectureCode": "01",
    "prefectureNumber": 1,
    "prefecture": "北海道",
    "city": "小樽市",
    "town": "新光"
  },
  "0470153": {
    "zipcode": "0470153",
    "prefectureCode": "01",
    "prefectureNumber": 1,
    "prefecture": "北海道",
    "city": "小樽市",
    "town": "新光町"
  },
  "0470154": {
    "zipcode": "0470154",
    "prefectureCode": "01",
    "prefectureNumber": 1,
    "prefecture": "北海道",
    "city": "小樽市",
    "town": "朝里川温泉"
  },
  "0470155": {
    "zipcode": "0470155",
    "prefectureCode": "01",
    "prefectureNumber": 1,
    "prefecture": "北海道",
    "city": "小樽市",
    "town": "望洋台"
  },
  "0470156": {
    "zipcode": "0470156",
    "prefectureCode": "01",
    "prefectureNumber": 1,
    "prefecture": "北海道",
    "city": "小樽市",
    "town": "桜"
  },
  "0470157": {
    "zipcode": "0470157",
    "prefectureCode": "01",
    "prefectureNumber": 1,
    "prefecture": "北海道",
    "city": "小樽市",
    "town": "船浜町"
  },
  "0470261": {
    "zipcode": "0470261",
    "prefectureCode": "01",
    "prefectureNumber": 1,
    "prefecture": "北海道",
    "city": "小樽市",
    "town": "銭函（１〜３丁目）"
  },
  "0470262": {
    "zipcode": "0470262",
    "prefectureCode": "01",
    "prefectureNumber": 1,
    "prefecture": "北海道",
    "city": "小樽市",
    "town": "星野町"
  },
  "0470263": {
    "zipcode": "0470263",
    "prefectureCode": "01",
    "prefectureNumber": 1,
    "prefecture": "北海道",
    "city": "小樽市",
    "town": "見晴町"
  },
  "0470264": {
    "zipcode": "0470264",
    "prefectureCode": "01",
    "prefectureNumber": 1,
    "prefecture": "北海道",
    "city": "小樽市",
    "town": "桂岡町"
  },
  "0470265": {
    "zipcode": "0470265",
    "prefectureCode": "01",
    "prefectureNumber": 1,
    "prefecture": "北海道",
    "city": "小樽市",
    "town": "春香町"
  },
  "0470266": {
    "zipcode": "0470266",
    "prefectureCode": "01",
    "prefectureNumber": 1,
    "prefecture": "北海道",
    "city": "小樽市",
    "town": "張碓町"
  }
}
