{
  "0480100": {
    "zipcode": "0480100",
    "prefectureCode": "01",
    "prefectureNumber": 1,
    "prefecture": "北海道",
    "city": "寿都郡黒松内町",
    "town": "以下に掲載がない場合"
  },
  "0480101": {
    "zipcode": "0480101",
    "prefectureCode": "01",
    "prefectureNumber": 1,
    "prefecture": "北海道",
    "city": "寿都郡黒松内町",
    "town": "黒松内"
  },
  "0480111": {
    "zipcode": "0480111",
    "prefectureCode": "01",
    "prefectureNumber": 1,
    "prefecture": "北海道",
    "city": "寿都郡黒松内町",
    "town": "中里"
  },
  "0480112": {
    "zipcode": "0480112",
    "prefectureCode": "01",
    "prefectureNumber": 1,
    "prefecture": "北海道",
    "city": "寿都郡黒松内町",
    "town": "貝殻"
  },
  "0480113": {
    "zipcode": "0480113",
    "prefectureCode": "01",
    "prefectureNumber": 1,
    "prefecture": "北海道",
    "city": "寿都郡黒松内町",
    "town": "豊幌"
  },
  "0480114": {
    "zipcode": "0480114",
    "prefectureCode": "01",
    "prefectureNumber": 1,
    "prefecture": "北海道",
    "city": "寿都郡黒松内町",
    "town": "歌才"
  },
  "0480115": {
    "zipcode": "0480115",
    "prefectureCode": "01",
    "prefectureNumber": 1,
    "prefecture": "北海道",
    "city": "寿都郡黒松内町",
    "town": "西沢"
  },
  "0480116": {
    "zipcode": "0480116",
    "prefectureCode": "01",
    "prefectureNumber": 1,
    "prefecture": "北海道",
    "city": "寿都郡黒松内町",
    "town": "旭野"
  },
  "0480117": {
    "zipcode": "0480117",
    "prefectureCode": "01",
    "prefectureNumber": 1,
    "prefecture": "北海道",
    "city": "寿都郡黒松内町",
    "town": "添別"
  },
  "0480121": {
    "zipcode": "0480121",
    "prefectureCode": "01",
    "prefectureNumber": 1,
    "prefecture": "北海道",
    "city": "寿都郡黒松内町",
    "town": "熱郛"
  },
  "0480122": {
    "zipcode": "0480122",
    "prefectureCode": "01",
    "prefectureNumber": 1,
    "prefecture": "北海道",
    "city": "寿都郡黒松内町",
    "town": "白炭"
  },
  "0480123": {
    "zipcode": "0480123",
    "prefectureCode": "01",
    "prefectureNumber": 1,
    "prefecture": "北海道",
    "city": "寿都郡黒松内町",
    "town": "中ノ川"
  },
  "0480124": {
    "zipcode": "0480124",
    "prefectureCode": "01",
    "prefectureNumber": 1,
    "prefecture": "北海道",
    "city": "寿都郡黒松内町",
    "town": "五十嵐"
  },
  "0480125": {
    "zipcode": "0480125",
    "prefectureCode": "01",
    "prefectureNumber": 1,
    "prefecture": "北海道",
    "city": "寿都郡黒松内町",
    "town": "目名"
  },
  "0480126": {
    "zipcode": "0480126",
    "prefectureCode": "01",
    "prefectureNumber": 1,
    "prefecture": "北海道",
    "city": "寿都郡黒松内町",
    "town": "北作開"
  },
  "0480127": {
    "zipcode": "0480127",
    "prefectureCode": "01",
    "prefectureNumber": 1,
    "prefecture": "北海道",
    "city": "寿都郡黒松内町",
    "town": "南作開"
  },
  "0480131": {
    "zipcode": "0480131",
    "prefectureCode": "01",
    "prefectureNumber": 1,
    "prefecture": "北海道",
    "city": "寿都郡黒松内町",
    "town": "西熱郛原野"
  },
  "0480132": {
    "zipcode": "0480132",
    "prefectureCode": "01",
    "prefectureNumber": 1,
    "prefecture": "北海道",
    "city": "寿都郡黒松内町",
    "town": "チョポシナイ"
  },
  "0480133": {
    "zipcode": "0480133",
    "prefectureCode": "01",
    "prefectureNumber": 1,
    "prefecture": "北海道",
    "city": "寿都郡黒松内町",
    "town": "大谷地"
  },
  "0480134": {
    "zipcode": "0480134",
    "prefectureCode": "01",
    "prefectureNumber": 1,
    "prefecture": "北海道",
    "city": "寿都郡黒松内町",
    "town": "白井川"
  },
  "0480135": {
    "zipcode": "0480135",
    "prefectureCode": "01",
    "prefectureNumber": 1,
    "prefecture": "北海道",
    "city": "寿都郡黒松内町",
    "town": "角十"
  },
  "0480136": {
    "zipcode": "0480136",
    "prefectureCode": "01",
    "prefectureNumber": 1,
    "prefecture": "北海道",
    "city": "寿都郡黒松内町",
    "town": "赤井川"
  },
  "0480137": {
    "zipcode": "0480137",
    "prefectureCode": "01",
    "prefectureNumber": 1,
    "prefecture": "北海道",
    "city": "寿都郡黒松内町",
    "town": "婆沢"
  },
  "0480141": {
    "zipcode": "0480141",
    "prefectureCode": "01",
    "prefectureNumber": 1,
    "prefecture": "北海道",
    "city": "寿都郡黒松内町",
    "town": "上豊幌"
  },
  "0480142": {
    "zipcode": "0480142",
    "prefectureCode": "01",
    "prefectureNumber": 1,
    "prefecture": "北海道",
    "city": "寿都郡黒松内町",
    "town": "東栄"
  },
  "0480143": {
    "zipcode": "0480143",
    "prefectureCode": "01",
    "prefectureNumber": 1,
    "prefecture": "北海道",
    "city": "寿都郡黒松内町",
    "town": "大成"
  },
  "0480144": {
    "zipcode": "0480144",
    "prefectureCode": "01",
    "prefectureNumber": 1,
    "prefecture": "北海道",
    "city": "寿都郡黒松内町",
    "town": "東川"
  },
  "0480145": {
    "zipcode": "0480145",
    "prefectureCode": "01",
    "prefectureNumber": 1,
    "prefecture": "北海道",
    "city": "寿都郡黒松内町",
    "town": "上大成"
  },
  "0480351": {
    "zipcode": "0480351",
    "prefectureCode": "01",
    "prefectureNumber": 1,
    "prefecture": "北海道",
    "city": "寿都郡寿都町",
    "town": "磯谷町"
  },
  "0480400": {
    "zipcode": "0480400",
    "prefectureCode": "01",
    "prefectureNumber": 1,
    "prefecture": "北海道",
    "city": "寿都郡寿都町",
    "town": "以下に掲載がない場合"
  },
  "0480401": {
    "zipcode": "0480401",
    "prefectureCode": "01",
    "prefectureNumber": 1,
    "prefecture": "北海道",
    "city": "寿都郡寿都町",
    "town": "新栄町"
  },
  "0480402": {
    "zipcode": "0480402",
    "prefectureCode": "01",
    "prefectureNumber": 1,
    "prefecture": "北海道",
    "city": "寿都郡寿都町",
    "town": "矢追町"
  },
  "0480403": {
    "zipcode": "0480403",
    "prefectureCode": "01",
    "prefectureNumber": 1,
    "prefecture": "北海道",
    "city": "寿都郡寿都町",
    "town": "政泊町"
  },
  "0480404": {
    "zipcode": "0480404",
    "prefectureCode": "01",
    "prefectureNumber": 1,
    "prefecture": "北海道",
    "city": "寿都郡寿都町",
    "town": "大磯町"
  },
  "0480405": {
    "zipcode": "0480405",
    "prefectureCode": "01",
    "prefectureNumber": 1,
    "prefecture": "北海道",
    "city": "寿都郡寿都町",
    "town": "開進町"
  },
  "0480406": {
    "zipcode": "0480406",
    "prefectureCode": "01",
    "prefectureNumber": 1,
    "prefecture": "北海道",
    "city": "寿都郡寿都町",
    "town": "渡島町"
  },
  "0480411": {
    "zipcode": "0480411",
    "prefectureCode": "01",
    "prefectureNumber": 1,
    "prefecture": "北海道",
    "city": "寿都郡寿都町",
    "town": "六条町"
  },
  "0480412": {
    "zipcode": "0480412",
    "prefectureCode": "01",
    "prefectureNumber": 1,
    "prefecture": "北海道",
    "city": "寿都郡寿都町",
    "town": "岩崎町"
  },
  "0480413": {
    "zipcode": "0480413",
    "prefectureCode": "01",
    "prefectureNumber": 1,
    "prefecture": "北海道",
    "city": "寿都郡寿都町",
    "town": "樽岸町"
  },
  "0480414": {
    "zipcode": "0480414",
    "prefectureCode": "01",
    "prefectureNumber": 1,
    "prefecture": "北海道",
    "city": "寿都郡寿都町",
    "town": "湯別町"
  },
  "0480415": {
    "zipcode": "0480415",
    "prefectureCode": "01",
    "prefectureNumber": 1,
    "prefecture": "北海道",
    "city": "寿都郡寿都町",
    "town": "歌棄町"
  },
  "0480600": {
    "zipcode": "0480600",
    "prefectureCode": "01",
    "prefectureNumber": 1,
    "prefecture": "北海道",
    "city": "島牧郡島牧村",
    "town": "以下に掲載がない場合"
  },
  "0480601": {
    "zipcode": "0480601",
    "prefectureCode": "01",
    "prefectureNumber": 1,
    "prefecture": "北海道",
    "city": "島牧郡島牧村",
    "town": "富浦"
  },
  "0480602": {
    "zipcode": "0480602",
    "prefectureCode": "01",
    "prefectureNumber": 1,
    "prefecture": "北海道",
    "city": "島牧郡島牧村",
    "town": "歌島"
  },
  "0480603": {
    "zipcode": "0480603",
    "prefectureCode": "01",
    "prefectureNumber": 1,
    "prefecture": "北海道",
    "city": "島牧郡島牧村",
    "town": "本目"
  },
  "0480604": {
    "zipcode": "0480604",
    "prefectureCode": "01",
    "prefectureNumber": 1,
    "prefecture": "北海道",
    "city": "島牧郡島牧村",
    "town": "港"
  },
  "0480611": {
    "zipcode": "0480611",
    "prefectureCode": "01",
    "prefectureNumber": 1,
    "prefecture": "北海道",
    "city": "島牧郡島牧村",
    "town": "栄磯"
  },
  "0480612": {
    "zipcode": "0480612",
    "prefectureCode": "01",
    "prefectureNumber": 1,
    "prefecture": "北海道",
    "city": "島牧郡島牧村",
    "town": "豊浜"
  },
  "0480613": {
    "zipcode": "0480613",
    "prefectureCode": "01",
    "prefectureNumber": 1,
    "prefecture": "北海道",
    "city": "島牧郡島牧村",
    "town": "大平"
  },
  "0480614": {
    "zipcode": "0480614",
    "prefectureCode": "01",
    "prefectureNumber": 1,
    "prefecture": "北海道",
    "city": "島牧郡島牧村",
    "town": "永豊町"
  },
  "0480621": {
    "zipcode": "0480621",
    "prefectureCode": "01",
    "prefectureNumber": 1,
    "prefecture": "北海道",
    "city": "島牧郡島牧村",
    "town": "泊"
  },
  "0480622": {
    "zipcode": "0480622",
    "prefectureCode": "01",
    "prefectureNumber": 1,
    "prefecture": "北海道",
    "city": "島牧郡島牧村",
    "town": "豊平"
  },
  "0480623": {
    "zipcode": "0480623",
    "prefectureCode": "01",
    "prefectureNumber": 1,
    "prefecture": "北海道",
    "city": "島牧郡島牧村",
    "town": "江の島"
  },
  "0480631": {
    "zipcode": "0480631",
    "prefectureCode": "01",
    "prefectureNumber": 1,
    "prefecture": "北海道",
    "city": "島牧郡島牧村",
    "town": "千走"
  },
  "0480632": {
    "zipcode": "0480632",
    "prefectureCode": "01",
    "prefectureNumber": 1,
    "prefecture": "北海道",
    "city": "島牧郡島牧村",
    "town": "元町"
  },
  "0480633": {
    "zipcode": "0480633",
    "prefectureCode": "01",
    "prefectureNumber": 1,
    "prefecture": "北海道",
    "city": "島牧郡島牧村",
    "town": "原歌町"
  },
  "0480634": {
    "zipcode": "0480634",
    "prefectureCode": "01",
    "prefectureNumber": 1,
    "prefecture": "北海道",
    "city": "島牧郡島牧村",
    "town": "栄浜"
  },
  "0481251": {
    "zipcode": "0481251",
    "prefectureCode": "01",
    "prefectureNumber": 1,
    "prefecture": "北海道",
    "city": "磯谷郡蘭越町",
    "town": "相生"
  },
  "0481252": {
    "zipcode": "0481252",
    "prefectureCode": "01",
    "prefectureNumber": 1,
    "prefecture": "北海道",
    "city": "磯谷郡蘭越町",
    "town": "讃岐"
  },
  "0481253": {
    "zipcode": "0481253",
    "prefectureCode": "01",
    "prefectureNumber": 1,
    "prefecture": "北海道",
    "city": "磯谷郡蘭越町",
    "town": "田下"
  },
  "0481254": {
    "zipcode": "0481254",
    "prefectureCode": "01",
    "prefectureNumber": 1,
    "prefecture": "北海道",
    "city": "磯谷郡蘭越町",
    "town": "上目名"
  },
  "0481261": {
    "zipcode": "0481261",
    "prefectureCode": "01",
    "prefectureNumber": 1,
    "prefecture": "北海道",
    "city": "磯谷郡蘭越町",
    "town": "目名町"
  },
  "0481262": {
    "zipcode": "0481262",
    "prefectureCode": "01",
    "prefectureNumber": 1,
    "prefecture": "北海道",
    "city": "磯谷郡蘭越町",
    "town": "貝川"
  },
  "0481263": {
    "zipcode": "0481263",
    "prefectureCode": "01",
    "prefectureNumber": 1,
    "prefecture": "北海道",
    "city": "磯谷郡蘭越町",
    "town": "三笠"
  },
  "0481264": {
    "zipcode": "0481264",
    "prefectureCode": "01",
    "prefectureNumber": 1,
    "prefecture": "北海道",
    "city": "磯谷郡蘭越町",
    "town": "清水"
  },
  "0481265": {
    "zipcode": "0481265",
    "prefectureCode": "01",
    "prefectureNumber": 1,
    "prefecture": "北海道",
    "city": "磯谷郡蘭越町",
    "town": "鮎川"
  },
  "0481300": {
    "zipcode": "0481300",
    "prefectureCode": "01",
    "prefectureNumber": 1,
    "prefecture": "北海道",
    "city": "磯谷郡蘭越町",
    "town": "以下に掲載がない場合"
  },
  "0481301": {
    "zipcode": "0481301",
    "prefectureCode": "01",
    "prefectureNumber": 1,
    "prefecture": "北海道",
    "city": "磯谷郡蘭越町",
    "town": "蘭越町"
  },
  "0481302": {
    "zipcode": "0481302",
    "prefectureCode": "01",
    "prefectureNumber": 1,
    "prefecture": "北海道",
    "city": "磯谷郡蘭越町",
    "town": "昆布町"
  },
  "0481303": {
    "zipcode": "0481303",
    "prefectureCode": "01",
    "prefectureNumber": 1,
    "prefecture": "北海道",
    "city": "磯谷郡蘭越町",
    "town": "立川"
  },
  "0481304": {
    "zipcode": "0481304",
    "prefectureCode": "01",
    "prefectureNumber": 1,
    "prefecture": "北海道",
    "city": "磯谷郡蘭越町",
    "town": "水上"
  },
  "0481305": {
    "zipcode": "0481305",
    "prefectureCode": "01",
    "prefectureNumber": 1,
    "prefecture": "北海道",
    "city": "磯谷郡蘭越町",
    "town": "大谷"
  },
  "0481306": {
    "zipcode": "0481306",
    "prefectureCode": "01",
    "prefectureNumber": 1,
    "prefecture": "北海道",
    "city": "磯谷郡蘭越町",
    "town": "淀川"
  },
  "0481307": {
    "zipcode": "0481307",
    "prefectureCode": "01",
    "prefectureNumber": 1,
    "prefecture": "北海道",
    "city": "磯谷郡蘭越町",
    "town": "名駒町"
  },
  "0481311": {
    "zipcode": "0481311",
    "prefectureCode": "01",
    "prefectureNumber": 1,
    "prefecture": "北海道",
    "city": "磯谷郡蘭越町",
    "town": "吉国"
  },
  "0481312": {
    "zipcode": "0481312",
    "prefectureCode": "01",
    "prefectureNumber": 1,
    "prefecture": "北海道",
    "city": "磯谷郡蘭越町",
    "town": "三和"
  },
  "0481313": {
    "zipcode": "0481313",
    "prefectureCode": "01",
    "prefectureNumber": 1,
    "prefecture": "北海道",
    "city": "磯谷郡蘭越町",
    "town": "上里"
  },
  "0481314": {
    "zipcode": "0481314",
    "prefectureCode": "01",
    "prefectureNumber": 1,
    "prefecture": "北海道",
    "city": "磯谷郡蘭越町",
    "town": "御成"
  },
  "0481315": {
    "zipcode": "0481315",
    "prefectureCode": "01",
    "prefectureNumber": 1,
    "prefecture": "北海道",
    "city": "磯谷郡蘭越町",
    "town": "共栄"
  },
  "0481316": {
    "zipcode": "0481316",
    "prefectureCode": "01",
    "prefectureNumber": 1,
    "prefecture": "北海道",
    "city": "磯谷郡蘭越町",
    "town": "初田"
  },
  "0481321": {
    "zipcode": "0481321",
    "prefectureCode": "01",
    "prefectureNumber": 1,
    "prefecture": "北海道",
    "city": "磯谷郡蘭越町",
    "town": "湯里"
  },
  "0481322": {
    "zipcode": "0481322",
    "prefectureCode": "01",
    "prefectureNumber": 1,
    "prefecture": "北海道",
    "city": "磯谷郡蘭越町",
    "town": "日出"
  },
  "0481323": {
    "zipcode": "0481323",
    "prefectureCode": "01",
    "prefectureNumber": 1,
    "prefecture": "北海道",
    "city": "磯谷郡蘭越町",
    "town": "黄金"
  },
  "0481324": {
    "zipcode": "0481324",
    "prefectureCode": "01",
    "prefectureNumber": 1,
    "prefecture": "北海道",
    "city": "磯谷郡蘭越町",
    "town": "豊国"
  },
  "0481325": {
    "zipcode": "0481325",
    "prefectureCode": "01",
    "prefectureNumber": 1,
    "prefecture": "北海道",
    "city": "磯谷郡蘭越町",
    "town": "栄"
  },
  "0481326": {
    "zipcode": "0481326",
    "prefectureCode": "01",
    "prefectureNumber": 1,
    "prefecture": "北海道",
    "city": "磯谷郡蘭越町",
    "town": "富岡"
  },
  "0481327": {
    "zipcode": "0481327",
    "prefectureCode": "01",
    "prefectureNumber": 1,
    "prefecture": "北海道",
    "city": "磯谷郡蘭越町",
    "town": "新見"
  },
  "0481341": {
    "zipcode": "0481341",
    "prefectureCode": "01",
    "prefectureNumber": 1,
    "prefecture": "北海道",
    "city": "磯谷郡蘭越町",
    "town": "港町"
  },
  "0481500": {
    "zipcode": "0481500",
    "prefectureCode": "01",
    "prefectureNumber": 1,
    "prefecture": "北海道",
    "city": "虻田郡ニセコ町",
    "town": "以下に掲載がない場合"
  },
  "0481501": {
    "zipcode": "0481501",
    "prefectureCode": "01",
    "prefectureNumber": 1,
    "prefecture": "北海道",
    "city": "虻田郡ニセコ町",
    "town": "富士見"
  },
  "0481502": {
    "zipcode": "0481502",
    "prefectureCode": "01",
    "prefectureNumber": 1,
    "prefecture": "北海道",
    "city": "虻田郡ニセコ町",
    "town": "本通"
  },
  "0481511": {
    "zipcode": "0481511",
    "prefectureCode": "01",
    "prefectureNumber": 1,
    "prefecture": "北海道",
    "city": "虻田郡ニセコ町",
    "town": "ニセコ"
  },
  "0481512": {
    "zipcode": "0481512",
    "prefectureCode": "01",
    "prefectureNumber": 1,
    "prefecture": "北海道",
    "city": "虻田郡ニセコ町",
    "town": "中央通"
  },
  "0481521": {
    "zipcode": "0481521",
    "prefectureCode": "01",
    "prefectureNumber": 1,
    "prefecture": "北海道",
    "city": "虻田郡ニセコ町",
    "town": "東山"
  },
  "0481522": {
    "zipcode": "0481522",
    "prefectureCode": "01",
    "prefectureNumber": 1,
    "prefecture": "北海道",
    "city": "虻田郡ニセコ町",
    "town": "曽我"
  },
  "0481531": {
    "zipcode": "0481531",
    "prefectureCode": "01",
    "prefectureNumber": 1,
    "prefecture": "北海道",
    "city": "虻田郡ニセコ町",
    "town": "有島"
  },
  "0481541": {
    "zipcode": "0481541",
    "prefectureCode": "01",
    "prefectureNumber": 1,
    "prefecture": "北海道",
    "city": "虻田郡ニセコ町",
    "town": "羊蹄"
  },
  "0481542": {
    "zipcode": "0481542",
    "prefectureCode": "01",
    "prefectureNumber": 1,
    "prefecture": "北海道",
    "city": "虻田郡ニセコ町",
    "town": "近藤"
  },
  "0481543": {
    "zipcode": "0481543",
    "prefectureCode": "01",
    "prefectureNumber": 1,
    "prefecture": "北海道",
    "city": "虻田郡ニセコ町",
    "town": "豊里"
  },
  "0481544": {
    "zipcode": "0481544",
    "prefectureCode": "01",
    "prefectureNumber": 1,
    "prefecture": "北海道",
    "city": "虻田郡ニセコ町",
    "town": "元町"
  },
  "0481551": {
    "zipcode": "0481551",
    "prefectureCode": "01",
    "prefectureNumber": 1,
    "prefecture": "北海道",
    "city": "虻田郡ニセコ町",
    "town": "里見"
  },
  "0481552": {
    "zipcode": "0481552",
    "prefectureCode": "01",
    "prefectureNumber": 1,
    "prefecture": "北海道",
    "city": "虻田郡ニセコ町",
    "town": "宮田"
  },
  "0481553": {
    "zipcode": "0481553",
    "prefectureCode": "01",
    "prefectureNumber": 1,
    "prefecture": "北海道",
    "city": "虻田郡ニセコ町",
    "town": "黒川"
  },
  "0481554": {
    "zipcode": "0481554",
    "prefectureCode": "01",
    "prefectureNumber": 1,
    "prefecture": "北海道",
    "city": "虻田郡ニセコ町",
    "town": "富川"
  },
  "0481561": {
    "zipcode": "0481561",
    "prefectureCode": "01",
    "prefectureNumber": 1,
    "prefecture": "北海道",
    "city": "虻田郡ニセコ町",
    "town": "福井"
  },
  "0481562": {
    "zipcode": "0481562",
    "prefectureCode": "01",
    "prefectureNumber": 1,
    "prefecture": "北海道",
    "city": "虻田郡ニセコ町",
    "town": "桂台"
  },
  "0481563": {
    "zipcode": "0481563",
    "prefectureCode": "01",
    "prefectureNumber": 1,
    "prefecture": "北海道",
    "city": "虻田郡ニセコ町",
    "town": "西富"
  },
  "0481600": {
    "zipcode": "0481600",
    "prefectureCode": "01",
    "prefectureNumber": 1,
    "prefecture": "北海道",
    "city": "虻田郡真狩村",
    "town": "以下に掲載がない場合"
  },
  "0481601": {
    "zipcode": "0481601",
    "prefectureCode": "01",
    "prefectureNumber": 1,
    "prefecture": "北海道",
    "city": "虻田郡真狩村",
    "town": "美原"
  },
  "0481602": {
    "zipcode": "0481602",
    "prefectureCode": "01",
    "prefectureNumber": 1,
    "prefecture": "北海道",
    "city": "虻田郡真狩村",
    "town": "泉"
  },
  "0481603": {
    "zipcode": "0481603",
    "prefectureCode": "01",
    "prefectureNumber": 1,
    "prefecture": "北海道",
    "city": "虻田郡真狩村",
    "town": "共明"
  },
  "0481604": {
    "zipcode": "0481604",
    "prefectureCode": "01",
    "prefectureNumber": 1,
    "prefecture": "北海道",
    "city": "虻田郡真狩村",
    "town": "富里"
  },
  "0481605": {
    "zipcode": "0481605",
    "prefectureCode": "01",
    "prefectureNumber": 1,
    "prefecture": "北海道",
    "city": "虻田郡真狩村",
    "town": "社"
  },
  "0481611": {
    "zipcode": "0481611",
    "prefectureCode": "01",
    "prefectureNumber": 1,
    "prefecture": "北海道",
    "city": "虻田郡真狩村",
    "town": "光"
  },
  "0481612": {
    "zipcode": "0481612",
    "prefectureCode": "01",
    "prefectureNumber": 1,
    "prefecture": "北海道",
    "city": "虻田郡真狩村",
    "town": "見晴"
  },
  "0481613": {
    "zipcode": "0481613",
    "prefectureCode": "01",
    "prefectureNumber": 1,
    "prefecture": "北海道",
    "city": "虻田郡真狩村",
    "town": "南部"
  },
  "0481614": {
    "zipcode": "0481614",
    "prefectureCode": "01",
    "prefectureNumber": 1,
    "prefecture": "北海道",
    "city": "虻田郡真狩村",
    "town": "桜川"
  },
  "0481615": {
    "zipcode": "0481615",
    "prefectureCode": "01",
    "prefectureNumber": 1,
    "prefecture": "北海道",
    "city": "虻田郡真狩村",
    "town": "緑岡"
  },
  "0481621": {
    "zipcode": "0481621",
    "prefectureCode": "01",
    "prefectureNumber": 1,
    "prefecture": "北海道",
    "city": "虻田郡真狩村",
    "town": "豊川"
  },
  "0481622": {
    "zipcode": "0481622",
    "prefectureCode": "01",
    "prefectureNumber": 1,
    "prefecture": "北海道",
    "city": "虻田郡真狩村",
    "town": "加野"
  },
  "0481623": {
    "zipcode": "0481623",
    "prefectureCode": "01",
    "prefectureNumber": 1,
    "prefecture": "北海道",
    "city": "虻田郡真狩村",
    "town": "川崎"
  },
  "0481624": {
    "zipcode": "0481624",
    "prefectureCode": "01",
    "prefectureNumber": 1,
    "prefecture": "北海道",
    "city": "虻田郡真狩村",
    "town": "神里"
  },
  "0481631": {
    "zipcode": "0481631",
    "prefectureCode": "01",
    "prefectureNumber": 1,
    "prefecture": "北海道",
    "city": "虻田郡真狩村",
    "town": "真狩"
  },
  "0481700": {
    "zipcode": "0481700",
    "prefectureCode": "01",
    "prefectureNumber": 1,
    "prefecture": "北海道",
    "city": "虻田郡留寿都村",
    "town": "以下に掲載がない場合"
  },
  "0481711": {
    "zipcode": "0481711",
    "prefectureCode": "01",
    "prefectureNumber": 1,
    "prefecture": "北海道",
    "city": "虻田郡留寿都村",
    "town": "泉川"
  },
  "0481712": {
    "zipcode": "0481712",
    "prefectureCode": "01",
    "prefectureNumber": 1,
    "prefecture": "北海道",
    "city": "虻田郡留寿都村",
    "town": "豊岡"
  },
  "0481721": {
    "zipcode": "0481721",
    "prefectureCode": "01",
    "prefectureNumber": 1,
    "prefecture": "北海道",
    "city": "虻田郡留寿都村",
    "town": "向丘"
  },
  "0481722": {
    "zipcode": "0481722",
    "prefectureCode": "01",
    "prefectureNumber": 1,
    "prefecture": "北海道",
    "city": "虻田郡留寿都村",
    "town": "黒田"
  },
  "0481723": {
    "zipcode": "0481723",
    "prefectureCode": "01",
    "prefectureNumber": 1,
    "prefecture": "北海道",
    "city": "虻田郡留寿都村",
    "town": "三ノ原"
  },
  "0481724": {
    "zipcode": "0481724",
    "prefectureCode": "01",
    "prefectureNumber": 1,
    "prefecture": "北海道",
    "city": "虻田郡留寿都村",
    "town": "三豊"
  },
  "0481731": {
    "zipcode": "0481731",
    "prefectureCode": "01",
    "prefectureNumber": 1,
    "prefecture": "北海道",
    "city": "虻田郡留寿都村",
    "town": "留寿都"
  },
  "0481741": {
    "zipcode": "0481741",
    "prefectureCode": "01",
    "prefectureNumber": 1,
    "prefecture": "北海道",
    "city": "虻田郡留寿都村",
    "town": "西ノ原"
  },
  "0481751": {
    "zipcode": "0481751",
    "prefectureCode": "01",
    "prefectureNumber": 1,
    "prefecture": "北海道",
    "city": "虻田郡留寿都村",
    "town": "登"
  },
  "0481752": {
    "zipcode": "0481752",
    "prefectureCode": "01",
    "prefectureNumber": 1,
    "prefecture": "北海道",
    "city": "虻田郡留寿都村",
    "town": "旭野"
  },
  "0482141": {
    "zipcode": "0482141",
    "prefectureCode": "01",
    "prefectureNumber": 1,
    "prefecture": "北海道",
    "city": "岩内郡共和町",
    "town": "ワイス"
  },
  "0482142": {
    "zipcode": "0482142",
    "prefectureCode": "01",
    "prefectureNumber": 1,
    "prefecture": "北海道",
    "city": "岩内郡共和町",
    "town": "小沢"
  },
  "0482143": {
    "zipcode": "0482143",
    "prefectureCode": "01",
    "prefectureNumber": 1,
    "prefecture": "北海道",
    "city": "岩内郡共和町",
    "town": "国富"
  },
  "0482200": {
    "zipcode": "0482200",
    "prefectureCode": "01",
    "prefectureNumber": 1,
    "prefecture": "北海道",
    "city": "岩内郡共和町",
    "town": "以下に掲載がない場合"
  },
  "0482201": {
    "zipcode": "0482201",
    "prefectureCode": "01",
    "prefectureNumber": 1,
    "prefecture": "北海道",
    "city": "岩内郡共和町",
    "town": "前田"
  },
  "0482202": {
    "zipcode": "0482202",
    "prefectureCode": "01",
    "prefectureNumber": 1,
    "prefecture": "北海道",
    "city": "岩内郡共和町",
    "town": "南幌似"
  },
  "0482331": {
    "zipcode": "0482331",
    "prefectureCode": "01",
    "prefectureNumber": 1,
    "prefecture": "北海道",
    "city": "余市郡仁木町",
    "town": "大江（２丁目６５１、６６２、６６８番地、３丁目１０３、１１８、２１０、２５４、２６７、３７２、４４４、４６９番地）"
  },
  "0482332": {
    "zipcode": "0482332",
    "prefectureCode": "01",
    "prefectureNumber": 1,
    "prefecture": "北海道",
    "city": "余市郡仁木町",
    "town": "長沢西"
  },
  "0482333": {
    "zipcode": "0482333",
    "prefectureCode": "01",
    "prefectureNumber": 1,
    "prefecture": "北海道",
    "city": "余市郡仁木町",
    "town": "長沢南"
  },
  "0482334": {
    "zipcode": "0482334",
    "prefectureCode": "01",
    "prefectureNumber": 1,
    "prefecture": "北海道",
    "city": "余市郡仁木町",
    "town": "尾根内"
  },
  "0482335": {
    "zipcode": "0482335",
    "prefectureCode": "01",
    "prefectureNumber": 1,
    "prefecture": "北海道",
    "city": "余市郡仁木町",
    "town": "銀山"
  },
  "0482400": {
    "zipcode": "0482400",
    "prefectureCode": "01",
    "prefectureNumber": 1,
    "prefecture": "北海道",
    "city": "余市郡仁木町",
    "town": "以下に掲載がない場合"
  },
  "0482401": {
    "zipcode": "0482401",
    "prefectureCode": "01",
    "prefectureNumber": 1,
    "prefecture": "北海道",
    "city": "余市郡仁木町",
    "town": "旭台"
  },
  "0482402": {
    "zipcode": "0482402",
    "prefectureCode": "01",
    "prefectureNumber": 1,
    "prefecture": "北海道",
    "city": "余市郡仁木町",
    "town": "大江（１丁目、２丁目「６５１、６６２、６６８番地」以外、３丁目５、１３−４、２０、６７８、６８７番地）"
  },
  "0482403": {
    "zipcode": "0482403",
    "prefectureCode": "01",
    "prefectureNumber": 1,
    "prefecture": "北海道",
    "city": "余市郡仁木町",
    "town": "然別"
  },
  "0482404": {
    "zipcode": "0482404",
    "prefectureCode": "01",
    "prefectureNumber": 1,
    "prefecture": "北海道",
    "city": "余市郡仁木町",
    "town": "砥の川"
  },
  "0482405": {
    "zipcode": "0482405",
    "prefectureCode": "01",
    "prefectureNumber": 1,
    "prefecture": "北海道",
    "city": "余市郡仁木町",
    "town": "北町"
  },
  "0482406": {
    "zipcode": "0482406",
    "prefectureCode": "01",
    "prefectureNumber": 1,
    "prefecture": "北海道",
    "city": "余市郡仁木町",
    "town": "西町"
  },
  "0482411": {
    "zipcode": "0482411",
    "prefectureCode": "01",
    "prefectureNumber": 1,
    "prefecture": "北海道",
    "city": "余市郡仁木町",
    "town": "東町"
  },
  "0482412": {
    "zipcode": "0482412",
    "prefectureCode": "01",
    "prefectureNumber": 1,
    "prefecture": "北海道",
    "city": "余市郡仁木町",
    "town": "東町緑ケ丘"
  },
  "0482413": {
    "zipcode": "0482413",
    "prefectureCode": "01",
    "prefectureNumber": 1,
    "prefecture": "北海道",
    "city": "余市郡仁木町",
    "town": "南町"
  },
  "0482561": {
    "zipcode": "0482561",
    "prefectureCode": "01",
    "prefectureNumber": 1,
    "prefecture": "北海道",
    "city": "小樽市",
    "town": "忍路"
  },
  "0482562": {
    "zipcode": "0482562",
    "prefectureCode": "01",
    "prefectureNumber": 1,
    "prefecture": "北海道",
    "city": "小樽市",
    "town": "蘭島"
  },
  "0482671": {
    "zipcode": "0482671",
    "prefectureCode": "01",
    "prefectureNumber": 1,
    "prefecture": "北海道",
    "city": "小樽市",
    "town": "オタモイ"
  },
  "0482672": {
    "zipcode": "0482672",
    "prefectureCode": "01",
    "prefectureNumber": 1,
    "prefecture": "北海道",
    "city": "小樽市",
    "town": "塩谷"
  },
  "0482673": {
    "zipcode": "0482673",
    "prefectureCode": "01",
    "prefectureNumber": 1,
    "prefecture": "北海道",
    "city": "小樽市",
    "town": "桃内"
  }
}
