{
  "0490100": {
    "zipcode": "0490100",
    "prefectureCode": "01",
    "prefectureNumber": 1,
    "prefecture": "北海道",
    "city": "北斗市",
    "town": "以下に掲載がない場合"
  },
  "0490101": {
    "zipcode": "0490101",
    "prefectureCode": "01",
    "prefectureNumber": 1,
    "prefecture": "北海道",
    "city": "北斗市",
    "town": "追分"
  },
  "0490111": {
    "zipcode": "0490111",
    "prefectureCode": "01",
    "prefectureNumber": 1,
    "prefecture": "北海道",
    "city": "北斗市",
    "town": "七重浜"
  },
  "0490121": {
    "zipcode": "0490121",
    "prefectureCode": "01",
    "prefectureNumber": 1,
    "prefecture": "北海道",
    "city": "北斗市",
    "town": "久根別"
  },
  "0490122": {
    "zipcode": "0490122",
    "prefectureCode": "01",
    "prefectureNumber": 1,
    "prefecture": "北海道",
    "city": "北斗市",
    "town": "東浜"
  },
  "0490131": {
    "zipcode": "0490131",
    "prefectureCode": "01",
    "prefectureNumber": 1,
    "prefecture": "北海道",
    "city": "北斗市",
    "town": "富川"
  },
  "0490132": {
    "zipcode": "0490132",
    "prefectureCode": "01",
    "prefectureNumber": 1,
    "prefecture": "北海道",
    "city": "北斗市",
    "town": "館野"
  },
  "0490133": {
    "zipcode": "0490133",
    "prefectureCode": "01",
    "prefectureNumber": 1,
    "prefecture": "北海道",
    "city": "北斗市",
    "town": "柳沢"
  },
  "0490134": {
    "zipcode": "0490134",
    "prefectureCode": "01",
    "prefectureNumber": 1,
    "prefecture": "北海道",
    "city": "北斗市",
    "town": "三好"
  },
  "0490135": {
    "zipcode": "0490135",
    "prefectureCode": "01",
    "prefectureNumber": 1,
    "prefecture": "北海道",
    "city": "北斗市",
    "town": "水無"
  },
  "0490136": {
    "zipcode": "0490136",
    "prefectureCode": "01",
    "prefectureNumber": 1,
    "prefecture": "北海道",
    "city": "北斗市",
    "town": "峨朗"
  },
  "0490141": {
    "zipcode": "0490141",
    "prefectureCode": "01",
    "prefectureNumber": 1,
    "prefecture": "北海道",
    "city": "北斗市",
    "town": "谷好"
  },
  "0490142": {
    "zipcode": "0490142",
    "prefectureCode": "01",
    "prefectureNumber": 1,
    "prefecture": "北海道",
    "city": "北斗市",
    "town": "昭和"
  },
  "0490143": {
    "zipcode": "0490143",
    "prefectureCode": "01",
    "prefectureNumber": 1,
    "prefecture": "北海道",
    "city": "北斗市",
    "town": "公園通"
  },
  "0490151": {
    "zipcode": "0490151",
    "prefectureCode": "01",
    "prefectureNumber": 1,
    "prefecture": "北海道",
    "city": "北斗市",
    "town": "桜岱"
  },
  "0490152": {
    "zipcode": "0490152",
    "prefectureCode": "01",
    "prefectureNumber": 1,
    "prefecture": "北海道",
    "city": "北斗市",
    "town": "押上"
  },
  "0490153": {
    "zipcode": "0490153",
    "prefectureCode": "01",
    "prefectureNumber": 1,
    "prefecture": "北海道",
    "city": "北斗市",
    "town": "大工川"
  },
  "0490154": {
    "zipcode": "0490154",
    "prefectureCode": "01",
    "prefectureNumber": 1,
    "prefecture": "北海道",
    "city": "北斗市",
    "town": "添山"
  },
  "0490155": {
    "zipcode": "0490155",
    "prefectureCode": "01",
    "prefectureNumber": 1,
    "prefecture": "北海道",
    "city": "北斗市",
    "town": "中野"
  },
  "0490156": {
    "zipcode": "0490156",
    "prefectureCode": "01",
    "prefectureNumber": 1,
    "prefecture": "北海道",
    "city": "北斗市",
    "town": "中野通"
  },
  "0490157": {
    "zipcode": "0490157",
    "prefectureCode": "01",
    "prefectureNumber": 1,
    "prefecture": "北海道",
    "city": "北斗市",
    "town": "清川"
  },
  "0490158": {
    "zipcode": "0490158",
    "prefectureCode": "01",
    "prefectureNumber": 1,
    "prefecture": "北海道",
    "city": "北斗市",
    "town": "野崎"
  },
  "0490161": {
    "zipcode": "0490161",
    "prefectureCode": "01",
    "prefectureNumber": 1,
    "prefecture": "北海道",
    "city": "北斗市",
    "town": "飯生"
  },
  "0490162": {
    "zipcode": "0490162",
    "prefectureCode": "01",
    "prefectureNumber": 1,
    "prefecture": "北海道",
    "city": "北斗市",
    "town": "中央"
  },
  "0490171": {
    "zipcode": "0490171",
    "prefectureCode": "01",
    "prefectureNumber": 1,
    "prefecture": "北海道",
    "city": "北斗市",
    "town": "常盤"
  },
  "0490281": {
    "zipcode": "0490281",
    "prefectureCode": "01",
    "prefectureNumber": 1,
    "prefecture": "北海道",
    "city": "北斗市",
    "town": "茂辺地"
  },
  "0490282": {
    "zipcode": "0490282",
    "prefectureCode": "01",
    "prefectureNumber": 1,
    "prefecture": "北海道",
    "city": "北斗市",
    "town": "当別"
  },
  "0490283": {
    "zipcode": "0490283",
    "prefectureCode": "01",
    "prefectureNumber": 1,
    "prefecture": "北海道",
    "city": "北斗市",
    "town": "三ツ石"
  },
  "0490284": {
    "zipcode": "0490284",
    "prefectureCode": "01",
    "prefectureNumber": 1,
    "prefecture": "北海道",
    "city": "北斗市",
    "town": "湯ノ沢"
  },
  "0490285": {
    "zipcode": "0490285",
    "prefectureCode": "01",
    "prefectureNumber": 1,
    "prefecture": "北海道",
    "city": "北斗市",
    "town": "茂辺地市ノ渡"
  },
  "0490286": {
    "zipcode": "0490286",
    "prefectureCode": "01",
    "prefectureNumber": 1,
    "prefecture": "北海道",
    "city": "北斗市",
    "town": "矢不来"
  },
  "0490400": {
    "zipcode": "0490400",
    "prefectureCode": "01",
    "prefectureNumber": 1,
    "prefecture": "北海道",
    "city": "上磯郡木古内町",
    "town": "以下に掲載がない場合"
  },
  "0490401": {
    "zipcode": "0490401",
    "prefectureCode": "01",
    "prefectureNumber": 1,
    "prefecture": "北海道",
    "city": "上磯郡木古内町",
    "town": "大釜谷"
  },
  "0490402": {
    "zipcode": "0490402",
    "prefectureCode": "01",
    "prefectureNumber": 1,
    "prefecture": "北海道",
    "city": "上磯郡木古内町",
    "town": "御宮野"
  },
  "0490403": {
    "zipcode": "0490403",
    "prefectureCode": "01",
    "prefectureNumber": 1,
    "prefecture": "北海道",
    "city": "上磯郡木古内町",
    "town": "釜谷"
  },
  "0490404": {
    "zipcode": "0490404",
    "prefectureCode": "01",
    "prefectureNumber": 1,
    "prefecture": "北海道",
    "city": "上磯郡木古内町",
    "town": "亀川"
  },
  "0490405": {
    "zipcode": "0490405",
    "prefectureCode": "01",
    "prefectureNumber": 1,
    "prefecture": "北海道",
    "city": "上磯郡木古内町",
    "town": "泉沢"
  },
  "0490406": {
    "zipcode": "0490406",
    "prefectureCode": "01",
    "prefectureNumber": 1,
    "prefecture": "北海道",
    "city": "上磯郡木古内町",
    "town": "二乃岱"
  },
  "0490407": {
    "zipcode": "0490407",
    "prefectureCode": "01",
    "prefectureNumber": 1,
    "prefecture": "北海道",
    "city": "上磯郡木古内町",
    "town": "橋呉"
  },
  "0490408": {
    "zipcode": "0490408",
    "prefectureCode": "01",
    "prefectureNumber": 1,
    "prefecture": "北海道",
    "city": "上磯郡木古内町",
    "town": "幸連"
  },
  "0490411": {
    "zipcode": "0490411",
    "prefectureCode": "01",
    "prefectureNumber": 1,
    "prefecture": "北海道",
    "city": "上磯郡木古内町",
    "town": "札苅"
  },
  "0490412": {
    "zipcode": "0490412",
    "prefectureCode": "01",
    "prefectureNumber": 1,
    "prefecture": "北海道",
    "city": "上磯郡木古内町",
    "town": "大平"
  },
  "0490421": {
    "zipcode": "0490421",
    "prefectureCode": "01",
    "prefectureNumber": 1,
    "prefecture": "北海道",
    "city": "上磯郡木古内町",
    "town": "前浜"
  },
  "0490422": {
    "zipcode": "0490422",
    "prefectureCode": "01",
    "prefectureNumber": 1,
    "prefecture": "北海道",
    "city": "上磯郡木古内町",
    "town": "本町"
  },
  "0490431": {
    "zipcode": "0490431",
    "prefectureCode": "01",
    "prefectureNumber": 1,
    "prefecture": "北海道",
    "city": "上磯郡木古内町",
    "town": "木古内"
  },
  "0490441": {
    "zipcode": "0490441",
    "prefectureCode": "01",
    "prefectureNumber": 1,
    "prefecture": "北海道",
    "city": "上磯郡木古内町",
    "town": "中野"
  },
  "0490451": {
    "zipcode": "0490451",
    "prefectureCode": "01",
    "prefectureNumber": 1,
    "prefecture": "北海道",
    "city": "上磯郡木古内町",
    "town": "新道"
  },
  "0490452": {
    "zipcode": "0490452",
    "prefectureCode": "01",
    "prefectureNumber": 1,
    "prefecture": "北海道",
    "city": "上磯郡木古内町",
    "town": "建川"
  },
  "0490453": {
    "zipcode": "0490453",
    "prefectureCode": "01",
    "prefectureNumber": 1,
    "prefecture": "北海道",
    "city": "上磯郡木古内町",
    "town": "大川"
  },
  "0490454": {
    "zipcode": "0490454",
    "prefectureCode": "01",
    "prefectureNumber": 1,
    "prefecture": "北海道",
    "city": "上磯郡木古内町",
    "town": "瓜谷"
  },
  "0490455": {
    "zipcode": "0490455",
    "prefectureCode": "01",
    "prefectureNumber": 1,
    "prefecture": "北海道",
    "city": "上磯郡木古内町",
    "town": "鶴岡"
  },
  "0490561": {
    "zipcode": "0490561",
    "prefectureCode": "01",
    "prefectureNumber": 1,
    "prefecture": "北海道",
    "city": "檜山郡上ノ国町",
    "town": "神明"
  },
  "0490562": {
    "zipcode": "0490562",
    "prefectureCode": "01",
    "prefectureNumber": 1,
    "prefecture": "北海道",
    "city": "檜山郡上ノ国町",
    "town": "湯ノ岱"
  },
  "0490563": {
    "zipcode": "0490563",
    "prefectureCode": "01",
    "prefectureNumber": 1,
    "prefecture": "北海道",
    "city": "檜山郡上ノ国町",
    "town": "宮越"
  },
  "0490564": {
    "zipcode": "0490564",
    "prefectureCode": "01",
    "prefectureNumber": 1,
    "prefecture": "北海道",
    "city": "檜山郡上ノ国町",
    "town": "早瀬"
  },
  "0490600": {
    "zipcode": "0490600",
    "prefectureCode": "01",
    "prefectureNumber": 1,
    "prefecture": "北海道",
    "city": "檜山郡上ノ国町",
    "town": "以下に掲載がない場合"
  },
  "0490601": {
    "zipcode": "0490601",
    "prefectureCode": "01",
    "prefectureNumber": 1,
    "prefecture": "北海道",
    "city": "檜山郡上ノ国町",
    "town": "勝山"
  },
  "0490602": {
    "zipcode": "0490602",
    "prefectureCode": "01",
    "prefectureNumber": 1,
    "prefecture": "北海道",
    "city": "檜山郡上ノ国町",
    "town": "原歌"
  },
  "0490603": {
    "zipcode": "0490603",
    "prefectureCode": "01",
    "prefectureNumber": 1,
    "prefecture": "北海道",
    "city": "檜山郡上ノ国町",
    "town": "大崎"
  },
  "0490604": {
    "zipcode": "0490604",
    "prefectureCode": "01",
    "prefectureNumber": 1,
    "prefecture": "北海道",
    "city": "檜山郡上ノ国町",
    "town": "大安在"
  },
  "0490605": {
    "zipcode": "0490605",
    "prefectureCode": "01",
    "prefectureNumber": 1,
    "prefecture": "北海道",
    "city": "檜山郡上ノ国町",
    "town": "小安在"
  },
  "0490606": {
    "zipcode": "0490606",
    "prefectureCode": "01",
    "prefectureNumber": 1,
    "prefecture": "北海道",
    "city": "檜山郡上ノ国町",
    "town": "木ノ子"
  },
  "0490607": {
    "zipcode": "0490607",
    "prefectureCode": "01",
    "prefectureNumber": 1,
    "prefecture": "北海道",
    "city": "檜山郡上ノ国町",
    "town": "扇石"
  },
  "0490608": {
    "zipcode": "0490608",
    "prefectureCode": "01",
    "prefectureNumber": 1,
    "prefecture": "北海道",
    "city": "檜山郡上ノ国町",
    "town": "汐吹"
  },
  "0490611": {
    "zipcode": "0490611",
    "prefectureCode": "01",
    "prefectureNumber": 1,
    "prefecture": "北海道",
    "city": "檜山郡上ノ国町",
    "town": "大留"
  },
  "0490612": {
    "zipcode": "0490612",
    "prefectureCode": "01",
    "prefectureNumber": 1,
    "prefecture": "北海道",
    "city": "檜山郡上ノ国町",
    "town": "上ノ国"
  },
  "0490613": {
    "zipcode": "0490613",
    "prefectureCode": "01",
    "prefectureNumber": 1,
    "prefecture": "北海道",
    "city": "檜山郡上ノ国町",
    "town": "向浜"
  },
  "0490621": {
    "zipcode": "0490621",
    "prefectureCode": "01",
    "prefectureNumber": 1,
    "prefecture": "北海道",
    "city": "檜山郡上ノ国町",
    "town": "内郷"
  },
  "0490622": {
    "zipcode": "0490622",
    "prefectureCode": "01",
    "prefectureNumber": 1,
    "prefecture": "北海道",
    "city": "檜山郡上ノ国町",
    "town": "北村"
  },
  "0490623": {
    "zipcode": "0490623",
    "prefectureCode": "01",
    "prefectureNumber": 1,
    "prefecture": "北海道",
    "city": "檜山郡上ノ国町",
    "town": "新村"
  },
  "0490624": {
    "zipcode": "0490624",
    "prefectureCode": "01",
    "prefectureNumber": 1,
    "prefecture": "北海道",
    "city": "檜山郡上ノ国町",
    "town": "中須田"
  },
  "0490625": {
    "zipcode": "0490625",
    "prefectureCode": "01",
    "prefectureNumber": 1,
    "prefecture": "北海道",
    "city": "檜山郡上ノ国町",
    "town": "豊田"
  },
  "0490626": {
    "zipcode": "0490626",
    "prefectureCode": "01",
    "prefectureNumber": 1,
    "prefecture": "北海道",
    "city": "檜山郡上ノ国町",
    "town": "桂岡"
  },
  "0490627": {
    "zipcode": "0490627",
    "prefectureCode": "01",
    "prefectureNumber": 1,
    "prefecture": "北海道",
    "city": "檜山郡上ノ国町",
    "town": "小森"
  },
  "0490741": {
    "zipcode": "0490741",
    "prefectureCode": "01",
    "prefectureNumber": 1,
    "prefecture": "北海道",
    "city": "檜山郡上ノ国町",
    "town": "石崎"
  },
  "0490742": {
    "zipcode": "0490742",
    "prefectureCode": "01",
    "prefectureNumber": 1,
    "prefecture": "北海道",
    "city": "檜山郡上ノ国町",
    "town": "館野"
  },
  "0490743": {
    "zipcode": "0490743",
    "prefectureCode": "01",
    "prefectureNumber": 1,
    "prefecture": "北海道",
    "city": "檜山郡上ノ国町",
    "town": "小砂子"
  },
  "0490744": {
    "zipcode": "0490744",
    "prefectureCode": "01",
    "prefectureNumber": 1,
    "prefecture": "北海道",
    "city": "檜山郡上ノ国町",
    "town": "早川"
  },
  "0491100": {
    "zipcode": "0491100",
    "prefectureCode": "01",
    "prefectureNumber": 1,
    "prefecture": "北海道",
    "city": "上磯郡知内町",
    "town": "以下に掲載がない場合"
  },
  "0491101": {
    "zipcode": "0491101",
    "prefectureCode": "01",
    "prefectureNumber": 1,
    "prefecture": "北海道",
    "city": "上磯郡知内町",
    "town": "中ノ川"
  },
  "0491102": {
    "zipcode": "0491102",
    "prefectureCode": "01",
    "prefectureNumber": 1,
    "prefecture": "北海道",
    "city": "上磯郡知内町",
    "town": "森越"
  },
  "0491103": {
    "zipcode": "0491103",
    "prefectureCode": "01",
    "prefectureNumber": 1,
    "prefecture": "北海道",
    "city": "上磯郡知内町",
    "town": "重内"
  },
  "0491104": {
    "zipcode": "0491104",
    "prefectureCode": "01",
    "prefectureNumber": 1,
    "prefecture": "北海道",
    "city": "上磯郡知内町",
    "town": "涌元"
  },
  "0491105": {
    "zipcode": "0491105",
    "prefectureCode": "01",
    "prefectureNumber": 1,
    "prefecture": "北海道",
    "city": "上磯郡知内町",
    "town": "小谷石"
  },
  "0491106": {
    "zipcode": "0491106",
    "prefectureCode": "01",
    "prefectureNumber": 1,
    "prefecture": "北海道",
    "city": "上磯郡知内町",
    "town": "元町"
  },
  "0491107": {
    "zipcode": "0491107",
    "prefectureCode": "01",
    "prefectureNumber": 1,
    "prefecture": "北海道",
    "city": "上磯郡知内町",
    "town": "上雷"
  },
  "0491221": {
    "zipcode": "0491221",
    "prefectureCode": "01",
    "prefectureNumber": 1,
    "prefecture": "北海道",
    "city": "上磯郡知内町",
    "town": "湯ノ里"
  },
  "0491300": {
    "zipcode": "0491300",
    "prefectureCode": "01",
    "prefectureNumber": 1,
    "prefecture": "北海道",
    "city": "松前郡福島町",
    "town": "以下に掲載がない場合"
  },
  "0491301": {
    "zipcode": "0491301",
    "prefectureCode": "01",
    "prefectureNumber": 1,
    "prefecture": "北海道",
    "city": "松前郡福島町",
    "town": "白符"
  },
  "0491302": {
    "zipcode": "0491302",
    "prefectureCode": "01",
    "prefectureNumber": 1,
    "prefecture": "北海道",
    "city": "松前郡福島町",
    "town": "日向"
  },
  "0491311": {
    "zipcode": "0491311",
    "prefectureCode": "01",
    "prefectureNumber": 1,
    "prefecture": "北海道",
    "city": "松前郡福島町",
    "town": "桧倉"
  },
  "0491312": {
    "zipcode": "0491312",
    "prefectureCode": "01",
    "prefectureNumber": 1,
    "prefecture": "北海道",
    "city": "松前郡福島町",
    "town": "吉田町"
  },
  "0491321": {
    "zipcode": "0491321",
    "prefectureCode": "01",
    "prefectureNumber": 1,
    "prefecture": "北海道",
    "city": "松前郡福島町",
    "town": "緑町"
  },
  "0491322": {
    "zipcode": "0491322",
    "prefectureCode": "01",
    "prefectureNumber": 1,
    "prefecture": "北海道",
    "city": "松前郡福島町",
    "town": "塩釜"
  },
  "0491323": {
    "zipcode": "0491323",
    "prefectureCode": "01",
    "prefectureNumber": 1,
    "prefecture": "北海道",
    "city": "松前郡福島町",
    "town": "浦和"
  },
  "0491324": {
    "zipcode": "0491324",
    "prefectureCode": "01",
    "prefectureNumber": 1,
    "prefecture": "北海道",
    "city": "松前郡福島町",
    "town": "日の出"
  },
  "0491325": {
    "zipcode": "0491325",
    "prefectureCode": "01",
    "prefectureNumber": 1,
    "prefecture": "北海道",
    "city": "松前郡福島町",
    "town": "岩部"
  },
  "0491331": {
    "zipcode": "0491331",
    "prefectureCode": "01",
    "prefectureNumber": 1,
    "prefecture": "北海道",
    "city": "松前郡福島町",
    "town": "三岳"
  },
  "0491332": {
    "zipcode": "0491332",
    "prefectureCode": "01",
    "prefectureNumber": 1,
    "prefecture": "北海道",
    "city": "松前郡福島町",
    "town": "千軒"
  },
  "0491451": {
    "zipcode": "0491451",
    "prefectureCode": "01",
    "prefectureNumber": 1,
    "prefecture": "北海道",
    "city": "松前郡福島町",
    "town": "宮歌"
  },
  "0491452": {
    "zipcode": "0491452",
    "prefectureCode": "01",
    "prefectureNumber": 1,
    "prefecture": "北海道",
    "city": "松前郡福島町",
    "town": "豊浜"
  },
  "0491453": {
    "zipcode": "0491453",
    "prefectureCode": "01",
    "prefectureNumber": 1,
    "prefecture": "北海道",
    "city": "松前郡福島町",
    "town": "吉岡"
  },
  "0491454": {
    "zipcode": "0491454",
    "prefectureCode": "01",
    "prefectureNumber": 1,
    "prefecture": "北海道",
    "city": "松前郡福島町",
    "town": "館崎"
  },
  "0491455": {
    "zipcode": "0491455",
    "prefectureCode": "01",
    "prefectureNumber": 1,
    "prefecture": "北海道",
    "city": "松前郡福島町",
    "town": "吉野"
  },
  "0491456": {
    "zipcode": "0491456",
    "prefectureCode": "01",
    "prefectureNumber": 1,
    "prefecture": "北海道",
    "city": "松前郡福島町",
    "town": "松浦"
  },
  "0491500": {
    "zipcode": "0491500",
    "prefectureCode": "01",
    "prefectureNumber": 1,
    "prefecture": "北海道",
    "city": "松前郡松前町",
    "town": "以下に掲載がない場合"
  },
  "0491501": {
    "zipcode": "0491501",
    "prefectureCode": "01",
    "prefectureNumber": 1,
    "prefecture": "北海道",
    "city": "松前郡松前町",
    "town": "建石"
  },
  "0491502": {
    "zipcode": "0491502",
    "prefectureCode": "01",
    "prefectureNumber": 1,
    "prefecture": "北海道",
    "city": "松前郡松前町",
    "town": "弁天"
  },
  "0491503": {
    "zipcode": "0491503",
    "prefectureCode": "01",
    "prefectureNumber": 1,
    "prefecture": "北海道",
    "city": "松前郡松前町",
    "town": "大磯"
  },
  "0491504": {
    "zipcode": "0491504",
    "prefectureCode": "01",
    "prefectureNumber": 1,
    "prefecture": "北海道",
    "city": "松前郡松前町",
    "town": "愛宕"
  },
  "0491505": {
    "zipcode": "0491505",
    "prefectureCode": "01",
    "prefectureNumber": 1,
    "prefecture": "北海道",
    "city": "松前郡松前町",
    "town": "博多"
  },
  "0491506": {
    "zipcode": "0491506",
    "prefectureCode": "01",
    "prefectureNumber": 1,
    "prefecture": "北海道",
    "city": "松前郡松前町",
    "town": "唐津"
  },
  "0491507": {
    "zipcode": "0491507",
    "prefectureCode": "01",
    "prefectureNumber": 1,
    "prefecture": "北海道",
    "city": "松前郡松前町",
    "town": "西館"
  },
  "0491511": {
    "zipcode": "0491511",
    "prefectureCode": "01",
    "prefectureNumber": 1,
    "prefecture": "北海道",
    "city": "松前郡松前町",
    "town": "松城"
  },
  "0491512": {
    "zipcode": "0491512",
    "prefectureCode": "01",
    "prefectureNumber": 1,
    "prefecture": "北海道",
    "city": "松前郡松前町",
    "town": "福山"
  },
  "0491513": {
    "zipcode": "0491513",
    "prefectureCode": "01",
    "prefectureNumber": 1,
    "prefecture": "北海道",
    "city": "松前郡松前町",
    "town": "神明"
  },
  "0491514": {
    "zipcode": "0491514",
    "prefectureCode": "01",
    "prefectureNumber": 1,
    "prefecture": "北海道",
    "city": "松前郡松前町",
    "town": "豊岡"
  },
  "0491515": {
    "zipcode": "0491515",
    "prefectureCode": "01",
    "prefectureNumber": 1,
    "prefecture": "北海道",
    "city": "松前郡松前町",
    "town": "月島"
  },
  "0491516": {
    "zipcode": "0491516",
    "prefectureCode": "01",
    "prefectureNumber": 1,
    "prefecture": "北海道",
    "city": "松前郡松前町",
    "town": "東山"
  },
  "0491517": {
    "zipcode": "0491517",
    "prefectureCode": "01",
    "prefectureNumber": 1,
    "prefecture": "北海道",
    "city": "松前郡松前町",
    "town": "朝日"
  },
  "0491521": {
    "zipcode": "0491521",
    "prefectureCode": "01",
    "prefectureNumber": 1,
    "prefecture": "北海道",
    "city": "松前郡松前町",
    "town": "上川"
  },
  "0491522": {
    "zipcode": "0491522",
    "prefectureCode": "01",
    "prefectureNumber": 1,
    "prefecture": "北海道",
    "city": "松前郡松前町",
    "town": "大沢"
  },
  "0491523": {
    "zipcode": "0491523",
    "prefectureCode": "01",
    "prefectureNumber": 1,
    "prefecture": "北海道",
    "city": "松前郡松前町",
    "town": "荒谷"
  },
  "0491524": {
    "zipcode": "0491524",
    "prefectureCode": "01",
    "prefectureNumber": 1,
    "prefecture": "北海道",
    "city": "松前郡松前町",
    "town": "白神"
  },
  "0491641": {
    "zipcode": "0491641",
    "prefectureCode": "01",
    "prefectureNumber": 1,
    "prefecture": "北海道",
    "city": "松前郡松前町",
    "town": "館浜"
  },
  "0491642": {
    "zipcode": "0491642",
    "prefectureCode": "01",
    "prefectureNumber": 1,
    "prefecture": "北海道",
    "city": "松前郡松前町",
    "town": "札前"
  },
  "0491643": {
    "zipcode": "0491643",
    "prefectureCode": "01",
    "prefectureNumber": 1,
    "prefecture": "北海道",
    "city": "松前郡松前町",
    "town": "赤神"
  },
  "0491644": {
    "zipcode": "0491644",
    "prefectureCode": "01",
    "prefectureNumber": 1,
    "prefecture": "北海道",
    "city": "松前郡松前町",
    "town": "静浦"
  },
  "0491645": {
    "zipcode": "0491645",
    "prefectureCode": "01",
    "prefectureNumber": 1,
    "prefecture": "北海道",
    "city": "松前郡松前町",
    "town": "茂草"
  },
  "0491761": {
    "zipcode": "0491761",
    "prefectureCode": "01",
    "prefectureNumber": 1,
    "prefecture": "北海道",
    "city": "松前郡松前町",
    "town": "神山"
  },
  "0491762": {
    "zipcode": "0491762",
    "prefectureCode": "01",
    "prefectureNumber": 1,
    "prefecture": "北海道",
    "city": "松前郡松前町",
    "town": "原口"
  },
  "0491763": {
    "zipcode": "0491763",
    "prefectureCode": "01",
    "prefectureNumber": 1,
    "prefecture": "北海道",
    "city": "松前郡松前町",
    "town": "白坂"
  },
  "0491764": {
    "zipcode": "0491764",
    "prefectureCode": "01",
    "prefectureNumber": 1,
    "prefecture": "北海道",
    "city": "松前郡松前町",
    "town": "二越"
  },
  "0491771": {
    "zipcode": "0491771",
    "prefectureCode": "01",
    "prefectureNumber": 1,
    "prefecture": "北海道",
    "city": "松前郡松前町",
    "town": "江良"
  },
  "0491781": {
    "zipcode": "0491781",
    "prefectureCode": "01",
    "prefectureNumber": 1,
    "prefecture": "北海道",
    "city": "松前郡松前町",
    "town": "大津"
  },
  "0491782": {
    "zipcode": "0491782",
    "prefectureCode": "01",
    "prefectureNumber": 1,
    "prefecture": "北海道",
    "city": "松前郡松前町",
    "town": "高野"
  },
  "0491783": {
    "zipcode": "0491783",
    "prefectureCode": "01",
    "prefectureNumber": 1,
    "prefecture": "北海道",
    "city": "松前郡松前町",
    "town": "清部"
  },
  "0491784": {
    "zipcode": "0491784",
    "prefectureCode": "01",
    "prefectureNumber": 1,
    "prefecture": "北海道",
    "city": "松前郡松前町",
    "town": "小浜"
  },
  "0492141": {
    "zipcode": "0492141",
    "prefectureCode": "01",
    "prefectureNumber": 1,
    "prefecture": "北海道",
    "city": "茅部郡森町",
    "town": "駒ケ岳"
  },
  "0492142": {
    "zipcode": "0492142",
    "prefectureCode": "01",
    "prefectureNumber": 1,
    "prefecture": "北海道",
    "city": "茅部郡森町",
    "town": "赤井川"
  },
  "0492221": {
    "zipcode": "0492221",
    "prefectureCode": "01",
    "prefectureNumber": 1,
    "prefecture": "北海道",
    "city": "茅部郡森町",
    "town": "砂原西"
  },
  "0492222": {
    "zipcode": "0492222",
    "prefectureCode": "01",
    "prefectureNumber": 1,
    "prefecture": "北海道",
    "city": "茅部郡森町",
    "town": "砂原"
  },
  "0492223": {
    "zipcode": "0492223",
    "prefectureCode": "01",
    "prefectureNumber": 1,
    "prefecture": "北海道",
    "city": "茅部郡森町",
    "town": "砂原東"
  },
  "0492300": {
    "zipcode": "0492300",
    "prefectureCode": "01",
    "prefectureNumber": 1,
    "prefecture": "北海道",
    "city": "茅部郡森町",
    "town": "以下に掲載がない場合"
  },
  "0492301": {
    "zipcode": "0492301",
    "prefectureCode": "01",
    "prefectureNumber": 1,
    "prefecture": "北海道",
    "city": "茅部郡森町",
    "town": "尾白内町"
  },
  "0492302": {
    "zipcode": "0492302",
    "prefectureCode": "01",
    "prefectureNumber": 1,
    "prefecture": "北海道",
    "city": "茅部郡森町",
    "town": "港町"
  },
  "0492303": {
    "zipcode": "0492303",
    "prefectureCode": "01",
    "prefectureNumber": 1,
    "prefecture": "北海道",
    "city": "茅部郡森町",
    "town": "東森町"
  },
  "0492304": {
    "zipcode": "0492304",
    "prefectureCode": "01",
    "prefectureNumber": 1,
    "prefecture": "北海道",
    "city": "茅部郡森町",
    "town": "新川町"
  },
  "0492305": {
    "zipcode": "0492305",
    "prefectureCode": "01",
    "prefectureNumber": 1,
    "prefecture": "北海道",
    "city": "茅部郡森町",
    "town": "常盤町"
  },
  "0492306": {
    "zipcode": "0492306",
    "prefectureCode": "01",
    "prefectureNumber": 1,
    "prefecture": "北海道",
    "city": "茅部郡森町",
    "town": "姫川"
  },
  "0492307": {
    "zipcode": "0492307",
    "prefectureCode": "01",
    "prefectureNumber": 1,
    "prefecture": "北海道",
    "city": "茅部郡森町",
    "town": "白川"
  },
  "0492308": {
    "zipcode": "0492308",
    "prefectureCode": "01",
    "prefectureNumber": 1,
    "prefecture": "北海道",
    "city": "茅部郡森町",
    "town": "栄町"
  },
  "0492311": {
    "zipcode": "0492311",
    "prefectureCode": "01",
    "prefectureNumber": 1,
    "prefecture": "北海道",
    "city": "茅部郡森町",
    "town": "上台町"
  },
  "0492312": {
    "zipcode": "0492312",
    "prefectureCode": "01",
    "prefectureNumber": 1,
    "prefecture": "北海道",
    "city": "茅部郡森町",
    "town": "霞台"
  },
  "0492313": {
    "zipcode": "0492313",
    "prefectureCode": "01",
    "prefectureNumber": 1,
    "prefecture": "北海道",
    "city": "茅部郡森町",
    "town": "森川町"
  },
  "0492321": {
    "zipcode": "0492321",
    "prefectureCode": "01",
    "prefectureNumber": 1,
    "prefecture": "北海道",
    "city": "茅部郡森町",
    "town": "鷲ノ木町"
  },
  "0492322": {
    "zipcode": "0492322",
    "prefectureCode": "01",
    "prefectureNumber": 1,
    "prefecture": "北海道",
    "city": "茅部郡森町",
    "town": "富士見町"
  },
  "0492323": {
    "zipcode": "0492323",
    "prefectureCode": "01",
    "prefectureNumber": 1,
    "prefecture": "北海道",
    "city": "茅部郡森町",
    "town": "鳥崎町"
  },
  "0492324": {
    "zipcode": "0492324",
    "prefectureCode": "01",
    "prefectureNumber": 1,
    "prefecture": "北海道",
    "city": "茅部郡森町",
    "town": "栗ケ丘"
  },
  "0492325": {
    "zipcode": "0492325",
    "prefectureCode": "01",
    "prefectureNumber": 1,
    "prefecture": "北海道",
    "city": "茅部郡森町",
    "town": "本町"
  },
  "0492326": {
    "zipcode": "0492326",
    "prefectureCode": "01",
    "prefectureNumber": 1,
    "prefecture": "北海道",
    "city": "茅部郡森町",
    "town": "御幸町"
  },
  "0492327": {
    "zipcode": "0492327",
    "prefectureCode": "01",
    "prefectureNumber": 1,
    "prefecture": "北海道",
    "city": "茅部郡森町",
    "town": "清澄町"
  },
  "0492461": {
    "zipcode": "0492461",
    "prefectureCode": "01",
    "prefectureNumber": 1,
    "prefecture": "北海道",
    "city": "茅部郡森町",
    "town": "三岱"
  },
  "0492462": {
    "zipcode": "0492462",
    "prefectureCode": "01",
    "prefectureNumber": 1,
    "prefecture": "北海道",
    "city": "茅部郡森町",
    "town": "濁川"
  },
  "0492463": {
    "zipcode": "0492463",
    "prefectureCode": "01",
    "prefectureNumber": 1,
    "prefecture": "北海道",
    "city": "茅部郡森町",
    "town": "石倉町"
  },
  "0492464": {
    "zipcode": "0492464",
    "prefectureCode": "01",
    "prefectureNumber": 1,
    "prefecture": "北海道",
    "city": "茅部郡森町",
    "town": "本茅部町"
  },
  "0492465": {
    "zipcode": "0492465",
    "prefectureCode": "01",
    "prefectureNumber": 1,
    "prefecture": "北海道",
    "city": "茅部郡森町",
    "town": "蛯谷町"
  },
  "0492561": {
    "zipcode": "0492561",
    "prefectureCode": "01",
    "prefectureNumber": 1,
    "prefecture": "北海道",
    "city": "二海郡八雲町",
    "town": "旭丘"
  },
  "0492562": {
    "zipcode": "0492562",
    "prefectureCode": "01",
    "prefectureNumber": 1,
    "prefecture": "北海道",
    "city": "二海郡八雲町",
    "town": "落部"
  },
  "0492563": {
    "zipcode": "0492563",
    "prefectureCode": "01",
    "prefectureNumber": 1,
    "prefecture": "北海道",
    "city": "二海郡八雲町",
    "town": "栄浜"
  },
  "0492564": {
    "zipcode": "0492564",
    "prefectureCode": "01",
    "prefectureNumber": 1,
    "prefecture": "北海道",
    "city": "二海郡八雲町",
    "town": "入沢"
  },
  "0492565": {
    "zipcode": "0492565",
    "prefectureCode": "01",
    "prefectureNumber": 1,
    "prefecture": "北海道",
    "city": "二海郡八雲町",
    "town": "下の湯"
  },
  "0492566": {
    "zipcode": "0492566",
    "prefectureCode": "01",
    "prefectureNumber": 1,
    "prefecture": "北海道",
    "city": "二海郡八雲町",
    "town": "上の湯"
  },
  "0492671": {
    "zipcode": "0492671",
    "prefectureCode": "01",
    "prefectureNumber": 1,
    "prefecture": "北海道",
    "city": "二海郡八雲町",
    "town": "山越"
  },
  "0492672": {
    "zipcode": "0492672",
    "prefectureCode": "01",
    "prefectureNumber": 1,
    "prefecture": "北海道",
    "city": "二海郡八雲町",
    "town": "野田生"
  },
  "0492673": {
    "zipcode": "0492673",
    "prefectureCode": "01",
    "prefectureNumber": 1,
    "prefecture": "北海道",
    "city": "二海郡八雲町",
    "town": "東野"
  },
  "0492674": {
    "zipcode": "0492674",
    "prefectureCode": "01",
    "prefectureNumber": 1,
    "prefecture": "北海道",
    "city": "二海郡八雲町",
    "town": "わらび野"
  },
  "0492675": {
    "zipcode": "0492675",
    "prefectureCode": "01",
    "prefectureNumber": 1,
    "prefecture": "北海道",
    "city": "二海郡八雲町",
    "town": "桜野"
  },
  "0493100": {
    "zipcode": "0493100",
    "prefectureCode": "01",
    "prefectureNumber": 1,
    "prefecture": "北海道",
    "city": "二海郡八雲町",
    "town": "以下に掲載がない場合"
  },
  "0493101": {
    "zipcode": "0493101",
    "prefectureCode": "01",
    "prefectureNumber": 1,
    "prefecture": "北海道",
    "city": "二海郡八雲町",
    "town": "元町"
  },
  "0493102": {
    "zipcode": "0493102",
    "prefectureCode": "01",
    "prefectureNumber": 1,
    "prefecture": "北海道",
    "city": "二海郡八雲町",
    "town": "東町"
  },
  "0493103": {
    "zipcode": "0493103",
    "prefectureCode": "01",
    "prefectureNumber": 1,
    "prefecture": "北海道",
    "city": "二海郡八雲町",
    "town": "豊河町"
  },
  "0493104": {
    "zipcode": "0493104",
    "prefectureCode": "01",
    "prefectureNumber": 1,
    "prefecture": "北海道",
    "city": "二海郡八雲町",
    "town": "内浦町"
  },
  "0493105": {
    "zipcode": "0493105",
    "prefectureCode": "01",
    "prefectureNumber": 1,
    "prefecture": "北海道",
    "city": "二海郡八雲町",
    "town": "東雲町"
  },
  "0493106": {
    "zipcode": "0493106",
    "prefectureCode": "01",
    "prefectureNumber": 1,
    "prefecture": "北海道",
    "city": "二海郡八雲町",
    "town": "富士見町"
  },
  "0493107": {
    "zipcode": "0493107",
    "prefectureCode": "01",
    "prefectureNumber": 1,
    "prefecture": "北海道",
    "city": "二海郡八雲町",
    "town": "本町"
  },
  "0493111": {
    "zipcode": "0493111",
    "prefectureCode": "01",
    "prefectureNumber": 1,
    "prefecture": "北海道",
    "city": "二海郡八雲町",
    "town": "住初町"
  },
  "0493112": {
    "zipcode": "0493112",
    "prefectureCode": "01",
    "prefectureNumber": 1,
    "prefecture": "北海道",
    "city": "二海郡八雲町",
    "town": "末広町"
  },
  "0493113": {
    "zipcode": "0493113",
    "prefectureCode": "01",
    "prefectureNumber": 1,
    "prefecture": "北海道",
    "city": "二海郡八雲町",
    "town": "相生町"
  },
  "0493114": {
    "zipcode": "0493114",
    "prefectureCode": "01",
    "prefectureNumber": 1,
    "prefecture": "北海道",
    "city": "二海郡八雲町",
    "town": "三杉町"
  },
  "0493115": {
    "zipcode": "0493115",
    "prefectureCode": "01",
    "prefectureNumber": 1,
    "prefecture": "北海道",
    "city": "二海郡八雲町",
    "town": "出雲町"
  },
  "0493116": {
    "zipcode": "0493116",
    "prefectureCode": "01",
    "prefectureNumber": 1,
    "prefecture": "北海道",
    "city": "二海郡八雲町",
    "town": "宮園町"
  },
  "0493117": {
    "zipcode": "0493117",
    "prefectureCode": "01",
    "prefectureNumber": 1,
    "prefecture": "北海道",
    "city": "二海郡八雲町",
    "town": "栄町"
  },
  "0493118": {
    "zipcode": "0493118",
    "prefectureCode": "01",
    "prefectureNumber": 1,
    "prefecture": "北海道",
    "city": "二海郡八雲町",
    "town": "緑町"
  },
  "0493121": {
    "zipcode": "0493121",
    "prefectureCode": "01",
    "prefectureNumber": 1,
    "prefecture": "北海道",
    "city": "二海郡八雲町",
    "town": "富咲"
  },
  "0493122": {
    "zipcode": "0493122",
    "prefectureCode": "01",
    "prefectureNumber": 1,
    "prefecture": "北海道",
    "city": "二海郡八雲町",
    "town": "花浦"
  },
  "0493123": {
    "zipcode": "0493123",
    "prefectureCode": "01",
    "prefectureNumber": 1,
    "prefecture": "北海道",
    "city": "二海郡八雲町",
    "town": "立岩"
  },
  "0493124": {
    "zipcode": "0493124",
    "prefectureCode": "01",
    "prefectureNumber": 1,
    "prefecture": "北海道",
    "city": "二海郡八雲町",
    "town": "浜松"
  },
  "0493125": {
    "zipcode": "0493125",
    "prefectureCode": "01",
    "prefectureNumber": 1,
    "prefecture": "北海道",
    "city": "二海郡八雲町",
    "town": "熱田"
  },
  "0493126": {
    "zipcode": "0493126",
    "prefectureCode": "01",
    "prefectureNumber": 1,
    "prefecture": "北海道",
    "city": "二海郡八雲町",
    "town": "大新"
  },
  "0493127": {
    "zipcode": "0493127",
    "prefectureCode": "01",
    "prefectureNumber": 1,
    "prefecture": "北海道",
    "city": "二海郡八雲町",
    "town": "春日"
  },
  "0493128": {
    "zipcode": "0493128",
    "prefectureCode": "01",
    "prefectureNumber": 1,
    "prefecture": "北海道",
    "city": "二海郡八雲町",
    "town": "鉛川"
  },
  "0493341": {
    "zipcode": "0493341",
    "prefectureCode": "01",
    "prefectureNumber": 1,
    "prefecture": "北海道",
    "city": "二海郡八雲町",
    "town": "黒岩"
  },
  "0493342": {
    "zipcode": "0493342",
    "prefectureCode": "01",
    "prefectureNumber": 1,
    "prefecture": "北海道",
    "city": "二海郡八雲町",
    "town": "山崎"
  },
  "0493461": {
    "zipcode": "0493461",
    "prefectureCode": "01",
    "prefectureNumber": 1,
    "prefecture": "北海道",
    "city": "山越郡長万部町",
    "town": "花岡"
  },
  "0493462": {
    "zipcode": "0493462",
    "prefectureCode": "01",
    "prefectureNumber": 1,
    "prefecture": "北海道",
    "city": "山越郡長万部町",
    "town": "国縫"
  },
  "0493463": {
    "zipcode": "0493463",
    "prefectureCode": "01",
    "prefectureNumber": 1,
    "prefecture": "北海道",
    "city": "山越郡長万部町",
    "town": "豊野"
  },
  "0493464": {
    "zipcode": "0493464",
    "prefectureCode": "01",
    "prefectureNumber": 1,
    "prefecture": "北海道",
    "city": "山越郡長万部町",
    "town": "豊津"
  },
  "0493465": {
    "zipcode": "0493465",
    "prefectureCode": "01",
    "prefectureNumber": 1,
    "prefecture": "北海道",
    "city": "山越郡長万部町",
    "town": "茶屋川"
  },
  "0493500": {
    "zipcode": "0493500",
    "prefectureCode": "01",
    "prefectureNumber": 1,
    "prefecture": "北海道",
    "city": "山越郡長万部町",
    "town": "以下に掲載がない場合"
  },
  "0493501": {
    "zipcode": "0493501",
    "prefectureCode": "01",
    "prefectureNumber": 1,
    "prefecture": "北海道",
    "city": "山越郡長万部町",
    "town": "双葉"
  },
  "0493502": {
    "zipcode": "0493502",
    "prefectureCode": "01",
    "prefectureNumber": 1,
    "prefecture": "北海道",
    "city": "山越郡長万部町",
    "town": "知来"
  },
  "0493503": {
    "zipcode": "0493503",
    "prefectureCode": "01",
    "prefectureNumber": 1,
    "prefecture": "北海道",
    "city": "山越郡長万部町",
    "town": "蕨岱"
  },
  "0493504": {
    "zipcode": "0493504",
    "prefectureCode": "01",
    "prefectureNumber": 1,
    "prefecture": "北海道",
    "city": "山越郡長万部町",
    "town": "美畑"
  },
  "0493511": {
    "zipcode": "0493511",
    "prefectureCode": "01",
    "prefectureNumber": 1,
    "prefecture": "北海道",
    "city": "山越郡長万部町",
    "town": "大浜"
  },
  "0493512": {
    "zipcode": "0493512",
    "prefectureCode": "01",
    "prefectureNumber": 1,
    "prefecture": "北海道",
    "city": "山越郡長万部町",
    "town": "中の沢"
  },
  "0493513": {
    "zipcode": "0493513",
    "prefectureCode": "01",
    "prefectureNumber": 1,
    "prefecture": "北海道",
    "city": "山越郡長万部町",
    "town": "平里"
  },
  "0493514": {
    "zipcode": "0493514",
    "prefectureCode": "01",
    "prefectureNumber": 1,
    "prefecture": "北海道",
    "city": "山越郡長万部町",
    "town": "富野"
  },
  "0493515": {
    "zipcode": "0493515",
    "prefectureCode": "01",
    "prefectureNumber": 1,
    "prefecture": "北海道",
    "city": "山越郡長万部町",
    "town": "栗岡"
  },
  "0493516": {
    "zipcode": "0493516",
    "prefectureCode": "01",
    "prefectureNumber": 1,
    "prefecture": "北海道",
    "city": "山越郡長万部町",
    "town": "栄原"
  },
  "0493517": {
    "zipcode": "0493517",
    "prefectureCode": "01",
    "prefectureNumber": 1,
    "prefecture": "北海道",
    "city": "山越郡長万部町",
    "town": "共立"
  },
  "0493518": {
    "zipcode": "0493518",
    "prefectureCode": "01",
    "prefectureNumber": 1,
    "prefecture": "北海道",
    "city": "山越郡長万部町",
    "town": "静狩（３−１番地）"
  },
  "0493519": {
    "zipcode": "0493519",
    "prefectureCode": "01",
    "prefectureNumber": 1,
    "prefecture": "北海道",
    "city": "山越郡長万部町",
    "town": "旭浜"
  },
  "0493521": {
    "zipcode": "0493521",
    "prefectureCode": "01",
    "prefectureNumber": 1,
    "prefecture": "北海道",
    "city": "山越郡長万部町",
    "town": "元町"
  },
  "0494151": {
    "zipcode": "0494151",
    "prefectureCode": "01",
    "prefectureNumber": 1,
    "prefecture": "北海道",
    "city": "瀬棚郡今金町",
    "town": "美利河"
  },
  "0494152": {
    "zipcode": "0494152",
    "prefectureCode": "01",
    "prefectureNumber": 1,
    "prefecture": "北海道",
    "city": "瀬棚郡今金町",
    "town": "宮島"
  },
  "0494153": {
    "zipcode": "0494153",
    "prefectureCode": "01",
    "prefectureNumber": 1,
    "prefecture": "北海道",
    "city": "瀬棚郡今金町",
    "town": "花石"
  },
  "0494154": {
    "zipcode": "0494154",
    "prefectureCode": "01",
    "prefectureNumber": 1,
    "prefecture": "北海道",
    "city": "瀬棚郡今金町",
    "town": "中里"
  },
  "0494155": {
    "zipcode": "0494155",
    "prefectureCode": "01",
    "prefectureNumber": 1,
    "prefecture": "北海道",
    "city": "瀬棚郡今金町",
    "town": "奥沢"
  },
  "0494156": {
    "zipcode": "0494156",
    "prefectureCode": "01",
    "prefectureNumber": 1,
    "prefecture": "北海道",
    "city": "瀬棚郡今金町",
    "town": "住吉"
  },
  "0494157": {
    "zipcode": "0494157",
    "prefectureCode": "01",
    "prefectureNumber": 1,
    "prefecture": "北海道",
    "city": "瀬棚郡今金町",
    "town": "上種川"
  },
  "0494300": {
    "zipcode": "0494300",
    "prefectureCode": "01",
    "prefectureNumber": 1,
    "prefecture": "北海道",
    "city": "瀬棚郡今金町",
    "town": "以下に掲載がない場合"
  },
  "0494301": {
    "zipcode": "0494301",
    "prefectureCode": "01",
    "prefectureNumber": 1,
    "prefecture": "北海道",
    "city": "瀬棚郡今金町",
    "town": "東町"
  },
  "0494302": {
    "zipcode": "0494302",
    "prefectureCode": "01",
    "prefectureNumber": 1,
    "prefecture": "北海道",
    "city": "瀬棚郡今金町",
    "town": "日の出町"
  },
  "0494303": {
    "zipcode": "0494303",
    "prefectureCode": "01",
    "prefectureNumber": 1,
    "prefecture": "北海道",
    "city": "瀬棚郡今金町",
    "town": "曙町"
  },
  "0494304": {
    "zipcode": "0494304",
    "prefectureCode": "01",
    "prefectureNumber": 1,
    "prefecture": "北海道",
    "city": "瀬棚郡今金町",
    "town": "寒昇"
  },
  "0494305": {
    "zipcode": "0494305",
    "prefectureCode": "01",
    "prefectureNumber": 1,
    "prefecture": "北海道",
    "city": "瀬棚郡今金町",
    "town": "南栄町"
  },
  "0494306": {
    "zipcode": "0494306",
    "prefectureCode": "01",
    "prefectureNumber": 1,
    "prefecture": "北海道",
    "city": "瀬棚郡今金町",
    "town": "高美町"
  },
  "0494307": {
    "zipcode": "0494307",
    "prefectureCode": "01",
    "prefectureNumber": 1,
    "prefecture": "北海道",
    "city": "瀬棚郡今金町",
    "town": "八幡町"
  },
  "0494308": {
    "zipcode": "0494308",
    "prefectureCode": "01",
    "prefectureNumber": 1,
    "prefecture": "北海道",
    "city": "瀬棚郡今金町",
    "town": "今金"
  },
  "0494311": {
    "zipcode": "0494311",
    "prefectureCode": "01",
    "prefectureNumber": 1,
    "prefecture": "北海道",
    "city": "瀬棚郡今金町",
    "town": "栄町"
  },
  "0494312": {
    "zipcode": "0494312",
    "prefectureCode": "01",
    "prefectureNumber": 1,
    "prefecture": "北海道",
    "city": "瀬棚郡今金町",
    "town": "旭町"
  },
  "0494313": {
    "zipcode": "0494313",
    "prefectureCode": "01",
    "prefectureNumber": 1,
    "prefecture": "北海道",
    "city": "瀬棚郡今金町",
    "town": "本町"
  },
  "0494314": {
    "zipcode": "0494314",
    "prefectureCode": "01",
    "prefectureNumber": 1,
    "prefecture": "北海道",
    "city": "瀬棚郡今金町",
    "town": "昭和町"
  },
  "0494315": {
    "zipcode": "0494315",
    "prefectureCode": "01",
    "prefectureNumber": 1,
    "prefecture": "北海道",
    "city": "瀬棚郡今金町",
    "town": "末広町"
  },
  "0494316": {
    "zipcode": "0494316",
    "prefectureCode": "01",
    "prefectureNumber": 1,
    "prefecture": "北海道",
    "city": "瀬棚郡今金町",
    "town": "南町"
  },
  "0494317": {
    "zipcode": "0494317",
    "prefectureCode": "01",
    "prefectureNumber": 1,
    "prefecture": "北海道",
    "city": "瀬棚郡今金町",
    "town": "緑町"
  },
  "0494318": {
    "zipcode": "0494318",
    "prefectureCode": "01",
    "prefectureNumber": 1,
    "prefecture": "北海道",
    "city": "瀬棚郡今金町",
    "town": "大和町"
  },
  "0494321": {
    "zipcode": "0494321",
    "prefectureCode": "01",
    "prefectureNumber": 1,
    "prefecture": "北海道",
    "city": "瀬棚郡今金町",
    "town": "鈴岡"
  },
  "0494322": {
    "zipcode": "0494322",
    "prefectureCode": "01",
    "prefectureNumber": 1,
    "prefecture": "北海道",
    "city": "瀬棚郡今金町",
    "town": "御影"
  },
  "0494323": {
    "zipcode": "0494323",
    "prefectureCode": "01",
    "prefectureNumber": 1,
    "prefecture": "北海道",
    "city": "瀬棚郡今金町",
    "town": "光台"
  },
  "0494324": {
    "zipcode": "0494324",
    "prefectureCode": "01",
    "prefectureNumber": 1,
    "prefecture": "北海道",
    "city": "瀬棚郡今金町",
    "town": "種川"
  },
  "0494325": {
    "zipcode": "0494325",
    "prefectureCode": "01",
    "prefectureNumber": 1,
    "prefecture": "北海道",
    "city": "瀬棚郡今金町",
    "town": "稲穂"
  },
  "0494326": {
    "zipcode": "0494326",
    "prefectureCode": "01",
    "prefectureNumber": 1,
    "prefecture": "北海道",
    "city": "瀬棚郡今金町",
    "town": "商工団地"
  },
  "0494327": {
    "zipcode": "0494327",
    "prefectureCode": "01",
    "prefectureNumber": 1,
    "prefecture": "北海道",
    "city": "瀬棚郡今金町",
    "town": "神丘"
  },
  "0494331": {
    "zipcode": "0494331",
    "prefectureCode": "01",
    "prefectureNumber": 1,
    "prefecture": "北海道",
    "city": "瀬棚郡今金町",
    "town": "田代"
  },
  "0494332": {
    "zipcode": "0494332",
    "prefectureCode": "01",
    "prefectureNumber": 1,
    "prefecture": "北海道",
    "city": "瀬棚郡今金町",
    "town": "白石"
  },
  "0494333": {
    "zipcode": "0494333",
    "prefectureCode": "01",
    "prefectureNumber": 1,
    "prefecture": "北海道",
    "city": "瀬棚郡今金町",
    "town": "日進"
  },
  "0494334": {
    "zipcode": "0494334",
    "prefectureCode": "01",
    "prefectureNumber": 1,
    "prefecture": "北海道",
    "city": "瀬棚郡今金町",
    "town": "八束"
  },
  "0494335": {
    "zipcode": "0494335",
    "prefectureCode": "01",
    "prefectureNumber": 1,
    "prefecture": "北海道",
    "city": "瀬棚郡今金町",
    "town": "金原"
  },
  "0494336": {
    "zipcode": "0494336",
    "prefectureCode": "01",
    "prefectureNumber": 1,
    "prefecture": "北海道",
    "city": "瀬棚郡今金町",
    "town": "鈴金"
  },
  "0494337": {
    "zipcode": "0494337",
    "prefectureCode": "01",
    "prefectureNumber": 1,
    "prefecture": "北海道",
    "city": "瀬棚郡今金町",
    "town": "豊田"
  },
  "0494431": {
    "zipcode": "0494431",
    "prefectureCode": "01",
    "prefectureNumber": 1,
    "prefecture": "北海道",
    "city": "久遠郡せたな町",
    "town": "北檜山区小倉山"
  },
  "0494432": {
    "zipcode": "0494432",
    "prefectureCode": "01",
    "prefectureNumber": 1,
    "prefecture": "北海道",
    "city": "久遠郡せたな町",
    "town": "北檜山区東丹羽"
  },
  "0494433": {
    "zipcode": "0494433",
    "prefectureCode": "01",
    "prefectureNumber": 1,
    "prefecture": "北海道",
    "city": "久遠郡せたな町",
    "town": "北檜山区丹羽"
  },
  "0494434": {
    "zipcode": "0494434",
    "prefectureCode": "01",
    "prefectureNumber": 1,
    "prefecture": "北海道",
    "city": "久遠郡せたな町",
    "town": "北檜山区西丹羽"
  },
  "0494500": {
    "zipcode": "0494500",
    "prefectureCode": "01",
    "prefectureNumber": 1,
    "prefecture": "北海道",
    "city": "久遠郡せたな町",
    "town": "以下に掲載がない場合"
  },
  "0494501": {
    "zipcode": "0494501",
    "prefectureCode": "01",
    "prefectureNumber": 1,
    "prefecture": "北海道",
    "city": "久遠郡せたな町",
    "town": "北檜山区北檜山"
  },
  "0494511": {
    "zipcode": "0494511",
    "prefectureCode": "01",
    "prefectureNumber": 1,
    "prefecture": "北海道",
    "city": "久遠郡せたな町",
    "town": "北檜山区松岡"
  },
  "0494512": {
    "zipcode": "0494512",
    "prefectureCode": "01",
    "prefectureNumber": 1,
    "prefecture": "北海道",
    "city": "久遠郡せたな町",
    "town": "北檜山区徳島"
  },
  "0494513": {
    "zipcode": "0494513",
    "prefectureCode": "01",
    "prefectureNumber": 1,
    "prefecture": "北海道",
    "city": "久遠郡せたな町",
    "town": "北檜山区愛知"
  },
  "0494514": {
    "zipcode": "0494514",
    "prefectureCode": "01",
    "prefectureNumber": 1,
    "prefecture": "北海道",
    "city": "久遠郡せたな町",
    "town": "北檜山区豊岡"
  },
  "0494515": {
    "zipcode": "0494515",
    "prefectureCode": "01",
    "prefectureNumber": 1,
    "prefecture": "北海道",
    "city": "久遠郡せたな町",
    "town": "北檜山区兜野"
  },
  "0494516": {
    "zipcode": "0494516",
    "prefectureCode": "01",
    "prefectureNumber": 1,
    "prefecture": "北海道",
    "city": "久遠郡せたな町",
    "town": "北檜山区共和"
  },
  "0494517": {
    "zipcode": "0494517",
    "prefectureCode": "01",
    "prefectureNumber": 1,
    "prefecture": "北海道",
    "city": "久遠郡せたな町",
    "town": "北檜山区太櫓"
  },
  "0494518": {
    "zipcode": "0494518",
    "prefectureCode": "01",
    "prefectureNumber": 1,
    "prefecture": "北海道",
    "city": "久遠郡せたな町",
    "town": "北檜山区新成"
  },
  "0494751": {
    "zipcode": "0494751",
    "prefectureCode": "01",
    "prefectureNumber": 1,
    "prefecture": "北海道",
    "city": "久遠郡せたな町",
    "town": "北檜山区栄"
  },
  "0494752": {
    "zipcode": "0494752",
    "prefectureCode": "01",
    "prefectureNumber": 1,
    "prefecture": "北海道",
    "city": "久遠郡せたな町",
    "town": "北檜山区若松"
  },
  "0494753": {
    "zipcode": "0494753",
    "prefectureCode": "01",
    "prefectureNumber": 1,
    "prefecture": "北海道",
    "city": "久遠郡せたな町",
    "town": "北檜山区小川"
  },
  "0494754": {
    "zipcode": "0494754",
    "prefectureCode": "01",
    "prefectureNumber": 1,
    "prefecture": "北海道",
    "city": "久遠郡せたな町",
    "town": "北檜山区二俣"
  },
  "0494755": {
    "zipcode": "0494755",
    "prefectureCode": "01",
    "prefectureNumber": 1,
    "prefecture": "北海道",
    "city": "久遠郡せたな町",
    "town": "北檜山区富里"
  },
  "0494801": {
    "zipcode": "0494801",
    "prefectureCode": "01",
    "prefectureNumber": 1,
    "prefecture": "北海道",
    "city": "久遠郡せたな町",
    "town": "瀬棚区本町（１区）"
  },
  "0494802": {
    "zipcode": "0494802",
    "prefectureCode": "01",
    "prefectureNumber": 1,
    "prefecture": "北海道",
    "city": "久遠郡せたな町",
    "town": "瀬棚区本町（２区）"
  },
  "0494803": {
    "zipcode": "0494803",
    "prefectureCode": "01",
    "prefectureNumber": 1,
    "prefecture": "北海道",
    "city": "久遠郡せたな町",
    "town": "瀬棚区本町（３区）"
  },
  "0494804": {
    "zipcode": "0494804",
    "prefectureCode": "01",
    "prefectureNumber": 1,
    "prefecture": "北海道",
    "city": "久遠郡せたな町",
    "town": "瀬棚区本町（４区）"
  },
  "0494805": {
    "zipcode": "0494805",
    "prefectureCode": "01",
    "prefectureNumber": 1,
    "prefecture": "北海道",
    "city": "久遠郡せたな町",
    "town": "瀬棚区本町（５区）"
  },
  "0494811": {
    "zipcode": "0494811",
    "prefectureCode": "01",
    "prefectureNumber": 1,
    "prefecture": "北海道",
    "city": "久遠郡せたな町",
    "town": "瀬棚区本町（６区）"
  },
  "0494812": {
    "zipcode": "0494812",
    "prefectureCode": "01",
    "prefectureNumber": 1,
    "prefecture": "北海道",
    "city": "久遠郡せたな町",
    "town": "瀬棚区本町（７区）"
  },
  "0494813": {
    "zipcode": "0494813",
    "prefectureCode": "01",
    "prefectureNumber": 1,
    "prefecture": "北海道",
    "city": "久遠郡せたな町",
    "town": "瀬棚区本町（８区）"
  },
  "0494814": {
    "zipcode": "0494814",
    "prefectureCode": "01",
    "prefectureNumber": 1,
    "prefecture": "北海道",
    "city": "久遠郡せたな町",
    "town": "瀬棚区本町（９区）"
  },
  "0494815": {
    "zipcode": "0494815",
    "prefectureCode": "01",
    "prefectureNumber": 1,
    "prefecture": "北海道",
    "city": "久遠郡せたな町",
    "town": "瀬棚区本町（１０区）"
  },
  "0494816": {
    "zipcode": "0494816",
    "prefectureCode": "01",
    "prefectureNumber": 1,
    "prefecture": "北海道",
    "city": "久遠郡せたな町",
    "town": "瀬棚区本町"
  },
  "0494821": {
    "zipcode": "0494821",
    "prefectureCode": "01",
    "prefectureNumber": 1,
    "prefecture": "北海道",
    "city": "久遠郡せたな町",
    "town": "瀬棚区三本杉"
  },
  "0494822": {
    "zipcode": "0494822",
    "prefectureCode": "01",
    "prefectureNumber": 1,
    "prefecture": "北海道",
    "city": "久遠郡せたな町",
    "town": "瀬棚区元浦"
  },
  "0494823": {
    "zipcode": "0494823",
    "prefectureCode": "01",
    "prefectureNumber": 1,
    "prefecture": "北海道",
    "city": "久遠郡せたな町",
    "town": "瀬棚区島歌"
  },
  "0494824": {
    "zipcode": "0494824",
    "prefectureCode": "01",
    "prefectureNumber": 1,
    "prefecture": "北海道",
    "city": "久遠郡せたな町",
    "town": "瀬棚区北島歌"
  },
  "0494825": {
    "zipcode": "0494825",
    "prefectureCode": "01",
    "prefectureNumber": 1,
    "prefecture": "北海道",
    "city": "久遠郡せたな町",
    "town": "瀬棚区西大里"
  },
  "0494826": {
    "zipcode": "0494826",
    "prefectureCode": "01",
    "prefectureNumber": 1,
    "prefecture": "北海道",
    "city": "久遠郡せたな町",
    "town": "瀬棚区東大里"
  },
  "0494827": {
    "zipcode": "0494827",
    "prefectureCode": "01",
    "prefectureNumber": 1,
    "prefecture": "北海道",
    "city": "久遠郡せたな町",
    "town": "瀬棚区共和"
  },
  "0494828": {
    "zipcode": "0494828",
    "prefectureCode": "01",
    "prefectureNumber": 1,
    "prefecture": "北海道",
    "city": "久遠郡せたな町",
    "town": "瀬棚区南川"
  },
  "0495141": {
    "zipcode": "0495141",
    "prefectureCode": "01",
    "prefectureNumber": 1,
    "prefecture": "北海道",
    "city": "山越郡長万部町",
    "town": "静狩（その他）"
  },
  "0495331": {
    "zipcode": "0495331",
    "prefectureCode": "01",
    "prefectureNumber": 1,
    "prefecture": "北海道",
    "city": "虻田郡豊浦町",
    "town": "豊泉"
  },
  "0495332": {
    "zipcode": "0495332",
    "prefectureCode": "01",
    "prefectureNumber": 1,
    "prefecture": "北海道",
    "city": "虻田郡豊浦町",
    "town": "大岸"
  },
  "0495333": {
    "zipcode": "0495333",
    "prefectureCode": "01",
    "prefectureNumber": 1,
    "prefecture": "北海道",
    "city": "虻田郡豊浦町",
    "town": "礼文華"
  },
  "0495400": {
    "zipcode": "0495400",
    "prefectureCode": "01",
    "prefectureNumber": 1,
    "prefecture": "北海道",
    "city": "虻田郡豊浦町",
    "town": "以下に掲載がない場合"
  },
  "0495401": {
    "zipcode": "0495401",
    "prefectureCode": "01",
    "prefectureNumber": 1,
    "prefecture": "北海道",
    "city": "虻田郡豊浦町",
    "town": "山梨"
  },
  "0495402": {
    "zipcode": "0495402",
    "prefectureCode": "01",
    "prefectureNumber": 1,
    "prefecture": "北海道",
    "city": "虻田郡豊浦町",
    "town": "大和"
  },
  "0495403": {
    "zipcode": "0495403",
    "prefectureCode": "01",
    "prefectureNumber": 1,
    "prefecture": "北海道",
    "city": "虻田郡豊浦町",
    "town": "美和"
  },
  "0495404": {
    "zipcode": "0495404",
    "prefectureCode": "01",
    "prefectureNumber": 1,
    "prefecture": "北海道",
    "city": "虻田郡豊浦町",
    "town": "桜"
  },
  "0495405": {
    "zipcode": "0495405",
    "prefectureCode": "01",
    "prefectureNumber": 1,
    "prefecture": "北海道",
    "city": "虻田郡豊浦町",
    "town": "高岡"
  },
  "0495406": {
    "zipcode": "0495406",
    "prefectureCode": "01",
    "prefectureNumber": 1,
    "prefecture": "北海道",
    "city": "虻田郡豊浦町",
    "town": "新山梨"
  },
  "0495407": {
    "zipcode": "0495407",
    "prefectureCode": "01",
    "prefectureNumber": 1,
    "prefecture": "北海道",
    "city": "虻田郡豊浦町",
    "town": "上泉"
  },
  "0495408": {
    "zipcode": "0495408",
    "prefectureCode": "01",
    "prefectureNumber": 1,
    "prefecture": "北海道",
    "city": "虻田郡豊浦町",
    "town": "新富"
  },
  "0495411": {
    "zipcode": "0495411",
    "prefectureCode": "01",
    "prefectureNumber": 1,
    "prefecture": "北海道",
    "city": "虻田郡豊浦町",
    "town": "東雲町"
  },
  "0495412": {
    "zipcode": "0495412",
    "prefectureCode": "01",
    "prefectureNumber": 1,
    "prefecture": "北海道",
    "city": "虻田郡豊浦町",
    "town": "旭町"
  },
  "0495413": {
    "zipcode": "0495413",
    "prefectureCode": "01",
    "prefectureNumber": 1,
    "prefecture": "北海道",
    "city": "虻田郡豊浦町",
    "town": "海岸町"
  },
  "0495414": {
    "zipcode": "0495414",
    "prefectureCode": "01",
    "prefectureNumber": 1,
    "prefecture": "北海道",
    "city": "虻田郡豊浦町",
    "town": "幸町"
  },
  "0495415": {
    "zipcode": "0495415",
    "prefectureCode": "01",
    "prefectureNumber": 1,
    "prefecture": "北海道",
    "city": "虻田郡豊浦町",
    "town": "浜町"
  },
  "0495416": {
    "zipcode": "0495416",
    "prefectureCode": "01",
    "prefectureNumber": 1,
    "prefecture": "北海道",
    "city": "虻田郡豊浦町",
    "town": "船見町"
  },
  "0495600": {
    "zipcode": "0495600",
    "prefectureCode": "01",
    "prefectureNumber": 1,
    "prefecture": "北海道",
    "city": "虻田郡洞爺湖町",
    "town": "以下に掲載がない場合"
  },
  "0495601": {
    "zipcode": "0495601",
    "prefectureCode": "01",
    "prefectureNumber": 1,
    "prefecture": "北海道",
    "city": "虻田郡洞爺湖町",
    "town": "青葉町"
  },
  "0495602": {
    "zipcode": "0495602",
    "prefectureCode": "01",
    "prefectureNumber": 1,
    "prefecture": "北海道",
    "city": "虻田郡洞爺湖町",
    "town": "泉"
  },
  "0495603": {
    "zipcode": "0495603",
    "prefectureCode": "01",
    "prefectureNumber": 1,
    "prefecture": "北海道",
    "city": "虻田郡洞爺湖町",
    "town": "入江"
  },
  "0495604": {
    "zipcode": "0495604",
    "prefectureCode": "01",
    "prefectureNumber": 1,
    "prefecture": "北海道",
    "city": "虻田郡洞爺湖町",
    "town": "栄町"
  },
  "0495605": {
    "zipcode": "0495605",
    "prefectureCode": "01",
    "prefectureNumber": 1,
    "prefecture": "北海道",
    "city": "虻田郡洞爺湖町",
    "town": "高砂町"
  },
  "0495611": {
    "zipcode": "0495611",
    "prefectureCode": "01",
    "prefectureNumber": 1,
    "prefecture": "北海道",
    "city": "虻田郡洞爺湖町",
    "town": "旭町"
  },
  "0495612": {
    "zipcode": "0495612",
    "prefectureCode": "01",
    "prefectureNumber": 1,
    "prefecture": "北海道",
    "city": "虻田郡洞爺湖町",
    "town": "大磯町"
  },
  "0495613": {
    "zipcode": "0495613",
    "prefectureCode": "01",
    "prefectureNumber": 1,
    "prefecture": "北海道",
    "city": "虻田郡洞爺湖町",
    "town": "清水（その他）"
  },
  "0495614": {
    "zipcode": "0495614",
    "prefectureCode": "01",
    "prefectureNumber": 1,
    "prefecture": "北海道",
    "city": "虻田郡洞爺湖町",
    "town": "浜町"
  },
  "0495615": {
    "zipcode": "0495615",
    "prefectureCode": "01",
    "prefectureNumber": 1,
    "prefecture": "北海道",
    "city": "虻田郡洞爺湖町",
    "town": "本町"
  },
  "0495616": {
    "zipcode": "0495616",
    "prefectureCode": "01",
    "prefectureNumber": 1,
    "prefecture": "北海道",
    "city": "虻田郡洞爺湖町",
    "town": "三豊"
  },
  "0495721": {
    "zipcode": "0495721",
    "prefectureCode": "01",
    "prefectureNumber": 1,
    "prefecture": "北海道",
    "city": "虻田郡洞爺湖町",
    "town": "洞爺湖温泉"
  },
  "0495722": {
    "zipcode": "0495722",
    "prefectureCode": "01",
    "prefectureNumber": 1,
    "prefecture": "北海道",
    "city": "虻田郡洞爺湖町",
    "town": "清水（３３６番地）"
  },
  "0495723": {
    "zipcode": "0495723",
    "prefectureCode": "01",
    "prefectureNumber": 1,
    "prefecture": "北海道",
    "city": "虻田郡洞爺湖町",
    "town": "月浦"
  },
  "0495724": {
    "zipcode": "0495724",
    "prefectureCode": "01",
    "prefectureNumber": 1,
    "prefecture": "北海道",
    "city": "虻田郡洞爺湖町",
    "town": "花和"
  },
  "0495731": {
    "zipcode": "0495731",
    "prefectureCode": "01",
    "prefectureNumber": 1,
    "prefecture": "北海道",
    "city": "有珠郡壮瞥町",
    "town": "洞爺湖温泉（１〜７番地）"
  },
  "0495801": {
    "zipcode": "0495801",
    "prefectureCode": "01",
    "prefectureNumber": 1,
    "prefecture": "北海道",
    "city": "虻田郡洞爺湖町",
    "town": "旭浦"
  },
  "0495802": {
    "zipcode": "0495802",
    "prefectureCode": "01",
    "prefectureNumber": 1,
    "prefecture": "北海道",
    "city": "虻田郡洞爺湖町",
    "town": "洞爺町"
  },
  "0495811": {
    "zipcode": "0495811",
    "prefectureCode": "01",
    "prefectureNumber": 1,
    "prefecture": "北海道",
    "city": "虻田郡洞爺湖町",
    "town": "岩屋"
  },
  "0495812": {
    "zipcode": "0495812",
    "prefectureCode": "01",
    "prefectureNumber": 1,
    "prefecture": "北海道",
    "city": "虻田郡洞爺湖町",
    "town": "川東"
  },
  "0495813": {
    "zipcode": "0495813",
    "prefectureCode": "01",
    "prefectureNumber": 1,
    "prefecture": "北海道",
    "city": "虻田郡洞爺湖町",
    "town": "財田"
  },
  "0495814": {
    "zipcode": "0495814",
    "prefectureCode": "01",
    "prefectureNumber": 1,
    "prefecture": "北海道",
    "city": "虻田郡洞爺湖町",
    "town": "早月"
  },
  "0495821": {
    "zipcode": "0495821",
    "prefectureCode": "01",
    "prefectureNumber": 1,
    "prefecture": "北海道",
    "city": "虻田郡洞爺湖町",
    "town": "大原"
  },
  "0495822": {
    "zipcode": "0495822",
    "prefectureCode": "01",
    "prefectureNumber": 1,
    "prefecture": "北海道",
    "city": "虻田郡洞爺湖町",
    "town": "富丘"
  },
  "0495831": {
    "zipcode": "0495831",
    "prefectureCode": "01",
    "prefectureNumber": 1,
    "prefecture": "北海道",
    "city": "虻田郡洞爺湖町",
    "town": "香川"
  },
  "0495832": {
    "zipcode": "0495832",
    "prefectureCode": "01",
    "prefectureNumber": 1,
    "prefecture": "北海道",
    "city": "虻田郡洞爺湖町",
    "town": "成香"
  },
  "0495833": {
    "zipcode": "0495833",
    "prefectureCode": "01",
    "prefectureNumber": 1,
    "prefecture": "北海道",
    "city": "虻田郡洞爺湖町",
    "town": "伏見"
  }
}
