{
  "0500000": {
    "zipcode": "0500000",
    "prefectureCode": "01",
    "prefectureNumber": 1,
    "prefecture": "北海道",
    "city": "室蘭市",
    "town": "以下に掲載がない場合"
  },
  "0500051": {
    "zipcode": "0500051",
    "prefectureCode": "01",
    "prefectureNumber": 1,
    "prefecture": "北海道",
    "city": "室蘭市",
    "town": "石川町"
  },
  "0500052": {
    "zipcode": "0500052",
    "prefectureCode": "01",
    "prefectureNumber": 1,
    "prefecture": "北海道",
    "city": "室蘭市",
    "town": "香川町"
  },
  "0500053": {
    "zipcode": "0500053",
    "prefectureCode": "01",
    "prefectureNumber": 1,
    "prefecture": "北海道",
    "city": "室蘭市",
    "town": "神代町"
  },
  "0500054": {
    "zipcode": "0500054",
    "prefectureCode": "01",
    "prefectureNumber": 1,
    "prefecture": "北海道",
    "city": "室蘭市",
    "town": "白鳥台"
  },
  "0500055": {
    "zipcode": "0500055",
    "prefectureCode": "01",
    "prefectureNumber": 1,
    "prefecture": "北海道",
    "city": "室蘭市",
    "town": "崎守町"
  },
  "0500061": {
    "zipcode": "0500061",
    "prefectureCode": "01",
    "prefectureNumber": 1,
    "prefecture": "北海道",
    "city": "室蘭市",
    "town": "八丁平"
  },
  "0500062": {
    "zipcode": "0500062",
    "prefectureCode": "01",
    "prefectureNumber": 1,
    "prefecture": "北海道",
    "city": "室蘭市",
    "town": "高平町"
  },
  "0500063": {
    "zipcode": "0500063",
    "prefectureCode": "01",
    "prefectureNumber": 1,
    "prefecture": "北海道",
    "city": "室蘭市",
    "town": "港北町"
  },
  "0500064": {
    "zipcode": "0500064",
    "prefectureCode": "01",
    "prefectureNumber": 1,
    "prefecture": "北海道",
    "city": "室蘭市",
    "town": "柏木町"
  },
  "0500065": {
    "zipcode": "0500065",
    "prefectureCode": "01",
    "prefectureNumber": 1,
    "prefecture": "北海道",
    "city": "室蘭市",
    "town": "本輪西町"
  },
  "0500066": {
    "zipcode": "0500066",
    "prefectureCode": "01",
    "prefectureNumber": 1,
    "prefecture": "北海道",
    "city": "室蘭市",
    "town": "幌萌町"
  },
  "0500067": {
    "zipcode": "0500067",
    "prefectureCode": "01",
    "prefectureNumber": 1,
    "prefecture": "北海道",
    "city": "室蘭市",
    "town": "陣屋町"
  },
  "0500071": {
    "zipcode": "0500071",
    "prefectureCode": "01",
    "prefectureNumber": 1,
    "prefecture": "北海道",
    "city": "室蘭市",
    "town": "水元町"
  },
  "0500072": {
    "zipcode": "0500072",
    "prefectureCode": "01",
    "prefectureNumber": 1,
    "prefecture": "北海道",
    "city": "室蘭市",
    "town": "高砂町"
  },
  "0500073": {
    "zipcode": "0500073",
    "prefectureCode": "01",
    "prefectureNumber": 1,
    "prefecture": "北海道",
    "city": "室蘭市",
    "town": "宮の森町"
  },
  "0500074": {
    "zipcode": "0500074",
    "prefectureCode": "01",
    "prefectureNumber": 1,
    "prefecture": "北海道",
    "city": "室蘭市",
    "town": "中島町"
  },
  "0500075": {
    "zipcode": "0500075",
    "prefectureCode": "01",
    "prefectureNumber": 1,
    "prefecture": "北海道",
    "city": "室蘭市",
    "town": "中島本町"
  },
  "0500076": {
    "zipcode": "0500076",
    "prefectureCode": "01",
    "prefectureNumber": 1,
    "prefecture": "北海道",
    "city": "室蘭市",
    "town": "知利別町"
  },
  "0500077": {
    "zipcode": "0500077",
    "prefectureCode": "01",
    "prefectureNumber": 1,
    "prefecture": "北海道",
    "city": "室蘭市",
    "town": "天神町"
  },
  "0500081": {
    "zipcode": "0500081",
    "prefectureCode": "01",
    "prefectureNumber": 1,
    "prefecture": "北海道",
    "city": "室蘭市",
    "town": "日の出町"
  },
  "0500082": {
    "zipcode": "0500082",
    "prefectureCode": "01",
    "prefectureNumber": 1,
    "prefecture": "北海道",
    "city": "室蘭市",
    "town": "寿町"
  },
  "0500083": {
    "zipcode": "0500083",
    "prefectureCode": "01",
    "prefectureNumber": 1,
    "prefecture": "北海道",
    "city": "室蘭市",
    "town": "東町"
  },
  "0500084": {
    "zipcode": "0500084",
    "prefectureCode": "01",
    "prefectureNumber": 1,
    "prefecture": "北海道",
    "city": "室蘭市",
    "town": "みゆき町"
  },
  "0500085": {
    "zipcode": "0500085",
    "prefectureCode": "01",
    "prefectureNumber": 1,
    "prefecture": "北海道",
    "city": "室蘭市",
    "town": "輪西町"
  },
  "0500086": {
    "zipcode": "0500086",
    "prefectureCode": "01",
    "prefectureNumber": 1,
    "prefecture": "北海道",
    "city": "室蘭市",
    "town": "大沢町"
  },
  "0500087": {
    "zipcode": "0500087",
    "prefectureCode": "01",
    "prefectureNumber": 1,
    "prefecture": "北海道",
    "city": "室蘭市",
    "town": "仲町"
  }
}
