{
  "0520000": {
    "zipcode": "0520000",
    "prefectureCode": "01",
    "prefectureNumber": 1,
    "prefecture": "北海道",
    "city": "伊達市",
    "town": "以下に掲載がない場合"
  },
  "0520001": {
    "zipcode": "0520001",
    "prefectureCode": "01",
    "prefectureNumber": 1,
    "prefecture": "北海道",
    "city": "伊達市",
    "town": "志門気町"
  },
  "0520002": {
    "zipcode": "0520002",
    "prefectureCode": "01",
    "prefectureNumber": 1,
    "prefecture": "北海道",
    "city": "伊達市",
    "town": "乾町"
  },
  "0520003": {
    "zipcode": "0520003",
    "prefectureCode": "01",
    "prefectureNumber": 1,
    "prefecture": "北海道",
    "city": "伊達市",
    "town": "幌美内町"
  },
  "0520004": {
    "zipcode": "0520004",
    "prefectureCode": "01",
    "prefectureNumber": 1,
    "prefecture": "北海道",
    "city": "伊達市",
    "town": "萩原町"
  },
  "0520005": {
    "zipcode": "0520005",
    "prefectureCode": "01",
    "prefectureNumber": 1,
    "prefecture": "北海道",
    "city": "伊達市",
    "town": "清住町"
  },
  "0520006": {
    "zipcode": "0520006",
    "prefectureCode": "01",
    "prefectureNumber": 1,
    "prefecture": "北海道",
    "city": "伊達市",
    "town": "東関内町"
  },
  "0520007": {
    "zipcode": "0520007",
    "prefectureCode": "01",
    "prefectureNumber": 1,
    "prefecture": "北海道",
    "city": "伊達市",
    "town": "西関内町"
  },
  "0520008": {
    "zipcode": "0520008",
    "prefectureCode": "01",
    "prefectureNumber": 1,
    "prefecture": "北海道",
    "city": "伊達市",
    "town": "上館山町"
  },
  "0520011": {
    "zipcode": "0520011",
    "prefectureCode": "01",
    "prefectureNumber": 1,
    "prefecture": "北海道",
    "city": "伊達市",
    "town": "竹原町"
  },
  "0520012": {
    "zipcode": "0520012",
    "prefectureCode": "01",
    "prefectureNumber": 1,
    "prefecture": "北海道",
    "city": "伊達市",
    "town": "松ケ枝町"
  },
  "0520013": {
    "zipcode": "0520013",
    "prefectureCode": "01",
    "prefectureNumber": 1,
    "prefecture": "北海道",
    "city": "伊達市",
    "town": "弄月町"
  },
  "0520014": {
    "zipcode": "0520014",
    "prefectureCode": "01",
    "prefectureNumber": 1,
    "prefecture": "北海道",
    "city": "伊達市",
    "town": "舟岡町"
  },
  "0520015": {
    "zipcode": "0520015",
    "prefectureCode": "01",
    "prefectureNumber": 1,
    "prefecture": "北海道",
    "city": "伊達市",
    "town": "旭町"
  },
  "0520016": {
    "zipcode": "0520016",
    "prefectureCode": "01",
    "prefectureNumber": 1,
    "prefecture": "北海道",
    "city": "伊達市",
    "town": "東浜町"
  },
  "0520021": {
    "zipcode": "0520021",
    "prefectureCode": "01",
    "prefectureNumber": 1,
    "prefecture": "北海道",
    "city": "伊達市",
    "town": "末永町"
  },
  "0520022": {
    "zipcode": "0520022",
    "prefectureCode": "01",
    "prefectureNumber": 1,
    "prefecture": "北海道",
    "city": "伊達市",
    "town": "梅本町"
  },
  "0520023": {
    "zipcode": "0520023",
    "prefectureCode": "01",
    "prefectureNumber": 1,
    "prefecture": "北海道",
    "city": "伊達市",
    "town": "元町"
  },
  "0520024": {
    "zipcode": "0520024",
    "prefectureCode": "01",
    "prefectureNumber": 1,
    "prefecture": "北海道",
    "city": "伊達市",
    "town": "鹿島町"
  },
  "0520025": {
    "zipcode": "0520025",
    "prefectureCode": "01",
    "prefectureNumber": 1,
    "prefecture": "北海道",
    "city": "伊達市",
    "town": "網代町"
  },
  "0520026": {
    "zipcode": "0520026",
    "prefectureCode": "01",
    "prefectureNumber": 1,
    "prefecture": "北海道",
    "city": "伊達市",
    "town": "錦町"
  },
  "0520027": {
    "zipcode": "0520027",
    "prefectureCode": "01",
    "prefectureNumber": 1,
    "prefecture": "北海道",
    "city": "伊達市",
    "town": "大町"
  },
  "0520031": {
    "zipcode": "0520031",
    "prefectureCode": "01",
    "prefectureNumber": 1,
    "prefecture": "北海道",
    "city": "伊達市",
    "town": "館山町"
  },
  "0520032": {
    "zipcode": "0520032",
    "prefectureCode": "01",
    "prefectureNumber": 1,
    "prefecture": "北海道",
    "city": "伊達市",
    "town": "山下町"
  },
  "0520033": {
    "zipcode": "0520033",
    "prefectureCode": "01",
    "prefectureNumber": 1,
    "prefecture": "北海道",
    "city": "伊達市",
    "town": "西浜町"
  },
  "0520034": {
    "zipcode": "0520034",
    "prefectureCode": "01",
    "prefectureNumber": 1,
    "prefecture": "北海道",
    "city": "伊達市",
    "town": "館山下町"
  },
  "0520035": {
    "zipcode": "0520035",
    "prefectureCode": "01",
    "prefectureNumber": 1,
    "prefecture": "北海道",
    "city": "伊達市",
    "town": "長和町"
  },
  "0520036": {
    "zipcode": "0520036",
    "prefectureCode": "01",
    "prefectureNumber": 1,
    "prefecture": "北海道",
    "city": "伊達市",
    "town": "上長和町"
  },
  "0520100": {
    "zipcode": "0520100",
    "prefectureCode": "01",
    "prefectureNumber": 1,
    "prefecture": "北海道",
    "city": "有珠郡壮瞥町",
    "town": "以下に掲載がない場合"
  },
  "0520101": {
    "zipcode": "0520101",
    "prefectureCode": "01",
    "prefectureNumber": 1,
    "prefecture": "北海道",
    "city": "有珠郡壮瞥町",
    "town": "滝之町"
  },
  "0520102": {
    "zipcode": "0520102",
    "prefectureCode": "01",
    "prefectureNumber": 1,
    "prefecture": "北海道",
    "city": "有珠郡壮瞥町",
    "town": "昭和新山"
  },
  "0520103": {
    "zipcode": "0520103",
    "prefectureCode": "01",
    "prefectureNumber": 1,
    "prefecture": "北海道",
    "city": "有珠郡壮瞥町",
    "town": "壮瞥温泉"
  },
  "0520104": {
    "zipcode": "0520104",
    "prefectureCode": "01",
    "prefectureNumber": 1,
    "prefecture": "北海道",
    "city": "有珠郡壮瞥町",
    "town": "東湖畔"
  },
  "0520105": {
    "zipcode": "0520105",
    "prefectureCode": "01",
    "prefectureNumber": 1,
    "prefecture": "北海道",
    "city": "有珠郡壮瞥町",
    "town": "仲洞爺"
  },
  "0520106": {
    "zipcode": "0520106",
    "prefectureCode": "01",
    "prefectureNumber": 1,
    "prefecture": "北海道",
    "city": "有珠郡壮瞥町",
    "town": "立香"
  },
  "0520107": {
    "zipcode": "0520107",
    "prefectureCode": "01",
    "prefectureNumber": 1,
    "prefecture": "北海道",
    "city": "有珠郡壮瞥町",
    "town": "洞爺湖温泉（その他）"
  },
  "0520111": {
    "zipcode": "0520111",
    "prefectureCode": "01",
    "prefectureNumber": 1,
    "prefecture": "北海道",
    "city": "有珠郡壮瞥町",
    "town": "上久保内"
  },
  "0520112": {
    "zipcode": "0520112",
    "prefectureCode": "01",
    "prefectureNumber": 1,
    "prefecture": "北海道",
    "city": "有珠郡壮瞥町",
    "town": "久保内"
  },
  "0520113": {
    "zipcode": "0520113",
    "prefectureCode": "01",
    "prefectureNumber": 1,
    "prefecture": "北海道",
    "city": "有珠郡壮瞥町",
    "town": "蟠渓"
  },
  "0520114": {
    "zipcode": "0520114",
    "prefectureCode": "01",
    "prefectureNumber": 1,
    "prefecture": "北海道",
    "city": "有珠郡壮瞥町",
    "town": "幸内"
  },
  "0520115": {
    "zipcode": "0520115",
    "prefectureCode": "01",
    "prefectureNumber": 1,
    "prefecture": "北海道",
    "city": "有珠郡壮瞥町",
    "town": "弁景"
  },
  "0520116": {
    "zipcode": "0520116",
    "prefectureCode": "01",
    "prefectureNumber": 1,
    "prefecture": "北海道",
    "city": "有珠郡壮瞥町",
    "town": "南久保内"
  },
  "0520301": {
    "zipcode": "0520301",
    "prefectureCode": "01",
    "prefectureNumber": 1,
    "prefecture": "北海道",
    "city": "伊達市",
    "town": "大滝区本町"
  },
  "0520302": {
    "zipcode": "0520302",
    "prefectureCode": "01",
    "prefectureNumber": 1,
    "prefecture": "北海道",
    "city": "伊達市",
    "town": "大滝区清陵町"
  },
  "0520303": {
    "zipcode": "0520303",
    "prefectureCode": "01",
    "prefectureNumber": 1,
    "prefecture": "北海道",
    "city": "伊達市",
    "town": "大滝区三階滝町"
  },
  "0520311": {
    "zipcode": "0520311",
    "prefectureCode": "01",
    "prefectureNumber": 1,
    "prefecture": "北海道",
    "city": "伊達市",
    "town": "大滝区本郷町"
  },
  "0520312": {
    "zipcode": "0520312",
    "prefectureCode": "01",
    "prefectureNumber": 1,
    "prefecture": "北海道",
    "city": "伊達市",
    "town": "大滝区上野町"
  },
  "0520313": {
    "zipcode": "0520313",
    "prefectureCode": "01",
    "prefectureNumber": 1,
    "prefecture": "北海道",
    "city": "伊達市",
    "town": "大滝区大成町"
  },
  "0520314": {
    "zipcode": "0520314",
    "prefectureCode": "01",
    "prefectureNumber": 1,
    "prefecture": "北海道",
    "city": "伊達市",
    "town": "大滝区円山町"
  },
  "0520315": {
    "zipcode": "0520315",
    "prefectureCode": "01",
    "prefectureNumber": 1,
    "prefecture": "北海道",
    "city": "伊達市",
    "town": "大滝区昭園町"
  },
  "0520316": {
    "zipcode": "0520316",
    "prefectureCode": "01",
    "prefectureNumber": 1,
    "prefecture": "北海道",
    "city": "伊達市",
    "town": "大滝区北湯沢温泉町"
  },
  "0520317": {
    "zipcode": "0520317",
    "prefectureCode": "01",
    "prefectureNumber": 1,
    "prefecture": "北海道",
    "city": "伊達市",
    "town": "大滝区優徳町"
  }
}
