{
  "0540000": {
    "zipcode": "0540000",
    "prefectureCode": "01",
    "prefectureNumber": 1,
    "prefecture": "北海道",
    "city": "勇払郡むかわ町",
    "town": "以下に掲載がない場合"
  },
  "0540001": {
    "zipcode": "0540001",
    "prefectureCode": "01",
    "prefectureNumber": 1,
    "prefecture": "北海道",
    "city": "勇払郡むかわ町",
    "town": "旭岡"
  },
  "0540002": {
    "zipcode": "0540002",
    "prefectureCode": "01",
    "prefectureNumber": 1,
    "prefecture": "北海道",
    "city": "勇払郡むかわ町",
    "town": "春日"
  },
  "0540003": {
    "zipcode": "0540003",
    "prefectureCode": "01",
    "prefectureNumber": 1,
    "prefecture": "北海道",
    "city": "勇払郡むかわ町",
    "town": "豊城"
  },
  "0540004": {
    "zipcode": "0540004",
    "prefectureCode": "01",
    "prefectureNumber": 1,
    "prefecture": "北海道",
    "city": "勇払郡むかわ町",
    "town": "田浦"
  },
  "0540005": {
    "zipcode": "0540005",
    "prefectureCode": "01",
    "prefectureNumber": 1,
    "prefecture": "北海道",
    "city": "勇払郡むかわ町",
    "town": "二宮"
  },
  "0540011": {
    "zipcode": "0540011",
    "prefectureCode": "01",
    "prefectureNumber": 1,
    "prefecture": "北海道",
    "city": "勇払郡むかわ町",
    "town": "有明"
  },
  "0540012": {
    "zipcode": "0540012",
    "prefectureCode": "01",
    "prefectureNumber": 1,
    "prefecture": "北海道",
    "city": "勇払郡むかわ町",
    "town": "生田"
  },
  "0540013": {
    "zipcode": "0540013",
    "prefectureCode": "01",
    "prefectureNumber": 1,
    "prefecture": "北海道",
    "city": "勇払郡むかわ町",
    "town": "花岡"
  },
  "0540014": {
    "zipcode": "0540014",
    "prefectureCode": "01",
    "prefectureNumber": 1,
    "prefecture": "北海道",
    "city": "勇払郡むかわ町",
    "town": "米原"
  },
  "0540015": {
    "zipcode": "0540015",
    "prefectureCode": "01",
    "prefectureNumber": 1,
    "prefecture": "北海道",
    "city": "勇払郡むかわ町",
    "town": "汐見"
  },
  "0540016": {
    "zipcode": "0540016",
    "prefectureCode": "01",
    "prefectureNumber": 1,
    "prefecture": "北海道",
    "city": "勇払郡むかわ町",
    "town": "宮戸"
  },
  "0540021": {
    "zipcode": "0540021",
    "prefectureCode": "01",
    "prefectureNumber": 1,
    "prefecture": "北海道",
    "city": "勇払郡むかわ町",
    "town": "大原"
  },
  "0540022": {
    "zipcode": "0540022",
    "prefectureCode": "01",
    "prefectureNumber": 1,
    "prefecture": "北海道",
    "city": "勇払郡むかわ町",
    "town": "花園"
  },
  "0540023": {
    "zipcode": "0540023",
    "prefectureCode": "01",
    "prefectureNumber": 1,
    "prefecture": "北海道",
    "city": "勇払郡むかわ町",
    "town": "末広"
  },
  "0540031": {
    "zipcode": "0540031",
    "prefectureCode": "01",
    "prefectureNumber": 1,
    "prefecture": "北海道",
    "city": "勇払郡むかわ町",
    "town": "青葉"
  },
  "0540032": {
    "zipcode": "0540032",
    "prefectureCode": "01",
    "prefectureNumber": 1,
    "prefecture": "北海道",
    "city": "勇払郡むかわ町",
    "town": "福住"
  },
  "0540041": {
    "zipcode": "0540041",
    "prefectureCode": "01",
    "prefectureNumber": 1,
    "prefecture": "北海道",
    "city": "勇払郡むかわ町",
    "town": "松風"
  },
  "0540042": {
    "zipcode": "0540042",
    "prefectureCode": "01",
    "prefectureNumber": 1,
    "prefecture": "北海道",
    "city": "勇払郡むかわ町",
    "town": "美幸"
  },
  "0540051": {
    "zipcode": "0540051",
    "prefectureCode": "01",
    "prefectureNumber": 1,
    "prefecture": "北海道",
    "city": "勇払郡むかわ町",
    "town": "文京"
  },
  "0540052": {
    "zipcode": "0540052",
    "prefectureCode": "01",
    "prefectureNumber": 1,
    "prefecture": "北海道",
    "city": "勇払郡むかわ町",
    "town": "大成"
  },
  "0540061": {
    "zipcode": "0540061",
    "prefectureCode": "01",
    "prefectureNumber": 1,
    "prefecture": "北海道",
    "city": "勇払郡むかわ町",
    "town": "洋光"
  },
  "0540062": {
    "zipcode": "0540062",
    "prefectureCode": "01",
    "prefectureNumber": 1,
    "prefecture": "北海道",
    "city": "勇払郡むかわ町",
    "town": "若草"
  },
  "0540063": {
    "zipcode": "0540063",
    "prefectureCode": "01",
    "prefectureNumber": 1,
    "prefecture": "北海道",
    "city": "勇払郡むかわ町",
    "town": "駒場"
  },
  "0540064": {
    "zipcode": "0540064",
    "prefectureCode": "01",
    "prefectureNumber": 1,
    "prefecture": "北海道",
    "city": "勇払郡むかわ町",
    "town": "晴海"
  },
  "0540141": {
    "zipcode": "0540141",
    "prefectureCode": "01",
    "prefectureNumber": 1,
    "prefecture": "北海道",
    "city": "勇払郡むかわ町",
    "town": "穂別栄"
  },
  "0540142": {
    "zipcode": "0540142",
    "prefectureCode": "01",
    "prefectureNumber": 1,
    "prefecture": "北海道",
    "city": "勇払郡むかわ町",
    "town": "穂別仁和"
  },
  "0540143": {
    "zipcode": "0540143",
    "prefectureCode": "01",
    "prefectureNumber": 1,
    "prefecture": "北海道",
    "city": "勇払郡むかわ町",
    "town": "穂別和泉"
  },
  "0540144": {
    "zipcode": "0540144",
    "prefectureCode": "01",
    "prefectureNumber": 1,
    "prefecture": "北海道",
    "city": "勇払郡むかわ町",
    "town": "穂別豊田（その他）"
  },
  "0540201": {
    "zipcode": "0540201",
    "prefectureCode": "01",
    "prefectureNumber": 1,
    "prefecture": "北海道",
    "city": "勇払郡むかわ町",
    "town": "穂別稲里"
  },
  "0540202": {
    "zipcode": "0540202",
    "prefectureCode": "01",
    "prefectureNumber": 1,
    "prefecture": "北海道",
    "city": "勇払郡むかわ町",
    "town": "穂別長和"
  },
  "0540203": {
    "zipcode": "0540203",
    "prefectureCode": "01",
    "prefectureNumber": 1,
    "prefecture": "北海道",
    "city": "勇払郡むかわ町",
    "town": "穂別豊田（新興）"
  },
  "0540204": {
    "zipcode": "0540204",
    "prefectureCode": "01",
    "prefectureNumber": 1,
    "prefecture": "北海道",
    "city": "勇払郡むかわ町",
    "town": "穂別平丘（川向）"
  },
  "0540211": {
    "zipcode": "0540211",
    "prefectureCode": "01",
    "prefectureNumber": 1,
    "prefecture": "北海道",
    "city": "勇払郡むかわ町",
    "town": "穂別"
  },
  "0540361": {
    "zipcode": "0540361",
    "prefectureCode": "01",
    "prefectureNumber": 1,
    "prefecture": "北海道",
    "city": "勇払郡むかわ町",
    "town": "穂別福山"
  },
  "0540362": {
    "zipcode": "0540362",
    "prefectureCode": "01",
    "prefectureNumber": 1,
    "prefecture": "北海道",
    "city": "勇払郡むかわ町",
    "town": "穂別安住"
  },
  "0540363": {
    "zipcode": "0540363",
    "prefectureCode": "01",
    "prefectureNumber": 1,
    "prefecture": "北海道",
    "city": "勇払郡むかわ町",
    "town": "穂別平丘（その他）"
  },
  "0540364": {
    "zipcode": "0540364",
    "prefectureCode": "01",
    "prefectureNumber": 1,
    "prefecture": "北海道",
    "city": "勇払郡むかわ町",
    "town": "穂別富内"
  }
}
