{
  "0550000": {
    "zipcode": "0550000",
    "prefectureCode": "01",
    "prefectureNumber": 1,
    "prefecture": "北海道",
    "city": "沙流郡日高町",
    "town": "以下に掲載がない場合"
  },
  "0550001": {
    "zipcode": "0550001",
    "prefectureCode": "01",
    "prefectureNumber": 1,
    "prefecture": "北海道",
    "city": "沙流郡日高町",
    "town": "富川北"
  },
  "0550002": {
    "zipcode": "0550002",
    "prefectureCode": "01",
    "prefectureNumber": 1,
    "prefecture": "北海道",
    "city": "沙流郡日高町",
    "town": "平賀"
  },
  "0550003": {
    "zipcode": "0550003",
    "prefectureCode": "01",
    "prefectureNumber": 1,
    "prefecture": "北海道",
    "city": "沙流郡日高町",
    "town": "福満"
  },
  "0550004": {
    "zipcode": "0550004",
    "prefectureCode": "01",
    "prefectureNumber": 1,
    "prefecture": "北海道",
    "city": "沙流郡日高町",
    "town": "富川東"
  },
  "0550005": {
    "zipcode": "0550005",
    "prefectureCode": "01",
    "prefectureNumber": 1,
    "prefecture": "北海道",
    "city": "沙流郡日高町",
    "town": "富浜"
  },
  "0550006": {
    "zipcode": "0550006",
    "prefectureCode": "01",
    "prefectureNumber": 1,
    "prefecture": "北海道",
    "city": "沙流郡日高町",
    "town": "富川南"
  },
  "0550007": {
    "zipcode": "0550007",
    "prefectureCode": "01",
    "prefectureNumber": 1,
    "prefecture": "北海道",
    "city": "沙流郡日高町",
    "town": "富川西"
  },
  "0550008": {
    "zipcode": "0550008",
    "prefectureCode": "01",
    "prefectureNumber": 1,
    "prefecture": "北海道",
    "city": "沙流郡日高町",
    "town": "富川駒丘"
  },
  "0550100": {
    "zipcode": "0550100",
    "prefectureCode": "01",
    "prefectureNumber": 1,
    "prefecture": "北海道",
    "city": "沙流郡平取町",
    "town": "以下に掲載がない場合"
  },
  "0550101": {
    "zipcode": "0550101",
    "prefectureCode": "01",
    "prefectureNumber": 1,
    "prefecture": "北海道",
    "city": "沙流郡平取町",
    "town": "二風谷"
  },
  "0550102": {
    "zipcode": "0550102",
    "prefectureCode": "01",
    "prefectureNumber": 1,
    "prefecture": "北海道",
    "city": "沙流郡平取町",
    "town": "小平"
  },
  "0550103": {
    "zipcode": "0550103",
    "prefectureCode": "01",
    "prefectureNumber": 1,
    "prefecture": "北海道",
    "city": "沙流郡平取町",
    "town": "川向"
  },
  "0550104": {
    "zipcode": "0550104",
    "prefectureCode": "01",
    "prefectureNumber": 1,
    "prefecture": "北海道",
    "city": "沙流郡平取町",
    "town": "紫雲古津"
  },
  "0550105": {
    "zipcode": "0550105",
    "prefectureCode": "01",
    "prefectureNumber": 1,
    "prefecture": "北海道",
    "city": "沙流郡平取町",
    "town": "去場"
  },
  "0550106": {
    "zipcode": "0550106",
    "prefectureCode": "01",
    "prefectureNumber": 1,
    "prefecture": "北海道",
    "city": "沙流郡平取町",
    "town": "荷菜"
  },
  "0550107": {
    "zipcode": "0550107",
    "prefectureCode": "01",
    "prefectureNumber": 1,
    "prefecture": "北海道",
    "city": "沙流郡平取町",
    "town": "本町"
  },
  "0550321": {
    "zipcode": "0550321",
    "prefectureCode": "01",
    "prefectureNumber": 1,
    "prefecture": "北海道",
    "city": "沙流郡平取町",
    "town": "貫気別"
  },
  "0550322": {
    "zipcode": "0550322",
    "prefectureCode": "01",
    "prefectureNumber": 1,
    "prefecture": "北海道",
    "city": "沙流郡平取町",
    "town": "旭"
  },
  "0550323": {
    "zipcode": "0550323",
    "prefectureCode": "01",
    "prefectureNumber": 1,
    "prefecture": "北海道",
    "city": "沙流郡平取町",
    "town": "芽生"
  },
  "0550324": {
    "zipcode": "0550324",
    "prefectureCode": "01",
    "prefectureNumber": 1,
    "prefecture": "北海道",
    "city": "沙流郡平取町",
    "town": "荷負"
  },
  "0550325": {
    "zipcode": "0550325",
    "prefectureCode": "01",
    "prefectureNumber": 1,
    "prefecture": "北海道",
    "city": "沙流郡平取町",
    "town": "長知内"
  },
  "0550411": {
    "zipcode": "0550411",
    "prefectureCode": "01",
    "prefectureNumber": 1,
    "prefecture": "北海道",
    "city": "沙流郡平取町",
    "town": "振内町"
  },
  "0550412": {
    "zipcode": "0550412",
    "prefectureCode": "01",
    "prefectureNumber": 1,
    "prefecture": "北海道",
    "city": "沙流郡平取町",
    "town": "幌毛志"
  },
  "0550413": {
    "zipcode": "0550413",
    "prefectureCode": "01",
    "prefectureNumber": 1,
    "prefecture": "北海道",
    "city": "沙流郡平取町",
    "town": "仁世宇"
  },
  "0550414": {
    "zipcode": "0550414",
    "prefectureCode": "01",
    "prefectureNumber": 1,
    "prefecture": "北海道",
    "city": "沙流郡平取町",
    "town": "岩知志"
  },
  "0550415": {
    "zipcode": "0550415",
    "prefectureCode": "01",
    "prefectureNumber": 1,
    "prefecture": "北海道",
    "city": "沙流郡平取町",
    "town": "豊糠"
  },
  "0552301": {
    "zipcode": "0552301",
    "prefectureCode": "01",
    "prefectureNumber": 1,
    "prefecture": "北海道",
    "city": "沙流郡日高町",
    "town": "本町東"
  },
  "0552302": {
    "zipcode": "0552302",
    "prefectureCode": "01",
    "prefectureNumber": 1,
    "prefecture": "北海道",
    "city": "沙流郡日高町",
    "town": "本町西"
  },
  "0552303": {
    "zipcode": "0552303",
    "prefectureCode": "01",
    "prefectureNumber": 1,
    "prefecture": "北海道",
    "city": "沙流郡日高町",
    "town": "栄町東"
  },
  "0552304": {
    "zipcode": "0552304",
    "prefectureCode": "01",
    "prefectureNumber": 1,
    "prefecture": "北海道",
    "city": "沙流郡日高町",
    "town": "栄町西"
  },
  "0552305": {
    "zipcode": "0552305",
    "prefectureCode": "01",
    "prefectureNumber": 1,
    "prefecture": "北海道",
    "city": "沙流郡日高町",
    "town": "新町"
  },
  "0552306": {
    "zipcode": "0552306",
    "prefectureCode": "01",
    "prefectureNumber": 1,
    "prefecture": "北海道",
    "city": "沙流郡日高町",
    "town": "宮下町"
  },
  "0552307": {
    "zipcode": "0552307",
    "prefectureCode": "01",
    "prefectureNumber": 1,
    "prefecture": "北海道",
    "city": "沙流郡日高町",
    "town": "松風町"
  },
  "0552308": {
    "zipcode": "0552308",
    "prefectureCode": "01",
    "prefectureNumber": 1,
    "prefecture": "北海道",
    "city": "沙流郡日高町",
    "town": "山手町"
  },
  "0552309": {
    "zipcode": "0552309",
    "prefectureCode": "01",
    "prefectureNumber": 1,
    "prefecture": "北海道",
    "city": "沙流郡日高町",
    "town": "若葉町"
  },
  "0552311": {
    "zipcode": "0552311",
    "prefectureCode": "01",
    "prefectureNumber": 1,
    "prefecture": "北海道",
    "city": "沙流郡日高町",
    "town": "日高（１区）"
  },
  "0552312": {
    "zipcode": "0552312",
    "prefectureCode": "01",
    "prefectureNumber": 1,
    "prefecture": "北海道",
    "city": "沙流郡日高町",
    "town": "日高（２区）"
  },
  "0552313": {
    "zipcode": "0552313",
    "prefectureCode": "01",
    "prefectureNumber": 1,
    "prefecture": "北海道",
    "city": "沙流郡日高町",
    "town": "日高（３区）"
  },
  "0552314": {
    "zipcode": "0552314",
    "prefectureCode": "01",
    "prefectureNumber": 1,
    "prefecture": "北海道",
    "city": "沙流郡日高町",
    "town": "千栄"
  },
  "0552315": {
    "zipcode": "0552315",
    "prefectureCode": "01",
    "prefectureNumber": 1,
    "prefecture": "北海道",
    "city": "沙流郡日高町",
    "town": "富岡"
  },
  "0552316": {
    "zipcode": "0552316",
    "prefectureCode": "01",
    "prefectureNumber": 1,
    "prefecture": "北海道",
    "city": "沙流郡日高町",
    "town": "三岩"
  }
}
