{
  "0560000": {
    "zipcode": "0560000",
    "prefectureCode": "01",
    "prefectureNumber": 1,
    "prefecture": "北海道",
    "city": "日高郡新ひだか町",
    "town": "以下に掲載がない場合"
  },
  "0560001": {
    "zipcode": "0560001",
    "prefectureCode": "01",
    "prefectureNumber": 1,
    "prefecture": "北海道",
    "city": "日高郡新ひだか町",
    "town": "静内目名（その他）"
  },
  "0560002": {
    "zipcode": "0560002",
    "prefectureCode": "01",
    "prefectureNumber": 1,
    "prefecture": "北海道",
    "city": "日高郡新ひだか町",
    "town": "静内神森"
  },
  "0560003": {
    "zipcode": "0560003",
    "prefectureCode": "01",
    "prefectureNumber": 1,
    "prefecture": "北海道",
    "city": "日高郡新ひだか町",
    "town": "静内旭町"
  },
  "0560004": {
    "zipcode": "0560004",
    "prefectureCode": "01",
    "prefectureNumber": 1,
    "prefecture": "北海道",
    "city": "日高郡新ひだか町",
    "town": "静内緑町"
  },
  "0560005": {
    "zipcode": "0560005",
    "prefectureCode": "01",
    "prefectureNumber": 1,
    "prefecture": "北海道",
    "city": "日高郡新ひだか町",
    "town": "静内こうせい町"
  },
  "0560006": {
    "zipcode": "0560006",
    "prefectureCode": "01",
    "prefectureNumber": 1,
    "prefecture": "北海道",
    "city": "日高郡新ひだか町",
    "town": "静内中野町"
  },
  "0560007": {
    "zipcode": "0560007",
    "prefectureCode": "01",
    "prefectureNumber": 1,
    "prefecture": "北海道",
    "city": "日高郡新ひだか町",
    "town": "静内清水丘"
  },
  "0560011": {
    "zipcode": "0560011",
    "prefectureCode": "01",
    "prefectureNumber": 1,
    "prefecture": "北海道",
    "city": "日高郡新ひだか町",
    "town": "静内真歌"
  },
  "0560013": {
    "zipcode": "0560013",
    "prefectureCode": "01",
    "prefectureNumber": 1,
    "prefecture": "北海道",
    "city": "日高郡新ひだか町",
    "town": "静内入船町"
  },
  "0560014": {
    "zipcode": "0560014",
    "prefectureCode": "01",
    "prefectureNumber": 1,
    "prefecture": "北海道",
    "city": "日高郡新ひだか町",
    "town": "静内古川町"
  },
  "0560015": {
    "zipcode": "0560015",
    "prefectureCode": "01",
    "prefectureNumber": 1,
    "prefecture": "北海道",
    "city": "日高郡新ひだか町",
    "town": "静内海岸町"
  },
  "0560016": {
    "zipcode": "0560016",
    "prefectureCode": "01",
    "prefectureNumber": 1,
    "prefecture": "北海道",
    "city": "日高郡新ひだか町",
    "town": "静内本町"
  },
  "0560017": {
    "zipcode": "0560017",
    "prefectureCode": "01",
    "prefectureNumber": 1,
    "prefecture": "北海道",
    "city": "日高郡新ひだか町",
    "town": "静内御幸町"
  },
  "0560018": {
    "zipcode": "0560018",
    "prefectureCode": "01",
    "prefectureNumber": 1,
    "prefecture": "北海道",
    "city": "日高郡新ひだか町",
    "town": "静内吉野町"
  },
  "0560019": {
    "zipcode": "0560019",
    "prefectureCode": "01",
    "prefectureNumber": 1,
    "prefecture": "北海道",
    "city": "日高郡新ひだか町",
    "town": "静内青柳町"
  },
  "0560021": {
    "zipcode": "0560021",
    "prefectureCode": "01",
    "prefectureNumber": 1,
    "prefecture": "北海道",
    "city": "日高郡新ひだか町",
    "town": "静内花園"
  },
  "0560022": {
    "zipcode": "0560022",
    "prefectureCode": "01",
    "prefectureNumber": 1,
    "prefecture": "北海道",
    "city": "日高郡新ひだか町",
    "town": "静内高砂町"
  },
  "0560023": {
    "zipcode": "0560023",
    "prefectureCode": "01",
    "prefectureNumber": 1,
    "prefecture": "北海道",
    "city": "日高郡新ひだか町",
    "town": "静内ときわ町"
  },
  "0560024": {
    "zipcode": "0560024",
    "prefectureCode": "01",
    "prefectureNumber": 1,
    "prefecture": "北海道",
    "city": "日高郡新ひだか町",
    "town": "静内山手町"
  },
  "0560025": {
    "zipcode": "0560025",
    "prefectureCode": "01",
    "prefectureNumber": 1,
    "prefecture": "北海道",
    "city": "日高郡新ひだか町",
    "town": "静内木場町"
  },
  "0560026": {
    "zipcode": "0560026",
    "prefectureCode": "01",
    "prefectureNumber": 1,
    "prefecture": "北海道",
    "city": "日高郡新ひだか町",
    "town": "静内末広町"
  },
  "0560027": {
    "zipcode": "0560027",
    "prefectureCode": "01",
    "prefectureNumber": 1,
    "prefecture": "北海道",
    "city": "日高郡新ひだか町",
    "town": "静内駒場"
  },
  "0560028": {
    "zipcode": "0560028",
    "prefectureCode": "01",
    "prefectureNumber": 1,
    "prefecture": "北海道",
    "city": "日高郡新ひだか町",
    "town": "静内柏台"
  },
  "0560141": {
    "zipcode": "0560141",
    "prefectureCode": "01",
    "prefectureNumber": 1,
    "prefecture": "北海道",
    "city": "日高郡新ひだか町",
    "town": "静内御園"
  },
  "0560142": {
    "zipcode": "0560142",
    "prefectureCode": "01",
    "prefectureNumber": 1,
    "prefecture": "北海道",
    "city": "日高郡新ひだか町",
    "town": "静内農屋"
  },
  "0560143": {
    "zipcode": "0560143",
    "prefectureCode": "01",
    "prefectureNumber": 1,
    "prefecture": "北海道",
    "city": "日高郡新ひだか町",
    "town": "静内豊畑"
  },
  "0560144": {
    "zipcode": "0560144",
    "prefectureCode": "01",
    "prefectureNumber": 1,
    "prefecture": "北海道",
    "city": "日高郡新ひだか町",
    "town": "静内田原"
  },
  "0560145": {
    "zipcode": "0560145",
    "prefectureCode": "01",
    "prefectureNumber": 1,
    "prefecture": "北海道",
    "city": "日高郡新ひだか町",
    "town": "静内目名（１８、１２７、４５３、４６５−２、４６６、４８０番地）"
  },
  "0560146": {
    "zipcode": "0560146",
    "prefectureCode": "01",
    "prefectureNumber": 1,
    "prefecture": "北海道",
    "city": "日高郡新ひだか町",
    "town": "静内高見"
  }
}
