{
  "0570000": {
    "zipcode": "0570000",
    "prefectureCode": "01",
    "prefectureNumber": 1,
    "prefecture": "北海道",
    "city": "浦河郡浦河町",
    "town": "以下に掲載がない場合"
  },
  "0570001": {
    "zipcode": "0570001",
    "prefectureCode": "01",
    "prefectureNumber": 1,
    "prefecture": "北海道",
    "city": "浦河郡浦河町",
    "town": "東幌別（１〜１３１番地）"
  },
  "0570002": {
    "zipcode": "0570002",
    "prefectureCode": "01",
    "prefectureNumber": 1,
    "prefecture": "北海道",
    "city": "浦河郡浦河町",
    "town": "西幌別"
  },
  "0570003": {
    "zipcode": "0570003",
    "prefectureCode": "01",
    "prefectureNumber": 1,
    "prefecture": "北海道",
    "city": "浦河郡浦河町",
    "town": "白泉"
  },
  "0570004": {
    "zipcode": "0570004",
    "prefectureCode": "01",
    "prefectureNumber": 1,
    "prefecture": "北海道",
    "city": "浦河郡浦河町",
    "town": "月寒"
  },
  "0570005": {
    "zipcode": "0570005",
    "prefectureCode": "01",
    "prefectureNumber": 1,
    "prefecture": "北海道",
    "city": "浦河郡浦河町",
    "town": "東町うしお"
  },
  "0570006": {
    "zipcode": "0570006",
    "prefectureCode": "01",
    "prefectureNumber": 1,
    "prefecture": "北海道",
    "city": "浦河郡浦河町",
    "town": "東町かしわ"
  },
  "0570007": {
    "zipcode": "0570007",
    "prefectureCode": "01",
    "prefectureNumber": 1,
    "prefecture": "北海道",
    "city": "浦河郡浦河町",
    "town": "東町ちのみ"
  },
  "0570011": {
    "zipcode": "0570011",
    "prefectureCode": "01",
    "prefectureNumber": 1,
    "prefecture": "北海道",
    "city": "浦河郡浦河町",
    "town": "旭町"
  },
  "0570012": {
    "zipcode": "0570012",
    "prefectureCode": "01",
    "prefectureNumber": 1,
    "prefecture": "北海道",
    "city": "浦河郡浦河町",
    "town": "常盤町"
  },
  "0570013": {
    "zipcode": "0570013",
    "prefectureCode": "01",
    "prefectureNumber": 1,
    "prefecture": "北海道",
    "city": "浦河郡浦河町",
    "town": "大通"
  },
  "0570014": {
    "zipcode": "0570014",
    "prefectureCode": "01",
    "prefectureNumber": 1,
    "prefecture": "北海道",
    "city": "浦河郡浦河町",
    "town": "入船町"
  },
  "0570015": {
    "zipcode": "0570015",
    "prefectureCode": "01",
    "prefectureNumber": 1,
    "prefecture": "北海道",
    "city": "浦河郡浦河町",
    "town": "浜町"
  },
  "0570021": {
    "zipcode": "0570021",
    "prefectureCode": "01",
    "prefectureNumber": 1,
    "prefecture": "北海道",
    "city": "浦河郡浦河町",
    "town": "潮見町"
  },
  "0570022": {
    "zipcode": "0570022",
    "prefectureCode": "01",
    "prefectureNumber": 1,
    "prefecture": "北海道",
    "city": "浦河郡浦河町",
    "town": "昌平町"
  },
  "0570023": {
    "zipcode": "0570023",
    "prefectureCode": "01",
    "prefectureNumber": 1,
    "prefecture": "北海道",
    "city": "浦河郡浦河町",
    "town": "栄丘"
  },
  "0570024": {
    "zipcode": "0570024",
    "prefectureCode": "01",
    "prefectureNumber": 1,
    "prefecture": "北海道",
    "city": "浦河郡浦河町",
    "town": "築地"
  },
  "0570025": {
    "zipcode": "0570025",
    "prefectureCode": "01",
    "prefectureNumber": 1,
    "prefecture": "北海道",
    "city": "浦河郡浦河町",
    "town": "緑町"
  },
  "0570026": {
    "zipcode": "0570026",
    "prefectureCode": "01",
    "prefectureNumber": 1,
    "prefecture": "北海道",
    "city": "浦河郡浦河町",
    "town": "向別"
  },
  "0570027": {
    "zipcode": "0570027",
    "prefectureCode": "01",
    "prefectureNumber": 1,
    "prefecture": "北海道",
    "city": "浦河郡浦河町",
    "town": "上向別"
  },
  "0570031": {
    "zipcode": "0570031",
    "prefectureCode": "01",
    "prefectureNumber": 1,
    "prefecture": "北海道",
    "city": "浦河郡浦河町",
    "town": "向が丘東"
  },
  "0570032": {
    "zipcode": "0570032",
    "prefectureCode": "01",
    "prefectureNumber": 1,
    "prefecture": "北海道",
    "city": "浦河郡浦河町",
    "town": "向が丘西"
  },
  "0570033": {
    "zipcode": "0570033",
    "prefectureCode": "01",
    "prefectureNumber": 1,
    "prefecture": "北海道",
    "city": "浦河郡浦河町",
    "town": "堺町東"
  },
  "0570034": {
    "zipcode": "0570034",
    "prefectureCode": "01",
    "prefectureNumber": 1,
    "prefecture": "北海道",
    "city": "浦河郡浦河町",
    "town": "堺町西"
  },
  "0570035": {
    "zipcode": "0570035",
    "prefectureCode": "01",
    "prefectureNumber": 1,
    "prefecture": "北海道",
    "city": "浦河郡浦河町",
    "town": "井寒台"
  },
  "0570036": {
    "zipcode": "0570036",
    "prefectureCode": "01",
    "prefectureNumber": 1,
    "prefecture": "北海道",
    "city": "浦河郡浦河町",
    "town": "絵笛"
  },
  "0570171": {
    "zipcode": "0570171",
    "prefectureCode": "01",
    "prefectureNumber": 1,
    "prefecture": "北海道",
    "city": "浦河郡浦河町",
    "town": "西舎"
  },
  "0570172": {
    "zipcode": "0570172",
    "prefectureCode": "01",
    "prefectureNumber": 1,
    "prefecture": "北海道",
    "city": "浦河郡浦河町",
    "town": "杵臼"
  },
  "0570173": {
    "zipcode": "0570173",
    "prefectureCode": "01",
    "prefectureNumber": 1,
    "prefecture": "北海道",
    "city": "浦河郡浦河町",
    "town": "上杵臼"
  },
  "0570174": {
    "zipcode": "0570174",
    "prefectureCode": "01",
    "prefectureNumber": 1,
    "prefecture": "北海道",
    "city": "浦河郡浦河町",
    "town": "上西舎"
  }
}
