{
  "0580000": {
    "zipcode": "0580000",
    "prefectureCode": "01",
    "prefectureNumber": 1,
    "prefecture": "北海道",
    "city": "様似郡様似町",
    "town": "以下に掲載がない場合"
  },
  "0580001": {
    "zipcode": "0580001",
    "prefectureCode": "01",
    "prefectureNumber": 1,
    "prefecture": "北海道",
    "city": "様似郡様似町",
    "town": "旭"
  },
  "0580002": {
    "zipcode": "0580002",
    "prefectureCode": "01",
    "prefectureNumber": 1,
    "prefecture": "北海道",
    "city": "様似郡様似町",
    "town": "幌満"
  },
  "0580003": {
    "zipcode": "0580003",
    "prefectureCode": "01",
    "prefectureNumber": 1,
    "prefecture": "北海道",
    "city": "様似郡様似町",
    "town": "冬島"
  },
  "0580004": {
    "zipcode": "0580004",
    "prefectureCode": "01",
    "prefectureNumber": 1,
    "prefecture": "北海道",
    "city": "様似郡様似町",
    "town": "平宇"
  },
  "0580011": {
    "zipcode": "0580011",
    "prefectureCode": "01",
    "prefectureNumber": 1,
    "prefecture": "北海道",
    "city": "様似郡様似町",
    "town": "田代"
  },
  "0580012": {
    "zipcode": "0580012",
    "prefectureCode": "01",
    "prefectureNumber": 1,
    "prefecture": "北海道",
    "city": "様似郡様似町",
    "town": "朝日丘"
  },
  "0580013": {
    "zipcode": "0580013",
    "prefectureCode": "01",
    "prefectureNumber": 1,
    "prefecture": "北海道",
    "city": "様似郡様似町",
    "town": "緑町"
  },
  "0580014": {
    "zipcode": "0580014",
    "prefectureCode": "01",
    "prefectureNumber": 1,
    "prefecture": "北海道",
    "city": "様似郡様似町",
    "town": "大通"
  },
  "0580015": {
    "zipcode": "0580015",
    "prefectureCode": "01",
    "prefectureNumber": 1,
    "prefecture": "北海道",
    "city": "様似郡様似町",
    "town": "錦町"
  },
  "0580021": {
    "zipcode": "0580021",
    "prefectureCode": "01",
    "prefectureNumber": 1,
    "prefecture": "北海道",
    "city": "様似郡様似町",
    "town": "新富"
  },
  "0580022": {
    "zipcode": "0580022",
    "prefectureCode": "01",
    "prefectureNumber": 1,
    "prefecture": "北海道",
    "city": "様似郡様似町",
    "town": "岡田"
  },
  "0580023": {
    "zipcode": "0580023",
    "prefectureCode": "01",
    "prefectureNumber": 1,
    "prefecture": "北海道",
    "city": "様似郡様似町",
    "town": "栄町"
  },
  "0580024": {
    "zipcode": "0580024",
    "prefectureCode": "01",
    "prefectureNumber": 1,
    "prefecture": "北海道",
    "city": "様似郡様似町",
    "town": "会所町"
  },
  "0580025": {
    "zipcode": "0580025",
    "prefectureCode": "01",
    "prefectureNumber": 1,
    "prefecture": "北海道",
    "city": "様似郡様似町",
    "town": "港町"
  },
  "0580026": {
    "zipcode": "0580026",
    "prefectureCode": "01",
    "prefectureNumber": 1,
    "prefecture": "北海道",
    "city": "様似郡様似町",
    "town": "本町"
  },
  "0580027": {
    "zipcode": "0580027",
    "prefectureCode": "01",
    "prefectureNumber": 1,
    "prefecture": "北海道",
    "city": "様似郡様似町",
    "town": "潮見台"
  },
  "0580031": {
    "zipcode": "0580031",
    "prefectureCode": "01",
    "prefectureNumber": 1,
    "prefecture": "北海道",
    "city": "様似郡様似町",
    "town": "西様似"
  },
  "0580032": {
    "zipcode": "0580032",
    "prefectureCode": "01",
    "prefectureNumber": 1,
    "prefecture": "北海道",
    "city": "様似郡様似町",
    "town": "西町"
  },
  "0580033": {
    "zipcode": "0580033",
    "prefectureCode": "01",
    "prefectureNumber": 1,
    "prefecture": "北海道",
    "city": "様似郡様似町",
    "town": "鵜苫"
  },
  "0580041": {
    "zipcode": "0580041",
    "prefectureCode": "01",
    "prefectureNumber": 1,
    "prefecture": "北海道",
    "city": "浦河郡浦河町",
    "town": "東幌別（その他）"
  },
  "0580200": {
    "zipcode": "0580200",
    "prefectureCode": "01",
    "prefectureNumber": 1,
    "prefecture": "北海道",
    "city": "幌泉郡えりも町",
    "town": "以下に掲載がない場合"
  },
  "0580201": {
    "zipcode": "0580201",
    "prefectureCode": "01",
    "prefectureNumber": 1,
    "prefecture": "北海道",
    "city": "幌泉郡えりも町",
    "town": "東洋（歌露、坂岸、エンドモ、エンドマカゲ）"
  },
  "0580202": {
    "zipcode": "0580202",
    "prefectureCode": "01",
    "prefectureNumber": 1,
    "prefecture": "北海道",
    "city": "幌泉郡えりも町",
    "town": "歌別"
  },
  "0580203": {
    "zipcode": "0580203",
    "prefectureCode": "01",
    "prefectureNumber": 1,
    "prefecture": "北海道",
    "city": "幌泉郡えりも町",
    "town": "新浜"
  },
  "0580204": {
    "zipcode": "0580204",
    "prefectureCode": "01",
    "prefectureNumber": 1,
    "prefecture": "北海道",
    "city": "幌泉郡えりも町",
    "town": "本町"
  },
  "0580205": {
    "zipcode": "0580205",
    "prefectureCode": "01",
    "prefectureNumber": 1,
    "prefecture": "北海道",
    "city": "幌泉郡えりも町",
    "town": "大和"
  },
  "0580206": {
    "zipcode": "0580206",
    "prefectureCode": "01",
    "prefectureNumber": 1,
    "prefecture": "北海道",
    "city": "幌泉郡えりも町",
    "town": "笛舞"
  },
  "0580207": {
    "zipcode": "0580207",
    "prefectureCode": "01",
    "prefectureNumber": 1,
    "prefecture": "北海道",
    "city": "幌泉郡えりも町",
    "town": "近浦"
  },
  "0580341": {
    "zipcode": "0580341",
    "prefectureCode": "01",
    "prefectureNumber": 1,
    "prefecture": "北海道",
    "city": "幌泉郡えりも町",
    "town": "苫別"
  },
  "0580342": {
    "zipcode": "0580342",
    "prefectureCode": "01",
    "prefectureNumber": 1,
    "prefecture": "北海道",
    "city": "幌泉郡えりも町",
    "town": "えりも岬"
  },
  "0580343": {
    "zipcode": "0580343",
    "prefectureCode": "01",
    "prefectureNumber": 1,
    "prefecture": "北海道",
    "city": "幌泉郡えりも町",
    "town": "東洋（油駒、南東洋、１３２〜１５６、１５８〜３５４、３６６、３６７番地）"
  },
  "0580421": {
    "zipcode": "0580421",
    "prefectureCode": "01",
    "prefectureNumber": 1,
    "prefecture": "北海道",
    "city": "幌泉郡えりも町",
    "town": "庶野"
  },
  "0580422": {
    "zipcode": "0580422",
    "prefectureCode": "01",
    "prefectureNumber": 1,
    "prefecture": "北海道",
    "city": "幌泉郡えりも町",
    "town": "目黒"
  }
}
