{
  "0590000": {
    "zipcode": "0590000",
    "prefectureCode": "01",
    "prefectureNumber": 1,
    "prefecture": "北海道",
    "city": "登別市",
    "town": "以下に掲載がない場合"
  },
  "0590001": {
    "zipcode": "0590001",
    "prefectureCode": "01",
    "prefectureNumber": 1,
    "prefecture": "北海道",
    "city": "登別市",
    "town": "新栄町"
  },
  "0590002": {
    "zipcode": "0590002",
    "prefectureCode": "01",
    "prefectureNumber": 1,
    "prefecture": "北海道",
    "city": "登別市",
    "town": "幸町"
  },
  "0590003": {
    "zipcode": "0590003",
    "prefectureCode": "01",
    "prefectureNumber": 1,
    "prefecture": "北海道",
    "city": "登別市",
    "town": "千歳町"
  },
  "0590004": {
    "zipcode": "0590004",
    "prefectureCode": "01",
    "prefectureNumber": 1,
    "prefecture": "北海道",
    "city": "登別市",
    "town": "来馬町"
  },
  "0590005": {
    "zipcode": "0590005",
    "prefectureCode": "01",
    "prefectureNumber": 1,
    "prefecture": "北海道",
    "city": "登別市",
    "town": "札内町（５、９、１１−１２、３６、４２−２、６２、８０、９５、１８４、２３１、３８９−２、４９９、５００番地）"
  },
  "0590011": {
    "zipcode": "0590011",
    "prefectureCode": "01",
    "prefectureNumber": 1,
    "prefecture": "北海道",
    "city": "登別市",
    "town": "常盤町"
  },
  "0590012": {
    "zipcode": "0590012",
    "prefectureCode": "01",
    "prefectureNumber": 1,
    "prefecture": "北海道",
    "city": "登別市",
    "town": "中央町"
  },
  "0590013": {
    "zipcode": "0590013",
    "prefectureCode": "01",
    "prefectureNumber": 1,
    "prefecture": "北海道",
    "city": "登別市",
    "town": "幌別町"
  },
  "0590014": {
    "zipcode": "0590014",
    "prefectureCode": "01",
    "prefectureNumber": 1,
    "prefecture": "北海道",
    "city": "登別市",
    "town": "富士町"
  },
  "0590015": {
    "zipcode": "0590015",
    "prefectureCode": "01",
    "prefectureNumber": 1,
    "prefecture": "北海道",
    "city": "登別市",
    "town": "新川町"
  },
  "0590016": {
    "zipcode": "0590016",
    "prefectureCode": "01",
    "prefectureNumber": 1,
    "prefecture": "北海道",
    "city": "登別市",
    "town": "片倉町"
  },
  "0590017": {
    "zipcode": "0590017",
    "prefectureCode": "01",
    "prefectureNumber": 1,
    "prefecture": "北海道",
    "city": "登別市",
    "town": "柏木町"
  },
  "0590021": {
    "zipcode": "0590021",
    "prefectureCode": "01",
    "prefectureNumber": 1,
    "prefecture": "北海道",
    "city": "登別市",
    "town": "鉱山町"
  },
  "0590022": {
    "zipcode": "0590022",
    "prefectureCode": "01",
    "prefectureNumber": 1,
    "prefecture": "北海道",
    "city": "登別市",
    "town": "川上町"
  },
  "0590023": {
    "zipcode": "0590023",
    "prefectureCode": "01",
    "prefectureNumber": 1,
    "prefecture": "北海道",
    "city": "登別市",
    "town": "桜木町"
  },
  "0590024": {
    "zipcode": "0590024",
    "prefectureCode": "01",
    "prefectureNumber": 1,
    "prefecture": "北海道",
    "city": "登別市",
    "town": "緑町"
  },
  "0590025": {
    "zipcode": "0590025",
    "prefectureCode": "01",
    "prefectureNumber": 1,
    "prefecture": "北海道",
    "city": "登別市",
    "town": "大和町"
  },
  "0590026": {
    "zipcode": "0590026",
    "prefectureCode": "01",
    "prefectureNumber": 1,
    "prefecture": "北海道",
    "city": "登別市",
    "town": "若山町"
  },
  "0590027": {
    "zipcode": "0590027",
    "prefectureCode": "01",
    "prefectureNumber": 1,
    "prefecture": "北海道",
    "city": "登別市",
    "town": "青葉町"
  },
  "0590028": {
    "zipcode": "0590028",
    "prefectureCode": "01",
    "prefectureNumber": 1,
    "prefecture": "北海道",
    "city": "登別市",
    "town": "富岸町"
  },
  "0590031": {
    "zipcode": "0590031",
    "prefectureCode": "01",
    "prefectureNumber": 1,
    "prefecture": "北海道",
    "city": "登別市",
    "town": "上鷲別町"
  },
  "0590032": {
    "zipcode": "0590032",
    "prefectureCode": "01",
    "prefectureNumber": 1,
    "prefecture": "北海道",
    "city": "登別市",
    "town": "新生町"
  },
  "0590033": {
    "zipcode": "0590033",
    "prefectureCode": "01",
    "prefectureNumber": 1,
    "prefecture": "北海道",
    "city": "登別市",
    "town": "栄町"
  },
  "0590034": {
    "zipcode": "0590034",
    "prefectureCode": "01",
    "prefectureNumber": 1,
    "prefecture": "北海道",
    "city": "登別市",
    "town": "鷲別町"
  },
  "0590035": {
    "zipcode": "0590035",
    "prefectureCode": "01",
    "prefectureNumber": 1,
    "prefecture": "北海道",
    "city": "登別市",
    "town": "若草町"
  },
  "0590036": {
    "zipcode": "0590036",
    "prefectureCode": "01",
    "prefectureNumber": 1,
    "prefecture": "北海道",
    "city": "登別市",
    "town": "美園町"
  },
  "0590151": {
    "zipcode": "0590151",
    "prefectureCode": "01",
    "prefectureNumber": 1,
    "prefecture": "北海道",
    "city": "伊達市",
    "town": "有珠町"
  },
  "0590152": {
    "zipcode": "0590152",
    "prefectureCode": "01",
    "prefectureNumber": 1,
    "prefecture": "北海道",
    "city": "伊達市",
    "town": "北有珠町"
  },
  "0590153": {
    "zipcode": "0590153",
    "prefectureCode": "01",
    "prefectureNumber": 1,
    "prefecture": "北海道",
    "city": "伊達市",
    "town": "大平町"
  },
  "0590154": {
    "zipcode": "0590154",
    "prefectureCode": "01",
    "prefectureNumber": 1,
    "prefecture": "北海道",
    "city": "伊達市",
    "town": "東有珠町"
  },
  "0590155": {
    "zipcode": "0590155",
    "prefectureCode": "01",
    "prefectureNumber": 1,
    "prefecture": "北海道",
    "city": "伊達市",
    "town": "若生町"
  },
  "0590156": {
    "zipcode": "0590156",
    "prefectureCode": "01",
    "prefectureNumber": 1,
    "prefecture": "北海道",
    "city": "伊達市",
    "town": "南有珠町"
  },
  "0590157": {
    "zipcode": "0590157",
    "prefectureCode": "01",
    "prefectureNumber": 1,
    "prefecture": "北海道",
    "city": "伊達市",
    "town": "向有珠町"
  },
  "0590271": {
    "zipcode": "0590271",
    "prefectureCode": "01",
    "prefectureNumber": 1,
    "prefecture": "北海道",
    "city": "伊達市",
    "town": "南黄金町"
  },
  "0590272": {
    "zipcode": "0590272",
    "prefectureCode": "01",
    "prefectureNumber": 1,
    "prefecture": "北海道",
    "city": "伊達市",
    "town": "北黄金町"
  },
  "0590273": {
    "zipcode": "0590273",
    "prefectureCode": "01",
    "prefectureNumber": 1,
    "prefecture": "北海道",
    "city": "伊達市",
    "town": "南稀府町"
  },
  "0590274": {
    "zipcode": "0590274",
    "prefectureCode": "01",
    "prefectureNumber": 1,
    "prefecture": "北海道",
    "city": "伊達市",
    "town": "中稀府町"
  },
  "0590275": {
    "zipcode": "0590275",
    "prefectureCode": "01",
    "prefectureNumber": 1,
    "prefecture": "北海道",
    "city": "伊達市",
    "town": "北稀府町"
  },
  "0590461": {
    "zipcode": "0590461",
    "prefectureCode": "01",
    "prefectureNumber": 1,
    "prefecture": "北海道",
    "city": "登別市",
    "town": "札内町（その他）"
  },
  "0590462": {
    "zipcode": "0590462",
    "prefectureCode": "01",
    "prefectureNumber": 1,
    "prefecture": "北海道",
    "city": "登別市",
    "town": "富浦町"
  },
  "0590463": {
    "zipcode": "0590463",
    "prefectureCode": "01",
    "prefectureNumber": 1,
    "prefecture": "北海道",
    "city": "登別市",
    "town": "中登別町"
  },
  "0590464": {
    "zipcode": "0590464",
    "prefectureCode": "01",
    "prefectureNumber": 1,
    "prefecture": "北海道",
    "city": "登別市",
    "town": "登別東町"
  },
  "0590465": {
    "zipcode": "0590465",
    "prefectureCode": "01",
    "prefectureNumber": 1,
    "prefecture": "北海道",
    "city": "登別市",
    "town": "登別本町"
  },
  "0590466": {
    "zipcode": "0590466",
    "prefectureCode": "01",
    "prefectureNumber": 1,
    "prefecture": "北海道",
    "city": "登別市",
    "town": "登別港町"
  },
  "0590551": {
    "zipcode": "0590551",
    "prefectureCode": "01",
    "prefectureNumber": 1,
    "prefecture": "北海道",
    "city": "登別市",
    "town": "登別温泉町"
  },
  "0590552": {
    "zipcode": "0590552",
    "prefectureCode": "01",
    "prefectureNumber": 1,
    "prefecture": "北海道",
    "city": "登別市",
    "town": "上登別町"
  },
  "0590553": {
    "zipcode": "0590553",
    "prefectureCode": "01",
    "prefectureNumber": 1,
    "prefecture": "北海道",
    "city": "登別市",
    "town": "カルルス町"
  },
  "0590641": {
    "zipcode": "0590641",
    "prefectureCode": "01",
    "prefectureNumber": 1,
    "prefecture": "北海道",
    "city": "白老郡白老町",
    "town": "虎杖浜"
  },
  "0590642": {
    "zipcode": "0590642",
    "prefectureCode": "01",
    "prefectureNumber": 1,
    "prefecture": "北海道",
    "city": "白老郡白老町",
    "town": "竹浦"
  },
  "0590900": {
    "zipcode": "0590900",
    "prefectureCode": "01",
    "prefectureNumber": 1,
    "prefecture": "北海道",
    "city": "白老郡白老町",
    "town": "以下に掲載がない場合"
  },
  "0590901": {
    "zipcode": "0590901",
    "prefectureCode": "01",
    "prefectureNumber": 1,
    "prefecture": "北海道",
    "city": "白老郡白老町",
    "town": "社台"
  },
  "0590902": {
    "zipcode": "0590902",
    "prefectureCode": "01",
    "prefectureNumber": 1,
    "prefecture": "北海道",
    "city": "白老郡白老町",
    "town": "若草町"
  },
  "0590903": {
    "zipcode": "0590903",
    "prefectureCode": "01",
    "prefectureNumber": 1,
    "prefecture": "北海道",
    "city": "白老郡白老町",
    "town": "日の出町"
  },
  "0590904": {
    "zipcode": "0590904",
    "prefectureCode": "01",
    "prefectureNumber": 1,
    "prefecture": "北海道",
    "city": "白老郡白老町",
    "town": "東町"
  },
  "0590905": {
    "zipcode": "0590905",
    "prefectureCode": "01",
    "prefectureNumber": 1,
    "prefecture": "北海道",
    "city": "白老郡白老町",
    "town": "大町"
  },
  "0590906": {
    "zipcode": "0590906",
    "prefectureCode": "01",
    "prefectureNumber": 1,
    "prefecture": "北海道",
    "city": "白老郡白老町",
    "town": "本町"
  },
  "0590907": {
    "zipcode": "0590907",
    "prefectureCode": "01",
    "prefectureNumber": 1,
    "prefecture": "北海道",
    "city": "白老郡白老町",
    "town": "末広町"
  },
  "0590908": {
    "zipcode": "0590908",
    "prefectureCode": "01",
    "prefectureNumber": 1,
    "prefecture": "北海道",
    "city": "白老郡白老町",
    "town": "緑丘"
  },
  "0590911": {
    "zipcode": "0590911",
    "prefectureCode": "01",
    "prefectureNumber": 1,
    "prefecture": "北海道",
    "city": "白老郡白老町",
    "town": "森野"
  },
  "0590912": {
    "zipcode": "0590912",
    "prefectureCode": "01",
    "prefectureNumber": 1,
    "prefecture": "北海道",
    "city": "白老郡白老町",
    "town": "陣屋町"
  },
  "0590913": {
    "zipcode": "0590913",
    "prefectureCode": "01",
    "prefectureNumber": 1,
    "prefecture": "北海道",
    "city": "白老郡白老町",
    "town": "緑町"
  },
  "0590914": {
    "zipcode": "0590914",
    "prefectureCode": "01",
    "prefectureNumber": 1,
    "prefecture": "北海道",
    "city": "白老郡白老町",
    "town": "栄町"
  },
  "0590915": {
    "zipcode": "0590915",
    "prefectureCode": "01",
    "prefectureNumber": 1,
    "prefecture": "北海道",
    "city": "白老郡白老町",
    "town": "川沿"
  },
  "0590916": {
    "zipcode": "0590916",
    "prefectureCode": "01",
    "prefectureNumber": 1,
    "prefecture": "北海道",
    "city": "白老郡白老町",
    "town": "高砂町"
  },
  "0590921": {
    "zipcode": "0590921",
    "prefectureCode": "01",
    "prefectureNumber": 1,
    "prefecture": "北海道",
    "city": "白老郡白老町",
    "town": "石山"
  },
  "0590922": {
    "zipcode": "0590922",
    "prefectureCode": "01",
    "prefectureNumber": 1,
    "prefecture": "北海道",
    "city": "白老郡白老町",
    "town": "萩野"
  },
  "0590923": {
    "zipcode": "0590923",
    "prefectureCode": "01",
    "prefectureNumber": 1,
    "prefecture": "北海道",
    "city": "白老郡白老町",
    "town": "北吉原"
  },
  "0591261": {
    "zipcode": "0591261",
    "prefectureCode": "01",
    "prefectureNumber": 1,
    "prefecture": "北海道",
    "city": "苫小牧市",
    "town": "ときわ町"
  },
  "0591262": {
    "zipcode": "0591262",
    "prefectureCode": "01",
    "prefectureNumber": 1,
    "prefecture": "北海道",
    "city": "苫小牧市",
    "town": "美原町"
  },
  "0591263": {
    "zipcode": "0591263",
    "prefectureCode": "01",
    "prefectureNumber": 1,
    "prefecture": "北海道",
    "city": "苫小牧市",
    "town": "青雲町"
  },
  "0591264": {
    "zipcode": "0591264",
    "prefectureCode": "01",
    "prefectureNumber": 1,
    "prefecture": "北海道",
    "city": "苫小牧市",
    "town": "宮前町"
  },
  "0591265": {
    "zipcode": "0591265",
    "prefectureCode": "01",
    "prefectureNumber": 1,
    "prefecture": "北海道",
    "city": "苫小牧市",
    "town": "樽前"
  },
  "0591266": {
    "zipcode": "0591266",
    "prefectureCode": "01",
    "prefectureNumber": 1,
    "prefecture": "北海道",
    "city": "苫小牧市",
    "town": "錦西町"
  },
  "0591271": {
    "zipcode": "0591271",
    "prefectureCode": "01",
    "prefectureNumber": 1,
    "prefecture": "北海道",
    "city": "苫小牧市",
    "town": "澄川町"
  },
  "0591272": {
    "zipcode": "0591272",
    "prefectureCode": "01",
    "prefectureNumber": 1,
    "prefecture": "北海道",
    "city": "苫小牧市",
    "town": "のぞみ町"
  },
  "0591273": {
    "zipcode": "0591273",
    "prefectureCode": "01",
    "prefectureNumber": 1,
    "prefecture": "北海道",
    "city": "苫小牧市",
    "town": "明徳町"
  },
  "0591274": {
    "zipcode": "0591274",
    "prefectureCode": "01",
    "prefectureNumber": 1,
    "prefecture": "北海道",
    "city": "苫小牧市",
    "town": "もえぎ町"
  },
  "0591275": {
    "zipcode": "0591275",
    "prefectureCode": "01",
    "prefectureNumber": 1,
    "prefecture": "北海道",
    "city": "苫小牧市",
    "town": "錦岡"
  },
  "0591276": {
    "zipcode": "0591276",
    "prefectureCode": "01",
    "prefectureNumber": 1,
    "prefecture": "北海道",
    "city": "苫小牧市",
    "town": "はまなす町（２丁目）"
  },
  "0591277": {
    "zipcode": "0591277",
    "prefectureCode": "01",
    "prefectureNumber": 1,
    "prefecture": "北海道",
    "city": "苫小牧市",
    "town": "北星町"
  },
  "0591301": {
    "zipcode": "0591301",
    "prefectureCode": "01",
    "prefectureNumber": 1,
    "prefecture": "北海道",
    "city": "苫小牧市",
    "town": "東開町"
  },
  "0591302": {
    "zipcode": "0591302",
    "prefectureCode": "01",
    "prefectureNumber": 1,
    "prefecture": "北海道",
    "city": "苫小牧市",
    "town": "拓勇西町"
  },
  "0591303": {
    "zipcode": "0591303",
    "prefectureCode": "01",
    "prefectureNumber": 1,
    "prefecture": "北海道",
    "city": "苫小牧市",
    "town": "拓勇東町"
  },
  "0591304": {
    "zipcode": "0591304",
    "prefectureCode": "01",
    "prefectureNumber": 1,
    "prefecture": "北海道",
    "city": "苫小牧市",
    "town": "北栄町"
  },
  "0591305": {
    "zipcode": "0591305",
    "prefectureCode": "01",
    "prefectureNumber": 1,
    "prefecture": "北海道",
    "city": "苫小牧市",
    "town": "沼ノ端中央"
  },
  "0591306": {
    "zipcode": "0591306",
    "prefectureCode": "01",
    "prefectureNumber": 1,
    "prefecture": "北海道",
    "city": "苫小牧市",
    "town": "ウトナイ北"
  },
  "0591307": {
    "zipcode": "0591307",
    "prefectureCode": "01",
    "prefectureNumber": 1,
    "prefecture": "北海道",
    "city": "苫小牧市",
    "town": "ウトナイ南"
  },
  "0591361": {
    "zipcode": "0591361",
    "prefectureCode": "01",
    "prefectureNumber": 1,
    "prefecture": "北海道",
    "city": "苫小牧市",
    "town": "美沢"
  },
  "0591362": {
    "zipcode": "0591362",
    "prefectureCode": "01",
    "prefectureNumber": 1,
    "prefecture": "北海道",
    "city": "苫小牧市",
    "town": "柏原"
  },
  "0591363": {
    "zipcode": "0591363",
    "prefectureCode": "01",
    "prefectureNumber": 1,
    "prefecture": "北海道",
    "city": "苫小牧市",
    "town": "静川"
  },
  "0591364": {
    "zipcode": "0591364",
    "prefectureCode": "01",
    "prefectureNumber": 1,
    "prefecture": "北海道",
    "city": "苫小牧市",
    "town": "沼ノ端"
  },
  "0591365": {
    "zipcode": "0591365",
    "prefectureCode": "01",
    "prefectureNumber": 1,
    "prefecture": "北海道",
    "city": "苫小牧市",
    "town": "植苗"
  },
  "0591366": {
    "zipcode": "0591366",
    "prefectureCode": "01",
    "prefectureNumber": 1,
    "prefecture": "北海道",
    "city": "苫小牧市",
    "town": "あけぼの町（１、２丁目）"
  },
  "0591371": {
    "zipcode": "0591371",
    "prefectureCode": "01",
    "prefectureNumber": 1,
    "prefecture": "北海道",
    "city": "苫小牧市",
    "town": "弁天"
  },
  "0591372": {
    "zipcode": "0591372",
    "prefectureCode": "01",
    "prefectureNumber": 1,
    "prefecture": "北海道",
    "city": "苫小牧市",
    "town": "勇払"
  },
  "0591373": {
    "zipcode": "0591373",
    "prefectureCode": "01",
    "prefectureNumber": 1,
    "prefecture": "北海道",
    "city": "苫小牧市",
    "town": "真砂町"
  },
  "0591374": {
    "zipcode": "0591374",
    "prefectureCode": "01",
    "prefectureNumber": 1,
    "prefecture": "北海道",
    "city": "苫小牧市",
    "town": "晴海町（その他）"
  },
  "0591375": {
    "zipcode": "0591375",
    "prefectureCode": "01",
    "prefectureNumber": 1,
    "prefecture": "北海道",
    "city": "苫小牧市",
    "town": "一本松町（１〜５番地）"
  },
  "0591431": {
    "zipcode": "0591431",
    "prefectureCode": "01",
    "prefectureNumber": 1,
    "prefecture": "北海道",
    "city": "勇払郡安平町",
    "town": "早来新栄"
  },
  "0591432": {
    "zipcode": "0591432",
    "prefectureCode": "01",
    "prefectureNumber": 1,
    "prefecture": "北海道",
    "city": "勇払郡安平町",
    "town": "早来源武"
  },
  "0591433": {
    "zipcode": "0591433",
    "prefectureCode": "01",
    "prefectureNumber": 1,
    "prefecture": "北海道",
    "city": "勇払郡安平町",
    "town": "遠浅"
  },
  "0591434": {
    "zipcode": "0591434",
    "prefectureCode": "01",
    "prefectureNumber": 1,
    "prefecture": "北海道",
    "city": "勇払郡安平町",
    "town": "早来富岡"
  },
  "0591500": {
    "zipcode": "0591500",
    "prefectureCode": "01",
    "prefectureNumber": 1,
    "prefecture": "北海道",
    "city": "勇払郡安平町",
    "town": "以下に掲載がない場合"
  },
  "0591501": {
    "zipcode": "0591501",
    "prefectureCode": "01",
    "prefectureNumber": 1,
    "prefecture": "北海道",
    "city": "勇払郡安平町",
    "town": "早来大町"
  },
  "0591502": {
    "zipcode": "0591502",
    "prefectureCode": "01",
    "prefectureNumber": 1,
    "prefecture": "北海道",
    "city": "勇払郡安平町",
    "town": "早来北進"
  },
  "0591503": {
    "zipcode": "0591503",
    "prefectureCode": "01",
    "prefectureNumber": 1,
    "prefecture": "北海道",
    "city": "勇払郡安平町",
    "town": "東早来"
  },
  "0591504": {
    "zipcode": "0591504",
    "prefectureCode": "01",
    "prefectureNumber": 1,
    "prefecture": "北海道",
    "city": "勇払郡安平町",
    "town": "早来守田"
  },
  "0591505": {
    "zipcode": "0591505",
    "prefectureCode": "01",
    "prefectureNumber": 1,
    "prefecture": "北海道",
    "city": "勇払郡安平町",
    "town": "早来栄町"
  },
  "0591506": {
    "zipcode": "0591506",
    "prefectureCode": "01",
    "prefectureNumber": 1,
    "prefecture": "北海道",
    "city": "勇払郡安平町",
    "town": "早来北町"
  },
  "0591511": {
    "zipcode": "0591511",
    "prefectureCode": "01",
    "prefectureNumber": 1,
    "prefecture": "北海道",
    "city": "勇払郡安平町",
    "town": "安平"
  },
  "0591512": {
    "zipcode": "0591512",
    "prefectureCode": "01",
    "prefectureNumber": 1,
    "prefecture": "北海道",
    "city": "勇払郡安平町",
    "town": "早来瑞穂"
  },
  "0591513": {
    "zipcode": "0591513",
    "prefectureCode": "01",
    "prefectureNumber": 1,
    "prefecture": "北海道",
    "city": "勇払郡安平町",
    "town": "早来緑丘"
  },
  "0591600": {
    "zipcode": "0591600",
    "prefectureCode": "01",
    "prefectureNumber": 1,
    "prefecture": "北海道",
    "city": "勇払郡厚真町",
    "town": "以下に掲載がない場合"
  },
  "0591601": {
    "zipcode": "0591601",
    "prefectureCode": "01",
    "prefectureNumber": 1,
    "prefecture": "北海道",
    "city": "勇払郡厚真町",
    "town": "京町"
  },
  "0591602": {
    "zipcode": "0591602",
    "prefectureCode": "01",
    "prefectureNumber": 1,
    "prefecture": "北海道",
    "city": "勇払郡厚真町",
    "town": "表町"
  },
  "0591603": {
    "zipcode": "0591603",
    "prefectureCode": "01",
    "prefectureNumber": 1,
    "prefecture": "北海道",
    "city": "勇払郡厚真町",
    "town": "本町"
  },
  "0591604": {
    "zipcode": "0591604",
    "prefectureCode": "01",
    "prefectureNumber": 1,
    "prefecture": "北海道",
    "city": "勇払郡厚真町",
    "town": "錦町"
  },
  "0591605": {
    "zipcode": "0591605",
    "prefectureCode": "01",
    "prefectureNumber": 1,
    "prefecture": "北海道",
    "city": "勇払郡厚真町",
    "town": "本郷"
  },
  "0591606": {
    "zipcode": "0591606",
    "prefectureCode": "01",
    "prefectureNumber": 1,
    "prefecture": "北海道",
    "city": "勇払郡厚真町",
    "town": "朝日"
  },
  "0591611": {
    "zipcode": "0591611",
    "prefectureCode": "01",
    "prefectureNumber": 1,
    "prefecture": "北海道",
    "city": "勇払郡厚真町",
    "town": "幌里"
  },
  "0591612": {
    "zipcode": "0591612",
    "prefectureCode": "01",
    "prefectureNumber": 1,
    "prefecture": "北海道",
    "city": "勇払郡厚真町",
    "town": "桜丘"
  },
  "0591613": {
    "zipcode": "0591613",
    "prefectureCode": "01",
    "prefectureNumber": 1,
    "prefecture": "北海道",
    "city": "勇払郡厚真町",
    "town": "吉野"
  },
  "0591614": {
    "zipcode": "0591614",
    "prefectureCode": "01",
    "prefectureNumber": 1,
    "prefecture": "北海道",
    "city": "勇払郡厚真町",
    "town": "富里"
  },
  "0591615": {
    "zipcode": "0591615",
    "prefectureCode": "01",
    "prefectureNumber": 1,
    "prefecture": "北海道",
    "city": "勇払郡厚真町",
    "town": "高丘"
  },
  "0591616": {
    "zipcode": "0591616",
    "prefectureCode": "01",
    "prefectureNumber": 1,
    "prefecture": "北海道",
    "city": "勇払郡厚真町",
    "town": "幌内"
  },
  "0591621": {
    "zipcode": "0591621",
    "prefectureCode": "01",
    "prefectureNumber": 1,
    "prefecture": "北海道",
    "city": "勇払郡厚真町",
    "town": "東和"
  },
  "0591622": {
    "zipcode": "0591622",
    "prefectureCode": "01",
    "prefectureNumber": 1,
    "prefecture": "北海道",
    "city": "勇払郡厚真町",
    "town": "宇隆"
  },
  "0591623": {
    "zipcode": "0591623",
    "prefectureCode": "01",
    "prefectureNumber": 1,
    "prefecture": "北海道",
    "city": "勇払郡厚真町",
    "town": "新町"
  },
  "0591624": {
    "zipcode": "0591624",
    "prefectureCode": "01",
    "prefectureNumber": 1,
    "prefecture": "北海道",
    "city": "勇払郡厚真町",
    "town": "豊沢"
  },
  "0591625": {
    "zipcode": "0591625",
    "prefectureCode": "01",
    "prefectureNumber": 1,
    "prefecture": "北海道",
    "city": "勇払郡厚真町",
    "town": "美里"
  },
  "0591741": {
    "zipcode": "0591741",
    "prefectureCode": "01",
    "prefectureNumber": 1,
    "prefecture": "北海道",
    "city": "勇払郡厚真町",
    "town": "上厚真"
  },
  "0591742": {
    "zipcode": "0591742",
    "prefectureCode": "01",
    "prefectureNumber": 1,
    "prefecture": "北海道",
    "city": "勇払郡厚真町",
    "town": "浜厚真"
  },
  "0591743": {
    "zipcode": "0591743",
    "prefectureCode": "01",
    "prefectureNumber": 1,
    "prefecture": "北海道",
    "city": "勇払郡厚真町",
    "town": "共和"
  },
  "0591744": {
    "zipcode": "0591744",
    "prefectureCode": "01",
    "prefectureNumber": 1,
    "prefecture": "北海道",
    "city": "勇払郡厚真町",
    "town": "共栄"
  },
  "0591745": {
    "zipcode": "0591745",
    "prefectureCode": "01",
    "prefectureNumber": 1,
    "prefecture": "北海道",
    "city": "勇払郡厚真町",
    "town": "豊川"
  },
  "0591746": {
    "zipcode": "0591746",
    "prefectureCode": "01",
    "prefectureNumber": 1,
    "prefecture": "北海道",
    "city": "勇払郡厚真町",
    "town": "上野"
  },
  "0591747": {
    "zipcode": "0591747",
    "prefectureCode": "01",
    "prefectureNumber": 1,
    "prefecture": "北海道",
    "city": "勇払郡厚真町",
    "town": "富野"
  },
  "0591748": {
    "zipcode": "0591748",
    "prefectureCode": "01",
    "prefectureNumber": 1,
    "prefecture": "北海道",
    "city": "勇払郡厚真町",
    "town": "厚和"
  },
  "0591749": {
    "zipcode": "0591749",
    "prefectureCode": "01",
    "prefectureNumber": 1,
    "prefecture": "北海道",
    "city": "勇払郡厚真町",
    "town": "清住"
  },
  "0591751": {
    "zipcode": "0591751",
    "prefectureCode": "01",
    "prefectureNumber": 1,
    "prefecture": "北海道",
    "city": "勇払郡厚真町",
    "town": "鯉沼"
  },
  "0591752": {
    "zipcode": "0591752",
    "prefectureCode": "01",
    "prefectureNumber": 1,
    "prefecture": "北海道",
    "city": "勇払郡厚真町",
    "town": "軽舞"
  },
  "0591753": {
    "zipcode": "0591753",
    "prefectureCode": "01",
    "prefectureNumber": 1,
    "prefecture": "北海道",
    "city": "勇払郡厚真町",
    "town": "豊丘"
  },
  "0591754": {
    "zipcode": "0591754",
    "prefectureCode": "01",
    "prefectureNumber": 1,
    "prefecture": "北海道",
    "city": "勇払郡厚真町",
    "town": "鹿沼"
  },
  "0591911": {
    "zipcode": "0591911",
    "prefectureCode": "01",
    "prefectureNumber": 1,
    "prefecture": "北海道",
    "city": "勇払郡安平町",
    "town": "追分本町"
  },
  "0591921": {
    "zipcode": "0591921",
    "prefectureCode": "01",
    "prefectureNumber": 1,
    "prefecture": "北海道",
    "city": "勇払郡安平町",
    "town": "追分柏が丘"
  },
  "0591931": {
    "zipcode": "0591931",
    "prefectureCode": "01",
    "prefectureNumber": 1,
    "prefecture": "北海道",
    "city": "勇払郡安平町",
    "town": "追分中央"
  },
  "0591941": {
    "zipcode": "0591941",
    "prefectureCode": "01",
    "prefectureNumber": 1,
    "prefecture": "北海道",
    "city": "勇払郡安平町",
    "town": "追分青葉"
  },
  "0591942": {
    "zipcode": "0591942",
    "prefectureCode": "01",
    "prefectureNumber": 1,
    "prefecture": "北海道",
    "city": "勇払郡安平町",
    "town": "追分白樺"
  },
  "0591951": {
    "zipcode": "0591951",
    "prefectureCode": "01",
    "prefectureNumber": 1,
    "prefecture": "北海道",
    "city": "勇払郡安平町",
    "town": "追分若草"
  },
  "0591961": {
    "zipcode": "0591961",
    "prefectureCode": "01",
    "prefectureNumber": 1,
    "prefecture": "北海道",
    "city": "勇払郡安平町",
    "town": "追分花園"
  },
  "0591971": {
    "zipcode": "0591971",
    "prefectureCode": "01",
    "prefectureNumber": 1,
    "prefecture": "北海道",
    "city": "勇払郡安平町",
    "town": "追分緑が丘"
  },
  "0591982": {
    "zipcode": "0591982",
    "prefectureCode": "01",
    "prefectureNumber": 1,
    "prefecture": "北海道",
    "city": "勇払郡安平町",
    "town": "追分美園"
  },
  "0591983": {
    "zipcode": "0591983",
    "prefectureCode": "01",
    "prefectureNumber": 1,
    "prefecture": "北海道",
    "city": "勇払郡安平町",
    "town": "追分旭"
  },
  "0591984": {
    "zipcode": "0591984",
    "prefectureCode": "01",
    "prefectureNumber": 1,
    "prefecture": "北海道",
    "city": "勇払郡安平町",
    "town": "追分向陽"
  },
  "0591985": {
    "zipcode": "0591985",
    "prefectureCode": "01",
    "prefectureNumber": 1,
    "prefecture": "北海道",
    "city": "勇払郡安平町",
    "town": "追分春日"
  },
  "0591986": {
    "zipcode": "0591986",
    "prefectureCode": "01",
    "prefectureNumber": 1,
    "prefecture": "北海道",
    "city": "勇払郡安平町",
    "town": "追分弥生"
  },
  "0591987": {
    "zipcode": "0591987",
    "prefectureCode": "01",
    "prefectureNumber": 1,
    "prefecture": "北海道",
    "city": "勇払郡安平町",
    "town": "追分豊栄"
  },
  "0592121": {
    "zipcode": "0592121",
    "prefectureCode": "01",
    "prefectureNumber": 1,
    "prefecture": "北海道",
    "city": "沙流郡日高町",
    "town": "門別本町"
  },
  "0592122": {
    "zipcode": "0592122",
    "prefectureCode": "01",
    "prefectureNumber": 1,
    "prefecture": "北海道",
    "city": "沙流郡日高町",
    "town": "緑町"
  },
  "0592123": {
    "zipcode": "0592123",
    "prefectureCode": "01",
    "prefectureNumber": 1,
    "prefecture": "北海道",
    "city": "沙流郡日高町",
    "town": "幾千世"
  },
  "0592124": {
    "zipcode": "0592124",
    "prefectureCode": "01",
    "prefectureNumber": 1,
    "prefecture": "北海道",
    "city": "沙流郡日高町",
    "town": "庫富"
  },
  "0592125": {
    "zipcode": "0592125",
    "prefectureCode": "01",
    "prefectureNumber": 1,
    "prefecture": "北海道",
    "city": "沙流郡日高町",
    "town": "広富"
  },
  "0592126": {
    "zipcode": "0592126",
    "prefectureCode": "01",
    "prefectureNumber": 1,
    "prefecture": "北海道",
    "city": "沙流郡日高町",
    "town": "豊郷"
  },
  "0592127": {
    "zipcode": "0592127",
    "prefectureCode": "01",
    "prefectureNumber": 1,
    "prefecture": "北海道",
    "city": "沙流郡日高町",
    "town": "旭町"
  },
  "0592241": {
    "zipcode": "0592241",
    "prefectureCode": "01",
    "prefectureNumber": 1,
    "prefecture": "北海道",
    "city": "沙流郡日高町",
    "town": "豊田"
  },
  "0592242": {
    "zipcode": "0592242",
    "prefectureCode": "01",
    "prefectureNumber": 1,
    "prefecture": "北海道",
    "city": "沙流郡日高町",
    "town": "美原"
  },
  "0592243": {
    "zipcode": "0592243",
    "prefectureCode": "01",
    "prefectureNumber": 1,
    "prefecture": "北海道",
    "city": "沙流郡日高町",
    "town": "厚賀町"
  },
  "0592244": {
    "zipcode": "0592244",
    "prefectureCode": "01",
    "prefectureNumber": 1,
    "prefecture": "北海道",
    "city": "沙流郡日高町",
    "town": "賀張"
  },
  "0592245": {
    "zipcode": "0592245",
    "prefectureCode": "01",
    "prefectureNumber": 1,
    "prefecture": "北海道",
    "city": "沙流郡日高町",
    "town": "清畠"
  },
  "0592251": {
    "zipcode": "0592251",
    "prefectureCode": "01",
    "prefectureNumber": 1,
    "prefecture": "北海道",
    "city": "新冠郡新冠町",
    "town": "共栄"
  },
  "0592252": {
    "zipcode": "0592252",
    "prefectureCode": "01",
    "prefectureNumber": 1,
    "prefecture": "北海道",
    "city": "新冠郡新冠町",
    "town": "東川"
  },
  "0592253": {
    "zipcode": "0592253",
    "prefectureCode": "01",
    "prefectureNumber": 1,
    "prefecture": "北海道",
    "city": "新冠郡新冠町",
    "town": "大狩部（４３６、５１６、５６７番地）"
  },
  "0592331": {
    "zipcode": "0592331",
    "prefectureCode": "01",
    "prefectureNumber": 1,
    "prefecture": "北海道",
    "city": "沙流郡日高町",
    "town": "正和"
  },
  "0592332": {
    "zipcode": "0592332",
    "prefectureCode": "01",
    "prefectureNumber": 1,
    "prefecture": "北海道",
    "city": "沙流郡日高町",
    "town": "三和"
  },
  "0592341": {
    "zipcode": "0592341",
    "prefectureCode": "01",
    "prefectureNumber": 1,
    "prefecture": "北海道",
    "city": "新冠郡新冠町",
    "town": "新和"
  },
  "0592342": {
    "zipcode": "0592342",
    "prefectureCode": "01",
    "prefectureNumber": 1,
    "prefecture": "北海道",
    "city": "新冠郡新冠町",
    "town": "里平"
  },
  "0592343": {
    "zipcode": "0592343",
    "prefectureCode": "01",
    "prefectureNumber": 1,
    "prefecture": "北海道",
    "city": "新冠郡新冠町",
    "town": "太陽"
  },
  "0592344": {
    "zipcode": "0592344",
    "prefectureCode": "01",
    "prefectureNumber": 1,
    "prefecture": "北海道",
    "city": "新冠郡新冠町",
    "town": "美宇"
  },
  "0592400": {
    "zipcode": "0592400",
    "prefectureCode": "01",
    "prefectureNumber": 1,
    "prefecture": "北海道",
    "city": "新冠郡新冠町",
    "town": "以下に掲載がない場合"
  },
  "0592401": {
    "zipcode": "0592401",
    "prefectureCode": "01",
    "prefectureNumber": 1,
    "prefecture": "北海道",
    "city": "新冠郡新冠町",
    "town": "本町"
  },
  "0592402": {
    "zipcode": "0592402",
    "prefectureCode": "01",
    "prefectureNumber": 1,
    "prefecture": "北海道",
    "city": "新冠郡新冠町",
    "town": "中央町"
  },
  "0592403": {
    "zipcode": "0592403",
    "prefectureCode": "01",
    "prefectureNumber": 1,
    "prefecture": "北海道",
    "city": "新冠郡新冠町",
    "town": "北星町"
  },
  "0592404": {
    "zipcode": "0592404",
    "prefectureCode": "01",
    "prefectureNumber": 1,
    "prefecture": "北海道",
    "city": "新冠郡新冠町",
    "town": "東町"
  },
  "0592411": {
    "zipcode": "0592411",
    "prefectureCode": "01",
    "prefectureNumber": 1,
    "prefecture": "北海道",
    "city": "新冠郡新冠町",
    "town": "大狩部（その他）"
  },
  "0592412": {
    "zipcode": "0592412",
    "prefectureCode": "01",
    "prefectureNumber": 1,
    "prefecture": "北海道",
    "city": "新冠郡新冠町",
    "town": "節婦町"
  },
  "0592413": {
    "zipcode": "0592413",
    "prefectureCode": "01",
    "prefectureNumber": 1,
    "prefecture": "北海道",
    "city": "新冠郡新冠町",
    "town": "高江"
  },
  "0592414": {
    "zipcode": "0592414",
    "prefectureCode": "01",
    "prefectureNumber": 1,
    "prefecture": "北海道",
    "city": "新冠郡新冠町",
    "town": "朝日"
  },
  "0592415": {
    "zipcode": "0592415",
    "prefectureCode": "01",
    "prefectureNumber": 1,
    "prefecture": "北海道",
    "city": "新冠郡新冠町",
    "town": "緑丘"
  },
  "0592416": {
    "zipcode": "0592416",
    "prefectureCode": "01",
    "prefectureNumber": 1,
    "prefecture": "北海道",
    "city": "新冠郡新冠町",
    "town": "古岸"
  },
  "0592417": {
    "zipcode": "0592417",
    "prefectureCode": "01",
    "prefectureNumber": 1,
    "prefecture": "北海道",
    "city": "新冠郡新冠町",
    "town": "東泊津"
  },
  "0592418": {
    "zipcode": "0592418",
    "prefectureCode": "01",
    "prefectureNumber": 1,
    "prefecture": "北海道",
    "city": "新冠郡新冠町",
    "town": "西泊津"
  },
  "0592421": {
    "zipcode": "0592421",
    "prefectureCode": "01",
    "prefectureNumber": 1,
    "prefecture": "北海道",
    "city": "新冠郡新冠町",
    "town": "若園"
  },
  "0592422": {
    "zipcode": "0592422",
    "prefectureCode": "01",
    "prefectureNumber": 1,
    "prefecture": "北海道",
    "city": "新冠郡新冠町",
    "town": "岩清水"
  },
  "0592423": {
    "zipcode": "0592423",
    "prefectureCode": "01",
    "prefectureNumber": 1,
    "prefecture": "北海道",
    "city": "新冠郡新冠町",
    "town": "泉"
  },
  "0592424": {
    "zipcode": "0592424",
    "prefectureCode": "01",
    "prefectureNumber": 1,
    "prefecture": "北海道",
    "city": "新冠郡新冠町",
    "town": "新栄"
  },
  "0592425": {
    "zipcode": "0592425",
    "prefectureCode": "01",
    "prefectureNumber": 1,
    "prefecture": "北海道",
    "city": "新冠郡新冠町",
    "town": "明和"
  },
  "0592426": {
    "zipcode": "0592426",
    "prefectureCode": "01",
    "prefectureNumber": 1,
    "prefecture": "北海道",
    "city": "新冠郡新冠町",
    "town": "万世"
  },
  "0592427": {
    "zipcode": "0592427",
    "prefectureCode": "01",
    "prefectureNumber": 1,
    "prefecture": "北海道",
    "city": "新冠郡新冠町",
    "town": "大富"
  },
  "0592561": {
    "zipcode": "0592561",
    "prefectureCode": "01",
    "prefectureNumber": 1,
    "prefecture": "北海道",
    "city": "日高郡新ひだか町",
    "town": "東静内"
  },
  "0592562": {
    "zipcode": "0592562",
    "prefectureCode": "01",
    "prefectureNumber": 1,
    "prefecture": "北海道",
    "city": "日高郡新ひだか町",
    "town": "静内浦和"
  },
  "0592563": {
    "zipcode": "0592563",
    "prefectureCode": "01",
    "prefectureNumber": 1,
    "prefecture": "北海道",
    "city": "日高郡新ひだか町",
    "town": "静内川合"
  },
  "0592564": {
    "zipcode": "0592564",
    "prefectureCode": "01",
    "prefectureNumber": 1,
    "prefecture": "北海道",
    "city": "日高郡新ひだか町",
    "town": "静内西川"
  },
  "0592565": {
    "zipcode": "0592565",
    "prefectureCode": "01",
    "prefectureNumber": 1,
    "prefecture": "北海道",
    "city": "日高郡新ひだか町",
    "town": "静内春立"
  },
  "0592566": {
    "zipcode": "0592566",
    "prefectureCode": "01",
    "prefectureNumber": 1,
    "prefecture": "北海道",
    "city": "日高郡新ひだか町",
    "town": "静内東別"
  },
  "0592571": {
    "zipcode": "0592571",
    "prefectureCode": "01",
    "prefectureNumber": 1,
    "prefecture": "北海道",
    "city": "日高郡新ひだか町",
    "town": "三石西端"
  },
  "0593101": {
    "zipcode": "0593101",
    "prefectureCode": "01",
    "prefectureNumber": 1,
    "prefecture": "北海道",
    "city": "日高郡新ひだか町",
    "town": "三石富沢"
  },
  "0593102": {
    "zipcode": "0593102",
    "prefectureCode": "01",
    "prefectureNumber": 1,
    "prefecture": "北海道",
    "city": "日高郡新ひだか町",
    "town": "三石福畑"
  },
  "0593103": {
    "zipcode": "0593103",
    "prefectureCode": "01",
    "prefectureNumber": 1,
    "prefecture": "北海道",
    "city": "日高郡新ひだか町",
    "town": "三石豊岡"
  },
  "0593104": {
    "zipcode": "0593104",
    "prefectureCode": "01",
    "prefectureNumber": 1,
    "prefecture": "北海道",
    "city": "日高郡新ひだか町",
    "town": "三石蓬栄"
  },
  "0593105": {
    "zipcode": "0593105",
    "prefectureCode": "01",
    "prefectureNumber": 1,
    "prefecture": "北海道",
    "city": "日高郡新ひだか町",
    "town": "三石東蓬莱"
  },
  "0593106": {
    "zipcode": "0593106",
    "prefectureCode": "01",
    "prefectureNumber": 1,
    "prefecture": "北海道",
    "city": "日高郡新ひだか町",
    "town": "三石西蓬莱"
  },
  "0593107": {
    "zipcode": "0593107",
    "prefectureCode": "01",
    "prefectureNumber": 1,
    "prefecture": "北海道",
    "city": "日高郡新ひだか町",
    "town": "三石旭町"
  },
  "0593108": {
    "zipcode": "0593108",
    "prefectureCode": "01",
    "prefectureNumber": 1,
    "prefecture": "北海道",
    "city": "日高郡新ひだか町",
    "town": "三石本町"
  },
  "0593111": {
    "zipcode": "0593111",
    "prefectureCode": "01",
    "prefectureNumber": 1,
    "prefecture": "北海道",
    "city": "日高郡新ひだか町",
    "town": "三石越海町"
  },
  "0593112": {
    "zipcode": "0593112",
    "prefectureCode": "01",
    "prefectureNumber": 1,
    "prefecture": "北海道",
    "city": "日高郡新ひだか町",
    "town": "三石港町"
  },
  "0593231": {
    "zipcode": "0593231",
    "prefectureCode": "01",
    "prefectureNumber": 1,
    "prefecture": "北海道",
    "city": "日高郡新ひだか町",
    "town": "三石本桐"
  },
  "0593232": {
    "zipcode": "0593232",
    "prefectureCode": "01",
    "prefectureNumber": 1,
    "prefecture": "北海道",
    "city": "日高郡新ひだか町",
    "town": "三石美野和"
  },
  "0593233": {
    "zipcode": "0593233",
    "prefectureCode": "01",
    "prefectureNumber": 1,
    "prefecture": "北海道",
    "city": "日高郡新ひだか町",
    "town": "三石鳧舞"
  },
  "0593351": {
    "zipcode": "0593351",
    "prefectureCode": "01",
    "prefectureNumber": 1,
    "prefecture": "北海道",
    "city": "日高郡新ひだか町",
    "town": "三石歌笛"
  },
  "0593352": {
    "zipcode": "0593352",
    "prefectureCode": "01",
    "prefectureNumber": 1,
    "prefecture": "北海道",
    "city": "日高郡新ひだか町",
    "town": "三石稲見"
  },
  "0593353": {
    "zipcode": "0593353",
    "prefectureCode": "01",
    "prefectureNumber": 1,
    "prefecture": "北海道",
    "city": "日高郡新ひだか町",
    "town": "三石清瀬"
  },
  "0593354": {
    "zipcode": "0593354",
    "prefectureCode": "01",
    "prefectureNumber": 1,
    "prefecture": "北海道",
    "city": "日高郡新ひだか町",
    "town": "三石川上"
  },
  "0593355": {
    "zipcode": "0593355",
    "prefectureCode": "01",
    "prefectureNumber": 1,
    "prefecture": "北海道",
    "city": "日高郡新ひだか町",
    "town": "三石美河"
  },
  "0593451": {
    "zipcode": "0593451",
    "prefectureCode": "01",
    "prefectureNumber": 1,
    "prefecture": "北海道",
    "city": "浦河郡浦河町",
    "town": "荻伏町"
  },
  "0593453": {
    "zipcode": "0593453",
    "prefectureCode": "01",
    "prefectureNumber": 1,
    "prefecture": "北海道",
    "city": "浦河郡浦河町",
    "town": "瑞穂"
  },
  "0593454": {
    "zipcode": "0593454",
    "prefectureCode": "01",
    "prefectureNumber": 1,
    "prefecture": "北海道",
    "city": "浦河郡浦河町",
    "town": "野深"
  },
  "0593461": {
    "zipcode": "0593461",
    "prefectureCode": "01",
    "prefectureNumber": 1,
    "prefecture": "北海道",
    "city": "浦河郡浦河町",
    "town": "東栄"
  },
  "0593462": {
    "zipcode": "0593462",
    "prefectureCode": "01",
    "prefectureNumber": 1,
    "prefecture": "北海道",
    "city": "浦河郡浦河町",
    "town": "富里"
  },
  "0593463": {
    "zipcode": "0593463",
    "prefectureCode": "01",
    "prefectureNumber": 1,
    "prefecture": "北海道",
    "city": "浦河郡浦河町",
    "town": "姉茶"
  }
}
