{
  "0610200": {
    "zipcode": "0610200",
    "prefectureCode": "01",
    "prefectureNumber": 1,
    "prefecture": "北海道",
    "city": "石狩郡当別町",
    "town": "以下に掲載がない場合"
  },
  "0610201": {
    "zipcode": "0610201",
    "prefectureCode": "01",
    "prefectureNumber": 1,
    "prefecture": "北海道",
    "city": "石狩郡当別町",
    "town": "青山"
  },
  "0610202": {
    "zipcode": "0610202",
    "prefectureCode": "01",
    "prefectureNumber": 1,
    "prefecture": "北海道",
    "city": "石狩郡当別町",
    "town": "茂平沢"
  },
  "0610203": {
    "zipcode": "0610203",
    "prefectureCode": "01",
    "prefectureNumber": 1,
    "prefecture": "北海道",
    "city": "石狩郡当別町",
    "town": "みどり野"
  },
  "0610204": {
    "zipcode": "0610204",
    "prefectureCode": "01",
    "prefectureNumber": 1,
    "prefecture": "北海道",
    "city": "石狩郡当別町",
    "town": "若葉"
  },
  "0610205": {
    "zipcode": "0610205",
    "prefectureCode": "01",
    "prefectureNumber": 1,
    "prefecture": "北海道",
    "city": "石狩郡当別町",
    "town": "下川町"
  },
  "0610206": {
    "zipcode": "0610206",
    "prefectureCode": "01",
    "prefectureNumber": 1,
    "prefecture": "北海道",
    "city": "石狩郡当別町",
    "town": "川下（その他）"
  },
  "0610207": {
    "zipcode": "0610207",
    "prefectureCode": "01",
    "prefectureNumber": 1,
    "prefecture": "北海道",
    "city": "石狩郡当別町",
    "town": "上当別"
  },
  "0610208": {
    "zipcode": "0610208",
    "prefectureCode": "01",
    "prefectureNumber": 1,
    "prefecture": "北海道",
    "city": "石狩郡当別町",
    "town": "弁華別"
  },
  "0610211": {
    "zipcode": "0610211",
    "prefectureCode": "01",
    "prefectureNumber": 1,
    "prefecture": "北海道",
    "city": "石狩郡当別町",
    "town": "中小屋"
  },
  "0610212": {
    "zipcode": "0610212",
    "prefectureCode": "01",
    "prefectureNumber": 1,
    "prefecture": "北海道",
    "city": "石狩郡当別町",
    "town": "金沢"
  },
  "0610213": {
    "zipcode": "0610213",
    "prefectureCode": "01",
    "prefectureNumber": 1,
    "prefecture": "北海道",
    "city": "石狩郡当別町",
    "town": "東裏"
  },
  "0610214": {
    "zipcode": "0610214",
    "prefectureCode": "01",
    "prefectureNumber": 1,
    "prefecture": "北海道",
    "city": "石狩郡当別町",
    "town": "蕨岱"
  },
  "0610215": {
    "zipcode": "0610215",
    "prefectureCode": "01",
    "prefectureNumber": 1,
    "prefecture": "北海道",
    "city": "石狩郡当別町",
    "town": "対雁"
  },
  "0610216": {
    "zipcode": "0610216",
    "prefectureCode": "01",
    "prefectureNumber": 1,
    "prefecture": "北海道",
    "city": "石狩郡当別町",
    "town": "栄町"
  },
  "0610217": {
    "zipcode": "0610217",
    "prefectureCode": "01",
    "prefectureNumber": 1,
    "prefecture": "北海道",
    "city": "石狩郡当別町",
    "town": "幸町"
  },
  "0610218": {
    "zipcode": "0610218",
    "prefectureCode": "01",
    "prefectureNumber": 1,
    "prefecture": "北海道",
    "city": "石狩郡当別町",
    "town": "樺戸町"
  },
  "0610221": {
    "zipcode": "0610221",
    "prefectureCode": "01",
    "prefectureNumber": 1,
    "prefecture": "北海道",
    "city": "石狩郡当別町",
    "town": "東町"
  },
  "0610222": {
    "zipcode": "0610222",
    "prefectureCode": "01",
    "prefectureNumber": 1,
    "prefecture": "北海道",
    "city": "石狩郡当別町",
    "town": "元町"
  },
  "0610223": {
    "zipcode": "0610223",
    "prefectureCode": "01",
    "prefectureNumber": 1,
    "prefecture": "北海道",
    "city": "石狩郡当別町",
    "town": "弥生"
  },
  "0610224": {
    "zipcode": "0610224",
    "prefectureCode": "01",
    "prefectureNumber": 1,
    "prefecture": "北海道",
    "city": "石狩郡当別町",
    "town": "末広"
  },
  "0610225": {
    "zipcode": "0610225",
    "prefectureCode": "01",
    "prefectureNumber": 1,
    "prefecture": "北海道",
    "city": "石狩郡当別町",
    "town": "美里"
  },
  "0610226": {
    "zipcode": "0610226",
    "prefectureCode": "01",
    "prefectureNumber": 1,
    "prefecture": "北海道",
    "city": "石狩郡当別町",
    "town": "錦町"
  },
  "0610227": {
    "zipcode": "0610227",
    "prefectureCode": "01",
    "prefectureNumber": 1,
    "prefecture": "北海道",
    "city": "石狩郡当別町",
    "town": "園生"
  },
  "0610228": {
    "zipcode": "0610228",
    "prefectureCode": "01",
    "prefectureNumber": 1,
    "prefecture": "北海道",
    "city": "石狩郡当別町",
    "town": "緑町"
  },
  "0610231": {
    "zipcode": "0610231",
    "prefectureCode": "01",
    "prefectureNumber": 1,
    "prefecture": "北海道",
    "city": "石狩郡当別町",
    "town": "六軒町"
  },
  "0610232": {
    "zipcode": "0610232",
    "prefectureCode": "01",
    "prefectureNumber": 1,
    "prefecture": "北海道",
    "city": "石狩郡当別町",
    "town": "春日町"
  },
  "0610233": {
    "zipcode": "0610233",
    "prefectureCode": "01",
    "prefectureNumber": 1,
    "prefecture": "北海道",
    "city": "石狩郡当別町",
    "town": "白樺町"
  },
  "0610234": {
    "zipcode": "0610234",
    "prefectureCode": "01",
    "prefectureNumber": 1,
    "prefecture": "北海道",
    "city": "石狩郡当別町",
    "town": "西町"
  },
  "0610235": {
    "zipcode": "0610235",
    "prefectureCode": "01",
    "prefectureNumber": 1,
    "prefecture": "北海道",
    "city": "石狩郡当別町",
    "town": "北栄町"
  },
  "0610251": {
    "zipcode": "0610251",
    "prefectureCode": "01",
    "prefectureNumber": 1,
    "prefecture": "北海道",
    "city": "石狩郡当別町",
    "town": "青山奥四番川"
  },
  "0610252": {
    "zipcode": "0610252",
    "prefectureCode": "01",
    "prefectureNumber": 1,
    "prefecture": "北海道",
    "city": "石狩郡当別町",
    "town": "青山奥三番川"
  },
  "0610253": {
    "zipcode": "0610253",
    "prefectureCode": "01",
    "prefectureNumber": 1,
    "prefecture": "北海道",
    "city": "石狩郡当別町",
    "town": "青山奥二番川"
  },
  "0610254": {
    "zipcode": "0610254",
    "prefectureCode": "01",
    "prefectureNumber": 1,
    "prefecture": "北海道",
    "city": "石狩郡当別町",
    "town": "青山中央（青山奥）"
  },
  "0610500": {
    "zipcode": "0610500",
    "prefectureCode": "01",
    "prefectureNumber": 1,
    "prefecture": "北海道",
    "city": "樺戸郡月形町",
    "town": "以下に掲載がない場合"
  },
  "0610501": {
    "zipcode": "0610501",
    "prefectureCode": "01",
    "prefectureNumber": 1,
    "prefecture": "北海道",
    "city": "樺戸郡月形町",
    "town": "新生"
  },
  "0610502": {
    "zipcode": "0610502",
    "prefectureCode": "01",
    "prefectureNumber": 1,
    "prefecture": "北海道",
    "city": "樺戸郡月形町",
    "town": "北農場"
  },
  "0610503": {
    "zipcode": "0610503",
    "prefectureCode": "01",
    "prefectureNumber": 1,
    "prefecture": "北海道",
    "city": "樺戸郡月形町",
    "town": "豊ケ丘"
  },
  "0610504": {
    "zipcode": "0610504",
    "prefectureCode": "01",
    "prefectureNumber": 1,
    "prefecture": "北海道",
    "city": "樺戸郡月形町",
    "town": "新富"
  },
  "0610505": {
    "zipcode": "0610505",
    "prefectureCode": "01",
    "prefectureNumber": 1,
    "prefecture": "北海道",
    "city": "樺戸郡月形町",
    "town": "札比内"
  },
  "0610506": {
    "zipcode": "0610506",
    "prefectureCode": "01",
    "prefectureNumber": 1,
    "prefecture": "北海道",
    "city": "樺戸郡月形町",
    "town": "新宮"
  },
  "0610507": {
    "zipcode": "0610507",
    "prefectureCode": "01",
    "prefectureNumber": 1,
    "prefecture": "北海道",
    "city": "樺戸郡月形町",
    "town": "南札比内"
  },
  "0610508": {
    "zipcode": "0610508",
    "prefectureCode": "01",
    "prefectureNumber": 1,
    "prefecture": "北海道",
    "city": "樺戸郡月形町",
    "town": "厚栄"
  },
  "0610511": {
    "zipcode": "0610511",
    "prefectureCode": "01",
    "prefectureNumber": 1,
    "prefecture": "北海道",
    "city": "樺戸郡月形町",
    "town": "市北"
  },
  "0610512": {
    "zipcode": "0610512",
    "prefectureCode": "01",
    "prefectureNumber": 1,
    "prefecture": "北海道",
    "city": "樺戸郡月形町",
    "town": "市南"
  },
  "0610513": {
    "zipcode": "0610513",
    "prefectureCode": "01",
    "prefectureNumber": 1,
    "prefecture": "北海道",
    "city": "樺戸郡月形町",
    "town": "農事会"
  },
  "0610514": {
    "zipcode": "0610514",
    "prefectureCode": "01",
    "prefectureNumber": 1,
    "prefecture": "北海道",
    "city": "樺戸郡月形町",
    "town": "麻生"
  },
  "0610515": {
    "zipcode": "0610515",
    "prefectureCode": "01",
    "prefectureNumber": 1,
    "prefecture": "北海道",
    "city": "樺戸郡月形町",
    "town": "五耕地山"
  },
  "0610516": {
    "zipcode": "0610516",
    "prefectureCode": "01",
    "prefectureNumber": 1,
    "prefecture": "北海道",
    "city": "樺戸郡月形町",
    "town": "知来乙"
  },
  "0610517": {
    "zipcode": "0610517",
    "prefectureCode": "01",
    "prefectureNumber": 1,
    "prefecture": "北海道",
    "city": "樺戸郡月形町",
    "town": "北郷"
  },
  "0610518": {
    "zipcode": "0610518",
    "prefectureCode": "01",
    "prefectureNumber": 1,
    "prefecture": "北海道",
    "city": "樺戸郡月形町",
    "town": "赤川"
  },
  "0610521": {
    "zipcode": "0610521",
    "prefectureCode": "01",
    "prefectureNumber": 1,
    "prefecture": "北海道",
    "city": "樺戸郡月形町",
    "town": "南耕地"
  },
  "0610522": {
    "zipcode": "0610522",
    "prefectureCode": "01",
    "prefectureNumber": 1,
    "prefecture": "北海道",
    "city": "樺戸郡月形町",
    "town": "月浜"
  },
  "0610523": {
    "zipcode": "0610523",
    "prefectureCode": "01",
    "prefectureNumber": 1,
    "prefecture": "北海道",
    "city": "樺戸郡月形町",
    "town": "昭栄"
  },
  "0610524": {
    "zipcode": "0610524",
    "prefectureCode": "01",
    "prefectureNumber": 1,
    "prefecture": "北海道",
    "city": "樺戸郡月形町",
    "town": "南新田"
  },
  "0610525": {
    "zipcode": "0610525",
    "prefectureCode": "01",
    "prefectureNumber": 1,
    "prefecture": "北海道",
    "city": "樺戸郡月形町",
    "town": "新栄"
  },
  "0610526": {
    "zipcode": "0610526",
    "prefectureCode": "01",
    "prefectureNumber": 1,
    "prefecture": "北海道",
    "city": "樺戸郡月形町",
    "town": "新田"
  },
  "0610527": {
    "zipcode": "0610527",
    "prefectureCode": "01",
    "prefectureNumber": 1,
    "prefecture": "北海道",
    "city": "樺戸郡月形町",
    "town": "共和"
  },
  "0610528": {
    "zipcode": "0610528",
    "prefectureCode": "01",
    "prefectureNumber": 1,
    "prefecture": "北海道",
    "city": "樺戸郡月形町",
    "town": "月ケ岡"
  },
  "0610529": {
    "zipcode": "0610529",
    "prefectureCode": "01",
    "prefectureNumber": 1,
    "prefecture": "北海道",
    "city": "樺戸郡月形町",
    "town": "月ヶ杜"
  },
  "0610600": {
    "zipcode": "0610600",
    "prefectureCode": "01",
    "prefectureNumber": 1,
    "prefecture": "北海道",
    "city": "樺戸郡浦臼町",
    "town": "以下に掲載がない場合"
  },
  "0610601": {
    "zipcode": "0610601",
    "prefectureCode": "01",
    "prefectureNumber": 1,
    "prefecture": "北海道",
    "city": "樺戸郡浦臼町",
    "town": "鶴沼第１"
  },
  "0610602": {
    "zipcode": "0610602",
    "prefectureCode": "01",
    "prefectureNumber": 1,
    "prefecture": "北海道",
    "city": "樺戸郡浦臼町",
    "town": "鶴沼第２"
  },
  "0610603": {
    "zipcode": "0610603",
    "prefectureCode": "01",
    "prefectureNumber": 1,
    "prefecture": "北海道",
    "city": "樺戸郡浦臼町",
    "town": "鶴沼第３"
  },
  "0610611": {
    "zipcode": "0610611",
    "prefectureCode": "01",
    "prefectureNumber": 1,
    "prefecture": "北海道",
    "city": "樺戸郡浦臼町",
    "town": "浦臼第１"
  },
  "0610612": {
    "zipcode": "0610612",
    "prefectureCode": "01",
    "prefectureNumber": 1,
    "prefecture": "北海道",
    "city": "樺戸郡浦臼町",
    "town": "浦臼第２"
  },
  "0610613": {
    "zipcode": "0610613",
    "prefectureCode": "01",
    "prefectureNumber": 1,
    "prefecture": "北海道",
    "city": "樺戸郡浦臼町",
    "town": "浦臼第３"
  },
  "0610614": {
    "zipcode": "0610614",
    "prefectureCode": "01",
    "prefectureNumber": 1,
    "prefecture": "北海道",
    "city": "樺戸郡浦臼町",
    "town": "浦臼第４"
  },
  "0610615": {
    "zipcode": "0610615",
    "prefectureCode": "01",
    "prefectureNumber": 1,
    "prefecture": "北海道",
    "city": "樺戸郡浦臼町",
    "town": "浦臼第５"
  },
  "0610616": {
    "zipcode": "0610616",
    "prefectureCode": "01",
    "prefectureNumber": 1,
    "prefecture": "北海道",
    "city": "樺戸郡浦臼町",
    "town": "浦臼第６"
  },
  "0610617": {
    "zipcode": "0610617",
    "prefectureCode": "01",
    "prefectureNumber": 1,
    "prefecture": "北海道",
    "city": "樺戸郡浦臼町",
    "town": "浦臼第７"
  },
  "0610618": {
    "zipcode": "0610618",
    "prefectureCode": "01",
    "prefectureNumber": 1,
    "prefecture": "北海道",
    "city": "樺戸郡浦臼町",
    "town": "浦臼第８"
  },
  "0610621": {
    "zipcode": "0610621",
    "prefectureCode": "01",
    "prefectureNumber": 1,
    "prefecture": "北海道",
    "city": "樺戸郡浦臼町",
    "town": "晩生内第１"
  },
  "0610622": {
    "zipcode": "0610622",
    "prefectureCode": "01",
    "prefectureNumber": 1,
    "prefecture": "北海道",
    "city": "樺戸郡浦臼町",
    "town": "晩生内第２"
  },
  "0610623": {
    "zipcode": "0610623",
    "prefectureCode": "01",
    "prefectureNumber": 1,
    "prefecture": "北海道",
    "city": "樺戸郡浦臼町",
    "town": "晩生内第３"
  },
  "0611100": {
    "zipcode": "0611100",
    "prefectureCode": "01",
    "prefectureNumber": 1,
    "prefecture": "北海道",
    "city": "北広島市",
    "town": "以下に掲載がない場合"
  },
  "0611101": {
    "zipcode": "0611101",
    "prefectureCode": "01",
    "prefectureNumber": 1,
    "prefecture": "北海道",
    "city": "北広島市",
    "town": "中の沢（その他）"
  },
  "0611102": {
    "zipcode": "0611102",
    "prefectureCode": "01",
    "prefectureNumber": 1,
    "prefecture": "北海道",
    "city": "北広島市",
    "town": "西の里"
  },
  "0611103": {
    "zipcode": "0611103",
    "prefectureCode": "01",
    "prefectureNumber": 1,
    "prefecture": "北海道",
    "city": "北広島市",
    "town": "虹ケ丘"
  },
  "0611104": {
    "zipcode": "0611104",
    "prefectureCode": "01",
    "prefectureNumber": 1,
    "prefecture": "北海道",
    "city": "北広島市",
    "town": "西の里北"
  },
  "0611105": {
    "zipcode": "0611105",
    "prefectureCode": "01",
    "prefectureNumber": 1,
    "prefecture": "北海道",
    "city": "北広島市",
    "town": "西の里東"
  },
  "0611106": {
    "zipcode": "0611106",
    "prefectureCode": "01",
    "prefectureNumber": 1,
    "prefecture": "北海道",
    "city": "北広島市",
    "town": "西の里南"
  },
  "0611111": {
    "zipcode": "0611111",
    "prefectureCode": "01",
    "prefectureNumber": 1,
    "prefecture": "北海道",
    "city": "北広島市",
    "town": "北の里"
  },
  "0611112": {
    "zipcode": "0611112",
    "prefectureCode": "01",
    "prefectureNumber": 1,
    "prefecture": "北海道",
    "city": "北広島市",
    "town": "共栄"
  },
  "0611113": {
    "zipcode": "0611113",
    "prefectureCode": "01",
    "prefectureNumber": 1,
    "prefecture": "北海道",
    "city": "北広島市",
    "town": "共栄町"
  },
  "0611114": {
    "zipcode": "0611114",
    "prefectureCode": "01",
    "prefectureNumber": 1,
    "prefecture": "北海道",
    "city": "北広島市",
    "town": "東共栄"
  },
  "0611115": {
    "zipcode": "0611115",
    "prefectureCode": "01",
    "prefectureNumber": 1,
    "prefecture": "北海道",
    "city": "北広島市",
    "town": "美咲き野"
  },
  "0611116": {
    "zipcode": "0611116",
    "prefectureCode": "01",
    "prefectureNumber": 1,
    "prefecture": "北海道",
    "city": "北広島市",
    "town": "Ｆビレッジ"
  },
  "0611121": {
    "zipcode": "0611121",
    "prefectureCode": "01",
    "prefectureNumber": 1,
    "prefecture": "北海道",
    "city": "北広島市",
    "town": "中央"
  },
  "0611122": {
    "zipcode": "0611122",
    "prefectureCode": "01",
    "prefectureNumber": 1,
    "prefecture": "北海道",
    "city": "北広島市",
    "town": "広島"
  },
  "0611123": {
    "zipcode": "0611123",
    "prefectureCode": "01",
    "prefectureNumber": 1,
    "prefecture": "北海道",
    "city": "北広島市",
    "town": "朝日町"
  },
  "0611124": {
    "zipcode": "0611124",
    "prefectureCode": "01",
    "prefectureNumber": 1,
    "prefecture": "北海道",
    "city": "北広島市",
    "town": "稲穂町西"
  },
  "0611125": {
    "zipcode": "0611125",
    "prefectureCode": "01",
    "prefectureNumber": 1,
    "prefecture": "北海道",
    "city": "北広島市",
    "town": "稲穂町東"
  },
  "0611126": {
    "zipcode": "0611126",
    "prefectureCode": "01",
    "prefectureNumber": 1,
    "prefecture": "北海道",
    "city": "北広島市",
    "town": "新富町東"
  },
  "0611127": {
    "zipcode": "0611127",
    "prefectureCode": "01",
    "prefectureNumber": 1,
    "prefecture": "北海道",
    "city": "北広島市",
    "town": "新富町西"
  },
  "0611131": {
    "zipcode": "0611131",
    "prefectureCode": "01",
    "prefectureNumber": 1,
    "prefecture": "北海道",
    "city": "北広島市",
    "town": "美沢"
  },
  "0611132": {
    "zipcode": "0611132",
    "prefectureCode": "01",
    "prefectureNumber": 1,
    "prefecture": "北海道",
    "city": "北広島市",
    "town": "北進町"
  },
  "0611133": {
    "zipcode": "0611133",
    "prefectureCode": "01",
    "prefectureNumber": 1,
    "prefecture": "北海道",
    "city": "北広島市",
    "town": "栄町"
  },
  "0611134": {
    "zipcode": "0611134",
    "prefectureCode": "01",
    "prefectureNumber": 1,
    "prefecture": "北海道",
    "city": "北広島市",
    "town": "広葉町"
  },
  "0611135": {
    "zipcode": "0611135",
    "prefectureCode": "01",
    "prefectureNumber": 1,
    "prefecture": "北海道",
    "city": "北広島市",
    "town": "輝美町"
  },
  "0611136": {
    "zipcode": "0611136",
    "prefectureCode": "01",
    "prefectureNumber": 1,
    "prefecture": "北海道",
    "city": "北広島市",
    "town": "松葉町"
  },
  "0611137": {
    "zipcode": "0611137",
    "prefectureCode": "01",
    "prefectureNumber": 1,
    "prefecture": "北海道",
    "city": "北広島市",
    "town": "緑陽町"
  },
  "0611141": {
    "zipcode": "0611141",
    "prefectureCode": "01",
    "prefectureNumber": 1,
    "prefecture": "北海道",
    "city": "北広島市",
    "town": "青葉町"
  },
  "0611142": {
    "zipcode": "0611142",
    "prefectureCode": "01",
    "prefectureNumber": 1,
    "prefecture": "北海道",
    "city": "北広島市",
    "town": "若葉町"
  },
  "0611143": {
    "zipcode": "0611143",
    "prefectureCode": "01",
    "prefectureNumber": 1,
    "prefecture": "北海道",
    "city": "北広島市",
    "town": "南町"
  },
  "0611144": {
    "zipcode": "0611144",
    "prefectureCode": "01",
    "prefectureNumber": 1,
    "prefecture": "北海道",
    "city": "北広島市",
    "town": "白樺町"
  },
  "0611145": {
    "zipcode": "0611145",
    "prefectureCode": "01",
    "prefectureNumber": 1,
    "prefecture": "北海道",
    "city": "北広島市",
    "town": "泉町"
  },
  "0611146": {
    "zipcode": "0611146",
    "prefectureCode": "01",
    "prefectureNumber": 1,
    "prefecture": "北海道",
    "city": "北広島市",
    "town": "高台町"
  },
  "0611147": {
    "zipcode": "0611147",
    "prefectureCode": "01",
    "prefectureNumber": 1,
    "prefecture": "北海道",
    "city": "北広島市",
    "town": "里見町"
  },
  "0611148": {
    "zipcode": "0611148",
    "prefectureCode": "01",
    "prefectureNumber": 1,
    "prefecture": "北海道",
    "city": "北広島市",
    "town": "山手町"
  },
  "0611151": {
    "zipcode": "0611151",
    "prefectureCode": "01",
    "prefectureNumber": 1,
    "prefecture": "北海道",
    "city": "北広島市",
    "town": "東の里"
  },
  "0611152": {
    "zipcode": "0611152",
    "prefectureCode": "01",
    "prefectureNumber": 1,
    "prefecture": "北海道",
    "city": "北広島市",
    "town": "中の沢（５５７〜７３６番地）"
  },
  "0611153": {
    "zipcode": "0611153",
    "prefectureCode": "01",
    "prefectureNumber": 1,
    "prefecture": "北海道",
    "city": "北広島市",
    "town": "富ケ岡"
  },
  "0611154": {
    "zipcode": "0611154",
    "prefectureCode": "01",
    "prefectureNumber": 1,
    "prefecture": "北海道",
    "city": "北広島市",
    "town": "南の里"
  },
  "0611261": {
    "zipcode": "0611261",
    "prefectureCode": "01",
    "prefectureNumber": 1,
    "prefecture": "北海道",
    "city": "北広島市",
    "town": "希望ケ丘"
  },
  "0611264": {
    "zipcode": "0611264",
    "prefectureCode": "01",
    "prefectureNumber": 1,
    "prefecture": "北海道",
    "city": "北広島市",
    "town": "輪厚"
  },
  "0611265": {
    "zipcode": "0611265",
    "prefectureCode": "01",
    "prefectureNumber": 1,
    "prefecture": "北海道",
    "city": "北広島市",
    "town": "島松"
  },
  "0611266": {
    "zipcode": "0611266",
    "prefectureCode": "01",
    "prefectureNumber": 1,
    "prefecture": "北海道",
    "city": "北広島市",
    "town": "三島"
  },
  "0611267": {
    "zipcode": "0611267",
    "prefectureCode": "01",
    "prefectureNumber": 1,
    "prefecture": "北海道",
    "city": "北広島市",
    "town": "仁別"
  },
  "0611268": {
    "zipcode": "0611268",
    "prefectureCode": "01",
    "prefectureNumber": 1,
    "prefecture": "北海道",
    "city": "北広島市",
    "town": "輪厚中央"
  },
  "0611269": {
    "zipcode": "0611269",
    "prefectureCode": "01",
    "prefectureNumber": 1,
    "prefecture": "北海道",
    "city": "北広島市",
    "town": "輪厚元町"
  },
  "0611270": {
    "zipcode": "0611270",
    "prefectureCode": "01",
    "prefectureNumber": 1,
    "prefecture": "北海道",
    "city": "北広島市",
    "town": "大曲"
  },
  "0611271": {
    "zipcode": "0611271",
    "prefectureCode": "01",
    "prefectureNumber": 1,
    "prefecture": "北海道",
    "city": "北広島市",
    "town": "大曲中央"
  },
  "0611272": {
    "zipcode": "0611272",
    "prefectureCode": "01",
    "prefectureNumber": 1,
    "prefecture": "北海道",
    "city": "北広島市",
    "town": "大曲末広"
  },
  "0611273": {
    "zipcode": "0611273",
    "prefectureCode": "01",
    "prefectureNumber": 1,
    "prefecture": "北海道",
    "city": "北広島市",
    "town": "大曲柏葉"
  },
  "0611274": {
    "zipcode": "0611274",
    "prefectureCode": "01",
    "prefectureNumber": 1,
    "prefecture": "北海道",
    "city": "北広島市",
    "town": "大曲工業団地"
  },
  "0611275": {
    "zipcode": "0611275",
    "prefectureCode": "01",
    "prefectureNumber": 1,
    "prefecture": "北海道",
    "city": "北広島市",
    "town": "大曲南ケ丘"
  },
  "0611276": {
    "zipcode": "0611276",
    "prefectureCode": "01",
    "prefectureNumber": 1,
    "prefecture": "北海道",
    "city": "北広島市",
    "town": "大曲緑ケ丘"
  },
  "0611277": {
    "zipcode": "0611277",
    "prefectureCode": "01",
    "prefectureNumber": 1,
    "prefecture": "北海道",
    "city": "北広島市",
    "town": "大曲光"
  },
  "0611278": {
    "zipcode": "0611278",
    "prefectureCode": "01",
    "prefectureNumber": 1,
    "prefecture": "北海道",
    "city": "北広島市",
    "town": "大曲幸町"
  },
  "0611279": {
    "zipcode": "0611279",
    "prefectureCode": "01",
    "prefectureNumber": 1,
    "prefecture": "北海道",
    "city": "北広島市",
    "town": "大曲並木"
  },
  "0611281": {
    "zipcode": "0611281",
    "prefectureCode": "01",
    "prefectureNumber": 1,
    "prefecture": "北海道",
    "city": "北広島市",
    "town": "輪厚工業団地"
  },
  "0611351": {
    "zipcode": "0611351",
    "prefectureCode": "01",
    "prefectureNumber": 1,
    "prefecture": "北海道",
    "city": "恵庭市",
    "town": "島松東町"
  },
  "0611352": {
    "zipcode": "0611352",
    "prefectureCode": "01",
    "prefectureNumber": 1,
    "prefecture": "北海道",
    "city": "恵庭市",
    "town": "島松仲町"
  },
  "0611353": {
    "zipcode": "0611353",
    "prefectureCode": "01",
    "prefectureNumber": 1,
    "prefecture": "北海道",
    "city": "恵庭市",
    "town": "島松本町"
  },
  "0611354": {
    "zipcode": "0611354",
    "prefectureCode": "01",
    "prefectureNumber": 1,
    "prefecture": "北海道",
    "city": "恵庭市",
    "town": "島松旭町"
  },
  "0611355": {
    "zipcode": "0611355",
    "prefectureCode": "01",
    "prefectureNumber": 1,
    "prefecture": "北海道",
    "city": "恵庭市",
    "town": "島松寿町"
  },
  "0611356": {
    "zipcode": "0611356",
    "prefectureCode": "01",
    "prefectureNumber": 1,
    "prefecture": "北海道",
    "city": "恵庭市",
    "town": "西島松"
  },
  "0611361": {
    "zipcode": "0611361",
    "prefectureCode": "01",
    "prefectureNumber": 1,
    "prefecture": "北海道",
    "city": "恵庭市",
    "town": "林田"
  },
  "0611362": {
    "zipcode": "0611362",
    "prefectureCode": "01",
    "prefectureNumber": 1,
    "prefecture": "北海道",
    "city": "恵庭市",
    "town": "中島松"
  },
  "0611363": {
    "zipcode": "0611363",
    "prefectureCode": "01",
    "prefectureNumber": 1,
    "prefecture": "北海道",
    "city": "恵庭市",
    "town": "島松沢"
  },
  "0611364": {
    "zipcode": "0611364",
    "prefectureCode": "01",
    "prefectureNumber": 1,
    "prefecture": "北海道",
    "city": "恵庭市",
    "town": "下島松"
  },
  "0611365": {
    "zipcode": "0611365",
    "prefectureCode": "01",
    "prefectureNumber": 1,
    "prefecture": "北海道",
    "city": "恵庭市",
    "town": "穂栄"
  },
  "0611366": {
    "zipcode": "0611366",
    "prefectureCode": "01",
    "prefectureNumber": 1,
    "prefecture": "北海道",
    "city": "恵庭市",
    "town": "北島"
  },
  "0611371": {
    "zipcode": "0611371",
    "prefectureCode": "01",
    "prefectureNumber": 1,
    "prefecture": "北海道",
    "city": "恵庭市",
    "town": "恵み野東"
  },
  "0611372": {
    "zipcode": "0611372",
    "prefectureCode": "01",
    "prefectureNumber": 1,
    "prefecture": "北海道",
    "city": "恵庭市",
    "town": "恵み野南"
  },
  "0611373": {
    "zipcode": "0611373",
    "prefectureCode": "01",
    "prefectureNumber": 1,
    "prefecture": "北海道",
    "city": "恵庭市",
    "town": "恵み野西"
  },
  "0611374": {
    "zipcode": "0611374",
    "prefectureCode": "01",
    "prefectureNumber": 1,
    "prefecture": "北海道",
    "city": "恵庭市",
    "town": "恵み野北"
  },
  "0611375": {
    "zipcode": "0611375",
    "prefectureCode": "01",
    "prefectureNumber": 1,
    "prefecture": "北海道",
    "city": "恵庭市",
    "town": "南島松"
  },
  "0611376": {
    "zipcode": "0611376",
    "prefectureCode": "01",
    "prefectureNumber": 1,
    "prefecture": "北海道",
    "city": "恵庭市",
    "town": "恵み野里美"
  },
  "0611400": {
    "zipcode": "0611400",
    "prefectureCode": "01",
    "prefectureNumber": 1,
    "prefecture": "北海道",
    "city": "恵庭市",
    "town": "以下に掲載がない場合"
  },
  "0611401": {
    "zipcode": "0611401",
    "prefectureCode": "01",
    "prefectureNumber": 1,
    "prefecture": "北海道",
    "city": "恵庭市",
    "town": "漁太"
  },
  "0611402": {
    "zipcode": "0611402",
    "prefectureCode": "01",
    "prefectureNumber": 1,
    "prefecture": "北海道",
    "city": "恵庭市",
    "town": "春日"
  },
  "0611403": {
    "zipcode": "0611403",
    "prefectureCode": "01",
    "prefectureNumber": 1,
    "prefecture": "北海道",
    "city": "恵庭市",
    "town": "中央"
  },
  "0611404": {
    "zipcode": "0611404",
    "prefectureCode": "01",
    "prefectureNumber": 1,
    "prefecture": "北海道",
    "city": "恵庭市",
    "town": "上山口"
  },
  "0611405": {
    "zipcode": "0611405",
    "prefectureCode": "01",
    "prefectureNumber": 1,
    "prefecture": "北海道",
    "city": "恵庭市",
    "town": "戸磯"
  },
  "0611406": {
    "zipcode": "0611406",
    "prefectureCode": "01",
    "prefectureNumber": 1,
    "prefecture": "北海道",
    "city": "恵庭市",
    "town": "和光町"
  },
  "0611407": {
    "zipcode": "0611407",
    "prefectureCode": "01",
    "prefectureNumber": 1,
    "prefecture": "北海道",
    "city": "恵庭市",
    "town": "黄金北"
  },
  "0611409": {
    "zipcode": "0611409",
    "prefectureCode": "01",
    "prefectureNumber": 1,
    "prefecture": "北海道",
    "city": "恵庭市",
    "town": "黄金南"
  },
  "0611411": {
    "zipcode": "0611411",
    "prefectureCode": "01",
    "prefectureNumber": 1,
    "prefecture": "北海道",
    "city": "恵庭市",
    "town": "恵南"
  },
  "0611412": {
    "zipcode": "0611412",
    "prefectureCode": "01",
    "prefectureNumber": 1,
    "prefecture": "北海道",
    "city": "恵庭市",
    "town": "白樺町"
  },
  "0611413": {
    "zipcode": "0611413",
    "prefectureCode": "01",
    "prefectureNumber": 1,
    "prefecture": "北海道",
    "city": "恵庭市",
    "town": "本町"
  },
  "0611414": {
    "zipcode": "0611414",
    "prefectureCode": "01",
    "prefectureNumber": 1,
    "prefecture": "北海道",
    "city": "恵庭市",
    "town": "漁町"
  },
  "0611415": {
    "zipcode": "0611415",
    "prefectureCode": "01",
    "prefectureNumber": 1,
    "prefecture": "北海道",
    "city": "恵庭市",
    "town": "泉町"
  },
  "0611416": {
    "zipcode": "0611416",
    "prefectureCode": "01",
    "prefectureNumber": 1,
    "prefecture": "北海道",
    "city": "恵庭市",
    "town": "桜町"
  },
  "0611417": {
    "zipcode": "0611417",
    "prefectureCode": "01",
    "prefectureNumber": 1,
    "prefecture": "北海道",
    "city": "恵庭市",
    "town": "駒場町"
  },
  "0611421": {
    "zipcode": "0611421",
    "prefectureCode": "01",
    "prefectureNumber": 1,
    "prefecture": "北海道",
    "city": "恵庭市",
    "town": "牧場"
  },
  "0611422": {
    "zipcode": "0611422",
    "prefectureCode": "01",
    "prefectureNumber": 1,
    "prefecture": "北海道",
    "city": "恵庭市",
    "town": "盤尻"
  },
  "0611423": {
    "zipcode": "0611423",
    "prefectureCode": "01",
    "prefectureNumber": 1,
    "prefecture": "北海道",
    "city": "恵庭市",
    "town": "柏木町"
  },
  "0611424": {
    "zipcode": "0611424",
    "prefectureCode": "01",
    "prefectureNumber": 1,
    "prefecture": "北海道",
    "city": "恵庭市",
    "town": "大町"
  },
  "0611425": {
    "zipcode": "0611425",
    "prefectureCode": "01",
    "prefectureNumber": 1,
    "prefecture": "北海道",
    "city": "恵庭市",
    "town": "文京町"
  },
  "0611426": {
    "zipcode": "0611426",
    "prefectureCode": "01",
    "prefectureNumber": 1,
    "prefecture": "北海道",
    "city": "恵庭市",
    "town": "幸町"
  },
  "0611427": {
    "zipcode": "0611427",
    "prefectureCode": "01",
    "prefectureNumber": 1,
    "prefecture": "北海道",
    "city": "恵庭市",
    "town": "美咲野"
  },
  "0611431": {
    "zipcode": "0611431",
    "prefectureCode": "01",
    "prefectureNumber": 1,
    "prefecture": "北海道",
    "city": "恵庭市",
    "town": "有明町"
  },
  "0611432": {
    "zipcode": "0611432",
    "prefectureCode": "01",
    "prefectureNumber": 1,
    "prefecture": "北海道",
    "city": "恵庭市",
    "town": "恵央町"
  },
  "0611433": {
    "zipcode": "0611433",
    "prefectureCode": "01",
    "prefectureNumber": 1,
    "prefecture": "北海道",
    "city": "恵庭市",
    "town": "北柏木町"
  },
  "0611434": {
    "zipcode": "0611434",
    "prefectureCode": "01",
    "prefectureNumber": 1,
    "prefecture": "北海道",
    "city": "恵庭市",
    "town": "柏陽町"
  },
  "0611435": {
    "zipcode": "0611435",
    "prefectureCode": "01",
    "prefectureNumber": 1,
    "prefecture": "北海道",
    "city": "恵庭市",
    "town": "中島町"
  },
  "0611441": {
    "zipcode": "0611441",
    "prefectureCode": "01",
    "prefectureNumber": 1,
    "prefecture": "北海道",
    "city": "恵庭市",
    "town": "住吉町"
  },
  "0611442": {
    "zipcode": "0611442",
    "prefectureCode": "01",
    "prefectureNumber": 1,
    "prefecture": "北海道",
    "city": "恵庭市",
    "town": "緑町"
  },
  "0611443": {
    "zipcode": "0611443",
    "prefectureCode": "01",
    "prefectureNumber": 1,
    "prefecture": "北海道",
    "city": "恵庭市",
    "town": "栄恵町"
  },
  "0611444": {
    "zipcode": "0611444",
    "prefectureCode": "01",
    "prefectureNumber": 1,
    "prefecture": "北海道",
    "city": "恵庭市",
    "town": "京町"
  },
  "0611445": {
    "zipcode": "0611445",
    "prefectureCode": "01",
    "prefectureNumber": 1,
    "prefecture": "北海道",
    "city": "恵庭市",
    "town": "新町"
  },
  "0611446": {
    "zipcode": "0611446",
    "prefectureCode": "01",
    "prefectureNumber": 1,
    "prefecture": "北海道",
    "city": "恵庭市",
    "town": "末広町"
  },
  "0611447": {
    "zipcode": "0611447",
    "prefectureCode": "01",
    "prefectureNumber": 1,
    "prefecture": "北海道",
    "city": "恵庭市",
    "town": "福住町"
  },
  "0611448": {
    "zipcode": "0611448",
    "prefectureCode": "01",
    "prefectureNumber": 1,
    "prefecture": "北海道",
    "city": "恵庭市",
    "town": "相生町"
  },
  "0611449": {
    "zipcode": "0611449",
    "prefectureCode": "01",
    "prefectureNumber": 1,
    "prefecture": "北海道",
    "city": "恵庭市",
    "town": "黄金中央"
  },
  "0612261": {
    "zipcode": "0612261",
    "prefectureCode": "01",
    "prefectureNumber": 1,
    "prefecture": "北海道",
    "city": "札幌市南区",
    "town": "簾舞一条"
  },
  "0612262": {
    "zipcode": "0612262",
    "prefectureCode": "01",
    "prefectureNumber": 1,
    "prefecture": "北海道",
    "city": "札幌市南区",
    "town": "簾舞二条"
  },
  "0612263": {
    "zipcode": "0612263",
    "prefectureCode": "01",
    "prefectureNumber": 1,
    "prefecture": "北海道",
    "city": "札幌市南区",
    "town": "簾舞三条"
  },
  "0612264": {
    "zipcode": "0612264",
    "prefectureCode": "01",
    "prefectureNumber": 1,
    "prefecture": "北海道",
    "city": "札幌市南区",
    "town": "簾舞四条"
  },
  "0612265": {
    "zipcode": "0612265",
    "prefectureCode": "01",
    "prefectureNumber": 1,
    "prefecture": "北海道",
    "city": "札幌市南区",
    "town": "簾舞五条"
  },
  "0612266": {
    "zipcode": "0612266",
    "prefectureCode": "01",
    "prefectureNumber": 1,
    "prefecture": "北海道",
    "city": "札幌市南区",
    "town": "簾舞六条"
  },
  "0612271": {
    "zipcode": "0612271",
    "prefectureCode": "01",
    "prefectureNumber": 1,
    "prefecture": "北海道",
    "city": "札幌市南区",
    "town": "藤野（その他）"
  },
  "0612272": {
    "zipcode": "0612272",
    "prefectureCode": "01",
    "prefectureNumber": 1,
    "prefecture": "北海道",
    "city": "札幌市南区",
    "town": "簾舞（その他）"
  },
  "0612273": {
    "zipcode": "0612273",
    "prefectureCode": "01",
    "prefectureNumber": 1,
    "prefecture": "北海道",
    "city": "札幌市南区",
    "town": "豊滝"
  },
  "0612274": {
    "zipcode": "0612274",
    "prefectureCode": "01",
    "prefectureNumber": 1,
    "prefecture": "北海道",
    "city": "札幌市南区",
    "town": "小金湯"
  },
  "0612275": {
    "zipcode": "0612275",
    "prefectureCode": "01",
    "prefectureNumber": 1,
    "prefecture": "北海道",
    "city": "札幌市南区",
    "town": "砥山"
  },
  "0612276": {
    "zipcode": "0612276",
    "prefectureCode": "01",
    "prefectureNumber": 1,
    "prefecture": "北海道",
    "city": "札幌市南区",
    "town": "白川"
  },
  "0612281": {
    "zipcode": "0612281",
    "prefectureCode": "01",
    "prefectureNumber": 1,
    "prefecture": "北海道",
    "city": "札幌市南区",
    "town": "藤野一条"
  },
  "0612282": {
    "zipcode": "0612282",
    "prefectureCode": "01",
    "prefectureNumber": 1,
    "prefecture": "北海道",
    "city": "札幌市南区",
    "town": "藤野二条"
  },
  "0612283": {
    "zipcode": "0612283",
    "prefectureCode": "01",
    "prefectureNumber": 1,
    "prefecture": "北海道",
    "city": "札幌市南区",
    "town": "藤野三条"
  },
  "0612284": {
    "zipcode": "0612284",
    "prefectureCode": "01",
    "prefectureNumber": 1,
    "prefecture": "北海道",
    "city": "札幌市南区",
    "town": "藤野四条"
  },
  "0612285": {
    "zipcode": "0612285",
    "prefectureCode": "01",
    "prefectureNumber": 1,
    "prefecture": "北海道",
    "city": "札幌市南区",
    "town": "藤野五条"
  },
  "0612286": {
    "zipcode": "0612286",
    "prefectureCode": "01",
    "prefectureNumber": 1,
    "prefecture": "北海道",
    "city": "札幌市南区",
    "town": "藤野六条"
  },
  "0612301": {
    "zipcode": "0612301",
    "prefectureCode": "01",
    "prefectureNumber": 1,
    "prefecture": "北海道",
    "city": "札幌市南区",
    "town": "定山渓"
  },
  "0612302": {
    "zipcode": "0612302",
    "prefectureCode": "01",
    "prefectureNumber": 1,
    "prefecture": "北海道",
    "city": "札幌市南区",
    "town": "定山渓温泉東"
  },
  "0612303": {
    "zipcode": "0612303",
    "prefectureCode": "01",
    "prefectureNumber": 1,
    "prefecture": "北海道",
    "city": "札幌市南区",
    "town": "定山渓温泉西"
  },
  "0613101": {
    "zipcode": "0613101",
    "prefectureCode": "01",
    "prefectureNumber": 1,
    "prefecture": "北海道",
    "city": "石狩市",
    "town": "浜益区浜益"
  },
  "0613102": {
    "zipcode": "0613102",
    "prefectureCode": "01",
    "prefectureNumber": 1,
    "prefecture": "北海道",
    "city": "石狩市",
    "town": "浜益区群別"
  },
  "0613103": {
    "zipcode": "0613103",
    "prefectureCode": "01",
    "prefectureNumber": 1,
    "prefecture": "北海道",
    "city": "石狩市",
    "town": "浜益区幌"
  },
  "0613104": {
    "zipcode": "0613104",
    "prefectureCode": "01",
    "prefectureNumber": 1,
    "prefecture": "北海道",
    "city": "石狩市",
    "town": "浜益区床丹"
  },
  "0613105": {
    "zipcode": "0613105",
    "prefectureCode": "01",
    "prefectureNumber": 1,
    "prefecture": "北海道",
    "city": "石狩市",
    "town": "浜益区千代志別"
  },
  "0613106": {
    "zipcode": "0613106",
    "prefectureCode": "01",
    "prefectureNumber": 1,
    "prefecture": "北海道",
    "city": "石狩市",
    "town": "浜益区川下"
  },
  "0613107": {
    "zipcode": "0613107",
    "prefectureCode": "01",
    "prefectureNumber": 1,
    "prefecture": "北海道",
    "city": "石狩市",
    "town": "浜益区柏木"
  },
  "0613108": {
    "zipcode": "0613108",
    "prefectureCode": "01",
    "prefectureNumber": 1,
    "prefecture": "北海道",
    "city": "石狩市",
    "town": "浜益区実田"
  },
  "0613109": {
    "zipcode": "0613109",
    "prefectureCode": "01",
    "prefectureNumber": 1,
    "prefecture": "北海道",
    "city": "石狩市",
    "town": "浜益区御料地"
  },
  "0613111": {
    "zipcode": "0613111",
    "prefectureCode": "01",
    "prefectureNumber": 1,
    "prefecture": "北海道",
    "city": "石狩市",
    "town": "浜益区毘砂別"
  },
  "0613112": {
    "zipcode": "0613112",
    "prefectureCode": "01",
    "prefectureNumber": 1,
    "prefecture": "北海道",
    "city": "石狩市",
    "town": "浜益区送毛"
  },
  "0613113": {
    "zipcode": "0613113",
    "prefectureCode": "01",
    "prefectureNumber": 1,
    "prefecture": "北海道",
    "city": "石狩市",
    "town": "浜益区濃昼"
  },
  "0613151": {
    "zipcode": "0613151",
    "prefectureCode": "01",
    "prefectureNumber": 1,
    "prefecture": "北海道",
    "city": "石狩市",
    "town": "厚田区濃昼"
  },
  "0613200": {
    "zipcode": "0613200",
    "prefectureCode": "01",
    "prefectureNumber": 1,
    "prefecture": "北海道",
    "city": "石狩市",
    "town": "以下に掲載がない場合"
  },
  "0613201": {
    "zipcode": "0613201",
    "prefectureCode": "01",
    "prefectureNumber": 1,
    "prefecture": "北海道",
    "city": "石狩市",
    "town": "花川南一条"
  },
  "0613202": {
    "zipcode": "0613202",
    "prefectureCode": "01",
    "prefectureNumber": 1,
    "prefecture": "北海道",
    "city": "石狩市",
    "town": "花川南二条"
  },
  "0613203": {
    "zipcode": "0613203",
    "prefectureCode": "01",
    "prefectureNumber": 1,
    "prefecture": "北海道",
    "city": "石狩市",
    "town": "花川南三条"
  },
  "0613204": {
    "zipcode": "0613204",
    "prefectureCode": "01",
    "prefectureNumber": 1,
    "prefecture": "北海道",
    "city": "石狩市",
    "town": "花川南四条"
  },
  "0613205": {
    "zipcode": "0613205",
    "prefectureCode": "01",
    "prefectureNumber": 1,
    "prefecture": "北海道",
    "city": "石狩市",
    "town": "花川南五条"
  },
  "0613206": {
    "zipcode": "0613206",
    "prefectureCode": "01",
    "prefectureNumber": 1,
    "prefecture": "北海道",
    "city": "石狩市",
    "town": "花川南六条"
  },
  "0613207": {
    "zipcode": "0613207",
    "prefectureCode": "01",
    "prefectureNumber": 1,
    "prefecture": "北海道",
    "city": "石狩市",
    "town": "花川南七条"
  },
  "0613208": {
    "zipcode": "0613208",
    "prefectureCode": "01",
    "prefectureNumber": 1,
    "prefecture": "北海道",
    "city": "石狩市",
    "town": "花川南八条"
  },
  "0613209": {
    "zipcode": "0613209",
    "prefectureCode": "01",
    "prefectureNumber": 1,
    "prefecture": "北海道",
    "city": "石狩市",
    "town": "花川南九条"
  },
  "0613210": {
    "zipcode": "0613210",
    "prefectureCode": "01",
    "prefectureNumber": 1,
    "prefecture": "北海道",
    "city": "石狩市",
    "town": "花川南十条"
  },
  "0613211": {
    "zipcode": "0613211",
    "prefectureCode": "01",
    "prefectureNumber": 1,
    "prefecture": "北海道",
    "city": "石狩市",
    "town": "花川北一条"
  },
  "0613212": {
    "zipcode": "0613212",
    "prefectureCode": "01",
    "prefectureNumber": 1,
    "prefecture": "北海道",
    "city": "石狩市",
    "town": "花川北二条"
  },
  "0613213": {
    "zipcode": "0613213",
    "prefectureCode": "01",
    "prefectureNumber": 1,
    "prefecture": "北海道",
    "city": "石狩市",
    "town": "花川北三条"
  },
  "0613214": {
    "zipcode": "0613214",
    "prefectureCode": "01",
    "prefectureNumber": 1,
    "prefecture": "北海道",
    "city": "石狩市",
    "town": "花川北四条"
  },
  "0613215": {
    "zipcode": "0613215",
    "prefectureCode": "01",
    "prefectureNumber": 1,
    "prefecture": "北海道",
    "city": "石狩市",
    "town": "花川北五条"
  },
  "0613216": {
    "zipcode": "0613216",
    "prefectureCode": "01",
    "prefectureNumber": 1,
    "prefecture": "北海道",
    "city": "石狩市",
    "town": "花川北六条"
  },
  "0613217": {
    "zipcode": "0613217",
    "prefectureCode": "01",
    "prefectureNumber": 1,
    "prefecture": "北海道",
    "city": "石狩市",
    "town": "花川北七条"
  },
  "0613218": {
    "zipcode": "0613218",
    "prefectureCode": "01",
    "prefectureNumber": 1,
    "prefecture": "北海道",
    "city": "石狩市",
    "town": "花畔（その他）"
  },
  "0613219": {
    "zipcode": "0613219",
    "prefectureCode": "01",
    "prefectureNumber": 1,
    "prefecture": "北海道",
    "city": "石狩市",
    "town": "花川"
  },
  "0613220": {
    "zipcode": "0613220",
    "prefectureCode": "01",
    "prefectureNumber": 1,
    "prefecture": "北海道",
    "city": "石狩市",
    "town": "志美"
  },
  "0613221": {
    "zipcode": "0613221",
    "prefectureCode": "01",
    "prefectureNumber": 1,
    "prefecture": "北海道",
    "city": "石狩市",
    "town": "緑苑台東一条"
  },
  "0613222": {
    "zipcode": "0613222",
    "prefectureCode": "01",
    "prefectureNumber": 1,
    "prefecture": "北海道",
    "city": "石狩市",
    "town": "緑苑台東二条"
  },
  "0613223": {
    "zipcode": "0613223",
    "prefectureCode": "01",
    "prefectureNumber": 1,
    "prefecture": "北海道",
    "city": "石狩市",
    "town": "緑苑台東三条"
  },
  "0613230": {
    "zipcode": "0613230",
    "prefectureCode": "01",
    "prefectureNumber": 1,
    "prefecture": "北海道",
    "city": "石狩市",
    "town": "緑苑台中央"
  },
  "0613231": {
    "zipcode": "0613231",
    "prefectureCode": "01",
    "prefectureNumber": 1,
    "prefecture": "北海道",
    "city": "石狩市",
    "town": "緑苑台西一条"
  },
  "0613232": {
    "zipcode": "0613232",
    "prefectureCode": "01",
    "prefectureNumber": 1,
    "prefecture": "北海道",
    "city": "石狩市",
    "town": "緑苑台西二条"
  },
  "0613241": {
    "zipcode": "0613241",
    "prefectureCode": "01",
    "prefectureNumber": 1,
    "prefecture": "北海道",
    "city": "石狩市",
    "town": "新港西"
  },
  "0613242": {
    "zipcode": "0613242",
    "prefectureCode": "01",
    "prefectureNumber": 1,
    "prefecture": "北海道",
    "city": "石狩市",
    "town": "新港中央"
  },
  "0613243": {
    "zipcode": "0613243",
    "prefectureCode": "01",
    "prefectureNumber": 1,
    "prefecture": "北海道",
    "city": "石狩市",
    "town": "新港東"
  },
  "0613244": {
    "zipcode": "0613244",
    "prefectureCode": "01",
    "prefectureNumber": 1,
    "prefecture": "北海道",
    "city": "石狩市",
    "town": "新港南"
  },
  "0613245": {
    "zipcode": "0613245",
    "prefectureCode": "01",
    "prefectureNumber": 1,
    "prefecture": "北海道",
    "city": "石狩市",
    "town": "生振"
  },
  "0613248": {
    "zipcode": "0613248",
    "prefectureCode": "01",
    "prefectureNumber": 1,
    "prefecture": "北海道",
    "city": "石狩市",
    "town": "花川東"
  },
  "0613251": {
    "zipcode": "0613251",
    "prefectureCode": "01",
    "prefectureNumber": 1,
    "prefecture": "北海道",
    "city": "石狩市",
    "town": "樽川（その他）"
  },
  "0613253": {
    "zipcode": "0613253",
    "prefectureCode": "01",
    "prefectureNumber": 1,
    "prefecture": "北海道",
    "city": "石狩市",
    "town": "樽川三条"
  },
  "0613254": {
    "zipcode": "0613254",
    "prefectureCode": "01",
    "prefectureNumber": 1,
    "prefecture": "北海道",
    "city": "石狩市",
    "town": "樽川四条"
  },
  "0613255": {
    "zipcode": "0613255",
    "prefectureCode": "01",
    "prefectureNumber": 1,
    "prefecture": "北海道",
    "city": "石狩市",
    "town": "樽川五条"
  },
  "0613256": {
    "zipcode": "0613256",
    "prefectureCode": "01",
    "prefectureNumber": 1,
    "prefecture": "北海道",
    "city": "石狩市",
    "town": "樽川六条"
  },
  "0613257": {
    "zipcode": "0613257",
    "prefectureCode": "01",
    "prefectureNumber": 1,
    "prefecture": "北海道",
    "city": "石狩市",
    "town": "樽川七条"
  },
  "0613258": {
    "zipcode": "0613258",
    "prefectureCode": "01",
    "prefectureNumber": 1,
    "prefecture": "北海道",
    "city": "石狩市",
    "town": "樽川八条"
  },
  "0613259": {
    "zipcode": "0613259",
    "prefectureCode": "01",
    "prefectureNumber": 1,
    "prefecture": "北海道",
    "city": "石狩市",
    "town": "樽川九条"
  },
  "0613261": {
    "zipcode": "0613261",
    "prefectureCode": "01",
    "prefectureNumber": 1,
    "prefecture": "北海道",
    "city": "石狩市",
    "town": "花川東一条"
  },
  "0613262": {
    "zipcode": "0613262",
    "prefectureCode": "01",
    "prefectureNumber": 1,
    "prefecture": "北海道",
    "city": "石狩市",
    "town": "花川東二条"
  },
  "0613271": {
    "zipcode": "0613271",
    "prefectureCode": "01",
    "prefectureNumber": 1,
    "prefecture": "北海道",
    "city": "小樽市",
    "town": "銭函（４〜５丁目）"
  },
  "0613281": {
    "zipcode": "0613281",
    "prefectureCode": "01",
    "prefectureNumber": 1,
    "prefecture": "北海道",
    "city": "石狩市",
    "town": "花畔一条"
  },
  "0613282": {
    "zipcode": "0613282",
    "prefectureCode": "01",
    "prefectureNumber": 1,
    "prefecture": "北海道",
    "city": "石狩市",
    "town": "花畔二条"
  },
  "0613283": {
    "zipcode": "0613283",
    "prefectureCode": "01",
    "prefectureNumber": 1,
    "prefecture": "北海道",
    "city": "石狩市",
    "town": "花畔三条"
  },
  "0613284": {
    "zipcode": "0613284",
    "prefectureCode": "01",
    "prefectureNumber": 1,
    "prefecture": "北海道",
    "city": "石狩市",
    "town": "花畔四条"
  },
  "0613331": {
    "zipcode": "0613331",
    "prefectureCode": "01",
    "prefectureNumber": 1,
    "prefecture": "北海道",
    "city": "石狩市",
    "town": "厚田区聚富（中央、シラツカリ）"
  },
  "0613332": {
    "zipcode": "0613332",
    "prefectureCode": "01",
    "prefectureNumber": 1,
    "prefecture": "北海道",
    "city": "石狩市",
    "town": "厚田区虹が原"
  },
  "0613361": {
    "zipcode": "0613361",
    "prefectureCode": "01",
    "prefectureNumber": 1,
    "prefecture": "北海道",
    "city": "石狩市",
    "town": "八幡（その他）"
  },
  "0613362": {
    "zipcode": "0613362",
    "prefectureCode": "01",
    "prefectureNumber": 1,
    "prefecture": "北海道",
    "city": "石狩市",
    "town": "北生振"
  },
  "0613363": {
    "zipcode": "0613363",
    "prefectureCode": "01",
    "prefectureNumber": 1,
    "prefecture": "北海道",
    "city": "石狩市",
    "town": "若生町"
  },
  "0613365": {
    "zipcode": "0613365",
    "prefectureCode": "01",
    "prefectureNumber": 1,
    "prefecture": "北海道",
    "city": "石狩市",
    "town": "親船東一条"
  },
  "0613366": {
    "zipcode": "0613366",
    "prefectureCode": "01",
    "prefectureNumber": 1,
    "prefecture": "北海道",
    "city": "石狩市",
    "town": "親船東二条"
  },
  "0613367": {
    "zipcode": "0613367",
    "prefectureCode": "01",
    "prefectureNumber": 1,
    "prefecture": "北海道",
    "city": "石狩市",
    "town": "親船東三条"
  },
  "0613368": {
    "zipcode": "0613368",
    "prefectureCode": "01",
    "prefectureNumber": 1,
    "prefecture": "北海道",
    "city": "石狩市",
    "town": "美登位"
  },
  "0613371": {
    "zipcode": "0613371",
    "prefectureCode": "01",
    "prefectureNumber": 1,
    "prefecture": "北海道",
    "city": "石狩市",
    "town": "浜町"
  },
  "0613372": {
    "zipcode": "0613372",
    "prefectureCode": "01",
    "prefectureNumber": 1,
    "prefecture": "北海道",
    "city": "石狩市",
    "town": "弁天町"
  },
  "0613373": {
    "zipcode": "0613373",
    "prefectureCode": "01",
    "prefectureNumber": 1,
    "prefecture": "北海道",
    "city": "石狩市",
    "town": "新町"
  },
  "0613374": {
    "zipcode": "0613374",
    "prefectureCode": "01",
    "prefectureNumber": 1,
    "prefecture": "北海道",
    "city": "石狩市",
    "town": "仲町"
  },
  "0613375": {
    "zipcode": "0613375",
    "prefectureCode": "01",
    "prefectureNumber": 1,
    "prefecture": "北海道",
    "city": "石狩市",
    "town": "本町"
  },
  "0613376": {
    "zipcode": "0613376",
    "prefectureCode": "01",
    "prefectureNumber": 1,
    "prefecture": "北海道",
    "city": "石狩市",
    "town": "横町"
  },
  "0613377": {
    "zipcode": "0613377",
    "prefectureCode": "01",
    "prefectureNumber": 1,
    "prefecture": "北海道",
    "city": "石狩市",
    "town": "親船町"
  },
  "0613378": {
    "zipcode": "0613378",
    "prefectureCode": "01",
    "prefectureNumber": 1,
    "prefecture": "北海道",
    "city": "石狩市",
    "town": "船場町"
  },
  "0613441": {
    "zipcode": "0613441",
    "prefectureCode": "01",
    "prefectureNumber": 1,
    "prefecture": "北海道",
    "city": "石狩市",
    "town": "厚田区聚富（その他）"
  },
  "0613480": {
    "zipcode": "0613480",
    "prefectureCode": "01",
    "prefectureNumber": 1,
    "prefecture": "北海道",
    "city": "石狩市",
    "town": "八幡町（五の沢）"
  },
  "0613481": {
    "zipcode": "0613481",
    "prefectureCode": "01",
    "prefectureNumber": 1,
    "prefecture": "北海道",
    "city": "石狩市",
    "town": "八幡町（高岡）"
  },
  "0613482": {
    "zipcode": "0613482",
    "prefectureCode": "01",
    "prefectureNumber": 1,
    "prefecture": "北海道",
    "city": "石狩市",
    "town": "八幡町（その他）"
  },
  "0613483": {
    "zipcode": "0613483",
    "prefectureCode": "01",
    "prefectureNumber": 1,
    "prefecture": "北海道",
    "city": "石狩市",
    "town": "緑ケ原"
  },
  "0613484": {
    "zipcode": "0613484",
    "prefectureCode": "01",
    "prefectureNumber": 1,
    "prefecture": "北海道",
    "city": "石狩市",
    "town": "八幡（５丁目１番地）"
  },
  "0613521": {
    "zipcode": "0613521",
    "prefectureCode": "01",
    "prefectureNumber": 1,
    "prefecture": "北海道",
    "city": "石狩市",
    "town": "厚田区古潭"
  },
  "0613522": {
    "zipcode": "0613522",
    "prefectureCode": "01",
    "prefectureNumber": 1,
    "prefecture": "北海道",
    "city": "石狩市",
    "town": "厚田区嶺泊"
  },
  "0613523": {
    "zipcode": "0613523",
    "prefectureCode": "01",
    "prefectureNumber": 1,
    "prefecture": "北海道",
    "city": "石狩市",
    "town": "厚田区望来"
  },
  "0613601": {
    "zipcode": "0613601",
    "prefectureCode": "01",
    "prefectureNumber": 1,
    "prefecture": "北海道",
    "city": "石狩市",
    "town": "厚田区厚田"
  },
  "0613602": {
    "zipcode": "0613602",
    "prefectureCode": "01",
    "prefectureNumber": 1,
    "prefecture": "北海道",
    "city": "石狩市",
    "town": "厚田区押琴"
  },
  "0613603": {
    "zipcode": "0613603",
    "prefectureCode": "01",
    "prefectureNumber": 1,
    "prefecture": "北海道",
    "city": "石狩市",
    "town": "厚田区小谷"
  },
  "0613605": {
    "zipcode": "0613605",
    "prefectureCode": "01",
    "prefectureNumber": 1,
    "prefecture": "北海道",
    "city": "石狩市",
    "town": "厚田区別狩"
  },
  "0613606": {
    "zipcode": "0613606",
    "prefectureCode": "01",
    "prefectureNumber": 1,
    "prefecture": "北海道",
    "city": "石狩市",
    "town": "厚田区安瀬"
  },
  "0613770": {
    "zipcode": "0613770",
    "prefectureCode": "01",
    "prefectureNumber": 1,
    "prefecture": "北海道",
    "city": "石狩郡当別町",
    "town": "ロイズタウン"
  },
  "0613771": {
    "zipcode": "0613771",
    "prefectureCode": "01",
    "prefectureNumber": 1,
    "prefecture": "北海道",
    "city": "石狩郡当別町",
    "town": "高岡"
  },
  "0613772": {
    "zipcode": "0613772",
    "prefectureCode": "01",
    "prefectureNumber": 1,
    "prefecture": "北海道",
    "city": "石狩郡当別町",
    "town": "獅子内"
  },
  "0613773": {
    "zipcode": "0613773",
    "prefectureCode": "01",
    "prefectureNumber": 1,
    "prefecture": "北海道",
    "city": "石狩郡当別町",
    "town": "当別太"
  },
  "0613774": {
    "zipcode": "0613774",
    "prefectureCode": "01",
    "prefectureNumber": 1,
    "prefecture": "北海道",
    "city": "石狩郡当別町",
    "town": "川下（７８２−１３、５３６３−７〜８、５３８２−３、５４０５−４、５４０７−５、５４４５〜５４４６−４番地）"
  },
  "0613775": {
    "zipcode": "0613775",
    "prefectureCode": "01",
    "prefectureNumber": 1,
    "prefecture": "北海道",
    "city": "石狩郡当別町",
    "town": "ビトエ（その他）"
  },
  "0613776": {
    "zipcode": "0613776",
    "prefectureCode": "01",
    "prefectureNumber": 1,
    "prefecture": "北海道",
    "city": "石狩郡当別町",
    "town": "太美町"
  },
  "0613777": {
    "zipcode": "0613777",
    "prefectureCode": "01",
    "prefectureNumber": 1,
    "prefecture": "北海道",
    "city": "石狩郡当別町",
    "town": "スウェーデンヒルズ"
  },
  "0613778": {
    "zipcode": "0613778",
    "prefectureCode": "01",
    "prefectureNumber": 1,
    "prefecture": "北海道",
    "city": "石狩郡当別町",
    "town": "太美南"
  },
  "0613779": {
    "zipcode": "0613779",
    "prefectureCode": "01",
    "prefectureNumber": 1,
    "prefecture": "北海道",
    "city": "石狩郡当別町",
    "town": "太美スターライト"
  }
}
