{
  "0640801": {
    "zipcode": "0640801",
    "prefectureCode": "01",
    "prefectureNumber": 1,
    "prefecture": "北海道",
    "city": "札幌市中央区",
    "town": "南一条西（２０〜２８丁目）"
  },
  "0640802": {
    "zipcode": "0640802",
    "prefectureCode": "01",
    "prefectureNumber": 1,
    "prefecture": "北海道",
    "city": "札幌市中央区",
    "town": "南二条西（２０〜２８丁目）"
  },
  "0640803": {
    "zipcode": "0640803",
    "prefectureCode": "01",
    "prefectureNumber": 1,
    "prefecture": "北海道",
    "city": "札幌市中央区",
    "town": "南三条西（２０〜２８丁目）"
  },
  "0640804": {
    "zipcode": "0640804",
    "prefectureCode": "01",
    "prefectureNumber": 1,
    "prefecture": "北海道",
    "city": "札幌市中央区",
    "town": "南四条西"
  },
  "0640805": {
    "zipcode": "0640805",
    "prefectureCode": "01",
    "prefectureNumber": 1,
    "prefecture": "北海道",
    "city": "札幌市中央区",
    "town": "南五条西"
  },
  "0640806": {
    "zipcode": "0640806",
    "prefectureCode": "01",
    "prefectureNumber": 1,
    "prefecture": "北海道",
    "city": "札幌市中央区",
    "town": "南六条西"
  },
  "0640807": {
    "zipcode": "0640807",
    "prefectureCode": "01",
    "prefectureNumber": 1,
    "prefecture": "北海道",
    "city": "札幌市中央区",
    "town": "南七条西"
  },
  "0640808": {
    "zipcode": "0640808",
    "prefectureCode": "01",
    "prefectureNumber": 1,
    "prefecture": "北海道",
    "city": "札幌市中央区",
    "town": "南八条西"
  },
  "0640809": {
    "zipcode": "0640809",
    "prefectureCode": "01",
    "prefectureNumber": 1,
    "prefecture": "北海道",
    "city": "札幌市中央区",
    "town": "南九条西"
  },
  "0640810": {
    "zipcode": "0640810",
    "prefectureCode": "01",
    "prefectureNumber": 1,
    "prefecture": "北海道",
    "city": "札幌市中央区",
    "town": "南十条西"
  },
  "0640811": {
    "zipcode": "0640811",
    "prefectureCode": "01",
    "prefectureNumber": 1,
    "prefecture": "北海道",
    "city": "札幌市中央区",
    "town": "南十一条西"
  },
  "0640820": {
    "zipcode": "0640820",
    "prefectureCode": "01",
    "prefectureNumber": 1,
    "prefecture": "北海道",
    "city": "札幌市中央区",
    "town": "大通西（２０〜２８丁目）"
  },
  "0640821": {
    "zipcode": "0640821",
    "prefectureCode": "01",
    "prefectureNumber": 1,
    "prefecture": "北海道",
    "city": "札幌市中央区",
    "town": "北一条西（２０〜２８丁目）"
  },
  "0640822": {
    "zipcode": "0640822",
    "prefectureCode": "01",
    "prefectureNumber": 1,
    "prefecture": "北海道",
    "city": "札幌市中央区",
    "town": "北二条西（２０〜２８丁目）"
  },
  "0640823": {
    "zipcode": "0640823",
    "prefectureCode": "01",
    "prefectureNumber": 1,
    "prefecture": "北海道",
    "city": "札幌市中央区",
    "town": "北三条西（２０〜３０丁目）"
  },
  "0640824": {
    "zipcode": "0640824",
    "prefectureCode": "01",
    "prefectureNumber": 1,
    "prefecture": "北海道",
    "city": "札幌市中央区",
    "town": "北四条西（２０〜３０丁目）"
  },
  "0640825": {
    "zipcode": "0640825",
    "prefectureCode": "01",
    "prefectureNumber": 1,
    "prefecture": "北海道",
    "city": "札幌市中央区",
    "town": "北五条西（２５〜２９丁目）"
  },
  "0640826": {
    "zipcode": "0640826",
    "prefectureCode": "01",
    "prefectureNumber": 1,
    "prefecture": "北海道",
    "city": "札幌市中央区",
    "town": "北六条西（２６〜２８丁目）"
  },
  "0640912": {
    "zipcode": "0640912",
    "prefectureCode": "01",
    "prefectureNumber": 1,
    "prefecture": "北海道",
    "city": "札幌市中央区",
    "town": "南十二条西"
  },
  "0640913": {
    "zipcode": "0640913",
    "prefectureCode": "01",
    "prefectureNumber": 1,
    "prefecture": "北海道",
    "city": "札幌市中央区",
    "town": "南十三条西"
  },
  "0640914": {
    "zipcode": "0640914",
    "prefectureCode": "01",
    "prefectureNumber": 1,
    "prefecture": "北海道",
    "city": "札幌市中央区",
    "town": "南十四条西"
  },
  "0640915": {
    "zipcode": "0640915",
    "prefectureCode": "01",
    "prefectureNumber": 1,
    "prefecture": "北海道",
    "city": "札幌市中央区",
    "town": "南十五条西"
  },
  "0640916": {
    "zipcode": "0640916",
    "prefectureCode": "01",
    "prefectureNumber": 1,
    "prefecture": "北海道",
    "city": "札幌市中央区",
    "town": "南十六条西"
  },
  "0640917": {
    "zipcode": "0640917",
    "prefectureCode": "01",
    "prefectureNumber": 1,
    "prefecture": "北海道",
    "city": "札幌市中央区",
    "town": "南十七条西"
  },
  "0640918": {
    "zipcode": "0640918",
    "prefectureCode": "01",
    "prefectureNumber": 1,
    "prefecture": "北海道",
    "city": "札幌市中央区",
    "town": "南十八条西"
  },
  "0640919": {
    "zipcode": "0640919",
    "prefectureCode": "01",
    "prefectureNumber": 1,
    "prefecture": "北海道",
    "city": "札幌市中央区",
    "town": "南十九条西"
  },
  "0640920": {
    "zipcode": "0640920",
    "prefectureCode": "01",
    "prefectureNumber": 1,
    "prefecture": "北海道",
    "city": "札幌市中央区",
    "town": "南二十条西"
  },
  "0640921": {
    "zipcode": "0640921",
    "prefectureCode": "01",
    "prefectureNumber": 1,
    "prefecture": "北海道",
    "city": "札幌市中央区",
    "town": "南二十一条西"
  },
  "0640922": {
    "zipcode": "0640922",
    "prefectureCode": "01",
    "prefectureNumber": 1,
    "prefecture": "北海道",
    "city": "札幌市中央区",
    "town": "南二十二条西"
  },
  "0640923": {
    "zipcode": "0640923",
    "prefectureCode": "01",
    "prefectureNumber": 1,
    "prefecture": "北海道",
    "city": "札幌市中央区",
    "town": "南二十三条西"
  },
  "0640924": {
    "zipcode": "0640924",
    "prefectureCode": "01",
    "prefectureNumber": 1,
    "prefecture": "北海道",
    "city": "札幌市中央区",
    "town": "南二十四条西"
  },
  "0640925": {
    "zipcode": "0640925",
    "prefectureCode": "01",
    "prefectureNumber": 1,
    "prefecture": "北海道",
    "city": "札幌市中央区",
    "town": "南二十五条西"
  },
  "0640926": {
    "zipcode": "0640926",
    "prefectureCode": "01",
    "prefectureNumber": 1,
    "prefecture": "北海道",
    "city": "札幌市中央区",
    "town": "南二十六条西"
  },
  "0640927": {
    "zipcode": "0640927",
    "prefectureCode": "01",
    "prefectureNumber": 1,
    "prefecture": "北海道",
    "city": "札幌市中央区",
    "town": "南二十七条西"
  },
  "0640928": {
    "zipcode": "0640928",
    "prefectureCode": "01",
    "prefectureNumber": 1,
    "prefecture": "北海道",
    "city": "札幌市中央区",
    "town": "南二十八条西"
  },
  "0640929": {
    "zipcode": "0640929",
    "prefectureCode": "01",
    "prefectureNumber": 1,
    "prefecture": "北海道",
    "city": "札幌市中央区",
    "town": "南二十九条西"
  },
  "0640930": {
    "zipcode": "0640930",
    "prefectureCode": "01",
    "prefectureNumber": 1,
    "prefecture": "北海道",
    "city": "札幌市中央区",
    "town": "南三十条西（９〜１１丁目）"
  },
  "0640931": {
    "zipcode": "0640931",
    "prefectureCode": "01",
    "prefectureNumber": 1,
    "prefecture": "北海道",
    "city": "札幌市中央区",
    "town": "中島公園"
  },
  "0640941": {
    "zipcode": "0640941",
    "prefectureCode": "01",
    "prefectureNumber": 1,
    "prefecture": "北海道",
    "city": "札幌市中央区",
    "town": "旭ケ丘"
  },
  "0640942": {
    "zipcode": "0640942",
    "prefectureCode": "01",
    "prefectureNumber": 1,
    "prefecture": "北海道",
    "city": "札幌市中央区",
    "town": "伏見"
  },
  "0640943": {
    "zipcode": "0640943",
    "prefectureCode": "01",
    "prefectureNumber": 1,
    "prefecture": "北海道",
    "city": "札幌市中央区",
    "town": "界川"
  },
  "0640944": {
    "zipcode": "0640944",
    "prefectureCode": "01",
    "prefectureNumber": 1,
    "prefecture": "北海道",
    "city": "札幌市中央区",
    "town": "円山西町"
  },
  "0640945": {
    "zipcode": "0640945",
    "prefectureCode": "01",
    "prefectureNumber": 1,
    "prefecture": "北海道",
    "city": "札幌市中央区",
    "town": "盤渓"
  },
  "0640946": {
    "zipcode": "0640946",
    "prefectureCode": "01",
    "prefectureNumber": 1,
    "prefecture": "北海道",
    "city": "札幌市中央区",
    "town": "双子山"
  },
  "0640951": {
    "zipcode": "0640951",
    "prefectureCode": "01",
    "prefectureNumber": 1,
    "prefecture": "北海道",
    "city": "札幌市中央区",
    "town": "宮の森一条"
  },
  "0640952": {
    "zipcode": "0640952",
    "prefectureCode": "01",
    "prefectureNumber": 1,
    "prefecture": "北海道",
    "city": "札幌市中央区",
    "town": "宮の森二条"
  },
  "0640953": {
    "zipcode": "0640953",
    "prefectureCode": "01",
    "prefectureNumber": 1,
    "prefecture": "北海道",
    "city": "札幌市中央区",
    "town": "宮の森三条"
  },
  "0640954": {
    "zipcode": "0640954",
    "prefectureCode": "01",
    "prefectureNumber": 1,
    "prefecture": "北海道",
    "city": "札幌市中央区",
    "town": "宮の森四条"
  },
  "0640958": {
    "zipcode": "0640958",
    "prefectureCode": "01",
    "prefectureNumber": 1,
    "prefecture": "北海道",
    "city": "札幌市中央区",
    "town": "宮の森"
  },
  "0640959": {
    "zipcode": "0640959",
    "prefectureCode": "01",
    "prefectureNumber": 1,
    "prefecture": "北海道",
    "city": "札幌市中央区",
    "town": "宮ケ丘"
  }
}
