{
  "0650000": {
    "zipcode": "0650000",
    "prefectureCode": "01",
    "prefectureNumber": 1,
    "prefecture": "北海道",
    "city": "札幌市東区",
    "town": "以下に掲載がない場合"
  },
  "0650004": {
    "zipcode": "0650004",
    "prefectureCode": "01",
    "prefectureNumber": 1,
    "prefecture": "北海道",
    "city": "札幌市東区",
    "town": "北四条東（９〜１６丁目）"
  },
  "0650005": {
    "zipcode": "0650005",
    "prefectureCode": "01",
    "prefectureNumber": 1,
    "prefecture": "北海道",
    "city": "札幌市東区",
    "town": "北五条東（８〜１７丁目）"
  },
  "0650006": {
    "zipcode": "0650006",
    "prefectureCode": "01",
    "prefectureNumber": 1,
    "prefecture": "北海道",
    "city": "札幌市東区",
    "town": "北六条東（８〜２０丁目）"
  },
  "0650007": {
    "zipcode": "0650007",
    "prefectureCode": "01",
    "prefectureNumber": 1,
    "prefecture": "北海道",
    "city": "札幌市東区",
    "town": "北七条東（８〜２０丁目）"
  },
  "0650008": {
    "zipcode": "0650008",
    "prefectureCode": "01",
    "prefectureNumber": 1,
    "prefecture": "北海道",
    "city": "札幌市東区",
    "town": "北八条東（８〜１９丁目）"
  },
  "0650009": {
    "zipcode": "0650009",
    "prefectureCode": "01",
    "prefectureNumber": 1,
    "prefecture": "北海道",
    "city": "札幌市東区",
    "town": "北九条東（８〜１６丁目）"
  },
  "0650010": {
    "zipcode": "0650010",
    "prefectureCode": "01",
    "prefectureNumber": 1,
    "prefecture": "北海道",
    "city": "札幌市東区",
    "town": "北十条東"
  },
  "0650011": {
    "zipcode": "0650011",
    "prefectureCode": "01",
    "prefectureNumber": 1,
    "prefecture": "北海道",
    "city": "札幌市東区",
    "town": "北十一条東"
  },
  "0650012": {
    "zipcode": "0650012",
    "prefectureCode": "01",
    "prefectureNumber": 1,
    "prefecture": "北海道",
    "city": "札幌市東区",
    "town": "北十二条東"
  },
  "0650013": {
    "zipcode": "0650013",
    "prefectureCode": "01",
    "prefectureNumber": 1,
    "prefecture": "北海道",
    "city": "札幌市東区",
    "town": "北十三条東"
  },
  "0650014": {
    "zipcode": "0650014",
    "prefectureCode": "01",
    "prefectureNumber": 1,
    "prefecture": "北海道",
    "city": "札幌市東区",
    "town": "北十四条東"
  },
  "0650015": {
    "zipcode": "0650015",
    "prefectureCode": "01",
    "prefectureNumber": 1,
    "prefecture": "北海道",
    "city": "札幌市東区",
    "town": "北十五条東"
  },
  "0650016": {
    "zipcode": "0650016",
    "prefectureCode": "01",
    "prefectureNumber": 1,
    "prefecture": "北海道",
    "city": "札幌市東区",
    "town": "北十六条東"
  },
  "0650017": {
    "zipcode": "0650017",
    "prefectureCode": "01",
    "prefectureNumber": 1,
    "prefecture": "北海道",
    "city": "札幌市東区",
    "town": "北十七条東"
  },
  "0650018": {
    "zipcode": "0650018",
    "prefectureCode": "01",
    "prefectureNumber": 1,
    "prefecture": "北海道",
    "city": "札幌市東区",
    "town": "北十八条東"
  },
  "0650019": {
    "zipcode": "0650019",
    "prefectureCode": "01",
    "prefectureNumber": 1,
    "prefecture": "北海道",
    "city": "札幌市東区",
    "town": "北十九条東"
  },
  "0650020": {
    "zipcode": "0650020",
    "prefectureCode": "01",
    "prefectureNumber": 1,
    "prefecture": "北海道",
    "city": "札幌市東区",
    "town": "北二十条東"
  },
  "0650021": {
    "zipcode": "0650021",
    "prefectureCode": "01",
    "prefectureNumber": 1,
    "prefecture": "北海道",
    "city": "札幌市東区",
    "town": "北二十一条東"
  },
  "0650022": {
    "zipcode": "0650022",
    "prefectureCode": "01",
    "prefectureNumber": 1,
    "prefecture": "北海道",
    "city": "札幌市東区",
    "town": "北二十二条東"
  },
  "0650023": {
    "zipcode": "0650023",
    "prefectureCode": "01",
    "prefectureNumber": 1,
    "prefecture": "北海道",
    "city": "札幌市東区",
    "town": "北二十三条東"
  },
  "0650024": {
    "zipcode": "0650024",
    "prefectureCode": "01",
    "prefectureNumber": 1,
    "prefecture": "北海道",
    "city": "札幌市東区",
    "town": "北二十四条東"
  },
  "0650025": {
    "zipcode": "0650025",
    "prefectureCode": "01",
    "prefectureNumber": 1,
    "prefecture": "北海道",
    "city": "札幌市東区",
    "town": "北二十五条東"
  },
  "0650026": {
    "zipcode": "0650026",
    "prefectureCode": "01",
    "prefectureNumber": 1,
    "prefecture": "北海道",
    "city": "札幌市東区",
    "town": "北二十六条東"
  },
  "0650027": {
    "zipcode": "0650027",
    "prefectureCode": "01",
    "prefectureNumber": 1,
    "prefecture": "北海道",
    "city": "札幌市東区",
    "town": "北二十七条東"
  },
  "0650028": {
    "zipcode": "0650028",
    "prefectureCode": "01",
    "prefectureNumber": 1,
    "prefecture": "北海道",
    "city": "札幌市東区",
    "town": "北二十八条東"
  },
  "0650030": {
    "zipcode": "0650030",
    "prefectureCode": "01",
    "prefectureNumber": 1,
    "prefecture": "北海道",
    "city": "札幌市東区",
    "town": "北三十条東"
  },
  "0650031": {
    "zipcode": "0650031",
    "prefectureCode": "01",
    "prefectureNumber": 1,
    "prefecture": "北海道",
    "city": "札幌市東区",
    "town": "北三十一条東"
  },
  "0650032": {
    "zipcode": "0650032",
    "prefectureCode": "01",
    "prefectureNumber": 1,
    "prefecture": "北海道",
    "city": "札幌市東区",
    "town": "北三十二条東"
  },
  "0650033": {
    "zipcode": "0650033",
    "prefectureCode": "01",
    "prefectureNumber": 1,
    "prefecture": "北海道",
    "city": "札幌市東区",
    "town": "北三十三条東"
  },
  "0650041": {
    "zipcode": "0650041",
    "prefectureCode": "01",
    "prefectureNumber": 1,
    "prefecture": "北海道",
    "city": "札幌市東区",
    "town": "本町一条"
  },
  "0650042": {
    "zipcode": "0650042",
    "prefectureCode": "01",
    "prefectureNumber": 1,
    "prefecture": "北海道",
    "city": "札幌市東区",
    "town": "本町二条"
  },
  "0650043": {
    "zipcode": "0650043",
    "prefectureCode": "01",
    "prefectureNumber": 1,
    "prefecture": "北海道",
    "city": "札幌市東区",
    "town": "苗穂町"
  }
}
