{
  "0660000": {
    "zipcode": "0660000",
    "prefectureCode": "01",
    "prefectureNumber": 1,
    "prefecture": "北海道",
    "city": "千歳市",
    "town": "以下に掲載がない場合"
  },
  "0660001": {
    "zipcode": "0660001",
    "prefectureCode": "01",
    "prefectureNumber": 1,
    "prefecture": "北海道",
    "city": "千歳市",
    "town": "長都"
  },
  "0660002": {
    "zipcode": "0660002",
    "prefectureCode": "01",
    "prefectureNumber": 1,
    "prefecture": "北海道",
    "city": "千歳市",
    "town": "釜加"
  },
  "0660003": {
    "zipcode": "0660003",
    "prefectureCode": "01",
    "prefectureNumber": 1,
    "prefecture": "北海道",
    "city": "千歳市",
    "town": "都"
  },
  "0660004": {
    "zipcode": "0660004",
    "prefectureCode": "01",
    "prefectureNumber": 1,
    "prefecture": "北海道",
    "city": "千歳市",
    "town": "泉郷"
  },
  "0660005": {
    "zipcode": "0660005",
    "prefectureCode": "01",
    "prefectureNumber": 1,
    "prefecture": "北海道",
    "city": "千歳市",
    "town": "協和（８８−２、２７１−１０、３４３−２、４０４−１、４２７−３、４３１−１２、４４３−６、６０８−２、６４１−８、８１４、８４２−５、１１３７−３、１３９２、１６５７、１７５２番地）"
  },
  "0660006": {
    "zipcode": "0660006",
    "prefectureCode": "01",
    "prefectureNumber": 1,
    "prefecture": "北海道",
    "city": "千歳市",
    "town": "祝梅"
  },
  "0660007": {
    "zipcode": "0660007",
    "prefectureCode": "01",
    "prefectureNumber": 1,
    "prefecture": "北海道",
    "city": "千歳市",
    "town": "中央"
  },
  "0660008": {
    "zipcode": "0660008",
    "prefectureCode": "01",
    "prefectureNumber": 1,
    "prefecture": "北海道",
    "city": "千歳市",
    "town": "根志越"
  },
  "0660009": {
    "zipcode": "0660009",
    "prefectureCode": "01",
    "prefectureNumber": 1,
    "prefecture": "北海道",
    "city": "千歳市",
    "town": "柏台南"
  },
  "0660011": {
    "zipcode": "0660011",
    "prefectureCode": "01",
    "prefectureNumber": 1,
    "prefecture": "北海道",
    "city": "千歳市",
    "town": "駒里"
  },
  "0660012": {
    "zipcode": "0660012",
    "prefectureCode": "01",
    "prefectureNumber": 1,
    "prefecture": "北海道",
    "city": "千歳市",
    "town": "美々"
  },
  "0660013": {
    "zipcode": "0660013",
    "prefectureCode": "01",
    "prefectureNumber": 1,
    "prefecture": "北海道",
    "city": "千歳市",
    "town": "柏台"
  },
  "0660014": {
    "zipcode": "0660014",
    "prefectureCode": "01",
    "prefectureNumber": 1,
    "prefecture": "北海道",
    "city": "千歳市",
    "town": "青葉丘"
  },
  "0660015": {
    "zipcode": "0660015",
    "prefectureCode": "01",
    "prefectureNumber": 1,
    "prefecture": "北海道",
    "city": "千歳市",
    "town": "青葉"
  },
  "0660016": {
    "zipcode": "0660016",
    "prefectureCode": "01",
    "prefectureNumber": 1,
    "prefecture": "北海道",
    "city": "千歳市",
    "town": "日の出丘"
  },
  "0660017": {
    "zipcode": "0660017",
    "prefectureCode": "01",
    "prefectureNumber": 1,
    "prefecture": "北海道",
    "city": "千歳市",
    "town": "日の出"
  },
  "0660018": {
    "zipcode": "0660018",
    "prefectureCode": "01",
    "prefectureNumber": 1,
    "prefecture": "北海道",
    "city": "千歳市",
    "town": "旭ケ丘"
  },
  "0660019": {
    "zipcode": "0660019",
    "prefectureCode": "01",
    "prefectureNumber": 1,
    "prefecture": "北海道",
    "city": "千歳市",
    "town": "流通"
  },
  "0660021": {
    "zipcode": "0660021",
    "prefectureCode": "01",
    "prefectureNumber": 1,
    "prefecture": "北海道",
    "city": "千歳市",
    "town": "東郊"
  },
  "0660022": {
    "zipcode": "0660022",
    "prefectureCode": "01",
    "prefectureNumber": 1,
    "prefecture": "北海道",
    "city": "千歳市",
    "town": "豊里"
  },
  "0660023": {
    "zipcode": "0660023",
    "prefectureCode": "01",
    "prefectureNumber": 1,
    "prefecture": "北海道",
    "city": "千歳市",
    "town": "寿"
  },
  "0660024": {
    "zipcode": "0660024",
    "prefectureCode": "01",
    "prefectureNumber": 1,
    "prefecture": "北海道",
    "city": "千歳市",
    "town": "弥生"
  },
  "0660025": {
    "zipcode": "0660025",
    "prefectureCode": "01",
    "prefectureNumber": 1,
    "prefecture": "北海道",
    "city": "千歳市",
    "town": "梅ケ丘"
  },
  "0660026": {
    "zipcode": "0660026",
    "prefectureCode": "01",
    "prefectureNumber": 1,
    "prefecture": "北海道",
    "city": "千歳市",
    "town": "住吉"
  },
  "0660027": {
    "zipcode": "0660027",
    "prefectureCode": "01",
    "prefectureNumber": 1,
    "prefecture": "北海道",
    "city": "千歳市",
    "town": "末広"
  },
  "0660028": {
    "zipcode": "0660028",
    "prefectureCode": "01",
    "prefectureNumber": 1,
    "prefecture": "北海道",
    "city": "千歳市",
    "town": "花園"
  },
  "0660029": {
    "zipcode": "0660029",
    "prefectureCode": "01",
    "prefectureNumber": 1,
    "prefecture": "北海道",
    "city": "千歳市",
    "town": "稲穂"
  },
  "0660031": {
    "zipcode": "0660031",
    "prefectureCode": "01",
    "prefectureNumber": 1,
    "prefecture": "北海道",
    "city": "千歳市",
    "town": "長都駅前"
  },
  "0660032": {
    "zipcode": "0660032",
    "prefectureCode": "01",
    "prefectureNumber": 1,
    "prefecture": "北海道",
    "city": "千歳市",
    "town": "北陽"
  },
  "0660033": {
    "zipcode": "0660033",
    "prefectureCode": "01",
    "prefectureNumber": 1,
    "prefecture": "北海道",
    "city": "千歳市",
    "town": "北光"
  },
  "0660034": {
    "zipcode": "0660034",
    "prefectureCode": "01",
    "prefectureNumber": 1,
    "prefecture": "北海道",
    "city": "千歳市",
    "town": "富丘"
  },
  "0660035": {
    "zipcode": "0660035",
    "prefectureCode": "01",
    "prefectureNumber": 1,
    "prefecture": "北海道",
    "city": "千歳市",
    "town": "高台"
  },
  "0660036": {
    "zipcode": "0660036",
    "prefectureCode": "01",
    "prefectureNumber": 1,
    "prefecture": "北海道",
    "city": "千歳市",
    "town": "北栄"
  },
  "0660037": {
    "zipcode": "0660037",
    "prefectureCode": "01",
    "prefectureNumber": 1,
    "prefecture": "北海道",
    "city": "千歳市",
    "town": "新富"
  },
  "0660038": {
    "zipcode": "0660038",
    "prefectureCode": "01",
    "prefectureNumber": 1,
    "prefecture": "北海道",
    "city": "千歳市",
    "town": "信濃"
  },
  "0660039": {
    "zipcode": "0660039",
    "prefectureCode": "01",
    "prefectureNumber": 1,
    "prefecture": "北海道",
    "city": "千歳市",
    "town": "富士"
  },
  "0660041": {
    "zipcode": "0660041",
    "prefectureCode": "01",
    "prefectureNumber": 1,
    "prefecture": "北海道",
    "city": "千歳市",
    "town": "清水町"
  },
  "0660042": {
    "zipcode": "0660042",
    "prefectureCode": "01",
    "prefectureNumber": 1,
    "prefecture": "北海道",
    "city": "千歳市",
    "town": "東雲町"
  },
  "0660043": {
    "zipcode": "0660043",
    "prefectureCode": "01",
    "prefectureNumber": 1,
    "prefecture": "北海道",
    "city": "千歳市",
    "town": "朝日町"
  },
  "0660044": {
    "zipcode": "0660044",
    "prefectureCode": "01",
    "prefectureNumber": 1,
    "prefecture": "北海道",
    "city": "千歳市",
    "town": "平和"
  },
  "0660045": {
    "zipcode": "0660045",
    "prefectureCode": "01",
    "prefectureNumber": 1,
    "prefecture": "北海道",
    "city": "千歳市",
    "town": "真々地"
  },
  "0660046": {
    "zipcode": "0660046",
    "prefectureCode": "01",
    "prefectureNumber": 1,
    "prefecture": "北海道",
    "city": "千歳市",
    "town": "真町"
  },
  "0660047": {
    "zipcode": "0660047",
    "prefectureCode": "01",
    "prefectureNumber": 1,
    "prefecture": "北海道",
    "city": "千歳市",
    "town": "本町"
  },
  "0660051": {
    "zipcode": "0660051",
    "prefectureCode": "01",
    "prefectureNumber": 1,
    "prefecture": "北海道",
    "city": "千歳市",
    "town": "泉沢"
  },
  "0660052": {
    "zipcode": "0660052",
    "prefectureCode": "01",
    "prefectureNumber": 1,
    "prefecture": "北海道",
    "city": "千歳市",
    "town": "文京"
  },
  "0660053": {
    "zipcode": "0660053",
    "prefectureCode": "01",
    "prefectureNumber": 1,
    "prefecture": "北海道",
    "city": "千歳市",
    "town": "福住"
  },
  "0660054": {
    "zipcode": "0660054",
    "prefectureCode": "01",
    "prefectureNumber": 1,
    "prefecture": "北海道",
    "city": "千歳市",
    "town": "柏陽"
  },
  "0660055": {
    "zipcode": "0660055",
    "prefectureCode": "01",
    "prefectureNumber": 1,
    "prefecture": "北海道",
    "city": "千歳市",
    "town": "里美"
  },
  "0660056": {
    "zipcode": "0660056",
    "prefectureCode": "01",
    "prefectureNumber": 1,
    "prefecture": "北海道",
    "city": "千歳市",
    "town": "白樺"
  },
  "0660057": {
    "zipcode": "0660057",
    "prefectureCode": "01",
    "prefectureNumber": 1,
    "prefecture": "北海道",
    "city": "千歳市",
    "town": "若草"
  },
  "0660061": {
    "zipcode": "0660061",
    "prefectureCode": "01",
    "prefectureNumber": 1,
    "prefecture": "北海道",
    "city": "千歳市",
    "town": "栄町"
  },
  "0660062": {
    "zipcode": "0660062",
    "prefectureCode": "01",
    "prefectureNumber": 1,
    "prefecture": "北海道",
    "city": "千歳市",
    "town": "千代田町"
  },
  "0660063": {
    "zipcode": "0660063",
    "prefectureCode": "01",
    "prefectureNumber": 1,
    "prefecture": "北海道",
    "city": "千歳市",
    "town": "幸町"
  },
  "0660064": {
    "zipcode": "0660064",
    "prefectureCode": "01",
    "prefectureNumber": 1,
    "prefecture": "北海道",
    "city": "千歳市",
    "town": "錦町"
  },
  "0660065": {
    "zipcode": "0660065",
    "prefectureCode": "01",
    "prefectureNumber": 1,
    "prefecture": "北海道",
    "city": "千歳市",
    "town": "春日町"
  },
  "0660066": {
    "zipcode": "0660066",
    "prefectureCode": "01",
    "prefectureNumber": 1,
    "prefecture": "北海道",
    "city": "千歳市",
    "town": "大和"
  },
  "0660067": {
    "zipcode": "0660067",
    "prefectureCode": "01",
    "prefectureNumber": 1,
    "prefecture": "北海道",
    "city": "千歳市",
    "town": "桂木"
  },
  "0660068": {
    "zipcode": "0660068",
    "prefectureCode": "01",
    "prefectureNumber": 1,
    "prefecture": "北海道",
    "city": "千歳市",
    "town": "蘭越"
  },
  "0660069": {
    "zipcode": "0660069",
    "prefectureCode": "01",
    "prefectureNumber": 1,
    "prefecture": "北海道",
    "city": "千歳市",
    "town": "新星"
  },
  "0660071": {
    "zipcode": "0660071",
    "prefectureCode": "01",
    "prefectureNumber": 1,
    "prefecture": "北海道",
    "city": "千歳市",
    "town": "桜木"
  },
  "0660072": {
    "zipcode": "0660072",
    "prefectureCode": "01",
    "prefectureNumber": 1,
    "prefecture": "北海道",
    "city": "千歳市",
    "town": "自由ケ丘"
  },
  "0660073": {
    "zipcode": "0660073",
    "prefectureCode": "01",
    "prefectureNumber": 1,
    "prefecture": "北海道",
    "city": "千歳市",
    "town": "北斗"
  },
  "0660074": {
    "zipcode": "0660074",
    "prefectureCode": "01",
    "prefectureNumber": 1,
    "prefecture": "北海道",
    "city": "千歳市",
    "town": "緑町"
  },
  "0660075": {
    "zipcode": "0660075",
    "prefectureCode": "01",
    "prefectureNumber": 1,
    "prefecture": "北海道",
    "city": "千歳市",
    "town": "北信濃"
  },
  "0660076": {
    "zipcode": "0660076",
    "prefectureCode": "01",
    "prefectureNumber": 1,
    "prefecture": "北海道",
    "city": "千歳市",
    "town": "あずさ"
  },
  "0660077": {
    "zipcode": "0660077",
    "prefectureCode": "01",
    "prefectureNumber": 1,
    "prefecture": "北海道",
    "city": "千歳市",
    "town": "上長都"
  },
  "0660078": {
    "zipcode": "0660078",
    "prefectureCode": "01",
    "prefectureNumber": 1,
    "prefecture": "北海道",
    "city": "千歳市",
    "town": "勇舞"
  },
  "0660081": {
    "zipcode": "0660081",
    "prefectureCode": "01",
    "prefectureNumber": 1,
    "prefecture": "北海道",
    "city": "千歳市",
    "town": "清流"
  },
  "0660082": {
    "zipcode": "0660082",
    "prefectureCode": "01",
    "prefectureNumber": 1,
    "prefecture": "北海道",
    "city": "千歳市",
    "town": "幸福"
  },
  "0660083": {
    "zipcode": "0660083",
    "prefectureCode": "01",
    "prefectureNumber": 1,
    "prefecture": "北海道",
    "city": "千歳市",
    "town": "みどり台北"
  },
  "0660084": {
    "zipcode": "0660084",
    "prefectureCode": "01",
    "prefectureNumber": 1,
    "prefecture": "北海道",
    "city": "千歳市",
    "town": "みどり台南"
  },
  "0660271": {
    "zipcode": "0660271",
    "prefectureCode": "01",
    "prefectureNumber": 1,
    "prefecture": "北海道",
    "city": "苫小牧市",
    "town": "丸山"
  },
  "0660281": {
    "zipcode": "0660281",
    "prefectureCode": "01",
    "prefectureNumber": 1,
    "prefecture": "北海道",
    "city": "千歳市",
    "town": "支笏湖温泉"
  },
  "0660282": {
    "zipcode": "0660282",
    "prefectureCode": "01",
    "prefectureNumber": 1,
    "prefecture": "北海道",
    "city": "千歳市",
    "town": "水明郷"
  },
  "0660283": {
    "zipcode": "0660283",
    "prefectureCode": "01",
    "prefectureNumber": 1,
    "prefecture": "北海道",
    "city": "千歳市",
    "town": "モラップ"
  },
  "0660284": {
    "zipcode": "0660284",
    "prefectureCode": "01",
    "prefectureNumber": 1,
    "prefecture": "北海道",
    "city": "千歳市",
    "town": "支寒内"
  },
  "0660285": {
    "zipcode": "0660285",
    "prefectureCode": "01",
    "prefectureNumber": 1,
    "prefecture": "北海道",
    "city": "千歳市",
    "town": "美笛"
  },
  "0660286": {
    "zipcode": "0660286",
    "prefectureCode": "01",
    "prefectureNumber": 1,
    "prefecture": "北海道",
    "city": "千歳市",
    "town": "奥潭"
  },
  "0660287": {
    "zipcode": "0660287",
    "prefectureCode": "01",
    "prefectureNumber": 1,
    "prefecture": "北海道",
    "city": "千歳市",
    "town": "幌美内"
  }
}
