{
  "0670000": {
    "zipcode": "0670000",
    "prefectureCode": "01",
    "prefectureNumber": 1,
    "prefecture": "北海道",
    "city": "江別市",
    "town": "以下に掲載がない場合"
  },
  "0670001": {
    "zipcode": "0670001",
    "prefectureCode": "01",
    "prefectureNumber": 1,
    "prefecture": "北海道",
    "city": "江別市",
    "town": "王子"
  },
  "0670002": {
    "zipcode": "0670002",
    "prefectureCode": "01",
    "prefectureNumber": 1,
    "prefecture": "北海道",
    "city": "江別市",
    "town": "緑町西"
  },
  "0670003": {
    "zipcode": "0670003",
    "prefectureCode": "01",
    "prefectureNumber": 1,
    "prefecture": "北海道",
    "city": "江別市",
    "town": "緑町東"
  },
  "0670004": {
    "zipcode": "0670004",
    "prefectureCode": "01",
    "prefectureNumber": 1,
    "prefecture": "北海道",
    "city": "江別市",
    "town": "若草町"
  },
  "0670005": {
    "zipcode": "0670005",
    "prefectureCode": "01",
    "prefectureNumber": 1,
    "prefecture": "北海道",
    "city": "江別市",
    "town": "牧場町"
  },
  "0670011": {
    "zipcode": "0670011",
    "prefectureCode": "01",
    "prefectureNumber": 1,
    "prefecture": "北海道",
    "city": "江別市",
    "town": "１条"
  },
  "0670012": {
    "zipcode": "0670012",
    "prefectureCode": "01",
    "prefectureNumber": 1,
    "prefecture": "北海道",
    "city": "江別市",
    "town": "２条"
  },
  "0670013": {
    "zipcode": "0670013",
    "prefectureCode": "01",
    "prefectureNumber": 1,
    "prefecture": "北海道",
    "city": "江別市",
    "town": "３条"
  },
  "0670014": {
    "zipcode": "0670014",
    "prefectureCode": "01",
    "prefectureNumber": 1,
    "prefecture": "北海道",
    "city": "江別市",
    "town": "４条"
  },
  "0670015": {
    "zipcode": "0670015",
    "prefectureCode": "01",
    "prefectureNumber": 1,
    "prefecture": "北海道",
    "city": "江別市",
    "town": "５条"
  },
  "0670016": {
    "zipcode": "0670016",
    "prefectureCode": "01",
    "prefectureNumber": 1,
    "prefecture": "北海道",
    "city": "江別市",
    "town": "６条"
  },
  "0670017": {
    "zipcode": "0670017",
    "prefectureCode": "01",
    "prefectureNumber": 1,
    "prefecture": "北海道",
    "city": "江別市",
    "town": "７条"
  },
  "0670018": {
    "zipcode": "0670018",
    "prefectureCode": "01",
    "prefectureNumber": 1,
    "prefecture": "北海道",
    "city": "江別市",
    "town": "８条"
  },
  "0670021": {
    "zipcode": "0670021",
    "prefectureCode": "01",
    "prefectureNumber": 1,
    "prefecture": "北海道",
    "city": "江別市",
    "town": "豊幌"
  },
  "0670022": {
    "zipcode": "0670022",
    "prefectureCode": "01",
    "prefectureNumber": 1,
    "prefecture": "北海道",
    "city": "江別市",
    "town": "江別太"
  },
  "0670023": {
    "zipcode": "0670023",
    "prefectureCode": "01",
    "prefectureNumber": 1,
    "prefecture": "北海道",
    "city": "江別市",
    "town": "東光町"
  },
  "0670024": {
    "zipcode": "0670024",
    "prefectureCode": "01",
    "prefectureNumber": 1,
    "prefecture": "北海道",
    "city": "江別市",
    "town": "朝日町"
  },
  "0670025": {
    "zipcode": "0670025",
    "prefectureCode": "01",
    "prefectureNumber": 1,
    "prefecture": "北海道",
    "city": "江別市",
    "town": "あけぼの町"
  },
  "0670026": {
    "zipcode": "0670026",
    "prefectureCode": "01",
    "prefectureNumber": 1,
    "prefecture": "北海道",
    "city": "江別市",
    "town": "豊幌花園町"
  },
  "0670027": {
    "zipcode": "0670027",
    "prefectureCode": "01",
    "prefectureNumber": 1,
    "prefecture": "北海道",
    "city": "江別市",
    "town": "豊幌美咲町"
  },
  "0670028": {
    "zipcode": "0670028",
    "prefectureCode": "01",
    "prefectureNumber": 1,
    "prefecture": "北海道",
    "city": "江別市",
    "town": "豊幌はみんぐ町"
  },
  "0670031": {
    "zipcode": "0670031",
    "prefectureCode": "01",
    "prefectureNumber": 1,
    "prefecture": "北海道",
    "city": "江別市",
    "town": "元町"
  },
  "0670032": {
    "zipcode": "0670032",
    "prefectureCode": "01",
    "prefectureNumber": 1,
    "prefecture": "北海道",
    "city": "江別市",
    "town": "元江別"
  },
  "0670033": {
    "zipcode": "0670033",
    "prefectureCode": "01",
    "prefectureNumber": 1,
    "prefecture": "北海道",
    "city": "江別市",
    "town": "対雁"
  },
  "0670034": {
    "zipcode": "0670034",
    "prefectureCode": "01",
    "prefectureNumber": 1,
    "prefecture": "北海道",
    "city": "江別市",
    "town": "いずみ野"
  },
  "0670041": {
    "zipcode": "0670041",
    "prefectureCode": "01",
    "prefectureNumber": 1,
    "prefecture": "北海道",
    "city": "江別市",
    "town": "元江別本町"
  },
  "0670042": {
    "zipcode": "0670042",
    "prefectureCode": "01",
    "prefectureNumber": 1,
    "prefecture": "北海道",
    "city": "江別市",
    "town": "見晴台"
  },
  "0670051": {
    "zipcode": "0670051",
    "prefectureCode": "01",
    "prefectureNumber": 1,
    "prefecture": "北海道",
    "city": "江別市",
    "town": "工栄町"
  },
  "0670052": {
    "zipcode": "0670052",
    "prefectureCode": "01",
    "prefectureNumber": 1,
    "prefecture": "北海道",
    "city": "江別市",
    "town": "角山"
  },
  "0670053": {
    "zipcode": "0670053",
    "prefectureCode": "01",
    "prefectureNumber": 1,
    "prefecture": "北海道",
    "city": "江別市",
    "town": "中島"
  },
  "0670054": {
    "zipcode": "0670054",
    "prefectureCode": "01",
    "prefectureNumber": 1,
    "prefecture": "北海道",
    "city": "江別市",
    "town": "八幡"
  },
  "0670055": {
    "zipcode": "0670055",
    "prefectureCode": "01",
    "prefectureNumber": 1,
    "prefecture": "北海道",
    "city": "江別市",
    "town": "篠津"
  },
  "0670056": {
    "zipcode": "0670056",
    "prefectureCode": "01",
    "prefectureNumber": 1,
    "prefecture": "北海道",
    "city": "江別市",
    "town": "美原"
  },
  "0670057": {
    "zipcode": "0670057",
    "prefectureCode": "01",
    "prefectureNumber": 1,
    "prefecture": "北海道",
    "city": "江別市",
    "town": "萌えぎ野東"
  },
  "0670058": {
    "zipcode": "0670058",
    "prefectureCode": "01",
    "prefectureNumber": 1,
    "prefecture": "北海道",
    "city": "江別市",
    "town": "萌えぎ野中央"
  },
  "0670059": {
    "zipcode": "0670059",
    "prefectureCode": "01",
    "prefectureNumber": 1,
    "prefecture": "北海道",
    "city": "江別市",
    "town": "萌えぎ野西"
  },
  "0670061": {
    "zipcode": "0670061",
    "prefectureCode": "01",
    "prefectureNumber": 1,
    "prefecture": "北海道",
    "city": "江別市",
    "town": "上江別東町"
  },
  "0670062": {
    "zipcode": "0670062",
    "prefectureCode": "01",
    "prefectureNumber": 1,
    "prefecture": "北海道",
    "city": "江別市",
    "town": "上江別南町"
  },
  "0670063": {
    "zipcode": "0670063",
    "prefectureCode": "01",
    "prefectureNumber": 1,
    "prefecture": "北海道",
    "city": "江別市",
    "town": "上江別西町"
  },
  "0670064": {
    "zipcode": "0670064",
    "prefectureCode": "01",
    "prefectureNumber": 1,
    "prefecture": "北海道",
    "city": "江別市",
    "town": "上江別"
  },
  "0670065": {
    "zipcode": "0670065",
    "prefectureCode": "01",
    "prefectureNumber": 1,
    "prefecture": "北海道",
    "city": "江別市",
    "town": "ゆめみ野東町"
  },
  "0670066": {
    "zipcode": "0670066",
    "prefectureCode": "01",
    "prefectureNumber": 1,
    "prefecture": "北海道",
    "city": "江別市",
    "town": "ゆめみ野南町"
  },
  "0670071": {
    "zipcode": "0670071",
    "prefectureCode": "01",
    "prefectureNumber": 1,
    "prefecture": "北海道",
    "city": "江別市",
    "town": "萩ケ岡"
  },
  "0670072": {
    "zipcode": "0670072",
    "prefectureCode": "01",
    "prefectureNumber": 1,
    "prefecture": "北海道",
    "city": "江別市",
    "town": "一番町"
  },
  "0670073": {
    "zipcode": "0670073",
    "prefectureCode": "01",
    "prefectureNumber": 1,
    "prefecture": "北海道",
    "city": "江別市",
    "town": "弥生町"
  },
  "0670074": {
    "zipcode": "0670074",
    "prefectureCode": "01",
    "prefectureNumber": 1,
    "prefecture": "北海道",
    "city": "江別市",
    "town": "高砂町"
  },
  "0670075": {
    "zipcode": "0670075",
    "prefectureCode": "01",
    "prefectureNumber": 1,
    "prefecture": "北海道",
    "city": "江別市",
    "town": "向ケ丘"
  }
}
