{
  "0680000": {
    "zipcode": "0680000",
    "prefectureCode": "01",
    "prefectureNumber": 1,
    "prefecture": "北海道",
    "city": "岩見沢市",
    "town": "以下に掲載がない場合"
  },
  "0680001": {
    "zipcode": "0680001",
    "prefectureCode": "01",
    "prefectureNumber": 1,
    "prefecture": "北海道",
    "city": "岩見沢市",
    "town": "一条東"
  },
  "0680002": {
    "zipcode": "0680002",
    "prefectureCode": "01",
    "prefectureNumber": 1,
    "prefecture": "北海道",
    "city": "岩見沢市",
    "town": "二条東"
  },
  "0680003": {
    "zipcode": "0680003",
    "prefectureCode": "01",
    "prefectureNumber": 1,
    "prefecture": "北海道",
    "city": "岩見沢市",
    "town": "三条東"
  },
  "0680004": {
    "zipcode": "0680004",
    "prefectureCode": "01",
    "prefectureNumber": 1,
    "prefecture": "北海道",
    "city": "岩見沢市",
    "town": "四条東"
  },
  "0680005": {
    "zipcode": "0680005",
    "prefectureCode": "01",
    "prefectureNumber": 1,
    "prefecture": "北海道",
    "city": "岩見沢市",
    "town": "五条東"
  },
  "0680006": {
    "zipcode": "0680006",
    "prefectureCode": "01",
    "prefectureNumber": 1,
    "prefecture": "北海道",
    "city": "岩見沢市",
    "town": "六条東"
  },
  "0680007": {
    "zipcode": "0680007",
    "prefectureCode": "01",
    "prefectureNumber": 1,
    "prefecture": "北海道",
    "city": "岩見沢市",
    "town": "七条東"
  },
  "0680008": {
    "zipcode": "0680008",
    "prefectureCode": "01",
    "prefectureNumber": 1,
    "prefecture": "北海道",
    "city": "岩見沢市",
    "town": "八条東"
  },
  "0680009": {
    "zipcode": "0680009",
    "prefectureCode": "01",
    "prefectureNumber": 1,
    "prefecture": "北海道",
    "city": "岩見沢市",
    "town": "九条東"
  },
  "0680010": {
    "zipcode": "0680010",
    "prefectureCode": "01",
    "prefectureNumber": 1,
    "prefecture": "北海道",
    "city": "岩見沢市",
    "town": "十条東"
  },
  "0680011": {
    "zipcode": "0680011",
    "prefectureCode": "01",
    "prefectureNumber": 1,
    "prefecture": "北海道",
    "city": "岩見沢市",
    "town": "十一条東"
  },
  "0680012": {
    "zipcode": "0680012",
    "prefectureCode": "01",
    "prefectureNumber": 1,
    "prefecture": "北海道",
    "city": "岩見沢市",
    "town": "十二条東"
  },
  "0680013": {
    "zipcode": "0680013",
    "prefectureCode": "01",
    "prefectureNumber": 1,
    "prefecture": "北海道",
    "city": "岩見沢市",
    "town": "東町一条"
  },
  "0680014": {
    "zipcode": "0680014",
    "prefectureCode": "01",
    "prefectureNumber": 1,
    "prefecture": "北海道",
    "city": "岩見沢市",
    "town": "東町二条"
  },
  "0680015": {
    "zipcode": "0680015",
    "prefectureCode": "01",
    "prefectureNumber": 1,
    "prefecture": "北海道",
    "city": "岩見沢市",
    "town": "東町"
  },
  "0680016": {
    "zipcode": "0680016",
    "prefectureCode": "01",
    "prefectureNumber": 1,
    "prefecture": "北海道",
    "city": "岩見沢市",
    "town": "稔町"
  },
  "0680021": {
    "zipcode": "0680021",
    "prefectureCode": "01",
    "prefectureNumber": 1,
    "prefecture": "北海道",
    "city": "岩見沢市",
    "town": "一条西"
  },
  "0680022": {
    "zipcode": "0680022",
    "prefectureCode": "01",
    "prefectureNumber": 1,
    "prefecture": "北海道",
    "city": "岩見沢市",
    "town": "二条西"
  },
  "0680023": {
    "zipcode": "0680023",
    "prefectureCode": "01",
    "prefectureNumber": 1,
    "prefecture": "北海道",
    "city": "岩見沢市",
    "town": "三条西"
  },
  "0680024": {
    "zipcode": "0680024",
    "prefectureCode": "01",
    "prefectureNumber": 1,
    "prefecture": "北海道",
    "city": "岩見沢市",
    "town": "四条西"
  },
  "0680025": {
    "zipcode": "0680025",
    "prefectureCode": "01",
    "prefectureNumber": 1,
    "prefecture": "北海道",
    "city": "岩見沢市",
    "town": "五条西"
  },
  "0680026": {
    "zipcode": "0680026",
    "prefectureCode": "01",
    "prefectureNumber": 1,
    "prefecture": "北海道",
    "city": "岩見沢市",
    "town": "六条西"
  },
  "0680027": {
    "zipcode": "0680027",
    "prefectureCode": "01",
    "prefectureNumber": 1,
    "prefecture": "北海道",
    "city": "岩見沢市",
    "town": "七条西"
  },
  "0680028": {
    "zipcode": "0680028",
    "prefectureCode": "01",
    "prefectureNumber": 1,
    "prefecture": "北海道",
    "city": "岩見沢市",
    "town": "八条西"
  },
  "0680029": {
    "zipcode": "0680029",
    "prefectureCode": "01",
    "prefectureNumber": 1,
    "prefecture": "北海道",
    "city": "岩見沢市",
    "town": "九条西"
  },
  "0680030": {
    "zipcode": "0680030",
    "prefectureCode": "01",
    "prefectureNumber": 1,
    "prefecture": "北海道",
    "city": "岩見沢市",
    "town": "十条西"
  },
  "0680031": {
    "zipcode": "0680031",
    "prefectureCode": "01",
    "prefectureNumber": 1,
    "prefecture": "北海道",
    "city": "岩見沢市",
    "town": "十一条西"
  },
  "0680032": {
    "zipcode": "0680032",
    "prefectureCode": "01",
    "prefectureNumber": 1,
    "prefecture": "北海道",
    "city": "岩見沢市",
    "town": "十二条西"
  },
  "0680033": {
    "zipcode": "0680033",
    "prefectureCode": "01",
    "prefectureNumber": 1,
    "prefecture": "北海道",
    "city": "岩見沢市",
    "town": "十三条西"
  },
  "0680034": {
    "zipcode": "0680034",
    "prefectureCode": "01",
    "prefectureNumber": 1,
    "prefecture": "北海道",
    "city": "岩見沢市",
    "town": "有明町南"
  },
  "0680035": {
    "zipcode": "0680035",
    "prefectureCode": "01",
    "prefectureNumber": 1,
    "prefecture": "北海道",
    "city": "岩見沢市",
    "town": "有明町中央"
  },
  "0680041": {
    "zipcode": "0680041",
    "prefectureCode": "01",
    "prefectureNumber": 1,
    "prefecture": "北海道",
    "city": "岩見沢市",
    "town": "北一条西"
  },
  "0680042": {
    "zipcode": "0680042",
    "prefectureCode": "01",
    "prefectureNumber": 1,
    "prefecture": "北海道",
    "city": "岩見沢市",
    "town": "北二条西"
  },
  "0680043": {
    "zipcode": "0680043",
    "prefectureCode": "01",
    "prefectureNumber": 1,
    "prefecture": "北海道",
    "city": "岩見沢市",
    "town": "北三条西"
  },
  "0680044": {
    "zipcode": "0680044",
    "prefectureCode": "01",
    "prefectureNumber": 1,
    "prefecture": "北海道",
    "city": "岩見沢市",
    "town": "北四条西"
  },
  "0680045": {
    "zipcode": "0680045",
    "prefectureCode": "01",
    "prefectureNumber": 1,
    "prefecture": "北海道",
    "city": "岩見沢市",
    "town": "北五条西"
  },
  "0680046": {
    "zipcode": "0680046",
    "prefectureCode": "01",
    "prefectureNumber": 1,
    "prefecture": "北海道",
    "city": "岩見沢市",
    "town": "緑町"
  },
  "0680047": {
    "zipcode": "0680047",
    "prefectureCode": "01",
    "prefectureNumber": 1,
    "prefecture": "北海道",
    "city": "岩見沢市",
    "town": "若松町"
  },
  "0680048": {
    "zipcode": "0680048",
    "prefectureCode": "01",
    "prefectureNumber": 1,
    "prefecture": "北海道",
    "city": "岩見沢市",
    "town": "西川町"
  },
  "0680051": {
    "zipcode": "0680051",
    "prefectureCode": "01",
    "prefectureNumber": 1,
    "prefecture": "北海道",
    "city": "岩見沢市",
    "town": "元町一条西"
  },
  "0680052": {
    "zipcode": "0680052",
    "prefectureCode": "01",
    "prefectureNumber": 1,
    "prefecture": "北海道",
    "city": "岩見沢市",
    "town": "元町二条西"
  },
  "0680053": {
    "zipcode": "0680053",
    "prefectureCode": "01",
    "prefectureNumber": 1,
    "prefecture": "北海道",
    "city": "岩見沢市",
    "town": "北本町西"
  },
  "0680054": {
    "zipcode": "0680054",
    "prefectureCode": "01",
    "prefectureNumber": 1,
    "prefecture": "北海道",
    "city": "岩見沢市",
    "town": "元町一条東"
  },
  "0680055": {
    "zipcode": "0680055",
    "prefectureCode": "01",
    "prefectureNumber": 1,
    "prefecture": "北海道",
    "city": "岩見沢市",
    "town": "元町二条東"
  },
  "0680056": {
    "zipcode": "0680056",
    "prefectureCode": "01",
    "prefectureNumber": 1,
    "prefecture": "北海道",
    "city": "岩見沢市",
    "town": "元町三条東"
  },
  "0680057": {
    "zipcode": "0680057",
    "prefectureCode": "01",
    "prefectureNumber": 1,
    "prefecture": "北海道",
    "city": "岩見沢市",
    "town": "北本町東"
  },
  "0680058": {
    "zipcode": "0680058",
    "prefectureCode": "01",
    "prefectureNumber": 1,
    "prefecture": "北海道",
    "city": "岩見沢市",
    "town": "桜木一条"
  },
  "0680061": {
    "zipcode": "0680061",
    "prefectureCode": "01",
    "prefectureNumber": 1,
    "prefecture": "北海道",
    "city": "岩見沢市",
    "town": "北六条西"
  },
  "0680101": {
    "zipcode": "0680101",
    "prefectureCode": "01",
    "prefectureNumber": 1,
    "prefecture": "北海道",
    "city": "岩見沢市",
    "town": "栗沢町北斗"
  },
  "0680102": {
    "zipcode": "0680102",
    "prefectureCode": "01",
    "prefectureNumber": 1,
    "prefecture": "北海道",
    "city": "岩見沢市",
    "town": "栗沢町栗部"
  },
  "0680103": {
    "zipcode": "0680103",
    "prefectureCode": "01",
    "prefectureNumber": 1,
    "prefecture": "北海道",
    "city": "岩見沢市",
    "town": "栗沢町砺波"
  },
  "0680104": {
    "zipcode": "0680104",
    "prefectureCode": "01",
    "prefectureNumber": 1,
    "prefecture": "北海道",
    "city": "岩見沢市",
    "town": "栗沢町耕成"
  },
  "0680105": {
    "zipcode": "0680105",
    "prefectureCode": "01",
    "prefectureNumber": 1,
    "prefecture": "北海道",
    "city": "岩見沢市",
    "town": "栗沢町自協"
  },
  "0680106": {
    "zipcode": "0680106",
    "prefectureCode": "01",
    "prefectureNumber": 1,
    "prefecture": "北海道",
    "city": "岩見沢市",
    "town": "栗沢町越前"
  },
  "0680111": {
    "zipcode": "0680111",
    "prefectureCode": "01",
    "prefectureNumber": 1,
    "prefecture": "北海道",
    "city": "岩見沢市",
    "town": "栗沢町由良"
  },
  "0680112": {
    "zipcode": "0680112",
    "prefectureCode": "01",
    "prefectureNumber": 1,
    "prefecture": "北海道",
    "city": "岩見沢市",
    "town": "栗沢町上幌"
  },
  "0680113": {
    "zipcode": "0680113",
    "prefectureCode": "01",
    "prefectureNumber": 1,
    "prefecture": "北海道",
    "city": "岩見沢市",
    "town": "栗沢町宮村（その他）"
  },
  "0680114": {
    "zipcode": "0680114",
    "prefectureCode": "01",
    "prefectureNumber": 1,
    "prefecture": "北海道",
    "city": "岩見沢市",
    "town": "栗沢町茂世丑"
  },
  "0680115": {
    "zipcode": "0680115",
    "prefectureCode": "01",
    "prefectureNumber": 1,
    "prefecture": "北海道",
    "city": "岩見沢市",
    "town": "栗沢町最上"
  },
  "0680121": {
    "zipcode": "0680121",
    "prefectureCode": "01",
    "prefectureNumber": 1,
    "prefecture": "北海道",
    "city": "岩見沢市",
    "town": "栗沢町北本町"
  },
  "0680122": {
    "zipcode": "0680122",
    "prefectureCode": "01",
    "prefectureNumber": 1,
    "prefecture": "北海道",
    "city": "岩見沢市",
    "town": "栗沢町北幸穂"
  },
  "0680123": {
    "zipcode": "0680123",
    "prefectureCode": "01",
    "prefectureNumber": 1,
    "prefecture": "北海道",
    "city": "岩見沢市",
    "town": "栗沢町東本町"
  },
  "0680124": {
    "zipcode": "0680124",
    "prefectureCode": "01",
    "prefectureNumber": 1,
    "prefecture": "北海道",
    "city": "岩見沢市",
    "town": "栗沢町幸穂町"
  },
  "0680125": {
    "zipcode": "0680125",
    "prefectureCode": "01",
    "prefectureNumber": 1,
    "prefecture": "北海道",
    "city": "岩見沢市",
    "town": "栗沢町南本町"
  },
  "0680126": {
    "zipcode": "0680126",
    "prefectureCode": "01",
    "prefectureNumber": 1,
    "prefecture": "北海道",
    "city": "岩見沢市",
    "town": "栗沢町西本町"
  },
  "0680127": {
    "zipcode": "0680127",
    "prefectureCode": "01",
    "prefectureNumber": 1,
    "prefecture": "北海道",
    "city": "岩見沢市",
    "town": "栗沢町本町"
  },
  "0680131": {
    "zipcode": "0680131",
    "prefectureCode": "01",
    "prefectureNumber": 1,
    "prefecture": "北海道",
    "city": "岩見沢市",
    "town": "栗沢町小西"
  },
  "0680132": {
    "zipcode": "0680132",
    "prefectureCode": "01",
    "prefectureNumber": 1,
    "prefecture": "北海道",
    "city": "岩見沢市",
    "town": "栗沢町南幸穂"
  },
  "0680133": {
    "zipcode": "0680133",
    "prefectureCode": "01",
    "prefectureNumber": 1,
    "prefecture": "北海道",
    "city": "岩見沢市",
    "town": "栗沢町加茂川"
  },
  "0680134": {
    "zipcode": "0680134",
    "prefectureCode": "01",
    "prefectureNumber": 1,
    "prefecture": "北海道",
    "city": "岩見沢市",
    "town": "栗沢町栗丘"
  },
  "0680135": {
    "zipcode": "0680135",
    "prefectureCode": "01",
    "prefectureNumber": 1,
    "prefecture": "北海道",
    "city": "岩見沢市",
    "town": "栗沢町岐阜"
  },
  "0680136": {
    "zipcode": "0680136",
    "prefectureCode": "01",
    "prefectureNumber": 1,
    "prefecture": "北海道",
    "city": "岩見沢市",
    "town": "栗沢町必成"
  },
  "0680351": {
    "zipcode": "0680351",
    "prefectureCode": "01",
    "prefectureNumber": 1,
    "prefecture": "北海道",
    "city": "夕張郡栗山町",
    "town": "阿野呂"
  },
  "0680352": {
    "zipcode": "0680352",
    "prefectureCode": "01",
    "prefectureNumber": 1,
    "prefecture": "北海道",
    "city": "夕張郡栗山町",
    "town": "大井分"
  },
  "0680353": {
    "zipcode": "0680353",
    "prefectureCode": "01",
    "prefectureNumber": 1,
    "prefecture": "北海道",
    "city": "夕張郡栗山町",
    "town": "継立"
  },
  "0680354": {
    "zipcode": "0680354",
    "prefectureCode": "01",
    "prefectureNumber": 1,
    "prefecture": "北海道",
    "city": "夕張郡栗山町",
    "town": "日出"
  },
  "0680355": {
    "zipcode": "0680355",
    "prefectureCode": "01",
    "prefectureNumber": 1,
    "prefecture": "北海道",
    "city": "夕張郡栗山町",
    "town": "御園"
  },
  "0680356": {
    "zipcode": "0680356",
    "prefectureCode": "01",
    "prefectureNumber": 1,
    "prefecture": "北海道",
    "city": "夕張郡栗山町",
    "town": "南角田"
  },
  "0680357": {
    "zipcode": "0680357",
    "prefectureCode": "01",
    "prefectureNumber": 1,
    "prefecture": "北海道",
    "city": "夕張郡栗山町",
    "town": "南学田"
  },
  "0680358": {
    "zipcode": "0680358",
    "prefectureCode": "01",
    "prefectureNumber": 1,
    "prefecture": "北海道",
    "city": "夕張郡栗山町",
    "town": "桜山（２００、２６９番地）"
  },
  "0680361": {
    "zipcode": "0680361",
    "prefectureCode": "01",
    "prefectureNumber": 1,
    "prefecture": "北海道",
    "city": "夕張郡栗山町",
    "town": "滝下"
  },
  "0680362": {
    "zipcode": "0680362",
    "prefectureCode": "01",
    "prefectureNumber": 1,
    "prefecture": "北海道",
    "city": "夕張郡栗山町",
    "town": "円山"
  },
  "0680363": {
    "zipcode": "0680363",
    "prefectureCode": "01",
    "prefectureNumber": 1,
    "prefecture": "北海道",
    "city": "夕張郡栗山町",
    "town": "円山東山"
  },
  "0680400": {
    "zipcode": "0680400",
    "prefectureCode": "01",
    "prefectureNumber": 1,
    "prefecture": "北海道",
    "city": "夕張市",
    "town": "以下に掲載がない場合"
  },
  "0680401": {
    "zipcode": "0680401",
    "prefectureCode": "01",
    "prefectureNumber": 1,
    "prefecture": "北海道",
    "city": "夕張市",
    "town": "高松"
  },
  "0680402": {
    "zipcode": "0680402",
    "prefectureCode": "01",
    "prefectureNumber": 1,
    "prefecture": "北海道",
    "city": "夕張市",
    "town": "社光"
  },
  "0680403": {
    "zipcode": "0680403",
    "prefectureCode": "01",
    "prefectureNumber": 1,
    "prefecture": "北海道",
    "city": "夕張市",
    "town": "本町"
  },
  "0680404": {
    "zipcode": "0680404",
    "prefectureCode": "01",
    "prefectureNumber": 1,
    "prefecture": "北海道",
    "city": "夕張市",
    "town": "昭和"
  },
  "0680405": {
    "zipcode": "0680405",
    "prefectureCode": "01",
    "prefectureNumber": 1,
    "prefecture": "北海道",
    "city": "夕張市",
    "town": "旭町"
  },
  "0680406": {
    "zipcode": "0680406",
    "prefectureCode": "01",
    "prefectureNumber": 1,
    "prefecture": "北海道",
    "city": "夕張市",
    "town": "住初"
  },
  "0680407": {
    "zipcode": "0680407",
    "prefectureCode": "01",
    "prefectureNumber": 1,
    "prefecture": "北海道",
    "city": "夕張市",
    "town": "福住"
  },
  "0680408": {
    "zipcode": "0680408",
    "prefectureCode": "01",
    "prefectureNumber": 1,
    "prefecture": "北海道",
    "city": "夕張市",
    "town": "富岡"
  },
  "0680409": {
    "zipcode": "0680409",
    "prefectureCode": "01",
    "prefectureNumber": 1,
    "prefecture": "北海道",
    "city": "夕張市",
    "town": "丁未"
  },
  "0680411": {
    "zipcode": "0680411",
    "prefectureCode": "01",
    "prefectureNumber": 1,
    "prefecture": "北海道",
    "city": "夕張市",
    "town": "末広"
  },
  "0680412": {
    "zipcode": "0680412",
    "prefectureCode": "01",
    "prefectureNumber": 1,
    "prefecture": "北海道",
    "city": "夕張市",
    "town": "鹿の谷東丘町"
  },
  "0680413": {
    "zipcode": "0680413",
    "prefectureCode": "01",
    "prefectureNumber": 1,
    "prefecture": "北海道",
    "city": "夕張市",
    "town": "鹿の谷"
  },
  "0680414": {
    "zipcode": "0680414",
    "prefectureCode": "01",
    "prefectureNumber": 1,
    "prefecture": "北海道",
    "city": "夕張市",
    "town": "鹿の谷山手町"
  },
  "0680421": {
    "zipcode": "0680421",
    "prefectureCode": "01",
    "prefectureNumber": 1,
    "prefecture": "北海道",
    "city": "夕張市",
    "town": "常盤"
  },
  "0680422": {
    "zipcode": "0680422",
    "prefectureCode": "01",
    "prefectureNumber": 1,
    "prefecture": "北海道",
    "city": "夕張市",
    "town": "日吉"
  },
  "0680423": {
    "zipcode": "0680423",
    "prefectureCode": "01",
    "prefectureNumber": 1,
    "prefecture": "北海道",
    "city": "夕張市",
    "town": "平和"
  },
  "0680424": {
    "zipcode": "0680424",
    "prefectureCode": "01",
    "prefectureNumber": 1,
    "prefecture": "北海道",
    "city": "夕張市",
    "town": "千代田"
  },
  "0680425": {
    "zipcode": "0680425",
    "prefectureCode": "01",
    "prefectureNumber": 1,
    "prefecture": "北海道",
    "city": "夕張市",
    "town": "若菜"
  },
  "0680426": {
    "zipcode": "0680426",
    "prefectureCode": "01",
    "prefectureNumber": 1,
    "prefecture": "北海道",
    "city": "夕張市",
    "town": "富野"
  },
  "0680531": {
    "zipcode": "0680531",
    "prefectureCode": "01",
    "prefectureNumber": 1,
    "prefecture": "北海道",
    "city": "夕張市",
    "town": "清水沢"
  },
  "0680532": {
    "zipcode": "0680532",
    "prefectureCode": "01",
    "prefectureNumber": 1,
    "prefecture": "北海道",
    "city": "夕張市",
    "town": "清水沢清栄町"
  },
  "0680533": {
    "zipcode": "0680533",
    "prefectureCode": "01",
    "prefectureNumber": 1,
    "prefecture": "北海道",
    "city": "夕張市",
    "town": "清水沢清湖町"
  },
  "0680534": {
    "zipcode": "0680534",
    "prefectureCode": "01",
    "prefectureNumber": 1,
    "prefecture": "北海道",
    "city": "夕張市",
    "town": "清水沢宮前町"
  },
  "0680535": {
    "zipcode": "0680535",
    "prefectureCode": "01",
    "prefectureNumber": 1,
    "prefecture": "北海道",
    "city": "夕張市",
    "town": "清水沢清陵町"
  },
  "0680536": {
    "zipcode": "0680536",
    "prefectureCode": "01",
    "prefectureNumber": 1,
    "prefecture": "北海道",
    "city": "夕張市",
    "town": "南清水沢"
  },
  "0680540": {
    "zipcode": "0680540",
    "prefectureCode": "01",
    "prefectureNumber": 1,
    "prefecture": "北海道",
    "city": "夕張市",
    "town": "南部住の江町"
  },
  "0680541": {
    "zipcode": "0680541",
    "prefectureCode": "01",
    "prefectureNumber": 1,
    "prefecture": "北海道",
    "city": "夕張市",
    "town": "南部遠幌町"
  },
  "0680542": {
    "zipcode": "0680542",
    "prefectureCode": "01",
    "prefectureNumber": 1,
    "prefecture": "北海道",
    "city": "夕張市",
    "town": "南部夕南町"
  },
  "0680543": {
    "zipcode": "0680543",
    "prefectureCode": "01",
    "prefectureNumber": 1,
    "prefecture": "北海道",
    "city": "夕張市",
    "town": "南部若美町"
  },
  "0680544": {
    "zipcode": "0680544",
    "prefectureCode": "01",
    "prefectureNumber": 1,
    "prefecture": "北海道",
    "city": "夕張市",
    "town": "南部大宮町"
  },
  "0680545": {
    "zipcode": "0680545",
    "prefectureCode": "01",
    "prefectureNumber": 1,
    "prefecture": "北海道",
    "city": "夕張市",
    "town": "南部東町"
  },
  "0680546": {
    "zipcode": "0680546",
    "prefectureCode": "01",
    "prefectureNumber": 1,
    "prefecture": "北海道",
    "city": "夕張市",
    "town": "南部菊水町"
  },
  "0680547": {
    "zipcode": "0680547",
    "prefectureCode": "01",
    "prefectureNumber": 1,
    "prefecture": "北海道",
    "city": "夕張市",
    "town": "南部新光町"
  },
  "0680548": {
    "zipcode": "0680548",
    "prefectureCode": "01",
    "prefectureNumber": 1,
    "prefecture": "北海道",
    "city": "夕張市",
    "town": "南部幌南町"
  },
  "0680549": {
    "zipcode": "0680549",
    "prefectureCode": "01",
    "prefectureNumber": 1,
    "prefecture": "北海道",
    "city": "夕張市",
    "town": "南部岳見町"
  },
  "0680661": {
    "zipcode": "0680661",
    "prefectureCode": "01",
    "prefectureNumber": 1,
    "prefecture": "北海道",
    "city": "夕張市",
    "town": "鹿島白金"
  },
  "0680662": {
    "zipcode": "0680662",
    "prefectureCode": "01",
    "prefectureNumber": 1,
    "prefecture": "北海道",
    "city": "夕張市",
    "town": "鹿島明石町"
  },
  "0680663": {
    "zipcode": "0680663",
    "prefectureCode": "01",
    "prefectureNumber": 1,
    "prefecture": "北海道",
    "city": "夕張市",
    "town": "鹿島千年町"
  },
  "0680664": {
    "zipcode": "0680664",
    "prefectureCode": "01",
    "prefectureNumber": 1,
    "prefecture": "北海道",
    "city": "夕張市",
    "town": "鹿島錦町"
  },
  "0680665": {
    "zipcode": "0680665",
    "prefectureCode": "01",
    "prefectureNumber": 1,
    "prefecture": "北海道",
    "city": "夕張市",
    "town": "鹿島宝町"
  },
  "0680671": {
    "zipcode": "0680671",
    "prefectureCode": "01",
    "prefectureNumber": 1,
    "prefecture": "北海道",
    "city": "夕張市",
    "town": "鹿島緑町"
  },
  "0680672": {
    "zipcode": "0680672",
    "prefectureCode": "01",
    "prefectureNumber": 1,
    "prefecture": "北海道",
    "city": "夕張市",
    "town": "鹿島富士見町"
  },
  "0680673": {
    "zipcode": "0680673",
    "prefectureCode": "01",
    "prefectureNumber": 1,
    "prefecture": "北海道",
    "city": "夕張市",
    "town": "鹿島栄町"
  },
  "0680674": {
    "zipcode": "0680674",
    "prefectureCode": "01",
    "prefectureNumber": 1,
    "prefecture": "北海道",
    "city": "夕張市",
    "town": "鹿島代々木町"
  },
  "0680675": {
    "zipcode": "0680675",
    "prefectureCode": "01",
    "prefectureNumber": 1,
    "prefecture": "北海道",
    "city": "夕張市",
    "town": "鹿島北栄町"
  },
  "0680751": {
    "zipcode": "0680751",
    "prefectureCode": "01",
    "prefectureNumber": 1,
    "prefecture": "北海道",
    "city": "夕張市",
    "town": "沼ノ沢"
  },
  "0680752": {
    "zipcode": "0680752",
    "prefectureCode": "01",
    "prefectureNumber": 1,
    "prefecture": "北海道",
    "city": "夕張市",
    "town": "真谷地"
  },
  "0680753": {
    "zipcode": "0680753",
    "prefectureCode": "01",
    "prefectureNumber": 1,
    "prefecture": "北海道",
    "city": "夕張市",
    "town": "登川"
  },
  "0680754": {
    "zipcode": "0680754",
    "prefectureCode": "01",
    "prefectureNumber": 1,
    "prefecture": "北海道",
    "city": "夕張市",
    "town": "楓"
  },
  "0680755": {
    "zipcode": "0680755",
    "prefectureCode": "01",
    "prefectureNumber": 1,
    "prefecture": "北海道",
    "city": "夕張市",
    "town": "紅葉山"
  },
  "0680756": {
    "zipcode": "0680756",
    "prefectureCode": "01",
    "prefectureNumber": 1,
    "prefecture": "北海道",
    "city": "夕張市",
    "town": "滝ノ上"
  },
  "0680801": {
    "zipcode": "0680801",
    "prefectureCode": "01",
    "prefectureNumber": 1,
    "prefecture": "北海道",
    "city": "岩見沢市",
    "town": "南町一条"
  },
  "0680802": {
    "zipcode": "0680802",
    "prefectureCode": "01",
    "prefectureNumber": 1,
    "prefecture": "北海道",
    "city": "岩見沢市",
    "town": "南町二条"
  },
  "0680803": {
    "zipcode": "0680803",
    "prefectureCode": "01",
    "prefectureNumber": 1,
    "prefecture": "北海道",
    "city": "岩見沢市",
    "town": "南町三条"
  },
  "0680804": {
    "zipcode": "0680804",
    "prefectureCode": "01",
    "prefectureNumber": 1,
    "prefecture": "北海道",
    "city": "岩見沢市",
    "town": "南町四条"
  },
  "0680805": {
    "zipcode": "0680805",
    "prefectureCode": "01",
    "prefectureNumber": 1,
    "prefecture": "北海道",
    "city": "岩見沢市",
    "town": "南町五条"
  },
  "0680806": {
    "zipcode": "0680806",
    "prefectureCode": "01",
    "prefectureNumber": 1,
    "prefecture": "北海道",
    "city": "岩見沢市",
    "town": "南町六条"
  },
  "0680807": {
    "zipcode": "0680807",
    "prefectureCode": "01",
    "prefectureNumber": 1,
    "prefecture": "北海道",
    "city": "岩見沢市",
    "town": "南町七条"
  },
  "0680808": {
    "zipcode": "0680808",
    "prefectureCode": "01",
    "prefectureNumber": 1,
    "prefecture": "北海道",
    "city": "岩見沢市",
    "town": "南町八条"
  },
  "0680809": {
    "zipcode": "0680809",
    "prefectureCode": "01",
    "prefectureNumber": 1,
    "prefecture": "北海道",
    "city": "岩見沢市",
    "town": "南町九条"
  },
  "0680810": {
    "zipcode": "0680810",
    "prefectureCode": "01",
    "prefectureNumber": 1,
    "prefecture": "北海道",
    "city": "岩見沢市",
    "town": "南町"
  },
  "0680811": {
    "zipcode": "0680811",
    "prefectureCode": "01",
    "prefectureNumber": 1,
    "prefecture": "北海道",
    "city": "岩見沢市",
    "town": "美園一条"
  },
  "0680812": {
    "zipcode": "0680812",
    "prefectureCode": "01",
    "prefectureNumber": 1,
    "prefecture": "北海道",
    "city": "岩見沢市",
    "town": "美園二条"
  },
  "0680813": {
    "zipcode": "0680813",
    "prefectureCode": "01",
    "prefectureNumber": 1,
    "prefecture": "北海道",
    "city": "岩見沢市",
    "town": "美園三条"
  },
  "0680814": {
    "zipcode": "0680814",
    "prefectureCode": "01",
    "prefectureNumber": 1,
    "prefecture": "北海道",
    "city": "岩見沢市",
    "town": "美園四条"
  },
  "0680815": {
    "zipcode": "0680815",
    "prefectureCode": "01",
    "prefectureNumber": 1,
    "prefecture": "北海道",
    "city": "岩見沢市",
    "town": "美園五条"
  },
  "0680816": {
    "zipcode": "0680816",
    "prefectureCode": "01",
    "prefectureNumber": 1,
    "prefecture": "北海道",
    "city": "岩見沢市",
    "town": "美園六条"
  },
  "0680817": {
    "zipcode": "0680817",
    "prefectureCode": "01",
    "prefectureNumber": 1,
    "prefecture": "北海道",
    "city": "岩見沢市",
    "town": "美園七条"
  },
  "0680818": {
    "zipcode": "0680818",
    "prefectureCode": "01",
    "prefectureNumber": 1,
    "prefecture": "北海道",
    "city": "岩見沢市",
    "town": "並木町"
  },
  "0680820": {
    "zipcode": "0680820",
    "prefectureCode": "01",
    "prefectureNumber": 1,
    "prefecture": "北海道",
    "city": "岩見沢市",
    "town": "東山"
  },
  "0680821": {
    "zipcode": "0680821",
    "prefectureCode": "01",
    "prefectureNumber": 1,
    "prefecture": "北海道",
    "city": "岩見沢市",
    "town": "栄町"
  },
  "0680822": {
    "zipcode": "0680822",
    "prefectureCode": "01",
    "prefectureNumber": 1,
    "prefecture": "北海道",
    "city": "岩見沢市",
    "town": "日の出台"
  },
  "0680823": {
    "zipcode": "0680823",
    "prefectureCode": "01",
    "prefectureNumber": 1,
    "prefecture": "北海道",
    "city": "岩見沢市",
    "town": "日の出南"
  },
  "0680824": {
    "zipcode": "0680824",
    "prefectureCode": "01",
    "prefectureNumber": 1,
    "prefecture": "北海道",
    "city": "岩見沢市",
    "town": "日の出北"
  },
  "0680825": {
    "zipcode": "0680825",
    "prefectureCode": "01",
    "prefectureNumber": 1,
    "prefecture": "北海道",
    "city": "岩見沢市",
    "town": "日の出町"
  },
  "0680826": {
    "zipcode": "0680826",
    "prefectureCode": "01",
    "prefectureNumber": 1,
    "prefecture": "北海道",
    "city": "岩見沢市",
    "town": "東山町"
  },
  "0680827": {
    "zipcode": "0680827",
    "prefectureCode": "01",
    "prefectureNumber": 1,
    "prefecture": "北海道",
    "city": "岩見沢市",
    "town": "春日町"
  },
  "0680828": {
    "zipcode": "0680828",
    "prefectureCode": "01",
    "prefectureNumber": 1,
    "prefecture": "北海道",
    "city": "岩見沢市",
    "town": "鳩が丘"
  },
  "0680829": {
    "zipcode": "0680829",
    "prefectureCode": "01",
    "prefectureNumber": 1,
    "prefecture": "北海道",
    "city": "岩見沢市",
    "town": "かえで町"
  },
  "0680830": {
    "zipcode": "0680830",
    "prefectureCode": "01",
    "prefectureNumber": 1,
    "prefecture": "北海道",
    "city": "岩見沢市",
    "town": "若駒"
  },
  "0680831": {
    "zipcode": "0680831",
    "prefectureCode": "01",
    "prefectureNumber": 1,
    "prefecture": "北海道",
    "city": "岩見沢市",
    "town": "ふじ町一条"
  },
  "0680832": {
    "zipcode": "0680832",
    "prefectureCode": "01",
    "prefectureNumber": 1,
    "prefecture": "北海道",
    "city": "岩見沢市",
    "town": "ふじ町二条"
  },
  "0680833": {
    "zipcode": "0680833",
    "prefectureCode": "01",
    "prefectureNumber": 1,
    "prefecture": "北海道",
    "city": "岩見沢市",
    "town": "志文町"
  },
  "0680834": {
    "zipcode": "0680834",
    "prefectureCode": "01",
    "prefectureNumber": 1,
    "prefecture": "北海道",
    "city": "岩見沢市",
    "town": "駒園"
  },
  "0680835": {
    "zipcode": "0680835",
    "prefectureCode": "01",
    "prefectureNumber": 1,
    "prefecture": "北海道",
    "city": "岩見沢市",
    "town": "緑が丘"
  },
  "0680836": {
    "zipcode": "0680836",
    "prefectureCode": "01",
    "prefectureNumber": 1,
    "prefecture": "北海道",
    "city": "岩見沢市",
    "town": "上志文町"
  },
  "0680837": {
    "zipcode": "0680837",
    "prefectureCode": "01",
    "prefectureNumber": 1,
    "prefecture": "北海道",
    "city": "岩見沢市",
    "town": "宝水町"
  },
  "0680841": {
    "zipcode": "0680841",
    "prefectureCode": "01",
    "prefectureNumber": 1,
    "prefecture": "北海道",
    "city": "岩見沢市",
    "town": "志文本町一条"
  },
  "0680842": {
    "zipcode": "0680842",
    "prefectureCode": "01",
    "prefectureNumber": 1,
    "prefecture": "北海道",
    "city": "岩見沢市",
    "town": "志文本町二条"
  },
  "0680843": {
    "zipcode": "0680843",
    "prefectureCode": "01",
    "prefectureNumber": 1,
    "prefecture": "北海道",
    "city": "岩見沢市",
    "town": "志文本町三条"
  },
  "0680844": {
    "zipcode": "0680844",
    "prefectureCode": "01",
    "prefectureNumber": 1,
    "prefecture": "北海道",
    "city": "岩見沢市",
    "town": "志文本町四条"
  },
  "0680845": {
    "zipcode": "0680845",
    "prefectureCode": "01",
    "prefectureNumber": 1,
    "prefecture": "北海道",
    "city": "岩見沢市",
    "town": "志文本町五条"
  },
  "0680846": {
    "zipcode": "0680846",
    "prefectureCode": "01",
    "prefectureNumber": 1,
    "prefecture": "北海道",
    "city": "岩見沢市",
    "town": "下志文町"
  },
  "0680847": {
    "zipcode": "0680847",
    "prefectureCode": "01",
    "prefectureNumber": 1,
    "prefecture": "北海道",
    "city": "岩見沢市",
    "town": "金子町"
  },
  "0680851": {
    "zipcode": "0680851",
    "prefectureCode": "01",
    "prefectureNumber": 1,
    "prefecture": "北海道",
    "city": "岩見沢市",
    "town": "大和一条"
  },
  "0680852": {
    "zipcode": "0680852",
    "prefectureCode": "01",
    "prefectureNumber": 1,
    "prefecture": "北海道",
    "city": "岩見沢市",
    "town": "大和二条"
  },
  "0680853": {
    "zipcode": "0680853",
    "prefectureCode": "01",
    "prefectureNumber": 1,
    "prefecture": "北海道",
    "city": "岩見沢市",
    "town": "大和三条"
  },
  "0680854": {
    "zipcode": "0680854",
    "prefectureCode": "01",
    "prefectureNumber": 1,
    "prefecture": "北海道",
    "city": "岩見沢市",
    "town": "大和四条"
  },
  "0680855": {
    "zipcode": "0680855",
    "prefectureCode": "01",
    "prefectureNumber": 1,
    "prefecture": "北海道",
    "city": "岩見沢市",
    "town": "大和町"
  },
  "0681100": {
    "zipcode": "0681100",
    "prefectureCode": "01",
    "prefectureNumber": 1,
    "prefecture": "北海道",
    "city": "石狩郡新篠津村",
    "town": "以下に掲載がない場合"
  },
  "0681101": {
    "zipcode": "0681101",
    "prefectureCode": "01",
    "prefectureNumber": 1,
    "prefecture": "北海道",
    "city": "石狩郡新篠津村",
    "town": "萌出"
  },
  "0681102": {
    "zipcode": "0681102",
    "prefectureCode": "01",
    "prefectureNumber": 1,
    "prefecture": "北海道",
    "city": "石狩郡新篠津村",
    "town": "いなほ"
  },
  "0681103": {
    "zipcode": "0681103",
    "prefectureCode": "01",
    "prefectureNumber": 1,
    "prefecture": "北海道",
    "city": "石狩郡新篠津村",
    "town": "西の里"
  },
  "0681104": {
    "zipcode": "0681104",
    "prefectureCode": "01",
    "prefectureNumber": 1,
    "prefecture": "北海道",
    "city": "石狩郡新篠津村",
    "town": "かつら"
  },
  "0681105": {
    "zipcode": "0681105",
    "prefectureCode": "01",
    "prefectureNumber": 1,
    "prefecture": "北海道",
    "city": "石狩郡新篠津村",
    "town": "みのり"
  },
  "0681111": {
    "zipcode": "0681111",
    "prefectureCode": "01",
    "prefectureNumber": 1,
    "prefecture": "北海道",
    "city": "石狩郡新篠津村",
    "town": "東明"
  },
  "0681112": {
    "zipcode": "0681112",
    "prefectureCode": "01",
    "prefectureNumber": 1,
    "prefecture": "北海道",
    "city": "石狩郡新篠津村",
    "town": "あけぼの"
  },
  "0681113": {
    "zipcode": "0681113",
    "prefectureCode": "01",
    "prefectureNumber": 1,
    "prefecture": "北海道",
    "city": "石狩郡新篠津村",
    "town": "ふらわ"
  },
  "0681114": {
    "zipcode": "0681114",
    "prefectureCode": "01",
    "prefectureNumber": 1,
    "prefecture": "北海道",
    "city": "石狩郡新篠津村",
    "town": "南ケ丘"
  },
  "0681115": {
    "zipcode": "0681115",
    "prefectureCode": "01",
    "prefectureNumber": 1,
    "prefecture": "北海道",
    "city": "石狩郡新篠津村",
    "town": "みずほ"
  },
  "0681116": {
    "zipcode": "0681116",
    "prefectureCode": "01",
    "prefectureNumber": 1,
    "prefecture": "北海道",
    "city": "石狩郡新篠津村",
    "town": "上達布"
  },
  "0681121": {
    "zipcode": "0681121",
    "prefectureCode": "01",
    "prefectureNumber": 1,
    "prefecture": "北海道",
    "city": "石狩郡新篠津村",
    "town": "新湧"
  },
  "0681122": {
    "zipcode": "0681122",
    "prefectureCode": "01",
    "prefectureNumber": 1,
    "prefecture": "北海道",
    "city": "石狩郡新篠津村",
    "town": "北新"
  },
  "0681123": {
    "zipcode": "0681123",
    "prefectureCode": "01",
    "prefectureNumber": 1,
    "prefecture": "北海道",
    "city": "石狩郡新篠津村",
    "town": "川上"
  },
  "0681124": {
    "zipcode": "0681124",
    "prefectureCode": "01",
    "prefectureNumber": 1,
    "prefecture": "北海道",
    "city": "石狩郡新篠津村",
    "town": "高倉"
  },
  "0681125": {
    "zipcode": "0681125",
    "prefectureCode": "01",
    "prefectureNumber": 1,
    "prefecture": "北海道",
    "city": "石狩郡新篠津村",
    "town": "上篠津"
  },
  "0681126": {
    "zipcode": "0681126",
    "prefectureCode": "01",
    "prefectureNumber": 1,
    "prefecture": "北海道",
    "city": "石狩郡新篠津村",
    "town": "豊ケ丘"
  },
  "0681127": {
    "zipcode": "0681127",
    "prefectureCode": "01",
    "prefectureNumber": 1,
    "prefecture": "北海道",
    "city": "石狩郡新篠津村",
    "town": "沼之端"
  },
  "0681131": {
    "zipcode": "0681131",
    "prefectureCode": "01",
    "prefectureNumber": 1,
    "prefecture": "北海道",
    "city": "石狩郡新篠津村",
    "town": "基線"
  },
  "0681132": {
    "zipcode": "0681132",
    "prefectureCode": "01",
    "prefectureNumber": 1,
    "prefecture": "北海道",
    "city": "石狩郡新篠津村",
    "town": "豊野"
  },
  "0681133": {
    "zipcode": "0681133",
    "prefectureCode": "01",
    "prefectureNumber": 1,
    "prefecture": "北海道",
    "city": "石狩郡新篠津村",
    "town": "平安"
  },
  "0681134": {
    "zipcode": "0681134",
    "prefectureCode": "01",
    "prefectureNumber": 1,
    "prefecture": "北海道",
    "city": "石狩郡新篠津村",
    "town": "宍粟"
  },
  "0681135": {
    "zipcode": "0681135",
    "prefectureCode": "01",
    "prefectureNumber": 1,
    "prefecture": "北海道",
    "city": "石狩郡新篠津村",
    "town": "袋達布"
  },
  "0681136": {
    "zipcode": "0681136",
    "prefectureCode": "01",
    "prefectureNumber": 1,
    "prefecture": "北海道",
    "city": "石狩郡新篠津村",
    "town": "下達布"
  },
  "0681137": {
    "zipcode": "0681137",
    "prefectureCode": "01",
    "prefectureNumber": 1,
    "prefecture": "北海道",
    "city": "石狩郡新篠津村",
    "town": "中篠津"
  },
  "0681138": {
    "zipcode": "0681138",
    "prefectureCode": "01",
    "prefectureNumber": 1,
    "prefecture": "北海道",
    "city": "石狩郡新篠津村",
    "town": "新西篠津"
  },
  "0681141": {
    "zipcode": "0681141",
    "prefectureCode": "01",
    "prefectureNumber": 1,
    "prefecture": "北海道",
    "city": "石狩郡新篠津村",
    "town": "西篠津"
  },
  "0681142": {
    "zipcode": "0681142",
    "prefectureCode": "01",
    "prefectureNumber": 1,
    "prefecture": "北海道",
    "city": "石狩郡新篠津村",
    "town": "新樺"
  },
  "0681143": {
    "zipcode": "0681143",
    "prefectureCode": "01",
    "prefectureNumber": 1,
    "prefecture": "北海道",
    "city": "石狩郡新篠津村",
    "town": "武田"
  },
  "0681144": {
    "zipcode": "0681144",
    "prefectureCode": "01",
    "prefectureNumber": 1,
    "prefecture": "北海道",
    "city": "石狩郡新篠津村",
    "town": "拓新"
  },
  "0681145": {
    "zipcode": "0681145",
    "prefectureCode": "01",
    "prefectureNumber": 1,
    "prefecture": "北海道",
    "city": "石狩郡新篠津村",
    "town": "西高倉"
  },
  "0681146": {
    "zipcode": "0681146",
    "prefectureCode": "01",
    "prefectureNumber": 1,
    "prefecture": "北海道",
    "city": "石狩郡新篠津村",
    "town": "新高倉"
  },
  "0681151": {
    "zipcode": "0681151",
    "prefectureCode": "01",
    "prefectureNumber": 1,
    "prefecture": "北海道",
    "city": "石狩郡新篠津村",
    "town": "西原"
  },
  "0681152": {
    "zipcode": "0681152",
    "prefectureCode": "01",
    "prefectureNumber": 1,
    "prefecture": "北海道",
    "city": "石狩郡新篠津村",
    "town": "川下"
  },
  "0681153": {
    "zipcode": "0681153",
    "prefectureCode": "01",
    "prefectureNumber": 1,
    "prefecture": "北海道",
    "city": "石狩郡新篠津村",
    "town": "中原"
  },
  "0681161": {
    "zipcode": "0681161",
    "prefectureCode": "01",
    "prefectureNumber": 1,
    "prefecture": "北海道",
    "city": "岩見沢市",
    "town": "北村北都（新中島）"
  },
  "0681201": {
    "zipcode": "0681201",
    "prefectureCode": "01",
    "prefectureNumber": 1,
    "prefecture": "北海道",
    "city": "岩見沢市",
    "town": "北村豊正"
  },
  "0681202": {
    "zipcode": "0681202",
    "prefectureCode": "01",
    "prefectureNumber": 1,
    "prefecture": "北海道",
    "city": "岩見沢市",
    "town": "北村中小屋"
  },
  "0681203": {
    "zipcode": "0681203",
    "prefectureCode": "01",
    "prefectureNumber": 1,
    "prefecture": "北海道",
    "city": "岩見沢市",
    "town": "北村大願"
  },
  "0681204": {
    "zipcode": "0681204",
    "prefectureCode": "01",
    "prefectureNumber": 1,
    "prefecture": "北海道",
    "city": "岩見沢市",
    "town": "北村栄町"
  },
  "0681205": {
    "zipcode": "0681205",
    "prefectureCode": "01",
    "prefectureNumber": 1,
    "prefecture": "北海道",
    "city": "岩見沢市",
    "town": "北村豊里"
  },
  "0681211": {
    "zipcode": "0681211",
    "prefectureCode": "01",
    "prefectureNumber": 1,
    "prefecture": "北海道",
    "city": "岩見沢市",
    "town": "北村北都（その他）"
  },
  "0681212": {
    "zipcode": "0681212",
    "prefectureCode": "01",
    "prefectureNumber": 1,
    "prefecture": "北海道",
    "city": "岩見沢市",
    "town": "北村中央"
  },
  "0681213": {
    "zipcode": "0681213",
    "prefectureCode": "01",
    "prefectureNumber": 1,
    "prefecture": "北海道",
    "city": "岩見沢市",
    "town": "北村赤川"
  },
  "0681214": {
    "zipcode": "0681214",
    "prefectureCode": "01",
    "prefectureNumber": 1,
    "prefecture": "北海道",
    "city": "岩見沢市",
    "town": "北村美唄達布"
  },
  "0681215": {
    "zipcode": "0681215",
    "prefectureCode": "01",
    "prefectureNumber": 1,
    "prefecture": "北海道",
    "city": "岩見沢市",
    "town": "北村幌達布"
  },
  "0681231": {
    "zipcode": "0681231",
    "prefectureCode": "01",
    "prefectureNumber": 1,
    "prefecture": "北海道",
    "city": "樺戸郡月形町",
    "town": "雁里"
  },
  "0682100": {
    "zipcode": "0682100",
    "prefectureCode": "01",
    "prefectureNumber": 1,
    "prefecture": "北海道",
    "city": "三笠市",
    "town": "以下に掲載がない場合"
  },
  "0682101": {
    "zipcode": "0682101",
    "prefectureCode": "01",
    "prefectureNumber": 1,
    "prefecture": "北海道",
    "city": "三笠市",
    "town": "桂沢"
  },
  "0682102": {
    "zipcode": "0682102",
    "prefectureCode": "01",
    "prefectureNumber": 1,
    "prefecture": "北海道",
    "city": "三笠市",
    "town": "西桂沢"
  },
  "0682103": {
    "zipcode": "0682103",
    "prefectureCode": "01",
    "prefectureNumber": 1,
    "prefecture": "北海道",
    "city": "三笠市",
    "town": "奔別新町"
  },
  "0682104": {
    "zipcode": "0682104",
    "prefectureCode": "01",
    "prefectureNumber": 1,
    "prefecture": "北海道",
    "city": "三笠市",
    "town": "東清住町"
  },
  "0682105": {
    "zipcode": "0682105",
    "prefectureCode": "01",
    "prefectureNumber": 1,
    "prefecture": "北海道",
    "city": "三笠市",
    "town": "清住町"
  },
  "0682106": {
    "zipcode": "0682106",
    "prefectureCode": "01",
    "prefectureNumber": 1,
    "prefecture": "北海道",
    "city": "三笠市",
    "town": "美園町"
  },
  "0682107": {
    "zipcode": "0682107",
    "prefectureCode": "01",
    "prefectureNumber": 1,
    "prefecture": "北海道",
    "city": "三笠市",
    "town": "若草町"
  },
  "0682108": {
    "zipcode": "0682108",
    "prefectureCode": "01",
    "prefectureNumber": 1,
    "prefecture": "北海道",
    "city": "三笠市",
    "town": "柏町"
  },
  "0682111": {
    "zipcode": "0682111",
    "prefectureCode": "01",
    "prefectureNumber": 1,
    "prefecture": "北海道",
    "city": "三笠市",
    "town": "幾春別錦町"
  },
  "0682112": {
    "zipcode": "0682112",
    "prefectureCode": "01",
    "prefectureNumber": 1,
    "prefecture": "北海道",
    "city": "三笠市",
    "town": "幾春別川向町"
  },
  "0682113": {
    "zipcode": "0682113",
    "prefectureCode": "01",
    "prefectureNumber": 1,
    "prefecture": "北海道",
    "city": "三笠市",
    "town": "幾春別山手町"
  },
  "0682114": {
    "zipcode": "0682114",
    "prefectureCode": "01",
    "prefectureNumber": 1,
    "prefecture": "北海道",
    "city": "三笠市",
    "town": "幾春別栗丘町"
  },
  "0682115": {
    "zipcode": "0682115",
    "prefectureCode": "01",
    "prefectureNumber": 1,
    "prefecture": "北海道",
    "city": "三笠市",
    "town": "幾春別滝見町"
  },
  "0682116": {
    "zipcode": "0682116",
    "prefectureCode": "01",
    "prefectureNumber": 1,
    "prefecture": "北海道",
    "city": "三笠市",
    "town": "幾春別町"
  },
  "0682117": {
    "zipcode": "0682117",
    "prefectureCode": "01",
    "prefectureNumber": 1,
    "prefecture": "北海道",
    "city": "三笠市",
    "town": "幾春別中島町"
  },
  "0682118": {
    "zipcode": "0682118",
    "prefectureCode": "01",
    "prefectureNumber": 1,
    "prefecture": "北海道",
    "city": "三笠市",
    "town": "幾春別千住町"
  },
  "0682121": {
    "zipcode": "0682121",
    "prefectureCode": "01",
    "prefectureNumber": 1,
    "prefecture": "北海道",
    "city": "三笠市",
    "town": "弥生桜木町"
  },
  "0682122": {
    "zipcode": "0682122",
    "prefectureCode": "01",
    "prefectureNumber": 1,
    "prefecture": "北海道",
    "city": "三笠市",
    "town": "弥生並木町"
  },
  "0682123": {
    "zipcode": "0682123",
    "prefectureCode": "01",
    "prefectureNumber": 1,
    "prefecture": "北海道",
    "city": "三笠市",
    "town": "弥生桃山町"
  },
  "0682124": {
    "zipcode": "0682124",
    "prefectureCode": "01",
    "prefectureNumber": 1,
    "prefecture": "北海道",
    "city": "三笠市",
    "town": "弥生花園町"
  },
  "0682125": {
    "zipcode": "0682125",
    "prefectureCode": "01",
    "prefectureNumber": 1,
    "prefecture": "北海道",
    "city": "三笠市",
    "town": "弥生橘町"
  },
  "0682126": {
    "zipcode": "0682126",
    "prefectureCode": "01",
    "prefectureNumber": 1,
    "prefecture": "北海道",
    "city": "三笠市",
    "town": "弥生町"
  },
  "0682127": {
    "zipcode": "0682127",
    "prefectureCode": "01",
    "prefectureNumber": 1,
    "prefecture": "北海道",
    "city": "三笠市",
    "town": "弥生柳町"
  },
  "0682128": {
    "zipcode": "0682128",
    "prefectureCode": "01",
    "prefectureNumber": 1,
    "prefecture": "北海道",
    "city": "三笠市",
    "town": "弥生藤枝町"
  },
  "0682131": {
    "zipcode": "0682131",
    "prefectureCode": "01",
    "prefectureNumber": 1,
    "prefecture": "北海道",
    "city": "三笠市",
    "town": "唐松春光町"
  },
  "0682132": {
    "zipcode": "0682132",
    "prefectureCode": "01",
    "prefectureNumber": 1,
    "prefecture": "北海道",
    "city": "三笠市",
    "town": "唐松緑町"
  },
  "0682133": {
    "zipcode": "0682133",
    "prefectureCode": "01",
    "prefectureNumber": 1,
    "prefecture": "北海道",
    "city": "三笠市",
    "town": "唐松常盤町"
  },
  "0682134": {
    "zipcode": "0682134",
    "prefectureCode": "01",
    "prefectureNumber": 1,
    "prefecture": "北海道",
    "city": "三笠市",
    "town": "唐松千代田町"
  },
  "0682135": {
    "zipcode": "0682135",
    "prefectureCode": "01",
    "prefectureNumber": 1,
    "prefecture": "北海道",
    "city": "三笠市",
    "town": "唐松町"
  },
  "0682136": {
    "zipcode": "0682136",
    "prefectureCode": "01",
    "prefectureNumber": 1,
    "prefecture": "北海道",
    "city": "三笠市",
    "town": "唐松栄町"
  },
  "0682137": {
    "zipcode": "0682137",
    "prefectureCode": "01",
    "prefectureNumber": 1,
    "prefecture": "北海道",
    "city": "三笠市",
    "town": "唐松青山町"
  },
  "0682141": {
    "zipcode": "0682141",
    "prefectureCode": "01",
    "prefectureNumber": 1,
    "prefecture": "北海道",
    "city": "三笠市",
    "town": "本町"
  },
  "0682142": {
    "zipcode": "0682142",
    "prefectureCode": "01",
    "prefectureNumber": 1,
    "prefecture": "北海道",
    "city": "三笠市",
    "town": "幌内住吉町"
  },
  "0682143": {
    "zipcode": "0682143",
    "prefectureCode": "01",
    "prefectureNumber": 1,
    "prefecture": "北海道",
    "city": "三笠市",
    "town": "幌内北星町"
  },
  "0682144": {
    "zipcode": "0682144",
    "prefectureCode": "01",
    "prefectureNumber": 1,
    "prefecture": "北海道",
    "city": "三笠市",
    "town": "幌内金谷町"
  },
  "0682145": {
    "zipcode": "0682145",
    "prefectureCode": "01",
    "prefectureNumber": 1,
    "prefecture": "北海道",
    "city": "三笠市",
    "town": "幌内町"
  },
  "0682146": {
    "zipcode": "0682146",
    "prefectureCode": "01",
    "prefectureNumber": 1,
    "prefecture": "北海道",
    "city": "三笠市",
    "town": "幌内春日町"
  },
  "0682147": {
    "zipcode": "0682147",
    "prefectureCode": "01",
    "prefectureNumber": 1,
    "prefecture": "北海道",
    "city": "三笠市",
    "town": "幌内新栄町"
  },
  "0682148": {
    "zipcode": "0682148",
    "prefectureCode": "01",
    "prefectureNumber": 1,
    "prefecture": "北海道",
    "city": "三笠市",
    "town": "幌内初音町"
  },
  "0682151": {
    "zipcode": "0682151",
    "prefectureCode": "01",
    "prefectureNumber": 1,
    "prefecture": "北海道",
    "city": "三笠市",
    "town": "有明町"
  },
  "0682152": {
    "zipcode": "0682152",
    "prefectureCode": "01",
    "prefectureNumber": 1,
    "prefecture": "北海道",
    "city": "三笠市",
    "town": "多賀町"
  },
  "0682153": {
    "zipcode": "0682153",
    "prefectureCode": "01",
    "prefectureNumber": 1,
    "prefecture": "北海道",
    "city": "三笠市",
    "town": "幸町"
  },
  "0682154": {
    "zipcode": "0682154",
    "prefectureCode": "01",
    "prefectureNumber": 1,
    "prefecture": "北海道",
    "city": "三笠市",
    "town": "高美町"
  },
  "0682155": {
    "zipcode": "0682155",
    "prefectureCode": "01",
    "prefectureNumber": 1,
    "prefecture": "北海道",
    "city": "三笠市",
    "town": "榊町"
  },
  "0682156": {
    "zipcode": "0682156",
    "prefectureCode": "01",
    "prefectureNumber": 1,
    "prefecture": "北海道",
    "city": "三笠市",
    "town": "宮本町"
  },
  "0682157": {
    "zipcode": "0682157",
    "prefectureCode": "01",
    "prefectureNumber": 1,
    "prefecture": "北海道",
    "city": "三笠市",
    "town": "若松町"
  },
  "0682158": {
    "zipcode": "0682158",
    "prefectureCode": "01",
    "prefectureNumber": 1,
    "prefecture": "北海道",
    "city": "三笠市",
    "town": "堤町"
  },
  "0682161": {
    "zipcode": "0682161",
    "prefectureCode": "01",
    "prefectureNumber": 1,
    "prefecture": "北海道",
    "city": "三笠市",
    "town": "本郷町"
  },
  "0682162": {
    "zipcode": "0682162",
    "prefectureCode": "01",
    "prefectureNumber": 1,
    "prefecture": "北海道",
    "city": "三笠市",
    "town": "川内"
  },
  "0682163": {
    "zipcode": "0682163",
    "prefectureCode": "01",
    "prefectureNumber": 1,
    "prefecture": "北海道",
    "city": "三笠市",
    "town": "達布"
  },
  "0682164": {
    "zipcode": "0682164",
    "prefectureCode": "01",
    "prefectureNumber": 1,
    "prefecture": "北海道",
    "city": "三笠市",
    "town": "いちきしり"
  },
  "0682165": {
    "zipcode": "0682165",
    "prefectureCode": "01",
    "prefectureNumber": 1,
    "prefecture": "北海道",
    "city": "三笠市",
    "town": "岡山"
  },
  "0682166": {
    "zipcode": "0682166",
    "prefectureCode": "01",
    "prefectureNumber": 1,
    "prefecture": "北海道",
    "city": "三笠市",
    "town": "萱野"
  },
  "0682167": {
    "zipcode": "0682167",
    "prefectureCode": "01",
    "prefectureNumber": 1,
    "prefecture": "北海道",
    "city": "三笠市",
    "town": "大里"
  },
  "0682168": {
    "zipcode": "0682168",
    "prefectureCode": "01",
    "prefectureNumber": 1,
    "prefecture": "北海道",
    "city": "三笠市",
    "town": "美和"
  },
  "0682181": {
    "zipcode": "0682181",
    "prefectureCode": "01",
    "prefectureNumber": 1,
    "prefecture": "北海道",
    "city": "美唄市",
    "town": "光珠内町南（２７９４−１２番地）"
  },
  "0683151": {
    "zipcode": "0683151",
    "prefectureCode": "01",
    "prefectureNumber": 1,
    "prefecture": "北海道",
    "city": "岩見沢市",
    "town": "栗沢町万字大平"
  },
  "0683152": {
    "zipcode": "0683152",
    "prefectureCode": "01",
    "prefectureNumber": 1,
    "prefecture": "北海道",
    "city": "岩見沢市",
    "town": "栗沢町万字幸町"
  },
  "0683153": {
    "zipcode": "0683153",
    "prefectureCode": "01",
    "prefectureNumber": 1,
    "prefecture": "北海道",
    "city": "岩見沢市",
    "town": "栗沢町万字仲町"
  },
  "0683154": {
    "zipcode": "0683154",
    "prefectureCode": "01",
    "prefectureNumber": 1,
    "prefecture": "北海道",
    "city": "岩見沢市",
    "town": "栗沢町万字曙町"
  },
  "0683155": {
    "zipcode": "0683155",
    "prefectureCode": "01",
    "prefectureNumber": 1,
    "prefecture": "北海道",
    "city": "岩見沢市",
    "town": "栗沢町万字寿町"
  },
  "0683156": {
    "zipcode": "0683156",
    "prefectureCode": "01",
    "prefectureNumber": 1,
    "prefecture": "北海道",
    "city": "岩見沢市",
    "town": "栗沢町万字英町"
  },
  "0683157": {
    "zipcode": "0683157",
    "prefectureCode": "01",
    "prefectureNumber": 1,
    "prefecture": "北海道",
    "city": "岩見沢市",
    "town": "栗沢町万字睦町"
  },
  "0683158": {
    "zipcode": "0683158",
    "prefectureCode": "01",
    "prefectureNumber": 1,
    "prefecture": "北海道",
    "city": "岩見沢市",
    "town": "栗沢町万字巴町"
  },
  "0683159": {
    "zipcode": "0683159",
    "prefectureCode": "01",
    "prefectureNumber": 1,
    "prefecture": "北海道",
    "city": "岩見沢市",
    "town": "栗沢町万字二見町"
  },
  "0683161": {
    "zipcode": "0683161",
    "prefectureCode": "01",
    "prefectureNumber": 1,
    "prefecture": "北海道",
    "city": "岩見沢市",
    "town": "栗沢町宮村（２４８、３３９、７２６、７８０、８００、８０６番地）"
  },
  "0683162": {
    "zipcode": "0683162",
    "prefectureCode": "01",
    "prefectureNumber": 1,
    "prefecture": "北海道",
    "city": "岩見沢市",
    "town": "栗沢町万字旭町"
  },
  "0683163": {
    "zipcode": "0683163",
    "prefectureCode": "01",
    "prefectureNumber": 1,
    "prefecture": "北海道",
    "city": "岩見沢市",
    "town": "栗沢町万字西原町"
  },
  "0683164": {
    "zipcode": "0683164",
    "prefectureCode": "01",
    "prefectureNumber": 1,
    "prefecture": "北海道",
    "city": "岩見沢市",
    "town": "栗沢町万字錦町"
  },
  "0683165": {
    "zipcode": "0683165",
    "prefectureCode": "01",
    "prefectureNumber": 1,
    "prefecture": "北海道",
    "city": "岩見沢市",
    "town": "栗沢町西万字"
  },
  "0683171": {
    "zipcode": "0683171",
    "prefectureCode": "01",
    "prefectureNumber": 1,
    "prefecture": "北海道",
    "city": "岩見沢市",
    "town": "栗沢町美流渡本町"
  },
  "0683172": {
    "zipcode": "0683172",
    "prefectureCode": "01",
    "prefectureNumber": 1,
    "prefecture": "北海道",
    "city": "岩見沢市",
    "town": "栗沢町美流渡栄町"
  },
  "0683173": {
    "zipcode": "0683173",
    "prefectureCode": "01",
    "prefectureNumber": 1,
    "prefecture": "北海道",
    "city": "岩見沢市",
    "town": "栗沢町美流渡若葉町"
  },
  "0683174": {
    "zipcode": "0683174",
    "prefectureCode": "01",
    "prefectureNumber": 1,
    "prefecture": "北海道",
    "city": "岩見沢市",
    "town": "栗沢町美流渡吉野町"
  },
  "0683175": {
    "zipcode": "0683175",
    "prefectureCode": "01",
    "prefectureNumber": 1,
    "prefecture": "北海道",
    "city": "岩見沢市",
    "town": "栗沢町美流渡西町"
  },
  "0683176": {
    "zipcode": "0683176",
    "prefectureCode": "01",
    "prefectureNumber": 1,
    "prefecture": "北海道",
    "city": "岩見沢市",
    "town": "栗沢町美流渡東栄町"
  },
  "0683177": {
    "zipcode": "0683177",
    "prefectureCode": "01",
    "prefectureNumber": 1,
    "prefecture": "北海道",
    "city": "岩見沢市",
    "town": "栗沢町美流渡末広町"
  },
  "0683178": {
    "zipcode": "0683178",
    "prefectureCode": "01",
    "prefectureNumber": 1,
    "prefecture": "北海道",
    "city": "岩見沢市",
    "town": "栗沢町美流渡錦町"
  },
  "0683179": {
    "zipcode": "0683179",
    "prefectureCode": "01",
    "prefectureNumber": 1,
    "prefecture": "北海道",
    "city": "岩見沢市",
    "town": "栗沢町美流渡桜町"
  },
  "0683180": {
    "zipcode": "0683180",
    "prefectureCode": "01",
    "prefectureNumber": 1,
    "prefecture": "北海道",
    "city": "岩見沢市",
    "town": "栗沢町美流渡東町"
  },
  "0683181": {
    "zipcode": "0683181",
    "prefectureCode": "01",
    "prefectureNumber": 1,
    "prefecture": "北海道",
    "city": "岩見沢市",
    "town": "栗沢町美流渡南町"
  },
  "0683182": {
    "zipcode": "0683182",
    "prefectureCode": "01",
    "prefectureNumber": 1,
    "prefecture": "北海道",
    "city": "岩見沢市",
    "town": "栗沢町美流渡緑町"
  },
  "0683183": {
    "zipcode": "0683183",
    "prefectureCode": "01",
    "prefectureNumber": 1,
    "prefecture": "北海道",
    "city": "岩見沢市",
    "town": "栗沢町美流渡楓町"
  },
  "0683185": {
    "zipcode": "0683185",
    "prefectureCode": "01",
    "prefectureNumber": 1,
    "prefecture": "北海道",
    "city": "岩見沢市",
    "town": "朝日町"
  },
  "0683186": {
    "zipcode": "0683186",
    "prefectureCode": "01",
    "prefectureNumber": 1,
    "prefecture": "北海道",
    "city": "岩見沢市",
    "town": "清水町"
  },
  "0683187": {
    "zipcode": "0683187",
    "prefectureCode": "01",
    "prefectureNumber": 1,
    "prefecture": "北海道",
    "city": "岩見沢市",
    "town": "奈良町"
  },
  "0683188": {
    "zipcode": "0683188",
    "prefectureCode": "01",
    "prefectureNumber": 1,
    "prefecture": "北海道",
    "city": "岩見沢市",
    "town": "毛陽町"
  }
}
