{
  "0690200": {
    "zipcode": "0690200",
    "prefectureCode": "01",
    "prefectureNumber": 1,
    "prefecture": "北海道",
    "city": "空知郡南幌町",
    "town": "以下に掲載がない場合"
  },
  "0690207": {
    "zipcode": "0690207",
    "prefectureCode": "01",
    "prefectureNumber": 1,
    "prefecture": "北海道",
    "city": "空知郡南幌町",
    "town": "南７線西"
  },
  "0690208": {
    "zipcode": "0690208",
    "prefectureCode": "01",
    "prefectureNumber": 1,
    "prefecture": "北海道",
    "city": "空知郡南幌町",
    "town": "南８線西"
  },
  "0690209": {
    "zipcode": "0690209",
    "prefectureCode": "01",
    "prefectureNumber": 1,
    "prefecture": "北海道",
    "city": "空知郡南幌町",
    "town": "南９線西"
  },
  "0690210": {
    "zipcode": "0690210",
    "prefectureCode": "01",
    "prefectureNumber": 1,
    "prefecture": "北海道",
    "city": "空知郡南幌町",
    "town": "南１０線西"
  },
  "0690211": {
    "zipcode": "0690211",
    "prefectureCode": "01",
    "prefectureNumber": 1,
    "prefecture": "北海道",
    "city": "空知郡南幌町",
    "town": "南１１線西"
  },
  "0690212": {
    "zipcode": "0690212",
    "prefectureCode": "01",
    "prefectureNumber": 1,
    "prefecture": "北海道",
    "city": "空知郡南幌町",
    "town": "南１２線西"
  },
  "0690213": {
    "zipcode": "0690213",
    "prefectureCode": "01",
    "prefectureNumber": 1,
    "prefecture": "北海道",
    "city": "空知郡南幌町",
    "town": "南１３線西"
  },
  "0690214": {
    "zipcode": "0690214",
    "prefectureCode": "01",
    "prefectureNumber": 1,
    "prefecture": "北海道",
    "city": "空知郡南幌町",
    "town": "南１４線西"
  },
  "0690215": {
    "zipcode": "0690215",
    "prefectureCode": "01",
    "prefectureNumber": 1,
    "prefecture": "北海道",
    "city": "空知郡南幌町",
    "town": "南１５線西"
  },
  "0690216": {
    "zipcode": "0690216",
    "prefectureCode": "01",
    "prefectureNumber": 1,
    "prefecture": "北海道",
    "city": "空知郡南幌町",
    "town": "南１６線西"
  },
  "0690217": {
    "zipcode": "0690217",
    "prefectureCode": "01",
    "prefectureNumber": 1,
    "prefecture": "北海道",
    "city": "空知郡南幌町",
    "town": "南１７線西"
  },
  "0690218": {
    "zipcode": "0690218",
    "prefectureCode": "01",
    "prefectureNumber": 1,
    "prefecture": "北海道",
    "city": "空知郡南幌町",
    "town": "南１８線西"
  },
  "0690219": {
    "zipcode": "0690219",
    "prefectureCode": "01",
    "prefectureNumber": 1,
    "prefecture": "北海道",
    "city": "空知郡南幌町",
    "town": "南１９線西"
  },
  "0690220": {
    "zipcode": "0690220",
    "prefectureCode": "01",
    "prefectureNumber": 1,
    "prefecture": "北海道",
    "city": "空知郡南幌町",
    "town": "南２０線西"
  },
  "0690221": {
    "zipcode": "0690221",
    "prefectureCode": "01",
    "prefectureNumber": 1,
    "prefecture": "北海道",
    "city": "空知郡南幌町",
    "town": "南２１線西"
  },
  "0690231": {
    "zipcode": "0690231",
    "prefectureCode": "01",
    "prefectureNumber": 1,
    "prefecture": "北海道",
    "city": "空知郡南幌町",
    "town": "北町"
  },
  "0690232": {
    "zipcode": "0690232",
    "prefectureCode": "01",
    "prefectureNumber": 1,
    "prefecture": "北海道",
    "city": "空知郡南幌町",
    "town": "緑町"
  },
  "0690233": {
    "zipcode": "0690233",
    "prefectureCode": "01",
    "prefectureNumber": 1,
    "prefecture": "北海道",
    "city": "空知郡南幌町",
    "town": "東町"
  },
  "0690234": {
    "zipcode": "0690234",
    "prefectureCode": "01",
    "prefectureNumber": 1,
    "prefecture": "北海道",
    "city": "空知郡南幌町",
    "town": "美園"
  },
  "0690235": {
    "zipcode": "0690235",
    "prefectureCode": "01",
    "prefectureNumber": 1,
    "prefecture": "北海道",
    "city": "空知郡南幌町",
    "town": "中央"
  },
  "0690236": {
    "zipcode": "0690236",
    "prefectureCode": "01",
    "prefectureNumber": 1,
    "prefecture": "北海道",
    "city": "空知郡南幌町",
    "town": "西町"
  },
  "0690237": {
    "zipcode": "0690237",
    "prefectureCode": "01",
    "prefectureNumber": 1,
    "prefecture": "北海道",
    "city": "空知郡南幌町",
    "town": "栄町"
  },
  "0690238": {
    "zipcode": "0690238",
    "prefectureCode": "01",
    "prefectureNumber": 1,
    "prefecture": "北海道",
    "city": "空知郡南幌町",
    "town": "元町"
  },
  "0690239": {
    "zipcode": "0690239",
    "prefectureCode": "01",
    "prefectureNumber": 1,
    "prefecture": "北海道",
    "city": "空知郡南幌町",
    "town": "稲穂"
  },
  "0690351": {
    "zipcode": "0690351",
    "prefectureCode": "01",
    "prefectureNumber": 1,
    "prefecture": "北海道",
    "city": "岩見沢市",
    "town": "北村砂浜"
  },
  "0690361": {
    "zipcode": "0690361",
    "prefectureCode": "01",
    "prefectureNumber": 1,
    "prefecture": "北海道",
    "city": "岩見沢市",
    "town": "上幌向北一条"
  },
  "0690362": {
    "zipcode": "0690362",
    "prefectureCode": "01",
    "prefectureNumber": 1,
    "prefecture": "北海道",
    "city": "岩見沢市",
    "town": "上幌向南一条"
  },
  "0690363": {
    "zipcode": "0690363",
    "prefectureCode": "01",
    "prefectureNumber": 1,
    "prefecture": "北海道",
    "city": "岩見沢市",
    "town": "上幌向南二条"
  },
  "0690364": {
    "zipcode": "0690364",
    "prefectureCode": "01",
    "prefectureNumber": 1,
    "prefecture": "北海道",
    "city": "岩見沢市",
    "town": "上幌向南三条"
  },
  "0690365": {
    "zipcode": "0690365",
    "prefectureCode": "01",
    "prefectureNumber": 1,
    "prefecture": "北海道",
    "city": "岩見沢市",
    "town": "上幌向町"
  },
  "0690366": {
    "zipcode": "0690366",
    "prefectureCode": "01",
    "prefectureNumber": 1,
    "prefecture": "北海道",
    "city": "岩見沢市",
    "town": "双葉町"
  },
  "0690371": {
    "zipcode": "0690371",
    "prefectureCode": "01",
    "prefectureNumber": 1,
    "prefecture": "北海道",
    "city": "岩見沢市",
    "town": "幌向南一条"
  },
  "0690372": {
    "zipcode": "0690372",
    "prefectureCode": "01",
    "prefectureNumber": 1,
    "prefecture": "北海道",
    "city": "岩見沢市",
    "town": "幌向南二条"
  },
  "0690373": {
    "zipcode": "0690373",
    "prefectureCode": "01",
    "prefectureNumber": 1,
    "prefecture": "北海道",
    "city": "岩見沢市",
    "town": "幌向南三条"
  },
  "0690374": {
    "zipcode": "0690374",
    "prefectureCode": "01",
    "prefectureNumber": 1,
    "prefecture": "北海道",
    "city": "岩見沢市",
    "town": "幌向南四条"
  },
  "0690375": {
    "zipcode": "0690375",
    "prefectureCode": "01",
    "prefectureNumber": 1,
    "prefecture": "北海道",
    "city": "岩見沢市",
    "town": "幌向南五条"
  },
  "0690376": {
    "zipcode": "0690376",
    "prefectureCode": "01",
    "prefectureNumber": 1,
    "prefecture": "北海道",
    "city": "岩見沢市",
    "town": "中幌向町"
  },
  "0690381": {
    "zipcode": "0690381",
    "prefectureCode": "01",
    "prefectureNumber": 1,
    "prefecture": "北海道",
    "city": "岩見沢市",
    "town": "幌向北一条"
  },
  "0690382": {
    "zipcode": "0690382",
    "prefectureCode": "01",
    "prefectureNumber": 1,
    "prefecture": "北海道",
    "city": "岩見沢市",
    "town": "幌向北二条"
  },
  "0690383": {
    "zipcode": "0690383",
    "prefectureCode": "01",
    "prefectureNumber": 1,
    "prefecture": "北海道",
    "city": "岩見沢市",
    "town": "幌向町"
  },
  "0690384": {
    "zipcode": "0690384",
    "prefectureCode": "01",
    "prefectureNumber": 1,
    "prefecture": "北海道",
    "city": "岩見沢市",
    "town": "御茶の水町"
  },
  "0690801": {
    "zipcode": "0690801",
    "prefectureCode": "01",
    "prefectureNumber": 1,
    "prefecture": "北海道",
    "city": "江別市",
    "town": "中央町"
  },
  "0690802": {
    "zipcode": "0690802",
    "prefectureCode": "01",
    "prefectureNumber": 1,
    "prefecture": "北海道",
    "city": "江別市",
    "town": "野幌寿町"
  },
  "0690803": {
    "zipcode": "0690803",
    "prefectureCode": "01",
    "prefectureNumber": 1,
    "prefecture": "北海道",
    "city": "江別市",
    "town": "野幌屯田町"
  },
  "0690804": {
    "zipcode": "0690804",
    "prefectureCode": "01",
    "prefectureNumber": 1,
    "prefecture": "北海道",
    "city": "江別市",
    "town": "野幌美幸町"
  },
  "0690805": {
    "zipcode": "0690805",
    "prefectureCode": "01",
    "prefectureNumber": 1,
    "prefecture": "北海道",
    "city": "江別市",
    "town": "元野幌（その他）"
  },
  "0690806": {
    "zipcode": "0690806",
    "prefectureCode": "01",
    "prefectureNumber": 1,
    "prefecture": "北海道",
    "city": "江別市",
    "town": "新栄台"
  },
  "0690811": {
    "zipcode": "0690811",
    "prefectureCode": "01",
    "prefectureNumber": 1,
    "prefecture": "北海道",
    "city": "江別市",
    "town": "錦町"
  },
  "0690812": {
    "zipcode": "0690812",
    "prefectureCode": "01",
    "prefectureNumber": 1,
    "prefecture": "北海道",
    "city": "江別市",
    "town": "幸町"
  },
  "0690813": {
    "zipcode": "0690813",
    "prefectureCode": "01",
    "prefectureNumber": 1,
    "prefecture": "北海道",
    "city": "江別市",
    "town": "野幌町"
  },
  "0690814": {
    "zipcode": "0690814",
    "prefectureCode": "01",
    "prefectureNumber": 1,
    "prefecture": "北海道",
    "city": "江別市",
    "town": "野幌松並町"
  },
  "0690815": {
    "zipcode": "0690815",
    "prefectureCode": "01",
    "prefectureNumber": 1,
    "prefecture": "北海道",
    "city": "江別市",
    "town": "野幌末広町"
  },
  "0690816": {
    "zipcode": "0690816",
    "prefectureCode": "01",
    "prefectureNumber": 1,
    "prefecture": "北海道",
    "city": "江別市",
    "town": "野幌住吉町"
  },
  "0690817": {
    "zipcode": "0690817",
    "prefectureCode": "01",
    "prefectureNumber": 1,
    "prefecture": "北海道",
    "city": "江別市",
    "town": "野幌代々木町"
  },
  "0690821": {
    "zipcode": "0690821",
    "prefectureCode": "01",
    "prefectureNumber": 1,
    "prefecture": "北海道",
    "city": "江別市",
    "town": "東野幌町"
  },
  "0690822": {
    "zipcode": "0690822",
    "prefectureCode": "01",
    "prefectureNumber": 1,
    "prefecture": "北海道",
    "city": "江別市",
    "town": "東野幌"
  },
  "0690823": {
    "zipcode": "0690823",
    "prefectureCode": "01",
    "prefectureNumber": 1,
    "prefecture": "北海道",
    "city": "江別市",
    "town": "緑ケ丘"
  },
  "0690824": {
    "zipcode": "0690824",
    "prefectureCode": "01",
    "prefectureNumber": 1,
    "prefecture": "北海道",
    "city": "江別市",
    "town": "東野幌本町"
  },
  "0690825": {
    "zipcode": "0690825",
    "prefectureCode": "01",
    "prefectureNumber": 1,
    "prefecture": "北海道",
    "city": "江別市",
    "town": "野幌東町"
  },
  "0690826": {
    "zipcode": "0690826",
    "prefectureCode": "01",
    "prefectureNumber": 1,
    "prefecture": "北海道",
    "city": "江別市",
    "town": "あさひが丘"
  },
  "0690831": {
    "zipcode": "0690831",
    "prefectureCode": "01",
    "prefectureNumber": 1,
    "prefecture": "北海道",
    "city": "江別市",
    "town": "野幌若葉町"
  },
  "0690832": {
    "zipcode": "0690832",
    "prefectureCode": "01",
    "prefectureNumber": 1,
    "prefecture": "北海道",
    "city": "江別市",
    "town": "西野幌"
  },
  "0690833": {
    "zipcode": "0690833",
    "prefectureCode": "01",
    "prefectureNumber": 1,
    "prefecture": "北海道",
    "city": "江別市",
    "town": "文京台"
  },
  "0690834": {
    "zipcode": "0690834",
    "prefectureCode": "01",
    "prefectureNumber": 1,
    "prefecture": "北海道",
    "city": "江別市",
    "town": "文京台東町"
  },
  "0690835": {
    "zipcode": "0690835",
    "prefectureCode": "01",
    "prefectureNumber": 1,
    "prefecture": "北海道",
    "city": "江別市",
    "town": "文京台南町"
  },
  "0690836": {
    "zipcode": "0690836",
    "prefectureCode": "01",
    "prefectureNumber": 1,
    "prefecture": "北海道",
    "city": "江別市",
    "town": "文京台緑町"
  },
  "0690841": {
    "zipcode": "0690841",
    "prefectureCode": "01",
    "prefectureNumber": 1,
    "prefecture": "北海道",
    "city": "江別市",
    "town": "大麻元町"
  },
  "0690842": {
    "zipcode": "0690842",
    "prefectureCode": "01",
    "prefectureNumber": 1,
    "prefecture": "北海道",
    "city": "江別市",
    "town": "大麻沢町"
  },
  "0690843": {
    "zipcode": "0690843",
    "prefectureCode": "01",
    "prefectureNumber": 1,
    "prefecture": "北海道",
    "city": "江別市",
    "town": "大麻扇町"
  },
  "0690844": {
    "zipcode": "0690844",
    "prefectureCode": "01",
    "prefectureNumber": 1,
    "prefecture": "北海道",
    "city": "江別市",
    "town": "大麻西町"
  },
  "0690845": {
    "zipcode": "0690845",
    "prefectureCode": "01",
    "prefectureNumber": 1,
    "prefecture": "北海道",
    "city": "江別市",
    "town": "大麻"
  },
  "0690846": {
    "zipcode": "0690846",
    "prefectureCode": "01",
    "prefectureNumber": 1,
    "prefecture": "北海道",
    "city": "江別市",
    "town": "大麻桜木町"
  },
  "0690847": {
    "zipcode": "0690847",
    "prefectureCode": "01",
    "prefectureNumber": 1,
    "prefecture": "北海道",
    "city": "江別市",
    "town": "大麻ひかり町"
  },
  "0690851": {
    "zipcode": "0690851",
    "prefectureCode": "01",
    "prefectureNumber": 1,
    "prefecture": "北海道",
    "city": "江別市",
    "town": "大麻園町"
  },
  "0690852": {
    "zipcode": "0690852",
    "prefectureCode": "01",
    "prefectureNumber": 1,
    "prefecture": "北海道",
    "city": "江別市",
    "town": "大麻東町"
  },
  "0690853": {
    "zipcode": "0690853",
    "prefectureCode": "01",
    "prefectureNumber": 1,
    "prefecture": "北海道",
    "city": "江別市",
    "town": "大麻高町"
  },
  "0690854": {
    "zipcode": "0690854",
    "prefectureCode": "01",
    "prefectureNumber": 1,
    "prefecture": "北海道",
    "city": "江別市",
    "town": "大麻中町"
  },
  "0690855": {
    "zipcode": "0690855",
    "prefectureCode": "01",
    "prefectureNumber": 1,
    "prefecture": "北海道",
    "city": "江別市",
    "town": "大麻宮町"
  },
  "0690861": {
    "zipcode": "0690861",
    "prefectureCode": "01",
    "prefectureNumber": 1,
    "prefecture": "北海道",
    "city": "江別市",
    "town": "大麻北町"
  },
  "0690862": {
    "zipcode": "0690862",
    "prefectureCode": "01",
    "prefectureNumber": 1,
    "prefecture": "北海道",
    "city": "江別市",
    "town": "大麻栄町"
  },
  "0690863": {
    "zipcode": "0690863",
    "prefectureCode": "01",
    "prefectureNumber": 1,
    "prefecture": "北海道",
    "city": "江別市",
    "town": "大麻新町"
  },
  "0690864": {
    "zipcode": "0690864",
    "prefectureCode": "01",
    "prefectureNumber": 1,
    "prefecture": "北海道",
    "city": "江別市",
    "town": "大麻泉町"
  },
  "0690865": {
    "zipcode": "0690865",
    "prefectureCode": "01",
    "prefectureNumber": 1,
    "prefecture": "北海道",
    "city": "江別市",
    "town": "大麻南樹町"
  },
  "0690866": {
    "zipcode": "0690866",
    "prefectureCode": "01",
    "prefectureNumber": 1,
    "prefecture": "北海道",
    "city": "江別市",
    "town": "大麻晴美町"
  },
  "0690867": {
    "zipcode": "0690867",
    "prefectureCode": "01",
    "prefectureNumber": 1,
    "prefecture": "北海道",
    "city": "江別市",
    "town": "元野幌（１〜４４０番地）"
  },
  "0691131": {
    "zipcode": "0691131",
    "prefectureCode": "01",
    "prefectureNumber": 1,
    "prefecture": "北海道",
    "city": "夕張郡由仁町",
    "town": "三川泉町"
  },
  "0691132": {
    "zipcode": "0691132",
    "prefectureCode": "01",
    "prefectureNumber": 1,
    "prefecture": "北海道",
    "city": "夕張郡由仁町",
    "town": "三川錦町"
  },
  "0691133": {
    "zipcode": "0691133",
    "prefectureCode": "01",
    "prefectureNumber": 1,
    "prefecture": "北海道",
    "city": "夕張郡由仁町",
    "town": "三川旭町"
  },
  "0691134": {
    "zipcode": "0691134",
    "prefectureCode": "01",
    "prefectureNumber": 1,
    "prefecture": "北海道",
    "city": "夕張郡由仁町",
    "town": "三川緑町"
  },
  "0691135": {
    "zipcode": "0691135",
    "prefectureCode": "01",
    "prefectureNumber": 1,
    "prefecture": "北海道",
    "city": "夕張郡由仁町",
    "town": "西三川（その他）"
  },
  "0691136": {
    "zipcode": "0691136",
    "prefectureCode": "01",
    "prefectureNumber": 1,
    "prefecture": "北海道",
    "city": "夕張郡由仁町",
    "town": "熊本（その他）"
  },
  "0691141": {
    "zipcode": "0691141",
    "prefectureCode": "01",
    "prefectureNumber": 1,
    "prefecture": "北海道",
    "city": "夕張郡由仁町",
    "town": "川端"
  },
  "0691142": {
    "zipcode": "0691142",
    "prefectureCode": "01",
    "prefectureNumber": 1,
    "prefecture": "北海道",
    "city": "夕張郡由仁町",
    "town": "東三川"
  },
  "0691143": {
    "zipcode": "0691143",
    "prefectureCode": "01",
    "prefectureNumber": 1,
    "prefecture": "北海道",
    "city": "夕張郡由仁町",
    "town": "中三川"
  },
  "0691144": {
    "zipcode": "0691144",
    "prefectureCode": "01",
    "prefectureNumber": 1,
    "prefecture": "北海道",
    "city": "夕張郡由仁町",
    "town": "本三川（その他）"
  },
  "0691181": {
    "zipcode": "0691181",
    "prefectureCode": "01",
    "prefectureNumber": 1,
    "prefecture": "北海道",
    "city": "千歳市",
    "town": "東丘"
  },
  "0691182": {
    "zipcode": "0691182",
    "prefectureCode": "01",
    "prefectureNumber": 1,
    "prefecture": "北海道",
    "city": "千歳市",
    "town": "協和（その他）"
  },
  "0691183": {
    "zipcode": "0691183",
    "prefectureCode": "01",
    "prefectureNumber": 1,
    "prefecture": "北海道",
    "city": "千歳市",
    "town": "幌加"
  },
  "0691184": {
    "zipcode": "0691184",
    "prefectureCode": "01",
    "prefectureNumber": 1,
    "prefecture": "北海道",
    "city": "千歳市",
    "town": "新川"
  },
  "0691200": {
    "zipcode": "0691200",
    "prefectureCode": "01",
    "prefectureNumber": 1,
    "prefecture": "北海道",
    "city": "夕張郡由仁町",
    "town": "以下に掲載がない場合"
  },
  "0691201": {
    "zipcode": "0691201",
    "prefectureCode": "01",
    "prefectureNumber": 1,
    "prefecture": "北海道",
    "city": "夕張郡由仁町",
    "town": "北栄"
  },
  "0691202": {
    "zipcode": "0691202",
    "prefectureCode": "01",
    "prefectureNumber": 1,
    "prefecture": "北海道",
    "city": "夕張郡由仁町",
    "town": "古川"
  },
  "0691203": {
    "zipcode": "0691203",
    "prefectureCode": "01",
    "prefectureNumber": 1,
    "prefecture": "北海道",
    "city": "夕張郡由仁町",
    "town": "東栄"
  },
  "0691204": {
    "zipcode": "0691204",
    "prefectureCode": "01",
    "prefectureNumber": 1,
    "prefecture": "北海道",
    "city": "夕張郡由仁町",
    "town": "新光"
  },
  "0691205": {
    "zipcode": "0691205",
    "prefectureCode": "01",
    "prefectureNumber": 1,
    "prefecture": "北海道",
    "city": "夕張郡由仁町",
    "town": "中央"
  },
  "0691206": {
    "zipcode": "0691206",
    "prefectureCode": "01",
    "prefectureNumber": 1,
    "prefecture": "北海道",
    "city": "夕張郡由仁町",
    "town": "本町"
  },
  "0691207": {
    "zipcode": "0691207",
    "prefectureCode": "01",
    "prefectureNumber": 1,
    "prefecture": "北海道",
    "city": "夕張郡由仁町",
    "town": "馬追"
  },
  "0691208": {
    "zipcode": "0691208",
    "prefectureCode": "01",
    "prefectureNumber": 1,
    "prefecture": "北海道",
    "city": "夕張郡由仁町",
    "town": "山形"
  },
  "0691211": {
    "zipcode": "0691211",
    "prefectureCode": "01",
    "prefectureNumber": 1,
    "prefecture": "北海道",
    "city": "夕張郡由仁町",
    "town": "岩内"
  },
  "0691212": {
    "zipcode": "0691212",
    "prefectureCode": "01",
    "prefectureNumber": 1,
    "prefecture": "北海道",
    "city": "夕張郡由仁町",
    "town": "山桝"
  },
  "0691213": {
    "zipcode": "0691213",
    "prefectureCode": "01",
    "prefectureNumber": 1,
    "prefecture": "北海道",
    "city": "夕張郡由仁町",
    "town": "本三川（８９、２１０、２１２番地）"
  },
  "0691214": {
    "zipcode": "0691214",
    "prefectureCode": "01",
    "prefectureNumber": 1,
    "prefecture": "北海道",
    "city": "夕張郡由仁町",
    "town": "西三川（１、１７番地）"
  },
  "0691215": {
    "zipcode": "0691215",
    "prefectureCode": "01",
    "prefectureNumber": 1,
    "prefecture": "北海道",
    "city": "夕張郡由仁町",
    "town": "熊本（１０、３８、３１４、６２３、６２６番地）"
  },
  "0691216": {
    "zipcode": "0691216",
    "prefectureCode": "01",
    "prefectureNumber": 1,
    "prefecture": "北海道",
    "city": "夕張郡由仁町",
    "town": "古山"
  },
  "0691217": {
    "zipcode": "0691217",
    "prefectureCode": "01",
    "prefectureNumber": 1,
    "prefecture": "北海道",
    "city": "夕張郡由仁町",
    "town": "光栄"
  },
  "0691218": {
    "zipcode": "0691218",
    "prefectureCode": "01",
    "prefectureNumber": 1,
    "prefecture": "北海道",
    "city": "夕張郡由仁町",
    "town": "伏見"
  },
  "0691219": {
    "zipcode": "0691219",
    "prefectureCode": "01",
    "prefectureNumber": 1,
    "prefecture": "北海道",
    "city": "夕張郡由仁町",
    "town": "東光"
  },
  "0691300": {
    "zipcode": "0691300",
    "prefectureCode": "01",
    "prefectureNumber": 1,
    "prefecture": "北海道",
    "city": "夕張郡長沼町",
    "town": "以下に掲載がない場合"
  },
  "0691301": {
    "zipcode": "0691301",
    "prefectureCode": "01",
    "prefectureNumber": 1,
    "prefecture": "北海道",
    "city": "夕張郡長沼町",
    "town": "１区"
  },
  "0691302": {
    "zipcode": "0691302",
    "prefectureCode": "01",
    "prefectureNumber": 1,
    "prefecture": "北海道",
    "city": "夕張郡長沼町",
    "town": "２区"
  },
  "0691303": {
    "zipcode": "0691303",
    "prefectureCode": "01",
    "prefectureNumber": 1,
    "prefecture": "北海道",
    "city": "夕張郡長沼町",
    "town": "３区"
  },
  "0691304": {
    "zipcode": "0691304",
    "prefectureCode": "01",
    "prefectureNumber": 1,
    "prefecture": "北海道",
    "city": "夕張郡長沼町",
    "town": "４区"
  },
  "0691305": {
    "zipcode": "0691305",
    "prefectureCode": "01",
    "prefectureNumber": 1,
    "prefecture": "北海道",
    "city": "夕張郡長沼町",
    "town": "５区"
  },
  "0691306": {
    "zipcode": "0691306",
    "prefectureCode": "01",
    "prefectureNumber": 1,
    "prefecture": "北海道",
    "city": "夕張郡長沼町",
    "town": "６区"
  },
  "0691307": {
    "zipcode": "0691307",
    "prefectureCode": "01",
    "prefectureNumber": 1,
    "prefecture": "北海道",
    "city": "夕張郡長沼町",
    "town": "７区"
  },
  "0691308": {
    "zipcode": "0691308",
    "prefectureCode": "01",
    "prefectureNumber": 1,
    "prefecture": "北海道",
    "city": "夕張郡長沼町",
    "town": "８区"
  },
  "0691309": {
    "zipcode": "0691309",
    "prefectureCode": "01",
    "prefectureNumber": 1,
    "prefecture": "北海道",
    "city": "夕張郡長沼町",
    "town": "９区"
  },
  "0691310": {
    "zipcode": "0691310",
    "prefectureCode": "01",
    "prefectureNumber": 1,
    "prefecture": "北海道",
    "city": "夕張郡長沼町",
    "town": "１０区"
  },
  "0691311": {
    "zipcode": "0691311",
    "prefectureCode": "01",
    "prefectureNumber": 1,
    "prefecture": "北海道",
    "city": "夕張郡長沼町",
    "town": "１１区"
  },
  "0691312": {
    "zipcode": "0691312",
    "prefectureCode": "01",
    "prefectureNumber": 1,
    "prefecture": "北海道",
    "city": "夕張郡長沼町",
    "town": "１２区"
  },
  "0691313": {
    "zipcode": "0691313",
    "prefectureCode": "01",
    "prefectureNumber": 1,
    "prefecture": "北海道",
    "city": "夕張郡長沼町",
    "town": "１３区"
  },
  "0691314": {
    "zipcode": "0691314",
    "prefectureCode": "01",
    "prefectureNumber": 1,
    "prefecture": "北海道",
    "city": "夕張郡長沼町",
    "town": "１４区"
  },
  "0691315": {
    "zipcode": "0691315",
    "prefectureCode": "01",
    "prefectureNumber": 1,
    "prefecture": "北海道",
    "city": "夕張郡長沼町",
    "town": "１５区"
  },
  "0691316": {
    "zipcode": "0691316",
    "prefectureCode": "01",
    "prefectureNumber": 1,
    "prefecture": "北海道",
    "city": "夕張郡長沼町",
    "town": "１６区"
  },
  "0691317": {
    "zipcode": "0691317",
    "prefectureCode": "01",
    "prefectureNumber": 1,
    "prefecture": "北海道",
    "city": "夕張郡長沼町",
    "town": "東１１線北"
  },
  "0691318": {
    "zipcode": "0691318",
    "prefectureCode": "01",
    "prefectureNumber": 1,
    "prefecture": "北海道",
    "city": "夕張郡長沼町",
    "town": "西８線北"
  },
  "0691320": {
    "zipcode": "0691320",
    "prefectureCode": "01",
    "prefectureNumber": 1,
    "prefecture": "北海道",
    "city": "夕張郡長沼町",
    "town": "市街地"
  },
  "0691321": {
    "zipcode": "0691321",
    "prefectureCode": "01",
    "prefectureNumber": 1,
    "prefecture": "北海道",
    "city": "夕張郡長沼町",
    "town": "馬追"
  },
  "0691322": {
    "zipcode": "0691322",
    "prefectureCode": "01",
    "prefectureNumber": 1,
    "prefecture": "北海道",
    "city": "夕張郡長沼町",
    "town": "馬追原野"
  },
  "0691329": {
    "zipcode": "0691329",
    "prefectureCode": "01",
    "prefectureNumber": 1,
    "prefecture": "北海道",
    "city": "夕張郡長沼町",
    "town": "２９区"
  },
  "0691331": {
    "zipcode": "0691331",
    "prefectureCode": "01",
    "prefectureNumber": 1,
    "prefecture": "北海道",
    "city": "夕張郡長沼町",
    "town": "銀座"
  },
  "0691332": {
    "zipcode": "0691332",
    "prefectureCode": "01",
    "prefectureNumber": 1,
    "prefecture": "北海道",
    "city": "夕張郡長沼町",
    "town": "中央"
  },
  "0691333": {
    "zipcode": "0691333",
    "prefectureCode": "01",
    "prefectureNumber": 1,
    "prefecture": "北海道",
    "city": "夕張郡長沼町",
    "town": "本町"
  },
  "0691334": {
    "zipcode": "0691334",
    "prefectureCode": "01",
    "prefectureNumber": 1,
    "prefecture": "北海道",
    "city": "夕張郡長沼町",
    "town": "錦町南"
  },
  "0691335": {
    "zipcode": "0691335",
    "prefectureCode": "01",
    "prefectureNumber": 1,
    "prefecture": "北海道",
    "city": "夕張郡長沼町",
    "town": "あかね"
  },
  "0691336": {
    "zipcode": "0691336",
    "prefectureCode": "01",
    "prefectureNumber": 1,
    "prefecture": "北海道",
    "city": "夕張郡長沼町",
    "town": "栄町"
  },
  "0691341": {
    "zipcode": "0691341",
    "prefectureCode": "01",
    "prefectureNumber": 1,
    "prefecture": "北海道",
    "city": "夕張郡長沼町",
    "town": "宮下"
  },
  "0691342": {
    "zipcode": "0691342",
    "prefectureCode": "01",
    "prefectureNumber": 1,
    "prefecture": "北海道",
    "city": "夕張郡長沼町",
    "town": "東町"
  },
  "0691343": {
    "zipcode": "0691343",
    "prefectureCode": "01",
    "prefectureNumber": 1,
    "prefecture": "北海道",
    "city": "夕張郡長沼町",
    "town": "旭町"
  },
  "0691344": {
    "zipcode": "0691344",
    "prefectureCode": "01",
    "prefectureNumber": 1,
    "prefecture": "北海道",
    "city": "夕張郡長沼町",
    "town": "曙町"
  },
  "0691345": {
    "zipcode": "0691345",
    "prefectureCode": "01",
    "prefectureNumber": 1,
    "prefecture": "北海道",
    "city": "夕張郡長沼町",
    "town": "しらかば"
  },
  "0691346": {
    "zipcode": "0691346",
    "prefectureCode": "01",
    "prefectureNumber": 1,
    "prefecture": "北海道",
    "city": "夕張郡長沼町",
    "town": "西町"
  },
  "0691347": {
    "zipcode": "0691347",
    "prefectureCode": "01",
    "prefectureNumber": 1,
    "prefecture": "北海道",
    "city": "夕張郡長沼町",
    "town": "北町"
  },
  "0691451": {
    "zipcode": "0691451",
    "prefectureCode": "01",
    "prefectureNumber": 1,
    "prefecture": "北海道",
    "city": "夕張郡長沼町",
    "town": "東１線南"
  },
  "0691452": {
    "zipcode": "0691452",
    "prefectureCode": "01",
    "prefectureNumber": 1,
    "prefecture": "北海道",
    "city": "夕張郡長沼町",
    "town": "東２線南"
  },
  "0691453": {
    "zipcode": "0691453",
    "prefectureCode": "01",
    "prefectureNumber": 1,
    "prefecture": "北海道",
    "city": "夕張郡長沼町",
    "town": "東３線南"
  },
  "0691454": {
    "zipcode": "0691454",
    "prefectureCode": "01",
    "prefectureNumber": 1,
    "prefecture": "北海道",
    "city": "夕張郡長沼町",
    "town": "東４線南"
  },
  "0691455": {
    "zipcode": "0691455",
    "prefectureCode": "01",
    "prefectureNumber": 1,
    "prefecture": "北海道",
    "city": "夕張郡長沼町",
    "town": "東５線南"
  },
  "0691456": {
    "zipcode": "0691456",
    "prefectureCode": "01",
    "prefectureNumber": 1,
    "prefecture": "北海道",
    "city": "夕張郡長沼町",
    "town": "東６線南"
  },
  "0691457": {
    "zipcode": "0691457",
    "prefectureCode": "01",
    "prefectureNumber": 1,
    "prefecture": "北海道",
    "city": "夕張郡長沼町",
    "town": "東７線南"
  },
  "0691458": {
    "zipcode": "0691458",
    "prefectureCode": "01",
    "prefectureNumber": 1,
    "prefecture": "北海道",
    "city": "夕張郡長沼町",
    "town": "東８線南"
  },
  "0691459": {
    "zipcode": "0691459",
    "prefectureCode": "01",
    "prefectureNumber": 1,
    "prefecture": "北海道",
    "city": "夕張郡長沼町",
    "town": "東９線南"
  },
  "0691460": {
    "zipcode": "0691460",
    "prefectureCode": "01",
    "prefectureNumber": 1,
    "prefecture": "北海道",
    "city": "夕張郡長沼町",
    "town": "東１０線南"
  },
  "0691461": {
    "zipcode": "0691461",
    "prefectureCode": "01",
    "prefectureNumber": 1,
    "prefecture": "北海道",
    "city": "夕張郡長沼町",
    "town": "東１１線南"
  },
  "0691462": {
    "zipcode": "0691462",
    "prefectureCode": "01",
    "prefectureNumber": 1,
    "prefecture": "北海道",
    "city": "夕張郡長沼町",
    "town": "東１２線南"
  },
  "0691463": {
    "zipcode": "0691463",
    "prefectureCode": "01",
    "prefectureNumber": 1,
    "prefecture": "北海道",
    "city": "夕張郡長沼町",
    "town": "東１３線南"
  },
  "0691464": {
    "zipcode": "0691464",
    "prefectureCode": "01",
    "prefectureNumber": 1,
    "prefecture": "北海道",
    "city": "夕張郡長沼町",
    "town": "幌内"
  },
  "0691471": {
    "zipcode": "0691471",
    "prefectureCode": "01",
    "prefectureNumber": 1,
    "prefecture": "北海道",
    "city": "夕張郡長沼町",
    "town": "西１線南"
  },
  "0691472": {
    "zipcode": "0691472",
    "prefectureCode": "01",
    "prefectureNumber": 1,
    "prefecture": "北海道",
    "city": "夕張郡長沼町",
    "town": "西２線南"
  },
  "0691473": {
    "zipcode": "0691473",
    "prefectureCode": "01",
    "prefectureNumber": 1,
    "prefecture": "北海道",
    "city": "夕張郡長沼町",
    "town": "西３線南"
  },
  "0691474": {
    "zipcode": "0691474",
    "prefectureCode": "01",
    "prefectureNumber": 1,
    "prefecture": "北海道",
    "city": "夕張郡長沼町",
    "town": "西４線南"
  },
  "0691475": {
    "zipcode": "0691475",
    "prefectureCode": "01",
    "prefectureNumber": 1,
    "prefecture": "北海道",
    "city": "夕張郡長沼町",
    "town": "西５線南"
  },
  "0691476": {
    "zipcode": "0691476",
    "prefectureCode": "01",
    "prefectureNumber": 1,
    "prefecture": "北海道",
    "city": "夕張郡長沼町",
    "town": "西６線南"
  },
  "0691477": {
    "zipcode": "0691477",
    "prefectureCode": "01",
    "prefectureNumber": 1,
    "prefecture": "北海道",
    "city": "夕張郡長沼町",
    "town": "西７線南"
  },
  "0691478": {
    "zipcode": "0691478",
    "prefectureCode": "01",
    "prefectureNumber": 1,
    "prefecture": "北海道",
    "city": "夕張郡長沼町",
    "town": "西８線南"
  },
  "0691479": {
    "zipcode": "0691479",
    "prefectureCode": "01",
    "prefectureNumber": 1,
    "prefecture": "北海道",
    "city": "夕張郡長沼町",
    "town": "西９線南"
  },
  "0691480": {
    "zipcode": "0691480",
    "prefectureCode": "01",
    "prefectureNumber": 1,
    "prefecture": "北海道",
    "city": "夕張郡長沼町",
    "town": "西１０線南"
  },
  "0691481": {
    "zipcode": "0691481",
    "prefectureCode": "01",
    "prefectureNumber": 1,
    "prefecture": "北海道",
    "city": "夕張郡長沼町",
    "town": "西１１線南"
  },
  "0691482": {
    "zipcode": "0691482",
    "prefectureCode": "01",
    "prefectureNumber": 1,
    "prefecture": "北海道",
    "city": "夕張郡長沼町",
    "town": "西１２線南"
  },
  "0691483": {
    "zipcode": "0691483",
    "prefectureCode": "01",
    "prefectureNumber": 1,
    "prefecture": "北海道",
    "city": "夕張郡長沼町",
    "town": "西１３線南"
  },
  "0691484": {
    "zipcode": "0691484",
    "prefectureCode": "01",
    "prefectureNumber": 1,
    "prefecture": "北海道",
    "city": "夕張郡長沼町",
    "town": "西１４線南"
  },
  "0691485": {
    "zipcode": "0691485",
    "prefectureCode": "01",
    "prefectureNumber": 1,
    "prefecture": "北海道",
    "city": "夕張郡長沼町",
    "town": "３０区"
  },
  "0691500": {
    "zipcode": "0691500",
    "prefectureCode": "01",
    "prefectureNumber": 1,
    "prefecture": "北海道",
    "city": "夕張郡栗山町",
    "town": "以下に掲載がない場合"
  },
  "0691501": {
    "zipcode": "0691501",
    "prefectureCode": "01",
    "prefectureNumber": 1,
    "prefecture": "北海道",
    "city": "夕張郡栗山町",
    "town": "桜丘"
  },
  "0691502": {
    "zipcode": "0691502",
    "prefectureCode": "01",
    "prefectureNumber": 1,
    "prefecture": "北海道",
    "city": "夕張郡栗山町",
    "town": "森"
  },
  "0691503": {
    "zipcode": "0691503",
    "prefectureCode": "01",
    "prefectureNumber": 1,
    "prefecture": "北海道",
    "city": "夕張郡栗山町",
    "town": "緑丘"
  },
  "0691504": {
    "zipcode": "0691504",
    "prefectureCode": "01",
    "prefectureNumber": 1,
    "prefecture": "北海道",
    "city": "夕張郡栗山町",
    "town": "北学田"
  },
  "0691505": {
    "zipcode": "0691505",
    "prefectureCode": "01",
    "prefectureNumber": 1,
    "prefecture": "北海道",
    "city": "夕張郡栗山町",
    "town": "本沢"
  },
  "0691506": {
    "zipcode": "0691506",
    "prefectureCode": "01",
    "prefectureNumber": 1,
    "prefecture": "北海道",
    "city": "夕張郡栗山町",
    "town": "杵臼"
  },
  "0691507": {
    "zipcode": "0691507",
    "prefectureCode": "01",
    "prefectureNumber": 1,
    "prefecture": "北海道",
    "city": "夕張郡栗山町",
    "town": "旭台"
  },
  "0691508": {
    "zipcode": "0691508",
    "prefectureCode": "01",
    "prefectureNumber": 1,
    "prefecture": "北海道",
    "city": "夕張郡栗山町",
    "town": "湯地"
  },
  "0691511": {
    "zipcode": "0691511",
    "prefectureCode": "01",
    "prefectureNumber": 1,
    "prefecture": "北海道",
    "city": "夕張郡栗山町",
    "town": "中央"
  },
  "0691512": {
    "zipcode": "0691512",
    "prefectureCode": "01",
    "prefectureNumber": 1,
    "prefecture": "北海道",
    "city": "夕張郡栗山町",
    "town": "松風"
  },
  "0691513": {
    "zipcode": "0691513",
    "prefectureCode": "01",
    "prefectureNumber": 1,
    "prefecture": "北海道",
    "city": "夕張郡栗山町",
    "town": "朝日"
  },
  "0691521": {
    "zipcode": "0691521",
    "prefectureCode": "01",
    "prefectureNumber": 1,
    "prefecture": "北海道",
    "city": "夕張郡栗山町",
    "town": "錦"
  },
  "0691522": {
    "zipcode": "0691522",
    "prefectureCode": "01",
    "prefectureNumber": 1,
    "prefecture": "北海道",
    "city": "夕張郡栗山町",
    "town": "中里"
  },
  "0691523": {
    "zipcode": "0691523",
    "prefectureCode": "01",
    "prefectureNumber": 1,
    "prefecture": "北海道",
    "city": "夕張郡栗山町",
    "town": "共和"
  },
  "0691524": {
    "zipcode": "0691524",
    "prefectureCode": "01",
    "prefectureNumber": 1,
    "prefecture": "北海道",
    "city": "夕張郡栗山町",
    "town": "角田"
  },
  "0691525": {
    "zipcode": "0691525",
    "prefectureCode": "01",
    "prefectureNumber": 1,
    "prefecture": "北海道",
    "city": "夕張郡栗山町",
    "town": "三日月"
  },
  "0691526": {
    "zipcode": "0691526",
    "prefectureCode": "01",
    "prefectureNumber": 1,
    "prefecture": "北海道",
    "city": "夕張郡栗山町",
    "town": "富士"
  }
}
