{
  "0700000": {
    "zipcode": "0700000",
    "prefectureCode": "01",
    "prefectureNumber": 1,
    "prefecture": "北海道",
    "city": "旭川市",
    "town": "以下に掲載がない場合"
  },
  "0700001": {
    "zipcode": "0700001",
    "prefectureCode": "01",
    "prefectureNumber": 1,
    "prefecture": "北海道",
    "city": "旭川市",
    "town": "新富１条"
  },
  "0700002": {
    "zipcode": "0700002",
    "prefectureCode": "01",
    "prefectureNumber": 1,
    "prefecture": "北海道",
    "city": "旭川市",
    "town": "新富２条"
  },
  "0700003": {
    "zipcode": "0700003",
    "prefectureCode": "01",
    "prefectureNumber": 1,
    "prefecture": "北海道",
    "city": "旭川市",
    "town": "新富３条"
  },
  "0700010": {
    "zipcode": "0700010",
    "prefectureCode": "01",
    "prefectureNumber": 1,
    "prefecture": "北海道",
    "city": "旭川市",
    "town": "大雪通"
  },
  "0700011": {
    "zipcode": "0700011",
    "prefectureCode": "01",
    "prefectureNumber": 1,
    "prefecture": "北海道",
    "city": "旭川市",
    "town": "パルプ町１条"
  },
  "0700012": {
    "zipcode": "0700012",
    "prefectureCode": "01",
    "prefectureNumber": 1,
    "prefecture": "北海道",
    "city": "旭川市",
    "town": "パルプ町２条"
  },
  "0700013": {
    "zipcode": "0700013",
    "prefectureCode": "01",
    "prefectureNumber": 1,
    "prefecture": "北海道",
    "city": "旭川市",
    "town": "パルプ町"
  },
  "0700014": {
    "zipcode": "0700014",
    "prefectureCode": "01",
    "prefectureNumber": 1,
    "prefecture": "北海道",
    "city": "旭川市",
    "town": "新星町"
  },
  "0700021": {
    "zipcode": "0700021",
    "prefectureCode": "01",
    "prefectureNumber": 1,
    "prefecture": "北海道",
    "city": "旭川市",
    "town": "東１条"
  },
  "0700022": {
    "zipcode": "0700022",
    "prefectureCode": "01",
    "prefectureNumber": 1,
    "prefecture": "北海道",
    "city": "旭川市",
    "town": "東２条"
  },
  "0700023": {
    "zipcode": "0700023",
    "prefectureCode": "01",
    "prefectureNumber": 1,
    "prefecture": "北海道",
    "city": "旭川市",
    "town": "東３条"
  },
  "0700024": {
    "zipcode": "0700024",
    "prefectureCode": "01",
    "prefectureNumber": 1,
    "prefecture": "北海道",
    "city": "旭川市",
    "town": "東４条"
  },
  "0700025": {
    "zipcode": "0700025",
    "prefectureCode": "01",
    "prefectureNumber": 1,
    "prefecture": "北海道",
    "city": "旭川市",
    "town": "東５条"
  },
  "0700026": {
    "zipcode": "0700026",
    "prefectureCode": "01",
    "prefectureNumber": 1,
    "prefecture": "北海道",
    "city": "旭川市",
    "town": "東６条"
  },
  "0700027": {
    "zipcode": "0700027",
    "prefectureCode": "01",
    "prefectureNumber": 1,
    "prefecture": "北海道",
    "city": "旭川市",
    "town": "東７条"
  },
  "0700028": {
    "zipcode": "0700028",
    "prefectureCode": "01",
    "prefectureNumber": 1,
    "prefecture": "北海道",
    "city": "旭川市",
    "town": "東８条"
  },
  "0700029": {
    "zipcode": "0700029",
    "prefectureCode": "01",
    "prefectureNumber": 1,
    "prefecture": "北海道",
    "city": "旭川市",
    "town": "金星町"
  },
  "0700030": {
    "zipcode": "0700030",
    "prefectureCode": "01",
    "prefectureNumber": 1,
    "prefecture": "北海道",
    "city": "旭川市",
    "town": "宮下通（１〜１７丁目）"
  },
  "0700031": {
    "zipcode": "0700031",
    "prefectureCode": "01",
    "prefectureNumber": 1,
    "prefecture": "北海道",
    "city": "旭川市",
    "town": "１条通（１〜１７丁目）"
  },
  "0700032": {
    "zipcode": "0700032",
    "prefectureCode": "01",
    "prefectureNumber": 1,
    "prefecture": "北海道",
    "city": "旭川市",
    "town": "２条通（１〜１７丁目）"
  },
  "0700033": {
    "zipcode": "0700033",
    "prefectureCode": "01",
    "prefectureNumber": 1,
    "prefecture": "北海道",
    "city": "旭川市",
    "town": "３条通（１〜１７丁目）"
  },
  "0700034": {
    "zipcode": "0700034",
    "prefectureCode": "01",
    "prefectureNumber": 1,
    "prefecture": "北海道",
    "city": "旭川市",
    "town": "４条通（１〜１７丁目）"
  },
  "0700035": {
    "zipcode": "0700035",
    "prefectureCode": "01",
    "prefectureNumber": 1,
    "prefecture": "北海道",
    "city": "旭川市",
    "town": "５条通（１〜１７丁目）"
  },
  "0700036": {
    "zipcode": "0700036",
    "prefectureCode": "01",
    "prefectureNumber": 1,
    "prefecture": "北海道",
    "city": "旭川市",
    "town": "６条通（１〜１７丁目）"
  },
  "0700037": {
    "zipcode": "0700037",
    "prefectureCode": "01",
    "prefectureNumber": 1,
    "prefecture": "北海道",
    "city": "旭川市",
    "town": "７条通（１〜１７丁目）"
  },
  "0700038": {
    "zipcode": "0700038",
    "prefectureCode": "01",
    "prefectureNumber": 1,
    "prefecture": "北海道",
    "city": "旭川市",
    "town": "８条通（１〜１７丁目）"
  },
  "0700039": {
    "zipcode": "0700039",
    "prefectureCode": "01",
    "prefectureNumber": 1,
    "prefecture": "北海道",
    "city": "旭川市",
    "town": "９条通（１〜１７丁目）"
  },
  "0700040": {
    "zipcode": "0700040",
    "prefectureCode": "01",
    "prefectureNumber": 1,
    "prefecture": "北海道",
    "city": "旭川市",
    "town": "１０条通（８〜１７丁目）"
  },
  "0700041": {
    "zipcode": "0700041",
    "prefectureCode": "01",
    "prefectureNumber": 1,
    "prefecture": "北海道",
    "city": "旭川市",
    "town": "上常盤町"
  },
  "0700042": {
    "zipcode": "0700042",
    "prefectureCode": "01",
    "prefectureNumber": 1,
    "prefecture": "北海道",
    "city": "旭川市",
    "town": "中常盤町"
  },
  "0700043": {
    "zipcode": "0700043",
    "prefectureCode": "01",
    "prefectureNumber": 1,
    "prefecture": "北海道",
    "city": "旭川市",
    "town": "常盤通"
  },
  "0700044": {
    "zipcode": "0700044",
    "prefectureCode": "01",
    "prefectureNumber": 1,
    "prefecture": "北海道",
    "city": "旭川市",
    "town": "常磐公園"
  },
  "0700052": {
    "zipcode": "0700052",
    "prefectureCode": "01",
    "prefectureNumber": 1,
    "prefecture": "北海道",
    "city": "旭川市",
    "town": "２条西"
  },
  "0700053": {
    "zipcode": "0700053",
    "prefectureCode": "01",
    "prefectureNumber": 1,
    "prefecture": "北海道",
    "city": "旭川市",
    "town": "３条西"
  },
  "0700054": {
    "zipcode": "0700054",
    "prefectureCode": "01",
    "prefectureNumber": 1,
    "prefecture": "北海道",
    "city": "旭川市",
    "town": "４条西"
  },
  "0700055": {
    "zipcode": "0700055",
    "prefectureCode": "01",
    "prefectureNumber": 1,
    "prefecture": "北海道",
    "city": "旭川市",
    "town": "５条西"
  },
  "0700056": {
    "zipcode": "0700056",
    "prefectureCode": "01",
    "prefectureNumber": 1,
    "prefecture": "北海道",
    "city": "旭川市",
    "town": "６条西"
  },
  "0700057": {
    "zipcode": "0700057",
    "prefectureCode": "01",
    "prefectureNumber": 1,
    "prefecture": "北海道",
    "city": "旭川市",
    "town": "７条西"
  },
  "0700058": {
    "zipcode": "0700058",
    "prefectureCode": "01",
    "prefectureNumber": 1,
    "prefecture": "北海道",
    "city": "旭川市",
    "town": "８条西"
  },
  "0700059": {
    "zipcode": "0700059",
    "prefectureCode": "01",
    "prefectureNumber": 1,
    "prefecture": "北海道",
    "city": "旭川市",
    "town": "９条西"
  },
  "0700061": {
    "zipcode": "0700061",
    "prefectureCode": "01",
    "prefectureNumber": 1,
    "prefecture": "北海道",
    "city": "旭川市",
    "town": "曙１条"
  },
  "0700062": {
    "zipcode": "0700062",
    "prefectureCode": "01",
    "prefectureNumber": 1,
    "prefecture": "北海道",
    "city": "旭川市",
    "town": "曙２条"
  },
  "0700063": {
    "zipcode": "0700063",
    "prefectureCode": "01",
    "prefectureNumber": 1,
    "prefecture": "北海道",
    "city": "旭川市",
    "town": "曙３条"
  },
  "0700072": {
    "zipcode": "0700072",
    "prefectureCode": "01",
    "prefectureNumber": 1,
    "prefecture": "北海道",
    "city": "旭川市",
    "town": "曙北２条"
  },
  "0700073": {
    "zipcode": "0700073",
    "prefectureCode": "01",
    "prefectureNumber": 1,
    "prefecture": "北海道",
    "city": "旭川市",
    "town": "曙北３条"
  },
  "0700081": {
    "zipcode": "0700081",
    "prefectureCode": "01",
    "prefectureNumber": 1,
    "prefecture": "北海道",
    "city": "旭川市",
    "town": "亀吉１条"
  },
  "0700082": {
    "zipcode": "0700082",
    "prefectureCode": "01",
    "prefectureNumber": 1,
    "prefecture": "北海道",
    "city": "旭川市",
    "town": "亀吉２条"
  },
  "0700083": {
    "zipcode": "0700083",
    "prefectureCode": "01",
    "prefectureNumber": 1,
    "prefecture": "北海道",
    "city": "旭川市",
    "town": "亀吉３条"
  },
  "0700810": {
    "zipcode": "0700810",
    "prefectureCode": "01",
    "prefectureNumber": 1,
    "prefecture": "北海道",
    "city": "旭川市",
    "town": "本町"
  },
  "0700811": {
    "zipcode": "0700811",
    "prefectureCode": "01",
    "prefectureNumber": 1,
    "prefecture": "北海道",
    "city": "旭川市",
    "town": "川端町１条"
  },
  "0700812": {
    "zipcode": "0700812",
    "prefectureCode": "01",
    "prefectureNumber": 1,
    "prefecture": "北海道",
    "city": "旭川市",
    "town": "川端町２条"
  },
  "0700813": {
    "zipcode": "0700813",
    "prefectureCode": "01",
    "prefectureNumber": 1,
    "prefecture": "北海道",
    "city": "旭川市",
    "town": "川端町３条"
  },
  "0700814": {
    "zipcode": "0700814",
    "prefectureCode": "01",
    "prefectureNumber": 1,
    "prefecture": "北海道",
    "city": "旭川市",
    "town": "川端町４条"
  },
  "0700815": {
    "zipcode": "0700815",
    "prefectureCode": "01",
    "prefectureNumber": 1,
    "prefecture": "北海道",
    "city": "旭川市",
    "town": "川端町５条"
  },
  "0700816": {
    "zipcode": "0700816",
    "prefectureCode": "01",
    "prefectureNumber": 1,
    "prefecture": "北海道",
    "city": "旭川市",
    "town": "川端町６条"
  },
  "0700817": {
    "zipcode": "0700817",
    "prefectureCode": "01",
    "prefectureNumber": 1,
    "prefecture": "北海道",
    "city": "旭川市",
    "town": "川端町７条"
  },
  "0700821": {
    "zipcode": "0700821",
    "prefectureCode": "01",
    "prefectureNumber": 1,
    "prefecture": "北海道",
    "city": "旭川市",
    "town": "近文町"
  },
  "0700822": {
    "zipcode": "0700822",
    "prefectureCode": "01",
    "prefectureNumber": 1,
    "prefecture": "北海道",
    "city": "旭川市",
    "town": "旭岡"
  },
  "0700823": {
    "zipcode": "0700823",
    "prefectureCode": "01",
    "prefectureNumber": 1,
    "prefecture": "北海道",
    "city": "旭川市",
    "town": "緑町"
  },
  "0700824": {
    "zipcode": "0700824",
    "prefectureCode": "01",
    "prefectureNumber": 1,
    "prefecture": "北海道",
    "city": "旭川市",
    "town": "錦町"
  },
  "0700825": {
    "zipcode": "0700825",
    "prefectureCode": "01",
    "prefectureNumber": 1,
    "prefecture": "北海道",
    "city": "旭川市",
    "town": "北門町"
  },
  "0700831": {
    "zipcode": "0700831",
    "prefectureCode": "01",
    "prefectureNumber": 1,
    "prefecture": "北海道",
    "city": "旭川市",
    "town": "旭町１条"
  },
  "0700832": {
    "zipcode": "0700832",
    "prefectureCode": "01",
    "prefectureNumber": 1,
    "prefecture": "北海道",
    "city": "旭川市",
    "town": "旭町２条"
  },
  "0700841": {
    "zipcode": "0700841",
    "prefectureCode": "01",
    "prefectureNumber": 1,
    "prefecture": "北海道",
    "city": "旭川市",
    "town": "大町１条"
  },
  "0700842": {
    "zipcode": "0700842",
    "prefectureCode": "01",
    "prefectureNumber": 1,
    "prefecture": "北海道",
    "city": "旭川市",
    "town": "大町２条"
  },
  "0700843": {
    "zipcode": "0700843",
    "prefectureCode": "01",
    "prefectureNumber": 1,
    "prefecture": "北海道",
    "city": "旭川市",
    "town": "大町３条"
  },
  "0700864": {
    "zipcode": "0700864",
    "prefectureCode": "01",
    "prefectureNumber": 1,
    "prefecture": "北海道",
    "city": "旭川市",
    "town": "住吉４条"
  },
  "0700865": {
    "zipcode": "0700865",
    "prefectureCode": "01",
    "prefectureNumber": 1,
    "prefecture": "北海道",
    "city": "旭川市",
    "town": "住吉５条"
  },
  "0700866": {
    "zipcode": "0700866",
    "prefectureCode": "01",
    "prefectureNumber": 1,
    "prefecture": "北海道",
    "city": "旭川市",
    "town": "住吉６条"
  },
  "0700867": {
    "zipcode": "0700867",
    "prefectureCode": "01",
    "prefectureNumber": 1,
    "prefecture": "北海道",
    "city": "旭川市",
    "town": "住吉７条"
  },
  "0700871": {
    "zipcode": "0700871",
    "prefectureCode": "01",
    "prefectureNumber": 1,
    "prefecture": "北海道",
    "city": "旭川市",
    "town": "春光１条"
  },
  "0700872": {
    "zipcode": "0700872",
    "prefectureCode": "01",
    "prefectureNumber": 1,
    "prefecture": "北海道",
    "city": "旭川市",
    "town": "春光２条"
  },
  "0700873": {
    "zipcode": "0700873",
    "prefectureCode": "01",
    "prefectureNumber": 1,
    "prefecture": "北海道",
    "city": "旭川市",
    "town": "春光３条"
  },
  "0700874": {
    "zipcode": "0700874",
    "prefectureCode": "01",
    "prefectureNumber": 1,
    "prefecture": "北海道",
    "city": "旭川市",
    "town": "春光４条"
  },
  "0700875": {
    "zipcode": "0700875",
    "prefectureCode": "01",
    "prefectureNumber": 1,
    "prefecture": "北海道",
    "city": "旭川市",
    "town": "春光５条"
  },
  "0700876": {
    "zipcode": "0700876",
    "prefectureCode": "01",
    "prefectureNumber": 1,
    "prefecture": "北海道",
    "city": "旭川市",
    "town": "春光６条"
  },
  "0700877": {
    "zipcode": "0700877",
    "prefectureCode": "01",
    "prefectureNumber": 1,
    "prefecture": "北海道",
    "city": "旭川市",
    "town": "春光７条"
  },
  "0700901": {
    "zipcode": "0700901",
    "prefectureCode": "01",
    "prefectureNumber": 1,
    "prefecture": "北海道",
    "city": "旭川市",
    "town": "花咲町"
  },
  "0700902": {
    "zipcode": "0700902",
    "prefectureCode": "01",
    "prefectureNumber": 1,
    "prefecture": "北海道",
    "city": "旭川市",
    "town": "春光町"
  },
  "0700971": {
    "zipcode": "0700971",
    "prefectureCode": "01",
    "prefectureNumber": 1,
    "prefecture": "北海道",
    "city": "旭川市",
    "town": "４区１条"
  },
  "0700972": {
    "zipcode": "0700972",
    "prefectureCode": "01",
    "prefectureNumber": 1,
    "prefecture": "北海道",
    "city": "旭川市",
    "town": "４区２条"
  },
  "0700973": {
    "zipcode": "0700973",
    "prefectureCode": "01",
    "prefectureNumber": 1,
    "prefecture": "北海道",
    "city": "旭川市",
    "town": "４区３条"
  },
  "0708001": {
    "zipcode": "0708001",
    "prefectureCode": "01",
    "prefectureNumber": 1,
    "prefecture": "北海道",
    "city": "旭川市",
    "town": "神楽１条"
  },
  "0708002": {
    "zipcode": "0708002",
    "prefectureCode": "01",
    "prefectureNumber": 1,
    "prefecture": "北海道",
    "city": "旭川市",
    "town": "神楽２条"
  },
  "0708003": {
    "zipcode": "0708003",
    "prefectureCode": "01",
    "prefectureNumber": 1,
    "prefecture": "北海道",
    "city": "旭川市",
    "town": "神楽３条"
  },
  "0708004": {
    "zipcode": "0708004",
    "prefectureCode": "01",
    "prefectureNumber": 1,
    "prefecture": "北海道",
    "city": "旭川市",
    "town": "神楽４条"
  },
  "0708005": {
    "zipcode": "0708005",
    "prefectureCode": "01",
    "prefectureNumber": 1,
    "prefecture": "北海道",
    "city": "旭川市",
    "town": "神楽５条"
  },
  "0708006": {
    "zipcode": "0708006",
    "prefectureCode": "01",
    "prefectureNumber": 1,
    "prefecture": "北海道",
    "city": "旭川市",
    "town": "神楽６条"
  },
  "0708007": {
    "zipcode": "0708007",
    "prefectureCode": "01",
    "prefectureNumber": 1,
    "prefecture": "北海道",
    "city": "旭川市",
    "town": "神楽７条"
  },
  "0708011": {
    "zipcode": "0708011",
    "prefectureCode": "01",
    "prefectureNumber": 1,
    "prefecture": "北海道",
    "city": "旭川市",
    "town": "神居１条"
  },
  "0708012": {
    "zipcode": "0708012",
    "prefectureCode": "01",
    "prefectureNumber": 1,
    "prefecture": "北海道",
    "city": "旭川市",
    "town": "神居２条"
  },
  "0708013": {
    "zipcode": "0708013",
    "prefectureCode": "01",
    "prefectureNumber": 1,
    "prefecture": "北海道",
    "city": "旭川市",
    "town": "神居３条"
  },
  "0708014": {
    "zipcode": "0708014",
    "prefectureCode": "01",
    "prefectureNumber": 1,
    "prefecture": "北海道",
    "city": "旭川市",
    "town": "神居４条"
  },
  "0708015": {
    "zipcode": "0708015",
    "prefectureCode": "01",
    "prefectureNumber": 1,
    "prefecture": "北海道",
    "city": "旭川市",
    "town": "神居５条"
  },
  "0708016": {
    "zipcode": "0708016",
    "prefectureCode": "01",
    "prefectureNumber": 1,
    "prefecture": "北海道",
    "city": "旭川市",
    "town": "神居６条"
  },
  "0708017": {
    "zipcode": "0708017",
    "prefectureCode": "01",
    "prefectureNumber": 1,
    "prefecture": "北海道",
    "city": "旭川市",
    "town": "神居７条"
  },
  "0708018": {
    "zipcode": "0708018",
    "prefectureCode": "01",
    "prefectureNumber": 1,
    "prefecture": "北海道",
    "city": "旭川市",
    "town": "神居８条"
  },
  "0708019": {
    "zipcode": "0708019",
    "prefectureCode": "01",
    "prefectureNumber": 1,
    "prefecture": "北海道",
    "city": "旭川市",
    "town": "神居９条"
  },
  "0708021": {
    "zipcode": "0708021",
    "prefectureCode": "01",
    "prefectureNumber": 1,
    "prefecture": "北海道",
    "city": "旭川市",
    "town": "神居町忠和"
  },
  "0708022": {
    "zipcode": "0708022",
    "prefectureCode": "01",
    "prefectureNumber": 1,
    "prefecture": "北海道",
    "city": "旭川市",
    "town": "神居町台場"
  },
  "0708023": {
    "zipcode": "0708023",
    "prefectureCode": "01",
    "prefectureNumber": 1,
    "prefecture": "北海道",
    "city": "旭川市",
    "town": "神居町春志内"
  },
  "0708024": {
    "zipcode": "0708024",
    "prefectureCode": "01",
    "prefectureNumber": 1,
    "prefecture": "北海道",
    "city": "旭川市",
    "town": "神居町富沢"
  },
  "0708025": {
    "zipcode": "0708025",
    "prefectureCode": "01",
    "prefectureNumber": 1,
    "prefecture": "北海道",
    "city": "旭川市",
    "town": "神居町富岡"
  },
  "0708026": {
    "zipcode": "0708026",
    "prefectureCode": "01",
    "prefectureNumber": 1,
    "prefecture": "北海道",
    "city": "旭川市",
    "town": "神居町神岡"
  },
  "0708027": {
    "zipcode": "0708027",
    "prefectureCode": "01",
    "prefectureNumber": 1,
    "prefecture": "北海道",
    "city": "旭川市",
    "town": "台場東"
  },
  "0708028": {
    "zipcode": "0708028",
    "prefectureCode": "01",
    "prefectureNumber": 1,
    "prefecture": "北海道",
    "city": "旭川市",
    "town": "南が丘"
  },
  "0708031": {
    "zipcode": "0708031",
    "prefectureCode": "01",
    "prefectureNumber": 1,
    "prefecture": "北海道",
    "city": "旭川市",
    "town": "神居町神華"
  },
  "0708032": {
    "zipcode": "0708032",
    "prefectureCode": "01",
    "prefectureNumber": 1,
    "prefecture": "北海道",
    "city": "旭川市",
    "town": "神居町共栄"
  },
  "0708033": {
    "zipcode": "0708033",
    "prefectureCode": "01",
    "prefectureNumber": 1,
    "prefecture": "北海道",
    "city": "旭川市",
    "town": "神居町雨紛"
  },
  "0708034": {
    "zipcode": "0708034",
    "prefectureCode": "01",
    "prefectureNumber": 1,
    "prefecture": "北海道",
    "city": "旭川市",
    "town": "神居町上雨紛"
  },
  "0708041": {
    "zipcode": "0708041",
    "prefectureCode": "01",
    "prefectureNumber": 1,
    "prefecture": "北海道",
    "city": "旭川市",
    "town": "忠和１条"
  },
  "0708042": {
    "zipcode": "0708042",
    "prefectureCode": "01",
    "prefectureNumber": 1,
    "prefecture": "北海道",
    "city": "旭川市",
    "town": "忠和２条"
  },
  "0708043": {
    "zipcode": "0708043",
    "prefectureCode": "01",
    "prefectureNumber": 1,
    "prefecture": "北海道",
    "city": "旭川市",
    "town": "忠和３条"
  },
  "0708044": {
    "zipcode": "0708044",
    "prefectureCode": "01",
    "prefectureNumber": 1,
    "prefecture": "北海道",
    "city": "旭川市",
    "town": "忠和４条"
  },
  "0708045": {
    "zipcode": "0708045",
    "prefectureCode": "01",
    "prefectureNumber": 1,
    "prefecture": "北海道",
    "city": "旭川市",
    "town": "忠和５条"
  },
  "0708046": {
    "zipcode": "0708046",
    "prefectureCode": "01",
    "prefectureNumber": 1,
    "prefecture": "北海道",
    "city": "旭川市",
    "town": "忠和６条"
  },
  "0708047": {
    "zipcode": "0708047",
    "prefectureCode": "01",
    "prefectureNumber": 1,
    "prefecture": "北海道",
    "city": "旭川市",
    "town": "忠和７条"
  },
  "0708048": {
    "zipcode": "0708048",
    "prefectureCode": "01",
    "prefectureNumber": 1,
    "prefecture": "北海道",
    "city": "旭川市",
    "town": "忠和８条"
  },
  "0708049": {
    "zipcode": "0708049",
    "prefectureCode": "01",
    "prefectureNumber": 1,
    "prefecture": "北海道",
    "city": "旭川市",
    "town": "忠和９条"
  },
  "0708051": {
    "zipcode": "0708051",
    "prefectureCode": "01",
    "prefectureNumber": 1,
    "prefecture": "北海道",
    "city": "旭川市",
    "town": "江丹別町嵐山"
  },
  "0708052": {
    "zipcode": "0708052",
    "prefectureCode": "01",
    "prefectureNumber": 1,
    "prefecture": "北海道",
    "city": "旭川市",
    "town": "江丹別町春日"
  },
  "0708053": {
    "zipcode": "0708053",
    "prefectureCode": "01",
    "prefectureNumber": 1,
    "prefecture": "北海道",
    "city": "旭川市",
    "town": "江丹別町共和"
  },
  "0708061": {
    "zipcode": "0708061",
    "prefectureCode": "01",
    "prefectureNumber": 1,
    "prefecture": "北海道",
    "city": "旭川市",
    "town": "高砂台"
  },
  "0708071": {
    "zipcode": "0708071",
    "prefectureCode": "01",
    "prefectureNumber": 1,
    "prefecture": "北海道",
    "city": "旭川市",
    "town": "台場１条"
  },
  "0708072": {
    "zipcode": "0708072",
    "prefectureCode": "01",
    "prefectureNumber": 1,
    "prefecture": "北海道",
    "city": "旭川市",
    "town": "台場２条"
  },
  "0708073": {
    "zipcode": "0708073",
    "prefectureCode": "01",
    "prefectureNumber": 1,
    "prefecture": "北海道",
    "city": "旭川市",
    "town": "台場３条"
  },
  "0708074": {
    "zipcode": "0708074",
    "prefectureCode": "01",
    "prefectureNumber": 1,
    "prefecture": "北海道",
    "city": "旭川市",
    "town": "台場４条"
  }
}
