{
  "0780151": {
    "zipcode": "0780151",
    "prefectureCode": "01",
    "prefectureNumber": 1,
    "prefecture": "北海道",
    "city": "深川市",
    "town": "納内町"
  },
  "0780152": {
    "zipcode": "0780152",
    "prefectureCode": "01",
    "prefectureNumber": 1,
    "prefecture": "北海道",
    "city": "深川市",
    "town": "音江町（内園）"
  },
  "0780153": {
    "zipcode": "0780153",
    "prefectureCode": "01",
    "prefectureNumber": 1,
    "prefecture": "北海道",
    "city": "深川市",
    "town": "納内町北"
  },
  "0780154": {
    "zipcode": "0780154",
    "prefectureCode": "01",
    "prefectureNumber": 1,
    "prefecture": "北海道",
    "city": "深川市",
    "town": "納内町グリーンタウン"
  },
  "0780185": {
    "zipcode": "0780185",
    "prefectureCode": "01",
    "prefectureNumber": 1,
    "prefecture": "北海道",
    "city": "旭川市",
    "town": "神居町神居古潭"
  },
  "0780186": {
    "zipcode": "0780186",
    "prefectureCode": "01",
    "prefectureNumber": 1,
    "prefecture": "北海道",
    "city": "旭川市",
    "town": "神居町西丘（８〜２２番地）"
  },
  "0780300": {
    "zipcode": "0780300",
    "prefectureCode": "01",
    "prefectureNumber": 1,
    "prefecture": "北海道",
    "city": "上川郡比布町",
    "town": "以下に掲載がない場合"
  },
  "0780310": {
    "zipcode": "0780310",
    "prefectureCode": "01",
    "prefectureNumber": 1,
    "prefecture": "北海道",
    "city": "上川郡比布町",
    "town": "基線"
  },
  "0780311": {
    "zipcode": "0780311",
    "prefectureCode": "01",
    "prefectureNumber": 1,
    "prefecture": "北海道",
    "city": "上川郡比布町",
    "town": "南１線"
  },
  "0780321": {
    "zipcode": "0780321",
    "prefectureCode": "01",
    "prefectureNumber": 1,
    "prefecture": "北海道",
    "city": "上川郡比布町",
    "town": "北１線"
  },
  "0780322": {
    "zipcode": "0780322",
    "prefectureCode": "01",
    "prefectureNumber": 1,
    "prefecture": "北海道",
    "city": "上川郡比布町",
    "town": "北２線"
  },
  "0780323": {
    "zipcode": "0780323",
    "prefectureCode": "01",
    "prefectureNumber": 1,
    "prefecture": "北海道",
    "city": "上川郡比布町",
    "town": "北３線"
  },
  "0780324": {
    "zipcode": "0780324",
    "prefectureCode": "01",
    "prefectureNumber": 1,
    "prefecture": "北海道",
    "city": "上川郡比布町",
    "town": "北４線"
  },
  "0780325": {
    "zipcode": "0780325",
    "prefectureCode": "01",
    "prefectureNumber": 1,
    "prefecture": "北海道",
    "city": "上川郡比布町",
    "town": "北５線"
  },
  "0780326": {
    "zipcode": "0780326",
    "prefectureCode": "01",
    "prefectureNumber": 1,
    "prefecture": "北海道",
    "city": "上川郡比布町",
    "town": "北６線"
  },
  "0780327": {
    "zipcode": "0780327",
    "prefectureCode": "01",
    "prefectureNumber": 1,
    "prefecture": "北海道",
    "city": "上川郡比布町",
    "town": "北７線"
  },
  "0780328": {
    "zipcode": "0780328",
    "prefectureCode": "01",
    "prefectureNumber": 1,
    "prefecture": "北海道",
    "city": "上川郡比布町",
    "town": "北８線"
  },
  "0780329": {
    "zipcode": "0780329",
    "prefectureCode": "01",
    "prefectureNumber": 1,
    "prefecture": "北海道",
    "city": "上川郡比布町",
    "town": "北９線"
  },
  "0780330": {
    "zipcode": "0780330",
    "prefectureCode": "01",
    "prefectureNumber": 1,
    "prefecture": "北海道",
    "city": "上川郡比布町",
    "town": "北１０線"
  },
  "0780331": {
    "zipcode": "0780331",
    "prefectureCode": "01",
    "prefectureNumber": 1,
    "prefecture": "北海道",
    "city": "上川郡比布町",
    "town": "北１１線"
  },
  "0780332": {
    "zipcode": "0780332",
    "prefectureCode": "01",
    "prefectureNumber": 1,
    "prefecture": "北海道",
    "city": "上川郡比布町",
    "town": "北１２線"
  },
  "0780333": {
    "zipcode": "0780333",
    "prefectureCode": "01",
    "prefectureNumber": 1,
    "prefecture": "北海道",
    "city": "上川郡比布町",
    "town": "北１３線"
  },
  "0780334": {
    "zipcode": "0780334",
    "prefectureCode": "01",
    "prefectureNumber": 1,
    "prefecture": "北海道",
    "city": "上川郡比布町",
    "town": "北１４線"
  },
  "0780335": {
    "zipcode": "0780335",
    "prefectureCode": "01",
    "prefectureNumber": 1,
    "prefecture": "北海道",
    "city": "上川郡比布町",
    "town": "北１５線"
  },
  "0780341": {
    "zipcode": "0780341",
    "prefectureCode": "01",
    "prefectureNumber": 1,
    "prefecture": "北海道",
    "city": "上川郡比布町",
    "town": "市街地"
  },
  "0780342": {
    "zipcode": "0780342",
    "prefectureCode": "01",
    "prefectureNumber": 1,
    "prefecture": "北海道",
    "city": "上川郡比布町",
    "town": "西町"
  },
  "0780343": {
    "zipcode": "0780343",
    "prefectureCode": "01",
    "prefectureNumber": 1,
    "prefecture": "北海道",
    "city": "上川郡比布町",
    "town": "中町"
  },
  "0780344": {
    "zipcode": "0780344",
    "prefectureCode": "01",
    "prefectureNumber": 1,
    "prefecture": "北海道",
    "city": "上川郡比布町",
    "town": "緑町"
  },
  "0780345": {
    "zipcode": "0780345",
    "prefectureCode": "01",
    "prefectureNumber": 1,
    "prefecture": "北海道",
    "city": "上川郡比布町",
    "town": "南町"
  },
  "0780346": {
    "zipcode": "0780346",
    "prefectureCode": "01",
    "prefectureNumber": 1,
    "prefecture": "北海道",
    "city": "上川郡比布町",
    "town": "新町"
  },
  "0780347": {
    "zipcode": "0780347",
    "prefectureCode": "01",
    "prefectureNumber": 1,
    "prefecture": "北海道",
    "city": "上川郡比布町",
    "town": "東町"
  },
  "0780348": {
    "zipcode": "0780348",
    "prefectureCode": "01",
    "prefectureNumber": 1,
    "prefecture": "北海道",
    "city": "上川郡比布町",
    "town": "北町"
  },
  "0780349": {
    "zipcode": "0780349",
    "prefectureCode": "01",
    "prefectureNumber": 1,
    "prefecture": "北海道",
    "city": "上川郡比布町",
    "town": "寿町"
  },
  "0781271": {
    "zipcode": "0781271",
    "prefectureCode": "01",
    "prefectureNumber": 1,
    "prefecture": "北海道",
    "city": "旭川市",
    "town": "東旭川町東桜岡（その他）"
  },
  "0781272": {
    "zipcode": "0781272",
    "prefectureCode": "01",
    "prefectureNumber": 1,
    "prefecture": "北海道",
    "city": "旭川市",
    "town": "東旭川町豊田（その他）"
  },
  "0781273": {
    "zipcode": "0781273",
    "prefectureCode": "01",
    "prefectureNumber": 1,
    "prefecture": "北海道",
    "city": "旭川市",
    "town": "東旭川町米原"
  },
  "0781274": {
    "zipcode": "0781274",
    "prefectureCode": "01",
    "prefectureNumber": 1,
    "prefecture": "北海道",
    "city": "旭川市",
    "town": "東旭川町瑞穂"
  },
  "0781300": {
    "zipcode": "0781300",
    "prefectureCode": "01",
    "prefectureNumber": 1,
    "prefecture": "北海道",
    "city": "上川郡当麻町",
    "town": "以下に掲載がない場合"
  },
  "0781303": {
    "zipcode": "0781303",
    "prefectureCode": "01",
    "prefectureNumber": 1,
    "prefecture": "北海道",
    "city": "上川郡当麻町",
    "town": "三条西"
  },
  "0781304": {
    "zipcode": "0781304",
    "prefectureCode": "01",
    "prefectureNumber": 1,
    "prefecture": "北海道",
    "city": "上川郡当麻町",
    "town": "四条西"
  },
  "0781305": {
    "zipcode": "0781305",
    "prefectureCode": "01",
    "prefectureNumber": 1,
    "prefecture": "北海道",
    "city": "上川郡当麻町",
    "town": "五条西"
  },
  "0781306": {
    "zipcode": "0781306",
    "prefectureCode": "01",
    "prefectureNumber": 1,
    "prefecture": "北海道",
    "city": "上川郡当麻町",
    "town": "六条西"
  },
  "0781313": {
    "zipcode": "0781313",
    "prefectureCode": "01",
    "prefectureNumber": 1,
    "prefecture": "北海道",
    "city": "上川郡当麻町",
    "town": "三条東"
  },
  "0781314": {
    "zipcode": "0781314",
    "prefectureCode": "01",
    "prefectureNumber": 1,
    "prefecture": "北海道",
    "city": "上川郡当麻町",
    "town": "四条東"
  },
  "0781315": {
    "zipcode": "0781315",
    "prefectureCode": "01",
    "prefectureNumber": 1,
    "prefecture": "北海道",
    "city": "上川郡当麻町",
    "town": "五条東"
  },
  "0781316": {
    "zipcode": "0781316",
    "prefectureCode": "01",
    "prefectureNumber": 1,
    "prefecture": "北海道",
    "city": "上川郡当麻町",
    "town": "六条東"
  },
  "0781324": {
    "zipcode": "0781324",
    "prefectureCode": "01",
    "prefectureNumber": 1,
    "prefecture": "北海道",
    "city": "上川郡当麻町",
    "town": "四条南"
  },
  "0781331": {
    "zipcode": "0781331",
    "prefectureCode": "01",
    "prefectureNumber": 1,
    "prefecture": "北海道",
    "city": "上川郡当麻町",
    "town": "中央"
  },
  "0781332": {
    "zipcode": "0781332",
    "prefectureCode": "01",
    "prefectureNumber": 1,
    "prefecture": "北海道",
    "city": "上川郡当麻町",
    "town": "宇園別"
  },
  "0781333": {
    "zipcode": "0781333",
    "prefectureCode": "01",
    "prefectureNumber": 1,
    "prefecture": "北海道",
    "city": "上川郡当麻町",
    "town": "伊香牛"
  },
  "0781334": {
    "zipcode": "0781334",
    "prefectureCode": "01",
    "prefectureNumber": 1,
    "prefecture": "北海道",
    "city": "上川郡当麻町",
    "town": "北星"
  },
  "0781335": {
    "zipcode": "0781335",
    "prefectureCode": "01",
    "prefectureNumber": 1,
    "prefecture": "北海道",
    "city": "上川郡当麻町",
    "town": "緑郷"
  },
  "0781337": {
    "zipcode": "0781337",
    "prefectureCode": "01",
    "prefectureNumber": 1,
    "prefecture": "北海道",
    "city": "上川郡当麻町",
    "town": "東"
  },
  "0781341": {
    "zipcode": "0781341",
    "prefectureCode": "01",
    "prefectureNumber": 1,
    "prefecture": "北海道",
    "city": "上川郡当麻町",
    "town": "開明"
  },
  "0781400": {
    "zipcode": "0781400",
    "prefectureCode": "01",
    "prefectureNumber": 1,
    "prefecture": "北海道",
    "city": "上川郡愛別町",
    "town": "以下に掲載がない場合"
  },
  "0781401": {
    "zipcode": "0781401",
    "prefectureCode": "01",
    "prefectureNumber": 1,
    "prefecture": "北海道",
    "city": "上川郡愛別町",
    "town": "愛別"
  },
  "0781402": {
    "zipcode": "0781402",
    "prefectureCode": "01",
    "prefectureNumber": 1,
    "prefecture": "北海道",
    "city": "上川郡愛別町",
    "town": "東町"
  },
  "0781403": {
    "zipcode": "0781403",
    "prefectureCode": "01",
    "prefectureNumber": 1,
    "prefecture": "北海道",
    "city": "上川郡愛別町",
    "town": "南町"
  },
  "0781404": {
    "zipcode": "0781404",
    "prefectureCode": "01",
    "prefectureNumber": 1,
    "prefecture": "北海道",
    "city": "上川郡愛別町",
    "town": "北町"
  },
  "0781405": {
    "zipcode": "0781405",
    "prefectureCode": "01",
    "prefectureNumber": 1,
    "prefecture": "北海道",
    "city": "上川郡愛別町",
    "town": "本町"
  },
  "0781411": {
    "zipcode": "0781411",
    "prefectureCode": "01",
    "prefectureNumber": 1,
    "prefecture": "北海道",
    "city": "上川郡愛別町",
    "town": "金富"
  },
  "0781412": {
    "zipcode": "0781412",
    "prefectureCode": "01",
    "prefectureNumber": 1,
    "prefecture": "北海道",
    "city": "上川郡愛別町",
    "town": "厚生"
  },
  "0781413": {
    "zipcode": "0781413",
    "prefectureCode": "01",
    "prefectureNumber": 1,
    "prefecture": "北海道",
    "city": "上川郡愛別町",
    "town": "伏古"
  },
  "0781414": {
    "zipcode": "0781414",
    "prefectureCode": "01",
    "prefectureNumber": 1,
    "prefecture": "北海道",
    "city": "上川郡愛別町",
    "town": "協和"
  },
  "0781415": {
    "zipcode": "0781415",
    "prefectureCode": "01",
    "prefectureNumber": 1,
    "prefecture": "北海道",
    "city": "上川郡愛別町",
    "town": "徳星"
  },
  "0781651": {
    "zipcode": "0781651",
    "prefectureCode": "01",
    "prefectureNumber": 1,
    "prefecture": "北海道",
    "city": "上川郡愛別町",
    "town": "豊里"
  },
  "0781652": {
    "zipcode": "0781652",
    "prefectureCode": "01",
    "prefectureNumber": 1,
    "prefecture": "北海道",
    "city": "上川郡愛別町",
    "town": "中央"
  },
  "0781653": {
    "zipcode": "0781653",
    "prefectureCode": "01",
    "prefectureNumber": 1,
    "prefecture": "北海道",
    "city": "上川郡愛別町",
    "town": "愛山"
  },
  "0781654": {
    "zipcode": "0781654",
    "prefectureCode": "01",
    "prefectureNumber": 1,
    "prefecture": "北海道",
    "city": "上川郡愛別町",
    "town": "愛山町"
  },
  "0781700": {
    "zipcode": "0781700",
    "prefectureCode": "01",
    "prefectureNumber": 1,
    "prefecture": "北海道",
    "city": "上川郡上川町",
    "town": "以下に掲載がない場合"
  },
  "0781701": {
    "zipcode": "0781701",
    "prefectureCode": "01",
    "prefectureNumber": 1,
    "prefecture": "北海道",
    "city": "上川郡上川町",
    "town": "層雲峡"
  },
  "0781711": {
    "zipcode": "0781711",
    "prefectureCode": "01",
    "prefectureNumber": 1,
    "prefecture": "北海道",
    "city": "上川郡上川町",
    "town": "清川"
  },
  "0781712": {
    "zipcode": "0781712",
    "prefectureCode": "01",
    "prefectureNumber": 1,
    "prefecture": "北海道",
    "city": "上川郡上川町",
    "town": "白川"
  },
  "0781721": {
    "zipcode": "0781721",
    "prefectureCode": "01",
    "prefectureNumber": 1,
    "prefecture": "北海道",
    "city": "上川郡上川町",
    "town": "菊水"
  },
  "0781722": {
    "zipcode": "0781722",
    "prefectureCode": "01",
    "prefectureNumber": 1,
    "prefecture": "北海道",
    "city": "上川郡上川町",
    "town": "新光町"
  },
  "0781731": {
    "zipcode": "0781731",
    "prefectureCode": "01",
    "prefectureNumber": 1,
    "prefecture": "北海道",
    "city": "上川郡上川町",
    "town": "東雲"
  },
  "0781732": {
    "zipcode": "0781732",
    "prefectureCode": "01",
    "prefectureNumber": 1,
    "prefecture": "北海道",
    "city": "上川郡上川町",
    "town": "共進"
  },
  "0781733": {
    "zipcode": "0781733",
    "prefectureCode": "01",
    "prefectureNumber": 1,
    "prefecture": "北海道",
    "city": "上川郡上川町",
    "town": "栄町"
  },
  "0781741": {
    "zipcode": "0781741",
    "prefectureCode": "01",
    "prefectureNumber": 1,
    "prefecture": "北海道",
    "city": "上川郡上川町",
    "town": "中央町"
  },
  "0781742": {
    "zipcode": "0781742",
    "prefectureCode": "01",
    "prefectureNumber": 1,
    "prefecture": "北海道",
    "city": "上川郡上川町",
    "town": "西町"
  },
  "0781743": {
    "zipcode": "0781743",
    "prefectureCode": "01",
    "prefectureNumber": 1,
    "prefecture": "北海道",
    "city": "上川郡上川町",
    "town": "花園町"
  },
  "0781744": {
    "zipcode": "0781744",
    "prefectureCode": "01",
    "prefectureNumber": 1,
    "prefecture": "北海道",
    "city": "上川郡上川町",
    "town": "北町"
  },
  "0781751": {
    "zipcode": "0781751",
    "prefectureCode": "01",
    "prefectureNumber": 1,
    "prefecture": "北海道",
    "city": "上川郡上川町",
    "town": "本町"
  },
  "0781752": {
    "zipcode": "0781752",
    "prefectureCode": "01",
    "prefectureNumber": 1,
    "prefecture": "北海道",
    "city": "上川郡上川町",
    "town": "川端町"
  },
  "0781753": {
    "zipcode": "0781753",
    "prefectureCode": "01",
    "prefectureNumber": 1,
    "prefecture": "北海道",
    "city": "上川郡上川町",
    "town": "南町"
  },
  "0781761": {
    "zipcode": "0781761",
    "prefectureCode": "01",
    "prefectureNumber": 1,
    "prefecture": "北海道",
    "city": "上川郡上川町",
    "town": "旭町"
  },
  "0781762": {
    "zipcode": "0781762",
    "prefectureCode": "01",
    "prefectureNumber": 1,
    "prefecture": "北海道",
    "city": "上川郡上川町",
    "town": "新町"
  },
  "0781763": {
    "zipcode": "0781763",
    "prefectureCode": "01",
    "prefectureNumber": 1,
    "prefecture": "北海道",
    "city": "上川郡上川町",
    "town": "東町"
  },
  "0781771": {
    "zipcode": "0781771",
    "prefectureCode": "01",
    "prefectureNumber": 1,
    "prefecture": "北海道",
    "city": "上川郡上川町",
    "town": "中越"
  },
  "0781772": {
    "zipcode": "0781772",
    "prefectureCode": "01",
    "prefectureNumber": 1,
    "prefecture": "北海道",
    "city": "上川郡上川町",
    "town": "天幕"
  },
  "0781773": {
    "zipcode": "0781773",
    "prefectureCode": "01",
    "prefectureNumber": 1,
    "prefecture": "北海道",
    "city": "上川郡上川町",
    "town": "日東"
  },
  "0781774": {
    "zipcode": "0781774",
    "prefectureCode": "01",
    "prefectureNumber": 1,
    "prefecture": "北海道",
    "city": "上川郡上川町",
    "town": "豊原"
  },
  "0781775": {
    "zipcode": "0781775",
    "prefectureCode": "01",
    "prefectureNumber": 1,
    "prefecture": "北海道",
    "city": "上川郡上川町",
    "town": "越路"
  },
  "0782100": {
    "zipcode": "0782100",
    "prefectureCode": "01",
    "prefectureNumber": 1,
    "prefecture": "北海道",
    "city": "雨竜郡秩父別町",
    "town": "以下に掲載がない場合"
  },
  "0782101": {
    "zipcode": "0782101",
    "prefectureCode": "01",
    "prefectureNumber": 1,
    "prefecture": "北海道",
    "city": "雨竜郡秩父別町",
    "town": "１条"
  },
  "0782102": {
    "zipcode": "0782102",
    "prefectureCode": "01",
    "prefectureNumber": 1,
    "prefecture": "北海道",
    "city": "雨竜郡秩父別町",
    "town": "２条"
  },
  "0782103": {
    "zipcode": "0782103",
    "prefectureCode": "01",
    "prefectureNumber": 1,
    "prefecture": "北海道",
    "city": "雨竜郡秩父別町",
    "town": "３条"
  },
  "0782104": {
    "zipcode": "0782104",
    "prefectureCode": "01",
    "prefectureNumber": 1,
    "prefecture": "北海道",
    "city": "雨竜郡秩父別町",
    "town": "４条"
  },
  "0782105": {
    "zipcode": "0782105",
    "prefectureCode": "01",
    "prefectureNumber": 1,
    "prefecture": "北海道",
    "city": "雨竜郡秩父別町",
    "town": "５条"
  },
  "0782106": {
    "zipcode": "0782106",
    "prefectureCode": "01",
    "prefectureNumber": 1,
    "prefecture": "北海道",
    "city": "雨竜郡秩父別町",
    "town": "６条"
  },
  "0782107": {
    "zipcode": "0782107",
    "prefectureCode": "01",
    "prefectureNumber": 1,
    "prefecture": "北海道",
    "city": "雨竜郡秩父別町",
    "town": "７条"
  },
  "0782108": {
    "zipcode": "0782108",
    "prefectureCode": "01",
    "prefectureNumber": 1,
    "prefecture": "北海道",
    "city": "雨竜郡秩父別町",
    "town": "８条"
  },
  "0782109": {
    "zipcode": "0782109",
    "prefectureCode": "01",
    "prefectureNumber": 1,
    "prefecture": "北海道",
    "city": "雨竜郡秩父別町",
    "town": "９条"
  },
  "0782111": {
    "zipcode": "0782111",
    "prefectureCode": "01",
    "prefectureNumber": 1,
    "prefecture": "北海道",
    "city": "雨竜郡秩父別町",
    "town": "南１条"
  },
  "0782112": {
    "zipcode": "0782112",
    "prefectureCode": "01",
    "prefectureNumber": 1,
    "prefecture": "北海道",
    "city": "雨竜郡秩父別町",
    "town": "南２条"
  },
  "0782121": {
    "zipcode": "0782121",
    "prefectureCode": "01",
    "prefectureNumber": 1,
    "prefecture": "北海道",
    "city": "雨竜郡秩父別町",
    "town": "滝の上"
  },
  "0782122": {
    "zipcode": "0782122",
    "prefectureCode": "01",
    "prefectureNumber": 1,
    "prefecture": "北海道",
    "city": "雨竜郡秩父別町",
    "town": "中山"
  },
  "0782123": {
    "zipcode": "0782123",
    "prefectureCode": "01",
    "prefectureNumber": 1,
    "prefecture": "北海道",
    "city": "雨竜郡秩父別町",
    "town": "東山"
  },
  "0782124": {
    "zipcode": "0782124",
    "prefectureCode": "01",
    "prefectureNumber": 1,
    "prefecture": "北海道",
    "city": "雨竜郡秩父別町",
    "town": "南山"
  },
  "0782200": {
    "zipcode": "0782200",
    "prefectureCode": "01",
    "prefectureNumber": 1,
    "prefecture": "北海道",
    "city": "雨竜郡沼田町",
    "town": "以下に掲載がない場合"
  },
  "0782201": {
    "zipcode": "0782201",
    "prefectureCode": "01",
    "prefectureNumber": 1,
    "prefecture": "北海道",
    "city": "雨竜郡沼田町",
    "town": "旭町"
  },
  "0782202": {
    "zipcode": "0782202",
    "prefectureCode": "01",
    "prefectureNumber": 1,
    "prefecture": "北海道",
    "city": "雨竜郡沼田町",
    "town": "南一条"
  },
  "0782203": {
    "zipcode": "0782203",
    "prefectureCode": "01",
    "prefectureNumber": 1,
    "prefecture": "北海道",
    "city": "雨竜郡沼田町",
    "town": "本通"
  },
  "0782204": {
    "zipcode": "0782204",
    "prefectureCode": "01",
    "prefectureNumber": 1,
    "prefecture": "北海道",
    "city": "雨竜郡沼田町",
    "town": "西町"
  },
  "0782205": {
    "zipcode": "0782205",
    "prefectureCode": "01",
    "prefectureNumber": 1,
    "prefecture": "北海道",
    "city": "雨竜郡沼田町",
    "town": "北一条"
  },
  "0782206": {
    "zipcode": "0782206",
    "prefectureCode": "01",
    "prefectureNumber": 1,
    "prefecture": "北海道",
    "city": "雨竜郡沼田町",
    "town": "緑町"
  },
  "0782211": {
    "zipcode": "0782211",
    "prefectureCode": "01",
    "prefectureNumber": 1,
    "prefecture": "北海道",
    "city": "雨竜郡沼田町",
    "town": "更新"
  },
  "0782212": {
    "zipcode": "0782212",
    "prefectureCode": "01",
    "prefectureNumber": 1,
    "prefecture": "北海道",
    "city": "雨竜郡沼田町",
    "town": "東予"
  },
  "0782213": {
    "zipcode": "0782213",
    "prefectureCode": "01",
    "prefectureNumber": 1,
    "prefecture": "北海道",
    "city": "雨竜郡沼田町",
    "town": "共成"
  },
  "0782214": {
    "zipcode": "0782214",
    "prefectureCode": "01",
    "prefectureNumber": 1,
    "prefecture": "北海道",
    "city": "雨竜郡沼田町",
    "town": "高穂"
  },
  "0782221": {
    "zipcode": "0782221",
    "prefectureCode": "01",
    "prefectureNumber": 1,
    "prefecture": "北海道",
    "city": "雨竜郡沼田町",
    "town": "真布"
  },
  "0782222": {
    "zipcode": "0782222",
    "prefectureCode": "01",
    "prefectureNumber": 1,
    "prefecture": "北海道",
    "city": "雨竜郡沼田町",
    "town": "沼田"
  },
  "0782223": {
    "zipcode": "0782223",
    "prefectureCode": "01",
    "prefectureNumber": 1,
    "prefecture": "北海道",
    "city": "雨竜郡沼田町",
    "town": "北竜"
  },
  "0782224": {
    "zipcode": "0782224",
    "prefectureCode": "01",
    "prefectureNumber": 1,
    "prefecture": "北海道",
    "city": "雨竜郡沼田町",
    "town": "恵比島"
  },
  "0782225": {
    "zipcode": "0782225",
    "prefectureCode": "01",
    "prefectureNumber": 1,
    "prefecture": "北海道",
    "city": "雨竜郡沼田町",
    "town": "幌新"
  },
  "0782500": {
    "zipcode": "0782500",
    "prefectureCode": "01",
    "prefectureNumber": 1,
    "prefecture": "北海道",
    "city": "雨竜郡北竜町",
    "town": "以下に掲載がない場合"
  },
  "0782501": {
    "zipcode": "0782501",
    "prefectureCode": "01",
    "prefectureNumber": 1,
    "prefecture": "北海道",
    "city": "雨竜郡北竜町",
    "town": "美葉牛"
  },
  "0782502": {
    "zipcode": "0782502",
    "prefectureCode": "01",
    "prefectureNumber": 1,
    "prefecture": "北海道",
    "city": "雨竜郡北竜町",
    "town": "岩村"
  },
  "0782503": {
    "zipcode": "0782503",
    "prefectureCode": "01",
    "prefectureNumber": 1,
    "prefecture": "北海道",
    "city": "雨竜郡北竜町",
    "town": "碧水"
  },
  "0782511": {
    "zipcode": "0782511",
    "prefectureCode": "01",
    "prefectureNumber": 1,
    "prefecture": "北海道",
    "city": "雨竜郡北竜町",
    "town": "板谷"
  },
  "0782512": {
    "zipcode": "0782512",
    "prefectureCode": "01",
    "prefectureNumber": 1,
    "prefecture": "北海道",
    "city": "雨竜郡北竜町",
    "town": "和"
  },
  "0782513": {
    "zipcode": "0782513",
    "prefectureCode": "01",
    "prefectureNumber": 1,
    "prefecture": "北海道",
    "city": "雨竜郡北竜町",
    "town": "三谷"
  },
  "0782514": {
    "zipcode": "0782514",
    "prefectureCode": "01",
    "prefectureNumber": 1,
    "prefecture": "北海道",
    "city": "雨竜郡北竜町",
    "town": "恵岱別"
  },
  "0782515": {
    "zipcode": "0782515",
    "prefectureCode": "01",
    "prefectureNumber": 1,
    "prefecture": "北海道",
    "city": "雨竜郡北竜町",
    "town": "竜西"
  },
  "0782516": {
    "zipcode": "0782516",
    "prefectureCode": "01",
    "prefectureNumber": 1,
    "prefecture": "北海道",
    "city": "雨竜郡北竜町",
    "town": "西川"
  },
  "0782531": {
    "zipcode": "0782531",
    "prefectureCode": "01",
    "prefectureNumber": 1,
    "prefecture": "北海道",
    "city": "雨竜郡雨竜町",
    "town": "第５町内（３）"
  },
  "0782600": {
    "zipcode": "0782600",
    "prefectureCode": "01",
    "prefectureNumber": 1,
    "prefecture": "北海道",
    "city": "雨竜郡雨竜町",
    "town": "以下に掲載がない場合"
  },
  "0782631": {
    "zipcode": "0782631",
    "prefectureCode": "01",
    "prefectureNumber": 1,
    "prefecture": "北海道",
    "city": "雨竜郡雨竜町",
    "town": "第１町内"
  },
  "0782632": {
    "zipcode": "0782632",
    "prefectureCode": "01",
    "prefectureNumber": 1,
    "prefecture": "北海道",
    "city": "雨竜郡雨竜町",
    "town": "第２町内"
  },
  "0782633": {
    "zipcode": "0782633",
    "prefectureCode": "01",
    "prefectureNumber": 1,
    "prefecture": "北海道",
    "city": "雨竜郡雨竜町",
    "town": "第３町内"
  },
  "0782634": {
    "zipcode": "0782634",
    "prefectureCode": "01",
    "prefectureNumber": 1,
    "prefecture": "北海道",
    "city": "雨竜郡雨竜町",
    "town": "第４町内"
  },
  "0782635": {
    "zipcode": "0782635",
    "prefectureCode": "01",
    "prefectureNumber": 1,
    "prefecture": "北海道",
    "city": "雨竜郡雨竜町",
    "town": "第５町内（その他）"
  },
  "0782636": {
    "zipcode": "0782636",
    "prefectureCode": "01",
    "prefectureNumber": 1,
    "prefecture": "北海道",
    "city": "雨竜郡雨竜町",
    "town": "第６町内"
  },
  "0782637": {
    "zipcode": "0782637",
    "prefectureCode": "01",
    "prefectureNumber": 1,
    "prefecture": "北海道",
    "city": "雨竜郡雨竜町",
    "town": "第７町内"
  },
  "0782638": {
    "zipcode": "0782638",
    "prefectureCode": "01",
    "prefectureNumber": 1,
    "prefecture": "北海道",
    "city": "雨竜郡雨竜町",
    "town": "第８町内"
  },
  "0782639": {
    "zipcode": "0782639",
    "prefectureCode": "01",
    "prefectureNumber": 1,
    "prefecture": "北海道",
    "city": "雨竜郡雨竜町",
    "town": "第９町内"
  },
  "0782641": {
    "zipcode": "0782641",
    "prefectureCode": "01",
    "prefectureNumber": 1,
    "prefecture": "北海道",
    "city": "雨竜郡雨竜町",
    "town": "第１０町内"
  },
  "0782642": {
    "zipcode": "0782642",
    "prefectureCode": "01",
    "prefectureNumber": 1,
    "prefecture": "北海道",
    "city": "雨竜郡雨竜町",
    "town": "第１１町内"
  },
  "0782651": {
    "zipcode": "0782651",
    "prefectureCode": "01",
    "prefectureNumber": 1,
    "prefecture": "北海道",
    "city": "樺戸郡新十津川町",
    "town": "美沢"
  },
  "0783161": {
    "zipcode": "0783161",
    "prefectureCode": "01",
    "prefectureNumber": 1,
    "prefecture": "北海道",
    "city": "留萌市",
    "town": "留萌村（峠下）"
  },
  "0783162": {
    "zipcode": "0783162",
    "prefectureCode": "01",
    "prefectureNumber": 1,
    "prefecture": "北海道",
    "city": "留萌市",
    "town": "東幌町"
  },
  "0783163": {
    "zipcode": "0783163",
    "prefectureCode": "01",
    "prefectureNumber": 1,
    "prefecture": "北海道",
    "city": "留萌市",
    "town": "南幌町"
  },
  "0783164": {
    "zipcode": "0783164",
    "prefectureCode": "01",
    "prefectureNumber": 1,
    "prefecture": "北海道",
    "city": "留萌市",
    "town": "留萌村（幌糠）"
  },
  "0783165": {
    "zipcode": "0783165",
    "prefectureCode": "01",
    "prefectureNumber": 1,
    "prefecture": "北海道",
    "city": "留萌市",
    "town": "留萌原野（その他）"
  },
  "0783166": {
    "zipcode": "0783166",
    "prefectureCode": "01",
    "prefectureNumber": 1,
    "prefecture": "北海道",
    "city": "留萌市",
    "town": "中幌町"
  },
  "0783167": {
    "zipcode": "0783167",
    "prefectureCode": "01",
    "prefectureNumber": 1,
    "prefecture": "北海道",
    "city": "留萌市",
    "town": "樽真布町"
  },
  "0783168": {
    "zipcode": "0783168",
    "prefectureCode": "01",
    "prefectureNumber": 1,
    "prefecture": "北海道",
    "city": "留萌市",
    "town": "幌糠町"
  },
  "0783300": {
    "zipcode": "0783300",
    "prefectureCode": "01",
    "prefectureNumber": 1,
    "prefecture": "北海道",
    "city": "留萌郡小平町",
    "town": "以下に掲載がない場合"
  },
  "0783301": {
    "zipcode": "0783301",
    "prefectureCode": "01",
    "prefectureNumber": 1,
    "prefecture": "北海道",
    "city": "留萌郡小平町",
    "town": "小平町"
  },
  "0783302": {
    "zipcode": "0783302",
    "prefectureCode": "01",
    "prefectureNumber": 1,
    "prefecture": "北海道",
    "city": "留萌郡小平町",
    "town": "臼谷"
  },
  "0783303": {
    "zipcode": "0783303",
    "prefectureCode": "01",
    "prefectureNumber": 1,
    "prefecture": "北海道",
    "city": "留萌郡小平町",
    "town": "豊平"
  },
  "0783304": {
    "zipcode": "0783304",
    "prefectureCode": "01",
    "prefectureNumber": 1,
    "prefecture": "北海道",
    "city": "留萌郡小平町",
    "town": "本郷"
  },
  "0783305": {
    "zipcode": "0783305",
    "prefectureCode": "01",
    "prefectureNumber": 1,
    "prefecture": "北海道",
    "city": "留萌郡小平町",
    "town": "桑園"
  },
  "0783306": {
    "zipcode": "0783306",
    "prefectureCode": "01",
    "prefectureNumber": 1,
    "prefecture": "北海道",
    "city": "留萌郡小平町",
    "town": "菊岡"
  },
  "0783307": {
    "zipcode": "0783307",
    "prefectureCode": "01",
    "prefectureNumber": 1,
    "prefecture": "北海道",
    "city": "留萌郡小平町",
    "town": "豊岡"
  },
  "0783308": {
    "zipcode": "0783308",
    "prefectureCode": "01",
    "prefectureNumber": 1,
    "prefecture": "北海道",
    "city": "留萌郡小平町",
    "town": "岐富"
  },
  "0783309": {
    "zipcode": "0783309",
    "prefectureCode": "01",
    "prefectureNumber": 1,
    "prefecture": "北海道",
    "city": "留萌郡小平町",
    "town": "沖内"
  },
  "0783311": {
    "zipcode": "0783311",
    "prefectureCode": "01",
    "prefectureNumber": 1,
    "prefecture": "北海道",
    "city": "留萌郡小平町",
    "town": "花岡"
  },
  "0783312": {
    "zipcode": "0783312",
    "prefectureCode": "01",
    "prefectureNumber": 1,
    "prefecture": "北海道",
    "city": "留萌郡小平町",
    "town": "富里"
  },
  "0783313": {
    "zipcode": "0783313",
    "prefectureCode": "01",
    "prefectureNumber": 1,
    "prefecture": "北海道",
    "city": "留萌郡小平町",
    "town": "平和（１区）"
  },
  "0783441": {
    "zipcode": "0783441",
    "prefectureCode": "01",
    "prefectureNumber": 1,
    "prefecture": "北海道",
    "city": "留萌郡小平町",
    "town": "鬼鹿港町"
  },
  "0783442": {
    "zipcode": "0783442",
    "prefectureCode": "01",
    "prefectureNumber": 1,
    "prefecture": "北海道",
    "city": "留萌郡小平町",
    "town": "鬼鹿田代"
  },
  "0783451": {
    "zipcode": "0783451",
    "prefectureCode": "01",
    "prefectureNumber": 1,
    "prefecture": "北海道",
    "city": "留萌郡小平町",
    "town": "鬼鹿豊浜"
  },
  "0783452": {
    "zipcode": "0783452",
    "prefectureCode": "01",
    "prefectureNumber": 1,
    "prefecture": "北海道",
    "city": "留萌郡小平町",
    "town": "鬼鹿千松"
  },
  "0783453": {
    "zipcode": "0783453",
    "prefectureCode": "01",
    "prefectureNumber": 1,
    "prefecture": "北海道",
    "city": "留萌郡小平町",
    "town": "鬼鹿元浜"
  },
  "0783454": {
    "zipcode": "0783454",
    "prefectureCode": "01",
    "prefectureNumber": 1,
    "prefecture": "北海道",
    "city": "留萌郡小平町",
    "town": "鬼鹿広富"
  },
  "0783455": {
    "zipcode": "0783455",
    "prefectureCode": "01",
    "prefectureNumber": 1,
    "prefecture": "北海道",
    "city": "留萌郡小平町",
    "town": "鬼鹿秀浦"
  },
  "0783456": {
    "zipcode": "0783456",
    "prefectureCode": "01",
    "prefectureNumber": 1,
    "prefecture": "北海道",
    "city": "留萌郡小平町",
    "town": "鬼鹿富岡"
  },
  "0783457": {
    "zipcode": "0783457",
    "prefectureCode": "01",
    "prefectureNumber": 1,
    "prefecture": "北海道",
    "city": "留萌郡小平町",
    "town": "大椴"
  },
  "0783541": {
    "zipcode": "0783541",
    "prefectureCode": "01",
    "prefectureNumber": 1,
    "prefecture": "北海道",
    "city": "苫前郡苫前町",
    "town": "力昼"
  },
  "0783621": {
    "zipcode": "0783621",
    "prefectureCode": "01",
    "prefectureNumber": 1,
    "prefecture": "北海道",
    "city": "苫前郡苫前町",
    "town": "古丹別"
  },
  "0783631": {
    "zipcode": "0783631",
    "prefectureCode": "01",
    "prefectureNumber": 1,
    "prefecture": "北海道",
    "city": "苫前郡苫前町",
    "town": "香川（３３８〜８４９番地）"
  },
  "0783632": {
    "zipcode": "0783632",
    "prefectureCode": "01",
    "prefectureNumber": 1,
    "prefecture": "北海道",
    "city": "苫前郡苫前町",
    "town": "長島"
  },
  "0783633": {
    "zipcode": "0783633",
    "prefectureCode": "01",
    "prefectureNumber": 1,
    "prefecture": "北海道",
    "city": "苫前郡苫前町",
    "town": "小川"
  },
  "0783634": {
    "zipcode": "0783634",
    "prefectureCode": "01",
    "prefectureNumber": 1,
    "prefecture": "北海道",
    "city": "苫前郡苫前町",
    "town": "岩見"
  },
  "0783635": {
    "zipcode": "0783635",
    "prefectureCode": "01",
    "prefectureNumber": 1,
    "prefecture": "北海道",
    "city": "苫前郡苫前町",
    "town": "東川"
  },
  "0783636": {
    "zipcode": "0783636",
    "prefectureCode": "01",
    "prefectureNumber": 1,
    "prefecture": "北海道",
    "city": "苫前郡苫前町",
    "town": "霧立"
  },
  "0783637": {
    "zipcode": "0783637",
    "prefectureCode": "01",
    "prefectureNumber": 1,
    "prefecture": "北海道",
    "city": "苫前郡苫前町",
    "town": "九重"
  },
  "0783638": {
    "zipcode": "0783638",
    "prefectureCode": "01",
    "prefectureNumber": 1,
    "prefecture": "北海道",
    "city": "苫前郡苫前町",
    "town": "三渓"
  },
  "0783700": {
    "zipcode": "0783700",
    "prefectureCode": "01",
    "prefectureNumber": 1,
    "prefecture": "北海道",
    "city": "苫前郡苫前町",
    "town": "以下に掲載がない場合"
  },
  "0783701": {
    "zipcode": "0783701",
    "prefectureCode": "01",
    "prefectureNumber": 1,
    "prefecture": "北海道",
    "city": "苫前郡苫前町",
    "town": "苫前"
  },
  "0783702": {
    "zipcode": "0783702",
    "prefectureCode": "01",
    "prefectureNumber": 1,
    "prefecture": "北海道",
    "city": "苫前郡苫前町",
    "town": "栄浜"
  },
  "0783711": {
    "zipcode": "0783711",
    "prefectureCode": "01",
    "prefectureNumber": 1,
    "prefecture": "北海道",
    "city": "苫前郡苫前町",
    "town": "旭"
  },
  "0783712": {
    "zipcode": "0783712",
    "prefectureCode": "01",
    "prefectureNumber": 1,
    "prefecture": "北海道",
    "city": "苫前郡苫前町",
    "town": "上平"
  },
  "0783713": {
    "zipcode": "0783713",
    "prefectureCode": "01",
    "prefectureNumber": 1,
    "prefecture": "北海道",
    "city": "苫前郡苫前町",
    "town": "興津"
  },
  "0783714": {
    "zipcode": "0783714",
    "prefectureCode": "01",
    "prefectureNumber": 1,
    "prefecture": "北海道",
    "city": "苫前郡苫前町",
    "town": "香川（その他）"
  },
  "0783715": {
    "zipcode": "0783715",
    "prefectureCode": "01",
    "prefectureNumber": 1,
    "prefecture": "北海道",
    "city": "苫前郡苫前町",
    "town": "昭和"
  },
  "0783716": {
    "zipcode": "0783716",
    "prefectureCode": "01",
    "prefectureNumber": 1,
    "prefecture": "北海道",
    "city": "苫前郡苫前町",
    "town": "豊浦"
  },
  "0783717": {
    "zipcode": "0783717",
    "prefectureCode": "01",
    "prefectureNumber": 1,
    "prefecture": "北海道",
    "city": "苫前郡苫前町",
    "town": "三豊"
  },
  "0783871": {
    "zipcode": "0783871",
    "prefectureCode": "01",
    "prefectureNumber": 1,
    "prefecture": "北海道",
    "city": "苫前郡羽幌町",
    "town": "焼尻"
  },
  "0783951": {
    "zipcode": "0783951",
    "prefectureCode": "01",
    "prefectureNumber": 1,
    "prefecture": "北海道",
    "city": "苫前郡羽幌町",
    "town": "天売（相影）"
  },
  "0783952": {
    "zipcode": "0783952",
    "prefectureCode": "01",
    "prefectureNumber": 1,
    "prefecture": "北海道",
    "city": "苫前郡羽幌町",
    "town": "天売（富磯）"
  },
  "0783953": {
    "zipcode": "0783953",
    "prefectureCode": "01",
    "prefectureNumber": 1,
    "prefecture": "北海道",
    "city": "苫前郡羽幌町",
    "town": "天売（和浦）"
  },
  "0783954": {
    "zipcode": "0783954",
    "prefectureCode": "01",
    "prefectureNumber": 1,
    "prefecture": "北海道",
    "city": "苫前郡羽幌町",
    "town": "天売（前浜）"
  },
  "0783955": {
    "zipcode": "0783955",
    "prefectureCode": "01",
    "prefectureNumber": 1,
    "prefecture": "北海道",
    "city": "苫前郡羽幌町",
    "town": "天売（弁天）"
  },
  "0784100": {
    "zipcode": "0784100",
    "prefectureCode": "01",
    "prefectureNumber": 1,
    "prefecture": "北海道",
    "city": "苫前郡羽幌町",
    "town": "以下に掲載がない場合"
  },
  "0784101": {
    "zipcode": "0784101",
    "prefectureCode": "01",
    "prefectureNumber": 1,
    "prefecture": "北海道",
    "city": "苫前郡羽幌町",
    "town": "南一条"
  },
  "0784102": {
    "zipcode": "0784102",
    "prefectureCode": "01",
    "prefectureNumber": 1,
    "prefecture": "北海道",
    "city": "苫前郡羽幌町",
    "town": "南二条"
  },
  "0784103": {
    "zipcode": "0784103",
    "prefectureCode": "01",
    "prefectureNumber": 1,
    "prefecture": "北海道",
    "city": "苫前郡羽幌町",
    "town": "南三条"
  },
  "0784104": {
    "zipcode": "0784104",
    "prefectureCode": "01",
    "prefectureNumber": 1,
    "prefecture": "北海道",
    "city": "苫前郡羽幌町",
    "town": "南四条"
  },
  "0784105": {
    "zipcode": "0784105",
    "prefectureCode": "01",
    "prefectureNumber": 1,
    "prefecture": "北海道",
    "city": "苫前郡羽幌町",
    "town": "南五条"
  },
  "0784106": {
    "zipcode": "0784106",
    "prefectureCode": "01",
    "prefectureNumber": 1,
    "prefecture": "北海道",
    "city": "苫前郡羽幌町",
    "town": "南六条"
  },
  "0784107": {
    "zipcode": "0784107",
    "prefectureCode": "01",
    "prefectureNumber": 1,
    "prefecture": "北海道",
    "city": "苫前郡羽幌町",
    "town": "南七条"
  },
  "0784108": {
    "zipcode": "0784108",
    "prefectureCode": "01",
    "prefectureNumber": 1,
    "prefecture": "北海道",
    "city": "苫前郡羽幌町",
    "town": "南大通"
  },
  "0784110": {
    "zipcode": "0784110",
    "prefectureCode": "01",
    "prefectureNumber": 1,
    "prefecture": "北海道",
    "city": "苫前郡羽幌町",
    "town": "北大通"
  },
  "0784111": {
    "zipcode": "0784111",
    "prefectureCode": "01",
    "prefectureNumber": 1,
    "prefecture": "北海道",
    "city": "苫前郡羽幌町",
    "town": "北一条"
  },
  "0784112": {
    "zipcode": "0784112",
    "prefectureCode": "01",
    "prefectureNumber": 1,
    "prefecture": "北海道",
    "city": "苫前郡羽幌町",
    "town": "北二条"
  },
  "0784113": {
    "zipcode": "0784113",
    "prefectureCode": "01",
    "prefectureNumber": 1,
    "prefecture": "北海道",
    "city": "苫前郡羽幌町",
    "town": "北三条"
  },
  "0784114": {
    "zipcode": "0784114",
    "prefectureCode": "01",
    "prefectureNumber": 1,
    "prefecture": "北海道",
    "city": "苫前郡羽幌町",
    "town": "北四条"
  },
  "0784115": {
    "zipcode": "0784115",
    "prefectureCode": "01",
    "prefectureNumber": 1,
    "prefecture": "北海道",
    "city": "苫前郡羽幌町",
    "town": "北五条"
  },
  "0784116": {
    "zipcode": "0784116",
    "prefectureCode": "01",
    "prefectureNumber": 1,
    "prefecture": "北海道",
    "city": "苫前郡羽幌町",
    "town": "北六条"
  },
  "0784117": {
    "zipcode": "0784117",
    "prefectureCode": "01",
    "prefectureNumber": 1,
    "prefecture": "北海道",
    "city": "苫前郡羽幌町",
    "town": "朝日"
  },
  "0784118": {
    "zipcode": "0784118",
    "prefectureCode": "01",
    "prefectureNumber": 1,
    "prefecture": "北海道",
    "city": "苫前郡羽幌町",
    "town": "浜町"
  },
  "0784119": {
    "zipcode": "0784119",
    "prefectureCode": "01",
    "prefectureNumber": 1,
    "prefecture": "北海道",
    "city": "苫前郡羽幌町",
    "town": "北町"
  },
  "0784120": {
    "zipcode": "0784120",
    "prefectureCode": "01",
    "prefectureNumber": 1,
    "prefecture": "北海道",
    "city": "苫前郡羽幌町",
    "town": "港町"
  },
  "0784121": {
    "zipcode": "0784121",
    "prefectureCode": "01",
    "prefectureNumber": 1,
    "prefecture": "北海道",
    "city": "苫前郡羽幌町",
    "town": "幸町"
  },
  "0784122": {
    "zipcode": "0784122",
    "prefectureCode": "01",
    "prefectureNumber": 1,
    "prefecture": "北海道",
    "city": "苫前郡羽幌町",
    "town": "南町"
  },
  "0784123": {
    "zipcode": "0784123",
    "prefectureCode": "01",
    "prefectureNumber": 1,
    "prefecture": "北海道",
    "city": "苫前郡羽幌町",
    "town": "栄町"
  },
  "0784130": {
    "zipcode": "0784130",
    "prefectureCode": "01",
    "prefectureNumber": 1,
    "prefecture": "北海道",
    "city": "苫前郡羽幌町",
    "town": "緑町"
  },
  "0784131": {
    "zipcode": "0784131",
    "prefectureCode": "01",
    "prefectureNumber": 1,
    "prefecture": "北海道",
    "city": "苫前郡羽幌町",
    "town": "寿町"
  },
  "0784132": {
    "zipcode": "0784132",
    "prefectureCode": "01",
    "prefectureNumber": 1,
    "prefecture": "北海道",
    "city": "苫前郡羽幌町",
    "town": "中央"
  },
  "0784133": {
    "zipcode": "0784133",
    "prefectureCode": "01",
    "prefectureNumber": 1,
    "prefecture": "北海道",
    "city": "苫前郡羽幌町",
    "town": "平"
  },
  "0784134": {
    "zipcode": "0784134",
    "prefectureCode": "01",
    "prefectureNumber": 1,
    "prefecture": "北海道",
    "city": "苫前郡羽幌町",
    "town": "上羽幌"
  },
  "0784140": {
    "zipcode": "0784140",
    "prefectureCode": "01",
    "prefectureNumber": 1,
    "prefecture": "北海道",
    "city": "苫前郡羽幌町",
    "town": "汐見"
  },
  "0784141": {
    "zipcode": "0784141",
    "prefectureCode": "01",
    "prefectureNumber": 1,
    "prefecture": "北海道",
    "city": "苫前郡羽幌町",
    "town": "築別"
  },
  "0784142": {
    "zipcode": "0784142",
    "prefectureCode": "01",
    "prefectureNumber": 1,
    "prefecture": "北海道",
    "city": "苫前郡羽幌町",
    "town": "上築"
  },
  "0784143": {
    "zipcode": "0784143",
    "prefectureCode": "01",
    "prefectureNumber": 1,
    "prefecture": "北海道",
    "city": "苫前郡羽幌町",
    "town": "高台"
  },
  "0784144": {
    "zipcode": "0784144",
    "prefectureCode": "01",
    "prefectureNumber": 1,
    "prefecture": "北海道",
    "city": "苫前郡羽幌町",
    "town": "曙"
  },
  "0784145": {
    "zipcode": "0784145",
    "prefectureCode": "01",
    "prefectureNumber": 1,
    "prefecture": "北海道",
    "city": "苫前郡羽幌町",
    "town": "築別炭砿"
  },
  "0784400": {
    "zipcode": "0784400",
    "prefectureCode": "01",
    "prefectureNumber": 1,
    "prefecture": "北海道",
    "city": "苫前郡初山別村",
    "town": "以下に掲載がない場合"
  },
  "0784411": {
    "zipcode": "0784411",
    "prefectureCode": "01",
    "prefectureNumber": 1,
    "prefecture": "北海道",
    "city": "苫前郡初山別村",
    "town": "有明"
  },
  "0784412": {
    "zipcode": "0784412",
    "prefectureCode": "01",
    "prefectureNumber": 1,
    "prefecture": "北海道",
    "city": "苫前郡初山別村",
    "town": "栄"
  },
  "0784421": {
    "zipcode": "0784421",
    "prefectureCode": "01",
    "prefectureNumber": 1,
    "prefecture": "北海道",
    "city": "苫前郡初山別村",
    "town": "初山別"
  },
  "0784422": {
    "zipcode": "0784422",
    "prefectureCode": "01",
    "prefectureNumber": 1,
    "prefecture": "北海道",
    "city": "苫前郡初山別村",
    "town": "千代田"
  },
  "0784431": {
    "zipcode": "0784431",
    "prefectureCode": "01",
    "prefectureNumber": 1,
    "prefecture": "北海道",
    "city": "苫前郡初山別村",
    "town": "豊岬"
  },
  "0784432": {
    "zipcode": "0784432",
    "prefectureCode": "01",
    "prefectureNumber": 1,
    "prefecture": "北海道",
    "city": "苫前郡初山別村",
    "town": "明里"
  },
  "0784433": {
    "zipcode": "0784433",
    "prefectureCode": "01",
    "prefectureNumber": 1,
    "prefecture": "北海道",
    "city": "苫前郡初山別村",
    "town": "共成"
  },
  "0788201": {
    "zipcode": "0788201",
    "prefectureCode": "01",
    "prefectureNumber": 1,
    "prefecture": "北海道",
    "city": "旭川市",
    "town": "東旭川町東桜岡（３０〜４９９番地）"
  },
  "0788202": {
    "zipcode": "0788202",
    "prefectureCode": "01",
    "prefectureNumber": 1,
    "prefecture": "北海道",
    "city": "旭川市",
    "town": "東旭川町豊田（１〜９番地）"
  },
  "0788203": {
    "zipcode": "0788203",
    "prefectureCode": "01",
    "prefectureNumber": 1,
    "prefecture": "北海道",
    "city": "旭川市",
    "town": "東旭川町日ノ出"
  },
  "0788204": {
    "zipcode": "0788204",
    "prefectureCode": "01",
    "prefectureNumber": 1,
    "prefecture": "北海道",
    "city": "旭川市",
    "town": "東旭川町桜岡"
  },
  "0788205": {
    "zipcode": "0788205",
    "prefectureCode": "01",
    "prefectureNumber": 1,
    "prefecture": "北海道",
    "city": "旭川市",
    "town": "東旭川町倉沼"
  },
  "0788206": {
    "zipcode": "0788206",
    "prefectureCode": "01",
    "prefectureNumber": 1,
    "prefecture": "北海道",
    "city": "旭川市",
    "town": "東旭川町忠別"
  },
  "0788207": {
    "zipcode": "0788207",
    "prefectureCode": "01",
    "prefectureNumber": 1,
    "prefecture": "北海道",
    "city": "旭川市",
    "town": "東旭川町上兵村"
  },
  "0788208": {
    "zipcode": "0788208",
    "prefectureCode": "01",
    "prefectureNumber": 1,
    "prefecture": "北海道",
    "city": "旭川市",
    "town": "東旭川町下兵村"
  },
  "0788211": {
    "zipcode": "0788211",
    "prefectureCode": "01",
    "prefectureNumber": 1,
    "prefecture": "北海道",
    "city": "旭川市",
    "town": "１条通（１８〜２５丁目）"
  },
  "0788212": {
    "zipcode": "0788212",
    "prefectureCode": "01",
    "prefectureNumber": 1,
    "prefecture": "北海道",
    "city": "旭川市",
    "town": "２条通（１８〜２５丁目）"
  },
  "0788213": {
    "zipcode": "0788213",
    "prefectureCode": "01",
    "prefectureNumber": 1,
    "prefecture": "北海道",
    "city": "旭川市",
    "town": "３条通（１８〜２５丁目）"
  },
  "0788214": {
    "zipcode": "0788214",
    "prefectureCode": "01",
    "prefectureNumber": 1,
    "prefecture": "北海道",
    "city": "旭川市",
    "town": "４条通（１８〜２５丁目）"
  },
  "0788215": {
    "zipcode": "0788215",
    "prefectureCode": "01",
    "prefectureNumber": 1,
    "prefecture": "北海道",
    "city": "旭川市",
    "town": "５条通（１８〜２５丁目）"
  },
  "0788216": {
    "zipcode": "0788216",
    "prefectureCode": "01",
    "prefectureNumber": 1,
    "prefecture": "北海道",
    "city": "旭川市",
    "town": "６条通（１８〜２５丁目）"
  },
  "0788217": {
    "zipcode": "0788217",
    "prefectureCode": "01",
    "prefectureNumber": 1,
    "prefecture": "北海道",
    "city": "旭川市",
    "town": "７条通（１８〜２５丁目）"
  },
  "0788218": {
    "zipcode": "0788218",
    "prefectureCode": "01",
    "prefectureNumber": 1,
    "prefecture": "北海道",
    "city": "旭川市",
    "town": "８条通（１８〜２５丁目）"
  },
  "0788219": {
    "zipcode": "0788219",
    "prefectureCode": "01",
    "prefectureNumber": 1,
    "prefecture": "北海道",
    "city": "旭川市",
    "town": "９条通（１８〜２５丁目）"
  },
  "0788220": {
    "zipcode": "0788220",
    "prefectureCode": "01",
    "prefectureNumber": 1,
    "prefecture": "北海道",
    "city": "旭川市",
    "town": "１０条通（１８〜２５丁目）"
  },
  "0788221": {
    "zipcode": "0788221",
    "prefectureCode": "01",
    "prefectureNumber": 1,
    "prefecture": "北海道",
    "city": "旭川市",
    "town": "１１条通"
  },
  "0788231": {
    "zipcode": "0788231",
    "prefectureCode": "01",
    "prefectureNumber": 1,
    "prefecture": "北海道",
    "city": "旭川市",
    "town": "豊岡１条"
  },
  "0788232": {
    "zipcode": "0788232",
    "prefectureCode": "01",
    "prefectureNumber": 1,
    "prefecture": "北海道",
    "city": "旭川市",
    "town": "豊岡２条"
  },
  "0788233": {
    "zipcode": "0788233",
    "prefectureCode": "01",
    "prefectureNumber": 1,
    "prefecture": "北海道",
    "city": "旭川市",
    "town": "豊岡３条"
  },
  "0788234": {
    "zipcode": "0788234",
    "prefectureCode": "01",
    "prefectureNumber": 1,
    "prefecture": "北海道",
    "city": "旭川市",
    "town": "豊岡４条"
  },
  "0788235": {
    "zipcode": "0788235",
    "prefectureCode": "01",
    "prefectureNumber": 1,
    "prefecture": "北海道",
    "city": "旭川市",
    "town": "豊岡５条"
  },
  "0788236": {
    "zipcode": "0788236",
    "prefectureCode": "01",
    "prefectureNumber": 1,
    "prefecture": "北海道",
    "city": "旭川市",
    "town": "豊岡６条"
  },
  "0788237": {
    "zipcode": "0788237",
    "prefectureCode": "01",
    "prefectureNumber": 1,
    "prefecture": "北海道",
    "city": "旭川市",
    "town": "豊岡７条"
  },
  "0788238": {
    "zipcode": "0788238",
    "prefectureCode": "01",
    "prefectureNumber": 1,
    "prefecture": "北海道",
    "city": "旭川市",
    "town": "豊岡８条"
  },
  "0788239": {
    "zipcode": "0788239",
    "prefectureCode": "01",
    "prefectureNumber": 1,
    "prefecture": "北海道",
    "city": "旭川市",
    "town": "豊岡９条"
  },
  "0788240": {
    "zipcode": "0788240",
    "prefectureCode": "01",
    "prefectureNumber": 1,
    "prefecture": "北海道",
    "city": "旭川市",
    "town": "豊岡１０条"
  },
  "0788241": {
    "zipcode": "0788241",
    "prefectureCode": "01",
    "prefectureNumber": 1,
    "prefecture": "北海道",
    "city": "旭川市",
    "town": "豊岡１１条"
  },
  "0788242": {
    "zipcode": "0788242",
    "prefectureCode": "01",
    "prefectureNumber": 1,
    "prefecture": "北海道",
    "city": "旭川市",
    "town": "豊岡１２条"
  },
  "0788243": {
    "zipcode": "0788243",
    "prefectureCode": "01",
    "prefectureNumber": 1,
    "prefecture": "北海道",
    "city": "旭川市",
    "town": "豊岡１３条"
  },
  "0788244": {
    "zipcode": "0788244",
    "prefectureCode": "01",
    "prefectureNumber": 1,
    "prefecture": "北海道",
    "city": "旭川市",
    "town": "豊岡１４条"
  },
  "0788245": {
    "zipcode": "0788245",
    "prefectureCode": "01",
    "prefectureNumber": 1,
    "prefecture": "北海道",
    "city": "旭川市",
    "town": "豊岡１５条"
  },
  "0788246": {
    "zipcode": "0788246",
    "prefectureCode": "01",
    "prefectureNumber": 1,
    "prefecture": "北海道",
    "city": "旭川市",
    "town": "豊岡１６条"
  },
  "0788251": {
    "zipcode": "0788251",
    "prefectureCode": "01",
    "prefectureNumber": 1,
    "prefecture": "北海道",
    "city": "旭川市",
    "town": "東旭川北１条"
  },
  "0788252": {
    "zipcode": "0788252",
    "prefectureCode": "01",
    "prefectureNumber": 1,
    "prefecture": "北海道",
    "city": "旭川市",
    "town": "東旭川北２条"
  },
  "0788253": {
    "zipcode": "0788253",
    "prefectureCode": "01",
    "prefectureNumber": 1,
    "prefecture": "北海道",
    "city": "旭川市",
    "town": "東旭川北３条"
  },
  "0788261": {
    "zipcode": "0788261",
    "prefectureCode": "01",
    "prefectureNumber": 1,
    "prefecture": "北海道",
    "city": "旭川市",
    "town": "東旭川南１条"
  },
  "0788262": {
    "zipcode": "0788262",
    "prefectureCode": "01",
    "prefectureNumber": 1,
    "prefecture": "北海道",
    "city": "旭川市",
    "town": "東旭川南２条"
  },
  "0788271": {
    "zipcode": "0788271",
    "prefectureCode": "01",
    "prefectureNumber": 1,
    "prefecture": "北海道",
    "city": "旭川市",
    "town": "工業団地１条"
  },
  "0788272": {
    "zipcode": "0788272",
    "prefectureCode": "01",
    "prefectureNumber": 1,
    "prefecture": "北海道",
    "city": "旭川市",
    "town": "工業団地２条"
  },
  "0788273": {
    "zipcode": "0788273",
    "prefectureCode": "01",
    "prefectureNumber": 1,
    "prefecture": "北海道",
    "city": "旭川市",
    "town": "工業団地３条"
  },
  "0788274": {
    "zipcode": "0788274",
    "prefectureCode": "01",
    "prefectureNumber": 1,
    "prefecture": "北海道",
    "city": "旭川市",
    "town": "工業団地４条"
  },
  "0788275": {
    "zipcode": "0788275",
    "prefectureCode": "01",
    "prefectureNumber": 1,
    "prefecture": "北海道",
    "city": "旭川市",
    "town": "工業団地５条"
  },
  "0788301": {
    "zipcode": "0788301",
    "prefectureCode": "01",
    "prefectureNumber": 1,
    "prefecture": "北海道",
    "city": "旭川市",
    "town": "緑が丘１条"
  },
  "0788302": {
    "zipcode": "0788302",
    "prefectureCode": "01",
    "prefectureNumber": 1,
    "prefecture": "北海道",
    "city": "旭川市",
    "town": "緑が丘２条"
  },
  "0788303": {
    "zipcode": "0788303",
    "prefectureCode": "01",
    "prefectureNumber": 1,
    "prefecture": "北海道",
    "city": "旭川市",
    "town": "緑が丘３条"
  },
  "0788304": {
    "zipcode": "0788304",
    "prefectureCode": "01",
    "prefectureNumber": 1,
    "prefecture": "北海道",
    "city": "旭川市",
    "town": "緑が丘４条"
  },
  "0788305": {
    "zipcode": "0788305",
    "prefectureCode": "01",
    "prefectureNumber": 1,
    "prefecture": "北海道",
    "city": "旭川市",
    "town": "緑が丘５条"
  },
  "0788308": {
    "zipcode": "0788308",
    "prefectureCode": "01",
    "prefectureNumber": 1,
    "prefecture": "北海道",
    "city": "旭川市",
    "town": "旭神町"
  },
  "0788311": {
    "zipcode": "0788311",
    "prefectureCode": "01",
    "prefectureNumber": 1,
    "prefecture": "北海道",
    "city": "旭川市",
    "town": "神楽岡１条"
  },
  "0788312": {
    "zipcode": "0788312",
    "prefectureCode": "01",
    "prefectureNumber": 1,
    "prefecture": "北海道",
    "city": "旭川市",
    "town": "神楽岡２条"
  },
  "0788313": {
    "zipcode": "0788313",
    "prefectureCode": "01",
    "prefectureNumber": 1,
    "prefecture": "北海道",
    "city": "旭川市",
    "town": "神楽岡３条"
  },
  "0788314": {
    "zipcode": "0788314",
    "prefectureCode": "01",
    "prefectureNumber": 1,
    "prefecture": "北海道",
    "city": "旭川市",
    "town": "神楽岡４条"
  },
  "0788315": {
    "zipcode": "0788315",
    "prefectureCode": "01",
    "prefectureNumber": 1,
    "prefecture": "北海道",
    "city": "旭川市",
    "town": "神楽岡５条"
  },
  "0788316": {
    "zipcode": "0788316",
    "prefectureCode": "01",
    "prefectureNumber": 1,
    "prefecture": "北海道",
    "city": "旭川市",
    "town": "神楽岡６条"
  },
  "0788317": {
    "zipcode": "0788317",
    "prefectureCode": "01",
    "prefectureNumber": 1,
    "prefecture": "北海道",
    "city": "旭川市",
    "town": "神楽岡７条"
  },
  "0788318": {
    "zipcode": "0788318",
    "prefectureCode": "01",
    "prefectureNumber": 1,
    "prefecture": "北海道",
    "city": "旭川市",
    "town": "神楽岡８条"
  },
  "0788319": {
    "zipcode": "0788319",
    "prefectureCode": "01",
    "prefectureNumber": 1,
    "prefecture": "北海道",
    "city": "旭川市",
    "town": "神楽岡９条"
  },
  "0788320": {
    "zipcode": "0788320",
    "prefectureCode": "01",
    "prefectureNumber": 1,
    "prefecture": "北海道",
    "city": "旭川市",
    "town": "神楽岡１０条"
  },
  "0788321": {
    "zipcode": "0788321",
    "prefectureCode": "01",
    "prefectureNumber": 1,
    "prefecture": "北海道",
    "city": "旭川市",
    "town": "神楽岡１１条"
  },
  "0788322": {
    "zipcode": "0788322",
    "prefectureCode": "01",
    "prefectureNumber": 1,
    "prefecture": "北海道",
    "city": "旭川市",
    "town": "神楽岡１２条"
  },
  "0788323": {
    "zipcode": "0788323",
    "prefectureCode": "01",
    "prefectureNumber": 1,
    "prefecture": "北海道",
    "city": "旭川市",
    "town": "神楽岡１３条"
  },
  "0788324": {
    "zipcode": "0788324",
    "prefectureCode": "01",
    "prefectureNumber": 1,
    "prefecture": "北海道",
    "city": "旭川市",
    "town": "神楽岡１４条"
  },
  "0788325": {
    "zipcode": "0788325",
    "prefectureCode": "01",
    "prefectureNumber": 1,
    "prefecture": "北海道",
    "city": "旭川市",
    "town": "神楽岡１５条"
  },
  "0788326": {
    "zipcode": "0788326",
    "prefectureCode": "01",
    "prefectureNumber": 1,
    "prefecture": "北海道",
    "city": "旭川市",
    "town": "神楽岡１６条"
  },
  "0788327": {
    "zipcode": "0788327",
    "prefectureCode": "01",
    "prefectureNumber": 1,
    "prefecture": "北海道",
    "city": "旭川市",
    "town": "神楽岡公園"
  },
  "0788330": {
    "zipcode": "0788330",
    "prefectureCode": "01",
    "prefectureNumber": 1,
    "prefecture": "北海道",
    "city": "旭川市",
    "town": "宮下通（１８〜２６丁目）"
  },
  "0788331": {
    "zipcode": "0788331",
    "prefectureCode": "01",
    "prefectureNumber": 1,
    "prefecture": "北海道",
    "city": "旭川市",
    "town": "南１条通"
  },
  "0788332": {
    "zipcode": "0788332",
    "prefectureCode": "01",
    "prefectureNumber": 1,
    "prefecture": "北海道",
    "city": "旭川市",
    "town": "南２条通"
  },
  "0788333": {
    "zipcode": "0788333",
    "prefectureCode": "01",
    "prefectureNumber": 1,
    "prefecture": "北海道",
    "city": "旭川市",
    "town": "南３条通"
  },
  "0788334": {
    "zipcode": "0788334",
    "prefectureCode": "01",
    "prefectureNumber": 1,
    "prefecture": "北海道",
    "city": "旭川市",
    "town": "南４条通"
  },
  "0788335": {
    "zipcode": "0788335",
    "prefectureCode": "01",
    "prefectureNumber": 1,
    "prefecture": "北海道",
    "city": "旭川市",
    "town": "南５条通"
  },
  "0788336": {
    "zipcode": "0788336",
    "prefectureCode": "01",
    "prefectureNumber": 1,
    "prefecture": "北海道",
    "city": "旭川市",
    "town": "南６条通"
  },
  "0788337": {
    "zipcode": "0788337",
    "prefectureCode": "01",
    "prefectureNumber": 1,
    "prefecture": "北海道",
    "city": "旭川市",
    "town": "南７条通"
  },
  "0788338": {
    "zipcode": "0788338",
    "prefectureCode": "01",
    "prefectureNumber": 1,
    "prefecture": "北海道",
    "city": "旭川市",
    "town": "南８条通"
  },
  "0788339": {
    "zipcode": "0788339",
    "prefectureCode": "01",
    "prefectureNumber": 1,
    "prefecture": "北海道",
    "city": "旭川市",
    "town": "南９条通"
  },
  "0788340": {
    "zipcode": "0788340",
    "prefectureCode": "01",
    "prefectureNumber": 1,
    "prefecture": "北海道",
    "city": "旭川市",
    "town": "東旭川町共栄"
  },
  "0788341": {
    "zipcode": "0788341",
    "prefectureCode": "01",
    "prefectureNumber": 1,
    "prefecture": "北海道",
    "city": "旭川市",
    "town": "東光１条"
  },
  "0788342": {
    "zipcode": "0788342",
    "prefectureCode": "01",
    "prefectureNumber": 1,
    "prefecture": "北海道",
    "city": "旭川市",
    "town": "東光２条"
  },
  "0788343": {
    "zipcode": "0788343",
    "prefectureCode": "01",
    "prefectureNumber": 1,
    "prefecture": "北海道",
    "city": "旭川市",
    "town": "東光３条"
  },
  "0788344": {
    "zipcode": "0788344",
    "prefectureCode": "01",
    "prefectureNumber": 1,
    "prefecture": "北海道",
    "city": "旭川市",
    "town": "東光４条"
  },
  "0788345": {
    "zipcode": "0788345",
    "prefectureCode": "01",
    "prefectureNumber": 1,
    "prefecture": "北海道",
    "city": "旭川市",
    "town": "東光５条"
  },
  "0788346": {
    "zipcode": "0788346",
    "prefectureCode": "01",
    "prefectureNumber": 1,
    "prefecture": "北海道",
    "city": "旭川市",
    "town": "東光６条"
  },
  "0788347": {
    "zipcode": "0788347",
    "prefectureCode": "01",
    "prefectureNumber": 1,
    "prefecture": "北海道",
    "city": "旭川市",
    "town": "東光７条"
  },
  "0788348": {
    "zipcode": "0788348",
    "prefectureCode": "01",
    "prefectureNumber": 1,
    "prefecture": "北海道",
    "city": "旭川市",
    "town": "東光８条"
  },
  "0788349": {
    "zipcode": "0788349",
    "prefectureCode": "01",
    "prefectureNumber": 1,
    "prefecture": "北海道",
    "city": "旭川市",
    "town": "東光９条"
  },
  "0788350": {
    "zipcode": "0788350",
    "prefectureCode": "01",
    "prefectureNumber": 1,
    "prefecture": "北海道",
    "city": "旭川市",
    "town": "東光１０条"
  },
  "0788351": {
    "zipcode": "0788351",
    "prefectureCode": "01",
    "prefectureNumber": 1,
    "prefecture": "北海道",
    "city": "旭川市",
    "town": "東光１１条"
  },
  "0788352": {
    "zipcode": "0788352",
    "prefectureCode": "01",
    "prefectureNumber": 1,
    "prefecture": "北海道",
    "city": "旭川市",
    "town": "東光１２条"
  },
  "0788353": {
    "zipcode": "0788353",
    "prefectureCode": "01",
    "prefectureNumber": 1,
    "prefecture": "北海道",
    "city": "旭川市",
    "town": "東光１３条"
  },
  "0788354": {
    "zipcode": "0788354",
    "prefectureCode": "01",
    "prefectureNumber": 1,
    "prefecture": "北海道",
    "city": "旭川市",
    "town": "東光１４条"
  },
  "0788355": {
    "zipcode": "0788355",
    "prefectureCode": "01",
    "prefectureNumber": 1,
    "prefecture": "北海道",
    "city": "旭川市",
    "town": "東光１５条"
  },
  "0788356": {
    "zipcode": "0788356",
    "prefectureCode": "01",
    "prefectureNumber": 1,
    "prefecture": "北海道",
    "city": "旭川市",
    "town": "東光１６条"
  },
  "0788357": {
    "zipcode": "0788357",
    "prefectureCode": "01",
    "prefectureNumber": 1,
    "prefecture": "北海道",
    "city": "旭川市",
    "town": "東光１７条"
  },
  "0788358": {
    "zipcode": "0788358",
    "prefectureCode": "01",
    "prefectureNumber": 1,
    "prefecture": "北海道",
    "city": "旭川市",
    "town": "東光１８条"
  },
  "0788359": {
    "zipcode": "0788359",
    "prefectureCode": "01",
    "prefectureNumber": 1,
    "prefecture": "北海道",
    "city": "旭川市",
    "town": "東光１９条"
  },
  "0788360": {
    "zipcode": "0788360",
    "prefectureCode": "01",
    "prefectureNumber": 1,
    "prefecture": "北海道",
    "city": "旭川市",
    "town": "東光２０条"
  },
  "0788361": {
    "zipcode": "0788361",
    "prefectureCode": "01",
    "prefectureNumber": 1,
    "prefecture": "北海道",
    "city": "旭川市",
    "town": "東光２１条"
  },
  "0788362": {
    "zipcode": "0788362",
    "prefectureCode": "01",
    "prefectureNumber": 1,
    "prefecture": "北海道",
    "city": "旭川市",
    "town": "東光２２条"
  },
  "0788363": {
    "zipcode": "0788363",
    "prefectureCode": "01",
    "prefectureNumber": 1,
    "prefecture": "北海道",
    "city": "旭川市",
    "town": "東光２３条"
  },
  "0788364": {
    "zipcode": "0788364",
    "prefectureCode": "01",
    "prefectureNumber": 1,
    "prefecture": "北海道",
    "city": "旭川市",
    "town": "東光２４条"
  },
  "0788365": {
    "zipcode": "0788365",
    "prefectureCode": "01",
    "prefectureNumber": 1,
    "prefecture": "北海道",
    "city": "旭川市",
    "town": "東光２５条"
  },
  "0788366": {
    "zipcode": "0788366",
    "prefectureCode": "01",
    "prefectureNumber": 1,
    "prefecture": "北海道",
    "city": "旭川市",
    "town": "東光２６条"
  },
  "0788367": {
    "zipcode": "0788367",
    "prefectureCode": "01",
    "prefectureNumber": 1,
    "prefecture": "北海道",
    "city": "旭川市",
    "town": "東光２７条"
  },
  "0788368": {
    "zipcode": "0788368",
    "prefectureCode": "01",
    "prefectureNumber": 1,
    "prefecture": "北海道",
    "city": "旭川市",
    "town": "東旭川町旭正"
  },
  "0788371": {
    "zipcode": "0788371",
    "prefectureCode": "01",
    "prefectureNumber": 1,
    "prefecture": "北海道",
    "city": "旭川市",
    "town": "旭神１条"
  },
  "0788372": {
    "zipcode": "0788372",
    "prefectureCode": "01",
    "prefectureNumber": 1,
    "prefecture": "北海道",
    "city": "旭川市",
    "town": "旭神２条"
  },
  "0788373": {
    "zipcode": "0788373",
    "prefectureCode": "01",
    "prefectureNumber": 1,
    "prefecture": "北海道",
    "city": "旭川市",
    "town": "旭神３条"
  },
  "0788381": {
    "zipcode": "0788381",
    "prefectureCode": "01",
    "prefectureNumber": 1,
    "prefecture": "北海道",
    "city": "旭川市",
    "town": "西神楽１線"
  },
  "0788382": {
    "zipcode": "0788382",
    "prefectureCode": "01",
    "prefectureNumber": 1,
    "prefecture": "北海道",
    "city": "旭川市",
    "town": "西神楽２線"
  },
  "0788383": {
    "zipcode": "0788383",
    "prefectureCode": "01",
    "prefectureNumber": 1,
    "prefecture": "北海道",
    "city": "旭川市",
    "town": "西神楽３線"
  },
  "0788391": {
    "zipcode": "0788391",
    "prefectureCode": "01",
    "prefectureNumber": 1,
    "prefecture": "北海道",
    "city": "旭川市",
    "town": "宮前１条"
  },
  "0788392": {
    "zipcode": "0788392",
    "prefectureCode": "01",
    "prefectureNumber": 1,
    "prefecture": "北海道",
    "city": "旭川市",
    "town": "宮前２条"
  },
  "0788801": {
    "zipcode": "0788801",
    "prefectureCode": "01",
    "prefectureNumber": 1,
    "prefecture": "北海道",
    "city": "旭川市",
    "town": "緑が丘東１条"
  },
  "0788802": {
    "zipcode": "0788802",
    "prefectureCode": "01",
    "prefectureNumber": 1,
    "prefecture": "北海道",
    "city": "旭川市",
    "town": "緑が丘東２条"
  },
  "0788803": {
    "zipcode": "0788803",
    "prefectureCode": "01",
    "prefectureNumber": 1,
    "prefecture": "北海道",
    "city": "旭川市",
    "town": "緑が丘東３条"
  },
  "0788804": {
    "zipcode": "0788804",
    "prefectureCode": "01",
    "prefectureNumber": 1,
    "prefecture": "北海道",
    "city": "旭川市",
    "town": "緑が丘東４条"
  },
  "0788805": {
    "zipcode": "0788805",
    "prefectureCode": "01",
    "prefectureNumber": 1,
    "prefecture": "北海道",
    "city": "旭川市",
    "town": "緑が丘東５条"
  },
  "0788811": {
    "zipcode": "0788811",
    "prefectureCode": "01",
    "prefectureNumber": 1,
    "prefecture": "北海道",
    "city": "旭川市",
    "town": "緑が丘南１条"
  },
  "0788812": {
    "zipcode": "0788812",
    "prefectureCode": "01",
    "prefectureNumber": 1,
    "prefecture": "北海道",
    "city": "旭川市",
    "town": "緑が丘南２条"
  },
  "0788813": {
    "zipcode": "0788813",
    "prefectureCode": "01",
    "prefectureNumber": 1,
    "prefecture": "北海道",
    "city": "旭川市",
    "town": "緑が丘南３条"
  },
  "0788814": {
    "zipcode": "0788814",
    "prefectureCode": "01",
    "prefectureNumber": 1,
    "prefecture": "北海道",
    "city": "旭川市",
    "town": "緑が丘南４条"
  },
  "0788815": {
    "zipcode": "0788815",
    "prefectureCode": "01",
    "prefectureNumber": 1,
    "prefecture": "北海道",
    "city": "旭川市",
    "town": "緑が丘南５条"
  },
  "0788821": {
    "zipcode": "0788821",
    "prefectureCode": "01",
    "prefectureNumber": 1,
    "prefecture": "北海道",
    "city": "旭川市",
    "town": "西御料１条"
  },
  "0788822": {
    "zipcode": "0788822",
    "prefectureCode": "01",
    "prefectureNumber": 1,
    "prefecture": "北海道",
    "city": "旭川市",
    "town": "西御料２条"
  },
  "0788823": {
    "zipcode": "0788823",
    "prefectureCode": "01",
    "prefectureNumber": 1,
    "prefecture": "北海道",
    "city": "旭川市",
    "town": "西御料３条"
  },
  "0788824": {
    "zipcode": "0788824",
    "prefectureCode": "01",
    "prefectureNumber": 1,
    "prefecture": "北海道",
    "city": "旭川市",
    "town": "西御料４条"
  },
  "0788825": {
    "zipcode": "0788825",
    "prefectureCode": "01",
    "prefectureNumber": 1,
    "prefecture": "北海道",
    "city": "旭川市",
    "town": "西御料５条"
  }
}
