{
  "0790161": {
    "zipcode": "0790161",
    "prefectureCode": "01",
    "prefectureNumber": 1,
    "prefecture": "北海道",
    "city": "美唄市",
    "town": "光珠内拓北"
  },
  "0790162": {
    "zipcode": "0790162",
    "prefectureCode": "01",
    "prefectureNumber": 1,
    "prefecture": "北海道",
    "city": "美唄市",
    "town": "光珠内北"
  },
  "0790164": {
    "zipcode": "0790164",
    "prefectureCode": "01",
    "prefectureNumber": 1,
    "prefecture": "北海道",
    "city": "美唄市",
    "town": "光珠内下中の沢"
  },
  "0790165": {
    "zipcode": "0790165",
    "prefectureCode": "01",
    "prefectureNumber": 1,
    "prefecture": "北海道",
    "city": "美唄市",
    "town": "光珠内上中の沢"
  },
  "0790166": {
    "zipcode": "0790166",
    "prefectureCode": "01",
    "prefectureNumber": 1,
    "prefecture": "北海道",
    "city": "美唄市",
    "town": "光珠内東山"
  },
  "0790167": {
    "zipcode": "0790167",
    "prefectureCode": "01",
    "prefectureNumber": 1,
    "prefecture": "北海道",
    "city": "美唄市",
    "town": "光珠内町南（その他）"
  },
  "0790171": {
    "zipcode": "0790171",
    "prefectureCode": "01",
    "prefectureNumber": 1,
    "prefecture": "北海道",
    "city": "美唄市",
    "town": "光珠内中央"
  },
  "0790172": {
    "zipcode": "0790172",
    "prefectureCode": "01",
    "prefectureNumber": 1,
    "prefecture": "北海道",
    "city": "美唄市",
    "town": "峰延町東"
  },
  "0790173": {
    "zipcode": "0790173",
    "prefectureCode": "01",
    "prefectureNumber": 1,
    "prefecture": "北海道",
    "city": "美唄市",
    "town": "峰延町公園"
  },
  "0790174": {
    "zipcode": "0790174",
    "prefectureCode": "01",
    "prefectureNumber": 1,
    "prefecture": "北海道",
    "city": "美唄市",
    "town": "峰延町本町"
  },
  "0790175": {
    "zipcode": "0790175",
    "prefectureCode": "01",
    "prefectureNumber": 1,
    "prefecture": "北海道",
    "city": "美唄市",
    "town": "峰延町峰樺"
  },
  "0790176": {
    "zipcode": "0790176",
    "prefectureCode": "01",
    "prefectureNumber": 1,
    "prefecture": "北海道",
    "city": "美唄市",
    "town": "豊葦町"
  },
  "0790177": {
    "zipcode": "0790177",
    "prefectureCode": "01",
    "prefectureNumber": 1,
    "prefecture": "北海道",
    "city": "美唄市",
    "town": "上美唄町（協和、南）"
  },
  "0790181": {
    "zipcode": "0790181",
    "prefectureCode": "01",
    "prefectureNumber": 1,
    "prefecture": "北海道",
    "city": "岩見沢市",
    "town": "岡山町"
  },
  "0790182": {
    "zipcode": "0790182",
    "prefectureCode": "01",
    "prefectureNumber": 1,
    "prefecture": "北海道",
    "city": "岩見沢市",
    "town": "峰延町"
  },
  "0790183": {
    "zipcode": "0790183",
    "prefectureCode": "01",
    "prefectureNumber": 1,
    "prefecture": "北海道",
    "city": "岩見沢市",
    "town": "大願町"
  },
  "0790261": {
    "zipcode": "0790261",
    "prefectureCode": "01",
    "prefectureNumber": 1,
    "prefecture": "北海道",
    "city": "美唄市",
    "town": "茶志内町"
  },
  "0790262": {
    "zipcode": "0790262",
    "prefectureCode": "01",
    "prefectureNumber": 1,
    "prefecture": "北海道",
    "city": "美唄市",
    "town": "日東町栄町"
  },
  "0790263": {
    "zipcode": "0790263",
    "prefectureCode": "01",
    "prefectureNumber": 1,
    "prefecture": "北海道",
    "city": "美唄市",
    "town": "日東町住吉"
  },
  "0790264": {
    "zipcode": "0790264",
    "prefectureCode": "01",
    "prefectureNumber": 1,
    "prefecture": "北海道",
    "city": "美唄市",
    "town": "日東町本町"
  },
  "0790265": {
    "zipcode": "0790265",
    "prefectureCode": "01",
    "prefectureNumber": 1,
    "prefecture": "北海道",
    "city": "美唄市",
    "town": "日東町富の郷"
  },
  "0790266": {
    "zipcode": "0790266",
    "prefectureCode": "01",
    "prefectureNumber": 1,
    "prefecture": "北海道",
    "city": "美唄市",
    "town": "茶志内町本町"
  },
  "0790267": {
    "zipcode": "0790267",
    "prefectureCode": "01",
    "prefectureNumber": 1,
    "prefecture": "北海道",
    "city": "美唄市",
    "town": "茶志内町協和"
  },
  "0790271": {
    "zipcode": "0790271",
    "prefectureCode": "01",
    "prefectureNumber": 1,
    "prefecture": "北海道",
    "city": "美唄市",
    "town": "中村町南"
  },
  "0790272": {
    "zipcode": "0790272",
    "prefectureCode": "01",
    "prefectureNumber": 1,
    "prefecture": "北海道",
    "city": "美唄市",
    "town": "中村町中央"
  },
  "0790273": {
    "zipcode": "0790273",
    "prefectureCode": "01",
    "prefectureNumber": 1,
    "prefecture": "北海道",
    "city": "美唄市",
    "town": "中村町北"
  },
  "0790274": {
    "zipcode": "0790274",
    "prefectureCode": "01",
    "prefectureNumber": 1,
    "prefecture": "北海道",
    "city": "美唄市",
    "town": "北美唄町"
  },
  "0790300": {
    "zipcode": "0790300",
    "prefectureCode": "01",
    "prefectureNumber": 1,
    "prefecture": "北海道",
    "city": "空知郡奈井江町",
    "town": "以下に掲載がない場合"
  },
  "0790301": {
    "zipcode": "0790301",
    "prefectureCode": "01",
    "prefectureNumber": 1,
    "prefecture": "北海道",
    "city": "空知郡奈井江町",
    "town": "厳島"
  },
  "0790302": {
    "zipcode": "0790302",
    "prefectureCode": "01",
    "prefectureNumber": 1,
    "prefecture": "北海道",
    "city": "空知郡奈井江町",
    "town": "白山"
  },
  "0790303": {
    "zipcode": "0790303",
    "prefectureCode": "01",
    "prefectureNumber": 1,
    "prefecture": "北海道",
    "city": "空知郡奈井江町",
    "town": "向ケ丘"
  },
  "0790304": {
    "zipcode": "0790304",
    "prefectureCode": "01",
    "prefectureNumber": 1,
    "prefecture": "北海道",
    "city": "空知郡奈井江町",
    "town": "宮村"
  },
  "0790305": {
    "zipcode": "0790305",
    "prefectureCode": "01",
    "prefectureNumber": 1,
    "prefecture": "北海道",
    "city": "空知郡奈井江町",
    "town": "茶志内"
  },
  "0790306": {
    "zipcode": "0790306",
    "prefectureCode": "01",
    "prefectureNumber": 1,
    "prefecture": "北海道",
    "city": "空知郡奈井江町",
    "town": "東町"
  },
  "0790311": {
    "zipcode": "0790311",
    "prefectureCode": "01",
    "prefectureNumber": 1,
    "prefecture": "北海道",
    "city": "空知郡奈井江町",
    "town": "大和"
  },
  "0790312": {
    "zipcode": "0790312",
    "prefectureCode": "01",
    "prefectureNumber": 1,
    "prefecture": "北海道",
    "city": "空知郡奈井江町",
    "town": "北町"
  },
  "0790313": {
    "zipcode": "0790313",
    "prefectureCode": "01",
    "prefectureNumber": 1,
    "prefecture": "北海道",
    "city": "空知郡奈井江町",
    "town": "本町"
  },
  "0790314": {
    "zipcode": "0790314",
    "prefectureCode": "01",
    "prefectureNumber": 1,
    "prefecture": "北海道",
    "city": "空知郡奈井江町",
    "town": "南町"
  },
  "0790315": {
    "zipcode": "0790315",
    "prefectureCode": "01",
    "prefectureNumber": 1,
    "prefecture": "北海道",
    "city": "空知郡奈井江町",
    "town": "高島"
  },
  "0790316": {
    "zipcode": "0790316",
    "prefectureCode": "01",
    "prefectureNumber": 1,
    "prefecture": "北海道",
    "city": "空知郡奈井江町",
    "town": "キナウスナイ"
  },
  "0790317": {
    "zipcode": "0790317",
    "prefectureCode": "01",
    "prefectureNumber": 1,
    "prefecture": "北海道",
    "city": "空知郡奈井江町",
    "town": "瑞穂"
  },
  "0790461": {
    "zipcode": "0790461",
    "prefectureCode": "01",
    "prefectureNumber": 1,
    "prefecture": "北海道",
    "city": "滝川市",
    "town": "江部乙町"
  },
  "0790462": {
    "zipcode": "0790462",
    "prefectureCode": "01",
    "prefectureNumber": 1,
    "prefecture": "北海道",
    "city": "滝川市",
    "town": "江部乙町西"
  },
  "0790463": {
    "zipcode": "0790463",
    "prefectureCode": "01",
    "prefectureNumber": 1,
    "prefecture": "北海道",
    "city": "滝川市",
    "town": "江部乙町東"
  },
  "0790500": {
    "zipcode": "0790500",
    "prefectureCode": "01",
    "prefectureNumber": 1,
    "prefecture": "北海道",
    "city": "雨竜郡妹背牛町",
    "town": "以下に掲載がない場合"
  },
  "0790501": {
    "zipcode": "0790501",
    "prefectureCode": "01",
    "prefectureNumber": 1,
    "prefecture": "北海道",
    "city": "雨竜郡妹背牛町",
    "town": "１区"
  },
  "0790502": {
    "zipcode": "0790502",
    "prefectureCode": "01",
    "prefectureNumber": 1,
    "prefecture": "北海道",
    "city": "雨竜郡妹背牛町",
    "town": "２区"
  },
  "0790503": {
    "zipcode": "0790503",
    "prefectureCode": "01",
    "prefectureNumber": 1,
    "prefecture": "北海道",
    "city": "雨竜郡妹背牛町",
    "town": "３区"
  },
  "0790504": {
    "zipcode": "0790504",
    "prefectureCode": "01",
    "prefectureNumber": 1,
    "prefecture": "北海道",
    "city": "雨竜郡妹背牛町",
    "town": "４区"
  },
  "0790505": {
    "zipcode": "0790505",
    "prefectureCode": "01",
    "prefectureNumber": 1,
    "prefecture": "北海道",
    "city": "雨竜郡妹背牛町",
    "town": "５区"
  },
  "0790506": {
    "zipcode": "0790506",
    "prefectureCode": "01",
    "prefectureNumber": 1,
    "prefecture": "北海道",
    "city": "雨竜郡妹背牛町",
    "town": "６区"
  },
  "0790507": {
    "zipcode": "0790507",
    "prefectureCode": "01",
    "prefectureNumber": 1,
    "prefecture": "北海道",
    "city": "雨竜郡妹背牛町",
    "town": "７区"
  },
  "0790508": {
    "zipcode": "0790508",
    "prefectureCode": "01",
    "prefectureNumber": 1,
    "prefecture": "北海道",
    "city": "雨竜郡妹背牛町",
    "town": "８区"
  },
  "0790509": {
    "zipcode": "0790509",
    "prefectureCode": "01",
    "prefectureNumber": 1,
    "prefecture": "北海道",
    "city": "雨竜郡妹背牛町",
    "town": "９区"
  },
  "0790510": {
    "zipcode": "0790510",
    "prefectureCode": "01",
    "prefectureNumber": 1,
    "prefecture": "北海道",
    "city": "雨竜郡妹背牛町",
    "town": "１０区"
  },
  "0790511": {
    "zipcode": "0790511",
    "prefectureCode": "01",
    "prefectureNumber": 1,
    "prefecture": "北海道",
    "city": "雨竜郡妹背牛町",
    "town": "１１区"
  },
  "0791100": {
    "zipcode": "0791100",
    "prefectureCode": "01",
    "prefectureNumber": 1,
    "prefecture": "北海道",
    "city": "赤平市",
    "town": "以下に掲載がない場合"
  },
  "0791101": {
    "zipcode": "0791101",
    "prefectureCode": "01",
    "prefectureNumber": 1,
    "prefecture": "北海道",
    "city": "赤平市",
    "town": "共和町"
  },
  "0791102": {
    "zipcode": "0791102",
    "prefectureCode": "01",
    "prefectureNumber": 1,
    "prefecture": "北海道",
    "city": "赤平市",
    "town": "幌岡町"
  },
  "0791111": {
    "zipcode": "0791111",
    "prefectureCode": "01",
    "prefectureNumber": 1,
    "prefecture": "北海道",
    "city": "赤平市",
    "town": "若木町北"
  },
  "0791112": {
    "zipcode": "0791112",
    "prefectureCode": "01",
    "prefectureNumber": 1,
    "prefecture": "北海道",
    "city": "赤平市",
    "town": "若木町西"
  },
  "0791113": {
    "zipcode": "0791113",
    "prefectureCode": "01",
    "prefectureNumber": 1,
    "prefecture": "北海道",
    "city": "赤平市",
    "town": "若木町東"
  },
  "0791114": {
    "zipcode": "0791114",
    "prefectureCode": "01",
    "prefectureNumber": 1,
    "prefecture": "北海道",
    "city": "赤平市",
    "town": "若木町南"
  },
  "0791121": {
    "zipcode": "0791121",
    "prefectureCode": "01",
    "prefectureNumber": 1,
    "prefecture": "北海道",
    "city": "赤平市",
    "town": "北文京町"
  },
  "0791122": {
    "zipcode": "0791122",
    "prefectureCode": "01",
    "prefectureNumber": 1,
    "prefecture": "北海道",
    "city": "赤平市",
    "town": "西文京町"
  },
  "0791123": {
    "zipcode": "0791123",
    "prefectureCode": "01",
    "prefectureNumber": 1,
    "prefecture": "北海道",
    "city": "赤平市",
    "town": "東文京町"
  },
  "0791124": {
    "zipcode": "0791124",
    "prefectureCode": "01",
    "prefectureNumber": 1,
    "prefecture": "北海道",
    "city": "赤平市",
    "town": "豊丘町"
  },
  "0791131": {
    "zipcode": "0791131",
    "prefectureCode": "01",
    "prefectureNumber": 1,
    "prefecture": "北海道",
    "city": "赤平市",
    "town": "西豊里町"
  },
  "0791132": {
    "zipcode": "0791132",
    "prefectureCode": "01",
    "prefectureNumber": 1,
    "prefecture": "北海道",
    "city": "赤平市",
    "town": "東豊里町"
  },
  "0791133": {
    "zipcode": "0791133",
    "prefectureCode": "01",
    "prefectureNumber": 1,
    "prefecture": "北海道",
    "city": "赤平市",
    "town": "豊里"
  },
  "0791134": {
    "zipcode": "0791134",
    "prefectureCode": "01",
    "prefectureNumber": 1,
    "prefecture": "北海道",
    "city": "赤平市",
    "town": "泉町"
  },
  "0791135": {
    "zipcode": "0791135",
    "prefectureCode": "01",
    "prefectureNumber": 1,
    "prefecture": "北海道",
    "city": "赤平市",
    "town": "錦町"
  },
  "0791136": {
    "zipcode": "0791136",
    "prefectureCode": "01",
    "prefectureNumber": 1,
    "prefecture": "北海道",
    "city": "赤平市",
    "town": "本町"
  },
  "0791141": {
    "zipcode": "0791141",
    "prefectureCode": "01",
    "prefectureNumber": 1,
    "prefecture": "北海道",
    "city": "赤平市",
    "town": "大町"
  },
  "0791142": {
    "zipcode": "0791142",
    "prefectureCode": "01",
    "prefectureNumber": 1,
    "prefecture": "北海道",
    "city": "赤平市",
    "town": "東大町"
  },
  "0791143": {
    "zipcode": "0791143",
    "prefectureCode": "01",
    "prefectureNumber": 1,
    "prefecture": "北海道",
    "city": "赤平市",
    "town": "赤平"
  },
  "0791144": {
    "zipcode": "0791144",
    "prefectureCode": "01",
    "prefectureNumber": 1,
    "prefecture": "北海道",
    "city": "赤平市",
    "town": "美園町"
  },
  "0791151": {
    "zipcode": "0791151",
    "prefectureCode": "01",
    "prefectureNumber": 1,
    "prefecture": "北海道",
    "city": "赤平市",
    "town": "宮下町"
  },
  "0791152": {
    "zipcode": "0791152",
    "prefectureCode": "01",
    "prefectureNumber": 1,
    "prefecture": "北海道",
    "city": "赤平市",
    "town": "桜木町"
  },
  "0791153": {
    "zipcode": "0791153",
    "prefectureCode": "01",
    "prefectureNumber": 1,
    "prefecture": "北海道",
    "city": "赤平市",
    "town": "豊栄町"
  },
  "0791154": {
    "zipcode": "0791154",
    "prefectureCode": "01",
    "prefectureNumber": 1,
    "prefecture": "北海道",
    "city": "赤平市",
    "town": "幸町"
  },
  "0791155": {
    "zipcode": "0791155",
    "prefectureCode": "01",
    "prefectureNumber": 1,
    "prefecture": "北海道",
    "city": "赤平市",
    "town": "昭和町"
  },
  "0791156": {
    "zipcode": "0791156",
    "prefectureCode": "01",
    "prefectureNumber": 1,
    "prefecture": "北海道",
    "city": "赤平市",
    "town": "住吉町"
  },
  "0791181": {
    "zipcode": "0791181",
    "prefectureCode": "01",
    "prefectureNumber": 1,
    "prefecture": "北海道",
    "city": "砂川市",
    "town": "富平（３３１、４５９−４、５４３番地）"
  },
  "0791261": {
    "zipcode": "0791261",
    "prefectureCode": "01",
    "prefectureNumber": 1,
    "prefecture": "北海道",
    "city": "赤平市",
    "town": "茂尻中央町北"
  },
  "0791262": {
    "zipcode": "0791262",
    "prefectureCode": "01",
    "prefectureNumber": 1,
    "prefecture": "北海道",
    "city": "赤平市",
    "town": "茂尻新春日町"
  },
  "0791263": {
    "zipcode": "0791263",
    "prefectureCode": "01",
    "prefectureNumber": 1,
    "prefecture": "北海道",
    "city": "赤平市",
    "town": "茂尻本町"
  },
  "0791264": {
    "zipcode": "0791264",
    "prefectureCode": "01",
    "prefectureNumber": 1,
    "prefecture": "北海道",
    "city": "赤平市",
    "town": "茂尻宮下町"
  },
  "0791265": {
    "zipcode": "0791265",
    "prefectureCode": "01",
    "prefectureNumber": 1,
    "prefecture": "北海道",
    "city": "赤平市",
    "town": "茂尻新町"
  },
  "0791266": {
    "zipcode": "0791266",
    "prefectureCode": "01",
    "prefectureNumber": 1,
    "prefecture": "北海道",
    "city": "赤平市",
    "town": "茂尻栄町"
  },
  "0791267": {
    "zipcode": "0791267",
    "prefectureCode": "01",
    "prefectureNumber": 1,
    "prefecture": "北海道",
    "city": "赤平市",
    "town": "茂尻元町南"
  },
  "0791268": {
    "zipcode": "0791268",
    "prefectureCode": "01",
    "prefectureNumber": 1,
    "prefecture": "北海道",
    "city": "赤平市",
    "town": "茂尻元町北"
  },
  "0791271": {
    "zipcode": "0791271",
    "prefectureCode": "01",
    "prefectureNumber": 1,
    "prefecture": "北海道",
    "city": "赤平市",
    "town": "百戸町北"
  },
  "0791272": {
    "zipcode": "0791272",
    "prefectureCode": "01",
    "prefectureNumber": 1,
    "prefecture": "北海道",
    "city": "赤平市",
    "town": "百戸町東"
  },
  "0791273": {
    "zipcode": "0791273",
    "prefectureCode": "01",
    "prefectureNumber": 1,
    "prefecture": "北海道",
    "city": "赤平市",
    "town": "百戸町西"
  },
  "0791274": {
    "zipcode": "0791274",
    "prefectureCode": "01",
    "prefectureNumber": 1,
    "prefecture": "北海道",
    "city": "赤平市",
    "town": "エルム町"
  },
  "0791281": {
    "zipcode": "0791281",
    "prefectureCode": "01",
    "prefectureNumber": 1,
    "prefecture": "北海道",
    "city": "赤平市",
    "town": "平岸新光町"
  },
  "0791282": {
    "zipcode": "0791282",
    "prefectureCode": "01",
    "prefectureNumber": 1,
    "prefecture": "北海道",
    "city": "赤平市",
    "town": "平岸仲町"
  },
  "0791283": {
    "zipcode": "0791283",
    "prefectureCode": "01",
    "prefectureNumber": 1,
    "prefecture": "北海道",
    "city": "赤平市",
    "town": "平岸東町"
  },
  "0791284": {
    "zipcode": "0791284",
    "prefectureCode": "01",
    "prefectureNumber": 1,
    "prefecture": "北海道",
    "city": "赤平市",
    "town": "平岸南町"
  },
  "0791285": {
    "zipcode": "0791285",
    "prefectureCode": "01",
    "prefectureNumber": 1,
    "prefecture": "北海道",
    "city": "赤平市",
    "town": "平岸曙町"
  },
  "0791286": {
    "zipcode": "0791286",
    "prefectureCode": "01",
    "prefectureNumber": 1,
    "prefecture": "北海道",
    "city": "赤平市",
    "town": "平岸西町"
  },
  "0791287": {
    "zipcode": "0791287",
    "prefectureCode": "01",
    "prefectureNumber": 1,
    "prefecture": "北海道",
    "city": "赤平市",
    "town": "平岸桂町"
  },
  "0791371": {
    "zipcode": "0791371",
    "prefectureCode": "01",
    "prefectureNumber": 1,
    "prefecture": "北海道",
    "city": "芦別市",
    "town": "上芦別町"
  },
  "0791372": {
    "zipcode": "0791372",
    "prefectureCode": "01",
    "prefectureNumber": 1,
    "prefecture": "北海道",
    "city": "芦別市",
    "town": "野花南町"
  },
  "0791562": {
    "zipcode": "0791562",
    "prefectureCode": "01",
    "prefectureNumber": 1,
    "prefecture": "北海道",
    "city": "富良野市",
    "town": "山部北町"
  },
  "0791563": {
    "zipcode": "0791563",
    "prefectureCode": "01",
    "prefectureNumber": 1,
    "prefecture": "北海道",
    "city": "富良野市",
    "town": "山部東町"
  },
  "0791564": {
    "zipcode": "0791564",
    "prefectureCode": "01",
    "prefectureNumber": 1,
    "prefecture": "北海道",
    "city": "富良野市",
    "town": "山部中町"
  },
  "0791565": {
    "zipcode": "0791565",
    "prefectureCode": "01",
    "prefectureNumber": 1,
    "prefecture": "北海道",
    "city": "富良野市",
    "town": "山部南町"
  },
  "0791566": {
    "zipcode": "0791566",
    "prefectureCode": "01",
    "prefectureNumber": 1,
    "prefecture": "北海道",
    "city": "富良野市",
    "town": "山部西町"
  },
  "0791571": {
    "zipcode": "0791571",
    "prefectureCode": "01",
    "prefectureNumber": 1,
    "prefecture": "北海道",
    "city": "富良野市",
    "town": "山部西１９線"
  },
  "0791572": {
    "zipcode": "0791572",
    "prefectureCode": "01",
    "prefectureNumber": 1,
    "prefecture": "北海道",
    "city": "富良野市",
    "town": "山部西２４線"
  },
  "0791573": {
    "zipcode": "0791573",
    "prefectureCode": "01",
    "prefectureNumber": 1,
    "prefecture": "北海道",
    "city": "富良野市",
    "town": "山部西２８線"
  },
  "0791581": {
    "zipcode": "0791581",
    "prefectureCode": "01",
    "prefectureNumber": 1,
    "prefecture": "北海道",
    "city": "富良野市",
    "town": "山部東１９線"
  },
  "0791582": {
    "zipcode": "0791582",
    "prefectureCode": "01",
    "prefectureNumber": 1,
    "prefecture": "北海道",
    "city": "富良野市",
    "town": "山部東２７線"
  },
  "0792131": {
    "zipcode": "0792131",
    "prefectureCode": "01",
    "prefectureNumber": 1,
    "prefecture": "北海道",
    "city": "空知郡南富良野町",
    "town": "金山"
  },
  "0792132": {
    "zipcode": "0792132",
    "prefectureCode": "01",
    "prefectureNumber": 1,
    "prefecture": "北海道",
    "city": "空知郡南富良野町",
    "town": "下金山"
  },
  "0792133": {
    "zipcode": "0792133",
    "prefectureCode": "01",
    "prefectureNumber": 1,
    "prefecture": "北海道",
    "city": "富良野市",
    "town": "東山（１７１０番地）"
  },
  "0792200": {
    "zipcode": "0792200",
    "prefectureCode": "01",
    "prefectureNumber": 1,
    "prefecture": "北海道",
    "city": "勇払郡占冠村",
    "town": "以下に掲載がない場合"
  },
  "0792201": {
    "zipcode": "0792201",
    "prefectureCode": "01",
    "prefectureNumber": 1,
    "prefecture": "北海道",
    "city": "勇払郡占冠村",
    "town": "中央"
  },
  "0792202": {
    "zipcode": "0792202",
    "prefectureCode": "01",
    "prefectureNumber": 1,
    "prefecture": "北海道",
    "city": "勇払郡占冠村",
    "town": "占冠"
  },
  "0792203": {
    "zipcode": "0792203",
    "prefectureCode": "01",
    "prefectureNumber": 1,
    "prefecture": "北海道",
    "city": "勇払郡占冠村",
    "town": "下トマム"
  },
  "0792204": {
    "zipcode": "0792204",
    "prefectureCode": "01",
    "prefectureNumber": 1,
    "prefecture": "北海道",
    "city": "勇払郡占冠村",
    "town": "中トマム"
  },
  "0792205": {
    "zipcode": "0792205",
    "prefectureCode": "01",
    "prefectureNumber": 1,
    "prefecture": "北海道",
    "city": "勇払郡占冠村",
    "town": "上トマム"
  },
  "0792206": {
    "zipcode": "0792206",
    "prefectureCode": "01",
    "prefectureNumber": 1,
    "prefecture": "北海道",
    "city": "勇払郡占冠村",
    "town": "双珠別"
  },
  "0792207": {
    "zipcode": "0792207",
    "prefectureCode": "01",
    "prefectureNumber": 1,
    "prefecture": "北海道",
    "city": "勇払郡占冠村",
    "town": "ニニウ"
  },
  "0792400": {
    "zipcode": "0792400",
    "prefectureCode": "01",
    "prefectureNumber": 1,
    "prefecture": "北海道",
    "city": "空知郡南富良野町",
    "town": "以下に掲載がない場合"
  },
  "0792401": {
    "zipcode": "0792401",
    "prefectureCode": "01",
    "prefectureNumber": 1,
    "prefecture": "北海道",
    "city": "空知郡南富良野町",
    "town": "幾寅（仲町）"
  },
  "0792402": {
    "zipcode": "0792402",
    "prefectureCode": "01",
    "prefectureNumber": 1,
    "prefecture": "北海道",
    "city": "空知郡南富良野町",
    "town": "幾寅（西町）"
  },
  "0792403": {
    "zipcode": "0792403",
    "prefectureCode": "01",
    "prefectureNumber": 1,
    "prefecture": "北海道",
    "city": "空知郡南富良野町",
    "town": "幾寅（山畔）"
  },
  "0792404": {
    "zipcode": "0792404",
    "prefectureCode": "01",
    "prefectureNumber": 1,
    "prefecture": "北海道",
    "city": "空知郡南富良野町",
    "town": "幾寅（東町）"
  },
  "0792411": {
    "zipcode": "0792411",
    "prefectureCode": "01",
    "prefectureNumber": 1,
    "prefecture": "北海道",
    "city": "空知郡南富良野町",
    "town": "東鹿越"
  },
  "0792412": {
    "zipcode": "0792412",
    "prefectureCode": "01",
    "prefectureNumber": 1,
    "prefecture": "北海道",
    "city": "空知郡南富良野町",
    "town": "東幾寅"
  },
  "0792551": {
    "zipcode": "0792551",
    "prefectureCode": "01",
    "prefectureNumber": 1,
    "prefecture": "北海道",
    "city": "空知郡南富良野町",
    "town": "落合"
  },
  "0792552": {
    "zipcode": "0792552",
    "prefectureCode": "01",
    "prefectureNumber": 1,
    "prefecture": "北海道",
    "city": "空知郡南富良野町",
    "town": "北落合"
  },
  "0798401": {
    "zipcode": "0798401",
    "prefectureCode": "01",
    "prefectureNumber": 1,
    "prefecture": "北海道",
    "city": "旭川市",
    "town": "秋月１条"
  },
  "0798402": {
    "zipcode": "0798402",
    "prefectureCode": "01",
    "prefectureNumber": 1,
    "prefecture": "北海道",
    "city": "旭川市",
    "town": "秋月２条"
  },
  "0798403": {
    "zipcode": "0798403",
    "prefectureCode": "01",
    "prefectureNumber": 1,
    "prefecture": "北海道",
    "city": "旭川市",
    "town": "秋月３条"
  },
  "0798411": {
    "zipcode": "0798411",
    "prefectureCode": "01",
    "prefectureNumber": 1,
    "prefecture": "北海道",
    "city": "旭川市",
    "town": "永山１条"
  },
  "0798412": {
    "zipcode": "0798412",
    "prefectureCode": "01",
    "prefectureNumber": 1,
    "prefecture": "北海道",
    "city": "旭川市",
    "town": "永山２条"
  },
  "0798413": {
    "zipcode": "0798413",
    "prefectureCode": "01",
    "prefectureNumber": 1,
    "prefecture": "北海道",
    "city": "旭川市",
    "town": "永山３条"
  },
  "0798414": {
    "zipcode": "0798414",
    "prefectureCode": "01",
    "prefectureNumber": 1,
    "prefecture": "北海道",
    "city": "旭川市",
    "town": "永山４条"
  },
  "0798415": {
    "zipcode": "0798415",
    "prefectureCode": "01",
    "prefectureNumber": 1,
    "prefecture": "北海道",
    "city": "旭川市",
    "town": "永山５条"
  },
  "0798416": {
    "zipcode": "0798416",
    "prefectureCode": "01",
    "prefectureNumber": 1,
    "prefecture": "北海道",
    "city": "旭川市",
    "town": "永山６条"
  },
  "0798417": {
    "zipcode": "0798417",
    "prefectureCode": "01",
    "prefectureNumber": 1,
    "prefecture": "北海道",
    "city": "旭川市",
    "town": "永山７条"
  },
  "0798418": {
    "zipcode": "0798418",
    "prefectureCode": "01",
    "prefectureNumber": 1,
    "prefecture": "北海道",
    "city": "旭川市",
    "town": "永山８条"
  },
  "0798419": {
    "zipcode": "0798419",
    "prefectureCode": "01",
    "prefectureNumber": 1,
    "prefecture": "北海道",
    "city": "旭川市",
    "town": "永山９条"
  },
  "0798420": {
    "zipcode": "0798420",
    "prefectureCode": "01",
    "prefectureNumber": 1,
    "prefecture": "北海道",
    "city": "旭川市",
    "town": "永山１０条"
  },
  "0798421": {
    "zipcode": "0798421",
    "prefectureCode": "01",
    "prefectureNumber": 1,
    "prefecture": "北海道",
    "city": "旭川市",
    "town": "永山１１条"
  },
  "0798422": {
    "zipcode": "0798422",
    "prefectureCode": "01",
    "prefectureNumber": 1,
    "prefecture": "北海道",
    "city": "旭川市",
    "town": "永山１２条"
  },
  "0798423": {
    "zipcode": "0798423",
    "prefectureCode": "01",
    "prefectureNumber": 1,
    "prefecture": "北海道",
    "city": "旭川市",
    "town": "永山１３条"
  },
  "0798424": {
    "zipcode": "0798424",
    "prefectureCode": "01",
    "prefectureNumber": 1,
    "prefecture": "北海道",
    "city": "旭川市",
    "town": "永山１４条"
  },
  "0798431": {
    "zipcode": "0798431",
    "prefectureCode": "01",
    "prefectureNumber": 1,
    "prefecture": "北海道",
    "city": "旭川市",
    "town": "永山町"
  },
  "0798441": {
    "zipcode": "0798441",
    "prefectureCode": "01",
    "prefectureNumber": 1,
    "prefecture": "北海道",
    "city": "旭川市",
    "town": "流通団地１条"
  },
  "0798442": {
    "zipcode": "0798442",
    "prefectureCode": "01",
    "prefectureNumber": 1,
    "prefecture": "北海道",
    "city": "旭川市",
    "town": "流通団地２条"
  },
  "0798443": {
    "zipcode": "0798443",
    "prefectureCode": "01",
    "prefectureNumber": 1,
    "prefecture": "北海道",
    "city": "旭川市",
    "town": "流通団地３条"
  },
  "0798444": {
    "zipcode": "0798444",
    "prefectureCode": "01",
    "prefectureNumber": 1,
    "prefecture": "北海道",
    "city": "旭川市",
    "town": "流通団地４条"
  },
  "0798451": {
    "zipcode": "0798451",
    "prefectureCode": "01",
    "prefectureNumber": 1,
    "prefecture": "北海道",
    "city": "旭川市",
    "town": "永山北１条"
  },
  "0798452": {
    "zipcode": "0798452",
    "prefectureCode": "01",
    "prefectureNumber": 1,
    "prefecture": "北海道",
    "city": "旭川市",
    "town": "永山北２条"
  },
  "0798453": {
    "zipcode": "0798453",
    "prefectureCode": "01",
    "prefectureNumber": 1,
    "prefecture": "北海道",
    "city": "旭川市",
    "town": "永山北３条"
  },
  "0798454": {
    "zipcode": "0798454",
    "prefectureCode": "01",
    "prefectureNumber": 1,
    "prefecture": "北海道",
    "city": "旭川市",
    "town": "永山北４条"
  }
}
