{
  "0800000": {
    "zipcode": "0800000",
    "prefectureCode": "01",
    "prefectureNumber": 1,
    "prefecture": "北海道",
    "city": "帯広市",
    "town": "以下に掲載がない場合"
  },
  "0800010": {
    "zipcode": "0800010",
    "prefectureCode": "01",
    "prefectureNumber": 1,
    "prefecture": "北海道",
    "city": "帯広市",
    "town": "大通南"
  },
  "0800011": {
    "zipcode": "0800011",
    "prefectureCode": "01",
    "prefectureNumber": 1,
    "prefecture": "北海道",
    "city": "帯広市",
    "town": "西一条南"
  },
  "0800012": {
    "zipcode": "0800012",
    "prefectureCode": "01",
    "prefectureNumber": 1,
    "prefecture": "北海道",
    "city": "帯広市",
    "town": "西二条南"
  },
  "0800013": {
    "zipcode": "0800013",
    "prefectureCode": "01",
    "prefectureNumber": 1,
    "prefecture": "北海道",
    "city": "帯広市",
    "town": "西三条南"
  },
  "0800014": {
    "zipcode": "0800014",
    "prefectureCode": "01",
    "prefectureNumber": 1,
    "prefecture": "北海道",
    "city": "帯広市",
    "town": "西四条南"
  },
  "0800015": {
    "zipcode": "0800015",
    "prefectureCode": "01",
    "prefectureNumber": 1,
    "prefecture": "北海道",
    "city": "帯広市",
    "town": "西五条南"
  },
  "0800016": {
    "zipcode": "0800016",
    "prefectureCode": "01",
    "prefectureNumber": 1,
    "prefecture": "北海道",
    "city": "帯広市",
    "town": "西六条南"
  },
  "0800017": {
    "zipcode": "0800017",
    "prefectureCode": "01",
    "prefectureNumber": 1,
    "prefecture": "北海道",
    "city": "帯広市",
    "town": "西七条南"
  },
  "0800018": {
    "zipcode": "0800018",
    "prefectureCode": "01",
    "prefectureNumber": 1,
    "prefecture": "北海道",
    "city": "帯広市",
    "town": "西八条南"
  },
  "0800019": {
    "zipcode": "0800019",
    "prefectureCode": "01",
    "prefectureNumber": 1,
    "prefecture": "北海道",
    "city": "帯広市",
    "town": "西九条南"
  },
  "0800020": {
    "zipcode": "0800020",
    "prefectureCode": "01",
    "prefectureNumber": 1,
    "prefecture": "北海道",
    "city": "帯広市",
    "town": "西十条南"
  },
  "0800021": {
    "zipcode": "0800021",
    "prefectureCode": "01",
    "prefectureNumber": 1,
    "prefecture": "北海道",
    "city": "帯広市",
    "town": "西十一条南"
  },
  "0800022": {
    "zipcode": "0800022",
    "prefectureCode": "01",
    "prefectureNumber": 1,
    "prefecture": "北海道",
    "city": "帯広市",
    "town": "西十二条南"
  },
  "0800023": {
    "zipcode": "0800023",
    "prefectureCode": "01",
    "prefectureNumber": 1,
    "prefecture": "北海道",
    "city": "帯広市",
    "town": "西十三条南"
  },
  "0800024": {
    "zipcode": "0800024",
    "prefectureCode": "01",
    "prefectureNumber": 1,
    "prefecture": "北海道",
    "city": "帯広市",
    "town": "西十四条南"
  },
  "0800025": {
    "zipcode": "0800025",
    "prefectureCode": "01",
    "prefectureNumber": 1,
    "prefecture": "北海道",
    "city": "帯広市",
    "town": "西十五条南"
  },
  "0800026": {
    "zipcode": "0800026",
    "prefectureCode": "01",
    "prefectureNumber": 1,
    "prefecture": "北海道",
    "city": "帯広市",
    "town": "西十六条南"
  },
  "0800027": {
    "zipcode": "0800027",
    "prefectureCode": "01",
    "prefectureNumber": 1,
    "prefecture": "北海道",
    "city": "帯広市",
    "town": "西十七条南"
  },
  "0800028": {
    "zipcode": "0800028",
    "prefectureCode": "01",
    "prefectureNumber": 1,
    "prefecture": "北海道",
    "city": "帯広市",
    "town": "西十八条南"
  },
  "0800029": {
    "zipcode": "0800029",
    "prefectureCode": "01",
    "prefectureNumber": 1,
    "prefecture": "北海道",
    "city": "帯広市",
    "town": "西十九条南（３５〜３８、４１、４２丁目）"
  },
  "0800030": {
    "zipcode": "0800030",
    "prefectureCode": "01",
    "prefectureNumber": 1,
    "prefecture": "北海道",
    "city": "帯広市",
    "town": "大通北"
  },
  "0800031": {
    "zipcode": "0800031",
    "prefectureCode": "01",
    "prefectureNumber": 1,
    "prefecture": "北海道",
    "city": "帯広市",
    "town": "西一条北"
  },
  "0800032": {
    "zipcode": "0800032",
    "prefectureCode": "01",
    "prefectureNumber": 1,
    "prefecture": "北海道",
    "city": "帯広市",
    "town": "西二条北"
  },
  "0800033": {
    "zipcode": "0800033",
    "prefectureCode": "01",
    "prefectureNumber": 1,
    "prefecture": "北海道",
    "city": "帯広市",
    "town": "西三条北"
  },
  "0800034": {
    "zipcode": "0800034",
    "prefectureCode": "01",
    "prefectureNumber": 1,
    "prefecture": "北海道",
    "city": "帯広市",
    "town": "西四条北"
  },
  "0800035": {
    "zipcode": "0800035",
    "prefectureCode": "01",
    "prefectureNumber": 1,
    "prefecture": "北海道",
    "city": "帯広市",
    "town": "西五条北"
  },
  "0800036": {
    "zipcode": "0800036",
    "prefectureCode": "01",
    "prefectureNumber": 1,
    "prefecture": "北海道",
    "city": "帯広市",
    "town": "西六条北"
  },
  "0800037": {
    "zipcode": "0800037",
    "prefectureCode": "01",
    "prefectureNumber": 1,
    "prefecture": "北海道",
    "city": "帯広市",
    "town": "西七条北"
  },
  "0800038": {
    "zipcode": "0800038",
    "prefectureCode": "01",
    "prefectureNumber": 1,
    "prefecture": "北海道",
    "city": "帯広市",
    "town": "西八条北"
  },
  "0800039": {
    "zipcode": "0800039",
    "prefectureCode": "01",
    "prefectureNumber": 1,
    "prefecture": "北海道",
    "city": "帯広市",
    "town": "西九条北"
  },
  "0800040": {
    "zipcode": "0800040",
    "prefectureCode": "01",
    "prefectureNumber": 1,
    "prefecture": "北海道",
    "city": "帯広市",
    "town": "西十条北"
  },
  "0800041": {
    "zipcode": "0800041",
    "prefectureCode": "01",
    "prefectureNumber": 1,
    "prefecture": "北海道",
    "city": "帯広市",
    "town": "西十一条北"
  },
  "0800042": {
    "zipcode": "0800042",
    "prefectureCode": "01",
    "prefectureNumber": 1,
    "prefecture": "北海道",
    "city": "帯広市",
    "town": "西十二条北"
  },
  "0800043": {
    "zipcode": "0800043",
    "prefectureCode": "01",
    "prefectureNumber": 1,
    "prefecture": "北海道",
    "city": "帯広市",
    "town": "西十三条北"
  },
  "0800044": {
    "zipcode": "0800044",
    "prefectureCode": "01",
    "prefectureNumber": 1,
    "prefecture": "北海道",
    "city": "帯広市",
    "town": "西十四条北"
  },
  "0800045": {
    "zipcode": "0800045",
    "prefectureCode": "01",
    "prefectureNumber": 1,
    "prefecture": "北海道",
    "city": "帯広市",
    "town": "西十五条北"
  },
  "0800046": {
    "zipcode": "0800046",
    "prefectureCode": "01",
    "prefectureNumber": 1,
    "prefecture": "北海道",
    "city": "帯広市",
    "town": "西十六条北"
  },
  "0800047": {
    "zipcode": "0800047",
    "prefectureCode": "01",
    "prefectureNumber": 1,
    "prefecture": "北海道",
    "city": "帯広市",
    "town": "西十七条北"
  },
  "0800048": {
    "zipcode": "0800048",
    "prefectureCode": "01",
    "prefectureNumber": 1,
    "prefecture": "北海道",
    "city": "帯広市",
    "town": "西十八条北"
  },
  "0800050": {
    "zipcode": "0800050",
    "prefectureCode": "01",
    "prefectureNumber": 1,
    "prefecture": "北海道",
    "city": "帯広市",
    "town": "白樺十六条東"
  },
  "0800051": {
    "zipcode": "0800051",
    "prefectureCode": "01",
    "prefectureNumber": 1,
    "prefecture": "北海道",
    "city": "帯広市",
    "town": "白樺十六条西"
  },
  "0800052": {
    "zipcode": "0800052",
    "prefectureCode": "01",
    "prefectureNumber": 1,
    "prefecture": "北海道",
    "city": "帯広市",
    "town": "新町東"
  },
  "0800053": {
    "zipcode": "0800053",
    "prefectureCode": "01",
    "prefectureNumber": 1,
    "prefecture": "北海道",
    "city": "帯広市",
    "town": "新町西"
  },
  "0800054": {
    "zipcode": "0800054",
    "prefectureCode": "01",
    "prefectureNumber": 1,
    "prefecture": "北海道",
    "city": "帯広市",
    "town": "柏林台北町"
  },
  "0800055": {
    "zipcode": "0800055",
    "prefectureCode": "01",
    "prefectureNumber": 1,
    "prefecture": "北海道",
    "city": "帯広市",
    "town": "柏林台東町"
  },
  "0800056": {
    "zipcode": "0800056",
    "prefectureCode": "01",
    "prefectureNumber": 1,
    "prefecture": "北海道",
    "city": "帯広市",
    "town": "柏林台南町"
  },
  "0800057": {
    "zipcode": "0800057",
    "prefectureCode": "01",
    "prefectureNumber": 1,
    "prefecture": "北海道",
    "city": "帯広市",
    "town": "柏林台中町"
  },
  "0800058": {
    "zipcode": "0800058",
    "prefectureCode": "01",
    "prefectureNumber": 1,
    "prefecture": "北海道",
    "city": "帯広市",
    "town": "柏林台西町"
  },
  "0800100": {
    "zipcode": "0800100",
    "prefectureCode": "01",
    "prefectureNumber": 1,
    "prefecture": "北海道",
    "city": "河東郡音更町",
    "town": "以下に掲載がない場合"
  },
  "0800101": {
    "zipcode": "0800101",
    "prefectureCode": "01",
    "prefectureNumber": 1,
    "prefecture": "北海道",
    "city": "河東郡音更町",
    "town": "大通"
  },
  "0800102": {
    "zipcode": "0800102",
    "prefectureCode": "01",
    "prefectureNumber": 1,
    "prefecture": "北海道",
    "city": "河東郡音更町",
    "town": "大通北"
  },
  "0800103": {
    "zipcode": "0800103",
    "prefectureCode": "01",
    "prefectureNumber": 1,
    "prefecture": "北海道",
    "city": "河東郡音更町",
    "town": "元町"
  },
  "0800104": {
    "zipcode": "0800104",
    "prefectureCode": "01",
    "prefectureNumber": 1,
    "prefecture": "北海道",
    "city": "河東郡音更町",
    "town": "新通"
  },
  "0800105": {
    "zipcode": "0800105",
    "prefectureCode": "01",
    "prefectureNumber": 1,
    "prefecture": "北海道",
    "city": "河東郡音更町",
    "town": "新通北"
  },
  "0800106": {
    "zipcode": "0800106",
    "prefectureCode": "01",
    "prefectureNumber": 1,
    "prefecture": "北海道",
    "city": "河東郡音更町",
    "town": "東通"
  },
  "0800111": {
    "zipcode": "0800111",
    "prefectureCode": "01",
    "prefectureNumber": 1,
    "prefecture": "北海道",
    "city": "河東郡音更町",
    "town": "木野大通東"
  },
  "0800112": {
    "zipcode": "0800112",
    "prefectureCode": "01",
    "prefectureNumber": 1,
    "prefecture": "北海道",
    "city": "河東郡音更町",
    "town": "木野東通"
  },
  "0800121": {
    "zipcode": "0800121",
    "prefectureCode": "01",
    "prefectureNumber": 1,
    "prefecture": "北海道",
    "city": "河東郡音更町",
    "town": "柳町北区"
  },
  "0800122": {
    "zipcode": "0800122",
    "prefectureCode": "01",
    "prefectureNumber": 1,
    "prefecture": "北海道",
    "city": "河東郡音更町",
    "town": "柳町仲区"
  },
  "0800123": {
    "zipcode": "0800123",
    "prefectureCode": "01",
    "prefectureNumber": 1,
    "prefecture": "北海道",
    "city": "河東郡音更町",
    "town": "柳町南区"
  },
  "0800131": {
    "zipcode": "0800131",
    "prefectureCode": "01",
    "prefectureNumber": 1,
    "prefecture": "北海道",
    "city": "河東郡音更町",
    "town": "宝来本通"
  },
  "0800132": {
    "zipcode": "0800132",
    "prefectureCode": "01",
    "prefectureNumber": 1,
    "prefecture": "北海道",
    "city": "河東郡音更町",
    "town": "宝来仲町北"
  },
  "0800133": {
    "zipcode": "0800133",
    "prefectureCode": "01",
    "prefectureNumber": 1,
    "prefecture": "北海道",
    "city": "河東郡音更町",
    "town": "宝来東町北"
  },
  "0800134": {
    "zipcode": "0800134",
    "prefectureCode": "01",
    "prefectureNumber": 1,
    "prefecture": "北海道",
    "city": "河東郡音更町",
    "town": "宝来西町南"
  },
  "0800135": {
    "zipcode": "0800135",
    "prefectureCode": "01",
    "prefectureNumber": 1,
    "prefecture": "北海道",
    "city": "河東郡音更町",
    "town": "宝来仲町南"
  },
  "0800136": {
    "zipcode": "0800136",
    "prefectureCode": "01",
    "prefectureNumber": 1,
    "prefecture": "北海道",
    "city": "河東郡音更町",
    "town": "宝来東町南"
  },
  "0800137": {
    "zipcode": "0800137",
    "prefectureCode": "01",
    "prefectureNumber": 1,
    "prefecture": "北海道",
    "city": "河東郡音更町",
    "town": "宝来南一条"
  },
  "0800138": {
    "zipcode": "0800138",
    "prefectureCode": "01",
    "prefectureNumber": 1,
    "prefecture": "北海道",
    "city": "河東郡音更町",
    "town": "宝来南二条"
  },
  "0800139": {
    "zipcode": "0800139",
    "prefectureCode": "01",
    "prefectureNumber": 1,
    "prefecture": "北海道",
    "city": "河東郡音更町",
    "town": "宝来西町北"
  },
  "0800141": {
    "zipcode": "0800141",
    "prefectureCode": "01",
    "prefectureNumber": 1,
    "prefecture": "北海道",
    "city": "河東郡音更町",
    "town": "宝来北一条"
  },
  "0800142": {
    "zipcode": "0800142",
    "prefectureCode": "01",
    "prefectureNumber": 1,
    "prefecture": "北海道",
    "city": "河東郡音更町",
    "town": "宝来北二条"
  },
  "0800143": {
    "zipcode": "0800143",
    "prefectureCode": "01",
    "prefectureNumber": 1,
    "prefecture": "北海道",
    "city": "河東郡音更町",
    "town": "宝来北三条"
  },
  "0800144": {
    "zipcode": "0800144",
    "prefectureCode": "01",
    "prefectureNumber": 1,
    "prefecture": "北海道",
    "city": "河東郡音更町",
    "town": "宝来北四条"
  },
  "0800145": {
    "zipcode": "0800145",
    "prefectureCode": "01",
    "prefectureNumber": 1,
    "prefecture": "北海道",
    "city": "河東郡音更町",
    "town": "宝来北五条"
  },
  "0800146": {
    "zipcode": "0800146",
    "prefectureCode": "01",
    "prefectureNumber": 1,
    "prefecture": "北海道",
    "city": "河東郡音更町",
    "town": "宝来北六条"
  },
  "0800151": {
    "zipcode": "0800151",
    "prefectureCode": "01",
    "prefectureNumber": 1,
    "prefecture": "北海道",
    "city": "河東郡音更町",
    "town": "東和"
  },
  "0800161": {
    "zipcode": "0800161",
    "prefectureCode": "01",
    "prefectureNumber": 1,
    "prefecture": "北海道",
    "city": "河東郡音更町",
    "town": "ひびき野東町"
  },
  "0800162": {
    "zipcode": "0800162",
    "prefectureCode": "01",
    "prefectureNumber": 1,
    "prefecture": "北海道",
    "city": "河東郡音更町",
    "town": "ひびき野仲町"
  },
  "0800163": {
    "zipcode": "0800163",
    "prefectureCode": "01",
    "prefectureNumber": 1,
    "prefecture": "北海道",
    "city": "河東郡音更町",
    "town": "ひびき野西町"
  },
  "0800261": {
    "zipcode": "0800261",
    "prefectureCode": "01",
    "prefectureNumber": 1,
    "prefecture": "北海道",
    "city": "河東郡音更町",
    "town": "十勝川温泉"
  },
  "0800262": {
    "zipcode": "0800262",
    "prefectureCode": "01",
    "prefectureNumber": 1,
    "prefecture": "北海道",
    "city": "河東郡音更町",
    "town": "十勝川温泉北"
  },
  "0800263": {
    "zipcode": "0800263",
    "prefectureCode": "01",
    "prefectureNumber": 1,
    "prefecture": "北海道",
    "city": "河東郡音更町",
    "town": "十勝川温泉南"
  },
  "0800271": {
    "zipcode": "0800271",
    "prefectureCode": "01",
    "prefectureNumber": 1,
    "prefecture": "北海道",
    "city": "河東郡音更町",
    "town": "長流枝幹線"
  },
  "0800272": {
    "zipcode": "0800272",
    "prefectureCode": "01",
    "prefectureNumber": 1,
    "prefecture": "北海道",
    "city": "河東郡音更町",
    "town": "下士幌幹線"
  },
  "0800301": {
    "zipcode": "0800301",
    "prefectureCode": "01",
    "prefectureNumber": 1,
    "prefecture": "北海道",
    "city": "河東郡音更町",
    "town": "木野大通西"
  },
  "0800302": {
    "zipcode": "0800302",
    "prefectureCode": "01",
    "prefectureNumber": 1,
    "prefecture": "北海道",
    "city": "河東郡音更町",
    "town": "木野西通"
  },
  "0800303": {
    "zipcode": "0800303",
    "prefectureCode": "01",
    "prefectureNumber": 1,
    "prefecture": "北海道",
    "city": "河東郡音更町",
    "town": "木野公園下町"
  },
  "0800304": {
    "zipcode": "0800304",
    "prefectureCode": "01",
    "prefectureNumber": 1,
    "prefecture": "北海道",
    "city": "河東郡音更町",
    "town": "木野新町"
  },
  "0800305": {
    "zipcode": "0800305",
    "prefectureCode": "01",
    "prefectureNumber": 1,
    "prefecture": "北海道",
    "city": "河東郡音更町",
    "town": "北鈴蘭北"
  },
  "0800306": {
    "zipcode": "0800306",
    "prefectureCode": "01",
    "prefectureNumber": 1,
    "prefecture": "北海道",
    "city": "河東郡音更町",
    "town": "北鈴蘭南"
  },
  "0800307": {
    "zipcode": "0800307",
    "prefectureCode": "01",
    "prefectureNumber": 1,
    "prefecture": "北海道",
    "city": "河東郡音更町",
    "town": "中鈴蘭北"
  },
  "0800308": {
    "zipcode": "0800308",
    "prefectureCode": "01",
    "prefectureNumber": 1,
    "prefecture": "北海道",
    "city": "河東郡音更町",
    "town": "中鈴蘭南"
  },
  "0800309": {
    "zipcode": "0800309",
    "prefectureCode": "01",
    "prefectureNumber": 1,
    "prefecture": "北海道",
    "city": "河東郡音更町",
    "town": "中鈴蘭元町"
  },
  "0800311": {
    "zipcode": "0800311",
    "prefectureCode": "01",
    "prefectureNumber": 1,
    "prefecture": "北海道",
    "city": "河東郡音更町",
    "town": "南鈴蘭北"
  },
  "0800312": {
    "zipcode": "0800312",
    "prefectureCode": "01",
    "prefectureNumber": 1,
    "prefecture": "北海道",
    "city": "河東郡音更町",
    "town": "南鈴蘭南"
  },
  "0800313": {
    "zipcode": "0800313",
    "prefectureCode": "01",
    "prefectureNumber": 1,
    "prefecture": "北海道",
    "city": "河東郡音更町",
    "town": "鈴蘭公園"
  },
  "0800314": {
    "zipcode": "0800314",
    "prefectureCode": "01",
    "prefectureNumber": 1,
    "prefecture": "北海道",
    "city": "河東郡音更町",
    "town": "共栄台西"
  },
  "0800315": {
    "zipcode": "0800315",
    "prefectureCode": "01",
    "prefectureNumber": 1,
    "prefecture": "北海道",
    "city": "河東郡音更町",
    "town": "共栄台東"
  },
  "0800316": {
    "zipcode": "0800316",
    "prefectureCode": "01",
    "prefectureNumber": 1,
    "prefecture": "北海道",
    "city": "河東郡音更町",
    "town": "緑陽台北区"
  },
  "0800317": {
    "zipcode": "0800317",
    "prefectureCode": "01",
    "prefectureNumber": 1,
    "prefecture": "北海道",
    "city": "河東郡音更町",
    "town": "緑陽台仲区"
  },
  "0800318": {
    "zipcode": "0800318",
    "prefectureCode": "01",
    "prefectureNumber": 1,
    "prefecture": "北海道",
    "city": "河東郡音更町",
    "town": "緑陽台南区"
  },
  "0800321": {
    "zipcode": "0800321",
    "prefectureCode": "01",
    "prefectureNumber": 1,
    "prefecture": "北海道",
    "city": "河東郡音更町",
    "town": "桜が丘"
  },
  "0800322": {
    "zipcode": "0800322",
    "prefectureCode": "01",
    "prefectureNumber": 1,
    "prefecture": "北海道",
    "city": "河東郡音更町",
    "town": "桜が丘西"
  },
  "0800323": {
    "zipcode": "0800323",
    "prefectureCode": "01",
    "prefectureNumber": 1,
    "prefecture": "北海道",
    "city": "河東郡音更町",
    "town": "住吉台"
  },
  "0800324": {
    "zipcode": "0800324",
    "prefectureCode": "01",
    "prefectureNumber": 1,
    "prefecture": "北海道",
    "city": "河東郡音更町",
    "town": "南住吉台"
  },
  "0800325": {
    "zipcode": "0800325",
    "prefectureCode": "01",
    "prefectureNumber": 1,
    "prefecture": "北海道",
    "city": "河東郡音更町",
    "town": "柏寿台"
  },
  "0800326": {
    "zipcode": "0800326",
    "prefectureCode": "01",
    "prefectureNumber": 1,
    "prefecture": "北海道",
    "city": "河東郡音更町",
    "town": "北明台"
  },
  "0800327": {
    "zipcode": "0800327",
    "prefectureCode": "01",
    "prefectureNumber": 1,
    "prefecture": "北海道",
    "city": "河東郡音更町",
    "town": "北陽台"
  },
  "0800330": {
    "zipcode": "0800330",
    "prefectureCode": "01",
    "prefectureNumber": 1,
    "prefecture": "北海道",
    "city": "河東郡音更町",
    "town": "雄飛が丘"
  },
  "0800331": {
    "zipcode": "0800331",
    "prefectureCode": "01",
    "prefectureNumber": 1,
    "prefecture": "北海道",
    "city": "河東郡音更町",
    "town": "雄飛が丘北区"
  },
  "0800332": {
    "zipcode": "0800332",
    "prefectureCode": "01",
    "prefectureNumber": 1,
    "prefecture": "北海道",
    "city": "河東郡音更町",
    "town": "雄飛が丘仲区"
  },
  "0800333": {
    "zipcode": "0800333",
    "prefectureCode": "01",
    "prefectureNumber": 1,
    "prefecture": "北海道",
    "city": "河東郡音更町",
    "town": "雄飛が丘南区"
  },
  "0800334": {
    "zipcode": "0800334",
    "prefectureCode": "01",
    "prefectureNumber": 1,
    "prefecture": "北海道",
    "city": "河東郡音更町",
    "town": "緑が丘"
  },
  "0800335": {
    "zipcode": "0800335",
    "prefectureCode": "01",
    "prefectureNumber": 1,
    "prefecture": "北海道",
    "city": "河東郡音更町",
    "town": "希望が丘"
  },
  "0800341": {
    "zipcode": "0800341",
    "prefectureCode": "01",
    "prefectureNumber": 1,
    "prefecture": "北海道",
    "city": "河東郡音更町",
    "town": "音更"
  },
  "0800342": {
    "zipcode": "0800342",
    "prefectureCode": "01",
    "prefectureNumber": 1,
    "prefecture": "北海道",
    "city": "河東郡音更町",
    "town": "下音更"
  },
  "0800343": {
    "zipcode": "0800343",
    "prefectureCode": "01",
    "prefectureNumber": 1,
    "prefecture": "北海道",
    "city": "河東郡音更町",
    "town": "東士狩"
  },
  "0800344": {
    "zipcode": "0800344",
    "prefectureCode": "01",
    "prefectureNumber": 1,
    "prefecture": "北海道",
    "city": "河東郡音更町",
    "town": "万年"
  },
  "0800345": {
    "zipcode": "0800345",
    "prefectureCode": "01",
    "prefectureNumber": 1,
    "prefecture": "北海道",
    "city": "河東郡音更町",
    "town": "高倉"
  },
  "0800346": {
    "zipcode": "0800346",
    "prefectureCode": "01",
    "prefectureNumber": 1,
    "prefecture": "北海道",
    "city": "河東郡音更町",
    "town": "なつぞら"
  },
  "0800351": {
    "zipcode": "0800351",
    "prefectureCode": "01",
    "prefectureNumber": 1,
    "prefecture": "北海道",
    "city": "河東郡音更町",
    "town": "然別"
  },
  "0800361": {
    "zipcode": "0800361",
    "prefectureCode": "01",
    "prefectureNumber": 1,
    "prefecture": "北海道",
    "city": "河東郡音更町",
    "town": "すずらん台北町"
  },
  "0800362": {
    "zipcode": "0800362",
    "prefectureCode": "01",
    "prefectureNumber": 1,
    "prefecture": "北海道",
    "city": "河東郡音更町",
    "town": "すずらん台仲町"
  },
  "0800363": {
    "zipcode": "0800363",
    "prefectureCode": "01",
    "prefectureNumber": 1,
    "prefecture": "北海道",
    "city": "河東郡音更町",
    "town": "すずらん台南町"
  },
  "0800561": {
    "zipcode": "0800561",
    "prefectureCode": "01",
    "prefectureNumber": 1,
    "prefecture": "北海道",
    "city": "河東郡音更町",
    "town": "豊田"
  },
  "0800562": {
    "zipcode": "0800562",
    "prefectureCode": "01",
    "prefectureNumber": 1,
    "prefecture": "北海道",
    "city": "河東郡音更町",
    "town": "東音更"
  },
  "0800563": {
    "zipcode": "0800563",
    "prefectureCode": "01",
    "prefectureNumber": 1,
    "prefecture": "北海道",
    "city": "河東郡音更町",
    "town": "駒場平和台"
  },
  "0800564": {
    "zipcode": "0800564",
    "prefectureCode": "01",
    "prefectureNumber": 1,
    "prefecture": "北海道",
    "city": "河東郡音更町",
    "town": "駒場北２条通"
  },
  "0800565": {
    "zipcode": "0800565",
    "prefectureCode": "01",
    "prefectureNumber": 1,
    "prefecture": "北海道",
    "city": "河東郡音更町",
    "town": "駒場本通"
  },
  "0800566": {
    "zipcode": "0800566",
    "prefectureCode": "01",
    "prefectureNumber": 1,
    "prefecture": "北海道",
    "city": "河東郡音更町",
    "town": "駒場南２条通"
  },
  "0800567": {
    "zipcode": "0800567",
    "prefectureCode": "01",
    "prefectureNumber": 1,
    "prefecture": "北海道",
    "city": "河東郡音更町",
    "town": "駒場南４条通"
  },
  "0800568": {
    "zipcode": "0800568",
    "prefectureCode": "01",
    "prefectureNumber": 1,
    "prefecture": "北海道",
    "city": "河東郡音更町",
    "town": "駒場東"
  },
  "0800571": {
    "zipcode": "0800571",
    "prefectureCode": "01",
    "prefectureNumber": 1,
    "prefecture": "北海道",
    "city": "河東郡音更町",
    "town": "駒場"
  },
  "0800572": {
    "zipcode": "0800572",
    "prefectureCode": "01",
    "prefectureNumber": 1,
    "prefecture": "北海道",
    "city": "河東郡音更町",
    "town": "駒場並木"
  },
  "0800573": {
    "zipcode": "0800573",
    "prefectureCode": "01",
    "prefectureNumber": 1,
    "prefecture": "北海道",
    "city": "河東郡音更町",
    "town": "駒場南"
  },
  "0800574": {
    "zipcode": "0800574",
    "prefectureCode": "01",
    "prefectureNumber": 1,
    "prefecture": "北海道",
    "city": "河東郡音更町",
    "town": "駒場西"
  },
  "0800575": {
    "zipcode": "0800575",
    "prefectureCode": "01",
    "prefectureNumber": 1,
    "prefecture": "北海道",
    "city": "河東郡音更町",
    "town": "上然別"
  },
  "0800576": {
    "zipcode": "0800576",
    "prefectureCode": "01",
    "prefectureNumber": 1,
    "prefecture": "北海道",
    "city": "河東郡音更町",
    "town": "南中音更"
  },
  "0800577": {
    "zipcode": "0800577",
    "prefectureCode": "01",
    "prefectureNumber": 1,
    "prefecture": "北海道",
    "city": "河東郡音更町",
    "town": "西中音更"
  },
  "0800578": {
    "zipcode": "0800578",
    "prefectureCode": "01",
    "prefectureNumber": 1,
    "prefecture": "北海道",
    "city": "河東郡音更町",
    "town": "中音更"
  },
  "0800801": {
    "zipcode": "0800801",
    "prefectureCode": "01",
    "prefectureNumber": 1,
    "prefecture": "北海道",
    "city": "帯広市",
    "town": "東一条南"
  },
  "0800802": {
    "zipcode": "0800802",
    "prefectureCode": "01",
    "prefectureNumber": 1,
    "prefecture": "北海道",
    "city": "帯広市",
    "town": "東二条南"
  },
  "0800803": {
    "zipcode": "0800803",
    "prefectureCode": "01",
    "prefectureNumber": 1,
    "prefecture": "北海道",
    "city": "帯広市",
    "town": "東三条南"
  },
  "0800804": {
    "zipcode": "0800804",
    "prefectureCode": "01",
    "prefectureNumber": 1,
    "prefecture": "北海道",
    "city": "帯広市",
    "town": "東四条南"
  },
  "0800805": {
    "zipcode": "0800805",
    "prefectureCode": "01",
    "prefectureNumber": 1,
    "prefecture": "北海道",
    "city": "帯広市",
    "town": "東五条南"
  },
  "0800806": {
    "zipcode": "0800806",
    "prefectureCode": "01",
    "prefectureNumber": 1,
    "prefecture": "北海道",
    "city": "帯広市",
    "town": "東六条南"
  },
  "0800807": {
    "zipcode": "0800807",
    "prefectureCode": "01",
    "prefectureNumber": 1,
    "prefecture": "北海道",
    "city": "帯広市",
    "town": "東七条南"
  },
  "0800808": {
    "zipcode": "0800808",
    "prefectureCode": "01",
    "prefectureNumber": 1,
    "prefecture": "北海道",
    "city": "帯広市",
    "town": "東八条南"
  },
  "0800809": {
    "zipcode": "0800809",
    "prefectureCode": "01",
    "prefectureNumber": 1,
    "prefecture": "北海道",
    "city": "帯広市",
    "town": "東九条南"
  },
  "0800810": {
    "zipcode": "0800810",
    "prefectureCode": "01",
    "prefectureNumber": 1,
    "prefecture": "北海道",
    "city": "帯広市",
    "town": "東十条南"
  },
  "0800811": {
    "zipcode": "0800811",
    "prefectureCode": "01",
    "prefectureNumber": 1,
    "prefecture": "北海道",
    "city": "帯広市",
    "town": "東十一条南"
  },
  "0800812": {
    "zipcode": "0800812",
    "prefectureCode": "01",
    "prefectureNumber": 1,
    "prefecture": "北海道",
    "city": "帯広市",
    "town": "東十二条南"
  },
  "0800813": {
    "zipcode": "0800813",
    "prefectureCode": "01",
    "prefectureNumber": 1,
    "prefecture": "北海道",
    "city": "帯広市",
    "town": "東十三条南"
  },
  "0800814": {
    "zipcode": "0800814",
    "prefectureCode": "01",
    "prefectureNumber": 1,
    "prefecture": "北海道",
    "city": "帯広市",
    "town": "東十四条南"
  },
  "0800815": {
    "zipcode": "0800815",
    "prefectureCode": "01",
    "prefectureNumber": 1,
    "prefecture": "北海道",
    "city": "帯広市",
    "town": "東十五条南"
  },
  "0800816": {
    "zipcode": "0800816",
    "prefectureCode": "01",
    "prefectureNumber": 1,
    "prefecture": "北海道",
    "city": "帯広市",
    "town": "大川町"
  },
  "0800817": {
    "zipcode": "0800817",
    "prefectureCode": "01",
    "prefectureNumber": 1,
    "prefecture": "北海道",
    "city": "帯広市",
    "town": "依田町"
  },
  "0800821": {
    "zipcode": "0800821",
    "prefectureCode": "01",
    "prefectureNumber": 1,
    "prefecture": "北海道",
    "city": "帯広市",
    "town": "東一条北"
  },
  "0800822": {
    "zipcode": "0800822",
    "prefectureCode": "01",
    "prefectureNumber": 1,
    "prefecture": "北海道",
    "city": "帯広市",
    "town": "東二条北"
  },
  "0800823": {
    "zipcode": "0800823",
    "prefectureCode": "01",
    "prefectureNumber": 1,
    "prefecture": "北海道",
    "city": "帯広市",
    "town": "東三条北"
  },
  "0800824": {
    "zipcode": "0800824",
    "prefectureCode": "01",
    "prefectureNumber": 1,
    "prefecture": "北海道",
    "city": "帯広市",
    "town": "東四条北"
  },
  "0800831": {
    "zipcode": "0800831",
    "prefectureCode": "01",
    "prefectureNumber": 1,
    "prefecture": "北海道",
    "city": "帯広市",
    "town": "稲田町南"
  },
  "0800832": {
    "zipcode": "0800832",
    "prefectureCode": "01",
    "prefectureNumber": 1,
    "prefecture": "北海道",
    "city": "帯広市",
    "town": "稲田町東"
  },
  "0800833": {
    "zipcode": "0800833",
    "prefectureCode": "01",
    "prefectureNumber": 1,
    "prefecture": "北海道",
    "city": "帯広市",
    "town": "稲田町基線"
  },
  "0800834": {
    "zipcode": "0800834",
    "prefectureCode": "01",
    "prefectureNumber": 1,
    "prefecture": "北海道",
    "city": "帯広市",
    "town": "稲田町西"
  },
  "0800835": {
    "zipcode": "0800835",
    "prefectureCode": "01",
    "prefectureNumber": 1,
    "prefecture": "北海道",
    "city": "帯広市",
    "town": "稲田町"
  },
  "0800836": {
    "zipcode": "0800836",
    "prefectureCode": "01",
    "prefectureNumber": 1,
    "prefecture": "北海道",
    "city": "帯広市",
    "town": "空港南町"
  },
  "0800837": {
    "zipcode": "0800837",
    "prefectureCode": "01",
    "prefectureNumber": 1,
    "prefecture": "北海道",
    "city": "帯広市",
    "town": "空港南町南"
  },
  "0800838": {
    "zipcode": "0800838",
    "prefectureCode": "01",
    "prefectureNumber": 1,
    "prefecture": "北海道",
    "city": "帯広市",
    "town": "大空町"
  },
  "0800841": {
    "zipcode": "0800841",
    "prefectureCode": "01",
    "prefectureNumber": 1,
    "prefecture": "北海道",
    "city": "帯広市",
    "town": "緑ケ丘一条通"
  },
  "0800842": {
    "zipcode": "0800842",
    "prefectureCode": "01",
    "prefectureNumber": 1,
    "prefecture": "北海道",
    "city": "帯広市",
    "town": "緑ケ丘二条通"
  },
  "0800843": {
    "zipcode": "0800843",
    "prefectureCode": "01",
    "prefectureNumber": 1,
    "prefecture": "北海道",
    "city": "帯広市",
    "town": "緑ケ丘三条通"
  },
  "0800844": {
    "zipcode": "0800844",
    "prefectureCode": "01",
    "prefectureNumber": 1,
    "prefecture": "北海道",
    "city": "帯広市",
    "town": "緑ケ丘東通東"
  },
  "0800845": {
    "zipcode": "0800845",
    "prefectureCode": "01",
    "prefectureNumber": 1,
    "prefecture": "北海道",
    "city": "帯広市",
    "town": "緑ケ丘東通西"
  },
  "0800846": {
    "zipcode": "0800846",
    "prefectureCode": "01",
    "prefectureNumber": 1,
    "prefecture": "北海道",
    "city": "帯広市",
    "town": "緑ケ丘"
  },
  "0800847": {
    "zipcode": "0800847",
    "prefectureCode": "01",
    "prefectureNumber": 1,
    "prefecture": "北海道",
    "city": "帯広市",
    "town": "公園東町"
  },
  "0800848": {
    "zipcode": "0800848",
    "prefectureCode": "01",
    "prefectureNumber": 1,
    "prefecture": "北海道",
    "city": "帯広市",
    "town": "自由が丘（１、２丁目）"
  },
  "0800856": {
    "zipcode": "0800856",
    "prefectureCode": "01",
    "prefectureNumber": 1,
    "prefecture": "北海道",
    "city": "帯広市",
    "town": "南町南"
  },
  "0800857": {
    "zipcode": "0800857",
    "prefectureCode": "01",
    "prefectureNumber": 1,
    "prefecture": "北海道",
    "city": "帯広市",
    "town": "南町"
  },
  "0800861": {
    "zipcode": "0800861",
    "prefectureCode": "01",
    "prefectureNumber": 1,
    "prefecture": "北海道",
    "city": "帯広市",
    "town": "南の森東"
  },
  "0800862": {
    "zipcode": "0800862",
    "prefectureCode": "01",
    "prefectureNumber": 1,
    "prefecture": "北海道",
    "city": "帯広市",
    "town": "南の森西"
  },
  "0800871": {
    "zipcode": "0800871",
    "prefectureCode": "01",
    "prefectureNumber": 1,
    "prefecture": "北海道",
    "city": "帯広市",
    "town": "清流東"
  },
  "0800872": {
    "zipcode": "0800872",
    "prefectureCode": "01",
    "prefectureNumber": 1,
    "prefecture": "北海道",
    "city": "帯広市",
    "town": "清流西"
  },
  "0801189": {
    "zipcode": "0801189",
    "prefectureCode": "01",
    "prefectureNumber": 1,
    "prefecture": "北海道",
    "city": "河東郡士幌町",
    "town": "中士幌"
  },
  "0801200": {
    "zipcode": "0801200",
    "prefectureCode": "01",
    "prefectureNumber": 1,
    "prefecture": "北海道",
    "city": "河東郡士幌町",
    "town": "以下に掲載がない場合"
  },
  "0801205": {
    "zipcode": "0801205",
    "prefectureCode": "01",
    "prefectureNumber": 1,
    "prefecture": "北海道",
    "city": "河東郡士幌町",
    "town": "士幌"
  },
  "0801206": {
    "zipcode": "0801206",
    "prefectureCode": "01",
    "prefectureNumber": 1,
    "prefecture": "北海道",
    "city": "河東郡士幌町",
    "town": "士幌仲通"
  },
  "0801207": {
    "zipcode": "0801207",
    "prefectureCode": "01",
    "prefectureNumber": 1,
    "prefecture": "北海道",
    "city": "河東郡士幌町",
    "town": "士幌本通西"
  },
  "0801208": {
    "zipcode": "0801208",
    "prefectureCode": "01",
    "prefectureNumber": 1,
    "prefecture": "北海道",
    "city": "河東郡士幌町",
    "town": "士幌本通東"
  },
  "0801209": {
    "zipcode": "0801209",
    "prefectureCode": "01",
    "prefectureNumber": 1,
    "prefecture": "北海道",
    "city": "河東郡士幌町",
    "town": "士幌東（１条〜６条）"
  },
  "0801210": {
    "zipcode": "0801210",
    "prefectureCode": "01",
    "prefectureNumber": 1,
    "prefecture": "北海道",
    "city": "河東郡士幌町",
    "town": "士幌東（１線〜１９線）"
  },
  "0801218": {
    "zipcode": "0801218",
    "prefectureCode": "01",
    "prefectureNumber": 1,
    "prefecture": "北海道",
    "city": "河東郡士幌町",
    "town": "士幌西（１条〜３条）"
  },
  "0801219": {
    "zipcode": "0801219",
    "prefectureCode": "01",
    "prefectureNumber": 1,
    "prefecture": "北海道",
    "city": "河東郡士幌町",
    "town": "士幌西（１線〜３線）"
  },
  "0801228": {
    "zipcode": "0801228",
    "prefectureCode": "01",
    "prefectureNumber": 1,
    "prefecture": "北海道",
    "city": "河東郡士幌町",
    "town": "士幌幹線"
  },
  "0801229": {
    "zipcode": "0801229",
    "prefectureCode": "01",
    "prefectureNumber": 1,
    "prefecture": "北海道",
    "city": "河東郡士幌町",
    "town": "士幌幹東"
  },
  "0801230": {
    "zipcode": "0801230",
    "prefectureCode": "01",
    "prefectureNumber": 1,
    "prefecture": "北海道",
    "city": "河東郡士幌町",
    "town": "士幌幹西"
  },
  "0801237": {
    "zipcode": "0801237",
    "prefectureCode": "01",
    "prefectureNumber": 1,
    "prefecture": "北海道",
    "city": "河東郡士幌町",
    "town": "士幌基線"
  },
  "0801249": {
    "zipcode": "0801249",
    "prefectureCode": "01",
    "prefectureNumber": 1,
    "prefecture": "北海道",
    "city": "河東郡士幌町",
    "town": "上音更"
  },
  "0801258": {
    "zipcode": "0801258",
    "prefectureCode": "01",
    "prefectureNumber": 1,
    "prefecture": "北海道",
    "city": "河東郡士幌町",
    "town": "ウリマク"
  },
  "0801259": {
    "zipcode": "0801259",
    "prefectureCode": "01",
    "prefectureNumber": 1,
    "prefecture": "北海道",
    "city": "河東郡士幌町",
    "town": "ワッカクンネップ"
  },
  "0801260": {
    "zipcode": "0801260",
    "prefectureCode": "01",
    "prefectureNumber": 1,
    "prefecture": "北海道",
    "city": "河東郡士幌町",
    "town": "イショッポ"
  },
  "0801273": {
    "zipcode": "0801273",
    "prefectureCode": "01",
    "prefectureNumber": 1,
    "prefecture": "北海道",
    "city": "河東郡士幌町",
    "town": "中音更"
  },
  "0801285": {
    "zipcode": "0801285",
    "prefectureCode": "01",
    "prefectureNumber": 1,
    "prefecture": "北海道",
    "city": "河東郡士幌町",
    "town": "下居辺"
  },
  "0801400": {
    "zipcode": "0801400",
    "prefectureCode": "01",
    "prefectureNumber": 1,
    "prefecture": "北海道",
    "city": "河東郡上士幌町",
    "town": "以下に掲載がない場合"
  },
  "0801401": {
    "zipcode": "0801401",
    "prefectureCode": "01",
    "prefectureNumber": 1,
    "prefecture": "北海道",
    "city": "河東郡上士幌町",
    "town": "三股"
  },
  "0801402": {
    "zipcode": "0801402",
    "prefectureCode": "01",
    "prefectureNumber": 1,
    "prefecture": "北海道",
    "city": "河東郡上士幌町",
    "town": "幌加"
  },
  "0801403": {
    "zipcode": "0801403",
    "prefectureCode": "01",
    "prefectureNumber": 1,
    "prefecture": "北海道",
    "city": "河東郡上士幌町",
    "town": "ぬかびら源泉郷"
  },
  "0801404": {
    "zipcode": "0801404",
    "prefectureCode": "01",
    "prefectureNumber": 1,
    "prefecture": "北海道",
    "city": "河東郡上士幌町",
    "town": "黒石平"
  },
  "0801405": {
    "zipcode": "0801405",
    "prefectureCode": "01",
    "prefectureNumber": 1,
    "prefecture": "北海道",
    "city": "河東郡上士幌町",
    "town": "清水谷"
  },
  "0801406": {
    "zipcode": "0801406",
    "prefectureCode": "01",
    "prefectureNumber": 1,
    "prefecture": "北海道",
    "city": "河東郡上士幌町",
    "town": "居辺"
  },
  "0801407": {
    "zipcode": "0801407",
    "prefectureCode": "01",
    "prefectureNumber": 1,
    "prefecture": "北海道",
    "city": "河東郡上士幌町",
    "town": "上音更"
  },
  "0801408": {
    "zipcode": "0801408",
    "prefectureCode": "01",
    "prefectureNumber": 1,
    "prefecture": "北海道",
    "city": "河東郡上士幌町",
    "town": "上士幌"
  },
  "0802101": {
    "zipcode": "0802101",
    "prefectureCode": "01",
    "prefectureNumber": 1,
    "prefecture": "北海道",
    "city": "帯広市",
    "town": "清川町"
  },
  "0802102": {
    "zipcode": "0802102",
    "prefectureCode": "01",
    "prefectureNumber": 1,
    "prefecture": "北海道",
    "city": "帯広市",
    "town": "清川町基線"
  },
  "0802103": {
    "zipcode": "0802103",
    "prefectureCode": "01",
    "prefectureNumber": 1,
    "prefecture": "北海道",
    "city": "帯広市",
    "town": "清川町西"
  },
  "0802104": {
    "zipcode": "0802104",
    "prefectureCode": "01",
    "prefectureNumber": 1,
    "prefecture": "北海道",
    "city": "帯広市",
    "town": "清川町東"
  },
  "0802105": {
    "zipcode": "0802105",
    "prefectureCode": "01",
    "prefectureNumber": 1,
    "prefecture": "北海道",
    "city": "帯広市",
    "town": "太平町"
  },
  "0802106": {
    "zipcode": "0802106",
    "prefectureCode": "01",
    "prefectureNumber": 1,
    "prefecture": "北海道",
    "city": "帯広市",
    "town": "美栄町（その他）"
  },
  "0802111": {
    "zipcode": "0802111",
    "prefectureCode": "01",
    "prefectureNumber": 1,
    "prefecture": "北海道",
    "city": "帯広市",
    "town": "上清川町"
  },
  "0802112": {
    "zipcode": "0802112",
    "prefectureCode": "01",
    "prefectureNumber": 1,
    "prefecture": "北海道",
    "city": "帯広市",
    "town": "上清川町基線"
  },
  "0802113": {
    "zipcode": "0802113",
    "prefectureCode": "01",
    "prefectureNumber": 1,
    "prefecture": "北海道",
    "city": "帯広市",
    "town": "上清川町西"
  },
  "0802114": {
    "zipcode": "0802114",
    "prefectureCode": "01",
    "prefectureNumber": 1,
    "prefecture": "北海道",
    "city": "帯広市",
    "town": "上清川町東"
  },
  "0802115": {
    "zipcode": "0802115",
    "prefectureCode": "01",
    "prefectureNumber": 1,
    "prefecture": "北海道",
    "city": "帯広市",
    "town": "清川町仲通"
  },
  "0802116": {
    "zipcode": "0802116",
    "prefectureCode": "01",
    "prefectureNumber": 1,
    "prefecture": "北海道",
    "city": "帯広市",
    "town": "清川町本通"
  },
  "0802117": {
    "zipcode": "0802117",
    "prefectureCode": "01",
    "prefectureNumber": 1,
    "prefecture": "北海道",
    "city": "帯広市",
    "town": "太平町西"
  },
  "0802121": {
    "zipcode": "0802121",
    "prefectureCode": "01",
    "prefectureNumber": 1,
    "prefecture": "北海道",
    "city": "帯広市",
    "town": "岩内町"
  },
  "0802122": {
    "zipcode": "0802122",
    "prefectureCode": "01",
    "prefectureNumber": 1,
    "prefecture": "北海道",
    "city": "帯広市",
    "town": "岩内町第１基線"
  },
  "0802123": {
    "zipcode": "0802123",
    "prefectureCode": "01",
    "prefectureNumber": 1,
    "prefecture": "北海道",
    "city": "帯広市",
    "town": "岩内町西"
  },
  "0802124": {
    "zipcode": "0802124",
    "prefectureCode": "01",
    "prefectureNumber": 1,
    "prefecture": "北海道",
    "city": "帯広市",
    "town": "岩内町東"
  },
  "0802331": {
    "zipcode": "0802331",
    "prefectureCode": "01",
    "prefectureNumber": 1,
    "prefecture": "北海道",
    "city": "帯広市",
    "town": "基松町"
  },
  "0802332": {
    "zipcode": "0802332",
    "prefectureCode": "01",
    "prefectureNumber": 1,
    "prefecture": "北海道",
    "city": "帯広市",
    "town": "富士町（西４〜８線４９〜７８番地）"
  },
  "0802333": {
    "zipcode": "0802333",
    "prefectureCode": "01",
    "prefectureNumber": 1,
    "prefecture": "北海道",
    "city": "帯広市",
    "town": "美栄町（西５〜８線７９〜１１０番地）"
  },
  "0802334": {
    "zipcode": "0802334",
    "prefectureCode": "01",
    "prefectureNumber": 1,
    "prefecture": "北海道",
    "city": "帯広市",
    "town": "上帯広町"
  },
  "0802335": {
    "zipcode": "0802335",
    "prefectureCode": "01",
    "prefectureNumber": 1,
    "prefecture": "北海道",
    "city": "帯広市",
    "town": "広野町"
  },
  "0802336": {
    "zipcode": "0802336",
    "prefectureCode": "01",
    "prefectureNumber": 1,
    "prefecture": "北海道",
    "city": "帯広市",
    "town": "八千代町"
  },
  "0802337": {
    "zipcode": "0802337",
    "prefectureCode": "01",
    "prefectureNumber": 1,
    "prefecture": "北海道",
    "city": "帯広市",
    "town": "拓成町"
  },
  "0802459": {
    "zipcode": "0802459",
    "prefectureCode": "01",
    "prefectureNumber": 1,
    "prefecture": "北海道",
    "city": "帯広市",
    "town": "西十九条北"
  },
  "0802460": {
    "zipcode": "0802460",
    "prefectureCode": "01",
    "prefectureNumber": 1,
    "prefecture": "北海道",
    "city": "帯広市",
    "town": "西二十条北"
  },
  "0802461": {
    "zipcode": "0802461",
    "prefectureCode": "01",
    "prefectureNumber": 1,
    "prefecture": "北海道",
    "city": "帯広市",
    "town": "西二十一条北"
  },
  "0802462": {
    "zipcode": "0802462",
    "prefectureCode": "01",
    "prefectureNumber": 1,
    "prefecture": "北海道",
    "city": "帯広市",
    "town": "西二十二条北"
  },
  "0802463": {
    "zipcode": "0802463",
    "prefectureCode": "01",
    "prefectureNumber": 1,
    "prefecture": "北海道",
    "city": "帯広市",
    "town": "西二十三条北"
  },
  "0802464": {
    "zipcode": "0802464",
    "prefectureCode": "01",
    "prefectureNumber": 1,
    "prefecture": "北海道",
    "city": "帯広市",
    "town": "西二十四条北"
  },
  "0802465": {
    "zipcode": "0802465",
    "prefectureCode": "01",
    "prefectureNumber": 1,
    "prefecture": "北海道",
    "city": "帯広市",
    "town": "西二十五条北"
  },
  "0802469": {
    "zipcode": "0802469",
    "prefectureCode": "01",
    "prefectureNumber": 1,
    "prefecture": "北海道",
    "city": "帯広市",
    "town": "西十九条南（１〜５丁目）"
  },
  "0802470": {
    "zipcode": "0802470",
    "prefectureCode": "01",
    "prefectureNumber": 1,
    "prefecture": "北海道",
    "city": "帯広市",
    "town": "西二十条南"
  },
  "0802471": {
    "zipcode": "0802471",
    "prefectureCode": "01",
    "prefectureNumber": 1,
    "prefecture": "北海道",
    "city": "帯広市",
    "town": "西二十一条南"
  },
  "0802472": {
    "zipcode": "0802472",
    "prefectureCode": "01",
    "prefectureNumber": 1,
    "prefecture": "北海道",
    "city": "帯広市",
    "town": "西二十二条南"
  },
  "0802473": {
    "zipcode": "0802473",
    "prefectureCode": "01",
    "prefectureNumber": 1,
    "prefecture": "北海道",
    "city": "帯広市",
    "town": "西二十三条南"
  },
  "0802474": {
    "zipcode": "0802474",
    "prefectureCode": "01",
    "prefectureNumber": 1,
    "prefecture": "北海道",
    "city": "帯広市",
    "town": "西二十四条南"
  },
  "0802475": {
    "zipcode": "0802475",
    "prefectureCode": "01",
    "prefectureNumber": 1,
    "prefecture": "北海道",
    "city": "帯広市",
    "town": "西二十五条南"
  },
  "0802476": {
    "zipcode": "0802476",
    "prefectureCode": "01",
    "prefectureNumber": 1,
    "prefecture": "北海道",
    "city": "帯広市",
    "town": "自由が丘（３〜７丁目）"
  }
}
