{
  "0830000": {
    "zipcode": "0830000",
    "prefectureCode": "01",
    "prefectureNumber": 1,
    "prefecture": "北海道",
    "city": "中川郡池田町",
    "town": "以下に掲載がない場合"
  },
  "0830001": {
    "zipcode": "0830001",
    "prefectureCode": "01",
    "prefectureNumber": 1,
    "prefecture": "北海道",
    "city": "中川郡池田町",
    "town": "旭町"
  },
  "0830002": {
    "zipcode": "0830002",
    "prefectureCode": "01",
    "prefectureNumber": 1,
    "prefecture": "北海道",
    "city": "中川郡池田町",
    "town": "清見"
  },
  "0830003": {
    "zipcode": "0830003",
    "prefectureCode": "01",
    "prefectureNumber": 1,
    "prefecture": "北海道",
    "city": "中川郡池田町",
    "town": "清見ケ丘"
  },
  "0830004": {
    "zipcode": "0830004",
    "prefectureCode": "01",
    "prefectureNumber": 1,
    "prefecture": "北海道",
    "city": "中川郡池田町",
    "town": "様舞"
  },
  "0830020": {
    "zipcode": "0830020",
    "prefectureCode": "01",
    "prefectureNumber": 1,
    "prefecture": "北海道",
    "city": "中川郡池田町",
    "town": "大通南"
  },
  "0830021": {
    "zipcode": "0830021",
    "prefectureCode": "01",
    "prefectureNumber": 1,
    "prefecture": "北海道",
    "city": "中川郡池田町",
    "town": "西一条"
  },
  "0830022": {
    "zipcode": "0830022",
    "prefectureCode": "01",
    "prefectureNumber": 1,
    "prefecture": "北海道",
    "city": "中川郡池田町",
    "town": "西二条"
  },
  "0830023": {
    "zipcode": "0830023",
    "prefectureCode": "01",
    "prefectureNumber": 1,
    "prefecture": "北海道",
    "city": "中川郡池田町",
    "town": "西三条"
  },
  "0830031": {
    "zipcode": "0830031",
    "prefectureCode": "01",
    "prefectureNumber": 1,
    "prefecture": "北海道",
    "city": "中川郡池田町",
    "town": "利別西町"
  },
  "0830032": {
    "zipcode": "0830032",
    "prefectureCode": "01",
    "prefectureNumber": 1,
    "prefecture": "北海道",
    "city": "中川郡池田町",
    "town": "利別東町"
  },
  "0830033": {
    "zipcode": "0830033",
    "prefectureCode": "01",
    "prefectureNumber": 1,
    "prefecture": "北海道",
    "city": "中川郡池田町",
    "town": "利別南町"
  },
  "0830034": {
    "zipcode": "0830034",
    "prefectureCode": "01",
    "prefectureNumber": 1,
    "prefecture": "北海道",
    "city": "中川郡池田町",
    "town": "利別本町"
  },
  "0830041": {
    "zipcode": "0830041",
    "prefectureCode": "01",
    "prefectureNumber": 1,
    "prefecture": "北海道",
    "city": "中川郡池田町",
    "town": "川合"
  },
  "0830042": {
    "zipcode": "0830042",
    "prefectureCode": "01",
    "prefectureNumber": 1,
    "prefecture": "北海道",
    "city": "中川郡池田町",
    "town": "千代田"
  },
  "0830043": {
    "zipcode": "0830043",
    "prefectureCode": "01",
    "prefectureNumber": 1,
    "prefecture": "北海道",
    "city": "中川郡池田町",
    "town": "豊田"
  },
  "0830044": {
    "zipcode": "0830044",
    "prefectureCode": "01",
    "prefectureNumber": 1,
    "prefecture": "北海道",
    "city": "中川郡池田町",
    "town": "青山"
  },
  "0830045": {
    "zipcode": "0830045",
    "prefectureCode": "01",
    "prefectureNumber": 1,
    "prefecture": "北海道",
    "city": "中川郡池田町",
    "town": "富岡"
  },
  "0830046": {
    "zipcode": "0830046",
    "prefectureCode": "01",
    "prefectureNumber": 1,
    "prefecture": "北海道",
    "city": "中川郡池田町",
    "town": "東台"
  },
  "0830047": {
    "zipcode": "0830047",
    "prefectureCode": "01",
    "prefectureNumber": 1,
    "prefecture": "北海道",
    "city": "中川郡池田町",
    "town": "昭栄"
  },
  "0830090": {
    "zipcode": "0830090",
    "prefectureCode": "01",
    "prefectureNumber": 1,
    "prefecture": "北海道",
    "city": "中川郡池田町",
    "town": "大通"
  },
  "0830091": {
    "zipcode": "0830091",
    "prefectureCode": "01",
    "prefectureNumber": 1,
    "prefecture": "北海道",
    "city": "中川郡池田町",
    "town": "東一条"
  },
  "0830092": {
    "zipcode": "0830092",
    "prefectureCode": "01",
    "prefectureNumber": 1,
    "prefecture": "北海道",
    "city": "中川郡池田町",
    "town": "東二条"
  }
}
