{
  "0850000": {
    "zipcode": "0850000",
    "prefectureCode": "01",
    "prefectureNumber": 1,
    "prefecture": "北海道",
    "city": "釧路市",
    "town": "以下に掲載がない場合"
  },
  "0850001": {
    "zipcode": "0850001",
    "prefectureCode": "01",
    "prefectureNumber": 1,
    "prefecture": "北海道",
    "city": "釧路市",
    "town": "古川町"
  },
  "0850002": {
    "zipcode": "0850002",
    "prefectureCode": "01",
    "prefectureNumber": 1,
    "prefecture": "北海道",
    "city": "釧路市",
    "town": "新釧路町"
  },
  "0850003": {
    "zipcode": "0850003",
    "prefectureCode": "01",
    "prefectureNumber": 1,
    "prefecture": "北海道",
    "city": "釧路市",
    "town": "川北町"
  },
  "0850004": {
    "zipcode": "0850004",
    "prefectureCode": "01",
    "prefectureNumber": 1,
    "prefecture": "北海道",
    "city": "釧路市",
    "town": "新富町"
  },
  "0850005": {
    "zipcode": "0850005",
    "prefectureCode": "01",
    "prefectureNumber": 1,
    "prefecture": "北海道",
    "city": "釧路市",
    "town": "松浦町"
  },
  "0850006": {
    "zipcode": "0850006",
    "prefectureCode": "01",
    "prefectureNumber": 1,
    "prefecture": "北海道",
    "city": "釧路市",
    "town": "双葉町"
  },
  "0850007": {
    "zipcode": "0850007",
    "prefectureCode": "01",
    "prefectureNumber": 1,
    "prefecture": "北海道",
    "city": "釧路市",
    "town": "堀川町"
  },
  "0850008": {
    "zipcode": "0850008",
    "prefectureCode": "01",
    "prefectureNumber": 1,
    "prefecture": "北海道",
    "city": "釧路市",
    "town": "入江町"
  },
  "0850011": {
    "zipcode": "0850011",
    "prefectureCode": "01",
    "prefectureNumber": 1,
    "prefecture": "北海道",
    "city": "釧路市",
    "town": "旭町"
  },
  "0850012": {
    "zipcode": "0850012",
    "prefectureCode": "01",
    "prefectureNumber": 1,
    "prefecture": "北海道",
    "city": "釧路市",
    "town": "川上町"
  },
  "0850013": {
    "zipcode": "0850013",
    "prefectureCode": "01",
    "prefectureNumber": 1,
    "prefecture": "北海道",
    "city": "釧路市",
    "town": "栄町"
  },
  "0850014": {
    "zipcode": "0850014",
    "prefectureCode": "01",
    "prefectureNumber": 1,
    "prefecture": "北海道",
    "city": "釧路市",
    "town": "末広町"
  },
  "0850015": {
    "zipcode": "0850015",
    "prefectureCode": "01",
    "prefectureNumber": 1,
    "prefecture": "北海道",
    "city": "釧路市",
    "town": "北大通"
  },
  "0850016": {
    "zipcode": "0850016",
    "prefectureCode": "01",
    "prefectureNumber": 1,
    "prefecture": "北海道",
    "city": "釧路市",
    "town": "錦町"
  },
  "0850017": {
    "zipcode": "0850017",
    "prefectureCode": "01",
    "prefectureNumber": 1,
    "prefecture": "北海道",
    "city": "釧路市",
    "town": "幸町"
  },
  "0850018": {
    "zipcode": "0850018",
    "prefectureCode": "01",
    "prefectureNumber": 1,
    "prefecture": "北海道",
    "city": "釧路市",
    "town": "黒金町"
  },
  "0850021": {
    "zipcode": "0850021",
    "prefectureCode": "01",
    "prefectureNumber": 1,
    "prefecture": "北海道",
    "city": "釧路市",
    "town": "浪花町"
  },
  "0850022": {
    "zipcode": "0850022",
    "prefectureCode": "01",
    "prefectureNumber": 1,
    "prefecture": "北海道",
    "city": "釧路市",
    "town": "南浜町"
  },
  "0850023": {
    "zipcode": "0850023",
    "prefectureCode": "01",
    "prefectureNumber": 1,
    "prefecture": "北海道",
    "city": "釧路市",
    "town": "海運"
  },
  "0850024": {
    "zipcode": "0850024",
    "prefectureCode": "01",
    "prefectureNumber": 1,
    "prefecture": "北海道",
    "city": "釧路市",
    "town": "浜町"
  },
  "0850025": {
    "zipcode": "0850025",
    "prefectureCode": "01",
    "prefectureNumber": 1,
    "prefecture": "北海道",
    "city": "釧路市",
    "town": "宝町"
  },
  "0850026": {
    "zipcode": "0850026",
    "prefectureCode": "01",
    "prefectureNumber": 1,
    "prefecture": "北海道",
    "city": "釧路市",
    "town": "寿"
  },
  "0850027": {
    "zipcode": "0850027",
    "prefectureCode": "01",
    "prefectureNumber": 1,
    "prefecture": "北海道",
    "city": "釧路市",
    "town": "仲浜町"
  },
  "0850031": {
    "zipcode": "0850031",
    "prefectureCode": "01",
    "prefectureNumber": 1,
    "prefecture": "北海道",
    "city": "釧路市",
    "town": "中島町"
  },
  "0850032": {
    "zipcode": "0850032",
    "prefectureCode": "01",
    "prefectureNumber": 1,
    "prefecture": "北海道",
    "city": "釧路市",
    "town": "新栄町"
  },
  "0850033": {
    "zipcode": "0850033",
    "prefectureCode": "01",
    "prefectureNumber": 1,
    "prefecture": "北海道",
    "city": "釧路市",
    "town": "若松町"
  },
  "0850034": {
    "zipcode": "0850034",
    "prefectureCode": "01",
    "prefectureNumber": 1,
    "prefecture": "北海道",
    "city": "釧路市",
    "town": "白金町"
  },
  "0850035": {
    "zipcode": "0850035",
    "prefectureCode": "01",
    "prefectureNumber": 1,
    "prefecture": "北海道",
    "city": "釧路市",
    "town": "共栄大通"
  },
  "0850036": {
    "zipcode": "0850036",
    "prefectureCode": "01",
    "prefectureNumber": 1,
    "prefecture": "北海道",
    "city": "釧路市",
    "town": "若竹町"
  },
  "0850037": {
    "zipcode": "0850037",
    "prefectureCode": "01",
    "prefectureNumber": 1,
    "prefecture": "北海道",
    "city": "釧路市",
    "town": "柳町"
  },
  "0850038": {
    "zipcode": "0850038",
    "prefectureCode": "01",
    "prefectureNumber": 1,
    "prefecture": "北海道",
    "city": "釧路市",
    "town": "花園町"
  },
  "0850041": {
    "zipcode": "0850041",
    "prefectureCode": "01",
    "prefectureNumber": 1,
    "prefecture": "北海道",
    "city": "釧路市",
    "town": "春日町"
  },
  "0850042": {
    "zipcode": "0850042",
    "prefectureCode": "01",
    "prefectureNumber": 1,
    "prefecture": "北海道",
    "city": "釧路市",
    "town": "若草町"
  },
  "0850043": {
    "zipcode": "0850043",
    "prefectureCode": "01",
    "prefectureNumber": 1,
    "prefecture": "北海道",
    "city": "釧路市",
    "town": "喜多町"
  },
  "0850044": {
    "zipcode": "0850044",
    "prefectureCode": "01",
    "prefectureNumber": 1,
    "prefecture": "北海道",
    "city": "釧路市",
    "town": "川端町"
  },
  "0850045": {
    "zipcode": "0850045",
    "prefectureCode": "01",
    "prefectureNumber": 1,
    "prefecture": "北海道",
    "city": "釧路市",
    "town": "住之江町"
  },
  "0850046": {
    "zipcode": "0850046",
    "prefectureCode": "01",
    "prefectureNumber": 1,
    "prefecture": "北海道",
    "city": "釧路市",
    "town": "新橋大通"
  },
  "0850047": {
    "zipcode": "0850047",
    "prefectureCode": "01",
    "prefectureNumber": 1,
    "prefecture": "北海道",
    "city": "釧路市",
    "town": "新川町"
  },
  "0850048": {
    "zipcode": "0850048",
    "prefectureCode": "01",
    "prefectureNumber": 1,
    "prefecture": "北海道",
    "city": "釧路市",
    "town": "駒場町"
  },
  "0850051": {
    "zipcode": "0850051",
    "prefectureCode": "01",
    "prefectureNumber": 1,
    "prefecture": "北海道",
    "city": "釧路市",
    "town": "光陽町"
  },
  "0850052": {
    "zipcode": "0850052",
    "prefectureCode": "01",
    "prefectureNumber": 1,
    "prefecture": "北海道",
    "city": "釧路市",
    "town": "中園町"
  },
  "0850053": {
    "zipcode": "0850053",
    "prefectureCode": "01",
    "prefectureNumber": 1,
    "prefecture": "北海道",
    "city": "釧路市",
    "town": "豊川町"
  },
  "0850054": {
    "zipcode": "0850054",
    "prefectureCode": "01",
    "prefectureNumber": 1,
    "prefecture": "北海道",
    "city": "釧路市",
    "town": "暁町"
  },
  "0850055": {
    "zipcode": "0850055",
    "prefectureCode": "01",
    "prefectureNumber": 1,
    "prefecture": "北海道",
    "city": "釧路市",
    "town": "治水町"
  },
  "0850056": {
    "zipcode": "0850056",
    "prefectureCode": "01",
    "prefectureNumber": 1,
    "prefecture": "北海道",
    "city": "釧路市",
    "town": "東川町"
  },
  "0850057": {
    "zipcode": "0850057",
    "prefectureCode": "01",
    "prefectureNumber": 1,
    "prefecture": "北海道",
    "city": "釧路市",
    "town": "愛国西"
  },
  "0850058": {
    "zipcode": "0850058",
    "prefectureCode": "01",
    "prefectureNumber": 1,
    "prefecture": "北海道",
    "city": "釧路市",
    "town": "愛国東"
  },
  "0850061": {
    "zipcode": "0850061",
    "prefectureCode": "01",
    "prefectureNumber": 1,
    "prefecture": "北海道",
    "city": "釧路市",
    "town": "芦野"
  },
  "0850062": {
    "zipcode": "0850062",
    "prefectureCode": "01",
    "prefectureNumber": 1,
    "prefecture": "北海道",
    "city": "釧路市",
    "town": "愛国"
  },
  "0850063": {
    "zipcode": "0850063",
    "prefectureCode": "01",
    "prefectureNumber": 1,
    "prefecture": "北海道",
    "city": "釧路市",
    "town": "文苑"
  },
  "0850064": {
    "zipcode": "0850064",
    "prefectureCode": "01",
    "prefectureNumber": 1,
    "prefecture": "北海道",
    "city": "釧路市",
    "town": "広里"
  },
  "0850065": {
    "zipcode": "0850065",
    "prefectureCode": "01",
    "prefectureNumber": 1,
    "prefecture": "北海道",
    "city": "釧路市",
    "town": "美原"
  },
  "0850201": {
    "zipcode": "0850201",
    "prefectureCode": "01",
    "prefectureNumber": 1,
    "prefecture": "北海道",
    "city": "釧路市",
    "town": "阿寒町仁々志別"
  },
  "0850202": {
    "zipcode": "0850202",
    "prefectureCode": "01",
    "prefectureNumber": 1,
    "prefecture": "北海道",
    "city": "釧路市",
    "town": "阿寒町上仁々志別"
  },
  "0850203": {
    "zipcode": "0850203",
    "prefectureCode": "01",
    "prefectureNumber": 1,
    "prefecture": "北海道",
    "city": "釧路市",
    "town": "阿寒町中仁々志別"
  },
  "0850204": {
    "zipcode": "0850204",
    "prefectureCode": "01",
    "prefectureNumber": 1,
    "prefecture": "北海道",
    "city": "釧路市",
    "town": "阿寒町下仁々志別"
  },
  "0850205": {
    "zipcode": "0850205",
    "prefectureCode": "01",
    "prefectureNumber": 1,
    "prefecture": "北海道",
    "city": "釧路市",
    "town": "阿寒町東栄"
  },
  "0850206": {
    "zipcode": "0850206",
    "prefectureCode": "01",
    "prefectureNumber": 1,
    "prefecture": "北海道",
    "city": "釧路市",
    "town": "阿寒町共和"
  },
  "0850211": {
    "zipcode": "0850211",
    "prefectureCode": "01",
    "prefectureNumber": 1,
    "prefecture": "北海道",
    "city": "釧路市",
    "town": "阿寒町下舌辛"
  },
  "0850212": {
    "zipcode": "0850212",
    "prefectureCode": "01",
    "prefectureNumber": 1,
    "prefecture": "北海道",
    "city": "釧路市",
    "town": "阿寒町旭町"
  },
  "0850213": {
    "zipcode": "0850213",
    "prefectureCode": "01",
    "prefectureNumber": 1,
    "prefecture": "北海道",
    "city": "釧路市",
    "town": "阿寒町仲町"
  },
  "0850214": {
    "zipcode": "0850214",
    "prefectureCode": "01",
    "prefectureNumber": 1,
    "prefecture": "北海道",
    "city": "釧路市",
    "town": "阿寒町富士見"
  },
  "0850215": {
    "zipcode": "0850215",
    "prefectureCode": "01",
    "prefectureNumber": 1,
    "prefecture": "北海道",
    "city": "釧路市",
    "town": "阿寒町中央"
  },
  "0850216": {
    "zipcode": "0850216",
    "prefectureCode": "01",
    "prefectureNumber": 1,
    "prefecture": "北海道",
    "city": "釧路市",
    "town": "阿寒町北新町"
  },
  "0850217": {
    "zipcode": "0850217",
    "prefectureCode": "01",
    "prefectureNumber": 1,
    "prefecture": "北海道",
    "city": "釧路市",
    "town": "阿寒町北町"
  },
  "0850218": {
    "zipcode": "0850218",
    "prefectureCode": "01",
    "prefectureNumber": 1,
    "prefecture": "北海道",
    "city": "釧路市",
    "town": "阿寒町新町"
  },
  "0850220": {
    "zipcode": "0850220",
    "prefectureCode": "01",
    "prefectureNumber": 1,
    "prefecture": "北海道",
    "city": "釧路市",
    "town": "阿寒町舌辛"
  },
  "0850221": {
    "zipcode": "0850221",
    "prefectureCode": "01",
    "prefectureNumber": 1,
    "prefecture": "北海道",
    "city": "釧路市",
    "town": "阿寒町上舌辛"
  },
  "0850222": {
    "zipcode": "0850222",
    "prefectureCode": "01",
    "prefectureNumber": 1,
    "prefecture": "北海道",
    "city": "釧路市",
    "town": "阿寒町布伏内"
  },
  "0850223": {
    "zipcode": "0850223",
    "prefectureCode": "01",
    "prefectureNumber": 1,
    "prefecture": "北海道",
    "city": "釧路市",
    "town": "阿寒町下布伏内"
  },
  "0850224": {
    "zipcode": "0850224",
    "prefectureCode": "01",
    "prefectureNumber": 1,
    "prefecture": "北海道",
    "city": "釧路市",
    "town": "阿寒町雄別横山"
  },
  "0850225": {
    "zipcode": "0850225",
    "prefectureCode": "01",
    "prefectureNumber": 1,
    "prefecture": "北海道",
    "city": "釧路市",
    "town": "阿寒町知茶布"
  },
  "0850231": {
    "zipcode": "0850231",
    "prefectureCode": "01",
    "prefectureNumber": 1,
    "prefecture": "北海道",
    "city": "釧路市",
    "town": "阿寒町下徹別"
  },
  "0850232": {
    "zipcode": "0850232",
    "prefectureCode": "01",
    "prefectureNumber": 1,
    "prefecture": "北海道",
    "city": "釧路市",
    "town": "阿寒町大正"
  },
  "0850233": {
    "zipcode": "0850233",
    "prefectureCode": "01",
    "prefectureNumber": 1,
    "prefecture": "北海道",
    "city": "釧路市",
    "town": "阿寒町西徹別"
  },
  "0850234": {
    "zipcode": "0850234",
    "prefectureCode": "01",
    "prefectureNumber": 1,
    "prefecture": "北海道",
    "city": "釧路市",
    "town": "阿寒町蘇牛"
  },
  "0850235": {
    "zipcode": "0850235",
    "prefectureCode": "01",
    "prefectureNumber": 1,
    "prefecture": "北海道",
    "city": "釧路市",
    "town": "阿寒町上徹別"
  },
  "0850236": {
    "zipcode": "0850236",
    "prefectureCode": "01",
    "prefectureNumber": 1,
    "prefecture": "北海道",
    "city": "釧路市",
    "town": "阿寒町中徹別"
  },
  "0850237": {
    "zipcode": "0850237",
    "prefectureCode": "01",
    "prefectureNumber": 1,
    "prefecture": "北海道",
    "city": "釧路市",
    "town": "阿寒町徹別中央"
  },
  "0850238": {
    "zipcode": "0850238",
    "prefectureCode": "01",
    "prefectureNumber": 1,
    "prefecture": "北海道",
    "city": "釧路市",
    "town": "阿寒町飽別"
  },
  "0850241": {
    "zipcode": "0850241",
    "prefectureCode": "01",
    "prefectureNumber": 1,
    "prefecture": "北海道",
    "city": "釧路市",
    "town": "阿寒町中阿寒"
  },
  "0850242": {
    "zipcode": "0850242",
    "prefectureCode": "01",
    "prefectureNumber": 1,
    "prefecture": "北海道",
    "city": "釧路市",
    "town": "阿寒町東舌辛"
  },
  "0850243": {
    "zipcode": "0850243",
    "prefectureCode": "01",
    "prefectureNumber": 1,
    "prefecture": "北海道",
    "city": "釧路市",
    "town": "阿寒町西阿寒"
  },
  "0850244": {
    "zipcode": "0850244",
    "prefectureCode": "01",
    "prefectureNumber": 1,
    "prefecture": "北海道",
    "city": "釧路市",
    "town": "阿寒町紀ノ丘"
  },
  "0850245": {
    "zipcode": "0850245",
    "prefectureCode": "01",
    "prefectureNumber": 1,
    "prefecture": "北海道",
    "city": "釧路市",
    "town": "阿寒町上阿寒"
  },
  "0850251": {
    "zipcode": "0850251",
    "prefectureCode": "01",
    "prefectureNumber": 1,
    "prefecture": "北海道",
    "city": "釧路市",
    "town": "桜田"
  },
  "0850252": {
    "zipcode": "0850252",
    "prefectureCode": "01",
    "prefectureNumber": 1,
    "prefecture": "北海道",
    "city": "釧路市",
    "town": "青山"
  },
  "0850467": {
    "zipcode": "0850467",
    "prefectureCode": "01",
    "prefectureNumber": 1,
    "prefecture": "北海道",
    "city": "釧路市",
    "town": "阿寒町阿寒湖温泉（１〜６丁目）"
  },
  "0850468": {
    "zipcode": "0850468",
    "prefectureCode": "01",
    "prefectureNumber": 1,
    "prefecture": "北海道",
    "city": "釧路市",
    "town": "阿寒町オクルシュベ"
  },
  "0850801": {
    "zipcode": "0850801",
    "prefectureCode": "01",
    "prefectureNumber": 1,
    "prefecture": "北海道",
    "city": "釧路市",
    "town": "三津浦"
  },
  "0850802": {
    "zipcode": "0850802",
    "prefectureCode": "01",
    "prefectureNumber": 1,
    "prefecture": "北海道",
    "city": "釧路市",
    "town": "桂恋"
  },
  "0850803": {
    "zipcode": "0850803",
    "prefectureCode": "01",
    "prefectureNumber": 1,
    "prefecture": "北海道",
    "city": "釧路市",
    "town": "益浦"
  },
  "0850804": {
    "zipcode": "0850804",
    "prefectureCode": "01",
    "prefectureNumber": 1,
    "prefecture": "北海道",
    "city": "釧路市",
    "town": "白樺台"
  },
  "0850805": {
    "zipcode": "0850805",
    "prefectureCode": "01",
    "prefectureNumber": 1,
    "prefecture": "北海道",
    "city": "釧路市",
    "town": "桜ケ岡"
  },
  "0850806": {
    "zipcode": "0850806",
    "prefectureCode": "01",
    "prefectureNumber": 1,
    "prefecture": "北海道",
    "city": "釧路市",
    "town": "武佐"
  },
  "0850807": {
    "zipcode": "0850807",
    "prefectureCode": "01",
    "prefectureNumber": 1,
    "prefecture": "北海道",
    "city": "釧路市",
    "town": "高山"
  },
  "0850811": {
    "zipcode": "0850811",
    "prefectureCode": "01",
    "prefectureNumber": 1,
    "prefecture": "北海道",
    "city": "釧路市",
    "town": "興津"
  },
  "0850812": {
    "zipcode": "0850812",
    "prefectureCode": "01",
    "prefectureNumber": 1,
    "prefecture": "北海道",
    "city": "釧路市",
    "town": "紫雲台"
  },
  "0850813": {
    "zipcode": "0850813",
    "prefectureCode": "01",
    "prefectureNumber": 1,
    "prefecture": "北海道",
    "city": "釧路市",
    "town": "春採"
  },
  "0850814": {
    "zipcode": "0850814",
    "prefectureCode": "01",
    "prefectureNumber": 1,
    "prefecture": "北海道",
    "city": "釧路市",
    "town": "緑ケ岡"
  },
  "0850815": {
    "zipcode": "0850815",
    "prefectureCode": "01",
    "prefectureNumber": 1,
    "prefecture": "北海道",
    "city": "釧路市",
    "town": "材木町"
  },
  "0850816": {
    "zipcode": "0850816",
    "prefectureCode": "01",
    "prefectureNumber": 1,
    "prefecture": "北海道",
    "city": "釧路市",
    "town": "貝塚"
  },
  "0850821": {
    "zipcode": "0850821",
    "prefectureCode": "01",
    "prefectureNumber": 1,
    "prefecture": "北海道",
    "city": "釧路市",
    "town": "鶴ケ岱"
  },
  "0850822": {
    "zipcode": "0850822",
    "prefectureCode": "01",
    "prefectureNumber": 1,
    "prefecture": "北海道",
    "city": "釧路市",
    "town": "春湖台"
  },
  "0850823": {
    "zipcode": "0850823",
    "prefectureCode": "01",
    "prefectureNumber": 1,
    "prefecture": "北海道",
    "city": "釧路市",
    "town": "千代ノ浦"
  },
  "0850824": {
    "zipcode": "0850824",
    "prefectureCode": "01",
    "prefectureNumber": 1,
    "prefecture": "北海道",
    "city": "釧路市",
    "town": "柏木町"
  },
  "0850825": {
    "zipcode": "0850825",
    "prefectureCode": "01",
    "prefectureNumber": 1,
    "prefecture": "北海道",
    "city": "釧路市",
    "town": "千歳町"
  },
  "0850826": {
    "zipcode": "0850826",
    "prefectureCode": "01",
    "prefectureNumber": 1,
    "prefecture": "北海道",
    "city": "釧路市",
    "town": "城山"
  },
  "0850831": {
    "zipcode": "0850831",
    "prefectureCode": "01",
    "prefectureNumber": 1,
    "prefecture": "北海道",
    "city": "釧路市",
    "town": "住吉"
  },
  "0850832": {
    "zipcode": "0850832",
    "prefectureCode": "01",
    "prefectureNumber": 1,
    "prefecture": "北海道",
    "city": "釧路市",
    "town": "富士見"
  },
  "0850833": {
    "zipcode": "0850833",
    "prefectureCode": "01",
    "prefectureNumber": 1,
    "prefecture": "北海道",
    "city": "釧路市",
    "town": "宮本"
  },
  "0850834": {
    "zipcode": "0850834",
    "prefectureCode": "01",
    "prefectureNumber": 1,
    "prefecture": "北海道",
    "city": "釧路市",
    "town": "弥生"
  },
  "0850835": {
    "zipcode": "0850835",
    "prefectureCode": "01",
    "prefectureNumber": 1,
    "prefecture": "北海道",
    "city": "釧路市",
    "town": "浦見"
  },
  "0850836": {
    "zipcode": "0850836",
    "prefectureCode": "01",
    "prefectureNumber": 1,
    "prefecture": "北海道",
    "city": "釧路市",
    "town": "幣舞町"
  },
  "0850837": {
    "zipcode": "0850837",
    "prefectureCode": "01",
    "prefectureNumber": 1,
    "prefecture": "北海道",
    "city": "釧路市",
    "town": "大川町"
  },
  "0850841": {
    "zipcode": "0850841",
    "prefectureCode": "01",
    "prefectureNumber": 1,
    "prefecture": "北海道",
    "city": "釧路市",
    "town": "南大通"
  },
  "0850842": {
    "zipcode": "0850842",
    "prefectureCode": "01",
    "prefectureNumber": 1,
    "prefecture": "北海道",
    "city": "釧路市",
    "town": "米町"
  },
  "0850843": {
    "zipcode": "0850843",
    "prefectureCode": "01",
    "prefectureNumber": 1,
    "prefecture": "北海道",
    "city": "釧路市",
    "town": "弁天ケ浜"
  },
  "0850844": {
    "zipcode": "0850844",
    "prefectureCode": "01",
    "prefectureNumber": 1,
    "prefecture": "北海道",
    "city": "釧路市",
    "town": "知人町"
  },
  "0850845": {
    "zipcode": "0850845",
    "prefectureCode": "01",
    "prefectureNumber": 1,
    "prefecture": "北海道",
    "city": "釧路市",
    "town": "港町"
  },
  "0850846": {
    "zipcode": "0850846",
    "prefectureCode": "01",
    "prefectureNumber": 1,
    "prefecture": "北海道",
    "city": "釧路市",
    "town": "入舟"
  },
  "0850847": {
    "zipcode": "0850847",
    "prefectureCode": "01",
    "prefectureNumber": 1,
    "prefecture": "北海道",
    "city": "釧路市",
    "town": "大町"
  },
  "0851131": {
    "zipcode": "0851131",
    "prefectureCode": "01",
    "prefectureNumber": 1,
    "prefecture": "北海道",
    "city": "阿寒郡鶴居村",
    "town": "新幌呂"
  },
  "0851132": {
    "zipcode": "0851132",
    "prefectureCode": "01",
    "prefectureNumber": 1,
    "prefecture": "北海道",
    "city": "阿寒郡鶴居村",
    "town": "上幌呂"
  },
  "0851133": {
    "zipcode": "0851133",
    "prefectureCode": "01",
    "prefectureNumber": 1,
    "prefecture": "北海道",
    "city": "阿寒郡鶴居村",
    "town": "支幌呂"
  },
  "0851134": {
    "zipcode": "0851134",
    "prefectureCode": "01",
    "prefectureNumber": 1,
    "prefecture": "北海道",
    "city": "阿寒郡鶴居村",
    "town": "茂幌呂"
  },
  "0851141": {
    "zipcode": "0851141",
    "prefectureCode": "01",
    "prefectureNumber": 1,
    "prefecture": "北海道",
    "city": "阿寒郡鶴居村",
    "town": "幌呂西"
  },
  "0851142": {
    "zipcode": "0851142",
    "prefectureCode": "01",
    "prefectureNumber": 1,
    "prefecture": "北海道",
    "city": "阿寒郡鶴居村",
    "town": "幌呂東"
  },
  "0851143": {
    "zipcode": "0851143",
    "prefectureCode": "01",
    "prefectureNumber": 1,
    "prefecture": "北海道",
    "city": "阿寒郡鶴居村",
    "town": "中幌呂"
  },
  "0851144": {
    "zipcode": "0851144",
    "prefectureCode": "01",
    "prefectureNumber": 1,
    "prefecture": "北海道",
    "city": "阿寒郡鶴居村",
    "town": "下幌呂"
  },
  "0851145": {
    "zipcode": "0851145",
    "prefectureCode": "01",
    "prefectureNumber": 1,
    "prefecture": "北海道",
    "city": "阿寒郡鶴居村",
    "town": "温根内"
  },
  "0851146": {
    "zipcode": "0851146",
    "prefectureCode": "01",
    "prefectureNumber": 1,
    "prefecture": "北海道",
    "city": "阿寒郡鶴居村",
    "town": "アトコシヤラカ"
  },
  "0851147": {
    "zipcode": "0851147",
    "prefectureCode": "01",
    "prefectureNumber": 1,
    "prefecture": "北海道",
    "city": "阿寒郡鶴居村",
    "town": "幌呂"
  },
  "0851200": {
    "zipcode": "0851200",
    "prefectureCode": "01",
    "prefectureNumber": 1,
    "prefecture": "北海道",
    "city": "阿寒郡鶴居村",
    "town": "以下に掲載がない場合"
  },
  "0851201": {
    "zipcode": "0851201",
    "prefectureCode": "01",
    "prefectureNumber": 1,
    "prefecture": "北海道",
    "city": "阿寒郡鶴居村",
    "town": "鶴居北"
  },
  "0851202": {
    "zipcode": "0851202",
    "prefectureCode": "01",
    "prefectureNumber": 1,
    "prefecture": "北海道",
    "city": "阿寒郡鶴居村",
    "town": "中雪裡（西）"
  },
  "0851203": {
    "zipcode": "0851203",
    "prefectureCode": "01",
    "prefectureNumber": 1,
    "prefecture": "北海道",
    "city": "阿寒郡鶴居村",
    "town": "鶴居西"
  },
  "0851204": {
    "zipcode": "0851204",
    "prefectureCode": "01",
    "prefectureNumber": 1,
    "prefecture": "北海道",
    "city": "阿寒郡鶴居村",
    "town": "鶴居南"
  },
  "0851205": {
    "zipcode": "0851205",
    "prefectureCode": "01",
    "prefectureNumber": 1,
    "prefecture": "北海道",
    "city": "阿寒郡鶴居村",
    "town": "中雪裡（南）"
  },
  "0851206": {
    "zipcode": "0851206",
    "prefectureCode": "01",
    "prefectureNumber": 1,
    "prefecture": "北海道",
    "city": "阿寒郡鶴居村",
    "town": "鶴居東"
  },
  "0851207": {
    "zipcode": "0851207",
    "prefectureCode": "01",
    "prefectureNumber": 1,
    "prefecture": "北海道",
    "city": "阿寒郡鶴居村",
    "town": "中雪裡（東）"
  },
  "0851211": {
    "zipcode": "0851211",
    "prefectureCode": "01",
    "prefectureNumber": 1,
    "prefecture": "北海道",
    "city": "阿寒郡鶴居村",
    "town": "下雪裡"
  },
  "0851212": {
    "zipcode": "0851212",
    "prefectureCode": "01",
    "prefectureNumber": 1,
    "prefecture": "北海道",
    "city": "阿寒郡鶴居村",
    "town": "支雪裡"
  },
  "0851213": {
    "zipcode": "0851213",
    "prefectureCode": "01",
    "prefectureNumber": 1,
    "prefecture": "北海道",
    "city": "阿寒郡鶴居村",
    "town": "茂雪裡"
  },
  "0851261": {
    "zipcode": "0851261",
    "prefectureCode": "01",
    "prefectureNumber": 1,
    "prefecture": "北海道",
    "city": "阿寒郡鶴居村",
    "town": "中久著呂"
  },
  "0851262": {
    "zipcode": "0851262",
    "prefectureCode": "01",
    "prefectureNumber": 1,
    "prefecture": "北海道",
    "city": "阿寒郡鶴居村",
    "town": "下久著呂"
  },
  "0852271": {
    "zipcode": "0852271",
    "prefectureCode": "01",
    "prefectureNumber": 1,
    "prefecture": "北海道",
    "city": "釧路郡釧路町",
    "town": "跡永賀村"
  },
  "0852272": {
    "zipcode": "0852272",
    "prefectureCode": "01",
    "prefectureNumber": 1,
    "prefecture": "北海道",
    "city": "釧路郡釧路町",
    "town": "昆布森"
  },
  "0852273": {
    "zipcode": "0852273",
    "prefectureCode": "01",
    "prefectureNumber": 1,
    "prefecture": "北海道",
    "city": "釧路郡釧路町",
    "town": "昆布森村"
  }
}
