{
  "0890100": {
    "zipcode": "0890100",
    "prefectureCode": "01",
    "prefectureNumber": 1,
    "prefecture": "北海道",
    "city": "上川郡清水町",
    "town": "以下に掲載がない場合"
  },
  "0890101": {
    "zipcode": "0890101",
    "prefectureCode": "01",
    "prefectureNumber": 1,
    "prefecture": "北海道",
    "city": "上川郡清水町",
    "town": "人舞"
  },
  "0890102": {
    "zipcode": "0890102",
    "prefectureCode": "01",
    "prefectureNumber": 1,
    "prefecture": "北海道",
    "city": "上川郡清水町",
    "town": "下佐幌"
  },
  "0890103": {
    "zipcode": "0890103",
    "prefectureCode": "01",
    "prefectureNumber": 1,
    "prefecture": "北海道",
    "city": "上川郡清水町",
    "town": "清水"
  },
  "0890104": {
    "zipcode": "0890104",
    "prefectureCode": "01",
    "prefectureNumber": 1,
    "prefecture": "北海道",
    "city": "上川郡清水町",
    "town": "南三条西"
  },
  "0890105": {
    "zipcode": "0890105",
    "prefectureCode": "01",
    "prefectureNumber": 1,
    "prefecture": "北海道",
    "city": "上川郡清水町",
    "town": "南四条西"
  },
  "0890106": {
    "zipcode": "0890106",
    "prefectureCode": "01",
    "prefectureNumber": 1,
    "prefecture": "北海道",
    "city": "上川郡清水町",
    "town": "南五条西"
  },
  "0890107": {
    "zipcode": "0890107",
    "prefectureCode": "01",
    "prefectureNumber": 1,
    "prefecture": "北海道",
    "city": "上川郡清水町",
    "town": "南六条西"
  },
  "0890111": {
    "zipcode": "0890111",
    "prefectureCode": "01",
    "prefectureNumber": 1,
    "prefecture": "北海道",
    "city": "上川郡清水町",
    "town": "南三条"
  },
  "0890112": {
    "zipcode": "0890112",
    "prefectureCode": "01",
    "prefectureNumber": 1,
    "prefecture": "北海道",
    "city": "上川郡清水町",
    "town": "南四条"
  },
  "0890113": {
    "zipcode": "0890113",
    "prefectureCode": "01",
    "prefectureNumber": 1,
    "prefecture": "北海道",
    "city": "上川郡清水町",
    "town": "南五条"
  },
  "0890114": {
    "zipcode": "0890114",
    "prefectureCode": "01",
    "prefectureNumber": 1,
    "prefecture": "北海道",
    "city": "上川郡清水町",
    "town": "南六条"
  },
  "0890115": {
    "zipcode": "0890115",
    "prefectureCode": "01",
    "prefectureNumber": 1,
    "prefecture": "北海道",
    "city": "上川郡清水町",
    "town": "南七条"
  },
  "0890116": {
    "zipcode": "0890116",
    "prefectureCode": "01",
    "prefectureNumber": 1,
    "prefecture": "北海道",
    "city": "上川郡清水町",
    "town": "南八条"
  },
  "0890117": {
    "zipcode": "0890117",
    "prefectureCode": "01",
    "prefectureNumber": 1,
    "prefecture": "北海道",
    "city": "上川郡清水町",
    "town": "南九条"
  },
  "0890118": {
    "zipcode": "0890118",
    "prefectureCode": "01",
    "prefectureNumber": 1,
    "prefecture": "北海道",
    "city": "上川郡清水町",
    "town": "南十条"
  },
  "0890121": {
    "zipcode": "0890121",
    "prefectureCode": "01",
    "prefectureNumber": 1,
    "prefecture": "北海道",
    "city": "上川郡清水町",
    "town": "北四条西"
  },
  "0890122": {
    "zipcode": "0890122",
    "prefectureCode": "01",
    "prefectureNumber": 1,
    "prefecture": "北海道",
    "city": "上川郡清水町",
    "town": "北三条西"
  },
  "0890123": {
    "zipcode": "0890123",
    "prefectureCode": "01",
    "prefectureNumber": 1,
    "prefecture": "北海道",
    "city": "上川郡清水町",
    "town": "北二条西"
  },
  "0890124": {
    "zipcode": "0890124",
    "prefectureCode": "01",
    "prefectureNumber": 1,
    "prefecture": "北海道",
    "city": "上川郡清水町",
    "town": "北一条西"
  },
  "0890125": {
    "zipcode": "0890125",
    "prefectureCode": "01",
    "prefectureNumber": 1,
    "prefecture": "北海道",
    "city": "上川郡清水町",
    "town": "本通西"
  },
  "0890126": {
    "zipcode": "0890126",
    "prefectureCode": "01",
    "prefectureNumber": 1,
    "prefecture": "北海道",
    "city": "上川郡清水町",
    "town": "南一条西"
  },
  "0890127": {
    "zipcode": "0890127",
    "prefectureCode": "01",
    "prefectureNumber": 1,
    "prefecture": "北海道",
    "city": "上川郡清水町",
    "town": "南二条西"
  },
  "0890131": {
    "zipcode": "0890131",
    "prefectureCode": "01",
    "prefectureNumber": 1,
    "prefecture": "北海道",
    "city": "上川郡清水町",
    "town": "北五条"
  },
  "0890132": {
    "zipcode": "0890132",
    "prefectureCode": "01",
    "prefectureNumber": 1,
    "prefecture": "北海道",
    "city": "上川郡清水町",
    "town": "北四条"
  },
  "0890133": {
    "zipcode": "0890133",
    "prefectureCode": "01",
    "prefectureNumber": 1,
    "prefecture": "北海道",
    "city": "上川郡清水町",
    "town": "北三条"
  },
  "0890134": {
    "zipcode": "0890134",
    "prefectureCode": "01",
    "prefectureNumber": 1,
    "prefecture": "北海道",
    "city": "上川郡清水町",
    "town": "北二条"
  },
  "0890135": {
    "zipcode": "0890135",
    "prefectureCode": "01",
    "prefectureNumber": 1,
    "prefecture": "北海道",
    "city": "上川郡清水町",
    "town": "北一条"
  },
  "0890136": {
    "zipcode": "0890136",
    "prefectureCode": "01",
    "prefectureNumber": 1,
    "prefecture": "北海道",
    "city": "上川郡清水町",
    "town": "本通"
  },
  "0890137": {
    "zipcode": "0890137",
    "prefectureCode": "01",
    "prefectureNumber": 1,
    "prefecture": "北海道",
    "city": "上川郡清水町",
    "town": "南一条"
  },
  "0890138": {
    "zipcode": "0890138",
    "prefectureCode": "01",
    "prefectureNumber": 1,
    "prefecture": "北海道",
    "city": "上川郡清水町",
    "town": "南二条"
  },
  "0890241": {
    "zipcode": "0890241",
    "prefectureCode": "01",
    "prefectureNumber": 1,
    "prefecture": "北海道",
    "city": "上川郡清水町",
    "town": "熊牛"
  },
  "0890242": {
    "zipcode": "0890242",
    "prefectureCode": "01",
    "prefectureNumber": 1,
    "prefecture": "北海道",
    "city": "上川郡清水町",
    "town": "美蔓"
  },
  "0890243": {
    "zipcode": "0890243",
    "prefectureCode": "01",
    "prefectureNumber": 1,
    "prefecture": "北海道",
    "city": "上川郡清水町",
    "town": "上然別"
  },
  "0890351": {
    "zipcode": "0890351",
    "prefectureCode": "01",
    "prefectureNumber": 1,
    "prefecture": "北海道",
    "city": "上川郡清水町",
    "town": "御影西一条"
  },
  "0890352": {
    "zipcode": "0890352",
    "prefectureCode": "01",
    "prefectureNumber": 1,
    "prefecture": "北海道",
    "city": "上川郡清水町",
    "town": "御影西二条"
  },
  "0890353": {
    "zipcode": "0890353",
    "prefectureCode": "01",
    "prefectureNumber": 1,
    "prefecture": "北海道",
    "city": "上川郡清水町",
    "town": "御影西三条"
  },
  "0890354": {
    "zipcode": "0890354",
    "prefectureCode": "01",
    "prefectureNumber": 1,
    "prefecture": "北海道",
    "city": "上川郡清水町",
    "town": "御影本通"
  },
  "0890355": {
    "zipcode": "0890355",
    "prefectureCode": "01",
    "prefectureNumber": 1,
    "prefecture": "北海道",
    "city": "上川郡清水町",
    "town": "旭山"
  },
  "0890356": {
    "zipcode": "0890356",
    "prefectureCode": "01",
    "prefectureNumber": 1,
    "prefecture": "北海道",
    "city": "上川郡清水町",
    "town": "羽帯"
  },
  "0890357": {
    "zipcode": "0890357",
    "prefectureCode": "01",
    "prefectureNumber": 1,
    "prefecture": "北海道",
    "city": "上川郡清水町",
    "town": "御影"
  },
  "0890361": {
    "zipcode": "0890361",
    "prefectureCode": "01",
    "prefectureNumber": 1,
    "prefecture": "北海道",
    "city": "上川郡清水町",
    "town": "御影東一条南"
  },
  "0890362": {
    "zipcode": "0890362",
    "prefectureCode": "01",
    "prefectureNumber": 1,
    "prefecture": "北海道",
    "city": "上川郡清水町",
    "town": "御影東二条南"
  },
  "0890363": {
    "zipcode": "0890363",
    "prefectureCode": "01",
    "prefectureNumber": 1,
    "prefecture": "北海道",
    "city": "上川郡清水町",
    "town": "御影東三条南"
  },
  "0890371": {
    "zipcode": "0890371",
    "prefectureCode": "01",
    "prefectureNumber": 1,
    "prefecture": "北海道",
    "city": "上川郡清水町",
    "town": "御影東一条"
  },
  "0890372": {
    "zipcode": "0890372",
    "prefectureCode": "01",
    "prefectureNumber": 1,
    "prefecture": "北海道",
    "city": "上川郡清水町",
    "town": "御影東二条"
  },
  "0890373": {
    "zipcode": "0890373",
    "prefectureCode": "01",
    "prefectureNumber": 1,
    "prefecture": "北海道",
    "city": "上川郡清水町",
    "town": "御影東三条"
  },
  "0890374": {
    "zipcode": "0890374",
    "prefectureCode": "01",
    "prefectureNumber": 1,
    "prefecture": "北海道",
    "city": "上川郡清水町",
    "town": "御影東四条"
  },
  "0890375": {
    "zipcode": "0890375",
    "prefectureCode": "01",
    "prefectureNumber": 1,
    "prefecture": "北海道",
    "city": "上川郡清水町",
    "town": "御影東五条"
  },
  "0890376": {
    "zipcode": "0890376",
    "prefectureCode": "01",
    "prefectureNumber": 1,
    "prefecture": "北海道",
    "city": "上川郡清水町",
    "town": "御影東六条"
  },
  "0890377": {
    "zipcode": "0890377",
    "prefectureCode": "01",
    "prefectureNumber": 1,
    "prefecture": "北海道",
    "city": "上川郡清水町",
    "town": "御影東七条"
  },
  "0890378": {
    "zipcode": "0890378",
    "prefectureCode": "01",
    "prefectureNumber": 1,
    "prefecture": "北海道",
    "city": "上川郡清水町",
    "town": "御影東八条"
  },
  "0890531": {
    "zipcode": "0890531",
    "prefectureCode": "01",
    "prefectureNumber": 1,
    "prefecture": "北海道",
    "city": "中川郡幕別町",
    "town": "札内暁町"
  },
  "0890532": {
    "zipcode": "0890532",
    "prefectureCode": "01",
    "prefectureNumber": 1,
    "prefecture": "北海道",
    "city": "中川郡幕別町",
    "town": "札内豊町"
  },
  "0890533": {
    "zipcode": "0890533",
    "prefectureCode": "01",
    "prefectureNumber": 1,
    "prefecture": "北海道",
    "city": "中川郡幕別町",
    "town": "札内新北町"
  },
  "0890534": {
    "zipcode": "0890534",
    "prefectureCode": "01",
    "prefectureNumber": 1,
    "prefecture": "北海道",
    "city": "中川郡幕別町",
    "town": "札内北町"
  },
  "0890535": {
    "zipcode": "0890535",
    "prefectureCode": "01",
    "prefectureNumber": 1,
    "prefecture": "北海道",
    "city": "中川郡幕別町",
    "town": "札内桜町"
  },
  "0890536": {
    "zipcode": "0890536",
    "prefectureCode": "01",
    "prefectureNumber": 1,
    "prefecture": "北海道",
    "city": "中川郡幕別町",
    "town": "札内西町"
  },
  "0890537": {
    "zipcode": "0890537",
    "prefectureCode": "01",
    "prefectureNumber": 1,
    "prefecture": "北海道",
    "city": "中川郡幕別町",
    "town": "札内北栄町"
  },
  "0890538": {
    "zipcode": "0890538",
    "prefectureCode": "01",
    "prefectureNumber": 1,
    "prefecture": "北海道",
    "city": "中川郡幕別町",
    "town": "札内共栄町"
  },
  "0890541": {
    "zipcode": "0890541",
    "prefectureCode": "01",
    "prefectureNumber": 1,
    "prefecture": "北海道",
    "city": "中川郡幕別町",
    "town": "札内青葉町"
  },
  "0890542": {
    "zipcode": "0890542",
    "prefectureCode": "01",
    "prefectureNumber": 1,
    "prefecture": "北海道",
    "city": "中川郡幕別町",
    "town": "札内春日町"
  },
  "0890543": {
    "zipcode": "0890543",
    "prefectureCode": "01",
    "prefectureNumber": 1,
    "prefecture": "北海道",
    "city": "中川郡幕別町",
    "town": "札内中央町"
  },
  "0890544": {
    "zipcode": "0890544",
    "prefectureCode": "01",
    "prefectureNumber": 1,
    "prefecture": "北海道",
    "city": "中川郡幕別町",
    "town": "札内若草町"
  },
  "0890545": {
    "zipcode": "0890545",
    "prefectureCode": "01",
    "prefectureNumber": 1,
    "prefecture": "北海道",
    "city": "中川郡幕別町",
    "town": "札内桂町"
  },
  "0890546": {
    "zipcode": "0890546",
    "prefectureCode": "01",
    "prefectureNumber": 1,
    "prefecture": "北海道",
    "city": "中川郡幕別町",
    "town": "札内堤町"
  },
  "0890551": {
    "zipcode": "0890551",
    "prefectureCode": "01",
    "prefectureNumber": 1,
    "prefecture": "北海道",
    "city": "中川郡幕別町",
    "town": "札内泉町"
  },
  "0890552": {
    "zipcode": "0890552",
    "prefectureCode": "01",
    "prefectureNumber": 1,
    "prefecture": "北海道",
    "city": "中川郡幕別町",
    "town": "札内あかしや町"
  },
  "0890553": {
    "zipcode": "0890553",
    "prefectureCode": "01",
    "prefectureNumber": 1,
    "prefecture": "北海道",
    "city": "中川郡幕別町",
    "town": "札内文京町"
  },
  "0890554": {
    "zipcode": "0890554",
    "prefectureCode": "01",
    "prefectureNumber": 1,
    "prefecture": "北海道",
    "city": "中川郡幕別町",
    "town": "札内みずほ町"
  },
  "0890561": {
    "zipcode": "0890561",
    "prefectureCode": "01",
    "prefectureNumber": 1,
    "prefecture": "北海道",
    "city": "中川郡幕別町",
    "town": "札内稔町"
  },
  "0890562": {
    "zipcode": "0890562",
    "prefectureCode": "01",
    "prefectureNumber": 1,
    "prefecture": "北海道",
    "city": "中川郡幕別町",
    "town": "札内東町"
  },
  "0890563": {
    "zipcode": "0890563",
    "prefectureCode": "01",
    "prefectureNumber": 1,
    "prefecture": "北海道",
    "city": "中川郡幕別町",
    "town": "千住"
  },
  "0890564": {
    "zipcode": "0890564",
    "prefectureCode": "01",
    "prefectureNumber": 1,
    "prefecture": "北海道",
    "city": "中川郡幕別町",
    "town": "稲志別"
  },
  "0890565": {
    "zipcode": "0890565",
    "prefectureCode": "01",
    "prefectureNumber": 1,
    "prefecture": "北海道",
    "city": "中川郡幕別町",
    "town": "新生"
  },
  "0890566": {
    "zipcode": "0890566",
    "prefectureCode": "01",
    "prefectureNumber": 1,
    "prefecture": "北海道",
    "city": "中川郡幕別町",
    "town": "昭和"
  },
  "0890567": {
    "zipcode": "0890567",
    "prefectureCode": "01",
    "prefectureNumber": 1,
    "prefecture": "北海道",
    "city": "中川郡幕別町",
    "town": "明倫（７８、２０８番地）"
  },
  "0890571": {
    "zipcode": "0890571",
    "prefectureCode": "01",
    "prefectureNumber": 1,
    "prefecture": "北海道",
    "city": "中川郡幕別町",
    "town": "依田"
  },
  "0890572": {
    "zipcode": "0890572",
    "prefectureCode": "01",
    "prefectureNumber": 1,
    "prefecture": "北海道",
    "city": "中川郡幕別町",
    "town": "西和"
  },
  "0890573": {
    "zipcode": "0890573",
    "prefectureCode": "01",
    "prefectureNumber": 1,
    "prefecture": "北海道",
    "city": "中川郡幕別町",
    "town": "途別"
  },
  "0890574": {
    "zipcode": "0890574",
    "prefectureCode": "01",
    "prefectureNumber": 1,
    "prefecture": "北海道",
    "city": "中川郡幕別町",
    "town": "日新"
  },
  "0890575": {
    "zipcode": "0890575",
    "prefectureCode": "01",
    "prefectureNumber": 1,
    "prefecture": "北海道",
    "city": "中川郡幕別町",
    "town": "上稲志別"
  },
  "0890576": {
    "zipcode": "0890576",
    "prefectureCode": "01",
    "prefectureNumber": 1,
    "prefecture": "北海道",
    "city": "中川郡幕別町",
    "town": "古舞"
  },
  "0890577": {
    "zipcode": "0890577",
    "prefectureCode": "01",
    "prefectureNumber": 1,
    "prefecture": "北海道",
    "city": "中川郡幕別町",
    "town": "栄"
  },
  "0890578": {
    "zipcode": "0890578",
    "prefectureCode": "01",
    "prefectureNumber": 1,
    "prefecture": "北海道",
    "city": "中川郡幕別町",
    "town": "中稲志別"
  },
  "0890600": {
    "zipcode": "0890600",
    "prefectureCode": "01",
    "prefectureNumber": 1,
    "prefecture": "北海道",
    "city": "中川郡幕別町",
    "town": "以下に掲載がない場合"
  },
  "0890601": {
    "zipcode": "0890601",
    "prefectureCode": "01",
    "prefectureNumber": 1,
    "prefecture": "北海道",
    "city": "中川郡幕別町",
    "town": "幸町"
  },
  "0890602": {
    "zipcode": "0890602",
    "prefectureCode": "01",
    "prefectureNumber": 1,
    "prefecture": "北海道",
    "city": "中川郡幕別町",
    "town": "旭町"
  },
  "0890603": {
    "zipcode": "0890603",
    "prefectureCode": "01",
    "prefectureNumber": 1,
    "prefecture": "北海道",
    "city": "中川郡幕別町",
    "town": "本町"
  },
  "0890604": {
    "zipcode": "0890604",
    "prefectureCode": "01",
    "prefectureNumber": 1,
    "prefecture": "北海道",
    "city": "中川郡幕別町",
    "town": "錦町"
  },
  "0890605": {
    "zipcode": "0890605",
    "prefectureCode": "01",
    "prefectureNumber": 1,
    "prefecture": "北海道",
    "city": "中川郡幕別町",
    "town": "寿町"
  },
  "0890611": {
    "zipcode": "0890611",
    "prefectureCode": "01",
    "prefectureNumber": 1,
    "prefecture": "北海道",
    "city": "中川郡幕別町",
    "town": "新町"
  },
  "0890612": {
    "zipcode": "0890612",
    "prefectureCode": "01",
    "prefectureNumber": 1,
    "prefecture": "北海道",
    "city": "中川郡幕別町",
    "town": "明野"
  },
  "0890613": {
    "zipcode": "0890613",
    "prefectureCode": "01",
    "prefectureNumber": 1,
    "prefecture": "北海道",
    "city": "中川郡幕別町",
    "town": "新川"
  },
  "0890614": {
    "zipcode": "0890614",
    "prefectureCode": "01",
    "prefectureNumber": 1,
    "prefecture": "北海道",
    "city": "中川郡幕別町",
    "town": "緑町"
  },
  "0890615": {
    "zipcode": "0890615",
    "prefectureCode": "01",
    "prefectureNumber": 1,
    "prefecture": "北海道",
    "city": "中川郡幕別町",
    "town": "南町"
  },
  "0890616": {
    "zipcode": "0890616",
    "prefectureCode": "01",
    "prefectureNumber": 1,
    "prefecture": "北海道",
    "city": "中川郡幕別町",
    "town": "宝町"
  },
  "0890621": {
    "zipcode": "0890621",
    "prefectureCode": "01",
    "prefectureNumber": 1,
    "prefecture": "北海道",
    "city": "中川郡幕別町",
    "town": "相川"
  },
  "0890622": {
    "zipcode": "0890622",
    "prefectureCode": "01",
    "prefectureNumber": 1,
    "prefecture": "北海道",
    "city": "中川郡幕別町",
    "town": "大豊"
  },
  "0890623": {
    "zipcode": "0890623",
    "prefectureCode": "01",
    "prefectureNumber": 1,
    "prefecture": "北海道",
    "city": "中川郡幕別町",
    "town": "南勢"
  },
  "0890624": {
    "zipcode": "0890624",
    "prefectureCode": "01",
    "prefectureNumber": 1,
    "prefecture": "北海道",
    "city": "中川郡幕別町",
    "town": "軍岡"
  },
  "0890625": {
    "zipcode": "0890625",
    "prefectureCode": "01",
    "prefectureNumber": 1,
    "prefecture": "北海道",
    "city": "中川郡幕別町",
    "town": "猿別"
  },
  "0890626": {
    "zipcode": "0890626",
    "prefectureCode": "01",
    "prefectureNumber": 1,
    "prefecture": "北海道",
    "city": "中川郡幕別町",
    "town": "西猿別"
  },
  "0890627": {
    "zipcode": "0890627",
    "prefectureCode": "01",
    "prefectureNumber": 1,
    "prefecture": "北海道",
    "city": "中川郡幕別町",
    "town": "新和（その他）"
  },
  "0890628": {
    "zipcode": "0890628",
    "prefectureCode": "01",
    "prefectureNumber": 1,
    "prefecture": "北海道",
    "city": "中川郡幕別町",
    "town": "豊岡"
  },
  "0890781": {
    "zipcode": "0890781",
    "prefectureCode": "01",
    "prefectureNumber": 1,
    "prefecture": "北海道",
    "city": "中川郡幕別町",
    "town": "五位"
  },
  "0890782": {
    "zipcode": "0890782",
    "prefectureCode": "01",
    "prefectureNumber": 1,
    "prefecture": "北海道",
    "city": "中川郡幕別町",
    "town": "中里"
  },
  "0890783": {
    "zipcode": "0890783",
    "prefectureCode": "01",
    "prefectureNumber": 1,
    "prefecture": "北海道",
    "city": "中川郡幕別町",
    "town": "駒畠"
  },
  "0890784": {
    "zipcode": "0890784",
    "prefectureCode": "01",
    "prefectureNumber": 1,
    "prefecture": "北海道",
    "city": "中川郡幕別町",
    "town": "弘和"
  },
  "0890785": {
    "zipcode": "0890785",
    "prefectureCode": "01",
    "prefectureNumber": 1,
    "prefecture": "北海道",
    "city": "中川郡幕別町",
    "town": "美川"
  },
  "0890786": {
    "zipcode": "0890786",
    "prefectureCode": "01",
    "prefectureNumber": 1,
    "prefecture": "北海道",
    "city": "中川郡幕別町",
    "town": "糠内"
  },
  "0890787": {
    "zipcode": "0890787",
    "prefectureCode": "01",
    "prefectureNumber": 1,
    "prefecture": "北海道",
    "city": "中川郡幕別町",
    "town": "明倫（その他）"
  },
  "0890788": {
    "zipcode": "0890788",
    "prefectureCode": "01",
    "prefectureNumber": 1,
    "prefecture": "北海道",
    "city": "中川郡幕別町",
    "town": "新和（新田牧場）"
  },
  "0891181": {
    "zipcode": "0891181",
    "prefectureCode": "01",
    "prefectureNumber": 1,
    "prefecture": "北海道",
    "city": "帯広市",
    "town": "愛国町"
  },
  "0891182": {
    "zipcode": "0891182",
    "prefectureCode": "01",
    "prefectureNumber": 1,
    "prefecture": "北海道",
    "city": "帯広市",
    "town": "川西町"
  },
  "0891183": {
    "zipcode": "0891183",
    "prefectureCode": "01",
    "prefectureNumber": 1,
    "prefecture": "北海道",
    "city": "帯広市",
    "town": "豊西町"
  },
  "0891184": {
    "zipcode": "0891184",
    "prefectureCode": "01",
    "prefectureNumber": 1,
    "prefecture": "北海道",
    "city": "帯広市",
    "town": "別府町"
  },
  "0891241": {
    "zipcode": "0891241",
    "prefectureCode": "01",
    "prefectureNumber": 1,
    "prefecture": "北海道",
    "city": "帯広市",
    "town": "大正本町"
  },
  "0891242": {
    "zipcode": "0891242",
    "prefectureCode": "01",
    "prefectureNumber": 1,
    "prefecture": "北海道",
    "city": "帯広市",
    "town": "大正町"
  },
  "0891243": {
    "zipcode": "0891243",
    "prefectureCode": "01",
    "prefectureNumber": 1,
    "prefecture": "北海道",
    "city": "帯広市",
    "town": "桜木町"
  },
  "0891244": {
    "zipcode": "0891244",
    "prefectureCode": "01",
    "prefectureNumber": 1,
    "prefecture": "北海道",
    "city": "帯広市",
    "town": "以平町"
  },
  "0891245": {
    "zipcode": "0891245",
    "prefectureCode": "01",
    "prefectureNumber": 1,
    "prefecture": "北海道",
    "city": "帯広市",
    "town": "泉町"
  },
  "0891246": {
    "zipcode": "0891246",
    "prefectureCode": "01",
    "prefectureNumber": 1,
    "prefecture": "北海道",
    "city": "帯広市",
    "town": "幸福町"
  },
  "0891247": {
    "zipcode": "0891247",
    "prefectureCode": "01",
    "prefectureNumber": 1,
    "prefecture": "北海道",
    "city": "帯広市",
    "town": "昭和町"
  },
  "0891251": {
    "zipcode": "0891251",
    "prefectureCode": "01",
    "prefectureNumber": 1,
    "prefecture": "北海道",
    "city": "帯広市",
    "town": "富士町（その他）"
  },
  "0891252": {
    "zipcode": "0891252",
    "prefectureCode": "01",
    "prefectureNumber": 1,
    "prefecture": "北海道",
    "city": "帯広市",
    "town": "中島町"
  },
  "0891300": {
    "zipcode": "0891300",
    "prefectureCode": "01",
    "prefectureNumber": 1,
    "prefecture": "北海道",
    "city": "河西郡中札内村",
    "town": "以下に掲載がない場合"
  },
  "0891310": {
    "zipcode": "0891310",
    "prefectureCode": "01",
    "prefectureNumber": 1,
    "prefecture": "北海道",
    "city": "河西郡中札内村",
    "town": "大通北"
  },
  "0891311": {
    "zipcode": "0891311",
    "prefectureCode": "01",
    "prefectureNumber": 1,
    "prefecture": "北海道",
    "city": "河西郡中札内村",
    "town": "西一条北"
  },
  "0891312": {
    "zipcode": "0891312",
    "prefectureCode": "01",
    "prefectureNumber": 1,
    "prefecture": "北海道",
    "city": "河西郡中札内村",
    "town": "西二条北"
  },
  "0891313": {
    "zipcode": "0891313",
    "prefectureCode": "01",
    "prefectureNumber": 1,
    "prefecture": "北海道",
    "city": "河西郡中札内村",
    "town": "中札内西"
  },
  "0891321": {
    "zipcode": "0891321",
    "prefectureCode": "01",
    "prefectureNumber": 1,
    "prefecture": "北海道",
    "city": "河西郡中札内村",
    "town": "東一条北"
  },
  "0891322": {
    "zipcode": "0891322",
    "prefectureCode": "01",
    "prefectureNumber": 1,
    "prefecture": "北海道",
    "city": "河西郡中札内村",
    "town": "東二条北"
  },
  "0891323": {
    "zipcode": "0891323",
    "prefectureCode": "01",
    "prefectureNumber": 1,
    "prefecture": "北海道",
    "city": "河西郡中札内村",
    "town": "東三条北"
  },
  "0891324": {
    "zipcode": "0891324",
    "prefectureCode": "01",
    "prefectureNumber": 1,
    "prefecture": "北海道",
    "city": "河西郡中札内村",
    "town": "東四条北"
  },
  "0891325": {
    "zipcode": "0891325",
    "prefectureCode": "01",
    "prefectureNumber": 1,
    "prefecture": "北海道",
    "city": "河西郡中札内村",
    "town": "中札内基線"
  },
  "0891330": {
    "zipcode": "0891330",
    "prefectureCode": "01",
    "prefectureNumber": 1,
    "prefecture": "北海道",
    "city": "河西郡中札内村",
    "town": "大通南"
  },
  "0891331": {
    "zipcode": "0891331",
    "prefectureCode": "01",
    "prefectureNumber": 1,
    "prefecture": "北海道",
    "city": "河西郡中札内村",
    "town": "西一条南"
  },
  "0891332": {
    "zipcode": "0891332",
    "prefectureCode": "01",
    "prefectureNumber": 1,
    "prefecture": "北海道",
    "city": "河西郡中札内村",
    "town": "西二条南"
  },
  "0891341": {
    "zipcode": "0891341",
    "prefectureCode": "01",
    "prefectureNumber": 1,
    "prefecture": "北海道",
    "city": "河西郡中札内村",
    "town": "東一条南"
  },
  "0891342": {
    "zipcode": "0891342",
    "prefectureCode": "01",
    "prefectureNumber": 1,
    "prefecture": "北海道",
    "city": "河西郡中札内村",
    "town": "東二条南"
  },
  "0891343": {
    "zipcode": "0891343",
    "prefectureCode": "01",
    "prefectureNumber": 1,
    "prefecture": "北海道",
    "city": "河西郡中札内村",
    "town": "東三条南"
  },
  "0891344": {
    "zipcode": "0891344",
    "prefectureCode": "01",
    "prefectureNumber": 1,
    "prefecture": "北海道",
    "city": "河西郡中札内村",
    "town": "東四条南"
  },
  "0891345": {
    "zipcode": "0891345",
    "prefectureCode": "01",
    "prefectureNumber": 1,
    "prefecture": "北海道",
    "city": "河西郡中札内村",
    "town": "東五条南"
  },
  "0891351": {
    "zipcode": "0891351",
    "prefectureCode": "01",
    "prefectureNumber": 1,
    "prefecture": "北海道",
    "city": "河西郡中札内村",
    "town": "東戸蔦"
  },
  "0891352": {
    "zipcode": "0891352",
    "prefectureCode": "01",
    "prefectureNumber": 1,
    "prefecture": "北海道",
    "city": "河西郡中札内村",
    "town": "中戸蔦"
  },
  "0891353": {
    "zipcode": "0891353",
    "prefectureCode": "01",
    "prefectureNumber": 1,
    "prefecture": "北海道",
    "city": "河西郡中札内村",
    "town": "西戸蔦"
  },
  "0891354": {
    "zipcode": "0891354",
    "prefectureCode": "01",
    "prefectureNumber": 1,
    "prefecture": "北海道",
    "city": "河西郡中札内村",
    "town": "新札内"
  },
  "0891355": {
    "zipcode": "0891355",
    "prefectureCode": "01",
    "prefectureNumber": 1,
    "prefecture": "北海道",
    "city": "河西郡中札内村",
    "town": "新札内南"
  },
  "0891356": {
    "zipcode": "0891356",
    "prefectureCode": "01",
    "prefectureNumber": 1,
    "prefecture": "北海道",
    "city": "河西郡中札内村",
    "town": "西札内"
  },
  "0891361": {
    "zipcode": "0891361",
    "prefectureCode": "01",
    "prefectureNumber": 1,
    "prefecture": "北海道",
    "city": "河西郡中札内村",
    "town": "元大正"
  },
  "0891362": {
    "zipcode": "0891362",
    "prefectureCode": "01",
    "prefectureNumber": 1,
    "prefecture": "北海道",
    "city": "河西郡中札内村",
    "town": "新生"
  },
  "0891363": {
    "zipcode": "0891363",
    "prefectureCode": "01",
    "prefectureNumber": 1,
    "prefecture": "北海道",
    "city": "河西郡中札内村",
    "town": "興和"
  },
  "0891364": {
    "zipcode": "0891364",
    "prefectureCode": "01",
    "prefectureNumber": 1,
    "prefecture": "北海道",
    "city": "河西郡中札内村",
    "town": "共栄"
  },
  "0891365": {
    "zipcode": "0891365",
    "prefectureCode": "01",
    "prefectureNumber": 1,
    "prefecture": "北海道",
    "city": "河西郡中札内村",
    "town": "協和"
  },
  "0891366": {
    "zipcode": "0891366",
    "prefectureCode": "01",
    "prefectureNumber": 1,
    "prefecture": "北海道",
    "city": "河西郡中札内村",
    "town": "栄"
  },
  "0891367": {
    "zipcode": "0891367",
    "prefectureCode": "01",
    "prefectureNumber": 1,
    "prefecture": "北海道",
    "city": "河西郡中札内村",
    "town": "常盤基線"
  },
  "0891368": {
    "zipcode": "0891368",
    "prefectureCode": "01",
    "prefectureNumber": 1,
    "prefecture": "北海道",
    "city": "河西郡中札内村",
    "town": "南常盤"
  },
  "0891371": {
    "zipcode": "0891371",
    "prefectureCode": "01",
    "prefectureNumber": 1,
    "prefecture": "北海道",
    "city": "河西郡中札内村",
    "town": "上札内"
  },
  "0891372": {
    "zipcode": "0891372",
    "prefectureCode": "01",
    "prefectureNumber": 1,
    "prefecture": "北海道",
    "city": "河西郡中札内村",
    "town": "元札内"
  },
  "0891373": {
    "zipcode": "0891373",
    "prefectureCode": "01",
    "prefectureNumber": 1,
    "prefecture": "北海道",
    "city": "河西郡中札内村",
    "town": "元更別"
  },
  "0891374": {
    "zipcode": "0891374",
    "prefectureCode": "01",
    "prefectureNumber": 1,
    "prefecture": "北海道",
    "city": "河西郡中札内村",
    "town": "南札内"
  },
  "0891500": {
    "zipcode": "0891500",
    "prefectureCode": "01",
    "prefectureNumber": 1,
    "prefecture": "北海道",
    "city": "河西郡更別村",
    "town": "以下に掲載がない場合"
  },
  "0891501": {
    "zipcode": "0891501",
    "prefectureCode": "01",
    "prefectureNumber": 1,
    "prefecture": "北海道",
    "city": "河西郡更別村",
    "town": "新栄町"
  },
  "0891502": {
    "zipcode": "0891502",
    "prefectureCode": "01",
    "prefectureNumber": 1,
    "prefecture": "北海道",
    "city": "河西郡更別村",
    "town": "花園町"
  },
  "0891511": {
    "zipcode": "0891511",
    "prefectureCode": "01",
    "prefectureNumber": 1,
    "prefecture": "北海道",
    "city": "河西郡更別村",
    "town": "柏町"
  },
  "0891512": {
    "zipcode": "0891512",
    "prefectureCode": "01",
    "prefectureNumber": 1,
    "prefecture": "北海道",
    "city": "河西郡更別村",
    "town": "中央町"
  },
  "0891513": {
    "zipcode": "0891513",
    "prefectureCode": "01",
    "prefectureNumber": 1,
    "prefecture": "北海道",
    "city": "河西郡更別村",
    "town": "本町"
  },
  "0891521": {
    "zipcode": "0891521",
    "prefectureCode": "01",
    "prefectureNumber": 1,
    "prefecture": "北海道",
    "city": "河西郡更別村",
    "town": "錦町"
  },
  "0891522": {
    "zipcode": "0891522",
    "prefectureCode": "01",
    "prefectureNumber": 1,
    "prefecture": "北海道",
    "city": "河西郡更別村",
    "town": "若葉町"
  },
  "0891531": {
    "zipcode": "0891531",
    "prefectureCode": "01",
    "prefectureNumber": 1,
    "prefecture": "北海道",
    "city": "河西郡更別村",
    "town": "曙町"
  },
  "0891532": {
    "zipcode": "0891532",
    "prefectureCode": "01",
    "prefectureNumber": 1,
    "prefecture": "北海道",
    "city": "河西郡更別村",
    "town": "緑町"
  },
  "0891541": {
    "zipcode": "0891541",
    "prefectureCode": "01",
    "prefectureNumber": 1,
    "prefecture": "北海道",
    "city": "河西郡更別村",
    "town": "更南"
  },
  "0891542": {
    "zipcode": "0891542",
    "prefectureCode": "01",
    "prefectureNumber": 1,
    "prefecture": "北海道",
    "city": "河西郡更別村",
    "town": "更別（区）"
  },
  "0891543": {
    "zipcode": "0891543",
    "prefectureCode": "01",
    "prefectureNumber": 1,
    "prefecture": "北海道",
    "city": "河西郡更別村",
    "town": "昭和区"
  },
  "0891551": {
    "zipcode": "0891551",
    "prefectureCode": "01",
    "prefectureNumber": 1,
    "prefecture": "北海道",
    "city": "河西郡更別村",
    "town": "旭区"
  },
  "0891552": {
    "zipcode": "0891552",
    "prefectureCode": "01",
    "prefectureNumber": 1,
    "prefecture": "北海道",
    "city": "河西郡更別村",
    "town": "勢雄"
  },
  "0891553": {
    "zipcode": "0891553",
    "prefectureCode": "01",
    "prefectureNumber": 1,
    "prefecture": "北海道",
    "city": "河西郡更別村",
    "town": "平和区"
  },
  "0891561": {
    "zipcode": "0891561",
    "prefectureCode": "01",
    "prefectureNumber": 1,
    "prefecture": "北海道",
    "city": "河西郡更別村",
    "town": "北更別区"
  },
  "0891562": {
    "zipcode": "0891562",
    "prefectureCode": "01",
    "prefectureNumber": 1,
    "prefecture": "北海道",
    "city": "河西郡更別村",
    "town": "更別（東区）"
  },
  "0891563": {
    "zipcode": "0891563",
    "prefectureCode": "01",
    "prefectureNumber": 1,
    "prefecture": "北海道",
    "city": "河西郡更別村",
    "town": "南更別区"
  },
  "0891571": {
    "zipcode": "0891571",
    "prefectureCode": "01",
    "prefectureNumber": 1,
    "prefecture": "北海道",
    "city": "河西郡更別村",
    "town": "香川区"
  },
  "0891572": {
    "zipcode": "0891572",
    "prefectureCode": "01",
    "prefectureNumber": 1,
    "prefecture": "北海道",
    "city": "河西郡更別村",
    "town": "更生区"
  },
  "0891573": {
    "zipcode": "0891573",
    "prefectureCode": "01",
    "prefectureNumber": 1,
    "prefecture": "北海道",
    "city": "河西郡更別村",
    "town": "東栄"
  },
  "0891581": {
    "zipcode": "0891581",
    "prefectureCode": "01",
    "prefectureNumber": 1,
    "prefecture": "北海道",
    "city": "河西郡更別村",
    "town": "上更別（南区）"
  },
  "0891582": {
    "zipcode": "0891582",
    "prefectureCode": "01",
    "prefectureNumber": 1,
    "prefecture": "北海道",
    "city": "河西郡更別村",
    "town": "協和区"
  },
  "0891583": {
    "zipcode": "0891583",
    "prefectureCode": "01",
    "prefectureNumber": 1,
    "prefecture": "北海道",
    "city": "河西郡更別村",
    "town": "上更別（１区）"
  },
  "0891701": {
    "zipcode": "0891701",
    "prefectureCode": "01",
    "prefectureNumber": 1,
    "prefecture": "北海道",
    "city": "中川郡幕別町",
    "town": "忠類白銀町"
  },
  "0891703": {
    "zipcode": "0891703",
    "prefectureCode": "01",
    "prefectureNumber": 1,
    "prefecture": "北海道",
    "city": "中川郡幕別町",
    "town": "忠類栄町"
  },
  "0891705": {
    "zipcode": "0891705",
    "prefectureCode": "01",
    "prefectureNumber": 1,
    "prefecture": "北海道",
    "city": "中川郡幕別町",
    "town": "忠類本町"
  },
  "0891707": {
    "zipcode": "0891707",
    "prefectureCode": "01",
    "prefectureNumber": 1,
    "prefecture": "北海道",
    "city": "中川郡幕別町",
    "town": "忠類錦町"
  },
  "0891709": {
    "zipcode": "0891709",
    "prefectureCode": "01",
    "prefectureNumber": 1,
    "prefecture": "北海道",
    "city": "中川郡幕別町",
    "town": "忠類幸町"
  },
  "0891711": {
    "zipcode": "0891711",
    "prefectureCode": "01",
    "prefectureNumber": 1,
    "prefecture": "北海道",
    "city": "中川郡幕別町",
    "town": "忠類東宝"
  },
  "0891714": {
    "zipcode": "0891714",
    "prefectureCode": "01",
    "prefectureNumber": 1,
    "prefecture": "北海道",
    "city": "中川郡幕別町",
    "town": "忠類新生"
  },
  "0891715": {
    "zipcode": "0891715",
    "prefectureCode": "01",
    "prefectureNumber": 1,
    "prefecture": "北海道",
    "city": "中川郡幕別町",
    "town": "忠類幌内"
  },
  "0891716": {
    "zipcode": "0891716",
    "prefectureCode": "01",
    "prefectureNumber": 1,
    "prefecture": "北海道",
    "city": "中川郡幕別町",
    "town": "忠類元忠類"
  },
  "0891717": {
    "zipcode": "0891717",
    "prefectureCode": "01",
    "prefectureNumber": 1,
    "prefecture": "北海道",
    "city": "中川郡幕別町",
    "town": "忠類朝日"
  },
  "0891721": {
    "zipcode": "0891721",
    "prefectureCode": "01",
    "prefectureNumber": 1,
    "prefecture": "北海道",
    "city": "中川郡幕別町",
    "town": "忠類西当"
  },
  "0891724": {
    "zipcode": "0891724",
    "prefectureCode": "01",
    "prefectureNumber": 1,
    "prefecture": "北海道",
    "city": "中川郡幕別町",
    "town": "忠類明和"
  },
  "0891725": {
    "zipcode": "0891725",
    "prefectureCode": "01",
    "prefectureNumber": 1,
    "prefecture": "北海道",
    "city": "中川郡幕別町",
    "town": "忠類中当"
  },
  "0891726": {
    "zipcode": "0891726",
    "prefectureCode": "01",
    "prefectureNumber": 1,
    "prefecture": "北海道",
    "city": "中川郡幕別町",
    "town": "忠類古里"
  },
  "0891727": {
    "zipcode": "0891727",
    "prefectureCode": "01",
    "prefectureNumber": 1,
    "prefecture": "北海道",
    "city": "中川郡幕別町",
    "town": "忠類共栄"
  },
  "0891728": {
    "zipcode": "0891728",
    "prefectureCode": "01",
    "prefectureNumber": 1,
    "prefecture": "北海道",
    "city": "中川郡幕別町",
    "town": "忠類協徳"
  },
  "0891729": {
    "zipcode": "0891729",
    "prefectureCode": "01",
    "prefectureNumber": 1,
    "prefecture": "北海道",
    "city": "中川郡幕別町",
    "town": "忠類日和"
  },
  "0891731": {
    "zipcode": "0891731",
    "prefectureCode": "01",
    "prefectureNumber": 1,
    "prefecture": "北海道",
    "city": "中川郡幕別町",
    "town": "忠類公親"
  },
  "0891871": {
    "zipcode": "0891871",
    "prefectureCode": "01",
    "prefectureNumber": 1,
    "prefecture": "北海道",
    "city": "中川郡幕別町",
    "town": "忠類晩成"
  },
  "0891881": {
    "zipcode": "0891881",
    "prefectureCode": "01",
    "prefectureNumber": 1,
    "prefecture": "北海道",
    "city": "広尾郡大樹町",
    "town": "生花"
  },
  "0891882": {
    "zipcode": "0891882",
    "prefectureCode": "01",
    "prefectureNumber": 1,
    "prefecture": "北海道",
    "city": "広尾郡大樹町",
    "town": "晩成"
  },
  "0892100": {
    "zipcode": "0892100",
    "prefectureCode": "01",
    "prefectureNumber": 1,
    "prefecture": "北海道",
    "city": "広尾郡大樹町",
    "town": "以下に掲載がない場合"
  },
  "0892101": {
    "zipcode": "0892101",
    "prefectureCode": "01",
    "prefectureNumber": 1,
    "prefecture": "北海道",
    "city": "広尾郡大樹町",
    "town": "東和"
  },
  "0892102": {
    "zipcode": "0892102",
    "prefectureCode": "01",
    "prefectureNumber": 1,
    "prefecture": "北海道",
    "city": "広尾郡大樹町",
    "town": "大和"
  },
  "0892103": {
    "zipcode": "0892103",
    "prefectureCode": "01",
    "prefectureNumber": 1,
    "prefecture": "北海道",
    "city": "広尾郡大樹町",
    "town": "上大樹"
  },
  "0892104": {
    "zipcode": "0892104",
    "prefectureCode": "01",
    "prefectureNumber": 1,
    "prefecture": "北海道",
    "city": "広尾郡大樹町",
    "town": "中大樹"
  },
  "0892105": {
    "zipcode": "0892105",
    "prefectureCode": "01",
    "prefectureNumber": 1,
    "prefecture": "北海道",
    "city": "広尾郡大樹町",
    "town": "大樹"
  },
  "0892106": {
    "zipcode": "0892106",
    "prefectureCode": "01",
    "prefectureNumber": 1,
    "prefecture": "北海道",
    "city": "広尾郡大樹町",
    "town": "下大樹"
  },
  "0892107": {
    "zipcode": "0892107",
    "prefectureCode": "01",
    "prefectureNumber": 1,
    "prefecture": "北海道",
    "city": "広尾郡大樹町",
    "town": "松山"
  },
  "0892111": {
    "zipcode": "0892111",
    "prefectureCode": "01",
    "prefectureNumber": 1,
    "prefecture": "北海道",
    "city": "広尾郡大樹町",
    "town": "上萠和"
  },
  "0892112": {
    "zipcode": "0892112",
    "prefectureCode": "01",
    "prefectureNumber": 1,
    "prefecture": "北海道",
    "city": "広尾郡大樹町",
    "town": "萠和"
  },
  "0892113": {
    "zipcode": "0892113",
    "prefectureCode": "01",
    "prefectureNumber": 1,
    "prefecture": "北海道",
    "city": "広尾郡大樹町",
    "town": "芽武"
  },
  "0892114": {
    "zipcode": "0892114",
    "prefectureCode": "01",
    "prefectureNumber": 1,
    "prefecture": "北海道",
    "city": "広尾郡大樹町",
    "town": "下芽武"
  },
  "0892115": {
    "zipcode": "0892115",
    "prefectureCode": "01",
    "prefectureNumber": 1,
    "prefecture": "北海道",
    "city": "広尾郡大樹町",
    "town": "美成"
  },
  "0892116": {
    "zipcode": "0892116",
    "prefectureCode": "01",
    "prefectureNumber": 1,
    "prefecture": "北海道",
    "city": "広尾郡大樹町",
    "town": "浜大樹"
  },
  "0892117": {
    "zipcode": "0892117",
    "prefectureCode": "01",
    "prefectureNumber": 1,
    "prefecture": "北海道",
    "city": "広尾郡大樹町",
    "town": "更生"
  },
  "0892121": {
    "zipcode": "0892121",
    "prefectureCode": "01",
    "prefectureNumber": 1,
    "prefecture": "北海道",
    "city": "広尾郡大樹町",
    "town": "旭浜"
  },
  "0892122": {
    "zipcode": "0892122",
    "prefectureCode": "01",
    "prefectureNumber": 1,
    "prefecture": "北海道",
    "city": "広尾郡大樹町",
    "town": "中島"
  },
  "0892123": {
    "zipcode": "0892123",
    "prefectureCode": "01",
    "prefectureNumber": 1,
    "prefecture": "北海道",
    "city": "広尾郡大樹町",
    "town": "上中島"
  },
  "0892124": {
    "zipcode": "0892124",
    "prefectureCode": "01",
    "prefectureNumber": 1,
    "prefecture": "北海道",
    "city": "広尾郡大樹町",
    "town": "日方"
  },
  "0892125": {
    "zipcode": "0892125",
    "prefectureCode": "01",
    "prefectureNumber": 1,
    "prefecture": "北海道",
    "city": "広尾郡大樹町",
    "town": "石坂"
  },
  "0892126": {
    "zipcode": "0892126",
    "prefectureCode": "01",
    "prefectureNumber": 1,
    "prefecture": "北海道",
    "city": "広尾郡大樹町",
    "town": "開進"
  },
  "0892127": {
    "zipcode": "0892127",
    "prefectureCode": "01",
    "prefectureNumber": 1,
    "prefecture": "北海道",
    "city": "広尾郡大樹町",
    "town": "振別"
  },
  "0892131": {
    "zipcode": "0892131",
    "prefectureCode": "01",
    "prefectureNumber": 1,
    "prefecture": "北海道",
    "city": "広尾郡大樹町",
    "town": "松山町"
  },
  "0892132": {
    "zipcode": "0892132",
    "prefectureCode": "01",
    "prefectureNumber": 1,
    "prefecture": "北海道",
    "city": "広尾郡大樹町",
    "town": "双葉町"
  },
  "0892133": {
    "zipcode": "0892133",
    "prefectureCode": "01",
    "prefectureNumber": 1,
    "prefecture": "北海道",
    "city": "広尾郡大樹町",
    "town": "仲通"
  },
  "0892134": {
    "zipcode": "0892134",
    "prefectureCode": "01",
    "prefectureNumber": 1,
    "prefecture": "北海道",
    "city": "広尾郡大樹町",
    "town": "東本通"
  },
  "0892135": {
    "zipcode": "0892135",
    "prefectureCode": "01",
    "prefectureNumber": 1,
    "prefecture": "北海道",
    "city": "広尾郡大樹町",
    "town": "南通"
  },
  "0892136": {
    "zipcode": "0892136",
    "prefectureCode": "01",
    "prefectureNumber": 1,
    "prefecture": "北海道",
    "city": "広尾郡大樹町",
    "town": "新通"
  },
  "0892137": {
    "zipcode": "0892137",
    "prefectureCode": "01",
    "prefectureNumber": 1,
    "prefecture": "北海道",
    "city": "広尾郡大樹町",
    "town": "北通"
  },
  "0892138": {
    "zipcode": "0892138",
    "prefectureCode": "01",
    "prefectureNumber": 1,
    "prefecture": "北海道",
    "city": "広尾郡大樹町",
    "town": "柏木町"
  },
  "0892140": {
    "zipcode": "0892140",
    "prefectureCode": "01",
    "prefectureNumber": 1,
    "prefecture": "北海道",
    "city": "広尾郡大樹町",
    "town": "栄通"
  },
  "0892141": {
    "zipcode": "0892141",
    "prefectureCode": "01",
    "prefectureNumber": 1,
    "prefecture": "北海道",
    "city": "広尾郡大樹町",
    "town": "一条通"
  },
  "0892142": {
    "zipcode": "0892142",
    "prefectureCode": "01",
    "prefectureNumber": 1,
    "prefecture": "北海道",
    "city": "広尾郡大樹町",
    "town": "二条通"
  },
  "0892143": {
    "zipcode": "0892143",
    "prefectureCode": "01",
    "prefectureNumber": 1,
    "prefecture": "北海道",
    "city": "広尾郡大樹町",
    "town": "三条通"
  },
  "0892145": {
    "zipcode": "0892145",
    "prefectureCode": "01",
    "prefectureNumber": 1,
    "prefecture": "北海道",
    "city": "広尾郡大樹町",
    "town": "暁町"
  },
  "0892146": {
    "zipcode": "0892146",
    "prefectureCode": "01",
    "prefectureNumber": 1,
    "prefecture": "北海道",
    "city": "広尾郡大樹町",
    "town": "寿通"
  },
  "0892147": {
    "zipcode": "0892147",
    "prefectureCode": "01",
    "prefectureNumber": 1,
    "prefecture": "北海道",
    "city": "広尾郡大樹町",
    "town": "鏡町"
  },
  "0892148": {
    "zipcode": "0892148",
    "prefectureCode": "01",
    "prefectureNumber": 1,
    "prefecture": "北海道",
    "city": "広尾郡大樹町",
    "town": "麻友"
  },
  "0892151": {
    "zipcode": "0892151",
    "prefectureCode": "01",
    "prefectureNumber": 1,
    "prefecture": "北海道",
    "city": "広尾郡大樹町",
    "town": "高校通"
  },
  "0892152": {
    "zipcode": "0892152",
    "prefectureCode": "01",
    "prefectureNumber": 1,
    "prefecture": "北海道",
    "city": "広尾郡大樹町",
    "town": "西本通"
  },
  "0892153": {
    "zipcode": "0892153",
    "prefectureCode": "01",
    "prefectureNumber": 1,
    "prefecture": "北海道",
    "city": "広尾郡大樹町",
    "town": "南町"
  },
  "0892154": {
    "zipcode": "0892154",
    "prefectureCode": "01",
    "prefectureNumber": 1,
    "prefecture": "北海道",
    "city": "広尾郡大樹町",
    "town": "幸町"
  },
  "0892155": {
    "zipcode": "0892155",
    "prefectureCode": "01",
    "prefectureNumber": 1,
    "prefecture": "北海道",
    "city": "広尾郡大樹町",
    "town": "緑町"
  },
  "0892156": {
    "zipcode": "0892156",
    "prefectureCode": "01",
    "prefectureNumber": 1,
    "prefecture": "北海道",
    "city": "広尾郡大樹町",
    "town": "緑苑"
  },
  "0892261": {
    "zipcode": "0892261",
    "prefectureCode": "01",
    "prefectureNumber": 1,
    "prefecture": "北海道",
    "city": "広尾郡大樹町",
    "town": "豊里"
  },
  "0892262": {
    "zipcode": "0892262",
    "prefectureCode": "01",
    "prefectureNumber": 1,
    "prefecture": "北海道",
    "city": "広尾郡大樹町",
    "town": "相川"
  },
  "0892263": {
    "zipcode": "0892263",
    "prefectureCode": "01",
    "prefectureNumber": 1,
    "prefecture": "北海道",
    "city": "広尾郡大樹町",
    "town": "拓進"
  },
  "0892271": {
    "zipcode": "0892271",
    "prefectureCode": "01",
    "prefectureNumber": 1,
    "prefecture": "北海道",
    "city": "広尾郡大樹町",
    "town": "光地園"
  },
  "0892272": {
    "zipcode": "0892272",
    "prefectureCode": "01",
    "prefectureNumber": 1,
    "prefecture": "北海道",
    "city": "広尾郡大樹町",
    "town": "住吉"
  },
  "0892273": {
    "zipcode": "0892273",
    "prefectureCode": "01",
    "prefectureNumber": 1,
    "prefecture": "北海道",
    "city": "広尾郡大樹町",
    "town": "大全"
  },
  "0892445": {
    "zipcode": "0892445",
    "prefectureCode": "01",
    "prefectureNumber": 1,
    "prefecture": "北海道",
    "city": "広尾郡広尾町",
    "town": "カシュウンナイ"
  },
  "0892446": {
    "zipcode": "0892446",
    "prefectureCode": "01",
    "prefectureNumber": 1,
    "prefecture": "北海道",
    "city": "広尾郡広尾町",
    "town": "紋別"
  },
  "0892447": {
    "zipcode": "0892447",
    "prefectureCode": "01",
    "prefectureNumber": 1,
    "prefecture": "北海道",
    "city": "広尾郡広尾町",
    "town": "トヨイベツ"
  },
  "0892448": {
    "zipcode": "0892448",
    "prefectureCode": "01",
    "prefectureNumber": 1,
    "prefecture": "北海道",
    "city": "広尾郡広尾町",
    "town": "上トヨイ"
  },
  "0892455": {
    "zipcode": "0892455",
    "prefectureCode": "01",
    "prefectureNumber": 1,
    "prefecture": "北海道",
    "city": "広尾郡広尾町",
    "town": "豊似"
  },
  "0892561": {
    "zipcode": "0892561",
    "prefectureCode": "01",
    "prefectureNumber": 1,
    "prefecture": "北海道",
    "city": "広尾郡広尾町",
    "town": "野塚"
  },
  "0892562": {
    "zipcode": "0892562",
    "prefectureCode": "01",
    "prefectureNumber": 1,
    "prefecture": "北海道",
    "city": "広尾郡広尾町",
    "town": "野塚西通"
  },
  "0892563": {
    "zipcode": "0892563",
    "prefectureCode": "01",
    "prefectureNumber": 1,
    "prefecture": "北海道",
    "city": "広尾郡広尾町",
    "town": "野塚東通"
  },
  "0892564": {
    "zipcode": "0892564",
    "prefectureCode": "01",
    "prefectureNumber": 1,
    "prefecture": "北海道",
    "city": "広尾郡広尾町",
    "town": "野塚本通"
  },
  "0892600": {
    "zipcode": "0892600",
    "prefectureCode": "01",
    "prefectureNumber": 1,
    "prefecture": "北海道",
    "city": "広尾郡広尾町",
    "town": "以下に掲載がない場合"
  },
  "0892601": {
    "zipcode": "0892601",
    "prefectureCode": "01",
    "prefectureNumber": 1,
    "prefecture": "北海道",
    "city": "広尾郡広尾町",
    "town": "東一条"
  },
  "0892602": {
    "zipcode": "0892602",
    "prefectureCode": "01",
    "prefectureNumber": 1,
    "prefecture": "北海道",
    "city": "広尾郡広尾町",
    "town": "東二条"
  },
  "0892603": {
    "zipcode": "0892603",
    "prefectureCode": "01",
    "prefectureNumber": 1,
    "prefecture": "北海道",
    "city": "広尾郡広尾町",
    "town": "東三条"
  },
  "0892604": {
    "zipcode": "0892604",
    "prefectureCode": "01",
    "prefectureNumber": 1,
    "prefecture": "北海道",
    "city": "広尾郡広尾町",
    "town": "会所通"
  },
  "0892605": {
    "zipcode": "0892605",
    "prefectureCode": "01",
    "prefectureNumber": 1,
    "prefecture": "北海道",
    "city": "広尾郡広尾町",
    "town": "会所前"
  },
  "0892611": {
    "zipcode": "0892611",
    "prefectureCode": "01",
    "prefectureNumber": 1,
    "prefecture": "北海道",
    "city": "広尾郡広尾町",
    "town": "西一条"
  },
  "0892612": {
    "zipcode": "0892612",
    "prefectureCode": "01",
    "prefectureNumber": 1,
    "prefecture": "北海道",
    "city": "広尾郡広尾町",
    "town": "西二条"
  },
  "0892613": {
    "zipcode": "0892613",
    "prefectureCode": "01",
    "prefectureNumber": 1,
    "prefecture": "北海道",
    "city": "広尾郡広尾町",
    "town": "西三条"
  },
  "0892614": {
    "zipcode": "0892614",
    "prefectureCode": "01",
    "prefectureNumber": 1,
    "prefecture": "北海道",
    "city": "広尾郡広尾町",
    "town": "西四条"
  },
  "0892615": {
    "zipcode": "0892615",
    "prefectureCode": "01",
    "prefectureNumber": 1,
    "prefecture": "北海道",
    "city": "広尾郡広尾町",
    "town": "本通"
  },
  "0892616": {
    "zipcode": "0892616",
    "prefectureCode": "01",
    "prefectureNumber": 1,
    "prefecture": "北海道",
    "city": "広尾郡広尾町",
    "town": "陣屋"
  },
  "0892621": {
    "zipcode": "0892621",
    "prefectureCode": "01",
    "prefectureNumber": 1,
    "prefecture": "北海道",
    "city": "広尾郡広尾町",
    "town": "公園通北"
  },
  "0892622": {
    "zipcode": "0892622",
    "prefectureCode": "01",
    "prefectureNumber": 1,
    "prefecture": "北海道",
    "city": "広尾郡広尾町",
    "town": "公園通南"
  },
  "0892623": {
    "zipcode": "0892623",
    "prefectureCode": "01",
    "prefectureNumber": 1,
    "prefecture": "北海道",
    "city": "広尾郡広尾町",
    "town": "並木通西"
  },
  "0892624": {
    "zipcode": "0892624",
    "prefectureCode": "01",
    "prefectureNumber": 1,
    "prefecture": "北海道",
    "city": "広尾郡広尾町",
    "town": "並木通東"
  },
  "0892625": {
    "zipcode": "0892625",
    "prefectureCode": "01",
    "prefectureNumber": 1,
    "prefecture": "北海道",
    "city": "広尾郡広尾町",
    "town": "錦通北"
  },
  "0892626": {
    "zipcode": "0892626",
    "prefectureCode": "01",
    "prefectureNumber": 1,
    "prefecture": "北海道",
    "city": "広尾郡広尾町",
    "town": "錦通南"
  },
  "0892627": {
    "zipcode": "0892627",
    "prefectureCode": "01",
    "prefectureNumber": 1,
    "prefecture": "北海道",
    "city": "広尾郡広尾町",
    "town": "丸山通北"
  },
  "0892628": {
    "zipcode": "0892628",
    "prefectureCode": "01",
    "prefectureNumber": 1,
    "prefecture": "北海道",
    "city": "広尾郡広尾町",
    "town": "丸山通南"
  },
  "0892631": {
    "zipcode": "0892631",
    "prefectureCode": "01",
    "prefectureNumber": 1,
    "prefecture": "北海道",
    "city": "広尾郡広尾町",
    "town": "白樺通北"
  },
  "0892632": {
    "zipcode": "0892632",
    "prefectureCode": "01",
    "prefectureNumber": 1,
    "prefecture": "北海道",
    "city": "広尾郡広尾町",
    "town": "白樺通南"
  },
  "0892633": {
    "zipcode": "0892633",
    "prefectureCode": "01",
    "prefectureNumber": 1,
    "prefecture": "北海道",
    "city": "広尾郡広尾町",
    "town": "美幌"
  },
  "0892634": {
    "zipcode": "0892634",
    "prefectureCode": "01",
    "prefectureNumber": 1,
    "prefecture": "北海道",
    "city": "広尾郡広尾町",
    "town": "フンベ"
  },
  "0892635": {
    "zipcode": "0892635",
    "prefectureCode": "01",
    "prefectureNumber": 1,
    "prefecture": "北海道",
    "city": "広尾郡広尾町",
    "town": "紅葉通北"
  },
  "0892636": {
    "zipcode": "0892636",
    "prefectureCode": "01",
    "prefectureNumber": 1,
    "prefecture": "北海道",
    "city": "広尾郡広尾町",
    "town": "紅葉通南"
  },
  "0892637": {
    "zipcode": "0892637",
    "prefectureCode": "01",
    "prefectureNumber": 1,
    "prefecture": "北海道",
    "city": "広尾郡広尾町",
    "town": "茂寄"
  },
  "0892638": {
    "zipcode": "0892638",
    "prefectureCode": "01",
    "prefectureNumber": 1,
    "prefecture": "北海道",
    "city": "広尾郡広尾町",
    "town": "茂寄南"
  },
  "0892771": {
    "zipcode": "0892771",
    "prefectureCode": "01",
    "prefectureNumber": 1,
    "prefecture": "北海道",
    "city": "広尾郡広尾町",
    "town": "音調津"
  },
  "0892772": {
    "zipcode": "0892772",
    "prefectureCode": "01",
    "prefectureNumber": 1,
    "prefecture": "北海道",
    "city": "広尾郡広尾町",
    "town": "音調津区画外"
  },
  "0892773": {
    "zipcode": "0892773",
    "prefectureCode": "01",
    "prefectureNumber": 1,
    "prefecture": "北海道",
    "city": "広尾郡広尾町",
    "town": "モエケシ"
  },
  "0892774": {
    "zipcode": "0892774",
    "prefectureCode": "01",
    "prefectureNumber": 1,
    "prefecture": "北海道",
    "city": "広尾郡広尾町",
    "town": "ルベシベツ"
  },
  "0892775": {
    "zipcode": "0892775",
    "prefectureCode": "01",
    "prefectureNumber": 1,
    "prefecture": "北海道",
    "city": "広尾郡広尾町",
    "town": "タニイソ"
  },
  "0892776": {
    "zipcode": "0892776",
    "prefectureCode": "01",
    "prefectureNumber": 1,
    "prefecture": "北海道",
    "city": "広尾郡広尾町",
    "town": "ビタタヌンケ"
  },
  "0893151": {
    "zipcode": "0893151",
    "prefectureCode": "01",
    "prefectureNumber": 1,
    "prefecture": "北海道",
    "city": "中川郡池田町",
    "town": "大森"
  },
  "0893152": {
    "zipcode": "0893152",
    "prefectureCode": "01",
    "prefectureNumber": 1,
    "prefecture": "北海道",
    "city": "中川郡池田町",
    "town": "高島"
  },
  "0893153": {
    "zipcode": "0893153",
    "prefectureCode": "01",
    "prefectureNumber": 1,
    "prefecture": "北海道",
    "city": "中川郡池田町",
    "town": "近牛"
  },
  "0893154": {
    "zipcode": "0893154",
    "prefectureCode": "01",
    "prefectureNumber": 1,
    "prefecture": "北海道",
    "city": "中川郡池田町",
    "town": "信取"
  },
  "0893155": {
    "zipcode": "0893155",
    "prefectureCode": "01",
    "prefectureNumber": 1,
    "prefecture": "北海道",
    "city": "中川郡池田町",
    "town": "美加登"
  },
  "0893156": {
    "zipcode": "0893156",
    "prefectureCode": "01",
    "prefectureNumber": 1,
    "prefecture": "北海道",
    "city": "中川郡池田町",
    "town": "常盤"
  },
  "0893281": {
    "zipcode": "0893281",
    "prefectureCode": "01",
    "prefectureNumber": 1,
    "prefecture": "北海道",
    "city": "中川郡本別町",
    "town": "勇足元町"
  },
  "0893282": {
    "zipcode": "0893282",
    "prefectureCode": "01",
    "prefectureNumber": 1,
    "prefecture": "北海道",
    "city": "中川郡本別町",
    "town": "勇足"
  },
  "0893283": {
    "zipcode": "0893283",
    "prefectureCode": "01",
    "prefectureNumber": 1,
    "prefecture": "北海道",
    "city": "中川郡本別町",
    "town": "押帯"
  },
  "0893284": {
    "zipcode": "0893284",
    "prefectureCode": "01",
    "prefectureNumber": 1,
    "prefecture": "北海道",
    "city": "中川郡本別町",
    "town": "美蘭別"
  },
  "0893300": {
    "zipcode": "0893300",
    "prefectureCode": "01",
    "prefectureNumber": 1,
    "prefecture": "北海道",
    "city": "中川郡本別町",
    "town": "以下に掲載がない場合"
  },
  "0893301": {
    "zipcode": "0893301",
    "prefectureCode": "01",
    "prefectureNumber": 1,
    "prefecture": "北海道",
    "city": "中川郡本別町",
    "town": "東本別"
  },
  "0893302": {
    "zipcode": "0893302",
    "prefectureCode": "01",
    "prefectureNumber": 1,
    "prefecture": "北海道",
    "city": "中川郡本別町",
    "town": "東町"
  },
  "0893303": {
    "zipcode": "0893303",
    "prefectureCode": "01",
    "prefectureNumber": 1,
    "prefecture": "北海道",
    "city": "中川郡本別町",
    "town": "向陽町"
  },
  "0893304": {
    "zipcode": "0893304",
    "prefectureCode": "01",
    "prefectureNumber": 1,
    "prefecture": "北海道",
    "city": "中川郡本別町",
    "town": "坂下町"
  },
  "0893305": {
    "zipcode": "0893305",
    "prefectureCode": "01",
    "prefectureNumber": 1,
    "prefecture": "北海道",
    "city": "中川郡本別町",
    "town": "共栄"
  },
  "0893306": {
    "zipcode": "0893306",
    "prefectureCode": "01",
    "prefectureNumber": 1,
    "prefecture": "北海道",
    "city": "中川郡本別町",
    "town": "チエトイ"
  },
  "0893307": {
    "zipcode": "0893307",
    "prefectureCode": "01",
    "prefectureNumber": 1,
    "prefecture": "北海道",
    "city": "中川郡本別町",
    "town": "負箙"
  },
  "0893308": {
    "zipcode": "0893308",
    "prefectureCode": "01",
    "prefectureNumber": 1,
    "prefecture": "北海道",
    "city": "中川郡本別町",
    "town": "弥生町"
  },
  "0893311": {
    "zipcode": "0893311",
    "prefectureCode": "01",
    "prefectureNumber": 1,
    "prefecture": "北海道",
    "city": "中川郡本別町",
    "town": "柏木町"
  },
  "0893312": {
    "zipcode": "0893312",
    "prefectureCode": "01",
    "prefectureNumber": 1,
    "prefecture": "北海道",
    "city": "中川郡本別町",
    "town": "緑町"
  },
  "0893313": {
    "zipcode": "0893313",
    "prefectureCode": "01",
    "prefectureNumber": 1,
    "prefecture": "北海道",
    "city": "中川郡本別町",
    "town": "柳町"
  },
  "0893314": {
    "zipcode": "0893314",
    "prefectureCode": "01",
    "prefectureNumber": 1,
    "prefecture": "北海道",
    "city": "中川郡本別町",
    "town": "南"
  },
  "0893321": {
    "zipcode": "0893321",
    "prefectureCode": "01",
    "prefectureNumber": 1,
    "prefecture": "北海道",
    "city": "中川郡本別町",
    "town": "上本別（フラツナイ）"
  },
  "0893322": {
    "zipcode": "0893322",
    "prefectureCode": "01",
    "prefectureNumber": 1,
    "prefecture": "北海道",
    "city": "中川郡本別町",
    "town": "栄町"
  },
  "0893323": {
    "zipcode": "0893323",
    "prefectureCode": "01",
    "prefectureNumber": 1,
    "prefecture": "北海道",
    "city": "中川郡本別町",
    "town": "美里別（東下）"
  },
  "0893324": {
    "zipcode": "0893324",
    "prefectureCode": "01",
    "prefectureNumber": 1,
    "prefecture": "北海道",
    "city": "中川郡本別町",
    "town": "新町"
  },
  "0893325": {
    "zipcode": "0893325",
    "prefectureCode": "01",
    "prefectureNumber": 1,
    "prefecture": "北海道",
    "city": "中川郡本別町",
    "town": "西美里別（その他）"
  },
  "0893326": {
    "zipcode": "0893326",
    "prefectureCode": "01",
    "prefectureNumber": 1,
    "prefecture": "北海道",
    "city": "中川郡本別町",
    "town": "美里別（高東）"
  },
  "0893327": {
    "zipcode": "0893327",
    "prefectureCode": "01",
    "prefectureNumber": 1,
    "prefecture": "北海道",
    "city": "中川郡本別町",
    "town": "追名牛（その他）"
  },
  "0893331": {
    "zipcode": "0893331",
    "prefectureCode": "01",
    "prefectureNumber": 1,
    "prefecture": "北海道",
    "city": "中川郡本別町",
    "town": "錦町"
  },
  "0893332": {
    "zipcode": "0893332",
    "prefectureCode": "01",
    "prefectureNumber": 1,
    "prefecture": "北海道",
    "city": "中川郡本別町",
    "town": "朝日町"
  },
  "0893333": {
    "zipcode": "0893333",
    "prefectureCode": "01",
    "prefectureNumber": 1,
    "prefecture": "北海道",
    "city": "中川郡本別町",
    "town": "山手町"
  },
  "0893334": {
    "zipcode": "0893334",
    "prefectureCode": "01",
    "prefectureNumber": 1,
    "prefecture": "北海道",
    "city": "中川郡本別町",
    "town": "清流町"
  },
  "0893442": {
    "zipcode": "0893442",
    "prefectureCode": "01",
    "prefectureNumber": 1,
    "prefecture": "北海道",
    "city": "中川郡本別町",
    "town": "美里別（拓農、東活込、東上、東中）"
  },
  "0893443": {
    "zipcode": "0893443",
    "prefectureCode": "01",
    "prefectureNumber": 1,
    "prefecture": "北海道",
    "city": "中川郡本別町",
    "town": "西美里別（１１３〜７９１番地、西活込、西上、西中）"
  },
  "0893571": {
    "zipcode": "0893571",
    "prefectureCode": "01",
    "prefectureNumber": 1,
    "prefecture": "北海道",
    "city": "十勝郡浦幌町",
    "town": "恩根内"
  },
  "0893572": {
    "zipcode": "0893572",
    "prefectureCode": "01",
    "prefectureNumber": 1,
    "prefecture": "北海道",
    "city": "十勝郡浦幌町",
    "town": "川流布"
  },
  "0893573": {
    "zipcode": "0893573",
    "prefectureCode": "01",
    "prefectureNumber": 1,
    "prefecture": "北海道",
    "city": "十勝郡浦幌町",
    "town": "富川"
  },
  "0893574": {
    "zipcode": "0893574",
    "prefectureCode": "01",
    "prefectureNumber": 1,
    "prefecture": "北海道",
    "city": "十勝郡浦幌町",
    "town": "活平"
  },
  "0893575": {
    "zipcode": "0893575",
    "prefectureCode": "01",
    "prefectureNumber": 1,
    "prefecture": "北海道",
    "city": "十勝郡浦幌町",
    "town": "美園"
  },
  "0893576": {
    "zipcode": "0893576",
    "prefectureCode": "01",
    "prefectureNumber": 1,
    "prefecture": "北海道",
    "city": "十勝郡浦幌町",
    "town": "相川"
  },
  "0893577": {
    "zipcode": "0893577",
    "prefectureCode": "01",
    "prefectureNumber": 1,
    "prefecture": "北海道",
    "city": "十勝郡浦幌町",
    "town": "合流"
  },
  "0893578": {
    "zipcode": "0893578",
    "prefectureCode": "01",
    "prefectureNumber": 1,
    "prefecture": "北海道",
    "city": "十勝郡浦幌町",
    "town": "宝生"
  },
  "0893585": {
    "zipcode": "0893585",
    "prefectureCode": "01",
    "prefectureNumber": 1,
    "prefecture": "北海道",
    "city": "十勝郡浦幌町",
    "town": "川上"
  },
  "0893586": {
    "zipcode": "0893586",
    "prefectureCode": "01",
    "prefectureNumber": 1,
    "prefecture": "北海道",
    "city": "十勝郡浦幌町",
    "town": "栄穂"
  },
  "0893587": {
    "zipcode": "0893587",
    "prefectureCode": "01",
    "prefectureNumber": 1,
    "prefecture": "北海道",
    "city": "十勝郡浦幌町",
    "town": "貴老路"
  },
  "0893661": {
    "zipcode": "0893661",
    "prefectureCode": "01",
    "prefectureNumber": 1,
    "prefecture": "北海道",
    "city": "中川郡本別町",
    "town": "美栄"
  },
  "0893662": {
    "zipcode": "0893662",
    "prefectureCode": "01",
    "prefectureNumber": 1,
    "prefecture": "北海道",
    "city": "中川郡本別町",
    "town": "奥仙美里"
  },
  "0893663": {
    "zipcode": "0893663",
    "prefectureCode": "01",
    "prefectureNumber": 1,
    "prefecture": "北海道",
    "city": "中川郡本別町",
    "town": "仙美里"
  },
  "0893664": {
    "zipcode": "0893664",
    "prefectureCode": "01",
    "prefectureNumber": 1,
    "prefecture": "北海道",
    "city": "中川郡本別町",
    "town": "仙美里元町"
  },
  "0893665": {
    "zipcode": "0893665",
    "prefectureCode": "01",
    "prefectureNumber": 1,
    "prefecture": "北海道",
    "city": "中川郡本別町",
    "town": "清里"
  },
  "0893666": {
    "zipcode": "0893666",
    "prefectureCode": "01",
    "prefectureNumber": 1,
    "prefecture": "北海道",
    "city": "中川郡本別町",
    "town": "上仙美里"
  },
  "0893671": {
    "zipcode": "0893671",
    "prefectureCode": "01",
    "prefectureNumber": 1,
    "prefecture": "北海道",
    "city": "中川郡本別町",
    "town": "木札内"
  },
  "0893672": {
    "zipcode": "0893672",
    "prefectureCode": "01",
    "prefectureNumber": 1,
    "prefecture": "北海道",
    "city": "中川郡本別町",
    "town": "追名牛（６７−４〜１１３−７番地）"
  },
  "0893673": {
    "zipcode": "0893673",
    "prefectureCode": "01",
    "prefectureNumber": 1,
    "prefecture": "北海道",
    "city": "中川郡本別町",
    "town": "東仙美里"
  },
  "0893674": {
    "zipcode": "0893674",
    "prefectureCode": "01",
    "prefectureNumber": 1,
    "prefecture": "北海道",
    "city": "中川郡本別町",
    "town": "下仙美里"
  },
  "0893675": {
    "zipcode": "0893675",
    "prefectureCode": "01",
    "prefectureNumber": 1,
    "prefecture": "北海道",
    "city": "中川郡本別町",
    "town": "西仙美里"
  },
  "0893676": {
    "zipcode": "0893676",
    "prefectureCode": "01",
    "prefectureNumber": 1,
    "prefecture": "北海道",
    "city": "中川郡本別町",
    "town": "明美"
  },
  "0893677": {
    "zipcode": "0893677",
    "prefectureCode": "01",
    "prefectureNumber": 1,
    "prefecture": "北海道",
    "city": "中川郡本別町",
    "town": "美里別（２４６−７番地）"
  },
  "0893700": {
    "zipcode": "0893700",
    "prefectureCode": "01",
    "prefectureNumber": 1,
    "prefecture": "北海道",
    "city": "足寄郡足寄町",
    "town": "以下に掲載がない場合"
  },
  "0893701": {
    "zipcode": "0893701",
    "prefectureCode": "01",
    "prefectureNumber": 1,
    "prefecture": "北海道",
    "city": "足寄郡足寄町",
    "town": "北一条"
  },
  "0893702": {
    "zipcode": "0893702",
    "prefectureCode": "01",
    "prefectureNumber": 1,
    "prefecture": "北海道",
    "city": "足寄郡足寄町",
    "town": "北二条"
  },
  "0893703": {
    "zipcode": "0893703",
    "prefectureCode": "01",
    "prefectureNumber": 1,
    "prefecture": "北海道",
    "city": "足寄郡足寄町",
    "town": "北三条"
  },
  "0893704": {
    "zipcode": "0893704",
    "prefectureCode": "01",
    "prefectureNumber": 1,
    "prefecture": "北海道",
    "city": "足寄郡足寄町",
    "town": "北四条"
  },
  "0893705": {
    "zipcode": "0893705",
    "prefectureCode": "01",
    "prefectureNumber": 1,
    "prefecture": "北海道",
    "city": "足寄郡足寄町",
    "town": "北五条"
  },
  "0893706": {
    "zipcode": "0893706",
    "prefectureCode": "01",
    "prefectureNumber": 1,
    "prefecture": "北海道",
    "city": "足寄郡足寄町",
    "town": "北六条"
  },
  "0893707": {
    "zipcode": "0893707",
    "prefectureCode": "01",
    "prefectureNumber": 1,
    "prefecture": "北海道",
    "city": "足寄郡足寄町",
    "town": "下愛冠"
  },
  "0893708": {
    "zipcode": "0893708",
    "prefectureCode": "01",
    "prefectureNumber": 1,
    "prefecture": "北海道",
    "city": "足寄郡足寄町",
    "town": "愛冠"
  },
  "0893711": {
    "zipcode": "0893711",
    "prefectureCode": "01",
    "prefectureNumber": 1,
    "prefecture": "北海道",
    "city": "足寄郡足寄町",
    "town": "南一条"
  },
  "0893712": {
    "zipcode": "0893712",
    "prefectureCode": "01",
    "prefectureNumber": 1,
    "prefecture": "北海道",
    "city": "足寄郡足寄町",
    "town": "南二条"
  },
  "0893713": {
    "zipcode": "0893713",
    "prefectureCode": "01",
    "prefectureNumber": 1,
    "prefecture": "北海道",
    "city": "足寄郡足寄町",
    "town": "南三条"
  },
  "0893714": {
    "zipcode": "0893714",
    "prefectureCode": "01",
    "prefectureNumber": 1,
    "prefecture": "北海道",
    "city": "足寄郡足寄町",
    "town": "南四条"
  },
  "0893715": {
    "zipcode": "0893715",
    "prefectureCode": "01",
    "prefectureNumber": 1,
    "prefecture": "北海道",
    "city": "足寄郡足寄町",
    "town": "南五条"
  },
  "0893716": {
    "zipcode": "0893716",
    "prefectureCode": "01",
    "prefectureNumber": 1,
    "prefecture": "北海道",
    "city": "足寄郡足寄町",
    "town": "南六条"
  },
  "0893717": {
    "zipcode": "0893717",
    "prefectureCode": "01",
    "prefectureNumber": 1,
    "prefecture": "北海道",
    "city": "足寄郡足寄町",
    "town": "南七条"
  },
  "0893718": {
    "zipcode": "0893718",
    "prefectureCode": "01",
    "prefectureNumber": 1,
    "prefecture": "北海道",
    "city": "足寄郡足寄町",
    "town": "栄町"
  },
  "0893721": {
    "zipcode": "0893721",
    "prefectureCode": "01",
    "prefectureNumber": 1,
    "prefecture": "北海道",
    "city": "足寄郡足寄町",
    "town": "旭町"
  },
  "0893722": {
    "zipcode": "0893722",
    "prefectureCode": "01",
    "prefectureNumber": 1,
    "prefecture": "北海道",
    "city": "足寄郡足寄町",
    "town": "新町"
  },
  "0893723": {
    "zipcode": "0893723",
    "prefectureCode": "01",
    "prefectureNumber": 1,
    "prefecture": "北海道",
    "city": "足寄郡足寄町",
    "town": "中足寄"
  },
  "0893724": {
    "zipcode": "0893724",
    "prefectureCode": "01",
    "prefectureNumber": 1,
    "prefecture": "北海道",
    "city": "足寄郡足寄町",
    "town": "稲牛"
  },
  "0893725": {
    "zipcode": "0893725",
    "prefectureCode": "01",
    "prefectureNumber": 1,
    "prefecture": "北海道",
    "city": "足寄郡足寄町",
    "town": "平和"
  },
  "0893726": {
    "zipcode": "0893726",
    "prefectureCode": "01",
    "prefectureNumber": 1,
    "prefecture": "北海道",
    "city": "足寄郡足寄町",
    "town": "共栄町"
  },
  "0893727": {
    "zipcode": "0893727",
    "prefectureCode": "01",
    "prefectureNumber": 1,
    "prefecture": "北海道",
    "city": "足寄郡足寄町",
    "town": "郊南"
  },
  "0893731": {
    "zipcode": "0893731",
    "prefectureCode": "01",
    "prefectureNumber": 1,
    "prefecture": "北海道",
    "city": "足寄郡足寄町",
    "town": "中矢（７〜２８８番地）"
  },
  "0893732": {
    "zipcode": "0893732",
    "prefectureCode": "01",
    "prefectureNumber": 1,
    "prefecture": "北海道",
    "city": "足寄郡足寄町",
    "town": "里見が丘"
  },
  "0893733": {
    "zipcode": "0893733",
    "prefectureCode": "01",
    "prefectureNumber": 1,
    "prefecture": "北海道",
    "city": "足寄郡足寄町",
    "town": "西町"
  },
  "0893734": {
    "zipcode": "0893734",
    "prefectureCode": "01",
    "prefectureNumber": 1,
    "prefecture": "北海道",
    "city": "足寄郡足寄町",
    "town": "常盤"
  },
  "0893735": {
    "zipcode": "0893735",
    "prefectureCode": "01",
    "prefectureNumber": 1,
    "prefecture": "北海道",
    "city": "足寄郡足寄町",
    "town": "美盛"
  },
  "0893736": {
    "zipcode": "0893736",
    "prefectureCode": "01",
    "prefectureNumber": 1,
    "prefecture": "北海道",
    "city": "足寄郡足寄町",
    "town": "鷲府"
  },
  "0893737": {
    "zipcode": "0893737",
    "prefectureCode": "01",
    "prefectureNumber": 1,
    "prefecture": "北海道",
    "city": "足寄郡足寄町",
    "town": "茂喜登牛（１２〜６３４番地）"
  },
  "0893871": {
    "zipcode": "0893871",
    "prefectureCode": "01",
    "prefectureNumber": 1,
    "prefecture": "北海道",
    "city": "足寄郡足寄町",
    "town": "芽登本町"
  },
  "0893872": {
    "zipcode": "0893872",
    "prefectureCode": "01",
    "prefectureNumber": 1,
    "prefecture": "北海道",
    "city": "足寄郡足寄町",
    "town": "芽登"
  },
  "0893873": {
    "zipcode": "0893873",
    "prefectureCode": "01",
    "prefectureNumber": 1,
    "prefecture": "北海道",
    "city": "足寄郡足寄町",
    "town": "中矢（４２６〜７８２番地）"
  },
  "0893874": {
    "zipcode": "0893874",
    "prefectureCode": "01",
    "prefectureNumber": 1,
    "prefecture": "北海道",
    "city": "足寄郡足寄町",
    "town": "喜登牛"
  },
  "0893875": {
    "zipcode": "0893875",
    "prefectureCode": "01",
    "prefectureNumber": 1,
    "prefecture": "北海道",
    "city": "足寄郡足寄町",
    "town": "茂喜登牛（７５９〜２７８６番地）"
  },
  "0893961": {
    "zipcode": "0893961",
    "prefectureCode": "01",
    "prefectureNumber": 1,
    "prefecture": "北海道",
    "city": "足寄郡足寄町",
    "town": "上足寄"
  },
  "0893962": {
    "zipcode": "0893962",
    "prefectureCode": "01",
    "prefectureNumber": 1,
    "prefecture": "北海道",
    "city": "足寄郡足寄町",
    "town": "上足寄本町"
  },
  "0893963": {
    "zipcode": "0893963",
    "prefectureCode": "01",
    "prefectureNumber": 1,
    "prefecture": "北海道",
    "city": "足寄郡足寄町",
    "town": "上螺湾"
  },
  "0893964": {
    "zipcode": "0893964",
    "prefectureCode": "01",
    "prefectureNumber": 1,
    "prefecture": "北海道",
    "city": "足寄郡足寄町",
    "town": "茂足寄"
  },
  "0893965": {
    "zipcode": "0893965",
    "prefectureCode": "01",
    "prefectureNumber": 1,
    "prefecture": "北海道",
    "city": "足寄郡足寄町",
    "town": "螺湾"
  },
  "0893966": {
    "zipcode": "0893966",
    "prefectureCode": "01",
    "prefectureNumber": 1,
    "prefecture": "北海道",
    "city": "足寄郡足寄町",
    "town": "螺湾本町"
  },
  "0894141": {
    "zipcode": "0894141",
    "prefectureCode": "01",
    "prefectureNumber": 1,
    "prefecture": "北海道",
    "city": "足寄郡足寄町",
    "town": "上利別本町"
  },
  "0894142": {
    "zipcode": "0894142",
    "prefectureCode": "01",
    "prefectureNumber": 1,
    "prefecture": "北海道",
    "city": "足寄郡足寄町",
    "town": "上利別"
  },
  "0894143": {
    "zipcode": "0894143",
    "prefectureCode": "01",
    "prefectureNumber": 1,
    "prefecture": "北海道",
    "city": "足寄郡足寄町",
    "town": "白糸"
  },
  "0894144": {
    "zipcode": "0894144",
    "prefectureCode": "01",
    "prefectureNumber": 1,
    "prefecture": "北海道",
    "city": "足寄郡足寄町",
    "town": "大誉地（１０−１番地）"
  },
  "0894251": {
    "zipcode": "0894251",
    "prefectureCode": "01",
    "prefectureNumber": 1,
    "prefecture": "北海道",
    "city": "足寄郡足寄町",
    "town": "大誉地（その他）"
  },
  "0894252": {
    "zipcode": "0894252",
    "prefectureCode": "01",
    "prefectureNumber": 1,
    "prefecture": "北海道",
    "city": "足寄郡足寄町",
    "town": "大誉地本町"
  },
  "0894261": {
    "zipcode": "0894261",
    "prefectureCode": "01",
    "prefectureNumber": 1,
    "prefecture": "北海道",
    "city": "足寄郡陸別町",
    "town": "登良利"
  },
  "0894262": {
    "zipcode": "0894262",
    "prefectureCode": "01",
    "prefectureNumber": 1,
    "prefecture": "北海道",
    "city": "足寄郡陸別町",
    "town": "薫別"
  },
  "0894300": {
    "zipcode": "0894300",
    "prefectureCode": "01",
    "prefectureNumber": 1,
    "prefecture": "北海道",
    "city": "足寄郡陸別町",
    "town": "以下に掲載がない場合"
  },
  "0894301": {
    "zipcode": "0894301",
    "prefectureCode": "01",
    "prefectureNumber": 1,
    "prefecture": "北海道",
    "city": "足寄郡陸別町",
    "town": "ウエンベツ"
  },
  "0894302": {
    "zipcode": "0894302",
    "prefectureCode": "01",
    "prefectureNumber": 1,
    "prefecture": "北海道",
    "city": "足寄郡陸別町",
    "town": "若葉"
  },
  "0894303": {
    "zipcode": "0894303",
    "prefectureCode": "01",
    "prefectureNumber": 1,
    "prefecture": "北海道",
    "city": "足寄郡陸別町",
    "town": "下陸別"
  },
  "0894304": {
    "zipcode": "0894304",
    "prefectureCode": "01",
    "prefectureNumber": 1,
    "prefecture": "北海道",
    "city": "足寄郡陸別町",
    "town": "共和"
  },
  "0894305": {
    "zipcode": "0894305",
    "prefectureCode": "01",
    "prefectureNumber": 1,
    "prefecture": "北海道",
    "city": "足寄郡陸別町",
    "town": "中陸別"
  },
  "0894306": {
    "zipcode": "0894306",
    "prefectureCode": "01",
    "prefectureNumber": 1,
    "prefecture": "北海道",
    "city": "足寄郡陸別町",
    "town": "止若内"
  },
  "0894307": {
    "zipcode": "0894307",
    "prefectureCode": "01",
    "prefectureNumber": 1,
    "prefecture": "北海道",
    "city": "足寄郡陸別町",
    "town": "作集"
  },
  "0894308": {
    "zipcode": "0894308",
    "prefectureCode": "01",
    "prefectureNumber": 1,
    "prefecture": "北海道",
    "city": "足寄郡陸別町",
    "town": "上陸別"
  },
  "0894311": {
    "zipcode": "0894311",
    "prefectureCode": "01",
    "prefectureNumber": 1,
    "prefecture": "北海道",
    "city": "足寄郡陸別町",
    "town": "東一条二区"
  },
  "0894312": {
    "zipcode": "0894312",
    "prefectureCode": "01",
    "prefectureNumber": 1,
    "prefecture": "北海道",
    "city": "足寄郡陸別町",
    "town": "共栄第二"
  },
  "0894313": {
    "zipcode": "0894313",
    "prefectureCode": "01",
    "prefectureNumber": 1,
    "prefecture": "北海道",
    "city": "足寄郡陸別町",
    "town": "共栄第一"
  },
  "0894314": {
    "zipcode": "0894314",
    "prefectureCode": "01",
    "prefectureNumber": 1,
    "prefecture": "北海道",
    "city": "足寄郡陸別町",
    "town": "東一条一区"
  },
  "0894315": {
    "zipcode": "0894315",
    "prefectureCode": "01",
    "prefectureNumber": 1,
    "prefecture": "北海道",
    "city": "足寄郡陸別町",
    "town": "大通"
  },
  "0894316": {
    "zipcode": "0894316",
    "prefectureCode": "01",
    "prefectureNumber": 1,
    "prefecture": "北海道",
    "city": "足寄郡陸別町",
    "town": "栄町"
  },
  "0894321": {
    "zipcode": "0894321",
    "prefectureCode": "01",
    "prefectureNumber": 1,
    "prefecture": "北海道",
    "city": "足寄郡陸別町",
    "town": "恩根内"
  },
  "0894322": {
    "zipcode": "0894322",
    "prefectureCode": "01",
    "prefectureNumber": 1,
    "prefecture": "北海道",
    "city": "足寄郡陸別町",
    "town": "新町一区"
  },
  "0894323": {
    "zipcode": "0894323",
    "prefectureCode": "01",
    "prefectureNumber": 1,
    "prefecture": "北海道",
    "city": "足寄郡陸別町",
    "town": "新町二区"
  },
  "0894324": {
    "zipcode": "0894324",
    "prefectureCode": "01",
    "prefectureNumber": 1,
    "prefecture": "北海道",
    "city": "足寄郡陸別町",
    "town": "旭町"
  },
  "0894325": {
    "zipcode": "0894325",
    "prefectureCode": "01",
    "prefectureNumber": 1,
    "prefecture": "北海道",
    "city": "足寄郡陸別町",
    "town": "元町"
  },
  "0894326": {
    "zipcode": "0894326",
    "prefectureCode": "01",
    "prefectureNumber": 1,
    "prefecture": "北海道",
    "city": "足寄郡陸別町",
    "town": "緑町"
  },
  "0894331": {
    "zipcode": "0894331",
    "prefectureCode": "01",
    "prefectureNumber": 1,
    "prefecture": "北海道",
    "city": "足寄郡陸別町",
    "town": "川向"
  },
  "0894332": {
    "zipcode": "0894332",
    "prefectureCode": "01",
    "prefectureNumber": 1,
    "prefecture": "北海道",
    "city": "足寄郡陸別町",
    "town": "関"
  },
  "0894333": {
    "zipcode": "0894333",
    "prefectureCode": "01",
    "prefectureNumber": 1,
    "prefecture": "北海道",
    "city": "足寄郡陸別町",
    "town": "殖産"
  },
  "0894334": {
    "zipcode": "0894334",
    "prefectureCode": "01",
    "prefectureNumber": 1,
    "prefecture": "北海道",
    "city": "足寄郡陸別町",
    "town": "東斗満"
  },
  "0894335": {
    "zipcode": "0894335",
    "prefectureCode": "01",
    "prefectureNumber": 1,
    "prefecture": "北海道",
    "city": "足寄郡陸別町",
    "town": "中斗満"
  },
  "0894336": {
    "zipcode": "0894336",
    "prefectureCode": "01",
    "prefectureNumber": 1,
    "prefecture": "北海道",
    "city": "足寄郡陸別町",
    "town": "弥生"
  },
  "0894337": {
    "zipcode": "0894337",
    "prefectureCode": "01",
    "prefectureNumber": 1,
    "prefecture": "北海道",
    "city": "足寄郡陸別町",
    "town": "下斗満"
  },
  "0894341": {
    "zipcode": "0894341",
    "prefectureCode": "01",
    "prefectureNumber": 1,
    "prefecture": "北海道",
    "city": "足寄郡陸別町",
    "town": "苫務"
  },
  "0894342": {
    "zipcode": "0894342",
    "prefectureCode": "01",
    "prefectureNumber": 1,
    "prefecture": "北海道",
    "city": "足寄郡陸別町",
    "town": "上斗満"
  },
  "0894343": {
    "zipcode": "0894343",
    "prefectureCode": "01",
    "prefectureNumber": 1,
    "prefecture": "北海道",
    "city": "足寄郡陸別町",
    "town": "南斗満"
  },
  "0894344": {
    "zipcode": "0894344",
    "prefectureCode": "01",
    "prefectureNumber": 1,
    "prefecture": "北海道",
    "city": "足寄郡陸別町",
    "town": "西斗満"
  },
  "0894345": {
    "zipcode": "0894345",
    "prefectureCode": "01",
    "prefectureNumber": 1,
    "prefecture": "北海道",
    "city": "足寄郡陸別町",
    "town": "北斗満"
  },
  "0894346": {
    "zipcode": "0894346",
    "prefectureCode": "01",
    "prefectureNumber": 1,
    "prefecture": "北海道",
    "city": "足寄郡陸別町",
    "town": "ポントマム"
  },
  "0894351": {
    "zipcode": "0894351",
    "prefectureCode": "01",
    "prefectureNumber": 1,
    "prefecture": "北海道",
    "city": "足寄郡陸別町",
    "town": "勲祢別"
  },
  "0894352": {
    "zipcode": "0894352",
    "prefectureCode": "01",
    "prefectureNumber": 1,
    "prefecture": "北海道",
    "city": "足寄郡陸別町",
    "town": "分線"
  },
  "0894353": {
    "zipcode": "0894353",
    "prefectureCode": "01",
    "prefectureNumber": 1,
    "prefecture": "北海道",
    "city": "足寄郡陸別町",
    "town": "川上"
  },
  "0894354": {
    "zipcode": "0894354",
    "prefectureCode": "01",
    "prefectureNumber": 1,
    "prefecture": "北海道",
    "city": "足寄郡陸別町",
    "town": "日宗"
  },
  "0894355": {
    "zipcode": "0894355",
    "prefectureCode": "01",
    "prefectureNumber": 1,
    "prefecture": "北海道",
    "city": "足寄郡陸別町",
    "town": "小利別"
  },
  "0894356": {
    "zipcode": "0894356",
    "prefectureCode": "01",
    "prefectureNumber": 1,
    "prefecture": "北海道",
    "city": "足寄郡陸別町",
    "town": "林内"
  },
  "0894357": {
    "zipcode": "0894357",
    "prefectureCode": "01",
    "prefectureNumber": 1,
    "prefecture": "北海道",
    "city": "足寄郡陸別町",
    "town": "利上"
  },
  "0895231": {
    "zipcode": "0895231",
    "prefectureCode": "01",
    "prefectureNumber": 1,
    "prefecture": "北海道",
    "city": "中川郡豊頃町",
    "town": "豊頃佐々田町"
  },
  "0895232": {
    "zipcode": "0895232",
    "prefectureCode": "01",
    "prefectureNumber": 1,
    "prefecture": "北海道",
    "city": "中川郡豊頃町",
    "town": "豊頃旭町"
  },
  "0895233": {
    "zipcode": "0895233",
    "prefectureCode": "01",
    "prefectureNumber": 1,
    "prefecture": "北海道",
    "city": "中川郡豊頃町",
    "town": "豊頃南町"
  },
  "0895234": {
    "zipcode": "0895234",
    "prefectureCode": "01",
    "prefectureNumber": 1,
    "prefecture": "北海道",
    "city": "中川郡豊頃町",
    "town": "中央新町"
  },
  "0895235": {
    "zipcode": "0895235",
    "prefectureCode": "01",
    "prefectureNumber": 1,
    "prefecture": "北海道",
    "city": "中川郡豊頃町",
    "town": "中央若葉町"
  },
  "0895241": {
    "zipcode": "0895241",
    "prefectureCode": "01",
    "prefectureNumber": 1,
    "prefecture": "北海道",
    "city": "中川郡豊頃町",
    "town": "育素多"
  },
  "0895242": {
    "zipcode": "0895242",
    "prefectureCode": "01",
    "prefectureNumber": 1,
    "prefecture": "北海道",
    "city": "中川郡豊頃町",
    "town": "北栄"
  },
  "0895243": {
    "zipcode": "0895243",
    "prefectureCode": "01",
    "prefectureNumber": 1,
    "prefecture": "北海道",
    "city": "中川郡豊頃町",
    "town": "十弗宝町"
  },
  "0895244": {
    "zipcode": "0895244",
    "prefectureCode": "01",
    "prefectureNumber": 1,
    "prefecture": "北海道",
    "city": "中川郡豊頃町",
    "town": "十弗"
  },
  "0895245": {
    "zipcode": "0895245",
    "prefectureCode": "01",
    "prefectureNumber": 1,
    "prefecture": "北海道",
    "city": "中川郡豊頃町",
    "town": "礼文内"
  },
  "0895246": {
    "zipcode": "0895246",
    "prefectureCode": "01",
    "prefectureNumber": 1,
    "prefecture": "北海道",
    "city": "中川郡豊頃町",
    "town": "豊頃"
  },
  "0895247": {
    "zipcode": "0895247",
    "prefectureCode": "01",
    "prefectureNumber": 1,
    "prefecture": "北海道",
    "city": "中川郡豊頃町",
    "town": "幌岡"
  },
  "0895300": {
    "zipcode": "0895300",
    "prefectureCode": "01",
    "prefectureNumber": 1,
    "prefecture": "北海道",
    "city": "中川郡豊頃町",
    "town": "以下に掲載がない場合"
  },
  "0895301": {
    "zipcode": "0895301",
    "prefectureCode": "01",
    "prefectureNumber": 1,
    "prefecture": "北海道",
    "city": "中川郡豊頃町",
    "town": "統内"
  },
  "0895302": {
    "zipcode": "0895302",
    "prefectureCode": "01",
    "prefectureNumber": 1,
    "prefecture": "北海道",
    "city": "中川郡豊頃町",
    "town": "礼作別"
  },
  "0895303": {
    "zipcode": "0895303",
    "prefectureCode": "01",
    "prefectureNumber": 1,
    "prefecture": "北海道",
    "city": "中川郡豊頃町",
    "town": "農野牛"
  },
  "0895304": {
    "zipcode": "0895304",
    "prefectureCode": "01",
    "prefectureNumber": 1,
    "prefecture": "北海道",
    "city": "中川郡豊頃町",
    "town": "牛首別"
  },
  "0895305": {
    "zipcode": "0895305",
    "prefectureCode": "01",
    "prefectureNumber": 1,
    "prefecture": "北海道",
    "city": "中川郡豊頃町",
    "town": "背負"
  },
  "0895306": {
    "zipcode": "0895306",
    "prefectureCode": "01",
    "prefectureNumber": 1,
    "prefecture": "北海道",
    "city": "中川郡豊頃町",
    "town": "安骨"
  },
  "0895307": {
    "zipcode": "0895307",
    "prefectureCode": "01",
    "prefectureNumber": 1,
    "prefecture": "北海道",
    "city": "中川郡豊頃町",
    "town": "旅来"
  },
  "0895308": {
    "zipcode": "0895308",
    "prefectureCode": "01",
    "prefectureNumber": 1,
    "prefecture": "北海道",
    "city": "中川郡豊頃町",
    "town": "湧洞"
  },
  "0895309": {
    "zipcode": "0895309",
    "prefectureCode": "01",
    "prefectureNumber": 1,
    "prefecture": "北海道",
    "city": "中川郡豊頃町",
    "town": "二宮"
  },
  "0895311": {
    "zipcode": "0895311",
    "prefectureCode": "01",
    "prefectureNumber": 1,
    "prefecture": "北海道",
    "city": "中川郡豊頃町",
    "town": "茂岩新和町"
  },
  "0895312": {
    "zipcode": "0895312",
    "prefectureCode": "01",
    "prefectureNumber": 1,
    "prefecture": "北海道",
    "city": "中川郡豊頃町",
    "town": "茂岩本町"
  },
  "0895313": {
    "zipcode": "0895313",
    "prefectureCode": "01",
    "prefectureNumber": 1,
    "prefecture": "北海道",
    "city": "中川郡豊頃町",
    "town": "茂岩栄町"
  },
  "0895314": {
    "zipcode": "0895314",
    "prefectureCode": "01",
    "prefectureNumber": 1,
    "prefecture": "北海道",
    "city": "中川郡豊頃町",
    "town": "茂岩末広町"
  },
  "0895315": {
    "zipcode": "0895315",
    "prefectureCode": "01",
    "prefectureNumber": 1,
    "prefecture": "北海道",
    "city": "中川郡豊頃町",
    "town": "茂岩"
  },
  "0895461": {
    "zipcode": "0895461",
    "prefectureCode": "01",
    "prefectureNumber": 1,
    "prefecture": "北海道",
    "city": "中川郡豊頃町",
    "town": "大津元町"
  },
  "0895462": {
    "zipcode": "0895462",
    "prefectureCode": "01",
    "prefectureNumber": 1,
    "prefecture": "北海道",
    "city": "中川郡豊頃町",
    "town": "大津幸町"
  },
  "0895463": {
    "zipcode": "0895463",
    "prefectureCode": "01",
    "prefectureNumber": 1,
    "prefecture": "北海道",
    "city": "中川郡豊頃町",
    "town": "大津寿町"
  },
  "0895464": {
    "zipcode": "0895464",
    "prefectureCode": "01",
    "prefectureNumber": 1,
    "prefecture": "北海道",
    "city": "中川郡豊頃町",
    "town": "大津港町"
  },
  "0895465": {
    "zipcode": "0895465",
    "prefectureCode": "01",
    "prefectureNumber": 1,
    "prefecture": "北海道",
    "city": "中川郡豊頃町",
    "town": "大津"
  },
  "0895466": {
    "zipcode": "0895466",
    "prefectureCode": "01",
    "prefectureNumber": 1,
    "prefecture": "北海道",
    "city": "中川郡豊頃町",
    "town": "長節"
  },
  "0895541": {
    "zipcode": "0895541",
    "prefectureCode": "01",
    "prefectureNumber": 1,
    "prefecture": "北海道",
    "city": "十勝郡浦幌町",
    "town": "吉野"
  },
  "0895542": {
    "zipcode": "0895542",
    "prefectureCode": "01",
    "prefectureNumber": 1,
    "prefecture": "北海道",
    "city": "十勝郡浦幌町",
    "town": "共栄"
  },
  "0895543": {
    "zipcode": "0895543",
    "prefectureCode": "01",
    "prefectureNumber": 1,
    "prefecture": "北海道",
    "city": "十勝郡浦幌町",
    "town": "平和"
  },
  "0895544": {
    "zipcode": "0895544",
    "prefectureCode": "01",
    "prefectureNumber": 1,
    "prefecture": "北海道",
    "city": "十勝郡浦幌町",
    "town": "統太"
  },
  "0895545": {
    "zipcode": "0895545",
    "prefectureCode": "01",
    "prefectureNumber": 1,
    "prefecture": "北海道",
    "city": "十勝郡浦幌町",
    "town": "養老"
  },
  "0895546": {
    "zipcode": "0895546",
    "prefectureCode": "01",
    "prefectureNumber": 1,
    "prefecture": "北海道",
    "city": "十勝郡浦幌町",
    "town": "朝日"
  },
  "0895547": {
    "zipcode": "0895547",
    "prefectureCode": "01",
    "prefectureNumber": 1,
    "prefecture": "北海道",
    "city": "十勝郡浦幌町",
    "town": "生剛"
  },
  "0895548": {
    "zipcode": "0895548",
    "prefectureCode": "01",
    "prefectureNumber": 1,
    "prefecture": "北海道",
    "city": "十勝郡浦幌町",
    "town": "十勝太"
  },
  "0895551": {
    "zipcode": "0895551",
    "prefectureCode": "01",
    "prefectureNumber": 1,
    "prefecture": "北海道",
    "city": "十勝郡浦幌町",
    "town": "愛牛"
  },
  "0895552": {
    "zipcode": "0895552",
    "prefectureCode": "01",
    "prefectureNumber": 1,
    "prefecture": "北海道",
    "city": "十勝郡浦幌町",
    "town": "豊北"
  },
  "0895553": {
    "zipcode": "0895553",
    "prefectureCode": "01",
    "prefectureNumber": 1,
    "prefecture": "北海道",
    "city": "十勝郡浦幌町",
    "town": "打内"
  },
  "0895554": {
    "zipcode": "0895554",
    "prefectureCode": "01",
    "prefectureNumber": 1,
    "prefecture": "北海道",
    "city": "十勝郡浦幌町",
    "town": "大平"
  },
  "0895555": {
    "zipcode": "0895555",
    "prefectureCode": "01",
    "prefectureNumber": 1,
    "prefecture": "北海道",
    "city": "十勝郡浦幌町",
    "town": "トイトッキ"
  },
  "0895556": {
    "zipcode": "0895556",
    "prefectureCode": "01",
    "prefectureNumber": 1,
    "prefecture": "北海道",
    "city": "十勝郡浦幌町",
    "town": "鼈奴"
  },
  "0895557": {
    "zipcode": "0895557",
    "prefectureCode": "01",
    "prefectureNumber": 1,
    "prefecture": "北海道",
    "city": "十勝郡浦幌町",
    "town": "ヌタベット"
  },
  "0895558": {
    "zipcode": "0895558",
    "prefectureCode": "01",
    "prefectureNumber": 1,
    "prefecture": "北海道",
    "city": "十勝郡浦幌町",
    "town": "昆布刈石（３０番地）"
  },
  "0895600": {
    "zipcode": "0895600",
    "prefectureCode": "01",
    "prefectureNumber": 1,
    "prefecture": "北海道",
    "city": "十勝郡浦幌町",
    "town": "以下に掲載がない場合"
  },
  "0895601": {
    "zipcode": "0895601",
    "prefectureCode": "01",
    "prefectureNumber": 1,
    "prefecture": "北海道",
    "city": "十勝郡浦幌町",
    "town": "宝町"
  },
  "0895602": {
    "zipcode": "0895602",
    "prefectureCode": "01",
    "prefectureNumber": 1,
    "prefecture": "北海道",
    "city": "十勝郡浦幌町",
    "town": "末広町"
  },
  "0895603": {
    "zipcode": "0895603",
    "prefectureCode": "01",
    "prefectureNumber": 1,
    "prefecture": "北海道",
    "city": "十勝郡浦幌町",
    "town": "本町"
  },
  "0895604": {
    "zipcode": "0895604",
    "prefectureCode": "01",
    "prefectureNumber": 1,
    "prefecture": "北海道",
    "city": "十勝郡浦幌町",
    "town": "栄町"
  },
  "0895605": {
    "zipcode": "0895605",
    "prefectureCode": "01",
    "prefectureNumber": 1,
    "prefecture": "北海道",
    "city": "十勝郡浦幌町",
    "town": "緑町"
  },
  "0895606": {
    "zipcode": "0895606",
    "prefectureCode": "01",
    "prefectureNumber": 1,
    "prefecture": "北海道",
    "city": "十勝郡浦幌町",
    "town": "住吉町"
  },
  "0895607": {
    "zipcode": "0895607",
    "prefectureCode": "01",
    "prefectureNumber": 1,
    "prefecture": "北海道",
    "city": "十勝郡浦幌町",
    "town": "材木町"
  },
  "0895608": {
    "zipcode": "0895608",
    "prefectureCode": "01",
    "prefectureNumber": 1,
    "prefecture": "北海道",
    "city": "十勝郡浦幌町",
    "town": "西町"
  },
  "0895611": {
    "zipcode": "0895611",
    "prefectureCode": "01",
    "prefectureNumber": 1,
    "prefecture": "北海道",
    "city": "十勝郡浦幌町",
    "town": "寿町"
  },
  "0895612": {
    "zipcode": "0895612",
    "prefectureCode": "01",
    "prefectureNumber": 1,
    "prefecture": "北海道",
    "city": "十勝郡浦幌町",
    "town": "東山町"
  },
  "0895613": {
    "zipcode": "0895613",
    "prefectureCode": "01",
    "prefectureNumber": 1,
    "prefecture": "北海道",
    "city": "十勝郡浦幌町",
    "town": "幸町"
  },
  "0895614": {
    "zipcode": "0895614",
    "prefectureCode": "01",
    "prefectureNumber": 1,
    "prefecture": "北海道",
    "city": "十勝郡浦幌町",
    "town": "桜町"
  },
  "0895615": {
    "zipcode": "0895615",
    "prefectureCode": "01",
    "prefectureNumber": 1,
    "prefecture": "北海道",
    "city": "十勝郡浦幌町",
    "town": "新町"
  },
  "0895617": {
    "zipcode": "0895617",
    "prefectureCode": "01",
    "prefectureNumber": 1,
    "prefecture": "北海道",
    "city": "十勝郡浦幌町",
    "town": "南町"
  },
  "0895621": {
    "zipcode": "0895621",
    "prefectureCode": "01",
    "prefectureNumber": 1,
    "prefecture": "北海道",
    "city": "十勝郡浦幌町",
    "town": "北町"
  },
  "0895622": {
    "zipcode": "0895622",
    "prefectureCode": "01",
    "prefectureNumber": 1,
    "prefecture": "北海道",
    "city": "十勝郡浦幌町",
    "town": "北栄"
  },
  "0895631": {
    "zipcode": "0895631",
    "prefectureCode": "01",
    "prefectureNumber": 1,
    "prefecture": "北海道",
    "city": "十勝郡浦幌町",
    "town": "瀬多来"
  },
  "0895632": {
    "zipcode": "0895632",
    "prefectureCode": "01",
    "prefectureNumber": 1,
    "prefecture": "北海道",
    "city": "十勝郡浦幌町",
    "town": "留真"
  },
  "0895633": {
    "zipcode": "0895633",
    "prefectureCode": "01",
    "prefectureNumber": 1,
    "prefecture": "北海道",
    "city": "十勝郡浦幌町",
    "town": "円山"
  },
  "0895634": {
    "zipcode": "0895634",
    "prefectureCode": "01",
    "prefectureNumber": 1,
    "prefecture": "北海道",
    "city": "十勝郡浦幌町",
    "town": "時和"
  },
  "0895635": {
    "zipcode": "0895635",
    "prefectureCode": "01",
    "prefectureNumber": 1,
    "prefecture": "北海道",
    "city": "十勝郡浦幌町",
    "town": "静内"
  },
  "0895636": {
    "zipcode": "0895636",
    "prefectureCode": "01",
    "prefectureNumber": 1,
    "prefecture": "北海道",
    "city": "十勝郡浦幌町",
    "town": "万年"
  },
  "0895637": {
    "zipcode": "0895637",
    "prefectureCode": "01",
    "prefectureNumber": 1,
    "prefecture": "北海道",
    "city": "十勝郡浦幌町",
    "town": "稲穂"
  },
  "0895638": {
    "zipcode": "0895638",
    "prefectureCode": "01",
    "prefectureNumber": 1,
    "prefecture": "北海道",
    "city": "十勝郡浦幌町",
    "town": "幾千世"
  },
  "0895865": {
    "zipcode": "0895865",
    "prefectureCode": "01",
    "prefectureNumber": 1,
    "prefecture": "北海道",
    "city": "十勝郡浦幌町",
    "town": "厚内（全域）"
  },
  "0895866": {
    "zipcode": "0895866",
    "prefectureCode": "01",
    "prefectureNumber": 1,
    "prefecture": "北海道",
    "city": "十勝郡浦幌町",
    "town": "上厚内"
  },
  "0895867": {
    "zipcode": "0895867",
    "prefectureCode": "01",
    "prefectureNumber": 1,
    "prefecture": "北海道",
    "city": "十勝郡浦幌町",
    "town": "オコッペ"
  },
  "0895868": {
    "zipcode": "0895868",
    "prefectureCode": "01",
    "prefectureNumber": 1,
    "prefecture": "北海道",
    "city": "十勝郡浦幌町",
    "town": "昆布刈石（３番地）"
  },
  "0895869": {
    "zipcode": "0895869",
    "prefectureCode": "01",
    "prefectureNumber": 1,
    "prefecture": "北海道",
    "city": "十勝郡浦幌町",
    "town": "チプネオコッペ"
  }
}
