{
  "0920000": {
    "zipcode": "0920000",
    "prefectureCode": "01",
    "prefectureNumber": 1,
    "prefecture": "北海道",
    "city": "網走郡美幌町",
    "town": "以下に掲載がない場合"
  },
  "0920001": {
    "zipcode": "0920001",
    "prefectureCode": "01",
    "prefectureNumber": 1,
    "prefecture": "北海道",
    "city": "網走郡美幌町",
    "town": "高野"
  },
  "0920002": {
    "zipcode": "0920002",
    "prefectureCode": "01",
    "prefectureNumber": 1,
    "prefecture": "北海道",
    "city": "網走郡美幌町",
    "town": "美禽"
  },
  "0920003": {
    "zipcode": "0920003",
    "prefectureCode": "01",
    "prefectureNumber": 1,
    "prefecture": "北海道",
    "city": "網走郡美幌町",
    "town": "鳥里"
  },
  "0920004": {
    "zipcode": "0920004",
    "prefectureCode": "01",
    "prefectureNumber": 1,
    "prefecture": "北海道",
    "city": "網走郡美幌町",
    "town": "仲町"
  },
  "0920005": {
    "zipcode": "0920005",
    "prefectureCode": "01",
    "prefectureNumber": 1,
    "prefecture": "北海道",
    "city": "網走郡美幌町",
    "town": "野崎（その他）"
  },
  "0920006": {
    "zipcode": "0920006",
    "prefectureCode": "01",
    "prefectureNumber": 1,
    "prefecture": "北海道",
    "city": "網走郡美幌町",
    "town": "昭野"
  },
  "0920007": {
    "zipcode": "0920007",
    "prefectureCode": "01",
    "prefectureNumber": 1,
    "prefecture": "北海道",
    "city": "網走郡美幌町",
    "town": "豊岡"
  },
  "0920011": {
    "zipcode": "0920011",
    "prefectureCode": "01",
    "prefectureNumber": 1,
    "prefecture": "北海道",
    "city": "網走郡美幌町",
    "town": "東町"
  },
  "0920012": {
    "zipcode": "0920012",
    "prefectureCode": "01",
    "prefectureNumber": 1,
    "prefecture": "北海道",
    "city": "網走郡美幌町",
    "town": "栄町"
  },
  "0920013": {
    "zipcode": "0920013",
    "prefectureCode": "01",
    "prefectureNumber": 1,
    "prefecture": "北海道",
    "city": "網走郡美幌町",
    "town": "美芳"
  },
  "0920014": {
    "zipcode": "0920014",
    "prefectureCode": "01",
    "prefectureNumber": 1,
    "prefecture": "北海道",
    "city": "網走郡美幌町",
    "town": "美里"
  },
  "0920015": {
    "zipcode": "0920015",
    "prefectureCode": "01",
    "prefectureNumber": 1,
    "prefecture": "北海道",
    "city": "網走郡美幌町",
    "town": "新町"
  },
  "0920016": {
    "zipcode": "0920016",
    "prefectureCode": "01",
    "prefectureNumber": 1,
    "prefecture": "北海道",
    "city": "網走郡美幌町",
    "town": "瑞治"
  },
  "0920017": {
    "zipcode": "0920017",
    "prefectureCode": "01",
    "prefectureNumber": 1,
    "prefecture": "北海道",
    "city": "網走郡美幌町",
    "town": "報徳"
  },
  "0920018": {
    "zipcode": "0920018",
    "prefectureCode": "01",
    "prefectureNumber": 1,
    "prefecture": "北海道",
    "city": "網走郡美幌町",
    "town": "田中"
  },
  "0920021": {
    "zipcode": "0920021",
    "prefectureCode": "01",
    "prefectureNumber": 1,
    "prefecture": "北海道",
    "city": "網走郡美幌町",
    "town": "日並"
  },
  "0920022": {
    "zipcode": "0920022",
    "prefectureCode": "01",
    "prefectureNumber": 1,
    "prefecture": "北海道",
    "city": "網走郡美幌町",
    "town": "古梅"
  },
  "0920023": {
    "zipcode": "0920023",
    "prefectureCode": "01",
    "prefectureNumber": 1,
    "prefecture": "北海道",
    "city": "網走郡美幌町",
    "town": "豊富"
  },
  "0920024": {
    "zipcode": "0920024",
    "prefectureCode": "01",
    "prefectureNumber": 1,
    "prefecture": "北海道",
    "city": "網走郡美幌町",
    "town": "福住"
  },
  "0920025": {
    "zipcode": "0920025",
    "prefectureCode": "01",
    "prefectureNumber": 1,
    "prefecture": "北海道",
    "city": "網走郡美幌町",
    "town": "駒生（その他）"
  },
  "0920026": {
    "zipcode": "0920026",
    "prefectureCode": "01",
    "prefectureNumber": 1,
    "prefecture": "北海道",
    "city": "網走郡美幌町",
    "town": "都橋"
  },
  "0920027": {
    "zipcode": "0920027",
    "prefectureCode": "01",
    "prefectureNumber": 1,
    "prefecture": "北海道",
    "city": "網走郡美幌町",
    "town": "稲美"
  },
  "0920030": {
    "zipcode": "0920030",
    "prefectureCode": "01",
    "prefectureNumber": 1,
    "prefecture": "北海道",
    "city": "網走郡美幌町",
    "town": "美富（その他）"
  },
  "0920031": {
    "zipcode": "0920031",
    "prefectureCode": "01",
    "prefectureNumber": 1,
    "prefecture": "北海道",
    "city": "網走郡美幌町",
    "town": "大通南"
  },
  "0920032": {
    "zipcode": "0920032",
    "prefectureCode": "01",
    "prefectureNumber": 1,
    "prefecture": "北海道",
    "city": "網走郡美幌町",
    "town": "西一条南"
  },
  "0920033": {
    "zipcode": "0920033",
    "prefectureCode": "01",
    "prefectureNumber": 1,
    "prefecture": "北海道",
    "city": "網走郡美幌町",
    "town": "西二条南"
  },
  "0920041": {
    "zipcode": "0920041",
    "prefectureCode": "01",
    "prefectureNumber": 1,
    "prefecture": "北海道",
    "city": "網走郡美幌町",
    "town": "東一条南"
  },
  "0920042": {
    "zipcode": "0920042",
    "prefectureCode": "01",
    "prefectureNumber": 1,
    "prefecture": "北海道",
    "city": "網走郡美幌町",
    "town": "東二条南"
  },
  "0920043": {
    "zipcode": "0920043",
    "prefectureCode": "01",
    "prefectureNumber": 1,
    "prefecture": "北海道",
    "city": "網走郡美幌町",
    "town": "東三条南"
  },
  "0920044": {
    "zipcode": "0920044",
    "prefectureCode": "01",
    "prefectureNumber": 1,
    "prefecture": "北海道",
    "city": "網走郡美幌町",
    "town": "東四条南"
  },
  "0920050": {
    "zipcode": "0920050",
    "prefectureCode": "01",
    "prefectureNumber": 1,
    "prefecture": "北海道",
    "city": "網走郡美幌町",
    "town": "大通北"
  },
  "0920051": {
    "zipcode": "0920051",
    "prefectureCode": "01",
    "prefectureNumber": 1,
    "prefecture": "北海道",
    "city": "網走郡美幌町",
    "town": "東一条北"
  },
  "0920052": {
    "zipcode": "0920052",
    "prefectureCode": "01",
    "prefectureNumber": 1,
    "prefecture": "北海道",
    "city": "網走郡美幌町",
    "town": "東二条北"
  },
  "0920053": {
    "zipcode": "0920053",
    "prefectureCode": "01",
    "prefectureNumber": 1,
    "prefecture": "北海道",
    "city": "網走郡美幌町",
    "town": "東三条北"
  },
  "0920061": {
    "zipcode": "0920061",
    "prefectureCode": "01",
    "prefectureNumber": 1,
    "prefecture": "北海道",
    "city": "網走郡美幌町",
    "town": "西一条北"
  },
  "0920062": {
    "zipcode": "0920062",
    "prefectureCode": "01",
    "prefectureNumber": 1,
    "prefecture": "北海道",
    "city": "網走郡美幌町",
    "town": "西二条北"
  },
  "0920063": {
    "zipcode": "0920063",
    "prefectureCode": "01",
    "prefectureNumber": 1,
    "prefecture": "北海道",
    "city": "網走郡美幌町",
    "town": "元町"
  },
  "0920064": {
    "zipcode": "0920064",
    "prefectureCode": "01",
    "prefectureNumber": 1,
    "prefecture": "北海道",
    "city": "網走郡美幌町",
    "town": "青葉"
  },
  "0920065": {
    "zipcode": "0920065",
    "prefectureCode": "01",
    "prefectureNumber": 1,
    "prefecture": "北海道",
    "city": "網走郡美幌町",
    "town": "青山南"
  },
  "0920066": {
    "zipcode": "0920066",
    "prefectureCode": "01",
    "prefectureNumber": 1,
    "prefecture": "北海道",
    "city": "網走郡美幌町",
    "town": "青山北"
  },
  "0920067": {
    "zipcode": "0920067",
    "prefectureCode": "01",
    "prefectureNumber": 1,
    "prefecture": "北海道",
    "city": "網走郡美幌町",
    "town": "三橋南"
  },
  "0920068": {
    "zipcode": "0920068",
    "prefectureCode": "01",
    "prefectureNumber": 1,
    "prefecture": "北海道",
    "city": "網走郡美幌町",
    "town": "三橋町"
  },
  "0920069": {
    "zipcode": "0920069",
    "prefectureCode": "01",
    "prefectureNumber": 1,
    "prefecture": "北海道",
    "city": "網走郡美幌町",
    "town": "日の出"
  },
  "0920171": {
    "zipcode": "0920171",
    "prefectureCode": "01",
    "prefectureNumber": 1,
    "prefecture": "北海道",
    "city": "網走郡美幌町",
    "town": "美富（１２７〜１５１、１８３〜５７９番地）"
  },
  "0920173": {
    "zipcode": "0920173",
    "prefectureCode": "01",
    "prefectureNumber": 1,
    "prefecture": "北海道",
    "city": "網走郡美幌町",
    "town": "美和"
  },
  "0920174": {
    "zipcode": "0920174",
    "prefectureCode": "01",
    "prefectureNumber": 1,
    "prefecture": "北海道",
    "city": "網走郡美幌町",
    "town": "栄森"
  },
  "0920175": {
    "zipcode": "0920175",
    "prefectureCode": "01",
    "prefectureNumber": 1,
    "prefecture": "北海道",
    "city": "網走郡美幌町",
    "town": "駒生（２６８番地）"
  },
  "0920176": {
    "zipcode": "0920176",
    "prefectureCode": "01",
    "prefectureNumber": 1,
    "prefecture": "北海道",
    "city": "網走郡美幌町",
    "town": "野崎（１０３、１２２番地）"
  },
  "0920181": {
    "zipcode": "0920181",
    "prefectureCode": "01",
    "prefectureNumber": 1,
    "prefecture": "北海道",
    "city": "網走郡美幌町",
    "town": "上町"
  },
  "0920183": {
    "zipcode": "0920183",
    "prefectureCode": "01",
    "prefectureNumber": 1,
    "prefecture": "北海道",
    "city": "網走郡美幌町",
    "town": "豊幌"
  },
  "0920184": {
    "zipcode": "0920184",
    "prefectureCode": "01",
    "prefectureNumber": 1,
    "prefecture": "北海道",
    "city": "網走郡美幌町",
    "town": "登栄"
  },
  "0920200": {
    "zipcode": "0920200",
    "prefectureCode": "01",
    "prefectureNumber": 1,
    "prefecture": "北海道",
    "city": "網走郡津別町",
    "town": "以下に掲載がない場合"
  },
  "0920201": {
    "zipcode": "0920201",
    "prefectureCode": "01",
    "prefectureNumber": 1,
    "prefecture": "北海道",
    "city": "網走郡津別町",
    "town": "最上"
  },
  "0920203": {
    "zipcode": "0920203",
    "prefectureCode": "01",
    "prefectureNumber": 1,
    "prefecture": "北海道",
    "city": "網走郡津別町",
    "town": "達美"
  },
  "0920205": {
    "zipcode": "0920205",
    "prefectureCode": "01",
    "prefectureNumber": 1,
    "prefecture": "北海道",
    "city": "網走郡津別町",
    "town": "岩富"
  },
  "0920206": {
    "zipcode": "0920206",
    "prefectureCode": "01",
    "prefectureNumber": 1,
    "prefecture": "北海道",
    "city": "網走郡津別町",
    "town": "活汲"
  },
  "0920207": {
    "zipcode": "0920207",
    "prefectureCode": "01",
    "prefectureNumber": 1,
    "prefecture": "北海道",
    "city": "網走郡津別町",
    "town": "東岡"
  },
  "0920211": {
    "zipcode": "0920211",
    "prefectureCode": "01",
    "prefectureNumber": 1,
    "prefecture": "北海道",
    "city": "網走郡津別町",
    "town": "西三条"
  },
  "0920212": {
    "zipcode": "0920212",
    "prefectureCode": "01",
    "prefectureNumber": 1,
    "prefecture": "北海道",
    "city": "網走郡津別町",
    "town": "緑町"
  },
  "0920213": {
    "zipcode": "0920213",
    "prefectureCode": "01",
    "prefectureNumber": 1,
    "prefecture": "北海道",
    "city": "網走郡津別町",
    "town": "西四条"
  },
  "0920214": {
    "zipcode": "0920214",
    "prefectureCode": "01",
    "prefectureNumber": 1,
    "prefecture": "北海道",
    "city": "網走郡津別町",
    "town": "西二条"
  },
  "0920215": {
    "zipcode": "0920215",
    "prefectureCode": "01",
    "prefectureNumber": 1,
    "prefecture": "北海道",
    "city": "網走郡津別町",
    "town": "一条通"
  },
  "0920216": {
    "zipcode": "0920216",
    "prefectureCode": "01",
    "prefectureNumber": 1,
    "prefecture": "北海道",
    "city": "網走郡津別町",
    "town": "東二条"
  },
  "0920217": {
    "zipcode": "0920217",
    "prefectureCode": "01",
    "prefectureNumber": 1,
    "prefecture": "北海道",
    "city": "網走郡津別町",
    "town": "東三条"
  },
  "0920218": {
    "zipcode": "0920218",
    "prefectureCode": "01",
    "prefectureNumber": 1,
    "prefecture": "北海道",
    "city": "網走郡津別町",
    "town": "東四条"
  },
  "0920221": {
    "zipcode": "0920221",
    "prefectureCode": "01",
    "prefectureNumber": 1,
    "prefecture": "北海道",
    "city": "網走郡津別町",
    "town": "高台"
  },
  "0920222": {
    "zipcode": "0920222",
    "prefectureCode": "01",
    "prefectureNumber": 1,
    "prefecture": "北海道",
    "city": "網走郡津別町",
    "town": "上里"
  },
  "0920223": {
    "zipcode": "0920223",
    "prefectureCode": "01",
    "prefectureNumber": 1,
    "prefecture": "北海道",
    "city": "網走郡津別町",
    "town": "美都"
  },
  "0920224": {
    "zipcode": "0920224",
    "prefectureCode": "01",
    "prefectureNumber": 1,
    "prefecture": "北海道",
    "city": "網走郡津別町",
    "town": "豊永"
  },
  "0920225": {
    "zipcode": "0920225",
    "prefectureCode": "01",
    "prefectureNumber": 1,
    "prefecture": "北海道",
    "city": "網走郡津別町",
    "town": "共和"
  },
  "0920231": {
    "zipcode": "0920231",
    "prefectureCode": "01",
    "prefectureNumber": 1,
    "prefecture": "北海道",
    "city": "網走郡津別町",
    "town": "大通"
  },
  "0920232": {
    "zipcode": "0920232",
    "prefectureCode": "01",
    "prefectureNumber": 1,
    "prefecture": "北海道",
    "city": "網走郡津別町",
    "town": "新町"
  },
  "0920233": {
    "zipcode": "0920233",
    "prefectureCode": "01",
    "prefectureNumber": 1,
    "prefecture": "北海道",
    "city": "網走郡津別町",
    "town": "柏町"
  },
  "0920234": {
    "zipcode": "0920234",
    "prefectureCode": "01",
    "prefectureNumber": 1,
    "prefecture": "北海道",
    "city": "網走郡津別町",
    "town": "旭町"
  },
  "0920235": {
    "zipcode": "0920235",
    "prefectureCode": "01",
    "prefectureNumber": 1,
    "prefecture": "北海道",
    "city": "網走郡津別町",
    "town": "幸町"
  },
  "0920236": {
    "zipcode": "0920236",
    "prefectureCode": "01",
    "prefectureNumber": 1,
    "prefecture": "北海道",
    "city": "網走郡津別町",
    "town": "本町"
  },
  "0920351": {
    "zipcode": "0920351",
    "prefectureCode": "01",
    "prefectureNumber": 1,
    "prefecture": "北海道",
    "city": "網走郡津別町",
    "town": "本岐"
  },
  "0920352": {
    "zipcode": "0920352",
    "prefectureCode": "01",
    "prefectureNumber": 1,
    "prefecture": "北海道",
    "city": "網走郡津別町",
    "town": "木樋"
  },
  "0920353": {
    "zipcode": "0920353",
    "prefectureCode": "01",
    "prefectureNumber": 1,
    "prefecture": "北海道",
    "city": "網走郡津別町",
    "town": "二又"
  },
  "0920354": {
    "zipcode": "0920354",
    "prefectureCode": "01",
    "prefectureNumber": 1,
    "prefecture": "北海道",
    "city": "網走郡津別町",
    "town": "双葉"
  },
  "0920355": {
    "zipcode": "0920355",
    "prefectureCode": "01",
    "prefectureNumber": 1,
    "prefecture": "北海道",
    "city": "網走郡津別町",
    "town": "恩根"
  },
  "0920356": {
    "zipcode": "0920356",
    "prefectureCode": "01",
    "prefectureNumber": 1,
    "prefecture": "北海道",
    "city": "網走郡津別町",
    "town": "栄"
  },
  "0920357": {
    "zipcode": "0920357",
    "prefectureCode": "01",
    "prefectureNumber": 1,
    "prefecture": "北海道",
    "city": "網走郡津別町",
    "town": "大昭"
  },
  "0920358": {
    "zipcode": "0920358",
    "prefectureCode": "01",
    "prefectureNumber": 1,
    "prefecture": "北海道",
    "city": "網走郡津別町",
    "town": "沼沢"
  },
  "0920361": {
    "zipcode": "0920361",
    "prefectureCode": "01",
    "prefectureNumber": 1,
    "prefecture": "北海道",
    "city": "網走郡津別町",
    "town": "相生"
  },
  "0920362": {
    "zipcode": "0920362",
    "prefectureCode": "01",
    "prefectureNumber": 1,
    "prefecture": "北海道",
    "city": "網走郡津別町",
    "town": "布川"
  }
}
