{
  "0930000": {
    "zipcode": "0930000",
    "prefectureCode": "01",
    "prefectureNumber": 1,
    "prefecture": "北海道",
    "city": "網走市",
    "town": "以下に掲載がない場合"
  },
  "0930001": {
    "zipcode": "0930001",
    "prefectureCode": "01",
    "prefectureNumber": 1,
    "prefecture": "北海道",
    "city": "網走市",
    "town": "南一条東"
  },
  "0930002": {
    "zipcode": "0930002",
    "prefectureCode": "01",
    "prefectureNumber": 1,
    "prefecture": "北海道",
    "city": "網走市",
    "town": "南二条東"
  },
  "0930003": {
    "zipcode": "0930003",
    "prefectureCode": "01",
    "prefectureNumber": 1,
    "prefecture": "北海道",
    "city": "網走市",
    "town": "南三条東"
  },
  "0930004": {
    "zipcode": "0930004",
    "prefectureCode": "01",
    "prefectureNumber": 1,
    "prefecture": "北海道",
    "city": "網走市",
    "town": "南四条東"
  },
  "0930005": {
    "zipcode": "0930005",
    "prefectureCode": "01",
    "prefectureNumber": 1,
    "prefecture": "北海道",
    "city": "網走市",
    "town": "南五条東"
  },
  "0930006": {
    "zipcode": "0930006",
    "prefectureCode": "01",
    "prefectureNumber": 1,
    "prefecture": "北海道",
    "city": "網走市",
    "town": "南六条東"
  },
  "0930007": {
    "zipcode": "0930007",
    "prefectureCode": "01",
    "prefectureNumber": 1,
    "prefecture": "北海道",
    "city": "網走市",
    "town": "南七条東"
  },
  "0930008": {
    "zipcode": "0930008",
    "prefectureCode": "01",
    "prefectureNumber": 1,
    "prefecture": "北海道",
    "city": "網走市",
    "town": "南八条東"
  },
  "0930009": {
    "zipcode": "0930009",
    "prefectureCode": "01",
    "prefectureNumber": 1,
    "prefecture": "北海道",
    "city": "網走市",
    "town": "南九条東"
  },
  "0930010": {
    "zipcode": "0930010",
    "prefectureCode": "01",
    "prefectureNumber": 1,
    "prefecture": "北海道",
    "city": "網走市",
    "town": "南十条東"
  },
  "0930011": {
    "zipcode": "0930011",
    "prefectureCode": "01",
    "prefectureNumber": 1,
    "prefecture": "北海道",
    "city": "網走市",
    "town": "南一条西"
  },
  "0930012": {
    "zipcode": "0930012",
    "prefectureCode": "01",
    "prefectureNumber": 1,
    "prefecture": "北海道",
    "city": "網走市",
    "town": "南二条西"
  },
  "0930013": {
    "zipcode": "0930013",
    "prefectureCode": "01",
    "prefectureNumber": 1,
    "prefecture": "北海道",
    "city": "網走市",
    "town": "南三条西"
  },
  "0930014": {
    "zipcode": "0930014",
    "prefectureCode": "01",
    "prefectureNumber": 1,
    "prefecture": "北海道",
    "city": "網走市",
    "town": "南四条西"
  },
  "0930015": {
    "zipcode": "0930015",
    "prefectureCode": "01",
    "prefectureNumber": 1,
    "prefecture": "北海道",
    "city": "網走市",
    "town": "南五条西"
  },
  "0930016": {
    "zipcode": "0930016",
    "prefectureCode": "01",
    "prefectureNumber": 1,
    "prefecture": "北海道",
    "city": "網走市",
    "town": "南六条西"
  },
  "0930017": {
    "zipcode": "0930017",
    "prefectureCode": "01",
    "prefectureNumber": 1,
    "prefecture": "北海道",
    "city": "網走市",
    "town": "南七条西"
  },
  "0930018": {
    "zipcode": "0930018",
    "prefectureCode": "01",
    "prefectureNumber": 1,
    "prefecture": "北海道",
    "city": "網走市",
    "town": "南八条西"
  },
  "0930019": {
    "zipcode": "0930019",
    "prefectureCode": "01",
    "prefectureNumber": 1,
    "prefecture": "北海道",
    "city": "網走市",
    "town": "南九条西"
  },
  "0930020": {
    "zipcode": "0930020",
    "prefectureCode": "01",
    "prefectureNumber": 1,
    "prefecture": "北海道",
    "city": "網走市",
    "town": "南十条西"
  },
  "0930021": {
    "zipcode": "0930021",
    "prefectureCode": "01",
    "prefectureNumber": 1,
    "prefecture": "北海道",
    "city": "網走市",
    "town": "南十一条西"
  },
  "0930022": {
    "zipcode": "0930022",
    "prefectureCode": "01",
    "prefectureNumber": 1,
    "prefecture": "北海道",
    "city": "網走市",
    "town": "南十二条西"
  },
  "0930023": {
    "zipcode": "0930023",
    "prefectureCode": "01",
    "prefectureNumber": 1,
    "prefecture": "北海道",
    "city": "網走市",
    "town": "南十三条西"
  },
  "0930024": {
    "zipcode": "0930024",
    "prefectureCode": "01",
    "prefectureNumber": 1,
    "prefecture": "北海道",
    "city": "網走市",
    "town": "南十四条西"
  },
  "0930031": {
    "zipcode": "0930031",
    "prefectureCode": "01",
    "prefectureNumber": 1,
    "prefecture": "北海道",
    "city": "網走市",
    "town": "台町"
  },
  "0930032": {
    "zipcode": "0930032",
    "prefectureCode": "01",
    "prefectureNumber": 1,
    "prefecture": "北海道",
    "city": "網走市",
    "town": "港町"
  },
  "0930033": {
    "zipcode": "0930033",
    "prefectureCode": "01",
    "prefectureNumber": 1,
    "prefecture": "北海道",
    "city": "網走市",
    "town": "駒場北"
  },
  "0930034": {
    "zipcode": "0930034",
    "prefectureCode": "01",
    "prefectureNumber": 1,
    "prefecture": "北海道",
    "city": "網走市",
    "town": "つくしケ丘"
  },
  "0930035": {
    "zipcode": "0930035",
    "prefectureCode": "01",
    "prefectureNumber": 1,
    "prefecture": "北海道",
    "city": "網走市",
    "town": "駒場南"
  },
  "0930041": {
    "zipcode": "0930041",
    "prefectureCode": "01",
    "prefectureNumber": 1,
    "prefecture": "北海道",
    "city": "網走市",
    "town": "桂町"
  },
  "0930042": {
    "zipcode": "0930042",
    "prefectureCode": "01",
    "prefectureNumber": 1,
    "prefecture": "北海道",
    "city": "網走市",
    "town": "潮見"
  },
  "0930043": {
    "zipcode": "0930043",
    "prefectureCode": "01",
    "prefectureNumber": 1,
    "prefecture": "北海道",
    "city": "網走市",
    "town": "錦町"
  },
  "0930044": {
    "zipcode": "0930044",
    "prefectureCode": "01",
    "prefectureNumber": 1,
    "prefecture": "北海道",
    "city": "網走市",
    "town": "天都山"
  },
  "0930045": {
    "zipcode": "0930045",
    "prefectureCode": "01",
    "prefectureNumber": 1,
    "prefecture": "北海道",
    "city": "網走市",
    "town": "大曲"
  },
  "0930046": {
    "zipcode": "0930046",
    "prefectureCode": "01",
    "prefectureNumber": 1,
    "prefecture": "北海道",
    "city": "網走市",
    "town": "新町"
  },
  "0930051": {
    "zipcode": "0930051",
    "prefectureCode": "01",
    "prefectureNumber": 1,
    "prefecture": "北海道",
    "city": "網走市",
    "town": "北一条東"
  },
  "0930052": {
    "zipcode": "0930052",
    "prefectureCode": "01",
    "prefectureNumber": 1,
    "prefecture": "北海道",
    "city": "網走市",
    "town": "北二条東"
  },
  "0930053": {
    "zipcode": "0930053",
    "prefectureCode": "01",
    "prefectureNumber": 1,
    "prefecture": "北海道",
    "city": "網走市",
    "town": "北三条東"
  },
  "0930054": {
    "zipcode": "0930054",
    "prefectureCode": "01",
    "prefectureNumber": 1,
    "prefecture": "北海道",
    "city": "網走市",
    "town": "北四条東"
  },
  "0930055": {
    "zipcode": "0930055",
    "prefectureCode": "01",
    "prefectureNumber": 1,
    "prefecture": "北海道",
    "city": "網走市",
    "town": "北五条東"
  },
  "0930056": {
    "zipcode": "0930056",
    "prefectureCode": "01",
    "prefectureNumber": 1,
    "prefecture": "北海道",
    "city": "網走市",
    "town": "北六条東"
  },
  "0930057": {
    "zipcode": "0930057",
    "prefectureCode": "01",
    "prefectureNumber": 1,
    "prefecture": "北海道",
    "city": "網走市",
    "town": "北七条東"
  },
  "0930058": {
    "zipcode": "0930058",
    "prefectureCode": "01",
    "prefectureNumber": 1,
    "prefecture": "北海道",
    "city": "網走市",
    "town": "北八条東"
  },
  "0930059": {
    "zipcode": "0930059",
    "prefectureCode": "01",
    "prefectureNumber": 1,
    "prefecture": "北海道",
    "city": "網走市",
    "town": "北九条東"
  },
  "0930060": {
    "zipcode": "0930060",
    "prefectureCode": "01",
    "prefectureNumber": 1,
    "prefecture": "北海道",
    "city": "網走市",
    "town": "北十条東"
  },
  "0930061": {
    "zipcode": "0930061",
    "prefectureCode": "01",
    "prefectureNumber": 1,
    "prefecture": "北海道",
    "city": "網走市",
    "town": "北十一条東"
  },
  "0930062": {
    "zipcode": "0930062",
    "prefectureCode": "01",
    "prefectureNumber": 1,
    "prefecture": "北海道",
    "city": "網走市",
    "town": "北十二条東"
  },
  "0930071": {
    "zipcode": "0930071",
    "prefectureCode": "01",
    "prefectureNumber": 1,
    "prefecture": "北海道",
    "city": "網走市",
    "town": "北一条西"
  },
  "0930072": {
    "zipcode": "0930072",
    "prefectureCode": "01",
    "prefectureNumber": 1,
    "prefecture": "北海道",
    "city": "網走市",
    "town": "北二条西"
  },
  "0930073": {
    "zipcode": "0930073",
    "prefectureCode": "01",
    "prefectureNumber": 1,
    "prefecture": "北海道",
    "city": "網走市",
    "town": "北三条西"
  },
  "0930074": {
    "zipcode": "0930074",
    "prefectureCode": "01",
    "prefectureNumber": 1,
    "prefecture": "北海道",
    "city": "網走市",
    "town": "北四条西"
  },
  "0930075": {
    "zipcode": "0930075",
    "prefectureCode": "01",
    "prefectureNumber": 1,
    "prefecture": "北海道",
    "city": "網走市",
    "town": "北五条西"
  },
  "0930076": {
    "zipcode": "0930076",
    "prefectureCode": "01",
    "prefectureNumber": 1,
    "prefecture": "北海道",
    "city": "網走市",
    "town": "北六条西"
  },
  "0930077": {
    "zipcode": "0930077",
    "prefectureCode": "01",
    "prefectureNumber": 1,
    "prefecture": "北海道",
    "city": "網走市",
    "town": "北七条西"
  },
  "0930078": {
    "zipcode": "0930078",
    "prefectureCode": "01",
    "prefectureNumber": 1,
    "prefecture": "北海道",
    "city": "網走市",
    "town": "北八条西"
  },
  "0930079": {
    "zipcode": "0930079",
    "prefectureCode": "01",
    "prefectureNumber": 1,
    "prefecture": "北海道",
    "city": "網走市",
    "town": "北九条西"
  },
  "0930080": {
    "zipcode": "0930080",
    "prefectureCode": "01",
    "prefectureNumber": 1,
    "prefecture": "北海道",
    "city": "網走市",
    "town": "北十条西"
  },
  "0930081": {
    "zipcode": "0930081",
    "prefectureCode": "01",
    "prefectureNumber": 1,
    "prefecture": "北海道",
    "city": "網走市",
    "town": "北十一条西"
  },
  "0930082": {
    "zipcode": "0930082",
    "prefectureCode": "01",
    "prefectureNumber": 1,
    "prefecture": "北海道",
    "city": "網走市",
    "town": "北十二条西"
  },
  "0930083": {
    "zipcode": "0930083",
    "prefectureCode": "01",
    "prefectureNumber": 1,
    "prefecture": "北海道",
    "city": "網走市",
    "town": "海岸町"
  },
  "0930084": {
    "zipcode": "0930084",
    "prefectureCode": "01",
    "prefectureNumber": 1,
    "prefecture": "北海道",
    "city": "網走市",
    "town": "向陽ケ丘"
  },
  "0930085": {
    "zipcode": "0930085",
    "prefectureCode": "01",
    "prefectureNumber": 1,
    "prefecture": "北海道",
    "city": "網走市",
    "town": "明治"
  },
  "0930086": {
    "zipcode": "0930086",
    "prefectureCode": "01",
    "prefectureNumber": 1,
    "prefecture": "北海道",
    "city": "網走市",
    "town": "二ツ岩"
  },
  "0930087": {
    "zipcode": "0930087",
    "prefectureCode": "01",
    "prefectureNumber": 1,
    "prefecture": "北海道",
    "city": "網走市",
    "town": "美岬"
  },
  "0930088": {
    "zipcode": "0930088",
    "prefectureCode": "01",
    "prefectureNumber": 1,
    "prefecture": "北海道",
    "city": "網走市",
    "town": "三眺"
  },
  "0930089": {
    "zipcode": "0930089",
    "prefectureCode": "01",
    "prefectureNumber": 1,
    "prefecture": "北海道",
    "city": "網走市",
    "town": "緑町"
  },
  "0930090": {
    "zipcode": "0930090",
    "prefectureCode": "01",
    "prefectureNumber": 1,
    "prefecture": "北海道",
    "city": "網走市",
    "town": "文化"
  },
  "0930131": {
    "zipcode": "0930131",
    "prefectureCode": "01",
    "prefectureNumber": 1,
    "prefecture": "北海道",
    "city": "網走市",
    "town": "能取港町"
  },
  "0930132": {
    "zipcode": "0930132",
    "prefectureCode": "01",
    "prefectureNumber": 1,
    "prefecture": "北海道",
    "city": "網走市",
    "town": "二見ケ岡"
  },
  "0930133": {
    "zipcode": "0930133",
    "prefectureCode": "01",
    "prefectureNumber": 1,
    "prefecture": "北海道",
    "city": "網走市",
    "town": "嘉多山"
  },
  "0930134": {
    "zipcode": "0930134",
    "prefectureCode": "01",
    "prefectureNumber": 1,
    "prefecture": "北海道",
    "city": "網走市",
    "town": "越歳"
  },
  "0930135": {
    "zipcode": "0930135",
    "prefectureCode": "01",
    "prefectureNumber": 1,
    "prefecture": "北海道",
    "city": "網走市",
    "town": "卯原内"
  },
  "0930136": {
    "zipcode": "0930136",
    "prefectureCode": "01",
    "prefectureNumber": 1,
    "prefecture": "北海道",
    "city": "網走市",
    "town": "平和"
  },
  "0930202": {
    "zipcode": "0930202",
    "prefectureCode": "01",
    "prefectureNumber": 1,
    "prefecture": "北海道",
    "city": "北見市",
    "town": "常呂町東浜"
  },
  "0930210": {
    "zipcode": "0930210",
    "prefectureCode": "01",
    "prefectureNumber": 1,
    "prefecture": "北海道",
    "city": "北見市",
    "town": "常呂町常呂"
  },
  "0930213": {
    "zipcode": "0930213",
    "prefectureCode": "01",
    "prefectureNumber": 1,
    "prefecture": "北海道",
    "city": "北見市",
    "town": "常呂町土佐"
  },
  "0930214": {
    "zipcode": "0930214",
    "prefectureCode": "01",
    "prefectureNumber": 1,
    "prefecture": "北海道",
    "city": "北見市",
    "town": "常呂町共立"
  },
  "0930215": {
    "zipcode": "0930215",
    "prefectureCode": "01",
    "prefectureNumber": 1,
    "prefecture": "北海道",
    "city": "北見市",
    "town": "常呂町岐阜"
  },
  "0930216": {
    "zipcode": "0930216",
    "prefectureCode": "01",
    "prefectureNumber": 1,
    "prefecture": "北海道",
    "city": "北見市",
    "town": "常呂町栄浦"
  },
  "0930241": {
    "zipcode": "0930241",
    "prefectureCode": "01",
    "prefectureNumber": 1,
    "prefecture": "北海道",
    "city": "網走市",
    "town": "能取"
  },
  "0930331": {
    "zipcode": "0930331",
    "prefectureCode": "01",
    "prefectureNumber": 1,
    "prefecture": "北海道",
    "city": "北見市",
    "town": "常呂町豊川"
  },
  "0930332": {
    "zipcode": "0930332",
    "prefectureCode": "01",
    "prefectureNumber": 1,
    "prefecture": "北海道",
    "city": "北見市",
    "town": "常呂町富丘"
  },
  "0930333": {
    "zipcode": "0930333",
    "prefectureCode": "01",
    "prefectureNumber": 1,
    "prefecture": "北海道",
    "city": "北見市",
    "town": "常呂町福山"
  },
  "0930334": {
    "zipcode": "0930334",
    "prefectureCode": "01",
    "prefectureNumber": 1,
    "prefecture": "北海道",
    "city": "北見市",
    "town": "常呂町日吉"
  },
  "0930335": {
    "zipcode": "0930335",
    "prefectureCode": "01",
    "prefectureNumber": 1,
    "prefecture": "北海道",
    "city": "北見市",
    "town": "常呂町吉野"
  },
  "0930336": {
    "zipcode": "0930336",
    "prefectureCode": "01",
    "prefectureNumber": 1,
    "prefecture": "北海道",
    "city": "北見市",
    "town": "常呂町登"
  },
  "0930421": {
    "zipcode": "0930421",
    "prefectureCode": "01",
    "prefectureNumber": 1,
    "prefecture": "北海道",
    "city": "常呂郡佐呂間町",
    "town": "浪速"
  },
  "0930422": {
    "zipcode": "0930422",
    "prefectureCode": "01",
    "prefectureNumber": 1,
    "prefecture": "北海道",
    "city": "常呂郡佐呂間町",
    "town": "幌岩"
  },
  "0930423": {
    "zipcode": "0930423",
    "prefectureCode": "01",
    "prefectureNumber": 1,
    "prefecture": "北海道",
    "city": "常呂郡佐呂間町",
    "town": "浜佐呂間"
  },
  "0930424": {
    "zipcode": "0930424",
    "prefectureCode": "01",
    "prefectureNumber": 1,
    "prefecture": "北海道",
    "city": "常呂郡佐呂間町",
    "town": "仁倉"
  },
  "0930500": {
    "zipcode": "0930500",
    "prefectureCode": "01",
    "prefectureNumber": 1,
    "prefecture": "北海道",
    "city": "常呂郡佐呂間町",
    "town": "以下に掲載がない場合"
  },
  "0930501": {
    "zipcode": "0930501",
    "prefectureCode": "01",
    "prefectureNumber": 1,
    "prefecture": "北海道",
    "city": "常呂郡佐呂間町",
    "town": "宮前町"
  },
  "0930502": {
    "zipcode": "0930502",
    "prefectureCode": "01",
    "prefectureNumber": 1,
    "prefecture": "北海道",
    "city": "常呂郡佐呂間町",
    "town": "永代町"
  },
  "0930503": {
    "zipcode": "0930503",
    "prefectureCode": "01",
    "prefectureNumber": 1,
    "prefecture": "北海道",
    "city": "常呂郡佐呂間町",
    "town": "幸町"
  },
  "0930504": {
    "zipcode": "0930504",
    "prefectureCode": "01",
    "prefectureNumber": 1,
    "prefecture": "北海道",
    "city": "常呂郡佐呂間町",
    "town": "西富"
  },
  "0930505": {
    "zipcode": "0930505",
    "prefectureCode": "01",
    "prefectureNumber": 1,
    "prefecture": "北海道",
    "city": "常呂郡佐呂間町",
    "town": "北"
  },
  "0930506": {
    "zipcode": "0930506",
    "prefectureCode": "01",
    "prefectureNumber": 1,
    "prefecture": "北海道",
    "city": "常呂郡佐呂間町",
    "town": "富武士"
  },
  "0930507": {
    "zipcode": "0930507",
    "prefectureCode": "01",
    "prefectureNumber": 1,
    "prefecture": "北海道",
    "city": "常呂郡佐呂間町",
    "town": "東"
  },
  "0930508": {
    "zipcode": "0930508",
    "prefectureCode": "01",
    "prefectureNumber": 1,
    "prefecture": "北海道",
    "city": "常呂郡佐呂間町",
    "town": "知来"
  },
  "0930532": {
    "zipcode": "0930532",
    "prefectureCode": "01",
    "prefectureNumber": 1,
    "prefecture": "北海道",
    "city": "常呂郡佐呂間町",
    "town": "若里"
  },
  "0930651": {
    "zipcode": "0930651",
    "prefectureCode": "01",
    "prefectureNumber": 1,
    "prefecture": "北海道",
    "city": "紋別郡湧別町",
    "town": "計呂地"
  },
  "0930652": {
    "zipcode": "0930652",
    "prefectureCode": "01",
    "prefectureNumber": 1,
    "prefecture": "北海道",
    "city": "紋別郡湧別町",
    "town": "志撫子"
  },
  "0930731": {
    "zipcode": "0930731",
    "prefectureCode": "01",
    "prefectureNumber": 1,
    "prefecture": "北海道",
    "city": "紋別郡湧別町",
    "town": "芭露"
  },
  "0930732": {
    "zipcode": "0930732",
    "prefectureCode": "01",
    "prefectureNumber": 1,
    "prefecture": "北海道",
    "city": "紋別郡湧別町",
    "town": "上芭露"
  },
  "0930733": {
    "zipcode": "0930733",
    "prefectureCode": "01",
    "prefectureNumber": 1,
    "prefecture": "北海道",
    "city": "紋別郡湧別町",
    "town": "西芭露"
  },
  "0930734": {
    "zipcode": "0930734",
    "prefectureCode": "01",
    "prefectureNumber": 1,
    "prefecture": "北海道",
    "city": "紋別郡湧別町",
    "town": "東芭露"
  },
  "0930735": {
    "zipcode": "0930735",
    "prefectureCode": "01",
    "prefectureNumber": 1,
    "prefecture": "北海道",
    "city": "紋別郡湧別町",
    "town": "福島（５３６番地）"
  }
}
