{
  "0940000": {
    "zipcode": "0940000",
    "prefectureCode": "01",
    "prefectureNumber": 1,
    "prefecture": "北海道",
    "city": "紋別市",
    "town": "以下に掲載がない場合"
  },
  "0940001": {
    "zipcode": "0940001",
    "prefectureCode": "01",
    "prefectureNumber": 1,
    "prefecture": "北海道",
    "city": "紋別市",
    "town": "北浜町"
  },
  "0940002": {
    "zipcode": "0940002",
    "prefectureCode": "01",
    "prefectureNumber": 1,
    "prefecture": "北海道",
    "city": "紋別市",
    "town": "真砂町"
  },
  "0940003": {
    "zipcode": "0940003",
    "prefectureCode": "01",
    "prefectureNumber": 1,
    "prefecture": "北海道",
    "city": "紋別市",
    "town": "弁天町"
  },
  "0940004": {
    "zipcode": "0940004",
    "prefectureCode": "01",
    "prefectureNumber": 1,
    "prefecture": "北海道",
    "city": "紋別市",
    "town": "本町"
  },
  "0940005": {
    "zipcode": "0940005",
    "prefectureCode": "01",
    "prefectureNumber": 1,
    "prefecture": "北海道",
    "city": "紋別市",
    "town": "幸町"
  },
  "0940006": {
    "zipcode": "0940006",
    "prefectureCode": "01",
    "prefectureNumber": 1,
    "prefecture": "北海道",
    "city": "紋別市",
    "town": "潮見町"
  },
  "0940007": {
    "zipcode": "0940007",
    "prefectureCode": "01",
    "prefectureNumber": 1,
    "prefecture": "北海道",
    "city": "紋別市",
    "town": "落石町"
  },
  "0940011": {
    "zipcode": "0940011",
    "prefectureCode": "01",
    "prefectureNumber": 1,
    "prefecture": "北海道",
    "city": "紋別市",
    "town": "港町"
  },
  "0940012": {
    "zipcode": "0940012",
    "prefectureCode": "01",
    "prefectureNumber": 1,
    "prefecture": "北海道",
    "city": "紋別市",
    "town": "新港町"
  },
  "0940013": {
    "zipcode": "0940013",
    "prefectureCode": "01",
    "prefectureNumber": 1,
    "prefecture": "北海道",
    "city": "紋別市",
    "town": "南が丘町"
  },
  "0940014": {
    "zipcode": "0940014",
    "prefectureCode": "01",
    "prefectureNumber": 1,
    "prefecture": "北海道",
    "city": "紋別市",
    "town": "緑町"
  },
  "0940015": {
    "zipcode": "0940015",
    "prefectureCode": "01",
    "prefectureNumber": 1,
    "prefecture": "北海道",
    "city": "紋別市",
    "town": "花園町"
  },
  "0940021": {
    "zipcode": "0940021",
    "prefectureCode": "01",
    "prefectureNumber": 1,
    "prefecture": "北海道",
    "city": "紋別市",
    "town": "大山町"
  },
  "0940022": {
    "zipcode": "0940022",
    "prefectureCode": "01",
    "prefectureNumber": 1,
    "prefecture": "北海道",
    "city": "紋別市",
    "town": "新生"
  },
  "0940023": {
    "zipcode": "0940023",
    "prefectureCode": "01",
    "prefectureNumber": 1,
    "prefecture": "北海道",
    "city": "紋別市",
    "town": "元紋別"
  },
  "0940024": {
    "zipcode": "0940024",
    "prefectureCode": "01",
    "prefectureNumber": 1,
    "prefecture": "北海道",
    "city": "紋別市",
    "town": "藻別"
  },
  "0940025": {
    "zipcode": "0940025",
    "prefectureCode": "01",
    "prefectureNumber": 1,
    "prefecture": "北海道",
    "city": "紋別市",
    "town": "上藻別"
  },
  "0940026": {
    "zipcode": "0940026",
    "prefectureCode": "01",
    "prefectureNumber": 1,
    "prefecture": "北海道",
    "city": "紋別市",
    "town": "鴻之舞"
  },
  "0940027": {
    "zipcode": "0940027",
    "prefectureCode": "01",
    "prefectureNumber": 1,
    "prefecture": "北海道",
    "city": "紋別市",
    "town": "上鴻之舞"
  },
  "0940031": {
    "zipcode": "0940031",
    "prefectureCode": "01",
    "prefectureNumber": 1,
    "prefecture": "北海道",
    "city": "紋別市",
    "town": "海洋公園"
  }
}
