{
  "0950000": {
    "zipcode": "0950000",
    "prefectureCode": "01",
    "prefectureNumber": 1,
    "prefecture": "北海道",
    "city": "士別市",
    "town": "以下に掲載がない場合"
  },
  "0950001": {
    "zipcode": "0950001",
    "prefectureCode": "01",
    "prefectureNumber": 1,
    "prefecture": "北海道",
    "city": "士別市",
    "town": "東一条北"
  },
  "0950002": {
    "zipcode": "0950002",
    "prefectureCode": "01",
    "prefectureNumber": 1,
    "prefecture": "北海道",
    "city": "士別市",
    "town": "東二条北"
  },
  "0950003": {
    "zipcode": "0950003",
    "prefectureCode": "01",
    "prefectureNumber": 1,
    "prefecture": "北海道",
    "city": "士別市",
    "town": "東三条北"
  },
  "0950004": {
    "zipcode": "0950004",
    "prefectureCode": "01",
    "prefectureNumber": 1,
    "prefecture": "北海道",
    "city": "士別市",
    "town": "東四条北"
  },
  "0950005": {
    "zipcode": "0950005",
    "prefectureCode": "01",
    "prefectureNumber": 1,
    "prefecture": "北海道",
    "city": "士別市",
    "town": "東五条北"
  },
  "0950006": {
    "zipcode": "0950006",
    "prefectureCode": "01",
    "prefectureNumber": 1,
    "prefecture": "北海道",
    "city": "士別市",
    "town": "東六条北"
  },
  "0950007": {
    "zipcode": "0950007",
    "prefectureCode": "01",
    "prefectureNumber": 1,
    "prefecture": "北海道",
    "city": "士別市",
    "town": "東七条北"
  },
  "0950008": {
    "zipcode": "0950008",
    "prefectureCode": "01",
    "prefectureNumber": 1,
    "prefecture": "北海道",
    "city": "士別市",
    "town": "東八条北"
  },
  "0950011": {
    "zipcode": "0950011",
    "prefectureCode": "01",
    "prefectureNumber": 1,
    "prefecture": "北海道",
    "city": "士別市",
    "town": "東一条"
  },
  "0950012": {
    "zipcode": "0950012",
    "prefectureCode": "01",
    "prefectureNumber": 1,
    "prefecture": "北海道",
    "city": "士別市",
    "town": "東二条"
  },
  "0950013": {
    "zipcode": "0950013",
    "prefectureCode": "01",
    "prefectureNumber": 1,
    "prefecture": "北海道",
    "city": "士別市",
    "town": "東三条"
  },
  "0950014": {
    "zipcode": "0950014",
    "prefectureCode": "01",
    "prefectureNumber": 1,
    "prefecture": "北海道",
    "city": "士別市",
    "town": "東四条"
  },
  "0950015": {
    "zipcode": "0950015",
    "prefectureCode": "01",
    "prefectureNumber": 1,
    "prefecture": "北海道",
    "city": "士別市",
    "town": "東五条"
  },
  "0950016": {
    "zipcode": "0950016",
    "prefectureCode": "01",
    "prefectureNumber": 1,
    "prefecture": "北海道",
    "city": "士別市",
    "town": "東六条"
  },
  "0950017": {
    "zipcode": "0950017",
    "prefectureCode": "01",
    "prefectureNumber": 1,
    "prefecture": "北海道",
    "city": "士別市",
    "town": "東七条"
  },
  "0950018": {
    "zipcode": "0950018",
    "prefectureCode": "01",
    "prefectureNumber": 1,
    "prefecture": "北海道",
    "city": "士別市",
    "town": "東八条"
  },
  "0950019": {
    "zipcode": "0950019",
    "prefectureCode": "01",
    "prefectureNumber": 1,
    "prefecture": "北海道",
    "city": "士別市",
    "town": "大通東"
  },
  "0950021": {
    "zipcode": "0950021",
    "prefectureCode": "01",
    "prefectureNumber": 1,
    "prefecture": "北海道",
    "city": "士別市",
    "town": "西一条"
  },
  "0950022": {
    "zipcode": "0950022",
    "prefectureCode": "01",
    "prefectureNumber": 1,
    "prefecture": "北海道",
    "city": "士別市",
    "town": "西二条"
  },
  "0950023": {
    "zipcode": "0950023",
    "prefectureCode": "01",
    "prefectureNumber": 1,
    "prefecture": "北海道",
    "city": "士別市",
    "town": "西三条"
  },
  "0950024": {
    "zipcode": "0950024",
    "prefectureCode": "01",
    "prefectureNumber": 1,
    "prefecture": "北海道",
    "city": "士別市",
    "town": "西四条"
  },
  "0950025": {
    "zipcode": "0950025",
    "prefectureCode": "01",
    "prefectureNumber": 1,
    "prefecture": "北海道",
    "city": "士別市",
    "town": "西五条"
  },
  "0950029": {
    "zipcode": "0950029",
    "prefectureCode": "01",
    "prefectureNumber": 1,
    "prefecture": "北海道",
    "city": "士別市",
    "town": "大通西"
  },
  "0950031": {
    "zipcode": "0950031",
    "prefectureCode": "01",
    "prefectureNumber": 1,
    "prefecture": "北海道",
    "city": "士別市",
    "town": "西一条北"
  },
  "0950032": {
    "zipcode": "0950032",
    "prefectureCode": "01",
    "prefectureNumber": 1,
    "prefecture": "北海道",
    "city": "士別市",
    "town": "西二条北"
  },
  "0950033": {
    "zipcode": "0950033",
    "prefectureCode": "01",
    "prefectureNumber": 1,
    "prefecture": "北海道",
    "city": "士別市",
    "town": "西三条北"
  },
  "0950034": {
    "zipcode": "0950034",
    "prefectureCode": "01",
    "prefectureNumber": 1,
    "prefecture": "北海道",
    "city": "士別市",
    "town": "西四条北"
  },
  "0950035": {
    "zipcode": "0950035",
    "prefectureCode": "01",
    "prefectureNumber": 1,
    "prefecture": "北海道",
    "city": "士別市",
    "town": "西五条北"
  },
  "0950039": {
    "zipcode": "0950039",
    "prefectureCode": "01",
    "prefectureNumber": 1,
    "prefecture": "北海道",
    "city": "士別市",
    "town": "大通北"
  },
  "0950041": {
    "zipcode": "0950041",
    "prefectureCode": "01",
    "prefectureNumber": 1,
    "prefecture": "北海道",
    "city": "士別市",
    "town": "東九条"
  },
  "0950042": {
    "zipcode": "0950042",
    "prefectureCode": "01",
    "prefectureNumber": 1,
    "prefecture": "北海道",
    "city": "士別市",
    "town": "東十条"
  },
  "0950043": {
    "zipcode": "0950043",
    "prefectureCode": "01",
    "prefectureNumber": 1,
    "prefecture": "北海道",
    "city": "士別市",
    "town": "九十九町"
  },
  "0950044": {
    "zipcode": "0950044",
    "prefectureCode": "01",
    "prefectureNumber": 1,
    "prefecture": "北海道",
    "city": "士別市",
    "town": "東山町"
  },
  "0950045": {
    "zipcode": "0950045",
    "prefectureCode": "01",
    "prefectureNumber": 1,
    "prefecture": "北海道",
    "city": "士別市",
    "town": "東丘"
  },
  "0950046": {
    "zipcode": "0950046",
    "prefectureCode": "01",
    "prefectureNumber": 1,
    "prefecture": "北海道",
    "city": "士別市",
    "town": "南町東"
  },
  "0950047": {
    "zipcode": "0950047",
    "prefectureCode": "01",
    "prefectureNumber": 1,
    "prefecture": "北海道",
    "city": "士別市",
    "town": "南町西"
  },
  "0950048": {
    "zipcode": "0950048",
    "prefectureCode": "01",
    "prefectureNumber": 1,
    "prefecture": "北海道",
    "city": "士別市",
    "town": "東十一条"
  },
  "0950051": {
    "zipcode": "0950051",
    "prefectureCode": "01",
    "prefectureNumber": 1,
    "prefecture": "北海道",
    "city": "士別市",
    "town": "北町"
  },
  "0950052": {
    "zipcode": "0950052",
    "prefectureCode": "01",
    "prefectureNumber": 1,
    "prefecture": "北海道",
    "city": "士別市",
    "town": "学田"
  },
  "0950053": {
    "zipcode": "0950053",
    "prefectureCode": "01",
    "prefectureNumber": 1,
    "prefecture": "北海道",
    "city": "士別市",
    "town": "新学田"
  },
  "0950054": {
    "zipcode": "0950054",
    "prefectureCode": "01",
    "prefectureNumber": 1,
    "prefecture": "北海道",
    "city": "士別市",
    "town": "不動町"
  },
  "0950055": {
    "zipcode": "0950055",
    "prefectureCode": "01",
    "prefectureNumber": 1,
    "prefecture": "北海道",
    "city": "士別市",
    "town": "南士別町"
  },
  "0950056": {
    "zipcode": "0950056",
    "prefectureCode": "01",
    "prefectureNumber": 1,
    "prefecture": "北海道",
    "city": "士別市",
    "town": "西士別町"
  },
  "0950061": {
    "zipcode": "0950061",
    "prefectureCode": "01",
    "prefectureNumber": 1,
    "prefecture": "北海道",
    "city": "士別市",
    "town": "下士別町"
  },
  "0950062": {
    "zipcode": "0950062",
    "prefectureCode": "01",
    "prefectureNumber": 1,
    "prefecture": "北海道",
    "city": "士別市",
    "town": "武徳町"
  },
  "0950063": {
    "zipcode": "0950063",
    "prefectureCode": "01",
    "prefectureNumber": 1,
    "prefecture": "北海道",
    "city": "士別市",
    "town": "中士別町"
  },
  "0950064": {
    "zipcode": "0950064",
    "prefectureCode": "01",
    "prefectureNumber": 1,
    "prefecture": "北海道",
    "city": "士別市",
    "town": "川西町"
  },
  "0950181": {
    "zipcode": "0950181",
    "prefectureCode": "01",
    "prefectureNumber": 1,
    "prefecture": "北海道",
    "city": "士別市",
    "town": "温根別町"
  },
  "0950182": {
    "zipcode": "0950182",
    "prefectureCode": "01",
    "prefectureNumber": 1,
    "prefecture": "北海道",
    "city": "士別市",
    "town": "温根別町伊文"
  },
  "0950183": {
    "zipcode": "0950183",
    "prefectureCode": "01",
    "prefectureNumber": 1,
    "prefecture": "北海道",
    "city": "士別市",
    "town": "温根別町北静川"
  },
  "0950371": {
    "zipcode": "0950371",
    "prefectureCode": "01",
    "prefectureNumber": 1,
    "prefecture": "北海道",
    "city": "士別市",
    "town": "上士別町"
  },
  "0950401": {
    "zipcode": "0950401",
    "prefectureCode": "01",
    "prefectureNumber": 1,
    "prefecture": "北海道",
    "city": "士別市",
    "town": "朝日町中央"
  },
  "0950402": {
    "zipcode": "0950402",
    "prefectureCode": "01",
    "prefectureNumber": 1,
    "prefecture": "北海道",
    "city": "士別市",
    "town": "朝日町登和里"
  },
  "0950403": {
    "zipcode": "0950403",
    "prefectureCode": "01",
    "prefectureNumber": 1,
    "prefecture": "北海道",
    "city": "士別市",
    "town": "朝日町岩尾内"
  },
  "0950404": {
    "zipcode": "0950404",
    "prefectureCode": "01",
    "prefectureNumber": 1,
    "prefecture": "北海道",
    "city": "士別市",
    "town": "朝日町茂志利"
  },
  "0950405": {
    "zipcode": "0950405",
    "prefectureCode": "01",
    "prefectureNumber": 1,
    "prefecture": "北海道",
    "city": "士別市",
    "town": "朝日町三栄"
  },
  "0950406": {
    "zipcode": "0950406",
    "prefectureCode": "01",
    "prefectureNumber": 1,
    "prefecture": "北海道",
    "city": "士別市",
    "town": "朝日町南朝日"
  }
}
