{
  "0960000": {
    "zipcode": "0960000",
    "prefectureCode": "01",
    "prefectureNumber": 1,
    "prefecture": "北海道",
    "city": "名寄市",
    "town": "以下に掲載がない場合"
  },
  "0960001": {
    "zipcode": "0960001",
    "prefectureCode": "01",
    "prefectureNumber": 1,
    "prefecture": "北海道",
    "city": "名寄市",
    "town": "東一条南"
  },
  "0960002": {
    "zipcode": "0960002",
    "prefectureCode": "01",
    "prefectureNumber": 1,
    "prefecture": "北海道",
    "city": "名寄市",
    "town": "東二条南"
  },
  "0960003": {
    "zipcode": "0960003",
    "prefectureCode": "01",
    "prefectureNumber": 1,
    "prefecture": "北海道",
    "city": "名寄市",
    "town": "東三条南"
  },
  "0960004": {
    "zipcode": "0960004",
    "prefectureCode": "01",
    "prefectureNumber": 1,
    "prefecture": "北海道",
    "city": "名寄市",
    "town": "東四条南"
  },
  "0960005": {
    "zipcode": "0960005",
    "prefectureCode": "01",
    "prefectureNumber": 1,
    "prefecture": "北海道",
    "city": "名寄市",
    "town": "東五条南"
  },
  "0960006": {
    "zipcode": "0960006",
    "prefectureCode": "01",
    "prefectureNumber": 1,
    "prefecture": "北海道",
    "city": "名寄市",
    "town": "東六条南"
  },
  "0960007": {
    "zipcode": "0960007",
    "prefectureCode": "01",
    "prefectureNumber": 1,
    "prefecture": "北海道",
    "city": "名寄市",
    "town": "東七条南"
  },
  "0960008": {
    "zipcode": "0960008",
    "prefectureCode": "01",
    "prefectureNumber": 1,
    "prefecture": "北海道",
    "city": "名寄市",
    "town": "東八条南"
  },
  "0960009": {
    "zipcode": "0960009",
    "prefectureCode": "01",
    "prefectureNumber": 1,
    "prefecture": "北海道",
    "city": "名寄市",
    "town": "東九条南"
  },
  "0960010": {
    "zipcode": "0960010",
    "prefectureCode": "01",
    "prefectureNumber": 1,
    "prefecture": "北海道",
    "city": "名寄市",
    "town": "大通南"
  },
  "0960011": {
    "zipcode": "0960011",
    "prefectureCode": "01",
    "prefectureNumber": 1,
    "prefecture": "北海道",
    "city": "名寄市",
    "town": "西一条南"
  },
  "0960012": {
    "zipcode": "0960012",
    "prefectureCode": "01",
    "prefectureNumber": 1,
    "prefecture": "北海道",
    "city": "名寄市",
    "town": "西二条南"
  },
  "0960013": {
    "zipcode": "0960013",
    "prefectureCode": "01",
    "prefectureNumber": 1,
    "prefecture": "北海道",
    "city": "名寄市",
    "town": "西三条南"
  },
  "0960014": {
    "zipcode": "0960014",
    "prefectureCode": "01",
    "prefectureNumber": 1,
    "prefecture": "北海道",
    "city": "名寄市",
    "town": "西四条南"
  },
  "0960015": {
    "zipcode": "0960015",
    "prefectureCode": "01",
    "prefectureNumber": 1,
    "prefecture": "北海道",
    "city": "名寄市",
    "town": "西五条南"
  },
  "0960016": {
    "zipcode": "0960016",
    "prefectureCode": "01",
    "prefectureNumber": 1,
    "prefecture": "北海道",
    "city": "名寄市",
    "town": "西六条南"
  },
  "0960017": {
    "zipcode": "0960017",
    "prefectureCode": "01",
    "prefectureNumber": 1,
    "prefecture": "北海道",
    "city": "名寄市",
    "town": "西七条南"
  },
  "0960018": {
    "zipcode": "0960018",
    "prefectureCode": "01",
    "prefectureNumber": 1,
    "prefecture": "北海道",
    "city": "名寄市",
    "town": "西八条南"
  },
  "0960019": {
    "zipcode": "0960019",
    "prefectureCode": "01",
    "prefectureNumber": 1,
    "prefecture": "北海道",
    "city": "名寄市",
    "town": "西九条南"
  },
  "0960020": {
    "zipcode": "0960020",
    "prefectureCode": "01",
    "prefectureNumber": 1,
    "prefecture": "北海道",
    "city": "名寄市",
    "town": "西十条南"
  },
  "0960021": {
    "zipcode": "0960021",
    "prefectureCode": "01",
    "prefectureNumber": 1,
    "prefecture": "北海道",
    "city": "名寄市",
    "town": "西十一条南"
  },
  "0960022": {
    "zipcode": "0960022",
    "prefectureCode": "01",
    "prefectureNumber": 1,
    "prefecture": "北海道",
    "city": "名寄市",
    "town": "西十二条南"
  },
  "0960023": {
    "zipcode": "0960023",
    "prefectureCode": "01",
    "prefectureNumber": 1,
    "prefecture": "北海道",
    "city": "名寄市",
    "town": "西十三条南"
  },
  "0960024": {
    "zipcode": "0960024",
    "prefectureCode": "01",
    "prefectureNumber": 1,
    "prefecture": "北海道",
    "city": "名寄市",
    "town": "西十四条南"
  },
  "0960025": {
    "zipcode": "0960025",
    "prefectureCode": "01",
    "prefectureNumber": 1,
    "prefecture": "北海道",
    "city": "名寄市",
    "town": "西十五条南"
  },
  "0960030": {
    "zipcode": "0960030",
    "prefectureCode": "01",
    "prefectureNumber": 1,
    "prefecture": "北海道",
    "city": "名寄市",
    "town": "大通北"
  },
  "0960031": {
    "zipcode": "0960031",
    "prefectureCode": "01",
    "prefectureNumber": 1,
    "prefecture": "北海道",
    "city": "名寄市",
    "town": "西一条北"
  },
  "0960032": {
    "zipcode": "0960032",
    "prefectureCode": "01",
    "prefectureNumber": 1,
    "prefecture": "北海道",
    "city": "名寄市",
    "town": "西二条北"
  },
  "0960033": {
    "zipcode": "0960033",
    "prefectureCode": "01",
    "prefectureNumber": 1,
    "prefecture": "北海道",
    "city": "名寄市",
    "town": "西三条北"
  },
  "0960034": {
    "zipcode": "0960034",
    "prefectureCode": "01",
    "prefectureNumber": 1,
    "prefecture": "北海道",
    "city": "名寄市",
    "town": "西四条北"
  },
  "0960035": {
    "zipcode": "0960035",
    "prefectureCode": "01",
    "prefectureNumber": 1,
    "prefecture": "北海道",
    "city": "名寄市",
    "town": "西五条北"
  },
  "0960036": {
    "zipcode": "0960036",
    "prefectureCode": "01",
    "prefectureNumber": 1,
    "prefecture": "北海道",
    "city": "名寄市",
    "town": "西六条北"
  },
  "0960037": {
    "zipcode": "0960037",
    "prefectureCode": "01",
    "prefectureNumber": 1,
    "prefecture": "北海道",
    "city": "名寄市",
    "town": "西七条北"
  },
  "0960038": {
    "zipcode": "0960038",
    "prefectureCode": "01",
    "prefectureNumber": 1,
    "prefecture": "北海道",
    "city": "名寄市",
    "town": "西八条北"
  },
  "0960039": {
    "zipcode": "0960039",
    "prefectureCode": "01",
    "prefectureNumber": 1,
    "prefecture": "北海道",
    "city": "名寄市",
    "town": "西九条北"
  },
  "0960040": {
    "zipcode": "0960040",
    "prefectureCode": "01",
    "prefectureNumber": 1,
    "prefecture": "北海道",
    "city": "名寄市",
    "town": "西十条北"
  },
  "0960041": {
    "zipcode": "0960041",
    "prefectureCode": "01",
    "prefectureNumber": 1,
    "prefecture": "北海道",
    "city": "名寄市",
    "town": "西十一条北"
  },
  "0960042": {
    "zipcode": "0960042",
    "prefectureCode": "01",
    "prefectureNumber": 1,
    "prefecture": "北海道",
    "city": "名寄市",
    "town": "西十二条北"
  },
  "0960043": {
    "zipcode": "0960043",
    "prefectureCode": "01",
    "prefectureNumber": 1,
    "prefecture": "北海道",
    "city": "名寄市",
    "town": "西十三条北"
  },
  "0960051": {
    "zipcode": "0960051",
    "prefectureCode": "01",
    "prefectureNumber": 1,
    "prefecture": "北海道",
    "city": "名寄市",
    "town": "東一条北"
  },
  "0960052": {
    "zipcode": "0960052",
    "prefectureCode": "01",
    "prefectureNumber": 1,
    "prefecture": "北海道",
    "city": "名寄市",
    "town": "東二条北"
  },
  "0960053": {
    "zipcode": "0960053",
    "prefectureCode": "01",
    "prefectureNumber": 1,
    "prefecture": "北海道",
    "city": "名寄市",
    "town": "東三条北"
  },
  "0960054": {
    "zipcode": "0960054",
    "prefectureCode": "01",
    "prefectureNumber": 1,
    "prefecture": "北海道",
    "city": "名寄市",
    "town": "東四条北"
  },
  "0960055": {
    "zipcode": "0960055",
    "prefectureCode": "01",
    "prefectureNumber": 1,
    "prefecture": "北海道",
    "city": "名寄市",
    "town": "東五条北"
  },
  "0960056": {
    "zipcode": "0960056",
    "prefectureCode": "01",
    "prefectureNumber": 1,
    "prefecture": "北海道",
    "city": "名寄市",
    "town": "東六条北"
  },
  "0960061": {
    "zipcode": "0960061",
    "prefectureCode": "01",
    "prefectureNumber": 1,
    "prefecture": "北海道",
    "city": "名寄市",
    "town": "朝日"
  },
  "0960062": {
    "zipcode": "0960062",
    "prefectureCode": "01",
    "prefectureNumber": 1,
    "prefecture": "北海道",
    "city": "名寄市",
    "town": "日彰"
  },
  "0960063": {
    "zipcode": "0960063",
    "prefectureCode": "01",
    "prefectureNumber": 1,
    "prefecture": "北海道",
    "city": "名寄市",
    "town": "緑丘"
  },
  "0960064": {
    "zipcode": "0960064",
    "prefectureCode": "01",
    "prefectureNumber": 1,
    "prefecture": "北海道",
    "city": "名寄市",
    "town": "旭東"
  },
  "0960065": {
    "zipcode": "0960065",
    "prefectureCode": "01",
    "prefectureNumber": 1,
    "prefecture": "北海道",
    "city": "名寄市",
    "town": "大橋"
  },
  "0960066": {
    "zipcode": "0960066",
    "prefectureCode": "01",
    "prefectureNumber": 1,
    "prefecture": "北海道",
    "city": "名寄市",
    "town": "日進"
  },
  "0960071": {
    "zipcode": "0960071",
    "prefectureCode": "01",
    "prefectureNumber": 1,
    "prefecture": "北海道",
    "city": "名寄市",
    "town": "徳田"
  },
  "0960072": {
    "zipcode": "0960072",
    "prefectureCode": "01",
    "prefectureNumber": 1,
    "prefecture": "北海道",
    "city": "名寄市",
    "town": "豊栄"
  },
  "0960073": {
    "zipcode": "0960073",
    "prefectureCode": "01",
    "prefectureNumber": 1,
    "prefecture": "北海道",
    "city": "名寄市",
    "town": "共和"
  },
  "0960074": {
    "zipcode": "0960074",
    "prefectureCode": "01",
    "prefectureNumber": 1,
    "prefecture": "北海道",
    "city": "名寄市",
    "town": "弥生"
  },
  "0960075": {
    "zipcode": "0960075",
    "prefectureCode": "01",
    "prefectureNumber": 1,
    "prefecture": "北海道",
    "city": "名寄市",
    "town": "曙"
  },
  "0960076": {
    "zipcode": "0960076",
    "prefectureCode": "01",
    "prefectureNumber": 1,
    "prefecture": "北海道",
    "city": "名寄市",
    "town": "砺波"
  },
  "0960077": {
    "zipcode": "0960077",
    "prefectureCode": "01",
    "prefectureNumber": 1,
    "prefecture": "北海道",
    "city": "名寄市",
    "town": "瑞穂"
  },
  "0960078": {
    "zipcode": "0960078",
    "prefectureCode": "01",
    "prefectureNumber": 1,
    "prefecture": "北海道",
    "city": "名寄市",
    "town": "内淵"
  }
}
