{
  "0970000": {
    "zipcode": "0970000",
    "prefectureCode": "01",
    "prefectureNumber": 1,
    "prefecture": "北海道",
    "city": "稚内市",
    "town": "以下に掲載がない場合"
  },
  "0970001": {
    "zipcode": "0970001",
    "prefectureCode": "01",
    "prefectureNumber": 1,
    "prefecture": "北海道",
    "city": "稚内市",
    "town": "末広"
  },
  "0970002": {
    "zipcode": "0970002",
    "prefectureCode": "01",
    "prefectureNumber": 1,
    "prefecture": "北海道",
    "city": "稚内市",
    "town": "潮見"
  },
  "0970003": {
    "zipcode": "0970003",
    "prefectureCode": "01",
    "prefectureNumber": 1,
    "prefecture": "北海道",
    "city": "稚内市",
    "town": "こまどり"
  },
  "0970004": {
    "zipcode": "0970004",
    "prefectureCode": "01",
    "prefectureNumber": 1,
    "prefecture": "北海道",
    "city": "稚内市",
    "town": "緑"
  },
  "0970005": {
    "zipcode": "0970005",
    "prefectureCode": "01",
    "prefectureNumber": 1,
    "prefecture": "北海道",
    "city": "稚内市",
    "town": "大黒"
  },
  "0970006": {
    "zipcode": "0970006",
    "prefectureCode": "01",
    "prefectureNumber": 1,
    "prefecture": "北海道",
    "city": "稚内市",
    "town": "新港町"
  },
  "0970007": {
    "zipcode": "0970007",
    "prefectureCode": "01",
    "prefectureNumber": 1,
    "prefecture": "北海道",
    "city": "稚内市",
    "town": "新末広"
  },
  "0970011": {
    "zipcode": "0970011",
    "prefectureCode": "01",
    "prefectureNumber": 1,
    "prefecture": "北海道",
    "city": "稚内市",
    "town": "はまなす"
  },
  "0970012": {
    "zipcode": "0970012",
    "prefectureCode": "01",
    "prefectureNumber": 1,
    "prefecture": "北海道",
    "city": "稚内市",
    "town": "富岡"
  },
  "0970013": {
    "zipcode": "0970013",
    "prefectureCode": "01",
    "prefectureNumber": 1,
    "prefecture": "北海道",
    "city": "稚内市",
    "town": "若葉台"
  },
  "0970014": {
    "zipcode": "0970014",
    "prefectureCode": "01",
    "prefectureNumber": 1,
    "prefecture": "北海道",
    "city": "稚内市",
    "town": "新光町"
  },
  "0970015": {
    "zipcode": "0970015",
    "prefectureCode": "01",
    "prefectureNumber": 1,
    "prefecture": "北海道",
    "city": "稚内市",
    "town": "朝日"
  },
  "0970016": {
    "zipcode": "0970016",
    "prefectureCode": "01",
    "prefectureNumber": 1,
    "prefecture": "北海道",
    "city": "稚内市",
    "town": "萩見"
  },
  "0970017": {
    "zipcode": "0970017",
    "prefectureCode": "01",
    "prefectureNumber": 1,
    "prefecture": "北海道",
    "city": "稚内市",
    "town": "栄"
  },
  "0970021": {
    "zipcode": "0970021",
    "prefectureCode": "01",
    "prefectureNumber": 1,
    "prefecture": "北海道",
    "city": "稚内市",
    "town": "港"
  },
  "0970022": {
    "zipcode": "0970022",
    "prefectureCode": "01",
    "prefectureNumber": 1,
    "prefecture": "北海道",
    "city": "稚内市",
    "town": "中央"
  },
  "0970023": {
    "zipcode": "0970023",
    "prefectureCode": "01",
    "prefectureNumber": 1,
    "prefecture": "北海道",
    "city": "稚内市",
    "town": "開運"
  },
  "0970024": {
    "zipcode": "0970024",
    "prefectureCode": "01",
    "prefectureNumber": 1,
    "prefecture": "北海道",
    "city": "稚内市",
    "town": "宝来"
  },
  "0970025": {
    "zipcode": "0970025",
    "prefectureCode": "01",
    "prefectureNumber": 1,
    "prefecture": "北海道",
    "city": "稚内市",
    "town": "恵比須"
  },
  "0970026": {
    "zipcode": "0970026",
    "prefectureCode": "01",
    "prefectureNumber": 1,
    "prefecture": "北海道",
    "city": "稚内市",
    "town": "ノシャップ"
  },
  "0970027": {
    "zipcode": "0970027",
    "prefectureCode": "01",
    "prefectureNumber": 1,
    "prefecture": "北海道",
    "city": "稚内市",
    "town": "富士見"
  },
  "0970035": {
    "zipcode": "0970035",
    "prefectureCode": "01",
    "prefectureNumber": 1,
    "prefecture": "北海道",
    "city": "稚内市",
    "town": "抜海村（バッカイ）"
  },
  "0970036": {
    "zipcode": "0970036",
    "prefectureCode": "01",
    "prefectureNumber": 1,
    "prefecture": "北海道",
    "city": "稚内市",
    "town": "抜海村（クトネベツ）"
  },
  "0970037": {
    "zipcode": "0970037",
    "prefectureCode": "01",
    "prefectureNumber": 1,
    "prefecture": "北海道",
    "city": "稚内市",
    "town": "西浜"
  },
  "0970100": {
    "zipcode": "0970100",
    "prefectureCode": "01",
    "prefectureNumber": 1,
    "prefecture": "北海道",
    "city": "利尻郡利尻富士町",
    "town": "以下に掲載がない場合"
  },
  "0970101": {
    "zipcode": "0970101",
    "prefectureCode": "01",
    "prefectureNumber": 1,
    "prefecture": "北海道",
    "city": "利尻郡利尻富士町",
    "town": "鴛泊"
  },
  "0970211": {
    "zipcode": "0970211",
    "prefectureCode": "01",
    "prefectureNumber": 1,
    "prefecture": "北海道",
    "city": "利尻郡利尻富士町",
    "town": "鬼脇"
  },
  "0970311": {
    "zipcode": "0970311",
    "prefectureCode": "01",
    "prefectureNumber": 1,
    "prefecture": "北海道",
    "city": "利尻郡利尻町",
    "town": "仙法志"
  },
  "0970400": {
    "zipcode": "0970400",
    "prefectureCode": "01",
    "prefectureNumber": 1,
    "prefecture": "北海道",
    "city": "利尻郡利尻町",
    "town": "以下に掲載がない場合"
  },
  "0970401": {
    "zipcode": "0970401",
    "prefectureCode": "01",
    "prefectureNumber": 1,
    "prefecture": "北海道",
    "city": "利尻郡利尻町",
    "town": "沓形"
  },
  "0971111": {
    "zipcode": "0971111",
    "prefectureCode": "01",
    "prefectureNumber": 1,
    "prefecture": "北海道",
    "city": "礼文郡礼文町",
    "town": "船泊村（その他）"
  },
  "0971200": {
    "zipcode": "0971200",
    "prefectureCode": "01",
    "prefectureNumber": 1,
    "prefecture": "北海道",
    "city": "礼文郡礼文町",
    "town": "以下に掲載がない場合"
  },
  "0971201": {
    "zipcode": "0971201",
    "prefectureCode": "01",
    "prefectureNumber": 1,
    "prefecture": "北海道",
    "city": "礼文郡礼文町",
    "town": "香深村"
  },
  "0971202": {
    "zipcode": "0971202",
    "prefectureCode": "01",
    "prefectureNumber": 1,
    "prefecture": "北海道",
    "city": "礼文郡礼文町",
    "town": "船泊村（ウヱンナイ）"
  }
}
