{
  "0980100": {
    "zipcode": "0980100",
    "prefectureCode": "01",
    "prefectureNumber": 1,
    "prefecture": "北海道",
    "city": "上川郡和寒町",
    "town": "以下に掲載がない場合"
  },
  "0980101": {
    "zipcode": "0980101",
    "prefectureCode": "01",
    "prefectureNumber": 1,
    "prefecture": "北海道",
    "city": "上川郡和寒町",
    "town": "日ノ出"
  },
  "0980102": {
    "zipcode": "0980102",
    "prefectureCode": "01",
    "prefectureNumber": 1,
    "prefecture": "北海道",
    "city": "上川郡和寒町",
    "town": "大成"
  },
  "0980103": {
    "zipcode": "0980103",
    "prefectureCode": "01",
    "prefectureNumber": 1,
    "prefecture": "北海道",
    "city": "上川郡和寒町",
    "town": "北原"
  },
  "0980104": {
    "zipcode": "0980104",
    "prefectureCode": "01",
    "prefectureNumber": 1,
    "prefecture": "北海道",
    "city": "上川郡和寒町",
    "town": "松岡"
  },
  "0980111": {
    "zipcode": "0980111",
    "prefectureCode": "01",
    "prefectureNumber": 1,
    "prefecture": "北海道",
    "city": "上川郡和寒町",
    "town": "三笠"
  },
  "0980112": {
    "zipcode": "0980112",
    "prefectureCode": "01",
    "prefectureNumber": 1,
    "prefecture": "北海道",
    "city": "上川郡和寒町",
    "town": "三和"
  },
  "0980113": {
    "zipcode": "0980113",
    "prefectureCode": "01",
    "prefectureNumber": 1,
    "prefecture": "北海道",
    "city": "上川郡和寒町",
    "town": "菊野"
  },
  "0980114": {
    "zipcode": "0980114",
    "prefectureCode": "01",
    "prefectureNumber": 1,
    "prefecture": "北海道",
    "city": "上川郡和寒町",
    "town": "西和"
  },
  "0980115": {
    "zipcode": "0980115",
    "prefectureCode": "01",
    "prefectureNumber": 1,
    "prefecture": "北海道",
    "city": "上川郡和寒町",
    "town": "福原"
  },
  "0980121": {
    "zipcode": "0980121",
    "prefectureCode": "01",
    "prefectureNumber": 1,
    "prefecture": "北海道",
    "city": "上川郡和寒町",
    "town": "川西"
  },
  "0980122": {
    "zipcode": "0980122",
    "prefectureCode": "01",
    "prefectureNumber": 1,
    "prefecture": "北海道",
    "city": "上川郡和寒町",
    "town": "中和"
  },
  "0980123": {
    "zipcode": "0980123",
    "prefectureCode": "01",
    "prefectureNumber": 1,
    "prefecture": "北海道",
    "city": "上川郡和寒町",
    "town": "東丘"
  },
  "0980124": {
    "zipcode": "0980124",
    "prefectureCode": "01",
    "prefectureNumber": 1,
    "prefecture": "北海道",
    "city": "上川郡和寒町",
    "town": "南丘"
  },
  "0980125": {
    "zipcode": "0980125",
    "prefectureCode": "01",
    "prefectureNumber": 1,
    "prefecture": "北海道",
    "city": "上川郡和寒町",
    "town": "塩狩"
  },
  "0980126": {
    "zipcode": "0980126",
    "prefectureCode": "01",
    "prefectureNumber": 1,
    "prefecture": "北海道",
    "city": "上川郡和寒町",
    "town": "朝日"
  },
  "0980131": {
    "zipcode": "0980131",
    "prefectureCode": "01",
    "prefectureNumber": 1,
    "prefecture": "北海道",
    "city": "上川郡和寒町",
    "town": "南町"
  },
  "0980132": {
    "zipcode": "0980132",
    "prefectureCode": "01",
    "prefectureNumber": 1,
    "prefecture": "北海道",
    "city": "上川郡和寒町",
    "town": "西町"
  },
  "0980133": {
    "zipcode": "0980133",
    "prefectureCode": "01",
    "prefectureNumber": 1,
    "prefecture": "北海道",
    "city": "上川郡和寒町",
    "town": "北町"
  },
  "0980134": {
    "zipcode": "0980134",
    "prefectureCode": "01",
    "prefectureNumber": 1,
    "prefecture": "北海道",
    "city": "上川郡和寒町",
    "town": "東町"
  },
  "0980135": {
    "zipcode": "0980135",
    "prefectureCode": "01",
    "prefectureNumber": 1,
    "prefecture": "北海道",
    "city": "上川郡和寒町",
    "town": "東和"
  },
  "0980300": {
    "zipcode": "0980300",
    "prefectureCode": "01",
    "prefectureNumber": 1,
    "prefecture": "北海道",
    "city": "上川郡剣淵町",
    "town": "以下に掲載がない場合"
  },
  "0980331": {
    "zipcode": "0980331",
    "prefectureCode": "01",
    "prefectureNumber": 1,
    "prefecture": "北海道",
    "city": "上川郡剣淵町",
    "town": "西町"
  },
  "0980332": {
    "zipcode": "0980332",
    "prefectureCode": "01",
    "prefectureNumber": 1,
    "prefecture": "北海道",
    "city": "上川郡剣淵町",
    "town": "緑町"
  },
  "0980333": {
    "zipcode": "0980333",
    "prefectureCode": "01",
    "prefectureNumber": 1,
    "prefecture": "北海道",
    "city": "上川郡剣淵町",
    "town": "元町"
  },
  "0980334": {
    "zipcode": "0980334",
    "prefectureCode": "01",
    "prefectureNumber": 1,
    "prefecture": "北海道",
    "city": "上川郡剣淵町",
    "town": "屯田町"
  },
  "0980335": {
    "zipcode": "0980335",
    "prefectureCode": "01",
    "prefectureNumber": 1,
    "prefecture": "北海道",
    "city": "上川郡剣淵町",
    "town": "南桜町"
  },
  "0980336": {
    "zipcode": "0980336",
    "prefectureCode": "01",
    "prefectureNumber": 1,
    "prefecture": "北海道",
    "city": "上川郡剣淵町",
    "town": "旭町"
  },
  "0980337": {
    "zipcode": "0980337",
    "prefectureCode": "01",
    "prefectureNumber": 1,
    "prefecture": "北海道",
    "city": "上川郡剣淵町",
    "town": "西岡町"
  },
  "0980338": {
    "zipcode": "0980338",
    "prefectureCode": "01",
    "prefectureNumber": 1,
    "prefecture": "北海道",
    "city": "上川郡剣淵町",
    "town": "仲町"
  },
  "0980339": {
    "zipcode": "0980339",
    "prefectureCode": "01",
    "prefectureNumber": 1,
    "prefecture": "北海道",
    "city": "上川郡剣淵町",
    "town": "西原町"
  },
  "0980341": {
    "zipcode": "0980341",
    "prefectureCode": "01",
    "prefectureNumber": 1,
    "prefecture": "北海道",
    "city": "上川郡剣淵町",
    "town": "東町"
  },
  "0980342": {
    "zipcode": "0980342",
    "prefectureCode": "01",
    "prefectureNumber": 1,
    "prefecture": "北海道",
    "city": "上川郡剣淵町",
    "town": "藤本町"
  },
  "0980475": {
    "zipcode": "0980475",
    "prefectureCode": "01",
    "prefectureNumber": 1,
    "prefecture": "北海道",
    "city": "士別市",
    "town": "多寄町"
  },
  "0980501": {
    "zipcode": "0980501",
    "prefectureCode": "01",
    "prefectureNumber": 1,
    "prefecture": "北海道",
    "city": "名寄市",
    "town": "風連町豊里"
  },
  "0980502": {
    "zipcode": "0980502",
    "prefectureCode": "01",
    "prefectureNumber": 1,
    "prefecture": "北海道",
    "city": "名寄市",
    "town": "風連町北栄町"
  },
  "0980503": {
    "zipcode": "0980503",
    "prefectureCode": "01",
    "prefectureNumber": 1,
    "prefecture": "北海道",
    "city": "名寄市",
    "town": "風連町大町"
  },
  "0980504": {
    "zipcode": "0980504",
    "prefectureCode": "01",
    "prefectureNumber": 1,
    "prefecture": "北海道",
    "city": "名寄市",
    "town": "風連町本町"
  },
  "0980505": {
    "zipcode": "0980505",
    "prefectureCode": "01",
    "prefectureNumber": 1,
    "prefecture": "北海道",
    "city": "名寄市",
    "town": "風連町南町"
  },
  "0980506": {
    "zipcode": "0980506",
    "prefectureCode": "01",
    "prefectureNumber": 1,
    "prefecture": "北海道",
    "city": "名寄市",
    "town": "風連町仲町"
  },
  "0980507": {
    "zipcode": "0980507",
    "prefectureCode": "01",
    "prefectureNumber": 1,
    "prefecture": "北海道",
    "city": "名寄市",
    "town": "風連町西町"
  },
  "0980508": {
    "zipcode": "0980508",
    "prefectureCode": "01",
    "prefectureNumber": 1,
    "prefecture": "北海道",
    "city": "名寄市",
    "town": "風連町瑞生"
  },
  "0980509": {
    "zipcode": "0980509",
    "prefectureCode": "01",
    "prefectureNumber": 1,
    "prefecture": "北海道",
    "city": "名寄市",
    "town": "風連町西風連"
  },
  "0980511": {
    "zipcode": "0980511",
    "prefectureCode": "01",
    "prefectureNumber": 1,
    "prefecture": "北海道",
    "city": "名寄市",
    "town": "風連町新生町"
  },
  "0980512": {
    "zipcode": "0980512",
    "prefectureCode": "01",
    "prefectureNumber": 1,
    "prefecture": "北海道",
    "city": "名寄市",
    "town": "風連町東風連"
  },
  "0980513": {
    "zipcode": "0980513",
    "prefectureCode": "01",
    "prefectureNumber": 1,
    "prefecture": "北海道",
    "city": "名寄市",
    "town": "風連町池の上"
  },
  "0980514": {
    "zipcode": "0980514",
    "prefectureCode": "01",
    "prefectureNumber": 1,
    "prefecture": "北海道",
    "city": "名寄市",
    "town": "風連町旭"
  },
  "0980515": {
    "zipcode": "0980515",
    "prefectureCode": "01",
    "prefectureNumber": 1,
    "prefecture": "北海道",
    "city": "名寄市",
    "town": "風連町中央"
  },
  "0980516": {
    "zipcode": "0980516",
    "prefectureCode": "01",
    "prefectureNumber": 1,
    "prefecture": "北海道",
    "city": "名寄市",
    "town": "風連町緑町"
  },
  "0980631": {
    "zipcode": "0980631",
    "prefectureCode": "01",
    "prefectureNumber": 1,
    "prefecture": "北海道",
    "city": "名寄市",
    "town": "風連町日進"
  },
  "0980632": {
    "zipcode": "0980632",
    "prefectureCode": "01",
    "prefectureNumber": 1,
    "prefecture": "北海道",
    "city": "名寄市",
    "town": "風連町東生"
  },
  "0981200": {
    "zipcode": "0981200",
    "prefectureCode": "01",
    "prefectureNumber": 1,
    "prefecture": "北海道",
    "city": "上川郡下川町",
    "town": "以下に掲載がない場合"
  },
  "0981201": {
    "zipcode": "0981201",
    "prefectureCode": "01",
    "prefectureNumber": 1,
    "prefecture": "北海道",
    "city": "上川郡下川町",
    "town": "旭町"
  },
  "0981202": {
    "zipcode": "0981202",
    "prefectureCode": "01",
    "prefectureNumber": 1,
    "prefecture": "北海道",
    "city": "上川郡下川町",
    "town": "緑町"
  },
  "0981203": {
    "zipcode": "0981203",
    "prefectureCode": "01",
    "prefectureNumber": 1,
    "prefecture": "北海道",
    "city": "上川郡下川町",
    "town": "共栄町"
  },
  "0981204": {
    "zipcode": "0981204",
    "prefectureCode": "01",
    "prefectureNumber": 1,
    "prefecture": "北海道",
    "city": "上川郡下川町",
    "town": "南町"
  },
  "0981205": {
    "zipcode": "0981205",
    "prefectureCode": "01",
    "prefectureNumber": 1,
    "prefecture": "北海道",
    "city": "上川郡下川町",
    "town": "西町"
  },
  "0981206": {
    "zipcode": "0981206",
    "prefectureCode": "01",
    "prefectureNumber": 1,
    "prefecture": "北海道",
    "city": "上川郡下川町",
    "town": "幸町"
  },
  "0981207": {
    "zipcode": "0981207",
    "prefectureCode": "01",
    "prefectureNumber": 1,
    "prefecture": "北海道",
    "city": "上川郡下川町",
    "town": "錦町"
  },
  "0981211": {
    "zipcode": "0981211",
    "prefectureCode": "01",
    "prefectureNumber": 1,
    "prefecture": "北海道",
    "city": "上川郡下川町",
    "town": "珊瑠"
  },
  "0981212": {
    "zipcode": "0981212",
    "prefectureCode": "01",
    "prefectureNumber": 1,
    "prefecture": "北海道",
    "city": "上川郡下川町",
    "town": "北町"
  },
  "0981213": {
    "zipcode": "0981213",
    "prefectureCode": "01",
    "prefectureNumber": 1,
    "prefecture": "北海道",
    "city": "上川郡下川町",
    "town": "三の橋"
  },
  "0981214": {
    "zipcode": "0981214",
    "prefectureCode": "01",
    "prefectureNumber": 1,
    "prefecture": "北海道",
    "city": "上川郡下川町",
    "town": "渓和"
  },
  "0981215": {
    "zipcode": "0981215",
    "prefectureCode": "01",
    "prefectureNumber": 1,
    "prefecture": "北海道",
    "city": "上川郡下川町",
    "town": "班渓"
  },
  "0981216": {
    "zipcode": "0981216",
    "prefectureCode": "01",
    "prefectureNumber": 1,
    "prefecture": "北海道",
    "city": "上川郡下川町",
    "town": "上名寄"
  },
  "0981331": {
    "zipcode": "0981331",
    "prefectureCode": "01",
    "prefectureNumber": 1,
    "prefecture": "北海道",
    "city": "上川郡下川町",
    "town": "一の橋"
  },
  "0981332": {
    "zipcode": "0981332",
    "prefectureCode": "01",
    "prefectureNumber": 1,
    "prefecture": "北海道",
    "city": "上川郡下川町",
    "town": "二の橋"
  },
  "0981421": {
    "zipcode": "0981421",
    "prefectureCode": "01",
    "prefectureNumber": 1,
    "prefecture": "北海道",
    "city": "紋別郡西興部村",
    "town": "上興部"
  },
  "0981422": {
    "zipcode": "0981422",
    "prefectureCode": "01",
    "prefectureNumber": 1,
    "prefecture": "北海道",
    "city": "紋別郡西興部村",
    "town": "東興"
  },
  "0981423": {
    "zipcode": "0981423",
    "prefectureCode": "01",
    "prefectureNumber": 1,
    "prefecture": "北海道",
    "city": "紋別郡西興部村",
    "town": "札滑"
  },
  "0981424": {
    "zipcode": "0981424",
    "prefectureCode": "01",
    "prefectureNumber": 1,
    "prefecture": "北海道",
    "city": "紋別郡西興部村",
    "town": "奥興部"
  },
  "0981500": {
    "zipcode": "0981500",
    "prefectureCode": "01",
    "prefectureNumber": 1,
    "prefecture": "北海道",
    "city": "紋別郡西興部村",
    "town": "以下に掲載がない場合"
  },
  "0981501": {
    "zipcode": "0981501",
    "prefectureCode": "01",
    "prefectureNumber": 1,
    "prefecture": "北海道",
    "city": "紋別郡西興部村",
    "town": "西興部"
  },
  "0981502": {
    "zipcode": "0981502",
    "prefectureCode": "01",
    "prefectureNumber": 1,
    "prefecture": "北海道",
    "city": "紋別郡西興部村",
    "town": "六興"
  },
  "0981503": {
    "zipcode": "0981503",
    "prefectureCode": "01",
    "prefectureNumber": 1,
    "prefecture": "北海道",
    "city": "紋別郡西興部村",
    "town": "中興部"
  },
  "0981504": {
    "zipcode": "0981504",
    "prefectureCode": "01",
    "prefectureNumber": 1,
    "prefecture": "北海道",
    "city": "紋別郡西興部村",
    "town": "忍路子"
  },
  "0981505": {
    "zipcode": "0981505",
    "prefectureCode": "01",
    "prefectureNumber": 1,
    "prefecture": "北海道",
    "city": "紋別郡西興部村",
    "town": "上藻"
  },
  "0981506": {
    "zipcode": "0981506",
    "prefectureCode": "01",
    "prefectureNumber": 1,
    "prefecture": "北海道",
    "city": "紋別郡西興部村",
    "town": "中藻"
  },
  "0981600": {
    "zipcode": "0981600",
    "prefectureCode": "01",
    "prefectureNumber": 1,
    "prefecture": "北海道",
    "city": "紋別郡興部町",
    "town": "以下に掲載がない場合"
  },
  "0981601": {
    "zipcode": "0981601",
    "prefectureCode": "01",
    "prefectureNumber": 1,
    "prefecture": "北海道",
    "city": "紋別郡興部町",
    "town": "興部（元町）"
  },
  "0981602": {
    "zipcode": "0981602",
    "prefectureCode": "01",
    "prefectureNumber": 1,
    "prefecture": "北海道",
    "city": "紋別郡興部町",
    "town": "興部（浜町）"
  },
  "0981603": {
    "zipcode": "0981603",
    "prefectureCode": "01",
    "prefectureNumber": 1,
    "prefecture": "北海道",
    "city": "紋別郡興部町",
    "town": "興部（東町）"
  },
  "0981604": {
    "zipcode": "0981604",
    "prefectureCode": "01",
    "prefectureNumber": 1,
    "prefecture": "北海道",
    "city": "紋別郡興部町",
    "town": "興部（春日町）"
  },
  "0981605": {
    "zipcode": "0981605",
    "prefectureCode": "01",
    "prefectureNumber": 1,
    "prefecture": "北海道",
    "city": "紋別郡興部町",
    "town": "興部（緑ケ丘）"
  },
  "0981606": {
    "zipcode": "0981606",
    "prefectureCode": "01",
    "prefectureNumber": 1,
    "prefecture": "北海道",
    "city": "紋別郡興部町",
    "town": "興部（栄町）"
  },
  "0981607": {
    "zipcode": "0981607",
    "prefectureCode": "01",
    "prefectureNumber": 1,
    "prefecture": "北海道",
    "city": "紋別郡興部町",
    "town": "興部（旭町）"
  },
  "0981611": {
    "zipcode": "0981611",
    "prefectureCode": "01",
    "prefectureNumber": 1,
    "prefecture": "北海道",
    "city": "紋別郡興部町",
    "town": "興部（泉町）"
  },
  "0981612": {
    "zipcode": "0981612",
    "prefectureCode": "01",
    "prefectureNumber": 1,
    "prefecture": "北海道",
    "city": "紋別郡興部町",
    "town": "興部（新泉町）"
  },
  "0981613": {
    "zipcode": "0981613",
    "prefectureCode": "01",
    "prefectureNumber": 1,
    "prefecture": "北海道",
    "city": "紋別郡興部町",
    "town": "興部（新町）"
  },
  "0981614": {
    "zipcode": "0981614",
    "prefectureCode": "01",
    "prefectureNumber": 1,
    "prefecture": "北海道",
    "city": "紋別郡興部町",
    "town": "興部（幸町）"
  },
  "0981615": {
    "zipcode": "0981615",
    "prefectureCode": "01",
    "prefectureNumber": 1,
    "prefecture": "北海道",
    "city": "紋別郡興部町",
    "town": "興部（仲町）"
  },
  "0981616": {
    "zipcode": "0981616",
    "prefectureCode": "01",
    "prefectureNumber": 1,
    "prefecture": "北海道",
    "city": "紋別郡興部町",
    "town": "興部（本町）"
  },
  "0981621": {
    "zipcode": "0981621",
    "prefectureCode": "01",
    "prefectureNumber": 1,
    "prefecture": "北海道",
    "city": "紋別郡興部町",
    "town": "秋里"
  },
  "0981622": {
    "zipcode": "0981622",
    "prefectureCode": "01",
    "prefectureNumber": 1,
    "prefecture": "北海道",
    "city": "紋別郡興部町",
    "town": "北興"
  },
  "0981623": {
    "zipcode": "0981623",
    "prefectureCode": "01",
    "prefectureNumber": 1,
    "prefecture": "北海道",
    "city": "紋別郡興部町",
    "town": "興部（宮下町）"
  },
  "0981624": {
    "zipcode": "0981624",
    "prefectureCode": "01",
    "prefectureNumber": 1,
    "prefecture": "北海道",
    "city": "紋別郡興部町",
    "town": "宇津"
  },
  "0981700": {
    "zipcode": "0981700",
    "prefectureCode": "01",
    "prefectureNumber": 1,
    "prefecture": "北海道",
    "city": "紋別郡雄武町",
    "town": "以下に掲載がない場合"
  },
  "0981701": {
    "zipcode": "0981701",
    "prefectureCode": "01",
    "prefectureNumber": 1,
    "prefecture": "北海道",
    "city": "紋別郡雄武町",
    "town": "北雄武"
  },
  "0981702": {
    "zipcode": "0981702",
    "prefectureCode": "01",
    "prefectureNumber": 1,
    "prefecture": "北海道",
    "city": "紋別郡雄武町",
    "town": "雄武"
  },
  "0981703": {
    "zipcode": "0981703",
    "prefectureCode": "01",
    "prefectureNumber": 1,
    "prefecture": "北海道",
    "city": "紋別郡雄武町",
    "town": "沢木"
  },
  "0981704": {
    "zipcode": "0981704",
    "prefectureCode": "01",
    "prefectureNumber": 1,
    "prefecture": "北海道",
    "city": "紋別郡雄武町",
    "town": "上沢木"
  },
  "0981705": {
    "zipcode": "0981705",
    "prefectureCode": "01",
    "prefectureNumber": 1,
    "prefecture": "北海道",
    "city": "紋別郡雄武町",
    "town": "南雄武"
  },
  "0981706": {
    "zipcode": "0981706",
    "prefectureCode": "01",
    "prefectureNumber": 1,
    "prefecture": "北海道",
    "city": "紋別郡雄武町",
    "town": "中雄武"
  },
  "0981707": {
    "zipcode": "0981707",
    "prefectureCode": "01",
    "prefectureNumber": 1,
    "prefecture": "北海道",
    "city": "紋別郡雄武町",
    "town": "上雄武"
  },
  "0981708": {
    "zipcode": "0981708",
    "prefectureCode": "01",
    "prefectureNumber": 1,
    "prefecture": "北海道",
    "city": "紋別郡雄武町",
    "town": "上幌内"
  },
  "0981821": {
    "zipcode": "0981821",
    "prefectureCode": "01",
    "prefectureNumber": 1,
    "prefecture": "北海道",
    "city": "紋別郡雄武町",
    "town": "幌内"
  },
  "0981941": {
    "zipcode": "0981941",
    "prefectureCode": "01",
    "prefectureNumber": 1,
    "prefecture": "北海道",
    "city": "紋別郡興部町",
    "town": "沙留"
  },
  "0981942": {
    "zipcode": "0981942",
    "prefectureCode": "01",
    "prefectureNumber": 1,
    "prefecture": "北海道",
    "city": "紋別郡興部町",
    "town": "富丘"
  },
  "0981943": {
    "zipcode": "0981943",
    "prefectureCode": "01",
    "prefectureNumber": 1,
    "prefecture": "北海道",
    "city": "紋別郡興部町",
    "town": "住吉"
  },
  "0981944": {
    "zipcode": "0981944",
    "prefectureCode": "01",
    "prefectureNumber": 1,
    "prefecture": "北海道",
    "city": "紋別郡興部町",
    "town": "豊野"
  },
  "0982181": {
    "zipcode": "0982181",
    "prefectureCode": "01",
    "prefectureNumber": 1,
    "prefecture": "北海道",
    "city": "名寄市",
    "town": "智恵文"
  },
  "0982200": {
    "zipcode": "0982200",
    "prefectureCode": "01",
    "prefectureNumber": 1,
    "prefecture": "北海道",
    "city": "中川郡美深町",
    "town": "以下に掲載がない場合"
  },
  "0982201": {
    "zipcode": "0982201",
    "prefectureCode": "01",
    "prefectureNumber": 1,
    "prefecture": "北海道",
    "city": "中川郡美深町",
    "town": "泉"
  },
  "0982202": {
    "zipcode": "0982202",
    "prefectureCode": "01",
    "prefectureNumber": 1,
    "prefecture": "北海道",
    "city": "中川郡美深町",
    "town": "玉川"
  },
  "0982203": {
    "zipcode": "0982203",
    "prefectureCode": "01",
    "prefectureNumber": 1,
    "prefecture": "北海道",
    "city": "中川郡美深町",
    "town": "六郷"
  },
  "0982204": {
    "zipcode": "0982204",
    "prefectureCode": "01",
    "prefectureNumber": 1,
    "prefecture": "北海道",
    "city": "中川郡美深町",
    "town": "川西"
  },
  "0982205": {
    "zipcode": "0982205",
    "prefectureCode": "01",
    "prefectureNumber": 1,
    "prefecture": "北海道",
    "city": "中川郡美深町",
    "town": "美深"
  },
  "0982206": {
    "zipcode": "0982206",
    "prefectureCode": "01",
    "prefectureNumber": 1,
    "prefecture": "北海道",
    "city": "中川郡美深町",
    "town": "菊丘"
  },
  "0982207": {
    "zipcode": "0982207",
    "prefectureCode": "01",
    "prefectureNumber": 1,
    "prefecture": "北海道",
    "city": "中川郡美深町",
    "town": "辺渓"
  },
  "0982208": {
    "zipcode": "0982208",
    "prefectureCode": "01",
    "prefectureNumber": 1,
    "prefecture": "北海道",
    "city": "中川郡美深町",
    "town": "仁宇布"
  },
  "0982211": {
    "zipcode": "0982211",
    "prefectureCode": "01",
    "prefectureNumber": 1,
    "prefecture": "北海道",
    "city": "中川郡美深町",
    "town": "富岡"
  },
  "0982212": {
    "zipcode": "0982212",
    "prefectureCode": "01",
    "prefectureNumber": 1,
    "prefecture": "北海道",
    "city": "中川郡美深町",
    "town": "班渓"
  },
  "0982213": {
    "zipcode": "0982213",
    "prefectureCode": "01",
    "prefectureNumber": 1,
    "prefecture": "北海道",
    "city": "中川郡美深町",
    "town": "吉野"
  },
  "0982214": {
    "zipcode": "0982214",
    "prefectureCode": "01",
    "prefectureNumber": 1,
    "prefecture": "北海道",
    "city": "中川郡美深町",
    "town": "敷島"
  },
  "0982220": {
    "zipcode": "0982220",
    "prefectureCode": "01",
    "prefectureNumber": 1,
    "prefecture": "北海道",
    "city": "中川郡美深町",
    "town": "大通北"
  },
  "0982221": {
    "zipcode": "0982221",
    "prefectureCode": "01",
    "prefectureNumber": 1,
    "prefecture": "北海道",
    "city": "中川郡美深町",
    "town": "東一条北"
  },
  "0982222": {
    "zipcode": "0982222",
    "prefectureCode": "01",
    "prefectureNumber": 1,
    "prefecture": "北海道",
    "city": "中川郡美深町",
    "town": "東二条北"
  },
  "0982223": {
    "zipcode": "0982223",
    "prefectureCode": "01",
    "prefectureNumber": 1,
    "prefecture": "北海道",
    "city": "中川郡美深町",
    "town": "東三条北"
  },
  "0982224": {
    "zipcode": "0982224",
    "prefectureCode": "01",
    "prefectureNumber": 1,
    "prefecture": "北海道",
    "city": "中川郡美深町",
    "town": "東四条北"
  },
  "0982225": {
    "zipcode": "0982225",
    "prefectureCode": "01",
    "prefectureNumber": 1,
    "prefecture": "北海道",
    "city": "中川郡美深町",
    "town": "東五条北"
  },
  "0982226": {
    "zipcode": "0982226",
    "prefectureCode": "01",
    "prefectureNumber": 1,
    "prefecture": "北海道",
    "city": "中川郡美深町",
    "town": "東六条北"
  },
  "0982227": {
    "zipcode": "0982227",
    "prefectureCode": "01",
    "prefectureNumber": 1,
    "prefecture": "北海道",
    "city": "中川郡美深町",
    "town": "北町"
  },
  "0982230": {
    "zipcode": "0982230",
    "prefectureCode": "01",
    "prefectureNumber": 1,
    "prefecture": "北海道",
    "city": "中川郡美深町",
    "town": "大通南"
  },
  "0982231": {
    "zipcode": "0982231",
    "prefectureCode": "01",
    "prefectureNumber": 1,
    "prefecture": "北海道",
    "city": "中川郡美深町",
    "town": "東一条南"
  },
  "0982232": {
    "zipcode": "0982232",
    "prefectureCode": "01",
    "prefectureNumber": 1,
    "prefecture": "北海道",
    "city": "中川郡美深町",
    "town": "東二条南"
  },
  "0982233": {
    "zipcode": "0982233",
    "prefectureCode": "01",
    "prefectureNumber": 1,
    "prefecture": "北海道",
    "city": "中川郡美深町",
    "town": "東三条南"
  },
  "0982234": {
    "zipcode": "0982234",
    "prefectureCode": "01",
    "prefectureNumber": 1,
    "prefecture": "北海道",
    "city": "中川郡美深町",
    "town": "東四条南"
  },
  "0982235": {
    "zipcode": "0982235",
    "prefectureCode": "01",
    "prefectureNumber": 1,
    "prefecture": "北海道",
    "city": "中川郡美深町",
    "town": "南町"
  },
  "0982236": {
    "zipcode": "0982236",
    "prefectureCode": "01",
    "prefectureNumber": 1,
    "prefecture": "北海道",
    "city": "中川郡美深町",
    "town": "東六条南"
  },
  "0982237": {
    "zipcode": "0982237",
    "prefectureCode": "01",
    "prefectureNumber": 1,
    "prefecture": "北海道",
    "city": "中川郡美深町",
    "town": "若松町"
  },
  "0982238": {
    "zipcode": "0982238",
    "prefectureCode": "01",
    "prefectureNumber": 1,
    "prefecture": "北海道",
    "city": "中川郡美深町",
    "town": "開運町"
  },
  "0982241": {
    "zipcode": "0982241",
    "prefectureCode": "01",
    "prefectureNumber": 1,
    "prefecture": "北海道",
    "city": "中川郡美深町",
    "town": "西一条南"
  },
  "0982242": {
    "zipcode": "0982242",
    "prefectureCode": "01",
    "prefectureNumber": 1,
    "prefecture": "北海道",
    "city": "中川郡美深町",
    "town": "西二条南"
  },
  "0982243": {
    "zipcode": "0982243",
    "prefectureCode": "01",
    "prefectureNumber": 1,
    "prefecture": "北海道",
    "city": "中川郡美深町",
    "town": "西三条南"
  },
  "0982251": {
    "zipcode": "0982251",
    "prefectureCode": "01",
    "prefectureNumber": 1,
    "prefecture": "北海道",
    "city": "中川郡美深町",
    "town": "西一条北"
  },
  "0982252": {
    "zipcode": "0982252",
    "prefectureCode": "01",
    "prefectureNumber": 1,
    "prefecture": "北海道",
    "city": "中川郡美深町",
    "town": "西町"
  },
  "0982253": {
    "zipcode": "0982253",
    "prefectureCode": "01",
    "prefectureNumber": 1,
    "prefecture": "北海道",
    "city": "中川郡美深町",
    "town": "西三条北"
  },
  "0982361": {
    "zipcode": "0982361",
    "prefectureCode": "01",
    "prefectureNumber": 1,
    "prefecture": "北海道",
    "city": "中川郡美深町",
    "town": "恩根内"
  },
  "0982362": {
    "zipcode": "0982362",
    "prefectureCode": "01",
    "prefectureNumber": 1,
    "prefecture": "北海道",
    "city": "中川郡美深町",
    "town": "大手"
  },
  "0982363": {
    "zipcode": "0982363",
    "prefectureCode": "01",
    "prefectureNumber": 1,
    "prefecture": "北海道",
    "city": "中川郡美深町",
    "town": "小車"
  },
  "0982364": {
    "zipcode": "0982364",
    "prefectureCode": "01",
    "prefectureNumber": 1,
    "prefecture": "北海道",
    "city": "中川郡美深町",
    "town": "報徳"
  },
  "0982365": {
    "zipcode": "0982365",
    "prefectureCode": "01",
    "prefectureNumber": 1,
    "prefecture": "北海道",
    "city": "中川郡美深町",
    "town": "西里"
  },
  "0982366": {
    "zipcode": "0982366",
    "prefectureCode": "01",
    "prefectureNumber": 1,
    "prefecture": "北海道",
    "city": "中川郡美深町",
    "town": "紋穂内"
  },
  "0982367": {
    "zipcode": "0982367",
    "prefectureCode": "01",
    "prefectureNumber": 1,
    "prefecture": "北海道",
    "city": "中川郡美深町",
    "town": "楠"
  },
  "0982368": {
    "zipcode": "0982368",
    "prefectureCode": "01",
    "prefectureNumber": 1,
    "prefecture": "北海道",
    "city": "中川郡美深町",
    "town": "清水"
  },
  "0982500": {
    "zipcode": "0982500",
    "prefectureCode": "01",
    "prefectureNumber": 1,
    "prefecture": "北海道",
    "city": "中川郡音威子府村",
    "town": "以下に掲載がない場合"
  },
  "0982501": {
    "zipcode": "0982501",
    "prefectureCode": "01",
    "prefectureNumber": 1,
    "prefecture": "北海道",
    "city": "中川郡音威子府村",
    "town": "音威子府"
  },
  "0982502": {
    "zipcode": "0982502",
    "prefectureCode": "01",
    "prefectureNumber": 1,
    "prefecture": "北海道",
    "city": "中川郡音威子府村",
    "town": "咲来"
  },
  "0982621": {
    "zipcode": "0982621",
    "prefectureCode": "01",
    "prefectureNumber": 1,
    "prefecture": "北海道",
    "city": "中川郡中川町",
    "town": "共和"
  },
  "0982622": {
    "zipcode": "0982622",
    "prefectureCode": "01",
    "prefectureNumber": 1,
    "prefecture": "北海道",
    "city": "中川郡中川町",
    "town": "佐久"
  },
  "0982623": {
    "zipcode": "0982623",
    "prefectureCode": "01",
    "prefectureNumber": 1,
    "prefecture": "北海道",
    "city": "中川郡中川町",
    "town": "富和"
  },
  "0982624": {
    "zipcode": "0982624",
    "prefectureCode": "01",
    "prefectureNumber": 1,
    "prefecture": "北海道",
    "city": "中川郡中川町",
    "town": "豊里"
  },
  "0982625": {
    "zipcode": "0982625",
    "prefectureCode": "01",
    "prefectureNumber": 1,
    "prefecture": "北海道",
    "city": "中川郡中川町",
    "town": "安川"
  },
  "0982626": {
    "zipcode": "0982626",
    "prefectureCode": "01",
    "prefectureNumber": 1,
    "prefecture": "北海道",
    "city": "中川郡中川町",
    "town": "安川（３）"
  },
  "0982800": {
    "zipcode": "0982800",
    "prefectureCode": "01",
    "prefectureNumber": 1,
    "prefecture": "北海道",
    "city": "中川郡中川町",
    "town": "以下に掲載がない場合"
  },
  "0982801": {
    "zipcode": "0982801",
    "prefectureCode": "01",
    "prefectureNumber": 1,
    "prefecture": "北海道",
    "city": "中川郡中川町",
    "town": "歌内"
  },
  "0982802": {
    "zipcode": "0982802",
    "prefectureCode": "01",
    "prefectureNumber": 1,
    "prefecture": "北海道",
    "city": "中川郡中川町",
    "town": "中川"
  },
  "0982803": {
    "zipcode": "0982803",
    "prefectureCode": "01",
    "prefectureNumber": 1,
    "prefecture": "北海道",
    "city": "中川郡中川町",
    "town": "琴平"
  },
  "0982804": {
    "zipcode": "0982804",
    "prefectureCode": "01",
    "prefectureNumber": 1,
    "prefecture": "北海道",
    "city": "中川郡中川町",
    "town": "大富"
  },
  "0982805": {
    "zipcode": "0982805",
    "prefectureCode": "01",
    "prefectureNumber": 1,
    "prefecture": "北海道",
    "city": "中川郡中川町",
    "town": "誉"
  },
  "0982806": {
    "zipcode": "0982806",
    "prefectureCode": "01",
    "prefectureNumber": 1,
    "prefecture": "北海道",
    "city": "中川郡中川町",
    "town": "国府"
  },
  "0982941": {
    "zipcode": "0982941",
    "prefectureCode": "01",
    "prefectureNumber": 1,
    "prefecture": "北海道",
    "city": "天塩郡幌延町",
    "town": "上問寒"
  },
  "0982942": {
    "zipcode": "0982942",
    "prefectureCode": "01",
    "prefectureNumber": 1,
    "prefecture": "北海道",
    "city": "天塩郡幌延町",
    "town": "中問寒"
  },
  "0982943": {
    "zipcode": "0982943",
    "prefectureCode": "01",
    "prefectureNumber": 1,
    "prefecture": "北海道",
    "city": "天塩郡幌延町",
    "town": "問寒別"
  },
  "0983131": {
    "zipcode": "0983131",
    "prefectureCode": "01",
    "prefectureNumber": 1,
    "prefecture": "北海道",
    "city": "天塩郡天塩町",
    "town": "タツネウシ"
  },
  "0983132": {
    "zipcode": "0983132",
    "prefectureCode": "01",
    "prefectureNumber": 1,
    "prefecture": "北海道",
    "city": "天塩郡天塩町",
    "town": "東雄信内"
  },
  "0983133": {
    "zipcode": "0983133",
    "prefectureCode": "01",
    "prefectureNumber": 1,
    "prefecture": "北海道",
    "city": "天塩郡天塩町",
    "town": "雄信内"
  },
  "0983134": {
    "zipcode": "0983134",
    "prefectureCode": "01",
    "prefectureNumber": 1,
    "prefecture": "北海道",
    "city": "天塩郡天塩町",
    "town": "円山"
  },
  "0983135": {
    "zipcode": "0983135",
    "prefectureCode": "01",
    "prefectureNumber": 1,
    "prefecture": "北海道",
    "city": "天塩郡天塩町",
    "town": "東産士"
  },
  "0983136": {
    "zipcode": "0983136",
    "prefectureCode": "01",
    "prefectureNumber": 1,
    "prefecture": "北海道",
    "city": "天塩郡天塩町",
    "town": "下コクネップ"
  },
  "0983141": {
    "zipcode": "0983141",
    "prefectureCode": "01",
    "prefectureNumber": 1,
    "prefecture": "北海道",
    "city": "天塩郡天塩町",
    "town": "西雄信内"
  },
  "0983142": {
    "zipcode": "0983142",
    "prefectureCode": "01",
    "prefectureNumber": 1,
    "prefecture": "北海道",
    "city": "天塩郡天塩町",
    "town": "新成"
  },
  "0983143": {
    "zipcode": "0983143",
    "prefectureCode": "01",
    "prefectureNumber": 1,
    "prefecture": "北海道",
    "city": "天塩郡天塩町",
    "town": "泉源"
  },
  "0983144": {
    "zipcode": "0983144",
    "prefectureCode": "01",
    "prefectureNumber": 1,
    "prefecture": "北海道",
    "city": "天塩郡天塩町",
    "town": "男能富"
  },
  "0983200": {
    "zipcode": "0983200",
    "prefectureCode": "01",
    "prefectureNumber": 1,
    "prefecture": "北海道",
    "city": "天塩郡幌延町",
    "town": "以下に掲載がない場合"
  },
  "0983201": {
    "zipcode": "0983201",
    "prefectureCode": "01",
    "prefectureNumber": 1,
    "prefecture": "北海道",
    "city": "天塩郡幌延町",
    "town": "一条北"
  },
  "0983202": {
    "zipcode": "0983202",
    "prefectureCode": "01",
    "prefectureNumber": 1,
    "prefecture": "北海道",
    "city": "天塩郡幌延町",
    "town": "二条北"
  },
  "0983203": {
    "zipcode": "0983203",
    "prefectureCode": "01",
    "prefectureNumber": 1,
    "prefecture": "北海道",
    "city": "天塩郡幌延町",
    "town": "三条北"
  },
  "0983204": {
    "zipcode": "0983204",
    "prefectureCode": "01",
    "prefectureNumber": 1,
    "prefecture": "北海道",
    "city": "天塩郡幌延町",
    "town": "四条北"
  },
  "0983205": {
    "zipcode": "0983205",
    "prefectureCode": "01",
    "prefectureNumber": 1,
    "prefecture": "北海道",
    "city": "天塩郡幌延町",
    "town": "五条北"
  },
  "0983206": {
    "zipcode": "0983206",
    "prefectureCode": "01",
    "prefectureNumber": 1,
    "prefecture": "北海道",
    "city": "天塩郡幌延町",
    "town": "六条北"
  },
  "0983207": {
    "zipcode": "0983207",
    "prefectureCode": "01",
    "prefectureNumber": 1,
    "prefecture": "北海道",
    "city": "天塩郡幌延町",
    "town": "宮園町"
  },
  "0983211": {
    "zipcode": "0983211",
    "prefectureCode": "01",
    "prefectureNumber": 1,
    "prefecture": "北海道",
    "city": "天塩郡幌延町",
    "town": "一条南"
  },
  "0983212": {
    "zipcode": "0983212",
    "prefectureCode": "01",
    "prefectureNumber": 1,
    "prefecture": "北海道",
    "city": "天塩郡幌延町",
    "town": "二条南"
  },
  "0983213": {
    "zipcode": "0983213",
    "prefectureCode": "01",
    "prefectureNumber": 1,
    "prefecture": "北海道",
    "city": "天塩郡幌延町",
    "town": "三条南"
  },
  "0983214": {
    "zipcode": "0983214",
    "prefectureCode": "01",
    "prefectureNumber": 1,
    "prefecture": "北海道",
    "city": "天塩郡幌延町",
    "town": "四条南"
  },
  "0983215": {
    "zipcode": "0983215",
    "prefectureCode": "01",
    "prefectureNumber": 1,
    "prefecture": "北海道",
    "city": "天塩郡幌延町",
    "town": "五条南"
  },
  "0983216": {
    "zipcode": "0983216",
    "prefectureCode": "01",
    "prefectureNumber": 1,
    "prefecture": "北海道",
    "city": "天塩郡幌延町",
    "town": "六条南"
  },
  "0983217": {
    "zipcode": "0983217",
    "prefectureCode": "01",
    "prefectureNumber": 1,
    "prefecture": "北海道",
    "city": "天塩郡幌延町",
    "town": "元町"
  },
  "0983221": {
    "zipcode": "0983221",
    "prefectureCode": "01",
    "prefectureNumber": 1,
    "prefecture": "北海道",
    "city": "天塩郡幌延町",
    "town": "栄町"
  },
  "0983222": {
    "zipcode": "0983222",
    "prefectureCode": "01",
    "prefectureNumber": 1,
    "prefecture": "北海道",
    "city": "天塩郡幌延町",
    "town": "東町"
  },
  "0983223": {
    "zipcode": "0983223",
    "prefectureCode": "01",
    "prefectureNumber": 1,
    "prefecture": "北海道",
    "city": "天塩郡幌延町",
    "town": "幌延"
  },
  "0983224": {
    "zipcode": "0983224",
    "prefectureCode": "01",
    "prefectureNumber": 1,
    "prefecture": "北海道",
    "city": "天塩郡幌延町",
    "town": "北進"
  },
  "0983225": {
    "zipcode": "0983225",
    "prefectureCode": "01",
    "prefectureNumber": 1,
    "prefecture": "北海道",
    "city": "天塩郡幌延町",
    "town": "上幌延"
  },
  "0983226": {
    "zipcode": "0983226",
    "prefectureCode": "01",
    "prefectureNumber": 1,
    "prefecture": "北海道",
    "city": "天塩郡幌延町",
    "town": "開進"
  },
  "0983227": {
    "zipcode": "0983227",
    "prefectureCode": "01",
    "prefectureNumber": 1,
    "prefecture": "北海道",
    "city": "天塩郡幌延町",
    "town": "浜里"
  },
  "0983228": {
    "zipcode": "0983228",
    "prefectureCode": "01",
    "prefectureNumber": 1,
    "prefecture": "北海道",
    "city": "天塩郡幌延町",
    "town": "下沼"
  },
  "0983251": {
    "zipcode": "0983251",
    "prefectureCode": "01",
    "prefectureNumber": 1,
    "prefecture": "北海道",
    "city": "天塩郡幌延町",
    "town": "雄興"
  },
  "0983300": {
    "zipcode": "0983300",
    "prefectureCode": "01",
    "prefectureNumber": 1,
    "prefecture": "北海道",
    "city": "天塩郡天塩町",
    "town": "以下に掲載がない場合"
  },
  "0983301": {
    "zipcode": "0983301",
    "prefectureCode": "01",
    "prefectureNumber": 1,
    "prefecture": "北海道",
    "city": "天塩郡天塩町",
    "town": "山手通"
  },
  "0983302": {
    "zipcode": "0983302",
    "prefectureCode": "01",
    "prefectureNumber": 1,
    "prefecture": "北海道",
    "city": "天塩郡天塩町",
    "town": "山手裏通"
  },
  "0983303": {
    "zipcode": "0983303",
    "prefectureCode": "01",
    "prefectureNumber": 1,
    "prefecture": "北海道",
    "city": "天塩郡天塩町",
    "town": "新栄通"
  },
  "0983304": {
    "zipcode": "0983304",
    "prefectureCode": "01",
    "prefectureNumber": 1,
    "prefecture": "北海道",
    "city": "天塩郡天塩町",
    "town": "新地通"
  },
  "0983305": {
    "zipcode": "0983305",
    "prefectureCode": "01",
    "prefectureNumber": 1,
    "prefecture": "北海道",
    "city": "天塩郡天塩町",
    "town": "新開通"
  },
  "0983306": {
    "zipcode": "0983306",
    "prefectureCode": "01",
    "prefectureNumber": 1,
    "prefecture": "北海道",
    "city": "天塩郡天塩町",
    "town": "海岸通"
  },
  "0983311": {
    "zipcode": "0983311",
    "prefectureCode": "01",
    "prefectureNumber": 1,
    "prefecture": "北海道",
    "city": "天塩郡天塩町",
    "town": "産士"
  },
  "0983312": {
    "zipcode": "0983312",
    "prefectureCode": "01",
    "prefectureNumber": 1,
    "prefecture": "北海道",
    "city": "天塩郡天塩町",
    "town": "川口"
  },
  "0983313": {
    "zipcode": "0983313",
    "prefectureCode": "01",
    "prefectureNumber": 1,
    "prefecture": "北海道",
    "city": "天塩郡天塩町",
    "town": "作返"
  },
  "0983314": {
    "zipcode": "0983314",
    "prefectureCode": "01",
    "prefectureNumber": 1,
    "prefecture": "北海道",
    "city": "天塩郡天塩町",
    "town": "更岸"
  },
  "0983315": {
    "zipcode": "0983315",
    "prefectureCode": "01",
    "prefectureNumber": 1,
    "prefecture": "北海道",
    "city": "天塩郡天塩町",
    "town": "天塩"
  },
  "0983316": {
    "zipcode": "0983316",
    "prefectureCode": "01",
    "prefectureNumber": 1,
    "prefecture": "北海道",
    "city": "天塩郡天塩町",
    "town": "振老"
  },
  "0983361": {
    "zipcode": "0983361",
    "prefectureCode": "01",
    "prefectureNumber": 1,
    "prefecture": "北海道",
    "city": "天塩郡遠別町",
    "town": "北里（１５号の沢）"
  },
  "0983500": {
    "zipcode": "0983500",
    "prefectureCode": "01",
    "prefectureNumber": 1,
    "prefecture": "北海道",
    "city": "天塩郡遠別町",
    "town": "以下に掲載がない場合"
  },
  "0983501": {
    "zipcode": "0983501",
    "prefectureCode": "01",
    "prefectureNumber": 1,
    "prefecture": "北海道",
    "city": "天塩郡遠別町",
    "town": "北里（その他）"
  },
  "0983502": {
    "zipcode": "0983502",
    "prefectureCode": "01",
    "prefectureNumber": 1,
    "prefecture": "北海道",
    "city": "天塩郡遠別町",
    "town": "清川"
  },
  "0983503": {
    "zipcode": "0983503",
    "prefectureCode": "01",
    "prefectureNumber": 1,
    "prefecture": "北海道",
    "city": "天塩郡遠別町",
    "town": "啓明"
  },
  "0983504": {
    "zipcode": "0983504",
    "prefectureCode": "01",
    "prefectureNumber": 1,
    "prefecture": "北海道",
    "city": "天塩郡遠別町",
    "town": "丸松"
  },
  "0983511": {
    "zipcode": "0983511",
    "prefectureCode": "01",
    "prefectureNumber": 1,
    "prefecture": "北海道",
    "city": "天塩郡遠別町",
    "town": "久光"
  },
  "0983512": {
    "zipcode": "0983512",
    "prefectureCode": "01",
    "prefectureNumber": 1,
    "prefecture": "北海道",
    "city": "天塩郡遠別町",
    "town": "中央"
  },
  "0983521": {
    "zipcode": "0983521",
    "prefectureCode": "01",
    "prefectureNumber": 1,
    "prefecture": "北海道",
    "city": "天塩郡遠別町",
    "town": "共栄"
  },
  "0983522": {
    "zipcode": "0983522",
    "prefectureCode": "01",
    "prefectureNumber": 1,
    "prefecture": "北海道",
    "city": "天塩郡遠別町",
    "town": "大成"
  },
  "0983523": {
    "zipcode": "0983523",
    "prefectureCode": "01",
    "prefectureNumber": 1,
    "prefecture": "北海道",
    "city": "天塩郡遠別町",
    "town": "東野"
  },
  "0983531": {
    "zipcode": "0983531",
    "prefectureCode": "01",
    "prefectureNumber": 1,
    "prefecture": "北海道",
    "city": "天塩郡遠別町",
    "town": "旭"
  },
  "0983532": {
    "zipcode": "0983532",
    "prefectureCode": "01",
    "prefectureNumber": 1,
    "prefecture": "北海道",
    "city": "天塩郡遠別町",
    "town": "歌越"
  },
  "0983533": {
    "zipcode": "0983533",
    "prefectureCode": "01",
    "prefectureNumber": 1,
    "prefecture": "北海道",
    "city": "天塩郡遠別町",
    "town": "金浦"
  },
  "0983534": {
    "zipcode": "0983534",
    "prefectureCode": "01",
    "prefectureNumber": 1,
    "prefecture": "北海道",
    "city": "天塩郡遠別町",
    "town": "富士見"
  },
  "0983541": {
    "zipcode": "0983541",
    "prefectureCode": "01",
    "prefectureNumber": 1,
    "prefecture": "北海道",
    "city": "天塩郡遠別町",
    "town": "北浜"
  },
  "0983542": {
    "zipcode": "0983542",
    "prefectureCode": "01",
    "prefectureNumber": 1,
    "prefecture": "北海道",
    "city": "天塩郡遠別町",
    "town": "幸和"
  },
  "0983543": {
    "zipcode": "0983543",
    "prefectureCode": "01",
    "prefectureNumber": 1,
    "prefecture": "北海道",
    "city": "天塩郡遠別町",
    "town": "本町"
  },
  "0984100": {
    "zipcode": "0984100",
    "prefectureCode": "01",
    "prefectureNumber": 1,
    "prefecture": "北海道",
    "city": "天塩郡豊富町",
    "town": "以下に掲載がない場合"
  },
  "0984101": {
    "zipcode": "0984101",
    "prefectureCode": "01",
    "prefectureNumber": 1,
    "prefecture": "北海道",
    "city": "天塩郡豊富町",
    "town": "福永"
  },
  "0984102": {
    "zipcode": "0984102",
    "prefectureCode": "01",
    "prefectureNumber": 1,
    "prefecture": "北海道",
    "city": "天塩郡豊富町",
    "town": "目梨別"
  },
  "0984103": {
    "zipcode": "0984103",
    "prefectureCode": "01",
    "prefectureNumber": 1,
    "prefecture": "北海道",
    "city": "天塩郡豊富町",
    "town": "有明"
  },
  "0984104": {
    "zipcode": "0984104",
    "prefectureCode": "01",
    "prefectureNumber": 1,
    "prefecture": "北海道",
    "city": "天塩郡豊富町",
    "town": "修徳"
  },
  "0984105": {
    "zipcode": "0984105",
    "prefectureCode": "01",
    "prefectureNumber": 1,
    "prefecture": "北海道",
    "city": "天塩郡豊富町",
    "town": "幌加"
  },
  "0984106": {
    "zipcode": "0984106",
    "prefectureCode": "01",
    "prefectureNumber": 1,
    "prefecture": "北海道",
    "city": "天塩郡豊富町",
    "town": "豊徳"
  },
  "0984107": {
    "zipcode": "0984107",
    "prefectureCode": "01",
    "prefectureNumber": 1,
    "prefecture": "北海道",
    "city": "天塩郡豊富町",
    "town": "稚咲内"
  },
  "0984110": {
    "zipcode": "0984110",
    "prefectureCode": "01",
    "prefectureNumber": 1,
    "prefecture": "北海道",
    "city": "天塩郡豊富町",
    "town": "大通り"
  },
  "0984111": {
    "zipcode": "0984111",
    "prefectureCode": "01",
    "prefectureNumber": 1,
    "prefecture": "北海道",
    "city": "天塩郡豊富町",
    "town": "西一条"
  },
  "0984112": {
    "zipcode": "0984112",
    "prefectureCode": "01",
    "prefectureNumber": 1,
    "prefecture": "北海道",
    "city": "天塩郡豊富町",
    "town": "西二条"
  },
  "0984113": {
    "zipcode": "0984113",
    "prefectureCode": "01",
    "prefectureNumber": 1,
    "prefecture": "北海道",
    "city": "天塩郡豊富町",
    "town": "西三条"
  },
  "0984114": {
    "zipcode": "0984114",
    "prefectureCode": "01",
    "prefectureNumber": 1,
    "prefecture": "北海道",
    "city": "天塩郡豊富町",
    "town": "西四条"
  },
  "0984115": {
    "zipcode": "0984115",
    "prefectureCode": "01",
    "prefectureNumber": 1,
    "prefecture": "北海道",
    "city": "天塩郡豊富町",
    "town": "西五条"
  },
  "0984116": {
    "zipcode": "0984116",
    "prefectureCode": "01",
    "prefectureNumber": 1,
    "prefecture": "北海道",
    "city": "天塩郡豊富町",
    "town": "西豊富"
  },
  "0984117": {
    "zipcode": "0984117",
    "prefectureCode": "01",
    "prefectureNumber": 1,
    "prefecture": "北海道",
    "city": "天塩郡豊富町",
    "town": "落合（その他）"
  },
  "0984121": {
    "zipcode": "0984121",
    "prefectureCode": "01",
    "prefectureNumber": 1,
    "prefecture": "北海道",
    "city": "天塩郡豊富町",
    "town": "東一条"
  },
  "0984122": {
    "zipcode": "0984122",
    "prefectureCode": "01",
    "prefectureNumber": 1,
    "prefecture": "北海道",
    "city": "天塩郡豊富町",
    "town": "東二条"
  },
  "0984123": {
    "zipcode": "0984123",
    "prefectureCode": "01",
    "prefectureNumber": 1,
    "prefecture": "北海道",
    "city": "天塩郡豊富町",
    "town": "東三条"
  },
  "0984124": {
    "zipcode": "0984124",
    "prefectureCode": "01",
    "prefectureNumber": 1,
    "prefecture": "北海道",
    "city": "天塩郡豊富町",
    "town": "東四条"
  },
  "0984125": {
    "zipcode": "0984125",
    "prefectureCode": "01",
    "prefectureNumber": 1,
    "prefecture": "北海道",
    "city": "天塩郡豊富町",
    "town": "東五条"
  },
  "0984126": {
    "zipcode": "0984126",
    "prefectureCode": "01",
    "prefectureNumber": 1,
    "prefecture": "北海道",
    "city": "天塩郡豊富町",
    "town": "東六条"
  },
  "0984131": {
    "zipcode": "0984131",
    "prefectureCode": "01",
    "prefectureNumber": 1,
    "prefecture": "北海道",
    "city": "天塩郡豊富町",
    "town": "東豊富"
  },
  "0984132": {
    "zipcode": "0984132",
    "prefectureCode": "01",
    "prefectureNumber": 1,
    "prefecture": "北海道",
    "city": "天塩郡豊富町",
    "town": "温泉"
  },
  "0984133": {
    "zipcode": "0984133",
    "prefectureCode": "01",
    "prefectureNumber": 1,
    "prefecture": "北海道",
    "city": "天塩郡豊富町",
    "town": "本流"
  },
  "0984134": {
    "zipcode": "0984134",
    "prefectureCode": "01",
    "prefectureNumber": 1,
    "prefecture": "北海道",
    "city": "天塩郡豊富町",
    "town": "豊幌"
  },
  "0984135": {
    "zipcode": "0984135",
    "prefectureCode": "01",
    "prefectureNumber": 1,
    "prefecture": "北海道",
    "city": "天塩郡豊富町",
    "town": "豊川"
  },
  "0984136": {
    "zipcode": "0984136",
    "prefectureCode": "01",
    "prefectureNumber": 1,
    "prefecture": "北海道",
    "city": "天塩郡豊富町",
    "town": "新生"
  },
  "0984137": {
    "zipcode": "0984137",
    "prefectureCode": "01",
    "prefectureNumber": 1,
    "prefecture": "北海道",
    "city": "天塩郡豊富町",
    "town": "徳満"
  },
  "0984138": {
    "zipcode": "0984138",
    "prefectureCode": "01",
    "prefectureNumber": 1,
    "prefecture": "北海道",
    "city": "天塩郡豊富町",
    "town": "駅前通"
  },
  "0984139": {
    "zipcode": "0984139",
    "prefectureCode": "01",
    "prefectureNumber": 1,
    "prefecture": "北海道",
    "city": "天塩郡豊富町",
    "town": "仲通り"
  },
  "0984140": {
    "zipcode": "0984140",
    "prefectureCode": "01",
    "prefectureNumber": 1,
    "prefecture": "北海道",
    "city": "天塩郡豊富町",
    "town": "停車場通"
  },
  "0984141": {
    "zipcode": "0984141",
    "prefectureCode": "01",
    "prefectureNumber": 1,
    "prefecture": "北海道",
    "city": "天塩郡豊富町",
    "town": "三条通り"
  },
  "0984451": {
    "zipcode": "0984451",
    "prefectureCode": "01",
    "prefectureNumber": 1,
    "prefecture": "北海道",
    "city": "天塩郡豊富町",
    "town": "兜沼"
  },
  "0984455": {
    "zipcode": "0984455",
    "prefectureCode": "01",
    "prefectureNumber": 1,
    "prefecture": "北海道",
    "city": "天塩郡豊富町",
    "town": "芦川"
  },
  "0984456": {
    "zipcode": "0984456",
    "prefectureCode": "01",
    "prefectureNumber": 1,
    "prefecture": "北海道",
    "city": "天塩郡豊富町",
    "town": "開源"
  },
  "0984457": {
    "zipcode": "0984457",
    "prefectureCode": "01",
    "prefectureNumber": 1,
    "prefecture": "北海道",
    "city": "天塩郡豊富町",
    "town": "沼向"
  },
  "0984461": {
    "zipcode": "0984461",
    "prefectureCode": "01",
    "prefectureNumber": 1,
    "prefecture": "北海道",
    "city": "天塩郡豊富町",
    "town": "瑞穂東"
  },
  "0984462": {
    "zipcode": "0984462",
    "prefectureCode": "01",
    "prefectureNumber": 1,
    "prefecture": "北海道",
    "city": "天塩郡豊富町",
    "town": "阿沙流"
  },
  "0984463": {
    "zipcode": "0984463",
    "prefectureCode": "01",
    "prefectureNumber": 1,
    "prefecture": "北海道",
    "city": "天塩郡豊富町",
    "town": "瑞穂南"
  },
  "0984464": {
    "zipcode": "0984464",
    "prefectureCode": "01",
    "prefectureNumber": 1,
    "prefecture": "北海道",
    "city": "天塩郡豊富町",
    "town": "豊栄"
  },
  "0984465": {
    "zipcode": "0984465",
    "prefectureCode": "01",
    "prefectureNumber": 1,
    "prefecture": "北海道",
    "city": "天塩郡豊富町",
    "town": "豊田"
  },
  "0984466": {
    "zipcode": "0984466",
    "prefectureCode": "01",
    "prefectureNumber": 1,
    "prefecture": "北海道",
    "city": "天塩郡豊富町",
    "town": "清明"
  },
  "0984467": {
    "zipcode": "0984467",
    "prefectureCode": "01",
    "prefectureNumber": 1,
    "prefecture": "北海道",
    "city": "天塩郡豊富町",
    "town": "豊里"
  },
  "0984468": {
    "zipcode": "0984468",
    "prefectureCode": "01",
    "prefectureNumber": 1,
    "prefecture": "北海道",
    "city": "天塩郡豊富町",
    "town": "落合（４４６８番地）"
  },
  "0984581": {
    "zipcode": "0984581",
    "prefectureCode": "01",
    "prefectureNumber": 1,
    "prefecture": "北海道",
    "city": "稚内市",
    "town": "抜海村（上勇知、下勇知、夕来、オネトマナイ）"
  },
  "0984582": {
    "zipcode": "0984582",
    "prefectureCode": "01",
    "prefectureNumber": 1,
    "prefecture": "北海道",
    "city": "稚内市",
    "town": "声問村（更喜苫内）"
  },
  "0985101": {
    "zipcode": "0985101",
    "prefectureCode": "01",
    "prefectureNumber": 1,
    "prefecture": "北海道",
    "city": "枝幸郡中頓別町",
    "town": "岩手"
  },
  "0985102": {
    "zipcode": "0985102",
    "prefectureCode": "01",
    "prefectureNumber": 1,
    "prefecture": "北海道",
    "city": "枝幸郡中頓別町",
    "town": "小頓別"
  },
  "0985103": {
    "zipcode": "0985103",
    "prefectureCode": "01",
    "prefectureNumber": 1,
    "prefecture": "北海道",
    "city": "枝幸郡中頓別町",
    "town": "秋田"
  },
  "0985111": {
    "zipcode": "0985111",
    "prefectureCode": "01",
    "prefectureNumber": 1,
    "prefecture": "北海道",
    "city": "枝幸郡中頓別町",
    "town": "上頓別"
  },
  "0985112": {
    "zipcode": "0985112",
    "prefectureCode": "01",
    "prefectureNumber": 1,
    "prefecture": "北海道",
    "city": "枝幸郡中頓別町",
    "town": "豊平"
  },
  "0985113": {
    "zipcode": "0985113",
    "prefectureCode": "01",
    "prefectureNumber": 1,
    "prefecture": "北海道",
    "city": "枝幸郡中頓別町",
    "town": "敏音知"
  },
  "0985201": {
    "zipcode": "0985201",
    "prefectureCode": "01",
    "prefectureNumber": 1,
    "prefecture": "北海道",
    "city": "枝幸郡枝幸町",
    "town": "歌登パンケナイ"
  },
  "0985202": {
    "zipcode": "0985202",
    "prefectureCode": "01",
    "prefectureNumber": 1,
    "prefecture": "北海道",
    "city": "枝幸郡枝幸町",
    "town": "歌登東歌登"
  },
  "0985203": {
    "zipcode": "0985203",
    "prefectureCode": "01",
    "prefectureNumber": 1,
    "prefecture": "北海道",
    "city": "枝幸郡枝幸町",
    "town": "歌登辺毛内"
  },
  "0985204": {
    "zipcode": "0985204",
    "prefectureCode": "01",
    "prefectureNumber": 1,
    "prefecture": "北海道",
    "city": "枝幸郡枝幸町",
    "town": "歌登南町"
  },
  "0985205": {
    "zipcode": "0985205",
    "prefectureCode": "01",
    "prefectureNumber": 1,
    "prefecture": "北海道",
    "city": "枝幸郡枝幸町",
    "town": "歌登桧垣町"
  },
  "0985206": {
    "zipcode": "0985206",
    "prefectureCode": "01",
    "prefectureNumber": 1,
    "prefecture": "北海道",
    "city": "枝幸郡枝幸町",
    "town": "歌登西町"
  },
  "0985207": {
    "zipcode": "0985207",
    "prefectureCode": "01",
    "prefectureNumber": 1,
    "prefecture": "北海道",
    "city": "枝幸郡枝幸町",
    "town": "歌登東町"
  },
  "0985211": {
    "zipcode": "0985211",
    "prefectureCode": "01",
    "prefectureNumber": 1,
    "prefecture": "北海道",
    "city": "枝幸郡枝幸町",
    "town": "歌登西歌登"
  },
  "0985212": {
    "zipcode": "0985212",
    "prefectureCode": "01",
    "prefectureNumber": 1,
    "prefecture": "北海道",
    "city": "枝幸郡枝幸町",
    "town": "歌登中央"
  },
  "0985213": {
    "zipcode": "0985213",
    "prefectureCode": "01",
    "prefectureNumber": 1,
    "prefecture": "北海道",
    "city": "枝幸郡枝幸町",
    "town": "歌登本幌別"
  },
  "0985221": {
    "zipcode": "0985221",
    "prefectureCode": "01",
    "prefectureNumber": 1,
    "prefecture": "北海道",
    "city": "枝幸郡枝幸町",
    "town": "歌登毛登別"
  },
  "0985441": {
    "zipcode": "0985441",
    "prefectureCode": "01",
    "prefectureNumber": 1,
    "prefecture": "北海道",
    "city": "枝幸郡枝幸町",
    "town": "歌登志美宇丹"
  },
  "0985442": {
    "zipcode": "0985442",
    "prefectureCode": "01",
    "prefectureNumber": 1,
    "prefecture": "北海道",
    "city": "枝幸郡枝幸町",
    "town": "歌登豊沃"
  },
  "0985443": {
    "zipcode": "0985443",
    "prefectureCode": "01",
    "prefectureNumber": 1,
    "prefecture": "北海道",
    "city": "枝幸郡枝幸町",
    "town": "歌登上徳志別"
  },
  "0985444": {
    "zipcode": "0985444",
    "prefectureCode": "01",
    "prefectureNumber": 1,
    "prefecture": "北海道",
    "city": "枝幸郡枝幸町",
    "town": "歌登大奮"
  },
  "0985445": {
    "zipcode": "0985445",
    "prefectureCode": "01",
    "prefectureNumber": 1,
    "prefecture": "北海道",
    "city": "枝幸郡枝幸町",
    "town": "歌登大曲"
  },
  "0985500": {
    "zipcode": "0985500",
    "prefectureCode": "01",
    "prefectureNumber": 1,
    "prefecture": "北海道",
    "city": "枝幸郡中頓別町",
    "town": "以下に掲載がない場合"
  },
  "0985551": {
    "zipcode": "0985551",
    "prefectureCode": "01",
    "prefectureNumber": 1,
    "prefecture": "北海道",
    "city": "枝幸郡中頓別町",
    "town": "中頓別"
  },
  "0985552": {
    "zipcode": "0985552",
    "prefectureCode": "01",
    "prefectureNumber": 1,
    "prefecture": "北海道",
    "city": "枝幸郡中頓別町",
    "town": "寿"
  },
  "0985553": {
    "zipcode": "0985553",
    "prefectureCode": "01",
    "prefectureNumber": 1,
    "prefecture": "北海道",
    "city": "枝幸郡中頓別町",
    "town": "弥生"
  },
  "0985554": {
    "zipcode": "0985554",
    "prefectureCode": "01",
    "prefectureNumber": 1,
    "prefecture": "北海道",
    "city": "枝幸郡中頓別町",
    "town": "旭台"
  },
  "0985555": {
    "zipcode": "0985555",
    "prefectureCode": "01",
    "prefectureNumber": 1,
    "prefecture": "北海道",
    "city": "枝幸郡中頓別町",
    "town": "豊泉"
  },
  "0985561": {
    "zipcode": "0985561",
    "prefectureCode": "01",
    "prefectureNumber": 1,
    "prefecture": "北海道",
    "city": "枝幸郡中頓別町",
    "town": "兵安"
  },
  "0985562": {
    "zipcode": "0985562",
    "prefectureCode": "01",
    "prefectureNumber": 1,
    "prefecture": "北海道",
    "city": "枝幸郡中頓別町",
    "town": "神崎"
  },
  "0985563": {
    "zipcode": "0985563",
    "prefectureCode": "01",
    "prefectureNumber": 1,
    "prefecture": "北海道",
    "city": "枝幸郡中頓別町",
    "town": "藤井"
  },
  "0985564": {
    "zipcode": "0985564",
    "prefectureCode": "01",
    "prefectureNumber": 1,
    "prefecture": "北海道",
    "city": "枝幸郡中頓別町",
    "town": "上駒"
  },
  "0985565": {
    "zipcode": "0985565",
    "prefectureCode": "01",
    "prefectureNumber": 1,
    "prefecture": "北海道",
    "city": "枝幸郡中頓別町",
    "town": "松音知"
  },
  "0985700": {
    "zipcode": "0985700",
    "prefectureCode": "01",
    "prefectureNumber": 1,
    "prefecture": "北海道",
    "city": "枝幸郡浜頓別町",
    "town": "以下に掲載がない場合"
  },
  "0985701": {
    "zipcode": "0985701",
    "prefectureCode": "01",
    "prefectureNumber": 1,
    "prefecture": "北海道",
    "city": "枝幸郡浜頓別町",
    "town": "頓別"
  },
  "0985702": {
    "zipcode": "0985702",
    "prefectureCode": "01",
    "prefectureNumber": 1,
    "prefecture": "北海道",
    "city": "枝幸郡浜頓別町",
    "town": "豊寒別"
  },
  "0985703": {
    "zipcode": "0985703",
    "prefectureCode": "01",
    "prefectureNumber": 1,
    "prefecture": "北海道",
    "city": "枝幸郡浜頓別町",
    "town": "豊浜"
  },
  "0985704": {
    "zipcode": "0985704",
    "prefectureCode": "01",
    "prefectureNumber": 1,
    "prefecture": "北海道",
    "city": "枝幸郡浜頓別町",
    "town": "中央北"
  },
  "0985705": {
    "zipcode": "0985705",
    "prefectureCode": "01",
    "prefectureNumber": 1,
    "prefecture": "北海道",
    "city": "枝幸郡浜頓別町",
    "town": "中央南"
  },
  "0985711": {
    "zipcode": "0985711",
    "prefectureCode": "01",
    "prefectureNumber": 1,
    "prefecture": "北海道",
    "city": "枝幸郡浜頓別町",
    "town": "北１条"
  },
  "0985712": {
    "zipcode": "0985712",
    "prefectureCode": "01",
    "prefectureNumber": 1,
    "prefecture": "北海道",
    "city": "枝幸郡浜頓別町",
    "town": "北２条"
  },
  "0985713": {
    "zipcode": "0985713",
    "prefectureCode": "01",
    "prefectureNumber": 1,
    "prefecture": "北海道",
    "city": "枝幸郡浜頓別町",
    "town": "北３条"
  },
  "0985714": {
    "zipcode": "0985714",
    "prefectureCode": "01",
    "prefectureNumber": 1,
    "prefecture": "北海道",
    "city": "枝幸郡浜頓別町",
    "town": "北４条"
  },
  "0985717": {
    "zipcode": "0985717",
    "prefectureCode": "01",
    "prefectureNumber": 1,
    "prefecture": "北海道",
    "city": "枝幸郡浜頓別町",
    "town": "浜頓別"
  },
  "0985721": {
    "zipcode": "0985721",
    "prefectureCode": "01",
    "prefectureNumber": 1,
    "prefecture": "北海道",
    "city": "枝幸郡浜頓別町",
    "town": "南１条"
  },
  "0985722": {
    "zipcode": "0985722",
    "prefectureCode": "01",
    "prefectureNumber": 1,
    "prefecture": "北海道",
    "city": "枝幸郡浜頓別町",
    "town": "南２条"
  },
  "0985723": {
    "zipcode": "0985723",
    "prefectureCode": "01",
    "prefectureNumber": 1,
    "prefecture": "北海道",
    "city": "枝幸郡浜頓別町",
    "town": "南３条"
  },
  "0985725": {
    "zipcode": "0985725",
    "prefectureCode": "01",
    "prefectureNumber": 1,
    "prefecture": "北海道",
    "city": "枝幸郡浜頓別町",
    "town": "大通"
  },
  "0985734": {
    "zipcode": "0985734",
    "prefectureCode": "01",
    "prefectureNumber": 1,
    "prefecture": "北海道",
    "city": "枝幸郡浜頓別町",
    "town": "日の出"
  },
  "0985738": {
    "zipcode": "0985738",
    "prefectureCode": "01",
    "prefectureNumber": 1,
    "prefecture": "北海道",
    "city": "枝幸郡浜頓別町",
    "town": "緑ケ丘"
  },
  "0985739": {
    "zipcode": "0985739",
    "prefectureCode": "01",
    "prefectureNumber": 1,
    "prefecture": "北海道",
    "city": "枝幸郡浜頓別町",
    "town": "クッチャロ湖畔"
  },
  "0985741": {
    "zipcode": "0985741",
    "prefectureCode": "01",
    "prefectureNumber": 1,
    "prefecture": "北海道",
    "city": "枝幸郡浜頓別町",
    "town": "旭ケ丘"
  },
  "0985742": {
    "zipcode": "0985742",
    "prefectureCode": "01",
    "prefectureNumber": 1,
    "prefecture": "北海道",
    "city": "枝幸郡浜頓別町",
    "town": "戸出"
  },
  "0985743": {
    "zipcode": "0985743",
    "prefectureCode": "01",
    "prefectureNumber": 1,
    "prefecture": "北海道",
    "city": "枝幸郡浜頓別町",
    "town": "楓"
  },
  "0985744": {
    "zipcode": "0985744",
    "prefectureCode": "01",
    "prefectureNumber": 1,
    "prefecture": "北海道",
    "city": "枝幸郡浜頓別町",
    "town": "宇曽丹"
  },
  "0985745": {
    "zipcode": "0985745",
    "prefectureCode": "01",
    "prefectureNumber": 1,
    "prefecture": "北海道",
    "city": "枝幸郡浜頓別町",
    "town": "常盤"
  },
  "0985751": {
    "zipcode": "0985751",
    "prefectureCode": "01",
    "prefectureNumber": 1,
    "prefecture": "北海道",
    "city": "枝幸郡浜頓別町",
    "town": "金ヶ丘"
  },
  "0985752": {
    "zipcode": "0985752",
    "prefectureCode": "01",
    "prefectureNumber": 1,
    "prefecture": "北海道",
    "city": "枝幸郡浜頓別町",
    "town": "下頓別"
  },
  "0985753": {
    "zipcode": "0985753",
    "prefectureCode": "01",
    "prefectureNumber": 1,
    "prefecture": "北海道",
    "city": "枝幸郡浜頓別町",
    "town": "高砂"
  },
  "0985754": {
    "zipcode": "0985754",
    "prefectureCode": "01",
    "prefectureNumber": 1,
    "prefecture": "北海道",
    "city": "枝幸郡浜頓別町",
    "town": "宇津内"
  },
  "0985755": {
    "zipcode": "0985755",
    "prefectureCode": "01",
    "prefectureNumber": 1,
    "prefecture": "北海道",
    "city": "枝幸郡浜頓別町",
    "town": "茂宇津内"
  },
  "0985761": {
    "zipcode": "0985761",
    "prefectureCode": "01",
    "prefectureNumber": 1,
    "prefecture": "北海道",
    "city": "枝幸郡浜頓別町",
    "town": "山軽"
  },
  "0985762": {
    "zipcode": "0985762",
    "prefectureCode": "01",
    "prefectureNumber": 1,
    "prefecture": "北海道",
    "city": "枝幸郡浜頓別町",
    "town": "ポン仁達内"
  },
  "0985763": {
    "zipcode": "0985763",
    "prefectureCode": "01",
    "prefectureNumber": 1,
    "prefecture": "北海道",
    "city": "枝幸郡浜頓別町",
    "town": "仁達内"
  },
  "0985764": {
    "zipcode": "0985764",
    "prefectureCode": "01",
    "prefectureNumber": 1,
    "prefecture": "北海道",
    "city": "枝幸郡浜頓別町",
    "town": "安別"
  },
  "0985765": {
    "zipcode": "0985765",
    "prefectureCode": "01",
    "prefectureNumber": 1,
    "prefecture": "北海道",
    "city": "枝幸郡浜頓別町",
    "town": "共和"
  },
  "0985800": {
    "zipcode": "0985800",
    "prefectureCode": "01",
    "prefectureNumber": 1,
    "prefecture": "北海道",
    "city": "枝幸郡枝幸町",
    "town": "以下に掲載がない場合"
  },
  "0985801": {
    "zipcode": "0985801",
    "prefectureCode": "01",
    "prefectureNumber": 1,
    "prefecture": "北海道",
    "city": "枝幸郡枝幸町",
    "town": "徳志別"
  },
  "0985802": {
    "zipcode": "0985802",
    "prefectureCode": "01",
    "prefectureNumber": 1,
    "prefecture": "北海道",
    "city": "枝幸郡枝幸町",
    "town": "岡島"
  },
  "0985803": {
    "zipcode": "0985803",
    "prefectureCode": "01",
    "prefectureNumber": 1,
    "prefecture": "北海道",
    "city": "枝幸郡枝幸町",
    "town": "下幌別"
  },
  "0985804": {
    "zipcode": "0985804",
    "prefectureCode": "01",
    "prefectureNumber": 1,
    "prefecture": "北海道",
    "city": "枝幸郡枝幸町",
    "town": "南浜町"
  },
  "0985805": {
    "zipcode": "0985805",
    "prefectureCode": "01",
    "prefectureNumber": 1,
    "prefecture": "北海道",
    "city": "枝幸郡枝幸町",
    "town": "幸町"
  },
  "0985806": {
    "zipcode": "0985806",
    "prefectureCode": "01",
    "prefectureNumber": 1,
    "prefecture": "北海道",
    "city": "枝幸郡枝幸町",
    "town": "梅ケ枝町"
  },
  "0985807": {
    "zipcode": "0985807",
    "prefectureCode": "01",
    "prefectureNumber": 1,
    "prefecture": "北海道",
    "city": "枝幸郡枝幸町",
    "town": "本町"
  },
  "0985808": {
    "zipcode": "0985808",
    "prefectureCode": "01",
    "prefectureNumber": 1,
    "prefecture": "北海道",
    "city": "枝幸郡枝幸町",
    "town": "新港町"
  },
  "0985814": {
    "zipcode": "0985814",
    "prefectureCode": "01",
    "prefectureNumber": 1,
    "prefecture": "北海道",
    "city": "枝幸郡枝幸町",
    "town": "岬町"
  },
  "0985815": {
    "zipcode": "0985815",
    "prefectureCode": "01",
    "prefectureNumber": 1,
    "prefecture": "北海道",
    "city": "枝幸郡枝幸町",
    "town": "問牧"
  },
  "0985816": {
    "zipcode": "0985816",
    "prefectureCode": "01",
    "prefectureNumber": 1,
    "prefecture": "北海道",
    "city": "枝幸郡枝幸町",
    "town": "目梨泊"
  },
  "0985821": {
    "zipcode": "0985821",
    "prefectureCode": "01",
    "prefectureNumber": 1,
    "prefecture": "北海道",
    "city": "枝幸郡枝幸町",
    "town": "栄町"
  },
  "0985822": {
    "zipcode": "0985822",
    "prefectureCode": "01",
    "prefectureNumber": 1,
    "prefecture": "北海道",
    "city": "枝幸郡枝幸町",
    "town": "北幸町"
  },
  "0985823": {
    "zipcode": "0985823",
    "prefectureCode": "01",
    "prefectureNumber": 1,
    "prefecture": "北海道",
    "city": "枝幸郡枝幸町",
    "town": "三笠町"
  },
  "0985824": {
    "zipcode": "0985824",
    "prefectureCode": "01",
    "prefectureNumber": 1,
    "prefecture": "北海道",
    "city": "枝幸郡枝幸町",
    "town": "北栄町"
  },
  "0985825": {
    "zipcode": "0985825",
    "prefectureCode": "01",
    "prefectureNumber": 1,
    "prefecture": "北海道",
    "city": "枝幸郡枝幸町",
    "town": "新栄町"
  },
  "0985826": {
    "zipcode": "0985826",
    "prefectureCode": "01",
    "prefectureNumber": 1,
    "prefecture": "北海道",
    "city": "枝幸郡枝幸町",
    "town": "北浜町"
  },
  "0985827": {
    "zipcode": "0985827",
    "prefectureCode": "01",
    "prefectureNumber": 1,
    "prefecture": "北海道",
    "city": "枝幸郡枝幸町",
    "town": "宇遠内"
  },
  "0985951": {
    "zipcode": "0985951",
    "prefectureCode": "01",
    "prefectureNumber": 1,
    "prefecture": "北海道",
    "city": "枝幸郡枝幸町",
    "town": "山臼"
  },
  "0985952": {
    "zipcode": "0985952",
    "prefectureCode": "01",
    "prefectureNumber": 1,
    "prefecture": "北海道",
    "city": "枝幸郡枝幸町",
    "town": "乙忠部"
  },
  "0985953": {
    "zipcode": "0985953",
    "prefectureCode": "01",
    "prefectureNumber": 1,
    "prefecture": "北海道",
    "city": "枝幸郡枝幸町",
    "town": "風烈布"
  },
  "0985954": {
    "zipcode": "0985954",
    "prefectureCode": "01",
    "prefectureNumber": 1,
    "prefecture": "北海道",
    "city": "枝幸郡枝幸町",
    "town": "上音標"
  },
  "0985955": {
    "zipcode": "0985955",
    "prefectureCode": "01",
    "prefectureNumber": 1,
    "prefecture": "北海道",
    "city": "枝幸郡枝幸町",
    "town": "音標"
  },
  "0986101": {
    "zipcode": "0986101",
    "prefectureCode": "01",
    "prefectureNumber": 1,
    "prefecture": "北海道",
    "city": "宗谷郡猿払村",
    "town": "浅茅野"
  },
  "0986102": {
    "zipcode": "0986102",
    "prefectureCode": "01",
    "prefectureNumber": 1,
    "prefecture": "北海道",
    "city": "宗谷郡猿払村",
    "town": "浅茅野台地"
  },
  "0986103": {
    "zipcode": "0986103",
    "prefectureCode": "01",
    "prefectureNumber": 1,
    "prefecture": "北海道",
    "city": "宗谷郡猿払村",
    "town": "狩別"
  },
  "0986104": {
    "zipcode": "0986104",
    "prefectureCode": "01",
    "prefectureNumber": 1,
    "prefecture": "北海道",
    "city": "宗谷郡猿払村",
    "town": "猿払"
  },
  "0986105": {
    "zipcode": "0986105",
    "prefectureCode": "01",
    "prefectureNumber": 1,
    "prefecture": "北海道",
    "city": "宗谷郡猿払村",
    "town": "浜猿払"
  },
  "0986106": {
    "zipcode": "0986106",
    "prefectureCode": "01",
    "prefectureNumber": 1,
    "prefecture": "北海道",
    "city": "宗谷郡猿払村",
    "town": "上猿払"
  },
  "0986200": {
    "zipcode": "0986200",
    "prefectureCode": "01",
    "prefectureNumber": 1,
    "prefecture": "北海道",
    "city": "宗谷郡猿払村",
    "town": "以下に掲載がない場合"
  },
  "0986222": {
    "zipcode": "0986222",
    "prefectureCode": "01",
    "prefectureNumber": 1,
    "prefecture": "北海道",
    "city": "宗谷郡猿払村",
    "town": "浜鬼志別"
  },
  "0986225": {
    "zipcode": "0986225",
    "prefectureCode": "01",
    "prefectureNumber": 1,
    "prefecture": "北海道",
    "city": "宗谷郡猿払村",
    "town": "芦野"
  },
  "0986226": {
    "zipcode": "0986226",
    "prefectureCode": "01",
    "prefectureNumber": 1,
    "prefecture": "北海道",
    "city": "宗谷郡猿払村",
    "town": "豊里"
  },
  "0986228": {
    "zipcode": "0986228",
    "prefectureCode": "01",
    "prefectureNumber": 1,
    "prefecture": "北海道",
    "city": "宗谷郡猿払村",
    "town": "小石"
  },
  "0986231": {
    "zipcode": "0986231",
    "prefectureCode": "01",
    "prefectureNumber": 1,
    "prefecture": "北海道",
    "city": "宗谷郡猿払村",
    "town": "鬼志別東町"
  },
  "0986232": {
    "zipcode": "0986232",
    "prefectureCode": "01",
    "prefectureNumber": 1,
    "prefecture": "北海道",
    "city": "宗谷郡猿払村",
    "town": "鬼志別西町"
  },
  "0986233": {
    "zipcode": "0986233",
    "prefectureCode": "01",
    "prefectureNumber": 1,
    "prefecture": "北海道",
    "city": "宗谷郡猿払村",
    "town": "鬼志別南町"
  },
  "0986234": {
    "zipcode": "0986234",
    "prefectureCode": "01",
    "prefectureNumber": 1,
    "prefecture": "北海道",
    "city": "宗谷郡猿払村",
    "town": "鬼志別北町"
  },
  "0986341": {
    "zipcode": "0986341",
    "prefectureCode": "01",
    "prefectureNumber": 1,
    "prefecture": "北海道",
    "city": "宗谷郡猿払村",
    "town": "知来別"
  },
  "0986384": {
    "zipcode": "0986384",
    "prefectureCode": "01",
    "prefectureNumber": 1,
    "prefecture": "北海道",
    "city": "稚内市",
    "town": "宗谷村（峰岡）"
  },
  "0986385": {
    "zipcode": "0986385",
    "prefectureCode": "01",
    "prefectureNumber": 1,
    "prefecture": "北海道",
    "city": "稚内市",
    "town": "宗谷村（東浦）"
  },
  "0986561": {
    "zipcode": "0986561",
    "prefectureCode": "01",
    "prefectureNumber": 1,
    "prefecture": "北海道",
    "city": "稚内市",
    "town": "声問村（樺岡）"
  },
  "0986562": {
    "zipcode": "0986562",
    "prefectureCode": "01",
    "prefectureNumber": 1,
    "prefecture": "北海道",
    "city": "稚内市",
    "town": "声問村（上声問）"
  },
  "0986563": {
    "zipcode": "0986563",
    "prefectureCode": "01",
    "prefectureNumber": 1,
    "prefecture": "北海道",
    "city": "稚内市",
    "town": "声問村（沼川）"
  },
  "0986564": {
    "zipcode": "0986564",
    "prefectureCode": "01",
    "prefectureNumber": 1,
    "prefecture": "北海道",
    "city": "稚内市",
    "town": "声問村（川西）"
  },
  "0986565": {
    "zipcode": "0986565",
    "prefectureCode": "01",
    "prefectureNumber": 1,
    "prefecture": "北海道",
    "city": "稚内市",
    "town": "声問村（曙）"
  },
  "0986571": {
    "zipcode": "0986571",
    "prefectureCode": "01",
    "prefectureNumber": 1,
    "prefecture": "北海道",
    "city": "稚内市",
    "town": "声問村（曲渕）"
  },
  "0986572": {
    "zipcode": "0986572",
    "prefectureCode": "01",
    "prefectureNumber": 1,
    "prefecture": "北海道",
    "city": "稚内市",
    "town": "声問村（開進）"
  },
  "0986573": {
    "zipcode": "0986573",
    "prefectureCode": "01",
    "prefectureNumber": 1,
    "prefecture": "北海道",
    "city": "稚内市",
    "town": "声問村（下豊別）"
  },
  "0986574": {
    "zipcode": "0986574",
    "prefectureCode": "01",
    "prefectureNumber": 1,
    "prefecture": "北海道",
    "city": "稚内市",
    "town": "声問村（上豊別）"
  },
  "0986575": {
    "zipcode": "0986575",
    "prefectureCode": "01",
    "prefectureNumber": 1,
    "prefecture": "北海道",
    "city": "稚内市",
    "town": "声問村（天興）"
  },
  "0986576": {
    "zipcode": "0986576",
    "prefectureCode": "01",
    "prefectureNumber": 1,
    "prefecture": "北海道",
    "city": "稚内市",
    "town": "声問村（川南）"
  },
  "0986642": {
    "zipcode": "0986642",
    "prefectureCode": "01",
    "prefectureNumber": 1,
    "prefecture": "北海道",
    "city": "稚内市",
    "town": "声問村（声問）"
  },
  "0986643": {
    "zipcode": "0986643",
    "prefectureCode": "01",
    "prefectureNumber": 1,
    "prefecture": "北海道",
    "city": "稚内市",
    "town": "声問村（メクマ）"
  },
  "0986644": {
    "zipcode": "0986644",
    "prefectureCode": "01",
    "prefectureNumber": 1,
    "prefecture": "北海道",
    "city": "稚内市",
    "town": "宗谷村（増幌）"
  },
  "0986645": {
    "zipcode": "0986645",
    "prefectureCode": "01",
    "prefectureNumber": 1,
    "prefecture": "北海道",
    "city": "稚内市",
    "town": "声問村（恵北）"
  },
  "0986751": {
    "zipcode": "0986751",
    "prefectureCode": "01",
    "prefectureNumber": 1,
    "prefecture": "北海道",
    "city": "稚内市",
    "town": "宗谷村（豊岩）"
  },
  "0986754": {
    "zipcode": "0986754",
    "prefectureCode": "01",
    "prefectureNumber": 1,
    "prefecture": "北海道",
    "city": "稚内市",
    "town": "宗谷村（清浜）"
  },
  "0986755": {
    "zipcode": "0986755",
    "prefectureCode": "01",
    "prefectureNumber": 1,
    "prefecture": "北海道",
    "city": "稚内市",
    "town": "宗谷村（宗谷）"
  },
  "0986756": {
    "zipcode": "0986756",
    "prefectureCode": "01",
    "prefectureNumber": 1,
    "prefecture": "北海道",
    "city": "稚内市",
    "town": "宗谷村（富磯）"
  },
  "0986757": {
    "zipcode": "0986757",
    "prefectureCode": "01",
    "prefectureNumber": 1,
    "prefecture": "北海道",
    "city": "稚内市",
    "town": "宗谷村（増幌浜）"
  },
  "0986758": {
    "zipcode": "0986758",
    "prefectureCode": "01",
    "prefectureNumber": 1,
    "prefecture": "北海道",
    "city": "稚内市",
    "town": "宗谷岬"
  }
}
