{
  "0990101": {
    "zipcode": "0990101",
    "prefectureCode": "01",
    "prefectureNumber": 1,
    "prefecture": "北海道",
    "city": "紋別郡遠軽町",
    "town": "下白滝"
  },
  "0990102": {
    "zipcode": "0990102",
    "prefectureCode": "01",
    "prefectureNumber": 1,
    "prefecture": "北海道",
    "city": "紋別郡遠軽町",
    "town": "旧白滝"
  },
  "0990111": {
    "zipcode": "0990111",
    "prefectureCode": "01",
    "prefectureNumber": 1,
    "prefecture": "北海道",
    "city": "紋別郡遠軽町",
    "town": "白滝"
  },
  "0990121": {
    "zipcode": "0990121",
    "prefectureCode": "01",
    "prefectureNumber": 1,
    "prefecture": "北海道",
    "city": "紋別郡遠軽町",
    "town": "白滝北支湧別"
  },
  "0990122": {
    "zipcode": "0990122",
    "prefectureCode": "01",
    "prefectureNumber": 1,
    "prefecture": "北海道",
    "city": "紋別郡遠軽町",
    "town": "白滝支湧別"
  },
  "0990123": {
    "zipcode": "0990123",
    "prefectureCode": "01",
    "prefectureNumber": 1,
    "prefecture": "北海道",
    "city": "紋別郡遠軽町",
    "town": "白滝上支湧別"
  },
  "0990124": {
    "zipcode": "0990124",
    "prefectureCode": "01",
    "prefectureNumber": 1,
    "prefecture": "北海道",
    "city": "紋別郡遠軽町",
    "town": "東白滝"
  },
  "0990125": {
    "zipcode": "0990125",
    "prefectureCode": "01",
    "prefectureNumber": 1,
    "prefecture": "北海道",
    "city": "紋別郡遠軽町",
    "town": "白滝天狗平"
  },
  "0990126": {
    "zipcode": "0990126",
    "prefectureCode": "01",
    "prefectureNumber": 1,
    "prefecture": "北海道",
    "city": "紋別郡遠軽町",
    "town": "奥白滝"
  },
  "0990127": {
    "zipcode": "0990127",
    "prefectureCode": "01",
    "prefectureNumber": 1,
    "prefecture": "北海道",
    "city": "紋別郡遠軽町",
    "town": "上白滝"
  },
  "0990201": {
    "zipcode": "0990201",
    "prefectureCode": "01",
    "prefectureNumber": 1,
    "prefecture": "北海道",
    "city": "紋別郡遠軽町",
    "town": "丸瀬布新町"
  },
  "0990202": {
    "zipcode": "0990202",
    "prefectureCode": "01",
    "prefectureNumber": 1,
    "prefecture": "北海道",
    "city": "紋別郡遠軽町",
    "town": "丸瀬布天神町"
  },
  "0990203": {
    "zipcode": "0990203",
    "prefectureCode": "01",
    "prefectureNumber": 1,
    "prefecture": "北海道",
    "city": "紋別郡遠軽町",
    "town": "丸瀬布中町"
  },
  "0990204": {
    "zipcode": "0990204",
    "prefectureCode": "01",
    "prefectureNumber": 1,
    "prefecture": "北海道",
    "city": "紋別郡遠軽町",
    "town": "丸瀬布西町"
  },
  "0990205": {
    "zipcode": "0990205",
    "prefectureCode": "01",
    "prefectureNumber": 1,
    "prefecture": "北海道",
    "city": "紋別郡遠軽町",
    "town": "丸瀬布東町"
  },
  "0990206": {
    "zipcode": "0990206",
    "prefectureCode": "01",
    "prefectureNumber": 1,
    "prefecture": "北海道",
    "city": "紋別郡遠軽町",
    "town": "丸瀬布水谷町"
  },
  "0990207": {
    "zipcode": "0990207",
    "prefectureCode": "01",
    "prefectureNumber": 1,
    "prefecture": "北海道",
    "city": "紋別郡遠軽町",
    "town": "丸瀬布元町"
  },
  "0990211": {
    "zipcode": "0990211",
    "prefectureCode": "01",
    "prefectureNumber": 1,
    "prefecture": "北海道",
    "city": "紋別郡遠軽町",
    "town": "丸瀬布金山"
  },
  "0990212": {
    "zipcode": "0990212",
    "prefectureCode": "01",
    "prefectureNumber": 1,
    "prefecture": "北海道",
    "city": "紋別郡遠軽町",
    "town": "丸瀬布上丸"
  },
  "0990213": {
    "zipcode": "0990213",
    "prefectureCode": "01",
    "prefectureNumber": 1,
    "prefecture": "北海道",
    "city": "紋別郡遠軽町",
    "town": "丸瀬布上武利"
  },
  "0990214": {
    "zipcode": "0990214",
    "prefectureCode": "01",
    "prefectureNumber": 1,
    "prefecture": "北海道",
    "city": "紋別郡遠軽町",
    "town": "丸瀬布大平"
  },
  "0990215": {
    "zipcode": "0990215",
    "prefectureCode": "01",
    "prefectureNumber": 1,
    "prefecture": "北海道",
    "city": "紋別郡遠軽町",
    "town": "丸瀬布南丸"
  },
  "0990216": {
    "zipcode": "0990216",
    "prefectureCode": "01",
    "prefectureNumber": 1,
    "prefecture": "北海道",
    "city": "紋別郡遠軽町",
    "town": "丸瀬布武利"
  },
  "0990341": {
    "zipcode": "0990341",
    "prefectureCode": "01",
    "prefectureNumber": 1,
    "prefecture": "北海道",
    "city": "紋別郡遠軽町",
    "town": "瀬戸瀬東町"
  },
  "0990342": {
    "zipcode": "0990342",
    "prefectureCode": "01",
    "prefectureNumber": 1,
    "prefecture": "北海道",
    "city": "紋別郡遠軽町",
    "town": "瀬戸瀬西町"
  },
  "0990343": {
    "zipcode": "0990343",
    "prefectureCode": "01",
    "prefectureNumber": 1,
    "prefecture": "北海道",
    "city": "紋別郡遠軽町",
    "town": "栄野"
  },
  "0990344": {
    "zipcode": "0990344",
    "prefectureCode": "01",
    "prefectureNumber": 1,
    "prefecture": "北海道",
    "city": "紋別郡遠軽町",
    "town": "野上"
  },
  "0990345": {
    "zipcode": "0990345",
    "prefectureCode": "01",
    "prefectureNumber": 1,
    "prefecture": "北海道",
    "city": "紋別郡遠軽町",
    "town": "湯の里"
  },
  "0990346": {
    "zipcode": "0990346",
    "prefectureCode": "01",
    "prefectureNumber": 1,
    "prefecture": "北海道",
    "city": "紋別郡遠軽町",
    "town": "若咲内"
  },
  "0990347": {
    "zipcode": "0990347",
    "prefectureCode": "01",
    "prefectureNumber": 1,
    "prefecture": "北海道",
    "city": "紋別郡遠軽町",
    "town": "柏"
  },
  "0990400": {
    "zipcode": "0990400",
    "prefectureCode": "01",
    "prefectureNumber": 1,
    "prefecture": "北海道",
    "city": "紋別郡遠軽町",
    "town": "以下に掲載がない場合"
  },
  "0990401": {
    "zipcode": "0990401",
    "prefectureCode": "01",
    "prefectureNumber": 1,
    "prefecture": "北海道",
    "city": "紋別郡遠軽町",
    "town": "学田"
  },
  "0990402": {
    "zipcode": "0990402",
    "prefectureCode": "01",
    "prefectureNumber": 1,
    "prefecture": "北海道",
    "city": "紋別郡遠軽町",
    "town": "二条通北"
  },
  "0990403": {
    "zipcode": "0990403",
    "prefectureCode": "01",
    "prefectureNumber": 1,
    "prefecture": "北海道",
    "city": "紋別郡遠軽町",
    "town": "一条通北"
  },
  "0990404": {
    "zipcode": "0990404",
    "prefectureCode": "01",
    "prefectureNumber": 1,
    "prefecture": "北海道",
    "city": "紋別郡遠軽町",
    "town": "大通北"
  },
  "0990405": {
    "zipcode": "0990405",
    "prefectureCode": "01",
    "prefectureNumber": 1,
    "prefecture": "北海道",
    "city": "紋別郡遠軽町",
    "town": "岩見通北"
  },
  "0990406": {
    "zipcode": "0990406",
    "prefectureCode": "01",
    "prefectureNumber": 1,
    "prefecture": "北海道",
    "city": "紋別郡遠軽町",
    "town": "宮前町"
  },
  "0990407": {
    "zipcode": "0990407",
    "prefectureCode": "01",
    "prefectureNumber": 1,
    "prefecture": "北海道",
    "city": "紋別郡遠軽町",
    "town": "丸大"
  },
  "0990408": {
    "zipcode": "0990408",
    "prefectureCode": "01",
    "prefectureNumber": 1,
    "prefecture": "北海道",
    "city": "紋別郡遠軽町",
    "town": "留岡"
  },
  "0990410": {
    "zipcode": "0990410",
    "prefectureCode": "01",
    "prefectureNumber": 1,
    "prefecture": "北海道",
    "city": "紋別郡遠軽町",
    "town": "東町"
  },
  "0990411": {
    "zipcode": "0990411",
    "prefectureCode": "01",
    "prefectureNumber": 1,
    "prefecture": "北海道",
    "city": "紋別郡遠軽町",
    "town": "向遠軽"
  },
  "0990412": {
    "zipcode": "0990412",
    "prefectureCode": "01",
    "prefectureNumber": 1,
    "prefecture": "北海道",
    "city": "紋別郡遠軽町",
    "town": "豊里"
  },
  "0990413": {
    "zipcode": "0990413",
    "prefectureCode": "01",
    "prefectureNumber": 1,
    "prefecture": "北海道",
    "city": "紋別郡遠軽町",
    "town": "寿町"
  },
  "0990414": {
    "zipcode": "0990414",
    "prefectureCode": "01",
    "prefectureNumber": 1,
    "prefecture": "北海道",
    "city": "紋別郡遠軽町",
    "town": "南町"
  },
  "0990415": {
    "zipcode": "0990415",
    "prefectureCode": "01",
    "prefectureNumber": 1,
    "prefecture": "北海道",
    "city": "紋別郡遠軽町",
    "town": "岩見通南"
  },
  "0990416": {
    "zipcode": "0990416",
    "prefectureCode": "01",
    "prefectureNumber": 1,
    "prefecture": "北海道",
    "city": "紋別郡遠軽町",
    "town": "大通南"
  },
  "0990417": {
    "zipcode": "0990417",
    "prefectureCode": "01",
    "prefectureNumber": 1,
    "prefecture": "北海道",
    "city": "紋別郡遠軽町",
    "town": "一条通南"
  },
  "0990418": {
    "zipcode": "0990418",
    "prefectureCode": "01",
    "prefectureNumber": 1,
    "prefecture": "北海道",
    "city": "紋別郡遠軽町",
    "town": "二条通南"
  },
  "0990421": {
    "zipcode": "0990421",
    "prefectureCode": "01",
    "prefectureNumber": 1,
    "prefecture": "北海道",
    "city": "紋別郡遠軽町",
    "town": "福路"
  },
  "0990422": {
    "zipcode": "0990422",
    "prefectureCode": "01",
    "prefectureNumber": 1,
    "prefecture": "北海道",
    "city": "紋別郡遠軽町",
    "town": "清川"
  },
  "0990423": {
    "zipcode": "0990423",
    "prefectureCode": "01",
    "prefectureNumber": 1,
    "prefecture": "北海道",
    "city": "紋別郡遠軽町",
    "town": "若松"
  },
  "0990424": {
    "zipcode": "0990424",
    "prefectureCode": "01",
    "prefectureNumber": 1,
    "prefecture": "北海道",
    "city": "紋別郡遠軽町",
    "town": "美山"
  },
  "0990425": {
    "zipcode": "0990425",
    "prefectureCode": "01",
    "prefectureNumber": 1,
    "prefecture": "北海道",
    "city": "紋別郡遠軽町",
    "town": "千代田"
  },
  "0990426": {
    "zipcode": "0990426",
    "prefectureCode": "01",
    "prefectureNumber": 1,
    "prefecture": "北海道",
    "city": "紋別郡遠軽町",
    "town": "社名淵"
  },
  "0990427": {
    "zipcode": "0990427",
    "prefectureCode": "01",
    "prefectureNumber": 1,
    "prefecture": "北海道",
    "city": "紋別郡遠軽町",
    "town": "見晴"
  },
  "0990428": {
    "zipcode": "0990428",
    "prefectureCode": "01",
    "prefectureNumber": 1,
    "prefecture": "北海道",
    "city": "紋別郡遠軽町",
    "town": "西町"
  },
  "0990621": {
    "zipcode": "0990621",
    "prefectureCode": "01",
    "prefectureNumber": 1,
    "prefecture": "北海道",
    "city": "紋別郡遠軽町",
    "town": "生田原水穂"
  },
  "0990622": {
    "zipcode": "0990622",
    "prefectureCode": "01",
    "prefectureNumber": 1,
    "prefecture": "北海道",
    "city": "紋別郡遠軽町",
    "town": "生田原安国"
  },
  "0990623": {
    "zipcode": "0990623",
    "prefectureCode": "01",
    "prefectureNumber": 1,
    "prefecture": "北海道",
    "city": "紋別郡遠軽町",
    "town": "生田原旭野"
  },
  "0990624": {
    "zipcode": "0990624",
    "prefectureCode": "01",
    "prefectureNumber": 1,
    "prefecture": "北海道",
    "city": "紋別郡遠軽町",
    "town": "生田原豊原"
  },
  "0990701": {
    "zipcode": "0990701",
    "prefectureCode": "01",
    "prefectureNumber": 1,
    "prefecture": "北海道",
    "city": "紋別郡遠軽町",
    "town": "生田原"
  },
  "0990702": {
    "zipcode": "0990702",
    "prefectureCode": "01",
    "prefectureNumber": 1,
    "prefecture": "北海道",
    "city": "紋別郡遠軽町",
    "town": "生田原伊吹"
  },
  "0990703": {
    "zipcode": "0990703",
    "prefectureCode": "01",
    "prefectureNumber": 1,
    "prefecture": "北海道",
    "city": "紋別郡遠軽町",
    "town": "生田原八重"
  },
  "0990704": {
    "zipcode": "0990704",
    "prefectureCode": "01",
    "prefectureNumber": 1,
    "prefecture": "北海道",
    "city": "紋別郡遠軽町",
    "town": "生田原岩戸"
  },
  "0990705": {
    "zipcode": "0990705",
    "prefectureCode": "01",
    "prefectureNumber": 1,
    "prefecture": "北海道",
    "city": "紋別郡遠軽町",
    "town": "生田原清里"
  },
  "0990871": {
    "zipcode": "0990871",
    "prefectureCode": "01",
    "prefectureNumber": 1,
    "prefecture": "北海道",
    "city": "北見市",
    "town": "相内町"
  },
  "0990872": {
    "zipcode": "0990872",
    "prefectureCode": "01",
    "prefectureNumber": 1,
    "prefecture": "北海道",
    "city": "北見市",
    "town": "豊田"
  },
  "0990873": {
    "zipcode": "0990873",
    "prefectureCode": "01",
    "prefectureNumber": 1,
    "prefecture": "北海道",
    "city": "北見市",
    "town": "西相内"
  },
  "0990874": {
    "zipcode": "0990874",
    "prefectureCode": "01",
    "prefectureNumber": 1,
    "prefecture": "北海道",
    "city": "北見市",
    "town": "住吉"
  },
  "0990875": {
    "zipcode": "0990875",
    "prefectureCode": "01",
    "prefectureNumber": 1,
    "prefecture": "北海道",
    "city": "北見市",
    "town": "本沢"
  },
  "0990876": {
    "zipcode": "0990876",
    "prefectureCode": "01",
    "prefectureNumber": 1,
    "prefecture": "北海道",
    "city": "北見市",
    "town": "富里"
  },
  "0990877": {
    "zipcode": "0990877",
    "prefectureCode": "01",
    "prefectureNumber": 1,
    "prefecture": "北海道",
    "city": "北見市",
    "town": "柏木"
  },
  "0990878": {
    "zipcode": "0990878",
    "prefectureCode": "01",
    "prefectureNumber": 1,
    "prefecture": "北海道",
    "city": "北見市",
    "town": "東相内町"
  },
  "0990879": {
    "zipcode": "0990879",
    "prefectureCode": "01",
    "prefectureNumber": 1,
    "prefecture": "北海道",
    "city": "北見市",
    "town": "美園"
  },
  "0991100": {
    "zipcode": "0991100",
    "prefectureCode": "01",
    "prefectureNumber": 1,
    "prefecture": "北海道",
    "city": "常呂郡置戸町",
    "town": "以下に掲載がない場合"
  },
  "0991101": {
    "zipcode": "0991101",
    "prefectureCode": "01",
    "prefectureNumber": 1,
    "prefecture": "北海道",
    "city": "常呂郡置戸町",
    "town": "北光"
  },
  "0991102": {
    "zipcode": "0991102",
    "prefectureCode": "01",
    "prefectureNumber": 1,
    "prefecture": "北海道",
    "city": "常呂郡置戸町",
    "town": "緑"
  },
  "0991103": {
    "zipcode": "0991103",
    "prefectureCode": "01",
    "prefectureNumber": 1,
    "prefecture": "北海道",
    "city": "常呂郡置戸町",
    "town": "栄二"
  },
  "0991104": {
    "zipcode": "0991104",
    "prefectureCode": "01",
    "prefectureNumber": 1,
    "prefecture": "北海道",
    "city": "常呂郡置戸町",
    "town": "栄一"
  },
  "0991105": {
    "zipcode": "0991105",
    "prefectureCode": "01",
    "prefectureNumber": 1,
    "prefecture": "北海道",
    "city": "常呂郡置戸町",
    "town": "洗心"
  },
  "0991106": {
    "zipcode": "0991106",
    "prefectureCode": "01",
    "prefectureNumber": 1,
    "prefecture": "北海道",
    "city": "常呂郡置戸町",
    "town": "新和"
  },
  "0991112": {
    "zipcode": "0991112",
    "prefectureCode": "01",
    "prefectureNumber": 1,
    "prefecture": "北海道",
    "city": "常呂郡置戸町",
    "town": "若松"
  },
  "0991113": {
    "zipcode": "0991113",
    "prefectureCode": "01",
    "prefectureNumber": 1,
    "prefecture": "北海道",
    "city": "常呂郡置戸町",
    "town": "新光"
  },
  "0991114": {
    "zipcode": "0991114",
    "prefectureCode": "01",
    "prefectureNumber": 1,
    "prefecture": "北海道",
    "city": "常呂郡置戸町",
    "town": "協生"
  },
  "0991115": {
    "zipcode": "0991115",
    "prefectureCode": "01",
    "prefectureNumber": 1,
    "prefecture": "北海道",
    "city": "常呂郡置戸町",
    "town": "宮下"
  },
  "0991116": {
    "zipcode": "0991116",
    "prefectureCode": "01",
    "prefectureNumber": 1,
    "prefecture": "北海道",
    "city": "常呂郡置戸町",
    "town": "朝日"
  },
  "0991117": {
    "zipcode": "0991117",
    "prefectureCode": "01",
    "prefectureNumber": 1,
    "prefecture": "北海道",
    "city": "常呂郡置戸町",
    "town": "宮坂"
  },
  "0991118": {
    "zipcode": "0991118",
    "prefectureCode": "01",
    "prefectureNumber": 1,
    "prefecture": "北海道",
    "city": "常呂郡置戸町",
    "town": "若木"
  },
  "0991121": {
    "zipcode": "0991121",
    "prefectureCode": "01",
    "prefectureNumber": 1,
    "prefecture": "北海道",
    "city": "常呂郡置戸町",
    "town": "北農"
  },
  "0991122": {
    "zipcode": "0991122",
    "prefectureCode": "01",
    "prefectureNumber": 1,
    "prefecture": "北海道",
    "city": "常呂郡置戸町",
    "town": "林友"
  },
  "0991123": {
    "zipcode": "0991123",
    "prefectureCode": "01",
    "prefectureNumber": 1,
    "prefecture": "北海道",
    "city": "常呂郡置戸町",
    "town": "拓殖"
  },
  "0991124": {
    "zipcode": "0991124",
    "prefectureCode": "01",
    "prefectureNumber": 1,
    "prefecture": "北海道",
    "city": "常呂郡置戸町",
    "town": "拓実"
  },
  "0991131": {
    "zipcode": "0991131",
    "prefectureCode": "01",
    "prefectureNumber": 1,
    "prefecture": "北海道",
    "city": "常呂郡置戸町",
    "town": "中央"
  },
  "0991132": {
    "zipcode": "0991132",
    "prefectureCode": "01",
    "prefectureNumber": 1,
    "prefecture": "北海道",
    "city": "常呂郡置戸町",
    "town": "協和"
  },
  "0991133": {
    "zipcode": "0991133",
    "prefectureCode": "01",
    "prefectureNumber": 1,
    "prefecture": "北海道",
    "city": "常呂郡置戸町",
    "town": "更盛"
  },
  "0991134": {
    "zipcode": "0991134",
    "prefectureCode": "01",
    "prefectureNumber": 1,
    "prefecture": "北海道",
    "city": "常呂郡置戸町",
    "town": "十全"
  },
  "0991135": {
    "zipcode": "0991135",
    "prefectureCode": "01",
    "prefectureNumber": 1,
    "prefecture": "北海道",
    "city": "常呂郡置戸町",
    "town": "国栄"
  },
  "0991136": {
    "zipcode": "0991136",
    "prefectureCode": "01",
    "prefectureNumber": 1,
    "prefecture": "北海道",
    "city": "常呂郡置戸町",
    "town": "日進"
  },
  "0991137": {
    "zipcode": "0991137",
    "prefectureCode": "01",
    "prefectureNumber": 1,
    "prefecture": "北海道",
    "city": "常呂郡置戸町",
    "town": "大美"
  },
  "0991138": {
    "zipcode": "0991138",
    "prefectureCode": "01",
    "prefectureNumber": 1,
    "prefecture": "北海道",
    "city": "常呂郡置戸町",
    "town": "中里"
  },
  "0991251": {
    "zipcode": "0991251",
    "prefectureCode": "01",
    "prefectureNumber": 1,
    "prefecture": "北海道",
    "city": "常呂郡置戸町",
    "town": "安住"
  },
  "0991252": {
    "zipcode": "0991252",
    "prefectureCode": "01",
    "prefectureNumber": 1,
    "prefecture": "北海道",
    "city": "常呂郡置戸町",
    "town": "勝山"
  },
  "0991253": {
    "zipcode": "0991253",
    "prefectureCode": "01",
    "prefectureNumber": 1,
    "prefecture": "北海道",
    "city": "常呂郡置戸町",
    "town": "春日"
  },
  "0991254": {
    "zipcode": "0991254",
    "prefectureCode": "01",
    "prefectureNumber": 1,
    "prefecture": "北海道",
    "city": "常呂郡置戸町",
    "town": "常元"
  },
  "0991361": {
    "zipcode": "0991361",
    "prefectureCode": "01",
    "prefectureNumber": 1,
    "prefecture": "北海道",
    "city": "常呂郡置戸町",
    "town": "境野"
  },
  "0991362": {
    "zipcode": "0991362",
    "prefectureCode": "01",
    "prefectureNumber": 1,
    "prefecture": "北海道",
    "city": "常呂郡置戸町",
    "town": "雄勝"
  },
  "0991363": {
    "zipcode": "0991363",
    "prefectureCode": "01",
    "prefectureNumber": 1,
    "prefecture": "北海道",
    "city": "常呂郡置戸町",
    "town": "幸岡"
  },
  "0991364": {
    "zipcode": "0991364",
    "prefectureCode": "01",
    "prefectureNumber": 1,
    "prefecture": "北海道",
    "city": "常呂郡置戸町",
    "town": "秋田"
  },
  "0991365": {
    "zipcode": "0991365",
    "prefectureCode": "01",
    "prefectureNumber": 1,
    "prefecture": "北海道",
    "city": "常呂郡置戸町",
    "town": "豊住"
  },
  "0991366": {
    "zipcode": "0991366",
    "prefectureCode": "01",
    "prefectureNumber": 1,
    "prefecture": "北海道",
    "city": "常呂郡置戸町",
    "town": "川南"
  },
  "0991367": {
    "zipcode": "0991367",
    "prefectureCode": "01",
    "prefectureNumber": 1,
    "prefecture": "北海道",
    "city": "常呂郡置戸町",
    "town": "常盤"
  },
  "0991400": {
    "zipcode": "0991400",
    "prefectureCode": "01",
    "prefectureNumber": 1,
    "prefecture": "北海道",
    "city": "常呂郡訓子府町",
    "town": "以下に掲載がない場合"
  },
  "0991401": {
    "zipcode": "0991401",
    "prefectureCode": "01",
    "prefectureNumber": 1,
    "prefecture": "北海道",
    "city": "常呂郡訓子府町",
    "town": "日出"
  },
  "0991402": {
    "zipcode": "0991402",
    "prefectureCode": "01",
    "prefectureNumber": 1,
    "prefecture": "北海道",
    "city": "常呂郡訓子府町",
    "town": "穂波"
  },
  "0991403": {
    "zipcode": "0991403",
    "prefectureCode": "01",
    "prefectureNumber": 1,
    "prefecture": "北海道",
    "city": "常呂郡訓子府町",
    "town": "東幸町"
  },
  "0991404": {
    "zipcode": "0991404",
    "prefectureCode": "01",
    "prefectureNumber": 1,
    "prefecture": "北海道",
    "city": "常呂郡訓子府町",
    "town": "柏丘"
  },
  "0991405": {
    "zipcode": "0991405",
    "prefectureCode": "01",
    "prefectureNumber": 1,
    "prefecture": "北海道",
    "city": "常呂郡訓子府町",
    "town": "高園"
  },
  "0991406": {
    "zipcode": "0991406",
    "prefectureCode": "01",
    "prefectureNumber": 1,
    "prefecture": "北海道",
    "city": "常呂郡訓子府町",
    "town": "弥生"
  },
  "0991407": {
    "zipcode": "0991407",
    "prefectureCode": "01",
    "prefectureNumber": 1,
    "prefecture": "北海道",
    "city": "常呂郡訓子府町",
    "town": "福野"
  },
  "0991411": {
    "zipcode": "0991411",
    "prefectureCode": "01",
    "prefectureNumber": 1,
    "prefecture": "北海道",
    "city": "常呂郡訓子府町",
    "town": "大谷"
  },
  "0991412": {
    "zipcode": "0991412",
    "prefectureCode": "01",
    "prefectureNumber": 1,
    "prefecture": "北海道",
    "city": "常呂郡訓子府町",
    "town": "緑丘"
  },
  "0991413": {
    "zipcode": "0991413",
    "prefectureCode": "01",
    "prefectureNumber": 1,
    "prefecture": "北海道",
    "city": "常呂郡訓子府町",
    "town": "協成"
  },
  "0991414": {
    "zipcode": "0991414",
    "prefectureCode": "01",
    "prefectureNumber": 1,
    "prefecture": "北海道",
    "city": "常呂郡訓子府町",
    "town": "開盛"
  },
  "0991415": {
    "zipcode": "0991415",
    "prefectureCode": "01",
    "prefectureNumber": 1,
    "prefecture": "北海道",
    "city": "常呂郡訓子府町",
    "town": "美園"
  },
  "0991416": {
    "zipcode": "0991416",
    "prefectureCode": "01",
    "prefectureNumber": 1,
    "prefecture": "北海道",
    "city": "常呂郡訓子府町",
    "town": "常盤"
  },
  "0991417": {
    "zipcode": "0991417",
    "prefectureCode": "01",
    "prefectureNumber": 1,
    "prefecture": "北海道",
    "city": "常呂郡訓子府町",
    "town": "末広町"
  },
  "0991418": {
    "zipcode": "0991418",
    "prefectureCode": "01",
    "prefectureNumber": 1,
    "prefecture": "北海道",
    "city": "常呂郡訓子府町",
    "town": "実郷"
  },
  "0991421": {
    "zipcode": "0991421",
    "prefectureCode": "01",
    "prefectureNumber": 1,
    "prefecture": "北海道",
    "city": "常呂郡訓子府町",
    "town": "駒里"
  },
  "0991422": {
    "zipcode": "0991422",
    "prefectureCode": "01",
    "prefectureNumber": 1,
    "prefecture": "北海道",
    "city": "常呂郡訓子府町",
    "town": "北栄"
  },
  "0991423": {
    "zipcode": "0991423",
    "prefectureCode": "01",
    "prefectureNumber": 1,
    "prefecture": "北海道",
    "city": "常呂郡訓子府町",
    "town": "西幸町"
  },
  "0991424": {
    "zipcode": "0991424",
    "prefectureCode": "01",
    "prefectureNumber": 1,
    "prefecture": "北海道",
    "city": "常呂郡訓子府町",
    "town": "西富"
  },
  "0991425": {
    "zipcode": "0991425",
    "prefectureCode": "01",
    "prefectureNumber": 1,
    "prefecture": "北海道",
    "city": "常呂郡訓子府町",
    "town": "若葉町"
  },
  "0991426": {
    "zipcode": "0991426",
    "prefectureCode": "01",
    "prefectureNumber": 1,
    "prefecture": "北海道",
    "city": "常呂郡訓子府町",
    "town": "清住"
  },
  "0991427": {
    "zipcode": "0991427",
    "prefectureCode": "01",
    "prefectureNumber": 1,
    "prefecture": "北海道",
    "city": "常呂郡訓子府町",
    "town": "豊坂"
  },
  "0991431": {
    "zipcode": "0991431",
    "prefectureCode": "01",
    "prefectureNumber": 1,
    "prefecture": "北海道",
    "city": "常呂郡訓子府町",
    "town": "東町"
  },
  "0991432": {
    "zipcode": "0991432",
    "prefectureCode": "01",
    "prefectureNumber": 1,
    "prefecture": "北海道",
    "city": "常呂郡訓子府町",
    "town": "旭町"
  },
  "0991433": {
    "zipcode": "0991433",
    "prefectureCode": "01",
    "prefectureNumber": 1,
    "prefecture": "北海道",
    "city": "常呂郡訓子府町",
    "town": "仲町"
  },
  "0991434": {
    "zipcode": "0991434",
    "prefectureCode": "01",
    "prefectureNumber": 1,
    "prefecture": "北海道",
    "city": "常呂郡訓子府町",
    "town": "栄町"
  },
  "0991435": {
    "zipcode": "0991435",
    "prefectureCode": "01",
    "prefectureNumber": 1,
    "prefecture": "北海道",
    "city": "常呂郡訓子府町",
    "town": "若富町"
  },
  "0991436": {
    "zipcode": "0991436",
    "prefectureCode": "01",
    "prefectureNumber": 1,
    "prefecture": "北海道",
    "city": "常呂郡訓子府町",
    "town": "大町"
  },
  "0991437": {
    "zipcode": "0991437",
    "prefectureCode": "01",
    "prefectureNumber": 1,
    "prefecture": "北海道",
    "city": "常呂郡訓子府町",
    "town": "元町"
  },
  "0991581": {
    "zipcode": "0991581",
    "prefectureCode": "01",
    "prefectureNumber": 1,
    "prefecture": "北海道",
    "city": "北見市",
    "town": "南丘"
  },
  "0991582": {
    "zipcode": "0991582",
    "prefectureCode": "01",
    "prefectureNumber": 1,
    "prefecture": "北海道",
    "city": "北見市",
    "town": "開成"
  },
  "0991583": {
    "zipcode": "0991583",
    "prefectureCode": "01",
    "prefectureNumber": 1,
    "prefecture": "北海道",
    "city": "北見市",
    "town": "北上"
  },
  "0991584": {
    "zipcode": "0991584",
    "prefectureCode": "01",
    "prefectureNumber": 1,
    "prefecture": "北海道",
    "city": "北見市",
    "town": "常川"
  },
  "0991585": {
    "zipcode": "0991585",
    "prefectureCode": "01",
    "prefectureNumber": 1,
    "prefecture": "北海道",
    "city": "北見市",
    "town": "上ところ"
  },
  "0991586": {
    "zipcode": "0991586",
    "prefectureCode": "01",
    "prefectureNumber": 1,
    "prefecture": "北海道",
    "city": "北見市",
    "town": "広郷"
  },
  "0991587": {
    "zipcode": "0991587",
    "prefectureCode": "01",
    "prefectureNumber": 1,
    "prefecture": "北海道",
    "city": "北見市",
    "town": "豊地"
  },
  "0992101": {
    "zipcode": "0992101",
    "prefectureCode": "01",
    "prefectureNumber": 1,
    "prefecture": "北海道",
    "city": "北見市",
    "town": "端野町一区"
  },
  "0992102": {
    "zipcode": "0992102",
    "prefectureCode": "01",
    "prefectureNumber": 1,
    "prefecture": "北海道",
    "city": "北見市",
    "town": "端野町二区"
  },
  "0992103": {
    "zipcode": "0992103",
    "prefectureCode": "01",
    "prefectureNumber": 1,
    "prefecture": "北海道",
    "city": "北見市",
    "town": "端野町三区"
  },
  "0992104": {
    "zipcode": "0992104",
    "prefectureCode": "01",
    "prefectureNumber": 1,
    "prefecture": "北海道",
    "city": "北見市",
    "town": "端野町端野"
  },
  "0992105": {
    "zipcode": "0992105",
    "prefectureCode": "01",
    "prefectureNumber": 1,
    "prefecture": "北海道",
    "city": "北見市",
    "town": "端野町忠志"
  },
  "0992106": {
    "zipcode": "0992106",
    "prefectureCode": "01",
    "prefectureNumber": 1,
    "prefecture": "北海道",
    "city": "北見市",
    "town": "端野町協和"
  },
  "0992107": {
    "zipcode": "0992107",
    "prefectureCode": "01",
    "prefectureNumber": 1,
    "prefecture": "北海道",
    "city": "北見市",
    "town": "端野町川向"
  },
  "0992111": {
    "zipcode": "0992111",
    "prefectureCode": "01",
    "prefectureNumber": 1,
    "prefecture": "北海道",
    "city": "北見市",
    "town": "端野町北登"
  },
  "0992112": {
    "zipcode": "0992112",
    "prefectureCode": "01",
    "prefectureNumber": 1,
    "prefecture": "北海道",
    "city": "北見市",
    "town": "端野町豊実"
  },
  "0992231": {
    "zipcode": "0992231",
    "prefectureCode": "01",
    "prefectureNumber": 1,
    "prefecture": "北海道",
    "city": "北見市",
    "town": "端野町緋牛内"
  },
  "0992300": {
    "zipcode": "0992300",
    "prefectureCode": "01",
    "prefectureNumber": 1,
    "prefecture": "北海道",
    "city": "網走郡大空町",
    "town": "以下に掲載がない場合"
  },
  "0992301": {
    "zipcode": "0992301",
    "prefectureCode": "01",
    "prefectureNumber": 1,
    "prefecture": "北海道",
    "city": "網走郡大空町",
    "town": "女満別本郷"
  },
  "0992302": {
    "zipcode": "0992302",
    "prefectureCode": "01",
    "prefectureNumber": 1,
    "prefecture": "北海道",
    "city": "網走郡大空町",
    "town": "女満別住吉"
  },
  "0992303": {
    "zipcode": "0992303",
    "prefectureCode": "01",
    "prefectureNumber": 1,
    "prefecture": "北海道",
    "city": "網走郡大空町",
    "town": "女満別豊里"
  },
  "0992304": {
    "zipcode": "0992304",
    "prefectureCode": "01",
    "prefectureNumber": 1,
    "prefecture": "北海道",
    "city": "網走郡大空町",
    "town": "女満別公園"
  },
  "0992305": {
    "zipcode": "0992305",
    "prefectureCode": "01",
    "prefectureNumber": 1,
    "prefecture": "北海道",
    "city": "網走郡大空町",
    "town": "女満別東陽"
  },
  "0992306": {
    "zipcode": "0992306",
    "prefectureCode": "01",
    "prefectureNumber": 1,
    "prefecture": "北海道",
    "city": "網走郡大空町",
    "town": "女満別湖畔"
  },
  "0992310": {
    "zipcode": "0992310",
    "prefectureCode": "01",
    "prefectureNumber": 1,
    "prefecture": "北海道",
    "city": "網走郡大空町",
    "town": "女満別本通"
  },
  "0992311": {
    "zipcode": "0992311",
    "prefectureCode": "01",
    "prefectureNumber": 1,
    "prefecture": "北海道",
    "city": "網走郡大空町",
    "town": "女満別東一条"
  },
  "0992312": {
    "zipcode": "0992312",
    "prefectureCode": "01",
    "prefectureNumber": 1,
    "prefecture": "北海道",
    "city": "網走郡大空町",
    "town": "女満別東二条"
  },
  "0992321": {
    "zipcode": "0992321",
    "prefectureCode": "01",
    "prefectureNumber": 1,
    "prefecture": "北海道",
    "city": "網走郡大空町",
    "town": "女満別西一条"
  },
  "0992322": {
    "zipcode": "0992322",
    "prefectureCode": "01",
    "prefectureNumber": 1,
    "prefecture": "北海道",
    "city": "網走郡大空町",
    "town": "女満別西二条"
  },
  "0992323": {
    "zipcode": "0992323",
    "prefectureCode": "01",
    "prefectureNumber": 1,
    "prefecture": "北海道",
    "city": "網走郡大空町",
    "town": "女満別西三条"
  },
  "0992324": {
    "zipcode": "0992324",
    "prefectureCode": "01",
    "prefectureNumber": 1,
    "prefecture": "北海道",
    "city": "網走郡大空町",
    "town": "女満別西四条"
  },
  "0992325": {
    "zipcode": "0992325",
    "prefectureCode": "01",
    "prefectureNumber": 1,
    "prefecture": "北海道",
    "city": "網走郡大空町",
    "town": "女満別西五条"
  },
  "0992326": {
    "zipcode": "0992326",
    "prefectureCode": "01",
    "prefectureNumber": 1,
    "prefecture": "北海道",
    "city": "網走郡大空町",
    "town": "女満別西六条"
  },
  "0992327": {
    "zipcode": "0992327",
    "prefectureCode": "01",
    "prefectureNumber": 1,
    "prefecture": "北海道",
    "city": "網走郡大空町",
    "town": "女満別西七条"
  },
  "0992351": {
    "zipcode": "0992351",
    "prefectureCode": "01",
    "prefectureNumber": 1,
    "prefecture": "北海道",
    "city": "網走郡大空町",
    "town": "女満別公園通"
  },
  "0992354": {
    "zipcode": "0992354",
    "prefectureCode": "01",
    "prefectureNumber": 1,
    "prefecture": "北海道",
    "city": "網走郡大空町",
    "town": "女満別眺湖台"
  },
  "0992355": {
    "zipcode": "0992355",
    "prefectureCode": "01",
    "prefectureNumber": 1,
    "prefecture": "北海道",
    "city": "網走郡大空町",
    "town": "女満別夕陽台"
  },
  "0992356": {
    "zipcode": "0992356",
    "prefectureCode": "01",
    "prefectureNumber": 1,
    "prefecture": "北海道",
    "city": "網走郡大空町",
    "town": "女満別昭和"
  },
  "0992361": {
    "zipcode": "0992361",
    "prefectureCode": "01",
    "prefectureNumber": 1,
    "prefecture": "北海道",
    "city": "網走郡大空町",
    "town": "女満別湖南"
  },
  "0992362": {
    "zipcode": "0992362",
    "prefectureCode": "01",
    "prefectureNumber": 1,
    "prefecture": "北海道",
    "city": "網走郡大空町",
    "town": "女満別朝日"
  },
  "0992371": {
    "zipcode": "0992371",
    "prefectureCode": "01",
    "prefectureNumber": 1,
    "prefecture": "北海道",
    "city": "網走郡大空町",
    "town": "女満別中央"
  },
  "0992372": {
    "zipcode": "0992372",
    "prefectureCode": "01",
    "prefectureNumber": 1,
    "prefecture": "北海道",
    "city": "網走郡大空町",
    "town": "女満別大東"
  },
  "0992373": {
    "zipcode": "0992373",
    "prefectureCode": "01",
    "prefectureNumber": 1,
    "prefecture": "北海道",
    "city": "網走郡大空町",
    "town": "女満別巴沢"
  },
  "0992381": {
    "zipcode": "0992381",
    "prefectureCode": "01",
    "prefectureNumber": 1,
    "prefecture": "北海道",
    "city": "網走郡大空町",
    "town": "女満別大成"
  },
  "0992382": {
    "zipcode": "0992382",
    "prefectureCode": "01",
    "prefectureNumber": 1,
    "prefecture": "北海道",
    "city": "網走郡大空町",
    "town": "女満別開陽"
  },
  "0992383": {
    "zipcode": "0992383",
    "prefectureCode": "01",
    "prefectureNumber": 1,
    "prefecture": "北海道",
    "city": "網走郡大空町",
    "town": "女満別日進"
  },
  "0992421": {
    "zipcode": "0992421",
    "prefectureCode": "01",
    "prefectureNumber": 1,
    "prefecture": "北海道",
    "city": "網走市",
    "town": "呼人"
  },
  "0992422": {
    "zipcode": "0992422",
    "prefectureCode": "01",
    "prefectureNumber": 1,
    "prefecture": "北海道",
    "city": "網走市",
    "town": "八坂"
  },
  "0992423": {
    "zipcode": "0992423",
    "prefectureCode": "01",
    "prefectureNumber": 1,
    "prefecture": "北海道",
    "city": "網走市",
    "town": "東網走"
  },
  "0992424": {
    "zipcode": "0992424",
    "prefectureCode": "01",
    "prefectureNumber": 1,
    "prefecture": "北海道",
    "city": "網走市",
    "town": "中園"
  },
  "0993111": {
    "zipcode": "0993111",
    "prefectureCode": "01",
    "prefectureNumber": 1,
    "prefecture": "北海道",
    "city": "網走市",
    "town": "藻琴"
  },
  "0993112": {
    "zipcode": "0993112",
    "prefectureCode": "01",
    "prefectureNumber": 1,
    "prefecture": "北海道",
    "city": "網走市",
    "town": "北浜"
  },
  "0993113": {
    "zipcode": "0993113",
    "prefectureCode": "01",
    "prefectureNumber": 1,
    "prefecture": "北海道",
    "city": "網走市",
    "town": "実豊"
  },
  "0993114": {
    "zipcode": "0993114",
    "prefectureCode": "01",
    "prefectureNumber": 1,
    "prefecture": "北海道",
    "city": "網走市",
    "town": "丸万"
  },
  "0993115": {
    "zipcode": "0993115",
    "prefectureCode": "01",
    "prefectureNumber": 1,
    "prefecture": "北海道",
    "city": "網走市",
    "town": "稲富"
  },
  "0993116": {
    "zipcode": "0993116",
    "prefectureCode": "01",
    "prefectureNumber": 1,
    "prefecture": "北海道",
    "city": "網走市",
    "town": "山里"
  },
  "0993117": {
    "zipcode": "0993117",
    "prefectureCode": "01",
    "prefectureNumber": 1,
    "prefecture": "北海道",
    "city": "網走市",
    "town": "昭和"
  },
  "0993118": {
    "zipcode": "0993118",
    "prefectureCode": "01",
    "prefectureNumber": 1,
    "prefecture": "北海道",
    "city": "網走市",
    "town": "豊郷"
  },
  "0993119": {
    "zipcode": "0993119",
    "prefectureCode": "01",
    "prefectureNumber": 1,
    "prefecture": "北海道",
    "city": "網走市",
    "town": "鱒浦"
  },
  "0993201": {
    "zipcode": "0993201",
    "prefectureCode": "01",
    "prefectureNumber": 1,
    "prefecture": "北海道",
    "city": "網走郡大空町",
    "town": "東藻琴（西区）"
  },
  "0993202": {
    "zipcode": "0993202",
    "prefectureCode": "01",
    "prefectureNumber": 1,
    "prefecture": "北海道",
    "city": "網走郡大空町",
    "town": "東藻琴西倉"
  },
  "0993211": {
    "zipcode": "0993211",
    "prefectureCode": "01",
    "prefectureNumber": 1,
    "prefecture": "北海道",
    "city": "網走郡大空町",
    "town": "東藻琴（北１区）"
  },
  "0993212": {
    "zipcode": "0993212",
    "prefectureCode": "01",
    "prefectureNumber": 1,
    "prefecture": "北海道",
    "city": "網走郡大空町",
    "town": "東藻琴（北２区）"
  },
  "0993213": {
    "zipcode": "0993213",
    "prefectureCode": "01",
    "prefectureNumber": 1,
    "prefecture": "北海道",
    "city": "網走郡大空町",
    "town": "東藻琴（中央区）"
  },
  "0993214": {
    "zipcode": "0993214",
    "prefectureCode": "01",
    "prefectureNumber": 1,
    "prefecture": "北海道",
    "city": "網走郡大空町",
    "town": "東藻琴（南区）"
  },
  "0993221": {
    "zipcode": "0993221",
    "prefectureCode": "01",
    "prefectureNumber": 1,
    "prefecture": "北海道",
    "city": "網走郡大空町",
    "town": "東藻琴大進"
  },
  "0993222": {
    "zipcode": "0993222",
    "prefectureCode": "01",
    "prefectureNumber": 1,
    "prefecture": "北海道",
    "city": "網走郡大空町",
    "town": "東藻琴新富"
  },
  "0993223": {
    "zipcode": "0993223",
    "prefectureCode": "01",
    "prefectureNumber": 1,
    "prefecture": "北海道",
    "city": "網走郡大空町",
    "town": "東藻琴（東区）"
  },
  "0993224": {
    "zipcode": "0993224",
    "prefectureCode": "01",
    "prefectureNumber": 1,
    "prefecture": "北海道",
    "city": "網走郡大空町",
    "town": "東藻琴明生"
  },
  "0993225": {
    "zipcode": "0993225",
    "prefectureCode": "01",
    "prefectureNumber": 1,
    "prefecture": "北海道",
    "city": "網走郡大空町",
    "town": "東藻琴（旭台）"
  },
  "0993231": {
    "zipcode": "0993231",
    "prefectureCode": "01",
    "prefectureNumber": 1,
    "prefecture": "北海道",
    "city": "網走郡大空町",
    "town": "東藻琴千草"
  },
  "0993232": {
    "zipcode": "0993232",
    "prefectureCode": "01",
    "prefectureNumber": 1,
    "prefecture": "北海道",
    "city": "網走郡大空町",
    "town": "東藻琴末広"
  },
  "0993233": {
    "zipcode": "0993233",
    "prefectureCode": "01",
    "prefectureNumber": 1,
    "prefecture": "北海道",
    "city": "網走郡大空町",
    "town": "東藻琴（上東）"
  },
  "0993234": {
    "zipcode": "0993234",
    "prefectureCode": "01",
    "prefectureNumber": 1,
    "prefecture": "北海道",
    "city": "網走郡大空町",
    "town": "東藻琴福富"
  },
  "0993243": {
    "zipcode": "0993243",
    "prefectureCode": "01",
    "prefectureNumber": 1,
    "prefecture": "北海道",
    "city": "網走郡大空町",
    "town": "東藻琴山園"
  },
  "0993244": {
    "zipcode": "0993244",
    "prefectureCode": "01",
    "prefectureNumber": 1,
    "prefecture": "北海道",
    "city": "網走郡大空町",
    "town": "東藻琴（その他）"
  },
  "0993451": {
    "zipcode": "0993451",
    "prefectureCode": "01",
    "prefectureNumber": 1,
    "prefecture": "北海道",
    "city": "斜里郡小清水町",
    "town": "倉栄"
  },
  "0993452": {
    "zipcode": "0993452",
    "prefectureCode": "01",
    "prefectureNumber": 1,
    "prefecture": "北海道",
    "city": "斜里郡小清水町",
    "town": "浜小清水"
  },
  "0993453": {
    "zipcode": "0993453",
    "prefectureCode": "01",
    "prefectureNumber": 1,
    "prefecture": "北海道",
    "city": "斜里郡小清水町",
    "town": "北斗"
  },
  "0993454": {
    "zipcode": "0993454",
    "prefectureCode": "01",
    "prefectureNumber": 1,
    "prefecture": "北海道",
    "city": "斜里郡小清水町",
    "town": "止別"
  },
  "0993501": {
    "zipcode": "0993501",
    "prefectureCode": "01",
    "prefectureNumber": 1,
    "prefecture": "北海道",
    "city": "網走市",
    "town": "音根内"
  },
  "0993502": {
    "zipcode": "0993502",
    "prefectureCode": "01",
    "prefectureNumber": 1,
    "prefecture": "北海道",
    "city": "網走市",
    "town": "浦士別"
  },
  "0993503": {
    "zipcode": "0993503",
    "prefectureCode": "01",
    "prefectureNumber": 1,
    "prefecture": "北海道",
    "city": "網走市",
    "town": "栄"
  },
  "0993504": {
    "zipcode": "0993504",
    "prefectureCode": "01",
    "prefectureNumber": 1,
    "prefecture": "北海道",
    "city": "網走市",
    "town": "清浦"
  },
  "0993600": {
    "zipcode": "0993600",
    "prefectureCode": "01",
    "prefectureNumber": 1,
    "prefecture": "北海道",
    "city": "斜里郡小清水町",
    "town": "以下に掲載がない場合"
  },
  "0993601": {
    "zipcode": "0993601",
    "prefectureCode": "01",
    "prefectureNumber": 1,
    "prefecture": "北海道",
    "city": "斜里郡小清水町",
    "town": "萱野"
  },
  "0993602": {
    "zipcode": "0993602",
    "prefectureCode": "01",
    "prefectureNumber": 1,
    "prefecture": "北海道",
    "city": "斜里郡小清水町",
    "town": "東野"
  },
  "0993603": {
    "zipcode": "0993603",
    "prefectureCode": "01",
    "prefectureNumber": 1,
    "prefecture": "北海道",
    "city": "斜里郡小清水町",
    "town": "泉"
  },
  "0993604": {
    "zipcode": "0993604",
    "prefectureCode": "01",
    "prefectureNumber": 1,
    "prefecture": "北海道",
    "city": "斜里郡小清水町",
    "town": "水上"
  },
  "0993605": {
    "zipcode": "0993605",
    "prefectureCode": "01",
    "prefectureNumber": 1,
    "prefecture": "北海道",
    "city": "斜里郡小清水町",
    "town": "もこと山"
  },
  "0993611": {
    "zipcode": "0993611",
    "prefectureCode": "01",
    "prefectureNumber": 1,
    "prefecture": "北海道",
    "city": "斜里郡小清水町",
    "town": "上徳"
  },
  "0993612": {
    "zipcode": "0993612",
    "prefectureCode": "01",
    "prefectureNumber": 1,
    "prefecture": "北海道",
    "city": "斜里郡小清水町",
    "town": "共和"
  },
  "0993613": {
    "zipcode": "0993613",
    "prefectureCode": "01",
    "prefectureNumber": 1,
    "prefecture": "北海道",
    "city": "斜里郡小清水町",
    "town": "神浦"
  },
  "0993614": {
    "zipcode": "0993614",
    "prefectureCode": "01",
    "prefectureNumber": 1,
    "prefecture": "北海道",
    "city": "斜里郡小清水町",
    "town": "美和"
  },
  "0993615": {
    "zipcode": "0993615",
    "prefectureCode": "01",
    "prefectureNumber": 1,
    "prefecture": "北海道",
    "city": "斜里郡小清水町",
    "town": "中里"
  },
  "0993616": {
    "zipcode": "0993616",
    "prefectureCode": "01",
    "prefectureNumber": 1,
    "prefecture": "北海道",
    "city": "斜里郡小清水町",
    "town": "旭"
  },
  "0993641": {
    "zipcode": "0993641",
    "prefectureCode": "01",
    "prefectureNumber": 1,
    "prefecture": "北海道",
    "city": "斜里郡小清水町",
    "town": "元町"
  },
  "0993642": {
    "zipcode": "0993642",
    "prefectureCode": "01",
    "prefectureNumber": 1,
    "prefecture": "北海道",
    "city": "斜里郡小清水町",
    "town": "南町"
  },
  "0994100": {
    "zipcode": "0994100",
    "prefectureCode": "01",
    "prefectureNumber": 1,
    "prefecture": "北海道",
    "city": "斜里郡斜里町",
    "town": "以下に掲載がない場合"
  },
  "0994111": {
    "zipcode": "0994111",
    "prefectureCode": "01",
    "prefectureNumber": 1,
    "prefecture": "北海道",
    "city": "斜里郡斜里町",
    "town": "前浜町"
  },
  "0994112": {
    "zipcode": "0994112",
    "prefectureCode": "01",
    "prefectureNumber": 1,
    "prefecture": "北海道",
    "city": "斜里郡斜里町",
    "town": "港町"
  },
  "0994113": {
    "zipcode": "0994113",
    "prefectureCode": "01",
    "prefectureNumber": 1,
    "prefecture": "北海道",
    "city": "斜里郡斜里町",
    "town": "本町"
  },
  "0994114": {
    "zipcode": "0994114",
    "prefectureCode": "01",
    "prefectureNumber": 1,
    "prefecture": "北海道",
    "city": "斜里郡斜里町",
    "town": "朝日町"
  },
  "0994115": {
    "zipcode": "0994115",
    "prefectureCode": "01",
    "prefectureNumber": 1,
    "prefecture": "北海道",
    "city": "斜里郡斜里町",
    "town": "光陽町"
  },
  "0994116": {
    "zipcode": "0994116",
    "prefectureCode": "01",
    "prefectureNumber": 1,
    "prefecture": "北海道",
    "city": "斜里郡斜里町",
    "town": "文光町"
  },
  "0994117": {
    "zipcode": "0994117",
    "prefectureCode": "01",
    "prefectureNumber": 1,
    "prefecture": "北海道",
    "city": "斜里郡斜里町",
    "town": "青葉町"
  },
  "0994118": {
    "zipcode": "0994118",
    "prefectureCode": "01",
    "prefectureNumber": 1,
    "prefecture": "北海道",
    "city": "斜里郡斜里町",
    "town": "新光町"
  },
  "0994121": {
    "zipcode": "0994121",
    "prefectureCode": "01",
    "prefectureNumber": 1,
    "prefecture": "北海道",
    "city": "斜里郡斜里町",
    "town": "日の出"
  },
  "0994122": {
    "zipcode": "0994122",
    "prefectureCode": "01",
    "prefectureNumber": 1,
    "prefecture": "北海道",
    "city": "斜里郡斜里町",
    "town": "峰浜"
  },
  "0994123": {
    "zipcode": "0994123",
    "prefectureCode": "01",
    "prefectureNumber": 1,
    "prefecture": "北海道",
    "city": "斜里郡斜里町",
    "town": "朱円東"
  },
  "0994124": {
    "zipcode": "0994124",
    "prefectureCode": "01",
    "prefectureNumber": 1,
    "prefecture": "北海道",
    "city": "斜里郡斜里町",
    "town": "朱円"
  },
  "0994125": {
    "zipcode": "0994125",
    "prefectureCode": "01",
    "prefectureNumber": 1,
    "prefecture": "北海道",
    "city": "斜里郡斜里町",
    "town": "朱円西"
  },
  "0994126": {
    "zipcode": "0994126",
    "prefectureCode": "01",
    "prefectureNumber": 1,
    "prefecture": "北海道",
    "city": "斜里郡斜里町",
    "town": "以久科北"
  },
  "0994127": {
    "zipcode": "0994127",
    "prefectureCode": "01",
    "prefectureNumber": 1,
    "prefecture": "北海道",
    "city": "斜里郡斜里町",
    "town": "以久科南"
  },
  "0994131": {
    "zipcode": "0994131",
    "prefectureCode": "01",
    "prefectureNumber": 1,
    "prefecture": "北海道",
    "city": "斜里郡斜里町",
    "town": "越川"
  },
  "0994132": {
    "zipcode": "0994132",
    "prefectureCode": "01",
    "prefectureNumber": 1,
    "prefecture": "北海道",
    "city": "斜里郡斜里町",
    "town": "富士"
  },
  "0994133": {
    "zipcode": "0994133",
    "prefectureCode": "01",
    "prefectureNumber": 1,
    "prefecture": "北海道",
    "city": "斜里郡斜里町",
    "town": "三井"
  },
  "0994134": {
    "zipcode": "0994134",
    "prefectureCode": "01",
    "prefectureNumber": 1,
    "prefecture": "北海道",
    "city": "斜里郡斜里町",
    "town": "豊里"
  },
  "0994135": {
    "zipcode": "0994135",
    "prefectureCode": "01",
    "prefectureNumber": 1,
    "prefecture": "北海道",
    "city": "斜里郡斜里町",
    "town": "来運"
  },
  "0994141": {
    "zipcode": "0994141",
    "prefectureCode": "01",
    "prefectureNumber": 1,
    "prefecture": "北海道",
    "city": "斜里郡斜里町",
    "town": "豊倉"
  },
  "0994142": {
    "zipcode": "0994142",
    "prefectureCode": "01",
    "prefectureNumber": 1,
    "prefecture": "北海道",
    "city": "斜里郡斜里町",
    "town": "中斜里"
  },
  "0994143": {
    "zipcode": "0994143",
    "prefectureCode": "01",
    "prefectureNumber": 1,
    "prefecture": "北海道",
    "city": "斜里郡斜里町",
    "town": "川上"
  },
  "0994144": {
    "zipcode": "0994144",
    "prefectureCode": "01",
    "prefectureNumber": 1,
    "prefecture": "北海道",
    "city": "斜里郡斜里町",
    "town": "大栄"
  },
  "0994145": {
    "zipcode": "0994145",
    "prefectureCode": "01",
    "prefectureNumber": 1,
    "prefecture": "北海道",
    "city": "斜里郡斜里町",
    "town": "美咲"
  },
  "0994146": {
    "zipcode": "0994146",
    "prefectureCode": "01",
    "prefectureNumber": 1,
    "prefecture": "北海道",
    "city": "斜里郡斜里町",
    "town": "港西町"
  },
  "0994147": {
    "zipcode": "0994147",
    "prefectureCode": "01",
    "prefectureNumber": 1,
    "prefecture": "北海道",
    "city": "斜里郡斜里町",
    "town": "西町"
  },
  "0994351": {
    "zipcode": "0994351",
    "prefectureCode": "01",
    "prefectureNumber": 1,
    "prefecture": "北海道",
    "city": "斜里郡斜里町",
    "town": "ウトロ香川"
  },
  "0994352": {
    "zipcode": "0994352",
    "prefectureCode": "01",
    "prefectureNumber": 1,
    "prefecture": "北海道",
    "city": "斜里郡斜里町",
    "town": "ウトロ高原"
  },
  "0994353": {
    "zipcode": "0994353",
    "prefectureCode": "01",
    "prefectureNumber": 1,
    "prefecture": "北海道",
    "city": "斜里郡斜里町",
    "town": "ウトロ中島"
  },
  "0994354": {
    "zipcode": "0994354",
    "prefectureCode": "01",
    "prefectureNumber": 1,
    "prefecture": "北海道",
    "city": "斜里郡斜里町",
    "town": "ウトロ西"
  },
  "0994355": {
    "zipcode": "0994355",
    "prefectureCode": "01",
    "prefectureNumber": 1,
    "prefecture": "北海道",
    "city": "斜里郡斜里町",
    "town": "ウトロ東"
  },
  "0994356": {
    "zipcode": "0994356",
    "prefectureCode": "01",
    "prefectureNumber": 1,
    "prefecture": "北海道",
    "city": "斜里郡斜里町",
    "town": "岩尾別"
  },
  "0994357": {
    "zipcode": "0994357",
    "prefectureCode": "01",
    "prefectureNumber": 1,
    "prefecture": "北海道",
    "city": "斜里郡斜里町",
    "town": "真鯉"
  },
  "0994400": {
    "zipcode": "0994400",
    "prefectureCode": "01",
    "prefectureNumber": 1,
    "prefecture": "北海道",
    "city": "斜里郡清里町",
    "town": "以下に掲載がない場合"
  },
  "0994401": {
    "zipcode": "0994401",
    "prefectureCode": "01",
    "prefectureNumber": 1,
    "prefecture": "北海道",
    "city": "斜里郡清里町",
    "town": "上斜里"
  },
  "0994402": {
    "zipcode": "0994402",
    "prefectureCode": "01",
    "prefectureNumber": 1,
    "prefecture": "北海道",
    "city": "斜里郡清里町",
    "town": "下江鳶"
  },
  "0994403": {
    "zipcode": "0994403",
    "prefectureCode": "01",
    "prefectureNumber": 1,
    "prefecture": "北海道",
    "city": "斜里郡清里町",
    "town": "向陽"
  },
  "0994404": {
    "zipcode": "0994404",
    "prefectureCode": "01",
    "prefectureNumber": 1,
    "prefecture": "北海道",
    "city": "斜里郡清里町",
    "town": "江南"
  },
  "0994405": {
    "zipcode": "0994405",
    "prefectureCode": "01",
    "prefectureNumber": 1,
    "prefecture": "北海道",
    "city": "斜里郡清里町",
    "town": "羽衣町"
  },
  "0994406": {
    "zipcode": "0994406",
    "prefectureCode": "01",
    "prefectureNumber": 1,
    "prefecture": "北海道",
    "city": "斜里郡清里町",
    "town": "水元町"
  },
  "0994407": {
    "zipcode": "0994407",
    "prefectureCode": "01",
    "prefectureNumber": 1,
    "prefecture": "北海道",
    "city": "斜里郡清里町",
    "town": "新町"
  },
  "0994521": {
    "zipcode": "0994521",
    "prefectureCode": "01",
    "prefectureNumber": 1,
    "prefecture": "北海道",
    "city": "斜里郡清里町",
    "town": "札弦町"
  },
  "0994522": {
    "zipcode": "0994522",
    "prefectureCode": "01",
    "prefectureNumber": 1,
    "prefecture": "北海道",
    "city": "斜里郡清里町",
    "town": "神威"
  },
  "0994523": {
    "zipcode": "0994523",
    "prefectureCode": "01",
    "prefectureNumber": 1,
    "prefecture": "北海道",
    "city": "斜里郡清里町",
    "town": "川向"
  },
  "0994524": {
    "zipcode": "0994524",
    "prefectureCode": "01",
    "prefectureNumber": 1,
    "prefecture": "北海道",
    "city": "斜里郡清里町",
    "town": "青葉"
  },
  "0994525": {
    "zipcode": "0994525",
    "prefectureCode": "01",
    "prefectureNumber": 1,
    "prefecture": "北海道",
    "city": "斜里郡清里町",
    "town": "緑町"
  },
  "0994526": {
    "zipcode": "0994526",
    "prefectureCode": "01",
    "prefectureNumber": 1,
    "prefecture": "北海道",
    "city": "斜里郡清里町",
    "town": "清泉"
  },
  "0995171": {
    "zipcode": "0995171",
    "prefectureCode": "01",
    "prefectureNumber": 1,
    "prefecture": "北海道",
    "city": "紋別市",
    "town": "渚滑町"
  },
  "0995172": {
    "zipcode": "0995172",
    "prefectureCode": "01",
    "prefectureNumber": 1,
    "prefecture": "北海道",
    "city": "紋別市",
    "town": "渚滑町元新"
  },
  "0995173": {
    "zipcode": "0995173",
    "prefectureCode": "01",
    "prefectureNumber": 1,
    "prefecture": "北海道",
    "city": "紋別市",
    "town": "渚滑町元西"
  },
  "0995174": {
    "zipcode": "0995174",
    "prefectureCode": "01",
    "prefectureNumber": 1,
    "prefecture": "北海道",
    "city": "紋別市",
    "town": "渚滑町宇津々"
  },
  "0995175": {
    "zipcode": "0995175",
    "prefectureCode": "01",
    "prefectureNumber": 1,
    "prefecture": "北海道",
    "city": "紋別市",
    "town": "渚滑町川向"
  },
  "0995351": {
    "zipcode": "0995351",
    "prefectureCode": "01",
    "prefectureNumber": 1,
    "prefecture": "北海道",
    "city": "紋別市",
    "town": "上渚滑町下渚滑"
  },
  "0995352": {
    "zipcode": "0995352",
    "prefectureCode": "01",
    "prefectureNumber": 1,
    "prefecture": "北海道",
    "city": "紋別市",
    "town": "上渚滑町中渚滑"
  },
  "0995353": {
    "zipcode": "0995353",
    "prefectureCode": "01",
    "prefectureNumber": 1,
    "prefecture": "北海道",
    "city": "紋別市",
    "town": "上渚滑町上東"
  },
  "0995354": {
    "zipcode": "0995354",
    "prefectureCode": "01",
    "prefectureNumber": 1,
    "prefecture": "北海道",
    "city": "紋別市",
    "town": "上渚滑町"
  },
  "0995355": {
    "zipcode": "0995355",
    "prefectureCode": "01",
    "prefectureNumber": 1,
    "prefecture": "北海道",
    "city": "紋別市",
    "town": "上渚滑町更生"
  },
  "0995361": {
    "zipcode": "0995361",
    "prefectureCode": "01",
    "prefectureNumber": 1,
    "prefecture": "北海道",
    "city": "紋別市",
    "town": "上渚滑町和訓辺"
  },
  "0995362": {
    "zipcode": "0995362",
    "prefectureCode": "01",
    "prefectureNumber": 1,
    "prefecture": "北海道",
    "city": "紋別市",
    "town": "上渚滑町奥東"
  },
  "0995363": {
    "zipcode": "0995363",
    "prefectureCode": "01",
    "prefectureNumber": 1,
    "prefecture": "北海道",
    "city": "紋別市",
    "town": "上渚滑町下立牛"
  },
  "0995364": {
    "zipcode": "0995364",
    "prefectureCode": "01",
    "prefectureNumber": 1,
    "prefecture": "北海道",
    "city": "紋別市",
    "town": "上渚滑町上古丹"
  },
  "0995365": {
    "zipcode": "0995365",
    "prefectureCode": "01",
    "prefectureNumber": 1,
    "prefecture": "北海道",
    "city": "紋別市",
    "town": "上渚滑町中立牛"
  },
  "0995541": {
    "zipcode": "0995541",
    "prefectureCode": "01",
    "prefectureNumber": 1,
    "prefecture": "北海道",
    "city": "紋別郡滝上町",
    "town": "濁川中央"
  },
  "0995542": {
    "zipcode": "0995542",
    "prefectureCode": "01",
    "prefectureNumber": 1,
    "prefecture": "北海道",
    "city": "紋別郡滝上町",
    "town": "濁川みどり町"
  },
  "0995543": {
    "zipcode": "0995543",
    "prefectureCode": "01",
    "prefectureNumber": 1,
    "prefecture": "北海道",
    "city": "紋別郡滝上町",
    "town": "新町"
  },
  "0995544": {
    "zipcode": "0995544",
    "prefectureCode": "01",
    "prefectureNumber": 1,
    "prefecture": "北海道",
    "city": "紋別郡滝上町",
    "town": "雄鎮内"
  },
  "0995551": {
    "zipcode": "0995551",
    "prefectureCode": "01",
    "prefectureNumber": 1,
    "prefecture": "北海道",
    "city": "紋別郡滝上町",
    "town": "大正"
  },
  "0995552": {
    "zipcode": "0995552",
    "prefectureCode": "01",
    "prefectureNumber": 1,
    "prefecture": "北海道",
    "city": "紋別郡滝上町",
    "town": "滝下"
  },
  "0995553": {
    "zipcode": "0995553",
    "prefectureCode": "01",
    "prefectureNumber": 1,
    "prefecture": "北海道",
    "city": "紋別郡滝上町",
    "town": "雄柏"
  },
  "0995600": {
    "zipcode": "0995600",
    "prefectureCode": "01",
    "prefectureNumber": 1,
    "prefecture": "北海道",
    "city": "紋別郡滝上町",
    "town": "以下に掲載がない場合"
  },
  "0995601": {
    "zipcode": "0995601",
    "prefectureCode": "01",
    "prefectureNumber": 1,
    "prefecture": "北海道",
    "city": "紋別郡滝上町",
    "town": "あけぼの町"
  },
  "0995602": {
    "zipcode": "0995602",
    "prefectureCode": "01",
    "prefectureNumber": 1,
    "prefecture": "北海道",
    "city": "紋別郡滝上町",
    "town": "旭町"
  },
  "0995603": {
    "zipcode": "0995603",
    "prefectureCode": "01",
    "prefectureNumber": 1,
    "prefecture": "北海道",
    "city": "紋別郡滝上町",
    "town": "滝美町"
  },
  "0995604": {
    "zipcode": "0995604",
    "prefectureCode": "01",
    "prefectureNumber": 1,
    "prefecture": "北海道",
    "city": "紋別郡滝上町",
    "town": "元町"
  },
  "0995605": {
    "zipcode": "0995605",
    "prefectureCode": "01",
    "prefectureNumber": 1,
    "prefecture": "北海道",
    "city": "紋別郡滝上町",
    "town": "栄町"
  },
  "0995606": {
    "zipcode": "0995606",
    "prefectureCode": "01",
    "prefectureNumber": 1,
    "prefecture": "北海道",
    "city": "紋別郡滝上町",
    "town": "幸町"
  },
  "0995611": {
    "zipcode": "0995611",
    "prefectureCode": "01",
    "prefectureNumber": 1,
    "prefecture": "北海道",
    "city": "紋別郡滝上町",
    "town": "第１区"
  },
  "0995612": {
    "zipcode": "0995612",
    "prefectureCode": "01",
    "prefectureNumber": 1,
    "prefecture": "北海道",
    "city": "紋別郡滝上町",
    "town": "第２区"
  },
  "0995613": {
    "zipcode": "0995613",
    "prefectureCode": "01",
    "prefectureNumber": 1,
    "prefecture": "北海道",
    "city": "紋別郡滝上町",
    "town": "滝西"
  },
  "0995614": {
    "zipcode": "0995614",
    "prefectureCode": "01",
    "prefectureNumber": 1,
    "prefecture": "北海道",
    "city": "紋別郡滝上町",
    "town": "札久留"
  },
  "0996131": {
    "zipcode": "0996131",
    "prefectureCode": "01",
    "prefectureNumber": 1,
    "prefecture": "北海道",
    "city": "紋別市",
    "town": "八十士"
  },
  "0996132": {
    "zipcode": "0996132",
    "prefectureCode": "01",
    "prefectureNumber": 1,
    "prefecture": "北海道",
    "city": "紋別市",
    "town": "小向"
  },
  "0996133": {
    "zipcode": "0996133",
    "prefectureCode": "01",
    "prefectureNumber": 1,
    "prefecture": "北海道",
    "city": "紋別市",
    "town": "弘道"
  },
  "0996241": {
    "zipcode": "0996241",
    "prefectureCode": "01",
    "prefectureNumber": 1,
    "prefecture": "北海道",
    "city": "紋別市",
    "town": "沼の上"
  },
  "0996242": {
    "zipcode": "0996242",
    "prefectureCode": "01",
    "prefectureNumber": 1,
    "prefecture": "北海道",
    "city": "紋別市",
    "town": "志文"
  },
  "0996271": {
    "zipcode": "0996271",
    "prefectureCode": "01",
    "prefectureNumber": 1,
    "prefecture": "北海道",
    "city": "紋別郡湧別町",
    "town": "信部内"
  },
  "0996272": {
    "zipcode": "0996272",
    "prefectureCode": "01",
    "prefectureNumber": 1,
    "prefecture": "北海道",
    "city": "紋別郡湧別町",
    "town": "緑蔭"
  },
  "0996321": {
    "zipcode": "0996321",
    "prefectureCode": "01",
    "prefectureNumber": 1,
    "prefecture": "北海道",
    "city": "紋別郡湧別町",
    "town": "旭"
  },
  "0996322": {
    "zipcode": "0996322",
    "prefectureCode": "01",
    "prefectureNumber": 1,
    "prefecture": "北海道",
    "city": "紋別郡湧別町",
    "town": "北兵村三区"
  },
  "0996323": {
    "zipcode": "0996323",
    "prefectureCode": "01",
    "prefectureNumber": 1,
    "prefecture": "北海道",
    "city": "紋別郡湧別町",
    "town": "北兵村二区"
  },
  "0996325": {
    "zipcode": "0996325",
    "prefectureCode": "01",
    "prefectureNumber": 1,
    "prefecture": "北海道",
    "city": "紋別郡湧別町",
    "town": "北兵村一区"
  },
  "0996326": {
    "zipcode": "0996326",
    "prefectureCode": "01",
    "prefectureNumber": 1,
    "prefecture": "北海道",
    "city": "紋別郡湧別町",
    "town": "中湧別北町"
  },
  "0996327": {
    "zipcode": "0996327",
    "prefectureCode": "01",
    "prefectureNumber": 1,
    "prefecture": "北海道",
    "city": "紋別郡湧別町",
    "town": "中湧別東町"
  },
  "0996328": {
    "zipcode": "0996328",
    "prefectureCode": "01",
    "prefectureNumber": 1,
    "prefecture": "北海道",
    "city": "紋別郡湧別町",
    "town": "中湧別南町"
  },
  "0996329": {
    "zipcode": "0996329",
    "prefectureCode": "01",
    "prefectureNumber": 1,
    "prefecture": "北海道",
    "city": "紋別郡湧別町",
    "town": "中湧別中町"
  },
  "0996400": {
    "zipcode": "0996400",
    "prefectureCode": "01",
    "prefectureNumber": 1,
    "prefecture": "北海道",
    "city": "紋別郡湧別町",
    "town": "以下に掲載がない場合"
  },
  "0996401": {
    "zipcode": "0996401",
    "prefectureCode": "01",
    "prefectureNumber": 1,
    "prefecture": "北海道",
    "city": "紋別郡湧別町",
    "town": "港町"
  },
  "0996402": {
    "zipcode": "0996402",
    "prefectureCode": "01",
    "prefectureNumber": 1,
    "prefecture": "北海道",
    "city": "紋別郡湧別町",
    "town": "曙町"
  },
  "0996403": {
    "zipcode": "0996403",
    "prefectureCode": "01",
    "prefectureNumber": 1,
    "prefecture": "北海道",
    "city": "紋別郡湧別町",
    "town": "緑町"
  },
  "0996404": {
    "zipcode": "0996404",
    "prefectureCode": "01",
    "prefectureNumber": 1,
    "prefecture": "北海道",
    "city": "紋別郡湧別町",
    "town": "栄町"
  },
  "0996411": {
    "zipcode": "0996411",
    "prefectureCode": "01",
    "prefectureNumber": 1,
    "prefecture": "北海道",
    "city": "紋別郡湧別町",
    "town": "東"
  },
  "0996412": {
    "zipcode": "0996412",
    "prefectureCode": "01",
    "prefectureNumber": 1,
    "prefecture": "北海道",
    "city": "紋別郡湧別町",
    "town": "登栄床"
  },
  "0996413": {
    "zipcode": "0996413",
    "prefectureCode": "01",
    "prefectureNumber": 1,
    "prefecture": "北海道",
    "city": "紋別郡湧別町",
    "town": "福島（その他）"
  },
  "0996414": {
    "zipcode": "0996414",
    "prefectureCode": "01",
    "prefectureNumber": 1,
    "prefecture": "北海道",
    "city": "紋別郡湧別町",
    "town": "錦町"
  },
  "0996415": {
    "zipcode": "0996415",
    "prefectureCode": "01",
    "prefectureNumber": 1,
    "prefecture": "北海道",
    "city": "紋別郡湧別町",
    "town": "川西"
  },
  "0996501": {
    "zipcode": "0996501",
    "prefectureCode": "01",
    "prefectureNumber": 1,
    "prefecture": "北海道",
    "city": "紋別郡湧別町",
    "town": "上湧別屯田市街地"
  },
  "0996503": {
    "zipcode": "0996503",
    "prefectureCode": "01",
    "prefectureNumber": 1,
    "prefecture": "北海道",
    "city": "紋別郡湧別町",
    "town": "開盛"
  },
  "0996504": {
    "zipcode": "0996504",
    "prefectureCode": "01",
    "prefectureNumber": 1,
    "prefecture": "北海道",
    "city": "紋別郡湧別町",
    "town": "上富美"
  },
  "0996505": {
    "zipcode": "0996505",
    "prefectureCode": "01",
    "prefectureNumber": 1,
    "prefecture": "北海道",
    "city": "紋別郡湧別町",
    "town": "富美"
  },
  "0996506": {
    "zipcode": "0996506",
    "prefectureCode": "01",
    "prefectureNumber": 1,
    "prefecture": "北海道",
    "city": "紋別郡湧別町",
    "town": "札富美"
  },
  "0996507": {
    "zipcode": "0996507",
    "prefectureCode": "01",
    "prefectureNumber": 1,
    "prefecture": "北海道",
    "city": "紋別郡湧別町",
    "town": "南兵村三区"
  },
  "0996508": {
    "zipcode": "0996508",
    "prefectureCode": "01",
    "prefectureNumber": 1,
    "prefecture": "北海道",
    "city": "紋別郡湧別町",
    "town": "南兵村二区"
  },
  "0996509": {
    "zipcode": "0996509",
    "prefectureCode": "01",
    "prefectureNumber": 1,
    "prefecture": "北海道",
    "city": "紋別郡湧別町",
    "town": "南兵村一区"
  }
}
