{
  "1000000": {
    "zipcode": "1000000",
    "prefectureCode": "13",
    "prefectureNumber": 13,
    "prefecture": "東京都",
    "city": "千代田区",
    "town": "以下に掲載がない場合"
  },
  "1000001": {
    "zipcode": "1000001",
    "prefectureCode": "13",
    "prefectureNumber": 13,
    "prefecture": "東京都",
    "city": "千代田区",
    "town": "千代田"
  },
  "1000002": {
    "zipcode": "1000002",
    "prefectureCode": "13",
    "prefectureNumber": 13,
    "prefecture": "東京都",
    "city": "千代田区",
    "town": "皇居外苑"
  },
  "1000003": {
    "zipcode": "1000003",
    "prefectureCode": "13",
    "prefectureNumber": 13,
    "prefecture": "東京都",
    "city": "千代田区",
    "town": "一ツ橋（１丁目）"
  },
  "1000004": {
    "zipcode": "1000004",
    "prefectureCode": "13",
    "prefectureNumber": 13,
    "prefecture": "東京都",
    "city": "千代田区",
    "town": "大手町（次のビルを除く）"
  },
  "1000005": {
    "zipcode": "1000005",
    "prefectureCode": "13",
    "prefectureNumber": 13,
    "prefecture": "東京都",
    "city": "千代田区",
    "town": "丸の内（次のビルを除く）"
  },
  "1000006": {
    "zipcode": "1000006",
    "prefectureCode": "13",
    "prefectureNumber": 13,
    "prefecture": "東京都",
    "city": "千代田区",
    "town": "有楽町"
  },
  "1000011": {
    "zipcode": "1000011",
    "prefectureCode": "13",
    "prefectureNumber": 13,
    "prefecture": "東京都",
    "city": "千代田区",
    "town": "内幸町"
  },
  "1000012": {
    "zipcode": "1000012",
    "prefectureCode": "13",
    "prefectureNumber": 13,
    "prefecture": "東京都",
    "city": "千代田区",
    "town": "日比谷公園"
  },
  "1000013": {
    "zipcode": "1000013",
    "prefectureCode": "13",
    "prefectureNumber": 13,
    "prefecture": "東京都",
    "city": "千代田区",
    "town": "霞が関（次のビルを除く）"
  },
  "1000014": {
    "zipcode": "1000014",
    "prefectureCode": "13",
    "prefectureNumber": 13,
    "prefecture": "東京都",
    "city": "千代田区",
    "town": "永田町（次のビルを除く）"
  },
  "1000100": {
    "zipcode": "1000100",
    "prefectureCode": "13",
    "prefectureNumber": 13,
    "prefecture": "東京都",
    "city": "大島町",
    "town": "以下に掲載がない場合"
  },
  "1000101": {
    "zipcode": "1000101",
    "prefectureCode": "13",
    "prefectureNumber": 13,
    "prefecture": "東京都",
    "city": "大島町",
    "town": "元町"
  },
  "1000102": {
    "zipcode": "1000102",
    "prefectureCode": "13",
    "prefectureNumber": 13,
    "prefecture": "東京都",
    "city": "大島町",
    "town": "岡田"
  },
  "1000103": {
    "zipcode": "1000103",
    "prefectureCode": "13",
    "prefectureNumber": 13,
    "prefecture": "東京都",
    "city": "大島町",
    "town": "泉津"
  },
  "1000104": {
    "zipcode": "1000104",
    "prefectureCode": "13",
    "prefectureNumber": 13,
    "prefecture": "東京都",
    "city": "大島町",
    "town": "野増"
  },
  "1000211": {
    "zipcode": "1000211",
    "prefectureCode": "13",
    "prefectureNumber": 13,
    "prefecture": "東京都",
    "city": "大島町",
    "town": "差木地"
  },
  "1000212": {
    "zipcode": "1000212",
    "prefectureCode": "13",
    "prefectureNumber": 13,
    "prefecture": "東京都",
    "city": "大島町",
    "town": "波浮港"
  },
  "1000301": {
    "zipcode": "1000301",
    "prefectureCode": "13",
    "prefectureNumber": 13,
    "prefecture": "東京都",
    "city": "利島村",
    "town": "利島村一円"
  },
  "1000400": {
    "zipcode": "1000400",
    "prefectureCode": "13",
    "prefectureNumber": 13,
    "prefecture": "東京都",
    "city": "新島村",
    "town": "以下に掲載がない場合"
  },
  "1000401": {
    "zipcode": "1000401",
    "prefectureCode": "13",
    "prefectureNumber": 13,
    "prefecture": "東京都",
    "city": "新島村",
    "town": "若郷"
  },
  "1000402": {
    "zipcode": "1000402",
    "prefectureCode": "13",
    "prefectureNumber": 13,
    "prefecture": "東京都",
    "city": "新島村",
    "town": "本村"
  },
  "1000511": {
    "zipcode": "1000511",
    "prefectureCode": "13",
    "prefectureNumber": 13,
    "prefecture": "東京都",
    "city": "新島村",
    "town": "式根島"
  },
  "1000601": {
    "zipcode": "1000601",
    "prefectureCode": "13",
    "prefectureNumber": 13,
    "prefecture": "東京都",
    "city": "神津島村",
    "town": "神津島村一円"
  },
  "1001100": {
    "zipcode": "1001100",
    "prefectureCode": "13",
    "prefectureNumber": 13,
    "prefecture": "東京都",
    "city": "三宅島三宅村",
    "town": "以下に掲載がない場合"
  },
  "1001101": {
    "zipcode": "1001101",
    "prefectureCode": "13",
    "prefectureNumber": 13,
    "prefecture": "東京都",
    "city": "三宅島三宅村",
    "town": "神着"
  },
  "1001102": {
    "zipcode": "1001102",
    "prefectureCode": "13",
    "prefectureNumber": 13,
    "prefecture": "東京都",
    "city": "三宅島三宅村",
    "town": "伊豆"
  },
  "1001103": {
    "zipcode": "1001103",
    "prefectureCode": "13",
    "prefectureNumber": 13,
    "prefecture": "東京都",
    "city": "三宅島三宅村",
    "town": "伊ケ谷"
  },
  "1001211": {
    "zipcode": "1001211",
    "prefectureCode": "13",
    "prefectureNumber": 13,
    "prefecture": "東京都",
    "city": "三宅島三宅村",
    "town": "坪田"
  },
  "1001212": {
    "zipcode": "1001212",
    "prefectureCode": "13",
    "prefectureNumber": 13,
    "prefecture": "東京都",
    "city": "三宅島三宅村",
    "town": "阿古"
  },
  "1001213": {
    "zipcode": "1001213",
    "prefectureCode": "13",
    "prefectureNumber": 13,
    "prefecture": "東京都",
    "city": "三宅島三宅村",
    "town": "雄山"
  },
  "1001301": {
    "zipcode": "1001301",
    "prefectureCode": "13",
    "prefectureNumber": 13,
    "prefecture": "東京都",
    "city": "御蔵島村",
    "town": "御蔵島村一円"
  },
  "1001400": {
    "zipcode": "1001400",
    "prefectureCode": "13",
    "prefectureNumber": 13,
    "prefecture": "東京都",
    "city": "八丈島八丈町",
    "town": "以下に掲載がない場合"
  },
  "1001401": {
    "zipcode": "1001401",
    "prefectureCode": "13",
    "prefectureNumber": 13,
    "prefecture": "東京都",
    "city": "八丈島八丈町",
    "town": "大賀郷"
  },
  "1001511": {
    "zipcode": "1001511",
    "prefectureCode": "13",
    "prefectureNumber": 13,
    "prefecture": "東京都",
    "city": "八丈島八丈町",
    "town": "三根"
  },
  "1001621": {
    "zipcode": "1001621",
    "prefectureCode": "13",
    "prefectureNumber": 13,
    "prefecture": "東京都",
    "city": "八丈島八丈町",
    "town": "樫立"
  },
  "1001622": {
    "zipcode": "1001622",
    "prefectureCode": "13",
    "prefectureNumber": 13,
    "prefecture": "東京都",
    "city": "八丈島八丈町",
    "town": "末吉"
  },
  "1001623": {
    "zipcode": "1001623",
    "prefectureCode": "13",
    "prefectureNumber": 13,
    "prefecture": "東京都",
    "city": "八丈島八丈町",
    "town": "中之郷"
  },
  "1001701": {
    "zipcode": "1001701",
    "prefectureCode": "13",
    "prefectureNumber": 13,
    "prefecture": "東京都",
    "city": "青ヶ島村",
    "town": "青ヶ島村一円"
  },
  "1002100": {
    "zipcode": "1002100",
    "prefectureCode": "13",
    "prefectureNumber": 13,
    "prefecture": "東京都",
    "city": "小笠原村",
    "town": "以下に掲載がない場合"
  },
  "1002101": {
    "zipcode": "1002101",
    "prefectureCode": "13",
    "prefectureNumber": 13,
    "prefecture": "東京都",
    "city": "小笠原村",
    "town": "父島"
  },
  "1002211": {
    "zipcode": "1002211",
    "prefectureCode": "13",
    "prefectureNumber": 13,
    "prefecture": "東京都",
    "city": "小笠原村",
    "town": "母島"
  },
  "1006001": {
    "zipcode": "1006001",
    "prefectureCode": "13",
    "prefectureNumber": 13,
    "prefecture": "東京都",
    "city": "千代田区",
    "town": "霞が関霞が関ビル（１階）"
  },
  "1006002": {
    "zipcode": "1006002",
    "prefectureCode": "13",
    "prefectureNumber": 13,
    "prefecture": "東京都",
    "city": "千代田区",
    "town": "霞が関霞が関ビル（２階）"
  },
  "1006003": {
    "zipcode": "1006003",
    "prefectureCode": "13",
    "prefectureNumber": 13,
    "prefecture": "東京都",
    "city": "千代田区",
    "town": "霞が関霞が関ビル（３階）"
  },
  "1006004": {
    "zipcode": "1006004",
    "prefectureCode": "13",
    "prefectureNumber": 13,
    "prefecture": "東京都",
    "city": "千代田区",
    "town": "霞が関霞が関ビル（４階）"
  },
  "1006005": {
    "zipcode": "1006005",
    "prefectureCode": "13",
    "prefectureNumber": 13,
    "prefecture": "東京都",
    "city": "千代田区",
    "town": "霞が関霞が関ビル（５階）"
  },
  "1006006": {
    "zipcode": "1006006",
    "prefectureCode": "13",
    "prefectureNumber": 13,
    "prefecture": "東京都",
    "city": "千代田区",
    "town": "霞が関霞が関ビル（６階）"
  },
  "1006007": {
    "zipcode": "1006007",
    "prefectureCode": "13",
    "prefectureNumber": 13,
    "prefecture": "東京都",
    "city": "千代田区",
    "town": "霞が関霞が関ビル（７階）"
  },
  "1006008": {
    "zipcode": "1006008",
    "prefectureCode": "13",
    "prefectureNumber": 13,
    "prefecture": "東京都",
    "city": "千代田区",
    "town": "霞が関霞が関ビル（８階）"
  },
  "1006009": {
    "zipcode": "1006009",
    "prefectureCode": "13",
    "prefectureNumber": 13,
    "prefecture": "東京都",
    "city": "千代田区",
    "town": "霞が関霞が関ビル（９階）"
  },
  "1006010": {
    "zipcode": "1006010",
    "prefectureCode": "13",
    "prefectureNumber": 13,
    "prefecture": "東京都",
    "city": "千代田区",
    "town": "霞が関霞が関ビル（１０階）"
  },
  "1006011": {
    "zipcode": "1006011",
    "prefectureCode": "13",
    "prefectureNumber": 13,
    "prefecture": "東京都",
    "city": "千代田区",
    "town": "霞が関霞が関ビル（１１階）"
  },
  "1006012": {
    "zipcode": "1006012",
    "prefectureCode": "13",
    "prefectureNumber": 13,
    "prefecture": "東京都",
    "city": "千代田区",
    "town": "霞が関霞が関ビル（１２階）"
  },
  "1006013": {
    "zipcode": "1006013",
    "prefectureCode": "13",
    "prefectureNumber": 13,
    "prefecture": "東京都",
    "city": "千代田区",
    "town": "霞が関霞が関ビル（１３階）"
  },
  "1006014": {
    "zipcode": "1006014",
    "prefectureCode": "13",
    "prefectureNumber": 13,
    "prefecture": "東京都",
    "city": "千代田区",
    "town": "霞が関霞が関ビル（１４階）"
  },
  "1006015": {
    "zipcode": "1006015",
    "prefectureCode": "13",
    "prefectureNumber": 13,
    "prefecture": "東京都",
    "city": "千代田区",
    "town": "霞が関霞が関ビル（１５階）"
  },
  "1006016": {
    "zipcode": "1006016",
    "prefectureCode": "13",
    "prefectureNumber": 13,
    "prefecture": "東京都",
    "city": "千代田区",
    "town": "霞が関霞が関ビル（１６階）"
  },
  "1006017": {
    "zipcode": "1006017",
    "prefectureCode": "13",
    "prefectureNumber": 13,
    "prefecture": "東京都",
    "city": "千代田区",
    "town": "霞が関霞が関ビル（１７階）"
  },
  "1006018": {
    "zipcode": "1006018",
    "prefectureCode": "13",
    "prefectureNumber": 13,
    "prefecture": "東京都",
    "city": "千代田区",
    "town": "霞が関霞が関ビル（１８階）"
  },
  "1006019": {
    "zipcode": "1006019",
    "prefectureCode": "13",
    "prefectureNumber": 13,
    "prefecture": "東京都",
    "city": "千代田区",
    "town": "霞が関霞が関ビル（１９階）"
  },
  "1006020": {
    "zipcode": "1006020",
    "prefectureCode": "13",
    "prefectureNumber": 13,
    "prefecture": "東京都",
    "city": "千代田区",
    "town": "霞が関霞が関ビル（２０階）"
  },
  "1006021": {
    "zipcode": "1006021",
    "prefectureCode": "13",
    "prefectureNumber": 13,
    "prefecture": "東京都",
    "city": "千代田区",
    "town": "霞が関霞が関ビル（２１階）"
  },
  "1006022": {
    "zipcode": "1006022",
    "prefectureCode": "13",
    "prefectureNumber": 13,
    "prefecture": "東京都",
    "city": "千代田区",
    "town": "霞が関霞が関ビル（２２階）"
  },
  "1006023": {
    "zipcode": "1006023",
    "prefectureCode": "13",
    "prefectureNumber": 13,
    "prefecture": "東京都",
    "city": "千代田区",
    "town": "霞が関霞が関ビル（２３階）"
  },
  "1006024": {
    "zipcode": "1006024",
    "prefectureCode": "13",
    "prefectureNumber": 13,
    "prefecture": "東京都",
    "city": "千代田区",
    "town": "霞が関霞が関ビル（２４階）"
  },
  "1006025": {
    "zipcode": "1006025",
    "prefectureCode": "13",
    "prefectureNumber": 13,
    "prefecture": "東京都",
    "city": "千代田区",
    "town": "霞が関霞が関ビル（２５階）"
  },
  "1006026": {
    "zipcode": "1006026",
    "prefectureCode": "13",
    "prefectureNumber": 13,
    "prefecture": "東京都",
    "city": "千代田区",
    "town": "霞が関霞が関ビル（２６階）"
  },
  "1006027": {
    "zipcode": "1006027",
    "prefectureCode": "13",
    "prefectureNumber": 13,
    "prefecture": "東京都",
    "city": "千代田区",
    "town": "霞が関霞が関ビル（２７階）"
  },
  "1006028": {
    "zipcode": "1006028",
    "prefectureCode": "13",
    "prefectureNumber": 13,
    "prefecture": "東京都",
    "city": "千代田区",
    "town": "霞が関霞が関ビル（２８階）"
  },
  "1006029": {
    "zipcode": "1006029",
    "prefectureCode": "13",
    "prefectureNumber": 13,
    "prefecture": "東京都",
    "city": "千代田区",
    "town": "霞が関霞が関ビル（２９階）"
  },
  "1006030": {
    "zipcode": "1006030",
    "prefectureCode": "13",
    "prefectureNumber": 13,
    "prefecture": "東京都",
    "city": "千代田区",
    "town": "霞が関霞が関ビル（３０階）"
  },
  "1006031": {
    "zipcode": "1006031",
    "prefectureCode": "13",
    "prefectureNumber": 13,
    "prefecture": "東京都",
    "city": "千代田区",
    "town": "霞が関霞が関ビル（３１階）"
  },
  "1006032": {
    "zipcode": "1006032",
    "prefectureCode": "13",
    "prefectureNumber": 13,
    "prefecture": "東京都",
    "city": "千代田区",
    "town": "霞が関霞が関ビル（３２階）"
  },
  "1006033": {
    "zipcode": "1006033",
    "prefectureCode": "13",
    "prefectureNumber": 13,
    "prefecture": "東京都",
    "city": "千代田区",
    "town": "霞が関霞が関ビル（３３階）"
  },
  "1006034": {
    "zipcode": "1006034",
    "prefectureCode": "13",
    "prefectureNumber": 13,
    "prefecture": "東京都",
    "city": "千代田区",
    "town": "霞が関霞が関ビル（３４階）"
  },
  "1006035": {
    "zipcode": "1006035",
    "prefectureCode": "13",
    "prefectureNumber": 13,
    "prefecture": "東京都",
    "city": "千代田区",
    "town": "霞が関霞が関ビル（３５階）"
  },
  "1006036": {
    "zipcode": "1006036",
    "prefectureCode": "13",
    "prefectureNumber": 13,
    "prefecture": "東京都",
    "city": "千代田区",
    "town": "霞が関霞が関ビル（３６階）"
  },
  "1006090": {
    "zipcode": "1006090",
    "prefectureCode": "13",
    "prefectureNumber": 13,
    "prefecture": "東京都",
    "city": "千代田区",
    "town": "霞が関霞が関ビル（地階・階層不明）"
  },
  "1006101": {
    "zipcode": "1006101",
    "prefectureCode": "13",
    "prefectureNumber": 13,
    "prefecture": "東京都",
    "city": "千代田区",
    "town": "永田町山王パークタワー（１階）"
  },
  "1006102": {
    "zipcode": "1006102",
    "prefectureCode": "13",
    "prefectureNumber": 13,
    "prefecture": "東京都",
    "city": "千代田区",
    "town": "永田町山王パークタワー（２階）"
  },
  "1006103": {
    "zipcode": "1006103",
    "prefectureCode": "13",
    "prefectureNumber": 13,
    "prefecture": "東京都",
    "city": "千代田区",
    "town": "永田町山王パークタワー（３階）"
  },
  "1006104": {
    "zipcode": "1006104",
    "prefectureCode": "13",
    "prefectureNumber": 13,
    "prefecture": "東京都",
    "city": "千代田区",
    "town": "永田町山王パークタワー（４階）"
  },
  "1006105": {
    "zipcode": "1006105",
    "prefectureCode": "13",
    "prefectureNumber": 13,
    "prefecture": "東京都",
    "city": "千代田区",
    "town": "永田町山王パークタワー（５階）"
  },
  "1006106": {
    "zipcode": "1006106",
    "prefectureCode": "13",
    "prefectureNumber": 13,
    "prefecture": "東京都",
    "city": "千代田区",
    "town": "永田町山王パークタワー（６階）"
  },
  "1006107": {
    "zipcode": "1006107",
    "prefectureCode": "13",
    "prefectureNumber": 13,
    "prefecture": "東京都",
    "city": "千代田区",
    "town": "永田町山王パークタワー（７階）"
  },
  "1006108": {
    "zipcode": "1006108",
    "prefectureCode": "13",
    "prefectureNumber": 13,
    "prefecture": "東京都",
    "city": "千代田区",
    "town": "永田町山王パークタワー（８階）"
  },
  "1006109": {
    "zipcode": "1006109",
    "prefectureCode": "13",
    "prefectureNumber": 13,
    "prefecture": "東京都",
    "city": "千代田区",
    "town": "永田町山王パークタワー（９階）"
  },
  "1006110": {
    "zipcode": "1006110",
    "prefectureCode": "13",
    "prefectureNumber": 13,
    "prefecture": "東京都",
    "city": "千代田区",
    "town": "永田町山王パークタワー（１０階）"
  },
  "1006111": {
    "zipcode": "1006111",
    "prefectureCode": "13",
    "prefectureNumber": 13,
    "prefecture": "東京都",
    "city": "千代田区",
    "town": "永田町山王パークタワー（１１階）"
  },
  "1006112": {
    "zipcode": "1006112",
    "prefectureCode": "13",
    "prefectureNumber": 13,
    "prefecture": "東京都",
    "city": "千代田区",
    "town": "永田町山王パークタワー（１２階）"
  },
  "1006113": {
    "zipcode": "1006113",
    "prefectureCode": "13",
    "prefectureNumber": 13,
    "prefecture": "東京都",
    "city": "千代田区",
    "town": "永田町山王パークタワー（１３階）"
  },
  "1006114": {
    "zipcode": "1006114",
    "prefectureCode": "13",
    "prefectureNumber": 13,
    "prefecture": "東京都",
    "city": "千代田区",
    "town": "永田町山王パークタワー（１４階）"
  },
  "1006115": {
    "zipcode": "1006115",
    "prefectureCode": "13",
    "prefectureNumber": 13,
    "prefecture": "東京都",
    "city": "千代田区",
    "town": "永田町山王パークタワー（１５階）"
  },
  "1006116": {
    "zipcode": "1006116",
    "prefectureCode": "13",
    "prefectureNumber": 13,
    "prefecture": "東京都",
    "city": "千代田区",
    "town": "永田町山王パークタワー（１６階）"
  },
  "1006117": {
    "zipcode": "1006117",
    "prefectureCode": "13",
    "prefectureNumber": 13,
    "prefecture": "東京都",
    "city": "千代田区",
    "town": "永田町山王パークタワー（１７階）"
  },
  "1006118": {
    "zipcode": "1006118",
    "prefectureCode": "13",
    "prefectureNumber": 13,
    "prefecture": "東京都",
    "city": "千代田区",
    "town": "永田町山王パークタワー（１８階）"
  },
  "1006119": {
    "zipcode": "1006119",
    "prefectureCode": "13",
    "prefectureNumber": 13,
    "prefecture": "東京都",
    "city": "千代田区",
    "town": "永田町山王パークタワー（１９階）"
  },
  "1006120": {
    "zipcode": "1006120",
    "prefectureCode": "13",
    "prefectureNumber": 13,
    "prefecture": "東京都",
    "city": "千代田区",
    "town": "永田町山王パークタワー（２０階）"
  },
  "1006121": {
    "zipcode": "1006121",
    "prefectureCode": "13",
    "prefectureNumber": 13,
    "prefecture": "東京都",
    "city": "千代田区",
    "town": "永田町山王パークタワー（２１階）"
  },
  "1006122": {
    "zipcode": "1006122",
    "prefectureCode": "13",
    "prefectureNumber": 13,
    "prefecture": "東京都",
    "city": "千代田区",
    "town": "永田町山王パークタワー（２２階）"
  },
  "1006123": {
    "zipcode": "1006123",
    "prefectureCode": "13",
    "prefectureNumber": 13,
    "prefecture": "東京都",
    "city": "千代田区",
    "town": "永田町山王パークタワー（２３階）"
  },
  "1006124": {
    "zipcode": "1006124",
    "prefectureCode": "13",
    "prefectureNumber": 13,
    "prefecture": "東京都",
    "city": "千代田区",
    "town": "永田町山王パークタワー（２４階）"
  },
  "1006125": {
    "zipcode": "1006125",
    "prefectureCode": "13",
    "prefectureNumber": 13,
    "prefecture": "東京都",
    "city": "千代田区",
    "town": "永田町山王パークタワー（２５階）"
  },
  "1006126": {
    "zipcode": "1006126",
    "prefectureCode": "13",
    "prefectureNumber": 13,
    "prefecture": "東京都",
    "city": "千代田区",
    "town": "永田町山王パークタワー（２６階）"
  },
  "1006127": {
    "zipcode": "1006127",
    "prefectureCode": "13",
    "prefectureNumber": 13,
    "prefecture": "東京都",
    "city": "千代田区",
    "town": "永田町山王パークタワー（２７階）"
  },
  "1006128": {
    "zipcode": "1006128",
    "prefectureCode": "13",
    "prefectureNumber": 13,
    "prefecture": "東京都",
    "city": "千代田区",
    "town": "永田町山王パークタワー（２８階）"
  },
  "1006129": {
    "zipcode": "1006129",
    "prefectureCode": "13",
    "prefectureNumber": 13,
    "prefecture": "東京都",
    "city": "千代田区",
    "town": "永田町山王パークタワー（２９階）"
  },
  "1006130": {
    "zipcode": "1006130",
    "prefectureCode": "13",
    "prefectureNumber": 13,
    "prefecture": "東京都",
    "city": "千代田区",
    "town": "永田町山王パークタワー（３０階）"
  },
  "1006131": {
    "zipcode": "1006131",
    "prefectureCode": "13",
    "prefectureNumber": 13,
    "prefecture": "東京都",
    "city": "千代田区",
    "town": "永田町山王パークタワー（３１階）"
  },
  "1006132": {
    "zipcode": "1006132",
    "prefectureCode": "13",
    "prefectureNumber": 13,
    "prefecture": "東京都",
    "city": "千代田区",
    "town": "永田町山王パークタワー（３２階）"
  },
  "1006133": {
    "zipcode": "1006133",
    "prefectureCode": "13",
    "prefectureNumber": 13,
    "prefecture": "東京都",
    "city": "千代田区",
    "town": "永田町山王パークタワー（３３階）"
  },
  "1006134": {
    "zipcode": "1006134",
    "prefectureCode": "13",
    "prefectureNumber": 13,
    "prefecture": "東京都",
    "city": "千代田区",
    "town": "永田町山王パークタワー（３４階）"
  },
  "1006135": {
    "zipcode": "1006135",
    "prefectureCode": "13",
    "prefectureNumber": 13,
    "prefecture": "東京都",
    "city": "千代田区",
    "town": "永田町山王パークタワー（３５階）"
  },
  "1006136": {
    "zipcode": "1006136",
    "prefectureCode": "13",
    "prefectureNumber": 13,
    "prefecture": "東京都",
    "city": "千代田区",
    "town": "永田町山王パークタワー（３６階）"
  },
  "1006137": {
    "zipcode": "1006137",
    "prefectureCode": "13",
    "prefectureNumber": 13,
    "prefecture": "東京都",
    "city": "千代田区",
    "town": "永田町山王パークタワー（３７階）"
  },
  "1006138": {
    "zipcode": "1006138",
    "prefectureCode": "13",
    "prefectureNumber": 13,
    "prefecture": "東京都",
    "city": "千代田区",
    "town": "永田町山王パークタワー（３８階）"
  },
  "1006139": {
    "zipcode": "1006139",
    "prefectureCode": "13",
    "prefectureNumber": 13,
    "prefecture": "東京都",
    "city": "千代田区",
    "town": "永田町山王パークタワー（３９階）"
  },
  "1006140": {
    "zipcode": "1006140",
    "prefectureCode": "13",
    "prefectureNumber": 13,
    "prefecture": "東京都",
    "city": "千代田区",
    "town": "永田町山王パークタワー（４０階）"
  },
  "1006141": {
    "zipcode": "1006141",
    "prefectureCode": "13",
    "prefectureNumber": 13,
    "prefecture": "東京都",
    "city": "千代田区",
    "town": "永田町山王パークタワー（４１階）"
  },
  "1006142": {
    "zipcode": "1006142",
    "prefectureCode": "13",
    "prefectureNumber": 13,
    "prefecture": "東京都",
    "city": "千代田区",
    "town": "永田町山王パークタワー（４２階）"
  },
  "1006143": {
    "zipcode": "1006143",
    "prefectureCode": "13",
    "prefectureNumber": 13,
    "prefecture": "東京都",
    "city": "千代田区",
    "town": "永田町山王パークタワー（４３階）"
  },
  "1006144": {
    "zipcode": "1006144",
    "prefectureCode": "13",
    "prefectureNumber": 13,
    "prefecture": "東京都",
    "city": "千代田区",
    "town": "永田町山王パークタワー（４４階）"
  },
  "1006190": {
    "zipcode": "1006190",
    "prefectureCode": "13",
    "prefectureNumber": 13,
    "prefecture": "東京都",
    "city": "千代田区",
    "town": "永田町山王パークタワー（地階・階層不明）"
  },
  "1006201": {
    "zipcode": "1006201",
    "prefectureCode": "13",
    "prefectureNumber": 13,
    "prefecture": "東京都",
    "city": "千代田区",
    "town": "丸の内パシフィックセンチュリープレイス丸の内（１階）"
  },
  "1006202": {
    "zipcode": "1006202",
    "prefectureCode": "13",
    "prefectureNumber": 13,
    "prefecture": "東京都",
    "city": "千代田区",
    "town": "丸の内パシフィックセンチュリープレイス丸の内（２階）"
  },
  "1006203": {
    "zipcode": "1006203",
    "prefectureCode": "13",
    "prefectureNumber": 13,
    "prefecture": "東京都",
    "city": "千代田区",
    "town": "丸の内パシフィックセンチュリープレイス丸の内（３階）"
  },
  "1006204": {
    "zipcode": "1006204",
    "prefectureCode": "13",
    "prefectureNumber": 13,
    "prefecture": "東京都",
    "city": "千代田区",
    "town": "丸の内パシフィックセンチュリープレイス丸の内（４階）"
  },
  "1006205": {
    "zipcode": "1006205",
    "prefectureCode": "13",
    "prefectureNumber": 13,
    "prefecture": "東京都",
    "city": "千代田区",
    "town": "丸の内パシフィックセンチュリープレイス丸の内（５階）"
  },
  "1006206": {
    "zipcode": "1006206",
    "prefectureCode": "13",
    "prefectureNumber": 13,
    "prefecture": "東京都",
    "city": "千代田区",
    "town": "丸の内パシフィックセンチュリープレイス丸の内（６階）"
  },
  "1006207": {
    "zipcode": "1006207",
    "prefectureCode": "13",
    "prefectureNumber": 13,
    "prefecture": "東京都",
    "city": "千代田区",
    "town": "丸の内パシフィックセンチュリープレイス丸の内（７階）"
  },
  "1006208": {
    "zipcode": "1006208",
    "prefectureCode": "13",
    "prefectureNumber": 13,
    "prefecture": "東京都",
    "city": "千代田区",
    "town": "丸の内パシフィックセンチュリープレイス丸の内（８階）"
  },
  "1006209": {
    "zipcode": "1006209",
    "prefectureCode": "13",
    "prefectureNumber": 13,
    "prefecture": "東京都",
    "city": "千代田区",
    "town": "丸の内パシフィックセンチュリープレイス丸の内（９階）"
  },
  "1006210": {
    "zipcode": "1006210",
    "prefectureCode": "13",
    "prefectureNumber": 13,
    "prefecture": "東京都",
    "city": "千代田区",
    "town": "丸の内パシフィックセンチュリープレイス丸の内（１０階）"
  },
  "1006211": {
    "zipcode": "1006211",
    "prefectureCode": "13",
    "prefectureNumber": 13,
    "prefecture": "東京都",
    "city": "千代田区",
    "town": "丸の内パシフィックセンチュリープレイス丸の内（１１階）"
  },
  "1006212": {
    "zipcode": "1006212",
    "prefectureCode": "13",
    "prefectureNumber": 13,
    "prefecture": "東京都",
    "city": "千代田区",
    "town": "丸の内パシフィックセンチュリープレイス丸の内（１２階）"
  },
  "1006213": {
    "zipcode": "1006213",
    "prefectureCode": "13",
    "prefectureNumber": 13,
    "prefecture": "東京都",
    "city": "千代田区",
    "town": "丸の内パシフィックセンチュリープレイス丸の内（１３階）"
  },
  "1006214": {
    "zipcode": "1006214",
    "prefectureCode": "13",
    "prefectureNumber": 13,
    "prefecture": "東京都",
    "city": "千代田区",
    "town": "丸の内パシフィックセンチュリープレイス丸の内（１４階）"
  },
  "1006215": {
    "zipcode": "1006215",
    "prefectureCode": "13",
    "prefectureNumber": 13,
    "prefecture": "東京都",
    "city": "千代田区",
    "town": "丸の内パシフィックセンチュリープレイス丸の内（１５階）"
  },
  "1006216": {
    "zipcode": "1006216",
    "prefectureCode": "13",
    "prefectureNumber": 13,
    "prefecture": "東京都",
    "city": "千代田区",
    "town": "丸の内パシフィックセンチュリープレイス丸の内（１６階）"
  },
  "1006217": {
    "zipcode": "1006217",
    "prefectureCode": "13",
    "prefectureNumber": 13,
    "prefecture": "東京都",
    "city": "千代田区",
    "town": "丸の内パシフィックセンチュリープレイス丸の内（１７階）"
  },
  "1006218": {
    "zipcode": "1006218",
    "prefectureCode": "13",
    "prefectureNumber": 13,
    "prefecture": "東京都",
    "city": "千代田区",
    "town": "丸の内パシフィックセンチュリープレイス丸の内（１８階）"
  },
  "1006219": {
    "zipcode": "1006219",
    "prefectureCode": "13",
    "prefectureNumber": 13,
    "prefecture": "東京都",
    "city": "千代田区",
    "town": "丸の内パシフィックセンチュリープレイス丸の内（１９階）"
  },
  "1006220": {
    "zipcode": "1006220",
    "prefectureCode": "13",
    "prefectureNumber": 13,
    "prefecture": "東京都",
    "city": "千代田区",
    "town": "丸の内パシフィックセンチュリープレイス丸の内（２０階）"
  },
  "1006221": {
    "zipcode": "1006221",
    "prefectureCode": "13",
    "prefectureNumber": 13,
    "prefecture": "東京都",
    "city": "千代田区",
    "town": "丸の内パシフィックセンチュリープレイス丸の内（２１階）"
  },
  "1006222": {
    "zipcode": "1006222",
    "prefectureCode": "13",
    "prefectureNumber": 13,
    "prefecture": "東京都",
    "city": "千代田区",
    "town": "丸の内パシフィックセンチュリープレイス丸の内（２２階）"
  },
  "1006223": {
    "zipcode": "1006223",
    "prefectureCode": "13",
    "prefectureNumber": 13,
    "prefecture": "東京都",
    "city": "千代田区",
    "town": "丸の内パシフィックセンチュリープレイス丸の内（２３階）"
  },
  "1006224": {
    "zipcode": "1006224",
    "prefectureCode": "13",
    "prefectureNumber": 13,
    "prefecture": "東京都",
    "city": "千代田区",
    "town": "丸の内パシフィックセンチュリープレイス丸の内（２４階）"
  },
  "1006225": {
    "zipcode": "1006225",
    "prefectureCode": "13",
    "prefectureNumber": 13,
    "prefecture": "東京都",
    "city": "千代田区",
    "town": "丸の内パシフィックセンチュリープレイス丸の内（２５階）"
  },
  "1006226": {
    "zipcode": "1006226",
    "prefectureCode": "13",
    "prefectureNumber": 13,
    "prefecture": "東京都",
    "city": "千代田区",
    "town": "丸の内パシフィックセンチュリープレイス丸の内（２６階）"
  },
  "1006227": {
    "zipcode": "1006227",
    "prefectureCode": "13",
    "prefectureNumber": 13,
    "prefecture": "東京都",
    "city": "千代田区",
    "town": "丸の内パシフィックセンチュリープレイス丸の内（２７階）"
  },
  "1006228": {
    "zipcode": "1006228",
    "prefectureCode": "13",
    "prefectureNumber": 13,
    "prefecture": "東京都",
    "city": "千代田区",
    "town": "丸の内パシフィックセンチュリープレイス丸の内（２８階）"
  },
  "1006229": {
    "zipcode": "1006229",
    "prefectureCode": "13",
    "prefectureNumber": 13,
    "prefecture": "東京都",
    "city": "千代田区",
    "town": "丸の内パシフィックセンチュリープレイス丸の内（２９階）"
  },
  "1006230": {
    "zipcode": "1006230",
    "prefectureCode": "13",
    "prefectureNumber": 13,
    "prefecture": "東京都",
    "city": "千代田区",
    "town": "丸の内パシフィックセンチュリープレイス丸の内（３０階）"
  },
  "1006231": {
    "zipcode": "1006231",
    "prefectureCode": "13",
    "prefectureNumber": 13,
    "prefecture": "東京都",
    "city": "千代田区",
    "town": "丸の内パシフィックセンチュリープレイス丸の内（３１階）"
  },
  "1006290": {
    "zipcode": "1006290",
    "prefectureCode": "13",
    "prefectureNumber": 13,
    "prefecture": "東京都",
    "city": "千代田区",
    "town": "丸の内パシフィックセンチュリープレイス丸の内（地階・階層不明）"
  },
  "1006301": {
    "zipcode": "1006301",
    "prefectureCode": "13",
    "prefectureNumber": 13,
    "prefecture": "東京都",
    "city": "千代田区",
    "town": "丸の内丸の内ビルディング（１階）"
  },
  "1006302": {
    "zipcode": "1006302",
    "prefectureCode": "13",
    "prefectureNumber": 13,
    "prefecture": "東京都",
    "city": "千代田区",
    "town": "丸の内丸の内ビルディング（２階）"
  },
  "1006303": {
    "zipcode": "1006303",
    "prefectureCode": "13",
    "prefectureNumber": 13,
    "prefecture": "東京都",
    "city": "千代田区",
    "town": "丸の内丸の内ビルディング（３階）"
  },
  "1006304": {
    "zipcode": "1006304",
    "prefectureCode": "13",
    "prefectureNumber": 13,
    "prefecture": "東京都",
    "city": "千代田区",
    "town": "丸の内丸の内ビルディング（４階）"
  },
  "1006305": {
    "zipcode": "1006305",
    "prefectureCode": "13",
    "prefectureNumber": 13,
    "prefecture": "東京都",
    "city": "千代田区",
    "town": "丸の内丸の内ビルディング（５階）"
  },
  "1006306": {
    "zipcode": "1006306",
    "prefectureCode": "13",
    "prefectureNumber": 13,
    "prefecture": "東京都",
    "city": "千代田区",
    "town": "丸の内丸の内ビルディング（６階）"
  },
  "1006307": {
    "zipcode": "1006307",
    "prefectureCode": "13",
    "prefectureNumber": 13,
    "prefecture": "東京都",
    "city": "千代田区",
    "town": "丸の内丸の内ビルディング（７階）"
  },
  "1006308": {
    "zipcode": "1006308",
    "prefectureCode": "13",
    "prefectureNumber": 13,
    "prefecture": "東京都",
    "city": "千代田区",
    "town": "丸の内丸の内ビルディング（８階）"
  },
  "1006309": {
    "zipcode": "1006309",
    "prefectureCode": "13",
    "prefectureNumber": 13,
    "prefecture": "東京都",
    "city": "千代田区",
    "town": "丸の内丸の内ビルディング（９階）"
  },
  "1006310": {
    "zipcode": "1006310",
    "prefectureCode": "13",
    "prefectureNumber": 13,
    "prefecture": "東京都",
    "city": "千代田区",
    "town": "丸の内丸の内ビルディング（１０階）"
  },
  "1006311": {
    "zipcode": "1006311",
    "prefectureCode": "13",
    "prefectureNumber": 13,
    "prefecture": "東京都",
    "city": "千代田区",
    "town": "丸の内丸の内ビルディング（１１階）"
  },
  "1006312": {
    "zipcode": "1006312",
    "prefectureCode": "13",
    "prefectureNumber": 13,
    "prefecture": "東京都",
    "city": "千代田区",
    "town": "丸の内丸の内ビルディング（１２階）"
  },
  "1006313": {
    "zipcode": "1006313",
    "prefectureCode": "13",
    "prefectureNumber": 13,
    "prefecture": "東京都",
    "city": "千代田区",
    "town": "丸の内丸の内ビルディング（１３階）"
  },
  "1006314": {
    "zipcode": "1006314",
    "prefectureCode": "13",
    "prefectureNumber": 13,
    "prefecture": "東京都",
    "city": "千代田区",
    "town": "丸の内丸の内ビルディング（１４階）"
  },
  "1006315": {
    "zipcode": "1006315",
    "prefectureCode": "13",
    "prefectureNumber": 13,
    "prefecture": "東京都",
    "city": "千代田区",
    "town": "丸の内丸の内ビルディング（１５階）"
  },
  "1006316": {
    "zipcode": "1006316",
    "prefectureCode": "13",
    "prefectureNumber": 13,
    "prefecture": "東京都",
    "city": "千代田区",
    "town": "丸の内丸の内ビルディング（１６階）"
  },
  "1006317": {
    "zipcode": "1006317",
    "prefectureCode": "13",
    "prefectureNumber": 13,
    "prefecture": "東京都",
    "city": "千代田区",
    "town": "丸の内丸の内ビルディング（１７階）"
  },
  "1006318": {
    "zipcode": "1006318",
    "prefectureCode": "13",
    "prefectureNumber": 13,
    "prefecture": "東京都",
    "city": "千代田区",
    "town": "丸の内丸の内ビルディング（１８階）"
  },
  "1006319": {
    "zipcode": "1006319",
    "prefectureCode": "13",
    "prefectureNumber": 13,
    "prefecture": "東京都",
    "city": "千代田区",
    "town": "丸の内丸の内ビルディング（１９階）"
  },
  "1006320": {
    "zipcode": "1006320",
    "prefectureCode": "13",
    "prefectureNumber": 13,
    "prefecture": "東京都",
    "city": "千代田区",
    "town": "丸の内丸の内ビルディング（２０階）"
  },
  "1006321": {
    "zipcode": "1006321",
    "prefectureCode": "13",
    "prefectureNumber": 13,
    "prefecture": "東京都",
    "city": "千代田区",
    "town": "丸の内丸の内ビルディング（２１階）"
  },
  "1006322": {
    "zipcode": "1006322",
    "prefectureCode": "13",
    "prefectureNumber": 13,
    "prefecture": "東京都",
    "city": "千代田区",
    "town": "丸の内丸の内ビルディング（２２階）"
  },
  "1006323": {
    "zipcode": "1006323",
    "prefectureCode": "13",
    "prefectureNumber": 13,
    "prefecture": "東京都",
    "city": "千代田区",
    "town": "丸の内丸の内ビルディング（２３階）"
  },
  "1006324": {
    "zipcode": "1006324",
    "prefectureCode": "13",
    "prefectureNumber": 13,
    "prefecture": "東京都",
    "city": "千代田区",
    "town": "丸の内丸の内ビルディング（２４階）"
  },
  "1006325": {
    "zipcode": "1006325",
    "prefectureCode": "13",
    "prefectureNumber": 13,
    "prefecture": "東京都",
    "city": "千代田区",
    "town": "丸の内丸の内ビルディング（２５階）"
  },
  "1006326": {
    "zipcode": "1006326",
    "prefectureCode": "13",
    "prefectureNumber": 13,
    "prefecture": "東京都",
    "city": "千代田区",
    "town": "丸の内丸の内ビルディング（２６階）"
  },
  "1006327": {
    "zipcode": "1006327",
    "prefectureCode": "13",
    "prefectureNumber": 13,
    "prefecture": "東京都",
    "city": "千代田区",
    "town": "丸の内丸の内ビルディング（２７階）"
  },
  "1006328": {
    "zipcode": "1006328",
    "prefectureCode": "13",
    "prefectureNumber": 13,
    "prefecture": "東京都",
    "city": "千代田区",
    "town": "丸の内丸の内ビルディング（２８階）"
  },
  "1006329": {
    "zipcode": "1006329",
    "prefectureCode": "13",
    "prefectureNumber": 13,
    "prefecture": "東京都",
    "city": "千代田区",
    "town": "丸の内丸の内ビルディング（２９階）"
  },
  "1006330": {
    "zipcode": "1006330",
    "prefectureCode": "13",
    "prefectureNumber": 13,
    "prefecture": "東京都",
    "city": "千代田区",
    "town": "丸の内丸の内ビルディング（３０階）"
  },
  "1006331": {
    "zipcode": "1006331",
    "prefectureCode": "13",
    "prefectureNumber": 13,
    "prefecture": "東京都",
    "city": "千代田区",
    "town": "丸の内丸の内ビルディング（３１階）"
  },
  "1006332": {
    "zipcode": "1006332",
    "prefectureCode": "13",
    "prefectureNumber": 13,
    "prefecture": "東京都",
    "city": "千代田区",
    "town": "丸の内丸の内ビルディング（３２階）"
  },
  "1006333": {
    "zipcode": "1006333",
    "prefectureCode": "13",
    "prefectureNumber": 13,
    "prefecture": "東京都",
    "city": "千代田区",
    "town": "丸の内丸の内ビルディング（３３階）"
  },
  "1006334": {
    "zipcode": "1006334",
    "prefectureCode": "13",
    "prefectureNumber": 13,
    "prefecture": "東京都",
    "city": "千代田区",
    "town": "丸の内丸の内ビルディング（３４階）"
  },
  "1006335": {
    "zipcode": "1006335",
    "prefectureCode": "13",
    "prefectureNumber": 13,
    "prefecture": "東京都",
    "city": "千代田区",
    "town": "丸の内丸の内ビルディング（３５階）"
  },
  "1006336": {
    "zipcode": "1006336",
    "prefectureCode": "13",
    "prefectureNumber": 13,
    "prefecture": "東京都",
    "city": "千代田区",
    "town": "丸の内丸の内ビルディング（３６階）"
  },
  "1006337": {
    "zipcode": "1006337",
    "prefectureCode": "13",
    "prefectureNumber": 13,
    "prefecture": "東京都",
    "city": "千代田区",
    "town": "丸の内丸の内ビルディング（３７階）"
  },
  "1006390": {
    "zipcode": "1006390",
    "prefectureCode": "13",
    "prefectureNumber": 13,
    "prefecture": "東京都",
    "city": "千代田区",
    "town": "丸の内丸の内ビルディング（地階・階層不明）"
  },
  "1006401": {
    "zipcode": "1006401",
    "prefectureCode": "13",
    "prefectureNumber": 13,
    "prefecture": "東京都",
    "city": "千代田区",
    "town": "丸の内東京ビルディング（１階）"
  },
  "1006402": {
    "zipcode": "1006402",
    "prefectureCode": "13",
    "prefectureNumber": 13,
    "prefecture": "東京都",
    "city": "千代田区",
    "town": "丸の内東京ビルディング（２階）"
  },
  "1006403": {
    "zipcode": "1006403",
    "prefectureCode": "13",
    "prefectureNumber": 13,
    "prefecture": "東京都",
    "city": "千代田区",
    "town": "丸の内東京ビルディング（３階）"
  },
  "1006404": {
    "zipcode": "1006404",
    "prefectureCode": "13",
    "prefectureNumber": 13,
    "prefecture": "東京都",
    "city": "千代田区",
    "town": "丸の内東京ビルディング（４階）"
  },
  "1006405": {
    "zipcode": "1006405",
    "prefectureCode": "13",
    "prefectureNumber": 13,
    "prefecture": "東京都",
    "city": "千代田区",
    "town": "丸の内東京ビルディング（５階）"
  },
  "1006406": {
    "zipcode": "1006406",
    "prefectureCode": "13",
    "prefectureNumber": 13,
    "prefecture": "東京都",
    "city": "千代田区",
    "town": "丸の内東京ビルディング（６階）"
  },
  "1006407": {
    "zipcode": "1006407",
    "prefectureCode": "13",
    "prefectureNumber": 13,
    "prefecture": "東京都",
    "city": "千代田区",
    "town": "丸の内東京ビルディング（７階）"
  },
  "1006408": {
    "zipcode": "1006408",
    "prefectureCode": "13",
    "prefectureNumber": 13,
    "prefecture": "東京都",
    "city": "千代田区",
    "town": "丸の内東京ビルディング（８階）"
  },
  "1006409": {
    "zipcode": "1006409",
    "prefectureCode": "13",
    "prefectureNumber": 13,
    "prefecture": "東京都",
    "city": "千代田区",
    "town": "丸の内東京ビルディング（９階）"
  },
  "1006410": {
    "zipcode": "1006410",
    "prefectureCode": "13",
    "prefectureNumber": 13,
    "prefecture": "東京都",
    "city": "千代田区",
    "town": "丸の内東京ビルディング（１０階）"
  },
  "1006411": {
    "zipcode": "1006411",
    "prefectureCode": "13",
    "prefectureNumber": 13,
    "prefecture": "東京都",
    "city": "千代田区",
    "town": "丸の内東京ビルディング（１１階）"
  },
  "1006412": {
    "zipcode": "1006412",
    "prefectureCode": "13",
    "prefectureNumber": 13,
    "prefecture": "東京都",
    "city": "千代田区",
    "town": "丸の内東京ビルディング（１２階）"
  },
  "1006413": {
    "zipcode": "1006413",
    "prefectureCode": "13",
    "prefectureNumber": 13,
    "prefecture": "東京都",
    "city": "千代田区",
    "town": "丸の内東京ビルディング（１３階）"
  },
  "1006414": {
    "zipcode": "1006414",
    "prefectureCode": "13",
    "prefectureNumber": 13,
    "prefecture": "東京都",
    "city": "千代田区",
    "town": "丸の内東京ビルディング（１４階）"
  },
  "1006415": {
    "zipcode": "1006415",
    "prefectureCode": "13",
    "prefectureNumber": 13,
    "prefecture": "東京都",
    "city": "千代田区",
    "town": "丸の内東京ビルディング（１５階）"
  },
  "1006416": {
    "zipcode": "1006416",
    "prefectureCode": "13",
    "prefectureNumber": 13,
    "prefecture": "東京都",
    "city": "千代田区",
    "town": "丸の内東京ビルディング（１６階）"
  },
  "1006417": {
    "zipcode": "1006417",
    "prefectureCode": "13",
    "prefectureNumber": 13,
    "prefecture": "東京都",
    "city": "千代田区",
    "town": "丸の内東京ビルディング（１７階）"
  },
  "1006418": {
    "zipcode": "1006418",
    "prefectureCode": "13",
    "prefectureNumber": 13,
    "prefecture": "東京都",
    "city": "千代田区",
    "town": "丸の内東京ビルディング（１８階）"
  },
  "1006419": {
    "zipcode": "1006419",
    "prefectureCode": "13",
    "prefectureNumber": 13,
    "prefecture": "東京都",
    "city": "千代田区",
    "town": "丸の内東京ビルディング（１９階）"
  },
  "1006420": {
    "zipcode": "1006420",
    "prefectureCode": "13",
    "prefectureNumber": 13,
    "prefecture": "東京都",
    "city": "千代田区",
    "town": "丸の内東京ビルディング（２０階）"
  },
  "1006421": {
    "zipcode": "1006421",
    "prefectureCode": "13",
    "prefectureNumber": 13,
    "prefecture": "東京都",
    "city": "千代田区",
    "town": "丸の内東京ビルディング（２１階）"
  },
  "1006422": {
    "zipcode": "1006422",
    "prefectureCode": "13",
    "prefectureNumber": 13,
    "prefecture": "東京都",
    "city": "千代田区",
    "town": "丸の内東京ビルディング（２２階）"
  },
  "1006423": {
    "zipcode": "1006423",
    "prefectureCode": "13",
    "prefectureNumber": 13,
    "prefecture": "東京都",
    "city": "千代田区",
    "town": "丸の内東京ビルディング（２３階）"
  },
  "1006424": {
    "zipcode": "1006424",
    "prefectureCode": "13",
    "prefectureNumber": 13,
    "prefecture": "東京都",
    "city": "千代田区",
    "town": "丸の内東京ビルディング（２４階）"
  },
  "1006425": {
    "zipcode": "1006425",
    "prefectureCode": "13",
    "prefectureNumber": 13,
    "prefecture": "東京都",
    "city": "千代田区",
    "town": "丸の内東京ビルディング（２５階）"
  },
  "1006426": {
    "zipcode": "1006426",
    "prefectureCode": "13",
    "prefectureNumber": 13,
    "prefecture": "東京都",
    "city": "千代田区",
    "town": "丸の内東京ビルディング（２６階）"
  },
  "1006427": {
    "zipcode": "1006427",
    "prefectureCode": "13",
    "prefectureNumber": 13,
    "prefecture": "東京都",
    "city": "千代田区",
    "town": "丸の内東京ビルディング（２７階）"
  },
  "1006428": {
    "zipcode": "1006428",
    "prefectureCode": "13",
    "prefectureNumber": 13,
    "prefecture": "東京都",
    "city": "千代田区",
    "town": "丸の内東京ビルディング（２８階）"
  },
  "1006429": {
    "zipcode": "1006429",
    "prefectureCode": "13",
    "prefectureNumber": 13,
    "prefecture": "東京都",
    "city": "千代田区",
    "town": "丸の内東京ビルディング（２９階）"
  },
  "1006430": {
    "zipcode": "1006430",
    "prefectureCode": "13",
    "prefectureNumber": 13,
    "prefecture": "東京都",
    "city": "千代田区",
    "town": "丸の内東京ビルディング（３０階）"
  },
  "1006431": {
    "zipcode": "1006431",
    "prefectureCode": "13",
    "prefectureNumber": 13,
    "prefecture": "東京都",
    "city": "千代田区",
    "town": "丸の内東京ビルディング（３１階）"
  },
  "1006432": {
    "zipcode": "1006432",
    "prefectureCode": "13",
    "prefectureNumber": 13,
    "prefecture": "東京都",
    "city": "千代田区",
    "town": "丸の内東京ビルディング（３２階）"
  },
  "1006433": {
    "zipcode": "1006433",
    "prefectureCode": "13",
    "prefectureNumber": 13,
    "prefecture": "東京都",
    "city": "千代田区",
    "town": "丸の内東京ビルディング（３３階）"
  },
  "1006490": {
    "zipcode": "1006490",
    "prefectureCode": "13",
    "prefectureNumber": 13,
    "prefecture": "東京都",
    "city": "千代田区",
    "town": "丸の内東京ビルディング（地階・階層不明）"
  },
  "1006501": {
    "zipcode": "1006501",
    "prefectureCode": "13",
    "prefectureNumber": 13,
    "prefecture": "東京都",
    "city": "千代田区",
    "town": "丸の内新丸の内ビルディング（１階）"
  },
  "1006502": {
    "zipcode": "1006502",
    "prefectureCode": "13",
    "prefectureNumber": 13,
    "prefecture": "東京都",
    "city": "千代田区",
    "town": "丸の内新丸の内ビルディング（２階）"
  },
  "1006503": {
    "zipcode": "1006503",
    "prefectureCode": "13",
    "prefectureNumber": 13,
    "prefecture": "東京都",
    "city": "千代田区",
    "town": "丸の内新丸の内ビルディング（３階）"
  },
  "1006504": {
    "zipcode": "1006504",
    "prefectureCode": "13",
    "prefectureNumber": 13,
    "prefecture": "東京都",
    "city": "千代田区",
    "town": "丸の内新丸の内ビルディング（４階）"
  },
  "1006505": {
    "zipcode": "1006505",
    "prefectureCode": "13",
    "prefectureNumber": 13,
    "prefecture": "東京都",
    "city": "千代田区",
    "town": "丸の内新丸の内ビルディング（５階）"
  },
  "1006506": {
    "zipcode": "1006506",
    "prefectureCode": "13",
    "prefectureNumber": 13,
    "prefecture": "東京都",
    "city": "千代田区",
    "town": "丸の内新丸の内ビルディング（６階）"
  },
  "1006507": {
    "zipcode": "1006507",
    "prefectureCode": "13",
    "prefectureNumber": 13,
    "prefecture": "東京都",
    "city": "千代田区",
    "town": "丸の内新丸の内ビルディング（７階）"
  },
  "1006508": {
    "zipcode": "1006508",
    "prefectureCode": "13",
    "prefectureNumber": 13,
    "prefecture": "東京都",
    "city": "千代田区",
    "town": "丸の内新丸の内ビルディング（８階）"
  },
  "1006509": {
    "zipcode": "1006509",
    "prefectureCode": "13",
    "prefectureNumber": 13,
    "prefecture": "東京都",
    "city": "千代田区",
    "town": "丸の内新丸の内ビルディング（９階）"
  },
  "1006510": {
    "zipcode": "1006510",
    "prefectureCode": "13",
    "prefectureNumber": 13,
    "prefecture": "東京都",
    "city": "千代田区",
    "town": "丸の内新丸の内ビルディング（１０階）"
  },
  "1006511": {
    "zipcode": "1006511",
    "prefectureCode": "13",
    "prefectureNumber": 13,
    "prefecture": "東京都",
    "city": "千代田区",
    "town": "丸の内新丸の内ビルディング（１１階）"
  },
  "1006512": {
    "zipcode": "1006512",
    "prefectureCode": "13",
    "prefectureNumber": 13,
    "prefecture": "東京都",
    "city": "千代田区",
    "town": "丸の内新丸の内ビルディング（１２階）"
  },
  "1006513": {
    "zipcode": "1006513",
    "prefectureCode": "13",
    "prefectureNumber": 13,
    "prefecture": "東京都",
    "city": "千代田区",
    "town": "丸の内新丸の内ビルディング（１３階）"
  },
  "1006514": {
    "zipcode": "1006514",
    "prefectureCode": "13",
    "prefectureNumber": 13,
    "prefecture": "東京都",
    "city": "千代田区",
    "town": "丸の内新丸の内ビルディング（１４階）"
  },
  "1006515": {
    "zipcode": "1006515",
    "prefectureCode": "13",
    "prefectureNumber": 13,
    "prefecture": "東京都",
    "city": "千代田区",
    "town": "丸の内新丸の内ビルディング（１５階）"
  },
  "1006516": {
    "zipcode": "1006516",
    "prefectureCode": "13",
    "prefectureNumber": 13,
    "prefecture": "東京都",
    "city": "千代田区",
    "town": "丸の内新丸の内ビルディング（１６階）"
  },
  "1006517": {
    "zipcode": "1006517",
    "prefectureCode": "13",
    "prefectureNumber": 13,
    "prefecture": "東京都",
    "city": "千代田区",
    "town": "丸の内新丸の内ビルディング（１７階）"
  },
  "1006518": {
    "zipcode": "1006518",
    "prefectureCode": "13",
    "prefectureNumber": 13,
    "prefecture": "東京都",
    "city": "千代田区",
    "town": "丸の内新丸の内ビルディング（１８階）"
  },
  "1006519": {
    "zipcode": "1006519",
    "prefectureCode": "13",
    "prefectureNumber": 13,
    "prefecture": "東京都",
    "city": "千代田区",
    "town": "丸の内新丸の内ビルディング（１９階）"
  },
  "1006520": {
    "zipcode": "1006520",
    "prefectureCode": "13",
    "prefectureNumber": 13,
    "prefecture": "東京都",
    "city": "千代田区",
    "town": "丸の内新丸の内ビルディング（２０階）"
  },
  "1006521": {
    "zipcode": "1006521",
    "prefectureCode": "13",
    "prefectureNumber": 13,
    "prefecture": "東京都",
    "city": "千代田区",
    "town": "丸の内新丸の内ビルディング（２１階）"
  },
  "1006522": {
    "zipcode": "1006522",
    "prefectureCode": "13",
    "prefectureNumber": 13,
    "prefecture": "東京都",
    "city": "千代田区",
    "town": "丸の内新丸の内ビルディング（２２階）"
  },
  "1006523": {
    "zipcode": "1006523",
    "prefectureCode": "13",
    "prefectureNumber": 13,
    "prefecture": "東京都",
    "city": "千代田区",
    "town": "丸の内新丸の内ビルディング（２３階）"
  },
  "1006524": {
    "zipcode": "1006524",
    "prefectureCode": "13",
    "prefectureNumber": 13,
    "prefecture": "東京都",
    "city": "千代田区",
    "town": "丸の内新丸の内ビルディング（２４階）"
  },
  "1006525": {
    "zipcode": "1006525",
    "prefectureCode": "13",
    "prefectureNumber": 13,
    "prefecture": "東京都",
    "city": "千代田区",
    "town": "丸の内新丸の内ビルディング（２５階）"
  },
  "1006526": {
    "zipcode": "1006526",
    "prefectureCode": "13",
    "prefectureNumber": 13,
    "prefecture": "東京都",
    "city": "千代田区",
    "town": "丸の内新丸の内ビルディング（２６階）"
  },
  "1006527": {
    "zipcode": "1006527",
    "prefectureCode": "13",
    "prefectureNumber": 13,
    "prefecture": "東京都",
    "city": "千代田区",
    "town": "丸の内新丸の内ビルディング（２７階）"
  },
  "1006528": {
    "zipcode": "1006528",
    "prefectureCode": "13",
    "prefectureNumber": 13,
    "prefecture": "東京都",
    "city": "千代田区",
    "town": "丸の内新丸の内ビルディング（２８階）"
  },
  "1006529": {
    "zipcode": "1006529",
    "prefectureCode": "13",
    "prefectureNumber": 13,
    "prefecture": "東京都",
    "city": "千代田区",
    "town": "丸の内新丸の内ビルディング（２９階）"
  },
  "1006530": {
    "zipcode": "1006530",
    "prefectureCode": "13",
    "prefectureNumber": 13,
    "prefecture": "東京都",
    "city": "千代田区",
    "town": "丸の内新丸の内ビルディング（３０階）"
  },
  "1006531": {
    "zipcode": "1006531",
    "prefectureCode": "13",
    "prefectureNumber": 13,
    "prefecture": "東京都",
    "city": "千代田区",
    "town": "丸の内新丸の内ビルディング（３１階）"
  },
  "1006532": {
    "zipcode": "1006532",
    "prefectureCode": "13",
    "prefectureNumber": 13,
    "prefecture": "東京都",
    "city": "千代田区",
    "town": "丸の内新丸の内ビルディング（３２階）"
  },
  "1006533": {
    "zipcode": "1006533",
    "prefectureCode": "13",
    "prefectureNumber": 13,
    "prefecture": "東京都",
    "city": "千代田区",
    "town": "丸の内新丸の内ビルディング（３３階）"
  },
  "1006534": {
    "zipcode": "1006534",
    "prefectureCode": "13",
    "prefectureNumber": 13,
    "prefecture": "東京都",
    "city": "千代田区",
    "town": "丸の内新丸の内ビルディング（３４階）"
  },
  "1006535": {
    "zipcode": "1006535",
    "prefectureCode": "13",
    "prefectureNumber": 13,
    "prefecture": "東京都",
    "city": "千代田区",
    "town": "丸の内新丸の内ビルディング（３５階）"
  },
  "1006536": {
    "zipcode": "1006536",
    "prefectureCode": "13",
    "prefectureNumber": 13,
    "prefecture": "東京都",
    "city": "千代田区",
    "town": "丸の内新丸の内ビルディング（３６階）"
  },
  "1006537": {
    "zipcode": "1006537",
    "prefectureCode": "13",
    "prefectureNumber": 13,
    "prefecture": "東京都",
    "city": "千代田区",
    "town": "丸の内新丸の内ビルディング（３７階）"
  },
  "1006538": {
    "zipcode": "1006538",
    "prefectureCode": "13",
    "prefectureNumber": 13,
    "prefecture": "東京都",
    "city": "千代田区",
    "town": "丸の内新丸の内ビルディング（３８階）"
  },
  "1006590": {
    "zipcode": "1006590",
    "prefectureCode": "13",
    "prefectureNumber": 13,
    "prefecture": "東京都",
    "city": "千代田区",
    "town": "丸の内新丸の内ビルディング（地階・階層不明）"
  },
  "1006601": {
    "zipcode": "1006601",
    "prefectureCode": "13",
    "prefectureNumber": 13,
    "prefecture": "東京都",
    "city": "千代田区",
    "town": "丸の内グラントウキョウサウスタワー（１階）"
  },
  "1006602": {
    "zipcode": "1006602",
    "prefectureCode": "13",
    "prefectureNumber": 13,
    "prefecture": "東京都",
    "city": "千代田区",
    "town": "丸の内グラントウキョウサウスタワー（２階）"
  },
  "1006603": {
    "zipcode": "1006603",
    "prefectureCode": "13",
    "prefectureNumber": 13,
    "prefecture": "東京都",
    "city": "千代田区",
    "town": "丸の内グラントウキョウサウスタワー（３階）"
  },
  "1006604": {
    "zipcode": "1006604",
    "prefectureCode": "13",
    "prefectureNumber": 13,
    "prefecture": "東京都",
    "city": "千代田区",
    "town": "丸の内グラントウキョウサウスタワー（４階）"
  },
  "1006605": {
    "zipcode": "1006605",
    "prefectureCode": "13",
    "prefectureNumber": 13,
    "prefecture": "東京都",
    "city": "千代田区",
    "town": "丸の内グラントウキョウサウスタワー（５階）"
  },
  "1006606": {
    "zipcode": "1006606",
    "prefectureCode": "13",
    "prefectureNumber": 13,
    "prefecture": "東京都",
    "city": "千代田区",
    "town": "丸の内グラントウキョウサウスタワー（６階）"
  },
  "1006607": {
    "zipcode": "1006607",
    "prefectureCode": "13",
    "prefectureNumber": 13,
    "prefecture": "東京都",
    "city": "千代田区",
    "town": "丸の内グラントウキョウサウスタワー（７階）"
  },
  "1006608": {
    "zipcode": "1006608",
    "prefectureCode": "13",
    "prefectureNumber": 13,
    "prefecture": "東京都",
    "city": "千代田区",
    "town": "丸の内グラントウキョウサウスタワー（８階）"
  },
  "1006609": {
    "zipcode": "1006609",
    "prefectureCode": "13",
    "prefectureNumber": 13,
    "prefecture": "東京都",
    "city": "千代田区",
    "town": "丸の内グラントウキョウサウスタワー（９階）"
  },
  "1006610": {
    "zipcode": "1006610",
    "prefectureCode": "13",
    "prefectureNumber": 13,
    "prefecture": "東京都",
    "city": "千代田区",
    "town": "丸の内グラントウキョウサウスタワー（１０階）"
  },
  "1006611": {
    "zipcode": "1006611",
    "prefectureCode": "13",
    "prefectureNumber": 13,
    "prefecture": "東京都",
    "city": "千代田区",
    "town": "丸の内グラントウキョウサウスタワー（１１階）"
  },
  "1006612": {
    "zipcode": "1006612",
    "prefectureCode": "13",
    "prefectureNumber": 13,
    "prefecture": "東京都",
    "city": "千代田区",
    "town": "丸の内グラントウキョウサウスタワー（１２階）"
  },
  "1006613": {
    "zipcode": "1006613",
    "prefectureCode": "13",
    "prefectureNumber": 13,
    "prefecture": "東京都",
    "city": "千代田区",
    "town": "丸の内グラントウキョウサウスタワー（１３階）"
  },
  "1006614": {
    "zipcode": "1006614",
    "prefectureCode": "13",
    "prefectureNumber": 13,
    "prefecture": "東京都",
    "city": "千代田区",
    "town": "丸の内グラントウキョウサウスタワー（１４階）"
  },
  "1006615": {
    "zipcode": "1006615",
    "prefectureCode": "13",
    "prefectureNumber": 13,
    "prefecture": "東京都",
    "city": "千代田区",
    "town": "丸の内グラントウキョウサウスタワー（１５階）"
  },
  "1006616": {
    "zipcode": "1006616",
    "prefectureCode": "13",
    "prefectureNumber": 13,
    "prefecture": "東京都",
    "city": "千代田区",
    "town": "丸の内グラントウキョウサウスタワー（１６階）"
  },
  "1006617": {
    "zipcode": "1006617",
    "prefectureCode": "13",
    "prefectureNumber": 13,
    "prefecture": "東京都",
    "city": "千代田区",
    "town": "丸の内グラントウキョウサウスタワー（１７階）"
  },
  "1006618": {
    "zipcode": "1006618",
    "prefectureCode": "13",
    "prefectureNumber": 13,
    "prefecture": "東京都",
    "city": "千代田区",
    "town": "丸の内グラントウキョウサウスタワー（１８階）"
  },
  "1006619": {
    "zipcode": "1006619",
    "prefectureCode": "13",
    "prefectureNumber": 13,
    "prefecture": "東京都",
    "city": "千代田区",
    "town": "丸の内グラントウキョウサウスタワー（１９階）"
  },
  "1006620": {
    "zipcode": "1006620",
    "prefectureCode": "13",
    "prefectureNumber": 13,
    "prefecture": "東京都",
    "city": "千代田区",
    "town": "丸の内グラントウキョウサウスタワー（２０階）"
  },
  "1006621": {
    "zipcode": "1006621",
    "prefectureCode": "13",
    "prefectureNumber": 13,
    "prefecture": "東京都",
    "city": "千代田区",
    "town": "丸の内グラントウキョウサウスタワー（２１階）"
  },
  "1006622": {
    "zipcode": "1006622",
    "prefectureCode": "13",
    "prefectureNumber": 13,
    "prefecture": "東京都",
    "city": "千代田区",
    "town": "丸の内グラントウキョウサウスタワー（２２階）"
  },
  "1006623": {
    "zipcode": "1006623",
    "prefectureCode": "13",
    "prefectureNumber": 13,
    "prefecture": "東京都",
    "city": "千代田区",
    "town": "丸の内グラントウキョウサウスタワー（２３階）"
  },
  "1006624": {
    "zipcode": "1006624",
    "prefectureCode": "13",
    "prefectureNumber": 13,
    "prefecture": "東京都",
    "city": "千代田区",
    "town": "丸の内グラントウキョウサウスタワー（２４階）"
  },
  "1006625": {
    "zipcode": "1006625",
    "prefectureCode": "13",
    "prefectureNumber": 13,
    "prefecture": "東京都",
    "city": "千代田区",
    "town": "丸の内グラントウキョウサウスタワー（２５階）"
  },
  "1006626": {
    "zipcode": "1006626",
    "prefectureCode": "13",
    "prefectureNumber": 13,
    "prefecture": "東京都",
    "city": "千代田区",
    "town": "丸の内グラントウキョウサウスタワー（２６階）"
  },
  "1006627": {
    "zipcode": "1006627",
    "prefectureCode": "13",
    "prefectureNumber": 13,
    "prefecture": "東京都",
    "city": "千代田区",
    "town": "丸の内グラントウキョウサウスタワー（２７階）"
  },
  "1006628": {
    "zipcode": "1006628",
    "prefectureCode": "13",
    "prefectureNumber": 13,
    "prefecture": "東京都",
    "city": "千代田区",
    "town": "丸の内グラントウキョウサウスタワー（２８階）"
  },
  "1006629": {
    "zipcode": "1006629",
    "prefectureCode": "13",
    "prefectureNumber": 13,
    "prefecture": "東京都",
    "city": "千代田区",
    "town": "丸の内グラントウキョウサウスタワー（２９階）"
  },
  "1006630": {
    "zipcode": "1006630",
    "prefectureCode": "13",
    "prefectureNumber": 13,
    "prefecture": "東京都",
    "city": "千代田区",
    "town": "丸の内グラントウキョウサウスタワー（３０階）"
  },
  "1006631": {
    "zipcode": "1006631",
    "prefectureCode": "13",
    "prefectureNumber": 13,
    "prefecture": "東京都",
    "city": "千代田区",
    "town": "丸の内グラントウキョウサウスタワー（３１階）"
  },
  "1006632": {
    "zipcode": "1006632",
    "prefectureCode": "13",
    "prefectureNumber": 13,
    "prefecture": "東京都",
    "city": "千代田区",
    "town": "丸の内グラントウキョウサウスタワー（３２階）"
  },
  "1006633": {
    "zipcode": "1006633",
    "prefectureCode": "13",
    "prefectureNumber": 13,
    "prefecture": "東京都",
    "city": "千代田区",
    "town": "丸の内グラントウキョウサウスタワー（３３階）"
  },
  "1006634": {
    "zipcode": "1006634",
    "prefectureCode": "13",
    "prefectureNumber": 13,
    "prefecture": "東京都",
    "city": "千代田区",
    "town": "丸の内グラントウキョウサウスタワー（３４階）"
  },
  "1006635": {
    "zipcode": "1006635",
    "prefectureCode": "13",
    "prefectureNumber": 13,
    "prefecture": "東京都",
    "city": "千代田区",
    "town": "丸の内グラントウキョウサウスタワー（３５階）"
  },
  "1006636": {
    "zipcode": "1006636",
    "prefectureCode": "13",
    "prefectureNumber": 13,
    "prefecture": "東京都",
    "city": "千代田区",
    "town": "丸の内グラントウキョウサウスタワー（３６階）"
  },
  "1006637": {
    "zipcode": "1006637",
    "prefectureCode": "13",
    "prefectureNumber": 13,
    "prefecture": "東京都",
    "city": "千代田区",
    "town": "丸の内グラントウキョウサウスタワー（３７階）"
  },
  "1006638": {
    "zipcode": "1006638",
    "prefectureCode": "13",
    "prefectureNumber": 13,
    "prefecture": "東京都",
    "city": "千代田区",
    "town": "丸の内グラントウキョウサウスタワー（３８階）"
  },
  "1006639": {
    "zipcode": "1006639",
    "prefectureCode": "13",
    "prefectureNumber": 13,
    "prefecture": "東京都",
    "city": "千代田区",
    "town": "丸の内グラントウキョウサウスタワー（３９階）"
  },
  "1006640": {
    "zipcode": "1006640",
    "prefectureCode": "13",
    "prefectureNumber": 13,
    "prefecture": "東京都",
    "city": "千代田区",
    "town": "丸の内グラントウキョウサウスタワー（４０階）"
  },
  "1006641": {
    "zipcode": "1006641",
    "prefectureCode": "13",
    "prefectureNumber": 13,
    "prefecture": "東京都",
    "city": "千代田区",
    "town": "丸の内グラントウキョウサウスタワー（４１階）"
  },
  "1006642": {
    "zipcode": "1006642",
    "prefectureCode": "13",
    "prefectureNumber": 13,
    "prefecture": "東京都",
    "city": "千代田区",
    "town": "丸の内グラントウキョウサウスタワー（４２階）"
  },
  "1006690": {
    "zipcode": "1006690",
    "prefectureCode": "13",
    "prefectureNumber": 13,
    "prefecture": "東京都",
    "city": "千代田区",
    "town": "丸の内グラントウキョウサウスタワー（地階・階層不明）"
  },
  "1006701": {
    "zipcode": "1006701",
    "prefectureCode": "13",
    "prefectureNumber": 13,
    "prefecture": "東京都",
    "city": "千代田区",
    "town": "丸の内グラントウキョウノースタワー（１階）"
  },
  "1006702": {
    "zipcode": "1006702",
    "prefectureCode": "13",
    "prefectureNumber": 13,
    "prefecture": "東京都",
    "city": "千代田区",
    "town": "丸の内グラントウキョウノースタワー（２階）"
  },
  "1006703": {
    "zipcode": "1006703",
    "prefectureCode": "13",
    "prefectureNumber": 13,
    "prefecture": "東京都",
    "city": "千代田区",
    "town": "丸の内グラントウキョウノースタワー（３階）"
  },
  "1006704": {
    "zipcode": "1006704",
    "prefectureCode": "13",
    "prefectureNumber": 13,
    "prefecture": "東京都",
    "city": "千代田区",
    "town": "丸の内グラントウキョウノースタワー（４階）"
  },
  "1006705": {
    "zipcode": "1006705",
    "prefectureCode": "13",
    "prefectureNumber": 13,
    "prefecture": "東京都",
    "city": "千代田区",
    "town": "丸の内グラントウキョウノースタワー（５階）"
  },
  "1006706": {
    "zipcode": "1006706",
    "prefectureCode": "13",
    "prefectureNumber": 13,
    "prefecture": "東京都",
    "city": "千代田区",
    "town": "丸の内グラントウキョウノースタワー（６階）"
  },
  "1006707": {
    "zipcode": "1006707",
    "prefectureCode": "13",
    "prefectureNumber": 13,
    "prefecture": "東京都",
    "city": "千代田区",
    "town": "丸の内グラントウキョウノースタワー（７階）"
  },
  "1006708": {
    "zipcode": "1006708",
    "prefectureCode": "13",
    "prefectureNumber": 13,
    "prefecture": "東京都",
    "city": "千代田区",
    "town": "丸の内グラントウキョウノースタワー（８階）"
  },
  "1006709": {
    "zipcode": "1006709",
    "prefectureCode": "13",
    "prefectureNumber": 13,
    "prefecture": "東京都",
    "city": "千代田区",
    "town": "丸の内グラントウキョウノースタワー（９階）"
  },
  "1006710": {
    "zipcode": "1006710",
    "prefectureCode": "13",
    "prefectureNumber": 13,
    "prefecture": "東京都",
    "city": "千代田区",
    "town": "丸の内グラントウキョウノースタワー（１０階）"
  },
  "1006711": {
    "zipcode": "1006711",
    "prefectureCode": "13",
    "prefectureNumber": 13,
    "prefecture": "東京都",
    "city": "千代田区",
    "town": "丸の内グラントウキョウノースタワー（１１階）"
  },
  "1006712": {
    "zipcode": "1006712",
    "prefectureCode": "13",
    "prefectureNumber": 13,
    "prefecture": "東京都",
    "city": "千代田区",
    "town": "丸の内グラントウキョウノースタワー（１２階）"
  },
  "1006713": {
    "zipcode": "1006713",
    "prefectureCode": "13",
    "prefectureNumber": 13,
    "prefecture": "東京都",
    "city": "千代田区",
    "town": "丸の内グラントウキョウノースタワー（１３階）"
  },
  "1006714": {
    "zipcode": "1006714",
    "prefectureCode": "13",
    "prefectureNumber": 13,
    "prefecture": "東京都",
    "city": "千代田区",
    "town": "丸の内グラントウキョウノースタワー（１４階）"
  },
  "1006715": {
    "zipcode": "1006715",
    "prefectureCode": "13",
    "prefectureNumber": 13,
    "prefecture": "東京都",
    "city": "千代田区",
    "town": "丸の内グラントウキョウノースタワー（１５階）"
  },
  "1006716": {
    "zipcode": "1006716",
    "prefectureCode": "13",
    "prefectureNumber": 13,
    "prefecture": "東京都",
    "city": "千代田区",
    "town": "丸の内グラントウキョウノースタワー（１６階）"
  },
  "1006717": {
    "zipcode": "1006717",
    "prefectureCode": "13",
    "prefectureNumber": 13,
    "prefecture": "東京都",
    "city": "千代田区",
    "town": "丸の内グラントウキョウノースタワー（１７階）"
  },
  "1006718": {
    "zipcode": "1006718",
    "prefectureCode": "13",
    "prefectureNumber": 13,
    "prefecture": "東京都",
    "city": "千代田区",
    "town": "丸の内グラントウキョウノースタワー（１８階）"
  },
  "1006719": {
    "zipcode": "1006719",
    "prefectureCode": "13",
    "prefectureNumber": 13,
    "prefecture": "東京都",
    "city": "千代田区",
    "town": "丸の内グラントウキョウノースタワー（１９階）"
  },
  "1006720": {
    "zipcode": "1006720",
    "prefectureCode": "13",
    "prefectureNumber": 13,
    "prefecture": "東京都",
    "city": "千代田区",
    "town": "丸の内グラントウキョウノースタワー（２０階）"
  },
  "1006721": {
    "zipcode": "1006721",
    "prefectureCode": "13",
    "prefectureNumber": 13,
    "prefecture": "東京都",
    "city": "千代田区",
    "town": "丸の内グラントウキョウノースタワー（２１階）"
  },
  "1006722": {
    "zipcode": "1006722",
    "prefectureCode": "13",
    "prefectureNumber": 13,
    "prefecture": "東京都",
    "city": "千代田区",
    "town": "丸の内グラントウキョウノースタワー（２２階）"
  },
  "1006723": {
    "zipcode": "1006723",
    "prefectureCode": "13",
    "prefectureNumber": 13,
    "prefecture": "東京都",
    "city": "千代田区",
    "town": "丸の内グラントウキョウノースタワー（２３階）"
  },
  "1006724": {
    "zipcode": "1006724",
    "prefectureCode": "13",
    "prefectureNumber": 13,
    "prefecture": "東京都",
    "city": "千代田区",
    "town": "丸の内グラントウキョウノースタワー（２４階）"
  },
  "1006725": {
    "zipcode": "1006725",
    "prefectureCode": "13",
    "prefectureNumber": 13,
    "prefecture": "東京都",
    "city": "千代田区",
    "town": "丸の内グラントウキョウノースタワー（２５階）"
  },
  "1006726": {
    "zipcode": "1006726",
    "prefectureCode": "13",
    "prefectureNumber": 13,
    "prefecture": "東京都",
    "city": "千代田区",
    "town": "丸の内グラントウキョウノースタワー（２６階）"
  },
  "1006727": {
    "zipcode": "1006727",
    "prefectureCode": "13",
    "prefectureNumber": 13,
    "prefecture": "東京都",
    "city": "千代田区",
    "town": "丸の内グラントウキョウノースタワー（２７階）"
  },
  "1006728": {
    "zipcode": "1006728",
    "prefectureCode": "13",
    "prefectureNumber": 13,
    "prefecture": "東京都",
    "city": "千代田区",
    "town": "丸の内グラントウキョウノースタワー（２８階）"
  },
  "1006729": {
    "zipcode": "1006729",
    "prefectureCode": "13",
    "prefectureNumber": 13,
    "prefecture": "東京都",
    "city": "千代田区",
    "town": "丸の内グラントウキョウノースタワー（２９階）"
  },
  "1006730": {
    "zipcode": "1006730",
    "prefectureCode": "13",
    "prefectureNumber": 13,
    "prefecture": "東京都",
    "city": "千代田区",
    "town": "丸の内グラントウキョウノースタワー（３０階）"
  },
  "1006731": {
    "zipcode": "1006731",
    "prefectureCode": "13",
    "prefectureNumber": 13,
    "prefecture": "東京都",
    "city": "千代田区",
    "town": "丸の内グラントウキョウノースタワー（３１階）"
  },
  "1006732": {
    "zipcode": "1006732",
    "prefectureCode": "13",
    "prefectureNumber": 13,
    "prefecture": "東京都",
    "city": "千代田区",
    "town": "丸の内グラントウキョウノースタワー（３２階）"
  },
  "1006733": {
    "zipcode": "1006733",
    "prefectureCode": "13",
    "prefectureNumber": 13,
    "prefecture": "東京都",
    "city": "千代田区",
    "town": "丸の内グラントウキョウノースタワー（３３階）"
  },
  "1006734": {
    "zipcode": "1006734",
    "prefectureCode": "13",
    "prefectureNumber": 13,
    "prefecture": "東京都",
    "city": "千代田区",
    "town": "丸の内グラントウキョウノースタワー（３４階）"
  },
  "1006735": {
    "zipcode": "1006735",
    "prefectureCode": "13",
    "prefectureNumber": 13,
    "prefecture": "東京都",
    "city": "千代田区",
    "town": "丸の内グラントウキョウノースタワー（３５階）"
  },
  "1006736": {
    "zipcode": "1006736",
    "prefectureCode": "13",
    "prefectureNumber": 13,
    "prefecture": "東京都",
    "city": "千代田区",
    "town": "丸の内グラントウキョウノースタワー（３６階）"
  },
  "1006737": {
    "zipcode": "1006737",
    "prefectureCode": "13",
    "prefectureNumber": 13,
    "prefecture": "東京都",
    "city": "千代田区",
    "town": "丸の内グラントウキョウノースタワー（３７階）"
  },
  "1006738": {
    "zipcode": "1006738",
    "prefectureCode": "13",
    "prefectureNumber": 13,
    "prefecture": "東京都",
    "city": "千代田区",
    "town": "丸の内グラントウキョウノースタワー（３８階）"
  },
  "1006739": {
    "zipcode": "1006739",
    "prefectureCode": "13",
    "prefectureNumber": 13,
    "prefecture": "東京都",
    "city": "千代田区",
    "town": "丸の内グラントウキョウノースタワー（３９階）"
  },
  "1006740": {
    "zipcode": "1006740",
    "prefectureCode": "13",
    "prefectureNumber": 13,
    "prefecture": "東京都",
    "city": "千代田区",
    "town": "丸の内グラントウキョウノースタワー（４０階）"
  },
  "1006741": {
    "zipcode": "1006741",
    "prefectureCode": "13",
    "prefectureNumber": 13,
    "prefecture": "東京都",
    "city": "千代田区",
    "town": "丸の内グラントウキョウノースタワー（４１階）"
  },
  "1006742": {
    "zipcode": "1006742",
    "prefectureCode": "13",
    "prefectureNumber": 13,
    "prefecture": "東京都",
    "city": "千代田区",
    "town": "丸の内グラントウキョウノースタワー（４２階）"
  },
  "1006743": {
    "zipcode": "1006743",
    "prefectureCode": "13",
    "prefectureNumber": 13,
    "prefecture": "東京都",
    "city": "千代田区",
    "town": "丸の内グラントウキョウノースタワー（４３階）"
  },
  "1006790": {
    "zipcode": "1006790",
    "prefectureCode": "13",
    "prefectureNumber": 13,
    "prefecture": "東京都",
    "city": "千代田区",
    "town": "丸の内グラントウキョウノースタワー（地階・階層不明）"
  },
  "1006801": {
    "zipcode": "1006801",
    "prefectureCode": "13",
    "prefectureNumber": 13,
    "prefecture": "東京都",
    "city": "千代田区",
    "town": "大手町ＪＡビル（１階）"
  },
  "1006802": {
    "zipcode": "1006802",
    "prefectureCode": "13",
    "prefectureNumber": 13,
    "prefecture": "東京都",
    "city": "千代田区",
    "town": "大手町ＪＡビル（２階）"
  },
  "1006803": {
    "zipcode": "1006803",
    "prefectureCode": "13",
    "prefectureNumber": 13,
    "prefecture": "東京都",
    "city": "千代田区",
    "town": "大手町ＪＡビル（３階）"
  },
  "1006804": {
    "zipcode": "1006804",
    "prefectureCode": "13",
    "prefectureNumber": 13,
    "prefecture": "東京都",
    "city": "千代田区",
    "town": "大手町ＪＡビル（４階）"
  },
  "1006805": {
    "zipcode": "1006805",
    "prefectureCode": "13",
    "prefectureNumber": 13,
    "prefecture": "東京都",
    "city": "千代田区",
    "town": "大手町ＪＡビル（５階）"
  },
  "1006806": {
    "zipcode": "1006806",
    "prefectureCode": "13",
    "prefectureNumber": 13,
    "prefecture": "東京都",
    "city": "千代田区",
    "town": "大手町ＪＡビル（６階）"
  },
  "1006807": {
    "zipcode": "1006807",
    "prefectureCode": "13",
    "prefectureNumber": 13,
    "prefecture": "東京都",
    "city": "千代田区",
    "town": "大手町ＪＡビル（７階）"
  },
  "1006808": {
    "zipcode": "1006808",
    "prefectureCode": "13",
    "prefectureNumber": 13,
    "prefecture": "東京都",
    "city": "千代田区",
    "town": "大手町ＪＡビル（８階）"
  },
  "1006809": {
    "zipcode": "1006809",
    "prefectureCode": "13",
    "prefectureNumber": 13,
    "prefecture": "東京都",
    "city": "千代田区",
    "town": "大手町ＪＡビル（９階）"
  },
  "1006810": {
    "zipcode": "1006810",
    "prefectureCode": "13",
    "prefectureNumber": 13,
    "prefecture": "東京都",
    "city": "千代田区",
    "town": "大手町ＪＡビル（１０階）"
  },
  "1006811": {
    "zipcode": "1006811",
    "prefectureCode": "13",
    "prefectureNumber": 13,
    "prefecture": "東京都",
    "city": "千代田区",
    "town": "大手町ＪＡビル（１１階）"
  },
  "1006812": {
    "zipcode": "1006812",
    "prefectureCode": "13",
    "prefectureNumber": 13,
    "prefecture": "東京都",
    "city": "千代田区",
    "town": "大手町ＪＡビル（１２階）"
  },
  "1006813": {
    "zipcode": "1006813",
    "prefectureCode": "13",
    "prefectureNumber": 13,
    "prefecture": "東京都",
    "city": "千代田区",
    "town": "大手町ＪＡビル（１３階）"
  },
  "1006814": {
    "zipcode": "1006814",
    "prefectureCode": "13",
    "prefectureNumber": 13,
    "prefecture": "東京都",
    "city": "千代田区",
    "town": "大手町ＪＡビル（１４階）"
  },
  "1006815": {
    "zipcode": "1006815",
    "prefectureCode": "13",
    "prefectureNumber": 13,
    "prefecture": "東京都",
    "city": "千代田区",
    "town": "大手町ＪＡビル（１５階）"
  },
  "1006816": {
    "zipcode": "1006816",
    "prefectureCode": "13",
    "prefectureNumber": 13,
    "prefecture": "東京都",
    "city": "千代田区",
    "town": "大手町ＪＡビル（１６階）"
  },
  "1006817": {
    "zipcode": "1006817",
    "prefectureCode": "13",
    "prefectureNumber": 13,
    "prefecture": "東京都",
    "city": "千代田区",
    "town": "大手町ＪＡビル（１７階）"
  },
  "1006818": {
    "zipcode": "1006818",
    "prefectureCode": "13",
    "prefectureNumber": 13,
    "prefecture": "東京都",
    "city": "千代田区",
    "town": "大手町ＪＡビル（１８階）"
  },
  "1006819": {
    "zipcode": "1006819",
    "prefectureCode": "13",
    "prefectureNumber": 13,
    "prefecture": "東京都",
    "city": "千代田区",
    "town": "大手町ＪＡビル（１９階）"
  },
  "1006820": {
    "zipcode": "1006820",
    "prefectureCode": "13",
    "prefectureNumber": 13,
    "prefecture": "東京都",
    "city": "千代田区",
    "town": "大手町ＪＡビル（２０階）"
  },
  "1006821": {
    "zipcode": "1006821",
    "prefectureCode": "13",
    "prefectureNumber": 13,
    "prefecture": "東京都",
    "city": "千代田区",
    "town": "大手町ＪＡビル（２１階）"
  },
  "1006822": {
    "zipcode": "1006822",
    "prefectureCode": "13",
    "prefectureNumber": 13,
    "prefecture": "東京都",
    "city": "千代田区",
    "town": "大手町ＪＡビル（２２階）"
  },
  "1006823": {
    "zipcode": "1006823",
    "prefectureCode": "13",
    "prefectureNumber": 13,
    "prefecture": "東京都",
    "city": "千代田区",
    "town": "大手町ＪＡビル（２３階）"
  },
  "1006824": {
    "zipcode": "1006824",
    "prefectureCode": "13",
    "prefectureNumber": 13,
    "prefecture": "東京都",
    "city": "千代田区",
    "town": "大手町ＪＡビル（２４階）"
  },
  "1006825": {
    "zipcode": "1006825",
    "prefectureCode": "13",
    "prefectureNumber": 13,
    "prefecture": "東京都",
    "city": "千代田区",
    "town": "大手町ＪＡビル（２５階）"
  },
  "1006826": {
    "zipcode": "1006826",
    "prefectureCode": "13",
    "prefectureNumber": 13,
    "prefecture": "東京都",
    "city": "千代田区",
    "town": "大手町ＪＡビル（２６階）"
  },
  "1006827": {
    "zipcode": "1006827",
    "prefectureCode": "13",
    "prefectureNumber": 13,
    "prefecture": "東京都",
    "city": "千代田区",
    "town": "大手町ＪＡビル（２７階）"
  },
  "1006828": {
    "zipcode": "1006828",
    "prefectureCode": "13",
    "prefectureNumber": 13,
    "prefecture": "東京都",
    "city": "千代田区",
    "town": "大手町ＪＡビル（２８階）"
  },
  "1006829": {
    "zipcode": "1006829",
    "prefectureCode": "13",
    "prefectureNumber": 13,
    "prefecture": "東京都",
    "city": "千代田区",
    "town": "大手町ＪＡビル（２９階）"
  },
  "1006830": {
    "zipcode": "1006830",
    "prefectureCode": "13",
    "prefectureNumber": 13,
    "prefecture": "東京都",
    "city": "千代田区",
    "town": "大手町ＪＡビル（３０階）"
  },
  "1006831": {
    "zipcode": "1006831",
    "prefectureCode": "13",
    "prefectureNumber": 13,
    "prefecture": "東京都",
    "city": "千代田区",
    "town": "大手町ＪＡビル（３１階）"
  },
  "1006832": {
    "zipcode": "1006832",
    "prefectureCode": "13",
    "prefectureNumber": 13,
    "prefecture": "東京都",
    "city": "千代田区",
    "town": "大手町ＪＡビル（３２階）"
  },
  "1006833": {
    "zipcode": "1006833",
    "prefectureCode": "13",
    "prefectureNumber": 13,
    "prefecture": "東京都",
    "city": "千代田区",
    "town": "大手町ＪＡビル（３３階）"
  },
  "1006834": {
    "zipcode": "1006834",
    "prefectureCode": "13",
    "prefectureNumber": 13,
    "prefecture": "東京都",
    "city": "千代田区",
    "town": "大手町ＪＡビル（３４階）"
  },
  "1006835": {
    "zipcode": "1006835",
    "prefectureCode": "13",
    "prefectureNumber": 13,
    "prefecture": "東京都",
    "city": "千代田区",
    "town": "大手町ＪＡビル（３５階）"
  },
  "1006836": {
    "zipcode": "1006836",
    "prefectureCode": "13",
    "prefectureNumber": 13,
    "prefecture": "東京都",
    "city": "千代田区",
    "town": "大手町ＪＡビル（３６階）"
  },
  "1006837": {
    "zipcode": "1006837",
    "prefectureCode": "13",
    "prefectureNumber": 13,
    "prefecture": "東京都",
    "city": "千代田区",
    "town": "大手町ＪＡビル（３７階）"
  },
  "1006890": {
    "zipcode": "1006890",
    "prefectureCode": "13",
    "prefectureNumber": 13,
    "prefecture": "東京都",
    "city": "千代田区",
    "town": "大手町ＪＡビル（地階・階層不明）"
  },
  "1006901": {
    "zipcode": "1006901",
    "prefectureCode": "13",
    "prefectureNumber": 13,
    "prefecture": "東京都",
    "city": "千代田区",
    "town": "丸の内丸の内パークビルディング（１階）"
  },
  "1006902": {
    "zipcode": "1006902",
    "prefectureCode": "13",
    "prefectureNumber": 13,
    "prefecture": "東京都",
    "city": "千代田区",
    "town": "丸の内丸の内パークビルディング（２階）"
  },
  "1006903": {
    "zipcode": "1006903",
    "prefectureCode": "13",
    "prefectureNumber": 13,
    "prefecture": "東京都",
    "city": "千代田区",
    "town": "丸の内丸の内パークビルディング（３階）"
  },
  "1006904": {
    "zipcode": "1006904",
    "prefectureCode": "13",
    "prefectureNumber": 13,
    "prefecture": "東京都",
    "city": "千代田区",
    "town": "丸の内丸の内パークビルディング（４階）"
  },
  "1006905": {
    "zipcode": "1006905",
    "prefectureCode": "13",
    "prefectureNumber": 13,
    "prefecture": "東京都",
    "city": "千代田区",
    "town": "丸の内丸の内パークビルディング（５階）"
  },
  "1006906": {
    "zipcode": "1006906",
    "prefectureCode": "13",
    "prefectureNumber": 13,
    "prefecture": "東京都",
    "city": "千代田区",
    "town": "丸の内丸の内パークビルディング（６階）"
  },
  "1006907": {
    "zipcode": "1006907",
    "prefectureCode": "13",
    "prefectureNumber": 13,
    "prefecture": "東京都",
    "city": "千代田区",
    "town": "丸の内丸の内パークビルディング（７階）"
  },
  "1006908": {
    "zipcode": "1006908",
    "prefectureCode": "13",
    "prefectureNumber": 13,
    "prefecture": "東京都",
    "city": "千代田区",
    "town": "丸の内丸の内パークビルディング（８階）"
  },
  "1006909": {
    "zipcode": "1006909",
    "prefectureCode": "13",
    "prefectureNumber": 13,
    "prefecture": "東京都",
    "city": "千代田区",
    "town": "丸の内丸の内パークビルディング（９階）"
  },
  "1006910": {
    "zipcode": "1006910",
    "prefectureCode": "13",
    "prefectureNumber": 13,
    "prefecture": "東京都",
    "city": "千代田区",
    "town": "丸の内丸の内パークビルディング（１０階）"
  },
  "1006911": {
    "zipcode": "1006911",
    "prefectureCode": "13",
    "prefectureNumber": 13,
    "prefecture": "東京都",
    "city": "千代田区",
    "town": "丸の内丸の内パークビルディング（１１階）"
  },
  "1006912": {
    "zipcode": "1006912",
    "prefectureCode": "13",
    "prefectureNumber": 13,
    "prefecture": "東京都",
    "city": "千代田区",
    "town": "丸の内丸の内パークビルディング（１２階）"
  },
  "1006913": {
    "zipcode": "1006913",
    "prefectureCode": "13",
    "prefectureNumber": 13,
    "prefecture": "東京都",
    "city": "千代田区",
    "town": "丸の内丸の内パークビルディング（１３階）"
  },
  "1006914": {
    "zipcode": "1006914",
    "prefectureCode": "13",
    "prefectureNumber": 13,
    "prefecture": "東京都",
    "city": "千代田区",
    "town": "丸の内丸の内パークビルディング（１４階）"
  },
  "1006915": {
    "zipcode": "1006915",
    "prefectureCode": "13",
    "prefectureNumber": 13,
    "prefecture": "東京都",
    "city": "千代田区",
    "town": "丸の内丸の内パークビルディング（１５階）"
  },
  "1006916": {
    "zipcode": "1006916",
    "prefectureCode": "13",
    "prefectureNumber": 13,
    "prefecture": "東京都",
    "city": "千代田区",
    "town": "丸の内丸の内パークビルディング（１６階）"
  },
  "1006917": {
    "zipcode": "1006917",
    "prefectureCode": "13",
    "prefectureNumber": 13,
    "prefecture": "東京都",
    "city": "千代田区",
    "town": "丸の内丸の内パークビルディング（１７階）"
  },
  "1006918": {
    "zipcode": "1006918",
    "prefectureCode": "13",
    "prefectureNumber": 13,
    "prefecture": "東京都",
    "city": "千代田区",
    "town": "丸の内丸の内パークビルディング（１８階）"
  },
  "1006919": {
    "zipcode": "1006919",
    "prefectureCode": "13",
    "prefectureNumber": 13,
    "prefecture": "東京都",
    "city": "千代田区",
    "town": "丸の内丸の内パークビルディング（１９階）"
  },
  "1006920": {
    "zipcode": "1006920",
    "prefectureCode": "13",
    "prefectureNumber": 13,
    "prefecture": "東京都",
    "city": "千代田区",
    "town": "丸の内丸の内パークビルディング（２０階）"
  },
  "1006921": {
    "zipcode": "1006921",
    "prefectureCode": "13",
    "prefectureNumber": 13,
    "prefecture": "東京都",
    "city": "千代田区",
    "town": "丸の内丸の内パークビルディング（２１階）"
  },
  "1006922": {
    "zipcode": "1006922",
    "prefectureCode": "13",
    "prefectureNumber": 13,
    "prefecture": "東京都",
    "city": "千代田区",
    "town": "丸の内丸の内パークビルディング（２２階）"
  },
  "1006923": {
    "zipcode": "1006923",
    "prefectureCode": "13",
    "prefectureNumber": 13,
    "prefecture": "東京都",
    "city": "千代田区",
    "town": "丸の内丸の内パークビルディング（２３階）"
  },
  "1006924": {
    "zipcode": "1006924",
    "prefectureCode": "13",
    "prefectureNumber": 13,
    "prefecture": "東京都",
    "city": "千代田区",
    "town": "丸の内丸の内パークビルディング（２４階）"
  },
  "1006925": {
    "zipcode": "1006925",
    "prefectureCode": "13",
    "prefectureNumber": 13,
    "prefecture": "東京都",
    "city": "千代田区",
    "town": "丸の内丸の内パークビルディング（２５階）"
  },
  "1006926": {
    "zipcode": "1006926",
    "prefectureCode": "13",
    "prefectureNumber": 13,
    "prefecture": "東京都",
    "city": "千代田区",
    "town": "丸の内丸の内パークビルディング（２６階）"
  },
  "1006927": {
    "zipcode": "1006927",
    "prefectureCode": "13",
    "prefectureNumber": 13,
    "prefecture": "東京都",
    "city": "千代田区",
    "town": "丸の内丸の内パークビルディング（２７階）"
  },
  "1006928": {
    "zipcode": "1006928",
    "prefectureCode": "13",
    "prefectureNumber": 13,
    "prefecture": "東京都",
    "city": "千代田区",
    "town": "丸の内丸の内パークビルディング（２８階）"
  },
  "1006929": {
    "zipcode": "1006929",
    "prefectureCode": "13",
    "prefectureNumber": 13,
    "prefecture": "東京都",
    "city": "千代田区",
    "town": "丸の内丸の内パークビルディング（２９階）"
  },
  "1006930": {
    "zipcode": "1006930",
    "prefectureCode": "13",
    "prefectureNumber": 13,
    "prefecture": "東京都",
    "city": "千代田区",
    "town": "丸の内丸の内パークビルディング（３０階）"
  },
  "1006931": {
    "zipcode": "1006931",
    "prefectureCode": "13",
    "prefectureNumber": 13,
    "prefecture": "東京都",
    "city": "千代田区",
    "town": "丸の内丸の内パークビルディング（３１階）"
  },
  "1006932": {
    "zipcode": "1006932",
    "prefectureCode": "13",
    "prefectureNumber": 13,
    "prefecture": "東京都",
    "city": "千代田区",
    "town": "丸の内丸の内パークビルディング（３２階）"
  },
  "1006933": {
    "zipcode": "1006933",
    "prefectureCode": "13",
    "prefectureNumber": 13,
    "prefecture": "東京都",
    "city": "千代田区",
    "town": "丸の内丸の内パークビルディング（３３階）"
  },
  "1006934": {
    "zipcode": "1006934",
    "prefectureCode": "13",
    "prefectureNumber": 13,
    "prefecture": "東京都",
    "city": "千代田区",
    "town": "丸の内丸の内パークビルディング（３４階）"
  },
  "1006990": {
    "zipcode": "1006990",
    "prefectureCode": "13",
    "prefectureNumber": 13,
    "prefecture": "東京都",
    "city": "千代田区",
    "town": "丸の内丸の内パークビルディング（地階・階層不明）"
  },
  "1007001": {
    "zipcode": "1007001",
    "prefectureCode": "13",
    "prefectureNumber": 13,
    "prefecture": "東京都",
    "city": "千代田区",
    "town": "丸の内ＪＰタワー（１階）"
  },
  "1007002": {
    "zipcode": "1007002",
    "prefectureCode": "13",
    "prefectureNumber": 13,
    "prefecture": "東京都",
    "city": "千代田区",
    "town": "丸の内ＪＰタワー（２階）"
  },
  "1007003": {
    "zipcode": "1007003",
    "prefectureCode": "13",
    "prefectureNumber": 13,
    "prefecture": "東京都",
    "city": "千代田区",
    "town": "丸の内ＪＰタワー（３階）"
  },
  "1007004": {
    "zipcode": "1007004",
    "prefectureCode": "13",
    "prefectureNumber": 13,
    "prefecture": "東京都",
    "city": "千代田区",
    "town": "丸の内ＪＰタワー（４階）"
  },
  "1007005": {
    "zipcode": "1007005",
    "prefectureCode": "13",
    "prefectureNumber": 13,
    "prefecture": "東京都",
    "city": "千代田区",
    "town": "丸の内ＪＰタワー（５階）"
  },
  "1007006": {
    "zipcode": "1007006",
    "prefectureCode": "13",
    "prefectureNumber": 13,
    "prefecture": "東京都",
    "city": "千代田区",
    "town": "丸の内ＪＰタワー（６階）"
  },
  "1007007": {
    "zipcode": "1007007",
    "prefectureCode": "13",
    "prefectureNumber": 13,
    "prefecture": "東京都",
    "city": "千代田区",
    "town": "丸の内ＪＰタワー（７階）"
  },
  "1007008": {
    "zipcode": "1007008",
    "prefectureCode": "13",
    "prefectureNumber": 13,
    "prefecture": "東京都",
    "city": "千代田区",
    "town": "丸の内ＪＰタワー（８階）"
  },
  "1007009": {
    "zipcode": "1007009",
    "prefectureCode": "13",
    "prefectureNumber": 13,
    "prefecture": "東京都",
    "city": "千代田区",
    "town": "丸の内ＪＰタワー（９階）"
  },
  "1007010": {
    "zipcode": "1007010",
    "prefectureCode": "13",
    "prefectureNumber": 13,
    "prefecture": "東京都",
    "city": "千代田区",
    "town": "丸の内ＪＰタワー（１０階）"
  },
  "1007011": {
    "zipcode": "1007011",
    "prefectureCode": "13",
    "prefectureNumber": 13,
    "prefecture": "東京都",
    "city": "千代田区",
    "town": "丸の内ＪＰタワー（１１階）"
  },
  "1007012": {
    "zipcode": "1007012",
    "prefectureCode": "13",
    "prefectureNumber": 13,
    "prefecture": "東京都",
    "city": "千代田区",
    "town": "丸の内ＪＰタワー（１２階）"
  },
  "1007013": {
    "zipcode": "1007013",
    "prefectureCode": "13",
    "prefectureNumber": 13,
    "prefecture": "東京都",
    "city": "千代田区",
    "town": "丸の内ＪＰタワー（１３階）"
  },
  "1007014": {
    "zipcode": "1007014",
    "prefectureCode": "13",
    "prefectureNumber": 13,
    "prefecture": "東京都",
    "city": "千代田区",
    "town": "丸の内ＪＰタワー（１４階）"
  },
  "1007015": {
    "zipcode": "1007015",
    "prefectureCode": "13",
    "prefectureNumber": 13,
    "prefecture": "東京都",
    "city": "千代田区",
    "town": "丸の内ＪＰタワー（１５階）"
  },
  "1007016": {
    "zipcode": "1007016",
    "prefectureCode": "13",
    "prefectureNumber": 13,
    "prefecture": "東京都",
    "city": "千代田区",
    "town": "丸の内ＪＰタワー（１６階）"
  },
  "1007017": {
    "zipcode": "1007017",
    "prefectureCode": "13",
    "prefectureNumber": 13,
    "prefecture": "東京都",
    "city": "千代田区",
    "town": "丸の内ＪＰタワー（１７階）"
  },
  "1007018": {
    "zipcode": "1007018",
    "prefectureCode": "13",
    "prefectureNumber": 13,
    "prefecture": "東京都",
    "city": "千代田区",
    "town": "丸の内ＪＰタワー（１８階）"
  },
  "1007019": {
    "zipcode": "1007019",
    "prefectureCode": "13",
    "prefectureNumber": 13,
    "prefecture": "東京都",
    "city": "千代田区",
    "town": "丸の内ＪＰタワー（１９階）"
  },
  "1007020": {
    "zipcode": "1007020",
    "prefectureCode": "13",
    "prefectureNumber": 13,
    "prefecture": "東京都",
    "city": "千代田区",
    "town": "丸の内ＪＰタワー（２０階）"
  },
  "1007021": {
    "zipcode": "1007021",
    "prefectureCode": "13",
    "prefectureNumber": 13,
    "prefecture": "東京都",
    "city": "千代田区",
    "town": "丸の内ＪＰタワー（２１階）"
  },
  "1007022": {
    "zipcode": "1007022",
    "prefectureCode": "13",
    "prefectureNumber": 13,
    "prefecture": "東京都",
    "city": "千代田区",
    "town": "丸の内ＪＰタワー（２２階）"
  },
  "1007023": {
    "zipcode": "1007023",
    "prefectureCode": "13",
    "prefectureNumber": 13,
    "prefecture": "東京都",
    "city": "千代田区",
    "town": "丸の内ＪＰタワー（２３階）"
  },
  "1007024": {
    "zipcode": "1007024",
    "prefectureCode": "13",
    "prefectureNumber": 13,
    "prefecture": "東京都",
    "city": "千代田区",
    "town": "丸の内ＪＰタワー（２４階）"
  },
  "1007025": {
    "zipcode": "1007025",
    "prefectureCode": "13",
    "prefectureNumber": 13,
    "prefecture": "東京都",
    "city": "千代田区",
    "town": "丸の内ＪＰタワー（２５階）"
  },
  "1007026": {
    "zipcode": "1007026",
    "prefectureCode": "13",
    "prefectureNumber": 13,
    "prefecture": "東京都",
    "city": "千代田区",
    "town": "丸の内ＪＰタワー（２６階）"
  },
  "1007027": {
    "zipcode": "1007027",
    "prefectureCode": "13",
    "prefectureNumber": 13,
    "prefecture": "東京都",
    "city": "千代田区",
    "town": "丸の内ＪＰタワー（２７階）"
  },
  "1007028": {
    "zipcode": "1007028",
    "prefectureCode": "13",
    "prefectureNumber": 13,
    "prefecture": "東京都",
    "city": "千代田区",
    "town": "丸の内ＪＰタワー（２８階）"
  },
  "1007029": {
    "zipcode": "1007029",
    "prefectureCode": "13",
    "prefectureNumber": 13,
    "prefecture": "東京都",
    "city": "千代田区",
    "town": "丸の内ＪＰタワー（２９階）"
  },
  "1007030": {
    "zipcode": "1007030",
    "prefectureCode": "13",
    "prefectureNumber": 13,
    "prefecture": "東京都",
    "city": "千代田区",
    "town": "丸の内ＪＰタワー（３０階）"
  },
  "1007031": {
    "zipcode": "1007031",
    "prefectureCode": "13",
    "prefectureNumber": 13,
    "prefecture": "東京都",
    "city": "千代田区",
    "town": "丸の内ＪＰタワー（３１階）"
  },
  "1007032": {
    "zipcode": "1007032",
    "prefectureCode": "13",
    "prefectureNumber": 13,
    "prefecture": "東京都",
    "city": "千代田区",
    "town": "丸の内ＪＰタワー（３２階）"
  },
  "1007033": {
    "zipcode": "1007033",
    "prefectureCode": "13",
    "prefectureNumber": 13,
    "prefecture": "東京都",
    "city": "千代田区",
    "town": "丸の内ＪＰタワー（３３階）"
  },
  "1007034": {
    "zipcode": "1007034",
    "prefectureCode": "13",
    "prefectureNumber": 13,
    "prefecture": "東京都",
    "city": "千代田区",
    "town": "丸の内ＪＰタワー（３４階）"
  },
  "1007035": {
    "zipcode": "1007035",
    "prefectureCode": "13",
    "prefectureNumber": 13,
    "prefecture": "東京都",
    "city": "千代田区",
    "town": "丸の内ＪＰタワー（３５階）"
  },
  "1007036": {
    "zipcode": "1007036",
    "prefectureCode": "13",
    "prefectureNumber": 13,
    "prefecture": "東京都",
    "city": "千代田区",
    "town": "丸の内ＪＰタワー（３６階）"
  },
  "1007037": {
    "zipcode": "1007037",
    "prefectureCode": "13",
    "prefectureNumber": 13,
    "prefecture": "東京都",
    "city": "千代田区",
    "town": "丸の内ＪＰタワー（３７階）"
  },
  "1007038": {
    "zipcode": "1007038",
    "prefectureCode": "13",
    "prefectureNumber": 13,
    "prefecture": "東京都",
    "city": "千代田区",
    "town": "丸の内ＪＰタワー（３８階）"
  },
  "1007090": {
    "zipcode": "1007090",
    "prefectureCode": "13",
    "prefectureNumber": 13,
    "prefecture": "東京都",
    "city": "千代田区",
    "town": "丸の内ＪＰタワー（地階・階層不明）"
  }
}
