{
  "1010003": {
    "zipcode": "1010003",
    "prefectureCode": "13",
    "prefectureNumber": 13,
    "prefecture": "東京都",
    "city": "千代田区",
    "town": "一ツ橋（２丁目）"
  },
  "1010021": {
    "zipcode": "1010021",
    "prefectureCode": "13",
    "prefectureNumber": 13,
    "prefecture": "東京都",
    "city": "千代田区",
    "town": "外神田"
  },
  "1010022": {
    "zipcode": "1010022",
    "prefectureCode": "13",
    "prefectureNumber": 13,
    "prefecture": "東京都",
    "city": "千代田区",
    "town": "神田練塀町"
  },
  "1010023": {
    "zipcode": "1010023",
    "prefectureCode": "13",
    "prefectureNumber": 13,
    "prefecture": "東京都",
    "city": "千代田区",
    "town": "神田松永町"
  },
  "1010024": {
    "zipcode": "1010024",
    "prefectureCode": "13",
    "prefectureNumber": 13,
    "prefecture": "東京都",
    "city": "千代田区",
    "town": "神田和泉町"
  },
  "1010025": {
    "zipcode": "1010025",
    "prefectureCode": "13",
    "prefectureNumber": 13,
    "prefecture": "東京都",
    "city": "千代田区",
    "town": "神田佐久間町"
  },
  "1010026": {
    "zipcode": "1010026",
    "prefectureCode": "13",
    "prefectureNumber": 13,
    "prefecture": "東京都",
    "city": "千代田区",
    "town": "神田佐久間河岸"
  },
  "1010027": {
    "zipcode": "1010027",
    "prefectureCode": "13",
    "prefectureNumber": 13,
    "prefecture": "東京都",
    "city": "千代田区",
    "town": "神田平河町"
  },
  "1010028": {
    "zipcode": "1010028",
    "prefectureCode": "13",
    "prefectureNumber": 13,
    "prefecture": "東京都",
    "city": "千代田区",
    "town": "神田花岡町"
  },
  "1010029": {
    "zipcode": "1010029",
    "prefectureCode": "13",
    "prefectureNumber": 13,
    "prefecture": "東京都",
    "city": "千代田区",
    "town": "神田相生町"
  },
  "1010031": {
    "zipcode": "1010031",
    "prefectureCode": "13",
    "prefectureNumber": 13,
    "prefecture": "東京都",
    "city": "千代田区",
    "town": "東神田"
  },
  "1010032": {
    "zipcode": "1010032",
    "prefectureCode": "13",
    "prefectureNumber": 13,
    "prefecture": "東京都",
    "city": "千代田区",
    "town": "岩本町"
  },
  "1010033": {
    "zipcode": "1010033",
    "prefectureCode": "13",
    "prefectureNumber": 13,
    "prefecture": "東京都",
    "city": "千代田区",
    "town": "神田岩本町"
  },
  "1010034": {
    "zipcode": "1010034",
    "prefectureCode": "13",
    "prefectureNumber": 13,
    "prefecture": "東京都",
    "city": "千代田区",
    "town": "神田東紺屋町"
  },
  "1010035": {
    "zipcode": "1010035",
    "prefectureCode": "13",
    "prefectureNumber": 13,
    "prefecture": "東京都",
    "city": "千代田区",
    "town": "神田紺屋町"
  },
  "1010036": {
    "zipcode": "1010036",
    "prefectureCode": "13",
    "prefectureNumber": 13,
    "prefecture": "東京都",
    "city": "千代田区",
    "town": "神田北乗物町"
  },
  "1010037": {
    "zipcode": "1010037",
    "prefectureCode": "13",
    "prefectureNumber": 13,
    "prefecture": "東京都",
    "city": "千代田区",
    "town": "神田西福田町"
  },
  "1010038": {
    "zipcode": "1010038",
    "prefectureCode": "13",
    "prefectureNumber": 13,
    "prefecture": "東京都",
    "city": "千代田区",
    "town": "神田美倉町"
  },
  "1010041": {
    "zipcode": "1010041",
    "prefectureCode": "13",
    "prefectureNumber": 13,
    "prefecture": "東京都",
    "city": "千代田区",
    "town": "神田須田町"
  },
  "1010042": {
    "zipcode": "1010042",
    "prefectureCode": "13",
    "prefectureNumber": 13,
    "prefecture": "東京都",
    "city": "千代田区",
    "town": "神田東松下町"
  },
  "1010043": {
    "zipcode": "1010043",
    "prefectureCode": "13",
    "prefectureNumber": 13,
    "prefecture": "東京都",
    "city": "千代田区",
    "town": "神田富山町"
  },
  "1010044": {
    "zipcode": "1010044",
    "prefectureCode": "13",
    "prefectureNumber": 13,
    "prefecture": "東京都",
    "city": "千代田区",
    "town": "鍛冶町"
  },
  "1010045": {
    "zipcode": "1010045",
    "prefectureCode": "13",
    "prefectureNumber": 13,
    "prefecture": "東京都",
    "city": "千代田区",
    "town": "神田鍛冶町"
  },
  "1010046": {
    "zipcode": "1010046",
    "prefectureCode": "13",
    "prefectureNumber": 13,
    "prefecture": "東京都",
    "city": "千代田区",
    "town": "神田多町"
  },
  "1010047": {
    "zipcode": "1010047",
    "prefectureCode": "13",
    "prefectureNumber": 13,
    "prefecture": "東京都",
    "city": "千代田区",
    "town": "内神田"
  },
  "1010048": {
    "zipcode": "1010048",
    "prefectureCode": "13",
    "prefectureNumber": 13,
    "prefecture": "東京都",
    "city": "千代田区",
    "town": "神田司町"
  },
  "1010051": {
    "zipcode": "1010051",
    "prefectureCode": "13",
    "prefectureNumber": 13,
    "prefecture": "東京都",
    "city": "千代田区",
    "town": "神田神保町"
  },
  "1010052": {
    "zipcode": "1010052",
    "prefectureCode": "13",
    "prefectureNumber": 13,
    "prefecture": "東京都",
    "city": "千代田区",
    "town": "神田小川町"
  },
  "1010053": {
    "zipcode": "1010053",
    "prefectureCode": "13",
    "prefectureNumber": 13,
    "prefecture": "東京都",
    "city": "千代田区",
    "town": "神田美土代町"
  },
  "1010054": {
    "zipcode": "1010054",
    "prefectureCode": "13",
    "prefectureNumber": 13,
    "prefecture": "東京都",
    "city": "千代田区",
    "town": "神田錦町"
  },
  "1010061": {
    "zipcode": "1010061",
    "prefectureCode": "13",
    "prefectureNumber": 13,
    "prefecture": "東京都",
    "city": "千代田区",
    "town": "神田三崎町"
  },
  "1010062": {
    "zipcode": "1010062",
    "prefectureCode": "13",
    "prefectureNumber": 13,
    "prefecture": "東京都",
    "city": "千代田区",
    "town": "神田駿河台"
  },
  "1010063": {
    "zipcode": "1010063",
    "prefectureCode": "13",
    "prefectureNumber": 13,
    "prefecture": "東京都",
    "city": "千代田区",
    "town": "神田淡路町"
  },
  "1010064": {
    "zipcode": "1010064",
    "prefectureCode": "13",
    "prefectureNumber": 13,
    "prefecture": "東京都",
    "city": "千代田区",
    "town": "神田猿楽町"
  },
  "1010065": {
    "zipcode": "1010065",
    "prefectureCode": "13",
    "prefectureNumber": 13,
    "prefecture": "東京都",
    "city": "千代田区",
    "town": "西神田"
  }
}
