{
  "1020071": {
    "zipcode": "1020071",
    "prefectureCode": "13",
    "prefectureNumber": 13,
    "prefecture": "東京都",
    "city": "千代田区",
    "town": "富士見"
  },
  "1020072": {
    "zipcode": "1020072",
    "prefectureCode": "13",
    "prefectureNumber": 13,
    "prefecture": "東京都",
    "city": "千代田区",
    "town": "飯田橋"
  },
  "1020073": {
    "zipcode": "1020073",
    "prefectureCode": "13",
    "prefectureNumber": 13,
    "prefecture": "東京都",
    "city": "千代田区",
    "town": "九段北"
  },
  "1020074": {
    "zipcode": "1020074",
    "prefectureCode": "13",
    "prefectureNumber": 13,
    "prefecture": "東京都",
    "city": "千代田区",
    "town": "九段南"
  },
  "1020075": {
    "zipcode": "1020075",
    "prefectureCode": "13",
    "prefectureNumber": 13,
    "prefecture": "東京都",
    "city": "千代田区",
    "town": "三番町"
  },
  "1020076": {
    "zipcode": "1020076",
    "prefectureCode": "13",
    "prefectureNumber": 13,
    "prefecture": "東京都",
    "city": "千代田区",
    "town": "五番町"
  },
  "1020081": {
    "zipcode": "1020081",
    "prefectureCode": "13",
    "prefectureNumber": 13,
    "prefecture": "東京都",
    "city": "千代田区",
    "town": "四番町"
  },
  "1020082": {
    "zipcode": "1020082",
    "prefectureCode": "13",
    "prefectureNumber": 13,
    "prefecture": "東京都",
    "city": "千代田区",
    "town": "一番町"
  },
  "1020083": {
    "zipcode": "1020083",
    "prefectureCode": "13",
    "prefectureNumber": 13,
    "prefecture": "東京都",
    "city": "千代田区",
    "town": "麹町"
  },
  "1020084": {
    "zipcode": "1020084",
    "prefectureCode": "13",
    "prefectureNumber": 13,
    "prefecture": "東京都",
    "city": "千代田区",
    "town": "二番町"
  },
  "1020085": {
    "zipcode": "1020085",
    "prefectureCode": "13",
    "prefectureNumber": 13,
    "prefecture": "東京都",
    "city": "千代田区",
    "town": "六番町"
  },
  "1020091": {
    "zipcode": "1020091",
    "prefectureCode": "13",
    "prefectureNumber": 13,
    "prefecture": "東京都",
    "city": "千代田区",
    "town": "北の丸公園"
  },
  "1020092": {
    "zipcode": "1020092",
    "prefectureCode": "13",
    "prefectureNumber": 13,
    "prefecture": "東京都",
    "city": "千代田区",
    "town": "隼町"
  },
  "1020093": {
    "zipcode": "1020093",
    "prefectureCode": "13",
    "prefectureNumber": 13,
    "prefecture": "東京都",
    "city": "千代田区",
    "town": "平河町"
  },
  "1020094": {
    "zipcode": "1020094",
    "prefectureCode": "13",
    "prefectureNumber": 13,
    "prefecture": "東京都",
    "city": "千代田区",
    "town": "紀尾井町"
  }
}
