{
  "1030000": {
    "zipcode": "1030000",
    "prefectureCode": "13",
    "prefectureNumber": 13,
    "prefecture": "東京都",
    "city": "中央区",
    "town": "以下に掲載がない場合"
  },
  "1030001": {
    "zipcode": "1030001",
    "prefectureCode": "13",
    "prefectureNumber": 13,
    "prefecture": "東京都",
    "city": "中央区",
    "town": "日本橋小伝馬町"
  },
  "1030002": {
    "zipcode": "1030002",
    "prefectureCode": "13",
    "prefectureNumber": 13,
    "prefecture": "東京都",
    "city": "中央区",
    "town": "日本橋馬喰町"
  },
  "1030003": {
    "zipcode": "1030003",
    "prefectureCode": "13",
    "prefectureNumber": 13,
    "prefecture": "東京都",
    "city": "中央区",
    "town": "日本橋横山町"
  },
  "1030004": {
    "zipcode": "1030004",
    "prefectureCode": "13",
    "prefectureNumber": 13,
    "prefecture": "東京都",
    "city": "中央区",
    "town": "東日本橋"
  },
  "1030005": {
    "zipcode": "1030005",
    "prefectureCode": "13",
    "prefectureNumber": 13,
    "prefecture": "東京都",
    "city": "中央区",
    "town": "日本橋久松町"
  },
  "1030006": {
    "zipcode": "1030006",
    "prefectureCode": "13",
    "prefectureNumber": 13,
    "prefecture": "東京都",
    "city": "中央区",
    "town": "日本橋富沢町"
  },
  "1030007": {
    "zipcode": "1030007",
    "prefectureCode": "13",
    "prefectureNumber": 13,
    "prefecture": "東京都",
    "city": "中央区",
    "town": "日本橋浜町"
  },
  "1030008": {
    "zipcode": "1030008",
    "prefectureCode": "13",
    "prefectureNumber": 13,
    "prefecture": "東京都",
    "city": "中央区",
    "town": "日本橋中洲"
  },
  "1030011": {
    "zipcode": "1030011",
    "prefectureCode": "13",
    "prefectureNumber": 13,
    "prefecture": "東京都",
    "city": "中央区",
    "town": "日本橋大伝馬町"
  },
  "1030012": {
    "zipcode": "1030012",
    "prefectureCode": "13",
    "prefectureNumber": 13,
    "prefecture": "東京都",
    "city": "中央区",
    "town": "日本橋堀留町"
  },
  "1030013": {
    "zipcode": "1030013",
    "prefectureCode": "13",
    "prefectureNumber": 13,
    "prefecture": "東京都",
    "city": "中央区",
    "town": "日本橋人形町"
  },
  "1030014": {
    "zipcode": "1030014",
    "prefectureCode": "13",
    "prefectureNumber": 13,
    "prefecture": "東京都",
    "city": "中央区",
    "town": "日本橋蛎殻町"
  },
  "1030015": {
    "zipcode": "1030015",
    "prefectureCode": "13",
    "prefectureNumber": 13,
    "prefecture": "東京都",
    "city": "中央区",
    "town": "日本橋箱崎町"
  },
  "1030016": {
    "zipcode": "1030016",
    "prefectureCode": "13",
    "prefectureNumber": 13,
    "prefecture": "東京都",
    "city": "中央区",
    "town": "日本橋小網町"
  },
  "1030021": {
    "zipcode": "1030021",
    "prefectureCode": "13",
    "prefectureNumber": 13,
    "prefecture": "東京都",
    "city": "中央区",
    "town": "日本橋本石町"
  },
  "1030022": {
    "zipcode": "1030022",
    "prefectureCode": "13",
    "prefectureNumber": 13,
    "prefecture": "東京都",
    "city": "中央区",
    "town": "日本橋室町"
  },
  "1030023": {
    "zipcode": "1030023",
    "prefectureCode": "13",
    "prefectureNumber": 13,
    "prefecture": "東京都",
    "city": "中央区",
    "town": "日本橋本町"
  },
  "1030024": {
    "zipcode": "1030024",
    "prefectureCode": "13",
    "prefectureNumber": 13,
    "prefecture": "東京都",
    "city": "中央区",
    "town": "日本橋小舟町"
  },
  "1030025": {
    "zipcode": "1030025",
    "prefectureCode": "13",
    "prefectureNumber": 13,
    "prefecture": "東京都",
    "city": "中央区",
    "town": "日本橋茅場町"
  },
  "1030026": {
    "zipcode": "1030026",
    "prefectureCode": "13",
    "prefectureNumber": 13,
    "prefecture": "東京都",
    "city": "中央区",
    "town": "日本橋兜町"
  },
  "1030027": {
    "zipcode": "1030027",
    "prefectureCode": "13",
    "prefectureNumber": 13,
    "prefecture": "東京都",
    "city": "中央区",
    "town": "日本橋（次のビルを除く）"
  },
  "1030028": {
    "zipcode": "1030028",
    "prefectureCode": "13",
    "prefectureNumber": 13,
    "prefecture": "東京都",
    "city": "中央区",
    "town": "八重洲（１丁目）"
  },
  "1036001": {
    "zipcode": "1036001",
    "prefectureCode": "13",
    "prefectureNumber": 13,
    "prefecture": "東京都",
    "city": "中央区",
    "town": "日本橋東京日本橋タワー（１階）"
  },
  "1036002": {
    "zipcode": "1036002",
    "prefectureCode": "13",
    "prefectureNumber": 13,
    "prefecture": "東京都",
    "city": "中央区",
    "town": "日本橋東京日本橋タワー（２階）"
  },
  "1036003": {
    "zipcode": "1036003",
    "prefectureCode": "13",
    "prefectureNumber": 13,
    "prefecture": "東京都",
    "city": "中央区",
    "town": "日本橋東京日本橋タワー（３階）"
  },
  "1036004": {
    "zipcode": "1036004",
    "prefectureCode": "13",
    "prefectureNumber": 13,
    "prefecture": "東京都",
    "city": "中央区",
    "town": "日本橋東京日本橋タワー（４階）"
  },
  "1036005": {
    "zipcode": "1036005",
    "prefectureCode": "13",
    "prefectureNumber": 13,
    "prefecture": "東京都",
    "city": "中央区",
    "town": "日本橋東京日本橋タワー（５階）"
  },
  "1036006": {
    "zipcode": "1036006",
    "prefectureCode": "13",
    "prefectureNumber": 13,
    "prefecture": "東京都",
    "city": "中央区",
    "town": "日本橋東京日本橋タワー（６階）"
  },
  "1036007": {
    "zipcode": "1036007",
    "prefectureCode": "13",
    "prefectureNumber": 13,
    "prefecture": "東京都",
    "city": "中央区",
    "town": "日本橋東京日本橋タワー（７階）"
  },
  "1036008": {
    "zipcode": "1036008",
    "prefectureCode": "13",
    "prefectureNumber": 13,
    "prefecture": "東京都",
    "city": "中央区",
    "town": "日本橋東京日本橋タワー（８階）"
  },
  "1036009": {
    "zipcode": "1036009",
    "prefectureCode": "13",
    "prefectureNumber": 13,
    "prefecture": "東京都",
    "city": "中央区",
    "town": "日本橋東京日本橋タワー（９階）"
  },
  "1036010": {
    "zipcode": "1036010",
    "prefectureCode": "13",
    "prefectureNumber": 13,
    "prefecture": "東京都",
    "city": "中央区",
    "town": "日本橋東京日本橋タワー（１０階）"
  },
  "1036011": {
    "zipcode": "1036011",
    "prefectureCode": "13",
    "prefectureNumber": 13,
    "prefecture": "東京都",
    "city": "中央区",
    "town": "日本橋東京日本橋タワー（１１階）"
  },
  "1036012": {
    "zipcode": "1036012",
    "prefectureCode": "13",
    "prefectureNumber": 13,
    "prefecture": "東京都",
    "city": "中央区",
    "town": "日本橋東京日本橋タワー（１２階）"
  },
  "1036013": {
    "zipcode": "1036013",
    "prefectureCode": "13",
    "prefectureNumber": 13,
    "prefecture": "東京都",
    "city": "中央区",
    "town": "日本橋東京日本橋タワー（１３階）"
  },
  "1036014": {
    "zipcode": "1036014",
    "prefectureCode": "13",
    "prefectureNumber": 13,
    "prefecture": "東京都",
    "city": "中央区",
    "town": "日本橋東京日本橋タワー（１４階）"
  },
  "1036015": {
    "zipcode": "1036015",
    "prefectureCode": "13",
    "prefectureNumber": 13,
    "prefecture": "東京都",
    "city": "中央区",
    "town": "日本橋東京日本橋タワー（１５階）"
  },
  "1036016": {
    "zipcode": "1036016",
    "prefectureCode": "13",
    "prefectureNumber": 13,
    "prefecture": "東京都",
    "city": "中央区",
    "town": "日本橋東京日本橋タワー（１６階）"
  },
  "1036017": {
    "zipcode": "1036017",
    "prefectureCode": "13",
    "prefectureNumber": 13,
    "prefecture": "東京都",
    "city": "中央区",
    "town": "日本橋東京日本橋タワー（１７階）"
  },
  "1036018": {
    "zipcode": "1036018",
    "prefectureCode": "13",
    "prefectureNumber": 13,
    "prefecture": "東京都",
    "city": "中央区",
    "town": "日本橋東京日本橋タワー（１８階）"
  },
  "1036019": {
    "zipcode": "1036019",
    "prefectureCode": "13",
    "prefectureNumber": 13,
    "prefecture": "東京都",
    "city": "中央区",
    "town": "日本橋東京日本橋タワー（１９階）"
  },
  "1036020": {
    "zipcode": "1036020",
    "prefectureCode": "13",
    "prefectureNumber": 13,
    "prefecture": "東京都",
    "city": "中央区",
    "town": "日本橋東京日本橋タワー（２０階）"
  },
  "1036021": {
    "zipcode": "1036021",
    "prefectureCode": "13",
    "prefectureNumber": 13,
    "prefecture": "東京都",
    "city": "中央区",
    "town": "日本橋東京日本橋タワー（２１階）"
  },
  "1036022": {
    "zipcode": "1036022",
    "prefectureCode": "13",
    "prefectureNumber": 13,
    "prefecture": "東京都",
    "city": "中央区",
    "town": "日本橋東京日本橋タワー（２２階）"
  },
  "1036023": {
    "zipcode": "1036023",
    "prefectureCode": "13",
    "prefectureNumber": 13,
    "prefecture": "東京都",
    "city": "中央区",
    "town": "日本橋東京日本橋タワー（２３階）"
  },
  "1036024": {
    "zipcode": "1036024",
    "prefectureCode": "13",
    "prefectureNumber": 13,
    "prefecture": "東京都",
    "city": "中央区",
    "town": "日本橋東京日本橋タワー（２４階）"
  },
  "1036025": {
    "zipcode": "1036025",
    "prefectureCode": "13",
    "prefectureNumber": 13,
    "prefecture": "東京都",
    "city": "中央区",
    "town": "日本橋東京日本橋タワー（２５階）"
  },
  "1036026": {
    "zipcode": "1036026",
    "prefectureCode": "13",
    "prefectureNumber": 13,
    "prefecture": "東京都",
    "city": "中央区",
    "town": "日本橋東京日本橋タワー（２６階）"
  },
  "1036027": {
    "zipcode": "1036027",
    "prefectureCode": "13",
    "prefectureNumber": 13,
    "prefecture": "東京都",
    "city": "中央区",
    "town": "日本橋東京日本橋タワー（２７階）"
  },
  "1036028": {
    "zipcode": "1036028",
    "prefectureCode": "13",
    "prefectureNumber": 13,
    "prefecture": "東京都",
    "city": "中央区",
    "town": "日本橋東京日本橋タワー（２８階）"
  },
  "1036029": {
    "zipcode": "1036029",
    "prefectureCode": "13",
    "prefectureNumber": 13,
    "prefecture": "東京都",
    "city": "中央区",
    "town": "日本橋東京日本橋タワー（２９階）"
  },
  "1036030": {
    "zipcode": "1036030",
    "prefectureCode": "13",
    "prefectureNumber": 13,
    "prefecture": "東京都",
    "city": "中央区",
    "town": "日本橋東京日本橋タワー（３０階）"
  },
  "1036031": {
    "zipcode": "1036031",
    "prefectureCode": "13",
    "prefectureNumber": 13,
    "prefecture": "東京都",
    "city": "中央区",
    "town": "日本橋東京日本橋タワー（３１階）"
  },
  "1036032": {
    "zipcode": "1036032",
    "prefectureCode": "13",
    "prefectureNumber": 13,
    "prefecture": "東京都",
    "city": "中央区",
    "town": "日本橋東京日本橋タワー（３２階）"
  },
  "1036033": {
    "zipcode": "1036033",
    "prefectureCode": "13",
    "prefectureNumber": 13,
    "prefecture": "東京都",
    "city": "中央区",
    "town": "日本橋東京日本橋タワー（３３階）"
  },
  "1036034": {
    "zipcode": "1036034",
    "prefectureCode": "13",
    "prefectureNumber": 13,
    "prefecture": "東京都",
    "city": "中央区",
    "town": "日本橋東京日本橋タワー（３４階）"
  },
  "1036035": {
    "zipcode": "1036035",
    "prefectureCode": "13",
    "prefectureNumber": 13,
    "prefecture": "東京都",
    "city": "中央区",
    "town": "日本橋東京日本橋タワー（３５階）"
  },
  "1036090": {
    "zipcode": "1036090",
    "prefectureCode": "13",
    "prefectureNumber": 13,
    "prefecture": "東京都",
    "city": "中央区",
    "town": "日本橋東京日本橋タワー（地階・階層不明）"
  },
  "1036101": {
    "zipcode": "1036101",
    "prefectureCode": "13",
    "prefectureNumber": 13,
    "prefecture": "東京都",
    "city": "中央区",
    "town": "日本橋日本橋高島屋三井ビルディング（１階）"
  },
  "1036102": {
    "zipcode": "1036102",
    "prefectureCode": "13",
    "prefectureNumber": 13,
    "prefecture": "東京都",
    "city": "中央区",
    "town": "日本橋日本橋高島屋三井ビルディング（２階）"
  },
  "1036103": {
    "zipcode": "1036103",
    "prefectureCode": "13",
    "prefectureNumber": 13,
    "prefecture": "東京都",
    "city": "中央区",
    "town": "日本橋日本橋高島屋三井ビルディング（３階）"
  },
  "1036104": {
    "zipcode": "1036104",
    "prefectureCode": "13",
    "prefectureNumber": 13,
    "prefecture": "東京都",
    "city": "中央区",
    "town": "日本橋日本橋高島屋三井ビルディング（４階）"
  },
  "1036105": {
    "zipcode": "1036105",
    "prefectureCode": "13",
    "prefectureNumber": 13,
    "prefecture": "東京都",
    "city": "中央区",
    "town": "日本橋日本橋高島屋三井ビルディング（５階）"
  },
  "1036106": {
    "zipcode": "1036106",
    "prefectureCode": "13",
    "prefectureNumber": 13,
    "prefecture": "東京都",
    "city": "中央区",
    "town": "日本橋日本橋高島屋三井ビルディング（６階）"
  },
  "1036107": {
    "zipcode": "1036107",
    "prefectureCode": "13",
    "prefectureNumber": 13,
    "prefecture": "東京都",
    "city": "中央区",
    "town": "日本橋日本橋高島屋三井ビルディング（７階）"
  },
  "1036108": {
    "zipcode": "1036108",
    "prefectureCode": "13",
    "prefectureNumber": 13,
    "prefecture": "東京都",
    "city": "中央区",
    "town": "日本橋日本橋高島屋三井ビルディング（８階）"
  },
  "1036109": {
    "zipcode": "1036109",
    "prefectureCode": "13",
    "prefectureNumber": 13,
    "prefecture": "東京都",
    "city": "中央区",
    "town": "日本橋日本橋高島屋三井ビルディング（９階）"
  },
  "1036110": {
    "zipcode": "1036110",
    "prefectureCode": "13",
    "prefectureNumber": 13,
    "prefecture": "東京都",
    "city": "中央区",
    "town": "日本橋日本橋高島屋三井ビルディング（１０階）"
  },
  "1036111": {
    "zipcode": "1036111",
    "prefectureCode": "13",
    "prefectureNumber": 13,
    "prefecture": "東京都",
    "city": "中央区",
    "town": "日本橋日本橋高島屋三井ビルディング（１１階）"
  },
  "1036112": {
    "zipcode": "1036112",
    "prefectureCode": "13",
    "prefectureNumber": 13,
    "prefecture": "東京都",
    "city": "中央区",
    "town": "日本橋日本橋高島屋三井ビルディング（１２階）"
  },
  "1036113": {
    "zipcode": "1036113",
    "prefectureCode": "13",
    "prefectureNumber": 13,
    "prefecture": "東京都",
    "city": "中央区",
    "town": "日本橋日本橋高島屋三井ビルディング（１３階）"
  },
  "1036114": {
    "zipcode": "1036114",
    "prefectureCode": "13",
    "prefectureNumber": 13,
    "prefecture": "東京都",
    "city": "中央区",
    "town": "日本橋日本橋高島屋三井ビルディング（１４階）"
  },
  "1036115": {
    "zipcode": "1036115",
    "prefectureCode": "13",
    "prefectureNumber": 13,
    "prefecture": "東京都",
    "city": "中央区",
    "town": "日本橋日本橋高島屋三井ビルディング（１５階）"
  },
  "1036116": {
    "zipcode": "1036116",
    "prefectureCode": "13",
    "prefectureNumber": 13,
    "prefecture": "東京都",
    "city": "中央区",
    "town": "日本橋日本橋高島屋三井ビルディング（１６階）"
  },
  "1036117": {
    "zipcode": "1036117",
    "prefectureCode": "13",
    "prefectureNumber": 13,
    "prefecture": "東京都",
    "city": "中央区",
    "town": "日本橋日本橋高島屋三井ビルディング（１７階）"
  },
  "1036118": {
    "zipcode": "1036118",
    "prefectureCode": "13",
    "prefectureNumber": 13,
    "prefecture": "東京都",
    "city": "中央区",
    "town": "日本橋日本橋高島屋三井ビルディング（１８階）"
  },
  "1036119": {
    "zipcode": "1036119",
    "prefectureCode": "13",
    "prefectureNumber": 13,
    "prefecture": "東京都",
    "city": "中央区",
    "town": "日本橋日本橋高島屋三井ビルディング（１９階）"
  },
  "1036120": {
    "zipcode": "1036120",
    "prefectureCode": "13",
    "prefectureNumber": 13,
    "prefecture": "東京都",
    "city": "中央区",
    "town": "日本橋日本橋高島屋三井ビルディング（２０階）"
  },
  "1036121": {
    "zipcode": "1036121",
    "prefectureCode": "13",
    "prefectureNumber": 13,
    "prefecture": "東京都",
    "city": "中央区",
    "town": "日本橋日本橋高島屋三井ビルディング（２１階）"
  },
  "1036122": {
    "zipcode": "1036122",
    "prefectureCode": "13",
    "prefectureNumber": 13,
    "prefecture": "東京都",
    "city": "中央区",
    "town": "日本橋日本橋高島屋三井ビルディング（２２階）"
  },
  "1036123": {
    "zipcode": "1036123",
    "prefectureCode": "13",
    "prefectureNumber": 13,
    "prefecture": "東京都",
    "city": "中央区",
    "town": "日本橋日本橋高島屋三井ビルディング（２３階）"
  },
  "1036124": {
    "zipcode": "1036124",
    "prefectureCode": "13",
    "prefectureNumber": 13,
    "prefecture": "東京都",
    "city": "中央区",
    "town": "日本橋日本橋高島屋三井ビルディング（２４階）"
  },
  "1036125": {
    "zipcode": "1036125",
    "prefectureCode": "13",
    "prefectureNumber": 13,
    "prefecture": "東京都",
    "city": "中央区",
    "town": "日本橋日本橋高島屋三井ビルディング（２５階）"
  },
  "1036126": {
    "zipcode": "1036126",
    "prefectureCode": "13",
    "prefectureNumber": 13,
    "prefecture": "東京都",
    "city": "中央区",
    "town": "日本橋日本橋高島屋三井ビルディング（２６階）"
  },
  "1036127": {
    "zipcode": "1036127",
    "prefectureCode": "13",
    "prefectureNumber": 13,
    "prefecture": "東京都",
    "city": "中央区",
    "town": "日本橋日本橋高島屋三井ビルディング（２７階）"
  },
  "1036128": {
    "zipcode": "1036128",
    "prefectureCode": "13",
    "prefectureNumber": 13,
    "prefecture": "東京都",
    "city": "中央区",
    "town": "日本橋日本橋高島屋三井ビルディング（２８階）"
  },
  "1036129": {
    "zipcode": "1036129",
    "prefectureCode": "13",
    "prefectureNumber": 13,
    "prefecture": "東京都",
    "city": "中央区",
    "town": "日本橋日本橋高島屋三井ビルディング（２９階）"
  },
  "1036130": {
    "zipcode": "1036130",
    "prefectureCode": "13",
    "prefectureNumber": 13,
    "prefecture": "東京都",
    "city": "中央区",
    "town": "日本橋日本橋高島屋三井ビルディング（３０階）"
  },
  "1036131": {
    "zipcode": "1036131",
    "prefectureCode": "13",
    "prefectureNumber": 13,
    "prefecture": "東京都",
    "city": "中央区",
    "town": "日本橋日本橋高島屋三井ビルディング（３１階）"
  },
  "1036132": {
    "zipcode": "1036132",
    "prefectureCode": "13",
    "prefectureNumber": 13,
    "prefecture": "東京都",
    "city": "中央区",
    "town": "日本橋日本橋高島屋三井ビルディング（３２階）"
  },
  "1036190": {
    "zipcode": "1036190",
    "prefectureCode": "13",
    "prefectureNumber": 13,
    "prefecture": "東京都",
    "city": "中央区",
    "town": "日本橋日本橋高島屋三井ビルディング（地階・階層不明）"
  }
}
