{
  "1040028": {
    "zipcode": "1040028",
    "prefectureCode": "13",
    "prefectureNumber": 13,
    "prefecture": "東京都",
    "city": "中央区",
    "town": "八重洲（２丁目）"
  },
  "1040031": {
    "zipcode": "1040031",
    "prefectureCode": "13",
    "prefectureNumber": 13,
    "prefecture": "東京都",
    "city": "中央区",
    "town": "京橋"
  },
  "1040032": {
    "zipcode": "1040032",
    "prefectureCode": "13",
    "prefectureNumber": 13,
    "prefecture": "東京都",
    "city": "中央区",
    "town": "八丁堀"
  },
  "1040033": {
    "zipcode": "1040033",
    "prefectureCode": "13",
    "prefectureNumber": 13,
    "prefecture": "東京都",
    "city": "中央区",
    "town": "新川"
  },
  "1040041": {
    "zipcode": "1040041",
    "prefectureCode": "13",
    "prefectureNumber": 13,
    "prefecture": "東京都",
    "city": "中央区",
    "town": "新富"
  },
  "1040042": {
    "zipcode": "1040042",
    "prefectureCode": "13",
    "prefectureNumber": 13,
    "prefecture": "東京都",
    "city": "中央区",
    "town": "入船"
  },
  "1040043": {
    "zipcode": "1040043",
    "prefectureCode": "13",
    "prefectureNumber": 13,
    "prefecture": "東京都",
    "city": "中央区",
    "town": "湊"
  },
  "1040044": {
    "zipcode": "1040044",
    "prefectureCode": "13",
    "prefectureNumber": 13,
    "prefecture": "東京都",
    "city": "中央区",
    "town": "明石町"
  },
  "1040045": {
    "zipcode": "1040045",
    "prefectureCode": "13",
    "prefectureNumber": 13,
    "prefecture": "東京都",
    "city": "中央区",
    "town": "築地"
  },
  "1040046": {
    "zipcode": "1040046",
    "prefectureCode": "13",
    "prefectureNumber": 13,
    "prefecture": "東京都",
    "city": "中央区",
    "town": "浜離宮庭園"
  },
  "1040051": {
    "zipcode": "1040051",
    "prefectureCode": "13",
    "prefectureNumber": 13,
    "prefecture": "東京都",
    "city": "中央区",
    "town": "佃"
  },
  "1040052": {
    "zipcode": "1040052",
    "prefectureCode": "13",
    "prefectureNumber": 13,
    "prefecture": "東京都",
    "city": "中央区",
    "town": "月島"
  },
  "1040053": {
    "zipcode": "1040053",
    "prefectureCode": "13",
    "prefectureNumber": 13,
    "prefecture": "東京都",
    "city": "中央区",
    "town": "晴海（次のビルを除く）"
  },
  "1040054": {
    "zipcode": "1040054",
    "prefectureCode": "13",
    "prefectureNumber": 13,
    "prefecture": "東京都",
    "city": "中央区",
    "town": "勝どき"
  },
  "1040055": {
    "zipcode": "1040055",
    "prefectureCode": "13",
    "prefectureNumber": 13,
    "prefecture": "東京都",
    "city": "中央区",
    "town": "豊海町"
  },
  "1040061": {
    "zipcode": "1040061",
    "prefectureCode": "13",
    "prefectureNumber": 13,
    "prefecture": "東京都",
    "city": "中央区",
    "town": "銀座"
  },
  "1046001": {
    "zipcode": "1046001",
    "prefectureCode": "13",
    "prefectureNumber": 13,
    "prefecture": "東京都",
    "city": "中央区",
    "town": "晴海オフィスタワーＸ（１階）"
  },
  "1046002": {
    "zipcode": "1046002",
    "prefectureCode": "13",
    "prefectureNumber": 13,
    "prefecture": "東京都",
    "city": "中央区",
    "town": "晴海オフィスタワーＸ（２階）"
  },
  "1046003": {
    "zipcode": "1046003",
    "prefectureCode": "13",
    "prefectureNumber": 13,
    "prefecture": "東京都",
    "city": "中央区",
    "town": "晴海オフィスタワーＸ（３階）"
  },
  "1046004": {
    "zipcode": "1046004",
    "prefectureCode": "13",
    "prefectureNumber": 13,
    "prefecture": "東京都",
    "city": "中央区",
    "town": "晴海オフィスタワーＸ（４階）"
  },
  "1046005": {
    "zipcode": "1046005",
    "prefectureCode": "13",
    "prefectureNumber": 13,
    "prefecture": "東京都",
    "city": "中央区",
    "town": "晴海オフィスタワーＸ（５階）"
  },
  "1046006": {
    "zipcode": "1046006",
    "prefectureCode": "13",
    "prefectureNumber": 13,
    "prefecture": "東京都",
    "city": "中央区",
    "town": "晴海オフィスタワーＸ（６階）"
  },
  "1046007": {
    "zipcode": "1046007",
    "prefectureCode": "13",
    "prefectureNumber": 13,
    "prefecture": "東京都",
    "city": "中央区",
    "town": "晴海オフィスタワーＸ（７階）"
  },
  "1046008": {
    "zipcode": "1046008",
    "prefectureCode": "13",
    "prefectureNumber": 13,
    "prefecture": "東京都",
    "city": "中央区",
    "town": "晴海オフィスタワーＸ（８階）"
  },
  "1046009": {
    "zipcode": "1046009",
    "prefectureCode": "13",
    "prefectureNumber": 13,
    "prefecture": "東京都",
    "city": "中央区",
    "town": "晴海オフィスタワーＸ（９階）"
  },
  "1046010": {
    "zipcode": "1046010",
    "prefectureCode": "13",
    "prefectureNumber": 13,
    "prefecture": "東京都",
    "city": "中央区",
    "town": "晴海オフィスタワーＸ（１０階）"
  },
  "1046011": {
    "zipcode": "1046011",
    "prefectureCode": "13",
    "prefectureNumber": 13,
    "prefecture": "東京都",
    "city": "中央区",
    "town": "晴海オフィスタワーＸ（１１階）"
  },
  "1046012": {
    "zipcode": "1046012",
    "prefectureCode": "13",
    "prefectureNumber": 13,
    "prefecture": "東京都",
    "city": "中央区",
    "town": "晴海オフィスタワーＸ（１２階）"
  },
  "1046013": {
    "zipcode": "1046013",
    "prefectureCode": "13",
    "prefectureNumber": 13,
    "prefecture": "東京都",
    "city": "中央区",
    "town": "晴海オフィスタワーＸ（１３階）"
  },
  "1046014": {
    "zipcode": "1046014",
    "prefectureCode": "13",
    "prefectureNumber": 13,
    "prefecture": "東京都",
    "city": "中央区",
    "town": "晴海オフィスタワーＸ（１４階）"
  },
  "1046015": {
    "zipcode": "1046015",
    "prefectureCode": "13",
    "prefectureNumber": 13,
    "prefecture": "東京都",
    "city": "中央区",
    "town": "晴海オフィスタワーＸ（１５階）"
  },
  "1046016": {
    "zipcode": "1046016",
    "prefectureCode": "13",
    "prefectureNumber": 13,
    "prefecture": "東京都",
    "city": "中央区",
    "town": "晴海オフィスタワーＸ（１６階）"
  },
  "1046017": {
    "zipcode": "1046017",
    "prefectureCode": "13",
    "prefectureNumber": 13,
    "prefecture": "東京都",
    "city": "中央区",
    "town": "晴海オフィスタワーＸ（１７階）"
  },
  "1046018": {
    "zipcode": "1046018",
    "prefectureCode": "13",
    "prefectureNumber": 13,
    "prefecture": "東京都",
    "city": "中央区",
    "town": "晴海オフィスタワーＸ（１８階）"
  },
  "1046019": {
    "zipcode": "1046019",
    "prefectureCode": "13",
    "prefectureNumber": 13,
    "prefecture": "東京都",
    "city": "中央区",
    "town": "晴海オフィスタワーＸ（１９階）"
  },
  "1046020": {
    "zipcode": "1046020",
    "prefectureCode": "13",
    "prefectureNumber": 13,
    "prefecture": "東京都",
    "city": "中央区",
    "town": "晴海オフィスタワーＸ（２０階）"
  },
  "1046021": {
    "zipcode": "1046021",
    "prefectureCode": "13",
    "prefectureNumber": 13,
    "prefecture": "東京都",
    "city": "中央区",
    "town": "晴海オフィスタワーＸ（２１階）"
  },
  "1046022": {
    "zipcode": "1046022",
    "prefectureCode": "13",
    "prefectureNumber": 13,
    "prefecture": "東京都",
    "city": "中央区",
    "town": "晴海オフィスタワーＸ（２２階）"
  },
  "1046023": {
    "zipcode": "1046023",
    "prefectureCode": "13",
    "prefectureNumber": 13,
    "prefecture": "東京都",
    "city": "中央区",
    "town": "晴海オフィスタワーＸ（２３階）"
  },
  "1046024": {
    "zipcode": "1046024",
    "prefectureCode": "13",
    "prefectureNumber": 13,
    "prefecture": "東京都",
    "city": "中央区",
    "town": "晴海オフィスタワーＸ（２４階）"
  },
  "1046025": {
    "zipcode": "1046025",
    "prefectureCode": "13",
    "prefectureNumber": 13,
    "prefecture": "東京都",
    "city": "中央区",
    "town": "晴海オフィスタワーＸ（２５階）"
  },
  "1046026": {
    "zipcode": "1046026",
    "prefectureCode": "13",
    "prefectureNumber": 13,
    "prefecture": "東京都",
    "city": "中央区",
    "town": "晴海オフィスタワーＸ（２６階）"
  },
  "1046027": {
    "zipcode": "1046027",
    "prefectureCode": "13",
    "prefectureNumber": 13,
    "prefecture": "東京都",
    "city": "中央区",
    "town": "晴海オフィスタワーＸ（２７階）"
  },
  "1046028": {
    "zipcode": "1046028",
    "prefectureCode": "13",
    "prefectureNumber": 13,
    "prefecture": "東京都",
    "city": "中央区",
    "town": "晴海オフィスタワーＸ（２８階）"
  },
  "1046029": {
    "zipcode": "1046029",
    "prefectureCode": "13",
    "prefectureNumber": 13,
    "prefecture": "東京都",
    "city": "中央区",
    "town": "晴海オフィスタワーＸ（２９階）"
  },
  "1046030": {
    "zipcode": "1046030",
    "prefectureCode": "13",
    "prefectureNumber": 13,
    "prefecture": "東京都",
    "city": "中央区",
    "town": "晴海オフィスタワーＸ（３０階）"
  },
  "1046031": {
    "zipcode": "1046031",
    "prefectureCode": "13",
    "prefectureNumber": 13,
    "prefecture": "東京都",
    "city": "中央区",
    "town": "晴海オフィスタワーＸ（３１階）"
  },
  "1046032": {
    "zipcode": "1046032",
    "prefectureCode": "13",
    "prefectureNumber": 13,
    "prefecture": "東京都",
    "city": "中央区",
    "town": "晴海オフィスタワーＸ（３２階）"
  },
  "1046033": {
    "zipcode": "1046033",
    "prefectureCode": "13",
    "prefectureNumber": 13,
    "prefecture": "東京都",
    "city": "中央区",
    "town": "晴海オフィスタワーＸ（３３階）"
  },
  "1046034": {
    "zipcode": "1046034",
    "prefectureCode": "13",
    "prefectureNumber": 13,
    "prefecture": "東京都",
    "city": "中央区",
    "town": "晴海オフィスタワーＸ（３４階）"
  },
  "1046035": {
    "zipcode": "1046035",
    "prefectureCode": "13",
    "prefectureNumber": 13,
    "prefecture": "東京都",
    "city": "中央区",
    "town": "晴海オフィスタワーＸ（３５階）"
  },
  "1046036": {
    "zipcode": "1046036",
    "prefectureCode": "13",
    "prefectureNumber": 13,
    "prefecture": "東京都",
    "city": "中央区",
    "town": "晴海オフィスタワーＸ（３６階）"
  },
  "1046037": {
    "zipcode": "1046037",
    "prefectureCode": "13",
    "prefectureNumber": 13,
    "prefecture": "東京都",
    "city": "中央区",
    "town": "晴海オフィスタワーＸ（３７階）"
  },
  "1046038": {
    "zipcode": "1046038",
    "prefectureCode": "13",
    "prefectureNumber": 13,
    "prefecture": "東京都",
    "city": "中央区",
    "town": "晴海オフィスタワーＸ（３８階）"
  },
  "1046039": {
    "zipcode": "1046039",
    "prefectureCode": "13",
    "prefectureNumber": 13,
    "prefecture": "東京都",
    "city": "中央区",
    "town": "晴海オフィスタワーＸ（３９階）"
  },
  "1046040": {
    "zipcode": "1046040",
    "prefectureCode": "13",
    "prefectureNumber": 13,
    "prefecture": "東京都",
    "city": "中央区",
    "town": "晴海オフィスタワーＸ（４０階）"
  },
  "1046041": {
    "zipcode": "1046041",
    "prefectureCode": "13",
    "prefectureNumber": 13,
    "prefecture": "東京都",
    "city": "中央区",
    "town": "晴海オフィスタワーＸ（４１階）"
  },
  "1046042": {
    "zipcode": "1046042",
    "prefectureCode": "13",
    "prefectureNumber": 13,
    "prefecture": "東京都",
    "city": "中央区",
    "town": "晴海オフィスタワーＸ（４２階）"
  },
  "1046043": {
    "zipcode": "1046043",
    "prefectureCode": "13",
    "prefectureNumber": 13,
    "prefecture": "東京都",
    "city": "中央区",
    "town": "晴海オフィスタワーＸ（４３階）"
  },
  "1046044": {
    "zipcode": "1046044",
    "prefectureCode": "13",
    "prefectureNumber": 13,
    "prefecture": "東京都",
    "city": "中央区",
    "town": "晴海オフィスタワーＸ（４４階）"
  },
  "1046090": {
    "zipcode": "1046090",
    "prefectureCode": "13",
    "prefectureNumber": 13,
    "prefecture": "東京都",
    "city": "中央区",
    "town": "晴海オフィスタワーＸ（地階・階層不明）"
  },
  "1046101": {
    "zipcode": "1046101",
    "prefectureCode": "13",
    "prefectureNumber": 13,
    "prefecture": "東京都",
    "city": "中央区",
    "town": "晴海オフィスタワーＹ（１階）"
  },
  "1046102": {
    "zipcode": "1046102",
    "prefectureCode": "13",
    "prefectureNumber": 13,
    "prefecture": "東京都",
    "city": "中央区",
    "town": "晴海オフィスタワーＹ（２階）"
  },
  "1046103": {
    "zipcode": "1046103",
    "prefectureCode": "13",
    "prefectureNumber": 13,
    "prefecture": "東京都",
    "city": "中央区",
    "town": "晴海オフィスタワーＹ（３階）"
  },
  "1046104": {
    "zipcode": "1046104",
    "prefectureCode": "13",
    "prefectureNumber": 13,
    "prefecture": "東京都",
    "city": "中央区",
    "town": "晴海オフィスタワーＹ（４階）"
  },
  "1046105": {
    "zipcode": "1046105",
    "prefectureCode": "13",
    "prefectureNumber": 13,
    "prefecture": "東京都",
    "city": "中央区",
    "town": "晴海オフィスタワーＹ（５階）"
  },
  "1046106": {
    "zipcode": "1046106",
    "prefectureCode": "13",
    "prefectureNumber": 13,
    "prefecture": "東京都",
    "city": "中央区",
    "town": "晴海オフィスタワーＹ（６階）"
  },
  "1046107": {
    "zipcode": "1046107",
    "prefectureCode": "13",
    "prefectureNumber": 13,
    "prefecture": "東京都",
    "city": "中央区",
    "town": "晴海オフィスタワーＹ（７階）"
  },
  "1046108": {
    "zipcode": "1046108",
    "prefectureCode": "13",
    "prefectureNumber": 13,
    "prefecture": "東京都",
    "city": "中央区",
    "town": "晴海オフィスタワーＹ（８階）"
  },
  "1046109": {
    "zipcode": "1046109",
    "prefectureCode": "13",
    "prefectureNumber": 13,
    "prefecture": "東京都",
    "city": "中央区",
    "town": "晴海オフィスタワーＹ（９階）"
  },
  "1046110": {
    "zipcode": "1046110",
    "prefectureCode": "13",
    "prefectureNumber": 13,
    "prefecture": "東京都",
    "city": "中央区",
    "town": "晴海オフィスタワーＹ（１０階）"
  },
  "1046111": {
    "zipcode": "1046111",
    "prefectureCode": "13",
    "prefectureNumber": 13,
    "prefecture": "東京都",
    "city": "中央区",
    "town": "晴海オフィスタワーＹ（１１階）"
  },
  "1046112": {
    "zipcode": "1046112",
    "prefectureCode": "13",
    "prefectureNumber": 13,
    "prefecture": "東京都",
    "city": "中央区",
    "town": "晴海オフィスタワーＹ（１２階）"
  },
  "1046113": {
    "zipcode": "1046113",
    "prefectureCode": "13",
    "prefectureNumber": 13,
    "prefecture": "東京都",
    "city": "中央区",
    "town": "晴海オフィスタワーＹ（１３階）"
  },
  "1046114": {
    "zipcode": "1046114",
    "prefectureCode": "13",
    "prefectureNumber": 13,
    "prefecture": "東京都",
    "city": "中央区",
    "town": "晴海オフィスタワーＹ（１４階）"
  },
  "1046115": {
    "zipcode": "1046115",
    "prefectureCode": "13",
    "prefectureNumber": 13,
    "prefecture": "東京都",
    "city": "中央区",
    "town": "晴海オフィスタワーＹ（１５階）"
  },
  "1046116": {
    "zipcode": "1046116",
    "prefectureCode": "13",
    "prefectureNumber": 13,
    "prefecture": "東京都",
    "city": "中央区",
    "town": "晴海オフィスタワーＹ（１６階）"
  },
  "1046117": {
    "zipcode": "1046117",
    "prefectureCode": "13",
    "prefectureNumber": 13,
    "prefecture": "東京都",
    "city": "中央区",
    "town": "晴海オフィスタワーＹ（１７階）"
  },
  "1046118": {
    "zipcode": "1046118",
    "prefectureCode": "13",
    "prefectureNumber": 13,
    "prefecture": "東京都",
    "city": "中央区",
    "town": "晴海オフィスタワーＹ（１８階）"
  },
  "1046119": {
    "zipcode": "1046119",
    "prefectureCode": "13",
    "prefectureNumber": 13,
    "prefecture": "東京都",
    "city": "中央区",
    "town": "晴海オフィスタワーＹ（１９階）"
  },
  "1046120": {
    "zipcode": "1046120",
    "prefectureCode": "13",
    "prefectureNumber": 13,
    "prefecture": "東京都",
    "city": "中央区",
    "town": "晴海オフィスタワーＹ（２０階）"
  },
  "1046121": {
    "zipcode": "1046121",
    "prefectureCode": "13",
    "prefectureNumber": 13,
    "prefecture": "東京都",
    "city": "中央区",
    "town": "晴海オフィスタワーＹ（２１階）"
  },
  "1046122": {
    "zipcode": "1046122",
    "prefectureCode": "13",
    "prefectureNumber": 13,
    "prefecture": "東京都",
    "city": "中央区",
    "town": "晴海オフィスタワーＹ（２２階）"
  },
  "1046123": {
    "zipcode": "1046123",
    "prefectureCode": "13",
    "prefectureNumber": 13,
    "prefecture": "東京都",
    "city": "中央区",
    "town": "晴海オフィスタワーＹ（２３階）"
  },
  "1046124": {
    "zipcode": "1046124",
    "prefectureCode": "13",
    "prefectureNumber": 13,
    "prefecture": "東京都",
    "city": "中央区",
    "town": "晴海オフィスタワーＹ（２４階）"
  },
  "1046125": {
    "zipcode": "1046125",
    "prefectureCode": "13",
    "prefectureNumber": 13,
    "prefecture": "東京都",
    "city": "中央区",
    "town": "晴海オフィスタワーＹ（２５階）"
  },
  "1046126": {
    "zipcode": "1046126",
    "prefectureCode": "13",
    "prefectureNumber": 13,
    "prefecture": "東京都",
    "city": "中央区",
    "town": "晴海オフィスタワーＹ（２６階）"
  },
  "1046127": {
    "zipcode": "1046127",
    "prefectureCode": "13",
    "prefectureNumber": 13,
    "prefecture": "東京都",
    "city": "中央区",
    "town": "晴海オフィスタワーＹ（２７階）"
  },
  "1046128": {
    "zipcode": "1046128",
    "prefectureCode": "13",
    "prefectureNumber": 13,
    "prefecture": "東京都",
    "city": "中央区",
    "town": "晴海オフィスタワーＹ（２８階）"
  },
  "1046129": {
    "zipcode": "1046129",
    "prefectureCode": "13",
    "prefectureNumber": 13,
    "prefecture": "東京都",
    "city": "中央区",
    "town": "晴海オフィスタワーＹ（２９階）"
  },
  "1046130": {
    "zipcode": "1046130",
    "prefectureCode": "13",
    "prefectureNumber": 13,
    "prefecture": "東京都",
    "city": "中央区",
    "town": "晴海オフィスタワーＹ（３０階）"
  },
  "1046131": {
    "zipcode": "1046131",
    "prefectureCode": "13",
    "prefectureNumber": 13,
    "prefecture": "東京都",
    "city": "中央区",
    "town": "晴海オフィスタワーＹ（３１階）"
  },
  "1046132": {
    "zipcode": "1046132",
    "prefectureCode": "13",
    "prefectureNumber": 13,
    "prefecture": "東京都",
    "city": "中央区",
    "town": "晴海オフィスタワーＹ（３２階）"
  },
  "1046133": {
    "zipcode": "1046133",
    "prefectureCode": "13",
    "prefectureNumber": 13,
    "prefecture": "東京都",
    "city": "中央区",
    "town": "晴海オフィスタワーＹ（３３階）"
  },
  "1046134": {
    "zipcode": "1046134",
    "prefectureCode": "13",
    "prefectureNumber": 13,
    "prefecture": "東京都",
    "city": "中央区",
    "town": "晴海オフィスタワーＹ（３４階）"
  },
  "1046135": {
    "zipcode": "1046135",
    "prefectureCode": "13",
    "prefectureNumber": 13,
    "prefecture": "東京都",
    "city": "中央区",
    "town": "晴海オフィスタワーＹ（３５階）"
  },
  "1046136": {
    "zipcode": "1046136",
    "prefectureCode": "13",
    "prefectureNumber": 13,
    "prefecture": "東京都",
    "city": "中央区",
    "town": "晴海オフィスタワーＹ（３６階）"
  },
  "1046137": {
    "zipcode": "1046137",
    "prefectureCode": "13",
    "prefectureNumber": 13,
    "prefecture": "東京都",
    "city": "中央区",
    "town": "晴海オフィスタワーＹ（３７階）"
  },
  "1046138": {
    "zipcode": "1046138",
    "prefectureCode": "13",
    "prefectureNumber": 13,
    "prefecture": "東京都",
    "city": "中央区",
    "town": "晴海オフィスタワーＹ（３８階）"
  },
  "1046139": {
    "zipcode": "1046139",
    "prefectureCode": "13",
    "prefectureNumber": 13,
    "prefecture": "東京都",
    "city": "中央区",
    "town": "晴海オフィスタワーＹ（３９階）"
  },
  "1046190": {
    "zipcode": "1046190",
    "prefectureCode": "13",
    "prefectureNumber": 13,
    "prefecture": "東京都",
    "city": "中央区",
    "town": "晴海オフィスタワーＹ（地階・階層不明）"
  },
  "1046201": {
    "zipcode": "1046201",
    "prefectureCode": "13",
    "prefectureNumber": 13,
    "prefecture": "東京都",
    "city": "中央区",
    "town": "晴海オフィスタワーＺ（１階）"
  },
  "1046202": {
    "zipcode": "1046202",
    "prefectureCode": "13",
    "prefectureNumber": 13,
    "prefecture": "東京都",
    "city": "中央区",
    "town": "晴海オフィスタワーＺ（２階）"
  },
  "1046203": {
    "zipcode": "1046203",
    "prefectureCode": "13",
    "prefectureNumber": 13,
    "prefecture": "東京都",
    "city": "中央区",
    "town": "晴海オフィスタワーＺ（３階）"
  },
  "1046204": {
    "zipcode": "1046204",
    "prefectureCode": "13",
    "prefectureNumber": 13,
    "prefecture": "東京都",
    "city": "中央区",
    "town": "晴海オフィスタワーＺ（４階）"
  },
  "1046205": {
    "zipcode": "1046205",
    "prefectureCode": "13",
    "prefectureNumber": 13,
    "prefecture": "東京都",
    "city": "中央区",
    "town": "晴海オフィスタワーＺ（５階）"
  },
  "1046206": {
    "zipcode": "1046206",
    "prefectureCode": "13",
    "prefectureNumber": 13,
    "prefecture": "東京都",
    "city": "中央区",
    "town": "晴海オフィスタワーＺ（６階）"
  },
  "1046207": {
    "zipcode": "1046207",
    "prefectureCode": "13",
    "prefectureNumber": 13,
    "prefecture": "東京都",
    "city": "中央区",
    "town": "晴海オフィスタワーＺ（７階）"
  },
  "1046208": {
    "zipcode": "1046208",
    "prefectureCode": "13",
    "prefectureNumber": 13,
    "prefecture": "東京都",
    "city": "中央区",
    "town": "晴海オフィスタワーＺ（８階）"
  },
  "1046209": {
    "zipcode": "1046209",
    "prefectureCode": "13",
    "prefectureNumber": 13,
    "prefecture": "東京都",
    "city": "中央区",
    "town": "晴海オフィスタワーＺ（９階）"
  },
  "1046210": {
    "zipcode": "1046210",
    "prefectureCode": "13",
    "prefectureNumber": 13,
    "prefecture": "東京都",
    "city": "中央区",
    "town": "晴海オフィスタワーＺ（１０階）"
  },
  "1046211": {
    "zipcode": "1046211",
    "prefectureCode": "13",
    "prefectureNumber": 13,
    "prefecture": "東京都",
    "city": "中央区",
    "town": "晴海オフィスタワーＺ（１１階）"
  },
  "1046212": {
    "zipcode": "1046212",
    "prefectureCode": "13",
    "prefectureNumber": 13,
    "prefecture": "東京都",
    "city": "中央区",
    "town": "晴海オフィスタワーＺ（１２階）"
  },
  "1046213": {
    "zipcode": "1046213",
    "prefectureCode": "13",
    "prefectureNumber": 13,
    "prefecture": "東京都",
    "city": "中央区",
    "town": "晴海オフィスタワーＺ（１３階）"
  },
  "1046214": {
    "zipcode": "1046214",
    "prefectureCode": "13",
    "prefectureNumber": 13,
    "prefecture": "東京都",
    "city": "中央区",
    "town": "晴海オフィスタワーＺ（１４階）"
  },
  "1046215": {
    "zipcode": "1046215",
    "prefectureCode": "13",
    "prefectureNumber": 13,
    "prefecture": "東京都",
    "city": "中央区",
    "town": "晴海オフィスタワーＺ（１５階）"
  },
  "1046216": {
    "zipcode": "1046216",
    "prefectureCode": "13",
    "prefectureNumber": 13,
    "prefecture": "東京都",
    "city": "中央区",
    "town": "晴海オフィスタワーＺ（１６階）"
  },
  "1046217": {
    "zipcode": "1046217",
    "prefectureCode": "13",
    "prefectureNumber": 13,
    "prefecture": "東京都",
    "city": "中央区",
    "town": "晴海オフィスタワーＺ（１７階）"
  },
  "1046218": {
    "zipcode": "1046218",
    "prefectureCode": "13",
    "prefectureNumber": 13,
    "prefecture": "東京都",
    "city": "中央区",
    "town": "晴海オフィスタワーＺ（１８階）"
  },
  "1046219": {
    "zipcode": "1046219",
    "prefectureCode": "13",
    "prefectureNumber": 13,
    "prefecture": "東京都",
    "city": "中央区",
    "town": "晴海オフィスタワーＺ（１９階）"
  },
  "1046220": {
    "zipcode": "1046220",
    "prefectureCode": "13",
    "prefectureNumber": 13,
    "prefecture": "東京都",
    "city": "中央区",
    "town": "晴海オフィスタワーＺ（２０階）"
  },
  "1046221": {
    "zipcode": "1046221",
    "prefectureCode": "13",
    "prefectureNumber": 13,
    "prefecture": "東京都",
    "city": "中央区",
    "town": "晴海オフィスタワーＺ（２１階）"
  },
  "1046222": {
    "zipcode": "1046222",
    "prefectureCode": "13",
    "prefectureNumber": 13,
    "prefecture": "東京都",
    "city": "中央区",
    "town": "晴海オフィスタワーＺ（２２階）"
  },
  "1046223": {
    "zipcode": "1046223",
    "prefectureCode": "13",
    "prefectureNumber": 13,
    "prefecture": "東京都",
    "city": "中央区",
    "town": "晴海オフィスタワーＺ（２３階）"
  },
  "1046224": {
    "zipcode": "1046224",
    "prefectureCode": "13",
    "prefectureNumber": 13,
    "prefecture": "東京都",
    "city": "中央区",
    "town": "晴海オフィスタワーＺ（２４階）"
  },
  "1046225": {
    "zipcode": "1046225",
    "prefectureCode": "13",
    "prefectureNumber": 13,
    "prefecture": "東京都",
    "city": "中央区",
    "town": "晴海オフィスタワーＺ（２５階）"
  },
  "1046226": {
    "zipcode": "1046226",
    "prefectureCode": "13",
    "prefectureNumber": 13,
    "prefecture": "東京都",
    "city": "中央区",
    "town": "晴海オフィスタワーＺ（２６階）"
  },
  "1046227": {
    "zipcode": "1046227",
    "prefectureCode": "13",
    "prefectureNumber": 13,
    "prefecture": "東京都",
    "city": "中央区",
    "town": "晴海オフィスタワーＺ（２７階）"
  },
  "1046228": {
    "zipcode": "1046228",
    "prefectureCode": "13",
    "prefectureNumber": 13,
    "prefecture": "東京都",
    "city": "中央区",
    "town": "晴海オフィスタワーＺ（２８階）"
  },
  "1046229": {
    "zipcode": "1046229",
    "prefectureCode": "13",
    "prefectureNumber": 13,
    "prefecture": "東京都",
    "city": "中央区",
    "town": "晴海オフィスタワーＺ（２９階）"
  },
  "1046230": {
    "zipcode": "1046230",
    "prefectureCode": "13",
    "prefectureNumber": 13,
    "prefecture": "東京都",
    "city": "中央区",
    "town": "晴海オフィスタワーＺ（３０階）"
  },
  "1046231": {
    "zipcode": "1046231",
    "prefectureCode": "13",
    "prefectureNumber": 13,
    "prefecture": "東京都",
    "city": "中央区",
    "town": "晴海オフィスタワーＺ（３１階）"
  },
  "1046232": {
    "zipcode": "1046232",
    "prefectureCode": "13",
    "prefectureNumber": 13,
    "prefecture": "東京都",
    "city": "中央区",
    "town": "晴海オフィスタワーＺ（３２階）"
  },
  "1046233": {
    "zipcode": "1046233",
    "prefectureCode": "13",
    "prefectureNumber": 13,
    "prefecture": "東京都",
    "city": "中央区",
    "town": "晴海オフィスタワーＺ（３３階）"
  },
  "1046290": {
    "zipcode": "1046290",
    "prefectureCode": "13",
    "prefectureNumber": 13,
    "prefecture": "東京都",
    "city": "中央区",
    "town": "晴海オフィスタワーＺ（地階・階層不明）"
  }
}
