{
  "1060031": {
    "zipcode": "1060031",
    "prefectureCode": "13",
    "prefectureNumber": 13,
    "prefecture": "東京都",
    "city": "港区",
    "town": "西麻布"
  },
  "1060032": {
    "zipcode": "1060032",
    "prefectureCode": "13",
    "prefectureNumber": 13,
    "prefecture": "東京都",
    "city": "港区",
    "town": "六本木（次のビルを除く）"
  },
  "1060041": {
    "zipcode": "1060041",
    "prefectureCode": "13",
    "prefectureNumber": 13,
    "prefecture": "東京都",
    "city": "港区",
    "town": "麻布台"
  },
  "1060042": {
    "zipcode": "1060042",
    "prefectureCode": "13",
    "prefectureNumber": 13,
    "prefecture": "東京都",
    "city": "港区",
    "town": "麻布狸穴町"
  },
  "1060043": {
    "zipcode": "1060043",
    "prefectureCode": "13",
    "prefectureNumber": 13,
    "prefecture": "東京都",
    "city": "港区",
    "town": "麻布永坂町"
  },
  "1060044": {
    "zipcode": "1060044",
    "prefectureCode": "13",
    "prefectureNumber": 13,
    "prefecture": "東京都",
    "city": "港区",
    "town": "東麻布"
  },
  "1060045": {
    "zipcode": "1060045",
    "prefectureCode": "13",
    "prefectureNumber": 13,
    "prefecture": "東京都",
    "city": "港区",
    "town": "麻布十番"
  },
  "1060046": {
    "zipcode": "1060046",
    "prefectureCode": "13",
    "prefectureNumber": 13,
    "prefecture": "東京都",
    "city": "港区",
    "town": "元麻布"
  },
  "1060047": {
    "zipcode": "1060047",
    "prefectureCode": "13",
    "prefectureNumber": 13,
    "prefecture": "東京都",
    "city": "港区",
    "town": "南麻布"
  },
  "1066001": {
    "zipcode": "1066001",
    "prefectureCode": "13",
    "prefectureNumber": 13,
    "prefecture": "東京都",
    "city": "港区",
    "town": "六本木泉ガーデンタワー（１階）"
  },
  "1066002": {
    "zipcode": "1066002",
    "prefectureCode": "13",
    "prefectureNumber": 13,
    "prefecture": "東京都",
    "city": "港区",
    "town": "六本木泉ガーデンタワー（２階）"
  },
  "1066003": {
    "zipcode": "1066003",
    "prefectureCode": "13",
    "prefectureNumber": 13,
    "prefecture": "東京都",
    "city": "港区",
    "town": "六本木泉ガーデンタワー（３階）"
  },
  "1066004": {
    "zipcode": "1066004",
    "prefectureCode": "13",
    "prefectureNumber": 13,
    "prefecture": "東京都",
    "city": "港区",
    "town": "六本木泉ガーデンタワー（４階）"
  },
  "1066005": {
    "zipcode": "1066005",
    "prefectureCode": "13",
    "prefectureNumber": 13,
    "prefecture": "東京都",
    "city": "港区",
    "town": "六本木泉ガーデンタワー（５階）"
  },
  "1066006": {
    "zipcode": "1066006",
    "prefectureCode": "13",
    "prefectureNumber": 13,
    "prefecture": "東京都",
    "city": "港区",
    "town": "六本木泉ガーデンタワー（６階）"
  },
  "1066007": {
    "zipcode": "1066007",
    "prefectureCode": "13",
    "prefectureNumber": 13,
    "prefecture": "東京都",
    "city": "港区",
    "town": "六本木泉ガーデンタワー（７階）"
  },
  "1066008": {
    "zipcode": "1066008",
    "prefectureCode": "13",
    "prefectureNumber": 13,
    "prefecture": "東京都",
    "city": "港区",
    "town": "六本木泉ガーデンタワー（８階）"
  },
  "1066009": {
    "zipcode": "1066009",
    "prefectureCode": "13",
    "prefectureNumber": 13,
    "prefecture": "東京都",
    "city": "港区",
    "town": "六本木泉ガーデンタワー（９階）"
  },
  "1066010": {
    "zipcode": "1066010",
    "prefectureCode": "13",
    "prefectureNumber": 13,
    "prefecture": "東京都",
    "city": "港区",
    "town": "六本木泉ガーデンタワー（１０階）"
  },
  "1066011": {
    "zipcode": "1066011",
    "prefectureCode": "13",
    "prefectureNumber": 13,
    "prefecture": "東京都",
    "city": "港区",
    "town": "六本木泉ガーデンタワー（１１階）"
  },
  "1066012": {
    "zipcode": "1066012",
    "prefectureCode": "13",
    "prefectureNumber": 13,
    "prefecture": "東京都",
    "city": "港区",
    "town": "六本木泉ガーデンタワー（１２階）"
  },
  "1066013": {
    "zipcode": "1066013",
    "prefectureCode": "13",
    "prefectureNumber": 13,
    "prefecture": "東京都",
    "city": "港区",
    "town": "六本木泉ガーデンタワー（１３階）"
  },
  "1066014": {
    "zipcode": "1066014",
    "prefectureCode": "13",
    "prefectureNumber": 13,
    "prefecture": "東京都",
    "city": "港区",
    "town": "六本木泉ガーデンタワー（１４階）"
  },
  "1066015": {
    "zipcode": "1066015",
    "prefectureCode": "13",
    "prefectureNumber": 13,
    "prefecture": "東京都",
    "city": "港区",
    "town": "六本木泉ガーデンタワー（１５階）"
  },
  "1066016": {
    "zipcode": "1066016",
    "prefectureCode": "13",
    "prefectureNumber": 13,
    "prefecture": "東京都",
    "city": "港区",
    "town": "六本木泉ガーデンタワー（１６階）"
  },
  "1066017": {
    "zipcode": "1066017",
    "prefectureCode": "13",
    "prefectureNumber": 13,
    "prefecture": "東京都",
    "city": "港区",
    "town": "六本木泉ガーデンタワー（１７階）"
  },
  "1066018": {
    "zipcode": "1066018",
    "prefectureCode": "13",
    "prefectureNumber": 13,
    "prefecture": "東京都",
    "city": "港区",
    "town": "六本木泉ガーデンタワー（１８階）"
  },
  "1066019": {
    "zipcode": "1066019",
    "prefectureCode": "13",
    "prefectureNumber": 13,
    "prefecture": "東京都",
    "city": "港区",
    "town": "六本木泉ガーデンタワー（１９階）"
  },
  "1066020": {
    "zipcode": "1066020",
    "prefectureCode": "13",
    "prefectureNumber": 13,
    "prefecture": "東京都",
    "city": "港区",
    "town": "六本木泉ガーデンタワー（２０階）"
  },
  "1066021": {
    "zipcode": "1066021",
    "prefectureCode": "13",
    "prefectureNumber": 13,
    "prefecture": "東京都",
    "city": "港区",
    "town": "六本木泉ガーデンタワー（２１階）"
  },
  "1066022": {
    "zipcode": "1066022",
    "prefectureCode": "13",
    "prefectureNumber": 13,
    "prefecture": "東京都",
    "city": "港区",
    "town": "六本木泉ガーデンタワー（２２階）"
  },
  "1066023": {
    "zipcode": "1066023",
    "prefectureCode": "13",
    "prefectureNumber": 13,
    "prefecture": "東京都",
    "city": "港区",
    "town": "六本木泉ガーデンタワー（２３階）"
  },
  "1066024": {
    "zipcode": "1066024",
    "prefectureCode": "13",
    "prefectureNumber": 13,
    "prefecture": "東京都",
    "city": "港区",
    "town": "六本木泉ガーデンタワー（２４階）"
  },
  "1066025": {
    "zipcode": "1066025",
    "prefectureCode": "13",
    "prefectureNumber": 13,
    "prefecture": "東京都",
    "city": "港区",
    "town": "六本木泉ガーデンタワー（２５階）"
  },
  "1066026": {
    "zipcode": "1066026",
    "prefectureCode": "13",
    "prefectureNumber": 13,
    "prefecture": "東京都",
    "city": "港区",
    "town": "六本木泉ガーデンタワー（２６階）"
  },
  "1066027": {
    "zipcode": "1066027",
    "prefectureCode": "13",
    "prefectureNumber": 13,
    "prefecture": "東京都",
    "city": "港区",
    "town": "六本木泉ガーデンタワー（２７階）"
  },
  "1066028": {
    "zipcode": "1066028",
    "prefectureCode": "13",
    "prefectureNumber": 13,
    "prefecture": "東京都",
    "city": "港区",
    "town": "六本木泉ガーデンタワー（２８階）"
  },
  "1066029": {
    "zipcode": "1066029",
    "prefectureCode": "13",
    "prefectureNumber": 13,
    "prefecture": "東京都",
    "city": "港区",
    "town": "六本木泉ガーデンタワー（２９階）"
  },
  "1066030": {
    "zipcode": "1066030",
    "prefectureCode": "13",
    "prefectureNumber": 13,
    "prefecture": "東京都",
    "city": "港区",
    "town": "六本木泉ガーデンタワー（３０階）"
  },
  "1066031": {
    "zipcode": "1066031",
    "prefectureCode": "13",
    "prefectureNumber": 13,
    "prefecture": "東京都",
    "city": "港区",
    "town": "六本木泉ガーデンタワー（３１階）"
  },
  "1066032": {
    "zipcode": "1066032",
    "prefectureCode": "13",
    "prefectureNumber": 13,
    "prefecture": "東京都",
    "city": "港区",
    "town": "六本木泉ガーデンタワー（３２階）"
  },
  "1066033": {
    "zipcode": "1066033",
    "prefectureCode": "13",
    "prefectureNumber": 13,
    "prefecture": "東京都",
    "city": "港区",
    "town": "六本木泉ガーデンタワー（３３階）"
  },
  "1066034": {
    "zipcode": "1066034",
    "prefectureCode": "13",
    "prefectureNumber": 13,
    "prefecture": "東京都",
    "city": "港区",
    "town": "六本木泉ガーデンタワー（３４階）"
  },
  "1066035": {
    "zipcode": "1066035",
    "prefectureCode": "13",
    "prefectureNumber": 13,
    "prefecture": "東京都",
    "city": "港区",
    "town": "六本木泉ガーデンタワー（３５階）"
  },
  "1066036": {
    "zipcode": "1066036",
    "prefectureCode": "13",
    "prefectureNumber": 13,
    "prefecture": "東京都",
    "city": "港区",
    "town": "六本木泉ガーデンタワー（３６階）"
  },
  "1066037": {
    "zipcode": "1066037",
    "prefectureCode": "13",
    "prefectureNumber": 13,
    "prefecture": "東京都",
    "city": "港区",
    "town": "六本木泉ガーデンタワー（３７階）"
  },
  "1066038": {
    "zipcode": "1066038",
    "prefectureCode": "13",
    "prefectureNumber": 13,
    "prefecture": "東京都",
    "city": "港区",
    "town": "六本木泉ガーデンタワー（３８階）"
  },
  "1066039": {
    "zipcode": "1066039",
    "prefectureCode": "13",
    "prefectureNumber": 13,
    "prefecture": "東京都",
    "city": "港区",
    "town": "六本木泉ガーデンタワー（３９階）"
  },
  "1066040": {
    "zipcode": "1066040",
    "prefectureCode": "13",
    "prefectureNumber": 13,
    "prefecture": "東京都",
    "city": "港区",
    "town": "六本木泉ガーデンタワー（４０階）"
  },
  "1066041": {
    "zipcode": "1066041",
    "prefectureCode": "13",
    "prefectureNumber": 13,
    "prefecture": "東京都",
    "city": "港区",
    "town": "六本木泉ガーデンタワー（４１階）"
  },
  "1066042": {
    "zipcode": "1066042",
    "prefectureCode": "13",
    "prefectureNumber": 13,
    "prefecture": "東京都",
    "city": "港区",
    "town": "六本木泉ガーデンタワー（４２階）"
  },
  "1066043": {
    "zipcode": "1066043",
    "prefectureCode": "13",
    "prefectureNumber": 13,
    "prefecture": "東京都",
    "city": "港区",
    "town": "六本木泉ガーデンタワー（４３階）"
  },
  "1066044": {
    "zipcode": "1066044",
    "prefectureCode": "13",
    "prefectureNumber": 13,
    "prefecture": "東京都",
    "city": "港区",
    "town": "六本木泉ガーデンタワー（４４階）"
  },
  "1066045": {
    "zipcode": "1066045",
    "prefectureCode": "13",
    "prefectureNumber": 13,
    "prefecture": "東京都",
    "city": "港区",
    "town": "六本木泉ガーデンタワー（４５階）"
  },
  "1066090": {
    "zipcode": "1066090",
    "prefectureCode": "13",
    "prefectureNumber": 13,
    "prefecture": "東京都",
    "city": "港区",
    "town": "六本木泉ガーデンタワー（地階・階層不明）"
  },
  "1066101": {
    "zipcode": "1066101",
    "prefectureCode": "13",
    "prefectureNumber": 13,
    "prefecture": "東京都",
    "city": "港区",
    "town": "六本木六本木ヒルズ森タワー（１階）"
  },
  "1066102": {
    "zipcode": "1066102",
    "prefectureCode": "13",
    "prefectureNumber": 13,
    "prefecture": "東京都",
    "city": "港区",
    "town": "六本木六本木ヒルズ森タワー（２階）"
  },
  "1066103": {
    "zipcode": "1066103",
    "prefectureCode": "13",
    "prefectureNumber": 13,
    "prefecture": "東京都",
    "city": "港区",
    "town": "六本木六本木ヒルズ森タワー（３階）"
  },
  "1066104": {
    "zipcode": "1066104",
    "prefectureCode": "13",
    "prefectureNumber": 13,
    "prefecture": "東京都",
    "city": "港区",
    "town": "六本木六本木ヒルズ森タワー（４階）"
  },
  "1066105": {
    "zipcode": "1066105",
    "prefectureCode": "13",
    "prefectureNumber": 13,
    "prefecture": "東京都",
    "city": "港区",
    "town": "六本木六本木ヒルズ森タワー（５階）"
  },
  "1066106": {
    "zipcode": "1066106",
    "prefectureCode": "13",
    "prefectureNumber": 13,
    "prefecture": "東京都",
    "city": "港区",
    "town": "六本木六本木ヒルズ森タワー（６階）"
  },
  "1066107": {
    "zipcode": "1066107",
    "prefectureCode": "13",
    "prefectureNumber": 13,
    "prefecture": "東京都",
    "city": "港区",
    "town": "六本木六本木ヒルズ森タワー（７階）"
  },
  "1066108": {
    "zipcode": "1066108",
    "prefectureCode": "13",
    "prefectureNumber": 13,
    "prefecture": "東京都",
    "city": "港区",
    "town": "六本木六本木ヒルズ森タワー（８階）"
  },
  "1066109": {
    "zipcode": "1066109",
    "prefectureCode": "13",
    "prefectureNumber": 13,
    "prefecture": "東京都",
    "city": "港区",
    "town": "六本木六本木ヒルズ森タワー（９階）"
  },
  "1066110": {
    "zipcode": "1066110",
    "prefectureCode": "13",
    "prefectureNumber": 13,
    "prefecture": "東京都",
    "city": "港区",
    "town": "六本木六本木ヒルズ森タワー（１０階）"
  },
  "1066111": {
    "zipcode": "1066111",
    "prefectureCode": "13",
    "prefectureNumber": 13,
    "prefecture": "東京都",
    "city": "港区",
    "town": "六本木六本木ヒルズ森タワー（１１階）"
  },
  "1066112": {
    "zipcode": "1066112",
    "prefectureCode": "13",
    "prefectureNumber": 13,
    "prefecture": "東京都",
    "city": "港区",
    "town": "六本木六本木ヒルズ森タワー（１２階）"
  },
  "1066113": {
    "zipcode": "1066113",
    "prefectureCode": "13",
    "prefectureNumber": 13,
    "prefecture": "東京都",
    "city": "港区",
    "town": "六本木六本木ヒルズ森タワー（１３階）"
  },
  "1066114": {
    "zipcode": "1066114",
    "prefectureCode": "13",
    "prefectureNumber": 13,
    "prefecture": "東京都",
    "city": "港区",
    "town": "六本木六本木ヒルズ森タワー（１４階）"
  },
  "1066115": {
    "zipcode": "1066115",
    "prefectureCode": "13",
    "prefectureNumber": 13,
    "prefecture": "東京都",
    "city": "港区",
    "town": "六本木六本木ヒルズ森タワー（１５階）"
  },
  "1066116": {
    "zipcode": "1066116",
    "prefectureCode": "13",
    "prefectureNumber": 13,
    "prefecture": "東京都",
    "city": "港区",
    "town": "六本木六本木ヒルズ森タワー（１６階）"
  },
  "1066117": {
    "zipcode": "1066117",
    "prefectureCode": "13",
    "prefectureNumber": 13,
    "prefecture": "東京都",
    "city": "港区",
    "town": "六本木六本木ヒルズ森タワー（１７階）"
  },
  "1066118": {
    "zipcode": "1066118",
    "prefectureCode": "13",
    "prefectureNumber": 13,
    "prefecture": "東京都",
    "city": "港区",
    "town": "六本木六本木ヒルズ森タワー（１８階）"
  },
  "1066119": {
    "zipcode": "1066119",
    "prefectureCode": "13",
    "prefectureNumber": 13,
    "prefecture": "東京都",
    "city": "港区",
    "town": "六本木六本木ヒルズ森タワー（１９階）"
  },
  "1066120": {
    "zipcode": "1066120",
    "prefectureCode": "13",
    "prefectureNumber": 13,
    "prefecture": "東京都",
    "city": "港区",
    "town": "六本木六本木ヒルズ森タワー（２０階）"
  },
  "1066121": {
    "zipcode": "1066121",
    "prefectureCode": "13",
    "prefectureNumber": 13,
    "prefecture": "東京都",
    "city": "港区",
    "town": "六本木六本木ヒルズ森タワー（２１階）"
  },
  "1066122": {
    "zipcode": "1066122",
    "prefectureCode": "13",
    "prefectureNumber": 13,
    "prefecture": "東京都",
    "city": "港区",
    "town": "六本木六本木ヒルズ森タワー（２２階）"
  },
  "1066123": {
    "zipcode": "1066123",
    "prefectureCode": "13",
    "prefectureNumber": 13,
    "prefecture": "東京都",
    "city": "港区",
    "town": "六本木六本木ヒルズ森タワー（２３階）"
  },
  "1066124": {
    "zipcode": "1066124",
    "prefectureCode": "13",
    "prefectureNumber": 13,
    "prefecture": "東京都",
    "city": "港区",
    "town": "六本木六本木ヒルズ森タワー（２４階）"
  },
  "1066125": {
    "zipcode": "1066125",
    "prefectureCode": "13",
    "prefectureNumber": 13,
    "prefecture": "東京都",
    "city": "港区",
    "town": "六本木六本木ヒルズ森タワー（２５階）"
  },
  "1066126": {
    "zipcode": "1066126",
    "prefectureCode": "13",
    "prefectureNumber": 13,
    "prefecture": "東京都",
    "city": "港区",
    "town": "六本木六本木ヒルズ森タワー（２６階）"
  },
  "1066127": {
    "zipcode": "1066127",
    "prefectureCode": "13",
    "prefectureNumber": 13,
    "prefecture": "東京都",
    "city": "港区",
    "town": "六本木六本木ヒルズ森タワー（２７階）"
  },
  "1066128": {
    "zipcode": "1066128",
    "prefectureCode": "13",
    "prefectureNumber": 13,
    "prefecture": "東京都",
    "city": "港区",
    "town": "六本木六本木ヒルズ森タワー（２８階）"
  },
  "1066129": {
    "zipcode": "1066129",
    "prefectureCode": "13",
    "prefectureNumber": 13,
    "prefecture": "東京都",
    "city": "港区",
    "town": "六本木六本木ヒルズ森タワー（２９階）"
  },
  "1066130": {
    "zipcode": "1066130",
    "prefectureCode": "13",
    "prefectureNumber": 13,
    "prefecture": "東京都",
    "city": "港区",
    "town": "六本木六本木ヒルズ森タワー（３０階）"
  },
  "1066131": {
    "zipcode": "1066131",
    "prefectureCode": "13",
    "prefectureNumber": 13,
    "prefecture": "東京都",
    "city": "港区",
    "town": "六本木六本木ヒルズ森タワー（３１階）"
  },
  "1066132": {
    "zipcode": "1066132",
    "prefectureCode": "13",
    "prefectureNumber": 13,
    "prefecture": "東京都",
    "city": "港区",
    "town": "六本木六本木ヒルズ森タワー（３２階）"
  },
  "1066133": {
    "zipcode": "1066133",
    "prefectureCode": "13",
    "prefectureNumber": 13,
    "prefecture": "東京都",
    "city": "港区",
    "town": "六本木六本木ヒルズ森タワー（３３階）"
  },
  "1066134": {
    "zipcode": "1066134",
    "prefectureCode": "13",
    "prefectureNumber": 13,
    "prefecture": "東京都",
    "city": "港区",
    "town": "六本木六本木ヒルズ森タワー（３４階）"
  },
  "1066135": {
    "zipcode": "1066135",
    "prefectureCode": "13",
    "prefectureNumber": 13,
    "prefecture": "東京都",
    "city": "港区",
    "town": "六本木六本木ヒルズ森タワー（３５階）"
  },
  "1066136": {
    "zipcode": "1066136",
    "prefectureCode": "13",
    "prefectureNumber": 13,
    "prefecture": "東京都",
    "city": "港区",
    "town": "六本木六本木ヒルズ森タワー（３６階）"
  },
  "1066137": {
    "zipcode": "1066137",
    "prefectureCode": "13",
    "prefectureNumber": 13,
    "prefecture": "東京都",
    "city": "港区",
    "town": "六本木六本木ヒルズ森タワー（３７階）"
  },
  "1066138": {
    "zipcode": "1066138",
    "prefectureCode": "13",
    "prefectureNumber": 13,
    "prefecture": "東京都",
    "city": "港区",
    "town": "六本木六本木ヒルズ森タワー（３８階）"
  },
  "1066139": {
    "zipcode": "1066139",
    "prefectureCode": "13",
    "prefectureNumber": 13,
    "prefecture": "東京都",
    "city": "港区",
    "town": "六本木六本木ヒルズ森タワー（３９階）"
  },
  "1066140": {
    "zipcode": "1066140",
    "prefectureCode": "13",
    "prefectureNumber": 13,
    "prefecture": "東京都",
    "city": "港区",
    "town": "六本木六本木ヒルズ森タワー（４０階）"
  },
  "1066141": {
    "zipcode": "1066141",
    "prefectureCode": "13",
    "prefectureNumber": 13,
    "prefecture": "東京都",
    "city": "港区",
    "town": "六本木六本木ヒルズ森タワー（４１階）"
  },
  "1066142": {
    "zipcode": "1066142",
    "prefectureCode": "13",
    "prefectureNumber": 13,
    "prefecture": "東京都",
    "city": "港区",
    "town": "六本木六本木ヒルズ森タワー（４２階）"
  },
  "1066143": {
    "zipcode": "1066143",
    "prefectureCode": "13",
    "prefectureNumber": 13,
    "prefecture": "東京都",
    "city": "港区",
    "town": "六本木六本木ヒルズ森タワー（４３階）"
  },
  "1066144": {
    "zipcode": "1066144",
    "prefectureCode": "13",
    "prefectureNumber": 13,
    "prefecture": "東京都",
    "city": "港区",
    "town": "六本木六本木ヒルズ森タワー（４４階）"
  },
  "1066145": {
    "zipcode": "1066145",
    "prefectureCode": "13",
    "prefectureNumber": 13,
    "prefecture": "東京都",
    "city": "港区",
    "town": "六本木六本木ヒルズ森タワー（４５階）"
  },
  "1066146": {
    "zipcode": "1066146",
    "prefectureCode": "13",
    "prefectureNumber": 13,
    "prefecture": "東京都",
    "city": "港区",
    "town": "六本木六本木ヒルズ森タワー（４６階）"
  },
  "1066147": {
    "zipcode": "1066147",
    "prefectureCode": "13",
    "prefectureNumber": 13,
    "prefecture": "東京都",
    "city": "港区",
    "town": "六本木六本木ヒルズ森タワー（４７階）"
  },
  "1066148": {
    "zipcode": "1066148",
    "prefectureCode": "13",
    "prefectureNumber": 13,
    "prefecture": "東京都",
    "city": "港区",
    "town": "六本木六本木ヒルズ森タワー（４８階）"
  },
  "1066149": {
    "zipcode": "1066149",
    "prefectureCode": "13",
    "prefectureNumber": 13,
    "prefecture": "東京都",
    "city": "港区",
    "town": "六本木六本木ヒルズ森タワー（４９階）"
  },
  "1066150": {
    "zipcode": "1066150",
    "prefectureCode": "13",
    "prefectureNumber": 13,
    "prefecture": "東京都",
    "city": "港区",
    "town": "六本木六本木ヒルズ森タワー（５０階）"
  },
  "1066151": {
    "zipcode": "1066151",
    "prefectureCode": "13",
    "prefectureNumber": 13,
    "prefecture": "東京都",
    "city": "港区",
    "town": "六本木六本木ヒルズ森タワー（５１階）"
  },
  "1066152": {
    "zipcode": "1066152",
    "prefectureCode": "13",
    "prefectureNumber": 13,
    "prefecture": "東京都",
    "city": "港区",
    "town": "六本木六本木ヒルズ森タワー（５２階）"
  },
  "1066153": {
    "zipcode": "1066153",
    "prefectureCode": "13",
    "prefectureNumber": 13,
    "prefecture": "東京都",
    "city": "港区",
    "town": "六本木六本木ヒルズ森タワー（５３階）"
  },
  "1066154": {
    "zipcode": "1066154",
    "prefectureCode": "13",
    "prefectureNumber": 13,
    "prefecture": "東京都",
    "city": "港区",
    "town": "六本木六本木ヒルズ森タワー（５４階）"
  },
  "1066190": {
    "zipcode": "1066190",
    "prefectureCode": "13",
    "prefectureNumber": 13,
    "prefecture": "東京都",
    "city": "港区",
    "town": "六本木六本木ヒルズ森タワー（地階・階層不明）"
  },
  "1066201": {
    "zipcode": "1066201",
    "prefectureCode": "13",
    "prefectureNumber": 13,
    "prefecture": "東京都",
    "city": "港区",
    "town": "六本木住友不動産六本木グランドタワー（１階）"
  },
  "1066202": {
    "zipcode": "1066202",
    "prefectureCode": "13",
    "prefectureNumber": 13,
    "prefecture": "東京都",
    "city": "港区",
    "town": "六本木住友不動産六本木グランドタワー（２階）"
  },
  "1066203": {
    "zipcode": "1066203",
    "prefectureCode": "13",
    "prefectureNumber": 13,
    "prefecture": "東京都",
    "city": "港区",
    "town": "六本木住友不動産六本木グランドタワー（３階）"
  },
  "1066204": {
    "zipcode": "1066204",
    "prefectureCode": "13",
    "prefectureNumber": 13,
    "prefecture": "東京都",
    "city": "港区",
    "town": "六本木住友不動産六本木グランドタワー（４階）"
  },
  "1066205": {
    "zipcode": "1066205",
    "prefectureCode": "13",
    "prefectureNumber": 13,
    "prefecture": "東京都",
    "city": "港区",
    "town": "六本木住友不動産六本木グランドタワー（５階）"
  },
  "1066206": {
    "zipcode": "1066206",
    "prefectureCode": "13",
    "prefectureNumber": 13,
    "prefecture": "東京都",
    "city": "港区",
    "town": "六本木住友不動産六本木グランドタワー（６階）"
  },
  "1066207": {
    "zipcode": "1066207",
    "prefectureCode": "13",
    "prefectureNumber": 13,
    "prefecture": "東京都",
    "city": "港区",
    "town": "六本木住友不動産六本木グランドタワー（７階）"
  },
  "1066208": {
    "zipcode": "1066208",
    "prefectureCode": "13",
    "prefectureNumber": 13,
    "prefecture": "東京都",
    "city": "港区",
    "town": "六本木住友不動産六本木グランドタワー（８階）"
  },
  "1066209": {
    "zipcode": "1066209",
    "prefectureCode": "13",
    "prefectureNumber": 13,
    "prefecture": "東京都",
    "city": "港区",
    "town": "六本木住友不動産六本木グランドタワー（９階）"
  },
  "1066210": {
    "zipcode": "1066210",
    "prefectureCode": "13",
    "prefectureNumber": 13,
    "prefecture": "東京都",
    "city": "港区",
    "town": "六本木住友不動産六本木グランドタワー（１０階）"
  },
  "1066211": {
    "zipcode": "1066211",
    "prefectureCode": "13",
    "prefectureNumber": 13,
    "prefecture": "東京都",
    "city": "港区",
    "town": "六本木住友不動産六本木グランドタワー（１１階）"
  },
  "1066212": {
    "zipcode": "1066212",
    "prefectureCode": "13",
    "prefectureNumber": 13,
    "prefecture": "東京都",
    "city": "港区",
    "town": "六本木住友不動産六本木グランドタワー（１２階）"
  },
  "1066213": {
    "zipcode": "1066213",
    "prefectureCode": "13",
    "prefectureNumber": 13,
    "prefecture": "東京都",
    "city": "港区",
    "town": "六本木住友不動産六本木グランドタワー（１３階）"
  },
  "1066214": {
    "zipcode": "1066214",
    "prefectureCode": "13",
    "prefectureNumber": 13,
    "prefecture": "東京都",
    "city": "港区",
    "town": "六本木住友不動産六本木グランドタワー（１４階）"
  },
  "1066215": {
    "zipcode": "1066215",
    "prefectureCode": "13",
    "prefectureNumber": 13,
    "prefecture": "東京都",
    "city": "港区",
    "town": "六本木住友不動産六本木グランドタワー（１５階）"
  },
  "1066216": {
    "zipcode": "1066216",
    "prefectureCode": "13",
    "prefectureNumber": 13,
    "prefecture": "東京都",
    "city": "港区",
    "town": "六本木住友不動産六本木グランドタワー（１６階）"
  },
  "1066217": {
    "zipcode": "1066217",
    "prefectureCode": "13",
    "prefectureNumber": 13,
    "prefecture": "東京都",
    "city": "港区",
    "town": "六本木住友不動産六本木グランドタワー（１７階）"
  },
  "1066218": {
    "zipcode": "1066218",
    "prefectureCode": "13",
    "prefectureNumber": 13,
    "prefecture": "東京都",
    "city": "港区",
    "town": "六本木住友不動産六本木グランドタワー（１８階）"
  },
  "1066219": {
    "zipcode": "1066219",
    "prefectureCode": "13",
    "prefectureNumber": 13,
    "prefecture": "東京都",
    "city": "港区",
    "town": "六本木住友不動産六本木グランドタワー（１９階）"
  },
  "1066220": {
    "zipcode": "1066220",
    "prefectureCode": "13",
    "prefectureNumber": 13,
    "prefecture": "東京都",
    "city": "港区",
    "town": "六本木住友不動産六本木グランドタワー（２０階）"
  },
  "1066221": {
    "zipcode": "1066221",
    "prefectureCode": "13",
    "prefectureNumber": 13,
    "prefecture": "東京都",
    "city": "港区",
    "town": "六本木住友不動産六本木グランドタワー（２１階）"
  },
  "1066222": {
    "zipcode": "1066222",
    "prefectureCode": "13",
    "prefectureNumber": 13,
    "prefecture": "東京都",
    "city": "港区",
    "town": "六本木住友不動産六本木グランドタワー（２２階）"
  },
  "1066223": {
    "zipcode": "1066223",
    "prefectureCode": "13",
    "prefectureNumber": 13,
    "prefecture": "東京都",
    "city": "港区",
    "town": "六本木住友不動産六本木グランドタワー（２３階）"
  },
  "1066224": {
    "zipcode": "1066224",
    "prefectureCode": "13",
    "prefectureNumber": 13,
    "prefecture": "東京都",
    "city": "港区",
    "town": "六本木住友不動産六本木グランドタワー（２４階）"
  },
  "1066225": {
    "zipcode": "1066225",
    "prefectureCode": "13",
    "prefectureNumber": 13,
    "prefecture": "東京都",
    "city": "港区",
    "town": "六本木住友不動産六本木グランドタワー（２５階）"
  },
  "1066226": {
    "zipcode": "1066226",
    "prefectureCode": "13",
    "prefectureNumber": 13,
    "prefecture": "東京都",
    "city": "港区",
    "town": "六本木住友不動産六本木グランドタワー（２６階）"
  },
  "1066227": {
    "zipcode": "1066227",
    "prefectureCode": "13",
    "prefectureNumber": 13,
    "prefecture": "東京都",
    "city": "港区",
    "town": "六本木住友不動産六本木グランドタワー（２７階）"
  },
  "1066228": {
    "zipcode": "1066228",
    "prefectureCode": "13",
    "prefectureNumber": 13,
    "prefecture": "東京都",
    "city": "港区",
    "town": "六本木住友不動産六本木グランドタワー（２８階）"
  },
  "1066229": {
    "zipcode": "1066229",
    "prefectureCode": "13",
    "prefectureNumber": 13,
    "prefecture": "東京都",
    "city": "港区",
    "town": "六本木住友不動産六本木グランドタワー（２９階）"
  },
  "1066230": {
    "zipcode": "1066230",
    "prefectureCode": "13",
    "prefectureNumber": 13,
    "prefecture": "東京都",
    "city": "港区",
    "town": "六本木住友不動産六本木グランドタワー（３０階）"
  },
  "1066231": {
    "zipcode": "1066231",
    "prefectureCode": "13",
    "prefectureNumber": 13,
    "prefecture": "東京都",
    "city": "港区",
    "town": "六本木住友不動産六本木グランドタワー（３１階）"
  },
  "1066232": {
    "zipcode": "1066232",
    "prefectureCode": "13",
    "prefectureNumber": 13,
    "prefecture": "東京都",
    "city": "港区",
    "town": "六本木住友不動産六本木グランドタワー（３２階）"
  },
  "1066233": {
    "zipcode": "1066233",
    "prefectureCode": "13",
    "prefectureNumber": 13,
    "prefecture": "東京都",
    "city": "港区",
    "town": "六本木住友不動産六本木グランドタワー（３３階）"
  },
  "1066234": {
    "zipcode": "1066234",
    "prefectureCode": "13",
    "prefectureNumber": 13,
    "prefecture": "東京都",
    "city": "港区",
    "town": "六本木住友不動産六本木グランドタワー（３４階）"
  },
  "1066235": {
    "zipcode": "1066235",
    "prefectureCode": "13",
    "prefectureNumber": 13,
    "prefecture": "東京都",
    "city": "港区",
    "town": "六本木住友不動産六本木グランドタワー（３５階）"
  },
  "1066236": {
    "zipcode": "1066236",
    "prefectureCode": "13",
    "prefectureNumber": 13,
    "prefecture": "東京都",
    "city": "港区",
    "town": "六本木住友不動産六本木グランドタワー（３６階）"
  },
  "1066237": {
    "zipcode": "1066237",
    "prefectureCode": "13",
    "prefectureNumber": 13,
    "prefecture": "東京都",
    "city": "港区",
    "town": "六本木住友不動産六本木グランドタワー（３７階）"
  },
  "1066238": {
    "zipcode": "1066238",
    "prefectureCode": "13",
    "prefectureNumber": 13,
    "prefecture": "東京都",
    "city": "港区",
    "town": "六本木住友不動産六本木グランドタワー（３８階）"
  },
  "1066239": {
    "zipcode": "1066239",
    "prefectureCode": "13",
    "prefectureNumber": 13,
    "prefecture": "東京都",
    "city": "港区",
    "town": "六本木住友不動産六本木グランドタワー（３９階）"
  },
  "1066240": {
    "zipcode": "1066240",
    "prefectureCode": "13",
    "prefectureNumber": 13,
    "prefecture": "東京都",
    "city": "港区",
    "town": "六本木住友不動産六本木グランドタワー（４０階）"
  },
  "1066241": {
    "zipcode": "1066241",
    "prefectureCode": "13",
    "prefectureNumber": 13,
    "prefecture": "東京都",
    "city": "港区",
    "town": "六本木住友不動産六本木グランドタワー（４１階）"
  },
  "1066242": {
    "zipcode": "1066242",
    "prefectureCode": "13",
    "prefectureNumber": 13,
    "prefecture": "東京都",
    "city": "港区",
    "town": "六本木住友不動産六本木グランドタワー（４２階）"
  },
  "1066243": {
    "zipcode": "1066243",
    "prefectureCode": "13",
    "prefectureNumber": 13,
    "prefecture": "東京都",
    "city": "港区",
    "town": "六本木住友不動産六本木グランドタワー（４３階）"
  },
  "1066290": {
    "zipcode": "1066290",
    "prefectureCode": "13",
    "prefectureNumber": 13,
    "prefecture": "東京都",
    "city": "港区",
    "town": "六本木住友不動産六本木グランドタワー（地階・階層不明）"
  }
}
