{
  "1070051": {
    "zipcode": "1070051",
    "prefectureCode": "13",
    "prefectureNumber": 13,
    "prefecture": "東京都",
    "city": "港区",
    "town": "元赤坂"
  },
  "1070052": {
    "zipcode": "1070052",
    "prefectureCode": "13",
    "prefectureNumber": 13,
    "prefecture": "東京都",
    "city": "港区",
    "town": "赤坂（次のビルを除く）"
  },
  "1070061": {
    "zipcode": "1070061",
    "prefectureCode": "13",
    "prefectureNumber": 13,
    "prefecture": "東京都",
    "city": "港区",
    "town": "北青山"
  },
  "1070062": {
    "zipcode": "1070062",
    "prefectureCode": "13",
    "prefectureNumber": 13,
    "prefecture": "東京都",
    "city": "港区",
    "town": "南青山"
  },
  "1076001": {
    "zipcode": "1076001",
    "prefectureCode": "13",
    "prefectureNumber": 13,
    "prefecture": "東京都",
    "city": "港区",
    "town": "赤坂赤坂アークヒルズ・アーク森ビル（１階）"
  },
  "1076002": {
    "zipcode": "1076002",
    "prefectureCode": "13",
    "prefectureNumber": 13,
    "prefecture": "東京都",
    "city": "港区",
    "town": "赤坂赤坂アークヒルズ・アーク森ビル（２階）"
  },
  "1076003": {
    "zipcode": "1076003",
    "prefectureCode": "13",
    "prefectureNumber": 13,
    "prefecture": "東京都",
    "city": "港区",
    "town": "赤坂赤坂アークヒルズ・アーク森ビル（３階）"
  },
  "1076004": {
    "zipcode": "1076004",
    "prefectureCode": "13",
    "prefectureNumber": 13,
    "prefecture": "東京都",
    "city": "港区",
    "town": "赤坂赤坂アークヒルズ・アーク森ビル（４階）"
  },
  "1076005": {
    "zipcode": "1076005",
    "prefectureCode": "13",
    "prefectureNumber": 13,
    "prefecture": "東京都",
    "city": "港区",
    "town": "赤坂赤坂アークヒルズ・アーク森ビル（５階）"
  },
  "1076006": {
    "zipcode": "1076006",
    "prefectureCode": "13",
    "prefectureNumber": 13,
    "prefecture": "東京都",
    "city": "港区",
    "town": "赤坂赤坂アークヒルズ・アーク森ビル（６階）"
  },
  "1076007": {
    "zipcode": "1076007",
    "prefectureCode": "13",
    "prefectureNumber": 13,
    "prefecture": "東京都",
    "city": "港区",
    "town": "赤坂赤坂アークヒルズ・アーク森ビル（７階）"
  },
  "1076008": {
    "zipcode": "1076008",
    "prefectureCode": "13",
    "prefectureNumber": 13,
    "prefecture": "東京都",
    "city": "港区",
    "town": "赤坂赤坂アークヒルズ・アーク森ビル（８階）"
  },
  "1076009": {
    "zipcode": "1076009",
    "prefectureCode": "13",
    "prefectureNumber": 13,
    "prefecture": "東京都",
    "city": "港区",
    "town": "赤坂赤坂アークヒルズ・アーク森ビル（９階）"
  },
  "1076010": {
    "zipcode": "1076010",
    "prefectureCode": "13",
    "prefectureNumber": 13,
    "prefecture": "東京都",
    "city": "港区",
    "town": "赤坂赤坂アークヒルズ・アーク森ビル（１０階）"
  },
  "1076011": {
    "zipcode": "1076011",
    "prefectureCode": "13",
    "prefectureNumber": 13,
    "prefecture": "東京都",
    "city": "港区",
    "town": "赤坂赤坂アークヒルズ・アーク森ビル（１１階）"
  },
  "1076012": {
    "zipcode": "1076012",
    "prefectureCode": "13",
    "prefectureNumber": 13,
    "prefecture": "東京都",
    "city": "港区",
    "town": "赤坂赤坂アークヒルズ・アーク森ビル（１２階）"
  },
  "1076013": {
    "zipcode": "1076013",
    "prefectureCode": "13",
    "prefectureNumber": 13,
    "prefecture": "東京都",
    "city": "港区",
    "town": "赤坂赤坂アークヒルズ・アーク森ビル（１３階）"
  },
  "1076014": {
    "zipcode": "1076014",
    "prefectureCode": "13",
    "prefectureNumber": 13,
    "prefecture": "東京都",
    "city": "港区",
    "town": "赤坂赤坂アークヒルズ・アーク森ビル（１４階）"
  },
  "1076015": {
    "zipcode": "1076015",
    "prefectureCode": "13",
    "prefectureNumber": 13,
    "prefecture": "東京都",
    "city": "港区",
    "town": "赤坂赤坂アークヒルズ・アーク森ビル（１５階）"
  },
  "1076016": {
    "zipcode": "1076016",
    "prefectureCode": "13",
    "prefectureNumber": 13,
    "prefecture": "東京都",
    "city": "港区",
    "town": "赤坂赤坂アークヒルズ・アーク森ビル（１６階）"
  },
  "1076017": {
    "zipcode": "1076017",
    "prefectureCode": "13",
    "prefectureNumber": 13,
    "prefecture": "東京都",
    "city": "港区",
    "town": "赤坂赤坂アークヒルズ・アーク森ビル（１７階）"
  },
  "1076018": {
    "zipcode": "1076018",
    "prefectureCode": "13",
    "prefectureNumber": 13,
    "prefecture": "東京都",
    "city": "港区",
    "town": "赤坂赤坂アークヒルズ・アーク森ビル（１８階）"
  },
  "1076019": {
    "zipcode": "1076019",
    "prefectureCode": "13",
    "prefectureNumber": 13,
    "prefecture": "東京都",
    "city": "港区",
    "town": "赤坂赤坂アークヒルズ・アーク森ビル（１９階）"
  },
  "1076020": {
    "zipcode": "1076020",
    "prefectureCode": "13",
    "prefectureNumber": 13,
    "prefecture": "東京都",
    "city": "港区",
    "town": "赤坂赤坂アークヒルズ・アーク森ビル（２０階）"
  },
  "1076021": {
    "zipcode": "1076021",
    "prefectureCode": "13",
    "prefectureNumber": 13,
    "prefecture": "東京都",
    "city": "港区",
    "town": "赤坂赤坂アークヒルズ・アーク森ビル（２１階）"
  },
  "1076022": {
    "zipcode": "1076022",
    "prefectureCode": "13",
    "prefectureNumber": 13,
    "prefecture": "東京都",
    "city": "港区",
    "town": "赤坂赤坂アークヒルズ・アーク森ビル（２２階）"
  },
  "1076023": {
    "zipcode": "1076023",
    "prefectureCode": "13",
    "prefectureNumber": 13,
    "prefecture": "東京都",
    "city": "港区",
    "town": "赤坂赤坂アークヒルズ・アーク森ビル（２３階）"
  },
  "1076024": {
    "zipcode": "1076024",
    "prefectureCode": "13",
    "prefectureNumber": 13,
    "prefecture": "東京都",
    "city": "港区",
    "town": "赤坂赤坂アークヒルズ・アーク森ビル（２４階）"
  },
  "1076025": {
    "zipcode": "1076025",
    "prefectureCode": "13",
    "prefectureNumber": 13,
    "prefecture": "東京都",
    "city": "港区",
    "town": "赤坂赤坂アークヒルズ・アーク森ビル（２５階）"
  },
  "1076026": {
    "zipcode": "1076026",
    "prefectureCode": "13",
    "prefectureNumber": 13,
    "prefecture": "東京都",
    "city": "港区",
    "town": "赤坂赤坂アークヒルズ・アーク森ビル（２６階）"
  },
  "1076027": {
    "zipcode": "1076027",
    "prefectureCode": "13",
    "prefectureNumber": 13,
    "prefecture": "東京都",
    "city": "港区",
    "town": "赤坂赤坂アークヒルズ・アーク森ビル（２７階）"
  },
  "1076028": {
    "zipcode": "1076028",
    "prefectureCode": "13",
    "prefectureNumber": 13,
    "prefecture": "東京都",
    "city": "港区",
    "town": "赤坂赤坂アークヒルズ・アーク森ビル（２８階）"
  },
  "1076029": {
    "zipcode": "1076029",
    "prefectureCode": "13",
    "prefectureNumber": 13,
    "prefecture": "東京都",
    "city": "港区",
    "town": "赤坂赤坂アークヒルズ・アーク森ビル（２９階）"
  },
  "1076030": {
    "zipcode": "1076030",
    "prefectureCode": "13",
    "prefectureNumber": 13,
    "prefecture": "東京都",
    "city": "港区",
    "town": "赤坂赤坂アークヒルズ・アーク森ビル（３０階）"
  },
  "1076031": {
    "zipcode": "1076031",
    "prefectureCode": "13",
    "prefectureNumber": 13,
    "prefecture": "東京都",
    "city": "港区",
    "town": "赤坂赤坂アークヒルズ・アーク森ビル（３１階）"
  },
  "1076032": {
    "zipcode": "1076032",
    "prefectureCode": "13",
    "prefectureNumber": 13,
    "prefecture": "東京都",
    "city": "港区",
    "town": "赤坂赤坂アークヒルズ・アーク森ビル（３２階）"
  },
  "1076033": {
    "zipcode": "1076033",
    "prefectureCode": "13",
    "prefectureNumber": 13,
    "prefecture": "東京都",
    "city": "港区",
    "town": "赤坂赤坂アークヒルズ・アーク森ビル（３３階）"
  },
  "1076034": {
    "zipcode": "1076034",
    "prefectureCode": "13",
    "prefectureNumber": 13,
    "prefecture": "東京都",
    "city": "港区",
    "town": "赤坂赤坂アークヒルズ・アーク森ビル（３４階）"
  },
  "1076035": {
    "zipcode": "1076035",
    "prefectureCode": "13",
    "prefectureNumber": 13,
    "prefecture": "東京都",
    "city": "港区",
    "town": "赤坂赤坂アークヒルズ・アーク森ビル（３５階）"
  },
  "1076036": {
    "zipcode": "1076036",
    "prefectureCode": "13",
    "prefectureNumber": 13,
    "prefecture": "東京都",
    "city": "港区",
    "town": "赤坂赤坂アークヒルズ・アーク森ビル（３６階）"
  },
  "1076037": {
    "zipcode": "1076037",
    "prefectureCode": "13",
    "prefectureNumber": 13,
    "prefecture": "東京都",
    "city": "港区",
    "town": "赤坂赤坂アークヒルズ・アーク森ビル（３７階）"
  },
  "1076090": {
    "zipcode": "1076090",
    "prefectureCode": "13",
    "prefectureNumber": 13,
    "prefecture": "東京都",
    "city": "港区",
    "town": "赤坂赤坂アークヒルズ・アーク森ビル（地階・階層不明）"
  },
  "1076101": {
    "zipcode": "1076101",
    "prefectureCode": "13",
    "prefectureNumber": 13,
    "prefecture": "東京都",
    "city": "港区",
    "town": "赤坂赤坂パークビル（１階）"
  },
  "1076102": {
    "zipcode": "1076102",
    "prefectureCode": "13",
    "prefectureNumber": 13,
    "prefecture": "東京都",
    "city": "港区",
    "town": "赤坂赤坂パークビル（２階）"
  },
  "1076103": {
    "zipcode": "1076103",
    "prefectureCode": "13",
    "prefectureNumber": 13,
    "prefecture": "東京都",
    "city": "港区",
    "town": "赤坂赤坂パークビル（３階）"
  },
  "1076104": {
    "zipcode": "1076104",
    "prefectureCode": "13",
    "prefectureNumber": 13,
    "prefecture": "東京都",
    "city": "港区",
    "town": "赤坂赤坂パークビル（４階）"
  },
  "1076105": {
    "zipcode": "1076105",
    "prefectureCode": "13",
    "prefectureNumber": 13,
    "prefecture": "東京都",
    "city": "港区",
    "town": "赤坂赤坂パークビル（５階）"
  },
  "1076106": {
    "zipcode": "1076106",
    "prefectureCode": "13",
    "prefectureNumber": 13,
    "prefecture": "東京都",
    "city": "港区",
    "town": "赤坂赤坂パークビル（６階）"
  },
  "1076107": {
    "zipcode": "1076107",
    "prefectureCode": "13",
    "prefectureNumber": 13,
    "prefecture": "東京都",
    "city": "港区",
    "town": "赤坂赤坂パークビル（７階）"
  },
  "1076108": {
    "zipcode": "1076108",
    "prefectureCode": "13",
    "prefectureNumber": 13,
    "prefecture": "東京都",
    "city": "港区",
    "town": "赤坂赤坂パークビル（８階）"
  },
  "1076109": {
    "zipcode": "1076109",
    "prefectureCode": "13",
    "prefectureNumber": 13,
    "prefecture": "東京都",
    "city": "港区",
    "town": "赤坂赤坂パークビル（９階）"
  },
  "1076110": {
    "zipcode": "1076110",
    "prefectureCode": "13",
    "prefectureNumber": 13,
    "prefecture": "東京都",
    "city": "港区",
    "town": "赤坂赤坂パークビル（１０階）"
  },
  "1076111": {
    "zipcode": "1076111",
    "prefectureCode": "13",
    "prefectureNumber": 13,
    "prefecture": "東京都",
    "city": "港区",
    "town": "赤坂赤坂パークビル（１１階）"
  },
  "1076112": {
    "zipcode": "1076112",
    "prefectureCode": "13",
    "prefectureNumber": 13,
    "prefecture": "東京都",
    "city": "港区",
    "town": "赤坂赤坂パークビル（１２階）"
  },
  "1076113": {
    "zipcode": "1076113",
    "prefectureCode": "13",
    "prefectureNumber": 13,
    "prefecture": "東京都",
    "city": "港区",
    "town": "赤坂赤坂パークビル（１３階）"
  },
  "1076114": {
    "zipcode": "1076114",
    "prefectureCode": "13",
    "prefectureNumber": 13,
    "prefecture": "東京都",
    "city": "港区",
    "town": "赤坂赤坂パークビル（１４階）"
  },
  "1076115": {
    "zipcode": "1076115",
    "prefectureCode": "13",
    "prefectureNumber": 13,
    "prefecture": "東京都",
    "city": "港区",
    "town": "赤坂赤坂パークビル（１５階）"
  },
  "1076116": {
    "zipcode": "1076116",
    "prefectureCode": "13",
    "prefectureNumber": 13,
    "prefecture": "東京都",
    "city": "港区",
    "town": "赤坂赤坂パークビル（１６階）"
  },
  "1076117": {
    "zipcode": "1076117",
    "prefectureCode": "13",
    "prefectureNumber": 13,
    "prefecture": "東京都",
    "city": "港区",
    "town": "赤坂赤坂パークビル（１７階）"
  },
  "1076118": {
    "zipcode": "1076118",
    "prefectureCode": "13",
    "prefectureNumber": 13,
    "prefecture": "東京都",
    "city": "港区",
    "town": "赤坂赤坂パークビル（１８階）"
  },
  "1076119": {
    "zipcode": "1076119",
    "prefectureCode": "13",
    "prefectureNumber": 13,
    "prefecture": "東京都",
    "city": "港区",
    "town": "赤坂赤坂パークビル（１９階）"
  },
  "1076120": {
    "zipcode": "1076120",
    "prefectureCode": "13",
    "prefectureNumber": 13,
    "prefecture": "東京都",
    "city": "港区",
    "town": "赤坂赤坂パークビル（２０階）"
  },
  "1076121": {
    "zipcode": "1076121",
    "prefectureCode": "13",
    "prefectureNumber": 13,
    "prefecture": "東京都",
    "city": "港区",
    "town": "赤坂赤坂パークビル（２１階）"
  },
  "1076122": {
    "zipcode": "1076122",
    "prefectureCode": "13",
    "prefectureNumber": 13,
    "prefecture": "東京都",
    "city": "港区",
    "town": "赤坂赤坂パークビル（２２階）"
  },
  "1076123": {
    "zipcode": "1076123",
    "prefectureCode": "13",
    "prefectureNumber": 13,
    "prefecture": "東京都",
    "city": "港区",
    "town": "赤坂赤坂パークビル（２３階）"
  },
  "1076124": {
    "zipcode": "1076124",
    "prefectureCode": "13",
    "prefectureNumber": 13,
    "prefecture": "東京都",
    "city": "港区",
    "town": "赤坂赤坂パークビル（２４階）"
  },
  "1076125": {
    "zipcode": "1076125",
    "prefectureCode": "13",
    "prefectureNumber": 13,
    "prefecture": "東京都",
    "city": "港区",
    "town": "赤坂赤坂パークビル（２５階）"
  },
  "1076126": {
    "zipcode": "1076126",
    "prefectureCode": "13",
    "prefectureNumber": 13,
    "prefecture": "東京都",
    "city": "港区",
    "town": "赤坂赤坂パークビル（２６階）"
  },
  "1076127": {
    "zipcode": "1076127",
    "prefectureCode": "13",
    "prefectureNumber": 13,
    "prefecture": "東京都",
    "city": "港区",
    "town": "赤坂赤坂パークビル（２７階）"
  },
  "1076128": {
    "zipcode": "1076128",
    "prefectureCode": "13",
    "prefectureNumber": 13,
    "prefecture": "東京都",
    "city": "港区",
    "town": "赤坂赤坂パークビル（２８階）"
  },
  "1076129": {
    "zipcode": "1076129",
    "prefectureCode": "13",
    "prefectureNumber": 13,
    "prefecture": "東京都",
    "city": "港区",
    "town": "赤坂赤坂パークビル（２９階）"
  },
  "1076130": {
    "zipcode": "1076130",
    "prefectureCode": "13",
    "prefectureNumber": 13,
    "prefecture": "東京都",
    "city": "港区",
    "town": "赤坂赤坂パークビル（３０階）"
  },
  "1076190": {
    "zipcode": "1076190",
    "prefectureCode": "13",
    "prefectureNumber": 13,
    "prefecture": "東京都",
    "city": "港区",
    "town": "赤坂赤坂パークビル（地階・階層不明）"
  },
  "1076201": {
    "zipcode": "1076201",
    "prefectureCode": "13",
    "prefectureNumber": 13,
    "prefecture": "東京都",
    "city": "港区",
    "town": "赤坂ミッドタウン・タワー（１階）"
  },
  "1076202": {
    "zipcode": "1076202",
    "prefectureCode": "13",
    "prefectureNumber": 13,
    "prefecture": "東京都",
    "city": "港区",
    "town": "赤坂ミッドタウン・タワー（２階）"
  },
  "1076203": {
    "zipcode": "1076203",
    "prefectureCode": "13",
    "prefectureNumber": 13,
    "prefecture": "東京都",
    "city": "港区",
    "town": "赤坂ミッドタウン・タワー（３階）"
  },
  "1076204": {
    "zipcode": "1076204",
    "prefectureCode": "13",
    "prefectureNumber": 13,
    "prefecture": "東京都",
    "city": "港区",
    "town": "赤坂ミッドタウン・タワー（４階）"
  },
  "1076205": {
    "zipcode": "1076205",
    "prefectureCode": "13",
    "prefectureNumber": 13,
    "prefecture": "東京都",
    "city": "港区",
    "town": "赤坂ミッドタウン・タワー（５階）"
  },
  "1076206": {
    "zipcode": "1076206",
    "prefectureCode": "13",
    "prefectureNumber": 13,
    "prefecture": "東京都",
    "city": "港区",
    "town": "赤坂ミッドタウン・タワー（６階）"
  },
  "1076207": {
    "zipcode": "1076207",
    "prefectureCode": "13",
    "prefectureNumber": 13,
    "prefecture": "東京都",
    "city": "港区",
    "town": "赤坂ミッドタウン・タワー（７階）"
  },
  "1076208": {
    "zipcode": "1076208",
    "prefectureCode": "13",
    "prefectureNumber": 13,
    "prefecture": "東京都",
    "city": "港区",
    "town": "赤坂ミッドタウン・タワー（８階）"
  },
  "1076209": {
    "zipcode": "1076209",
    "prefectureCode": "13",
    "prefectureNumber": 13,
    "prefecture": "東京都",
    "city": "港区",
    "town": "赤坂ミッドタウン・タワー（９階）"
  },
  "1076210": {
    "zipcode": "1076210",
    "prefectureCode": "13",
    "prefectureNumber": 13,
    "prefecture": "東京都",
    "city": "港区",
    "town": "赤坂ミッドタウン・タワー（１０階）"
  },
  "1076211": {
    "zipcode": "1076211",
    "prefectureCode": "13",
    "prefectureNumber": 13,
    "prefecture": "東京都",
    "city": "港区",
    "town": "赤坂ミッドタウン・タワー（１１階）"
  },
  "1076212": {
    "zipcode": "1076212",
    "prefectureCode": "13",
    "prefectureNumber": 13,
    "prefecture": "東京都",
    "city": "港区",
    "town": "赤坂ミッドタウン・タワー（１２階）"
  },
  "1076213": {
    "zipcode": "1076213",
    "prefectureCode": "13",
    "prefectureNumber": 13,
    "prefecture": "東京都",
    "city": "港区",
    "town": "赤坂ミッドタウン・タワー（１３階）"
  },
  "1076214": {
    "zipcode": "1076214",
    "prefectureCode": "13",
    "prefectureNumber": 13,
    "prefecture": "東京都",
    "city": "港区",
    "town": "赤坂ミッドタウン・タワー（１４階）"
  },
  "1076215": {
    "zipcode": "1076215",
    "prefectureCode": "13",
    "prefectureNumber": 13,
    "prefecture": "東京都",
    "city": "港区",
    "town": "赤坂ミッドタウン・タワー（１５階）"
  },
  "1076216": {
    "zipcode": "1076216",
    "prefectureCode": "13",
    "prefectureNumber": 13,
    "prefecture": "東京都",
    "city": "港区",
    "town": "赤坂ミッドタウン・タワー（１６階）"
  },
  "1076217": {
    "zipcode": "1076217",
    "prefectureCode": "13",
    "prefectureNumber": 13,
    "prefecture": "東京都",
    "city": "港区",
    "town": "赤坂ミッドタウン・タワー（１７階）"
  },
  "1076218": {
    "zipcode": "1076218",
    "prefectureCode": "13",
    "prefectureNumber": 13,
    "prefecture": "東京都",
    "city": "港区",
    "town": "赤坂ミッドタウン・タワー（１８階）"
  },
  "1076219": {
    "zipcode": "1076219",
    "prefectureCode": "13",
    "prefectureNumber": 13,
    "prefecture": "東京都",
    "city": "港区",
    "town": "赤坂ミッドタウン・タワー（１９階）"
  },
  "1076220": {
    "zipcode": "1076220",
    "prefectureCode": "13",
    "prefectureNumber": 13,
    "prefecture": "東京都",
    "city": "港区",
    "town": "赤坂ミッドタウン・タワー（２０階）"
  },
  "1076221": {
    "zipcode": "1076221",
    "prefectureCode": "13",
    "prefectureNumber": 13,
    "prefecture": "東京都",
    "city": "港区",
    "town": "赤坂ミッドタウン・タワー（２１階）"
  },
  "1076222": {
    "zipcode": "1076222",
    "prefectureCode": "13",
    "prefectureNumber": 13,
    "prefecture": "東京都",
    "city": "港区",
    "town": "赤坂ミッドタウン・タワー（２２階）"
  },
  "1076223": {
    "zipcode": "1076223",
    "prefectureCode": "13",
    "prefectureNumber": 13,
    "prefecture": "東京都",
    "city": "港区",
    "town": "赤坂ミッドタウン・タワー（２３階）"
  },
  "1076224": {
    "zipcode": "1076224",
    "prefectureCode": "13",
    "prefectureNumber": 13,
    "prefecture": "東京都",
    "city": "港区",
    "town": "赤坂ミッドタウン・タワー（２４階）"
  },
  "1076225": {
    "zipcode": "1076225",
    "prefectureCode": "13",
    "prefectureNumber": 13,
    "prefecture": "東京都",
    "city": "港区",
    "town": "赤坂ミッドタウン・タワー（２５階）"
  },
  "1076226": {
    "zipcode": "1076226",
    "prefectureCode": "13",
    "prefectureNumber": 13,
    "prefecture": "東京都",
    "city": "港区",
    "town": "赤坂ミッドタウン・タワー（２６階）"
  },
  "1076227": {
    "zipcode": "1076227",
    "prefectureCode": "13",
    "prefectureNumber": 13,
    "prefecture": "東京都",
    "city": "港区",
    "town": "赤坂ミッドタウン・タワー（２７階）"
  },
  "1076228": {
    "zipcode": "1076228",
    "prefectureCode": "13",
    "prefectureNumber": 13,
    "prefecture": "東京都",
    "city": "港区",
    "town": "赤坂ミッドタウン・タワー（２８階）"
  },
  "1076229": {
    "zipcode": "1076229",
    "prefectureCode": "13",
    "prefectureNumber": 13,
    "prefecture": "東京都",
    "city": "港区",
    "town": "赤坂ミッドタウン・タワー（２９階）"
  },
  "1076230": {
    "zipcode": "1076230",
    "prefectureCode": "13",
    "prefectureNumber": 13,
    "prefecture": "東京都",
    "city": "港区",
    "town": "赤坂ミッドタウン・タワー（３０階）"
  },
  "1076231": {
    "zipcode": "1076231",
    "prefectureCode": "13",
    "prefectureNumber": 13,
    "prefecture": "東京都",
    "city": "港区",
    "town": "赤坂ミッドタウン・タワー（３１階）"
  },
  "1076232": {
    "zipcode": "1076232",
    "prefectureCode": "13",
    "prefectureNumber": 13,
    "prefecture": "東京都",
    "city": "港区",
    "town": "赤坂ミッドタウン・タワー（３２階）"
  },
  "1076233": {
    "zipcode": "1076233",
    "prefectureCode": "13",
    "prefectureNumber": 13,
    "prefecture": "東京都",
    "city": "港区",
    "town": "赤坂ミッドタウン・タワー（３３階）"
  },
  "1076234": {
    "zipcode": "1076234",
    "prefectureCode": "13",
    "prefectureNumber": 13,
    "prefecture": "東京都",
    "city": "港区",
    "town": "赤坂ミッドタウン・タワー（３４階）"
  },
  "1076235": {
    "zipcode": "1076235",
    "prefectureCode": "13",
    "prefectureNumber": 13,
    "prefecture": "東京都",
    "city": "港区",
    "town": "赤坂ミッドタウン・タワー（３５階）"
  },
  "1076236": {
    "zipcode": "1076236",
    "prefectureCode": "13",
    "prefectureNumber": 13,
    "prefecture": "東京都",
    "city": "港区",
    "town": "赤坂ミッドタウン・タワー（３６階）"
  },
  "1076237": {
    "zipcode": "1076237",
    "prefectureCode": "13",
    "prefectureNumber": 13,
    "prefecture": "東京都",
    "city": "港区",
    "town": "赤坂ミッドタウン・タワー（３７階）"
  },
  "1076238": {
    "zipcode": "1076238",
    "prefectureCode": "13",
    "prefectureNumber": 13,
    "prefecture": "東京都",
    "city": "港区",
    "town": "赤坂ミッドタウン・タワー（３８階）"
  },
  "1076239": {
    "zipcode": "1076239",
    "prefectureCode": "13",
    "prefectureNumber": 13,
    "prefecture": "東京都",
    "city": "港区",
    "town": "赤坂ミッドタウン・タワー（３９階）"
  },
  "1076240": {
    "zipcode": "1076240",
    "prefectureCode": "13",
    "prefectureNumber": 13,
    "prefecture": "東京都",
    "city": "港区",
    "town": "赤坂ミッドタウン・タワー（４０階）"
  },
  "1076241": {
    "zipcode": "1076241",
    "prefectureCode": "13",
    "prefectureNumber": 13,
    "prefecture": "東京都",
    "city": "港区",
    "town": "赤坂ミッドタウン・タワー（４１階）"
  },
  "1076242": {
    "zipcode": "1076242",
    "prefectureCode": "13",
    "prefectureNumber": 13,
    "prefecture": "東京都",
    "city": "港区",
    "town": "赤坂ミッドタウン・タワー（４２階）"
  },
  "1076243": {
    "zipcode": "1076243",
    "prefectureCode": "13",
    "prefectureNumber": 13,
    "prefecture": "東京都",
    "city": "港区",
    "town": "赤坂ミッドタウン・タワー（４３階）"
  },
  "1076244": {
    "zipcode": "1076244",
    "prefectureCode": "13",
    "prefectureNumber": 13,
    "prefecture": "東京都",
    "city": "港区",
    "town": "赤坂ミッドタウン・タワー（４４階）"
  },
  "1076245": {
    "zipcode": "1076245",
    "prefectureCode": "13",
    "prefectureNumber": 13,
    "prefecture": "東京都",
    "city": "港区",
    "town": "赤坂ミッドタウン・タワー（４５階）"
  },
  "1076290": {
    "zipcode": "1076290",
    "prefectureCode": "13",
    "prefectureNumber": 13,
    "prefecture": "東京都",
    "city": "港区",
    "town": "赤坂ミッドタウン・タワー（地階・階層不明）"
  },
  "1076301": {
    "zipcode": "1076301",
    "prefectureCode": "13",
    "prefectureNumber": 13,
    "prefecture": "東京都",
    "city": "港区",
    "town": "赤坂赤坂Ｂｉｚタワー（１階）"
  },
  "1076302": {
    "zipcode": "1076302",
    "prefectureCode": "13",
    "prefectureNumber": 13,
    "prefecture": "東京都",
    "city": "港区",
    "town": "赤坂赤坂Ｂｉｚタワー（２階）"
  },
  "1076303": {
    "zipcode": "1076303",
    "prefectureCode": "13",
    "prefectureNumber": 13,
    "prefecture": "東京都",
    "city": "港区",
    "town": "赤坂赤坂Ｂｉｚタワー（３階）"
  },
  "1076304": {
    "zipcode": "1076304",
    "prefectureCode": "13",
    "prefectureNumber": 13,
    "prefecture": "東京都",
    "city": "港区",
    "town": "赤坂赤坂Ｂｉｚタワー（４階）"
  },
  "1076305": {
    "zipcode": "1076305",
    "prefectureCode": "13",
    "prefectureNumber": 13,
    "prefecture": "東京都",
    "city": "港区",
    "town": "赤坂赤坂Ｂｉｚタワー（５階）"
  },
  "1076306": {
    "zipcode": "1076306",
    "prefectureCode": "13",
    "prefectureNumber": 13,
    "prefecture": "東京都",
    "city": "港区",
    "town": "赤坂赤坂Ｂｉｚタワー（６階）"
  },
  "1076307": {
    "zipcode": "1076307",
    "prefectureCode": "13",
    "prefectureNumber": 13,
    "prefecture": "東京都",
    "city": "港区",
    "town": "赤坂赤坂Ｂｉｚタワー（７階）"
  },
  "1076308": {
    "zipcode": "1076308",
    "prefectureCode": "13",
    "prefectureNumber": 13,
    "prefecture": "東京都",
    "city": "港区",
    "town": "赤坂赤坂Ｂｉｚタワー（８階）"
  },
  "1076309": {
    "zipcode": "1076309",
    "prefectureCode": "13",
    "prefectureNumber": 13,
    "prefecture": "東京都",
    "city": "港区",
    "town": "赤坂赤坂Ｂｉｚタワー（９階）"
  },
  "1076310": {
    "zipcode": "1076310",
    "prefectureCode": "13",
    "prefectureNumber": 13,
    "prefecture": "東京都",
    "city": "港区",
    "town": "赤坂赤坂Ｂｉｚタワー（１０階）"
  },
  "1076311": {
    "zipcode": "1076311",
    "prefectureCode": "13",
    "prefectureNumber": 13,
    "prefecture": "東京都",
    "city": "港区",
    "town": "赤坂赤坂Ｂｉｚタワー（１１階）"
  },
  "1076312": {
    "zipcode": "1076312",
    "prefectureCode": "13",
    "prefectureNumber": 13,
    "prefecture": "東京都",
    "city": "港区",
    "town": "赤坂赤坂Ｂｉｚタワー（１２階）"
  },
  "1076313": {
    "zipcode": "1076313",
    "prefectureCode": "13",
    "prefectureNumber": 13,
    "prefecture": "東京都",
    "city": "港区",
    "town": "赤坂赤坂Ｂｉｚタワー（１３階）"
  },
  "1076314": {
    "zipcode": "1076314",
    "prefectureCode": "13",
    "prefectureNumber": 13,
    "prefecture": "東京都",
    "city": "港区",
    "town": "赤坂赤坂Ｂｉｚタワー（１４階）"
  },
  "1076315": {
    "zipcode": "1076315",
    "prefectureCode": "13",
    "prefectureNumber": 13,
    "prefecture": "東京都",
    "city": "港区",
    "town": "赤坂赤坂Ｂｉｚタワー（１５階）"
  },
  "1076316": {
    "zipcode": "1076316",
    "prefectureCode": "13",
    "prefectureNumber": 13,
    "prefecture": "東京都",
    "city": "港区",
    "town": "赤坂赤坂Ｂｉｚタワー（１６階）"
  },
  "1076317": {
    "zipcode": "1076317",
    "prefectureCode": "13",
    "prefectureNumber": 13,
    "prefecture": "東京都",
    "city": "港区",
    "town": "赤坂赤坂Ｂｉｚタワー（１７階）"
  },
  "1076318": {
    "zipcode": "1076318",
    "prefectureCode": "13",
    "prefectureNumber": 13,
    "prefecture": "東京都",
    "city": "港区",
    "town": "赤坂赤坂Ｂｉｚタワー（１８階）"
  },
  "1076319": {
    "zipcode": "1076319",
    "prefectureCode": "13",
    "prefectureNumber": 13,
    "prefecture": "東京都",
    "city": "港区",
    "town": "赤坂赤坂Ｂｉｚタワー（１９階）"
  },
  "1076320": {
    "zipcode": "1076320",
    "prefectureCode": "13",
    "prefectureNumber": 13,
    "prefecture": "東京都",
    "city": "港区",
    "town": "赤坂赤坂Ｂｉｚタワー（２０階）"
  },
  "1076321": {
    "zipcode": "1076321",
    "prefectureCode": "13",
    "prefectureNumber": 13,
    "prefecture": "東京都",
    "city": "港区",
    "town": "赤坂赤坂Ｂｉｚタワー（２１階）"
  },
  "1076322": {
    "zipcode": "1076322",
    "prefectureCode": "13",
    "prefectureNumber": 13,
    "prefecture": "東京都",
    "city": "港区",
    "town": "赤坂赤坂Ｂｉｚタワー（２２階）"
  },
  "1076323": {
    "zipcode": "1076323",
    "prefectureCode": "13",
    "prefectureNumber": 13,
    "prefecture": "東京都",
    "city": "港区",
    "town": "赤坂赤坂Ｂｉｚタワー（２３階）"
  },
  "1076324": {
    "zipcode": "1076324",
    "prefectureCode": "13",
    "prefectureNumber": 13,
    "prefecture": "東京都",
    "city": "港区",
    "town": "赤坂赤坂Ｂｉｚタワー（２４階）"
  },
  "1076325": {
    "zipcode": "1076325",
    "prefectureCode": "13",
    "prefectureNumber": 13,
    "prefecture": "東京都",
    "city": "港区",
    "town": "赤坂赤坂Ｂｉｚタワー（２５階）"
  },
  "1076326": {
    "zipcode": "1076326",
    "prefectureCode": "13",
    "prefectureNumber": 13,
    "prefecture": "東京都",
    "city": "港区",
    "town": "赤坂赤坂Ｂｉｚタワー（２６階）"
  },
  "1076327": {
    "zipcode": "1076327",
    "prefectureCode": "13",
    "prefectureNumber": 13,
    "prefecture": "東京都",
    "city": "港区",
    "town": "赤坂赤坂Ｂｉｚタワー（２７階）"
  },
  "1076328": {
    "zipcode": "1076328",
    "prefectureCode": "13",
    "prefectureNumber": 13,
    "prefecture": "東京都",
    "city": "港区",
    "town": "赤坂赤坂Ｂｉｚタワー（２８階）"
  },
  "1076329": {
    "zipcode": "1076329",
    "prefectureCode": "13",
    "prefectureNumber": 13,
    "prefecture": "東京都",
    "city": "港区",
    "town": "赤坂赤坂Ｂｉｚタワー（２９階）"
  },
  "1076330": {
    "zipcode": "1076330",
    "prefectureCode": "13",
    "prefectureNumber": 13,
    "prefecture": "東京都",
    "city": "港区",
    "town": "赤坂赤坂Ｂｉｚタワー（３０階）"
  },
  "1076331": {
    "zipcode": "1076331",
    "prefectureCode": "13",
    "prefectureNumber": 13,
    "prefecture": "東京都",
    "city": "港区",
    "town": "赤坂赤坂Ｂｉｚタワー（３１階）"
  },
  "1076332": {
    "zipcode": "1076332",
    "prefectureCode": "13",
    "prefectureNumber": 13,
    "prefecture": "東京都",
    "city": "港区",
    "town": "赤坂赤坂Ｂｉｚタワー（３２階）"
  },
  "1076333": {
    "zipcode": "1076333",
    "prefectureCode": "13",
    "prefectureNumber": 13,
    "prefecture": "東京都",
    "city": "港区",
    "town": "赤坂赤坂Ｂｉｚタワー（３３階）"
  },
  "1076334": {
    "zipcode": "1076334",
    "prefectureCode": "13",
    "prefectureNumber": 13,
    "prefecture": "東京都",
    "city": "港区",
    "town": "赤坂赤坂Ｂｉｚタワー（３４階）"
  },
  "1076335": {
    "zipcode": "1076335",
    "prefectureCode": "13",
    "prefectureNumber": 13,
    "prefecture": "東京都",
    "city": "港区",
    "town": "赤坂赤坂Ｂｉｚタワー（３５階）"
  },
  "1076336": {
    "zipcode": "1076336",
    "prefectureCode": "13",
    "prefectureNumber": 13,
    "prefecture": "東京都",
    "city": "港区",
    "town": "赤坂赤坂Ｂｉｚタワー（３６階）"
  },
  "1076337": {
    "zipcode": "1076337",
    "prefectureCode": "13",
    "prefectureNumber": 13,
    "prefecture": "東京都",
    "city": "港区",
    "town": "赤坂赤坂Ｂｉｚタワー（３７階）"
  },
  "1076338": {
    "zipcode": "1076338",
    "prefectureCode": "13",
    "prefectureNumber": 13,
    "prefecture": "東京都",
    "city": "港区",
    "town": "赤坂赤坂Ｂｉｚタワー（３８階）"
  },
  "1076339": {
    "zipcode": "1076339",
    "prefectureCode": "13",
    "prefectureNumber": 13,
    "prefecture": "東京都",
    "city": "港区",
    "town": "赤坂赤坂Ｂｉｚタワー（３９階）"
  },
  "1076390": {
    "zipcode": "1076390",
    "prefectureCode": "13",
    "prefectureNumber": 13,
    "prefecture": "東京都",
    "city": "港区",
    "town": "赤坂赤坂Ｂｉｚタワー（地階・階層不明）"
  },
  "1076401": {
    "zipcode": "1076401",
    "prefectureCode": "13",
    "prefectureNumber": 13,
    "prefecture": "東京都",
    "city": "港区",
    "town": "赤坂赤坂トラストタワー（１階）"
  },
  "1076402": {
    "zipcode": "1076402",
    "prefectureCode": "13",
    "prefectureNumber": 13,
    "prefecture": "東京都",
    "city": "港区",
    "town": "赤坂赤坂トラストタワー（２階）"
  },
  "1076403": {
    "zipcode": "1076403",
    "prefectureCode": "13",
    "prefectureNumber": 13,
    "prefecture": "東京都",
    "city": "港区",
    "town": "赤坂赤坂トラストタワー（３階）"
  },
  "1076404": {
    "zipcode": "1076404",
    "prefectureCode": "13",
    "prefectureNumber": 13,
    "prefecture": "東京都",
    "city": "港区",
    "town": "赤坂赤坂トラストタワー（４階）"
  },
  "1076405": {
    "zipcode": "1076405",
    "prefectureCode": "13",
    "prefectureNumber": 13,
    "prefecture": "東京都",
    "city": "港区",
    "town": "赤坂赤坂トラストタワー（５階）"
  },
  "1076406": {
    "zipcode": "1076406",
    "prefectureCode": "13",
    "prefectureNumber": 13,
    "prefecture": "東京都",
    "city": "港区",
    "town": "赤坂赤坂トラストタワー（６階）"
  },
  "1076407": {
    "zipcode": "1076407",
    "prefectureCode": "13",
    "prefectureNumber": 13,
    "prefecture": "東京都",
    "city": "港区",
    "town": "赤坂赤坂トラストタワー（７階）"
  },
  "1076408": {
    "zipcode": "1076408",
    "prefectureCode": "13",
    "prefectureNumber": 13,
    "prefecture": "東京都",
    "city": "港区",
    "town": "赤坂赤坂トラストタワー（８階）"
  },
  "1076409": {
    "zipcode": "1076409",
    "prefectureCode": "13",
    "prefectureNumber": 13,
    "prefecture": "東京都",
    "city": "港区",
    "town": "赤坂赤坂トラストタワー（９階）"
  },
  "1076410": {
    "zipcode": "1076410",
    "prefectureCode": "13",
    "prefectureNumber": 13,
    "prefecture": "東京都",
    "city": "港区",
    "town": "赤坂赤坂トラストタワー（１０階）"
  },
  "1076411": {
    "zipcode": "1076411",
    "prefectureCode": "13",
    "prefectureNumber": 13,
    "prefecture": "東京都",
    "city": "港区",
    "town": "赤坂赤坂トラストタワー（１１階）"
  },
  "1076412": {
    "zipcode": "1076412",
    "prefectureCode": "13",
    "prefectureNumber": 13,
    "prefecture": "東京都",
    "city": "港区",
    "town": "赤坂赤坂トラストタワー（１２階）"
  },
  "1076413": {
    "zipcode": "1076413",
    "prefectureCode": "13",
    "prefectureNumber": 13,
    "prefecture": "東京都",
    "city": "港区",
    "town": "赤坂赤坂トラストタワー（１３階）"
  },
  "1076414": {
    "zipcode": "1076414",
    "prefectureCode": "13",
    "prefectureNumber": 13,
    "prefecture": "東京都",
    "city": "港区",
    "town": "赤坂赤坂トラストタワー（１４階）"
  },
  "1076415": {
    "zipcode": "1076415",
    "prefectureCode": "13",
    "prefectureNumber": 13,
    "prefecture": "東京都",
    "city": "港区",
    "town": "赤坂赤坂トラストタワー（１５階）"
  },
  "1076416": {
    "zipcode": "1076416",
    "prefectureCode": "13",
    "prefectureNumber": 13,
    "prefecture": "東京都",
    "city": "港区",
    "town": "赤坂赤坂トラストタワー（１６階）"
  },
  "1076417": {
    "zipcode": "1076417",
    "prefectureCode": "13",
    "prefectureNumber": 13,
    "prefecture": "東京都",
    "city": "港区",
    "town": "赤坂赤坂トラストタワー（１７階）"
  },
  "1076418": {
    "zipcode": "1076418",
    "prefectureCode": "13",
    "prefectureNumber": 13,
    "prefecture": "東京都",
    "city": "港区",
    "town": "赤坂赤坂トラストタワー（１８階）"
  },
  "1076419": {
    "zipcode": "1076419",
    "prefectureCode": "13",
    "prefectureNumber": 13,
    "prefecture": "東京都",
    "city": "港区",
    "town": "赤坂赤坂トラストタワー（１９階）"
  },
  "1076420": {
    "zipcode": "1076420",
    "prefectureCode": "13",
    "prefectureNumber": 13,
    "prefecture": "東京都",
    "city": "港区",
    "town": "赤坂赤坂トラストタワー（２０階）"
  },
  "1076421": {
    "zipcode": "1076421",
    "prefectureCode": "13",
    "prefectureNumber": 13,
    "prefecture": "東京都",
    "city": "港区",
    "town": "赤坂赤坂トラストタワー（２１階）"
  },
  "1076422": {
    "zipcode": "1076422",
    "prefectureCode": "13",
    "prefectureNumber": 13,
    "prefecture": "東京都",
    "city": "港区",
    "town": "赤坂赤坂トラストタワー（２２階）"
  },
  "1076423": {
    "zipcode": "1076423",
    "prefectureCode": "13",
    "prefectureNumber": 13,
    "prefecture": "東京都",
    "city": "港区",
    "town": "赤坂赤坂トラストタワー（２３階）"
  },
  "1076424": {
    "zipcode": "1076424",
    "prefectureCode": "13",
    "prefectureNumber": 13,
    "prefecture": "東京都",
    "city": "港区",
    "town": "赤坂赤坂トラストタワー（２４階）"
  },
  "1076425": {
    "zipcode": "1076425",
    "prefectureCode": "13",
    "prefectureNumber": 13,
    "prefecture": "東京都",
    "city": "港区",
    "town": "赤坂赤坂トラストタワー（２５階）"
  },
  "1076426": {
    "zipcode": "1076426",
    "prefectureCode": "13",
    "prefectureNumber": 13,
    "prefecture": "東京都",
    "city": "港区",
    "town": "赤坂赤坂トラストタワー（２６階）"
  },
  "1076427": {
    "zipcode": "1076427",
    "prefectureCode": "13",
    "prefectureNumber": 13,
    "prefecture": "東京都",
    "city": "港区",
    "town": "赤坂赤坂トラストタワー（２７階）"
  },
  "1076428": {
    "zipcode": "1076428",
    "prefectureCode": "13",
    "prefectureNumber": 13,
    "prefecture": "東京都",
    "city": "港区",
    "town": "赤坂赤坂トラストタワー（２８階）"
  },
  "1076429": {
    "zipcode": "1076429",
    "prefectureCode": "13",
    "prefectureNumber": 13,
    "prefecture": "東京都",
    "city": "港区",
    "town": "赤坂赤坂トラストタワー（２９階）"
  },
  "1076430": {
    "zipcode": "1076430",
    "prefectureCode": "13",
    "prefectureNumber": 13,
    "prefecture": "東京都",
    "city": "港区",
    "town": "赤坂赤坂トラストタワー（３０階）"
  },
  "1076431": {
    "zipcode": "1076431",
    "prefectureCode": "13",
    "prefectureNumber": 13,
    "prefecture": "東京都",
    "city": "港区",
    "town": "赤坂赤坂トラストタワー（３１階）"
  },
  "1076432": {
    "zipcode": "1076432",
    "prefectureCode": "13",
    "prefectureNumber": 13,
    "prefecture": "東京都",
    "city": "港区",
    "town": "赤坂赤坂トラストタワー（３２階）"
  },
  "1076433": {
    "zipcode": "1076433",
    "prefectureCode": "13",
    "prefectureNumber": 13,
    "prefecture": "東京都",
    "city": "港区",
    "town": "赤坂赤坂トラストタワー（３３階）"
  },
  "1076434": {
    "zipcode": "1076434",
    "prefectureCode": "13",
    "prefectureNumber": 13,
    "prefecture": "東京都",
    "city": "港区",
    "town": "赤坂赤坂トラストタワー（３４階）"
  },
  "1076435": {
    "zipcode": "1076435",
    "prefectureCode": "13",
    "prefectureNumber": 13,
    "prefecture": "東京都",
    "city": "港区",
    "town": "赤坂赤坂トラストタワー（３５階）"
  },
  "1076436": {
    "zipcode": "1076436",
    "prefectureCode": "13",
    "prefectureNumber": 13,
    "prefecture": "東京都",
    "city": "港区",
    "town": "赤坂赤坂トラストタワー（３６階）"
  },
  "1076490": {
    "zipcode": "1076490",
    "prefectureCode": "13",
    "prefectureNumber": 13,
    "prefecture": "東京都",
    "city": "港区",
    "town": "赤坂赤坂トラストタワー（地階・階層不明）"
  }
}
