{
  "1080014": {
    "zipcode": "1080014",
    "prefectureCode": "13",
    "prefectureNumber": 13,
    "prefecture": "東京都",
    "city": "港区",
    "town": "芝（４、５丁目）"
  },
  "1080022": {
    "zipcode": "1080022",
    "prefectureCode": "13",
    "prefectureNumber": 13,
    "prefecture": "東京都",
    "city": "港区",
    "town": "海岸（３丁目）"
  },
  "1080023": {
    "zipcode": "1080023",
    "prefectureCode": "13",
    "prefectureNumber": 13,
    "prefecture": "東京都",
    "city": "港区",
    "town": "芝浦（２〜４丁目）"
  },
  "1080071": {
    "zipcode": "1080071",
    "prefectureCode": "13",
    "prefectureNumber": 13,
    "prefecture": "東京都",
    "city": "港区",
    "town": "白金台"
  },
  "1080072": {
    "zipcode": "1080072",
    "prefectureCode": "13",
    "prefectureNumber": 13,
    "prefecture": "東京都",
    "city": "港区",
    "town": "白金"
  },
  "1080073": {
    "zipcode": "1080073",
    "prefectureCode": "13",
    "prefectureNumber": 13,
    "prefecture": "東京都",
    "city": "港区",
    "town": "三田（次のビルを除く）"
  },
  "1080074": {
    "zipcode": "1080074",
    "prefectureCode": "13",
    "prefectureNumber": 13,
    "prefecture": "東京都",
    "city": "港区",
    "town": "高輪"
  },
  "1080075": {
    "zipcode": "1080075",
    "prefectureCode": "13",
    "prefectureNumber": 13,
    "prefecture": "東京都",
    "city": "港区",
    "town": "港南（次のビルを除く）"
  },
  "1086001": {
    "zipcode": "1086001",
    "prefectureCode": "13",
    "prefectureNumber": 13,
    "prefecture": "東京都",
    "city": "港区",
    "town": "港南品川インターシティＡ棟（１階）"
  },
  "1086002": {
    "zipcode": "1086002",
    "prefectureCode": "13",
    "prefectureNumber": 13,
    "prefecture": "東京都",
    "city": "港区",
    "town": "港南品川インターシティＡ棟（２階）"
  },
  "1086003": {
    "zipcode": "1086003",
    "prefectureCode": "13",
    "prefectureNumber": 13,
    "prefecture": "東京都",
    "city": "港区",
    "town": "港南品川インターシティＡ棟（３階）"
  },
  "1086004": {
    "zipcode": "1086004",
    "prefectureCode": "13",
    "prefectureNumber": 13,
    "prefecture": "東京都",
    "city": "港区",
    "town": "港南品川インターシティＡ棟（４階）"
  },
  "1086005": {
    "zipcode": "1086005",
    "prefectureCode": "13",
    "prefectureNumber": 13,
    "prefecture": "東京都",
    "city": "港区",
    "town": "港南品川インターシティＡ棟（５階）"
  },
  "1086006": {
    "zipcode": "1086006",
    "prefectureCode": "13",
    "prefectureNumber": 13,
    "prefecture": "東京都",
    "city": "港区",
    "town": "港南品川インターシティＡ棟（６階）"
  },
  "1086007": {
    "zipcode": "1086007",
    "prefectureCode": "13",
    "prefectureNumber": 13,
    "prefecture": "東京都",
    "city": "港区",
    "town": "港南品川インターシティＡ棟（７階）"
  },
  "1086008": {
    "zipcode": "1086008",
    "prefectureCode": "13",
    "prefectureNumber": 13,
    "prefecture": "東京都",
    "city": "港区",
    "town": "港南品川インターシティＡ棟（８階）"
  },
  "1086009": {
    "zipcode": "1086009",
    "prefectureCode": "13",
    "prefectureNumber": 13,
    "prefecture": "東京都",
    "city": "港区",
    "town": "港南品川インターシティＡ棟（９階）"
  },
  "1086010": {
    "zipcode": "1086010",
    "prefectureCode": "13",
    "prefectureNumber": 13,
    "prefecture": "東京都",
    "city": "港区",
    "town": "港南品川インターシティＡ棟（１０階）"
  },
  "1086011": {
    "zipcode": "1086011",
    "prefectureCode": "13",
    "prefectureNumber": 13,
    "prefecture": "東京都",
    "city": "港区",
    "town": "港南品川インターシティＡ棟（１１階）"
  },
  "1086012": {
    "zipcode": "1086012",
    "prefectureCode": "13",
    "prefectureNumber": 13,
    "prefecture": "東京都",
    "city": "港区",
    "town": "港南品川インターシティＡ棟（１２階）"
  },
  "1086013": {
    "zipcode": "1086013",
    "prefectureCode": "13",
    "prefectureNumber": 13,
    "prefecture": "東京都",
    "city": "港区",
    "town": "港南品川インターシティＡ棟（１３階）"
  },
  "1086014": {
    "zipcode": "1086014",
    "prefectureCode": "13",
    "prefectureNumber": 13,
    "prefecture": "東京都",
    "city": "港区",
    "town": "港南品川インターシティＡ棟（１４階）"
  },
  "1086015": {
    "zipcode": "1086015",
    "prefectureCode": "13",
    "prefectureNumber": 13,
    "prefecture": "東京都",
    "city": "港区",
    "town": "港南品川インターシティＡ棟（１５階）"
  },
  "1086016": {
    "zipcode": "1086016",
    "prefectureCode": "13",
    "prefectureNumber": 13,
    "prefecture": "東京都",
    "city": "港区",
    "town": "港南品川インターシティＡ棟（１６階）"
  },
  "1086017": {
    "zipcode": "1086017",
    "prefectureCode": "13",
    "prefectureNumber": 13,
    "prefecture": "東京都",
    "city": "港区",
    "town": "港南品川インターシティＡ棟（１７階）"
  },
  "1086018": {
    "zipcode": "1086018",
    "prefectureCode": "13",
    "prefectureNumber": 13,
    "prefecture": "東京都",
    "city": "港区",
    "town": "港南品川インターシティＡ棟（１８階）"
  },
  "1086019": {
    "zipcode": "1086019",
    "prefectureCode": "13",
    "prefectureNumber": 13,
    "prefecture": "東京都",
    "city": "港区",
    "town": "港南品川インターシティＡ棟（１９階）"
  },
  "1086020": {
    "zipcode": "1086020",
    "prefectureCode": "13",
    "prefectureNumber": 13,
    "prefecture": "東京都",
    "city": "港区",
    "town": "港南品川インターシティＡ棟（２０階）"
  },
  "1086021": {
    "zipcode": "1086021",
    "prefectureCode": "13",
    "prefectureNumber": 13,
    "prefecture": "東京都",
    "city": "港区",
    "town": "港南品川インターシティＡ棟（２１階）"
  },
  "1086022": {
    "zipcode": "1086022",
    "prefectureCode": "13",
    "prefectureNumber": 13,
    "prefecture": "東京都",
    "city": "港区",
    "town": "港南品川インターシティＡ棟（２２階）"
  },
  "1086023": {
    "zipcode": "1086023",
    "prefectureCode": "13",
    "prefectureNumber": 13,
    "prefecture": "東京都",
    "city": "港区",
    "town": "港南品川インターシティＡ棟（２３階）"
  },
  "1086024": {
    "zipcode": "1086024",
    "prefectureCode": "13",
    "prefectureNumber": 13,
    "prefecture": "東京都",
    "city": "港区",
    "town": "港南品川インターシティＡ棟（２４階）"
  },
  "1086025": {
    "zipcode": "1086025",
    "prefectureCode": "13",
    "prefectureNumber": 13,
    "prefecture": "東京都",
    "city": "港区",
    "town": "港南品川インターシティＡ棟（２５階）"
  },
  "1086026": {
    "zipcode": "1086026",
    "prefectureCode": "13",
    "prefectureNumber": 13,
    "prefecture": "東京都",
    "city": "港区",
    "town": "港南品川インターシティＡ棟（２６階）"
  },
  "1086027": {
    "zipcode": "1086027",
    "prefectureCode": "13",
    "prefectureNumber": 13,
    "prefecture": "東京都",
    "city": "港区",
    "town": "港南品川インターシティＡ棟（２７階）"
  },
  "1086028": {
    "zipcode": "1086028",
    "prefectureCode": "13",
    "prefectureNumber": 13,
    "prefecture": "東京都",
    "city": "港区",
    "town": "港南品川インターシティＡ棟（２８階）"
  },
  "1086029": {
    "zipcode": "1086029",
    "prefectureCode": "13",
    "prefectureNumber": 13,
    "prefecture": "東京都",
    "city": "港区",
    "town": "港南品川インターシティＡ棟（２９階）"
  },
  "1086030": {
    "zipcode": "1086030",
    "prefectureCode": "13",
    "prefectureNumber": 13,
    "prefecture": "東京都",
    "city": "港区",
    "town": "港南品川インターシティＡ棟（３０階）"
  },
  "1086031": {
    "zipcode": "1086031",
    "prefectureCode": "13",
    "prefectureNumber": 13,
    "prefecture": "東京都",
    "city": "港区",
    "town": "港南品川インターシティＡ棟（３１階）"
  },
  "1086032": {
    "zipcode": "1086032",
    "prefectureCode": "13",
    "prefectureNumber": 13,
    "prefecture": "東京都",
    "city": "港区",
    "town": "港南品川インターシティＡ棟（３２階）"
  },
  "1086090": {
    "zipcode": "1086090",
    "prefectureCode": "13",
    "prefectureNumber": 13,
    "prefecture": "東京都",
    "city": "港区",
    "town": "港南品川インターシティＡ棟（地階・階層不明）"
  },
  "1086101": {
    "zipcode": "1086101",
    "prefectureCode": "13",
    "prefectureNumber": 13,
    "prefecture": "東京都",
    "city": "港区",
    "town": "港南品川インターシティＢ棟（１階）"
  },
  "1086102": {
    "zipcode": "1086102",
    "prefectureCode": "13",
    "prefectureNumber": 13,
    "prefecture": "東京都",
    "city": "港区",
    "town": "港南品川インターシティＢ棟（２階）"
  },
  "1086103": {
    "zipcode": "1086103",
    "prefectureCode": "13",
    "prefectureNumber": 13,
    "prefecture": "東京都",
    "city": "港区",
    "town": "港南品川インターシティＢ棟（３階）"
  },
  "1086104": {
    "zipcode": "1086104",
    "prefectureCode": "13",
    "prefectureNumber": 13,
    "prefecture": "東京都",
    "city": "港区",
    "town": "港南品川インターシティＢ棟（４階）"
  },
  "1086105": {
    "zipcode": "1086105",
    "prefectureCode": "13",
    "prefectureNumber": 13,
    "prefecture": "東京都",
    "city": "港区",
    "town": "港南品川インターシティＢ棟（５階）"
  },
  "1086106": {
    "zipcode": "1086106",
    "prefectureCode": "13",
    "prefectureNumber": 13,
    "prefecture": "東京都",
    "city": "港区",
    "town": "港南品川インターシティＢ棟（６階）"
  },
  "1086107": {
    "zipcode": "1086107",
    "prefectureCode": "13",
    "prefectureNumber": 13,
    "prefecture": "東京都",
    "city": "港区",
    "town": "港南品川インターシティＢ棟（７階）"
  },
  "1086108": {
    "zipcode": "1086108",
    "prefectureCode": "13",
    "prefectureNumber": 13,
    "prefecture": "東京都",
    "city": "港区",
    "town": "港南品川インターシティＢ棟（８階）"
  },
  "1086109": {
    "zipcode": "1086109",
    "prefectureCode": "13",
    "prefectureNumber": 13,
    "prefecture": "東京都",
    "city": "港区",
    "town": "港南品川インターシティＢ棟（９階）"
  },
  "1086110": {
    "zipcode": "1086110",
    "prefectureCode": "13",
    "prefectureNumber": 13,
    "prefecture": "東京都",
    "city": "港区",
    "town": "港南品川インターシティＢ棟（１０階）"
  },
  "1086111": {
    "zipcode": "1086111",
    "prefectureCode": "13",
    "prefectureNumber": 13,
    "prefecture": "東京都",
    "city": "港区",
    "town": "港南品川インターシティＢ棟（１１階）"
  },
  "1086112": {
    "zipcode": "1086112",
    "prefectureCode": "13",
    "prefectureNumber": 13,
    "prefecture": "東京都",
    "city": "港区",
    "town": "港南品川インターシティＢ棟（１２階）"
  },
  "1086113": {
    "zipcode": "1086113",
    "prefectureCode": "13",
    "prefectureNumber": 13,
    "prefecture": "東京都",
    "city": "港区",
    "town": "港南品川インターシティＢ棟（１３階）"
  },
  "1086114": {
    "zipcode": "1086114",
    "prefectureCode": "13",
    "prefectureNumber": 13,
    "prefecture": "東京都",
    "city": "港区",
    "town": "港南品川インターシティＢ棟（１４階）"
  },
  "1086115": {
    "zipcode": "1086115",
    "prefectureCode": "13",
    "prefectureNumber": 13,
    "prefecture": "東京都",
    "city": "港区",
    "town": "港南品川インターシティＢ棟（１５階）"
  },
  "1086116": {
    "zipcode": "1086116",
    "prefectureCode": "13",
    "prefectureNumber": 13,
    "prefecture": "東京都",
    "city": "港区",
    "town": "港南品川インターシティＢ棟（１６階）"
  },
  "1086117": {
    "zipcode": "1086117",
    "prefectureCode": "13",
    "prefectureNumber": 13,
    "prefecture": "東京都",
    "city": "港区",
    "town": "港南品川インターシティＢ棟（１７階）"
  },
  "1086118": {
    "zipcode": "1086118",
    "prefectureCode": "13",
    "prefectureNumber": 13,
    "prefecture": "東京都",
    "city": "港区",
    "town": "港南品川インターシティＢ棟（１８階）"
  },
  "1086119": {
    "zipcode": "1086119",
    "prefectureCode": "13",
    "prefectureNumber": 13,
    "prefecture": "東京都",
    "city": "港区",
    "town": "港南品川インターシティＢ棟（１９階）"
  },
  "1086120": {
    "zipcode": "1086120",
    "prefectureCode": "13",
    "prefectureNumber": 13,
    "prefecture": "東京都",
    "city": "港区",
    "town": "港南品川インターシティＢ棟（２０階）"
  },
  "1086121": {
    "zipcode": "1086121",
    "prefectureCode": "13",
    "prefectureNumber": 13,
    "prefecture": "東京都",
    "city": "港区",
    "town": "港南品川インターシティＢ棟（２１階）"
  },
  "1086122": {
    "zipcode": "1086122",
    "prefectureCode": "13",
    "prefectureNumber": 13,
    "prefecture": "東京都",
    "city": "港区",
    "town": "港南品川インターシティＢ棟（２２階）"
  },
  "1086123": {
    "zipcode": "1086123",
    "prefectureCode": "13",
    "prefectureNumber": 13,
    "prefecture": "東京都",
    "city": "港区",
    "town": "港南品川インターシティＢ棟（２３階）"
  },
  "1086124": {
    "zipcode": "1086124",
    "prefectureCode": "13",
    "prefectureNumber": 13,
    "prefecture": "東京都",
    "city": "港区",
    "town": "港南品川インターシティＢ棟（２４階）"
  },
  "1086125": {
    "zipcode": "1086125",
    "prefectureCode": "13",
    "prefectureNumber": 13,
    "prefecture": "東京都",
    "city": "港区",
    "town": "港南品川インターシティＢ棟（２５階）"
  },
  "1086126": {
    "zipcode": "1086126",
    "prefectureCode": "13",
    "prefectureNumber": 13,
    "prefecture": "東京都",
    "city": "港区",
    "town": "港南品川インターシティＢ棟（２６階）"
  },
  "1086127": {
    "zipcode": "1086127",
    "prefectureCode": "13",
    "prefectureNumber": 13,
    "prefecture": "東京都",
    "city": "港区",
    "town": "港南品川インターシティＢ棟（２７階）"
  },
  "1086128": {
    "zipcode": "1086128",
    "prefectureCode": "13",
    "prefectureNumber": 13,
    "prefecture": "東京都",
    "city": "港区",
    "town": "港南品川インターシティＢ棟（２８階）"
  },
  "1086129": {
    "zipcode": "1086129",
    "prefectureCode": "13",
    "prefectureNumber": 13,
    "prefecture": "東京都",
    "city": "港区",
    "town": "港南品川インターシティＢ棟（２９階）"
  },
  "1086130": {
    "zipcode": "1086130",
    "prefectureCode": "13",
    "prefectureNumber": 13,
    "prefecture": "東京都",
    "city": "港区",
    "town": "港南品川インターシティＢ棟（３０階）"
  },
  "1086131": {
    "zipcode": "1086131",
    "prefectureCode": "13",
    "prefectureNumber": 13,
    "prefecture": "東京都",
    "city": "港区",
    "town": "港南品川インターシティＢ棟（３１階）"
  },
  "1086190": {
    "zipcode": "1086190",
    "prefectureCode": "13",
    "prefectureNumber": 13,
    "prefecture": "東京都",
    "city": "港区",
    "town": "港南品川インターシティＢ棟（地階・階層不明）"
  },
  "1086201": {
    "zipcode": "1086201",
    "prefectureCode": "13",
    "prefectureNumber": 13,
    "prefecture": "東京都",
    "city": "港区",
    "town": "港南品川インターシティＣ棟（１階）"
  },
  "1086202": {
    "zipcode": "1086202",
    "prefectureCode": "13",
    "prefectureNumber": 13,
    "prefecture": "東京都",
    "city": "港区",
    "town": "港南品川インターシティＣ棟（２階）"
  },
  "1086203": {
    "zipcode": "1086203",
    "prefectureCode": "13",
    "prefectureNumber": 13,
    "prefecture": "東京都",
    "city": "港区",
    "town": "港南品川インターシティＣ棟（３階）"
  },
  "1086204": {
    "zipcode": "1086204",
    "prefectureCode": "13",
    "prefectureNumber": 13,
    "prefecture": "東京都",
    "city": "港区",
    "town": "港南品川インターシティＣ棟（４階）"
  },
  "1086205": {
    "zipcode": "1086205",
    "prefectureCode": "13",
    "prefectureNumber": 13,
    "prefecture": "東京都",
    "city": "港区",
    "town": "港南品川インターシティＣ棟（５階）"
  },
  "1086206": {
    "zipcode": "1086206",
    "prefectureCode": "13",
    "prefectureNumber": 13,
    "prefecture": "東京都",
    "city": "港区",
    "town": "港南品川インターシティＣ棟（６階）"
  },
  "1086207": {
    "zipcode": "1086207",
    "prefectureCode": "13",
    "prefectureNumber": 13,
    "prefecture": "東京都",
    "city": "港区",
    "town": "港南品川インターシティＣ棟（７階）"
  },
  "1086208": {
    "zipcode": "1086208",
    "prefectureCode": "13",
    "prefectureNumber": 13,
    "prefecture": "東京都",
    "city": "港区",
    "town": "港南品川インターシティＣ棟（８階）"
  },
  "1086209": {
    "zipcode": "1086209",
    "prefectureCode": "13",
    "prefectureNumber": 13,
    "prefecture": "東京都",
    "city": "港区",
    "town": "港南品川インターシティＣ棟（９階）"
  },
  "1086210": {
    "zipcode": "1086210",
    "prefectureCode": "13",
    "prefectureNumber": 13,
    "prefecture": "東京都",
    "city": "港区",
    "town": "港南品川インターシティＣ棟（１０階）"
  },
  "1086211": {
    "zipcode": "1086211",
    "prefectureCode": "13",
    "prefectureNumber": 13,
    "prefecture": "東京都",
    "city": "港区",
    "town": "港南品川インターシティＣ棟（１１階）"
  },
  "1086212": {
    "zipcode": "1086212",
    "prefectureCode": "13",
    "prefectureNumber": 13,
    "prefecture": "東京都",
    "city": "港区",
    "town": "港南品川インターシティＣ棟（１２階）"
  },
  "1086213": {
    "zipcode": "1086213",
    "prefectureCode": "13",
    "prefectureNumber": 13,
    "prefecture": "東京都",
    "city": "港区",
    "town": "港南品川インターシティＣ棟（１３階）"
  },
  "1086214": {
    "zipcode": "1086214",
    "prefectureCode": "13",
    "prefectureNumber": 13,
    "prefecture": "東京都",
    "city": "港区",
    "town": "港南品川インターシティＣ棟（１４階）"
  },
  "1086215": {
    "zipcode": "1086215",
    "prefectureCode": "13",
    "prefectureNumber": 13,
    "prefecture": "東京都",
    "city": "港区",
    "town": "港南品川インターシティＣ棟（１５階）"
  },
  "1086216": {
    "zipcode": "1086216",
    "prefectureCode": "13",
    "prefectureNumber": 13,
    "prefecture": "東京都",
    "city": "港区",
    "town": "港南品川インターシティＣ棟（１６階）"
  },
  "1086217": {
    "zipcode": "1086217",
    "prefectureCode": "13",
    "prefectureNumber": 13,
    "prefecture": "東京都",
    "city": "港区",
    "town": "港南品川インターシティＣ棟（１７階）"
  },
  "1086218": {
    "zipcode": "1086218",
    "prefectureCode": "13",
    "prefectureNumber": 13,
    "prefecture": "東京都",
    "city": "港区",
    "town": "港南品川インターシティＣ棟（１８階）"
  },
  "1086219": {
    "zipcode": "1086219",
    "prefectureCode": "13",
    "prefectureNumber": 13,
    "prefecture": "東京都",
    "city": "港区",
    "town": "港南品川インターシティＣ棟（１９階）"
  },
  "1086220": {
    "zipcode": "1086220",
    "prefectureCode": "13",
    "prefectureNumber": 13,
    "prefecture": "東京都",
    "city": "港区",
    "town": "港南品川インターシティＣ棟（２０階）"
  },
  "1086221": {
    "zipcode": "1086221",
    "prefectureCode": "13",
    "prefectureNumber": 13,
    "prefecture": "東京都",
    "city": "港区",
    "town": "港南品川インターシティＣ棟（２１階）"
  },
  "1086222": {
    "zipcode": "1086222",
    "prefectureCode": "13",
    "prefectureNumber": 13,
    "prefecture": "東京都",
    "city": "港区",
    "town": "港南品川インターシティＣ棟（２２階）"
  },
  "1086223": {
    "zipcode": "1086223",
    "prefectureCode": "13",
    "prefectureNumber": 13,
    "prefecture": "東京都",
    "city": "港区",
    "town": "港南品川インターシティＣ棟（２３階）"
  },
  "1086224": {
    "zipcode": "1086224",
    "prefectureCode": "13",
    "prefectureNumber": 13,
    "prefecture": "東京都",
    "city": "港区",
    "town": "港南品川インターシティＣ棟（２４階）"
  },
  "1086225": {
    "zipcode": "1086225",
    "prefectureCode": "13",
    "prefectureNumber": 13,
    "prefecture": "東京都",
    "city": "港区",
    "town": "港南品川インターシティＣ棟（２５階）"
  },
  "1086226": {
    "zipcode": "1086226",
    "prefectureCode": "13",
    "prefectureNumber": 13,
    "prefecture": "東京都",
    "city": "港区",
    "town": "港南品川インターシティＣ棟（２６階）"
  },
  "1086227": {
    "zipcode": "1086227",
    "prefectureCode": "13",
    "prefectureNumber": 13,
    "prefecture": "東京都",
    "city": "港区",
    "town": "港南品川インターシティＣ棟（２７階）"
  },
  "1086228": {
    "zipcode": "1086228",
    "prefectureCode": "13",
    "prefectureNumber": 13,
    "prefecture": "東京都",
    "city": "港区",
    "town": "港南品川インターシティＣ棟（２８階）"
  },
  "1086229": {
    "zipcode": "1086229",
    "prefectureCode": "13",
    "prefectureNumber": 13,
    "prefecture": "東京都",
    "city": "港区",
    "town": "港南品川インターシティＣ棟（２９階）"
  },
  "1086230": {
    "zipcode": "1086230",
    "prefectureCode": "13",
    "prefectureNumber": 13,
    "prefecture": "東京都",
    "city": "港区",
    "town": "港南品川インターシティＣ棟（３０階）"
  },
  "1086231": {
    "zipcode": "1086231",
    "prefectureCode": "13",
    "prefectureNumber": 13,
    "prefecture": "東京都",
    "city": "港区",
    "town": "港南品川インターシティＣ棟（３１階）"
  },
  "1086290": {
    "zipcode": "1086290",
    "prefectureCode": "13",
    "prefectureNumber": 13,
    "prefecture": "東京都",
    "city": "港区",
    "town": "港南品川インターシティＣ棟（地階・階層不明）"
  },
  "1086301": {
    "zipcode": "1086301",
    "prefectureCode": "13",
    "prefectureNumber": 13,
    "prefecture": "東京都",
    "city": "港区",
    "town": "三田住友不動産東京三田サウスタワー（１階）"
  },
  "1086302": {
    "zipcode": "1086302",
    "prefectureCode": "13",
    "prefectureNumber": 13,
    "prefecture": "東京都",
    "city": "港区",
    "town": "三田住友不動産東京三田サウスタワー（２階）"
  },
  "1086303": {
    "zipcode": "1086303",
    "prefectureCode": "13",
    "prefectureNumber": 13,
    "prefecture": "東京都",
    "city": "港区",
    "town": "三田住友不動産東京三田サウスタワー（３階）"
  },
  "1086304": {
    "zipcode": "1086304",
    "prefectureCode": "13",
    "prefectureNumber": 13,
    "prefecture": "東京都",
    "city": "港区",
    "town": "三田住友不動産東京三田サウスタワー（４階）"
  },
  "1086305": {
    "zipcode": "1086305",
    "prefectureCode": "13",
    "prefectureNumber": 13,
    "prefecture": "東京都",
    "city": "港区",
    "town": "三田住友不動産東京三田サウスタワー（５階）"
  },
  "1086306": {
    "zipcode": "1086306",
    "prefectureCode": "13",
    "prefectureNumber": 13,
    "prefecture": "東京都",
    "city": "港区",
    "town": "三田住友不動産東京三田サウスタワー（６階）"
  },
  "1086307": {
    "zipcode": "1086307",
    "prefectureCode": "13",
    "prefectureNumber": 13,
    "prefecture": "東京都",
    "city": "港区",
    "town": "三田住友不動産東京三田サウスタワー（７階）"
  },
  "1086308": {
    "zipcode": "1086308",
    "prefectureCode": "13",
    "prefectureNumber": 13,
    "prefecture": "東京都",
    "city": "港区",
    "town": "三田住友不動産東京三田サウスタワー（８階）"
  },
  "1086309": {
    "zipcode": "1086309",
    "prefectureCode": "13",
    "prefectureNumber": 13,
    "prefecture": "東京都",
    "city": "港区",
    "town": "三田住友不動産東京三田サウスタワー（９階）"
  },
  "1086310": {
    "zipcode": "1086310",
    "prefectureCode": "13",
    "prefectureNumber": 13,
    "prefecture": "東京都",
    "city": "港区",
    "town": "三田住友不動産東京三田サウスタワー（１０階）"
  },
  "1086311": {
    "zipcode": "1086311",
    "prefectureCode": "13",
    "prefectureNumber": 13,
    "prefecture": "東京都",
    "city": "港区",
    "town": "三田住友不動産東京三田サウスタワー（１１階）"
  },
  "1086312": {
    "zipcode": "1086312",
    "prefectureCode": "13",
    "prefectureNumber": 13,
    "prefecture": "東京都",
    "city": "港区",
    "town": "三田住友不動産東京三田サウスタワー（１２階）"
  },
  "1086313": {
    "zipcode": "1086313",
    "prefectureCode": "13",
    "prefectureNumber": 13,
    "prefecture": "東京都",
    "city": "港区",
    "town": "三田住友不動産東京三田サウスタワー（１３階）"
  },
  "1086314": {
    "zipcode": "1086314",
    "prefectureCode": "13",
    "prefectureNumber": 13,
    "prefecture": "東京都",
    "city": "港区",
    "town": "三田住友不動産東京三田サウスタワー（１４階）"
  },
  "1086315": {
    "zipcode": "1086315",
    "prefectureCode": "13",
    "prefectureNumber": 13,
    "prefecture": "東京都",
    "city": "港区",
    "town": "三田住友不動産東京三田サウスタワー（１５階）"
  },
  "1086316": {
    "zipcode": "1086316",
    "prefectureCode": "13",
    "prefectureNumber": 13,
    "prefecture": "東京都",
    "city": "港区",
    "town": "三田住友不動産東京三田サウスタワー（１６階）"
  },
  "1086317": {
    "zipcode": "1086317",
    "prefectureCode": "13",
    "prefectureNumber": 13,
    "prefecture": "東京都",
    "city": "港区",
    "town": "三田住友不動産東京三田サウスタワー（１７階）"
  },
  "1086318": {
    "zipcode": "1086318",
    "prefectureCode": "13",
    "prefectureNumber": 13,
    "prefecture": "東京都",
    "city": "港区",
    "town": "三田住友不動産東京三田サウスタワー（１８階）"
  },
  "1086319": {
    "zipcode": "1086319",
    "prefectureCode": "13",
    "prefectureNumber": 13,
    "prefecture": "東京都",
    "city": "港区",
    "town": "三田住友不動産東京三田サウスタワー（１９階）"
  },
  "1086320": {
    "zipcode": "1086320",
    "prefectureCode": "13",
    "prefectureNumber": 13,
    "prefecture": "東京都",
    "city": "港区",
    "town": "三田住友不動産東京三田サウスタワー（２０階）"
  },
  "1086321": {
    "zipcode": "1086321",
    "prefectureCode": "13",
    "prefectureNumber": 13,
    "prefecture": "東京都",
    "city": "港区",
    "town": "三田住友不動産東京三田サウスタワー（２１階）"
  },
  "1086322": {
    "zipcode": "1086322",
    "prefectureCode": "13",
    "prefectureNumber": 13,
    "prefecture": "東京都",
    "city": "港区",
    "town": "三田住友不動産東京三田サウスタワー（２２階）"
  },
  "1086323": {
    "zipcode": "1086323",
    "prefectureCode": "13",
    "prefectureNumber": 13,
    "prefecture": "東京都",
    "city": "港区",
    "town": "三田住友不動産東京三田サウスタワー（２３階）"
  },
  "1086324": {
    "zipcode": "1086324",
    "prefectureCode": "13",
    "prefectureNumber": 13,
    "prefecture": "東京都",
    "city": "港区",
    "town": "三田住友不動産東京三田サウスタワー（２４階）"
  },
  "1086325": {
    "zipcode": "1086325",
    "prefectureCode": "13",
    "prefectureNumber": 13,
    "prefecture": "東京都",
    "city": "港区",
    "town": "三田住友不動産東京三田サウスタワー（２５階）"
  },
  "1086326": {
    "zipcode": "1086326",
    "prefectureCode": "13",
    "prefectureNumber": 13,
    "prefecture": "東京都",
    "city": "港区",
    "town": "三田住友不動産東京三田サウスタワー（２６階）"
  },
  "1086327": {
    "zipcode": "1086327",
    "prefectureCode": "13",
    "prefectureNumber": 13,
    "prefecture": "東京都",
    "city": "港区",
    "town": "三田住友不動産東京三田サウスタワー（２７階）"
  },
  "1086328": {
    "zipcode": "1086328",
    "prefectureCode": "13",
    "prefectureNumber": 13,
    "prefecture": "東京都",
    "city": "港区",
    "town": "三田住友不動産東京三田サウスタワー（２８階）"
  },
  "1086329": {
    "zipcode": "1086329",
    "prefectureCode": "13",
    "prefectureNumber": 13,
    "prefecture": "東京都",
    "city": "港区",
    "town": "三田住友不動産東京三田サウスタワー（２９階）"
  },
  "1086330": {
    "zipcode": "1086330",
    "prefectureCode": "13",
    "prefectureNumber": 13,
    "prefecture": "東京都",
    "city": "港区",
    "town": "三田住友不動産東京三田サウスタワー（３０階）"
  },
  "1086390": {
    "zipcode": "1086390",
    "prefectureCode": "13",
    "prefectureNumber": 13,
    "prefecture": "東京都",
    "city": "港区",
    "town": "三田住友不動産東京三田サウスタワー（地階・階層不明）"
  }
}
