{
  "1100000": {
    "zipcode": "1100000",
    "prefectureCode": "13",
    "prefectureNumber": 13,
    "prefecture": "東京都",
    "city": "台東区",
    "town": "以下に掲載がない場合"
  },
  "1100001": {
    "zipcode": "1100001",
    "prefectureCode": "13",
    "prefectureNumber": 13,
    "prefecture": "東京都",
    "city": "台東区",
    "town": "谷中"
  },
  "1100002": {
    "zipcode": "1100002",
    "prefectureCode": "13",
    "prefectureNumber": 13,
    "prefecture": "東京都",
    "city": "台東区",
    "town": "上野桜木"
  },
  "1100003": {
    "zipcode": "1100003",
    "prefectureCode": "13",
    "prefectureNumber": 13,
    "prefecture": "東京都",
    "city": "台東区",
    "town": "根岸"
  },
  "1100004": {
    "zipcode": "1100004",
    "prefectureCode": "13",
    "prefectureNumber": 13,
    "prefecture": "東京都",
    "city": "台東区",
    "town": "下谷"
  },
  "1100005": {
    "zipcode": "1100005",
    "prefectureCode": "13",
    "prefectureNumber": 13,
    "prefecture": "東京都",
    "city": "台東区",
    "town": "上野"
  },
  "1100006": {
    "zipcode": "1100006",
    "prefectureCode": "13",
    "prefectureNumber": 13,
    "prefecture": "東京都",
    "city": "台東区",
    "town": "秋葉原"
  },
  "1100007": {
    "zipcode": "1100007",
    "prefectureCode": "13",
    "prefectureNumber": 13,
    "prefecture": "東京都",
    "city": "台東区",
    "town": "上野公園"
  },
  "1100008": {
    "zipcode": "1100008",
    "prefectureCode": "13",
    "prefectureNumber": 13,
    "prefecture": "東京都",
    "city": "台東区",
    "town": "池之端"
  },
  "1100011": {
    "zipcode": "1100011",
    "prefectureCode": "13",
    "prefectureNumber": 13,
    "prefecture": "東京都",
    "city": "台東区",
    "town": "三ノ輪"
  },
  "1100012": {
    "zipcode": "1100012",
    "prefectureCode": "13",
    "prefectureNumber": 13,
    "prefecture": "東京都",
    "city": "台東区",
    "town": "竜泉"
  },
  "1100013": {
    "zipcode": "1100013",
    "prefectureCode": "13",
    "prefectureNumber": 13,
    "prefecture": "東京都",
    "city": "台東区",
    "town": "入谷"
  },
  "1100014": {
    "zipcode": "1100014",
    "prefectureCode": "13",
    "prefectureNumber": 13,
    "prefecture": "東京都",
    "city": "台東区",
    "town": "北上野"
  },
  "1100015": {
    "zipcode": "1100015",
    "prefectureCode": "13",
    "prefectureNumber": 13,
    "prefecture": "東京都",
    "city": "台東区",
    "town": "東上野"
  },
  "1100016": {
    "zipcode": "1100016",
    "prefectureCode": "13",
    "prefectureNumber": 13,
    "prefecture": "東京都",
    "city": "台東区",
    "town": "台東"
  }
}
