{
  "1140000": {
    "zipcode": "1140000",
    "prefectureCode": "13",
    "prefectureNumber": 13,
    "prefecture": "東京都",
    "city": "北区",
    "town": "以下に掲載がない場合"
  },
  "1140001": {
    "zipcode": "1140001",
    "prefectureCode": "13",
    "prefectureNumber": 13,
    "prefecture": "東京都",
    "city": "北区",
    "town": "東十条"
  },
  "1140002": {
    "zipcode": "1140002",
    "prefectureCode": "13",
    "prefectureNumber": 13,
    "prefecture": "東京都",
    "city": "北区",
    "town": "王子"
  },
  "1140003": {
    "zipcode": "1140003",
    "prefectureCode": "13",
    "prefectureNumber": 13,
    "prefecture": "東京都",
    "city": "北区",
    "town": "豊島"
  },
  "1140004": {
    "zipcode": "1140004",
    "prefectureCode": "13",
    "prefectureNumber": 13,
    "prefecture": "東京都",
    "city": "北区",
    "town": "堀船"
  },
  "1140005": {
    "zipcode": "1140005",
    "prefectureCode": "13",
    "prefectureNumber": 13,
    "prefecture": "東京都",
    "city": "北区",
    "town": "栄町"
  },
  "1140011": {
    "zipcode": "1140011",
    "prefectureCode": "13",
    "prefectureNumber": 13,
    "prefecture": "東京都",
    "city": "北区",
    "town": "昭和町"
  },
  "1140012": {
    "zipcode": "1140012",
    "prefectureCode": "13",
    "prefectureNumber": 13,
    "prefecture": "東京都",
    "city": "北区",
    "town": "田端新町"
  },
  "1140013": {
    "zipcode": "1140013",
    "prefectureCode": "13",
    "prefectureNumber": 13,
    "prefecture": "東京都",
    "city": "北区",
    "town": "東田端"
  },
  "1140014": {
    "zipcode": "1140014",
    "prefectureCode": "13",
    "prefectureNumber": 13,
    "prefecture": "東京都",
    "city": "北区",
    "town": "田端"
  },
  "1140015": {
    "zipcode": "1140015",
    "prefectureCode": "13",
    "prefectureNumber": 13,
    "prefecture": "東京都",
    "city": "北区",
    "town": "中里"
  },
  "1140016": {
    "zipcode": "1140016",
    "prefectureCode": "13",
    "prefectureNumber": 13,
    "prefecture": "東京都",
    "city": "北区",
    "town": "上中里"
  },
  "1140021": {
    "zipcode": "1140021",
    "prefectureCode": "13",
    "prefectureNumber": 13,
    "prefecture": "東京都",
    "city": "北区",
    "town": "岸町"
  },
  "1140022": {
    "zipcode": "1140022",
    "prefectureCode": "13",
    "prefectureNumber": 13,
    "prefecture": "東京都",
    "city": "北区",
    "town": "王子本町"
  },
  "1140023": {
    "zipcode": "1140023",
    "prefectureCode": "13",
    "prefectureNumber": 13,
    "prefecture": "東京都",
    "city": "北区",
    "town": "滝野川"
  },
  "1140024": {
    "zipcode": "1140024",
    "prefectureCode": "13",
    "prefectureNumber": 13,
    "prefecture": "東京都",
    "city": "北区",
    "town": "西ケ原"
  },
  "1140031": {
    "zipcode": "1140031",
    "prefectureCode": "13",
    "prefectureNumber": 13,
    "prefecture": "東京都",
    "city": "北区",
    "town": "十条仲原"
  },
  "1140032": {
    "zipcode": "1140032",
    "prefectureCode": "13",
    "prefectureNumber": 13,
    "prefecture": "東京都",
    "city": "北区",
    "town": "中十条"
  },
  "1140033": {
    "zipcode": "1140033",
    "prefectureCode": "13",
    "prefectureNumber": 13,
    "prefecture": "東京都",
    "city": "北区",
    "town": "十条台"
  },
  "1140034": {
    "zipcode": "1140034",
    "prefectureCode": "13",
    "prefectureNumber": 13,
    "prefecture": "東京都",
    "city": "北区",
    "town": "上十条"
  }
}
