{
  "1150041": {
    "zipcode": "1150041",
    "prefectureCode": "13",
    "prefectureNumber": 13,
    "prefecture": "東京都",
    "city": "北区",
    "town": "岩淵町"
  },
  "1150042": {
    "zipcode": "1150042",
    "prefectureCode": "13",
    "prefectureNumber": 13,
    "prefecture": "東京都",
    "city": "北区",
    "town": "志茂"
  },
  "1150043": {
    "zipcode": "1150043",
    "prefectureCode": "13",
    "prefectureNumber": 13,
    "prefecture": "東京都",
    "city": "北区",
    "town": "神谷"
  },
  "1150044": {
    "zipcode": "1150044",
    "prefectureCode": "13",
    "prefectureNumber": 13,
    "prefecture": "東京都",
    "city": "北区",
    "town": "赤羽南"
  },
  "1150045": {
    "zipcode": "1150045",
    "prefectureCode": "13",
    "prefectureNumber": 13,
    "prefecture": "東京都",
    "city": "北区",
    "town": "赤羽"
  },
  "1150051": {
    "zipcode": "1150051",
    "prefectureCode": "13",
    "prefectureNumber": 13,
    "prefecture": "東京都",
    "city": "北区",
    "town": "浮間"
  },
  "1150052": {
    "zipcode": "1150052",
    "prefectureCode": "13",
    "prefectureNumber": 13,
    "prefecture": "東京都",
    "city": "北区",
    "town": "赤羽北"
  },
  "1150053": {
    "zipcode": "1150053",
    "prefectureCode": "13",
    "prefectureNumber": 13,
    "prefecture": "東京都",
    "city": "北区",
    "town": "赤羽台"
  },
  "1150054": {
    "zipcode": "1150054",
    "prefectureCode": "13",
    "prefectureNumber": 13,
    "prefecture": "東京都",
    "city": "北区",
    "town": "桐ケ丘"
  },
  "1150055": {
    "zipcode": "1150055",
    "prefectureCode": "13",
    "prefectureNumber": 13,
    "prefecture": "東京都",
    "city": "北区",
    "town": "赤羽西"
  },
  "1150056": {
    "zipcode": "1150056",
    "prefectureCode": "13",
    "prefectureNumber": 13,
    "prefecture": "東京都",
    "city": "北区",
    "town": "西が丘"
  }
}
