{
  "1200000": {
    "zipcode": "1200000",
    "prefectureCode": "13",
    "prefectureNumber": 13,
    "prefecture": "東京都",
    "city": "足立区",
    "town": "以下に掲載がない場合"
  },
  "1200001": {
    "zipcode": "1200001",
    "prefectureCode": "13",
    "prefectureNumber": 13,
    "prefecture": "東京都",
    "city": "足立区",
    "town": "大谷田"
  },
  "1200002": {
    "zipcode": "1200002",
    "prefectureCode": "13",
    "prefectureNumber": 13,
    "prefecture": "東京都",
    "city": "足立区",
    "town": "中川"
  },
  "1200003": {
    "zipcode": "1200003",
    "prefectureCode": "13",
    "prefectureNumber": 13,
    "prefecture": "東京都",
    "city": "足立区",
    "town": "東和"
  },
  "1200004": {
    "zipcode": "1200004",
    "prefectureCode": "13",
    "prefectureNumber": 13,
    "prefecture": "東京都",
    "city": "足立区",
    "town": "東綾瀬"
  },
  "1200005": {
    "zipcode": "1200005",
    "prefectureCode": "13",
    "prefectureNumber": 13,
    "prefecture": "東京都",
    "city": "足立区",
    "town": "綾瀬"
  },
  "1200006": {
    "zipcode": "1200006",
    "prefectureCode": "13",
    "prefectureNumber": 13,
    "prefecture": "東京都",
    "city": "足立区",
    "town": "谷中"
  },
  "1200011": {
    "zipcode": "1200011",
    "prefectureCode": "13",
    "prefectureNumber": 13,
    "prefecture": "東京都",
    "city": "足立区",
    "town": "中央本町（１、２丁目）"
  },
  "1200012": {
    "zipcode": "1200012",
    "prefectureCode": "13",
    "prefectureNumber": 13,
    "prefecture": "東京都",
    "city": "足立区",
    "town": "青井（１〜３丁目）"
  },
  "1200013": {
    "zipcode": "1200013",
    "prefectureCode": "13",
    "prefectureNumber": 13,
    "prefecture": "東京都",
    "city": "足立区",
    "town": "弘道"
  },
  "1200014": {
    "zipcode": "1200014",
    "prefectureCode": "13",
    "prefectureNumber": 13,
    "prefecture": "東京都",
    "city": "足立区",
    "town": "西綾瀬"
  },
  "1200015": {
    "zipcode": "1200015",
    "prefectureCode": "13",
    "prefectureNumber": 13,
    "prefecture": "東京都",
    "city": "足立区",
    "town": "足立"
  },
  "1200021": {
    "zipcode": "1200021",
    "prefectureCode": "13",
    "prefectureNumber": 13,
    "prefecture": "東京都",
    "city": "足立区",
    "town": "日ノ出町"
  },
  "1200022": {
    "zipcode": "1200022",
    "prefectureCode": "13",
    "prefectureNumber": 13,
    "prefecture": "東京都",
    "city": "足立区",
    "town": "柳原"
  },
  "1200023": {
    "zipcode": "1200023",
    "prefectureCode": "13",
    "prefectureNumber": 13,
    "prefecture": "東京都",
    "city": "足立区",
    "town": "千住曙町"
  },
  "1200024": {
    "zipcode": "1200024",
    "prefectureCode": "13",
    "prefectureNumber": 13,
    "prefecture": "東京都",
    "city": "足立区",
    "town": "千住関屋町"
  },
  "1200025": {
    "zipcode": "1200025",
    "prefectureCode": "13",
    "prefectureNumber": 13,
    "prefecture": "東京都",
    "city": "足立区",
    "town": "千住東"
  },
  "1200026": {
    "zipcode": "1200026",
    "prefectureCode": "13",
    "prefectureNumber": 13,
    "prefecture": "東京都",
    "city": "足立区",
    "town": "千住旭町"
  },
  "1200031": {
    "zipcode": "1200031",
    "prefectureCode": "13",
    "prefectureNumber": 13,
    "prefecture": "東京都",
    "city": "足立区",
    "town": "千住大川町"
  },
  "1200032": {
    "zipcode": "1200032",
    "prefectureCode": "13",
    "prefectureNumber": 13,
    "prefecture": "東京都",
    "city": "足立区",
    "town": "千住柳町"
  },
  "1200033": {
    "zipcode": "1200033",
    "prefectureCode": "13",
    "prefectureNumber": 13,
    "prefecture": "東京都",
    "city": "足立区",
    "town": "千住寿町"
  },
  "1200034": {
    "zipcode": "1200034",
    "prefectureCode": "13",
    "prefectureNumber": 13,
    "prefecture": "東京都",
    "city": "足立区",
    "town": "千住"
  },
  "1200035": {
    "zipcode": "1200035",
    "prefectureCode": "13",
    "prefectureNumber": 13,
    "prefecture": "東京都",
    "city": "足立区",
    "town": "千住中居町"
  },
  "1200036": {
    "zipcode": "1200036",
    "prefectureCode": "13",
    "prefectureNumber": 13,
    "prefecture": "東京都",
    "city": "足立区",
    "town": "千住仲町"
  },
  "1200037": {
    "zipcode": "1200037",
    "prefectureCode": "13",
    "prefectureNumber": 13,
    "prefecture": "東京都",
    "city": "足立区",
    "town": "千住河原町"
  },
  "1200038": {
    "zipcode": "1200038",
    "prefectureCode": "13",
    "prefectureNumber": 13,
    "prefecture": "東京都",
    "city": "足立区",
    "town": "千住橋戸町"
  },
  "1200041": {
    "zipcode": "1200041",
    "prefectureCode": "13",
    "prefectureNumber": 13,
    "prefecture": "東京都",
    "city": "足立区",
    "town": "千住元町"
  },
  "1200042": {
    "zipcode": "1200042",
    "prefectureCode": "13",
    "prefectureNumber": 13,
    "prefecture": "東京都",
    "city": "足立区",
    "town": "千住龍田町"
  },
  "1200043": {
    "zipcode": "1200043",
    "prefectureCode": "13",
    "prefectureNumber": 13,
    "prefecture": "東京都",
    "city": "足立区",
    "town": "千住宮元町"
  },
  "1200044": {
    "zipcode": "1200044",
    "prefectureCode": "13",
    "prefectureNumber": 13,
    "prefecture": "東京都",
    "city": "足立区",
    "town": "千住緑町"
  },
  "1200045": {
    "zipcode": "1200045",
    "prefectureCode": "13",
    "prefectureNumber": 13,
    "prefecture": "東京都",
    "city": "足立区",
    "town": "千住桜木"
  },
  "1200046": {
    "zipcode": "1200046",
    "prefectureCode": "13",
    "prefectureNumber": 13,
    "prefecture": "東京都",
    "city": "足立区",
    "town": "小台"
  },
  "1200047": {
    "zipcode": "1200047",
    "prefectureCode": "13",
    "prefectureNumber": 13,
    "prefecture": "東京都",
    "city": "足立区",
    "town": "宮城"
  }
}
