{
  "1210011": {
    "zipcode": "1210011",
    "prefectureCode": "13",
    "prefectureNumber": 13,
    "prefecture": "東京都",
    "city": "足立区",
    "town": "中央本町（３〜５丁目）"
  },
  "1210012": {
    "zipcode": "1210012",
    "prefectureCode": "13",
    "prefectureNumber": 13,
    "prefecture": "東京都",
    "city": "足立区",
    "town": "青井（４〜６丁目）"
  },
  "1210051": {
    "zipcode": "1210051",
    "prefectureCode": "13",
    "prefectureNumber": 13,
    "prefecture": "東京都",
    "city": "足立区",
    "town": "神明"
  },
  "1210052": {
    "zipcode": "1210052",
    "prefectureCode": "13",
    "prefectureNumber": 13,
    "prefecture": "東京都",
    "city": "足立区",
    "town": "六木"
  },
  "1210053": {
    "zipcode": "1210053",
    "prefectureCode": "13",
    "prefectureNumber": 13,
    "prefecture": "東京都",
    "city": "足立区",
    "town": "佐野"
  },
  "1210054": {
    "zipcode": "1210054",
    "prefectureCode": "13",
    "prefectureNumber": 13,
    "prefecture": "東京都",
    "city": "足立区",
    "town": "辰沼"
  },
  "1210055": {
    "zipcode": "1210055",
    "prefectureCode": "13",
    "prefectureNumber": 13,
    "prefecture": "東京都",
    "city": "足立区",
    "town": "加平"
  },
  "1210056": {
    "zipcode": "1210056",
    "prefectureCode": "13",
    "prefectureNumber": 13,
    "prefecture": "東京都",
    "city": "足立区",
    "town": "北加平町"
  },
  "1210057": {
    "zipcode": "1210057",
    "prefectureCode": "13",
    "prefectureNumber": 13,
    "prefecture": "東京都",
    "city": "足立区",
    "town": "神明南"
  },
  "1210061": {
    "zipcode": "1210061",
    "prefectureCode": "13",
    "prefectureNumber": 13,
    "prefecture": "東京都",
    "city": "足立区",
    "town": "花畑"
  },
  "1210062": {
    "zipcode": "1210062",
    "prefectureCode": "13",
    "prefectureNumber": 13,
    "prefecture": "東京都",
    "city": "足立区",
    "town": "南花畑"
  },
  "1210063": {
    "zipcode": "1210063",
    "prefectureCode": "13",
    "prefectureNumber": 13,
    "prefecture": "東京都",
    "city": "足立区",
    "town": "東保木間"
  },
  "1210064": {
    "zipcode": "1210064",
    "prefectureCode": "13",
    "prefectureNumber": 13,
    "prefecture": "東京都",
    "city": "足立区",
    "town": "保木間"
  },
  "1210071": {
    "zipcode": "1210071",
    "prefectureCode": "13",
    "prefectureNumber": 13,
    "prefecture": "東京都",
    "city": "足立区",
    "town": "東六月町"
  },
  "1210072": {
    "zipcode": "1210072",
    "prefectureCode": "13",
    "prefectureNumber": 13,
    "prefecture": "東京都",
    "city": "足立区",
    "town": "保塚町"
  },
  "1210073": {
    "zipcode": "1210073",
    "prefectureCode": "13",
    "prefectureNumber": 13,
    "prefecture": "東京都",
    "city": "足立区",
    "town": "六町"
  },
  "1210074": {
    "zipcode": "1210074",
    "prefectureCode": "13",
    "prefectureNumber": 13,
    "prefecture": "東京都",
    "city": "足立区",
    "town": "西加平"
  },
  "1210075": {
    "zipcode": "1210075",
    "prefectureCode": "13",
    "prefectureNumber": 13,
    "prefecture": "東京都",
    "city": "足立区",
    "town": "一ツ家"
  },
  "1210076": {
    "zipcode": "1210076",
    "prefectureCode": "13",
    "prefectureNumber": 13,
    "prefecture": "東京都",
    "city": "足立区",
    "town": "平野"
  },
  "1210801": {
    "zipcode": "1210801",
    "prefectureCode": "13",
    "prefectureNumber": 13,
    "prefecture": "東京都",
    "city": "足立区",
    "town": "東伊興"
  },
  "1210807": {
    "zipcode": "1210807",
    "prefectureCode": "13",
    "prefectureNumber": 13,
    "prefecture": "東京都",
    "city": "足立区",
    "town": "伊興本町"
  },
  "1210812": {
    "zipcode": "1210812",
    "prefectureCode": "13",
    "prefectureNumber": 13,
    "prefecture": "東京都",
    "city": "足立区",
    "town": "西保木間"
  },
  "1210813": {
    "zipcode": "1210813",
    "prefectureCode": "13",
    "prefectureNumber": 13,
    "prefecture": "東京都",
    "city": "足立区",
    "town": "竹の塚"
  },
  "1210814": {
    "zipcode": "1210814",
    "prefectureCode": "13",
    "prefectureNumber": 13,
    "prefecture": "東京都",
    "city": "足立区",
    "town": "六月"
  },
  "1210815": {
    "zipcode": "1210815",
    "prefectureCode": "13",
    "prefectureNumber": 13,
    "prefecture": "東京都",
    "city": "足立区",
    "town": "島根"
  },
  "1210816": {
    "zipcode": "1210816",
    "prefectureCode": "13",
    "prefectureNumber": 13,
    "prefecture": "東京都",
    "city": "足立区",
    "town": "梅島"
  },
  "1210822": {
    "zipcode": "1210822",
    "prefectureCode": "13",
    "prefectureNumber": 13,
    "prefecture": "東京都",
    "city": "足立区",
    "town": "西竹の塚"
  },
  "1210823": {
    "zipcode": "1210823",
    "prefectureCode": "13",
    "prefectureNumber": 13,
    "prefecture": "東京都",
    "city": "足立区",
    "town": "伊興"
  },
  "1210824": {
    "zipcode": "1210824",
    "prefectureCode": "13",
    "prefectureNumber": 13,
    "prefecture": "東京都",
    "city": "足立区",
    "town": "西伊興"
  },
  "1210825": {
    "zipcode": "1210825",
    "prefectureCode": "13",
    "prefectureNumber": 13,
    "prefecture": "東京都",
    "city": "足立区",
    "town": "西伊興町"
  },
  "1210831": {
    "zipcode": "1210831",
    "prefectureCode": "13",
    "prefectureNumber": 13,
    "prefecture": "東京都",
    "city": "足立区",
    "town": "舎人"
  },
  "1210832": {
    "zipcode": "1210832",
    "prefectureCode": "13",
    "prefectureNumber": 13,
    "prefecture": "東京都",
    "city": "足立区",
    "town": "古千谷本町"
  },
  "1210833": {
    "zipcode": "1210833",
    "prefectureCode": "13",
    "prefectureNumber": 13,
    "prefecture": "東京都",
    "city": "足立区",
    "town": "古千谷"
  },
  "1210834": {
    "zipcode": "1210834",
    "prefectureCode": "13",
    "prefectureNumber": 13,
    "prefecture": "東京都",
    "city": "足立区",
    "town": "入谷町"
  },
  "1210835": {
    "zipcode": "1210835",
    "prefectureCode": "13",
    "prefectureNumber": 13,
    "prefecture": "東京都",
    "city": "足立区",
    "town": "舎人町"
  },
  "1210836": {
    "zipcode": "1210836",
    "prefectureCode": "13",
    "prefectureNumber": 13,
    "prefecture": "東京都",
    "city": "足立区",
    "town": "入谷"
  },
  "1210837": {
    "zipcode": "1210837",
    "prefectureCode": "13",
    "prefectureNumber": 13,
    "prefecture": "東京都",
    "city": "足立区",
    "town": "舎人公園"
  }
}
