{
  "1230841": {
    "zipcode": "1230841",
    "prefectureCode": "13",
    "prefectureNumber": 13,
    "prefecture": "東京都",
    "city": "足立区",
    "town": "西新井"
  },
  "1230842": {
    "zipcode": "1230842",
    "prefectureCode": "13",
    "prefectureNumber": 13,
    "prefecture": "東京都",
    "city": "足立区",
    "town": "栗原"
  },
  "1230843": {
    "zipcode": "1230843",
    "prefectureCode": "13",
    "prefectureNumber": 13,
    "prefecture": "東京都",
    "city": "足立区",
    "town": "西新井栄町"
  },
  "1230844": {
    "zipcode": "1230844",
    "prefectureCode": "13",
    "prefectureNumber": 13,
    "prefecture": "東京都",
    "city": "足立区",
    "town": "興野"
  },
  "1230845": {
    "zipcode": "1230845",
    "prefectureCode": "13",
    "prefectureNumber": 13,
    "prefecture": "東京都",
    "city": "足立区",
    "town": "西新井本町"
  },
  "1230851": {
    "zipcode": "1230851",
    "prefectureCode": "13",
    "prefectureNumber": 13,
    "prefecture": "東京都",
    "city": "足立区",
    "town": "梅田"
  },
  "1230852": {
    "zipcode": "1230852",
    "prefectureCode": "13",
    "prefectureNumber": 13,
    "prefecture": "東京都",
    "city": "足立区",
    "town": "関原"
  },
  "1230853": {
    "zipcode": "1230853",
    "prefectureCode": "13",
    "prefectureNumber": 13,
    "prefecture": "東京都",
    "city": "足立区",
    "town": "本木"
  },
  "1230854": {
    "zipcode": "1230854",
    "prefectureCode": "13",
    "prefectureNumber": 13,
    "prefecture": "東京都",
    "city": "足立区",
    "town": "本木東町"
  },
  "1230855": {
    "zipcode": "1230855",
    "prefectureCode": "13",
    "prefectureNumber": 13,
    "prefecture": "東京都",
    "city": "足立区",
    "town": "本木南町"
  },
  "1230856": {
    "zipcode": "1230856",
    "prefectureCode": "13",
    "prefectureNumber": 13,
    "prefecture": "東京都",
    "city": "足立区",
    "town": "本木西町"
  },
  "1230857": {
    "zipcode": "1230857",
    "prefectureCode": "13",
    "prefectureNumber": 13,
    "prefecture": "東京都",
    "city": "足立区",
    "town": "本木北町"
  },
  "1230861": {
    "zipcode": "1230861",
    "prefectureCode": "13",
    "prefectureNumber": 13,
    "prefecture": "東京都",
    "city": "足立区",
    "town": "加賀"
  },
  "1230862": {
    "zipcode": "1230862",
    "prefectureCode": "13",
    "prefectureNumber": 13,
    "prefecture": "東京都",
    "city": "足立区",
    "town": "皿沼"
  },
  "1230863": {
    "zipcode": "1230863",
    "prefectureCode": "13",
    "prefectureNumber": 13,
    "prefecture": "東京都",
    "city": "足立区",
    "town": "谷在家"
  },
  "1230864": {
    "zipcode": "1230864",
    "prefectureCode": "13",
    "prefectureNumber": 13,
    "prefecture": "東京都",
    "city": "足立区",
    "town": "鹿浜"
  },
  "1230865": {
    "zipcode": "1230865",
    "prefectureCode": "13",
    "prefectureNumber": 13,
    "prefecture": "東京都",
    "city": "足立区",
    "town": "新田"
  },
  "1230871": {
    "zipcode": "1230871",
    "prefectureCode": "13",
    "prefectureNumber": 13,
    "prefecture": "東京都",
    "city": "足立区",
    "town": "椿"
  },
  "1230872": {
    "zipcode": "1230872",
    "prefectureCode": "13",
    "prefectureNumber": 13,
    "prefecture": "東京都",
    "city": "足立区",
    "town": "江北"
  },
  "1230873": {
    "zipcode": "1230873",
    "prefectureCode": "13",
    "prefectureNumber": 13,
    "prefecture": "東京都",
    "city": "足立区",
    "town": "扇"
  },
  "1230874": {
    "zipcode": "1230874",
    "prefectureCode": "13",
    "prefectureNumber": 13,
    "prefecture": "東京都",
    "city": "足立区",
    "town": "堀之内"
  }
}
