{
  "1240000": {
    "zipcode": "1240000",
    "prefectureCode": "13",
    "prefectureNumber": 13,
    "prefecture": "東京都",
    "city": "葛飾区",
    "town": "以下に掲載がない場合"
  },
  "1240001": {
    "zipcode": "1240001",
    "prefectureCode": "13",
    "prefectureNumber": 13,
    "prefecture": "東京都",
    "city": "葛飾区",
    "town": "小菅"
  },
  "1240002": {
    "zipcode": "1240002",
    "prefectureCode": "13",
    "prefectureNumber": 13,
    "prefecture": "東京都",
    "city": "葛飾区",
    "town": "西亀有（１、２丁目）"
  },
  "1240003": {
    "zipcode": "1240003",
    "prefectureCode": "13",
    "prefectureNumber": 13,
    "prefecture": "東京都",
    "city": "葛飾区",
    "town": "お花茶屋"
  },
  "1240004": {
    "zipcode": "1240004",
    "prefectureCode": "13",
    "prefectureNumber": 13,
    "prefecture": "東京都",
    "city": "葛飾区",
    "town": "東堀切"
  },
  "1240005": {
    "zipcode": "1240005",
    "prefectureCode": "13",
    "prefectureNumber": 13,
    "prefecture": "東京都",
    "city": "葛飾区",
    "town": "宝町"
  },
  "1240006": {
    "zipcode": "1240006",
    "prefectureCode": "13",
    "prefectureNumber": 13,
    "prefecture": "東京都",
    "city": "葛飾区",
    "town": "堀切"
  },
  "1240011": {
    "zipcode": "1240011",
    "prefectureCode": "13",
    "prefectureNumber": 13,
    "prefecture": "東京都",
    "city": "葛飾区",
    "town": "四つ木"
  },
  "1240012": {
    "zipcode": "1240012",
    "prefectureCode": "13",
    "prefectureNumber": 13,
    "prefecture": "東京都",
    "city": "葛飾区",
    "town": "立石"
  },
  "1240013": {
    "zipcode": "1240013",
    "prefectureCode": "13",
    "prefectureNumber": 13,
    "prefecture": "東京都",
    "city": "葛飾区",
    "town": "東立石"
  },
  "1240014": {
    "zipcode": "1240014",
    "prefectureCode": "13",
    "prefectureNumber": 13,
    "prefecture": "東京都",
    "city": "葛飾区",
    "town": "東四つ木"
  },
  "1240021": {
    "zipcode": "1240021",
    "prefectureCode": "13",
    "prefectureNumber": 13,
    "prefecture": "東京都",
    "city": "葛飾区",
    "town": "細田"
  },
  "1240022": {
    "zipcode": "1240022",
    "prefectureCode": "13",
    "prefectureNumber": 13,
    "prefecture": "東京都",
    "city": "葛飾区",
    "town": "奥戸"
  },
  "1240023": {
    "zipcode": "1240023",
    "prefectureCode": "13",
    "prefectureNumber": 13,
    "prefecture": "東京都",
    "city": "葛飾区",
    "town": "東新小岩"
  },
  "1240024": {
    "zipcode": "1240024",
    "prefectureCode": "13",
    "prefectureNumber": 13,
    "prefecture": "東京都",
    "city": "葛飾区",
    "town": "新小岩"
  },
  "1240025": {
    "zipcode": "1240025",
    "prefectureCode": "13",
    "prefectureNumber": 13,
    "prefecture": "東京都",
    "city": "葛飾区",
    "town": "西新小岩"
  }
}
