{
  "1250002": {
    "zipcode": "1250002",
    "prefectureCode": "13",
    "prefectureNumber": 13,
    "prefecture": "東京都",
    "city": "葛飾区",
    "town": "西亀有（３、４丁目）"
  },
  "1250031": {
    "zipcode": "1250031",
    "prefectureCode": "13",
    "prefectureNumber": 13,
    "prefecture": "東京都",
    "city": "葛飾区",
    "town": "西水元"
  },
  "1250032": {
    "zipcode": "1250032",
    "prefectureCode": "13",
    "prefectureNumber": 13,
    "prefecture": "東京都",
    "city": "葛飾区",
    "town": "水元"
  },
  "1250033": {
    "zipcode": "1250033",
    "prefectureCode": "13",
    "prefectureNumber": 13,
    "prefecture": "東京都",
    "city": "葛飾区",
    "town": "東水元"
  },
  "1250034": {
    "zipcode": "1250034",
    "prefectureCode": "13",
    "prefectureNumber": 13,
    "prefecture": "東京都",
    "city": "葛飾区",
    "town": "水元公園"
  },
  "1250035": {
    "zipcode": "1250035",
    "prefectureCode": "13",
    "prefectureNumber": 13,
    "prefecture": "東京都",
    "city": "葛飾区",
    "town": "南水元"
  },
  "1250041": {
    "zipcode": "1250041",
    "prefectureCode": "13",
    "prefectureNumber": 13,
    "prefecture": "東京都",
    "city": "葛飾区",
    "town": "東金町"
  },
  "1250042": {
    "zipcode": "1250042",
    "prefectureCode": "13",
    "prefectureNumber": 13,
    "prefecture": "東京都",
    "city": "葛飾区",
    "town": "金町"
  },
  "1250043": {
    "zipcode": "1250043",
    "prefectureCode": "13",
    "prefectureNumber": 13,
    "prefecture": "東京都",
    "city": "葛飾区",
    "town": "金町浄水場"
  },
  "1250051": {
    "zipcode": "1250051",
    "prefectureCode": "13",
    "prefectureNumber": 13,
    "prefecture": "東京都",
    "city": "葛飾区",
    "town": "新宿"
  },
  "1250052": {
    "zipcode": "1250052",
    "prefectureCode": "13",
    "prefectureNumber": 13,
    "prefecture": "東京都",
    "city": "葛飾区",
    "town": "柴又"
  },
  "1250053": {
    "zipcode": "1250053",
    "prefectureCode": "13",
    "prefectureNumber": 13,
    "prefecture": "東京都",
    "city": "葛飾区",
    "town": "鎌倉"
  },
  "1250054": {
    "zipcode": "1250054",
    "prefectureCode": "13",
    "prefectureNumber": 13,
    "prefecture": "東京都",
    "city": "葛飾区",
    "town": "高砂"
  },
  "1250061": {
    "zipcode": "1250061",
    "prefectureCode": "13",
    "prefectureNumber": 13,
    "prefecture": "東京都",
    "city": "葛飾区",
    "town": "亀有"
  },
  "1250062": {
    "zipcode": "1250062",
    "prefectureCode": "13",
    "prefectureNumber": 13,
    "prefecture": "東京都",
    "city": "葛飾区",
    "town": "青戸"
  },
  "1250063": {
    "zipcode": "1250063",
    "prefectureCode": "13",
    "prefectureNumber": 13,
    "prefecture": "東京都",
    "city": "葛飾区",
    "town": "白鳥"
  }
}
