{
  "1300000": {
    "zipcode": "1300000",
    "prefectureCode": "13",
    "prefectureNumber": 13,
    "prefecture": "東京都",
    "city": "墨田区",
    "town": "以下に掲載がない場合"
  },
  "1300001": {
    "zipcode": "1300001",
    "prefectureCode": "13",
    "prefectureNumber": 13,
    "prefecture": "東京都",
    "city": "墨田区",
    "town": "吾妻橋"
  },
  "1300002": {
    "zipcode": "1300002",
    "prefectureCode": "13",
    "prefectureNumber": 13,
    "prefecture": "東京都",
    "city": "墨田区",
    "town": "業平"
  },
  "1300003": {
    "zipcode": "1300003",
    "prefectureCode": "13",
    "prefectureNumber": 13,
    "prefecture": "東京都",
    "city": "墨田区",
    "town": "横川"
  },
  "1300004": {
    "zipcode": "1300004",
    "prefectureCode": "13",
    "prefectureNumber": 13,
    "prefecture": "東京都",
    "city": "墨田区",
    "town": "本所"
  },
  "1300005": {
    "zipcode": "1300005",
    "prefectureCode": "13",
    "prefectureNumber": 13,
    "prefecture": "東京都",
    "city": "墨田区",
    "town": "東駒形"
  },
  "1300011": {
    "zipcode": "1300011",
    "prefectureCode": "13",
    "prefectureNumber": 13,
    "prefecture": "東京都",
    "city": "墨田区",
    "town": "石原"
  },
  "1300012": {
    "zipcode": "1300012",
    "prefectureCode": "13",
    "prefectureNumber": 13,
    "prefecture": "東京都",
    "city": "墨田区",
    "town": "太平"
  },
  "1300013": {
    "zipcode": "1300013",
    "prefectureCode": "13",
    "prefectureNumber": 13,
    "prefecture": "東京都",
    "city": "墨田区",
    "town": "錦糸"
  },
  "1300014": {
    "zipcode": "1300014",
    "prefectureCode": "13",
    "prefectureNumber": 13,
    "prefecture": "東京都",
    "city": "墨田区",
    "town": "亀沢"
  },
  "1300015": {
    "zipcode": "1300015",
    "prefectureCode": "13",
    "prefectureNumber": 13,
    "prefecture": "東京都",
    "city": "墨田区",
    "town": "横網"
  },
  "1300021": {
    "zipcode": "1300021",
    "prefectureCode": "13",
    "prefectureNumber": 13,
    "prefecture": "東京都",
    "city": "墨田区",
    "town": "緑"
  },
  "1300022": {
    "zipcode": "1300022",
    "prefectureCode": "13",
    "prefectureNumber": 13,
    "prefecture": "東京都",
    "city": "墨田区",
    "town": "江東橋"
  },
  "1300023": {
    "zipcode": "1300023",
    "prefectureCode": "13",
    "prefectureNumber": 13,
    "prefecture": "東京都",
    "city": "墨田区",
    "town": "立川"
  },
  "1300024": {
    "zipcode": "1300024",
    "prefectureCode": "13",
    "prefectureNumber": 13,
    "prefecture": "東京都",
    "city": "墨田区",
    "town": "菊川"
  },
  "1300025": {
    "zipcode": "1300025",
    "prefectureCode": "13",
    "prefectureNumber": 13,
    "prefecture": "東京都",
    "city": "墨田区",
    "town": "千歳"
  },
  "1300026": {
    "zipcode": "1300026",
    "prefectureCode": "13",
    "prefectureNumber": 13,
    "prefecture": "東京都",
    "city": "墨田区",
    "town": "両国"
  }
}
