{
  "1310031": {
    "zipcode": "1310031",
    "prefectureCode": "13",
    "prefectureNumber": 13,
    "prefecture": "東京都",
    "city": "墨田区",
    "town": "墨田"
  },
  "1310032": {
    "zipcode": "1310032",
    "prefectureCode": "13",
    "prefectureNumber": 13,
    "prefecture": "東京都",
    "city": "墨田区",
    "town": "東向島"
  },
  "1310033": {
    "zipcode": "1310033",
    "prefectureCode": "13",
    "prefectureNumber": 13,
    "prefecture": "東京都",
    "city": "墨田区",
    "town": "向島"
  },
  "1310034": {
    "zipcode": "1310034",
    "prefectureCode": "13",
    "prefectureNumber": 13,
    "prefecture": "東京都",
    "city": "墨田区",
    "town": "堤通"
  },
  "1310041": {
    "zipcode": "1310041",
    "prefectureCode": "13",
    "prefectureNumber": 13,
    "prefecture": "東京都",
    "city": "墨田区",
    "town": "八広"
  },
  "1310042": {
    "zipcode": "1310042",
    "prefectureCode": "13",
    "prefectureNumber": 13,
    "prefecture": "東京都",
    "city": "墨田区",
    "town": "東墨田"
  },
  "1310043": {
    "zipcode": "1310043",
    "prefectureCode": "13",
    "prefectureNumber": 13,
    "prefecture": "東京都",
    "city": "墨田区",
    "town": "立花"
  },
  "1310044": {
    "zipcode": "1310044",
    "prefectureCode": "13",
    "prefectureNumber": 13,
    "prefecture": "東京都",
    "city": "墨田区",
    "town": "文花"
  },
  "1310045": {
    "zipcode": "1310045",
    "prefectureCode": "13",
    "prefectureNumber": 13,
    "prefecture": "東京都",
    "city": "墨田区",
    "town": "押上"
  },
  "1310046": {
    "zipcode": "1310046",
    "prefectureCode": "13",
    "prefectureNumber": 13,
    "prefecture": "東京都",
    "city": "墨田区",
    "town": "京島"
  }
}
