{
  "1320000": {
    "zipcode": "1320000",
    "prefectureCode": "13",
    "prefectureNumber": 13,
    "prefecture": "東京都",
    "city": "江戸川区",
    "town": "以下に掲載がない場合"
  },
  "1320001": {
    "zipcode": "1320001",
    "prefectureCode": "13",
    "prefectureNumber": 13,
    "prefecture": "東京都",
    "city": "江戸川区",
    "town": "新堀"
  },
  "1320002": {
    "zipcode": "1320002",
    "prefectureCode": "13",
    "prefectureNumber": 13,
    "prefecture": "東京都",
    "city": "江戸川区",
    "town": "谷河内（１丁目）"
  },
  "1320003": {
    "zipcode": "1320003",
    "prefectureCode": "13",
    "prefectureNumber": 13,
    "prefecture": "東京都",
    "city": "江戸川区",
    "town": "春江町（１〜３丁目）"
  },
  "1320011": {
    "zipcode": "1320011",
    "prefectureCode": "13",
    "prefectureNumber": 13,
    "prefecture": "東京都",
    "city": "江戸川区",
    "town": "瑞江"
  },
  "1320013": {
    "zipcode": "1320013",
    "prefectureCode": "13",
    "prefectureNumber": 13,
    "prefecture": "東京都",
    "city": "江戸川区",
    "town": "江戸川（１〜３丁目、４丁目１〜１４番）"
  },
  "1320014": {
    "zipcode": "1320014",
    "prefectureCode": "13",
    "prefectureNumber": 13,
    "prefecture": "東京都",
    "city": "江戸川区",
    "town": "東瑞江"
  },
  "1320015": {
    "zipcode": "1320015",
    "prefectureCode": "13",
    "prefectureNumber": 13,
    "prefecture": "東京都",
    "city": "江戸川区",
    "town": "西瑞江（３丁目、４丁目３〜９番）"
  },
  "1320021": {
    "zipcode": "1320021",
    "prefectureCode": "13",
    "prefectureNumber": 13,
    "prefecture": "東京都",
    "city": "江戸川区",
    "town": "中央"
  },
  "1320022": {
    "zipcode": "1320022",
    "prefectureCode": "13",
    "prefectureNumber": 13,
    "prefecture": "東京都",
    "city": "江戸川区",
    "town": "大杉"
  },
  "1320023": {
    "zipcode": "1320023",
    "prefectureCode": "13",
    "prefectureNumber": 13,
    "prefecture": "東京都",
    "city": "江戸川区",
    "town": "西一之江"
  },
  "1320024": {
    "zipcode": "1320024",
    "prefectureCode": "13",
    "prefectureNumber": 13,
    "prefecture": "東京都",
    "city": "江戸川区",
    "town": "一之江"
  },
  "1320025": {
    "zipcode": "1320025",
    "prefectureCode": "13",
    "prefectureNumber": 13,
    "prefecture": "東京都",
    "city": "江戸川区",
    "town": "松江"
  },
  "1320031": {
    "zipcode": "1320031",
    "prefectureCode": "13",
    "prefectureNumber": 13,
    "prefecture": "東京都",
    "city": "江戸川区",
    "town": "松島"
  },
  "1320032": {
    "zipcode": "1320032",
    "prefectureCode": "13",
    "prefectureNumber": 13,
    "prefecture": "東京都",
    "city": "江戸川区",
    "town": "西小松川町"
  },
  "1320033": {
    "zipcode": "1320033",
    "prefectureCode": "13",
    "prefectureNumber": 13,
    "prefecture": "東京都",
    "city": "江戸川区",
    "town": "東小松川"
  },
  "1320034": {
    "zipcode": "1320034",
    "prefectureCode": "13",
    "prefectureNumber": 13,
    "prefecture": "東京都",
    "city": "江戸川区",
    "town": "小松川"
  },
  "1320035": {
    "zipcode": "1320035",
    "prefectureCode": "13",
    "prefectureNumber": 13,
    "prefecture": "東京都",
    "city": "江戸川区",
    "town": "平井"
  }
}
