{
  "1330002": {
    "zipcode": "1330002",
    "prefectureCode": "13",
    "prefectureNumber": 13,
    "prefecture": "東京都",
    "city": "江戸川区",
    "town": "谷河内（２丁目）"
  },
  "1330041": {
    "zipcode": "1330041",
    "prefectureCode": "13",
    "prefectureNumber": 13,
    "prefecture": "東京都",
    "city": "江戸川区",
    "town": "上一色"
  },
  "1330042": {
    "zipcode": "1330042",
    "prefectureCode": "13",
    "prefectureNumber": 13,
    "prefecture": "東京都",
    "city": "江戸川区",
    "town": "興宮町"
  },
  "1330043": {
    "zipcode": "1330043",
    "prefectureCode": "13",
    "prefectureNumber": 13,
    "prefecture": "東京都",
    "city": "江戸川区",
    "town": "松本"
  },
  "1330044": {
    "zipcode": "1330044",
    "prefectureCode": "13",
    "prefectureNumber": 13,
    "prefecture": "東京都",
    "city": "江戸川区",
    "town": "本一色"
  },
  "1330051": {
    "zipcode": "1330051",
    "prefectureCode": "13",
    "prefectureNumber": 13,
    "prefecture": "東京都",
    "city": "江戸川区",
    "town": "北小岩"
  },
  "1330052": {
    "zipcode": "1330052",
    "prefectureCode": "13",
    "prefectureNumber": 13,
    "prefecture": "東京都",
    "city": "江戸川区",
    "town": "東小岩"
  },
  "1330053": {
    "zipcode": "1330053",
    "prefectureCode": "13",
    "prefectureNumber": 13,
    "prefecture": "東京都",
    "city": "江戸川区",
    "town": "北篠崎"
  },
  "1330054": {
    "zipcode": "1330054",
    "prefectureCode": "13",
    "prefectureNumber": 13,
    "prefecture": "東京都",
    "city": "江戸川区",
    "town": "上篠崎"
  },
  "1330055": {
    "zipcode": "1330055",
    "prefectureCode": "13",
    "prefectureNumber": 13,
    "prefecture": "東京都",
    "city": "江戸川区",
    "town": "西篠崎"
  },
  "1330056": {
    "zipcode": "1330056",
    "prefectureCode": "13",
    "prefectureNumber": 13,
    "prefecture": "東京都",
    "city": "江戸川区",
    "town": "南小岩"
  },
  "1330057": {
    "zipcode": "1330057",
    "prefectureCode": "13",
    "prefectureNumber": 13,
    "prefecture": "東京都",
    "city": "江戸川区",
    "town": "西小岩"
  },
  "1330061": {
    "zipcode": "1330061",
    "prefectureCode": "13",
    "prefectureNumber": 13,
    "prefecture": "東京都",
    "city": "江戸川区",
    "town": "篠崎町"
  },
  "1330062": {
    "zipcode": "1330062",
    "prefectureCode": "13",
    "prefectureNumber": 13,
    "prefecture": "東京都",
    "city": "江戸川区",
    "town": "東篠崎町"
  },
  "1330063": {
    "zipcode": "1330063",
    "prefectureCode": "13",
    "prefectureNumber": 13,
    "prefecture": "東京都",
    "city": "江戸川区",
    "town": "東篠崎"
  },
  "1330064": {
    "zipcode": "1330064",
    "prefectureCode": "13",
    "prefectureNumber": 13,
    "prefecture": "東京都",
    "city": "江戸川区",
    "town": "下篠崎町"
  },
  "1330065": {
    "zipcode": "1330065",
    "prefectureCode": "13",
    "prefectureNumber": 13,
    "prefecture": "東京都",
    "city": "江戸川区",
    "town": "南篠崎町"
  },
  "1330071": {
    "zipcode": "1330071",
    "prefectureCode": "13",
    "prefectureNumber": 13,
    "prefecture": "東京都",
    "city": "江戸川区",
    "town": "東松本"
  },
  "1330072": {
    "zipcode": "1330072",
    "prefectureCode": "13",
    "prefectureNumber": 13,
    "prefecture": "東京都",
    "city": "江戸川区",
    "town": "鹿骨町"
  },
  "1330073": {
    "zipcode": "1330073",
    "prefectureCode": "13",
    "prefectureNumber": 13,
    "prefecture": "東京都",
    "city": "江戸川区",
    "town": "鹿骨"
  }
}
