{
  "1340003": {
    "zipcode": "1340003",
    "prefectureCode": "13",
    "prefectureNumber": 13,
    "prefecture": "東京都",
    "city": "江戸川区",
    "town": "春江町（４、５丁目）"
  },
  "1340013": {
    "zipcode": "1340013",
    "prefectureCode": "13",
    "prefectureNumber": 13,
    "prefecture": "東京都",
    "city": "江戸川区",
    "town": "江戸川（その他）"
  },
  "1340015": {
    "zipcode": "1340015",
    "prefectureCode": "13",
    "prefectureNumber": 13,
    "prefecture": "東京都",
    "city": "江戸川区",
    "town": "西瑞江（４丁目１〜２番・１０〜２７番、５丁目）"
  },
  "1340081": {
    "zipcode": "1340081",
    "prefectureCode": "13",
    "prefectureNumber": 13,
    "prefecture": "東京都",
    "city": "江戸川区",
    "town": "北葛西"
  },
  "1340082": {
    "zipcode": "1340082",
    "prefectureCode": "13",
    "prefectureNumber": 13,
    "prefecture": "東京都",
    "city": "江戸川区",
    "town": "宇喜田町"
  },
  "1340083": {
    "zipcode": "1340083",
    "prefectureCode": "13",
    "prefectureNumber": 13,
    "prefecture": "東京都",
    "city": "江戸川区",
    "town": "中葛西"
  },
  "1340084": {
    "zipcode": "1340084",
    "prefectureCode": "13",
    "prefectureNumber": 13,
    "prefecture": "東京都",
    "city": "江戸川区",
    "town": "東葛西"
  },
  "1340085": {
    "zipcode": "1340085",
    "prefectureCode": "13",
    "prefectureNumber": 13,
    "prefecture": "東京都",
    "city": "江戸川区",
    "town": "南葛西"
  },
  "1340086": {
    "zipcode": "1340086",
    "prefectureCode": "13",
    "prefectureNumber": 13,
    "prefecture": "東京都",
    "city": "江戸川区",
    "town": "臨海町"
  },
  "1340087": {
    "zipcode": "1340087",
    "prefectureCode": "13",
    "prefectureNumber": 13,
    "prefecture": "東京都",
    "city": "江戸川区",
    "town": "清新町"
  },
  "1340088": {
    "zipcode": "1340088",
    "prefectureCode": "13",
    "prefectureNumber": 13,
    "prefecture": "東京都",
    "city": "江戸川区",
    "town": "西葛西"
  },
  "1340091": {
    "zipcode": "1340091",
    "prefectureCode": "13",
    "prefectureNumber": 13,
    "prefecture": "東京都",
    "city": "江戸川区",
    "town": "船堀"
  },
  "1340092": {
    "zipcode": "1340092",
    "prefectureCode": "13",
    "prefectureNumber": 13,
    "prefecture": "東京都",
    "city": "江戸川区",
    "town": "一之江町"
  },
  "1340093": {
    "zipcode": "1340093",
    "prefectureCode": "13",
    "prefectureNumber": 13,
    "prefecture": "東京都",
    "city": "江戸川区",
    "town": "二之江町"
  }
}
