{
  "1360071": {
    "zipcode": "1360071",
    "prefectureCode": "13",
    "prefectureNumber": 13,
    "prefecture": "東京都",
    "city": "江東区",
    "town": "亀戸"
  },
  "1360072": {
    "zipcode": "1360072",
    "prefectureCode": "13",
    "prefectureNumber": 13,
    "prefecture": "東京都",
    "city": "江東区",
    "town": "大島"
  },
  "1360073": {
    "zipcode": "1360073",
    "prefectureCode": "13",
    "prefectureNumber": 13,
    "prefecture": "東京都",
    "city": "江東区",
    "town": "北砂"
  },
  "1360074": {
    "zipcode": "1360074",
    "prefectureCode": "13",
    "prefectureNumber": 13,
    "prefecture": "東京都",
    "city": "江東区",
    "town": "東砂"
  },
  "1360075": {
    "zipcode": "1360075",
    "prefectureCode": "13",
    "prefectureNumber": 13,
    "prefecture": "東京都",
    "city": "江東区",
    "town": "新砂"
  },
  "1360076": {
    "zipcode": "1360076",
    "prefectureCode": "13",
    "prefectureNumber": 13,
    "prefecture": "東京都",
    "city": "江東区",
    "town": "南砂"
  },
  "1360081": {
    "zipcode": "1360081",
    "prefectureCode": "13",
    "prefectureNumber": 13,
    "prefecture": "東京都",
    "city": "江東区",
    "town": "夢の島"
  },
  "1360082": {
    "zipcode": "1360082",
    "prefectureCode": "13",
    "prefectureNumber": 13,
    "prefecture": "東京都",
    "city": "江東区",
    "town": "新木場"
  },
  "1360083": {
    "zipcode": "1360083",
    "prefectureCode": "13",
    "prefectureNumber": 13,
    "prefecture": "東京都",
    "city": "江東区",
    "town": "若洲"
  }
}
