{
  "1410001": {
    "zipcode": "1410001",
    "prefectureCode": "13",
    "prefectureNumber": 13,
    "prefecture": "東京都",
    "city": "品川区",
    "town": "北品川（５、６丁目）"
  },
  "1410021": {
    "zipcode": "1410021",
    "prefectureCode": "13",
    "prefectureNumber": 13,
    "prefecture": "東京都",
    "city": "品川区",
    "town": "上大崎"
  },
  "1410022": {
    "zipcode": "1410022",
    "prefectureCode": "13",
    "prefectureNumber": 13,
    "prefecture": "東京都",
    "city": "品川区",
    "town": "東五反田"
  },
  "1410031": {
    "zipcode": "1410031",
    "prefectureCode": "13",
    "prefectureNumber": 13,
    "prefecture": "東京都",
    "city": "品川区",
    "town": "西五反田"
  },
  "1410032": {
    "zipcode": "1410032",
    "prefectureCode": "13",
    "prefectureNumber": 13,
    "prefecture": "東京都",
    "city": "品川区",
    "town": "大崎（次のビルを除く）"
  },
  "1410033": {
    "zipcode": "1410033",
    "prefectureCode": "13",
    "prefectureNumber": 13,
    "prefecture": "東京都",
    "city": "品川区",
    "town": "西品川"
  },
  "1416001": {
    "zipcode": "1416001",
    "prefectureCode": "13",
    "prefectureNumber": 13,
    "prefecture": "東京都",
    "city": "品川区",
    "town": "大崎ＴｈｉｎｋＰａｒｋＴｏｗｅｒ（１階）"
  },
  "1416002": {
    "zipcode": "1416002",
    "prefectureCode": "13",
    "prefectureNumber": 13,
    "prefecture": "東京都",
    "city": "品川区",
    "town": "大崎ＴｈｉｎｋＰａｒｋＴｏｗｅｒ（２階）"
  },
  "1416003": {
    "zipcode": "1416003",
    "prefectureCode": "13",
    "prefectureNumber": 13,
    "prefecture": "東京都",
    "city": "品川区",
    "town": "大崎ＴｈｉｎｋＰａｒｋＴｏｗｅｒ（３階）"
  },
  "1416004": {
    "zipcode": "1416004",
    "prefectureCode": "13",
    "prefectureNumber": 13,
    "prefecture": "東京都",
    "city": "品川区",
    "town": "大崎ＴｈｉｎｋＰａｒｋＴｏｗｅｒ（４階）"
  },
  "1416005": {
    "zipcode": "1416005",
    "prefectureCode": "13",
    "prefectureNumber": 13,
    "prefecture": "東京都",
    "city": "品川区",
    "town": "大崎ＴｈｉｎｋＰａｒｋＴｏｗｅｒ（５階）"
  },
  "1416006": {
    "zipcode": "1416006",
    "prefectureCode": "13",
    "prefectureNumber": 13,
    "prefecture": "東京都",
    "city": "品川区",
    "town": "大崎ＴｈｉｎｋＰａｒｋＴｏｗｅｒ（６階）"
  },
  "1416007": {
    "zipcode": "1416007",
    "prefectureCode": "13",
    "prefectureNumber": 13,
    "prefecture": "東京都",
    "city": "品川区",
    "town": "大崎ＴｈｉｎｋＰａｒｋＴｏｗｅｒ（７階）"
  },
  "1416008": {
    "zipcode": "1416008",
    "prefectureCode": "13",
    "prefectureNumber": 13,
    "prefecture": "東京都",
    "city": "品川区",
    "town": "大崎ＴｈｉｎｋＰａｒｋＴｏｗｅｒ（８階）"
  },
  "1416009": {
    "zipcode": "1416009",
    "prefectureCode": "13",
    "prefectureNumber": 13,
    "prefecture": "東京都",
    "city": "品川区",
    "town": "大崎ＴｈｉｎｋＰａｒｋＴｏｗｅｒ（９階）"
  },
  "1416010": {
    "zipcode": "1416010",
    "prefectureCode": "13",
    "prefectureNumber": 13,
    "prefecture": "東京都",
    "city": "品川区",
    "town": "大崎ＴｈｉｎｋＰａｒｋＴｏｗｅｒ（１０階）"
  },
  "1416011": {
    "zipcode": "1416011",
    "prefectureCode": "13",
    "prefectureNumber": 13,
    "prefecture": "東京都",
    "city": "品川区",
    "town": "大崎ＴｈｉｎｋＰａｒｋＴｏｗｅｒ（１１階）"
  },
  "1416012": {
    "zipcode": "1416012",
    "prefectureCode": "13",
    "prefectureNumber": 13,
    "prefecture": "東京都",
    "city": "品川区",
    "town": "大崎ＴｈｉｎｋＰａｒｋＴｏｗｅｒ（１２階）"
  },
  "1416013": {
    "zipcode": "1416013",
    "prefectureCode": "13",
    "prefectureNumber": 13,
    "prefecture": "東京都",
    "city": "品川区",
    "town": "大崎ＴｈｉｎｋＰａｒｋＴｏｗｅｒ（１３階）"
  },
  "1416014": {
    "zipcode": "1416014",
    "prefectureCode": "13",
    "prefectureNumber": 13,
    "prefecture": "東京都",
    "city": "品川区",
    "town": "大崎ＴｈｉｎｋＰａｒｋＴｏｗｅｒ（１４階）"
  },
  "1416015": {
    "zipcode": "1416015",
    "prefectureCode": "13",
    "prefectureNumber": 13,
    "prefecture": "東京都",
    "city": "品川区",
    "town": "大崎ＴｈｉｎｋＰａｒｋＴｏｗｅｒ（１５階）"
  },
  "1416016": {
    "zipcode": "1416016",
    "prefectureCode": "13",
    "prefectureNumber": 13,
    "prefecture": "東京都",
    "city": "品川区",
    "town": "大崎ＴｈｉｎｋＰａｒｋＴｏｗｅｒ（１６階）"
  },
  "1416017": {
    "zipcode": "1416017",
    "prefectureCode": "13",
    "prefectureNumber": 13,
    "prefecture": "東京都",
    "city": "品川区",
    "town": "大崎ＴｈｉｎｋＰａｒｋＴｏｗｅｒ（１７階）"
  },
  "1416018": {
    "zipcode": "1416018",
    "prefectureCode": "13",
    "prefectureNumber": 13,
    "prefecture": "東京都",
    "city": "品川区",
    "town": "大崎ＴｈｉｎｋＰａｒｋＴｏｗｅｒ（１８階）"
  },
  "1416019": {
    "zipcode": "1416019",
    "prefectureCode": "13",
    "prefectureNumber": 13,
    "prefecture": "東京都",
    "city": "品川区",
    "town": "大崎ＴｈｉｎｋＰａｒｋＴｏｗｅｒ（１９階）"
  },
  "1416020": {
    "zipcode": "1416020",
    "prefectureCode": "13",
    "prefectureNumber": 13,
    "prefecture": "東京都",
    "city": "品川区",
    "town": "大崎ＴｈｉｎｋＰａｒｋＴｏｗｅｒ（２０階）"
  },
  "1416021": {
    "zipcode": "1416021",
    "prefectureCode": "13",
    "prefectureNumber": 13,
    "prefecture": "東京都",
    "city": "品川区",
    "town": "大崎ＴｈｉｎｋＰａｒｋＴｏｗｅｒ（２１階）"
  },
  "1416022": {
    "zipcode": "1416022",
    "prefectureCode": "13",
    "prefectureNumber": 13,
    "prefecture": "東京都",
    "city": "品川区",
    "town": "大崎ＴｈｉｎｋＰａｒｋＴｏｗｅｒ（２２階）"
  },
  "1416023": {
    "zipcode": "1416023",
    "prefectureCode": "13",
    "prefectureNumber": 13,
    "prefecture": "東京都",
    "city": "品川区",
    "town": "大崎ＴｈｉｎｋＰａｒｋＴｏｗｅｒ（２３階）"
  },
  "1416024": {
    "zipcode": "1416024",
    "prefectureCode": "13",
    "prefectureNumber": 13,
    "prefecture": "東京都",
    "city": "品川区",
    "town": "大崎ＴｈｉｎｋＰａｒｋＴｏｗｅｒ（２４階）"
  },
  "1416025": {
    "zipcode": "1416025",
    "prefectureCode": "13",
    "prefectureNumber": 13,
    "prefecture": "東京都",
    "city": "品川区",
    "town": "大崎ＴｈｉｎｋＰａｒｋＴｏｗｅｒ（２５階）"
  },
  "1416026": {
    "zipcode": "1416026",
    "prefectureCode": "13",
    "prefectureNumber": 13,
    "prefecture": "東京都",
    "city": "品川区",
    "town": "大崎ＴｈｉｎｋＰａｒｋＴｏｗｅｒ（２６階）"
  },
  "1416027": {
    "zipcode": "1416027",
    "prefectureCode": "13",
    "prefectureNumber": 13,
    "prefecture": "東京都",
    "city": "品川区",
    "town": "大崎ＴｈｉｎｋＰａｒｋＴｏｗｅｒ（２７階）"
  },
  "1416028": {
    "zipcode": "1416028",
    "prefectureCode": "13",
    "prefectureNumber": 13,
    "prefecture": "東京都",
    "city": "品川区",
    "town": "大崎ＴｈｉｎｋＰａｒｋＴｏｗｅｒ（２８階）"
  },
  "1416029": {
    "zipcode": "1416029",
    "prefectureCode": "13",
    "prefectureNumber": 13,
    "prefecture": "東京都",
    "city": "品川区",
    "town": "大崎ＴｈｉｎｋＰａｒｋＴｏｗｅｒ（２９階）"
  },
  "1416030": {
    "zipcode": "1416030",
    "prefectureCode": "13",
    "prefectureNumber": 13,
    "prefecture": "東京都",
    "city": "品川区",
    "town": "大崎ＴｈｉｎｋＰａｒｋＴｏｗｅｒ（３０階）"
  },
  "1416090": {
    "zipcode": "1416090",
    "prefectureCode": "13",
    "prefectureNumber": 13,
    "prefecture": "東京都",
    "city": "品川区",
    "town": "大崎ＴｈｉｎｋＰａｒｋＴｏｗｅｒ（地階・階層不明）"
  }
}
