{
  "1420041": {
    "zipcode": "1420041",
    "prefectureCode": "13",
    "prefectureNumber": 13,
    "prefecture": "東京都",
    "city": "品川区",
    "town": "戸越"
  },
  "1420042": {
    "zipcode": "1420042",
    "prefectureCode": "13",
    "prefectureNumber": 13,
    "prefecture": "東京都",
    "city": "品川区",
    "town": "豊町"
  },
  "1420043": {
    "zipcode": "1420043",
    "prefectureCode": "13",
    "prefectureNumber": 13,
    "prefecture": "東京都",
    "city": "品川区",
    "town": "二葉"
  },
  "1420051": {
    "zipcode": "1420051",
    "prefectureCode": "13",
    "prefectureNumber": 13,
    "prefecture": "東京都",
    "city": "品川区",
    "town": "平塚"
  },
  "1420052": {
    "zipcode": "1420052",
    "prefectureCode": "13",
    "prefectureNumber": 13,
    "prefecture": "東京都",
    "city": "品川区",
    "town": "東中延"
  },
  "1420053": {
    "zipcode": "1420053",
    "prefectureCode": "13",
    "prefectureNumber": 13,
    "prefecture": "東京都",
    "city": "品川区",
    "town": "中延"
  },
  "1420054": {
    "zipcode": "1420054",
    "prefectureCode": "13",
    "prefectureNumber": 13,
    "prefecture": "東京都",
    "city": "品川区",
    "town": "西中延"
  },
  "1420061": {
    "zipcode": "1420061",
    "prefectureCode": "13",
    "prefectureNumber": 13,
    "prefecture": "東京都",
    "city": "品川区",
    "town": "小山台"
  },
  "1420062": {
    "zipcode": "1420062",
    "prefectureCode": "13",
    "prefectureNumber": 13,
    "prefecture": "東京都",
    "city": "品川区",
    "town": "小山"
  },
  "1420063": {
    "zipcode": "1420063",
    "prefectureCode": "13",
    "prefectureNumber": 13,
    "prefecture": "東京都",
    "city": "品川区",
    "town": "荏原"
  },
  "1420064": {
    "zipcode": "1420064",
    "prefectureCode": "13",
    "prefectureNumber": 13,
    "prefecture": "東京都",
    "city": "品川区",
    "town": "旗の台"
  }
}
