{
  "1430001": {
    "zipcode": "1430001",
    "prefectureCode": "13",
    "prefectureNumber": 13,
    "prefecture": "東京都",
    "city": "大田区",
    "town": "東海"
  },
  "1430002": {
    "zipcode": "1430002",
    "prefectureCode": "13",
    "prefectureNumber": 13,
    "prefecture": "東京都",
    "city": "大田区",
    "town": "城南島"
  },
  "1430003": {
    "zipcode": "1430003",
    "prefectureCode": "13",
    "prefectureNumber": 13,
    "prefecture": "東京都",
    "city": "大田区",
    "town": "京浜島"
  },
  "1430004": {
    "zipcode": "1430004",
    "prefectureCode": "13",
    "prefectureNumber": 13,
    "prefecture": "東京都",
    "city": "大田区",
    "town": "昭和島"
  },
  "1430005": {
    "zipcode": "1430005",
    "prefectureCode": "13",
    "prefectureNumber": 13,
    "prefecture": "東京都",
    "city": "大田区",
    "town": "平和の森公園"
  },
  "1430006": {
    "zipcode": "1430006",
    "prefectureCode": "13",
    "prefectureNumber": 13,
    "prefecture": "東京都",
    "city": "大田区",
    "town": "平和島"
  },
  "1430007": {
    "zipcode": "1430007",
    "prefectureCode": "13",
    "prefectureNumber": 13,
    "prefecture": "東京都",
    "city": "大田区",
    "town": "ふるさとの浜辺公園"
  },
  "1430011": {
    "zipcode": "1430011",
    "prefectureCode": "13",
    "prefectureNumber": 13,
    "prefecture": "東京都",
    "city": "大田区",
    "town": "大森本町"
  },
  "1430012": {
    "zipcode": "1430012",
    "prefectureCode": "13",
    "prefectureNumber": 13,
    "prefecture": "東京都",
    "city": "大田区",
    "town": "大森東"
  },
  "1430013": {
    "zipcode": "1430013",
    "prefectureCode": "13",
    "prefectureNumber": 13,
    "prefecture": "東京都",
    "city": "大田区",
    "town": "大森南"
  },
  "1430014": {
    "zipcode": "1430014",
    "prefectureCode": "13",
    "prefectureNumber": 13,
    "prefecture": "東京都",
    "city": "大田区",
    "town": "大森中"
  },
  "1430015": {
    "zipcode": "1430015",
    "prefectureCode": "13",
    "prefectureNumber": 13,
    "prefecture": "東京都",
    "city": "大田区",
    "town": "大森西"
  },
  "1430016": {
    "zipcode": "1430016",
    "prefectureCode": "13",
    "prefectureNumber": 13,
    "prefecture": "東京都",
    "city": "大田区",
    "town": "大森北"
  },
  "1430021": {
    "zipcode": "1430021",
    "prefectureCode": "13",
    "prefectureNumber": 13,
    "prefecture": "東京都",
    "city": "大田区",
    "town": "北馬込"
  },
  "1430022": {
    "zipcode": "1430022",
    "prefectureCode": "13",
    "prefectureNumber": 13,
    "prefecture": "東京都",
    "city": "大田区",
    "town": "東馬込"
  },
  "1430023": {
    "zipcode": "1430023",
    "prefectureCode": "13",
    "prefectureNumber": 13,
    "prefecture": "東京都",
    "city": "大田区",
    "town": "山王"
  },
  "1430024": {
    "zipcode": "1430024",
    "prefectureCode": "13",
    "prefectureNumber": 13,
    "prefecture": "東京都",
    "city": "大田区",
    "town": "中央"
  },
  "1430025": {
    "zipcode": "1430025",
    "prefectureCode": "13",
    "prefectureNumber": 13,
    "prefecture": "東京都",
    "city": "大田区",
    "town": "南馬込"
  },
  "1430026": {
    "zipcode": "1430026",
    "prefectureCode": "13",
    "prefectureNumber": 13,
    "prefecture": "東京都",
    "city": "大田区",
    "town": "西馬込"
  },
  "1430027": {
    "zipcode": "1430027",
    "prefectureCode": "13",
    "prefectureNumber": 13,
    "prefecture": "東京都",
    "city": "大田区",
    "town": "中馬込"
  }
}
