{
  "1440000": {
    "zipcode": "1440000",
    "prefectureCode": "13",
    "prefectureNumber": 13,
    "prefecture": "東京都",
    "city": "大田区",
    "town": "以下に掲載がない場合"
  },
  "1440031": {
    "zipcode": "1440031",
    "prefectureCode": "13",
    "prefectureNumber": 13,
    "prefecture": "東京都",
    "city": "大田区",
    "town": "東蒲田"
  },
  "1440032": {
    "zipcode": "1440032",
    "prefectureCode": "13",
    "prefectureNumber": 13,
    "prefecture": "東京都",
    "city": "大田区",
    "town": "北糀谷"
  },
  "1440033": {
    "zipcode": "1440033",
    "prefectureCode": "13",
    "prefectureNumber": 13,
    "prefecture": "東京都",
    "city": "大田区",
    "town": "東糀谷"
  },
  "1440034": {
    "zipcode": "1440034",
    "prefectureCode": "13",
    "prefectureNumber": 13,
    "prefecture": "東京都",
    "city": "大田区",
    "town": "西糀谷"
  },
  "1440035": {
    "zipcode": "1440035",
    "prefectureCode": "13",
    "prefectureNumber": 13,
    "prefecture": "東京都",
    "city": "大田区",
    "town": "南蒲田"
  },
  "1440041": {
    "zipcode": "1440041",
    "prefectureCode": "13",
    "prefectureNumber": 13,
    "prefecture": "東京都",
    "city": "大田区",
    "town": "羽田空港"
  },
  "1440042": {
    "zipcode": "1440042",
    "prefectureCode": "13",
    "prefectureNumber": 13,
    "prefecture": "東京都",
    "city": "大田区",
    "town": "羽田旭町"
  },
  "1440043": {
    "zipcode": "1440043",
    "prefectureCode": "13",
    "prefectureNumber": 13,
    "prefecture": "東京都",
    "city": "大田区",
    "town": "羽田"
  },
  "1440044": {
    "zipcode": "1440044",
    "prefectureCode": "13",
    "prefectureNumber": 13,
    "prefecture": "東京都",
    "city": "大田区",
    "town": "本羽田"
  },
  "1440045": {
    "zipcode": "1440045",
    "prefectureCode": "13",
    "prefectureNumber": 13,
    "prefecture": "東京都",
    "city": "大田区",
    "town": "南六郷"
  },
  "1440046": {
    "zipcode": "1440046",
    "prefectureCode": "13",
    "prefectureNumber": 13,
    "prefecture": "東京都",
    "city": "大田区",
    "town": "東六郷"
  },
  "1440047": {
    "zipcode": "1440047",
    "prefectureCode": "13",
    "prefectureNumber": 13,
    "prefecture": "東京都",
    "city": "大田区",
    "town": "萩中"
  },
  "1440051": {
    "zipcode": "1440051",
    "prefectureCode": "13",
    "prefectureNumber": 13,
    "prefecture": "東京都",
    "city": "大田区",
    "town": "西蒲田"
  },
  "1440052": {
    "zipcode": "1440052",
    "prefectureCode": "13",
    "prefectureNumber": 13,
    "prefecture": "東京都",
    "city": "大田区",
    "town": "蒲田"
  },
  "1440053": {
    "zipcode": "1440053",
    "prefectureCode": "13",
    "prefectureNumber": 13,
    "prefecture": "東京都",
    "city": "大田区",
    "town": "蒲田本町"
  },
  "1440054": {
    "zipcode": "1440054",
    "prefectureCode": "13",
    "prefectureNumber": 13,
    "prefecture": "東京都",
    "city": "大田区",
    "town": "新蒲田"
  },
  "1440055": {
    "zipcode": "1440055",
    "prefectureCode": "13",
    "prefectureNumber": 13,
    "prefecture": "東京都",
    "city": "大田区",
    "town": "仲六郷"
  },
  "1440056": {
    "zipcode": "1440056",
    "prefectureCode": "13",
    "prefectureNumber": 13,
    "prefecture": "東京都",
    "city": "大田区",
    "town": "西六郷"
  }
}
