{
  "1450061": {
    "zipcode": "1450061",
    "prefectureCode": "13",
    "prefectureNumber": 13,
    "prefecture": "東京都",
    "city": "大田区",
    "town": "石川町"
  },
  "1450062": {
    "zipcode": "1450062",
    "prefectureCode": "13",
    "prefectureNumber": 13,
    "prefecture": "東京都",
    "city": "大田区",
    "town": "北千束"
  },
  "1450063": {
    "zipcode": "1450063",
    "prefectureCode": "13",
    "prefectureNumber": 13,
    "prefecture": "東京都",
    "city": "大田区",
    "town": "南千束"
  },
  "1450064": {
    "zipcode": "1450064",
    "prefectureCode": "13",
    "prefectureNumber": 13,
    "prefecture": "東京都",
    "city": "大田区",
    "town": "上池台"
  },
  "1450065": {
    "zipcode": "1450065",
    "prefectureCode": "13",
    "prefectureNumber": 13,
    "prefecture": "東京都",
    "city": "大田区",
    "town": "東雪谷"
  },
  "1450066": {
    "zipcode": "1450066",
    "prefectureCode": "13",
    "prefectureNumber": 13,
    "prefecture": "東京都",
    "city": "大田区",
    "town": "南雪谷"
  },
  "1450067": {
    "zipcode": "1450067",
    "prefectureCode": "13",
    "prefectureNumber": 13,
    "prefecture": "東京都",
    "city": "大田区",
    "town": "雪谷大塚町"
  },
  "1450071": {
    "zipcode": "1450071",
    "prefectureCode": "13",
    "prefectureNumber": 13,
    "prefecture": "東京都",
    "city": "大田区",
    "town": "田園調布"
  },
  "1450072": {
    "zipcode": "1450072",
    "prefectureCode": "13",
    "prefectureNumber": 13,
    "prefecture": "東京都",
    "city": "大田区",
    "town": "田園調布本町"
  },
  "1450073": {
    "zipcode": "1450073",
    "prefectureCode": "13",
    "prefectureNumber": 13,
    "prefecture": "東京都",
    "city": "大田区",
    "town": "北嶺町"
  },
  "1450074": {
    "zipcode": "1450074",
    "prefectureCode": "13",
    "prefectureNumber": 13,
    "prefecture": "東京都",
    "city": "大田区",
    "town": "東嶺町"
  },
  "1450075": {
    "zipcode": "1450075",
    "prefectureCode": "13",
    "prefectureNumber": 13,
    "prefecture": "東京都",
    "city": "大田区",
    "town": "西嶺町"
  },
  "1450076": {
    "zipcode": "1450076",
    "prefectureCode": "13",
    "prefectureNumber": 13,
    "prefecture": "東京都",
    "city": "大田区",
    "town": "田園調布南"
  }
}
