{
  "1460081": {
    "zipcode": "1460081",
    "prefectureCode": "13",
    "prefectureNumber": 13,
    "prefecture": "東京都",
    "city": "大田区",
    "town": "仲池上"
  },
  "1460082": {
    "zipcode": "1460082",
    "prefectureCode": "13",
    "prefectureNumber": 13,
    "prefecture": "東京都",
    "city": "大田区",
    "town": "池上"
  },
  "1460083": {
    "zipcode": "1460083",
    "prefectureCode": "13",
    "prefectureNumber": 13,
    "prefecture": "東京都",
    "city": "大田区",
    "town": "千鳥"
  },
  "1460084": {
    "zipcode": "1460084",
    "prefectureCode": "13",
    "prefectureNumber": 13,
    "prefecture": "東京都",
    "city": "大田区",
    "town": "南久が原"
  },
  "1460085": {
    "zipcode": "1460085",
    "prefectureCode": "13",
    "prefectureNumber": 13,
    "prefecture": "東京都",
    "city": "大田区",
    "town": "久が原"
  },
  "1460091": {
    "zipcode": "1460091",
    "prefectureCode": "13",
    "prefectureNumber": 13,
    "prefecture": "東京都",
    "city": "大田区",
    "town": "鵜の木"
  },
  "1460092": {
    "zipcode": "1460092",
    "prefectureCode": "13",
    "prefectureNumber": 13,
    "prefecture": "東京都",
    "city": "大田区",
    "town": "下丸子"
  },
  "1460093": {
    "zipcode": "1460093",
    "prefectureCode": "13",
    "prefectureNumber": 13,
    "prefecture": "東京都",
    "city": "大田区",
    "town": "矢口"
  },
  "1460094": {
    "zipcode": "1460094",
    "prefectureCode": "13",
    "prefectureNumber": 13,
    "prefecture": "東京都",
    "city": "大田区",
    "town": "東矢口"
  },
  "1460095": {
    "zipcode": "1460095",
    "prefectureCode": "13",
    "prefectureNumber": 13,
    "prefecture": "東京都",
    "city": "大田区",
    "town": "多摩川"
  }
}
