{
  "1510051": {
    "zipcode": "1510051",
    "prefectureCode": "13",
    "prefectureNumber": 13,
    "prefecture": "東京都",
    "city": "渋谷区",
    "town": "千駄ヶ谷"
  },
  "1510052": {
    "zipcode": "1510052",
    "prefectureCode": "13",
    "prefectureNumber": 13,
    "prefecture": "東京都",
    "city": "渋谷区",
    "town": "代々木神園町"
  },
  "1510053": {
    "zipcode": "1510053",
    "prefectureCode": "13",
    "prefectureNumber": 13,
    "prefecture": "東京都",
    "city": "渋谷区",
    "town": "代々木"
  },
  "1510061": {
    "zipcode": "1510061",
    "prefectureCode": "13",
    "prefectureNumber": 13,
    "prefecture": "東京都",
    "city": "渋谷区",
    "town": "初台"
  },
  "1510062": {
    "zipcode": "1510062",
    "prefectureCode": "13",
    "prefectureNumber": 13,
    "prefecture": "東京都",
    "city": "渋谷区",
    "town": "元代々木町"
  },
  "1510063": {
    "zipcode": "1510063",
    "prefectureCode": "13",
    "prefectureNumber": 13,
    "prefecture": "東京都",
    "city": "渋谷区",
    "town": "富ヶ谷"
  },
  "1510064": {
    "zipcode": "1510064",
    "prefectureCode": "13",
    "prefectureNumber": 13,
    "prefecture": "東京都",
    "city": "渋谷区",
    "town": "上原"
  },
  "1510065": {
    "zipcode": "1510065",
    "prefectureCode": "13",
    "prefectureNumber": 13,
    "prefecture": "東京都",
    "city": "渋谷区",
    "town": "大山町"
  },
  "1510066": {
    "zipcode": "1510066",
    "prefectureCode": "13",
    "prefectureNumber": 13,
    "prefecture": "東京都",
    "city": "渋谷区",
    "town": "西原"
  },
  "1510071": {
    "zipcode": "1510071",
    "prefectureCode": "13",
    "prefectureNumber": 13,
    "prefecture": "東京都",
    "city": "渋谷区",
    "town": "本町"
  },
  "1510072": {
    "zipcode": "1510072",
    "prefectureCode": "13",
    "prefectureNumber": 13,
    "prefecture": "東京都",
    "city": "渋谷区",
    "town": "幡ヶ谷"
  },
  "1510073": {
    "zipcode": "1510073",
    "prefectureCode": "13",
    "prefectureNumber": 13,
    "prefecture": "東京都",
    "city": "渋谷区",
    "town": "笹塚"
  }
}
