{
  "1520000": {
    "zipcode": "1520000",
    "prefectureCode": "13",
    "prefectureNumber": 13,
    "prefecture": "東京都",
    "city": "目黒区",
    "town": "以下に掲載がない場合"
  },
  "1520001": {
    "zipcode": "1520001",
    "prefectureCode": "13",
    "prefectureNumber": 13,
    "prefecture": "東京都",
    "city": "目黒区",
    "town": "中央町"
  },
  "1520002": {
    "zipcode": "1520002",
    "prefectureCode": "13",
    "prefectureNumber": 13,
    "prefecture": "東京都",
    "city": "目黒区",
    "town": "目黒本町"
  },
  "1520003": {
    "zipcode": "1520003",
    "prefectureCode": "13",
    "prefectureNumber": 13,
    "prefecture": "東京都",
    "city": "目黒区",
    "town": "碑文谷"
  },
  "1520004": {
    "zipcode": "1520004",
    "prefectureCode": "13",
    "prefectureNumber": 13,
    "prefecture": "東京都",
    "city": "目黒区",
    "town": "鷹番"
  },
  "1520011": {
    "zipcode": "1520011",
    "prefectureCode": "13",
    "prefectureNumber": 13,
    "prefecture": "東京都",
    "city": "目黒区",
    "town": "原町"
  },
  "1520012": {
    "zipcode": "1520012",
    "prefectureCode": "13",
    "prefectureNumber": 13,
    "prefecture": "東京都",
    "city": "目黒区",
    "town": "洗足"
  },
  "1520013": {
    "zipcode": "1520013",
    "prefectureCode": "13",
    "prefectureNumber": 13,
    "prefecture": "東京都",
    "city": "目黒区",
    "town": "南"
  },
  "1520021": {
    "zipcode": "1520021",
    "prefectureCode": "13",
    "prefectureNumber": 13,
    "prefecture": "東京都",
    "city": "目黒区",
    "town": "東が丘"
  },
  "1520022": {
    "zipcode": "1520022",
    "prefectureCode": "13",
    "prefectureNumber": 13,
    "prefecture": "東京都",
    "city": "目黒区",
    "town": "柿の木坂"
  },
  "1520023": {
    "zipcode": "1520023",
    "prefectureCode": "13",
    "prefectureNumber": 13,
    "prefecture": "東京都",
    "city": "目黒区",
    "town": "八雲"
  },
  "1520031": {
    "zipcode": "1520031",
    "prefectureCode": "13",
    "prefectureNumber": 13,
    "prefecture": "東京都",
    "city": "目黒区",
    "town": "中根"
  },
  "1520032": {
    "zipcode": "1520032",
    "prefectureCode": "13",
    "prefectureNumber": 13,
    "prefecture": "東京都",
    "city": "目黒区",
    "town": "平町"
  },
  "1520033": {
    "zipcode": "1520033",
    "prefectureCode": "13",
    "prefectureNumber": 13,
    "prefecture": "東京都",
    "city": "目黒区",
    "town": "大岡山"
  },
  "1520034": {
    "zipcode": "1520034",
    "prefectureCode": "13",
    "prefectureNumber": 13,
    "prefecture": "東京都",
    "city": "目黒区",
    "town": "緑が丘"
  },
  "1520035": {
    "zipcode": "1520035",
    "prefectureCode": "13",
    "prefectureNumber": 13,
    "prefecture": "東京都",
    "city": "目黒区",
    "town": "自由が丘"
  }
}
