{
  "1530041": {
    "zipcode": "1530041",
    "prefectureCode": "13",
    "prefectureNumber": 13,
    "prefecture": "東京都",
    "city": "目黒区",
    "town": "駒場"
  },
  "1530042": {
    "zipcode": "1530042",
    "prefectureCode": "13",
    "prefectureNumber": 13,
    "prefecture": "東京都",
    "city": "目黒区",
    "town": "青葉台"
  },
  "1530043": {
    "zipcode": "1530043",
    "prefectureCode": "13",
    "prefectureNumber": 13,
    "prefecture": "東京都",
    "city": "目黒区",
    "town": "東山"
  },
  "1530044": {
    "zipcode": "1530044",
    "prefectureCode": "13",
    "prefectureNumber": 13,
    "prefecture": "東京都",
    "city": "目黒区",
    "town": "大橋"
  },
  "1530051": {
    "zipcode": "1530051",
    "prefectureCode": "13",
    "prefectureNumber": 13,
    "prefecture": "東京都",
    "city": "目黒区",
    "town": "上目黒"
  },
  "1530052": {
    "zipcode": "1530052",
    "prefectureCode": "13",
    "prefectureNumber": 13,
    "prefecture": "東京都",
    "city": "目黒区",
    "town": "祐天寺"
  },
  "1530053": {
    "zipcode": "1530053",
    "prefectureCode": "13",
    "prefectureNumber": 13,
    "prefecture": "東京都",
    "city": "目黒区",
    "town": "五本木"
  },
  "1530061": {
    "zipcode": "1530061",
    "prefectureCode": "13",
    "prefectureNumber": 13,
    "prefecture": "東京都",
    "city": "目黒区",
    "town": "中目黒"
  },
  "1530062": {
    "zipcode": "1530062",
    "prefectureCode": "13",
    "prefectureNumber": 13,
    "prefecture": "東京都",
    "city": "目黒区",
    "town": "三田"
  },
  "1530063": {
    "zipcode": "1530063",
    "prefectureCode": "13",
    "prefectureNumber": 13,
    "prefecture": "東京都",
    "city": "目黒区",
    "town": "目黒"
  },
  "1530064": {
    "zipcode": "1530064",
    "prefectureCode": "13",
    "prefectureNumber": 13,
    "prefecture": "東京都",
    "city": "目黒区",
    "town": "下目黒"
  },
  "1530065": {
    "zipcode": "1530065",
    "prefectureCode": "13",
    "prefectureNumber": 13,
    "prefecture": "東京都",
    "city": "目黒区",
    "town": "中町"
  }
}
