{
  "1540000": {
    "zipcode": "1540000",
    "prefectureCode": "13",
    "prefectureNumber": 13,
    "prefecture": "東京都",
    "city": "世田谷区",
    "town": "以下に掲載がない場合"
  },
  "1540001": {
    "zipcode": "1540001",
    "prefectureCode": "13",
    "prefectureNumber": 13,
    "prefecture": "東京都",
    "city": "世田谷区",
    "town": "池尻"
  },
  "1540002": {
    "zipcode": "1540002",
    "prefectureCode": "13",
    "prefectureNumber": 13,
    "prefecture": "東京都",
    "city": "世田谷区",
    "town": "下馬"
  },
  "1540003": {
    "zipcode": "1540003",
    "prefectureCode": "13",
    "prefectureNumber": 13,
    "prefecture": "東京都",
    "city": "世田谷区",
    "town": "野沢"
  },
  "1540004": {
    "zipcode": "1540004",
    "prefectureCode": "13",
    "prefectureNumber": 13,
    "prefecture": "東京都",
    "city": "世田谷区",
    "town": "太子堂"
  },
  "1540005": {
    "zipcode": "1540005",
    "prefectureCode": "13",
    "prefectureNumber": 13,
    "prefecture": "東京都",
    "city": "世田谷区",
    "town": "三宿"
  },
  "1540011": {
    "zipcode": "1540011",
    "prefectureCode": "13",
    "prefectureNumber": 13,
    "prefecture": "東京都",
    "city": "世田谷区",
    "town": "上馬"
  },
  "1540012": {
    "zipcode": "1540012",
    "prefectureCode": "13",
    "prefectureNumber": 13,
    "prefecture": "東京都",
    "city": "世田谷区",
    "town": "駒沢"
  },
  "1540013": {
    "zipcode": "1540013",
    "prefectureCode": "13",
    "prefectureNumber": 13,
    "prefecture": "東京都",
    "city": "世田谷区",
    "town": "駒沢公園"
  },
  "1540014": {
    "zipcode": "1540014",
    "prefectureCode": "13",
    "prefectureNumber": 13,
    "prefecture": "東京都",
    "city": "世田谷区",
    "town": "新町"
  },
  "1540015": {
    "zipcode": "1540015",
    "prefectureCode": "13",
    "prefectureNumber": 13,
    "prefecture": "東京都",
    "city": "世田谷区",
    "town": "桜新町"
  },
  "1540016": {
    "zipcode": "1540016",
    "prefectureCode": "13",
    "prefectureNumber": 13,
    "prefecture": "東京都",
    "city": "世田谷区",
    "town": "弦巻"
  },
  "1540017": {
    "zipcode": "1540017",
    "prefectureCode": "13",
    "prefectureNumber": 13,
    "prefecture": "東京都",
    "city": "世田谷区",
    "town": "世田谷"
  },
  "1540021": {
    "zipcode": "1540021",
    "prefectureCode": "13",
    "prefectureNumber": 13,
    "prefecture": "東京都",
    "city": "世田谷区",
    "town": "豪徳寺"
  },
  "1540022": {
    "zipcode": "1540022",
    "prefectureCode": "13",
    "prefectureNumber": 13,
    "prefecture": "東京都",
    "city": "世田谷区",
    "town": "梅丘"
  },
  "1540023": {
    "zipcode": "1540023",
    "prefectureCode": "13",
    "prefectureNumber": 13,
    "prefecture": "東京都",
    "city": "世田谷区",
    "town": "若林"
  },
  "1540024": {
    "zipcode": "1540024",
    "prefectureCode": "13",
    "prefectureNumber": 13,
    "prefecture": "東京都",
    "city": "世田谷区",
    "town": "三軒茶屋"
  }
}
