{
  "1570061": {
    "zipcode": "1570061",
    "prefectureCode": "13",
    "prefectureNumber": 13,
    "prefecture": "東京都",
    "city": "世田谷区",
    "town": "北烏山"
  },
  "1570062": {
    "zipcode": "1570062",
    "prefectureCode": "13",
    "prefectureNumber": 13,
    "prefecture": "東京都",
    "city": "世田谷区",
    "town": "南烏山"
  },
  "1570063": {
    "zipcode": "1570063",
    "prefectureCode": "13",
    "prefectureNumber": 13,
    "prefecture": "東京都",
    "city": "世田谷区",
    "town": "粕谷"
  },
  "1570064": {
    "zipcode": "1570064",
    "prefectureCode": "13",
    "prefectureNumber": 13,
    "prefecture": "東京都",
    "city": "世田谷区",
    "town": "給田"
  },
  "1570065": {
    "zipcode": "1570065",
    "prefectureCode": "13",
    "prefectureNumber": 13,
    "prefecture": "東京都",
    "city": "世田谷区",
    "town": "上祖師谷"
  },
  "1570066": {
    "zipcode": "1570066",
    "prefectureCode": "13",
    "prefectureNumber": 13,
    "prefecture": "東京都",
    "city": "世田谷区",
    "town": "成城"
  },
  "1570067": {
    "zipcode": "1570067",
    "prefectureCode": "13",
    "prefectureNumber": 13,
    "prefecture": "東京都",
    "city": "世田谷区",
    "town": "喜多見"
  },
  "1570068": {
    "zipcode": "1570068",
    "prefectureCode": "13",
    "prefectureNumber": 13,
    "prefecture": "東京都",
    "city": "世田谷区",
    "town": "宇奈根"
  },
  "1570071": {
    "zipcode": "1570071",
    "prefectureCode": "13",
    "prefectureNumber": 13,
    "prefecture": "東京都",
    "city": "世田谷区",
    "town": "千歳台"
  },
  "1570072": {
    "zipcode": "1570072",
    "prefectureCode": "13",
    "prefectureNumber": 13,
    "prefecture": "東京都",
    "city": "世田谷区",
    "town": "祖師谷"
  },
  "1570073": {
    "zipcode": "1570073",
    "prefectureCode": "13",
    "prefectureNumber": 13,
    "prefecture": "東京都",
    "city": "世田谷区",
    "town": "砧"
  },
  "1570074": {
    "zipcode": "1570074",
    "prefectureCode": "13",
    "prefectureNumber": 13,
    "prefecture": "東京都",
    "city": "世田谷区",
    "town": "大蔵"
  },
  "1570075": {
    "zipcode": "1570075",
    "prefectureCode": "13",
    "prefectureNumber": 13,
    "prefecture": "東京都",
    "city": "世田谷区",
    "town": "砧公園"
  },
  "1570076": {
    "zipcode": "1570076",
    "prefectureCode": "13",
    "prefectureNumber": 13,
    "prefecture": "東京都",
    "city": "世田谷区",
    "town": "岡本"
  },
  "1570077": {
    "zipcode": "1570077",
    "prefectureCode": "13",
    "prefectureNumber": 13,
    "prefecture": "東京都",
    "city": "世田谷区",
    "town": "鎌田"
  }
}
