{
  "1580081": {
    "zipcode": "1580081",
    "prefectureCode": "13",
    "prefectureNumber": 13,
    "prefecture": "東京都",
    "city": "世田谷区",
    "town": "深沢"
  },
  "1580082": {
    "zipcode": "1580082",
    "prefectureCode": "13",
    "prefectureNumber": 13,
    "prefecture": "東京都",
    "city": "世田谷区",
    "town": "等々力"
  },
  "1580083": {
    "zipcode": "1580083",
    "prefectureCode": "13",
    "prefectureNumber": 13,
    "prefecture": "東京都",
    "city": "世田谷区",
    "town": "奥沢"
  },
  "1580084": {
    "zipcode": "1580084",
    "prefectureCode": "13",
    "prefectureNumber": 13,
    "prefecture": "東京都",
    "city": "世田谷区",
    "town": "東玉川"
  },
  "1580085": {
    "zipcode": "1580085",
    "prefectureCode": "13",
    "prefectureNumber": 13,
    "prefecture": "東京都",
    "city": "世田谷区",
    "town": "玉川田園調布"
  },
  "1580086": {
    "zipcode": "1580086",
    "prefectureCode": "13",
    "prefectureNumber": 13,
    "prefecture": "東京都",
    "city": "世田谷区",
    "town": "尾山台"
  },
  "1580087": {
    "zipcode": "1580087",
    "prefectureCode": "13",
    "prefectureNumber": 13,
    "prefecture": "東京都",
    "city": "世田谷区",
    "town": "玉堤"
  },
  "1580091": {
    "zipcode": "1580091",
    "prefectureCode": "13",
    "prefectureNumber": 13,
    "prefecture": "東京都",
    "city": "世田谷区",
    "town": "中町"
  },
  "1580092": {
    "zipcode": "1580092",
    "prefectureCode": "13",
    "prefectureNumber": 13,
    "prefecture": "東京都",
    "city": "世田谷区",
    "town": "野毛"
  },
  "1580093": {
    "zipcode": "1580093",
    "prefectureCode": "13",
    "prefectureNumber": 13,
    "prefecture": "東京都",
    "city": "世田谷区",
    "town": "上野毛"
  },
  "1580094": {
    "zipcode": "1580094",
    "prefectureCode": "13",
    "prefectureNumber": 13,
    "prefecture": "東京都",
    "city": "世田谷区",
    "town": "玉川"
  },
  "1580095": {
    "zipcode": "1580095",
    "prefectureCode": "13",
    "prefectureNumber": 13,
    "prefecture": "東京都",
    "city": "世田谷区",
    "town": "瀬田"
  },
  "1580096": {
    "zipcode": "1580096",
    "prefectureCode": "13",
    "prefectureNumber": 13,
    "prefecture": "東京都",
    "city": "世田谷区",
    "town": "玉川台"
  },
  "1580097": {
    "zipcode": "1580097",
    "prefectureCode": "13",
    "prefectureNumber": 13,
    "prefecture": "東京都",
    "city": "世田谷区",
    "town": "用賀"
  },
  "1580098": {
    "zipcode": "1580098",
    "prefectureCode": "13",
    "prefectureNumber": 13,
    "prefecture": "東京都",
    "city": "世田谷区",
    "town": "上用賀"
  }
}
