{
  "1600000": {
    "zipcode": "1600000",
    "prefectureCode": "13",
    "prefectureNumber": 13,
    "prefecture": "東京都",
    "city": "新宿区",
    "town": "以下に掲載がない場合"
  },
  "1600001": {
    "zipcode": "1600001",
    "prefectureCode": "13",
    "prefectureNumber": 13,
    "prefecture": "東京都",
    "city": "新宿区",
    "town": "片町"
  },
  "1600002": {
    "zipcode": "1600002",
    "prefectureCode": "13",
    "prefectureNumber": 13,
    "prefecture": "東京都",
    "city": "新宿区",
    "town": "四谷坂町"
  },
  "1600003": {
    "zipcode": "1600003",
    "prefectureCode": "13",
    "prefectureNumber": 13,
    "prefecture": "東京都",
    "city": "新宿区",
    "town": "四谷本塩町"
  },
  "1600004": {
    "zipcode": "1600004",
    "prefectureCode": "13",
    "prefectureNumber": 13,
    "prefecture": "東京都",
    "city": "新宿区",
    "town": "四谷"
  },
  "1600005": {
    "zipcode": "1600005",
    "prefectureCode": "13",
    "prefectureNumber": 13,
    "prefecture": "東京都",
    "city": "新宿区",
    "town": "愛住町"
  },
  "1600006": {
    "zipcode": "1600006",
    "prefectureCode": "13",
    "prefectureNumber": 13,
    "prefecture": "東京都",
    "city": "新宿区",
    "town": "舟町"
  },
  "1600007": {
    "zipcode": "1600007",
    "prefectureCode": "13",
    "prefectureNumber": 13,
    "prefecture": "東京都",
    "city": "新宿区",
    "town": "荒木町"
  },
  "1600008": {
    "zipcode": "1600008",
    "prefectureCode": "13",
    "prefectureNumber": 13,
    "prefecture": "東京都",
    "city": "新宿区",
    "town": "四谷三栄町"
  },
  "1600011": {
    "zipcode": "1600011",
    "prefectureCode": "13",
    "prefectureNumber": 13,
    "prefecture": "東京都",
    "city": "新宿区",
    "town": "若葉"
  },
  "1600012": {
    "zipcode": "1600012",
    "prefectureCode": "13",
    "prefectureNumber": 13,
    "prefecture": "東京都",
    "city": "新宿区",
    "town": "南元町"
  },
  "1600013": {
    "zipcode": "1600013",
    "prefectureCode": "13",
    "prefectureNumber": 13,
    "prefecture": "東京都",
    "city": "新宿区",
    "town": "霞ケ丘町"
  },
  "1600014": {
    "zipcode": "1600014",
    "prefectureCode": "13",
    "prefectureNumber": 13,
    "prefecture": "東京都",
    "city": "新宿区",
    "town": "内藤町"
  },
  "1600015": {
    "zipcode": "1600015",
    "prefectureCode": "13",
    "prefectureNumber": 13,
    "prefecture": "東京都",
    "city": "新宿区",
    "town": "大京町"
  },
  "1600016": {
    "zipcode": "1600016",
    "prefectureCode": "13",
    "prefectureNumber": 13,
    "prefecture": "東京都",
    "city": "新宿区",
    "town": "信濃町"
  },
  "1600017": {
    "zipcode": "1600017",
    "prefectureCode": "13",
    "prefectureNumber": 13,
    "prefecture": "東京都",
    "city": "新宿区",
    "town": "左門町"
  },
  "1600018": {
    "zipcode": "1600018",
    "prefectureCode": "13",
    "prefectureNumber": 13,
    "prefecture": "東京都",
    "city": "新宿区",
    "town": "須賀町"
  },
  "1600021": {
    "zipcode": "1600021",
    "prefectureCode": "13",
    "prefectureNumber": 13,
    "prefecture": "東京都",
    "city": "新宿区",
    "town": "歌舞伎町"
  },
  "1600022": {
    "zipcode": "1600022",
    "prefectureCode": "13",
    "prefectureNumber": 13,
    "prefecture": "東京都",
    "city": "新宿区",
    "town": "新宿"
  },
  "1600023": {
    "zipcode": "1600023",
    "prefectureCode": "13",
    "prefectureNumber": 13,
    "prefecture": "東京都",
    "city": "新宿区",
    "town": "西新宿（次のビルを除く）"
  },
  "1606101": {
    "zipcode": "1606101",
    "prefectureCode": "13",
    "prefectureNumber": 13,
    "prefecture": "東京都",
    "city": "新宿区",
    "town": "西新宿住友不動産新宿グランドタワー（１階）"
  },
  "1606102": {
    "zipcode": "1606102",
    "prefectureCode": "13",
    "prefectureNumber": 13,
    "prefecture": "東京都",
    "city": "新宿区",
    "town": "西新宿住友不動産新宿グランドタワー（２階）"
  },
  "1606103": {
    "zipcode": "1606103",
    "prefectureCode": "13",
    "prefectureNumber": 13,
    "prefecture": "東京都",
    "city": "新宿区",
    "town": "西新宿住友不動産新宿グランドタワー（３階）"
  },
  "1606104": {
    "zipcode": "1606104",
    "prefectureCode": "13",
    "prefectureNumber": 13,
    "prefecture": "東京都",
    "city": "新宿区",
    "town": "西新宿住友不動産新宿グランドタワー（４階）"
  },
  "1606105": {
    "zipcode": "1606105",
    "prefectureCode": "13",
    "prefectureNumber": 13,
    "prefecture": "東京都",
    "city": "新宿区",
    "town": "西新宿住友不動産新宿グランドタワー（５階）"
  },
  "1606106": {
    "zipcode": "1606106",
    "prefectureCode": "13",
    "prefectureNumber": 13,
    "prefecture": "東京都",
    "city": "新宿区",
    "town": "西新宿住友不動産新宿グランドタワー（６階）"
  },
  "1606107": {
    "zipcode": "1606107",
    "prefectureCode": "13",
    "prefectureNumber": 13,
    "prefecture": "東京都",
    "city": "新宿区",
    "town": "西新宿住友不動産新宿グランドタワー（７階）"
  },
  "1606108": {
    "zipcode": "1606108",
    "prefectureCode": "13",
    "prefectureNumber": 13,
    "prefecture": "東京都",
    "city": "新宿区",
    "town": "西新宿住友不動産新宿グランドタワー（８階）"
  },
  "1606109": {
    "zipcode": "1606109",
    "prefectureCode": "13",
    "prefectureNumber": 13,
    "prefecture": "東京都",
    "city": "新宿区",
    "town": "西新宿住友不動産新宿グランドタワー（９階）"
  },
  "1606110": {
    "zipcode": "1606110",
    "prefectureCode": "13",
    "prefectureNumber": 13,
    "prefecture": "東京都",
    "city": "新宿区",
    "town": "西新宿住友不動産新宿グランドタワー（１０階）"
  },
  "1606111": {
    "zipcode": "1606111",
    "prefectureCode": "13",
    "prefectureNumber": 13,
    "prefecture": "東京都",
    "city": "新宿区",
    "town": "西新宿住友不動産新宿グランドタワー（１１階）"
  },
  "1606112": {
    "zipcode": "1606112",
    "prefectureCode": "13",
    "prefectureNumber": 13,
    "prefecture": "東京都",
    "city": "新宿区",
    "town": "西新宿住友不動産新宿グランドタワー（１２階）"
  },
  "1606113": {
    "zipcode": "1606113",
    "prefectureCode": "13",
    "prefectureNumber": 13,
    "prefecture": "東京都",
    "city": "新宿区",
    "town": "西新宿住友不動産新宿グランドタワー（１３階）"
  },
  "1606114": {
    "zipcode": "1606114",
    "prefectureCode": "13",
    "prefectureNumber": 13,
    "prefecture": "東京都",
    "city": "新宿区",
    "town": "西新宿住友不動産新宿グランドタワー（１４階）"
  },
  "1606115": {
    "zipcode": "1606115",
    "prefectureCode": "13",
    "prefectureNumber": 13,
    "prefecture": "東京都",
    "city": "新宿区",
    "town": "西新宿住友不動産新宿グランドタワー（１５階）"
  },
  "1606116": {
    "zipcode": "1606116",
    "prefectureCode": "13",
    "prefectureNumber": 13,
    "prefecture": "東京都",
    "city": "新宿区",
    "town": "西新宿住友不動産新宿グランドタワー（１６階）"
  },
  "1606117": {
    "zipcode": "1606117",
    "prefectureCode": "13",
    "prefectureNumber": 13,
    "prefecture": "東京都",
    "city": "新宿区",
    "town": "西新宿住友不動産新宿グランドタワー（１７階）"
  },
  "1606118": {
    "zipcode": "1606118",
    "prefectureCode": "13",
    "prefectureNumber": 13,
    "prefecture": "東京都",
    "city": "新宿区",
    "town": "西新宿住友不動産新宿グランドタワー（１８階）"
  },
  "1606119": {
    "zipcode": "1606119",
    "prefectureCode": "13",
    "prefectureNumber": 13,
    "prefecture": "東京都",
    "city": "新宿区",
    "town": "西新宿住友不動産新宿グランドタワー（１９階）"
  },
  "1606120": {
    "zipcode": "1606120",
    "prefectureCode": "13",
    "prefectureNumber": 13,
    "prefecture": "東京都",
    "city": "新宿区",
    "town": "西新宿住友不動産新宿グランドタワー（２０階）"
  },
  "1606121": {
    "zipcode": "1606121",
    "prefectureCode": "13",
    "prefectureNumber": 13,
    "prefecture": "東京都",
    "city": "新宿区",
    "town": "西新宿住友不動産新宿グランドタワー（２１階）"
  },
  "1606122": {
    "zipcode": "1606122",
    "prefectureCode": "13",
    "prefectureNumber": 13,
    "prefecture": "東京都",
    "city": "新宿区",
    "town": "西新宿住友不動産新宿グランドタワー（２２階）"
  },
  "1606123": {
    "zipcode": "1606123",
    "prefectureCode": "13",
    "prefectureNumber": 13,
    "prefecture": "東京都",
    "city": "新宿区",
    "town": "西新宿住友不動産新宿グランドタワー（２３階）"
  },
  "1606124": {
    "zipcode": "1606124",
    "prefectureCode": "13",
    "prefectureNumber": 13,
    "prefecture": "東京都",
    "city": "新宿区",
    "town": "西新宿住友不動産新宿グランドタワー（２４階）"
  },
  "1606125": {
    "zipcode": "1606125",
    "prefectureCode": "13",
    "prefectureNumber": 13,
    "prefecture": "東京都",
    "city": "新宿区",
    "town": "西新宿住友不動産新宿グランドタワー（２５階）"
  },
  "1606126": {
    "zipcode": "1606126",
    "prefectureCode": "13",
    "prefectureNumber": 13,
    "prefecture": "東京都",
    "city": "新宿区",
    "town": "西新宿住友不動産新宿グランドタワー（２６階）"
  },
  "1606127": {
    "zipcode": "1606127",
    "prefectureCode": "13",
    "prefectureNumber": 13,
    "prefecture": "東京都",
    "city": "新宿区",
    "town": "西新宿住友不動産新宿グランドタワー（２７階）"
  },
  "1606128": {
    "zipcode": "1606128",
    "prefectureCode": "13",
    "prefectureNumber": 13,
    "prefecture": "東京都",
    "city": "新宿区",
    "town": "西新宿住友不動産新宿グランドタワー（２８階）"
  },
  "1606129": {
    "zipcode": "1606129",
    "prefectureCode": "13",
    "prefectureNumber": 13,
    "prefecture": "東京都",
    "city": "新宿区",
    "town": "西新宿住友不動産新宿グランドタワー（２９階）"
  },
  "1606130": {
    "zipcode": "1606130",
    "prefectureCode": "13",
    "prefectureNumber": 13,
    "prefecture": "東京都",
    "city": "新宿区",
    "town": "西新宿住友不動産新宿グランドタワー（３０階）"
  },
  "1606131": {
    "zipcode": "1606131",
    "prefectureCode": "13",
    "prefectureNumber": 13,
    "prefecture": "東京都",
    "city": "新宿区",
    "town": "西新宿住友不動産新宿グランドタワー（３１階）"
  },
  "1606132": {
    "zipcode": "1606132",
    "prefectureCode": "13",
    "prefectureNumber": 13,
    "prefecture": "東京都",
    "city": "新宿区",
    "town": "西新宿住友不動産新宿グランドタワー（３２階）"
  },
  "1606133": {
    "zipcode": "1606133",
    "prefectureCode": "13",
    "prefectureNumber": 13,
    "prefecture": "東京都",
    "city": "新宿区",
    "town": "西新宿住友不動産新宿グランドタワー（３３階）"
  },
  "1606134": {
    "zipcode": "1606134",
    "prefectureCode": "13",
    "prefectureNumber": 13,
    "prefecture": "東京都",
    "city": "新宿区",
    "town": "西新宿住友不動産新宿グランドタワー（３４階）"
  },
  "1606135": {
    "zipcode": "1606135",
    "prefectureCode": "13",
    "prefectureNumber": 13,
    "prefecture": "東京都",
    "city": "新宿区",
    "town": "西新宿住友不動産新宿グランドタワー（３５階）"
  },
  "1606136": {
    "zipcode": "1606136",
    "prefectureCode": "13",
    "prefectureNumber": 13,
    "prefecture": "東京都",
    "city": "新宿区",
    "town": "西新宿住友不動産新宿グランドタワー（３６階）"
  },
  "1606137": {
    "zipcode": "1606137",
    "prefectureCode": "13",
    "prefectureNumber": 13,
    "prefecture": "東京都",
    "city": "新宿区",
    "town": "西新宿住友不動産新宿グランドタワー（３７階）"
  },
  "1606138": {
    "zipcode": "1606138",
    "prefectureCode": "13",
    "prefectureNumber": 13,
    "prefecture": "東京都",
    "city": "新宿区",
    "town": "西新宿住友不動産新宿グランドタワー（３８階）"
  },
  "1606139": {
    "zipcode": "1606139",
    "prefectureCode": "13",
    "prefectureNumber": 13,
    "prefecture": "東京都",
    "city": "新宿区",
    "town": "西新宿住友不動産新宿グランドタワー（３９階）"
  },
  "1606190": {
    "zipcode": "1606190",
    "prefectureCode": "13",
    "prefectureNumber": 13,
    "prefecture": "東京都",
    "city": "新宿区",
    "town": "西新宿住友不動産新宿グランドタワー（地階・階層不明）"
  }
}
