{
  "1630201": {
    "zipcode": "1630201",
    "prefectureCode": "13",
    "prefectureNumber": 13,
    "prefecture": "東京都",
    "city": "新宿区",
    "town": "西新宿新宿住友ビル（１階）"
  },
  "1630202": {
    "zipcode": "1630202",
    "prefectureCode": "13",
    "prefectureNumber": 13,
    "prefecture": "東京都",
    "city": "新宿区",
    "town": "西新宿新宿住友ビル（２階）"
  },
  "1630203": {
    "zipcode": "1630203",
    "prefectureCode": "13",
    "prefectureNumber": 13,
    "prefecture": "東京都",
    "city": "新宿区",
    "town": "西新宿新宿住友ビル（３階）"
  },
  "1630204": {
    "zipcode": "1630204",
    "prefectureCode": "13",
    "prefectureNumber": 13,
    "prefecture": "東京都",
    "city": "新宿区",
    "town": "西新宿新宿住友ビル（４階）"
  },
  "1630205": {
    "zipcode": "1630205",
    "prefectureCode": "13",
    "prefectureNumber": 13,
    "prefecture": "東京都",
    "city": "新宿区",
    "town": "西新宿新宿住友ビル（５階）"
  },
  "1630206": {
    "zipcode": "1630206",
    "prefectureCode": "13",
    "prefectureNumber": 13,
    "prefecture": "東京都",
    "city": "新宿区",
    "town": "西新宿新宿住友ビル（６階）"
  },
  "1630207": {
    "zipcode": "1630207",
    "prefectureCode": "13",
    "prefectureNumber": 13,
    "prefecture": "東京都",
    "city": "新宿区",
    "town": "西新宿新宿住友ビル（７階）"
  },
  "1630208": {
    "zipcode": "1630208",
    "prefectureCode": "13",
    "prefectureNumber": 13,
    "prefecture": "東京都",
    "city": "新宿区",
    "town": "西新宿新宿住友ビル（８階）"
  },
  "1630209": {
    "zipcode": "1630209",
    "prefectureCode": "13",
    "prefectureNumber": 13,
    "prefecture": "東京都",
    "city": "新宿区",
    "town": "西新宿新宿住友ビル（９階）"
  },
  "1630210": {
    "zipcode": "1630210",
    "prefectureCode": "13",
    "prefectureNumber": 13,
    "prefecture": "東京都",
    "city": "新宿区",
    "town": "西新宿新宿住友ビル（１０階）"
  },
  "1630211": {
    "zipcode": "1630211",
    "prefectureCode": "13",
    "prefectureNumber": 13,
    "prefecture": "東京都",
    "city": "新宿区",
    "town": "西新宿新宿住友ビル（１１階）"
  },
  "1630212": {
    "zipcode": "1630212",
    "prefectureCode": "13",
    "prefectureNumber": 13,
    "prefecture": "東京都",
    "city": "新宿区",
    "town": "西新宿新宿住友ビル（１２階）"
  },
  "1630213": {
    "zipcode": "1630213",
    "prefectureCode": "13",
    "prefectureNumber": 13,
    "prefecture": "東京都",
    "city": "新宿区",
    "town": "西新宿新宿住友ビル（１３階）"
  },
  "1630214": {
    "zipcode": "1630214",
    "prefectureCode": "13",
    "prefectureNumber": 13,
    "prefecture": "東京都",
    "city": "新宿区",
    "town": "西新宿新宿住友ビル（１４階）"
  },
  "1630215": {
    "zipcode": "1630215",
    "prefectureCode": "13",
    "prefectureNumber": 13,
    "prefecture": "東京都",
    "city": "新宿区",
    "town": "西新宿新宿住友ビル（１５階）"
  },
  "1630216": {
    "zipcode": "1630216",
    "prefectureCode": "13",
    "prefectureNumber": 13,
    "prefecture": "東京都",
    "city": "新宿区",
    "town": "西新宿新宿住友ビル（１６階）"
  },
  "1630217": {
    "zipcode": "1630217",
    "prefectureCode": "13",
    "prefectureNumber": 13,
    "prefecture": "東京都",
    "city": "新宿区",
    "town": "西新宿新宿住友ビル（１７階）"
  },
  "1630218": {
    "zipcode": "1630218",
    "prefectureCode": "13",
    "prefectureNumber": 13,
    "prefecture": "東京都",
    "city": "新宿区",
    "town": "西新宿新宿住友ビル（１８階）"
  },
  "1630219": {
    "zipcode": "1630219",
    "prefectureCode": "13",
    "prefectureNumber": 13,
    "prefecture": "東京都",
    "city": "新宿区",
    "town": "西新宿新宿住友ビル（１９階）"
  },
  "1630220": {
    "zipcode": "1630220",
    "prefectureCode": "13",
    "prefectureNumber": 13,
    "prefecture": "東京都",
    "city": "新宿区",
    "town": "西新宿新宿住友ビル（２０階）"
  },
  "1630221": {
    "zipcode": "1630221",
    "prefectureCode": "13",
    "prefectureNumber": 13,
    "prefecture": "東京都",
    "city": "新宿区",
    "town": "西新宿新宿住友ビル（２１階）"
  },
  "1630222": {
    "zipcode": "1630222",
    "prefectureCode": "13",
    "prefectureNumber": 13,
    "prefecture": "東京都",
    "city": "新宿区",
    "town": "西新宿新宿住友ビル（２２階）"
  },
  "1630223": {
    "zipcode": "1630223",
    "prefectureCode": "13",
    "prefectureNumber": 13,
    "prefecture": "東京都",
    "city": "新宿区",
    "town": "西新宿新宿住友ビル（２３階）"
  },
  "1630224": {
    "zipcode": "1630224",
    "prefectureCode": "13",
    "prefectureNumber": 13,
    "prefecture": "東京都",
    "city": "新宿区",
    "town": "西新宿新宿住友ビル（２４階）"
  },
  "1630225": {
    "zipcode": "1630225",
    "prefectureCode": "13",
    "prefectureNumber": 13,
    "prefecture": "東京都",
    "city": "新宿区",
    "town": "西新宿新宿住友ビル（２５階）"
  },
  "1630226": {
    "zipcode": "1630226",
    "prefectureCode": "13",
    "prefectureNumber": 13,
    "prefecture": "東京都",
    "city": "新宿区",
    "town": "西新宿新宿住友ビル（２６階）"
  },
  "1630227": {
    "zipcode": "1630227",
    "prefectureCode": "13",
    "prefectureNumber": 13,
    "prefecture": "東京都",
    "city": "新宿区",
    "town": "西新宿新宿住友ビル（２７階）"
  },
  "1630228": {
    "zipcode": "1630228",
    "prefectureCode": "13",
    "prefectureNumber": 13,
    "prefecture": "東京都",
    "city": "新宿区",
    "town": "西新宿新宿住友ビル（２８階）"
  },
  "1630229": {
    "zipcode": "1630229",
    "prefectureCode": "13",
    "prefectureNumber": 13,
    "prefecture": "東京都",
    "city": "新宿区",
    "town": "西新宿新宿住友ビル（２９階）"
  },
  "1630230": {
    "zipcode": "1630230",
    "prefectureCode": "13",
    "prefectureNumber": 13,
    "prefecture": "東京都",
    "city": "新宿区",
    "town": "西新宿新宿住友ビル（３０階）"
  },
  "1630231": {
    "zipcode": "1630231",
    "prefectureCode": "13",
    "prefectureNumber": 13,
    "prefecture": "東京都",
    "city": "新宿区",
    "town": "西新宿新宿住友ビル（３１階）"
  },
  "1630232": {
    "zipcode": "1630232",
    "prefectureCode": "13",
    "prefectureNumber": 13,
    "prefecture": "東京都",
    "city": "新宿区",
    "town": "西新宿新宿住友ビル（３２階）"
  },
  "1630233": {
    "zipcode": "1630233",
    "prefectureCode": "13",
    "prefectureNumber": 13,
    "prefecture": "東京都",
    "city": "新宿区",
    "town": "西新宿新宿住友ビル（３３階）"
  },
  "1630234": {
    "zipcode": "1630234",
    "prefectureCode": "13",
    "prefectureNumber": 13,
    "prefecture": "東京都",
    "city": "新宿区",
    "town": "西新宿新宿住友ビル（３４階）"
  },
  "1630235": {
    "zipcode": "1630235",
    "prefectureCode": "13",
    "prefectureNumber": 13,
    "prefecture": "東京都",
    "city": "新宿区",
    "town": "西新宿新宿住友ビル（３５階）"
  },
  "1630236": {
    "zipcode": "1630236",
    "prefectureCode": "13",
    "prefectureNumber": 13,
    "prefecture": "東京都",
    "city": "新宿区",
    "town": "西新宿新宿住友ビル（３６階）"
  },
  "1630237": {
    "zipcode": "1630237",
    "prefectureCode": "13",
    "prefectureNumber": 13,
    "prefecture": "東京都",
    "city": "新宿区",
    "town": "西新宿新宿住友ビル（３７階）"
  },
  "1630238": {
    "zipcode": "1630238",
    "prefectureCode": "13",
    "prefectureNumber": 13,
    "prefecture": "東京都",
    "city": "新宿区",
    "town": "西新宿新宿住友ビル（３８階）"
  },
  "1630239": {
    "zipcode": "1630239",
    "prefectureCode": "13",
    "prefectureNumber": 13,
    "prefecture": "東京都",
    "city": "新宿区",
    "town": "西新宿新宿住友ビル（３９階）"
  },
  "1630240": {
    "zipcode": "1630240",
    "prefectureCode": "13",
    "prefectureNumber": 13,
    "prefecture": "東京都",
    "city": "新宿区",
    "town": "西新宿新宿住友ビル（４０階）"
  },
  "1630241": {
    "zipcode": "1630241",
    "prefectureCode": "13",
    "prefectureNumber": 13,
    "prefecture": "東京都",
    "city": "新宿区",
    "town": "西新宿新宿住友ビル（４１階）"
  },
  "1630242": {
    "zipcode": "1630242",
    "prefectureCode": "13",
    "prefectureNumber": 13,
    "prefecture": "東京都",
    "city": "新宿区",
    "town": "西新宿新宿住友ビル（４２階）"
  },
  "1630243": {
    "zipcode": "1630243",
    "prefectureCode": "13",
    "prefectureNumber": 13,
    "prefecture": "東京都",
    "city": "新宿区",
    "town": "西新宿新宿住友ビル（４３階）"
  },
  "1630244": {
    "zipcode": "1630244",
    "prefectureCode": "13",
    "prefectureNumber": 13,
    "prefecture": "東京都",
    "city": "新宿区",
    "town": "西新宿新宿住友ビル（４４階）"
  },
  "1630245": {
    "zipcode": "1630245",
    "prefectureCode": "13",
    "prefectureNumber": 13,
    "prefecture": "東京都",
    "city": "新宿区",
    "town": "西新宿新宿住友ビル（４５階）"
  },
  "1630246": {
    "zipcode": "1630246",
    "prefectureCode": "13",
    "prefectureNumber": 13,
    "prefecture": "東京都",
    "city": "新宿区",
    "town": "西新宿新宿住友ビル（４６階）"
  },
  "1630247": {
    "zipcode": "1630247",
    "prefectureCode": "13",
    "prefectureNumber": 13,
    "prefecture": "東京都",
    "city": "新宿区",
    "town": "西新宿新宿住友ビル（４７階）"
  },
  "1630248": {
    "zipcode": "1630248",
    "prefectureCode": "13",
    "prefectureNumber": 13,
    "prefecture": "東京都",
    "city": "新宿区",
    "town": "西新宿新宿住友ビル（４８階）"
  },
  "1630249": {
    "zipcode": "1630249",
    "prefectureCode": "13",
    "prefectureNumber": 13,
    "prefecture": "東京都",
    "city": "新宿区",
    "town": "西新宿新宿住友ビル（４９階）"
  },
  "1630250": {
    "zipcode": "1630250",
    "prefectureCode": "13",
    "prefectureNumber": 13,
    "prefecture": "東京都",
    "city": "新宿区",
    "town": "西新宿新宿住友ビル（５０階）"
  },
  "1630251": {
    "zipcode": "1630251",
    "prefectureCode": "13",
    "prefectureNumber": 13,
    "prefecture": "東京都",
    "city": "新宿区",
    "town": "西新宿新宿住友ビル（５１階）"
  },
  "1630252": {
    "zipcode": "1630252",
    "prefectureCode": "13",
    "prefectureNumber": 13,
    "prefecture": "東京都",
    "city": "新宿区",
    "town": "西新宿新宿住友ビル（５２階）"
  },
  "1630290": {
    "zipcode": "1630290",
    "prefectureCode": "13",
    "prefectureNumber": 13,
    "prefecture": "東京都",
    "city": "新宿区",
    "town": "西新宿新宿住友ビル（地階・階層不明）"
  },
  "1630401": {
    "zipcode": "1630401",
    "prefectureCode": "13",
    "prefectureNumber": 13,
    "prefecture": "東京都",
    "city": "新宿区",
    "town": "西新宿新宿三井ビル（１階）"
  },
  "1630402": {
    "zipcode": "1630402",
    "prefectureCode": "13",
    "prefectureNumber": 13,
    "prefecture": "東京都",
    "city": "新宿区",
    "town": "西新宿新宿三井ビル（２階）"
  },
  "1630403": {
    "zipcode": "1630403",
    "prefectureCode": "13",
    "prefectureNumber": 13,
    "prefecture": "東京都",
    "city": "新宿区",
    "town": "西新宿新宿三井ビル（３階）"
  },
  "1630404": {
    "zipcode": "1630404",
    "prefectureCode": "13",
    "prefectureNumber": 13,
    "prefecture": "東京都",
    "city": "新宿区",
    "town": "西新宿新宿三井ビル（４階）"
  },
  "1630405": {
    "zipcode": "1630405",
    "prefectureCode": "13",
    "prefectureNumber": 13,
    "prefecture": "東京都",
    "city": "新宿区",
    "town": "西新宿新宿三井ビル（５階）"
  },
  "1630406": {
    "zipcode": "1630406",
    "prefectureCode": "13",
    "prefectureNumber": 13,
    "prefecture": "東京都",
    "city": "新宿区",
    "town": "西新宿新宿三井ビル（６階）"
  },
  "1630407": {
    "zipcode": "1630407",
    "prefectureCode": "13",
    "prefectureNumber": 13,
    "prefecture": "東京都",
    "city": "新宿区",
    "town": "西新宿新宿三井ビル（７階）"
  },
  "1630408": {
    "zipcode": "1630408",
    "prefectureCode": "13",
    "prefectureNumber": 13,
    "prefecture": "東京都",
    "city": "新宿区",
    "town": "西新宿新宿三井ビル（８階）"
  },
  "1630409": {
    "zipcode": "1630409",
    "prefectureCode": "13",
    "prefectureNumber": 13,
    "prefecture": "東京都",
    "city": "新宿区",
    "town": "西新宿新宿三井ビル（９階）"
  },
  "1630410": {
    "zipcode": "1630410",
    "prefectureCode": "13",
    "prefectureNumber": 13,
    "prefecture": "東京都",
    "city": "新宿区",
    "town": "西新宿新宿三井ビル（１０階）"
  },
  "1630411": {
    "zipcode": "1630411",
    "prefectureCode": "13",
    "prefectureNumber": 13,
    "prefecture": "東京都",
    "city": "新宿区",
    "town": "西新宿新宿三井ビル（１１階）"
  },
  "1630412": {
    "zipcode": "1630412",
    "prefectureCode": "13",
    "prefectureNumber": 13,
    "prefecture": "東京都",
    "city": "新宿区",
    "town": "西新宿新宿三井ビル（１２階）"
  },
  "1630413": {
    "zipcode": "1630413",
    "prefectureCode": "13",
    "prefectureNumber": 13,
    "prefecture": "東京都",
    "city": "新宿区",
    "town": "西新宿新宿三井ビル（１３階）"
  },
  "1630414": {
    "zipcode": "1630414",
    "prefectureCode": "13",
    "prefectureNumber": 13,
    "prefecture": "東京都",
    "city": "新宿区",
    "town": "西新宿新宿三井ビル（１４階）"
  },
  "1630415": {
    "zipcode": "1630415",
    "prefectureCode": "13",
    "prefectureNumber": 13,
    "prefecture": "東京都",
    "city": "新宿区",
    "town": "西新宿新宿三井ビル（１５階）"
  },
  "1630416": {
    "zipcode": "1630416",
    "prefectureCode": "13",
    "prefectureNumber": 13,
    "prefecture": "東京都",
    "city": "新宿区",
    "town": "西新宿新宿三井ビル（１６階）"
  },
  "1630417": {
    "zipcode": "1630417",
    "prefectureCode": "13",
    "prefectureNumber": 13,
    "prefecture": "東京都",
    "city": "新宿区",
    "town": "西新宿新宿三井ビル（１７階）"
  },
  "1630418": {
    "zipcode": "1630418",
    "prefectureCode": "13",
    "prefectureNumber": 13,
    "prefecture": "東京都",
    "city": "新宿区",
    "town": "西新宿新宿三井ビル（１８階）"
  },
  "1630419": {
    "zipcode": "1630419",
    "prefectureCode": "13",
    "prefectureNumber": 13,
    "prefecture": "東京都",
    "city": "新宿区",
    "town": "西新宿新宿三井ビル（１９階）"
  },
  "1630420": {
    "zipcode": "1630420",
    "prefectureCode": "13",
    "prefectureNumber": 13,
    "prefecture": "東京都",
    "city": "新宿区",
    "town": "西新宿新宿三井ビル（２０階）"
  },
  "1630421": {
    "zipcode": "1630421",
    "prefectureCode": "13",
    "prefectureNumber": 13,
    "prefecture": "東京都",
    "city": "新宿区",
    "town": "西新宿新宿三井ビル（２１階）"
  },
  "1630422": {
    "zipcode": "1630422",
    "prefectureCode": "13",
    "prefectureNumber": 13,
    "prefecture": "東京都",
    "city": "新宿区",
    "town": "西新宿新宿三井ビル（２２階）"
  },
  "1630423": {
    "zipcode": "1630423",
    "prefectureCode": "13",
    "prefectureNumber": 13,
    "prefecture": "東京都",
    "city": "新宿区",
    "town": "西新宿新宿三井ビル（２３階）"
  },
  "1630424": {
    "zipcode": "1630424",
    "prefectureCode": "13",
    "prefectureNumber": 13,
    "prefecture": "東京都",
    "city": "新宿区",
    "town": "西新宿新宿三井ビル（２４階）"
  },
  "1630425": {
    "zipcode": "1630425",
    "prefectureCode": "13",
    "prefectureNumber": 13,
    "prefecture": "東京都",
    "city": "新宿区",
    "town": "西新宿新宿三井ビル（２５階）"
  },
  "1630426": {
    "zipcode": "1630426",
    "prefectureCode": "13",
    "prefectureNumber": 13,
    "prefecture": "東京都",
    "city": "新宿区",
    "town": "西新宿新宿三井ビル（２６階）"
  },
  "1630427": {
    "zipcode": "1630427",
    "prefectureCode": "13",
    "prefectureNumber": 13,
    "prefecture": "東京都",
    "city": "新宿区",
    "town": "西新宿新宿三井ビル（２７階）"
  },
  "1630428": {
    "zipcode": "1630428",
    "prefectureCode": "13",
    "prefectureNumber": 13,
    "prefecture": "東京都",
    "city": "新宿区",
    "town": "西新宿新宿三井ビル（２８階）"
  },
  "1630429": {
    "zipcode": "1630429",
    "prefectureCode": "13",
    "prefectureNumber": 13,
    "prefecture": "東京都",
    "city": "新宿区",
    "town": "西新宿新宿三井ビル（２９階）"
  },
  "1630430": {
    "zipcode": "1630430",
    "prefectureCode": "13",
    "prefectureNumber": 13,
    "prefecture": "東京都",
    "city": "新宿区",
    "town": "西新宿新宿三井ビル（３０階）"
  },
  "1630431": {
    "zipcode": "1630431",
    "prefectureCode": "13",
    "prefectureNumber": 13,
    "prefecture": "東京都",
    "city": "新宿区",
    "town": "西新宿新宿三井ビル（３１階）"
  },
  "1630432": {
    "zipcode": "1630432",
    "prefectureCode": "13",
    "prefectureNumber": 13,
    "prefecture": "東京都",
    "city": "新宿区",
    "town": "西新宿新宿三井ビル（３２階）"
  },
  "1630433": {
    "zipcode": "1630433",
    "prefectureCode": "13",
    "prefectureNumber": 13,
    "prefecture": "東京都",
    "city": "新宿区",
    "town": "西新宿新宿三井ビル（３３階）"
  },
  "1630434": {
    "zipcode": "1630434",
    "prefectureCode": "13",
    "prefectureNumber": 13,
    "prefecture": "東京都",
    "city": "新宿区",
    "town": "西新宿新宿三井ビル（３４階）"
  },
  "1630435": {
    "zipcode": "1630435",
    "prefectureCode": "13",
    "prefectureNumber": 13,
    "prefecture": "東京都",
    "city": "新宿区",
    "town": "西新宿新宿三井ビル（３５階）"
  },
  "1630436": {
    "zipcode": "1630436",
    "prefectureCode": "13",
    "prefectureNumber": 13,
    "prefecture": "東京都",
    "city": "新宿区",
    "town": "西新宿新宿三井ビル（３６階）"
  },
  "1630437": {
    "zipcode": "1630437",
    "prefectureCode": "13",
    "prefectureNumber": 13,
    "prefecture": "東京都",
    "city": "新宿区",
    "town": "西新宿新宿三井ビル（３７階）"
  },
  "1630438": {
    "zipcode": "1630438",
    "prefectureCode": "13",
    "prefectureNumber": 13,
    "prefecture": "東京都",
    "city": "新宿区",
    "town": "西新宿新宿三井ビル（３８階）"
  },
  "1630439": {
    "zipcode": "1630439",
    "prefectureCode": "13",
    "prefectureNumber": 13,
    "prefecture": "東京都",
    "city": "新宿区",
    "town": "西新宿新宿三井ビル（３９階）"
  },
  "1630440": {
    "zipcode": "1630440",
    "prefectureCode": "13",
    "prefectureNumber": 13,
    "prefecture": "東京都",
    "city": "新宿区",
    "town": "西新宿新宿三井ビル（４０階）"
  },
  "1630441": {
    "zipcode": "1630441",
    "prefectureCode": "13",
    "prefectureNumber": 13,
    "prefecture": "東京都",
    "city": "新宿区",
    "town": "西新宿新宿三井ビル（４１階）"
  },
  "1630442": {
    "zipcode": "1630442",
    "prefectureCode": "13",
    "prefectureNumber": 13,
    "prefecture": "東京都",
    "city": "新宿区",
    "town": "西新宿新宿三井ビル（４２階）"
  },
  "1630443": {
    "zipcode": "1630443",
    "prefectureCode": "13",
    "prefectureNumber": 13,
    "prefecture": "東京都",
    "city": "新宿区",
    "town": "西新宿新宿三井ビル（４３階）"
  },
  "1630444": {
    "zipcode": "1630444",
    "prefectureCode": "13",
    "prefectureNumber": 13,
    "prefecture": "東京都",
    "city": "新宿区",
    "town": "西新宿新宿三井ビル（４４階）"
  },
  "1630445": {
    "zipcode": "1630445",
    "prefectureCode": "13",
    "prefectureNumber": 13,
    "prefecture": "東京都",
    "city": "新宿区",
    "town": "西新宿新宿三井ビル（４５階）"
  },
  "1630446": {
    "zipcode": "1630446",
    "prefectureCode": "13",
    "prefectureNumber": 13,
    "prefecture": "東京都",
    "city": "新宿区",
    "town": "西新宿新宿三井ビル（４６階）"
  },
  "1630447": {
    "zipcode": "1630447",
    "prefectureCode": "13",
    "prefectureNumber": 13,
    "prefecture": "東京都",
    "city": "新宿区",
    "town": "西新宿新宿三井ビル（４７階）"
  },
  "1630448": {
    "zipcode": "1630448",
    "prefectureCode": "13",
    "prefectureNumber": 13,
    "prefecture": "東京都",
    "city": "新宿区",
    "town": "西新宿新宿三井ビル（４８階）"
  },
  "1630449": {
    "zipcode": "1630449",
    "prefectureCode": "13",
    "prefectureNumber": 13,
    "prefecture": "東京都",
    "city": "新宿区",
    "town": "西新宿新宿三井ビル（４９階）"
  },
  "1630450": {
    "zipcode": "1630450",
    "prefectureCode": "13",
    "prefectureNumber": 13,
    "prefecture": "東京都",
    "city": "新宿区",
    "town": "西新宿新宿三井ビル（５０階）"
  },
  "1630451": {
    "zipcode": "1630451",
    "prefectureCode": "13",
    "prefectureNumber": 13,
    "prefecture": "東京都",
    "city": "新宿区",
    "town": "西新宿新宿三井ビル（５１階）"
  },
  "1630452": {
    "zipcode": "1630452",
    "prefectureCode": "13",
    "prefectureNumber": 13,
    "prefecture": "東京都",
    "city": "新宿区",
    "town": "西新宿新宿三井ビル（５２階）"
  },
  "1630453": {
    "zipcode": "1630453",
    "prefectureCode": "13",
    "prefectureNumber": 13,
    "prefecture": "東京都",
    "city": "新宿区",
    "town": "西新宿新宿三井ビル（５３階）"
  },
  "1630454": {
    "zipcode": "1630454",
    "prefectureCode": "13",
    "prefectureNumber": 13,
    "prefecture": "東京都",
    "city": "新宿区",
    "town": "西新宿新宿三井ビル（５４階）"
  },
  "1630455": {
    "zipcode": "1630455",
    "prefectureCode": "13",
    "prefectureNumber": 13,
    "prefecture": "東京都",
    "city": "新宿区",
    "town": "西新宿新宿三井ビル（５５階）"
  },
  "1630490": {
    "zipcode": "1630490",
    "prefectureCode": "13",
    "prefectureNumber": 13,
    "prefecture": "東京都",
    "city": "新宿区",
    "town": "西新宿新宿三井ビル（地階・階層不明）"
  },
  "1630501": {
    "zipcode": "1630501",
    "prefectureCode": "13",
    "prefectureNumber": 13,
    "prefecture": "東京都",
    "city": "新宿区",
    "town": "西新宿新宿野村ビル（１階）"
  },
  "1630502": {
    "zipcode": "1630502",
    "prefectureCode": "13",
    "prefectureNumber": 13,
    "prefecture": "東京都",
    "city": "新宿区",
    "town": "西新宿新宿野村ビル（２階）"
  },
  "1630503": {
    "zipcode": "1630503",
    "prefectureCode": "13",
    "prefectureNumber": 13,
    "prefecture": "東京都",
    "city": "新宿区",
    "town": "西新宿新宿野村ビル（３階）"
  },
  "1630504": {
    "zipcode": "1630504",
    "prefectureCode": "13",
    "prefectureNumber": 13,
    "prefecture": "東京都",
    "city": "新宿区",
    "town": "西新宿新宿野村ビル（４階）"
  },
  "1630505": {
    "zipcode": "1630505",
    "prefectureCode": "13",
    "prefectureNumber": 13,
    "prefecture": "東京都",
    "city": "新宿区",
    "town": "西新宿新宿野村ビル（５階）"
  },
  "1630506": {
    "zipcode": "1630506",
    "prefectureCode": "13",
    "prefectureNumber": 13,
    "prefecture": "東京都",
    "city": "新宿区",
    "town": "西新宿新宿野村ビル（６階）"
  },
  "1630507": {
    "zipcode": "1630507",
    "prefectureCode": "13",
    "prefectureNumber": 13,
    "prefecture": "東京都",
    "city": "新宿区",
    "town": "西新宿新宿野村ビル（７階）"
  },
  "1630508": {
    "zipcode": "1630508",
    "prefectureCode": "13",
    "prefectureNumber": 13,
    "prefecture": "東京都",
    "city": "新宿区",
    "town": "西新宿新宿野村ビル（８階）"
  },
  "1630509": {
    "zipcode": "1630509",
    "prefectureCode": "13",
    "prefectureNumber": 13,
    "prefecture": "東京都",
    "city": "新宿区",
    "town": "西新宿新宿野村ビル（９階）"
  },
  "1630510": {
    "zipcode": "1630510",
    "prefectureCode": "13",
    "prefectureNumber": 13,
    "prefecture": "東京都",
    "city": "新宿区",
    "town": "西新宿新宿野村ビル（１０階）"
  },
  "1630511": {
    "zipcode": "1630511",
    "prefectureCode": "13",
    "prefectureNumber": 13,
    "prefecture": "東京都",
    "city": "新宿区",
    "town": "西新宿新宿野村ビル（１１階）"
  },
  "1630512": {
    "zipcode": "1630512",
    "prefectureCode": "13",
    "prefectureNumber": 13,
    "prefecture": "東京都",
    "city": "新宿区",
    "town": "西新宿新宿野村ビル（１２階）"
  },
  "1630513": {
    "zipcode": "1630513",
    "prefectureCode": "13",
    "prefectureNumber": 13,
    "prefecture": "東京都",
    "city": "新宿区",
    "town": "西新宿新宿野村ビル（１３階）"
  },
  "1630514": {
    "zipcode": "1630514",
    "prefectureCode": "13",
    "prefectureNumber": 13,
    "prefecture": "東京都",
    "city": "新宿区",
    "town": "西新宿新宿野村ビル（１４階）"
  },
  "1630515": {
    "zipcode": "1630515",
    "prefectureCode": "13",
    "prefectureNumber": 13,
    "prefecture": "東京都",
    "city": "新宿区",
    "town": "西新宿新宿野村ビル（１５階）"
  },
  "1630516": {
    "zipcode": "1630516",
    "prefectureCode": "13",
    "prefectureNumber": 13,
    "prefecture": "東京都",
    "city": "新宿区",
    "town": "西新宿新宿野村ビル（１６階）"
  },
  "1630517": {
    "zipcode": "1630517",
    "prefectureCode": "13",
    "prefectureNumber": 13,
    "prefecture": "東京都",
    "city": "新宿区",
    "town": "西新宿新宿野村ビル（１７階）"
  },
  "1630518": {
    "zipcode": "1630518",
    "prefectureCode": "13",
    "prefectureNumber": 13,
    "prefecture": "東京都",
    "city": "新宿区",
    "town": "西新宿新宿野村ビル（１８階）"
  },
  "1630519": {
    "zipcode": "1630519",
    "prefectureCode": "13",
    "prefectureNumber": 13,
    "prefecture": "東京都",
    "city": "新宿区",
    "town": "西新宿新宿野村ビル（１９階）"
  },
  "1630520": {
    "zipcode": "1630520",
    "prefectureCode": "13",
    "prefectureNumber": 13,
    "prefecture": "東京都",
    "city": "新宿区",
    "town": "西新宿新宿野村ビル（２０階）"
  },
  "1630521": {
    "zipcode": "1630521",
    "prefectureCode": "13",
    "prefectureNumber": 13,
    "prefecture": "東京都",
    "city": "新宿区",
    "town": "西新宿新宿野村ビル（２１階）"
  },
  "1630522": {
    "zipcode": "1630522",
    "prefectureCode": "13",
    "prefectureNumber": 13,
    "prefecture": "東京都",
    "city": "新宿区",
    "town": "西新宿新宿野村ビル（２２階）"
  },
  "1630523": {
    "zipcode": "1630523",
    "prefectureCode": "13",
    "prefectureNumber": 13,
    "prefecture": "東京都",
    "city": "新宿区",
    "town": "西新宿新宿野村ビル（２３階）"
  },
  "1630524": {
    "zipcode": "1630524",
    "prefectureCode": "13",
    "prefectureNumber": 13,
    "prefecture": "東京都",
    "city": "新宿区",
    "town": "西新宿新宿野村ビル（２４階）"
  },
  "1630525": {
    "zipcode": "1630525",
    "prefectureCode": "13",
    "prefectureNumber": 13,
    "prefecture": "東京都",
    "city": "新宿区",
    "town": "西新宿新宿野村ビル（２５階）"
  },
  "1630526": {
    "zipcode": "1630526",
    "prefectureCode": "13",
    "prefectureNumber": 13,
    "prefecture": "東京都",
    "city": "新宿区",
    "town": "西新宿新宿野村ビル（２６階）"
  },
  "1630527": {
    "zipcode": "1630527",
    "prefectureCode": "13",
    "prefectureNumber": 13,
    "prefecture": "東京都",
    "city": "新宿区",
    "town": "西新宿新宿野村ビル（２７階）"
  },
  "1630528": {
    "zipcode": "1630528",
    "prefectureCode": "13",
    "prefectureNumber": 13,
    "prefecture": "東京都",
    "city": "新宿区",
    "town": "西新宿新宿野村ビル（２８階）"
  },
  "1630529": {
    "zipcode": "1630529",
    "prefectureCode": "13",
    "prefectureNumber": 13,
    "prefecture": "東京都",
    "city": "新宿区",
    "town": "西新宿新宿野村ビル（２９階）"
  },
  "1630530": {
    "zipcode": "1630530",
    "prefectureCode": "13",
    "prefectureNumber": 13,
    "prefecture": "東京都",
    "city": "新宿区",
    "town": "西新宿新宿野村ビル（３０階）"
  },
  "1630531": {
    "zipcode": "1630531",
    "prefectureCode": "13",
    "prefectureNumber": 13,
    "prefecture": "東京都",
    "city": "新宿区",
    "town": "西新宿新宿野村ビル（３１階）"
  },
  "1630532": {
    "zipcode": "1630532",
    "prefectureCode": "13",
    "prefectureNumber": 13,
    "prefecture": "東京都",
    "city": "新宿区",
    "town": "西新宿新宿野村ビル（３２階）"
  },
  "1630533": {
    "zipcode": "1630533",
    "prefectureCode": "13",
    "prefectureNumber": 13,
    "prefecture": "東京都",
    "city": "新宿区",
    "town": "西新宿新宿野村ビル（３３階）"
  },
  "1630534": {
    "zipcode": "1630534",
    "prefectureCode": "13",
    "prefectureNumber": 13,
    "prefecture": "東京都",
    "city": "新宿区",
    "town": "西新宿新宿野村ビル（３４階）"
  },
  "1630535": {
    "zipcode": "1630535",
    "prefectureCode": "13",
    "prefectureNumber": 13,
    "prefecture": "東京都",
    "city": "新宿区",
    "town": "西新宿新宿野村ビル（３５階）"
  },
  "1630536": {
    "zipcode": "1630536",
    "prefectureCode": "13",
    "prefectureNumber": 13,
    "prefecture": "東京都",
    "city": "新宿区",
    "town": "西新宿新宿野村ビル（３６階）"
  },
  "1630537": {
    "zipcode": "1630537",
    "prefectureCode": "13",
    "prefectureNumber": 13,
    "prefecture": "東京都",
    "city": "新宿区",
    "town": "西新宿新宿野村ビル（３７階）"
  },
  "1630538": {
    "zipcode": "1630538",
    "prefectureCode": "13",
    "prefectureNumber": 13,
    "prefecture": "東京都",
    "city": "新宿区",
    "town": "西新宿新宿野村ビル（３８階）"
  },
  "1630539": {
    "zipcode": "1630539",
    "prefectureCode": "13",
    "prefectureNumber": 13,
    "prefecture": "東京都",
    "city": "新宿区",
    "town": "西新宿新宿野村ビル（３９階）"
  },
  "1630540": {
    "zipcode": "1630540",
    "prefectureCode": "13",
    "prefectureNumber": 13,
    "prefecture": "東京都",
    "city": "新宿区",
    "town": "西新宿新宿野村ビル（４０階）"
  },
  "1630541": {
    "zipcode": "1630541",
    "prefectureCode": "13",
    "prefectureNumber": 13,
    "prefecture": "東京都",
    "city": "新宿区",
    "town": "西新宿新宿野村ビル（４１階）"
  },
  "1630542": {
    "zipcode": "1630542",
    "prefectureCode": "13",
    "prefectureNumber": 13,
    "prefecture": "東京都",
    "city": "新宿区",
    "town": "西新宿新宿野村ビル（４２階）"
  },
  "1630543": {
    "zipcode": "1630543",
    "prefectureCode": "13",
    "prefectureNumber": 13,
    "prefecture": "東京都",
    "city": "新宿区",
    "town": "西新宿新宿野村ビル（４３階）"
  },
  "1630544": {
    "zipcode": "1630544",
    "prefectureCode": "13",
    "prefectureNumber": 13,
    "prefecture": "東京都",
    "city": "新宿区",
    "town": "西新宿新宿野村ビル（４４階）"
  },
  "1630545": {
    "zipcode": "1630545",
    "prefectureCode": "13",
    "prefectureNumber": 13,
    "prefecture": "東京都",
    "city": "新宿区",
    "town": "西新宿新宿野村ビル（４５階）"
  },
  "1630546": {
    "zipcode": "1630546",
    "prefectureCode": "13",
    "prefectureNumber": 13,
    "prefecture": "東京都",
    "city": "新宿区",
    "town": "西新宿新宿野村ビル（４６階）"
  },
  "1630547": {
    "zipcode": "1630547",
    "prefectureCode": "13",
    "prefectureNumber": 13,
    "prefecture": "東京都",
    "city": "新宿区",
    "town": "西新宿新宿野村ビル（４７階）"
  },
  "1630548": {
    "zipcode": "1630548",
    "prefectureCode": "13",
    "prefectureNumber": 13,
    "prefecture": "東京都",
    "city": "新宿区",
    "town": "西新宿新宿野村ビル（４８階）"
  },
  "1630549": {
    "zipcode": "1630549",
    "prefectureCode": "13",
    "prefectureNumber": 13,
    "prefecture": "東京都",
    "city": "新宿区",
    "town": "西新宿新宿野村ビル（４９階）"
  },
  "1630550": {
    "zipcode": "1630550",
    "prefectureCode": "13",
    "prefectureNumber": 13,
    "prefecture": "東京都",
    "city": "新宿区",
    "town": "西新宿新宿野村ビル（５０階）"
  },
  "1630590": {
    "zipcode": "1630590",
    "prefectureCode": "13",
    "prefectureNumber": 13,
    "prefecture": "東京都",
    "city": "新宿区",
    "town": "西新宿新宿野村ビル（地階・階層不明）"
  },
  "1630601": {
    "zipcode": "1630601",
    "prefectureCode": "13",
    "prefectureNumber": 13,
    "prefecture": "東京都",
    "city": "新宿区",
    "town": "西新宿新宿センタービル（１階）"
  },
  "1630602": {
    "zipcode": "1630602",
    "prefectureCode": "13",
    "prefectureNumber": 13,
    "prefecture": "東京都",
    "city": "新宿区",
    "town": "西新宿新宿センタービル（２階）"
  },
  "1630603": {
    "zipcode": "1630603",
    "prefectureCode": "13",
    "prefectureNumber": 13,
    "prefecture": "東京都",
    "city": "新宿区",
    "town": "西新宿新宿センタービル（３階）"
  },
  "1630604": {
    "zipcode": "1630604",
    "prefectureCode": "13",
    "prefectureNumber": 13,
    "prefecture": "東京都",
    "city": "新宿区",
    "town": "西新宿新宿センタービル（４階）"
  },
  "1630605": {
    "zipcode": "1630605",
    "prefectureCode": "13",
    "prefectureNumber": 13,
    "prefecture": "東京都",
    "city": "新宿区",
    "town": "西新宿新宿センタービル（５階）"
  },
  "1630606": {
    "zipcode": "1630606",
    "prefectureCode": "13",
    "prefectureNumber": 13,
    "prefecture": "東京都",
    "city": "新宿区",
    "town": "西新宿新宿センタービル（６階）"
  },
  "1630607": {
    "zipcode": "1630607",
    "prefectureCode": "13",
    "prefectureNumber": 13,
    "prefecture": "東京都",
    "city": "新宿区",
    "town": "西新宿新宿センタービル（７階）"
  },
  "1630608": {
    "zipcode": "1630608",
    "prefectureCode": "13",
    "prefectureNumber": 13,
    "prefecture": "東京都",
    "city": "新宿区",
    "town": "西新宿新宿センタービル（８階）"
  },
  "1630609": {
    "zipcode": "1630609",
    "prefectureCode": "13",
    "prefectureNumber": 13,
    "prefecture": "東京都",
    "city": "新宿区",
    "town": "西新宿新宿センタービル（９階）"
  },
  "1630610": {
    "zipcode": "1630610",
    "prefectureCode": "13",
    "prefectureNumber": 13,
    "prefecture": "東京都",
    "city": "新宿区",
    "town": "西新宿新宿センタービル（１０階）"
  },
  "1630611": {
    "zipcode": "1630611",
    "prefectureCode": "13",
    "prefectureNumber": 13,
    "prefecture": "東京都",
    "city": "新宿区",
    "town": "西新宿新宿センタービル（１１階）"
  },
  "1630612": {
    "zipcode": "1630612",
    "prefectureCode": "13",
    "prefectureNumber": 13,
    "prefecture": "東京都",
    "city": "新宿区",
    "town": "西新宿新宿センタービル（１２階）"
  },
  "1630613": {
    "zipcode": "1630613",
    "prefectureCode": "13",
    "prefectureNumber": 13,
    "prefecture": "東京都",
    "city": "新宿区",
    "town": "西新宿新宿センタービル（１３階）"
  },
  "1630614": {
    "zipcode": "1630614",
    "prefectureCode": "13",
    "prefectureNumber": 13,
    "prefecture": "東京都",
    "city": "新宿区",
    "town": "西新宿新宿センタービル（１４階）"
  },
  "1630615": {
    "zipcode": "1630615",
    "prefectureCode": "13",
    "prefectureNumber": 13,
    "prefecture": "東京都",
    "city": "新宿区",
    "town": "西新宿新宿センタービル（１５階）"
  },
  "1630616": {
    "zipcode": "1630616",
    "prefectureCode": "13",
    "prefectureNumber": 13,
    "prefecture": "東京都",
    "city": "新宿区",
    "town": "西新宿新宿センタービル（１６階）"
  },
  "1630617": {
    "zipcode": "1630617",
    "prefectureCode": "13",
    "prefectureNumber": 13,
    "prefecture": "東京都",
    "city": "新宿区",
    "town": "西新宿新宿センタービル（１７階）"
  },
  "1630618": {
    "zipcode": "1630618",
    "prefectureCode": "13",
    "prefectureNumber": 13,
    "prefecture": "東京都",
    "city": "新宿区",
    "town": "西新宿新宿センタービル（１８階）"
  },
  "1630619": {
    "zipcode": "1630619",
    "prefectureCode": "13",
    "prefectureNumber": 13,
    "prefecture": "東京都",
    "city": "新宿区",
    "town": "西新宿新宿センタービル（１９階）"
  },
  "1630620": {
    "zipcode": "1630620",
    "prefectureCode": "13",
    "prefectureNumber": 13,
    "prefecture": "東京都",
    "city": "新宿区",
    "town": "西新宿新宿センタービル（２０階）"
  },
  "1630621": {
    "zipcode": "1630621",
    "prefectureCode": "13",
    "prefectureNumber": 13,
    "prefecture": "東京都",
    "city": "新宿区",
    "town": "西新宿新宿センタービル（２１階）"
  },
  "1630622": {
    "zipcode": "1630622",
    "prefectureCode": "13",
    "prefectureNumber": 13,
    "prefecture": "東京都",
    "city": "新宿区",
    "town": "西新宿新宿センタービル（２２階）"
  },
  "1630623": {
    "zipcode": "1630623",
    "prefectureCode": "13",
    "prefectureNumber": 13,
    "prefecture": "東京都",
    "city": "新宿区",
    "town": "西新宿新宿センタービル（２３階）"
  },
  "1630624": {
    "zipcode": "1630624",
    "prefectureCode": "13",
    "prefectureNumber": 13,
    "prefecture": "東京都",
    "city": "新宿区",
    "town": "西新宿新宿センタービル（２４階）"
  },
  "1630625": {
    "zipcode": "1630625",
    "prefectureCode": "13",
    "prefectureNumber": 13,
    "prefecture": "東京都",
    "city": "新宿区",
    "town": "西新宿新宿センタービル（２５階）"
  },
  "1630626": {
    "zipcode": "1630626",
    "prefectureCode": "13",
    "prefectureNumber": 13,
    "prefecture": "東京都",
    "city": "新宿区",
    "town": "西新宿新宿センタービル（２６階）"
  },
  "1630627": {
    "zipcode": "1630627",
    "prefectureCode": "13",
    "prefectureNumber": 13,
    "prefecture": "東京都",
    "city": "新宿区",
    "town": "西新宿新宿センタービル（２７階）"
  },
  "1630628": {
    "zipcode": "1630628",
    "prefectureCode": "13",
    "prefectureNumber": 13,
    "prefecture": "東京都",
    "city": "新宿区",
    "town": "西新宿新宿センタービル（２８階）"
  },
  "1630629": {
    "zipcode": "1630629",
    "prefectureCode": "13",
    "prefectureNumber": 13,
    "prefecture": "東京都",
    "city": "新宿区",
    "town": "西新宿新宿センタービル（２９階）"
  },
  "1630630": {
    "zipcode": "1630630",
    "prefectureCode": "13",
    "prefectureNumber": 13,
    "prefecture": "東京都",
    "city": "新宿区",
    "town": "西新宿新宿センタービル（３０階）"
  },
  "1630631": {
    "zipcode": "1630631",
    "prefectureCode": "13",
    "prefectureNumber": 13,
    "prefecture": "東京都",
    "city": "新宿区",
    "town": "西新宿新宿センタービル（３１階）"
  },
  "1630632": {
    "zipcode": "1630632",
    "prefectureCode": "13",
    "prefectureNumber": 13,
    "prefecture": "東京都",
    "city": "新宿区",
    "town": "西新宿新宿センタービル（３２階）"
  },
  "1630633": {
    "zipcode": "1630633",
    "prefectureCode": "13",
    "prefectureNumber": 13,
    "prefecture": "東京都",
    "city": "新宿区",
    "town": "西新宿新宿センタービル（３３階）"
  },
  "1630634": {
    "zipcode": "1630634",
    "prefectureCode": "13",
    "prefectureNumber": 13,
    "prefecture": "東京都",
    "city": "新宿区",
    "town": "西新宿新宿センタービル（３４階）"
  },
  "1630635": {
    "zipcode": "1630635",
    "prefectureCode": "13",
    "prefectureNumber": 13,
    "prefecture": "東京都",
    "city": "新宿区",
    "town": "西新宿新宿センタービル（３５階）"
  },
  "1630636": {
    "zipcode": "1630636",
    "prefectureCode": "13",
    "prefectureNumber": 13,
    "prefecture": "東京都",
    "city": "新宿区",
    "town": "西新宿新宿センタービル（３６階）"
  },
  "1630637": {
    "zipcode": "1630637",
    "prefectureCode": "13",
    "prefectureNumber": 13,
    "prefecture": "東京都",
    "city": "新宿区",
    "town": "西新宿新宿センタービル（３７階）"
  },
  "1630638": {
    "zipcode": "1630638",
    "prefectureCode": "13",
    "prefectureNumber": 13,
    "prefecture": "東京都",
    "city": "新宿区",
    "town": "西新宿新宿センタービル（３８階）"
  },
  "1630639": {
    "zipcode": "1630639",
    "prefectureCode": "13",
    "prefectureNumber": 13,
    "prefecture": "東京都",
    "city": "新宿区",
    "town": "西新宿新宿センタービル（３９階）"
  },
  "1630640": {
    "zipcode": "1630640",
    "prefectureCode": "13",
    "prefectureNumber": 13,
    "prefecture": "東京都",
    "city": "新宿区",
    "town": "西新宿新宿センタービル（４０階）"
  },
  "1630641": {
    "zipcode": "1630641",
    "prefectureCode": "13",
    "prefectureNumber": 13,
    "prefecture": "東京都",
    "city": "新宿区",
    "town": "西新宿新宿センタービル（４１階）"
  },
  "1630642": {
    "zipcode": "1630642",
    "prefectureCode": "13",
    "prefectureNumber": 13,
    "prefecture": "東京都",
    "city": "新宿区",
    "town": "西新宿新宿センタービル（４２階）"
  },
  "1630643": {
    "zipcode": "1630643",
    "prefectureCode": "13",
    "prefectureNumber": 13,
    "prefecture": "東京都",
    "city": "新宿区",
    "town": "西新宿新宿センタービル（４３階）"
  },
  "1630644": {
    "zipcode": "1630644",
    "prefectureCode": "13",
    "prefectureNumber": 13,
    "prefecture": "東京都",
    "city": "新宿区",
    "town": "西新宿新宿センタービル（４４階）"
  },
  "1630645": {
    "zipcode": "1630645",
    "prefectureCode": "13",
    "prefectureNumber": 13,
    "prefecture": "東京都",
    "city": "新宿区",
    "town": "西新宿新宿センタービル（４５階）"
  },
  "1630646": {
    "zipcode": "1630646",
    "prefectureCode": "13",
    "prefectureNumber": 13,
    "prefecture": "東京都",
    "city": "新宿区",
    "town": "西新宿新宿センタービル（４６階）"
  },
  "1630647": {
    "zipcode": "1630647",
    "prefectureCode": "13",
    "prefectureNumber": 13,
    "prefecture": "東京都",
    "city": "新宿区",
    "town": "西新宿新宿センタービル（４７階）"
  },
  "1630648": {
    "zipcode": "1630648",
    "prefectureCode": "13",
    "prefectureNumber": 13,
    "prefecture": "東京都",
    "city": "新宿区",
    "town": "西新宿新宿センタービル（４８階）"
  },
  "1630649": {
    "zipcode": "1630649",
    "prefectureCode": "13",
    "prefectureNumber": 13,
    "prefecture": "東京都",
    "city": "新宿区",
    "town": "西新宿新宿センタービル（４９階）"
  },
  "1630650": {
    "zipcode": "1630650",
    "prefectureCode": "13",
    "prefectureNumber": 13,
    "prefecture": "東京都",
    "city": "新宿区",
    "town": "西新宿新宿センタービル（５０階）"
  },
  "1630651": {
    "zipcode": "1630651",
    "prefectureCode": "13",
    "prefectureNumber": 13,
    "prefecture": "東京都",
    "city": "新宿区",
    "town": "西新宿新宿センタービル（５１階）"
  },
  "1630652": {
    "zipcode": "1630652",
    "prefectureCode": "13",
    "prefectureNumber": 13,
    "prefecture": "東京都",
    "city": "新宿区",
    "town": "西新宿新宿センタービル（５２階）"
  },
  "1630653": {
    "zipcode": "1630653",
    "prefectureCode": "13",
    "prefectureNumber": 13,
    "prefecture": "東京都",
    "city": "新宿区",
    "town": "西新宿新宿センタービル（５３階）"
  },
  "1630654": {
    "zipcode": "1630654",
    "prefectureCode": "13",
    "prefectureNumber": 13,
    "prefecture": "東京都",
    "city": "新宿区",
    "town": "西新宿新宿センタービル（５４階）"
  },
  "1630690": {
    "zipcode": "1630690",
    "prefectureCode": "13",
    "prefectureNumber": 13,
    "prefecture": "東京都",
    "city": "新宿区",
    "town": "西新宿新宿センタービル（地階・階層不明）"
  },
  "1630701": {
    "zipcode": "1630701",
    "prefectureCode": "13",
    "prefectureNumber": 13,
    "prefecture": "東京都",
    "city": "新宿区",
    "town": "西新宿新宿第一生命ビルディング（１階）"
  },
  "1630702": {
    "zipcode": "1630702",
    "prefectureCode": "13",
    "prefectureNumber": 13,
    "prefecture": "東京都",
    "city": "新宿区",
    "town": "西新宿新宿第一生命ビルディング（２階）"
  },
  "1630703": {
    "zipcode": "1630703",
    "prefectureCode": "13",
    "prefectureNumber": 13,
    "prefecture": "東京都",
    "city": "新宿区",
    "town": "西新宿新宿第一生命ビルディング（３階）"
  },
  "1630704": {
    "zipcode": "1630704",
    "prefectureCode": "13",
    "prefectureNumber": 13,
    "prefecture": "東京都",
    "city": "新宿区",
    "town": "西新宿新宿第一生命ビルディング（４階）"
  },
  "1630705": {
    "zipcode": "1630705",
    "prefectureCode": "13",
    "prefectureNumber": 13,
    "prefecture": "東京都",
    "city": "新宿区",
    "town": "西新宿新宿第一生命ビルディング（５階）"
  },
  "1630706": {
    "zipcode": "1630706",
    "prefectureCode": "13",
    "prefectureNumber": 13,
    "prefecture": "東京都",
    "city": "新宿区",
    "town": "西新宿新宿第一生命ビルディング（６階）"
  },
  "1630707": {
    "zipcode": "1630707",
    "prefectureCode": "13",
    "prefectureNumber": 13,
    "prefecture": "東京都",
    "city": "新宿区",
    "town": "西新宿新宿第一生命ビルディング（７階）"
  },
  "1630708": {
    "zipcode": "1630708",
    "prefectureCode": "13",
    "prefectureNumber": 13,
    "prefecture": "東京都",
    "city": "新宿区",
    "town": "西新宿新宿第一生命ビルディング（８階）"
  },
  "1630709": {
    "zipcode": "1630709",
    "prefectureCode": "13",
    "prefectureNumber": 13,
    "prefecture": "東京都",
    "city": "新宿区",
    "town": "西新宿新宿第一生命ビルディング（９階）"
  },
  "1630710": {
    "zipcode": "1630710",
    "prefectureCode": "13",
    "prefectureNumber": 13,
    "prefecture": "東京都",
    "city": "新宿区",
    "town": "西新宿新宿第一生命ビルディング（１０階）"
  },
  "1630711": {
    "zipcode": "1630711",
    "prefectureCode": "13",
    "prefectureNumber": 13,
    "prefecture": "東京都",
    "city": "新宿区",
    "town": "西新宿新宿第一生命ビルディング（１１階）"
  },
  "1630712": {
    "zipcode": "1630712",
    "prefectureCode": "13",
    "prefectureNumber": 13,
    "prefecture": "東京都",
    "city": "新宿区",
    "town": "西新宿新宿第一生命ビルディング（１２階）"
  },
  "1630713": {
    "zipcode": "1630713",
    "prefectureCode": "13",
    "prefectureNumber": 13,
    "prefecture": "東京都",
    "city": "新宿区",
    "town": "西新宿新宿第一生命ビルディング（１３階）"
  },
  "1630714": {
    "zipcode": "1630714",
    "prefectureCode": "13",
    "prefectureNumber": 13,
    "prefecture": "東京都",
    "city": "新宿区",
    "town": "西新宿新宿第一生命ビルディング（１４階）"
  },
  "1630715": {
    "zipcode": "1630715",
    "prefectureCode": "13",
    "prefectureNumber": 13,
    "prefecture": "東京都",
    "city": "新宿区",
    "town": "西新宿新宿第一生命ビルディング（１５階）"
  },
  "1630716": {
    "zipcode": "1630716",
    "prefectureCode": "13",
    "prefectureNumber": 13,
    "prefecture": "東京都",
    "city": "新宿区",
    "town": "西新宿新宿第一生命ビルディング（１６階）"
  },
  "1630717": {
    "zipcode": "1630717",
    "prefectureCode": "13",
    "prefectureNumber": 13,
    "prefecture": "東京都",
    "city": "新宿区",
    "town": "西新宿新宿第一生命ビルディング（１７階）"
  },
  "1630718": {
    "zipcode": "1630718",
    "prefectureCode": "13",
    "prefectureNumber": 13,
    "prefecture": "東京都",
    "city": "新宿区",
    "town": "西新宿新宿第一生命ビルディング（１８階）"
  },
  "1630719": {
    "zipcode": "1630719",
    "prefectureCode": "13",
    "prefectureNumber": 13,
    "prefecture": "東京都",
    "city": "新宿区",
    "town": "西新宿新宿第一生命ビルディング（１９階）"
  },
  "1630720": {
    "zipcode": "1630720",
    "prefectureCode": "13",
    "prefectureNumber": 13,
    "prefecture": "東京都",
    "city": "新宿区",
    "town": "西新宿新宿第一生命ビルディング（２０階）"
  },
  "1630721": {
    "zipcode": "1630721",
    "prefectureCode": "13",
    "prefectureNumber": 13,
    "prefecture": "東京都",
    "city": "新宿区",
    "town": "西新宿新宿第一生命ビルディング（２１階）"
  },
  "1630722": {
    "zipcode": "1630722",
    "prefectureCode": "13",
    "prefectureNumber": 13,
    "prefecture": "東京都",
    "city": "新宿区",
    "town": "西新宿新宿第一生命ビルディング（２２階）"
  },
  "1630723": {
    "zipcode": "1630723",
    "prefectureCode": "13",
    "prefectureNumber": 13,
    "prefecture": "東京都",
    "city": "新宿区",
    "town": "西新宿新宿第一生命ビルディング（２３階）"
  },
  "1630724": {
    "zipcode": "1630724",
    "prefectureCode": "13",
    "prefectureNumber": 13,
    "prefecture": "東京都",
    "city": "新宿区",
    "town": "西新宿新宿第一生命ビルディング（２４階）"
  },
  "1630725": {
    "zipcode": "1630725",
    "prefectureCode": "13",
    "prefectureNumber": 13,
    "prefecture": "東京都",
    "city": "新宿区",
    "town": "西新宿新宿第一生命ビルディング（２５階）"
  },
  "1630726": {
    "zipcode": "1630726",
    "prefectureCode": "13",
    "prefectureNumber": 13,
    "prefecture": "東京都",
    "city": "新宿区",
    "town": "西新宿新宿第一生命ビルディング（２６階）"
  },
  "1630790": {
    "zipcode": "1630790",
    "prefectureCode": "13",
    "prefectureNumber": 13,
    "prefecture": "東京都",
    "city": "新宿区",
    "town": "西新宿新宿第一生命ビルディング（地階・階層不明）"
  },
  "1630801": {
    "zipcode": "1630801",
    "prefectureCode": "13",
    "prefectureNumber": 13,
    "prefecture": "東京都",
    "city": "新宿区",
    "town": "西新宿新宿ＮＳビル（１階）"
  },
  "1630802": {
    "zipcode": "1630802",
    "prefectureCode": "13",
    "prefectureNumber": 13,
    "prefecture": "東京都",
    "city": "新宿区",
    "town": "西新宿新宿ＮＳビル（２階）"
  },
  "1630803": {
    "zipcode": "1630803",
    "prefectureCode": "13",
    "prefectureNumber": 13,
    "prefecture": "東京都",
    "city": "新宿区",
    "town": "西新宿新宿ＮＳビル（３階）"
  },
  "1630804": {
    "zipcode": "1630804",
    "prefectureCode": "13",
    "prefectureNumber": 13,
    "prefecture": "東京都",
    "city": "新宿区",
    "town": "西新宿新宿ＮＳビル（４階）"
  },
  "1630805": {
    "zipcode": "1630805",
    "prefectureCode": "13",
    "prefectureNumber": 13,
    "prefecture": "東京都",
    "city": "新宿区",
    "town": "西新宿新宿ＮＳビル（５階）"
  },
  "1630806": {
    "zipcode": "1630806",
    "prefectureCode": "13",
    "prefectureNumber": 13,
    "prefecture": "東京都",
    "city": "新宿区",
    "town": "西新宿新宿ＮＳビル（６階）"
  },
  "1630807": {
    "zipcode": "1630807",
    "prefectureCode": "13",
    "prefectureNumber": 13,
    "prefecture": "東京都",
    "city": "新宿区",
    "town": "西新宿新宿ＮＳビル（７階）"
  },
  "1630808": {
    "zipcode": "1630808",
    "prefectureCode": "13",
    "prefectureNumber": 13,
    "prefecture": "東京都",
    "city": "新宿区",
    "town": "西新宿新宿ＮＳビル（８階）"
  },
  "1630809": {
    "zipcode": "1630809",
    "prefectureCode": "13",
    "prefectureNumber": 13,
    "prefecture": "東京都",
    "city": "新宿区",
    "town": "西新宿新宿ＮＳビル（９階）"
  },
  "1630810": {
    "zipcode": "1630810",
    "prefectureCode": "13",
    "prefectureNumber": 13,
    "prefecture": "東京都",
    "city": "新宿区",
    "town": "西新宿新宿ＮＳビル（１０階）"
  },
  "1630811": {
    "zipcode": "1630811",
    "prefectureCode": "13",
    "prefectureNumber": 13,
    "prefecture": "東京都",
    "city": "新宿区",
    "town": "西新宿新宿ＮＳビル（１１階）"
  },
  "1630812": {
    "zipcode": "1630812",
    "prefectureCode": "13",
    "prefectureNumber": 13,
    "prefecture": "東京都",
    "city": "新宿区",
    "town": "西新宿新宿ＮＳビル（１２階）"
  },
  "1630813": {
    "zipcode": "1630813",
    "prefectureCode": "13",
    "prefectureNumber": 13,
    "prefecture": "東京都",
    "city": "新宿区",
    "town": "西新宿新宿ＮＳビル（１３階）"
  },
  "1630814": {
    "zipcode": "1630814",
    "prefectureCode": "13",
    "prefectureNumber": 13,
    "prefecture": "東京都",
    "city": "新宿区",
    "town": "西新宿新宿ＮＳビル（１４階）"
  },
  "1630815": {
    "zipcode": "1630815",
    "prefectureCode": "13",
    "prefectureNumber": 13,
    "prefecture": "東京都",
    "city": "新宿区",
    "town": "西新宿新宿ＮＳビル（１５階）"
  },
  "1630816": {
    "zipcode": "1630816",
    "prefectureCode": "13",
    "prefectureNumber": 13,
    "prefecture": "東京都",
    "city": "新宿区",
    "town": "西新宿新宿ＮＳビル（１６階）"
  },
  "1630817": {
    "zipcode": "1630817",
    "prefectureCode": "13",
    "prefectureNumber": 13,
    "prefecture": "東京都",
    "city": "新宿区",
    "town": "西新宿新宿ＮＳビル（１７階）"
  },
  "1630818": {
    "zipcode": "1630818",
    "prefectureCode": "13",
    "prefectureNumber": 13,
    "prefecture": "東京都",
    "city": "新宿区",
    "town": "西新宿新宿ＮＳビル（１８階）"
  },
  "1630819": {
    "zipcode": "1630819",
    "prefectureCode": "13",
    "prefectureNumber": 13,
    "prefecture": "東京都",
    "city": "新宿区",
    "town": "西新宿新宿ＮＳビル（１９階）"
  },
  "1630820": {
    "zipcode": "1630820",
    "prefectureCode": "13",
    "prefectureNumber": 13,
    "prefecture": "東京都",
    "city": "新宿区",
    "town": "西新宿新宿ＮＳビル（２０階）"
  },
  "1630821": {
    "zipcode": "1630821",
    "prefectureCode": "13",
    "prefectureNumber": 13,
    "prefecture": "東京都",
    "city": "新宿区",
    "town": "西新宿新宿ＮＳビル（２１階）"
  },
  "1630822": {
    "zipcode": "1630822",
    "prefectureCode": "13",
    "prefectureNumber": 13,
    "prefecture": "東京都",
    "city": "新宿区",
    "town": "西新宿新宿ＮＳビル（２２階）"
  },
  "1630823": {
    "zipcode": "1630823",
    "prefectureCode": "13",
    "prefectureNumber": 13,
    "prefecture": "東京都",
    "city": "新宿区",
    "town": "西新宿新宿ＮＳビル（２３階）"
  },
  "1630824": {
    "zipcode": "1630824",
    "prefectureCode": "13",
    "prefectureNumber": 13,
    "prefecture": "東京都",
    "city": "新宿区",
    "town": "西新宿新宿ＮＳビル（２４階）"
  },
  "1630825": {
    "zipcode": "1630825",
    "prefectureCode": "13",
    "prefectureNumber": 13,
    "prefecture": "東京都",
    "city": "新宿区",
    "town": "西新宿新宿ＮＳビル（２５階）"
  },
  "1630826": {
    "zipcode": "1630826",
    "prefectureCode": "13",
    "prefectureNumber": 13,
    "prefecture": "東京都",
    "city": "新宿区",
    "town": "西新宿新宿ＮＳビル（２６階）"
  },
  "1630827": {
    "zipcode": "1630827",
    "prefectureCode": "13",
    "prefectureNumber": 13,
    "prefecture": "東京都",
    "city": "新宿区",
    "town": "西新宿新宿ＮＳビル（２７階）"
  },
  "1630828": {
    "zipcode": "1630828",
    "prefectureCode": "13",
    "prefectureNumber": 13,
    "prefecture": "東京都",
    "city": "新宿区",
    "town": "西新宿新宿ＮＳビル（２８階）"
  },
  "1630829": {
    "zipcode": "1630829",
    "prefectureCode": "13",
    "prefectureNumber": 13,
    "prefecture": "東京都",
    "city": "新宿区",
    "town": "西新宿新宿ＮＳビル（２９階）"
  },
  "1630830": {
    "zipcode": "1630830",
    "prefectureCode": "13",
    "prefectureNumber": 13,
    "prefecture": "東京都",
    "city": "新宿区",
    "town": "西新宿新宿ＮＳビル（３０階）"
  },
  "1630890": {
    "zipcode": "1630890",
    "prefectureCode": "13",
    "prefectureNumber": 13,
    "prefecture": "東京都",
    "city": "新宿区",
    "town": "西新宿新宿ＮＳビル（地階・階層不明）"
  },
  "1630901": {
    "zipcode": "1630901",
    "prefectureCode": "13",
    "prefectureNumber": 13,
    "prefecture": "東京都",
    "city": "新宿区",
    "town": "西新宿新宿モノリス（１階）"
  },
  "1630902": {
    "zipcode": "1630902",
    "prefectureCode": "13",
    "prefectureNumber": 13,
    "prefecture": "東京都",
    "city": "新宿区",
    "town": "西新宿新宿モノリス（２階）"
  },
  "1630903": {
    "zipcode": "1630903",
    "prefectureCode": "13",
    "prefectureNumber": 13,
    "prefecture": "東京都",
    "city": "新宿区",
    "town": "西新宿新宿モノリス（３階）"
  },
  "1630904": {
    "zipcode": "1630904",
    "prefectureCode": "13",
    "prefectureNumber": 13,
    "prefecture": "東京都",
    "city": "新宿区",
    "town": "西新宿新宿モノリス（４階）"
  },
  "1630905": {
    "zipcode": "1630905",
    "prefectureCode": "13",
    "prefectureNumber": 13,
    "prefecture": "東京都",
    "city": "新宿区",
    "town": "西新宿新宿モノリス（５階）"
  },
  "1630906": {
    "zipcode": "1630906",
    "prefectureCode": "13",
    "prefectureNumber": 13,
    "prefecture": "東京都",
    "city": "新宿区",
    "town": "西新宿新宿モノリス（６階）"
  },
  "1630907": {
    "zipcode": "1630907",
    "prefectureCode": "13",
    "prefectureNumber": 13,
    "prefecture": "東京都",
    "city": "新宿区",
    "town": "西新宿新宿モノリス（７階）"
  },
  "1630908": {
    "zipcode": "1630908",
    "prefectureCode": "13",
    "prefectureNumber": 13,
    "prefecture": "東京都",
    "city": "新宿区",
    "town": "西新宿新宿モノリス（８階）"
  },
  "1630909": {
    "zipcode": "1630909",
    "prefectureCode": "13",
    "prefectureNumber": 13,
    "prefecture": "東京都",
    "city": "新宿区",
    "town": "西新宿新宿モノリス（９階）"
  },
  "1630910": {
    "zipcode": "1630910",
    "prefectureCode": "13",
    "prefectureNumber": 13,
    "prefecture": "東京都",
    "city": "新宿区",
    "town": "西新宿新宿モノリス（１０階）"
  },
  "1630911": {
    "zipcode": "1630911",
    "prefectureCode": "13",
    "prefectureNumber": 13,
    "prefecture": "東京都",
    "city": "新宿区",
    "town": "西新宿新宿モノリス（１１階）"
  },
  "1630912": {
    "zipcode": "1630912",
    "prefectureCode": "13",
    "prefectureNumber": 13,
    "prefecture": "東京都",
    "city": "新宿区",
    "town": "西新宿新宿モノリス（１２階）"
  },
  "1630913": {
    "zipcode": "1630913",
    "prefectureCode": "13",
    "prefectureNumber": 13,
    "prefecture": "東京都",
    "city": "新宿区",
    "town": "西新宿新宿モノリス（１３階）"
  },
  "1630914": {
    "zipcode": "1630914",
    "prefectureCode": "13",
    "prefectureNumber": 13,
    "prefecture": "東京都",
    "city": "新宿区",
    "town": "西新宿新宿モノリス（１４階）"
  },
  "1630915": {
    "zipcode": "1630915",
    "prefectureCode": "13",
    "prefectureNumber": 13,
    "prefecture": "東京都",
    "city": "新宿区",
    "town": "西新宿新宿モノリス（１５階）"
  },
  "1630916": {
    "zipcode": "1630916",
    "prefectureCode": "13",
    "prefectureNumber": 13,
    "prefecture": "東京都",
    "city": "新宿区",
    "town": "西新宿新宿モノリス（１６階）"
  },
  "1630917": {
    "zipcode": "1630917",
    "prefectureCode": "13",
    "prefectureNumber": 13,
    "prefecture": "東京都",
    "city": "新宿区",
    "town": "西新宿新宿モノリス（１７階）"
  },
  "1630918": {
    "zipcode": "1630918",
    "prefectureCode": "13",
    "prefectureNumber": 13,
    "prefecture": "東京都",
    "city": "新宿区",
    "town": "西新宿新宿モノリス（１８階）"
  },
  "1630919": {
    "zipcode": "1630919",
    "prefectureCode": "13",
    "prefectureNumber": 13,
    "prefecture": "東京都",
    "city": "新宿区",
    "town": "西新宿新宿モノリス（１９階）"
  },
  "1630920": {
    "zipcode": "1630920",
    "prefectureCode": "13",
    "prefectureNumber": 13,
    "prefecture": "東京都",
    "city": "新宿区",
    "town": "西新宿新宿モノリス（２０階）"
  },
  "1630921": {
    "zipcode": "1630921",
    "prefectureCode": "13",
    "prefectureNumber": 13,
    "prefecture": "東京都",
    "city": "新宿区",
    "town": "西新宿新宿モノリス（２１階）"
  },
  "1630922": {
    "zipcode": "1630922",
    "prefectureCode": "13",
    "prefectureNumber": 13,
    "prefecture": "東京都",
    "city": "新宿区",
    "town": "西新宿新宿モノリス（２２階）"
  },
  "1630923": {
    "zipcode": "1630923",
    "prefectureCode": "13",
    "prefectureNumber": 13,
    "prefecture": "東京都",
    "city": "新宿区",
    "town": "西新宿新宿モノリス（２３階）"
  },
  "1630924": {
    "zipcode": "1630924",
    "prefectureCode": "13",
    "prefectureNumber": 13,
    "prefecture": "東京都",
    "city": "新宿区",
    "town": "西新宿新宿モノリス（２４階）"
  },
  "1630925": {
    "zipcode": "1630925",
    "prefectureCode": "13",
    "prefectureNumber": 13,
    "prefecture": "東京都",
    "city": "新宿区",
    "town": "西新宿新宿モノリス（２５階）"
  },
  "1630926": {
    "zipcode": "1630926",
    "prefectureCode": "13",
    "prefectureNumber": 13,
    "prefecture": "東京都",
    "city": "新宿区",
    "town": "西新宿新宿モノリス（２６階）"
  },
  "1630927": {
    "zipcode": "1630927",
    "prefectureCode": "13",
    "prefectureNumber": 13,
    "prefecture": "東京都",
    "city": "新宿区",
    "town": "西新宿新宿モノリス（２７階）"
  },
  "1630928": {
    "zipcode": "1630928",
    "prefectureCode": "13",
    "prefectureNumber": 13,
    "prefecture": "東京都",
    "city": "新宿区",
    "town": "西新宿新宿モノリス（２８階）"
  },
  "1630929": {
    "zipcode": "1630929",
    "prefectureCode": "13",
    "prefectureNumber": 13,
    "prefecture": "東京都",
    "city": "新宿区",
    "town": "西新宿新宿モノリス（２９階）"
  },
  "1630930": {
    "zipcode": "1630930",
    "prefectureCode": "13",
    "prefectureNumber": 13,
    "prefecture": "東京都",
    "city": "新宿区",
    "town": "西新宿新宿モノリス（３０階）"
  },
  "1630990": {
    "zipcode": "1630990",
    "prefectureCode": "13",
    "prefectureNumber": 13,
    "prefecture": "東京都",
    "city": "新宿区",
    "town": "西新宿新宿モノリス（地階・階層不明）"
  },
  "1631001": {
    "zipcode": "1631001",
    "prefectureCode": "13",
    "prefectureNumber": 13,
    "prefecture": "東京都",
    "city": "新宿区",
    "town": "西新宿新宿パークタワー（１階）"
  },
  "1631002": {
    "zipcode": "1631002",
    "prefectureCode": "13",
    "prefectureNumber": 13,
    "prefecture": "東京都",
    "city": "新宿区",
    "town": "西新宿新宿パークタワー（２階）"
  },
  "1631003": {
    "zipcode": "1631003",
    "prefectureCode": "13",
    "prefectureNumber": 13,
    "prefecture": "東京都",
    "city": "新宿区",
    "town": "西新宿新宿パークタワー（３階）"
  },
  "1631004": {
    "zipcode": "1631004",
    "prefectureCode": "13",
    "prefectureNumber": 13,
    "prefecture": "東京都",
    "city": "新宿区",
    "town": "西新宿新宿パークタワー（４階）"
  },
  "1631005": {
    "zipcode": "1631005",
    "prefectureCode": "13",
    "prefectureNumber": 13,
    "prefecture": "東京都",
    "city": "新宿区",
    "town": "西新宿新宿パークタワー（５階）"
  },
  "1631006": {
    "zipcode": "1631006",
    "prefectureCode": "13",
    "prefectureNumber": 13,
    "prefecture": "東京都",
    "city": "新宿区",
    "town": "西新宿新宿パークタワー（６階）"
  },
  "1631007": {
    "zipcode": "1631007",
    "prefectureCode": "13",
    "prefectureNumber": 13,
    "prefecture": "東京都",
    "city": "新宿区",
    "town": "西新宿新宿パークタワー（７階）"
  },
  "1631008": {
    "zipcode": "1631008",
    "prefectureCode": "13",
    "prefectureNumber": 13,
    "prefecture": "東京都",
    "city": "新宿区",
    "town": "西新宿新宿パークタワー（８階）"
  },
  "1631009": {
    "zipcode": "1631009",
    "prefectureCode": "13",
    "prefectureNumber": 13,
    "prefecture": "東京都",
    "city": "新宿区",
    "town": "西新宿新宿パークタワー（９階）"
  },
  "1631010": {
    "zipcode": "1631010",
    "prefectureCode": "13",
    "prefectureNumber": 13,
    "prefecture": "東京都",
    "city": "新宿区",
    "town": "西新宿新宿パークタワー（１０階）"
  },
  "1631011": {
    "zipcode": "1631011",
    "prefectureCode": "13",
    "prefectureNumber": 13,
    "prefecture": "東京都",
    "city": "新宿区",
    "town": "西新宿新宿パークタワー（１１階）"
  },
  "1631012": {
    "zipcode": "1631012",
    "prefectureCode": "13",
    "prefectureNumber": 13,
    "prefecture": "東京都",
    "city": "新宿区",
    "town": "西新宿新宿パークタワー（１２階）"
  },
  "1631013": {
    "zipcode": "1631013",
    "prefectureCode": "13",
    "prefectureNumber": 13,
    "prefecture": "東京都",
    "city": "新宿区",
    "town": "西新宿新宿パークタワー（１３階）"
  },
  "1631014": {
    "zipcode": "1631014",
    "prefectureCode": "13",
    "prefectureNumber": 13,
    "prefecture": "東京都",
    "city": "新宿区",
    "town": "西新宿新宿パークタワー（１４階）"
  },
  "1631015": {
    "zipcode": "1631015",
    "prefectureCode": "13",
    "prefectureNumber": 13,
    "prefecture": "東京都",
    "city": "新宿区",
    "town": "西新宿新宿パークタワー（１５階）"
  },
  "1631016": {
    "zipcode": "1631016",
    "prefectureCode": "13",
    "prefectureNumber": 13,
    "prefecture": "東京都",
    "city": "新宿区",
    "town": "西新宿新宿パークタワー（１６階）"
  },
  "1631017": {
    "zipcode": "1631017",
    "prefectureCode": "13",
    "prefectureNumber": 13,
    "prefecture": "東京都",
    "city": "新宿区",
    "town": "西新宿新宿パークタワー（１７階）"
  },
  "1631018": {
    "zipcode": "1631018",
    "prefectureCode": "13",
    "prefectureNumber": 13,
    "prefecture": "東京都",
    "city": "新宿区",
    "town": "西新宿新宿パークタワー（１８階）"
  },
  "1631019": {
    "zipcode": "1631019",
    "prefectureCode": "13",
    "prefectureNumber": 13,
    "prefecture": "東京都",
    "city": "新宿区",
    "town": "西新宿新宿パークタワー（１９階）"
  },
  "1631020": {
    "zipcode": "1631020",
    "prefectureCode": "13",
    "prefectureNumber": 13,
    "prefecture": "東京都",
    "city": "新宿区",
    "town": "西新宿新宿パークタワー（２０階）"
  },
  "1631021": {
    "zipcode": "1631021",
    "prefectureCode": "13",
    "prefectureNumber": 13,
    "prefecture": "東京都",
    "city": "新宿区",
    "town": "西新宿新宿パークタワー（２１階）"
  },
  "1631022": {
    "zipcode": "1631022",
    "prefectureCode": "13",
    "prefectureNumber": 13,
    "prefecture": "東京都",
    "city": "新宿区",
    "town": "西新宿新宿パークタワー（２２階）"
  },
  "1631023": {
    "zipcode": "1631023",
    "prefectureCode": "13",
    "prefectureNumber": 13,
    "prefecture": "東京都",
    "city": "新宿区",
    "town": "西新宿新宿パークタワー（２３階）"
  },
  "1631024": {
    "zipcode": "1631024",
    "prefectureCode": "13",
    "prefectureNumber": 13,
    "prefecture": "東京都",
    "city": "新宿区",
    "town": "西新宿新宿パークタワー（２４階）"
  },
  "1631025": {
    "zipcode": "1631025",
    "prefectureCode": "13",
    "prefectureNumber": 13,
    "prefecture": "東京都",
    "city": "新宿区",
    "town": "西新宿新宿パークタワー（２５階）"
  },
  "1631026": {
    "zipcode": "1631026",
    "prefectureCode": "13",
    "prefectureNumber": 13,
    "prefecture": "東京都",
    "city": "新宿区",
    "town": "西新宿新宿パークタワー（２６階）"
  },
  "1631027": {
    "zipcode": "1631027",
    "prefectureCode": "13",
    "prefectureNumber": 13,
    "prefecture": "東京都",
    "city": "新宿区",
    "town": "西新宿新宿パークタワー（２７階）"
  },
  "1631028": {
    "zipcode": "1631028",
    "prefectureCode": "13",
    "prefectureNumber": 13,
    "prefecture": "東京都",
    "city": "新宿区",
    "town": "西新宿新宿パークタワー（２８階）"
  },
  "1631029": {
    "zipcode": "1631029",
    "prefectureCode": "13",
    "prefectureNumber": 13,
    "prefecture": "東京都",
    "city": "新宿区",
    "town": "西新宿新宿パークタワー（２９階）"
  },
  "1631030": {
    "zipcode": "1631030",
    "prefectureCode": "13",
    "prefectureNumber": 13,
    "prefecture": "東京都",
    "city": "新宿区",
    "town": "西新宿新宿パークタワー（３０階）"
  },
  "1631031": {
    "zipcode": "1631031",
    "prefectureCode": "13",
    "prefectureNumber": 13,
    "prefecture": "東京都",
    "city": "新宿区",
    "town": "西新宿新宿パークタワー（３１階）"
  },
  "1631032": {
    "zipcode": "1631032",
    "prefectureCode": "13",
    "prefectureNumber": 13,
    "prefecture": "東京都",
    "city": "新宿区",
    "town": "西新宿新宿パークタワー（３２階）"
  },
  "1631033": {
    "zipcode": "1631033",
    "prefectureCode": "13",
    "prefectureNumber": 13,
    "prefecture": "東京都",
    "city": "新宿区",
    "town": "西新宿新宿パークタワー（３３階）"
  },
  "1631034": {
    "zipcode": "1631034",
    "prefectureCode": "13",
    "prefectureNumber": 13,
    "prefecture": "東京都",
    "city": "新宿区",
    "town": "西新宿新宿パークタワー（３４階）"
  },
  "1631035": {
    "zipcode": "1631035",
    "prefectureCode": "13",
    "prefectureNumber": 13,
    "prefecture": "東京都",
    "city": "新宿区",
    "town": "西新宿新宿パークタワー（３５階）"
  },
  "1631036": {
    "zipcode": "1631036",
    "prefectureCode": "13",
    "prefectureNumber": 13,
    "prefecture": "東京都",
    "city": "新宿区",
    "town": "西新宿新宿パークタワー（３６階）"
  },
  "1631037": {
    "zipcode": "1631037",
    "prefectureCode": "13",
    "prefectureNumber": 13,
    "prefecture": "東京都",
    "city": "新宿区",
    "town": "西新宿新宿パークタワー（３７階）"
  },
  "1631038": {
    "zipcode": "1631038",
    "prefectureCode": "13",
    "prefectureNumber": 13,
    "prefecture": "東京都",
    "city": "新宿区",
    "town": "西新宿新宿パークタワー（３８階）"
  },
  "1631039": {
    "zipcode": "1631039",
    "prefectureCode": "13",
    "prefectureNumber": 13,
    "prefecture": "東京都",
    "city": "新宿区",
    "town": "西新宿新宿パークタワー（３９階）"
  },
  "1631040": {
    "zipcode": "1631040",
    "prefectureCode": "13",
    "prefectureNumber": 13,
    "prefecture": "東京都",
    "city": "新宿区",
    "town": "西新宿新宿パークタワー（４０階）"
  },
  "1631041": {
    "zipcode": "1631041",
    "prefectureCode": "13",
    "prefectureNumber": 13,
    "prefecture": "東京都",
    "city": "新宿区",
    "town": "西新宿新宿パークタワー（４１階）"
  },
  "1631042": {
    "zipcode": "1631042",
    "prefectureCode": "13",
    "prefectureNumber": 13,
    "prefecture": "東京都",
    "city": "新宿区",
    "town": "西新宿新宿パークタワー（４２階）"
  },
  "1631043": {
    "zipcode": "1631043",
    "prefectureCode": "13",
    "prefectureNumber": 13,
    "prefecture": "東京都",
    "city": "新宿区",
    "town": "西新宿新宿パークタワー（４３階）"
  },
  "1631044": {
    "zipcode": "1631044",
    "prefectureCode": "13",
    "prefectureNumber": 13,
    "prefecture": "東京都",
    "city": "新宿区",
    "town": "西新宿新宿パークタワー（４４階）"
  },
  "1631045": {
    "zipcode": "1631045",
    "prefectureCode": "13",
    "prefectureNumber": 13,
    "prefecture": "東京都",
    "city": "新宿区",
    "town": "西新宿新宿パークタワー（４５階）"
  },
  "1631046": {
    "zipcode": "1631046",
    "prefectureCode": "13",
    "prefectureNumber": 13,
    "prefecture": "東京都",
    "city": "新宿区",
    "town": "西新宿新宿パークタワー（４６階）"
  },
  "1631047": {
    "zipcode": "1631047",
    "prefectureCode": "13",
    "prefectureNumber": 13,
    "prefecture": "東京都",
    "city": "新宿区",
    "town": "西新宿新宿パークタワー（４７階）"
  },
  "1631048": {
    "zipcode": "1631048",
    "prefectureCode": "13",
    "prefectureNumber": 13,
    "prefecture": "東京都",
    "city": "新宿区",
    "town": "西新宿新宿パークタワー（４８階）"
  },
  "1631049": {
    "zipcode": "1631049",
    "prefectureCode": "13",
    "prefectureNumber": 13,
    "prefecture": "東京都",
    "city": "新宿区",
    "town": "西新宿新宿パークタワー（４９階）"
  },
  "1631050": {
    "zipcode": "1631050",
    "prefectureCode": "13",
    "prefectureNumber": 13,
    "prefecture": "東京都",
    "city": "新宿区",
    "town": "西新宿新宿パークタワー（５０階）"
  },
  "1631051": {
    "zipcode": "1631051",
    "prefectureCode": "13",
    "prefectureNumber": 13,
    "prefecture": "東京都",
    "city": "新宿区",
    "town": "西新宿新宿パークタワー（５１階）"
  },
  "1631052": {
    "zipcode": "1631052",
    "prefectureCode": "13",
    "prefectureNumber": 13,
    "prefecture": "東京都",
    "city": "新宿区",
    "town": "西新宿新宿パークタワー（５２階）"
  },
  "1631090": {
    "zipcode": "1631090",
    "prefectureCode": "13",
    "prefectureNumber": 13,
    "prefecture": "東京都",
    "city": "新宿区",
    "town": "西新宿新宿パークタワー（地階・階層不明）"
  },
  "1631101": {
    "zipcode": "1631101",
    "prefectureCode": "13",
    "prefectureNumber": 13,
    "prefecture": "東京都",
    "city": "新宿区",
    "town": "西新宿新宿スクエアタワー（１階）"
  },
  "1631102": {
    "zipcode": "1631102",
    "prefectureCode": "13",
    "prefectureNumber": 13,
    "prefecture": "東京都",
    "city": "新宿区",
    "town": "西新宿新宿スクエアタワー（２階）"
  },
  "1631103": {
    "zipcode": "1631103",
    "prefectureCode": "13",
    "prefectureNumber": 13,
    "prefecture": "東京都",
    "city": "新宿区",
    "town": "西新宿新宿スクエアタワー（３階）"
  },
  "1631104": {
    "zipcode": "1631104",
    "prefectureCode": "13",
    "prefectureNumber": 13,
    "prefecture": "東京都",
    "city": "新宿区",
    "town": "西新宿新宿スクエアタワー（４階）"
  },
  "1631105": {
    "zipcode": "1631105",
    "prefectureCode": "13",
    "prefectureNumber": 13,
    "prefecture": "東京都",
    "city": "新宿区",
    "town": "西新宿新宿スクエアタワー（５階）"
  },
  "1631106": {
    "zipcode": "1631106",
    "prefectureCode": "13",
    "prefectureNumber": 13,
    "prefecture": "東京都",
    "city": "新宿区",
    "town": "西新宿新宿スクエアタワー（６階）"
  },
  "1631107": {
    "zipcode": "1631107",
    "prefectureCode": "13",
    "prefectureNumber": 13,
    "prefecture": "東京都",
    "city": "新宿区",
    "town": "西新宿新宿スクエアタワー（７階）"
  },
  "1631108": {
    "zipcode": "1631108",
    "prefectureCode": "13",
    "prefectureNumber": 13,
    "prefecture": "東京都",
    "city": "新宿区",
    "town": "西新宿新宿スクエアタワー（８階）"
  },
  "1631109": {
    "zipcode": "1631109",
    "prefectureCode": "13",
    "prefectureNumber": 13,
    "prefecture": "東京都",
    "city": "新宿区",
    "town": "西新宿新宿スクエアタワー（９階）"
  },
  "1631110": {
    "zipcode": "1631110",
    "prefectureCode": "13",
    "prefectureNumber": 13,
    "prefecture": "東京都",
    "city": "新宿区",
    "town": "西新宿新宿スクエアタワー（１０階）"
  },
  "1631111": {
    "zipcode": "1631111",
    "prefectureCode": "13",
    "prefectureNumber": 13,
    "prefecture": "東京都",
    "city": "新宿区",
    "town": "西新宿新宿スクエアタワー（１１階）"
  },
  "1631112": {
    "zipcode": "1631112",
    "prefectureCode": "13",
    "prefectureNumber": 13,
    "prefecture": "東京都",
    "city": "新宿区",
    "town": "西新宿新宿スクエアタワー（１２階）"
  },
  "1631113": {
    "zipcode": "1631113",
    "prefectureCode": "13",
    "prefectureNumber": 13,
    "prefecture": "東京都",
    "city": "新宿区",
    "town": "西新宿新宿スクエアタワー（１３階）"
  },
  "1631114": {
    "zipcode": "1631114",
    "prefectureCode": "13",
    "prefectureNumber": 13,
    "prefecture": "東京都",
    "city": "新宿区",
    "town": "西新宿新宿スクエアタワー（１４階）"
  },
  "1631115": {
    "zipcode": "1631115",
    "prefectureCode": "13",
    "prefectureNumber": 13,
    "prefecture": "東京都",
    "city": "新宿区",
    "town": "西新宿新宿スクエアタワー（１５階）"
  },
  "1631116": {
    "zipcode": "1631116",
    "prefectureCode": "13",
    "prefectureNumber": 13,
    "prefecture": "東京都",
    "city": "新宿区",
    "town": "西新宿新宿スクエアタワー（１６階）"
  },
  "1631117": {
    "zipcode": "1631117",
    "prefectureCode": "13",
    "prefectureNumber": 13,
    "prefecture": "東京都",
    "city": "新宿区",
    "town": "西新宿新宿スクエアタワー（１７階）"
  },
  "1631118": {
    "zipcode": "1631118",
    "prefectureCode": "13",
    "prefectureNumber": 13,
    "prefecture": "東京都",
    "city": "新宿区",
    "town": "西新宿新宿スクエアタワー（１８階）"
  },
  "1631119": {
    "zipcode": "1631119",
    "prefectureCode": "13",
    "prefectureNumber": 13,
    "prefecture": "東京都",
    "city": "新宿区",
    "town": "西新宿新宿スクエアタワー（１９階）"
  },
  "1631120": {
    "zipcode": "1631120",
    "prefectureCode": "13",
    "prefectureNumber": 13,
    "prefecture": "東京都",
    "city": "新宿区",
    "town": "西新宿新宿スクエアタワー（２０階）"
  },
  "1631121": {
    "zipcode": "1631121",
    "prefectureCode": "13",
    "prefectureNumber": 13,
    "prefecture": "東京都",
    "city": "新宿区",
    "town": "西新宿新宿スクエアタワー（２１階）"
  },
  "1631122": {
    "zipcode": "1631122",
    "prefectureCode": "13",
    "prefectureNumber": 13,
    "prefecture": "東京都",
    "city": "新宿区",
    "town": "西新宿新宿スクエアタワー（２２階）"
  },
  "1631123": {
    "zipcode": "1631123",
    "prefectureCode": "13",
    "prefectureNumber": 13,
    "prefecture": "東京都",
    "city": "新宿区",
    "town": "西新宿新宿スクエアタワー（２３階）"
  },
  "1631124": {
    "zipcode": "1631124",
    "prefectureCode": "13",
    "prefectureNumber": 13,
    "prefecture": "東京都",
    "city": "新宿区",
    "town": "西新宿新宿スクエアタワー（２４階）"
  },
  "1631125": {
    "zipcode": "1631125",
    "prefectureCode": "13",
    "prefectureNumber": 13,
    "prefecture": "東京都",
    "city": "新宿区",
    "town": "西新宿新宿スクエアタワー（２５階）"
  },
  "1631126": {
    "zipcode": "1631126",
    "prefectureCode": "13",
    "prefectureNumber": 13,
    "prefecture": "東京都",
    "city": "新宿区",
    "town": "西新宿新宿スクエアタワー（２６階）"
  },
  "1631127": {
    "zipcode": "1631127",
    "prefectureCode": "13",
    "prefectureNumber": 13,
    "prefecture": "東京都",
    "city": "新宿区",
    "town": "西新宿新宿スクエアタワー（２７階）"
  },
  "1631128": {
    "zipcode": "1631128",
    "prefectureCode": "13",
    "prefectureNumber": 13,
    "prefecture": "東京都",
    "city": "新宿区",
    "town": "西新宿新宿スクエアタワー（２８階）"
  },
  "1631129": {
    "zipcode": "1631129",
    "prefectureCode": "13",
    "prefectureNumber": 13,
    "prefecture": "東京都",
    "city": "新宿区",
    "town": "西新宿新宿スクエアタワー（２９階）"
  },
  "1631130": {
    "zipcode": "1631130",
    "prefectureCode": "13",
    "prefectureNumber": 13,
    "prefecture": "東京都",
    "city": "新宿区",
    "town": "西新宿新宿スクエアタワー（３０階）"
  },
  "1631190": {
    "zipcode": "1631190",
    "prefectureCode": "13",
    "prefectureNumber": 13,
    "prefecture": "東京都",
    "city": "新宿区",
    "town": "西新宿新宿スクエアタワー（地階・階層不明）"
  },
  "1631301": {
    "zipcode": "1631301",
    "prefectureCode": "13",
    "prefectureNumber": 13,
    "prefecture": "東京都",
    "city": "新宿区",
    "town": "西新宿新宿アイランドタワー（１階）"
  },
  "1631302": {
    "zipcode": "1631302",
    "prefectureCode": "13",
    "prefectureNumber": 13,
    "prefecture": "東京都",
    "city": "新宿区",
    "town": "西新宿新宿アイランドタワー（２階）"
  },
  "1631303": {
    "zipcode": "1631303",
    "prefectureCode": "13",
    "prefectureNumber": 13,
    "prefecture": "東京都",
    "city": "新宿区",
    "town": "西新宿新宿アイランドタワー（３階）"
  },
  "1631304": {
    "zipcode": "1631304",
    "prefectureCode": "13",
    "prefectureNumber": 13,
    "prefecture": "東京都",
    "city": "新宿区",
    "town": "西新宿新宿アイランドタワー（４階）"
  },
  "1631305": {
    "zipcode": "1631305",
    "prefectureCode": "13",
    "prefectureNumber": 13,
    "prefecture": "東京都",
    "city": "新宿区",
    "town": "西新宿新宿アイランドタワー（５階）"
  },
  "1631306": {
    "zipcode": "1631306",
    "prefectureCode": "13",
    "prefectureNumber": 13,
    "prefecture": "東京都",
    "city": "新宿区",
    "town": "西新宿新宿アイランドタワー（６階）"
  },
  "1631307": {
    "zipcode": "1631307",
    "prefectureCode": "13",
    "prefectureNumber": 13,
    "prefecture": "東京都",
    "city": "新宿区",
    "town": "西新宿新宿アイランドタワー（７階）"
  },
  "1631308": {
    "zipcode": "1631308",
    "prefectureCode": "13",
    "prefectureNumber": 13,
    "prefecture": "東京都",
    "city": "新宿区",
    "town": "西新宿新宿アイランドタワー（８階）"
  },
  "1631309": {
    "zipcode": "1631309",
    "prefectureCode": "13",
    "prefectureNumber": 13,
    "prefecture": "東京都",
    "city": "新宿区",
    "town": "西新宿新宿アイランドタワー（９階）"
  },
  "1631310": {
    "zipcode": "1631310",
    "prefectureCode": "13",
    "prefectureNumber": 13,
    "prefecture": "東京都",
    "city": "新宿区",
    "town": "西新宿新宿アイランドタワー（１０階）"
  },
  "1631311": {
    "zipcode": "1631311",
    "prefectureCode": "13",
    "prefectureNumber": 13,
    "prefecture": "東京都",
    "city": "新宿区",
    "town": "西新宿新宿アイランドタワー（１１階）"
  },
  "1631312": {
    "zipcode": "1631312",
    "prefectureCode": "13",
    "prefectureNumber": 13,
    "prefecture": "東京都",
    "city": "新宿区",
    "town": "西新宿新宿アイランドタワー（１２階）"
  },
  "1631313": {
    "zipcode": "1631313",
    "prefectureCode": "13",
    "prefectureNumber": 13,
    "prefecture": "東京都",
    "city": "新宿区",
    "town": "西新宿新宿アイランドタワー（１３階）"
  },
  "1631314": {
    "zipcode": "1631314",
    "prefectureCode": "13",
    "prefectureNumber": 13,
    "prefecture": "東京都",
    "city": "新宿区",
    "town": "西新宿新宿アイランドタワー（１４階）"
  },
  "1631315": {
    "zipcode": "1631315",
    "prefectureCode": "13",
    "prefectureNumber": 13,
    "prefecture": "東京都",
    "city": "新宿区",
    "town": "西新宿新宿アイランドタワー（１５階）"
  },
  "1631316": {
    "zipcode": "1631316",
    "prefectureCode": "13",
    "prefectureNumber": 13,
    "prefecture": "東京都",
    "city": "新宿区",
    "town": "西新宿新宿アイランドタワー（１６階）"
  },
  "1631317": {
    "zipcode": "1631317",
    "prefectureCode": "13",
    "prefectureNumber": 13,
    "prefecture": "東京都",
    "city": "新宿区",
    "town": "西新宿新宿アイランドタワー（１７階）"
  },
  "1631318": {
    "zipcode": "1631318",
    "prefectureCode": "13",
    "prefectureNumber": 13,
    "prefecture": "東京都",
    "city": "新宿区",
    "town": "西新宿新宿アイランドタワー（１８階）"
  },
  "1631319": {
    "zipcode": "1631319",
    "prefectureCode": "13",
    "prefectureNumber": 13,
    "prefecture": "東京都",
    "city": "新宿区",
    "town": "西新宿新宿アイランドタワー（１９階）"
  },
  "1631320": {
    "zipcode": "1631320",
    "prefectureCode": "13",
    "prefectureNumber": 13,
    "prefecture": "東京都",
    "city": "新宿区",
    "town": "西新宿新宿アイランドタワー（２０階）"
  },
  "1631321": {
    "zipcode": "1631321",
    "prefectureCode": "13",
    "prefectureNumber": 13,
    "prefecture": "東京都",
    "city": "新宿区",
    "town": "西新宿新宿アイランドタワー（２１階）"
  },
  "1631322": {
    "zipcode": "1631322",
    "prefectureCode": "13",
    "prefectureNumber": 13,
    "prefecture": "東京都",
    "city": "新宿区",
    "town": "西新宿新宿アイランドタワー（２２階）"
  },
  "1631323": {
    "zipcode": "1631323",
    "prefectureCode": "13",
    "prefectureNumber": 13,
    "prefecture": "東京都",
    "city": "新宿区",
    "town": "西新宿新宿アイランドタワー（２３階）"
  },
  "1631324": {
    "zipcode": "1631324",
    "prefectureCode": "13",
    "prefectureNumber": 13,
    "prefecture": "東京都",
    "city": "新宿区",
    "town": "西新宿新宿アイランドタワー（２４階）"
  },
  "1631325": {
    "zipcode": "1631325",
    "prefectureCode": "13",
    "prefectureNumber": 13,
    "prefecture": "東京都",
    "city": "新宿区",
    "town": "西新宿新宿アイランドタワー（２５階）"
  },
  "1631326": {
    "zipcode": "1631326",
    "prefectureCode": "13",
    "prefectureNumber": 13,
    "prefecture": "東京都",
    "city": "新宿区",
    "town": "西新宿新宿アイランドタワー（２６階）"
  },
  "1631327": {
    "zipcode": "1631327",
    "prefectureCode": "13",
    "prefectureNumber": 13,
    "prefecture": "東京都",
    "city": "新宿区",
    "town": "西新宿新宿アイランドタワー（２７階）"
  },
  "1631328": {
    "zipcode": "1631328",
    "prefectureCode": "13",
    "prefectureNumber": 13,
    "prefecture": "東京都",
    "city": "新宿区",
    "town": "西新宿新宿アイランドタワー（２８階）"
  },
  "1631329": {
    "zipcode": "1631329",
    "prefectureCode": "13",
    "prefectureNumber": 13,
    "prefecture": "東京都",
    "city": "新宿区",
    "town": "西新宿新宿アイランドタワー（２９階）"
  },
  "1631330": {
    "zipcode": "1631330",
    "prefectureCode": "13",
    "prefectureNumber": 13,
    "prefecture": "東京都",
    "city": "新宿区",
    "town": "西新宿新宿アイランドタワー（３０階）"
  },
  "1631331": {
    "zipcode": "1631331",
    "prefectureCode": "13",
    "prefectureNumber": 13,
    "prefecture": "東京都",
    "city": "新宿区",
    "town": "西新宿新宿アイランドタワー（３１階）"
  },
  "1631332": {
    "zipcode": "1631332",
    "prefectureCode": "13",
    "prefectureNumber": 13,
    "prefecture": "東京都",
    "city": "新宿区",
    "town": "西新宿新宿アイランドタワー（３２階）"
  },
  "1631333": {
    "zipcode": "1631333",
    "prefectureCode": "13",
    "prefectureNumber": 13,
    "prefecture": "東京都",
    "city": "新宿区",
    "town": "西新宿新宿アイランドタワー（３３階）"
  },
  "1631334": {
    "zipcode": "1631334",
    "prefectureCode": "13",
    "prefectureNumber": 13,
    "prefecture": "東京都",
    "city": "新宿区",
    "town": "西新宿新宿アイランドタワー（３４階）"
  },
  "1631335": {
    "zipcode": "1631335",
    "prefectureCode": "13",
    "prefectureNumber": 13,
    "prefecture": "東京都",
    "city": "新宿区",
    "town": "西新宿新宿アイランドタワー（３５階）"
  },
  "1631336": {
    "zipcode": "1631336",
    "prefectureCode": "13",
    "prefectureNumber": 13,
    "prefecture": "東京都",
    "city": "新宿区",
    "town": "西新宿新宿アイランドタワー（３６階）"
  },
  "1631337": {
    "zipcode": "1631337",
    "prefectureCode": "13",
    "prefectureNumber": 13,
    "prefecture": "東京都",
    "city": "新宿区",
    "town": "西新宿新宿アイランドタワー（３７階）"
  },
  "1631338": {
    "zipcode": "1631338",
    "prefectureCode": "13",
    "prefectureNumber": 13,
    "prefecture": "東京都",
    "city": "新宿区",
    "town": "西新宿新宿アイランドタワー（３８階）"
  },
  "1631339": {
    "zipcode": "1631339",
    "prefectureCode": "13",
    "prefectureNumber": 13,
    "prefecture": "東京都",
    "city": "新宿区",
    "town": "西新宿新宿アイランドタワー（３９階）"
  },
  "1631340": {
    "zipcode": "1631340",
    "prefectureCode": "13",
    "prefectureNumber": 13,
    "prefecture": "東京都",
    "city": "新宿区",
    "town": "西新宿新宿アイランドタワー（４０階）"
  },
  "1631341": {
    "zipcode": "1631341",
    "prefectureCode": "13",
    "prefectureNumber": 13,
    "prefecture": "東京都",
    "city": "新宿区",
    "town": "西新宿新宿アイランドタワー（４１階）"
  },
  "1631342": {
    "zipcode": "1631342",
    "prefectureCode": "13",
    "prefectureNumber": 13,
    "prefecture": "東京都",
    "city": "新宿区",
    "town": "西新宿新宿アイランドタワー（４２階）"
  },
  "1631343": {
    "zipcode": "1631343",
    "prefectureCode": "13",
    "prefectureNumber": 13,
    "prefecture": "東京都",
    "city": "新宿区",
    "town": "西新宿新宿アイランドタワー（４３階）"
  },
  "1631344": {
    "zipcode": "1631344",
    "prefectureCode": "13",
    "prefectureNumber": 13,
    "prefecture": "東京都",
    "city": "新宿区",
    "town": "西新宿新宿アイランドタワー（４４階）"
  },
  "1631390": {
    "zipcode": "1631390",
    "prefectureCode": "13",
    "prefectureNumber": 13,
    "prefecture": "東京都",
    "city": "新宿区",
    "town": "西新宿新宿アイランドタワー（地階・階層不明）"
  },
  "1631401": {
    "zipcode": "1631401",
    "prefectureCode": "13",
    "prefectureNumber": 13,
    "prefecture": "東京都",
    "city": "新宿区",
    "town": "西新宿東京オペラシティ（１階）"
  },
  "1631402": {
    "zipcode": "1631402",
    "prefectureCode": "13",
    "prefectureNumber": 13,
    "prefecture": "東京都",
    "city": "新宿区",
    "town": "西新宿東京オペラシティ（２階）"
  },
  "1631403": {
    "zipcode": "1631403",
    "prefectureCode": "13",
    "prefectureNumber": 13,
    "prefecture": "東京都",
    "city": "新宿区",
    "town": "西新宿東京オペラシティ（３階）"
  },
  "1631404": {
    "zipcode": "1631404",
    "prefectureCode": "13",
    "prefectureNumber": 13,
    "prefecture": "東京都",
    "city": "新宿区",
    "town": "西新宿東京オペラシティ（４階）"
  },
  "1631405": {
    "zipcode": "1631405",
    "prefectureCode": "13",
    "prefectureNumber": 13,
    "prefecture": "東京都",
    "city": "新宿区",
    "town": "西新宿東京オペラシティ（５階）"
  },
  "1631406": {
    "zipcode": "1631406",
    "prefectureCode": "13",
    "prefectureNumber": 13,
    "prefecture": "東京都",
    "city": "新宿区",
    "town": "西新宿東京オペラシティ（６階）"
  },
  "1631407": {
    "zipcode": "1631407",
    "prefectureCode": "13",
    "prefectureNumber": 13,
    "prefecture": "東京都",
    "city": "新宿区",
    "town": "西新宿東京オペラシティ（７階）"
  },
  "1631408": {
    "zipcode": "1631408",
    "prefectureCode": "13",
    "prefectureNumber": 13,
    "prefecture": "東京都",
    "city": "新宿区",
    "town": "西新宿東京オペラシティ（８階）"
  },
  "1631409": {
    "zipcode": "1631409",
    "prefectureCode": "13",
    "prefectureNumber": 13,
    "prefecture": "東京都",
    "city": "新宿区",
    "town": "西新宿東京オペラシティ（９階）"
  },
  "1631410": {
    "zipcode": "1631410",
    "prefectureCode": "13",
    "prefectureNumber": 13,
    "prefecture": "東京都",
    "city": "新宿区",
    "town": "西新宿東京オペラシティ（１０階）"
  },
  "1631411": {
    "zipcode": "1631411",
    "prefectureCode": "13",
    "prefectureNumber": 13,
    "prefecture": "東京都",
    "city": "新宿区",
    "town": "西新宿東京オペラシティ（１１階）"
  },
  "1631412": {
    "zipcode": "1631412",
    "prefectureCode": "13",
    "prefectureNumber": 13,
    "prefecture": "東京都",
    "city": "新宿区",
    "town": "西新宿東京オペラシティ（１２階）"
  },
  "1631413": {
    "zipcode": "1631413",
    "prefectureCode": "13",
    "prefectureNumber": 13,
    "prefecture": "東京都",
    "city": "新宿区",
    "town": "西新宿東京オペラシティ（１３階）"
  },
  "1631414": {
    "zipcode": "1631414",
    "prefectureCode": "13",
    "prefectureNumber": 13,
    "prefecture": "東京都",
    "city": "新宿区",
    "town": "西新宿東京オペラシティ（１４階）"
  },
  "1631415": {
    "zipcode": "1631415",
    "prefectureCode": "13",
    "prefectureNumber": 13,
    "prefecture": "東京都",
    "city": "新宿区",
    "town": "西新宿東京オペラシティ（１５階）"
  },
  "1631416": {
    "zipcode": "1631416",
    "prefectureCode": "13",
    "prefectureNumber": 13,
    "prefecture": "東京都",
    "city": "新宿区",
    "town": "西新宿東京オペラシティ（１６階）"
  },
  "1631417": {
    "zipcode": "1631417",
    "prefectureCode": "13",
    "prefectureNumber": 13,
    "prefecture": "東京都",
    "city": "新宿区",
    "town": "西新宿東京オペラシティ（１７階）"
  },
  "1631418": {
    "zipcode": "1631418",
    "prefectureCode": "13",
    "prefectureNumber": 13,
    "prefecture": "東京都",
    "city": "新宿区",
    "town": "西新宿東京オペラシティ（１８階）"
  },
  "1631419": {
    "zipcode": "1631419",
    "prefectureCode": "13",
    "prefectureNumber": 13,
    "prefecture": "東京都",
    "city": "新宿区",
    "town": "西新宿東京オペラシティ（１９階）"
  },
  "1631420": {
    "zipcode": "1631420",
    "prefectureCode": "13",
    "prefectureNumber": 13,
    "prefecture": "東京都",
    "city": "新宿区",
    "town": "西新宿東京オペラシティ（２０階）"
  },
  "1631421": {
    "zipcode": "1631421",
    "prefectureCode": "13",
    "prefectureNumber": 13,
    "prefecture": "東京都",
    "city": "新宿区",
    "town": "西新宿東京オペラシティ（２１階）"
  },
  "1631422": {
    "zipcode": "1631422",
    "prefectureCode": "13",
    "prefectureNumber": 13,
    "prefecture": "東京都",
    "city": "新宿区",
    "town": "西新宿東京オペラシティ（２２階）"
  },
  "1631423": {
    "zipcode": "1631423",
    "prefectureCode": "13",
    "prefectureNumber": 13,
    "prefecture": "東京都",
    "city": "新宿区",
    "town": "西新宿東京オペラシティ（２３階）"
  },
  "1631424": {
    "zipcode": "1631424",
    "prefectureCode": "13",
    "prefectureNumber": 13,
    "prefecture": "東京都",
    "city": "新宿区",
    "town": "西新宿東京オペラシティ（２４階）"
  },
  "1631425": {
    "zipcode": "1631425",
    "prefectureCode": "13",
    "prefectureNumber": 13,
    "prefecture": "東京都",
    "city": "新宿区",
    "town": "西新宿東京オペラシティ（２５階）"
  },
  "1631426": {
    "zipcode": "1631426",
    "prefectureCode": "13",
    "prefectureNumber": 13,
    "prefecture": "東京都",
    "city": "新宿区",
    "town": "西新宿東京オペラシティ（２６階）"
  },
  "1631427": {
    "zipcode": "1631427",
    "prefectureCode": "13",
    "prefectureNumber": 13,
    "prefecture": "東京都",
    "city": "新宿区",
    "town": "西新宿東京オペラシティ（２７階）"
  },
  "1631428": {
    "zipcode": "1631428",
    "prefectureCode": "13",
    "prefectureNumber": 13,
    "prefecture": "東京都",
    "city": "新宿区",
    "town": "西新宿東京オペラシティ（２８階）"
  },
  "1631429": {
    "zipcode": "1631429",
    "prefectureCode": "13",
    "prefectureNumber": 13,
    "prefecture": "東京都",
    "city": "新宿区",
    "town": "西新宿東京オペラシティ（２９階）"
  },
  "1631430": {
    "zipcode": "1631430",
    "prefectureCode": "13",
    "prefectureNumber": 13,
    "prefecture": "東京都",
    "city": "新宿区",
    "town": "西新宿東京オペラシティ（３０階）"
  },
  "1631431": {
    "zipcode": "1631431",
    "prefectureCode": "13",
    "prefectureNumber": 13,
    "prefecture": "東京都",
    "city": "新宿区",
    "town": "西新宿東京オペラシティ（３１階）"
  },
  "1631432": {
    "zipcode": "1631432",
    "prefectureCode": "13",
    "prefectureNumber": 13,
    "prefecture": "東京都",
    "city": "新宿区",
    "town": "西新宿東京オペラシティ（３２階）"
  },
  "1631433": {
    "zipcode": "1631433",
    "prefectureCode": "13",
    "prefectureNumber": 13,
    "prefecture": "東京都",
    "city": "新宿区",
    "town": "西新宿東京オペラシティ（３３階）"
  },
  "1631434": {
    "zipcode": "1631434",
    "prefectureCode": "13",
    "prefectureNumber": 13,
    "prefecture": "東京都",
    "city": "新宿区",
    "town": "西新宿東京オペラシティ（３４階）"
  },
  "1631435": {
    "zipcode": "1631435",
    "prefectureCode": "13",
    "prefectureNumber": 13,
    "prefecture": "東京都",
    "city": "新宿区",
    "town": "西新宿東京オペラシティ（３５階）"
  },
  "1631436": {
    "zipcode": "1631436",
    "prefectureCode": "13",
    "prefectureNumber": 13,
    "prefecture": "東京都",
    "city": "新宿区",
    "town": "西新宿東京オペラシティ（３６階）"
  },
  "1631437": {
    "zipcode": "1631437",
    "prefectureCode": "13",
    "prefectureNumber": 13,
    "prefecture": "東京都",
    "city": "新宿区",
    "town": "西新宿東京オペラシティ（３７階）"
  },
  "1631438": {
    "zipcode": "1631438",
    "prefectureCode": "13",
    "prefectureNumber": 13,
    "prefecture": "東京都",
    "city": "新宿区",
    "town": "西新宿東京オペラシティ（３８階）"
  },
  "1631439": {
    "zipcode": "1631439",
    "prefectureCode": "13",
    "prefectureNumber": 13,
    "prefecture": "東京都",
    "city": "新宿区",
    "town": "西新宿東京オペラシティ（３９階）"
  },
  "1631440": {
    "zipcode": "1631440",
    "prefectureCode": "13",
    "prefectureNumber": 13,
    "prefecture": "東京都",
    "city": "新宿区",
    "town": "西新宿東京オペラシティ（４０階）"
  },
  "1631441": {
    "zipcode": "1631441",
    "prefectureCode": "13",
    "prefectureNumber": 13,
    "prefecture": "東京都",
    "city": "新宿区",
    "town": "西新宿東京オペラシティ（４１階）"
  },
  "1631442": {
    "zipcode": "1631442",
    "prefectureCode": "13",
    "prefectureNumber": 13,
    "prefecture": "東京都",
    "city": "新宿区",
    "town": "西新宿東京オペラシティ（４２階）"
  },
  "1631443": {
    "zipcode": "1631443",
    "prefectureCode": "13",
    "prefectureNumber": 13,
    "prefecture": "東京都",
    "city": "新宿区",
    "town": "西新宿東京オペラシティ（４３階）"
  },
  "1631444": {
    "zipcode": "1631444",
    "prefectureCode": "13",
    "prefectureNumber": 13,
    "prefecture": "東京都",
    "city": "新宿区",
    "town": "西新宿東京オペラシティ（４４階）"
  },
  "1631445": {
    "zipcode": "1631445",
    "prefectureCode": "13",
    "prefectureNumber": 13,
    "prefecture": "東京都",
    "city": "新宿区",
    "town": "西新宿東京オペラシティ（４５階）"
  },
  "1631446": {
    "zipcode": "1631446",
    "prefectureCode": "13",
    "prefectureNumber": 13,
    "prefecture": "東京都",
    "city": "新宿区",
    "town": "西新宿東京オペラシティ（４６階）"
  },
  "1631447": {
    "zipcode": "1631447",
    "prefectureCode": "13",
    "prefectureNumber": 13,
    "prefecture": "東京都",
    "city": "新宿区",
    "town": "西新宿東京オペラシティ（４７階）"
  },
  "1631448": {
    "zipcode": "1631448",
    "prefectureCode": "13",
    "prefectureNumber": 13,
    "prefecture": "東京都",
    "city": "新宿区",
    "town": "西新宿東京オペラシティ（４８階）"
  },
  "1631449": {
    "zipcode": "1631449",
    "prefectureCode": "13",
    "prefectureNumber": 13,
    "prefecture": "東京都",
    "city": "新宿区",
    "town": "西新宿東京オペラシティ（４９階）"
  },
  "1631450": {
    "zipcode": "1631450",
    "prefectureCode": "13",
    "prefectureNumber": 13,
    "prefecture": "東京都",
    "city": "新宿区",
    "town": "西新宿東京オペラシティ（５０階）"
  },
  "1631451": {
    "zipcode": "1631451",
    "prefectureCode": "13",
    "prefectureNumber": 13,
    "prefecture": "東京都",
    "city": "新宿区",
    "town": "西新宿東京オペラシティ（５１階）"
  },
  "1631452": {
    "zipcode": "1631452",
    "prefectureCode": "13",
    "prefectureNumber": 13,
    "prefecture": "東京都",
    "city": "新宿区",
    "town": "西新宿東京オペラシティ（５２階）"
  },
  "1631453": {
    "zipcode": "1631453",
    "prefectureCode": "13",
    "prefectureNumber": 13,
    "prefecture": "東京都",
    "city": "新宿区",
    "town": "西新宿東京オペラシティ（５３階）"
  },
  "1631454": {
    "zipcode": "1631454",
    "prefectureCode": "13",
    "prefectureNumber": 13,
    "prefecture": "東京都",
    "city": "新宿区",
    "town": "西新宿東京オペラシティ（５４階）"
  },
  "1631490": {
    "zipcode": "1631490",
    "prefectureCode": "13",
    "prefectureNumber": 13,
    "prefecture": "東京都",
    "city": "新宿区",
    "town": "西新宿東京オペラシティ（地階・階層不明）"
  },
  "1631501": {
    "zipcode": "1631501",
    "prefectureCode": "13",
    "prefectureNumber": 13,
    "prefecture": "東京都",
    "city": "新宿区",
    "town": "西新宿新宿エルタワー（１階）"
  },
  "1631502": {
    "zipcode": "1631502",
    "prefectureCode": "13",
    "prefectureNumber": 13,
    "prefecture": "東京都",
    "city": "新宿区",
    "town": "西新宿新宿エルタワー（２階）"
  },
  "1631503": {
    "zipcode": "1631503",
    "prefectureCode": "13",
    "prefectureNumber": 13,
    "prefecture": "東京都",
    "city": "新宿区",
    "town": "西新宿新宿エルタワー（３階）"
  },
  "1631504": {
    "zipcode": "1631504",
    "prefectureCode": "13",
    "prefectureNumber": 13,
    "prefecture": "東京都",
    "city": "新宿区",
    "town": "西新宿新宿エルタワー（４階）"
  },
  "1631505": {
    "zipcode": "1631505",
    "prefectureCode": "13",
    "prefectureNumber": 13,
    "prefecture": "東京都",
    "city": "新宿区",
    "town": "西新宿新宿エルタワー（５階）"
  },
  "1631506": {
    "zipcode": "1631506",
    "prefectureCode": "13",
    "prefectureNumber": 13,
    "prefecture": "東京都",
    "city": "新宿区",
    "town": "西新宿新宿エルタワー（６階）"
  },
  "1631507": {
    "zipcode": "1631507",
    "prefectureCode": "13",
    "prefectureNumber": 13,
    "prefecture": "東京都",
    "city": "新宿区",
    "town": "西新宿新宿エルタワー（７階）"
  },
  "1631508": {
    "zipcode": "1631508",
    "prefectureCode": "13",
    "prefectureNumber": 13,
    "prefecture": "東京都",
    "city": "新宿区",
    "town": "西新宿新宿エルタワー（８階）"
  },
  "1631509": {
    "zipcode": "1631509",
    "prefectureCode": "13",
    "prefectureNumber": 13,
    "prefecture": "東京都",
    "city": "新宿区",
    "town": "西新宿新宿エルタワー（９階）"
  },
  "1631510": {
    "zipcode": "1631510",
    "prefectureCode": "13",
    "prefectureNumber": 13,
    "prefecture": "東京都",
    "city": "新宿区",
    "town": "西新宿新宿エルタワー（１０階）"
  },
  "1631511": {
    "zipcode": "1631511",
    "prefectureCode": "13",
    "prefectureNumber": 13,
    "prefecture": "東京都",
    "city": "新宿区",
    "town": "西新宿新宿エルタワー（１１階）"
  },
  "1631512": {
    "zipcode": "1631512",
    "prefectureCode": "13",
    "prefectureNumber": 13,
    "prefecture": "東京都",
    "city": "新宿区",
    "town": "西新宿新宿エルタワー（１２階）"
  },
  "1631513": {
    "zipcode": "1631513",
    "prefectureCode": "13",
    "prefectureNumber": 13,
    "prefecture": "東京都",
    "city": "新宿区",
    "town": "西新宿新宿エルタワー（１３階）"
  },
  "1631514": {
    "zipcode": "1631514",
    "prefectureCode": "13",
    "prefectureNumber": 13,
    "prefecture": "東京都",
    "city": "新宿区",
    "town": "西新宿新宿エルタワー（１４階）"
  },
  "1631515": {
    "zipcode": "1631515",
    "prefectureCode": "13",
    "prefectureNumber": 13,
    "prefecture": "東京都",
    "city": "新宿区",
    "town": "西新宿新宿エルタワー（１５階）"
  },
  "1631516": {
    "zipcode": "1631516",
    "prefectureCode": "13",
    "prefectureNumber": 13,
    "prefecture": "東京都",
    "city": "新宿区",
    "town": "西新宿新宿エルタワー（１６階）"
  },
  "1631517": {
    "zipcode": "1631517",
    "prefectureCode": "13",
    "prefectureNumber": 13,
    "prefecture": "東京都",
    "city": "新宿区",
    "town": "西新宿新宿エルタワー（１７階）"
  },
  "1631518": {
    "zipcode": "1631518",
    "prefectureCode": "13",
    "prefectureNumber": 13,
    "prefecture": "東京都",
    "city": "新宿区",
    "town": "西新宿新宿エルタワー（１８階）"
  },
  "1631519": {
    "zipcode": "1631519",
    "prefectureCode": "13",
    "prefectureNumber": 13,
    "prefecture": "東京都",
    "city": "新宿区",
    "town": "西新宿新宿エルタワー（１９階）"
  },
  "1631520": {
    "zipcode": "1631520",
    "prefectureCode": "13",
    "prefectureNumber": 13,
    "prefecture": "東京都",
    "city": "新宿区",
    "town": "西新宿新宿エルタワー（２０階）"
  },
  "1631521": {
    "zipcode": "1631521",
    "prefectureCode": "13",
    "prefectureNumber": 13,
    "prefecture": "東京都",
    "city": "新宿区",
    "town": "西新宿新宿エルタワー（２１階）"
  },
  "1631522": {
    "zipcode": "1631522",
    "prefectureCode": "13",
    "prefectureNumber": 13,
    "prefecture": "東京都",
    "city": "新宿区",
    "town": "西新宿新宿エルタワー（２２階）"
  },
  "1631523": {
    "zipcode": "1631523",
    "prefectureCode": "13",
    "prefectureNumber": 13,
    "prefecture": "東京都",
    "city": "新宿区",
    "town": "西新宿新宿エルタワー（２３階）"
  },
  "1631524": {
    "zipcode": "1631524",
    "prefectureCode": "13",
    "prefectureNumber": 13,
    "prefecture": "東京都",
    "city": "新宿区",
    "town": "西新宿新宿エルタワー（２４階）"
  },
  "1631525": {
    "zipcode": "1631525",
    "prefectureCode": "13",
    "prefectureNumber": 13,
    "prefecture": "東京都",
    "city": "新宿区",
    "town": "西新宿新宿エルタワー（２５階）"
  },
  "1631526": {
    "zipcode": "1631526",
    "prefectureCode": "13",
    "prefectureNumber": 13,
    "prefecture": "東京都",
    "city": "新宿区",
    "town": "西新宿新宿エルタワー（２６階）"
  },
  "1631527": {
    "zipcode": "1631527",
    "prefectureCode": "13",
    "prefectureNumber": 13,
    "prefecture": "東京都",
    "city": "新宿区",
    "town": "西新宿新宿エルタワー（２７階）"
  },
  "1631528": {
    "zipcode": "1631528",
    "prefectureCode": "13",
    "prefectureNumber": 13,
    "prefecture": "東京都",
    "city": "新宿区",
    "town": "西新宿新宿エルタワー（２８階）"
  },
  "1631529": {
    "zipcode": "1631529",
    "prefectureCode": "13",
    "prefectureNumber": 13,
    "prefecture": "東京都",
    "city": "新宿区",
    "town": "西新宿新宿エルタワー（２９階）"
  },
  "1631530": {
    "zipcode": "1631530",
    "prefectureCode": "13",
    "prefectureNumber": 13,
    "prefecture": "東京都",
    "city": "新宿区",
    "town": "西新宿新宿エルタワー（３０階）"
  },
  "1631531": {
    "zipcode": "1631531",
    "prefectureCode": "13",
    "prefectureNumber": 13,
    "prefecture": "東京都",
    "city": "新宿区",
    "town": "西新宿新宿エルタワー（３１階）"
  },
  "1631590": {
    "zipcode": "1631590",
    "prefectureCode": "13",
    "prefectureNumber": 13,
    "prefecture": "東京都",
    "city": "新宿区",
    "town": "西新宿新宿エルタワー（地階・階層不明）"
  },
  "1636001": {
    "zipcode": "1636001",
    "prefectureCode": "13",
    "prefectureNumber": 13,
    "prefecture": "東京都",
    "city": "新宿区",
    "town": "西新宿住友不動産新宿オークタワー（１階）"
  },
  "1636002": {
    "zipcode": "1636002",
    "prefectureCode": "13",
    "prefectureNumber": 13,
    "prefecture": "東京都",
    "city": "新宿区",
    "town": "西新宿住友不動産新宿オークタワー（２階）"
  },
  "1636003": {
    "zipcode": "1636003",
    "prefectureCode": "13",
    "prefectureNumber": 13,
    "prefecture": "東京都",
    "city": "新宿区",
    "town": "西新宿住友不動産新宿オークタワー（３階）"
  },
  "1636004": {
    "zipcode": "1636004",
    "prefectureCode": "13",
    "prefectureNumber": 13,
    "prefecture": "東京都",
    "city": "新宿区",
    "town": "西新宿住友不動産新宿オークタワー（４階）"
  },
  "1636005": {
    "zipcode": "1636005",
    "prefectureCode": "13",
    "prefectureNumber": 13,
    "prefecture": "東京都",
    "city": "新宿区",
    "town": "西新宿住友不動産新宿オークタワー（５階）"
  },
  "1636006": {
    "zipcode": "1636006",
    "prefectureCode": "13",
    "prefectureNumber": 13,
    "prefecture": "東京都",
    "city": "新宿区",
    "town": "西新宿住友不動産新宿オークタワー（６階）"
  },
  "1636007": {
    "zipcode": "1636007",
    "prefectureCode": "13",
    "prefectureNumber": 13,
    "prefecture": "東京都",
    "city": "新宿区",
    "town": "西新宿住友不動産新宿オークタワー（７階）"
  },
  "1636008": {
    "zipcode": "1636008",
    "prefectureCode": "13",
    "prefectureNumber": 13,
    "prefecture": "東京都",
    "city": "新宿区",
    "town": "西新宿住友不動産新宿オークタワー（８階）"
  },
  "1636009": {
    "zipcode": "1636009",
    "prefectureCode": "13",
    "prefectureNumber": 13,
    "prefecture": "東京都",
    "city": "新宿区",
    "town": "西新宿住友不動産新宿オークタワー（９階）"
  },
  "1636010": {
    "zipcode": "1636010",
    "prefectureCode": "13",
    "prefectureNumber": 13,
    "prefecture": "東京都",
    "city": "新宿区",
    "town": "西新宿住友不動産新宿オークタワー（１０階）"
  },
  "1636011": {
    "zipcode": "1636011",
    "prefectureCode": "13",
    "prefectureNumber": 13,
    "prefecture": "東京都",
    "city": "新宿区",
    "town": "西新宿住友不動産新宿オークタワー（１１階）"
  },
  "1636012": {
    "zipcode": "1636012",
    "prefectureCode": "13",
    "prefectureNumber": 13,
    "prefecture": "東京都",
    "city": "新宿区",
    "town": "西新宿住友不動産新宿オークタワー（１２階）"
  },
  "1636013": {
    "zipcode": "1636013",
    "prefectureCode": "13",
    "prefectureNumber": 13,
    "prefecture": "東京都",
    "city": "新宿区",
    "town": "西新宿住友不動産新宿オークタワー（１３階）"
  },
  "1636014": {
    "zipcode": "1636014",
    "prefectureCode": "13",
    "prefectureNumber": 13,
    "prefecture": "東京都",
    "city": "新宿区",
    "town": "西新宿住友不動産新宿オークタワー（１４階）"
  },
  "1636015": {
    "zipcode": "1636015",
    "prefectureCode": "13",
    "prefectureNumber": 13,
    "prefecture": "東京都",
    "city": "新宿区",
    "town": "西新宿住友不動産新宿オークタワー（１５階）"
  },
  "1636016": {
    "zipcode": "1636016",
    "prefectureCode": "13",
    "prefectureNumber": 13,
    "prefecture": "東京都",
    "city": "新宿区",
    "town": "西新宿住友不動産新宿オークタワー（１６階）"
  },
  "1636017": {
    "zipcode": "1636017",
    "prefectureCode": "13",
    "prefectureNumber": 13,
    "prefecture": "東京都",
    "city": "新宿区",
    "town": "西新宿住友不動産新宿オークタワー（１７階）"
  },
  "1636018": {
    "zipcode": "1636018",
    "prefectureCode": "13",
    "prefectureNumber": 13,
    "prefecture": "東京都",
    "city": "新宿区",
    "town": "西新宿住友不動産新宿オークタワー（１８階）"
  },
  "1636019": {
    "zipcode": "1636019",
    "prefectureCode": "13",
    "prefectureNumber": 13,
    "prefecture": "東京都",
    "city": "新宿区",
    "town": "西新宿住友不動産新宿オークタワー（１９階）"
  },
  "1636020": {
    "zipcode": "1636020",
    "prefectureCode": "13",
    "prefectureNumber": 13,
    "prefecture": "東京都",
    "city": "新宿区",
    "town": "西新宿住友不動産新宿オークタワー（２０階）"
  },
  "1636021": {
    "zipcode": "1636021",
    "prefectureCode": "13",
    "prefectureNumber": 13,
    "prefecture": "東京都",
    "city": "新宿区",
    "town": "西新宿住友不動産新宿オークタワー（２１階）"
  },
  "1636022": {
    "zipcode": "1636022",
    "prefectureCode": "13",
    "prefectureNumber": 13,
    "prefecture": "東京都",
    "city": "新宿区",
    "town": "西新宿住友不動産新宿オークタワー（２２階）"
  },
  "1636023": {
    "zipcode": "1636023",
    "prefectureCode": "13",
    "prefectureNumber": 13,
    "prefecture": "東京都",
    "city": "新宿区",
    "town": "西新宿住友不動産新宿オークタワー（２３階）"
  },
  "1636024": {
    "zipcode": "1636024",
    "prefectureCode": "13",
    "prefectureNumber": 13,
    "prefecture": "東京都",
    "city": "新宿区",
    "town": "西新宿住友不動産新宿オークタワー（２４階）"
  },
  "1636025": {
    "zipcode": "1636025",
    "prefectureCode": "13",
    "prefectureNumber": 13,
    "prefecture": "東京都",
    "city": "新宿区",
    "town": "西新宿住友不動産新宿オークタワー（２５階）"
  },
  "1636026": {
    "zipcode": "1636026",
    "prefectureCode": "13",
    "prefectureNumber": 13,
    "prefecture": "東京都",
    "city": "新宿区",
    "town": "西新宿住友不動産新宿オークタワー（２６階）"
  },
  "1636027": {
    "zipcode": "1636027",
    "prefectureCode": "13",
    "prefectureNumber": 13,
    "prefecture": "東京都",
    "city": "新宿区",
    "town": "西新宿住友不動産新宿オークタワー（２７階）"
  },
  "1636028": {
    "zipcode": "1636028",
    "prefectureCode": "13",
    "prefectureNumber": 13,
    "prefecture": "東京都",
    "city": "新宿区",
    "town": "西新宿住友不動産新宿オークタワー（２８階）"
  },
  "1636029": {
    "zipcode": "1636029",
    "prefectureCode": "13",
    "prefectureNumber": 13,
    "prefecture": "東京都",
    "city": "新宿区",
    "town": "西新宿住友不動産新宿オークタワー（２９階）"
  },
  "1636030": {
    "zipcode": "1636030",
    "prefectureCode": "13",
    "prefectureNumber": 13,
    "prefecture": "東京都",
    "city": "新宿区",
    "town": "西新宿住友不動産新宿オークタワー（３０階）"
  },
  "1636031": {
    "zipcode": "1636031",
    "prefectureCode": "13",
    "prefectureNumber": 13,
    "prefecture": "東京都",
    "city": "新宿区",
    "town": "西新宿住友不動産新宿オークタワー（３１階）"
  },
  "1636032": {
    "zipcode": "1636032",
    "prefectureCode": "13",
    "prefectureNumber": 13,
    "prefecture": "東京都",
    "city": "新宿区",
    "town": "西新宿住友不動産新宿オークタワー（３２階）"
  },
  "1636033": {
    "zipcode": "1636033",
    "prefectureCode": "13",
    "prefectureNumber": 13,
    "prefecture": "東京都",
    "city": "新宿区",
    "town": "西新宿住友不動産新宿オークタワー（３３階）"
  },
  "1636034": {
    "zipcode": "1636034",
    "prefectureCode": "13",
    "prefectureNumber": 13,
    "prefecture": "東京都",
    "city": "新宿区",
    "town": "西新宿住友不動産新宿オークタワー（３４階）"
  },
  "1636035": {
    "zipcode": "1636035",
    "prefectureCode": "13",
    "prefectureNumber": 13,
    "prefecture": "東京都",
    "city": "新宿区",
    "town": "西新宿住友不動産新宿オークタワー（３５階）"
  },
  "1636036": {
    "zipcode": "1636036",
    "prefectureCode": "13",
    "prefectureNumber": 13,
    "prefecture": "東京都",
    "city": "新宿区",
    "town": "西新宿住友不動産新宿オークタワー（３６階）"
  },
  "1636037": {
    "zipcode": "1636037",
    "prefectureCode": "13",
    "prefectureNumber": 13,
    "prefecture": "東京都",
    "city": "新宿区",
    "town": "西新宿住友不動産新宿オークタワー（３７階）"
  },
  "1636038": {
    "zipcode": "1636038",
    "prefectureCode": "13",
    "prefectureNumber": 13,
    "prefecture": "東京都",
    "city": "新宿区",
    "town": "西新宿住友不動産新宿オークタワー（３８階）"
  },
  "1636090": {
    "zipcode": "1636090",
    "prefectureCode": "13",
    "prefectureNumber": 13,
    "prefecture": "東京都",
    "city": "新宿区",
    "town": "西新宿住友不動産新宿オークタワー（地階・階層不明）"
  }
}
