{
  "1650021": {
    "zipcode": "1650021",
    "prefectureCode": "13",
    "prefectureNumber": 13,
    "prefecture": "東京都",
    "city": "中野区",
    "town": "丸山"
  },
  "1650022": {
    "zipcode": "1650022",
    "prefectureCode": "13",
    "prefectureNumber": 13,
    "prefecture": "東京都",
    "city": "中野区",
    "town": "江古田"
  },
  "1650023": {
    "zipcode": "1650023",
    "prefectureCode": "13",
    "prefectureNumber": 13,
    "prefecture": "東京都",
    "city": "中野区",
    "town": "江原町"
  },
  "1650024": {
    "zipcode": "1650024",
    "prefectureCode": "13",
    "prefectureNumber": 13,
    "prefecture": "東京都",
    "city": "中野区",
    "town": "松が丘"
  },
  "1650025": {
    "zipcode": "1650025",
    "prefectureCode": "13",
    "prefectureNumber": 13,
    "prefecture": "東京都",
    "city": "中野区",
    "town": "沼袋"
  },
  "1650026": {
    "zipcode": "1650026",
    "prefectureCode": "13",
    "prefectureNumber": 13,
    "prefecture": "東京都",
    "city": "中野区",
    "town": "新井"
  },
  "1650027": {
    "zipcode": "1650027",
    "prefectureCode": "13",
    "prefectureNumber": 13,
    "prefecture": "東京都",
    "city": "中野区",
    "town": "野方"
  },
  "1650031": {
    "zipcode": "1650031",
    "prefectureCode": "13",
    "prefectureNumber": 13,
    "prefecture": "東京都",
    "city": "中野区",
    "town": "上鷺宮"
  },
  "1650032": {
    "zipcode": "1650032",
    "prefectureCode": "13",
    "prefectureNumber": 13,
    "prefecture": "東京都",
    "city": "中野区",
    "town": "鷺宮"
  },
  "1650033": {
    "zipcode": "1650033",
    "prefectureCode": "13",
    "prefectureNumber": 13,
    "prefecture": "東京都",
    "city": "中野区",
    "town": "若宮"
  },
  "1650034": {
    "zipcode": "1650034",
    "prefectureCode": "13",
    "prefectureNumber": 13,
    "prefecture": "東京都",
    "city": "中野区",
    "town": "大和町"
  },
  "1650035": {
    "zipcode": "1650035",
    "prefectureCode": "13",
    "prefectureNumber": 13,
    "prefecture": "東京都",
    "city": "中野区",
    "town": "白鷺"
  }
}
