{
  "1660000": {
    "zipcode": "1660000",
    "prefectureCode": "13",
    "prefectureNumber": 13,
    "prefecture": "東京都",
    "city": "杉並区",
    "town": "以下に掲載がない場合"
  },
  "1660001": {
    "zipcode": "1660001",
    "prefectureCode": "13",
    "prefectureNumber": 13,
    "prefecture": "東京都",
    "city": "杉並区",
    "town": "阿佐谷北"
  },
  "1660002": {
    "zipcode": "1660002",
    "prefectureCode": "13",
    "prefectureNumber": 13,
    "prefecture": "東京都",
    "city": "杉並区",
    "town": "高円寺北"
  },
  "1660003": {
    "zipcode": "1660003",
    "prefectureCode": "13",
    "prefectureNumber": 13,
    "prefecture": "東京都",
    "city": "杉並区",
    "town": "高円寺南"
  },
  "1660004": {
    "zipcode": "1660004",
    "prefectureCode": "13",
    "prefectureNumber": 13,
    "prefecture": "東京都",
    "city": "杉並区",
    "town": "阿佐谷南"
  },
  "1660011": {
    "zipcode": "1660011",
    "prefectureCode": "13",
    "prefectureNumber": 13,
    "prefecture": "東京都",
    "city": "杉並区",
    "town": "梅里"
  },
  "1660012": {
    "zipcode": "1660012",
    "prefectureCode": "13",
    "prefectureNumber": 13,
    "prefecture": "東京都",
    "city": "杉並区",
    "town": "和田"
  },
  "1660013": {
    "zipcode": "1660013",
    "prefectureCode": "13",
    "prefectureNumber": 13,
    "prefecture": "東京都",
    "city": "杉並区",
    "town": "堀ノ内"
  },
  "1660014": {
    "zipcode": "1660014",
    "prefectureCode": "13",
    "prefectureNumber": 13,
    "prefecture": "東京都",
    "city": "杉並区",
    "town": "松ノ木"
  },
  "1660015": {
    "zipcode": "1660015",
    "prefectureCode": "13",
    "prefectureNumber": 13,
    "prefecture": "東京都",
    "city": "杉並区",
    "town": "成田東"
  },
  "1660016": {
    "zipcode": "1660016",
    "prefectureCode": "13",
    "prefectureNumber": 13,
    "prefecture": "東京都",
    "city": "杉並区",
    "town": "成田西"
  }
}
