{
  "1680061": {
    "zipcode": "1680061",
    "prefectureCode": "13",
    "prefectureNumber": 13,
    "prefecture": "東京都",
    "city": "杉並区",
    "town": "大宮"
  },
  "1680062": {
    "zipcode": "1680062",
    "prefectureCode": "13",
    "prefectureNumber": 13,
    "prefecture": "東京都",
    "city": "杉並区",
    "town": "方南"
  },
  "1680063": {
    "zipcode": "1680063",
    "prefectureCode": "13",
    "prefectureNumber": 13,
    "prefecture": "東京都",
    "city": "杉並区",
    "town": "和泉"
  },
  "1680064": {
    "zipcode": "1680064",
    "prefectureCode": "13",
    "prefectureNumber": 13,
    "prefecture": "東京都",
    "city": "杉並区",
    "town": "永福"
  },
  "1680065": {
    "zipcode": "1680065",
    "prefectureCode": "13",
    "prefectureNumber": 13,
    "prefecture": "東京都",
    "city": "杉並区",
    "town": "浜田山"
  },
  "1680071": {
    "zipcode": "1680071",
    "prefectureCode": "13",
    "prefectureNumber": 13,
    "prefecture": "東京都",
    "city": "杉並区",
    "town": "高井戸西"
  },
  "1680072": {
    "zipcode": "1680072",
    "prefectureCode": "13",
    "prefectureNumber": 13,
    "prefecture": "東京都",
    "city": "杉並区",
    "town": "高井戸東"
  },
  "1680073": {
    "zipcode": "1680073",
    "prefectureCode": "13",
    "prefectureNumber": 13,
    "prefecture": "東京都",
    "city": "杉並区",
    "town": "下高井戸"
  },
  "1680074": {
    "zipcode": "1680074",
    "prefectureCode": "13",
    "prefectureNumber": 13,
    "prefecture": "東京都",
    "city": "杉並区",
    "town": "上高井戸"
  },
  "1680081": {
    "zipcode": "1680081",
    "prefectureCode": "13",
    "prefectureNumber": 13,
    "prefecture": "東京都",
    "city": "杉並区",
    "town": "宮前"
  },
  "1680082": {
    "zipcode": "1680082",
    "prefectureCode": "13",
    "prefectureNumber": 13,
    "prefecture": "東京都",
    "city": "杉並区",
    "town": "久我山"
  }
}
