{
  "1710014": {
    "zipcode": "1710014",
    "prefectureCode": "13",
    "prefectureNumber": 13,
    "prefecture": "東京都",
    "city": "豊島区",
    "town": "池袋（２〜４丁目）"
  },
  "1710021": {
    "zipcode": "1710021",
    "prefectureCode": "13",
    "prefectureNumber": 13,
    "prefecture": "東京都",
    "city": "豊島区",
    "town": "西池袋"
  },
  "1710022": {
    "zipcode": "1710022",
    "prefectureCode": "13",
    "prefectureNumber": 13,
    "prefecture": "東京都",
    "city": "豊島区",
    "town": "南池袋"
  },
  "1710031": {
    "zipcode": "1710031",
    "prefectureCode": "13",
    "prefectureNumber": 13,
    "prefecture": "東京都",
    "city": "豊島区",
    "town": "目白"
  },
  "1710032": {
    "zipcode": "1710032",
    "prefectureCode": "13",
    "prefectureNumber": 13,
    "prefecture": "東京都",
    "city": "豊島区",
    "town": "雑司が谷"
  },
  "1710033": {
    "zipcode": "1710033",
    "prefectureCode": "13",
    "prefectureNumber": 13,
    "prefecture": "東京都",
    "city": "豊島区",
    "town": "高田"
  },
  "1710041": {
    "zipcode": "1710041",
    "prefectureCode": "13",
    "prefectureNumber": 13,
    "prefecture": "東京都",
    "city": "豊島区",
    "town": "千川"
  },
  "1710042": {
    "zipcode": "1710042",
    "prefectureCode": "13",
    "prefectureNumber": 13,
    "prefecture": "東京都",
    "city": "豊島区",
    "town": "高松"
  },
  "1710043": {
    "zipcode": "1710043",
    "prefectureCode": "13",
    "prefectureNumber": 13,
    "prefecture": "東京都",
    "city": "豊島区",
    "town": "要町"
  },
  "1710044": {
    "zipcode": "1710044",
    "prefectureCode": "13",
    "prefectureNumber": 13,
    "prefecture": "東京都",
    "city": "豊島区",
    "town": "千早"
  },
  "1710051": {
    "zipcode": "1710051",
    "prefectureCode": "13",
    "prefectureNumber": 13,
    "prefecture": "東京都",
    "city": "豊島区",
    "town": "長崎"
  },
  "1710052": {
    "zipcode": "1710052",
    "prefectureCode": "13",
    "prefectureNumber": 13,
    "prefecture": "東京都",
    "city": "豊島区",
    "town": "南長崎"
  }
}
