{
  "1730001": {
    "zipcode": "1730001",
    "prefectureCode": "13",
    "prefectureNumber": 13,
    "prefecture": "東京都",
    "city": "板橋区",
    "town": "本町"
  },
  "1730002": {
    "zipcode": "1730002",
    "prefectureCode": "13",
    "prefectureNumber": 13,
    "prefecture": "東京都",
    "city": "板橋区",
    "town": "稲荷台"
  },
  "1730003": {
    "zipcode": "1730003",
    "prefectureCode": "13",
    "prefectureNumber": 13,
    "prefecture": "東京都",
    "city": "板橋区",
    "town": "加賀"
  },
  "1730004": {
    "zipcode": "1730004",
    "prefectureCode": "13",
    "prefectureNumber": 13,
    "prefecture": "東京都",
    "city": "板橋区",
    "town": "板橋"
  },
  "1730005": {
    "zipcode": "1730005",
    "prefectureCode": "13",
    "prefectureNumber": 13,
    "prefecture": "東京都",
    "city": "板橋区",
    "town": "仲宿"
  },
  "1730011": {
    "zipcode": "1730011",
    "prefectureCode": "13",
    "prefectureNumber": 13,
    "prefecture": "東京都",
    "city": "板橋区",
    "town": "双葉町"
  },
  "1730012": {
    "zipcode": "1730012",
    "prefectureCode": "13",
    "prefectureNumber": 13,
    "prefecture": "東京都",
    "city": "板橋区",
    "town": "大和町"
  },
  "1730013": {
    "zipcode": "1730013",
    "prefectureCode": "13",
    "prefectureNumber": 13,
    "prefecture": "東京都",
    "city": "板橋区",
    "town": "氷川町"
  },
  "1730014": {
    "zipcode": "1730014",
    "prefectureCode": "13",
    "prefectureNumber": 13,
    "prefecture": "東京都",
    "city": "板橋区",
    "town": "大山東町"
  },
  "1730015": {
    "zipcode": "1730015",
    "prefectureCode": "13",
    "prefectureNumber": 13,
    "prefecture": "東京都",
    "city": "板橋区",
    "town": "栄町"
  },
  "1730016": {
    "zipcode": "1730016",
    "prefectureCode": "13",
    "prefectureNumber": 13,
    "prefecture": "東京都",
    "city": "板橋区",
    "town": "中板橋"
  },
  "1730021": {
    "zipcode": "1730021",
    "prefectureCode": "13",
    "prefectureNumber": 13,
    "prefecture": "東京都",
    "city": "板橋区",
    "town": "弥生町"
  },
  "1730022": {
    "zipcode": "1730022",
    "prefectureCode": "13",
    "prefectureNumber": 13,
    "prefecture": "東京都",
    "city": "板橋区",
    "town": "仲町"
  },
  "1730023": {
    "zipcode": "1730023",
    "prefectureCode": "13",
    "prefectureNumber": 13,
    "prefecture": "東京都",
    "city": "板橋区",
    "town": "大山町"
  },
  "1730024": {
    "zipcode": "1730024",
    "prefectureCode": "13",
    "prefectureNumber": 13,
    "prefecture": "東京都",
    "city": "板橋区",
    "town": "大山金井町"
  },
  "1730025": {
    "zipcode": "1730025",
    "prefectureCode": "13",
    "prefectureNumber": 13,
    "prefecture": "東京都",
    "city": "板橋区",
    "town": "熊野町"
  },
  "1730026": {
    "zipcode": "1730026",
    "prefectureCode": "13",
    "prefectureNumber": 13,
    "prefecture": "東京都",
    "city": "板橋区",
    "town": "中丸町"
  },
  "1730027": {
    "zipcode": "1730027",
    "prefectureCode": "13",
    "prefectureNumber": 13,
    "prefecture": "東京都",
    "city": "板橋区",
    "town": "南町"
  },
  "1730031": {
    "zipcode": "1730031",
    "prefectureCode": "13",
    "prefectureNumber": 13,
    "prefecture": "東京都",
    "city": "板橋区",
    "town": "大谷口北町"
  },
  "1730032": {
    "zipcode": "1730032",
    "prefectureCode": "13",
    "prefectureNumber": 13,
    "prefecture": "東京都",
    "city": "板橋区",
    "town": "大谷口上町"
  },
  "1730033": {
    "zipcode": "1730033",
    "prefectureCode": "13",
    "prefectureNumber": 13,
    "prefecture": "東京都",
    "city": "板橋区",
    "town": "大山西町"
  },
  "1730034": {
    "zipcode": "1730034",
    "prefectureCode": "13",
    "prefectureNumber": 13,
    "prefecture": "東京都",
    "city": "板橋区",
    "town": "幸町"
  },
  "1730035": {
    "zipcode": "1730035",
    "prefectureCode": "13",
    "prefectureNumber": 13,
    "prefecture": "東京都",
    "city": "板橋区",
    "town": "大谷口"
  },
  "1730036": {
    "zipcode": "1730036",
    "prefectureCode": "13",
    "prefectureNumber": 13,
    "prefecture": "東京都",
    "city": "板橋区",
    "town": "向原"
  },
  "1730037": {
    "zipcode": "1730037",
    "prefectureCode": "13",
    "prefectureNumber": 13,
    "prefecture": "東京都",
    "city": "板橋区",
    "town": "小茂根"
  }
}
