{
  "1740000": {
    "zipcode": "1740000",
    "prefectureCode": "13",
    "prefectureNumber": 13,
    "prefecture": "東京都",
    "city": "板橋区",
    "town": "以下に掲載がない場合"
  },
  "1740041": {
    "zipcode": "1740041",
    "prefectureCode": "13",
    "prefectureNumber": 13,
    "prefecture": "東京都",
    "city": "板橋区",
    "town": "舟渡"
  },
  "1740042": {
    "zipcode": "1740042",
    "prefectureCode": "13",
    "prefectureNumber": 13,
    "prefecture": "東京都",
    "city": "板橋区",
    "town": "東坂下"
  },
  "1740043": {
    "zipcode": "1740043",
    "prefectureCode": "13",
    "prefectureNumber": 13,
    "prefecture": "東京都",
    "city": "板橋区",
    "town": "坂下"
  },
  "1740044": {
    "zipcode": "1740044",
    "prefectureCode": "13",
    "prefectureNumber": 13,
    "prefecture": "東京都",
    "city": "板橋区",
    "town": "相生町"
  },
  "1740045": {
    "zipcode": "1740045",
    "prefectureCode": "13",
    "prefectureNumber": 13,
    "prefecture": "東京都",
    "city": "板橋区",
    "town": "西台（１丁目）"
  },
  "1740046": {
    "zipcode": "1740046",
    "prefectureCode": "13",
    "prefectureNumber": 13,
    "prefecture": "東京都",
    "city": "板橋区",
    "town": "蓮根"
  },
  "1740051": {
    "zipcode": "1740051",
    "prefectureCode": "13",
    "prefectureNumber": 13,
    "prefecture": "東京都",
    "city": "板橋区",
    "town": "小豆沢"
  },
  "1740052": {
    "zipcode": "1740052",
    "prefectureCode": "13",
    "prefectureNumber": 13,
    "prefecture": "東京都",
    "city": "板橋区",
    "town": "蓮沼町"
  },
  "1740053": {
    "zipcode": "1740053",
    "prefectureCode": "13",
    "prefectureNumber": 13,
    "prefecture": "東京都",
    "city": "板橋区",
    "town": "清水町"
  },
  "1740054": {
    "zipcode": "1740054",
    "prefectureCode": "13",
    "prefectureNumber": 13,
    "prefecture": "東京都",
    "city": "板橋区",
    "town": "宮本町"
  },
  "1740055": {
    "zipcode": "1740055",
    "prefectureCode": "13",
    "prefectureNumber": 13,
    "prefecture": "東京都",
    "city": "板橋区",
    "town": "泉町"
  },
  "1740056": {
    "zipcode": "1740056",
    "prefectureCode": "13",
    "prefectureNumber": 13,
    "prefecture": "東京都",
    "city": "板橋区",
    "town": "志村"
  },
  "1740061": {
    "zipcode": "1740061",
    "prefectureCode": "13",
    "prefectureNumber": 13,
    "prefecture": "東京都",
    "city": "板橋区",
    "town": "大原町"
  },
  "1740062": {
    "zipcode": "1740062",
    "prefectureCode": "13",
    "prefectureNumber": 13,
    "prefecture": "東京都",
    "city": "板橋区",
    "town": "富士見町"
  },
  "1740063": {
    "zipcode": "1740063",
    "prefectureCode": "13",
    "prefectureNumber": 13,
    "prefecture": "東京都",
    "city": "板橋区",
    "town": "前野町"
  },
  "1740064": {
    "zipcode": "1740064",
    "prefectureCode": "13",
    "prefectureNumber": 13,
    "prefecture": "東京都",
    "city": "板橋区",
    "town": "中台"
  },
  "1740065": {
    "zipcode": "1740065",
    "prefectureCode": "13",
    "prefectureNumber": 13,
    "prefecture": "東京都",
    "city": "板橋区",
    "town": "若木"
  },
  "1740071": {
    "zipcode": "1740071",
    "prefectureCode": "13",
    "prefectureNumber": 13,
    "prefecture": "東京都",
    "city": "板橋区",
    "town": "常盤台"
  },
  "1740072": {
    "zipcode": "1740072",
    "prefectureCode": "13",
    "prefectureNumber": 13,
    "prefecture": "東京都",
    "city": "板橋区",
    "town": "南常盤台"
  },
  "1740073": {
    "zipcode": "1740073",
    "prefectureCode": "13",
    "prefectureNumber": 13,
    "prefecture": "東京都",
    "city": "板橋区",
    "town": "東山町"
  },
  "1740074": {
    "zipcode": "1740074",
    "prefectureCode": "13",
    "prefectureNumber": 13,
    "prefecture": "東京都",
    "city": "板橋区",
    "town": "東新町"
  },
  "1740075": {
    "zipcode": "1740075",
    "prefectureCode": "13",
    "prefectureNumber": 13,
    "prefecture": "東京都",
    "city": "板橋区",
    "town": "桜川"
  },
  "1740076": {
    "zipcode": "1740076",
    "prefectureCode": "13",
    "prefectureNumber": 13,
    "prefecture": "東京都",
    "city": "板橋区",
    "town": "上板橋"
  }
}
