{
  "1750045": {
    "zipcode": "1750045",
    "prefectureCode": "13",
    "prefectureNumber": 13,
    "prefecture": "東京都",
    "city": "板橋区",
    "town": "西台（２〜４丁目）"
  },
  "1750081": {
    "zipcode": "1750081",
    "prefectureCode": "13",
    "prefectureNumber": 13,
    "prefecture": "東京都",
    "city": "板橋区",
    "town": "新河岸"
  },
  "1750082": {
    "zipcode": "1750082",
    "prefectureCode": "13",
    "prefectureNumber": 13,
    "prefecture": "東京都",
    "city": "板橋区",
    "town": "高島平"
  },
  "1750083": {
    "zipcode": "1750083",
    "prefectureCode": "13",
    "prefectureNumber": 13,
    "prefecture": "東京都",
    "city": "板橋区",
    "town": "徳丸"
  },
  "1750084": {
    "zipcode": "1750084",
    "prefectureCode": "13",
    "prefectureNumber": 13,
    "prefecture": "東京都",
    "city": "板橋区",
    "town": "四葉"
  },
  "1750085": {
    "zipcode": "1750085",
    "prefectureCode": "13",
    "prefectureNumber": 13,
    "prefecture": "東京都",
    "city": "板橋区",
    "town": "大門"
  },
  "1750091": {
    "zipcode": "1750091",
    "prefectureCode": "13",
    "prefectureNumber": 13,
    "prefecture": "東京都",
    "city": "板橋区",
    "town": "三園"
  },
  "1750092": {
    "zipcode": "1750092",
    "prefectureCode": "13",
    "prefectureNumber": 13,
    "prefecture": "東京都",
    "city": "板橋区",
    "town": "赤塚"
  },
  "1750093": {
    "zipcode": "1750093",
    "prefectureCode": "13",
    "prefectureNumber": 13,
    "prefecture": "東京都",
    "city": "板橋区",
    "town": "赤塚新町"
  },
  "1750094": {
    "zipcode": "1750094",
    "prefectureCode": "13",
    "prefectureNumber": 13,
    "prefecture": "東京都",
    "city": "板橋区",
    "town": "成増"
  }
}
