{
  "1760000": {
    "zipcode": "1760000",
    "prefectureCode": "13",
    "prefectureNumber": 13,
    "prefecture": "東京都",
    "city": "練馬区",
    "town": "以下に掲載がない場合"
  },
  "1760001": {
    "zipcode": "1760001",
    "prefectureCode": "13",
    "prefectureNumber": 13,
    "prefecture": "東京都",
    "city": "練馬区",
    "town": "練馬"
  },
  "1760002": {
    "zipcode": "1760002",
    "prefectureCode": "13",
    "prefectureNumber": 13,
    "prefecture": "東京都",
    "city": "練馬区",
    "town": "桜台"
  },
  "1760003": {
    "zipcode": "1760003",
    "prefectureCode": "13",
    "prefectureNumber": 13,
    "prefecture": "東京都",
    "city": "練馬区",
    "town": "羽沢"
  },
  "1760004": {
    "zipcode": "1760004",
    "prefectureCode": "13",
    "prefectureNumber": 13,
    "prefecture": "東京都",
    "city": "練馬区",
    "town": "小竹町"
  },
  "1760005": {
    "zipcode": "1760005",
    "prefectureCode": "13",
    "prefectureNumber": 13,
    "prefecture": "東京都",
    "city": "練馬区",
    "town": "旭丘"
  },
  "1760006": {
    "zipcode": "1760006",
    "prefectureCode": "13",
    "prefectureNumber": 13,
    "prefecture": "東京都",
    "city": "練馬区",
    "town": "栄町"
  },
  "1760011": {
    "zipcode": "1760011",
    "prefectureCode": "13",
    "prefectureNumber": 13,
    "prefecture": "東京都",
    "city": "練馬区",
    "town": "豊玉上"
  },
  "1760012": {
    "zipcode": "1760012",
    "prefectureCode": "13",
    "prefectureNumber": 13,
    "prefecture": "東京都",
    "city": "練馬区",
    "town": "豊玉北"
  },
  "1760013": {
    "zipcode": "1760013",
    "prefectureCode": "13",
    "prefectureNumber": 13,
    "prefecture": "東京都",
    "city": "練馬区",
    "town": "豊玉中"
  },
  "1760014": {
    "zipcode": "1760014",
    "prefectureCode": "13",
    "prefectureNumber": 13,
    "prefecture": "東京都",
    "city": "練馬区",
    "town": "豊玉南"
  },
  "1760021": {
    "zipcode": "1760021",
    "prefectureCode": "13",
    "prefectureNumber": 13,
    "prefecture": "東京都",
    "city": "練馬区",
    "town": "貫井"
  },
  "1760022": {
    "zipcode": "1760022",
    "prefectureCode": "13",
    "prefectureNumber": 13,
    "prefecture": "東京都",
    "city": "練馬区",
    "town": "向山"
  },
  "1760023": {
    "zipcode": "1760023",
    "prefectureCode": "13",
    "prefectureNumber": 13,
    "prefecture": "東京都",
    "city": "練馬区",
    "town": "中村北"
  },
  "1760024": {
    "zipcode": "1760024",
    "prefectureCode": "13",
    "prefectureNumber": 13,
    "prefecture": "東京都",
    "city": "練馬区",
    "town": "中村"
  },
  "1760025": {
    "zipcode": "1760025",
    "prefectureCode": "13",
    "prefectureNumber": 13,
    "prefecture": "東京都",
    "city": "練馬区",
    "town": "中村南"
  }
}
