{
  "1770031": {
    "zipcode": "1770031",
    "prefectureCode": "13",
    "prefectureNumber": 13,
    "prefecture": "東京都",
    "city": "練馬区",
    "town": "三原台"
  },
  "1770032": {
    "zipcode": "1770032",
    "prefectureCode": "13",
    "prefectureNumber": 13,
    "prefecture": "東京都",
    "city": "練馬区",
    "town": "谷原"
  },
  "1770033": {
    "zipcode": "1770033",
    "prefectureCode": "13",
    "prefectureNumber": 13,
    "prefecture": "東京都",
    "city": "練馬区",
    "town": "高野台"
  },
  "1770034": {
    "zipcode": "1770034",
    "prefectureCode": "13",
    "prefectureNumber": 13,
    "prefecture": "東京都",
    "city": "練馬区",
    "town": "富士見台"
  },
  "1770035": {
    "zipcode": "1770035",
    "prefectureCode": "13",
    "prefectureNumber": 13,
    "prefecture": "東京都",
    "city": "練馬区",
    "town": "南田中"
  },
  "1770041": {
    "zipcode": "1770041",
    "prefectureCode": "13",
    "prefectureNumber": 13,
    "prefecture": "東京都",
    "city": "練馬区",
    "town": "石神井町"
  },
  "1770042": {
    "zipcode": "1770042",
    "prefectureCode": "13",
    "prefectureNumber": 13,
    "prefecture": "東京都",
    "city": "練馬区",
    "town": "下石神井"
  },
  "1770043": {
    "zipcode": "1770043",
    "prefectureCode": "13",
    "prefectureNumber": 13,
    "prefecture": "東京都",
    "city": "練馬区",
    "town": "上石神井南町"
  },
  "1770044": {
    "zipcode": "1770044",
    "prefectureCode": "13",
    "prefectureNumber": 13,
    "prefecture": "東京都",
    "city": "練馬区",
    "town": "上石神井"
  },
  "1770045": {
    "zipcode": "1770045",
    "prefectureCode": "13",
    "prefectureNumber": 13,
    "prefecture": "東京都",
    "city": "練馬区",
    "town": "石神井台"
  },
  "1770051": {
    "zipcode": "1770051",
    "prefectureCode": "13",
    "prefectureNumber": 13,
    "prefecture": "東京都",
    "city": "練馬区",
    "town": "関町北"
  },
  "1770052": {
    "zipcode": "1770052",
    "prefectureCode": "13",
    "prefectureNumber": 13,
    "prefecture": "東京都",
    "city": "練馬区",
    "town": "関町東"
  },
  "1770053": {
    "zipcode": "1770053",
    "prefectureCode": "13",
    "prefectureNumber": 13,
    "prefecture": "東京都",
    "city": "練馬区",
    "town": "関町南"
  },
  "1770054": {
    "zipcode": "1770054",
    "prefectureCode": "13",
    "prefectureNumber": 13,
    "prefecture": "東京都",
    "city": "練馬区",
    "town": "立野町"
  }
}
