{
  "1790071": {
    "zipcode": "1790071",
    "prefectureCode": "13",
    "prefectureNumber": 13,
    "prefecture": "東京都",
    "city": "練馬区",
    "town": "旭町"
  },
  "1790072": {
    "zipcode": "1790072",
    "prefectureCode": "13",
    "prefectureNumber": 13,
    "prefecture": "東京都",
    "city": "練馬区",
    "town": "光が丘"
  },
  "1790073": {
    "zipcode": "1790073",
    "prefectureCode": "13",
    "prefectureNumber": 13,
    "prefecture": "東京都",
    "city": "練馬区",
    "town": "田柄"
  },
  "1790074": {
    "zipcode": "1790074",
    "prefectureCode": "13",
    "prefectureNumber": 13,
    "prefecture": "東京都",
    "city": "練馬区",
    "town": "春日町"
  },
  "1790075": {
    "zipcode": "1790075",
    "prefectureCode": "13",
    "prefectureNumber": 13,
    "prefecture": "東京都",
    "city": "練馬区",
    "town": "高松"
  },
  "1790076": {
    "zipcode": "1790076",
    "prefectureCode": "13",
    "prefectureNumber": 13,
    "prefecture": "東京都",
    "city": "練馬区",
    "town": "土支田"
  },
  "1790081": {
    "zipcode": "1790081",
    "prefectureCode": "13",
    "prefectureNumber": 13,
    "prefecture": "東京都",
    "city": "練馬区",
    "town": "北町"
  },
  "1790082": {
    "zipcode": "1790082",
    "prefectureCode": "13",
    "prefectureNumber": 13,
    "prefecture": "東京都",
    "city": "練馬区",
    "town": "錦"
  },
  "1790083": {
    "zipcode": "1790083",
    "prefectureCode": "13",
    "prefectureNumber": 13,
    "prefecture": "東京都",
    "city": "練馬区",
    "town": "平和台"
  },
  "1790084": {
    "zipcode": "1790084",
    "prefectureCode": "13",
    "prefectureNumber": 13,
    "prefecture": "東京都",
    "city": "練馬区",
    "town": "氷川台"
  },
  "1790085": {
    "zipcode": "1790085",
    "prefectureCode": "13",
    "prefectureNumber": 13,
    "prefecture": "東京都",
    "city": "練馬区",
    "town": "早宮"
  }
}
