{
  "1800000": {
    "zipcode": "1800000",
    "prefectureCode": "13",
    "prefectureNumber": 13,
    "prefecture": "東京都",
    "city": "武蔵野市",
    "town": "以下に掲載がない場合"
  },
  "1800001": {
    "zipcode": "1800001",
    "prefectureCode": "13",
    "prefectureNumber": 13,
    "prefecture": "東京都",
    "city": "武蔵野市",
    "town": "吉祥寺北町"
  },
  "1800002": {
    "zipcode": "1800002",
    "prefectureCode": "13",
    "prefectureNumber": 13,
    "prefecture": "東京都",
    "city": "武蔵野市",
    "town": "吉祥寺東町"
  },
  "1800003": {
    "zipcode": "1800003",
    "prefectureCode": "13",
    "prefectureNumber": 13,
    "prefecture": "東京都",
    "city": "武蔵野市",
    "town": "吉祥寺南町"
  },
  "1800004": {
    "zipcode": "1800004",
    "prefectureCode": "13",
    "prefectureNumber": 13,
    "prefecture": "東京都",
    "city": "武蔵野市",
    "town": "吉祥寺本町"
  },
  "1800005": {
    "zipcode": "1800005",
    "prefectureCode": "13",
    "prefectureNumber": 13,
    "prefecture": "東京都",
    "city": "武蔵野市",
    "town": "御殿山"
  },
  "1800006": {
    "zipcode": "1800006",
    "prefectureCode": "13",
    "prefectureNumber": 13,
    "prefecture": "東京都",
    "city": "武蔵野市",
    "town": "中町"
  },
  "1800011": {
    "zipcode": "1800011",
    "prefectureCode": "13",
    "prefectureNumber": 13,
    "prefecture": "東京都",
    "city": "武蔵野市",
    "town": "八幡町"
  },
  "1800012": {
    "zipcode": "1800012",
    "prefectureCode": "13",
    "prefectureNumber": 13,
    "prefecture": "東京都",
    "city": "武蔵野市",
    "town": "緑町"
  },
  "1800013": {
    "zipcode": "1800013",
    "prefectureCode": "13",
    "prefectureNumber": 13,
    "prefecture": "東京都",
    "city": "武蔵野市",
    "town": "西久保"
  },
  "1800014": {
    "zipcode": "1800014",
    "prefectureCode": "13",
    "prefectureNumber": 13,
    "prefecture": "東京都",
    "city": "武蔵野市",
    "town": "関前"
  },
  "1800021": {
    "zipcode": "1800021",
    "prefectureCode": "13",
    "prefectureNumber": 13,
    "prefecture": "東京都",
    "city": "武蔵野市",
    "town": "桜堤"
  },
  "1800022": {
    "zipcode": "1800022",
    "prefectureCode": "13",
    "prefectureNumber": 13,
    "prefecture": "東京都",
    "city": "武蔵野市",
    "town": "境"
  },
  "1800023": {
    "zipcode": "1800023",
    "prefectureCode": "13",
    "prefectureNumber": 13,
    "prefecture": "東京都",
    "city": "武蔵野市",
    "town": "境南町"
  }
}
