{
  "1810000": {
    "zipcode": "1810000",
    "prefectureCode": "13",
    "prefectureNumber": 13,
    "prefecture": "東京都",
    "city": "三鷹市",
    "town": "以下に掲載がない場合"
  },
  "1810001": {
    "zipcode": "1810001",
    "prefectureCode": "13",
    "prefectureNumber": 13,
    "prefecture": "東京都",
    "city": "三鷹市",
    "town": "井の頭"
  },
  "1810002": {
    "zipcode": "1810002",
    "prefectureCode": "13",
    "prefectureNumber": 13,
    "prefecture": "東京都",
    "city": "三鷹市",
    "town": "牟礼"
  },
  "1810003": {
    "zipcode": "1810003",
    "prefectureCode": "13",
    "prefectureNumber": 13,
    "prefecture": "東京都",
    "city": "三鷹市",
    "town": "北野"
  },
  "1810004": {
    "zipcode": "1810004",
    "prefectureCode": "13",
    "prefectureNumber": 13,
    "prefecture": "東京都",
    "city": "三鷹市",
    "town": "新川"
  },
  "1810005": {
    "zipcode": "1810005",
    "prefectureCode": "13",
    "prefectureNumber": 13,
    "prefecture": "東京都",
    "city": "三鷹市",
    "town": "中原"
  },
  "1810011": {
    "zipcode": "1810011",
    "prefectureCode": "13",
    "prefectureNumber": 13,
    "prefecture": "東京都",
    "city": "三鷹市",
    "town": "井口"
  },
  "1810012": {
    "zipcode": "1810012",
    "prefectureCode": "13",
    "prefectureNumber": 13,
    "prefecture": "東京都",
    "city": "三鷹市",
    "town": "上連雀"
  },
  "1810013": {
    "zipcode": "1810013",
    "prefectureCode": "13",
    "prefectureNumber": 13,
    "prefecture": "東京都",
    "city": "三鷹市",
    "town": "下連雀"
  },
  "1810014": {
    "zipcode": "1810014",
    "prefectureCode": "13",
    "prefectureNumber": 13,
    "prefecture": "東京都",
    "city": "三鷹市",
    "town": "野崎"
  },
  "1810015": {
    "zipcode": "1810015",
    "prefectureCode": "13",
    "prefectureNumber": 13,
    "prefecture": "東京都",
    "city": "三鷹市",
    "town": "大沢"
  },
  "1810016": {
    "zipcode": "1810016",
    "prefectureCode": "13",
    "prefectureNumber": 13,
    "prefecture": "東京都",
    "city": "三鷹市",
    "town": "深大寺"
  }
}
