{
  "1820000": {
    "zipcode": "1820000",
    "prefectureCode": "13",
    "prefectureNumber": 13,
    "prefecture": "東京都",
    "city": "調布市",
    "town": "以下に掲載がない場合"
  },
  "1820001": {
    "zipcode": "1820001",
    "prefectureCode": "13",
    "prefectureNumber": 13,
    "prefecture": "東京都",
    "city": "調布市",
    "town": "緑ケ丘"
  },
  "1820002": {
    "zipcode": "1820002",
    "prefectureCode": "13",
    "prefectureNumber": 13,
    "prefecture": "東京都",
    "city": "調布市",
    "town": "仙川町"
  },
  "1820003": {
    "zipcode": "1820003",
    "prefectureCode": "13",
    "prefectureNumber": 13,
    "prefecture": "東京都",
    "city": "調布市",
    "town": "若葉町"
  },
  "1820004": {
    "zipcode": "1820004",
    "prefectureCode": "13",
    "prefectureNumber": 13,
    "prefecture": "東京都",
    "city": "調布市",
    "town": "入間町"
  },
  "1820005": {
    "zipcode": "1820005",
    "prefectureCode": "13",
    "prefectureNumber": 13,
    "prefecture": "東京都",
    "city": "調布市",
    "town": "東つつじケ丘"
  },
  "1820006": {
    "zipcode": "1820006",
    "prefectureCode": "13",
    "prefectureNumber": 13,
    "prefecture": "東京都",
    "city": "調布市",
    "town": "西つつじケ丘"
  },
  "1820007": {
    "zipcode": "1820007",
    "prefectureCode": "13",
    "prefectureNumber": 13,
    "prefecture": "東京都",
    "city": "調布市",
    "town": "菊野台"
  },
  "1820011": {
    "zipcode": "1820011",
    "prefectureCode": "13",
    "prefectureNumber": 13,
    "prefecture": "東京都",
    "city": "調布市",
    "town": "深大寺北町"
  },
  "1820012": {
    "zipcode": "1820012",
    "prefectureCode": "13",
    "prefectureNumber": 13,
    "prefecture": "東京都",
    "city": "調布市",
    "town": "深大寺東町"
  },
  "1820013": {
    "zipcode": "1820013",
    "prefectureCode": "13",
    "prefectureNumber": 13,
    "prefecture": "東京都",
    "city": "調布市",
    "town": "深大寺南町"
  },
  "1820014": {
    "zipcode": "1820014",
    "prefectureCode": "13",
    "prefectureNumber": 13,
    "prefecture": "東京都",
    "city": "調布市",
    "town": "柴崎"
  },
  "1820015": {
    "zipcode": "1820015",
    "prefectureCode": "13",
    "prefectureNumber": 13,
    "prefecture": "東京都",
    "city": "調布市",
    "town": "八雲台"
  },
  "1820016": {
    "zipcode": "1820016",
    "prefectureCode": "13",
    "prefectureNumber": 13,
    "prefecture": "東京都",
    "city": "調布市",
    "town": "佐須町"
  },
  "1820017": {
    "zipcode": "1820017",
    "prefectureCode": "13",
    "prefectureNumber": 13,
    "prefecture": "東京都",
    "city": "調布市",
    "town": "深大寺元町"
  },
  "1820021": {
    "zipcode": "1820021",
    "prefectureCode": "13",
    "prefectureNumber": 13,
    "prefecture": "東京都",
    "city": "調布市",
    "town": "調布ケ丘"
  },
  "1820022": {
    "zipcode": "1820022",
    "prefectureCode": "13",
    "prefectureNumber": 13,
    "prefecture": "東京都",
    "city": "調布市",
    "town": "国領町"
  },
  "1820023": {
    "zipcode": "1820023",
    "prefectureCode": "13",
    "prefectureNumber": 13,
    "prefecture": "東京都",
    "city": "調布市",
    "town": "染地"
  },
  "1820024": {
    "zipcode": "1820024",
    "prefectureCode": "13",
    "prefectureNumber": 13,
    "prefecture": "東京都",
    "city": "調布市",
    "town": "布田"
  },
  "1820025": {
    "zipcode": "1820025",
    "prefectureCode": "13",
    "prefectureNumber": 13,
    "prefecture": "東京都",
    "city": "調布市",
    "town": "多摩川"
  },
  "1820026": {
    "zipcode": "1820026",
    "prefectureCode": "13",
    "prefectureNumber": 13,
    "prefecture": "東京都",
    "city": "調布市",
    "town": "小島町"
  },
  "1820031": {
    "zipcode": "1820031",
    "prefectureCode": "13",
    "prefectureNumber": 13,
    "prefecture": "東京都",
    "city": "調布市",
    "town": "野水"
  },
  "1820032": {
    "zipcode": "1820032",
    "prefectureCode": "13",
    "prefectureNumber": 13,
    "prefecture": "東京都",
    "city": "調布市",
    "town": "西町"
  },
  "1820033": {
    "zipcode": "1820033",
    "prefectureCode": "13",
    "prefectureNumber": 13,
    "prefecture": "東京都",
    "city": "調布市",
    "town": "富士見町"
  },
  "1820034": {
    "zipcode": "1820034",
    "prefectureCode": "13",
    "prefectureNumber": 13,
    "prefecture": "東京都",
    "city": "調布市",
    "town": "下石原"
  },
  "1820035": {
    "zipcode": "1820035",
    "prefectureCode": "13",
    "prefectureNumber": 13,
    "prefecture": "東京都",
    "city": "調布市",
    "town": "上石原"
  },
  "1820036": {
    "zipcode": "1820036",
    "prefectureCode": "13",
    "prefectureNumber": 13,
    "prefecture": "東京都",
    "city": "調布市",
    "town": "飛田給"
  }
}
