{
  "1830000": {
    "zipcode": "1830000",
    "prefectureCode": "13",
    "prefectureNumber": 13,
    "prefecture": "東京都",
    "city": "府中市",
    "town": "以下に掲載がない場合"
  },
  "1830001": {
    "zipcode": "1830001",
    "prefectureCode": "13",
    "prefectureNumber": 13,
    "prefecture": "東京都",
    "city": "府中市",
    "town": "浅間町"
  },
  "1830002": {
    "zipcode": "1830002",
    "prefectureCode": "13",
    "prefectureNumber": 13,
    "prefecture": "東京都",
    "city": "府中市",
    "town": "多磨町"
  },
  "1830003": {
    "zipcode": "1830003",
    "prefectureCode": "13",
    "prefectureNumber": 13,
    "prefecture": "東京都",
    "city": "府中市",
    "town": "朝日町"
  },
  "1830004": {
    "zipcode": "1830004",
    "prefectureCode": "13",
    "prefectureNumber": 13,
    "prefecture": "東京都",
    "city": "府中市",
    "town": "紅葉丘"
  },
  "1830005": {
    "zipcode": "1830005",
    "prefectureCode": "13",
    "prefectureNumber": 13,
    "prefecture": "東京都",
    "city": "府中市",
    "town": "若松町"
  },
  "1830006": {
    "zipcode": "1830006",
    "prefectureCode": "13",
    "prefectureNumber": 13,
    "prefecture": "東京都",
    "city": "府中市",
    "town": "緑町"
  },
  "1830011": {
    "zipcode": "1830011",
    "prefectureCode": "13",
    "prefectureNumber": 13,
    "prefecture": "東京都",
    "city": "府中市",
    "town": "白糸台"
  },
  "1830012": {
    "zipcode": "1830012",
    "prefectureCode": "13",
    "prefectureNumber": 13,
    "prefecture": "東京都",
    "city": "府中市",
    "town": "押立町"
  },
  "1830013": {
    "zipcode": "1830013",
    "prefectureCode": "13",
    "prefectureNumber": 13,
    "prefecture": "東京都",
    "city": "府中市",
    "town": "小柳町"
  },
  "1830014": {
    "zipcode": "1830014",
    "prefectureCode": "13",
    "prefectureNumber": 13,
    "prefecture": "東京都",
    "city": "府中市",
    "town": "是政"
  },
  "1830015": {
    "zipcode": "1830015",
    "prefectureCode": "13",
    "prefectureNumber": 13,
    "prefecture": "東京都",
    "city": "府中市",
    "town": "清水が丘"
  },
  "1830016": {
    "zipcode": "1830016",
    "prefectureCode": "13",
    "prefectureNumber": 13,
    "prefecture": "東京都",
    "city": "府中市",
    "town": "八幡町"
  },
  "1830021": {
    "zipcode": "1830021",
    "prefectureCode": "13",
    "prefectureNumber": 13,
    "prefecture": "東京都",
    "city": "府中市",
    "town": "片町"
  },
  "1830022": {
    "zipcode": "1830022",
    "prefectureCode": "13",
    "prefectureNumber": 13,
    "prefecture": "東京都",
    "city": "府中市",
    "town": "宮西町"
  },
  "1830023": {
    "zipcode": "1830023",
    "prefectureCode": "13",
    "prefectureNumber": 13,
    "prefecture": "東京都",
    "city": "府中市",
    "town": "宮町"
  },
  "1830024": {
    "zipcode": "1830024",
    "prefectureCode": "13",
    "prefectureNumber": 13,
    "prefecture": "東京都",
    "city": "府中市",
    "town": "日吉町"
  },
  "1830025": {
    "zipcode": "1830025",
    "prefectureCode": "13",
    "prefectureNumber": 13,
    "prefecture": "東京都",
    "city": "府中市",
    "town": "矢崎町"
  },
  "1830026": {
    "zipcode": "1830026",
    "prefectureCode": "13",
    "prefectureNumber": 13,
    "prefecture": "東京都",
    "city": "府中市",
    "town": "南町"
  },
  "1830027": {
    "zipcode": "1830027",
    "prefectureCode": "13",
    "prefectureNumber": 13,
    "prefecture": "東京都",
    "city": "府中市",
    "town": "本町"
  },
  "1830031": {
    "zipcode": "1830031",
    "prefectureCode": "13",
    "prefectureNumber": 13,
    "prefecture": "東京都",
    "city": "府中市",
    "town": "西府町"
  },
  "1830032": {
    "zipcode": "1830032",
    "prefectureCode": "13",
    "prefectureNumber": 13,
    "prefecture": "東京都",
    "city": "府中市",
    "town": "本宿町"
  },
  "1830033": {
    "zipcode": "1830033",
    "prefectureCode": "13",
    "prefectureNumber": 13,
    "prefecture": "東京都",
    "city": "府中市",
    "town": "分梅町"
  },
  "1830034": {
    "zipcode": "1830034",
    "prefectureCode": "13",
    "prefectureNumber": 13,
    "prefecture": "東京都",
    "city": "府中市",
    "town": "住吉町"
  },
  "1830035": {
    "zipcode": "1830035",
    "prefectureCode": "13",
    "prefectureNumber": 13,
    "prefecture": "東京都",
    "city": "府中市",
    "town": "四谷"
  },
  "1830036": {
    "zipcode": "1830036",
    "prefectureCode": "13",
    "prefectureNumber": 13,
    "prefecture": "東京都",
    "city": "府中市",
    "town": "日新町"
  },
  "1830041": {
    "zipcode": "1830041",
    "prefectureCode": "13",
    "prefectureNumber": 13,
    "prefecture": "東京都",
    "city": "府中市",
    "town": "北山町"
  },
  "1830042": {
    "zipcode": "1830042",
    "prefectureCode": "13",
    "prefectureNumber": 13,
    "prefecture": "東京都",
    "city": "府中市",
    "town": "武蔵台"
  },
  "1830043": {
    "zipcode": "1830043",
    "prefectureCode": "13",
    "prefectureNumber": 13,
    "prefecture": "東京都",
    "city": "府中市",
    "town": "東芝町"
  },
  "1830044": {
    "zipcode": "1830044",
    "prefectureCode": "13",
    "prefectureNumber": 13,
    "prefecture": "東京都",
    "city": "府中市",
    "town": "日鋼町"
  },
  "1830045": {
    "zipcode": "1830045",
    "prefectureCode": "13",
    "prefectureNumber": 13,
    "prefecture": "東京都",
    "city": "府中市",
    "town": "美好町"
  },
  "1830046": {
    "zipcode": "1830046",
    "prefectureCode": "13",
    "prefectureNumber": 13,
    "prefecture": "東京都",
    "city": "府中市",
    "town": "西原町"
  },
  "1830051": {
    "zipcode": "1830051",
    "prefectureCode": "13",
    "prefectureNumber": 13,
    "prefecture": "東京都",
    "city": "府中市",
    "town": "栄町"
  },
  "1830052": {
    "zipcode": "1830052",
    "prefectureCode": "13",
    "prefectureNumber": 13,
    "prefecture": "東京都",
    "city": "府中市",
    "town": "新町"
  },
  "1830053": {
    "zipcode": "1830053",
    "prefectureCode": "13",
    "prefectureNumber": 13,
    "prefecture": "東京都",
    "city": "府中市",
    "town": "天神町"
  },
  "1830054": {
    "zipcode": "1830054",
    "prefectureCode": "13",
    "prefectureNumber": 13,
    "prefecture": "東京都",
    "city": "府中市",
    "town": "幸町"
  },
  "1830055": {
    "zipcode": "1830055",
    "prefectureCode": "13",
    "prefectureNumber": 13,
    "prefecture": "東京都",
    "city": "府中市",
    "town": "府中町"
  },
  "1830056": {
    "zipcode": "1830056",
    "prefectureCode": "13",
    "prefectureNumber": 13,
    "prefecture": "東京都",
    "city": "府中市",
    "town": "寿町"
  },
  "1830057": {
    "zipcode": "1830057",
    "prefectureCode": "13",
    "prefectureNumber": 13,
    "prefecture": "東京都",
    "city": "府中市",
    "town": "晴見町"
  }
}
