{
  "1860000": {
    "zipcode": "1860000",
    "prefectureCode": "13",
    "prefectureNumber": 13,
    "prefecture": "東京都",
    "city": "国立市",
    "town": "以下に掲載がない場合"
  },
  "1860001": {
    "zipcode": "1860001",
    "prefectureCode": "13",
    "prefectureNumber": 13,
    "prefecture": "東京都",
    "city": "国立市",
    "town": "北"
  },
  "1860002": {
    "zipcode": "1860002",
    "prefectureCode": "13",
    "prefectureNumber": 13,
    "prefecture": "東京都",
    "city": "国立市",
    "town": "東"
  },
  "1860003": {
    "zipcode": "1860003",
    "prefectureCode": "13",
    "prefectureNumber": 13,
    "prefecture": "東京都",
    "city": "国立市",
    "town": "富士見台"
  },
  "1860004": {
    "zipcode": "1860004",
    "prefectureCode": "13",
    "prefectureNumber": 13,
    "prefecture": "東京都",
    "city": "国立市",
    "town": "中"
  },
  "1860005": {
    "zipcode": "1860005",
    "prefectureCode": "13",
    "prefectureNumber": 13,
    "prefecture": "東京都",
    "city": "国立市",
    "town": "西"
  },
  "1860011": {
    "zipcode": "1860011",
    "prefectureCode": "13",
    "prefectureNumber": 13,
    "prefecture": "東京都",
    "city": "国立市",
    "town": "谷保"
  },
  "1860012": {
    "zipcode": "1860012",
    "prefectureCode": "13",
    "prefectureNumber": 13,
    "prefecture": "東京都",
    "city": "国立市",
    "town": "泉"
  },
  "1860013": {
    "zipcode": "1860013",
    "prefectureCode": "13",
    "prefectureNumber": 13,
    "prefecture": "東京都",
    "city": "国立市",
    "town": "青柳"
  },
  "1860014": {
    "zipcode": "1860014",
    "prefectureCode": "13",
    "prefectureNumber": 13,
    "prefecture": "東京都",
    "city": "国立市",
    "town": "石田"
  },
  "1860015": {
    "zipcode": "1860015",
    "prefectureCode": "13",
    "prefectureNumber": 13,
    "prefecture": "東京都",
    "city": "国立市",
    "town": "矢川"
  }
}
