{
  "1870000": {
    "zipcode": "1870000",
    "prefectureCode": "13",
    "prefectureNumber": 13,
    "prefecture": "東京都",
    "city": "小平市",
    "town": "以下に掲載がない場合"
  },
  "1870001": {
    "zipcode": "1870001",
    "prefectureCode": "13",
    "prefectureNumber": 13,
    "prefecture": "東京都",
    "city": "小平市",
    "town": "大沼町"
  },
  "1870002": {
    "zipcode": "1870002",
    "prefectureCode": "13",
    "prefectureNumber": 13,
    "prefecture": "東京都",
    "city": "小平市",
    "town": "花小金井"
  },
  "1870003": {
    "zipcode": "1870003",
    "prefectureCode": "13",
    "prefectureNumber": 13,
    "prefecture": "東京都",
    "city": "小平市",
    "town": "花小金井南町"
  },
  "1870004": {
    "zipcode": "1870004",
    "prefectureCode": "13",
    "prefectureNumber": 13,
    "prefecture": "東京都",
    "city": "小平市",
    "town": "天神町"
  },
  "1870011": {
    "zipcode": "1870011",
    "prefectureCode": "13",
    "prefectureNumber": 13,
    "prefecture": "東京都",
    "city": "小平市",
    "town": "鈴木町"
  },
  "1870012": {
    "zipcode": "1870012",
    "prefectureCode": "13",
    "prefectureNumber": 13,
    "prefecture": "東京都",
    "city": "小平市",
    "town": "御幸町"
  },
  "1870013": {
    "zipcode": "1870013",
    "prefectureCode": "13",
    "prefectureNumber": 13,
    "prefecture": "東京都",
    "city": "小平市",
    "town": "回田町"
  },
  "1870021": {
    "zipcode": "1870021",
    "prefectureCode": "13",
    "prefectureNumber": 13,
    "prefecture": "東京都",
    "city": "小平市",
    "town": "上水南町"
  },
  "1870022": {
    "zipcode": "1870022",
    "prefectureCode": "13",
    "prefectureNumber": 13,
    "prefecture": "東京都",
    "city": "小平市",
    "town": "上水本町"
  },
  "1870023": {
    "zipcode": "1870023",
    "prefectureCode": "13",
    "prefectureNumber": 13,
    "prefecture": "東京都",
    "city": "小平市",
    "town": "上水新町"
  },
  "1870024": {
    "zipcode": "1870024",
    "prefectureCode": "13",
    "prefectureNumber": 13,
    "prefecture": "東京都",
    "city": "小平市",
    "town": "たかの台"
  },
  "1870025": {
    "zipcode": "1870025",
    "prefectureCode": "13",
    "prefectureNumber": 13,
    "prefecture": "東京都",
    "city": "小平市",
    "town": "津田町"
  },
  "1870031": {
    "zipcode": "1870031",
    "prefectureCode": "13",
    "prefectureNumber": 13,
    "prefecture": "東京都",
    "city": "小平市",
    "town": "小川東町"
  },
  "1870032": {
    "zipcode": "1870032",
    "prefectureCode": "13",
    "prefectureNumber": 13,
    "prefecture": "東京都",
    "city": "小平市",
    "town": "小川町"
  },
  "1870033": {
    "zipcode": "1870033",
    "prefectureCode": "13",
    "prefectureNumber": 13,
    "prefecture": "東京都",
    "city": "小平市",
    "town": "中島町"
  },
  "1870034": {
    "zipcode": "1870034",
    "prefectureCode": "13",
    "prefectureNumber": 13,
    "prefecture": "東京都",
    "city": "小平市",
    "town": "栄町"
  },
  "1870035": {
    "zipcode": "1870035",
    "prefectureCode": "13",
    "prefectureNumber": 13,
    "prefecture": "東京都",
    "city": "小平市",
    "town": "小川西町"
  },
  "1870041": {
    "zipcode": "1870041",
    "prefectureCode": "13",
    "prefectureNumber": 13,
    "prefecture": "東京都",
    "city": "小平市",
    "town": "美園町"
  },
  "1870042": {
    "zipcode": "1870042",
    "prefectureCode": "13",
    "prefectureNumber": 13,
    "prefecture": "東京都",
    "city": "小平市",
    "town": "仲町"
  },
  "1870043": {
    "zipcode": "1870043",
    "prefectureCode": "13",
    "prefectureNumber": 13,
    "prefecture": "東京都",
    "city": "小平市",
    "town": "学園東町"
  },
  "1870044": {
    "zipcode": "1870044",
    "prefectureCode": "13",
    "prefectureNumber": 13,
    "prefecture": "東京都",
    "city": "小平市",
    "town": "喜平町"
  },
  "1870045": {
    "zipcode": "1870045",
    "prefectureCode": "13",
    "prefectureNumber": 13,
    "prefecture": "東京都",
    "city": "小平市",
    "town": "学園西町"
  }
}
