{
  "1890000": {
    "zipcode": "1890000",
    "prefectureCode": "13",
    "prefectureNumber": 13,
    "prefecture": "東京都",
    "city": "東村山市",
    "town": "以下に掲載がない場合"
  },
  "1890001": {
    "zipcode": "1890001",
    "prefectureCode": "13",
    "prefectureNumber": 13,
    "prefecture": "東京都",
    "city": "東村山市",
    "town": "秋津町"
  },
  "1890002": {
    "zipcode": "1890002",
    "prefectureCode": "13",
    "prefectureNumber": 13,
    "prefecture": "東京都",
    "city": "東村山市",
    "town": "青葉町"
  },
  "1890003": {
    "zipcode": "1890003",
    "prefectureCode": "13",
    "prefectureNumber": 13,
    "prefecture": "東京都",
    "city": "東村山市",
    "town": "久米川町"
  },
  "1890011": {
    "zipcode": "1890011",
    "prefectureCode": "13",
    "prefectureNumber": 13,
    "prefecture": "東京都",
    "city": "東村山市",
    "town": "恩多町"
  },
  "1890012": {
    "zipcode": "1890012",
    "prefectureCode": "13",
    "prefectureNumber": 13,
    "prefecture": "東京都",
    "city": "東村山市",
    "town": "萩山町"
  },
  "1890013": {
    "zipcode": "1890013",
    "prefectureCode": "13",
    "prefectureNumber": 13,
    "prefecture": "東京都",
    "city": "東村山市",
    "town": "栄町"
  },
  "1890014": {
    "zipcode": "1890014",
    "prefectureCode": "13",
    "prefectureNumber": 13,
    "prefecture": "東京都",
    "city": "東村山市",
    "town": "本町"
  },
  "1890021": {
    "zipcode": "1890021",
    "prefectureCode": "13",
    "prefectureNumber": 13,
    "prefecture": "東京都",
    "city": "東村山市",
    "town": "諏訪町"
  },
  "1890022": {
    "zipcode": "1890022",
    "prefectureCode": "13",
    "prefectureNumber": 13,
    "prefecture": "東京都",
    "city": "東村山市",
    "town": "野口町"
  },
  "1890023": {
    "zipcode": "1890023",
    "prefectureCode": "13",
    "prefectureNumber": 13,
    "prefecture": "東京都",
    "city": "東村山市",
    "town": "美住町"
  },
  "1890024": {
    "zipcode": "1890024",
    "prefectureCode": "13",
    "prefectureNumber": 13,
    "prefecture": "東京都",
    "city": "東村山市",
    "town": "富士見町"
  },
  "1890025": {
    "zipcode": "1890025",
    "prefectureCode": "13",
    "prefectureNumber": 13,
    "prefecture": "東京都",
    "city": "東村山市",
    "town": "廻田町"
  },
  "1890026": {
    "zipcode": "1890026",
    "prefectureCode": "13",
    "prefectureNumber": 13,
    "prefecture": "東京都",
    "city": "東村山市",
    "town": "多摩湖町"
  }
}
