{
  "1900000": {
    "zipcode": "1900000",
    "prefectureCode": "13",
    "prefectureNumber": 13,
    "prefecture": "東京都",
    "city": "立川市",
    "town": "以下に掲載がない場合"
  },
  "1900001": {
    "zipcode": "1900001",
    "prefectureCode": "13",
    "prefectureNumber": 13,
    "prefecture": "東京都",
    "city": "立川市",
    "town": "若葉町"
  },
  "1900002": {
    "zipcode": "1900002",
    "prefectureCode": "13",
    "prefectureNumber": 13,
    "prefecture": "東京都",
    "city": "立川市",
    "town": "幸町"
  },
  "1900003": {
    "zipcode": "1900003",
    "prefectureCode": "13",
    "prefectureNumber": 13,
    "prefecture": "東京都",
    "city": "立川市",
    "town": "栄町"
  },
  "1900004": {
    "zipcode": "1900004",
    "prefectureCode": "13",
    "prefectureNumber": 13,
    "prefecture": "東京都",
    "city": "立川市",
    "town": "柏町"
  },
  "1900011": {
    "zipcode": "1900011",
    "prefectureCode": "13",
    "prefectureNumber": 13,
    "prefecture": "東京都",
    "city": "立川市",
    "town": "高松町"
  },
  "1900012": {
    "zipcode": "1900012",
    "prefectureCode": "13",
    "prefectureNumber": 13,
    "prefecture": "東京都",
    "city": "立川市",
    "town": "曙町"
  },
  "1900013": {
    "zipcode": "1900013",
    "prefectureCode": "13",
    "prefectureNumber": 13,
    "prefecture": "東京都",
    "city": "立川市",
    "town": "富士見町"
  },
  "1900014": {
    "zipcode": "1900014",
    "prefectureCode": "13",
    "prefectureNumber": 13,
    "prefecture": "東京都",
    "city": "立川市",
    "town": "緑町"
  },
  "1900015": {
    "zipcode": "1900015",
    "prefectureCode": "13",
    "prefectureNumber": 13,
    "prefecture": "東京都",
    "city": "立川市",
    "town": "泉町"
  },
  "1900021": {
    "zipcode": "1900021",
    "prefectureCode": "13",
    "prefectureNumber": 13,
    "prefecture": "東京都",
    "city": "立川市",
    "town": "羽衣町"
  },
  "1900022": {
    "zipcode": "1900022",
    "prefectureCode": "13",
    "prefectureNumber": 13,
    "prefecture": "東京都",
    "city": "立川市",
    "town": "錦町"
  },
  "1900023": {
    "zipcode": "1900023",
    "prefectureCode": "13",
    "prefectureNumber": 13,
    "prefecture": "東京都",
    "city": "立川市",
    "town": "柴崎町"
  },
  "1900031": {
    "zipcode": "1900031",
    "prefectureCode": "13",
    "prefectureNumber": 13,
    "prefecture": "東京都",
    "city": "立川市",
    "town": "砂川町"
  },
  "1900032": {
    "zipcode": "1900032",
    "prefectureCode": "13",
    "prefectureNumber": 13,
    "prefecture": "東京都",
    "city": "立川市",
    "town": "上砂町"
  },
  "1900033": {
    "zipcode": "1900033",
    "prefectureCode": "13",
    "prefectureNumber": 13,
    "prefecture": "東京都",
    "city": "立川市",
    "town": "一番町"
  },
  "1900034": {
    "zipcode": "1900034",
    "prefectureCode": "13",
    "prefectureNumber": 13,
    "prefecture": "東京都",
    "city": "立川市",
    "town": "西砂町"
  },
  "1900100": {
    "zipcode": "1900100",
    "prefectureCode": "13",
    "prefectureNumber": 13,
    "prefecture": "東京都",
    "city": "西多摩郡日の出町",
    "town": "以下に掲載がない場合"
  },
  "1900141": {
    "zipcode": "1900141",
    "prefectureCode": "13",
    "prefectureNumber": 13,
    "prefecture": "東京都",
    "city": "あきる野市",
    "town": "横沢"
  },
  "1900142": {
    "zipcode": "1900142",
    "prefectureCode": "13",
    "prefectureNumber": 13,
    "prefecture": "東京都",
    "city": "あきる野市",
    "town": "伊奈"
  },
  "1900143": {
    "zipcode": "1900143",
    "prefectureCode": "13",
    "prefectureNumber": 13,
    "prefecture": "東京都",
    "city": "あきる野市",
    "town": "上ノ台"
  },
  "1900144": {
    "zipcode": "1900144",
    "prefectureCode": "13",
    "prefectureNumber": 13,
    "prefecture": "東京都",
    "city": "あきる野市",
    "town": "山田"
  },
  "1900151": {
    "zipcode": "1900151",
    "prefectureCode": "13",
    "prefectureNumber": 13,
    "prefecture": "東京都",
    "city": "あきる野市",
    "town": "小和田"
  },
  "1900152": {
    "zipcode": "1900152",
    "prefectureCode": "13",
    "prefectureNumber": 13,
    "prefecture": "東京都",
    "city": "あきる野市",
    "town": "留原"
  },
  "1900153": {
    "zipcode": "1900153",
    "prefectureCode": "13",
    "prefectureNumber": 13,
    "prefecture": "東京都",
    "city": "あきる野市",
    "town": "小峰台"
  },
  "1900154": {
    "zipcode": "1900154",
    "prefectureCode": "13",
    "prefectureNumber": 13,
    "prefecture": "東京都",
    "city": "あきる野市",
    "town": "高尾"
  },
  "1900155": {
    "zipcode": "1900155",
    "prefectureCode": "13",
    "prefectureNumber": 13,
    "prefecture": "東京都",
    "city": "あきる野市",
    "town": "網代"
  },
  "1900161": {
    "zipcode": "1900161",
    "prefectureCode": "13",
    "prefectureNumber": 13,
    "prefecture": "東京都",
    "city": "あきる野市",
    "town": "入野"
  },
  "1900162": {
    "zipcode": "1900162",
    "prefectureCode": "13",
    "prefectureNumber": 13,
    "prefecture": "東京都",
    "city": "あきる野市",
    "town": "三内"
  },
  "1900163": {
    "zipcode": "1900163",
    "prefectureCode": "13",
    "prefectureNumber": 13,
    "prefecture": "東京都",
    "city": "あきる野市",
    "town": "舘谷"
  },
  "1900164": {
    "zipcode": "1900164",
    "prefectureCode": "13",
    "prefectureNumber": 13,
    "prefecture": "東京都",
    "city": "あきる野市",
    "town": "五日市"
  },
  "1900165": {
    "zipcode": "1900165",
    "prefectureCode": "13",
    "prefectureNumber": 13,
    "prefecture": "東京都",
    "city": "あきる野市",
    "town": "小中野"
  },
  "1900166": {
    "zipcode": "1900166",
    "prefectureCode": "13",
    "prefectureNumber": 13,
    "prefecture": "東京都",
    "city": "あきる野市",
    "town": "舘谷台"
  },
  "1900171": {
    "zipcode": "1900171",
    "prefectureCode": "13",
    "prefectureNumber": 13,
    "prefecture": "東京都",
    "city": "あきる野市",
    "town": "養沢"
  },
  "1900172": {
    "zipcode": "1900172",
    "prefectureCode": "13",
    "prefectureNumber": 13,
    "prefecture": "東京都",
    "city": "あきる野市",
    "town": "深沢"
  },
  "1900173": {
    "zipcode": "1900173",
    "prefectureCode": "13",
    "prefectureNumber": 13,
    "prefecture": "東京都",
    "city": "あきる野市",
    "town": "戸倉"
  },
  "1900174": {
    "zipcode": "1900174",
    "prefectureCode": "13",
    "prefectureNumber": 13,
    "prefecture": "東京都",
    "city": "あきる野市",
    "town": "乙津"
  },
  "1900181": {
    "zipcode": "1900181",
    "prefectureCode": "13",
    "prefectureNumber": 13,
    "prefecture": "東京都",
    "city": "西多摩郡日の出町",
    "town": "大久野"
  },
  "1900182": {
    "zipcode": "1900182",
    "prefectureCode": "13",
    "prefectureNumber": 13,
    "prefecture": "東京都",
    "city": "西多摩郡日の出町",
    "town": "平井"
  },
  "1900200": {
    "zipcode": "1900200",
    "prefectureCode": "13",
    "prefectureNumber": 13,
    "prefecture": "東京都",
    "city": "西多摩郡檜原村",
    "town": "以下に掲載がない場合"
  },
  "1900201": {
    "zipcode": "1900201",
    "prefectureCode": "13",
    "prefectureNumber": 13,
    "prefecture": "東京都",
    "city": "西多摩郡檜原村",
    "town": "倉掛"
  },
  "1900202": {
    "zipcode": "1900202",
    "prefectureCode": "13",
    "prefectureNumber": 13,
    "prefecture": "東京都",
    "city": "西多摩郡檜原村",
    "town": "藤原"
  },
  "1900203": {
    "zipcode": "1900203",
    "prefectureCode": "13",
    "prefectureNumber": 13,
    "prefecture": "東京都",
    "city": "西多摩郡檜原村",
    "town": "神戸"
  },
  "1900204": {
    "zipcode": "1900204",
    "prefectureCode": "13",
    "prefectureNumber": 13,
    "prefecture": "東京都",
    "city": "西多摩郡檜原村",
    "town": "小沢"
  },
  "1900205": {
    "zipcode": "1900205",
    "prefectureCode": "13",
    "prefectureNumber": 13,
    "prefecture": "東京都",
    "city": "西多摩郡檜原村",
    "town": "樋里"
  },
  "1900211": {
    "zipcode": "1900211",
    "prefectureCode": "13",
    "prefectureNumber": 13,
    "prefecture": "東京都",
    "city": "西多摩郡檜原村",
    "town": "三都郷"
  },
  "1900212": {
    "zipcode": "1900212",
    "prefectureCode": "13",
    "prefectureNumber": 13,
    "prefecture": "東京都",
    "city": "西多摩郡檜原村",
    "town": "上元郷"
  },
  "1900213": {
    "zipcode": "1900213",
    "prefectureCode": "13",
    "prefectureNumber": 13,
    "prefecture": "東京都",
    "city": "西多摩郡檜原村",
    "town": "下元郷"
  },
  "1900214": {
    "zipcode": "1900214",
    "prefectureCode": "13",
    "prefectureNumber": 13,
    "prefecture": "東京都",
    "city": "西多摩郡檜原村",
    "town": "本宿"
  },
  "1900221": {
    "zipcode": "1900221",
    "prefectureCode": "13",
    "prefectureNumber": 13,
    "prefecture": "東京都",
    "city": "西多摩郡檜原村",
    "town": "数馬"
  },
  "1900222": {
    "zipcode": "1900222",
    "prefectureCode": "13",
    "prefectureNumber": 13,
    "prefecture": "東京都",
    "city": "西多摩郡檜原村",
    "town": "人里"
  },
  "1900223": {
    "zipcode": "1900223",
    "prefectureCode": "13",
    "prefectureNumber": 13,
    "prefecture": "東京都",
    "city": "西多摩郡檜原村",
    "town": "南郷"
  },
  "1901200": {
    "zipcode": "1901200",
    "prefectureCode": "13",
    "prefectureNumber": 13,
    "prefecture": "東京都",
    "city": "西多摩郡瑞穂町",
    "town": "以下に掲載がない場合"
  },
  "1901201": {
    "zipcode": "1901201",
    "prefectureCode": "13",
    "prefectureNumber": 13,
    "prefecture": "東京都",
    "city": "西多摩郡瑞穂町",
    "town": "二本木"
  },
  "1901202": {
    "zipcode": "1901202",
    "prefectureCode": "13",
    "prefectureNumber": 13,
    "prefecture": "東京都",
    "city": "西多摩郡瑞穂町",
    "town": "駒形富士山"
  },
  "1901203": {
    "zipcode": "1901203",
    "prefectureCode": "13",
    "prefectureNumber": 13,
    "prefecture": "東京都",
    "city": "西多摩郡瑞穂町",
    "town": "高根"
  },
  "1901204": {
    "zipcode": "1901204",
    "prefectureCode": "13",
    "prefectureNumber": 13,
    "prefecture": "東京都",
    "city": "西多摩郡瑞穂町",
    "town": "富士山栗原新田"
  },
  "1901211": {
    "zipcode": "1901211",
    "prefectureCode": "13",
    "prefectureNumber": 13,
    "prefecture": "東京都",
    "city": "西多摩郡瑞穂町",
    "town": "石畑"
  },
  "1901212": {
    "zipcode": "1901212",
    "prefectureCode": "13",
    "prefectureNumber": 13,
    "prefecture": "東京都",
    "city": "西多摩郡瑞穂町",
    "town": "殿ケ谷"
  },
  "1901213": {
    "zipcode": "1901213",
    "prefectureCode": "13",
    "prefectureNumber": 13,
    "prefecture": "東京都",
    "city": "西多摩郡瑞穂町",
    "town": "武蔵"
  },
  "1901214": {
    "zipcode": "1901214",
    "prefectureCode": "13",
    "prefectureNumber": 13,
    "prefecture": "東京都",
    "city": "西多摩郡瑞穂町",
    "town": "むさし野"
  },
  "1901221": {
    "zipcode": "1901221",
    "prefectureCode": "13",
    "prefectureNumber": 13,
    "prefecture": "東京都",
    "city": "西多摩郡瑞穂町",
    "town": "箱根ケ崎"
  },
  "1901222": {
    "zipcode": "1901222",
    "prefectureCode": "13",
    "prefectureNumber": 13,
    "prefecture": "東京都",
    "city": "西多摩郡瑞穂町",
    "town": "箱根ケ崎東松原"
  },
  "1901223": {
    "zipcode": "1901223",
    "prefectureCode": "13",
    "prefectureNumber": 13,
    "prefecture": "東京都",
    "city": "西多摩郡瑞穂町",
    "town": "箱根ケ崎西松原"
  },
  "1901224": {
    "zipcode": "1901224",
    "prefectureCode": "13",
    "prefectureNumber": 13,
    "prefecture": "東京都",
    "city": "西多摩郡瑞穂町",
    "town": "南平"
  },
  "1901231": {
    "zipcode": "1901231",
    "prefectureCode": "13",
    "prefectureNumber": 13,
    "prefecture": "東京都",
    "city": "西多摩郡瑞穂町",
    "town": "長岡長谷部"
  },
  "1901232": {
    "zipcode": "1901232",
    "prefectureCode": "13",
    "prefectureNumber": 13,
    "prefecture": "東京都",
    "city": "西多摩郡瑞穂町",
    "town": "長岡"
  },
  "1901233": {
    "zipcode": "1901233",
    "prefectureCode": "13",
    "prefectureNumber": 13,
    "prefecture": "東京都",
    "city": "西多摩郡瑞穂町",
    "town": "長岡下師岡"
  },
  "1901234": {
    "zipcode": "1901234",
    "prefectureCode": "13",
    "prefectureNumber": 13,
    "prefecture": "東京都",
    "city": "西多摩郡瑞穂町",
    "town": "長岡藤橋"
  }
}
