{
  "1910000": {
    "zipcode": "1910000",
    "prefectureCode": "13",
    "prefectureNumber": 13,
    "prefecture": "東京都",
    "city": "日野市",
    "town": "以下に掲載がない場合"
  },
  "1910001": {
    "zipcode": "1910001",
    "prefectureCode": "13",
    "prefectureNumber": 13,
    "prefecture": "東京都",
    "city": "日野市",
    "town": "栄町"
  },
  "1910002": {
    "zipcode": "1910002",
    "prefectureCode": "13",
    "prefectureNumber": 13,
    "prefecture": "東京都",
    "city": "日野市",
    "town": "新町"
  },
  "1910003": {
    "zipcode": "1910003",
    "prefectureCode": "13",
    "prefectureNumber": 13,
    "prefecture": "東京都",
    "city": "日野市",
    "town": "日野台"
  },
  "1910011": {
    "zipcode": "1910011",
    "prefectureCode": "13",
    "prefectureNumber": 13,
    "prefecture": "東京都",
    "city": "日野市",
    "town": "日野本町"
  },
  "1910012": {
    "zipcode": "1910012",
    "prefectureCode": "13",
    "prefectureNumber": 13,
    "prefecture": "東京都",
    "city": "日野市",
    "town": "日野"
  },
  "1910013": {
    "zipcode": "1910013",
    "prefectureCode": "13",
    "prefectureNumber": 13,
    "prefecture": "東京都",
    "city": "日野市",
    "town": "宮"
  },
  "1910014": {
    "zipcode": "1910014",
    "prefectureCode": "13",
    "prefectureNumber": 13,
    "prefecture": "東京都",
    "city": "日野市",
    "town": "上田"
  },
  "1910015": {
    "zipcode": "1910015",
    "prefectureCode": "13",
    "prefectureNumber": 13,
    "prefecture": "東京都",
    "city": "日野市",
    "town": "川辺堀之内"
  },
  "1910016": {
    "zipcode": "1910016",
    "prefectureCode": "13",
    "prefectureNumber": 13,
    "prefecture": "東京都",
    "city": "日野市",
    "town": "神明"
  },
  "1910021": {
    "zipcode": "1910021",
    "prefectureCode": "13",
    "prefectureNumber": 13,
    "prefecture": "東京都",
    "city": "日野市",
    "town": "石田"
  },
  "1910022": {
    "zipcode": "1910022",
    "prefectureCode": "13",
    "prefectureNumber": 13,
    "prefecture": "東京都",
    "city": "日野市",
    "town": "新井"
  },
  "1910023": {
    "zipcode": "1910023",
    "prefectureCode": "13",
    "prefectureNumber": 13,
    "prefecture": "東京都",
    "city": "日野市",
    "town": "下田"
  },
  "1910024": {
    "zipcode": "1910024",
    "prefectureCode": "13",
    "prefectureNumber": 13,
    "prefecture": "東京都",
    "city": "日野市",
    "town": "万願寺"
  },
  "1910031": {
    "zipcode": "1910031",
    "prefectureCode": "13",
    "prefectureNumber": 13,
    "prefecture": "東京都",
    "city": "日野市",
    "town": "高幡"
  },
  "1910032": {
    "zipcode": "1910032",
    "prefectureCode": "13",
    "prefectureNumber": 13,
    "prefecture": "東京都",
    "city": "日野市",
    "town": "三沢"
  },
  "1910033": {
    "zipcode": "1910033",
    "prefectureCode": "13",
    "prefectureNumber": 13,
    "prefecture": "東京都",
    "city": "日野市",
    "town": "百草"
  },
  "1910034": {
    "zipcode": "1910034",
    "prefectureCode": "13",
    "prefectureNumber": 13,
    "prefecture": "東京都",
    "city": "日野市",
    "town": "落川"
  },
  "1910041": {
    "zipcode": "1910041",
    "prefectureCode": "13",
    "prefectureNumber": 13,
    "prefecture": "東京都",
    "city": "日野市",
    "town": "南平"
  },
  "1910042": {
    "zipcode": "1910042",
    "prefectureCode": "13",
    "prefectureNumber": 13,
    "prefecture": "東京都",
    "city": "日野市",
    "town": "程久保"
  },
  "1910043": {
    "zipcode": "1910043",
    "prefectureCode": "13",
    "prefectureNumber": 13,
    "prefecture": "東京都",
    "city": "日野市",
    "town": "平山"
  },
  "1910051": {
    "zipcode": "1910051",
    "prefectureCode": "13",
    "prefectureNumber": 13,
    "prefecture": "東京都",
    "city": "日野市",
    "town": "豊田（大字）"
  },
  "1910052": {
    "zipcode": "1910052",
    "prefectureCode": "13",
    "prefectureNumber": 13,
    "prefecture": "東京都",
    "city": "日野市",
    "town": "東豊田"
  },
  "1910053": {
    "zipcode": "1910053",
    "prefectureCode": "13",
    "prefectureNumber": 13,
    "prefecture": "東京都",
    "city": "日野市",
    "town": "豊田（丁目）"
  },
  "1910054": {
    "zipcode": "1910054",
    "prefectureCode": "13",
    "prefectureNumber": 13,
    "prefecture": "東京都",
    "city": "日野市",
    "town": "東平山"
  },
  "1910055": {
    "zipcode": "1910055",
    "prefectureCode": "13",
    "prefectureNumber": 13,
    "prefecture": "東京都",
    "city": "日野市",
    "town": "西平山"
  },
  "1910061": {
    "zipcode": "1910061",
    "prefectureCode": "13",
    "prefectureNumber": 13,
    "prefecture": "東京都",
    "city": "日野市",
    "town": "大坂上"
  },
  "1910062": {
    "zipcode": "1910062",
    "prefectureCode": "13",
    "prefectureNumber": 13,
    "prefecture": "東京都",
    "city": "日野市",
    "town": "多摩平"
  },
  "1910063": {
    "zipcode": "1910063",
    "prefectureCode": "13",
    "prefectureNumber": 13,
    "prefecture": "東京都",
    "city": "日野市",
    "town": "さくら町"
  },
  "1910064": {
    "zipcode": "1910064",
    "prefectureCode": "13",
    "prefectureNumber": 13,
    "prefecture": "東京都",
    "city": "日野市",
    "town": "富士町"
  },
  "1910065": {
    "zipcode": "1910065",
    "prefectureCode": "13",
    "prefectureNumber": 13,
    "prefecture": "東京都",
    "city": "日野市",
    "town": "旭が丘"
  }
}
