{
  "1920000": {
    "zipcode": "1920000",
    "prefectureCode": "13",
    "prefectureNumber": 13,
    "prefecture": "東京都",
    "city": "八王子市",
    "town": "以下に掲載がない場合"
  },
  "1920001": {
    "zipcode": "1920001",
    "prefectureCode": "13",
    "prefectureNumber": 13,
    "prefecture": "東京都",
    "city": "八王子市",
    "town": "戸吹町"
  },
  "1920002": {
    "zipcode": "1920002",
    "prefectureCode": "13",
    "prefectureNumber": 13,
    "prefecture": "東京都",
    "city": "八王子市",
    "town": "高月町"
  },
  "1920003": {
    "zipcode": "1920003",
    "prefectureCode": "13",
    "prefectureNumber": 13,
    "prefecture": "東京都",
    "city": "八王子市",
    "town": "丹木町"
  },
  "1920004": {
    "zipcode": "1920004",
    "prefectureCode": "13",
    "prefectureNumber": 13,
    "prefecture": "東京都",
    "city": "八王子市",
    "town": "加住町"
  },
  "1920005": {
    "zipcode": "1920005",
    "prefectureCode": "13",
    "prefectureNumber": 13,
    "prefecture": "東京都",
    "city": "八王子市",
    "town": "宮下町"
  },
  "1920011": {
    "zipcode": "1920011",
    "prefectureCode": "13",
    "prefectureNumber": 13,
    "prefecture": "東京都",
    "city": "八王子市",
    "town": "滝山町"
  },
  "1920012": {
    "zipcode": "1920012",
    "prefectureCode": "13",
    "prefectureNumber": 13,
    "prefecture": "東京都",
    "city": "八王子市",
    "town": "左入町"
  },
  "1920013": {
    "zipcode": "1920013",
    "prefectureCode": "13",
    "prefectureNumber": 13,
    "prefecture": "東京都",
    "city": "八王子市",
    "town": "梅坪町"
  },
  "1920014": {
    "zipcode": "1920014",
    "prefectureCode": "13",
    "prefectureNumber": 13,
    "prefecture": "東京都",
    "city": "八王子市",
    "town": "みつい台"
  },
  "1920015": {
    "zipcode": "1920015",
    "prefectureCode": "13",
    "prefectureNumber": 13,
    "prefecture": "東京都",
    "city": "八王子市",
    "town": "中野町"
  },
  "1920016": {
    "zipcode": "1920016",
    "prefectureCode": "13",
    "prefectureNumber": 13,
    "prefecture": "東京都",
    "city": "八王子市",
    "town": "谷野町"
  },
  "1920021": {
    "zipcode": "1920021",
    "prefectureCode": "13",
    "prefectureNumber": 13,
    "prefecture": "東京都",
    "city": "八王子市",
    "town": "丸山町"
  },
  "1920022": {
    "zipcode": "1920022",
    "prefectureCode": "13",
    "prefectureNumber": 13,
    "prefecture": "東京都",
    "city": "八王子市",
    "town": "平町"
  },
  "1920023": {
    "zipcode": "1920023",
    "prefectureCode": "13",
    "prefectureNumber": 13,
    "prefecture": "東京都",
    "city": "八王子市",
    "town": "久保山町"
  },
  "1920024": {
    "zipcode": "1920024",
    "prefectureCode": "13",
    "prefectureNumber": 13,
    "prefecture": "東京都",
    "city": "八王子市",
    "town": "宇津木町"
  },
  "1920025": {
    "zipcode": "1920025",
    "prefectureCode": "13",
    "prefectureNumber": 13,
    "prefecture": "東京都",
    "city": "八王子市",
    "town": "尾崎町"
  },
  "1920031": {
    "zipcode": "1920031",
    "prefectureCode": "13",
    "prefectureNumber": 13,
    "prefecture": "東京都",
    "city": "八王子市",
    "town": "小宮町"
  },
  "1920032": {
    "zipcode": "1920032",
    "prefectureCode": "13",
    "prefectureNumber": 13,
    "prefecture": "東京都",
    "city": "八王子市",
    "town": "石川町"
  },
  "1920033": {
    "zipcode": "1920033",
    "prefectureCode": "13",
    "prefectureNumber": 13,
    "prefecture": "東京都",
    "city": "八王子市",
    "town": "高倉町"
  },
  "1920034": {
    "zipcode": "1920034",
    "prefectureCode": "13",
    "prefectureNumber": 13,
    "prefecture": "東京都",
    "city": "八王子市",
    "town": "大谷町"
  },
  "1920041": {
    "zipcode": "1920041",
    "prefectureCode": "13",
    "prefectureNumber": 13,
    "prefecture": "東京都",
    "city": "八王子市",
    "town": "中野上町"
  },
  "1920042": {
    "zipcode": "1920042",
    "prefectureCode": "13",
    "prefectureNumber": 13,
    "prefecture": "東京都",
    "city": "八王子市",
    "town": "中野山王"
  },
  "1920043": {
    "zipcode": "1920043",
    "prefectureCode": "13",
    "prefectureNumber": 13,
    "prefecture": "東京都",
    "city": "八王子市",
    "town": "暁町"
  },
  "1920044": {
    "zipcode": "1920044",
    "prefectureCode": "13",
    "prefectureNumber": 13,
    "prefecture": "東京都",
    "city": "八王子市",
    "town": "富士見町"
  },
  "1920045": {
    "zipcode": "1920045",
    "prefectureCode": "13",
    "prefectureNumber": 13,
    "prefecture": "東京都",
    "city": "八王子市",
    "town": "大和田町"
  },
  "1920046": {
    "zipcode": "1920046",
    "prefectureCode": "13",
    "prefectureNumber": 13,
    "prefecture": "東京都",
    "city": "八王子市",
    "town": "明神町"
  },
  "1920051": {
    "zipcode": "1920051",
    "prefectureCode": "13",
    "prefectureNumber": 13,
    "prefecture": "東京都",
    "city": "八王子市",
    "town": "元本郷町"
  },
  "1920052": {
    "zipcode": "1920052",
    "prefectureCode": "13",
    "prefectureNumber": 13,
    "prefecture": "東京都",
    "city": "八王子市",
    "town": "本郷町"
  },
  "1920053": {
    "zipcode": "1920053",
    "prefectureCode": "13",
    "prefectureNumber": 13,
    "prefecture": "東京都",
    "city": "八王子市",
    "town": "八幡町"
  },
  "1920054": {
    "zipcode": "1920054",
    "prefectureCode": "13",
    "prefectureNumber": 13,
    "prefecture": "東京都",
    "city": "八王子市",
    "town": "小門町"
  },
  "1920055": {
    "zipcode": "1920055",
    "prefectureCode": "13",
    "prefectureNumber": 13,
    "prefecture": "東京都",
    "city": "八王子市",
    "town": "八木町"
  },
  "1920056": {
    "zipcode": "1920056",
    "prefectureCode": "13",
    "prefectureNumber": 13,
    "prefecture": "東京都",
    "city": "八王子市",
    "town": "追分町"
  },
  "1920061": {
    "zipcode": "1920061",
    "prefectureCode": "13",
    "prefectureNumber": 13,
    "prefecture": "東京都",
    "city": "八王子市",
    "town": "平岡町"
  },
  "1920062": {
    "zipcode": "1920062",
    "prefectureCode": "13",
    "prefectureNumber": 13,
    "prefecture": "東京都",
    "city": "八王子市",
    "town": "大横町"
  },
  "1920063": {
    "zipcode": "1920063",
    "prefectureCode": "13",
    "prefectureNumber": 13,
    "prefecture": "東京都",
    "city": "八王子市",
    "town": "元横山町"
  },
  "1920064": {
    "zipcode": "1920064",
    "prefectureCode": "13",
    "prefectureNumber": 13,
    "prefecture": "東京都",
    "city": "八王子市",
    "town": "田町"
  },
  "1920065": {
    "zipcode": "1920065",
    "prefectureCode": "13",
    "prefectureNumber": 13,
    "prefecture": "東京都",
    "city": "八王子市",
    "town": "新町"
  },
  "1920066": {
    "zipcode": "1920066",
    "prefectureCode": "13",
    "prefectureNumber": 13,
    "prefecture": "東京都",
    "city": "八王子市",
    "town": "本町"
  },
  "1920071": {
    "zipcode": "1920071",
    "prefectureCode": "13",
    "prefectureNumber": 13,
    "prefecture": "東京都",
    "city": "八王子市",
    "town": "八日町"
  },
  "1920072": {
    "zipcode": "1920072",
    "prefectureCode": "13",
    "prefectureNumber": 13,
    "prefecture": "東京都",
    "city": "八王子市",
    "town": "南町"
  },
  "1920073": {
    "zipcode": "1920073",
    "prefectureCode": "13",
    "prefectureNumber": 13,
    "prefecture": "東京都",
    "city": "八王子市",
    "town": "寺町"
  },
  "1920074": {
    "zipcode": "1920074",
    "prefectureCode": "13",
    "prefectureNumber": 13,
    "prefecture": "東京都",
    "city": "八王子市",
    "town": "天神町"
  },
  "1920075": {
    "zipcode": "1920075",
    "prefectureCode": "13",
    "prefectureNumber": 13,
    "prefecture": "東京都",
    "city": "八王子市",
    "town": "南新町"
  },
  "1920081": {
    "zipcode": "1920081",
    "prefectureCode": "13",
    "prefectureNumber": 13,
    "prefecture": "東京都",
    "city": "八王子市",
    "town": "横山町"
  },
  "1920082": {
    "zipcode": "1920082",
    "prefectureCode": "13",
    "prefectureNumber": 13,
    "prefecture": "東京都",
    "city": "八王子市",
    "town": "東町"
  },
  "1920083": {
    "zipcode": "1920083",
    "prefectureCode": "13",
    "prefectureNumber": 13,
    "prefecture": "東京都",
    "city": "八王子市",
    "town": "旭町"
  },
  "1920084": {
    "zipcode": "1920084",
    "prefectureCode": "13",
    "prefectureNumber": 13,
    "prefecture": "東京都",
    "city": "八王子市",
    "town": "三崎町"
  },
  "1920085": {
    "zipcode": "1920085",
    "prefectureCode": "13",
    "prefectureNumber": 13,
    "prefecture": "東京都",
    "city": "八王子市",
    "town": "中町"
  },
  "1920151": {
    "zipcode": "1920151",
    "prefectureCode": "13",
    "prefectureNumber": 13,
    "prefecture": "東京都",
    "city": "八王子市",
    "town": "上川町"
  },
  "1920152": {
    "zipcode": "1920152",
    "prefectureCode": "13",
    "prefectureNumber": 13,
    "prefecture": "東京都",
    "city": "八王子市",
    "town": "美山町"
  },
  "1920153": {
    "zipcode": "1920153",
    "prefectureCode": "13",
    "prefectureNumber": 13,
    "prefecture": "東京都",
    "city": "八王子市",
    "town": "西寺方町"
  },
  "1920154": {
    "zipcode": "1920154",
    "prefectureCode": "13",
    "prefectureNumber": 13,
    "prefecture": "東京都",
    "city": "八王子市",
    "town": "下恩方町"
  },
  "1920155": {
    "zipcode": "1920155",
    "prefectureCode": "13",
    "prefectureNumber": 13,
    "prefecture": "東京都",
    "city": "八王子市",
    "town": "小津町"
  },
  "1920156": {
    "zipcode": "1920156",
    "prefectureCode": "13",
    "prefectureNumber": 13,
    "prefecture": "東京都",
    "city": "八王子市",
    "town": "上恩方町"
  },
  "1920351": {
    "zipcode": "1920351",
    "prefectureCode": "13",
    "prefectureNumber": 13,
    "prefecture": "東京都",
    "city": "八王子市",
    "town": "東中野"
  },
  "1920352": {
    "zipcode": "1920352",
    "prefectureCode": "13",
    "prefectureNumber": 13,
    "prefecture": "東京都",
    "city": "八王子市",
    "town": "大塚"
  },
  "1920353": {
    "zipcode": "1920353",
    "prefectureCode": "13",
    "prefectureNumber": 13,
    "prefecture": "東京都",
    "city": "八王子市",
    "town": "鹿島"
  },
  "1920354": {
    "zipcode": "1920354",
    "prefectureCode": "13",
    "prefectureNumber": 13,
    "prefecture": "東京都",
    "city": "八王子市",
    "town": "松が谷"
  },
  "1920355": {
    "zipcode": "1920355",
    "prefectureCode": "13",
    "prefectureNumber": 13,
    "prefecture": "東京都",
    "city": "八王子市",
    "town": "堀之内"
  },
  "1920361": {
    "zipcode": "1920361",
    "prefectureCode": "13",
    "prefectureNumber": 13,
    "prefecture": "東京都",
    "city": "八王子市",
    "town": "越野"
  },
  "1920362": {
    "zipcode": "1920362",
    "prefectureCode": "13",
    "prefectureNumber": 13,
    "prefecture": "東京都",
    "city": "八王子市",
    "town": "松木"
  },
  "1920363": {
    "zipcode": "1920363",
    "prefectureCode": "13",
    "prefectureNumber": 13,
    "prefecture": "東京都",
    "city": "八王子市",
    "town": "別所"
  },
  "1920364": {
    "zipcode": "1920364",
    "prefectureCode": "13",
    "prefectureNumber": 13,
    "prefecture": "東京都",
    "city": "八王子市",
    "town": "南大沢"
  },
  "1920371": {
    "zipcode": "1920371",
    "prefectureCode": "13",
    "prefectureNumber": 13,
    "prefecture": "東京都",
    "city": "八王子市",
    "town": "南陽台"
  },
  "1920372": {
    "zipcode": "1920372",
    "prefectureCode": "13",
    "prefectureNumber": 13,
    "prefecture": "東京都",
    "city": "八王子市",
    "town": "下柚木"
  },
  "1920373": {
    "zipcode": "1920373",
    "prefectureCode": "13",
    "prefectureNumber": 13,
    "prefecture": "東京都",
    "city": "八王子市",
    "town": "上柚木"
  },
  "1920374": {
    "zipcode": "1920374",
    "prefectureCode": "13",
    "prefectureNumber": 13,
    "prefecture": "東京都",
    "city": "八王子市",
    "town": "中山"
  },
  "1920375": {
    "zipcode": "1920375",
    "prefectureCode": "13",
    "prefectureNumber": 13,
    "prefecture": "東京都",
    "city": "八王子市",
    "town": "鑓水"
  },
  "1920902": {
    "zipcode": "1920902",
    "prefectureCode": "13",
    "prefectureNumber": 13,
    "prefecture": "東京都",
    "city": "八王子市",
    "town": "上野町"
  },
  "1920903": {
    "zipcode": "1920903",
    "prefectureCode": "13",
    "prefectureNumber": 13,
    "prefecture": "東京都",
    "city": "八王子市",
    "town": "万町"
  },
  "1920904": {
    "zipcode": "1920904",
    "prefectureCode": "13",
    "prefectureNumber": 13,
    "prefecture": "東京都",
    "city": "八王子市",
    "town": "子安町"
  },
  "1920906": {
    "zipcode": "1920906",
    "prefectureCode": "13",
    "prefectureNumber": 13,
    "prefecture": "東京都",
    "city": "八王子市",
    "town": "北野町"
  },
  "1920907": {
    "zipcode": "1920907",
    "prefectureCode": "13",
    "prefectureNumber": 13,
    "prefecture": "東京都",
    "city": "八王子市",
    "town": "長沼町"
  },
  "1920911": {
    "zipcode": "1920911",
    "prefectureCode": "13",
    "prefectureNumber": 13,
    "prefecture": "東京都",
    "city": "八王子市",
    "town": "打越町"
  },
  "1920912": {
    "zipcode": "1920912",
    "prefectureCode": "13",
    "prefectureNumber": 13,
    "prefecture": "東京都",
    "city": "八王子市",
    "town": "絹ケ丘"
  },
  "1920913": {
    "zipcode": "1920913",
    "prefectureCode": "13",
    "prefectureNumber": 13,
    "prefecture": "東京都",
    "city": "八王子市",
    "town": "北野台"
  },
  "1920914": {
    "zipcode": "1920914",
    "prefectureCode": "13",
    "prefectureNumber": 13,
    "prefecture": "東京都",
    "city": "八王子市",
    "town": "片倉町"
  },
  "1920915": {
    "zipcode": "1920915",
    "prefectureCode": "13",
    "prefectureNumber": 13,
    "prefecture": "東京都",
    "city": "八王子市",
    "town": "宇津貫町"
  },
  "1920916": {
    "zipcode": "1920916",
    "prefectureCode": "13",
    "prefectureNumber": 13,
    "prefecture": "東京都",
    "city": "八王子市",
    "town": "みなみ野"
  },
  "1920917": {
    "zipcode": "1920917",
    "prefectureCode": "13",
    "prefectureNumber": 13,
    "prefecture": "東京都",
    "city": "八王子市",
    "town": "西片倉"
  },
  "1920918": {
    "zipcode": "1920918",
    "prefectureCode": "13",
    "prefectureNumber": 13,
    "prefecture": "東京都",
    "city": "八王子市",
    "town": "兵衛"
  },
  "1920919": {
    "zipcode": "1920919",
    "prefectureCode": "13",
    "prefectureNumber": 13,
    "prefecture": "東京都",
    "city": "八王子市",
    "town": "七国"
  }
}
