{
  "1930801": {
    "zipcode": "1930801",
    "prefectureCode": "13",
    "prefectureNumber": 13,
    "prefecture": "東京都",
    "city": "八王子市",
    "town": "川口町"
  },
  "1930802": {
    "zipcode": "1930802",
    "prefectureCode": "13",
    "prefectureNumber": 13,
    "prefecture": "東京都",
    "city": "八王子市",
    "town": "犬目町"
  },
  "1930803": {
    "zipcode": "1930803",
    "prefectureCode": "13",
    "prefectureNumber": 13,
    "prefecture": "東京都",
    "city": "八王子市",
    "town": "楢原町"
  },
  "1930804": {
    "zipcode": "1930804",
    "prefectureCode": "13",
    "prefectureNumber": 13,
    "prefecture": "東京都",
    "city": "八王子市",
    "town": "清川町"
  },
  "1930811": {
    "zipcode": "1930811",
    "prefectureCode": "13",
    "prefectureNumber": 13,
    "prefecture": "東京都",
    "city": "八王子市",
    "town": "上壱分方町"
  },
  "1930812": {
    "zipcode": "1930812",
    "prefectureCode": "13",
    "prefectureNumber": 13,
    "prefecture": "東京都",
    "city": "八王子市",
    "town": "諏訪町"
  },
  "1930813": {
    "zipcode": "1930813",
    "prefectureCode": "13",
    "prefectureNumber": 13,
    "prefecture": "東京都",
    "city": "八王子市",
    "town": "四谷町"
  },
  "1930814": {
    "zipcode": "1930814",
    "prefectureCode": "13",
    "prefectureNumber": 13,
    "prefecture": "東京都",
    "city": "八王子市",
    "town": "泉町"
  },
  "1930815": {
    "zipcode": "1930815",
    "prefectureCode": "13",
    "prefectureNumber": 13,
    "prefecture": "東京都",
    "city": "八王子市",
    "town": "叶谷町"
  },
  "1930816": {
    "zipcode": "1930816",
    "prefectureCode": "13",
    "prefectureNumber": 13,
    "prefecture": "東京都",
    "city": "八王子市",
    "town": "大楽寺町"
  },
  "1930821": {
    "zipcode": "1930821",
    "prefectureCode": "13",
    "prefectureNumber": 13,
    "prefecture": "東京都",
    "city": "八王子市",
    "town": "川町"
  },
  "1930822": {
    "zipcode": "1930822",
    "prefectureCode": "13",
    "prefectureNumber": 13,
    "prefecture": "東京都",
    "city": "八王子市",
    "town": "弐分方町"
  },
  "1930823": {
    "zipcode": "1930823",
    "prefectureCode": "13",
    "prefectureNumber": 13,
    "prefecture": "東京都",
    "city": "八王子市",
    "town": "横川町"
  },
  "1930824": {
    "zipcode": "1930824",
    "prefectureCode": "13",
    "prefectureNumber": 13,
    "prefecture": "東京都",
    "city": "八王子市",
    "town": "長房町"
  },
  "1930825": {
    "zipcode": "1930825",
    "prefectureCode": "13",
    "prefectureNumber": 13,
    "prefecture": "東京都",
    "city": "八王子市",
    "town": "城山手"
  },
  "1930826": {
    "zipcode": "1930826",
    "prefectureCode": "13",
    "prefectureNumber": 13,
    "prefecture": "東京都",
    "city": "八王子市",
    "town": "元八王子町"
  },
  "1930831": {
    "zipcode": "1930831",
    "prefectureCode": "13",
    "prefectureNumber": 13,
    "prefecture": "東京都",
    "city": "八王子市",
    "town": "並木町"
  },
  "1930832": {
    "zipcode": "1930832",
    "prefectureCode": "13",
    "prefectureNumber": 13,
    "prefecture": "東京都",
    "city": "八王子市",
    "town": "散田町"
  },
  "1930833": {
    "zipcode": "1930833",
    "prefectureCode": "13",
    "prefectureNumber": 13,
    "prefecture": "東京都",
    "city": "八王子市",
    "town": "めじろ台"
  },
  "1930834": {
    "zipcode": "1930834",
    "prefectureCode": "13",
    "prefectureNumber": 13,
    "prefecture": "東京都",
    "city": "八王子市",
    "town": "東浅川町"
  },
  "1930835": {
    "zipcode": "1930835",
    "prefectureCode": "13",
    "prefectureNumber": 13,
    "prefecture": "東京都",
    "city": "八王子市",
    "town": "千人町"
  },
  "1930836": {
    "zipcode": "1930836",
    "prefectureCode": "13",
    "prefectureNumber": 13,
    "prefecture": "東京都",
    "city": "八王子市",
    "town": "日吉町"
  },
  "1930841": {
    "zipcode": "1930841",
    "prefectureCode": "13",
    "prefectureNumber": 13,
    "prefecture": "東京都",
    "city": "八王子市",
    "town": "裏高尾町"
  },
  "1930842": {
    "zipcode": "1930842",
    "prefectureCode": "13",
    "prefectureNumber": 13,
    "prefecture": "東京都",
    "city": "八王子市",
    "town": "西浅川町"
  },
  "1930843": {
    "zipcode": "1930843",
    "prefectureCode": "13",
    "prefectureNumber": 13,
    "prefecture": "東京都",
    "city": "八王子市",
    "town": "廿里町"
  },
  "1930844": {
    "zipcode": "1930844",
    "prefectureCode": "13",
    "prefectureNumber": 13,
    "prefecture": "東京都",
    "city": "八王子市",
    "town": "高尾町"
  },
  "1930845": {
    "zipcode": "1930845",
    "prefectureCode": "13",
    "prefectureNumber": 13,
    "prefecture": "東京都",
    "city": "八王子市",
    "town": "初沢町"
  },
  "1930846": {
    "zipcode": "1930846",
    "prefectureCode": "13",
    "prefectureNumber": 13,
    "prefecture": "東京都",
    "city": "八王子市",
    "town": "南浅川町"
  },
  "1930931": {
    "zipcode": "1930931",
    "prefectureCode": "13",
    "prefectureNumber": 13,
    "prefecture": "東京都",
    "city": "八王子市",
    "town": "台町"
  },
  "1930932": {
    "zipcode": "1930932",
    "prefectureCode": "13",
    "prefectureNumber": 13,
    "prefecture": "東京都",
    "city": "八王子市",
    "town": "緑町"
  },
  "1930933": {
    "zipcode": "1930933",
    "prefectureCode": "13",
    "prefectureNumber": 13,
    "prefecture": "東京都",
    "city": "八王子市",
    "town": "山田町"
  },
  "1930934": {
    "zipcode": "1930934",
    "prefectureCode": "13",
    "prefectureNumber": 13,
    "prefecture": "東京都",
    "city": "八王子市",
    "town": "小比企町"
  },
  "1930935": {
    "zipcode": "1930935",
    "prefectureCode": "13",
    "prefectureNumber": 13,
    "prefecture": "東京都",
    "city": "八王子市",
    "town": "大船町"
  },
  "1930941": {
    "zipcode": "1930941",
    "prefectureCode": "13",
    "prefectureNumber": 13,
    "prefecture": "東京都",
    "city": "八王子市",
    "town": "狭間町"
  },
  "1930942": {
    "zipcode": "1930942",
    "prefectureCode": "13",
    "prefectureNumber": 13,
    "prefecture": "東京都",
    "city": "八王子市",
    "town": "椚田町"
  },
  "1930943": {
    "zipcode": "1930943",
    "prefectureCode": "13",
    "prefectureNumber": 13,
    "prefecture": "東京都",
    "city": "八王子市",
    "town": "寺田町"
  },
  "1930944": {
    "zipcode": "1930944",
    "prefectureCode": "13",
    "prefectureNumber": 13,
    "prefecture": "東京都",
    "city": "八王子市",
    "town": "館町"
  }
}
