{
  "1940000": {
    "zipcode": "1940000",
    "prefectureCode": "13",
    "prefectureNumber": 13,
    "prefecture": "東京都",
    "city": "町田市",
    "town": "以下に掲載がない場合"
  },
  "1940001": {
    "zipcode": "1940001",
    "prefectureCode": "13",
    "prefectureNumber": 13,
    "prefecture": "東京都",
    "city": "町田市",
    "town": "つくし野"
  },
  "1940002": {
    "zipcode": "1940002",
    "prefectureCode": "13",
    "prefectureNumber": 13,
    "prefecture": "東京都",
    "city": "町田市",
    "town": "南つくし野"
  },
  "1940003": {
    "zipcode": "1940003",
    "prefectureCode": "13",
    "prefectureNumber": 13,
    "prefecture": "東京都",
    "city": "町田市",
    "town": "小川"
  },
  "1940004": {
    "zipcode": "1940004",
    "prefectureCode": "13",
    "prefectureNumber": 13,
    "prefecture": "東京都",
    "city": "町田市",
    "town": "鶴間"
  },
  "1940005": {
    "zipcode": "1940005",
    "prefectureCode": "13",
    "prefectureNumber": 13,
    "prefecture": "東京都",
    "city": "町田市",
    "town": "南町田"
  },
  "1940011": {
    "zipcode": "1940011",
    "prefectureCode": "13",
    "prefectureNumber": 13,
    "prefecture": "東京都",
    "city": "町田市",
    "town": "成瀬が丘"
  },
  "1940012": {
    "zipcode": "1940012",
    "prefectureCode": "13",
    "prefectureNumber": 13,
    "prefecture": "東京都",
    "city": "町田市",
    "town": "金森"
  },
  "1940013": {
    "zipcode": "1940013",
    "prefectureCode": "13",
    "prefectureNumber": 13,
    "prefecture": "東京都",
    "city": "町田市",
    "town": "原町田"
  },
  "1940014": {
    "zipcode": "1940014",
    "prefectureCode": "13",
    "prefectureNumber": 13,
    "prefecture": "東京都",
    "city": "町田市",
    "town": "高ヶ坂"
  },
  "1940015": {
    "zipcode": "1940015",
    "prefectureCode": "13",
    "prefectureNumber": 13,
    "prefecture": "東京都",
    "city": "町田市",
    "town": "金森東"
  },
  "1940021": {
    "zipcode": "1940021",
    "prefectureCode": "13",
    "prefectureNumber": 13,
    "prefecture": "東京都",
    "city": "町田市",
    "town": "中町"
  },
  "1940022": {
    "zipcode": "1940022",
    "prefectureCode": "13",
    "prefectureNumber": 13,
    "prefecture": "東京都",
    "city": "町田市",
    "town": "森野"
  },
  "1940023": {
    "zipcode": "1940023",
    "prefectureCode": "13",
    "prefectureNumber": 13,
    "prefecture": "東京都",
    "city": "町田市",
    "town": "旭町"
  },
  "1940031": {
    "zipcode": "1940031",
    "prefectureCode": "13",
    "prefectureNumber": 13,
    "prefecture": "東京都",
    "city": "町田市",
    "town": "南大谷"
  },
  "1940032": {
    "zipcode": "1940032",
    "prefectureCode": "13",
    "prefectureNumber": 13,
    "prefecture": "東京都",
    "city": "町田市",
    "town": "本町田"
  },
  "1940033": {
    "zipcode": "1940033",
    "prefectureCode": "13",
    "prefectureNumber": 13,
    "prefecture": "東京都",
    "city": "町田市",
    "town": "木曽町"
  },
  "1940034": {
    "zipcode": "1940034",
    "prefectureCode": "13",
    "prefectureNumber": 13,
    "prefecture": "東京都",
    "city": "町田市",
    "town": "根岸町"
  },
  "1940035": {
    "zipcode": "1940035",
    "prefectureCode": "13",
    "prefectureNumber": 13,
    "prefecture": "東京都",
    "city": "町田市",
    "town": "忠生"
  },
  "1940036": {
    "zipcode": "1940036",
    "prefectureCode": "13",
    "prefectureNumber": 13,
    "prefecture": "東京都",
    "city": "町田市",
    "town": "木曽東"
  },
  "1940037": {
    "zipcode": "1940037",
    "prefectureCode": "13",
    "prefectureNumber": 13,
    "prefecture": "東京都",
    "city": "町田市",
    "town": "木曽西"
  },
  "1940038": {
    "zipcode": "1940038",
    "prefectureCode": "13",
    "prefectureNumber": 13,
    "prefecture": "東京都",
    "city": "町田市",
    "town": "根岸"
  },
  "1940039": {
    "zipcode": "1940039",
    "prefectureCode": "13",
    "prefectureNumber": 13,
    "prefecture": "東京都",
    "city": "町田市",
    "town": "藤の台（１、２丁目）"
  },
  "1940041": {
    "zipcode": "1940041",
    "prefectureCode": "13",
    "prefectureNumber": 13,
    "prefecture": "東京都",
    "city": "町田市",
    "town": "玉川学園"
  },
  "1940042": {
    "zipcode": "1940042",
    "prefectureCode": "13",
    "prefectureNumber": 13,
    "prefecture": "東京都",
    "city": "町田市",
    "town": "東玉川学園"
  },
  "1940043": {
    "zipcode": "1940043",
    "prefectureCode": "13",
    "prefectureNumber": 13,
    "prefecture": "東京都",
    "city": "町田市",
    "town": "成瀬台"
  },
  "1940044": {
    "zipcode": "1940044",
    "prefectureCode": "13",
    "prefectureNumber": 13,
    "prefecture": "東京都",
    "city": "町田市",
    "town": "成瀬"
  },
  "1940045": {
    "zipcode": "1940045",
    "prefectureCode": "13",
    "prefectureNumber": 13,
    "prefecture": "東京都",
    "city": "町田市",
    "town": "南成瀬"
  },
  "1940046": {
    "zipcode": "1940046",
    "prefectureCode": "13",
    "prefectureNumber": 13,
    "prefecture": "東京都",
    "city": "町田市",
    "town": "西成瀬"
  },
  "1940201": {
    "zipcode": "1940201",
    "prefectureCode": "13",
    "prefectureNumber": 13,
    "prefecture": "東京都",
    "city": "町田市",
    "town": "上小山田町"
  },
  "1940202": {
    "zipcode": "1940202",
    "prefectureCode": "13",
    "prefectureNumber": 13,
    "prefecture": "東京都",
    "city": "町田市",
    "town": "下小山田町"
  },
  "1940203": {
    "zipcode": "1940203",
    "prefectureCode": "13",
    "prefectureNumber": 13,
    "prefecture": "東京都",
    "city": "町田市",
    "town": "図師町"
  },
  "1940204": {
    "zipcode": "1940204",
    "prefectureCode": "13",
    "prefectureNumber": 13,
    "prefecture": "東京都",
    "city": "町田市",
    "town": "小山田桜台"
  },
  "1940211": {
    "zipcode": "1940211",
    "prefectureCode": "13",
    "prefectureNumber": 13,
    "prefecture": "東京都",
    "city": "町田市",
    "town": "相原町"
  },
  "1940212": {
    "zipcode": "1940212",
    "prefectureCode": "13",
    "prefectureNumber": 13,
    "prefecture": "東京都",
    "city": "町田市",
    "town": "小山町"
  },
  "1940213": {
    "zipcode": "1940213",
    "prefectureCode": "13",
    "prefectureNumber": 13,
    "prefecture": "東京都",
    "city": "町田市",
    "town": "常盤町"
  },
  "1940214": {
    "zipcode": "1940214",
    "prefectureCode": "13",
    "prefectureNumber": 13,
    "prefecture": "東京都",
    "city": "町田市",
    "town": "矢部町"
  },
  "1940215": {
    "zipcode": "1940215",
    "prefectureCode": "13",
    "prefectureNumber": 13,
    "prefecture": "東京都",
    "city": "町田市",
    "town": "小山ヶ丘"
  }
}
