{
  "1950039": {
    "zipcode": "1950039",
    "prefectureCode": "13",
    "prefectureNumber": 13,
    "prefecture": "東京都",
    "city": "町田市",
    "town": "藤の台（３丁目）"
  },
  "1950051": {
    "zipcode": "1950051",
    "prefectureCode": "13",
    "prefectureNumber": 13,
    "prefecture": "東京都",
    "city": "町田市",
    "town": "真光寺町"
  },
  "1950052": {
    "zipcode": "1950052",
    "prefectureCode": "13",
    "prefectureNumber": 13,
    "prefecture": "東京都",
    "city": "町田市",
    "town": "広袴町"
  },
  "1950053": {
    "zipcode": "1950053",
    "prefectureCode": "13",
    "prefectureNumber": 13,
    "prefecture": "東京都",
    "city": "町田市",
    "town": "能ヶ谷"
  },
  "1950054": {
    "zipcode": "1950054",
    "prefectureCode": "13",
    "prefectureNumber": 13,
    "prefecture": "東京都",
    "city": "町田市",
    "town": "三輪町"
  },
  "1950055": {
    "zipcode": "1950055",
    "prefectureCode": "13",
    "prefectureNumber": 13,
    "prefecture": "東京都",
    "city": "町田市",
    "town": "三輪緑山"
  },
  "1950056": {
    "zipcode": "1950056",
    "prefectureCode": "13",
    "prefectureNumber": 13,
    "prefecture": "東京都",
    "city": "町田市",
    "town": "広袴"
  },
  "1950057": {
    "zipcode": "1950057",
    "prefectureCode": "13",
    "prefectureNumber": 13,
    "prefecture": "東京都",
    "city": "町田市",
    "town": "真光寺"
  },
  "1950061": {
    "zipcode": "1950061",
    "prefectureCode": "13",
    "prefectureNumber": 13,
    "prefecture": "東京都",
    "city": "町田市",
    "town": "鶴川"
  },
  "1950062": {
    "zipcode": "1950062",
    "prefectureCode": "13",
    "prefectureNumber": 13,
    "prefecture": "東京都",
    "city": "町田市",
    "town": "大蔵町"
  },
  "1950063": {
    "zipcode": "1950063",
    "prefectureCode": "13",
    "prefectureNumber": 13,
    "prefecture": "東京都",
    "city": "町田市",
    "town": "野津田町"
  },
  "1950064": {
    "zipcode": "1950064",
    "prefectureCode": "13",
    "prefectureNumber": 13,
    "prefecture": "東京都",
    "city": "町田市",
    "town": "小野路町"
  },
  "1950071": {
    "zipcode": "1950071",
    "prefectureCode": "13",
    "prefectureNumber": 13,
    "prefecture": "東京都",
    "city": "町田市",
    "town": "金井町"
  },
  "1950072": {
    "zipcode": "1950072",
    "prefectureCode": "13",
    "prefectureNumber": 13,
    "prefecture": "東京都",
    "city": "町田市",
    "town": "金井"
  },
  "1950073": {
    "zipcode": "1950073",
    "prefectureCode": "13",
    "prefectureNumber": 13,
    "prefecture": "東京都",
    "city": "町田市",
    "town": "薬師台"
  },
  "1950074": {
    "zipcode": "1950074",
    "prefectureCode": "13",
    "prefectureNumber": 13,
    "prefecture": "東京都",
    "city": "町田市",
    "town": "山崎町"
  },
  "1950075": {
    "zipcode": "1950075",
    "prefectureCode": "13",
    "prefectureNumber": 13,
    "prefecture": "東京都",
    "city": "町田市",
    "town": "山崎"
  },
  "1950076": {
    "zipcode": "1950076",
    "prefectureCode": "13",
    "prefectureNumber": 13,
    "prefecture": "東京都",
    "city": "町田市",
    "town": "金井ヶ丘"
  }
}
