{
  "1960000": {
    "zipcode": "1960000",
    "prefectureCode": "13",
    "prefectureNumber": 13,
    "prefecture": "東京都",
    "city": "昭島市",
    "town": "以下に掲載がない場合"
  },
  "1960001": {
    "zipcode": "1960001",
    "prefectureCode": "13",
    "prefectureNumber": 13,
    "prefecture": "東京都",
    "city": "昭島市",
    "town": "美堀町"
  },
  "1960002": {
    "zipcode": "1960002",
    "prefectureCode": "13",
    "prefectureNumber": 13,
    "prefecture": "東京都",
    "city": "昭島市",
    "town": "拝島町"
  },
  "1960003": {
    "zipcode": "1960003",
    "prefectureCode": "13",
    "prefectureNumber": 13,
    "prefecture": "東京都",
    "city": "昭島市",
    "town": "松原町"
  },
  "1960004": {
    "zipcode": "1960004",
    "prefectureCode": "13",
    "prefectureNumber": 13,
    "prefecture": "東京都",
    "city": "昭島市",
    "town": "緑町"
  },
  "1960005": {
    "zipcode": "1960005",
    "prefectureCode": "13",
    "prefectureNumber": 13,
    "prefecture": "東京都",
    "city": "昭島市",
    "town": "代官山"
  },
  "1960011": {
    "zipcode": "1960011",
    "prefectureCode": "13",
    "prefectureNumber": 13,
    "prefecture": "東京都",
    "city": "昭島市",
    "town": "上川原町"
  },
  "1960012": {
    "zipcode": "1960012",
    "prefectureCode": "13",
    "prefectureNumber": 13,
    "prefecture": "東京都",
    "city": "昭島市",
    "town": "つつじが丘"
  },
  "1960013": {
    "zipcode": "1960013",
    "prefectureCode": "13",
    "prefectureNumber": 13,
    "prefecture": "東京都",
    "city": "昭島市",
    "town": "大神町"
  },
  "1960014": {
    "zipcode": "1960014",
    "prefectureCode": "13",
    "prefectureNumber": 13,
    "prefecture": "東京都",
    "city": "昭島市",
    "town": "田中町"
  },
  "1960015": {
    "zipcode": "1960015",
    "prefectureCode": "13",
    "prefectureNumber": 13,
    "prefecture": "東京都",
    "city": "昭島市",
    "town": "昭和町"
  },
  "1960021": {
    "zipcode": "1960021",
    "prefectureCode": "13",
    "prefectureNumber": 13,
    "prefecture": "東京都",
    "city": "昭島市",
    "town": "武蔵野"
  },
  "1960022": {
    "zipcode": "1960022",
    "prefectureCode": "13",
    "prefectureNumber": 13,
    "prefecture": "東京都",
    "city": "昭島市",
    "town": "中神町"
  },
  "1960023": {
    "zipcode": "1960023",
    "prefectureCode": "13",
    "prefectureNumber": 13,
    "prefecture": "東京都",
    "city": "昭島市",
    "town": "築地町"
  },
  "1960024": {
    "zipcode": "1960024",
    "prefectureCode": "13",
    "prefectureNumber": 13,
    "prefecture": "東京都",
    "city": "昭島市",
    "town": "宮沢町"
  },
  "1960025": {
    "zipcode": "1960025",
    "prefectureCode": "13",
    "prefectureNumber": 13,
    "prefecture": "東京都",
    "city": "昭島市",
    "town": "朝日町"
  },
  "1960031": {
    "zipcode": "1960031",
    "prefectureCode": "13",
    "prefectureNumber": 13,
    "prefecture": "東京都",
    "city": "昭島市",
    "town": "福島町"
  },
  "1960032": {
    "zipcode": "1960032",
    "prefectureCode": "13",
    "prefectureNumber": 13,
    "prefecture": "東京都",
    "city": "昭島市",
    "town": "郷地町"
  },
  "1960033": {
    "zipcode": "1960033",
    "prefectureCode": "13",
    "prefectureNumber": 13,
    "prefecture": "東京都",
    "city": "昭島市",
    "town": "東町"
  },
  "1960034": {
    "zipcode": "1960034",
    "prefectureCode": "13",
    "prefectureNumber": 13,
    "prefecture": "東京都",
    "city": "昭島市",
    "town": "玉川町"
  },
  "1960035": {
    "zipcode": "1960035",
    "prefectureCode": "13",
    "prefectureNumber": 13,
    "prefecture": "東京都",
    "city": "昭島市",
    "town": "もくせいの杜"
  }
}
