{
  "1970000": {
    "zipcode": "1970000",
    "prefectureCode": "13",
    "prefectureNumber": 13,
    "prefecture": "東京都",
    "city": "福生市",
    "town": "以下に掲載がない場合"
  },
  "1970001": {
    "zipcode": "1970001",
    "prefectureCode": "13",
    "prefectureNumber": 13,
    "prefecture": "東京都",
    "city": "福生市",
    "town": "横田基地内"
  },
  "1970002": {
    "zipcode": "1970002",
    "prefectureCode": "13",
    "prefectureNumber": 13,
    "prefecture": "東京都",
    "city": "福生市",
    "town": "熊川二宮"
  },
  "1970003": {
    "zipcode": "1970003",
    "prefectureCode": "13",
    "prefectureNumber": 13,
    "prefecture": "東京都",
    "city": "福生市",
    "town": "熊川"
  },
  "1970004": {
    "zipcode": "1970004",
    "prefectureCode": "13",
    "prefectureNumber": 13,
    "prefecture": "東京都",
    "city": "福生市",
    "town": "南田園"
  },
  "1970005": {
    "zipcode": "1970005",
    "prefectureCode": "13",
    "prefectureNumber": 13,
    "prefecture": "東京都",
    "city": "福生市",
    "town": "北田園"
  },
  "1970011": {
    "zipcode": "1970011",
    "prefectureCode": "13",
    "prefectureNumber": 13,
    "prefecture": "東京都",
    "city": "福生市",
    "town": "福生"
  },
  "1970012": {
    "zipcode": "1970012",
    "prefectureCode": "13",
    "prefectureNumber": 13,
    "prefecture": "東京都",
    "city": "福生市",
    "town": "加美平"
  },
  "1970013": {
    "zipcode": "1970013",
    "prefectureCode": "13",
    "prefectureNumber": 13,
    "prefecture": "東京都",
    "city": "福生市",
    "town": "武蔵野台"
  },
  "1970014": {
    "zipcode": "1970014",
    "prefectureCode": "13",
    "prefectureNumber": 13,
    "prefecture": "東京都",
    "city": "福生市",
    "town": "福生二宮"
  },
  "1970021": {
    "zipcode": "1970021",
    "prefectureCode": "13",
    "prefectureNumber": 13,
    "prefecture": "東京都",
    "city": "福生市",
    "town": "東町"
  },
  "1970022": {
    "zipcode": "1970022",
    "prefectureCode": "13",
    "prefectureNumber": 13,
    "prefecture": "東京都",
    "city": "福生市",
    "town": "本町"
  },
  "1970023": {
    "zipcode": "1970023",
    "prefectureCode": "13",
    "prefectureNumber": 13,
    "prefecture": "東京都",
    "city": "福生市",
    "town": "志茂"
  },
  "1970024": {
    "zipcode": "1970024",
    "prefectureCode": "13",
    "prefectureNumber": 13,
    "prefecture": "東京都",
    "city": "福生市",
    "town": "牛浜"
  },
  "1970801": {
    "zipcode": "1970801",
    "prefectureCode": "13",
    "prefectureNumber": 13,
    "prefecture": "東京都",
    "city": "あきる野市",
    "town": "菅生"
  },
  "1970802": {
    "zipcode": "1970802",
    "prefectureCode": "13",
    "prefectureNumber": 13,
    "prefecture": "東京都",
    "city": "あきる野市",
    "town": "草花"
  },
  "1970803": {
    "zipcode": "1970803",
    "prefectureCode": "13",
    "prefectureNumber": 13,
    "prefecture": "東京都",
    "city": "あきる野市",
    "town": "瀬戸岡"
  },
  "1970804": {
    "zipcode": "1970804",
    "prefectureCode": "13",
    "prefectureNumber": 13,
    "prefecture": "東京都",
    "city": "あきる野市",
    "town": "秋川"
  },
  "1970811": {
    "zipcode": "1970811",
    "prefectureCode": "13",
    "prefectureNumber": 13,
    "prefecture": "東京都",
    "city": "あきる野市",
    "town": "原小宮"
  },
  "1970812": {
    "zipcode": "1970812",
    "prefectureCode": "13",
    "prefectureNumber": 13,
    "prefecture": "東京都",
    "city": "あきる野市",
    "town": "平沢"
  },
  "1970813": {
    "zipcode": "1970813",
    "prefectureCode": "13",
    "prefectureNumber": 13,
    "prefecture": "東京都",
    "city": "あきる野市",
    "town": "平沢東"
  },
  "1970814": {
    "zipcode": "1970814",
    "prefectureCode": "13",
    "prefectureNumber": 13,
    "prefecture": "東京都",
    "city": "あきる野市",
    "town": "二宮"
  },
  "1970815": {
    "zipcode": "1970815",
    "prefectureCode": "13",
    "prefectureNumber": 13,
    "prefecture": "東京都",
    "city": "あきる野市",
    "town": "二宮東"
  },
  "1970816": {
    "zipcode": "1970816",
    "prefectureCode": "13",
    "prefectureNumber": 13,
    "prefecture": "東京都",
    "city": "あきる野市",
    "town": "平沢西"
  },
  "1970821": {
    "zipcode": "1970821",
    "prefectureCode": "13",
    "prefectureNumber": 13,
    "prefecture": "東京都",
    "city": "あきる野市",
    "town": "小川"
  },
  "1970822": {
    "zipcode": "1970822",
    "prefectureCode": "13",
    "prefectureNumber": 13,
    "prefecture": "東京都",
    "city": "あきる野市",
    "town": "小川東"
  },
  "1970823": {
    "zipcode": "1970823",
    "prefectureCode": "13",
    "prefectureNumber": 13,
    "prefecture": "東京都",
    "city": "あきる野市",
    "town": "野辺"
  },
  "1970824": {
    "zipcode": "1970824",
    "prefectureCode": "13",
    "prefectureNumber": 13,
    "prefecture": "東京都",
    "city": "あきる野市",
    "town": "切欠"
  },
  "1970825": {
    "zipcode": "1970825",
    "prefectureCode": "13",
    "prefectureNumber": 13,
    "prefecture": "東京都",
    "city": "あきる野市",
    "town": "雨間"
  },
  "1970826": {
    "zipcode": "1970826",
    "prefectureCode": "13",
    "prefectureNumber": 13,
    "prefecture": "東京都",
    "city": "あきる野市",
    "town": "牛沼"
  },
  "1970827": {
    "zipcode": "1970827",
    "prefectureCode": "13",
    "prefectureNumber": 13,
    "prefecture": "東京都",
    "city": "あきる野市",
    "town": "油平"
  },
  "1970828": {
    "zipcode": "1970828",
    "prefectureCode": "13",
    "prefectureNumber": 13,
    "prefecture": "東京都",
    "city": "あきる野市",
    "town": "秋留"
  },
  "1970831": {
    "zipcode": "1970831",
    "prefectureCode": "13",
    "prefectureNumber": 13,
    "prefecture": "東京都",
    "city": "あきる野市",
    "town": "下代継"
  },
  "1970832": {
    "zipcode": "1970832",
    "prefectureCode": "13",
    "prefectureNumber": 13,
    "prefecture": "東京都",
    "city": "あきる野市",
    "town": "上代継"
  },
  "1970833": {
    "zipcode": "1970833",
    "prefectureCode": "13",
    "prefectureNumber": 13,
    "prefecture": "東京都",
    "city": "あきる野市",
    "town": "渕上"
  },
  "1970834": {
    "zipcode": "1970834",
    "prefectureCode": "13",
    "prefectureNumber": 13,
    "prefecture": "東京都",
    "city": "あきる野市",
    "town": "引田"
  }
}
