{
  "1980000": {
    "zipcode": "1980000",
    "prefectureCode": "13",
    "prefectureNumber": 13,
    "prefecture": "東京都",
    "city": "西多摩郡奥多摩町",
    "town": "以下に掲載がない場合"
  },
  "1980001": {
    "zipcode": "1980001",
    "prefectureCode": "13",
    "prefectureNumber": 13,
    "prefecture": "東京都",
    "city": "青梅市",
    "town": "成木"
  },
  "1980002": {
    "zipcode": "1980002",
    "prefectureCode": "13",
    "prefectureNumber": 13,
    "prefecture": "東京都",
    "city": "青梅市",
    "town": "富岡"
  },
  "1980003": {
    "zipcode": "1980003",
    "prefectureCode": "13",
    "prefectureNumber": 13,
    "prefecture": "東京都",
    "city": "青梅市",
    "town": "小曾木"
  },
  "1980004": {
    "zipcode": "1980004",
    "prefectureCode": "13",
    "prefectureNumber": 13,
    "prefecture": "東京都",
    "city": "青梅市",
    "town": "根ケ布"
  },
  "1980005": {
    "zipcode": "1980005",
    "prefectureCode": "13",
    "prefectureNumber": 13,
    "prefecture": "東京都",
    "city": "青梅市",
    "town": "黒沢"
  },
  "1980011": {
    "zipcode": "1980011",
    "prefectureCode": "13",
    "prefectureNumber": 13,
    "prefecture": "東京都",
    "city": "青梅市",
    "town": "塩船"
  },
  "1980012": {
    "zipcode": "1980012",
    "prefectureCode": "13",
    "prefectureNumber": 13,
    "prefecture": "東京都",
    "city": "青梅市",
    "town": "谷野"
  },
  "1980013": {
    "zipcode": "1980013",
    "prefectureCode": "13",
    "prefectureNumber": 13,
    "prefecture": "東京都",
    "city": "青梅市",
    "town": "木野下"
  },
  "1980014": {
    "zipcode": "1980014",
    "prefectureCode": "13",
    "prefectureNumber": 13,
    "prefecture": "東京都",
    "city": "青梅市",
    "town": "大門"
  },
  "1980015": {
    "zipcode": "1980015",
    "prefectureCode": "13",
    "prefectureNumber": 13,
    "prefecture": "東京都",
    "city": "青梅市",
    "town": "吹上"
  },
  "1980021": {
    "zipcode": "1980021",
    "prefectureCode": "13",
    "prefectureNumber": 13,
    "prefecture": "東京都",
    "city": "青梅市",
    "town": "今寺"
  },
  "1980022": {
    "zipcode": "1980022",
    "prefectureCode": "13",
    "prefectureNumber": 13,
    "prefecture": "東京都",
    "city": "青梅市",
    "town": "藤橋"
  },
  "1980023": {
    "zipcode": "1980023",
    "prefectureCode": "13",
    "prefectureNumber": 13,
    "prefecture": "東京都",
    "city": "青梅市",
    "town": "今井"
  },
  "1980024": {
    "zipcode": "1980024",
    "prefectureCode": "13",
    "prefectureNumber": 13,
    "prefecture": "東京都",
    "city": "青梅市",
    "town": "新町"
  },
  "1980025": {
    "zipcode": "1980025",
    "prefectureCode": "13",
    "prefectureNumber": 13,
    "prefecture": "東京都",
    "city": "青梅市",
    "town": "末広町"
  },
  "1980031": {
    "zipcode": "1980031",
    "prefectureCode": "13",
    "prefectureNumber": 13,
    "prefecture": "東京都",
    "city": "青梅市",
    "town": "師岡町"
  },
  "1980032": {
    "zipcode": "1980032",
    "prefectureCode": "13",
    "prefectureNumber": 13,
    "prefecture": "東京都",
    "city": "青梅市",
    "town": "野上町"
  },
  "1980036": {
    "zipcode": "1980036",
    "prefectureCode": "13",
    "prefectureNumber": 13,
    "prefecture": "東京都",
    "city": "青梅市",
    "town": "河辺町"
  },
  "1980041": {
    "zipcode": "1980041",
    "prefectureCode": "13",
    "prefectureNumber": 13,
    "prefecture": "東京都",
    "city": "青梅市",
    "town": "勝沼"
  },
  "1980042": {
    "zipcode": "1980042",
    "prefectureCode": "13",
    "prefectureNumber": 13,
    "prefecture": "東京都",
    "city": "青梅市",
    "town": "東青梅"
  },
  "1980043": {
    "zipcode": "1980043",
    "prefectureCode": "13",
    "prefectureNumber": 13,
    "prefecture": "東京都",
    "city": "青梅市",
    "town": "千ケ瀬町"
  },
  "1980044": {
    "zipcode": "1980044",
    "prefectureCode": "13",
    "prefectureNumber": 13,
    "prefecture": "東京都",
    "city": "青梅市",
    "town": "西分町"
  },
  "1980046": {
    "zipcode": "1980046",
    "prefectureCode": "13",
    "prefectureNumber": 13,
    "prefecture": "東京都",
    "city": "青梅市",
    "town": "日向和田"
  },
  "1980051": {
    "zipcode": "1980051",
    "prefectureCode": "13",
    "prefectureNumber": 13,
    "prefecture": "東京都",
    "city": "青梅市",
    "town": "友田町"
  },
  "1980052": {
    "zipcode": "1980052",
    "prefectureCode": "13",
    "prefectureNumber": 13,
    "prefecture": "東京都",
    "city": "青梅市",
    "town": "長淵"
  },
  "1980053": {
    "zipcode": "1980053",
    "prefectureCode": "13",
    "prefectureNumber": 13,
    "prefecture": "東京都",
    "city": "青梅市",
    "town": "駒木町"
  },
  "1980061": {
    "zipcode": "1980061",
    "prefectureCode": "13",
    "prefectureNumber": 13,
    "prefecture": "東京都",
    "city": "青梅市",
    "town": "畑中"
  },
  "1980062": {
    "zipcode": "1980062",
    "prefectureCode": "13",
    "prefectureNumber": 13,
    "prefecture": "東京都",
    "city": "青梅市",
    "town": "和田町"
  },
  "1980063": {
    "zipcode": "1980063",
    "prefectureCode": "13",
    "prefectureNumber": 13,
    "prefecture": "東京都",
    "city": "青梅市",
    "town": "梅郷"
  },
  "1980064": {
    "zipcode": "1980064",
    "prefectureCode": "13",
    "prefectureNumber": 13,
    "prefecture": "東京都",
    "city": "青梅市",
    "town": "柚木町"
  },
  "1980081": {
    "zipcode": "1980081",
    "prefectureCode": "13",
    "prefectureNumber": 13,
    "prefecture": "東京都",
    "city": "青梅市",
    "town": "上町"
  },
  "1980082": {
    "zipcode": "1980082",
    "prefectureCode": "13",
    "prefectureNumber": 13,
    "prefecture": "東京都",
    "city": "青梅市",
    "town": "仲町"
  },
  "1980083": {
    "zipcode": "1980083",
    "prefectureCode": "13",
    "prefectureNumber": 13,
    "prefecture": "東京都",
    "city": "青梅市",
    "town": "本町"
  },
  "1980084": {
    "zipcode": "1980084",
    "prefectureCode": "13",
    "prefectureNumber": 13,
    "prefecture": "東京都",
    "city": "青梅市",
    "town": "住江町"
  },
  "1980085": {
    "zipcode": "1980085",
    "prefectureCode": "13",
    "prefectureNumber": 13,
    "prefecture": "東京都",
    "city": "青梅市",
    "town": "滝ノ上町"
  },
  "1980086": {
    "zipcode": "1980086",
    "prefectureCode": "13",
    "prefectureNumber": 13,
    "prefecture": "東京都",
    "city": "青梅市",
    "town": "大柳町"
  },
  "1980087": {
    "zipcode": "1980087",
    "prefectureCode": "13",
    "prefectureNumber": 13,
    "prefecture": "東京都",
    "city": "青梅市",
    "town": "天ケ瀬町"
  },
  "1980088": {
    "zipcode": "1980088",
    "prefectureCode": "13",
    "prefectureNumber": 13,
    "prefecture": "東京都",
    "city": "青梅市",
    "town": "裏宿町"
  },
  "1980089": {
    "zipcode": "1980089",
    "prefectureCode": "13",
    "prefectureNumber": 13,
    "prefecture": "東京都",
    "city": "青梅市",
    "town": "森下町"
  },
  "1980101": {
    "zipcode": "1980101",
    "prefectureCode": "13",
    "prefectureNumber": 13,
    "prefecture": "東京都",
    "city": "西多摩郡奥多摩町",
    "town": "大丹波"
  },
  "1980102": {
    "zipcode": "1980102",
    "prefectureCode": "13",
    "prefectureNumber": 13,
    "prefecture": "東京都",
    "city": "西多摩郡奥多摩町",
    "town": "川井"
  },
  "1980103": {
    "zipcode": "1980103",
    "prefectureCode": "13",
    "prefectureNumber": 13,
    "prefecture": "東京都",
    "city": "西多摩郡奥多摩町",
    "town": "梅沢"
  },
  "1980104": {
    "zipcode": "1980104",
    "prefectureCode": "13",
    "prefectureNumber": 13,
    "prefecture": "東京都",
    "city": "西多摩郡奥多摩町",
    "town": "丹三郎"
  },
  "1980105": {
    "zipcode": "1980105",
    "prefectureCode": "13",
    "prefectureNumber": 13,
    "prefecture": "東京都",
    "city": "西多摩郡奥多摩町",
    "town": "小丹波"
  },
  "1980106": {
    "zipcode": "1980106",
    "prefectureCode": "13",
    "prefectureNumber": 13,
    "prefecture": "東京都",
    "city": "西多摩郡奥多摩町",
    "town": "棚沢"
  },
  "1980107": {
    "zipcode": "1980107",
    "prefectureCode": "13",
    "prefectureNumber": 13,
    "prefecture": "東京都",
    "city": "西多摩郡奥多摩町",
    "town": "白丸"
  },
  "1980171": {
    "zipcode": "1980171",
    "prefectureCode": "13",
    "prefectureNumber": 13,
    "prefecture": "東京都",
    "city": "青梅市",
    "town": "二俣尾"
  },
  "1980172": {
    "zipcode": "1980172",
    "prefectureCode": "13",
    "prefectureNumber": 13,
    "prefecture": "東京都",
    "city": "青梅市",
    "town": "沢井"
  },
  "1980173": {
    "zipcode": "1980173",
    "prefectureCode": "13",
    "prefectureNumber": 13,
    "prefecture": "東京都",
    "city": "青梅市",
    "town": "御岳本町"
  },
  "1980174": {
    "zipcode": "1980174",
    "prefectureCode": "13",
    "prefectureNumber": 13,
    "prefecture": "東京都",
    "city": "青梅市",
    "town": "御岳"
  },
  "1980175": {
    "zipcode": "1980175",
    "prefectureCode": "13",
    "prefectureNumber": 13,
    "prefecture": "東京都",
    "city": "青梅市",
    "town": "御岳山"
  },
  "1980211": {
    "zipcode": "1980211",
    "prefectureCode": "13",
    "prefectureNumber": 13,
    "prefecture": "東京都",
    "city": "西多摩郡奥多摩町",
    "town": "日原"
  },
  "1980212": {
    "zipcode": "1980212",
    "prefectureCode": "13",
    "prefectureNumber": 13,
    "prefecture": "東京都",
    "city": "西多摩郡奥多摩町",
    "town": "氷川"
  },
  "1980213": {
    "zipcode": "1980213",
    "prefectureCode": "13",
    "prefectureNumber": 13,
    "prefecture": "東京都",
    "city": "西多摩郡奥多摩町",
    "town": "海沢"
  },
  "1980221": {
    "zipcode": "1980221",
    "prefectureCode": "13",
    "prefectureNumber": 13,
    "prefecture": "東京都",
    "city": "西多摩郡奥多摩町",
    "town": "留浦"
  },
  "1980222": {
    "zipcode": "1980222",
    "prefectureCode": "13",
    "prefectureNumber": 13,
    "prefecture": "東京都",
    "city": "西多摩郡奥多摩町",
    "town": "境"
  },
  "1980223": {
    "zipcode": "1980223",
    "prefectureCode": "13",
    "prefectureNumber": 13,
    "prefecture": "東京都",
    "city": "西多摩郡奥多摩町",
    "town": "原"
  },
  "1980224": {
    "zipcode": "1980224",
    "prefectureCode": "13",
    "prefectureNumber": 13,
    "prefecture": "東京都",
    "city": "西多摩郡奥多摩町",
    "town": "河内"
  },
  "1980225": {
    "zipcode": "1980225",
    "prefectureCode": "13",
    "prefectureNumber": 13,
    "prefecture": "東京都",
    "city": "西多摩郡奥多摩町",
    "town": "川野"
  }
}
