{
  "2010000": {
    "zipcode": "2010000",
    "prefectureCode": "13",
    "prefectureNumber": 13,
    "prefecture": "東京都",
    "city": "狛江市",
    "town": "以下に掲載がない場合"
  },
  "2010001": {
    "zipcode": "2010001",
    "prefectureCode": "13",
    "prefectureNumber": 13,
    "prefecture": "東京都",
    "city": "狛江市",
    "town": "西野川"
  },
  "2010002": {
    "zipcode": "2010002",
    "prefectureCode": "13",
    "prefectureNumber": 13,
    "prefecture": "東京都",
    "city": "狛江市",
    "town": "東野川"
  },
  "2010003": {
    "zipcode": "2010003",
    "prefectureCode": "13",
    "prefectureNumber": 13,
    "prefecture": "東京都",
    "city": "狛江市",
    "town": "和泉本町"
  },
  "2010004": {
    "zipcode": "2010004",
    "prefectureCode": "13",
    "prefectureNumber": 13,
    "prefecture": "東京都",
    "city": "狛江市",
    "town": "岩戸北"
  },
  "2010005": {
    "zipcode": "2010005",
    "prefectureCode": "13",
    "prefectureNumber": 13,
    "prefecture": "東京都",
    "city": "狛江市",
    "town": "岩戸南"
  },
  "2010011": {
    "zipcode": "2010011",
    "prefectureCode": "13",
    "prefectureNumber": 13,
    "prefecture": "東京都",
    "city": "狛江市",
    "town": "西和泉"
  },
  "2010012": {
    "zipcode": "2010012",
    "prefectureCode": "13",
    "prefectureNumber": 13,
    "prefecture": "東京都",
    "city": "狛江市",
    "town": "中和泉"
  },
  "2010013": {
    "zipcode": "2010013",
    "prefectureCode": "13",
    "prefectureNumber": 13,
    "prefecture": "東京都",
    "city": "狛江市",
    "town": "元和泉"
  },
  "2010014": {
    "zipcode": "2010014",
    "prefectureCode": "13",
    "prefectureNumber": 13,
    "prefecture": "東京都",
    "city": "狛江市",
    "town": "東和泉"
  },
  "2010015": {
    "zipcode": "2010015",
    "prefectureCode": "13",
    "prefectureNumber": 13,
    "prefecture": "東京都",
    "city": "狛江市",
    "town": "猪方"
  },
  "2010016": {
    "zipcode": "2010016",
    "prefectureCode": "13",
    "prefectureNumber": 13,
    "prefecture": "東京都",
    "city": "狛江市",
    "town": "駒井町"
  }
}
