{
  "2020000": {
    "zipcode": "2020000",
    "prefectureCode": "13",
    "prefectureNumber": 13,
    "prefecture": "東京都",
    "city": "西東京市",
    "town": "以下に掲載がない場合"
  },
  "2020001": {
    "zipcode": "2020001",
    "prefectureCode": "13",
    "prefectureNumber": 13,
    "prefecture": "東京都",
    "city": "西東京市",
    "town": "ひばりが丘"
  },
  "2020002": {
    "zipcode": "2020002",
    "prefectureCode": "13",
    "prefectureNumber": 13,
    "prefecture": "東京都",
    "city": "西東京市",
    "town": "ひばりが丘北"
  },
  "2020003": {
    "zipcode": "2020003",
    "prefectureCode": "13",
    "prefectureNumber": 13,
    "prefecture": "東京都",
    "city": "西東京市",
    "town": "北町"
  },
  "2020004": {
    "zipcode": "2020004",
    "prefectureCode": "13",
    "prefectureNumber": 13,
    "prefecture": "東京都",
    "city": "西東京市",
    "town": "下保谷"
  },
  "2020005": {
    "zipcode": "2020005",
    "prefectureCode": "13",
    "prefectureNumber": 13,
    "prefecture": "東京都",
    "city": "西東京市",
    "town": "住吉町"
  },
  "2020006": {
    "zipcode": "2020006",
    "prefectureCode": "13",
    "prefectureNumber": 13,
    "prefecture": "東京都",
    "city": "西東京市",
    "town": "栄町"
  },
  "2020011": {
    "zipcode": "2020011",
    "prefectureCode": "13",
    "prefectureNumber": 13,
    "prefecture": "東京都",
    "city": "西東京市",
    "town": "泉町"
  },
  "2020012": {
    "zipcode": "2020012",
    "prefectureCode": "13",
    "prefectureNumber": 13,
    "prefecture": "東京都",
    "city": "西東京市",
    "town": "東町"
  },
  "2020013": {
    "zipcode": "2020013",
    "prefectureCode": "13",
    "prefectureNumber": 13,
    "prefecture": "東京都",
    "city": "西東京市",
    "town": "中町"
  },
  "2020014": {
    "zipcode": "2020014",
    "prefectureCode": "13",
    "prefectureNumber": 13,
    "prefecture": "東京都",
    "city": "西東京市",
    "town": "富士町"
  },
  "2020015": {
    "zipcode": "2020015",
    "prefectureCode": "13",
    "prefectureNumber": 13,
    "prefecture": "東京都",
    "city": "西東京市",
    "town": "保谷町"
  },
  "2020021": {
    "zipcode": "2020021",
    "prefectureCode": "13",
    "prefectureNumber": 13,
    "prefecture": "東京都",
    "city": "西東京市",
    "town": "東伏見"
  },
  "2020022": {
    "zipcode": "2020022",
    "prefectureCode": "13",
    "prefectureNumber": 13,
    "prefecture": "東京都",
    "city": "西東京市",
    "town": "柳沢"
  },
  "2020023": {
    "zipcode": "2020023",
    "prefectureCode": "13",
    "prefectureNumber": 13,
    "prefecture": "東京都",
    "city": "西東京市",
    "town": "新町"
  }
}
