{
  "2050000": {
    "zipcode": "2050000",
    "prefectureCode": "13",
    "prefectureNumber": 13,
    "prefecture": "東京都",
    "city": "羽村市",
    "town": "以下に掲載がない場合"
  },
  "2050001": {
    "zipcode": "2050001",
    "prefectureCode": "13",
    "prefectureNumber": 13,
    "prefecture": "東京都",
    "city": "羽村市",
    "town": "小作台"
  },
  "2050002": {
    "zipcode": "2050002",
    "prefectureCode": "13",
    "prefectureNumber": 13,
    "prefecture": "東京都",
    "city": "羽村市",
    "town": "栄町"
  },
  "2050003": {
    "zipcode": "2050003",
    "prefectureCode": "13",
    "prefectureNumber": 13,
    "prefecture": "東京都",
    "city": "羽村市",
    "town": "緑ケ丘"
  },
  "2050011": {
    "zipcode": "2050011",
    "prefectureCode": "13",
    "prefectureNumber": 13,
    "prefecture": "東京都",
    "city": "羽村市",
    "town": "五ノ神"
  },
  "2050012": {
    "zipcode": "2050012",
    "prefectureCode": "13",
    "prefectureNumber": 13,
    "prefecture": "東京都",
    "city": "羽村市",
    "town": "羽"
  },
  "2050013": {
    "zipcode": "2050013",
    "prefectureCode": "13",
    "prefectureNumber": 13,
    "prefecture": "東京都",
    "city": "羽村市",
    "town": "富士見平"
  },
  "2050014": {
    "zipcode": "2050014",
    "prefectureCode": "13",
    "prefectureNumber": 13,
    "prefecture": "東京都",
    "city": "羽村市",
    "town": "羽東"
  },
  "2050015": {
    "zipcode": "2050015",
    "prefectureCode": "13",
    "prefectureNumber": 13,
    "prefecture": "東京都",
    "city": "羽村市",
    "town": "羽中"
  },
  "2050016": {
    "zipcode": "2050016",
    "prefectureCode": "13",
    "prefectureNumber": 13,
    "prefecture": "東京都",
    "city": "羽村市",
    "town": "羽加美"
  },
  "2050017": {
    "zipcode": "2050017",
    "prefectureCode": "13",
    "prefectureNumber": 13,
    "prefecture": "東京都",
    "city": "羽村市",
    "town": "羽西"
  },
  "2050021": {
    "zipcode": "2050021",
    "prefectureCode": "13",
    "prefectureNumber": 13,
    "prefecture": "東京都",
    "city": "羽村市",
    "town": "川崎"
  },
  "2050022": {
    "zipcode": "2050022",
    "prefectureCode": "13",
    "prefectureNumber": 13,
    "prefecture": "東京都",
    "city": "羽村市",
    "town": "双葉町"
  },
  "2050023": {
    "zipcode": "2050023",
    "prefectureCode": "13",
    "prefectureNumber": 13,
    "prefecture": "東京都",
    "city": "羽村市",
    "town": "神明台"
  },
  "2050024": {
    "zipcode": "2050024",
    "prefectureCode": "13",
    "prefectureNumber": 13,
    "prefecture": "東京都",
    "city": "羽村市",
    "town": "玉川"
  }
}
