{
  "2080000": {
    "zipcode": "2080000",
    "prefectureCode": "13",
    "prefectureNumber": 13,
    "prefecture": "東京都",
    "city": "武蔵村山市",
    "town": "以下に掲載がない場合"
  },
  "2080001": {
    "zipcode": "2080001",
    "prefectureCode": "13",
    "prefectureNumber": 13,
    "prefecture": "東京都",
    "city": "武蔵村山市",
    "town": "中藤"
  },
  "2080002": {
    "zipcode": "2080002",
    "prefectureCode": "13",
    "prefectureNumber": 13,
    "prefecture": "東京都",
    "city": "武蔵村山市",
    "town": "神明"
  },
  "2080003": {
    "zipcode": "2080003",
    "prefectureCode": "13",
    "prefectureNumber": 13,
    "prefecture": "東京都",
    "city": "武蔵村山市",
    "town": "中央"
  },
  "2080004": {
    "zipcode": "2080004",
    "prefectureCode": "13",
    "prefectureNumber": 13,
    "prefecture": "東京都",
    "city": "武蔵村山市",
    "town": "本町"
  },
  "2080011": {
    "zipcode": "2080011",
    "prefectureCode": "13",
    "prefectureNumber": 13,
    "prefecture": "東京都",
    "city": "武蔵村山市",
    "town": "学園"
  },
  "2080012": {
    "zipcode": "2080012",
    "prefectureCode": "13",
    "prefectureNumber": 13,
    "prefecture": "東京都",
    "city": "武蔵村山市",
    "town": "緑が丘"
  },
  "2080013": {
    "zipcode": "2080013",
    "prefectureCode": "13",
    "prefectureNumber": 13,
    "prefecture": "東京都",
    "city": "武蔵村山市",
    "town": "大南"
  },
  "2080021": {
    "zipcode": "2080021",
    "prefectureCode": "13",
    "prefectureNumber": 13,
    "prefecture": "東京都",
    "city": "武蔵村山市",
    "town": "三ツ藤"
  },
  "2080022": {
    "zipcode": "2080022",
    "prefectureCode": "13",
    "prefectureNumber": 13,
    "prefecture": "東京都",
    "city": "武蔵村山市",
    "town": "榎"
  },
  "2080023": {
    "zipcode": "2080023",
    "prefectureCode": "13",
    "prefectureNumber": 13,
    "prefecture": "東京都",
    "city": "武蔵村山市",
    "town": "伊奈平"
  },
  "2080031": {
    "zipcode": "2080031",
    "prefectureCode": "13",
    "prefectureNumber": 13,
    "prefecture": "東京都",
    "city": "武蔵村山市",
    "town": "岸"
  },
  "2080032": {
    "zipcode": "2080032",
    "prefectureCode": "13",
    "prefectureNumber": 13,
    "prefecture": "東京都",
    "city": "武蔵村山市",
    "town": "三ツ木（１〜５丁目）"
  },
  "2080033": {
    "zipcode": "2080033",
    "prefectureCode": "13",
    "prefectureNumber": 13,
    "prefecture": "東京都",
    "city": "武蔵村山市",
    "town": "三ツ木（大字）"
  },
  "2080034": {
    "zipcode": "2080034",
    "prefectureCode": "13",
    "prefectureNumber": 13,
    "prefecture": "東京都",
    "city": "武蔵村山市",
    "town": "残堀"
  },
  "2080035": {
    "zipcode": "2080035",
    "prefectureCode": "13",
    "prefectureNumber": 13,
    "prefecture": "東京都",
    "city": "武蔵村山市",
    "town": "中原"
  }
}
