{
  "2110000": {
    "zipcode": "2110000",
    "prefectureCode": "14",
    "prefectureNumber": 14,
    "prefecture": "神奈川県",
    "city": "川崎市中原区",
    "town": "以下に掲載がない場合"
  },
  "2110001": {
    "zipcode": "2110001",
    "prefectureCode": "14",
    "prefectureNumber": 14,
    "prefecture": "神奈川県",
    "city": "川崎市中原区",
    "town": "上丸子八幡町"
  },
  "2110002": {
    "zipcode": "2110002",
    "prefectureCode": "14",
    "prefectureNumber": 14,
    "prefecture": "神奈川県",
    "city": "川崎市中原区",
    "town": "上丸子山王町"
  },
  "2110003": {
    "zipcode": "2110003",
    "prefectureCode": "14",
    "prefectureNumber": 14,
    "prefecture": "神奈川県",
    "city": "川崎市中原区",
    "town": "上丸子"
  },
  "2110004": {
    "zipcode": "2110004",
    "prefectureCode": "14",
    "prefectureNumber": 14,
    "prefecture": "神奈川県",
    "city": "川崎市中原区",
    "town": "新丸子東"
  },
  "2110005": {
    "zipcode": "2110005",
    "prefectureCode": "14",
    "prefectureNumber": 14,
    "prefecture": "神奈川県",
    "city": "川崎市中原区",
    "town": "新丸子町"
  },
  "2110006": {
    "zipcode": "2110006",
    "prefectureCode": "14",
    "prefectureNumber": 14,
    "prefecture": "神奈川県",
    "city": "川崎市中原区",
    "town": "丸子通"
  },
  "2110007": {
    "zipcode": "2110007",
    "prefectureCode": "14",
    "prefectureNumber": 14,
    "prefecture": "神奈川県",
    "city": "川崎市中原区",
    "town": "上丸子天神町"
  },
  "2110011": {
    "zipcode": "2110011",
    "prefectureCode": "14",
    "prefectureNumber": 14,
    "prefecture": "神奈川県",
    "city": "川崎市中原区",
    "town": "下沼部"
  },
  "2110012": {
    "zipcode": "2110012",
    "prefectureCode": "14",
    "prefectureNumber": 14,
    "prefecture": "神奈川県",
    "city": "川崎市中原区",
    "town": "中丸子"
  },
  "2110013": {
    "zipcode": "2110013",
    "prefectureCode": "14",
    "prefectureNumber": 14,
    "prefecture": "神奈川県",
    "city": "川崎市中原区",
    "town": "上平間"
  },
  "2110014": {
    "zipcode": "2110014",
    "prefectureCode": "14",
    "prefectureNumber": 14,
    "prefecture": "神奈川県",
    "city": "川崎市中原区",
    "town": "田尻町"
  },
  "2110015": {
    "zipcode": "2110015",
    "prefectureCode": "14",
    "prefectureNumber": 14,
    "prefecture": "神奈川県",
    "city": "川崎市中原区",
    "town": "北谷町"
  },
  "2110016": {
    "zipcode": "2110016",
    "prefectureCode": "14",
    "prefectureNumber": 14,
    "prefecture": "神奈川県",
    "city": "川崎市中原区",
    "town": "市ノ坪"
  },
  "2110021": {
    "zipcode": "2110021",
    "prefectureCode": "14",
    "prefectureNumber": 14,
    "prefecture": "神奈川県",
    "city": "川崎市中原区",
    "town": "木月住吉町"
  },
  "2110022": {
    "zipcode": "2110022",
    "prefectureCode": "14",
    "prefectureNumber": 14,
    "prefecture": "神奈川県",
    "city": "川崎市中原区",
    "town": "苅宿"
  },
  "2110023": {
    "zipcode": "2110023",
    "prefectureCode": "14",
    "prefectureNumber": 14,
    "prefecture": "神奈川県",
    "city": "川崎市中原区",
    "town": "大倉町"
  },
  "2110024": {
    "zipcode": "2110024",
    "prefectureCode": "14",
    "prefectureNumber": 14,
    "prefecture": "神奈川県",
    "city": "川崎市中原区",
    "town": "西加瀬"
  },
  "2110025": {
    "zipcode": "2110025",
    "prefectureCode": "14",
    "prefectureNumber": 14,
    "prefecture": "神奈川県",
    "city": "川崎市中原区",
    "town": "木月"
  },
  "2110031": {
    "zipcode": "2110031",
    "prefectureCode": "14",
    "prefectureNumber": 14,
    "prefecture": "神奈川県",
    "city": "川崎市中原区",
    "town": "木月大町"
  },
  "2110032": {
    "zipcode": "2110032",
    "prefectureCode": "14",
    "prefectureNumber": 14,
    "prefecture": "神奈川県",
    "city": "川崎市中原区",
    "town": "木月伊勢町"
  },
  "2110033": {
    "zipcode": "2110033",
    "prefectureCode": "14",
    "prefectureNumber": 14,
    "prefecture": "神奈川県",
    "city": "川崎市中原区",
    "town": "木月祗園町"
  },
  "2110034": {
    "zipcode": "2110034",
    "prefectureCode": "14",
    "prefectureNumber": 14,
    "prefecture": "神奈川県",
    "city": "川崎市中原区",
    "town": "井田中ノ町"
  },
  "2110035": {
    "zipcode": "2110035",
    "prefectureCode": "14",
    "prefectureNumber": 14,
    "prefecture": "神奈川県",
    "city": "川崎市中原区",
    "town": "井田"
  },
  "2110036": {
    "zipcode": "2110036",
    "prefectureCode": "14",
    "prefectureNumber": 14,
    "prefecture": "神奈川県",
    "city": "川崎市中原区",
    "town": "井田杉山町"
  },
  "2110037": {
    "zipcode": "2110037",
    "prefectureCode": "14",
    "prefectureNumber": 14,
    "prefecture": "神奈川県",
    "city": "川崎市中原区",
    "town": "井田三舞町"
  },
  "2110041": {
    "zipcode": "2110041",
    "prefectureCode": "14",
    "prefectureNumber": 14,
    "prefecture": "神奈川県",
    "city": "川崎市中原区",
    "town": "下小田中"
  },
  "2110042": {
    "zipcode": "2110042",
    "prefectureCode": "14",
    "prefectureNumber": 14,
    "prefecture": "神奈川県",
    "city": "川崎市中原区",
    "town": "下新城"
  },
  "2110043": {
    "zipcode": "2110043",
    "prefectureCode": "14",
    "prefectureNumber": 14,
    "prefecture": "神奈川県",
    "city": "川崎市中原区",
    "town": "新城中町"
  },
  "2110044": {
    "zipcode": "2110044",
    "prefectureCode": "14",
    "prefectureNumber": 14,
    "prefecture": "神奈川県",
    "city": "川崎市中原区",
    "town": "新城"
  },
  "2110045": {
    "zipcode": "2110045",
    "prefectureCode": "14",
    "prefectureNumber": 14,
    "prefecture": "神奈川県",
    "city": "川崎市中原区",
    "town": "上新城"
  },
  "2110051": {
    "zipcode": "2110051",
    "prefectureCode": "14",
    "prefectureNumber": 14,
    "prefecture": "神奈川県",
    "city": "川崎市中原区",
    "town": "宮内"
  },
  "2110052": {
    "zipcode": "2110052",
    "prefectureCode": "14",
    "prefectureNumber": 14,
    "prefecture": "神奈川県",
    "city": "川崎市中原区",
    "town": "等々力"
  },
  "2110053": {
    "zipcode": "2110053",
    "prefectureCode": "14",
    "prefectureNumber": 14,
    "prefecture": "神奈川県",
    "city": "川崎市中原区",
    "town": "上小田中"
  },
  "2110061": {
    "zipcode": "2110061",
    "prefectureCode": "14",
    "prefectureNumber": 14,
    "prefecture": "神奈川県",
    "city": "川崎市中原区",
    "town": "小杉"
  },
  "2110062": {
    "zipcode": "2110062",
    "prefectureCode": "14",
    "prefectureNumber": 14,
    "prefecture": "神奈川県",
    "city": "川崎市中原区",
    "town": "小杉陣屋町"
  },
  "2110063": {
    "zipcode": "2110063",
    "prefectureCode": "14",
    "prefectureNumber": 14,
    "prefecture": "神奈川県",
    "city": "川崎市中原区",
    "town": "小杉町"
  },
  "2110064": {
    "zipcode": "2110064",
    "prefectureCode": "14",
    "prefectureNumber": 14,
    "prefecture": "神奈川県",
    "city": "川崎市中原区",
    "town": "今井南町"
  },
  "2110065": {
    "zipcode": "2110065",
    "prefectureCode": "14",
    "prefectureNumber": 14,
    "prefecture": "神奈川県",
    "city": "川崎市中原区",
    "town": "今井仲町"
  },
  "2110066": {
    "zipcode": "2110066",
    "prefectureCode": "14",
    "prefectureNumber": 14,
    "prefecture": "神奈川県",
    "city": "川崎市中原区",
    "town": "今井西町"
  },
  "2110067": {
    "zipcode": "2110067",
    "prefectureCode": "14",
    "prefectureNumber": 14,
    "prefecture": "神奈川県",
    "city": "川崎市中原区",
    "town": "今井上町"
  },
  "2110068": {
    "zipcode": "2110068",
    "prefectureCode": "14",
    "prefectureNumber": 14,
    "prefecture": "神奈川県",
    "city": "川崎市中原区",
    "town": "小杉御殿町"
  }
}
