{
  "2120000": {
    "zipcode": "2120000",
    "prefectureCode": "14",
    "prefectureNumber": 14,
    "prefecture": "神奈川県",
    "city": "川崎市幸区",
    "town": "以下に掲載がない場合"
  },
  "2120001": {
    "zipcode": "2120001",
    "prefectureCode": "14",
    "prefectureNumber": 14,
    "prefecture": "神奈川県",
    "city": "川崎市幸区",
    "town": "小向東芝町"
  },
  "2120002": {
    "zipcode": "2120002",
    "prefectureCode": "14",
    "prefectureNumber": 14,
    "prefecture": "神奈川県",
    "city": "川崎市幸区",
    "town": "小向仲野町"
  },
  "2120003": {
    "zipcode": "2120003",
    "prefectureCode": "14",
    "prefectureNumber": 14,
    "prefecture": "神奈川県",
    "city": "川崎市幸区",
    "town": "小向町"
  },
  "2120004": {
    "zipcode": "2120004",
    "prefectureCode": "14",
    "prefectureNumber": 14,
    "prefecture": "神奈川県",
    "city": "川崎市幸区",
    "town": "小向西町"
  },
  "2120005": {
    "zipcode": "2120005",
    "prefectureCode": "14",
    "prefectureNumber": 14,
    "prefecture": "神奈川県",
    "city": "川崎市幸区",
    "town": "戸手"
  },
  "2120006": {
    "zipcode": "2120006",
    "prefectureCode": "14",
    "prefectureNumber": 14,
    "prefecture": "神奈川県",
    "city": "川崎市幸区",
    "town": "遠藤町"
  },
  "2120007": {
    "zipcode": "2120007",
    "prefectureCode": "14",
    "prefectureNumber": 14,
    "prefecture": "神奈川県",
    "city": "川崎市幸区",
    "town": "河原町"
  },
  "2120011": {
    "zipcode": "2120011",
    "prefectureCode": "14",
    "prefectureNumber": 14,
    "prefecture": "神奈川県",
    "city": "川崎市幸区",
    "town": "幸町"
  },
  "2120012": {
    "zipcode": "2120012",
    "prefectureCode": "14",
    "prefectureNumber": 14,
    "prefecture": "神奈川県",
    "city": "川崎市幸区",
    "town": "中幸町"
  },
  "2120013": {
    "zipcode": "2120013",
    "prefectureCode": "14",
    "prefectureNumber": 14,
    "prefecture": "神奈川県",
    "city": "川崎市幸区",
    "town": "堀川町"
  },
  "2120014": {
    "zipcode": "2120014",
    "prefectureCode": "14",
    "prefectureNumber": 14,
    "prefecture": "神奈川県",
    "city": "川崎市幸区",
    "town": "大宮町"
  },
  "2120015": {
    "zipcode": "2120015",
    "prefectureCode": "14",
    "prefectureNumber": 14,
    "prefecture": "神奈川県",
    "city": "川崎市幸区",
    "town": "柳町"
  },
  "2120016": {
    "zipcode": "2120016",
    "prefectureCode": "14",
    "prefectureNumber": 14,
    "prefecture": "神奈川県",
    "city": "川崎市幸区",
    "town": "南幸町"
  },
  "2120021": {
    "zipcode": "2120021",
    "prefectureCode": "14",
    "prefectureNumber": 14,
    "prefecture": "神奈川県",
    "city": "川崎市幸区",
    "town": "都町"
  },
  "2120022": {
    "zipcode": "2120022",
    "prefectureCode": "14",
    "prefectureNumber": 14,
    "prefecture": "神奈川県",
    "city": "川崎市幸区",
    "town": "神明町"
  },
  "2120023": {
    "zipcode": "2120023",
    "prefectureCode": "14",
    "prefectureNumber": 14,
    "prefecture": "神奈川県",
    "city": "川崎市幸区",
    "town": "戸手本町"
  },
  "2120024": {
    "zipcode": "2120024",
    "prefectureCode": "14",
    "prefectureNumber": 14,
    "prefecture": "神奈川県",
    "city": "川崎市幸区",
    "town": "塚越"
  },
  "2120025": {
    "zipcode": "2120025",
    "prefectureCode": "14",
    "prefectureNumber": 14,
    "prefecture": "神奈川県",
    "city": "川崎市幸区",
    "town": "古川町"
  },
  "2120026": {
    "zipcode": "2120026",
    "prefectureCode": "14",
    "prefectureNumber": 14,
    "prefecture": "神奈川県",
    "city": "川崎市幸区",
    "town": "紺屋町"
  },
  "2120027": {
    "zipcode": "2120027",
    "prefectureCode": "14",
    "prefectureNumber": 14,
    "prefecture": "神奈川県",
    "city": "川崎市幸区",
    "town": "新塚越"
  },
  "2120031": {
    "zipcode": "2120031",
    "prefectureCode": "14",
    "prefectureNumber": 14,
    "prefecture": "神奈川県",
    "city": "川崎市幸区",
    "town": "新小倉"
  },
  "2120032": {
    "zipcode": "2120032",
    "prefectureCode": "14",
    "prefectureNumber": 14,
    "prefecture": "神奈川県",
    "city": "川崎市幸区",
    "town": "新川崎"
  },
  "2120033": {
    "zipcode": "2120033",
    "prefectureCode": "14",
    "prefectureNumber": 14,
    "prefecture": "神奈川県",
    "city": "川崎市幸区",
    "town": "東小倉"
  },
  "2120051": {
    "zipcode": "2120051",
    "prefectureCode": "14",
    "prefectureNumber": 14,
    "prefecture": "神奈川県",
    "city": "川崎市幸区",
    "town": "東古市場"
  },
  "2120052": {
    "zipcode": "2120052",
    "prefectureCode": "14",
    "prefectureNumber": 14,
    "prefecture": "神奈川県",
    "city": "川崎市幸区",
    "town": "古市場"
  },
  "2120053": {
    "zipcode": "2120053",
    "prefectureCode": "14",
    "prefectureNumber": 14,
    "prefecture": "神奈川県",
    "city": "川崎市幸区",
    "town": "下平間"
  },
  "2120054": {
    "zipcode": "2120054",
    "prefectureCode": "14",
    "prefectureNumber": 14,
    "prefecture": "神奈川県",
    "city": "川崎市幸区",
    "town": "小倉"
  },
  "2120055": {
    "zipcode": "2120055",
    "prefectureCode": "14",
    "prefectureNumber": 14,
    "prefecture": "神奈川県",
    "city": "川崎市幸区",
    "town": "南加瀬"
  },
  "2120056": {
    "zipcode": "2120056",
    "prefectureCode": "14",
    "prefectureNumber": 14,
    "prefecture": "神奈川県",
    "city": "川崎市幸区",
    "town": "矢上"
  },
  "2120057": {
    "zipcode": "2120057",
    "prefectureCode": "14",
    "prefectureNumber": 14,
    "prefecture": "神奈川県",
    "city": "川崎市幸区",
    "town": "北加瀬"
  },
  "2120058": {
    "zipcode": "2120058",
    "prefectureCode": "14",
    "prefectureNumber": 14,
    "prefecture": "神奈川県",
    "city": "川崎市幸区",
    "town": "鹿島田"
  }
}
