{
  "2130000": {
    "zipcode": "2130000",
    "prefectureCode": "14",
    "prefectureNumber": 14,
    "prefecture": "神奈川県",
    "city": "川崎市高津区",
    "town": "以下に掲載がない場合"
  },
  "2130001": {
    "zipcode": "2130001",
    "prefectureCode": "14",
    "prefectureNumber": 14,
    "prefecture": "神奈川県",
    "city": "川崎市高津区",
    "town": "溝口"
  },
  "2130002": {
    "zipcode": "2130002",
    "prefectureCode": "14",
    "prefectureNumber": 14,
    "prefecture": "神奈川県",
    "city": "川崎市高津区",
    "town": "二子"
  },
  "2130003": {
    "zipcode": "2130003",
    "prefectureCode": "14",
    "prefectureNumber": 14,
    "prefecture": "神奈川県",
    "city": "川崎市高津区",
    "town": "瀬田"
  },
  "2130004": {
    "zipcode": "2130004",
    "prefectureCode": "14",
    "prefectureNumber": 14,
    "prefecture": "神奈川県",
    "city": "川崎市高津区",
    "town": "諏訪"
  },
  "2130005": {
    "zipcode": "2130005",
    "prefectureCode": "14",
    "prefectureNumber": 14,
    "prefecture": "神奈川県",
    "city": "川崎市高津区",
    "town": "北見方"
  },
  "2130006": {
    "zipcode": "2130006",
    "prefectureCode": "14",
    "prefectureNumber": 14,
    "prefecture": "神奈川県",
    "city": "川崎市高津区",
    "town": "下野毛"
  },
  "2130011": {
    "zipcode": "2130011",
    "prefectureCode": "14",
    "prefectureNumber": 14,
    "prefecture": "神奈川県",
    "city": "川崎市高津区",
    "town": "久本"
  },
  "2130012": {
    "zipcode": "2130012",
    "prefectureCode": "14",
    "prefectureNumber": 14,
    "prefecture": "神奈川県",
    "city": "川崎市高津区",
    "town": "坂戸"
  },
  "2130013": {
    "zipcode": "2130013",
    "prefectureCode": "14",
    "prefectureNumber": 14,
    "prefecture": "神奈川県",
    "city": "川崎市高津区",
    "town": "末長"
  },
  "2130014": {
    "zipcode": "2130014",
    "prefectureCode": "14",
    "prefectureNumber": 14,
    "prefecture": "神奈川県",
    "city": "川崎市高津区",
    "town": "新作"
  },
  "2130015": {
    "zipcode": "2130015",
    "prefectureCode": "14",
    "prefectureNumber": 14,
    "prefecture": "神奈川県",
    "city": "川崎市高津区",
    "town": "梶ケ谷"
  },
  "2130021": {
    "zipcode": "2130021",
    "prefectureCode": "14",
    "prefectureNumber": 14,
    "prefecture": "神奈川県",
    "city": "川崎市高津区",
    "town": "千年新町"
  },
  "2130022": {
    "zipcode": "2130022",
    "prefectureCode": "14",
    "prefectureNumber": 14,
    "prefecture": "神奈川県",
    "city": "川崎市高津区",
    "town": "千年"
  },
  "2130023": {
    "zipcode": "2130023",
    "prefectureCode": "14",
    "prefectureNumber": 14,
    "prefecture": "神奈川県",
    "city": "川崎市高津区",
    "town": "子母口"
  },
  "2130024": {
    "zipcode": "2130024",
    "prefectureCode": "14",
    "prefectureNumber": 14,
    "prefecture": "神奈川県",
    "city": "川崎市高津区",
    "town": "明津"
  },
  "2130025": {
    "zipcode": "2130025",
    "prefectureCode": "14",
    "prefectureNumber": 14,
    "prefecture": "神奈川県",
    "city": "川崎市高津区",
    "town": "蟹ケ谷"
  },
  "2130026": {
    "zipcode": "2130026",
    "prefectureCode": "14",
    "prefectureNumber": 14,
    "prefecture": "神奈川県",
    "city": "川崎市高津区",
    "town": "久末"
  },
  "2130028": {
    "zipcode": "2130028",
    "prefectureCode": "14",
    "prefectureNumber": 14,
    "prefecture": "神奈川県",
    "city": "川崎市高津区",
    "town": "北野川"
  },
  "2130029": {
    "zipcode": "2130029",
    "prefectureCode": "14",
    "prefectureNumber": 14,
    "prefecture": "神奈川県",
    "city": "川崎市高津区",
    "town": "東野川"
  },
  "2130031": {
    "zipcode": "2130031",
    "prefectureCode": "14",
    "prefectureNumber": 14,
    "prefecture": "神奈川県",
    "city": "川崎市高津区",
    "town": "宇奈根"
  },
  "2130032": {
    "zipcode": "2130032",
    "prefectureCode": "14",
    "prefectureNumber": 14,
    "prefecture": "神奈川県",
    "city": "川崎市高津区",
    "town": "久地"
  },
  "2130033": {
    "zipcode": "2130033",
    "prefectureCode": "14",
    "prefectureNumber": 14,
    "prefecture": "神奈川県",
    "city": "川崎市高津区",
    "town": "下作延"
  },
  "2130034": {
    "zipcode": "2130034",
    "prefectureCode": "14",
    "prefectureNumber": 14,
    "prefecture": "神奈川県",
    "city": "川崎市高津区",
    "town": "上作延"
  },
  "2130035": {
    "zipcode": "2130035",
    "prefectureCode": "14",
    "prefectureNumber": 14,
    "prefecture": "神奈川県",
    "city": "川崎市高津区",
    "town": "向ケ丘"
  }
}
