{
  "2140000": {
    "zipcode": "2140000",
    "prefectureCode": "14",
    "prefectureNumber": 14,
    "prefecture": "神奈川県",
    "city": "川崎市多摩区",
    "town": "以下に掲載がない場合"
  },
  "2140001": {
    "zipcode": "2140001",
    "prefectureCode": "14",
    "prefectureNumber": 14,
    "prefecture": "神奈川県",
    "city": "川崎市多摩区",
    "town": "菅"
  },
  "2140002": {
    "zipcode": "2140002",
    "prefectureCode": "14",
    "prefectureNumber": 14,
    "prefecture": "神奈川県",
    "city": "川崎市多摩区",
    "town": "菅野戸呂"
  },
  "2140003": {
    "zipcode": "2140003",
    "prefectureCode": "14",
    "prefectureNumber": 14,
    "prefecture": "神奈川県",
    "city": "川崎市多摩区",
    "town": "菅稲田堤"
  },
  "2140004": {
    "zipcode": "2140004",
    "prefectureCode": "14",
    "prefectureNumber": 14,
    "prefecture": "神奈川県",
    "city": "川崎市多摩区",
    "town": "菅馬場"
  },
  "2140005": {
    "zipcode": "2140005",
    "prefectureCode": "14",
    "prefectureNumber": 14,
    "prefecture": "神奈川県",
    "city": "川崎市多摩区",
    "town": "寺尾台"
  },
  "2140006": {
    "zipcode": "2140006",
    "prefectureCode": "14",
    "prefectureNumber": 14,
    "prefecture": "神奈川県",
    "city": "川崎市多摩区",
    "town": "菅仙谷"
  },
  "2140007": {
    "zipcode": "2140007",
    "prefectureCode": "14",
    "prefectureNumber": 14,
    "prefecture": "神奈川県",
    "city": "川崎市多摩区",
    "town": "菅城下"
  },
  "2140008": {
    "zipcode": "2140008",
    "prefectureCode": "14",
    "prefectureNumber": 14,
    "prefecture": "神奈川県",
    "city": "川崎市多摩区",
    "town": "菅北浦"
  },
  "2140011": {
    "zipcode": "2140011",
    "prefectureCode": "14",
    "prefectureNumber": 14,
    "prefecture": "神奈川県",
    "city": "川崎市多摩区",
    "town": "布田"
  },
  "2140012": {
    "zipcode": "2140012",
    "prefectureCode": "14",
    "prefectureNumber": 14,
    "prefecture": "神奈川県",
    "city": "川崎市多摩区",
    "town": "中野島"
  },
  "2140013": {
    "zipcode": "2140013",
    "prefectureCode": "14",
    "prefectureNumber": 14,
    "prefecture": "神奈川県",
    "city": "川崎市多摩区",
    "town": "登戸新町"
  },
  "2140014": {
    "zipcode": "2140014",
    "prefectureCode": "14",
    "prefectureNumber": 14,
    "prefecture": "神奈川県",
    "city": "川崎市多摩区",
    "town": "登戸"
  },
  "2140021": {
    "zipcode": "2140021",
    "prefectureCode": "14",
    "prefectureNumber": 14,
    "prefecture": "神奈川県",
    "city": "川崎市多摩区",
    "town": "宿河原"
  },
  "2140022": {
    "zipcode": "2140022",
    "prefectureCode": "14",
    "prefectureNumber": 14,
    "prefecture": "神奈川県",
    "city": "川崎市多摩区",
    "town": "堰"
  },
  "2140023": {
    "zipcode": "2140023",
    "prefectureCode": "14",
    "prefectureNumber": 14,
    "prefecture": "神奈川県",
    "city": "川崎市多摩区",
    "town": "長尾"
  },
  "2140031": {
    "zipcode": "2140031",
    "prefectureCode": "14",
    "prefectureNumber": 14,
    "prefecture": "神奈川県",
    "city": "川崎市多摩区",
    "town": "東生田"
  },
  "2140032": {
    "zipcode": "2140032",
    "prefectureCode": "14",
    "prefectureNumber": 14,
    "prefecture": "神奈川県",
    "city": "川崎市多摩区",
    "town": "枡形"
  },
  "2140033": {
    "zipcode": "2140033",
    "prefectureCode": "14",
    "prefectureNumber": 14,
    "prefecture": "神奈川県",
    "city": "川崎市多摩区",
    "town": "東三田"
  },
  "2140034": {
    "zipcode": "2140034",
    "prefectureCode": "14",
    "prefectureNumber": 14,
    "prefecture": "神奈川県",
    "city": "川崎市多摩区",
    "town": "三田"
  },
  "2140035": {
    "zipcode": "2140035",
    "prefectureCode": "14",
    "prefectureNumber": 14,
    "prefecture": "神奈川県",
    "city": "川崎市多摩区",
    "town": "長沢"
  },
  "2140036": {
    "zipcode": "2140036",
    "prefectureCode": "14",
    "prefectureNumber": 14,
    "prefecture": "神奈川県",
    "city": "川崎市多摩区",
    "town": "南生田"
  },
  "2140037": {
    "zipcode": "2140037",
    "prefectureCode": "14",
    "prefectureNumber": 14,
    "prefecture": "神奈川県",
    "city": "川崎市多摩区",
    "town": "西生田"
  },
  "2140038": {
    "zipcode": "2140038",
    "prefectureCode": "14",
    "prefectureNumber": 14,
    "prefecture": "神奈川県",
    "city": "川崎市多摩区",
    "town": "生田"
  },
  "2140039": {
    "zipcode": "2140039",
    "prefectureCode": "14",
    "prefectureNumber": 14,
    "prefecture": "神奈川県",
    "city": "川崎市多摩区",
    "town": "栗谷"
  }
}
