{
  "2150000": {
    "zipcode": "2150000",
    "prefectureCode": "14",
    "prefectureNumber": 14,
    "prefecture": "神奈川県",
    "city": "川崎市麻生区",
    "town": "以下に掲載がない場合"
  },
  "2150001": {
    "zipcode": "2150001",
    "prefectureCode": "14",
    "prefectureNumber": 14,
    "prefecture": "神奈川県",
    "city": "川崎市麻生区",
    "town": "細山"
  },
  "2150002": {
    "zipcode": "2150002",
    "prefectureCode": "14",
    "prefectureNumber": 14,
    "prefecture": "神奈川県",
    "city": "川崎市麻生区",
    "town": "多摩美"
  },
  "2150003": {
    "zipcode": "2150003",
    "prefectureCode": "14",
    "prefectureNumber": 14,
    "prefecture": "神奈川県",
    "city": "川崎市麻生区",
    "town": "高石"
  },
  "2150004": {
    "zipcode": "2150004",
    "prefectureCode": "14",
    "prefectureNumber": 14,
    "prefecture": "神奈川県",
    "city": "川崎市麻生区",
    "town": "万福寺"
  },
  "2150005": {
    "zipcode": "2150005",
    "prefectureCode": "14",
    "prefectureNumber": 14,
    "prefecture": "神奈川県",
    "city": "川崎市麻生区",
    "town": "千代ケ丘"
  },
  "2150006": {
    "zipcode": "2150006",
    "prefectureCode": "14",
    "prefectureNumber": 14,
    "prefecture": "神奈川県",
    "city": "川崎市麻生区",
    "town": "金程"
  },
  "2150007": {
    "zipcode": "2150007",
    "prefectureCode": "14",
    "prefectureNumber": 14,
    "prefecture": "神奈川県",
    "city": "川崎市麻生区",
    "town": "向原"
  },
  "2150011": {
    "zipcode": "2150011",
    "prefectureCode": "14",
    "prefectureNumber": 14,
    "prefecture": "神奈川県",
    "city": "川崎市麻生区",
    "town": "百合丘"
  },
  "2150012": {
    "zipcode": "2150012",
    "prefectureCode": "14",
    "prefectureNumber": 14,
    "prefecture": "神奈川県",
    "city": "川崎市麻生区",
    "town": "東百合丘"
  },
  "2150013": {
    "zipcode": "2150013",
    "prefectureCode": "14",
    "prefectureNumber": 14,
    "prefecture": "神奈川県",
    "city": "川崎市麻生区",
    "town": "王禅寺"
  },
  "2150014": {
    "zipcode": "2150014",
    "prefectureCode": "14",
    "prefectureNumber": 14,
    "prefecture": "神奈川県",
    "city": "川崎市麻生区",
    "town": "白山"
  },
  "2150015": {
    "zipcode": "2150015",
    "prefectureCode": "14",
    "prefectureNumber": 14,
    "prefecture": "神奈川県",
    "city": "川崎市麻生区",
    "town": "虹ケ丘"
  },
  "2150016": {
    "zipcode": "2150016",
    "prefectureCode": "14",
    "prefectureNumber": 14,
    "prefecture": "神奈川県",
    "city": "川崎市麻生区",
    "town": "早野"
  },
  "2150017": {
    "zipcode": "2150017",
    "prefectureCode": "14",
    "prefectureNumber": 14,
    "prefecture": "神奈川県",
    "city": "川崎市麻生区",
    "town": "王禅寺西"
  },
  "2150018": {
    "zipcode": "2150018",
    "prefectureCode": "14",
    "prefectureNumber": 14,
    "prefecture": "神奈川県",
    "city": "川崎市麻生区",
    "town": "王禅寺東"
  },
  "2150021": {
    "zipcode": "2150021",
    "prefectureCode": "14",
    "prefectureNumber": 14,
    "prefecture": "神奈川県",
    "city": "川崎市麻生区",
    "town": "上麻生"
  },
  "2150022": {
    "zipcode": "2150022",
    "prefectureCode": "14",
    "prefectureNumber": 14,
    "prefecture": "神奈川県",
    "city": "川崎市麻生区",
    "town": "下麻生"
  },
  "2150023": {
    "zipcode": "2150023",
    "prefectureCode": "14",
    "prefectureNumber": 14,
    "prefecture": "神奈川県",
    "city": "川崎市麻生区",
    "town": "片平"
  },
  "2150024": {
    "zipcode": "2150024",
    "prefectureCode": "14",
    "prefectureNumber": 14,
    "prefecture": "神奈川県",
    "city": "川崎市麻生区",
    "town": "白鳥"
  },
  "2150025": {
    "zipcode": "2150025",
    "prefectureCode": "14",
    "prefectureNumber": 14,
    "prefecture": "神奈川県",
    "city": "川崎市麻生区",
    "town": "五力田"
  },
  "2150026": {
    "zipcode": "2150026",
    "prefectureCode": "14",
    "prefectureNumber": 14,
    "prefecture": "神奈川県",
    "city": "川崎市麻生区",
    "town": "古沢"
  },
  "2150027": {
    "zipcode": "2150027",
    "prefectureCode": "14",
    "prefectureNumber": 14,
    "prefecture": "神奈川県",
    "city": "川崎市麻生区",
    "town": "岡上"
  },
  "2150031": {
    "zipcode": "2150031",
    "prefectureCode": "14",
    "prefectureNumber": 14,
    "prefecture": "神奈川県",
    "city": "川崎市麻生区",
    "town": "栗平"
  },
  "2150032": {
    "zipcode": "2150032",
    "prefectureCode": "14",
    "prefectureNumber": 14,
    "prefecture": "神奈川県",
    "city": "川崎市麻生区",
    "town": "栗木台"
  },
  "2150033": {
    "zipcode": "2150033",
    "prefectureCode": "14",
    "prefectureNumber": 14,
    "prefecture": "神奈川県",
    "city": "川崎市麻生区",
    "town": "栗木"
  },
  "2150034": {
    "zipcode": "2150034",
    "prefectureCode": "14",
    "prefectureNumber": 14,
    "prefecture": "神奈川県",
    "city": "川崎市麻生区",
    "town": "南黒川"
  },
  "2150035": {
    "zipcode": "2150035",
    "prefectureCode": "14",
    "prefectureNumber": 14,
    "prefecture": "神奈川県",
    "city": "川崎市麻生区",
    "town": "黒川"
  },
  "2150036": {
    "zipcode": "2150036",
    "prefectureCode": "14",
    "prefectureNumber": 14,
    "prefecture": "神奈川県",
    "city": "川崎市麻生区",
    "town": "はるひ野"
  }
}
