{
  "2160000": {
    "zipcode": "2160000",
    "prefectureCode": "14",
    "prefectureNumber": 14,
    "prefecture": "神奈川県",
    "city": "川崎市宮前区",
    "town": "以下に掲載がない場合"
  },
  "2160002": {
    "zipcode": "2160002",
    "prefectureCode": "14",
    "prefectureNumber": 14,
    "prefecture": "神奈川県",
    "city": "川崎市宮前区",
    "town": "東有馬"
  },
  "2160003": {
    "zipcode": "2160003",
    "prefectureCode": "14",
    "prefectureNumber": 14,
    "prefecture": "神奈川県",
    "city": "川崎市宮前区",
    "town": "有馬"
  },
  "2160004": {
    "zipcode": "2160004",
    "prefectureCode": "14",
    "prefectureNumber": 14,
    "prefecture": "神奈川県",
    "city": "川崎市宮前区",
    "town": "鷺沼"
  },
  "2160005": {
    "zipcode": "2160005",
    "prefectureCode": "14",
    "prefectureNumber": 14,
    "prefecture": "神奈川県",
    "city": "川崎市宮前区",
    "town": "土橋"
  },
  "2160006": {
    "zipcode": "2160006",
    "prefectureCode": "14",
    "prefectureNumber": 14,
    "prefecture": "神奈川県",
    "city": "川崎市宮前区",
    "town": "宮前平"
  },
  "2160007": {
    "zipcode": "2160007",
    "prefectureCode": "14",
    "prefectureNumber": 14,
    "prefecture": "神奈川県",
    "city": "川崎市宮前区",
    "town": "小台"
  },
  "2160011": {
    "zipcode": "2160011",
    "prefectureCode": "14",
    "prefectureNumber": 14,
    "prefecture": "神奈川県",
    "city": "川崎市宮前区",
    "town": "犬蔵"
  },
  "2160012": {
    "zipcode": "2160012",
    "prefectureCode": "14",
    "prefectureNumber": 14,
    "prefecture": "神奈川県",
    "city": "川崎市宮前区",
    "town": "水沢"
  },
  "2160013": {
    "zipcode": "2160013",
    "prefectureCode": "14",
    "prefectureNumber": 14,
    "prefecture": "神奈川県",
    "city": "川崎市宮前区",
    "town": "潮見台"
  },
  "2160014": {
    "zipcode": "2160014",
    "prefectureCode": "14",
    "prefectureNumber": 14,
    "prefecture": "神奈川県",
    "city": "川崎市宮前区",
    "town": "菅生ケ丘"
  },
  "2160015": {
    "zipcode": "2160015",
    "prefectureCode": "14",
    "prefectureNumber": 14,
    "prefecture": "神奈川県",
    "city": "川崎市宮前区",
    "town": "菅生"
  },
  "2160021": {
    "zipcode": "2160021",
    "prefectureCode": "14",
    "prefectureNumber": 14,
    "prefecture": "神奈川県",
    "city": "川崎市宮前区",
    "town": "五所塚"
  },
  "2160022": {
    "zipcode": "2160022",
    "prefectureCode": "14",
    "prefectureNumber": 14,
    "prefecture": "神奈川県",
    "city": "川崎市宮前区",
    "town": "平"
  },
  "2160023": {
    "zipcode": "2160023",
    "prefectureCode": "14",
    "prefectureNumber": 14,
    "prefecture": "神奈川県",
    "city": "川崎市宮前区",
    "town": "けやき平"
  },
  "2160024": {
    "zipcode": "2160024",
    "prefectureCode": "14",
    "prefectureNumber": 14,
    "prefecture": "神奈川県",
    "city": "川崎市宮前区",
    "town": "南平台"
  },
  "2160025": {
    "zipcode": "2160025",
    "prefectureCode": "14",
    "prefectureNumber": 14,
    "prefecture": "神奈川県",
    "city": "川崎市宮前区",
    "town": "白幡台"
  },
  "2160026": {
    "zipcode": "2160026",
    "prefectureCode": "14",
    "prefectureNumber": 14,
    "prefecture": "神奈川県",
    "city": "川崎市宮前区",
    "town": "初山"
  },
  "2160031": {
    "zipcode": "2160031",
    "prefectureCode": "14",
    "prefectureNumber": 14,
    "prefecture": "神奈川県",
    "city": "川崎市宮前区",
    "town": "神木本町"
  },
  "2160032": {
    "zipcode": "2160032",
    "prefectureCode": "14",
    "prefectureNumber": 14,
    "prefecture": "神奈川県",
    "city": "川崎市宮前区",
    "town": "神木"
  },
  "2160033": {
    "zipcode": "2160033",
    "prefectureCode": "14",
    "prefectureNumber": 14,
    "prefecture": "神奈川県",
    "city": "川崎市宮前区",
    "town": "宮崎"
  },
  "2160034": {
    "zipcode": "2160034",
    "prefectureCode": "14",
    "prefectureNumber": 14,
    "prefecture": "神奈川県",
    "city": "川崎市宮前区",
    "town": "梶ケ谷"
  },
  "2160035": {
    "zipcode": "2160035",
    "prefectureCode": "14",
    "prefectureNumber": 14,
    "prefecture": "神奈川県",
    "city": "川崎市宮前区",
    "town": "馬絹"
  },
  "2160041": {
    "zipcode": "2160041",
    "prefectureCode": "14",
    "prefectureNumber": 14,
    "prefecture": "神奈川県",
    "city": "川崎市宮前区",
    "town": "野川本町"
  },
  "2160042": {
    "zipcode": "2160042",
    "prefectureCode": "14",
    "prefectureNumber": 14,
    "prefecture": "神奈川県",
    "city": "川崎市宮前区",
    "town": "南野川"
  },
  "2160043": {
    "zipcode": "2160043",
    "prefectureCode": "14",
    "prefectureNumber": 14,
    "prefecture": "神奈川県",
    "city": "川崎市宮前区",
    "town": "野川台"
  },
  "2160044": {
    "zipcode": "2160044",
    "prefectureCode": "14",
    "prefectureNumber": 14,
    "prefecture": "神奈川県",
    "city": "川崎市宮前区",
    "town": "西野川"
  }
}
