{
  "2220000": {
    "zipcode": "2220000",
    "prefectureCode": "14",
    "prefectureNumber": 14,
    "prefecture": "神奈川県",
    "city": "横浜市港北区",
    "town": "以下に掲載がない場合"
  },
  "2220001": {
    "zipcode": "2220001",
    "prefectureCode": "14",
    "prefectureNumber": 14,
    "prefecture": "神奈川県",
    "city": "横浜市港北区",
    "town": "樽町"
  },
  "2220002": {
    "zipcode": "2220002",
    "prefectureCode": "14",
    "prefectureNumber": 14,
    "prefecture": "神奈川県",
    "city": "横浜市港北区",
    "town": "師岡町"
  },
  "2220003": {
    "zipcode": "2220003",
    "prefectureCode": "14",
    "prefectureNumber": 14,
    "prefecture": "神奈川県",
    "city": "横浜市港北区",
    "town": "大曽根"
  },
  "2220004": {
    "zipcode": "2220004",
    "prefectureCode": "14",
    "prefectureNumber": 14,
    "prefecture": "神奈川県",
    "city": "横浜市港北区",
    "town": "大曽根台"
  },
  "2220011": {
    "zipcode": "2220011",
    "prefectureCode": "14",
    "prefectureNumber": 14,
    "prefecture": "神奈川県",
    "city": "横浜市港北区",
    "town": "菊名"
  },
  "2220012": {
    "zipcode": "2220012",
    "prefectureCode": "14",
    "prefectureNumber": 14,
    "prefecture": "神奈川県",
    "city": "横浜市港北区",
    "town": "富士塚"
  },
  "2220013": {
    "zipcode": "2220013",
    "prefectureCode": "14",
    "prefectureNumber": 14,
    "prefecture": "神奈川県",
    "city": "横浜市港北区",
    "town": "錦が丘"
  },
  "2220021": {
    "zipcode": "2220021",
    "prefectureCode": "14",
    "prefectureNumber": 14,
    "prefecture": "神奈川県",
    "city": "横浜市港北区",
    "town": "篠原北"
  },
  "2220022": {
    "zipcode": "2220022",
    "prefectureCode": "14",
    "prefectureNumber": 14,
    "prefecture": "神奈川県",
    "city": "横浜市港北区",
    "town": "篠原東"
  },
  "2220023": {
    "zipcode": "2220023",
    "prefectureCode": "14",
    "prefectureNumber": 14,
    "prefecture": "神奈川県",
    "city": "横浜市港北区",
    "town": "仲手原"
  },
  "2220024": {
    "zipcode": "2220024",
    "prefectureCode": "14",
    "prefectureNumber": 14,
    "prefecture": "神奈川県",
    "city": "横浜市港北区",
    "town": "篠原台町"
  },
  "2220025": {
    "zipcode": "2220025",
    "prefectureCode": "14",
    "prefectureNumber": 14,
    "prefecture": "神奈川県",
    "city": "横浜市港北区",
    "town": "篠原西町"
  },
  "2220026": {
    "zipcode": "2220026",
    "prefectureCode": "14",
    "prefectureNumber": 14,
    "prefecture": "神奈川県",
    "city": "横浜市港北区",
    "town": "篠原町"
  },
  "2220032": {
    "zipcode": "2220032",
    "prefectureCode": "14",
    "prefectureNumber": 14,
    "prefecture": "神奈川県",
    "city": "横浜市港北区",
    "town": "大豆戸町"
  },
  "2220033": {
    "zipcode": "2220033",
    "prefectureCode": "14",
    "prefectureNumber": 14,
    "prefecture": "神奈川県",
    "city": "横浜市港北区",
    "town": "新横浜"
  },
  "2220034": {
    "zipcode": "2220034",
    "prefectureCode": "14",
    "prefectureNumber": 14,
    "prefecture": "神奈川県",
    "city": "横浜市港北区",
    "town": "岸根町"
  },
  "2220035": {
    "zipcode": "2220035",
    "prefectureCode": "14",
    "prefectureNumber": 14,
    "prefecture": "神奈川県",
    "city": "横浜市港北区",
    "town": "鳥山町"
  },
  "2220036": {
    "zipcode": "2220036",
    "prefectureCode": "14",
    "prefectureNumber": 14,
    "prefecture": "神奈川県",
    "city": "横浜市港北区",
    "town": "小机町"
  },
  "2220037": {
    "zipcode": "2220037",
    "prefectureCode": "14",
    "prefectureNumber": 14,
    "prefecture": "神奈川県",
    "city": "横浜市港北区",
    "town": "大倉山"
  }
}
