{
  "2230051": {
    "zipcode": "2230051",
    "prefectureCode": "14",
    "prefectureNumber": 14,
    "prefecture": "神奈川県",
    "city": "横浜市港北区",
    "town": "箕輪町"
  },
  "2230052": {
    "zipcode": "2230052",
    "prefectureCode": "14",
    "prefectureNumber": 14,
    "prefecture": "神奈川県",
    "city": "横浜市港北区",
    "town": "綱島東"
  },
  "2230053": {
    "zipcode": "2230053",
    "prefectureCode": "14",
    "prefectureNumber": 14,
    "prefecture": "神奈川県",
    "city": "横浜市港北区",
    "town": "綱島西"
  },
  "2230054": {
    "zipcode": "2230054",
    "prefectureCode": "14",
    "prefectureNumber": 14,
    "prefecture": "神奈川県",
    "city": "横浜市港北区",
    "town": "綱島台"
  },
  "2230055": {
    "zipcode": "2230055",
    "prefectureCode": "14",
    "prefectureNumber": 14,
    "prefecture": "神奈川県",
    "city": "横浜市港北区",
    "town": "綱島上町"
  },
  "2230056": {
    "zipcode": "2230056",
    "prefectureCode": "14",
    "prefectureNumber": 14,
    "prefecture": "神奈川県",
    "city": "横浜市港北区",
    "town": "新吉田町"
  },
  "2230057": {
    "zipcode": "2230057",
    "prefectureCode": "14",
    "prefectureNumber": 14,
    "prefecture": "神奈川県",
    "city": "横浜市港北区",
    "town": "新羽町"
  },
  "2230058": {
    "zipcode": "2230058",
    "prefectureCode": "14",
    "prefectureNumber": 14,
    "prefecture": "神奈川県",
    "city": "横浜市港北区",
    "town": "新吉田東"
  },
  "2230059": {
    "zipcode": "2230059",
    "prefectureCode": "14",
    "prefectureNumber": 14,
    "prefecture": "神奈川県",
    "city": "横浜市港北区",
    "town": "北新横浜"
  },
  "2230061": {
    "zipcode": "2230061",
    "prefectureCode": "14",
    "prefectureNumber": 14,
    "prefecture": "神奈川県",
    "city": "横浜市港北区",
    "town": "日吉"
  },
  "2230062": {
    "zipcode": "2230062",
    "prefectureCode": "14",
    "prefectureNumber": 14,
    "prefecture": "神奈川県",
    "city": "横浜市港北区",
    "town": "日吉本町"
  },
  "2230063": {
    "zipcode": "2230063",
    "prefectureCode": "14",
    "prefectureNumber": 14,
    "prefecture": "神奈川県",
    "city": "横浜市港北区",
    "town": "高田町"
  },
  "2230064": {
    "zipcode": "2230064",
    "prefectureCode": "14",
    "prefectureNumber": 14,
    "prefecture": "神奈川県",
    "city": "横浜市港北区",
    "town": "下田町"
  },
  "2230065": {
    "zipcode": "2230065",
    "prefectureCode": "14",
    "prefectureNumber": 14,
    "prefecture": "神奈川県",
    "city": "横浜市港北区",
    "town": "高田東"
  },
  "2230066": {
    "zipcode": "2230066",
    "prefectureCode": "14",
    "prefectureNumber": 14,
    "prefecture": "神奈川県",
    "city": "横浜市港北区",
    "town": "高田西"
  }
}
