{
  "2240000": {
    "zipcode": "2240000",
    "prefectureCode": "14",
    "prefectureNumber": 14,
    "prefecture": "神奈川県",
    "city": "横浜市都筑区",
    "town": "以下に掲載がない場合"
  },
  "2240001": {
    "zipcode": "2240001",
    "prefectureCode": "14",
    "prefectureNumber": 14,
    "prefecture": "神奈川県",
    "city": "横浜市都筑区",
    "town": "中川"
  },
  "2240003": {
    "zipcode": "2240003",
    "prefectureCode": "14",
    "prefectureNumber": 14,
    "prefecture": "神奈川県",
    "city": "横浜市都筑区",
    "town": "中川中央"
  },
  "2240004": {
    "zipcode": "2240004",
    "prefectureCode": "14",
    "prefectureNumber": 14,
    "prefecture": "神奈川県",
    "city": "横浜市都筑区",
    "town": "荏田東町"
  },
  "2240006": {
    "zipcode": "2240006",
    "prefectureCode": "14",
    "prefectureNumber": 14,
    "prefecture": "神奈川県",
    "city": "横浜市都筑区",
    "town": "荏田東"
  },
  "2240007": {
    "zipcode": "2240007",
    "prefectureCode": "14",
    "prefectureNumber": 14,
    "prefecture": "神奈川県",
    "city": "横浜市都筑区",
    "town": "荏田南"
  },
  "2240008": {
    "zipcode": "2240008",
    "prefectureCode": "14",
    "prefectureNumber": 14,
    "prefecture": "神奈川県",
    "city": "横浜市都筑区",
    "town": "荏田南町"
  },
  "2240011": {
    "zipcode": "2240011",
    "prefectureCode": "14",
    "prefectureNumber": 14,
    "prefecture": "神奈川県",
    "city": "横浜市都筑区",
    "town": "牛久保町"
  },
  "2240012": {
    "zipcode": "2240012",
    "prefectureCode": "14",
    "prefectureNumber": 14,
    "prefecture": "神奈川県",
    "city": "横浜市都筑区",
    "town": "牛久保"
  },
  "2240013": {
    "zipcode": "2240013",
    "prefectureCode": "14",
    "prefectureNumber": 14,
    "prefecture": "神奈川県",
    "city": "横浜市都筑区",
    "town": "すみれが丘"
  },
  "2240014": {
    "zipcode": "2240014",
    "prefectureCode": "14",
    "prefectureNumber": 14,
    "prefecture": "神奈川県",
    "city": "横浜市都筑区",
    "town": "牛久保東"
  },
  "2240015": {
    "zipcode": "2240015",
    "prefectureCode": "14",
    "prefectureNumber": 14,
    "prefecture": "神奈川県",
    "city": "横浜市都筑区",
    "town": "牛久保西"
  },
  "2240016": {
    "zipcode": "2240016",
    "prefectureCode": "14",
    "prefectureNumber": 14,
    "prefecture": "神奈川県",
    "city": "横浜市都筑区",
    "town": "あゆみが丘"
  },
  "2240021": {
    "zipcode": "2240021",
    "prefectureCode": "14",
    "prefectureNumber": 14,
    "prefecture": "神奈川県",
    "city": "横浜市都筑区",
    "town": "北山田"
  },
  "2240023": {
    "zipcode": "2240023",
    "prefectureCode": "14",
    "prefectureNumber": 14,
    "prefecture": "神奈川県",
    "city": "横浜市都筑区",
    "town": "東山田"
  },
  "2240024": {
    "zipcode": "2240024",
    "prefectureCode": "14",
    "prefectureNumber": 14,
    "prefecture": "神奈川県",
    "city": "横浜市都筑区",
    "town": "東山田町"
  },
  "2240025": {
    "zipcode": "2240025",
    "prefectureCode": "14",
    "prefectureNumber": 14,
    "prefecture": "神奈川県",
    "city": "横浜市都筑区",
    "town": "早渕"
  },
  "2240026": {
    "zipcode": "2240026",
    "prefectureCode": "14",
    "prefectureNumber": 14,
    "prefecture": "神奈川県",
    "city": "横浜市都筑区",
    "town": "南山田町"
  },
  "2240027": {
    "zipcode": "2240027",
    "prefectureCode": "14",
    "prefectureNumber": 14,
    "prefecture": "神奈川県",
    "city": "横浜市都筑区",
    "town": "大棚町"
  },
  "2240028": {
    "zipcode": "2240028",
    "prefectureCode": "14",
    "prefectureNumber": 14,
    "prefecture": "神奈川県",
    "city": "横浜市都筑区",
    "town": "大棚西"
  },
  "2240029": {
    "zipcode": "2240029",
    "prefectureCode": "14",
    "prefectureNumber": 14,
    "prefecture": "神奈川県",
    "city": "横浜市都筑区",
    "town": "南山田"
  },
  "2240031": {
    "zipcode": "2240031",
    "prefectureCode": "14",
    "prefectureNumber": 14,
    "prefecture": "神奈川県",
    "city": "横浜市都筑区",
    "town": "茅ケ崎町"
  },
  "2240032": {
    "zipcode": "2240032",
    "prefectureCode": "14",
    "prefectureNumber": 14,
    "prefecture": "神奈川県",
    "city": "横浜市都筑区",
    "town": "茅ケ崎中央"
  },
  "2240033": {
    "zipcode": "2240033",
    "prefectureCode": "14",
    "prefectureNumber": 14,
    "prefecture": "神奈川県",
    "city": "横浜市都筑区",
    "town": "茅ケ崎東"
  },
  "2240034": {
    "zipcode": "2240034",
    "prefectureCode": "14",
    "prefectureNumber": 14,
    "prefecture": "神奈川県",
    "city": "横浜市都筑区",
    "town": "勝田町"
  },
  "2240035": {
    "zipcode": "2240035",
    "prefectureCode": "14",
    "prefectureNumber": 14,
    "prefecture": "神奈川県",
    "city": "横浜市都筑区",
    "town": "新栄町"
  },
  "2240036": {
    "zipcode": "2240036",
    "prefectureCode": "14",
    "prefectureNumber": 14,
    "prefecture": "神奈川県",
    "city": "横浜市都筑区",
    "town": "勝田南"
  },
  "2240037": {
    "zipcode": "2240037",
    "prefectureCode": "14",
    "prefectureNumber": 14,
    "prefecture": "神奈川県",
    "city": "横浜市都筑区",
    "town": "茅ケ崎南"
  },
  "2240041": {
    "zipcode": "2240041",
    "prefectureCode": "14",
    "prefectureNumber": 14,
    "prefecture": "神奈川県",
    "city": "横浜市都筑区",
    "town": "仲町台"
  },
  "2240042": {
    "zipcode": "2240042",
    "prefectureCode": "14",
    "prefectureNumber": 14,
    "prefecture": "神奈川県",
    "city": "横浜市都筑区",
    "town": "大熊町"
  },
  "2240043": {
    "zipcode": "2240043",
    "prefectureCode": "14",
    "prefectureNumber": 14,
    "prefecture": "神奈川県",
    "city": "横浜市都筑区",
    "town": "折本町"
  },
  "2240044": {
    "zipcode": "2240044",
    "prefectureCode": "14",
    "prefectureNumber": 14,
    "prefecture": "神奈川県",
    "city": "横浜市都筑区",
    "town": "川向町"
  },
  "2240045": {
    "zipcode": "2240045",
    "prefectureCode": "14",
    "prefectureNumber": 14,
    "prefecture": "神奈川県",
    "city": "横浜市都筑区",
    "town": "東方町"
  },
  "2240046": {
    "zipcode": "2240046",
    "prefectureCode": "14",
    "prefectureNumber": 14,
    "prefecture": "神奈川県",
    "city": "横浜市都筑区",
    "town": "桜並木"
  },
  "2240051": {
    "zipcode": "2240051",
    "prefectureCode": "14",
    "prefectureNumber": 14,
    "prefecture": "神奈川県",
    "city": "横浜市都筑区",
    "town": "富士見が丘"
  },
  "2240052": {
    "zipcode": "2240052",
    "prefectureCode": "14",
    "prefectureNumber": 14,
    "prefecture": "神奈川県",
    "city": "横浜市都筑区",
    "town": "二の丸"
  },
  "2240053": {
    "zipcode": "2240053",
    "prefectureCode": "14",
    "prefectureNumber": 14,
    "prefecture": "神奈川県",
    "city": "横浜市都筑区",
    "town": "池辺町"
  },
  "2240054": {
    "zipcode": "2240054",
    "prefectureCode": "14",
    "prefectureNumber": 14,
    "prefecture": "神奈川県",
    "city": "横浜市都筑区",
    "town": "佐江戸町"
  },
  "2240055": {
    "zipcode": "2240055",
    "prefectureCode": "14",
    "prefectureNumber": 14,
    "prefecture": "神奈川県",
    "city": "横浜市都筑区",
    "town": "加賀原"
  },
  "2240056": {
    "zipcode": "2240056",
    "prefectureCode": "14",
    "prefectureNumber": 14,
    "prefecture": "神奈川県",
    "city": "横浜市都筑区",
    "town": "川和台"
  },
  "2240057": {
    "zipcode": "2240057",
    "prefectureCode": "14",
    "prefectureNumber": 14,
    "prefecture": "神奈川県",
    "city": "横浜市都筑区",
    "town": "川和町"
  },
  "2240061": {
    "zipcode": "2240061",
    "prefectureCode": "14",
    "prefectureNumber": 14,
    "prefecture": "神奈川県",
    "city": "横浜市都筑区",
    "town": "大丸"
  },
  "2240062": {
    "zipcode": "2240062",
    "prefectureCode": "14",
    "prefectureNumber": 14,
    "prefecture": "神奈川県",
    "city": "横浜市都筑区",
    "town": "葛が谷"
  },
  "2240063": {
    "zipcode": "2240063",
    "prefectureCode": "14",
    "prefectureNumber": 14,
    "prefecture": "神奈川県",
    "city": "横浜市都筑区",
    "town": "長坂"
  },
  "2240064": {
    "zipcode": "2240064",
    "prefectureCode": "14",
    "prefectureNumber": 14,
    "prefecture": "神奈川県",
    "city": "横浜市都筑区",
    "town": "平台"
  },
  "2240065": {
    "zipcode": "2240065",
    "prefectureCode": "14",
    "prefectureNumber": 14,
    "prefecture": "神奈川県",
    "city": "横浜市都筑区",
    "town": "高山"
  },
  "2240066": {
    "zipcode": "2240066",
    "prefectureCode": "14",
    "prefectureNumber": 14,
    "prefecture": "神奈川県",
    "city": "横浜市都筑区",
    "town": "見花山"
  }
}
