{
  "2250001": {
    "zipcode": "2250001",
    "prefectureCode": "14",
    "prefectureNumber": 14,
    "prefecture": "神奈川県",
    "city": "横浜市青葉区",
    "town": "美しが丘西"
  },
  "2250002": {
    "zipcode": "2250002",
    "prefectureCode": "14",
    "prefectureNumber": 14,
    "prefecture": "神奈川県",
    "city": "横浜市青葉区",
    "town": "美しが丘"
  },
  "2250003": {
    "zipcode": "2250003",
    "prefectureCode": "14",
    "prefectureNumber": 14,
    "prefecture": "神奈川県",
    "city": "横浜市青葉区",
    "town": "新石川"
  },
  "2250004": {
    "zipcode": "2250004",
    "prefectureCode": "14",
    "prefectureNumber": 14,
    "prefecture": "神奈川県",
    "city": "横浜市青葉区",
    "town": "元石川町"
  },
  "2250005": {
    "zipcode": "2250005",
    "prefectureCode": "14",
    "prefectureNumber": 14,
    "prefecture": "神奈川県",
    "city": "横浜市青葉区",
    "town": "荏子田"
  },
  "2250011": {
    "zipcode": "2250011",
    "prefectureCode": "14",
    "prefectureNumber": 14,
    "prefecture": "神奈川県",
    "city": "横浜市青葉区",
    "town": "あざみ野"
  },
  "2250012": {
    "zipcode": "2250012",
    "prefectureCode": "14",
    "prefectureNumber": 14,
    "prefecture": "神奈川県",
    "city": "横浜市青葉区",
    "town": "あざみ野南"
  },
  "2250013": {
    "zipcode": "2250013",
    "prefectureCode": "14",
    "prefectureNumber": 14,
    "prefecture": "神奈川県",
    "city": "横浜市青葉区",
    "town": "荏田町"
  },
  "2250014": {
    "zipcode": "2250014",
    "prefectureCode": "14",
    "prefectureNumber": 14,
    "prefecture": "神奈川県",
    "city": "横浜市青葉区",
    "town": "荏田西"
  },
  "2250015": {
    "zipcode": "2250015",
    "prefectureCode": "14",
    "prefectureNumber": 14,
    "prefecture": "神奈川県",
    "city": "横浜市青葉区",
    "town": "荏田北"
  },
  "2250016": {
    "zipcode": "2250016",
    "prefectureCode": "14",
    "prefectureNumber": 14,
    "prefecture": "神奈川県",
    "city": "横浜市青葉区",
    "town": "みすずが丘"
  },
  "2250021": {
    "zipcode": "2250021",
    "prefectureCode": "14",
    "prefectureNumber": 14,
    "prefecture": "神奈川県",
    "city": "横浜市青葉区",
    "town": "すすき野"
  },
  "2250022": {
    "zipcode": "2250022",
    "prefectureCode": "14",
    "prefectureNumber": 14,
    "prefecture": "神奈川県",
    "city": "横浜市青葉区",
    "town": "黒須田"
  },
  "2250023": {
    "zipcode": "2250023",
    "prefectureCode": "14",
    "prefectureNumber": 14,
    "prefecture": "神奈川県",
    "city": "横浜市青葉区",
    "town": "大場町"
  },
  "2250024": {
    "zipcode": "2250024",
    "prefectureCode": "14",
    "prefectureNumber": 14,
    "prefecture": "神奈川県",
    "city": "横浜市青葉区",
    "town": "市ケ尾町"
  },
  "2250025": {
    "zipcode": "2250025",
    "prefectureCode": "14",
    "prefectureNumber": 14,
    "prefecture": "神奈川県",
    "city": "横浜市青葉区",
    "town": "鉄町"
  },
  "2250026": {
    "zipcode": "2250026",
    "prefectureCode": "14",
    "prefectureNumber": 14,
    "prefecture": "神奈川県",
    "city": "横浜市青葉区",
    "town": "もみの木台"
  }
}
