{
  "2260000": {
    "zipcode": "2260000",
    "prefectureCode": "14",
    "prefectureNumber": 14,
    "prefecture": "神奈川県",
    "city": "横浜市緑区",
    "town": "以下に掲載がない場合"
  },
  "2260001": {
    "zipcode": "2260001",
    "prefectureCode": "14",
    "prefectureNumber": 14,
    "prefecture": "神奈川県",
    "city": "横浜市緑区",
    "town": "東本郷町"
  },
  "2260002": {
    "zipcode": "2260002",
    "prefectureCode": "14",
    "prefectureNumber": 14,
    "prefecture": "神奈川県",
    "city": "横浜市緑区",
    "town": "東本郷"
  },
  "2260003": {
    "zipcode": "2260003",
    "prefectureCode": "14",
    "prefectureNumber": 14,
    "prefecture": "神奈川県",
    "city": "横浜市緑区",
    "town": "鴨居"
  },
  "2260004": {
    "zipcode": "2260004",
    "prefectureCode": "14",
    "prefectureNumber": 14,
    "prefecture": "神奈川県",
    "city": "横浜市緑区",
    "town": "鴨居町"
  },
  "2260005": {
    "zipcode": "2260005",
    "prefectureCode": "14",
    "prefectureNumber": 14,
    "prefecture": "神奈川県",
    "city": "横浜市緑区",
    "town": "竹山"
  },
  "2260006": {
    "zipcode": "2260006",
    "prefectureCode": "14",
    "prefectureNumber": 14,
    "prefecture": "神奈川県",
    "city": "横浜市緑区",
    "town": "白山"
  },
  "2260012": {
    "zipcode": "2260012",
    "prefectureCode": "14",
    "prefectureNumber": 14,
    "prefecture": "神奈川県",
    "city": "横浜市緑区",
    "town": "上山"
  },
  "2260013": {
    "zipcode": "2260013",
    "prefectureCode": "14",
    "prefectureNumber": 14,
    "prefecture": "神奈川県",
    "city": "横浜市緑区",
    "town": "寺山町"
  },
  "2260014": {
    "zipcode": "2260014",
    "prefectureCode": "14",
    "prefectureNumber": 14,
    "prefecture": "神奈川県",
    "city": "横浜市緑区",
    "town": "台村町"
  },
  "2260015": {
    "zipcode": "2260015",
    "prefectureCode": "14",
    "prefectureNumber": 14,
    "prefecture": "神奈川県",
    "city": "横浜市緑区",
    "town": "三保町"
  },
  "2260016": {
    "zipcode": "2260016",
    "prefectureCode": "14",
    "prefectureNumber": 14,
    "prefecture": "神奈川県",
    "city": "横浜市緑区",
    "town": "霧が丘"
  },
  "2260017": {
    "zipcode": "2260017",
    "prefectureCode": "14",
    "prefectureNumber": 14,
    "prefecture": "神奈川県",
    "city": "横浜市緑区",
    "town": "新治町"
  },
  "2260018": {
    "zipcode": "2260018",
    "prefectureCode": "14",
    "prefectureNumber": 14,
    "prefecture": "神奈川県",
    "city": "横浜市緑区",
    "town": "長津田みなみ台"
  },
  "2260019": {
    "zipcode": "2260019",
    "prefectureCode": "14",
    "prefectureNumber": 14,
    "prefecture": "神奈川県",
    "city": "横浜市緑区",
    "town": "中山"
  },
  "2260021": {
    "zipcode": "2260021",
    "prefectureCode": "14",
    "prefectureNumber": 14,
    "prefecture": "神奈川県",
    "city": "横浜市緑区",
    "town": "北八朔町"
  },
  "2260022": {
    "zipcode": "2260022",
    "prefectureCode": "14",
    "prefectureNumber": 14,
    "prefecture": "神奈川県",
    "city": "横浜市緑区",
    "town": "青砥町"
  },
  "2260023": {
    "zipcode": "2260023",
    "prefectureCode": "14",
    "prefectureNumber": 14,
    "prefecture": "神奈川県",
    "city": "横浜市緑区",
    "town": "小山町"
  },
  "2260024": {
    "zipcode": "2260024",
    "prefectureCode": "14",
    "prefectureNumber": 14,
    "prefecture": "神奈川県",
    "city": "横浜市緑区",
    "town": "西八朔町"
  },
  "2260025": {
    "zipcode": "2260025",
    "prefectureCode": "14",
    "prefectureNumber": 14,
    "prefecture": "神奈川県",
    "city": "横浜市緑区",
    "town": "十日市場町"
  },
  "2260026": {
    "zipcode": "2260026",
    "prefectureCode": "14",
    "prefectureNumber": 14,
    "prefecture": "神奈川県",
    "city": "横浜市緑区",
    "town": "長津田町"
  },
  "2260027": {
    "zipcode": "2260027",
    "prefectureCode": "14",
    "prefectureNumber": 14,
    "prefecture": "神奈川県",
    "city": "横浜市緑区",
    "town": "長津田"
  },
  "2260028": {
    "zipcode": "2260028",
    "prefectureCode": "14",
    "prefectureNumber": 14,
    "prefecture": "神奈川県",
    "city": "横浜市緑区",
    "town": "いぶき野"
  },
  "2260029": {
    "zipcode": "2260029",
    "prefectureCode": "14",
    "prefectureNumber": 14,
    "prefecture": "神奈川県",
    "city": "横浜市緑区",
    "town": "森の台"
  }
}
