{
  "2270000": {
    "zipcode": "2270000",
    "prefectureCode": "14",
    "prefectureNumber": 14,
    "prefecture": "神奈川県",
    "city": "横浜市青葉区",
    "town": "以下に掲載がない場合"
  },
  "2270031": {
    "zipcode": "2270031",
    "prefectureCode": "14",
    "prefectureNumber": 14,
    "prefecture": "神奈川県",
    "city": "横浜市青葉区",
    "town": "寺家町"
  },
  "2270032": {
    "zipcode": "2270032",
    "prefectureCode": "14",
    "prefectureNumber": 14,
    "prefecture": "神奈川県",
    "city": "横浜市青葉区",
    "town": "成合町"
  },
  "2270033": {
    "zipcode": "2270033",
    "prefectureCode": "14",
    "prefectureNumber": 14,
    "prefecture": "神奈川県",
    "city": "横浜市青葉区",
    "town": "鴨志田町"
  },
  "2270034": {
    "zipcode": "2270034",
    "prefectureCode": "14",
    "prefectureNumber": 14,
    "prefecture": "神奈川県",
    "city": "横浜市青葉区",
    "town": "桂台"
  },
  "2270035": {
    "zipcode": "2270035",
    "prefectureCode": "14",
    "prefectureNumber": 14,
    "prefecture": "神奈川県",
    "city": "横浜市青葉区",
    "town": "すみよし台"
  },
  "2270036": {
    "zipcode": "2270036",
    "prefectureCode": "14",
    "prefectureNumber": 14,
    "prefecture": "神奈川県",
    "city": "横浜市青葉区",
    "town": "奈良町"
  },
  "2270037": {
    "zipcode": "2270037",
    "prefectureCode": "14",
    "prefectureNumber": 14,
    "prefecture": "神奈川県",
    "city": "横浜市青葉区",
    "town": "緑山"
  },
  "2270038": {
    "zipcode": "2270038",
    "prefectureCode": "14",
    "prefectureNumber": 14,
    "prefecture": "神奈川県",
    "city": "横浜市青葉区",
    "town": "奈良"
  },
  "2270041": {
    "zipcode": "2270041",
    "prefectureCode": "14",
    "prefectureNumber": 14,
    "prefecture": "神奈川県",
    "city": "横浜市青葉区",
    "town": "上谷本町"
  },
  "2270042": {
    "zipcode": "2270042",
    "prefectureCode": "14",
    "prefectureNumber": 14,
    "prefecture": "神奈川県",
    "city": "横浜市青葉区",
    "town": "下谷本町"
  },
  "2270043": {
    "zipcode": "2270043",
    "prefectureCode": "14",
    "prefectureNumber": 14,
    "prefecture": "神奈川県",
    "city": "横浜市青葉区",
    "town": "藤が丘"
  },
  "2270044": {
    "zipcode": "2270044",
    "prefectureCode": "14",
    "prefectureNumber": 14,
    "prefecture": "神奈川県",
    "city": "横浜市青葉区",
    "town": "もえぎ野"
  },
  "2270045": {
    "zipcode": "2270045",
    "prefectureCode": "14",
    "prefectureNumber": 14,
    "prefecture": "神奈川県",
    "city": "横浜市青葉区",
    "town": "若草台"
  },
  "2270046": {
    "zipcode": "2270046",
    "prefectureCode": "14",
    "prefectureNumber": 14,
    "prefecture": "神奈川県",
    "city": "横浜市青葉区",
    "town": "たちばな台"
  },
  "2270047": {
    "zipcode": "2270047",
    "prefectureCode": "14",
    "prefectureNumber": 14,
    "prefecture": "神奈川県",
    "city": "横浜市青葉区",
    "town": "みたけ台"
  },
  "2270048": {
    "zipcode": "2270048",
    "prefectureCode": "14",
    "prefectureNumber": 14,
    "prefecture": "神奈川県",
    "city": "横浜市青葉区",
    "town": "柿の木台"
  },
  "2270051": {
    "zipcode": "2270051",
    "prefectureCode": "14",
    "prefectureNumber": 14,
    "prefecture": "神奈川県",
    "city": "横浜市青葉区",
    "town": "千草台"
  },
  "2270052": {
    "zipcode": "2270052",
    "prefectureCode": "14",
    "prefectureNumber": 14,
    "prefecture": "神奈川県",
    "city": "横浜市青葉区",
    "town": "梅が丘"
  },
  "2270053": {
    "zipcode": "2270053",
    "prefectureCode": "14",
    "prefectureNumber": 14,
    "prefecture": "神奈川県",
    "city": "横浜市青葉区",
    "town": "さつきが丘"
  },
  "2270054": {
    "zipcode": "2270054",
    "prefectureCode": "14",
    "prefectureNumber": 14,
    "prefecture": "神奈川県",
    "city": "横浜市青葉区",
    "town": "しらとり台"
  },
  "2270055": {
    "zipcode": "2270055",
    "prefectureCode": "14",
    "prefectureNumber": 14,
    "prefecture": "神奈川県",
    "city": "横浜市青葉区",
    "town": "つつじが丘"
  },
  "2270061": {
    "zipcode": "2270061",
    "prefectureCode": "14",
    "prefectureNumber": 14,
    "prefecture": "神奈川県",
    "city": "横浜市青葉区",
    "town": "桜台"
  },
  "2270062": {
    "zipcode": "2270062",
    "prefectureCode": "14",
    "prefectureNumber": 14,
    "prefecture": "神奈川県",
    "city": "横浜市青葉区",
    "town": "青葉台"
  },
  "2270063": {
    "zipcode": "2270063",
    "prefectureCode": "14",
    "prefectureNumber": 14,
    "prefecture": "神奈川県",
    "city": "横浜市青葉区",
    "town": "榎が丘"
  },
  "2270064": {
    "zipcode": "2270064",
    "prefectureCode": "14",
    "prefectureNumber": 14,
    "prefecture": "神奈川県",
    "city": "横浜市青葉区",
    "town": "田奈町"
  },
  "2270065": {
    "zipcode": "2270065",
    "prefectureCode": "14",
    "prefectureNumber": 14,
    "prefecture": "神奈川県",
    "city": "横浜市青葉区",
    "town": "恩田町"
  },
  "2270066": {
    "zipcode": "2270066",
    "prefectureCode": "14",
    "prefectureNumber": 14,
    "prefecture": "神奈川県",
    "city": "横浜市青葉区",
    "town": "あかね台"
  },
  "2270067": {
    "zipcode": "2270067",
    "prefectureCode": "14",
    "prefectureNumber": 14,
    "prefecture": "神奈川県",
    "city": "横浜市青葉区",
    "town": "松風台"
  }
}
