{
  "2300000": {
    "zipcode": "2300000",
    "prefectureCode": "14",
    "prefectureNumber": 14,
    "prefecture": "神奈川県",
    "city": "横浜市鶴見区",
    "town": "以下に掲載がない場合"
  },
  "2300001": {
    "zipcode": "2300001",
    "prefectureCode": "14",
    "prefectureNumber": 14,
    "prefecture": "神奈川県",
    "city": "横浜市鶴見区",
    "town": "矢向"
  },
  "2300002": {
    "zipcode": "2300002",
    "prefectureCode": "14",
    "prefectureNumber": 14,
    "prefecture": "神奈川県",
    "city": "横浜市鶴見区",
    "town": "江ケ崎町"
  },
  "2300003": {
    "zipcode": "2300003",
    "prefectureCode": "14",
    "prefectureNumber": 14,
    "prefecture": "神奈川県",
    "city": "横浜市鶴見区",
    "town": "尻手"
  },
  "2300004": {
    "zipcode": "2300004",
    "prefectureCode": "14",
    "prefectureNumber": 14,
    "prefecture": "神奈川県",
    "city": "横浜市鶴見区",
    "town": "元宮"
  },
  "2300011": {
    "zipcode": "2300011",
    "prefectureCode": "14",
    "prefectureNumber": 14,
    "prefecture": "神奈川県",
    "city": "横浜市鶴見区",
    "town": "上末吉"
  },
  "2300012": {
    "zipcode": "2300012",
    "prefectureCode": "14",
    "prefectureNumber": 14,
    "prefecture": "神奈川県",
    "city": "横浜市鶴見区",
    "town": "下末吉"
  },
  "2300013": {
    "zipcode": "2300013",
    "prefectureCode": "14",
    "prefectureNumber": 14,
    "prefecture": "神奈川県",
    "city": "横浜市鶴見区",
    "town": "三ツ池公園"
  },
  "2300014": {
    "zipcode": "2300014",
    "prefectureCode": "14",
    "prefectureNumber": 14,
    "prefecture": "神奈川県",
    "city": "横浜市鶴見区",
    "town": "諏訪坂"
  },
  "2300015": {
    "zipcode": "2300015",
    "prefectureCode": "14",
    "prefectureNumber": 14,
    "prefecture": "神奈川県",
    "city": "横浜市鶴見区",
    "town": "寺谷"
  },
  "2300016": {
    "zipcode": "2300016",
    "prefectureCode": "14",
    "prefectureNumber": 14,
    "prefecture": "神奈川県",
    "city": "横浜市鶴見区",
    "town": "東寺尾北台"
  },
  "2300017": {
    "zipcode": "2300017",
    "prefectureCode": "14",
    "prefectureNumber": 14,
    "prefecture": "神奈川県",
    "city": "横浜市鶴見区",
    "town": "東寺尾中台"
  },
  "2300018": {
    "zipcode": "2300018",
    "prefectureCode": "14",
    "prefectureNumber": 14,
    "prefecture": "神奈川県",
    "city": "横浜市鶴見区",
    "town": "東寺尾東台"
  },
  "2300021": {
    "zipcode": "2300021",
    "prefectureCode": "14",
    "prefectureNumber": 14,
    "prefecture": "神奈川県",
    "city": "横浜市鶴見区",
    "town": "市場上町"
  },
  "2300022": {
    "zipcode": "2300022",
    "prefectureCode": "14",
    "prefectureNumber": 14,
    "prefecture": "神奈川県",
    "city": "横浜市鶴見区",
    "town": "市場東中町"
  },
  "2300023": {
    "zipcode": "2300023",
    "prefectureCode": "14",
    "prefectureNumber": 14,
    "prefecture": "神奈川県",
    "city": "横浜市鶴見区",
    "town": "市場西中町"
  },
  "2300024": {
    "zipcode": "2300024",
    "prefectureCode": "14",
    "prefectureNumber": 14,
    "prefecture": "神奈川県",
    "city": "横浜市鶴見区",
    "town": "市場下町"
  },
  "2300025": {
    "zipcode": "2300025",
    "prefectureCode": "14",
    "prefectureNumber": 14,
    "prefecture": "神奈川県",
    "city": "横浜市鶴見区",
    "town": "市場大和町"
  },
  "2300026": {
    "zipcode": "2300026",
    "prefectureCode": "14",
    "prefectureNumber": 14,
    "prefecture": "神奈川県",
    "city": "横浜市鶴見区",
    "town": "市場富士見町"
  },
  "2300027": {
    "zipcode": "2300027",
    "prefectureCode": "14",
    "prefectureNumber": 14,
    "prefecture": "神奈川県",
    "city": "横浜市鶴見区",
    "town": "菅沢町"
  },
  "2300031": {
    "zipcode": "2300031",
    "prefectureCode": "14",
    "prefectureNumber": 14,
    "prefecture": "神奈川県",
    "city": "横浜市鶴見区",
    "town": "平安町"
  },
  "2300032": {
    "zipcode": "2300032",
    "prefectureCode": "14",
    "prefectureNumber": 14,
    "prefecture": "神奈川県",
    "city": "横浜市鶴見区",
    "town": "大東町"
  },
  "2300033": {
    "zipcode": "2300033",
    "prefectureCode": "14",
    "prefectureNumber": 14,
    "prefecture": "神奈川県",
    "city": "横浜市鶴見区",
    "town": "朝日町"
  },
  "2300034": {
    "zipcode": "2300034",
    "prefectureCode": "14",
    "prefectureNumber": 14,
    "prefecture": "神奈川県",
    "city": "横浜市鶴見区",
    "town": "寛政町"
  },
  "2300035": {
    "zipcode": "2300035",
    "prefectureCode": "14",
    "prefectureNumber": 14,
    "prefecture": "神奈川県",
    "city": "横浜市鶴見区",
    "town": "安善町"
  },
  "2300036": {
    "zipcode": "2300036",
    "prefectureCode": "14",
    "prefectureNumber": 14,
    "prefecture": "神奈川県",
    "city": "横浜市鶴見区",
    "town": "浜町"
  },
  "2300037": {
    "zipcode": "2300037",
    "prefectureCode": "14",
    "prefectureNumber": 14,
    "prefecture": "神奈川県",
    "city": "横浜市鶴見区",
    "town": "向井町"
  },
  "2300038": {
    "zipcode": "2300038",
    "prefectureCode": "14",
    "prefectureNumber": 14,
    "prefecture": "神奈川県",
    "city": "横浜市鶴見区",
    "town": "栄町通"
  },
  "2300041": {
    "zipcode": "2300041",
    "prefectureCode": "14",
    "prefectureNumber": 14,
    "prefecture": "神奈川県",
    "city": "横浜市鶴見区",
    "town": "潮田町"
  },
  "2300042": {
    "zipcode": "2300042",
    "prefectureCode": "14",
    "prefectureNumber": 14,
    "prefecture": "神奈川県",
    "city": "横浜市鶴見区",
    "town": "仲通"
  },
  "2300043": {
    "zipcode": "2300043",
    "prefectureCode": "14",
    "prefectureNumber": 14,
    "prefecture": "神奈川県",
    "city": "横浜市鶴見区",
    "town": "汐入町"
  },
  "2300044": {
    "zipcode": "2300044",
    "prefectureCode": "14",
    "prefectureNumber": 14,
    "prefecture": "神奈川県",
    "city": "横浜市鶴見区",
    "town": "弁天町"
  },
  "2300045": {
    "zipcode": "2300045",
    "prefectureCode": "14",
    "prefectureNumber": 14,
    "prefecture": "神奈川県",
    "city": "横浜市鶴見区",
    "town": "末広町"
  },
  "2300046": {
    "zipcode": "2300046",
    "prefectureCode": "14",
    "prefectureNumber": 14,
    "prefecture": "神奈川県",
    "city": "横浜市鶴見区",
    "town": "小野町"
  },
  "2300047": {
    "zipcode": "2300047",
    "prefectureCode": "14",
    "prefectureNumber": 14,
    "prefecture": "神奈川県",
    "city": "横浜市鶴見区",
    "town": "下野谷町"
  },
  "2300048": {
    "zipcode": "2300048",
    "prefectureCode": "14",
    "prefectureNumber": 14,
    "prefecture": "神奈川県",
    "city": "横浜市鶴見区",
    "town": "本町通"
  },
  "2300051": {
    "zipcode": "2300051",
    "prefectureCode": "14",
    "prefectureNumber": 14,
    "prefecture": "神奈川県",
    "city": "横浜市鶴見区",
    "town": "鶴見中央"
  },
  "2300052": {
    "zipcode": "2300052",
    "prefectureCode": "14",
    "prefectureNumber": 14,
    "prefecture": "神奈川県",
    "city": "横浜市鶴見区",
    "town": "生麦"
  },
  "2300053": {
    "zipcode": "2300053",
    "prefectureCode": "14",
    "prefectureNumber": 14,
    "prefecture": "神奈川県",
    "city": "横浜市鶴見区",
    "town": "大黒町"
  },
  "2300054": {
    "zipcode": "2300054",
    "prefectureCode": "14",
    "prefectureNumber": 14,
    "prefecture": "神奈川県",
    "city": "横浜市鶴見区",
    "town": "大黒ふ頭"
  },
  "2300055": {
    "zipcode": "2300055",
    "prefectureCode": "14",
    "prefectureNumber": 14,
    "prefecture": "神奈川県",
    "city": "横浜市鶴見区",
    "town": "扇島"
  },
  "2300061": {
    "zipcode": "2300061",
    "prefectureCode": "14",
    "prefectureNumber": 14,
    "prefecture": "神奈川県",
    "city": "横浜市鶴見区",
    "town": "佃野町"
  },
  "2300062": {
    "zipcode": "2300062",
    "prefectureCode": "14",
    "prefectureNumber": 14,
    "prefecture": "神奈川県",
    "city": "横浜市鶴見区",
    "town": "豊岡町"
  },
  "2300063": {
    "zipcode": "2300063",
    "prefectureCode": "14",
    "prefectureNumber": 14,
    "prefecture": "神奈川県",
    "city": "横浜市鶴見区",
    "town": "鶴見"
  },
  "2300071": {
    "zipcode": "2300071",
    "prefectureCode": "14",
    "prefectureNumber": 14,
    "prefecture": "神奈川県",
    "city": "横浜市鶴見区",
    "town": "駒岡"
  },
  "2300072": {
    "zipcode": "2300072",
    "prefectureCode": "14",
    "prefectureNumber": 14,
    "prefecture": "神奈川県",
    "city": "横浜市鶴見区",
    "town": "梶山"
  },
  "2300073": {
    "zipcode": "2300073",
    "prefectureCode": "14",
    "prefectureNumber": 14,
    "prefecture": "神奈川県",
    "city": "横浜市鶴見区",
    "town": "獅子ケ谷"
  },
  "2300074": {
    "zipcode": "2300074",
    "prefectureCode": "14",
    "prefectureNumber": 14,
    "prefecture": "神奈川県",
    "city": "横浜市鶴見区",
    "town": "北寺尾"
  },
  "2300075": {
    "zipcode": "2300075",
    "prefectureCode": "14",
    "prefectureNumber": 14,
    "prefecture": "神奈川県",
    "city": "横浜市鶴見区",
    "town": "上の宮"
  },
  "2300076": {
    "zipcode": "2300076",
    "prefectureCode": "14",
    "prefectureNumber": 14,
    "prefecture": "神奈川県",
    "city": "横浜市鶴見区",
    "town": "馬場"
  },
  "2300077": {
    "zipcode": "2300077",
    "prefectureCode": "14",
    "prefectureNumber": 14,
    "prefecture": "神奈川県",
    "city": "横浜市鶴見区",
    "town": "東寺尾"
  },
  "2300078": {
    "zipcode": "2300078",
    "prefectureCode": "14",
    "prefectureNumber": 14,
    "prefecture": "神奈川県",
    "city": "横浜市鶴見区",
    "town": "岸谷"
  }
}
