{
  "2320000": {
    "zipcode": "2320000",
    "prefectureCode": "14",
    "prefectureNumber": 14,
    "prefecture": "神奈川県",
    "city": "横浜市南区",
    "town": "以下に掲載がない場合"
  },
  "2320001": {
    "zipcode": "2320001",
    "prefectureCode": "14",
    "prefectureNumber": 14,
    "prefecture": "神奈川県",
    "city": "横浜市南区",
    "town": "伏見町"
  },
  "2320002": {
    "zipcode": "2320002",
    "prefectureCode": "14",
    "prefectureNumber": 14,
    "prefecture": "神奈川県",
    "city": "横浜市南区",
    "town": "三春台"
  },
  "2320003": {
    "zipcode": "2320003",
    "prefectureCode": "14",
    "prefectureNumber": 14,
    "prefecture": "神奈川県",
    "city": "横浜市南区",
    "town": "西中町"
  },
  "2320004": {
    "zipcode": "2320004",
    "prefectureCode": "14",
    "prefectureNumber": 14,
    "prefecture": "神奈川県",
    "city": "横浜市南区",
    "town": "前里町"
  },
  "2320005": {
    "zipcode": "2320005",
    "prefectureCode": "14",
    "prefectureNumber": 14,
    "prefecture": "神奈川県",
    "city": "横浜市南区",
    "town": "白金町"
  },
  "2320006": {
    "zipcode": "2320006",
    "prefectureCode": "14",
    "prefectureNumber": 14,
    "prefecture": "神奈川県",
    "city": "横浜市南区",
    "town": "南太田"
  },
  "2320007": {
    "zipcode": "2320007",
    "prefectureCode": "14",
    "prefectureNumber": 14,
    "prefecture": "神奈川県",
    "city": "横浜市南区",
    "town": "清水ケ丘"
  },
  "2320008": {
    "zipcode": "2320008",
    "prefectureCode": "14",
    "prefectureNumber": 14,
    "prefecture": "神奈川県",
    "city": "横浜市南区",
    "town": "庚台"
  },
  "2320011": {
    "zipcode": "2320011",
    "prefectureCode": "14",
    "prefectureNumber": 14,
    "prefecture": "神奈川県",
    "city": "横浜市南区",
    "town": "日枝町"
  },
  "2320012": {
    "zipcode": "2320012",
    "prefectureCode": "14",
    "prefectureNumber": 14,
    "prefecture": "神奈川県",
    "city": "横浜市南区",
    "town": "南吉田町"
  },
  "2320013": {
    "zipcode": "2320013",
    "prefectureCode": "14",
    "prefectureNumber": 14,
    "prefecture": "神奈川県",
    "city": "横浜市南区",
    "town": "山王町"
  },
  "2320014": {
    "zipcode": "2320014",
    "prefectureCode": "14",
    "prefectureNumber": 14,
    "prefecture": "神奈川県",
    "city": "横浜市南区",
    "town": "吉野町"
  },
  "2320015": {
    "zipcode": "2320015",
    "prefectureCode": "14",
    "prefectureNumber": 14,
    "prefecture": "神奈川県",
    "city": "横浜市南区",
    "town": "共進町"
  },
  "2320016": {
    "zipcode": "2320016",
    "prefectureCode": "14",
    "prefectureNumber": 14,
    "prefecture": "神奈川県",
    "city": "横浜市南区",
    "town": "宮元町"
  },
  "2320017": {
    "zipcode": "2320017",
    "prefectureCode": "14",
    "prefectureNumber": 14,
    "prefecture": "神奈川県",
    "city": "横浜市南区",
    "town": "宿町"
  },
  "2320018": {
    "zipcode": "2320018",
    "prefectureCode": "14",
    "prefectureNumber": 14,
    "prefecture": "神奈川県",
    "city": "横浜市南区",
    "town": "花之木町"
  },
  "2320021": {
    "zipcode": "2320021",
    "prefectureCode": "14",
    "prefectureNumber": 14,
    "prefecture": "神奈川県",
    "city": "横浜市南区",
    "town": "真金町"
  },
  "2320022": {
    "zipcode": "2320022",
    "prefectureCode": "14",
    "prefectureNumber": 14,
    "prefecture": "神奈川県",
    "city": "横浜市南区",
    "town": "高根町"
  },
  "2320023": {
    "zipcode": "2320023",
    "prefectureCode": "14",
    "prefectureNumber": 14,
    "prefecture": "神奈川県",
    "city": "横浜市南区",
    "town": "白妙町"
  },
  "2320024": {
    "zipcode": "2320024",
    "prefectureCode": "14",
    "prefectureNumber": 14,
    "prefecture": "神奈川県",
    "city": "横浜市南区",
    "town": "浦舟町"
  },
  "2320025": {
    "zipcode": "2320025",
    "prefectureCode": "14",
    "prefectureNumber": 14,
    "prefecture": "神奈川県",
    "city": "横浜市南区",
    "town": "高砂町"
  },
  "2320026": {
    "zipcode": "2320026",
    "prefectureCode": "14",
    "prefectureNumber": 14,
    "prefecture": "神奈川県",
    "city": "横浜市南区",
    "town": "二葉町"
  },
  "2320027": {
    "zipcode": "2320027",
    "prefectureCode": "14",
    "prefectureNumber": 14,
    "prefecture": "神奈川県",
    "city": "横浜市南区",
    "town": "新川町"
  },
  "2320031": {
    "zipcode": "2320031",
    "prefectureCode": "14",
    "prefectureNumber": 14,
    "prefecture": "神奈川県",
    "city": "横浜市南区",
    "town": "永楽町"
  },
  "2320032": {
    "zipcode": "2320032",
    "prefectureCode": "14",
    "prefectureNumber": 14,
    "prefecture": "神奈川県",
    "city": "横浜市南区",
    "town": "万世町"
  },
  "2320033": {
    "zipcode": "2320033",
    "prefectureCode": "14",
    "prefectureNumber": 14,
    "prefecture": "神奈川県",
    "city": "横浜市南区",
    "town": "中村町"
  },
  "2320034": {
    "zipcode": "2320034",
    "prefectureCode": "14",
    "prefectureNumber": 14,
    "prefecture": "神奈川県",
    "city": "横浜市南区",
    "town": "唐沢"
  },
  "2320035": {
    "zipcode": "2320035",
    "prefectureCode": "14",
    "prefectureNumber": 14,
    "prefecture": "神奈川県",
    "city": "横浜市南区",
    "town": "平楽"
  },
  "2320036": {
    "zipcode": "2320036",
    "prefectureCode": "14",
    "prefectureNumber": 14,
    "prefecture": "神奈川県",
    "city": "横浜市南区",
    "town": "山谷"
  },
  "2320037": {
    "zipcode": "2320037",
    "prefectureCode": "14",
    "prefectureNumber": 14,
    "prefecture": "神奈川県",
    "city": "横浜市南区",
    "town": "八幡町"
  },
  "2320041": {
    "zipcode": "2320041",
    "prefectureCode": "14",
    "prefectureNumber": 14,
    "prefecture": "神奈川県",
    "city": "横浜市南区",
    "town": "睦町"
  },
  "2320042": {
    "zipcode": "2320042",
    "prefectureCode": "14",
    "prefectureNumber": 14,
    "prefecture": "神奈川県",
    "city": "横浜市南区",
    "town": "堀ノ内町"
  },
  "2320043": {
    "zipcode": "2320043",
    "prefectureCode": "14",
    "prefectureNumber": 14,
    "prefecture": "神奈川県",
    "city": "横浜市南区",
    "town": "蒔田町"
  },
  "2320044": {
    "zipcode": "2320044",
    "prefectureCode": "14",
    "prefectureNumber": 14,
    "prefecture": "神奈川県",
    "city": "横浜市南区",
    "town": "榎町"
  },
  "2320045": {
    "zipcode": "2320045",
    "prefectureCode": "14",
    "prefectureNumber": 14,
    "prefecture": "神奈川県",
    "city": "横浜市南区",
    "town": "東蒔田町"
  },
  "2320051": {
    "zipcode": "2320051",
    "prefectureCode": "14",
    "prefectureNumber": 14,
    "prefecture": "神奈川県",
    "city": "横浜市南区",
    "town": "井土ケ谷上町"
  },
  "2320052": {
    "zipcode": "2320052",
    "prefectureCode": "14",
    "prefectureNumber": 14,
    "prefecture": "神奈川県",
    "city": "横浜市南区",
    "town": "井土ケ谷中町"
  },
  "2320053": {
    "zipcode": "2320053",
    "prefectureCode": "14",
    "prefectureNumber": 14,
    "prefecture": "神奈川県",
    "city": "横浜市南区",
    "town": "井土ケ谷下町"
  },
  "2320054": {
    "zipcode": "2320054",
    "prefectureCode": "14",
    "prefectureNumber": 14,
    "prefecture": "神奈川県",
    "city": "横浜市南区",
    "town": "大橋町"
  },
  "2320055": {
    "zipcode": "2320055",
    "prefectureCode": "14",
    "prefectureNumber": 14,
    "prefecture": "神奈川県",
    "city": "横浜市南区",
    "town": "中島町"
  },
  "2320056": {
    "zipcode": "2320056",
    "prefectureCode": "14",
    "prefectureNumber": 14,
    "prefecture": "神奈川県",
    "city": "横浜市南区",
    "town": "通町"
  },
  "2320057": {
    "zipcode": "2320057",
    "prefectureCode": "14",
    "prefectureNumber": 14,
    "prefecture": "神奈川県",
    "city": "横浜市南区",
    "town": "若宮町"
  },
  "2320061": {
    "zipcode": "2320061",
    "prefectureCode": "14",
    "prefectureNumber": 14,
    "prefecture": "神奈川県",
    "city": "横浜市南区",
    "town": "大岡"
  },
  "2320062": {
    "zipcode": "2320062",
    "prefectureCode": "14",
    "prefectureNumber": 14,
    "prefecture": "神奈川県",
    "city": "横浜市南区",
    "town": "中里町"
  },
  "2320063": {
    "zipcode": "2320063",
    "prefectureCode": "14",
    "prefectureNumber": 14,
    "prefecture": "神奈川県",
    "city": "横浜市南区",
    "town": "中里"
  },
  "2320064": {
    "zipcode": "2320064",
    "prefectureCode": "14",
    "prefectureNumber": 14,
    "prefecture": "神奈川県",
    "city": "横浜市南区",
    "town": "別所"
  },
  "2320065": {
    "zipcode": "2320065",
    "prefectureCode": "14",
    "prefectureNumber": 14,
    "prefecture": "神奈川県",
    "city": "横浜市南区",
    "town": "別所中里台"
  },
  "2320066": {
    "zipcode": "2320066",
    "prefectureCode": "14",
    "prefectureNumber": 14,
    "prefecture": "神奈川県",
    "city": "横浜市南区",
    "town": "六ツ川"
  },
  "2320067": {
    "zipcode": "2320067",
    "prefectureCode": "14",
    "prefectureNumber": 14,
    "prefecture": "神奈川県",
    "city": "横浜市南区",
    "town": "弘明寺町"
  },
  "2320071": {
    "zipcode": "2320071",
    "prefectureCode": "14",
    "prefectureNumber": 14,
    "prefecture": "神奈川県",
    "city": "横浜市南区",
    "town": "永田北"
  },
  "2320072": {
    "zipcode": "2320072",
    "prefectureCode": "14",
    "prefectureNumber": 14,
    "prefecture": "神奈川県",
    "city": "横浜市南区",
    "town": "永田東"
  },
  "2320073": {
    "zipcode": "2320073",
    "prefectureCode": "14",
    "prefectureNumber": 14,
    "prefecture": "神奈川県",
    "city": "横浜市南区",
    "town": "永田南"
  },
  "2320074": {
    "zipcode": "2320074",
    "prefectureCode": "14",
    "prefectureNumber": 14,
    "prefecture": "神奈川県",
    "city": "横浜市南区",
    "town": "永田山王台"
  },
  "2320075": {
    "zipcode": "2320075",
    "prefectureCode": "14",
    "prefectureNumber": 14,
    "prefecture": "神奈川県",
    "city": "横浜市南区",
    "town": "永田みなみ台"
  },
  "2320076": {
    "zipcode": "2320076",
    "prefectureCode": "14",
    "prefectureNumber": 14,
    "prefecture": "神奈川県",
    "city": "横浜市南区",
    "town": "永田台"
  }
}
