{
  "2350000": {
    "zipcode": "2350000",
    "prefectureCode": "14",
    "prefectureNumber": 14,
    "prefecture": "神奈川県",
    "city": "横浜市磯子区",
    "town": "以下に掲載がない場合"
  },
  "2350001": {
    "zipcode": "2350001",
    "prefectureCode": "14",
    "prefectureNumber": 14,
    "prefecture": "神奈川県",
    "city": "横浜市磯子区",
    "town": "上町"
  },
  "2350002": {
    "zipcode": "2350002",
    "prefectureCode": "14",
    "prefectureNumber": 14,
    "prefecture": "神奈川県",
    "city": "横浜市磯子区",
    "town": "馬場町"
  },
  "2350003": {
    "zipcode": "2350003",
    "prefectureCode": "14",
    "prefectureNumber": 14,
    "prefecture": "神奈川県",
    "city": "横浜市磯子区",
    "town": "坂下町"
  },
  "2350004": {
    "zipcode": "2350004",
    "prefectureCode": "14",
    "prefectureNumber": 14,
    "prefecture": "神奈川県",
    "city": "横浜市磯子区",
    "town": "下町"
  },
  "2350005": {
    "zipcode": "2350005",
    "prefectureCode": "14",
    "prefectureNumber": 14,
    "prefecture": "神奈川県",
    "city": "横浜市磯子区",
    "town": "東町"
  },
  "2350006": {
    "zipcode": "2350006",
    "prefectureCode": "14",
    "prefectureNumber": 14,
    "prefecture": "神奈川県",
    "city": "横浜市磯子区",
    "town": "鳳町"
  },
  "2350007": {
    "zipcode": "2350007",
    "prefectureCode": "14",
    "prefectureNumber": 14,
    "prefecture": "神奈川県",
    "city": "横浜市磯子区",
    "town": "西町"
  },
  "2350008": {
    "zipcode": "2350008",
    "prefectureCode": "14",
    "prefectureNumber": 14,
    "prefecture": "神奈川県",
    "city": "横浜市磯子区",
    "town": "原町"
  },
  "2350011": {
    "zipcode": "2350011",
    "prefectureCode": "14",
    "prefectureNumber": 14,
    "prefecture": "神奈川県",
    "city": "横浜市磯子区",
    "town": "丸山"
  },
  "2350012": {
    "zipcode": "2350012",
    "prefectureCode": "14",
    "prefectureNumber": 14,
    "prefecture": "神奈川県",
    "city": "横浜市磯子区",
    "town": "滝頭"
  },
  "2350013": {
    "zipcode": "2350013",
    "prefectureCode": "14",
    "prefectureNumber": 14,
    "prefecture": "神奈川県",
    "city": "横浜市磯子区",
    "town": "広地町"
  },
  "2350014": {
    "zipcode": "2350014",
    "prefectureCode": "14",
    "prefectureNumber": 14,
    "prefecture": "神奈川県",
    "city": "横浜市磯子区",
    "town": "中浜町"
  },
  "2350015": {
    "zipcode": "2350015",
    "prefectureCode": "14",
    "prefectureNumber": 14,
    "prefecture": "神奈川県",
    "city": "横浜市磯子区",
    "town": "久木町"
  },
  "2350016": {
    "zipcode": "2350016",
    "prefectureCode": "14",
    "prefectureNumber": 14,
    "prefecture": "神奈川県",
    "city": "横浜市磯子区",
    "town": "磯子"
  },
  "2350017": {
    "zipcode": "2350017",
    "prefectureCode": "14",
    "prefectureNumber": 14,
    "prefecture": "神奈川県",
    "city": "横浜市磯子区",
    "town": "新磯子町"
  },
  "2350018": {
    "zipcode": "2350018",
    "prefectureCode": "14",
    "prefectureNumber": 14,
    "prefecture": "神奈川県",
    "city": "横浜市磯子区",
    "town": "新森町"
  },
  "2350019": {
    "zipcode": "2350019",
    "prefectureCode": "14",
    "prefectureNumber": 14,
    "prefecture": "神奈川県",
    "city": "横浜市磯子区",
    "town": "磯子台"
  },
  "2350021": {
    "zipcode": "2350021",
    "prefectureCode": "14",
    "prefectureNumber": 14,
    "prefecture": "神奈川県",
    "city": "横浜市磯子区",
    "town": "岡村"
  },
  "2350022": {
    "zipcode": "2350022",
    "prefectureCode": "14",
    "prefectureNumber": 14,
    "prefecture": "神奈川県",
    "city": "横浜市磯子区",
    "town": "汐見台"
  },
  "2350023": {
    "zipcode": "2350023",
    "prefectureCode": "14",
    "prefectureNumber": 14,
    "prefecture": "神奈川県",
    "city": "横浜市磯子区",
    "town": "森"
  },
  "2350024": {
    "zipcode": "2350024",
    "prefectureCode": "14",
    "prefectureNumber": 14,
    "prefecture": "神奈川県",
    "city": "横浜市磯子区",
    "town": "森が丘"
  },
  "2350031": {
    "zipcode": "2350031",
    "prefectureCode": "14",
    "prefectureNumber": 14,
    "prefecture": "神奈川県",
    "city": "横浜市磯子区",
    "town": "新中原町"
  },
  "2350032": {
    "zipcode": "2350032",
    "prefectureCode": "14",
    "prefectureNumber": 14,
    "prefecture": "神奈川県",
    "city": "横浜市磯子区",
    "town": "新杉田町"
  },
  "2350033": {
    "zipcode": "2350033",
    "prefectureCode": "14",
    "prefectureNumber": 14,
    "prefecture": "神奈川県",
    "city": "横浜市磯子区",
    "town": "杉田"
  },
  "2350034": {
    "zipcode": "2350034",
    "prefectureCode": "14",
    "prefectureNumber": 14,
    "prefecture": "神奈川県",
    "city": "横浜市磯子区",
    "town": "杉田坪呑"
  },
  "2350035": {
    "zipcode": "2350035",
    "prefectureCode": "14",
    "prefectureNumber": 14,
    "prefecture": "神奈川県",
    "city": "横浜市磯子区",
    "town": "田中"
  },
  "2350036": {
    "zipcode": "2350036",
    "prefectureCode": "14",
    "prefectureNumber": 14,
    "prefecture": "神奈川県",
    "city": "横浜市磯子区",
    "town": "中原"
  },
  "2350041": {
    "zipcode": "2350041",
    "prefectureCode": "14",
    "prefectureNumber": 14,
    "prefecture": "神奈川県",
    "city": "横浜市磯子区",
    "town": "栗木"
  },
  "2350042": {
    "zipcode": "2350042",
    "prefectureCode": "14",
    "prefectureNumber": 14,
    "prefecture": "神奈川県",
    "city": "横浜市磯子区",
    "town": "上中里町"
  },
  "2350043": {
    "zipcode": "2350043",
    "prefectureCode": "14",
    "prefectureNumber": 14,
    "prefecture": "神奈川県",
    "city": "横浜市磯子区",
    "town": "氷取沢町"
  },
  "2350044": {
    "zipcode": "2350044",
    "prefectureCode": "14",
    "prefectureNumber": 14,
    "prefecture": "神奈川県",
    "city": "横浜市磯子区",
    "town": "峰町"
  },
  "2350045": {
    "zipcode": "2350045",
    "prefectureCode": "14",
    "prefectureNumber": 14,
    "prefecture": "神奈川県",
    "city": "横浜市磯子区",
    "town": "洋光台"
  }
}
