{
  "2370061": {
    "zipcode": "2370061",
    "prefectureCode": "14",
    "prefectureNumber": 14,
    "prefecture": "神奈川県",
    "city": "横須賀市",
    "town": "夏島町"
  },
  "2370062": {
    "zipcode": "2370062",
    "prefectureCode": "14",
    "prefectureNumber": 14,
    "prefecture": "神奈川県",
    "city": "横須賀市",
    "town": "浦郷町"
  },
  "2370063": {
    "zipcode": "2370063",
    "prefectureCode": "14",
    "prefectureNumber": 14,
    "prefecture": "神奈川県",
    "city": "横須賀市",
    "town": "追浜東町"
  },
  "2370064": {
    "zipcode": "2370064",
    "prefectureCode": "14",
    "prefectureNumber": 14,
    "prefecture": "神奈川県",
    "city": "横須賀市",
    "town": "追浜町"
  },
  "2370065": {
    "zipcode": "2370065",
    "prefectureCode": "14",
    "prefectureNumber": 14,
    "prefecture": "神奈川県",
    "city": "横須賀市",
    "town": "追浜南町"
  },
  "2370066": {
    "zipcode": "2370066",
    "prefectureCode": "14",
    "prefectureNumber": 14,
    "prefecture": "神奈川県",
    "city": "横須賀市",
    "town": "湘南鷹取"
  },
  "2370067": {
    "zipcode": "2370067",
    "prefectureCode": "14",
    "prefectureNumber": 14,
    "prefecture": "神奈川県",
    "city": "横須賀市",
    "town": "鷹取"
  },
  "2370068": {
    "zipcode": "2370068",
    "prefectureCode": "14",
    "prefectureNumber": 14,
    "prefecture": "神奈川県",
    "city": "横須賀市",
    "town": "追浜本町"
  },
  "2370071": {
    "zipcode": "2370071",
    "prefectureCode": "14",
    "prefectureNumber": 14,
    "prefecture": "神奈川県",
    "city": "横須賀市",
    "town": "田浦港町"
  },
  "2370072": {
    "zipcode": "2370072",
    "prefectureCode": "14",
    "prefectureNumber": 14,
    "prefecture": "神奈川県",
    "city": "横須賀市",
    "town": "長浦町"
  },
  "2370073": {
    "zipcode": "2370073",
    "prefectureCode": "14",
    "prefectureNumber": 14,
    "prefecture": "神奈川県",
    "city": "横須賀市",
    "town": "田浦泉町"
  },
  "2370074": {
    "zipcode": "2370074",
    "prefectureCode": "14",
    "prefectureNumber": 14,
    "prefecture": "神奈川県",
    "city": "横須賀市",
    "town": "田浦大作町"
  },
  "2370075": {
    "zipcode": "2370075",
    "prefectureCode": "14",
    "prefectureNumber": 14,
    "prefecture": "神奈川県",
    "city": "横須賀市",
    "town": "田浦町"
  },
  "2370076": {
    "zipcode": "2370076",
    "prefectureCode": "14",
    "prefectureNumber": 14,
    "prefecture": "神奈川県",
    "city": "横須賀市",
    "town": "船越町"
  },
  "2370077": {
    "zipcode": "2370077",
    "prefectureCode": "14",
    "prefectureNumber": 14,
    "prefecture": "神奈川県",
    "city": "横須賀市",
    "town": "浜見台"
  },
  "2370078": {
    "zipcode": "2370078",
    "prefectureCode": "14",
    "prefectureNumber": 14,
    "prefecture": "神奈川県",
    "city": "横須賀市",
    "town": "箱崎町"
  },
  "2370079": {
    "zipcode": "2370079",
    "prefectureCode": "14",
    "prefectureNumber": 14,
    "prefecture": "神奈川県",
    "city": "横須賀市",
    "town": "港が丘"
  }
}
