{
  "2380000": {
    "zipcode": "2380000",
    "prefectureCode": "14",
    "prefectureNumber": 14,
    "prefecture": "神奈川県",
    "city": "横須賀市",
    "town": "以下に掲載がない場合"
  },
  "2380001": {
    "zipcode": "2380001",
    "prefectureCode": "14",
    "prefectureNumber": 14,
    "prefecture": "神奈川県",
    "city": "横須賀市",
    "town": "泊町"
  },
  "2380002": {
    "zipcode": "2380002",
    "prefectureCode": "14",
    "prefectureNumber": 14,
    "prefecture": "神奈川県",
    "city": "横須賀市",
    "town": "楠ケ浦町"
  },
  "2380003": {
    "zipcode": "2380003",
    "prefectureCode": "14",
    "prefectureNumber": 14,
    "prefecture": "神奈川県",
    "city": "横須賀市",
    "town": "稲岡町"
  },
  "2380004": {
    "zipcode": "2380004",
    "prefectureCode": "14",
    "prefectureNumber": 14,
    "prefecture": "神奈川県",
    "city": "横須賀市",
    "town": "小川町"
  },
  "2380005": {
    "zipcode": "2380005",
    "prefectureCode": "14",
    "prefectureNumber": 14,
    "prefecture": "神奈川県",
    "city": "横須賀市",
    "town": "新港町"
  },
  "2380006": {
    "zipcode": "2380006",
    "prefectureCode": "14",
    "prefectureNumber": 14,
    "prefecture": "神奈川県",
    "city": "横須賀市",
    "town": "日の出町"
  },
  "2380007": {
    "zipcode": "2380007",
    "prefectureCode": "14",
    "prefectureNumber": 14,
    "prefecture": "神奈川県",
    "city": "横須賀市",
    "town": "若松町"
  },
  "2380008": {
    "zipcode": "2380008",
    "prefectureCode": "14",
    "prefectureNumber": 14,
    "prefecture": "神奈川県",
    "city": "横須賀市",
    "town": "大滝町"
  },
  "2380011": {
    "zipcode": "2380011",
    "prefectureCode": "14",
    "prefectureNumber": 14,
    "prefecture": "神奈川県",
    "city": "横須賀市",
    "town": "米が浜通"
  },
  "2380012": {
    "zipcode": "2380012",
    "prefectureCode": "14",
    "prefectureNumber": 14,
    "prefecture": "神奈川県",
    "city": "横須賀市",
    "town": "安浦町"
  },
  "2380013": {
    "zipcode": "2380013",
    "prefectureCode": "14",
    "prefectureNumber": 14,
    "prefecture": "神奈川県",
    "city": "横須賀市",
    "town": "平成町"
  },
  "2380014": {
    "zipcode": "2380014",
    "prefectureCode": "14",
    "prefectureNumber": 14,
    "prefecture": "神奈川県",
    "city": "横須賀市",
    "town": "三春町"
  },
  "2380015": {
    "zipcode": "2380015",
    "prefectureCode": "14",
    "prefectureNumber": 14,
    "prefecture": "神奈川県",
    "city": "横須賀市",
    "town": "田戸台"
  },
  "2380016": {
    "zipcode": "2380016",
    "prefectureCode": "14",
    "prefectureNumber": 14,
    "prefecture": "神奈川県",
    "city": "横須賀市",
    "town": "深田台"
  },
  "2380017": {
    "zipcode": "2380017",
    "prefectureCode": "14",
    "prefectureNumber": 14,
    "prefecture": "神奈川県",
    "city": "横須賀市",
    "town": "上町"
  },
  "2380018": {
    "zipcode": "2380018",
    "prefectureCode": "14",
    "prefectureNumber": 14,
    "prefecture": "神奈川県",
    "city": "横須賀市",
    "town": "緑が丘"
  },
  "2380019": {
    "zipcode": "2380019",
    "prefectureCode": "14",
    "prefectureNumber": 14,
    "prefecture": "神奈川県",
    "city": "横須賀市",
    "town": "猿島"
  },
  "2380021": {
    "zipcode": "2380021",
    "prefectureCode": "14",
    "prefectureNumber": 14,
    "prefecture": "神奈川県",
    "city": "横須賀市",
    "town": "富士見町"
  },
  "2380022": {
    "zipcode": "2380022",
    "prefectureCode": "14",
    "prefectureNumber": 14,
    "prefecture": "神奈川県",
    "city": "横須賀市",
    "town": "公郷町"
  },
  "2380023": {
    "zipcode": "2380023",
    "prefectureCode": "14",
    "prefectureNumber": 14,
    "prefecture": "神奈川県",
    "city": "横須賀市",
    "town": "森崎"
  },
  "2380024": {
    "zipcode": "2380024",
    "prefectureCode": "14",
    "prefectureNumber": 14,
    "prefecture": "神奈川県",
    "city": "横須賀市",
    "town": "大矢部"
  },
  "2380025": {
    "zipcode": "2380025",
    "prefectureCode": "14",
    "prefectureNumber": 14,
    "prefecture": "神奈川県",
    "city": "横須賀市",
    "town": "衣笠町"
  },
  "2380026": {
    "zipcode": "2380026",
    "prefectureCode": "14",
    "prefectureNumber": 14,
    "prefecture": "神奈川県",
    "city": "横須賀市",
    "town": "小矢部"
  },
  "2380031": {
    "zipcode": "2380031",
    "prefectureCode": "14",
    "prefectureNumber": 14,
    "prefecture": "神奈川県",
    "city": "横須賀市",
    "town": "衣笠栄町"
  },
  "2380032": {
    "zipcode": "2380032",
    "prefectureCode": "14",
    "prefectureNumber": 14,
    "prefecture": "神奈川県",
    "city": "横須賀市",
    "town": "平作"
  },
  "2380033": {
    "zipcode": "2380033",
    "prefectureCode": "14",
    "prefectureNumber": 14,
    "prefecture": "神奈川県",
    "city": "横須賀市",
    "town": "阿部倉"
  },
  "2380034": {
    "zipcode": "2380034",
    "prefectureCode": "14",
    "prefectureNumber": 14,
    "prefecture": "神奈川県",
    "city": "横須賀市",
    "town": "金谷"
  },
  "2380035": {
    "zipcode": "2380035",
    "prefectureCode": "14",
    "prefectureNumber": 14,
    "prefecture": "神奈川県",
    "city": "横須賀市",
    "town": "池上"
  },
  "2380036": {
    "zipcode": "2380036",
    "prefectureCode": "14",
    "prefectureNumber": 14,
    "prefecture": "神奈川県",
    "city": "横須賀市",
    "town": "山中町"
  },
  "2380041": {
    "zipcode": "2380041",
    "prefectureCode": "14",
    "prefectureNumber": 14,
    "prefecture": "神奈川県",
    "city": "横須賀市",
    "town": "本町"
  },
  "2380042": {
    "zipcode": "2380042",
    "prefectureCode": "14",
    "prefectureNumber": 14,
    "prefecture": "神奈川県",
    "city": "横須賀市",
    "town": "汐入町"
  },
  "2380043": {
    "zipcode": "2380043",
    "prefectureCode": "14",
    "prefectureNumber": 14,
    "prefecture": "神奈川県",
    "city": "横須賀市",
    "town": "坂本町"
  },
  "2380044": {
    "zipcode": "2380044",
    "prefectureCode": "14",
    "prefectureNumber": 14,
    "prefecture": "神奈川県",
    "city": "横須賀市",
    "town": "逸見が丘"
  },
  "2380045": {
    "zipcode": "2380045",
    "prefectureCode": "14",
    "prefectureNumber": 14,
    "prefecture": "神奈川県",
    "city": "横須賀市",
    "town": "東逸見町"
  },
  "2380046": {
    "zipcode": "2380046",
    "prefectureCode": "14",
    "prefectureNumber": 14,
    "prefecture": "神奈川県",
    "city": "横須賀市",
    "town": "西逸見町"
  },
  "2380047": {
    "zipcode": "2380047",
    "prefectureCode": "14",
    "prefectureNumber": 14,
    "prefecture": "神奈川県",
    "city": "横須賀市",
    "town": "吉倉町"
  },
  "2380048": {
    "zipcode": "2380048",
    "prefectureCode": "14",
    "prefectureNumber": 14,
    "prefecture": "神奈川県",
    "city": "横須賀市",
    "town": "安針台"
  },
  "2380051": {
    "zipcode": "2380051",
    "prefectureCode": "14",
    "prefectureNumber": 14,
    "prefecture": "神奈川県",
    "city": "横須賀市",
    "town": "不入斗町"
  },
  "2380052": {
    "zipcode": "2380052",
    "prefectureCode": "14",
    "prefectureNumber": 14,
    "prefecture": "神奈川県",
    "city": "横須賀市",
    "town": "佐野町"
  },
  "2380053": {
    "zipcode": "2380053",
    "prefectureCode": "14",
    "prefectureNumber": 14,
    "prefecture": "神奈川県",
    "city": "横須賀市",
    "town": "望洋台"
  },
  "2380054": {
    "zipcode": "2380054",
    "prefectureCode": "14",
    "prefectureNumber": 14,
    "prefecture": "神奈川県",
    "city": "横須賀市",
    "town": "汐見台"
  },
  "2380055": {
    "zipcode": "2380055",
    "prefectureCode": "14",
    "prefectureNumber": 14,
    "prefecture": "神奈川県",
    "city": "横須賀市",
    "town": "平和台"
  },
  "2380056": {
    "zipcode": "2380056",
    "prefectureCode": "14",
    "prefectureNumber": 14,
    "prefecture": "神奈川県",
    "city": "横須賀市",
    "town": "鶴が丘"
  },
  "2380101": {
    "zipcode": "2380101",
    "prefectureCode": "14",
    "prefectureNumber": 14,
    "prefecture": "神奈川県",
    "city": "三浦市",
    "town": "南下浦町上宮田"
  },
  "2380102": {
    "zipcode": "2380102",
    "prefectureCode": "14",
    "prefectureNumber": 14,
    "prefecture": "神奈川県",
    "city": "三浦市",
    "town": "南下浦町菊名"
  },
  "2380103": {
    "zipcode": "2380103",
    "prefectureCode": "14",
    "prefectureNumber": 14,
    "prefecture": "神奈川県",
    "city": "三浦市",
    "town": "南下浦町金田"
  },
  "2380104": {
    "zipcode": "2380104",
    "prefectureCode": "14",
    "prefectureNumber": 14,
    "prefecture": "神奈川県",
    "city": "三浦市",
    "town": "南下浦町松輪"
  },
  "2380105": {
    "zipcode": "2380105",
    "prefectureCode": "14",
    "prefectureNumber": 14,
    "prefecture": "神奈川県",
    "city": "三浦市",
    "town": "南下浦町毘沙門"
  },
  "2380111": {
    "zipcode": "2380111",
    "prefectureCode": "14",
    "prefectureNumber": 14,
    "prefecture": "神奈川県",
    "city": "三浦市",
    "town": "初声町下宮田"
  },
  "2380112": {
    "zipcode": "2380112",
    "prefectureCode": "14",
    "prefectureNumber": 14,
    "prefecture": "神奈川県",
    "city": "三浦市",
    "town": "初声町三戸"
  },
  "2380113": {
    "zipcode": "2380113",
    "prefectureCode": "14",
    "prefectureNumber": 14,
    "prefecture": "神奈川県",
    "city": "三浦市",
    "town": "初声町入江"
  },
  "2380114": {
    "zipcode": "2380114",
    "prefectureCode": "14",
    "prefectureNumber": 14,
    "prefecture": "神奈川県",
    "city": "三浦市",
    "town": "初声町和田"
  },
  "2380115": {
    "zipcode": "2380115",
    "prefectureCode": "14",
    "prefectureNumber": 14,
    "prefecture": "神奈川県",
    "city": "三浦市",
    "town": "初声町高円坊"
  },
  "2380200": {
    "zipcode": "2380200",
    "prefectureCode": "14",
    "prefectureNumber": 14,
    "prefecture": "神奈川県",
    "city": "三浦市",
    "town": "以下に掲載がない場合"
  },
  "2380221": {
    "zipcode": "2380221",
    "prefectureCode": "14",
    "prefectureNumber": 14,
    "prefecture": "神奈川県",
    "city": "三浦市",
    "town": "三崎町六合"
  },
  "2380222": {
    "zipcode": "2380222",
    "prefectureCode": "14",
    "prefectureNumber": 14,
    "prefecture": "神奈川県",
    "city": "三浦市",
    "town": "岬陽町"
  },
  "2380223": {
    "zipcode": "2380223",
    "prefectureCode": "14",
    "prefectureNumber": 14,
    "prefecture": "神奈川県",
    "city": "三浦市",
    "town": "原町"
  },
  "2380224": {
    "zipcode": "2380224",
    "prefectureCode": "14",
    "prefectureNumber": 14,
    "prefecture": "神奈川県",
    "city": "三浦市",
    "town": "三崎町諸磯"
  },
  "2380225": {
    "zipcode": "2380225",
    "prefectureCode": "14",
    "prefectureNumber": 14,
    "prefecture": "神奈川県",
    "city": "三浦市",
    "town": "三崎町小網代"
  },
  "2380231": {
    "zipcode": "2380231",
    "prefectureCode": "14",
    "prefectureNumber": 14,
    "prefecture": "神奈川県",
    "city": "三浦市",
    "town": "宮川町"
  },
  "2380232": {
    "zipcode": "2380232",
    "prefectureCode": "14",
    "prefectureNumber": 14,
    "prefecture": "神奈川県",
    "city": "三浦市",
    "town": "晴海町"
  },
  "2380233": {
    "zipcode": "2380233",
    "prefectureCode": "14",
    "prefectureNumber": 14,
    "prefecture": "神奈川県",
    "city": "三浦市",
    "town": "向ケ崎町"
  },
  "2380234": {
    "zipcode": "2380234",
    "prefectureCode": "14",
    "prefectureNumber": 14,
    "prefecture": "神奈川県",
    "city": "三浦市",
    "town": "諏訪町"
  },
  "2380235": {
    "zipcode": "2380235",
    "prefectureCode": "14",
    "prefectureNumber": 14,
    "prefecture": "神奈川県",
    "city": "三浦市",
    "town": "城山町"
  },
  "2380236": {
    "zipcode": "2380236",
    "prefectureCode": "14",
    "prefectureNumber": 14,
    "prefecture": "神奈川県",
    "city": "三浦市",
    "town": "栄町"
  },
  "2380237": {
    "zipcode": "2380237",
    "prefectureCode": "14",
    "prefectureNumber": 14,
    "prefecture": "神奈川県",
    "city": "三浦市",
    "town": "三崎町城ケ島"
  },
  "2380241": {
    "zipcode": "2380241",
    "prefectureCode": "14",
    "prefectureNumber": 14,
    "prefecture": "神奈川県",
    "city": "三浦市",
    "town": "天神町"
  },
  "2380242": {
    "zipcode": "2380242",
    "prefectureCode": "14",
    "prefectureNumber": 14,
    "prefecture": "神奈川県",
    "city": "三浦市",
    "town": "東岡町"
  },
  "2380243": {
    "zipcode": "2380243",
    "prefectureCode": "14",
    "prefectureNumber": 14,
    "prefecture": "神奈川県",
    "city": "三浦市",
    "town": "三崎"
  },
  "2380244": {
    "zipcode": "2380244",
    "prefectureCode": "14",
    "prefectureNumber": 14,
    "prefecture": "神奈川県",
    "city": "三浦市",
    "town": "白石町"
  },
  "2380245": {
    "zipcode": "2380245",
    "prefectureCode": "14",
    "prefectureNumber": 14,
    "prefecture": "神奈川県",
    "city": "三浦市",
    "town": "海外町"
  },
  "2380246": {
    "zipcode": "2380246",
    "prefectureCode": "14",
    "prefectureNumber": 14,
    "prefecture": "神奈川県",
    "city": "三浦市",
    "town": "尾上町"
  },
  "2380311": {
    "zipcode": "2380311",
    "prefectureCode": "14",
    "prefectureNumber": 14,
    "prefecture": "神奈川県",
    "city": "横須賀市",
    "town": "太田和"
  },
  "2380312": {
    "zipcode": "2380312",
    "prefectureCode": "14",
    "prefectureNumber": 14,
    "prefecture": "神奈川県",
    "city": "横須賀市",
    "town": "山科台"
  },
  "2380313": {
    "zipcode": "2380313",
    "prefectureCode": "14",
    "prefectureNumber": 14,
    "prefecture": "神奈川県",
    "city": "横須賀市",
    "town": "武"
  },
  "2380314": {
    "zipcode": "2380314",
    "prefectureCode": "14",
    "prefectureNumber": 14,
    "prefecture": "神奈川県",
    "city": "横須賀市",
    "town": "須軽谷"
  },
  "2380315": {
    "zipcode": "2380315",
    "prefectureCode": "14",
    "prefectureNumber": 14,
    "prefecture": "神奈川県",
    "city": "横須賀市",
    "town": "林"
  },
  "2380316": {
    "zipcode": "2380316",
    "prefectureCode": "14",
    "prefectureNumber": 14,
    "prefecture": "神奈川県",
    "city": "横須賀市",
    "town": "長井"
  },
  "2380317": {
    "zipcode": "2380317",
    "prefectureCode": "14",
    "prefectureNumber": 14,
    "prefecture": "神奈川県",
    "city": "横須賀市",
    "town": "御幸浜"
  }
}
