{
  "2390801": {
    "zipcode": "2390801",
    "prefectureCode": "14",
    "prefectureNumber": 14,
    "prefecture": "神奈川県",
    "city": "横須賀市",
    "town": "馬堀海岸"
  },
  "2390802": {
    "zipcode": "2390802",
    "prefectureCode": "14",
    "prefectureNumber": 14,
    "prefecture": "神奈川県",
    "city": "横須賀市",
    "town": "馬堀町"
  },
  "2390803": {
    "zipcode": "2390803",
    "prefectureCode": "14",
    "prefectureNumber": 14,
    "prefecture": "神奈川県",
    "city": "横須賀市",
    "town": "桜が丘"
  },
  "2390804": {
    "zipcode": "2390804",
    "prefectureCode": "14",
    "prefectureNumber": 14,
    "prefecture": "神奈川県",
    "city": "横須賀市",
    "town": "吉井"
  },
  "2390805": {
    "zipcode": "2390805",
    "prefectureCode": "14",
    "prefectureNumber": 14,
    "prefecture": "神奈川県",
    "city": "横須賀市",
    "town": "舟倉"
  },
  "2390806": {
    "zipcode": "2390806",
    "prefectureCode": "14",
    "prefectureNumber": 14,
    "prefecture": "神奈川県",
    "city": "横須賀市",
    "town": "池田町"
  },
  "2390807": {
    "zipcode": "2390807",
    "prefectureCode": "14",
    "prefectureNumber": 14,
    "prefecture": "神奈川県",
    "city": "横須賀市",
    "town": "根岸町"
  },
  "2390808": {
    "zipcode": "2390808",
    "prefectureCode": "14",
    "prefectureNumber": 14,
    "prefecture": "神奈川県",
    "city": "横須賀市",
    "town": "大津町"
  },
  "2390811": {
    "zipcode": "2390811",
    "prefectureCode": "14",
    "prefectureNumber": 14,
    "prefecture": "神奈川県",
    "city": "横須賀市",
    "town": "走水"
  },
  "2390812": {
    "zipcode": "2390812",
    "prefectureCode": "14",
    "prefectureNumber": 14,
    "prefecture": "神奈川県",
    "city": "横須賀市",
    "town": "小原台"
  },
  "2390813": {
    "zipcode": "2390813",
    "prefectureCode": "14",
    "prefectureNumber": 14,
    "prefecture": "神奈川県",
    "city": "横須賀市",
    "town": "鴨居"
  },
  "2390814": {
    "zipcode": "2390814",
    "prefectureCode": "14",
    "prefectureNumber": 14,
    "prefecture": "神奈川県",
    "city": "横須賀市",
    "town": "二葉"
  },
  "2390815": {
    "zipcode": "2390815",
    "prefectureCode": "14",
    "prefectureNumber": 14,
    "prefecture": "神奈川県",
    "city": "横須賀市",
    "town": "浦上台"
  },
  "2390820": {
    "zipcode": "2390820",
    "prefectureCode": "14",
    "prefectureNumber": 14,
    "prefecture": "神奈川県",
    "city": "横須賀市",
    "town": "光風台"
  },
  "2390821": {
    "zipcode": "2390821",
    "prefectureCode": "14",
    "prefectureNumber": 14,
    "prefecture": "神奈川県",
    "city": "横須賀市",
    "town": "東浦賀"
  },
  "2390822": {
    "zipcode": "2390822",
    "prefectureCode": "14",
    "prefectureNumber": 14,
    "prefecture": "神奈川県",
    "city": "横須賀市",
    "town": "浦賀"
  },
  "2390823": {
    "zipcode": "2390823",
    "prefectureCode": "14",
    "prefectureNumber": 14,
    "prefecture": "神奈川県",
    "city": "横須賀市",
    "town": "浦賀丘"
  },
  "2390824": {
    "zipcode": "2390824",
    "prefectureCode": "14",
    "prefectureNumber": 14,
    "prefecture": "神奈川県",
    "city": "横須賀市",
    "town": "西浦賀"
  },
  "2390825": {
    "zipcode": "2390825",
    "prefectureCode": "14",
    "prefectureNumber": 14,
    "prefecture": "神奈川県",
    "city": "横須賀市",
    "town": "南浦賀"
  },
  "2390826": {
    "zipcode": "2390826",
    "prefectureCode": "14",
    "prefectureNumber": 14,
    "prefecture": "神奈川県",
    "city": "横須賀市",
    "town": "長瀬"
  },
  "2390827": {
    "zipcode": "2390827",
    "prefectureCode": "14",
    "prefectureNumber": 14,
    "prefecture": "神奈川県",
    "city": "横須賀市",
    "town": "久里浜台"
  },
  "2390828": {
    "zipcode": "2390828",
    "prefectureCode": "14",
    "prefectureNumber": 14,
    "prefecture": "神奈川県",
    "city": "横須賀市",
    "town": "久比里"
  },
  "2390829": {
    "zipcode": "2390829",
    "prefectureCode": "14",
    "prefectureNumber": 14,
    "prefecture": "神奈川県",
    "city": "横須賀市",
    "town": "若宮台"
  },
  "2390831": {
    "zipcode": "2390831",
    "prefectureCode": "14",
    "prefectureNumber": 14,
    "prefecture": "神奈川県",
    "city": "横須賀市",
    "town": "久里浜"
  },
  "2390832": {
    "zipcode": "2390832",
    "prefectureCode": "14",
    "prefectureNumber": 14,
    "prefecture": "神奈川県",
    "city": "横須賀市",
    "town": "神明町"
  },
  "2390833": {
    "zipcode": "2390833",
    "prefectureCode": "14",
    "prefectureNumber": 14,
    "prefecture": "神奈川県",
    "city": "横須賀市",
    "town": "ハイランド"
  },
  "2390834": {
    "zipcode": "2390834",
    "prefectureCode": "14",
    "prefectureNumber": 14,
    "prefecture": "神奈川県",
    "city": "横須賀市",
    "town": "久村"
  },
  "2390835": {
    "zipcode": "2390835",
    "prefectureCode": "14",
    "prefectureNumber": 14,
    "prefecture": "神奈川県",
    "city": "横須賀市",
    "town": "佐原"
  },
  "2390836": {
    "zipcode": "2390836",
    "prefectureCode": "14",
    "prefectureNumber": 14,
    "prefecture": "神奈川県",
    "city": "横須賀市",
    "town": "内川"
  },
  "2390837": {
    "zipcode": "2390837",
    "prefectureCode": "14",
    "prefectureNumber": 14,
    "prefecture": "神奈川県",
    "city": "横須賀市",
    "town": "内川新田"
  },
  "2390841": {
    "zipcode": "2390841",
    "prefectureCode": "14",
    "prefectureNumber": 14,
    "prefecture": "神奈川県",
    "city": "横須賀市",
    "town": "野比"
  },
  "2390842": {
    "zipcode": "2390842",
    "prefectureCode": "14",
    "prefectureNumber": 14,
    "prefecture": "神奈川県",
    "city": "横須賀市",
    "town": "長沢"
  },
  "2390843": {
    "zipcode": "2390843",
    "prefectureCode": "14",
    "prefectureNumber": 14,
    "prefecture": "神奈川県",
    "city": "横須賀市",
    "town": "津久井"
  },
  "2390844": {
    "zipcode": "2390844",
    "prefectureCode": "14",
    "prefectureNumber": 14,
    "prefecture": "神奈川県",
    "city": "横須賀市",
    "town": "岩戸"
  },
  "2390845": {
    "zipcode": "2390845",
    "prefectureCode": "14",
    "prefectureNumber": 14,
    "prefecture": "神奈川県",
    "city": "横須賀市",
    "town": "粟田"
  },
  "2390846": {
    "zipcode": "2390846",
    "prefectureCode": "14",
    "prefectureNumber": 14,
    "prefecture": "神奈川県",
    "city": "横須賀市",
    "town": "グリーンハイツ"
  },
  "2390847": {
    "zipcode": "2390847",
    "prefectureCode": "14",
    "prefectureNumber": 14,
    "prefecture": "神奈川県",
    "city": "横須賀市",
    "town": "光の丘"
  }
}
