{
  "2400000": {
    "zipcode": "2400000",
    "prefectureCode": "14",
    "prefectureNumber": 14,
    "prefecture": "神奈川県",
    "city": "横浜市保土ケ谷区",
    "town": "以下に掲載がない場合"
  },
  "2400001": {
    "zipcode": "2400001",
    "prefectureCode": "14",
    "prefectureNumber": 14,
    "prefecture": "神奈川県",
    "city": "横浜市保土ケ谷区",
    "town": "川辺町"
  },
  "2400002": {
    "zipcode": "2400002",
    "prefectureCode": "14",
    "prefectureNumber": 14,
    "prefecture": "神奈川県",
    "city": "横浜市保土ケ谷区",
    "town": "宮田町"
  },
  "2400003": {
    "zipcode": "2400003",
    "prefectureCode": "14",
    "prefectureNumber": 14,
    "prefecture": "神奈川県",
    "city": "横浜市保土ケ谷区",
    "town": "天王町"
  },
  "2400004": {
    "zipcode": "2400004",
    "prefectureCode": "14",
    "prefectureNumber": 14,
    "prefecture": "神奈川県",
    "city": "横浜市保土ケ谷区",
    "town": "岩間町"
  },
  "2400005": {
    "zipcode": "2400005",
    "prefectureCode": "14",
    "prefectureNumber": 14,
    "prefecture": "神奈川県",
    "city": "横浜市保土ケ谷区",
    "town": "神戸町"
  },
  "2400006": {
    "zipcode": "2400006",
    "prefectureCode": "14",
    "prefectureNumber": 14,
    "prefecture": "神奈川県",
    "city": "横浜市保土ケ谷区",
    "town": "星川"
  },
  "2400007": {
    "zipcode": "2400007",
    "prefectureCode": "14",
    "prefectureNumber": 14,
    "prefecture": "神奈川県",
    "city": "横浜市保土ケ谷区",
    "town": "明神台"
  },
  "2400011": {
    "zipcode": "2400011",
    "prefectureCode": "14",
    "prefectureNumber": 14,
    "prefecture": "神奈川県",
    "city": "横浜市保土ケ谷区",
    "town": "桜ケ丘"
  },
  "2400012": {
    "zipcode": "2400012",
    "prefectureCode": "14",
    "prefectureNumber": 14,
    "prefecture": "神奈川県",
    "city": "横浜市保土ケ谷区",
    "town": "月見台"
  },
  "2400013": {
    "zipcode": "2400013",
    "prefectureCode": "14",
    "prefectureNumber": 14,
    "prefecture": "神奈川県",
    "city": "横浜市保土ケ谷区",
    "town": "帷子町"
  },
  "2400014": {
    "zipcode": "2400014",
    "prefectureCode": "14",
    "prefectureNumber": 14,
    "prefecture": "神奈川県",
    "city": "横浜市保土ケ谷区",
    "town": "霞台"
  },
  "2400015": {
    "zipcode": "2400015",
    "prefectureCode": "14",
    "prefectureNumber": 14,
    "prefecture": "神奈川県",
    "city": "横浜市保土ケ谷区",
    "town": "岩崎町"
  },
  "2400016": {
    "zipcode": "2400016",
    "prefectureCode": "14",
    "prefectureNumber": 14,
    "prefecture": "神奈川県",
    "city": "横浜市保土ケ谷区",
    "town": "初音ケ丘"
  },
  "2400017": {
    "zipcode": "2400017",
    "prefectureCode": "14",
    "prefectureNumber": 14,
    "prefecture": "神奈川県",
    "city": "横浜市保土ケ谷区",
    "town": "花見台"
  },
  "2400021": {
    "zipcode": "2400021",
    "prefectureCode": "14",
    "prefectureNumber": 14,
    "prefecture": "神奈川県",
    "city": "横浜市保土ケ谷区",
    "town": "保土ケ谷町"
  },
  "2400022": {
    "zipcode": "2400022",
    "prefectureCode": "14",
    "prefectureNumber": 14,
    "prefecture": "神奈川県",
    "city": "横浜市保土ケ谷区",
    "town": "西久保町"
  },
  "2400023": {
    "zipcode": "2400023",
    "prefectureCode": "14",
    "prefectureNumber": 14,
    "prefecture": "神奈川県",
    "city": "横浜市保土ケ谷区",
    "town": "岩井町"
  },
  "2400024": {
    "zipcode": "2400024",
    "prefectureCode": "14",
    "prefectureNumber": 14,
    "prefecture": "神奈川県",
    "city": "横浜市保土ケ谷区",
    "town": "瀬戸ケ谷町"
  },
  "2400025": {
    "zipcode": "2400025",
    "prefectureCode": "14",
    "prefectureNumber": 14,
    "prefecture": "神奈川県",
    "city": "横浜市保土ケ谷区",
    "town": "狩場町"
  },
  "2400026": {
    "zipcode": "2400026",
    "prefectureCode": "14",
    "prefectureNumber": 14,
    "prefecture": "神奈川県",
    "city": "横浜市保土ケ谷区",
    "town": "権太坂"
  },
  "2400031": {
    "zipcode": "2400031",
    "prefectureCode": "14",
    "prefectureNumber": 14,
    "prefecture": "神奈川県",
    "city": "横浜市保土ケ谷区",
    "town": "藤塚町"
  },
  "2400032": {
    "zipcode": "2400032",
    "prefectureCode": "14",
    "prefectureNumber": 14,
    "prefecture": "神奈川県",
    "city": "横浜市保土ケ谷区",
    "town": "法泉"
  },
  "2400033": {
    "zipcode": "2400033",
    "prefectureCode": "14",
    "prefectureNumber": 14,
    "prefecture": "神奈川県",
    "city": "横浜市保土ケ谷区",
    "town": "境木本町"
  },
  "2400034": {
    "zipcode": "2400034",
    "prefectureCode": "14",
    "prefectureNumber": 14,
    "prefecture": "神奈川県",
    "city": "横浜市保土ケ谷区",
    "town": "境木町"
  },
  "2400035": {
    "zipcode": "2400035",
    "prefectureCode": "14",
    "prefectureNumber": 14,
    "prefecture": "神奈川県",
    "city": "横浜市保土ケ谷区",
    "town": "今井町"
  },
  "2400036": {
    "zipcode": "2400036",
    "prefectureCode": "14",
    "prefectureNumber": 14,
    "prefecture": "神奈川県",
    "city": "横浜市保土ケ谷区",
    "town": "新桜ケ丘"
  },
  "2400041": {
    "zipcode": "2400041",
    "prefectureCode": "14",
    "prefectureNumber": 14,
    "prefecture": "神奈川県",
    "city": "横浜市保土ケ谷区",
    "town": "東川島町"
  },
  "2400042": {
    "zipcode": "2400042",
    "prefectureCode": "14",
    "prefectureNumber": 14,
    "prefecture": "神奈川県",
    "city": "横浜市保土ケ谷区",
    "town": "上星川"
  },
  "2400043": {
    "zipcode": "2400043",
    "prefectureCode": "14",
    "prefectureNumber": 14,
    "prefecture": "神奈川県",
    "city": "横浜市保土ケ谷区",
    "town": "坂本町"
  },
  "2400044": {
    "zipcode": "2400044",
    "prefectureCode": "14",
    "prefectureNumber": 14,
    "prefecture": "神奈川県",
    "city": "横浜市保土ケ谷区",
    "town": "仏向町"
  },
  "2400045": {
    "zipcode": "2400045",
    "prefectureCode": "14",
    "prefectureNumber": 14,
    "prefecture": "神奈川県",
    "city": "横浜市保土ケ谷区",
    "town": "川島町"
  },
  "2400046": {
    "zipcode": "2400046",
    "prefectureCode": "14",
    "prefectureNumber": 14,
    "prefecture": "神奈川県",
    "city": "横浜市保土ケ谷区",
    "town": "仏向西"
  },
  "2400051": {
    "zipcode": "2400051",
    "prefectureCode": "14",
    "prefectureNumber": 14,
    "prefecture": "神奈川県",
    "city": "横浜市保土ケ谷区",
    "town": "上菅田町"
  },
  "2400052": {
    "zipcode": "2400052",
    "prefectureCode": "14",
    "prefectureNumber": 14,
    "prefecture": "神奈川県",
    "city": "横浜市保土ケ谷区",
    "town": "西谷町"
  },
  "2400053": {
    "zipcode": "2400053",
    "prefectureCode": "14",
    "prefectureNumber": 14,
    "prefecture": "神奈川県",
    "city": "横浜市保土ケ谷区",
    "town": "新井町"
  },
  "2400054": {
    "zipcode": "2400054",
    "prefectureCode": "14",
    "prefectureNumber": 14,
    "prefecture": "神奈川県",
    "city": "横浜市保土ケ谷区",
    "town": "西谷"
  },
  "2400061": {
    "zipcode": "2400061",
    "prefectureCode": "14",
    "prefectureNumber": 14,
    "prefecture": "神奈川県",
    "city": "横浜市保土ケ谷区",
    "town": "峰沢町"
  },
  "2400062": {
    "zipcode": "2400062",
    "prefectureCode": "14",
    "prefectureNumber": 14,
    "prefecture": "神奈川県",
    "city": "横浜市保土ケ谷区",
    "town": "岡沢町"
  },
  "2400063": {
    "zipcode": "2400063",
    "prefectureCode": "14",
    "prefectureNumber": 14,
    "prefecture": "神奈川県",
    "city": "横浜市保土ケ谷区",
    "town": "鎌谷町"
  },
  "2400064": {
    "zipcode": "2400064",
    "prefectureCode": "14",
    "prefectureNumber": 14,
    "prefecture": "神奈川県",
    "city": "横浜市保土ケ谷区",
    "town": "峰岡町"
  },
  "2400065": {
    "zipcode": "2400065",
    "prefectureCode": "14",
    "prefectureNumber": 14,
    "prefecture": "神奈川県",
    "city": "横浜市保土ケ谷区",
    "town": "和田"
  },
  "2400066": {
    "zipcode": "2400066",
    "prefectureCode": "14",
    "prefectureNumber": 14,
    "prefecture": "神奈川県",
    "city": "横浜市保土ケ谷区",
    "town": "釜台町"
  },
  "2400067": {
    "zipcode": "2400067",
    "prefectureCode": "14",
    "prefectureNumber": 14,
    "prefecture": "神奈川県",
    "city": "横浜市保土ケ谷区",
    "town": "常盤台"
  },
  "2400100": {
    "zipcode": "2400100",
    "prefectureCode": "14",
    "prefectureNumber": 14,
    "prefecture": "神奈川県",
    "city": "三浦郡葉山町",
    "town": "以下に掲載がない場合"
  },
  "2400101": {
    "zipcode": "2400101",
    "prefectureCode": "14",
    "prefectureNumber": 14,
    "prefecture": "神奈川県",
    "city": "横須賀市",
    "town": "長坂"
  },
  "2400102": {
    "zipcode": "2400102",
    "prefectureCode": "14",
    "prefectureNumber": 14,
    "prefecture": "神奈川県",
    "city": "横須賀市",
    "town": "荻野"
  },
  "2400103": {
    "zipcode": "2400103",
    "prefectureCode": "14",
    "prefectureNumber": 14,
    "prefecture": "神奈川県",
    "city": "横須賀市",
    "town": "佐島"
  },
  "2400104": {
    "zipcode": "2400104",
    "prefectureCode": "14",
    "prefectureNumber": 14,
    "prefecture": "神奈川県",
    "city": "横須賀市",
    "town": "芦名"
  },
  "2400105": {
    "zipcode": "2400105",
    "prefectureCode": "14",
    "prefectureNumber": 14,
    "prefecture": "神奈川県",
    "city": "横須賀市",
    "town": "秋谷"
  },
  "2400106": {
    "zipcode": "2400106",
    "prefectureCode": "14",
    "prefectureNumber": 14,
    "prefecture": "神奈川県",
    "city": "横須賀市",
    "town": "子安"
  },
  "2400107": {
    "zipcode": "2400107",
    "prefectureCode": "14",
    "prefectureNumber": 14,
    "prefecture": "神奈川県",
    "city": "横須賀市",
    "town": "湘南国際村"
  },
  "2400108": {
    "zipcode": "2400108",
    "prefectureCode": "14",
    "prefectureNumber": 14,
    "prefecture": "神奈川県",
    "city": "横須賀市",
    "town": "佐島の丘"
  },
  "2400111": {
    "zipcode": "2400111",
    "prefectureCode": "14",
    "prefectureNumber": 14,
    "prefecture": "神奈川県",
    "city": "三浦郡葉山町",
    "town": "一色"
  },
  "2400112": {
    "zipcode": "2400112",
    "prefectureCode": "14",
    "prefectureNumber": 14,
    "prefecture": "神奈川県",
    "city": "三浦郡葉山町",
    "town": "堀内"
  },
  "2400113": {
    "zipcode": "2400113",
    "prefectureCode": "14",
    "prefectureNumber": 14,
    "prefecture": "神奈川県",
    "city": "三浦郡葉山町",
    "town": "長柄"
  },
  "2400114": {
    "zipcode": "2400114",
    "prefectureCode": "14",
    "prefectureNumber": 14,
    "prefecture": "神奈川県",
    "city": "三浦郡葉山町",
    "town": "木古庭"
  },
  "2400115": {
    "zipcode": "2400115",
    "prefectureCode": "14",
    "prefectureNumber": 14,
    "prefecture": "神奈川県",
    "city": "三浦郡葉山町",
    "town": "上山口"
  },
  "2400116": {
    "zipcode": "2400116",
    "prefectureCode": "14",
    "prefectureNumber": 14,
    "prefecture": "神奈川県",
    "city": "三浦郡葉山町",
    "town": "下山口"
  }
}
