{
  "2410000": {
    "zipcode": "2410000",
    "prefectureCode": "14",
    "prefectureNumber": 14,
    "prefecture": "神奈川県",
    "city": "横浜市旭区",
    "town": "以下に掲載がない場合"
  },
  "2410001": {
    "zipcode": "2410001",
    "prefectureCode": "14",
    "prefectureNumber": 14,
    "prefecture": "神奈川県",
    "city": "横浜市旭区",
    "town": "上白根町"
  },
  "2410002": {
    "zipcode": "2410002",
    "prefectureCode": "14",
    "prefectureNumber": 14,
    "prefecture": "神奈川県",
    "city": "横浜市旭区",
    "town": "上白根"
  },
  "2410003": {
    "zipcode": "2410003",
    "prefectureCode": "14",
    "prefectureNumber": 14,
    "prefecture": "神奈川県",
    "city": "横浜市旭区",
    "town": "白根町"
  },
  "2410004": {
    "zipcode": "2410004",
    "prefectureCode": "14",
    "prefectureNumber": 14,
    "prefecture": "神奈川県",
    "city": "横浜市旭区",
    "town": "中白根"
  },
  "2410005": {
    "zipcode": "2410005",
    "prefectureCode": "14",
    "prefectureNumber": 14,
    "prefecture": "神奈川県",
    "city": "横浜市旭区",
    "town": "白根"
  },
  "2410011": {
    "zipcode": "2410011",
    "prefectureCode": "14",
    "prefectureNumber": 14,
    "prefecture": "神奈川県",
    "city": "横浜市旭区",
    "town": "川島町"
  },
  "2410012": {
    "zipcode": "2410012",
    "prefectureCode": "14",
    "prefectureNumber": 14,
    "prefecture": "神奈川県",
    "city": "横浜市旭区",
    "town": "西川島町"
  },
  "2410013": {
    "zipcode": "2410013",
    "prefectureCode": "14",
    "prefectureNumber": 14,
    "prefecture": "神奈川県",
    "city": "横浜市旭区",
    "town": "三反田町"
  },
  "2410014": {
    "zipcode": "2410014",
    "prefectureCode": "14",
    "prefectureNumber": 14,
    "prefecture": "神奈川県",
    "city": "横浜市旭区",
    "town": "市沢町"
  },
  "2410015": {
    "zipcode": "2410015",
    "prefectureCode": "14",
    "prefectureNumber": 14,
    "prefecture": "神奈川県",
    "city": "横浜市旭区",
    "town": "小高町"
  },
  "2410021": {
    "zipcode": "2410021",
    "prefectureCode": "14",
    "prefectureNumber": 14,
    "prefecture": "神奈川県",
    "city": "横浜市旭区",
    "town": "鶴ケ峰本町"
  },
  "2410022": {
    "zipcode": "2410022",
    "prefectureCode": "14",
    "prefectureNumber": 14,
    "prefecture": "神奈川県",
    "city": "横浜市旭区",
    "town": "鶴ケ峰"
  },
  "2410023": {
    "zipcode": "2410023",
    "prefectureCode": "14",
    "prefectureNumber": 14,
    "prefecture": "神奈川県",
    "city": "横浜市旭区",
    "town": "本宿町"
  },
  "2410024": {
    "zipcode": "2410024",
    "prefectureCode": "14",
    "prefectureNumber": 14,
    "prefecture": "神奈川県",
    "city": "横浜市旭区",
    "town": "本村町"
  },
  "2410025": {
    "zipcode": "2410025",
    "prefectureCode": "14",
    "prefectureNumber": 14,
    "prefecture": "神奈川県",
    "city": "横浜市旭区",
    "town": "四季美台"
  },
  "2410031": {
    "zipcode": "2410031",
    "prefectureCode": "14",
    "prefectureNumber": 14,
    "prefecture": "神奈川県",
    "city": "横浜市旭区",
    "town": "今宿西町"
  },
  "2410032": {
    "zipcode": "2410032",
    "prefectureCode": "14",
    "prefectureNumber": 14,
    "prefecture": "神奈川県",
    "city": "横浜市旭区",
    "town": "今宿東町"
  },
  "2410033": {
    "zipcode": "2410033",
    "prefectureCode": "14",
    "prefectureNumber": 14,
    "prefecture": "神奈川県",
    "city": "横浜市旭区",
    "town": "今川町"
  },
  "2410034": {
    "zipcode": "2410034",
    "prefectureCode": "14",
    "prefectureNumber": 14,
    "prefecture": "神奈川県",
    "city": "横浜市旭区",
    "town": "今宿南町"
  },
  "2410801": {
    "zipcode": "2410801",
    "prefectureCode": "14",
    "prefectureNumber": 14,
    "prefecture": "神奈川県",
    "city": "横浜市旭区",
    "town": "若葉台"
  },
  "2410802": {
    "zipcode": "2410802",
    "prefectureCode": "14",
    "prefectureNumber": 14,
    "prefecture": "神奈川県",
    "city": "横浜市旭区",
    "town": "上川井町"
  },
  "2410803": {
    "zipcode": "2410803",
    "prefectureCode": "14",
    "prefectureNumber": 14,
    "prefecture": "神奈川県",
    "city": "横浜市旭区",
    "town": "川井本町"
  },
  "2410804": {
    "zipcode": "2410804",
    "prefectureCode": "14",
    "prefectureNumber": 14,
    "prefecture": "神奈川県",
    "city": "横浜市旭区",
    "town": "川井宿町"
  },
  "2410805": {
    "zipcode": "2410805",
    "prefectureCode": "14",
    "prefectureNumber": 14,
    "prefecture": "神奈川県",
    "city": "横浜市旭区",
    "town": "都岡町"
  },
  "2410806": {
    "zipcode": "2410806",
    "prefectureCode": "14",
    "prefectureNumber": 14,
    "prefecture": "神奈川県",
    "city": "横浜市旭区",
    "town": "下川井町"
  },
  "2410811": {
    "zipcode": "2410811",
    "prefectureCode": "14",
    "prefectureNumber": 14,
    "prefecture": "神奈川県",
    "city": "横浜市旭区",
    "town": "矢指町"
  },
  "2410812": {
    "zipcode": "2410812",
    "prefectureCode": "14",
    "prefectureNumber": 14,
    "prefecture": "神奈川県",
    "city": "横浜市旭区",
    "town": "金が谷"
  },
  "2410813": {
    "zipcode": "2410813",
    "prefectureCode": "14",
    "prefectureNumber": 14,
    "prefecture": "神奈川県",
    "city": "横浜市旭区",
    "town": "今宿町"
  },
  "2410814": {
    "zipcode": "2410814",
    "prefectureCode": "14",
    "prefectureNumber": 14,
    "prefecture": "神奈川県",
    "city": "横浜市旭区",
    "town": "中沢"
  },
  "2410815": {
    "zipcode": "2410815",
    "prefectureCode": "14",
    "prefectureNumber": 14,
    "prefecture": "神奈川県",
    "city": "横浜市旭区",
    "town": "中尾"
  },
  "2410816": {
    "zipcode": "2410816",
    "prefectureCode": "14",
    "prefectureNumber": 14,
    "prefecture": "神奈川県",
    "city": "横浜市旭区",
    "town": "笹野台"
  },
  "2410817": {
    "zipcode": "2410817",
    "prefectureCode": "14",
    "prefectureNumber": 14,
    "prefecture": "神奈川県",
    "city": "横浜市旭区",
    "town": "今宿"
  },
  "2410821": {
    "zipcode": "2410821",
    "prefectureCode": "14",
    "prefectureNumber": 14,
    "prefecture": "神奈川県",
    "city": "横浜市旭区",
    "town": "二俣川"
  },
  "2410822": {
    "zipcode": "2410822",
    "prefectureCode": "14",
    "prefectureNumber": 14,
    "prefecture": "神奈川県",
    "city": "横浜市旭区",
    "town": "さちが丘"
  },
  "2410823": {
    "zipcode": "2410823",
    "prefectureCode": "14",
    "prefectureNumber": 14,
    "prefecture": "神奈川県",
    "city": "横浜市旭区",
    "town": "善部町"
  },
  "2410824": {
    "zipcode": "2410824",
    "prefectureCode": "14",
    "prefectureNumber": 14,
    "prefecture": "神奈川県",
    "city": "横浜市旭区",
    "town": "南希望が丘"
  },
  "2410825": {
    "zipcode": "2410825",
    "prefectureCode": "14",
    "prefectureNumber": 14,
    "prefecture": "神奈川県",
    "city": "横浜市旭区",
    "town": "中希望が丘"
  },
  "2410826": {
    "zipcode": "2410826",
    "prefectureCode": "14",
    "prefectureNumber": 14,
    "prefecture": "神奈川県",
    "city": "横浜市旭区",
    "town": "東希望が丘"
  },
  "2410831": {
    "zipcode": "2410831",
    "prefectureCode": "14",
    "prefectureNumber": 14,
    "prefecture": "神奈川県",
    "city": "横浜市旭区",
    "town": "左近山"
  },
  "2410832": {
    "zipcode": "2410832",
    "prefectureCode": "14",
    "prefectureNumber": 14,
    "prefecture": "神奈川県",
    "city": "横浜市旭区",
    "town": "桐が作"
  },
  "2410833": {
    "zipcode": "2410833",
    "prefectureCode": "14",
    "prefectureNumber": 14,
    "prefecture": "神奈川県",
    "city": "横浜市旭区",
    "town": "南本宿町"
  },
  "2410834": {
    "zipcode": "2410834",
    "prefectureCode": "14",
    "prefectureNumber": 14,
    "prefecture": "神奈川県",
    "city": "横浜市旭区",
    "town": "大池町"
  },
  "2410835": {
    "zipcode": "2410835",
    "prefectureCode": "14",
    "prefectureNumber": 14,
    "prefecture": "神奈川県",
    "city": "横浜市旭区",
    "town": "柏町"
  },
  "2410836": {
    "zipcode": "2410836",
    "prefectureCode": "14",
    "prefectureNumber": 14,
    "prefecture": "神奈川県",
    "city": "横浜市旭区",
    "town": "万騎が原"
  }
}
