{
  "2420000": {
    "zipcode": "2420000",
    "prefectureCode": "14",
    "prefectureNumber": 14,
    "prefecture": "神奈川県",
    "city": "大和市",
    "town": "以下に掲載がない場合"
  },
  "2420001": {
    "zipcode": "2420001",
    "prefectureCode": "14",
    "prefectureNumber": 14,
    "prefecture": "神奈川県",
    "city": "大和市",
    "town": "下鶴間"
  },
  "2420002": {
    "zipcode": "2420002",
    "prefectureCode": "14",
    "prefectureNumber": 14,
    "prefecture": "神奈川県",
    "city": "大和市",
    "town": "つきみ野"
  },
  "2420003": {
    "zipcode": "2420003",
    "prefectureCode": "14",
    "prefectureNumber": 14,
    "prefecture": "神奈川県",
    "city": "大和市",
    "town": "林間"
  },
  "2420004": {
    "zipcode": "2420004",
    "prefectureCode": "14",
    "prefectureNumber": 14,
    "prefecture": "神奈川県",
    "city": "大和市",
    "town": "鶴間"
  },
  "2420005": {
    "zipcode": "2420005",
    "prefectureCode": "14",
    "prefectureNumber": 14,
    "prefecture": "神奈川県",
    "city": "大和市",
    "town": "西鶴間"
  },
  "2420006": {
    "zipcode": "2420006",
    "prefectureCode": "14",
    "prefectureNumber": 14,
    "prefecture": "神奈川県",
    "city": "大和市",
    "town": "南林間"
  },
  "2420007": {
    "zipcode": "2420007",
    "prefectureCode": "14",
    "prefectureNumber": 14,
    "prefecture": "神奈川県",
    "city": "大和市",
    "town": "中央林間"
  },
  "2420008": {
    "zipcode": "2420008",
    "prefectureCode": "14",
    "prefectureNumber": 14,
    "prefecture": "神奈川県",
    "city": "大和市",
    "town": "中央林間西"
  },
  "2420011": {
    "zipcode": "2420011",
    "prefectureCode": "14",
    "prefectureNumber": 14,
    "prefecture": "神奈川県",
    "city": "大和市",
    "town": "深見"
  },
  "2420012": {
    "zipcode": "2420012",
    "prefectureCode": "14",
    "prefectureNumber": 14,
    "prefecture": "神奈川県",
    "city": "大和市",
    "town": "深見東"
  },
  "2420013": {
    "zipcode": "2420013",
    "prefectureCode": "14",
    "prefectureNumber": 14,
    "prefecture": "神奈川県",
    "city": "大和市",
    "town": "深見台"
  },
  "2420014": {
    "zipcode": "2420014",
    "prefectureCode": "14",
    "prefectureNumber": 14,
    "prefecture": "神奈川県",
    "city": "大和市",
    "town": "上和田"
  },
  "2420015": {
    "zipcode": "2420015",
    "prefectureCode": "14",
    "prefectureNumber": 14,
    "prefecture": "神奈川県",
    "city": "大和市",
    "town": "下和田"
  },
  "2420016": {
    "zipcode": "2420016",
    "prefectureCode": "14",
    "prefectureNumber": 14,
    "prefecture": "神奈川県",
    "city": "大和市",
    "town": "大和南"
  },
  "2420017": {
    "zipcode": "2420017",
    "prefectureCode": "14",
    "prefectureNumber": 14,
    "prefecture": "神奈川県",
    "city": "大和市",
    "town": "大和東"
  },
  "2420018": {
    "zipcode": "2420018",
    "prefectureCode": "14",
    "prefectureNumber": 14,
    "prefecture": "神奈川県",
    "city": "大和市",
    "town": "深見西"
  },
  "2420021": {
    "zipcode": "2420021",
    "prefectureCode": "14",
    "prefectureNumber": 14,
    "prefecture": "神奈川県",
    "city": "大和市",
    "town": "中央"
  },
  "2420022": {
    "zipcode": "2420022",
    "prefectureCode": "14",
    "prefectureNumber": 14,
    "prefecture": "神奈川県",
    "city": "大和市",
    "town": "柳橋"
  },
  "2420023": {
    "zipcode": "2420023",
    "prefectureCode": "14",
    "prefectureNumber": 14,
    "prefecture": "神奈川県",
    "city": "大和市",
    "town": "渋谷"
  },
  "2420024": {
    "zipcode": "2420024",
    "prefectureCode": "14",
    "prefectureNumber": 14,
    "prefecture": "神奈川県",
    "city": "大和市",
    "town": "福田"
  },
  "2420025": {
    "zipcode": "2420025",
    "prefectureCode": "14",
    "prefectureNumber": 14,
    "prefecture": "神奈川県",
    "city": "大和市",
    "town": "代官"
  },
  "2420026": {
    "zipcode": "2420026",
    "prefectureCode": "14",
    "prefectureNumber": 14,
    "prefecture": "神奈川県",
    "city": "大和市",
    "town": "草柳"
  },
  "2420027": {
    "zipcode": "2420027",
    "prefectureCode": "14",
    "prefectureNumber": 14,
    "prefecture": "神奈川県",
    "city": "大和市",
    "town": "下草柳"
  },
  "2420028": {
    "zipcode": "2420028",
    "prefectureCode": "14",
    "prefectureNumber": 14,
    "prefecture": "神奈川県",
    "city": "大和市",
    "town": "桜森"
  },
  "2420029": {
    "zipcode": "2420029",
    "prefectureCode": "14",
    "prefectureNumber": 14,
    "prefecture": "神奈川県",
    "city": "大和市",
    "town": "上草柳"
  }
}
