{
  "2440000": {
    "zipcode": "2440000",
    "prefectureCode": "14",
    "prefectureNumber": 14,
    "prefecture": "神奈川県",
    "city": "横浜市戸塚区",
    "town": "以下に掲載がない場合"
  },
  "2440001": {
    "zipcode": "2440001",
    "prefectureCode": "14",
    "prefectureNumber": 14,
    "prefecture": "神奈川県",
    "city": "横浜市戸塚区",
    "town": "鳥が丘"
  },
  "2440002": {
    "zipcode": "2440002",
    "prefectureCode": "14",
    "prefectureNumber": 14,
    "prefecture": "神奈川県",
    "city": "横浜市戸塚区",
    "town": "矢部町"
  },
  "2440003": {
    "zipcode": "2440003",
    "prefectureCode": "14",
    "prefectureNumber": 14,
    "prefecture": "神奈川県",
    "city": "横浜市戸塚区",
    "town": "戸塚町"
  },
  "2440004": {
    "zipcode": "2440004",
    "prefectureCode": "14",
    "prefectureNumber": 14,
    "prefecture": "神奈川県",
    "city": "横浜市戸塚区",
    "town": "小雀町"
  },
  "2440801": {
    "zipcode": "2440801",
    "prefectureCode": "14",
    "prefectureNumber": 14,
    "prefecture": "神奈川県",
    "city": "横浜市戸塚区",
    "town": "品濃町"
  },
  "2440802": {
    "zipcode": "2440802",
    "prefectureCode": "14",
    "prefectureNumber": 14,
    "prefecture": "神奈川県",
    "city": "横浜市戸塚区",
    "town": "平戸"
  },
  "2440803": {
    "zipcode": "2440803",
    "prefectureCode": "14",
    "prefectureNumber": 14,
    "prefecture": "神奈川県",
    "city": "横浜市戸塚区",
    "town": "平戸町"
  },
  "2440804": {
    "zipcode": "2440804",
    "prefectureCode": "14",
    "prefectureNumber": 14,
    "prefecture": "神奈川県",
    "city": "横浜市戸塚区",
    "town": "前田町"
  },
  "2440805": {
    "zipcode": "2440805",
    "prefectureCode": "14",
    "prefectureNumber": 14,
    "prefecture": "神奈川県",
    "city": "横浜市戸塚区",
    "town": "川上町"
  },
  "2440806": {
    "zipcode": "2440806",
    "prefectureCode": "14",
    "prefectureNumber": 14,
    "prefecture": "神奈川県",
    "city": "横浜市戸塚区",
    "town": "上品濃"
  },
  "2440811": {
    "zipcode": "2440811",
    "prefectureCode": "14",
    "prefectureNumber": 14,
    "prefecture": "神奈川県",
    "city": "横浜市戸塚区",
    "town": "上柏尾町"
  },
  "2440812": {
    "zipcode": "2440812",
    "prefectureCode": "14",
    "prefectureNumber": 14,
    "prefecture": "神奈川県",
    "city": "横浜市戸塚区",
    "town": "柏尾町"
  },
  "2440813": {
    "zipcode": "2440813",
    "prefectureCode": "14",
    "prefectureNumber": 14,
    "prefecture": "神奈川県",
    "city": "横浜市戸塚区",
    "town": "舞岡町"
  },
  "2440814": {
    "zipcode": "2440814",
    "prefectureCode": "14",
    "prefectureNumber": 14,
    "prefecture": "神奈川県",
    "city": "横浜市戸塚区",
    "town": "南舞岡"
  },
  "2440815": {
    "zipcode": "2440815",
    "prefectureCode": "14",
    "prefectureNumber": 14,
    "prefecture": "神奈川県",
    "city": "横浜市戸塚区",
    "town": "下倉田町"
  },
  "2440816": {
    "zipcode": "2440816",
    "prefectureCode": "14",
    "prefectureNumber": 14,
    "prefecture": "神奈川県",
    "city": "横浜市戸塚区",
    "town": "上倉田町"
  },
  "2440817": {
    "zipcode": "2440817",
    "prefectureCode": "14",
    "prefectureNumber": 14,
    "prefecture": "神奈川県",
    "city": "横浜市戸塚区",
    "town": "吉田町"
  },
  "2440841": {
    "zipcode": "2440841",
    "prefectureCode": "14",
    "prefectureNumber": 14,
    "prefecture": "神奈川県",
    "city": "横浜市栄区",
    "town": "長沼町"
  },
  "2440842": {
    "zipcode": "2440842",
    "prefectureCode": "14",
    "prefectureNumber": 14,
    "prefecture": "神奈川県",
    "city": "横浜市栄区",
    "town": "飯島町"
  },
  "2440843": {
    "zipcode": "2440843",
    "prefectureCode": "14",
    "prefectureNumber": 14,
    "prefecture": "神奈川県",
    "city": "横浜市栄区",
    "town": "長尾台町"
  },
  "2440844": {
    "zipcode": "2440844",
    "prefectureCode": "14",
    "prefectureNumber": 14,
    "prefecture": "神奈川県",
    "city": "横浜市栄区",
    "town": "田谷町"
  },
  "2440845": {
    "zipcode": "2440845",
    "prefectureCode": "14",
    "prefectureNumber": 14,
    "prefecture": "神奈川県",
    "city": "横浜市栄区",
    "town": "金井町"
  }
}
