{
  "2450000": {
    "zipcode": "2450000",
    "prefectureCode": "14",
    "prefectureNumber": 14,
    "prefecture": "神奈川県",
    "city": "横浜市泉区",
    "town": "以下に掲載がない場合"
  },
  "2450001": {
    "zipcode": "2450001",
    "prefectureCode": "14",
    "prefectureNumber": 14,
    "prefecture": "神奈川県",
    "city": "横浜市泉区",
    "town": "池の谷"
  },
  "2450002": {
    "zipcode": "2450002",
    "prefectureCode": "14",
    "prefectureNumber": 14,
    "prefecture": "神奈川県",
    "city": "横浜市泉区",
    "town": "緑園"
  },
  "2450003": {
    "zipcode": "2450003",
    "prefectureCode": "14",
    "prefectureNumber": 14,
    "prefecture": "神奈川県",
    "city": "横浜市泉区",
    "town": "岡津町"
  },
  "2450004": {
    "zipcode": "2450004",
    "prefectureCode": "14",
    "prefectureNumber": 14,
    "prefecture": "神奈川県",
    "city": "横浜市泉区",
    "town": "領家"
  },
  "2450005": {
    "zipcode": "2450005",
    "prefectureCode": "14",
    "prefectureNumber": 14,
    "prefecture": "神奈川県",
    "city": "横浜市泉区",
    "town": "白百合"
  },
  "2450006": {
    "zipcode": "2450006",
    "prefectureCode": "14",
    "prefectureNumber": 14,
    "prefecture": "神奈川県",
    "city": "横浜市泉区",
    "town": "西が岡"
  },
  "2450007": {
    "zipcode": "2450007",
    "prefectureCode": "14",
    "prefectureNumber": 14,
    "prefecture": "神奈川県",
    "city": "横浜市泉区",
    "town": "桂坂"
  },
  "2450008": {
    "zipcode": "2450008",
    "prefectureCode": "14",
    "prefectureNumber": 14,
    "prefecture": "神奈川県",
    "city": "横浜市泉区",
    "town": "弥生台"
  },
  "2450009": {
    "zipcode": "2450009",
    "prefectureCode": "14",
    "prefectureNumber": 14,
    "prefecture": "神奈川県",
    "city": "横浜市泉区",
    "town": "新橋町"
  },
  "2450011": {
    "zipcode": "2450011",
    "prefectureCode": "14",
    "prefectureNumber": 14,
    "prefecture": "神奈川県",
    "city": "横浜市泉区",
    "town": "中田町"
  },
  "2450012": {
    "zipcode": "2450012",
    "prefectureCode": "14",
    "prefectureNumber": 14,
    "prefecture": "神奈川県",
    "city": "横浜市泉区",
    "town": "中田北"
  },
  "2450013": {
    "zipcode": "2450013",
    "prefectureCode": "14",
    "prefectureNumber": 14,
    "prefecture": "神奈川県",
    "city": "横浜市泉区",
    "town": "中田東"
  },
  "2450014": {
    "zipcode": "2450014",
    "prefectureCode": "14",
    "prefectureNumber": 14,
    "prefecture": "神奈川県",
    "city": "横浜市泉区",
    "town": "中田南"
  },
  "2450015": {
    "zipcode": "2450015",
    "prefectureCode": "14",
    "prefectureNumber": 14,
    "prefecture": "神奈川県",
    "city": "横浜市泉区",
    "town": "中田西"
  },
  "2450016": {
    "zipcode": "2450016",
    "prefectureCode": "14",
    "prefectureNumber": 14,
    "prefecture": "神奈川県",
    "city": "横浜市泉区",
    "town": "和泉町"
  },
  "2450017": {
    "zipcode": "2450017",
    "prefectureCode": "14",
    "prefectureNumber": 14,
    "prefecture": "神奈川県",
    "city": "横浜市泉区",
    "town": "下飯田町"
  },
  "2450018": {
    "zipcode": "2450018",
    "prefectureCode": "14",
    "prefectureNumber": 14,
    "prefecture": "神奈川県",
    "city": "横浜市泉区",
    "town": "上飯田町"
  },
  "2450019": {
    "zipcode": "2450019",
    "prefectureCode": "14",
    "prefectureNumber": 14,
    "prefecture": "神奈川県",
    "city": "横浜市泉区",
    "town": "ゆめが丘"
  },
  "2450021": {
    "zipcode": "2450021",
    "prefectureCode": "14",
    "prefectureNumber": 14,
    "prefecture": "神奈川県",
    "city": "横浜市泉区",
    "town": "下和泉"
  },
  "2450022": {
    "zipcode": "2450022",
    "prefectureCode": "14",
    "prefectureNumber": 14,
    "prefecture": "神奈川県",
    "city": "横浜市泉区",
    "town": "和泉が丘"
  },
  "2450023": {
    "zipcode": "2450023",
    "prefectureCode": "14",
    "prefectureNumber": 14,
    "prefecture": "神奈川県",
    "city": "横浜市泉区",
    "town": "和泉中央南"
  },
  "2450024": {
    "zipcode": "2450024",
    "prefectureCode": "14",
    "prefectureNumber": 14,
    "prefecture": "神奈川県",
    "city": "横浜市泉区",
    "town": "和泉中央北"
  },
  "2450051": {
    "zipcode": "2450051",
    "prefectureCode": "14",
    "prefectureNumber": 14,
    "prefecture": "神奈川県",
    "city": "横浜市戸塚区",
    "town": "名瀬町"
  },
  "2450052": {
    "zipcode": "2450052",
    "prefectureCode": "14",
    "prefectureNumber": 14,
    "prefecture": "神奈川県",
    "city": "横浜市戸塚区",
    "town": "秋葉町"
  },
  "2450053": {
    "zipcode": "2450053",
    "prefectureCode": "14",
    "prefectureNumber": 14,
    "prefecture": "神奈川県",
    "city": "横浜市戸塚区",
    "town": "上矢部町"
  },
  "2450061": {
    "zipcode": "2450061",
    "prefectureCode": "14",
    "prefectureNumber": 14,
    "prefecture": "神奈川県",
    "city": "横浜市戸塚区",
    "town": "汲沢"
  },
  "2450062": {
    "zipcode": "2450062",
    "prefectureCode": "14",
    "prefectureNumber": 14,
    "prefecture": "神奈川県",
    "city": "横浜市戸塚区",
    "town": "汲沢町"
  },
  "2450063": {
    "zipcode": "2450063",
    "prefectureCode": "14",
    "prefectureNumber": 14,
    "prefecture": "神奈川県",
    "city": "横浜市戸塚区",
    "town": "原宿"
  },
  "2450064": {
    "zipcode": "2450064",
    "prefectureCode": "14",
    "prefectureNumber": 14,
    "prefecture": "神奈川県",
    "city": "横浜市戸塚区",
    "town": "影取町"
  },
  "2450065": {
    "zipcode": "2450065",
    "prefectureCode": "14",
    "prefectureNumber": 14,
    "prefecture": "神奈川県",
    "city": "横浜市戸塚区",
    "town": "東俣野町"
  },
  "2450066": {
    "zipcode": "2450066",
    "prefectureCode": "14",
    "prefectureNumber": 14,
    "prefecture": "神奈川県",
    "city": "横浜市戸塚区",
    "town": "俣野町"
  },
  "2450067": {
    "zipcode": "2450067",
    "prefectureCode": "14",
    "prefectureNumber": 14,
    "prefecture": "神奈川県",
    "city": "横浜市戸塚区",
    "town": "深谷町"
  }
}
