{
  "2460000": {
    "zipcode": "2460000",
    "prefectureCode": "14",
    "prefectureNumber": 14,
    "prefecture": "神奈川県",
    "city": "横浜市瀬谷区",
    "town": "以下に掲載がない場合"
  },
  "2460001": {
    "zipcode": "2460001",
    "prefectureCode": "14",
    "prefectureNumber": 14,
    "prefecture": "神奈川県",
    "city": "横浜市瀬谷区",
    "town": "卸本町"
  },
  "2460002": {
    "zipcode": "2460002",
    "prefectureCode": "14",
    "prefectureNumber": 14,
    "prefecture": "神奈川県",
    "city": "横浜市瀬谷区",
    "town": "北町"
  },
  "2460003": {
    "zipcode": "2460003",
    "prefectureCode": "14",
    "prefectureNumber": 14,
    "prefecture": "神奈川県",
    "city": "横浜市瀬谷区",
    "town": "瀬谷町"
  },
  "2460004": {
    "zipcode": "2460004",
    "prefectureCode": "14",
    "prefectureNumber": 14,
    "prefecture": "神奈川県",
    "city": "横浜市瀬谷区",
    "town": "中屋敷"
  },
  "2460005": {
    "zipcode": "2460005",
    "prefectureCode": "14",
    "prefectureNumber": 14,
    "prefecture": "神奈川県",
    "city": "横浜市瀬谷区",
    "town": "竹村町"
  },
  "2460006": {
    "zipcode": "2460006",
    "prefectureCode": "14",
    "prefectureNumber": 14,
    "prefecture": "神奈川県",
    "city": "横浜市瀬谷区",
    "town": "上瀬谷町"
  },
  "2460007": {
    "zipcode": "2460007",
    "prefectureCode": "14",
    "prefectureNumber": 14,
    "prefecture": "神奈川県",
    "city": "横浜市瀬谷区",
    "town": "目黒町"
  },
  "2460008": {
    "zipcode": "2460008",
    "prefectureCode": "14",
    "prefectureNumber": 14,
    "prefecture": "神奈川県",
    "city": "横浜市瀬谷区",
    "town": "五貫目町"
  },
  "2460011": {
    "zipcode": "2460011",
    "prefectureCode": "14",
    "prefectureNumber": 14,
    "prefecture": "神奈川県",
    "city": "横浜市瀬谷区",
    "town": "東野台"
  },
  "2460012": {
    "zipcode": "2460012",
    "prefectureCode": "14",
    "prefectureNumber": 14,
    "prefecture": "神奈川県",
    "city": "横浜市瀬谷区",
    "town": "東野"
  },
  "2460013": {
    "zipcode": "2460013",
    "prefectureCode": "14",
    "prefectureNumber": 14,
    "prefecture": "神奈川県",
    "city": "横浜市瀬谷区",
    "town": "相沢"
  },
  "2460014": {
    "zipcode": "2460014",
    "prefectureCode": "14",
    "prefectureNumber": 14,
    "prefecture": "神奈川県",
    "city": "横浜市瀬谷区",
    "town": "中央"
  },
  "2460015": {
    "zipcode": "2460015",
    "prefectureCode": "14",
    "prefectureNumber": 14,
    "prefecture": "神奈川県",
    "city": "横浜市瀬谷区",
    "town": "本郷"
  },
  "2460021": {
    "zipcode": "2460021",
    "prefectureCode": "14",
    "prefectureNumber": 14,
    "prefecture": "神奈川県",
    "city": "横浜市瀬谷区",
    "town": "二ツ橋町"
  },
  "2460022": {
    "zipcode": "2460022",
    "prefectureCode": "14",
    "prefectureNumber": 14,
    "prefecture": "神奈川県",
    "city": "横浜市瀬谷区",
    "town": "三ツ境"
  },
  "2460023": {
    "zipcode": "2460023",
    "prefectureCode": "14",
    "prefectureNumber": 14,
    "prefecture": "神奈川県",
    "city": "横浜市瀬谷区",
    "town": "阿久和東"
  },
  "2460025": {
    "zipcode": "2460025",
    "prefectureCode": "14",
    "prefectureNumber": 14,
    "prefecture": "神奈川県",
    "city": "横浜市瀬谷区",
    "town": "阿久和西"
  },
  "2460026": {
    "zipcode": "2460026",
    "prefectureCode": "14",
    "prefectureNumber": 14,
    "prefecture": "神奈川県",
    "city": "横浜市瀬谷区",
    "town": "阿久和南"
  },
  "2460031": {
    "zipcode": "2460031",
    "prefectureCode": "14",
    "prefectureNumber": 14,
    "prefecture": "神奈川県",
    "city": "横浜市瀬谷区",
    "town": "瀬谷"
  },
  "2460032": {
    "zipcode": "2460032",
    "prefectureCode": "14",
    "prefectureNumber": 14,
    "prefecture": "神奈川県",
    "city": "横浜市瀬谷区",
    "town": "南台"
  },
  "2460034": {
    "zipcode": "2460034",
    "prefectureCode": "14",
    "prefectureNumber": 14,
    "prefecture": "神奈川県",
    "city": "横浜市瀬谷区",
    "town": "南瀬谷"
  },
  "2460035": {
    "zipcode": "2460035",
    "prefectureCode": "14",
    "prefectureNumber": 14,
    "prefecture": "神奈川県",
    "city": "横浜市瀬谷区",
    "town": "下瀬谷"
  },
  "2460036": {
    "zipcode": "2460036",
    "prefectureCode": "14",
    "prefectureNumber": 14,
    "prefecture": "神奈川県",
    "city": "横浜市瀬谷区",
    "town": "北新"
  },
  "2460037": {
    "zipcode": "2460037",
    "prefectureCode": "14",
    "prefectureNumber": 14,
    "prefecture": "神奈川県",
    "city": "横浜市瀬谷区",
    "town": "橋戸"
  },
  "2460038": {
    "zipcode": "2460038",
    "prefectureCode": "14",
    "prefectureNumber": 14,
    "prefecture": "神奈川県",
    "city": "横浜市瀬谷区",
    "town": "宮沢"
  }
}
