{
  "2470000": {
    "zipcode": "2470000",
    "prefectureCode": "14",
    "prefectureNumber": 14,
    "prefecture": "神奈川県",
    "city": "横浜市栄区",
    "town": "以下に掲載がない場合"
  },
  "2470001": {
    "zipcode": "2470001",
    "prefectureCode": "14",
    "prefectureNumber": 14,
    "prefecture": "神奈川県",
    "city": "横浜市栄区",
    "town": "小菅ケ谷町"
  },
  "2470002": {
    "zipcode": "2470002",
    "prefectureCode": "14",
    "prefectureNumber": 14,
    "prefecture": "神奈川県",
    "city": "横浜市栄区",
    "town": "小山台"
  },
  "2470003": {
    "zipcode": "2470003",
    "prefectureCode": "14",
    "prefectureNumber": 14,
    "prefecture": "神奈川県",
    "city": "横浜市栄区",
    "town": "鍛冶ケ谷町"
  },
  "2470004": {
    "zipcode": "2470004",
    "prefectureCode": "14",
    "prefectureNumber": 14,
    "prefecture": "神奈川県",
    "city": "横浜市栄区",
    "town": "柏陽"
  },
  "2470005": {
    "zipcode": "2470005",
    "prefectureCode": "14",
    "prefectureNumber": 14,
    "prefecture": "神奈川県",
    "city": "横浜市栄区",
    "town": "桂町"
  },
  "2470006": {
    "zipcode": "2470006",
    "prefectureCode": "14",
    "prefectureNumber": 14,
    "prefecture": "神奈川県",
    "city": "横浜市栄区",
    "town": "笠間"
  },
  "2470007": {
    "zipcode": "2470007",
    "prefectureCode": "14",
    "prefectureNumber": 14,
    "prefecture": "神奈川県",
    "city": "横浜市栄区",
    "town": "小菅ケ谷"
  },
  "2470008": {
    "zipcode": "2470008",
    "prefectureCode": "14",
    "prefectureNumber": 14,
    "prefecture": "神奈川県",
    "city": "横浜市栄区",
    "town": "本郷台"
  },
  "2470009": {
    "zipcode": "2470009",
    "prefectureCode": "14",
    "prefectureNumber": 14,
    "prefecture": "神奈川県",
    "city": "横浜市栄区",
    "town": "鍛冶ケ谷"
  },
  "2470011": {
    "zipcode": "2470011",
    "prefectureCode": "14",
    "prefectureNumber": 14,
    "prefecture": "神奈川県",
    "city": "横浜市栄区",
    "town": "元大橋"
  },
  "2470012": {
    "zipcode": "2470012",
    "prefectureCode": "14",
    "prefectureNumber": 14,
    "prefecture": "神奈川県",
    "city": "横浜市栄区",
    "town": "若竹町"
  },
  "2470013": {
    "zipcode": "2470013",
    "prefectureCode": "14",
    "prefectureNumber": 14,
    "prefecture": "神奈川県",
    "city": "横浜市栄区",
    "town": "上郷町"
  },
  "2470014": {
    "zipcode": "2470014",
    "prefectureCode": "14",
    "prefectureNumber": 14,
    "prefecture": "神奈川県",
    "city": "横浜市栄区",
    "town": "公田町"
  },
  "2470015": {
    "zipcode": "2470015",
    "prefectureCode": "14",
    "prefectureNumber": 14,
    "prefecture": "神奈川県",
    "city": "横浜市栄区",
    "town": "中野町"
  },
  "2470021": {
    "zipcode": "2470021",
    "prefectureCode": "14",
    "prefectureNumber": 14,
    "prefecture": "神奈川県",
    "city": "横浜市栄区",
    "town": "東上郷町"
  },
  "2470022": {
    "zipcode": "2470022",
    "prefectureCode": "14",
    "prefectureNumber": 14,
    "prefecture": "神奈川県",
    "city": "横浜市栄区",
    "town": "庄戸"
  },
  "2470023": {
    "zipcode": "2470023",
    "prefectureCode": "14",
    "prefectureNumber": 14,
    "prefecture": "神奈川県",
    "city": "横浜市栄区",
    "town": "長倉町"
  },
  "2470024": {
    "zipcode": "2470024",
    "prefectureCode": "14",
    "prefectureNumber": 14,
    "prefecture": "神奈川県",
    "city": "横浜市栄区",
    "town": "野七里"
  },
  "2470025": {
    "zipcode": "2470025",
    "prefectureCode": "14",
    "prefectureNumber": 14,
    "prefecture": "神奈川県",
    "city": "横浜市栄区",
    "town": "上之町"
  },
  "2470026": {
    "zipcode": "2470026",
    "prefectureCode": "14",
    "prefectureNumber": 14,
    "prefecture": "神奈川県",
    "city": "横浜市栄区",
    "town": "犬山町"
  },
  "2470027": {
    "zipcode": "2470027",
    "prefectureCode": "14",
    "prefectureNumber": 14,
    "prefecture": "神奈川県",
    "city": "横浜市栄区",
    "town": "尾月"
  },
  "2470028": {
    "zipcode": "2470028",
    "prefectureCode": "14",
    "prefectureNumber": 14,
    "prefecture": "神奈川県",
    "city": "横浜市栄区",
    "town": "亀井町"
  },
  "2470031": {
    "zipcode": "2470031",
    "prefectureCode": "14",
    "prefectureNumber": 14,
    "prefecture": "神奈川県",
    "city": "横浜市栄区",
    "town": "桂台北"
  },
  "2470032": {
    "zipcode": "2470032",
    "prefectureCode": "14",
    "prefectureNumber": 14,
    "prefecture": "神奈川県",
    "city": "横浜市栄区",
    "town": "桂台東"
  },
  "2470033": {
    "zipcode": "2470033",
    "prefectureCode": "14",
    "prefectureNumber": 14,
    "prefecture": "神奈川県",
    "city": "横浜市栄区",
    "town": "桂台南"
  },
  "2470034": {
    "zipcode": "2470034",
    "prefectureCode": "14",
    "prefectureNumber": 14,
    "prefecture": "神奈川県",
    "city": "横浜市栄区",
    "town": "桂台中"
  },
  "2470035": {
    "zipcode": "2470035",
    "prefectureCode": "14",
    "prefectureNumber": 14,
    "prefecture": "神奈川県",
    "city": "横浜市栄区",
    "town": "桂台西"
  },
  "2470051": {
    "zipcode": "2470051",
    "prefectureCode": "14",
    "prefectureNumber": 14,
    "prefecture": "神奈川県",
    "city": "鎌倉市",
    "town": "岩瀬"
  },
  "2470052": {
    "zipcode": "2470052",
    "prefectureCode": "14",
    "prefectureNumber": 14,
    "prefecture": "神奈川県",
    "city": "鎌倉市",
    "town": "今泉"
  },
  "2470053": {
    "zipcode": "2470053",
    "prefectureCode": "14",
    "prefectureNumber": 14,
    "prefecture": "神奈川県",
    "city": "鎌倉市",
    "town": "今泉台"
  },
  "2470054": {
    "zipcode": "2470054",
    "prefectureCode": "14",
    "prefectureNumber": 14,
    "prefecture": "神奈川県",
    "city": "鎌倉市",
    "town": "高野"
  },
  "2470055": {
    "zipcode": "2470055",
    "prefectureCode": "14",
    "prefectureNumber": 14,
    "prefecture": "神奈川県",
    "city": "鎌倉市",
    "town": "小袋谷"
  },
  "2470056": {
    "zipcode": "2470056",
    "prefectureCode": "14",
    "prefectureNumber": 14,
    "prefecture": "神奈川県",
    "city": "鎌倉市",
    "town": "大船"
  },
  "2470061": {
    "zipcode": "2470061",
    "prefectureCode": "14",
    "prefectureNumber": 14,
    "prefecture": "神奈川県",
    "city": "鎌倉市",
    "town": "台"
  },
  "2470062": {
    "zipcode": "2470062",
    "prefectureCode": "14",
    "prefectureNumber": 14,
    "prefecture": "神奈川県",
    "city": "鎌倉市",
    "town": "山ノ内"
  },
  "2470063": {
    "zipcode": "2470063",
    "prefectureCode": "14",
    "prefectureNumber": 14,
    "prefecture": "神奈川県",
    "city": "鎌倉市",
    "town": "梶原"
  },
  "2470064": {
    "zipcode": "2470064",
    "prefectureCode": "14",
    "prefectureNumber": 14,
    "prefecture": "神奈川県",
    "city": "鎌倉市",
    "town": "寺分"
  },
  "2470065": {
    "zipcode": "2470065",
    "prefectureCode": "14",
    "prefectureNumber": 14,
    "prefecture": "神奈川県",
    "city": "鎌倉市",
    "town": "上町屋"
  },
  "2470066": {
    "zipcode": "2470066",
    "prefectureCode": "14",
    "prefectureNumber": 14,
    "prefecture": "神奈川県",
    "city": "鎌倉市",
    "town": "山崎"
  },
  "2470071": {
    "zipcode": "2470071",
    "prefectureCode": "14",
    "prefectureNumber": 14,
    "prefecture": "神奈川県",
    "city": "鎌倉市",
    "town": "玉縄"
  },
  "2470072": {
    "zipcode": "2470072",
    "prefectureCode": "14",
    "prefectureNumber": 14,
    "prefecture": "神奈川県",
    "city": "鎌倉市",
    "town": "岡本"
  },
  "2470073": {
    "zipcode": "2470073",
    "prefectureCode": "14",
    "prefectureNumber": 14,
    "prefecture": "神奈川県",
    "city": "鎌倉市",
    "town": "植木"
  },
  "2470074": {
    "zipcode": "2470074",
    "prefectureCode": "14",
    "prefectureNumber": 14,
    "prefecture": "神奈川県",
    "city": "鎌倉市",
    "town": "城廻"
  },
  "2470075": {
    "zipcode": "2470075",
    "prefectureCode": "14",
    "prefectureNumber": 14,
    "prefecture": "神奈川県",
    "city": "鎌倉市",
    "town": "関谷"
  }
}
