{
  "2480000": {
    "zipcode": "2480000",
    "prefectureCode": "14",
    "prefectureNumber": 14,
    "prefecture": "神奈川県",
    "city": "鎌倉市",
    "town": "以下に掲載がない場合"
  },
  "2480001": {
    "zipcode": "2480001",
    "prefectureCode": "14",
    "prefectureNumber": 14,
    "prefecture": "神奈川県",
    "city": "鎌倉市",
    "town": "十二所"
  },
  "2480002": {
    "zipcode": "2480002",
    "prefectureCode": "14",
    "prefectureNumber": 14,
    "prefecture": "神奈川県",
    "city": "鎌倉市",
    "town": "二階堂"
  },
  "2480003": {
    "zipcode": "2480003",
    "prefectureCode": "14",
    "prefectureNumber": 14,
    "prefecture": "神奈川県",
    "city": "鎌倉市",
    "town": "浄明寺"
  },
  "2480004": {
    "zipcode": "2480004",
    "prefectureCode": "14",
    "prefectureNumber": 14,
    "prefecture": "神奈川県",
    "city": "鎌倉市",
    "town": "西御門"
  },
  "2480005": {
    "zipcode": "2480005",
    "prefectureCode": "14",
    "prefectureNumber": 14,
    "prefecture": "神奈川県",
    "city": "鎌倉市",
    "town": "雪ノ下"
  },
  "2480006": {
    "zipcode": "2480006",
    "prefectureCode": "14",
    "prefectureNumber": 14,
    "prefecture": "神奈川県",
    "city": "鎌倉市",
    "town": "小町"
  },
  "2480007": {
    "zipcode": "2480007",
    "prefectureCode": "14",
    "prefectureNumber": 14,
    "prefecture": "神奈川県",
    "city": "鎌倉市",
    "town": "大町"
  },
  "2480011": {
    "zipcode": "2480011",
    "prefectureCode": "14",
    "prefectureNumber": 14,
    "prefecture": "神奈川県",
    "city": "鎌倉市",
    "town": "扇ガ谷"
  },
  "2480012": {
    "zipcode": "2480012",
    "prefectureCode": "14",
    "prefectureNumber": 14,
    "prefecture": "神奈川県",
    "city": "鎌倉市",
    "town": "御成町"
  },
  "2480013": {
    "zipcode": "2480013",
    "prefectureCode": "14",
    "prefectureNumber": 14,
    "prefecture": "神奈川県",
    "city": "鎌倉市",
    "town": "材木座"
  },
  "2480014": {
    "zipcode": "2480014",
    "prefectureCode": "14",
    "prefectureNumber": 14,
    "prefecture": "神奈川県",
    "city": "鎌倉市",
    "town": "由比ガ浜"
  },
  "2480015": {
    "zipcode": "2480015",
    "prefectureCode": "14",
    "prefectureNumber": 14,
    "prefecture": "神奈川県",
    "city": "鎌倉市",
    "town": "笹目町"
  },
  "2480016": {
    "zipcode": "2480016",
    "prefectureCode": "14",
    "prefectureNumber": 14,
    "prefecture": "神奈川県",
    "city": "鎌倉市",
    "town": "長谷"
  },
  "2480017": {
    "zipcode": "2480017",
    "prefectureCode": "14",
    "prefectureNumber": 14,
    "prefecture": "神奈川県",
    "city": "鎌倉市",
    "town": "佐助"
  },
  "2480021": {
    "zipcode": "2480021",
    "prefectureCode": "14",
    "prefectureNumber": 14,
    "prefecture": "神奈川県",
    "city": "鎌倉市",
    "town": "坂ノ下"
  },
  "2480022": {
    "zipcode": "2480022",
    "prefectureCode": "14",
    "prefectureNumber": 14,
    "prefecture": "神奈川県",
    "city": "鎌倉市",
    "town": "常盤"
  },
  "2480023": {
    "zipcode": "2480023",
    "prefectureCode": "14",
    "prefectureNumber": 14,
    "prefecture": "神奈川県",
    "city": "鎌倉市",
    "town": "極楽寺"
  },
  "2480024": {
    "zipcode": "2480024",
    "prefectureCode": "14",
    "prefectureNumber": 14,
    "prefecture": "神奈川県",
    "city": "鎌倉市",
    "town": "稲村ガ崎"
  },
  "2480025": {
    "zipcode": "2480025",
    "prefectureCode": "14",
    "prefectureNumber": 14,
    "prefecture": "神奈川県",
    "city": "鎌倉市",
    "town": "七里ガ浜東"
  },
  "2480026": {
    "zipcode": "2480026",
    "prefectureCode": "14",
    "prefectureNumber": 14,
    "prefecture": "神奈川県",
    "city": "鎌倉市",
    "town": "七里ガ浜"
  },
  "2480027": {
    "zipcode": "2480027",
    "prefectureCode": "14",
    "prefectureNumber": 14,
    "prefecture": "神奈川県",
    "city": "鎌倉市",
    "town": "笛田"
  },
  "2480031": {
    "zipcode": "2480031",
    "prefectureCode": "14",
    "prefectureNumber": 14,
    "prefecture": "神奈川県",
    "city": "鎌倉市",
    "town": "鎌倉山"
  },
  "2480032": {
    "zipcode": "2480032",
    "prefectureCode": "14",
    "prefectureNumber": 14,
    "prefecture": "神奈川県",
    "city": "鎌倉市",
    "town": "津"
  },
  "2480033": {
    "zipcode": "2480033",
    "prefectureCode": "14",
    "prefectureNumber": 14,
    "prefecture": "神奈川県",
    "city": "鎌倉市",
    "town": "腰越"
  },
  "2480034": {
    "zipcode": "2480034",
    "prefectureCode": "14",
    "prefectureNumber": 14,
    "prefecture": "神奈川県",
    "city": "鎌倉市",
    "town": "津西"
  },
  "2480035": {
    "zipcode": "2480035",
    "prefectureCode": "14",
    "prefectureNumber": 14,
    "prefecture": "神奈川県",
    "city": "鎌倉市",
    "town": "西鎌倉"
  },
  "2480036": {
    "zipcode": "2480036",
    "prefectureCode": "14",
    "prefectureNumber": 14,
    "prefecture": "神奈川県",
    "city": "鎌倉市",
    "town": "手広"
  }
}
