{
  "2490000": {
    "zipcode": "2490000",
    "prefectureCode": "14",
    "prefectureNumber": 14,
    "prefecture": "神奈川県",
    "city": "逗子市",
    "town": "以下に掲載がない場合"
  },
  "2490001": {
    "zipcode": "2490001",
    "prefectureCode": "14",
    "prefectureNumber": 14,
    "prefecture": "神奈川県",
    "city": "逗子市",
    "town": "久木"
  },
  "2490002": {
    "zipcode": "2490002",
    "prefectureCode": "14",
    "prefectureNumber": 14,
    "prefecture": "神奈川県",
    "city": "逗子市",
    "town": "山の根"
  },
  "2490003": {
    "zipcode": "2490003",
    "prefectureCode": "14",
    "prefectureNumber": 14,
    "prefecture": "神奈川県",
    "city": "逗子市",
    "town": "池子"
  },
  "2490004": {
    "zipcode": "2490004",
    "prefectureCode": "14",
    "prefectureNumber": 14,
    "prefecture": "神奈川県",
    "city": "逗子市",
    "town": "沼間"
  },
  "2490005": {
    "zipcode": "2490005",
    "prefectureCode": "14",
    "prefectureNumber": 14,
    "prefecture": "神奈川県",
    "city": "逗子市",
    "town": "桜山"
  },
  "2490006": {
    "zipcode": "2490006",
    "prefectureCode": "14",
    "prefectureNumber": 14,
    "prefecture": "神奈川県",
    "city": "逗子市",
    "town": "逗子"
  },
  "2490007": {
    "zipcode": "2490007",
    "prefectureCode": "14",
    "prefectureNumber": 14,
    "prefecture": "神奈川県",
    "city": "逗子市",
    "town": "新宿"
  },
  "2490008": {
    "zipcode": "2490008",
    "prefectureCode": "14",
    "prefectureNumber": 14,
    "prefecture": "神奈川県",
    "city": "逗子市",
    "town": "小坪"
  }
}
