{
  "2510000": {
    "zipcode": "2510000",
    "prefectureCode": "14",
    "prefectureNumber": 14,
    "prefecture": "神奈川県",
    "city": "藤沢市",
    "town": "以下に掲載がない場合"
  },
  "2510001": {
    "zipcode": "2510001",
    "prefectureCode": "14",
    "prefectureNumber": 14,
    "prefecture": "神奈川県",
    "city": "藤沢市",
    "town": "西富"
  },
  "2510002": {
    "zipcode": "2510002",
    "prefectureCode": "14",
    "prefectureNumber": 14,
    "prefecture": "神奈川県",
    "city": "藤沢市",
    "town": "大鋸"
  },
  "2510003": {
    "zipcode": "2510003",
    "prefectureCode": "14",
    "prefectureNumber": 14,
    "prefecture": "神奈川県",
    "city": "藤沢市",
    "town": "柄沢"
  },
  "2510004": {
    "zipcode": "2510004",
    "prefectureCode": "14",
    "prefectureNumber": 14,
    "prefecture": "神奈川県",
    "city": "藤沢市",
    "town": "藤が岡"
  },
  "2510005": {
    "zipcode": "2510005",
    "prefectureCode": "14",
    "prefectureNumber": 14,
    "prefecture": "神奈川県",
    "city": "藤沢市",
    "town": "並木台"
  },
  "2510011": {
    "zipcode": "2510011",
    "prefectureCode": "14",
    "prefectureNumber": 14,
    "prefecture": "神奈川県",
    "city": "藤沢市",
    "town": "渡内"
  },
  "2510012": {
    "zipcode": "2510012",
    "prefectureCode": "14",
    "prefectureNumber": 14,
    "prefecture": "神奈川県",
    "city": "藤沢市",
    "town": "村岡東"
  },
  "2510013": {
    "zipcode": "2510013",
    "prefectureCode": "14",
    "prefectureNumber": 14,
    "prefecture": "神奈川県",
    "city": "藤沢市",
    "town": "小塚"
  },
  "2510014": {
    "zipcode": "2510014",
    "prefectureCode": "14",
    "prefectureNumber": 14,
    "prefecture": "神奈川県",
    "city": "藤沢市",
    "town": "宮前"
  },
  "2510015": {
    "zipcode": "2510015",
    "prefectureCode": "14",
    "prefectureNumber": 14,
    "prefecture": "神奈川県",
    "city": "藤沢市",
    "town": "川名"
  },
  "2510016": {
    "zipcode": "2510016",
    "prefectureCode": "14",
    "prefectureNumber": 14,
    "prefecture": "神奈川県",
    "city": "藤沢市",
    "town": "弥勒寺"
  },
  "2510017": {
    "zipcode": "2510017",
    "prefectureCode": "14",
    "prefectureNumber": 14,
    "prefecture": "神奈川県",
    "city": "藤沢市",
    "town": "高谷"
  },
  "2510021": {
    "zipcode": "2510021",
    "prefectureCode": "14",
    "prefectureNumber": 14,
    "prefecture": "神奈川県",
    "city": "藤沢市",
    "town": "鵠沼神明"
  },
  "2510022": {
    "zipcode": "2510022",
    "prefectureCode": "14",
    "prefectureNumber": 14,
    "prefecture": "神奈川県",
    "city": "藤沢市",
    "town": "鵠沼"
  },
  "2510023": {
    "zipcode": "2510023",
    "prefectureCode": "14",
    "prefectureNumber": 14,
    "prefecture": "神奈川県",
    "city": "藤沢市",
    "town": "鵠沼花沢町"
  },
  "2510024": {
    "zipcode": "2510024",
    "prefectureCode": "14",
    "prefectureNumber": 14,
    "prefecture": "神奈川県",
    "city": "藤沢市",
    "town": "鵠沼橘"
  },
  "2510025": {
    "zipcode": "2510025",
    "prefectureCode": "14",
    "prefectureNumber": 14,
    "prefecture": "神奈川県",
    "city": "藤沢市",
    "town": "鵠沼石上"
  },
  "2510026": {
    "zipcode": "2510026",
    "prefectureCode": "14",
    "prefectureNumber": 14,
    "prefecture": "神奈川県",
    "city": "藤沢市",
    "town": "鵠沼東"
  },
  "2510027": {
    "zipcode": "2510027",
    "prefectureCode": "14",
    "prefectureNumber": 14,
    "prefecture": "神奈川県",
    "city": "藤沢市",
    "town": "鵠沼桜が岡"
  },
  "2510028": {
    "zipcode": "2510028",
    "prefectureCode": "14",
    "prefectureNumber": 14,
    "prefecture": "神奈川県",
    "city": "藤沢市",
    "town": "本鵠沼"
  },
  "2510031": {
    "zipcode": "2510031",
    "prefectureCode": "14",
    "prefectureNumber": 14,
    "prefecture": "神奈川県",
    "city": "藤沢市",
    "town": "鵠沼藤が谷"
  },
  "2510032": {
    "zipcode": "2510032",
    "prefectureCode": "14",
    "prefectureNumber": 14,
    "prefecture": "神奈川県",
    "city": "藤沢市",
    "town": "片瀬"
  },
  "2510033": {
    "zipcode": "2510033",
    "prefectureCode": "14",
    "prefectureNumber": 14,
    "prefecture": "神奈川県",
    "city": "藤沢市",
    "town": "片瀬山"
  },
  "2510034": {
    "zipcode": "2510034",
    "prefectureCode": "14",
    "prefectureNumber": 14,
    "prefecture": "神奈川県",
    "city": "藤沢市",
    "town": "片瀬目白山"
  },
  "2510035": {
    "zipcode": "2510035",
    "prefectureCode": "14",
    "prefectureNumber": 14,
    "prefecture": "神奈川県",
    "city": "藤沢市",
    "town": "片瀬海岸"
  },
  "2510036": {
    "zipcode": "2510036",
    "prefectureCode": "14",
    "prefectureNumber": 14,
    "prefecture": "神奈川県",
    "city": "藤沢市",
    "town": "江の島"
  },
  "2510037": {
    "zipcode": "2510037",
    "prefectureCode": "14",
    "prefectureNumber": 14,
    "prefecture": "神奈川県",
    "city": "藤沢市",
    "town": "鵠沼海岸"
  },
  "2510038": {
    "zipcode": "2510038",
    "prefectureCode": "14",
    "prefectureNumber": 14,
    "prefecture": "神奈川県",
    "city": "藤沢市",
    "town": "鵠沼松が岡"
  },
  "2510041": {
    "zipcode": "2510041",
    "prefectureCode": "14",
    "prefectureNumber": 14,
    "prefecture": "神奈川県",
    "city": "藤沢市",
    "town": "辻堂神台"
  },
  "2510042": {
    "zipcode": "2510042",
    "prefectureCode": "14",
    "prefectureNumber": 14,
    "prefecture": "神奈川県",
    "city": "藤沢市",
    "town": "辻堂新町"
  },
  "2510043": {
    "zipcode": "2510043",
    "prefectureCode": "14",
    "prefectureNumber": 14,
    "prefecture": "神奈川県",
    "city": "藤沢市",
    "town": "辻堂元町"
  },
  "2510044": {
    "zipcode": "2510044",
    "prefectureCode": "14",
    "prefectureNumber": 14,
    "prefecture": "神奈川県",
    "city": "藤沢市",
    "town": "辻堂太平台"
  },
  "2510045": {
    "zipcode": "2510045",
    "prefectureCode": "14",
    "prefectureNumber": 14,
    "prefecture": "神奈川県",
    "city": "藤沢市",
    "town": "辻堂東海岸"
  },
  "2510046": {
    "zipcode": "2510046",
    "prefectureCode": "14",
    "prefectureNumber": 14,
    "prefecture": "神奈川県",
    "city": "藤沢市",
    "town": "辻堂西海岸"
  },
  "2510047": {
    "zipcode": "2510047",
    "prefectureCode": "14",
    "prefectureNumber": 14,
    "prefecture": "神奈川県",
    "city": "藤沢市",
    "town": "辻堂"
  },
  "2510051": {
    "zipcode": "2510051",
    "prefectureCode": "14",
    "prefectureNumber": 14,
    "prefecture": "神奈川県",
    "city": "藤沢市",
    "town": "白旗"
  },
  "2510052": {
    "zipcode": "2510052",
    "prefectureCode": "14",
    "prefectureNumber": 14,
    "prefecture": "神奈川県",
    "city": "藤沢市",
    "town": "藤沢"
  },
  "2510053": {
    "zipcode": "2510053",
    "prefectureCode": "14",
    "prefectureNumber": 14,
    "prefecture": "神奈川県",
    "city": "藤沢市",
    "town": "本町"
  },
  "2510054": {
    "zipcode": "2510054",
    "prefectureCode": "14",
    "prefectureNumber": 14,
    "prefecture": "神奈川県",
    "city": "藤沢市",
    "town": "朝日町"
  },
  "2510055": {
    "zipcode": "2510055",
    "prefectureCode": "14",
    "prefectureNumber": 14,
    "prefecture": "神奈川県",
    "city": "藤沢市",
    "town": "南藤沢"
  },
  "2510056": {
    "zipcode": "2510056",
    "prefectureCode": "14",
    "prefectureNumber": 14,
    "prefecture": "神奈川県",
    "city": "藤沢市",
    "town": "羽鳥"
  },
  "2510057": {
    "zipcode": "2510057",
    "prefectureCode": "14",
    "prefectureNumber": 14,
    "prefecture": "神奈川県",
    "city": "藤沢市",
    "town": "城南"
  },
  "2510861": {
    "zipcode": "2510861",
    "prefectureCode": "14",
    "prefectureNumber": 14,
    "prefecture": "神奈川県",
    "city": "藤沢市",
    "town": "大庭"
  },
  "2510862": {
    "zipcode": "2510862",
    "prefectureCode": "14",
    "prefectureNumber": 14,
    "prefecture": "神奈川県",
    "city": "藤沢市",
    "town": "稲荷"
  },
  "2510871": {
    "zipcode": "2510871",
    "prefectureCode": "14",
    "prefectureNumber": 14,
    "prefecture": "神奈川県",
    "city": "藤沢市",
    "town": "善行"
  },
  "2510872": {
    "zipcode": "2510872",
    "prefectureCode": "14",
    "prefectureNumber": 14,
    "prefecture": "神奈川県",
    "city": "藤沢市",
    "town": "立石"
  },
  "2510873": {
    "zipcode": "2510873",
    "prefectureCode": "14",
    "prefectureNumber": 14,
    "prefecture": "神奈川県",
    "city": "藤沢市",
    "town": "みその台"
  },
  "2510874": {
    "zipcode": "2510874",
    "prefectureCode": "14",
    "prefectureNumber": 14,
    "prefecture": "神奈川県",
    "city": "藤沢市",
    "town": "花の木"
  },
  "2510875": {
    "zipcode": "2510875",
    "prefectureCode": "14",
    "prefectureNumber": 14,
    "prefecture": "神奈川県",
    "city": "藤沢市",
    "town": "本藤沢"
  },
  "2510876": {
    "zipcode": "2510876",
    "prefectureCode": "14",
    "prefectureNumber": 14,
    "prefecture": "神奈川県",
    "city": "藤沢市",
    "town": "善行坂"
  },
  "2510877": {
    "zipcode": "2510877",
    "prefectureCode": "14",
    "prefectureNumber": 14,
    "prefecture": "神奈川県",
    "city": "藤沢市",
    "town": "善行団地"
  }
}
