{
  "2520000": {
    "zipcode": "2520000",
    "prefectureCode": "14",
    "prefectureNumber": 14,
    "prefecture": "神奈川県",
    "city": "座間市",
    "town": "以下に掲載がない場合"
  },
  "2520001": {
    "zipcode": "2520001",
    "prefectureCode": "14",
    "prefectureNumber": 14,
    "prefecture": "神奈川県",
    "city": "座間市",
    "town": "相模が丘"
  },
  "2520002": {
    "zipcode": "2520002",
    "prefectureCode": "14",
    "prefectureNumber": 14,
    "prefecture": "神奈川県",
    "city": "座間市",
    "town": "小松原"
  },
  "2520003": {
    "zipcode": "2520003",
    "prefectureCode": "14",
    "prefectureNumber": 14,
    "prefecture": "神奈川県",
    "city": "座間市",
    "town": "ひばりが丘"
  },
  "2520004": {
    "zipcode": "2520004",
    "prefectureCode": "14",
    "prefectureNumber": 14,
    "prefecture": "神奈川県",
    "city": "座間市",
    "town": "東原"
  },
  "2520005": {
    "zipcode": "2520005",
    "prefectureCode": "14",
    "prefectureNumber": 14,
    "prefecture": "神奈川県",
    "city": "座間市",
    "town": "さがみ野"
  },
  "2520011": {
    "zipcode": "2520011",
    "prefectureCode": "14",
    "prefectureNumber": 14,
    "prefecture": "神奈川県",
    "city": "座間市",
    "town": "相武台"
  },
  "2520012": {
    "zipcode": "2520012",
    "prefectureCode": "14",
    "prefectureNumber": 14,
    "prefecture": "神奈川県",
    "city": "座間市",
    "town": "広野台"
  },
  "2520013": {
    "zipcode": "2520013",
    "prefectureCode": "14",
    "prefectureNumber": 14,
    "prefecture": "神奈川県",
    "city": "座間市",
    "town": "栗原"
  },
  "2520014": {
    "zipcode": "2520014",
    "prefectureCode": "14",
    "prefectureNumber": 14,
    "prefecture": "神奈川県",
    "city": "座間市",
    "town": "栗原中央"
  },
  "2520015": {
    "zipcode": "2520015",
    "prefectureCode": "14",
    "prefectureNumber": 14,
    "prefecture": "神奈川県",
    "city": "座間市",
    "town": "南栗原"
  },
  "2520016": {
    "zipcode": "2520016",
    "prefectureCode": "14",
    "prefectureNumber": 14,
    "prefecture": "神奈川県",
    "city": "座間市",
    "town": "西栗原"
  },
  "2520021": {
    "zipcode": "2520021",
    "prefectureCode": "14",
    "prefectureNumber": 14,
    "prefecture": "神奈川県",
    "city": "座間市",
    "town": "緑ケ丘"
  },
  "2520022": {
    "zipcode": "2520022",
    "prefectureCode": "14",
    "prefectureNumber": 14,
    "prefecture": "神奈川県",
    "city": "座間市",
    "town": "明王"
  },
  "2520023": {
    "zipcode": "2520023",
    "prefectureCode": "14",
    "prefectureNumber": 14,
    "prefecture": "神奈川県",
    "city": "座間市",
    "town": "立野台"
  },
  "2520025": {
    "zipcode": "2520025",
    "prefectureCode": "14",
    "prefectureNumber": 14,
    "prefecture": "神奈川県",
    "city": "座間市",
    "town": "四ツ谷"
  },
  "2520026": {
    "zipcode": "2520026",
    "prefectureCode": "14",
    "prefectureNumber": 14,
    "prefecture": "神奈川県",
    "city": "座間市",
    "town": "新田宿"
  },
  "2520027": {
    "zipcode": "2520027",
    "prefectureCode": "14",
    "prefectureNumber": 14,
    "prefecture": "神奈川県",
    "city": "座間市",
    "town": "座間"
  },
  "2520028": {
    "zipcode": "2520028",
    "prefectureCode": "14",
    "prefectureNumber": 14,
    "prefecture": "神奈川県",
    "city": "座間市",
    "town": "入谷東"
  },
  "2520029": {
    "zipcode": "2520029",
    "prefectureCode": "14",
    "prefectureNumber": 14,
    "prefecture": "神奈川県",
    "city": "座間市",
    "town": "入谷西"
  },
  "2520100": {
    "zipcode": "2520100",
    "prefectureCode": "14",
    "prefectureNumber": 14,
    "prefecture": "神奈川県",
    "city": "相模原市緑区",
    "town": "以下に掲載がない場合"
  },
  "2520101": {
    "zipcode": "2520101",
    "prefectureCode": "14",
    "prefectureNumber": 14,
    "prefecture": "神奈川県",
    "city": "相模原市緑区",
    "town": "町屋"
  },
  "2520102": {
    "zipcode": "2520102",
    "prefectureCode": "14",
    "prefectureNumber": 14,
    "prefecture": "神奈川県",
    "city": "相模原市緑区",
    "town": "原宿"
  },
  "2520103": {
    "zipcode": "2520103",
    "prefectureCode": "14",
    "prefectureNumber": 14,
    "prefecture": "神奈川県",
    "city": "相模原市緑区",
    "town": "原宿南"
  },
  "2520104": {
    "zipcode": "2520104",
    "prefectureCode": "14",
    "prefectureNumber": 14,
    "prefecture": "神奈川県",
    "city": "相模原市緑区",
    "town": "向原"
  },
  "2520105": {
    "zipcode": "2520105",
    "prefectureCode": "14",
    "prefectureNumber": 14,
    "prefecture": "神奈川県",
    "city": "相模原市緑区",
    "town": "久保沢"
  },
  "2520106": {
    "zipcode": "2520106",
    "prefectureCode": "14",
    "prefectureNumber": 14,
    "prefecture": "神奈川県",
    "city": "相模原市緑区",
    "town": "広田"
  },
  "2520111": {
    "zipcode": "2520111",
    "prefectureCode": "14",
    "prefectureNumber": 14,
    "prefecture": "神奈川県",
    "city": "相模原市緑区",
    "town": "川尻"
  },
  "2520112": {
    "zipcode": "2520112",
    "prefectureCode": "14",
    "prefectureNumber": 14,
    "prefecture": "神奈川県",
    "city": "相模原市緑区",
    "town": "若葉台"
  },
  "2520113": {
    "zipcode": "2520113",
    "prefectureCode": "14",
    "prefectureNumber": 14,
    "prefecture": "神奈川県",
    "city": "相模原市緑区",
    "town": "谷ヶ原"
  },
  "2520114": {
    "zipcode": "2520114",
    "prefectureCode": "14",
    "prefectureNumber": 14,
    "prefecture": "神奈川県",
    "city": "相模原市緑区",
    "town": "葉山島"
  },
  "2520115": {
    "zipcode": "2520115",
    "prefectureCode": "14",
    "prefectureNumber": 14,
    "prefecture": "神奈川県",
    "city": "相模原市緑区",
    "town": "小倉"
  },
  "2520116": {
    "zipcode": "2520116",
    "prefectureCode": "14",
    "prefectureNumber": 14,
    "prefecture": "神奈川県",
    "city": "相模原市緑区",
    "town": "城山"
  },
  "2520117": {
    "zipcode": "2520117",
    "prefectureCode": "14",
    "prefectureNumber": 14,
    "prefecture": "神奈川県",
    "city": "相模原市緑区",
    "town": "中沢"
  },
  "2520124": {
    "zipcode": "2520124",
    "prefectureCode": "14",
    "prefectureNumber": 14,
    "prefecture": "神奈川県",
    "city": "相模原市緑区",
    "town": "田名"
  },
  "2520131": {
    "zipcode": "2520131",
    "prefectureCode": "14",
    "prefectureNumber": 14,
    "prefecture": "神奈川県",
    "city": "相模原市緑区",
    "town": "西橋本"
  },
  "2520132": {
    "zipcode": "2520132",
    "prefectureCode": "14",
    "prefectureNumber": 14,
    "prefecture": "神奈川県",
    "city": "相模原市緑区",
    "town": "橋本台"
  },
  "2520134": {
    "zipcode": "2520134",
    "prefectureCode": "14",
    "prefectureNumber": 14,
    "prefecture": "神奈川県",
    "city": "相模原市緑区",
    "town": "下九沢"
  },
  "2520135": {
    "zipcode": "2520135",
    "prefectureCode": "14",
    "prefectureNumber": 14,
    "prefecture": "神奈川県",
    "city": "相模原市緑区",
    "town": "大島"
  },
  "2520136": {
    "zipcode": "2520136",
    "prefectureCode": "14",
    "prefectureNumber": 14,
    "prefecture": "神奈川県",
    "city": "相模原市緑区",
    "town": "上九沢"
  },
  "2520137": {
    "zipcode": "2520137",
    "prefectureCode": "14",
    "prefectureNumber": 14,
    "prefecture": "神奈川県",
    "city": "相模原市緑区",
    "town": "二本松"
  },
  "2520141": {
    "zipcode": "2520141",
    "prefectureCode": "14",
    "prefectureNumber": 14,
    "prefecture": "神奈川県",
    "city": "相模原市緑区",
    "town": "相原"
  },
  "2520142": {
    "zipcode": "2520142",
    "prefectureCode": "14",
    "prefectureNumber": 14,
    "prefecture": "神奈川県",
    "city": "相模原市緑区",
    "town": "元橋本町"
  },
  "2520143": {
    "zipcode": "2520143",
    "prefectureCode": "14",
    "prefectureNumber": 14,
    "prefecture": "神奈川県",
    "city": "相模原市緑区",
    "town": "橋本"
  },
  "2520144": {
    "zipcode": "2520144",
    "prefectureCode": "14",
    "prefectureNumber": 14,
    "prefecture": "神奈川県",
    "city": "相模原市緑区",
    "town": "東橋本"
  },
  "2520146": {
    "zipcode": "2520146",
    "prefectureCode": "14",
    "prefectureNumber": 14,
    "prefecture": "神奈川県",
    "city": "相模原市緑区",
    "town": "大山町"
  },
  "2520151": {
    "zipcode": "2520151",
    "prefectureCode": "14",
    "prefectureNumber": 14,
    "prefecture": "神奈川県",
    "city": "相模原市緑区",
    "town": "三井"
  },
  "2520152": {
    "zipcode": "2520152",
    "prefectureCode": "14",
    "prefectureNumber": 14,
    "prefecture": "神奈川県",
    "city": "相模原市緑区",
    "town": "太井"
  },
  "2520153": {
    "zipcode": "2520153",
    "prefectureCode": "14",
    "prefectureNumber": 14,
    "prefecture": "神奈川県",
    "city": "相模原市緑区",
    "town": "根小屋"
  },
  "2520154": {
    "zipcode": "2520154",
    "prefectureCode": "14",
    "prefectureNumber": 14,
    "prefecture": "神奈川県",
    "city": "相模原市緑区",
    "town": "長竹"
  },
  "2520155": {
    "zipcode": "2520155",
    "prefectureCode": "14",
    "prefectureNumber": 14,
    "prefecture": "神奈川県",
    "city": "相模原市緑区",
    "town": "鳥屋"
  },
  "2520156": {
    "zipcode": "2520156",
    "prefectureCode": "14",
    "prefectureNumber": 14,
    "prefecture": "神奈川県",
    "city": "相模原市緑区",
    "town": "青山"
  },
  "2520157": {
    "zipcode": "2520157",
    "prefectureCode": "14",
    "prefectureNumber": 14,
    "prefecture": "神奈川県",
    "city": "相模原市緑区",
    "town": "中野"
  },
  "2520158": {
    "zipcode": "2520158",
    "prefectureCode": "14",
    "prefectureNumber": 14,
    "prefecture": "神奈川県",
    "city": "相模原市緑区",
    "town": "又野"
  },
  "2520159": {
    "zipcode": "2520159",
    "prefectureCode": "14",
    "prefectureNumber": 14,
    "prefecture": "神奈川県",
    "city": "相模原市緑区",
    "town": "三ケ木"
  },
  "2520161": {
    "zipcode": "2520161",
    "prefectureCode": "14",
    "prefectureNumber": 14,
    "prefecture": "神奈川県",
    "city": "相模原市緑区",
    "town": "青野原"
  },
  "2520162": {
    "zipcode": "2520162",
    "prefectureCode": "14",
    "prefectureNumber": 14,
    "prefecture": "神奈川県",
    "city": "相模原市緑区",
    "town": "青根"
  },
  "2520171": {
    "zipcode": "2520171",
    "prefectureCode": "14",
    "prefectureNumber": 14,
    "prefecture": "神奈川県",
    "city": "相模原市緑区",
    "town": "与瀬"
  },
  "2520172": {
    "zipcode": "2520172",
    "prefectureCode": "14",
    "prefectureNumber": 14,
    "prefecture": "神奈川県",
    "city": "相模原市緑区",
    "town": "与瀬本町"
  },
  "2520173": {
    "zipcode": "2520173",
    "prefectureCode": "14",
    "prefectureNumber": 14,
    "prefecture": "神奈川県",
    "city": "相模原市緑区",
    "town": "小原"
  },
  "2520174": {
    "zipcode": "2520174",
    "prefectureCode": "14",
    "prefectureNumber": 14,
    "prefecture": "神奈川県",
    "city": "相模原市緑区",
    "town": "千木良"
  },
  "2520175": {
    "zipcode": "2520175",
    "prefectureCode": "14",
    "prefectureNumber": 14,
    "prefecture": "神奈川県",
    "city": "相模原市緑区",
    "town": "若柳"
  },
  "2520176": {
    "zipcode": "2520176",
    "prefectureCode": "14",
    "prefectureNumber": 14,
    "prefecture": "神奈川県",
    "city": "相模原市緑区",
    "town": "寸沢嵐（その他）"
  },
  "2520181": {
    "zipcode": "2520181",
    "prefectureCode": "14",
    "prefectureNumber": 14,
    "prefecture": "神奈川県",
    "city": "相模原市緑区",
    "town": "佐野川"
  },
  "2520182": {
    "zipcode": "2520182",
    "prefectureCode": "14",
    "prefectureNumber": 14,
    "prefecture": "神奈川県",
    "city": "相模原市緑区",
    "town": "澤井"
  },
  "2520183": {
    "zipcode": "2520183",
    "prefectureCode": "14",
    "prefectureNumber": 14,
    "prefecture": "神奈川県",
    "city": "相模原市緑区",
    "town": "吉野"
  },
  "2520184": {
    "zipcode": "2520184",
    "prefectureCode": "14",
    "prefectureNumber": 14,
    "prefecture": "神奈川県",
    "city": "相模原市緑区",
    "town": "小渕"
  },
  "2520185": {
    "zipcode": "2520185",
    "prefectureCode": "14",
    "prefectureNumber": 14,
    "prefecture": "神奈川県",
    "city": "相模原市緑区",
    "town": "日連"
  },
  "2520186": {
    "zipcode": "2520186",
    "prefectureCode": "14",
    "prefectureNumber": 14,
    "prefecture": "神奈川県",
    "city": "相模原市緑区",
    "town": "牧野"
  },
  "2520187": {
    "zipcode": "2520187",
    "prefectureCode": "14",
    "prefectureNumber": 14,
    "prefecture": "神奈川県",
    "city": "相模原市緑区",
    "town": "名倉"
  },
  "2520188": {
    "zipcode": "2520188",
    "prefectureCode": "14",
    "prefectureNumber": 14,
    "prefecture": "神奈川県",
    "city": "相模原市緑区",
    "town": "寸沢嵐（新戸）"
  },
  "2520200": {
    "zipcode": "2520200",
    "prefectureCode": "14",
    "prefectureNumber": 14,
    "prefecture": "神奈川県",
    "city": "相模原市中央区",
    "town": "以下に掲載がない場合"
  },
  "2520201": {
    "zipcode": "2520201",
    "prefectureCode": "14",
    "prefectureNumber": 14,
    "prefecture": "神奈川県",
    "city": "相模原市中央区",
    "town": "上矢部"
  },
  "2520202": {
    "zipcode": "2520202",
    "prefectureCode": "14",
    "prefectureNumber": 14,
    "prefecture": "神奈川県",
    "city": "相模原市中央区",
    "town": "淵野辺本町"
  },
  "2520203": {
    "zipcode": "2520203",
    "prefectureCode": "14",
    "prefectureNumber": 14,
    "prefecture": "神奈川県",
    "city": "相模原市中央区",
    "town": "東淵野辺"
  },
  "2520205": {
    "zipcode": "2520205",
    "prefectureCode": "14",
    "prefectureNumber": 14,
    "prefecture": "神奈川県",
    "city": "相模原市中央区",
    "town": "小山"
  },
  "2520206": {
    "zipcode": "2520206",
    "prefectureCode": "14",
    "prefectureNumber": 14,
    "prefecture": "神奈川県",
    "city": "相模原市中央区",
    "town": "淵野辺"
  },
  "2520207": {
    "zipcode": "2520207",
    "prefectureCode": "14",
    "prefectureNumber": 14,
    "prefecture": "神奈川県",
    "city": "相模原市中央区",
    "town": "矢部新町"
  },
  "2520208": {
    "zipcode": "2520208",
    "prefectureCode": "14",
    "prefectureNumber": 14,
    "prefecture": "神奈川県",
    "city": "相模原市中央区",
    "town": "矢部新田"
  },
  "2520211": {
    "zipcode": "2520211",
    "prefectureCode": "14",
    "prefectureNumber": 14,
    "prefecture": "神奈川県",
    "city": "相模原市中央区",
    "town": "宮下本町"
  },
  "2520212": {
    "zipcode": "2520212",
    "prefectureCode": "14",
    "prefectureNumber": 14,
    "prefecture": "神奈川県",
    "city": "相模原市中央区",
    "town": "宮下"
  },
  "2520213": {
    "zipcode": "2520213",
    "prefectureCode": "14",
    "prefectureNumber": 14,
    "prefecture": "神奈川県",
    "city": "相模原市中央区",
    "town": "すすきの町"
  },
  "2520214": {
    "zipcode": "2520214",
    "prefectureCode": "14",
    "prefectureNumber": 14,
    "prefecture": "神奈川県",
    "city": "相模原市中央区",
    "town": "向陽町"
  },
  "2520215": {
    "zipcode": "2520215",
    "prefectureCode": "14",
    "prefectureNumber": 14,
    "prefecture": "神奈川県",
    "city": "相模原市中央区",
    "town": "氷川町"
  },
  "2520216": {
    "zipcode": "2520216",
    "prefectureCode": "14",
    "prefectureNumber": 14,
    "prefecture": "神奈川県",
    "city": "相模原市中央区",
    "town": "清新"
  },
  "2520217": {
    "zipcode": "2520217",
    "prefectureCode": "14",
    "prefectureNumber": 14,
    "prefecture": "神奈川県",
    "city": "相模原市中央区",
    "town": "小町通"
  },
  "2520221": {
    "zipcode": "2520221",
    "prefectureCode": "14",
    "prefectureNumber": 14,
    "prefecture": "神奈川県",
    "city": "相模原市中央区",
    "town": "高根"
  },
  "2520222": {
    "zipcode": "2520222",
    "prefectureCode": "14",
    "prefectureNumber": 14,
    "prefecture": "神奈川県",
    "city": "相模原市中央区",
    "town": "由野台"
  },
  "2520223": {
    "zipcode": "2520223",
    "prefectureCode": "14",
    "prefectureNumber": 14,
    "prefecture": "神奈川県",
    "city": "相模原市中央区",
    "town": "松が丘"
  },
  "2520224": {
    "zipcode": "2520224",
    "prefectureCode": "14",
    "prefectureNumber": 14,
    "prefecture": "神奈川県",
    "city": "相模原市中央区",
    "town": "青葉"
  },
  "2520225": {
    "zipcode": "2520225",
    "prefectureCode": "14",
    "prefectureNumber": 14,
    "prefecture": "神奈川県",
    "city": "相模原市中央区",
    "town": "緑が丘"
  },
  "2520226": {
    "zipcode": "2520226",
    "prefectureCode": "14",
    "prefectureNumber": 14,
    "prefecture": "神奈川県",
    "city": "相模原市中央区",
    "town": "陽光台"
  },
  "2520227": {
    "zipcode": "2520227",
    "prefectureCode": "14",
    "prefectureNumber": 14,
    "prefecture": "神奈川県",
    "city": "相模原市中央区",
    "town": "光が丘"
  },
  "2520228": {
    "zipcode": "2520228",
    "prefectureCode": "14",
    "prefectureNumber": 14,
    "prefecture": "神奈川県",
    "city": "相模原市中央区",
    "town": "並木"
  },
  "2520229": {
    "zipcode": "2520229",
    "prefectureCode": "14",
    "prefectureNumber": 14,
    "prefecture": "神奈川県",
    "city": "相模原市中央区",
    "town": "弥栄"
  },
  "2520231": {
    "zipcode": "2520231",
    "prefectureCode": "14",
    "prefectureNumber": 14,
    "prefecture": "神奈川県",
    "city": "相模原市中央区",
    "town": "相模原"
  },
  "2520232": {
    "zipcode": "2520232",
    "prefectureCode": "14",
    "prefectureNumber": 14,
    "prefecture": "神奈川県",
    "city": "相模原市中央区",
    "town": "矢部"
  },
  "2520233": {
    "zipcode": "2520233",
    "prefectureCode": "14",
    "prefectureNumber": 14,
    "prefecture": "神奈川県",
    "city": "相模原市中央区",
    "town": "鹿沼台"
  },
  "2520234": {
    "zipcode": "2520234",
    "prefectureCode": "14",
    "prefectureNumber": 14,
    "prefecture": "神奈川県",
    "city": "相模原市中央区",
    "town": "共和"
  },
  "2520235": {
    "zipcode": "2520235",
    "prefectureCode": "14",
    "prefectureNumber": 14,
    "prefecture": "神奈川県",
    "city": "相模原市中央区",
    "town": "相生"
  },
  "2520236": {
    "zipcode": "2520236",
    "prefectureCode": "14",
    "prefectureNumber": 14,
    "prefecture": "神奈川県",
    "city": "相模原市中央区",
    "town": "富士見"
  },
  "2520237": {
    "zipcode": "2520237",
    "prefectureCode": "14",
    "prefectureNumber": 14,
    "prefecture": "神奈川県",
    "city": "相模原市中央区",
    "town": "千代田"
  },
  "2520238": {
    "zipcode": "2520238",
    "prefectureCode": "14",
    "prefectureNumber": 14,
    "prefecture": "神奈川県",
    "city": "相模原市中央区",
    "town": "星が丘"
  },
  "2520239": {
    "zipcode": "2520239",
    "prefectureCode": "14",
    "prefectureNumber": 14,
    "prefecture": "神奈川県",
    "city": "相模原市中央区",
    "town": "中央"
  },
  "2520241": {
    "zipcode": "2520241",
    "prefectureCode": "14",
    "prefectureNumber": 14,
    "prefecture": "神奈川県",
    "city": "相模原市中央区",
    "town": "横山台"
  },
  "2520242": {
    "zipcode": "2520242",
    "prefectureCode": "14",
    "prefectureNumber": 14,
    "prefecture": "神奈川県",
    "city": "相模原市中央区",
    "town": "横山"
  },
  "2520243": {
    "zipcode": "2520243",
    "prefectureCode": "14",
    "prefectureNumber": 14,
    "prefecture": "神奈川県",
    "city": "相模原市中央区",
    "town": "上溝"
  },
  "2520244": {
    "zipcode": "2520244",
    "prefectureCode": "14",
    "prefectureNumber": 14,
    "prefecture": "神奈川県",
    "city": "相模原市中央区",
    "town": "田名"
  },
  "2520245": {
    "zipcode": "2520245",
    "prefectureCode": "14",
    "prefectureNumber": 14,
    "prefecture": "神奈川県",
    "city": "相模原市中央区",
    "town": "田名塩田"
  },
  "2520246": {
    "zipcode": "2520246",
    "prefectureCode": "14",
    "prefectureNumber": 14,
    "prefecture": "神奈川県",
    "city": "相模原市中央区",
    "town": "水郷田名"
  },
  "2520251": {
    "zipcode": "2520251",
    "prefectureCode": "14",
    "prefectureNumber": 14,
    "prefecture": "神奈川県",
    "city": "相模原市中央区",
    "town": "大野台"
  },
  "2520253": {
    "zipcode": "2520253",
    "prefectureCode": "14",
    "prefectureNumber": 14,
    "prefecture": "神奈川県",
    "city": "相模原市中央区",
    "town": "南橋本"
  },
  "2520254": {
    "zipcode": "2520254",
    "prefectureCode": "14",
    "prefectureNumber": 14,
    "prefecture": "神奈川県",
    "city": "相模原市中央区",
    "town": "下九沢"
  },
  "2520300": {
    "zipcode": "2520300",
    "prefectureCode": "14",
    "prefectureNumber": 14,
    "prefecture": "神奈川県",
    "city": "相模原市南区",
    "town": "以下に掲載がない場合"
  },
  "2520301": {
    "zipcode": "2520301",
    "prefectureCode": "14",
    "prefectureNumber": 14,
    "prefecture": "神奈川県",
    "city": "相模原市南区",
    "town": "鵜野森"
  },
  "2520302": {
    "zipcode": "2520302",
    "prefectureCode": "14",
    "prefectureNumber": 14,
    "prefecture": "神奈川県",
    "city": "相模原市南区",
    "town": "上鶴間"
  },
  "2520303": {
    "zipcode": "2520303",
    "prefectureCode": "14",
    "prefectureNumber": 14,
    "prefecture": "神奈川県",
    "city": "相模原市南区",
    "town": "相模大野"
  },
  "2520304": {
    "zipcode": "2520304",
    "prefectureCode": "14",
    "prefectureNumber": 14,
    "prefecture": "神奈川県",
    "city": "相模原市南区",
    "town": "旭町"
  },
  "2520305": {
    "zipcode": "2520305",
    "prefectureCode": "14",
    "prefectureNumber": 14,
    "prefecture": "神奈川県",
    "city": "相模原市南区",
    "town": "豊町"
  },
  "2520306": {
    "zipcode": "2520306",
    "prefectureCode": "14",
    "prefectureNumber": 14,
    "prefecture": "神奈川県",
    "city": "相模原市南区",
    "town": "栄町"
  },
  "2520307": {
    "zipcode": "2520307",
    "prefectureCode": "14",
    "prefectureNumber": 14,
    "prefecture": "神奈川県",
    "city": "相模原市南区",
    "town": "文京"
  },
  "2520311": {
    "zipcode": "2520311",
    "prefectureCode": "14",
    "prefectureNumber": 14,
    "prefecture": "神奈川県",
    "city": "相模原市南区",
    "town": "東林間"
  },
  "2520312": {
    "zipcode": "2520312",
    "prefectureCode": "14",
    "prefectureNumber": 14,
    "prefecture": "神奈川県",
    "city": "相模原市南区",
    "town": "相南"
  },
  "2520313": {
    "zipcode": "2520313",
    "prefectureCode": "14",
    "prefectureNumber": 14,
    "prefecture": "神奈川県",
    "city": "相模原市南区",
    "town": "松が枝町"
  },
  "2520314": {
    "zipcode": "2520314",
    "prefectureCode": "14",
    "prefectureNumber": 14,
    "prefecture": "神奈川県",
    "city": "相模原市南区",
    "town": "南台"
  },
  "2520315": {
    "zipcode": "2520315",
    "prefectureCode": "14",
    "prefectureNumber": 14,
    "prefecture": "神奈川県",
    "city": "相模原市南区",
    "town": "桜台"
  },
  "2520316": {
    "zipcode": "2520316",
    "prefectureCode": "14",
    "prefectureNumber": 14,
    "prefecture": "神奈川県",
    "city": "相模原市南区",
    "town": "双葉"
  },
  "2520317": {
    "zipcode": "2520317",
    "prefectureCode": "14",
    "prefectureNumber": 14,
    "prefecture": "神奈川県",
    "city": "相模原市南区",
    "town": "御園"
  },
  "2520318": {
    "zipcode": "2520318",
    "prefectureCode": "14",
    "prefectureNumber": 14,
    "prefecture": "神奈川県",
    "city": "相模原市南区",
    "town": "上鶴間本町"
  },
  "2520321": {
    "zipcode": "2520321",
    "prefectureCode": "14",
    "prefectureNumber": 14,
    "prefecture": "神奈川県",
    "city": "相模原市南区",
    "town": "相模台"
  },
  "2520322": {
    "zipcode": "2520322",
    "prefectureCode": "14",
    "prefectureNumber": 14,
    "prefecture": "神奈川県",
    "city": "相模原市南区",
    "town": "相模台団地"
  },
  "2520323": {
    "zipcode": "2520323",
    "prefectureCode": "14",
    "prefectureNumber": 14,
    "prefecture": "神奈川県",
    "city": "相模原市南区",
    "town": "相武台団地"
  },
  "2520324": {
    "zipcode": "2520324",
    "prefectureCode": "14",
    "prefectureNumber": 14,
    "prefecture": "神奈川県",
    "city": "相模原市南区",
    "town": "相武台"
  },
  "2520325": {
    "zipcode": "2520325",
    "prefectureCode": "14",
    "prefectureNumber": 14,
    "prefecture": "神奈川県",
    "city": "相模原市南区",
    "town": "新磯野"
  },
  "2520326": {
    "zipcode": "2520326",
    "prefectureCode": "14",
    "prefectureNumber": 14,
    "prefecture": "神奈川県",
    "city": "相模原市南区",
    "town": "新戸"
  },
  "2520327": {
    "zipcode": "2520327",
    "prefectureCode": "14",
    "prefectureNumber": 14,
    "prefecture": "神奈川県",
    "city": "相模原市南区",
    "town": "磯部"
  },
  "2520328": {
    "zipcode": "2520328",
    "prefectureCode": "14",
    "prefectureNumber": 14,
    "prefecture": "神奈川県",
    "city": "相模原市南区",
    "town": "麻溝台"
  },
  "2520329": {
    "zipcode": "2520329",
    "prefectureCode": "14",
    "prefectureNumber": 14,
    "prefecture": "神奈川県",
    "city": "相模原市南区",
    "town": "北里"
  },
  "2520331": {
    "zipcode": "2520331",
    "prefectureCode": "14",
    "prefectureNumber": 14,
    "prefecture": "神奈川県",
    "city": "相模原市南区",
    "town": "大野台"
  },
  "2520332": {
    "zipcode": "2520332",
    "prefectureCode": "14",
    "prefectureNumber": 14,
    "prefecture": "神奈川県",
    "city": "相模原市南区",
    "town": "西大沼"
  },
  "2520333": {
    "zipcode": "2520333",
    "prefectureCode": "14",
    "prefectureNumber": 14,
    "prefecture": "神奈川県",
    "city": "相模原市南区",
    "town": "東大沼"
  },
  "2520334": {
    "zipcode": "2520334",
    "prefectureCode": "14",
    "prefectureNumber": 14,
    "prefecture": "神奈川県",
    "city": "相模原市南区",
    "town": "若松"
  },
  "2520335": {
    "zipcode": "2520335",
    "prefectureCode": "14",
    "prefectureNumber": 14,
    "prefecture": "神奈川県",
    "city": "相模原市南区",
    "town": "下溝"
  },
  "2520336": {
    "zipcode": "2520336",
    "prefectureCode": "14",
    "prefectureNumber": 14,
    "prefecture": "神奈川県",
    "city": "相模原市南区",
    "town": "当麻"
  },
  "2520344": {
    "zipcode": "2520344",
    "prefectureCode": "14",
    "prefectureNumber": 14,
    "prefecture": "神奈川県",
    "city": "相模原市南区",
    "town": "古淵"
  },
  "2520801": {
    "zipcode": "2520801",
    "prefectureCode": "14",
    "prefectureNumber": 14,
    "prefecture": "神奈川県",
    "city": "藤沢市",
    "town": "長後"
  },
  "2520802": {
    "zipcode": "2520802",
    "prefectureCode": "14",
    "prefectureNumber": 14,
    "prefecture": "神奈川県",
    "city": "藤沢市",
    "town": "高倉"
  },
  "2520803": {
    "zipcode": "2520803",
    "prefectureCode": "14",
    "prefectureNumber": 14,
    "prefecture": "神奈川県",
    "city": "藤沢市",
    "town": "今田"
  },
  "2520804": {
    "zipcode": "2520804",
    "prefectureCode": "14",
    "prefectureNumber": 14,
    "prefecture": "神奈川県",
    "city": "藤沢市",
    "town": "湘南台"
  },
  "2520805": {
    "zipcode": "2520805",
    "prefectureCode": "14",
    "prefectureNumber": 14,
    "prefecture": "神奈川県",
    "city": "藤沢市",
    "town": "円行"
  },
  "2520806": {
    "zipcode": "2520806",
    "prefectureCode": "14",
    "prefectureNumber": 14,
    "prefecture": "神奈川県",
    "city": "藤沢市",
    "town": "土棚"
  },
  "2520807": {
    "zipcode": "2520807",
    "prefectureCode": "14",
    "prefectureNumber": 14,
    "prefecture": "神奈川県",
    "city": "藤沢市",
    "town": "下土棚"
  },
  "2520811": {
    "zipcode": "2520811",
    "prefectureCode": "14",
    "prefectureNumber": 14,
    "prefecture": "神奈川県",
    "city": "藤沢市",
    "town": "桐原町"
  },
  "2520812": {
    "zipcode": "2520812",
    "prefectureCode": "14",
    "prefectureNumber": 14,
    "prefecture": "神奈川県",
    "city": "藤沢市",
    "town": "西俣野"
  },
  "2520813": {
    "zipcode": "2520813",
    "prefectureCode": "14",
    "prefectureNumber": 14,
    "prefecture": "神奈川県",
    "city": "藤沢市",
    "town": "亀井野"
  },
  "2520814": {
    "zipcode": "2520814",
    "prefectureCode": "14",
    "prefectureNumber": 14,
    "prefecture": "神奈川県",
    "city": "藤沢市",
    "town": "天神町"
  },
  "2520815": {
    "zipcode": "2520815",
    "prefectureCode": "14",
    "prefectureNumber": 14,
    "prefecture": "神奈川県",
    "city": "藤沢市",
    "town": "石川"
  },
  "2520816": {
    "zipcode": "2520816",
    "prefectureCode": "14",
    "prefectureNumber": 14,
    "prefecture": "神奈川県",
    "city": "藤沢市",
    "town": "遠藤"
  },
  "2520821": {
    "zipcode": "2520821",
    "prefectureCode": "14",
    "prefectureNumber": 14,
    "prefecture": "神奈川県",
    "city": "藤沢市",
    "town": "用田"
  },
  "2520822": {
    "zipcode": "2520822",
    "prefectureCode": "14",
    "prefectureNumber": 14,
    "prefecture": "神奈川県",
    "city": "藤沢市",
    "town": "葛原"
  },
  "2520823": {
    "zipcode": "2520823",
    "prefectureCode": "14",
    "prefectureNumber": 14,
    "prefecture": "神奈川県",
    "city": "藤沢市",
    "town": "菖蒲沢"
  },
  "2520824": {
    "zipcode": "2520824",
    "prefectureCode": "14",
    "prefectureNumber": 14,
    "prefecture": "神奈川県",
    "city": "藤沢市",
    "town": "打戻"
  },
  "2520825": {
    "zipcode": "2520825",
    "prefectureCode": "14",
    "prefectureNumber": 14,
    "prefecture": "神奈川県",
    "city": "藤沢市",
    "town": "獺郷"
  },
  "2520826": {
    "zipcode": "2520826",
    "prefectureCode": "14",
    "prefectureNumber": 14,
    "prefecture": "神奈川県",
    "city": "藤沢市",
    "town": "宮原"
  },
  "2521100": {
    "zipcode": "2521100",
    "prefectureCode": "14",
    "prefectureNumber": 14,
    "prefecture": "神奈川県",
    "city": "綾瀬市",
    "town": "以下に掲載がない場合"
  },
  "2521101": {
    "zipcode": "2521101",
    "prefectureCode": "14",
    "prefectureNumber": 14,
    "prefecture": "神奈川県",
    "city": "綾瀬市",
    "town": "厚木航空基地"
  },
  "2521102": {
    "zipcode": "2521102",
    "prefectureCode": "14",
    "prefectureNumber": 14,
    "prefecture": "神奈川県",
    "city": "綾瀬市",
    "town": "本蓼川"
  },
  "2521103": {
    "zipcode": "2521103",
    "prefectureCode": "14",
    "prefectureNumber": 14,
    "prefecture": "神奈川県",
    "city": "綾瀬市",
    "town": "深谷"
  },
  "2521104": {
    "zipcode": "2521104",
    "prefectureCode": "14",
    "prefectureNumber": 14,
    "prefecture": "神奈川県",
    "city": "綾瀬市",
    "town": "大上"
  },
  "2521105": {
    "zipcode": "2521105",
    "prefectureCode": "14",
    "prefectureNumber": 14,
    "prefecture": "神奈川県",
    "city": "綾瀬市",
    "town": "蓼川"
  },
  "2521106": {
    "zipcode": "2521106",
    "prefectureCode": "14",
    "prefectureNumber": 14,
    "prefecture": "神奈川県",
    "city": "綾瀬市",
    "town": "深谷南"
  },
  "2521107": {
    "zipcode": "2521107",
    "prefectureCode": "14",
    "prefectureNumber": 14,
    "prefecture": "神奈川県",
    "city": "綾瀬市",
    "town": "深谷中"
  },
  "2521108": {
    "zipcode": "2521108",
    "prefectureCode": "14",
    "prefectureNumber": 14,
    "prefecture": "神奈川県",
    "city": "綾瀬市",
    "town": "深谷上"
  },
  "2521111": {
    "zipcode": "2521111",
    "prefectureCode": "14",
    "prefectureNumber": 14,
    "prefecture": "神奈川県",
    "city": "綾瀬市",
    "town": "上土棚北"
  },
  "2521112": {
    "zipcode": "2521112",
    "prefectureCode": "14",
    "prefectureNumber": 14,
    "prefecture": "神奈川県",
    "city": "綾瀬市",
    "town": "上土棚"
  },
  "2521113": {
    "zipcode": "2521113",
    "prefectureCode": "14",
    "prefectureNumber": 14,
    "prefecture": "神奈川県",
    "city": "綾瀬市",
    "town": "上土棚中"
  },
  "2521114": {
    "zipcode": "2521114",
    "prefectureCode": "14",
    "prefectureNumber": 14,
    "prefecture": "神奈川県",
    "city": "綾瀬市",
    "town": "上土棚南"
  },
  "2521115": {
    "zipcode": "2521115",
    "prefectureCode": "14",
    "prefectureNumber": 14,
    "prefecture": "神奈川県",
    "city": "綾瀬市",
    "town": "落合南"
  },
  "2521116": {
    "zipcode": "2521116",
    "prefectureCode": "14",
    "prefectureNumber": 14,
    "prefecture": "神奈川県",
    "city": "綾瀬市",
    "town": "落合北"
  },
  "2521121": {
    "zipcode": "2521121",
    "prefectureCode": "14",
    "prefectureNumber": 14,
    "prefecture": "神奈川県",
    "city": "綾瀬市",
    "town": "小園"
  },
  "2521122": {
    "zipcode": "2521122",
    "prefectureCode": "14",
    "prefectureNumber": 14,
    "prefecture": "神奈川県",
    "city": "綾瀬市",
    "town": "小園南"
  },
  "2521123": {
    "zipcode": "2521123",
    "prefectureCode": "14",
    "prefectureNumber": 14,
    "prefecture": "神奈川県",
    "city": "綾瀬市",
    "town": "早川"
  },
  "2521124": {
    "zipcode": "2521124",
    "prefectureCode": "14",
    "prefectureNumber": 14,
    "prefecture": "神奈川県",
    "city": "綾瀬市",
    "town": "吉岡"
  },
  "2521125": {
    "zipcode": "2521125",
    "prefectureCode": "14",
    "prefectureNumber": 14,
    "prefecture": "神奈川県",
    "city": "綾瀬市",
    "town": "吉岡東"
  },
  "2521126": {
    "zipcode": "2521126",
    "prefectureCode": "14",
    "prefectureNumber": 14,
    "prefecture": "神奈川県",
    "city": "綾瀬市",
    "town": "綾西"
  },
  "2521127": {
    "zipcode": "2521127",
    "prefectureCode": "14",
    "prefectureNumber": 14,
    "prefecture": "神奈川県",
    "city": "綾瀬市",
    "town": "早川城山"
  },
  "2521131": {
    "zipcode": "2521131",
    "prefectureCode": "14",
    "prefectureNumber": 14,
    "prefecture": "神奈川県",
    "city": "綾瀬市",
    "town": "寺尾北"
  },
  "2521132": {
    "zipcode": "2521132",
    "prefectureCode": "14",
    "prefectureNumber": 14,
    "prefecture": "神奈川県",
    "city": "綾瀬市",
    "town": "寺尾中"
  },
  "2521133": {
    "zipcode": "2521133",
    "prefectureCode": "14",
    "prefectureNumber": 14,
    "prefecture": "神奈川県",
    "city": "綾瀬市",
    "town": "寺尾本町"
  },
  "2521134": {
    "zipcode": "2521134",
    "prefectureCode": "14",
    "prefectureNumber": 14,
    "prefecture": "神奈川県",
    "city": "綾瀬市",
    "town": "寺尾南"
  },
  "2521135": {
    "zipcode": "2521135",
    "prefectureCode": "14",
    "prefectureNumber": 14,
    "prefecture": "神奈川県",
    "city": "綾瀬市",
    "town": "寺尾釜田"
  },
  "2521136": {
    "zipcode": "2521136",
    "prefectureCode": "14",
    "prefectureNumber": 14,
    "prefecture": "神奈川県",
    "city": "綾瀬市",
    "town": "寺尾西"
  },
  "2521137": {
    "zipcode": "2521137",
    "prefectureCode": "14",
    "prefectureNumber": 14,
    "prefecture": "神奈川県",
    "city": "綾瀬市",
    "town": "寺尾台"
  }
}
