{
  "2530000": {
    "zipcode": "2530000",
    "prefectureCode": "14",
    "prefectureNumber": 14,
    "prefecture": "神奈川県",
    "city": "茅ヶ崎市",
    "town": "以下に掲載がない場合"
  },
  "2530001": {
    "zipcode": "2530001",
    "prefectureCode": "14",
    "prefectureNumber": 14,
    "prefecture": "神奈川県",
    "city": "茅ヶ崎市",
    "town": "赤羽根"
  },
  "2530002": {
    "zipcode": "2530002",
    "prefectureCode": "14",
    "prefectureNumber": 14,
    "prefecture": "神奈川県",
    "city": "茅ヶ崎市",
    "town": "高田"
  },
  "2530003": {
    "zipcode": "2530003",
    "prefectureCode": "14",
    "prefectureNumber": 14,
    "prefecture": "神奈川県",
    "city": "茅ヶ崎市",
    "town": "鶴が台"
  },
  "2530004": {
    "zipcode": "2530004",
    "prefectureCode": "14",
    "prefectureNumber": 14,
    "prefecture": "神奈川県",
    "city": "茅ヶ崎市",
    "town": "甘沼"
  },
  "2530005": {
    "zipcode": "2530005",
    "prefectureCode": "14",
    "prefectureNumber": 14,
    "prefecture": "神奈川県",
    "city": "茅ヶ崎市",
    "town": "松風台"
  },
  "2530006": {
    "zipcode": "2530006",
    "prefectureCode": "14",
    "prefectureNumber": 14,
    "prefecture": "神奈川県",
    "city": "茅ヶ崎市",
    "town": "堤"
  },
  "2530007": {
    "zipcode": "2530007",
    "prefectureCode": "14",
    "prefectureNumber": 14,
    "prefecture": "神奈川県",
    "city": "茅ヶ崎市",
    "town": "行谷"
  },
  "2530008": {
    "zipcode": "2530008",
    "prefectureCode": "14",
    "prefectureNumber": 14,
    "prefecture": "神奈川県",
    "city": "茅ヶ崎市",
    "town": "芹沢"
  },
  "2530011": {
    "zipcode": "2530011",
    "prefectureCode": "14",
    "prefectureNumber": 14,
    "prefecture": "神奈川県",
    "city": "茅ヶ崎市",
    "town": "菱沼"
  },
  "2530012": {
    "zipcode": "2530012",
    "prefectureCode": "14",
    "prefectureNumber": 14,
    "prefecture": "神奈川県",
    "city": "茅ヶ崎市",
    "town": "小和田"
  },
  "2530013": {
    "zipcode": "2530013",
    "prefectureCode": "14",
    "prefectureNumber": 14,
    "prefecture": "神奈川県",
    "city": "茅ヶ崎市",
    "town": "赤松町"
  },
  "2530014": {
    "zipcode": "2530014",
    "prefectureCode": "14",
    "prefectureNumber": 14,
    "prefecture": "神奈川県",
    "city": "茅ヶ崎市",
    "town": "本宿町"
  },
  "2530015": {
    "zipcode": "2530015",
    "prefectureCode": "14",
    "prefectureNumber": 14,
    "prefecture": "神奈川県",
    "city": "茅ヶ崎市",
    "town": "代官町"
  },
  "2530016": {
    "zipcode": "2530016",
    "prefectureCode": "14",
    "prefectureNumber": 14,
    "prefecture": "神奈川県",
    "city": "茅ヶ崎市",
    "town": "小桜町"
  },
  "2530017": {
    "zipcode": "2530017",
    "prefectureCode": "14",
    "prefectureNumber": 14,
    "prefecture": "神奈川県",
    "city": "茅ヶ崎市",
    "town": "松林"
  },
  "2530018": {
    "zipcode": "2530018",
    "prefectureCode": "14",
    "prefectureNumber": 14,
    "prefecture": "神奈川県",
    "city": "茅ヶ崎市",
    "town": "室田"
  },
  "2530021": {
    "zipcode": "2530021",
    "prefectureCode": "14",
    "prefectureNumber": 14,
    "prefecture": "神奈川県",
    "city": "茅ヶ崎市",
    "town": "浜竹"
  },
  "2530022": {
    "zipcode": "2530022",
    "prefectureCode": "14",
    "prefectureNumber": 14,
    "prefecture": "神奈川県",
    "city": "茅ヶ崎市",
    "town": "松浪"
  },
  "2530023": {
    "zipcode": "2530023",
    "prefectureCode": "14",
    "prefectureNumber": 14,
    "prefecture": "神奈川県",
    "city": "茅ヶ崎市",
    "town": "美住町"
  },
  "2530024": {
    "zipcode": "2530024",
    "prefectureCode": "14",
    "prefectureNumber": 14,
    "prefecture": "神奈川県",
    "city": "茅ヶ崎市",
    "town": "平和町"
  },
  "2530025": {
    "zipcode": "2530025",
    "prefectureCode": "14",
    "prefectureNumber": 14,
    "prefecture": "神奈川県",
    "city": "茅ヶ崎市",
    "town": "松が丘"
  },
  "2530026": {
    "zipcode": "2530026",
    "prefectureCode": "14",
    "prefectureNumber": 14,
    "prefecture": "神奈川県",
    "city": "茅ヶ崎市",
    "town": "旭が丘"
  },
  "2530027": {
    "zipcode": "2530027",
    "prefectureCode": "14",
    "prefectureNumber": 14,
    "prefecture": "神奈川県",
    "city": "茅ヶ崎市",
    "town": "ひばりが丘"
  },
  "2530028": {
    "zipcode": "2530028",
    "prefectureCode": "14",
    "prefectureNumber": 14,
    "prefecture": "神奈川県",
    "city": "茅ヶ崎市",
    "town": "出口町"
  },
  "2530031": {
    "zipcode": "2530031",
    "prefectureCode": "14",
    "prefectureNumber": 14,
    "prefecture": "神奈川県",
    "city": "茅ヶ崎市",
    "town": "富士見町"
  },
  "2530032": {
    "zipcode": "2530032",
    "prefectureCode": "14",
    "prefectureNumber": 14,
    "prefecture": "神奈川県",
    "city": "茅ヶ崎市",
    "town": "常盤町"
  },
  "2530033": {
    "zipcode": "2530033",
    "prefectureCode": "14",
    "prefectureNumber": 14,
    "prefecture": "神奈川県",
    "city": "茅ヶ崎市",
    "town": "汐見台"
  },
  "2530034": {
    "zipcode": "2530034",
    "prefectureCode": "14",
    "prefectureNumber": 14,
    "prefecture": "神奈川県",
    "city": "茅ヶ崎市",
    "town": "緑が浜"
  },
  "2530035": {
    "zipcode": "2530035",
    "prefectureCode": "14",
    "prefectureNumber": 14,
    "prefecture": "神奈川県",
    "city": "茅ヶ崎市",
    "town": "浜須賀"
  },
  "2530036": {
    "zipcode": "2530036",
    "prefectureCode": "14",
    "prefectureNumber": 14,
    "prefecture": "神奈川県",
    "city": "茅ヶ崎市",
    "town": "白浜町"
  },
  "2530037": {
    "zipcode": "2530037",
    "prefectureCode": "14",
    "prefectureNumber": 14,
    "prefecture": "神奈川県",
    "city": "茅ヶ崎市",
    "town": "菱沼海岸"
  },
  "2530041": {
    "zipcode": "2530041",
    "prefectureCode": "14",
    "prefectureNumber": 14,
    "prefecture": "神奈川県",
    "city": "茅ヶ崎市",
    "town": "茅ヶ崎"
  },
  "2530042": {
    "zipcode": "2530042",
    "prefectureCode": "14",
    "prefectureNumber": 14,
    "prefecture": "神奈川県",
    "city": "茅ヶ崎市",
    "town": "本村"
  },
  "2530043": {
    "zipcode": "2530043",
    "prefectureCode": "14",
    "prefectureNumber": 14,
    "prefecture": "神奈川県",
    "city": "茅ヶ崎市",
    "town": "元町"
  },
  "2530044": {
    "zipcode": "2530044",
    "prefectureCode": "14",
    "prefectureNumber": 14,
    "prefecture": "神奈川県",
    "city": "茅ヶ崎市",
    "town": "新栄町"
  },
  "2530045": {
    "zipcode": "2530045",
    "prefectureCode": "14",
    "prefectureNumber": 14,
    "prefecture": "神奈川県",
    "city": "茅ヶ崎市",
    "town": "十間坂"
  },
  "2530051": {
    "zipcode": "2530051",
    "prefectureCode": "14",
    "prefectureNumber": 14,
    "prefecture": "神奈川県",
    "city": "茅ヶ崎市",
    "town": "若松町"
  },
  "2530052": {
    "zipcode": "2530052",
    "prefectureCode": "14",
    "prefectureNumber": 14,
    "prefecture": "神奈川県",
    "city": "茅ヶ崎市",
    "town": "幸町"
  },
  "2530053": {
    "zipcode": "2530053",
    "prefectureCode": "14",
    "prefectureNumber": 14,
    "prefecture": "神奈川県",
    "city": "茅ヶ崎市",
    "town": "東海岸北"
  },
  "2530054": {
    "zipcode": "2530054",
    "prefectureCode": "14",
    "prefectureNumber": 14,
    "prefecture": "神奈川県",
    "city": "茅ヶ崎市",
    "town": "東海岸南"
  },
  "2530055": {
    "zipcode": "2530055",
    "prefectureCode": "14",
    "prefectureNumber": 14,
    "prefecture": "神奈川県",
    "city": "茅ヶ崎市",
    "town": "中海岸"
  },
  "2530056": {
    "zipcode": "2530056",
    "prefectureCode": "14",
    "prefectureNumber": 14,
    "prefecture": "神奈川県",
    "city": "茅ヶ崎市",
    "town": "共恵"
  },
  "2530061": {
    "zipcode": "2530061",
    "prefectureCode": "14",
    "prefectureNumber": 14,
    "prefecture": "神奈川県",
    "city": "茅ヶ崎市",
    "town": "南湖"
  },
  "2530062": {
    "zipcode": "2530062",
    "prefectureCode": "14",
    "prefectureNumber": 14,
    "prefecture": "神奈川県",
    "city": "茅ヶ崎市",
    "town": "浜見平"
  },
  "2530063": {
    "zipcode": "2530063",
    "prefectureCode": "14",
    "prefectureNumber": 14,
    "prefecture": "神奈川県",
    "city": "茅ヶ崎市",
    "town": "柳島海岸"
  },
  "2530064": {
    "zipcode": "2530064",
    "prefectureCode": "14",
    "prefectureNumber": 14,
    "prefecture": "神奈川県",
    "city": "茅ヶ崎市",
    "town": "柳島"
  },
  "2530065": {
    "zipcode": "2530065",
    "prefectureCode": "14",
    "prefectureNumber": 14,
    "prefecture": "神奈川県",
    "city": "茅ヶ崎市",
    "town": "松尾"
  },
  "2530071": {
    "zipcode": "2530071",
    "prefectureCode": "14",
    "prefectureNumber": 14,
    "prefecture": "神奈川県",
    "city": "茅ヶ崎市",
    "town": "萩園"
  },
  "2530072": {
    "zipcode": "2530072",
    "prefectureCode": "14",
    "prefectureNumber": 14,
    "prefecture": "神奈川県",
    "city": "茅ヶ崎市",
    "town": "今宿"
  },
  "2530073": {
    "zipcode": "2530073",
    "prefectureCode": "14",
    "prefectureNumber": 14,
    "prefecture": "神奈川県",
    "city": "茅ヶ崎市",
    "town": "中島"
  },
  "2530074": {
    "zipcode": "2530074",
    "prefectureCode": "14",
    "prefectureNumber": 14,
    "prefecture": "神奈川県",
    "city": "茅ヶ崎市",
    "town": "平太夫新田"
  },
  "2530081": {
    "zipcode": "2530081",
    "prefectureCode": "14",
    "prefectureNumber": 14,
    "prefecture": "神奈川県",
    "city": "茅ヶ崎市",
    "town": "下寺尾"
  },
  "2530082": {
    "zipcode": "2530082",
    "prefectureCode": "14",
    "prefectureNumber": 14,
    "prefecture": "神奈川県",
    "city": "茅ヶ崎市",
    "town": "香川"
  },
  "2530083": {
    "zipcode": "2530083",
    "prefectureCode": "14",
    "prefectureNumber": 14,
    "prefecture": "神奈川県",
    "city": "茅ヶ崎市",
    "town": "西久保"
  },
  "2530084": {
    "zipcode": "2530084",
    "prefectureCode": "14",
    "prefectureNumber": 14,
    "prefecture": "神奈川県",
    "city": "茅ヶ崎市",
    "town": "円蔵"
  },
  "2530085": {
    "zipcode": "2530085",
    "prefectureCode": "14",
    "prefectureNumber": 14,
    "prefecture": "神奈川県",
    "city": "茅ヶ崎市",
    "town": "矢畑"
  },
  "2530086": {
    "zipcode": "2530086",
    "prefectureCode": "14",
    "prefectureNumber": 14,
    "prefecture": "神奈川県",
    "city": "茅ヶ崎市",
    "town": "浜之郷"
  },
  "2530087": {
    "zipcode": "2530087",
    "prefectureCode": "14",
    "prefectureNumber": 14,
    "prefecture": "神奈川県",
    "city": "茅ヶ崎市",
    "town": "下町屋"
  },
  "2530088": {
    "zipcode": "2530088",
    "prefectureCode": "14",
    "prefectureNumber": 14,
    "prefecture": "神奈川県",
    "city": "茅ヶ崎市",
    "town": "みずき"
  },
  "2530100": {
    "zipcode": "2530100",
    "prefectureCode": "14",
    "prefectureNumber": 14,
    "prefecture": "神奈川県",
    "city": "高座郡寒川町",
    "town": "以下に掲載がない場合"
  },
  "2530101": {
    "zipcode": "2530101",
    "prefectureCode": "14",
    "prefectureNumber": 14,
    "prefecture": "神奈川県",
    "city": "高座郡寒川町",
    "town": "倉見"
  },
  "2530102": {
    "zipcode": "2530102",
    "prefectureCode": "14",
    "prefectureNumber": 14,
    "prefecture": "神奈川県",
    "city": "高座郡寒川町",
    "town": "小動"
  },
  "2530103": {
    "zipcode": "2530103",
    "prefectureCode": "14",
    "prefectureNumber": 14,
    "prefecture": "神奈川県",
    "city": "高座郡寒川町",
    "town": "小谷"
  },
  "2530104": {
    "zipcode": "2530104",
    "prefectureCode": "14",
    "prefectureNumber": 14,
    "prefecture": "神奈川県",
    "city": "高座郡寒川町",
    "town": "大蔵"
  },
  "2530105": {
    "zipcode": "2530105",
    "prefectureCode": "14",
    "prefectureNumber": 14,
    "prefecture": "神奈川県",
    "city": "高座郡寒川町",
    "town": "岡田"
  },
  "2530106": {
    "zipcode": "2530106",
    "prefectureCode": "14",
    "prefectureNumber": 14,
    "prefecture": "神奈川県",
    "city": "高座郡寒川町",
    "town": "宮山"
  },
  "2530111": {
    "zipcode": "2530111",
    "prefectureCode": "14",
    "prefectureNumber": 14,
    "prefecture": "神奈川県",
    "city": "高座郡寒川町",
    "town": "一之宮"
  },
  "2530112": {
    "zipcode": "2530112",
    "prefectureCode": "14",
    "prefectureNumber": 14,
    "prefecture": "神奈川県",
    "city": "高座郡寒川町",
    "town": "中瀬"
  },
  "2530113": {
    "zipcode": "2530113",
    "prefectureCode": "14",
    "prefectureNumber": 14,
    "prefecture": "神奈川県",
    "city": "高座郡寒川町",
    "town": "大曲"
  },
  "2530114": {
    "zipcode": "2530114",
    "prefectureCode": "14",
    "prefectureNumber": 14,
    "prefecture": "神奈川県",
    "city": "高座郡寒川町",
    "town": "田端"
  }
}
