{
  "2540000": {
    "zipcode": "2540000",
    "prefectureCode": "14",
    "prefectureNumber": 14,
    "prefecture": "神奈川県",
    "city": "平塚市",
    "town": "以下に掲載がない場合"
  },
  "2540001": {
    "zipcode": "2540001",
    "prefectureCode": "14",
    "prefectureNumber": 14,
    "prefecture": "神奈川県",
    "city": "平塚市",
    "town": "大島"
  },
  "2540002": {
    "zipcode": "2540002",
    "prefectureCode": "14",
    "prefectureNumber": 14,
    "prefecture": "神奈川県",
    "city": "平塚市",
    "town": "横内"
  },
  "2540003": {
    "zipcode": "2540003",
    "prefectureCode": "14",
    "prefectureNumber": 14,
    "prefecture": "神奈川県",
    "city": "平塚市",
    "town": "下島"
  },
  "2540004": {
    "zipcode": "2540004",
    "prefectureCode": "14",
    "prefectureNumber": 14,
    "prefecture": "神奈川県",
    "city": "平塚市",
    "town": "小鍋島"
  },
  "2540005": {
    "zipcode": "2540005",
    "prefectureCode": "14",
    "prefectureNumber": 14,
    "prefecture": "神奈川県",
    "city": "平塚市",
    "town": "城所"
  },
  "2540011": {
    "zipcode": "2540011",
    "prefectureCode": "14",
    "prefectureNumber": 14,
    "prefecture": "神奈川県",
    "city": "平塚市",
    "town": "吉際"
  },
  "2540012": {
    "zipcode": "2540012",
    "prefectureCode": "14",
    "prefectureNumber": 14,
    "prefecture": "神奈川県",
    "city": "平塚市",
    "town": "大神"
  },
  "2540013": {
    "zipcode": "2540013",
    "prefectureCode": "14",
    "prefectureNumber": 14,
    "prefecture": "神奈川県",
    "city": "平塚市",
    "town": "田村"
  },
  "2540014": {
    "zipcode": "2540014",
    "prefectureCode": "14",
    "prefectureNumber": 14,
    "prefecture": "神奈川県",
    "city": "平塚市",
    "town": "四之宮"
  },
  "2540015": {
    "zipcode": "2540015",
    "prefectureCode": "14",
    "prefectureNumber": 14,
    "prefecture": "神奈川県",
    "city": "平塚市",
    "town": "八幡"
  },
  "2540016": {
    "zipcode": "2540016",
    "prefectureCode": "14",
    "prefectureNumber": 14,
    "prefecture": "神奈川県",
    "city": "平塚市",
    "town": "東八幡"
  },
  "2540018": {
    "zipcode": "2540018",
    "prefectureCode": "14",
    "prefectureNumber": 14,
    "prefecture": "神奈川県",
    "city": "平塚市",
    "town": "東真土"
  },
  "2540019": {
    "zipcode": "2540019",
    "prefectureCode": "14",
    "prefectureNumber": 14,
    "prefecture": "神奈川県",
    "city": "平塚市",
    "town": "西真土"
  },
  "2540021": {
    "zipcode": "2540021",
    "prefectureCode": "14",
    "prefectureNumber": 14,
    "prefecture": "神奈川県",
    "city": "平塚市",
    "town": "長瀞"
  },
  "2540022": {
    "zipcode": "2540022",
    "prefectureCode": "14",
    "prefectureNumber": 14,
    "prefecture": "神奈川県",
    "city": "平塚市",
    "town": "須賀"
  },
  "2540023": {
    "zipcode": "2540023",
    "prefectureCode": "14",
    "prefectureNumber": 14,
    "prefecture": "神奈川県",
    "city": "平塚市",
    "town": "馬入"
  },
  "2540024": {
    "zipcode": "2540024",
    "prefectureCode": "14",
    "prefectureNumber": 14,
    "prefecture": "神奈川県",
    "city": "平塚市",
    "town": "馬入本町"
  },
  "2540025": {
    "zipcode": "2540025",
    "prefectureCode": "14",
    "prefectureNumber": 14,
    "prefecture": "神奈川県",
    "city": "平塚市",
    "town": "榎木町"
  },
  "2540026": {
    "zipcode": "2540026",
    "prefectureCode": "14",
    "prefectureNumber": 14,
    "prefecture": "神奈川県",
    "city": "平塚市",
    "town": "中堂"
  },
  "2540027": {
    "zipcode": "2540027",
    "prefectureCode": "14",
    "prefectureNumber": 14,
    "prefecture": "神奈川県",
    "city": "平塚市",
    "town": "堤町"
  },
  "2540031": {
    "zipcode": "2540031",
    "prefectureCode": "14",
    "prefectureNumber": 14,
    "prefecture": "神奈川県",
    "city": "平塚市",
    "town": "天沼"
  },
  "2540032": {
    "zipcode": "2540032",
    "prefectureCode": "14",
    "prefectureNumber": 14,
    "prefecture": "神奈川県",
    "city": "平塚市",
    "town": "八千代町"
  },
  "2540033": {
    "zipcode": "2540033",
    "prefectureCode": "14",
    "prefectureNumber": 14,
    "prefecture": "神奈川県",
    "city": "平塚市",
    "town": "老松町"
  },
  "2540034": {
    "zipcode": "2540034",
    "prefectureCode": "14",
    "prefectureNumber": 14,
    "prefecture": "神奈川県",
    "city": "平塚市",
    "town": "宝町"
  },
  "2540035": {
    "zipcode": "2540035",
    "prefectureCode": "14",
    "prefectureNumber": 14,
    "prefecture": "神奈川県",
    "city": "平塚市",
    "town": "宮の前"
  },
  "2540036": {
    "zipcode": "2540036",
    "prefectureCode": "14",
    "prefectureNumber": 14,
    "prefecture": "神奈川県",
    "city": "平塚市",
    "town": "宮松町"
  },
  "2540041": {
    "zipcode": "2540041",
    "prefectureCode": "14",
    "prefectureNumber": 14,
    "prefecture": "神奈川県",
    "city": "平塚市",
    "town": "浅間町"
  },
  "2540042": {
    "zipcode": "2540042",
    "prefectureCode": "14",
    "prefectureNumber": 14,
    "prefecture": "神奈川県",
    "city": "平塚市",
    "town": "明石町"
  },
  "2540043": {
    "zipcode": "2540043",
    "prefectureCode": "14",
    "prefectureNumber": 14,
    "prefecture": "神奈川県",
    "city": "平塚市",
    "town": "紅谷町"
  },
  "2540044": {
    "zipcode": "2540044",
    "prefectureCode": "14",
    "prefectureNumber": 14,
    "prefecture": "神奈川県",
    "city": "平塚市",
    "town": "錦町"
  },
  "2540045": {
    "zipcode": "2540045",
    "prefectureCode": "14",
    "prefectureNumber": 14,
    "prefecture": "神奈川県",
    "city": "平塚市",
    "town": "見附町"
  },
  "2540046": {
    "zipcode": "2540046",
    "prefectureCode": "14",
    "prefectureNumber": 14,
    "prefecture": "神奈川県",
    "city": "平塚市",
    "town": "立野町"
  },
  "2540047": {
    "zipcode": "2540047",
    "prefectureCode": "14",
    "prefectureNumber": 14,
    "prefecture": "神奈川県",
    "city": "平塚市",
    "town": "追分"
  },
  "2540051": {
    "zipcode": "2540051",
    "prefectureCode": "14",
    "prefectureNumber": 14,
    "prefecture": "神奈川県",
    "city": "平塚市",
    "town": "豊原町"
  },
  "2540052": {
    "zipcode": "2540052",
    "prefectureCode": "14",
    "prefectureNumber": 14,
    "prefecture": "神奈川県",
    "city": "平塚市",
    "town": "平塚"
  },
  "2540053": {
    "zipcode": "2540053",
    "prefectureCode": "14",
    "prefectureNumber": 14,
    "prefecture": "神奈川県",
    "city": "平塚市",
    "town": "桜ケ丘"
  },
  "2540054": {
    "zipcode": "2540054",
    "prefectureCode": "14",
    "prefectureNumber": 14,
    "prefecture": "神奈川県",
    "city": "平塚市",
    "town": "中里"
  },
  "2540055": {
    "zipcode": "2540055",
    "prefectureCode": "14",
    "prefectureNumber": 14,
    "prefecture": "神奈川県",
    "city": "平塚市",
    "town": "上平塚"
  },
  "2540061": {
    "zipcode": "2540061",
    "prefectureCode": "14",
    "prefectureNumber": 14,
    "prefecture": "神奈川県",
    "city": "平塚市",
    "town": "御殿"
  },
  "2540062": {
    "zipcode": "2540062",
    "prefectureCode": "14",
    "prefectureNumber": 14,
    "prefecture": "神奈川県",
    "city": "平塚市",
    "town": "富士見町"
  },
  "2540063": {
    "zipcode": "2540063",
    "prefectureCode": "14",
    "prefectureNumber": 14,
    "prefecture": "神奈川県",
    "city": "平塚市",
    "town": "諏訪町"
  },
  "2540064": {
    "zipcode": "2540064",
    "prefectureCode": "14",
    "prefectureNumber": 14,
    "prefecture": "神奈川県",
    "city": "平塚市",
    "town": "達上ケ丘"
  },
  "2540065": {
    "zipcode": "2540065",
    "prefectureCode": "14",
    "prefectureNumber": 14,
    "prefecture": "神奈川県",
    "city": "平塚市",
    "town": "南原"
  },
  "2540071": {
    "zipcode": "2540071",
    "prefectureCode": "14",
    "prefectureNumber": 14,
    "prefecture": "神奈川県",
    "city": "平塚市",
    "town": "中原上宿"
  },
  "2540072": {
    "zipcode": "2540072",
    "prefectureCode": "14",
    "prefectureNumber": 14,
    "prefecture": "神奈川県",
    "city": "平塚市",
    "town": "中原下宿"
  },
  "2540073": {
    "zipcode": "2540073",
    "prefectureCode": "14",
    "prefectureNumber": 14,
    "prefecture": "神奈川県",
    "city": "平塚市",
    "town": "西八幡"
  },
  "2540074": {
    "zipcode": "2540074",
    "prefectureCode": "14",
    "prefectureNumber": 14,
    "prefecture": "神奈川県",
    "city": "平塚市",
    "town": "大原"
  },
  "2540075": {
    "zipcode": "2540075",
    "prefectureCode": "14",
    "prefectureNumber": 14,
    "prefecture": "神奈川県",
    "city": "平塚市",
    "town": "中原"
  },
  "2540076": {
    "zipcode": "2540076",
    "prefectureCode": "14",
    "prefectureNumber": 14,
    "prefecture": "神奈川県",
    "city": "平塚市",
    "town": "新町"
  },
  "2540077": {
    "zipcode": "2540077",
    "prefectureCode": "14",
    "prefectureNumber": 14,
    "prefecture": "神奈川県",
    "city": "平塚市",
    "town": "東中原"
  },
  "2540081": {
    "zipcode": "2540081",
    "prefectureCode": "14",
    "prefectureNumber": 14,
    "prefecture": "神奈川県",
    "city": "平塚市",
    "town": "豊田打間木"
  },
  "2540082": {
    "zipcode": "2540082",
    "prefectureCode": "14",
    "prefectureNumber": 14,
    "prefecture": "神奈川県",
    "city": "平塚市",
    "town": "東豊田"
  },
  "2540083": {
    "zipcode": "2540083",
    "prefectureCode": "14",
    "prefectureNumber": 14,
    "prefecture": "神奈川県",
    "city": "平塚市",
    "town": "豊田小嶺"
  },
  "2540084": {
    "zipcode": "2540084",
    "prefectureCode": "14",
    "prefectureNumber": 14,
    "prefecture": "神奈川県",
    "city": "平塚市",
    "town": "南豊田"
  },
  "2540085": {
    "zipcode": "2540085",
    "prefectureCode": "14",
    "prefectureNumber": 14,
    "prefecture": "神奈川県",
    "city": "平塚市",
    "town": "豊田宮下"
  },
  "2540086": {
    "zipcode": "2540086",
    "prefectureCode": "14",
    "prefectureNumber": 14,
    "prefecture": "神奈川県",
    "city": "平塚市",
    "town": "豊田平等寺"
  },
  "2540087": {
    "zipcode": "2540087",
    "prefectureCode": "14",
    "prefectureNumber": 14,
    "prefecture": "神奈川県",
    "city": "平塚市",
    "town": "豊田本郷"
  },
  "2540088": {
    "zipcode": "2540088",
    "prefectureCode": "14",
    "prefectureNumber": 14,
    "prefecture": "神奈川県",
    "city": "平塚市",
    "town": "北豊田"
  },
  "2540801": {
    "zipcode": "2540801",
    "prefectureCode": "14",
    "prefectureNumber": 14,
    "prefecture": "神奈川県",
    "city": "平塚市",
    "town": "久領堤"
  },
  "2540802": {
    "zipcode": "2540802",
    "prefectureCode": "14",
    "prefectureNumber": 14,
    "prefecture": "神奈川県",
    "city": "平塚市",
    "town": "札場町"
  },
  "2540803": {
    "zipcode": "2540803",
    "prefectureCode": "14",
    "prefectureNumber": 14,
    "prefecture": "神奈川県",
    "city": "平塚市",
    "town": "千石河岸"
  },
  "2540804": {
    "zipcode": "2540804",
    "prefectureCode": "14",
    "prefectureNumber": 14,
    "prefecture": "神奈川県",
    "city": "平塚市",
    "town": "幸町"
  },
  "2540805": {
    "zipcode": "2540805",
    "prefectureCode": "14",
    "prefectureNumber": 14,
    "prefecture": "神奈川県",
    "city": "平塚市",
    "town": "高浜台"
  },
  "2540806": {
    "zipcode": "2540806",
    "prefectureCode": "14",
    "prefectureNumber": 14,
    "prefecture": "神奈川県",
    "city": "平塚市",
    "town": "夕陽ケ丘"
  },
  "2540807": {
    "zipcode": "2540807",
    "prefectureCode": "14",
    "prefectureNumber": 14,
    "prefecture": "神奈川県",
    "city": "平塚市",
    "town": "代官町"
  },
  "2540811": {
    "zipcode": "2540811",
    "prefectureCode": "14",
    "prefectureNumber": 14,
    "prefecture": "神奈川県",
    "city": "平塚市",
    "town": "八重咲町"
  },
  "2540812": {
    "zipcode": "2540812",
    "prefectureCode": "14",
    "prefectureNumber": 14,
    "prefecture": "神奈川県",
    "city": "平塚市",
    "town": "松風町"
  },
  "2540813": {
    "zipcode": "2540813",
    "prefectureCode": "14",
    "prefectureNumber": 14,
    "prefecture": "神奈川県",
    "city": "平塚市",
    "town": "袖ケ浜"
  },
  "2540814": {
    "zipcode": "2540814",
    "prefectureCode": "14",
    "prefectureNumber": 14,
    "prefecture": "神奈川県",
    "city": "平塚市",
    "town": "龍城ケ丘"
  },
  "2540815": {
    "zipcode": "2540815",
    "prefectureCode": "14",
    "prefectureNumber": 14,
    "prefecture": "神奈川県",
    "city": "平塚市",
    "town": "桃浜町"
  },
  "2540821": {
    "zipcode": "2540821",
    "prefectureCode": "14",
    "prefectureNumber": 14,
    "prefecture": "神奈川県",
    "city": "平塚市",
    "town": "黒部丘"
  },
  "2540822": {
    "zipcode": "2540822",
    "prefectureCode": "14",
    "prefectureNumber": 14,
    "prefecture": "神奈川県",
    "city": "平塚市",
    "town": "菫平"
  },
  "2540823": {
    "zipcode": "2540823",
    "prefectureCode": "14",
    "prefectureNumber": 14,
    "prefecture": "神奈川県",
    "city": "平塚市",
    "town": "虹ケ浜"
  },
  "2540824": {
    "zipcode": "2540824",
    "prefectureCode": "14",
    "prefectureNumber": 14,
    "prefecture": "神奈川県",
    "city": "平塚市",
    "town": "花水台"
  },
  "2540825": {
    "zipcode": "2540825",
    "prefectureCode": "14",
    "prefectureNumber": 14,
    "prefecture": "神奈川県",
    "city": "平塚市",
    "town": "撫子原"
  },
  "2540826": {
    "zipcode": "2540826",
    "prefectureCode": "14",
    "prefectureNumber": 14,
    "prefecture": "神奈川県",
    "city": "平塚市",
    "town": "唐ケ原"
  },
  "2540901": {
    "zipcode": "2540901",
    "prefectureCode": "14",
    "prefectureNumber": 14,
    "prefecture": "神奈川県",
    "city": "平塚市",
    "town": "纒"
  },
  "2540902": {
    "zipcode": "2540902",
    "prefectureCode": "14",
    "prefectureNumber": 14,
    "prefecture": "神奈川県",
    "city": "平塚市",
    "town": "徳延"
  },
  "2540903": {
    "zipcode": "2540903",
    "prefectureCode": "14",
    "prefectureNumber": 14,
    "prefecture": "神奈川県",
    "city": "平塚市",
    "town": "河内"
  },
  "2540904": {
    "zipcode": "2540904",
    "prefectureCode": "14",
    "prefectureNumber": 14,
    "prefecture": "神奈川県",
    "city": "平塚市",
    "town": "根坂間"
  },
  "2540905": {
    "zipcode": "2540905",
    "prefectureCode": "14",
    "prefectureNumber": 14,
    "prefecture": "神奈川県",
    "city": "平塚市",
    "town": "日向岡"
  },
  "2540906": {
    "zipcode": "2540906",
    "prefectureCode": "14",
    "prefectureNumber": 14,
    "prefecture": "神奈川県",
    "city": "平塚市",
    "town": "公所"
  },
  "2540911": {
    "zipcode": "2540911",
    "prefectureCode": "14",
    "prefectureNumber": 14,
    "prefecture": "神奈川県",
    "city": "平塚市",
    "town": "山下"
  },
  "2540912": {
    "zipcode": "2540912",
    "prefectureCode": "14",
    "prefectureNumber": 14,
    "prefecture": "神奈川県",
    "city": "平塚市",
    "town": "高根"
  },
  "2540913": {
    "zipcode": "2540913",
    "prefectureCode": "14",
    "prefectureNumber": 14,
    "prefecture": "神奈川県",
    "city": "平塚市",
    "town": "万田"
  },
  "2540914": {
    "zipcode": "2540914",
    "prefectureCode": "14",
    "prefectureNumber": 14,
    "prefecture": "神奈川県",
    "city": "平塚市",
    "town": "高村"
  },
  "2540915": {
    "zipcode": "2540915",
    "prefectureCode": "14",
    "prefectureNumber": 14,
    "prefecture": "神奈川県",
    "city": "平塚市",
    "town": "出縄"
  }
}
