{
  "2560801": {
    "zipcode": "2560801",
    "prefectureCode": "14",
    "prefectureNumber": 14,
    "prefecture": "神奈川県",
    "city": "小田原市",
    "town": "沼代"
  },
  "2560802": {
    "zipcode": "2560802",
    "prefectureCode": "14",
    "prefectureNumber": 14,
    "prefecture": "神奈川県",
    "city": "小田原市",
    "town": "小竹"
  },
  "2560803": {
    "zipcode": "2560803",
    "prefectureCode": "14",
    "prefectureNumber": 14,
    "prefecture": "神奈川県",
    "city": "小田原市",
    "town": "中村原"
  },
  "2560804": {
    "zipcode": "2560804",
    "prefectureCode": "14",
    "prefectureNumber": 14,
    "prefecture": "神奈川県",
    "city": "小田原市",
    "town": "羽根尾"
  },
  "2560805": {
    "zipcode": "2560805",
    "prefectureCode": "14",
    "prefectureNumber": 14,
    "prefecture": "神奈川県",
    "city": "小田原市",
    "town": "上町"
  },
  "2560806": {
    "zipcode": "2560806",
    "prefectureCode": "14",
    "prefectureNumber": 14,
    "prefecture": "神奈川県",
    "city": "小田原市",
    "town": "小船"
  },
  "2560807": {
    "zipcode": "2560807",
    "prefectureCode": "14",
    "prefectureNumber": 14,
    "prefecture": "神奈川県",
    "city": "小田原市",
    "town": "山西"
  },
  "2560808": {
    "zipcode": "2560808",
    "prefectureCode": "14",
    "prefectureNumber": 14,
    "prefecture": "神奈川県",
    "city": "小田原市",
    "town": "東ヶ丘"
  },
  "2560811": {
    "zipcode": "2560811",
    "prefectureCode": "14",
    "prefectureNumber": 14,
    "prefecture": "神奈川県",
    "city": "小田原市",
    "town": "田島"
  },
  "2560812": {
    "zipcode": "2560812",
    "prefectureCode": "14",
    "prefectureNumber": 14,
    "prefecture": "神奈川県",
    "city": "小田原市",
    "town": "国府津"
  },
  "2560813": {
    "zipcode": "2560813",
    "prefectureCode": "14",
    "prefectureNumber": 14,
    "prefecture": "神奈川県",
    "city": "小田原市",
    "town": "前川"
  },
  "2560814": {
    "zipcode": "2560814",
    "prefectureCode": "14",
    "prefectureNumber": 14,
    "prefecture": "神奈川県",
    "city": "小田原市",
    "town": "川匂"
  },
  "2560815": {
    "zipcode": "2560815",
    "prefectureCode": "14",
    "prefectureNumber": 14,
    "prefecture": "神奈川県",
    "city": "小田原市",
    "town": "小八幡"
  },
  "2560816": {
    "zipcode": "2560816",
    "prefectureCode": "14",
    "prefectureNumber": 14,
    "prefecture": "神奈川県",
    "city": "小田原市",
    "town": "酒匂"
  },
  "2560817": {
    "zipcode": "2560817",
    "prefectureCode": "14",
    "prefectureNumber": 14,
    "prefecture": "神奈川県",
    "city": "小田原市",
    "town": "西酒匂"
  }
}
