{
  "2590100": {
    "zipcode": "2590100",
    "prefectureCode": "14",
    "prefectureNumber": 14,
    "prefecture": "神奈川県",
    "city": "足柄上郡中井町",
    "town": "以下に掲載がない場合"
  },
  "2590101": {
    "zipcode": "2590101",
    "prefectureCode": "14",
    "prefectureNumber": 14,
    "prefecture": "神奈川県",
    "city": "中郡大磯町",
    "town": "寺坂"
  },
  "2590102": {
    "zipcode": "2590102",
    "prefectureCode": "14",
    "prefectureNumber": 14,
    "prefecture": "神奈川県",
    "city": "中郡大磯町",
    "town": "生沢"
  },
  "2590103": {
    "zipcode": "2590103",
    "prefectureCode": "14",
    "prefectureNumber": 14,
    "prefecture": "神奈川県",
    "city": "中郡大磯町",
    "town": "虫窪"
  },
  "2590104": {
    "zipcode": "2590104",
    "prefectureCode": "14",
    "prefectureNumber": 14,
    "prefecture": "神奈川県",
    "city": "中郡大磯町",
    "town": "西久保"
  },
  "2590105": {
    "zipcode": "2590105",
    "prefectureCode": "14",
    "prefectureNumber": 14,
    "prefecture": "神奈川県",
    "city": "中郡大磯町",
    "town": "黒岩"
  },
  "2590111": {
    "zipcode": "2590111",
    "prefectureCode": "14",
    "prefectureNumber": 14,
    "prefecture": "神奈川県",
    "city": "中郡大磯町",
    "town": "国府本郷"
  },
  "2590112": {
    "zipcode": "2590112",
    "prefectureCode": "14",
    "prefectureNumber": 14,
    "prefecture": "神奈川県",
    "city": "中郡大磯町",
    "town": "国府新宿"
  },
  "2590113": {
    "zipcode": "2590113",
    "prefectureCode": "14",
    "prefectureNumber": 14,
    "prefecture": "神奈川県",
    "city": "中郡大磯町",
    "town": "石神台"
  },
  "2590114": {
    "zipcode": "2590114",
    "prefectureCode": "14",
    "prefectureNumber": 14,
    "prefecture": "神奈川県",
    "city": "中郡大磯町",
    "town": "月京"
  },
  "2590121": {
    "zipcode": "2590121",
    "prefectureCode": "14",
    "prefectureNumber": 14,
    "prefecture": "神奈川県",
    "city": "中郡二宮町",
    "town": "松根"
  },
  "2590122": {
    "zipcode": "2590122",
    "prefectureCode": "14",
    "prefectureNumber": 14,
    "prefecture": "神奈川県",
    "city": "中郡二宮町",
    "town": "富士見が丘"
  },
  "2590123": {
    "zipcode": "2590123",
    "prefectureCode": "14",
    "prefectureNumber": 14,
    "prefecture": "神奈川県",
    "city": "中郡二宮町",
    "town": "二宮"
  },
  "2590124": {
    "zipcode": "2590124",
    "prefectureCode": "14",
    "prefectureNumber": 14,
    "prefecture": "神奈川県",
    "city": "中郡二宮町",
    "town": "山西"
  },
  "2590125": {
    "zipcode": "2590125",
    "prefectureCode": "14",
    "prefectureNumber": 14,
    "prefecture": "神奈川県",
    "city": "中郡二宮町",
    "town": "川匂"
  },
  "2590131": {
    "zipcode": "2590131",
    "prefectureCode": "14",
    "prefectureNumber": 14,
    "prefecture": "神奈川県",
    "city": "中郡二宮町",
    "town": "中里"
  },
  "2590132": {
    "zipcode": "2590132",
    "prefectureCode": "14",
    "prefectureNumber": 14,
    "prefecture": "神奈川県",
    "city": "中郡二宮町",
    "town": "緑が丘"
  },
  "2590133": {
    "zipcode": "2590133",
    "prefectureCode": "14",
    "prefectureNumber": 14,
    "prefecture": "神奈川県",
    "city": "中郡二宮町",
    "town": "百合が丘"
  },
  "2590134": {
    "zipcode": "2590134",
    "prefectureCode": "14",
    "prefectureNumber": 14,
    "prefecture": "神奈川県",
    "city": "中郡二宮町",
    "town": "一色"
  },
  "2590141": {
    "zipcode": "2590141",
    "prefectureCode": "14",
    "prefectureNumber": 14,
    "prefecture": "神奈川県",
    "city": "足柄上郡中井町",
    "town": "遠藤"
  },
  "2590142": {
    "zipcode": "2590142",
    "prefectureCode": "14",
    "prefectureNumber": 14,
    "prefecture": "神奈川県",
    "city": "足柄上郡中井町",
    "town": "久所"
  },
  "2590143": {
    "zipcode": "2590143",
    "prefectureCode": "14",
    "prefectureNumber": 14,
    "prefecture": "神奈川県",
    "city": "足柄上郡中井町",
    "town": "北田"
  },
  "2590144": {
    "zipcode": "2590144",
    "prefectureCode": "14",
    "prefectureNumber": 14,
    "prefecture": "神奈川県",
    "city": "足柄上郡中井町",
    "town": "半分形"
  },
  "2590145": {
    "zipcode": "2590145",
    "prefectureCode": "14",
    "prefectureNumber": 14,
    "prefecture": "神奈川県",
    "city": "足柄上郡中井町",
    "town": "田中"
  },
  "2590146": {
    "zipcode": "2590146",
    "prefectureCode": "14",
    "prefectureNumber": 14,
    "prefecture": "神奈川県",
    "city": "足柄上郡中井町",
    "town": "古怒田"
  },
  "2590147": {
    "zipcode": "2590147",
    "prefectureCode": "14",
    "prefectureNumber": 14,
    "prefecture": "神奈川県",
    "city": "足柄上郡中井町",
    "town": "鴨沢"
  },
  "2590148": {
    "zipcode": "2590148",
    "prefectureCode": "14",
    "prefectureNumber": 14,
    "prefecture": "神奈川県",
    "city": "足柄上郡中井町",
    "town": "雑色"
  },
  "2590151": {
    "zipcode": "2590151",
    "prefectureCode": "14",
    "prefectureNumber": 14,
    "prefecture": "神奈川県",
    "city": "足柄上郡中井町",
    "town": "井ノ口"
  },
  "2590152": {
    "zipcode": "2590152",
    "prefectureCode": "14",
    "prefectureNumber": 14,
    "prefecture": "神奈川県",
    "city": "足柄上郡中井町",
    "town": "藤沢"
  },
  "2590153": {
    "zipcode": "2590153",
    "prefectureCode": "14",
    "prefectureNumber": 14,
    "prefecture": "神奈川県",
    "city": "足柄上郡中井町",
    "town": "比奈窪"
  },
  "2590154": {
    "zipcode": "2590154",
    "prefectureCode": "14",
    "prefectureNumber": 14,
    "prefecture": "神奈川県",
    "city": "足柄上郡中井町",
    "town": "岩倉"
  },
  "2590155": {
    "zipcode": "2590155",
    "prefectureCode": "14",
    "prefectureNumber": 14,
    "prefecture": "神奈川県",
    "city": "足柄上郡中井町",
    "town": "松本"
  },
  "2590156": {
    "zipcode": "2590156",
    "prefectureCode": "14",
    "prefectureNumber": 14,
    "prefecture": "神奈川県",
    "city": "足柄上郡中井町",
    "town": "境別所"
  },
  "2590157": {
    "zipcode": "2590157",
    "prefectureCode": "14",
    "prefectureNumber": 14,
    "prefecture": "神奈川県",
    "city": "足柄上郡中井町",
    "town": "境"
  },
  "2590200": {
    "zipcode": "2590200",
    "prefectureCode": "14",
    "prefectureNumber": 14,
    "prefecture": "神奈川県",
    "city": "足柄下郡真鶴町",
    "town": "以下に掲載がない場合"
  },
  "2590201": {
    "zipcode": "2590201",
    "prefectureCode": "14",
    "prefectureNumber": 14,
    "prefecture": "神奈川県",
    "city": "足柄下郡真鶴町",
    "town": "真鶴"
  },
  "2590202": {
    "zipcode": "2590202",
    "prefectureCode": "14",
    "prefectureNumber": 14,
    "prefecture": "神奈川県",
    "city": "足柄下郡真鶴町",
    "town": "岩"
  },
  "2590300": {
    "zipcode": "2590300",
    "prefectureCode": "14",
    "prefectureNumber": 14,
    "prefecture": "神奈川県",
    "city": "足柄下郡湯河原町",
    "town": "以下に掲載がない場合"
  },
  "2590301": {
    "zipcode": "2590301",
    "prefectureCode": "14",
    "prefectureNumber": 14,
    "prefecture": "神奈川県",
    "city": "足柄下郡湯河原町",
    "town": "中央"
  },
  "2590302": {
    "zipcode": "2590302",
    "prefectureCode": "14",
    "prefectureNumber": 14,
    "prefecture": "神奈川県",
    "city": "足柄下郡湯河原町",
    "town": "門川"
  },
  "2590303": {
    "zipcode": "2590303",
    "prefectureCode": "14",
    "prefectureNumber": 14,
    "prefecture": "神奈川県",
    "city": "足柄下郡湯河原町",
    "town": "土肥"
  },
  "2590304": {
    "zipcode": "2590304",
    "prefectureCode": "14",
    "prefectureNumber": 14,
    "prefecture": "神奈川県",
    "city": "足柄下郡湯河原町",
    "town": "宮下"
  },
  "2590305": {
    "zipcode": "2590305",
    "prefectureCode": "14",
    "prefectureNumber": 14,
    "prefecture": "神奈川県",
    "city": "足柄下郡湯河原町",
    "town": "城堀"
  },
  "2590311": {
    "zipcode": "2590311",
    "prefectureCode": "14",
    "prefectureNumber": 14,
    "prefecture": "神奈川県",
    "city": "足柄下郡湯河原町",
    "town": "福浦"
  },
  "2590312": {
    "zipcode": "2590312",
    "prefectureCode": "14",
    "prefectureNumber": 14,
    "prefecture": "神奈川県",
    "city": "足柄下郡湯河原町",
    "town": "吉浜"
  },
  "2590313": {
    "zipcode": "2590313",
    "prefectureCode": "14",
    "prefectureNumber": 14,
    "prefecture": "神奈川県",
    "city": "足柄下郡湯河原町",
    "town": "鍛冶屋"
  },
  "2590314": {
    "zipcode": "2590314",
    "prefectureCode": "14",
    "prefectureNumber": 14,
    "prefecture": "神奈川県",
    "city": "足柄下郡湯河原町",
    "town": "宮上"
  },
  "2590316": {
    "zipcode": "2590316",
    "prefectureCode": "14",
    "prefectureNumber": 14,
    "prefecture": "神奈川県",
    "city": "足柄下郡湯河原町",
    "town": "福浦吉浜"
  },
  "2590317": {
    "zipcode": "2590317",
    "prefectureCode": "14",
    "prefectureNumber": 14,
    "prefecture": "神奈川県",
    "city": "足柄下郡湯河原町",
    "town": "福浦鍛冶屋"
  },
  "2590318": {
    "zipcode": "2590318",
    "prefectureCode": "14",
    "prefectureNumber": 14,
    "prefecture": "神奈川県",
    "city": "足柄下郡湯河原町",
    "town": "吉浜福浦"
  },
  "2591100": {
    "zipcode": "2591100",
    "prefectureCode": "14",
    "prefectureNumber": 14,
    "prefecture": "神奈川県",
    "city": "伊勢原市",
    "town": "以下に掲載がない場合"
  },
  "2591101": {
    "zipcode": "2591101",
    "prefectureCode": "14",
    "prefectureNumber": 14,
    "prefecture": "神奈川県",
    "city": "伊勢原市",
    "town": "日向"
  },
  "2591102": {
    "zipcode": "2591102",
    "prefectureCode": "14",
    "prefectureNumber": 14,
    "prefecture": "神奈川県",
    "city": "伊勢原市",
    "town": "子易"
  },
  "2591103": {
    "zipcode": "2591103",
    "prefectureCode": "14",
    "prefectureNumber": 14,
    "prefecture": "神奈川県",
    "city": "伊勢原市",
    "town": "三ノ宮"
  },
  "2591104": {
    "zipcode": "2591104",
    "prefectureCode": "14",
    "prefectureNumber": 14,
    "prefecture": "神奈川県",
    "city": "伊勢原市",
    "town": "坪ノ内"
  },
  "2591105": {
    "zipcode": "2591105",
    "prefectureCode": "14",
    "prefectureNumber": 14,
    "prefecture": "神奈川県",
    "city": "伊勢原市",
    "town": "大住台"
  },
  "2591106": {
    "zipcode": "2591106",
    "prefectureCode": "14",
    "prefectureNumber": 14,
    "prefecture": "神奈川県",
    "city": "伊勢原市",
    "town": "善波"
  },
  "2591107": {
    "zipcode": "2591107",
    "prefectureCode": "14",
    "prefectureNumber": 14,
    "prefecture": "神奈川県",
    "city": "伊勢原市",
    "town": "大山"
  },
  "2591111": {
    "zipcode": "2591111",
    "prefectureCode": "14",
    "prefectureNumber": 14,
    "prefecture": "神奈川県",
    "city": "伊勢原市",
    "town": "西富岡"
  },
  "2591112": {
    "zipcode": "2591112",
    "prefectureCode": "14",
    "prefectureNumber": 14,
    "prefecture": "神奈川県",
    "city": "伊勢原市",
    "town": "東富岡"
  },
  "2591113": {
    "zipcode": "2591113",
    "prefectureCode": "14",
    "prefectureNumber": 14,
    "prefecture": "神奈川県",
    "city": "伊勢原市",
    "town": "粟窪"
  },
  "2591114": {
    "zipcode": "2591114",
    "prefectureCode": "14",
    "prefectureNumber": 14,
    "prefecture": "神奈川県",
    "city": "伊勢原市",
    "town": "高森"
  },
  "2591115": {
    "zipcode": "2591115",
    "prefectureCode": "14",
    "prefectureNumber": 14,
    "prefecture": "神奈川県",
    "city": "伊勢原市",
    "town": "高森台"
  },
  "2591116": {
    "zipcode": "2591116",
    "prefectureCode": "14",
    "prefectureNumber": 14,
    "prefecture": "神奈川県",
    "city": "伊勢原市",
    "town": "石田"
  },
  "2591117": {
    "zipcode": "2591117",
    "prefectureCode": "14",
    "prefectureNumber": 14,
    "prefecture": "神奈川県",
    "city": "伊勢原市",
    "town": "東成瀬"
  },
  "2591118": {
    "zipcode": "2591118",
    "prefectureCode": "14",
    "prefectureNumber": 14,
    "prefecture": "神奈川県",
    "city": "伊勢原市",
    "town": "見附島"
  },
  "2591121": {
    "zipcode": "2591121",
    "prefectureCode": "14",
    "prefectureNumber": 14,
    "prefecture": "神奈川県",
    "city": "伊勢原市",
    "town": "下落合"
  },
  "2591122": {
    "zipcode": "2591122",
    "prefectureCode": "14",
    "prefectureNumber": 14,
    "prefecture": "神奈川県",
    "city": "伊勢原市",
    "town": "小稲葉"
  },
  "2591123": {
    "zipcode": "2591123",
    "prefectureCode": "14",
    "prefectureNumber": 14,
    "prefecture": "神奈川県",
    "city": "伊勢原市",
    "town": "下谷"
  },
  "2591124": {
    "zipcode": "2591124",
    "prefectureCode": "14",
    "prefectureNumber": 14,
    "prefecture": "神奈川県",
    "city": "伊勢原市",
    "town": "上平間"
  },
  "2591125": {
    "zipcode": "2591125",
    "prefectureCode": "14",
    "prefectureNumber": 14,
    "prefecture": "神奈川県",
    "city": "伊勢原市",
    "town": "下平間"
  },
  "2591126": {
    "zipcode": "2591126",
    "prefectureCode": "14",
    "prefectureNumber": 14,
    "prefecture": "神奈川県",
    "city": "伊勢原市",
    "town": "沼目"
  },
  "2591127": {
    "zipcode": "2591127",
    "prefectureCode": "14",
    "prefectureNumber": 14,
    "prefecture": "神奈川県",
    "city": "伊勢原市",
    "town": "上谷"
  },
  "2591128": {
    "zipcode": "2591128",
    "prefectureCode": "14",
    "prefectureNumber": 14,
    "prefecture": "神奈川県",
    "city": "伊勢原市",
    "town": "歌川"
  },
  "2591131": {
    "zipcode": "2591131",
    "prefectureCode": "14",
    "prefectureNumber": 14,
    "prefecture": "神奈川県",
    "city": "伊勢原市",
    "town": "伊勢原"
  },
  "2591132": {
    "zipcode": "2591132",
    "prefectureCode": "14",
    "prefectureNumber": 14,
    "prefecture": "神奈川県",
    "city": "伊勢原市",
    "town": "桜台"
  },
  "2591133": {
    "zipcode": "2591133",
    "prefectureCode": "14",
    "prefectureNumber": 14,
    "prefecture": "神奈川県",
    "city": "伊勢原市",
    "town": "東大竹"
  },
  "2591134": {
    "zipcode": "2591134",
    "prefectureCode": "14",
    "prefectureNumber": 14,
    "prefecture": "神奈川県",
    "city": "伊勢原市",
    "town": "八幡台"
  },
  "2591135": {
    "zipcode": "2591135",
    "prefectureCode": "14",
    "prefectureNumber": 14,
    "prefecture": "神奈川県",
    "city": "伊勢原市",
    "town": "岡崎"
  },
  "2591136": {
    "zipcode": "2591136",
    "prefectureCode": "14",
    "prefectureNumber": 14,
    "prefecture": "神奈川県",
    "city": "伊勢原市",
    "town": "串橋"
  },
  "2591137": {
    "zipcode": "2591137",
    "prefectureCode": "14",
    "prefectureNumber": 14,
    "prefecture": "神奈川県",
    "city": "伊勢原市",
    "town": "笠窪"
  },
  "2591138": {
    "zipcode": "2591138",
    "prefectureCode": "14",
    "prefectureNumber": 14,
    "prefecture": "神奈川県",
    "city": "伊勢原市",
    "town": "神戸"
  },
  "2591141": {
    "zipcode": "2591141",
    "prefectureCode": "14",
    "prefectureNumber": 14,
    "prefecture": "神奈川県",
    "city": "伊勢原市",
    "town": "上粕屋"
  },
  "2591142": {
    "zipcode": "2591142",
    "prefectureCode": "14",
    "prefectureNumber": 14,
    "prefecture": "神奈川県",
    "city": "伊勢原市",
    "town": "田中"
  },
  "2591143": {
    "zipcode": "2591143",
    "prefectureCode": "14",
    "prefectureNumber": 14,
    "prefecture": "神奈川県",
    "city": "伊勢原市",
    "town": "下糟屋"
  },
  "2591144": {
    "zipcode": "2591144",
    "prefectureCode": "14",
    "prefectureNumber": 14,
    "prefecture": "神奈川県",
    "city": "伊勢原市",
    "town": "池端"
  },
  "2591145": {
    "zipcode": "2591145",
    "prefectureCode": "14",
    "prefectureNumber": 14,
    "prefecture": "神奈川県",
    "city": "伊勢原市",
    "town": "板戸"
  },
  "2591146": {
    "zipcode": "2591146",
    "prefectureCode": "14",
    "prefectureNumber": 14,
    "prefecture": "神奈川県",
    "city": "伊勢原市",
    "town": "鈴川"
  },
  "2591147": {
    "zipcode": "2591147",
    "prefectureCode": "14",
    "prefectureNumber": 14,
    "prefecture": "神奈川県",
    "city": "伊勢原市",
    "town": "白根"
  },
  "2591148": {
    "zipcode": "2591148",
    "prefectureCode": "14",
    "prefectureNumber": 14,
    "prefecture": "神奈川県",
    "city": "伊勢原市",
    "town": "下糟屋東"
  },
  "2591201": {
    "zipcode": "2591201",
    "prefectureCode": "14",
    "prefectureNumber": 14,
    "prefecture": "神奈川県",
    "city": "平塚市",
    "town": "南金目"
  },
  "2591202": {
    "zipcode": "2591202",
    "prefectureCode": "14",
    "prefectureNumber": 14,
    "prefecture": "神奈川県",
    "city": "平塚市",
    "town": "千須谷"
  },
  "2591203": {
    "zipcode": "2591203",
    "prefectureCode": "14",
    "prefectureNumber": 14,
    "prefecture": "神奈川県",
    "city": "平塚市",
    "town": "下吉沢"
  },
  "2591204": {
    "zipcode": "2591204",
    "prefectureCode": "14",
    "prefectureNumber": 14,
    "prefecture": "神奈川県",
    "city": "平塚市",
    "town": "上吉沢"
  },
  "2591205": {
    "zipcode": "2591205",
    "prefectureCode": "14",
    "prefectureNumber": 14,
    "prefecture": "神奈川県",
    "city": "平塚市",
    "town": "土屋"
  },
  "2591206": {
    "zipcode": "2591206",
    "prefectureCode": "14",
    "prefectureNumber": 14,
    "prefecture": "神奈川県",
    "city": "平塚市",
    "town": "真田"
  },
  "2591207": {
    "zipcode": "2591207",
    "prefectureCode": "14",
    "prefectureNumber": 14,
    "prefecture": "神奈川県",
    "city": "平塚市",
    "town": "北金目"
  },
  "2591211": {
    "zipcode": "2591211",
    "prefectureCode": "14",
    "prefectureNumber": 14,
    "prefecture": "神奈川県",
    "city": "平塚市",
    "town": "ふじみ野"
  },
  "2591212": {
    "zipcode": "2591212",
    "prefectureCode": "14",
    "prefectureNumber": 14,
    "prefecture": "神奈川県",
    "city": "平塚市",
    "town": "岡崎"
  },
  "2591213": {
    "zipcode": "2591213",
    "prefectureCode": "14",
    "prefectureNumber": 14,
    "prefecture": "神奈川県",
    "city": "平塚市",
    "town": "片岡"
  },
  "2591214": {
    "zipcode": "2591214",
    "prefectureCode": "14",
    "prefectureNumber": 14,
    "prefecture": "神奈川県",
    "city": "平塚市",
    "town": "飯島"
  },
  "2591215": {
    "zipcode": "2591215",
    "prefectureCode": "14",
    "prefectureNumber": 14,
    "prefecture": "神奈川県",
    "city": "平塚市",
    "town": "寺田縄"
  },
  "2591216": {
    "zipcode": "2591216",
    "prefectureCode": "14",
    "prefectureNumber": 14,
    "prefecture": "神奈川県",
    "city": "平塚市",
    "town": "入野"
  },
  "2591217": {
    "zipcode": "2591217",
    "prefectureCode": "14",
    "prefectureNumber": 14,
    "prefecture": "神奈川県",
    "city": "平塚市",
    "town": "長持"
  },
  "2591218": {
    "zipcode": "2591218",
    "prefectureCode": "14",
    "prefectureNumber": 14,
    "prefecture": "神奈川県",
    "city": "平塚市",
    "town": "入部"
  },
  "2591219": {
    "zipcode": "2591219",
    "prefectureCode": "14",
    "prefectureNumber": 14,
    "prefecture": "神奈川県",
    "city": "平塚市",
    "town": "広川"
  },
  "2591220": {
    "zipcode": "2591220",
    "prefectureCode": "14",
    "prefectureNumber": 14,
    "prefecture": "神奈川県",
    "city": "平塚市",
    "town": "めぐみが丘"
  },
  "2591301": {
    "zipcode": "2591301",
    "prefectureCode": "14",
    "prefectureNumber": 14,
    "prefecture": "神奈川県",
    "city": "秦野市",
    "town": "羽根"
  },
  "2591302": {
    "zipcode": "2591302",
    "prefectureCode": "14",
    "prefectureNumber": 14,
    "prefecture": "神奈川県",
    "city": "秦野市",
    "town": "菩提"
  },
  "2591303": {
    "zipcode": "2591303",
    "prefectureCode": "14",
    "prefectureNumber": 14,
    "prefecture": "神奈川県",
    "city": "秦野市",
    "town": "三屋"
  },
  "2591304": {
    "zipcode": "2591304",
    "prefectureCode": "14",
    "prefectureNumber": 14,
    "prefecture": "神奈川県",
    "city": "秦野市",
    "town": "堀山下"
  },
  "2591305": {
    "zipcode": "2591305",
    "prefectureCode": "14",
    "prefectureNumber": 14,
    "prefecture": "神奈川県",
    "city": "秦野市",
    "town": "堀川"
  },
  "2591306": {
    "zipcode": "2591306",
    "prefectureCode": "14",
    "prefectureNumber": 14,
    "prefecture": "神奈川県",
    "city": "秦野市",
    "town": "戸川"
  },
  "2591307": {
    "zipcode": "2591307",
    "prefectureCode": "14",
    "prefectureNumber": 14,
    "prefecture": "神奈川県",
    "city": "秦野市",
    "town": "横野"
  },
  "2591311": {
    "zipcode": "2591311",
    "prefectureCode": "14",
    "prefectureNumber": 14,
    "prefecture": "神奈川県",
    "city": "秦野市",
    "town": "弥生町"
  },
  "2591312": {
    "zipcode": "2591312",
    "prefectureCode": "14",
    "prefectureNumber": 14,
    "prefecture": "神奈川県",
    "city": "秦野市",
    "town": "春日町"
  },
  "2591313": {
    "zipcode": "2591313",
    "prefectureCode": "14",
    "prefectureNumber": 14,
    "prefecture": "神奈川県",
    "city": "秦野市",
    "town": "松原町"
  },
  "2591314": {
    "zipcode": "2591314",
    "prefectureCode": "14",
    "prefectureNumber": 14,
    "prefecture": "神奈川県",
    "city": "秦野市",
    "town": "若松町"
  },
  "2591315": {
    "zipcode": "2591315",
    "prefectureCode": "14",
    "prefectureNumber": 14,
    "prefecture": "神奈川県",
    "city": "秦野市",
    "town": "柳町"
  },
  "2591316": {
    "zipcode": "2591316",
    "prefectureCode": "14",
    "prefectureNumber": 14,
    "prefecture": "神奈川県",
    "city": "秦野市",
    "town": "沼代新町"
  },
  "2591317": {
    "zipcode": "2591317",
    "prefectureCode": "14",
    "prefectureNumber": 14,
    "prefecture": "神奈川県",
    "city": "秦野市",
    "town": "並木町"
  },
  "2591321": {
    "zipcode": "2591321",
    "prefectureCode": "14",
    "prefectureNumber": 14,
    "prefecture": "神奈川県",
    "city": "秦野市",
    "town": "曲松"
  },
  "2591322": {
    "zipcode": "2591322",
    "prefectureCode": "14",
    "prefectureNumber": 14,
    "prefecture": "神奈川県",
    "city": "秦野市",
    "town": "渋沢"
  },
  "2591323": {
    "zipcode": "2591323",
    "prefectureCode": "14",
    "prefectureNumber": 14,
    "prefecture": "神奈川県",
    "city": "秦野市",
    "town": "栃窪（その他）"
  },
  "2591324": {
    "zipcode": "2591324",
    "prefectureCode": "14",
    "prefectureNumber": 14,
    "prefecture": "神奈川県",
    "city": "秦野市",
    "town": "千村"
  },
  "2591325": {
    "zipcode": "2591325",
    "prefectureCode": "14",
    "prefectureNumber": 14,
    "prefecture": "神奈川県",
    "city": "秦野市",
    "town": "萩が丘"
  },
  "2591326": {
    "zipcode": "2591326",
    "prefectureCode": "14",
    "prefectureNumber": 14,
    "prefecture": "神奈川県",
    "city": "秦野市",
    "town": "渋沢上"
  },
  "2591331": {
    "zipcode": "2591331",
    "prefectureCode": "14",
    "prefectureNumber": 14,
    "prefecture": "神奈川県",
    "city": "秦野市",
    "town": "堀西"
  },
  "2591332": {
    "zipcode": "2591332",
    "prefectureCode": "14",
    "prefectureNumber": 14,
    "prefecture": "神奈川県",
    "city": "秦野市",
    "town": "菖蒲"
  },
  "2591333": {
    "zipcode": "2591333",
    "prefectureCode": "14",
    "prefectureNumber": 14,
    "prefecture": "神奈川県",
    "city": "秦野市",
    "town": "八沢"
  },
  "2591334": {
    "zipcode": "2591334",
    "prefectureCode": "14",
    "prefectureNumber": 14,
    "prefecture": "神奈川県",
    "city": "秦野市",
    "town": "柳川"
  },
  "2591335": {
    "zipcode": "2591335",
    "prefectureCode": "14",
    "prefectureNumber": 14,
    "prefecture": "神奈川県",
    "city": "秦野市",
    "town": "三廻部"
  }
}
