{
  "2600000": {
    "zipcode": "2600000",
    "prefectureCode": "12",
    "prefectureNumber": 12,
    "prefecture": "千葉県",
    "city": "千葉市中央区",
    "town": "以下に掲載がない場合"
  },
  "2600001": {
    "zipcode": "2600001",
    "prefectureCode": "12",
    "prefectureNumber": 12,
    "prefecture": "千葉県",
    "city": "千葉市中央区",
    "town": "都町"
  },
  "2600002": {
    "zipcode": "2600002",
    "prefectureCode": "12",
    "prefectureNumber": 12,
    "prefecture": "千葉県",
    "city": "千葉市中央区",
    "town": "旭町"
  },
  "2600003": {
    "zipcode": "2600003",
    "prefectureCode": "12",
    "prefectureNumber": 12,
    "prefecture": "千葉県",
    "city": "千葉市中央区",
    "town": "鶴沢町"
  },
  "2600004": {
    "zipcode": "2600004",
    "prefectureCode": "12",
    "prefectureNumber": 12,
    "prefecture": "千葉県",
    "city": "千葉市中央区",
    "town": "東本町"
  },
  "2600005": {
    "zipcode": "2600005",
    "prefectureCode": "12",
    "prefectureNumber": 12,
    "prefecture": "千葉県",
    "city": "千葉市中央区",
    "town": "道場南"
  },
  "2600006": {
    "zipcode": "2600006",
    "prefectureCode": "12",
    "prefectureNumber": 12,
    "prefecture": "千葉県",
    "city": "千葉市中央区",
    "town": "道場北"
  },
  "2600007": {
    "zipcode": "2600007",
    "prefectureCode": "12",
    "prefectureNumber": 12,
    "prefecture": "千葉県",
    "city": "千葉市中央区",
    "town": "祐光"
  },
  "2600011": {
    "zipcode": "2600011",
    "prefectureCode": "12",
    "prefectureNumber": 12,
    "prefecture": "千葉県",
    "city": "千葉市中央区",
    "town": "亀井町"
  },
  "2600012": {
    "zipcode": "2600012",
    "prefectureCode": "12",
    "prefectureNumber": 12,
    "prefecture": "千葉県",
    "city": "千葉市中央区",
    "town": "本町"
  },
  "2600013": {
    "zipcode": "2600013",
    "prefectureCode": "12",
    "prefectureNumber": 12,
    "prefecture": "千葉県",
    "city": "千葉市中央区",
    "town": "中央"
  },
  "2600014": {
    "zipcode": "2600014",
    "prefectureCode": "12",
    "prefectureNumber": 12,
    "prefecture": "千葉県",
    "city": "千葉市中央区",
    "town": "本千葉町"
  },
  "2600015": {
    "zipcode": "2600015",
    "prefectureCode": "12",
    "prefectureNumber": 12,
    "prefecture": "千葉県",
    "city": "千葉市中央区",
    "town": "富士見"
  },
  "2600016": {
    "zipcode": "2600016",
    "prefectureCode": "12",
    "prefectureNumber": 12,
    "prefecture": "千葉県",
    "city": "千葉市中央区",
    "town": "栄町"
  },
  "2600017": {
    "zipcode": "2600017",
    "prefectureCode": "12",
    "prefectureNumber": 12,
    "prefecture": "千葉県",
    "city": "千葉市中央区",
    "town": "要町"
  },
  "2600018": {
    "zipcode": "2600018",
    "prefectureCode": "12",
    "prefectureNumber": 12,
    "prefecture": "千葉県",
    "city": "千葉市中央区",
    "town": "院内"
  },
  "2600021": {
    "zipcode": "2600021",
    "prefectureCode": "12",
    "prefectureNumber": 12,
    "prefecture": "千葉県",
    "city": "千葉市中央区",
    "town": "新宿"
  },
  "2600022": {
    "zipcode": "2600022",
    "prefectureCode": "12",
    "prefectureNumber": 12,
    "prefecture": "千葉県",
    "city": "千葉市中央区",
    "town": "神明町"
  },
  "2600023": {
    "zipcode": "2600023",
    "prefectureCode": "12",
    "prefectureNumber": 12,
    "prefecture": "千葉県",
    "city": "千葉市中央区",
    "town": "出洲港"
  },
  "2600024": {
    "zipcode": "2600024",
    "prefectureCode": "12",
    "prefectureNumber": 12,
    "prefecture": "千葉県",
    "city": "千葉市中央区",
    "town": "中央港"
  },
  "2600025": {
    "zipcode": "2600025",
    "prefectureCode": "12",
    "prefectureNumber": 12,
    "prefecture": "千葉県",
    "city": "千葉市中央区",
    "town": "問屋町"
  },
  "2600026": {
    "zipcode": "2600026",
    "prefectureCode": "12",
    "prefectureNumber": 12,
    "prefecture": "千葉県",
    "city": "千葉市中央区",
    "town": "千葉港"
  },
  "2600027": {
    "zipcode": "2600027",
    "prefectureCode": "12",
    "prefectureNumber": 12,
    "prefecture": "千葉県",
    "city": "千葉市中央区",
    "town": "新田町"
  },
  "2600028": {
    "zipcode": "2600028",
    "prefectureCode": "12",
    "prefectureNumber": 12,
    "prefecture": "千葉県",
    "city": "千葉市中央区",
    "town": "新町"
  },
  "2600031": {
    "zipcode": "2600031",
    "prefectureCode": "12",
    "prefectureNumber": 12,
    "prefecture": "千葉県",
    "city": "千葉市中央区",
    "town": "新千葉"
  },
  "2600032": {
    "zipcode": "2600032",
    "prefectureCode": "12",
    "prefectureNumber": 12,
    "prefecture": "千葉県",
    "city": "千葉市中央区",
    "town": "登戸"
  },
  "2600033": {
    "zipcode": "2600033",
    "prefectureCode": "12",
    "prefectureNumber": 12,
    "prefecture": "千葉県",
    "city": "千葉市中央区",
    "town": "春日"
  },
  "2600034": {
    "zipcode": "2600034",
    "prefectureCode": "12",
    "prefectureNumber": 12,
    "prefecture": "千葉県",
    "city": "千葉市中央区",
    "town": "汐見丘町"
  },
  "2600041": {
    "zipcode": "2600041",
    "prefectureCode": "12",
    "prefectureNumber": 12,
    "prefecture": "千葉県",
    "city": "千葉市中央区",
    "town": "東千葉"
  },
  "2600042": {
    "zipcode": "2600042",
    "prefectureCode": "12",
    "prefectureNumber": 12,
    "prefecture": "千葉県",
    "city": "千葉市中央区",
    "town": "椿森"
  },
  "2600044": {
    "zipcode": "2600044",
    "prefectureCode": "12",
    "prefectureNumber": 12,
    "prefecture": "千葉県",
    "city": "千葉市中央区",
    "town": "松波"
  },
  "2600045": {
    "zipcode": "2600045",
    "prefectureCode": "12",
    "prefectureNumber": 12,
    "prefecture": "千葉県",
    "city": "千葉市中央区",
    "town": "弁天"
  },
  "2600801": {
    "zipcode": "2600801",
    "prefectureCode": "12",
    "prefectureNumber": 12,
    "prefecture": "千葉県",
    "city": "千葉市中央区",
    "town": "仁戸名町"
  },
  "2600802": {
    "zipcode": "2600802",
    "prefectureCode": "12",
    "prefectureNumber": 12,
    "prefecture": "千葉県",
    "city": "千葉市中央区",
    "town": "川戸町"
  },
  "2600803": {
    "zipcode": "2600803",
    "prefectureCode": "12",
    "prefectureNumber": 12,
    "prefecture": "千葉県",
    "city": "千葉市中央区",
    "town": "花輪町"
  },
  "2600804": {
    "zipcode": "2600804",
    "prefectureCode": "12",
    "prefectureNumber": 12,
    "prefecture": "千葉県",
    "city": "千葉市中央区",
    "town": "赤井町"
  },
  "2600805": {
    "zipcode": "2600805",
    "prefectureCode": "12",
    "prefectureNumber": 12,
    "prefecture": "千葉県",
    "city": "千葉市中央区",
    "town": "宮崎町"
  },
  "2600806": {
    "zipcode": "2600806",
    "prefectureCode": "12",
    "prefectureNumber": 12,
    "prefecture": "千葉県",
    "city": "千葉市中央区",
    "town": "宮崎"
  },
  "2600807": {
    "zipcode": "2600807",
    "prefectureCode": "12",
    "prefectureNumber": 12,
    "prefecture": "千葉県",
    "city": "千葉市中央区",
    "town": "松ケ丘町"
  },
  "2600808": {
    "zipcode": "2600808",
    "prefectureCode": "12",
    "prefectureNumber": 12,
    "prefecture": "千葉県",
    "city": "千葉市中央区",
    "town": "星久喜町"
  },
  "2600811": {
    "zipcode": "2600811",
    "prefectureCode": "12",
    "prefectureNumber": 12,
    "prefecture": "千葉県",
    "city": "千葉市中央区",
    "town": "大森町"
  },
  "2600812": {
    "zipcode": "2600812",
    "prefectureCode": "12",
    "prefectureNumber": 12,
    "prefecture": "千葉県",
    "city": "千葉市中央区",
    "town": "大巌寺町"
  },
  "2600813": {
    "zipcode": "2600813",
    "prefectureCode": "12",
    "prefectureNumber": 12,
    "prefecture": "千葉県",
    "city": "千葉市中央区",
    "town": "生実町"
  },
  "2600814": {
    "zipcode": "2600814",
    "prefectureCode": "12",
    "prefectureNumber": 12,
    "prefecture": "千葉県",
    "city": "千葉市中央区",
    "town": "南生実町"
  },
  "2600815": {
    "zipcode": "2600815",
    "prefectureCode": "12",
    "prefectureNumber": 12,
    "prefecture": "千葉県",
    "city": "千葉市中央区",
    "town": "今井町"
  },
  "2600816": {
    "zipcode": "2600816",
    "prefectureCode": "12",
    "prefectureNumber": 12,
    "prefecture": "千葉県",
    "city": "千葉市中央区",
    "town": "鵜の森町"
  },
  "2600821": {
    "zipcode": "2600821",
    "prefectureCode": "12",
    "prefectureNumber": 12,
    "prefecture": "千葉県",
    "city": "千葉市中央区",
    "town": "若草"
  },
  "2600822": {
    "zipcode": "2600822",
    "prefectureCode": "12",
    "prefectureNumber": 12,
    "prefecture": "千葉県",
    "city": "千葉市中央区",
    "town": "蘇我町"
  },
  "2600823": {
    "zipcode": "2600823",
    "prefectureCode": "12",
    "prefectureNumber": 12,
    "prefecture": "千葉県",
    "city": "千葉市中央区",
    "town": "塩田町"
  },
  "2600824": {
    "zipcode": "2600824",
    "prefectureCode": "12",
    "prefectureNumber": 12,
    "prefecture": "千葉県",
    "city": "千葉市中央区",
    "town": "浜野町"
  },
  "2600825": {
    "zipcode": "2600825",
    "prefectureCode": "12",
    "prefectureNumber": 12,
    "prefecture": "千葉県",
    "city": "千葉市中央区",
    "town": "村田町"
  },
  "2600826": {
    "zipcode": "2600826",
    "prefectureCode": "12",
    "prefectureNumber": 12,
    "prefecture": "千葉県",
    "city": "千葉市中央区",
    "town": "新浜町"
  },
  "2600831": {
    "zipcode": "2600831",
    "prefectureCode": "12",
    "prefectureNumber": 12,
    "prefecture": "千葉県",
    "city": "千葉市中央区",
    "town": "港町"
  },
  "2600832": {
    "zipcode": "2600832",
    "prefectureCode": "12",
    "prefectureNumber": 12,
    "prefecture": "千葉県",
    "city": "千葉市中央区",
    "town": "寒川町"
  },
  "2600833": {
    "zipcode": "2600833",
    "prefectureCode": "12",
    "prefectureNumber": 12,
    "prefecture": "千葉県",
    "city": "千葉市中央区",
    "town": "稲荷町"
  },
  "2600834": {
    "zipcode": "2600834",
    "prefectureCode": "12",
    "prefectureNumber": 12,
    "prefecture": "千葉県",
    "city": "千葉市中央区",
    "town": "今井"
  },
  "2600835": {
    "zipcode": "2600835",
    "prefectureCode": "12",
    "prefectureNumber": 12,
    "prefecture": "千葉県",
    "city": "千葉市中央区",
    "town": "川崎町"
  },
  "2600841": {
    "zipcode": "2600841",
    "prefectureCode": "12",
    "prefectureNumber": 12,
    "prefecture": "千葉県",
    "city": "千葉市中央区",
    "town": "白旗"
  },
  "2600842": {
    "zipcode": "2600842",
    "prefectureCode": "12",
    "prefectureNumber": 12,
    "prefecture": "千葉県",
    "city": "千葉市中央区",
    "town": "南町"
  },
  "2600843": {
    "zipcode": "2600843",
    "prefectureCode": "12",
    "prefectureNumber": 12,
    "prefecture": "千葉県",
    "city": "千葉市中央区",
    "town": "末広"
  },
  "2600844": {
    "zipcode": "2600844",
    "prefectureCode": "12",
    "prefectureNumber": 12,
    "prefecture": "千葉県",
    "city": "千葉市中央区",
    "town": "千葉寺町"
  },
  "2600851": {
    "zipcode": "2600851",
    "prefectureCode": "12",
    "prefectureNumber": 12,
    "prefecture": "千葉県",
    "city": "千葉市中央区",
    "town": "矢作町"
  },
  "2600852": {
    "zipcode": "2600852",
    "prefectureCode": "12",
    "prefectureNumber": 12,
    "prefecture": "千葉県",
    "city": "千葉市中央区",
    "town": "青葉町"
  },
  "2600853": {
    "zipcode": "2600853",
    "prefectureCode": "12",
    "prefectureNumber": 12,
    "prefecture": "千葉県",
    "city": "千葉市中央区",
    "town": "葛城"
  },
  "2600854": {
    "zipcode": "2600854",
    "prefectureCode": "12",
    "prefectureNumber": 12,
    "prefecture": "千葉県",
    "city": "千葉市中央区",
    "town": "長洲"
  },
  "2600855": {
    "zipcode": "2600855",
    "prefectureCode": "12",
    "prefectureNumber": 12,
    "prefecture": "千葉県",
    "city": "千葉市中央区",
    "town": "市場町"
  },
  "2600856": {
    "zipcode": "2600856",
    "prefectureCode": "12",
    "prefectureNumber": 12,
    "prefecture": "千葉県",
    "city": "千葉市中央区",
    "town": "亥鼻"
  },
  "2600857": {
    "zipcode": "2600857",
    "prefectureCode": "12",
    "prefectureNumber": 12,
    "prefecture": "千葉県",
    "city": "千葉市中央区",
    "town": "亀岡町"
  }
}
