{
  "2610000": {
    "zipcode": "2610000",
    "prefectureCode": "12",
    "prefectureNumber": 12,
    "prefecture": "千葉県",
    "city": "千葉市美浜区",
    "town": "以下に掲載がない場合"
  },
  "2610001": {
    "zipcode": "2610001",
    "prefectureCode": "12",
    "prefectureNumber": 12,
    "prefecture": "千葉県",
    "city": "千葉市美浜区",
    "town": "幸町"
  },
  "2610002": {
    "zipcode": "2610002",
    "prefectureCode": "12",
    "prefectureNumber": 12,
    "prefecture": "千葉県",
    "city": "千葉市美浜区",
    "town": "新港"
  },
  "2610003": {
    "zipcode": "2610003",
    "prefectureCode": "12",
    "prefectureNumber": 12,
    "prefecture": "千葉県",
    "city": "千葉市美浜区",
    "town": "高浜"
  },
  "2610004": {
    "zipcode": "2610004",
    "prefectureCode": "12",
    "prefectureNumber": 12,
    "prefecture": "千葉県",
    "city": "千葉市美浜区",
    "town": "高洲"
  },
  "2610005": {
    "zipcode": "2610005",
    "prefectureCode": "12",
    "prefectureNumber": 12,
    "prefecture": "千葉県",
    "city": "千葉市美浜区",
    "town": "稲毛海岸"
  },
  "2610011": {
    "zipcode": "2610011",
    "prefectureCode": "12",
    "prefectureNumber": 12,
    "prefecture": "千葉県",
    "city": "千葉市美浜区",
    "town": "真砂"
  },
  "2610012": {
    "zipcode": "2610012",
    "prefectureCode": "12",
    "prefectureNumber": 12,
    "prefecture": "千葉県",
    "city": "千葉市美浜区",
    "town": "磯辺"
  },
  "2610013": {
    "zipcode": "2610013",
    "prefectureCode": "12",
    "prefectureNumber": 12,
    "prefecture": "千葉県",
    "city": "千葉市美浜区",
    "town": "打瀬"
  },
  "2610014": {
    "zipcode": "2610014",
    "prefectureCode": "12",
    "prefectureNumber": 12,
    "prefecture": "千葉県",
    "city": "千葉市美浜区",
    "town": "若葉"
  },
  "2610021": {
    "zipcode": "2610021",
    "prefectureCode": "12",
    "prefectureNumber": 12,
    "prefecture": "千葉県",
    "city": "千葉市美浜区",
    "town": "ひび野"
  },
  "2610022": {
    "zipcode": "2610022",
    "prefectureCode": "12",
    "prefectureNumber": 12,
    "prefecture": "千葉県",
    "city": "千葉市美浜区",
    "town": "美浜"
  },
  "2610023": {
    "zipcode": "2610023",
    "prefectureCode": "12",
    "prefectureNumber": 12,
    "prefecture": "千葉県",
    "city": "千葉市美浜区",
    "town": "中瀬（次のビルを除く）"
  },
  "2610024": {
    "zipcode": "2610024",
    "prefectureCode": "12",
    "prefectureNumber": 12,
    "prefecture": "千葉県",
    "city": "千葉市美浜区",
    "town": "豊砂"
  },
  "2610025": {
    "zipcode": "2610025",
    "prefectureCode": "12",
    "prefectureNumber": 12,
    "prefecture": "千葉県",
    "city": "千葉市美浜区",
    "town": "浜田"
  },
  "2610026": {
    "zipcode": "2610026",
    "prefectureCode": "12",
    "prefectureNumber": 12,
    "prefecture": "千葉県",
    "city": "千葉市美浜区",
    "town": "幕張西"
  },
  "2617101": {
    "zipcode": "2617101",
    "prefectureCode": "12",
    "prefectureNumber": 12,
    "prefecture": "千葉県",
    "city": "千葉市美浜区",
    "town": "中瀬ワールドビジネスガーデン（１階）"
  },
  "2617102": {
    "zipcode": "2617102",
    "prefectureCode": "12",
    "prefectureNumber": 12,
    "prefecture": "千葉県",
    "city": "千葉市美浜区",
    "town": "中瀬ワールドビジネスガーデン（２階）"
  },
  "2617103": {
    "zipcode": "2617103",
    "prefectureCode": "12",
    "prefectureNumber": 12,
    "prefecture": "千葉県",
    "city": "千葉市美浜区",
    "town": "中瀬ワールドビジネスガーデン（３階）"
  },
  "2617104": {
    "zipcode": "2617104",
    "prefectureCode": "12",
    "prefectureNumber": 12,
    "prefecture": "千葉県",
    "city": "千葉市美浜区",
    "town": "中瀬ワールドビジネスガーデン（４階）"
  },
  "2617105": {
    "zipcode": "2617105",
    "prefectureCode": "12",
    "prefectureNumber": 12,
    "prefecture": "千葉県",
    "city": "千葉市美浜区",
    "town": "中瀬ワールドビジネスガーデン（５階）"
  },
  "2617106": {
    "zipcode": "2617106",
    "prefectureCode": "12",
    "prefectureNumber": 12,
    "prefecture": "千葉県",
    "city": "千葉市美浜区",
    "town": "中瀬ワールドビジネスガーデン（６階）"
  },
  "2617107": {
    "zipcode": "2617107",
    "prefectureCode": "12",
    "prefectureNumber": 12,
    "prefecture": "千葉県",
    "city": "千葉市美浜区",
    "town": "中瀬ワールドビジネスガーデン（７階）"
  },
  "2617108": {
    "zipcode": "2617108",
    "prefectureCode": "12",
    "prefectureNumber": 12,
    "prefecture": "千葉県",
    "city": "千葉市美浜区",
    "town": "中瀬ワールドビジネスガーデン（８階）"
  },
  "2617109": {
    "zipcode": "2617109",
    "prefectureCode": "12",
    "prefectureNumber": 12,
    "prefecture": "千葉県",
    "city": "千葉市美浜区",
    "town": "中瀬ワールドビジネスガーデン（９階）"
  },
  "2617110": {
    "zipcode": "2617110",
    "prefectureCode": "12",
    "prefectureNumber": 12,
    "prefecture": "千葉県",
    "city": "千葉市美浜区",
    "town": "中瀬ワールドビジネスガーデン（１０階）"
  },
  "2617111": {
    "zipcode": "2617111",
    "prefectureCode": "12",
    "prefectureNumber": 12,
    "prefecture": "千葉県",
    "city": "千葉市美浜区",
    "town": "中瀬ワールドビジネスガーデン（１１階）"
  },
  "2617112": {
    "zipcode": "2617112",
    "prefectureCode": "12",
    "prefectureNumber": 12,
    "prefecture": "千葉県",
    "city": "千葉市美浜区",
    "town": "中瀬ワールドビジネスガーデン（１２階）"
  },
  "2617113": {
    "zipcode": "2617113",
    "prefectureCode": "12",
    "prefectureNumber": 12,
    "prefecture": "千葉県",
    "city": "千葉市美浜区",
    "town": "中瀬ワールドビジネスガーデン（１３階）"
  },
  "2617114": {
    "zipcode": "2617114",
    "prefectureCode": "12",
    "prefectureNumber": 12,
    "prefecture": "千葉県",
    "city": "千葉市美浜区",
    "town": "中瀬ワールドビジネスガーデン（１４階）"
  },
  "2617115": {
    "zipcode": "2617115",
    "prefectureCode": "12",
    "prefectureNumber": 12,
    "prefecture": "千葉県",
    "city": "千葉市美浜区",
    "town": "中瀬ワールドビジネスガーデン（１５階）"
  },
  "2617116": {
    "zipcode": "2617116",
    "prefectureCode": "12",
    "prefectureNumber": 12,
    "prefecture": "千葉県",
    "city": "千葉市美浜区",
    "town": "中瀬ワールドビジネスガーデン（１６階）"
  },
  "2617117": {
    "zipcode": "2617117",
    "prefectureCode": "12",
    "prefectureNumber": 12,
    "prefecture": "千葉県",
    "city": "千葉市美浜区",
    "town": "中瀬ワールドビジネスガーデン（１７階）"
  },
  "2617118": {
    "zipcode": "2617118",
    "prefectureCode": "12",
    "prefectureNumber": 12,
    "prefecture": "千葉県",
    "city": "千葉市美浜区",
    "town": "中瀬ワールドビジネスガーデン（１８階）"
  },
  "2617119": {
    "zipcode": "2617119",
    "prefectureCode": "12",
    "prefectureNumber": 12,
    "prefecture": "千葉県",
    "city": "千葉市美浜区",
    "town": "中瀬ワールドビジネスガーデン（１９階）"
  },
  "2617120": {
    "zipcode": "2617120",
    "prefectureCode": "12",
    "prefectureNumber": 12,
    "prefecture": "千葉県",
    "city": "千葉市美浜区",
    "town": "中瀬ワールドビジネスガーデン（２０階）"
  },
  "2617121": {
    "zipcode": "2617121",
    "prefectureCode": "12",
    "prefectureNumber": 12,
    "prefecture": "千葉県",
    "city": "千葉市美浜区",
    "town": "中瀬ワールドビジネスガーデン（２１階）"
  },
  "2617122": {
    "zipcode": "2617122",
    "prefectureCode": "12",
    "prefectureNumber": 12,
    "prefecture": "千葉県",
    "city": "千葉市美浜区",
    "town": "中瀬ワールドビジネスガーデン（２２階）"
  },
  "2617123": {
    "zipcode": "2617123",
    "prefectureCode": "12",
    "prefectureNumber": 12,
    "prefecture": "千葉県",
    "city": "千葉市美浜区",
    "town": "中瀬ワールドビジネスガーデン（２３階）"
  },
  "2617124": {
    "zipcode": "2617124",
    "prefectureCode": "12",
    "prefectureNumber": 12,
    "prefecture": "千葉県",
    "city": "千葉市美浜区",
    "town": "中瀬ワールドビジネスガーデン（２４階）"
  },
  "2617125": {
    "zipcode": "2617125",
    "prefectureCode": "12",
    "prefectureNumber": 12,
    "prefecture": "千葉県",
    "city": "千葉市美浜区",
    "town": "中瀬ワールドビジネスガーデン（２５階）"
  },
  "2617126": {
    "zipcode": "2617126",
    "prefectureCode": "12",
    "prefectureNumber": 12,
    "prefecture": "千葉県",
    "city": "千葉市美浜区",
    "town": "中瀬ワールドビジネスガーデン（２６階）"
  },
  "2617127": {
    "zipcode": "2617127",
    "prefectureCode": "12",
    "prefectureNumber": 12,
    "prefecture": "千葉県",
    "city": "千葉市美浜区",
    "town": "中瀬ワールドビジネスガーデン（２７階）"
  },
  "2617128": {
    "zipcode": "2617128",
    "prefectureCode": "12",
    "prefectureNumber": 12,
    "prefecture": "千葉県",
    "city": "千葉市美浜区",
    "town": "中瀬ワールドビジネスガーデン（２８階）"
  },
  "2617129": {
    "zipcode": "2617129",
    "prefectureCode": "12",
    "prefectureNumber": 12,
    "prefecture": "千葉県",
    "city": "千葉市美浜区",
    "town": "中瀬ワールドビジネスガーデン（２９階）"
  },
  "2617130": {
    "zipcode": "2617130",
    "prefectureCode": "12",
    "prefectureNumber": 12,
    "prefecture": "千葉県",
    "city": "千葉市美浜区",
    "town": "中瀬ワールドビジネスガーデン（３０階）"
  },
  "2617131": {
    "zipcode": "2617131",
    "prefectureCode": "12",
    "prefectureNumber": 12,
    "prefecture": "千葉県",
    "city": "千葉市美浜区",
    "town": "中瀬ワールドビジネスガーデン（３１階）"
  },
  "2617132": {
    "zipcode": "2617132",
    "prefectureCode": "12",
    "prefectureNumber": 12,
    "prefecture": "千葉県",
    "city": "千葉市美浜区",
    "town": "中瀬ワールドビジネスガーデン（３２階）"
  },
  "2617133": {
    "zipcode": "2617133",
    "prefectureCode": "12",
    "prefectureNumber": 12,
    "prefecture": "千葉県",
    "city": "千葉市美浜区",
    "town": "中瀬ワールドビジネスガーデン（３３階）"
  },
  "2617134": {
    "zipcode": "2617134",
    "prefectureCode": "12",
    "prefectureNumber": 12,
    "prefecture": "千葉県",
    "city": "千葉市美浜区",
    "town": "中瀬ワールドビジネスガーデン（３４階）"
  },
  "2617135": {
    "zipcode": "2617135",
    "prefectureCode": "12",
    "prefectureNumber": 12,
    "prefecture": "千葉県",
    "city": "千葉市美浜区",
    "town": "中瀬ワールドビジネスガーデン（３５階）"
  },
  "2617190": {
    "zipcode": "2617190",
    "prefectureCode": "12",
    "prefectureNumber": 12,
    "prefecture": "千葉県",
    "city": "千葉市美浜区",
    "town": "中瀬ワールドビジネスガーデン（地階・階層不明）"
  }
}
