{
  "2620000": {
    "zipcode": "2620000",
    "prefectureCode": "12",
    "prefectureNumber": 12,
    "prefecture": "千葉県",
    "city": "千葉市花見川区",
    "town": "以下に掲載がない場合"
  },
  "2620001": {
    "zipcode": "2620001",
    "prefectureCode": "12",
    "prefectureNumber": 12,
    "prefecture": "千葉県",
    "city": "千葉市花見川区",
    "town": "横戸町"
  },
  "2620002": {
    "zipcode": "2620002",
    "prefectureCode": "12",
    "prefectureNumber": 12,
    "prefecture": "千葉県",
    "city": "千葉市花見川区",
    "town": "内山町"
  },
  "2620003": {
    "zipcode": "2620003",
    "prefectureCode": "12",
    "prefectureNumber": 12,
    "prefecture": "千葉県",
    "city": "千葉市花見川区",
    "town": "宇那谷町"
  },
  "2620004": {
    "zipcode": "2620004",
    "prefectureCode": "12",
    "prefectureNumber": 12,
    "prefecture": "千葉県",
    "city": "千葉市花見川区",
    "town": "大日町"
  },
  "2620005": {
    "zipcode": "2620005",
    "prefectureCode": "12",
    "prefectureNumber": 12,
    "prefecture": "千葉県",
    "city": "千葉市花見川区",
    "town": "こてはし台"
  },
  "2620006": {
    "zipcode": "2620006",
    "prefectureCode": "12",
    "prefectureNumber": 12,
    "prefecture": "千葉県",
    "city": "千葉市花見川区",
    "town": "横戸台"
  },
  "2620007": {
    "zipcode": "2620007",
    "prefectureCode": "12",
    "prefectureNumber": 12,
    "prefecture": "千葉県",
    "city": "千葉市花見川区",
    "town": "み春野"
  },
  "2620011": {
    "zipcode": "2620011",
    "prefectureCode": "12",
    "prefectureNumber": 12,
    "prefecture": "千葉県",
    "city": "千葉市花見川区",
    "town": "三角町"
  },
  "2620012": {
    "zipcode": "2620012",
    "prefectureCode": "12",
    "prefectureNumber": 12,
    "prefecture": "千葉県",
    "city": "千葉市花見川区",
    "town": "千種町"
  },
  "2620013": {
    "zipcode": "2620013",
    "prefectureCode": "12",
    "prefectureNumber": 12,
    "prefecture": "千葉県",
    "city": "千葉市花見川区",
    "town": "犢橋町"
  },
  "2620014": {
    "zipcode": "2620014",
    "prefectureCode": "12",
    "prefectureNumber": 12,
    "prefecture": "千葉県",
    "city": "千葉市花見川区",
    "town": "さつきが丘"
  },
  "2620015": {
    "zipcode": "2620015",
    "prefectureCode": "12",
    "prefectureNumber": 12,
    "prefecture": "千葉県",
    "city": "千葉市花見川区",
    "town": "宮野木台"
  },
  "2620016": {
    "zipcode": "2620016",
    "prefectureCode": "12",
    "prefectureNumber": 12,
    "prefecture": "千葉県",
    "city": "千葉市花見川区",
    "town": "西小中台"
  },
  "2620017": {
    "zipcode": "2620017",
    "prefectureCode": "12",
    "prefectureNumber": 12,
    "prefecture": "千葉県",
    "city": "千葉市花見川区",
    "town": "朝日ケ丘町"
  },
  "2620018": {
    "zipcode": "2620018",
    "prefectureCode": "12",
    "prefectureNumber": 12,
    "prefecture": "千葉県",
    "city": "千葉市花見川区",
    "town": "畑町"
  },
  "2620019": {
    "zipcode": "2620019",
    "prefectureCode": "12",
    "prefectureNumber": 12,
    "prefecture": "千葉県",
    "city": "千葉市花見川区",
    "town": "朝日ケ丘"
  },
  "2620021": {
    "zipcode": "2620021",
    "prefectureCode": "12",
    "prefectureNumber": 12,
    "prefecture": "千葉県",
    "city": "千葉市花見川区",
    "town": "花園町"
  },
  "2620022": {
    "zipcode": "2620022",
    "prefectureCode": "12",
    "prefectureNumber": 12,
    "prefecture": "千葉県",
    "city": "千葉市花見川区",
    "town": "南花園"
  },
  "2620023": {
    "zipcode": "2620023",
    "prefectureCode": "12",
    "prefectureNumber": 12,
    "prefecture": "千葉県",
    "city": "千葉市花見川区",
    "town": "検見川町"
  },
  "2620024": {
    "zipcode": "2620024",
    "prefectureCode": "12",
    "prefectureNumber": 12,
    "prefecture": "千葉県",
    "city": "千葉市花見川区",
    "town": "浪花町"
  },
  "2620025": {
    "zipcode": "2620025",
    "prefectureCode": "12",
    "prefectureNumber": 12,
    "prefecture": "千葉県",
    "city": "千葉市花見川区",
    "town": "花園"
  },
  "2620026": {
    "zipcode": "2620026",
    "prefectureCode": "12",
    "prefectureNumber": 12,
    "prefecture": "千葉県",
    "city": "千葉市花見川区",
    "town": "瑞穂"
  },
  "2620031": {
    "zipcode": "2620031",
    "prefectureCode": "12",
    "prefectureNumber": 12,
    "prefecture": "千葉県",
    "city": "千葉市花見川区",
    "town": "武石町"
  },
  "2620032": {
    "zipcode": "2620032",
    "prefectureCode": "12",
    "prefectureNumber": 12,
    "prefecture": "千葉県",
    "city": "千葉市花見川区",
    "town": "幕張町"
  },
  "2620033": {
    "zipcode": "2620033",
    "prefectureCode": "12",
    "prefectureNumber": 12,
    "prefecture": "千葉県",
    "city": "千葉市花見川区",
    "town": "幕張本郷"
  },
  "2620041": {
    "zipcode": "2620041",
    "prefectureCode": "12",
    "prefectureNumber": 12,
    "prefecture": "千葉県",
    "city": "千葉市花見川区",
    "town": "柏井町"
  },
  "2620042": {
    "zipcode": "2620042",
    "prefectureCode": "12",
    "prefectureNumber": 12,
    "prefecture": "千葉県",
    "city": "千葉市花見川区",
    "town": "花島町"
  },
  "2620043": {
    "zipcode": "2620043",
    "prefectureCode": "12",
    "prefectureNumber": 12,
    "prefecture": "千葉県",
    "city": "千葉市花見川区",
    "town": "天戸町"
  },
  "2620044": {
    "zipcode": "2620044",
    "prefectureCode": "12",
    "prefectureNumber": 12,
    "prefecture": "千葉県",
    "city": "千葉市花見川区",
    "town": "長作町"
  },
  "2620045": {
    "zipcode": "2620045",
    "prefectureCode": "12",
    "prefectureNumber": 12,
    "prefecture": "千葉県",
    "city": "千葉市花見川区",
    "town": "作新台"
  },
  "2620046": {
    "zipcode": "2620046",
    "prefectureCode": "12",
    "prefectureNumber": 12,
    "prefecture": "千葉県",
    "city": "千葉市花見川区",
    "town": "花見川"
  },
  "2620047": {
    "zipcode": "2620047",
    "prefectureCode": "12",
    "prefectureNumber": 12,
    "prefecture": "千葉県",
    "city": "千葉市花見川区",
    "town": "長作台"
  },
  "2620048": {
    "zipcode": "2620048",
    "prefectureCode": "12",
    "prefectureNumber": 12,
    "prefecture": "千葉県",
    "city": "千葉市花見川区",
    "town": "柏井"
  }
}
