{
  "2630000": {
    "zipcode": "2630000",
    "prefectureCode": "12",
    "prefectureNumber": 12,
    "prefecture": "千葉県",
    "city": "千葉市稲毛区",
    "town": "以下に掲載がない場合"
  },
  "2630001": {
    "zipcode": "2630001",
    "prefectureCode": "12",
    "prefectureNumber": 12,
    "prefecture": "千葉県",
    "city": "千葉市稲毛区",
    "town": "長沼原町"
  },
  "2630002": {
    "zipcode": "2630002",
    "prefectureCode": "12",
    "prefectureNumber": 12,
    "prefecture": "千葉県",
    "city": "千葉市稲毛区",
    "town": "山王町"
  },
  "2630003": {
    "zipcode": "2630003",
    "prefectureCode": "12",
    "prefectureNumber": 12,
    "prefecture": "千葉県",
    "city": "千葉市稲毛区",
    "town": "小深町"
  },
  "2630004": {
    "zipcode": "2630004",
    "prefectureCode": "12",
    "prefectureNumber": 12,
    "prefecture": "千葉県",
    "city": "千葉市稲毛区",
    "town": "六方町"
  },
  "2630005": {
    "zipcode": "2630005",
    "prefectureCode": "12",
    "prefectureNumber": 12,
    "prefecture": "千葉県",
    "city": "千葉市稲毛区",
    "town": "長沼町"
  },
  "2630011": {
    "zipcode": "2630011",
    "prefectureCode": "12",
    "prefectureNumber": 12,
    "prefecture": "千葉県",
    "city": "千葉市稲毛区",
    "town": "天台町"
  },
  "2630012": {
    "zipcode": "2630012",
    "prefectureCode": "12",
    "prefectureNumber": 12,
    "prefecture": "千葉県",
    "city": "千葉市稲毛区",
    "town": "萩台町"
  },
  "2630013": {
    "zipcode": "2630013",
    "prefectureCode": "12",
    "prefectureNumber": 12,
    "prefecture": "千葉県",
    "city": "千葉市稲毛区",
    "town": "千草台"
  },
  "2630014": {
    "zipcode": "2630014",
    "prefectureCode": "12",
    "prefectureNumber": 12,
    "prefecture": "千葉県",
    "city": "千葉市稲毛区",
    "town": "作草部町"
  },
  "2630015": {
    "zipcode": "2630015",
    "prefectureCode": "12",
    "prefectureNumber": 12,
    "prefecture": "千葉県",
    "city": "千葉市稲毛区",
    "town": "作草部"
  },
  "2630016": {
    "zipcode": "2630016",
    "prefectureCode": "12",
    "prefectureNumber": 12,
    "prefecture": "千葉県",
    "city": "千葉市稲毛区",
    "town": "天台"
  },
  "2630021": {
    "zipcode": "2630021",
    "prefectureCode": "12",
    "prefectureNumber": 12,
    "prefecture": "千葉県",
    "city": "千葉市稲毛区",
    "town": "轟町"
  },
  "2630022": {
    "zipcode": "2630022",
    "prefectureCode": "12",
    "prefectureNumber": 12,
    "prefecture": "千葉県",
    "city": "千葉市稲毛区",
    "town": "弥生町"
  },
  "2630023": {
    "zipcode": "2630023",
    "prefectureCode": "12",
    "prefectureNumber": 12,
    "prefecture": "千葉県",
    "city": "千葉市稲毛区",
    "town": "緑町"
  },
  "2630024": {
    "zipcode": "2630024",
    "prefectureCode": "12",
    "prefectureNumber": 12,
    "prefecture": "千葉県",
    "city": "千葉市稲毛区",
    "town": "穴川"
  },
  "2630025": {
    "zipcode": "2630025",
    "prefectureCode": "12",
    "prefectureNumber": 12,
    "prefecture": "千葉県",
    "city": "千葉市稲毛区",
    "town": "穴川町"
  },
  "2630031": {
    "zipcode": "2630031",
    "prefectureCode": "12",
    "prefectureNumber": 12,
    "prefecture": "千葉県",
    "city": "千葉市稲毛区",
    "town": "稲毛東"
  },
  "2630032": {
    "zipcode": "2630032",
    "prefectureCode": "12",
    "prefectureNumber": 12,
    "prefecture": "千葉県",
    "city": "千葉市稲毛区",
    "town": "稲毛台町"
  },
  "2630033": {
    "zipcode": "2630033",
    "prefectureCode": "12",
    "prefectureNumber": 12,
    "prefecture": "千葉県",
    "city": "千葉市稲毛区",
    "town": "稲丘町"
  },
  "2630034": {
    "zipcode": "2630034",
    "prefectureCode": "12",
    "prefectureNumber": 12,
    "prefecture": "千葉県",
    "city": "千葉市稲毛区",
    "town": "稲毛"
  },
  "2630035": {
    "zipcode": "2630035",
    "prefectureCode": "12",
    "prefectureNumber": 12,
    "prefecture": "千葉県",
    "city": "千葉市稲毛区",
    "town": "稲毛町"
  },
  "2630041": {
    "zipcode": "2630041",
    "prefectureCode": "12",
    "prefectureNumber": 12,
    "prefecture": "千葉県",
    "city": "千葉市稲毛区",
    "town": "黒砂台"
  },
  "2630042": {
    "zipcode": "2630042",
    "prefectureCode": "12",
    "prefectureNumber": 12,
    "prefecture": "千葉県",
    "city": "千葉市稲毛区",
    "town": "黒砂"
  },
  "2630043": {
    "zipcode": "2630043",
    "prefectureCode": "12",
    "prefectureNumber": 12,
    "prefecture": "千葉県",
    "city": "千葉市稲毛区",
    "town": "小仲台"
  },
  "2630044": {
    "zipcode": "2630044",
    "prefectureCode": "12",
    "prefectureNumber": 12,
    "prefecture": "千葉県",
    "city": "千葉市稲毛区",
    "town": "小中台町"
  },
  "2630051": {
    "zipcode": "2630051",
    "prefectureCode": "12",
    "prefectureNumber": 12,
    "prefecture": "千葉県",
    "city": "千葉市稲毛区",
    "town": "園生町"
  },
  "2630052": {
    "zipcode": "2630052",
    "prefectureCode": "12",
    "prefectureNumber": 12,
    "prefecture": "千葉県",
    "city": "千葉市稲毛区",
    "town": "あやめ台"
  },
  "2630053": {
    "zipcode": "2630053",
    "prefectureCode": "12",
    "prefectureNumber": 12,
    "prefecture": "千葉県",
    "city": "千葉市稲毛区",
    "town": "柏台"
  },
  "2630054": {
    "zipcode": "2630054",
    "prefectureCode": "12",
    "prefectureNumber": 12,
    "prefecture": "千葉県",
    "city": "千葉市稲毛区",
    "town": "宮野木町"
  }
}
