{
  "2640000": {
    "zipcode": "2640000",
    "prefectureCode": "12",
    "prefectureNumber": 12,
    "prefecture": "千葉県",
    "city": "千葉市若葉区",
    "town": "以下に掲載がない場合"
  },
  "2640001": {
    "zipcode": "2640001",
    "prefectureCode": "12",
    "prefectureNumber": 12,
    "prefecture": "千葉県",
    "city": "千葉市若葉区",
    "town": "金親町"
  },
  "2640002": {
    "zipcode": "2640002",
    "prefectureCode": "12",
    "prefectureNumber": 12,
    "prefecture": "千葉県",
    "city": "千葉市若葉区",
    "town": "千城台東"
  },
  "2640003": {
    "zipcode": "2640003",
    "prefectureCode": "12",
    "prefectureNumber": 12,
    "prefecture": "千葉県",
    "city": "千葉市若葉区",
    "town": "千城台南"
  },
  "2640004": {
    "zipcode": "2640004",
    "prefectureCode": "12",
    "prefectureNumber": 12,
    "prefecture": "千葉県",
    "city": "千葉市若葉区",
    "town": "千城台西"
  },
  "2640005": {
    "zipcode": "2640005",
    "prefectureCode": "12",
    "prefectureNumber": 12,
    "prefecture": "千葉県",
    "city": "千葉市若葉区",
    "town": "千城台北"
  },
  "2640006": {
    "zipcode": "2640006",
    "prefectureCode": "12",
    "prefectureNumber": 12,
    "prefecture": "千葉県",
    "city": "千葉市若葉区",
    "town": "小倉台"
  },
  "2640007": {
    "zipcode": "2640007",
    "prefectureCode": "12",
    "prefectureNumber": 12,
    "prefecture": "千葉県",
    "city": "千葉市若葉区",
    "town": "小倉町"
  },
  "2640011": {
    "zipcode": "2640011",
    "prefectureCode": "12",
    "prefectureNumber": 12,
    "prefecture": "千葉県",
    "city": "千葉市若葉区",
    "town": "大草町"
  },
  "2640012": {
    "zipcode": "2640012",
    "prefectureCode": "12",
    "prefectureNumber": 12,
    "prefecture": "千葉県",
    "city": "千葉市若葉区",
    "town": "坂月町"
  },
  "2640013": {
    "zipcode": "2640013",
    "prefectureCode": "12",
    "prefectureNumber": 12,
    "prefecture": "千葉県",
    "city": "千葉市若葉区",
    "town": "太田町"
  },
  "2640014": {
    "zipcode": "2640014",
    "prefectureCode": "12",
    "prefectureNumber": 12,
    "prefecture": "千葉県",
    "city": "千葉市若葉区",
    "town": "北大宮台"
  },
  "2640015": {
    "zipcode": "2640015",
    "prefectureCode": "12",
    "prefectureNumber": 12,
    "prefecture": "千葉県",
    "city": "千葉市若葉区",
    "town": "大宮台"
  },
  "2640016": {
    "zipcode": "2640016",
    "prefectureCode": "12",
    "prefectureNumber": 12,
    "prefecture": "千葉県",
    "city": "千葉市若葉区",
    "town": "大宮町"
  },
  "2640017": {
    "zipcode": "2640017",
    "prefectureCode": "12",
    "prefectureNumber": 12,
    "prefecture": "千葉県",
    "city": "千葉市若葉区",
    "town": "加曽利町"
  },
  "2640020": {
    "zipcode": "2640020",
    "prefectureCode": "12",
    "prefectureNumber": 12,
    "prefecture": "千葉県",
    "city": "千葉市若葉区",
    "town": "貝塚"
  },
  "2640021": {
    "zipcode": "2640021",
    "prefectureCode": "12",
    "prefectureNumber": 12,
    "prefecture": "千葉県",
    "city": "千葉市若葉区",
    "town": "若松町"
  },
  "2640023": {
    "zipcode": "2640023",
    "prefectureCode": "12",
    "prefectureNumber": 12,
    "prefecture": "千葉県",
    "city": "千葉市若葉区",
    "town": "貝塚町"
  },
  "2640024": {
    "zipcode": "2640024",
    "prefectureCode": "12",
    "prefectureNumber": 12,
    "prefecture": "千葉県",
    "city": "千葉市若葉区",
    "town": "高品町"
  },
  "2640025": {
    "zipcode": "2640025",
    "prefectureCode": "12",
    "prefectureNumber": 12,
    "prefecture": "千葉県",
    "city": "千葉市若葉区",
    "town": "都賀"
  },
  "2640026": {
    "zipcode": "2640026",
    "prefectureCode": "12",
    "prefectureNumber": 12,
    "prefecture": "千葉県",
    "city": "千葉市若葉区",
    "town": "西都賀"
  },
  "2640027": {
    "zipcode": "2640027",
    "prefectureCode": "12",
    "prefectureNumber": 12,
    "prefecture": "千葉県",
    "city": "千葉市若葉区",
    "town": "若松台"
  },
  "2640028": {
    "zipcode": "2640028",
    "prefectureCode": "12",
    "prefectureNumber": 12,
    "prefecture": "千葉県",
    "city": "千葉市若葉区",
    "town": "桜木"
  },
  "2640029": {
    "zipcode": "2640029",
    "prefectureCode": "12",
    "prefectureNumber": 12,
    "prefecture": "千葉県",
    "city": "千葉市若葉区",
    "town": "桜木北"
  },
  "2640031": {
    "zipcode": "2640031",
    "prefectureCode": "12",
    "prefectureNumber": 12,
    "prefecture": "千葉県",
    "city": "千葉市若葉区",
    "town": "愛生町"
  },
  "2640032": {
    "zipcode": "2640032",
    "prefectureCode": "12",
    "prefectureNumber": 12,
    "prefecture": "千葉県",
    "city": "千葉市若葉区",
    "town": "みつわ台"
  },
  "2640033": {
    "zipcode": "2640033",
    "prefectureCode": "12",
    "prefectureNumber": 12,
    "prefecture": "千葉県",
    "city": "千葉市若葉区",
    "town": "都賀の台"
  },
  "2640034": {
    "zipcode": "2640034",
    "prefectureCode": "12",
    "prefectureNumber": 12,
    "prefecture": "千葉県",
    "city": "千葉市若葉区",
    "town": "原町"
  },
  "2640035": {
    "zipcode": "2640035",
    "prefectureCode": "12",
    "prefectureNumber": 12,
    "prefecture": "千葉県",
    "city": "千葉市若葉区",
    "town": "東寺山町"
  },
  "2640036": {
    "zipcode": "2640036",
    "prefectureCode": "12",
    "prefectureNumber": 12,
    "prefecture": "千葉県",
    "city": "千葉市若葉区",
    "town": "殿台町"
  },
  "2640037": {
    "zipcode": "2640037",
    "prefectureCode": "12",
    "prefectureNumber": 12,
    "prefecture": "千葉県",
    "city": "千葉市若葉区",
    "town": "源町"
  }
}
