{
  "2660000": {
    "zipcode": "2660000",
    "prefectureCode": "12",
    "prefectureNumber": 12,
    "prefecture": "千葉県",
    "city": "千葉市緑区",
    "town": "以下に掲載がない場合"
  },
  "2660001": {
    "zipcode": "2660001",
    "prefectureCode": "12",
    "prefectureNumber": 12,
    "prefecture": "千葉県",
    "city": "千葉市緑区",
    "town": "東山科町"
  },
  "2660002": {
    "zipcode": "2660002",
    "prefectureCode": "12",
    "prefectureNumber": 12,
    "prefecture": "千葉県",
    "city": "千葉市緑区",
    "town": "平山町"
  },
  "2660003": {
    "zipcode": "2660003",
    "prefectureCode": "12",
    "prefectureNumber": 12,
    "prefecture": "千葉県",
    "city": "千葉市緑区",
    "town": "高田町"
  },
  "2660004": {
    "zipcode": "2660004",
    "prefectureCode": "12",
    "prefectureNumber": 12,
    "prefecture": "千葉県",
    "city": "千葉市緑区",
    "town": "平川町"
  },
  "2660005": {
    "zipcode": "2660005",
    "prefectureCode": "12",
    "prefectureNumber": 12,
    "prefecture": "千葉県",
    "city": "千葉市緑区",
    "town": "誉田町"
  },
  "2660006": {
    "zipcode": "2660006",
    "prefectureCode": "12",
    "prefectureNumber": 12,
    "prefecture": "千葉県",
    "city": "千葉市緑区",
    "town": "大膳野町"
  },
  "2660007": {
    "zipcode": "2660007",
    "prefectureCode": "12",
    "prefectureNumber": 12,
    "prefecture": "千葉県",
    "city": "千葉市緑区",
    "town": "辺田町"
  },
  "2660011": {
    "zipcode": "2660011",
    "prefectureCode": "12",
    "prefectureNumber": 12,
    "prefecture": "千葉県",
    "city": "千葉市緑区",
    "town": "鎌取町"
  },
  "2660014": {
    "zipcode": "2660014",
    "prefectureCode": "12",
    "prefectureNumber": 12,
    "prefecture": "千葉県",
    "city": "千葉市緑区",
    "town": "大金沢町"
  },
  "2660015": {
    "zipcode": "2660015",
    "prefectureCode": "12",
    "prefectureNumber": 12,
    "prefecture": "千葉県",
    "city": "千葉市緑区",
    "town": "小金沢町"
  },
  "2660016": {
    "zipcode": "2660016",
    "prefectureCode": "12",
    "prefectureNumber": 12,
    "prefecture": "千葉県",
    "city": "千葉市緑区",
    "town": "椎名崎町"
  },
  "2660021": {
    "zipcode": "2660021",
    "prefectureCode": "12",
    "prefectureNumber": 12,
    "prefecture": "千葉県",
    "city": "千葉市緑区",
    "town": "刈田子町"
  },
  "2660022": {
    "zipcode": "2660022",
    "prefectureCode": "12",
    "prefectureNumber": 12,
    "prefecture": "千葉県",
    "city": "千葉市緑区",
    "town": "富岡町"
  },
  "2660023": {
    "zipcode": "2660023",
    "prefectureCode": "12",
    "prefectureNumber": 12,
    "prefecture": "千葉県",
    "city": "千葉市緑区",
    "town": "茂呂町"
  },
  "2660024": {
    "zipcode": "2660024",
    "prefectureCode": "12",
    "prefectureNumber": 12,
    "prefecture": "千葉県",
    "city": "千葉市緑区",
    "town": "中西町"
  },
  "2660025": {
    "zipcode": "2660025",
    "prefectureCode": "12",
    "prefectureNumber": 12,
    "prefecture": "千葉県",
    "city": "千葉市緑区",
    "town": "落井町"
  },
  "2660026": {
    "zipcode": "2660026",
    "prefectureCode": "12",
    "prefectureNumber": 12,
    "prefecture": "千葉県",
    "city": "千葉市緑区",
    "town": "古市場町"
  },
  "2660031": {
    "zipcode": "2660031",
    "prefectureCode": "12",
    "prefectureNumber": 12,
    "prefecture": "千葉県",
    "city": "千葉市緑区",
    "town": "おゆみ野"
  },
  "2660032": {
    "zipcode": "2660032",
    "prefectureCode": "12",
    "prefectureNumber": 12,
    "prefecture": "千葉県",
    "city": "千葉市緑区",
    "town": "おゆみ野中央"
  },
  "2660033": {
    "zipcode": "2660033",
    "prefectureCode": "12",
    "prefectureNumber": 12,
    "prefecture": "千葉県",
    "city": "千葉市緑区",
    "town": "おゆみ野南"
  },
  "2660034": {
    "zipcode": "2660034",
    "prefectureCode": "12",
    "prefectureNumber": 12,
    "prefecture": "千葉県",
    "city": "千葉市緑区",
    "town": "おゆみ野有吉"
  }
}
