{
  "2670051": {
    "zipcode": "2670051",
    "prefectureCode": "12",
    "prefectureNumber": 12,
    "prefecture": "千葉県",
    "city": "千葉市緑区",
    "town": "上大和田町"
  },
  "2670052": {
    "zipcode": "2670052",
    "prefectureCode": "12",
    "prefectureNumber": 12,
    "prefecture": "千葉県",
    "city": "千葉市緑区",
    "town": "下大和田町"
  },
  "2670053": {
    "zipcode": "2670053",
    "prefectureCode": "12",
    "prefectureNumber": 12,
    "prefecture": "千葉県",
    "city": "千葉市緑区",
    "town": "高津戸町"
  },
  "2670054": {
    "zipcode": "2670054",
    "prefectureCode": "12",
    "prefectureNumber": 12,
    "prefecture": "千葉県",
    "city": "千葉市緑区",
    "town": "大高町"
  },
  "2670055": {
    "zipcode": "2670055",
    "prefectureCode": "12",
    "prefectureNumber": 12,
    "prefecture": "千葉県",
    "city": "千葉市緑区",
    "town": "越智町"
  },
  "2670056": {
    "zipcode": "2670056",
    "prefectureCode": "12",
    "prefectureNumber": 12,
    "prefecture": "千葉県",
    "city": "千葉市緑区",
    "town": "大野台"
  },
  "2670057": {
    "zipcode": "2670057",
    "prefectureCode": "12",
    "prefectureNumber": 12,
    "prefecture": "千葉県",
    "city": "千葉市緑区",
    "town": "大木戸町"
  },
  "2670061": {
    "zipcode": "2670061",
    "prefectureCode": "12",
    "prefectureNumber": 12,
    "prefecture": "千葉県",
    "city": "千葉市緑区",
    "town": "土気町"
  },
  "2670062": {
    "zipcode": "2670062",
    "prefectureCode": "12",
    "prefectureNumber": 12,
    "prefecture": "千葉県",
    "city": "千葉市緑区",
    "town": "小食土町"
  },
  "2670063": {
    "zipcode": "2670063",
    "prefectureCode": "12",
    "prefectureNumber": 12,
    "prefecture": "千葉県",
    "city": "千葉市緑区",
    "town": "小山町"
  },
  "2670064": {
    "zipcode": "2670064",
    "prefectureCode": "12",
    "prefectureNumber": 12,
    "prefecture": "千葉県",
    "city": "千葉市緑区",
    "town": "板倉町"
  },
  "2670065": {
    "zipcode": "2670065",
    "prefectureCode": "12",
    "prefectureNumber": 12,
    "prefecture": "千葉県",
    "city": "千葉市緑区",
    "town": "大椎町"
  },
  "2670066": {
    "zipcode": "2670066",
    "prefectureCode": "12",
    "prefectureNumber": 12,
    "prefecture": "千葉県",
    "city": "千葉市緑区",
    "town": "あすみが丘"
  },
  "2670067": {
    "zipcode": "2670067",
    "prefectureCode": "12",
    "prefectureNumber": 12,
    "prefecture": "千葉県",
    "city": "千葉市緑区",
    "town": "あすみが丘東"
  }
}
