{
  "2710041": {
    "zipcode": "2710041",
    "prefectureCode": "12",
    "prefectureNumber": 12,
    "prefecture": "千葉県",
    "city": "松戸市",
    "town": "七右衛門新田"
  },
  "2710042": {
    "zipcode": "2710042",
    "prefectureCode": "12",
    "prefectureNumber": 12,
    "prefecture": "千葉県",
    "city": "松戸市",
    "town": "主水新田"
  },
  "2710043": {
    "zipcode": "2710043",
    "prefectureCode": "12",
    "prefectureNumber": 12,
    "prefecture": "千葉県",
    "city": "松戸市",
    "town": "旭町"
  },
  "2710044": {
    "zipcode": "2710044",
    "prefectureCode": "12",
    "prefectureNumber": 12,
    "prefecture": "千葉県",
    "city": "松戸市",
    "town": "西馬橋"
  },
  "2710045": {
    "zipcode": "2710045",
    "prefectureCode": "12",
    "prefectureNumber": 12,
    "prefecture": "千葉県",
    "city": "松戸市",
    "town": "西馬橋相川町"
  },
  "2710046": {
    "zipcode": "2710046",
    "prefectureCode": "12",
    "prefectureNumber": 12,
    "prefecture": "千葉県",
    "city": "松戸市",
    "town": "西馬橋蔵元町"
  },
  "2710047": {
    "zipcode": "2710047",
    "prefectureCode": "12",
    "prefectureNumber": 12,
    "prefecture": "千葉県",
    "city": "松戸市",
    "town": "西馬橋幸町"
  },
  "2710048": {
    "zipcode": "2710048",
    "prefectureCode": "12",
    "prefectureNumber": 12,
    "prefecture": "千葉県",
    "city": "松戸市",
    "town": "西馬橋広手町"
  },
  "2710051": {
    "zipcode": "2710051",
    "prefectureCode": "12",
    "prefectureNumber": 12,
    "prefecture": "千葉県",
    "city": "松戸市",
    "town": "馬橋"
  },
  "2710052": {
    "zipcode": "2710052",
    "prefectureCode": "12",
    "prefectureNumber": 12,
    "prefecture": "千葉県",
    "city": "松戸市",
    "town": "新作"
  },
  "2710053": {
    "zipcode": "2710053",
    "prefectureCode": "12",
    "prefectureNumber": 12,
    "prefecture": "千葉県",
    "city": "松戸市",
    "town": "中根"
  },
  "2710054": {
    "zipcode": "2710054",
    "prefectureCode": "12",
    "prefectureNumber": 12,
    "prefecture": "千葉県",
    "city": "松戸市",
    "town": "中根長津町"
  },
  "2710061": {
    "zipcode": "2710061",
    "prefectureCode": "12",
    "prefectureNumber": 12,
    "prefecture": "千葉県",
    "city": "松戸市",
    "town": "栄町西"
  },
  "2710062": {
    "zipcode": "2710062",
    "prefectureCode": "12",
    "prefectureNumber": 12,
    "prefecture": "千葉県",
    "city": "松戸市",
    "town": "栄町"
  },
  "2710063": {
    "zipcode": "2710063",
    "prefectureCode": "12",
    "prefectureNumber": 12,
    "prefecture": "千葉県",
    "city": "松戸市",
    "town": "北松戸"
  },
  "2710064": {
    "zipcode": "2710064",
    "prefectureCode": "12",
    "prefectureNumber": 12,
    "prefecture": "千葉県",
    "city": "松戸市",
    "town": "上本郷"
  },
  "2710065": {
    "zipcode": "2710065",
    "prefectureCode": "12",
    "prefectureNumber": 12,
    "prefecture": "千葉県",
    "city": "松戸市",
    "town": "南花島"
  },
  "2710066": {
    "zipcode": "2710066",
    "prefectureCode": "12",
    "prefectureNumber": 12,
    "prefecture": "千葉県",
    "city": "松戸市",
    "town": "吉井町"
  },
  "2710067": {
    "zipcode": "2710067",
    "prefectureCode": "12",
    "prefectureNumber": 12,
    "prefecture": "千葉県",
    "city": "松戸市",
    "town": "樋野口"
  },
  "2710068": {
    "zipcode": "2710068",
    "prefectureCode": "12",
    "prefectureNumber": 12,
    "prefecture": "千葉県",
    "city": "松戸市",
    "town": "古ケ崎"
  },
  "2710071": {
    "zipcode": "2710071",
    "prefectureCode": "12",
    "prefectureNumber": 12,
    "prefecture": "千葉県",
    "city": "松戸市",
    "town": "竹ケ花西町"
  },
  "2710072": {
    "zipcode": "2710072",
    "prefectureCode": "12",
    "prefectureNumber": 12,
    "prefecture": "千葉県",
    "city": "松戸市",
    "town": "竹ケ花"
  },
  "2710073": {
    "zipcode": "2710073",
    "prefectureCode": "12",
    "prefectureNumber": 12,
    "prefecture": "千葉県",
    "city": "松戸市",
    "town": "小根本"
  },
  "2710074": {
    "zipcode": "2710074",
    "prefectureCode": "12",
    "prefectureNumber": 12,
    "prefecture": "千葉県",
    "city": "松戸市",
    "town": "緑ケ丘"
  },
  "2710075": {
    "zipcode": "2710075",
    "prefectureCode": "12",
    "prefectureNumber": 12,
    "prefecture": "千葉県",
    "city": "松戸市",
    "town": "胡録台"
  },
  "2710076": {
    "zipcode": "2710076",
    "prefectureCode": "12",
    "prefectureNumber": 12,
    "prefecture": "千葉県",
    "city": "松戸市",
    "town": "岩瀬"
  },
  "2710077": {
    "zipcode": "2710077",
    "prefectureCode": "12",
    "prefectureNumber": 12,
    "prefecture": "千葉県",
    "city": "松戸市",
    "town": "根本"
  },
  "2710081": {
    "zipcode": "2710081",
    "prefectureCode": "12",
    "prefectureNumber": 12,
    "prefecture": "千葉県",
    "city": "松戸市",
    "town": "二十世紀が丘美野里町"
  },
  "2710082": {
    "zipcode": "2710082",
    "prefectureCode": "12",
    "prefectureNumber": 12,
    "prefecture": "千葉県",
    "city": "松戸市",
    "town": "二十世紀が丘戸山町"
  },
  "2710083": {
    "zipcode": "2710083",
    "prefectureCode": "12",
    "prefectureNumber": 12,
    "prefecture": "千葉県",
    "city": "松戸市",
    "town": "二十世紀が丘梨元町"
  },
  "2710084": {
    "zipcode": "2710084",
    "prefectureCode": "12",
    "prefectureNumber": 12,
    "prefecture": "千葉県",
    "city": "松戸市",
    "town": "二十世紀が丘丸山町"
  },
  "2710085": {
    "zipcode": "2710085",
    "prefectureCode": "12",
    "prefectureNumber": 12,
    "prefecture": "千葉県",
    "city": "松戸市",
    "town": "二十世紀が丘中松町"
  },
  "2710086": {
    "zipcode": "2710086",
    "prefectureCode": "12",
    "prefectureNumber": 12,
    "prefecture": "千葉県",
    "city": "松戸市",
    "town": "二十世紀が丘萩町"
  },
  "2710087": {
    "zipcode": "2710087",
    "prefectureCode": "12",
    "prefectureNumber": 12,
    "prefecture": "千葉県",
    "city": "松戸市",
    "town": "三矢小台"
  },
  "2710088": {
    "zipcode": "2710088",
    "prefectureCode": "12",
    "prefectureNumber": 12,
    "prefecture": "千葉県",
    "city": "松戸市",
    "town": "二十世紀が丘柿の木町"
  },
  "2710091": {
    "zipcode": "2710091",
    "prefectureCode": "12",
    "prefectureNumber": 12,
    "prefecture": "千葉県",
    "city": "松戸市",
    "town": "本町"
  },
  "2710092": {
    "zipcode": "2710092",
    "prefectureCode": "12",
    "prefectureNumber": 12,
    "prefecture": "千葉県",
    "city": "松戸市",
    "town": "松戸"
  },
  "2710093": {
    "zipcode": "2710093",
    "prefectureCode": "12",
    "prefectureNumber": 12,
    "prefecture": "千葉県",
    "city": "松戸市",
    "town": "小山"
  },
  "2710094": {
    "zipcode": "2710094",
    "prefectureCode": "12",
    "prefectureNumber": 12,
    "prefecture": "千葉県",
    "city": "松戸市",
    "town": "上矢切"
  },
  "2710095": {
    "zipcode": "2710095",
    "prefectureCode": "12",
    "prefectureNumber": 12,
    "prefecture": "千葉県",
    "city": "松戸市",
    "town": "中矢切"
  },
  "2710096": {
    "zipcode": "2710096",
    "prefectureCode": "12",
    "prefectureNumber": 12,
    "prefecture": "千葉県",
    "city": "松戸市",
    "town": "下矢切"
  },
  "2710097": {
    "zipcode": "2710097",
    "prefectureCode": "12",
    "prefectureNumber": 12,
    "prefecture": "千葉県",
    "city": "松戸市",
    "town": "栗山"
  }
}
