{
  "2720000": {
    "zipcode": "2720000",
    "prefectureCode": "12",
    "prefectureNumber": 12,
    "prefecture": "千葉県",
    "city": "市川市",
    "town": "以下に掲載がない場合"
  },
  "2720001": {
    "zipcode": "2720001",
    "prefectureCode": "12",
    "prefectureNumber": 12,
    "prefecture": "千葉県",
    "city": "市川市",
    "town": "二俣"
  },
  "2720002": {
    "zipcode": "2720002",
    "prefectureCode": "12",
    "prefectureNumber": 12,
    "prefecture": "千葉県",
    "city": "市川市",
    "town": "二俣新町"
  },
  "2720003": {
    "zipcode": "2720003",
    "prefectureCode": "12",
    "prefectureNumber": 12,
    "prefecture": "千葉県",
    "city": "市川市",
    "town": "東浜"
  },
  "2720004": {
    "zipcode": "2720004",
    "prefectureCode": "12",
    "prefectureNumber": 12,
    "prefecture": "千葉県",
    "city": "市川市",
    "town": "原木"
  },
  "2720011": {
    "zipcode": "2720011",
    "prefectureCode": "12",
    "prefectureNumber": 12,
    "prefecture": "千葉県",
    "city": "市川市",
    "town": "高谷新町"
  },
  "2720012": {
    "zipcode": "2720012",
    "prefectureCode": "12",
    "prefectureNumber": 12,
    "prefecture": "千葉県",
    "city": "市川市",
    "town": "上妙典（その他）"
  },
  "2720013": {
    "zipcode": "2720013",
    "prefectureCode": "12",
    "prefectureNumber": 12,
    "prefecture": "千葉県",
    "city": "市川市",
    "town": "高谷"
  },
  "2720014": {
    "zipcode": "2720014",
    "prefectureCode": "12",
    "prefectureNumber": 12,
    "prefecture": "千葉県",
    "city": "市川市",
    "town": "田尻"
  },
  "2720015": {
    "zipcode": "2720015",
    "prefectureCode": "12",
    "prefectureNumber": 12,
    "prefecture": "千葉県",
    "city": "市川市",
    "town": "鬼高"
  },
  "2720021": {
    "zipcode": "2720021",
    "prefectureCode": "12",
    "prefectureNumber": 12,
    "prefecture": "千葉県",
    "city": "市川市",
    "town": "八幡"
  },
  "2720022": {
    "zipcode": "2720022",
    "prefectureCode": "12",
    "prefectureNumber": 12,
    "prefecture": "千葉県",
    "city": "市川市",
    "town": "鬼越"
  },
  "2720023": {
    "zipcode": "2720023",
    "prefectureCode": "12",
    "prefectureNumber": 12,
    "prefecture": "千葉県",
    "city": "市川市",
    "town": "南八幡"
  },
  "2720024": {
    "zipcode": "2720024",
    "prefectureCode": "12",
    "prefectureNumber": 12,
    "prefecture": "千葉県",
    "city": "市川市",
    "town": "稲荷木"
  },
  "2720025": {
    "zipcode": "2720025",
    "prefectureCode": "12",
    "prefectureNumber": 12,
    "prefecture": "千葉県",
    "city": "市川市",
    "town": "大和田"
  },
  "2720026": {
    "zipcode": "2720026",
    "prefectureCode": "12",
    "prefectureNumber": 12,
    "prefecture": "千葉県",
    "city": "市川市",
    "town": "東大和田"
  },
  "2720031": {
    "zipcode": "2720031",
    "prefectureCode": "12",
    "prefectureNumber": 12,
    "prefecture": "千葉県",
    "city": "市川市",
    "town": "平田"
  },
  "2720032": {
    "zipcode": "2720032",
    "prefectureCode": "12",
    "prefectureNumber": 12,
    "prefecture": "千葉県",
    "city": "市川市",
    "town": "大洲"
  },
  "2720033": {
    "zipcode": "2720033",
    "prefectureCode": "12",
    "prefectureNumber": 12,
    "prefecture": "千葉県",
    "city": "市川市",
    "town": "市川南"
  },
  "2720034": {
    "zipcode": "2720034",
    "prefectureCode": "12",
    "prefectureNumber": 12,
    "prefecture": "千葉県",
    "city": "市川市",
    "town": "市川"
  },
  "2720035": {
    "zipcode": "2720035",
    "prefectureCode": "12",
    "prefectureNumber": 12,
    "prefecture": "千葉県",
    "city": "市川市",
    "town": "新田"
  },
  "2720101": {
    "zipcode": "2720101",
    "prefectureCode": "12",
    "prefectureNumber": 12,
    "prefecture": "千葉県",
    "city": "市川市",
    "town": "河原"
  },
  "2720102": {
    "zipcode": "2720102",
    "prefectureCode": "12",
    "prefectureNumber": 12,
    "prefecture": "千葉県",
    "city": "市川市",
    "town": "下新宿"
  },
  "2720103": {
    "zipcode": "2720103",
    "prefectureCode": "12",
    "prefectureNumber": 12,
    "prefecture": "千葉県",
    "city": "市川市",
    "town": "本行徳"
  },
  "2720104": {
    "zipcode": "2720104",
    "prefectureCode": "12",
    "prefectureNumber": 12,
    "prefecture": "千葉県",
    "city": "市川市",
    "town": "本塩"
  },
  "2720105": {
    "zipcode": "2720105",
    "prefectureCode": "12",
    "prefectureNumber": 12,
    "prefecture": "千葉県",
    "city": "市川市",
    "town": "関ケ島"
  },
  "2720106": {
    "zipcode": "2720106",
    "prefectureCode": "12",
    "prefectureNumber": 12,
    "prefecture": "千葉県",
    "city": "市川市",
    "town": "伊勢宿"
  },
  "2720107": {
    "zipcode": "2720107",
    "prefectureCode": "12",
    "prefectureNumber": 12,
    "prefecture": "千葉県",
    "city": "市川市",
    "town": "押切"
  },
  "2720111": {
    "zipcode": "2720111",
    "prefectureCode": "12",
    "prefectureNumber": 12,
    "prefecture": "千葉県",
    "city": "市川市",
    "town": "妙典"
  },
  "2720112": {
    "zipcode": "2720112",
    "prefectureCode": "12",
    "prefectureNumber": 12,
    "prefecture": "千葉県",
    "city": "市川市",
    "town": "上妙典（１〜９９９番地）"
  },
  "2720113": {
    "zipcode": "2720113",
    "prefectureCode": "12",
    "prefectureNumber": 12,
    "prefecture": "千葉県",
    "city": "市川市",
    "town": "下妙典"
  },
  "2720114": {
    "zipcode": "2720114",
    "prefectureCode": "12",
    "prefectureNumber": 12,
    "prefecture": "千葉県",
    "city": "市川市",
    "town": "塩焼"
  },
  "2720115": {
    "zipcode": "2720115",
    "prefectureCode": "12",
    "prefectureNumber": 12,
    "prefecture": "千葉県",
    "city": "市川市",
    "town": "富浜"
  },
  "2720121": {
    "zipcode": "2720121",
    "prefectureCode": "12",
    "prefectureNumber": 12,
    "prefecture": "千葉県",
    "city": "市川市",
    "town": "末広"
  },
  "2720122": {
    "zipcode": "2720122",
    "prefectureCode": "12",
    "prefectureNumber": 12,
    "prefecture": "千葉県",
    "city": "市川市",
    "town": "宝"
  },
  "2720123": {
    "zipcode": "2720123",
    "prefectureCode": "12",
    "prefectureNumber": 12,
    "prefecture": "千葉県",
    "city": "市川市",
    "town": "幸"
  },
  "2720124": {
    "zipcode": "2720124",
    "prefectureCode": "12",
    "prefectureNumber": 12,
    "prefecture": "千葉県",
    "city": "市川市",
    "town": "加藤新田"
  },
  "2720125": {
    "zipcode": "2720125",
    "prefectureCode": "12",
    "prefectureNumber": 12,
    "prefecture": "千葉県",
    "city": "市川市",
    "town": "高浜町"
  },
  "2720126": {
    "zipcode": "2720126",
    "prefectureCode": "12",
    "prefectureNumber": 12,
    "prefecture": "千葉県",
    "city": "市川市",
    "town": "千鳥町"
  },
  "2720127": {
    "zipcode": "2720127",
    "prefectureCode": "12",
    "prefectureNumber": 12,
    "prefecture": "千葉県",
    "city": "市川市",
    "town": "塩浜"
  },
  "2720131": {
    "zipcode": "2720131",
    "prefectureCode": "12",
    "prefectureNumber": 12,
    "prefecture": "千葉県",
    "city": "市川市",
    "town": "湊"
  },
  "2720132": {
    "zipcode": "2720132",
    "prefectureCode": "12",
    "prefectureNumber": 12,
    "prefecture": "千葉県",
    "city": "市川市",
    "town": "湊新田"
  },
  "2720133": {
    "zipcode": "2720133",
    "prefectureCode": "12",
    "prefectureNumber": 12,
    "prefecture": "千葉県",
    "city": "市川市",
    "town": "行徳駅前"
  },
  "2720134": {
    "zipcode": "2720134",
    "prefectureCode": "12",
    "prefectureNumber": 12,
    "prefecture": "千葉県",
    "city": "市川市",
    "town": "入船"
  },
  "2720135": {
    "zipcode": "2720135",
    "prefectureCode": "12",
    "prefectureNumber": 12,
    "prefecture": "千葉県",
    "city": "市川市",
    "town": "日之出"
  },
  "2720136": {
    "zipcode": "2720136",
    "prefectureCode": "12",
    "prefectureNumber": 12,
    "prefecture": "千葉県",
    "city": "市川市",
    "town": "新浜"
  },
  "2720137": {
    "zipcode": "2720137",
    "prefectureCode": "12",
    "prefectureNumber": 12,
    "prefecture": "千葉県",
    "city": "市川市",
    "town": "福栄"
  },
  "2720138": {
    "zipcode": "2720138",
    "prefectureCode": "12",
    "prefectureNumber": 12,
    "prefecture": "千葉県",
    "city": "市川市",
    "town": "南行徳"
  },
  "2720141": {
    "zipcode": "2720141",
    "prefectureCode": "12",
    "prefectureNumber": 12,
    "prefecture": "千葉県",
    "city": "市川市",
    "town": "香取"
  },
  "2720142": {
    "zipcode": "2720142",
    "prefectureCode": "12",
    "prefectureNumber": 12,
    "prefecture": "千葉県",
    "city": "市川市",
    "town": "欠真間"
  },
  "2720143": {
    "zipcode": "2720143",
    "prefectureCode": "12",
    "prefectureNumber": 12,
    "prefecture": "千葉県",
    "city": "市川市",
    "town": "相之川"
  },
  "2720144": {
    "zipcode": "2720144",
    "prefectureCode": "12",
    "prefectureNumber": 12,
    "prefecture": "千葉県",
    "city": "市川市",
    "town": "新井"
  },
  "2720145": {
    "zipcode": "2720145",
    "prefectureCode": "12",
    "prefectureNumber": 12,
    "prefecture": "千葉県",
    "city": "市川市",
    "town": "島尻"
  },
  "2720146": {
    "zipcode": "2720146",
    "prefectureCode": "12",
    "prefectureNumber": 12,
    "prefecture": "千葉県",
    "city": "市川市",
    "town": "広尾"
  },
  "2720801": {
    "zipcode": "2720801",
    "prefectureCode": "12",
    "prefectureNumber": 12,
    "prefecture": "千葉県",
    "city": "市川市",
    "town": "大町"
  },
  "2720802": {
    "zipcode": "2720802",
    "prefectureCode": "12",
    "prefectureNumber": 12,
    "prefecture": "千葉県",
    "city": "市川市",
    "town": "柏井町"
  },
  "2720803": {
    "zipcode": "2720803",
    "prefectureCode": "12",
    "prefectureNumber": 12,
    "prefecture": "千葉県",
    "city": "市川市",
    "town": "奉免町"
  },
  "2720804": {
    "zipcode": "2720804",
    "prefectureCode": "12",
    "prefectureNumber": 12,
    "prefecture": "千葉県",
    "city": "市川市",
    "town": "南大野"
  },
  "2720805": {
    "zipcode": "2720805",
    "prefectureCode": "12",
    "prefectureNumber": 12,
    "prefecture": "千葉県",
    "city": "市川市",
    "town": "大野町"
  },
  "2720811": {
    "zipcode": "2720811",
    "prefectureCode": "12",
    "prefectureNumber": 12,
    "prefecture": "千葉県",
    "city": "市川市",
    "town": "北方町"
  },
  "2720812": {
    "zipcode": "2720812",
    "prefectureCode": "12",
    "prefectureNumber": 12,
    "prefecture": "千葉県",
    "city": "市川市",
    "town": "若宮"
  },
  "2720813": {
    "zipcode": "2720813",
    "prefectureCode": "12",
    "prefectureNumber": 12,
    "prefecture": "千葉県",
    "city": "市川市",
    "town": "中山"
  },
  "2720814": {
    "zipcode": "2720814",
    "prefectureCode": "12",
    "prefectureNumber": 12,
    "prefecture": "千葉県",
    "city": "市川市",
    "town": "高石神"
  },
  "2720815": {
    "zipcode": "2720815",
    "prefectureCode": "12",
    "prefectureNumber": 12,
    "prefecture": "千葉県",
    "city": "市川市",
    "town": "北方"
  },
  "2720816": {
    "zipcode": "2720816",
    "prefectureCode": "12",
    "prefectureNumber": 12,
    "prefecture": "千葉県",
    "city": "市川市",
    "town": "本北方"
  },
  "2720821": {
    "zipcode": "2720821",
    "prefectureCode": "12",
    "prefectureNumber": 12,
    "prefecture": "千葉県",
    "city": "市川市",
    "town": "下貝塚"
  },
  "2720822": {
    "zipcode": "2720822",
    "prefectureCode": "12",
    "prefectureNumber": 12,
    "prefecture": "千葉県",
    "city": "市川市",
    "town": "宮久保"
  },
  "2720823": {
    "zipcode": "2720823",
    "prefectureCode": "12",
    "prefectureNumber": 12,
    "prefecture": "千葉県",
    "city": "市川市",
    "town": "東菅野"
  },
  "2720824": {
    "zipcode": "2720824",
    "prefectureCode": "12",
    "prefectureNumber": 12,
    "prefecture": "千葉県",
    "city": "市川市",
    "town": "菅野"
  },
  "2720825": {
    "zipcode": "2720825",
    "prefectureCode": "12",
    "prefectureNumber": 12,
    "prefecture": "千葉県",
    "city": "市川市",
    "town": "須和田"
  },
  "2720826": {
    "zipcode": "2720826",
    "prefectureCode": "12",
    "prefectureNumber": 12,
    "prefecture": "千葉県",
    "city": "市川市",
    "town": "真間"
  },
  "2720827": {
    "zipcode": "2720827",
    "prefectureCode": "12",
    "prefectureNumber": 12,
    "prefecture": "千葉県",
    "city": "市川市",
    "town": "国府台"
  },
  "2720831": {
    "zipcode": "2720831",
    "prefectureCode": "12",
    "prefectureNumber": 12,
    "prefecture": "千葉県",
    "city": "市川市",
    "town": "稲越"
  },
  "2720832": {
    "zipcode": "2720832",
    "prefectureCode": "12",
    "prefectureNumber": 12,
    "prefecture": "千葉県",
    "city": "市川市",
    "town": "曽谷"
  },
  "2720833": {
    "zipcode": "2720833",
    "prefectureCode": "12",
    "prefectureNumber": 12,
    "prefecture": "千葉県",
    "city": "市川市",
    "town": "東国分"
  },
  "2720834": {
    "zipcode": "2720834",
    "prefectureCode": "12",
    "prefectureNumber": 12,
    "prefecture": "千葉県",
    "city": "市川市",
    "town": "国分"
  },
  "2720835": {
    "zipcode": "2720835",
    "prefectureCode": "12",
    "prefectureNumber": 12,
    "prefecture": "千葉県",
    "city": "市川市",
    "town": "中国分"
  },
  "2720836": {
    "zipcode": "2720836",
    "prefectureCode": "12",
    "prefectureNumber": 12,
    "prefecture": "千葉県",
    "city": "市川市",
    "town": "北国分"
  },
  "2720837": {
    "zipcode": "2720837",
    "prefectureCode": "12",
    "prefectureNumber": 12,
    "prefecture": "千葉県",
    "city": "市川市",
    "town": "堀之内"
  }
}
