{
  "2740051": {
    "zipcode": "2740051",
    "prefectureCode": "12",
    "prefectureNumber": 12,
    "prefecture": "千葉県",
    "city": "船橋市",
    "town": "車方町"
  },
  "2740052": {
    "zipcode": "2740052",
    "prefectureCode": "12",
    "prefectureNumber": 12,
    "prefecture": "千葉県",
    "city": "船橋市",
    "town": "鈴身町"
  },
  "2740053": {
    "zipcode": "2740053",
    "prefectureCode": "12",
    "prefectureNumber": 12,
    "prefecture": "千葉県",
    "city": "船橋市",
    "town": "豊富町"
  },
  "2740054": {
    "zipcode": "2740054",
    "prefectureCode": "12",
    "prefectureNumber": 12,
    "prefecture": "千葉県",
    "city": "船橋市",
    "town": "金堀町"
  },
  "2740055": {
    "zipcode": "2740055",
    "prefectureCode": "12",
    "prefectureNumber": 12,
    "prefecture": "千葉県",
    "city": "船橋市",
    "town": "楠が山町"
  },
  "2740056": {
    "zipcode": "2740056",
    "prefectureCode": "12",
    "prefectureNumber": 12,
    "prefecture": "千葉県",
    "city": "船橋市",
    "town": "神保町"
  },
  "2740060": {
    "zipcode": "2740060",
    "prefectureCode": "12",
    "prefectureNumber": 12,
    "prefecture": "千葉県",
    "city": "船橋市",
    "town": "坪井東"
  },
  "2740061": {
    "zipcode": "2740061",
    "prefectureCode": "12",
    "prefectureNumber": 12,
    "prefecture": "千葉県",
    "city": "船橋市",
    "town": "古和釜町"
  },
  "2740062": {
    "zipcode": "2740062",
    "prefectureCode": "12",
    "prefectureNumber": 12,
    "prefecture": "千葉県",
    "city": "船橋市",
    "town": "坪井町"
  },
  "2740063": {
    "zipcode": "2740063",
    "prefectureCode": "12",
    "prefectureNumber": 12,
    "prefecture": "千葉県",
    "city": "船橋市",
    "town": "習志野台"
  },
  "2740064": {
    "zipcode": "2740064",
    "prefectureCode": "12",
    "prefectureNumber": 12,
    "prefecture": "千葉県",
    "city": "船橋市",
    "town": "松が丘"
  },
  "2740065": {
    "zipcode": "2740065",
    "prefectureCode": "12",
    "prefectureNumber": 12,
    "prefecture": "千葉県",
    "city": "船橋市",
    "town": "高根台"
  },
  "2740066": {
    "zipcode": "2740066",
    "prefectureCode": "12",
    "prefectureNumber": 12,
    "prefecture": "千葉県",
    "city": "船橋市",
    "town": "大穴町"
  },
  "2740067": {
    "zipcode": "2740067",
    "prefectureCode": "12",
    "prefectureNumber": 12,
    "prefecture": "千葉県",
    "city": "船橋市",
    "town": "大穴南"
  },
  "2740068": {
    "zipcode": "2740068",
    "prefectureCode": "12",
    "prefectureNumber": 12,
    "prefecture": "千葉県",
    "city": "船橋市",
    "town": "大穴北"
  },
  "2740069": {
    "zipcode": "2740069",
    "prefectureCode": "12",
    "prefectureNumber": 12,
    "prefecture": "千葉県",
    "city": "船橋市",
    "town": "坪井西"
  },
  "2740071": {
    "zipcode": "2740071",
    "prefectureCode": "12",
    "prefectureNumber": 12,
    "prefecture": "千葉県",
    "city": "船橋市",
    "town": "習志野"
  },
  "2740072": {
    "zipcode": "2740072",
    "prefectureCode": "12",
    "prefectureNumber": 12,
    "prefecture": "千葉県",
    "city": "船橋市",
    "town": "三山"
  },
  "2740073": {
    "zipcode": "2740073",
    "prefectureCode": "12",
    "prefectureNumber": 12,
    "prefecture": "千葉県",
    "city": "船橋市",
    "town": "田喜野井"
  },
  "2740074": {
    "zipcode": "2740074",
    "prefectureCode": "12",
    "prefectureNumber": 12,
    "prefecture": "千葉県",
    "city": "船橋市",
    "town": "滝台"
  },
  "2740075": {
    "zipcode": "2740075",
    "prefectureCode": "12",
    "prefectureNumber": 12,
    "prefecture": "千葉県",
    "city": "船橋市",
    "town": "滝台町"
  },
  "2740076": {
    "zipcode": "2740076",
    "prefectureCode": "12",
    "prefectureNumber": 12,
    "prefecture": "千葉県",
    "city": "船橋市",
    "town": "薬園台町"
  },
  "2740077": {
    "zipcode": "2740077",
    "prefectureCode": "12",
    "prefectureNumber": 12,
    "prefecture": "千葉県",
    "city": "船橋市",
    "town": "薬円台"
  },
  "2740081": {
    "zipcode": "2740081",
    "prefectureCode": "12",
    "prefectureNumber": 12,
    "prefecture": "千葉県",
    "city": "船橋市",
    "town": "小野田町"
  },
  "2740082": {
    "zipcode": "2740082",
    "prefectureCode": "12",
    "prefectureNumber": 12,
    "prefecture": "千葉県",
    "city": "船橋市",
    "town": "大神保町"
  },
  "2740801": {
    "zipcode": "2740801",
    "prefectureCode": "12",
    "prefectureNumber": 12,
    "prefecture": "千葉県",
    "city": "船橋市",
    "town": "高野台"
  },
  "2740802": {
    "zipcode": "2740802",
    "prefectureCode": "12",
    "prefectureNumber": 12,
    "prefecture": "千葉県",
    "city": "船橋市",
    "town": "八木が谷"
  },
  "2740803": {
    "zipcode": "2740803",
    "prefectureCode": "12",
    "prefectureNumber": 12,
    "prefecture": "千葉県",
    "city": "船橋市",
    "town": "八木が谷町"
  },
  "2740804": {
    "zipcode": "2740804",
    "prefectureCode": "12",
    "prefectureNumber": 12,
    "prefecture": "千葉県",
    "city": "船橋市",
    "town": "みやぎ台"
  },
  "2740805": {
    "zipcode": "2740805",
    "prefectureCode": "12",
    "prefectureNumber": 12,
    "prefecture": "千葉県",
    "city": "船橋市",
    "town": "二和東"
  },
  "2740806": {
    "zipcode": "2740806",
    "prefectureCode": "12",
    "prefectureNumber": 12,
    "prefecture": "千葉県",
    "city": "船橋市",
    "town": "二和西"
  },
  "2740807": {
    "zipcode": "2740807",
    "prefectureCode": "12",
    "prefectureNumber": 12,
    "prefecture": "千葉県",
    "city": "船橋市",
    "town": "咲が丘"
  },
  "2740811": {
    "zipcode": "2740811",
    "prefectureCode": "12",
    "prefectureNumber": 12,
    "prefecture": "千葉県",
    "city": "船橋市",
    "town": "三咲町"
  },
  "2740812": {
    "zipcode": "2740812",
    "prefectureCode": "12",
    "prefectureNumber": 12,
    "prefecture": "千葉県",
    "city": "船橋市",
    "town": "三咲"
  },
  "2740813": {
    "zipcode": "2740813",
    "prefectureCode": "12",
    "prefectureNumber": 12,
    "prefecture": "千葉県",
    "city": "船橋市",
    "town": "南三咲"
  },
  "2740814": {
    "zipcode": "2740814",
    "prefectureCode": "12",
    "prefectureNumber": 12,
    "prefecture": "千葉県",
    "city": "船橋市",
    "town": "新高根"
  },
  "2740815": {
    "zipcode": "2740815",
    "prefectureCode": "12",
    "prefectureNumber": 12,
    "prefecture": "千葉県",
    "city": "船橋市",
    "town": "西習志野"
  },
  "2740816": {
    "zipcode": "2740816",
    "prefectureCode": "12",
    "prefectureNumber": 12,
    "prefecture": "千葉県",
    "city": "船橋市",
    "town": "芝山"
  },
  "2740817": {
    "zipcode": "2740817",
    "prefectureCode": "12",
    "prefectureNumber": 12,
    "prefecture": "千葉県",
    "city": "船橋市",
    "town": "高根町"
  },
  "2740818": {
    "zipcode": "2740818",
    "prefectureCode": "12",
    "prefectureNumber": 12,
    "prefecture": "千葉県",
    "city": "船橋市",
    "town": "緑台"
  },
  "2740821": {
    "zipcode": "2740821",
    "prefectureCode": "12",
    "prefectureNumber": 12,
    "prefecture": "千葉県",
    "city": "船橋市",
    "town": "七林町"
  },
  "2740822": {
    "zipcode": "2740822",
    "prefectureCode": "12",
    "prefectureNumber": 12,
    "prefecture": "千葉県",
    "city": "船橋市",
    "town": "飯山満町"
  },
  "2740823": {
    "zipcode": "2740823",
    "prefectureCode": "12",
    "prefectureNumber": 12,
    "prefecture": "千葉県",
    "city": "船橋市",
    "town": "二宮"
  },
  "2740824": {
    "zipcode": "2740824",
    "prefectureCode": "12",
    "prefectureNumber": 12,
    "prefecture": "千葉県",
    "city": "船橋市",
    "town": "前原東"
  },
  "2740825": {
    "zipcode": "2740825",
    "prefectureCode": "12",
    "prefectureNumber": 12,
    "prefecture": "千葉県",
    "city": "船橋市",
    "town": "前原西"
  },
  "2740826": {
    "zipcode": "2740826",
    "prefectureCode": "12",
    "prefectureNumber": 12,
    "prefecture": "千葉県",
    "city": "船橋市",
    "town": "中野木"
  }
}
