{
  "2750000": {
    "zipcode": "2750000",
    "prefectureCode": "12",
    "prefectureNumber": 12,
    "prefecture": "千葉県",
    "city": "習志野市",
    "town": "以下に掲載がない場合"
  },
  "2750001": {
    "zipcode": "2750001",
    "prefectureCode": "12",
    "prefectureNumber": 12,
    "prefecture": "千葉県",
    "city": "習志野市",
    "town": "東習志野"
  },
  "2750002": {
    "zipcode": "2750002",
    "prefectureCode": "12",
    "prefectureNumber": 12,
    "prefecture": "千葉県",
    "city": "習志野市",
    "town": "実籾"
  },
  "2750003": {
    "zipcode": "2750003",
    "prefectureCode": "12",
    "prefectureNumber": 12,
    "prefecture": "千葉県",
    "city": "習志野市",
    "town": "実籾本郷"
  },
  "2750004": {
    "zipcode": "2750004",
    "prefectureCode": "12",
    "prefectureNumber": 12,
    "prefecture": "千葉県",
    "city": "習志野市",
    "town": "屋敷"
  },
  "2750005": {
    "zipcode": "2750005",
    "prefectureCode": "12",
    "prefectureNumber": 12,
    "prefecture": "千葉県",
    "city": "習志野市",
    "town": "新栄"
  },
  "2750006": {
    "zipcode": "2750006",
    "prefectureCode": "12",
    "prefectureNumber": 12,
    "prefecture": "千葉県",
    "city": "習志野市",
    "town": "泉町"
  },
  "2750011": {
    "zipcode": "2750011",
    "prefectureCode": "12",
    "prefectureNumber": 12,
    "prefecture": "千葉県",
    "city": "習志野市",
    "town": "大久保"
  },
  "2750012": {
    "zipcode": "2750012",
    "prefectureCode": "12",
    "prefectureNumber": 12,
    "prefecture": "千葉県",
    "city": "習志野市",
    "town": "本大久保"
  },
  "2750013": {
    "zipcode": "2750013",
    "prefectureCode": "12",
    "prefectureNumber": 12,
    "prefecture": "千葉県",
    "city": "習志野市",
    "town": "花咲"
  },
  "2750014": {
    "zipcode": "2750014",
    "prefectureCode": "12",
    "prefectureNumber": 12,
    "prefecture": "千葉県",
    "city": "習志野市",
    "town": "鷺沼"
  },
  "2750015": {
    "zipcode": "2750015",
    "prefectureCode": "12",
    "prefectureNumber": 12,
    "prefecture": "千葉県",
    "city": "習志野市",
    "town": "鷺沼台"
  },
  "2750016": {
    "zipcode": "2750016",
    "prefectureCode": "12",
    "prefectureNumber": 12,
    "prefecture": "千葉県",
    "city": "習志野市",
    "town": "津田沼"
  },
  "2750017": {
    "zipcode": "2750017",
    "prefectureCode": "12",
    "prefectureNumber": 12,
    "prefecture": "千葉県",
    "city": "習志野市",
    "town": "藤崎"
  },
  "2750021": {
    "zipcode": "2750021",
    "prefectureCode": "12",
    "prefectureNumber": 12,
    "prefecture": "千葉県",
    "city": "習志野市",
    "town": "袖ケ浦"
  },
  "2750022": {
    "zipcode": "2750022",
    "prefectureCode": "12",
    "prefectureNumber": 12,
    "prefecture": "千葉県",
    "city": "習志野市",
    "town": "香澄"
  },
  "2750023": {
    "zipcode": "2750023",
    "prefectureCode": "12",
    "prefectureNumber": 12,
    "prefecture": "千葉県",
    "city": "習志野市",
    "town": "芝園"
  },
  "2750024": {
    "zipcode": "2750024",
    "prefectureCode": "12",
    "prefectureNumber": 12,
    "prefecture": "千葉県",
    "city": "習志野市",
    "town": "茜浜"
  },
  "2750025": {
    "zipcode": "2750025",
    "prefectureCode": "12",
    "prefectureNumber": 12,
    "prefecture": "千葉県",
    "city": "習志野市",
    "town": "秋津"
  },
  "2750026": {
    "zipcode": "2750026",
    "prefectureCode": "12",
    "prefectureNumber": 12,
    "prefecture": "千葉県",
    "city": "習志野市",
    "town": "谷津"
  },
  "2750027": {
    "zipcode": "2750027",
    "prefectureCode": "12",
    "prefectureNumber": 12,
    "prefecture": "千葉県",
    "city": "習志野市",
    "town": "谷津町"
  },
  "2750028": {
    "zipcode": "2750028",
    "prefectureCode": "12",
    "prefectureNumber": 12,
    "prefecture": "千葉県",
    "city": "習志野市",
    "town": "奏の杜"
  }
}
