{
  "2770000": {
    "zipcode": "2770000",
    "prefectureCode": "12",
    "prefectureNumber": 12,
    "prefecture": "千葉県",
    "city": "柏市",
    "town": "以下に掲載がない場合"
  },
  "2770001": {
    "zipcode": "2770001",
    "prefectureCode": "12",
    "prefectureNumber": 12,
    "prefecture": "千葉県",
    "city": "柏市",
    "town": "呼塚新田"
  },
  "2770002": {
    "zipcode": "2770002",
    "prefectureCode": "12",
    "prefectureNumber": 12,
    "prefecture": "千葉県",
    "city": "柏市",
    "town": "呼塚"
  },
  "2770003": {
    "zipcode": "2770003",
    "prefectureCode": "12",
    "prefectureNumber": 12,
    "prefecture": "千葉県",
    "city": "柏市",
    "town": "柏堀之内新田"
  },
  "2770004": {
    "zipcode": "2770004",
    "prefectureCode": "12",
    "prefectureNumber": 12,
    "prefecture": "千葉県",
    "city": "柏市",
    "town": "柏下"
  },
  "2770005": {
    "zipcode": "2770005",
    "prefectureCode": "12",
    "prefectureNumber": 12,
    "prefecture": "千葉県",
    "city": "柏市",
    "town": "柏"
  },
  "2770006": {
    "zipcode": "2770006",
    "prefectureCode": "12",
    "prefectureNumber": 12,
    "prefecture": "千葉県",
    "city": "柏市",
    "town": "柏中村下"
  },
  "2770007": {
    "zipcode": "2770007",
    "prefectureCode": "12",
    "prefectureNumber": 12,
    "prefecture": "千葉県",
    "city": "柏市",
    "town": "戸張新田"
  },
  "2770008": {
    "zipcode": "2770008",
    "prefectureCode": "12",
    "prefectureNumber": 12,
    "prefecture": "千葉県",
    "city": "柏市",
    "town": "戸張"
  },
  "2770011": {
    "zipcode": "2770011",
    "prefectureCode": "12",
    "prefectureNumber": 12,
    "prefecture": "千葉県",
    "city": "柏市",
    "town": "東上町"
  },
  "2770012": {
    "zipcode": "2770012",
    "prefectureCode": "12",
    "prefectureNumber": 12,
    "prefecture": "千葉県",
    "city": "柏市",
    "town": "桜台"
  },
  "2770013": {
    "zipcode": "2770013",
    "prefectureCode": "12",
    "prefectureNumber": 12,
    "prefecture": "千葉県",
    "city": "柏市",
    "town": "東台本町"
  },
  "2770014": {
    "zipcode": "2770014",
    "prefectureCode": "12",
    "prefectureNumber": 12,
    "prefecture": "千葉県",
    "city": "柏市",
    "town": "東"
  },
  "2770015": {
    "zipcode": "2770015",
    "prefectureCode": "12",
    "prefectureNumber": 12,
    "prefecture": "千葉県",
    "city": "柏市",
    "town": "弥生町"
  },
  "2770016": {
    "zipcode": "2770016",
    "prefectureCode": "12",
    "prefectureNumber": 12,
    "prefecture": "千葉県",
    "city": "柏市",
    "town": "八幡町"
  },
  "2770017": {
    "zipcode": "2770017",
    "prefectureCode": "12",
    "prefectureNumber": 12,
    "prefecture": "千葉県",
    "city": "柏市",
    "town": "東柏"
  },
  "2770021": {
    "zipcode": "2770021",
    "prefectureCode": "12",
    "prefectureNumber": 12,
    "prefecture": "千葉県",
    "city": "柏市",
    "town": "中央町"
  },
  "2770022": {
    "zipcode": "2770022",
    "prefectureCode": "12",
    "prefectureNumber": 12,
    "prefecture": "千葉県",
    "city": "柏市",
    "town": "泉町"
  },
  "2770023": {
    "zipcode": "2770023",
    "prefectureCode": "12",
    "prefectureNumber": 12,
    "prefecture": "千葉県",
    "city": "柏市",
    "town": "中央"
  },
  "2770024": {
    "zipcode": "2770024",
    "prefectureCode": "12",
    "prefectureNumber": 12,
    "prefecture": "千葉県",
    "city": "柏市",
    "town": "若葉町"
  },
  "2770025": {
    "zipcode": "2770025",
    "prefectureCode": "12",
    "prefectureNumber": 12,
    "prefecture": "千葉県",
    "city": "柏市",
    "town": "千代田"
  },
  "2770026": {
    "zipcode": "2770026",
    "prefectureCode": "12",
    "prefectureNumber": 12,
    "prefecture": "千葉県",
    "city": "柏市",
    "town": "大塚町"
  },
  "2770027": {
    "zipcode": "2770027",
    "prefectureCode": "12",
    "prefectureNumber": 12,
    "prefecture": "千葉県",
    "city": "柏市",
    "town": "あかね町"
  },
  "2770028": {
    "zipcode": "2770028",
    "prefectureCode": "12",
    "prefectureNumber": 12,
    "prefecture": "千葉県",
    "city": "柏市",
    "town": "関場町"
  },
  "2770031": {
    "zipcode": "2770031",
    "prefectureCode": "12",
    "prefectureNumber": 12,
    "prefecture": "千葉県",
    "city": "柏市",
    "town": "亀甲台町"
  },
  "2770032": {
    "zipcode": "2770032",
    "prefectureCode": "12",
    "prefectureNumber": 12,
    "prefecture": "千葉県",
    "city": "柏市",
    "town": "名戸ケ谷"
  },
  "2770033": {
    "zipcode": "2770033",
    "prefectureCode": "12",
    "prefectureNumber": 12,
    "prefecture": "千葉県",
    "city": "柏市",
    "town": "増尾"
  },
  "2770034": {
    "zipcode": "2770034",
    "prefectureCode": "12",
    "prefectureNumber": 12,
    "prefecture": "千葉県",
    "city": "柏市",
    "town": "藤心"
  },
  "2770041": {
    "zipcode": "2770041",
    "prefectureCode": "12",
    "prefectureNumber": 12,
    "prefecture": "千葉県",
    "city": "柏市",
    "town": "逆井藤ノ台"
  },
  "2770042": {
    "zipcode": "2770042",
    "prefectureCode": "12",
    "prefectureNumber": 12,
    "prefecture": "千葉県",
    "city": "柏市",
    "town": "逆井"
  },
  "2770043": {
    "zipcode": "2770043",
    "prefectureCode": "12",
    "prefectureNumber": 12,
    "prefecture": "千葉県",
    "city": "柏市",
    "town": "南逆井"
  },
  "2770044": {
    "zipcode": "2770044",
    "prefectureCode": "12",
    "prefectureNumber": 12,
    "prefecture": "千葉県",
    "city": "柏市",
    "town": "新逆井"
  },
  "2770045": {
    "zipcode": "2770045",
    "prefectureCode": "12",
    "prefectureNumber": 12,
    "prefecture": "千葉県",
    "city": "柏市",
    "town": "東逆井"
  },
  "2770051": {
    "zipcode": "2770051",
    "prefectureCode": "12",
    "prefectureNumber": 12,
    "prefecture": "千葉県",
    "city": "柏市",
    "town": "加賀"
  },
  "2770052": {
    "zipcode": "2770052",
    "prefectureCode": "12",
    "prefectureNumber": 12,
    "prefecture": "千葉県",
    "city": "柏市",
    "town": "増尾台"
  },
  "2770053": {
    "zipcode": "2770053",
    "prefectureCode": "12",
    "prefectureNumber": 12,
    "prefecture": "千葉県",
    "city": "柏市",
    "town": "酒井根"
  },
  "2770054": {
    "zipcode": "2770054",
    "prefectureCode": "12",
    "prefectureNumber": 12,
    "prefecture": "千葉県",
    "city": "柏市",
    "town": "南増尾"
  },
  "2770055": {
    "zipcode": "2770055",
    "prefectureCode": "12",
    "prefectureNumber": 12,
    "prefecture": "千葉県",
    "city": "柏市",
    "town": "青葉台"
  },
  "2770061": {
    "zipcode": "2770061",
    "prefectureCode": "12",
    "prefectureNumber": 12,
    "prefecture": "千葉県",
    "city": "柏市",
    "town": "東中新宿"
  },
  "2770062": {
    "zipcode": "2770062",
    "prefectureCode": "12",
    "prefectureNumber": 12,
    "prefecture": "千葉県",
    "city": "柏市",
    "town": "光ケ丘団地"
  },
  "2770063": {
    "zipcode": "2770063",
    "prefectureCode": "12",
    "prefectureNumber": 12,
    "prefecture": "千葉県",
    "city": "柏市",
    "town": "西山"
  },
  "2770064": {
    "zipcode": "2770064",
    "prefectureCode": "12",
    "prefectureNumber": 12,
    "prefecture": "千葉県",
    "city": "柏市",
    "town": "東山"
  },
  "2770065": {
    "zipcode": "2770065",
    "prefectureCode": "12",
    "prefectureNumber": 12,
    "prefecture": "千葉県",
    "city": "柏市",
    "town": "光ケ丘"
  },
  "2770066": {
    "zipcode": "2770066",
    "prefectureCode": "12",
    "prefectureNumber": 12,
    "prefecture": "千葉県",
    "city": "柏市",
    "town": "中新宿"
  },
  "2770071": {
    "zipcode": "2770071",
    "prefectureCode": "12",
    "prefectureNumber": 12,
    "prefecture": "千葉県",
    "city": "柏市",
    "town": "豊住"
  },
  "2770072": {
    "zipcode": "2770072",
    "prefectureCode": "12",
    "prefectureNumber": 12,
    "prefecture": "千葉県",
    "city": "柏市",
    "town": "つくしが丘"
  },
  "2770073": {
    "zipcode": "2770073",
    "prefectureCode": "12",
    "prefectureNumber": 12,
    "prefecture": "千葉県",
    "city": "柏市",
    "town": "今谷南町"
  },
  "2770074": {
    "zipcode": "2770074",
    "prefectureCode": "12",
    "prefectureNumber": 12,
    "prefecture": "千葉県",
    "city": "柏市",
    "town": "今谷上町"
  },
  "2770075": {
    "zipcode": "2770075",
    "prefectureCode": "12",
    "prefectureNumber": 12,
    "prefecture": "千葉県",
    "city": "柏市",
    "town": "南柏中央"
  },
  "2770081": {
    "zipcode": "2770081",
    "prefectureCode": "12",
    "prefectureNumber": 12,
    "prefecture": "千葉県",
    "city": "柏市",
    "town": "富里"
  },
  "2770082": {
    "zipcode": "2770082",
    "prefectureCode": "12",
    "prefectureNumber": 12,
    "prefecture": "千葉県",
    "city": "柏市",
    "town": "緑ケ丘"
  },
  "2770083": {
    "zipcode": "2770083",
    "prefectureCode": "12",
    "prefectureNumber": 12,
    "prefecture": "千葉県",
    "city": "柏市",
    "town": "日立台"
  },
  "2770084": {
    "zipcode": "2770084",
    "prefectureCode": "12",
    "prefectureNumber": 12,
    "prefecture": "千葉県",
    "city": "柏市",
    "town": "新柏"
  },
  "2770085": {
    "zipcode": "2770085",
    "prefectureCode": "12",
    "prefectureNumber": 12,
    "prefecture": "千葉県",
    "city": "柏市",
    "town": "中原"
  },
  "2770086": {
    "zipcode": "2770086",
    "prefectureCode": "12",
    "prefectureNumber": 12,
    "prefecture": "千葉県",
    "city": "柏市",
    "town": "永楽台"
  },
  "2770087": {
    "zipcode": "2770087",
    "prefectureCode": "12",
    "prefectureNumber": 12,
    "prefecture": "千葉県",
    "city": "柏市",
    "town": "常盤台"
  },
  "2770088": {
    "zipcode": "2770088",
    "prefectureCode": "12",
    "prefectureNumber": 12,
    "prefecture": "千葉県",
    "city": "柏市",
    "town": "ひばりが丘"
  },
  "2770801": {
    "zipcode": "2770801",
    "prefectureCode": "12",
    "prefectureNumber": 12,
    "prefecture": "千葉県",
    "city": "柏市",
    "town": "船戸山高野"
  },
  "2770802": {
    "zipcode": "2770802",
    "prefectureCode": "12",
    "prefectureNumber": 12,
    "prefecture": "千葉県",
    "city": "柏市",
    "town": "船戸"
  },
  "2770803": {
    "zipcode": "2770803",
    "prefectureCode": "12",
    "prefectureNumber": 12,
    "prefecture": "千葉県",
    "city": "柏市",
    "town": "小青田"
  },
  "2770804": {
    "zipcode": "2770804",
    "prefectureCode": "12",
    "prefectureNumber": 12,
    "prefecture": "千葉県",
    "city": "柏市",
    "town": "新十余二"
  },
  "2770805": {
    "zipcode": "2770805",
    "prefectureCode": "12",
    "prefectureNumber": 12,
    "prefecture": "千葉県",
    "city": "柏市",
    "town": "大青田"
  },
  "2770806": {
    "zipcode": "2770806",
    "prefectureCode": "12",
    "prefectureNumber": 12,
    "prefecture": "千葉県",
    "city": "柏市",
    "town": "柏インター東"
  },
  "2770811": {
    "zipcode": "2770811",
    "prefectureCode": "12",
    "prefectureNumber": 12,
    "prefecture": "千葉県",
    "city": "柏市",
    "town": "上利根"
  },
  "2770812": {
    "zipcode": "2770812",
    "prefectureCode": "12",
    "prefectureNumber": 12,
    "prefecture": "千葉県",
    "city": "柏市",
    "town": "花野井"
  },
  "2770813": {
    "zipcode": "2770813",
    "prefectureCode": "12",
    "prefectureNumber": 12,
    "prefecture": "千葉県",
    "city": "柏市",
    "town": "大室"
  },
  "2770814": {
    "zipcode": "2770814",
    "prefectureCode": "12",
    "prefectureNumber": 12,
    "prefecture": "千葉県",
    "city": "柏市",
    "town": "正連寺"
  },
  "2770821": {
    "zipcode": "2770821",
    "prefectureCode": "12",
    "prefectureNumber": 12,
    "prefecture": "千葉県",
    "city": "柏市",
    "town": "弁天下"
  },
  "2770822": {
    "zipcode": "2770822",
    "prefectureCode": "12",
    "prefectureNumber": 12,
    "prefecture": "千葉県",
    "city": "柏市",
    "town": "布施下"
  },
  "2770823": {
    "zipcode": "2770823",
    "prefectureCode": "12",
    "prefectureNumber": 12,
    "prefecture": "千葉県",
    "city": "柏市",
    "town": "布施新町"
  },
  "2770824": {
    "zipcode": "2770824",
    "prefectureCode": "12",
    "prefectureNumber": 12,
    "prefecture": "千葉県",
    "city": "柏市",
    "town": "布施新田"
  },
  "2770825": {
    "zipcode": "2770825",
    "prefectureCode": "12",
    "prefectureNumber": 12,
    "prefecture": "千葉県",
    "city": "柏市",
    "town": "布施"
  },
  "2770826": {
    "zipcode": "2770826",
    "prefectureCode": "12",
    "prefectureNumber": 12,
    "prefecture": "千葉県",
    "city": "柏市",
    "town": "宿連寺"
  },
  "2770827": {
    "zipcode": "2770827",
    "prefectureCode": "12",
    "prefectureNumber": 12,
    "prefecture": "千葉県",
    "city": "柏市",
    "town": "松葉町"
  },
  "2770831": {
    "zipcode": "2770831",
    "prefectureCode": "12",
    "prefectureNumber": 12,
    "prefecture": "千葉県",
    "city": "柏市",
    "town": "根戸"
  },
  "2770832": {
    "zipcode": "2770832",
    "prefectureCode": "12",
    "prefectureNumber": 12,
    "prefecture": "千葉県",
    "city": "柏市",
    "town": "北柏"
  },
  "2770833": {
    "zipcode": "2770833",
    "prefectureCode": "12",
    "prefectureNumber": 12,
    "prefecture": "千葉県",
    "city": "柏市",
    "town": "根戸新田"
  },
  "2770834": {
    "zipcode": "2770834",
    "prefectureCode": "12",
    "prefectureNumber": 12,
    "prefecture": "千葉県",
    "city": "柏市",
    "town": "松ケ崎新田"
  },
  "2770835": {
    "zipcode": "2770835",
    "prefectureCode": "12",
    "prefectureNumber": 12,
    "prefecture": "千葉県",
    "city": "柏市",
    "town": "松ケ崎"
  },
  "2770836": {
    "zipcode": "2770836",
    "prefectureCode": "12",
    "prefectureNumber": 12,
    "prefecture": "千葉県",
    "city": "柏市",
    "town": "北柏台"
  },
  "2770837": {
    "zipcode": "2770837",
    "prefectureCode": "12",
    "prefectureNumber": 12,
    "prefecture": "千葉県",
    "city": "柏市",
    "town": "大山台"
  },
  "2770841": {
    "zipcode": "2770841",
    "prefectureCode": "12",
    "prefectureNumber": 12,
    "prefecture": "千葉県",
    "city": "柏市",
    "town": "あけぼの"
  },
  "2770842": {
    "zipcode": "2770842",
    "prefectureCode": "12",
    "prefectureNumber": 12,
    "prefecture": "千葉県",
    "city": "柏市",
    "town": "末広町"
  },
  "2770843": {
    "zipcode": "2770843",
    "prefectureCode": "12",
    "prefectureNumber": 12,
    "prefecture": "千葉県",
    "city": "柏市",
    "town": "明原"
  },
  "2770844": {
    "zipcode": "2770844",
    "prefectureCode": "12",
    "prefectureNumber": 12,
    "prefecture": "千葉県",
    "city": "柏市",
    "town": "西町"
  },
  "2770845": {
    "zipcode": "2770845",
    "prefectureCode": "12",
    "prefectureNumber": 12,
    "prefecture": "千葉県",
    "city": "柏市",
    "town": "豊四季台"
  },
  "2770846": {
    "zipcode": "2770846",
    "prefectureCode": "12",
    "prefectureNumber": 12,
    "prefecture": "千葉県",
    "city": "柏市",
    "town": "かやの町"
  },
  "2770851": {
    "zipcode": "2770851",
    "prefectureCode": "12",
    "prefectureNumber": 12,
    "prefecture": "千葉県",
    "city": "柏市",
    "town": "向原町"
  },
  "2770852": {
    "zipcode": "2770852",
    "prefectureCode": "12",
    "prefectureNumber": 12,
    "prefecture": "千葉県",
    "city": "柏市",
    "town": "旭町"
  },
  "2770853": {
    "zipcode": "2770853",
    "prefectureCode": "12",
    "prefectureNumber": 12,
    "prefecture": "千葉県",
    "city": "柏市",
    "town": "吉野沢"
  },
  "2770854": {
    "zipcode": "2770854",
    "prefectureCode": "12",
    "prefectureNumber": 12,
    "prefecture": "千葉県",
    "city": "柏市",
    "town": "豊町"
  },
  "2770855": {
    "zipcode": "2770855",
    "prefectureCode": "12",
    "prefectureNumber": 12,
    "prefecture": "千葉県",
    "city": "柏市",
    "town": "南柏"
  },
  "2770856": {
    "zipcode": "2770856",
    "prefectureCode": "12",
    "prefectureNumber": 12,
    "prefecture": "千葉県",
    "city": "柏市",
    "town": "新富町"
  },
  "2770857": {
    "zipcode": "2770857",
    "prefectureCode": "12",
    "prefectureNumber": 12,
    "prefecture": "千葉県",
    "city": "柏市",
    "town": "豊平町"
  },
  "2770858": {
    "zipcode": "2770858",
    "prefectureCode": "12",
    "prefectureNumber": 12,
    "prefecture": "千葉県",
    "city": "柏市",
    "town": "豊上町"
  },
  "2770861": {
    "zipcode": "2770861",
    "prefectureCode": "12",
    "prefectureNumber": 12,
    "prefecture": "千葉県",
    "city": "柏市",
    "town": "高田"
  },
  "2770862": {
    "zipcode": "2770862",
    "prefectureCode": "12",
    "prefectureNumber": 12,
    "prefecture": "千葉県",
    "city": "柏市",
    "town": "篠籠田"
  },
  "2770863": {
    "zipcode": "2770863",
    "prefectureCode": "12",
    "prefectureNumber": 12,
    "prefecture": "千葉県",
    "city": "柏市",
    "town": "豊四季"
  },
  "2770871": {
    "zipcode": "2770871",
    "prefectureCode": "12",
    "prefectureNumber": 12,
    "prefecture": "千葉県",
    "city": "柏市",
    "town": "若柴"
  },
  "2770872": {
    "zipcode": "2770872",
    "prefectureCode": "12",
    "prefectureNumber": 12,
    "prefecture": "千葉県",
    "city": "柏市",
    "town": "十余二"
  },
  "2770873": {
    "zipcode": "2770873",
    "prefectureCode": "12",
    "prefectureNumber": 12,
    "prefecture": "千葉県",
    "city": "柏市",
    "town": "中十余二"
  },
  "2770874": {
    "zipcode": "2770874",
    "prefectureCode": "12",
    "prefectureNumber": 12,
    "prefecture": "千葉県",
    "city": "柏市",
    "town": "柏インター南"
  },
  "2770881": {
    "zipcode": "2770881",
    "prefectureCode": "12",
    "prefectureNumber": 12,
    "prefecture": "千葉県",
    "city": "柏市",
    "town": "青田新田飛地"
  },
  "2770882": {
    "zipcode": "2770882",
    "prefectureCode": "12",
    "prefectureNumber": 12,
    "prefecture": "千葉県",
    "city": "柏市",
    "town": "柏の葉"
  },
  "2770883": {
    "zipcode": "2770883",
    "prefectureCode": "12",
    "prefectureNumber": 12,
    "prefecture": "千葉県",
    "city": "柏市",
    "town": "伊勢原"
  },
  "2770884": {
    "zipcode": "2770884",
    "prefectureCode": "12",
    "prefectureNumber": 12,
    "prefecture": "千葉県",
    "city": "柏市",
    "town": "みどり台"
  },
  "2770885": {
    "zipcode": "2770885",
    "prefectureCode": "12",
    "prefectureNumber": 12,
    "prefecture": "千葉県",
    "city": "柏市",
    "town": "西原"
  },
  "2770886": {
    "zipcode": "2770886",
    "prefectureCode": "12",
    "prefectureNumber": 12,
    "prefecture": "千葉県",
    "city": "柏市",
    "town": "西柏台"
  },
  "2770901": {
    "zipcode": "2770901",
    "prefectureCode": "12",
    "prefectureNumber": 12,
    "prefecture": "千葉県",
    "city": "柏市",
    "town": "大井新田"
  },
  "2770902": {
    "zipcode": "2770902",
    "prefectureCode": "12",
    "prefectureNumber": 12,
    "prefecture": "千葉県",
    "city": "柏市",
    "town": "大井"
  },
  "2770903": {
    "zipcode": "2770903",
    "prefectureCode": "12",
    "prefectureNumber": 12,
    "prefecture": "千葉県",
    "city": "柏市",
    "town": "緑台"
  },
  "2770911": {
    "zipcode": "2770911",
    "prefectureCode": "12",
    "prefectureNumber": 12,
    "prefecture": "千葉県",
    "city": "柏市",
    "town": "箕輪新田"
  },
  "2770912": {
    "zipcode": "2770912",
    "prefectureCode": "12",
    "prefectureNumber": 12,
    "prefecture": "千葉県",
    "city": "柏市",
    "town": "箕輪"
  },
  "2770913": {
    "zipcode": "2770913",
    "prefectureCode": "12",
    "prefectureNumber": 12,
    "prefecture": "千葉県",
    "city": "柏市",
    "town": "五條谷"
  },
  "2770921": {
    "zipcode": "2770921",
    "prefectureCode": "12",
    "prefectureNumber": 12,
    "prefecture": "千葉県",
    "city": "柏市",
    "town": "大津ケ丘"
  },
  "2770922": {
    "zipcode": "2770922",
    "prefectureCode": "12",
    "prefectureNumber": 12,
    "prefecture": "千葉県",
    "city": "柏市",
    "town": "大島田"
  },
  "2770923": {
    "zipcode": "2770923",
    "prefectureCode": "12",
    "prefectureNumber": 12,
    "prefecture": "千葉県",
    "city": "柏市",
    "town": "塚崎"
  },
  "2770924": {
    "zipcode": "2770924",
    "prefectureCode": "12",
    "prefectureNumber": 12,
    "prefecture": "千葉県",
    "city": "柏市",
    "town": "風早"
  },
  "2770931": {
    "zipcode": "2770931",
    "prefectureCode": "12",
    "prefectureNumber": 12,
    "prefecture": "千葉県",
    "city": "柏市",
    "town": "藤ケ谷"
  },
  "2770932": {
    "zipcode": "2770932",
    "prefectureCode": "12",
    "prefectureNumber": 12,
    "prefecture": "千葉県",
    "city": "柏市",
    "town": "藤ケ谷新田"
  },
  "2770941": {
    "zipcode": "2770941",
    "prefectureCode": "12",
    "prefectureNumber": 12,
    "prefecture": "千葉県",
    "city": "柏市",
    "town": "高柳"
  },
  "2770942": {
    "zipcode": "2770942",
    "prefectureCode": "12",
    "prefectureNumber": 12,
    "prefecture": "千葉県",
    "city": "柏市",
    "town": "高南台"
  },
  "2770943": {
    "zipcode": "2770943",
    "prefectureCode": "12",
    "prefectureNumber": 12,
    "prefecture": "千葉県",
    "city": "柏市",
    "town": "高柳新田"
  },
  "2770944": {
    "zipcode": "2770944",
    "prefectureCode": "12",
    "prefectureNumber": 12,
    "prefecture": "千葉県",
    "city": "柏市",
    "town": "南高柳"
  },
  "2770945": {
    "zipcode": "2770945",
    "prefectureCode": "12",
    "prefectureNumber": 12,
    "prefecture": "千葉県",
    "city": "柏市",
    "town": "しいの木台"
  }
}
