{
  "2790000": {
    "zipcode": "2790000",
    "prefectureCode": "12",
    "prefectureNumber": 12,
    "prefecture": "千葉県",
    "city": "浦安市",
    "town": "以下に掲載がない場合"
  },
  "2790001": {
    "zipcode": "2790001",
    "prefectureCode": "12",
    "prefectureNumber": 12,
    "prefecture": "千葉県",
    "city": "浦安市",
    "town": "当代島"
  },
  "2790002": {
    "zipcode": "2790002",
    "prefectureCode": "12",
    "prefectureNumber": 12,
    "prefecture": "千葉県",
    "city": "浦安市",
    "town": "北栄"
  },
  "2790003": {
    "zipcode": "2790003",
    "prefectureCode": "12",
    "prefectureNumber": 12,
    "prefecture": "千葉県",
    "city": "浦安市",
    "town": "海楽"
  },
  "2790004": {
    "zipcode": "2790004",
    "prefectureCode": "12",
    "prefectureNumber": 12,
    "prefecture": "千葉県",
    "city": "浦安市",
    "town": "猫実"
  },
  "2790011": {
    "zipcode": "2790011",
    "prefectureCode": "12",
    "prefectureNumber": 12,
    "prefecture": "千葉県",
    "city": "浦安市",
    "town": "美浜"
  },
  "2790012": {
    "zipcode": "2790012",
    "prefectureCode": "12",
    "prefectureNumber": 12,
    "prefecture": "千葉県",
    "city": "浦安市",
    "town": "入船"
  },
  "2790013": {
    "zipcode": "2790013",
    "prefectureCode": "12",
    "prefectureNumber": 12,
    "prefecture": "千葉県",
    "city": "浦安市",
    "town": "日の出"
  },
  "2790014": {
    "zipcode": "2790014",
    "prefectureCode": "12",
    "prefectureNumber": 12,
    "prefecture": "千葉県",
    "city": "浦安市",
    "town": "明海"
  },
  "2790021": {
    "zipcode": "2790021",
    "prefectureCode": "12",
    "prefectureNumber": 12,
    "prefecture": "千葉県",
    "city": "浦安市",
    "town": "富岡"
  },
  "2790022": {
    "zipcode": "2790022",
    "prefectureCode": "12",
    "prefectureNumber": 12,
    "prefecture": "千葉県",
    "city": "浦安市",
    "town": "今川"
  },
  "2790023": {
    "zipcode": "2790023",
    "prefectureCode": "12",
    "prefectureNumber": 12,
    "prefecture": "千葉県",
    "city": "浦安市",
    "town": "高洲"
  },
  "2790024": {
    "zipcode": "2790024",
    "prefectureCode": "12",
    "prefectureNumber": 12,
    "prefecture": "千葉県",
    "city": "浦安市",
    "town": "港"
  },
  "2790025": {
    "zipcode": "2790025",
    "prefectureCode": "12",
    "prefectureNumber": 12,
    "prefecture": "千葉県",
    "city": "浦安市",
    "town": "鉄鋼通り"
  },
  "2790026": {
    "zipcode": "2790026",
    "prefectureCode": "12",
    "prefectureNumber": 12,
    "prefecture": "千葉県",
    "city": "浦安市",
    "town": "弁天"
  },
  "2790031": {
    "zipcode": "2790031",
    "prefectureCode": "12",
    "prefectureNumber": 12,
    "prefecture": "千葉県",
    "city": "浦安市",
    "town": "舞浜"
  },
  "2790032": {
    "zipcode": "2790032",
    "prefectureCode": "12",
    "prefectureNumber": 12,
    "prefecture": "千葉県",
    "city": "浦安市",
    "town": "千鳥"
  },
  "2790041": {
    "zipcode": "2790041",
    "prefectureCode": "12",
    "prefectureNumber": 12,
    "prefecture": "千葉県",
    "city": "浦安市",
    "town": "堀江"
  },
  "2790042": {
    "zipcode": "2790042",
    "prefectureCode": "12",
    "prefectureNumber": 12,
    "prefecture": "千葉県",
    "city": "浦安市",
    "town": "東野"
  },
  "2790043": {
    "zipcode": "2790043",
    "prefectureCode": "12",
    "prefectureNumber": 12,
    "prefecture": "千葉県",
    "city": "浦安市",
    "town": "富士見"
  }
}
