{
  "2820001": {
    "zipcode": "2820001",
    "prefectureCode": "12",
    "prefectureNumber": 12,
    "prefecture": "千葉県",
    "city": "成田市",
    "town": "天浪"
  },
  "2820002": {
    "zipcode": "2820002",
    "prefectureCode": "12",
    "prefectureNumber": 12,
    "prefecture": "千葉県",
    "city": "成田市",
    "town": "天神峰（成田国際空港内）"
  },
  "2820003": {
    "zipcode": "2820003",
    "prefectureCode": "12",
    "prefectureNumber": 12,
    "prefecture": "千葉県",
    "city": "成田市",
    "town": "東峰（成田国際空港内）"
  },
  "2820004": {
    "zipcode": "2820004",
    "prefectureCode": "12",
    "prefectureNumber": 12,
    "prefecture": "千葉県",
    "city": "成田市",
    "town": "古込（成田国際空港内）"
  },
  "2820005": {
    "zipcode": "2820005",
    "prefectureCode": "12",
    "prefectureNumber": 12,
    "prefecture": "千葉県",
    "city": "成田市",
    "town": "木の根（成田国際空港内）"
  },
  "2820006": {
    "zipcode": "2820006",
    "prefectureCode": "12",
    "prefectureNumber": 12,
    "prefecture": "千葉県",
    "city": "成田市",
    "town": "取香（成田国際空港内）"
  },
  "2820007": {
    "zipcode": "2820007",
    "prefectureCode": "12",
    "prefectureNumber": 12,
    "prefecture": "千葉県",
    "city": "成田市",
    "town": "堀之内（成田国際空港内）"
  },
  "2820009": {
    "zipcode": "2820009",
    "prefectureCode": "12",
    "prefectureNumber": 12,
    "prefecture": "千葉県",
    "city": "成田市",
    "town": "十余三（成田国際空港内）"
  },
  "2820010": {
    "zipcode": "2820010",
    "prefectureCode": "12",
    "prefectureNumber": 12,
    "prefecture": "千葉県",
    "city": "成田市",
    "town": "吉岡（成田国際空港内）"
  },
  "2820011": {
    "zipcode": "2820011",
    "prefectureCode": "12",
    "prefectureNumber": 12,
    "prefecture": "千葉県",
    "city": "成田市",
    "town": "三里塚（御料牧場・成田国際空港内）"
  },
  "2820012": {
    "zipcode": "2820012",
    "prefectureCode": "12",
    "prefectureNumber": 12,
    "prefecture": "千葉県",
    "city": "成田市",
    "town": "東三里塚（成田国際空港内）"
  },
  "2820021": {
    "zipcode": "2820021",
    "prefectureCode": "12",
    "prefectureNumber": 12,
    "prefecture": "千葉県",
    "city": "成田市",
    "town": "駒井野（成田国際空港内）"
  },
  "2820027": {
    "zipcode": "2820027",
    "prefectureCode": "12",
    "prefectureNumber": 12,
    "prefecture": "千葉県",
    "city": "成田市",
    "town": "小菅（成田国際空港内）"
  },
  "2820031": {
    "zipcode": "2820031",
    "prefectureCode": "12",
    "prefectureNumber": 12,
    "prefecture": "千葉県",
    "city": "香取郡多古町",
    "town": "一鍬田（成田国際空港内）"
  },
  "2820032": {
    "zipcode": "2820032",
    "prefectureCode": "12",
    "prefectureNumber": 12,
    "prefecture": "千葉県",
    "city": "山武郡芝山町",
    "town": "香山新田（成田国際空港内）"
  },
  "2820033": {
    "zipcode": "2820033",
    "prefectureCode": "12",
    "prefectureNumber": 12,
    "prefecture": "千葉県",
    "city": "山武郡芝山町",
    "town": "菱田（成田国際空港内）"
  },
  "2820034": {
    "zipcode": "2820034",
    "prefectureCode": "12",
    "prefectureNumber": 12,
    "prefecture": "千葉県",
    "city": "山武郡芝山町",
    "town": "大里（成田国際空港内）"
  },
  "2820035": {
    "zipcode": "2820035",
    "prefectureCode": "12",
    "prefectureNumber": 12,
    "prefecture": "千葉県",
    "city": "山武郡芝山町",
    "town": "岩山（成田国際空港内）"
  }
}
