{
  "2830000": {
    "zipcode": "2830000",
    "prefectureCode": "12",
    "prefectureNumber": 12,
    "prefecture": "千葉県",
    "city": "東金市",
    "town": "以下に掲載がない場合"
  },
  "2830001": {
    "zipcode": "2830001",
    "prefectureCode": "12",
    "prefectureNumber": 12,
    "prefecture": "千葉県",
    "city": "東金市",
    "town": "家之子"
  },
  "2830002": {
    "zipcode": "2830002",
    "prefectureCode": "12",
    "prefectureNumber": 12,
    "prefecture": "千葉県",
    "city": "東金市",
    "town": "求名"
  },
  "2830003": {
    "zipcode": "2830003",
    "prefectureCode": "12",
    "prefectureNumber": 12,
    "prefecture": "千葉県",
    "city": "東金市",
    "town": "道庭"
  },
  "2830004": {
    "zipcode": "2830004",
    "prefectureCode": "12",
    "prefectureNumber": 12,
    "prefecture": "千葉県",
    "city": "東金市",
    "town": "二又"
  },
  "2830005": {
    "zipcode": "2830005",
    "prefectureCode": "12",
    "prefectureNumber": 12,
    "prefecture": "千葉県",
    "city": "東金市",
    "town": "田間"
  },
  "2830006": {
    "zipcode": "2830006",
    "prefectureCode": "12",
    "prefectureNumber": 12,
    "prefecture": "千葉県",
    "city": "東金市",
    "town": "東新宿"
  },
  "2830011": {
    "zipcode": "2830011",
    "prefectureCode": "12",
    "prefectureNumber": 12,
    "prefecture": "千葉県",
    "city": "東金市",
    "town": "上武射田"
  },
  "2830012": {
    "zipcode": "2830012",
    "prefectureCode": "12",
    "prefectureNumber": 12,
    "prefecture": "千葉県",
    "city": "東金市",
    "town": "下武射田"
  },
  "2830013": {
    "zipcode": "2830013",
    "prefectureCode": "12",
    "prefectureNumber": 12,
    "prefecture": "千葉県",
    "city": "東金市",
    "town": "士農田"
  },
  "2830014": {
    "zipcode": "2830014",
    "prefectureCode": "12",
    "prefectureNumber": 12,
    "prefecture": "千葉県",
    "city": "東金市",
    "town": "関内"
  },
  "2830015": {
    "zipcode": "2830015",
    "prefectureCode": "12",
    "prefectureNumber": 12,
    "prefecture": "千葉県",
    "city": "東金市",
    "town": "前之内"
  },
  "2830016": {
    "zipcode": "2830016",
    "prefectureCode": "12",
    "prefectureNumber": 12,
    "prefecture": "千葉県",
    "city": "東金市",
    "town": "菱沼"
  },
  "2830021": {
    "zipcode": "2830021",
    "prefectureCode": "12",
    "prefectureNumber": 12,
    "prefecture": "千葉県",
    "city": "東金市",
    "town": "東中"
  },
  "2830022": {
    "zipcode": "2830022",
    "prefectureCode": "12",
    "prefectureNumber": 12,
    "prefecture": "千葉県",
    "city": "東金市",
    "town": "高倉"
  },
  "2830023": {
    "zipcode": "2830023",
    "prefectureCode": "12",
    "prefectureNumber": 12,
    "prefecture": "千葉県",
    "city": "東金市",
    "town": "宮"
  },
  "2830024": {
    "zipcode": "2830024",
    "prefectureCode": "12",
    "prefectureNumber": 12,
    "prefecture": "千葉県",
    "city": "東金市",
    "town": "御門"
  },
  "2830025": {
    "zipcode": "2830025",
    "prefectureCode": "12",
    "prefectureNumber": 12,
    "prefecture": "千葉県",
    "city": "東金市",
    "town": "殿廻"
  },
  "2830026": {
    "zipcode": "2830026",
    "prefectureCode": "12",
    "prefectureNumber": 12,
    "prefecture": "千葉県",
    "city": "東金市",
    "town": "中野"
  },
  "2830027": {
    "zipcode": "2830027",
    "prefectureCode": "12",
    "prefectureNumber": 12,
    "prefecture": "千葉県",
    "city": "東金市",
    "town": "堀之内"
  },
  "2830028": {
    "zipcode": "2830028",
    "prefectureCode": "12",
    "prefectureNumber": 12,
    "prefecture": "千葉県",
    "city": "東金市",
    "town": "三浦名"
  },
  "2830031": {
    "zipcode": "2830031",
    "prefectureCode": "12",
    "prefectureNumber": 12,
    "prefecture": "千葉県",
    "city": "東金市",
    "town": "薄島"
  },
  "2830032": {
    "zipcode": "2830032",
    "prefectureCode": "12",
    "prefectureNumber": 12,
    "prefecture": "千葉県",
    "city": "東金市",
    "town": "荒生"
  },
  "2830033": {
    "zipcode": "2830033",
    "prefectureCode": "12",
    "prefectureNumber": 12,
    "prefecture": "千葉県",
    "city": "東金市",
    "town": "宿"
  },
  "2830034": {
    "zipcode": "2830034",
    "prefectureCode": "12",
    "prefectureNumber": 12,
    "prefecture": "千葉県",
    "city": "東金市",
    "town": "大沼"
  },
  "2830035": {
    "zipcode": "2830035",
    "prefectureCode": "12",
    "prefectureNumber": 12,
    "prefecture": "千葉県",
    "city": "東金市",
    "town": "粟生飛地"
  },
  "2830036": {
    "zipcode": "2830036",
    "prefectureCode": "12",
    "prefectureNumber": 12,
    "prefecture": "千葉県",
    "city": "東金市",
    "town": "不動堂飛地"
  },
  "2830037": {
    "zipcode": "2830037",
    "prefectureCode": "12",
    "prefectureNumber": 12,
    "prefecture": "千葉県",
    "city": "東金市",
    "town": "細屋敷"
  },
  "2830038": {
    "zipcode": "2830038",
    "prefectureCode": "12",
    "prefectureNumber": 12,
    "prefecture": "千葉県",
    "city": "東金市",
    "town": "関下"
  },
  "2830041": {
    "zipcode": "2830041",
    "prefectureCode": "12",
    "prefectureNumber": 12,
    "prefecture": "千葉県",
    "city": "東金市",
    "town": "広瀬"
  },
  "2830042": {
    "zipcode": "2830042",
    "prefectureCode": "12",
    "prefectureNumber": 12,
    "prefecture": "千葉県",
    "city": "東金市",
    "town": "西野飛地"
  },
  "2830043": {
    "zipcode": "2830043",
    "prefectureCode": "12",
    "prefectureNumber": 12,
    "prefecture": "千葉県",
    "city": "東金市",
    "town": "藤下飛地"
  },
  "2830044": {
    "zipcode": "2830044",
    "prefectureCode": "12",
    "prefectureNumber": 12,
    "prefecture": "千葉県",
    "city": "東金市",
    "town": "小沼田"
  },
  "2830045": {
    "zipcode": "2830045",
    "prefectureCode": "12",
    "prefectureNumber": 12,
    "prefecture": "千葉県",
    "city": "東金市",
    "town": "西中"
  },
  "2830046": {
    "zipcode": "2830046",
    "prefectureCode": "12",
    "prefectureNumber": 12,
    "prefecture": "千葉県",
    "city": "東金市",
    "town": "上谷"
  },
  "2830047": {
    "zipcode": "2830047",
    "prefectureCode": "12",
    "prefectureNumber": 12,
    "prefecture": "千葉県",
    "city": "東金市",
    "town": "北幸谷"
  },
  "2830048": {
    "zipcode": "2830048",
    "prefectureCode": "12",
    "prefectureNumber": 12,
    "prefecture": "千葉県",
    "city": "東金市",
    "town": "幸田"
  },
  "2830051": {
    "zipcode": "2830051",
    "prefectureCode": "12",
    "prefectureNumber": 12,
    "prefecture": "千葉県",
    "city": "東金市",
    "town": "大沼田"
  },
  "2830052": {
    "zipcode": "2830052",
    "prefectureCode": "12",
    "prefectureNumber": 12,
    "prefecture": "千葉県",
    "city": "東金市",
    "town": "二之袋"
  },
  "2830053": {
    "zipcode": "2830053",
    "prefectureCode": "12",
    "prefectureNumber": 12,
    "prefecture": "千葉県",
    "city": "東金市",
    "town": "東中島"
  },
  "2830054": {
    "zipcode": "2830054",
    "prefectureCode": "12",
    "prefectureNumber": 12,
    "prefecture": "千葉県",
    "city": "東金市",
    "town": "下谷"
  },
  "2830055": {
    "zipcode": "2830055",
    "prefectureCode": "12",
    "prefectureNumber": 12,
    "prefecture": "千葉県",
    "city": "東金市",
    "town": "依古島"
  },
  "2830056": {
    "zipcode": "2830056",
    "prefectureCode": "12",
    "prefectureNumber": 12,
    "prefecture": "千葉県",
    "city": "東金市",
    "town": "砂古瀬"
  },
  "2830057": {
    "zipcode": "2830057",
    "prefectureCode": "12",
    "prefectureNumber": 12,
    "prefecture": "千葉県",
    "city": "東金市",
    "town": "一之袋"
  },
  "2830061": {
    "zipcode": "2830061",
    "prefectureCode": "12",
    "prefectureNumber": 12,
    "prefecture": "千葉県",
    "city": "東金市",
    "town": "北之幸谷"
  },
  "2830062": {
    "zipcode": "2830062",
    "prefectureCode": "12",
    "prefectureNumber": 12,
    "prefecture": "千葉県",
    "city": "東金市",
    "town": "家徳"
  },
  "2830063": {
    "zipcode": "2830063",
    "prefectureCode": "12",
    "prefectureNumber": 12,
    "prefecture": "千葉県",
    "city": "東金市",
    "town": "堀上"
  },
  "2830064": {
    "zipcode": "2830064",
    "prefectureCode": "12",
    "prefectureNumber": 12,
    "prefecture": "千葉県",
    "city": "東金市",
    "town": "川場"
  },
  "2830065": {
    "zipcode": "2830065",
    "prefectureCode": "12",
    "prefectureNumber": 12,
    "prefecture": "千葉県",
    "city": "東金市",
    "town": "押堀"
  },
  "2830066": {
    "zipcode": "2830066",
    "prefectureCode": "12",
    "prefectureNumber": 12,
    "prefecture": "千葉県",
    "city": "東金市",
    "town": "南上宿"
  },
  "2830067": {
    "zipcode": "2830067",
    "prefectureCode": "12",
    "prefectureNumber": 12,
    "prefecture": "千葉県",
    "city": "東金市",
    "town": "東上宿"
  },
  "2830068": {
    "zipcode": "2830068",
    "prefectureCode": "12",
    "prefectureNumber": 12,
    "prefecture": "千葉県",
    "city": "東金市",
    "town": "東岩崎"
  },
  "2830100": {
    "zipcode": "2830100",
    "prefectureCode": "12",
    "prefectureNumber": 12,
    "prefecture": "千葉県",
    "city": "山武郡九十九里町",
    "town": "以下に掲載がない場合"
  },
  "2830101": {
    "zipcode": "2830101",
    "prefectureCode": "12",
    "prefectureNumber": 12,
    "prefecture": "千葉県",
    "city": "山武郡九十九里町",
    "town": "作田"
  },
  "2830102": {
    "zipcode": "2830102",
    "prefectureCode": "12",
    "prefectureNumber": 12,
    "prefecture": "千葉県",
    "city": "山武郡九十九里町",
    "town": "小関"
  },
  "2830103": {
    "zipcode": "2830103",
    "prefectureCode": "12",
    "prefectureNumber": 12,
    "prefecture": "千葉県",
    "city": "山武郡九十九里町",
    "town": "田中荒生"
  },
  "2830104": {
    "zipcode": "2830104",
    "prefectureCode": "12",
    "prefectureNumber": 12,
    "prefecture": "千葉県",
    "city": "山武郡九十九里町",
    "town": "片貝"
  },
  "2830105": {
    "zipcode": "2830105",
    "prefectureCode": "12",
    "prefectureNumber": 12,
    "prefecture": "千葉県",
    "city": "山武郡九十九里町",
    "town": "粟生"
  },
  "2830106": {
    "zipcode": "2830106",
    "prefectureCode": "12",
    "prefectureNumber": 12,
    "prefecture": "千葉県",
    "city": "山武郡九十九里町",
    "town": "宿"
  },
  "2830107": {
    "zipcode": "2830107",
    "prefectureCode": "12",
    "prefectureNumber": 12,
    "prefecture": "千葉県",
    "city": "山武郡九十九里町",
    "town": "荒生"
  },
  "2830111": {
    "zipcode": "2830111",
    "prefectureCode": "12",
    "prefectureNumber": 12,
    "prefecture": "千葉県",
    "city": "山武郡九十九里町",
    "town": "細屋敷"
  },
  "2830112": {
    "zipcode": "2830112",
    "prefectureCode": "12",
    "prefectureNumber": 12,
    "prefecture": "千葉県",
    "city": "山武郡九十九里町",
    "town": "藤下"
  },
  "2830113": {
    "zipcode": "2830113",
    "prefectureCode": "12",
    "prefectureNumber": 12,
    "prefecture": "千葉県",
    "city": "山武郡九十九里町",
    "town": "不動堂"
  },
  "2830114": {
    "zipcode": "2830114",
    "prefectureCode": "12",
    "prefectureNumber": 12,
    "prefecture": "千葉県",
    "city": "山武郡九十九里町",
    "town": "真亀"
  },
  "2830115": {
    "zipcode": "2830115",
    "prefectureCode": "12",
    "prefectureNumber": 12,
    "prefecture": "千葉県",
    "city": "山武郡九十九里町",
    "town": "真亀新田"
  },
  "2830116": {
    "zipcode": "2830116",
    "prefectureCode": "12",
    "prefectureNumber": 12,
    "prefecture": "千葉県",
    "city": "山武郡九十九里町",
    "town": "西野"
  },
  "2830117": {
    "zipcode": "2830117",
    "prefectureCode": "12",
    "prefectureNumber": 12,
    "prefecture": "千葉県",
    "city": "山武郡九十九里町",
    "town": "下貝塚"
  },
  "2830801": {
    "zipcode": "2830801",
    "prefectureCode": "12",
    "prefectureNumber": 12,
    "prefecture": "千葉県",
    "city": "東金市",
    "town": "八坂台"
  },
  "2830802": {
    "zipcode": "2830802",
    "prefectureCode": "12",
    "prefectureNumber": 12,
    "prefecture": "千葉県",
    "city": "東金市",
    "town": "東金"
  },
  "2830803": {
    "zipcode": "2830803",
    "prefectureCode": "12",
    "prefectureNumber": 12,
    "prefecture": "千葉県",
    "city": "東金市",
    "town": "日吉台"
  },
  "2830804": {
    "zipcode": "2830804",
    "prefectureCode": "12",
    "prefectureNumber": 12,
    "prefecture": "千葉県",
    "city": "東金市",
    "town": "油井"
  },
  "2830805": {
    "zipcode": "2830805",
    "prefectureCode": "12",
    "prefectureNumber": 12,
    "prefecture": "千葉県",
    "city": "東金市",
    "town": "松之郷"
  },
  "2830811": {
    "zipcode": "2830811",
    "prefectureCode": "12",
    "prefectureNumber": 12,
    "prefecture": "千葉県",
    "city": "東金市",
    "town": "台方"
  },
  "2830812": {
    "zipcode": "2830812",
    "prefectureCode": "12",
    "prefectureNumber": 12,
    "prefecture": "千葉県",
    "city": "東金市",
    "town": "福俵"
  },
  "2830813": {
    "zipcode": "2830813",
    "prefectureCode": "12",
    "prefectureNumber": 12,
    "prefecture": "千葉県",
    "city": "東金市",
    "town": "山口"
  },
  "2830814": {
    "zipcode": "2830814",
    "prefectureCode": "12",
    "prefectureNumber": 12,
    "prefecture": "千葉県",
    "city": "東金市",
    "town": "田中"
  },
  "2830815": {
    "zipcode": "2830815",
    "prefectureCode": "12",
    "prefectureNumber": 12,
    "prefecture": "千葉県",
    "city": "東金市",
    "town": "大豆谷"
  },
  "2830816": {
    "zipcode": "2830816",
    "prefectureCode": "12",
    "prefectureNumber": 12,
    "prefecture": "千葉県",
    "city": "東金市",
    "town": "西福俵"
  },
  "2830821": {
    "zipcode": "2830821",
    "prefectureCode": "12",
    "prefectureNumber": 12,
    "prefecture": "千葉県",
    "city": "東金市",
    "town": "小野"
  },
  "2830822": {
    "zipcode": "2830822",
    "prefectureCode": "12",
    "prefectureNumber": 12,
    "prefecture": "千葉県",
    "city": "東金市",
    "town": "季美の森東"
  },
  "2830823": {
    "zipcode": "2830823",
    "prefectureCode": "12",
    "prefectureNumber": 12,
    "prefecture": "千葉県",
    "city": "東金市",
    "town": "山田"
  },
  "2830824": {
    "zipcode": "2830824",
    "prefectureCode": "12",
    "prefectureNumber": 12,
    "prefecture": "千葉県",
    "city": "東金市",
    "town": "丹尾"
  },
  "2830825": {
    "zipcode": "2830825",
    "prefectureCode": "12",
    "prefectureNumber": 12,
    "prefecture": "千葉県",
    "city": "東金市",
    "town": "滝"
  },
  "2830826": {
    "zipcode": "2830826",
    "prefectureCode": "12",
    "prefectureNumber": 12,
    "prefecture": "千葉県",
    "city": "東金市",
    "town": "丘山台"
  },
  "2830831": {
    "zipcode": "2830831",
    "prefectureCode": "12",
    "prefectureNumber": 12,
    "prefecture": "千葉県",
    "city": "東金市",
    "town": "酒蔵"
  },
  "2830832": {
    "zipcode": "2830832",
    "prefectureCode": "12",
    "prefectureNumber": 12,
    "prefecture": "千葉県",
    "city": "東金市",
    "town": "三ケ尻"
  },
  "2830833": {
    "zipcode": "2830833",
    "prefectureCode": "12",
    "prefectureNumber": 12,
    "prefecture": "千葉県",
    "city": "東金市",
    "town": "滝沢"
  },
  "2830834": {
    "zipcode": "2830834",
    "prefectureCode": "12",
    "prefectureNumber": 12,
    "prefecture": "千葉県",
    "city": "東金市",
    "town": "上布田"
  },
  "2830835": {
    "zipcode": "2830835",
    "prefectureCode": "12",
    "prefectureNumber": 12,
    "prefecture": "千葉県",
    "city": "東金市",
    "town": "極楽寺"
  }
}
