{
  "2840000": {
    "zipcode": "2840000",
    "prefectureCode": "12",
    "prefectureNumber": 12,
    "prefecture": "千葉県",
    "city": "四街道市",
    "town": "以下に掲載がない場合"
  },
  "2840001": {
    "zipcode": "2840001",
    "prefectureCode": "12",
    "prefectureNumber": 12,
    "prefecture": "千葉県",
    "city": "四街道市",
    "town": "大日"
  },
  "2840002": {
    "zipcode": "2840002",
    "prefectureCode": "12",
    "prefectureNumber": 12,
    "prefecture": "千葉県",
    "city": "四街道市",
    "town": "萱橋"
  },
  "2840003": {
    "zipcode": "2840003",
    "prefectureCode": "12",
    "prefectureNumber": 12,
    "prefecture": "千葉県",
    "city": "四街道市",
    "town": "鹿渡"
  },
  "2840004": {
    "zipcode": "2840004",
    "prefectureCode": "12",
    "prefectureNumber": 12,
    "prefecture": "千葉県",
    "city": "四街道市",
    "town": "みのり町"
  },
  "2840005": {
    "zipcode": "2840005",
    "prefectureCode": "12",
    "prefectureNumber": 12,
    "prefecture": "千葉県",
    "city": "四街道市",
    "town": "四街道"
  },
  "2840006": {
    "zipcode": "2840006",
    "prefectureCode": "12",
    "prefectureNumber": 12,
    "prefecture": "千葉県",
    "city": "四街道市",
    "town": "下志津新田"
  },
  "2840007": {
    "zipcode": "2840007",
    "prefectureCode": "12",
    "prefectureNumber": 12,
    "prefecture": "千葉県",
    "city": "四街道市",
    "town": "さつきケ丘"
  },
  "2840008": {
    "zipcode": "2840008",
    "prefectureCode": "12",
    "prefectureNumber": 12,
    "prefecture": "千葉県",
    "city": "四街道市",
    "town": "鹿放ケ丘"
  },
  "2840009": {
    "zipcode": "2840009",
    "prefectureCode": "12",
    "prefectureNumber": 12,
    "prefecture": "千葉県",
    "city": "四街道市",
    "town": "中央"
  },
  "2840011": {
    "zipcode": "2840011",
    "prefectureCode": "12",
    "prefectureNumber": 12,
    "prefecture": "千葉県",
    "city": "四街道市",
    "town": "亀崎"
  },
  "2840012": {
    "zipcode": "2840012",
    "prefectureCode": "12",
    "prefectureNumber": 12,
    "prefecture": "千葉県",
    "city": "四街道市",
    "town": "物井"
  },
  "2840013": {
    "zipcode": "2840013",
    "prefectureCode": "12",
    "prefectureNumber": 12,
    "prefecture": "千葉県",
    "city": "四街道市",
    "town": "内黒田"
  },
  "2840014": {
    "zipcode": "2840014",
    "prefectureCode": "12",
    "prefectureNumber": 12,
    "prefecture": "千葉県",
    "city": "四街道市",
    "town": "池花"
  },
  "2840015": {
    "zipcode": "2840015",
    "prefectureCode": "12",
    "prefectureNumber": 12,
    "prefecture": "千葉県",
    "city": "四街道市",
    "town": "千代田"
  },
  "2840016": {
    "zipcode": "2840016",
    "prefectureCode": "12",
    "prefectureNumber": 12,
    "prefecture": "千葉県",
    "city": "四街道市",
    "town": "もねの里"
  },
  "2840021": {
    "zipcode": "2840021",
    "prefectureCode": "12",
    "prefectureNumber": 12,
    "prefecture": "千葉県",
    "city": "四街道市",
    "town": "長岡"
  },
  "2840022": {
    "zipcode": "2840022",
    "prefectureCode": "12",
    "prefectureNumber": 12,
    "prefecture": "千葉県",
    "city": "四街道市",
    "town": "山梨"
  },
  "2840023": {
    "zipcode": "2840023",
    "prefectureCode": "12",
    "prefectureNumber": 12,
    "prefecture": "千葉県",
    "city": "四街道市",
    "town": "みそら"
  },
  "2840024": {
    "zipcode": "2840024",
    "prefectureCode": "12",
    "prefectureNumber": 12,
    "prefecture": "千葉県",
    "city": "四街道市",
    "town": "旭ケ丘"
  },
  "2840025": {
    "zipcode": "2840025",
    "prefectureCode": "12",
    "prefectureNumber": 12,
    "prefecture": "千葉県",
    "city": "四街道市",
    "town": "さちが丘"
  },
  "2840026": {
    "zipcode": "2840026",
    "prefectureCode": "12",
    "prefectureNumber": 12,
    "prefecture": "千葉県",
    "city": "四街道市",
    "town": "つくし座"
  },
  "2840027": {
    "zipcode": "2840027",
    "prefectureCode": "12",
    "prefectureNumber": 12,
    "prefecture": "千葉県",
    "city": "四街道市",
    "town": "栗山"
  },
  "2840031": {
    "zipcode": "2840031",
    "prefectureCode": "12",
    "prefectureNumber": 12,
    "prefecture": "千葉県",
    "city": "四街道市",
    "town": "成山"
  },
  "2840032": {
    "zipcode": "2840032",
    "prefectureCode": "12",
    "prefectureNumber": 12,
    "prefecture": "千葉県",
    "city": "四街道市",
    "town": "吉岡"
  },
  "2840033": {
    "zipcode": "2840033",
    "prefectureCode": "12",
    "prefectureNumber": 12,
    "prefecture": "千葉県",
    "city": "四街道市",
    "town": "鷹の台"
  },
  "2840034": {
    "zipcode": "2840034",
    "prefectureCode": "12",
    "prefectureNumber": 12,
    "prefecture": "千葉県",
    "city": "四街道市",
    "town": "南波佐間"
  },
  "2840035": {
    "zipcode": "2840035",
    "prefectureCode": "12",
    "prefectureNumber": 12,
    "prefecture": "千葉県",
    "city": "四街道市",
    "town": "和田"
  },
  "2840036": {
    "zipcode": "2840036",
    "prefectureCode": "12",
    "prefectureNumber": 12,
    "prefecture": "千葉県",
    "city": "四街道市",
    "town": "中野"
  },
  "2840037": {
    "zipcode": "2840037",
    "prefectureCode": "12",
    "prefectureNumber": 12,
    "prefecture": "千葉県",
    "city": "四街道市",
    "town": "中台"
  },
  "2840038": {
    "zipcode": "2840038",
    "prefectureCode": "12",
    "prefectureNumber": 12,
    "prefecture": "千葉県",
    "city": "四街道市",
    "town": "たかおの杜"
  },
  "2840041": {
    "zipcode": "2840041",
    "prefectureCode": "12",
    "prefectureNumber": 12,
    "prefecture": "千葉県",
    "city": "四街道市",
    "town": "上野"
  },
  "2840042": {
    "zipcode": "2840042",
    "prefectureCode": "12",
    "prefectureNumber": 12,
    "prefecture": "千葉県",
    "city": "四街道市",
    "town": "小名木"
  },
  "2840043": {
    "zipcode": "2840043",
    "prefectureCode": "12",
    "prefectureNumber": 12,
    "prefecture": "千葉県",
    "city": "四街道市",
    "town": "めいわ"
  },
  "2840044": {
    "zipcode": "2840044",
    "prefectureCode": "12",
    "prefectureNumber": 12,
    "prefecture": "千葉県",
    "city": "四街道市",
    "town": "和良比"
  },
  "2840045": {
    "zipcode": "2840045",
    "prefectureCode": "12",
    "prefectureNumber": 12,
    "prefecture": "千葉県",
    "city": "四街道市",
    "town": "美しが丘"
  }
}
