{
  "2850000": {
    "zipcode": "2850000",
    "prefectureCode": "12",
    "prefectureNumber": 12,
    "prefecture": "千葉県",
    "city": "佐倉市",
    "town": "以下に掲載がない場合"
  },
  "2850001": {
    "zipcode": "2850001",
    "prefectureCode": "12",
    "prefectureNumber": 12,
    "prefecture": "千葉県",
    "city": "佐倉市",
    "town": "土浮"
  },
  "2850002": {
    "zipcode": "2850002",
    "prefectureCode": "12",
    "prefectureNumber": 12,
    "prefecture": "千葉県",
    "city": "佐倉市",
    "town": "萩山新田"
  },
  "2850003": {
    "zipcode": "2850003",
    "prefectureCode": "12",
    "prefectureNumber": 12,
    "prefecture": "千葉県",
    "city": "佐倉市",
    "town": "飯野"
  },
  "2850004": {
    "zipcode": "2850004",
    "prefectureCode": "12",
    "prefectureNumber": 12,
    "prefecture": "千葉県",
    "city": "佐倉市",
    "town": "岩名"
  },
  "2850005": {
    "zipcode": "2850005",
    "prefectureCode": "12",
    "prefectureNumber": 12,
    "prefecture": "千葉県",
    "city": "佐倉市",
    "town": "宮前"
  },
  "2850006": {
    "zipcode": "2850006",
    "prefectureCode": "12",
    "prefectureNumber": 12,
    "prefecture": "千葉県",
    "city": "佐倉市",
    "town": "下根"
  },
  "2850007": {
    "zipcode": "2850007",
    "prefectureCode": "12",
    "prefectureNumber": 12,
    "prefecture": "千葉県",
    "city": "佐倉市",
    "town": "下根町"
  },
  "2850008": {
    "zipcode": "2850008",
    "prefectureCode": "12",
    "prefectureNumber": 12,
    "prefecture": "千葉県",
    "city": "佐倉市",
    "town": "鹿島干拓"
  },
  "2850009": {
    "zipcode": "2850009",
    "prefectureCode": "12",
    "prefectureNumber": 12,
    "prefecture": "千葉県",
    "city": "佐倉市",
    "town": "飯野町"
  },
  "2850011": {
    "zipcode": "2850011",
    "prefectureCode": "12",
    "prefectureNumber": 12,
    "prefecture": "千葉県",
    "city": "佐倉市",
    "town": "山崎"
  },
  "2850012": {
    "zipcode": "2850012",
    "prefectureCode": "12",
    "prefectureNumber": 12,
    "prefecture": "千葉県",
    "city": "佐倉市",
    "town": "田町"
  },
  "2850013": {
    "zipcode": "2850013",
    "prefectureCode": "12",
    "prefectureNumber": 12,
    "prefecture": "千葉県",
    "city": "佐倉市",
    "town": "海隣寺町"
  },
  "2850014": {
    "zipcode": "2850014",
    "prefectureCode": "12",
    "prefectureNumber": 12,
    "prefecture": "千葉県",
    "city": "佐倉市",
    "town": "栄町"
  },
  "2850015": {
    "zipcode": "2850015",
    "prefectureCode": "12",
    "prefectureNumber": 12,
    "prefecture": "千葉県",
    "city": "佐倉市",
    "town": "並木町"
  },
  "2850016": {
    "zipcode": "2850016",
    "prefectureCode": "12",
    "prefectureNumber": 12,
    "prefecture": "千葉県",
    "city": "佐倉市",
    "town": "宮小路町"
  },
  "2850017": {
    "zipcode": "2850017",
    "prefectureCode": "12",
    "prefectureNumber": 12,
    "prefecture": "千葉県",
    "city": "佐倉市",
    "town": "城内町"
  },
  "2850021": {
    "zipcode": "2850021",
    "prefectureCode": "12",
    "prefectureNumber": 12,
    "prefecture": "千葉県",
    "city": "佐倉市",
    "town": "最上町"
  },
  "2850022": {
    "zipcode": "2850022",
    "prefectureCode": "12",
    "prefectureNumber": 12,
    "prefecture": "千葉県",
    "city": "佐倉市",
    "town": "中尾余町"
  },
  "2850023": {
    "zipcode": "2850023",
    "prefectureCode": "12",
    "prefectureNumber": 12,
    "prefecture": "千葉県",
    "city": "佐倉市",
    "town": "新町"
  },
  "2850024": {
    "zipcode": "2850024",
    "prefectureCode": "12",
    "prefectureNumber": 12,
    "prefecture": "千葉県",
    "city": "佐倉市",
    "town": "裏新町"
  },
  "2850025": {
    "zipcode": "2850025",
    "prefectureCode": "12",
    "prefectureNumber": 12,
    "prefecture": "千葉県",
    "city": "佐倉市",
    "town": "鏑木町"
  },
  "2850026": {
    "zipcode": "2850026",
    "prefectureCode": "12",
    "prefectureNumber": 12,
    "prefecture": "千葉県",
    "city": "佐倉市",
    "town": "鏑木仲田町"
  },
  "2850031": {
    "zipcode": "2850031",
    "prefectureCode": "12",
    "prefectureNumber": 12,
    "prefecture": "千葉県",
    "city": "佐倉市",
    "town": "飯田台"
  },
  "2850032": {
    "zipcode": "2850032",
    "prefectureCode": "12",
    "prefectureNumber": 12,
    "prefecture": "千葉県",
    "city": "佐倉市",
    "town": "飯田"
  },
  "2850033": {
    "zipcode": "2850033",
    "prefectureCode": "12",
    "prefectureNumber": 12,
    "prefecture": "千葉県",
    "city": "佐倉市",
    "town": "鍋山町"
  },
  "2850034": {
    "zipcode": "2850034",
    "prefectureCode": "12",
    "prefectureNumber": 12,
    "prefecture": "千葉県",
    "city": "佐倉市",
    "town": "千成"
  },
  "2850035": {
    "zipcode": "2850035",
    "prefectureCode": "12",
    "prefectureNumber": 12,
    "prefecture": "千葉県",
    "city": "佐倉市",
    "town": "樹木町"
  },
  "2850036": {
    "zipcode": "2850036",
    "prefectureCode": "12",
    "prefectureNumber": 12,
    "prefecture": "千葉県",
    "city": "佐倉市",
    "town": "藤沢町"
  },
  "2850037": {
    "zipcode": "2850037",
    "prefectureCode": "12",
    "prefectureNumber": 12,
    "prefecture": "千葉県",
    "city": "佐倉市",
    "town": "本町"
  },
  "2850038": {
    "zipcode": "2850038",
    "prefectureCode": "12",
    "prefectureNumber": 12,
    "prefecture": "千葉県",
    "city": "佐倉市",
    "town": "弥勒町"
  },
  "2850039": {
    "zipcode": "2850039",
    "prefectureCode": "12",
    "prefectureNumber": 12,
    "prefecture": "千葉県",
    "city": "佐倉市",
    "town": "野狐台町"
  },
  "2850041": {
    "zipcode": "2850041",
    "prefectureCode": "12",
    "prefectureNumber": 12,
    "prefecture": "千葉県",
    "city": "佐倉市",
    "town": "大佐倉"
  },
  "2850042": {
    "zipcode": "2850042",
    "prefectureCode": "12",
    "prefectureNumber": 12,
    "prefecture": "千葉県",
    "city": "佐倉市",
    "town": "将門町"
  },
  "2850043": {
    "zipcode": "2850043",
    "prefectureCode": "12",
    "prefectureNumber": 12,
    "prefecture": "千葉県",
    "city": "佐倉市",
    "town": "大蛇町"
  },
  "2850044": {
    "zipcode": "2850044",
    "prefectureCode": "12",
    "prefectureNumber": 12,
    "prefecture": "千葉県",
    "city": "佐倉市",
    "town": "上代"
  },
  "2850045": {
    "zipcode": "2850045",
    "prefectureCode": "12",
    "prefectureNumber": 12,
    "prefecture": "千葉県",
    "city": "佐倉市",
    "town": "白銀"
  },
  "2850046": {
    "zipcode": "2850046",
    "prefectureCode": "12",
    "prefectureNumber": 12,
    "prefecture": "千葉県",
    "city": "佐倉市",
    "town": "高岡"
  },
  "2850051": {
    "zipcode": "2850051",
    "prefectureCode": "12",
    "prefectureNumber": 12,
    "prefecture": "千葉県",
    "city": "佐倉市",
    "town": "長熊"
  },
  "2850052": {
    "zipcode": "2850052",
    "prefectureCode": "12",
    "prefectureNumber": 12,
    "prefecture": "千葉県",
    "city": "佐倉市",
    "town": "八木"
  },
  "2850053": {
    "zipcode": "2850053",
    "prefectureCode": "12",
    "prefectureNumber": 12,
    "prefecture": "千葉県",
    "city": "佐倉市",
    "town": "下勝田"
  },
  "2850054": {
    "zipcode": "2850054",
    "prefectureCode": "12",
    "prefectureNumber": 12,
    "prefecture": "千葉県",
    "city": "佐倉市",
    "town": "上勝田"
  },
  "2850055": {
    "zipcode": "2850055",
    "prefectureCode": "12",
    "prefectureNumber": 12,
    "prefecture": "千葉県",
    "city": "佐倉市",
    "town": "瓜坪新田"
  },
  "2850056": {
    "zipcode": "2850056",
    "prefectureCode": "12",
    "prefectureNumber": 12,
    "prefecture": "千葉県",
    "city": "佐倉市",
    "town": "坪山新田"
  },
  "2850057": {
    "zipcode": "2850057",
    "prefectureCode": "12",
    "prefectureNumber": 12,
    "prefecture": "千葉県",
    "city": "佐倉市",
    "town": "米戸"
  },
  "2850061": {
    "zipcode": "2850061",
    "prefectureCode": "12",
    "prefectureNumber": 12,
    "prefecture": "千葉県",
    "city": "佐倉市",
    "town": "高崎"
  },
  "2850062": {
    "zipcode": "2850062",
    "prefectureCode": "12",
    "prefectureNumber": 12,
    "prefecture": "千葉県",
    "city": "佐倉市",
    "town": "寒風"
  },
  "2850063": {
    "zipcode": "2850063",
    "prefectureCode": "12",
    "prefectureNumber": 12,
    "prefecture": "千葉県",
    "city": "佐倉市",
    "town": "宮本"
  },
  "2850064": {
    "zipcode": "2850064",
    "prefectureCode": "12",
    "prefectureNumber": 12,
    "prefecture": "千葉県",
    "city": "佐倉市",
    "town": "天辺"
  },
  "2850065": {
    "zipcode": "2850065",
    "prefectureCode": "12",
    "prefectureNumber": 12,
    "prefecture": "千葉県",
    "city": "佐倉市",
    "town": "直弥"
  },
  "2850066": {
    "zipcode": "2850066",
    "prefectureCode": "12",
    "prefectureNumber": 12,
    "prefecture": "千葉県",
    "city": "佐倉市",
    "town": "上別所"
  },
  "2850071": {
    "zipcode": "2850071",
    "prefectureCode": "12",
    "prefectureNumber": 12,
    "prefecture": "千葉県",
    "city": "佐倉市",
    "town": "岩富"
  },
  "2850072": {
    "zipcode": "2850072",
    "prefectureCode": "12",
    "prefectureNumber": 12,
    "prefecture": "千葉県",
    "city": "佐倉市",
    "town": "岩富町"
  },
  "2850073": {
    "zipcode": "2850073",
    "prefectureCode": "12",
    "prefectureNumber": 12,
    "prefecture": "千葉県",
    "city": "佐倉市",
    "town": "七曲"
  },
  "2850074": {
    "zipcode": "2850074",
    "prefectureCode": "12",
    "prefectureNumber": 12,
    "prefecture": "千葉県",
    "city": "佐倉市",
    "town": "西御門"
  },
  "2850075": {
    "zipcode": "2850075",
    "prefectureCode": "12",
    "prefectureNumber": 12,
    "prefecture": "千葉県",
    "city": "佐倉市",
    "town": "宮内"
  },
  "2850076": {
    "zipcode": "2850076",
    "prefectureCode": "12",
    "prefectureNumber": 12,
    "prefecture": "千葉県",
    "city": "佐倉市",
    "town": "飯塚"
  },
  "2850077": {
    "zipcode": "2850077",
    "prefectureCode": "12",
    "prefectureNumber": 12,
    "prefecture": "千葉県",
    "city": "佐倉市",
    "town": "内田"
  },
  "2850078": {
    "zipcode": "2850078",
    "prefectureCode": "12",
    "prefectureNumber": 12,
    "prefecture": "千葉県",
    "city": "佐倉市",
    "town": "坂戸"
  },
  "2850801": {
    "zipcode": "2850801",
    "prefectureCode": "12",
    "prefectureNumber": 12,
    "prefecture": "千葉県",
    "city": "佐倉市",
    "town": "木野子"
  },
  "2850802": {
    "zipcode": "2850802",
    "prefectureCode": "12",
    "prefectureNumber": 12,
    "prefecture": "千葉県",
    "city": "佐倉市",
    "town": "大作"
  },
  "2850803": {
    "zipcode": "2850803",
    "prefectureCode": "12",
    "prefectureNumber": 12,
    "prefecture": "千葉県",
    "city": "佐倉市",
    "town": "神門"
  },
  "2850804": {
    "zipcode": "2850804",
    "prefectureCode": "12",
    "prefectureNumber": 12,
    "prefecture": "千葉県",
    "city": "佐倉市",
    "town": "馬渡"
  },
  "2850805": {
    "zipcode": "2850805",
    "prefectureCode": "12",
    "prefectureNumber": 12,
    "prefecture": "千葉県",
    "city": "佐倉市",
    "town": "小篠塚"
  },
  "2850806": {
    "zipcode": "2850806",
    "prefectureCode": "12",
    "prefectureNumber": 12,
    "prefecture": "千葉県",
    "city": "佐倉市",
    "town": "大篠塚"
  },
  "2850807": {
    "zipcode": "2850807",
    "prefectureCode": "12",
    "prefectureNumber": 12,
    "prefecture": "千葉県",
    "city": "佐倉市",
    "town": "山王"
  },
  "2850808": {
    "zipcode": "2850808",
    "prefectureCode": "12",
    "prefectureNumber": 12,
    "prefecture": "千葉県",
    "city": "佐倉市",
    "town": "太田"
  },
  "2850811": {
    "zipcode": "2850811",
    "prefectureCode": "12",
    "prefectureNumber": 12,
    "prefecture": "千葉県",
    "city": "佐倉市",
    "town": "表町"
  },
  "2850812": {
    "zipcode": "2850812",
    "prefectureCode": "12",
    "prefectureNumber": 12,
    "prefecture": "千葉県",
    "city": "佐倉市",
    "town": "六崎"
  },
  "2850813": {
    "zipcode": "2850813",
    "prefectureCode": "12",
    "prefectureNumber": 12,
    "prefecture": "千葉県",
    "city": "佐倉市",
    "town": "石川"
  },
  "2850814": {
    "zipcode": "2850814",
    "prefectureCode": "12",
    "prefectureNumber": 12,
    "prefecture": "千葉県",
    "city": "佐倉市",
    "town": "春路"
  },
  "2850815": {
    "zipcode": "2850815",
    "prefectureCode": "12",
    "prefectureNumber": 12,
    "prefecture": "千葉県",
    "city": "佐倉市",
    "town": "城"
  },
  "2850816": {
    "zipcode": "2850816",
    "prefectureCode": "12",
    "prefectureNumber": 12,
    "prefecture": "千葉県",
    "city": "佐倉市",
    "town": "藤治台"
  },
  "2850817": {
    "zipcode": "2850817",
    "prefectureCode": "12",
    "prefectureNumber": 12,
    "prefecture": "千葉県",
    "city": "佐倉市",
    "town": "大崎台"
  },
  "2850818": {
    "zipcode": "2850818",
    "prefectureCode": "12",
    "prefectureNumber": 12,
    "prefecture": "千葉県",
    "city": "佐倉市",
    "town": "寺崎"
  },
  "2850819": {
    "zipcode": "2850819",
    "prefectureCode": "12",
    "prefectureNumber": 12,
    "prefecture": "千葉県",
    "city": "佐倉市",
    "town": "寺崎北"
  },
  "2850821": {
    "zipcode": "2850821",
    "prefectureCode": "12",
    "prefectureNumber": 12,
    "prefecture": "千葉県",
    "city": "佐倉市",
    "town": "角来"
  },
  "2850822": {
    "zipcode": "2850822",
    "prefectureCode": "12",
    "prefectureNumber": 12,
    "prefecture": "千葉県",
    "city": "佐倉市",
    "town": "印南"
  },
  "2850823": {
    "zipcode": "2850823",
    "prefectureCode": "12",
    "prefectureNumber": 12,
    "prefecture": "千葉県",
    "city": "佐倉市",
    "town": "江原新田"
  },
  "2850824": {
    "zipcode": "2850824",
    "prefectureCode": "12",
    "prefectureNumber": 12,
    "prefecture": "千葉県",
    "city": "佐倉市",
    "town": "江原"
  },
  "2850825": {
    "zipcode": "2850825",
    "prefectureCode": "12",
    "prefectureNumber": 12,
    "prefecture": "千葉県",
    "city": "佐倉市",
    "town": "江原台"
  },
  "2850831": {
    "zipcode": "2850831",
    "prefectureCode": "12",
    "prefectureNumber": 12,
    "prefecture": "千葉県",
    "city": "佐倉市",
    "town": "染井野"
  },
  "2850832": {
    "zipcode": "2850832",
    "prefectureCode": "12",
    "prefectureNumber": 12,
    "prefecture": "千葉県",
    "city": "佐倉市",
    "town": "飯重"
  },
  "2850833": {
    "zipcode": "2850833",
    "prefectureCode": "12",
    "prefectureNumber": 12,
    "prefecture": "千葉県",
    "city": "佐倉市",
    "town": "羽鳥"
  },
  "2850834": {
    "zipcode": "2850834",
    "prefectureCode": "12",
    "prefectureNumber": 12,
    "prefecture": "千葉県",
    "city": "佐倉市",
    "town": "吉見"
  },
  "2850835": {
    "zipcode": "2850835",
    "prefectureCode": "12",
    "prefectureNumber": 12,
    "prefecture": "千葉県",
    "city": "佐倉市",
    "town": "畔田"
  },
  "2850836": {
    "zipcode": "2850836",
    "prefectureCode": "12",
    "prefectureNumber": 12,
    "prefecture": "千葉県",
    "city": "佐倉市",
    "town": "生谷"
  },
  "2850837": {
    "zipcode": "2850837",
    "prefectureCode": "12",
    "prefectureNumber": 12,
    "prefecture": "千葉県",
    "city": "佐倉市",
    "town": "王子台"
  },
  "2850841": {
    "zipcode": "2850841",
    "prefectureCode": "12",
    "prefectureNumber": 12,
    "prefecture": "千葉県",
    "city": "佐倉市",
    "town": "下志津"
  },
  "2850842": {
    "zipcode": "2850842",
    "prefectureCode": "12",
    "prefectureNumber": 12,
    "prefecture": "千葉県",
    "city": "佐倉市",
    "town": "下志津原"
  },
  "2850843": {
    "zipcode": "2850843",
    "prefectureCode": "12",
    "prefectureNumber": 12,
    "prefecture": "千葉県",
    "city": "佐倉市",
    "town": "中志津"
  },
  "2850844": {
    "zipcode": "2850844",
    "prefectureCode": "12",
    "prefectureNumber": 12,
    "prefecture": "千葉県",
    "city": "佐倉市",
    "town": "上志津原"
  },
  "2850845": {
    "zipcode": "2850845",
    "prefectureCode": "12",
    "prefectureNumber": 12,
    "prefecture": "千葉県",
    "city": "佐倉市",
    "town": "西志津"
  },
  "2850846": {
    "zipcode": "2850846",
    "prefectureCode": "12",
    "prefectureNumber": 12,
    "prefecture": "千葉県",
    "city": "佐倉市",
    "town": "上志津"
  },
  "2850850": {
    "zipcode": "2850850",
    "prefectureCode": "12",
    "prefectureNumber": 12,
    "prefecture": "千葉県",
    "city": "佐倉市",
    "town": "西ユーカリが丘"
  },
  "2850851": {
    "zipcode": "2850851",
    "prefectureCode": "12",
    "prefectureNumber": 12,
    "prefecture": "千葉県",
    "city": "佐倉市",
    "town": "先崎"
  },
  "2850852": {
    "zipcode": "2850852",
    "prefectureCode": "12",
    "prefectureNumber": 12,
    "prefecture": "千葉県",
    "city": "佐倉市",
    "town": "青菅"
  },
  "2850853": {
    "zipcode": "2850853",
    "prefectureCode": "12",
    "prefectureNumber": 12,
    "prefecture": "千葉県",
    "city": "佐倉市",
    "town": "小竹"
  },
  "2850854": {
    "zipcode": "2850854",
    "prefectureCode": "12",
    "prefectureNumber": 12,
    "prefecture": "千葉県",
    "city": "佐倉市",
    "town": "上座"
  },
  "2850855": {
    "zipcode": "2850855",
    "prefectureCode": "12",
    "prefectureNumber": 12,
    "prefecture": "千葉県",
    "city": "佐倉市",
    "town": "井野"
  },
  "2850856": {
    "zipcode": "2850856",
    "prefectureCode": "12",
    "prefectureNumber": 12,
    "prefecture": "千葉県",
    "city": "佐倉市",
    "town": "井野町"
  },
  "2850857": {
    "zipcode": "2850857",
    "prefectureCode": "12",
    "prefectureNumber": 12,
    "prefecture": "千葉県",
    "city": "佐倉市",
    "town": "宮ノ台"
  },
  "2850858": {
    "zipcode": "2850858",
    "prefectureCode": "12",
    "prefectureNumber": 12,
    "prefecture": "千葉県",
    "city": "佐倉市",
    "town": "ユーカリが丘"
  },
  "2850859": {
    "zipcode": "2850859",
    "prefectureCode": "12",
    "prefectureNumber": 12,
    "prefecture": "千葉県",
    "city": "佐倉市",
    "town": "南ユーカリが丘"
  },
  "2850861": {
    "zipcode": "2850861",
    "prefectureCode": "12",
    "prefectureNumber": 12,
    "prefecture": "千葉県",
    "city": "佐倉市",
    "town": "臼井田"
  },
  "2850862": {
    "zipcode": "2850862",
    "prefectureCode": "12",
    "prefectureNumber": 12,
    "prefecture": "千葉県",
    "city": "佐倉市",
    "town": "新臼井田"
  },
  "2850863": {
    "zipcode": "2850863",
    "prefectureCode": "12",
    "prefectureNumber": 12,
    "prefecture": "千葉県",
    "city": "佐倉市",
    "town": "臼井"
  },
  "2850864": {
    "zipcode": "2850864",
    "prefectureCode": "12",
    "prefectureNumber": 12,
    "prefecture": "千葉県",
    "city": "佐倉市",
    "town": "稲荷台"
  },
  "2850865": {
    "zipcode": "2850865",
    "prefectureCode": "12",
    "prefectureNumber": 12,
    "prefecture": "千葉県",
    "city": "佐倉市",
    "town": "南臼井台"
  },
  "2850866": {
    "zipcode": "2850866",
    "prefectureCode": "12",
    "prefectureNumber": 12,
    "prefecture": "千葉県",
    "city": "佐倉市",
    "town": "臼井台"
  },
  "2850867": {
    "zipcode": "2850867",
    "prefectureCode": "12",
    "prefectureNumber": 12,
    "prefecture": "千葉県",
    "city": "佐倉市",
    "town": "八幡台"
  },
  "2850900": {
    "zipcode": "2850900",
    "prefectureCode": "12",
    "prefectureNumber": 12,
    "prefecture": "千葉県",
    "city": "印旛郡酒々井町",
    "town": "以下に掲載がない場合"
  },
  "2850901": {
    "zipcode": "2850901",
    "prefectureCode": "12",
    "prefectureNumber": 12,
    "prefecture": "千葉県",
    "city": "印旛郡酒々井町",
    "town": "篠山新田"
  },
  "2850902": {
    "zipcode": "2850902",
    "prefectureCode": "12",
    "prefectureNumber": 12,
    "prefecture": "千葉県",
    "city": "印旛郡酒々井町",
    "town": "伊篠"
  },
  "2850903": {
    "zipcode": "2850903",
    "prefectureCode": "12",
    "prefectureNumber": 12,
    "prefecture": "千葉県",
    "city": "印旛郡酒々井町",
    "town": "今倉新田"
  },
  "2850904": {
    "zipcode": "2850904",
    "prefectureCode": "12",
    "prefectureNumber": 12,
    "prefecture": "千葉県",
    "city": "印旛郡酒々井町",
    "town": "伊篠新田"
  },
  "2850905": {
    "zipcode": "2850905",
    "prefectureCode": "12",
    "prefectureNumber": 12,
    "prefecture": "千葉県",
    "city": "印旛郡酒々井町",
    "town": "上岩橋"
  },
  "2850906": {
    "zipcode": "2850906",
    "prefectureCode": "12",
    "prefectureNumber": 12,
    "prefecture": "千葉県",
    "city": "印旛郡酒々井町",
    "town": "柏木"
  },
  "2850907": {
    "zipcode": "2850907",
    "prefectureCode": "12",
    "prefectureNumber": 12,
    "prefecture": "千葉県",
    "city": "印旛郡酒々井町",
    "town": "下岩橋"
  },
  "2850911": {
    "zipcode": "2850911",
    "prefectureCode": "12",
    "prefectureNumber": 12,
    "prefecture": "千葉県",
    "city": "印旛郡酒々井町",
    "town": "尾上"
  },
  "2850912": {
    "zipcode": "2850912",
    "prefectureCode": "12",
    "prefectureNumber": 12,
    "prefecture": "千葉県",
    "city": "印旛郡酒々井町",
    "town": "飯積"
  },
  "2850913": {
    "zipcode": "2850913",
    "prefectureCode": "12",
    "prefectureNumber": 12,
    "prefecture": "千葉県",
    "city": "印旛郡酒々井町",
    "town": "墨"
  },
  "2850914": {
    "zipcode": "2850914",
    "prefectureCode": "12",
    "prefectureNumber": 12,
    "prefecture": "千葉県",
    "city": "印旛郡酒々井町",
    "town": "馬橋"
  },
  "2850921": {
    "zipcode": "2850921",
    "prefectureCode": "12",
    "prefectureNumber": 12,
    "prefecture": "千葉県",
    "city": "印旛郡酒々井町",
    "town": "中川"
  },
  "2850922": {
    "zipcode": "2850922",
    "prefectureCode": "12",
    "prefectureNumber": 12,
    "prefecture": "千葉県",
    "city": "印旛郡酒々井町",
    "town": "中央台"
  },
  "2850923": {
    "zipcode": "2850923",
    "prefectureCode": "12",
    "prefectureNumber": 12,
    "prefecture": "千葉県",
    "city": "印旛郡酒々井町",
    "town": "東酒々井"
  },
  "2850924": {
    "zipcode": "2850924",
    "prefectureCode": "12",
    "prefectureNumber": 12,
    "prefecture": "千葉県",
    "city": "印旛郡酒々井町",
    "town": "下台"
  },
  "2850925": {
    "zipcode": "2850925",
    "prefectureCode": "12",
    "prefectureNumber": 12,
    "prefecture": "千葉県",
    "city": "印旛郡酒々井町",
    "town": "上本佐倉"
  },
  "2850926": {
    "zipcode": "2850926",
    "prefectureCode": "12",
    "prefectureNumber": 12,
    "prefecture": "千葉県",
    "city": "印旛郡酒々井町",
    "town": "本佐倉"
  },
  "2850927": {
    "zipcode": "2850927",
    "prefectureCode": "12",
    "prefectureNumber": 12,
    "prefecture": "千葉県",
    "city": "印旛郡酒々井町",
    "town": "酒々井"
  },
  "2850928": {
    "zipcode": "2850928",
    "prefectureCode": "12",
    "prefectureNumber": 12,
    "prefecture": "千葉県",
    "city": "印旛郡酒々井町",
    "town": "ふじき野"
  }
}
