{
  "2860000": {
    "zipcode": "2860000",
    "prefectureCode": "12",
    "prefectureNumber": 12,
    "prefecture": "千葉県",
    "city": "成田市",
    "town": "以下に掲載がない場合"
  },
  "2860001": {
    "zipcode": "2860001",
    "prefectureCode": "12",
    "prefectureNumber": 12,
    "prefecture": "千葉県",
    "city": "成田市",
    "town": "船形"
  },
  "2860002": {
    "zipcode": "2860002",
    "prefectureCode": "12",
    "prefectureNumber": 12,
    "prefecture": "千葉県",
    "city": "成田市",
    "town": "八代"
  },
  "2860003": {
    "zipcode": "2860003",
    "prefectureCode": "12",
    "prefectureNumber": 12,
    "prefecture": "千葉県",
    "city": "成田市",
    "town": "台方"
  },
  "2860004": {
    "zipcode": "2860004",
    "prefectureCode": "12",
    "prefectureNumber": 12,
    "prefecture": "千葉県",
    "city": "成田市",
    "town": "宗吾"
  },
  "2860005": {
    "zipcode": "2860005",
    "prefectureCode": "12",
    "prefectureNumber": 12,
    "prefecture": "千葉県",
    "city": "成田市",
    "town": "下方"
  },
  "2860006": {
    "zipcode": "2860006",
    "prefectureCode": "12",
    "prefectureNumber": 12,
    "prefecture": "千葉県",
    "city": "成田市",
    "town": "北須賀"
  },
  "2860007": {
    "zipcode": "2860007",
    "prefectureCode": "12",
    "prefectureNumber": 12,
    "prefecture": "千葉県",
    "city": "成田市",
    "town": "はなのき台"
  },
  "2860011": {
    "zipcode": "2860011",
    "prefectureCode": "12",
    "prefectureNumber": 12,
    "prefecture": "千葉県",
    "city": "成田市",
    "town": "玉造"
  },
  "2860012": {
    "zipcode": "2860012",
    "prefectureCode": "12",
    "prefectureNumber": 12,
    "prefecture": "千葉県",
    "city": "成田市",
    "town": "山口"
  },
  "2860013": {
    "zipcode": "2860013",
    "prefectureCode": "12",
    "prefectureNumber": 12,
    "prefecture": "千葉県",
    "city": "成田市",
    "town": "美郷台"
  },
  "2860014": {
    "zipcode": "2860014",
    "prefectureCode": "12",
    "prefectureNumber": 12,
    "prefecture": "千葉県",
    "city": "成田市",
    "town": "郷部"
  },
  "2860015": {
    "zipcode": "2860015",
    "prefectureCode": "12",
    "prefectureNumber": 12,
    "prefecture": "千葉県",
    "city": "成田市",
    "town": "中台"
  },
  "2860016": {
    "zipcode": "2860016",
    "prefectureCode": "12",
    "prefectureNumber": 12,
    "prefecture": "千葉県",
    "city": "成田市",
    "town": "米野"
  },
  "2860017": {
    "zipcode": "2860017",
    "prefectureCode": "12",
    "prefectureNumber": 12,
    "prefecture": "千葉県",
    "city": "成田市",
    "town": "赤坂"
  },
  "2860018": {
    "zipcode": "2860018",
    "prefectureCode": "12",
    "prefectureNumber": 12,
    "prefecture": "千葉県",
    "city": "成田市",
    "town": "吾妻"
  },
  "2860021": {
    "zipcode": "2860021",
    "prefectureCode": "12",
    "prefectureNumber": 12,
    "prefecture": "千葉県",
    "city": "成田市",
    "town": "土屋"
  },
  "2860022": {
    "zipcode": "2860022",
    "prefectureCode": "12",
    "prefectureNumber": 12,
    "prefecture": "千葉県",
    "city": "成田市",
    "town": "寺台"
  },
  "2860023": {
    "zipcode": "2860023",
    "prefectureCode": "12",
    "prefectureNumber": 12,
    "prefecture": "千葉県",
    "city": "成田市",
    "town": "成田"
  },
  "2860024": {
    "zipcode": "2860024",
    "prefectureCode": "12",
    "prefectureNumber": 12,
    "prefecture": "千葉県",
    "city": "成田市",
    "town": "田町"
  },
  "2860025": {
    "zipcode": "2860025",
    "prefectureCode": "12",
    "prefectureNumber": 12,
    "prefecture": "千葉県",
    "city": "成田市",
    "town": "東町"
  },
  "2860026": {
    "zipcode": "2860026",
    "prefectureCode": "12",
    "prefectureNumber": 12,
    "prefecture": "千葉県",
    "city": "成田市",
    "town": "本町"
  },
  "2860027": {
    "zipcode": "2860027",
    "prefectureCode": "12",
    "prefectureNumber": 12,
    "prefecture": "千葉県",
    "city": "成田市",
    "town": "仲町"
  },
  "2860028": {
    "zipcode": "2860028",
    "prefectureCode": "12",
    "prefectureNumber": 12,
    "prefecture": "千葉県",
    "city": "成田市",
    "town": "幸町"
  },
  "2860029": {
    "zipcode": "2860029",
    "prefectureCode": "12",
    "prefectureNumber": 12,
    "prefecture": "千葉県",
    "city": "成田市",
    "town": "ウイング土屋"
  },
  "2860031": {
    "zipcode": "2860031",
    "prefectureCode": "12",
    "prefectureNumber": 12,
    "prefecture": "千葉県",
    "city": "成田市",
    "town": "新町"
  },
  "2860032": {
    "zipcode": "2860032",
    "prefectureCode": "12",
    "prefectureNumber": 12,
    "prefecture": "千葉県",
    "city": "成田市",
    "town": "上町"
  },
  "2860033": {
    "zipcode": "2860033",
    "prefectureCode": "12",
    "prefectureNumber": 12,
    "prefecture": "千葉県",
    "city": "成田市",
    "town": "花崎町"
  },
  "2860034": {
    "zipcode": "2860034",
    "prefectureCode": "12",
    "prefectureNumber": 12,
    "prefecture": "千葉県",
    "city": "成田市",
    "town": "馬橋"
  },
  "2860035": {
    "zipcode": "2860035",
    "prefectureCode": "12",
    "prefectureNumber": 12,
    "prefecture": "千葉県",
    "city": "成田市",
    "town": "囲護台"
  },
  "2860036": {
    "zipcode": "2860036",
    "prefectureCode": "12",
    "prefectureNumber": 12,
    "prefecture": "千葉県",
    "city": "成田市",
    "town": "加良部"
  },
  "2860037": {
    "zipcode": "2860037",
    "prefectureCode": "12",
    "prefectureNumber": 12,
    "prefecture": "千葉県",
    "city": "成田市",
    "town": "橋賀台"
  },
  "2860041": {
    "zipcode": "2860041",
    "prefectureCode": "12",
    "prefectureNumber": 12,
    "prefecture": "千葉県",
    "city": "成田市",
    "town": "飯田町"
  },
  "2860042": {
    "zipcode": "2860042",
    "prefectureCode": "12",
    "prefectureNumber": 12,
    "prefecture": "千葉県",
    "city": "成田市",
    "town": "南平台"
  },
  "2860043": {
    "zipcode": "2860043",
    "prefectureCode": "12",
    "prefectureNumber": 12,
    "prefecture": "千葉県",
    "city": "成田市",
    "town": "大袋"
  },
  "2860044": {
    "zipcode": "2860044",
    "prefectureCode": "12",
    "prefectureNumber": 12,
    "prefecture": "千葉県",
    "city": "成田市",
    "town": "不動ケ岡"
  },
  "2860045": {
    "zipcode": "2860045",
    "prefectureCode": "12",
    "prefectureNumber": 12,
    "prefecture": "千葉県",
    "city": "成田市",
    "town": "並木町"
  },
  "2860046": {
    "zipcode": "2860046",
    "prefectureCode": "12",
    "prefectureNumber": 12,
    "prefecture": "千葉県",
    "city": "成田市",
    "town": "飯仲"
  },
  "2860047": {
    "zipcode": "2860047",
    "prefectureCode": "12",
    "prefectureNumber": 12,
    "prefecture": "千葉県",
    "city": "成田市",
    "town": "江弁須"
  },
  "2860048": {
    "zipcode": "2860048",
    "prefectureCode": "12",
    "prefectureNumber": 12,
    "prefecture": "千葉県",
    "city": "成田市",
    "town": "公津の杜"
  },
  "2860101": {
    "zipcode": "2860101",
    "prefectureCode": "12",
    "prefectureNumber": 12,
    "prefecture": "千葉県",
    "city": "成田市",
    "town": "十余三（その他）"
  },
  "2860102": {
    "zipcode": "2860102",
    "prefectureCode": "12",
    "prefectureNumber": 12,
    "prefecture": "千葉県",
    "city": "成田市",
    "town": "天神峰（その他）"
  },
  "2860103": {
    "zipcode": "2860103",
    "prefectureCode": "12",
    "prefectureNumber": 12,
    "prefecture": "千葉県",
    "city": "成田市",
    "town": "東峰（その他）"
  },
  "2860104": {
    "zipcode": "2860104",
    "prefectureCode": "12",
    "prefectureNumber": 12,
    "prefecture": "千葉県",
    "city": "成田市",
    "town": "古込（その他）"
  },
  "2860105": {
    "zipcode": "2860105",
    "prefectureCode": "12",
    "prefectureNumber": 12,
    "prefecture": "千葉県",
    "city": "成田市",
    "town": "木の根（その他）"
  },
  "2860106": {
    "zipcode": "2860106",
    "prefectureCode": "12",
    "prefectureNumber": 12,
    "prefecture": "千葉県",
    "city": "成田市",
    "town": "取香（その他）"
  },
  "2860107": {
    "zipcode": "2860107",
    "prefectureCode": "12",
    "prefectureNumber": 12,
    "prefecture": "千葉県",
    "city": "成田市",
    "town": "堀之内（その他）"
  },
  "2860108": {
    "zipcode": "2860108",
    "prefectureCode": "12",
    "prefectureNumber": 12,
    "prefecture": "千葉県",
    "city": "成田市",
    "town": "長田"
  },
  "2860111": {
    "zipcode": "2860111",
    "prefectureCode": "12",
    "prefectureNumber": 12,
    "prefecture": "千葉県",
    "city": "成田市",
    "town": "三里塚（その他）"
  },
  "2860112": {
    "zipcode": "2860112",
    "prefectureCode": "12",
    "prefectureNumber": 12,
    "prefecture": "千葉県",
    "city": "成田市",
    "town": "東三里塚（その他）"
  },
  "2860113": {
    "zipcode": "2860113",
    "prefectureCode": "12",
    "prefectureNumber": 12,
    "prefecture": "千葉県",
    "city": "成田市",
    "town": "南三里塚"
  },
  "2860114": {
    "zipcode": "2860114",
    "prefectureCode": "12",
    "prefectureNumber": 12,
    "prefecture": "千葉県",
    "city": "成田市",
    "town": "本城"
  },
  "2860115": {
    "zipcode": "2860115",
    "prefectureCode": "12",
    "prefectureNumber": 12,
    "prefecture": "千葉県",
    "city": "成田市",
    "town": "西三里塚"
  },
  "2860116": {
    "zipcode": "2860116",
    "prefectureCode": "12",
    "prefectureNumber": 12,
    "prefecture": "千葉県",
    "city": "成田市",
    "town": "三里塚御料"
  },
  "2860117": {
    "zipcode": "2860117",
    "prefectureCode": "12",
    "prefectureNumber": 12,
    "prefecture": "千葉県",
    "city": "成田市",
    "town": "三里塚光ケ丘"
  },
  "2860118": {
    "zipcode": "2860118",
    "prefectureCode": "12",
    "prefectureNumber": 12,
    "prefecture": "千葉県",
    "city": "成田市",
    "town": "本三里塚"
  },
  "2860121": {
    "zipcode": "2860121",
    "prefectureCode": "12",
    "prefectureNumber": 12,
    "prefecture": "千葉県",
    "city": "成田市",
    "town": "駒井野（その他）"
  },
  "2860122": {
    "zipcode": "2860122",
    "prefectureCode": "12",
    "prefectureNumber": 12,
    "prefecture": "千葉県",
    "city": "成田市",
    "town": "大清水"
  },
  "2860123": {
    "zipcode": "2860123",
    "prefectureCode": "12",
    "prefectureNumber": 12,
    "prefecture": "千葉県",
    "city": "成田市",
    "town": "新駒井野"
  },
  "2860124": {
    "zipcode": "2860124",
    "prefectureCode": "12",
    "prefectureNumber": 12,
    "prefecture": "千葉県",
    "city": "成田市",
    "town": "畑ケ田"
  },
  "2860125": {
    "zipcode": "2860125",
    "prefectureCode": "12",
    "prefectureNumber": 12,
    "prefecture": "千葉県",
    "city": "成田市",
    "town": "川栗"
  },
  "2860126": {
    "zipcode": "2860126",
    "prefectureCode": "12",
    "prefectureNumber": 12,
    "prefecture": "千葉県",
    "city": "成田市",
    "town": "久米野"
  },
  "2860127": {
    "zipcode": "2860127",
    "prefectureCode": "12",
    "prefectureNumber": 12,
    "prefecture": "千葉県",
    "city": "成田市",
    "town": "小菅（その他）"
  },
  "2860131": {
    "zipcode": "2860131",
    "prefectureCode": "12",
    "prefectureNumber": 12,
    "prefecture": "千葉県",
    "city": "成田市",
    "town": "大山"
  },
  "2860132": {
    "zipcode": "2860132",
    "prefectureCode": "12",
    "prefectureNumber": 12,
    "prefecture": "千葉県",
    "city": "成田市",
    "town": "馬場"
  },
  "2860133": {
    "zipcode": "2860133",
    "prefectureCode": "12",
    "prefectureNumber": 12,
    "prefecture": "千葉県",
    "city": "成田市",
    "town": "吉倉"
  },
  "2860134": {
    "zipcode": "2860134",
    "prefectureCode": "12",
    "prefectureNumber": 12,
    "prefecture": "千葉県",
    "city": "成田市",
    "town": "東和田"
  },
  "2860135": {
    "zipcode": "2860135",
    "prefectureCode": "12",
    "prefectureNumber": 12,
    "prefecture": "千葉県",
    "city": "成田市",
    "town": "山之作"
  },
  "2860136": {
    "zipcode": "2860136",
    "prefectureCode": "12",
    "prefectureNumber": 12,
    "prefecture": "千葉県",
    "city": "成田市",
    "town": "久米"
  },
  "2860137": {
    "zipcode": "2860137",
    "prefectureCode": "12",
    "prefectureNumber": 12,
    "prefecture": "千葉県",
    "city": "成田市",
    "town": "御所の内"
  },
  "2860200": {
    "zipcode": "2860200",
    "prefectureCode": "12",
    "prefectureNumber": 12,
    "prefecture": "千葉県",
    "city": "富里市",
    "town": "以下に掲載がない場合"
  },
  "2860201": {
    "zipcode": "2860201",
    "prefectureCode": "12",
    "prefectureNumber": 12,
    "prefecture": "千葉県",
    "city": "富里市",
    "town": "日吉台"
  },
  "2860202": {
    "zipcode": "2860202",
    "prefectureCode": "12",
    "prefectureNumber": 12,
    "prefecture": "千葉県",
    "city": "富里市",
    "town": "日吉倉"
  },
  "2860203": {
    "zipcode": "2860203",
    "prefectureCode": "12",
    "prefectureNumber": 12,
    "prefecture": "千葉県",
    "city": "富里市",
    "town": "久能"
  },
  "2860204": {
    "zipcode": "2860204",
    "prefectureCode": "12",
    "prefectureNumber": 12,
    "prefecture": "千葉県",
    "city": "富里市",
    "town": "大和"
  },
  "2860205": {
    "zipcode": "2860205",
    "prefectureCode": "12",
    "prefectureNumber": 12,
    "prefecture": "千葉県",
    "city": "富里市",
    "town": "根木名"
  },
  "2860211": {
    "zipcode": "2860211",
    "prefectureCode": "12",
    "prefectureNumber": 12,
    "prefecture": "千葉県",
    "city": "富里市",
    "town": "御料"
  },
  "2860212": {
    "zipcode": "2860212",
    "prefectureCode": "12",
    "prefectureNumber": 12,
    "prefecture": "千葉県",
    "city": "富里市",
    "town": "十倉"
  },
  "2860213": {
    "zipcode": "2860213",
    "prefectureCode": "12",
    "prefectureNumber": 12,
    "prefecture": "千葉県",
    "city": "富里市",
    "town": "高松"
  },
  "2860214": {
    "zipcode": "2860214",
    "prefectureCode": "12",
    "prefectureNumber": 12,
    "prefecture": "千葉県",
    "city": "富里市",
    "town": "立沢"
  },
  "2860215": {
    "zipcode": "2860215",
    "prefectureCode": "12",
    "prefectureNumber": 12,
    "prefecture": "千葉県",
    "city": "富里市",
    "town": "立沢新田"
  },
  "2860216": {
    "zipcode": "2860216",
    "prefectureCode": "12",
    "prefectureNumber": 12,
    "prefecture": "千葉県",
    "city": "富里市",
    "town": "高野"
  },
  "2860221": {
    "zipcode": "2860221",
    "prefectureCode": "12",
    "prefectureNumber": 12,
    "prefecture": "千葉県",
    "city": "富里市",
    "town": "七栄"
  },
  "2860222": {
    "zipcode": "2860222",
    "prefectureCode": "12",
    "prefectureNumber": 12,
    "prefecture": "千葉県",
    "city": "富里市",
    "town": "中沢"
  },
  "2860223": {
    "zipcode": "2860223",
    "prefectureCode": "12",
    "prefectureNumber": 12,
    "prefecture": "千葉県",
    "city": "富里市",
    "town": "新中沢"
  },
  "2860224": {
    "zipcode": "2860224",
    "prefectureCode": "12",
    "prefectureNumber": 12,
    "prefecture": "千葉県",
    "city": "富里市",
    "town": "新橋"
  },
  "2860225": {
    "zipcode": "2860225",
    "prefectureCode": "12",
    "prefectureNumber": 12,
    "prefecture": "千葉県",
    "city": "富里市",
    "town": "美沢"
  },
  "2860801": {
    "zipcode": "2860801",
    "prefectureCode": "12",
    "prefectureNumber": 12,
    "prefecture": "千葉県",
    "city": "成田市",
    "town": "竜台"
  },
  "2860802": {
    "zipcode": "2860802",
    "prefectureCode": "12",
    "prefectureNumber": 12,
    "prefecture": "千葉県",
    "city": "成田市",
    "town": "北部"
  },
  "2860803": {
    "zipcode": "2860803",
    "prefectureCode": "12",
    "prefectureNumber": 12,
    "prefecture": "千葉県",
    "city": "成田市",
    "town": "安西"
  },
  "2860804": {
    "zipcode": "2860804",
    "prefectureCode": "12",
    "prefectureNumber": 12,
    "prefecture": "千葉県",
    "city": "成田市",
    "town": "長沼"
  },
  "2860805": {
    "zipcode": "2860805",
    "prefectureCode": "12",
    "prefectureNumber": 12,
    "prefecture": "千葉県",
    "city": "成田市",
    "town": "南羽鳥"
  },
  "2860806": {
    "zipcode": "2860806",
    "prefectureCode": "12",
    "prefectureNumber": 12,
    "prefecture": "千葉県",
    "city": "成田市",
    "town": "南部"
  },
  "2860807": {
    "zipcode": "2860807",
    "prefectureCode": "12",
    "prefectureNumber": 12,
    "prefecture": "千葉県",
    "city": "成田市",
    "town": "北羽鳥"
  },
  "2860808": {
    "zipcode": "2860808",
    "prefectureCode": "12",
    "prefectureNumber": 12,
    "prefecture": "千葉県",
    "city": "成田市",
    "town": "佐野"
  },
  "2860811": {
    "zipcode": "2860811",
    "prefectureCode": "12",
    "prefectureNumber": 12,
    "prefecture": "千葉県",
    "city": "成田市",
    "town": "磯部"
  },
  "2860812": {
    "zipcode": "2860812",
    "prefectureCode": "12",
    "prefectureNumber": 12,
    "prefecture": "千葉県",
    "city": "成田市",
    "town": "水掛"
  },
  "2860813": {
    "zipcode": "2860813",
    "prefectureCode": "12",
    "prefectureNumber": 12,
    "prefecture": "千葉県",
    "city": "成田市",
    "town": "飯岡"
  },
  "2860814": {
    "zipcode": "2860814",
    "prefectureCode": "12",
    "prefectureNumber": 12,
    "prefecture": "千葉県",
    "city": "成田市",
    "town": "幡谷"
  },
  "2860815": {
    "zipcode": "2860815",
    "prefectureCode": "12",
    "prefectureNumber": 12,
    "prefecture": "千葉県",
    "city": "成田市",
    "town": "土室"
  },
  "2860816": {
    "zipcode": "2860816",
    "prefectureCode": "12",
    "prefectureNumber": 12,
    "prefecture": "千葉県",
    "city": "成田市",
    "town": "成毛"
  },
  "2860817": {
    "zipcode": "2860817",
    "prefectureCode": "12",
    "prefectureNumber": 12,
    "prefecture": "千葉県",
    "city": "成田市",
    "town": "大生"
  },
  "2860818": {
    "zipcode": "2860818",
    "prefectureCode": "12",
    "prefectureNumber": 12,
    "prefecture": "千葉県",
    "city": "成田市",
    "town": "荒海"
  },
  "2860819": {
    "zipcode": "2860819",
    "prefectureCode": "12",
    "prefectureNumber": 12,
    "prefecture": "千葉県",
    "city": "成田市",
    "town": "久住中央"
  },
  "2860821": {
    "zipcode": "2860821",
    "prefectureCode": "12",
    "prefectureNumber": 12,
    "prefecture": "千葉県",
    "city": "成田市",
    "town": "大室"
  },
  "2860822": {
    "zipcode": "2860822",
    "prefectureCode": "12",
    "prefectureNumber": 12,
    "prefecture": "千葉県",
    "city": "成田市",
    "town": "芝"
  },
  "2860823": {
    "zipcode": "2860823",
    "prefectureCode": "12",
    "prefectureNumber": 12,
    "prefecture": "千葉県",
    "city": "成田市",
    "town": "小泉"
  },
  "2860824": {
    "zipcode": "2860824",
    "prefectureCode": "12",
    "prefectureNumber": 12,
    "prefecture": "千葉県",
    "city": "成田市",
    "town": "野毛平"
  },
  "2860825": {
    "zipcode": "2860825",
    "prefectureCode": "12",
    "prefectureNumber": 12,
    "prefecture": "千葉県",
    "city": "成田市",
    "town": "新泉"
  },
  "2860826": {
    "zipcode": "2860826",
    "prefectureCode": "12",
    "prefectureNumber": 12,
    "prefecture": "千葉県",
    "city": "成田市",
    "town": "東和泉"
  },
  "2860827": {
    "zipcode": "2860827",
    "prefectureCode": "12",
    "prefectureNumber": 12,
    "prefecture": "千葉県",
    "city": "成田市",
    "town": "西和泉"
  },
  "2860831": {
    "zipcode": "2860831",
    "prefectureCode": "12",
    "prefectureNumber": 12,
    "prefecture": "千葉県",
    "city": "成田市",
    "town": "芦田"
  },
  "2860832": {
    "zipcode": "2860832",
    "prefectureCode": "12",
    "prefectureNumber": 12,
    "prefecture": "千葉県",
    "city": "成田市",
    "town": "赤荻"
  },
  "2860833": {
    "zipcode": "2860833",
    "prefectureCode": "12",
    "prefectureNumber": 12,
    "prefecture": "千葉県",
    "city": "成田市",
    "town": "東金山"
  },
  "2860834": {
    "zipcode": "2860834",
    "prefectureCode": "12",
    "prefectureNumber": 12,
    "prefecture": "千葉県",
    "city": "成田市",
    "town": "和田"
  },
  "2860835": {
    "zipcode": "2860835",
    "prefectureCode": "12",
    "prefectureNumber": 12,
    "prefecture": "千葉県",
    "city": "成田市",
    "town": "関戸"
  },
  "2860836": {
    "zipcode": "2860836",
    "prefectureCode": "12",
    "prefectureNumber": 12,
    "prefecture": "千葉県",
    "city": "成田市",
    "town": "下金山"
  },
  "2860837": {
    "zipcode": "2860837",
    "prefectureCode": "12",
    "prefectureNumber": 12,
    "prefecture": "千葉県",
    "city": "成田市",
    "town": "新妻"
  },
  "2860841": {
    "zipcode": "2860841",
    "prefectureCode": "12",
    "prefectureNumber": 12,
    "prefecture": "千葉県",
    "city": "成田市",
    "town": "大竹"
  },
  "2860842": {
    "zipcode": "2860842",
    "prefectureCode": "12",
    "prefectureNumber": 12,
    "prefecture": "千葉県",
    "city": "成田市",
    "town": "上福田"
  },
  "2860843": {
    "zipcode": "2860843",
    "prefectureCode": "12",
    "prefectureNumber": 12,
    "prefecture": "千葉県",
    "city": "成田市",
    "town": "下福田"
  },
  "2860844": {
    "zipcode": "2860844",
    "prefectureCode": "12",
    "prefectureNumber": 12,
    "prefecture": "千葉県",
    "city": "成田市",
    "town": "宝田"
  },
  "2860845": {
    "zipcode": "2860845",
    "prefectureCode": "12",
    "prefectureNumber": 12,
    "prefecture": "千葉県",
    "city": "成田市",
    "town": "押畑"
  },
  "2860846": {
    "zipcode": "2860846",
    "prefectureCode": "12",
    "prefectureNumber": 12,
    "prefecture": "千葉県",
    "city": "成田市",
    "town": "松崎"
  }
}
