{
  "2880000": {
    "zipcode": "2880000",
    "prefectureCode": "12",
    "prefectureNumber": 12,
    "prefecture": "千葉県",
    "city": "銚子市",
    "town": "以下に掲載がない場合"
  },
  "2880001": {
    "zipcode": "2880001",
    "prefectureCode": "12",
    "prefectureNumber": 12,
    "prefecture": "千葉県",
    "city": "銚子市",
    "town": "川口町"
  },
  "2880002": {
    "zipcode": "2880002",
    "prefectureCode": "12",
    "prefectureNumber": 12,
    "prefecture": "千葉県",
    "city": "銚子市",
    "town": "明神町"
  },
  "2880003": {
    "zipcode": "2880003",
    "prefectureCode": "12",
    "prefectureNumber": 12,
    "prefecture": "千葉県",
    "city": "銚子市",
    "town": "黒生町"
  },
  "2880004": {
    "zipcode": "2880004",
    "prefectureCode": "12",
    "prefectureNumber": 12,
    "prefecture": "千葉県",
    "city": "銚子市",
    "town": "笠上町"
  },
  "2880005": {
    "zipcode": "2880005",
    "prefectureCode": "12",
    "prefectureNumber": 12,
    "prefecture": "千葉県",
    "city": "銚子市",
    "town": "海鹿島町"
  },
  "2880006": {
    "zipcode": "2880006",
    "prefectureCode": "12",
    "prefectureNumber": 12,
    "prefecture": "千葉県",
    "city": "銚子市",
    "town": "榊町"
  },
  "2880007": {
    "zipcode": "2880007",
    "prefectureCode": "12",
    "prefectureNumber": 12,
    "prefecture": "千葉県",
    "city": "銚子市",
    "town": "愛宕町"
  },
  "2880011": {
    "zipcode": "2880011",
    "prefectureCode": "12",
    "prefectureNumber": 12,
    "prefecture": "千葉県",
    "city": "銚子市",
    "town": "君ケ浜"
  },
  "2880012": {
    "zipcode": "2880012",
    "prefectureCode": "12",
    "prefectureNumber": 12,
    "prefecture": "千葉県",
    "city": "銚子市",
    "town": "犬吠埼"
  },
  "2880013": {
    "zipcode": "2880013",
    "prefectureCode": "12",
    "prefectureNumber": 12,
    "prefecture": "千葉県",
    "city": "銚子市",
    "town": "長崎町"
  },
  "2880014": {
    "zipcode": "2880014",
    "prefectureCode": "12",
    "prefectureNumber": 12,
    "prefecture": "千葉県",
    "city": "銚子市",
    "town": "外川町"
  },
  "2880015": {
    "zipcode": "2880015",
    "prefectureCode": "12",
    "prefectureNumber": 12,
    "prefecture": "千葉県",
    "city": "銚子市",
    "town": "犬若"
  },
  "2880016": {
    "zipcode": "2880016",
    "prefectureCode": "12",
    "prefectureNumber": 12,
    "prefecture": "千葉県",
    "city": "銚子市",
    "town": "外川台町"
  },
  "2880021": {
    "zipcode": "2880021",
    "prefectureCode": "12",
    "prefectureNumber": 12,
    "prefecture": "千葉県",
    "city": "銚子市",
    "town": "小畑新町"
  },
  "2880022": {
    "zipcode": "2880022",
    "prefectureCode": "12",
    "prefectureNumber": 12,
    "prefecture": "千葉県",
    "city": "銚子市",
    "town": "小畑町"
  },
  "2880023": {
    "zipcode": "2880023",
    "prefectureCode": "12",
    "prefectureNumber": 12,
    "prefecture": "千葉県",
    "city": "銚子市",
    "town": "高神東町"
  },
  "2880024": {
    "zipcode": "2880024",
    "prefectureCode": "12",
    "prefectureNumber": 12,
    "prefecture": "千葉県",
    "city": "銚子市",
    "town": "天王台"
  },
  "2880025": {
    "zipcode": "2880025",
    "prefectureCode": "12",
    "prefectureNumber": 12,
    "prefecture": "千葉県",
    "city": "銚子市",
    "town": "潮見町"
  },
  "2880026": {
    "zipcode": "2880026",
    "prefectureCode": "12",
    "prefectureNumber": 12,
    "prefecture": "千葉県",
    "city": "銚子市",
    "town": "高神西町"
  },
  "2880027": {
    "zipcode": "2880027",
    "prefectureCode": "12",
    "prefectureNumber": 12,
    "prefecture": "千葉県",
    "city": "銚子市",
    "town": "高神原町"
  },
  "2880031": {
    "zipcode": "2880031",
    "prefectureCode": "12",
    "prefectureNumber": 12,
    "prefecture": "千葉県",
    "city": "銚子市",
    "town": "前宿町"
  },
  "2880032": {
    "zipcode": "2880032",
    "prefectureCode": "12",
    "prefectureNumber": 12,
    "prefecture": "千葉県",
    "city": "銚子市",
    "town": "東小川町"
  },
  "2880033": {
    "zipcode": "2880033",
    "prefectureCode": "12",
    "prefectureNumber": 12,
    "prefecture": "千葉県",
    "city": "銚子市",
    "town": "南小川町"
  },
  "2880034": {
    "zipcode": "2880034",
    "prefectureCode": "12",
    "prefectureNumber": 12,
    "prefecture": "千葉県",
    "city": "銚子市",
    "town": "粟島町"
  },
  "2880035": {
    "zipcode": "2880035",
    "prefectureCode": "12",
    "prefectureNumber": 12,
    "prefecture": "千葉県",
    "city": "銚子市",
    "town": "名洗町"
  },
  "2880036": {
    "zipcode": "2880036",
    "prefectureCode": "12",
    "prefectureNumber": 12,
    "prefecture": "千葉県",
    "city": "銚子市",
    "town": "西小川町"
  },
  "2880037": {
    "zipcode": "2880037",
    "prefectureCode": "12",
    "prefectureNumber": 12,
    "prefecture": "千葉県",
    "city": "銚子市",
    "town": "北小川町"
  },
  "2880038": {
    "zipcode": "2880038",
    "prefectureCode": "12",
    "prefectureNumber": 12,
    "prefecture": "千葉県",
    "city": "銚子市",
    "town": "南町"
  },
  "2880041": {
    "zipcode": "2880041",
    "prefectureCode": "12",
    "prefectureNumber": 12,
    "prefecture": "千葉県",
    "city": "銚子市",
    "town": "中央町"
  },
  "2880042": {
    "zipcode": "2880042",
    "prefectureCode": "12",
    "prefectureNumber": 12,
    "prefecture": "千葉県",
    "city": "銚子市",
    "town": "末広町"
  },
  "2880043": {
    "zipcode": "2880043",
    "prefectureCode": "12",
    "prefectureNumber": 12,
    "prefecture": "千葉県",
    "city": "銚子市",
    "town": "東芝町"
  },
  "2880044": {
    "zipcode": "2880044",
    "prefectureCode": "12",
    "prefectureNumber": 12,
    "prefecture": "千葉県",
    "city": "銚子市",
    "town": "西芝町"
  },
  "2880045": {
    "zipcode": "2880045",
    "prefectureCode": "12",
    "prefectureNumber": 12,
    "prefecture": "千葉県",
    "city": "銚子市",
    "town": "三軒町"
  },
  "2880046": {
    "zipcode": "2880046",
    "prefectureCode": "12",
    "prefectureNumber": 12,
    "prefecture": "千葉県",
    "city": "銚子市",
    "town": "大橋町"
  },
  "2880047": {
    "zipcode": "2880047",
    "prefectureCode": "12",
    "prefectureNumber": 12,
    "prefecture": "千葉県",
    "city": "銚子市",
    "town": "若宮町"
  },
  "2880048": {
    "zipcode": "2880048",
    "prefectureCode": "12",
    "prefectureNumber": 12,
    "prefecture": "千葉県",
    "city": "銚子市",
    "town": "双葉町"
  },
  "2880051": {
    "zipcode": "2880051",
    "prefectureCode": "12",
    "prefectureNumber": 12,
    "prefecture": "千葉県",
    "city": "銚子市",
    "town": "飯沼町"
  },
  "2880052": {
    "zipcode": "2880052",
    "prefectureCode": "12",
    "prefectureNumber": 12,
    "prefecture": "千葉県",
    "city": "銚子市",
    "town": "浜町"
  },
  "2880053": {
    "zipcode": "2880053",
    "prefectureCode": "12",
    "prefectureNumber": 12,
    "prefecture": "千葉県",
    "city": "銚子市",
    "town": "東町"
  },
  "2880054": {
    "zipcode": "2880054",
    "prefectureCode": "12",
    "prefectureNumber": 12,
    "prefecture": "千葉県",
    "city": "銚子市",
    "town": "馬場町"
  },
  "2880055": {
    "zipcode": "2880055",
    "prefectureCode": "12",
    "prefectureNumber": 12,
    "prefecture": "千葉県",
    "city": "銚子市",
    "town": "陣屋町"
  },
  "2880056": {
    "zipcode": "2880056",
    "prefectureCode": "12",
    "prefectureNumber": 12,
    "prefecture": "千葉県",
    "city": "銚子市",
    "town": "新生町"
  },
  "2880061": {
    "zipcode": "2880061",
    "prefectureCode": "12",
    "prefectureNumber": 12,
    "prefecture": "千葉県",
    "city": "銚子市",
    "town": "港町"
  },
  "2880062": {
    "zipcode": "2880062",
    "prefectureCode": "12",
    "prefectureNumber": 12,
    "prefecture": "千葉県",
    "city": "銚子市",
    "town": "竹町"
  },
  "2880063": {
    "zipcode": "2880063",
    "prefectureCode": "12",
    "prefectureNumber": 12,
    "prefecture": "千葉県",
    "city": "銚子市",
    "town": "清水町"
  },
  "2880064": {
    "zipcode": "2880064",
    "prefectureCode": "12",
    "prefectureNumber": 12,
    "prefecture": "千葉県",
    "city": "銚子市",
    "town": "後飯町"
  },
  "2880065": {
    "zipcode": "2880065",
    "prefectureCode": "12",
    "prefectureNumber": 12,
    "prefecture": "千葉県",
    "city": "銚子市",
    "town": "田中町"
  },
  "2880066": {
    "zipcode": "2880066",
    "prefectureCode": "12",
    "prefectureNumber": 12,
    "prefecture": "千葉県",
    "city": "銚子市",
    "town": "和田町"
  },
  "2880067": {
    "zipcode": "2880067",
    "prefectureCode": "12",
    "prefectureNumber": 12,
    "prefecture": "千葉県",
    "city": "銚子市",
    "town": "新地町"
  },
  "2880068": {
    "zipcode": "2880068",
    "prefectureCode": "12",
    "prefectureNumber": 12,
    "prefecture": "千葉県",
    "city": "銚子市",
    "town": "内浜町"
  },
  "2880071": {
    "zipcode": "2880071",
    "prefectureCode": "12",
    "prefectureNumber": 12,
    "prefecture": "千葉県",
    "city": "銚子市",
    "town": "植松町"
  },
  "2880072": {
    "zipcode": "2880072",
    "prefectureCode": "12",
    "prefectureNumber": 12,
    "prefecture": "千葉県",
    "city": "銚子市",
    "town": "弥生町"
  },
  "2880073": {
    "zipcode": "2880073",
    "prefectureCode": "12",
    "prefectureNumber": 12,
    "prefecture": "千葉県",
    "city": "銚子市",
    "town": "幸町"
  },
  "2880074": {
    "zipcode": "2880074",
    "prefectureCode": "12",
    "prefectureNumber": 12,
    "prefecture": "千葉県",
    "city": "銚子市",
    "town": "橋本町"
  },
  "2880075": {
    "zipcode": "2880075",
    "prefectureCode": "12",
    "prefectureNumber": 12,
    "prefecture": "千葉県",
    "city": "銚子市",
    "town": "通町"
  },
  "2880076": {
    "zipcode": "2880076",
    "prefectureCode": "12",
    "prefectureNumber": 12,
    "prefecture": "千葉県",
    "city": "銚子市",
    "town": "本町"
  },
  "2880077": {
    "zipcode": "2880077",
    "prefectureCode": "12",
    "prefectureNumber": 12,
    "prefecture": "千葉県",
    "city": "銚子市",
    "town": "仲町"
  },
  "2880801": {
    "zipcode": "2880801",
    "prefectureCode": "12",
    "prefectureNumber": 12,
    "prefecture": "千葉県",
    "city": "銚子市",
    "town": "唐子町"
  },
  "2880802": {
    "zipcode": "2880802",
    "prefectureCode": "12",
    "prefectureNumber": 12,
    "prefecture": "千葉県",
    "city": "銚子市",
    "town": "松本町"
  },
  "2880803": {
    "zipcode": "2880803",
    "prefectureCode": "12",
    "prefectureNumber": 12,
    "prefecture": "千葉県",
    "city": "銚子市",
    "town": "八幡町"
  },
  "2880804": {
    "zipcode": "2880804",
    "prefectureCode": "12",
    "prefectureNumber": 12,
    "prefecture": "千葉県",
    "city": "銚子市",
    "town": "今宮町"
  },
  "2880805": {
    "zipcode": "2880805",
    "prefectureCode": "12",
    "prefectureNumber": 12,
    "prefecture": "千葉県",
    "city": "銚子市",
    "town": "上野町"
  },
  "2880811": {
    "zipcode": "2880811",
    "prefectureCode": "12",
    "prefectureNumber": 12,
    "prefecture": "千葉県",
    "city": "銚子市",
    "town": "妙見町"
  },
  "2880812": {
    "zipcode": "2880812",
    "prefectureCode": "12",
    "prefectureNumber": 12,
    "prefecture": "千葉県",
    "city": "銚子市",
    "town": "栄町"
  },
  "2880813": {
    "zipcode": "2880813",
    "prefectureCode": "12",
    "prefectureNumber": 12,
    "prefecture": "千葉県",
    "city": "銚子市",
    "town": "台町"
  },
  "2880814": {
    "zipcode": "2880814",
    "prefectureCode": "12",
    "prefectureNumber": 12,
    "prefecture": "千葉県",
    "city": "銚子市",
    "town": "春日町"
  },
  "2880815": {
    "zipcode": "2880815",
    "prefectureCode": "12",
    "prefectureNumber": 12,
    "prefecture": "千葉県",
    "city": "銚子市",
    "town": "三崎町"
  },
  "2880816": {
    "zipcode": "2880816",
    "prefectureCode": "12",
    "prefectureNumber": 12,
    "prefecture": "千葉県",
    "city": "銚子市",
    "town": "春日台町"
  },
  "2880817": {
    "zipcode": "2880817",
    "prefectureCode": "12",
    "prefectureNumber": 12,
    "prefecture": "千葉県",
    "city": "銚子市",
    "town": "清川町"
  },
  "2880821": {
    "zipcode": "2880821",
    "prefectureCode": "12",
    "prefectureNumber": 12,
    "prefecture": "千葉県",
    "city": "銚子市",
    "town": "小浜町"
  },
  "2880822": {
    "zipcode": "2880822",
    "prefectureCode": "12",
    "prefectureNumber": 12,
    "prefecture": "千葉県",
    "city": "銚子市",
    "town": "八木町"
  },
  "2880823": {
    "zipcode": "2880823",
    "prefectureCode": "12",
    "prefectureNumber": 12,
    "prefecture": "千葉県",
    "city": "銚子市",
    "town": "親田町"
  },
  "2880824": {
    "zipcode": "2880824",
    "prefectureCode": "12",
    "prefectureNumber": 12,
    "prefecture": "千葉県",
    "city": "銚子市",
    "town": "常世田町"
  },
  "2880825": {
    "zipcode": "2880825",
    "prefectureCode": "12",
    "prefectureNumber": 12,
    "prefecture": "千葉県",
    "city": "銚子市",
    "town": "新町"
  },
  "2880831": {
    "zipcode": "2880831",
    "prefectureCode": "12",
    "prefectureNumber": 12,
    "prefecture": "千葉県",
    "city": "銚子市",
    "town": "本城町"
  },
  "2880832": {
    "zipcode": "2880832",
    "prefectureCode": "12",
    "prefectureNumber": 12,
    "prefecture": "千葉県",
    "city": "銚子市",
    "town": "松岸見晴台"
  },
  "2880833": {
    "zipcode": "2880833",
    "prefectureCode": "12",
    "prefectureNumber": 12,
    "prefecture": "千葉県",
    "city": "銚子市",
    "town": "垣根見晴台"
  },
  "2880834": {
    "zipcode": "2880834",
    "prefectureCode": "12",
    "prefectureNumber": 12,
    "prefecture": "千葉県",
    "city": "銚子市",
    "town": "高野町"
  },
  "2880835": {
    "zipcode": "2880835",
    "prefectureCode": "12",
    "prefectureNumber": 12,
    "prefecture": "千葉県",
    "city": "銚子市",
    "town": "垣根町"
  },
  "2880836": {
    "zipcode": "2880836",
    "prefectureCode": "12",
    "prefectureNumber": 12,
    "prefecture": "千葉県",
    "city": "銚子市",
    "town": "松岸町"
  },
  "2880837": {
    "zipcode": "2880837",
    "prefectureCode": "12",
    "prefectureNumber": 12,
    "prefecture": "千葉県",
    "city": "銚子市",
    "town": "長塚町"
  },
  "2880841": {
    "zipcode": "2880841",
    "prefectureCode": "12",
    "prefectureNumber": 12,
    "prefecture": "千葉県",
    "city": "銚子市",
    "town": "四日市場町"
  },
  "2880842": {
    "zipcode": "2880842",
    "prefectureCode": "12",
    "prefectureNumber": 12,
    "prefecture": "千葉県",
    "city": "銚子市",
    "town": "柴崎町"
  },
  "2880843": {
    "zipcode": "2880843",
    "prefectureCode": "12",
    "prefectureNumber": 12,
    "prefecture": "千葉県",
    "city": "銚子市",
    "town": "四日市場台"
  },
  "2880844": {
    "zipcode": "2880844",
    "prefectureCode": "12",
    "prefectureNumber": 12,
    "prefecture": "千葉県",
    "city": "銚子市",
    "town": "赤塚町"
  },
  "2880845": {
    "zipcode": "2880845",
    "prefectureCode": "12",
    "prefectureNumber": 12,
    "prefecture": "千葉県",
    "city": "銚子市",
    "town": "三宅町"
  },
  "2880846": {
    "zipcode": "2880846",
    "prefectureCode": "12",
    "prefectureNumber": 12,
    "prefecture": "千葉県",
    "city": "銚子市",
    "town": "余山町"
  },
  "2880851": {
    "zipcode": "2880851",
    "prefectureCode": "12",
    "prefectureNumber": 12,
    "prefecture": "千葉県",
    "city": "銚子市",
    "town": "三門町"
  },
  "2880852": {
    "zipcode": "2880852",
    "prefectureCode": "12",
    "prefectureNumber": 12,
    "prefecture": "千葉県",
    "city": "銚子市",
    "town": "岡野台町"
  },
  "2880853": {
    "zipcode": "2880853",
    "prefectureCode": "12",
    "prefectureNumber": 12,
    "prefecture": "千葉県",
    "city": "銚子市",
    "town": "白石町"
  },
  "2880854": {
    "zipcode": "2880854",
    "prefectureCode": "12",
    "prefectureNumber": 12,
    "prefecture": "千葉県",
    "city": "銚子市",
    "town": "茶畑町"
  },
  "2880855": {
    "zipcode": "2880855",
    "prefectureCode": "12",
    "prefectureNumber": 12,
    "prefecture": "千葉県",
    "city": "銚子市",
    "town": "猿田町"
  },
  "2880856": {
    "zipcode": "2880856",
    "prefectureCode": "12",
    "prefectureNumber": 12,
    "prefecture": "千葉県",
    "city": "銚子市",
    "town": "正明寺町"
  },
  "2880857": {
    "zipcode": "2880857",
    "prefectureCode": "12",
    "prefectureNumber": 12,
    "prefecture": "千葉県",
    "city": "銚子市",
    "town": "船木町"
  },
  "2880858": {
    "zipcode": "2880858",
    "prefectureCode": "12",
    "prefectureNumber": 12,
    "prefecture": "千葉県",
    "city": "銚子市",
    "town": "中島町"
  },
  "2880861": {
    "zipcode": "2880861",
    "prefectureCode": "12",
    "prefectureNumber": 12,
    "prefecture": "千葉県",
    "city": "銚子市",
    "town": "芦崎町"
  },
  "2880862": {
    "zipcode": "2880862",
    "prefectureCode": "12",
    "prefectureNumber": 12,
    "prefecture": "千葉県",
    "city": "銚子市",
    "town": "高田町"
  },
  "2880863": {
    "zipcode": "2880863",
    "prefectureCode": "12",
    "prefectureNumber": 12,
    "prefecture": "千葉県",
    "city": "銚子市",
    "town": "野尻町"
  },
  "2880864": {
    "zipcode": "2880864",
    "prefectureCode": "12",
    "prefectureNumber": 12,
    "prefecture": "千葉県",
    "city": "銚子市",
    "town": "小船木町"
  },
  "2880865": {
    "zipcode": "2880865",
    "prefectureCode": "12",
    "prefectureNumber": 12,
    "prefecture": "千葉県",
    "city": "銚子市",
    "town": "長山町"
  },
  "2880866": {
    "zipcode": "2880866",
    "prefectureCode": "12",
    "prefectureNumber": 12,
    "prefecture": "千葉県",
    "city": "銚子市",
    "town": "小長町"
  },
  "2880867": {
    "zipcode": "2880867",
    "prefectureCode": "12",
    "prefectureNumber": 12,
    "prefecture": "千葉県",
    "city": "銚子市",
    "town": "忍町"
  },
  "2880868": {
    "zipcode": "2880868",
    "prefectureCode": "12",
    "prefectureNumber": 12,
    "prefecture": "千葉県",
    "city": "銚子市",
    "town": "塚本町"
  },
  "2880871": {
    "zipcode": "2880871",
    "prefectureCode": "12",
    "prefectureNumber": 12,
    "prefecture": "千葉県",
    "city": "銚子市",
    "town": "富川町"
  },
  "2880872": {
    "zipcode": "2880872",
    "prefectureCode": "12",
    "prefectureNumber": 12,
    "prefecture": "千葉県",
    "city": "銚子市",
    "town": "森戸町"
  },
  "2880873": {
    "zipcode": "2880873",
    "prefectureCode": "12",
    "prefectureNumber": 12,
    "prefecture": "千葉県",
    "city": "銚子市",
    "town": "笹本町"
  },
  "2880874": {
    "zipcode": "2880874",
    "prefectureCode": "12",
    "prefectureNumber": 12,
    "prefecture": "千葉県",
    "city": "銚子市",
    "town": "豊里台"
  },
  "2880875": {
    "zipcode": "2880875",
    "prefectureCode": "12",
    "prefectureNumber": 12,
    "prefecture": "千葉県",
    "city": "銚子市",
    "town": "諸持町"
  },
  "2880876": {
    "zipcode": "2880876",
    "prefectureCode": "12",
    "prefectureNumber": 12,
    "prefecture": "千葉県",
    "city": "銚子市",
    "town": "桜井町"
  },
  "2880877": {
    "zipcode": "2880877",
    "prefectureCode": "12",
    "prefectureNumber": 12,
    "prefecture": "千葉県",
    "city": "銚子市",
    "town": "宮原町"
  }
}
