{
  "2890100": {
    "zipcode": "2890100",
    "prefectureCode": "12",
    "prefectureNumber": 12,
    "prefecture": "千葉県",
    "city": "香取郡神崎町",
    "town": "以下に掲載がない場合"
  },
  "2890101": {
    "zipcode": "2890101",
    "prefectureCode": "12",
    "prefectureNumber": 12,
    "prefecture": "千葉県",
    "city": "成田市",
    "town": "小浮"
  },
  "2890102": {
    "zipcode": "2890102",
    "prefectureCode": "12",
    "prefectureNumber": 12,
    "prefecture": "千葉県",
    "city": "成田市",
    "town": "野馬込"
  },
  "2890103": {
    "zipcode": "2890103",
    "prefectureCode": "12",
    "prefectureNumber": 12,
    "prefecture": "千葉県",
    "city": "成田市",
    "town": "高"
  },
  "2890104": {
    "zipcode": "2890104",
    "prefectureCode": "12",
    "prefectureNumber": 12,
    "prefecture": "千葉県",
    "city": "成田市",
    "town": "冬父"
  },
  "2890105": {
    "zipcode": "2890105",
    "prefectureCode": "12",
    "prefectureNumber": 12,
    "prefecture": "千葉県",
    "city": "成田市",
    "town": "中里"
  },
  "2890106": {
    "zipcode": "2890106",
    "prefectureCode": "12",
    "prefectureNumber": 12,
    "prefecture": "千葉県",
    "city": "成田市",
    "town": "小野"
  },
  "2890107": {
    "zipcode": "2890107",
    "prefectureCode": "12",
    "prefectureNumber": 12,
    "prefecture": "千葉県",
    "city": "成田市",
    "town": "猿山"
  },
  "2890108": {
    "zipcode": "2890108",
    "prefectureCode": "12",
    "prefectureNumber": 12,
    "prefecture": "千葉県",
    "city": "成田市",
    "town": "高岡"
  },
  "2890109": {
    "zipcode": "2890109",
    "prefectureCode": "12",
    "prefectureNumber": 12,
    "prefecture": "千葉県",
    "city": "成田市",
    "town": "大和田"
  },
  "2890111": {
    "zipcode": "2890111",
    "prefectureCode": "12",
    "prefectureNumber": 12,
    "prefecture": "千葉県",
    "city": "成田市",
    "town": "名木"
  },
  "2890112": {
    "zipcode": "2890112",
    "prefectureCode": "12",
    "prefectureNumber": 12,
    "prefecture": "千葉県",
    "city": "成田市",
    "town": "青山"
  },
  "2890113": {
    "zipcode": "2890113",
    "prefectureCode": "12",
    "prefectureNumber": 12,
    "prefecture": "千葉県",
    "city": "成田市",
    "town": "倉水"
  },
  "2890114": {
    "zipcode": "2890114",
    "prefectureCode": "12",
    "prefectureNumber": 12,
    "prefecture": "千葉県",
    "city": "成田市",
    "town": "成井"
  },
  "2890115": {
    "zipcode": "2890115",
    "prefectureCode": "12",
    "prefectureNumber": 12,
    "prefecture": "千葉県",
    "city": "成田市",
    "town": "地蔵原新田"
  },
  "2890116": {
    "zipcode": "2890116",
    "prefectureCode": "12",
    "prefectureNumber": 12,
    "prefecture": "千葉県",
    "city": "成田市",
    "town": "名古屋"
  },
  "2890117": {
    "zipcode": "2890117",
    "prefectureCode": "12",
    "prefectureNumber": 12,
    "prefecture": "千葉県",
    "city": "成田市",
    "town": "七沢"
  },
  "2890121": {
    "zipcode": "2890121",
    "prefectureCode": "12",
    "prefectureNumber": 12,
    "prefecture": "千葉県",
    "city": "成田市",
    "town": "大菅"
  },
  "2890122": {
    "zipcode": "2890122",
    "prefectureCode": "12",
    "prefectureNumber": 12,
    "prefecture": "千葉県",
    "city": "成田市",
    "town": "高倉"
  },
  "2890123": {
    "zipcode": "2890123",
    "prefectureCode": "12",
    "prefectureNumber": 12,
    "prefecture": "千葉県",
    "city": "成田市",
    "town": "四谷"
  },
  "2890124": {
    "zipcode": "2890124",
    "prefectureCode": "12",
    "prefectureNumber": 12,
    "prefecture": "千葉県",
    "city": "成田市",
    "town": "西大須賀"
  },
  "2890125": {
    "zipcode": "2890125",
    "prefectureCode": "12",
    "prefectureNumber": 12,
    "prefecture": "千葉県",
    "city": "成田市",
    "town": "滑川"
  },
  "2890126": {
    "zipcode": "2890126",
    "prefectureCode": "12",
    "prefectureNumber": 12,
    "prefecture": "千葉県",
    "city": "成田市",
    "town": "新川"
  },
  "2890201": {
    "zipcode": "2890201",
    "prefectureCode": "12",
    "prefectureNumber": 12,
    "prefecture": "千葉県",
    "city": "香取郡神崎町",
    "town": "高谷"
  },
  "2890202": {
    "zipcode": "2890202",
    "prefectureCode": "12",
    "prefectureNumber": 12,
    "prefecture": "千葉県",
    "city": "香取郡神崎町",
    "town": "郡"
  },
  "2890203": {
    "zipcode": "2890203",
    "prefectureCode": "12",
    "prefectureNumber": 12,
    "prefecture": "千葉県",
    "city": "香取郡神崎町",
    "town": "大貫"
  },
  "2890204": {
    "zipcode": "2890204",
    "prefectureCode": "12",
    "prefectureNumber": 12,
    "prefecture": "千葉県",
    "city": "香取郡神崎町",
    "town": "四季の丘"
  },
  "2890205": {
    "zipcode": "2890205",
    "prefectureCode": "12",
    "prefectureNumber": 12,
    "prefecture": "千葉県",
    "city": "香取郡神崎町",
    "town": "今"
  },
  "2890211": {
    "zipcode": "2890211",
    "prefectureCode": "12",
    "prefectureNumber": 12,
    "prefecture": "千葉県",
    "city": "香取郡神崎町",
    "town": "立野"
  },
  "2890212": {
    "zipcode": "2890212",
    "prefectureCode": "12",
    "prefectureNumber": 12,
    "prefecture": "千葉県",
    "city": "香取郡神崎町",
    "town": "武田"
  },
  "2890213": {
    "zipcode": "2890213",
    "prefectureCode": "12",
    "prefectureNumber": 12,
    "prefecture": "千葉県",
    "city": "香取郡神崎町",
    "town": "新"
  },
  "2890214": {
    "zipcode": "2890214",
    "prefectureCode": "12",
    "prefectureNumber": 12,
    "prefecture": "千葉県",
    "city": "香取郡神崎町",
    "town": "毛成"
  },
  "2890215": {
    "zipcode": "2890215",
    "prefectureCode": "12",
    "prefectureNumber": 12,
    "prefecture": "千葉県",
    "city": "香取郡神崎町",
    "town": "古原"
  },
  "2890216": {
    "zipcode": "2890216",
    "prefectureCode": "12",
    "prefectureNumber": 12,
    "prefecture": "千葉県",
    "city": "香取郡神崎町",
    "town": "植房"
  },
  "2890217": {
    "zipcode": "2890217",
    "prefectureCode": "12",
    "prefectureNumber": 12,
    "prefecture": "千葉県",
    "city": "香取郡神崎町",
    "town": "藤の台"
  },
  "2890221": {
    "zipcode": "2890221",
    "prefectureCode": "12",
    "prefectureNumber": 12,
    "prefecture": "千葉県",
    "city": "香取郡神崎町",
    "town": "神崎本宿"
  },
  "2890222": {
    "zipcode": "2890222",
    "prefectureCode": "12",
    "prefectureNumber": 12,
    "prefecture": "千葉県",
    "city": "香取郡神崎町",
    "town": "並木"
  },
  "2890223": {
    "zipcode": "2890223",
    "prefectureCode": "12",
    "prefectureNumber": 12,
    "prefecture": "千葉県",
    "city": "香取郡神崎町",
    "town": "小松"
  },
  "2890224": {
    "zipcode": "2890224",
    "prefectureCode": "12",
    "prefectureNumber": 12,
    "prefecture": "千葉県",
    "city": "香取郡神崎町",
    "town": "松崎"
  },
  "2890225": {
    "zipcode": "2890225",
    "prefectureCode": "12",
    "prefectureNumber": 12,
    "prefecture": "千葉県",
    "city": "香取郡神崎町",
    "town": "十三間戸"
  },
  "2890226": {
    "zipcode": "2890226",
    "prefectureCode": "12",
    "prefectureNumber": 12,
    "prefecture": "千葉県",
    "city": "香取郡神崎町",
    "town": "神崎神宿"
  },
  "2890301": {
    "zipcode": "2890301",
    "prefectureCode": "12",
    "prefectureNumber": 12,
    "prefecture": "千葉県",
    "city": "香取市",
    "town": "一ノ分目"
  },
  "2890302": {
    "zipcode": "2890302",
    "prefectureCode": "12",
    "prefectureNumber": 12,
    "prefecture": "千葉県",
    "city": "香取市",
    "town": "三ノ分目"
  },
  "2890303": {
    "zipcode": "2890303",
    "prefectureCode": "12",
    "prefectureNumber": 12,
    "prefecture": "千葉県",
    "city": "香取市",
    "town": "富田"
  },
  "2890304": {
    "zipcode": "2890304",
    "prefectureCode": "12",
    "prefectureNumber": 12,
    "prefecture": "千葉県",
    "city": "香取市",
    "town": "下小堀"
  },
  "2890305": {
    "zipcode": "2890305",
    "prefectureCode": "12",
    "prefectureNumber": 12,
    "prefecture": "千葉県",
    "city": "香取市",
    "town": "分郷"
  },
  "2890306": {
    "zipcode": "2890306",
    "prefectureCode": "12",
    "prefectureNumber": 12,
    "prefecture": "千葉県",
    "city": "香取市",
    "town": "上小堀"
  },
  "2890307": {
    "zipcode": "2890307",
    "prefectureCode": "12",
    "prefectureNumber": 12,
    "prefecture": "千葉県",
    "city": "香取市",
    "town": "増田"
  },
  "2890308": {
    "zipcode": "2890308",
    "prefectureCode": "12",
    "prefectureNumber": 12,
    "prefecture": "千葉県",
    "city": "香取市",
    "town": "木内虫幡上小堀入会地大平"
  },
  "2890311": {
    "zipcode": "2890311",
    "prefectureCode": "12",
    "prefectureNumber": 12,
    "prefecture": "千葉県",
    "city": "香取市",
    "town": "八日市場"
  },
  "2890312": {
    "zipcode": "2890312",
    "prefectureCode": "12",
    "prefectureNumber": 12,
    "prefecture": "千葉県",
    "city": "香取市",
    "town": "本郷"
  },
  "2890313": {
    "zipcode": "2890313",
    "prefectureCode": "12",
    "prefectureNumber": 12,
    "prefecture": "千葉県",
    "city": "香取市",
    "town": "小見川"
  },
  "2890314": {
    "zipcode": "2890314",
    "prefectureCode": "12",
    "prefectureNumber": 12,
    "prefecture": "千葉県",
    "city": "香取市",
    "town": "野田"
  },
  "2890321": {
    "zipcode": "2890321",
    "prefectureCode": "12",
    "prefectureNumber": 12,
    "prefecture": "千葉県",
    "city": "香取市",
    "town": "阿玉川"
  },
  "2890322": {
    "zipcode": "2890322",
    "prefectureCode": "12",
    "prefectureNumber": 12,
    "prefecture": "千葉県",
    "city": "香取市",
    "town": "下飯田"
  },
  "2890323": {
    "zipcode": "2890323",
    "prefectureCode": "12",
    "prefectureNumber": 12,
    "prefecture": "千葉県",
    "city": "香取市",
    "town": "岡飯田"
  },
  "2890324": {
    "zipcode": "2890324",
    "prefectureCode": "12",
    "prefectureNumber": 12,
    "prefecture": "千葉県",
    "city": "香取市",
    "town": "和泉"
  },
  "2890325": {
    "zipcode": "2890325",
    "prefectureCode": "12",
    "prefectureNumber": 12,
    "prefecture": "千葉県",
    "city": "香取市",
    "town": "貝塚"
  },
  "2890326": {
    "zipcode": "2890326",
    "prefectureCode": "12",
    "prefectureNumber": 12,
    "prefecture": "千葉県",
    "city": "香取市",
    "town": "阿玉台"
  },
  "2890327": {
    "zipcode": "2890327",
    "prefectureCode": "12",
    "prefectureNumber": 12,
    "prefecture": "千葉県",
    "city": "香取市",
    "town": "久保"
  },
  "2890328": {
    "zipcode": "2890328",
    "prefectureCode": "12",
    "prefectureNumber": 12,
    "prefecture": "千葉県",
    "city": "香取市",
    "town": "五郷内"
  },
  "2890329": {
    "zipcode": "2890329",
    "prefectureCode": "12",
    "prefectureNumber": 12,
    "prefecture": "千葉県",
    "city": "香取市",
    "town": "布野"
  },
  "2890331": {
    "zipcode": "2890331",
    "prefectureCode": "12",
    "prefectureNumber": 12,
    "prefecture": "千葉県",
    "city": "香取市",
    "town": "羽根川"
  },
  "2890332": {
    "zipcode": "2890332",
    "prefectureCode": "12",
    "prefectureNumber": 12,
    "prefecture": "千葉県",
    "city": "香取市",
    "town": "南原地新田"
  },
  "2890333": {
    "zipcode": "2890333",
    "prefectureCode": "12",
    "prefectureNumber": 12,
    "prefecture": "千葉県",
    "city": "香取市",
    "town": "入会地"
  },
  "2890334": {
    "zipcode": "2890334",
    "prefectureCode": "12",
    "prefectureNumber": 12,
    "prefecture": "千葉県",
    "city": "香取市",
    "town": "川頭"
  },
  "2890335": {
    "zipcode": "2890335",
    "prefectureCode": "12",
    "prefectureNumber": 12,
    "prefecture": "千葉県",
    "city": "香取市",
    "town": "北原地新田"
  },
  "2890336": {
    "zipcode": "2890336",
    "prefectureCode": "12",
    "prefectureNumber": 12,
    "prefecture": "千葉県",
    "city": "香取市",
    "town": "新々田"
  },
  "2890337": {
    "zipcode": "2890337",
    "prefectureCode": "12",
    "prefectureNumber": 12,
    "prefecture": "千葉県",
    "city": "香取市",
    "town": "木内"
  },
  "2890338": {
    "zipcode": "2890338",
    "prefectureCode": "12",
    "prefectureNumber": 12,
    "prefecture": "千葉県",
    "city": "香取市",
    "town": "下小川"
  },
  "2890341": {
    "zipcode": "2890341",
    "prefectureCode": "12",
    "prefectureNumber": 12,
    "prefecture": "千葉県",
    "city": "香取市",
    "town": "虫幡"
  },
  "2890342": {
    "zipcode": "2890342",
    "prefectureCode": "12",
    "prefectureNumber": 12,
    "prefecture": "千葉県",
    "city": "香取市",
    "town": "竜谷"
  },
  "2890343": {
    "zipcode": "2890343",
    "prefectureCode": "12",
    "prefectureNumber": 12,
    "prefecture": "千葉県",
    "city": "香取市",
    "town": "山川"
  },
  "2890344": {
    "zipcode": "2890344",
    "prefectureCode": "12",
    "prefectureNumber": 12,
    "prefecture": "千葉県",
    "city": "香取市",
    "town": "白井"
  },
  "2890345": {
    "zipcode": "2890345",
    "prefectureCode": "12",
    "prefectureNumber": 12,
    "prefecture": "千葉県",
    "city": "香取市",
    "town": "八本"
  },
  "2890346": {
    "zipcode": "2890346",
    "prefectureCode": "12",
    "prefectureNumber": 12,
    "prefecture": "千葉県",
    "city": "香取市",
    "town": "油田"
  },
  "2890347": {
    "zipcode": "2890347",
    "prefectureCode": "12",
    "prefectureNumber": 12,
    "prefecture": "千葉県",
    "city": "香取市",
    "town": "旗鉾"
  },
  "2890348": {
    "zipcode": "2890348",
    "prefectureCode": "12",
    "prefectureNumber": 12,
    "prefecture": "千葉県",
    "city": "香取市",
    "town": "織幡"
  },
  "2890349": {
    "zipcode": "2890349",
    "prefectureCode": "12",
    "prefectureNumber": 12,
    "prefecture": "千葉県",
    "city": "香取市",
    "town": "内野"
  },
  "2890401": {
    "zipcode": "2890401",
    "prefectureCode": "12",
    "prefectureNumber": 12,
    "prefecture": "千葉県",
    "city": "香取市",
    "town": "米野井"
  },
  "2890402": {
    "zipcode": "2890402",
    "prefectureCode": "12",
    "prefectureNumber": 12,
    "prefecture": "千葉県",
    "city": "香取市",
    "town": "小見"
  },
  "2890403": {
    "zipcode": "2890403",
    "prefectureCode": "12",
    "prefectureNumber": 12,
    "prefecture": "千葉県",
    "city": "香取市",
    "town": "川上"
  },
  "2890404": {
    "zipcode": "2890404",
    "prefectureCode": "12",
    "prefectureNumber": 12,
    "prefecture": "千葉県",
    "city": "香取市",
    "town": "高野"
  },
  "2890405": {
    "zipcode": "2890405",
    "prefectureCode": "12",
    "prefectureNumber": 12,
    "prefecture": "千葉県",
    "city": "香取市",
    "town": "竹之内"
  },
  "2890406": {
    "zipcode": "2890406",
    "prefectureCode": "12",
    "prefectureNumber": 12,
    "prefecture": "千葉県",
    "city": "香取市",
    "town": "田部"
  },
  "2890407": {
    "zipcode": "2890407",
    "prefectureCode": "12",
    "prefectureNumber": 12,
    "prefecture": "千葉県",
    "city": "香取市",
    "town": "仁良"
  },
  "2890408": {
    "zipcode": "2890408",
    "prefectureCode": "12",
    "prefectureNumber": 12,
    "prefecture": "千葉県",
    "city": "香取市",
    "town": "神生"
  },
  "2890411": {
    "zipcode": "2890411",
    "prefectureCode": "12",
    "prefectureNumber": 12,
    "prefecture": "千葉県",
    "city": "香取市",
    "town": "府馬"
  },
  "2890412": {
    "zipcode": "2890412",
    "prefectureCode": "12",
    "prefectureNumber": 12,
    "prefecture": "千葉県",
    "city": "香取市",
    "town": "古内"
  },
  "2890413": {
    "zipcode": "2890413",
    "prefectureCode": "12",
    "prefectureNumber": 12,
    "prefecture": "千葉県",
    "city": "香取市",
    "town": "志高"
  },
  "2890414": {
    "zipcode": "2890414",
    "prefectureCode": "12",
    "prefectureNumber": 12,
    "prefecture": "千葉県",
    "city": "香取市",
    "town": "長岡"
  },
  "2890421": {
    "zipcode": "2890421",
    "prefectureCode": "12",
    "prefectureNumber": 12,
    "prefecture": "千葉県",
    "city": "香取市",
    "town": "鳩山"
  },
  "2890422": {
    "zipcode": "2890422",
    "prefectureCode": "12",
    "prefectureNumber": 12,
    "prefecture": "千葉県",
    "city": "香取市",
    "town": "桐谷"
  },
  "2890423": {
    "zipcode": "2890423",
    "prefectureCode": "12",
    "prefectureNumber": 12,
    "prefecture": "千葉県",
    "city": "香取市",
    "town": "小川"
  },
  "2890424": {
    "zipcode": "2890424",
    "prefectureCode": "12",
    "prefectureNumber": 12,
    "prefecture": "千葉県",
    "city": "香取市",
    "town": "新里"
  },
  "2890425": {
    "zipcode": "2890425",
    "prefectureCode": "12",
    "prefectureNumber": 12,
    "prefecture": "千葉県",
    "city": "香取市",
    "town": "大角"
  },
  "2890426": {
    "zipcode": "2890426",
    "prefectureCode": "12",
    "prefectureNumber": 12,
    "prefecture": "千葉県",
    "city": "香取市",
    "town": "山倉"
  },
  "2890501": {
    "zipcode": "2890501",
    "prefectureCode": "12",
    "prefectureNumber": 12,
    "prefecture": "千葉県",
    "city": "旭市",
    "town": "清和乙"
  },
  "2890502": {
    "zipcode": "2890502",
    "prefectureCode": "12",
    "prefectureNumber": 12,
    "prefecture": "千葉県",
    "city": "旭市",
    "town": "長部"
  },
  "2890503": {
    "zipcode": "2890503",
    "prefectureCode": "12",
    "prefectureNumber": 12,
    "prefecture": "千葉県",
    "city": "旭市",
    "town": "溝原"
  },
  "2890504": {
    "zipcode": "2890504",
    "prefectureCode": "12",
    "prefectureNumber": 12,
    "prefecture": "千葉県",
    "city": "旭市",
    "town": "櫻井"
  },
  "2890505": {
    "zipcode": "2890505",
    "prefectureCode": "12",
    "prefectureNumber": 12,
    "prefecture": "千葉県",
    "city": "旭市",
    "town": "萬歳"
  },
  "2890506": {
    "zipcode": "2890506",
    "prefectureCode": "12",
    "prefectureNumber": 12,
    "prefecture": "千葉県",
    "city": "旭市",
    "town": "さくら台"
  },
  "2890507": {
    "zipcode": "2890507",
    "prefectureCode": "12",
    "prefectureNumber": 12,
    "prefecture": "千葉県",
    "city": "旭市",
    "town": "清和甲"
  },
  "2890511": {
    "zipcode": "2890511",
    "prefectureCode": "12",
    "prefectureNumber": 12,
    "prefecture": "千葉県",
    "city": "旭市",
    "town": "鏑木"
  },
  "2890512": {
    "zipcode": "2890512",
    "prefectureCode": "12",
    "prefectureNumber": 12,
    "prefecture": "千葉県",
    "city": "旭市",
    "town": "南堀之内"
  },
  "2890513": {
    "zipcode": "2890513",
    "prefectureCode": "12",
    "prefectureNumber": 12,
    "prefecture": "千葉県",
    "city": "旭市",
    "town": "舟戸"
  },
  "2890514": {
    "zipcode": "2890514",
    "prefectureCode": "12",
    "prefectureNumber": 12,
    "prefecture": "千葉県",
    "city": "旭市",
    "town": "関戸"
  },
  "2890515": {
    "zipcode": "2890515",
    "prefectureCode": "12",
    "prefectureNumber": 12,
    "prefecture": "千葉県",
    "city": "旭市",
    "town": "入野"
  },
  "2890516": {
    "zipcode": "2890516",
    "prefectureCode": "12",
    "prefectureNumber": 12,
    "prefecture": "千葉県",
    "city": "旭市",
    "town": "米込"
  },
  "2890517": {
    "zipcode": "2890517",
    "prefectureCode": "12",
    "prefectureNumber": 12,
    "prefecture": "千葉県",
    "city": "旭市",
    "town": "萬力"
  },
  "2890518": {
    "zipcode": "2890518",
    "prefectureCode": "12",
    "prefectureNumber": 12,
    "prefecture": "千葉県",
    "city": "旭市",
    "town": "秋田"
  },
  "2890600": {
    "zipcode": "2890600",
    "prefectureCode": "12",
    "prefectureNumber": 12,
    "prefecture": "千葉県",
    "city": "香取郡東庄町",
    "town": "以下に掲載がない場合"
  },
  "2890601": {
    "zipcode": "2890601",
    "prefectureCode": "12",
    "prefectureNumber": 12,
    "prefecture": "千葉県",
    "city": "香取郡東庄町",
    "town": "笹川い"
  },
  "2890602": {
    "zipcode": "2890602",
    "prefectureCode": "12",
    "prefectureNumber": 12,
    "prefecture": "千葉県",
    "city": "香取郡東庄町",
    "town": "笹川ろ"
  },
  "2890611": {
    "zipcode": "2890611",
    "prefectureCode": "12",
    "prefectureNumber": 12,
    "prefecture": "千葉県",
    "city": "香取郡東庄町",
    "town": "新宿"
  },
  "2890612": {
    "zipcode": "2890612",
    "prefectureCode": "12",
    "prefectureNumber": 12,
    "prefecture": "千葉県",
    "city": "香取郡東庄町",
    "town": "石出"
  },
  "2890613": {
    "zipcode": "2890613",
    "prefectureCode": "12",
    "prefectureNumber": 12,
    "prefecture": "千葉県",
    "city": "香取郡東庄町",
    "town": "東今泉"
  },
  "2890614": {
    "zipcode": "2890614",
    "prefectureCode": "12",
    "prefectureNumber": 12,
    "prefecture": "千葉県",
    "city": "香取郡東庄町",
    "town": "宮本"
  },
  "2890615": {
    "zipcode": "2890615",
    "prefectureCode": "12",
    "prefectureNumber": 12,
    "prefecture": "千葉県",
    "city": "香取郡東庄町",
    "town": "青馬"
  },
  "2890616": {
    "zipcode": "2890616",
    "prefectureCode": "12",
    "prefectureNumber": 12,
    "prefecture": "千葉県",
    "city": "香取郡東庄町",
    "town": "高部"
  },
  "2890617": {
    "zipcode": "2890617",
    "prefectureCode": "12",
    "prefectureNumber": 12,
    "prefecture": "千葉県",
    "city": "香取郡東庄町",
    "town": "羽計"
  },
  "2890618": {
    "zipcode": "2890618",
    "prefectureCode": "12",
    "prefectureNumber": 12,
    "prefecture": "千葉県",
    "city": "香取郡東庄町",
    "town": "谷津"
  },
  "2890619": {
    "zipcode": "2890619",
    "prefectureCode": "12",
    "prefectureNumber": 12,
    "prefecture": "千葉県",
    "city": "香取郡東庄町",
    "town": "今郡"
  },
  "2890621": {
    "zipcode": "2890621",
    "prefectureCode": "12",
    "prefectureNumber": 12,
    "prefecture": "千葉県",
    "city": "香取郡東庄町",
    "town": "大友"
  },
  "2890622": {
    "zipcode": "2890622",
    "prefectureCode": "12",
    "prefectureNumber": 12,
    "prefecture": "千葉県",
    "city": "香取郡東庄町",
    "town": "小座"
  },
  "2890623": {
    "zipcode": "2890623",
    "prefectureCode": "12",
    "prefectureNumber": 12,
    "prefecture": "千葉県",
    "city": "香取郡東庄町",
    "town": "宮野台"
  },
  "2890624": {
    "zipcode": "2890624",
    "prefectureCode": "12",
    "prefectureNumber": 12,
    "prefecture": "千葉県",
    "city": "香取郡東庄町",
    "town": "小南"
  },
  "2890625": {
    "zipcode": "2890625",
    "prefectureCode": "12",
    "prefectureNumber": 12,
    "prefecture": "千葉県",
    "city": "香取郡東庄町",
    "town": "夏目"
  },
  "2890626": {
    "zipcode": "2890626",
    "prefectureCode": "12",
    "prefectureNumber": 12,
    "prefecture": "千葉県",
    "city": "香取郡東庄町",
    "town": "八重穂"
  },
  "2890627": {
    "zipcode": "2890627",
    "prefectureCode": "12",
    "prefectureNumber": 12,
    "prefecture": "千葉県",
    "city": "香取郡東庄町",
    "town": "粟野"
  },
  "2890631": {
    "zipcode": "2890631",
    "prefectureCode": "12",
    "prefectureNumber": 12,
    "prefecture": "千葉県",
    "city": "香取郡東庄町",
    "town": "平山"
  },
  "2890632": {
    "zipcode": "2890632",
    "prefectureCode": "12",
    "prefectureNumber": 12,
    "prefecture": "千葉県",
    "city": "香取郡東庄町",
    "town": "窪野谷"
  },
  "2890633": {
    "zipcode": "2890633",
    "prefectureCode": "12",
    "prefectureNumber": 12,
    "prefecture": "千葉県",
    "city": "香取郡東庄町",
    "town": "大久保"
  },
  "2890634": {
    "zipcode": "2890634",
    "prefectureCode": "12",
    "prefectureNumber": 12,
    "prefecture": "千葉県",
    "city": "香取郡東庄町",
    "town": "舟戸"
  },
  "2890635": {
    "zipcode": "2890635",
    "prefectureCode": "12",
    "prefectureNumber": 12,
    "prefecture": "千葉県",
    "city": "香取郡東庄町",
    "town": "神田"
  },
  "2890636": {
    "zipcode": "2890636",
    "prefectureCode": "12",
    "prefectureNumber": 12,
    "prefecture": "千葉県",
    "city": "香取郡東庄町",
    "town": "東和田"
  },
  "2890637": {
    "zipcode": "2890637",
    "prefectureCode": "12",
    "prefectureNumber": 12,
    "prefecture": "千葉県",
    "city": "香取郡東庄町",
    "town": "小貝野"
  },
  "2891100": {
    "zipcode": "2891100",
    "prefectureCode": "12",
    "prefectureNumber": 12,
    "prefecture": "千葉県",
    "city": "八街市",
    "town": "以下に掲載がない場合"
  },
  "2891101": {
    "zipcode": "2891101",
    "prefectureCode": "12",
    "prefectureNumber": 12,
    "prefecture": "千葉県",
    "city": "八街市",
    "town": "朝日"
  },
  "2891102": {
    "zipcode": "2891102",
    "prefectureCode": "12",
    "prefectureNumber": 12,
    "prefecture": "千葉県",
    "city": "八街市",
    "town": "沖渡"
  },
  "2891103": {
    "zipcode": "2891103",
    "prefectureCode": "12",
    "prefectureNumber": 12,
    "prefecture": "千葉県",
    "city": "八街市",
    "town": "八街に"
  },
  "2891104": {
    "zipcode": "2891104",
    "prefectureCode": "12",
    "prefectureNumber": 12,
    "prefecture": "千葉県",
    "city": "八街市",
    "town": "文違"
  },
  "2891105": {
    "zipcode": "2891105",
    "prefectureCode": "12",
    "prefectureNumber": 12,
    "prefecture": "千葉県",
    "city": "八街市",
    "town": "泉台"
  },
  "2891106": {
    "zipcode": "2891106",
    "prefectureCode": "12",
    "prefectureNumber": 12,
    "prefecture": "千葉県",
    "city": "八街市",
    "town": "榎戸"
  },
  "2891107": {
    "zipcode": "2891107",
    "prefectureCode": "12",
    "prefectureNumber": 12,
    "prefecture": "千葉県",
    "city": "八街市",
    "town": "八街は"
  },
  "2891108": {
    "zipcode": "2891108",
    "prefectureCode": "12",
    "prefectureNumber": 12,
    "prefecture": "千葉県",
    "city": "八街市",
    "town": "雁丸"
  },
  "2891111": {
    "zipcode": "2891111",
    "prefectureCode": "12",
    "prefectureNumber": 12,
    "prefecture": "千葉県",
    "city": "八街市",
    "town": "大木"
  },
  "2891112": {
    "zipcode": "2891112",
    "prefectureCode": "12",
    "prefectureNumber": 12,
    "prefecture": "千葉県",
    "city": "八街市",
    "town": "木原"
  },
  "2891113": {
    "zipcode": "2891113",
    "prefectureCode": "12",
    "prefectureNumber": 12,
    "prefecture": "千葉県",
    "city": "八街市",
    "town": "八街へ"
  },
  "2891114": {
    "zipcode": "2891114",
    "prefectureCode": "12",
    "prefectureNumber": 12,
    "prefecture": "千葉県",
    "city": "八街市",
    "town": "東吉田"
  },
  "2891115": {
    "zipcode": "2891115",
    "prefectureCode": "12",
    "prefectureNumber": 12,
    "prefecture": "千葉県",
    "city": "八街市",
    "town": "八街ほ"
  },
  "2891116": {
    "zipcode": "2891116",
    "prefectureCode": "12",
    "prefectureNumber": 12,
    "prefecture": "千葉県",
    "city": "八街市",
    "town": "中央"
  },
  "2891121": {
    "zipcode": "2891121",
    "prefectureCode": "12",
    "prefectureNumber": 12,
    "prefecture": "千葉県",
    "city": "八街市",
    "town": "砂"
  },
  "2891122": {
    "zipcode": "2891122",
    "prefectureCode": "12",
    "prefectureNumber": 12,
    "prefecture": "千葉県",
    "city": "八街市",
    "town": "四木"
  },
  "2891123": {
    "zipcode": "2891123",
    "prefectureCode": "12",
    "prefectureNumber": 12,
    "prefecture": "千葉県",
    "city": "八街市",
    "town": "滝台"
  },
  "2891124": {
    "zipcode": "2891124",
    "prefectureCode": "12",
    "prefectureNumber": 12,
    "prefecture": "千葉県",
    "city": "八街市",
    "town": "山田台"
  },
  "2891125": {
    "zipcode": "2891125",
    "prefectureCode": "12",
    "prefectureNumber": 12,
    "prefecture": "千葉県",
    "city": "八街市",
    "town": "上砂"
  },
  "2891126": {
    "zipcode": "2891126",
    "prefectureCode": "12",
    "prefectureNumber": 12,
    "prefecture": "千葉県",
    "city": "八街市",
    "town": "沖"
  },
  "2891131": {
    "zipcode": "2891131",
    "prefectureCode": "12",
    "prefectureNumber": 12,
    "prefecture": "千葉県",
    "city": "八街市",
    "town": "希望ケ丘"
  },
  "2891132": {
    "zipcode": "2891132",
    "prefectureCode": "12",
    "prefectureNumber": 12,
    "prefecture": "千葉県",
    "city": "八街市",
    "town": "勢田"
  },
  "2891133": {
    "zipcode": "2891133",
    "prefectureCode": "12",
    "prefectureNumber": 12,
    "prefecture": "千葉県",
    "city": "八街市",
    "town": "吉倉"
  },
  "2891134": {
    "zipcode": "2891134",
    "prefectureCode": "12",
    "prefectureNumber": 12,
    "prefecture": "千葉県",
    "city": "八街市",
    "town": "大谷流"
  },
  "2891135": {
    "zipcode": "2891135",
    "prefectureCode": "12",
    "prefectureNumber": 12,
    "prefecture": "千葉県",
    "city": "八街市",
    "town": "小谷流"
  },
  "2891136": {
    "zipcode": "2891136",
    "prefectureCode": "12",
    "prefectureNumber": 12,
    "prefecture": "千葉県",
    "city": "八街市",
    "town": "根古谷"
  },
  "2891137": {
    "zipcode": "2891137",
    "prefectureCode": "12",
    "prefectureNumber": 12,
    "prefecture": "千葉県",
    "city": "八街市",
    "town": "岡田"
  },
  "2891138": {
    "zipcode": "2891138",
    "prefectureCode": "12",
    "prefectureNumber": 12,
    "prefecture": "千葉県",
    "city": "八街市",
    "town": "用草"
  },
  "2891141": {
    "zipcode": "2891141",
    "prefectureCode": "12",
    "prefectureNumber": 12,
    "prefecture": "千葉県",
    "city": "八街市",
    "town": "富山"
  },
  "2891142": {
    "zipcode": "2891142",
    "prefectureCode": "12",
    "prefectureNumber": 12,
    "prefecture": "千葉県",
    "city": "八街市",
    "town": "大関"
  },
  "2891143": {
    "zipcode": "2891143",
    "prefectureCode": "12",
    "prefectureNumber": 12,
    "prefecture": "千葉県",
    "city": "八街市",
    "town": "八街い"
  },
  "2891144": {
    "zipcode": "2891144",
    "prefectureCode": "12",
    "prefectureNumber": 12,
    "prefecture": "千葉県",
    "city": "八街市",
    "town": "八街ろ"
  },
  "2891145": {
    "zipcode": "2891145",
    "prefectureCode": "12",
    "prefectureNumber": 12,
    "prefecture": "千葉県",
    "city": "八街市",
    "town": "みどり台"
  },
  "2891201": {
    "zipcode": "2891201",
    "prefectureCode": "12",
    "prefectureNumber": 12,
    "prefecture": "千葉県",
    "city": "山武市",
    "town": "板川"
  },
  "2891202": {
    "zipcode": "2891202",
    "prefectureCode": "12",
    "prefectureNumber": 12,
    "prefecture": "千葉県",
    "city": "山武市",
    "town": "中津田"
  },
  "2891203": {
    "zipcode": "2891203",
    "prefectureCode": "12",
    "prefectureNumber": 12,
    "prefecture": "千葉県",
    "city": "山武市",
    "town": "麻生新田"
  },
  "2891204": {
    "zipcode": "2891204",
    "prefectureCode": "12",
    "prefectureNumber": 12,
    "prefecture": "千葉県",
    "city": "山武市",
    "town": "戸田"
  },
  "2891205": {
    "zipcode": "2891205",
    "prefectureCode": "12",
    "prefectureNumber": 12,
    "prefecture": "千葉県",
    "city": "山武市",
    "town": "椎崎"
  },
  "2891206": {
    "zipcode": "2891206",
    "prefectureCode": "12",
    "prefectureNumber": 12,
    "prefecture": "千葉県",
    "city": "山武市",
    "town": "日向台"
  },
  "2891211": {
    "zipcode": "2891211",
    "prefectureCode": "12",
    "prefectureNumber": 12,
    "prefecture": "千葉県",
    "city": "山武市",
    "town": "大木"
  },
  "2891212": {
    "zipcode": "2891212",
    "prefectureCode": "12",
    "prefectureNumber": 12,
    "prefecture": "千葉県",
    "city": "山武市",
    "town": "木原"
  },
  "2891213": {
    "zipcode": "2891213",
    "prefectureCode": "12",
    "prefectureNumber": 12,
    "prefecture": "千葉県",
    "city": "山武市",
    "town": "雨坪"
  },
  "2891214": {
    "zipcode": "2891214",
    "prefectureCode": "12",
    "prefectureNumber": 12,
    "prefecture": "千葉県",
    "city": "山武市",
    "town": "森"
  },
  "2891215": {
    "zipcode": "2891215",
    "prefectureCode": "12",
    "prefectureNumber": 12,
    "prefecture": "千葉県",
    "city": "山武市",
    "town": "矢部"
  },
  "2891216": {
    "zipcode": "2891216",
    "prefectureCode": "12",
    "prefectureNumber": 12,
    "prefecture": "千葉県",
    "city": "山武市",
    "town": "植草"
  },
  "2891217": {
    "zipcode": "2891217",
    "prefectureCode": "12",
    "prefectureNumber": 12,
    "prefecture": "千葉県",
    "city": "山武市",
    "town": "下布田"
  },
  "2891218": {
    "zipcode": "2891218",
    "prefectureCode": "12",
    "prefectureNumber": 12,
    "prefecture": "千葉県",
    "city": "山武市",
    "town": "武勝"
  },
  "2891221": {
    "zipcode": "2891221",
    "prefectureCode": "12",
    "prefectureNumber": 12,
    "prefecture": "千葉県",
    "city": "山武市",
    "town": "実門"
  },
  "2891222": {
    "zipcode": "2891222",
    "prefectureCode": "12",
    "prefectureNumber": 12,
    "prefecture": "千葉県",
    "city": "山武市",
    "town": "板中新田"
  },
  "2891223": {
    "zipcode": "2891223",
    "prefectureCode": "12",
    "prefectureNumber": 12,
    "prefecture": "千葉県",
    "city": "山武市",
    "town": "埴谷"
  },
  "2891224": {
    "zipcode": "2891224",
    "prefectureCode": "12",
    "prefectureNumber": 12,
    "prefecture": "千葉県",
    "city": "山武市",
    "town": "美杉野"
  },
  "2891225": {
    "zipcode": "2891225",
    "prefectureCode": "12",
    "prefectureNumber": 12,
    "prefecture": "千葉県",
    "city": "山武市",
    "town": "沖渡"
  },
  "2891226": {
    "zipcode": "2891226",
    "prefectureCode": "12",
    "prefectureNumber": 12,
    "prefecture": "千葉県",
    "city": "山武市",
    "town": "横田"
  },
  "2891300": {
    "zipcode": "2891300",
    "prefectureCode": "12",
    "prefectureNumber": 12,
    "prefecture": "千葉県",
    "city": "山武市",
    "town": "以下に掲載がない場合"
  },
  "2891301": {
    "zipcode": "2891301",
    "prefectureCode": "12",
    "prefectureNumber": 12,
    "prefecture": "千葉県",
    "city": "山武市",
    "town": "木戸"
  },
  "2891302": {
    "zipcode": "2891302",
    "prefectureCode": "12",
    "prefectureNumber": 12,
    "prefecture": "千葉県",
    "city": "山武市",
    "town": "小松"
  },
  "2891303": {
    "zipcode": "2891303",
    "prefectureCode": "12",
    "prefectureNumber": 12,
    "prefecture": "千葉県",
    "city": "山武市",
    "town": "松ヶ谷"
  },
  "2891304": {
    "zipcode": "2891304",
    "prefectureCode": "12",
    "prefectureNumber": 12,
    "prefecture": "千葉県",
    "city": "山武市",
    "town": "井之内"
  },
  "2891305": {
    "zipcode": "2891305",
    "prefectureCode": "12",
    "prefectureNumber": 12,
    "prefecture": "千葉県",
    "city": "山武市",
    "town": "本須賀"
  },
  "2891306": {
    "zipcode": "2891306",
    "prefectureCode": "12",
    "prefectureNumber": 12,
    "prefecture": "千葉県",
    "city": "山武市",
    "town": "白幡"
  },
  "2891311": {
    "zipcode": "2891311",
    "prefectureCode": "12",
    "prefectureNumber": 12,
    "prefecture": "千葉県",
    "city": "山武市",
    "town": "早船"
  },
  "2891312": {
    "zipcode": "2891312",
    "prefectureCode": "12",
    "prefectureNumber": 12,
    "prefecture": "千葉県",
    "city": "山武市",
    "town": "柴原"
  },
  "2891313": {
    "zipcode": "2891313",
    "prefectureCode": "12",
    "prefectureNumber": 12,
    "prefecture": "千葉県",
    "city": "山武市",
    "town": "上横地"
  },
  "2891314": {
    "zipcode": "2891314",
    "prefectureCode": "12",
    "prefectureNumber": 12,
    "prefecture": "千葉県",
    "city": "山武市",
    "town": "下横地"
  },
  "2891315": {
    "zipcode": "2891315",
    "prefectureCode": "12",
    "prefectureNumber": 12,
    "prefecture": "千葉県",
    "city": "山武市",
    "town": "草深"
  },
  "2891316": {
    "zipcode": "2891316",
    "prefectureCode": "12",
    "prefectureNumber": 12,
    "prefecture": "千葉県",
    "city": "山武市",
    "town": "五木田"
  },
  "2891317": {
    "zipcode": "2891317",
    "prefectureCode": "12",
    "prefectureNumber": 12,
    "prefecture": "千葉県",
    "city": "山武市",
    "town": "小泉"
  },
  "2891318": {
    "zipcode": "2891318",
    "prefectureCode": "12",
    "prefectureNumber": 12,
    "prefecture": "千葉県",
    "city": "山武市",
    "town": "寺崎"
  },
  "2891321": {
    "zipcode": "2891321",
    "prefectureCode": "12",
    "prefectureNumber": 12,
    "prefecture": "千葉県",
    "city": "山武市",
    "town": "富田"
  },
  "2891322": {
    "zipcode": "2891322",
    "prefectureCode": "12",
    "prefectureNumber": 12,
    "prefecture": "千葉県",
    "city": "山武市",
    "town": "富田幸谷"
  },
  "2891323": {
    "zipcode": "2891323",
    "prefectureCode": "12",
    "prefectureNumber": 12,
    "prefecture": "千葉県",
    "city": "山武市",
    "town": "富口"
  },
  "2891324": {
    "zipcode": "2891324",
    "prefectureCode": "12",
    "prefectureNumber": 12,
    "prefecture": "千葉県",
    "city": "山武市",
    "town": "殿台"
  },
  "2891325": {
    "zipcode": "2891325",
    "prefectureCode": "12",
    "prefectureNumber": 12,
    "prefecture": "千葉県",
    "city": "山武市",
    "town": "島"
  },
  "2891326": {
    "zipcode": "2891326",
    "prefectureCode": "12",
    "prefectureNumber": 12,
    "prefecture": "千葉県",
    "city": "山武市",
    "town": "成東"
  },
  "2891327": {
    "zipcode": "2891327",
    "prefectureCode": "12",
    "prefectureNumber": 12,
    "prefecture": "千葉県",
    "city": "山武市",
    "town": "姫島"
  },
  "2891328": {
    "zipcode": "2891328",
    "prefectureCode": "12",
    "prefectureNumber": 12,
    "prefecture": "千葉県",
    "city": "山武市",
    "town": "湯坂"
  },
  "2891331": {
    "zipcode": "2891331",
    "prefectureCode": "12",
    "prefectureNumber": 12,
    "prefecture": "千葉県",
    "city": "山武市",
    "town": "川崎"
  },
  "2891332": {
    "zipcode": "2891332",
    "prefectureCode": "12",
    "prefectureNumber": 12,
    "prefecture": "千葉県",
    "city": "山武市",
    "town": "親田"
  },
  "2891333": {
    "zipcode": "2891333",
    "prefectureCode": "12",
    "prefectureNumber": 12,
    "prefecture": "千葉県",
    "city": "山武市",
    "town": "市場"
  },
  "2891334": {
    "zipcode": "2891334",
    "prefectureCode": "12",
    "prefectureNumber": 12,
    "prefecture": "千葉県",
    "city": "山武市",
    "town": "和田"
  },
  "2891335": {
    "zipcode": "2891335",
    "prefectureCode": "12",
    "prefectureNumber": 12,
    "prefecture": "千葉県",
    "city": "山武市",
    "town": "板附"
  },
  "2891341": {
    "zipcode": "2891341",
    "prefectureCode": "12",
    "prefectureNumber": 12,
    "prefecture": "千葉県",
    "city": "山武市",
    "town": "野堀"
  },
  "2891342": {
    "zipcode": "2891342",
    "prefectureCode": "12",
    "prefectureNumber": 12,
    "prefecture": "千葉県",
    "city": "山武市",
    "town": "嶋戸"
  },
  "2891343": {
    "zipcode": "2891343",
    "prefectureCode": "12",
    "prefectureNumber": 12,
    "prefecture": "千葉県",
    "city": "山武市",
    "town": "真行寺"
  },
  "2891344": {
    "zipcode": "2891344",
    "prefectureCode": "12",
    "prefectureNumber": 12,
    "prefecture": "千葉県",
    "city": "山武市",
    "town": "新泉"
  },
  "2891345": {
    "zipcode": "2891345",
    "prefectureCode": "12",
    "prefectureNumber": 12,
    "prefecture": "千葉県",
    "city": "山武市",
    "town": "津辺"
  },
  "2891501": {
    "zipcode": "2891501",
    "prefectureCode": "12",
    "prefectureNumber": 12,
    "prefecture": "千葉県",
    "city": "山武市",
    "town": "松尾町山室"
  },
  "2891502": {
    "zipcode": "2891502",
    "prefectureCode": "12",
    "prefectureNumber": 12,
    "prefecture": "千葉県",
    "city": "山武市",
    "town": "松尾町引越"
  },
  "2891503": {
    "zipcode": "2891503",
    "prefectureCode": "12",
    "prefectureNumber": 12,
    "prefecture": "千葉県",
    "city": "山武市",
    "town": "松尾町谷津"
  },
  "2891504": {
    "zipcode": "2891504",
    "prefectureCode": "12",
    "prefectureNumber": 12,
    "prefecture": "千葉県",
    "city": "山武市",
    "town": "松尾町古和"
  },
  "2891505": {
    "zipcode": "2891505",
    "prefectureCode": "12",
    "prefectureNumber": 12,
    "prefecture": "千葉県",
    "city": "山武市",
    "town": "松尾町金尾"
  },
  "2891506": {
    "zipcode": "2891506",
    "prefectureCode": "12",
    "prefectureNumber": 12,
    "prefecture": "千葉県",
    "city": "山武市",
    "town": "松尾町上大蔵"
  },
  "2891507": {
    "zipcode": "2891507",
    "prefectureCode": "12",
    "prefectureNumber": 12,
    "prefecture": "千葉県",
    "city": "山武市",
    "town": "松尾町小川"
  },
  "2891511": {
    "zipcode": "2891511",
    "prefectureCode": "12",
    "prefectureNumber": 12,
    "prefecture": "千葉県",
    "city": "山武市",
    "town": "松尾町蕪木"
  },
  "2891512": {
    "zipcode": "2891512",
    "prefectureCode": "12",
    "prefectureNumber": 12,
    "prefecture": "千葉県",
    "city": "山武市",
    "town": "松尾町八田"
  },
  "2891513": {
    "zipcode": "2891513",
    "prefectureCode": "12",
    "prefectureNumber": 12,
    "prefecture": "千葉県",
    "city": "山武市",
    "town": "松尾町猿尾"
  },
  "2891514": {
    "zipcode": "2891514",
    "prefectureCode": "12",
    "prefectureNumber": 12,
    "prefecture": "千葉県",
    "city": "山武市",
    "town": "松尾町松尾"
  },
  "2891515": {
    "zipcode": "2891515",
    "prefectureCode": "12",
    "prefectureNumber": 12,
    "prefecture": "千葉県",
    "city": "山武市",
    "town": "松尾町富士見台"
  },
  "2891516": {
    "zipcode": "2891516",
    "prefectureCode": "12",
    "prefectureNumber": 12,
    "prefecture": "千葉県",
    "city": "山武市",
    "town": "松尾町田越"
  },
  "2891517": {
    "zipcode": "2891517",
    "prefectureCode": "12",
    "prefectureNumber": 12,
    "prefecture": "千葉県",
    "city": "山武市",
    "town": "松尾町下大蔵"
  },
  "2891521": {
    "zipcode": "2891521",
    "prefectureCode": "12",
    "prefectureNumber": 12,
    "prefecture": "千葉県",
    "city": "山武市",
    "town": "松尾町本柏"
  },
  "2891522": {
    "zipcode": "2891522",
    "prefectureCode": "12",
    "prefectureNumber": 12,
    "prefecture": "千葉県",
    "city": "山武市",
    "town": "松尾町高富"
  },
  "2891523": {
    "zipcode": "2891523",
    "prefectureCode": "12",
    "prefectureNumber": 12,
    "prefecture": "千葉県",
    "city": "山武市",
    "town": "松尾町五反田"
  },
  "2891524": {
    "zipcode": "2891524",
    "prefectureCode": "12",
    "prefectureNumber": 12,
    "prefecture": "千葉県",
    "city": "山武市",
    "town": "松尾町祝田"
  },
  "2891525": {
    "zipcode": "2891525",
    "prefectureCode": "12",
    "prefectureNumber": 12,
    "prefecture": "千葉県",
    "city": "山武市",
    "town": "松尾町本水深"
  },
  "2891526": {
    "zipcode": "2891526",
    "prefectureCode": "12",
    "prefectureNumber": 12,
    "prefecture": "千葉県",
    "city": "山武市",
    "town": "松尾町水深"
  },
  "2891527": {
    "zipcode": "2891527",
    "prefectureCode": "12",
    "prefectureNumber": 12,
    "prefecture": "千葉県",
    "city": "山武市",
    "town": "松尾町大堤"
  },
  "2891531": {
    "zipcode": "2891531",
    "prefectureCode": "12",
    "prefectureNumber": 12,
    "prefecture": "千葉県",
    "city": "山武市",
    "town": "松尾町木刀"
  },
  "2891532": {
    "zipcode": "2891532",
    "prefectureCode": "12",
    "prefectureNumber": 12,
    "prefecture": "千葉県",
    "city": "山武市",
    "town": "松尾町武野里"
  },
  "2891533": {
    "zipcode": "2891533",
    "prefectureCode": "12",
    "prefectureNumber": 12,
    "prefecture": "千葉県",
    "city": "山武市",
    "town": "松尾町広根"
  },
  "2891534": {
    "zipcode": "2891534",
    "prefectureCode": "12",
    "prefectureNumber": 12,
    "prefecture": "千葉県",
    "city": "山武市",
    "town": "松尾町下野"
  },
  "2891535": {
    "zipcode": "2891535",
    "prefectureCode": "12",
    "prefectureNumber": 12,
    "prefecture": "千葉県",
    "city": "山武市",
    "town": "松尾町折戸"
  },
  "2891536": {
    "zipcode": "2891536",
    "prefectureCode": "12",
    "prefectureNumber": 12,
    "prefecture": "千葉県",
    "city": "山武市",
    "town": "松尾町下之郷"
  },
  "2891537": {
    "zipcode": "2891537",
    "prefectureCode": "12",
    "prefectureNumber": 12,
    "prefecture": "千葉県",
    "city": "山武市",
    "town": "松尾町借毛本郷"
  },
  "2891600": {
    "zipcode": "2891600",
    "prefectureCode": "12",
    "prefectureNumber": 12,
    "prefecture": "千葉県",
    "city": "山武郡芝山町",
    "town": "以下に掲載がない場合"
  },
  "2891601": {
    "zipcode": "2891601",
    "prefectureCode": "12",
    "prefectureNumber": 12,
    "prefecture": "千葉県",
    "city": "山武郡芝山町",
    "town": "香山新田（その他）"
  },
  "2891602": {
    "zipcode": "2891602",
    "prefectureCode": "12",
    "prefectureNumber": 12,
    "prefecture": "千葉県",
    "city": "山武郡芝山町",
    "town": "菱田（その他）"
  },
  "2891603": {
    "zipcode": "2891603",
    "prefectureCode": "12",
    "prefectureNumber": 12,
    "prefecture": "千葉県",
    "city": "山武郡芝山町",
    "town": "大里（その他）"
  },
  "2891604": {
    "zipcode": "2891604",
    "prefectureCode": "12",
    "prefectureNumber": 12,
    "prefecture": "千葉県",
    "city": "山武郡芝山町",
    "town": "飯櫃"
  },
  "2891605": {
    "zipcode": "2891605",
    "prefectureCode": "12",
    "prefectureNumber": 12,
    "prefecture": "千葉県",
    "city": "山武郡芝山町",
    "town": "大台"
  },
  "2891606": {
    "zipcode": "2891606",
    "prefectureCode": "12",
    "prefectureNumber": 12,
    "prefecture": "千葉県",
    "city": "山武郡芝山町",
    "town": "山田"
  },
  "2891607": {
    "zipcode": "2891607",
    "prefectureCode": "12",
    "prefectureNumber": 12,
    "prefecture": "千葉県",
    "city": "山武郡芝山町",
    "town": "朝倉"
  },
  "2891608": {
    "zipcode": "2891608",
    "prefectureCode": "12",
    "prefectureNumber": 12,
    "prefecture": "千葉県",
    "city": "山武郡芝山町",
    "town": "岩山（その他）"
  },
  "2891611": {
    "zipcode": "2891611",
    "prefectureCode": "12",
    "prefectureNumber": 12,
    "prefecture": "千葉県",
    "city": "山武郡芝山町",
    "town": "小原子"
  },
  "2891612": {
    "zipcode": "2891612",
    "prefectureCode": "12",
    "prefectureNumber": 12,
    "prefecture": "千葉県",
    "city": "山武郡芝山町",
    "town": "上吹入"
  },
  "2891613": {
    "zipcode": "2891613",
    "prefectureCode": "12",
    "prefectureNumber": 12,
    "prefecture": "千葉県",
    "city": "山武郡芝山町",
    "town": "下吹入"
  },
  "2891614": {
    "zipcode": "2891614",
    "prefectureCode": "12",
    "prefectureNumber": 12,
    "prefecture": "千葉県",
    "city": "山武郡芝山町",
    "town": "宮崎"
  },
  "2891615": {
    "zipcode": "2891615",
    "prefectureCode": "12",
    "prefectureNumber": 12,
    "prefecture": "千葉県",
    "city": "山武郡芝山町",
    "town": "境"
  },
  "2891616": {
    "zipcode": "2891616",
    "prefectureCode": "12",
    "prefectureNumber": 12,
    "prefecture": "千葉県",
    "city": "山武郡芝山町",
    "town": "高谷"
  },
  "2891617": {
    "zipcode": "2891617",
    "prefectureCode": "12",
    "prefectureNumber": 12,
    "prefecture": "千葉県",
    "city": "山武郡芝山町",
    "town": "殿部田"
  },
  "2891618": {
    "zipcode": "2891618",
    "prefectureCode": "12",
    "prefectureNumber": 12,
    "prefecture": "千葉県",
    "city": "山武郡芝山町",
    "town": "山中"
  },
  "2891619": {
    "zipcode": "2891619",
    "prefectureCode": "12",
    "prefectureNumber": 12,
    "prefecture": "千葉県",
    "city": "山武郡芝山町",
    "town": "芝山"
  },
  "2891621": {
    "zipcode": "2891621",
    "prefectureCode": "12",
    "prefectureNumber": 12,
    "prefecture": "千葉県",
    "city": "山武郡芝山町",
    "town": "牧野"
  },
  "2891622": {
    "zipcode": "2891622",
    "prefectureCode": "12",
    "prefectureNumber": 12,
    "prefecture": "千葉県",
    "city": "山武郡芝山町",
    "town": "宝馬"
  },
  "2891623": {
    "zipcode": "2891623",
    "prefectureCode": "12",
    "prefectureNumber": 12,
    "prefecture": "千葉県",
    "city": "山武郡芝山町",
    "town": "高田"
  },
  "2891624": {
    "zipcode": "2891624",
    "prefectureCode": "12",
    "prefectureNumber": 12,
    "prefecture": "千葉県",
    "city": "山武郡芝山町",
    "town": "小池"
  },
  "2891625": {
    "zipcode": "2891625",
    "prefectureCode": "12",
    "prefectureNumber": 12,
    "prefecture": "千葉県",
    "city": "山武郡芝山町",
    "town": "新井田"
  },
  "2891626": {
    "zipcode": "2891626",
    "prefectureCode": "12",
    "prefectureNumber": 12,
    "prefecture": "千葉県",
    "city": "山武郡芝山町",
    "town": "新井田新田"
  },
  "2891700": {
    "zipcode": "2891700",
    "prefectureCode": "12",
    "prefectureNumber": 12,
    "prefecture": "千葉県",
    "city": "山武郡横芝光町",
    "town": "以下に掲載がない場合"
  },
  "2891701": {
    "zipcode": "2891701",
    "prefectureCode": "12",
    "prefectureNumber": 12,
    "prefecture": "千葉県",
    "city": "山武郡横芝光町",
    "town": "篠本"
  },
  "2891702": {
    "zipcode": "2891702",
    "prefectureCode": "12",
    "prefectureNumber": 12,
    "prefecture": "千葉県",
    "city": "山武郡横芝光町",
    "town": "二又"
  },
  "2891703": {
    "zipcode": "2891703",
    "prefectureCode": "12",
    "prefectureNumber": 12,
    "prefecture": "千葉県",
    "city": "山武郡横芝光町",
    "town": "傍示戸"
  },
  "2891704": {
    "zipcode": "2891704",
    "prefectureCode": "12",
    "prefectureNumber": 12,
    "prefecture": "千葉県",
    "city": "山武郡横芝光町",
    "town": "富下"
  },
  "2891705": {
    "zipcode": "2891705",
    "prefectureCode": "12",
    "prefectureNumber": 12,
    "prefecture": "千葉県",
    "city": "山武郡横芝光町",
    "town": "宝米"
  },
  "2891706": {
    "zipcode": "2891706",
    "prefectureCode": "12",
    "prefectureNumber": 12,
    "prefecture": "千葉県",
    "city": "山武郡横芝光町",
    "town": "市野原"
  },
  "2891707": {
    "zipcode": "2891707",
    "prefectureCode": "12",
    "prefectureNumber": 12,
    "prefecture": "千葉県",
    "city": "山武郡横芝光町",
    "town": "新井"
  },
  "2891708": {
    "zipcode": "2891708",
    "prefectureCode": "12",
    "prefectureNumber": 12,
    "prefecture": "千葉県",
    "city": "山武郡横芝光町",
    "town": "篠本根切"
  },
  "2891711": {
    "zipcode": "2891711",
    "prefectureCode": "12",
    "prefectureNumber": 12,
    "prefecture": "千葉県",
    "city": "山武郡横芝光町",
    "town": "小川台"
  },
  "2891712": {
    "zipcode": "2891712",
    "prefectureCode": "12",
    "prefectureNumber": 12,
    "prefecture": "千葉県",
    "city": "山武郡横芝光町",
    "town": "台"
  },
  "2891713": {
    "zipcode": "2891713",
    "prefectureCode": "12",
    "prefectureNumber": 12,
    "prefecture": "千葉県",
    "city": "山武郡横芝光町",
    "town": "小田部"
  },
  "2891714": {
    "zipcode": "2891714",
    "prefectureCode": "12",
    "prefectureNumber": 12,
    "prefecture": "千葉県",
    "city": "山武郡横芝光町",
    "town": "母子"
  },
  "2891715": {
    "zipcode": "2891715",
    "prefectureCode": "12",
    "prefectureNumber": 12,
    "prefecture": "千葉県",
    "city": "山武郡横芝光町",
    "town": "芝崎"
  },
  "2891716": {
    "zipcode": "2891716",
    "prefectureCode": "12",
    "prefectureNumber": 12,
    "prefecture": "千葉県",
    "city": "山武郡横芝光町",
    "town": "芝崎南"
  },
  "2891717": {
    "zipcode": "2891717",
    "prefectureCode": "12",
    "prefectureNumber": 12,
    "prefecture": "千葉県",
    "city": "山武郡横芝光町",
    "town": "虫生"
  },
  "2891721": {
    "zipcode": "2891721",
    "prefectureCode": "12",
    "prefectureNumber": 12,
    "prefecture": "千葉県",
    "city": "山武郡横芝光町",
    "town": "谷中"
  },
  "2891722": {
    "zipcode": "2891722",
    "prefectureCode": "12",
    "prefectureNumber": 12,
    "prefecture": "千葉県",
    "city": "山武郡横芝光町",
    "town": "目篠"
  },
  "2891723": {
    "zipcode": "2891723",
    "prefectureCode": "12",
    "prefectureNumber": 12,
    "prefecture": "千葉県",
    "city": "山武郡横芝光町",
    "town": "上原"
  },
  "2891724": {
    "zipcode": "2891724",
    "prefectureCode": "12",
    "prefectureNumber": 12,
    "prefecture": "千葉県",
    "city": "山武郡横芝光町",
    "town": "原方"
  },
  "2891725": {
    "zipcode": "2891725",
    "prefectureCode": "12",
    "prefectureNumber": 12,
    "prefecture": "千葉県",
    "city": "山武郡横芝光町",
    "town": "尾垂"
  },
  "2891726": {
    "zipcode": "2891726",
    "prefectureCode": "12",
    "prefectureNumber": 12,
    "prefecture": "千葉県",
    "city": "山武郡横芝光町",
    "town": "木戸"
  },
  "2891727": {
    "zipcode": "2891727",
    "prefectureCode": "12",
    "prefectureNumber": 12,
    "prefecture": "千葉県",
    "city": "山武郡横芝光町",
    "town": "宮川"
  },
  "2891731": {
    "zipcode": "2891731",
    "prefectureCode": "12",
    "prefectureNumber": 12,
    "prefecture": "千葉県",
    "city": "山武郡横芝光町",
    "town": "古川"
  },
  "2891732": {
    "zipcode": "2891732",
    "prefectureCode": "12",
    "prefectureNumber": 12,
    "prefecture": "千葉県",
    "city": "山武郡横芝光町",
    "town": "横芝"
  },
  "2891733": {
    "zipcode": "2891733",
    "prefectureCode": "12",
    "prefectureNumber": 12,
    "prefecture": "千葉県",
    "city": "山武郡横芝光町",
    "town": "栗山"
  },
  "2891734": {
    "zipcode": "2891734",
    "prefectureCode": "12",
    "prefectureNumber": 12,
    "prefecture": "千葉県",
    "city": "山武郡横芝光町",
    "town": "北清水"
  },
  "2891735": {
    "zipcode": "2891735",
    "prefectureCode": "12",
    "prefectureNumber": 12,
    "prefecture": "千葉県",
    "city": "山武郡横芝光町",
    "town": "屋形"
  },
  "2891736": {
    "zipcode": "2891736",
    "prefectureCode": "12",
    "prefectureNumber": 12,
    "prefecture": "千葉県",
    "city": "山武郡横芝光町",
    "town": "新島"
  },
  "2891737": {
    "zipcode": "2891737",
    "prefectureCode": "12",
    "prefectureNumber": 12,
    "prefecture": "千葉県",
    "city": "山武郡横芝光町",
    "town": "鳥喰下"
  },
  "2891738": {
    "zipcode": "2891738",
    "prefectureCode": "12",
    "prefectureNumber": 12,
    "prefecture": "千葉県",
    "city": "山武郡横芝光町",
    "town": "鳥喰上"
  },
  "2891739": {
    "zipcode": "2891739",
    "prefectureCode": "12",
    "prefectureNumber": 12,
    "prefecture": "千葉県",
    "city": "山武郡横芝光町",
    "town": "鳥喰新田"
  },
  "2891741": {
    "zipcode": "2891741",
    "prefectureCode": "12",
    "prefectureNumber": 12,
    "prefecture": "千葉県",
    "city": "山武郡横芝光町",
    "town": "中台"
  },
  "2891742": {
    "zipcode": "2891742",
    "prefectureCode": "12",
    "prefectureNumber": 12,
    "prefecture": "千葉県",
    "city": "山武郡横芝光町",
    "town": "牛熊"
  },
  "2891743": {
    "zipcode": "2891743",
    "prefectureCode": "12",
    "prefectureNumber": 12,
    "prefecture": "千葉県",
    "city": "山武郡横芝光町",
    "town": "谷台"
  },
  "2891744": {
    "zipcode": "2891744",
    "prefectureCode": "12",
    "prefectureNumber": 12,
    "prefecture": "千葉県",
    "city": "山武郡横芝光町",
    "town": "木戸台"
  },
  "2891745": {
    "zipcode": "2891745",
    "prefectureCode": "12",
    "prefectureNumber": 12,
    "prefecture": "千葉県",
    "city": "山武郡横芝光町",
    "town": "小堤"
  },
  "2891746": {
    "zipcode": "2891746",
    "prefectureCode": "12",
    "prefectureNumber": 12,
    "prefecture": "千葉県",
    "city": "山武郡横芝光町",
    "town": "寺方"
  },
  "2891747": {
    "zipcode": "2891747",
    "prefectureCode": "12",
    "prefectureNumber": 12,
    "prefecture": "千葉県",
    "city": "山武郡横芝光町",
    "town": "曽根合"
  },
  "2891748": {
    "zipcode": "2891748",
    "prefectureCode": "12",
    "prefectureNumber": 12,
    "prefecture": "千葉県",
    "city": "山武郡横芝光町",
    "town": "於幾"
  },
  "2891749": {
    "zipcode": "2891749",
    "prefectureCode": "12",
    "prefectureNumber": 12,
    "prefecture": "千葉県",
    "city": "山武郡横芝光町",
    "town": "両国新田"
  },
  "2891751": {
    "zipcode": "2891751",
    "prefectureCode": "12",
    "prefectureNumber": 12,
    "prefecture": "千葉県",
    "city": "山武郡横芝光町",
    "town": "長山台"
  },
  "2891752": {
    "zipcode": "2891752",
    "prefectureCode": "12",
    "prefectureNumber": 12,
    "prefecture": "千葉県",
    "city": "山武郡横芝光町",
    "town": "姥山"
  },
  "2891753": {
    "zipcode": "2891753",
    "prefectureCode": "12",
    "prefectureNumber": 12,
    "prefecture": "千葉県",
    "city": "山武郡横芝光町",
    "town": "取立"
  },
  "2891754": {
    "zipcode": "2891754",
    "prefectureCode": "12",
    "prefectureNumber": 12,
    "prefecture": "千葉県",
    "city": "山武郡横芝光町",
    "town": "坂田"
  },
  "2891755": {
    "zipcode": "2891755",
    "prefectureCode": "12",
    "prefectureNumber": 12,
    "prefecture": "千葉県",
    "city": "山武郡横芝光町",
    "town": "坂田池"
  },
  "2891756": {
    "zipcode": "2891756",
    "prefectureCode": "12",
    "prefectureNumber": 12,
    "prefecture": "千葉県",
    "city": "山武郡横芝光町",
    "town": "長倉"
  },
  "2891757": {
    "zipcode": "2891757",
    "prefectureCode": "12",
    "prefectureNumber": 12,
    "prefecture": "千葉県",
    "city": "山武郡横芝光町",
    "town": "遠山"
  },
  "2891801": {
    "zipcode": "2891801",
    "prefectureCode": "12",
    "prefectureNumber": 12,
    "prefecture": "千葉県",
    "city": "山武市",
    "town": "蓮沼イ"
  },
  "2891802": {
    "zipcode": "2891802",
    "prefectureCode": "12",
    "prefectureNumber": 12,
    "prefecture": "千葉県",
    "city": "山武市",
    "town": "蓮沼ロ"
  },
  "2891803": {
    "zipcode": "2891803",
    "prefectureCode": "12",
    "prefectureNumber": 12,
    "prefecture": "千葉県",
    "city": "山武市",
    "town": "蓮沼ホ"
  },
  "2891804": {
    "zipcode": "2891804",
    "prefectureCode": "12",
    "prefectureNumber": 12,
    "prefecture": "千葉県",
    "city": "山武市",
    "town": "蓮沼平"
  },
  "2891805": {
    "zipcode": "2891805",
    "prefectureCode": "12",
    "prefectureNumber": 12,
    "prefecture": "千葉県",
    "city": "山武市",
    "town": "蓮沼ニ"
  },
  "2891806": {
    "zipcode": "2891806",
    "prefectureCode": "12",
    "prefectureNumber": 12,
    "prefecture": "千葉県",
    "city": "山武市",
    "town": "蓮沼ハ"
  },
  "2892100": {
    "zipcode": "2892100",
    "prefectureCode": "12",
    "prefectureNumber": 12,
    "prefecture": "千葉県",
    "city": "匝瑳市",
    "town": "以下に掲載がない場合"
  },
  "2892101": {
    "zipcode": "2892101",
    "prefectureCode": "12",
    "prefectureNumber": 12,
    "prefecture": "千葉県",
    "city": "匝瑳市",
    "town": "春海"
  },
  "2892102": {
    "zipcode": "2892102",
    "prefectureCode": "12",
    "prefectureNumber": 12,
    "prefecture": "千葉県",
    "city": "匝瑳市",
    "town": "椿"
  },
  "2892103": {
    "zipcode": "2892103",
    "prefectureCode": "12",
    "prefectureNumber": 12,
    "prefecture": "千葉県",
    "city": "匝瑳市",
    "town": "宮本"
  },
  "2892104": {
    "zipcode": "2892104",
    "prefectureCode": "12",
    "prefectureNumber": 12,
    "prefecture": "千葉県",
    "city": "匝瑳市",
    "town": "生尾"
  },
  "2892105": {
    "zipcode": "2892105",
    "prefectureCode": "12",
    "prefectureNumber": 12,
    "prefecture": "千葉県",
    "city": "匝瑳市",
    "town": "山桑"
  },
  "2892106": {
    "zipcode": "2892106",
    "prefectureCode": "12",
    "prefectureNumber": 12,
    "prefecture": "千葉県",
    "city": "匝瑳市",
    "town": "飯塚"
  },
  "2892107": {
    "zipcode": "2892107",
    "prefectureCode": "12",
    "prefectureNumber": 12,
    "prefecture": "千葉県",
    "city": "匝瑳市",
    "town": "米持"
  },
  "2892108": {
    "zipcode": "2892108",
    "prefectureCode": "12",
    "prefectureNumber": 12,
    "prefecture": "千葉県",
    "city": "匝瑳市",
    "town": "大寺"
  },
  "2892111": {
    "zipcode": "2892111",
    "prefectureCode": "12",
    "prefectureNumber": 12,
    "prefecture": "千葉県",
    "city": "匝瑳市",
    "town": "川向"
  },
  "2892112": {
    "zipcode": "2892112",
    "prefectureCode": "12",
    "prefectureNumber": 12,
    "prefecture": "千葉県",
    "city": "匝瑳市",
    "town": "荻野"
  },
  "2892113": {
    "zipcode": "2892113",
    "prefectureCode": "12",
    "prefectureNumber": 12,
    "prefecture": "千葉県",
    "city": "匝瑳市",
    "town": "平木"
  },
  "2892114": {
    "zipcode": "2892114",
    "prefectureCode": "12",
    "prefectureNumber": 12,
    "prefecture": "千葉県",
    "city": "匝瑳市",
    "town": "上谷中"
  },
  "2892115": {
    "zipcode": "2892115",
    "prefectureCode": "12",
    "prefectureNumber": 12,
    "prefecture": "千葉県",
    "city": "匝瑳市",
    "town": "東谷"
  },
  "2892121": {
    "zipcode": "2892121",
    "prefectureCode": "12",
    "prefectureNumber": 12,
    "prefecture": "千葉県",
    "city": "匝瑳市",
    "town": "東小笹"
  },
  "2892122": {
    "zipcode": "2892122",
    "prefectureCode": "12",
    "prefectureNumber": 12,
    "prefecture": "千葉県",
    "city": "匝瑳市",
    "town": "吉崎"
  },
  "2892123": {
    "zipcode": "2892123",
    "prefectureCode": "12",
    "prefectureNumber": 12,
    "prefecture": "千葉県",
    "city": "匝瑳市",
    "town": "長谷"
  },
  "2892124": {
    "zipcode": "2892124",
    "prefectureCode": "12",
    "prefectureNumber": 12,
    "prefecture": "千葉県",
    "city": "匝瑳市",
    "town": "登戸"
  },
  "2892125": {
    "zipcode": "2892125",
    "prefectureCode": "12",
    "prefectureNumber": 12,
    "prefecture": "千葉県",
    "city": "匝瑳市",
    "town": "西小笹"
  },
  "2892131": {
    "zipcode": "2892131",
    "prefectureCode": "12",
    "prefectureNumber": 12,
    "prefecture": "千葉県",
    "city": "匝瑳市",
    "town": "みどり平"
  },
  "2892132": {
    "zipcode": "2892132",
    "prefectureCode": "12",
    "prefectureNumber": 12,
    "prefecture": "千葉県",
    "city": "匝瑳市",
    "town": "高"
  },
  "2892133": {
    "zipcode": "2892133",
    "prefectureCode": "12",
    "prefectureNumber": 12,
    "prefecture": "千葉県",
    "city": "匝瑳市",
    "town": "蕪里"
  },
  "2892134": {
    "zipcode": "2892134",
    "prefectureCode": "12",
    "prefectureNumber": 12,
    "prefecture": "千葉県",
    "city": "匝瑳市",
    "town": "横須賀"
  },
  "2892135": {
    "zipcode": "2892135",
    "prefectureCode": "12",
    "prefectureNumber": 12,
    "prefecture": "千葉県",
    "city": "匝瑳市",
    "town": "高野"
  },
  "2892136": {
    "zipcode": "2892136",
    "prefectureCode": "12",
    "prefectureNumber": 12,
    "prefecture": "千葉県",
    "city": "匝瑳市",
    "town": "時曽根"
  },
  "2892141": {
    "zipcode": "2892141",
    "prefectureCode": "12",
    "prefectureNumber": 12,
    "prefecture": "千葉県",
    "city": "匝瑳市",
    "town": "八日市場ハ"
  },
  "2892142": {
    "zipcode": "2892142",
    "prefectureCode": "12",
    "prefectureNumber": 12,
    "prefecture": "千葉県",
    "city": "匝瑳市",
    "town": "八日市場ニ"
  },
  "2892143": {
    "zipcode": "2892143",
    "prefectureCode": "12",
    "prefectureNumber": 12,
    "prefecture": "千葉県",
    "city": "匝瑳市",
    "town": "八日市場ロ"
  },
  "2892144": {
    "zipcode": "2892144",
    "prefectureCode": "12",
    "prefectureNumber": 12,
    "prefecture": "千葉県",
    "city": "匝瑳市",
    "town": "八日市場イ"
  },
  "2892145": {
    "zipcode": "2892145",
    "prefectureCode": "12",
    "prefectureNumber": 12,
    "prefecture": "千葉県",
    "city": "匝瑳市",
    "town": "若潮町"
  },
  "2892146": {
    "zipcode": "2892146",
    "prefectureCode": "12",
    "prefectureNumber": 12,
    "prefecture": "千葉県",
    "city": "匝瑳市",
    "town": "八日市場ホ"
  },
  "2892147": {
    "zipcode": "2892147",
    "prefectureCode": "12",
    "prefectureNumber": 12,
    "prefecture": "千葉県",
    "city": "匝瑳市",
    "town": "飯倉"
  },
  "2892148": {
    "zipcode": "2892148",
    "prefectureCode": "12",
    "prefectureNumber": 12,
    "prefecture": "千葉県",
    "city": "匝瑳市",
    "town": "飯倉台"
  },
  "2892149": {
    "zipcode": "2892149",
    "prefectureCode": "12",
    "prefectureNumber": 12,
    "prefecture": "千葉県",
    "city": "匝瑳市",
    "town": "貝塚"
  },
  "2892151": {
    "zipcode": "2892151",
    "prefectureCode": "12",
    "prefectureNumber": 12,
    "prefecture": "千葉県",
    "city": "匝瑳市",
    "town": "大浦"
  },
  "2892152": {
    "zipcode": "2892152",
    "prefectureCode": "12",
    "prefectureNumber": 12,
    "prefecture": "千葉県",
    "city": "匝瑳市",
    "town": "松山"
  },
  "2892153": {
    "zipcode": "2892153",
    "prefectureCode": "12",
    "prefectureNumber": 12,
    "prefecture": "千葉県",
    "city": "匝瑳市",
    "town": "中台"
  },
  "2892154": {
    "zipcode": "2892154",
    "prefectureCode": "12",
    "prefectureNumber": 12,
    "prefecture": "千葉県",
    "city": "匝瑳市",
    "town": "富岡"
  },
  "2892155": {
    "zipcode": "2892155",
    "prefectureCode": "12",
    "prefectureNumber": 12,
    "prefecture": "千葉県",
    "city": "匝瑳市",
    "town": "八辺"
  },
  "2892156": {
    "zipcode": "2892156",
    "prefectureCode": "12",
    "prefectureNumber": 12,
    "prefecture": "千葉県",
    "city": "匝瑳市",
    "town": "長丘"
  },
  "2892157": {
    "zipcode": "2892157",
    "prefectureCode": "12",
    "prefectureNumber": 12,
    "prefecture": "千葉県",
    "city": "匝瑳市",
    "town": "堀之内"
  },
  "2892161": {
    "zipcode": "2892161",
    "prefectureCode": "12",
    "prefectureNumber": 12,
    "prefecture": "千葉県",
    "city": "匝瑳市",
    "town": "入山崎"
  },
  "2892162": {
    "zipcode": "2892162",
    "prefectureCode": "12",
    "prefectureNumber": 12,
    "prefecture": "千葉県",
    "city": "匝瑳市",
    "town": "南山崎"
  },
  "2892163": {
    "zipcode": "2892163",
    "prefectureCode": "12",
    "prefectureNumber": 12,
    "prefecture": "千葉県",
    "city": "匝瑳市",
    "town": "南神崎"
  },
  "2892164": {
    "zipcode": "2892164",
    "prefectureCode": "12",
    "prefectureNumber": 12,
    "prefecture": "千葉県",
    "city": "匝瑳市",
    "town": "木積"
  },
  "2892165": {
    "zipcode": "2892165",
    "prefectureCode": "12",
    "prefectureNumber": 12,
    "prefecture": "千葉県",
    "city": "匝瑳市",
    "town": "田久保"
  },
  "2892166": {
    "zipcode": "2892166",
    "prefectureCode": "12",
    "prefectureNumber": 12,
    "prefecture": "千葉県",
    "city": "匝瑳市",
    "town": "新"
  },
  "2892167": {
    "zipcode": "2892167",
    "prefectureCode": "12",
    "prefectureNumber": 12,
    "prefecture": "千葉県",
    "city": "匝瑳市",
    "town": "亀崎"
  },
  "2892168": {
    "zipcode": "2892168",
    "prefectureCode": "12",
    "prefectureNumber": 12,
    "prefecture": "千葉県",
    "city": "匝瑳市",
    "town": "久方"
  },
  "2892169": {
    "zipcode": "2892169",
    "prefectureCode": "12",
    "prefectureNumber": 12,
    "prefecture": "千葉県",
    "city": "匝瑳市",
    "town": "吉田"
  },
  "2892171": {
    "zipcode": "2892171",
    "prefectureCode": "12",
    "prefectureNumber": 12,
    "prefecture": "千葉県",
    "city": "匝瑳市",
    "town": "内山"
  },
  "2892172": {
    "zipcode": "2892172",
    "prefectureCode": "12",
    "prefectureNumber": 12,
    "prefecture": "千葉県",
    "city": "匝瑳市",
    "town": "城下"
  },
  "2892173": {
    "zipcode": "2892173",
    "prefectureCode": "12",
    "prefectureNumber": 12,
    "prefecture": "千葉県",
    "city": "匝瑳市",
    "town": "飯高"
  },
  "2892174": {
    "zipcode": "2892174",
    "prefectureCode": "12",
    "prefectureNumber": 12,
    "prefecture": "千葉県",
    "city": "匝瑳市",
    "town": "公崎"
  },
  "2892175": {
    "zipcode": "2892175",
    "prefectureCode": "12",
    "prefectureNumber": 12,
    "prefecture": "千葉県",
    "city": "匝瑳市",
    "town": "加多古"
  },
  "2892176": {
    "zipcode": "2892176",
    "prefectureCode": "12",
    "prefectureNumber": 12,
    "prefecture": "千葉県",
    "city": "匝瑳市",
    "town": "大保里"
  },
  "2892177": {
    "zipcode": "2892177",
    "prefectureCode": "12",
    "prefectureNumber": 12,
    "prefecture": "千葉県",
    "city": "匝瑳市",
    "town": "金原"
  },
  "2892178": {
    "zipcode": "2892178",
    "prefectureCode": "12",
    "prefectureNumber": 12,
    "prefecture": "千葉県",
    "city": "匝瑳市",
    "town": "安久山"
  },
  "2892179": {
    "zipcode": "2892179",
    "prefectureCode": "12",
    "prefectureNumber": 12,
    "prefecture": "千葉県",
    "city": "匝瑳市",
    "town": "小高"
  },
  "2892200": {
    "zipcode": "2892200",
    "prefectureCode": "12",
    "prefectureNumber": 12,
    "prefecture": "千葉県",
    "city": "香取郡多古町",
    "town": "以下に掲載がない場合"
  },
  "2892231": {
    "zipcode": "2892231",
    "prefectureCode": "12",
    "prefectureNumber": 12,
    "prefecture": "千葉県",
    "city": "香取郡多古町",
    "town": "飯笹"
  },
  "2892232": {
    "zipcode": "2892232",
    "prefectureCode": "12",
    "prefectureNumber": 12,
    "prefecture": "千葉県",
    "city": "香取郡多古町",
    "town": "喜多"
  },
  "2892233": {
    "zipcode": "2892233",
    "prefectureCode": "12",
    "prefectureNumber": 12,
    "prefecture": "千葉県",
    "city": "香取郡多古町",
    "town": "林"
  },
  "2892234": {
    "zipcode": "2892234",
    "prefectureCode": "12",
    "prefectureNumber": 12,
    "prefecture": "千葉県",
    "city": "香取郡多古町",
    "town": "五反田"
  },
  "2892235": {
    "zipcode": "2892235",
    "prefectureCode": "12",
    "prefectureNumber": 12,
    "prefecture": "千葉県",
    "city": "香取郡多古町",
    "town": "間倉"
  },
  "2892236": {
    "zipcode": "2892236",
    "prefectureCode": "12",
    "prefectureNumber": 12,
    "prefecture": "千葉県",
    "city": "香取郡多古町",
    "town": "一鍬田（その他）"
  },
  "2892241": {
    "zipcode": "2892241",
    "prefectureCode": "12",
    "prefectureNumber": 12,
    "prefecture": "千葉県",
    "city": "香取郡多古町",
    "town": "多古"
  },
  "2892242": {
    "zipcode": "2892242",
    "prefectureCode": "12",
    "prefectureNumber": 12,
    "prefecture": "千葉県",
    "city": "香取郡多古町",
    "town": "染井"
  },
  "2892243": {
    "zipcode": "2892243",
    "prefectureCode": "12",
    "prefectureNumber": 12,
    "prefecture": "千葉県",
    "city": "香取郡多古町",
    "town": "島"
  },
  "2892244": {
    "zipcode": "2892244",
    "prefectureCode": "12",
    "prefectureNumber": 12,
    "prefecture": "千葉県",
    "city": "香取郡多古町",
    "town": "船越"
  },
  "2892245": {
    "zipcode": "2892245",
    "prefectureCode": "12",
    "prefectureNumber": 12,
    "prefecture": "千葉県",
    "city": "香取郡多古町",
    "town": "牛尾"
  },
  "2892246": {
    "zipcode": "2892246",
    "prefectureCode": "12",
    "prefectureNumber": 12,
    "prefecture": "千葉県",
    "city": "香取郡多古町",
    "town": "千田"
  },
  "2892247": {
    "zipcode": "2892247",
    "prefectureCode": "12",
    "prefectureNumber": 12,
    "prefecture": "千葉県",
    "city": "香取郡多古町",
    "town": "水戸"
  },
  "2892251": {
    "zipcode": "2892251",
    "prefectureCode": "12",
    "prefectureNumber": 12,
    "prefecture": "千葉県",
    "city": "香取郡多古町",
    "town": "北中"
  },
  "2892252": {
    "zipcode": "2892252",
    "prefectureCode": "12",
    "prefectureNumber": 12,
    "prefecture": "千葉県",
    "city": "香取郡多古町",
    "town": "南和田"
  },
  "2892253": {
    "zipcode": "2892253",
    "prefectureCode": "12",
    "prefectureNumber": 12,
    "prefecture": "千葉県",
    "city": "香取郡多古町",
    "town": "南借当"
  },
  "2892254": {
    "zipcode": "2892254",
    "prefectureCode": "12",
    "prefectureNumber": 12,
    "prefecture": "千葉県",
    "city": "香取郡多古町",
    "town": "東輝"
  },
  "2892255": {
    "zipcode": "2892255",
    "prefectureCode": "12",
    "prefectureNumber": 12,
    "prefecture": "千葉県",
    "city": "香取郡多古町",
    "town": "南並木"
  },
  "2892256": {
    "zipcode": "2892256",
    "prefectureCode": "12",
    "prefectureNumber": 12,
    "prefecture": "千葉県",
    "city": "香取郡多古町",
    "town": "中村新田"
  },
  "2892257": {
    "zipcode": "2892257",
    "prefectureCode": "12",
    "prefectureNumber": 12,
    "prefecture": "千葉県",
    "city": "香取郡多古町",
    "town": "南中"
  },
  "2892301": {
    "zipcode": "2892301",
    "prefectureCode": "12",
    "prefectureNumber": 12,
    "prefecture": "千葉県",
    "city": "香取郡多古町",
    "town": "出沼"
  },
  "2892302": {
    "zipcode": "2892302",
    "prefectureCode": "12",
    "prefectureNumber": 12,
    "prefecture": "千葉県",
    "city": "香取郡多古町",
    "town": "桧木"
  },
  "2892303": {
    "zipcode": "2892303",
    "prefectureCode": "12",
    "prefectureNumber": 12,
    "prefecture": "千葉県",
    "city": "香取郡多古町",
    "town": "大門"
  },
  "2892304": {
    "zipcode": "2892304",
    "prefectureCode": "12",
    "prefectureNumber": 12,
    "prefecture": "千葉県",
    "city": "香取郡多古町",
    "town": "高津原"
  },
  "2892305": {
    "zipcode": "2892305",
    "prefectureCode": "12",
    "prefectureNumber": 12,
    "prefecture": "千葉県",
    "city": "香取郡多古町",
    "town": "大高"
  },
  "2892306": {
    "zipcode": "2892306",
    "prefectureCode": "12",
    "prefectureNumber": 12,
    "prefecture": "千葉県",
    "city": "香取郡多古町",
    "town": "十余三"
  },
  "2892311": {
    "zipcode": "2892311",
    "prefectureCode": "12",
    "prefectureNumber": 12,
    "prefecture": "千葉県",
    "city": "香取郡多古町",
    "town": "本三倉"
  },
  "2892312": {
    "zipcode": "2892312",
    "prefectureCode": "12",
    "prefectureNumber": 12,
    "prefecture": "千葉県",
    "city": "香取郡多古町",
    "town": "谷三倉"
  },
  "2892313": {
    "zipcode": "2892313",
    "prefectureCode": "12",
    "prefectureNumber": 12,
    "prefecture": "千葉県",
    "city": "香取郡多古町",
    "town": "次浦"
  },
  "2892314": {
    "zipcode": "2892314",
    "prefectureCode": "12",
    "prefectureNumber": 12,
    "prefecture": "千葉県",
    "city": "香取郡多古町",
    "town": "西古内"
  },
  "2892315": {
    "zipcode": "2892315",
    "prefectureCode": "12",
    "prefectureNumber": 12,
    "prefecture": "千葉県",
    "city": "香取郡多古町",
    "town": "御所台"
  },
  "2892316": {
    "zipcode": "2892316",
    "prefectureCode": "12",
    "prefectureNumber": 12,
    "prefecture": "千葉県",
    "city": "香取郡多古町",
    "town": "寺作"
  },
  "2892317": {
    "zipcode": "2892317",
    "prefectureCode": "12",
    "prefectureNumber": 12,
    "prefecture": "千葉県",
    "city": "香取郡多古町",
    "town": "井戸山"
  },
  "2892321": {
    "zipcode": "2892321",
    "prefectureCode": "12",
    "prefectureNumber": 12,
    "prefecture": "千葉県",
    "city": "香取郡多古町",
    "town": "東松崎"
  },
  "2892322": {
    "zipcode": "2892322",
    "prefectureCode": "12",
    "prefectureNumber": 12,
    "prefecture": "千葉県",
    "city": "香取郡多古町",
    "town": "坂"
  },
  "2892323": {
    "zipcode": "2892323",
    "prefectureCode": "12",
    "prefectureNumber": 12,
    "prefecture": "千葉県",
    "city": "香取郡多古町",
    "town": "方田"
  },
  "2892324": {
    "zipcode": "2892324",
    "prefectureCode": "12",
    "prefectureNumber": 12,
    "prefecture": "千葉県",
    "city": "香取郡多古町",
    "town": "川島"
  },
  "2892325": {
    "zipcode": "2892325",
    "prefectureCode": "12",
    "prefectureNumber": 12,
    "prefecture": "千葉県",
    "city": "香取郡多古町",
    "town": "南玉造"
  },
  "2892500": {
    "zipcode": "2892500",
    "prefectureCode": "12",
    "prefectureNumber": 12,
    "prefecture": "千葉県",
    "city": "旭市",
    "town": "以下に掲載がない場合"
  },
  "2892501": {
    "zipcode": "2892501",
    "prefectureCode": "12",
    "prefectureNumber": 12,
    "prefecture": "千葉県",
    "city": "旭市",
    "town": "新町"
  },
  "2892502": {
    "zipcode": "2892502",
    "prefectureCode": "12",
    "prefectureNumber": 12,
    "prefecture": "千葉県",
    "city": "旭市",
    "town": "琴田（その他）"
  },
  "2892503": {
    "zipcode": "2892503",
    "prefectureCode": "12",
    "prefectureNumber": 12,
    "prefecture": "千葉県",
    "city": "旭市",
    "town": "江ケ崎（その他）"
  },
  "2892504": {
    "zipcode": "2892504",
    "prefectureCode": "12",
    "prefectureNumber": 12,
    "prefecture": "千葉県",
    "city": "旭市",
    "town": "ニ"
  },
  "2892505": {
    "zipcode": "2892505",
    "prefectureCode": "12",
    "prefectureNumber": 12,
    "prefecture": "千葉県",
    "city": "旭市",
    "town": "鎌数"
  },
  "2892511": {
    "zipcode": "2892511",
    "prefectureCode": "12",
    "prefectureNumber": 12,
    "prefecture": "千葉県",
    "city": "旭市",
    "town": "イ"
  },
  "2892512": {
    "zipcode": "2892512",
    "prefectureCode": "12",
    "prefectureNumber": 12,
    "prefecture": "千葉県",
    "city": "旭市",
    "town": "東足洗"
  },
  "2892513": {
    "zipcode": "2892513",
    "prefectureCode": "12",
    "prefectureNumber": 12,
    "prefecture": "千葉県",
    "city": "旭市",
    "town": "野中"
  },
  "2892514": {
    "zipcode": "2892514",
    "prefectureCode": "12",
    "prefectureNumber": 12,
    "prefecture": "千葉県",
    "city": "旭市",
    "town": "椎名内"
  },
  "2892515": {
    "zipcode": "2892515",
    "prefectureCode": "12",
    "prefectureNumber": 12,
    "prefecture": "千葉県",
    "city": "旭市",
    "town": "西足洗"
  },
  "2892516": {
    "zipcode": "2892516",
    "prefectureCode": "12",
    "prefectureNumber": 12,
    "prefecture": "千葉県",
    "city": "旭市",
    "town": "ロ"
  },
  "2892521": {
    "zipcode": "2892521",
    "prefectureCode": "12",
    "prefectureNumber": 12,
    "prefecture": "千葉県",
    "city": "旭市",
    "town": "ハ"
  },
  "2892522": {
    "zipcode": "2892522",
    "prefectureCode": "12",
    "prefectureNumber": 12,
    "prefecture": "千葉県",
    "city": "旭市",
    "town": "足川"
  },
  "2892523": {
    "zipcode": "2892523",
    "prefectureCode": "12",
    "prefectureNumber": 12,
    "prefecture": "千葉県",
    "city": "旭市",
    "town": "中谷里"
  },
  "2892524": {
    "zipcode": "2892524",
    "prefectureCode": "12",
    "prefectureNumber": 12,
    "prefecture": "千葉県",
    "city": "旭市",
    "town": "神宮寺"
  },
  "2892525": {
    "zipcode": "2892525",
    "prefectureCode": "12",
    "prefectureNumber": 12,
    "prefecture": "千葉県",
    "city": "旭市",
    "town": "仁玉"
  },
  "2892531": {
    "zipcode": "2892531",
    "prefectureCode": "12",
    "prefectureNumber": 12,
    "prefecture": "千葉県",
    "city": "旭市",
    "town": "井戸野"
  },
  "2892532": {
    "zipcode": "2892532",
    "prefectureCode": "12",
    "prefectureNumber": 12,
    "prefecture": "千葉県",
    "city": "旭市",
    "town": "駒込"
  },
  "2892533": {
    "zipcode": "2892533",
    "prefectureCode": "12",
    "prefectureNumber": 12,
    "prefecture": "千葉県",
    "city": "旭市",
    "town": "大塚原"
  },
  "2892534": {
    "zipcode": "2892534",
    "prefectureCode": "12",
    "prefectureNumber": 12,
    "prefecture": "千葉県",
    "city": "旭市",
    "town": "泉川"
  },
  "2892535": {
    "zipcode": "2892535",
    "prefectureCode": "12",
    "prefectureNumber": 12,
    "prefecture": "千葉県",
    "city": "旭市",
    "town": "川口"
  },
  "2892601": {
    "zipcode": "2892601",
    "prefectureCode": "12",
    "prefectureNumber": 12,
    "prefecture": "千葉県",
    "city": "旭市",
    "town": "松ケ谷"
  },
  "2892602": {
    "zipcode": "2892602",
    "prefectureCode": "12",
    "prefectureNumber": 12,
    "prefecture": "千葉県",
    "city": "旭市",
    "town": "岩井"
  },
  "2892603": {
    "zipcode": "2892603",
    "prefectureCode": "12",
    "prefectureNumber": 12,
    "prefecture": "千葉県",
    "city": "旭市",
    "town": "大間手"
  },
  "2892604": {
    "zipcode": "2892604",
    "prefectureCode": "12",
    "prefectureNumber": 12,
    "prefecture": "千葉県",
    "city": "旭市",
    "town": "高生"
  },
  "2892605": {
    "zipcode": "2892605",
    "prefectureCode": "12",
    "prefectureNumber": 12,
    "prefecture": "千葉県",
    "city": "旭市",
    "town": "琴田（８５〜１６０、１３８６〜１８１５、２５９３〜２８２０、３５９８〜３６１４番地）"
  },
  "2892606": {
    "zipcode": "2892606",
    "prefectureCode": "12",
    "prefectureNumber": 12,
    "prefecture": "千葉県",
    "city": "旭市",
    "town": "清滝"
  },
  "2892607": {
    "zipcode": "2892607",
    "prefectureCode": "12",
    "prefectureNumber": 12,
    "prefecture": "千葉県",
    "city": "旭市",
    "town": "幾世"
  },
  "2892611": {
    "zipcode": "2892611",
    "prefectureCode": "12",
    "prefectureNumber": 12,
    "prefecture": "千葉県",
    "city": "旭市",
    "town": "倉橋"
  },
  "2892612": {
    "zipcode": "2892612",
    "prefectureCode": "12",
    "prefectureNumber": 12,
    "prefecture": "千葉県",
    "city": "旭市",
    "town": "蛇園"
  },
  "2892613": {
    "zipcode": "2892613",
    "prefectureCode": "12",
    "prefectureNumber": 12,
    "prefecture": "千葉県",
    "city": "旭市",
    "town": "後草"
  },
  "2892614": {
    "zipcode": "2892614",
    "prefectureCode": "12",
    "prefectureNumber": 12,
    "prefecture": "千葉県",
    "city": "旭市",
    "town": "江ケ崎（１２〜２２、１２７〜１４０、１７０９、１７２３−３、１７２８−４番地）"
  },
  "2892615": {
    "zipcode": "2892615",
    "prefectureCode": "12",
    "prefectureNumber": 12,
    "prefecture": "千葉県",
    "city": "旭市",
    "town": "長尾"
  },
  "2892616": {
    "zipcode": "2892616",
    "prefectureCode": "12",
    "prefectureNumber": 12,
    "prefecture": "千葉県",
    "city": "旭市",
    "town": "見広"
  },
  "2892701": {
    "zipcode": "2892701",
    "prefectureCode": "12",
    "prefectureNumber": 12,
    "prefecture": "千葉県",
    "city": "旭市",
    "town": "狢野"
  },
  "2892702": {
    "zipcode": "2892702",
    "prefectureCode": "12",
    "prefectureNumber": 12,
    "prefecture": "千葉県",
    "city": "旭市",
    "town": "塙"
  },
  "2892703": {
    "zipcode": "2892703",
    "prefectureCode": "12",
    "prefectureNumber": 12,
    "prefecture": "千葉県",
    "city": "旭市",
    "town": "八木"
  },
  "2892704": {
    "zipcode": "2892704",
    "prefectureCode": "12",
    "prefectureNumber": 12,
    "prefecture": "千葉県",
    "city": "旭市",
    "town": "上永井"
  },
  "2892705": {
    "zipcode": "2892705",
    "prefectureCode": "12",
    "prefectureNumber": 12,
    "prefecture": "千葉県",
    "city": "旭市",
    "town": "飯岡"
  },
  "2892706": {
    "zipcode": "2892706",
    "prefectureCode": "12",
    "prefectureNumber": 12,
    "prefecture": "千葉県",
    "city": "旭市",
    "town": "下永井"
  },
  "2892707": {
    "zipcode": "2892707",
    "prefectureCode": "12",
    "prefectureNumber": 12,
    "prefecture": "千葉県",
    "city": "旭市",
    "town": "行内"
  },
  "2892708": {
    "zipcode": "2892708",
    "prefectureCode": "12",
    "prefectureNumber": 12,
    "prefecture": "千葉県",
    "city": "旭市",
    "town": "平松"
  },
  "2892711": {
    "zipcode": "2892711",
    "prefectureCode": "12",
    "prefectureNumber": 12,
    "prefecture": "千葉県",
    "city": "旭市",
    "town": "岩崎"
  },
  "2892712": {
    "zipcode": "2892712",
    "prefectureCode": "12",
    "prefectureNumber": 12,
    "prefecture": "千葉県",
    "city": "旭市",
    "town": "横根"
  },
  "2892713": {
    "zipcode": "2892713",
    "prefectureCode": "12",
    "prefectureNumber": 12,
    "prefecture": "千葉県",
    "city": "旭市",
    "town": "萩園"
  },
  "2892714": {
    "zipcode": "2892714",
    "prefectureCode": "12",
    "prefectureNumber": 12,
    "prefecture": "千葉県",
    "city": "旭市",
    "town": "三川"
  },
  "2892715": {
    "zipcode": "2892715",
    "prefectureCode": "12",
    "prefectureNumber": 12,
    "prefecture": "千葉県",
    "city": "旭市",
    "town": "権田沼新田"
  },
  "2893181": {
    "zipcode": "2893181",
    "prefectureCode": "12",
    "prefectureNumber": 12,
    "prefecture": "千葉県",
    "city": "匝瑳市",
    "town": "野手"
  },
  "2893182": {
    "zipcode": "2893182",
    "prefectureCode": "12",
    "prefectureNumber": 12,
    "prefecture": "千葉県",
    "city": "匝瑳市",
    "town": "今泉"
  },
  "2893183": {
    "zipcode": "2893183",
    "prefectureCode": "12",
    "prefectureNumber": 12,
    "prefecture": "千葉県",
    "city": "匝瑳市",
    "town": "新堀"
  },
  "2893184": {
    "zipcode": "2893184",
    "prefectureCode": "12",
    "prefectureNumber": 12,
    "prefecture": "千葉県",
    "city": "匝瑳市",
    "town": "栢田"
  },
  "2893185": {
    "zipcode": "2893185",
    "prefectureCode": "12",
    "prefectureNumber": 12,
    "prefecture": "千葉県",
    "city": "匝瑳市",
    "town": "堀川"
  },
  "2893186": {
    "zipcode": "2893186",
    "prefectureCode": "12",
    "prefectureNumber": 12,
    "prefecture": "千葉県",
    "city": "匝瑳市",
    "town": "川辺"
  }
}
