{
  "2900000": {
    "zipcode": "2900000",
    "prefectureCode": "12",
    "prefectureNumber": 12,
    "prefecture": "千葉県",
    "city": "市原市",
    "town": "以下に掲載がない場合"
  },
  "2900001": {
    "zipcode": "2900001",
    "prefectureCode": "12",
    "prefectureNumber": 12,
    "prefecture": "千葉県",
    "city": "市原市",
    "town": "草刈（その他）"
  },
  "2900002": {
    "zipcode": "2900002",
    "prefectureCode": "12",
    "prefectureNumber": 12,
    "prefecture": "千葉県",
    "city": "市原市",
    "town": "大厩"
  },
  "2900003": {
    "zipcode": "2900003",
    "prefectureCode": "12",
    "prefectureNumber": 12,
    "prefecture": "千葉県",
    "city": "市原市",
    "town": "辰巳台東"
  },
  "2900004": {
    "zipcode": "2900004",
    "prefectureCode": "12",
    "prefectureNumber": 12,
    "prefecture": "千葉県",
    "city": "市原市",
    "town": "辰巳台西"
  },
  "2900005": {
    "zipcode": "2900005",
    "prefectureCode": "12",
    "prefectureNumber": 12,
    "prefecture": "千葉県",
    "city": "市原市",
    "town": "山木"
  },
  "2900006": {
    "zipcode": "2900006",
    "prefectureCode": "12",
    "prefectureNumber": 12,
    "prefecture": "千葉県",
    "city": "市原市",
    "town": "若宮"
  },
  "2900007": {
    "zipcode": "2900007",
    "prefectureCode": "12",
    "prefectureNumber": 12,
    "prefecture": "千葉県",
    "city": "市原市",
    "town": "菊間"
  },
  "2900008": {
    "zipcode": "2900008",
    "prefectureCode": "12",
    "prefectureNumber": 12,
    "prefecture": "千葉県",
    "city": "市原市",
    "town": "古市場"
  },
  "2900011": {
    "zipcode": "2900011",
    "prefectureCode": "12",
    "prefectureNumber": 12,
    "prefecture": "千葉県",
    "city": "市原市",
    "town": "能満"
  },
  "2900012": {
    "zipcode": "2900012",
    "prefectureCode": "12",
    "prefectureNumber": 12,
    "prefecture": "千葉県",
    "city": "市原市",
    "town": "藤井"
  },
  "2900013": {
    "zipcode": "2900013",
    "prefectureCode": "12",
    "prefectureNumber": 12,
    "prefecture": "千葉県",
    "city": "市原市",
    "town": "郡本"
  },
  "2900014": {
    "zipcode": "2900014",
    "prefectureCode": "12",
    "prefectureNumber": 12,
    "prefecture": "千葉県",
    "city": "市原市",
    "town": "西野谷"
  },
  "2900015": {
    "zipcode": "2900015",
    "prefectureCode": "12",
    "prefectureNumber": 12,
    "prefecture": "千葉県",
    "city": "市原市",
    "town": "市原"
  },
  "2900016": {
    "zipcode": "2900016",
    "prefectureCode": "12",
    "prefectureNumber": 12,
    "prefecture": "千葉県",
    "city": "市原市",
    "town": "門前"
  },
  "2900021": {
    "zipcode": "2900021",
    "prefectureCode": "12",
    "prefectureNumber": 12,
    "prefecture": "千葉県",
    "city": "市原市",
    "town": "山田橋"
  },
  "2900022": {
    "zipcode": "2900022",
    "prefectureCode": "12",
    "prefectureNumber": 12,
    "prefecture": "千葉県",
    "city": "市原市",
    "town": "西広"
  },
  "2900023": {
    "zipcode": "2900023",
    "prefectureCode": "12",
    "prefectureNumber": 12,
    "prefecture": "千葉県",
    "city": "市原市",
    "town": "惣社"
  },
  "2900024": {
    "zipcode": "2900024",
    "prefectureCode": "12",
    "prefectureNumber": 12,
    "prefecture": "千葉県",
    "city": "市原市",
    "town": "根田"
  },
  "2900025": {
    "zipcode": "2900025",
    "prefectureCode": "12",
    "prefectureNumber": 12,
    "prefecture": "千葉県",
    "city": "市原市",
    "town": "加茂"
  },
  "2900026": {
    "zipcode": "2900026",
    "prefectureCode": "12",
    "prefectureNumber": 12,
    "prefecture": "千葉県",
    "city": "市原市",
    "town": "諏訪"
  },
  "2900031": {
    "zipcode": "2900031",
    "prefectureCode": "12",
    "prefectureNumber": 12,
    "prefecture": "千葉県",
    "city": "市原市",
    "town": "村上"
  },
  "2900032": {
    "zipcode": "2900032",
    "prefectureCode": "12",
    "prefectureNumber": 12,
    "prefecture": "千葉県",
    "city": "市原市",
    "town": "廿五里"
  },
  "2900033": {
    "zipcode": "2900033",
    "prefectureCode": "12",
    "prefectureNumber": 12,
    "prefecture": "千葉県",
    "city": "市原市",
    "town": "野毛"
  },
  "2900034": {
    "zipcode": "2900034",
    "prefectureCode": "12",
    "prefectureNumber": 12,
    "prefecture": "千葉県",
    "city": "市原市",
    "town": "島野"
  },
  "2900035": {
    "zipcode": "2900035",
    "prefectureCode": "12",
    "prefectureNumber": 12,
    "prefecture": "千葉県",
    "city": "市原市",
    "town": "松ケ島"
  },
  "2900036": {
    "zipcode": "2900036",
    "prefectureCode": "12",
    "prefectureNumber": 12,
    "prefecture": "千葉県",
    "city": "市原市",
    "town": "松ケ島西"
  },
  "2900037": {
    "zipcode": "2900037",
    "prefectureCode": "12",
    "prefectureNumber": 12,
    "prefecture": "千葉県",
    "city": "市原市",
    "town": "飯沼"
  },
  "2900038": {
    "zipcode": "2900038",
    "prefectureCode": "12",
    "prefectureNumber": 12,
    "prefecture": "千葉県",
    "city": "市原市",
    "town": "五井西"
  },
  "2900041": {
    "zipcode": "2900041",
    "prefectureCode": "12",
    "prefectureNumber": 12,
    "prefecture": "千葉県",
    "city": "市原市",
    "town": "玉前"
  },
  "2900042": {
    "zipcode": "2900042",
    "prefectureCode": "12",
    "prefectureNumber": 12,
    "prefecture": "千葉県",
    "city": "市原市",
    "town": "出津"
  },
  "2900043": {
    "zipcode": "2900043",
    "prefectureCode": "12",
    "prefectureNumber": 12,
    "prefecture": "千葉県",
    "city": "市原市",
    "town": "出津西"
  },
  "2900044": {
    "zipcode": "2900044",
    "prefectureCode": "12",
    "prefectureNumber": 12,
    "prefecture": "千葉県",
    "city": "市原市",
    "town": "玉前西"
  },
  "2900045": {
    "zipcode": "2900045",
    "prefectureCode": "12",
    "prefectureNumber": 12,
    "prefecture": "千葉県",
    "city": "市原市",
    "town": "五井南海岸"
  },
  "2900046": {
    "zipcode": "2900046",
    "prefectureCode": "12",
    "prefectureNumber": 12,
    "prefecture": "千葉県",
    "city": "市原市",
    "town": "岩崎西"
  },
  "2900047": {
    "zipcode": "2900047",
    "prefectureCode": "12",
    "prefectureNumber": 12,
    "prefecture": "千葉県",
    "city": "市原市",
    "town": "岩崎"
  },
  "2900050": {
    "zipcode": "2900050",
    "prefectureCode": "12",
    "prefectureNumber": 12,
    "prefecture": "千葉県",
    "city": "市原市",
    "town": "更級"
  },
  "2900051": {
    "zipcode": "2900051",
    "prefectureCode": "12",
    "prefectureNumber": 12,
    "prefecture": "千葉県",
    "city": "市原市",
    "town": "君塚"
  },
  "2900052": {
    "zipcode": "2900052",
    "prefectureCode": "12",
    "prefectureNumber": 12,
    "prefecture": "千葉県",
    "city": "市原市",
    "town": "岩野見"
  },
  "2900053": {
    "zipcode": "2900053",
    "prefectureCode": "12",
    "prefectureNumber": 12,
    "prefecture": "千葉県",
    "city": "市原市",
    "town": "平田"
  },
  "2900054": {
    "zipcode": "2900054",
    "prefectureCode": "12",
    "prefectureNumber": 12,
    "prefecture": "千葉県",
    "city": "市原市",
    "town": "五井中央東"
  },
  "2900055": {
    "zipcode": "2900055",
    "prefectureCode": "12",
    "prefectureNumber": 12,
    "prefecture": "千葉県",
    "city": "市原市",
    "town": "五井東"
  },
  "2900056": {
    "zipcode": "2900056",
    "prefectureCode": "12",
    "prefectureNumber": 12,
    "prefecture": "千葉県",
    "city": "市原市",
    "town": "五井"
  },
  "2900057": {
    "zipcode": "2900057",
    "prefectureCode": "12",
    "prefectureNumber": 12,
    "prefecture": "千葉県",
    "city": "市原市",
    "town": "五井金杉"
  },
  "2900058": {
    "zipcode": "2900058",
    "prefectureCode": "12",
    "prefectureNumber": 12,
    "prefecture": "千葉県",
    "city": "市原市",
    "town": "五井海岸"
  },
  "2900059": {
    "zipcode": "2900059",
    "prefectureCode": "12",
    "prefectureNumber": 12,
    "prefecture": "千葉県",
    "city": "市原市",
    "town": "白金町"
  },
  "2900061": {
    "zipcode": "2900061",
    "prefectureCode": "12",
    "prefectureNumber": 12,
    "prefecture": "千葉県",
    "city": "市原市",
    "town": "八幡石塚"
  },
  "2900062": {
    "zipcode": "2900062",
    "prefectureCode": "12",
    "prefectureNumber": 12,
    "prefecture": "千葉県",
    "city": "市原市",
    "town": "八幡"
  },
  "2900063": {
    "zipcode": "2900063",
    "prefectureCode": "12",
    "prefectureNumber": 12,
    "prefecture": "千葉県",
    "city": "市原市",
    "town": "旭五所"
  },
  "2900064": {
    "zipcode": "2900064",
    "prefectureCode": "12",
    "prefectureNumber": 12,
    "prefecture": "千葉県",
    "city": "市原市",
    "town": "東五所"
  },
  "2900065": {
    "zipcode": "2900065",
    "prefectureCode": "12",
    "prefectureNumber": 12,
    "prefecture": "千葉県",
    "city": "市原市",
    "town": "西五所"
  },
  "2900066": {
    "zipcode": "2900066",
    "prefectureCode": "12",
    "prefectureNumber": 12,
    "prefecture": "千葉県",
    "city": "市原市",
    "town": "五所"
  },
  "2900067": {
    "zipcode": "2900067",
    "prefectureCode": "12",
    "prefectureNumber": 12,
    "prefecture": "千葉県",
    "city": "市原市",
    "town": "八幡海岸通"
  },
  "2900068": {
    "zipcode": "2900068",
    "prefectureCode": "12",
    "prefectureNumber": 12,
    "prefecture": "千葉県",
    "city": "市原市",
    "town": "八幡浦"
  },
  "2900069": {
    "zipcode": "2900069",
    "prefectureCode": "12",
    "prefectureNumber": 12,
    "prefecture": "千葉県",
    "city": "市原市",
    "town": "八幡北町"
  },
  "2900071": {
    "zipcode": "2900071",
    "prefectureCode": "12",
    "prefectureNumber": 12,
    "prefecture": "千葉県",
    "city": "市原市",
    "town": "北国分寺台"
  },
  "2900072": {
    "zipcode": "2900072",
    "prefectureCode": "12",
    "prefectureNumber": 12,
    "prefecture": "千葉県",
    "city": "市原市",
    "town": "西国分寺台"
  },
  "2900073": {
    "zipcode": "2900073",
    "prefectureCode": "12",
    "prefectureNumber": 12,
    "prefecture": "千葉県",
    "city": "市原市",
    "town": "国分寺台中央"
  },
  "2900074": {
    "zipcode": "2900074",
    "prefectureCode": "12",
    "prefectureNumber": 12,
    "prefecture": "千葉県",
    "city": "市原市",
    "town": "東国分寺台"
  },
  "2900075": {
    "zipcode": "2900075",
    "prefectureCode": "12",
    "prefectureNumber": 12,
    "prefecture": "千葉県",
    "city": "市原市",
    "town": "南国分寺台"
  },
  "2900081": {
    "zipcode": "2900081",
    "prefectureCode": "12",
    "prefectureNumber": 12,
    "prefecture": "千葉県",
    "city": "市原市",
    "town": "五井中央西"
  },
  "2900082": {
    "zipcode": "2900082",
    "prefectureCode": "12",
    "prefectureNumber": 12,
    "prefecture": "千葉県",
    "city": "市原市",
    "town": "五井中央南"
  },
  "2900141": {
    "zipcode": "2900141",
    "prefectureCode": "12",
    "prefectureNumber": 12,
    "prefecture": "千葉県",
    "city": "市原市",
    "town": "ちはら台東"
  },
  "2900142": {
    "zipcode": "2900142",
    "prefectureCode": "12",
    "prefectureNumber": 12,
    "prefecture": "千葉県",
    "city": "市原市",
    "town": "ちはら台南"
  },
  "2900143": {
    "zipcode": "2900143",
    "prefectureCode": "12",
    "prefectureNumber": 12,
    "prefecture": "千葉県",
    "city": "市原市",
    "town": "ちはら台西"
  },
  "2900151": {
    "zipcode": "2900151",
    "prefectureCode": "12",
    "prefectureNumber": 12,
    "prefecture": "千葉県",
    "city": "市原市",
    "town": "瀬又"
  },
  "2900152": {
    "zipcode": "2900152",
    "prefectureCode": "12",
    "prefectureNumber": 12,
    "prefecture": "千葉県",
    "city": "市原市",
    "town": "高田"
  },
  "2900153": {
    "zipcode": "2900153",
    "prefectureCode": "12",
    "prefectureNumber": 12,
    "prefecture": "千葉県",
    "city": "市原市",
    "town": "中野"
  },
  "2900154": {
    "zipcode": "2900154",
    "prefectureCode": "12",
    "prefectureNumber": 12,
    "prefecture": "千葉県",
    "city": "市原市",
    "town": "下野"
  },
  "2900155": {
    "zipcode": "2900155",
    "prefectureCode": "12",
    "prefectureNumber": 12,
    "prefecture": "千葉県",
    "city": "市原市",
    "town": "番場"
  },
  "2900156": {
    "zipcode": "2900156",
    "prefectureCode": "12",
    "prefectureNumber": 12,
    "prefecture": "千葉県",
    "city": "市原市",
    "town": "草刈（１６５６〜１９９９）"
  },
  "2900157": {
    "zipcode": "2900157",
    "prefectureCode": "12",
    "prefectureNumber": 12,
    "prefecture": "千葉県",
    "city": "市原市",
    "town": "押沼"
  },
  "2900161": {
    "zipcode": "2900161",
    "prefectureCode": "12",
    "prefectureNumber": 12,
    "prefecture": "千葉県",
    "city": "市原市",
    "town": "高倉"
  },
  "2900162": {
    "zipcode": "2900162",
    "prefectureCode": "12",
    "prefectureNumber": 12,
    "prefecture": "千葉県",
    "city": "市原市",
    "town": "金剛地"
  },
  "2900163": {
    "zipcode": "2900163",
    "prefectureCode": "12",
    "prefectureNumber": 12,
    "prefecture": "千葉県",
    "city": "市原市",
    "town": "東国吉"
  },
  "2900164": {
    "zipcode": "2900164",
    "prefectureCode": "12",
    "prefectureNumber": 12,
    "prefecture": "千葉県",
    "city": "市原市",
    "town": "奈良"
  },
  "2900165": {
    "zipcode": "2900165",
    "prefectureCode": "12",
    "prefectureNumber": 12,
    "prefecture": "千葉県",
    "city": "市原市",
    "town": "古都辺"
  },
  "2900166": {
    "zipcode": "2900166",
    "prefectureCode": "12",
    "prefectureNumber": 12,
    "prefecture": "千葉県",
    "city": "市原市",
    "town": "犬成"
  },
  "2900167": {
    "zipcode": "2900167",
    "prefectureCode": "12",
    "prefectureNumber": 12,
    "prefecture": "千葉県",
    "city": "市原市",
    "town": "喜多"
  },
  "2900168": {
    "zipcode": "2900168",
    "prefectureCode": "12",
    "prefectureNumber": 12,
    "prefecture": "千葉県",
    "city": "市原市",
    "town": "永吉"
  },
  "2900170": {
    "zipcode": "2900170",
    "prefectureCode": "12",
    "prefectureNumber": 12,
    "prefecture": "千葉県",
    "city": "市原市",
    "town": "うるいど南"
  },
  "2900171": {
    "zipcode": "2900171",
    "prefectureCode": "12",
    "prefectureNumber": 12,
    "prefecture": "千葉県",
    "city": "市原市",
    "town": "潤井戸"
  },
  "2900172": {
    "zipcode": "2900172",
    "prefectureCode": "12",
    "prefectureNumber": 12,
    "prefecture": "千葉県",
    "city": "市原市",
    "town": "大作"
  },
  "2900173": {
    "zipcode": "2900173",
    "prefectureCode": "12",
    "prefectureNumber": 12,
    "prefecture": "千葉県",
    "city": "市原市",
    "town": "滝口"
  },
  "2900174": {
    "zipcode": "2900174",
    "prefectureCode": "12",
    "prefectureNumber": 12,
    "prefecture": "千葉県",
    "city": "市原市",
    "town": "勝間"
  },
  "2900175": {
    "zipcode": "2900175",
    "prefectureCode": "12",
    "prefectureNumber": 12,
    "prefecture": "千葉県",
    "city": "市原市",
    "town": "葉木"
  },
  "2900176": {
    "zipcode": "2900176",
    "prefectureCode": "12",
    "prefectureNumber": 12,
    "prefecture": "千葉県",
    "city": "市原市",
    "town": "小田部"
  },
  "2900177": {
    "zipcode": "2900177",
    "prefectureCode": "12",
    "prefectureNumber": 12,
    "prefecture": "千葉県",
    "city": "市原市",
    "town": "荻作"
  },
  "2900178": {
    "zipcode": "2900178",
    "prefectureCode": "12",
    "prefectureNumber": 12,
    "prefecture": "千葉県",
    "city": "市原市",
    "town": "神崎"
  },
  "2900179": {
    "zipcode": "2900179",
    "prefectureCode": "12",
    "prefectureNumber": 12,
    "prefecture": "千葉県",
    "city": "市原市",
    "town": "久々津"
  },
  "2900201": {
    "zipcode": "2900201",
    "prefectureCode": "12",
    "prefectureNumber": 12,
    "prefecture": "千葉県",
    "city": "市原市",
    "town": "山倉"
  },
  "2900202": {
    "zipcode": "2900202",
    "prefectureCode": "12",
    "prefectureNumber": 12,
    "prefecture": "千葉県",
    "city": "市原市",
    "town": "福増"
  },
  "2900203": {
    "zipcode": "2900203",
    "prefectureCode": "12",
    "prefectureNumber": 12,
    "prefecture": "千葉県",
    "city": "市原市",
    "town": "武士"
  },
  "2900204": {
    "zipcode": "2900204",
    "prefectureCode": "12",
    "prefectureNumber": 12,
    "prefecture": "千葉県",
    "city": "市原市",
    "town": "磯ケ谷"
  },
  "2900205": {
    "zipcode": "2900205",
    "prefectureCode": "12",
    "prefectureNumber": 12,
    "prefecture": "千葉県",
    "city": "市原市",
    "town": "山田"
  },
  "2900206": {
    "zipcode": "2900206",
    "prefectureCode": "12",
    "prefectureNumber": 12,
    "prefecture": "千葉県",
    "city": "市原市",
    "town": "新堀"
  },
  "2900207": {
    "zipcode": "2900207",
    "prefectureCode": "12",
    "prefectureNumber": 12,
    "prefecture": "千葉県",
    "city": "市原市",
    "town": "海士有木"
  },
  "2900208": {
    "zipcode": "2900208",
    "prefectureCode": "12",
    "prefectureNumber": 12,
    "prefecture": "千葉県",
    "city": "市原市",
    "town": "大坪"
  },
  "2900209": {
    "zipcode": "2900209",
    "prefectureCode": "12",
    "prefectureNumber": 12,
    "prefecture": "千葉県",
    "city": "市原市",
    "town": "権現堂"
  },
  "2900211": {
    "zipcode": "2900211",
    "prefectureCode": "12",
    "prefectureNumber": 12,
    "prefecture": "千葉県",
    "city": "市原市",
    "town": "大桶"
  },
  "2900212": {
    "zipcode": "2900212",
    "prefectureCode": "12",
    "prefectureNumber": 12,
    "prefecture": "千葉県",
    "city": "市原市",
    "town": "新巻"
  },
  "2900213": {
    "zipcode": "2900213",
    "prefectureCode": "12",
    "prefectureNumber": 12,
    "prefecture": "千葉県",
    "city": "市原市",
    "town": "川在"
  },
  "2900214": {
    "zipcode": "2900214",
    "prefectureCode": "12",
    "prefectureNumber": 12,
    "prefecture": "千葉県",
    "city": "市原市",
    "town": "櫃挾"
  },
  "2900215": {
    "zipcode": "2900215",
    "prefectureCode": "12",
    "prefectureNumber": 12,
    "prefecture": "千葉県",
    "city": "市原市",
    "town": "土宇"
  },
  "2900216": {
    "zipcode": "2900216",
    "prefectureCode": "12",
    "prefectureNumber": 12,
    "prefecture": "千葉県",
    "city": "市原市",
    "town": "二日市場"
  },
  "2900217": {
    "zipcode": "2900217",
    "prefectureCode": "12",
    "prefectureNumber": 12,
    "prefecture": "千葉県",
    "city": "市原市",
    "town": "松崎"
  },
  "2900221": {
    "zipcode": "2900221",
    "prefectureCode": "12",
    "prefectureNumber": 12,
    "prefecture": "千葉県",
    "city": "市原市",
    "town": "馬立"
  },
  "2900222": {
    "zipcode": "2900222",
    "prefectureCode": "12",
    "prefectureNumber": 12,
    "prefecture": "千葉県",
    "city": "市原市",
    "town": "上原"
  },
  "2900223": {
    "zipcode": "2900223",
    "prefectureCode": "12",
    "prefectureNumber": 12,
    "prefecture": "千葉県",
    "city": "市原市",
    "town": "妙香"
  },
  "2900224": {
    "zipcode": "2900224",
    "prefectureCode": "12",
    "prefectureNumber": 12,
    "prefecture": "千葉県",
    "city": "市原市",
    "town": "奉免"
  },
  "2900225": {
    "zipcode": "2900225",
    "prefectureCode": "12",
    "prefectureNumber": 12,
    "prefecture": "千葉県",
    "city": "市原市",
    "town": "牛久"
  },
  "2900226": {
    "zipcode": "2900226",
    "prefectureCode": "12",
    "prefectureNumber": 12,
    "prefecture": "千葉県",
    "city": "市原市",
    "town": "中"
  },
  "2900227": {
    "zipcode": "2900227",
    "prefectureCode": "12",
    "prefectureNumber": 12,
    "prefecture": "千葉県",
    "city": "市原市",
    "town": "藪"
  },
  "2900228": {
    "zipcode": "2900228",
    "prefectureCode": "12",
    "prefectureNumber": 12,
    "prefecture": "千葉県",
    "city": "市原市",
    "town": "岩"
  },
  "2900229": {
    "zipcode": "2900229",
    "prefectureCode": "12",
    "prefectureNumber": 12,
    "prefecture": "千葉県",
    "city": "市原市",
    "town": "佐是"
  },
  "2900231": {
    "zipcode": "2900231",
    "prefectureCode": "12",
    "prefectureNumber": 12,
    "prefecture": "千葉県",
    "city": "市原市",
    "town": "西国吉"
  },
  "2900232": {
    "zipcode": "2900232",
    "prefectureCode": "12",
    "prefectureNumber": 12,
    "prefecture": "千葉県",
    "city": "市原市",
    "town": "皆吉"
  },
  "2900233": {
    "zipcode": "2900233",
    "prefectureCode": "12",
    "prefectureNumber": 12,
    "prefecture": "千葉県",
    "city": "市原市",
    "town": "金沢"
  },
  "2900234": {
    "zipcode": "2900234",
    "prefectureCode": "12",
    "prefectureNumber": 12,
    "prefecture": "千葉県",
    "city": "市原市",
    "town": "大蔵"
  },
  "2900235": {
    "zipcode": "2900235",
    "prefectureCode": "12",
    "prefectureNumber": 12,
    "prefecture": "千葉県",
    "city": "市原市",
    "town": "栢橋"
  },
  "2900236": {
    "zipcode": "2900236",
    "prefectureCode": "12",
    "prefectureNumber": 12,
    "prefecture": "千葉県",
    "city": "市原市",
    "town": "寺谷"
  },
  "2900241": {
    "zipcode": "2900241",
    "prefectureCode": "12",
    "prefectureNumber": 12,
    "prefecture": "千葉県",
    "city": "市原市",
    "town": "風戸"
  },
  "2900242": {
    "zipcode": "2900242",
    "prefectureCode": "12",
    "prefectureNumber": 12,
    "prefecture": "千葉県",
    "city": "市原市",
    "town": "中高根"
  },
  "2900243": {
    "zipcode": "2900243",
    "prefectureCode": "12",
    "prefectureNumber": 12,
    "prefecture": "千葉県",
    "city": "市原市",
    "town": "上高根"
  },
  "2900244": {
    "zipcode": "2900244",
    "prefectureCode": "12",
    "prefectureNumber": 12,
    "prefecture": "千葉県",
    "city": "市原市",
    "town": "南岩崎"
  },
  "2900251": {
    "zipcode": "2900251",
    "prefectureCode": "12",
    "prefectureNumber": 12,
    "prefecture": "千葉県",
    "city": "市原市",
    "town": "浅井小向"
  },
  "2900252": {
    "zipcode": "2900252",
    "prefectureCode": "12",
    "prefectureNumber": 12,
    "prefecture": "千葉県",
    "city": "市原市",
    "town": "相川"
  },
  "2900253": {
    "zipcode": "2900253",
    "prefectureCode": "12",
    "prefectureNumber": 12,
    "prefecture": "千葉県",
    "city": "市原市",
    "town": "安須"
  },
  "2900254": {
    "zipcode": "2900254",
    "prefectureCode": "12",
    "prefectureNumber": 12,
    "prefecture": "千葉県",
    "city": "市原市",
    "town": "高坂"
  },
  "2900255": {
    "zipcode": "2900255",
    "prefectureCode": "12",
    "prefectureNumber": 12,
    "prefecture": "千葉県",
    "city": "市原市",
    "town": "光風台"
  },
  "2900256": {
    "zipcode": "2900256",
    "prefectureCode": "12",
    "prefectureNumber": 12,
    "prefecture": "千葉県",
    "city": "市原市",
    "town": "引田"
  },
  "2900257": {
    "zipcode": "2900257",
    "prefectureCode": "12",
    "prefectureNumber": 12,
    "prefecture": "千葉県",
    "city": "市原市",
    "town": "新生"
  },
  "2900258": {
    "zipcode": "2900258",
    "prefectureCode": "12",
    "prefectureNumber": 12,
    "prefecture": "千葉県",
    "city": "市原市",
    "town": "神代"
  },
  "2900259": {
    "zipcode": "2900259",
    "prefectureCode": "12",
    "prefectureNumber": 12,
    "prefecture": "千葉県",
    "city": "市原市",
    "town": "分目"
  },
  "2900261": {
    "zipcode": "2900261",
    "prefectureCode": "12",
    "prefectureNumber": 12,
    "prefecture": "千葉県",
    "city": "市原市",
    "town": "西野"
  },
  "2900262": {
    "zipcode": "2900262",
    "prefectureCode": "12",
    "prefectureNumber": 12,
    "prefecture": "千葉県",
    "city": "市原市",
    "town": "糸久"
  },
  "2900263": {
    "zipcode": "2900263",
    "prefectureCode": "12",
    "prefectureNumber": 12,
    "prefecture": "千葉県",
    "city": "市原市",
    "town": "十五沢"
  },
  "2900264": {
    "zipcode": "2900264",
    "prefectureCode": "12",
    "prefectureNumber": 12,
    "prefecture": "千葉県",
    "city": "市原市",
    "town": "宮原"
  },
  "2900265": {
    "zipcode": "2900265",
    "prefectureCode": "12",
    "prefectureNumber": 12,
    "prefecture": "千葉県",
    "city": "市原市",
    "town": "今富"
  },
  "2900266": {
    "zipcode": "2900266",
    "prefectureCode": "12",
    "prefectureNumber": 12,
    "prefecture": "千葉県",
    "city": "市原市",
    "town": "海保"
  },
  "2900267": {
    "zipcode": "2900267",
    "prefectureCode": "12",
    "prefectureNumber": 12,
    "prefecture": "千葉県",
    "city": "市原市",
    "town": "町田"
  },
  "2900268": {
    "zipcode": "2900268",
    "prefectureCode": "12",
    "prefectureNumber": 12,
    "prefecture": "千葉県",
    "city": "市原市",
    "town": "柳原"
  },
  "2900269": {
    "zipcode": "2900269",
    "prefectureCode": "12",
    "prefectureNumber": 12,
    "prefecture": "千葉県",
    "city": "市原市",
    "town": "小折"
  },
  "2900501": {
    "zipcode": "2900501",
    "prefectureCode": "12",
    "prefectureNumber": 12,
    "prefecture": "千葉県",
    "city": "市原市",
    "town": "米沢"
  },
  "2900502": {
    "zipcode": "2900502",
    "prefectureCode": "12",
    "prefectureNumber": 12,
    "prefecture": "千葉県",
    "city": "市原市",
    "town": "真ケ谷"
  },
  "2900503": {
    "zipcode": "2900503",
    "prefectureCode": "12",
    "prefectureNumber": 12,
    "prefecture": "千葉県",
    "city": "市原市",
    "town": "宿"
  },
  "2900504": {
    "zipcode": "2900504",
    "prefectureCode": "12",
    "prefectureNumber": 12,
    "prefecture": "千葉県",
    "city": "市原市",
    "town": "堀越"
  },
  "2900505": {
    "zipcode": "2900505",
    "prefectureCode": "12",
    "prefectureNumber": 12,
    "prefecture": "千葉県",
    "city": "市原市",
    "town": "市場"
  },
  "2900506": {
    "zipcode": "2900506",
    "prefectureCode": "12",
    "prefectureNumber": 12,
    "prefecture": "千葉県",
    "city": "市原市",
    "town": "島田"
  },
  "2900507": {
    "zipcode": "2900507",
    "prefectureCode": "12",
    "prefectureNumber": 12,
    "prefecture": "千葉県",
    "city": "市原市",
    "town": "原田"
  },
  "2900508": {
    "zipcode": "2900508",
    "prefectureCode": "12",
    "prefectureNumber": 12,
    "prefecture": "千葉県",
    "city": "市原市",
    "town": "江子田"
  },
  "2900509": {
    "zipcode": "2900509",
    "prefectureCode": "12",
    "prefectureNumber": 12,
    "prefecture": "千葉県",
    "city": "市原市",
    "town": "安久谷"
  },
  "2900511": {
    "zipcode": "2900511",
    "prefectureCode": "12",
    "prefectureNumber": 12,
    "prefecture": "千葉県",
    "city": "市原市",
    "town": "石川"
  },
  "2900512": {
    "zipcode": "2900512",
    "prefectureCode": "12",
    "prefectureNumber": 12,
    "prefecture": "千葉県",
    "city": "市原市",
    "town": "鶴舞"
  },
  "2900513": {
    "zipcode": "2900513",
    "prefectureCode": "12",
    "prefectureNumber": 12,
    "prefecture": "千葉県",
    "city": "市原市",
    "town": "奥野"
  },
  "2900514": {
    "zipcode": "2900514",
    "prefectureCode": "12",
    "prefectureNumber": 12,
    "prefecture": "千葉県",
    "city": "市原市",
    "town": "水沢"
  },
  "2900515": {
    "zipcode": "2900515",
    "prefectureCode": "12",
    "prefectureNumber": 12,
    "prefecture": "千葉県",
    "city": "市原市",
    "town": "田尾"
  },
  "2900516": {
    "zipcode": "2900516",
    "prefectureCode": "12",
    "prefectureNumber": 12,
    "prefecture": "千葉県",
    "city": "市原市",
    "town": "池和田"
  },
  "2900517": {
    "zipcode": "2900517",
    "prefectureCode": "12",
    "prefectureNumber": 12,
    "prefecture": "千葉県",
    "city": "市原市",
    "town": "矢田"
  },
  "2900518": {
    "zipcode": "2900518",
    "prefectureCode": "12",
    "prefectureNumber": 12,
    "prefecture": "千葉県",
    "city": "市原市",
    "town": "下矢田"
  },
  "2900521": {
    "zipcode": "2900521",
    "prefectureCode": "12",
    "prefectureNumber": 12,
    "prefecture": "千葉県",
    "city": "市原市",
    "town": "山小川"
  },
  "2900522": {
    "zipcode": "2900522",
    "prefectureCode": "12",
    "prefectureNumber": 12,
    "prefecture": "千葉県",
    "city": "市原市",
    "town": "新井"
  },
  "2900523": {
    "zipcode": "2900523",
    "prefectureCode": "12",
    "prefectureNumber": 12,
    "prefecture": "千葉県",
    "city": "市原市",
    "town": "吉沢"
  },
  "2900524": {
    "zipcode": "2900524",
    "prefectureCode": "12",
    "prefectureNumber": 12,
    "prefecture": "千葉県",
    "city": "市原市",
    "town": "平蔵"
  },
  "2900525": {
    "zipcode": "2900525",
    "prefectureCode": "12",
    "prefectureNumber": 12,
    "prefecture": "千葉県",
    "city": "市原市",
    "town": "米原"
  },
  "2900526": {
    "zipcode": "2900526",
    "prefectureCode": "12",
    "prefectureNumber": 12,
    "prefecture": "千葉県",
    "city": "市原市",
    "town": "小草畑"
  },
  "2900527": {
    "zipcode": "2900527",
    "prefectureCode": "12",
    "prefectureNumber": 12,
    "prefecture": "千葉県",
    "city": "市原市",
    "town": "月出"
  },
  "2900528": {
    "zipcode": "2900528",
    "prefectureCode": "12",
    "prefectureNumber": 12,
    "prefecture": "千葉県",
    "city": "市原市",
    "town": "古敷谷"
  },
  "2900529": {
    "zipcode": "2900529",
    "prefectureCode": "12",
    "prefectureNumber": 12,
    "prefecture": "千葉県",
    "city": "市原市",
    "town": "小谷田"
  },
  "2900531": {
    "zipcode": "2900531",
    "prefectureCode": "12",
    "prefectureNumber": 12,
    "prefecture": "千葉県",
    "city": "市原市",
    "town": "国本"
  },
  "2900532": {
    "zipcode": "2900532",
    "prefectureCode": "12",
    "prefectureNumber": 12,
    "prefecture": "千葉県",
    "city": "市原市",
    "town": "大久保"
  },
  "2900533": {
    "zipcode": "2900533",
    "prefectureCode": "12",
    "prefectureNumber": 12,
    "prefecture": "千葉県",
    "city": "市原市",
    "town": "折津"
  },
  "2900534": {
    "zipcode": "2900534",
    "prefectureCode": "12",
    "prefectureNumber": 12,
    "prefecture": "千葉県",
    "city": "市原市",
    "town": "石神"
  },
  "2900535": {
    "zipcode": "2900535",
    "prefectureCode": "12",
    "prefectureNumber": 12,
    "prefecture": "千葉県",
    "city": "市原市",
    "town": "朝生原"
  },
  "2900536": {
    "zipcode": "2900536",
    "prefectureCode": "12",
    "prefectureNumber": 12,
    "prefecture": "千葉県",
    "city": "市原市",
    "town": "戸面"
  },
  "2900537": {
    "zipcode": "2900537",
    "prefectureCode": "12",
    "prefectureNumber": 12,
    "prefecture": "千葉県",
    "city": "市原市",
    "town": "石塚"
  },
  "2900538": {
    "zipcode": "2900538",
    "prefectureCode": "12",
    "prefectureNumber": 12,
    "prefecture": "千葉県",
    "city": "市原市",
    "town": "柳川"
  },
  "2900539": {
    "zipcode": "2900539",
    "prefectureCode": "12",
    "prefectureNumber": 12,
    "prefecture": "千葉県",
    "city": "市原市",
    "town": "菅野"
  },
  "2900541": {
    "zipcode": "2900541",
    "prefectureCode": "12",
    "prefectureNumber": 12,
    "prefecture": "千葉県",
    "city": "市原市",
    "town": "平野"
  },
  "2900542": {
    "zipcode": "2900542",
    "prefectureCode": "12",
    "prefectureNumber": 12,
    "prefecture": "千葉県",
    "city": "市原市",
    "town": "大戸"
  },
  "2900543": {
    "zipcode": "2900543",
    "prefectureCode": "12",
    "prefectureNumber": 12,
    "prefecture": "千葉県",
    "city": "市原市",
    "town": "飯給"
  },
  "2900544": {
    "zipcode": "2900544",
    "prefectureCode": "12",
    "prefectureNumber": 12,
    "prefecture": "千葉県",
    "city": "市原市",
    "town": "徳氏"
  },
  "2900545": {
    "zipcode": "2900545",
    "prefectureCode": "12",
    "prefectureNumber": 12,
    "prefecture": "千葉県",
    "city": "市原市",
    "town": "田淵旧日竹"
  },
  "2900546": {
    "zipcode": "2900546",
    "prefectureCode": "12",
    "prefectureNumber": 12,
    "prefecture": "千葉県",
    "city": "市原市",
    "town": "田淵"
  },
  "2900547": {
    "zipcode": "2900547",
    "prefectureCode": "12",
    "prefectureNumber": 12,
    "prefecture": "千葉県",
    "city": "市原市",
    "town": "月崎"
  },
  "2900548": {
    "zipcode": "2900548",
    "prefectureCode": "12",
    "prefectureNumber": 12,
    "prefecture": "千葉県",
    "city": "市原市",
    "town": "柿木台"
  },
  "2900549": {
    "zipcode": "2900549",
    "prefectureCode": "12",
    "prefectureNumber": 12,
    "prefecture": "千葉県",
    "city": "市原市",
    "town": "万田野"
  },
  "2900551": {
    "zipcode": "2900551",
    "prefectureCode": "12",
    "prefectureNumber": 12,
    "prefecture": "千葉県",
    "city": "市原市",
    "town": "外部田"
  },
  "2900552": {
    "zipcode": "2900552",
    "prefectureCode": "12",
    "prefectureNumber": 12,
    "prefecture": "千葉県",
    "city": "市原市",
    "town": "久保"
  },
  "2900553": {
    "zipcode": "2900553",
    "prefectureCode": "12",
    "prefectureNumber": 12,
    "prefecture": "千葉県",
    "city": "市原市",
    "town": "大和田"
  },
  "2900554": {
    "zipcode": "2900554",
    "prefectureCode": "12",
    "prefectureNumber": 12,
    "prefecture": "千葉県",
    "city": "市原市",
    "town": "不入"
  },
  "2900555": {
    "zipcode": "2900555",
    "prefectureCode": "12",
    "prefectureNumber": 12,
    "prefecture": "千葉県",
    "city": "市原市",
    "town": "高滝"
  },
  "2900556": {
    "zipcode": "2900556",
    "prefectureCode": "12",
    "prefectureNumber": 12,
    "prefecture": "千葉県",
    "city": "市原市",
    "town": "本郷"
  },
  "2900557": {
    "zipcode": "2900557",
    "prefectureCode": "12",
    "prefectureNumber": 12,
    "prefecture": "千葉県",
    "city": "市原市",
    "town": "養老"
  },
  "2900558": {
    "zipcode": "2900558",
    "prefectureCode": "12",
    "prefectureNumber": 12,
    "prefecture": "千葉県",
    "city": "市原市",
    "town": "山口"
  },
  "2900559": {
    "zipcode": "2900559",
    "prefectureCode": "12",
    "prefectureNumber": 12,
    "prefecture": "千葉県",
    "city": "市原市",
    "town": "駒込"
  }
}
