{
  "2930000": {
    "zipcode": "2930000",
    "prefectureCode": "12",
    "prefectureNumber": 12,
    "prefecture": "千葉県",
    "city": "富津市",
    "town": "以下に掲載がない場合"
  },
  "2930001": {
    "zipcode": "2930001",
    "prefectureCode": "12",
    "prefectureNumber": 12,
    "prefecture": "千葉県",
    "city": "富津市",
    "town": "大堀"
  },
  "2930002": {
    "zipcode": "2930002",
    "prefectureCode": "12",
    "prefectureNumber": 12,
    "prefecture": "千葉県",
    "city": "富津市",
    "town": "二間塚"
  },
  "2930003": {
    "zipcode": "2930003",
    "prefectureCode": "12",
    "prefectureNumber": 12,
    "prefecture": "千葉県",
    "city": "富津市",
    "town": "本郷"
  },
  "2930004": {
    "zipcode": "2930004",
    "prefectureCode": "12",
    "prefectureNumber": 12,
    "prefecture": "千葉県",
    "city": "富津市",
    "town": "前久保"
  },
  "2930005": {
    "zipcode": "2930005",
    "prefectureCode": "12",
    "prefectureNumber": 12,
    "prefecture": "千葉県",
    "city": "富津市",
    "town": "上飯野"
  },
  "2930006": {
    "zipcode": "2930006",
    "prefectureCode": "12",
    "prefectureNumber": 12,
    "prefecture": "千葉県",
    "city": "富津市",
    "town": "下飯野"
  },
  "2930011": {
    "zipcode": "2930011",
    "prefectureCode": "12",
    "prefectureNumber": 12,
    "prefecture": "千葉県",
    "city": "富津市",
    "town": "新富"
  },
  "2930012": {
    "zipcode": "2930012",
    "prefectureCode": "12",
    "prefectureNumber": 12,
    "prefecture": "千葉県",
    "city": "富津市",
    "town": "青木"
  },
  "2930013": {
    "zipcode": "2930013",
    "prefectureCode": "12",
    "prefectureNumber": 12,
    "prefecture": "千葉県",
    "city": "富津市",
    "town": "西川"
  },
  "2930021": {
    "zipcode": "2930021",
    "prefectureCode": "12",
    "prefectureNumber": 12,
    "prefecture": "千葉県",
    "city": "富津市",
    "town": "富津"
  },
  "2930022": {
    "zipcode": "2930022",
    "prefectureCode": "12",
    "prefectureNumber": 12,
    "prefecture": "千葉県",
    "city": "富津市",
    "town": "新井"
  },
  "2930023": {
    "zipcode": "2930023",
    "prefectureCode": "12",
    "prefectureNumber": 12,
    "prefecture": "千葉県",
    "city": "富津市",
    "town": "川名"
  },
  "2930024": {
    "zipcode": "2930024",
    "prefectureCode": "12",
    "prefectureNumber": 12,
    "prefecture": "千葉県",
    "city": "富津市",
    "town": "篠部"
  },
  "2930031": {
    "zipcode": "2930031",
    "prefectureCode": "12",
    "prefectureNumber": 12,
    "prefecture": "千葉県",
    "city": "富津市",
    "town": "相野谷"
  },
  "2930032": {
    "zipcode": "2930032",
    "prefectureCode": "12",
    "prefectureNumber": 12,
    "prefecture": "千葉県",
    "city": "富津市",
    "town": "障子谷"
  },
  "2930033": {
    "zipcode": "2930033",
    "prefectureCode": "12",
    "prefectureNumber": 12,
    "prefecture": "千葉県",
    "city": "富津市",
    "town": "一色"
  },
  "2930034": {
    "zipcode": "2930034",
    "prefectureCode": "12",
    "prefectureNumber": 12,
    "prefecture": "千葉県",
    "city": "富津市",
    "town": "絹"
  },
  "2930035": {
    "zipcode": "2930035",
    "prefectureCode": "12",
    "prefectureNumber": 12,
    "prefecture": "千葉県",
    "city": "富津市",
    "town": "西大和田"
  },
  "2930036": {
    "zipcode": "2930036",
    "prefectureCode": "12",
    "prefectureNumber": 12,
    "prefecture": "千葉県",
    "city": "富津市",
    "town": "千種新田"
  },
  "2930041": {
    "zipcode": "2930041",
    "prefectureCode": "12",
    "prefectureNumber": 12,
    "prefecture": "千葉県",
    "city": "富津市",
    "town": "上"
  },
  "2930042": {
    "zipcode": "2930042",
    "prefectureCode": "12",
    "prefectureNumber": 12,
    "prefecture": "千葉県",
    "city": "富津市",
    "town": "小久保"
  },
  "2930043": {
    "zipcode": "2930043",
    "prefectureCode": "12",
    "prefectureNumber": 12,
    "prefecture": "千葉県",
    "city": "富津市",
    "town": "岩瀬"
  },
  "2930044": {
    "zipcode": "2930044",
    "prefectureCode": "12",
    "prefectureNumber": 12,
    "prefecture": "千葉県",
    "city": "富津市",
    "town": "中"
  },
  "2930045": {
    "zipcode": "2930045",
    "prefectureCode": "12",
    "prefectureNumber": 12,
    "prefecture": "千葉県",
    "city": "富津市",
    "town": "八田沼"
  },
  "2930046": {
    "zipcode": "2930046",
    "prefectureCode": "12",
    "prefectureNumber": 12,
    "prefecture": "千葉県",
    "city": "富津市",
    "town": "近藤"
  },
  "2930051": {
    "zipcode": "2930051",
    "prefectureCode": "12",
    "prefectureNumber": 12,
    "prefecture": "千葉県",
    "city": "富津市",
    "town": "亀沢"
  },
  "2930052": {
    "zipcode": "2930052",
    "prefectureCode": "12",
    "prefectureNumber": 12,
    "prefecture": "千葉県",
    "city": "富津市",
    "town": "宝竜寺"
  },
  "2930053": {
    "zipcode": "2930053",
    "prefectureCode": "12",
    "prefectureNumber": 12,
    "prefecture": "千葉県",
    "city": "富津市",
    "town": "花香谷"
  },
  "2930054": {
    "zipcode": "2930054",
    "prefectureCode": "12",
    "prefectureNumber": 12,
    "prefecture": "千葉県",
    "city": "富津市",
    "town": "鶴岡"
  },
  "2930055": {
    "zipcode": "2930055",
    "prefectureCode": "12",
    "prefectureNumber": 12,
    "prefecture": "千葉県",
    "city": "富津市",
    "town": "笹毛"
  },
  "2930056": {
    "zipcode": "2930056",
    "prefectureCode": "12",
    "prefectureNumber": 12,
    "prefecture": "千葉県",
    "city": "富津市",
    "town": "八幡"
  },
  "2930057": {
    "zipcode": "2930057",
    "prefectureCode": "12",
    "prefectureNumber": 12,
    "prefecture": "千葉県",
    "city": "富津市",
    "town": "亀田"
  },
  "2930058": {
    "zipcode": "2930058",
    "prefectureCode": "12",
    "prefectureNumber": 12,
    "prefecture": "千葉県",
    "city": "富津市",
    "town": "佐貫"
  }
}
