{
  "2940000": {
    "zipcode": "2940000",
    "prefectureCode": "12",
    "prefectureNumber": 12,
    "prefecture": "千葉県",
    "city": "館山市",
    "town": "以下に掲載がない場合"
  },
  "2940001": {
    "zipcode": "2940001",
    "prefectureCode": "12",
    "prefectureNumber": 12,
    "prefecture": "千葉県",
    "city": "館山市",
    "town": "竹原"
  },
  "2940002": {
    "zipcode": "2940002",
    "prefectureCode": "12",
    "prefectureNumber": 12,
    "prefecture": "千葉県",
    "city": "館山市",
    "town": "大井"
  },
  "2940003": {
    "zipcode": "2940003",
    "prefectureCode": "12",
    "prefectureNumber": 12,
    "prefecture": "千葉県",
    "city": "館山市",
    "town": "水玉"
  },
  "2940004": {
    "zipcode": "2940004",
    "prefectureCode": "12",
    "prefectureNumber": 12,
    "prefecture": "千葉県",
    "city": "館山市",
    "town": "水岡"
  },
  "2940005": {
    "zipcode": "2940005",
    "prefectureCode": "12",
    "prefectureNumber": 12,
    "prefecture": "千葉県",
    "city": "館山市",
    "town": "安東"
  },
  "2940006": {
    "zipcode": "2940006",
    "prefectureCode": "12",
    "prefectureNumber": 12,
    "prefecture": "千葉県",
    "city": "館山市",
    "town": "薗"
  },
  "2940007": {
    "zipcode": "2940007",
    "prefectureCode": "12",
    "prefectureNumber": 12,
    "prefecture": "千葉県",
    "city": "館山市",
    "town": "腰越"
  },
  "2940008": {
    "zipcode": "2940008",
    "prefectureCode": "12",
    "prefectureNumber": 12,
    "prefecture": "千葉県",
    "city": "館山市",
    "town": "広瀬"
  },
  "2940009": {
    "zipcode": "2940009",
    "prefectureCode": "12",
    "prefectureNumber": 12,
    "prefecture": "千葉県",
    "city": "館山市",
    "town": "江田"
  },
  "2940011": {
    "zipcode": "2940011",
    "prefectureCode": "12",
    "prefectureNumber": 12,
    "prefecture": "千葉県",
    "city": "館山市",
    "town": "二子"
  },
  "2940012": {
    "zipcode": "2940012",
    "prefectureCode": "12",
    "prefectureNumber": 12,
    "prefecture": "千葉県",
    "city": "館山市",
    "town": "稲"
  },
  "2940013": {
    "zipcode": "2940013",
    "prefectureCode": "12",
    "prefectureNumber": 12,
    "prefecture": "千葉県",
    "city": "館山市",
    "town": "宝貝"
  },
  "2940014": {
    "zipcode": "2940014",
    "prefectureCode": "12",
    "prefectureNumber": 12,
    "prefecture": "千葉県",
    "city": "館山市",
    "town": "山本"
  },
  "2940015": {
    "zipcode": "2940015",
    "prefectureCode": "12",
    "prefectureNumber": 12,
    "prefecture": "千葉県",
    "city": "館山市",
    "town": "古茂口"
  },
  "2940016": {
    "zipcode": "2940016",
    "prefectureCode": "12",
    "prefectureNumber": 12,
    "prefecture": "千葉県",
    "city": "館山市",
    "town": "飯沼"
  },
  "2940017": {
    "zipcode": "2940017",
    "prefectureCode": "12",
    "prefectureNumber": 12,
    "prefecture": "千葉県",
    "city": "館山市",
    "town": "南条"
  },
  "2940018": {
    "zipcode": "2940018",
    "prefectureCode": "12",
    "prefectureNumber": 12,
    "prefecture": "千葉県",
    "city": "館山市",
    "town": "国分"
  },
  "2940021": {
    "zipcode": "2940021",
    "prefectureCode": "12",
    "prefectureNumber": 12,
    "prefecture": "千葉県",
    "city": "館山市",
    "town": "山荻"
  },
  "2940022": {
    "zipcode": "2940022",
    "prefectureCode": "12",
    "prefectureNumber": 12,
    "prefecture": "千葉県",
    "city": "館山市",
    "town": "畑"
  },
  "2940023": {
    "zipcode": "2940023",
    "prefectureCode": "12",
    "prefectureNumber": 12,
    "prefecture": "千葉県",
    "city": "館山市",
    "town": "神余"
  },
  "2940024": {
    "zipcode": "2940024",
    "prefectureCode": "12",
    "prefectureNumber": 12,
    "prefecture": "千葉県",
    "city": "館山市",
    "town": "岡田"
  },
  "2940025": {
    "zipcode": "2940025",
    "prefectureCode": "12",
    "prefectureNumber": 12,
    "prefecture": "千葉県",
    "city": "館山市",
    "town": "大戸"
  },
  "2940026": {
    "zipcode": "2940026",
    "prefectureCode": "12",
    "prefectureNumber": 12,
    "prefecture": "千葉県",
    "city": "館山市",
    "town": "出野尾"
  },
  "2940027": {
    "zipcode": "2940027",
    "prefectureCode": "12",
    "prefectureNumber": 12,
    "prefecture": "千葉県",
    "city": "館山市",
    "town": "西長田"
  },
  "2940028": {
    "zipcode": "2940028",
    "prefectureCode": "12",
    "prefectureNumber": 12,
    "prefecture": "千葉県",
    "city": "館山市",
    "town": "東長田"
  },
  "2940029": {
    "zipcode": "2940029",
    "prefectureCode": "12",
    "prefectureNumber": 12,
    "prefecture": "千葉県",
    "city": "館山市",
    "town": "作名"
  },
  "2940031": {
    "zipcode": "2940031",
    "prefectureCode": "12",
    "prefectureNumber": 12,
    "prefecture": "千葉県",
    "city": "館山市",
    "town": "大賀"
  },
  "2940032": {
    "zipcode": "2940032",
    "prefectureCode": "12",
    "prefectureNumber": 12,
    "prefecture": "千葉県",
    "city": "館山市",
    "town": "笠名"
  },
  "2940033": {
    "zipcode": "2940033",
    "prefectureCode": "12",
    "prefectureNumber": 12,
    "prefecture": "千葉県",
    "city": "館山市",
    "town": "宮城"
  },
  "2940034": {
    "zipcode": "2940034",
    "prefectureCode": "12",
    "prefectureNumber": 12,
    "prefecture": "千葉県",
    "city": "館山市",
    "town": "沼"
  },
  "2940035": {
    "zipcode": "2940035",
    "prefectureCode": "12",
    "prefectureNumber": 12,
    "prefecture": "千葉県",
    "city": "館山市",
    "town": "富士見"
  },
  "2940036": {
    "zipcode": "2940036",
    "prefectureCode": "12",
    "prefectureNumber": 12,
    "prefecture": "千葉県",
    "city": "館山市",
    "town": "館山"
  },
  "2940037": {
    "zipcode": "2940037",
    "prefectureCode": "12",
    "prefectureNumber": 12,
    "prefecture": "千葉県",
    "city": "館山市",
    "town": "長須賀"
  },
  "2940038": {
    "zipcode": "2940038",
    "prefectureCode": "12",
    "prefectureNumber": 12,
    "prefecture": "千葉県",
    "city": "館山市",
    "town": "上真倉"
  },
  "2940041": {
    "zipcode": "2940041",
    "prefectureCode": "12",
    "prefectureNumber": 12,
    "prefecture": "千葉県",
    "city": "館山市",
    "town": "高井"
  },
  "2940042": {
    "zipcode": "2940042",
    "prefectureCode": "12",
    "prefectureNumber": 12,
    "prefecture": "千葉県",
    "city": "館山市",
    "town": "上野原"
  },
  "2940043": {
    "zipcode": "2940043",
    "prefectureCode": "12",
    "prefectureNumber": 12,
    "prefecture": "千葉県",
    "city": "館山市",
    "town": "安布里"
  },
  "2940044": {
    "zipcode": "2940044",
    "prefectureCode": "12",
    "prefectureNumber": 12,
    "prefecture": "千葉県",
    "city": "館山市",
    "town": "大網"
  },
  "2940045": {
    "zipcode": "2940045",
    "prefectureCode": "12",
    "prefectureNumber": 12,
    "prefecture": "千葉県",
    "city": "館山市",
    "town": "北条"
  },
  "2940046": {
    "zipcode": "2940046",
    "prefectureCode": "12",
    "prefectureNumber": 12,
    "prefecture": "千葉県",
    "city": "館山市",
    "town": "新宿"
  },
  "2940047": {
    "zipcode": "2940047",
    "prefectureCode": "12",
    "prefectureNumber": 12,
    "prefecture": "千葉県",
    "city": "館山市",
    "town": "八幡"
  },
  "2940048": {
    "zipcode": "2940048",
    "prefectureCode": "12",
    "prefectureNumber": 12,
    "prefecture": "千葉県",
    "city": "館山市",
    "town": "下真倉"
  },
  "2940051": {
    "zipcode": "2940051",
    "prefectureCode": "12",
    "prefectureNumber": 12,
    "prefecture": "千葉県",
    "city": "館山市",
    "town": "正木"
  },
  "2940052": {
    "zipcode": "2940052",
    "prefectureCode": "12",
    "prefectureNumber": 12,
    "prefecture": "千葉県",
    "city": "館山市",
    "town": "亀ケ原"
  },
  "2940053": {
    "zipcode": "2940053",
    "prefectureCode": "12",
    "prefectureNumber": 12,
    "prefecture": "千葉県",
    "city": "館山市",
    "town": "北条正木"
  },
  "2940054": {
    "zipcode": "2940054",
    "prefectureCode": "12",
    "prefectureNumber": 12,
    "prefecture": "千葉県",
    "city": "館山市",
    "town": "湊"
  },
  "2940055": {
    "zipcode": "2940055",
    "prefectureCode": "12",
    "prefectureNumber": 12,
    "prefecture": "千葉県",
    "city": "館山市",
    "town": "那古"
  },
  "2940056": {
    "zipcode": "2940056",
    "prefectureCode": "12",
    "prefectureNumber": 12,
    "prefecture": "千葉県",
    "city": "館山市",
    "town": "船形"
  },
  "2940057": {
    "zipcode": "2940057",
    "prefectureCode": "12",
    "prefectureNumber": 12,
    "prefecture": "千葉県",
    "city": "館山市",
    "town": "川名"
  },
  "2940058": {
    "zipcode": "2940058",
    "prefectureCode": "12",
    "prefectureNumber": 12,
    "prefecture": "千葉県",
    "city": "館山市",
    "town": "小原"
  },
  "2940221": {
    "zipcode": "2940221",
    "prefectureCode": "12",
    "prefectureNumber": 12,
    "prefecture": "千葉県",
    "city": "館山市",
    "town": "布沼"
  },
  "2940222": {
    "zipcode": "2940222",
    "prefectureCode": "12",
    "prefectureNumber": 12,
    "prefecture": "千葉県",
    "city": "館山市",
    "town": "茂名"
  },
  "2940223": {
    "zipcode": "2940223",
    "prefectureCode": "12",
    "prefectureNumber": 12,
    "prefecture": "千葉県",
    "city": "館山市",
    "town": "洲宮"
  },
  "2940224": {
    "zipcode": "2940224",
    "prefectureCode": "12",
    "prefectureNumber": 12,
    "prefecture": "千葉県",
    "city": "館山市",
    "town": "藤原"
  },
  "2940225": {
    "zipcode": "2940225",
    "prefectureCode": "12",
    "prefectureNumber": 12,
    "prefecture": "千葉県",
    "city": "館山市",
    "town": "佐野"
  },
  "2940226": {
    "zipcode": "2940226",
    "prefectureCode": "12",
    "prefectureNumber": 12,
    "prefecture": "千葉県",
    "city": "館山市",
    "town": "犬石"
  },
  "2940231": {
    "zipcode": "2940231",
    "prefectureCode": "12",
    "prefectureNumber": 12,
    "prefecture": "千葉県",
    "city": "館山市",
    "town": "中里"
  },
  "2940232": {
    "zipcode": "2940232",
    "prefectureCode": "12",
    "prefectureNumber": 12,
    "prefecture": "千葉県",
    "city": "館山市",
    "town": "竜岡"
  },
  "2940233": {
    "zipcode": "2940233",
    "prefectureCode": "12",
    "prefectureNumber": 12,
    "prefecture": "千葉県",
    "city": "館山市",
    "town": "大神宮"
  },
  "2940234": {
    "zipcode": "2940234",
    "prefectureCode": "12",
    "prefectureNumber": 12,
    "prefecture": "千葉県",
    "city": "館山市",
    "town": "布良"
  },
  "2940235": {
    "zipcode": "2940235",
    "prefectureCode": "12",
    "prefectureNumber": 12,
    "prefecture": "千葉県",
    "city": "館山市",
    "town": "相浜"
  },
  "2940301": {
    "zipcode": "2940301",
    "prefectureCode": "12",
    "prefectureNumber": 12,
    "prefecture": "千葉県",
    "city": "館山市",
    "town": "香"
  },
  "2940302": {
    "zipcode": "2940302",
    "prefectureCode": "12",
    "prefectureNumber": 12,
    "prefecture": "千葉県",
    "city": "館山市",
    "town": "塩見"
  },
  "2940303": {
    "zipcode": "2940303",
    "prefectureCode": "12",
    "prefectureNumber": 12,
    "prefecture": "千葉県",
    "city": "館山市",
    "town": "浜田"
  },
  "2940304": {
    "zipcode": "2940304",
    "prefectureCode": "12",
    "prefectureNumber": 12,
    "prefecture": "千葉県",
    "city": "館山市",
    "town": "早物"
  },
  "2940305": {
    "zipcode": "2940305",
    "prefectureCode": "12",
    "prefectureNumber": 12,
    "prefecture": "千葉県",
    "city": "館山市",
    "town": "見物"
  },
  "2940306": {
    "zipcode": "2940306",
    "prefectureCode": "12",
    "prefectureNumber": 12,
    "prefecture": "千葉県",
    "city": "館山市",
    "town": "加賀名"
  },
  "2940307": {
    "zipcode": "2940307",
    "prefectureCode": "12",
    "prefectureNumber": 12,
    "prefecture": "千葉県",
    "city": "館山市",
    "town": "波左間"
  },
  "2940308": {
    "zipcode": "2940308",
    "prefectureCode": "12",
    "prefectureNumber": 12,
    "prefecture": "千葉県",
    "city": "館山市",
    "town": "坂田"
  },
  "2940311": {
    "zipcode": "2940311",
    "prefectureCode": "12",
    "prefectureNumber": 12,
    "prefecture": "千葉県",
    "city": "館山市",
    "town": "坂井"
  },
  "2940312": {
    "zipcode": "2940312",
    "prefectureCode": "12",
    "prefectureNumber": 12,
    "prefecture": "千葉県",
    "city": "館山市",
    "town": "小沼"
  },
  "2940313": {
    "zipcode": "2940313",
    "prefectureCode": "12",
    "prefectureNumber": 12,
    "prefecture": "千葉県",
    "city": "館山市",
    "town": "坂足"
  },
  "2940314": {
    "zipcode": "2940314",
    "prefectureCode": "12",
    "prefectureNumber": 12,
    "prefecture": "千葉県",
    "city": "館山市",
    "town": "伊戸"
  },
  "2940315": {
    "zipcode": "2940315",
    "prefectureCode": "12",
    "prefectureNumber": 12,
    "prefecture": "千葉県",
    "city": "館山市",
    "town": "西川名"
  },
  "2940316": {
    "zipcode": "2940316",
    "prefectureCode": "12",
    "prefectureNumber": 12,
    "prefecture": "千葉県",
    "city": "館山市",
    "town": "洲崎"
  },
  "2940801": {
    "zipcode": "2940801",
    "prefectureCode": "12",
    "prefectureNumber": 12,
    "prefecture": "千葉県",
    "city": "南房総市",
    "town": "増間"
  },
  "2940802": {
    "zipcode": "2940802",
    "prefectureCode": "12",
    "prefectureNumber": 12,
    "prefecture": "千葉県",
    "city": "南房総市",
    "town": "山名"
  },
  "2940803": {
    "zipcode": "2940803",
    "prefectureCode": "12",
    "prefectureNumber": 12,
    "prefecture": "千葉県",
    "city": "南房総市",
    "town": "御庄"
  },
  "2940804": {
    "zipcode": "2940804",
    "prefectureCode": "12",
    "prefectureNumber": 12,
    "prefecture": "千葉県",
    "city": "南房総市",
    "town": "海老敷"
  },
  "2940805": {
    "zipcode": "2940805",
    "prefectureCode": "12",
    "prefectureNumber": 12,
    "prefecture": "千葉県",
    "city": "南房総市",
    "town": "下滝田"
  },
  "2940806": {
    "zipcode": "2940806",
    "prefectureCode": "12",
    "prefectureNumber": 12,
    "prefecture": "千葉県",
    "city": "南房総市",
    "town": "上滝田"
  },
  "2940811": {
    "zipcode": "2940811",
    "prefectureCode": "12",
    "prefectureNumber": 12,
    "prefecture": "千葉県",
    "city": "南房総市",
    "town": "中"
  },
  "2940812": {
    "zipcode": "2940812",
    "prefectureCode": "12",
    "prefectureNumber": 12,
    "prefecture": "千葉県",
    "city": "南房総市",
    "town": "池之内"
  },
  "2940813": {
    "zipcode": "2940813",
    "prefectureCode": "12",
    "prefectureNumber": 12,
    "prefecture": "千葉県",
    "city": "南房総市",
    "town": "谷向"
  },
  "2940814": {
    "zipcode": "2940814",
    "prefectureCode": "12",
    "prefectureNumber": 12,
    "prefecture": "千葉県",
    "city": "南房総市",
    "town": "川田"
  },
  "2940815": {
    "zipcode": "2940815",
    "prefectureCode": "12",
    "prefectureNumber": 12,
    "prefecture": "千葉県",
    "city": "南房総市",
    "town": "千代"
  },
  "2940816": {
    "zipcode": "2940816",
    "prefectureCode": "12",
    "prefectureNumber": 12,
    "prefecture": "千葉県",
    "city": "南房総市",
    "town": "山下"
  },
  "2940817": {
    "zipcode": "2940817",
    "prefectureCode": "12",
    "prefectureNumber": 12,
    "prefecture": "千葉県",
    "city": "南房総市",
    "town": "大学口"
  },
  "2940821": {
    "zipcode": "2940821",
    "prefectureCode": "12",
    "prefectureNumber": 12,
    "prefecture": "千葉県",
    "city": "南房総市",
    "town": "明石"
  },
  "2940822": {
    "zipcode": "2940822",
    "prefectureCode": "12",
    "prefectureNumber": 12,
    "prefecture": "千葉県",
    "city": "南房総市",
    "town": "本織"
  },
  "2940823": {
    "zipcode": "2940823",
    "prefectureCode": "12",
    "prefectureNumber": 12,
    "prefecture": "千葉県",
    "city": "南房総市",
    "town": "府中"
  },
  "2940824": {
    "zipcode": "2940824",
    "prefectureCode": "12",
    "prefectureNumber": 12,
    "prefecture": "千葉県",
    "city": "南房総市",
    "town": "下堀"
  },
  "2940825": {
    "zipcode": "2940825",
    "prefectureCode": "12",
    "prefectureNumber": 12,
    "prefecture": "千葉県",
    "city": "南房総市",
    "town": "上堀"
  },
  "2940826": {
    "zipcode": "2940826",
    "prefectureCode": "12",
    "prefectureNumber": 12,
    "prefecture": "千葉県",
    "city": "南房総市",
    "town": "三坂"
  }
}
