{
  "2950001": {
    "zipcode": "2950001",
    "prefectureCode": "12",
    "prefectureNumber": 12,
    "prefecture": "千葉県",
    "city": "南房総市",
    "town": "千倉町久保"
  },
  "2950002": {
    "zipcode": "2950002",
    "prefectureCode": "12",
    "prefectureNumber": 12,
    "prefecture": "千葉県",
    "city": "南房総市",
    "town": "千倉町川合"
  },
  "2950003": {
    "zipcode": "2950003",
    "prefectureCode": "12",
    "prefectureNumber": 12,
    "prefecture": "千葉県",
    "city": "南房総市",
    "town": "千倉町白子"
  },
  "2950004": {
    "zipcode": "2950004",
    "prefectureCode": "12",
    "prefectureNumber": 12,
    "prefecture": "千葉県",
    "city": "南房総市",
    "town": "千倉町瀬戸"
  },
  "2950005": {
    "zipcode": "2950005",
    "prefectureCode": "12",
    "prefectureNumber": 12,
    "prefecture": "千葉県",
    "city": "南房総市",
    "town": "千倉町牧田"
  },
  "2950006": {
    "zipcode": "2950006",
    "prefectureCode": "12",
    "prefectureNumber": 12,
    "prefecture": "千葉県",
    "city": "南房総市",
    "town": "千倉町宇田"
  },
  "2950011": {
    "zipcode": "2950011",
    "prefectureCode": "12",
    "prefectureNumber": 12,
    "prefecture": "千葉県",
    "city": "南房総市",
    "town": "千倉町北朝夷"
  },
  "2950012": {
    "zipcode": "2950012",
    "prefectureCode": "12",
    "prefectureNumber": 12,
    "prefecture": "千葉県",
    "city": "南房総市",
    "town": "千倉町南朝夷"
  },
  "2950013": {
    "zipcode": "2950013",
    "prefectureCode": "12",
    "prefectureNumber": 12,
    "prefecture": "千葉県",
    "city": "南房総市",
    "town": "千倉町大貫"
  },
  "2950014": {
    "zipcode": "2950014",
    "prefectureCode": "12",
    "prefectureNumber": 12,
    "prefecture": "千葉県",
    "city": "南房総市",
    "town": "千倉町川戸"
  },
  "2950021": {
    "zipcode": "2950021",
    "prefectureCode": "12",
    "prefectureNumber": 12,
    "prefecture": "千葉県",
    "city": "南房総市",
    "town": "千倉町平舘"
  },
  "2950022": {
    "zipcode": "2950022",
    "prefectureCode": "12",
    "prefectureNumber": 12,
    "prefecture": "千葉県",
    "city": "南房総市",
    "town": "千倉町忽戸"
  },
  "2950023": {
    "zipcode": "2950023",
    "prefectureCode": "12",
    "prefectureNumber": 12,
    "prefecture": "千葉県",
    "city": "南房総市",
    "town": "千倉町川口"
  },
  "2950024": {
    "zipcode": "2950024",
    "prefectureCode": "12",
    "prefectureNumber": 12,
    "prefecture": "千葉県",
    "city": "南房総市",
    "town": "千倉町平磯"
  },
  "2950025": {
    "zipcode": "2950025",
    "prefectureCode": "12",
    "prefectureNumber": 12,
    "prefecture": "千葉県",
    "city": "南房総市",
    "town": "千倉町千田"
  },
  "2950026": {
    "zipcode": "2950026",
    "prefectureCode": "12",
    "prefectureNumber": 12,
    "prefecture": "千葉県",
    "city": "南房総市",
    "town": "千倉町大川"
  },
  "2950027": {
    "zipcode": "2950027",
    "prefectureCode": "12",
    "prefectureNumber": 12,
    "prefecture": "千葉県",
    "city": "南房総市",
    "town": "千倉町白間津"
  },
  "2950101": {
    "zipcode": "2950101",
    "prefectureCode": "12",
    "prefectureNumber": 12,
    "prefecture": "千葉県",
    "city": "南房総市",
    "town": "白浜町乙浜"
  },
  "2950102": {
    "zipcode": "2950102",
    "prefectureCode": "12",
    "prefectureNumber": 12,
    "prefecture": "千葉県",
    "city": "南房総市",
    "town": "白浜町白浜"
  },
  "2950103": {
    "zipcode": "2950103",
    "prefectureCode": "12",
    "prefectureNumber": 12,
    "prefecture": "千葉県",
    "city": "南房総市",
    "town": "白浜町滝口"
  },
  "2950104": {
    "zipcode": "2950104",
    "prefectureCode": "12",
    "prefectureNumber": 12,
    "prefecture": "千葉県",
    "city": "南房総市",
    "town": "白浜町根本"
  }
}
