{
  "2970000": {
    "zipcode": "2970000",
    "prefectureCode": "12",
    "prefectureNumber": 12,
    "prefecture": "千葉県",
    "city": "茂原市",
    "town": "以下に掲載がない場合"
  },
  "2970001": {
    "zipcode": "2970001",
    "prefectureCode": "12",
    "prefectureNumber": 12,
    "prefecture": "千葉県",
    "city": "茂原市",
    "town": "七渡"
  },
  "2970002": {
    "zipcode": "2970002",
    "prefectureCode": "12",
    "prefectureNumber": 12,
    "prefecture": "千葉県",
    "city": "茂原市",
    "town": "千町"
  },
  "2970003": {
    "zipcode": "2970003",
    "prefectureCode": "12",
    "prefectureNumber": 12,
    "prefecture": "千葉県",
    "city": "茂原市",
    "town": "北高根飛地"
  },
  "2970004": {
    "zipcode": "2970004",
    "prefectureCode": "12",
    "prefectureNumber": 12,
    "prefecture": "千葉県",
    "city": "茂原市",
    "town": "小轡"
  },
  "2970005": {
    "zipcode": "2970005",
    "prefectureCode": "12",
    "prefectureNumber": 12,
    "prefecture": "千葉県",
    "city": "茂原市",
    "town": "本小轡"
  },
  "2970006": {
    "zipcode": "2970006",
    "prefectureCode": "12",
    "prefectureNumber": 12,
    "prefecture": "千葉県",
    "city": "茂原市",
    "town": "新小轡"
  },
  "2970007": {
    "zipcode": "2970007",
    "prefectureCode": "12",
    "prefectureNumber": 12,
    "prefecture": "千葉県",
    "city": "茂原市",
    "town": "腰当"
  },
  "2970008": {
    "zipcode": "2970008",
    "prefectureCode": "12",
    "prefectureNumber": 12,
    "prefecture": "千葉県",
    "city": "茂原市",
    "town": "渋谷"
  },
  "2970009": {
    "zipcode": "2970009",
    "prefectureCode": "12",
    "prefectureNumber": 12,
    "prefecture": "千葉県",
    "city": "茂原市",
    "town": "北塚"
  },
  "2970011": {
    "zipcode": "2970011",
    "prefectureCode": "12",
    "prefectureNumber": 12,
    "prefecture": "千葉県",
    "city": "茂原市",
    "town": "谷本"
  },
  "2970012": {
    "zipcode": "2970012",
    "prefectureCode": "12",
    "prefectureNumber": 12,
    "prefecture": "千葉県",
    "city": "茂原市",
    "town": "六ツ野"
  },
  "2970013": {
    "zipcode": "2970013",
    "prefectureCode": "12",
    "prefectureNumber": 12,
    "prefecture": "千葉県",
    "city": "茂原市",
    "town": "中之郷飛地"
  },
  "2970014": {
    "zipcode": "2970014",
    "prefectureCode": "12",
    "prefectureNumber": 12,
    "prefecture": "千葉県",
    "city": "茂原市",
    "town": "川島飛地"
  },
  "2970015": {
    "zipcode": "2970015",
    "prefectureCode": "12",
    "prefectureNumber": 12,
    "prefecture": "千葉県",
    "city": "茂原市",
    "town": "東部台"
  },
  "2970016": {
    "zipcode": "2970016",
    "prefectureCode": "12",
    "prefectureNumber": 12,
    "prefecture": "千葉県",
    "city": "茂原市",
    "town": "木崎"
  },
  "2970017": {
    "zipcode": "2970017",
    "prefectureCode": "12",
    "prefectureNumber": 12,
    "prefecture": "千葉県",
    "city": "茂原市",
    "town": "東郷"
  },
  "2970018": {
    "zipcode": "2970018",
    "prefectureCode": "12",
    "prefectureNumber": 12,
    "prefecture": "千葉県",
    "city": "茂原市",
    "town": "萩原町"
  },
  "2970019": {
    "zipcode": "2970019",
    "prefectureCode": "12",
    "prefectureNumber": 12,
    "prefecture": "千葉県",
    "city": "茂原市",
    "town": "上林"
  },
  "2970021": {
    "zipcode": "2970021",
    "prefectureCode": "12",
    "prefectureNumber": 12,
    "prefecture": "千葉県",
    "city": "茂原市",
    "town": "高師町"
  },
  "2970022": {
    "zipcode": "2970022",
    "prefectureCode": "12",
    "prefectureNumber": 12,
    "prefecture": "千葉県",
    "city": "茂原市",
    "town": "町保"
  },
  "2970023": {
    "zipcode": "2970023",
    "prefectureCode": "12",
    "prefectureNumber": 12,
    "prefecture": "千葉県",
    "city": "茂原市",
    "town": "千代田町"
  },
  "2970024": {
    "zipcode": "2970024",
    "prefectureCode": "12",
    "prefectureNumber": 12,
    "prefecture": "千葉県",
    "city": "茂原市",
    "town": "八千代"
  },
  "2970025": {
    "zipcode": "2970025",
    "prefectureCode": "12",
    "prefectureNumber": 12,
    "prefecture": "千葉県",
    "city": "茂原市",
    "town": "緑町"
  },
  "2970026": {
    "zipcode": "2970026",
    "prefectureCode": "12",
    "prefectureNumber": 12,
    "prefecture": "千葉県",
    "city": "茂原市",
    "town": "茂原"
  },
  "2970027": {
    "zipcode": "2970027",
    "prefectureCode": "12",
    "prefectureNumber": 12,
    "prefecture": "千葉県",
    "city": "茂原市",
    "town": "中部"
  },
  "2970028": {
    "zipcode": "2970028",
    "prefectureCode": "12",
    "prefectureNumber": 12,
    "prefecture": "千葉県",
    "city": "茂原市",
    "town": "道表"
  },
  "2970029": {
    "zipcode": "2970029",
    "prefectureCode": "12",
    "prefectureNumber": 12,
    "prefecture": "千葉県",
    "city": "茂原市",
    "town": "高師"
  },
  "2970031": {
    "zipcode": "2970031",
    "prefectureCode": "12",
    "prefectureNumber": 12,
    "prefecture": "千葉県",
    "city": "茂原市",
    "town": "早野新田"
  },
  "2970032": {
    "zipcode": "2970032",
    "prefectureCode": "12",
    "prefectureNumber": 12,
    "prefecture": "千葉県",
    "city": "茂原市",
    "town": "東茂原"
  },
  "2970033": {
    "zipcode": "2970033",
    "prefectureCode": "12",
    "prefectureNumber": 12,
    "prefecture": "千葉県",
    "city": "茂原市",
    "town": "大芝"
  },
  "2970034": {
    "zipcode": "2970034",
    "prefectureCode": "12",
    "prefectureNumber": 12,
    "prefecture": "千葉県",
    "city": "茂原市",
    "town": "中の島町"
  },
  "2970035": {
    "zipcode": "2970035",
    "prefectureCode": "12",
    "prefectureNumber": 12,
    "prefecture": "千葉県",
    "city": "茂原市",
    "town": "下永吉"
  },
  "2970036": {
    "zipcode": "2970036",
    "prefectureCode": "12",
    "prefectureNumber": 12,
    "prefecture": "千葉県",
    "city": "茂原市",
    "town": "上永吉"
  },
  "2970037": {
    "zipcode": "2970037",
    "prefectureCode": "12",
    "prefectureNumber": 12,
    "prefecture": "千葉県",
    "city": "茂原市",
    "town": "早野"
  },
  "2970038": {
    "zipcode": "2970038",
    "prefectureCode": "12",
    "prefectureNumber": 12,
    "prefecture": "千葉県",
    "city": "茂原市",
    "town": "長清水"
  },
  "2970039": {
    "zipcode": "2970039",
    "prefectureCode": "12",
    "prefectureNumber": 12,
    "prefecture": "千葉県",
    "city": "茂原市",
    "town": "茂原西"
  },
  "2970041": {
    "zipcode": "2970041",
    "prefectureCode": "12",
    "prefectureNumber": 12,
    "prefecture": "千葉県",
    "city": "茂原市",
    "town": "猿袋"
  },
  "2970042": {
    "zipcode": "2970042",
    "prefectureCode": "12",
    "prefectureNumber": 12,
    "prefecture": "千葉県",
    "city": "茂原市",
    "town": "三ケ谷"
  },
  "2970043": {
    "zipcode": "2970043",
    "prefectureCode": "12",
    "prefectureNumber": 12,
    "prefecture": "千葉県",
    "city": "茂原市",
    "town": "立木"
  },
  "2970044": {
    "zipcode": "2970044",
    "prefectureCode": "12",
    "prefectureNumber": 12,
    "prefecture": "千葉県",
    "city": "茂原市",
    "town": "台田"
  },
  "2970045": {
    "zipcode": "2970045",
    "prefectureCode": "12",
    "prefectureNumber": 12,
    "prefecture": "千葉県",
    "city": "茂原市",
    "town": "野牛"
  },
  "2970051": {
    "zipcode": "2970051",
    "prefectureCode": "12",
    "prefectureNumber": 12,
    "prefecture": "千葉県",
    "city": "茂原市",
    "town": "鷲巣"
  },
  "2970052": {
    "zipcode": "2970052",
    "prefectureCode": "12",
    "prefectureNumber": 12,
    "prefecture": "千葉県",
    "city": "茂原市",
    "town": "上茂原"
  },
  "2970053": {
    "zipcode": "2970053",
    "prefectureCode": "12",
    "prefectureNumber": 12,
    "prefecture": "千葉県",
    "city": "茂原市",
    "town": "墨田"
  },
  "2970054": {
    "zipcode": "2970054",
    "prefectureCode": "12",
    "prefectureNumber": 12,
    "prefecture": "千葉県",
    "city": "茂原市",
    "town": "八幡原"
  },
  "2970055": {
    "zipcode": "2970055",
    "prefectureCode": "12",
    "prefectureNumber": 12,
    "prefecture": "千葉県",
    "city": "茂原市",
    "town": "綱島"
  },
  "2970056": {
    "zipcode": "2970056",
    "prefectureCode": "12",
    "prefectureNumber": 12,
    "prefecture": "千葉県",
    "city": "茂原市",
    "town": "六田台"
  },
  "2970057": {
    "zipcode": "2970057",
    "prefectureCode": "12",
    "prefectureNumber": 12,
    "prefecture": "千葉県",
    "city": "茂原市",
    "town": "中善寺"
  },
  "2970058": {
    "zipcode": "2970058",
    "prefectureCode": "12",
    "prefectureNumber": 12,
    "prefecture": "千葉県",
    "city": "茂原市",
    "town": "石神"
  },
  "2970061": {
    "zipcode": "2970061",
    "prefectureCode": "12",
    "prefectureNumber": 12,
    "prefecture": "千葉県",
    "city": "茂原市",
    "town": "山崎"
  },
  "2970062": {
    "zipcode": "2970062",
    "prefectureCode": "12",
    "prefectureNumber": 12,
    "prefecture": "千葉県",
    "city": "茂原市",
    "town": "内長谷"
  },
  "2970063": {
    "zipcode": "2970063",
    "prefectureCode": "12",
    "prefectureNumber": 12,
    "prefecture": "千葉県",
    "city": "茂原市",
    "town": "長谷"
  },
  "2970064": {
    "zipcode": "2970064",
    "prefectureCode": "12",
    "prefectureNumber": 12,
    "prefecture": "千葉県",
    "city": "茂原市",
    "town": "箕輪"
  },
  "2970065": {
    "zipcode": "2970065",
    "prefectureCode": "12",
    "prefectureNumber": 12,
    "prefecture": "千葉県",
    "city": "茂原市",
    "town": "緑ケ丘"
  },
  "2970066": {
    "zipcode": "2970066",
    "prefectureCode": "12",
    "prefectureNumber": 12,
    "prefecture": "千葉県",
    "city": "茂原市",
    "town": "芦網"
  },
  "2970067": {
    "zipcode": "2970067",
    "prefectureCode": "12",
    "prefectureNumber": 12,
    "prefecture": "千葉県",
    "city": "茂原市",
    "town": "国府関"
  },
  "2970071": {
    "zipcode": "2970071",
    "prefectureCode": "12",
    "prefectureNumber": 12,
    "prefecture": "千葉県",
    "city": "茂原市",
    "town": "黒戸"
  },
  "2970072": {
    "zipcode": "2970072",
    "prefectureCode": "12",
    "prefectureNumber": 12,
    "prefecture": "千葉県",
    "city": "茂原市",
    "town": "大登"
  },
  "2970073": {
    "zipcode": "2970073",
    "prefectureCode": "12",
    "prefectureNumber": 12,
    "prefecture": "千葉県",
    "city": "茂原市",
    "town": "長尾"
  },
  "2970074": {
    "zipcode": "2970074",
    "prefectureCode": "12",
    "prefectureNumber": 12,
    "prefecture": "千葉県",
    "city": "茂原市",
    "town": "小林"
  },
  "2970075": {
    "zipcode": "2970075",
    "prefectureCode": "12",
    "prefectureNumber": 12,
    "prefecture": "千葉県",
    "city": "茂原市",
    "town": "押日"
  },
  "2970076": {
    "zipcode": "2970076",
    "prefectureCode": "12",
    "prefectureNumber": 12,
    "prefecture": "千葉県",
    "city": "茂原市",
    "town": "庄吉"
  },
  "2970077": {
    "zipcode": "2970077",
    "prefectureCode": "12",
    "prefectureNumber": 12,
    "prefecture": "千葉県",
    "city": "茂原市",
    "town": "真名"
  },
  "2970078": {
    "zipcode": "2970078",
    "prefectureCode": "12",
    "prefectureNumber": 12,
    "prefecture": "千葉県",
    "city": "茂原市",
    "town": "高師台"
  },
  "2970079": {
    "zipcode": "2970079",
    "prefectureCode": "12",
    "prefectureNumber": 12,
    "prefecture": "千葉県",
    "city": "茂原市",
    "town": "ゆたか"
  },
  "2970100": {
    "zipcode": "2970100",
    "prefectureCode": "12",
    "prefectureNumber": 12,
    "prefecture": "千葉県",
    "city": "長生郡長南町",
    "town": "以下に掲載がない場合"
  },
  "2970101": {
    "zipcode": "2970101",
    "prefectureCode": "12",
    "prefectureNumber": 12,
    "prefecture": "千葉県",
    "city": "長生郡長南町",
    "town": "岩川"
  },
  "2970102": {
    "zipcode": "2970102",
    "prefectureCode": "12",
    "prefectureNumber": 12,
    "prefecture": "千葉県",
    "city": "長生郡長南町",
    "town": "本台"
  },
  "2970103": {
    "zipcode": "2970103",
    "prefectureCode": "12",
    "prefectureNumber": 12,
    "prefecture": "千葉県",
    "city": "長生郡長南町",
    "town": "今泉"
  },
  "2970104": {
    "zipcode": "2970104",
    "prefectureCode": "12",
    "prefectureNumber": 12,
    "prefecture": "千葉県",
    "city": "長生郡長南町",
    "town": "又富"
  },
  "2970105": {
    "zipcode": "2970105",
    "prefectureCode": "12",
    "prefectureNumber": 12,
    "prefecture": "千葉県",
    "city": "長生郡長南町",
    "town": "棚毛"
  },
  "2970111": {
    "zipcode": "2970111",
    "prefectureCode": "12",
    "prefectureNumber": 12,
    "prefecture": "千葉県",
    "city": "長生郡長南町",
    "town": "須田"
  },
  "2970112": {
    "zipcode": "2970112",
    "prefectureCode": "12",
    "prefectureNumber": 12,
    "prefecture": "千葉県",
    "city": "長生郡長南町",
    "town": "米満"
  },
  "2970113": {
    "zipcode": "2970113",
    "prefectureCode": "12",
    "prefectureNumber": 12,
    "prefecture": "千葉県",
    "city": "長生郡長南町",
    "town": "関原"
  },
  "2970114": {
    "zipcode": "2970114",
    "prefectureCode": "12",
    "prefectureNumber": 12,
    "prefecture": "千葉県",
    "city": "長生郡長南町",
    "town": "千手堂"
  },
  "2970115": {
    "zipcode": "2970115",
    "prefectureCode": "12",
    "prefectureNumber": 12,
    "prefecture": "千葉県",
    "city": "長生郡長南町",
    "town": "千田"
  },
  "2970121": {
    "zipcode": "2970121",
    "prefectureCode": "12",
    "prefectureNumber": 12,
    "prefecture": "千葉県",
    "city": "長生郡長南町",
    "town": "長南"
  },
  "2970122": {
    "zipcode": "2970122",
    "prefectureCode": "12",
    "prefectureNumber": 12,
    "prefecture": "千葉県",
    "city": "長生郡長南町",
    "town": "坂本"
  },
  "2970123": {
    "zipcode": "2970123",
    "prefectureCode": "12",
    "prefectureNumber": 12,
    "prefecture": "千葉県",
    "city": "長生郡長南町",
    "town": "蔵持"
  },
  "2970124": {
    "zipcode": "2970124",
    "prefectureCode": "12",
    "prefectureNumber": 12,
    "prefecture": "千葉県",
    "city": "長生郡長南町",
    "town": "深沢"
  },
  "2970125": {
    "zipcode": "2970125",
    "prefectureCode": "12",
    "prefectureNumber": 12,
    "prefecture": "千葉県",
    "city": "長生郡長南町",
    "town": "笠森"
  },
  "2970131": {
    "zipcode": "2970131",
    "prefectureCode": "12",
    "prefectureNumber": 12,
    "prefecture": "千葉県",
    "city": "長生郡長南町",
    "town": "中原"
  },
  "2970132": {
    "zipcode": "2970132",
    "prefectureCode": "12",
    "prefectureNumber": 12,
    "prefecture": "千葉県",
    "city": "長生郡長南町",
    "town": "給田"
  },
  "2970133": {
    "zipcode": "2970133",
    "prefectureCode": "12",
    "prefectureNumber": 12,
    "prefecture": "千葉県",
    "city": "長生郡長南町",
    "town": "豊原"
  },
  "2970134": {
    "zipcode": "2970134",
    "prefectureCode": "12",
    "prefectureNumber": 12,
    "prefecture": "千葉県",
    "city": "長生郡長南町",
    "town": "芝原"
  },
  "2970135": {
    "zipcode": "2970135",
    "prefectureCode": "12",
    "prefectureNumber": 12,
    "prefecture": "千葉県",
    "city": "長生郡長南町",
    "town": "地引"
  },
  "2970136": {
    "zipcode": "2970136",
    "prefectureCode": "12",
    "prefectureNumber": 12,
    "prefecture": "千葉県",
    "city": "長生郡長南町",
    "town": "小生田"
  },
  "2970137": {
    "zipcode": "2970137",
    "prefectureCode": "12",
    "prefectureNumber": 12,
    "prefecture": "千葉県",
    "city": "長生郡長南町",
    "town": "上小野田"
  },
  "2970138": {
    "zipcode": "2970138",
    "prefectureCode": "12",
    "prefectureNumber": 12,
    "prefecture": "千葉県",
    "city": "長生郡長南町",
    "town": "下小野田"
  },
  "2970141": {
    "zipcode": "2970141",
    "prefectureCode": "12",
    "prefectureNumber": 12,
    "prefecture": "千葉県",
    "city": "長生郡長南町",
    "town": "報恩寺"
  },
  "2970142": {
    "zipcode": "2970142",
    "prefectureCode": "12",
    "prefectureNumber": 12,
    "prefecture": "千葉県",
    "city": "長生郡長南町",
    "town": "小沢"
  },
  "2970143": {
    "zipcode": "2970143",
    "prefectureCode": "12",
    "prefectureNumber": 12,
    "prefecture": "千葉県",
    "city": "長生郡長南町",
    "town": "美原台"
  },
  "2970144": {
    "zipcode": "2970144",
    "prefectureCode": "12",
    "prefectureNumber": 12,
    "prefecture": "千葉県",
    "city": "長生郡長南町",
    "town": "市野々"
  },
  "2970145": {
    "zipcode": "2970145",
    "prefectureCode": "12",
    "prefectureNumber": 12,
    "prefecture": "千葉県",
    "city": "長生郡長南町",
    "town": "佐坪"
  },
  "2970151": {
    "zipcode": "2970151",
    "prefectureCode": "12",
    "prefectureNumber": 12,
    "prefecture": "千葉県",
    "city": "長生郡長南町",
    "town": "茗荷沢"
  },
  "2970152": {
    "zipcode": "2970152",
    "prefectureCode": "12",
    "prefectureNumber": 12,
    "prefecture": "千葉県",
    "city": "長生郡長南町",
    "town": "水沼"
  },
  "2970153": {
    "zipcode": "2970153",
    "prefectureCode": "12",
    "prefectureNumber": 12,
    "prefecture": "千葉県",
    "city": "長生郡長南町",
    "town": "山内"
  },
  "2970154": {
    "zipcode": "2970154",
    "prefectureCode": "12",
    "prefectureNumber": 12,
    "prefecture": "千葉県",
    "city": "長生郡長南町",
    "town": "岩撫"
  },
  "2970155": {
    "zipcode": "2970155",
    "prefectureCode": "12",
    "prefectureNumber": 12,
    "prefecture": "千葉県",
    "city": "長生郡長南町",
    "town": "竹林"
  },
  "2970200": {
    "zipcode": "2970200",
    "prefectureCode": "12",
    "prefectureNumber": 12,
    "prefecture": "千葉県",
    "city": "長生郡長柄町",
    "town": "以下に掲載がない場合"
  },
  "2970201": {
    "zipcode": "2970201",
    "prefectureCode": "12",
    "prefectureNumber": 12,
    "prefecture": "千葉県",
    "city": "長生郡長柄町",
    "town": "上野"
  },
  "2970202": {
    "zipcode": "2970202",
    "prefectureCode": "12",
    "prefectureNumber": 12,
    "prefecture": "千葉県",
    "city": "長生郡長柄町",
    "town": "味庄"
  },
  "2970203": {
    "zipcode": "2970203",
    "prefectureCode": "12",
    "prefectureNumber": 12,
    "prefecture": "千葉県",
    "city": "長生郡長柄町",
    "town": "国府里"
  },
  "2970204": {
    "zipcode": "2970204",
    "prefectureCode": "12",
    "prefectureNumber": 12,
    "prefecture": "千葉県",
    "city": "長生郡長柄町",
    "town": "力丸"
  },
  "2970205": {
    "zipcode": "2970205",
    "prefectureCode": "12",
    "prefectureNumber": 12,
    "prefecture": "千葉県",
    "city": "長生郡長柄町",
    "town": "千代丸"
  },
  "2970206": {
    "zipcode": "2970206",
    "prefectureCode": "12",
    "prefectureNumber": 12,
    "prefecture": "千葉県",
    "city": "長生郡長柄町",
    "town": "山根"
  },
  "2970207": {
    "zipcode": "2970207",
    "prefectureCode": "12",
    "prefectureNumber": 12,
    "prefecture": "千葉県",
    "city": "長生郡長柄町",
    "town": "船木"
  },
  "2970211": {
    "zipcode": "2970211",
    "prefectureCode": "12",
    "prefectureNumber": 12,
    "prefecture": "千葉県",
    "city": "長生郡長柄町",
    "town": "榎本"
  },
  "2970212": {
    "zipcode": "2970212",
    "prefectureCode": "12",
    "prefectureNumber": 12,
    "prefecture": "千葉県",
    "city": "長生郡長柄町",
    "town": "小榎本"
  },
  "2970213": {
    "zipcode": "2970213",
    "prefectureCode": "12",
    "prefectureNumber": 12,
    "prefecture": "千葉県",
    "city": "長生郡長柄町",
    "town": "徳増"
  },
  "2970214": {
    "zipcode": "2970214",
    "prefectureCode": "12",
    "prefectureNumber": 12,
    "prefecture": "千葉県",
    "city": "長生郡長柄町",
    "town": "長富"
  },
  "2970215": {
    "zipcode": "2970215",
    "prefectureCode": "12",
    "prefectureNumber": 12,
    "prefecture": "千葉県",
    "city": "長生郡長柄町",
    "town": "鴇谷"
  },
  "2970216": {
    "zipcode": "2970216",
    "prefectureCode": "12",
    "prefectureNumber": 12,
    "prefecture": "千葉県",
    "city": "長生郡長柄町",
    "town": "立鳥"
  },
  "2970217": {
    "zipcode": "2970217",
    "prefectureCode": "12",
    "prefectureNumber": 12,
    "prefecture": "千葉県",
    "city": "長生郡長柄町",
    "town": "針ケ谷"
  },
  "2970218": {
    "zipcode": "2970218",
    "prefectureCode": "12",
    "prefectureNumber": 12,
    "prefecture": "千葉県",
    "city": "長生郡長柄町",
    "town": "桜谷"
  },
  "2970221": {
    "zipcode": "2970221",
    "prefectureCode": "12",
    "prefectureNumber": 12,
    "prefecture": "千葉県",
    "city": "長生郡長柄町",
    "town": "高山"
  },
  "2970222": {
    "zipcode": "2970222",
    "prefectureCode": "12",
    "prefectureNumber": 12,
    "prefecture": "千葉県",
    "city": "長生郡長柄町",
    "town": "大庭"
  },
  "2970223": {
    "zipcode": "2970223",
    "prefectureCode": "12",
    "prefectureNumber": 12,
    "prefecture": "千葉県",
    "city": "長生郡長柄町",
    "town": "大津倉"
  },
  "2970224": {
    "zipcode": "2970224",
    "prefectureCode": "12",
    "prefectureNumber": 12,
    "prefecture": "千葉県",
    "city": "長生郡長柄町",
    "town": "田代"
  },
  "2970225": {
    "zipcode": "2970225",
    "prefectureCode": "12",
    "prefectureNumber": 12,
    "prefecture": "千葉県",
    "city": "長生郡長柄町",
    "town": "刑部"
  },
  "2970226": {
    "zipcode": "2970226",
    "prefectureCode": "12",
    "prefectureNumber": 12,
    "prefecture": "千葉県",
    "city": "長生郡長柄町",
    "town": "金谷"
  },
  "2970231": {
    "zipcode": "2970231",
    "prefectureCode": "12",
    "prefectureNumber": 12,
    "prefecture": "千葉県",
    "city": "長生郡長柄町",
    "town": "山之郷"
  },
  "2970232": {
    "zipcode": "2970232",
    "prefectureCode": "12",
    "prefectureNumber": 12,
    "prefecture": "千葉県",
    "city": "長生郡長柄町",
    "town": "中野台"
  },
  "2970233": {
    "zipcode": "2970233",
    "prefectureCode": "12",
    "prefectureNumber": 12,
    "prefecture": "千葉県",
    "city": "長生郡長柄町",
    "town": "六地蔵"
  },
  "2970234": {
    "zipcode": "2970234",
    "prefectureCode": "12",
    "prefectureNumber": 12,
    "prefecture": "千葉県",
    "city": "長生郡長柄町",
    "town": "長柄山"
  },
  "2970235": {
    "zipcode": "2970235",
    "prefectureCode": "12",
    "prefectureNumber": 12,
    "prefecture": "千葉県",
    "city": "長生郡長柄町",
    "town": "皿木"
  }
}
