{
  "2990101": {
    "zipcode": "2990101",
    "prefectureCode": "12",
    "prefectureNumber": 12,
    "prefecture": "千葉県",
    "city": "市原市",
    "town": "青柳北"
  },
  "2990102": {
    "zipcode": "2990102",
    "prefectureCode": "12",
    "prefectureNumber": 12,
    "prefecture": "千葉県",
    "city": "市原市",
    "town": "青柳"
  },
  "2990103": {
    "zipcode": "2990103",
    "prefectureCode": "12",
    "prefectureNumber": 12,
    "prefecture": "千葉県",
    "city": "市原市",
    "town": "青柳海岸"
  },
  "2990104": {
    "zipcode": "2990104",
    "prefectureCode": "12",
    "prefectureNumber": 12,
    "prefecture": "千葉県",
    "city": "市原市",
    "town": "白塚"
  },
  "2990105": {
    "zipcode": "2990105",
    "prefectureCode": "12",
    "prefectureNumber": 12,
    "prefecture": "千葉県",
    "city": "市原市",
    "town": "柏原"
  },
  "2990106": {
    "zipcode": "2990106",
    "prefectureCode": "12",
    "prefectureNumber": 12,
    "prefecture": "千葉県",
    "city": "市原市",
    "town": "今津朝山"
  },
  "2990107": {
    "zipcode": "2990107",
    "prefectureCode": "12",
    "prefectureNumber": 12,
    "prefecture": "千葉県",
    "city": "市原市",
    "town": "姉崎海岸"
  },
  "2990108": {
    "zipcode": "2990108",
    "prefectureCode": "12",
    "prefectureNumber": 12,
    "prefecture": "千葉県",
    "city": "市原市",
    "town": "千種海岸"
  },
  "2990109": {
    "zipcode": "2990109",
    "prefectureCode": "12",
    "prefectureNumber": 12,
    "prefecture": "千葉県",
    "city": "市原市",
    "town": "千種"
  },
  "2990110": {
    "zipcode": "2990110",
    "prefectureCode": "12",
    "prefectureNumber": 12,
    "prefecture": "千葉県",
    "city": "市原市",
    "town": "姉崎東"
  },
  "2990111": {
    "zipcode": "2990111",
    "prefectureCode": "12",
    "prefectureNumber": 12,
    "prefecture": "千葉県",
    "city": "市原市",
    "town": "姉崎"
  },
  "2990112": {
    "zipcode": "2990112",
    "prefectureCode": "12",
    "prefectureNumber": 12,
    "prefecture": "千葉県",
    "city": "市原市",
    "town": "畑木"
  },
  "2990113": {
    "zipcode": "2990113",
    "prefectureCode": "12",
    "prefectureNumber": 12,
    "prefecture": "千葉県",
    "city": "市原市",
    "town": "片又木"
  },
  "2990114": {
    "zipcode": "2990114",
    "prefectureCode": "12",
    "prefectureNumber": 12,
    "prefecture": "千葉県",
    "city": "市原市",
    "town": "泉台"
  },
  "2990115": {
    "zipcode": "2990115",
    "prefectureCode": "12",
    "prefectureNumber": 12,
    "prefecture": "千葉県",
    "city": "市原市",
    "town": "不入斗"
  },
  "2990116": {
    "zipcode": "2990116",
    "prefectureCode": "12",
    "prefectureNumber": 12,
    "prefecture": "千葉県",
    "city": "市原市",
    "town": "迎田"
  },
  "2990117": {
    "zipcode": "2990117",
    "prefectureCode": "12",
    "prefectureNumber": 12,
    "prefecture": "千葉県",
    "city": "市原市",
    "town": "青葉台"
  },
  "2990118": {
    "zipcode": "2990118",
    "prefectureCode": "12",
    "prefectureNumber": 12,
    "prefecture": "千葉県",
    "city": "市原市",
    "town": "椎津"
  },
  "2990119": {
    "zipcode": "2990119",
    "prefectureCode": "12",
    "prefectureNumber": 12,
    "prefecture": "千葉県",
    "city": "市原市",
    "town": "姉崎西"
  },
  "2990121": {
    "zipcode": "2990121",
    "prefectureCode": "12",
    "prefectureNumber": 12,
    "prefecture": "千葉県",
    "city": "市原市",
    "town": "立野"
  },
  "2990122": {
    "zipcode": "2990122",
    "prefectureCode": "12",
    "prefectureNumber": 12,
    "prefecture": "千葉県",
    "city": "市原市",
    "town": "豊成"
  },
  "2990123": {
    "zipcode": "2990123",
    "prefectureCode": "12",
    "prefectureNumber": 12,
    "prefecture": "千葉県",
    "city": "市原市",
    "town": "深城"
  },
  "2990124": {
    "zipcode": "2990124",
    "prefectureCode": "12",
    "prefectureNumber": 12,
    "prefecture": "千葉県",
    "city": "市原市",
    "town": "有秋台東"
  },
  "2990125": {
    "zipcode": "2990125",
    "prefectureCode": "12",
    "prefectureNumber": 12,
    "prefecture": "千葉県",
    "city": "市原市",
    "town": "有秋台西"
  },
  "2990126": {
    "zipcode": "2990126",
    "prefectureCode": "12",
    "prefectureNumber": 12,
    "prefecture": "千葉県",
    "city": "市原市",
    "town": "天羽田"
  },
  "2990127": {
    "zipcode": "2990127",
    "prefectureCode": "12",
    "prefectureNumber": 12,
    "prefecture": "千葉県",
    "city": "市原市",
    "town": "桜台"
  },
  "2990128": {
    "zipcode": "2990128",
    "prefectureCode": "12",
    "prefectureNumber": 12,
    "prefecture": "千葉県",
    "city": "市原市",
    "town": "椎の木台"
  },
  "2990200": {
    "zipcode": "2990200",
    "prefectureCode": "12",
    "prefectureNumber": 12,
    "prefecture": "千葉県",
    "city": "袖ケ浦市",
    "town": "以下に掲載がない場合"
  },
  "2990201": {
    "zipcode": "2990201",
    "prefectureCode": "12",
    "prefectureNumber": 12,
    "prefecture": "千葉県",
    "city": "袖ケ浦市",
    "town": "川原井"
  },
  "2990202": {
    "zipcode": "2990202",
    "prefectureCode": "12",
    "prefectureNumber": 12,
    "prefecture": "千葉県",
    "city": "袖ケ浦市",
    "town": "林"
  },
  "2990203": {
    "zipcode": "2990203",
    "prefectureCode": "12",
    "prefectureNumber": 12,
    "prefecture": "千葉県",
    "city": "袖ケ浦市",
    "town": "高谷"
  },
  "2990204": {
    "zipcode": "2990204",
    "prefectureCode": "12",
    "prefectureNumber": 12,
    "prefecture": "千葉県",
    "city": "袖ケ浦市",
    "town": "永吉"
  },
  "2990205": {
    "zipcode": "2990205",
    "prefectureCode": "12",
    "prefectureNumber": 12,
    "prefecture": "千葉県",
    "city": "袖ケ浦市",
    "town": "上泉"
  },
  "2990211": {
    "zipcode": "2990211",
    "prefectureCode": "12",
    "prefectureNumber": 12,
    "prefecture": "千葉県",
    "city": "袖ケ浦市",
    "town": "野里"
  },
  "2990212": {
    "zipcode": "2990212",
    "prefectureCode": "12",
    "prefectureNumber": 12,
    "prefecture": "千葉県",
    "city": "袖ケ浦市",
    "town": "三箇"
  },
  "2990213": {
    "zipcode": "2990213",
    "prefectureCode": "12",
    "prefectureNumber": 12,
    "prefecture": "千葉県",
    "city": "袖ケ浦市",
    "town": "百目木"
  },
  "2990214": {
    "zipcode": "2990214",
    "prefectureCode": "12",
    "prefectureNumber": 12,
    "prefecture": "千葉県",
    "city": "袖ケ浦市",
    "town": "下根岸"
  },
  "2990215": {
    "zipcode": "2990215",
    "prefectureCode": "12",
    "prefectureNumber": 12,
    "prefecture": "千葉県",
    "city": "袖ケ浦市",
    "town": "堂谷"
  },
  "2990216": {
    "zipcode": "2990216",
    "prefectureCode": "12",
    "prefectureNumber": 12,
    "prefecture": "千葉県",
    "city": "袖ケ浦市",
    "town": "阿部"
  },
  "2990217": {
    "zipcode": "2990217",
    "prefectureCode": "12",
    "prefectureNumber": 12,
    "prefecture": "千葉県",
    "city": "袖ケ浦市",
    "town": "打越"
  },
  "2990221": {
    "zipcode": "2990221",
    "prefectureCode": "12",
    "prefectureNumber": 12,
    "prefecture": "千葉県",
    "city": "袖ケ浦市",
    "town": "大竹"
  },
  "2990222": {
    "zipcode": "2990222",
    "prefectureCode": "12",
    "prefectureNumber": 12,
    "prefecture": "千葉県",
    "city": "袖ケ浦市",
    "town": "上宮田"
  },
  "2990223": {
    "zipcode": "2990223",
    "prefectureCode": "12",
    "prefectureNumber": 12,
    "prefecture": "千葉県",
    "city": "袖ケ浦市",
    "town": "下宮田"
  },
  "2990224": {
    "zipcode": "2990224",
    "prefectureCode": "12",
    "prefectureNumber": 12,
    "prefecture": "千葉県",
    "city": "袖ケ浦市",
    "town": "吉野田"
  },
  "2990225": {
    "zipcode": "2990225",
    "prefectureCode": "12",
    "prefectureNumber": 12,
    "prefecture": "千葉県",
    "city": "袖ケ浦市",
    "town": "玉野"
  },
  "2990226": {
    "zipcode": "2990226",
    "prefectureCode": "12",
    "prefectureNumber": 12,
    "prefecture": "千葉県",
    "city": "袖ケ浦市",
    "town": "滝の口"
  },
  "2990231": {
    "zipcode": "2990231",
    "prefectureCode": "12",
    "prefectureNumber": 12,
    "prefecture": "千葉県",
    "city": "袖ケ浦市",
    "town": "下泉"
  },
  "2990232": {
    "zipcode": "2990232",
    "prefectureCode": "12",
    "prefectureNumber": 12,
    "prefecture": "千葉県",
    "city": "袖ケ浦市",
    "town": "永地"
  },
  "2990233": {
    "zipcode": "2990233",
    "prefectureCode": "12",
    "prefectureNumber": 12,
    "prefecture": "千葉県",
    "city": "袖ケ浦市",
    "town": "岩井"
  },
  "2990234": {
    "zipcode": "2990234",
    "prefectureCode": "12",
    "prefectureNumber": 12,
    "prefecture": "千葉県",
    "city": "袖ケ浦市",
    "town": "谷中"
  },
  "2990235": {
    "zipcode": "2990235",
    "prefectureCode": "12",
    "prefectureNumber": 12,
    "prefecture": "千葉県",
    "city": "袖ケ浦市",
    "town": "三黒"
  },
  "2990236": {
    "zipcode": "2990236",
    "prefectureCode": "12",
    "prefectureNumber": 12,
    "prefecture": "千葉県",
    "city": "袖ケ浦市",
    "town": "横田"
  },
  "2990237": {
    "zipcode": "2990237",
    "prefectureCode": "12",
    "prefectureNumber": 12,
    "prefecture": "千葉県",
    "city": "袖ケ浦市",
    "town": "大鳥居"
  },
  "2990241": {
    "zipcode": "2990241",
    "prefectureCode": "12",
    "prefectureNumber": 12,
    "prefecture": "千葉県",
    "city": "袖ケ浦市",
    "town": "代宿"
  },
  "2990242": {
    "zipcode": "2990242",
    "prefectureCode": "12",
    "prefectureNumber": 12,
    "prefecture": "千葉県",
    "city": "袖ケ浦市",
    "town": "久保田"
  },
  "2990243": {
    "zipcode": "2990243",
    "prefectureCode": "12",
    "prefectureNumber": 12,
    "prefecture": "千葉県",
    "city": "袖ケ浦市",
    "town": "蔵波"
  },
  "2990244": {
    "zipcode": "2990244",
    "prefectureCode": "12",
    "prefectureNumber": 12,
    "prefecture": "千葉県",
    "city": "袖ケ浦市",
    "town": "野田"
  },
  "2990245": {
    "zipcode": "2990245",
    "prefectureCode": "12",
    "prefectureNumber": 12,
    "prefecture": "千葉県",
    "city": "袖ケ浦市",
    "town": "蔵波台"
  },
  "2990246": {
    "zipcode": "2990246",
    "prefectureCode": "12",
    "prefectureNumber": 12,
    "prefecture": "千葉県",
    "city": "袖ケ浦市",
    "town": "長浦駅前"
  },
  "2990247": {
    "zipcode": "2990247",
    "prefectureCode": "12",
    "prefectureNumber": 12,
    "prefecture": "千葉県",
    "city": "袖ケ浦市",
    "town": "椎の森"
  },
  "2990251": {
    "zipcode": "2990251",
    "prefectureCode": "12",
    "prefectureNumber": 12,
    "prefecture": "千葉県",
    "city": "袖ケ浦市",
    "town": "のぞみ野"
  },
  "2990252": {
    "zipcode": "2990252",
    "prefectureCode": "12",
    "prefectureNumber": 12,
    "prefecture": "千葉県",
    "city": "袖ケ浦市",
    "town": "勝"
  },
  "2990253": {
    "zipcode": "2990253",
    "prefectureCode": "12",
    "prefectureNumber": 12,
    "prefecture": "千葉県",
    "city": "袖ケ浦市",
    "town": "大曽根"
  },
  "2990254": {
    "zipcode": "2990254",
    "prefectureCode": "12",
    "prefectureNumber": 12,
    "prefecture": "千葉県",
    "city": "袖ケ浦市",
    "town": "三ツ作"
  },
  "2990255": {
    "zipcode": "2990255",
    "prefectureCode": "12",
    "prefectureNumber": 12,
    "prefecture": "千葉県",
    "city": "袖ケ浦市",
    "town": "下新田"
  },
  "2990256": {
    "zipcode": "2990256",
    "prefectureCode": "12",
    "prefectureNumber": 12,
    "prefecture": "千葉県",
    "city": "袖ケ浦市",
    "town": "飯富"
  },
  "2990257": {
    "zipcode": "2990257",
    "prefectureCode": "12",
    "prefectureNumber": 12,
    "prefecture": "千葉県",
    "city": "袖ケ浦市",
    "town": "神納"
  },
  "2990261": {
    "zipcode": "2990261",
    "prefectureCode": "12",
    "prefectureNumber": 12,
    "prefecture": "千葉県",
    "city": "袖ケ浦市",
    "town": "福王台"
  },
  "2990262": {
    "zipcode": "2990262",
    "prefectureCode": "12",
    "prefectureNumber": 12,
    "prefecture": "千葉県",
    "city": "袖ケ浦市",
    "town": "坂戸市場"
  },
  "2990263": {
    "zipcode": "2990263",
    "prefectureCode": "12",
    "prefectureNumber": 12,
    "prefecture": "千葉県",
    "city": "袖ケ浦市",
    "town": "奈良輪"
  },
  "2990264": {
    "zipcode": "2990264",
    "prefectureCode": "12",
    "prefectureNumber": 12,
    "prefecture": "千葉県",
    "city": "袖ケ浦市",
    "town": "今井"
  },
  "2990265": {
    "zipcode": "2990265",
    "prefectureCode": "12",
    "prefectureNumber": 12,
    "prefecture": "千葉県",
    "city": "袖ケ浦市",
    "town": "長浦"
  },
  "2990266": {
    "zipcode": "2990266",
    "prefectureCode": "12",
    "prefectureNumber": 12,
    "prefecture": "千葉県",
    "city": "袖ケ浦市",
    "town": "北袖"
  },
  "2990267": {
    "zipcode": "2990267",
    "prefectureCode": "12",
    "prefectureNumber": 12,
    "prefecture": "千葉県",
    "city": "袖ケ浦市",
    "town": "中袖"
  },
  "2990268": {
    "zipcode": "2990268",
    "prefectureCode": "12",
    "prefectureNumber": 12,
    "prefecture": "千葉県",
    "city": "袖ケ浦市",
    "town": "南袖"
  },
  "2990269": {
    "zipcode": "2990269",
    "prefectureCode": "12",
    "prefectureNumber": 12,
    "prefecture": "千葉県",
    "city": "袖ケ浦市",
    "town": "袖ケ浦駅前"
  },
  "2990271": {
    "zipcode": "2990271",
    "prefectureCode": "12",
    "prefectureNumber": 12,
    "prefecture": "千葉県",
    "city": "木更津市",
    "town": "坂戸市場"
  },
  "2991100": {
    "zipcode": "2991100",
    "prefectureCode": "12",
    "prefectureNumber": 12,
    "prefecture": "千葉県",
    "city": "君津市",
    "town": "以下に掲載がない場合"
  },
  "2991101": {
    "zipcode": "2991101",
    "prefectureCode": "12",
    "prefectureNumber": 12,
    "prefecture": "千葉県",
    "city": "君津市",
    "town": "大鷲新田"
  },
  "2991102": {
    "zipcode": "2991102",
    "prefectureCode": "12",
    "prefectureNumber": 12,
    "prefecture": "千葉県",
    "city": "君津市",
    "town": "大鷲"
  },
  "2991103": {
    "zipcode": "2991103",
    "prefectureCode": "12",
    "prefectureNumber": 12,
    "prefecture": "千葉県",
    "city": "君津市",
    "town": "大井"
  },
  "2991104": {
    "zipcode": "2991104",
    "prefectureCode": "12",
    "prefectureNumber": 12,
    "prefecture": "千葉県",
    "city": "君津市",
    "town": "糠田"
  },
  "2991105": {
    "zipcode": "2991105",
    "prefectureCode": "12",
    "prefectureNumber": 12,
    "prefecture": "千葉県",
    "city": "君津市",
    "town": "白駒"
  },
  "2991106": {
    "zipcode": "2991106",
    "prefectureCode": "12",
    "prefectureNumber": 12,
    "prefecture": "千葉県",
    "city": "君津市",
    "town": "中島"
  },
  "2991107": {
    "zipcode": "2991107",
    "prefectureCode": "12",
    "prefectureNumber": 12,
    "prefecture": "千葉県",
    "city": "君津市",
    "town": "上"
  },
  "2991108": {
    "zipcode": "2991108",
    "prefectureCode": "12",
    "prefectureNumber": 12,
    "prefecture": "千葉県",
    "city": "君津市",
    "town": "練木"
  },
  "2991111": {
    "zipcode": "2991111",
    "prefectureCode": "12",
    "prefectureNumber": 12,
    "prefecture": "千葉県",
    "city": "君津市",
    "town": "六手"
  },
  "2991112": {
    "zipcode": "2991112",
    "prefectureCode": "12",
    "prefectureNumber": 12,
    "prefecture": "千葉県",
    "city": "君津市",
    "town": "泉"
  },
  "2991113": {
    "zipcode": "2991113",
    "prefectureCode": "12",
    "prefectureNumber": 12,
    "prefecture": "千葉県",
    "city": "君津市",
    "town": "尾車"
  },
  "2991114": {
    "zipcode": "2991114",
    "prefectureCode": "12",
    "prefectureNumber": 12,
    "prefecture": "千葉県",
    "city": "君津市",
    "town": "草牛"
  },
  "2991115": {
    "zipcode": "2991115",
    "prefectureCode": "12",
    "prefectureNumber": 12,
    "prefecture": "千葉県",
    "city": "君津市",
    "town": "馬登"
  },
  "2991116": {
    "zipcode": "2991116",
    "prefectureCode": "12",
    "prefectureNumber": 12,
    "prefecture": "千葉県",
    "city": "君津市",
    "town": "皿引"
  },
  "2991117": {
    "zipcode": "2991117",
    "prefectureCode": "12",
    "prefectureNumber": 12,
    "prefecture": "千葉県",
    "city": "君津市",
    "town": "宮下"
  },
  "2991121": {
    "zipcode": "2991121",
    "prefectureCode": "12",
    "prefectureNumber": 12,
    "prefecture": "千葉県",
    "city": "君津市",
    "town": "常代"
  },
  "2991122": {
    "zipcode": "2991122",
    "prefectureCode": "12",
    "prefectureNumber": 12,
    "prefecture": "千葉県",
    "city": "君津市",
    "town": "浜子"
  },
  "2991123": {
    "zipcode": "2991123",
    "prefectureCode": "12",
    "prefectureNumber": 12,
    "prefecture": "千葉県",
    "city": "君津市",
    "town": "大山野"
  },
  "2991124": {
    "zipcode": "2991124",
    "prefectureCode": "12",
    "prefectureNumber": 12,
    "prefecture": "千葉県",
    "city": "君津市",
    "town": "作木"
  },
  "2991125": {
    "zipcode": "2991125",
    "prefectureCode": "12",
    "prefectureNumber": 12,
    "prefecture": "千葉県",
    "city": "君津市",
    "town": "山高原"
  },
  "2991126": {
    "zipcode": "2991126",
    "prefectureCode": "12",
    "prefectureNumber": 12,
    "prefecture": "千葉県",
    "city": "君津市",
    "town": "小山野"
  },
  "2991127": {
    "zipcode": "2991127",
    "prefectureCode": "12",
    "prefectureNumber": 12,
    "prefecture": "千葉県",
    "city": "君津市",
    "town": "郡"
  },
  "2991131": {
    "zipcode": "2991131",
    "prefectureCode": "12",
    "prefectureNumber": 12,
    "prefecture": "千葉県",
    "city": "君津市",
    "town": "下湯江"
  },
  "2991132": {
    "zipcode": "2991132",
    "prefectureCode": "12",
    "prefectureNumber": 12,
    "prefecture": "千葉県",
    "city": "君津市",
    "town": "中富"
  },
  "2991133": {
    "zipcode": "2991133",
    "prefectureCode": "12",
    "prefectureNumber": 12,
    "prefecture": "千葉県",
    "city": "君津市",
    "town": "貞元"
  },
  "2991134": {
    "zipcode": "2991134",
    "prefectureCode": "12",
    "prefectureNumber": 12,
    "prefecture": "千葉県",
    "city": "君津市",
    "town": "八幡"
  },
  "2991135": {
    "zipcode": "2991135",
    "prefectureCode": "12",
    "prefectureNumber": 12,
    "prefecture": "千葉県",
    "city": "君津市",
    "town": "杉谷"
  },
  "2991136": {
    "zipcode": "2991136",
    "prefectureCode": "12",
    "prefectureNumber": 12,
    "prefecture": "千葉県",
    "city": "君津市",
    "town": "新御堂"
  },
  "2991137": {
    "zipcode": "2991137",
    "prefectureCode": "12",
    "prefectureNumber": 12,
    "prefecture": "千葉県",
    "city": "君津市",
    "town": "小香"
  },
  "2991138": {
    "zipcode": "2991138",
    "prefectureCode": "12",
    "prefectureNumber": 12,
    "prefecture": "千葉県",
    "city": "君津市",
    "town": "上湯江"
  },
  "2991141": {
    "zipcode": "2991141",
    "prefectureCode": "12",
    "prefectureNumber": 12,
    "prefecture": "千葉県",
    "city": "君津市",
    "town": "君津"
  },
  "2991142": {
    "zipcode": "2991142",
    "prefectureCode": "12",
    "prefectureNumber": 12,
    "prefecture": "千葉県",
    "city": "君津市",
    "town": "坂田"
  },
  "2991143": {
    "zipcode": "2991143",
    "prefectureCode": "12",
    "prefectureNumber": 12,
    "prefecture": "千葉県",
    "city": "君津市",
    "town": "君津台"
  },
  "2991144": {
    "zipcode": "2991144",
    "prefectureCode": "12",
    "prefectureNumber": 12,
    "prefecture": "千葉県",
    "city": "君津市",
    "town": "東坂田"
  },
  "2991145": {
    "zipcode": "2991145",
    "prefectureCode": "12",
    "prefectureNumber": 12,
    "prefecture": "千葉県",
    "city": "君津市",
    "town": "西坂田"
  },
  "2991146": {
    "zipcode": "2991146",
    "prefectureCode": "12",
    "prefectureNumber": 12,
    "prefecture": "千葉県",
    "city": "君津市",
    "town": "大和田"
  },
  "2991147": {
    "zipcode": "2991147",
    "prefectureCode": "12",
    "prefectureNumber": 12,
    "prefecture": "千葉県",
    "city": "君津市",
    "town": "人見"
  },
  "2991151": {
    "zipcode": "2991151",
    "prefectureCode": "12",
    "prefectureNumber": 12,
    "prefecture": "千葉県",
    "city": "君津市",
    "town": "中野"
  },
  "2991152": {
    "zipcode": "2991152",
    "prefectureCode": "12",
    "prefectureNumber": 12,
    "prefecture": "千葉県",
    "city": "君津市",
    "town": "久保"
  },
  "2991153": {
    "zipcode": "2991153",
    "prefectureCode": "12",
    "prefectureNumber": 12,
    "prefecture": "千葉県",
    "city": "君津市",
    "town": "台"
  },
  "2991154": {
    "zipcode": "2991154",
    "prefectureCode": "12",
    "prefectureNumber": 12,
    "prefecture": "千葉県",
    "city": "君津市",
    "town": "南久保"
  },
  "2991161": {
    "zipcode": "2991161",
    "prefectureCode": "12",
    "prefectureNumber": 12,
    "prefecture": "千葉県",
    "city": "君津市",
    "town": "北子安"
  },
  "2991162": {
    "zipcode": "2991162",
    "prefectureCode": "12",
    "prefectureNumber": 12,
    "prefecture": "千葉県",
    "city": "君津市",
    "town": "南子安"
  },
  "2991163": {
    "zipcode": "2991163",
    "prefectureCode": "12",
    "prefectureNumber": 12,
    "prefecture": "千葉県",
    "city": "君津市",
    "town": "杢師"
  },
  "2991164": {
    "zipcode": "2991164",
    "prefectureCode": "12",
    "prefectureNumber": 12,
    "prefecture": "千葉県",
    "city": "君津市",
    "town": "北久保"
  },
  "2991165": {
    "zipcode": "2991165",
    "prefectureCode": "12",
    "prefectureNumber": 12,
    "prefecture": "千葉県",
    "city": "君津市",
    "town": "高坂"
  },
  "2991166": {
    "zipcode": "2991166",
    "prefectureCode": "12",
    "prefectureNumber": 12,
    "prefecture": "千葉県",
    "city": "君津市",
    "town": "陽光台"
  },
  "2991171": {
    "zipcode": "2991171",
    "prefectureCode": "12",
    "prefectureNumber": 12,
    "prefecture": "千葉県",
    "city": "君津市",
    "town": "八重原"
  },
  "2991172": {
    "zipcode": "2991172",
    "prefectureCode": "12",
    "prefectureNumber": 12,
    "prefecture": "千葉県",
    "city": "君津市",
    "town": "三直"
  },
  "2991173": {
    "zipcode": "2991173",
    "prefectureCode": "12",
    "prefectureNumber": 12,
    "prefecture": "千葉県",
    "city": "君津市",
    "town": "外箕輪"
  },
  "2991174": {
    "zipcode": "2991174",
    "prefectureCode": "12",
    "prefectureNumber": 12,
    "prefecture": "千葉県",
    "city": "君津市",
    "town": "法木作"
  },
  "2991175": {
    "zipcode": "2991175",
    "prefectureCode": "12",
    "prefectureNumber": 12,
    "prefecture": "千葉県",
    "city": "君津市",
    "town": "内箕輪"
  },
  "2991176": {
    "zipcode": "2991176",
    "prefectureCode": "12",
    "prefectureNumber": 12,
    "prefecture": "千葉県",
    "city": "君津市",
    "town": "内蓑輪"
  },
  "2991601": {
    "zipcode": "2991601",
    "prefectureCode": "12",
    "prefectureNumber": 12,
    "prefecture": "千葉県",
    "city": "富津市",
    "town": "桜井総稱鬼泪山"
  },
  "2991602": {
    "zipcode": "2991602",
    "prefectureCode": "12",
    "prefectureNumber": 12,
    "prefecture": "千葉県",
    "city": "富津市",
    "town": "桜井"
  },
  "2991603": {
    "zipcode": "2991603",
    "prefectureCode": "12",
    "prefectureNumber": 12,
    "prefecture": "千葉県",
    "city": "富津市",
    "town": "更和"
  },
  "2991604": {
    "zipcode": "2991604",
    "prefectureCode": "12",
    "prefectureNumber": 12,
    "prefecture": "千葉県",
    "city": "富津市",
    "town": "台原"
  },
  "2991605": {
    "zipcode": "2991605",
    "prefectureCode": "12",
    "prefectureNumber": 12,
    "prefecture": "千葉県",
    "city": "富津市",
    "town": "望井"
  },
  "2991606": {
    "zipcode": "2991606",
    "prefectureCode": "12",
    "prefectureNumber": 12,
    "prefecture": "千葉県",
    "city": "富津市",
    "town": "数馬"
  },
  "2991607": {
    "zipcode": "2991607",
    "prefectureCode": "12",
    "prefectureNumber": 12,
    "prefecture": "千葉県",
    "city": "富津市",
    "town": "湊"
  },
  "2991608": {
    "zipcode": "2991608",
    "prefectureCode": "12",
    "prefectureNumber": 12,
    "prefecture": "千葉県",
    "city": "富津市",
    "town": "岩坂"
  },
  "2991609": {
    "zipcode": "2991609",
    "prefectureCode": "12",
    "prefectureNumber": 12,
    "prefecture": "千葉県",
    "city": "富津市",
    "town": "加藤"
  },
  "2991611": {
    "zipcode": "2991611",
    "prefectureCode": "12",
    "prefectureNumber": 12,
    "prefecture": "千葉県",
    "city": "富津市",
    "town": "長崎"
  },
  "2991612": {
    "zipcode": "2991612",
    "prefectureCode": "12",
    "prefectureNumber": 12,
    "prefecture": "千葉県",
    "city": "富津市",
    "town": "横山"
  },
  "2991613": {
    "zipcode": "2991613",
    "prefectureCode": "12",
    "prefectureNumber": 12,
    "prefecture": "千葉県",
    "city": "富津市",
    "town": "不入斗"
  },
  "2991614": {
    "zipcode": "2991614",
    "prefectureCode": "12",
    "prefectureNumber": 12,
    "prefecture": "千葉県",
    "city": "富津市",
    "town": "梨沢（その他）"
  },
  "2991615": {
    "zipcode": "2991615",
    "prefectureCode": "12",
    "prefectureNumber": 12,
    "prefecture": "千葉県",
    "city": "富津市",
    "town": "相川"
  },
  "2991616": {
    "zipcode": "2991616",
    "prefectureCode": "12",
    "prefectureNumber": 12,
    "prefecture": "千葉県",
    "city": "富津市",
    "town": "海良"
  },
  "2991617": {
    "zipcode": "2991617",
    "prefectureCode": "12",
    "prefectureNumber": 12,
    "prefecture": "千葉県",
    "city": "富津市",
    "town": "売津"
  },
  "2991618": {
    "zipcode": "2991618",
    "prefectureCode": "12",
    "prefectureNumber": 12,
    "prefecture": "千葉県",
    "city": "富津市",
    "town": "花輪"
  },
  "2991621": {
    "zipcode": "2991621",
    "prefectureCode": "12",
    "prefectureNumber": 12,
    "prefecture": "千葉県",
    "city": "富津市",
    "town": "竹岡"
  },
  "2991622": {
    "zipcode": "2991622",
    "prefectureCode": "12",
    "prefectureNumber": 12,
    "prefecture": "千葉県",
    "city": "富津市",
    "town": "萩生"
  },
  "2991731": {
    "zipcode": "2991731",
    "prefectureCode": "12",
    "prefectureNumber": 12,
    "prefecture": "千葉県",
    "city": "富津市",
    "town": "田倉"
  },
  "2991732": {
    "zipcode": "2991732",
    "prefectureCode": "12",
    "prefectureNumber": 12,
    "prefecture": "千葉県",
    "city": "富津市",
    "town": "宇藤原"
  },
  "2991733": {
    "zipcode": "2991733",
    "prefectureCode": "12",
    "prefectureNumber": 12,
    "prefecture": "千葉県",
    "city": "富津市",
    "town": "高溝"
  },
  "2991734": {
    "zipcode": "2991734",
    "prefectureCode": "12",
    "prefectureNumber": 12,
    "prefecture": "千葉県",
    "city": "富津市",
    "town": "関"
  },
  "2991735": {
    "zipcode": "2991735",
    "prefectureCode": "12",
    "prefectureNumber": 12,
    "prefecture": "千葉県",
    "city": "富津市",
    "town": "大田和"
  },
  "2991736": {
    "zipcode": "2991736",
    "prefectureCode": "12",
    "prefectureNumber": 12,
    "prefecture": "千葉県",
    "city": "富津市",
    "town": "大川崎"
  },
  "2991737": {
    "zipcode": "2991737",
    "prefectureCode": "12",
    "prefectureNumber": 12,
    "prefecture": "千葉県",
    "city": "富津市",
    "town": "東大和田"
  },
  "2991741": {
    "zipcode": "2991741",
    "prefectureCode": "12",
    "prefectureNumber": 12,
    "prefecture": "千葉県",
    "city": "富津市",
    "town": "御代原"
  },
  "2991742": {
    "zipcode": "2991742",
    "prefectureCode": "12",
    "prefectureNumber": 12,
    "prefecture": "千葉県",
    "city": "富津市",
    "town": "豊岡"
  },
  "2991743": {
    "zipcode": "2991743",
    "prefectureCode": "12",
    "prefectureNumber": 12,
    "prefecture": "千葉県",
    "city": "富津市",
    "town": "山中"
  },
  "2991744": {
    "zipcode": "2991744",
    "prefectureCode": "12",
    "prefectureNumber": 12,
    "prefecture": "千葉県",
    "city": "富津市",
    "town": "梨沢（東井戸堀）"
  },
  "2991745": {
    "zipcode": "2991745",
    "prefectureCode": "12",
    "prefectureNumber": 12,
    "prefecture": "千葉県",
    "city": "富津市",
    "town": "志駒"
  },
  "2991746": {
    "zipcode": "2991746",
    "prefectureCode": "12",
    "prefectureNumber": 12,
    "prefecture": "千葉県",
    "city": "富津市",
    "town": "岩本"
  },
  "2991747": {
    "zipcode": "2991747",
    "prefectureCode": "12",
    "prefectureNumber": 12,
    "prefecture": "千葉県",
    "city": "富津市",
    "town": "小志駒"
  },
  "2991751": {
    "zipcode": "2991751",
    "prefectureCode": "12",
    "prefectureNumber": 12,
    "prefecture": "千葉県",
    "city": "富津市",
    "town": "恩田"
  },
  "2991752": {
    "zipcode": "2991752",
    "prefectureCode": "12",
    "prefectureNumber": 12,
    "prefecture": "千葉県",
    "city": "富津市",
    "town": "関尻"
  },
  "2991753": {
    "zipcode": "2991753",
    "prefectureCode": "12",
    "prefectureNumber": 12,
    "prefecture": "千葉県",
    "city": "富津市",
    "town": "上後"
  },
  "2991754": {
    "zipcode": "2991754",
    "prefectureCode": "12",
    "prefectureNumber": 12,
    "prefecture": "千葉県",
    "city": "富津市",
    "town": "山脇"
  },
  "2991755": {
    "zipcode": "2991755",
    "prefectureCode": "12",
    "prefectureNumber": 12,
    "prefecture": "千葉県",
    "city": "富津市",
    "town": "田原"
  },
  "2991756": {
    "zipcode": "2991756",
    "prefectureCode": "12",
    "prefectureNumber": 12,
    "prefecture": "千葉県",
    "city": "富津市",
    "town": "六野"
  },
  "2991757": {
    "zipcode": "2991757",
    "prefectureCode": "12",
    "prefectureNumber": 12,
    "prefecture": "千葉県",
    "city": "富津市",
    "town": "押切"
  },
  "2991758": {
    "zipcode": "2991758",
    "prefectureCode": "12",
    "prefectureNumber": 12,
    "prefecture": "千葉県",
    "city": "富津市",
    "town": "大森"
  },
  "2991759": {
    "zipcode": "2991759",
    "prefectureCode": "12",
    "prefectureNumber": 12,
    "prefecture": "千葉県",
    "city": "富津市",
    "town": "寺尾"
  },
  "2991861": {
    "zipcode": "2991861",
    "prefectureCode": "12",
    "prefectureNumber": 12,
    "prefecture": "千葉県",
    "city": "富津市",
    "town": "金谷"
  },
  "2991901": {
    "zipcode": "2991901",
    "prefectureCode": "12",
    "prefectureNumber": 12,
    "prefecture": "千葉県",
    "city": "安房郡鋸南町",
    "town": "元名"
  },
  "2991902": {
    "zipcode": "2991902",
    "prefectureCode": "12",
    "prefectureNumber": 12,
    "prefecture": "千葉県",
    "city": "安房郡鋸南町",
    "town": "保田"
  },
  "2991903": {
    "zipcode": "2991903",
    "prefectureCode": "12",
    "prefectureNumber": 12,
    "prefecture": "千葉県",
    "city": "安房郡鋸南町",
    "town": "大帷子"
  },
  "2991904": {
    "zipcode": "2991904",
    "prefectureCode": "12",
    "prefectureNumber": 12,
    "prefecture": "千葉県",
    "city": "安房郡鋸南町",
    "town": "小保田"
  },
  "2991905": {
    "zipcode": "2991905",
    "prefectureCode": "12",
    "prefectureNumber": 12,
    "prefecture": "千葉県",
    "city": "安房郡鋸南町",
    "town": "市井原"
  },
  "2991906": {
    "zipcode": "2991906",
    "prefectureCode": "12",
    "prefectureNumber": 12,
    "prefecture": "千葉県",
    "city": "安房郡鋸南町",
    "town": "横根"
  },
  "2991907": {
    "zipcode": "2991907",
    "prefectureCode": "12",
    "prefectureNumber": 12,
    "prefecture": "千葉県",
    "city": "安房郡鋸南町",
    "town": "江月"
  },
  "2991908": {
    "zipcode": "2991908",
    "prefectureCode": "12",
    "prefectureNumber": 12,
    "prefecture": "千葉県",
    "city": "安房郡鋸南町",
    "town": "吉浜"
  },
  "2991909": {
    "zipcode": "2991909",
    "prefectureCode": "12",
    "prefectureNumber": 12,
    "prefecture": "千葉県",
    "city": "安房郡鋸南町",
    "town": "大六"
  },
  "2992100": {
    "zipcode": "2992100",
    "prefectureCode": "12",
    "prefectureNumber": 12,
    "prefecture": "千葉県",
    "city": "安房郡鋸南町",
    "town": "以下に掲載がない場合"
  },
  "2992111": {
    "zipcode": "2992111",
    "prefectureCode": "12",
    "prefectureNumber": 12,
    "prefecture": "千葉県",
    "city": "安房郡鋸南町",
    "town": "大崩"
  },
  "2992112": {
    "zipcode": "2992112",
    "prefectureCode": "12",
    "prefectureNumber": 12,
    "prefecture": "千葉県",
    "city": "安房郡鋸南町",
    "town": "奥山"
  },
  "2992113": {
    "zipcode": "2992113",
    "prefectureCode": "12",
    "prefectureNumber": 12,
    "prefecture": "千葉県",
    "city": "安房郡鋸南町",
    "town": "上佐久間"
  },
  "2992114": {
    "zipcode": "2992114",
    "prefectureCode": "12",
    "prefectureNumber": 12,
    "prefecture": "千葉県",
    "city": "安房郡鋸南町",
    "town": "中佐久間"
  },
  "2992115": {
    "zipcode": "2992115",
    "prefectureCode": "12",
    "prefectureNumber": 12,
    "prefecture": "千葉県",
    "city": "安房郡鋸南町",
    "town": "下佐久間"
  },
  "2992116": {
    "zipcode": "2992116",
    "prefectureCode": "12",
    "prefectureNumber": 12,
    "prefecture": "千葉県",
    "city": "安房郡鋸南町",
    "town": "岩井袋"
  },
  "2992117": {
    "zipcode": "2992117",
    "prefectureCode": "12",
    "prefectureNumber": 12,
    "prefecture": "千葉県",
    "city": "安房郡鋸南町",
    "town": "勝山"
  },
  "2992118": {
    "zipcode": "2992118",
    "prefectureCode": "12",
    "prefectureNumber": 12,
    "prefecture": "千葉県",
    "city": "安房郡鋸南町",
    "town": "竜島"
  },
  "2992201": {
    "zipcode": "2992201",
    "prefectureCode": "12",
    "prefectureNumber": 12,
    "prefecture": "千葉県",
    "city": "南房総市",
    "town": "荒川"
  },
  "2992202": {
    "zipcode": "2992202",
    "prefectureCode": "12",
    "prefectureNumber": 12,
    "prefecture": "千葉県",
    "city": "南房総市",
    "town": "平塚"
  },
  "2992203": {
    "zipcode": "2992203",
    "prefectureCode": "12",
    "prefectureNumber": 12,
    "prefecture": "千葉県",
    "city": "南房総市",
    "town": "山田"
  },
  "2992204": {
    "zipcode": "2992204",
    "prefectureCode": "12",
    "prefectureNumber": 12,
    "prefecture": "千葉県",
    "city": "南房総市",
    "town": "平久里中"
  },
  "2992205": {
    "zipcode": "2992205",
    "prefectureCode": "12",
    "prefectureNumber": 12,
    "prefecture": "千葉県",
    "city": "南房総市",
    "town": "犬掛"
  },
  "2992206": {
    "zipcode": "2992206",
    "prefectureCode": "12",
    "prefectureNumber": 12,
    "prefecture": "千葉県",
    "city": "南房総市",
    "town": "平久里下"
  },
  "2992211": {
    "zipcode": "2992211",
    "prefectureCode": "12",
    "prefectureNumber": 12,
    "prefecture": "千葉県",
    "city": "南房総市",
    "town": "川上"
  },
  "2992212": {
    "zipcode": "2992212",
    "prefectureCode": "12",
    "prefectureNumber": 12,
    "prefecture": "千葉県",
    "city": "南房総市",
    "town": "井野"
  },
  "2992213": {
    "zipcode": "2992213",
    "prefectureCode": "12",
    "prefectureNumber": 12,
    "prefecture": "千葉県",
    "city": "南房総市",
    "town": "吉沢"
  },
  "2992214": {
    "zipcode": "2992214",
    "prefectureCode": "12",
    "prefectureNumber": 12,
    "prefecture": "千葉県",
    "city": "南房総市",
    "town": "二部"
  },
  "2992215": {
    "zipcode": "2992215",
    "prefectureCode": "12",
    "prefectureNumber": 12,
    "prefecture": "千葉県",
    "city": "南房総市",
    "town": "検儀谷"
  },
  "2992216": {
    "zipcode": "2992216",
    "prefectureCode": "12",
    "prefectureNumber": 12,
    "prefecture": "千葉県",
    "city": "南房総市",
    "town": "久枝"
  },
  "2992221": {
    "zipcode": "2992221",
    "prefectureCode": "12",
    "prefectureNumber": 12,
    "prefecture": "千葉県",
    "city": "南房総市",
    "town": "合戸"
  },
  "2992222": {
    "zipcode": "2992222",
    "prefectureCode": "12",
    "prefectureNumber": 12,
    "prefecture": "千葉県",
    "city": "南房総市",
    "town": "宮谷"
  },
  "2992223": {
    "zipcode": "2992223",
    "prefectureCode": "12",
    "prefectureNumber": 12,
    "prefecture": "千葉県",
    "city": "南房総市",
    "town": "高崎"
  },
  "2992224": {
    "zipcode": "2992224",
    "prefectureCode": "12",
    "prefectureNumber": 12,
    "prefecture": "千葉県",
    "city": "南房総市",
    "town": "小浦"
  },
  "2992225": {
    "zipcode": "2992225",
    "prefectureCode": "12",
    "prefectureNumber": 12,
    "prefecture": "千葉県",
    "city": "南房総市",
    "town": "竹内"
  },
  "2992226": {
    "zipcode": "2992226",
    "prefectureCode": "12",
    "prefectureNumber": 12,
    "prefecture": "千葉県",
    "city": "南房総市",
    "town": "市部"
  },
  "2992400": {
    "zipcode": "2992400",
    "prefectureCode": "12",
    "prefectureNumber": 12,
    "prefecture": "千葉県",
    "city": "南房総市",
    "town": "以下に掲載がない場合"
  },
  "2992401": {
    "zipcode": "2992401",
    "prefectureCode": "12",
    "prefectureNumber": 12,
    "prefecture": "千葉県",
    "city": "南房総市",
    "town": "富浦町南無谷"
  },
  "2992402": {
    "zipcode": "2992402",
    "prefectureCode": "12",
    "prefectureNumber": 12,
    "prefecture": "千葉県",
    "city": "南房総市",
    "town": "富浦町豊岡"
  },
  "2992403": {
    "zipcode": "2992403",
    "prefectureCode": "12",
    "prefectureNumber": 12,
    "prefecture": "千葉県",
    "city": "南房総市",
    "town": "富浦町原岡"
  },
  "2992404": {
    "zipcode": "2992404",
    "prefectureCode": "12",
    "prefectureNumber": 12,
    "prefecture": "千葉県",
    "city": "南房総市",
    "town": "富浦町多田良"
  },
  "2992411": {
    "zipcode": "2992411",
    "prefectureCode": "12",
    "prefectureNumber": 12,
    "prefecture": "千葉県",
    "city": "南房総市",
    "town": "富浦町居倉"
  },
  "2992412": {
    "zipcode": "2992412",
    "prefectureCode": "12",
    "prefectureNumber": 12,
    "prefecture": "千葉県",
    "city": "南房総市",
    "town": "富浦町大津"
  },
  "2992413": {
    "zipcode": "2992413",
    "prefectureCode": "12",
    "prefectureNumber": 12,
    "prefecture": "千葉県",
    "city": "南房総市",
    "town": "富浦町宮本"
  },
  "2992414": {
    "zipcode": "2992414",
    "prefectureCode": "12",
    "prefectureNumber": 12,
    "prefecture": "千葉県",
    "city": "南房総市",
    "town": "富浦町福澤"
  },
  "2992415": {
    "zipcode": "2992415",
    "prefectureCode": "12",
    "prefectureNumber": 12,
    "prefecture": "千葉県",
    "city": "南房総市",
    "town": "富浦町深名"
  },
  "2992416": {
    "zipcode": "2992416",
    "prefectureCode": "12",
    "prefectureNumber": 12,
    "prefecture": "千葉県",
    "city": "南房総市",
    "town": "富浦町青木"
  },
  "2992417": {
    "zipcode": "2992417",
    "prefectureCode": "12",
    "prefectureNumber": 12,
    "prefecture": "千葉県",
    "city": "南房総市",
    "town": "富浦町丹生"
  },
  "2992418": {
    "zipcode": "2992418",
    "prefectureCode": "12",
    "prefectureNumber": 12,
    "prefecture": "千葉県",
    "city": "南房総市",
    "town": "富浦町手取"
  },
  "2992501": {
    "zipcode": "2992501",
    "prefectureCode": "12",
    "prefectureNumber": 12,
    "prefecture": "千葉県",
    "city": "南房総市",
    "town": "珠師ケ谷"
  },
  "2992502": {
    "zipcode": "2992502",
    "prefectureCode": "12",
    "prefectureNumber": 12,
    "prefecture": "千葉県",
    "city": "南房総市",
    "town": "石堂原"
  },
  "2992503": {
    "zipcode": "2992503",
    "prefectureCode": "12",
    "prefectureNumber": 12,
    "prefecture": "千葉県",
    "city": "南房総市",
    "town": "石堂"
  },
  "2992504": {
    "zipcode": "2992504",
    "prefectureCode": "12",
    "prefectureNumber": 12,
    "prefecture": "千葉県",
    "city": "南房総市",
    "town": "川谷"
  },
  "2992505": {
    "zipcode": "2992505",
    "prefectureCode": "12",
    "prefectureNumber": 12,
    "prefecture": "千葉県",
    "city": "南房総市",
    "town": "宮下"
  },
  "2992506": {
    "zipcode": "2992506",
    "prefectureCode": "12",
    "prefectureNumber": 12,
    "prefecture": "千葉県",
    "city": "南房総市",
    "town": "御子神"
  },
  "2992507": {
    "zipcode": "2992507",
    "prefectureCode": "12",
    "prefectureNumber": 12,
    "prefecture": "千葉県",
    "city": "南房総市",
    "town": "大井"
  },
  "2992508": {
    "zipcode": "2992508",
    "prefectureCode": "12",
    "prefectureNumber": 12,
    "prefecture": "千葉県",
    "city": "南房総市",
    "town": "丸山平塚"
  },
  "2992511": {
    "zipcode": "2992511",
    "prefectureCode": "12",
    "prefectureNumber": 12,
    "prefecture": "千葉県",
    "city": "南房総市",
    "town": "小戸"
  },
  "2992512": {
    "zipcode": "2992512",
    "prefectureCode": "12",
    "prefectureNumber": 12,
    "prefecture": "千葉県",
    "city": "南房総市",
    "town": "岩糸"
  },
  "2992513": {
    "zipcode": "2992513",
    "prefectureCode": "12",
    "prefectureNumber": 12,
    "prefecture": "千葉県",
    "city": "南房総市",
    "town": "古川"
  },
  "2992514": {
    "zipcode": "2992514",
    "prefectureCode": "12",
    "prefectureNumber": 12,
    "prefecture": "千葉県",
    "city": "南房総市",
    "town": "西原"
  },
  "2992515": {
    "zipcode": "2992515",
    "prefectureCode": "12",
    "prefectureNumber": 12,
    "prefecture": "千葉県",
    "city": "南房総市",
    "town": "石神"
  },
  "2992516": {
    "zipcode": "2992516",
    "prefectureCode": "12",
    "prefectureNumber": 12,
    "prefecture": "千葉県",
    "city": "南房総市",
    "town": "前田"
  },
  "2992517": {
    "zipcode": "2992517",
    "prefectureCode": "12",
    "prefectureNumber": 12,
    "prefecture": "千葉県",
    "city": "南房総市",
    "town": "丸本郷"
  },
  "2992521": {
    "zipcode": "2992521",
    "prefectureCode": "12",
    "prefectureNumber": 12,
    "prefecture": "千葉県",
    "city": "南房総市",
    "town": "白子"
  },
  "2992522": {
    "zipcode": "2992522",
    "prefectureCode": "12",
    "prefectureNumber": 12,
    "prefecture": "千葉県",
    "city": "南房総市",
    "town": "安馬谷"
  },
  "2992523": {
    "zipcode": "2992523",
    "prefectureCode": "12",
    "prefectureNumber": 12,
    "prefecture": "千葉県",
    "city": "南房総市",
    "town": "峰"
  },
  "2992524": {
    "zipcode": "2992524",
    "prefectureCode": "12",
    "prefectureNumber": 12,
    "prefecture": "千葉県",
    "city": "南房総市",
    "town": "久保"
  },
  "2992525": {
    "zipcode": "2992525",
    "prefectureCode": "12",
    "prefectureNumber": 12,
    "prefecture": "千葉県",
    "city": "南房総市",
    "town": "加茂"
  },
  "2992526": {
    "zipcode": "2992526",
    "prefectureCode": "12",
    "prefectureNumber": 12,
    "prefecture": "千葉県",
    "city": "南房総市",
    "town": "沓見"
  },
  "2992701": {
    "zipcode": "2992701",
    "prefectureCode": "12",
    "prefectureNumber": 12,
    "prefecture": "千葉県",
    "city": "南房総市",
    "town": "和田町花園"
  },
  "2992702": {
    "zipcode": "2992702",
    "prefectureCode": "12",
    "prefectureNumber": 12,
    "prefecture": "千葉県",
    "city": "南房総市",
    "town": "和田町柴"
  },
  "2992703": {
    "zipcode": "2992703",
    "prefectureCode": "12",
    "prefectureNumber": 12,
    "prefecture": "千葉県",
    "city": "南房総市",
    "town": "和田町仁我浦"
  },
  "2992704": {
    "zipcode": "2992704",
    "prefectureCode": "12",
    "prefectureNumber": 12,
    "prefecture": "千葉県",
    "city": "南房総市",
    "town": "和田町和田"
  },
  "2992705": {
    "zipcode": "2992705",
    "prefectureCode": "12",
    "prefectureNumber": 12,
    "prefecture": "千葉県",
    "city": "南房総市",
    "town": "和田町真浦"
  },
  "2992711": {
    "zipcode": "2992711",
    "prefectureCode": "12",
    "prefectureNumber": 12,
    "prefecture": "千葉県",
    "city": "南房総市",
    "town": "和田町白渚"
  },
  "2992712": {
    "zipcode": "2992712",
    "prefectureCode": "12",
    "prefectureNumber": 12,
    "prefecture": "千葉県",
    "city": "南房総市",
    "town": "和田町海発"
  },
  "2992713": {
    "zipcode": "2992713",
    "prefectureCode": "12",
    "prefectureNumber": 12,
    "prefecture": "千葉県",
    "city": "南房総市",
    "town": "和田町松田"
  },
  "2992714": {
    "zipcode": "2992714",
    "prefectureCode": "12",
    "prefectureNumber": 12,
    "prefecture": "千葉県",
    "city": "南房総市",
    "town": "和田町沼"
  },
  "2992715": {
    "zipcode": "2992715",
    "prefectureCode": "12",
    "prefectureNumber": 12,
    "prefecture": "千葉県",
    "city": "南房総市",
    "town": "和田町下三原"
  },
  "2992716": {
    "zipcode": "2992716",
    "prefectureCode": "12",
    "prefectureNumber": 12,
    "prefecture": "千葉県",
    "city": "南房総市",
    "town": "和田町中三原"
  },
  "2992721": {
    "zipcode": "2992721",
    "prefectureCode": "12",
    "prefectureNumber": 12,
    "prefecture": "千葉県",
    "city": "南房総市",
    "town": "和田町五十蔵"
  },
  "2992722": {
    "zipcode": "2992722",
    "prefectureCode": "12",
    "prefectureNumber": 12,
    "prefecture": "千葉県",
    "city": "南房総市",
    "town": "和田町磑森"
  },
  "2992723": {
    "zipcode": "2992723",
    "prefectureCode": "12",
    "prefectureNumber": 12,
    "prefecture": "千葉県",
    "city": "南房総市",
    "town": "和田町布野"
  },
  "2992724": {
    "zipcode": "2992724",
    "prefectureCode": "12",
    "prefectureNumber": 12,
    "prefecture": "千葉県",
    "city": "南房総市",
    "town": "和田町小向"
  },
  "2992725": {
    "zipcode": "2992725",
    "prefectureCode": "12",
    "prefectureNumber": 12,
    "prefecture": "千葉県",
    "city": "南房総市",
    "town": "和田町黒岩"
  },
  "2992726": {
    "zipcode": "2992726",
    "prefectureCode": "12",
    "prefectureNumber": 12,
    "prefecture": "千葉県",
    "city": "南房総市",
    "town": "和田町小川"
  },
  "2992727": {
    "zipcode": "2992727",
    "prefectureCode": "12",
    "prefectureNumber": 12,
    "prefecture": "千葉県",
    "city": "南房総市",
    "town": "和田町上三原"
  },
  "2992728": {
    "zipcode": "2992728",
    "prefectureCode": "12",
    "prefectureNumber": 12,
    "prefecture": "千葉県",
    "city": "南房総市",
    "town": "和田町石堂"
  },
  "2992841": {
    "zipcode": "2992841",
    "prefectureCode": "12",
    "prefectureNumber": 12,
    "prefecture": "千葉県",
    "city": "鴨川市",
    "town": "西江見"
  },
  "2992842": {
    "zipcode": "2992842",
    "prefectureCode": "12",
    "prefectureNumber": 12,
    "prefecture": "千葉県",
    "city": "鴨川市",
    "town": "江見青木"
  },
  "2992843": {
    "zipcode": "2992843",
    "prefectureCode": "12",
    "prefectureNumber": 12,
    "prefecture": "千葉県",
    "city": "鴨川市",
    "town": "東江見"
  },
  "2992844": {
    "zipcode": "2992844",
    "prefectureCode": "12",
    "prefectureNumber": 12,
    "prefecture": "千葉県",
    "city": "鴨川市",
    "town": "江見東真門"
  },
  "2992845": {
    "zipcode": "2992845",
    "prefectureCode": "12",
    "prefectureNumber": 12,
    "prefecture": "千葉県",
    "city": "鴨川市",
    "town": "江見西真門"
  },
  "2992846": {
    "zipcode": "2992846",
    "prefectureCode": "12",
    "prefectureNumber": 12,
    "prefecture": "千葉県",
    "city": "鴨川市",
    "town": "江見外堀"
  },
  "2992847": {
    "zipcode": "2992847",
    "prefectureCode": "12",
    "prefectureNumber": 12,
    "prefecture": "千葉県",
    "city": "鴨川市",
    "town": "江見内遠野"
  },
  "2992851": {
    "zipcode": "2992851",
    "prefectureCode": "12",
    "prefectureNumber": 12,
    "prefecture": "千葉県",
    "city": "鴨川市",
    "town": "仲町"
  },
  "2992852": {
    "zipcode": "2992852",
    "prefectureCode": "12",
    "prefectureNumber": 12,
    "prefecture": "千葉県",
    "city": "鴨川市",
    "town": "二子"
  },
  "2992853": {
    "zipcode": "2992853",
    "prefectureCode": "12",
    "prefectureNumber": 12,
    "prefecture": "千葉県",
    "city": "鴨川市",
    "town": "宮"
  },
  "2992854": {
    "zipcode": "2992854",
    "prefectureCode": "12",
    "prefectureNumber": 12,
    "prefecture": "千葉県",
    "city": "鴨川市",
    "town": "代"
  },
  "2992855": {
    "zipcode": "2992855",
    "prefectureCode": "12",
    "prefectureNumber": 12,
    "prefecture": "千葉県",
    "city": "鴨川市",
    "town": "畑"
  },
  "2992856": {
    "zipcode": "2992856",
    "prefectureCode": "12",
    "prefectureNumber": 12,
    "prefecture": "千葉県",
    "city": "鴨川市",
    "town": "西"
  },
  "2992857": {
    "zipcode": "2992857",
    "prefectureCode": "12",
    "prefectureNumber": 12,
    "prefecture": "千葉県",
    "city": "鴨川市",
    "town": "東"
  },
  "2992858": {
    "zipcode": "2992858",
    "prefectureCode": "12",
    "prefectureNumber": 12,
    "prefecture": "千葉県",
    "city": "鴨川市",
    "town": "上"
  },
  "2992861": {
    "zipcode": "2992861",
    "prefectureCode": "12",
    "prefectureNumber": 12,
    "prefecture": "千葉県",
    "city": "鴨川市",
    "town": "太海西"
  },
  "2992862": {
    "zipcode": "2992862",
    "prefectureCode": "12",
    "prefectureNumber": 12,
    "prefecture": "千葉県",
    "city": "鴨川市",
    "town": "太海"
  },
  "2992863": {
    "zipcode": "2992863",
    "prefectureCode": "12",
    "prefectureNumber": 12,
    "prefecture": "千葉県",
    "city": "鴨川市",
    "town": "太海浜"
  },
  "2992864": {
    "zipcode": "2992864",
    "prefectureCode": "12",
    "prefectureNumber": 12,
    "prefecture": "千葉県",
    "city": "鴨川市",
    "town": "天面"
  },
  "2992865": {
    "zipcode": "2992865",
    "prefectureCode": "12",
    "prefectureNumber": 12,
    "prefecture": "千葉県",
    "city": "鴨川市",
    "town": "江見太夫崎"
  },
  "2992866": {
    "zipcode": "2992866",
    "prefectureCode": "12",
    "prefectureNumber": 12,
    "prefecture": "千葉県",
    "city": "鴨川市",
    "town": "江見吉浦"
  },
  "2992867": {
    "zipcode": "2992867",
    "prefectureCode": "12",
    "prefectureNumber": 12,
    "prefecture": "千葉県",
    "city": "鴨川市",
    "town": "西山"
  },
  "2993200": {
    "zipcode": "2993200",
    "prefectureCode": "12",
    "prefectureNumber": 12,
    "prefecture": "千葉県",
    "city": "大網白里市",
    "town": "以下に掲載がない場合"
  },
  "2993201": {
    "zipcode": "2993201",
    "prefectureCode": "12",
    "prefectureNumber": 12,
    "prefecture": "千葉県",
    "city": "大網白里市",
    "town": "北今泉"
  },
  "2993202": {
    "zipcode": "2993202",
    "prefectureCode": "12",
    "prefectureNumber": 12,
    "prefecture": "千葉県",
    "city": "大網白里市",
    "town": "南今泉"
  },
  "2993203": {
    "zipcode": "2993203",
    "prefectureCode": "12",
    "prefectureNumber": 12,
    "prefecture": "千葉県",
    "city": "大網白里市",
    "town": "四天木"
  },
  "2993211": {
    "zipcode": "2993211",
    "prefectureCode": "12",
    "prefectureNumber": 12,
    "prefecture": "千葉県",
    "city": "大網白里市",
    "town": "細草"
  },
  "2993212": {
    "zipcode": "2993212",
    "prefectureCode": "12",
    "prefectureNumber": 12,
    "prefecture": "千葉県",
    "city": "大網白里市",
    "town": "清水"
  },
  "2993213": {
    "zipcode": "2993213",
    "prefectureCode": "12",
    "prefectureNumber": 12,
    "prefecture": "千葉県",
    "city": "大網白里市",
    "town": "二之袋"
  },
  "2993214": {
    "zipcode": "2993214",
    "prefectureCode": "12",
    "prefectureNumber": 12,
    "prefecture": "千葉県",
    "city": "大網白里市",
    "town": "下ヶ傍示"
  },
  "2993215": {
    "zipcode": "2993215",
    "prefectureCode": "12",
    "prefectureNumber": 12,
    "prefecture": "千葉県",
    "city": "大網白里市",
    "town": "長国"
  },
  "2993216": {
    "zipcode": "2993216",
    "prefectureCode": "12",
    "prefectureNumber": 12,
    "prefecture": "千葉県",
    "city": "大網白里市",
    "town": "北吉田"
  },
  "2993217": {
    "zipcode": "2993217",
    "prefectureCode": "12",
    "prefectureNumber": 12,
    "prefecture": "千葉県",
    "city": "大網白里市",
    "town": "木崎"
  },
  "2993218": {
    "zipcode": "2993218",
    "prefectureCode": "12",
    "prefectureNumber": 12,
    "prefecture": "千葉県",
    "city": "大網白里市",
    "town": "北飯塚"
  },
  "2993219": {
    "zipcode": "2993219",
    "prefectureCode": "12",
    "prefectureNumber": 12,
    "prefecture": "千葉県",
    "city": "大網白里市",
    "town": "南飯塚"
  },
  "2993221": {
    "zipcode": "2993221",
    "prefectureCode": "12",
    "prefectureNumber": 12,
    "prefecture": "千葉県",
    "city": "大網白里市",
    "town": "富田"
  },
  "2993222": {
    "zipcode": "2993222",
    "prefectureCode": "12",
    "prefectureNumber": 12,
    "prefecture": "千葉県",
    "city": "大網白里市",
    "town": "星谷"
  },
  "2993223": {
    "zipcode": "2993223",
    "prefectureCode": "12",
    "prefectureNumber": 12,
    "prefecture": "千葉県",
    "city": "大網白里市",
    "town": "南横川"
  },
  "2993231": {
    "zipcode": "2993231",
    "prefectureCode": "12",
    "prefectureNumber": 12,
    "prefecture": "千葉県",
    "city": "大網白里市",
    "town": "経田"
  },
  "2993232": {
    "zipcode": "2993232",
    "prefectureCode": "12",
    "prefectureNumber": 12,
    "prefecture": "千葉県",
    "city": "大網白里市",
    "town": "ながた野"
  },
  "2993233": {
    "zipcode": "2993233",
    "prefectureCode": "12",
    "prefectureNumber": 12,
    "prefecture": "千葉県",
    "city": "大網白里市",
    "town": "永田"
  },
  "2993234": {
    "zipcode": "2993234",
    "prefectureCode": "12",
    "prefectureNumber": 12,
    "prefecture": "千葉県",
    "city": "大網白里市",
    "town": "みずほ台"
  },
  "2993235": {
    "zipcode": "2993235",
    "prefectureCode": "12",
    "prefectureNumber": 12,
    "prefecture": "千葉県",
    "city": "大網白里市",
    "town": "駒込"
  },
  "2993236": {
    "zipcode": "2993236",
    "prefectureCode": "12",
    "prefectureNumber": 12,
    "prefecture": "千葉県",
    "city": "大網白里市",
    "town": "みやこ野"
  },
  "2993237": {
    "zipcode": "2993237",
    "prefectureCode": "12",
    "prefectureNumber": 12,
    "prefecture": "千葉県",
    "city": "大網白里市",
    "town": "仏島"
  },
  "2993238": {
    "zipcode": "2993238",
    "prefectureCode": "12",
    "prefectureNumber": 12,
    "prefecture": "千葉県",
    "city": "大網白里市",
    "town": "東駒込"
  },
  "2993241": {
    "zipcode": "2993241",
    "prefectureCode": "12",
    "prefectureNumber": 12,
    "prefecture": "千葉県",
    "city": "大網白里市",
    "town": "季美の森南"
  },
  "2993242": {
    "zipcode": "2993242",
    "prefectureCode": "12",
    "prefectureNumber": 12,
    "prefecture": "千葉県",
    "city": "大網白里市",
    "town": "金谷郷"
  },
  "2993243": {
    "zipcode": "2993243",
    "prefectureCode": "12",
    "prefectureNumber": 12,
    "prefecture": "千葉県",
    "city": "大網白里市",
    "town": "大竹"
  },
  "2993244": {
    "zipcode": "2993244",
    "prefectureCode": "12",
    "prefectureNumber": 12,
    "prefecture": "千葉県",
    "city": "大網白里市",
    "town": "南玉"
  },
  "2993245": {
    "zipcode": "2993245",
    "prefectureCode": "12",
    "prefectureNumber": 12,
    "prefecture": "千葉県",
    "city": "大網白里市",
    "town": "池田"
  },
  "2993246": {
    "zipcode": "2993246",
    "prefectureCode": "12",
    "prefectureNumber": 12,
    "prefecture": "千葉県",
    "city": "大網白里市",
    "town": "小中"
  },
  "2993247": {
    "zipcode": "2993247",
    "prefectureCode": "12",
    "prefectureNumber": 12,
    "prefecture": "千葉県",
    "city": "大網白里市",
    "town": "神房"
  },
  "2993248": {
    "zipcode": "2993248",
    "prefectureCode": "12",
    "prefectureNumber": 12,
    "prefecture": "千葉県",
    "city": "大網白里市",
    "town": "萱野"
  },
  "2993249": {
    "zipcode": "2993249",
    "prefectureCode": "12",
    "prefectureNumber": 12,
    "prefecture": "千葉県",
    "city": "大網白里市",
    "town": "砂田"
  },
  "2993251": {
    "zipcode": "2993251",
    "prefectureCode": "12",
    "prefectureNumber": 12,
    "prefecture": "千葉県",
    "city": "大網白里市",
    "town": "大網"
  },
  "2993252": {
    "zipcode": "2993252",
    "prefectureCode": "12",
    "prefectureNumber": 12,
    "prefecture": "千葉県",
    "city": "大網白里市",
    "town": "餅木"
  },
  "2993253": {
    "zipcode": "2993253",
    "prefectureCode": "12",
    "prefectureNumber": 12,
    "prefecture": "千葉県",
    "city": "大網白里市",
    "town": "小西"
  },
  "2993254": {
    "zipcode": "2993254",
    "prefectureCode": "12",
    "prefectureNumber": 12,
    "prefecture": "千葉県",
    "city": "大網白里市",
    "town": "養安寺"
  },
  "2993255": {
    "zipcode": "2993255",
    "prefectureCode": "12",
    "prefectureNumber": 12,
    "prefecture": "千葉県",
    "city": "大網白里市",
    "town": "みどりが丘"
  },
  "2993256": {
    "zipcode": "2993256",
    "prefectureCode": "12",
    "prefectureNumber": 12,
    "prefecture": "千葉県",
    "city": "大網白里市",
    "town": "山口"
  },
  "2993261": {
    "zipcode": "2993261",
    "prefectureCode": "12",
    "prefectureNumber": 12,
    "prefecture": "千葉県",
    "city": "大網白里市",
    "town": "九十根"
  },
  "2993262": {
    "zipcode": "2993262",
    "prefectureCode": "12",
    "prefectureNumber": 12,
    "prefecture": "千葉県",
    "city": "大網白里市",
    "town": "桂山"
  },
  "2993263": {
    "zipcode": "2993263",
    "prefectureCode": "12",
    "prefectureNumber": 12,
    "prefecture": "千葉県",
    "city": "大網白里市",
    "town": "柳橋"
  },
  "2993264": {
    "zipcode": "2993264",
    "prefectureCode": "12",
    "prefectureNumber": 12,
    "prefecture": "千葉県",
    "city": "大網白里市",
    "town": "柿餅"
  },
  "2993265": {
    "zipcode": "2993265",
    "prefectureCode": "12",
    "prefectureNumber": 12,
    "prefecture": "千葉県",
    "city": "大網白里市",
    "town": "上貝塚"
  },
  "2993266": {
    "zipcode": "2993266",
    "prefectureCode": "12",
    "prefectureNumber": 12,
    "prefecture": "千葉県",
    "city": "大網白里市",
    "town": "北横川"
  },
  "2993267": {
    "zipcode": "2993267",
    "prefectureCode": "12",
    "prefectureNumber": 12,
    "prefecture": "千葉県",
    "city": "大網白里市",
    "town": "清名幸谷"
  },
  "2993268": {
    "zipcode": "2993268",
    "prefectureCode": "12",
    "prefectureNumber": 12,
    "prefecture": "千葉県",
    "city": "大網白里市",
    "town": "上谷新田"
  },
  "2994101": {
    "zipcode": "2994101",
    "prefectureCode": "12",
    "prefectureNumber": 12,
    "prefecture": "千葉県",
    "city": "茂原市",
    "town": "清水"
  },
  "2994102": {
    "zipcode": "2994102",
    "prefectureCode": "12",
    "prefectureNumber": 12,
    "prefecture": "千葉県",
    "city": "茂原市",
    "town": "御蔵芝"
  },
  "2994103": {
    "zipcode": "2994103",
    "prefectureCode": "12",
    "prefectureNumber": 12,
    "prefecture": "千葉県",
    "city": "茂原市",
    "town": "千沢"
  },
  "2994104": {
    "zipcode": "2994104",
    "prefectureCode": "12",
    "prefectureNumber": 12,
    "prefecture": "千葉県",
    "city": "茂原市",
    "town": "南吉田"
  },
  "2994105": {
    "zipcode": "2994105",
    "prefectureCode": "12",
    "prefectureNumber": 12,
    "prefecture": "千葉県",
    "city": "茂原市",
    "town": "弓渡"
  },
  "2994106": {
    "zipcode": "2994106",
    "prefectureCode": "12",
    "prefectureNumber": 12,
    "prefecture": "千葉県",
    "city": "茂原市",
    "town": "粟生野"
  },
  "2994111": {
    "zipcode": "2994111",
    "prefectureCode": "12",
    "prefectureNumber": 12,
    "prefecture": "千葉県",
    "city": "茂原市",
    "town": "萱場"
  },
  "2994112": {
    "zipcode": "2994112",
    "prefectureCode": "12",
    "prefectureNumber": 12,
    "prefecture": "千葉県",
    "city": "茂原市",
    "town": "西野"
  },
  "2994113": {
    "zipcode": "2994113",
    "prefectureCode": "12",
    "prefectureNumber": 12,
    "prefecture": "千葉県",
    "city": "茂原市",
    "town": "法目"
  },
  "2994114": {
    "zipcode": "2994114",
    "prefectureCode": "12",
    "prefectureNumber": 12,
    "prefecture": "千葉県",
    "city": "茂原市",
    "town": "本納"
  },
  "2994115": {
    "zipcode": "2994115",
    "prefectureCode": "12",
    "prefectureNumber": 12,
    "prefecture": "千葉県",
    "city": "茂原市",
    "town": "榎神房"
  },
  "2994116": {
    "zipcode": "2994116",
    "prefectureCode": "12",
    "prefectureNumber": 12,
    "prefecture": "千葉県",
    "city": "茂原市",
    "town": "高田"
  },
  "2994117": {
    "zipcode": "2994117",
    "prefectureCode": "12",
    "prefectureNumber": 12,
    "prefecture": "千葉県",
    "city": "茂原市",
    "town": "小萱場"
  },
  "2994118": {
    "zipcode": "2994118",
    "prefectureCode": "12",
    "prefectureNumber": 12,
    "prefecture": "千葉県",
    "city": "茂原市",
    "town": "榎神房飛地"
  },
  "2994121": {
    "zipcode": "2994121",
    "prefectureCode": "12",
    "prefectureNumber": 12,
    "prefecture": "千葉県",
    "city": "茂原市",
    "town": "吉井下"
  },
  "2994122": {
    "zipcode": "2994122",
    "prefectureCode": "12",
    "prefectureNumber": 12,
    "prefecture": "千葉県",
    "city": "茂原市",
    "town": "吉井上"
  },
  "2994123": {
    "zipcode": "2994123",
    "prefectureCode": "12",
    "prefectureNumber": 12,
    "prefecture": "千葉県",
    "city": "茂原市",
    "town": "下太田"
  },
  "2994124": {
    "zipcode": "2994124",
    "prefectureCode": "12",
    "prefectureNumber": 12,
    "prefecture": "千葉県",
    "city": "茂原市",
    "town": "上太田"
  },
  "2994125": {
    "zipcode": "2994125",
    "prefectureCode": "12",
    "prefectureNumber": 12,
    "prefecture": "千葉県",
    "city": "茂原市",
    "town": "大沢"
  },
  "2994126": {
    "zipcode": "2994126",
    "prefectureCode": "12",
    "prefectureNumber": 12,
    "prefecture": "千葉県",
    "city": "茂原市",
    "town": "柴名"
  },
  "2994127": {
    "zipcode": "2994127",
    "prefectureCode": "12",
    "prefectureNumber": 12,
    "prefecture": "千葉県",
    "city": "茂原市",
    "town": "桂"
  },
  "2994128": {
    "zipcode": "2994128",
    "prefectureCode": "12",
    "prefectureNumber": 12,
    "prefecture": "千葉県",
    "city": "茂原市",
    "town": "桂飛地"
  },
  "2994129": {
    "zipcode": "2994129",
    "prefectureCode": "12",
    "prefectureNumber": 12,
    "prefecture": "千葉県",
    "city": "茂原市",
    "town": "にいはる工業団地"
  },
  "2994200": {
    "zipcode": "2994200",
    "prefectureCode": "12",
    "prefectureNumber": 12,
    "prefecture": "千葉県",
    "city": "長生郡白子町",
    "town": "以下に掲載がない場合"
  },
  "2994201": {
    "zipcode": "2994201",
    "prefectureCode": "12",
    "prefectureNumber": 12,
    "prefecture": "千葉県",
    "city": "長生郡白子町",
    "town": "浜宿"
  },
  "2994202": {
    "zipcode": "2994202",
    "prefectureCode": "12",
    "prefectureNumber": 12,
    "prefecture": "千葉県",
    "city": "長生郡白子町",
    "town": "牛込"
  },
  "2994203": {
    "zipcode": "2994203",
    "prefectureCode": "12",
    "prefectureNumber": 12,
    "prefecture": "千葉県",
    "city": "長生郡白子町",
    "town": "剃金"
  },
  "2994204": {
    "zipcode": "2994204",
    "prefectureCode": "12",
    "prefectureNumber": 12,
    "prefecture": "千葉県",
    "city": "長生郡白子町",
    "town": "福島"
  },
  "2994205": {
    "zipcode": "2994205",
    "prefectureCode": "12",
    "prefectureNumber": 12,
    "prefecture": "千葉県",
    "city": "長生郡白子町",
    "town": "南日当"
  },
  "2994206": {
    "zipcode": "2994206",
    "prefectureCode": "12",
    "prefectureNumber": 12,
    "prefecture": "千葉県",
    "city": "長生郡白子町",
    "town": "北日当"
  },
  "2994211": {
    "zipcode": "2994211",
    "prefectureCode": "12",
    "prefectureNumber": 12,
    "prefecture": "千葉県",
    "city": "長生郡白子町",
    "town": "五井"
  },
  "2994212": {
    "zipcode": "2994212",
    "prefectureCode": "12",
    "prefectureNumber": 12,
    "prefecture": "千葉県",
    "city": "長生郡白子町",
    "town": "古所"
  },
  "2994213": {
    "zipcode": "2994213",
    "prefectureCode": "12",
    "prefectureNumber": 12,
    "prefecture": "千葉県",
    "city": "長生郡白子町",
    "town": "八斗"
  },
  "2994214": {
    "zipcode": "2994214",
    "prefectureCode": "12",
    "prefectureNumber": 12,
    "prefecture": "千葉県",
    "city": "長生郡白子町",
    "town": "驚"
  },
  "2994215": {
    "zipcode": "2994215",
    "prefectureCode": "12",
    "prefectureNumber": 12,
    "prefecture": "千葉県",
    "city": "長生郡白子町",
    "town": "中里"
  },
  "2994216": {
    "zipcode": "2994216",
    "prefectureCode": "12",
    "prefectureNumber": 12,
    "prefecture": "千葉県",
    "city": "長生郡白子町",
    "town": "幸治"
  },
  "2994217": {
    "zipcode": "2994217",
    "prefectureCode": "12",
    "prefectureNumber": 12,
    "prefecture": "千葉県",
    "city": "長生郡白子町",
    "town": "北高根"
  },
  "2994218": {
    "zipcode": "2994218",
    "prefectureCode": "12",
    "prefectureNumber": 12,
    "prefecture": "千葉県",
    "city": "長生郡白子町",
    "town": "関"
  },
  "2994300": {
    "zipcode": "2994300",
    "prefectureCode": "12",
    "prefectureNumber": 12,
    "prefecture": "千葉県",
    "city": "長生郡長生村",
    "town": "以下に掲載がない場合"
  },
  "2994301": {
    "zipcode": "2994301",
    "prefectureCode": "12",
    "prefectureNumber": 12,
    "prefecture": "千葉県",
    "city": "長生郡一宮町",
    "town": "一宮"
  },
  "2994302": {
    "zipcode": "2994302",
    "prefectureCode": "12",
    "prefectureNumber": 12,
    "prefecture": "千葉県",
    "city": "長生郡一宮町",
    "town": "田町"
  },
  "2994303": {
    "zipcode": "2994303",
    "prefectureCode": "12",
    "prefectureNumber": 12,
    "prefecture": "千葉県",
    "city": "長生郡一宮町",
    "town": "東浪見"
  },
  "2994304": {
    "zipcode": "2994304",
    "prefectureCode": "12",
    "prefectureNumber": 12,
    "prefecture": "千葉県",
    "city": "長生郡一宮町",
    "town": "綱田"
  },
  "2994305": {
    "zipcode": "2994305",
    "prefectureCode": "12",
    "prefectureNumber": 12,
    "prefecture": "千葉県",
    "city": "長生郡一宮町",
    "town": "本給"
  },
  "2994306": {
    "zipcode": "2994306",
    "prefectureCode": "12",
    "prefectureNumber": 12,
    "prefecture": "千葉県",
    "city": "長生郡一宮町",
    "town": "東野"
  },
  "2994311": {
    "zipcode": "2994311",
    "prefectureCode": "12",
    "prefectureNumber": 12,
    "prefecture": "千葉県",
    "city": "長生郡一宮町",
    "town": "白山"
  },
  "2994312": {
    "zipcode": "2994312",
    "prefectureCode": "12",
    "prefectureNumber": 12,
    "prefecture": "千葉県",
    "city": "長生郡一宮町",
    "town": "宮原"
  },
  "2994313": {
    "zipcode": "2994313",
    "prefectureCode": "12",
    "prefectureNumber": 12,
    "prefecture": "千葉県",
    "city": "長生郡一宮町",
    "town": "船頭給"
  },
  "2994314": {
    "zipcode": "2994314",
    "prefectureCode": "12",
    "prefectureNumber": 12,
    "prefecture": "千葉県",
    "city": "長生郡一宮町",
    "town": "新地"
  },
  "2994315": {
    "zipcode": "2994315",
    "prefectureCode": "12",
    "prefectureNumber": 12,
    "prefecture": "千葉県",
    "city": "長生郡一宮町",
    "town": "新地甲"
  },
  "2994316": {
    "zipcode": "2994316",
    "prefectureCode": "12",
    "prefectureNumber": 12,
    "prefecture": "千葉県",
    "city": "長生郡一宮町",
    "town": "新地丙"
  },
  "2994321": {
    "zipcode": "2994321",
    "prefectureCode": "12",
    "prefectureNumber": 12,
    "prefecture": "千葉県",
    "city": "長生郡長生村",
    "town": "入山津"
  },
  "2994322": {
    "zipcode": "2994322",
    "prefectureCode": "12",
    "prefectureNumber": 12,
    "prefecture": "千葉県",
    "city": "長生郡長生村",
    "town": "驚"
  },
  "2994323": {
    "zipcode": "2994323",
    "prefectureCode": "12",
    "prefectureNumber": 12,
    "prefecture": "千葉県",
    "city": "長生郡長生村",
    "town": "一松戊"
  },
  "2994324": {
    "zipcode": "2994324",
    "prefectureCode": "12",
    "prefectureNumber": 12,
    "prefecture": "千葉県",
    "city": "長生郡長生村",
    "town": "一松丁"
  },
  "2994325": {
    "zipcode": "2994325",
    "prefectureCode": "12",
    "prefectureNumber": 12,
    "prefecture": "千葉県",
    "city": "長生郡長生村",
    "town": "一松丙"
  },
  "2994326": {
    "zipcode": "2994326",
    "prefectureCode": "12",
    "prefectureNumber": 12,
    "prefecture": "千葉県",
    "city": "長生郡長生村",
    "town": "一松乙"
  },
  "2994327": {
    "zipcode": "2994327",
    "prefectureCode": "12",
    "prefectureNumber": 12,
    "prefecture": "千葉県",
    "city": "長生郡長生村",
    "town": "一松"
  },
  "2994328": {
    "zipcode": "2994328",
    "prefectureCode": "12",
    "prefectureNumber": 12,
    "prefecture": "千葉県",
    "city": "長生郡長生村",
    "town": "一松甲"
  },
  "2994331": {
    "zipcode": "2994331",
    "prefectureCode": "12",
    "prefectureNumber": 12,
    "prefecture": "千葉県",
    "city": "長生郡長生村",
    "town": "信友"
  },
  "2994332": {
    "zipcode": "2994332",
    "prefectureCode": "12",
    "prefectureNumber": 12,
    "prefecture": "千葉県",
    "city": "長生郡長生村",
    "town": "金田"
  },
  "2994333": {
    "zipcode": "2994333",
    "prefectureCode": "12",
    "prefectureNumber": 12,
    "prefecture": "千葉県",
    "city": "長生郡長生村",
    "town": "七井土"
  },
  "2994334": {
    "zipcode": "2994334",
    "prefectureCode": "12",
    "prefectureNumber": 12,
    "prefecture": "千葉県",
    "city": "長生郡長生村",
    "town": "薮塚"
  },
  "2994335": {
    "zipcode": "2994335",
    "prefectureCode": "12",
    "prefectureNumber": 12,
    "prefecture": "千葉県",
    "city": "長生郡長生村",
    "town": "水口"
  },
  "2994336": {
    "zipcode": "2994336",
    "prefectureCode": "12",
    "prefectureNumber": 12,
    "prefecture": "千葉県",
    "city": "長生郡長生村",
    "town": "岩沼"
  },
  "2994337": {
    "zipcode": "2994337",
    "prefectureCode": "12",
    "prefectureNumber": 12,
    "prefecture": "千葉県",
    "city": "長生郡長生村",
    "town": "北水口"
  },
  "2994338": {
    "zipcode": "2994338",
    "prefectureCode": "12",
    "prefectureNumber": 12,
    "prefecture": "千葉県",
    "city": "長生郡長生村",
    "town": "六ツ野飛地"
  },
  "2994341": {
    "zipcode": "2994341",
    "prefectureCode": "12",
    "prefectureNumber": 12,
    "prefecture": "千葉県",
    "city": "長生郡長生村",
    "town": "宮成"
  },
  "2994342": {
    "zipcode": "2994342",
    "prefectureCode": "12",
    "prefectureNumber": 12,
    "prefecture": "千葉県",
    "city": "長生郡長生村",
    "town": "一松飛地甲"
  },
  "2994343": {
    "zipcode": "2994343",
    "prefectureCode": "12",
    "prefectureNumber": 12,
    "prefecture": "千葉県",
    "city": "長生郡長生村",
    "town": "岩沼飛地"
  },
  "2994344": {
    "zipcode": "2994344",
    "prefectureCode": "12",
    "prefectureNumber": 12,
    "prefecture": "千葉県",
    "city": "長生郡長生村",
    "town": "曽根"
  },
  "2994345": {
    "zipcode": "2994345",
    "prefectureCode": "12",
    "prefectureNumber": 12,
    "prefecture": "千葉県",
    "city": "長生郡長生村",
    "town": "本郷"
  },
  "2994346": {
    "zipcode": "2994346",
    "prefectureCode": "12",
    "prefectureNumber": 12,
    "prefecture": "千葉県",
    "city": "長生郡長生村",
    "town": "中之郷"
  },
  "2994347": {
    "zipcode": "2994347",
    "prefectureCode": "12",
    "prefectureNumber": 12,
    "prefecture": "千葉県",
    "city": "長生郡長生村",
    "town": "小泉"
  },
  "2994400": {
    "zipcode": "2994400",
    "prefectureCode": "12",
    "prefectureNumber": 12,
    "prefecture": "千葉県",
    "city": "長生郡睦沢町",
    "town": "以下に掲載がない場合"
  },
  "2994401": {
    "zipcode": "2994401",
    "prefectureCode": "12",
    "prefectureNumber": 12,
    "prefecture": "千葉県",
    "city": "長生郡睦沢町",
    "town": "寺崎"
  },
  "2994402": {
    "zipcode": "2994402",
    "prefectureCode": "12",
    "prefectureNumber": 12,
    "prefecture": "千葉県",
    "city": "長生郡睦沢町",
    "town": "川島"
  },
  "2994403": {
    "zipcode": "2994403",
    "prefectureCode": "12",
    "prefectureNumber": 12,
    "prefecture": "千葉県",
    "city": "長生郡睦沢町",
    "town": "上市場"
  },
  "2994404": {
    "zipcode": "2994404",
    "prefectureCode": "12",
    "prefectureNumber": 12,
    "prefecture": "千葉県",
    "city": "長生郡睦沢町",
    "town": "北山田"
  },
  "2994405": {
    "zipcode": "2994405",
    "prefectureCode": "12",
    "prefectureNumber": 12,
    "prefecture": "千葉県",
    "city": "長生郡睦沢町",
    "town": "大谷木"
  },
  "2994406": {
    "zipcode": "2994406",
    "prefectureCode": "12",
    "prefectureNumber": 12,
    "prefecture": "千葉県",
    "city": "長生郡睦沢町",
    "town": "北山田寺崎新田"
  },
  "2994411": {
    "zipcode": "2994411",
    "prefectureCode": "12",
    "prefectureNumber": 12,
    "prefecture": "千葉県",
    "city": "長生郡睦沢町",
    "town": "河須ケ谷"
  },
  "2994412": {
    "zipcode": "2994412",
    "prefectureCode": "12",
    "prefectureNumber": 12,
    "prefecture": "千葉県",
    "city": "長生郡睦沢町",
    "town": "岩井"
  },
  "2994413": {
    "zipcode": "2994413",
    "prefectureCode": "12",
    "prefectureNumber": 12,
    "prefecture": "千葉県",
    "city": "長生郡睦沢町",
    "town": "上之郷"
  },
  "2994414": {
    "zipcode": "2994414",
    "prefectureCode": "12",
    "prefectureNumber": 12,
    "prefecture": "千葉県",
    "city": "長生郡睦沢町",
    "town": "下之郷"
  },
  "2994415": {
    "zipcode": "2994415",
    "prefectureCode": "12",
    "prefectureNumber": 12,
    "prefecture": "千葉県",
    "city": "長生郡睦沢町",
    "town": "小滝"
  },
  "2994421": {
    "zipcode": "2994421",
    "prefectureCode": "12",
    "prefectureNumber": 12,
    "prefecture": "千葉県",
    "city": "長生郡睦沢町",
    "town": "長楽寺"
  },
  "2994422": {
    "zipcode": "2994422",
    "prefectureCode": "12",
    "prefectureNumber": 12,
    "prefecture": "千葉県",
    "city": "長生郡睦沢町",
    "town": "森"
  },
  "2994423": {
    "zipcode": "2994423",
    "prefectureCode": "12",
    "prefectureNumber": 12,
    "prefecture": "千葉県",
    "city": "長生郡睦沢町",
    "town": "大上"
  },
  "2994424": {
    "zipcode": "2994424",
    "prefectureCode": "12",
    "prefectureNumber": 12,
    "prefecture": "千葉県",
    "city": "長生郡睦沢町",
    "town": "妙楽寺"
  },
  "2994425": {
    "zipcode": "2994425",
    "prefectureCode": "12",
    "prefectureNumber": 12,
    "prefecture": "千葉県",
    "city": "長生郡睦沢町",
    "town": "佐貫"
  },
  "2994501": {
    "zipcode": "2994501",
    "prefectureCode": "12",
    "prefectureNumber": 12,
    "prefecture": "千葉県",
    "city": "いすみ市",
    "town": "岬町椎木"
  },
  "2994502": {
    "zipcode": "2994502",
    "prefectureCode": "12",
    "prefectureNumber": 12,
    "prefecture": "千葉県",
    "city": "いすみ市",
    "town": "岬町中原"
  },
  "2994503": {
    "zipcode": "2994503",
    "prefectureCode": "12",
    "prefectureNumber": 12,
    "prefecture": "千葉県",
    "city": "いすみ市",
    "town": "岬町和泉（その他）"
  },
  "2994504": {
    "zipcode": "2994504",
    "prefectureCode": "12",
    "prefectureNumber": 12,
    "prefecture": "千葉県",
    "city": "いすみ市",
    "town": "岬町桑田"
  },
  "2994505": {
    "zipcode": "2994505",
    "prefectureCode": "12",
    "prefectureNumber": 12,
    "prefecture": "千葉県",
    "city": "いすみ市",
    "town": "岬町岩熊"
  },
  "2994506": {
    "zipcode": "2994506",
    "prefectureCode": "12",
    "prefectureNumber": 12,
    "prefecture": "千葉県",
    "city": "いすみ市",
    "town": "岬町市野々"
  },
  "2994507": {
    "zipcode": "2994507",
    "prefectureCode": "12",
    "prefectureNumber": 12,
    "prefecture": "千葉県",
    "city": "いすみ市",
    "town": "岬町谷上"
  },
  "2994508": {
    "zipcode": "2994508",
    "prefectureCode": "12",
    "prefectureNumber": 12,
    "prefecture": "千葉県",
    "city": "いすみ市",
    "town": "岬町榎沢"
  },
  "2994611": {
    "zipcode": "2994611",
    "prefectureCode": "12",
    "prefectureNumber": 12,
    "prefecture": "千葉県",
    "city": "いすみ市",
    "town": "岬町和泉（４４００番以上）"
  },
  "2994612": {
    "zipcode": "2994612",
    "prefectureCode": "12",
    "prefectureNumber": 12,
    "prefecture": "千葉県",
    "city": "いすみ市",
    "town": "岬町江場土"
  },
  "2994613": {
    "zipcode": "2994613",
    "prefectureCode": "12",
    "prefectureNumber": 12,
    "prefecture": "千葉県",
    "city": "いすみ市",
    "town": "岬町三門"
  },
  "2994614": {
    "zipcode": "2994614",
    "prefectureCode": "12",
    "prefectureNumber": 12,
    "prefecture": "千葉県",
    "city": "いすみ市",
    "town": "岬町東小高"
  },
  "2994615": {
    "zipcode": "2994615",
    "prefectureCode": "12",
    "prefectureNumber": 12,
    "prefecture": "千葉県",
    "city": "いすみ市",
    "town": "岬町井沢"
  },
  "2994616": {
    "zipcode": "2994616",
    "prefectureCode": "12",
    "prefectureNumber": 12,
    "prefecture": "千葉県",
    "city": "いすみ市",
    "town": "岬町長者"
  },
  "2994621": {
    "zipcode": "2994621",
    "prefectureCode": "12",
    "prefectureNumber": 12,
    "prefecture": "千葉県",
    "city": "いすみ市",
    "town": "岬町東中滝"
  },
  "2994622": {
    "zipcode": "2994622",
    "prefectureCode": "12",
    "prefectureNumber": 12,
    "prefecture": "千葉県",
    "city": "いすみ市",
    "town": "岬町押日"
  },
  "2994623": {
    "zipcode": "2994623",
    "prefectureCode": "12",
    "prefectureNumber": 12,
    "prefecture": "千葉県",
    "city": "いすみ市",
    "town": "岬町中滝"
  },
  "2994624": {
    "zipcode": "2994624",
    "prefectureCode": "12",
    "prefectureNumber": 12,
    "prefecture": "千葉県",
    "city": "いすみ市",
    "town": "岬町鴨根"
  },
  "2994625": {
    "zipcode": "2994625",
    "prefectureCode": "12",
    "prefectureNumber": 12,
    "prefecture": "千葉県",
    "city": "いすみ市",
    "town": "岬町嘉谷"
  },
  "2995100": {
    "zipcode": "2995100",
    "prefectureCode": "12",
    "prefectureNumber": 12,
    "prefecture": "千葉県",
    "city": "夷隅郡御宿町",
    "town": "以下に掲載がない場合"
  },
  "2995101": {
    "zipcode": "2995101",
    "prefectureCode": "12",
    "prefectureNumber": 12,
    "prefecture": "千葉県",
    "city": "夷隅郡御宿町",
    "town": "高山田"
  },
  "2995102": {
    "zipcode": "2995102",
    "prefectureCode": "12",
    "prefectureNumber": 12,
    "prefecture": "千葉県",
    "city": "夷隅郡御宿町",
    "town": "久保"
  },
  "2995103": {
    "zipcode": "2995103",
    "prefectureCode": "12",
    "prefectureNumber": 12,
    "prefecture": "千葉県",
    "city": "夷隅郡御宿町",
    "town": "新町"
  },
  "2995104": {
    "zipcode": "2995104",
    "prefectureCode": "12",
    "prefectureNumber": 12,
    "prefecture": "千葉県",
    "city": "夷隅郡御宿町",
    "town": "六軒町"
  },
  "2995105": {
    "zipcode": "2995105",
    "prefectureCode": "12",
    "prefectureNumber": 12,
    "prefecture": "千葉県",
    "city": "夷隅郡御宿町",
    "town": "岩和田"
  },
  "2995106": {
    "zipcode": "2995106",
    "prefectureCode": "12",
    "prefectureNumber": 12,
    "prefecture": "千葉県",
    "city": "夷隅郡御宿町",
    "town": "須賀"
  },
  "2995107": {
    "zipcode": "2995107",
    "prefectureCode": "12",
    "prefectureNumber": 12,
    "prefecture": "千葉県",
    "city": "夷隅郡御宿町",
    "town": "浜"
  },
  "2995111": {
    "zipcode": "2995111",
    "prefectureCode": "12",
    "prefectureNumber": 12,
    "prefecture": "千葉県",
    "city": "夷隅郡御宿町",
    "town": "上布施"
  },
  "2995112": {
    "zipcode": "2995112",
    "prefectureCode": "12",
    "prefectureNumber": 12,
    "prefecture": "千葉県",
    "city": "夷隅郡御宿町",
    "town": "御宿台"
  },
  "2995113": {
    "zipcode": "2995113",
    "prefectureCode": "12",
    "prefectureNumber": 12,
    "prefecture": "千葉県",
    "city": "夷隅郡御宿町",
    "town": "七本"
  },
  "2995114": {
    "zipcode": "2995114",
    "prefectureCode": "12",
    "prefectureNumber": 12,
    "prefecture": "千葉県",
    "city": "夷隅郡御宿町",
    "town": "実谷"
  },
  "2995200": {
    "zipcode": "2995200",
    "prefectureCode": "12",
    "prefectureNumber": 12,
    "prefecture": "千葉県",
    "city": "勝浦市",
    "town": "以下に掲載がない場合"
  },
  "2995201": {
    "zipcode": "2995201",
    "prefectureCode": "12",
    "prefectureNumber": 12,
    "prefecture": "千葉県",
    "city": "勝浦市",
    "town": "市野郷"
  },
  "2995202": {
    "zipcode": "2995202",
    "prefectureCode": "12",
    "prefectureNumber": 12,
    "prefecture": "千葉県",
    "city": "勝浦市",
    "town": "市野川"
  },
  "2995203": {
    "zipcode": "2995203",
    "prefectureCode": "12",
    "prefectureNumber": 12,
    "prefecture": "千葉県",
    "city": "勝浦市",
    "town": "花里"
  },
  "2995204": {
    "zipcode": "2995204",
    "prefectureCode": "12",
    "prefectureNumber": 12,
    "prefecture": "千葉県",
    "city": "勝浦市",
    "town": "中倉"
  },
  "2995205": {
    "zipcode": "2995205",
    "prefectureCode": "12",
    "prefectureNumber": 12,
    "prefecture": "千葉県",
    "city": "勝浦市",
    "town": "杉戸"
  },
  "2995206": {
    "zipcode": "2995206",
    "prefectureCode": "12",
    "prefectureNumber": 12,
    "prefecture": "千葉県",
    "city": "勝浦市",
    "town": "佐野"
  },
  "2995211": {
    "zipcode": "2995211",
    "prefectureCode": "12",
    "prefectureNumber": 12,
    "prefecture": "千葉県",
    "city": "勝浦市",
    "town": "松野"
  },
  "2995212": {
    "zipcode": "2995212",
    "prefectureCode": "12",
    "prefectureNumber": 12,
    "prefecture": "千葉県",
    "city": "勝浦市",
    "town": "蟹田"
  },
  "2995213": {
    "zipcode": "2995213",
    "prefectureCode": "12",
    "prefectureNumber": 12,
    "prefecture": "千葉県",
    "city": "勝浦市",
    "town": "芳賀"
  },
  "2995214": {
    "zipcode": "2995214",
    "prefectureCode": "12",
    "prefectureNumber": 12,
    "prefecture": "千葉県",
    "city": "勝浦市",
    "town": "白木"
  },
  "2995215": {
    "zipcode": "2995215",
    "prefectureCode": "12",
    "prefectureNumber": 12,
    "prefecture": "千葉県",
    "city": "勝浦市",
    "town": "白井久保"
  },
  "2995216": {
    "zipcode": "2995216",
    "prefectureCode": "12",
    "prefectureNumber": 12,
    "prefecture": "千葉県",
    "city": "勝浦市",
    "town": "宿戸"
  },
  "2995217": {
    "zipcode": "2995217",
    "prefectureCode": "12",
    "prefectureNumber": 12,
    "prefecture": "千葉県",
    "city": "勝浦市",
    "town": "大楠"
  },
  "2995218": {
    "zipcode": "2995218",
    "prefectureCode": "12",
    "prefectureNumber": 12,
    "prefecture": "千葉県",
    "city": "勝浦市",
    "town": "小羽戸"
  },
  "2995219": {
    "zipcode": "2995219",
    "prefectureCode": "12",
    "prefectureNumber": 12,
    "prefecture": "千葉県",
    "city": "勝浦市",
    "town": "小松野"
  },
  "2995221": {
    "zipcode": "2995221",
    "prefectureCode": "12",
    "prefectureNumber": 12,
    "prefecture": "千葉県",
    "city": "勝浦市",
    "town": "平田"
  },
  "2995222": {
    "zipcode": "2995222",
    "prefectureCode": "12",
    "prefectureNumber": 12,
    "prefecture": "千葉県",
    "city": "勝浦市",
    "town": "関谷"
  },
  "2995223": {
    "zipcode": "2995223",
    "prefectureCode": "12",
    "prefectureNumber": 12,
    "prefecture": "千葉県",
    "city": "勝浦市",
    "town": "部原"
  },
  "2995224": {
    "zipcode": "2995224",
    "prefectureCode": "12",
    "prefectureNumber": 12,
    "prefecture": "千葉県",
    "city": "勝浦市",
    "town": "新官"
  },
  "2995225": {
    "zipcode": "2995225",
    "prefectureCode": "12",
    "prefectureNumber": 12,
    "prefecture": "千葉県",
    "city": "勝浦市",
    "town": "墨名"
  },
  "2995226": {
    "zipcode": "2995226",
    "prefectureCode": "12",
    "prefectureNumber": 12,
    "prefecture": "千葉県",
    "city": "勝浦市",
    "town": "串浜"
  },
  "2995227": {
    "zipcode": "2995227",
    "prefectureCode": "12",
    "prefectureNumber": 12,
    "prefecture": "千葉県",
    "city": "勝浦市",
    "town": "中谷"
  },
  "2995228": {
    "zipcode": "2995228",
    "prefectureCode": "12",
    "prefectureNumber": 12,
    "prefecture": "千葉県",
    "city": "勝浦市",
    "town": "新戸"
  },
  "2995231": {
    "zipcode": "2995231",
    "prefectureCode": "12",
    "prefectureNumber": 12,
    "prefecture": "千葉県",
    "city": "勝浦市",
    "town": "沢倉"
  },
  "2995232": {
    "zipcode": "2995232",
    "prefectureCode": "12",
    "prefectureNumber": 12,
    "prefecture": "千葉県",
    "city": "勝浦市",
    "town": "川津"
  },
  "2995233": {
    "zipcode": "2995233",
    "prefectureCode": "12",
    "prefectureNumber": 12,
    "prefecture": "千葉県",
    "city": "勝浦市",
    "town": "浜勝浦"
  },
  "2995234": {
    "zipcode": "2995234",
    "prefectureCode": "12",
    "prefectureNumber": 12,
    "prefecture": "千葉県",
    "city": "勝浦市",
    "town": "勝浦"
  },
  "2995235": {
    "zipcode": "2995235",
    "prefectureCode": "12",
    "prefectureNumber": 12,
    "prefecture": "千葉県",
    "city": "勝浦市",
    "town": "出水"
  },
  "2995241": {
    "zipcode": "2995241",
    "prefectureCode": "12",
    "prefectureNumber": 12,
    "prefecture": "千葉県",
    "city": "勝浦市",
    "town": "松部"
  },
  "2995242": {
    "zipcode": "2995242",
    "prefectureCode": "12",
    "prefectureNumber": 12,
    "prefecture": "千葉県",
    "city": "勝浦市",
    "town": "吉尾"
  },
  "2995243": {
    "zipcode": "2995243",
    "prefectureCode": "12",
    "prefectureNumber": 12,
    "prefecture": "千葉県",
    "city": "勝浦市",
    "town": "鵜原"
  },
  "2995244": {
    "zipcode": "2995244",
    "prefectureCode": "12",
    "prefectureNumber": 12,
    "prefecture": "千葉県",
    "city": "勝浦市",
    "town": "守谷"
  },
  "2995245": {
    "zipcode": "2995245",
    "prefectureCode": "12",
    "prefectureNumber": 12,
    "prefecture": "千葉県",
    "city": "勝浦市",
    "town": "興津"
  },
  "2995246": {
    "zipcode": "2995246",
    "prefectureCode": "12",
    "prefectureNumber": 12,
    "prefecture": "千葉県",
    "city": "勝浦市",
    "town": "興津久保山台"
  },
  "2995251": {
    "zipcode": "2995251",
    "prefectureCode": "12",
    "prefectureNumber": 12,
    "prefecture": "千葉県",
    "city": "勝浦市",
    "town": "大森上植野入会地"
  },
  "2995252": {
    "zipcode": "2995252",
    "prefectureCode": "12",
    "prefectureNumber": 12,
    "prefecture": "千葉県",
    "city": "勝浦市",
    "town": "上植野"
  },
  "2995253": {
    "zipcode": "2995253",
    "prefectureCode": "12",
    "prefectureNumber": 12,
    "prefecture": "千葉県",
    "city": "勝浦市",
    "town": "名木"
  },
  "2995254": {
    "zipcode": "2995254",
    "prefectureCode": "12",
    "prefectureNumber": 12,
    "prefecture": "千葉県",
    "city": "勝浦市",
    "town": "台宿"
  },
  "2995255": {
    "zipcode": "2995255",
    "prefectureCode": "12",
    "prefectureNumber": 12,
    "prefecture": "千葉県",
    "city": "勝浦市",
    "town": "浜行川"
  },
  "2995256": {
    "zipcode": "2995256",
    "prefectureCode": "12",
    "prefectureNumber": 12,
    "prefecture": "千葉県",
    "city": "勝浦市",
    "town": "大沢"
  },
  "2995261": {
    "zipcode": "2995261",
    "prefectureCode": "12",
    "prefectureNumber": 12,
    "prefecture": "千葉県",
    "city": "勝浦市",
    "town": "大森"
  },
  "2995262": {
    "zipcode": "2995262",
    "prefectureCode": "12",
    "prefectureNumber": 12,
    "prefecture": "千葉県",
    "city": "勝浦市",
    "town": "中里"
  },
  "2995263": {
    "zipcode": "2995263",
    "prefectureCode": "12",
    "prefectureNumber": 12,
    "prefecture": "千葉県",
    "city": "勝浦市",
    "town": "赤羽根"
  },
  "2995264": {
    "zipcode": "2995264",
    "prefectureCode": "12",
    "prefectureNumber": 12,
    "prefecture": "千葉県",
    "city": "勝浦市",
    "town": "中島"
  },
  "2995265": {
    "zipcode": "2995265",
    "prefectureCode": "12",
    "prefectureNumber": 12,
    "prefecture": "千葉県",
    "city": "勝浦市",
    "town": "植野"
  },
  "2995266": {
    "zipcode": "2995266",
    "prefectureCode": "12",
    "prefectureNumber": 12,
    "prefecture": "千葉県",
    "city": "勝浦市",
    "town": "上野"
  },
  "2995267": {
    "zipcode": "2995267",
    "prefectureCode": "12",
    "prefectureNumber": 12,
    "prefecture": "千葉県",
    "city": "勝浦市",
    "town": "植野元宮田"
  },
  "2995271": {
    "zipcode": "2995271",
    "prefectureCode": "12",
    "prefectureNumber": 12,
    "prefecture": "千葉県",
    "city": "勝浦市",
    "town": "法花"
  },
  "2995272": {
    "zipcode": "2995272",
    "prefectureCode": "12",
    "prefectureNumber": 12,
    "prefecture": "千葉県",
    "city": "勝浦市",
    "town": "貝掛"
  },
  "2995273": {
    "zipcode": "2995273",
    "prefectureCode": "12",
    "prefectureNumber": 12,
    "prefecture": "千葉県",
    "city": "勝浦市",
    "town": "荒川"
  },
  "2995274": {
    "zipcode": "2995274",
    "prefectureCode": "12",
    "prefectureNumber": 12,
    "prefecture": "千葉県",
    "city": "勝浦市",
    "town": "南山田"
  },
  "2995501": {
    "zipcode": "2995501",
    "prefectureCode": "12",
    "prefectureNumber": 12,
    "prefecture": "千葉県",
    "city": "鴨川市",
    "town": "小湊"
  },
  "2995502": {
    "zipcode": "2995502",
    "prefectureCode": "12",
    "prefectureNumber": 12,
    "prefecture": "千葉県",
    "city": "鴨川市",
    "town": "内浦"
  },
  "2995503": {
    "zipcode": "2995503",
    "prefectureCode": "12",
    "prefectureNumber": 12,
    "prefecture": "千葉県",
    "city": "鴨川市",
    "town": "天津"
  },
  "2995504": {
    "zipcode": "2995504",
    "prefectureCode": "12",
    "prefectureNumber": 12,
    "prefecture": "千葉県",
    "city": "鴨川市",
    "town": "浜荻"
  },
  "2995505": {
    "zipcode": "2995505",
    "prefectureCode": "12",
    "prefectureNumber": 12,
    "prefecture": "千葉県",
    "city": "鴨川市",
    "town": "清澄"
  },
  "2995506": {
    "zipcode": "2995506",
    "prefectureCode": "12",
    "prefectureNumber": 12,
    "prefecture": "千葉県",
    "city": "鴨川市",
    "town": "四方木"
  }
}
