{
  "3020000": {
    "zipcode": "3020000",
    "prefectureCode": "08",
    "prefectureNumber": 8,
    "prefecture": "茨城県",
    "city": "取手市",
    "town": "以下に掲載がない場合"
  },
  "3020001": {
    "zipcode": "3020001",
    "prefectureCode": "08",
    "prefectureNumber": 8,
    "prefecture": "茨城県",
    "city": "取手市",
    "town": "小文間"
  },
  "3020002": {
    "zipcode": "3020002",
    "prefectureCode": "08",
    "prefectureNumber": 8,
    "prefecture": "茨城県",
    "city": "取手市",
    "town": "長兵衛新田"
  },
  "3020003": {
    "zipcode": "3020003",
    "prefectureCode": "08",
    "prefectureNumber": 8,
    "prefecture": "茨城県",
    "city": "取手市",
    "town": "小堀"
  },
  "3020004": {
    "zipcode": "3020004",
    "prefectureCode": "08",
    "prefectureNumber": 8,
    "prefecture": "茨城県",
    "city": "取手市",
    "town": "取手"
  },
  "3020005": {
    "zipcode": "3020005",
    "prefectureCode": "08",
    "prefectureNumber": 8,
    "prefecture": "茨城県",
    "city": "取手市",
    "town": "東"
  },
  "3020006": {
    "zipcode": "3020006",
    "prefectureCode": "08",
    "prefectureNumber": 8,
    "prefecture": "茨城県",
    "city": "取手市",
    "town": "青柳"
  },
  "3020007": {
    "zipcode": "3020007",
    "prefectureCode": "08",
    "prefectureNumber": 8,
    "prefecture": "茨城県",
    "city": "取手市",
    "town": "吉田"
  },
  "3020011": {
    "zipcode": "3020011",
    "prefectureCode": "08",
    "prefectureNumber": 8,
    "prefecture": "茨城県",
    "city": "取手市",
    "town": "井野"
  },
  "3020012": {
    "zipcode": "3020012",
    "prefectureCode": "08",
    "prefectureNumber": 8,
    "prefecture": "茨城県",
    "city": "取手市",
    "town": "井野団地"
  },
  "3020013": {
    "zipcode": "3020013",
    "prefectureCode": "08",
    "prefectureNumber": 8,
    "prefecture": "茨城県",
    "city": "取手市",
    "town": "台宿"
  },
  "3020014": {
    "zipcode": "3020014",
    "prefectureCode": "08",
    "prefectureNumber": 8,
    "prefecture": "茨城県",
    "city": "取手市",
    "town": "中央町"
  },
  "3020015": {
    "zipcode": "3020015",
    "prefectureCode": "08",
    "prefectureNumber": 8,
    "prefecture": "茨城県",
    "city": "取手市",
    "town": "井野台"
  },
  "3020016": {
    "zipcode": "3020016",
    "prefectureCode": "08",
    "prefectureNumber": 8,
    "prefecture": "茨城県",
    "city": "取手市",
    "town": "中原町"
  },
  "3020017": {
    "zipcode": "3020017",
    "prefectureCode": "08",
    "prefectureNumber": 8,
    "prefecture": "茨城県",
    "city": "取手市",
    "town": "桑原"
  },
  "3020021": {
    "zipcode": "3020021",
    "prefectureCode": "08",
    "prefectureNumber": 8,
    "prefecture": "茨城県",
    "city": "取手市",
    "town": "寺田"
  },
  "3020022": {
    "zipcode": "3020022",
    "prefectureCode": "08",
    "prefectureNumber": 8,
    "prefecture": "茨城県",
    "city": "取手市",
    "town": "本郷"
  },
  "3020023": {
    "zipcode": "3020023",
    "prefectureCode": "08",
    "prefectureNumber": 8,
    "prefecture": "茨城県",
    "city": "取手市",
    "town": "白山"
  },
  "3020024": {
    "zipcode": "3020024",
    "prefectureCode": "08",
    "prefectureNumber": 8,
    "prefecture": "茨城県",
    "city": "取手市",
    "town": "新町"
  },
  "3020025": {
    "zipcode": "3020025",
    "prefectureCode": "08",
    "prefectureNumber": 8,
    "prefecture": "茨城県",
    "city": "取手市",
    "town": "西"
  },
  "3020026": {
    "zipcode": "3020026",
    "prefectureCode": "08",
    "prefectureNumber": 8,
    "prefecture": "茨城県",
    "city": "取手市",
    "town": "稲"
  },
  "3020027": {
    "zipcode": "3020027",
    "prefectureCode": "08",
    "prefectureNumber": 8,
    "prefecture": "茨城県",
    "city": "取手市",
    "town": "駒場"
  },
  "3020031": {
    "zipcode": "3020031",
    "prefectureCode": "08",
    "prefectureNumber": 8,
    "prefecture": "茨城県",
    "city": "取手市",
    "town": "新取手"
  },
  "3020032": {
    "zipcode": "3020032",
    "prefectureCode": "08",
    "prefectureNumber": 8,
    "prefecture": "茨城県",
    "city": "取手市",
    "town": "野々井"
  },
  "3020033": {
    "zipcode": "3020033",
    "prefectureCode": "08",
    "prefectureNumber": 8,
    "prefecture": "茨城県",
    "city": "取手市",
    "town": "米ノ井"
  },
  "3020034": {
    "zipcode": "3020034",
    "prefectureCode": "08",
    "prefectureNumber": 8,
    "prefecture": "茨城県",
    "city": "取手市",
    "town": "戸頭"
  },
  "3020035": {
    "zipcode": "3020035",
    "prefectureCode": "08",
    "prefectureNumber": 8,
    "prefecture": "茨城県",
    "city": "取手市",
    "town": "上高井"
  },
  "3020036": {
    "zipcode": "3020036",
    "prefectureCode": "08",
    "prefectureNumber": 8,
    "prefecture": "茨城県",
    "city": "取手市",
    "town": "貝塚"
  },
  "3020037": {
    "zipcode": "3020037",
    "prefectureCode": "08",
    "prefectureNumber": 8,
    "prefecture": "茨城県",
    "city": "取手市",
    "town": "市之代"
  },
  "3020038": {
    "zipcode": "3020038",
    "prefectureCode": "08",
    "prefectureNumber": 8,
    "prefecture": "茨城県",
    "city": "取手市",
    "town": "下高井"
  },
  "3020039": {
    "zipcode": "3020039",
    "prefectureCode": "08",
    "prefectureNumber": 8,
    "prefecture": "茨城県",
    "city": "取手市",
    "town": "ゆめみ野"
  },
  "3020100": {
    "zipcode": "3020100",
    "prefectureCode": "08",
    "prefectureNumber": 8,
    "prefecture": "茨城県",
    "city": "守谷市",
    "town": "以下に掲載がない場合"
  },
  "3020101": {
    "zipcode": "3020101",
    "prefectureCode": "08",
    "prefectureNumber": 8,
    "prefecture": "茨城県",
    "city": "守谷市",
    "town": "板戸井"
  },
  "3020102": {
    "zipcode": "3020102",
    "prefectureCode": "08",
    "prefectureNumber": 8,
    "prefecture": "茨城県",
    "city": "守谷市",
    "town": "松前台"
  },
  "3020103": {
    "zipcode": "3020103",
    "prefectureCode": "08",
    "prefectureNumber": 8,
    "prefecture": "茨城県",
    "city": "守谷市",
    "town": "大山新田"
  },
  "3020104": {
    "zipcode": "3020104",
    "prefectureCode": "08",
    "prefectureNumber": 8,
    "prefecture": "茨城県",
    "city": "守谷市",
    "town": "久保ケ丘"
  },
  "3020105": {
    "zipcode": "3020105",
    "prefectureCode": "08",
    "prefectureNumber": 8,
    "prefecture": "茨城県",
    "city": "守谷市",
    "town": "薬師台"
  },
  "3020106": {
    "zipcode": "3020106",
    "prefectureCode": "08",
    "prefectureNumber": 8,
    "prefecture": "茨城県",
    "city": "守谷市",
    "town": "緑"
  },
  "3020107": {
    "zipcode": "3020107",
    "prefectureCode": "08",
    "prefectureNumber": 8,
    "prefecture": "茨城県",
    "city": "守谷市",
    "town": "大木"
  },
  "3020108": {
    "zipcode": "3020108",
    "prefectureCode": "08",
    "prefectureNumber": 8,
    "prefecture": "茨城県",
    "city": "守谷市",
    "town": "松並"
  },
  "3020109": {
    "zipcode": "3020109",
    "prefectureCode": "08",
    "prefectureNumber": 8,
    "prefecture": "茨城県",
    "city": "守谷市",
    "town": "本町"
  },
  "3020110": {
    "zipcode": "3020110",
    "prefectureCode": "08",
    "prefectureNumber": 8,
    "prefecture": "茨城県",
    "city": "守谷市",
    "town": "百合ケ丘"
  },
  "3020111": {
    "zipcode": "3020111",
    "prefectureCode": "08",
    "prefectureNumber": 8,
    "prefecture": "茨城県",
    "city": "守谷市",
    "town": "赤法花"
  },
  "3020112": {
    "zipcode": "3020112",
    "prefectureCode": "08",
    "prefectureNumber": 8,
    "prefecture": "茨城県",
    "city": "守谷市",
    "town": "同地"
  },
  "3020115": {
    "zipcode": "3020115",
    "prefectureCode": "08",
    "prefectureNumber": 8,
    "prefecture": "茨城県",
    "city": "守谷市",
    "town": "中央"
  },
  "3020116": {
    "zipcode": "3020116",
    "prefectureCode": "08",
    "prefectureNumber": 8,
    "prefecture": "茨城県",
    "city": "守谷市",
    "town": "大柏"
  },
  "3020117": {
    "zipcode": "3020117",
    "prefectureCode": "08",
    "prefectureNumber": 8,
    "prefecture": "茨城県",
    "city": "守谷市",
    "town": "野木崎"
  },
  "3020118": {
    "zipcode": "3020118",
    "prefectureCode": "08",
    "prefectureNumber": 8,
    "prefecture": "茨城県",
    "city": "守谷市",
    "town": "立沢"
  },
  "3020119": {
    "zipcode": "3020119",
    "prefectureCode": "08",
    "prefectureNumber": 8,
    "prefecture": "茨城県",
    "city": "守谷市",
    "town": "御所ケ丘"
  },
  "3020121": {
    "zipcode": "3020121",
    "prefectureCode": "08",
    "prefectureNumber": 8,
    "prefecture": "茨城県",
    "city": "守谷市",
    "town": "みずき野"
  },
  "3020122": {
    "zipcode": "3020122",
    "prefectureCode": "08",
    "prefectureNumber": 8,
    "prefecture": "茨城県",
    "city": "守谷市",
    "town": "小山"
  },
  "3020123": {
    "zipcode": "3020123",
    "prefectureCode": "08",
    "prefectureNumber": 8,
    "prefecture": "茨城県",
    "city": "守谷市",
    "town": "乙子"
  },
  "3020124": {
    "zipcode": "3020124",
    "prefectureCode": "08",
    "prefectureNumber": 8,
    "prefecture": "茨城県",
    "city": "守谷市",
    "town": "美園"
  },
  "3020125": {
    "zipcode": "3020125",
    "prefectureCode": "08",
    "prefectureNumber": 8,
    "prefecture": "茨城県",
    "city": "守谷市",
    "town": "高野"
  },
  "3020126": {
    "zipcode": "3020126",
    "prefectureCode": "08",
    "prefectureNumber": 8,
    "prefecture": "茨城県",
    "city": "守谷市",
    "town": "鈴塚"
  },
  "3020127": {
    "zipcode": "3020127",
    "prefectureCode": "08",
    "prefectureNumber": 8,
    "prefecture": "茨城県",
    "city": "守谷市",
    "town": "松ケ丘"
  },
  "3020128": {
    "zipcode": "3020128",
    "prefectureCode": "08",
    "prefectureNumber": 8,
    "prefecture": "茨城県",
    "city": "守谷市",
    "town": "けやき台"
  },
  "3020131": {
    "zipcode": "3020131",
    "prefectureCode": "08",
    "prefectureNumber": 8,
    "prefecture": "茨城県",
    "city": "守谷市",
    "town": "ひがし野"
  },
  "3020132": {
    "zipcode": "3020132",
    "prefectureCode": "08",
    "prefectureNumber": 8,
    "prefecture": "茨城県",
    "city": "守谷市",
    "town": "松並青葉"
  }
}
