{
  "3060000": {
    "zipcode": "3060000",
    "prefectureCode": "08",
    "prefectureNumber": 8,
    "prefecture": "茨城県",
    "city": "古河市",
    "town": "以下に掲載がない場合"
  },
  "3060001": {
    "zipcode": "3060001",
    "prefectureCode": "08",
    "prefectureNumber": 8,
    "prefecture": "茨城県",
    "city": "古河市",
    "town": "静町"
  },
  "3060002": {
    "zipcode": "3060002",
    "prefectureCode": "08",
    "prefectureNumber": 8,
    "prefecture": "茨城県",
    "city": "古河市",
    "town": "三杉町"
  },
  "3060003": {
    "zipcode": "3060003",
    "prefectureCode": "08",
    "prefectureNumber": 8,
    "prefecture": "茨城県",
    "city": "古河市",
    "town": "緑町"
  },
  "3060004": {
    "zipcode": "3060004",
    "prefectureCode": "08",
    "prefectureNumber": 8,
    "prefecture": "茨城県",
    "city": "古河市",
    "town": "雷電町"
  },
  "3060005": {
    "zipcode": "3060005",
    "prefectureCode": "08",
    "prefectureNumber": 8,
    "prefecture": "茨城県",
    "city": "古河市",
    "town": "北町"
  },
  "3060006": {
    "zipcode": "3060006",
    "prefectureCode": "08",
    "prefectureNumber": 8,
    "prefecture": "茨城県",
    "city": "古河市",
    "town": "平和町"
  },
  "3060007": {
    "zipcode": "3060007",
    "prefectureCode": "08",
    "prefectureNumber": 8,
    "prefecture": "茨城県",
    "city": "古河市",
    "town": "常盤町"
  },
  "3060011": {
    "zipcode": "3060011",
    "prefectureCode": "08",
    "prefectureNumber": 8,
    "prefecture": "茨城県",
    "city": "古河市",
    "town": "東"
  },
  "3060012": {
    "zipcode": "3060012",
    "prefectureCode": "08",
    "prefectureNumber": 8,
    "prefecture": "茨城県",
    "city": "古河市",
    "town": "旭町"
  },
  "3060013": {
    "zipcode": "3060013",
    "prefectureCode": "08",
    "prefectureNumber": 8,
    "prefecture": "茨城県",
    "city": "古河市",
    "town": "東本町"
  },
  "3060014": {
    "zipcode": "3060014",
    "prefectureCode": "08",
    "prefectureNumber": 8,
    "prefecture": "茨城県",
    "city": "古河市",
    "town": "下山町"
  },
  "3060015": {
    "zipcode": "3060015",
    "prefectureCode": "08",
    "prefectureNumber": 8,
    "prefecture": "茨城県",
    "city": "古河市",
    "town": "南町"
  },
  "3060016": {
    "zipcode": "3060016",
    "prefectureCode": "08",
    "prefectureNumber": 8,
    "prefecture": "茨城県",
    "city": "古河市",
    "town": "古河"
  },
  "3060021": {
    "zipcode": "3060021",
    "prefectureCode": "08",
    "prefectureNumber": 8,
    "prefecture": "茨城県",
    "city": "古河市",
    "town": "松並"
  },
  "3060022": {
    "zipcode": "3060022",
    "prefectureCode": "08",
    "prefectureNumber": 8,
    "prefecture": "茨城県",
    "city": "古河市",
    "town": "横山町"
  },
  "3060023": {
    "zipcode": "3060023",
    "prefectureCode": "08",
    "prefectureNumber": 8,
    "prefecture": "茨城県",
    "city": "古河市",
    "town": "本町"
  },
  "3060024": {
    "zipcode": "3060024",
    "prefectureCode": "08",
    "prefectureNumber": 8,
    "prefecture": "茨城県",
    "city": "古河市",
    "town": "幸町"
  },
  "3060025": {
    "zipcode": "3060025",
    "prefectureCode": "08",
    "prefectureNumber": 8,
    "prefecture": "茨城県",
    "city": "古河市",
    "town": "原町"
  },
  "3060026": {
    "zipcode": "3060026",
    "prefectureCode": "08",
    "prefectureNumber": 8,
    "prefecture": "茨城県",
    "city": "古河市",
    "town": "原"
  },
  "3060031": {
    "zipcode": "3060031",
    "prefectureCode": "08",
    "prefectureNumber": 8,
    "prefecture": "茨城県",
    "city": "古河市",
    "town": "宮前町"
  },
  "3060032": {
    "zipcode": "3060032",
    "prefectureCode": "08",
    "prefectureNumber": 8,
    "prefecture": "茨城県",
    "city": "古河市",
    "town": "大手町"
  },
  "3060033": {
    "zipcode": "3060033",
    "prefectureCode": "08",
    "prefectureNumber": 8,
    "prefecture": "茨城県",
    "city": "古河市",
    "town": "中央町"
  },
  "3060034": {
    "zipcode": "3060034",
    "prefectureCode": "08",
    "prefectureNumber": 8,
    "prefecture": "茨城県",
    "city": "古河市",
    "town": "長谷町"
  },
  "3060035": {
    "zipcode": "3060035",
    "prefectureCode": "08",
    "prefectureNumber": 8,
    "prefecture": "茨城県",
    "city": "古河市",
    "town": "長谷"
  },
  "3060036": {
    "zipcode": "3060036",
    "prefectureCode": "08",
    "prefectureNumber": 8,
    "prefecture": "茨城県",
    "city": "古河市",
    "town": "桜町"
  },
  "3060037": {
    "zipcode": "3060037",
    "prefectureCode": "08",
    "prefectureNumber": 8,
    "prefecture": "茨城県",
    "city": "古河市",
    "town": "錦町"
  },
  "3060038": {
    "zipcode": "3060038",
    "prefectureCode": "08",
    "prefectureNumber": 8,
    "prefecture": "茨城県",
    "city": "古河市",
    "town": "西町"
  },
  "3060041": {
    "zipcode": "3060041",
    "prefectureCode": "08",
    "prefectureNumber": 8,
    "prefecture": "茨城県",
    "city": "古河市",
    "town": "鴻巣"
  },
  "3060042": {
    "zipcode": "3060042",
    "prefectureCode": "08",
    "prefectureNumber": 8,
    "prefecture": "茨城県",
    "city": "古河市",
    "town": "三和"
  },
  "3060043": {
    "zipcode": "3060043",
    "prefectureCode": "08",
    "prefectureNumber": 8,
    "prefecture": "茨城県",
    "city": "古河市",
    "town": "鳥喰"
  },
  "3060044": {
    "zipcode": "3060044",
    "prefectureCode": "08",
    "prefectureNumber": 8,
    "prefecture": "茨城県",
    "city": "古河市",
    "town": "新久田"
  },
  "3060045": {
    "zipcode": "3060045",
    "prefectureCode": "08",
    "prefectureNumber": 8,
    "prefecture": "茨城県",
    "city": "古河市",
    "town": "駒ケ崎"
  },
  "3060046": {
    "zipcode": "3060046",
    "prefectureCode": "08",
    "prefectureNumber": 8,
    "prefecture": "茨城県",
    "city": "古河市",
    "town": "牧野地"
  },
  "3060047": {
    "zipcode": "3060047",
    "prefectureCode": "08",
    "prefectureNumber": 8,
    "prefecture": "茨城県",
    "city": "古河市",
    "town": "立崎"
  },
  "3060051": {
    "zipcode": "3060051",
    "prefectureCode": "08",
    "prefectureNumber": 8,
    "prefecture": "茨城県",
    "city": "古河市",
    "town": "茶屋新田"
  },
  "3060052": {
    "zipcode": "3060052",
    "prefectureCode": "08",
    "prefectureNumber": 8,
    "prefecture": "茨城県",
    "city": "古河市",
    "town": "大山"
  },
  "3060053": {
    "zipcode": "3060053",
    "prefectureCode": "08",
    "prefectureNumber": 8,
    "prefecture": "茨城県",
    "city": "古河市",
    "town": "中田"
  },
  "3060054": {
    "zipcode": "3060054",
    "prefectureCode": "08",
    "prefectureNumber": 8,
    "prefecture": "茨城県",
    "city": "古河市",
    "town": "中田新田"
  },
  "3060055": {
    "zipcode": "3060055",
    "prefectureCode": "08",
    "prefectureNumber": 8,
    "prefecture": "茨城県",
    "city": "古河市",
    "town": "けやき平"
  },
  "3060056": {
    "zipcode": "3060056",
    "prefectureCode": "08",
    "prefectureNumber": 8,
    "prefecture": "茨城県",
    "city": "古河市",
    "town": "坂間"
  },
  "3060101": {
    "zipcode": "3060101",
    "prefectureCode": "08",
    "prefectureNumber": 8,
    "prefecture": "茨城県",
    "city": "古河市",
    "town": "尾崎"
  },
  "3060103": {
    "zipcode": "3060103",
    "prefectureCode": "08",
    "prefectureNumber": 8,
    "prefecture": "茨城県",
    "city": "古河市",
    "town": "長左エ門新田"
  },
  "3060104": {
    "zipcode": "3060104",
    "prefectureCode": "08",
    "prefectureNumber": 8,
    "prefecture": "茨城県",
    "city": "古河市",
    "town": "恩名"
  },
  "3060105": {
    "zipcode": "3060105",
    "prefectureCode": "08",
    "prefectureNumber": 8,
    "prefecture": "茨城県",
    "city": "古河市",
    "town": "江口"
  },
  "3060106": {
    "zipcode": "3060106",
    "prefectureCode": "08",
    "prefectureNumber": 8,
    "prefecture": "茨城県",
    "city": "古河市",
    "town": "北間中橋"
  },
  "3060107": {
    "zipcode": "3060107",
    "prefectureCode": "08",
    "prefectureNumber": 8,
    "prefecture": "茨城県",
    "city": "古河市",
    "town": "東間中橋"
  },
  "3060108": {
    "zipcode": "3060108",
    "prefectureCode": "08",
    "prefectureNumber": 8,
    "prefecture": "茨城県",
    "city": "古河市",
    "town": "南間中橋"
  },
  "3060109": {
    "zipcode": "3060109",
    "prefectureCode": "08",
    "prefectureNumber": 8,
    "prefecture": "茨城県",
    "city": "古河市",
    "town": "西間中橋"
  },
  "3060110": {
    "zipcode": "3060110",
    "prefectureCode": "08",
    "prefectureNumber": 8,
    "prefecture": "茨城県",
    "city": "古河市",
    "town": "名崎"
  },
  "3060111": {
    "zipcode": "3060111",
    "prefectureCode": "08",
    "prefectureNumber": 8,
    "prefecture": "茨城県",
    "city": "古河市",
    "town": "大和田"
  },
  "3060112": {
    "zipcode": "3060112",
    "prefectureCode": "08",
    "prefectureNumber": 8,
    "prefecture": "茨城県",
    "city": "古河市",
    "town": "東山田"
  },
  "3060113": {
    "zipcode": "3060113",
    "prefectureCode": "08",
    "prefectureNumber": 8,
    "prefecture": "茨城県",
    "city": "古河市",
    "town": "谷貝"
  },
  "3060114": {
    "zipcode": "3060114",
    "prefectureCode": "08",
    "prefectureNumber": 8,
    "prefecture": "茨城県",
    "city": "古河市",
    "town": "山田"
  },
  "3060115": {
    "zipcode": "3060115",
    "prefectureCode": "08",
    "prefectureNumber": 8,
    "prefecture": "茨城県",
    "city": "古河市",
    "town": "北山田"
  },
  "3060116": {
    "zipcode": "3060116",
    "prefectureCode": "08",
    "prefectureNumber": 8,
    "prefecture": "茨城県",
    "city": "古河市",
    "town": "新和田"
  },
  "3060121": {
    "zipcode": "3060121",
    "prefectureCode": "08",
    "prefectureNumber": 8,
    "prefecture": "茨城県",
    "city": "古河市",
    "town": "駒込"
  },
  "3060122": {
    "zipcode": "3060122",
    "prefectureCode": "08",
    "prefectureNumber": 8,
    "prefecture": "茨城県",
    "city": "古河市",
    "town": "上和田"
  },
  "3060123": {
    "zipcode": "3060123",
    "prefectureCode": "08",
    "prefectureNumber": 8,
    "prefecture": "茨城県",
    "city": "古河市",
    "town": "五部"
  },
  "3060124": {
    "zipcode": "3060124",
    "prefectureCode": "08",
    "prefectureNumber": 8,
    "prefecture": "茨城県",
    "city": "古河市",
    "town": "東諸川"
  },
  "3060125": {
    "zipcode": "3060125",
    "prefectureCode": "08",
    "prefectureNumber": 8,
    "prefecture": "茨城県",
    "city": "古河市",
    "town": "仁連"
  },
  "3060126": {
    "zipcode": "3060126",
    "prefectureCode": "08",
    "prefectureNumber": 8,
    "prefecture": "茨城県",
    "city": "古河市",
    "town": "諸川"
  },
  "3060127": {
    "zipcode": "3060127",
    "prefectureCode": "08",
    "prefectureNumber": 8,
    "prefecture": "茨城県",
    "city": "古河市",
    "town": "下片田"
  },
  "3060128": {
    "zipcode": "3060128",
    "prefectureCode": "08",
    "prefectureNumber": 8,
    "prefecture": "茨城県",
    "city": "古河市",
    "town": "上片田"
  },
  "3060201": {
    "zipcode": "3060201",
    "prefectureCode": "08",
    "prefectureNumber": 8,
    "prefecture": "茨城県",
    "city": "古河市",
    "town": "上大野"
  },
  "3060202": {
    "zipcode": "3060202",
    "prefectureCode": "08",
    "prefectureNumber": 8,
    "prefecture": "茨城県",
    "city": "古河市",
    "town": "稲宮"
  },
  "3060203": {
    "zipcode": "3060203",
    "prefectureCode": "08",
    "prefectureNumber": 8,
    "prefecture": "茨城県",
    "city": "古河市",
    "town": "柳橋"
  },
  "3060204": {
    "zipcode": "3060204",
    "prefectureCode": "08",
    "prefectureNumber": 8,
    "prefecture": "茨城県",
    "city": "古河市",
    "town": "下大野"
  },
  "3060205": {
    "zipcode": "3060205",
    "prefectureCode": "08",
    "prefectureNumber": 8,
    "prefecture": "茨城県",
    "city": "古河市",
    "town": "関戸"
  },
  "3060206": {
    "zipcode": "3060206",
    "prefectureCode": "08",
    "prefectureNumber": 8,
    "prefecture": "茨城県",
    "city": "古河市",
    "town": "丘里"
  },
  "3060211": {
    "zipcode": "3060211",
    "prefectureCode": "08",
    "prefectureNumber": 8,
    "prefecture": "茨城県",
    "city": "古河市",
    "town": "葛生"
  },
  "3060212": {
    "zipcode": "3060212",
    "prefectureCode": "08",
    "prefectureNumber": 8,
    "prefecture": "茨城県",
    "city": "古河市",
    "town": "久能"
  },
  "3060213": {
    "zipcode": "3060213",
    "prefectureCode": "08",
    "prefectureNumber": 8,
    "prefecture": "茨城県",
    "city": "古河市",
    "town": "北利根"
  },
  "3060214": {
    "zipcode": "3060214",
    "prefectureCode": "08",
    "prefectureNumber": 8,
    "prefecture": "茨城県",
    "city": "古河市",
    "town": "高野"
  },
  "3060215": {
    "zipcode": "3060215",
    "prefectureCode": "08",
    "prefectureNumber": 8,
    "prefecture": "茨城県",
    "city": "古河市",
    "town": "水海"
  },
  "3060216": {
    "zipcode": "3060216",
    "prefectureCode": "08",
    "prefectureNumber": 8,
    "prefecture": "茨城県",
    "city": "古河市",
    "town": "前林"
  },
  "3060221": {
    "zipcode": "3060221",
    "prefectureCode": "08",
    "prefectureNumber": 8,
    "prefecture": "茨城県",
    "city": "古河市",
    "town": "駒羽根"
  },
  "3060222": {
    "zipcode": "3060222",
    "prefectureCode": "08",
    "prefectureNumber": 8,
    "prefecture": "茨城県",
    "city": "古河市",
    "town": "釈迦"
  },
  "3060223": {
    "zipcode": "3060223",
    "prefectureCode": "08",
    "prefectureNumber": 8,
    "prefecture": "茨城県",
    "city": "古河市",
    "town": "上砂井"
  },
  "3060224": {
    "zipcode": "3060224",
    "prefectureCode": "08",
    "prefectureNumber": 8,
    "prefecture": "茨城県",
    "city": "古河市",
    "town": "砂井新田"
  },
  "3060225": {
    "zipcode": "3060225",
    "prefectureCode": "08",
    "prefectureNumber": 8,
    "prefecture": "茨城県",
    "city": "古河市",
    "town": "磯部"
  },
  "3060226": {
    "zipcode": "3060226",
    "prefectureCode": "08",
    "prefectureNumber": 8,
    "prefecture": "茨城県",
    "city": "古河市",
    "town": "女沼"
  },
  "3060231": {
    "zipcode": "3060231",
    "prefectureCode": "08",
    "prefectureNumber": 8,
    "prefecture": "茨城県",
    "city": "古河市",
    "town": "小堤"
  },
  "3060232": {
    "zipcode": "3060232",
    "prefectureCode": "08",
    "prefectureNumber": 8,
    "prefecture": "茨城県",
    "city": "古河市",
    "town": "東牛谷"
  },
  "3060233": {
    "zipcode": "3060233",
    "prefectureCode": "08",
    "prefectureNumber": 8,
    "prefecture": "茨城県",
    "city": "古河市",
    "town": "西牛谷"
  },
  "3060234": {
    "zipcode": "3060234",
    "prefectureCode": "08",
    "prefectureNumber": 8,
    "prefecture": "茨城県",
    "city": "古河市",
    "town": "上辺見"
  },
  "3060235": {
    "zipcode": "3060235",
    "prefectureCode": "08",
    "prefectureNumber": 8,
    "prefecture": "茨城県",
    "city": "古河市",
    "town": "下辺見"
  },
  "3060236": {
    "zipcode": "3060236",
    "prefectureCode": "08",
    "prefectureNumber": 8,
    "prefecture": "茨城県",
    "city": "古河市",
    "town": "大堤"
  },
  "3060300": {
    "zipcode": "3060300",
    "prefectureCode": "08",
    "prefectureNumber": 8,
    "prefecture": "茨城県",
    "city": "猿島郡五霞町",
    "town": "以下に掲載がない場合"
  },
  "3060301": {
    "zipcode": "3060301",
    "prefectureCode": "08",
    "prefectureNumber": 8,
    "prefecture": "茨城県",
    "city": "猿島郡五霞町",
    "town": "山王山"
  },
  "3060302": {
    "zipcode": "3060302",
    "prefectureCode": "08",
    "prefectureNumber": 8,
    "prefecture": "茨城県",
    "city": "猿島郡五霞町",
    "town": "山王"
  },
  "3060303": {
    "zipcode": "3060303",
    "prefectureCode": "08",
    "prefectureNumber": 8,
    "prefecture": "茨城県",
    "city": "猿島郡五霞町",
    "town": "江川"
  },
  "3060304": {
    "zipcode": "3060304",
    "prefectureCode": "08",
    "prefectureNumber": 8,
    "prefecture": "茨城県",
    "city": "猿島郡五霞町",
    "town": "幸主"
  },
  "3060305": {
    "zipcode": "3060305",
    "prefectureCode": "08",
    "prefectureNumber": 8,
    "prefecture": "茨城県",
    "city": "猿島郡五霞町",
    "town": "冬木"
  },
  "3060306": {
    "zipcode": "3060306",
    "prefectureCode": "08",
    "prefectureNumber": 8,
    "prefecture": "茨城県",
    "city": "猿島郡五霞町",
    "town": "原宿台"
  },
  "3060307": {
    "zipcode": "3060307",
    "prefectureCode": "08",
    "prefectureNumber": 8,
    "prefecture": "茨城県",
    "city": "猿島郡五霞町",
    "town": "小福田"
  },
  "3060308": {
    "zipcode": "3060308",
    "prefectureCode": "08",
    "prefectureNumber": 8,
    "prefecture": "茨城県",
    "city": "猿島郡五霞町",
    "town": "ごかみらい"
  },
  "3060311": {
    "zipcode": "3060311",
    "prefectureCode": "08",
    "prefectureNumber": 8,
    "prefecture": "茨城県",
    "city": "猿島郡五霞町",
    "town": "大福田"
  },
  "3060312": {
    "zipcode": "3060312",
    "prefectureCode": "08",
    "prefectureNumber": 8,
    "prefecture": "茨城県",
    "city": "猿島郡五霞町",
    "town": "新幸谷"
  },
  "3060313": {
    "zipcode": "3060313",
    "prefectureCode": "08",
    "prefectureNumber": 8,
    "prefecture": "茨城県",
    "city": "猿島郡五霞町",
    "town": "元栗橋"
  },
  "3060314": {
    "zipcode": "3060314",
    "prefectureCode": "08",
    "prefectureNumber": 8,
    "prefecture": "茨城県",
    "city": "猿島郡五霞町",
    "town": "川妻"
  },
  "3060315": {
    "zipcode": "3060315",
    "prefectureCode": "08",
    "prefectureNumber": 8,
    "prefecture": "茨城県",
    "city": "猿島郡五霞町",
    "town": "小手指"
  },
  "3060316": {
    "zipcode": "3060316",
    "prefectureCode": "08",
    "prefectureNumber": 8,
    "prefecture": "茨城県",
    "city": "猿島郡五霞町",
    "town": "釈迦"
  },
  "3060317": {
    "zipcode": "3060317",
    "prefectureCode": "08",
    "prefectureNumber": 8,
    "prefecture": "茨城県",
    "city": "猿島郡五霞町",
    "town": "前林"
  },
  "3060400": {
    "zipcode": "3060400",
    "prefectureCode": "08",
    "prefectureNumber": 8,
    "prefecture": "茨城県",
    "city": "猿島郡境町",
    "town": "以下に掲載がない場合"
  },
  "3060401": {
    "zipcode": "3060401",
    "prefectureCode": "08",
    "prefectureNumber": 8,
    "prefecture": "茨城県",
    "city": "猿島郡境町",
    "town": "志鳥"
  },
  "3060402": {
    "zipcode": "3060402",
    "prefectureCode": "08",
    "prefectureNumber": 8,
    "prefecture": "茨城県",
    "city": "猿島郡境町",
    "town": "猿山"
  },
  "3060403": {
    "zipcode": "3060403",
    "prefectureCode": "08",
    "prefectureNumber": 8,
    "prefecture": "茨城県",
    "city": "猿島郡境町",
    "town": "蛇池"
  },
  "3060404": {
    "zipcode": "3060404",
    "prefectureCode": "08",
    "prefectureNumber": 8,
    "prefecture": "茨城県",
    "city": "猿島郡境町",
    "town": "長井戸"
  },
  "3060405": {
    "zipcode": "3060405",
    "prefectureCode": "08",
    "prefectureNumber": 8,
    "prefecture": "茨城県",
    "city": "猿島郡境町",
    "town": "塚崎"
  },
  "3060406": {
    "zipcode": "3060406",
    "prefectureCode": "08",
    "prefectureNumber": 8,
    "prefecture": "茨城県",
    "city": "猿島郡境町",
    "town": "横塚"
  },
  "3060407": {
    "zipcode": "3060407",
    "prefectureCode": "08",
    "prefectureNumber": 8,
    "prefecture": "茨城県",
    "city": "猿島郡境町",
    "town": "稲尾"
  },
  "3060408": {
    "zipcode": "3060408",
    "prefectureCode": "08",
    "prefectureNumber": 8,
    "prefecture": "茨城県",
    "city": "猿島郡境町",
    "town": "みらい平"
  },
  "3060411": {
    "zipcode": "3060411",
    "prefectureCode": "08",
    "prefectureNumber": 8,
    "prefecture": "茨城県",
    "city": "猿島郡境町",
    "town": "下砂井"
  },
  "3060412": {
    "zipcode": "3060412",
    "prefectureCode": "08",
    "prefectureNumber": 8,
    "prefecture": "茨城県",
    "city": "猿島郡境町",
    "town": "栗山"
  },
  "3060413": {
    "zipcode": "3060413",
    "prefectureCode": "08",
    "prefectureNumber": 8,
    "prefecture": "茨城県",
    "city": "猿島郡境町",
    "town": "山崎"
  },
  "3060414": {
    "zipcode": "3060414",
    "prefectureCode": "08",
    "prefectureNumber": 8,
    "prefecture": "茨城県",
    "city": "猿島郡境町",
    "town": "内門"
  },
  "3060415": {
    "zipcode": "3060415",
    "prefectureCode": "08",
    "prefectureNumber": 8,
    "prefecture": "茨城県",
    "city": "猿島郡境町",
    "town": "大歩"
  },
  "3060416": {
    "zipcode": "3060416",
    "prefectureCode": "08",
    "prefectureNumber": 8,
    "prefecture": "茨城県",
    "city": "猿島郡境町",
    "town": "伏木"
  },
  "3060417": {
    "zipcode": "3060417",
    "prefectureCode": "08",
    "prefectureNumber": 8,
    "prefecture": "茨城県",
    "city": "猿島郡境町",
    "town": "若林"
  },
  "3060421": {
    "zipcode": "3060421",
    "prefectureCode": "08",
    "prefectureNumber": 8,
    "prefecture": "茨城県",
    "city": "猿島郡境町",
    "town": "染谷"
  },
  "3060422": {
    "zipcode": "3060422",
    "prefectureCode": "08",
    "prefectureNumber": 8,
    "prefecture": "茨城県",
    "city": "猿島郡境町",
    "town": "一ノ谷"
  },
  "3060423": {
    "zipcode": "3060423",
    "prefectureCode": "08",
    "prefectureNumber": 8,
    "prefecture": "茨城県",
    "city": "猿島郡境町",
    "town": "百戸"
  },
  "3060424": {
    "zipcode": "3060424",
    "prefectureCode": "08",
    "prefectureNumber": 8,
    "prefecture": "茨城県",
    "city": "猿島郡境町",
    "town": "桐ケ作"
  },
  "3060425": {
    "zipcode": "3060425",
    "prefectureCode": "08",
    "prefectureNumber": 8,
    "prefecture": "茨城県",
    "city": "猿島郡境町",
    "town": "新田戸"
  },
  "3060426": {
    "zipcode": "3060426",
    "prefectureCode": "08",
    "prefectureNumber": 8,
    "prefecture": "茨城県",
    "city": "猿島郡境町",
    "town": "金岡"
  },
  "3060427": {
    "zipcode": "3060427",
    "prefectureCode": "08",
    "prefectureNumber": 8,
    "prefecture": "茨城県",
    "city": "猿島郡境町",
    "town": "浦向"
  },
  "3060431": {
    "zipcode": "3060431",
    "prefectureCode": "08",
    "prefectureNumber": 8,
    "prefecture": "茨城県",
    "city": "猿島郡境町",
    "town": "西泉田"
  },
  "3060432": {
    "zipcode": "3060432",
    "prefectureCode": "08",
    "prefectureNumber": 8,
    "prefecture": "茨城県",
    "city": "猿島郡境町",
    "town": "下小橋"
  },
  "3060433": {
    "zipcode": "3060433",
    "prefectureCode": "08",
    "prefectureNumber": 8,
    "prefecture": "茨城県",
    "city": "猿島郡境町",
    "town": "境町の次に番地がくる場合"
  },
  "3060434": {
    "zipcode": "3060434",
    "prefectureCode": "08",
    "prefectureNumber": 8,
    "prefecture": "茨城県",
    "city": "猿島郡境町",
    "town": "上小橋"
  },
  "3060435": {
    "zipcode": "3060435",
    "prefectureCode": "08",
    "prefectureNumber": 8,
    "prefecture": "茨城県",
    "city": "猿島郡境町",
    "town": "陽光台"
  },
  "3060501": {
    "zipcode": "3060501",
    "prefectureCode": "08",
    "prefectureNumber": 8,
    "prefecture": "茨城県",
    "city": "坂東市",
    "town": "逆井"
  },
  "3060502": {
    "zipcode": "3060502",
    "prefectureCode": "08",
    "prefectureNumber": 8,
    "prefecture": "茨城県",
    "city": "坂東市",
    "town": "山"
  },
  "3060503": {
    "zipcode": "3060503",
    "prefectureCode": "08",
    "prefectureNumber": 8,
    "prefecture": "茨城県",
    "city": "坂東市",
    "town": "生子新田"
  },
  "3060504": {
    "zipcode": "3060504",
    "prefectureCode": "08",
    "prefectureNumber": 8,
    "prefecture": "茨城県",
    "city": "坂東市",
    "town": "生子"
  },
  "3060505": {
    "zipcode": "3060505",
    "prefectureCode": "08",
    "prefectureNumber": 8,
    "prefecture": "茨城県",
    "city": "坂東市",
    "town": "菅谷"
  },
  "3060506": {
    "zipcode": "3060506",
    "prefectureCode": "08",
    "prefectureNumber": 8,
    "prefecture": "茨城県",
    "city": "坂東市",
    "town": "さしま台"
  },
  "3060511": {
    "zipcode": "3060511",
    "prefectureCode": "08",
    "prefectureNumber": 8,
    "prefecture": "茨城県",
    "city": "坂東市",
    "town": "孫兵エ新田"
  },
  "3060512": {
    "zipcode": "3060512",
    "prefectureCode": "08",
    "prefectureNumber": 8,
    "prefecture": "茨城県",
    "city": "坂東市",
    "town": "左平太新田"
  },
  "3060513": {
    "zipcode": "3060513",
    "prefectureCode": "08",
    "prefectureNumber": 8,
    "prefecture": "茨城県",
    "city": "坂東市",
    "town": "栗山新田"
  },
  "3060514": {
    "zipcode": "3060514",
    "prefectureCode": "08",
    "prefectureNumber": 8,
    "prefecture": "茨城県",
    "city": "坂東市",
    "town": "内野山"
  },
  "3060515": {
    "zipcode": "3060515",
    "prefectureCode": "08",
    "prefectureNumber": 8,
    "prefecture": "茨城県",
    "city": "坂東市",
    "town": "沓掛"
  },
  "3060600": {
    "zipcode": "3060600",
    "prefectureCode": "08",
    "prefectureNumber": 8,
    "prefecture": "茨城県",
    "city": "坂東市",
    "town": "以下に掲載がない場合"
  },
  "3060601": {
    "zipcode": "3060601",
    "prefectureCode": "08",
    "prefectureNumber": 8,
    "prefecture": "茨城県",
    "city": "坂東市",
    "town": "大馬新田"
  },
  "3060602": {
    "zipcode": "3060602",
    "prefectureCode": "08",
    "prefectureNumber": 8,
    "prefecture": "茨城県",
    "city": "坂東市",
    "town": "平八新田"
  },
  "3060603": {
    "zipcode": "3060603",
    "prefectureCode": "08",
    "prefectureNumber": 8,
    "prefecture": "茨城県",
    "city": "坂東市",
    "town": "勘助新田"
  },
  "3060604": {
    "zipcode": "3060604",
    "prefectureCode": "08",
    "prefectureNumber": 8,
    "prefecture": "茨城県",
    "city": "坂東市",
    "town": "幸田新田"
  },
  "3060605": {
    "zipcode": "3060605",
    "prefectureCode": "08",
    "prefectureNumber": 8,
    "prefecture": "茨城県",
    "city": "坂東市",
    "town": "馬立"
  },
  "3060606": {
    "zipcode": "3060606",
    "prefectureCode": "08",
    "prefectureNumber": 8,
    "prefecture": "茨城県",
    "city": "坂東市",
    "town": "幸田"
  },
  "3060607": {
    "zipcode": "3060607",
    "prefectureCode": "08",
    "prefectureNumber": 8,
    "prefecture": "茨城県",
    "city": "坂東市",
    "town": "弓田"
  },
  "3060608": {
    "zipcode": "3060608",
    "prefectureCode": "08",
    "prefectureNumber": 8,
    "prefecture": "茨城県",
    "city": "坂東市",
    "town": "幸神平"
  },
  "3060611": {
    "zipcode": "3060611",
    "prefectureCode": "08",
    "prefectureNumber": 8,
    "prefecture": "茨城県",
    "city": "坂東市",
    "town": "神田山新田"
  },
  "3060612": {
    "zipcode": "3060612",
    "prefectureCode": "08",
    "prefectureNumber": 8,
    "prefecture": "茨城県",
    "city": "坂東市",
    "town": "猫実新田"
  },
  "3060613": {
    "zipcode": "3060613",
    "prefectureCode": "08",
    "prefectureNumber": 8,
    "prefecture": "茨城県",
    "city": "坂東市",
    "town": "大口新田"
  },
  "3060614": {
    "zipcode": "3060614",
    "prefectureCode": "08",
    "prefectureNumber": 8,
    "prefecture": "茨城県",
    "city": "坂東市",
    "town": "庄右衛門新田"
  },
  "3060615": {
    "zipcode": "3060615",
    "prefectureCode": "08",
    "prefectureNumber": 8,
    "prefecture": "茨城県",
    "city": "坂東市",
    "town": "大口"
  },
  "3060616": {
    "zipcode": "3060616",
    "prefectureCode": "08",
    "prefectureNumber": 8,
    "prefecture": "茨城県",
    "city": "坂東市",
    "town": "猫実"
  },
  "3060617": {
    "zipcode": "3060617",
    "prefectureCode": "08",
    "prefectureNumber": 8,
    "prefecture": "茨城県",
    "city": "坂東市",
    "town": "神田山"
  },
  "3060621": {
    "zipcode": "3060621",
    "prefectureCode": "08",
    "prefectureNumber": 8,
    "prefecture": "茨城県",
    "city": "坂東市",
    "town": "大谷口"
  },
  "3060622": {
    "zipcode": "3060622",
    "prefectureCode": "08",
    "prefectureNumber": 8,
    "prefecture": "茨城県",
    "city": "坂東市",
    "town": "大崎"
  },
  "3060623": {
    "zipcode": "3060623",
    "prefectureCode": "08",
    "prefectureNumber": 8,
    "prefecture": "茨城県",
    "city": "坂東市",
    "town": "法師戸"
  },
  "3060624": {
    "zipcode": "3060624",
    "prefectureCode": "08",
    "prefectureNumber": 8,
    "prefecture": "茨城県",
    "city": "坂東市",
    "town": "矢作"
  },
  "3060625": {
    "zipcode": "3060625",
    "prefectureCode": "08",
    "prefectureNumber": 8,
    "prefecture": "茨城県",
    "city": "坂東市",
    "town": "莚打"
  },
  "3060626": {
    "zipcode": "3060626",
    "prefectureCode": "08",
    "prefectureNumber": 8,
    "prefecture": "茨城県",
    "city": "坂東市",
    "town": "小山"
  },
  "3060631": {
    "zipcode": "3060631",
    "prefectureCode": "08",
    "prefectureNumber": 8,
    "prefecture": "茨城県",
    "city": "坂東市",
    "town": "岩井"
  },
  "3060632": {
    "zipcode": "3060632",
    "prefectureCode": "08",
    "prefectureNumber": 8,
    "prefecture": "茨城県",
    "city": "坂東市",
    "town": "辺田"
  },
  "3060633": {
    "zipcode": "3060633",
    "prefectureCode": "08",
    "prefectureNumber": 8,
    "prefecture": "茨城県",
    "city": "坂東市",
    "town": "下出島"
  },
  "3060634": {
    "zipcode": "3060634",
    "prefectureCode": "08",
    "prefectureNumber": 8,
    "prefecture": "茨城県",
    "city": "坂東市",
    "town": "中里"
  },
  "3060635": {
    "zipcode": "3060635",
    "prefectureCode": "08",
    "prefectureNumber": 8,
    "prefecture": "茨城県",
    "city": "坂東市",
    "town": "小泉"
  },
  "3060636": {
    "zipcode": "3060636",
    "prefectureCode": "08",
    "prefectureNumber": 8,
    "prefecture": "茨城県",
    "city": "坂東市",
    "town": "桐木"
  },
  "3060637": {
    "zipcode": "3060637",
    "prefectureCode": "08",
    "prefectureNumber": 8,
    "prefecture": "茨城県",
    "city": "坂東市",
    "town": "みどり町"
  },
  "3060641": {
    "zipcode": "3060641",
    "prefectureCode": "08",
    "prefectureNumber": 8,
    "prefecture": "茨城県",
    "city": "坂東市",
    "town": "鵠戸"
  },
  "3060642": {
    "zipcode": "3060642",
    "prefectureCode": "08",
    "prefectureNumber": 8,
    "prefecture": "茨城県",
    "city": "坂東市",
    "town": "長谷"
  },
  "3060643": {
    "zipcode": "3060643",
    "prefectureCode": "08",
    "prefectureNumber": 8,
    "prefecture": "茨城県",
    "city": "坂東市",
    "town": "木間ケ瀬"
  },
  "3060644": {
    "zipcode": "3060644",
    "prefectureCode": "08",
    "prefectureNumber": 8,
    "prefecture": "茨城県",
    "city": "坂東市",
    "town": "古布内"
  },
  "3060645": {
    "zipcode": "3060645",
    "prefectureCode": "08",
    "prefectureNumber": 8,
    "prefecture": "茨城県",
    "city": "坂東市",
    "town": "長須"
  },
  "3060651": {
    "zipcode": "3060651",
    "prefectureCode": "08",
    "prefectureNumber": 8,
    "prefecture": "茨城県",
    "city": "坂東市",
    "town": "半谷"
  },
  "3060652": {
    "zipcode": "3060652",
    "prefectureCode": "08",
    "prefectureNumber": 8,
    "prefecture": "茨城県",
    "city": "坂東市",
    "town": "冨田"
  },
  "3060653": {
    "zipcode": "3060653",
    "prefectureCode": "08",
    "prefectureNumber": 8,
    "prefecture": "茨城県",
    "city": "坂東市",
    "town": "駒跿"
  },
  "3060654": {
    "zipcode": "3060654",
    "prefectureCode": "08",
    "prefectureNumber": 8,
    "prefecture": "茨城県",
    "city": "坂東市",
    "town": "上出島"
  },
  "3060655": {
    "zipcode": "3060655",
    "prefectureCode": "08",
    "prefectureNumber": 8,
    "prefecture": "茨城県",
    "city": "坂東市",
    "town": "みむら"
  },
  "3060656": {
    "zipcode": "3060656",
    "prefectureCode": "08",
    "prefectureNumber": 8,
    "prefecture": "茨城県",
    "city": "坂東市",
    "town": "寺久"
  },
  "3060657": {
    "zipcode": "3060657",
    "prefectureCode": "08",
    "prefectureNumber": 8,
    "prefecture": "茨城県",
    "city": "坂東市",
    "town": "借宿"
  },
  "3060658": {
    "zipcode": "3060658",
    "prefectureCode": "08",
    "prefectureNumber": 8,
    "prefecture": "茨城県",
    "city": "坂東市",
    "town": "緑の里"
  }
}
