{
  "3070000": {
    "zipcode": "3070000",
    "prefectureCode": "08",
    "prefectureNumber": 8,
    "prefecture": "茨城県",
    "city": "結城市",
    "town": "以下に掲載がない場合"
  },
  "3070001": {
    "zipcode": "3070001",
    "prefectureCode": "08",
    "prefectureNumber": 8,
    "prefecture": "茨城県",
    "city": "結城市",
    "town": "結城"
  },
  "3070002": {
    "zipcode": "3070002",
    "prefectureCode": "08",
    "prefectureNumber": 8,
    "prefecture": "茨城県",
    "city": "結城市",
    "town": "大谷瀬"
  },
  "3070003": {
    "zipcode": "3070003",
    "prefectureCode": "08",
    "prefectureNumber": 8,
    "prefecture": "茨城県",
    "city": "結城市",
    "town": "富士見町"
  },
  "3070004": {
    "zipcode": "3070004",
    "prefectureCode": "08",
    "prefectureNumber": 8,
    "prefecture": "茨城県",
    "city": "結城市",
    "town": "みどり町"
  },
  "3070005": {
    "zipcode": "3070005",
    "prefectureCode": "08",
    "prefectureNumber": 8,
    "prefecture": "茨城県",
    "city": "結城市",
    "town": "川木谷"
  },
  "3070006": {
    "zipcode": "3070006",
    "prefectureCode": "08",
    "prefectureNumber": 8,
    "prefecture": "茨城県",
    "city": "結城市",
    "town": "五助"
  },
  "3070007": {
    "zipcode": "3070007",
    "prefectureCode": "08",
    "prefectureNumber": 8,
    "prefecture": "茨城県",
    "city": "結城市",
    "town": "小田林"
  },
  "3070008": {
    "zipcode": "3070008",
    "prefectureCode": "08",
    "prefectureNumber": 8,
    "prefecture": "茨城県",
    "city": "結城市",
    "town": "下り松"
  },
  "3070011": {
    "zipcode": "3070011",
    "prefectureCode": "08",
    "prefectureNumber": 8,
    "prefecture": "茨城県",
    "city": "結城市",
    "town": "小森"
  },
  "3070012": {
    "zipcode": "3070012",
    "prefectureCode": "08",
    "prefectureNumber": 8,
    "prefecture": "茨城県",
    "city": "結城市",
    "town": "久保田"
  },
  "3070013": {
    "zipcode": "3070013",
    "prefectureCode": "08",
    "prefectureNumber": 8,
    "prefecture": "茨城県",
    "city": "結城市",
    "town": "中"
  },
  "3070014": {
    "zipcode": "3070014",
    "prefectureCode": "08",
    "prefectureNumber": 8,
    "prefecture": "茨城県",
    "city": "結城市",
    "town": "林"
  },
  "3070015": {
    "zipcode": "3070015",
    "prefectureCode": "08",
    "prefectureNumber": 8,
    "prefecture": "茨城県",
    "city": "結城市",
    "town": "鹿窪"
  },
  "3070016": {
    "zipcode": "3070016",
    "prefectureCode": "08",
    "prefectureNumber": 8,
    "prefecture": "茨城県",
    "city": "結城市",
    "town": "新堤仲通り"
  },
  "3070017": {
    "zipcode": "3070017",
    "prefectureCode": "08",
    "prefectureNumber": 8,
    "prefecture": "茨城県",
    "city": "結城市",
    "town": "若宮"
  },
  "3070018": {
    "zipcode": "3070018",
    "prefectureCode": "08",
    "prefectureNumber": 8,
    "prefecture": "茨城県",
    "city": "結城市",
    "town": "若宮西"
  },
  "3070021": {
    "zipcode": "3070021",
    "prefectureCode": "08",
    "prefectureNumber": 8,
    "prefecture": "茨城県",
    "city": "結城市",
    "town": "上山川"
  },
  "3070022": {
    "zipcode": "3070022",
    "prefectureCode": "08",
    "prefectureNumber": 8,
    "prefecture": "茨城県",
    "city": "結城市",
    "town": "矢畑"
  },
  "3070023": {
    "zipcode": "3070023",
    "prefectureCode": "08",
    "prefectureNumber": 8,
    "prefecture": "茨城県",
    "city": "結城市",
    "town": "山王"
  },
  "3070024": {
    "zipcode": "3070024",
    "prefectureCode": "08",
    "prefectureNumber": 8,
    "prefecture": "茨城県",
    "city": "結城市",
    "town": "水海道"
  },
  "3070025": {
    "zipcode": "3070025",
    "prefectureCode": "08",
    "prefectureNumber": 8,
    "prefecture": "茨城県",
    "city": "結城市",
    "town": "浜野辺"
  },
  "3070026": {
    "zipcode": "3070026",
    "prefectureCode": "08",
    "prefectureNumber": 8,
    "prefecture": "茨城県",
    "city": "結城市",
    "town": "芳賀崎"
  },
  "3070027": {
    "zipcode": "3070027",
    "prefectureCode": "08",
    "prefectureNumber": 8,
    "prefecture": "茨城県",
    "city": "結城市",
    "town": "粕礼"
  },
  "3070028": {
    "zipcode": "3070028",
    "prefectureCode": "08",
    "prefectureNumber": 8,
    "prefecture": "茨城県",
    "city": "結城市",
    "town": "今宿"
  },
  "3070029": {
    "zipcode": "3070029",
    "prefectureCode": "08",
    "prefectureNumber": 8,
    "prefecture": "茨城県",
    "city": "結城市",
    "town": "新矢畑"
  },
  "3070031": {
    "zipcode": "3070031",
    "prefectureCode": "08",
    "prefectureNumber": 8,
    "prefecture": "茨城県",
    "city": "結城市",
    "town": "大木"
  },
  "3070032": {
    "zipcode": "3070032",
    "prefectureCode": "08",
    "prefectureNumber": 8,
    "prefecture": "茨城県",
    "city": "結城市",
    "town": "古宿新田"
  },
  "3070033": {
    "zipcode": "3070033",
    "prefectureCode": "08",
    "prefectureNumber": 8,
    "prefecture": "茨城県",
    "city": "結城市",
    "town": "山川新宿"
  },
  "3070034": {
    "zipcode": "3070034",
    "prefectureCode": "08",
    "prefectureNumber": 8,
    "prefecture": "茨城県",
    "city": "結城市",
    "town": "新宿新田"
  },
  "3070035": {
    "zipcode": "3070035",
    "prefectureCode": "08",
    "prefectureNumber": 8,
    "prefecture": "茨城県",
    "city": "結城市",
    "town": "善右ヱ門新田"
  },
  "3070036": {
    "zipcode": "3070036",
    "prefectureCode": "08",
    "prefectureNumber": 8,
    "prefecture": "茨城県",
    "city": "結城市",
    "town": "北南茂呂"
  },
  "3070037": {
    "zipcode": "3070037",
    "prefectureCode": "08",
    "prefectureNumber": 8,
    "prefecture": "茨城県",
    "city": "結城市",
    "town": "東茂呂"
  },
  "3070038": {
    "zipcode": "3070038",
    "prefectureCode": "08",
    "prefectureNumber": 8,
    "prefecture": "茨城県",
    "city": "結城市",
    "town": "七五三場"
  },
  "3070041": {
    "zipcode": "3070041",
    "prefectureCode": "08",
    "prefectureNumber": 8,
    "prefecture": "茨城県",
    "city": "結城市",
    "town": "江川大町"
  },
  "3070042": {
    "zipcode": "3070042",
    "prefectureCode": "08",
    "prefectureNumber": 8,
    "prefecture": "茨城県",
    "city": "結城市",
    "town": "江川新宿"
  },
  "3070043": {
    "zipcode": "3070043",
    "prefectureCode": "08",
    "prefectureNumber": 8,
    "prefecture": "茨城県",
    "city": "結城市",
    "town": "武井"
  },
  "3070044": {
    "zipcode": "3070044",
    "prefectureCode": "08",
    "prefectureNumber": 8,
    "prefecture": "茨城県",
    "city": "結城市",
    "town": "田間"
  },
  "3070045": {
    "zipcode": "3070045",
    "prefectureCode": "08",
    "prefectureNumber": 8,
    "prefecture": "茨城県",
    "city": "結城市",
    "town": "上成"
  },
  "3070046": {
    "zipcode": "3070046",
    "prefectureCode": "08",
    "prefectureNumber": 8,
    "prefecture": "茨城県",
    "city": "結城市",
    "town": "結城作"
  },
  "3070051": {
    "zipcode": "3070051",
    "prefectureCode": "08",
    "prefectureNumber": 8,
    "prefecture": "茨城県",
    "city": "結城市",
    "town": "国府町"
  },
  "3070052": {
    "zipcode": "3070052",
    "prefectureCode": "08",
    "prefectureNumber": 8,
    "prefecture": "茨城県",
    "city": "結城市",
    "town": "中央町"
  },
  "3070053": {
    "zipcode": "3070053",
    "prefectureCode": "08",
    "prefectureNumber": 8,
    "prefecture": "茨城県",
    "city": "結城市",
    "town": "新福寺"
  },
  "3070054": {
    "zipcode": "3070054",
    "prefectureCode": "08",
    "prefectureNumber": 8,
    "prefecture": "茨城県",
    "city": "結城市",
    "town": "城南町"
  },
  "3070055": {
    "zipcode": "3070055",
    "prefectureCode": "08",
    "prefectureNumber": 8,
    "prefecture": "茨城県",
    "city": "結城市",
    "town": "大橋町"
  }
}
