{
  "3091101": {
    "zipcode": "3091101",
    "prefectureCode": "08",
    "prefectureNumber": 8,
    "prefecture": "茨城県",
    "city": "筑西市",
    "town": "小栗"
  },
  "3091102": {
    "zipcode": "3091102",
    "prefectureCode": "08",
    "prefectureNumber": 8,
    "prefecture": "茨城県",
    "city": "筑西市",
    "town": "蓬田"
  },
  "3091103": {
    "zipcode": "3091103",
    "prefectureCode": "08",
    "prefectureNumber": 8,
    "prefecture": "茨城県",
    "city": "筑西市",
    "town": "久地楽"
  },
  "3091104": {
    "zipcode": "3091104",
    "prefectureCode": "08",
    "prefectureNumber": 8,
    "prefecture": "茨城県",
    "city": "筑西市",
    "town": "古郡"
  },
  "3091105": {
    "zipcode": "3091105",
    "prefectureCode": "08",
    "prefectureNumber": 8,
    "prefecture": "茨城県",
    "city": "筑西市",
    "town": "三郷"
  },
  "3091106": {
    "zipcode": "3091106",
    "prefectureCode": "08",
    "prefectureNumber": 8,
    "prefecture": "茨城県",
    "city": "筑西市",
    "town": "新治"
  },
  "3091107": {
    "zipcode": "3091107",
    "prefectureCode": "08",
    "prefectureNumber": 8,
    "prefecture": "茨城県",
    "city": "筑西市",
    "town": "門井"
  },
  "3091108": {
    "zipcode": "3091108",
    "prefectureCode": "08",
    "prefectureNumber": 8,
    "prefecture": "茨城県",
    "city": "筑西市",
    "town": "井出蛯沢"
  },
  "3091111": {
    "zipcode": "3091111",
    "prefectureCode": "08",
    "prefectureNumber": 8,
    "prefecture": "茨城県",
    "city": "筑西市",
    "town": "上星谷"
  },
  "3091112": {
    "zipcode": "3091112",
    "prefectureCode": "08",
    "prefectureNumber": 8,
    "prefecture": "茨城県",
    "city": "筑西市",
    "town": "八幡"
  },
  "3091113": {
    "zipcode": "3091113",
    "prefectureCode": "08",
    "prefectureNumber": 8,
    "prefecture": "茨城県",
    "city": "筑西市",
    "town": "柳"
  },
  "3091114": {
    "zipcode": "3091114",
    "prefectureCode": "08",
    "prefectureNumber": 8,
    "prefecture": "茨城県",
    "city": "筑西市",
    "town": "細田"
  },
  "3091115": {
    "zipcode": "3091115",
    "prefectureCode": "08",
    "prefectureNumber": 8,
    "prefecture": "茨城県",
    "city": "筑西市",
    "town": "蓮沼"
  },
  "3091116": {
    "zipcode": "3091116",
    "prefectureCode": "08",
    "prefectureNumber": 8,
    "prefecture": "茨城県",
    "city": "筑西市",
    "town": "横塚"
  },
  "3091117": {
    "zipcode": "3091117",
    "prefectureCode": "08",
    "prefectureNumber": 8,
    "prefecture": "茨城県",
    "city": "筑西市",
    "town": "向川澄"
  },
  "3091121": {
    "zipcode": "3091121",
    "prefectureCode": "08",
    "prefectureNumber": 8,
    "prefecture": "茨城県",
    "city": "筑西市",
    "town": "谷永島"
  },
  "3091122": {
    "zipcode": "3091122",
    "prefectureCode": "08",
    "prefectureNumber": 8,
    "prefecture": "茨城県",
    "city": "筑西市",
    "town": "下星谷"
  },
  "3091123": {
    "zipcode": "3091123",
    "prefectureCode": "08",
    "prefectureNumber": 8,
    "prefecture": "茨城県",
    "city": "筑西市",
    "town": "下郷谷"
  },
  "3091124": {
    "zipcode": "3091124",
    "prefectureCode": "08",
    "prefectureNumber": 8,
    "prefecture": "茨城県",
    "city": "筑西市",
    "town": "知行"
  },
  "3091125": {
    "zipcode": "3091125",
    "prefectureCode": "08",
    "prefectureNumber": 8,
    "prefecture": "茨城県",
    "city": "筑西市",
    "town": "大島"
  },
  "3091126": {
    "zipcode": "3091126",
    "prefectureCode": "08",
    "prefectureNumber": 8,
    "prefecture": "茨城県",
    "city": "筑西市",
    "town": "清水"
  },
  "3091127": {
    "zipcode": "3091127",
    "prefectureCode": "08",
    "prefectureNumber": 8,
    "prefecture": "茨城県",
    "city": "筑西市",
    "town": "桑山"
  },
  "3091200": {
    "zipcode": "3091200",
    "prefectureCode": "08",
    "prefectureNumber": 8,
    "prefecture": "茨城県",
    "city": "桜川市",
    "town": "以下に掲載がない場合"
  },
  "3091201": {
    "zipcode": "3091201",
    "prefectureCode": "08",
    "prefectureNumber": 8,
    "prefecture": "茨城県",
    "city": "桜川市",
    "town": "大泉"
  },
  "3091202": {
    "zipcode": "3091202",
    "prefectureCode": "08",
    "prefectureNumber": 8,
    "prefecture": "茨城県",
    "city": "桜川市",
    "town": "飯淵"
  },
  "3091203": {
    "zipcode": "3091203",
    "prefectureCode": "08",
    "prefectureNumber": 8,
    "prefecture": "茨城県",
    "city": "桜川市",
    "town": "富岡"
  },
  "3091204": {
    "zipcode": "3091204",
    "prefectureCode": "08",
    "prefectureNumber": 8,
    "prefecture": "茨城県",
    "city": "桜川市",
    "town": "久原"
  },
  "3091205": {
    "zipcode": "3091205",
    "prefectureCode": "08",
    "prefectureNumber": 8,
    "prefecture": "茨城県",
    "city": "桜川市",
    "town": "堤上"
  },
  "3091211": {
    "zipcode": "3091211",
    "prefectureCode": "08",
    "prefectureNumber": 8,
    "prefecture": "茨城県",
    "city": "桜川市",
    "town": "岩瀬"
  },
  "3091212": {
    "zipcode": "3091212",
    "prefectureCode": "08",
    "prefectureNumber": 8,
    "prefecture": "茨城県",
    "city": "桜川市",
    "town": "富士見台"
  },
  "3091213": {
    "zipcode": "3091213",
    "prefectureCode": "08",
    "prefectureNumber": 8,
    "prefecture": "茨城県",
    "city": "桜川市",
    "town": "西桜川"
  },
  "3091214": {
    "zipcode": "3091214",
    "prefectureCode": "08",
    "prefectureNumber": 8,
    "prefecture": "茨城県",
    "city": "桜川市",
    "town": "東桜川"
  },
  "3091215": {
    "zipcode": "3091215",
    "prefectureCode": "08",
    "prefectureNumber": 8,
    "prefecture": "茨城県",
    "city": "桜川市",
    "town": "御領"
  },
  "3091216": {
    "zipcode": "3091216",
    "prefectureCode": "08",
    "prefectureNumber": 8,
    "prefecture": "茨城県",
    "city": "桜川市",
    "town": "明日香"
  },
  "3091217": {
    "zipcode": "3091217",
    "prefectureCode": "08",
    "prefectureNumber": 8,
    "prefecture": "茨城県",
    "city": "桜川市",
    "town": "犬田"
  },
  "3091221": {
    "zipcode": "3091221",
    "prefectureCode": "08",
    "prefectureNumber": 8,
    "prefecture": "茨城県",
    "city": "桜川市",
    "town": "西飯岡"
  },
  "3091222": {
    "zipcode": "3091222",
    "prefectureCode": "08",
    "prefectureNumber": 8,
    "prefecture": "茨城県",
    "city": "桜川市",
    "town": "長方"
  },
  "3091223": {
    "zipcode": "3091223",
    "prefectureCode": "08",
    "prefectureNumber": 8,
    "prefecture": "茨城県",
    "city": "桜川市",
    "town": "鍬田"
  },
  "3091224": {
    "zipcode": "3091224",
    "prefectureCode": "08",
    "prefectureNumber": 8,
    "prefecture": "茨城県",
    "city": "桜川市",
    "town": "中泉"
  },
  "3091225": {
    "zipcode": "3091225",
    "prefectureCode": "08",
    "prefectureNumber": 8,
    "prefecture": "茨城県",
    "city": "桜川市",
    "town": "下泉"
  },
  "3091226": {
    "zipcode": "3091226",
    "prefectureCode": "08",
    "prefectureNumber": 8,
    "prefecture": "茨城県",
    "city": "桜川市",
    "town": "上野原地新田"
  },
  "3091227": {
    "zipcode": "3091227",
    "prefectureCode": "08",
    "prefectureNumber": 8,
    "prefecture": "茨城県",
    "city": "桜川市",
    "town": "本郷"
  },
  "3091231": {
    "zipcode": "3091231",
    "prefectureCode": "08",
    "prefectureNumber": 8,
    "prefecture": "茨城県",
    "city": "桜川市",
    "town": "本木"
  },
  "3091232": {
    "zipcode": "3091232",
    "prefectureCode": "08",
    "prefectureNumber": 8,
    "prefecture": "茨城県",
    "city": "桜川市",
    "town": "大曽根"
  },
  "3091233": {
    "zipcode": "3091233",
    "prefectureCode": "08",
    "prefectureNumber": 8,
    "prefecture": "茨城県",
    "city": "桜川市",
    "town": "東飯田"
  },
  "3091234": {
    "zipcode": "3091234",
    "prefectureCode": "08",
    "prefectureNumber": 8,
    "prefecture": "茨城県",
    "city": "桜川市",
    "town": "阿部田"
  },
  "3091241": {
    "zipcode": "3091241",
    "prefectureCode": "08",
    "prefectureNumber": 8,
    "prefecture": "茨城県",
    "city": "桜川市",
    "town": "青木"
  },
  "3091242": {
    "zipcode": "3091242",
    "prefectureCode": "08",
    "prefectureNumber": 8,
    "prefecture": "茨城県",
    "city": "桜川市",
    "town": "羽田"
  },
  "3091243": {
    "zipcode": "3091243",
    "prefectureCode": "08",
    "prefectureNumber": 8,
    "prefecture": "茨城県",
    "city": "桜川市",
    "town": "高久"
  },
  "3091244": {
    "zipcode": "3091244",
    "prefectureCode": "08",
    "prefectureNumber": 8,
    "prefecture": "茨城県",
    "city": "桜川市",
    "town": "大国玉"
  },
  "3091245": {
    "zipcode": "3091245",
    "prefectureCode": "08",
    "prefectureNumber": 8,
    "prefecture": "茨城県",
    "city": "桜川市",
    "town": "金敷"
  },
  "3091246": {
    "zipcode": "3091246",
    "prefectureCode": "08",
    "prefectureNumber": 8,
    "prefecture": "茨城県",
    "city": "桜川市",
    "town": "高森"
  },
  "3091331": {
    "zipcode": "3091331",
    "prefectureCode": "08",
    "prefectureNumber": 8,
    "prefecture": "茨城県",
    "city": "桜川市",
    "town": "平澤"
  },
  "3091332": {
    "zipcode": "3091332",
    "prefectureCode": "08",
    "prefectureNumber": 8,
    "prefecture": "茨城県",
    "city": "桜川市",
    "town": "池亀"
  },
  "3091333": {
    "zipcode": "3091333",
    "prefectureCode": "08",
    "prefectureNumber": 8,
    "prefecture": "茨城県",
    "city": "桜川市",
    "town": "山口"
  },
  "3091334": {
    "zipcode": "3091334",
    "prefectureCode": "08",
    "prefectureNumber": 8,
    "prefecture": "茨城県",
    "city": "桜川市",
    "town": "坂本"
  },
  "3091335": {
    "zipcode": "3091335",
    "prefectureCode": "08",
    "prefectureNumber": 8,
    "prefecture": "茨城県",
    "city": "桜川市",
    "town": "大月"
  },
  "3091336": {
    "zipcode": "3091336",
    "prefectureCode": "08",
    "prefectureNumber": 8,
    "prefecture": "茨城県",
    "city": "桜川市",
    "town": "小塩"
  },
  "3091337": {
    "zipcode": "3091337",
    "prefectureCode": "08",
    "prefectureNumber": 8,
    "prefecture": "茨城県",
    "city": "桜川市",
    "town": "福崎"
  },
  "3091341": {
    "zipcode": "3091341",
    "prefectureCode": "08",
    "prefectureNumber": 8,
    "prefecture": "茨城県",
    "city": "桜川市",
    "town": "門毛"
  },
  "3091342": {
    "zipcode": "3091342",
    "prefectureCode": "08",
    "prefectureNumber": 8,
    "prefecture": "茨城県",
    "city": "桜川市",
    "town": "間中"
  },
  "3091343": {
    "zipcode": "3091343",
    "prefectureCode": "08",
    "prefectureNumber": 8,
    "prefecture": "茨城県",
    "city": "桜川市",
    "town": "亀岡"
  },
  "3091344": {
    "zipcode": "3091344",
    "prefectureCode": "08",
    "prefectureNumber": 8,
    "prefecture": "茨城県",
    "city": "桜川市",
    "town": "南飯田"
  },
  "3091345": {
    "zipcode": "3091345",
    "prefectureCode": "08",
    "prefectureNumber": 8,
    "prefecture": "茨城県",
    "city": "桜川市",
    "town": "入野"
  },
  "3091346": {
    "zipcode": "3091346",
    "prefectureCode": "08",
    "prefectureNumber": 8,
    "prefecture": "茨城県",
    "city": "桜川市",
    "town": "中里"
  },
  "3091347": {
    "zipcode": "3091347",
    "prefectureCode": "08",
    "prefectureNumber": 8,
    "prefecture": "茨城県",
    "city": "桜川市",
    "town": "富谷"
  },
  "3091451": {
    "zipcode": "3091451",
    "prefectureCode": "08",
    "prefectureNumber": 8,
    "prefecture": "茨城県",
    "city": "桜川市",
    "town": "西小塙"
  },
  "3091452": {
    "zipcode": "3091452",
    "prefectureCode": "08",
    "prefectureNumber": 8,
    "prefecture": "茨城県",
    "city": "桜川市",
    "town": "加茂部"
  },
  "3091453": {
    "zipcode": "3091453",
    "prefectureCode": "08",
    "prefectureNumber": 8,
    "prefecture": "茨城県",
    "city": "桜川市",
    "town": "友部"
  },
  "3091454": {
    "zipcode": "3091454",
    "prefectureCode": "08",
    "prefectureNumber": 8,
    "prefecture": "茨城県",
    "city": "桜川市",
    "town": "上城"
  },
  "3091455": {
    "zipcode": "3091455",
    "prefectureCode": "08",
    "prefectureNumber": 8,
    "prefecture": "茨城県",
    "city": "桜川市",
    "town": "水戸"
  },
  "3091456": {
    "zipcode": "3091456",
    "prefectureCode": "08",
    "prefectureNumber": 8,
    "prefecture": "茨城県",
    "city": "桜川市",
    "town": "青柳"
  },
  "3091457": {
    "zipcode": "3091457",
    "prefectureCode": "08",
    "prefectureNumber": 8,
    "prefecture": "茨城県",
    "city": "桜川市",
    "town": "磯部"
  },
  "3091458": {
    "zipcode": "3091458",
    "prefectureCode": "08",
    "prefectureNumber": 8,
    "prefecture": "茨城県",
    "city": "桜川市",
    "town": "稲"
  },
  "3091461": {
    "zipcode": "3091461",
    "prefectureCode": "08",
    "prefectureNumber": 8,
    "prefecture": "茨城県",
    "city": "桜川市",
    "town": "松田"
  },
  "3091462": {
    "zipcode": "3091462",
    "prefectureCode": "08",
    "prefectureNumber": 8,
    "prefecture": "茨城県",
    "city": "桜川市",
    "town": "曽根"
  },
  "3091463": {
    "zipcode": "3091463",
    "prefectureCode": "08",
    "prefectureNumber": 8,
    "prefecture": "茨城県",
    "city": "桜川市",
    "town": "高幡"
  },
  "3091464": {
    "zipcode": "3091464",
    "prefectureCode": "08",
    "prefectureNumber": 8,
    "prefecture": "茨城県",
    "city": "桜川市",
    "town": "今泉"
  },
  "3091465": {
    "zipcode": "3091465",
    "prefectureCode": "08",
    "prefectureNumber": 8,
    "prefecture": "茨城県",
    "city": "桜川市",
    "town": "木植"
  },
  "3091466": {
    "zipcode": "3091466",
    "prefectureCode": "08",
    "prefectureNumber": 8,
    "prefecture": "茨城県",
    "city": "桜川市",
    "town": "猿田"
  },
  "3091600": {
    "zipcode": "3091600",
    "prefectureCode": "08",
    "prefectureNumber": 8,
    "prefecture": "茨城県",
    "city": "笠間市",
    "town": "以下に掲載がない場合"
  },
  "3091601": {
    "zipcode": "3091601",
    "prefectureCode": "08",
    "prefectureNumber": 8,
    "prefecture": "茨城県",
    "city": "笠間市",
    "town": "大橋"
  },
  "3091602": {
    "zipcode": "3091602",
    "prefectureCode": "08",
    "prefectureNumber": 8,
    "prefecture": "茨城県",
    "city": "笠間市",
    "town": "池野辺"
  },
  "3091603": {
    "zipcode": "3091603",
    "prefectureCode": "08",
    "prefectureNumber": 8,
    "prefecture": "茨城県",
    "city": "笠間市",
    "town": "福田"
  },
  "3091604": {
    "zipcode": "3091604",
    "prefectureCode": "08",
    "prefectureNumber": 8,
    "prefecture": "茨城県",
    "city": "笠間市",
    "town": "大渕"
  },
  "3091605": {
    "zipcode": "3091605",
    "prefectureCode": "08",
    "prefectureNumber": 8,
    "prefecture": "茨城県",
    "city": "笠間市",
    "town": "飯田"
  },
  "3091606": {
    "zipcode": "3091606",
    "prefectureCode": "08",
    "prefectureNumber": 8,
    "prefecture": "茨城県",
    "city": "笠間市",
    "town": "日沢"
  },
  "3091607": {
    "zipcode": "3091607",
    "prefectureCode": "08",
    "prefectureNumber": 8,
    "prefecture": "茨城県",
    "city": "笠間市",
    "town": "石寺"
  },
  "3091611": {
    "zipcode": "3091611",
    "prefectureCode": "08",
    "prefectureNumber": 8,
    "prefecture": "茨城県",
    "city": "笠間市",
    "town": "笠間"
  },
  "3091612": {
    "zipcode": "3091612",
    "prefectureCode": "08",
    "prefectureNumber": 8,
    "prefecture": "茨城県",
    "city": "笠間市",
    "town": "日草場"
  },
  "3091613": {
    "zipcode": "3091613",
    "prefectureCode": "08",
    "prefectureNumber": 8,
    "prefecture": "茨城県",
    "city": "笠間市",
    "town": "石井"
  },
  "3091614": {
    "zipcode": "3091614",
    "prefectureCode": "08",
    "prefectureNumber": 8,
    "prefecture": "茨城県",
    "city": "笠間市",
    "town": "寺崎"
  },
  "3091615": {
    "zipcode": "3091615",
    "prefectureCode": "08",
    "prefectureNumber": 8,
    "prefecture": "茨城県",
    "city": "笠間市",
    "town": "金井"
  },
  "3091616": {
    "zipcode": "3091616",
    "prefectureCode": "08",
    "prefectureNumber": 8,
    "prefecture": "茨城県",
    "city": "笠間市",
    "town": "赤坂"
  },
  "3091621": {
    "zipcode": "3091621",
    "prefectureCode": "08",
    "prefectureNumber": 8,
    "prefecture": "茨城県",
    "city": "笠間市",
    "town": "手越"
  },
  "3091622": {
    "zipcode": "3091622",
    "prefectureCode": "08",
    "prefectureNumber": 8,
    "prefecture": "茨城県",
    "city": "笠間市",
    "town": "南吉原"
  },
  "3091623": {
    "zipcode": "3091623",
    "prefectureCode": "08",
    "prefectureNumber": 8,
    "prefecture": "茨城県",
    "city": "笠間市",
    "town": "上加賀田"
  },
  "3091624": {
    "zipcode": "3091624",
    "prefectureCode": "08",
    "prefectureNumber": 8,
    "prefecture": "茨城県",
    "city": "笠間市",
    "town": "北吉原"
  },
  "3091625": {
    "zipcode": "3091625",
    "prefectureCode": "08",
    "prefectureNumber": 8,
    "prefecture": "茨城県",
    "city": "笠間市",
    "town": "来栖"
  },
  "3091626": {
    "zipcode": "3091626",
    "prefectureCode": "08",
    "prefectureNumber": 8,
    "prefecture": "茨城県",
    "city": "笠間市",
    "town": "下市毛"
  },
  "3091631": {
    "zipcode": "3091631",
    "prefectureCode": "08",
    "prefectureNumber": 8,
    "prefecture": "茨城県",
    "city": "笠間市",
    "town": "箱田"
  },
  "3091632": {
    "zipcode": "3091632",
    "prefectureCode": "08",
    "prefectureNumber": 8,
    "prefecture": "茨城県",
    "city": "笠間市",
    "town": "飯合"
  },
  "3091633": {
    "zipcode": "3091633",
    "prefectureCode": "08",
    "prefectureNumber": 8,
    "prefecture": "茨城県",
    "city": "笠間市",
    "town": "本戸"
  },
  "3091634": {
    "zipcode": "3091634",
    "prefectureCode": "08",
    "prefectureNumber": 8,
    "prefecture": "茨城県",
    "city": "笠間市",
    "town": "福原"
  },
  "3091635": {
    "zipcode": "3091635",
    "prefectureCode": "08",
    "prefectureNumber": 8,
    "prefecture": "茨城県",
    "city": "笠間市",
    "town": "稲田"
  },
  "3091636": {
    "zipcode": "3091636",
    "prefectureCode": "08",
    "prefectureNumber": 8,
    "prefecture": "茨城県",
    "city": "笠間市",
    "town": "大郷戸"
  },
  "3091637": {
    "zipcode": "3091637",
    "prefectureCode": "08",
    "prefectureNumber": 8,
    "prefecture": "茨城県",
    "city": "笠間市",
    "town": "片庭"
  },
  "3091701": {
    "zipcode": "3091701",
    "prefectureCode": "08",
    "prefectureNumber": 8,
    "prefecture": "茨城県",
    "city": "笠間市",
    "town": "小原"
  },
  "3091702": {
    "zipcode": "3091702",
    "prefectureCode": "08",
    "prefectureNumber": 8,
    "prefecture": "茨城県",
    "city": "笠間市",
    "town": "五平"
  },
  "3091703": {
    "zipcode": "3091703",
    "prefectureCode": "08",
    "prefectureNumber": 8,
    "prefecture": "茨城県",
    "city": "笠間市",
    "town": "鯉淵"
  },
  "3091704": {
    "zipcode": "3091704",
    "prefectureCode": "08",
    "prefectureNumber": 8,
    "prefecture": "茨城県",
    "city": "笠間市",
    "town": "美原"
  },
  "3091705": {
    "zipcode": "3091705",
    "prefectureCode": "08",
    "prefectureNumber": 8,
    "prefecture": "茨城県",
    "city": "笠間市",
    "town": "東平"
  },
  "3091706": {
    "zipcode": "3091706",
    "prefectureCode": "08",
    "prefectureNumber": 8,
    "prefecture": "茨城県",
    "city": "笠間市",
    "town": "鴻巣"
  },
  "3091711": {
    "zipcode": "3091711",
    "prefectureCode": "08",
    "prefectureNumber": 8,
    "prefecture": "茨城県",
    "city": "笠間市",
    "town": "随分附"
  },
  "3091712": {
    "zipcode": "3091712",
    "prefectureCode": "08",
    "prefectureNumber": 8,
    "prefecture": "茨城県",
    "city": "笠間市",
    "town": "長兎路"
  },
  "3091713": {
    "zipcode": "3091713",
    "prefectureCode": "08",
    "prefectureNumber": 8,
    "prefecture": "茨城県",
    "city": "笠間市",
    "town": "柏井"
  },
  "3091714": {
    "zipcode": "3091714",
    "prefectureCode": "08",
    "prefectureNumber": 8,
    "prefecture": "茨城県",
    "city": "笠間市",
    "town": "仁古田"
  },
  "3091715": {
    "zipcode": "3091715",
    "prefectureCode": "08",
    "prefectureNumber": 8,
    "prefecture": "茨城県",
    "city": "笠間市",
    "town": "湯崎"
  },
  "3091716": {
    "zipcode": "3091716",
    "prefectureCode": "08",
    "prefectureNumber": 8,
    "prefecture": "茨城県",
    "city": "笠間市",
    "town": "住吉"
  },
  "3091717": {
    "zipcode": "3091717",
    "prefectureCode": "08",
    "prefectureNumber": 8,
    "prefecture": "茨城県",
    "city": "笠間市",
    "town": "旭町"
  },
  "3091721": {
    "zipcode": "3091721",
    "prefectureCode": "08",
    "prefectureNumber": 8,
    "prefecture": "茨城県",
    "city": "笠間市",
    "town": "橋爪"
  },
  "3091722": {
    "zipcode": "3091722",
    "prefectureCode": "08",
    "prefectureNumber": 8,
    "prefecture": "茨城県",
    "city": "笠間市",
    "town": "平町"
  },
  "3091723": {
    "zipcode": "3091723",
    "prefectureCode": "08",
    "prefectureNumber": 8,
    "prefecture": "茨城県",
    "city": "笠間市",
    "town": "矢野下"
  },
  "3091724": {
    "zipcode": "3091724",
    "prefectureCode": "08",
    "prefectureNumber": 8,
    "prefecture": "茨城県",
    "city": "笠間市",
    "town": "大古山"
  },
  "3091725": {
    "zipcode": "3091725",
    "prefectureCode": "08",
    "prefectureNumber": 8,
    "prefecture": "茨城県",
    "city": "笠間市",
    "town": "南小泉"
  },
  "3091726": {
    "zipcode": "3091726",
    "prefectureCode": "08",
    "prefectureNumber": 8,
    "prefecture": "茨城県",
    "city": "笠間市",
    "town": "下加賀田"
  },
  "3091731": {
    "zipcode": "3091731",
    "prefectureCode": "08",
    "prefectureNumber": 8,
    "prefecture": "茨城県",
    "city": "笠間市",
    "town": "上市原"
  },
  "3091732": {
    "zipcode": "3091732",
    "prefectureCode": "08",
    "prefectureNumber": 8,
    "prefecture": "茨城県",
    "city": "笠間市",
    "town": "中市原"
  },
  "3091733": {
    "zipcode": "3091733",
    "prefectureCode": "08",
    "prefectureNumber": 8,
    "prefecture": "茨城県",
    "city": "笠間市",
    "town": "下市原"
  },
  "3091734": {
    "zipcode": "3091734",
    "prefectureCode": "08",
    "prefectureNumber": 8,
    "prefecture": "茨城県",
    "city": "笠間市",
    "town": "南友部"
  },
  "3091735": {
    "zipcode": "3091735",
    "prefectureCode": "08",
    "prefectureNumber": 8,
    "prefecture": "茨城県",
    "city": "笠間市",
    "town": "友部駅前"
  },
  "3091736": {
    "zipcode": "3091736",
    "prefectureCode": "08",
    "prefectureNumber": 8,
    "prefecture": "茨城県",
    "city": "笠間市",
    "town": "八雲"
  },
  "3091737": {
    "zipcode": "3091737",
    "prefectureCode": "08",
    "prefectureNumber": 8,
    "prefecture": "茨城県",
    "city": "笠間市",
    "town": "中央"
  },
  "3091738": {
    "zipcode": "3091738",
    "prefectureCode": "08",
    "prefectureNumber": 8,
    "prefecture": "茨城県",
    "city": "笠間市",
    "town": "大田町"
  }
}
