{
  "3130000": {
    "zipcode": "3130000",
    "prefectureCode": "08",
    "prefectureNumber": 8,
    "prefecture": "茨城県",
    "city": "常陸太田市",
    "town": "以下に掲載がない場合"
  },
  "3130001": {
    "zipcode": "3130001",
    "prefectureCode": "08",
    "prefectureNumber": 8,
    "prefecture": "茨城県",
    "city": "常陸太田市",
    "town": "上大門町"
  },
  "3130002": {
    "zipcode": "3130002",
    "prefectureCode": "08",
    "prefectureNumber": 8,
    "prefecture": "茨城県",
    "city": "常陸太田市",
    "town": "下大門町"
  },
  "3130003": {
    "zipcode": "3130003",
    "prefectureCode": "08",
    "prefectureNumber": 8,
    "prefecture": "茨城県",
    "city": "常陸太田市",
    "town": "瑞龍町"
  },
  "3130004": {
    "zipcode": "3130004",
    "prefectureCode": "08",
    "prefectureNumber": 8,
    "prefecture": "茨城県",
    "city": "常陸太田市",
    "town": "馬場町"
  },
  "3130005": {
    "zipcode": "3130005",
    "prefectureCode": "08",
    "prefectureNumber": 8,
    "prefecture": "茨城県",
    "city": "常陸太田市",
    "town": "栄町"
  },
  "3130006": {
    "zipcode": "3130006",
    "prefectureCode": "08",
    "prefectureNumber": 8,
    "prefecture": "茨城県",
    "city": "常陸太田市",
    "town": "宮本町"
  },
  "3130007": {
    "zipcode": "3130007",
    "prefectureCode": "08",
    "prefectureNumber": 8,
    "prefecture": "茨城県",
    "city": "常陸太田市",
    "town": "新宿町"
  },
  "3130008": {
    "zipcode": "3130008",
    "prefectureCode": "08",
    "prefectureNumber": 8,
    "prefecture": "茨城県",
    "city": "常陸太田市",
    "town": "増井町"
  },
  "3130011": {
    "zipcode": "3130011",
    "prefectureCode": "08",
    "prefectureNumber": 8,
    "prefecture": "茨城県",
    "city": "常陸太田市",
    "town": "西宮町"
  },
  "3130012": {
    "zipcode": "3130012",
    "prefectureCode": "08",
    "prefectureNumber": 8,
    "prefecture": "茨城県",
    "city": "常陸太田市",
    "town": "三才町"
  },
  "3130013": {
    "zipcode": "3130013",
    "prefectureCode": "08",
    "prefectureNumber": 8,
    "prefecture": "茨城県",
    "city": "常陸太田市",
    "town": "山下町"
  },
  "3130014": {
    "zipcode": "3130014",
    "prefectureCode": "08",
    "prefectureNumber": 8,
    "prefecture": "茨城県",
    "city": "常陸太田市",
    "town": "木崎二町"
  },
  "3130015": {
    "zipcode": "3130015",
    "prefectureCode": "08",
    "prefectureNumber": 8,
    "prefecture": "茨城県",
    "city": "常陸太田市",
    "town": "木崎一町"
  },
  "3130016": {
    "zipcode": "3130016",
    "prefectureCode": "08",
    "prefectureNumber": 8,
    "prefecture": "茨城県",
    "city": "常陸太田市",
    "town": "金井町"
  },
  "3130021": {
    "zipcode": "3130021",
    "prefectureCode": "08",
    "prefectureNumber": 8,
    "prefecture": "茨城県",
    "city": "常陸太田市",
    "town": "大森町"
  },
  "3130022": {
    "zipcode": "3130022",
    "prefectureCode": "08",
    "prefectureNumber": 8,
    "prefecture": "茨城県",
    "city": "常陸太田市",
    "town": "真弓町"
  },
  "3130023": {
    "zipcode": "3130023",
    "prefectureCode": "08",
    "prefectureNumber": 8,
    "prefecture": "茨城県",
    "city": "常陸太田市",
    "town": "亀作町"
  },
  "3130024": {
    "zipcode": "3130024",
    "prefectureCode": "08",
    "prefectureNumber": 8,
    "prefecture": "茨城県",
    "city": "常陸太田市",
    "town": "高貫町"
  },
  "3130025": {
    "zipcode": "3130025",
    "prefectureCode": "08",
    "prefectureNumber": 8,
    "prefecture": "茨城県",
    "city": "常陸太田市",
    "town": "幡町"
  },
  "3130026": {
    "zipcode": "3130026",
    "prefectureCode": "08",
    "prefectureNumber": 8,
    "prefecture": "茨城県",
    "city": "常陸太田市",
    "town": "田渡町"
  },
  "3130027": {
    "zipcode": "3130027",
    "prefectureCode": "08",
    "prefectureNumber": 8,
    "prefecture": "茨城県",
    "city": "常陸太田市",
    "town": "長谷町"
  },
  "3130031": {
    "zipcode": "3130031",
    "prefectureCode": "08",
    "prefectureNumber": 8,
    "prefecture": "茨城県",
    "city": "常陸太田市",
    "town": "岡田町"
  },
  "3130032": {
    "zipcode": "3130032",
    "prefectureCode": "08",
    "prefectureNumber": 8,
    "prefecture": "茨城県",
    "city": "常陸太田市",
    "town": "沢目町"
  },
  "3130033": {
    "zipcode": "3130033",
    "prefectureCode": "08",
    "prefectureNumber": 8,
    "prefecture": "茨城県",
    "city": "常陸太田市",
    "town": "小目町"
  },
  "3130034": {
    "zipcode": "3130034",
    "prefectureCode": "08",
    "prefectureNumber": 8,
    "prefecture": "茨城県",
    "city": "常陸太田市",
    "town": "上土木内町"
  },
  "3130035": {
    "zipcode": "3130035",
    "prefectureCode": "08",
    "prefectureNumber": 8,
    "prefecture": "茨城県",
    "city": "常陸太田市",
    "town": "堅磐町"
  },
  "3130036": {
    "zipcode": "3130036",
    "prefectureCode": "08",
    "prefectureNumber": 8,
    "prefecture": "茨城県",
    "city": "常陸太田市",
    "town": "落合町"
  },
  "3130037": {
    "zipcode": "3130037",
    "prefectureCode": "08",
    "prefectureNumber": 8,
    "prefecture": "茨城県",
    "city": "常陸太田市",
    "town": "内田町"
  },
  "3130038": {
    "zipcode": "3130038",
    "prefectureCode": "08",
    "prefectureNumber": 8,
    "prefecture": "茨城県",
    "city": "常陸太田市",
    "town": "小沢町"
  },
  "3130041": {
    "zipcode": "3130041",
    "prefectureCode": "08",
    "prefectureNumber": 8,
    "prefecture": "茨城県",
    "city": "常陸太田市",
    "town": "稲木町"
  },
  "3130042": {
    "zipcode": "3130042",
    "prefectureCode": "08",
    "prefectureNumber": 8,
    "prefecture": "茨城県",
    "city": "常陸太田市",
    "town": "磯部町"
  },
  "3130043": {
    "zipcode": "3130043",
    "prefectureCode": "08",
    "prefectureNumber": 8,
    "prefecture": "茨城県",
    "city": "常陸太田市",
    "town": "谷河原町"
  },
  "3130044": {
    "zipcode": "3130044",
    "prefectureCode": "08",
    "prefectureNumber": 8,
    "prefecture": "茨城県",
    "city": "常陸太田市",
    "town": "下河合町"
  },
  "3130045": {
    "zipcode": "3130045",
    "prefectureCode": "08",
    "prefectureNumber": 8,
    "prefecture": "茨城県",
    "city": "常陸太田市",
    "town": "粟原町"
  },
  "3130046": {
    "zipcode": "3130046",
    "prefectureCode": "08",
    "prefectureNumber": 8,
    "prefecture": "茨城県",
    "city": "常陸太田市",
    "town": "上河合町"
  },
  "3130047": {
    "zipcode": "3130047",
    "prefectureCode": "08",
    "prefectureNumber": 8,
    "prefecture": "茨城県",
    "city": "常陸太田市",
    "town": "島町"
  },
  "3130048": {
    "zipcode": "3130048",
    "prefectureCode": "08",
    "prefectureNumber": 8,
    "prefecture": "茨城県",
    "city": "常陸太田市",
    "town": "藤田町"
  },
  "3130049": {
    "zipcode": "3130049",
    "prefectureCode": "08",
    "prefectureNumber": 8,
    "prefecture": "茨城県",
    "city": "常陸太田市",
    "town": "天神林町"
  },
  "3130051": {
    "zipcode": "3130051",
    "prefectureCode": "08",
    "prefectureNumber": 8,
    "prefecture": "茨城県",
    "city": "常陸太田市",
    "town": "東一町"
  },
  "3130052": {
    "zipcode": "3130052",
    "prefectureCode": "08",
    "prefectureNumber": 8,
    "prefecture": "茨城県",
    "city": "常陸太田市",
    "town": "東二町"
  },
  "3130053": {
    "zipcode": "3130053",
    "prefectureCode": "08",
    "prefectureNumber": 8,
    "prefecture": "茨城県",
    "city": "常陸太田市",
    "town": "東三町"
  },
  "3130054": {
    "zipcode": "3130054",
    "prefectureCode": "08",
    "prefectureNumber": 8,
    "prefecture": "茨城県",
    "city": "常陸太田市",
    "town": "西三町"
  },
  "3130055": {
    "zipcode": "3130055",
    "prefectureCode": "08",
    "prefectureNumber": 8,
    "prefecture": "茨城県",
    "city": "常陸太田市",
    "town": "西二町"
  },
  "3130056": {
    "zipcode": "3130056",
    "prefectureCode": "08",
    "prefectureNumber": 8,
    "prefecture": "茨城県",
    "city": "常陸太田市",
    "town": "西一町"
  },
  "3130061": {
    "zipcode": "3130061",
    "prefectureCode": "08",
    "prefectureNumber": 8,
    "prefecture": "茨城県",
    "city": "常陸太田市",
    "town": "中城町"
  },
  "3130062": {
    "zipcode": "3130062",
    "prefectureCode": "08",
    "prefectureNumber": 8,
    "prefecture": "茨城県",
    "city": "常陸太田市",
    "town": "塙町"
  },
  "3130063": {
    "zipcode": "3130063",
    "prefectureCode": "08",
    "prefectureNumber": 8,
    "prefecture": "茨城県",
    "city": "常陸太田市",
    "town": "内堀町"
  },
  "3130064": {
    "zipcode": "3130064",
    "prefectureCode": "08",
    "prefectureNumber": 8,
    "prefecture": "茨城県",
    "city": "常陸太田市",
    "town": "寿町"
  },
  "3130101": {
    "zipcode": "3130101",
    "prefectureCode": "08",
    "prefectureNumber": 8,
    "prefecture": "茨城県",
    "city": "常陸太田市",
    "town": "上宮河内町"
  },
  "3130102": {
    "zipcode": "3130102",
    "prefectureCode": "08",
    "prefectureNumber": 8,
    "prefecture": "茨城県",
    "city": "常陸太田市",
    "town": "赤土町"
  },
  "3130103": {
    "zipcode": "3130103",
    "prefectureCode": "08",
    "prefectureNumber": 8,
    "prefecture": "茨城県",
    "city": "常陸太田市",
    "town": "下宮河内町"
  },
  "3130104": {
    "zipcode": "3130104",
    "prefectureCode": "08",
    "prefectureNumber": 8,
    "prefecture": "茨城県",
    "city": "常陸太田市",
    "town": "上利員町"
  },
  "3130105": {
    "zipcode": "3130105",
    "prefectureCode": "08",
    "prefectureNumber": 8,
    "prefecture": "茨城県",
    "city": "常陸太田市",
    "town": "中利員町"
  },
  "3130106": {
    "zipcode": "3130106",
    "prefectureCode": "08",
    "prefectureNumber": 8,
    "prefecture": "茨城県",
    "city": "常陸太田市",
    "town": "下利員町"
  },
  "3130111": {
    "zipcode": "3130111",
    "prefectureCode": "08",
    "prefectureNumber": 8,
    "prefecture": "茨城県",
    "city": "常陸太田市",
    "town": "千寿町"
  },
  "3130112": {
    "zipcode": "3130112",
    "prefectureCode": "08",
    "prefectureNumber": 8,
    "prefecture": "茨城県",
    "city": "常陸太田市",
    "town": "岩手町"
  },
  "3130113": {
    "zipcode": "3130113",
    "prefectureCode": "08",
    "prefectureNumber": 8,
    "prefecture": "茨城県",
    "city": "常陸太田市",
    "town": "高柿町"
  },
  "3130114": {
    "zipcode": "3130114",
    "prefectureCode": "08",
    "prefectureNumber": 8,
    "prefecture": "茨城県",
    "city": "常陸太田市",
    "town": "箕町"
  },
  "3130115": {
    "zipcode": "3130115",
    "prefectureCode": "08",
    "prefectureNumber": 8,
    "prefecture": "茨城県",
    "city": "常陸太田市",
    "town": "竹合町"
  },
  "3130116": {
    "zipcode": "3130116",
    "prefectureCode": "08",
    "prefectureNumber": 8,
    "prefecture": "茨城県",
    "city": "常陸太田市",
    "town": "大方町"
  },
  "3130117": {
    "zipcode": "3130117",
    "prefectureCode": "08",
    "prefectureNumber": 8,
    "prefecture": "茨城県",
    "city": "常陸太田市",
    "town": "宮の郷町"
  },
  "3130121": {
    "zipcode": "3130121",
    "prefectureCode": "08",
    "prefectureNumber": 8,
    "prefecture": "茨城県",
    "city": "常陸太田市",
    "town": "芦間町"
  },
  "3130122": {
    "zipcode": "3130122",
    "prefectureCode": "08",
    "prefectureNumber": 8,
    "prefecture": "茨城県",
    "city": "常陸太田市",
    "town": "玉造町"
  },
  "3130123": {
    "zipcode": "3130123",
    "prefectureCode": "08",
    "prefectureNumber": 8,
    "prefecture": "茨城県",
    "city": "常陸太田市",
    "town": "久米町"
  },
  "3130124": {
    "zipcode": "3130124",
    "prefectureCode": "08",
    "prefectureNumber": 8,
    "prefecture": "茨城県",
    "city": "常陸太田市",
    "town": "大平町"
  },
  "3130125": {
    "zipcode": "3130125",
    "prefectureCode": "08",
    "prefectureNumber": 8,
    "prefecture": "茨城県",
    "city": "常陸太田市",
    "town": "大里町"
  },
  "3130126": {
    "zipcode": "3130126",
    "prefectureCode": "08",
    "prefectureNumber": 8,
    "prefecture": "茨城県",
    "city": "常陸太田市",
    "town": "薬谷町"
  },
  "3130131": {
    "zipcode": "3130131",
    "prefectureCode": "08",
    "prefectureNumber": 8,
    "prefecture": "茨城県",
    "city": "常陸太田市",
    "town": "花房町"
  },
  "3130132": {
    "zipcode": "3130132",
    "prefectureCode": "08",
    "prefectureNumber": 8,
    "prefecture": "茨城県",
    "city": "常陸太田市",
    "town": "新地町"
  },
  "3130133": {
    "zipcode": "3130133",
    "prefectureCode": "08",
    "prefectureNumber": 8,
    "prefecture": "茨城県",
    "city": "常陸太田市",
    "town": "松栄町"
  },
  "3130134": {
    "zipcode": "3130134",
    "prefectureCode": "08",
    "prefectureNumber": 8,
    "prefecture": "茨城県",
    "city": "常陸太田市",
    "town": "中野町"
  },
  "3130135": {
    "zipcode": "3130135",
    "prefectureCode": "08",
    "prefectureNumber": 8,
    "prefecture": "茨城県",
    "city": "常陸太田市",
    "town": "小島町"
  },
  "3130211": {
    "zipcode": "3130211",
    "prefectureCode": "08",
    "prefectureNumber": 8,
    "prefecture": "茨城県",
    "city": "常陸太田市",
    "town": "東染町"
  },
  "3130212": {
    "zipcode": "3130212",
    "prefectureCode": "08",
    "prefectureNumber": 8,
    "prefecture": "茨城県",
    "city": "常陸太田市",
    "town": "中染町"
  },
  "3130213": {
    "zipcode": "3130213",
    "prefectureCode": "08",
    "prefectureNumber": 8,
    "prefecture": "茨城県",
    "city": "常陸太田市",
    "town": "町田町"
  },
  "3130214": {
    "zipcode": "3130214",
    "prefectureCode": "08",
    "prefectureNumber": 8,
    "prefecture": "茨城県",
    "city": "常陸太田市",
    "town": "和久町"
  },
  "3130215": {
    "zipcode": "3130215",
    "prefectureCode": "08",
    "prefectureNumber": 8,
    "prefecture": "茨城県",
    "city": "常陸太田市",
    "town": "西染町"
  },
  "3130221": {
    "zipcode": "3130221",
    "prefectureCode": "08",
    "prefectureNumber": 8,
    "prefecture": "茨城県",
    "city": "常陸太田市",
    "town": "国安町"
  },
  "3130222": {
    "zipcode": "3130222",
    "prefectureCode": "08",
    "prefectureNumber": 8,
    "prefecture": "茨城県",
    "city": "常陸太田市",
    "town": "松平町"
  },
  "3130223": {
    "zipcode": "3130223",
    "prefectureCode": "08",
    "prefectureNumber": 8,
    "prefecture": "茨城県",
    "city": "常陸太田市",
    "town": "和田町"
  },
  "3130224": {
    "zipcode": "3130224",
    "prefectureCode": "08",
    "prefectureNumber": 8,
    "prefecture": "茨城県",
    "city": "常陸太田市",
    "town": "東連地町"
  },
  "3130225": {
    "zipcode": "3130225",
    "prefectureCode": "08",
    "prefectureNumber": 8,
    "prefecture": "茨城県",
    "city": "常陸太田市",
    "town": "棚谷町"
  },
  "3130351": {
    "zipcode": "3130351",
    "prefectureCode": "08",
    "prefectureNumber": 8,
    "prefecture": "茨城県",
    "city": "常陸太田市",
    "town": "天下野町"
  },
  "3130352": {
    "zipcode": "3130352",
    "prefectureCode": "08",
    "prefectureNumber": 8,
    "prefecture": "茨城県",
    "city": "常陸太田市",
    "town": "下高倉町"
  },
  "3130353": {
    "zipcode": "3130353",
    "prefectureCode": "08",
    "prefectureNumber": 8,
    "prefecture": "茨城県",
    "city": "常陸太田市",
    "town": "上高倉町"
  }
}
