{
  "3140000": {
    "zipcode": "3140000",
    "prefectureCode": "08",
    "prefectureNumber": 8,
    "prefecture": "茨城県",
    "city": "鹿嶋市",
    "town": "以下に掲載がない場合"
  },
  "3140001": {
    "zipcode": "3140001",
    "prefectureCode": "08",
    "prefectureNumber": 8,
    "prefecture": "茨城県",
    "city": "鹿嶋市",
    "town": "清水"
  },
  "3140002": {
    "zipcode": "3140002",
    "prefectureCode": "08",
    "prefectureNumber": 8,
    "prefecture": "茨城県",
    "city": "鹿嶋市",
    "town": "明石"
  },
  "3140003": {
    "zipcode": "3140003",
    "prefectureCode": "08",
    "prefectureNumber": 8,
    "prefecture": "茨城県",
    "city": "鹿嶋市",
    "town": "小宮作"
  },
  "3140004": {
    "zipcode": "3140004",
    "prefectureCode": "08",
    "prefectureNumber": 8,
    "prefecture": "茨城県",
    "city": "鹿嶋市",
    "town": "下津"
  },
  "3140005": {
    "zipcode": "3140005",
    "prefectureCode": "08",
    "prefectureNumber": 8,
    "prefecture": "茨城県",
    "city": "鹿嶋市",
    "town": "高天原"
  },
  "3140006": {
    "zipcode": "3140006",
    "prefectureCode": "08",
    "prefectureNumber": 8,
    "prefecture": "茨城県",
    "city": "鹿嶋市",
    "town": "宮津台"
  },
  "3140007": {
    "zipcode": "3140007",
    "prefectureCode": "08",
    "prefectureNumber": 8,
    "prefecture": "茨城県",
    "city": "鹿嶋市",
    "town": "神向寺"
  },
  "3140011": {
    "zipcode": "3140011",
    "prefectureCode": "08",
    "prefectureNumber": 8,
    "prefecture": "茨城県",
    "city": "鹿嶋市",
    "town": "港ケ丘"
  },
  "3140012": {
    "zipcode": "3140012",
    "prefectureCode": "08",
    "prefectureNumber": 8,
    "prefecture": "茨城県",
    "city": "鹿嶋市",
    "town": "平井"
  },
  "3140013": {
    "zipcode": "3140013",
    "prefectureCode": "08",
    "prefectureNumber": 8,
    "prefecture": "茨城県",
    "city": "鹿嶋市",
    "town": "新浜"
  },
  "3140014": {
    "zipcode": "3140014",
    "prefectureCode": "08",
    "prefectureNumber": 8,
    "prefecture": "茨城県",
    "city": "鹿嶋市",
    "town": "光"
  },
  "3140015": {
    "zipcode": "3140015",
    "prefectureCode": "08",
    "prefectureNumber": 8,
    "prefecture": "茨城県",
    "city": "鹿嶋市",
    "town": "泉川"
  },
  "3140016": {
    "zipcode": "3140016",
    "prefectureCode": "08",
    "prefectureNumber": 8,
    "prefecture": "茨城県",
    "city": "鹿嶋市",
    "town": "国末"
  },
  "3140017": {
    "zipcode": "3140017",
    "prefectureCode": "08",
    "prefectureNumber": 8,
    "prefecture": "茨城県",
    "city": "鹿嶋市",
    "town": "旭ケ丘"
  },
  "3140018": {
    "zipcode": "3140018",
    "prefectureCode": "08",
    "prefectureNumber": 8,
    "prefecture": "茨城県",
    "city": "鹿嶋市",
    "town": "平井東"
  },
  "3140021": {
    "zipcode": "3140021",
    "prefectureCode": "08",
    "prefectureNumber": 8,
    "prefecture": "茨城県",
    "city": "鹿嶋市",
    "town": "粟生"
  },
  "3140022": {
    "zipcode": "3140022",
    "prefectureCode": "08",
    "prefectureNumber": 8,
    "prefecture": "茨城県",
    "city": "鹿嶋市",
    "town": "長栖"
  },
  "3140023": {
    "zipcode": "3140023",
    "prefectureCode": "08",
    "prefectureNumber": 8,
    "prefecture": "茨城県",
    "city": "鹿嶋市",
    "town": "谷原"
  },
  "3140024": {
    "zipcode": "3140024",
    "prefectureCode": "08",
    "prefectureNumber": 8,
    "prefecture": "茨城県",
    "city": "鹿嶋市",
    "town": "鰐川"
  },
  "3140025": {
    "zipcode": "3140025",
    "prefectureCode": "08",
    "prefectureNumber": 8,
    "prefecture": "茨城県",
    "city": "鹿嶋市",
    "town": "下塙"
  },
  "3140026": {
    "zipcode": "3140026",
    "prefectureCode": "08",
    "prefectureNumber": 8,
    "prefecture": "茨城県",
    "city": "鹿嶋市",
    "town": "木滝佐田谷原入会"
  },
  "3140027": {
    "zipcode": "3140027",
    "prefectureCode": "08",
    "prefectureNumber": 8,
    "prefecture": "茨城県",
    "city": "鹿嶋市",
    "town": "佐田"
  },
  "3140028": {
    "zipcode": "3140028",
    "prefectureCode": "08",
    "prefectureNumber": 8,
    "prefecture": "茨城県",
    "city": "鹿嶋市",
    "town": "木滝"
  },
  "3140030": {
    "zipcode": "3140030",
    "prefectureCode": "08",
    "prefectureNumber": 8,
    "prefecture": "茨城県",
    "city": "鹿嶋市",
    "town": "厨"
  },
  "3140031": {
    "zipcode": "3140031",
    "prefectureCode": "08",
    "prefectureNumber": 8,
    "prefecture": "茨城県",
    "city": "鹿嶋市",
    "town": "宮中"
  },
  "3140032": {
    "zipcode": "3140032",
    "prefectureCode": "08",
    "prefectureNumber": 8,
    "prefecture": "茨城県",
    "city": "鹿嶋市",
    "town": "宮下"
  },
  "3140033": {
    "zipcode": "3140033",
    "prefectureCode": "08",
    "prefectureNumber": 8,
    "prefecture": "茨城県",
    "city": "鹿嶋市",
    "town": "鉢形台"
  },
  "3140034": {
    "zipcode": "3140034",
    "prefectureCode": "08",
    "prefectureNumber": 8,
    "prefecture": "茨城県",
    "city": "鹿嶋市",
    "town": "鉢形"
  },
  "3140035": {
    "zipcode": "3140035",
    "prefectureCode": "08",
    "prefectureNumber": 8,
    "prefecture": "茨城県",
    "city": "鹿嶋市",
    "town": "根三田"
  },
  "3140036": {
    "zipcode": "3140036",
    "prefectureCode": "08",
    "prefectureNumber": 8,
    "prefecture": "茨城県",
    "city": "鹿嶋市",
    "town": "大船津"
  },
  "3140037": {
    "zipcode": "3140037",
    "prefectureCode": "08",
    "prefectureNumber": 8,
    "prefecture": "茨城県",
    "city": "鹿嶋市",
    "town": "神野"
  },
  "3140038": {
    "zipcode": "3140038",
    "prefectureCode": "08",
    "prefectureNumber": 8,
    "prefecture": "茨城県",
    "city": "鹿嶋市",
    "town": "城山"
  },
  "3140039": {
    "zipcode": "3140039",
    "prefectureCode": "08",
    "prefectureNumber": 8,
    "prefecture": "茨城県",
    "city": "鹿嶋市",
    "town": "緑ヶ丘"
  },
  "3140041": {
    "zipcode": "3140041",
    "prefectureCode": "08",
    "prefectureNumber": 8,
    "prefecture": "茨城県",
    "city": "鹿嶋市",
    "town": "沼尾"
  },
  "3140042": {
    "zipcode": "3140042",
    "prefectureCode": "08",
    "prefectureNumber": 8,
    "prefecture": "茨城県",
    "city": "鹿嶋市",
    "town": "田野辺"
  },
  "3140043": {
    "zipcode": "3140043",
    "prefectureCode": "08",
    "prefectureNumber": 8,
    "prefecture": "茨城県",
    "city": "鹿嶋市",
    "town": "田谷"
  },
  "3140044": {
    "zipcode": "3140044",
    "prefectureCode": "08",
    "prefectureNumber": 8,
    "prefecture": "茨城県",
    "city": "鹿嶋市",
    "town": "猿田"
  },
  "3140045": {
    "zipcode": "3140045",
    "prefectureCode": "08",
    "prefectureNumber": 8,
    "prefecture": "茨城県",
    "city": "鹿嶋市",
    "town": "山之上"
  },
  "3140046": {
    "zipcode": "3140046",
    "prefectureCode": "08",
    "prefectureNumber": 8,
    "prefecture": "茨城県",
    "city": "鹿嶋市",
    "town": "爪木"
  },
  "3140047": {
    "zipcode": "3140047",
    "prefectureCode": "08",
    "prefectureNumber": 8,
    "prefecture": "茨城県",
    "city": "鹿嶋市",
    "town": "須賀"
  },
  "3140048": {
    "zipcode": "3140048",
    "prefectureCode": "08",
    "prefectureNumber": 8,
    "prefecture": "茨城県",
    "city": "鹿嶋市",
    "town": "田谷沼"
  },
  "3140051": {
    "zipcode": "3140051",
    "prefectureCode": "08",
    "prefectureNumber": 8,
    "prefecture": "茨城県",
    "city": "神栖市",
    "town": "光"
  },
  "3140052": {
    "zipcode": "3140052",
    "prefectureCode": "08",
    "prefectureNumber": 8,
    "prefecture": "茨城県",
    "city": "神栖市",
    "town": "居切（１９０１、１９０９−１６、１９０９−２０）"
  },
  "3140100": {
    "zipcode": "3140100",
    "prefectureCode": "08",
    "prefectureNumber": 8,
    "prefecture": "茨城県",
    "city": "神栖市",
    "town": "以下に掲載がない場合"
  },
  "3140101": {
    "zipcode": "3140101",
    "prefectureCode": "08",
    "prefectureNumber": 8,
    "prefecture": "茨城県",
    "city": "神栖市",
    "town": "北浜"
  },
  "3140102": {
    "zipcode": "3140102",
    "prefectureCode": "08",
    "prefectureNumber": 8,
    "prefecture": "茨城県",
    "city": "神栖市",
    "town": "東和田"
  },
  "3140103": {
    "zipcode": "3140103",
    "prefectureCode": "08",
    "prefectureNumber": 8,
    "prefecture": "茨城県",
    "city": "神栖市",
    "town": "東深芝"
  },
  "3140111": {
    "zipcode": "3140111",
    "prefectureCode": "08",
    "prefectureNumber": 8,
    "prefecture": "茨城県",
    "city": "神栖市",
    "town": "南浜"
  },
  "3140112": {
    "zipcode": "3140112",
    "prefectureCode": "08",
    "prefectureNumber": 8,
    "prefecture": "茨城県",
    "city": "神栖市",
    "town": "知手中央"
  },
  "3140113": {
    "zipcode": "3140113",
    "prefectureCode": "08",
    "prefectureNumber": 8,
    "prefecture": "茨城県",
    "city": "神栖市",
    "town": "横瀬"
  },
  "3140114": {
    "zipcode": "3140114",
    "prefectureCode": "08",
    "prefectureNumber": 8,
    "prefecture": "茨城県",
    "city": "神栖市",
    "town": "日川"
  },
  "3140115": {
    "zipcode": "3140115",
    "prefectureCode": "08",
    "prefectureNumber": 8,
    "prefecture": "茨城県",
    "city": "神栖市",
    "town": "知手"
  },
  "3140116": {
    "zipcode": "3140116",
    "prefectureCode": "08",
    "prefectureNumber": 8,
    "prefecture": "茨城県",
    "city": "神栖市",
    "town": "奥野谷"
  },
  "3140121": {
    "zipcode": "3140121",
    "prefectureCode": "08",
    "prefectureNumber": 8,
    "prefecture": "茨城県",
    "city": "神栖市",
    "town": "溝口"
  },
  "3140122": {
    "zipcode": "3140122",
    "prefectureCode": "08",
    "prefectureNumber": 8,
    "prefecture": "茨城県",
    "city": "神栖市",
    "town": "萩原"
  },
  "3140123": {
    "zipcode": "3140123",
    "prefectureCode": "08",
    "prefectureNumber": 8,
    "prefecture": "茨城県",
    "city": "神栖市",
    "town": "芝崎"
  },
  "3140124": {
    "zipcode": "3140124",
    "prefectureCode": "08",
    "prefectureNumber": 8,
    "prefecture": "茨城県",
    "city": "神栖市",
    "town": "石神"
  },
  "3140125": {
    "zipcode": "3140125",
    "prefectureCode": "08",
    "prefectureNumber": 8,
    "prefecture": "茨城県",
    "city": "神栖市",
    "town": "高浜"
  },
  "3140126": {
    "zipcode": "3140126",
    "prefectureCode": "08",
    "prefectureNumber": 8,
    "prefecture": "茨城県",
    "city": "神栖市",
    "town": "田畑"
  },
  "3140127": {
    "zipcode": "3140127",
    "prefectureCode": "08",
    "prefectureNumber": 8,
    "prefecture": "茨城県",
    "city": "神栖市",
    "town": "木崎"
  },
  "3140128": {
    "zipcode": "3140128",
    "prefectureCode": "08",
    "prefectureNumber": 8,
    "prefecture": "茨城県",
    "city": "神栖市",
    "town": "大野原中央"
  },
  "3140131": {
    "zipcode": "3140131",
    "prefectureCode": "08",
    "prefectureNumber": 8,
    "prefecture": "茨城県",
    "city": "神栖市",
    "town": "下幡木"
  },
  "3140132": {
    "zipcode": "3140132",
    "prefectureCode": "08",
    "prefectureNumber": 8,
    "prefecture": "茨城県",
    "city": "神栖市",
    "town": "筒井"
  },
  "3140133": {
    "zipcode": "3140133",
    "prefectureCode": "08",
    "prefectureNumber": 8,
    "prefecture": "茨城県",
    "city": "神栖市",
    "town": "息栖"
  },
  "3140134": {
    "zipcode": "3140134",
    "prefectureCode": "08",
    "prefectureNumber": 8,
    "prefecture": "茨城県",
    "city": "神栖市",
    "town": "賀"
  },
  "3140135": {
    "zipcode": "3140135",
    "prefectureCode": "08",
    "prefectureNumber": 8,
    "prefecture": "茨城県",
    "city": "神栖市",
    "town": "堀割"
  },
  "3140141": {
    "zipcode": "3140141",
    "prefectureCode": "08",
    "prefectureNumber": 8,
    "prefecture": "茨城県",
    "city": "神栖市",
    "town": "居切（その他）"
  },
  "3140142": {
    "zipcode": "3140142",
    "prefectureCode": "08",
    "prefectureNumber": 8,
    "prefecture": "茨城県",
    "city": "神栖市",
    "town": "深芝南"
  },
  "3140143": {
    "zipcode": "3140143",
    "prefectureCode": "08",
    "prefectureNumber": 8,
    "prefecture": "茨城県",
    "city": "神栖市",
    "town": "神栖"
  },
  "3140144": {
    "zipcode": "3140144",
    "prefectureCode": "08",
    "prefectureNumber": 8,
    "prefecture": "茨城県",
    "city": "神栖市",
    "town": "大野原"
  },
  "3140145": {
    "zipcode": "3140145",
    "prefectureCode": "08",
    "prefectureNumber": 8,
    "prefecture": "茨城県",
    "city": "神栖市",
    "town": "平泉東"
  },
  "3140146": {
    "zipcode": "3140146",
    "prefectureCode": "08",
    "prefectureNumber": 8,
    "prefecture": "茨城県",
    "city": "神栖市",
    "town": "平泉"
  },
  "3140147": {
    "zipcode": "3140147",
    "prefectureCode": "08",
    "prefectureNumber": 8,
    "prefecture": "茨城県",
    "city": "神栖市",
    "town": "鰐川"
  },
  "3140148": {
    "zipcode": "3140148",
    "prefectureCode": "08",
    "prefectureNumber": 8,
    "prefecture": "茨城県",
    "city": "神栖市",
    "town": "深芝"
  },
  "3140252": {
    "zipcode": "3140252",
    "prefectureCode": "08",
    "prefectureNumber": 8,
    "prefecture": "茨城県",
    "city": "神栖市",
    "town": "柳川"
  },
  "3140253": {
    "zipcode": "3140253",
    "prefectureCode": "08",
    "prefectureNumber": 8,
    "prefecture": "茨城県",
    "city": "神栖市",
    "town": "須田"
  },
  "3140254": {
    "zipcode": "3140254",
    "prefectureCode": "08",
    "prefectureNumber": 8,
    "prefecture": "茨城県",
    "city": "神栖市",
    "town": "太田"
  },
  "3140255": {
    "zipcode": "3140255",
    "prefectureCode": "08",
    "prefectureNumber": 8,
    "prefecture": "茨城県",
    "city": "神栖市",
    "town": "砂山"
  },
  "3140256": {
    "zipcode": "3140256",
    "prefectureCode": "08",
    "prefectureNumber": 8,
    "prefecture": "茨城県",
    "city": "神栖市",
    "town": "若松中央"
  },
  "3140257": {
    "zipcode": "3140257",
    "prefectureCode": "08",
    "prefectureNumber": 8,
    "prefecture": "茨城県",
    "city": "神栖市",
    "town": "太田新町"
  },
  "3140258": {
    "zipcode": "3140258",
    "prefectureCode": "08",
    "prefectureNumber": 8,
    "prefecture": "茨城県",
    "city": "神栖市",
    "town": "柳川中央"
  },
  "3140341": {
    "zipcode": "3140341",
    "prefectureCode": "08",
    "prefectureNumber": 8,
    "prefecture": "茨城県",
    "city": "神栖市",
    "town": "矢田部"
  },
  "3140342": {
    "zipcode": "3140342",
    "prefectureCode": "08",
    "prefectureNumber": 8,
    "prefecture": "茨城県",
    "city": "神栖市",
    "town": "土合北"
  },
  "3140343": {
    "zipcode": "3140343",
    "prefectureCode": "08",
    "prefectureNumber": 8,
    "prefecture": "茨城県",
    "city": "神栖市",
    "town": "土合本町"
  },
  "3140344": {
    "zipcode": "3140344",
    "prefectureCode": "08",
    "prefectureNumber": 8,
    "prefecture": "茨城県",
    "city": "神栖市",
    "town": "土合東"
  },
  "3140345": {
    "zipcode": "3140345",
    "prefectureCode": "08",
    "prefectureNumber": 8,
    "prefecture": "茨城県",
    "city": "神栖市",
    "town": "土合南"
  },
  "3140346": {
    "zipcode": "3140346",
    "prefectureCode": "08",
    "prefectureNumber": 8,
    "prefecture": "茨城県",
    "city": "神栖市",
    "town": "土合西"
  },
  "3140347": {
    "zipcode": "3140347",
    "prefectureCode": "08",
    "prefectureNumber": 8,
    "prefecture": "茨城県",
    "city": "神栖市",
    "town": "土合中央"
  },
  "3140407": {
    "zipcode": "3140407",
    "prefectureCode": "08",
    "prefectureNumber": 8,
    "prefecture": "茨城県",
    "city": "神栖市",
    "town": "波崎新港"
  },
  "3140408": {
    "zipcode": "3140408",
    "prefectureCode": "08",
    "prefectureNumber": 8,
    "prefecture": "茨城県",
    "city": "神栖市",
    "town": "波崎"
  }
}
