{
  "3150000": {
    "zipcode": "3150000",
    "prefectureCode": "08",
    "prefectureNumber": 8,
    "prefecture": "茨城県",
    "city": "かすみがうら市",
    "town": "以下に掲載がない場合"
  },
  "3150001": {
    "zipcode": "3150001",
    "prefectureCode": "08",
    "prefectureNumber": 8,
    "prefecture": "茨城県",
    "city": "石岡市",
    "town": "石岡"
  },
  "3150002": {
    "zipcode": "3150002",
    "prefectureCode": "08",
    "prefectureNumber": 8,
    "prefecture": "茨城県",
    "city": "石岡市",
    "town": "柏原"
  },
  "3150003": {
    "zipcode": "3150003",
    "prefectureCode": "08",
    "prefectureNumber": 8,
    "prefecture": "茨城県",
    "city": "石岡市",
    "town": "谷向町"
  },
  "3150004": {
    "zipcode": "3150004",
    "prefectureCode": "08",
    "prefectureNumber": 8,
    "prefecture": "茨城県",
    "city": "石岡市",
    "town": "柏原町"
  },
  "3150005": {
    "zipcode": "3150005",
    "prefectureCode": "08",
    "prefectureNumber": 8,
    "prefecture": "茨城県",
    "city": "石岡市",
    "town": "鹿の子"
  },
  "3150006": {
    "zipcode": "3150006",
    "prefectureCode": "08",
    "prefectureNumber": 8,
    "prefecture": "茨城県",
    "city": "石岡市",
    "town": "並木"
  },
  "3150007": {
    "zipcode": "3150007",
    "prefectureCode": "08",
    "prefectureNumber": 8,
    "prefecture": "茨城県",
    "city": "石岡市",
    "town": "染谷"
  },
  "3150008": {
    "zipcode": "3150008",
    "prefectureCode": "08",
    "prefectureNumber": 8,
    "prefecture": "茨城県",
    "city": "石岡市",
    "town": "村上"
  },
  "3150009": {
    "zipcode": "3150009",
    "prefectureCode": "08",
    "prefectureNumber": 8,
    "prefecture": "茨城県",
    "city": "石岡市",
    "town": "大砂"
  },
  "3150010": {
    "zipcode": "3150010",
    "prefectureCode": "08",
    "prefectureNumber": 8,
    "prefecture": "茨城県",
    "city": "石岡市",
    "town": "碁石沢"
  },
  "3150011": {
    "zipcode": "3150011",
    "prefectureCode": "08",
    "prefectureNumber": 8,
    "prefecture": "茨城県",
    "city": "石岡市",
    "town": "正上内"
  },
  "3150012": {
    "zipcode": "3150012",
    "prefectureCode": "08",
    "prefectureNumber": 8,
    "prefecture": "茨城県",
    "city": "石岡市",
    "town": "北府中"
  },
  "3150013": {
    "zipcode": "3150013",
    "prefectureCode": "08",
    "prefectureNumber": 8,
    "prefecture": "茨城県",
    "city": "石岡市",
    "town": "府中"
  },
  "3150014": {
    "zipcode": "3150014",
    "prefectureCode": "08",
    "prefectureNumber": 8,
    "prefecture": "茨城県",
    "city": "石岡市",
    "town": "国府"
  },
  "3150015": {
    "zipcode": "3150015",
    "prefectureCode": "08",
    "prefectureNumber": 8,
    "prefecture": "茨城県",
    "city": "石岡市",
    "town": "貝地"
  },
  "3150016": {
    "zipcode": "3150016",
    "prefectureCode": "08",
    "prefectureNumber": 8,
    "prefecture": "茨城県",
    "city": "石岡市",
    "town": "総社"
  },
  "3150017": {
    "zipcode": "3150017",
    "prefectureCode": "08",
    "prefectureNumber": 8,
    "prefecture": "茨城県",
    "city": "石岡市",
    "town": "若宮"
  },
  "3150018": {
    "zipcode": "3150018",
    "prefectureCode": "08",
    "prefectureNumber": 8,
    "prefecture": "茨城県",
    "city": "石岡市",
    "town": "若松"
  },
  "3150019": {
    "zipcode": "3150019",
    "prefectureCode": "08",
    "prefectureNumber": 8,
    "prefecture": "茨城県",
    "city": "石岡市",
    "town": "栄松"
  },
  "3150021": {
    "zipcode": "3150021",
    "prefectureCode": "08",
    "prefectureNumber": 8,
    "prefecture": "茨城県",
    "city": "石岡市",
    "town": "荒金"
  },
  "3150022": {
    "zipcode": "3150022",
    "prefectureCode": "08",
    "prefectureNumber": 8,
    "prefecture": "茨城県",
    "city": "石岡市",
    "town": "行里川"
  },
  "3150023": {
    "zipcode": "3150023",
    "prefectureCode": "08",
    "prefectureNumber": 8,
    "prefecture": "茨城県",
    "city": "石岡市",
    "town": "東府中"
  },
  "3150024": {
    "zipcode": "3150024",
    "prefectureCode": "08",
    "prefectureNumber": 8,
    "prefecture": "茨城県",
    "city": "石岡市",
    "town": "八軒台"
  },
  "3150025": {
    "zipcode": "3150025",
    "prefectureCode": "08",
    "prefectureNumber": 8,
    "prefecture": "茨城県",
    "city": "石岡市",
    "town": "泉町"
  },
  "3150026": {
    "zipcode": "3150026",
    "prefectureCode": "08",
    "prefectureNumber": 8,
    "prefecture": "茨城県",
    "city": "石岡市",
    "town": "杉の井"
  },
  "3150027": {
    "zipcode": "3150027",
    "prefectureCode": "08",
    "prefectureNumber": 8,
    "prefecture": "茨城県",
    "city": "石岡市",
    "town": "杉並"
  },
  "3150028": {
    "zipcode": "3150028",
    "prefectureCode": "08",
    "prefectureNumber": 8,
    "prefecture": "茨城県",
    "city": "石岡市",
    "town": "半ノ木"
  },
  "3150029": {
    "zipcode": "3150029",
    "prefectureCode": "08",
    "prefectureNumber": 8,
    "prefecture": "茨城県",
    "city": "石岡市",
    "town": "根当"
  },
  "3150030": {
    "zipcode": "3150030",
    "prefectureCode": "08",
    "prefectureNumber": 8,
    "prefecture": "茨城県",
    "city": "石岡市",
    "town": "池の台"
  },
  "3150031": {
    "zipcode": "3150031",
    "prefectureCode": "08",
    "prefectureNumber": 8,
    "prefecture": "茨城県",
    "city": "石岡市",
    "town": "東大橋"
  },
  "3150032": {
    "zipcode": "3150032",
    "prefectureCode": "08",
    "prefectureNumber": 8,
    "prefecture": "茨城県",
    "city": "石岡市",
    "town": "小井戸"
  },
  "3150033": {
    "zipcode": "3150033",
    "prefectureCode": "08",
    "prefectureNumber": 8,
    "prefecture": "茨城県",
    "city": "石岡市",
    "town": "東光台"
  },
  "3150034": {
    "zipcode": "3150034",
    "prefectureCode": "08",
    "prefectureNumber": 8,
    "prefecture": "茨城県",
    "city": "石岡市",
    "town": "東田中"
  },
  "3150035": {
    "zipcode": "3150035",
    "prefectureCode": "08",
    "prefectureNumber": 8,
    "prefecture": "茨城県",
    "city": "石岡市",
    "town": "南台"
  },
  "3150036": {
    "zipcode": "3150036",
    "prefectureCode": "08",
    "prefectureNumber": 8,
    "prefecture": "茨城県",
    "city": "石岡市",
    "town": "大谷津"
  },
  "3150037": {
    "zipcode": "3150037",
    "prefectureCode": "08",
    "prefectureNumber": 8,
    "prefecture": "茨城県",
    "city": "石岡市",
    "town": "東石岡"
  },
  "3150038": {
    "zipcode": "3150038",
    "prefectureCode": "08",
    "prefectureNumber": 8,
    "prefecture": "茨城県",
    "city": "石岡市",
    "town": "旭台"
  },
  "3150041": {
    "zipcode": "3150041",
    "prefectureCode": "08",
    "prefectureNumber": 8,
    "prefecture": "茨城県",
    "city": "石岡市",
    "town": "田島"
  },
  "3150042": {
    "zipcode": "3150042",
    "prefectureCode": "08",
    "prefectureNumber": 8,
    "prefecture": "茨城県",
    "city": "石岡市",
    "town": "茨城"
  },
  "3150043": {
    "zipcode": "3150043",
    "prefectureCode": "08",
    "prefectureNumber": 8,
    "prefecture": "茨城県",
    "city": "石岡市",
    "town": "中津川"
  },
  "3150044": {
    "zipcode": "3150044",
    "prefectureCode": "08",
    "prefectureNumber": 8,
    "prefecture": "茨城県",
    "city": "石岡市",
    "town": "北根本"
  },
  "3150045": {
    "zipcode": "3150045",
    "prefectureCode": "08",
    "prefectureNumber": 8,
    "prefecture": "茨城県",
    "city": "石岡市",
    "town": "高浜"
  },
  "3150046": {
    "zipcode": "3150046",
    "prefectureCode": "08",
    "prefectureNumber": 8,
    "prefecture": "茨城県",
    "city": "石岡市",
    "town": "石川"
  },
  "3150047": {
    "zipcode": "3150047",
    "prefectureCode": "08",
    "prefectureNumber": 8,
    "prefecture": "茨城県",
    "city": "石岡市",
    "town": "井関"
  },
  "3150048": {
    "zipcode": "3150048",
    "prefectureCode": "08",
    "prefectureNumber": 8,
    "prefecture": "茨城県",
    "city": "石岡市",
    "town": "三村"
  },
  "3150051": {
    "zipcode": "3150051",
    "prefectureCode": "08",
    "prefectureNumber": 8,
    "prefecture": "茨城県",
    "city": "かすみがうら市",
    "town": "新治"
  },
  "3150052": {
    "zipcode": "3150052",
    "prefectureCode": "08",
    "prefectureNumber": 8,
    "prefecture": "茨城県",
    "city": "かすみがうら市",
    "town": "下稲吉"
  },
  "3150053": {
    "zipcode": "3150053",
    "prefectureCode": "08",
    "prefectureNumber": 8,
    "prefecture": "茨城県",
    "city": "かすみがうら市",
    "town": "稲吉東"
  },
  "3150054": {
    "zipcode": "3150054",
    "prefectureCode": "08",
    "prefectureNumber": 8,
    "prefecture": "茨城県",
    "city": "かすみがうら市",
    "town": "稲吉"
  },
  "3150055": {
    "zipcode": "3150055",
    "prefectureCode": "08",
    "prefectureNumber": 8,
    "prefecture": "茨城県",
    "city": "かすみがうら市",
    "town": "稲吉南"
  },
  "3150056": {
    "zipcode": "3150056",
    "prefectureCode": "08",
    "prefectureNumber": 8,
    "prefecture": "茨城県",
    "city": "かすみがうら市",
    "town": "上稲吉"
  },
  "3150057": {
    "zipcode": "3150057",
    "prefectureCode": "08",
    "prefectureNumber": 8,
    "prefecture": "茨城県",
    "city": "かすみがうら市",
    "town": "上土田"
  },
  "3150058": {
    "zipcode": "3150058",
    "prefectureCode": "08",
    "prefectureNumber": 8,
    "prefecture": "茨城県",
    "city": "かすみがうら市",
    "town": "下土田"
  },
  "3150061": {
    "zipcode": "3150061",
    "prefectureCode": "08",
    "prefectureNumber": 8,
    "prefecture": "茨城県",
    "city": "かすみがうら市",
    "town": "五反田"
  },
  "3150062": {
    "zipcode": "3150062",
    "prefectureCode": "08",
    "prefectureNumber": 8,
    "prefecture": "茨城県",
    "city": "かすみがうら市",
    "town": "横堀"
  },
  "3150063": {
    "zipcode": "3150063",
    "prefectureCode": "08",
    "prefectureNumber": 8,
    "prefecture": "茨城県",
    "city": "かすみがうら市",
    "town": "飯田"
  },
  "3150064": {
    "zipcode": "3150064",
    "prefectureCode": "08",
    "prefectureNumber": 8,
    "prefecture": "茨城県",
    "city": "かすみがうら市",
    "town": "大峰"
  },
  "3150065": {
    "zipcode": "3150065",
    "prefectureCode": "08",
    "prefectureNumber": 8,
    "prefecture": "茨城県",
    "city": "かすみがうら市",
    "town": "上佐谷"
  },
  "3150066": {
    "zipcode": "3150066",
    "prefectureCode": "08",
    "prefectureNumber": 8,
    "prefecture": "茨城県",
    "city": "かすみがうら市",
    "town": "中佐谷"
  },
  "3150067": {
    "zipcode": "3150067",
    "prefectureCode": "08",
    "prefectureNumber": 8,
    "prefecture": "茨城県",
    "city": "かすみがうら市",
    "town": "下佐谷"
  },
  "3150068": {
    "zipcode": "3150068",
    "prefectureCode": "08",
    "prefectureNumber": 8,
    "prefecture": "茨城県",
    "city": "かすみがうら市",
    "town": "山本"
  },
  "3150069": {
    "zipcode": "3150069",
    "prefectureCode": "08",
    "prefectureNumber": 8,
    "prefecture": "茨城県",
    "city": "かすみがうら市",
    "town": "雪入"
  },
  "3150071": {
    "zipcode": "3150071",
    "prefectureCode": "08",
    "prefectureNumber": 8,
    "prefecture": "茨城県",
    "city": "かすみがうら市",
    "town": "市川"
  },
  "3150072": {
    "zipcode": "3150072",
    "prefectureCode": "08",
    "prefectureNumber": 8,
    "prefecture": "茨城県",
    "city": "かすみがうら市",
    "town": "東野寺"
  },
  "3150073": {
    "zipcode": "3150073",
    "prefectureCode": "08",
    "prefectureNumber": 8,
    "prefecture": "茨城県",
    "city": "かすみがうら市",
    "town": "西野寺"
  },
  "3150074": {
    "zipcode": "3150074",
    "prefectureCode": "08",
    "prefectureNumber": 8,
    "prefecture": "茨城県",
    "city": "かすみがうら市",
    "town": "下志筑"
  },
  "3150075": {
    "zipcode": "3150075",
    "prefectureCode": "08",
    "prefectureNumber": 8,
    "prefecture": "茨城県",
    "city": "かすみがうら市",
    "town": "中志筑"
  },
  "3150076": {
    "zipcode": "3150076",
    "prefectureCode": "08",
    "prefectureNumber": 8,
    "prefecture": "茨城県",
    "city": "かすみがうら市",
    "town": "上志筑"
  },
  "3150077": {
    "zipcode": "3150077",
    "prefectureCode": "08",
    "prefectureNumber": 8,
    "prefecture": "茨城県",
    "city": "かすみがうら市",
    "town": "高倉"
  },
  "3150078": {
    "zipcode": "3150078",
    "prefectureCode": "08",
    "prefectureNumber": 8,
    "prefecture": "茨城県",
    "city": "かすみがうら市",
    "town": "粟田"
  },
  "3150101": {
    "zipcode": "3150101",
    "prefectureCode": "08",
    "prefectureNumber": 8,
    "prefecture": "茨城県",
    "city": "石岡市",
    "town": "大増"
  },
  "3150102": {
    "zipcode": "3150102",
    "prefectureCode": "08",
    "prefectureNumber": 8,
    "prefecture": "茨城県",
    "city": "石岡市",
    "town": "太田"
  },
  "3150103": {
    "zipcode": "3150103",
    "prefectureCode": "08",
    "prefectureNumber": 8,
    "prefecture": "茨城県",
    "city": "石岡市",
    "town": "中戸"
  },
  "3150104": {
    "zipcode": "3150104",
    "prefectureCode": "08",
    "prefectureNumber": 8,
    "prefecture": "茨城県",
    "city": "石岡市",
    "town": "小見"
  },
  "3150105": {
    "zipcode": "3150105",
    "prefectureCode": "08",
    "prefectureNumber": 8,
    "prefecture": "茨城県",
    "city": "石岡市",
    "town": "大塚"
  },
  "3150111": {
    "zipcode": "3150111",
    "prefectureCode": "08",
    "prefectureNumber": 8,
    "prefecture": "茨城県",
    "city": "石岡市",
    "town": "瓦谷"
  },
  "3150112": {
    "zipcode": "3150112",
    "prefectureCode": "08",
    "prefectureNumber": 8,
    "prefecture": "茨城県",
    "city": "石岡市",
    "town": "部原"
  },
  "3150113": {
    "zipcode": "3150113",
    "prefectureCode": "08",
    "prefectureNumber": 8,
    "prefecture": "茨城県",
    "city": "石岡市",
    "town": "片岡"
  },
  "3150114": {
    "zipcode": "3150114",
    "prefectureCode": "08",
    "prefectureNumber": 8,
    "prefecture": "茨城県",
    "city": "石岡市",
    "town": "嘉良寿理"
  },
  "3150115": {
    "zipcode": "3150115",
    "prefectureCode": "08",
    "prefectureNumber": 8,
    "prefecture": "茨城県",
    "city": "石岡市",
    "town": "浦須"
  },
  "3150116": {
    "zipcode": "3150116",
    "prefectureCode": "08",
    "prefectureNumber": 8,
    "prefecture": "茨城県",
    "city": "石岡市",
    "town": "柿岡"
  },
  "3150117": {
    "zipcode": "3150117",
    "prefectureCode": "08",
    "prefectureNumber": 8,
    "prefecture": "茨城県",
    "city": "石岡市",
    "town": "佐久"
  },
  "3150118": {
    "zipcode": "3150118",
    "prefectureCode": "08",
    "prefectureNumber": 8,
    "prefecture": "茨城県",
    "city": "石岡市",
    "town": "野田"
  },
  "3150121": {
    "zipcode": "3150121",
    "prefectureCode": "08",
    "prefectureNumber": 8,
    "prefecture": "茨城県",
    "city": "石岡市",
    "town": "真家"
  },
  "3150122": {
    "zipcode": "3150122",
    "prefectureCode": "08",
    "prefectureNumber": 8,
    "prefecture": "茨城県",
    "city": "石岡市",
    "town": "東成井"
  },
  "3150123": {
    "zipcode": "3150123",
    "prefectureCode": "08",
    "prefectureNumber": 8,
    "prefecture": "茨城県",
    "city": "石岡市",
    "town": "宮ケ崎"
  },
  "3150124": {
    "zipcode": "3150124",
    "prefectureCode": "08",
    "prefectureNumber": 8,
    "prefecture": "茨城県",
    "city": "石岡市",
    "town": "柴間"
  },
  "3150125": {
    "zipcode": "3150125",
    "prefectureCode": "08",
    "prefectureNumber": 8,
    "prefecture": "茨城県",
    "city": "石岡市",
    "town": "山崎"
  },
  "3150131": {
    "zipcode": "3150131",
    "prefectureCode": "08",
    "prefectureNumber": 8,
    "prefecture": "茨城県",
    "city": "石岡市",
    "town": "下林"
  },
  "3150132": {
    "zipcode": "3150132",
    "prefectureCode": "08",
    "prefectureNumber": 8,
    "prefecture": "茨城県",
    "city": "石岡市",
    "town": "根小屋"
  },
  "3150133": {
    "zipcode": "3150133",
    "prefectureCode": "08",
    "prefectureNumber": 8,
    "prefecture": "茨城県",
    "city": "石岡市",
    "town": "半田"
  },
  "3150134": {
    "zipcode": "3150134",
    "prefectureCode": "08",
    "prefectureNumber": 8,
    "prefecture": "茨城県",
    "city": "石岡市",
    "town": "川又"
  },
  "3150135": {
    "zipcode": "3150135",
    "prefectureCode": "08",
    "prefectureNumber": 8,
    "prefecture": "茨城県",
    "city": "石岡市",
    "town": "加生野"
  },
  "3150136": {
    "zipcode": "3150136",
    "prefectureCode": "08",
    "prefectureNumber": 8,
    "prefecture": "茨城県",
    "city": "石岡市",
    "town": "片野"
  },
  "3150137": {
    "zipcode": "3150137",
    "prefectureCode": "08",
    "prefectureNumber": 8,
    "prefecture": "茨城県",
    "city": "石岡市",
    "town": "金指"
  },
  "3150138": {
    "zipcode": "3150138",
    "prefectureCode": "08",
    "prefectureNumber": 8,
    "prefecture": "茨城県",
    "city": "石岡市",
    "town": "上林"
  },
  "3150141": {
    "zipcode": "3150141",
    "prefectureCode": "08",
    "prefectureNumber": 8,
    "prefecture": "茨城県",
    "city": "石岡市",
    "town": "月岡"
  },
  "3150142": {
    "zipcode": "3150142",
    "prefectureCode": "08",
    "prefectureNumber": 8,
    "prefecture": "茨城県",
    "city": "石岡市",
    "town": "弓弦"
  },
  "3150143": {
    "zipcode": "3150143",
    "prefectureCode": "08",
    "prefectureNumber": 8,
    "prefecture": "茨城県",
    "city": "石岡市",
    "town": "柴内"
  },
  "3150144": {
    "zipcode": "3150144",
    "prefectureCode": "08",
    "prefectureNumber": 8,
    "prefecture": "茨城県",
    "city": "石岡市",
    "town": "小野越"
  },
  "3150145": {
    "zipcode": "3150145",
    "prefectureCode": "08",
    "prefectureNumber": 8,
    "prefecture": "茨城県",
    "city": "石岡市",
    "town": "仏生寺"
  },
  "3150146": {
    "zipcode": "3150146",
    "prefectureCode": "08",
    "prefectureNumber": 8,
    "prefecture": "茨城県",
    "city": "石岡市",
    "town": "菖蒲沢"
  },
  "3150147": {
    "zipcode": "3150147",
    "prefectureCode": "08",
    "prefectureNumber": 8,
    "prefecture": "茨城県",
    "city": "石岡市",
    "town": "辻"
  },
  "3150148": {
    "zipcode": "3150148",
    "prefectureCode": "08",
    "prefectureNumber": 8,
    "prefecture": "茨城県",
    "city": "石岡市",
    "town": "青田"
  },
  "3150151": {
    "zipcode": "3150151",
    "prefectureCode": "08",
    "prefectureNumber": 8,
    "prefecture": "茨城県",
    "city": "石岡市",
    "town": "須釜"
  },
  "3150152": {
    "zipcode": "3150152",
    "prefectureCode": "08",
    "prefectureNumber": 8,
    "prefecture": "茨城県",
    "city": "石岡市",
    "town": "細谷"
  },
  "3150153": {
    "zipcode": "3150153",
    "prefectureCode": "08",
    "prefectureNumber": 8,
    "prefecture": "茨城県",
    "city": "石岡市",
    "town": "下青柳"
  },
  "3150154": {
    "zipcode": "3150154",
    "prefectureCode": "08",
    "prefectureNumber": 8,
    "prefecture": "茨城県",
    "city": "石岡市",
    "town": "上青柳"
  },
  "3150155": {
    "zipcode": "3150155",
    "prefectureCode": "08",
    "prefectureNumber": 8,
    "prefecture": "茨城県",
    "city": "石岡市",
    "town": "小幡"
  },
  "3150156": {
    "zipcode": "3150156",
    "prefectureCode": "08",
    "prefectureNumber": 8,
    "prefecture": "茨城県",
    "city": "石岡市",
    "town": "吉生"
  },
  "3150157": {
    "zipcode": "3150157",
    "prefectureCode": "08",
    "prefectureNumber": 8,
    "prefecture": "茨城県",
    "city": "石岡市",
    "town": "上曽"
  },
  "3150161": {
    "zipcode": "3150161",
    "prefectureCode": "08",
    "prefectureNumber": 8,
    "prefecture": "茨城県",
    "city": "石岡市",
    "town": "小塙"
  },
  "3150162": {
    "zipcode": "3150162",
    "prefectureCode": "08",
    "prefectureNumber": 8,
    "prefecture": "茨城県",
    "city": "石岡市",
    "town": "宇治会"
  },
  "3150163": {
    "zipcode": "3150163",
    "prefectureCode": "08",
    "prefectureNumber": 8,
    "prefecture": "茨城県",
    "city": "石岡市",
    "town": "鯨岡"
  },
  "3150164": {
    "zipcode": "3150164",
    "prefectureCode": "08",
    "prefectureNumber": 8,
    "prefecture": "茨城県",
    "city": "石岡市",
    "town": "小屋"
  },
  "3150165": {
    "zipcode": "3150165",
    "prefectureCode": "08",
    "prefectureNumber": 8,
    "prefecture": "茨城県",
    "city": "石岡市",
    "town": "小倉"
  },
  "3150166": {
    "zipcode": "3150166",
    "prefectureCode": "08",
    "prefectureNumber": 8,
    "prefecture": "茨城県",
    "city": "石岡市",
    "town": "小山田"
  },
  "3150167": {
    "zipcode": "3150167",
    "prefectureCode": "08",
    "prefectureNumber": 8,
    "prefecture": "茨城県",
    "city": "石岡市",
    "town": "龍明"
  }
}
