{
  "3160001": {
    "zipcode": "3160001",
    "prefectureCode": "08",
    "prefectureNumber": 8,
    "prefecture": "茨城県",
    "city": "日立市",
    "town": "諏訪町"
  },
  "3160002": {
    "zipcode": "3160002",
    "prefectureCode": "08",
    "prefectureNumber": 8,
    "prefecture": "茨城県",
    "city": "日立市",
    "town": "桜川町"
  },
  "3160003": {
    "zipcode": "3160003",
    "prefectureCode": "08",
    "prefectureNumber": 8,
    "prefecture": "茨城県",
    "city": "日立市",
    "town": "多賀町"
  },
  "3160004": {
    "zipcode": "3160004",
    "prefectureCode": "08",
    "prefectureNumber": 8,
    "prefecture": "茨城県",
    "city": "日立市",
    "town": "東多賀町"
  },
  "3160005": {
    "zipcode": "3160005",
    "prefectureCode": "08",
    "prefectureNumber": 8,
    "prefecture": "茨城県",
    "city": "日立市",
    "town": "河原子町"
  },
  "3160006": {
    "zipcode": "3160006",
    "prefectureCode": "08",
    "prefectureNumber": 8,
    "prefecture": "茨城県",
    "city": "日立市",
    "town": "末広町"
  },
  "3160007": {
    "zipcode": "3160007",
    "prefectureCode": "08",
    "prefectureNumber": 8,
    "prefecture": "茨城県",
    "city": "日立市",
    "town": "中丸町"
  },
  "3160011": {
    "zipcode": "3160011",
    "prefectureCode": "08",
    "prefectureNumber": 8,
    "prefecture": "茨城県",
    "city": "日立市",
    "town": "塙山町"
  },
  "3160012": {
    "zipcode": "3160012",
    "prefectureCode": "08",
    "prefectureNumber": 8,
    "prefecture": "茨城県",
    "city": "日立市",
    "town": "大久保町"
  },
  "3160013": {
    "zipcode": "3160013",
    "prefectureCode": "08",
    "prefectureNumber": 8,
    "prefecture": "茨城県",
    "city": "日立市",
    "town": "千石町"
  },
  "3160014": {
    "zipcode": "3160014",
    "prefectureCode": "08",
    "prefectureNumber": 8,
    "prefecture": "茨城県",
    "city": "日立市",
    "town": "東金沢町"
  },
  "3160015": {
    "zipcode": "3160015",
    "prefectureCode": "08",
    "prefectureNumber": 8,
    "prefecture": "茨城県",
    "city": "日立市",
    "town": "金沢町"
  },
  "3160021": {
    "zipcode": "3160021",
    "prefectureCode": "08",
    "prefectureNumber": 8,
    "prefecture": "茨城県",
    "city": "日立市",
    "town": "台原町"
  },
  "3160022": {
    "zipcode": "3160022",
    "prefectureCode": "08",
    "prefectureNumber": 8,
    "prefecture": "茨城県",
    "city": "日立市",
    "town": "大沼町"
  },
  "3160023": {
    "zipcode": "3160023",
    "prefectureCode": "08",
    "prefectureNumber": 8,
    "prefecture": "茨城県",
    "city": "日立市",
    "town": "東大沼町"
  },
  "3160024": {
    "zipcode": "3160024",
    "prefectureCode": "08",
    "prefectureNumber": 8,
    "prefecture": "茨城県",
    "city": "日立市",
    "town": "水木町"
  },
  "3160025": {
    "zipcode": "3160025",
    "prefectureCode": "08",
    "prefectureNumber": 8,
    "prefecture": "茨城県",
    "city": "日立市",
    "town": "森山町"
  },
  "3160026": {
    "zipcode": "3160026",
    "prefectureCode": "08",
    "prefectureNumber": 8,
    "prefecture": "茨城県",
    "city": "日立市",
    "town": "みかの原町"
  },
  "3160031": {
    "zipcode": "3160031",
    "prefectureCode": "08",
    "prefectureNumber": 8,
    "prefecture": "茨城県",
    "city": "日立市",
    "town": "成沢町"
  },
  "3160032": {
    "zipcode": "3160032",
    "prefectureCode": "08",
    "prefectureNumber": 8,
    "prefecture": "茨城県",
    "city": "日立市",
    "town": "西成沢町"
  },
  "3160033": {
    "zipcode": "3160033",
    "prefectureCode": "08",
    "prefectureNumber": 8,
    "prefecture": "茨城県",
    "city": "日立市",
    "town": "中成沢町"
  },
  "3160034": {
    "zipcode": "3160034",
    "prefectureCode": "08",
    "prefectureNumber": 8,
    "prefecture": "茨城県",
    "city": "日立市",
    "town": "東成沢町"
  },
  "3160035": {
    "zipcode": "3160035",
    "prefectureCode": "08",
    "prefectureNumber": 8,
    "prefecture": "茨城県",
    "city": "日立市",
    "town": "国分町"
  },
  "3160036": {
    "zipcode": "3160036",
    "prefectureCode": "08",
    "prefectureNumber": 8,
    "prefecture": "茨城県",
    "city": "日立市",
    "town": "鮎川町"
  }
}
