{
  "3180000": {
    "zipcode": "3180000",
    "prefectureCode": "08",
    "prefectureNumber": 8,
    "prefecture": "茨城県",
    "city": "高萩市",
    "town": "以下に掲載がない場合"
  },
  "3180001": {
    "zipcode": "3180001",
    "prefectureCode": "08",
    "prefectureNumber": 8,
    "prefecture": "茨城県",
    "city": "高萩市",
    "town": "赤浜"
  },
  "3180002": {
    "zipcode": "3180002",
    "prefectureCode": "08",
    "prefectureNumber": 8,
    "prefecture": "茨城県",
    "city": "高萩市",
    "town": "高戸"
  },
  "3180003": {
    "zipcode": "3180003",
    "prefectureCode": "08",
    "prefectureNumber": 8,
    "prefecture": "茨城県",
    "city": "高萩市",
    "town": "下手綱"
  },
  "3180004": {
    "zipcode": "3180004",
    "prefectureCode": "08",
    "prefectureNumber": 8,
    "prefecture": "茨城県",
    "city": "高萩市",
    "town": "上手綱"
  },
  "3180005": {
    "zipcode": "3180005",
    "prefectureCode": "08",
    "prefectureNumber": 8,
    "prefecture": "茨城県",
    "city": "高萩市",
    "town": "望海"
  },
  "3180011": {
    "zipcode": "3180011",
    "prefectureCode": "08",
    "prefectureNumber": 8,
    "prefecture": "茨城県",
    "city": "高萩市",
    "town": "肥前町"
  },
  "3180012": {
    "zipcode": "3180012",
    "prefectureCode": "08",
    "prefectureNumber": 8,
    "prefecture": "茨城県",
    "city": "高萩市",
    "town": "有明町"
  },
  "3180013": {
    "zipcode": "3180013",
    "prefectureCode": "08",
    "prefectureNumber": 8,
    "prefecture": "茨城県",
    "city": "高萩市",
    "town": "高浜町"
  },
  "3180014": {
    "zipcode": "3180014",
    "prefectureCode": "08",
    "prefectureNumber": 8,
    "prefecture": "茨城県",
    "city": "高萩市",
    "town": "東本町"
  },
  "3180021": {
    "zipcode": "3180021",
    "prefectureCode": "08",
    "prefectureNumber": 8,
    "prefecture": "茨城県",
    "city": "高萩市",
    "town": "安良川"
  },
  "3180022": {
    "zipcode": "3180022",
    "prefectureCode": "08",
    "prefectureNumber": 8,
    "prefecture": "茨城県",
    "city": "高萩市",
    "town": "石滝"
  },
  "3180023": {
    "zipcode": "3180023",
    "prefectureCode": "08",
    "prefectureNumber": 8,
    "prefecture": "茨城県",
    "city": "高萩市",
    "town": "島名"
  },
  "3180024": {
    "zipcode": "3180024",
    "prefectureCode": "08",
    "prefectureNumber": 8,
    "prefecture": "茨城県",
    "city": "高萩市",
    "town": "秋山"
  },
  "3180025": {
    "zipcode": "3180025",
    "prefectureCode": "08",
    "prefectureNumber": 8,
    "prefecture": "茨城県",
    "city": "高萩市",
    "town": "福平"
  },
  "3180031": {
    "zipcode": "3180031",
    "prefectureCode": "08",
    "prefectureNumber": 8,
    "prefecture": "茨城県",
    "city": "高萩市",
    "town": "春日町"
  },
  "3180032": {
    "zipcode": "3180032",
    "prefectureCode": "08",
    "prefectureNumber": 8,
    "prefecture": "茨城県",
    "city": "高萩市",
    "town": "大和町"
  },
  "3180033": {
    "zipcode": "3180033",
    "prefectureCode": "08",
    "prefectureNumber": 8,
    "prefecture": "茨城県",
    "city": "高萩市",
    "town": "本町"
  },
  "3180034": {
    "zipcode": "3180034",
    "prefectureCode": "08",
    "prefectureNumber": 8,
    "prefecture": "茨城県",
    "city": "高萩市",
    "town": "高萩"
  },
  "3180101": {
    "zipcode": "3180101",
    "prefectureCode": "08",
    "prefectureNumber": 8,
    "prefecture": "茨城県",
    "city": "高萩市",
    "town": "横川"
  },
  "3180102": {
    "zipcode": "3180102",
    "prefectureCode": "08",
    "prefectureNumber": 8,
    "prefecture": "茨城県",
    "city": "高萩市",
    "town": "若栗"
  },
  "3180103": {
    "zipcode": "3180103",
    "prefectureCode": "08",
    "prefectureNumber": 8,
    "prefecture": "茨城県",
    "city": "高萩市",
    "town": "大能"
  },
  "3180104": {
    "zipcode": "3180104",
    "prefectureCode": "08",
    "prefectureNumber": 8,
    "prefecture": "茨城県",
    "city": "高萩市",
    "town": "中戸川"
  },
  "3180105": {
    "zipcode": "3180105",
    "prefectureCode": "08",
    "prefectureNumber": 8,
    "prefecture": "茨城県",
    "city": "高萩市",
    "town": "上君田"
  },
  "3180106": {
    "zipcode": "3180106",
    "prefectureCode": "08",
    "prefectureNumber": 8,
    "prefecture": "茨城県",
    "city": "高萩市",
    "town": "下君田"
  }
}
