{
  "3190100": {
    "zipcode": "3190100",
    "prefectureCode": "08",
    "prefectureNumber": 8,
    "prefecture": "茨城県",
    "city": "小美玉市",
    "town": "以下に掲載がない場合"
  },
  "3190101": {
    "zipcode": "3190101",
    "prefectureCode": "08",
    "prefectureNumber": 8,
    "prefecture": "茨城県",
    "city": "小美玉市",
    "town": "橋場美"
  },
  "3190102": {
    "zipcode": "3190102",
    "prefectureCode": "08",
    "prefectureNumber": 8,
    "prefecture": "茨城県",
    "city": "小美玉市",
    "town": "西郷地"
  },
  "3190103": {
    "zipcode": "3190103",
    "prefectureCode": "08",
    "prefectureNumber": 8,
    "prefecture": "茨城県",
    "city": "小美玉市",
    "town": "柴高"
  },
  "3190104": {
    "zipcode": "3190104",
    "prefectureCode": "08",
    "prefectureNumber": 8,
    "prefecture": "茨城県",
    "city": "小美玉市",
    "town": "三箇"
  },
  "3190105": {
    "zipcode": "3190105",
    "prefectureCode": "08",
    "prefectureNumber": 8,
    "prefecture": "茨城県",
    "city": "小美玉市",
    "town": "鶴田"
  },
  "3190106": {
    "zipcode": "3190106",
    "prefectureCode": "08",
    "prefectureNumber": 8,
    "prefecture": "茨城県",
    "city": "小美玉市",
    "town": "堅倉"
  },
  "3190107": {
    "zipcode": "3190107",
    "prefectureCode": "08",
    "prefectureNumber": 8,
    "prefecture": "茨城県",
    "city": "小美玉市",
    "town": "小岩戸"
  },
  "3190108": {
    "zipcode": "3190108",
    "prefectureCode": "08",
    "prefectureNumber": 8,
    "prefecture": "茨城県",
    "city": "小美玉市",
    "town": "先後"
  },
  "3190111": {
    "zipcode": "3190111",
    "prefectureCode": "08",
    "prefectureNumber": 8,
    "prefecture": "茨城県",
    "city": "小美玉市",
    "town": "中野谷"
  },
  "3190112": {
    "zipcode": "3190112",
    "prefectureCode": "08",
    "prefectureNumber": 8,
    "prefecture": "茨城県",
    "city": "小美玉市",
    "town": "竹原下郷"
  },
  "3190113": {
    "zipcode": "3190113",
    "prefectureCode": "08",
    "prefectureNumber": 8,
    "prefecture": "茨城県",
    "city": "小美玉市",
    "town": "竹原"
  },
  "3190114": {
    "zipcode": "3190114",
    "prefectureCode": "08",
    "prefectureNumber": 8,
    "prefecture": "茨城県",
    "city": "小美玉市",
    "town": "竹原中郷"
  },
  "3190115": {
    "zipcode": "3190115",
    "prefectureCode": "08",
    "prefectureNumber": 8,
    "prefecture": "茨城県",
    "city": "小美玉市",
    "town": "上馬場"
  },
  "3190116": {
    "zipcode": "3190116",
    "prefectureCode": "08",
    "prefectureNumber": 8,
    "prefecture": "茨城県",
    "city": "小美玉市",
    "town": "中台"
  },
  "3190121": {
    "zipcode": "3190121",
    "prefectureCode": "08",
    "prefectureNumber": 8,
    "prefecture": "茨城県",
    "city": "小美玉市",
    "town": "羽刈"
  },
  "3190122": {
    "zipcode": "3190122",
    "prefectureCode": "08",
    "prefectureNumber": 8,
    "prefecture": "茨城県",
    "city": "小美玉市",
    "town": "江戸"
  },
  "3190123": {
    "zipcode": "3190123",
    "prefectureCode": "08",
    "prefectureNumber": 8,
    "prefecture": "茨城県",
    "city": "小美玉市",
    "town": "羽鳥"
  },
  "3190124": {
    "zipcode": "3190124",
    "prefectureCode": "08",
    "prefectureNumber": 8,
    "prefecture": "茨城県",
    "city": "小美玉市",
    "town": "花野井"
  },
  "3190125": {
    "zipcode": "3190125",
    "prefectureCode": "08",
    "prefectureNumber": 8,
    "prefecture": "茨城県",
    "city": "小美玉市",
    "town": "小曽納"
  },
  "3190126": {
    "zipcode": "3190126",
    "prefectureCode": "08",
    "prefectureNumber": 8,
    "prefecture": "茨城県",
    "city": "小美玉市",
    "town": "大谷"
  },
  "3190131": {
    "zipcode": "3190131",
    "prefectureCode": "08",
    "prefectureNumber": 8,
    "prefecture": "茨城県",
    "city": "小美玉市",
    "town": "寺崎"
  },
  "3190132": {
    "zipcode": "3190132",
    "prefectureCode": "08",
    "prefectureNumber": 8,
    "prefecture": "茨城県",
    "city": "小美玉市",
    "town": "部室"
  },
  "3190133": {
    "zipcode": "3190133",
    "prefectureCode": "08",
    "prefectureNumber": 8,
    "prefecture": "茨城県",
    "city": "小美玉市",
    "town": "張星"
  },
  "3190134": {
    "zipcode": "3190134",
    "prefectureCode": "08",
    "prefectureNumber": 8,
    "prefecture": "茨城県",
    "city": "小美玉市",
    "town": "納場"
  },
  "3190135": {
    "zipcode": "3190135",
    "prefectureCode": "08",
    "prefectureNumber": 8,
    "prefecture": "茨城県",
    "city": "小美玉市",
    "town": "高田"
  },
  "3190136": {
    "zipcode": "3190136",
    "prefectureCode": "08",
    "prefectureNumber": 8,
    "prefecture": "茨城県",
    "city": "小美玉市",
    "town": "手堤"
  },
  "3190137": {
    "zipcode": "3190137",
    "prefectureCode": "08",
    "prefectureNumber": 8,
    "prefecture": "茨城県",
    "city": "小美玉市",
    "town": "大笹"
  },
  "3190201": {
    "zipcode": "3190201",
    "prefectureCode": "08",
    "prefectureNumber": 8,
    "prefecture": "茨城県",
    "city": "笠間市",
    "town": "上郷"
  },
  "3190202": {
    "zipcode": "3190202",
    "prefectureCode": "08",
    "prefectureNumber": 8,
    "prefecture": "茨城県",
    "city": "笠間市",
    "town": "下郷"
  },
  "3190203": {
    "zipcode": "3190203",
    "prefectureCode": "08",
    "prefectureNumber": 8,
    "prefecture": "茨城県",
    "city": "笠間市",
    "town": "吉岡"
  },
  "3190204": {
    "zipcode": "3190204",
    "prefectureCode": "08",
    "prefectureNumber": 8,
    "prefecture": "茨城県",
    "city": "笠間市",
    "town": "土師"
  },
  "3190205": {
    "zipcode": "3190205",
    "prefectureCode": "08",
    "prefectureNumber": 8,
    "prefecture": "茨城県",
    "city": "笠間市",
    "town": "押辺"
  },
  "3190206": {
    "zipcode": "3190206",
    "prefectureCode": "08",
    "prefectureNumber": 8,
    "prefecture": "茨城県",
    "city": "笠間市",
    "town": "安居"
  },
  "3190207": {
    "zipcode": "3190207",
    "prefectureCode": "08",
    "prefectureNumber": 8,
    "prefecture": "茨城県",
    "city": "笠間市",
    "town": "福島"
  },
  "3190208": {
    "zipcode": "3190208",
    "prefectureCode": "08",
    "prefectureNumber": 8,
    "prefecture": "茨城県",
    "city": "笠間市",
    "town": "市野谷"
  },
  "3190209": {
    "zipcode": "3190209",
    "prefectureCode": "08",
    "prefectureNumber": 8,
    "prefecture": "茨城県",
    "city": "笠間市",
    "town": "泉"
  },
  "3190211": {
    "zipcode": "3190211",
    "prefectureCode": "08",
    "prefectureNumber": 8,
    "prefecture": "茨城県",
    "city": "笠間市",
    "town": "泉市野谷入会地"
  },
  "3190301": {
    "zipcode": "3190301",
    "prefectureCode": "08",
    "prefectureNumber": 8,
    "prefecture": "茨城県",
    "city": "水戸市",
    "town": "田島町"
  },
  "3190302": {
    "zipcode": "3190302",
    "prefectureCode": "08",
    "prefectureNumber": 8,
    "prefecture": "茨城県",
    "city": "水戸市",
    "town": "三野輪町"
  },
  "3190303": {
    "zipcode": "3190303",
    "prefectureCode": "08",
    "prefectureNumber": 8,
    "prefecture": "茨城県",
    "city": "水戸市",
    "town": "黒磯町"
  },
  "3190304": {
    "zipcode": "3190304",
    "prefectureCode": "08",
    "prefectureNumber": 8,
    "prefecture": "茨城県",
    "city": "水戸市",
    "town": "有賀町"
  },
  "3190305": {
    "zipcode": "3190305",
    "prefectureCode": "08",
    "prefectureNumber": 8,
    "prefecture": "茨城県",
    "city": "水戸市",
    "town": "中原町"
  },
  "3190306": {
    "zipcode": "3190306",
    "prefectureCode": "08",
    "prefectureNumber": 8,
    "prefecture": "茨城県",
    "city": "水戸市",
    "town": "杉崎町"
  },
  "3190307": {
    "zipcode": "3190307",
    "prefectureCode": "08",
    "prefectureNumber": 8,
    "prefecture": "茨城県",
    "city": "水戸市",
    "town": "小原町"
  },
  "3190311": {
    "zipcode": "3190311",
    "prefectureCode": "08",
    "prefectureNumber": 8,
    "prefecture": "茨城県",
    "city": "水戸市",
    "town": "牛伏町"
  },
  "3190312": {
    "zipcode": "3190312",
    "prefectureCode": "08",
    "prefectureNumber": 8,
    "prefecture": "茨城県",
    "city": "水戸市",
    "town": "大足町"
  },
  "3190313": {
    "zipcode": "3190313",
    "prefectureCode": "08",
    "prefectureNumber": 8,
    "prefecture": "茨城県",
    "city": "水戸市",
    "town": "筑地町"
  },
  "3190314": {
    "zipcode": "3190314",
    "prefectureCode": "08",
    "prefectureNumber": 8,
    "prefecture": "茨城県",
    "city": "水戸市",
    "town": "赤尾関町"
  },
  "3190315": {
    "zipcode": "3190315",
    "prefectureCode": "08",
    "prefectureNumber": 8,
    "prefecture": "茨城県",
    "city": "水戸市",
    "town": "内原町"
  },
  "3190316": {
    "zipcode": "3190316",
    "prefectureCode": "08",
    "prefectureNumber": 8,
    "prefecture": "茨城県",
    "city": "水戸市",
    "town": "三湯町"
  },
  "3190317": {
    "zipcode": "3190317",
    "prefectureCode": "08",
    "prefectureNumber": 8,
    "prefecture": "茨城県",
    "city": "水戸市",
    "town": "内原"
  },
  "3190321": {
    "zipcode": "3190321",
    "prefectureCode": "08",
    "prefectureNumber": 8,
    "prefecture": "茨城県",
    "city": "水戸市",
    "town": "高田町"
  },
  "3190322": {
    "zipcode": "3190322",
    "prefectureCode": "08",
    "prefectureNumber": 8,
    "prefecture": "茨城県",
    "city": "水戸市",
    "town": "下野町"
  },
  "3190323": {
    "zipcode": "3190323",
    "prefectureCode": "08",
    "prefectureNumber": 8,
    "prefecture": "茨城県",
    "city": "水戸市",
    "town": "鯉淵町"
  },
  "3190324": {
    "zipcode": "3190324",
    "prefectureCode": "08",
    "prefectureNumber": 8,
    "prefecture": "茨城県",
    "city": "水戸市",
    "town": "五平町"
  },
  "3190325": {
    "zipcode": "3190325",
    "prefectureCode": "08",
    "prefectureNumber": 8,
    "prefecture": "茨城県",
    "city": "水戸市",
    "town": "小林町"
  },
  "3191100": {
    "zipcode": "3191100",
    "prefectureCode": "08",
    "prefectureNumber": 8,
    "prefecture": "茨城県",
    "city": "那珂郡東海村",
    "town": "以下に掲載がない場合"
  },
  "3191101": {
    "zipcode": "3191101",
    "prefectureCode": "08",
    "prefectureNumber": 8,
    "prefecture": "茨城県",
    "city": "那珂郡東海村",
    "town": "石神外宿"
  },
  "3191102": {
    "zipcode": "3191102",
    "prefectureCode": "08",
    "prefectureNumber": 8,
    "prefecture": "茨城県",
    "city": "那珂郡東海村",
    "town": "石神内宿"
  },
  "3191103": {
    "zipcode": "3191103",
    "prefectureCode": "08",
    "prefectureNumber": 8,
    "prefecture": "茨城県",
    "city": "那珂郡東海村",
    "town": "竹瓦"
  },
  "3191104": {
    "zipcode": "3191104",
    "prefectureCode": "08",
    "prefectureNumber": 8,
    "prefecture": "茨城県",
    "city": "那珂郡東海村",
    "town": "亀下"
  },
  "3191105": {
    "zipcode": "3191105",
    "prefectureCode": "08",
    "prefectureNumber": 8,
    "prefecture": "茨城県",
    "city": "那珂郡東海村",
    "town": "豊岡"
  },
  "3191106": {
    "zipcode": "3191106",
    "prefectureCode": "08",
    "prefectureNumber": 8,
    "prefecture": "茨城県",
    "city": "那珂郡東海村",
    "town": "白方"
  },
  "3191107": {
    "zipcode": "3191107",
    "prefectureCode": "08",
    "prefectureNumber": 8,
    "prefecture": "茨城県",
    "city": "那珂郡東海村",
    "town": "豊白"
  },
  "3191108": {
    "zipcode": "3191108",
    "prefectureCode": "08",
    "prefectureNumber": 8,
    "prefecture": "茨城県",
    "city": "那珂郡東海村",
    "town": "村松北"
  },
  "3191109": {
    "zipcode": "3191109",
    "prefectureCode": "08",
    "prefectureNumber": 8,
    "prefecture": "茨城県",
    "city": "那珂郡東海村",
    "town": "白方中央"
  },
  "3191111": {
    "zipcode": "3191111",
    "prefectureCode": "08",
    "prefectureNumber": 8,
    "prefecture": "茨城県",
    "city": "那珂郡東海村",
    "town": "舟石川"
  },
  "3191112": {
    "zipcode": "3191112",
    "prefectureCode": "08",
    "prefectureNumber": 8,
    "prefecture": "茨城県",
    "city": "那珂郡東海村",
    "town": "村松"
  },
  "3191113": {
    "zipcode": "3191113",
    "prefectureCode": "08",
    "prefectureNumber": 8,
    "prefecture": "茨城県",
    "city": "那珂郡東海村",
    "town": "照沼"
  },
  "3191114": {
    "zipcode": "3191114",
    "prefectureCode": "08",
    "prefectureNumber": 8,
    "prefecture": "茨城県",
    "city": "那珂郡東海村",
    "town": "須和間"
  },
  "3191115": {
    "zipcode": "3191115",
    "prefectureCode": "08",
    "prefectureNumber": 8,
    "prefecture": "茨城県",
    "city": "那珂郡東海村",
    "town": "船場"
  },
  "3191116": {
    "zipcode": "3191116",
    "prefectureCode": "08",
    "prefectureNumber": 8,
    "prefecture": "茨城県",
    "city": "那珂郡東海村",
    "town": "舟石川駅西"
  },
  "3191117": {
    "zipcode": "3191117",
    "prefectureCode": "08",
    "prefectureNumber": 8,
    "prefecture": "茨城県",
    "city": "那珂郡東海村",
    "town": "東海"
  },
  "3191118": {
    "zipcode": "3191118",
    "prefectureCode": "08",
    "prefectureNumber": 8,
    "prefecture": "茨城県",
    "city": "那珂郡東海村",
    "town": "舟石川駅東"
  },
  "3191119": {
    "zipcode": "3191119",
    "prefectureCode": "08",
    "prefectureNumber": 8,
    "prefecture": "茨城県",
    "city": "那珂郡東海村",
    "town": "大山台"
  },
  "3191221": {
    "zipcode": "3191221",
    "prefectureCode": "08",
    "prefectureNumber": 8,
    "prefecture": "茨城県",
    "city": "日立市",
    "town": "大みか町"
  },
  "3191222": {
    "zipcode": "3191222",
    "prefectureCode": "08",
    "prefectureNumber": 8,
    "prefecture": "茨城県",
    "city": "日立市",
    "town": "久慈町"
  },
  "3191223": {
    "zipcode": "3191223",
    "prefectureCode": "08",
    "prefectureNumber": 8,
    "prefecture": "茨城県",
    "city": "日立市",
    "town": "みなと町"
  },
  "3191224": {
    "zipcode": "3191224",
    "prefectureCode": "08",
    "prefectureNumber": 8,
    "prefecture": "茨城県",
    "city": "日立市",
    "town": "南高野町"
  },
  "3191225": {
    "zipcode": "3191225",
    "prefectureCode": "08",
    "prefectureNumber": 8,
    "prefecture": "茨城県",
    "city": "日立市",
    "town": "石名坂町"
  },
  "3191231": {
    "zipcode": "3191231",
    "prefectureCode": "08",
    "prefectureNumber": 8,
    "prefecture": "茨城県",
    "city": "日立市",
    "town": "留町"
  },
  "3191232": {
    "zipcode": "3191232",
    "prefectureCode": "08",
    "prefectureNumber": 8,
    "prefecture": "茨城県",
    "city": "日立市",
    "town": "下土木内町"
  },
  "3191233": {
    "zipcode": "3191233",
    "prefectureCode": "08",
    "prefectureNumber": 8,
    "prefecture": "茨城県",
    "city": "日立市",
    "town": "神田町"
  },
  "3191234": {
    "zipcode": "3191234",
    "prefectureCode": "08",
    "prefectureNumber": 8,
    "prefecture": "茨城県",
    "city": "日立市",
    "town": "大和田町"
  },
  "3191235": {
    "zipcode": "3191235",
    "prefectureCode": "08",
    "prefectureNumber": 8,
    "prefecture": "茨城県",
    "city": "日立市",
    "town": "茂宮町"
  },
  "3191301": {
    "zipcode": "3191301",
    "prefectureCode": "08",
    "prefectureNumber": 8,
    "prefecture": "茨城県",
    "city": "日立市",
    "town": "十王町伊師"
  },
  "3191302": {
    "zipcode": "3191302",
    "prefectureCode": "08",
    "prefectureNumber": 8,
    "prefecture": "茨城県",
    "city": "日立市",
    "town": "十王町伊師本郷"
  },
  "3191303": {
    "zipcode": "3191303",
    "prefectureCode": "08",
    "prefectureNumber": 8,
    "prefecture": "茨城県",
    "city": "日立市",
    "town": "十王町友部東"
  },
  "3191304": {
    "zipcode": "3191304",
    "prefectureCode": "08",
    "prefectureNumber": 8,
    "prefecture": "茨城県",
    "city": "日立市",
    "town": "十王町友部"
  },
  "3191305": {
    "zipcode": "3191305",
    "prefectureCode": "08",
    "prefectureNumber": 8,
    "prefecture": "茨城県",
    "city": "日立市",
    "town": "十王町高原"
  },
  "3191306": {
    "zipcode": "3191306",
    "prefectureCode": "08",
    "prefectureNumber": 8,
    "prefecture": "茨城県",
    "city": "日立市",
    "town": "十王町黒坂"
  },
  "3191307": {
    "zipcode": "3191307",
    "prefectureCode": "08",
    "prefectureNumber": 8,
    "prefecture": "茨城県",
    "city": "日立市",
    "town": "十王町山部"
  },
  "3191308": {
    "zipcode": "3191308",
    "prefectureCode": "08",
    "prefectureNumber": 8,
    "prefecture": "茨城県",
    "city": "日立市",
    "town": "十王町城の丘"
  },
  "3191411": {
    "zipcode": "3191411",
    "prefectureCode": "08",
    "prefectureNumber": 8,
    "prefecture": "茨城県",
    "city": "日立市",
    "town": "川尻町"
  },
  "3191412": {
    "zipcode": "3191412",
    "prefectureCode": "08",
    "prefectureNumber": 8,
    "prefecture": "茨城県",
    "city": "日立市",
    "town": "折笠町"
  },
  "3191413": {
    "zipcode": "3191413",
    "prefectureCode": "08",
    "prefectureNumber": 8,
    "prefecture": "茨城県",
    "city": "日立市",
    "town": "小木津町"
  },
  "3191414": {
    "zipcode": "3191414",
    "prefectureCode": "08",
    "prefectureNumber": 8,
    "prefecture": "茨城県",
    "city": "日立市",
    "town": "日高町"
  },
  "3191415": {
    "zipcode": "3191415",
    "prefectureCode": "08",
    "prefectureNumber": 8,
    "prefecture": "茨城県",
    "city": "日立市",
    "town": "相田町"
  },
  "3191416": {
    "zipcode": "3191416",
    "prefectureCode": "08",
    "prefectureNumber": 8,
    "prefecture": "茨城県",
    "city": "日立市",
    "town": "田尻町"
  },
  "3191417": {
    "zipcode": "3191417",
    "prefectureCode": "08",
    "prefectureNumber": 8,
    "prefecture": "茨城県",
    "city": "日立市",
    "town": "かみあい町"
  },
  "3191418": {
    "zipcode": "3191418",
    "prefectureCode": "08",
    "prefectureNumber": 8,
    "prefecture": "茨城県",
    "city": "日立市",
    "town": "砂沢町"
  },
  "3191500": {
    "zipcode": "3191500",
    "prefectureCode": "08",
    "prefectureNumber": 8,
    "prefecture": "茨城県",
    "city": "北茨城市",
    "town": "以下に掲載がない場合"
  },
  "3191531": {
    "zipcode": "3191531",
    "prefectureCode": "08",
    "prefectureNumber": 8,
    "prefecture": "茨城県",
    "city": "北茨城市",
    "town": "華川町花園"
  },
  "3191532": {
    "zipcode": "3191532",
    "prefectureCode": "08",
    "prefectureNumber": 8,
    "prefecture": "茨城県",
    "city": "北茨城市",
    "town": "華川町上小津田"
  },
  "3191533": {
    "zipcode": "3191533",
    "prefectureCode": "08",
    "prefectureNumber": 8,
    "prefecture": "茨城県",
    "city": "北茨城市",
    "town": "華川町下小津田"
  },
  "3191534": {
    "zipcode": "3191534",
    "prefectureCode": "08",
    "prefectureNumber": 8,
    "prefecture": "茨城県",
    "city": "北茨城市",
    "town": "華川町車"
  },
  "3191535": {
    "zipcode": "3191535",
    "prefectureCode": "08",
    "prefectureNumber": 8,
    "prefecture": "茨城県",
    "city": "北茨城市",
    "town": "華川町臼場"
  },
  "3191536": {
    "zipcode": "3191536",
    "prefectureCode": "08",
    "prefectureNumber": 8,
    "prefecture": "茨城県",
    "city": "北茨城市",
    "town": "華川町中妻"
  },
  "3191537": {
    "zipcode": "3191537",
    "prefectureCode": "08",
    "prefectureNumber": 8,
    "prefecture": "茨城県",
    "city": "北茨城市",
    "town": "華川町下相田"
  },
  "3191538": {
    "zipcode": "3191538",
    "prefectureCode": "08",
    "prefectureNumber": 8,
    "prefecture": "茨城県",
    "city": "北茨城市",
    "town": "華川町小豆畑"
  },
  "3191541": {
    "zipcode": "3191541",
    "prefectureCode": "08",
    "prefectureNumber": 8,
    "prefecture": "茨城県",
    "city": "北茨城市",
    "town": "磯原町磯原"
  },
  "3191542": {
    "zipcode": "3191542",
    "prefectureCode": "08",
    "prefectureNumber": 8,
    "prefecture": "茨城県",
    "city": "北茨城市",
    "town": "磯原町本町"
  },
  "3191543": {
    "zipcode": "3191543",
    "prefectureCode": "08",
    "prefectureNumber": 8,
    "prefecture": "茨城県",
    "city": "北茨城市",
    "town": "磯原町豊田"
  },
  "3191544": {
    "zipcode": "3191544",
    "prefectureCode": "08",
    "prefectureNumber": 8,
    "prefecture": "茨城県",
    "city": "北茨城市",
    "town": "磯原町上相田"
  },
  "3191545": {
    "zipcode": "3191545",
    "prefectureCode": "08",
    "prefectureNumber": 8,
    "prefecture": "茨城県",
    "city": "北茨城市",
    "town": "磯原町木皿"
  },
  "3191546": {
    "zipcode": "3191546",
    "prefectureCode": "08",
    "prefectureNumber": 8,
    "prefecture": "茨城県",
    "city": "北茨城市",
    "town": "磯原町大塚"
  },
  "3191547": {
    "zipcode": "3191547",
    "prefectureCode": "08",
    "prefectureNumber": 8,
    "prefecture": "茨城県",
    "city": "北茨城市",
    "town": "磯原町内野"
  },
  "3191551": {
    "zipcode": "3191551",
    "prefectureCode": "08",
    "prefectureNumber": 8,
    "prefecture": "茨城県",
    "city": "北茨城市",
    "town": "中郷町下桜井"
  },
  "3191552": {
    "zipcode": "3191552",
    "prefectureCode": "08",
    "prefectureNumber": 8,
    "prefecture": "茨城県",
    "city": "北茨城市",
    "town": "中郷町足洗"
  },
  "3191553": {
    "zipcode": "3191553",
    "prefectureCode": "08",
    "prefectureNumber": 8,
    "prefecture": "茨城県",
    "city": "北茨城市",
    "town": "中郷町汐見ケ丘"
  },
  "3191554": {
    "zipcode": "3191554",
    "prefectureCode": "08",
    "prefectureNumber": 8,
    "prefecture": "茨城県",
    "city": "北茨城市",
    "town": "中郷町粟野"
  },
  "3191555": {
    "zipcode": "3191555",
    "prefectureCode": "08",
    "prefectureNumber": 8,
    "prefecture": "茨城県",
    "city": "北茨城市",
    "town": "中郷町小野矢指"
  },
  "3191556": {
    "zipcode": "3191556",
    "prefectureCode": "08",
    "prefectureNumber": 8,
    "prefecture": "茨城県",
    "city": "北茨城市",
    "town": "中郷町日棚"
  },
  "3191557": {
    "zipcode": "3191557",
    "prefectureCode": "08",
    "prefectureNumber": 8,
    "prefecture": "茨城県",
    "city": "北茨城市",
    "town": "中郷町松井"
  },
  "3191558": {
    "zipcode": "3191558",
    "prefectureCode": "08",
    "prefectureNumber": 8,
    "prefecture": "茨城県",
    "city": "北茨城市",
    "town": "中郷町石岡"
  },
  "3191559": {
    "zipcode": "3191559",
    "prefectureCode": "08",
    "prefectureNumber": 8,
    "prefecture": "茨城県",
    "city": "北茨城市",
    "town": "中郷町上桜井"
  },
  "3191701": {
    "zipcode": "3191701",
    "prefectureCode": "08",
    "prefectureNumber": 8,
    "prefecture": "茨城県",
    "city": "北茨城市",
    "town": "平潟町"
  },
  "3191702": {
    "zipcode": "3191702",
    "prefectureCode": "08",
    "prefectureNumber": 8,
    "prefecture": "茨城県",
    "city": "北茨城市",
    "town": "大津町"
  },
  "3191703": {
    "zipcode": "3191703",
    "prefectureCode": "08",
    "prefectureNumber": 8,
    "prefecture": "茨城県",
    "city": "北茨城市",
    "town": "大津町五浦"
  },
  "3191704": {
    "zipcode": "3191704",
    "prefectureCode": "08",
    "prefectureNumber": 8,
    "prefecture": "茨城県",
    "city": "北茨城市",
    "town": "大津町北町"
  },
  "3191711": {
    "zipcode": "3191711",
    "prefectureCode": "08",
    "prefectureNumber": 8,
    "prefecture": "茨城県",
    "city": "北茨城市",
    "town": "関南町関本下"
  },
  "3191712": {
    "zipcode": "3191712",
    "prefectureCode": "08",
    "prefectureNumber": 8,
    "prefecture": "茨城県",
    "city": "北茨城市",
    "town": "関南町里根川"
  },
  "3191713": {
    "zipcode": "3191713",
    "prefectureCode": "08",
    "prefectureNumber": 8,
    "prefecture": "茨城県",
    "city": "北茨城市",
    "town": "関南町仁井田"
  },
  "3191714": {
    "zipcode": "3191714",
    "prefectureCode": "08",
    "prefectureNumber": 8,
    "prefecture": "茨城県",
    "city": "北茨城市",
    "town": "関南町神岡上"
  },
  "3191715": {
    "zipcode": "3191715",
    "prefectureCode": "08",
    "prefectureNumber": 8,
    "prefecture": "茨城県",
    "city": "北茨城市",
    "town": "関南町神岡下"
  },
  "3191721": {
    "zipcode": "3191721",
    "prefectureCode": "08",
    "prefectureNumber": 8,
    "prefecture": "茨城県",
    "city": "北茨城市",
    "town": "関本町関本上"
  },
  "3191722": {
    "zipcode": "3191722",
    "prefectureCode": "08",
    "prefectureNumber": 8,
    "prefecture": "茨城県",
    "city": "北茨城市",
    "town": "関本町福田"
  },
  "3191723": {
    "zipcode": "3191723",
    "prefectureCode": "08",
    "prefectureNumber": 8,
    "prefecture": "茨城県",
    "city": "北茨城市",
    "town": "関本町関本中"
  },
  "3191724": {
    "zipcode": "3191724",
    "prefectureCode": "08",
    "prefectureNumber": 8,
    "prefecture": "茨城県",
    "city": "北茨城市",
    "town": "関本町八反"
  },
  "3191725": {
    "zipcode": "3191725",
    "prefectureCode": "08",
    "prefectureNumber": 8,
    "prefecture": "茨城県",
    "city": "北茨城市",
    "town": "関本町富士ケ丘"
  },
  "3191726": {
    "zipcode": "3191726",
    "prefectureCode": "08",
    "prefectureNumber": 8,
    "prefecture": "茨城県",
    "city": "北茨城市",
    "town": "関本町才丸"
  },
  "3191727": {
    "zipcode": "3191727",
    "prefectureCode": "08",
    "prefectureNumber": 8,
    "prefecture": "茨城県",
    "city": "北茨城市",
    "town": "関本町小川"
  },
  "3192102": {
    "zipcode": "3192102",
    "prefectureCode": "08",
    "prefectureNumber": 8,
    "prefecture": "茨城県",
    "city": "那珂市",
    "town": "瓜連"
  },
  "3192103": {
    "zipcode": "3192103",
    "prefectureCode": "08",
    "prefectureNumber": 8,
    "prefecture": "茨城県",
    "city": "那珂市",
    "town": "中里"
  },
  "3192104": {
    "zipcode": "3192104",
    "prefectureCode": "08",
    "prefectureNumber": 8,
    "prefecture": "茨城県",
    "city": "那珂市",
    "town": "平野"
  },
  "3192105": {
    "zipcode": "3192105",
    "prefectureCode": "08",
    "prefectureNumber": 8,
    "prefecture": "茨城県",
    "city": "那珂市",
    "town": "古徳"
  },
  "3192106": {
    "zipcode": "3192106",
    "prefectureCode": "08",
    "prefectureNumber": 8,
    "prefecture": "茨城県",
    "city": "那珂市",
    "town": "静"
  },
  "3192107": {
    "zipcode": "3192107",
    "prefectureCode": "08",
    "prefectureNumber": 8,
    "prefecture": "茨城県",
    "city": "那珂市",
    "town": "下大賀"
  },
  "3192131": {
    "zipcode": "3192131",
    "prefectureCode": "08",
    "prefectureNumber": 8,
    "prefecture": "茨城県",
    "city": "常陸大宮市",
    "town": "下村田"
  },
  "3192132": {
    "zipcode": "3192132",
    "prefectureCode": "08",
    "prefectureNumber": 8,
    "prefecture": "茨城県",
    "city": "常陸大宮市",
    "town": "小場"
  },
  "3192133": {
    "zipcode": "3192133",
    "prefectureCode": "08",
    "prefectureNumber": 8,
    "prefecture": "茨城県",
    "city": "常陸大宮市",
    "town": "小野"
  },
  "3192134": {
    "zipcode": "3192134",
    "prefectureCode": "08",
    "prefectureNumber": 8,
    "prefecture": "茨城県",
    "city": "常陸大宮市",
    "town": "工業団地"
  },
  "3192135": {
    "zipcode": "3192135",
    "prefectureCode": "08",
    "prefectureNumber": 8,
    "prefecture": "茨城県",
    "city": "常陸大宮市",
    "town": "石沢"
  },
  "3192136": {
    "zipcode": "3192136",
    "prefectureCode": "08",
    "prefectureNumber": 8,
    "prefecture": "茨城県",
    "city": "常陸大宮市",
    "town": "上村田"
  },
  "3192141": {
    "zipcode": "3192141",
    "prefectureCode": "08",
    "prefectureNumber": 8,
    "prefecture": "茨城県",
    "city": "常陸大宮市",
    "town": "下岩瀬"
  },
  "3192142": {
    "zipcode": "3192142",
    "prefectureCode": "08",
    "prefectureNumber": 8,
    "prefecture": "茨城県",
    "city": "常陸大宮市",
    "town": "上岩瀬"
  },
  "3192143": {
    "zipcode": "3192143",
    "prefectureCode": "08",
    "prefectureNumber": 8,
    "prefecture": "茨城県",
    "city": "常陸大宮市",
    "town": "根本"
  },
  "3192144": {
    "zipcode": "3192144",
    "prefectureCode": "08",
    "prefectureNumber": 8,
    "prefecture": "茨城県",
    "city": "常陸大宮市",
    "town": "泉"
  },
  "3192145": {
    "zipcode": "3192145",
    "prefectureCode": "08",
    "prefectureNumber": 8,
    "prefecture": "茨城県",
    "city": "常陸大宮市",
    "town": "宇留野"
  },
  "3192200": {
    "zipcode": "3192200",
    "prefectureCode": "08",
    "prefectureNumber": 8,
    "prefecture": "茨城県",
    "city": "常陸大宮市",
    "town": "以下に掲載がない場合"
  },
  "3192201": {
    "zipcode": "3192201",
    "prefectureCode": "08",
    "prefectureNumber": 8,
    "prefecture": "茨城県",
    "city": "常陸大宮市",
    "town": "辰ノ口"
  },
  "3192202": {
    "zipcode": "3192202",
    "prefectureCode": "08",
    "prefectureNumber": 8,
    "prefecture": "茨城県",
    "city": "常陸大宮市",
    "town": "塩原"
  },
  "3192203": {
    "zipcode": "3192203",
    "prefectureCode": "08",
    "prefectureNumber": 8,
    "prefecture": "茨城県",
    "city": "常陸大宮市",
    "town": "小倉"
  },
  "3192204": {
    "zipcode": "3192204",
    "prefectureCode": "08",
    "prefectureNumber": 8,
    "prefecture": "茨城県",
    "city": "常陸大宮市",
    "town": "富岡"
  },
  "3192205": {
    "zipcode": "3192205",
    "prefectureCode": "08",
    "prefectureNumber": 8,
    "prefecture": "茨城県",
    "city": "常陸大宮市",
    "town": "宮の郷"
  },
  "3192211": {
    "zipcode": "3192211",
    "prefectureCode": "08",
    "prefectureNumber": 8,
    "prefecture": "茨城県",
    "city": "常陸大宮市",
    "town": "岩崎"
  },
  "3192212": {
    "zipcode": "3192212",
    "prefectureCode": "08",
    "prefectureNumber": 8,
    "prefecture": "茨城県",
    "city": "常陸大宮市",
    "town": "上大賀"
  },
  "3192213": {
    "zipcode": "3192213",
    "prefectureCode": "08",
    "prefectureNumber": 8,
    "prefecture": "茨城県",
    "city": "常陸大宮市",
    "town": "小祝"
  },
  "3192214": {
    "zipcode": "3192214",
    "prefectureCode": "08",
    "prefectureNumber": 8,
    "prefecture": "茨城県",
    "city": "常陸大宮市",
    "town": "鷹巣"
  },
  "3192221": {
    "zipcode": "3192221",
    "prefectureCode": "08",
    "prefectureNumber": 8,
    "prefecture": "茨城県",
    "city": "常陸大宮市",
    "town": "八田"
  },
  "3192222": {
    "zipcode": "3192222",
    "prefectureCode": "08",
    "prefectureNumber": 8,
    "prefecture": "茨城県",
    "city": "常陸大宮市",
    "town": "若林"
  },
  "3192223": {
    "zipcode": "3192223",
    "prefectureCode": "08",
    "prefectureNumber": 8,
    "prefecture": "茨城県",
    "city": "常陸大宮市",
    "town": "三美"
  },
  "3192224": {
    "zipcode": "3192224",
    "prefectureCode": "08",
    "prefectureNumber": 8,
    "prefecture": "茨城県",
    "city": "常陸大宮市",
    "town": "東野"
  },
  "3192225": {
    "zipcode": "3192225",
    "prefectureCode": "08",
    "prefectureNumber": 8,
    "prefecture": "茨城県",
    "city": "常陸大宮市",
    "town": "西塩子"
  },
  "3192226": {
    "zipcode": "3192226",
    "prefectureCode": "08",
    "prefectureNumber": 8,
    "prefecture": "茨城県",
    "city": "常陸大宮市",
    "town": "北塩子"
  },
  "3192227": {
    "zipcode": "3192227",
    "prefectureCode": "08",
    "prefectureNumber": 8,
    "prefecture": "茨城県",
    "city": "常陸大宮市",
    "town": "照田（９１７〜１４９０番地）"
  },
  "3192251": {
    "zipcode": "3192251",
    "prefectureCode": "08",
    "prefectureNumber": 8,
    "prefecture": "茨城県",
    "city": "常陸大宮市",
    "town": "姥賀町"
  },
  "3192252": {
    "zipcode": "3192252",
    "prefectureCode": "08",
    "prefectureNumber": 8,
    "prefecture": "茨城県",
    "city": "常陸大宮市",
    "town": "東富町"
  },
  "3192253": {
    "zipcode": "3192253",
    "prefectureCode": "08",
    "prefectureNumber": 8,
    "prefecture": "茨城県",
    "city": "常陸大宮市",
    "town": "高渡町"
  },
  "3192254": {
    "zipcode": "3192254",
    "prefectureCode": "08",
    "prefectureNumber": 8,
    "prefecture": "茨城県",
    "city": "常陸大宮市",
    "town": "北町"
  },
  "3192255": {
    "zipcode": "3192255",
    "prefectureCode": "08",
    "prefectureNumber": 8,
    "prefecture": "茨城県",
    "city": "常陸大宮市",
    "town": "野中町"
  },
  "3192256": {
    "zipcode": "3192256",
    "prefectureCode": "08",
    "prefectureNumber": 8,
    "prefecture": "茨城県",
    "city": "常陸大宮市",
    "town": "田子内町"
  },
  "3192261": {
    "zipcode": "3192261",
    "prefectureCode": "08",
    "prefectureNumber": 8,
    "prefecture": "茨城県",
    "city": "常陸大宮市",
    "town": "上町"
  },
  "3192262": {
    "zipcode": "3192262",
    "prefectureCode": "08",
    "prefectureNumber": 8,
    "prefecture": "茨城県",
    "city": "常陸大宮市",
    "town": "下町"
  },
  "3192263": {
    "zipcode": "3192263",
    "prefectureCode": "08",
    "prefectureNumber": 8,
    "prefecture": "茨城県",
    "city": "常陸大宮市",
    "town": "南町"
  },
  "3192264": {
    "zipcode": "3192264",
    "prefectureCode": "08",
    "prefectureNumber": 8,
    "prefecture": "茨城県",
    "city": "常陸大宮市",
    "town": "栄町"
  },
  "3192265": {
    "zipcode": "3192265",
    "prefectureCode": "08",
    "prefectureNumber": 8,
    "prefecture": "茨城県",
    "city": "常陸大宮市",
    "town": "中富町"
  },
  "3192266": {
    "zipcode": "3192266",
    "prefectureCode": "08",
    "prefectureNumber": 8,
    "prefecture": "茨城県",
    "city": "常陸大宮市",
    "town": "抽ケ台町"
  },
  "3192401": {
    "zipcode": "3192401",
    "prefectureCode": "08",
    "prefectureNumber": 8,
    "prefecture": "茨城県",
    "city": "常陸大宮市",
    "town": "上小瀬"
  },
  "3192402": {
    "zipcode": "3192402",
    "prefectureCode": "08",
    "prefectureNumber": 8,
    "prefecture": "茨城県",
    "city": "常陸大宮市",
    "town": "下小瀬"
  },
  "3192403": {
    "zipcode": "3192403",
    "prefectureCode": "08",
    "prefectureNumber": 8,
    "prefecture": "茨城県",
    "city": "常陸大宮市",
    "town": "那賀"
  },
  "3192404": {
    "zipcode": "3192404",
    "prefectureCode": "08",
    "prefectureNumber": 8,
    "prefecture": "茨城県",
    "city": "常陸大宮市",
    "town": "国長"
  },
  "3192405": {
    "zipcode": "3192405",
    "prefectureCode": "08",
    "prefectureNumber": 8,
    "prefecture": "茨城県",
    "city": "常陸大宮市",
    "town": "小玉"
  },
  "3192411": {
    "zipcode": "3192411",
    "prefectureCode": "08",
    "prefectureNumber": 8,
    "prefecture": "茨城県",
    "city": "常陸大宮市",
    "town": "小舟"
  },
  "3192412": {
    "zipcode": "3192412",
    "prefectureCode": "08",
    "prefectureNumber": 8,
    "prefecture": "茨城県",
    "city": "常陸大宮市",
    "town": "小瀬沢"
  },
  "3192413": {
    "zipcode": "3192413",
    "prefectureCode": "08",
    "prefectureNumber": 8,
    "prefecture": "茨城県",
    "city": "常陸大宮市",
    "town": "松之草"
  },
  "3192414": {
    "zipcode": "3192414",
    "prefectureCode": "08",
    "prefectureNumber": 8,
    "prefecture": "茨城県",
    "city": "常陸大宮市",
    "town": "吉丸"
  },
  "3192415": {
    "zipcode": "3192415",
    "prefectureCode": "08",
    "prefectureNumber": 8,
    "prefecture": "茨城県",
    "city": "常陸大宮市",
    "town": "入本郷"
  },
  "3192416": {
    "zipcode": "3192416",
    "prefectureCode": "08",
    "prefectureNumber": 8,
    "prefecture": "茨城県",
    "city": "常陸大宮市",
    "town": "千田"
  },
  "3192417": {
    "zipcode": "3192417",
    "prefectureCode": "08",
    "prefectureNumber": 8,
    "prefecture": "茨城県",
    "city": "常陸大宮市",
    "town": "油河内"
  },
  "3192418": {
    "zipcode": "3192418",
    "prefectureCode": "08",
    "prefectureNumber": 8,
    "prefecture": "茨城県",
    "city": "常陸大宮市",
    "town": "大岩"
  },
  "3192511": {
    "zipcode": "3192511",
    "prefectureCode": "08",
    "prefectureNumber": 8,
    "prefecture": "茨城県",
    "city": "常陸大宮市",
    "town": "上檜沢"
  },
  "3192512": {
    "zipcode": "3192512",
    "prefectureCode": "08",
    "prefectureNumber": 8,
    "prefecture": "茨城県",
    "city": "常陸大宮市",
    "town": "下檜沢"
  },
  "3192513": {
    "zipcode": "3192513",
    "prefectureCode": "08",
    "prefectureNumber": 8,
    "prefecture": "茨城県",
    "city": "常陸大宮市",
    "town": "氷之沢"
  },
  "3192601": {
    "zipcode": "3192601",
    "prefectureCode": "08",
    "prefectureNumber": 8,
    "prefecture": "茨城県",
    "city": "常陸大宮市",
    "town": "高部"
  },
  "3192602": {
    "zipcode": "3192602",
    "prefectureCode": "08",
    "prefectureNumber": 8,
    "prefecture": "茨城県",
    "city": "常陸大宮市",
    "town": "小田野"
  },
  "3192603": {
    "zipcode": "3192603",
    "prefectureCode": "08",
    "prefectureNumber": 8,
    "prefecture": "茨城県",
    "city": "常陸大宮市",
    "town": "鷲子"
  },
  "3193101": {
    "zipcode": "3193101",
    "prefectureCode": "08",
    "prefectureNumber": 8,
    "prefecture": "茨城県",
    "city": "常陸大宮市",
    "town": "久隆"
  },
  "3193102": {
    "zipcode": "3193102",
    "prefectureCode": "08",
    "prefectureNumber": 8,
    "prefecture": "茨城県",
    "city": "常陸大宮市",
    "town": "盛金"
  },
  "3193103": {
    "zipcode": "3193103",
    "prefectureCode": "08",
    "prefectureNumber": 8,
    "prefecture": "茨城県",
    "city": "常陸大宮市",
    "town": "家和楽"
  },
  "3193104": {
    "zipcode": "3193104",
    "prefectureCode": "08",
    "prefectureNumber": 8,
    "prefecture": "茨城県",
    "city": "常陸大宮市",
    "town": "北富田"
  },
  "3193105": {
    "zipcode": "3193105",
    "prefectureCode": "08",
    "prefectureNumber": 8,
    "prefecture": "茨城県",
    "city": "常陸大宮市",
    "town": "諸沢"
  },
  "3193106": {
    "zipcode": "3193106",
    "prefectureCode": "08",
    "prefectureNumber": 8,
    "prefecture": "茨城県",
    "city": "常陸大宮市",
    "town": "西野内"
  },
  "3193107": {
    "zipcode": "3193107",
    "prefectureCode": "08",
    "prefectureNumber": 8,
    "prefecture": "茨城県",
    "city": "常陸大宮市",
    "town": "舟生"
  },
  "3193111": {
    "zipcode": "3193111",
    "prefectureCode": "08",
    "prefectureNumber": 8,
    "prefecture": "茨城県",
    "city": "常陸大宮市",
    "town": "山方"
  },
  "3193112": {
    "zipcode": "3193112",
    "prefectureCode": "08",
    "prefectureNumber": 8,
    "prefecture": "茨城県",
    "city": "常陸大宮市",
    "town": "小貫"
  },
  "3193113": {
    "zipcode": "3193113",
    "prefectureCode": "08",
    "prefectureNumber": 8,
    "prefecture": "茨城県",
    "city": "常陸大宮市",
    "town": "照山"
  },
  "3193114": {
    "zipcode": "3193114",
    "prefectureCode": "08",
    "prefectureNumber": 8,
    "prefecture": "茨城県",
    "city": "常陸大宮市",
    "town": "野上"
  },
  "3193115": {
    "zipcode": "3193115",
    "prefectureCode": "08",
    "prefectureNumber": 8,
    "prefecture": "茨城県",
    "city": "常陸大宮市",
    "town": "照田（その他）"
  },
  "3193116": {
    "zipcode": "3193116",
    "prefectureCode": "08",
    "prefectureNumber": 8,
    "prefecture": "茨城県",
    "city": "常陸大宮市",
    "town": "長田"
  },
  "3193117": {
    "zipcode": "3193117",
    "prefectureCode": "08",
    "prefectureNumber": 8,
    "prefecture": "茨城県",
    "city": "常陸大宮市",
    "town": "長沢"
  },
  "3193361": {
    "zipcode": "3193361",
    "prefectureCode": "08",
    "prefectureNumber": 8,
    "prefecture": "茨城県",
    "city": "久慈郡大子町",
    "town": "頃藤"
  },
  "3193362": {
    "zipcode": "3193362",
    "prefectureCode": "08",
    "prefectureNumber": 8,
    "prefecture": "茨城県",
    "city": "久慈郡大子町",
    "town": "西金"
  },
  "3193363": {
    "zipcode": "3193363",
    "prefectureCode": "08",
    "prefectureNumber": 8,
    "prefecture": "茨城県",
    "city": "久慈郡大子町",
    "town": "北富田"
  },
  "3193364": {
    "zipcode": "3193364",
    "prefectureCode": "08",
    "prefectureNumber": 8,
    "prefecture": "茨城県",
    "city": "久慈郡大子町",
    "town": "盛金"
  },
  "3193365": {
    "zipcode": "3193365",
    "prefectureCode": "08",
    "prefectureNumber": 8,
    "prefecture": "茨城県",
    "city": "久慈郡大子町",
    "town": "栃原"
  },
  "3193366": {
    "zipcode": "3193366",
    "prefectureCode": "08",
    "prefectureNumber": 8,
    "prefecture": "茨城県",
    "city": "久慈郡大子町",
    "town": "大沢"
  },
  "3193500": {
    "zipcode": "3193500",
    "prefectureCode": "08",
    "prefectureNumber": 8,
    "prefecture": "茨城県",
    "city": "久慈郡大子町",
    "town": "以下に掲載がない場合"
  },
  "3193511": {
    "zipcode": "3193511",
    "prefectureCode": "08",
    "prefectureNumber": 8,
    "prefecture": "茨城県",
    "city": "久慈郡大子町",
    "town": "高柴"
  },
  "3193512": {
    "zipcode": "3193512",
    "prefectureCode": "08",
    "prefectureNumber": 8,
    "prefecture": "茨城県",
    "city": "久慈郡大子町",
    "town": "小生瀬"
  },
  "3193513": {
    "zipcode": "3193513",
    "prefectureCode": "08",
    "prefectureNumber": 8,
    "prefecture": "茨城県",
    "city": "久慈郡大子町",
    "town": "大生瀬"
  },
  "3193514": {
    "zipcode": "3193514",
    "prefectureCode": "08",
    "prefectureNumber": 8,
    "prefecture": "茨城県",
    "city": "久慈郡大子町",
    "town": "外大野"
  },
  "3193515": {
    "zipcode": "3193515",
    "prefectureCode": "08",
    "prefectureNumber": 8,
    "prefecture": "茨城県",
    "city": "久慈郡大子町",
    "town": "内大野"
  },
  "3193521": {
    "zipcode": "3193521",
    "prefectureCode": "08",
    "prefectureNumber": 8,
    "prefecture": "茨城県",
    "city": "久慈郡大子町",
    "town": "北田気"
  },
  "3193522": {
    "zipcode": "3193522",
    "prefectureCode": "08",
    "prefectureNumber": 8,
    "prefecture": "茨城県",
    "city": "久慈郡大子町",
    "town": "久野瀬"
  },
  "3193523": {
    "zipcode": "3193523",
    "prefectureCode": "08",
    "prefectureNumber": 8,
    "prefecture": "茨城県",
    "city": "久慈郡大子町",
    "town": "袋田"
  },
  "3193524": {
    "zipcode": "3193524",
    "prefectureCode": "08",
    "prefectureNumber": 8,
    "prefecture": "茨城県",
    "city": "久慈郡大子町",
    "town": "下津原"
  },
  "3193525": {
    "zipcode": "3193525",
    "prefectureCode": "08",
    "prefectureNumber": 8,
    "prefecture": "茨城県",
    "city": "久慈郡大子町",
    "town": "南田気"
  },
  "3193526": {
    "zipcode": "3193526",
    "prefectureCode": "08",
    "prefectureNumber": 8,
    "prefecture": "茨城県",
    "city": "久慈郡大子町",
    "town": "大子"
  },
  "3193531": {
    "zipcode": "3193531",
    "prefectureCode": "08",
    "prefectureNumber": 8,
    "prefecture": "茨城県",
    "city": "久慈郡大子町",
    "town": "上岡"
  },
  "3193532": {
    "zipcode": "3193532",
    "prefectureCode": "08",
    "prefectureNumber": 8,
    "prefecture": "茨城県",
    "city": "久慈郡大子町",
    "town": "山田"
  },
  "3193533": {
    "zipcode": "3193533",
    "prefectureCode": "08",
    "prefectureNumber": 8,
    "prefecture": "茨城県",
    "city": "久慈郡大子町",
    "town": "下金沢"
  },
  "3193534": {
    "zipcode": "3193534",
    "prefectureCode": "08",
    "prefectureNumber": 8,
    "prefecture": "茨城県",
    "city": "久慈郡大子町",
    "town": "相川"
  },
  "3193535": {
    "zipcode": "3193535",
    "prefectureCode": "08",
    "prefectureNumber": 8,
    "prefecture": "茨城県",
    "city": "久慈郡大子町",
    "town": "上金沢"
  },
  "3193536": {
    "zipcode": "3193536",
    "prefectureCode": "08",
    "prefectureNumber": 8,
    "prefecture": "茨城県",
    "city": "久慈郡大子町",
    "town": "田野沢"
  },
  "3193537": {
    "zipcode": "3193537",
    "prefectureCode": "08",
    "prefectureNumber": 8,
    "prefecture": "茨城県",
    "city": "久慈郡大子町",
    "town": "塙"
  },
  "3193538": {
    "zipcode": "3193538",
    "prefectureCode": "08",
    "prefectureNumber": 8,
    "prefecture": "茨城県",
    "city": "久慈郡大子町",
    "town": "芦野倉"
  },
  "3193541": {
    "zipcode": "3193541",
    "prefectureCode": "08",
    "prefectureNumber": 8,
    "prefecture": "茨城県",
    "city": "久慈郡大子町",
    "town": "浅川"
  },
  "3193542": {
    "zipcode": "3193542",
    "prefectureCode": "08",
    "prefectureNumber": 8,
    "prefecture": "茨城県",
    "city": "久慈郡大子町",
    "town": "初原"
  },
  "3193543": {
    "zipcode": "3193543",
    "prefectureCode": "08",
    "prefectureNumber": 8,
    "prefecture": "茨城県",
    "city": "久慈郡大子町",
    "town": "左貫"
  },
  "3193544": {
    "zipcode": "3193544",
    "prefectureCode": "08",
    "prefectureNumber": 8,
    "prefecture": "茨城県",
    "city": "久慈郡大子町",
    "town": "槇野地"
  },
  "3193551": {
    "zipcode": "3193551",
    "prefectureCode": "08",
    "prefectureNumber": 8,
    "prefecture": "茨城県",
    "city": "久慈郡大子町",
    "town": "池田"
  },
  "3193552": {
    "zipcode": "3193552",
    "prefectureCode": "08",
    "prefectureNumber": 8,
    "prefecture": "茨城県",
    "city": "久慈郡大子町",
    "town": "矢田"
  },
  "3193553": {
    "zipcode": "3193553",
    "prefectureCode": "08",
    "prefectureNumber": 8,
    "prefecture": "茨城県",
    "city": "久慈郡大子町",
    "town": "冥賀"
  },
  "3193554": {
    "zipcode": "3193554",
    "prefectureCode": "08",
    "prefectureNumber": 8,
    "prefecture": "茨城県",
    "city": "久慈郡大子町",
    "town": "高田"
  },
  "3193555": {
    "zipcode": "3193555",
    "prefectureCode": "08",
    "prefectureNumber": 8,
    "prefecture": "茨城県",
    "city": "久慈郡大子町",
    "town": "下野宮"
  },
  "3193556": {
    "zipcode": "3193556",
    "prefectureCode": "08",
    "prefectureNumber": 8,
    "prefecture": "茨城県",
    "city": "久慈郡大子町",
    "town": "川山"
  },
  "3193701": {
    "zipcode": "3193701",
    "prefectureCode": "08",
    "prefectureNumber": 8,
    "prefecture": "茨城県",
    "city": "久慈郡大子町",
    "town": "北吉沢"
  },
  "3193702": {
    "zipcode": "3193702",
    "prefectureCode": "08",
    "prefectureNumber": 8,
    "prefecture": "茨城県",
    "city": "久慈郡大子町",
    "town": "町付"
  },
  "3193703": {
    "zipcode": "3193703",
    "prefectureCode": "08",
    "prefectureNumber": 8,
    "prefecture": "茨城県",
    "city": "久慈郡大子町",
    "town": "上郷"
  },
  "3193704": {
    "zipcode": "3193704",
    "prefectureCode": "08",
    "prefectureNumber": 8,
    "prefecture": "茨城県",
    "city": "久慈郡大子町",
    "town": "上野宮"
  },
  "3193705": {
    "zipcode": "3193705",
    "prefectureCode": "08",
    "prefectureNumber": 8,
    "prefecture": "茨城県",
    "city": "久慈郡大子町",
    "town": "中郷"
  }
}
