{
  "3210000": {
    "zipcode": "3210000",
    "prefectureCode": "09",
    "prefectureNumber": 9,
    "prefecture": "栃木県",
    "city": "宇都宮市",
    "town": "以下に掲載がない場合"
  },
  "3210101": {
    "zipcode": "3210101",
    "prefectureCode": "09",
    "prefectureNumber": 9,
    "prefecture": "栃木県",
    "city": "宇都宮市",
    "town": "江曽島本町"
  },
  "3210102": {
    "zipcode": "3210102",
    "prefectureCode": "09",
    "prefectureNumber": 9,
    "prefecture": "栃木県",
    "city": "宇都宮市",
    "town": "江曽島町"
  },
  "3210103": {
    "zipcode": "3210103",
    "prefectureCode": "09",
    "prefectureNumber": 9,
    "prefecture": "栃木県",
    "city": "宇都宮市",
    "town": "台新田町"
  },
  "3210104": {
    "zipcode": "3210104",
    "prefectureCode": "09",
    "prefectureNumber": 9,
    "prefecture": "栃木県",
    "city": "宇都宮市",
    "town": "台新田"
  },
  "3210105": {
    "zipcode": "3210105",
    "prefectureCode": "09",
    "prefectureNumber": 9,
    "prefecture": "栃木県",
    "city": "宇都宮市",
    "town": "横田新町"
  },
  "3210106": {
    "zipcode": "3210106",
    "prefectureCode": "09",
    "prefectureNumber": 9,
    "prefecture": "栃木県",
    "city": "宇都宮市",
    "town": "上横田町"
  },
  "3210107": {
    "zipcode": "3210107",
    "prefectureCode": "09",
    "prefectureNumber": 9,
    "prefecture": "栃木県",
    "city": "宇都宮市",
    "town": "江曽島"
  },
  "3210108": {
    "zipcode": "3210108",
    "prefectureCode": "09",
    "prefectureNumber": 9,
    "prefecture": "栃木県",
    "city": "宇都宮市",
    "town": "春日町"
  },
  "3210111": {
    "zipcode": "3210111",
    "prefectureCode": "09",
    "prefectureNumber": 9,
    "prefecture": "栃木県",
    "city": "宇都宮市",
    "town": "川田町"
  },
  "3210112": {
    "zipcode": "3210112",
    "prefectureCode": "09",
    "prefectureNumber": 9,
    "prefecture": "栃木県",
    "city": "宇都宮市",
    "town": "屋板町"
  },
  "3210113": {
    "zipcode": "3210113",
    "prefectureCode": "09",
    "prefectureNumber": 9,
    "prefecture": "栃木県",
    "city": "宇都宮市",
    "town": "砂田町"
  },
  "3210114": {
    "zipcode": "3210114",
    "prefectureCode": "09",
    "prefectureNumber": 9,
    "prefecture": "栃木県",
    "city": "宇都宮市",
    "town": "中島町"
  },
  "3210115": {
    "zipcode": "3210115",
    "prefectureCode": "09",
    "prefectureNumber": 9,
    "prefecture": "栃木県",
    "city": "宇都宮市",
    "town": "上御田町"
  },
  "3210116": {
    "zipcode": "3210116",
    "prefectureCode": "09",
    "prefectureNumber": 9,
    "prefecture": "栃木県",
    "city": "宇都宮市",
    "town": "東横田町"
  },
  "3210117": {
    "zipcode": "3210117",
    "prefectureCode": "09",
    "prefectureNumber": 9,
    "prefecture": "栃木県",
    "city": "宇都宮市",
    "town": "城南"
  },
  "3210118": {
    "zipcode": "3210118",
    "prefectureCode": "09",
    "prefectureNumber": 9,
    "prefecture": "栃木県",
    "city": "宇都宮市",
    "town": "インターパーク"
  },
  "3210121": {
    "zipcode": "3210121",
    "prefectureCode": "09",
    "prefectureNumber": 9,
    "prefecture": "栃木県",
    "city": "宇都宮市",
    "town": "雀宮町"
  },
  "3210122": {
    "zipcode": "3210122",
    "prefectureCode": "09",
    "prefectureNumber": 9,
    "prefecture": "栃木県",
    "city": "宇都宮市",
    "town": "下反町町"
  },
  "3210123": {
    "zipcode": "3210123",
    "prefectureCode": "09",
    "prefectureNumber": 9,
    "prefecture": "栃木県",
    "city": "宇都宮市",
    "town": "東谷町"
  },
  "3210124": {
    "zipcode": "3210124",
    "prefectureCode": "09",
    "prefectureNumber": 9,
    "prefecture": "栃木県",
    "city": "宇都宮市",
    "town": "下横田町"
  },
  "3210125": {
    "zipcode": "3210125",
    "prefectureCode": "09",
    "prefectureNumber": 9,
    "prefecture": "栃木県",
    "city": "宇都宮市",
    "town": "御田長島町"
  },
  "3210126": {
    "zipcode": "3210126",
    "prefectureCode": "09",
    "prefectureNumber": 9,
    "prefecture": "栃木県",
    "city": "宇都宮市",
    "town": "茂原町"
  },
  "3210127": {
    "zipcode": "3210127",
    "prefectureCode": "09",
    "prefectureNumber": 9,
    "prefecture": "栃木県",
    "city": "宇都宮市",
    "town": "羽牛田町"
  },
  "3210131": {
    "zipcode": "3210131",
    "prefectureCode": "09",
    "prefectureNumber": 9,
    "prefecture": "栃木県",
    "city": "宇都宮市",
    "town": "宮の内"
  },
  "3210132": {
    "zipcode": "3210132",
    "prefectureCode": "09",
    "prefectureNumber": 9,
    "prefecture": "栃木県",
    "city": "宇都宮市",
    "town": "雀の宮"
  },
  "3210133": {
    "zipcode": "3210133",
    "prefectureCode": "09",
    "prefectureNumber": 9,
    "prefecture": "栃木県",
    "city": "宇都宮市",
    "town": "新富町"
  },
  "3210134": {
    "zipcode": "3210134",
    "prefectureCode": "09",
    "prefectureNumber": 9,
    "prefecture": "栃木県",
    "city": "宇都宮市",
    "town": "高砂町"
  },
  "3210135": {
    "zipcode": "3210135",
    "prefectureCode": "09",
    "prefectureNumber": 9,
    "prefecture": "栃木県",
    "city": "宇都宮市",
    "town": "五代"
  },
  "3210136": {
    "zipcode": "3210136",
    "prefectureCode": "09",
    "prefectureNumber": 9,
    "prefecture": "栃木県",
    "city": "宇都宮市",
    "town": "みどり野町"
  },
  "3210137": {
    "zipcode": "3210137",
    "prefectureCode": "09",
    "prefectureNumber": 9,
    "prefecture": "栃木県",
    "city": "宇都宮市",
    "town": "針ケ谷"
  },
  "3210138": {
    "zipcode": "3210138",
    "prefectureCode": "09",
    "prefectureNumber": 9,
    "prefecture": "栃木県",
    "city": "宇都宮市",
    "town": "兵庫塚"
  },
  "3210139": {
    "zipcode": "3210139",
    "prefectureCode": "09",
    "prefectureNumber": 9,
    "prefecture": "栃木県",
    "city": "宇都宮市",
    "town": "若松原"
  },
  "3210141": {
    "zipcode": "3210141",
    "prefectureCode": "09",
    "prefectureNumber": 9,
    "prefecture": "栃木県",
    "city": "宇都宮市",
    "town": "さつき"
  },
  "3210142": {
    "zipcode": "3210142",
    "prefectureCode": "09",
    "prefectureNumber": 9,
    "prefecture": "栃木県",
    "city": "宇都宮市",
    "town": "南町"
  },
  "3210143": {
    "zipcode": "3210143",
    "prefectureCode": "09",
    "prefectureNumber": 9,
    "prefecture": "栃木県",
    "city": "宇都宮市",
    "town": "南高砂町"
  },
  "3210144": {
    "zipcode": "3210144",
    "prefectureCode": "09",
    "prefectureNumber": 9,
    "prefecture": "栃木県",
    "city": "宇都宮市",
    "town": "末広"
  },
  "3210145": {
    "zipcode": "3210145",
    "prefectureCode": "09",
    "prefectureNumber": 9,
    "prefecture": "栃木県",
    "city": "宇都宮市",
    "town": "茂原"
  },
  "3210146": {
    "zipcode": "3210146",
    "prefectureCode": "09",
    "prefectureNumber": 9,
    "prefecture": "栃木県",
    "city": "宇都宮市",
    "town": "富士見町"
  },
  "3210147": {
    "zipcode": "3210147",
    "prefectureCode": "09",
    "prefectureNumber": 9,
    "prefecture": "栃木県",
    "city": "宇都宮市",
    "town": "針ケ谷町"
  },
  "3210151": {
    "zipcode": "3210151",
    "prefectureCode": "09",
    "prefectureNumber": 9,
    "prefecture": "栃木県",
    "city": "宇都宮市",
    "town": "西川田町"
  },
  "3210152": {
    "zipcode": "3210152",
    "prefectureCode": "09",
    "prefectureNumber": 9,
    "prefecture": "栃木県",
    "city": "宇都宮市",
    "town": "西川田"
  },
  "3210153": {
    "zipcode": "3210153",
    "prefectureCode": "09",
    "prefectureNumber": 9,
    "prefecture": "栃木県",
    "city": "宇都宮市",
    "town": "北若松原"
  },
  "3210154": {
    "zipcode": "3210154",
    "prefectureCode": "09",
    "prefectureNumber": 9,
    "prefecture": "栃木県",
    "city": "宇都宮市",
    "town": "西川田東町"
  },
  "3210155": {
    "zipcode": "3210155",
    "prefectureCode": "09",
    "prefectureNumber": 9,
    "prefecture": "栃木県",
    "city": "宇都宮市",
    "town": "西川田南"
  },
  "3210156": {
    "zipcode": "3210156",
    "prefectureCode": "09",
    "prefectureNumber": 9,
    "prefecture": "栃木県",
    "city": "宇都宮市",
    "town": "兵庫塚町"
  },
  "3210157": {
    "zipcode": "3210157",
    "prefectureCode": "09",
    "prefectureNumber": 9,
    "prefecture": "栃木県",
    "city": "宇都宮市",
    "town": "幕田町"
  },
  "3210158": {
    "zipcode": "3210158",
    "prefectureCode": "09",
    "prefectureNumber": 9,
    "prefecture": "栃木県",
    "city": "宇都宮市",
    "town": "西川田本町"
  },
  "3210161": {
    "zipcode": "3210161",
    "prefectureCode": "09",
    "prefectureNumber": 9,
    "prefecture": "栃木県",
    "city": "宇都宮市",
    "town": "大塚町"
  },
  "3210162": {
    "zipcode": "3210162",
    "prefectureCode": "09",
    "prefectureNumber": 9,
    "prefecture": "栃木県",
    "city": "宇都宮市",
    "town": "大和（１、２丁目）"
  },
  "3210163": {
    "zipcode": "3210163",
    "prefectureCode": "09",
    "prefectureNumber": 9,
    "prefecture": "栃木県",
    "city": "宇都宮市",
    "town": "宮本町"
  },
  "3210164": {
    "zipcode": "3210164",
    "prefectureCode": "09",
    "prefectureNumber": 9,
    "prefecture": "栃木県",
    "city": "宇都宮市",
    "town": "双葉"
  },
  "3210165": {
    "zipcode": "3210165",
    "prefectureCode": "09",
    "prefectureNumber": 9,
    "prefecture": "栃木県",
    "city": "宇都宮市",
    "town": "緑"
  },
  "3210166": {
    "zipcode": "3210166",
    "prefectureCode": "09",
    "prefectureNumber": 9,
    "prefecture": "栃木県",
    "city": "宇都宮市",
    "town": "今宮"
  },
  "3210167": {
    "zipcode": "3210167",
    "prefectureCode": "09",
    "prefectureNumber": 9,
    "prefecture": "栃木県",
    "city": "宇都宮市",
    "town": "東浦町"
  },
  "3210168": {
    "zipcode": "3210168",
    "prefectureCode": "09",
    "prefectureNumber": 9,
    "prefecture": "栃木県",
    "city": "宇都宮市",
    "town": "東原町"
  },
  "3210169": {
    "zipcode": "3210169",
    "prefectureCode": "09",
    "prefectureNumber": 9,
    "prefecture": "栃木県",
    "city": "宇都宮市",
    "town": "八千代"
  },
  "3210200": {
    "zipcode": "3210200",
    "prefectureCode": "09",
    "prefectureNumber": 9,
    "prefecture": "栃木県",
    "city": "下都賀郡壬生町",
    "town": "以下に掲載がない場合"
  },
  "3210201": {
    "zipcode": "3210201",
    "prefectureCode": "09",
    "prefectureNumber": 9,
    "prefecture": "栃木県",
    "city": "下都賀郡壬生町",
    "town": "安塚"
  },
  "3210202": {
    "zipcode": "3210202",
    "prefectureCode": "09",
    "prefectureNumber": 9,
    "prefecture": "栃木県",
    "city": "下都賀郡壬生町",
    "town": "おもちゃのまち"
  },
  "3210203": {
    "zipcode": "3210203",
    "prefectureCode": "09",
    "prefectureNumber": 9,
    "prefecture": "栃木県",
    "city": "下都賀郡壬生町",
    "town": "幸町"
  },
  "3210204": {
    "zipcode": "3210204",
    "prefectureCode": "09",
    "prefectureNumber": 9,
    "prefecture": "栃木県",
    "city": "下都賀郡壬生町",
    "town": "緑町"
  },
  "3210205": {
    "zipcode": "3210205",
    "prefectureCode": "09",
    "prefectureNumber": 9,
    "prefecture": "栃木県",
    "city": "下都賀郡壬生町",
    "town": "若草町"
  },
  "3210206": {
    "zipcode": "3210206",
    "prefectureCode": "09",
    "prefectureNumber": 9,
    "prefecture": "栃木県",
    "city": "下都賀郡壬生町",
    "town": "あけぼの町"
  },
  "3210207": {
    "zipcode": "3210207",
    "prefectureCode": "09",
    "prefectureNumber": 9,
    "prefecture": "栃木県",
    "city": "下都賀郡壬生町",
    "town": "北小林"
  },
  "3210211": {
    "zipcode": "3210211",
    "prefectureCode": "09",
    "prefectureNumber": 9,
    "prefecture": "栃木県",
    "city": "下都賀郡壬生町",
    "town": "国谷"
  },
  "3210212": {
    "zipcode": "3210212",
    "prefectureCode": "09",
    "prefectureNumber": 9,
    "prefecture": "栃木県",
    "city": "下都賀郡壬生町",
    "town": "寿町"
  },
  "3210213": {
    "zipcode": "3210213",
    "prefectureCode": "09",
    "prefectureNumber": 9,
    "prefecture": "栃木県",
    "city": "下都賀郡壬生町",
    "town": "いずみ町"
  },
  "3210214": {
    "zipcode": "3210214",
    "prefectureCode": "09",
    "prefectureNumber": 9,
    "prefecture": "栃木県",
    "city": "下都賀郡壬生町",
    "town": "壬生甲"
  },
  "3210215": {
    "zipcode": "3210215",
    "prefectureCode": "09",
    "prefectureNumber": 9,
    "prefecture": "栃木県",
    "city": "下都賀郡壬生町",
    "town": "壬生乙"
  },
  "3210216": {
    "zipcode": "3210216",
    "prefectureCode": "09",
    "prefectureNumber": 9,
    "prefecture": "栃木県",
    "city": "下都賀郡壬生町",
    "town": "壬生丁"
  },
  "3210217": {
    "zipcode": "3210217",
    "prefectureCode": "09",
    "prefectureNumber": 9,
    "prefecture": "栃木県",
    "city": "下都賀郡壬生町",
    "town": "至宝"
  },
  "3210218": {
    "zipcode": "3210218",
    "prefectureCode": "09",
    "prefectureNumber": 9,
    "prefecture": "栃木県",
    "city": "下都賀郡壬生町",
    "town": "落合"
  },
  "3210219": {
    "zipcode": "3210219",
    "prefectureCode": "09",
    "prefectureNumber": 9,
    "prefecture": "栃木県",
    "city": "下都賀郡壬生町",
    "town": "福和田"
  },
  "3210221": {
    "zipcode": "3210221",
    "prefectureCode": "09",
    "prefectureNumber": 9,
    "prefecture": "栃木県",
    "city": "下都賀郡壬生町",
    "town": "藤井"
  },
  "3210222": {
    "zipcode": "3210222",
    "prefectureCode": "09",
    "prefectureNumber": 9,
    "prefecture": "栃木県",
    "city": "下都賀郡壬生町",
    "town": "駅東町"
  },
  "3210223": {
    "zipcode": "3210223",
    "prefectureCode": "09",
    "prefectureNumber": 9,
    "prefecture": "栃木県",
    "city": "下都賀郡壬生町",
    "town": "元町"
  },
  "3210224": {
    "zipcode": "3210224",
    "prefectureCode": "09",
    "prefectureNumber": 9,
    "prefecture": "栃木県",
    "city": "下都賀郡壬生町",
    "town": "表町"
  },
  "3210225": {
    "zipcode": "3210225",
    "prefectureCode": "09",
    "prefectureNumber": 9,
    "prefecture": "栃木県",
    "city": "下都賀郡壬生町",
    "town": "本丸"
  },
  "3210226": {
    "zipcode": "3210226",
    "prefectureCode": "09",
    "prefectureNumber": 9,
    "prefecture": "栃木県",
    "city": "下都賀郡壬生町",
    "town": "中央町"
  },
  "3210227": {
    "zipcode": "3210227",
    "prefectureCode": "09",
    "prefectureNumber": 9,
    "prefecture": "栃木県",
    "city": "下都賀郡壬生町",
    "town": "通町"
  },
  "3210228": {
    "zipcode": "3210228",
    "prefectureCode": "09",
    "prefectureNumber": 9,
    "prefecture": "栃木県",
    "city": "下都賀郡壬生町",
    "town": "大師町"
  },
  "3210231": {
    "zipcode": "3210231",
    "prefectureCode": "09",
    "prefectureNumber": 9,
    "prefecture": "栃木県",
    "city": "下都賀郡壬生町",
    "town": "上田"
  },
  "3210232": {
    "zipcode": "3210232",
    "prefectureCode": "09",
    "prefectureNumber": 9,
    "prefecture": "栃木県",
    "city": "下都賀郡壬生町",
    "town": "中泉"
  },
  "3210233": {
    "zipcode": "3210233",
    "prefectureCode": "09",
    "prefectureNumber": 9,
    "prefecture": "栃木県",
    "city": "下都賀郡壬生町",
    "town": "助谷"
  },
  "3210234": {
    "zipcode": "3210234",
    "prefectureCode": "09",
    "prefectureNumber": 9,
    "prefecture": "栃木県",
    "city": "下都賀郡壬生町",
    "town": "羽生田"
  },
  "3210235": {
    "zipcode": "3210235",
    "prefectureCode": "09",
    "prefectureNumber": 9,
    "prefecture": "栃木県",
    "city": "下都賀郡壬生町",
    "town": "七ツ石"
  },
  "3210236": {
    "zipcode": "3210236",
    "prefectureCode": "09",
    "prefectureNumber": 9,
    "prefecture": "栃木県",
    "city": "下都賀郡壬生町",
    "town": "上稲葉"
  },
  "3210237": {
    "zipcode": "3210237",
    "prefectureCode": "09",
    "prefectureNumber": 9,
    "prefecture": "栃木県",
    "city": "下都賀郡壬生町",
    "town": "下稲葉"
  },
  "3210238": {
    "zipcode": "3210238",
    "prefectureCode": "09",
    "prefectureNumber": 9,
    "prefecture": "栃木県",
    "city": "下都賀郡壬生町",
    "town": "みぶ羽生田産業団地"
  },
  "3210341": {
    "zipcode": "3210341",
    "prefectureCode": "09",
    "prefectureNumber": 9,
    "prefecture": "栃木県",
    "city": "宇都宮市",
    "town": "古賀志町"
  },
  "3210342": {
    "zipcode": "3210342",
    "prefectureCode": "09",
    "prefectureNumber": 9,
    "prefecture": "栃木県",
    "city": "宇都宮市",
    "town": "福岡町"
  },
  "3210343": {
    "zipcode": "3210343",
    "prefectureCode": "09",
    "prefectureNumber": 9,
    "prefecture": "栃木県",
    "city": "宇都宮市",
    "town": "田下町"
  },
  "3210344": {
    "zipcode": "3210344",
    "prefectureCode": "09",
    "prefectureNumber": 9,
    "prefecture": "栃木県",
    "city": "宇都宮市",
    "town": "田野町"
  },
  "3210345": {
    "zipcode": "3210345",
    "prefectureCode": "09",
    "prefectureNumber": 9,
    "prefecture": "栃木県",
    "city": "宇都宮市",
    "town": "大谷町"
  },
  "3210346": {
    "zipcode": "3210346",
    "prefectureCode": "09",
    "prefectureNumber": 9,
    "prefecture": "栃木県",
    "city": "宇都宮市",
    "town": "下荒針町"
  },
  "3210347": {
    "zipcode": "3210347",
    "prefectureCode": "09",
    "prefectureNumber": 9,
    "prefecture": "栃木県",
    "city": "宇都宮市",
    "town": "飯田町"
  },
  "3210401": {
    "zipcode": "3210401",
    "prefectureCode": "09",
    "prefectureNumber": 9,
    "prefecture": "栃木県",
    "city": "宇都宮市",
    "town": "上小倉町"
  },
  "3210402": {
    "zipcode": "3210402",
    "prefectureCode": "09",
    "prefectureNumber": 9,
    "prefecture": "栃木県",
    "city": "宇都宮市",
    "town": "今里町"
  },
  "3210403": {
    "zipcode": "3210403",
    "prefectureCode": "09",
    "prefectureNumber": 9,
    "prefecture": "栃木県",
    "city": "宇都宮市",
    "town": "下小倉町"
  },
  "3210404": {
    "zipcode": "3210404",
    "prefectureCode": "09",
    "prefectureNumber": 9,
    "prefecture": "栃木県",
    "city": "宇都宮市",
    "town": "芦沼町"
  },
  "3210405": {
    "zipcode": "3210405",
    "prefectureCode": "09",
    "prefectureNumber": 9,
    "prefecture": "栃木県",
    "city": "宇都宮市",
    "town": "上田町"
  },
  "3210406": {
    "zipcode": "3210406",
    "prefectureCode": "09",
    "prefectureNumber": 9,
    "prefecture": "栃木県",
    "city": "宇都宮市",
    "town": "金田町"
  },
  "3210407": {
    "zipcode": "3210407",
    "prefectureCode": "09",
    "prefectureNumber": 9,
    "prefecture": "栃木県",
    "city": "宇都宮市",
    "town": "松田新田町"
  },
  "3210411": {
    "zipcode": "3210411",
    "prefectureCode": "09",
    "prefectureNumber": 9,
    "prefecture": "栃木県",
    "city": "宇都宮市",
    "town": "宮山田町"
  },
  "3210412": {
    "zipcode": "3210412",
    "prefectureCode": "09",
    "prefectureNumber": 9,
    "prefecture": "栃木県",
    "city": "宇都宮市",
    "town": "関白町"
  },
  "3210413": {
    "zipcode": "3210413",
    "prefectureCode": "09",
    "prefectureNumber": 9,
    "prefecture": "栃木県",
    "city": "宇都宮市",
    "town": "松風台"
  },
  "3210414": {
    "zipcode": "3210414",
    "prefectureCode": "09",
    "prefectureNumber": 9,
    "prefecture": "栃木県",
    "city": "宇都宮市",
    "town": "中里町"
  },
  "3210415": {
    "zipcode": "3210415",
    "prefectureCode": "09",
    "prefectureNumber": 9,
    "prefecture": "栃木県",
    "city": "宇都宮市",
    "town": "免ノ内町"
  },
  "3210416": {
    "zipcode": "3210416",
    "prefectureCode": "09",
    "prefectureNumber": 9,
    "prefecture": "栃木県",
    "city": "宇都宮市",
    "town": "高松町"
  },
  "3210417": {
    "zipcode": "3210417",
    "prefectureCode": "09",
    "prefectureNumber": 9,
    "prefecture": "栃木県",
    "city": "宇都宮市",
    "town": "冬室町"
  },
  "3210501": {
    "zipcode": "3210501",
    "prefectureCode": "09",
    "prefectureNumber": 9,
    "prefecture": "栃木県",
    "city": "那須烏山市",
    "town": "志鳥"
  },
  "3210502": {
    "zipcode": "3210502",
    "prefectureCode": "09",
    "prefectureNumber": 9,
    "prefecture": "栃木県",
    "city": "那須烏山市",
    "town": "熊田"
  },
  "3210503": {
    "zipcode": "3210503",
    "prefectureCode": "09",
    "prefectureNumber": 9,
    "prefecture": "栃木県",
    "city": "那須烏山市",
    "town": "月次"
  },
  "3210504": {
    "zipcode": "3210504",
    "prefectureCode": "09",
    "prefectureNumber": 9,
    "prefecture": "栃木県",
    "city": "那須烏山市",
    "town": "下川井"
  },
  "3210505": {
    "zipcode": "3210505",
    "prefectureCode": "09",
    "prefectureNumber": 9,
    "prefecture": "栃木県",
    "city": "那須烏山市",
    "town": "上川井"
  },
  "3210511": {
    "zipcode": "3210511",
    "prefectureCode": "09",
    "prefectureNumber": 9,
    "prefecture": "栃木県",
    "city": "那須烏山市",
    "town": "小河原"
  },
  "3210512": {
    "zipcode": "3210512",
    "prefectureCode": "09",
    "prefectureNumber": 9,
    "prefecture": "栃木県",
    "city": "那須烏山市",
    "town": "高瀬"
  },
  "3210513": {
    "zipcode": "3210513",
    "prefectureCode": "09",
    "prefectureNumber": 9,
    "prefecture": "栃木県",
    "city": "那須烏山市",
    "town": "小塙"
  },
  "3210514": {
    "zipcode": "3210514",
    "prefectureCode": "09",
    "prefectureNumber": 9,
    "prefecture": "栃木県",
    "city": "那須烏山市",
    "town": "森田"
  },
  "3210515": {
    "zipcode": "3210515",
    "prefectureCode": "09",
    "prefectureNumber": 9,
    "prefecture": "栃木県",
    "city": "那須烏山市",
    "town": "曲田"
  },
  "3210516": {
    "zipcode": "3210516",
    "prefectureCode": "09",
    "prefectureNumber": 9,
    "prefecture": "栃木県",
    "city": "那須烏山市",
    "town": "大里"
  },
  "3210517": {
    "zipcode": "3210517",
    "prefectureCode": "09",
    "prefectureNumber": 9,
    "prefecture": "栃木県",
    "city": "那須烏山市",
    "town": "東原"
  },
  "3210521": {
    "zipcode": "3210521",
    "prefectureCode": "09",
    "prefectureNumber": 9,
    "prefecture": "栃木県",
    "city": "那須烏山市",
    "town": "岩子"
  },
  "3210522": {
    "zipcode": "3210522",
    "prefectureCode": "09",
    "prefectureNumber": 9,
    "prefecture": "栃木県",
    "city": "那須烏山市",
    "town": "大金"
  },
  "3210523": {
    "zipcode": "3210523",
    "prefectureCode": "09",
    "prefectureNumber": 9,
    "prefecture": "栃木県",
    "city": "那須烏山市",
    "town": "曲畑"
  },
  "3210524": {
    "zipcode": "3210524",
    "prefectureCode": "09",
    "prefectureNumber": 9,
    "prefecture": "栃木県",
    "city": "那須烏山市",
    "town": "八ケ代"
  },
  "3210525": {
    "zipcode": "3210525",
    "prefectureCode": "09",
    "prefectureNumber": 9,
    "prefecture": "栃木県",
    "city": "那須烏山市",
    "town": "福岡"
  },
  "3210526": {
    "zipcode": "3210526",
    "prefectureCode": "09",
    "prefectureNumber": 9,
    "prefecture": "栃木県",
    "city": "那須烏山市",
    "town": "田野倉"
  },
  "3210527": {
    "zipcode": "3210527",
    "prefectureCode": "09",
    "prefectureNumber": 9,
    "prefecture": "栃木県",
    "city": "那須烏山市",
    "town": "宇井"
  },
  "3210528": {
    "zipcode": "3210528",
    "prefectureCode": "09",
    "prefectureNumber": 9,
    "prefecture": "栃木県",
    "city": "那須烏山市",
    "town": "小倉"
  },
  "3210531": {
    "zipcode": "3210531",
    "prefectureCode": "09",
    "prefectureNumber": 9,
    "prefecture": "栃木県",
    "city": "那須烏山市",
    "town": "三箇"
  },
  "3210532": {
    "zipcode": "3210532",
    "prefectureCode": "09",
    "prefectureNumber": 9,
    "prefecture": "栃木県",
    "city": "那須烏山市",
    "town": "藤田"
  },
  "3210533": {
    "zipcode": "3210533",
    "prefectureCode": "09",
    "prefectureNumber": 9,
    "prefecture": "栃木県",
    "city": "那須烏山市",
    "town": "南大和久"
  },
  "3210534": {
    "zipcode": "3210534",
    "prefectureCode": "09",
    "prefectureNumber": 9,
    "prefecture": "栃木県",
    "city": "那須烏山市",
    "town": "鴻野山"
  },
  "3210535": {
    "zipcode": "3210535",
    "prefectureCode": "09",
    "prefectureNumber": 9,
    "prefecture": "栃木県",
    "city": "那須烏山市",
    "town": "小白井"
  },
  "3210600": {
    "zipcode": "3210600",
    "prefectureCode": "09",
    "prefectureNumber": 9,
    "prefecture": "栃木県",
    "city": "那須烏山市",
    "town": "以下に掲載がない場合"
  },
  "3210601": {
    "zipcode": "3210601",
    "prefectureCode": "09",
    "prefectureNumber": 9,
    "prefecture": "栃木県",
    "city": "那須烏山市",
    "town": "白久"
  },
  "3210602": {
    "zipcode": "3210602",
    "prefectureCode": "09",
    "prefectureNumber": 9,
    "prefecture": "栃木県",
    "city": "那須烏山市",
    "town": "大桶"
  },
  "3210603": {
    "zipcode": "3210603",
    "prefectureCode": "09",
    "prefectureNumber": 9,
    "prefecture": "栃木県",
    "city": "那須烏山市",
    "town": "谷浅見"
  },
  "3210604": {
    "zipcode": "3210604",
    "prefectureCode": "09",
    "prefectureNumber": 9,
    "prefecture": "栃木県",
    "city": "那須烏山市",
    "town": "中山"
  },
  "3210605": {
    "zipcode": "3210605",
    "prefectureCode": "09",
    "prefectureNumber": 9,
    "prefecture": "栃木県",
    "city": "那須烏山市",
    "town": "滝田"
  },
  "3210611": {
    "zipcode": "3210611",
    "prefectureCode": "09",
    "prefectureNumber": 9,
    "prefecture": "栃木県",
    "city": "那須烏山市",
    "town": "興野"
  },
  "3210612": {
    "zipcode": "3210612",
    "prefectureCode": "09",
    "prefectureNumber": 9,
    "prefecture": "栃木県",
    "city": "那須烏山市",
    "town": "大沢"
  },
  "3210613": {
    "zipcode": "3210613",
    "prefectureCode": "09",
    "prefectureNumber": 9,
    "prefecture": "栃木県",
    "city": "那須烏山市",
    "town": "大木須"
  },
  "3210614": {
    "zipcode": "3210614",
    "prefectureCode": "09",
    "prefectureNumber": 9,
    "prefecture": "栃木県",
    "city": "那須烏山市",
    "town": "小木須"
  },
  "3210615": {
    "zipcode": "3210615",
    "prefectureCode": "09",
    "prefectureNumber": 9,
    "prefecture": "栃木県",
    "city": "那須烏山市",
    "town": "小原沢"
  },
  "3210616": {
    "zipcode": "3210616",
    "prefectureCode": "09",
    "prefectureNumber": 9,
    "prefecture": "栃木県",
    "city": "那須烏山市",
    "town": "下境"
  },
  "3210617": {
    "zipcode": "3210617",
    "prefectureCode": "09",
    "prefectureNumber": 9,
    "prefecture": "栃木県",
    "city": "那須烏山市",
    "town": "上境"
  },
  "3210618": {
    "zipcode": "3210618",
    "prefectureCode": "09",
    "prefectureNumber": 9,
    "prefecture": "栃木県",
    "city": "那須烏山市",
    "town": "横枕"
  },
  "3210621": {
    "zipcode": "3210621",
    "prefectureCode": "09",
    "prefectureNumber": 9,
    "prefecture": "栃木県",
    "city": "那須烏山市",
    "town": "中央"
  },
  "3210622": {
    "zipcode": "3210622",
    "prefectureCode": "09",
    "prefectureNumber": 9,
    "prefecture": "栃木県",
    "city": "那須烏山市",
    "town": "城東"
  },
  "3210623": {
    "zipcode": "3210623",
    "prefectureCode": "09",
    "prefectureNumber": 9,
    "prefecture": "栃木県",
    "city": "那須烏山市",
    "town": "表"
  },
  "3210624": {
    "zipcode": "3210624",
    "prefectureCode": "09",
    "prefectureNumber": 9,
    "prefecture": "栃木県",
    "city": "那須烏山市",
    "town": "旭"
  },
  "3210625": {
    "zipcode": "3210625",
    "prefectureCode": "09",
    "prefectureNumber": 9,
    "prefecture": "栃木県",
    "city": "那須烏山市",
    "town": "宮原"
  },
  "3210626": {
    "zipcode": "3210626",
    "prefectureCode": "09",
    "prefectureNumber": 9,
    "prefecture": "栃木県",
    "city": "那須烏山市",
    "town": "初音"
  },
  "3210627": {
    "zipcode": "3210627",
    "prefectureCode": "09",
    "prefectureNumber": 9,
    "prefecture": "栃木県",
    "city": "那須烏山市",
    "town": "南"
  },
  "3210628": {
    "zipcode": "3210628",
    "prefectureCode": "09",
    "prefectureNumber": 9,
    "prefecture": "栃木県",
    "city": "那須烏山市",
    "town": "金井"
  },
  "3210629": {
    "zipcode": "3210629",
    "prefectureCode": "09",
    "prefectureNumber": 9,
    "prefecture": "栃木県",
    "city": "那須烏山市",
    "town": "愛宕台"
  },
  "3210631": {
    "zipcode": "3210631",
    "prefectureCode": "09",
    "prefectureNumber": 9,
    "prefecture": "栃木県",
    "city": "那須烏山市",
    "town": "城山"
  },
  "3210632": {
    "zipcode": "3210632",
    "prefectureCode": "09",
    "prefectureNumber": 9,
    "prefecture": "栃木県",
    "city": "那須烏山市",
    "town": "神長"
  },
  "3210633": {
    "zipcode": "3210633",
    "prefectureCode": "09",
    "prefectureNumber": 9,
    "prefecture": "栃木県",
    "city": "那須烏山市",
    "town": "滝"
  },
  "3210634": {
    "zipcode": "3210634",
    "prefectureCode": "09",
    "prefectureNumber": 9,
    "prefecture": "栃木県",
    "city": "那須烏山市",
    "town": "野上"
  },
  "3210635": {
    "zipcode": "3210635",
    "prefectureCode": "09",
    "prefectureNumber": 9,
    "prefecture": "栃木県",
    "city": "那須烏山市",
    "town": "向田"
  },
  "3210636": {
    "zipcode": "3210636",
    "prefectureCode": "09",
    "prefectureNumber": 9,
    "prefecture": "栃木県",
    "city": "那須烏山市",
    "town": "落合"
  },
  "3210901": {
    "zipcode": "3210901",
    "prefectureCode": "09",
    "prefectureNumber": 9,
    "prefecture": "栃木県",
    "city": "宇都宮市",
    "town": "平出町"
  },
  "3210902": {
    "zipcode": "3210902",
    "prefectureCode": "09",
    "prefectureNumber": 9,
    "prefecture": "栃木県",
    "city": "宇都宮市",
    "town": "柳田町"
  },
  "3210903": {
    "zipcode": "3210903",
    "prefectureCode": "09",
    "prefectureNumber": 9,
    "prefecture": "栃木県",
    "city": "宇都宮市",
    "town": "下平出町"
  },
  "3210904": {
    "zipcode": "3210904",
    "prefectureCode": "09",
    "prefectureNumber": 9,
    "prefecture": "栃木県",
    "city": "宇都宮市",
    "town": "陽東"
  },
  "3210905": {
    "zipcode": "3210905",
    "prefectureCode": "09",
    "prefectureNumber": 9,
    "prefecture": "栃木県",
    "city": "宇都宮市",
    "town": "平出工業団地"
  },
  "3210906": {
    "zipcode": "3210906",
    "prefectureCode": "09",
    "prefectureNumber": 9,
    "prefecture": "栃木県",
    "city": "宇都宮市",
    "town": "中久保"
  },
  "3210911": {
    "zipcode": "3210911",
    "prefectureCode": "09",
    "prefectureNumber": 9,
    "prefecture": "栃木県",
    "city": "宇都宮市",
    "town": "問屋町"
  },
  "3210912": {
    "zipcode": "3210912",
    "prefectureCode": "09",
    "prefectureNumber": 9,
    "prefecture": "栃木県",
    "city": "宇都宮市",
    "town": "石井町"
  },
  "3210913": {
    "zipcode": "3210913",
    "prefectureCode": "09",
    "prefectureNumber": 9,
    "prefecture": "栃木県",
    "city": "宇都宮市",
    "town": "上桑島町"
  },
  "3210914": {
    "zipcode": "3210914",
    "prefectureCode": "09",
    "prefectureNumber": 9,
    "prefecture": "栃木県",
    "city": "宇都宮市",
    "town": "下桑島町"
  },
  "3210915": {
    "zipcode": "3210915",
    "prefectureCode": "09",
    "prefectureNumber": 9,
    "prefecture": "栃木県",
    "city": "宇都宮市",
    "town": "東刑部町"
  },
  "3210916": {
    "zipcode": "3210916",
    "prefectureCode": "09",
    "prefectureNumber": 9,
    "prefecture": "栃木県",
    "city": "宇都宮市",
    "town": "東木代町"
  },
  "3210917": {
    "zipcode": "3210917",
    "prefectureCode": "09",
    "prefectureNumber": 9,
    "prefecture": "栃木県",
    "city": "宇都宮市",
    "town": "西刑部町"
  },
  "3210918": {
    "zipcode": "3210918",
    "prefectureCode": "09",
    "prefectureNumber": 9,
    "prefecture": "栃木県",
    "city": "宇都宮市",
    "town": "平塚町"
  },
  "3210921": {
    "zipcode": "3210921",
    "prefectureCode": "09",
    "prefectureNumber": 9,
    "prefecture": "栃木県",
    "city": "宇都宮市",
    "town": "瑞穂"
  },
  "3210922": {
    "zipcode": "3210922",
    "prefectureCode": "09",
    "prefectureNumber": 9,
    "prefecture": "栃木県",
    "city": "宇都宮市",
    "town": "さるやま町"
  },
  "3210923": {
    "zipcode": "3210923",
    "prefectureCode": "09",
    "prefectureNumber": 9,
    "prefecture": "栃木県",
    "city": "宇都宮市",
    "town": "下栗町"
  },
  "3210924": {
    "zipcode": "3210924",
    "prefectureCode": "09",
    "prefectureNumber": 9,
    "prefecture": "栃木県",
    "city": "宇都宮市",
    "town": "下栗"
  },
  "3210925": {
    "zipcode": "3210925",
    "prefectureCode": "09",
    "prefectureNumber": 9,
    "prefecture": "栃木県",
    "city": "宇都宮市",
    "town": "東簗瀬"
  },
  "3210931": {
    "zipcode": "3210931",
    "prefectureCode": "09",
    "prefectureNumber": 9,
    "prefecture": "栃木県",
    "city": "宇都宮市",
    "town": "平松町"
  },
  "3210932": {
    "zipcode": "3210932",
    "prefectureCode": "09",
    "prefectureNumber": 9,
    "prefecture": "栃木県",
    "city": "宇都宮市",
    "town": "平松本町"
  },
  "3210933": {
    "zipcode": "3210933",
    "prefectureCode": "09",
    "prefectureNumber": 9,
    "prefecture": "栃木県",
    "city": "宇都宮市",
    "town": "簗瀬町"
  },
  "3210934": {
    "zipcode": "3210934",
    "prefectureCode": "09",
    "prefectureNumber": 9,
    "prefecture": "栃木県",
    "city": "宇都宮市",
    "town": "簗瀬"
  },
  "3210935": {
    "zipcode": "3210935",
    "prefectureCode": "09",
    "prefectureNumber": 9,
    "prefecture": "栃木県",
    "city": "宇都宮市",
    "town": "城東"
  },
  "3210936": {
    "zipcode": "3210936",
    "prefectureCode": "09",
    "prefectureNumber": 9,
    "prefecture": "栃木県",
    "city": "宇都宮市",
    "town": "平松"
  },
  "3210941": {
    "zipcode": "3210941",
    "prefectureCode": "09",
    "prefectureNumber": 9,
    "prefecture": "栃木県",
    "city": "宇都宮市",
    "town": "東今泉"
  },
  "3210942": {
    "zipcode": "3210942",
    "prefectureCode": "09",
    "prefectureNumber": 9,
    "prefecture": "栃木県",
    "city": "宇都宮市",
    "town": "峰"
  },
  "3210943": {
    "zipcode": "3210943",
    "prefectureCode": "09",
    "prefectureNumber": 9,
    "prefecture": "栃木県",
    "city": "宇都宮市",
    "town": "峰町"
  },
  "3210944": {
    "zipcode": "3210944",
    "prefectureCode": "09",
    "prefectureNumber": 9,
    "prefecture": "栃木県",
    "city": "宇都宮市",
    "town": "東峰町"
  },
  "3210945": {
    "zipcode": "3210945",
    "prefectureCode": "09",
    "prefectureNumber": 9,
    "prefecture": "栃木県",
    "city": "宇都宮市",
    "town": "宿郷"
  },
  "3210946": {
    "zipcode": "3210946",
    "prefectureCode": "09",
    "prefectureNumber": 9,
    "prefecture": "栃木県",
    "city": "宇都宮市",
    "town": "東峰"
  },
  "3210951": {
    "zipcode": "3210951",
    "prefectureCode": "09",
    "prefectureNumber": 9,
    "prefecture": "栃木県",
    "city": "宇都宮市",
    "town": "越戸町"
  },
  "3210952": {
    "zipcode": "3210952",
    "prefectureCode": "09",
    "prefectureNumber": 9,
    "prefecture": "栃木県",
    "city": "宇都宮市",
    "town": "泉が丘"
  },
  "3210953": {
    "zipcode": "3210953",
    "prefectureCode": "09",
    "prefectureNumber": 9,
    "prefecture": "栃木県",
    "city": "宇都宮市",
    "town": "東宿郷"
  },
  "3210954": {
    "zipcode": "3210954",
    "prefectureCode": "09",
    "prefectureNumber": 9,
    "prefecture": "栃木県",
    "city": "宇都宮市",
    "town": "元今泉"
  },
  "3210961": {
    "zipcode": "3210961",
    "prefectureCode": "09",
    "prefectureNumber": 9,
    "prefecture": "栃木県",
    "city": "宇都宮市",
    "town": "今泉新町"
  },
  "3210962": {
    "zipcode": "3210962",
    "prefectureCode": "09",
    "prefectureNumber": 9,
    "prefecture": "栃木県",
    "city": "宇都宮市",
    "town": "今泉町"
  },
  "3210963": {
    "zipcode": "3210963",
    "prefectureCode": "09",
    "prefectureNumber": 9,
    "prefecture": "栃木県",
    "city": "宇都宮市",
    "town": "南大通り"
  },
  "3210964": {
    "zipcode": "3210964",
    "prefectureCode": "09",
    "prefectureNumber": 9,
    "prefecture": "栃木県",
    "city": "宇都宮市",
    "town": "駅前通り"
  },
  "3210965": {
    "zipcode": "3210965",
    "prefectureCode": "09",
    "prefectureNumber": 9,
    "prefecture": "栃木県",
    "city": "宇都宮市",
    "town": "川向町"
  },
  "3210966": {
    "zipcode": "3210966",
    "prefectureCode": "09",
    "prefectureNumber": 9,
    "prefecture": "栃木県",
    "city": "宇都宮市",
    "town": "今泉"
  },
  "3210967": {
    "zipcode": "3210967",
    "prefectureCode": "09",
    "prefectureNumber": 9,
    "prefecture": "栃木県",
    "city": "宇都宮市",
    "town": "錦"
  },
  "3210968": {
    "zipcode": "3210968",
    "prefectureCode": "09",
    "prefectureNumber": 9,
    "prefecture": "栃木県",
    "city": "宇都宮市",
    "town": "中今泉"
  },
  "3210969": {
    "zipcode": "3210969",
    "prefectureCode": "09",
    "prefectureNumber": 9,
    "prefecture": "栃木県",
    "city": "宇都宮市",
    "town": "宮みらい"
  },
  "3210971": {
    "zipcode": "3210971",
    "prefectureCode": "09",
    "prefectureNumber": 9,
    "prefecture": "栃木県",
    "city": "宇都宮市",
    "town": "海道町"
  },
  "3210972": {
    "zipcode": "3210972",
    "prefectureCode": "09",
    "prefectureNumber": 9,
    "prefecture": "栃木県",
    "city": "宇都宮市",
    "town": "下川俣町"
  },
  "3210973": {
    "zipcode": "3210973",
    "prefectureCode": "09",
    "prefectureNumber": 9,
    "prefecture": "栃木県",
    "city": "宇都宮市",
    "town": "岩曽町"
  },
  "3210974": {
    "zipcode": "3210974",
    "prefectureCode": "09",
    "prefectureNumber": 9,
    "prefecture": "栃木県",
    "city": "宇都宮市",
    "town": "竹林町"
  },
  "3210975": {
    "zipcode": "3210975",
    "prefectureCode": "09",
    "prefectureNumber": 9,
    "prefecture": "栃木県",
    "city": "宇都宮市",
    "town": "関堀町"
  },
  "3210976": {
    "zipcode": "3210976",
    "prefectureCode": "09",
    "prefectureNumber": 9,
    "prefecture": "栃木県",
    "city": "宇都宮市",
    "town": "岩本町"
  },
  "3210977": {
    "zipcode": "3210977",
    "prefectureCode": "09",
    "prefectureNumber": 9,
    "prefecture": "栃木県",
    "city": "宇都宮市",
    "town": "川俣町"
  },
  "3210981": {
    "zipcode": "3210981",
    "prefectureCode": "09",
    "prefectureNumber": 9,
    "prefecture": "栃木県",
    "city": "宇都宮市",
    "town": "上野町"
  },
  "3210982": {
    "zipcode": "3210982",
    "prefectureCode": "09",
    "prefectureNumber": 9,
    "prefecture": "栃木県",
    "city": "宇都宮市",
    "town": "御幸ケ原町"
  },
  "3210983": {
    "zipcode": "3210983",
    "prefectureCode": "09",
    "prefectureNumber": 9,
    "prefecture": "栃木県",
    "city": "宇都宮市",
    "town": "御幸本町"
  },
  "3210984": {
    "zipcode": "3210984",
    "prefectureCode": "09",
    "prefectureNumber": 9,
    "prefecture": "栃木県",
    "city": "宇都宮市",
    "town": "御幸町"
  },
  "3210985": {
    "zipcode": "3210985",
    "prefectureCode": "09",
    "prefectureNumber": 9,
    "prefecture": "栃木県",
    "city": "宇都宮市",
    "town": "東町"
  },
  "3211101": {
    "zipcode": "3211101",
    "prefectureCode": "09",
    "prefectureNumber": 9,
    "prefecture": "栃木県",
    "city": "日光市",
    "town": "明神"
  },
  "3211102": {
    "zipcode": "3211102",
    "prefectureCode": "09",
    "prefectureNumber": 9,
    "prefecture": "栃木県",
    "city": "日光市",
    "town": "板橋"
  },
  "3211103": {
    "zipcode": "3211103",
    "prefectureCode": "09",
    "prefectureNumber": 9,
    "prefecture": "栃木県",
    "city": "日光市",
    "town": "手岡"
  },
  "3211104": {
    "zipcode": "3211104",
    "prefectureCode": "09",
    "prefectureNumber": 9,
    "prefecture": "栃木県",
    "city": "日光市",
    "town": "岩崎"
  },
  "3211105": {
    "zipcode": "3211105",
    "prefectureCode": "09",
    "prefectureNumber": 9,
    "prefecture": "栃木県",
    "city": "日光市",
    "town": "文挾町"
  },
  "3211106": {
    "zipcode": "3211106",
    "prefectureCode": "09",
    "prefectureNumber": 9,
    "prefecture": "栃木県",
    "city": "日光市",
    "town": "小倉"
  },
  "3211107": {
    "zipcode": "3211107",
    "prefectureCode": "09",
    "prefectureNumber": 9,
    "prefecture": "栃木県",
    "city": "日光市",
    "town": "小代"
  },
  "3211108": {
    "zipcode": "3211108",
    "prefectureCode": "09",
    "prefectureNumber": 9,
    "prefecture": "栃木県",
    "city": "日光市",
    "town": "長畑"
  },
  "3211111": {
    "zipcode": "3211111",
    "prefectureCode": "09",
    "prefectureNumber": 9,
    "prefecture": "栃木県",
    "city": "鹿沼市",
    "town": "板荷"
  },
  "3211200": {
    "zipcode": "3211200",
    "prefectureCode": "09",
    "prefectureNumber": 9,
    "prefecture": "栃木県",
    "city": "日光市",
    "town": "以下に掲載がない場合"
  },
  "3211261": {
    "zipcode": "3211261",
    "prefectureCode": "09",
    "prefectureNumber": 9,
    "prefecture": "栃木県",
    "city": "日光市",
    "town": "今市"
  },
  "3211262": {
    "zipcode": "3211262",
    "prefectureCode": "09",
    "prefectureNumber": 9,
    "prefecture": "栃木県",
    "city": "日光市",
    "town": "平ケ崎"
  },
  "3211263": {
    "zipcode": "3211263",
    "prefectureCode": "09",
    "prefectureNumber": 9,
    "prefecture": "栃木県",
    "city": "日光市",
    "town": "瀬川"
  },
  "3211264": {
    "zipcode": "3211264",
    "prefectureCode": "09",
    "prefectureNumber": 9,
    "prefecture": "栃木県",
    "city": "日光市",
    "town": "瀬尾"
  },
  "3211265": {
    "zipcode": "3211265",
    "prefectureCode": "09",
    "prefectureNumber": 9,
    "prefecture": "栃木県",
    "city": "日光市",
    "town": "小百（その他）"
  },
  "3211266": {
    "zipcode": "3211266",
    "prefectureCode": "09",
    "prefectureNumber": 9,
    "prefecture": "栃木県",
    "city": "日光市",
    "town": "中央町"
  },
  "3211271": {
    "zipcode": "3211271",
    "prefectureCode": "09",
    "prefectureNumber": 9,
    "prefecture": "栃木県",
    "city": "日光市",
    "town": "並木町"
  },
  "3211272": {
    "zipcode": "3211272",
    "prefectureCode": "09",
    "prefectureNumber": 9,
    "prefecture": "栃木県",
    "city": "日光市",
    "town": "今市本町"
  },
  "3211273": {
    "zipcode": "3211273",
    "prefectureCode": "09",
    "prefectureNumber": 9,
    "prefecture": "栃木県",
    "city": "日光市",
    "town": "吉沢"
  },
  "3211274": {
    "zipcode": "3211274",
    "prefectureCode": "09",
    "prefectureNumber": 9,
    "prefecture": "栃木県",
    "city": "日光市",
    "town": "土沢"
  },
  "3211275": {
    "zipcode": "3211275",
    "prefectureCode": "09",
    "prefectureNumber": 9,
    "prefecture": "栃木県",
    "city": "日光市",
    "town": "室瀬"
  },
  "3211276": {
    "zipcode": "3211276",
    "prefectureCode": "09",
    "prefectureNumber": 9,
    "prefecture": "栃木県",
    "city": "日光市",
    "town": "下の内"
  },
  "3211277": {
    "zipcode": "3211277",
    "prefectureCode": "09",
    "prefectureNumber": 9,
    "prefecture": "栃木県",
    "city": "日光市",
    "town": "千本木"
  },
  "3211351": {
    "zipcode": "3211351",
    "prefectureCode": "09",
    "prefectureNumber": 9,
    "prefecture": "栃木県",
    "city": "日光市",
    "town": "東小来川"
  },
  "3211352": {
    "zipcode": "3211352",
    "prefectureCode": "09",
    "prefectureNumber": 9,
    "prefecture": "栃木県",
    "city": "日光市",
    "town": "宮小来川"
  },
  "3211353": {
    "zipcode": "3211353",
    "prefectureCode": "09",
    "prefectureNumber": 9,
    "prefecture": "栃木県",
    "city": "日光市",
    "town": "南小来川"
  },
  "3211354": {
    "zipcode": "3211354",
    "prefectureCode": "09",
    "prefectureNumber": 9,
    "prefecture": "栃木県",
    "city": "日光市",
    "town": "中小来川"
  },
  "3211355": {
    "zipcode": "3211355",
    "prefectureCode": "09",
    "prefectureNumber": 9,
    "prefecture": "栃木県",
    "city": "日光市",
    "town": "西小来川"
  },
  "3211356": {
    "zipcode": "3211356",
    "prefectureCode": "09",
    "prefectureNumber": 9,
    "prefecture": "栃木県",
    "city": "日光市",
    "town": "滝ケ原"
  },
  "3211401": {
    "zipcode": "3211401",
    "prefectureCode": "09",
    "prefectureNumber": 9,
    "prefecture": "栃木県",
    "city": "日光市",
    "town": "上鉢石町"
  },
  "3211402": {
    "zipcode": "3211402",
    "prefectureCode": "09",
    "prefectureNumber": 9,
    "prefecture": "栃木県",
    "city": "日光市",
    "town": "中鉢石町"
  },
  "3211403": {
    "zipcode": "3211403",
    "prefectureCode": "09",
    "prefectureNumber": 9,
    "prefecture": "栃木県",
    "city": "日光市",
    "town": "下鉢石町"
  },
  "3211404": {
    "zipcode": "3211404",
    "prefectureCode": "09",
    "prefectureNumber": 9,
    "prefecture": "栃木県",
    "city": "日光市",
    "town": "御幸町"
  },
  "3211405": {
    "zipcode": "3211405",
    "prefectureCode": "09",
    "prefectureNumber": 9,
    "prefecture": "栃木県",
    "city": "日光市",
    "town": "石屋町"
  },
  "3211406": {
    "zipcode": "3211406",
    "prefectureCode": "09",
    "prefectureNumber": 9,
    "prefecture": "栃木県",
    "city": "日光市",
    "town": "松原町"
  },
  "3211407": {
    "zipcode": "3211407",
    "prefectureCode": "09",
    "prefectureNumber": 9,
    "prefecture": "栃木県",
    "city": "日光市",
    "town": "若杉町"
  },
  "3211411": {
    "zipcode": "3211411",
    "prefectureCode": "09",
    "prefectureNumber": 9,
    "prefecture": "栃木県",
    "city": "日光市",
    "town": "稲荷町"
  },
  "3211412": {
    "zipcode": "3211412",
    "prefectureCode": "09",
    "prefectureNumber": 9,
    "prefecture": "栃木県",
    "city": "日光市",
    "town": "東和町"
  },
  "3211413": {
    "zipcode": "3211413",
    "prefectureCode": "09",
    "prefectureNumber": 9,
    "prefecture": "栃木県",
    "city": "日光市",
    "town": "相生町"
  },
  "3211414": {
    "zipcode": "3211414",
    "prefectureCode": "09",
    "prefectureNumber": 9,
    "prefecture": "栃木県",
    "city": "日光市",
    "town": "萩垣面"
  },
  "3211415": {
    "zipcode": "3211415",
    "prefectureCode": "09",
    "prefectureNumber": 9,
    "prefecture": "栃木県",
    "city": "日光市",
    "town": "日光"
  },
  "3211421": {
    "zipcode": "3211421",
    "prefectureCode": "09",
    "prefectureNumber": 9,
    "prefecture": "栃木県",
    "city": "日光市",
    "town": "所野"
  },
  "3211422": {
    "zipcode": "3211422",
    "prefectureCode": "09",
    "prefectureNumber": 9,
    "prefecture": "栃木県",
    "city": "日光市",
    "town": "宝殿"
  },
  "3211423": {
    "zipcode": "3211423",
    "prefectureCode": "09",
    "prefectureNumber": 9,
    "prefecture": "栃木県",
    "city": "日光市",
    "town": "七里"
  },
  "3211424": {
    "zipcode": "3211424",
    "prefectureCode": "09",
    "prefectureNumber": 9,
    "prefecture": "栃木県",
    "city": "日光市",
    "town": "野口"
  },
  "3211425": {
    "zipcode": "3211425",
    "prefectureCode": "09",
    "prefectureNumber": 9,
    "prefecture": "栃木県",
    "city": "日光市",
    "town": "和泉"
  },
  "3211426": {
    "zipcode": "3211426",
    "prefectureCode": "09",
    "prefectureNumber": 9,
    "prefecture": "栃木県",
    "city": "日光市",
    "town": "山久保"
  },
  "3211431": {
    "zipcode": "3211431",
    "prefectureCode": "09",
    "prefectureNumber": 9,
    "prefecture": "栃木県",
    "city": "日光市",
    "town": "山内"
  },
  "3211432": {
    "zipcode": "3211432",
    "prefectureCode": "09",
    "prefectureNumber": 9,
    "prefecture": "栃木県",
    "city": "日光市",
    "town": "安川町"
  },
  "3211433": {
    "zipcode": "3211433",
    "prefectureCode": "09",
    "prefectureNumber": 9,
    "prefecture": "栃木県",
    "city": "日光市",
    "town": "匠町"
  },
  "3211434": {
    "zipcode": "3211434",
    "prefectureCode": "09",
    "prefectureNumber": 9,
    "prefecture": "栃木県",
    "city": "日光市",
    "town": "本町"
  },
  "3211435": {
    "zipcode": "3211435",
    "prefectureCode": "09",
    "prefectureNumber": 9,
    "prefecture": "栃木県",
    "city": "日光市",
    "town": "花石町"
  },
  "3211436": {
    "zipcode": "3211436",
    "prefectureCode": "09",
    "prefectureNumber": 9,
    "prefecture": "栃木県",
    "city": "日光市",
    "town": "久次良町"
  },
  "3211441": {
    "zipcode": "3211441",
    "prefectureCode": "09",
    "prefectureNumber": 9,
    "prefecture": "栃木県",
    "city": "日光市",
    "town": "清滝安良沢町"
  },
  "3211442": {
    "zipcode": "3211442",
    "prefectureCode": "09",
    "prefectureNumber": 9,
    "prefecture": "栃木県",
    "city": "日光市",
    "town": "清滝丹勢町"
  },
  "3211443": {
    "zipcode": "3211443",
    "prefectureCode": "09",
    "prefectureNumber": 9,
    "prefecture": "栃木県",
    "city": "日光市",
    "town": "清滝桜ケ丘町"
  },
  "3211444": {
    "zipcode": "3211444",
    "prefectureCode": "09",
    "prefectureNumber": 9,
    "prefecture": "栃木県",
    "city": "日光市",
    "town": "清滝"
  },
  "3211445": {
    "zipcode": "3211445",
    "prefectureCode": "09",
    "prefectureNumber": 9,
    "prefecture": "栃木県",
    "city": "日光市",
    "town": "細尾町"
  },
  "3211446": {
    "zipcode": "3211446",
    "prefectureCode": "09",
    "prefectureNumber": 9,
    "prefecture": "栃木県",
    "city": "日光市",
    "town": "清滝中安戸町"
  },
  "3211447": {
    "zipcode": "3211447",
    "prefectureCode": "09",
    "prefectureNumber": 9,
    "prefecture": "栃木県",
    "city": "日光市",
    "town": "清滝和の代町"
  },
  "3211448": {
    "zipcode": "3211448",
    "prefectureCode": "09",
    "prefectureNumber": 9,
    "prefecture": "栃木県",
    "city": "日光市",
    "town": "清滝新細尾町"
  },
  "3211449": {
    "zipcode": "3211449",
    "prefectureCode": "09",
    "prefectureNumber": 9,
    "prefecture": "栃木県",
    "city": "日光市",
    "town": "丹勢"
  },
  "3211501": {
    "zipcode": "3211501",
    "prefectureCode": "09",
    "prefectureNumber": 9,
    "prefecture": "栃木県",
    "city": "日光市",
    "town": "足尾町愛宕下"
  },
  "3211502": {
    "zipcode": "3211502",
    "prefectureCode": "09",
    "prefectureNumber": 9,
    "prefecture": "栃木県",
    "city": "日光市",
    "town": "足尾町赤倉"
  },
  "3211503": {
    "zipcode": "3211503",
    "prefectureCode": "09",
    "prefectureNumber": 9,
    "prefecture": "栃木県",
    "city": "日光市",
    "town": "足尾町深沢"
  },
  "3211504": {
    "zipcode": "3211504",
    "prefectureCode": "09",
    "prefectureNumber": 9,
    "prefecture": "栃木県",
    "city": "日光市",
    "town": "足尾町上間藤"
  },
  "3211505": {
    "zipcode": "3211505",
    "prefectureCode": "09",
    "prefectureNumber": 9,
    "prefecture": "栃木県",
    "city": "日光市",
    "town": "足尾町上の平"
  },
  "3211506": {
    "zipcode": "3211506",
    "prefectureCode": "09",
    "prefectureNumber": 9,
    "prefecture": "栃木県",
    "city": "日光市",
    "town": "足尾町下間藤"
  },
  "3211507": {
    "zipcode": "3211507",
    "prefectureCode": "09",
    "prefectureNumber": 9,
    "prefecture": "栃木県",
    "city": "日光市",
    "town": "足尾町南橋"
  },
  "3211508": {
    "zipcode": "3211508",
    "prefectureCode": "09",
    "prefectureNumber": 9,
    "prefecture": "栃木県",
    "city": "日光市",
    "town": "足尾町本山"
  },
  "3211511": {
    "zipcode": "3211511",
    "prefectureCode": "09",
    "prefectureNumber": 9,
    "prefecture": "栃木県",
    "city": "日光市",
    "town": "足尾町"
  },
  "3211512": {
    "zipcode": "3211512",
    "prefectureCode": "09",
    "prefectureNumber": 9,
    "prefecture": "栃木県",
    "city": "日光市",
    "town": "足尾町掛水"
  },
  "3211513": {
    "zipcode": "3211513",
    "prefectureCode": "09",
    "prefectureNumber": 9,
    "prefecture": "栃木県",
    "city": "日光市",
    "town": "足尾町向原"
  },
  "3211514": {
    "zipcode": "3211514",
    "prefectureCode": "09",
    "prefectureNumber": 9,
    "prefecture": "栃木県",
    "city": "日光市",
    "town": "足尾町通洞"
  },
  "3211515": {
    "zipcode": "3211515",
    "prefectureCode": "09",
    "prefectureNumber": 9,
    "prefecture": "栃木県",
    "city": "日光市",
    "town": "足尾町砂畑"
  },
  "3211521": {
    "zipcode": "3211521",
    "prefectureCode": "09",
    "prefectureNumber": 9,
    "prefecture": "栃木県",
    "city": "日光市",
    "town": "足尾町遠下"
  },
  "3211522": {
    "zipcode": "3211522",
    "prefectureCode": "09",
    "prefectureNumber": 9,
    "prefecture": "栃木県",
    "city": "日光市",
    "town": "足尾町中才"
  },
  "3211523": {
    "zipcode": "3211523",
    "prefectureCode": "09",
    "prefectureNumber": 9,
    "prefecture": "栃木県",
    "city": "日光市",
    "town": "足尾町松原"
  },
  "3211524": {
    "zipcode": "3211524",
    "prefectureCode": "09",
    "prefectureNumber": 9,
    "prefecture": "栃木県",
    "city": "日光市",
    "town": "足尾町赤沢"
  },
  "3211661": {
    "zipcode": "3211661",
    "prefectureCode": "09",
    "prefectureNumber": 9,
    "prefecture": "栃木県",
    "city": "日光市",
    "town": "中宮祠"
  },
  "3211662": {
    "zipcode": "3211662",
    "prefectureCode": "09",
    "prefectureNumber": 9,
    "prefecture": "栃木県",
    "city": "日光市",
    "town": "湯元"
  },
  "3212101": {
    "zipcode": "3212101",
    "prefectureCode": "09",
    "prefectureNumber": 9,
    "prefecture": "栃木県",
    "city": "宇都宮市",
    "town": "飯山町"
  },
  "3212102": {
    "zipcode": "3212102",
    "prefectureCode": "09",
    "prefectureNumber": 9,
    "prefecture": "栃木県",
    "city": "宇都宮市",
    "town": "篠井町"
  },
  "3212103": {
    "zipcode": "3212103",
    "prefectureCode": "09",
    "prefectureNumber": 9,
    "prefecture": "栃木県",
    "city": "宇都宮市",
    "town": "石那田町"
  },
  "3212104": {
    "zipcode": "3212104",
    "prefectureCode": "09",
    "prefectureNumber": 9,
    "prefecture": "栃木県",
    "city": "宇都宮市",
    "town": "上小池町"
  },
  "3212105": {
    "zipcode": "3212105",
    "prefectureCode": "09",
    "prefectureNumber": 9,
    "prefecture": "栃木県",
    "city": "宇都宮市",
    "town": "下小池町"
  },
  "3212111": {
    "zipcode": "3212111",
    "prefectureCode": "09",
    "prefectureNumber": 9,
    "prefecture": "栃木県",
    "city": "宇都宮市",
    "town": "大網町"
  },
  "3212112": {
    "zipcode": "3212112",
    "prefectureCode": "09",
    "prefectureNumber": 9,
    "prefecture": "栃木県",
    "city": "宇都宮市",
    "town": "上横倉町"
  },
  "3212113": {
    "zipcode": "3212113",
    "prefectureCode": "09",
    "prefectureNumber": 9,
    "prefecture": "栃木県",
    "city": "宇都宮市",
    "town": "下横倉町"
  },
  "3212114": {
    "zipcode": "3212114",
    "prefectureCode": "09",
    "prefectureNumber": 9,
    "prefecture": "栃木県",
    "city": "宇都宮市",
    "town": "下金井町"
  },
  "3212115": {
    "zipcode": "3212115",
    "prefectureCode": "09",
    "prefectureNumber": 9,
    "prefecture": "栃木県",
    "city": "宇都宮市",
    "town": "上金井町"
  },
  "3212116": {
    "zipcode": "3212116",
    "prefectureCode": "09",
    "prefectureNumber": 9,
    "prefecture": "栃木県",
    "city": "宇都宮市",
    "town": "徳次郎町"
  },
  "3212117": {
    "zipcode": "3212117",
    "prefectureCode": "09",
    "prefectureNumber": 9,
    "prefecture": "栃木県",
    "city": "宇都宮市",
    "town": "岩原町"
  },
  "3212118": {
    "zipcode": "3212118",
    "prefectureCode": "09",
    "prefectureNumber": 9,
    "prefecture": "栃木県",
    "city": "宇都宮市",
    "town": "新里町"
  },
  "3212331": {
    "zipcode": "3212331",
    "prefectureCode": "09",
    "prefectureNumber": 9,
    "prefecture": "栃木県",
    "city": "日光市",
    "town": "針貝"
  },
  "3212332": {
    "zipcode": "3212332",
    "prefectureCode": "09",
    "prefectureNumber": 9,
    "prefecture": "栃木県",
    "city": "日光市",
    "town": "大室"
  },
  "3212333": {
    "zipcode": "3212333",
    "prefectureCode": "09",
    "prefectureNumber": 9,
    "prefecture": "栃木県",
    "city": "日光市",
    "town": "薄井沢"
  },
  "3212334": {
    "zipcode": "3212334",
    "prefectureCode": "09",
    "prefectureNumber": 9,
    "prefecture": "栃木県",
    "city": "日光市",
    "town": "水無"
  },
  "3212335": {
    "zipcode": "3212335",
    "prefectureCode": "09",
    "prefectureNumber": 9,
    "prefecture": "栃木県",
    "city": "日光市",
    "town": "森友"
  },
  "3212336": {
    "zipcode": "3212336",
    "prefectureCode": "09",
    "prefectureNumber": 9,
    "prefecture": "栃木県",
    "city": "日光市",
    "town": "荊沢"
  },
  "3212341": {
    "zipcode": "3212341",
    "prefectureCode": "09",
    "prefectureNumber": 9,
    "prefecture": "栃木県",
    "city": "日光市",
    "town": "大沢町"
  },
  "3212342": {
    "zipcode": "3212342",
    "prefectureCode": "09",
    "prefectureNumber": 9,
    "prefecture": "栃木県",
    "city": "日光市",
    "town": "根室"
  },
  "3212343": {
    "zipcode": "3212343",
    "prefectureCode": "09",
    "prefectureNumber": 9,
    "prefecture": "栃木県",
    "city": "日光市",
    "town": "山口"
  },
  "3212344": {
    "zipcode": "3212344",
    "prefectureCode": "09",
    "prefectureNumber": 9,
    "prefecture": "栃木県",
    "city": "日光市",
    "town": "猪倉"
  },
  "3212345": {
    "zipcode": "3212345",
    "prefectureCode": "09",
    "prefectureNumber": 9,
    "prefecture": "栃木県",
    "city": "日光市",
    "town": "木和田島"
  },
  "3212351": {
    "zipcode": "3212351",
    "prefectureCode": "09",
    "prefectureNumber": 9,
    "prefecture": "栃木県",
    "city": "日光市",
    "town": "塩野室町"
  },
  "3212352": {
    "zipcode": "3212352",
    "prefectureCode": "09",
    "prefectureNumber": 9,
    "prefecture": "栃木県",
    "city": "日光市",
    "town": "小林"
  },
  "3212353": {
    "zipcode": "3212353",
    "prefectureCode": "09",
    "prefectureNumber": 9,
    "prefecture": "栃木県",
    "city": "日光市",
    "town": "沓掛"
  },
  "3212354": {
    "zipcode": "3212354",
    "prefectureCode": "09",
    "prefectureNumber": 9,
    "prefecture": "栃木県",
    "city": "日光市",
    "town": "嘉多蔵"
  },
  "3212355": {
    "zipcode": "3212355",
    "prefectureCode": "09",
    "prefectureNumber": 9,
    "prefecture": "栃木県",
    "city": "日光市",
    "town": "沢又"
  },
  "3212356": {
    "zipcode": "3212356",
    "prefectureCode": "09",
    "prefectureNumber": 9,
    "prefecture": "栃木県",
    "city": "日光市",
    "town": "矢野口"
  },
  "3212401": {
    "zipcode": "3212401",
    "prefectureCode": "09",
    "prefectureNumber": 9,
    "prefecture": "栃木県",
    "city": "日光市",
    "town": "川室"
  },
  "3212402": {
    "zipcode": "3212402",
    "prefectureCode": "09",
    "prefectureNumber": 9,
    "prefecture": "栃木県",
    "city": "日光市",
    "town": "大渡"
  },
  "3212403": {
    "zipcode": "3212403",
    "prefectureCode": "09",
    "prefectureNumber": 9,
    "prefecture": "栃木県",
    "city": "日光市",
    "town": "町谷"
  },
  "3212404": {
    "zipcode": "3212404",
    "prefectureCode": "09",
    "prefectureNumber": 9,
    "prefecture": "栃木県",
    "city": "日光市",
    "town": "轟"
  },
  "3212405": {
    "zipcode": "3212405",
    "prefectureCode": "09",
    "prefectureNumber": 9,
    "prefecture": "栃木県",
    "city": "日光市",
    "town": "芹沼"
  },
  "3212411": {
    "zipcode": "3212411",
    "prefectureCode": "09",
    "prefectureNumber": 9,
    "prefecture": "栃木県",
    "city": "日光市",
    "town": "大桑町"
  },
  "3212412": {
    "zipcode": "3212412",
    "prefectureCode": "09",
    "prefectureNumber": 9,
    "prefecture": "栃木県",
    "city": "日光市",
    "town": "倉ケ崎"
  },
  "3212413": {
    "zipcode": "3212413",
    "prefectureCode": "09",
    "prefectureNumber": 9,
    "prefecture": "栃木県",
    "city": "日光市",
    "town": "倉ケ崎新田"
  },
  "3212414": {
    "zipcode": "3212414",
    "prefectureCode": "09",
    "prefectureNumber": 9,
    "prefecture": "栃木県",
    "city": "日光市",
    "town": "豊田"
  },
  "3212421": {
    "zipcode": "3212421",
    "prefectureCode": "09",
    "prefectureNumber": 9,
    "prefecture": "栃木県",
    "city": "日光市",
    "town": "栗原"
  },
  "3212422": {
    "zipcode": "3212422",
    "prefectureCode": "09",
    "prefectureNumber": 9,
    "prefecture": "栃木県",
    "city": "日光市",
    "town": "高柴"
  },
  "3212423": {
    "zipcode": "3212423",
    "prefectureCode": "09",
    "prefectureNumber": 9,
    "prefecture": "栃木県",
    "city": "日光市",
    "town": "原宿"
  },
  "3212424": {
    "zipcode": "3212424",
    "prefectureCode": "09",
    "prefectureNumber": 9,
    "prefecture": "栃木県",
    "city": "日光市",
    "town": "小百（鳥屋下）"
  },
  "3212425": {
    "zipcode": "3212425",
    "prefectureCode": "09",
    "prefectureNumber": 9,
    "prefecture": "栃木県",
    "city": "日光市",
    "town": "小百（楢原）"
  },
  "3212426": {
    "zipcode": "3212426",
    "prefectureCode": "09",
    "prefectureNumber": 9,
    "prefecture": "栃木県",
    "city": "日光市",
    "town": "小百（筒置）"
  },
  "3212427": {
    "zipcode": "3212427",
    "prefectureCode": "09",
    "prefectureNumber": 9,
    "prefecture": "栃木県",
    "city": "日光市",
    "town": "佐下部"
  },
  "3212501": {
    "zipcode": "3212501",
    "prefectureCode": "09",
    "prefectureNumber": 9,
    "prefecture": "栃木県",
    "city": "塩谷郡塩谷町",
    "town": "上寺島（１６５３、１６６１、１６７８、１６９４番地）"
  },
  "3212521": {
    "zipcode": "3212521",
    "prefectureCode": "09",
    "prefectureNumber": 9,
    "prefecture": "栃木県",
    "city": "日光市",
    "town": "藤原（その他）"
  },
  "3212522": {
    "zipcode": "3212522",
    "prefectureCode": "09",
    "prefectureNumber": 9,
    "prefecture": "栃木県",
    "city": "日光市",
    "town": "鬼怒川温泉大原"
  },
  "3212523": {
    "zipcode": "3212523",
    "prefectureCode": "09",
    "prefectureNumber": 9,
    "prefecture": "栃木県",
    "city": "日光市",
    "town": "高徳"
  },
  "3212524": {
    "zipcode": "3212524",
    "prefectureCode": "09",
    "prefectureNumber": 9,
    "prefecture": "栃木県",
    "city": "日光市",
    "town": "柄倉"
  },
  "3212525": {
    "zipcode": "3212525",
    "prefectureCode": "09",
    "prefectureNumber": 9,
    "prefecture": "栃木県",
    "city": "日光市",
    "town": "小佐越"
  },
  "3212526": {
    "zipcode": "3212526",
    "prefectureCode": "09",
    "prefectureNumber": 9,
    "prefecture": "栃木県",
    "city": "日光市",
    "town": "鬼怒川温泉滝"
  },
  "3212601": {
    "zipcode": "3212601",
    "prefectureCode": "09",
    "prefectureNumber": 9,
    "prefecture": "栃木県",
    "city": "日光市",
    "town": "湯西川"
  },
  "3212602": {
    "zipcode": "3212602",
    "prefectureCode": "09",
    "prefectureNumber": 9,
    "prefecture": "栃木県",
    "city": "日光市",
    "town": "一ツ石"
  },
  "3212603": {
    "zipcode": "3212603",
    "prefectureCode": "09",
    "prefectureNumber": 9,
    "prefecture": "栃木県",
    "city": "日光市",
    "town": "西川"
  },
  "3212604": {
    "zipcode": "3212604",
    "prefectureCode": "09",
    "prefectureNumber": 9,
    "prefecture": "栃木県",
    "city": "日光市",
    "town": "赤下"
  },
  "3212611": {
    "zipcode": "3212611",
    "prefectureCode": "09",
    "prefectureNumber": 9,
    "prefecture": "栃木県",
    "city": "日光市",
    "town": "川治温泉川治"
  },
  "3212612": {
    "zipcode": "3212612",
    "prefectureCode": "09",
    "prefectureNumber": 9,
    "prefecture": "栃木県",
    "city": "日光市",
    "town": "川治温泉高原"
  },
  "3212613": {
    "zipcode": "3212613",
    "prefectureCode": "09",
    "prefectureNumber": 9,
    "prefecture": "栃木県",
    "city": "日光市",
    "town": "藤原（１０４７〜１２６８及び下平）"
  },
  "3212614": {
    "zipcode": "3212614",
    "prefectureCode": "09",
    "prefectureNumber": 9,
    "prefecture": "栃木県",
    "city": "日光市",
    "town": "川治温泉滝"
  },
  "3212615": {
    "zipcode": "3212615",
    "prefectureCode": "09",
    "prefectureNumber": 9,
    "prefecture": "栃木県",
    "city": "日光市",
    "town": "五十里（東山）"
  },
  "3212616": {
    "zipcode": "3212616",
    "prefectureCode": "09",
    "prefectureNumber": 9,
    "prefecture": "栃木県",
    "city": "日光市",
    "town": "高原"
  },
  "3212711": {
    "zipcode": "3212711",
    "prefectureCode": "09",
    "prefectureNumber": 9,
    "prefecture": "栃木県",
    "city": "日光市",
    "town": "日向"
  },
  "3212712": {
    "zipcode": "3212712",
    "prefectureCode": "09",
    "prefectureNumber": 9,
    "prefecture": "栃木県",
    "city": "日光市",
    "town": "日蔭"
  },
  "3212713": {
    "zipcode": "3212713",
    "prefectureCode": "09",
    "prefectureNumber": 9,
    "prefecture": "栃木県",
    "city": "日光市",
    "town": "黒部"
  },
  "3212714": {
    "zipcode": "3212714",
    "prefectureCode": "09",
    "prefectureNumber": 9,
    "prefecture": "栃木県",
    "city": "日光市",
    "town": "土呂部"
  },
  "3212715": {
    "zipcode": "3212715",
    "prefectureCode": "09",
    "prefectureNumber": 9,
    "prefecture": "栃木県",
    "city": "日光市",
    "town": "上栗山"
  },
  "3212716": {
    "zipcode": "3212716",
    "prefectureCode": "09",
    "prefectureNumber": 9,
    "prefecture": "栃木県",
    "city": "日光市",
    "town": "野門"
  },
  "3212717": {
    "zipcode": "3212717",
    "prefectureCode": "09",
    "prefectureNumber": 9,
    "prefecture": "栃木県",
    "city": "日光市",
    "town": "川俣"
  },
  "3212718": {
    "zipcode": "3212718",
    "prefectureCode": "09",
    "prefectureNumber": 9,
    "prefecture": "栃木県",
    "city": "日光市",
    "town": "若間"
  },
  "3212801": {
    "zipcode": "3212801",
    "prefectureCode": "09",
    "prefectureNumber": 9,
    "prefecture": "栃木県",
    "city": "日光市",
    "town": "横川"
  },
  "3212802": {
    "zipcode": "3212802",
    "prefectureCode": "09",
    "prefectureNumber": 9,
    "prefecture": "栃木県",
    "city": "日光市",
    "town": "上三依"
  },
  "3212803": {
    "zipcode": "3212803",
    "prefectureCode": "09",
    "prefectureNumber": 9,
    "prefecture": "栃木県",
    "city": "日光市",
    "town": "中三依"
  },
  "3212804": {
    "zipcode": "3212804",
    "prefectureCode": "09",
    "prefectureNumber": 9,
    "prefecture": "栃木県",
    "city": "日光市",
    "town": "芹沢"
  },
  "3212805": {
    "zipcode": "3212805",
    "prefectureCode": "09",
    "prefectureNumber": 9,
    "prefecture": "栃木県",
    "city": "日光市",
    "town": "独鈷沢"
  },
  "3212806": {
    "zipcode": "3212806",
    "prefectureCode": "09",
    "prefectureNumber": 9,
    "prefecture": "栃木県",
    "city": "日光市",
    "town": "五十里（その他）"
  },
  "3213221": {
    "zipcode": "3213221",
    "prefectureCode": "09",
    "prefectureNumber": 9,
    "prefecture": "栃木県",
    "city": "宇都宮市",
    "town": "板戸町"
  },
  "3213222": {
    "zipcode": "3213222",
    "prefectureCode": "09",
    "prefectureNumber": 9,
    "prefecture": "栃木県",
    "city": "宇都宮市",
    "town": "野高谷町"
  },
  "3213223": {
    "zipcode": "3213223",
    "prefectureCode": "09",
    "prefectureNumber": 9,
    "prefecture": "栃木県",
    "city": "宇都宮市",
    "town": "清原台"
  },
  "3213224": {
    "zipcode": "3213224",
    "prefectureCode": "09",
    "prefectureNumber": 9,
    "prefecture": "栃木県",
    "city": "宇都宮市",
    "town": "刈沼町"
  },
  "3213225": {
    "zipcode": "3213225",
    "prefectureCode": "09",
    "prefectureNumber": 9,
    "prefecture": "栃木県",
    "city": "宇都宮市",
    "town": "満美穴町"
  },
  "3213226": {
    "zipcode": "3213226",
    "prefectureCode": "09",
    "prefectureNumber": 9,
    "prefecture": "栃木県",
    "city": "宇都宮市",
    "town": "ゆいの杜"
  },
  "3213231": {
    "zipcode": "3213231",
    "prefectureCode": "09",
    "prefectureNumber": 9,
    "prefecture": "栃木県",
    "city": "宇都宮市",
    "town": "清原工業団地"
  },
  "3213232": {
    "zipcode": "3213232",
    "prefectureCode": "09",
    "prefectureNumber": 9,
    "prefecture": "栃木県",
    "city": "宇都宮市",
    "town": "氷室町"
  },
  "3213233": {
    "zipcode": "3213233",
    "prefectureCode": "09",
    "prefectureNumber": 9,
    "prefecture": "栃木県",
    "city": "宇都宮市",
    "town": "上籠谷町"
  },
  "3213234": {
    "zipcode": "3213234",
    "prefectureCode": "09",
    "prefectureNumber": 9,
    "prefecture": "栃木県",
    "city": "宇都宮市",
    "town": "桑島町"
  },
  "3213235": {
    "zipcode": "3213235",
    "prefectureCode": "09",
    "prefectureNumber": 9,
    "prefecture": "栃木県",
    "city": "宇都宮市",
    "town": "鐺山町"
  },
  "3213236": {
    "zipcode": "3213236",
    "prefectureCode": "09",
    "prefectureNumber": 9,
    "prefecture": "栃木県",
    "city": "宇都宮市",
    "town": "竹下町"
  },
  "3213237": {
    "zipcode": "3213237",
    "prefectureCode": "09",
    "prefectureNumber": 9,
    "prefecture": "栃木県",
    "city": "宇都宮市",
    "town": "道場宿町"
  },
  "3213300": {
    "zipcode": "3213300",
    "prefectureCode": "09",
    "prefectureNumber": 9,
    "prefecture": "栃木県",
    "city": "芳賀郡芳賀町",
    "town": "以下に掲載がない場合"
  },
  "3213301": {
    "zipcode": "3213301",
    "prefectureCode": "09",
    "prefectureNumber": 9,
    "prefecture": "栃木県",
    "city": "芳賀郡芳賀町",
    "town": "給部"
  },
  "3213302": {
    "zipcode": "3213302",
    "prefectureCode": "09",
    "prefectureNumber": 9,
    "prefecture": "栃木県",
    "city": "芳賀郡芳賀町",
    "town": "上稲毛田"
  },
  "3213303": {
    "zipcode": "3213303",
    "prefectureCode": "09",
    "prefectureNumber": 9,
    "prefecture": "栃木県",
    "city": "芳賀郡芳賀町",
    "town": "稲毛田"
  },
  "3213304": {
    "zipcode": "3213304",
    "prefectureCode": "09",
    "prefectureNumber": 9,
    "prefecture": "栃木県",
    "city": "芳賀郡芳賀町",
    "town": "祖母井"
  },
  "3213305": {
    "zipcode": "3213305",
    "prefectureCode": "09",
    "prefectureNumber": 9,
    "prefecture": "栃木県",
    "city": "芳賀郡芳賀町",
    "town": "芳志戸"
  },
  "3213306": {
    "zipcode": "3213306",
    "prefectureCode": "09",
    "prefectureNumber": 9,
    "prefecture": "栃木県",
    "city": "芳賀郡芳賀町",
    "town": "八ツ木"
  },
  "3213307": {
    "zipcode": "3213307",
    "prefectureCode": "09",
    "prefectureNumber": 9,
    "prefecture": "栃木県",
    "city": "芳賀郡芳賀町",
    "town": "祖母井南"
  },
  "3213311": {
    "zipcode": "3213311",
    "prefectureCode": "09",
    "prefectureNumber": 9,
    "prefecture": "栃木県",
    "city": "芳賀郡芳賀町",
    "town": "上延生"
  },
  "3213312": {
    "zipcode": "3213312",
    "prefectureCode": "09",
    "prefectureNumber": 9,
    "prefecture": "栃木県",
    "city": "芳賀郡芳賀町",
    "town": "下延生"
  },
  "3213313": {
    "zipcode": "3213313",
    "prefectureCode": "09",
    "prefectureNumber": 9,
    "prefecture": "栃木県",
    "city": "芳賀郡芳賀町",
    "town": "東高橋"
  },
  "3213314": {
    "zipcode": "3213314",
    "prefectureCode": "09",
    "prefectureNumber": 9,
    "prefecture": "栃木県",
    "city": "芳賀郡芳賀町",
    "town": "打越新田"
  },
  "3213315": {
    "zipcode": "3213315",
    "prefectureCode": "09",
    "prefectureNumber": 9,
    "prefecture": "栃木県",
    "city": "芳賀郡芳賀町",
    "town": "西高橋"
  },
  "3213316": {
    "zipcode": "3213316",
    "prefectureCode": "09",
    "prefectureNumber": 9,
    "prefecture": "栃木県",
    "city": "芳賀郡芳賀町",
    "town": "与能"
  },
  "3213321": {
    "zipcode": "3213321",
    "prefectureCode": "09",
    "prefectureNumber": 9,
    "prefecture": "栃木県",
    "city": "芳賀郡芳賀町",
    "town": "下高根沢"
  },
  "3213322": {
    "zipcode": "3213322",
    "prefectureCode": "09",
    "prefectureNumber": 9,
    "prefecture": "栃木県",
    "city": "芳賀郡芳賀町",
    "town": "東水沼"
  },
  "3213323": {
    "zipcode": "3213323",
    "prefectureCode": "09",
    "prefectureNumber": 9,
    "prefecture": "栃木県",
    "city": "芳賀郡芳賀町",
    "town": "北長島"
  },
  "3213324": {
    "zipcode": "3213324",
    "prefectureCode": "09",
    "prefectureNumber": 9,
    "prefecture": "栃木県",
    "city": "芳賀郡芳賀町",
    "town": "西水沼"
  },
  "3213325": {
    "zipcode": "3213325",
    "prefectureCode": "09",
    "prefectureNumber": 9,
    "prefecture": "栃木県",
    "city": "芳賀郡芳賀町",
    "town": "芳賀台"
  },
  "3213400": {
    "zipcode": "3213400",
    "prefectureCode": "09",
    "prefectureNumber": 9,
    "prefecture": "栃木県",
    "city": "芳賀郡市貝町",
    "town": "以下に掲載がない場合"
  },
  "3213401": {
    "zipcode": "3213401",
    "prefectureCode": "09",
    "prefectureNumber": 9,
    "prefecture": "栃木県",
    "city": "芳賀郡市貝町",
    "town": "竹内"
  },
  "3213402": {
    "zipcode": "3213402",
    "prefectureCode": "09",
    "prefectureNumber": 9,
    "prefecture": "栃木県",
    "city": "芳賀郡市貝町",
    "town": "見上"
  },
  "3213403": {
    "zipcode": "3213403",
    "prefectureCode": "09",
    "prefectureNumber": 9,
    "prefecture": "栃木県",
    "city": "芳賀郡市貝町",
    "town": "羽仏"
  },
  "3213404": {
    "zipcode": "3213404",
    "prefectureCode": "09",
    "prefectureNumber": 9,
    "prefecture": "栃木県",
    "city": "芳賀郡市貝町",
    "town": "続谷"
  },
  "3213405": {
    "zipcode": "3213405",
    "prefectureCode": "09",
    "prefectureNumber": 9,
    "prefecture": "栃木県",
    "city": "芳賀郡市貝町",
    "town": "大谷津"
  },
  "3213406": {
    "zipcode": "3213406",
    "prefectureCode": "09",
    "prefectureNumber": 9,
    "prefecture": "栃木県",
    "city": "芳賀郡市貝町",
    "town": "塩田"
  },
  "3213411": {
    "zipcode": "3213411",
    "prefectureCode": "09",
    "prefectureNumber": 9,
    "prefecture": "栃木県",
    "city": "芳賀郡市貝町",
    "town": "刈生田"
  },
  "3213412": {
    "zipcode": "3213412",
    "prefectureCode": "09",
    "prefectureNumber": 9,
    "prefecture": "栃木県",
    "city": "芳賀郡市貝町",
    "town": "田野辺"
  },
  "3213413": {
    "zipcode": "3213413",
    "prefectureCode": "09",
    "prefectureNumber": 9,
    "prefecture": "栃木県",
    "city": "芳賀郡市貝町",
    "town": "文谷"
  },
  "3213414": {
    "zipcode": "3213414",
    "prefectureCode": "09",
    "prefectureNumber": 9,
    "prefecture": "栃木県",
    "city": "芳賀郡市貝町",
    "town": "椎谷"
  },
  "3213415": {
    "zipcode": "3213415",
    "prefectureCode": "09",
    "prefectureNumber": 9,
    "prefecture": "栃木県",
    "city": "芳賀郡市貝町",
    "town": "杉山"
  },
  "3213421": {
    "zipcode": "3213421",
    "prefectureCode": "09",
    "prefectureNumber": 9,
    "prefecture": "栃木県",
    "city": "芳賀郡市貝町",
    "town": "笹原田"
  },
  "3213422": {
    "zipcode": "3213422",
    "prefectureCode": "09",
    "prefectureNumber": 9,
    "prefecture": "栃木県",
    "city": "芳賀郡市貝町",
    "town": "石下"
  },
  "3213423": {
    "zipcode": "3213423",
    "prefectureCode": "09",
    "prefectureNumber": 9,
    "prefecture": "栃木県",
    "city": "芳賀郡市貝町",
    "town": "市塙"
  },
  "3213424": {
    "zipcode": "3213424",
    "prefectureCode": "09",
    "prefectureNumber": 9,
    "prefecture": "栃木県",
    "city": "芳賀郡市貝町",
    "town": "上根"
  },
  "3213425": {
    "zipcode": "3213425",
    "prefectureCode": "09",
    "prefectureNumber": 9,
    "prefecture": "栃木県",
    "city": "芳賀郡市貝町",
    "town": "多田羅"
  },
  "3213426": {
    "zipcode": "3213426",
    "prefectureCode": "09",
    "prefectureNumber": 9,
    "prefecture": "栃木県",
    "city": "芳賀郡市貝町",
    "town": "赤羽"
  },
  "3213500": {
    "zipcode": "3213500",
    "prefectureCode": "09",
    "prefectureNumber": 9,
    "prefecture": "栃木県",
    "city": "芳賀郡茂木町",
    "town": "以下に掲載がない場合"
  },
  "3213531": {
    "zipcode": "3213531",
    "prefectureCode": "09",
    "prefectureNumber": 9,
    "prefecture": "栃木県",
    "city": "芳賀郡茂木町",
    "town": "茂木"
  },
  "3213532": {
    "zipcode": "3213532",
    "prefectureCode": "09",
    "prefectureNumber": 9,
    "prefecture": "栃木県",
    "city": "芳賀郡茂木町",
    "town": "三坂"
  },
  "3213533": {
    "zipcode": "3213533",
    "prefectureCode": "09",
    "prefectureNumber": 9,
    "prefecture": "栃木県",
    "city": "芳賀郡茂木町",
    "town": "桧山（その他）"
  },
  "3213534": {
    "zipcode": "3213534",
    "prefectureCode": "09",
    "prefectureNumber": 9,
    "prefecture": "栃木県",
    "city": "芳賀郡茂木町",
    "town": "青梅"
  },
  "3213535": {
    "zipcode": "3213535",
    "prefectureCode": "09",
    "prefectureNumber": 9,
    "prefecture": "栃木県",
    "city": "芳賀郡茂木町",
    "town": "鮎田"
  },
  "3213536": {
    "zipcode": "3213536",
    "prefectureCode": "09",
    "prefectureNumber": 9,
    "prefecture": "栃木県",
    "city": "芳賀郡茂木町",
    "town": "神井"
  },
  "3213541": {
    "zipcode": "3213541",
    "prefectureCode": "09",
    "prefectureNumber": 9,
    "prefecture": "栃木県",
    "city": "芳賀郡茂木町",
    "town": "烏生田"
  },
  "3213542": {
    "zipcode": "3213542",
    "prefectureCode": "09",
    "prefectureNumber": 9,
    "prefecture": "栃木県",
    "city": "芳賀郡茂木町",
    "town": "九石"
  },
  "3213543": {
    "zipcode": "3213543",
    "prefectureCode": "09",
    "prefectureNumber": 9,
    "prefecture": "栃木県",
    "city": "芳賀郡茂木町",
    "town": "上後郷"
  },
  "3213544": {
    "zipcode": "3213544",
    "prefectureCode": "09",
    "prefectureNumber": 9,
    "prefecture": "栃木県",
    "city": "芳賀郡茂木町",
    "town": "坂井"
  },
  "3213545": {
    "zipcode": "3213545",
    "prefectureCode": "09",
    "prefectureNumber": 9,
    "prefecture": "栃木県",
    "city": "芳賀郡茂木町",
    "town": "下菅又"
  },
  "3213546": {
    "zipcode": "3213546",
    "prefectureCode": "09",
    "prefectureNumber": 9,
    "prefecture": "栃木県",
    "city": "芳賀郡茂木町",
    "town": "上菅又"
  },
  "3213547": {
    "zipcode": "3213547",
    "prefectureCode": "09",
    "prefectureNumber": 9,
    "prefecture": "栃木県",
    "city": "芳賀郡茂木町",
    "town": "千本"
  },
  "3213551": {
    "zipcode": "3213551",
    "prefectureCode": "09",
    "prefectureNumber": 9,
    "prefecture": "栃木県",
    "city": "芳賀郡茂木町",
    "town": "生井"
  },
  "3213552": {
    "zipcode": "3213552",
    "prefectureCode": "09",
    "prefectureNumber": 9,
    "prefecture": "栃木県",
    "city": "芳賀郡茂木町",
    "town": "竹原"
  },
  "3213553": {
    "zipcode": "3213553",
    "prefectureCode": "09",
    "prefectureNumber": 9,
    "prefecture": "栃木県",
    "city": "芳賀郡茂木町",
    "town": "大畑"
  },
  "3213554": {
    "zipcode": "3213554",
    "prefectureCode": "09",
    "prefectureNumber": 9,
    "prefecture": "栃木県",
    "city": "芳賀郡茂木町",
    "town": "大瀬"
  },
  "3213555": {
    "zipcode": "3213555",
    "prefectureCode": "09",
    "prefectureNumber": 9,
    "prefecture": "栃木県",
    "city": "芳賀郡茂木町",
    "town": "所草"
  },
  "3213556": {
    "zipcode": "3213556",
    "prefectureCode": "09",
    "prefectureNumber": 9,
    "prefecture": "栃木県",
    "city": "芳賀郡茂木町",
    "town": "町田"
  },
  "3213557": {
    "zipcode": "3213557",
    "prefectureCode": "09",
    "prefectureNumber": 9,
    "prefecture": "栃木県",
    "city": "芳賀郡茂木町",
    "town": "黒田"
  },
  "3213561": {
    "zipcode": "3213561",
    "prefectureCode": "09",
    "prefectureNumber": 9,
    "prefecture": "栃木県",
    "city": "芳賀郡茂木町",
    "town": "後郷"
  },
  "3213562": {
    "zipcode": "3213562",
    "prefectureCode": "09",
    "prefectureNumber": 9,
    "prefecture": "栃木県",
    "city": "芳賀郡茂木町",
    "town": "馬門"
  },
  "3213563": {
    "zipcode": "3213563",
    "prefectureCode": "09",
    "prefectureNumber": 9,
    "prefecture": "栃木県",
    "city": "芳賀郡茂木町",
    "town": "林"
  },
  "3213564": {
    "zipcode": "3213564",
    "prefectureCode": "09",
    "prefectureNumber": 9,
    "prefecture": "栃木県",
    "city": "芳賀郡茂木町",
    "town": "増井"
  },
  "3213565": {
    "zipcode": "3213565",
    "prefectureCode": "09",
    "prefectureNumber": 9,
    "prefecture": "栃木県",
    "city": "芳賀郡茂木町",
    "town": "塩田"
  },
  "3213566": {
    "zipcode": "3213566",
    "prefectureCode": "09",
    "prefectureNumber": 9,
    "prefecture": "栃木県",
    "city": "芳賀郡茂木町",
    "town": "小井戸"
  },
  "3213621": {
    "zipcode": "3213621",
    "prefectureCode": "09",
    "prefectureNumber": 9,
    "prefecture": "栃木県",
    "city": "芳賀郡茂木町",
    "town": "天子"
  },
  "3213622": {
    "zipcode": "3213622",
    "prefectureCode": "09",
    "prefectureNumber": 9,
    "prefecture": "栃木県",
    "city": "芳賀郡茂木町",
    "town": "北高岡"
  },
  "3213623": {
    "zipcode": "3213623",
    "prefectureCode": "09",
    "prefectureNumber": 9,
    "prefecture": "栃木県",
    "city": "芳賀郡茂木町",
    "town": "木幡"
  },
  "3213624": {
    "zipcode": "3213624",
    "prefectureCode": "09",
    "prefectureNumber": 9,
    "prefecture": "栃木県",
    "city": "芳賀郡茂木町",
    "town": "小山"
  },
  "3213625": {
    "zipcode": "3213625",
    "prefectureCode": "09",
    "prefectureNumber": 9,
    "prefecture": "栃木県",
    "city": "芳賀郡茂木町",
    "town": "福手"
  },
  "3213626": {
    "zipcode": "3213626",
    "prefectureCode": "09",
    "prefectureNumber": 9,
    "prefecture": "栃木県",
    "city": "芳賀郡茂木町",
    "town": "飯"
  },
  "3213627": {
    "zipcode": "3213627",
    "prefectureCode": "09",
    "prefectureNumber": 9,
    "prefecture": "栃木県",
    "city": "芳賀郡茂木町",
    "town": "小貫"
  },
  "3213628": {
    "zipcode": "3213628",
    "prefectureCode": "09",
    "prefectureNumber": 9,
    "prefecture": "栃木県",
    "city": "芳賀郡茂木町",
    "town": "深沢"
  },
  "3213701": {
    "zipcode": "3213701",
    "prefectureCode": "09",
    "prefectureNumber": 9,
    "prefecture": "栃木県",
    "city": "芳賀郡茂木町",
    "town": "山内"
  },
  "3213702": {
    "zipcode": "3213702",
    "prefectureCode": "09",
    "prefectureNumber": 9,
    "prefecture": "栃木県",
    "city": "芳賀郡茂木町",
    "town": "飯野"
  },
  "3213703": {
    "zipcode": "3213703",
    "prefectureCode": "09",
    "prefectureNumber": 9,
    "prefecture": "栃木県",
    "city": "芳賀郡茂木町",
    "town": "河井"
  },
  "3213704": {
    "zipcode": "3213704",
    "prefectureCode": "09",
    "prefectureNumber": 9,
    "prefecture": "栃木県",
    "city": "芳賀郡茂木町",
    "town": "牧野"
  },
  "3213705": {
    "zipcode": "3213705",
    "prefectureCode": "09",
    "prefectureNumber": 9,
    "prefecture": "栃木県",
    "city": "芳賀郡茂木町",
    "town": "入郷"
  },
  "3213706": {
    "zipcode": "3213706",
    "prefectureCode": "09",
    "prefectureNumber": 9,
    "prefecture": "栃木県",
    "city": "芳賀郡茂木町",
    "town": "河又"
  },
  "3213707": {
    "zipcode": "3213707",
    "prefectureCode": "09",
    "prefectureNumber": 9,
    "prefecture": "栃木県",
    "city": "芳賀郡茂木町",
    "town": "小深"
  },
  "3214101": {
    "zipcode": "3214101",
    "prefectureCode": "09",
    "prefectureNumber": 9,
    "prefecture": "栃木県",
    "city": "芳賀郡益子町",
    "town": "小宅"
  },
  "3214102": {
    "zipcode": "3214102",
    "prefectureCode": "09",
    "prefectureNumber": 9,
    "prefecture": "栃木県",
    "city": "芳賀郡益子町",
    "town": "芦沼"
  },
  "3214103": {
    "zipcode": "3214103",
    "prefectureCode": "09",
    "prefectureNumber": 9,
    "prefecture": "栃木県",
    "city": "芳賀郡益子町",
    "town": "大平"
  },
  "3214104": {
    "zipcode": "3214104",
    "prefectureCode": "09",
    "prefectureNumber": 9,
    "prefecture": "栃木県",
    "city": "芳賀郡益子町",
    "town": "大沢"
  },
  "3214105": {
    "zipcode": "3214105",
    "prefectureCode": "09",
    "prefectureNumber": 9,
    "prefecture": "栃木県",
    "city": "芳賀郡益子町",
    "town": "北中"
  },
  "3214106": {
    "zipcode": "3214106",
    "prefectureCode": "09",
    "prefectureNumber": 9,
    "prefecture": "栃木県",
    "city": "芳賀郡益子町",
    "town": "七井"
  },
  "3214107": {
    "zipcode": "3214107",
    "prefectureCode": "09",
    "prefectureNumber": 9,
    "prefecture": "栃木県",
    "city": "芳賀郡益子町",
    "town": "七井中央"
  },
  "3214200": {
    "zipcode": "3214200",
    "prefectureCode": "09",
    "prefectureNumber": 9,
    "prefecture": "栃木県",
    "city": "芳賀郡益子町",
    "town": "以下に掲載がない場合"
  },
  "3214211": {
    "zipcode": "3214211",
    "prefectureCode": "09",
    "prefectureNumber": 9,
    "prefecture": "栃木県",
    "city": "芳賀郡益子町",
    "town": "下大羽"
  },
  "3214212": {
    "zipcode": "3214212",
    "prefectureCode": "09",
    "prefectureNumber": 9,
    "prefecture": "栃木県",
    "city": "芳賀郡益子町",
    "town": "上大羽"
  },
  "3214213": {
    "zipcode": "3214213",
    "prefectureCode": "09",
    "prefectureNumber": 9,
    "prefecture": "栃木県",
    "city": "芳賀郡益子町",
    "town": "山本"
  },
  "3214214": {
    "zipcode": "3214214",
    "prefectureCode": "09",
    "prefectureNumber": 9,
    "prefecture": "栃木県",
    "city": "芳賀郡益子町",
    "town": "前沢"
  },
  "3214215": {
    "zipcode": "3214215",
    "prefectureCode": "09",
    "prefectureNumber": 9,
    "prefecture": "栃木県",
    "city": "芳賀郡益子町",
    "town": "生田目"
  },
  "3214216": {
    "zipcode": "3214216",
    "prefectureCode": "09",
    "prefectureNumber": 9,
    "prefecture": "栃木県",
    "city": "芳賀郡益子町",
    "town": "塙"
  },
  "3214217": {
    "zipcode": "3214217",
    "prefectureCode": "09",
    "prefectureNumber": 9,
    "prefecture": "栃木県",
    "city": "芳賀郡益子町",
    "town": "益子"
  },
  "3214218": {
    "zipcode": "3214218",
    "prefectureCode": "09",
    "prefectureNumber": 9,
    "prefecture": "栃木県",
    "city": "芳賀郡益子町",
    "town": "城内坂"
  },
  "3214221": {
    "zipcode": "3214221",
    "prefectureCode": "09",
    "prefectureNumber": 9,
    "prefecture": "栃木県",
    "city": "芳賀郡益子町",
    "town": "大郷戸"
  },
  "3214222": {
    "zipcode": "3214222",
    "prefectureCode": "09",
    "prefectureNumber": 9,
    "prefecture": "栃木県",
    "city": "芳賀郡益子町",
    "town": "小泉"
  },
  "3214223": {
    "zipcode": "3214223",
    "prefectureCode": "09",
    "prefectureNumber": 9,
    "prefecture": "栃木県",
    "city": "芳賀郡益子町",
    "town": "梅ケ内"
  },
  "3214224": {
    "zipcode": "3214224",
    "prefectureCode": "09",
    "prefectureNumber": 9,
    "prefecture": "栃木県",
    "city": "芳賀郡益子町",
    "town": "本沼"
  },
  "3214225": {
    "zipcode": "3214225",
    "prefectureCode": "09",
    "prefectureNumber": 9,
    "prefecture": "栃木県",
    "city": "芳賀郡益子町",
    "town": "長堤"
  },
  "3214226": {
    "zipcode": "3214226",
    "prefectureCode": "09",
    "prefectureNumber": 9,
    "prefecture": "栃木県",
    "city": "芳賀郡益子町",
    "town": "上山"
  },
  "3214227": {
    "zipcode": "3214227",
    "prefectureCode": "09",
    "prefectureNumber": 9,
    "prefecture": "栃木県",
    "city": "芳賀郡益子町",
    "town": "東田井"
  },
  "3214300": {
    "zipcode": "3214300",
    "prefectureCode": "09",
    "prefectureNumber": 9,
    "prefecture": "栃木県",
    "city": "真岡市",
    "town": "以下に掲載がない場合"
  },
  "3214301": {
    "zipcode": "3214301",
    "prefectureCode": "09",
    "prefectureNumber": 9,
    "prefecture": "栃木県",
    "city": "真岡市",
    "town": "西田井"
  },
  "3214302": {
    "zipcode": "3214302",
    "prefectureCode": "09",
    "prefectureNumber": 9,
    "prefecture": "栃木県",
    "city": "真岡市",
    "town": "鶴田"
  },
  "3214303": {
    "zipcode": "3214303",
    "prefectureCode": "09",
    "prefectureNumber": 9,
    "prefecture": "栃木県",
    "city": "真岡市",
    "town": "八條"
  },
  "3214304": {
    "zipcode": "3214304",
    "prefectureCode": "09",
    "prefectureNumber": 9,
    "prefecture": "栃木県",
    "city": "真岡市",
    "town": "東郷"
  },
  "3214305": {
    "zipcode": "3214305",
    "prefectureCode": "09",
    "prefectureNumber": 9,
    "prefecture": "栃木県",
    "city": "真岡市",
    "town": "荒町"
  },
  "3214306": {
    "zipcode": "3214306",
    "prefectureCode": "09",
    "prefectureNumber": 9,
    "prefecture": "栃木県",
    "city": "真岡市",
    "town": "台町"
  },
  "3214307": {
    "zipcode": "3214307",
    "prefectureCode": "09",
    "prefectureNumber": 9,
    "prefecture": "栃木県",
    "city": "真岡市",
    "town": "西郷"
  },
  "3214308": {
    "zipcode": "3214308",
    "prefectureCode": "09",
    "prefectureNumber": 9,
    "prefecture": "栃木県",
    "city": "真岡市",
    "town": "中郷"
  },
  "3214309": {
    "zipcode": "3214309",
    "prefectureCode": "09",
    "prefectureNumber": 9,
    "prefecture": "栃木県",
    "city": "真岡市",
    "town": "東光寺"
  },
  "3214311": {
    "zipcode": "3214311",
    "prefectureCode": "09",
    "prefectureNumber": 9,
    "prefecture": "栃木県",
    "city": "真岡市",
    "town": "根本"
  },
  "3214312": {
    "zipcode": "3214312",
    "prefectureCode": "09",
    "prefectureNumber": 9,
    "prefecture": "栃木県",
    "city": "真岡市",
    "town": "青谷"
  },
  "3214313": {
    "zipcode": "3214313",
    "prefectureCode": "09",
    "prefectureNumber": 9,
    "prefecture": "栃木県",
    "city": "真岡市",
    "town": "須釜"
  },
  "3214314": {
    "zipcode": "3214314",
    "prefectureCode": "09",
    "prefectureNumber": 9,
    "prefecture": "栃木県",
    "city": "真岡市",
    "town": "南高岡"
  },
  "3214315": {
    "zipcode": "3214315",
    "prefectureCode": "09",
    "prefectureNumber": 9,
    "prefecture": "栃木県",
    "city": "真岡市",
    "town": "道祖土"
  },
  "3214316": {
    "zipcode": "3214316",
    "prefectureCode": "09",
    "prefectureNumber": 9,
    "prefecture": "栃木県",
    "city": "真岡市",
    "town": "君島"
  },
  "3214317": {
    "zipcode": "3214317",
    "prefectureCode": "09",
    "prefectureNumber": 9,
    "prefecture": "栃木県",
    "city": "真岡市",
    "town": "中萩"
  },
  "3214321": {
    "zipcode": "3214321",
    "prefectureCode": "09",
    "prefectureNumber": 9,
    "prefecture": "栃木県",
    "city": "真岡市",
    "town": "小林"
  },
  "3214322": {
    "zipcode": "3214322",
    "prefectureCode": "09",
    "prefectureNumber": 9,
    "prefecture": "栃木県",
    "city": "真岡市",
    "town": "東大島"
  },
  "3214323": {
    "zipcode": "3214323",
    "prefectureCode": "09",
    "prefectureNumber": 9,
    "prefecture": "栃木県",
    "city": "真岡市",
    "town": "東沼"
  },
  "3214324": {
    "zipcode": "3214324",
    "prefectureCode": "09",
    "prefectureNumber": 9,
    "prefecture": "栃木県",
    "city": "真岡市",
    "town": "西沼"
  },
  "3214325": {
    "zipcode": "3214325",
    "prefectureCode": "09",
    "prefectureNumber": 9,
    "prefecture": "栃木県",
    "city": "真岡市",
    "town": "田町"
  },
  "3214326": {
    "zipcode": "3214326",
    "prefectureCode": "09",
    "prefectureNumber": 9,
    "prefecture": "栃木県",
    "city": "真岡市",
    "town": "島"
  },
  "3214331": {
    "zipcode": "3214331",
    "prefectureCode": "09",
    "prefectureNumber": 9,
    "prefecture": "栃木県",
    "city": "真岡市",
    "town": "白布ケ丘"
  },
  "3214332": {
    "zipcode": "3214332",
    "prefectureCode": "09",
    "prefectureNumber": 9,
    "prefecture": "栃木県",
    "city": "真岡市",
    "town": "大谷新町"
  },
  "3214333": {
    "zipcode": "3214333",
    "prefectureCode": "09",
    "prefectureNumber": 9,
    "prefecture": "栃木県",
    "city": "真岡市",
    "town": "大谷本町"
  },
  "3214334": {
    "zipcode": "3214334",
    "prefectureCode": "09",
    "prefectureNumber": 9,
    "prefecture": "栃木県",
    "city": "真岡市",
    "town": "八木岡"
  },
  "3214335": {
    "zipcode": "3214335",
    "prefectureCode": "09",
    "prefectureNumber": 9,
    "prefecture": "栃木県",
    "city": "真岡市",
    "town": "下高間木"
  },
  "3214336": {
    "zipcode": "3214336",
    "prefectureCode": "09",
    "prefectureNumber": 9,
    "prefecture": "栃木県",
    "city": "真岡市",
    "town": "西高間木"
  },
  "3214337": {
    "zipcode": "3214337",
    "prefectureCode": "09",
    "prefectureNumber": 9,
    "prefecture": "栃木県",
    "city": "真岡市",
    "town": "上高間木"
  },
  "3214338": {
    "zipcode": "3214338",
    "prefectureCode": "09",
    "prefectureNumber": 9,
    "prefecture": "栃木県",
    "city": "真岡市",
    "town": "大谷台町"
  },
  "3214341": {
    "zipcode": "3214341",
    "prefectureCode": "09",
    "prefectureNumber": 9,
    "prefecture": "栃木県",
    "city": "真岡市",
    "town": "高勢町"
  },
  "3214342": {
    "zipcode": "3214342",
    "prefectureCode": "09",
    "prefectureNumber": 9,
    "prefecture": "栃木県",
    "city": "真岡市",
    "town": "伊勢崎"
  },
  "3214343": {
    "zipcode": "3214343",
    "prefectureCode": "09",
    "prefectureNumber": 9,
    "prefecture": "栃木県",
    "city": "真岡市",
    "town": "小橋"
  },
  "3214344": {
    "zipcode": "3214344",
    "prefectureCode": "09",
    "prefectureNumber": 9,
    "prefecture": "栃木県",
    "city": "真岡市",
    "town": "茅堤"
  },
  "3214345": {
    "zipcode": "3214345",
    "prefectureCode": "09",
    "prefectureNumber": 9,
    "prefecture": "栃木県",
    "city": "真岡市",
    "town": "寺内"
  },
  "3214346": {
    "zipcode": "3214346",
    "prefectureCode": "09",
    "prefectureNumber": 9,
    "prefecture": "栃木県",
    "city": "真岡市",
    "town": "松山町"
  },
  "3214347": {
    "zipcode": "3214347",
    "prefectureCode": "09",
    "prefectureNumber": 9,
    "prefecture": "栃木県",
    "city": "真岡市",
    "town": "加倉"
  },
  "3214351": {
    "zipcode": "3214351",
    "prefectureCode": "09",
    "prefectureNumber": 9,
    "prefecture": "栃木県",
    "city": "真岡市",
    "town": "中"
  },
  "3214352": {
    "zipcode": "3214352",
    "prefectureCode": "09",
    "prefectureNumber": 9,
    "prefecture": "栃木県",
    "city": "真岡市",
    "town": "若旅（その他）"
  },
  "3214353": {
    "zipcode": "3214353",
    "prefectureCode": "09",
    "prefectureNumber": 9,
    "prefecture": "栃木県",
    "city": "真岡市",
    "town": "粕田"
  },
  "3214354": {
    "zipcode": "3214354",
    "prefectureCode": "09",
    "prefectureNumber": 9,
    "prefecture": "栃木県",
    "city": "真岡市",
    "town": "寺分"
  },
  "3214355": {
    "zipcode": "3214355",
    "prefectureCode": "09",
    "prefectureNumber": 9,
    "prefecture": "栃木県",
    "city": "真岡市",
    "town": "上大沼"
  },
  "3214356": {
    "zipcode": "3214356",
    "prefectureCode": "09",
    "prefectureNumber": 9,
    "prefecture": "栃木県",
    "city": "真岡市",
    "town": "大沼"
  },
  "3214357": {
    "zipcode": "3214357",
    "prefectureCode": "09",
    "prefectureNumber": 9,
    "prefecture": "栃木県",
    "city": "真岡市",
    "town": "下大沼"
  },
  "3214361": {
    "zipcode": "3214361",
    "prefectureCode": "09",
    "prefectureNumber": 9,
    "prefecture": "栃木県",
    "city": "真岡市",
    "town": "並木町"
  },
  "3214362": {
    "zipcode": "3214362",
    "prefectureCode": "09",
    "prefectureNumber": 9,
    "prefecture": "栃木県",
    "city": "真岡市",
    "town": "熊倉町"
  },
  "3214363": {
    "zipcode": "3214363",
    "prefectureCode": "09",
    "prefectureNumber": 9,
    "prefecture": "栃木県",
    "city": "真岡市",
    "town": "亀山"
  },
  "3214364": {
    "zipcode": "3214364",
    "prefectureCode": "09",
    "prefectureNumber": 9,
    "prefecture": "栃木県",
    "city": "真岡市",
    "town": "長田"
  },
  "3214365": {
    "zipcode": "3214365",
    "prefectureCode": "09",
    "prefectureNumber": 9,
    "prefecture": "栃木県",
    "city": "真岡市",
    "town": "柳林"
  },
  "3214366": {
    "zipcode": "3214366",
    "prefectureCode": "09",
    "prefectureNumber": 9,
    "prefecture": "栃木県",
    "city": "真岡市",
    "town": "勝瓜"
  },
  "3214367": {
    "zipcode": "3214367",
    "prefectureCode": "09",
    "prefectureNumber": 9,
    "prefecture": "栃木県",
    "city": "真岡市",
    "town": "鬼怒ケ丘"
  },
  "3214368": {
    "zipcode": "3214368",
    "prefectureCode": "09",
    "prefectureNumber": 9,
    "prefecture": "栃木県",
    "city": "真岡市",
    "town": "寺久保"
  },
  "3214369": {
    "zipcode": "3214369",
    "prefectureCode": "09",
    "prefectureNumber": 9,
    "prefecture": "栃木県",
    "city": "真岡市",
    "town": "熊倉"
  },
  "3214401": {
    "zipcode": "3214401",
    "prefectureCode": "09",
    "prefectureNumber": 9,
    "prefecture": "栃木県",
    "city": "真岡市",
    "town": "赤羽"
  },
  "3214402": {
    "zipcode": "3214402",
    "prefectureCode": "09",
    "prefectureNumber": 9,
    "prefecture": "栃木県",
    "city": "真岡市",
    "town": "清水"
  },
  "3214403": {
    "zipcode": "3214403",
    "prefectureCode": "09",
    "prefectureNumber": 9,
    "prefecture": "栃木県",
    "city": "真岡市",
    "town": "原町"
  },
  "3214404": {
    "zipcode": "3214404",
    "prefectureCode": "09",
    "prefectureNumber": 9,
    "prefecture": "栃木県",
    "city": "真岡市",
    "town": "田島"
  },
  "3214405": {
    "zipcode": "3214405",
    "prefectureCode": "09",
    "prefectureNumber": 9,
    "prefecture": "栃木県",
    "city": "真岡市",
    "town": "飯貝"
  },
  "3214406": {
    "zipcode": "3214406",
    "prefectureCode": "09",
    "prefectureNumber": 9,
    "prefecture": "栃木県",
    "city": "真岡市",
    "town": "京泉"
  },
  "3214411": {
    "zipcode": "3214411",
    "prefectureCode": "09",
    "prefectureNumber": 9,
    "prefecture": "栃木県",
    "city": "真岡市",
    "town": "上大田和"
  },
  "3214412": {
    "zipcode": "3214412",
    "prefectureCode": "09",
    "prefectureNumber": 9,
    "prefecture": "栃木県",
    "city": "真岡市",
    "town": "堀内"
  },
  "3214413": {
    "zipcode": "3214413",
    "prefectureCode": "09",
    "prefectureNumber": 9,
    "prefecture": "栃木県",
    "city": "真岡市",
    "town": "下大田和"
  },
  "3214414": {
    "zipcode": "3214414",
    "prefectureCode": "09",
    "prefectureNumber": 9,
    "prefecture": "栃木県",
    "city": "真岡市",
    "town": "下鷺谷"
  },
  "3214415": {
    "zipcode": "3214415",
    "prefectureCode": "09",
    "prefectureNumber": 9,
    "prefecture": "栃木県",
    "city": "真岡市",
    "town": "下籠谷"
  },
  "3214416": {
    "zipcode": "3214416",
    "prefectureCode": "09",
    "prefectureNumber": 9,
    "prefecture": "栃木県",
    "city": "真岡市",
    "town": "上鷺谷"
  },
  "3214501": {
    "zipcode": "3214501",
    "prefectureCode": "09",
    "prefectureNumber": 9,
    "prefecture": "栃木県",
    "city": "真岡市",
    "town": "横田"
  },
  "3214502": {
    "zipcode": "3214502",
    "prefectureCode": "09",
    "prefectureNumber": 9,
    "prefecture": "栃木県",
    "city": "真岡市",
    "town": "物井"
  },
  "3214503": {
    "zipcode": "3214503",
    "prefectureCode": "09",
    "prefectureNumber": 9,
    "prefecture": "栃木県",
    "city": "真岡市",
    "town": "桑ノ川"
  },
  "3214504": {
    "zipcode": "3214504",
    "prefectureCode": "09",
    "prefectureNumber": 9,
    "prefecture": "栃木県",
    "city": "真岡市",
    "town": "鹿"
  },
  "3214505": {
    "zipcode": "3214505",
    "prefectureCode": "09",
    "prefectureNumber": 9,
    "prefecture": "栃木県",
    "city": "真岡市",
    "town": "沖"
  },
  "3214506": {
    "zipcode": "3214506",
    "prefectureCode": "09",
    "prefectureNumber": 9,
    "prefecture": "栃木県",
    "city": "真岡市",
    "town": "大根田"
  },
  "3214507": {
    "zipcode": "3214507",
    "prefectureCode": "09",
    "prefectureNumber": 9,
    "prefecture": "栃木県",
    "city": "真岡市",
    "town": "石島"
  },
  "3214508": {
    "zipcode": "3214508",
    "prefectureCode": "09",
    "prefectureNumber": 9,
    "prefecture": "栃木県",
    "city": "真岡市",
    "town": "大和田"
  },
  "3214511": {
    "zipcode": "3214511",
    "prefectureCode": "09",
    "prefectureNumber": 9,
    "prefecture": "栃木県",
    "city": "真岡市",
    "town": "高田"
  },
  "3214512": {
    "zipcode": "3214512",
    "prefectureCode": "09",
    "prefectureNumber": 9,
    "prefecture": "栃木県",
    "city": "真岡市",
    "town": "阿部岡"
  },
  "3214513": {
    "zipcode": "3214513",
    "prefectureCode": "09",
    "prefectureNumber": 9,
    "prefecture": "栃木県",
    "city": "真岡市",
    "town": "三谷"
  },
  "3214514": {
    "zipcode": "3214514",
    "prefectureCode": "09",
    "prefectureNumber": 9,
    "prefecture": "栃木県",
    "city": "真岡市",
    "town": "水戸部"
  },
  "3214515": {
    "zipcode": "3214515",
    "prefectureCode": "09",
    "prefectureNumber": 9,
    "prefecture": "栃木県",
    "city": "真岡市",
    "town": "反町"
  },
  "3214516": {
    "zipcode": "3214516",
    "prefectureCode": "09",
    "prefectureNumber": 9,
    "prefecture": "栃木県",
    "city": "真岡市",
    "town": "根小屋"
  },
  "3214517": {
    "zipcode": "3214517",
    "prefectureCode": "09",
    "prefectureNumber": 9,
    "prefecture": "栃木県",
    "city": "真岡市",
    "town": "阿部品"
  },
  "3214521": {
    "zipcode": "3214521",
    "prefectureCode": "09",
    "prefectureNumber": 9,
    "prefecture": "栃木県",
    "city": "真岡市",
    "town": "久下田"
  },
  "3214522": {
    "zipcode": "3214522",
    "prefectureCode": "09",
    "prefectureNumber": 9,
    "prefecture": "栃木県",
    "city": "真岡市",
    "town": "久下田西"
  },
  "3214523": {
    "zipcode": "3214523",
    "prefectureCode": "09",
    "prefectureNumber": 9,
    "prefecture": "栃木県",
    "city": "真岡市",
    "town": "さくら"
  },
  "3214531": {
    "zipcode": "3214531",
    "prefectureCode": "09",
    "prefectureNumber": 9,
    "prefecture": "栃木県",
    "city": "真岡市",
    "town": "青田"
  },
  "3214532": {
    "zipcode": "3214532",
    "prefectureCode": "09",
    "prefectureNumber": 9,
    "prefecture": "栃木県",
    "city": "真岡市",
    "town": "長島"
  },
  "3214533": {
    "zipcode": "3214533",
    "prefectureCode": "09",
    "prefectureNumber": 9,
    "prefecture": "栃木県",
    "city": "真岡市",
    "town": "程島"
  },
  "3214534": {
    "zipcode": "3214534",
    "prefectureCode": "09",
    "prefectureNumber": 9,
    "prefecture": "栃木県",
    "city": "真岡市",
    "town": "境"
  },
  "3214535": {
    "zipcode": "3214535",
    "prefectureCode": "09",
    "prefectureNumber": 9,
    "prefecture": "栃木県",
    "city": "真岡市",
    "town": "古山"
  },
  "3214536": {
    "zipcode": "3214536",
    "prefectureCode": "09",
    "prefectureNumber": 9,
    "prefecture": "栃木県",
    "city": "真岡市",
    "town": "上江連"
  },
  "3214537": {
    "zipcode": "3214537",
    "prefectureCode": "09",
    "prefectureNumber": 9,
    "prefecture": "栃木県",
    "city": "真岡市",
    "town": "西大島"
  },
  "3214538": {
    "zipcode": "3214538",
    "prefectureCode": "09",
    "prefectureNumber": 9,
    "prefecture": "栃木県",
    "city": "真岡市",
    "town": "鷲巣"
  },
  "3214539": {
    "zipcode": "3214539",
    "prefectureCode": "09",
    "prefectureNumber": 9,
    "prefecture": "栃木県",
    "city": "真岡市",
    "town": "長沼"
  },
  "3214541": {
    "zipcode": "3214541",
    "prefectureCode": "09",
    "prefectureNumber": 9,
    "prefecture": "栃木県",
    "city": "真岡市",
    "town": "上谷貝"
  },
  "3214542": {
    "zipcode": "3214542",
    "prefectureCode": "09",
    "prefectureNumber": 9,
    "prefecture": "栃木県",
    "city": "真岡市",
    "town": "上大曽"
  },
  "3214543": {
    "zipcode": "3214543",
    "prefectureCode": "09",
    "prefectureNumber": 9,
    "prefecture": "栃木県",
    "city": "真岡市",
    "town": "下大曽"
  },
  "3214544": {
    "zipcode": "3214544",
    "prefectureCode": "09",
    "prefectureNumber": 9,
    "prefecture": "栃木県",
    "city": "真岡市",
    "town": "堀込"
  },
  "3214545": {
    "zipcode": "3214545",
    "prefectureCode": "09",
    "prefectureNumber": 9,
    "prefecture": "栃木県",
    "city": "真岡市",
    "town": "大道泉"
  },
  "3214546": {
    "zipcode": "3214546",
    "prefectureCode": "09",
    "prefectureNumber": 9,
    "prefecture": "栃木県",
    "city": "真岡市",
    "town": "砂ケ原"
  },
  "3214547": {
    "zipcode": "3214547",
    "prefectureCode": "09",
    "prefectureNumber": 9,
    "prefecture": "栃木県",
    "city": "真岡市",
    "town": "谷貝新田"
  },
  "3214551": {
    "zipcode": "3214551",
    "prefectureCode": "09",
    "prefectureNumber": 9,
    "prefecture": "栃木県",
    "city": "真岡市",
    "town": "若旅（五丁歩）"
  }
}
