{
  "3230000": {
    "zipcode": "3230000",
    "prefectureCode": "09",
    "prefectureNumber": 9,
    "prefecture": "栃木県",
    "city": "小山市",
    "town": "以下に掲載がない場合"
  },
  "3230001": {
    "zipcode": "3230001",
    "prefectureCode": "09",
    "prefectureNumber": 9,
    "prefecture": "栃木県",
    "city": "小山市",
    "town": "小宅"
  },
  "3230002": {
    "zipcode": "3230002",
    "prefectureCode": "09",
    "prefectureNumber": 9,
    "prefecture": "栃木県",
    "city": "小山市",
    "town": "黒本"
  },
  "3230003": {
    "zipcode": "3230003",
    "prefectureCode": "09",
    "prefectureNumber": 9,
    "prefecture": "栃木県",
    "city": "小山市",
    "town": "東島田"
  },
  "3230004": {
    "zipcode": "3230004",
    "prefectureCode": "09",
    "prefectureNumber": 9,
    "prefecture": "栃木県",
    "city": "小山市",
    "town": "島田"
  },
  "3230005": {
    "zipcode": "3230005",
    "prefectureCode": "09",
    "prefectureNumber": 9,
    "prefecture": "栃木県",
    "city": "小山市",
    "town": "渋井"
  },
  "3230006": {
    "zipcode": "3230006",
    "prefectureCode": "09",
    "prefectureNumber": 9,
    "prefecture": "栃木県",
    "city": "小山市",
    "town": "荒川"
  },
  "3230007": {
    "zipcode": "3230007",
    "prefectureCode": "09",
    "prefectureNumber": 9,
    "prefecture": "栃木県",
    "city": "小山市",
    "town": "松沼"
  },
  "3230008": {
    "zipcode": "3230008",
    "prefectureCode": "09",
    "prefectureNumber": 9,
    "prefecture": "栃木県",
    "city": "小山市",
    "town": "小薬"
  },
  "3230009": {
    "zipcode": "3230009",
    "prefectureCode": "09",
    "prefectureNumber": 9,
    "prefecture": "栃木県",
    "city": "小山市",
    "town": "大本"
  },
  "3230011": {
    "zipcode": "3230011",
    "prefectureCode": "09",
    "prefectureNumber": 9,
    "prefecture": "栃木県",
    "city": "小山市",
    "town": "南半田"
  },
  "3230012": {
    "zipcode": "3230012",
    "prefectureCode": "09",
    "prefectureNumber": 9,
    "prefecture": "栃木県",
    "city": "小山市",
    "town": "羽川"
  },
  "3230013": {
    "zipcode": "3230013",
    "prefectureCode": "09",
    "prefectureNumber": 9,
    "prefecture": "栃木県",
    "city": "小山市",
    "town": "荒井"
  },
  "3230014": {
    "zipcode": "3230014",
    "prefectureCode": "09",
    "prefectureNumber": 9,
    "prefecture": "栃木県",
    "city": "小山市",
    "town": "喜沢"
  },
  "3230015": {
    "zipcode": "3230015",
    "prefectureCode": "09",
    "prefectureNumber": 9,
    "prefecture": "栃木県",
    "city": "小山市",
    "town": "三拝川岸"
  },
  "3230016": {
    "zipcode": "3230016",
    "prefectureCode": "09",
    "prefectureNumber": 9,
    "prefecture": "栃木県",
    "city": "小山市",
    "town": "扶桑"
  },
  "3230017": {
    "zipcode": "3230017",
    "prefectureCode": "09",
    "prefectureNumber": 9,
    "prefecture": "栃木県",
    "city": "小山市",
    "town": "飯塚"
  },
  "3230021": {
    "zipcode": "3230021",
    "prefectureCode": "09",
    "prefectureNumber": 9,
    "prefecture": "栃木県",
    "city": "小山市",
    "town": "稲葉郷"
  },
  "3230022": {
    "zipcode": "3230022",
    "prefectureCode": "09",
    "prefectureNumber": 9,
    "prefecture": "栃木県",
    "city": "小山市",
    "town": "駅東通り"
  },
  "3230023": {
    "zipcode": "3230023",
    "prefectureCode": "09",
    "prefectureNumber": 9,
    "prefecture": "栃木県",
    "city": "小山市",
    "town": "中央町"
  },
  "3230024": {
    "zipcode": "3230024",
    "prefectureCode": "09",
    "prefectureNumber": 9,
    "prefecture": "栃木県",
    "city": "小山市",
    "town": "宮本町"
  },
  "3230025": {
    "zipcode": "3230025",
    "prefectureCode": "09",
    "prefectureNumber": 9,
    "prefecture": "栃木県",
    "city": "小山市",
    "town": "城山町"
  },
  "3230026": {
    "zipcode": "3230026",
    "prefectureCode": "09",
    "prefectureNumber": 9,
    "prefecture": "栃木県",
    "city": "小山市",
    "town": "本郷町"
  },
  "3230027": {
    "zipcode": "3230027",
    "prefectureCode": "09",
    "prefectureNumber": 9,
    "prefecture": "栃木県",
    "city": "小山市",
    "town": "花垣町"
  },
  "3230028": {
    "zipcode": "3230028",
    "prefectureCode": "09",
    "prefectureNumber": 9,
    "prefecture": "栃木県",
    "city": "小山市",
    "town": "若木町"
  },
  "3230029": {
    "zipcode": "3230029",
    "prefectureCode": "09",
    "prefectureNumber": 9,
    "prefecture": "栃木県",
    "city": "小山市",
    "town": "城北"
  },
  "3230031": {
    "zipcode": "3230031",
    "prefectureCode": "09",
    "prefectureNumber": 9,
    "prefecture": "栃木県",
    "city": "小山市",
    "town": "八幡町"
  },
  "3230032": {
    "zipcode": "3230032",
    "prefectureCode": "09",
    "prefectureNumber": 9,
    "prefecture": "栃木県",
    "city": "小山市",
    "town": "天神町"
  },
  "3230033": {
    "zipcode": "3230033",
    "prefectureCode": "09",
    "prefectureNumber": 9,
    "prefecture": "栃木県",
    "city": "小山市",
    "town": "神明町"
  },
  "3230034": {
    "zipcode": "3230034",
    "prefectureCode": "09",
    "prefectureNumber": 9,
    "prefecture": "栃木県",
    "city": "小山市",
    "town": "神鳥谷（丁目）"
  },
  "3230041": {
    "zipcode": "3230041",
    "prefectureCode": "09",
    "prefectureNumber": 9,
    "prefecture": "栃木県",
    "city": "小山市",
    "town": "大行寺"
  },
  "3230042": {
    "zipcode": "3230042",
    "prefectureCode": "09",
    "prefectureNumber": 9,
    "prefecture": "栃木県",
    "city": "小山市",
    "town": "外城"
  },
  "3230043": {
    "zipcode": "3230043",
    "prefectureCode": "09",
    "prefectureNumber": 9,
    "prefecture": "栃木県",
    "city": "小山市",
    "town": "塩沢"
  },
  "3230044": {
    "zipcode": "3230044",
    "prefectureCode": "09",
    "prefectureNumber": 9,
    "prefecture": "栃木県",
    "city": "小山市",
    "town": "間中"
  },
  "3230045": {
    "zipcode": "3230045",
    "prefectureCode": "09",
    "prefectureNumber": 9,
    "prefecture": "栃木県",
    "city": "小山市",
    "town": "石ノ上"
  },
  "3230046": {
    "zipcode": "3230046",
    "prefectureCode": "09",
    "prefectureNumber": 9,
    "prefecture": "栃木県",
    "city": "小山市",
    "town": "萩島"
  },
  "3230051": {
    "zipcode": "3230051",
    "prefectureCode": "09",
    "prefectureNumber": 9,
    "prefecture": "栃木県",
    "city": "小山市",
    "town": "生駒"
  },
  "3230052": {
    "zipcode": "3230052",
    "prefectureCode": "09",
    "prefectureNumber": 9,
    "prefecture": "栃木県",
    "city": "小山市",
    "town": "下河原田"
  },
  "3230053": {
    "zipcode": "3230053",
    "prefectureCode": "09",
    "prefectureNumber": 9,
    "prefecture": "栃木県",
    "city": "小山市",
    "town": "小袋"
  },
  "3230054": {
    "zipcode": "3230054",
    "prefectureCode": "09",
    "prefectureNumber": 9,
    "prefecture": "栃木県",
    "city": "小山市",
    "town": "井岡"
  },
  "3230055": {
    "zipcode": "3230055",
    "prefectureCode": "09",
    "prefectureNumber": 9,
    "prefecture": "栃木県",
    "city": "小山市",
    "town": "下泉"
  },
  "3230056": {
    "zipcode": "3230056",
    "prefectureCode": "09",
    "prefectureNumber": 9,
    "prefecture": "栃木県",
    "city": "小山市",
    "town": "上泉"
  },
  "3230057": {
    "zipcode": "3230057",
    "prefectureCode": "09",
    "prefectureNumber": 9,
    "prefecture": "栃木県",
    "city": "小山市",
    "town": "南小林"
  },
  "3230058": {
    "zipcode": "3230058",
    "prefectureCode": "09",
    "prefectureNumber": 9,
    "prefecture": "栃木県",
    "city": "小山市",
    "town": "大川島"
  },
  "3230060": {
    "zipcode": "3230060",
    "prefectureCode": "09",
    "prefectureNumber": 9,
    "prefecture": "栃木県",
    "city": "小山市",
    "town": "城西"
  },
  "3230061": {
    "zipcode": "3230061",
    "prefectureCode": "09",
    "prefectureNumber": 9,
    "prefecture": "栃木県",
    "city": "小山市",
    "town": "卒島"
  },
  "3230062": {
    "zipcode": "3230062",
    "prefectureCode": "09",
    "prefectureNumber": 9,
    "prefecture": "栃木県",
    "city": "小山市",
    "town": "立木"
  },
  "3230063": {
    "zipcode": "3230063",
    "prefectureCode": "09",
    "prefectureNumber": 9,
    "prefecture": "栃木県",
    "city": "小山市",
    "town": "上石塚"
  },
  "3230064": {
    "zipcode": "3230064",
    "prefectureCode": "09",
    "prefectureNumber": 9,
    "prefecture": "栃木県",
    "city": "小山市",
    "town": "下石塚"
  },
  "3230065": {
    "zipcode": "3230065",
    "prefectureCode": "09",
    "prefectureNumber": 9,
    "prefecture": "栃木県",
    "city": "小山市",
    "town": "下国府塚"
  },
  "3230066": {
    "zipcode": "3230066",
    "prefectureCode": "09",
    "prefectureNumber": 9,
    "prefecture": "栃木県",
    "city": "小山市",
    "town": "上国府塚"
  },
  "3230067": {
    "zipcode": "3230067",
    "prefectureCode": "09",
    "prefectureNumber": 9,
    "prefecture": "栃木県",
    "city": "小山市",
    "town": "今里"
  },
  "3230068": {
    "zipcode": "3230068",
    "prefectureCode": "09",
    "prefectureNumber": 9,
    "prefecture": "栃木県",
    "city": "小山市",
    "town": "下初田"
  },
  "3230069": {
    "zipcode": "3230069",
    "prefectureCode": "09",
    "prefectureNumber": 9,
    "prefecture": "栃木県",
    "city": "小山市",
    "town": "上初田"
  },
  "3230101": {
    "zipcode": "3230101",
    "prefectureCode": "09",
    "prefectureNumber": 9,
    "prefecture": "栃木県",
    "city": "下野市",
    "town": "三王山"
  },
  "3230102": {
    "zipcode": "3230102",
    "prefectureCode": "09",
    "prefectureNumber": 9,
    "prefecture": "栃木県",
    "city": "下野市",
    "town": "上吉田"
  },
  "3230103": {
    "zipcode": "3230103",
    "prefectureCode": "09",
    "prefectureNumber": 9,
    "prefecture": "栃木県",
    "city": "下野市",
    "town": "上川島"
  },
  "3230104": {
    "zipcode": "3230104",
    "prefectureCode": "09",
    "prefectureNumber": 9,
    "prefecture": "栃木県",
    "city": "下野市",
    "town": "中川島"
  },
  "3230105": {
    "zipcode": "3230105",
    "prefectureCode": "09",
    "prefectureNumber": 9,
    "prefecture": "栃木県",
    "city": "下野市",
    "town": "本吉田"
  },
  "3230106": {
    "zipcode": "3230106",
    "prefectureCode": "09",
    "prefectureNumber": 9,
    "prefecture": "栃木県",
    "city": "下野市",
    "town": "下吉田"
  },
  "3230107": {
    "zipcode": "3230107",
    "prefectureCode": "09",
    "prefectureNumber": 9,
    "prefecture": "栃木県",
    "city": "下野市",
    "town": "別当河原"
  },
  "3230111": {
    "zipcode": "3230111",
    "prefectureCode": "09",
    "prefectureNumber": 9,
    "prefecture": "栃木県",
    "city": "下野市",
    "town": "磯部"
  },
  "3230112": {
    "zipcode": "3230112",
    "prefectureCode": "09",
    "prefectureNumber": 9,
    "prefecture": "栃木県",
    "city": "下野市",
    "town": "東根"
  },
  "3230113": {
    "zipcode": "3230113",
    "prefectureCode": "09",
    "prefectureNumber": 9,
    "prefecture": "栃木県",
    "city": "下野市",
    "town": "上坪山"
  },
  "3230114": {
    "zipcode": "3230114",
    "prefectureCode": "09",
    "prefectureNumber": 9,
    "prefecture": "栃木県",
    "city": "下野市",
    "town": "絹板"
  },
  "3230115": {
    "zipcode": "3230115",
    "prefectureCode": "09",
    "prefectureNumber": 9,
    "prefecture": "栃木県",
    "city": "下野市",
    "town": "下坪山"
  },
  "3230116": {
    "zipcode": "3230116",
    "prefectureCode": "09",
    "prefectureNumber": 9,
    "prefecture": "栃木県",
    "city": "下野市",
    "town": "花田"
  },
  "3230151": {
    "zipcode": "3230151",
    "prefectureCode": "09",
    "prefectureNumber": 9,
    "prefecture": "栃木県",
    "city": "小山市",
    "town": "田川"
  },
  "3230152": {
    "zipcode": "3230152",
    "prefectureCode": "09",
    "prefectureNumber": 9,
    "prefecture": "栃木県",
    "city": "小山市",
    "town": "延島"
  },
  "3230153": {
    "zipcode": "3230153",
    "prefectureCode": "09",
    "prefectureNumber": 9,
    "prefecture": "栃木県",
    "city": "小山市",
    "town": "延島新田"
  },
  "3230154": {
    "zipcode": "3230154",
    "prefectureCode": "09",
    "prefectureNumber": 9,
    "prefecture": "栃木県",
    "city": "小山市",
    "town": "高椅"
  },
  "3230155": {
    "zipcode": "3230155",
    "prefectureCode": "09",
    "prefectureNumber": 9,
    "prefecture": "栃木県",
    "city": "小山市",
    "town": "福良"
  },
  "3230156": {
    "zipcode": "3230156",
    "prefectureCode": "09",
    "prefectureNumber": 9,
    "prefecture": "栃木県",
    "city": "小山市",
    "town": "中島"
  },
  "3230157": {
    "zipcode": "3230157",
    "prefectureCode": "09",
    "prefectureNumber": 9,
    "prefecture": "栃木県",
    "city": "小山市",
    "town": "中河原"
  },
  "3230158": {
    "zipcode": "3230158",
    "prefectureCode": "09",
    "prefectureNumber": 9,
    "prefecture": "栃木県",
    "city": "小山市",
    "town": "梁"
  },
  "3230801": {
    "zipcode": "3230801",
    "prefectureCode": "09",
    "prefectureNumber": 9,
    "prefecture": "栃木県",
    "city": "小山市",
    "town": "鉢形"
  },
  "3230802": {
    "zipcode": "3230802",
    "prefectureCode": "09",
    "prefectureNumber": 9,
    "prefecture": "栃木県",
    "city": "小山市",
    "town": "東山田"
  },
  "3230803": {
    "zipcode": "3230803",
    "prefectureCode": "09",
    "prefectureNumber": 9,
    "prefecture": "栃木県",
    "city": "小山市",
    "town": "北飯田"
  },
  "3230804": {
    "zipcode": "3230804",
    "prefectureCode": "09",
    "prefectureNumber": 9,
    "prefecture": "栃木県",
    "city": "小山市",
    "town": "萱橋"
  },
  "3230805": {
    "zipcode": "3230805",
    "prefectureCode": "09",
    "prefectureNumber": 9,
    "prefecture": "栃木県",
    "city": "小山市",
    "town": "向野"
  },
  "3230806": {
    "zipcode": "3230806",
    "prefectureCode": "09",
    "prefectureNumber": 9,
    "prefecture": "栃木県",
    "city": "小山市",
    "town": "中久喜"
  },
  "3230807": {
    "zipcode": "3230807",
    "prefectureCode": "09",
    "prefectureNumber": 9,
    "prefecture": "栃木県",
    "city": "小山市",
    "town": "城東"
  },
  "3230808": {
    "zipcode": "3230808",
    "prefectureCode": "09",
    "prefectureNumber": 9,
    "prefecture": "栃木県",
    "city": "小山市",
    "town": "出井"
  },
  "3230811": {
    "zipcode": "3230811",
    "prefectureCode": "09",
    "prefectureNumber": 9,
    "prefecture": "栃木県",
    "city": "小山市",
    "town": "犬塚"
  },
  "3230812": {
    "zipcode": "3230812",
    "prefectureCode": "09",
    "prefectureNumber": 9,
    "prefecture": "栃木県",
    "city": "小山市",
    "town": "土塔"
  },
  "3230813": {
    "zipcode": "3230813",
    "prefectureCode": "09",
    "prefectureNumber": 9,
    "prefecture": "栃木県",
    "city": "小山市",
    "town": "横倉"
  },
  "3230814": {
    "zipcode": "3230814",
    "prefectureCode": "09",
    "prefectureNumber": 9,
    "prefecture": "栃木県",
    "city": "小山市",
    "town": "田間"
  },
  "3230815": {
    "zipcode": "3230815",
    "prefectureCode": "09",
    "prefectureNumber": 9,
    "prefecture": "栃木県",
    "city": "小山市",
    "town": "武井"
  },
  "3230816": {
    "zipcode": "3230816",
    "prefectureCode": "09",
    "prefectureNumber": 9,
    "prefecture": "栃木県",
    "city": "小山市",
    "town": "南和泉"
  },
  "3230817": {
    "zipcode": "3230817",
    "prefectureCode": "09",
    "prefectureNumber": 9,
    "prefecture": "栃木県",
    "city": "小山市",
    "town": "東野田"
  },
  "3230818": {
    "zipcode": "3230818",
    "prefectureCode": "09",
    "prefectureNumber": 9,
    "prefecture": "栃木県",
    "city": "小山市",
    "town": "塚崎"
  },
  "3230819": {
    "zipcode": "3230819",
    "prefectureCode": "09",
    "prefectureNumber": 9,
    "prefecture": "栃木県",
    "city": "小山市",
    "town": "横倉新田"
  },
  "3230820": {
    "zipcode": "3230820",
    "prefectureCode": "09",
    "prefectureNumber": 9,
    "prefecture": "栃木県",
    "city": "小山市",
    "town": "西城南"
  },
  "3230821": {
    "zipcode": "3230821",
    "prefectureCode": "09",
    "prefectureNumber": 9,
    "prefecture": "栃木県",
    "city": "小山市",
    "town": "三峯"
  },
  "3230822": {
    "zipcode": "3230822",
    "prefectureCode": "09",
    "prefectureNumber": 9,
    "prefecture": "栃木県",
    "city": "小山市",
    "town": "駅南町"
  },
  "3230823": {
    "zipcode": "3230823",
    "prefectureCode": "09",
    "prefectureNumber": 9,
    "prefecture": "栃木県",
    "city": "小山市",
    "town": "向原新田"
  },
  "3230824": {
    "zipcode": "3230824",
    "prefectureCode": "09",
    "prefectureNumber": 9,
    "prefecture": "栃木県",
    "city": "小山市",
    "town": "雨ケ谷新田"
  },
  "3230825": {
    "zipcode": "3230825",
    "prefectureCode": "09",
    "prefectureNumber": 9,
    "prefecture": "栃木県",
    "city": "小山市",
    "town": "小山"
  },
  "3230826": {
    "zipcode": "3230826",
    "prefectureCode": "09",
    "prefectureNumber": 9,
    "prefecture": "栃木県",
    "city": "小山市",
    "town": "雨ケ谷"
  },
  "3230827": {
    "zipcode": "3230827",
    "prefectureCode": "09",
    "prefectureNumber": 9,
    "prefecture": "栃木県",
    "city": "小山市",
    "town": "神鳥谷（番地）"
  },
  "3230828": {
    "zipcode": "3230828",
    "prefectureCode": "09",
    "prefectureNumber": 9,
    "prefecture": "栃木県",
    "city": "小山市",
    "town": "神山"
  },
  "3230829": {
    "zipcode": "3230829",
    "prefectureCode": "09",
    "prefectureNumber": 9,
    "prefecture": "栃木県",
    "city": "小山市",
    "town": "東城南"
  },
  "3230831": {
    "zipcode": "3230831",
    "prefectureCode": "09",
    "prefectureNumber": 9,
    "prefecture": "栃木県",
    "city": "小山市",
    "town": "雨ケ谷町"
  },
  "3231101": {
    "zipcode": "3231101",
    "prefectureCode": "09",
    "prefectureNumber": 9,
    "prefecture": "栃木県",
    "city": "栃木市",
    "town": "藤岡町大前"
  },
  "3231102": {
    "zipcode": "3231102",
    "prefectureCode": "09",
    "prefectureNumber": 9,
    "prefecture": "栃木県",
    "city": "栃木市",
    "town": "藤岡町赤麻"
  },
  "3231103": {
    "zipcode": "3231103",
    "prefectureCode": "09",
    "prefectureNumber": 9,
    "prefecture": "栃木県",
    "city": "栃木市",
    "town": "藤岡町内野"
  },
  "3231104": {
    "zipcode": "3231104",
    "prefectureCode": "09",
    "prefectureNumber": 9,
    "prefecture": "栃木県",
    "city": "栃木市",
    "town": "藤岡町藤岡"
  },
  "3231105": {
    "zipcode": "3231105",
    "prefectureCode": "09",
    "prefectureNumber": 9,
    "prefecture": "栃木県",
    "city": "栃木市",
    "town": "藤岡町甲"
  },
  "3231106": {
    "zipcode": "3231106",
    "prefectureCode": "09",
    "prefectureNumber": 9,
    "prefecture": "栃木県",
    "city": "栃木市",
    "town": "藤岡町都賀"
  },
  "3231107": {
    "zipcode": "3231107",
    "prefectureCode": "09",
    "prefectureNumber": 9,
    "prefecture": "栃木県",
    "city": "栃木市",
    "town": "藤岡町大田和"
  },
  "3231108": {
    "zipcode": "3231108",
    "prefectureCode": "09",
    "prefectureNumber": 9,
    "prefecture": "栃木県",
    "city": "栃木市",
    "town": "藤岡町太田"
  }
}
