{
  "3290100": {
    "zipcode": "3290100",
    "prefectureCode": "09",
    "prefectureNumber": 9,
    "prefecture": "栃木県",
    "city": "下都賀郡野木町",
    "town": "以下に掲載がない場合"
  },
  "3290101": {
    "zipcode": "3290101",
    "prefectureCode": "09",
    "prefectureNumber": 9,
    "prefecture": "栃木県",
    "city": "下都賀郡野木町",
    "town": "友沼"
  },
  "3290102": {
    "zipcode": "3290102",
    "prefectureCode": "09",
    "prefectureNumber": 9,
    "prefecture": "栃木県",
    "city": "下都賀郡野木町",
    "town": "潤島"
  },
  "3290103": {
    "zipcode": "3290103",
    "prefectureCode": "09",
    "prefectureNumber": 9,
    "prefecture": "栃木県",
    "city": "下都賀郡野木町",
    "town": "若林"
  },
  "3290104": {
    "zipcode": "3290104",
    "prefectureCode": "09",
    "prefectureNumber": 9,
    "prefecture": "栃木県",
    "city": "下都賀郡野木町",
    "town": "佐川野"
  },
  "3290105": {
    "zipcode": "3290105",
    "prefectureCode": "09",
    "prefectureNumber": 9,
    "prefecture": "栃木県",
    "city": "下都賀郡野木町",
    "town": "川田"
  },
  "3290111": {
    "zipcode": "3290111",
    "prefectureCode": "09",
    "prefectureNumber": 9,
    "prefecture": "栃木県",
    "city": "下都賀郡野木町",
    "town": "丸林"
  },
  "3290112": {
    "zipcode": "3290112",
    "prefectureCode": "09",
    "prefectureNumber": 9,
    "prefecture": "栃木県",
    "city": "下都賀郡野木町",
    "town": "南赤塚"
  },
  "3290113": {
    "zipcode": "3290113",
    "prefectureCode": "09",
    "prefectureNumber": 9,
    "prefecture": "栃木県",
    "city": "下都賀郡野木町",
    "town": "中谷"
  },
  "3290114": {
    "zipcode": "3290114",
    "prefectureCode": "09",
    "prefectureNumber": 9,
    "prefecture": "栃木県",
    "city": "下都賀郡野木町",
    "town": "野木"
  },
  "3290115": {
    "zipcode": "3290115",
    "prefectureCode": "09",
    "prefectureNumber": 9,
    "prefecture": "栃木県",
    "city": "下都賀郡野木町",
    "town": "野渡"
  },
  "3290201": {
    "zipcode": "3290201",
    "prefectureCode": "09",
    "prefectureNumber": 9,
    "prefecture": "栃木県",
    "city": "小山市",
    "town": "粟宮"
  },
  "3290202": {
    "zipcode": "3290202",
    "prefectureCode": "09",
    "prefectureNumber": 9,
    "prefecture": "栃木県",
    "city": "小山市",
    "town": "千駄塚"
  },
  "3290203": {
    "zipcode": "3290203",
    "prefectureCode": "09",
    "prefectureNumber": 9,
    "prefecture": "栃木県",
    "city": "小山市",
    "town": "西黒田"
  },
  "3290204": {
    "zipcode": "3290204",
    "prefectureCode": "09",
    "prefectureNumber": 9,
    "prefecture": "栃木県",
    "city": "小山市",
    "town": "東黒田"
  },
  "3290205": {
    "zipcode": "3290205",
    "prefectureCode": "09",
    "prefectureNumber": 9,
    "prefecture": "栃木県",
    "city": "小山市",
    "town": "間々田"
  },
  "3290206": {
    "zipcode": "3290206",
    "prefectureCode": "09",
    "prefectureNumber": 9,
    "prefecture": "栃木県",
    "city": "小山市",
    "town": "東間々田"
  },
  "3290207": {
    "zipcode": "3290207",
    "prefectureCode": "09",
    "prefectureNumber": 9,
    "prefecture": "栃木県",
    "city": "小山市",
    "town": "美しが丘"
  },
  "3290211": {
    "zipcode": "3290211",
    "prefectureCode": "09",
    "prefectureNumber": 9,
    "prefecture": "栃木県",
    "city": "小山市",
    "town": "暁"
  },
  "3290212": {
    "zipcode": "3290212",
    "prefectureCode": "09",
    "prefectureNumber": 9,
    "prefecture": "栃木県",
    "city": "小山市",
    "town": "平和"
  },
  "3290213": {
    "zipcode": "3290213",
    "prefectureCode": "09",
    "prefectureNumber": 9,
    "prefecture": "栃木県",
    "city": "小山市",
    "town": "南飯田"
  },
  "3290214": {
    "zipcode": "3290214",
    "prefectureCode": "09",
    "prefectureNumber": 9,
    "prefecture": "栃木県",
    "city": "小山市",
    "town": "乙女"
  },
  "3290215": {
    "zipcode": "3290215",
    "prefectureCode": "09",
    "prefectureNumber": 9,
    "prefecture": "栃木県",
    "city": "小山市",
    "town": "網戸"
  },
  "3290216": {
    "zipcode": "3290216",
    "prefectureCode": "09",
    "prefectureNumber": 9,
    "prefecture": "栃木県",
    "city": "小山市",
    "town": "楢木"
  },
  "3290217": {
    "zipcode": "3290217",
    "prefectureCode": "09",
    "prefectureNumber": 9,
    "prefecture": "栃木県",
    "city": "小山市",
    "town": "南乙女"
  },
  "3290221": {
    "zipcode": "3290221",
    "prefectureCode": "09",
    "prefectureNumber": 9,
    "prefecture": "栃木県",
    "city": "小山市",
    "town": "生良"
  },
  "3290222": {
    "zipcode": "3290222",
    "prefectureCode": "09",
    "prefectureNumber": 9,
    "prefecture": "栃木県",
    "city": "小山市",
    "town": "上生井"
  },
  "3290223": {
    "zipcode": "3290223",
    "prefectureCode": "09",
    "prefectureNumber": 9,
    "prefecture": "栃木県",
    "city": "小山市",
    "town": "下生井"
  },
  "3290224": {
    "zipcode": "3290224",
    "prefectureCode": "09",
    "prefectureNumber": 9,
    "prefecture": "栃木県",
    "city": "小山市",
    "town": "白鳥"
  },
  "3290225": {
    "zipcode": "3290225",
    "prefectureCode": "09",
    "prefectureNumber": 9,
    "prefecture": "栃木県",
    "city": "小山市",
    "town": "迫間田"
  },
  "3290226": {
    "zipcode": "3290226",
    "prefectureCode": "09",
    "prefectureNumber": 9,
    "prefecture": "栃木県",
    "city": "小山市",
    "town": "寒川"
  },
  "3290227": {
    "zipcode": "3290227",
    "prefectureCode": "09",
    "prefectureNumber": 9,
    "prefecture": "栃木県",
    "city": "小山市",
    "town": "中里"
  },
  "3290228": {
    "zipcode": "3290228",
    "prefectureCode": "09",
    "prefectureNumber": 9,
    "prefecture": "栃木県",
    "city": "小山市",
    "town": "押切"
  },
  "3290229": {
    "zipcode": "3290229",
    "prefectureCode": "09",
    "prefectureNumber": 9,
    "prefecture": "栃木県",
    "city": "小山市",
    "town": "鏡"
  },
  "3290311": {
    "zipcode": "3290311",
    "prefectureCode": "09",
    "prefectureNumber": 9,
    "prefecture": "栃木県",
    "city": "栃木市",
    "town": "藤岡町富吉"
  },
  "3290312": {
    "zipcode": "3290312",
    "prefectureCode": "09",
    "prefectureNumber": 9,
    "prefecture": "栃木県",
    "city": "栃木市",
    "town": "藤岡町蛭沼"
  },
  "3290313": {
    "zipcode": "3290313",
    "prefectureCode": "09",
    "prefectureNumber": 9,
    "prefecture": "栃木県",
    "city": "栃木市",
    "town": "藤岡町緑川"
  },
  "3290314": {
    "zipcode": "3290314",
    "prefectureCode": "09",
    "prefectureNumber": 9,
    "prefecture": "栃木県",
    "city": "栃木市",
    "town": "藤岡町新波"
  },
  "3290315": {
    "zipcode": "3290315",
    "prefectureCode": "09",
    "prefectureNumber": 9,
    "prefecture": "栃木県",
    "city": "栃木市",
    "town": "藤岡町部屋"
  },
  "3290316": {
    "zipcode": "3290316",
    "prefectureCode": "09",
    "prefectureNumber": 9,
    "prefecture": "栃木県",
    "city": "栃木市",
    "town": "藤岡町石川"
  },
  "3290317": {
    "zipcode": "3290317",
    "prefectureCode": "09",
    "prefectureNumber": 9,
    "prefecture": "栃木県",
    "city": "栃木市",
    "town": "藤岡町帯刀"
  },
  "3290318": {
    "zipcode": "3290318",
    "prefectureCode": "09",
    "prefectureNumber": 9,
    "prefecture": "栃木県",
    "city": "栃木市",
    "town": "藤岡町西前原"
  },
  "3290319": {
    "zipcode": "3290319",
    "prefectureCode": "09",
    "prefectureNumber": 9,
    "prefecture": "栃木県",
    "city": "栃木市",
    "town": "藤岡町中根"
  },
  "3290400": {
    "zipcode": "3290400",
    "prefectureCode": "09",
    "prefectureNumber": 9,
    "prefecture": "栃木県",
    "city": "下野市",
    "town": "以下に掲載がない場合"
  },
  "3290401": {
    "zipcode": "3290401",
    "prefectureCode": "09",
    "prefectureNumber": 9,
    "prefecture": "栃木県",
    "city": "下野市",
    "town": "箕輪"
  },
  "3290402": {
    "zipcode": "3290402",
    "prefectureCode": "09",
    "prefectureNumber": 9,
    "prefecture": "栃木県",
    "city": "下野市",
    "town": "笹原"
  },
  "3290403": {
    "zipcode": "3290403",
    "prefectureCode": "09",
    "prefectureNumber": 9,
    "prefecture": "栃木県",
    "city": "下野市",
    "town": "医大前"
  },
  "3290411": {
    "zipcode": "3290411",
    "prefectureCode": "09",
    "prefectureNumber": 9,
    "prefecture": "栃木県",
    "city": "下野市",
    "town": "烏ケ森"
  },
  "3290412": {
    "zipcode": "3290412",
    "prefectureCode": "09",
    "prefectureNumber": 9,
    "prefecture": "栃木県",
    "city": "下野市",
    "town": "柴"
  },
  "3290413": {
    "zipcode": "3290413",
    "prefectureCode": "09",
    "prefectureNumber": 9,
    "prefecture": "栃木県",
    "city": "下野市",
    "town": "駅東"
  },
  "3290414": {
    "zipcode": "3290414",
    "prefectureCode": "09",
    "prefectureNumber": 9,
    "prefecture": "栃木県",
    "city": "下野市",
    "town": "小金井"
  },
  "3290415": {
    "zipcode": "3290415",
    "prefectureCode": "09",
    "prefectureNumber": 9,
    "prefecture": "栃木県",
    "city": "下野市",
    "town": "川中子"
  },
  "3290417": {
    "zipcode": "3290417",
    "prefectureCode": "09",
    "prefectureNumber": 9,
    "prefecture": "栃木県",
    "city": "下野市",
    "town": "国分寺"
  },
  "3290418": {
    "zipcode": "3290418",
    "prefectureCode": "09",
    "prefectureNumber": 9,
    "prefecture": "栃木県",
    "city": "下野市",
    "town": "紫"
  },
  "3290421": {
    "zipcode": "3290421",
    "prefectureCode": "09",
    "prefectureNumber": 9,
    "prefecture": "栃木県",
    "city": "下野市",
    "town": "成田"
  },
  "3290422": {
    "zipcode": "3290422",
    "prefectureCode": "09",
    "prefectureNumber": 9,
    "prefecture": "栃木県",
    "city": "下野市",
    "town": "町田"
  },
  "3290423": {
    "zipcode": "3290423",
    "prefectureCode": "09",
    "prefectureNumber": 9,
    "prefecture": "栃木県",
    "city": "下野市",
    "town": "谷地賀"
  },
  "3290424": {
    "zipcode": "3290424",
    "prefectureCode": "09",
    "prefectureNumber": 9,
    "prefecture": "栃木県",
    "city": "下野市",
    "town": "下文狹"
  },
  "3290425": {
    "zipcode": "3290425",
    "prefectureCode": "09",
    "prefectureNumber": 9,
    "prefecture": "栃木県",
    "city": "下野市",
    "town": "田中"
  },
  "3290431": {
    "zipcode": "3290431",
    "prefectureCode": "09",
    "prefectureNumber": 9,
    "prefecture": "栃木県",
    "city": "下野市",
    "town": "薬師寺"
  },
  "3290432": {
    "zipcode": "3290432",
    "prefectureCode": "09",
    "prefectureNumber": 9,
    "prefecture": "栃木県",
    "city": "下野市",
    "town": "仁良川"
  },
  "3290433": {
    "zipcode": "3290433",
    "prefectureCode": "09",
    "prefectureNumber": 9,
    "prefecture": "栃木県",
    "city": "下野市",
    "town": "緑"
  },
  "3290434": {
    "zipcode": "3290434",
    "prefectureCode": "09",
    "prefectureNumber": 9,
    "prefecture": "栃木県",
    "city": "下野市",
    "town": "祇園"
  },
  "3290501": {
    "zipcode": "3290501",
    "prefectureCode": "09",
    "prefectureNumber": 9,
    "prefecture": "栃木県",
    "city": "下野市",
    "town": "上古山"
  },
  "3290502": {
    "zipcode": "3290502",
    "prefectureCode": "09",
    "prefectureNumber": 9,
    "prefecture": "栃木県",
    "city": "下野市",
    "town": "下古山"
  },
  "3290503": {
    "zipcode": "3290503",
    "prefectureCode": "09",
    "prefectureNumber": 9,
    "prefecture": "栃木県",
    "city": "下野市",
    "town": "下長田"
  },
  "3290504": {
    "zipcode": "3290504",
    "prefectureCode": "09",
    "prefectureNumber": 9,
    "prefecture": "栃木県",
    "city": "下野市",
    "town": "上台"
  },
  "3290505": {
    "zipcode": "3290505",
    "prefectureCode": "09",
    "prefectureNumber": 9,
    "prefecture": "栃木県",
    "city": "下野市",
    "town": "細谷"
  },
  "3290506": {
    "zipcode": "3290506",
    "prefectureCode": "09",
    "prefectureNumber": 9,
    "prefecture": "栃木県",
    "city": "下野市",
    "town": "橋本"
  },
  "3290507": {
    "zipcode": "3290507",
    "prefectureCode": "09",
    "prefectureNumber": 9,
    "prefecture": "栃木県",
    "city": "下野市",
    "town": "文教"
  },
  "3290511": {
    "zipcode": "3290511",
    "prefectureCode": "09",
    "prefectureNumber": 9,
    "prefecture": "栃木県",
    "city": "下野市",
    "town": "石橋"
  },
  "3290512": {
    "zipcode": "3290512",
    "prefectureCode": "09",
    "prefectureNumber": 9,
    "prefecture": "栃木県",
    "city": "下野市",
    "town": "下石橋"
  },
  "3290513": {
    "zipcode": "3290513",
    "prefectureCode": "09",
    "prefectureNumber": 9,
    "prefecture": "栃木県",
    "city": "下野市",
    "town": "下大領"
  },
  "3290514": {
    "zipcode": "3290514",
    "prefectureCode": "09",
    "prefectureNumber": 9,
    "prefecture": "栃木県",
    "city": "下野市",
    "town": "東前原"
  },
  "3290515": {
    "zipcode": "3290515",
    "prefectureCode": "09",
    "prefectureNumber": 9,
    "prefecture": "栃木県",
    "city": "下野市",
    "town": "中大領"
  },
  "3290516": {
    "zipcode": "3290516",
    "prefectureCode": "09",
    "prefectureNumber": 9,
    "prefecture": "栃木県",
    "city": "下野市",
    "town": "大光寺"
  },
  "3290517": {
    "zipcode": "3290517",
    "prefectureCode": "09",
    "prefectureNumber": 9,
    "prefecture": "栃木県",
    "city": "下野市",
    "town": "上大領"
  },
  "3290518": {
    "zipcode": "3290518",
    "prefectureCode": "09",
    "prefectureNumber": 9,
    "prefecture": "栃木県",
    "city": "下野市",
    "town": "花の木"
  },
  "3290519": {
    "zipcode": "3290519",
    "prefectureCode": "09",
    "prefectureNumber": 9,
    "prefecture": "栃木県",
    "city": "下野市",
    "town": "大松山"
  },
  "3290521": {
    "zipcode": "3290521",
    "prefectureCode": "09",
    "prefectureNumber": 9,
    "prefecture": "栃木県",
    "city": "河内郡上三川町",
    "town": "石田"
  },
  "3290522": {
    "zipcode": "3290522",
    "prefectureCode": "09",
    "prefectureNumber": 9,
    "prefecture": "栃木県",
    "city": "河内郡上三川町",
    "town": "川中子"
  },
  "3290523": {
    "zipcode": "3290523",
    "prefectureCode": "09",
    "prefectureNumber": 9,
    "prefecture": "栃木県",
    "city": "河内郡上三川町",
    "town": "梁"
  },
  "3290524": {
    "zipcode": "3290524",
    "prefectureCode": "09",
    "prefectureNumber": 9,
    "prefecture": "栃木県",
    "city": "河内郡上三川町",
    "town": "多功"
  },
  "3290525": {
    "zipcode": "3290525",
    "prefectureCode": "09",
    "prefectureNumber": 9,
    "prefecture": "栃木県",
    "city": "河内郡上三川町",
    "town": "大山"
  },
  "3290526": {
    "zipcode": "3290526",
    "prefectureCode": "09",
    "prefectureNumber": 9,
    "prefecture": "栃木県",
    "city": "河内郡上三川町",
    "town": "鞘堂"
  },
  "3290527": {
    "zipcode": "3290527",
    "prefectureCode": "09",
    "prefectureNumber": 9,
    "prefecture": "栃木県",
    "city": "河内郡上三川町",
    "town": "上神主"
  },
  "3290528": {
    "zipcode": "3290528",
    "prefectureCode": "09",
    "prefectureNumber": 9,
    "prefecture": "栃木県",
    "city": "河内郡上三川町",
    "town": "ゆうきが丘"
  },
  "3290529": {
    "zipcode": "3290529",
    "prefectureCode": "09",
    "prefectureNumber": 9,
    "prefecture": "栃木県",
    "city": "河内郡上三川町",
    "town": "下神主"
  },
  "3290530": {
    "zipcode": "3290530",
    "prefectureCode": "09",
    "prefectureNumber": 9,
    "prefecture": "栃木県",
    "city": "河内郡上三川町",
    "town": "天神町"
  },
  "3290600": {
    "zipcode": "3290600",
    "prefectureCode": "09",
    "prefectureNumber": 9,
    "prefecture": "栃木県",
    "city": "河内郡上三川町",
    "town": "以下に掲載がない場合"
  },
  "3290601": {
    "zipcode": "3290601",
    "prefectureCode": "09",
    "prefectureNumber": 9,
    "prefecture": "栃木県",
    "city": "河内郡上三川町",
    "town": "上文挾"
  },
  "3290602": {
    "zipcode": "3290602",
    "prefectureCode": "09",
    "prefectureNumber": 9,
    "prefecture": "栃木県",
    "city": "河内郡上三川町",
    "town": "東汗"
  },
  "3290603": {
    "zipcode": "3290603",
    "prefectureCode": "09",
    "prefectureNumber": 9,
    "prefecture": "栃木県",
    "city": "河内郡上三川町",
    "town": "東蓼沼"
  },
  "3290604": {
    "zipcode": "3290604",
    "prefectureCode": "09",
    "prefectureNumber": 9,
    "prefecture": "栃木県",
    "city": "河内郡上三川町",
    "town": "上郷"
  },
  "3290605": {
    "zipcode": "3290605",
    "prefectureCode": "09",
    "prefectureNumber": 9,
    "prefecture": "栃木県",
    "city": "河内郡上三川町",
    "town": "西蓼沼"
  },
  "3290606": {
    "zipcode": "3290606",
    "prefectureCode": "09",
    "prefectureNumber": 9,
    "prefecture": "栃木県",
    "city": "河内郡上三川町",
    "town": "磯岡"
  },
  "3290607": {
    "zipcode": "3290607",
    "prefectureCode": "09",
    "prefectureNumber": 9,
    "prefecture": "栃木県",
    "city": "河内郡上三川町",
    "town": "西汗"
  },
  "3290608": {
    "zipcode": "3290608",
    "prefectureCode": "09",
    "prefectureNumber": 9,
    "prefecture": "栃木県",
    "city": "河内郡上三川町",
    "town": "西木代"
  },
  "3290611": {
    "zipcode": "3290611",
    "prefectureCode": "09",
    "prefectureNumber": 9,
    "prefecture": "栃木県",
    "city": "河内郡上三川町",
    "town": "上三川"
  },
  "3290612": {
    "zipcode": "3290612",
    "prefectureCode": "09",
    "prefectureNumber": 9,
    "prefecture": "栃木県",
    "city": "河内郡上三川町",
    "town": "三本木"
  },
  "3290613": {
    "zipcode": "3290613",
    "prefectureCode": "09",
    "prefectureNumber": 9,
    "prefecture": "栃木県",
    "city": "河内郡上三川町",
    "town": "坂上"
  },
  "3290614": {
    "zipcode": "3290614",
    "prefectureCode": "09",
    "prefectureNumber": 9,
    "prefecture": "栃木県",
    "city": "河内郡上三川町",
    "town": "五分一"
  },
  "3290615": {
    "zipcode": "3290615",
    "prefectureCode": "09",
    "prefectureNumber": 9,
    "prefecture": "栃木県",
    "city": "河内郡上三川町",
    "town": "三村"
  },
  "3290616": {
    "zipcode": "3290616",
    "prefectureCode": "09",
    "prefectureNumber": 9,
    "prefecture": "栃木県",
    "city": "河内郡上三川町",
    "town": "下蒲生"
  },
  "3290617": {
    "zipcode": "3290617",
    "prefectureCode": "09",
    "prefectureNumber": 9,
    "prefecture": "栃木県",
    "city": "河内郡上三川町",
    "town": "上蒲生"
  },
  "3290618": {
    "zipcode": "3290618",
    "prefectureCode": "09",
    "prefectureNumber": 9,
    "prefecture": "栃木県",
    "city": "河内郡上三川町",
    "town": "しらさぎ"
  },
  "3291101": {
    "zipcode": "3291101",
    "prefectureCode": "09",
    "prefectureNumber": 9,
    "prefecture": "栃木県",
    "city": "宇都宮市",
    "town": "下ケ橋町"
  },
  "3291102": {
    "zipcode": "3291102",
    "prefectureCode": "09",
    "prefectureNumber": 9,
    "prefecture": "栃木県",
    "city": "宇都宮市",
    "town": "白沢町"
  },
  "3291103": {
    "zipcode": "3291103",
    "prefectureCode": "09",
    "prefectureNumber": 9,
    "prefecture": "栃木県",
    "city": "宇都宮市",
    "town": "東岡本町"
  },
  "3291104": {
    "zipcode": "3291104",
    "prefectureCode": "09",
    "prefectureNumber": 9,
    "prefecture": "栃木県",
    "city": "宇都宮市",
    "town": "下岡本町"
  },
  "3291105": {
    "zipcode": "3291105",
    "prefectureCode": "09",
    "prefectureNumber": 9,
    "prefecture": "栃木県",
    "city": "宇都宮市",
    "town": "中岡本町"
  },
  "3291106": {
    "zipcode": "3291106",
    "prefectureCode": "09",
    "prefectureNumber": 9,
    "prefecture": "栃木県",
    "city": "宇都宮市",
    "town": "上大塚町"
  },
  "3291107": {
    "zipcode": "3291107",
    "prefectureCode": "09",
    "prefectureNumber": 9,
    "prefecture": "栃木県",
    "city": "宇都宮市",
    "town": "長峰町"
  },
  "3291108": {
    "zipcode": "3291108",
    "prefectureCode": "09",
    "prefectureNumber": 9,
    "prefecture": "栃木県",
    "city": "宇都宮市",
    "town": "古田町"
  },
  "3291111": {
    "zipcode": "3291111",
    "prefectureCode": "09",
    "prefectureNumber": 9,
    "prefecture": "栃木県",
    "city": "宇都宮市",
    "town": "逆面町"
  },
  "3291112": {
    "zipcode": "3291112",
    "prefectureCode": "09",
    "prefectureNumber": 9,
    "prefecture": "栃木県",
    "city": "宇都宮市",
    "town": "上田原町"
  },
  "3291113": {
    "zipcode": "3291113",
    "prefectureCode": "09",
    "prefectureNumber": 9,
    "prefecture": "栃木県",
    "city": "宇都宮市",
    "town": "相野沢町"
  },
  "3291114": {
    "zipcode": "3291114",
    "prefectureCode": "09",
    "prefectureNumber": 9,
    "prefecture": "栃木県",
    "city": "宇都宮市",
    "town": "宝井町"
  },
  "3291115": {
    "zipcode": "3291115",
    "prefectureCode": "09",
    "prefectureNumber": 9,
    "prefecture": "栃木県",
    "city": "宇都宮市",
    "town": "下田原町"
  },
  "3291116": {
    "zipcode": "3291116",
    "prefectureCode": "09",
    "prefectureNumber": 9,
    "prefecture": "栃木県",
    "city": "宇都宮市",
    "town": "立伏町"
  },
  "3291117": {
    "zipcode": "3291117",
    "prefectureCode": "09",
    "prefectureNumber": 9,
    "prefecture": "栃木県",
    "city": "宇都宮市",
    "town": "叶谷町"
  },
  "3291200": {
    "zipcode": "3291200",
    "prefectureCode": "09",
    "prefectureNumber": 9,
    "prefecture": "栃木県",
    "city": "塩谷郡高根沢町",
    "town": "以下に掲載がない場合"
  },
  "3291201": {
    "zipcode": "3291201",
    "prefectureCode": "09",
    "prefectureNumber": 9,
    "prefecture": "栃木県",
    "city": "塩谷郡高根沢町",
    "town": "柿木沢"
  },
  "3291202": {
    "zipcode": "3291202",
    "prefectureCode": "09",
    "prefectureNumber": 9,
    "prefecture": "栃木県",
    "city": "塩谷郡高根沢町",
    "town": "狭間田"
  },
  "3291203": {
    "zipcode": "3291203",
    "prefectureCode": "09",
    "prefectureNumber": 9,
    "prefecture": "栃木県",
    "city": "塩谷郡高根沢町",
    "town": "伏久"
  },
  "3291204": {
    "zipcode": "3291204",
    "prefectureCode": "09",
    "prefectureNumber": 9,
    "prefecture": "栃木県",
    "city": "塩谷郡高根沢町",
    "town": "文挾"
  },
  "3291205": {
    "zipcode": "3291205",
    "prefectureCode": "09",
    "prefectureNumber": 9,
    "prefecture": "栃木県",
    "city": "塩谷郡高根沢町",
    "town": "飯室"
  },
  "3291206": {
    "zipcode": "3291206",
    "prefectureCode": "09",
    "prefectureNumber": 9,
    "prefecture": "栃木県",
    "city": "塩谷郡高根沢町",
    "town": "平田"
  },
  "3291207": {
    "zipcode": "3291207",
    "prefectureCode": "09",
    "prefectureNumber": 9,
    "prefecture": "栃木県",
    "city": "塩谷郡高根沢町",
    "town": "花岡"
  },
  "3291211": {
    "zipcode": "3291211",
    "prefectureCode": "09",
    "prefectureNumber": 9,
    "prefecture": "栃木県",
    "city": "塩谷郡高根沢町",
    "town": "亀梨"
  },
  "3291212": {
    "zipcode": "3291212",
    "prefectureCode": "09",
    "prefectureNumber": 9,
    "prefecture": "栃木県",
    "city": "塩谷郡高根沢町",
    "town": "上柏崎"
  },
  "3291213": {
    "zipcode": "3291213",
    "prefectureCode": "09",
    "prefectureNumber": 9,
    "prefecture": "栃木県",
    "city": "塩谷郡高根沢町",
    "town": "下柏崎"
  },
  "3291214": {
    "zipcode": "3291214",
    "prefectureCode": "09",
    "prefectureNumber": 9,
    "prefecture": "栃木県",
    "city": "塩谷郡高根沢町",
    "town": "中柏崎"
  },
  "3291215": {
    "zipcode": "3291215",
    "prefectureCode": "09",
    "prefectureNumber": 9,
    "prefecture": "栃木県",
    "city": "塩谷郡高根沢町",
    "town": "給部"
  },
  "3291216": {
    "zipcode": "3291216",
    "prefectureCode": "09",
    "prefectureNumber": 9,
    "prefecture": "栃木県",
    "city": "塩谷郡高根沢町",
    "town": "桑窪"
  },
  "3291217": {
    "zipcode": "3291217",
    "prefectureCode": "09",
    "prefectureNumber": 9,
    "prefecture": "栃木県",
    "city": "塩谷郡高根沢町",
    "town": "太田"
  },
  "3291221": {
    "zipcode": "3291221",
    "prefectureCode": "09",
    "prefectureNumber": 9,
    "prefecture": "栃木県",
    "city": "塩谷郡高根沢町",
    "town": "西高谷"
  },
  "3291222": {
    "zipcode": "3291222",
    "prefectureCode": "09",
    "prefectureNumber": 9,
    "prefecture": "栃木県",
    "city": "塩谷郡高根沢町",
    "town": "寺渡戸"
  },
  "3291223": {
    "zipcode": "3291223",
    "prefectureCode": "09",
    "prefectureNumber": 9,
    "prefecture": "栃木県",
    "city": "塩谷郡高根沢町",
    "town": "栗ケ島"
  },
  "3291224": {
    "zipcode": "3291224",
    "prefectureCode": "09",
    "prefectureNumber": 9,
    "prefecture": "栃木県",
    "city": "塩谷郡高根沢町",
    "town": "上高根沢"
  },
  "3291225": {
    "zipcode": "3291225",
    "prefectureCode": "09",
    "prefectureNumber": 9,
    "prefecture": "栃木県",
    "city": "塩谷郡高根沢町",
    "town": "石末"
  },
  "3291226": {
    "zipcode": "3291226",
    "prefectureCode": "09",
    "prefectureNumber": 9,
    "prefecture": "栃木県",
    "city": "塩谷郡高根沢町",
    "town": "大谷"
  },
  "3291231": {
    "zipcode": "3291231",
    "prefectureCode": "09",
    "prefectureNumber": 9,
    "prefecture": "栃木県",
    "city": "塩谷郡高根沢町",
    "town": "宝石台"
  },
  "3291232": {
    "zipcode": "3291232",
    "prefectureCode": "09",
    "prefectureNumber": 9,
    "prefecture": "栃木県",
    "city": "塩谷郡高根沢町",
    "town": "光陽台"
  },
  "3291233": {
    "zipcode": "3291233",
    "prefectureCode": "09",
    "prefectureNumber": 9,
    "prefecture": "栃木県",
    "city": "塩谷郡高根沢町",
    "town": "宝積寺"
  },
  "3291234": {
    "zipcode": "3291234",
    "prefectureCode": "09",
    "prefectureNumber": 9,
    "prefecture": "栃木県",
    "city": "塩谷郡高根沢町",
    "town": "中阿久津"
  },
  "3291235": {
    "zipcode": "3291235",
    "prefectureCode": "09",
    "prefectureNumber": 9,
    "prefecture": "栃木県",
    "city": "塩谷郡高根沢町",
    "town": "上阿久津"
  },
  "3291300": {
    "zipcode": "3291300",
    "prefectureCode": "09",
    "prefectureNumber": 9,
    "prefecture": "栃木県",
    "city": "さくら市",
    "town": "以下に掲載がない場合"
  },
  "3291301": {
    "zipcode": "3291301",
    "prefectureCode": "09",
    "prefectureNumber": 9,
    "prefecture": "栃木県",
    "city": "さくら市",
    "town": "箱森新田"
  },
  "3291302": {
    "zipcode": "3291302",
    "prefectureCode": "09",
    "prefectureNumber": 9,
    "prefecture": "栃木県",
    "city": "さくら市",
    "town": "松山新田"
  },
  "3291303": {
    "zipcode": "3291303",
    "prefectureCode": "09",
    "prefectureNumber": 9,
    "prefecture": "栃木県",
    "city": "さくら市",
    "town": "松山"
  },
  "3291304": {
    "zipcode": "3291304",
    "prefectureCode": "09",
    "prefectureNumber": 9,
    "prefecture": "栃木県",
    "city": "さくら市",
    "town": "鍛冶ケ沢"
  },
  "3291305": {
    "zipcode": "3291305",
    "prefectureCode": "09",
    "prefectureNumber": 9,
    "prefecture": "栃木県",
    "city": "さくら市",
    "town": "狹間田"
  },
  "3291306": {
    "zipcode": "3291306",
    "prefectureCode": "09",
    "prefectureNumber": 9,
    "prefecture": "栃木県",
    "city": "さくら市",
    "town": "上野"
  },
  "3291311": {
    "zipcode": "3291311",
    "prefectureCode": "09",
    "prefectureNumber": 9,
    "prefecture": "栃木県",
    "city": "さくら市",
    "town": "氏家"
  },
  "3291312": {
    "zipcode": "3291312",
    "prefectureCode": "09",
    "prefectureNumber": 9,
    "prefecture": "栃木県",
    "city": "さくら市",
    "town": "櫻野"
  },
  "3291313": {
    "zipcode": "3291313",
    "prefectureCode": "09",
    "prefectureNumber": 9,
    "prefecture": "栃木県",
    "city": "さくら市",
    "town": "柿木沢新田"
  },
  "3291314": {
    "zipcode": "3291314",
    "prefectureCode": "09",
    "prefectureNumber": 9,
    "prefecture": "栃木県",
    "city": "さくら市",
    "town": "柿木沢"
  },
  "3291315": {
    "zipcode": "3291315",
    "prefectureCode": "09",
    "prefectureNumber": 9,
    "prefecture": "栃木県",
    "city": "さくら市",
    "town": "氏家新田"
  },
  "3291316": {
    "zipcode": "3291316",
    "prefectureCode": "09",
    "prefectureNumber": 9,
    "prefecture": "栃木県",
    "city": "さくら市",
    "town": "上阿久津"
  },
  "3291317": {
    "zipcode": "3291317",
    "prefectureCode": "09",
    "prefectureNumber": 9,
    "prefecture": "栃木県",
    "city": "さくら市",
    "town": "きぬの里"
  },
  "3291321": {
    "zipcode": "3291321",
    "prefectureCode": "09",
    "prefectureNumber": 9,
    "prefecture": "栃木県",
    "city": "さくら市",
    "town": "馬場"
  },
  "3291322": {
    "zipcode": "3291322",
    "prefectureCode": "09",
    "prefectureNumber": 9,
    "prefecture": "栃木県",
    "city": "さくら市",
    "town": "北草川"
  },
  "3291323": {
    "zipcode": "3291323",
    "prefectureCode": "09",
    "prefectureNumber": 9,
    "prefecture": "栃木県",
    "city": "さくら市",
    "town": "卯の里"
  },
  "3291324": {
    "zipcode": "3291324",
    "prefectureCode": "09",
    "prefectureNumber": 9,
    "prefecture": "栃木県",
    "city": "さくら市",
    "town": "草川"
  },
  "3291325": {
    "zipcode": "3291325",
    "prefectureCode": "09",
    "prefectureNumber": 9,
    "prefecture": "栃木県",
    "city": "さくら市",
    "town": "大中"
  },
  "3291326": {
    "zipcode": "3291326",
    "prefectureCode": "09",
    "prefectureNumber": 9,
    "prefecture": "栃木県",
    "city": "さくら市",
    "town": "向河原"
  },
  "3291327": {
    "zipcode": "3291327",
    "prefectureCode": "09",
    "prefectureNumber": 9,
    "prefecture": "栃木県",
    "city": "さくら市",
    "town": "富野岡"
  },
  "3291331": {
    "zipcode": "3291331",
    "prefectureCode": "09",
    "prefectureNumber": 9,
    "prefecture": "栃木県",
    "city": "さくら市",
    "town": "松島"
  },
  "3291332": {
    "zipcode": "3291332",
    "prefectureCode": "09",
    "prefectureNumber": 9,
    "prefecture": "栃木県",
    "city": "さくら市",
    "town": "蒲須坂"
  },
  "3291333": {
    "zipcode": "3291333",
    "prefectureCode": "09",
    "prefectureNumber": 9,
    "prefecture": "栃木県",
    "city": "さくら市",
    "town": "長久保"
  },
  "3291334": {
    "zipcode": "3291334",
    "prefectureCode": "09",
    "prefectureNumber": 9,
    "prefecture": "栃木県",
    "city": "さくら市",
    "town": "押上"
  },
  "3291401": {
    "zipcode": "3291401",
    "prefectureCode": "09",
    "prefectureNumber": 9,
    "prefecture": "栃木県",
    "city": "さくら市",
    "town": "上河戸"
  },
  "3291402": {
    "zipcode": "3291402",
    "prefectureCode": "09",
    "prefectureNumber": 9,
    "prefecture": "栃木県",
    "city": "さくら市",
    "town": "下河戸"
  },
  "3291403": {
    "zipcode": "3291403",
    "prefectureCode": "09",
    "prefectureNumber": 9,
    "prefecture": "栃木県",
    "city": "さくら市",
    "town": "穂積"
  },
  "3291404": {
    "zipcode": "3291404",
    "prefectureCode": "09",
    "prefectureNumber": 9,
    "prefecture": "栃木県",
    "city": "さくら市",
    "town": "鹿子畑"
  },
  "3291405": {
    "zipcode": "3291405",
    "prefectureCode": "09",
    "prefectureNumber": 9,
    "prefecture": "栃木県",
    "city": "さくら市",
    "town": "金枝"
  },
  "3291406": {
    "zipcode": "3291406",
    "prefectureCode": "09",
    "prefectureNumber": 9,
    "prefecture": "栃木県",
    "city": "さくら市",
    "town": "南和田"
  },
  "3291411": {
    "zipcode": "3291411",
    "prefectureCode": "09",
    "prefectureNumber": 9,
    "prefecture": "栃木県",
    "city": "さくら市",
    "town": "鷲宿"
  },
  "3291412": {
    "zipcode": "3291412",
    "prefectureCode": "09",
    "prefectureNumber": 9,
    "prefecture": "栃木県",
    "city": "さくら市",
    "town": "喜連川"
  },
  "3291413": {
    "zipcode": "3291413",
    "prefectureCode": "09",
    "prefectureNumber": 9,
    "prefecture": "栃木県",
    "city": "さくら市",
    "town": "葛城"
  },
  "3291414": {
    "zipcode": "3291414",
    "prefectureCode": "09",
    "prefectureNumber": 9,
    "prefecture": "栃木県",
    "city": "さくら市",
    "town": "早乙女"
  },
  "3291415": {
    "zipcode": "3291415",
    "prefectureCode": "09",
    "prefectureNumber": 9,
    "prefecture": "栃木県",
    "city": "さくら市",
    "town": "小入"
  },
  "3291416": {
    "zipcode": "3291416",
    "prefectureCode": "09",
    "prefectureNumber": 9,
    "prefecture": "栃木県",
    "city": "さくら市",
    "town": "桜ケ丘"
  },
  "3291417": {
    "zipcode": "3291417",
    "prefectureCode": "09",
    "prefectureNumber": 9,
    "prefecture": "栃木県",
    "city": "さくら市",
    "town": "フィオーレ喜連川"
  },
  "3291571": {
    "zipcode": "3291571",
    "prefectureCode": "09",
    "prefectureNumber": 9,
    "prefecture": "栃木県",
    "city": "矢板市",
    "town": "片岡"
  },
  "3291572": {
    "zipcode": "3291572",
    "prefectureCode": "09",
    "prefectureNumber": 9,
    "prefecture": "栃木県",
    "city": "矢板市",
    "town": "安沢"
  },
  "3291573": {
    "zipcode": "3291573",
    "prefectureCode": "09",
    "prefectureNumber": 9,
    "prefecture": "栃木県",
    "city": "矢板市",
    "town": "越畑"
  },
  "3291574": {
    "zipcode": "3291574",
    "prefectureCode": "09",
    "prefectureNumber": 9,
    "prefecture": "栃木県",
    "city": "矢板市",
    "town": "乙畑"
  },
  "3291575": {
    "zipcode": "3291575",
    "prefectureCode": "09",
    "prefectureNumber": 9,
    "prefecture": "栃木県",
    "city": "矢板市",
    "town": "大槻"
  },
  "3291576": {
    "zipcode": "3291576",
    "prefectureCode": "09",
    "prefectureNumber": 9,
    "prefecture": "栃木県",
    "city": "矢板市",
    "town": "石関"
  },
  "3291577": {
    "zipcode": "3291577",
    "prefectureCode": "09",
    "prefectureNumber": 9,
    "prefecture": "栃木県",
    "city": "矢板市",
    "town": "玉田"
  },
  "3291578": {
    "zipcode": "3291578",
    "prefectureCode": "09",
    "prefectureNumber": 9,
    "prefecture": "栃木県",
    "city": "矢板市",
    "town": "山苗代"
  },
  "3291579": {
    "zipcode": "3291579",
    "prefectureCode": "09",
    "prefectureNumber": 9,
    "prefecture": "栃木県",
    "city": "矢板市",
    "town": "こぶし台"
  },
  "3292100": {
    "zipcode": "3292100",
    "prefectureCode": "09",
    "prefectureNumber": 9,
    "prefecture": "栃木県",
    "city": "矢板市",
    "town": "以下に掲載がない場合"
  },
  "3292121": {
    "zipcode": "3292121",
    "prefectureCode": "09",
    "prefectureNumber": 9,
    "prefecture": "栃木県",
    "city": "矢板市",
    "town": "荒井"
  },
  "3292122": {
    "zipcode": "3292122",
    "prefectureCode": "09",
    "prefectureNumber": 9,
    "prefecture": "栃木県",
    "city": "矢板市",
    "town": "針生"
  },
  "3292123": {
    "zipcode": "3292123",
    "prefectureCode": "09",
    "prefectureNumber": 9,
    "prefecture": "栃木県",
    "city": "矢板市",
    "town": "上町"
  },
  "3292124": {
    "zipcode": "3292124",
    "prefectureCode": "09",
    "prefectureNumber": 9,
    "prefecture": "栃木県",
    "city": "矢板市",
    "town": "下太田"
  },
  "3292131": {
    "zipcode": "3292131",
    "prefectureCode": "09",
    "prefectureNumber": 9,
    "prefecture": "栃木県",
    "city": "矢板市",
    "town": "土屋"
  },
  "3292132": {
    "zipcode": "3292132",
    "prefectureCode": "09",
    "prefectureNumber": 9,
    "prefecture": "栃木県",
    "city": "矢板市",
    "town": "沢"
  },
  "3292133": {
    "zipcode": "3292133",
    "prefectureCode": "09",
    "prefectureNumber": 9,
    "prefecture": "栃木県",
    "city": "矢板市",
    "town": "豊田"
  },
  "3292134": {
    "zipcode": "3292134",
    "prefectureCode": "09",
    "prefectureNumber": 9,
    "prefecture": "栃木県",
    "city": "矢板市",
    "town": "成田"
  },
  "3292135": {
    "zipcode": "3292135",
    "prefectureCode": "09",
    "prefectureNumber": 9,
    "prefecture": "栃木県",
    "city": "矢板市",
    "town": "中"
  },
  "3292136": {
    "zipcode": "3292136",
    "prefectureCode": "09",
    "prefectureNumber": 9,
    "prefecture": "栃木県",
    "city": "矢板市",
    "town": "東町"
  },
  "3292141": {
    "zipcode": "3292141",
    "prefectureCode": "09",
    "prefectureNumber": 9,
    "prefecture": "栃木県",
    "city": "矢板市",
    "town": "早川町"
  },
  "3292142": {
    "zipcode": "3292142",
    "prefectureCode": "09",
    "prefectureNumber": 9,
    "prefecture": "栃木県",
    "city": "矢板市",
    "town": "木幡"
  },
  "3292143": {
    "zipcode": "3292143",
    "prefectureCode": "09",
    "prefectureNumber": 9,
    "prefecture": "栃木県",
    "city": "矢板市",
    "town": "境林"
  },
  "3292144": {
    "zipcode": "3292144",
    "prefectureCode": "09",
    "prefectureNumber": 9,
    "prefecture": "栃木県",
    "city": "矢板市",
    "town": "川崎反町"
  },
  "3292145": {
    "zipcode": "3292145",
    "prefectureCode": "09",
    "prefectureNumber": 9,
    "prefecture": "栃木県",
    "city": "矢板市",
    "town": "富田"
  },
  "3292151": {
    "zipcode": "3292151",
    "prefectureCode": "09",
    "prefectureNumber": 9,
    "prefecture": "栃木県",
    "city": "矢板市",
    "town": "幸岡"
  },
  "3292152": {
    "zipcode": "3292152",
    "prefectureCode": "09",
    "prefectureNumber": 9,
    "prefecture": "栃木県",
    "city": "矢板市",
    "town": "館ノ川"
  },
  "3292153": {
    "zipcode": "3292153",
    "prefectureCode": "09",
    "prefectureNumber": 9,
    "prefecture": "栃木県",
    "city": "矢板市",
    "town": "高塩"
  },
  "3292154": {
    "zipcode": "3292154",
    "prefectureCode": "09",
    "prefectureNumber": 9,
    "prefecture": "栃木県",
    "city": "矢板市",
    "town": "倉掛"
  },
  "3292155": {
    "zipcode": "3292155",
    "prefectureCode": "09",
    "prefectureNumber": 9,
    "prefecture": "栃木県",
    "city": "矢板市",
    "town": "片俣"
  },
  "3292156": {
    "zipcode": "3292156",
    "prefectureCode": "09",
    "prefectureNumber": 9,
    "prefecture": "栃木県",
    "city": "矢板市",
    "town": "塩田"
  },
  "3292161": {
    "zipcode": "3292161",
    "prefectureCode": "09",
    "prefectureNumber": 9,
    "prefecture": "栃木県",
    "city": "矢板市",
    "town": "扇町"
  },
  "3292162": {
    "zipcode": "3292162",
    "prefectureCode": "09",
    "prefectureNumber": 9,
    "prefecture": "栃木県",
    "city": "矢板市",
    "town": "末広町"
  },
  "3292163": {
    "zipcode": "3292163",
    "prefectureCode": "09",
    "prefectureNumber": 9,
    "prefecture": "栃木県",
    "city": "矢板市",
    "town": "鹿島町"
  },
  "3292164": {
    "zipcode": "3292164",
    "prefectureCode": "09",
    "prefectureNumber": 9,
    "prefecture": "栃木県",
    "city": "矢板市",
    "town": "本町"
  },
  "3292165": {
    "zipcode": "3292165",
    "prefectureCode": "09",
    "prefectureNumber": 9,
    "prefecture": "栃木県",
    "city": "矢板市",
    "town": "矢板"
  },
  "3292200": {
    "zipcode": "3292200",
    "prefectureCode": "09",
    "prefectureNumber": 9,
    "prefecture": "栃木県",
    "city": "塩谷郡塩谷町",
    "town": "以下に掲載がない場合"
  },
  "3292211": {
    "zipcode": "3292211",
    "prefectureCode": "09",
    "prefectureNumber": 9,
    "prefecture": "栃木県",
    "city": "塩谷郡塩谷町",
    "town": "鳥羽新田"
  },
  "3292212": {
    "zipcode": "3292212",
    "prefectureCode": "09",
    "prefectureNumber": 9,
    "prefecture": "栃木県",
    "city": "塩谷郡塩谷町",
    "town": "喜佐見"
  },
  "3292213": {
    "zipcode": "3292213",
    "prefectureCode": "09",
    "prefectureNumber": 9,
    "prefecture": "栃木県",
    "city": "塩谷郡塩谷町",
    "town": "熊ノ木"
  },
  "3292214": {
    "zipcode": "3292214",
    "prefectureCode": "09",
    "prefectureNumber": 9,
    "prefecture": "栃木県",
    "city": "塩谷郡塩谷町",
    "town": "東房"
  },
  "3292215": {
    "zipcode": "3292215",
    "prefectureCode": "09",
    "prefectureNumber": 9,
    "prefecture": "栃木県",
    "city": "塩谷郡塩谷町",
    "town": "下寺島"
  },
  "3292216": {
    "zipcode": "3292216",
    "prefectureCode": "09",
    "prefectureNumber": 9,
    "prefecture": "栃木県",
    "city": "塩谷郡塩谷町",
    "town": "上寺島（その他）"
  },
  "3292221": {
    "zipcode": "3292221",
    "prefectureCode": "09",
    "prefectureNumber": 9,
    "prefecture": "栃木県",
    "city": "塩谷郡塩谷町",
    "town": "玉生"
  },
  "3292222": {
    "zipcode": "3292222",
    "prefectureCode": "09",
    "prefectureNumber": 9,
    "prefecture": "栃木県",
    "city": "塩谷郡塩谷町",
    "town": "道下"
  },
  "3292223": {
    "zipcode": "3292223",
    "prefectureCode": "09",
    "prefectureNumber": 9,
    "prefecture": "栃木県",
    "city": "塩谷郡塩谷町",
    "town": "原荻野目"
  },
  "3292224": {
    "zipcode": "3292224",
    "prefectureCode": "09",
    "prefectureNumber": 9,
    "prefecture": "栃木県",
    "city": "塩谷郡塩谷町",
    "town": "金枝"
  },
  "3292225": {
    "zipcode": "3292225",
    "prefectureCode": "09",
    "prefectureNumber": 9,
    "prefecture": "栃木県",
    "city": "塩谷郡塩谷町",
    "town": "飯岡"
  },
  "3292226": {
    "zipcode": "3292226",
    "prefectureCode": "09",
    "prefectureNumber": 9,
    "prefecture": "栃木県",
    "city": "塩谷郡塩谷町",
    "town": "芦場新田"
  },
  "3292331": {
    "zipcode": "3292331",
    "prefectureCode": "09",
    "prefectureNumber": 9,
    "prefecture": "栃木県",
    "city": "塩谷郡塩谷町",
    "town": "田所"
  },
  "3292332": {
    "zipcode": "3292332",
    "prefectureCode": "09",
    "prefectureNumber": 9,
    "prefecture": "栃木県",
    "city": "塩谷郡塩谷町",
    "town": "大宮"
  },
  "3292333": {
    "zipcode": "3292333",
    "prefectureCode": "09",
    "prefectureNumber": 9,
    "prefecture": "栃木県",
    "city": "塩谷郡塩谷町",
    "town": "肘内"
  },
  "3292334": {
    "zipcode": "3292334",
    "prefectureCode": "09",
    "prefectureNumber": 9,
    "prefecture": "栃木県",
    "city": "塩谷郡塩谷町",
    "town": "大久保"
  },
  "3292335": {
    "zipcode": "3292335",
    "prefectureCode": "09",
    "prefectureNumber": 9,
    "prefecture": "栃木県",
    "city": "塩谷郡塩谷町",
    "town": "上平"
  },
  "3292336": {
    "zipcode": "3292336",
    "prefectureCode": "09",
    "prefectureNumber": 9,
    "prefecture": "栃木県",
    "city": "塩谷郡塩谷町",
    "town": "風見"
  },
  "3292337": {
    "zipcode": "3292337",
    "prefectureCode": "09",
    "prefectureNumber": 9,
    "prefecture": "栃木県",
    "city": "塩谷郡塩谷町",
    "town": "泉"
  },
  "3292338": {
    "zipcode": "3292338",
    "prefectureCode": "09",
    "prefectureNumber": 9,
    "prefecture": "栃木県",
    "city": "塩谷郡塩谷町",
    "town": "風見山田"
  },
  "3292339": {
    "zipcode": "3292339",
    "prefectureCode": "09",
    "prefectureNumber": 9,
    "prefecture": "栃木県",
    "city": "塩谷郡塩谷町",
    "town": "上沢"
  },
  "3292441": {
    "zipcode": "3292441",
    "prefectureCode": "09",
    "prefectureNumber": 9,
    "prefecture": "栃木県",
    "city": "塩谷郡塩谷町",
    "town": "船生"
  },
  "3292442": {
    "zipcode": "3292442",
    "prefectureCode": "09",
    "prefectureNumber": 9,
    "prefecture": "栃木県",
    "city": "塩谷郡塩谷町",
    "town": "佐貫"
  },
  "3292501": {
    "zipcode": "3292501",
    "prefectureCode": "09",
    "prefectureNumber": 9,
    "prefecture": "栃木県",
    "city": "矢板市",
    "town": "上伊佐野"
  },
  "3292502": {
    "zipcode": "3292502",
    "prefectureCode": "09",
    "prefectureNumber": 9,
    "prefecture": "栃木県",
    "city": "矢板市",
    "town": "下伊佐野"
  },
  "3292503": {
    "zipcode": "3292503",
    "prefectureCode": "09",
    "prefectureNumber": 9,
    "prefecture": "栃木県",
    "city": "矢板市",
    "town": "田野原"
  },
  "3292504": {
    "zipcode": "3292504",
    "prefectureCode": "09",
    "prefectureNumber": 9,
    "prefecture": "栃木県",
    "city": "矢板市",
    "town": "泉"
  },
  "3292505": {
    "zipcode": "3292505",
    "prefectureCode": "09",
    "prefectureNumber": 9,
    "prefecture": "栃木県",
    "city": "矢板市",
    "town": "立足"
  },
  "3292506": {
    "zipcode": "3292506",
    "prefectureCode": "09",
    "prefectureNumber": 9,
    "prefecture": "栃木県",
    "city": "矢板市",
    "town": "平野"
  },
  "3292511": {
    "zipcode": "3292511",
    "prefectureCode": "09",
    "prefectureNumber": 9,
    "prefecture": "栃木県",
    "city": "矢板市",
    "town": "山田"
  },
  "3292512": {
    "zipcode": "3292512",
    "prefectureCode": "09",
    "prefectureNumber": 9,
    "prefecture": "栃木県",
    "city": "矢板市",
    "town": "東泉"
  },
  "3292513": {
    "zipcode": "3292513",
    "prefectureCode": "09",
    "prefectureNumber": 9,
    "prefecture": "栃木県",
    "city": "矢板市",
    "town": "上太田"
  },
  "3292514": {
    "zipcode": "3292514",
    "prefectureCode": "09",
    "prefectureNumber": 9,
    "prefecture": "栃木県",
    "city": "矢板市",
    "town": "長井"
  },
  "3292701": {
    "zipcode": "3292701",
    "prefectureCode": "09",
    "prefectureNumber": 9,
    "prefecture": "栃木県",
    "city": "那須塩原市",
    "town": "関根"
  },
  "3292702": {
    "zipcode": "3292702",
    "prefectureCode": "09",
    "prefectureNumber": 9,
    "prefecture": "栃木県",
    "city": "那須塩原市",
    "town": "東関根"
  },
  "3292703": {
    "zipcode": "3292703",
    "prefectureCode": "09",
    "prefectureNumber": 9,
    "prefecture": "栃木県",
    "city": "那須塩原市",
    "town": "槻沢"
  },
  "3292704": {
    "zipcode": "3292704",
    "prefectureCode": "09",
    "prefectureNumber": 9,
    "prefecture": "栃木県",
    "city": "那須塩原市",
    "town": "新南"
  },
  "3292705": {
    "zipcode": "3292705",
    "prefectureCode": "09",
    "prefectureNumber": 9,
    "prefecture": "栃木県",
    "city": "那須塩原市",
    "town": "南郷屋"
  },
  "3292706": {
    "zipcode": "3292706",
    "prefectureCode": "09",
    "prefectureNumber": 9,
    "prefecture": "栃木県",
    "city": "那須塩原市",
    "town": "睦"
  },
  "3292707": {
    "zipcode": "3292707",
    "prefectureCode": "09",
    "prefectureNumber": 9,
    "prefecture": "栃木県",
    "city": "那須塩原市",
    "town": "高柳"
  },
  "3292711": {
    "zipcode": "3292711",
    "prefectureCode": "09",
    "prefectureNumber": 9,
    "prefecture": "栃木県",
    "city": "那須塩原市",
    "town": "石林"
  },
  "3292712": {
    "zipcode": "3292712",
    "prefectureCode": "09",
    "prefectureNumber": 9,
    "prefecture": "栃木県",
    "city": "那須塩原市",
    "town": "下永田"
  },
  "3292713": {
    "zipcode": "3292713",
    "prefectureCode": "09",
    "prefectureNumber": 9,
    "prefecture": "栃木県",
    "city": "那須塩原市",
    "town": "緑"
  },
  "3292721": {
    "zipcode": "3292721",
    "prefectureCode": "09",
    "prefectureNumber": 9,
    "prefecture": "栃木県",
    "city": "那須塩原市",
    "town": "東町"
  },
  "3292722": {
    "zipcode": "3292722",
    "prefectureCode": "09",
    "prefectureNumber": 9,
    "prefecture": "栃木県",
    "city": "那須塩原市",
    "town": "西朝日町"
  },
  "3292723": {
    "zipcode": "3292723",
    "prefectureCode": "09",
    "prefectureNumber": 9,
    "prefecture": "栃木県",
    "city": "那須塩原市",
    "town": "南町"
  },
  "3292724": {
    "zipcode": "3292724",
    "prefectureCode": "09",
    "prefectureNumber": 9,
    "prefecture": "栃木県",
    "city": "那須塩原市",
    "town": "西幸町"
  },
  "3292725": {
    "zipcode": "3292725",
    "prefectureCode": "09",
    "prefectureNumber": 9,
    "prefecture": "栃木県",
    "city": "那須塩原市",
    "town": "あたご町"
  },
  "3292726": {
    "zipcode": "3292726",
    "prefectureCode": "09",
    "prefectureNumber": 9,
    "prefecture": "栃木県",
    "city": "那須塩原市",
    "town": "扇町"
  },
  "3292727": {
    "zipcode": "3292727",
    "prefectureCode": "09",
    "prefectureNumber": 9,
    "prefecture": "栃木県",
    "city": "那須塩原市",
    "town": "永田町"
  },
  "3292728": {
    "zipcode": "3292728",
    "prefectureCode": "09",
    "prefectureNumber": 9,
    "prefecture": "栃木県",
    "city": "那須塩原市",
    "town": "西栄町"
  },
  "3292731": {
    "zipcode": "3292731",
    "prefectureCode": "09",
    "prefectureNumber": 9,
    "prefecture": "栃木県",
    "city": "那須塩原市",
    "town": "二つ室"
  },
  "3292732": {
    "zipcode": "3292732",
    "prefectureCode": "09",
    "prefectureNumber": 9,
    "prefecture": "栃木県",
    "city": "那須塩原市",
    "town": "一区町"
  },
  "3292733": {
    "zipcode": "3292733",
    "prefectureCode": "09",
    "prefectureNumber": 9,
    "prefecture": "栃木県",
    "city": "那須塩原市",
    "town": "二区町"
  },
  "3292734": {
    "zipcode": "3292734",
    "prefectureCode": "09",
    "prefectureNumber": 9,
    "prefecture": "栃木県",
    "city": "那須塩原市",
    "town": "北二つ室"
  },
  "3292735": {
    "zipcode": "3292735",
    "prefectureCode": "09",
    "prefectureNumber": 9,
    "prefecture": "栃木県",
    "city": "那須塩原市",
    "town": "太夫塚"
  },
  "3292741": {
    "zipcode": "3292741",
    "prefectureCode": "09",
    "prefectureNumber": 9,
    "prefecture": "栃木県",
    "city": "那須塩原市",
    "town": "北赤田"
  },
  "3292742": {
    "zipcode": "3292742",
    "prefectureCode": "09",
    "prefectureNumber": 9,
    "prefecture": "栃木県",
    "city": "那須塩原市",
    "town": "東赤田"
  },
  "3292743": {
    "zipcode": "3292743",
    "prefectureCode": "09",
    "prefectureNumber": 9,
    "prefecture": "栃木県",
    "city": "那須塩原市",
    "town": "南赤田"
  },
  "3292744": {
    "zipcode": "3292744",
    "prefectureCode": "09",
    "prefectureNumber": 9,
    "prefecture": "栃木県",
    "city": "那須塩原市",
    "town": "西赤田"
  },
  "3292745": {
    "zipcode": "3292745",
    "prefectureCode": "09",
    "prefectureNumber": 9,
    "prefecture": "栃木県",
    "city": "那須塩原市",
    "town": "三区町"
  },
  "3292746": {
    "zipcode": "3292746",
    "prefectureCode": "09",
    "prefectureNumber": 9,
    "prefecture": "栃木県",
    "city": "那須塩原市",
    "town": "四区町"
  },
  "3292747": {
    "zipcode": "3292747",
    "prefectureCode": "09",
    "prefectureNumber": 9,
    "prefecture": "栃木県",
    "city": "那須塩原市",
    "town": "千本松"
  },
  "3292748": {
    "zipcode": "3292748",
    "prefectureCode": "09",
    "prefectureNumber": 9,
    "prefecture": "栃木県",
    "city": "那須塩原市",
    "town": "上赤田"
  },
  "3292751": {
    "zipcode": "3292751",
    "prefectureCode": "09",
    "prefectureNumber": 9,
    "prefecture": "栃木県",
    "city": "那須塩原市",
    "town": "東三島"
  },
  "3292752": {
    "zipcode": "3292752",
    "prefectureCode": "09",
    "prefectureNumber": 9,
    "prefecture": "栃木県",
    "city": "那須塩原市",
    "town": "三島"
  },
  "3292753": {
    "zipcode": "3292753",
    "prefectureCode": "09",
    "prefectureNumber": 9,
    "prefecture": "栃木県",
    "city": "那須塩原市",
    "town": "五軒町"
  },
  "3292754": {
    "zipcode": "3292754",
    "prefectureCode": "09",
    "prefectureNumber": 9,
    "prefecture": "栃木県",
    "city": "那須塩原市",
    "town": "西大和"
  },
  "3292755": {
    "zipcode": "3292755",
    "prefectureCode": "09",
    "prefectureNumber": 9,
    "prefecture": "栃木県",
    "city": "那須塩原市",
    "town": "西原町"
  },
  "3292756": {
    "zipcode": "3292756",
    "prefectureCode": "09",
    "prefectureNumber": 9,
    "prefecture": "栃木県",
    "city": "那須塩原市",
    "town": "西三島"
  },
  "3292761": {
    "zipcode": "3292761",
    "prefectureCode": "09",
    "prefectureNumber": 9,
    "prefecture": "栃木県",
    "city": "那須塩原市",
    "town": "東遅沢"
  },
  "3292762": {
    "zipcode": "3292762",
    "prefectureCode": "09",
    "prefectureNumber": 9,
    "prefecture": "栃木県",
    "city": "那須塩原市",
    "town": "西富山"
  },
  "3292763": {
    "zipcode": "3292763",
    "prefectureCode": "09",
    "prefectureNumber": 9,
    "prefecture": "栃木県",
    "city": "那須塩原市",
    "town": "井口"
  },
  "3292764": {
    "zipcode": "3292764",
    "prefectureCode": "09",
    "prefectureNumber": 9,
    "prefecture": "栃木県",
    "city": "那須塩原市",
    "town": "西遅沢"
  },
  "3292801": {
    "zipcode": "3292801",
    "prefectureCode": "09",
    "prefectureNumber": 9,
    "prefecture": "栃木県",
    "city": "那須塩原市",
    "town": "関谷"
  },
  "3292802": {
    "zipcode": "3292802",
    "prefectureCode": "09",
    "prefectureNumber": 9,
    "prefecture": "栃木県",
    "city": "那須塩原市",
    "town": "蟇沼"
  },
  "3292803": {
    "zipcode": "3292803",
    "prefectureCode": "09",
    "prefectureNumber": 9,
    "prefecture": "栃木県",
    "city": "那須塩原市",
    "town": "遅野沢"
  },
  "3292804": {
    "zipcode": "3292804",
    "prefectureCode": "09",
    "prefectureNumber": 9,
    "prefecture": "栃木県",
    "city": "那須塩原市",
    "town": "折戸"
  },
  "3292805": {
    "zipcode": "3292805",
    "prefectureCode": "09",
    "prefectureNumber": 9,
    "prefecture": "栃木県",
    "city": "那須塩原市",
    "town": "上横林"
  },
  "3292806": {
    "zipcode": "3292806",
    "prefectureCode": "09",
    "prefectureNumber": 9,
    "prefecture": "栃木県",
    "city": "那須塩原市",
    "town": "横林"
  },
  "3292807": {
    "zipcode": "3292807",
    "prefectureCode": "09",
    "prefectureNumber": 9,
    "prefecture": "栃木県",
    "city": "那須塩原市",
    "town": "接骨木"
  },
  "3292811": {
    "zipcode": "3292811",
    "prefectureCode": "09",
    "prefectureNumber": 9,
    "prefecture": "栃木県",
    "city": "那須塩原市",
    "town": "下田野"
  },
  "3292812": {
    "zipcode": "3292812",
    "prefectureCode": "09",
    "prefectureNumber": 9,
    "prefecture": "栃木県",
    "city": "那須塩原市",
    "town": "金沢"
  },
  "3292813": {
    "zipcode": "3292813",
    "prefectureCode": "09",
    "prefectureNumber": 9,
    "prefecture": "栃木県",
    "city": "那須塩原市",
    "town": "高阿津"
  },
  "3292814": {
    "zipcode": "3292814",
    "prefectureCode": "09",
    "prefectureNumber": 9,
    "prefecture": "栃木県",
    "city": "那須塩原市",
    "town": "上大貫"
  },
  "3292815": {
    "zipcode": "3292815",
    "prefectureCode": "09",
    "prefectureNumber": 9,
    "prefecture": "栃木県",
    "city": "那須塩原市",
    "town": "下大貫"
  },
  "3292816": {
    "zipcode": "3292816",
    "prefectureCode": "09",
    "prefectureNumber": 9,
    "prefecture": "栃木県",
    "city": "那須塩原市",
    "town": "宇都野"
  },
  "3292921": {
    "zipcode": "3292921",
    "prefectureCode": "09",
    "prefectureNumber": 9,
    "prefecture": "栃木県",
    "city": "那須塩原市",
    "town": "塩原"
  },
  "3292922": {
    "zipcode": "3292922",
    "prefectureCode": "09",
    "prefectureNumber": 9,
    "prefecture": "栃木県",
    "city": "那須塩原市",
    "town": "湯本塩原"
  },
  "3292923": {
    "zipcode": "3292923",
    "prefectureCode": "09",
    "prefectureNumber": 9,
    "prefecture": "栃木県",
    "city": "那須塩原市",
    "town": "上塩原"
  },
  "3292924": {
    "zipcode": "3292924",
    "prefectureCode": "09",
    "prefectureNumber": 9,
    "prefecture": "栃木県",
    "city": "那須塩原市",
    "town": "中塩原"
  },
  "3293121": {
    "zipcode": "3293121",
    "prefectureCode": "09",
    "prefectureNumber": 9,
    "prefecture": "栃木県",
    "city": "那須塩原市",
    "town": "鹿野崎"
  },
  "3293122": {
    "zipcode": "3293122",
    "prefectureCode": "09",
    "prefectureNumber": 9,
    "prefecture": "栃木県",
    "city": "那須塩原市",
    "town": "塩野崎"
  },
  "3293123": {
    "zipcode": "3293123",
    "prefectureCode": "09",
    "prefectureNumber": 9,
    "prefecture": "栃木県",
    "city": "那須塩原市",
    "town": "塩野崎新田"
  },
  "3293124": {
    "zipcode": "3293124",
    "prefectureCode": "09",
    "prefectureNumber": 9,
    "prefecture": "栃木県",
    "city": "那須塩原市",
    "town": "波立"
  },
  "3293125": {
    "zipcode": "3293125",
    "prefectureCode": "09",
    "prefectureNumber": 9,
    "prefecture": "栃木県",
    "city": "那須塩原市",
    "town": "無栗屋"
  },
  "3293126": {
    "zipcode": "3293126",
    "prefectureCode": "09",
    "prefectureNumber": 9,
    "prefecture": "栃木県",
    "city": "那須塩原市",
    "town": "中内"
  },
  "3293127": {
    "zipcode": "3293127",
    "prefectureCode": "09",
    "prefectureNumber": 9,
    "prefecture": "栃木県",
    "city": "那須塩原市",
    "town": "上郷屋"
  },
  "3293131": {
    "zipcode": "3293131",
    "prefectureCode": "09",
    "prefectureNumber": 9,
    "prefecture": "栃木県",
    "city": "那須塩原市",
    "town": "唐杉"
  },
  "3293132": {
    "zipcode": "3293132",
    "prefectureCode": "09",
    "prefectureNumber": 9,
    "prefecture": "栃木県",
    "city": "那須塩原市",
    "town": "北弥六"
  },
  "3293133": {
    "zipcode": "3293133",
    "prefectureCode": "09",
    "prefectureNumber": 9,
    "prefecture": "栃木県",
    "city": "那須塩原市",
    "town": "沓掛"
  },
  "3293134": {
    "zipcode": "3293134",
    "prefectureCode": "09",
    "prefectureNumber": 9,
    "prefecture": "栃木県",
    "city": "那須塩原市",
    "town": "上大塚新田"
  },
  "3293135": {
    "zipcode": "3293135",
    "prefectureCode": "09",
    "prefectureNumber": 9,
    "prefecture": "栃木県",
    "city": "那須塩原市",
    "town": "前弥六"
  },
  "3293136": {
    "zipcode": "3293136",
    "prefectureCode": "09",
    "prefectureNumber": 9,
    "prefecture": "栃木県",
    "city": "那須塩原市",
    "town": "前弥六南町"
  },
  "3293141": {
    "zipcode": "3293141",
    "prefectureCode": "09",
    "prefectureNumber": 9,
    "prefecture": "栃木県",
    "city": "那須塩原市",
    "town": "山中新田"
  },
  "3293142": {
    "zipcode": "3293142",
    "prefectureCode": "09",
    "prefectureNumber": 9,
    "prefecture": "栃木県",
    "city": "那須塩原市",
    "town": "佐野"
  },
  "3293143": {
    "zipcode": "3293143",
    "prefectureCode": "09",
    "prefectureNumber": 9,
    "prefecture": "栃木県",
    "city": "那須塩原市",
    "town": "三本木"
  },
  "3293144": {
    "zipcode": "3293144",
    "prefectureCode": "09",
    "prefectureNumber": 9,
    "prefecture": "栃木県",
    "city": "那須塩原市",
    "town": "沼野田和"
  },
  "3293145": {
    "zipcode": "3293145",
    "prefectureCode": "09",
    "prefectureNumber": 9,
    "prefecture": "栃木県",
    "city": "那須塩原市",
    "town": "木曾畑中"
  },
  "3293146": {
    "zipcode": "3293146",
    "prefectureCode": "09",
    "prefectureNumber": 9,
    "prefecture": "栃木県",
    "city": "那須塩原市",
    "town": "下中野"
  },
  "3293147": {
    "zipcode": "3293147",
    "prefectureCode": "09",
    "prefectureNumber": 9,
    "prefecture": "栃木県",
    "city": "那須塩原市",
    "town": "東小屋"
  },
  "3293151": {
    "zipcode": "3293151",
    "prefectureCode": "09",
    "prefectureNumber": 9,
    "prefecture": "栃木県",
    "city": "那須塩原市",
    "town": "北和田"
  },
  "3293152": {
    "zipcode": "3293152",
    "prefectureCode": "09",
    "prefectureNumber": 9,
    "prefecture": "栃木県",
    "city": "那須塩原市",
    "town": "島方"
  },
  "3293153": {
    "zipcode": "3293153",
    "prefectureCode": "09",
    "prefectureNumber": 9,
    "prefecture": "栃木県",
    "city": "那須塩原市",
    "town": "大原間"
  },
  "3293154": {
    "zipcode": "3293154",
    "prefectureCode": "09",
    "prefectureNumber": 9,
    "prefecture": "栃木県",
    "city": "那須塩原市",
    "town": "上中野"
  },
  "3293155": {
    "zipcode": "3293155",
    "prefectureCode": "09",
    "prefectureNumber": 9,
    "prefecture": "栃木県",
    "city": "那須塩原市",
    "town": "笹沼"
  },
  "3293156": {
    "zipcode": "3293156",
    "prefectureCode": "09",
    "prefectureNumber": 9,
    "prefecture": "栃木県",
    "city": "那須塩原市",
    "town": "方京"
  },
  "3293157": {
    "zipcode": "3293157",
    "prefectureCode": "09",
    "prefectureNumber": 9,
    "prefecture": "栃木県",
    "city": "那須塩原市",
    "town": "大原間西"
  },
  "3293200": {
    "zipcode": "3293200",
    "prefectureCode": "09",
    "prefectureNumber": 9,
    "prefecture": "栃木県",
    "city": "那須郡那須町",
    "town": "以下に掲載がない場合"
  },
  "3293211": {
    "zipcode": "3293211",
    "prefectureCode": "09",
    "prefectureNumber": 9,
    "prefecture": "栃木県",
    "city": "那須郡那須町",
    "town": "豊原甲"
  },
  "3293212": {
    "zipcode": "3293212",
    "prefectureCode": "09",
    "prefectureNumber": 9,
    "prefecture": "栃木県",
    "city": "那須郡那須町",
    "town": "富岡"
  },
  "3293213": {
    "zipcode": "3293213",
    "prefectureCode": "09",
    "prefectureNumber": 9,
    "prefecture": "栃木県",
    "city": "那須郡那須町",
    "town": "豊原"
  },
  "3293214": {
    "zipcode": "3293214",
    "prefectureCode": "09",
    "prefectureNumber": 9,
    "prefecture": "栃木県",
    "city": "那須郡那須町",
    "town": "横岡（１５６３、１６６０、１６７０、１７２８、１７３６、１７４８、１７６７−４番地）"
  },
  "3293215": {
    "zipcode": "3293215",
    "prefectureCode": "09",
    "prefectureNumber": 9,
    "prefecture": "栃木県",
    "city": "那須郡那須町",
    "town": "寺子乙（その他）"
  },
  "3293221": {
    "zipcode": "3293221",
    "prefectureCode": "09",
    "prefectureNumber": 9,
    "prefecture": "栃木県",
    "city": "那須郡那須町",
    "town": "漆塚"
  },
  "3293222": {
    "zipcode": "3293222",
    "prefectureCode": "09",
    "prefectureNumber": 9,
    "prefecture": "栃木県",
    "city": "那須郡那須町",
    "town": "寺子丙"
  },
  "3293223": {
    "zipcode": "3293223",
    "prefectureCode": "09",
    "prefectureNumber": 9,
    "prefecture": "栃木県",
    "city": "那須郡那須町",
    "town": "大島"
  },
  "3293224": {
    "zipcode": "3293224",
    "prefectureCode": "09",
    "prefectureNumber": 9,
    "prefecture": "栃木県",
    "city": "那須郡那須町",
    "town": "豊原乙"
  },
  "3293225": {
    "zipcode": "3293225",
    "prefectureCode": "09",
    "prefectureNumber": 9,
    "prefecture": "栃木県",
    "city": "那須郡那須町",
    "town": "豊原丙"
  },
  "3293431": {
    "zipcode": "3293431",
    "prefectureCode": "09",
    "prefectureNumber": 9,
    "prefecture": "栃木県",
    "city": "那須郡那須町",
    "town": "大畑"
  },
  "3293432": {
    "zipcode": "3293432",
    "prefectureCode": "09",
    "prefectureNumber": 9,
    "prefecture": "栃木県",
    "city": "那須郡那須町",
    "town": "梓"
  },
  "3293433": {
    "zipcode": "3293433",
    "prefectureCode": "09",
    "prefectureNumber": 9,
    "prefecture": "栃木県",
    "city": "那須郡那須町",
    "town": "大和須"
  },
  "3293434": {
    "zipcode": "3293434",
    "prefectureCode": "09",
    "prefectureNumber": 9,
    "prefecture": "栃木県",
    "city": "那須郡那須町",
    "town": "梁瀬"
  },
  "3293435": {
    "zipcode": "3293435",
    "prefectureCode": "09",
    "prefectureNumber": 9,
    "prefecture": "栃木県",
    "city": "那須郡那須町",
    "town": "睦家"
  },
  "3293436": {
    "zipcode": "3293436",
    "prefectureCode": "09",
    "prefectureNumber": 9,
    "prefecture": "栃木県",
    "city": "那須郡那須町",
    "town": "伊王野"
  },
  "3293437": {
    "zipcode": "3293437",
    "prefectureCode": "09",
    "prefectureNumber": 9,
    "prefecture": "栃木県",
    "city": "那須郡那須町",
    "town": "蓑沢"
  },
  "3293441": {
    "zipcode": "3293441",
    "prefectureCode": "09",
    "prefectureNumber": 9,
    "prefecture": "栃木県",
    "city": "那須郡那須町",
    "town": "寄居"
  },
  "3293442": {
    "zipcode": "3293442",
    "prefectureCode": "09",
    "prefectureNumber": 9,
    "prefecture": "栃木県",
    "city": "那須郡那須町",
    "town": "横岡（その他）"
  },
  "3293443": {
    "zipcode": "3293443",
    "prefectureCode": "09",
    "prefectureNumber": 9,
    "prefecture": "栃木県",
    "city": "那須郡那須町",
    "town": "芦野"
  },
  "3293444": {
    "zipcode": "3293444",
    "prefectureCode": "09",
    "prefectureNumber": 9,
    "prefecture": "栃木県",
    "city": "那須郡那須町",
    "town": "寺子（７０〜１８０番地）"
  },
  "3293445": {
    "zipcode": "3293445",
    "prefectureCode": "09",
    "prefectureNumber": 9,
    "prefecture": "栃木県",
    "city": "那須郡那須町",
    "town": "東岩崎"
  },
  "3293446": {
    "zipcode": "3293446",
    "prefectureCode": "09",
    "prefectureNumber": 9,
    "prefecture": "栃木県",
    "city": "那須郡那須町",
    "town": "沼野井"
  },
  "3293447": {
    "zipcode": "3293447",
    "prefectureCode": "09",
    "prefectureNumber": 9,
    "prefecture": "栃木県",
    "city": "那須郡那須町",
    "town": "稲沢"
  },
  "3294211": {
    "zipcode": "3294211",
    "prefectureCode": "09",
    "prefectureNumber": 9,
    "prefecture": "栃木県",
    "city": "足利市",
    "town": "西場町"
  },
  "3294212": {
    "zipcode": "3294212",
    "prefectureCode": "09",
    "prefectureNumber": 9,
    "prefecture": "栃木県",
    "city": "足利市",
    "town": "稲岡町"
  },
  "3294213": {
    "zipcode": "3294213",
    "prefectureCode": "09",
    "prefectureNumber": 9,
    "prefecture": "栃木県",
    "city": "足利市",
    "town": "寺岡町"
  },
  "3294214": {
    "zipcode": "3294214",
    "prefectureCode": "09",
    "prefectureNumber": 9,
    "prefecture": "栃木県",
    "city": "足利市",
    "town": "多田木町"
  },
  "3294215": {
    "zipcode": "3294215",
    "prefectureCode": "09",
    "prefectureNumber": 9,
    "prefecture": "栃木県",
    "city": "足利市",
    "town": "奥戸町"
  },
  "3294216": {
    "zipcode": "3294216",
    "prefectureCode": "09",
    "prefectureNumber": 9,
    "prefecture": "栃木県",
    "city": "足利市",
    "town": "迫間町"
  },
  "3294217": {
    "zipcode": "3294217",
    "prefectureCode": "09",
    "prefectureNumber": 9,
    "prefecture": "栃木県",
    "city": "足利市",
    "town": "駒場町"
  },
  "3294301": {
    "zipcode": "3294301",
    "prefectureCode": "09",
    "prefectureNumber": 9,
    "prefecture": "栃木県",
    "city": "栃木市",
    "town": "岩舟町鷲巣"
  },
  "3294302": {
    "zipcode": "3294302",
    "prefectureCode": "09",
    "prefectureNumber": 9,
    "prefecture": "栃木県",
    "city": "栃木市",
    "town": "岩舟町五十畑"
  },
  "3294303": {
    "zipcode": "3294303",
    "prefectureCode": "09",
    "prefectureNumber": 9,
    "prefecture": "栃木県",
    "city": "栃木市",
    "town": "岩舟町和泉"
  },
  "3294304": {
    "zipcode": "3294304",
    "prefectureCode": "09",
    "prefectureNumber": 9,
    "prefecture": "栃木県",
    "city": "栃木市",
    "town": "岩舟町静和"
  },
  "3294305": {
    "zipcode": "3294305",
    "prefectureCode": "09",
    "prefectureNumber": 9,
    "prefecture": "栃木県",
    "city": "栃木市",
    "town": "岩舟町静戸"
  },
  "3294306": {
    "zipcode": "3294306",
    "prefectureCode": "09",
    "prefectureNumber": 9,
    "prefecture": "栃木県",
    "city": "栃木市",
    "town": "岩舟町曲ケ島"
  },
  "3294307": {
    "zipcode": "3294307",
    "prefectureCode": "09",
    "prefectureNumber": 9,
    "prefecture": "栃木県",
    "city": "栃木市",
    "town": "岩舟町静"
  },
  "3294308": {
    "zipcode": "3294308",
    "prefectureCode": "09",
    "prefectureNumber": 9,
    "prefecture": "栃木県",
    "city": "栃木市",
    "town": "岩舟町下津原"
  },
  "3294309": {
    "zipcode": "3294309",
    "prefectureCode": "09",
    "prefectureNumber": 9,
    "prefecture": "栃木県",
    "city": "栃木市",
    "town": "岩舟町畳岡"
  },
  "3294311": {
    "zipcode": "3294311",
    "prefectureCode": "09",
    "prefectureNumber": 9,
    "prefecture": "栃木県",
    "city": "栃木市",
    "town": "岩舟町古江"
  },
  "3294312": {
    "zipcode": "3294312",
    "prefectureCode": "09",
    "prefectureNumber": 9,
    "prefecture": "栃木県",
    "city": "栃木市",
    "town": "岩舟町下岡"
  },
  "3294313": {
    "zipcode": "3294313",
    "prefectureCode": "09",
    "prefectureNumber": 9,
    "prefecture": "栃木県",
    "city": "栃木市",
    "town": "岩舟町上岡"
  },
  "3294314": {
    "zipcode": "3294314",
    "prefectureCode": "09",
    "prefectureNumber": 9,
    "prefecture": "栃木県",
    "city": "栃木市",
    "town": "岩舟町小野寺"
  },
  "3294315": {
    "zipcode": "3294315",
    "prefectureCode": "09",
    "prefectureNumber": 9,
    "prefecture": "栃木県",
    "city": "栃木市",
    "town": "岩舟町三谷"
  },
  "3294316": {
    "zipcode": "3294316",
    "prefectureCode": "09",
    "prefectureNumber": 9,
    "prefecture": "栃木県",
    "city": "栃木市",
    "town": "岩舟町新里"
  },
  "3294401": {
    "zipcode": "3294401",
    "prefectureCode": "09",
    "prefectureNumber": 9,
    "prefecture": "栃木県",
    "city": "栃木市",
    "town": "大平町牛久"
  },
  "3294402": {
    "zipcode": "3294402",
    "prefectureCode": "09",
    "prefectureNumber": 9,
    "prefecture": "栃木県",
    "city": "栃木市",
    "town": "大平町土与"
  },
  "3294403": {
    "zipcode": "3294403",
    "prefectureCode": "09",
    "prefectureNumber": 9,
    "prefecture": "栃木県",
    "city": "栃木市",
    "town": "大平町蔵井"
  },
  "3294404": {
    "zipcode": "3294404",
    "prefectureCode": "09",
    "prefectureNumber": 9,
    "prefecture": "栃木県",
    "city": "栃木市",
    "town": "大平町富田"
  },
  "3294405": {
    "zipcode": "3294405",
    "prefectureCode": "09",
    "prefectureNumber": 9,
    "prefecture": "栃木県",
    "city": "栃木市",
    "town": "大平町西山田"
  },
  "3294406": {
    "zipcode": "3294406",
    "prefectureCode": "09",
    "prefectureNumber": 9,
    "prefecture": "栃木県",
    "city": "栃木市",
    "town": "大平町下皆川"
  },
  "3294407": {
    "zipcode": "3294407",
    "prefectureCode": "09",
    "prefectureNumber": 9,
    "prefecture": "栃木県",
    "city": "栃木市",
    "town": "大平町川連"
  },
  "3294411": {
    "zipcode": "3294411",
    "prefectureCode": "09",
    "prefectureNumber": 9,
    "prefecture": "栃木県",
    "city": "栃木市",
    "town": "大平町横堀"
  },
  "3294412": {
    "zipcode": "3294412",
    "prefectureCode": "09",
    "prefectureNumber": 9,
    "prefecture": "栃木県",
    "city": "栃木市",
    "town": "大平町北武井"
  },
  "3294413": {
    "zipcode": "3294413",
    "prefectureCode": "09",
    "prefectureNumber": 9,
    "prefecture": "栃木県",
    "city": "栃木市",
    "town": "大平町上高島"
  },
  "3294414": {
    "zipcode": "3294414",
    "prefectureCode": "09",
    "prefectureNumber": 9,
    "prefecture": "栃木県",
    "city": "栃木市",
    "town": "大平町下高島"
  },
  "3294415": {
    "zipcode": "3294415",
    "prefectureCode": "09",
    "prefectureNumber": 9,
    "prefecture": "栃木県",
    "city": "栃木市",
    "town": "大平町真弓"
  },
  "3294421": {
    "zipcode": "3294421",
    "prefectureCode": "09",
    "prefectureNumber": 9,
    "prefecture": "栃木県",
    "city": "栃木市",
    "town": "大平町西野田"
  },
  "3294422": {
    "zipcode": "3294422",
    "prefectureCode": "09",
    "prefectureNumber": 9,
    "prefecture": "栃木県",
    "city": "栃木市",
    "town": "大平町榎本"
  },
  "3294423": {
    "zipcode": "3294423",
    "prefectureCode": "09",
    "prefectureNumber": 9,
    "prefecture": "栃木県",
    "city": "栃木市",
    "town": "大平町西水代"
  },
  "3294424": {
    "zipcode": "3294424",
    "prefectureCode": "09",
    "prefectureNumber": 9,
    "prefecture": "栃木県",
    "city": "栃木市",
    "town": "大平町伯仲"
  },
  "3294425": {
    "zipcode": "3294425",
    "prefectureCode": "09",
    "prefectureNumber": 9,
    "prefecture": "栃木県",
    "city": "栃木市",
    "town": "大平町新"
  }
}
