{
  "3300000": {
    "zipcode": "3300000",
    "prefectureCode": "11",
    "prefectureNumber": 11,
    "prefecture": "埼玉県",
    "city": "さいたま市浦和区",
    "town": "以下に掲載がない場合"
  },
  "3300041": {
    "zipcode": "3300041",
    "prefectureCode": "11",
    "prefectureNumber": 11,
    "prefecture": "埼玉県",
    "city": "さいたま市浦和区",
    "town": "三崎"
  },
  "3300042": {
    "zipcode": "3300042",
    "prefectureCode": "11",
    "prefectureNumber": 11,
    "prefecture": "埼玉県",
    "city": "さいたま市浦和区",
    "town": "木崎"
  },
  "3300043": {
    "zipcode": "3300043",
    "prefectureCode": "11",
    "prefectureNumber": 11,
    "prefecture": "埼玉県",
    "city": "さいたま市浦和区",
    "town": "大東"
  },
  "3300044": {
    "zipcode": "3300044",
    "prefectureCode": "11",
    "prefectureNumber": 11,
    "prefecture": "埼玉県",
    "city": "さいたま市浦和区",
    "town": "瀬ヶ崎"
  },
  "3300045": {
    "zipcode": "3300045",
    "prefectureCode": "11",
    "prefectureNumber": 11,
    "prefecture": "埼玉県",
    "city": "さいたま市浦和区",
    "town": "皇山町"
  },
  "3300046": {
    "zipcode": "3300046",
    "prefectureCode": "11",
    "prefectureNumber": 11,
    "prefecture": "埼玉県",
    "city": "さいたま市浦和区",
    "town": "大原"
  },
  "3300051": {
    "zipcode": "3300051",
    "prefectureCode": "11",
    "prefectureNumber": 11,
    "prefecture": "埼玉県",
    "city": "さいたま市浦和区",
    "town": "駒場"
  },
  "3300052": {
    "zipcode": "3300052",
    "prefectureCode": "11",
    "prefectureNumber": 11,
    "prefecture": "埼玉県",
    "city": "さいたま市浦和区",
    "town": "本太"
  },
  "3300053": {
    "zipcode": "3300053",
    "prefectureCode": "11",
    "prefectureNumber": 11,
    "prefecture": "埼玉県",
    "city": "さいたま市浦和区",
    "town": "前地"
  },
  "3300054": {
    "zipcode": "3300054",
    "prefectureCode": "11",
    "prefectureNumber": 11,
    "prefecture": "埼玉県",
    "city": "さいたま市浦和区",
    "town": "東岸町"
  },
  "3300055": {
    "zipcode": "3300055",
    "prefectureCode": "11",
    "prefectureNumber": 11,
    "prefecture": "埼玉県",
    "city": "さいたま市浦和区",
    "town": "東高砂町"
  },
  "3300056": {
    "zipcode": "3300056",
    "prefectureCode": "11",
    "prefectureNumber": 11,
    "prefecture": "埼玉県",
    "city": "さいたま市浦和区",
    "town": "東仲町"
  },
  "3300061": {
    "zipcode": "3300061",
    "prefectureCode": "11",
    "prefectureNumber": 11,
    "prefecture": "埼玉県",
    "city": "さいたま市浦和区",
    "town": "常盤"
  },
  "3300062": {
    "zipcode": "3300062",
    "prefectureCode": "11",
    "prefectureNumber": 11,
    "prefecture": "埼玉県",
    "city": "さいたま市浦和区",
    "town": "仲町"
  },
  "3300063": {
    "zipcode": "3300063",
    "prefectureCode": "11",
    "prefectureNumber": 11,
    "prefecture": "埼玉県",
    "city": "さいたま市浦和区",
    "town": "高砂"
  },
  "3300064": {
    "zipcode": "3300064",
    "prefectureCode": "11",
    "prefectureNumber": 11,
    "prefecture": "埼玉県",
    "city": "さいたま市浦和区",
    "town": "岸町"
  },
  "3300065": {
    "zipcode": "3300065",
    "prefectureCode": "11",
    "prefectureNumber": 11,
    "prefecture": "埼玉県",
    "city": "さいたま市浦和区",
    "town": "神明"
  },
  "3300071": {
    "zipcode": "3300071",
    "prefectureCode": "11",
    "prefectureNumber": 11,
    "prefecture": "埼玉県",
    "city": "さいたま市浦和区",
    "town": "上木崎"
  },
  "3300072": {
    "zipcode": "3300072",
    "prefectureCode": "11",
    "prefectureNumber": 11,
    "prefecture": "埼玉県",
    "city": "さいたま市浦和区",
    "town": "領家"
  },
  "3300073": {
    "zipcode": "3300073",
    "prefectureCode": "11",
    "prefectureNumber": 11,
    "prefecture": "埼玉県",
    "city": "さいたま市浦和区",
    "town": "元町"
  },
  "3300074": {
    "zipcode": "3300074",
    "prefectureCode": "11",
    "prefectureNumber": 11,
    "prefecture": "埼玉県",
    "city": "さいたま市浦和区",
    "town": "北浦和"
  },
  "3300075": {
    "zipcode": "3300075",
    "prefectureCode": "11",
    "prefectureNumber": 11,
    "prefecture": "埼玉県",
    "city": "さいたま市浦和区",
    "town": "針ヶ谷"
  },
  "3300081": {
    "zipcode": "3300081",
    "prefectureCode": "11",
    "prefectureNumber": 11,
    "prefecture": "埼玉県",
    "city": "さいたま市中央区",
    "town": "新都心（次のビルを除く）"
  },
  "3300800": {
    "zipcode": "3300800",
    "prefectureCode": "11",
    "prefectureNumber": 11,
    "prefecture": "埼玉県",
    "city": "さいたま市大宮区",
    "town": "以下に掲載がない場合"
  },
  "3300801": {
    "zipcode": "3300801",
    "prefectureCode": "11",
    "prefectureNumber": 11,
    "prefecture": "埼玉県",
    "city": "さいたま市大宮区",
    "town": "土手町"
  },
  "3300802": {
    "zipcode": "3300802",
    "prefectureCode": "11",
    "prefectureNumber": 11,
    "prefecture": "埼玉県",
    "city": "さいたま市大宮区",
    "town": "宮町"
  },
  "3300803": {
    "zipcode": "3300803",
    "prefectureCode": "11",
    "prefectureNumber": 11,
    "prefecture": "埼玉県",
    "city": "さいたま市大宮区",
    "town": "高鼻町"
  },
  "3300804": {
    "zipcode": "3300804",
    "prefectureCode": "11",
    "prefectureNumber": 11,
    "prefecture": "埼玉県",
    "city": "さいたま市大宮区",
    "town": "堀の内町"
  },
  "3300805": {
    "zipcode": "3300805",
    "prefectureCode": "11",
    "prefectureNumber": 11,
    "prefecture": "埼玉県",
    "city": "さいたま市大宮区",
    "town": "寿能町"
  },
  "3300834": {
    "zipcode": "3300834",
    "prefectureCode": "11",
    "prefectureNumber": 11,
    "prefecture": "埼玉県",
    "city": "さいたま市大宮区",
    "town": "天沼町"
  },
  "3300835": {
    "zipcode": "3300835",
    "prefectureCode": "11",
    "prefectureNumber": 11,
    "prefecture": "埼玉県",
    "city": "さいたま市大宮区",
    "town": "北袋町"
  },
  "3300836": {
    "zipcode": "3300836",
    "prefectureCode": "11",
    "prefectureNumber": 11,
    "prefecture": "埼玉県",
    "city": "さいたま市大宮区",
    "town": "大原"
  },
  "3300841": {
    "zipcode": "3300841",
    "prefectureCode": "11",
    "prefectureNumber": 11,
    "prefecture": "埼玉県",
    "city": "さいたま市大宮区",
    "town": "東町"
  },
  "3300842": {
    "zipcode": "3300842",
    "prefectureCode": "11",
    "prefectureNumber": 11,
    "prefecture": "埼玉県",
    "city": "さいたま市大宮区",
    "town": "浅間町"
  },
  "3300843": {
    "zipcode": "3300843",
    "prefectureCode": "11",
    "prefectureNumber": 11,
    "prefecture": "埼玉県",
    "city": "さいたま市大宮区",
    "town": "吉敷町"
  },
  "3300844": {
    "zipcode": "3300844",
    "prefectureCode": "11",
    "prefectureNumber": 11,
    "prefecture": "埼玉県",
    "city": "さいたま市大宮区",
    "town": "下町"
  },
  "3300845": {
    "zipcode": "3300845",
    "prefectureCode": "11",
    "prefectureNumber": 11,
    "prefecture": "埼玉県",
    "city": "さいたま市大宮区",
    "town": "仲町"
  },
  "3300846": {
    "zipcode": "3300846",
    "prefectureCode": "11",
    "prefectureNumber": 11,
    "prefecture": "埼玉県",
    "city": "さいたま市大宮区",
    "town": "大門町"
  },
  "3300851": {
    "zipcode": "3300851",
    "prefectureCode": "11",
    "prefectureNumber": 11,
    "prefecture": "埼玉県",
    "city": "さいたま市大宮区",
    "town": "櫛引町"
  },
  "3300852": {
    "zipcode": "3300852",
    "prefectureCode": "11",
    "prefectureNumber": 11,
    "prefecture": "埼玉県",
    "city": "さいたま市大宮区",
    "town": "大成町"
  },
  "3300853": {
    "zipcode": "3300853",
    "prefectureCode": "11",
    "prefectureNumber": 11,
    "prefecture": "埼玉県",
    "city": "さいたま市大宮区",
    "town": "錦町"
  },
  "3300854": {
    "zipcode": "3300854",
    "prefectureCode": "11",
    "prefectureNumber": 11,
    "prefecture": "埼玉県",
    "city": "さいたま市大宮区",
    "town": "桜木町"
  },
  "3300855": {
    "zipcode": "3300855",
    "prefectureCode": "11",
    "prefectureNumber": 11,
    "prefecture": "埼玉県",
    "city": "さいたま市大宮区",
    "town": "上小町"
  },
  "3300856": {
    "zipcode": "3300856",
    "prefectureCode": "11",
    "prefectureNumber": 11,
    "prefecture": "埼玉県",
    "city": "さいたま市大宮区",
    "town": "三橋"
  },
  "3306001": {
    "zipcode": "3306001",
    "prefectureCode": "11",
    "prefectureNumber": 11,
    "prefecture": "埼玉県",
    "city": "さいたま市中央区",
    "town": "新都心明治安田生命さいたま新都心ビル（１階）"
  },
  "3306002": {
    "zipcode": "3306002",
    "prefectureCode": "11",
    "prefectureNumber": 11,
    "prefecture": "埼玉県",
    "city": "さいたま市中央区",
    "town": "新都心明治安田生命さいたま新都心ビル（２階）"
  },
  "3306003": {
    "zipcode": "3306003",
    "prefectureCode": "11",
    "prefectureNumber": 11,
    "prefecture": "埼玉県",
    "city": "さいたま市中央区",
    "town": "新都心明治安田生命さいたま新都心ビル（３階）"
  },
  "3306004": {
    "zipcode": "3306004",
    "prefectureCode": "11",
    "prefectureNumber": 11,
    "prefecture": "埼玉県",
    "city": "さいたま市中央区",
    "town": "新都心明治安田生命さいたま新都心ビル（４階）"
  },
  "3306005": {
    "zipcode": "3306005",
    "prefectureCode": "11",
    "prefectureNumber": 11,
    "prefecture": "埼玉県",
    "city": "さいたま市中央区",
    "town": "新都心明治安田生命さいたま新都心ビル（５階）"
  },
  "3306006": {
    "zipcode": "3306006",
    "prefectureCode": "11",
    "prefectureNumber": 11,
    "prefecture": "埼玉県",
    "city": "さいたま市中央区",
    "town": "新都心明治安田生命さいたま新都心ビル（６階）"
  },
  "3306007": {
    "zipcode": "3306007",
    "prefectureCode": "11",
    "prefectureNumber": 11,
    "prefecture": "埼玉県",
    "city": "さいたま市中央区",
    "town": "新都心明治安田生命さいたま新都心ビル（７階）"
  },
  "3306008": {
    "zipcode": "3306008",
    "prefectureCode": "11",
    "prefectureNumber": 11,
    "prefecture": "埼玉県",
    "city": "さいたま市中央区",
    "town": "新都心明治安田生命さいたま新都心ビル（８階）"
  },
  "3306009": {
    "zipcode": "3306009",
    "prefectureCode": "11",
    "prefectureNumber": 11,
    "prefecture": "埼玉県",
    "city": "さいたま市中央区",
    "town": "新都心明治安田生命さいたま新都心ビル（９階）"
  },
  "3306010": {
    "zipcode": "3306010",
    "prefectureCode": "11",
    "prefectureNumber": 11,
    "prefecture": "埼玉県",
    "city": "さいたま市中央区",
    "town": "新都心明治安田生命さいたま新都心ビル（１０階）"
  },
  "3306011": {
    "zipcode": "3306011",
    "prefectureCode": "11",
    "prefectureNumber": 11,
    "prefecture": "埼玉県",
    "city": "さいたま市中央区",
    "town": "新都心明治安田生命さいたま新都心ビル（１１階）"
  },
  "3306012": {
    "zipcode": "3306012",
    "prefectureCode": "11",
    "prefectureNumber": 11,
    "prefecture": "埼玉県",
    "city": "さいたま市中央区",
    "town": "新都心明治安田生命さいたま新都心ビル（１２階）"
  },
  "3306013": {
    "zipcode": "3306013",
    "prefectureCode": "11",
    "prefectureNumber": 11,
    "prefecture": "埼玉県",
    "city": "さいたま市中央区",
    "town": "新都心明治安田生命さいたま新都心ビル（１３階）"
  },
  "3306014": {
    "zipcode": "3306014",
    "prefectureCode": "11",
    "prefectureNumber": 11,
    "prefecture": "埼玉県",
    "city": "さいたま市中央区",
    "town": "新都心明治安田生命さいたま新都心ビル（１４階）"
  },
  "3306015": {
    "zipcode": "3306015",
    "prefectureCode": "11",
    "prefectureNumber": 11,
    "prefecture": "埼玉県",
    "city": "さいたま市中央区",
    "town": "新都心明治安田生命さいたま新都心ビル（１５階）"
  },
  "3306016": {
    "zipcode": "3306016",
    "prefectureCode": "11",
    "prefectureNumber": 11,
    "prefecture": "埼玉県",
    "city": "さいたま市中央区",
    "town": "新都心明治安田生命さいたま新都心ビル（１６階）"
  },
  "3306017": {
    "zipcode": "3306017",
    "prefectureCode": "11",
    "prefectureNumber": 11,
    "prefecture": "埼玉県",
    "city": "さいたま市中央区",
    "town": "新都心明治安田生命さいたま新都心ビル（１７階）"
  },
  "3306018": {
    "zipcode": "3306018",
    "prefectureCode": "11",
    "prefectureNumber": 11,
    "prefecture": "埼玉県",
    "city": "さいたま市中央区",
    "town": "新都心明治安田生命さいたま新都心ビル（１８階）"
  },
  "3306019": {
    "zipcode": "3306019",
    "prefectureCode": "11",
    "prefectureNumber": 11,
    "prefecture": "埼玉県",
    "city": "さいたま市中央区",
    "town": "新都心明治安田生命さいたま新都心ビル（１９階）"
  },
  "3306020": {
    "zipcode": "3306020",
    "prefectureCode": "11",
    "prefectureNumber": 11,
    "prefecture": "埼玉県",
    "city": "さいたま市中央区",
    "town": "新都心明治安田生命さいたま新都心ビル（２０階）"
  },
  "3306021": {
    "zipcode": "3306021",
    "prefectureCode": "11",
    "prefectureNumber": 11,
    "prefecture": "埼玉県",
    "city": "さいたま市中央区",
    "town": "新都心明治安田生命さいたま新都心ビル（２１階）"
  },
  "3306022": {
    "zipcode": "3306022",
    "prefectureCode": "11",
    "prefectureNumber": 11,
    "prefecture": "埼玉県",
    "city": "さいたま市中央区",
    "town": "新都心明治安田生命さいたま新都心ビル（２２階）"
  },
  "3306023": {
    "zipcode": "3306023",
    "prefectureCode": "11",
    "prefectureNumber": 11,
    "prefecture": "埼玉県",
    "city": "さいたま市中央区",
    "town": "新都心明治安田生命さいたま新都心ビル（２３階）"
  },
  "3306024": {
    "zipcode": "3306024",
    "prefectureCode": "11",
    "prefectureNumber": 11,
    "prefecture": "埼玉県",
    "city": "さいたま市中央区",
    "town": "新都心明治安田生命さいたま新都心ビル（２４階）"
  },
  "3306025": {
    "zipcode": "3306025",
    "prefectureCode": "11",
    "prefectureNumber": 11,
    "prefecture": "埼玉県",
    "city": "さいたま市中央区",
    "town": "新都心明治安田生命さいたま新都心ビル（２５階）"
  },
  "3306026": {
    "zipcode": "3306026",
    "prefectureCode": "11",
    "prefectureNumber": 11,
    "prefecture": "埼玉県",
    "city": "さいたま市中央区",
    "town": "新都心明治安田生命さいたま新都心ビル（２６階）"
  },
  "3306027": {
    "zipcode": "3306027",
    "prefectureCode": "11",
    "prefectureNumber": 11,
    "prefecture": "埼玉県",
    "city": "さいたま市中央区",
    "town": "新都心明治安田生命さいたま新都心ビル（２７階）"
  },
  "3306028": {
    "zipcode": "3306028",
    "prefectureCode": "11",
    "prefectureNumber": 11,
    "prefecture": "埼玉県",
    "city": "さいたま市中央区",
    "town": "新都心明治安田生命さいたま新都心ビル（２８階）"
  },
  "3306029": {
    "zipcode": "3306029",
    "prefectureCode": "11",
    "prefectureNumber": 11,
    "prefecture": "埼玉県",
    "city": "さいたま市中央区",
    "town": "新都心明治安田生命さいたま新都心ビル（２９階）"
  },
  "3306030": {
    "zipcode": "3306030",
    "prefectureCode": "11",
    "prefectureNumber": 11,
    "prefecture": "埼玉県",
    "city": "さいたま市中央区",
    "town": "新都心明治安田生命さいたま新都心ビル（３０階）"
  },
  "3306031": {
    "zipcode": "3306031",
    "prefectureCode": "11",
    "prefectureNumber": 11,
    "prefecture": "埼玉県",
    "city": "さいたま市中央区",
    "town": "新都心明治安田生命さいたま新都心ビル（３１階）"
  },
  "3306032": {
    "zipcode": "3306032",
    "prefectureCode": "11",
    "prefectureNumber": 11,
    "prefecture": "埼玉県",
    "city": "さいたま市中央区",
    "town": "新都心明治安田生命さいたま新都心ビル（３２階）"
  },
  "3306033": {
    "zipcode": "3306033",
    "prefectureCode": "11",
    "prefectureNumber": 11,
    "prefecture": "埼玉県",
    "city": "さいたま市中央区",
    "town": "新都心明治安田生命さいたま新都心ビル（３３階）"
  },
  "3306034": {
    "zipcode": "3306034",
    "prefectureCode": "11",
    "prefectureNumber": 11,
    "prefecture": "埼玉県",
    "city": "さいたま市中央区",
    "town": "新都心明治安田生命さいたま新都心ビル（３４階）"
  },
  "3306035": {
    "zipcode": "3306035",
    "prefectureCode": "11",
    "prefectureNumber": 11,
    "prefecture": "埼玉県",
    "city": "さいたま市中央区",
    "town": "新都心明治安田生命さいたま新都心ビル（３５階）"
  },
  "3306090": {
    "zipcode": "3306090",
    "prefectureCode": "11",
    "prefectureNumber": 11,
    "prefecture": "埼玉県",
    "city": "さいたま市中央区",
    "town": "新都心明治安田生命さいたま新都心ビル（地階・階層不明）"
  }
}
