{
  "3340001": {
    "zipcode": "3340001",
    "prefectureCode": "11",
    "prefectureNumber": 11,
    "prefecture": "埼玉県",
    "city": "川口市",
    "town": "桜町"
  },
  "3340002": {
    "zipcode": "3340002",
    "prefectureCode": "11",
    "prefectureNumber": 11,
    "prefecture": "埼玉県",
    "city": "川口市",
    "town": "鳩ヶ谷本町"
  },
  "3340003": {
    "zipcode": "3340003",
    "prefectureCode": "11",
    "prefectureNumber": 11,
    "prefecture": "埼玉県",
    "city": "川口市",
    "town": "坂下町"
  },
  "3340004": {
    "zipcode": "3340004",
    "prefectureCode": "11",
    "prefectureNumber": 11,
    "prefecture": "埼玉県",
    "city": "川口市",
    "town": "辻"
  },
  "3340005": {
    "zipcode": "3340005",
    "prefectureCode": "11",
    "prefectureNumber": 11,
    "prefecture": "埼玉県",
    "city": "川口市",
    "town": "里"
  },
  "3340011": {
    "zipcode": "3340011",
    "prefectureCode": "11",
    "prefectureNumber": 11,
    "prefecture": "埼玉県",
    "city": "川口市",
    "town": "三ツ和"
  },
  "3340012": {
    "zipcode": "3340012",
    "prefectureCode": "11",
    "prefectureNumber": 11,
    "prefecture": "埼玉県",
    "city": "川口市",
    "town": "八幡木"
  },
  "3340013": {
    "zipcode": "3340013",
    "prefectureCode": "11",
    "prefectureNumber": 11,
    "prefecture": "埼玉県",
    "city": "川口市",
    "town": "南鳩ヶ谷"
  },
  "3340014": {
    "zipcode": "3340014",
    "prefectureCode": "11",
    "prefectureNumber": 11,
    "prefecture": "埼玉県",
    "city": "川口市",
    "town": "前田"
  },
  "3340015": {
    "zipcode": "3340015",
    "prefectureCode": "11",
    "prefectureNumber": 11,
    "prefecture": "埼玉県",
    "city": "川口市",
    "town": "鳩ヶ谷緑町"
  },
  "3340051": {
    "zipcode": "3340051",
    "prefectureCode": "11",
    "prefectureNumber": 11,
    "prefecture": "埼玉県",
    "city": "川口市",
    "town": "安行藤八"
  },
  "3340052": {
    "zipcode": "3340052",
    "prefectureCode": "11",
    "prefectureNumber": 11,
    "prefecture": "埼玉県",
    "city": "川口市",
    "town": "安行出羽"
  },
  "3340053": {
    "zipcode": "3340053",
    "prefectureCode": "11",
    "prefectureNumber": 11,
    "prefecture": "埼玉県",
    "city": "川口市",
    "town": "安行吉蔵"
  },
  "3340054": {
    "zipcode": "3340054",
    "prefectureCode": "11",
    "prefectureNumber": 11,
    "prefecture": "埼玉県",
    "city": "川口市",
    "town": "安行北谷"
  },
  "3340055": {
    "zipcode": "3340055",
    "prefectureCode": "11",
    "prefectureNumber": 11,
    "prefecture": "埼玉県",
    "city": "川口市",
    "town": "安行小山"
  },
  "3340056": {
    "zipcode": "3340056",
    "prefectureCode": "11",
    "prefectureNumber": 11,
    "prefecture": "埼玉県",
    "city": "川口市",
    "town": "峯"
  },
  "3340057": {
    "zipcode": "3340057",
    "prefectureCode": "11",
    "prefectureNumber": 11,
    "prefecture": "埼玉県",
    "city": "川口市",
    "town": "安行原"
  },
  "3340058": {
    "zipcode": "3340058",
    "prefectureCode": "11",
    "prefectureNumber": 11,
    "prefecture": "埼玉県",
    "city": "川口市",
    "town": "安行領家"
  },
  "3340059": {
    "zipcode": "3340059",
    "prefectureCode": "11",
    "prefectureNumber": 11,
    "prefecture": "埼玉県",
    "city": "川口市",
    "town": "安行"
  },
  "3340061": {
    "zipcode": "3340061",
    "prefectureCode": "11",
    "prefectureNumber": 11,
    "prefecture": "埼玉県",
    "city": "川口市",
    "town": "新堀"
  },
  "3340062": {
    "zipcode": "3340062",
    "prefectureCode": "11",
    "prefectureNumber": 11,
    "prefecture": "埼玉県",
    "city": "川口市",
    "town": "榛松"
  },
  "3340063": {
    "zipcode": "3340063",
    "prefectureCode": "11",
    "prefectureNumber": 11,
    "prefecture": "埼玉県",
    "city": "川口市",
    "town": "東本郷"
  },
  "3340064": {
    "zipcode": "3340064",
    "prefectureCode": "11",
    "prefectureNumber": 11,
    "prefecture": "埼玉県",
    "city": "川口市",
    "town": "蓮沼"
  },
  "3340065": {
    "zipcode": "3340065",
    "prefectureCode": "11",
    "prefectureNumber": 11,
    "prefecture": "埼玉県",
    "city": "川口市",
    "town": "前野宿"
  },
  "3340066": {
    "zipcode": "3340066",
    "prefectureCode": "11",
    "prefectureNumber": 11,
    "prefecture": "埼玉県",
    "city": "川口市",
    "town": "東貝塚"
  },
  "3340067": {
    "zipcode": "3340067",
    "prefectureCode": "11",
    "prefectureNumber": 11,
    "prefecture": "埼玉県",
    "city": "川口市",
    "town": "大竹"
  },
  "3340068": {
    "zipcode": "3340068",
    "prefectureCode": "11",
    "prefectureNumber": 11,
    "prefecture": "埼玉県",
    "city": "川口市",
    "town": "新堀町"
  },
  "3340071": {
    "zipcode": "3340071",
    "prefectureCode": "11",
    "prefectureNumber": 11,
    "prefecture": "埼玉県",
    "city": "川口市",
    "town": "安行慈林"
  },
  "3340072": {
    "zipcode": "3340072",
    "prefectureCode": "11",
    "prefectureNumber": 11,
    "prefecture": "埼玉県",
    "city": "川口市",
    "town": "安行吉岡"
  },
  "3340073": {
    "zipcode": "3340073",
    "prefectureCode": "11",
    "prefectureNumber": 11,
    "prefecture": "埼玉県",
    "city": "川口市",
    "town": "赤井"
  },
  "3340074": {
    "zipcode": "3340074",
    "prefectureCode": "11",
    "prefectureNumber": 11,
    "prefecture": "埼玉県",
    "city": "川口市",
    "town": "江戸"
  },
  "3340075": {
    "zipcode": "3340075",
    "prefectureCode": "11",
    "prefectureNumber": 11,
    "prefecture": "埼玉県",
    "city": "川口市",
    "town": "江戸袋"
  },
  "3340076": {
    "zipcode": "3340076",
    "prefectureCode": "11",
    "prefectureNumber": 11,
    "prefecture": "埼玉県",
    "city": "川口市",
    "town": "本蓮"
  }
}
