{
  "3370000": {
    "zipcode": "3370000",
    "prefectureCode": "11",
    "prefectureNumber": 11,
    "prefecture": "埼玉県",
    "city": "さいたま市見沼区",
    "town": "以下に掲載がない場合"
  },
  "3370001": {
    "zipcode": "3370001",
    "prefectureCode": "11",
    "prefectureNumber": 11,
    "prefecture": "埼玉県",
    "city": "さいたま市見沼区",
    "town": "丸ヶ崎"
  },
  "3370002": {
    "zipcode": "3370002",
    "prefectureCode": "11",
    "prefectureNumber": 11,
    "prefecture": "埼玉県",
    "city": "さいたま市見沼区",
    "town": "春野"
  },
  "3370003": {
    "zipcode": "3370003",
    "prefectureCode": "11",
    "prefectureNumber": 11,
    "prefecture": "埼玉県",
    "city": "さいたま市見沼区",
    "town": "深作"
  },
  "3370004": {
    "zipcode": "3370004",
    "prefectureCode": "11",
    "prefectureNumber": 11,
    "prefecture": "埼玉県",
    "city": "さいたま市見沼区",
    "town": "卸町"
  },
  "3370005": {
    "zipcode": "3370005",
    "prefectureCode": "11",
    "prefectureNumber": 11,
    "prefecture": "埼玉県",
    "city": "さいたま市見沼区",
    "town": "小深作"
  },
  "3370006": {
    "zipcode": "3370006",
    "prefectureCode": "11",
    "prefectureNumber": 11,
    "prefecture": "埼玉県",
    "city": "さいたま市見沼区",
    "town": "島町"
  },
  "3370007": {
    "zipcode": "3370007",
    "prefectureCode": "11",
    "prefectureNumber": 11,
    "prefecture": "埼玉県",
    "city": "さいたま市見沼区",
    "town": "丸ヶ崎町"
  },
  "3370008": {
    "zipcode": "3370008",
    "prefectureCode": "11",
    "prefectureNumber": 11,
    "prefecture": "埼玉県",
    "city": "さいたま市見沼区",
    "town": "春岡"
  },
  "3370011": {
    "zipcode": "3370011",
    "prefectureCode": "11",
    "prefectureNumber": 11,
    "prefecture": "埼玉県",
    "city": "さいたま市見沼区",
    "town": "宮ヶ谷塔"
  },
  "3370012": {
    "zipcode": "3370012",
    "prefectureCode": "11",
    "prefectureNumber": 11,
    "prefecture": "埼玉県",
    "city": "さいたま市見沼区",
    "town": "東宮下"
  },
  "3370013": {
    "zipcode": "3370013",
    "prefectureCode": "11",
    "prefectureNumber": 11,
    "prefecture": "埼玉県",
    "city": "さいたま市見沼区",
    "town": "新堤"
  },
  "3370014": {
    "zipcode": "3370014",
    "prefectureCode": "11",
    "prefectureNumber": 11,
    "prefecture": "埼玉県",
    "city": "さいたま市見沼区",
    "town": "大谷"
  },
  "3370015": {
    "zipcode": "3370015",
    "prefectureCode": "11",
    "prefectureNumber": 11,
    "prefecture": "埼玉県",
    "city": "さいたま市見沼区",
    "town": "蓮沼"
  },
  "3370016": {
    "zipcode": "3370016",
    "prefectureCode": "11",
    "prefectureNumber": 11,
    "prefecture": "埼玉県",
    "city": "さいたま市見沼区",
    "town": "東門前"
  },
  "3370017": {
    "zipcode": "3370017",
    "prefectureCode": "11",
    "prefectureNumber": 11,
    "prefecture": "埼玉県",
    "city": "さいたま市見沼区",
    "town": "風渡野"
  },
  "3370021": {
    "zipcode": "3370021",
    "prefectureCode": "11",
    "prefectureNumber": 11,
    "prefecture": "埼玉県",
    "city": "さいたま市見沼区",
    "town": "膝子"
  },
  "3370022": {
    "zipcode": "3370022",
    "prefectureCode": "11",
    "prefectureNumber": 11,
    "prefecture": "埼玉県",
    "city": "さいたま市見沼区",
    "town": "加田屋"
  },
  "3370023": {
    "zipcode": "3370023",
    "prefectureCode": "11",
    "prefectureNumber": 11,
    "prefecture": "埼玉県",
    "city": "さいたま市見沼区",
    "town": "片柳東"
  },
  "3370024": {
    "zipcode": "3370024",
    "prefectureCode": "11",
    "prefectureNumber": 11,
    "prefecture": "埼玉県",
    "city": "さいたま市見沼区",
    "town": "片柳"
  },
  "3370025": {
    "zipcode": "3370025",
    "prefectureCode": "11",
    "prefectureNumber": 11,
    "prefecture": "埼玉県",
    "city": "さいたま市見沼区",
    "town": "山"
  },
  "3370026": {
    "zipcode": "3370026",
    "prefectureCode": "11",
    "prefectureNumber": 11,
    "prefecture": "埼玉県",
    "city": "さいたま市見沼区",
    "town": "染谷"
  },
  "3370027": {
    "zipcode": "3370027",
    "prefectureCode": "11",
    "prefectureNumber": 11,
    "prefecture": "埼玉県",
    "city": "さいたま市見沼区",
    "town": "加田屋新田"
  },
  "3370031": {
    "zipcode": "3370031",
    "prefectureCode": "11",
    "prefectureNumber": 11,
    "prefecture": "埼玉県",
    "city": "さいたま市見沼区",
    "town": "笹丸"
  },
  "3370032": {
    "zipcode": "3370032",
    "prefectureCode": "11",
    "prefectureNumber": 11,
    "prefecture": "埼玉県",
    "city": "さいたま市見沼区",
    "town": "東新井"
  },
  "3370033": {
    "zipcode": "3370033",
    "prefectureCode": "11",
    "prefectureNumber": 11,
    "prefecture": "埼玉県",
    "city": "さいたま市見沼区",
    "town": "御蔵"
  },
  "3370034": {
    "zipcode": "3370034",
    "prefectureCode": "11",
    "prefectureNumber": 11,
    "prefecture": "埼玉県",
    "city": "さいたま市見沼区",
    "town": "西山村新田"
  },
  "3370035": {
    "zipcode": "3370035",
    "prefectureCode": "11",
    "prefectureNumber": 11,
    "prefecture": "埼玉県",
    "city": "さいたま市見沼区",
    "town": "西山新田"
  },
  "3370036": {
    "zipcode": "3370036",
    "prefectureCode": "11",
    "prefectureNumber": 11,
    "prefecture": "埼玉県",
    "city": "さいたま市見沼区",
    "town": "見山"
  },
  "3370041": {
    "zipcode": "3370041",
    "prefectureCode": "11",
    "prefectureNumber": 11,
    "prefecture": "埼玉県",
    "city": "さいたま市見沼区",
    "town": "南中丸"
  },
  "3370042": {
    "zipcode": "3370042",
    "prefectureCode": "11",
    "prefectureNumber": 11,
    "prefecture": "埼玉県",
    "city": "さいたま市見沼区",
    "town": "南中野"
  },
  "3370043": {
    "zipcode": "3370043",
    "prefectureCode": "11",
    "prefectureNumber": 11,
    "prefecture": "埼玉県",
    "city": "さいたま市見沼区",
    "town": "中川"
  },
  "3370044": {
    "zipcode": "3370044",
    "prefectureCode": "11",
    "prefectureNumber": 11,
    "prefecture": "埼玉県",
    "city": "さいたま市見沼区",
    "town": "上山口新田"
  },
  "3370045": {
    "zipcode": "3370045",
    "prefectureCode": "11",
    "prefectureNumber": 11,
    "prefecture": "埼玉県",
    "city": "さいたま市見沼区",
    "town": "新右ェ門新田"
  },
  "3370051": {
    "zipcode": "3370051",
    "prefectureCode": "11",
    "prefectureNumber": 11,
    "prefecture": "埼玉県",
    "city": "さいたま市見沼区",
    "town": "東大宮"
  },
  "3370052": {
    "zipcode": "3370052",
    "prefectureCode": "11",
    "prefectureNumber": 11,
    "prefecture": "埼玉県",
    "city": "さいたま市見沼区",
    "town": "堀崎町"
  },
  "3370053": {
    "zipcode": "3370053",
    "prefectureCode": "11",
    "prefectureNumber": 11,
    "prefecture": "埼玉県",
    "city": "さいたま市見沼区",
    "town": "大和田町"
  },
  "3370054": {
    "zipcode": "3370054",
    "prefectureCode": "11",
    "prefectureNumber": 11,
    "prefecture": "埼玉県",
    "city": "さいたま市見沼区",
    "town": "砂町"
  }
}
