{
  "3380001": {
    "zipcode": "3380001",
    "prefectureCode": "11",
    "prefectureNumber": 11,
    "prefecture": "埼玉県",
    "city": "さいたま市中央区",
    "town": "上落合"
  },
  "3380002": {
    "zipcode": "3380002",
    "prefectureCode": "11",
    "prefectureNumber": 11,
    "prefecture": "埼玉県",
    "city": "さいたま市中央区",
    "town": "下落合"
  },
  "3380003": {
    "zipcode": "3380003",
    "prefectureCode": "11",
    "prefectureNumber": 11,
    "prefecture": "埼玉県",
    "city": "さいたま市中央区",
    "town": "本町東"
  },
  "3380004": {
    "zipcode": "3380004",
    "prefectureCode": "11",
    "prefectureNumber": 11,
    "prefecture": "埼玉県",
    "city": "さいたま市中央区",
    "town": "本町西"
  },
  "3380005": {
    "zipcode": "3380005",
    "prefectureCode": "11",
    "prefectureNumber": 11,
    "prefecture": "埼玉県",
    "city": "さいたま市中央区",
    "town": "桜丘"
  },
  "3380006": {
    "zipcode": "3380006",
    "prefectureCode": "11",
    "prefectureNumber": 11,
    "prefecture": "埼玉県",
    "city": "さいたま市中央区",
    "town": "八王子"
  },
  "3380007": {
    "zipcode": "3380007",
    "prefectureCode": "11",
    "prefectureNumber": 11,
    "prefecture": "埼玉県",
    "city": "さいたま市中央区",
    "town": "円阿弥"
  },
  "3380011": {
    "zipcode": "3380011",
    "prefectureCode": "11",
    "prefectureNumber": 11,
    "prefecture": "埼玉県",
    "city": "さいたま市中央区",
    "town": "新中里"
  },
  "3380012": {
    "zipcode": "3380012",
    "prefectureCode": "11",
    "prefectureNumber": 11,
    "prefecture": "埼玉県",
    "city": "さいたま市中央区",
    "town": "大戸"
  },
  "3380013": {
    "zipcode": "3380013",
    "prefectureCode": "11",
    "prefectureNumber": 11,
    "prefecture": "埼玉県",
    "city": "さいたま市中央区",
    "town": "鈴谷"
  },
  "3380014": {
    "zipcode": "3380014",
    "prefectureCode": "11",
    "prefectureNumber": 11,
    "prefecture": "埼玉県",
    "city": "さいたま市中央区",
    "town": "上峰"
  },
  "3380800": {
    "zipcode": "3380800",
    "prefectureCode": "11",
    "prefectureNumber": 11,
    "prefecture": "埼玉県",
    "city": "さいたま市桜区",
    "town": "以下に掲載がない場合"
  },
  "3380811": {
    "zipcode": "3380811",
    "prefectureCode": "11",
    "prefectureNumber": 11,
    "prefecture": "埼玉県",
    "city": "さいたま市桜区",
    "town": "白鍬"
  },
  "3380812": {
    "zipcode": "3380812",
    "prefectureCode": "11",
    "prefectureNumber": 11,
    "prefecture": "埼玉県",
    "city": "さいたま市桜区",
    "town": "神田"
  },
  "3380813": {
    "zipcode": "3380813",
    "prefectureCode": "11",
    "prefectureNumber": 11,
    "prefecture": "埼玉県",
    "city": "さいたま市桜区",
    "town": "在家"
  },
  "3380814": {
    "zipcode": "3380814",
    "prefectureCode": "11",
    "prefectureNumber": 11,
    "prefecture": "埼玉県",
    "city": "さいたま市桜区",
    "town": "宿"
  },
  "3380815": {
    "zipcode": "3380815",
    "prefectureCode": "11",
    "prefectureNumber": 11,
    "prefecture": "埼玉県",
    "city": "さいたま市桜区",
    "town": "五関"
  },
  "3380816": {
    "zipcode": "3380816",
    "prefectureCode": "11",
    "prefectureNumber": 11,
    "prefecture": "埼玉県",
    "city": "さいたま市桜区",
    "town": "塚本"
  },
  "3380817": {
    "zipcode": "3380817",
    "prefectureCode": "11",
    "prefectureNumber": 11,
    "prefecture": "埼玉県",
    "city": "さいたま市桜区",
    "town": "昭和"
  },
  "3380821": {
    "zipcode": "3380821",
    "prefectureCode": "11",
    "prefectureNumber": 11,
    "prefecture": "埼玉県",
    "city": "さいたま市桜区",
    "town": "山久保"
  },
  "3380822": {
    "zipcode": "3380822",
    "prefectureCode": "11",
    "prefectureNumber": 11,
    "prefecture": "埼玉県",
    "city": "さいたま市桜区",
    "town": "中島"
  },
  "3380823": {
    "zipcode": "3380823",
    "prefectureCode": "11",
    "prefectureNumber": 11,
    "prefecture": "埼玉県",
    "city": "さいたま市桜区",
    "town": "栄和"
  },
  "3380824": {
    "zipcode": "3380824",
    "prefectureCode": "11",
    "prefectureNumber": 11,
    "prefecture": "埼玉県",
    "city": "さいたま市桜区",
    "town": "上大久保"
  },
  "3380825": {
    "zipcode": "3380825",
    "prefectureCode": "11",
    "prefectureNumber": 11,
    "prefecture": "埼玉県",
    "city": "さいたま市桜区",
    "town": "下大久保"
  },
  "3380826": {
    "zipcode": "3380826",
    "prefectureCode": "11",
    "prefectureNumber": 11,
    "prefecture": "埼玉県",
    "city": "さいたま市桜区",
    "town": "大久保領家"
  },
  "3380831": {
    "zipcode": "3380831",
    "prefectureCode": "11",
    "prefectureNumber": 11,
    "prefecture": "埼玉県",
    "city": "さいたま市桜区",
    "town": "南元宿"
  },
  "3380832": {
    "zipcode": "3380832",
    "prefectureCode": "11",
    "prefectureNumber": 11,
    "prefecture": "埼玉県",
    "city": "さいたま市桜区",
    "town": "西堀"
  },
  "3380833": {
    "zipcode": "3380833",
    "prefectureCode": "11",
    "prefectureNumber": 11,
    "prefecture": "埼玉県",
    "city": "さいたま市桜区",
    "town": "桜田"
  },
  "3380834": {
    "zipcode": "3380834",
    "prefectureCode": "11",
    "prefectureNumber": 11,
    "prefecture": "埼玉県",
    "city": "さいたま市桜区",
    "town": "新開"
  },
  "3380835": {
    "zipcode": "3380835",
    "prefectureCode": "11",
    "prefectureNumber": 11,
    "prefecture": "埼玉県",
    "city": "さいたま市桜区",
    "town": "道場"
  },
  "3380836": {
    "zipcode": "3380836",
    "prefectureCode": "11",
    "prefectureNumber": 11,
    "prefecture": "埼玉県",
    "city": "さいたま市桜区",
    "town": "町谷"
  },
  "3380837": {
    "zipcode": "3380837",
    "prefectureCode": "11",
    "prefectureNumber": 11,
    "prefecture": "埼玉県",
    "city": "さいたま市桜区",
    "town": "田島"
  }
}
