{
  "3390000": {
    "zipcode": "3390000",
    "prefectureCode": "11",
    "prefectureNumber": 11,
    "prefecture": "埼玉県",
    "city": "さいたま市岩槻区",
    "town": "以下に掲載がない場合"
  },
  "3390001": {
    "zipcode": "3390001",
    "prefectureCode": "11",
    "prefectureNumber": 11,
    "prefecture": "埼玉県",
    "city": "さいたま市岩槻区",
    "town": "鹿室"
  },
  "3390002": {
    "zipcode": "3390002",
    "prefectureCode": "11",
    "prefectureNumber": 11,
    "prefecture": "埼玉県",
    "city": "さいたま市岩槻区",
    "town": "裏慈恩寺"
  },
  "3390003": {
    "zipcode": "3390003",
    "prefectureCode": "11",
    "prefectureNumber": 11,
    "prefecture": "埼玉県",
    "city": "さいたま市岩槻区",
    "town": "小溝"
  },
  "3390004": {
    "zipcode": "3390004",
    "prefectureCode": "11",
    "prefectureNumber": 11,
    "prefecture": "埼玉県",
    "city": "さいたま市岩槻区",
    "town": "徳力"
  },
  "3390005": {
    "zipcode": "3390005",
    "prefectureCode": "11",
    "prefectureNumber": 11,
    "prefecture": "埼玉県",
    "city": "さいたま市岩槻区",
    "town": "東岩槻"
  },
  "3390006": {
    "zipcode": "3390006",
    "prefectureCode": "11",
    "prefectureNumber": 11,
    "prefecture": "埼玉県",
    "city": "さいたま市岩槻区",
    "town": "上里"
  },
  "3390007": {
    "zipcode": "3390007",
    "prefectureCode": "11",
    "prefectureNumber": 11,
    "prefecture": "埼玉県",
    "city": "さいたま市岩槻区",
    "town": "諏訪"
  },
  "3390008": {
    "zipcode": "3390008",
    "prefectureCode": "11",
    "prefectureNumber": 11,
    "prefecture": "埼玉県",
    "city": "さいたま市岩槻区",
    "town": "表慈恩寺"
  },
  "3390009": {
    "zipcode": "3390009",
    "prefectureCode": "11",
    "prefectureNumber": 11,
    "prefecture": "埼玉県",
    "city": "さいたま市岩槻区",
    "town": "慈恩寺"
  },
  "3390011": {
    "zipcode": "3390011",
    "prefectureCode": "11",
    "prefectureNumber": 11,
    "prefecture": "埼玉県",
    "city": "さいたま市岩槻区",
    "town": "長宮"
  },
  "3390012": {
    "zipcode": "3390012",
    "prefectureCode": "11",
    "prefectureNumber": 11,
    "prefecture": "埼玉県",
    "city": "さいたま市岩槻区",
    "town": "増長"
  },
  "3390013": {
    "zipcode": "3390013",
    "prefectureCode": "11",
    "prefectureNumber": 11,
    "prefecture": "埼玉県",
    "city": "さいたま市岩槻区",
    "town": "大口"
  },
  "3390014": {
    "zipcode": "3390014",
    "prefectureCode": "11",
    "prefectureNumber": 11,
    "prefecture": "埼玉県",
    "city": "さいたま市岩槻区",
    "town": "大戸"
  },
  "3390015": {
    "zipcode": "3390015",
    "prefectureCode": "11",
    "prefectureNumber": 11,
    "prefecture": "埼玉県",
    "city": "さいたま市岩槻区",
    "town": "大谷"
  },
  "3390016": {
    "zipcode": "3390016",
    "prefectureCode": "11",
    "prefectureNumber": 11,
    "prefecture": "埼玉県",
    "city": "さいたま市岩槻区",
    "town": "新方須賀"
  },
  "3390017": {
    "zipcode": "3390017",
    "prefectureCode": "11",
    "prefectureNumber": 11,
    "prefecture": "埼玉県",
    "city": "さいたま市岩槻区",
    "town": "大森"
  },
  "3390018": {
    "zipcode": "3390018",
    "prefectureCode": "11",
    "prefectureNumber": 11,
    "prefecture": "埼玉県",
    "city": "さいたま市岩槻区",
    "town": "大野島"
  },
  "3390021": {
    "zipcode": "3390021",
    "prefectureCode": "11",
    "prefectureNumber": 11,
    "prefecture": "埼玉県",
    "city": "さいたま市岩槻区",
    "town": "末田"
  },
  "3390022": {
    "zipcode": "3390022",
    "prefectureCode": "11",
    "prefectureNumber": 11,
    "prefecture": "埼玉県",
    "city": "さいたま市岩槻区",
    "town": "高曽根"
  },
  "3390023": {
    "zipcode": "3390023",
    "prefectureCode": "11",
    "prefectureNumber": 11,
    "prefecture": "埼玉県",
    "city": "さいたま市岩槻区",
    "town": "野孫"
  },
  "3390024": {
    "zipcode": "3390024",
    "prefectureCode": "11",
    "prefectureNumber": 11,
    "prefecture": "埼玉県",
    "city": "さいたま市岩槻区",
    "town": "釣上"
  },
  "3390025": {
    "zipcode": "3390025",
    "prefectureCode": "11",
    "prefectureNumber": 11,
    "prefecture": "埼玉県",
    "city": "さいたま市岩槻区",
    "town": "釣上新田"
  },
  "3390026": {
    "zipcode": "3390026",
    "prefectureCode": "11",
    "prefectureNumber": 11,
    "prefecture": "埼玉県",
    "city": "さいたま市岩槻区",
    "town": "尾ヶ崎新田"
  },
  "3390027": {
    "zipcode": "3390027",
    "prefectureCode": "11",
    "prefectureNumber": 11,
    "prefecture": "埼玉県",
    "city": "さいたま市岩槻区",
    "town": "尾ヶ崎"
  },
  "3390028": {
    "zipcode": "3390028",
    "prefectureCode": "11",
    "prefectureNumber": 11,
    "prefecture": "埼玉県",
    "city": "さいたま市岩槻区",
    "town": "美園東"
  },
  "3390031": {
    "zipcode": "3390031",
    "prefectureCode": "11",
    "prefectureNumber": 11,
    "prefecture": "埼玉県",
    "city": "さいたま市岩槻区",
    "town": "飯塚"
  },
  "3390032": {
    "zipcode": "3390032",
    "prefectureCode": "11",
    "prefectureNumber": 11,
    "prefecture": "埼玉県",
    "city": "さいたま市岩槻区",
    "town": "南下新井"
  },
  "3390033": {
    "zipcode": "3390033",
    "prefectureCode": "11",
    "prefectureNumber": 11,
    "prefecture": "埼玉県",
    "city": "さいたま市岩槻区",
    "town": "黒谷"
  },
  "3390034": {
    "zipcode": "3390034",
    "prefectureCode": "11",
    "prefectureNumber": 11,
    "prefecture": "埼玉県",
    "city": "さいたま市岩槻区",
    "town": "笹久保"
  },
  "3390035": {
    "zipcode": "3390035",
    "prefectureCode": "11",
    "prefectureNumber": 11,
    "prefecture": "埼玉県",
    "city": "さいたま市岩槻区",
    "town": "笹久保新田"
  },
  "3390036": {
    "zipcode": "3390036",
    "prefectureCode": "11",
    "prefectureNumber": 11,
    "prefecture": "埼玉県",
    "city": "さいたま市岩槻区",
    "town": "横根"
  },
  "3390037": {
    "zipcode": "3390037",
    "prefectureCode": "11",
    "prefectureNumber": 11,
    "prefecture": "埼玉県",
    "city": "さいたま市岩槻区",
    "town": "浮谷"
  },
  "3390041": {
    "zipcode": "3390041",
    "prefectureCode": "11",
    "prefectureNumber": 11,
    "prefecture": "埼玉県",
    "city": "さいたま市岩槻区",
    "town": "村国"
  },
  "3390042": {
    "zipcode": "3390042",
    "prefectureCode": "11",
    "prefectureNumber": 11,
    "prefecture": "埼玉県",
    "city": "さいたま市岩槻区",
    "town": "府内"
  },
  "3390043": {
    "zipcode": "3390043",
    "prefectureCode": "11",
    "prefectureNumber": 11,
    "prefecture": "埼玉県",
    "city": "さいたま市岩槻区",
    "town": "城南"
  },
  "3390044": {
    "zipcode": "3390044",
    "prefectureCode": "11",
    "prefectureNumber": 11,
    "prefecture": "埼玉県",
    "city": "さいたま市岩槻区",
    "town": "真福寺"
  },
  "3390045": {
    "zipcode": "3390045",
    "prefectureCode": "11",
    "prefectureNumber": 11,
    "prefecture": "埼玉県",
    "city": "さいたま市岩槻区",
    "town": "柏崎"
  },
  "3390046": {
    "zipcode": "3390046",
    "prefectureCode": "11",
    "prefectureNumber": 11,
    "prefecture": "埼玉県",
    "city": "さいたま市岩槻区",
    "town": "谷下"
  },
  "3390047": {
    "zipcode": "3390047",
    "prefectureCode": "11",
    "prefectureNumber": 11,
    "prefecture": "埼玉県",
    "city": "さいたま市岩槻区",
    "town": "原町"
  },
  "3390051": {
    "zipcode": "3390051",
    "prefectureCode": "11",
    "prefectureNumber": 11,
    "prefecture": "埼玉県",
    "city": "さいたま市岩槻区",
    "town": "南平野"
  },
  "3390052": {
    "zipcode": "3390052",
    "prefectureCode": "11",
    "prefectureNumber": 11,
    "prefecture": "埼玉県",
    "city": "さいたま市岩槻区",
    "town": "太田"
  },
  "3390053": {
    "zipcode": "3390053",
    "prefectureCode": "11",
    "prefectureNumber": 11,
    "prefecture": "埼玉県",
    "city": "さいたま市岩槻区",
    "town": "城町"
  },
  "3390054": {
    "zipcode": "3390054",
    "prefectureCode": "11",
    "prefectureNumber": 11,
    "prefecture": "埼玉県",
    "city": "さいたま市岩槻区",
    "town": "仲町"
  },
  "3390055": {
    "zipcode": "3390055",
    "prefectureCode": "11",
    "prefectureNumber": 11,
    "prefecture": "埼玉県",
    "city": "さいたま市岩槻区",
    "town": "東町"
  },
  "3390056": {
    "zipcode": "3390056",
    "prefectureCode": "11",
    "prefectureNumber": 11,
    "prefecture": "埼玉県",
    "city": "さいたま市岩槻区",
    "town": "加倉"
  },
  "3390057": {
    "zipcode": "3390057",
    "prefectureCode": "11",
    "prefectureNumber": 11,
    "prefecture": "埼玉県",
    "city": "さいたま市岩槻区",
    "town": "本町"
  },
  "3390058": {
    "zipcode": "3390058",
    "prefectureCode": "11",
    "prefectureNumber": 11,
    "prefecture": "埼玉県",
    "city": "さいたま市岩槻区",
    "town": "本丸"
  },
  "3390061": {
    "zipcode": "3390061",
    "prefectureCode": "11",
    "prefectureNumber": 11,
    "prefecture": "埼玉県",
    "city": "さいたま市岩槻区",
    "town": "岩槻"
  },
  "3390062": {
    "zipcode": "3390062",
    "prefectureCode": "11",
    "prefectureNumber": 11,
    "prefecture": "埼玉県",
    "city": "さいたま市岩槻区",
    "town": "南辻"
  },
  "3390063": {
    "zipcode": "3390063",
    "prefectureCode": "11",
    "prefectureNumber": 11,
    "prefecture": "埼玉県",
    "city": "さいたま市岩槻区",
    "town": "美幸町"
  },
  "3390064": {
    "zipcode": "3390064",
    "prefectureCode": "11",
    "prefectureNumber": 11,
    "prefecture": "埼玉県",
    "city": "さいたま市岩槻区",
    "town": "日の出町"
  },
  "3390065": {
    "zipcode": "3390065",
    "prefectureCode": "11",
    "prefectureNumber": 11,
    "prefecture": "埼玉県",
    "city": "さいたま市岩槻区",
    "town": "宮町"
  },
  "3390066": {
    "zipcode": "3390066",
    "prefectureCode": "11",
    "prefectureNumber": 11,
    "prefecture": "埼玉県",
    "city": "さいたま市岩槻区",
    "town": "愛宕町"
  },
  "3390067": {
    "zipcode": "3390067",
    "prefectureCode": "11",
    "prefectureNumber": 11,
    "prefecture": "埼玉県",
    "city": "さいたま市岩槻区",
    "town": "西町"
  },
  "3390068": {
    "zipcode": "3390068",
    "prefectureCode": "11",
    "prefectureNumber": 11,
    "prefecture": "埼玉県",
    "city": "さいたま市岩槻区",
    "town": "並木"
  },
  "3390069": {
    "zipcode": "3390069",
    "prefectureCode": "11",
    "prefectureNumber": 11,
    "prefecture": "埼玉県",
    "city": "さいたま市岩槻区",
    "town": "箕輪"
  },
  "3390071": {
    "zipcode": "3390071",
    "prefectureCode": "11",
    "prefectureNumber": 11,
    "prefecture": "埼玉県",
    "city": "さいたま市岩槻区",
    "town": "相野原"
  },
  "3390072": {
    "zipcode": "3390072",
    "prefectureCode": "11",
    "prefectureNumber": 11,
    "prefecture": "埼玉県",
    "city": "さいたま市岩槻区",
    "town": "古ヶ場"
  },
  "3390073": {
    "zipcode": "3390073",
    "prefectureCode": "11",
    "prefectureNumber": 11,
    "prefecture": "埼玉県",
    "city": "さいたま市岩槻区",
    "town": "上野"
  },
  "3390074": {
    "zipcode": "3390074",
    "prefectureCode": "11",
    "prefectureNumber": 11,
    "prefecture": "埼玉県",
    "city": "さいたま市岩槻区",
    "town": "本宿"
  },
  "3390075": {
    "zipcode": "3390075",
    "prefectureCode": "11",
    "prefectureNumber": 11,
    "prefecture": "埼玉県",
    "city": "さいたま市岩槻区",
    "town": "金重"
  },
  "3390076": {
    "zipcode": "3390076",
    "prefectureCode": "11",
    "prefectureNumber": 11,
    "prefecture": "埼玉県",
    "city": "さいたま市岩槻区",
    "town": "平林寺"
  },
  "3390077": {
    "zipcode": "3390077",
    "prefectureCode": "11",
    "prefectureNumber": 11,
    "prefecture": "埼玉県",
    "city": "さいたま市岩槻区",
    "town": "馬込"
  },
  "3390078": {
    "zipcode": "3390078",
    "prefectureCode": "11",
    "prefectureNumber": 11,
    "prefecture": "埼玉県",
    "city": "さいたま市岩槻区",
    "town": "掛"
  },
  "3390081": {
    "zipcode": "3390081",
    "prefectureCode": "11",
    "prefectureNumber": 11,
    "prefecture": "埼玉県",
    "city": "さいたま市岩槻区",
    "town": "西原"
  },
  "3390082": {
    "zipcode": "3390082",
    "prefectureCode": "11",
    "prefectureNumber": 11,
    "prefecture": "埼玉県",
    "city": "さいたま市岩槻区",
    "town": "西原台"
  }
}
