{
  "3420000": {
    "zipcode": "3420000",
    "prefectureCode": "11",
    "prefectureNumber": 11,
    "prefecture": "埼玉県",
    "city": "吉川市",
    "town": "以下に掲載がない場合"
  },
  "3420001": {
    "zipcode": "3420001",
    "prefectureCode": "11",
    "prefectureNumber": 11,
    "prefecture": "埼玉県",
    "city": "吉川市",
    "town": "上内川"
  },
  "3420002": {
    "zipcode": "3420002",
    "prefectureCode": "11",
    "prefectureNumber": 11,
    "prefecture": "埼玉県",
    "city": "吉川市",
    "town": "下内川"
  },
  "3420003": {
    "zipcode": "3420003",
    "prefectureCode": "11",
    "prefectureNumber": 11,
    "prefecture": "埼玉県",
    "city": "吉川市",
    "town": "八子新田"
  },
  "3420004": {
    "zipcode": "3420004",
    "prefectureCode": "11",
    "prefectureNumber": 11,
    "prefecture": "埼玉県",
    "city": "吉川市",
    "town": "鍋小路"
  },
  "3420005": {
    "zipcode": "3420005",
    "prefectureCode": "11",
    "prefectureNumber": 11,
    "prefecture": "埼玉県",
    "city": "吉川市",
    "town": "川藤"
  },
  "3420006": {
    "zipcode": "3420006",
    "prefectureCode": "11",
    "prefectureNumber": 11,
    "prefecture": "埼玉県",
    "city": "吉川市",
    "town": "南広島"
  },
  "3420007": {
    "zipcode": "3420007",
    "prefectureCode": "11",
    "prefectureNumber": 11,
    "prefecture": "埼玉県",
    "city": "吉川市",
    "town": "拾壱軒"
  },
  "3420008": {
    "zipcode": "3420008",
    "prefectureCode": "11",
    "prefectureNumber": 11,
    "prefecture": "埼玉県",
    "city": "吉川市",
    "town": "旭"
  },
  "3420011": {
    "zipcode": "3420011",
    "prefectureCode": "11",
    "prefectureNumber": 11,
    "prefecture": "埼玉県",
    "city": "吉川市",
    "town": "深井新田"
  },
  "3420012": {
    "zipcode": "3420012",
    "prefectureCode": "11",
    "prefectureNumber": 11,
    "prefecture": "埼玉県",
    "city": "吉川市",
    "town": "平方新田"
  },
  "3420013": {
    "zipcode": "3420013",
    "prefectureCode": "11",
    "prefectureNumber": 11,
    "prefecture": "埼玉県",
    "city": "吉川市",
    "town": "吉屋"
  },
  "3420014": {
    "zipcode": "3420014",
    "prefectureCode": "11",
    "prefectureNumber": 11,
    "prefecture": "埼玉県",
    "city": "吉川市",
    "town": "関新田"
  },
  "3420015": {
    "zipcode": "3420015",
    "prefectureCode": "11",
    "prefectureNumber": 11,
    "prefecture": "埼玉県",
    "city": "吉川市",
    "town": "中井"
  },
  "3420016": {
    "zipcode": "3420016",
    "prefectureCode": "11",
    "prefectureNumber": 11,
    "prefecture": "埼玉県",
    "city": "吉川市",
    "town": "会野谷"
  },
  "3420017": {
    "zipcode": "3420017",
    "prefectureCode": "11",
    "prefectureNumber": 11,
    "prefecture": "埼玉県",
    "city": "吉川市",
    "town": "上笹塚"
  },
  "3420021": {
    "zipcode": "3420021",
    "prefectureCode": "11",
    "prefectureNumber": 11,
    "prefecture": "埼玉県",
    "city": "吉川市",
    "town": "鹿見塚"
  },
  "3420022": {
    "zipcode": "3420022",
    "prefectureCode": "11",
    "prefectureNumber": 11,
    "prefecture": "埼玉県",
    "city": "吉川市",
    "town": "加藤"
  },
  "3420023": {
    "zipcode": "3420023",
    "prefectureCode": "11",
    "prefectureNumber": 11,
    "prefecture": "埼玉県",
    "city": "吉川市",
    "town": "皿沼"
  },
  "3420024": {
    "zipcode": "3420024",
    "prefectureCode": "11",
    "prefectureNumber": 11,
    "prefecture": "埼玉県",
    "city": "吉川市",
    "town": "半割"
  },
  "3420025": {
    "zipcode": "3420025",
    "prefectureCode": "11",
    "prefectureNumber": 11,
    "prefecture": "埼玉県",
    "city": "吉川市",
    "town": "飯島"
  },
  "3420026": {
    "zipcode": "3420026",
    "prefectureCode": "11",
    "prefectureNumber": 11,
    "prefecture": "埼玉県",
    "city": "吉川市",
    "town": "土場"
  },
  "3420027": {
    "zipcode": "3420027",
    "prefectureCode": "11",
    "prefectureNumber": 11,
    "prefecture": "埼玉県",
    "city": "吉川市",
    "town": "三輪野江"
  },
  "3420031": {
    "zipcode": "3420031",
    "prefectureCode": "11",
    "prefectureNumber": 11,
    "prefecture": "埼玉県",
    "city": "吉川市",
    "town": "中島"
  },
  "3420032": {
    "zipcode": "3420032",
    "prefectureCode": "11",
    "prefectureNumber": 11,
    "prefecture": "埼玉県",
    "city": "吉川市",
    "town": "二ツ沼"
  },
  "3420033": {
    "zipcode": "3420033",
    "prefectureCode": "11",
    "prefectureNumber": 11,
    "prefecture": "埼玉県",
    "city": "吉川市",
    "town": "中曽根"
  },
  "3420034": {
    "zipcode": "3420034",
    "prefectureCode": "11",
    "prefectureNumber": 11,
    "prefecture": "埼玉県",
    "city": "吉川市",
    "town": "道庭"
  },
  "3420035": {
    "zipcode": "3420035",
    "prefectureCode": "11",
    "prefectureNumber": 11,
    "prefecture": "埼玉県",
    "city": "吉川市",
    "town": "高久"
  },
  "3420036": {
    "zipcode": "3420036",
    "prefectureCode": "11",
    "prefectureNumber": 11,
    "prefecture": "埼玉県",
    "city": "吉川市",
    "town": "高富"
  },
  "3420037": {
    "zipcode": "3420037",
    "prefectureCode": "11",
    "prefectureNumber": 11,
    "prefecture": "埼玉県",
    "city": "吉川市",
    "town": "富新田"
  },
  "3420038": {
    "zipcode": "3420038",
    "prefectureCode": "11",
    "prefectureNumber": 11,
    "prefecture": "埼玉県",
    "city": "吉川市",
    "town": "美南"
  },
  "3420041": {
    "zipcode": "3420041",
    "prefectureCode": "11",
    "prefectureNumber": 11,
    "prefecture": "埼玉県",
    "city": "吉川市",
    "town": "保"
  },
  "3420042": {
    "zipcode": "3420042",
    "prefectureCode": "11",
    "prefectureNumber": 11,
    "prefecture": "埼玉県",
    "city": "吉川市",
    "town": "中野"
  },
  "3420043": {
    "zipcode": "3420043",
    "prefectureCode": "11",
    "prefectureNumber": 11,
    "prefecture": "埼玉県",
    "city": "吉川市",
    "town": "小松川"
  },
  "3420044": {
    "zipcode": "3420044",
    "prefectureCode": "11",
    "prefectureNumber": 11,
    "prefecture": "埼玉県",
    "city": "吉川市",
    "town": "木売新田"
  },
  "3420045": {
    "zipcode": "3420045",
    "prefectureCode": "11",
    "prefectureNumber": 11,
    "prefecture": "埼玉県",
    "city": "吉川市",
    "town": "木売"
  },
  "3420046": {
    "zipcode": "3420046",
    "prefectureCode": "11",
    "prefectureNumber": 11,
    "prefecture": "埼玉県",
    "city": "吉川市",
    "town": "共保"
  },
  "3420047": {
    "zipcode": "3420047",
    "prefectureCode": "11",
    "prefectureNumber": 11,
    "prefecture": "埼玉県",
    "city": "吉川市",
    "town": "中川台"
  },
  "3420050": {
    "zipcode": "3420050",
    "prefectureCode": "11",
    "prefectureNumber": 11,
    "prefecture": "埼玉県",
    "city": "吉川市",
    "town": "栄町"
  },
  "3420051": {
    "zipcode": "3420051",
    "prefectureCode": "11",
    "prefectureNumber": 11,
    "prefecture": "埼玉県",
    "city": "吉川市",
    "town": "川野"
  },
  "3420052": {
    "zipcode": "3420052",
    "prefectureCode": "11",
    "prefectureNumber": 11,
    "prefecture": "埼玉県",
    "city": "吉川市",
    "town": "川富"
  },
  "3420053": {
    "zipcode": "3420053",
    "prefectureCode": "11",
    "prefectureNumber": 11,
    "prefecture": "埼玉県",
    "city": "吉川市",
    "town": "関"
  },
  "3420054": {
    "zipcode": "3420054",
    "prefectureCode": "11",
    "prefectureNumber": 11,
    "prefecture": "埼玉県",
    "city": "吉川市",
    "town": "吉川団地"
  },
  "3420055": {
    "zipcode": "3420055",
    "prefectureCode": "11",
    "prefectureNumber": 11,
    "prefecture": "埼玉県",
    "city": "吉川市",
    "town": "吉川"
  },
  "3420056": {
    "zipcode": "3420056",
    "prefectureCode": "11",
    "prefectureNumber": 11,
    "prefecture": "埼玉県",
    "city": "吉川市",
    "town": "平沼"
  },
  "3420057": {
    "zipcode": "3420057",
    "prefectureCode": "11",
    "prefectureNumber": 11,
    "prefecture": "埼玉県",
    "city": "吉川市",
    "town": "須賀"
  },
  "3420058": {
    "zipcode": "3420058",
    "prefectureCode": "11",
    "prefectureNumber": 11,
    "prefecture": "埼玉県",
    "city": "吉川市",
    "town": "きよみ野"
  },
  "3420059": {
    "zipcode": "3420059",
    "prefectureCode": "11",
    "prefectureNumber": 11,
    "prefecture": "埼玉県",
    "city": "吉川市",
    "town": "新栄"
  },
  "3420061": {
    "zipcode": "3420061",
    "prefectureCode": "11",
    "prefectureNumber": 11,
    "prefecture": "埼玉県",
    "city": "吉川市",
    "town": "中央"
  }
}
