{
  "3430000": {
    "zipcode": "3430000",
    "prefectureCode": "11",
    "prefectureNumber": 11,
    "prefecture": "埼玉県",
    "city": "越谷市",
    "town": "以下に掲載がない場合"
  },
  "3430001": {
    "zipcode": "3430001",
    "prefectureCode": "11",
    "prefectureNumber": 11,
    "prefecture": "埼玉県",
    "city": "越谷市",
    "town": "平方南町"
  },
  "3430002": {
    "zipcode": "3430002",
    "prefectureCode": "11",
    "prefectureNumber": 11,
    "prefecture": "埼玉県",
    "city": "越谷市",
    "town": "平方"
  },
  "3430003": {
    "zipcode": "3430003",
    "prefectureCode": "11",
    "prefectureNumber": 11,
    "prefecture": "埼玉県",
    "city": "越谷市",
    "town": "船渡"
  },
  "3430004": {
    "zipcode": "3430004",
    "prefectureCode": "11",
    "prefectureNumber": 11,
    "prefecture": "埼玉県",
    "city": "越谷市",
    "town": "大松"
  },
  "3430005": {
    "zipcode": "3430005",
    "prefectureCode": "11",
    "prefectureNumber": 11,
    "prefecture": "埼玉県",
    "city": "越谷市",
    "town": "大杉"
  },
  "3430006": {
    "zipcode": "3430006",
    "prefectureCode": "11",
    "prefectureNumber": 11,
    "prefecture": "埼玉県",
    "city": "越谷市",
    "town": "北川崎"
  },
  "3430007": {
    "zipcode": "3430007",
    "prefectureCode": "11",
    "prefectureNumber": 11,
    "prefecture": "埼玉県",
    "city": "越谷市",
    "town": "向畑"
  },
  "3430008": {
    "zipcode": "3430008",
    "prefectureCode": "11",
    "prefectureNumber": 11,
    "prefecture": "埼玉県",
    "city": "越谷市",
    "town": "大吉"
  },
  "3430011": {
    "zipcode": "3430011",
    "prefectureCode": "11",
    "prefectureNumber": 11,
    "prefecture": "埼玉県",
    "city": "越谷市",
    "town": "増林"
  },
  "3430012": {
    "zipcode": "3430012",
    "prefectureCode": "11",
    "prefectureNumber": 11,
    "prefecture": "埼玉県",
    "city": "越谷市",
    "town": "増森"
  },
  "3430013": {
    "zipcode": "3430013",
    "prefectureCode": "11",
    "prefectureNumber": 11,
    "prefecture": "埼玉県",
    "city": "越谷市",
    "town": "中島"
  },
  "3430014": {
    "zipcode": "3430014",
    "prefectureCode": "11",
    "prefectureNumber": 11,
    "prefecture": "埼玉県",
    "city": "越谷市",
    "town": "宮前"
  },
  "3430015": {
    "zipcode": "3430015",
    "prefectureCode": "11",
    "prefectureNumber": 11,
    "prefecture": "埼玉県",
    "city": "越谷市",
    "town": "花田"
  },
  "3430021": {
    "zipcode": "3430021",
    "prefectureCode": "11",
    "prefectureNumber": 11,
    "prefecture": "埼玉県",
    "city": "越谷市",
    "town": "大林"
  },
  "3430022": {
    "zipcode": "3430022",
    "prefectureCode": "11",
    "prefectureNumber": 11,
    "prefecture": "埼玉県",
    "city": "越谷市",
    "town": "東大沢"
  },
  "3430023": {
    "zipcode": "3430023",
    "prefectureCode": "11",
    "prefectureNumber": 11,
    "prefecture": "埼玉県",
    "city": "越谷市",
    "town": "東越谷"
  },
  "3430024": {
    "zipcode": "3430024",
    "prefectureCode": "11",
    "prefectureNumber": 11,
    "prefecture": "埼玉県",
    "city": "越谷市",
    "town": "越ケ谷（番地）"
  },
  "3430025": {
    "zipcode": "3430025",
    "prefectureCode": "11",
    "prefectureNumber": 11,
    "prefecture": "埼玉県",
    "city": "越谷市",
    "town": "大沢"
  },
  "3430026": {
    "zipcode": "3430026",
    "prefectureCode": "11",
    "prefectureNumber": 11,
    "prefecture": "埼玉県",
    "city": "越谷市",
    "town": "北越谷"
  },
  "3430027": {
    "zipcode": "3430027",
    "prefectureCode": "11",
    "prefectureNumber": 11,
    "prefecture": "埼玉県",
    "city": "越谷市",
    "town": "大房"
  },
  "3430031": {
    "zipcode": "3430031",
    "prefectureCode": "11",
    "prefectureNumber": 11,
    "prefecture": "埼玉県",
    "city": "越谷市",
    "town": "大里"
  },
  "3430032": {
    "zipcode": "3430032",
    "prefectureCode": "11",
    "prefectureNumber": 11,
    "prefecture": "埼玉県",
    "city": "越谷市",
    "town": "袋山"
  },
  "3430033": {
    "zipcode": "3430033",
    "prefectureCode": "11",
    "prefectureNumber": 11,
    "prefecture": "埼玉県",
    "city": "越谷市",
    "town": "恩間"
  },
  "3430034": {
    "zipcode": "3430034",
    "prefectureCode": "11",
    "prefectureNumber": 11,
    "prefecture": "埼玉県",
    "city": "越谷市",
    "town": "大竹"
  },
  "3430035": {
    "zipcode": "3430035",
    "prefectureCode": "11",
    "prefectureNumber": 11,
    "prefecture": "埼玉県",
    "city": "越谷市",
    "town": "大道"
  },
  "3430036": {
    "zipcode": "3430036",
    "prefectureCode": "11",
    "prefectureNumber": 11,
    "prefecture": "埼玉県",
    "city": "越谷市",
    "town": "三野宮"
  },
  "3430037": {
    "zipcode": "3430037",
    "prefectureCode": "11",
    "prefectureNumber": 11,
    "prefecture": "埼玉県",
    "city": "越谷市",
    "town": "恩間新田"
  },
  "3430041": {
    "zipcode": "3430041",
    "prefectureCode": "11",
    "prefectureNumber": 11,
    "prefecture": "埼玉県",
    "city": "越谷市",
    "town": "千間台西"
  },
  "3430042": {
    "zipcode": "3430042",
    "prefectureCode": "11",
    "prefectureNumber": 11,
    "prefecture": "埼玉県",
    "city": "越谷市",
    "town": "千間台東"
  },
  "3430043": {
    "zipcode": "3430043",
    "prefectureCode": "11",
    "prefectureNumber": 11,
    "prefecture": "埼玉県",
    "city": "越谷市",
    "town": "上間久里"
  },
  "3430044": {
    "zipcode": "3430044",
    "prefectureCode": "11",
    "prefectureNumber": 11,
    "prefecture": "埼玉県",
    "city": "越谷市",
    "town": "大泊"
  },
  "3430045": {
    "zipcode": "3430045",
    "prefectureCode": "11",
    "prefectureNumber": 11,
    "prefecture": "埼玉県",
    "city": "越谷市",
    "town": "下間久里"
  },
  "3430046": {
    "zipcode": "3430046",
    "prefectureCode": "11",
    "prefectureNumber": 11,
    "prefecture": "埼玉県",
    "city": "越谷市",
    "town": "弥栄町"
  },
  "3430047": {
    "zipcode": "3430047",
    "prefectureCode": "11",
    "prefectureNumber": 11,
    "prefecture": "埼玉県",
    "city": "越谷市",
    "town": "弥十郎"
  },
  "3430100": {
    "zipcode": "3430100",
    "prefectureCode": "11",
    "prefectureNumber": 11,
    "prefecture": "埼玉県",
    "city": "北葛飾郡松伏町",
    "town": "以下に掲載がない場合"
  },
  "3430101": {
    "zipcode": "3430101",
    "prefectureCode": "11",
    "prefectureNumber": 11,
    "prefecture": "埼玉県",
    "city": "北葛飾郡松伏町",
    "town": "魚沼"
  },
  "3430102": {
    "zipcode": "3430102",
    "prefectureCode": "11",
    "prefectureNumber": 11,
    "prefecture": "埼玉県",
    "city": "北葛飾郡松伏町",
    "town": "築比地"
  },
  "3430103": {
    "zipcode": "3430103",
    "prefectureCode": "11",
    "prefectureNumber": 11,
    "prefecture": "埼玉県",
    "city": "北葛飾郡松伏町",
    "town": "金杉"
  },
  "3430104": {
    "zipcode": "3430104",
    "prefectureCode": "11",
    "prefectureNumber": 11,
    "prefecture": "埼玉県",
    "city": "北葛飾郡松伏町",
    "town": "田島東"
  },
  "3430105": {
    "zipcode": "3430105",
    "prefectureCode": "11",
    "prefectureNumber": 11,
    "prefecture": "埼玉県",
    "city": "北葛飾郡松伏町",
    "town": "田島"
  },
  "3430106": {
    "zipcode": "3430106",
    "prefectureCode": "11",
    "prefectureNumber": 11,
    "prefecture": "埼玉県",
    "city": "北葛飾郡松伏町",
    "town": "大川戸"
  },
  "3430107": {
    "zipcode": "3430107",
    "prefectureCode": "11",
    "prefectureNumber": 11,
    "prefecture": "埼玉県",
    "city": "北葛飾郡松伏町",
    "town": "田島南"
  },
  "3430111": {
    "zipcode": "3430111",
    "prefectureCode": "11",
    "prefectureNumber": 11,
    "prefecture": "埼玉県",
    "city": "北葛飾郡松伏町",
    "town": "松伏"
  },
  "3430112": {
    "zipcode": "3430112",
    "prefectureCode": "11",
    "prefectureNumber": 11,
    "prefecture": "埼玉県",
    "city": "北葛飾郡松伏町",
    "town": "松葉"
  },
  "3430113": {
    "zipcode": "3430113",
    "prefectureCode": "11",
    "prefectureNumber": 11,
    "prefecture": "埼玉県",
    "city": "北葛飾郡松伏町",
    "town": "ゆめみ野"
  },
  "3430114": {
    "zipcode": "3430114",
    "prefectureCode": "11",
    "prefectureNumber": 11,
    "prefecture": "埼玉県",
    "city": "北葛飾郡松伏町",
    "town": "ゆめみ野東"
  },
  "3430115": {
    "zipcode": "3430115",
    "prefectureCode": "11",
    "prefectureNumber": 11,
    "prefecture": "埼玉県",
    "city": "北葛飾郡松伏町",
    "town": "上赤岩"
  },
  "3430116": {
    "zipcode": "3430116",
    "prefectureCode": "11",
    "prefectureNumber": 11,
    "prefecture": "埼玉県",
    "city": "北葛飾郡松伏町",
    "town": "下赤岩"
  },
  "3430117": {
    "zipcode": "3430117",
    "prefectureCode": "11",
    "prefectureNumber": 11,
    "prefecture": "埼玉県",
    "city": "北葛飾郡松伏町",
    "town": "田中"
  },
  "3430801": {
    "zipcode": "3430801",
    "prefectureCode": "11",
    "prefectureNumber": 11,
    "prefecture": "埼玉県",
    "city": "越谷市",
    "town": "野島"
  },
  "3430802": {
    "zipcode": "3430802",
    "prefectureCode": "11",
    "prefectureNumber": 11,
    "prefecture": "埼玉県",
    "city": "越谷市",
    "town": "小曽川"
  },
  "3430803": {
    "zipcode": "3430803",
    "prefectureCode": "11",
    "prefectureNumber": 11,
    "prefecture": "埼玉県",
    "city": "越谷市",
    "town": "砂原"
  },
  "3430804": {
    "zipcode": "3430804",
    "prefectureCode": "11",
    "prefectureNumber": 11,
    "prefecture": "埼玉県",
    "city": "越谷市",
    "town": "南荻島"
  },
  "3430805": {
    "zipcode": "3430805",
    "prefectureCode": "11",
    "prefectureNumber": 11,
    "prefecture": "埼玉県",
    "city": "越谷市",
    "town": "神明町"
  },
  "3430806": {
    "zipcode": "3430806",
    "prefectureCode": "11",
    "prefectureNumber": 11,
    "prefecture": "埼玉県",
    "city": "越谷市",
    "town": "宮本町"
  },
  "3430807": {
    "zipcode": "3430807",
    "prefectureCode": "11",
    "prefectureNumber": 11,
    "prefecture": "埼玉県",
    "city": "越谷市",
    "town": "赤山町"
  },
  "3430808": {
    "zipcode": "3430808",
    "prefectureCode": "11",
    "prefectureNumber": 11,
    "prefecture": "埼玉県",
    "city": "越谷市",
    "town": "赤山本町"
  },
  "3430811": {
    "zipcode": "3430811",
    "prefectureCode": "11",
    "prefectureNumber": 11,
    "prefecture": "埼玉県",
    "city": "越谷市",
    "town": "御殿町"
  },
  "3430812": {
    "zipcode": "3430812",
    "prefectureCode": "11",
    "prefectureNumber": 11,
    "prefecture": "埼玉県",
    "city": "越谷市",
    "town": "柳町"
  },
  "3430813": {
    "zipcode": "3430813",
    "prefectureCode": "11",
    "prefectureNumber": 11,
    "prefecture": "埼玉県",
    "city": "越谷市",
    "town": "越ケ谷（丁目）"
  },
  "3430814": {
    "zipcode": "3430814",
    "prefectureCode": "11",
    "prefectureNumber": 11,
    "prefecture": "埼玉県",
    "city": "越谷市",
    "town": "東柳田町"
  },
  "3430815": {
    "zipcode": "3430815",
    "prefectureCode": "11",
    "prefectureNumber": 11,
    "prefecture": "埼玉県",
    "city": "越谷市",
    "town": "元柳田町"
  },
  "3430816": {
    "zipcode": "3430816",
    "prefectureCode": "11",
    "prefectureNumber": 11,
    "prefecture": "埼玉県",
    "city": "越谷市",
    "town": "弥生町"
  },
  "3430817": {
    "zipcode": "3430817",
    "prefectureCode": "11",
    "prefectureNumber": 11,
    "prefecture": "埼玉県",
    "city": "越谷市",
    "town": "中町"
  },
  "3430818": {
    "zipcode": "3430818",
    "prefectureCode": "11",
    "prefectureNumber": 11,
    "prefecture": "埼玉県",
    "city": "越谷市",
    "town": "越ケ谷本町"
  },
  "3430821": {
    "zipcode": "3430821",
    "prefectureCode": "11",
    "prefectureNumber": 11,
    "prefecture": "埼玉県",
    "city": "越谷市",
    "town": "瓦曽根"
  },
  "3430822": {
    "zipcode": "3430822",
    "prefectureCode": "11",
    "prefectureNumber": 11,
    "prefecture": "埼玉県",
    "city": "越谷市",
    "town": "西方"
  },
  "3430823": {
    "zipcode": "3430823",
    "prefectureCode": "11",
    "prefectureNumber": 11,
    "prefecture": "埼玉県",
    "city": "越谷市",
    "town": "相模町"
  },
  "3430824": {
    "zipcode": "3430824",
    "prefectureCode": "11",
    "prefectureNumber": 11,
    "prefecture": "埼玉県",
    "city": "越谷市",
    "town": "流通団地"
  },
  "3430825": {
    "zipcode": "3430825",
    "prefectureCode": "11",
    "prefectureNumber": 11,
    "prefecture": "埼玉県",
    "city": "越谷市",
    "town": "大成町"
  },
  "3430826": {
    "zipcode": "3430826",
    "prefectureCode": "11",
    "prefectureNumber": 11,
    "prefecture": "埼玉県",
    "city": "越谷市",
    "town": "東町"
  },
  "3430827": {
    "zipcode": "3430827",
    "prefectureCode": "11",
    "prefectureNumber": 11,
    "prefecture": "埼玉県",
    "city": "越谷市",
    "town": "川柳町"
  },
  "3430828": {
    "zipcode": "3430828",
    "prefectureCode": "11",
    "prefectureNumber": 11,
    "prefecture": "埼玉県",
    "city": "越谷市",
    "town": "レイクタウン"
  },
  "3430831": {
    "zipcode": "3430831",
    "prefectureCode": "11",
    "prefectureNumber": 11,
    "prefecture": "埼玉県",
    "city": "越谷市",
    "town": "伊原"
  },
  "3430832": {
    "zipcode": "3430832",
    "prefectureCode": "11",
    "prefectureNumber": 11,
    "prefecture": "埼玉県",
    "city": "越谷市",
    "town": "南町"
  },
  "3430833": {
    "zipcode": "3430833",
    "prefectureCode": "11",
    "prefectureNumber": 11,
    "prefecture": "埼玉県",
    "city": "越谷市",
    "town": "蒲生南町"
  },
  "3430834": {
    "zipcode": "3430834",
    "prefectureCode": "11",
    "prefectureNumber": 11,
    "prefecture": "埼玉県",
    "city": "越谷市",
    "town": "蒲生愛宕町"
  },
  "3430835": {
    "zipcode": "3430835",
    "prefectureCode": "11",
    "prefectureNumber": 11,
    "prefecture": "埼玉県",
    "city": "越谷市",
    "town": "蒲生西町"
  },
  "3430836": {
    "zipcode": "3430836",
    "prefectureCode": "11",
    "prefectureNumber": 11,
    "prefecture": "埼玉県",
    "city": "越谷市",
    "town": "蒲生寿町"
  },
  "3430837": {
    "zipcode": "3430837",
    "prefectureCode": "11",
    "prefectureNumber": 11,
    "prefecture": "埼玉県",
    "city": "越谷市",
    "town": "蒲生本町"
  },
  "3430838": {
    "zipcode": "3430838",
    "prefectureCode": "11",
    "prefectureNumber": 11,
    "prefecture": "埼玉県",
    "city": "越谷市",
    "town": "蒲生"
  },
  "3430841": {
    "zipcode": "3430841",
    "prefectureCode": "11",
    "prefectureNumber": 11,
    "prefecture": "埼玉県",
    "city": "越谷市",
    "town": "蒲生東町"
  },
  "3430842": {
    "zipcode": "3430842",
    "prefectureCode": "11",
    "prefectureNumber": 11,
    "prefecture": "埼玉県",
    "city": "越谷市",
    "town": "蒲生旭町"
  },
  "3430843": {
    "zipcode": "3430843",
    "prefectureCode": "11",
    "prefectureNumber": 11,
    "prefecture": "埼玉県",
    "city": "越谷市",
    "town": "蒲生茜町"
  },
  "3430844": {
    "zipcode": "3430844",
    "prefectureCode": "11",
    "prefectureNumber": 11,
    "prefecture": "埼玉県",
    "city": "越谷市",
    "town": "大間野町"
  },
  "3430845": {
    "zipcode": "3430845",
    "prefectureCode": "11",
    "prefectureNumber": 11,
    "prefecture": "埼玉県",
    "city": "越谷市",
    "town": "南越谷"
  },
  "3430846": {
    "zipcode": "3430846",
    "prefectureCode": "11",
    "prefectureNumber": 11,
    "prefecture": "埼玉県",
    "city": "越谷市",
    "town": "登戸町"
  },
  "3430851": {
    "zipcode": "3430851",
    "prefectureCode": "11",
    "prefectureNumber": 11,
    "prefecture": "埼玉県",
    "city": "越谷市",
    "town": "七左町"
  },
  "3430852": {
    "zipcode": "3430852",
    "prefectureCode": "11",
    "prefectureNumber": 11,
    "prefecture": "埼玉県",
    "city": "越谷市",
    "town": "新川町"
  },
  "3430853": {
    "zipcode": "3430853",
    "prefectureCode": "11",
    "prefectureNumber": 11,
    "prefecture": "埼玉県",
    "city": "越谷市",
    "town": "長島"
  },
  "3430854": {
    "zipcode": "3430854",
    "prefectureCode": "11",
    "prefectureNumber": 11,
    "prefecture": "埼玉県",
    "city": "越谷市",
    "town": "北後谷"
  },
  "3430855": {
    "zipcode": "3430855",
    "prefectureCode": "11",
    "prefectureNumber": 11,
    "prefecture": "埼玉県",
    "city": "越谷市",
    "town": "西新井"
  },
  "3430856": {
    "zipcode": "3430856",
    "prefectureCode": "11",
    "prefectureNumber": 11,
    "prefecture": "埼玉県",
    "city": "越谷市",
    "town": "谷中町"
  },
  "3430857": {
    "zipcode": "3430857",
    "prefectureCode": "11",
    "prefectureNumber": 11,
    "prefecture": "埼玉県",
    "city": "越谷市",
    "town": "新越谷"
  }
}
