{
  "3450000": {
    "zipcode": "3450000",
    "prefectureCode": "11",
    "prefectureNumber": 11,
    "prefecture": "埼玉県",
    "city": "北葛飾郡杉戸町",
    "town": "以下に掲載がない場合"
  },
  "3450001": {
    "zipcode": "3450001",
    "prefectureCode": "11",
    "prefectureNumber": 11,
    "prefecture": "埼玉県",
    "city": "北葛飾郡杉戸町",
    "town": "木津内"
  },
  "3450002": {
    "zipcode": "3450002",
    "prefectureCode": "11",
    "prefectureNumber": 11,
    "prefecture": "埼玉県",
    "city": "北葛飾郡杉戸町",
    "town": "鷲巣"
  },
  "3450003": {
    "zipcode": "3450003",
    "prefectureCode": "11",
    "prefectureNumber": 11,
    "prefecture": "埼玉県",
    "city": "北葛飾郡杉戸町",
    "town": "木野川"
  },
  "3450004": {
    "zipcode": "3450004",
    "prefectureCode": "11",
    "prefectureNumber": 11,
    "prefecture": "埼玉県",
    "city": "北葛飾郡杉戸町",
    "town": "宮前"
  },
  "3450005": {
    "zipcode": "3450005",
    "prefectureCode": "11",
    "prefectureNumber": 11,
    "prefecture": "埼玉県",
    "city": "北葛飾郡杉戸町",
    "town": "目沼"
  },
  "3450011": {
    "zipcode": "3450011",
    "prefectureCode": "11",
    "prefectureNumber": 11,
    "prefecture": "埼玉県",
    "city": "北葛飾郡杉戸町",
    "town": "屏風"
  },
  "3450012": {
    "zipcode": "3450012",
    "prefectureCode": "11",
    "prefectureNumber": 11,
    "prefecture": "埼玉県",
    "city": "北葛飾郡杉戸町",
    "town": "深輪"
  },
  "3450013": {
    "zipcode": "3450013",
    "prefectureCode": "11",
    "prefectureNumber": 11,
    "prefecture": "埼玉県",
    "city": "北葛飾郡杉戸町",
    "town": "椿"
  },
  "3450014": {
    "zipcode": "3450014",
    "prefectureCode": "11",
    "prefectureNumber": 11,
    "prefecture": "埼玉県",
    "city": "北葛飾郡杉戸町",
    "town": "才羽"
  },
  "3450015": {
    "zipcode": "3450015",
    "prefectureCode": "11",
    "prefectureNumber": 11,
    "prefecture": "埼玉県",
    "city": "北葛飾郡杉戸町",
    "town": "並塚"
  },
  "3450021": {
    "zipcode": "3450021",
    "prefectureCode": "11",
    "prefectureNumber": 11,
    "prefecture": "埼玉県",
    "city": "北葛飾郡杉戸町",
    "town": "北蓮沼"
  },
  "3450022": {
    "zipcode": "3450022",
    "prefectureCode": "11",
    "prefectureNumber": 11,
    "prefecture": "埼玉県",
    "city": "北葛飾郡杉戸町",
    "town": "大塚"
  },
  "3450023": {
    "zipcode": "3450023",
    "prefectureCode": "11",
    "prefectureNumber": 11,
    "prefecture": "埼玉県",
    "city": "北葛飾郡杉戸町",
    "town": "本郷"
  },
  "3450024": {
    "zipcode": "3450024",
    "prefectureCode": "11",
    "prefectureNumber": 11,
    "prefecture": "埼玉県",
    "city": "北葛飾郡杉戸町",
    "town": "堤根"
  },
  "3450025": {
    "zipcode": "3450025",
    "prefectureCode": "11",
    "prefectureNumber": 11,
    "prefecture": "埼玉県",
    "city": "北葛飾郡杉戸町",
    "town": "清地"
  },
  "3450031": {
    "zipcode": "3450031",
    "prefectureCode": "11",
    "prefectureNumber": 11,
    "prefecture": "埼玉県",
    "city": "北葛飾郡杉戸町",
    "town": "遠野"
  },
  "3450032": {
    "zipcode": "3450032",
    "prefectureCode": "11",
    "prefectureNumber": 11,
    "prefecture": "埼玉県",
    "city": "北葛飾郡杉戸町",
    "town": "広戸沼"
  },
  "3450033": {
    "zipcode": "3450033",
    "prefectureCode": "11",
    "prefectureNumber": 11,
    "prefecture": "埼玉県",
    "city": "北葛飾郡杉戸町",
    "town": "佐左エ門"
  },
  "3450034": {
    "zipcode": "3450034",
    "prefectureCode": "11",
    "prefectureNumber": 11,
    "prefecture": "埼玉県",
    "city": "北葛飾郡杉戸町",
    "town": "倉松"
  },
  "3450035": {
    "zipcode": "3450035",
    "prefectureCode": "11",
    "prefectureNumber": 11,
    "prefecture": "埼玉県",
    "city": "北葛飾郡杉戸町",
    "town": "内田"
  },
  "3450036": {
    "zipcode": "3450036",
    "prefectureCode": "11",
    "prefectureNumber": 11,
    "prefecture": "埼玉県",
    "city": "北葛飾郡杉戸町",
    "town": "杉戸"
  },
  "3450037": {
    "zipcode": "3450037",
    "prefectureCode": "11",
    "prefectureNumber": 11,
    "prefecture": "埼玉県",
    "city": "北葛飾郡杉戸町",
    "town": "本島"
  },
  "3450041": {
    "zipcode": "3450041",
    "prefectureCode": "11",
    "prefectureNumber": 11,
    "prefecture": "埼玉県",
    "city": "北葛飾郡杉戸町",
    "town": "茨島"
  },
  "3450042": {
    "zipcode": "3450042",
    "prefectureCode": "11",
    "prefectureNumber": 11,
    "prefecture": "埼玉県",
    "city": "北葛飾郡杉戸町",
    "town": "大島"
  },
  "3450043": {
    "zipcode": "3450043",
    "prefectureCode": "11",
    "prefectureNumber": 11,
    "prefecture": "埼玉県",
    "city": "北葛飾郡杉戸町",
    "town": "下高野"
  },
  "3450044": {
    "zipcode": "3450044",
    "prefectureCode": "11",
    "prefectureNumber": 11,
    "prefecture": "埼玉県",
    "city": "北葛飾郡杉戸町",
    "town": "下野"
  },
  "3450045": {
    "zipcode": "3450045",
    "prefectureCode": "11",
    "prefectureNumber": 11,
    "prefecture": "埼玉県",
    "city": "北葛飾郡杉戸町",
    "town": "高野台西"
  },
  "3450046": {
    "zipcode": "3450046",
    "prefectureCode": "11",
    "prefectureNumber": 11,
    "prefecture": "埼玉県",
    "city": "北葛飾郡杉戸町",
    "town": "高野台南"
  },
  "3450047": {
    "zipcode": "3450047",
    "prefectureCode": "11",
    "prefectureNumber": 11,
    "prefecture": "埼玉県",
    "city": "北葛飾郡杉戸町",
    "town": "高野台東"
  },
  "3450801": {
    "zipcode": "3450801",
    "prefectureCode": "11",
    "prefectureNumber": 11,
    "prefecture": "埼玉県",
    "city": "南埼玉郡宮代町",
    "town": "百間"
  },
  "3450802": {
    "zipcode": "3450802",
    "prefectureCode": "11",
    "prefectureNumber": 11,
    "prefecture": "埼玉県",
    "city": "南埼玉郡宮代町",
    "town": "中島"
  },
  "3450803": {
    "zipcode": "3450803",
    "prefectureCode": "11",
    "prefectureNumber": 11,
    "prefecture": "埼玉県",
    "city": "南埼玉郡宮代町",
    "town": "宮東"
  },
  "3450804": {
    "zipcode": "3450804",
    "prefectureCode": "11",
    "prefectureNumber": 11,
    "prefecture": "埼玉県",
    "city": "南埼玉郡宮代町",
    "town": "川端"
  },
  "3450811": {
    "zipcode": "3450811",
    "prefectureCode": "11",
    "prefectureNumber": 11,
    "prefecture": "埼玉県",
    "city": "南埼玉郡宮代町",
    "town": "道佛"
  },
  "3450812": {
    "zipcode": "3450812",
    "prefectureCode": "11",
    "prefectureNumber": 11,
    "prefecture": "埼玉県",
    "city": "南埼玉郡宮代町",
    "town": "姫宮"
  },
  "3450813": {
    "zipcode": "3450813",
    "prefectureCode": "11",
    "prefectureNumber": 11,
    "prefecture": "埼玉県",
    "city": "南埼玉郡宮代町",
    "town": "東姫宮"
  },
  "3450814": {
    "zipcode": "3450814",
    "prefectureCode": "11",
    "prefectureNumber": 11,
    "prefecture": "埼玉県",
    "city": "南埼玉郡宮代町",
    "town": "東"
  },
  "3450815": {
    "zipcode": "3450815",
    "prefectureCode": "11",
    "prefectureNumber": 11,
    "prefecture": "埼玉県",
    "city": "南埼玉郡宮代町",
    "town": "中"
  },
  "3450816": {
    "zipcode": "3450816",
    "prefectureCode": "11",
    "prefectureNumber": 11,
    "prefecture": "埼玉県",
    "city": "南埼玉郡宮代町",
    "town": "金原"
  },
  "3450817": {
    "zipcode": "3450817",
    "prefectureCode": "11",
    "prefectureNumber": 11,
    "prefecture": "埼玉県",
    "city": "南埼玉郡宮代町",
    "town": "西原"
  },
  "3450821": {
    "zipcode": "3450821",
    "prefectureCode": "11",
    "prefectureNumber": 11,
    "prefecture": "埼玉県",
    "city": "南埼玉郡宮代町",
    "town": "中央"
  },
  "3450822": {
    "zipcode": "3450822",
    "prefectureCode": "11",
    "prefectureNumber": 11,
    "prefecture": "埼玉県",
    "city": "南埼玉郡宮代町",
    "town": "笠原"
  },
  "3450823": {
    "zipcode": "3450823",
    "prefectureCode": "11",
    "prefectureNumber": 11,
    "prefecture": "埼玉県",
    "city": "南埼玉郡宮代町",
    "town": "宮代"
  },
  "3450824": {
    "zipcode": "3450824",
    "prefectureCode": "11",
    "prefectureNumber": 11,
    "prefecture": "埼玉県",
    "city": "南埼玉郡宮代町",
    "town": "山崎"
  },
  "3450825": {
    "zipcode": "3450825",
    "prefectureCode": "11",
    "prefectureNumber": 11,
    "prefecture": "埼玉県",
    "city": "南埼玉郡宮代町",
    "town": "逆井"
  },
  "3450826": {
    "zipcode": "3450826",
    "prefectureCode": "11",
    "prefectureNumber": 11,
    "prefecture": "埼玉県",
    "city": "南埼玉郡宮代町",
    "town": "学園台"
  },
  "3450827": {
    "zipcode": "3450827",
    "prefectureCode": "11",
    "prefectureNumber": 11,
    "prefecture": "埼玉県",
    "city": "南埼玉郡宮代町",
    "town": "本田"
  },
  "3450831": {
    "zipcode": "3450831",
    "prefectureCode": "11",
    "prefectureNumber": 11,
    "prefecture": "埼玉県",
    "city": "南埼玉郡宮代町",
    "town": "須賀"
  },
  "3450832": {
    "zipcode": "3450832",
    "prefectureCode": "11",
    "prefectureNumber": 11,
    "prefecture": "埼玉県",
    "city": "南埼玉郡宮代町",
    "town": "東粂原"
  },
  "3450833": {
    "zipcode": "3450833",
    "prefectureCode": "11",
    "prefectureNumber": 11,
    "prefecture": "埼玉県",
    "city": "南埼玉郡宮代町",
    "town": "西粂原"
  },
  "3450834": {
    "zipcode": "3450834",
    "prefectureCode": "11",
    "prefectureNumber": 11,
    "prefecture": "埼玉県",
    "city": "南埼玉郡宮代町",
    "town": "国納"
  },
  "3450835": {
    "zipcode": "3450835",
    "prefectureCode": "11",
    "prefectureNumber": 11,
    "prefecture": "埼玉県",
    "city": "南埼玉郡宮代町",
    "town": "宮代台"
  },
  "3450836": {
    "zipcode": "3450836",
    "prefectureCode": "11",
    "prefectureNumber": 11,
    "prefecture": "埼玉県",
    "city": "南埼玉郡宮代町",
    "town": "和戸"
  },
  "3450837": {
    "zipcode": "3450837",
    "prefectureCode": "11",
    "prefectureNumber": 11,
    "prefecture": "埼玉県",
    "city": "南埼玉郡宮代町",
    "town": "和戸横町"
  }
}
