{
  "3480000": {
    "zipcode": "3480000",
    "prefectureCode": "11",
    "prefectureNumber": 11,
    "prefecture": "埼玉県",
    "city": "羽生市",
    "town": "以下に掲載がない場合"
  },
  "3480001": {
    "zipcode": "3480001",
    "prefectureCode": "11",
    "prefectureNumber": 11,
    "prefecture": "埼玉県",
    "city": "羽生市",
    "town": "堤"
  },
  "3480002": {
    "zipcode": "3480002",
    "prefectureCode": "11",
    "prefectureNumber": 11,
    "prefecture": "埼玉県",
    "city": "羽生市",
    "town": "名"
  },
  "3480003": {
    "zipcode": "3480003",
    "prefectureCode": "11",
    "prefectureNumber": 11,
    "prefecture": "埼玉県",
    "city": "羽生市",
    "town": "常木"
  },
  "3480004": {
    "zipcode": "3480004",
    "prefectureCode": "11",
    "prefectureNumber": 11,
    "prefecture": "埼玉県",
    "city": "羽生市",
    "town": "弥勒"
  },
  "3480005": {
    "zipcode": "3480005",
    "prefectureCode": "11",
    "prefectureNumber": 11,
    "prefecture": "埼玉県",
    "city": "羽生市",
    "town": "上村君"
  },
  "3480006": {
    "zipcode": "3480006",
    "prefectureCode": "11",
    "prefectureNumber": 11,
    "prefecture": "埼玉県",
    "city": "羽生市",
    "town": "下村君"
  },
  "3480011": {
    "zipcode": "3480011",
    "prefectureCode": "11",
    "prefectureNumber": 11,
    "prefecture": "埼玉県",
    "city": "羽生市",
    "town": "三田ケ谷"
  },
  "3480012": {
    "zipcode": "3480012",
    "prefectureCode": "11",
    "prefectureNumber": 11,
    "prefecture": "埼玉県",
    "city": "羽生市",
    "town": "与兵エ新田"
  },
  "3480013": {
    "zipcode": "3480013",
    "prefectureCode": "11",
    "prefectureNumber": 11,
    "prefecture": "埼玉県",
    "city": "羽生市",
    "town": "日野手新田"
  },
  "3480014": {
    "zipcode": "3480014",
    "prefectureCode": "11",
    "prefectureNumber": 11,
    "prefecture": "埼玉県",
    "city": "羽生市",
    "town": "喜右エ門新田"
  },
  "3480015": {
    "zipcode": "3480015",
    "prefectureCode": "11",
    "prefectureNumber": 11,
    "prefecture": "埼玉県",
    "city": "羽生市",
    "town": "北荻島"
  },
  "3480016": {
    "zipcode": "3480016",
    "prefectureCode": "11",
    "prefectureNumber": 11,
    "prefecture": "埼玉県",
    "city": "羽生市",
    "town": "大沼"
  },
  "3480017": {
    "zipcode": "3480017",
    "prefectureCode": "11",
    "prefectureNumber": 11,
    "prefecture": "埼玉県",
    "city": "羽生市",
    "town": "今泉"
  },
  "3480021": {
    "zipcode": "3480021",
    "prefectureCode": "11",
    "prefectureNumber": 11,
    "prefecture": "埼玉県",
    "city": "羽生市",
    "town": "中手子林"
  },
  "3480022": {
    "zipcode": "3480022",
    "prefectureCode": "11",
    "prefectureNumber": 11,
    "prefecture": "埼玉県",
    "city": "羽生市",
    "town": "下手子林"
  },
  "3480023": {
    "zipcode": "3480023",
    "prefectureCode": "11",
    "prefectureNumber": 11,
    "prefecture": "埼玉県",
    "city": "羽生市",
    "town": "町屋"
  },
  "3480024": {
    "zipcode": "3480024",
    "prefectureCode": "11",
    "prefectureNumber": 11,
    "prefecture": "埼玉県",
    "city": "羽生市",
    "town": "神戸"
  },
  "3480025": {
    "zipcode": "3480025",
    "prefectureCode": "11",
    "prefectureNumber": 11,
    "prefecture": "埼玉県",
    "city": "羽生市",
    "town": "上手子林"
  },
  "3480026": {
    "zipcode": "3480026",
    "prefectureCode": "11",
    "prefectureNumber": 11,
    "prefecture": "埼玉県",
    "city": "羽生市",
    "town": "下羽生"
  },
  "3480027": {
    "zipcode": "3480027",
    "prefectureCode": "11",
    "prefectureNumber": 11,
    "prefecture": "埼玉県",
    "city": "羽生市",
    "town": "上羽生"
  },
  "3480028": {
    "zipcode": "3480028",
    "prefectureCode": "11",
    "prefectureNumber": 11,
    "prefecture": "埼玉県",
    "city": "羽生市",
    "town": "北袋"
  },
  "3480031": {
    "zipcode": "3480031",
    "prefectureCode": "11",
    "prefectureNumber": 11,
    "prefecture": "埼玉県",
    "city": "羽生市",
    "town": "加羽ケ崎"
  },
  "3480032": {
    "zipcode": "3480032",
    "prefectureCode": "11",
    "prefectureNumber": 11,
    "prefecture": "埼玉県",
    "city": "羽生市",
    "town": "秀安"
  },
  "3480033": {
    "zipcode": "3480033",
    "prefectureCode": "11",
    "prefectureNumber": 11,
    "prefecture": "埼玉県",
    "city": "羽生市",
    "town": "須影"
  },
  "3480034": {
    "zipcode": "3480034",
    "prefectureCode": "11",
    "prefectureNumber": 11,
    "prefecture": "埼玉県",
    "city": "羽生市",
    "town": "下川崎"
  },
  "3480035": {
    "zipcode": "3480035",
    "prefectureCode": "11",
    "prefectureNumber": 11,
    "prefecture": "埼玉県",
    "city": "羽生市",
    "town": "上川崎"
  },
  "3480036": {
    "zipcode": "3480036",
    "prefectureCode": "11",
    "prefectureNumber": 11,
    "prefecture": "埼玉県",
    "city": "羽生市",
    "town": "砂山"
  },
  "3480037": {
    "zipcode": "3480037",
    "prefectureCode": "11",
    "prefectureNumber": 11,
    "prefecture": "埼玉県",
    "city": "羽生市",
    "town": "小松"
  },
  "3480038": {
    "zipcode": "3480038",
    "prefectureCode": "11",
    "prefectureNumber": 11,
    "prefecture": "埼玉県",
    "city": "羽生市",
    "town": "小松台"
  },
  "3480039": {
    "zipcode": "3480039",
    "prefectureCode": "11",
    "prefectureNumber": 11,
    "prefecture": "埼玉県",
    "city": "羽生市",
    "town": "川崎"
  },
  "3480041": {
    "zipcode": "3480041",
    "prefectureCode": "11",
    "prefectureNumber": 11,
    "prefecture": "埼玉県",
    "city": "羽生市",
    "town": "上新郷"
  },
  "3480042": {
    "zipcode": "3480042",
    "prefectureCode": "11",
    "prefectureNumber": 11,
    "prefecture": "埼玉県",
    "city": "羽生市",
    "town": "小須賀"
  },
  "3480043": {
    "zipcode": "3480043",
    "prefectureCode": "11",
    "prefectureNumber": 11,
    "prefecture": "埼玉県",
    "city": "羽生市",
    "town": "桑崎"
  },
  "3480044": {
    "zipcode": "3480044",
    "prefectureCode": "11",
    "prefectureNumber": 11,
    "prefecture": "埼玉県",
    "city": "羽生市",
    "town": "上岩瀬"
  },
  "3480045": {
    "zipcode": "3480045",
    "prefectureCode": "11",
    "prefectureNumber": 11,
    "prefecture": "埼玉県",
    "city": "羽生市",
    "town": "下岩瀬"
  },
  "3480046": {
    "zipcode": "3480046",
    "prefectureCode": "11",
    "prefectureNumber": 11,
    "prefecture": "埼玉県",
    "city": "羽生市",
    "town": "中岩瀬"
  },
  "3480047": {
    "zipcode": "3480047",
    "prefectureCode": "11",
    "prefectureNumber": 11,
    "prefecture": "埼玉県",
    "city": "羽生市",
    "town": "下新郷"
  },
  "3480048": {
    "zipcode": "3480048",
    "prefectureCode": "11",
    "prefectureNumber": 11,
    "prefecture": "埼玉県",
    "city": "羽生市",
    "town": "下新田"
  },
  "3480051": {
    "zipcode": "3480051",
    "prefectureCode": "11",
    "prefectureNumber": 11,
    "prefecture": "埼玉県",
    "city": "羽生市",
    "town": "本川俣"
  },
  "3480052": {
    "zipcode": "3480052",
    "prefectureCode": "11",
    "prefectureNumber": 11,
    "prefecture": "埼玉県",
    "city": "羽生市",
    "town": "東"
  },
  "3480053": {
    "zipcode": "3480053",
    "prefectureCode": "11",
    "prefectureNumber": 11,
    "prefecture": "埼玉県",
    "city": "羽生市",
    "town": "南"
  },
  "3480054": {
    "zipcode": "3480054",
    "prefectureCode": "11",
    "prefectureNumber": 11,
    "prefecture": "埼玉県",
    "city": "羽生市",
    "town": "西"
  },
  "3480055": {
    "zipcode": "3480055",
    "prefectureCode": "11",
    "prefectureNumber": 11,
    "prefecture": "埼玉県",
    "city": "羽生市",
    "town": "羽生"
  },
  "3480056": {
    "zipcode": "3480056",
    "prefectureCode": "11",
    "prefectureNumber": 11,
    "prefecture": "埼玉県",
    "city": "羽生市",
    "town": "上川俣"
  },
  "3480057": {
    "zipcode": "3480057",
    "prefectureCode": "11",
    "prefectureNumber": 11,
    "prefecture": "埼玉県",
    "city": "羽生市",
    "town": "北"
  },
  "3480058": {
    "zipcode": "3480058",
    "prefectureCode": "11",
    "prefectureNumber": 11,
    "prefecture": "埼玉県",
    "city": "羽生市",
    "town": "中央"
  },
  "3480061": {
    "zipcode": "3480061",
    "prefectureCode": "11",
    "prefectureNumber": 11,
    "prefecture": "埼玉県",
    "city": "羽生市",
    "town": "稲子"
  },
  "3480062": {
    "zipcode": "3480062",
    "prefectureCode": "11",
    "prefectureNumber": 11,
    "prefecture": "埼玉県",
    "city": "羽生市",
    "town": "尾崎"
  },
  "3480063": {
    "zipcode": "3480063",
    "prefectureCode": "11",
    "prefectureNumber": 11,
    "prefecture": "埼玉県",
    "city": "羽生市",
    "town": "発戸"
  },
  "3480064": {
    "zipcode": "3480064",
    "prefectureCode": "11",
    "prefectureNumber": 11,
    "prefecture": "埼玉県",
    "city": "羽生市",
    "town": "藤井上組"
  },
  "3480065": {
    "zipcode": "3480065",
    "prefectureCode": "11",
    "prefectureNumber": 11,
    "prefecture": "埼玉県",
    "city": "羽生市",
    "town": "藤井下組"
  },
  "3480071": {
    "zipcode": "3480071",
    "prefectureCode": "11",
    "prefectureNumber": 11,
    "prefecture": "埼玉県",
    "city": "羽生市",
    "town": "南羽生"
  }
}
