{
  "3490100": {
    "zipcode": "3490100",
    "prefectureCode": "11",
    "prefectureNumber": 11,
    "prefecture": "埼玉県",
    "city": "蓮田市",
    "town": "以下に掲載がない場合"
  },
  "3490101": {
    "zipcode": "3490101",
    "prefectureCode": "11",
    "prefectureNumber": 11,
    "prefecture": "埼玉県",
    "city": "蓮田市",
    "town": "黒浜"
  },
  "3490102": {
    "zipcode": "3490102",
    "prefectureCode": "11",
    "prefectureNumber": 11,
    "prefecture": "埼玉県",
    "city": "蓮田市",
    "town": "江ケ崎"
  },
  "3490103": {
    "zipcode": "3490103",
    "prefectureCode": "11",
    "prefectureNumber": 11,
    "prefecture": "埼玉県",
    "city": "蓮田市",
    "town": "笹山"
  },
  "3490104": {
    "zipcode": "3490104",
    "prefectureCode": "11",
    "prefectureNumber": 11,
    "prefecture": "埼玉県",
    "city": "蓮田市",
    "town": "緑町"
  },
  "3490105": {
    "zipcode": "3490105",
    "prefectureCode": "11",
    "prefectureNumber": 11,
    "prefecture": "埼玉県",
    "city": "蓮田市",
    "town": "藤ノ木"
  },
  "3490111": {
    "zipcode": "3490111",
    "prefectureCode": "11",
    "prefectureNumber": 11,
    "prefecture": "埼玉県",
    "city": "蓮田市",
    "town": "東"
  },
  "3490112": {
    "zipcode": "3490112",
    "prefectureCode": "11",
    "prefectureNumber": 11,
    "prefecture": "埼玉県",
    "city": "蓮田市",
    "town": "川島"
  },
  "3490113": {
    "zipcode": "3490113",
    "prefectureCode": "11",
    "prefectureNumber": 11,
    "prefecture": "埼玉県",
    "city": "蓮田市",
    "town": "桜台"
  },
  "3490114": {
    "zipcode": "3490114",
    "prefectureCode": "11",
    "prefectureNumber": 11,
    "prefecture": "埼玉県",
    "city": "蓮田市",
    "town": "馬込"
  },
  "3490115": {
    "zipcode": "3490115",
    "prefectureCode": "11",
    "prefectureNumber": 11,
    "prefecture": "埼玉県",
    "city": "蓮田市",
    "town": "蓮田"
  },
  "3490121": {
    "zipcode": "3490121",
    "prefectureCode": "11",
    "prefectureNumber": 11,
    "prefecture": "埼玉県",
    "city": "蓮田市",
    "town": "関山"
  },
  "3490122": {
    "zipcode": "3490122",
    "prefectureCode": "11",
    "prefectureNumber": 11,
    "prefecture": "埼玉県",
    "city": "蓮田市",
    "town": "上"
  },
  "3490123": {
    "zipcode": "3490123",
    "prefectureCode": "11",
    "prefectureNumber": 11,
    "prefecture": "埼玉県",
    "city": "蓮田市",
    "town": "本町"
  },
  "3490124": {
    "zipcode": "3490124",
    "prefectureCode": "11",
    "prefectureNumber": 11,
    "prefecture": "埼玉県",
    "city": "蓮田市",
    "town": "末広"
  },
  "3490125": {
    "zipcode": "3490125",
    "prefectureCode": "11",
    "prefectureNumber": 11,
    "prefecture": "埼玉県",
    "city": "蓮田市",
    "town": "御前橋"
  },
  "3490126": {
    "zipcode": "3490126",
    "prefectureCode": "11",
    "prefectureNumber": 11,
    "prefecture": "埼玉県",
    "city": "蓮田市",
    "town": "綾瀬"
  },
  "3490127": {
    "zipcode": "3490127",
    "prefectureCode": "11",
    "prefectureNumber": 11,
    "prefecture": "埼玉県",
    "city": "蓮田市",
    "town": "見沼町"
  },
  "3490128": {
    "zipcode": "3490128",
    "prefectureCode": "11",
    "prefectureNumber": 11,
    "prefecture": "埼玉県",
    "city": "蓮田市",
    "town": "山ノ内"
  },
  "3490131": {
    "zipcode": "3490131",
    "prefectureCode": "11",
    "prefectureNumber": 11,
    "prefecture": "埼玉県",
    "city": "蓮田市",
    "town": "根金"
  },
  "3490132": {
    "zipcode": "3490132",
    "prefectureCode": "11",
    "prefectureNumber": 11,
    "prefecture": "埼玉県",
    "city": "蓮田市",
    "town": "貝塚"
  },
  "3490133": {
    "zipcode": "3490133",
    "prefectureCode": "11",
    "prefectureNumber": 11,
    "prefecture": "埼玉県",
    "city": "蓮田市",
    "town": "閏戸"
  },
  "3490134": {
    "zipcode": "3490134",
    "prefectureCode": "11",
    "prefectureNumber": 11,
    "prefecture": "埼玉県",
    "city": "蓮田市",
    "town": "駒崎"
  },
  "3490135": {
    "zipcode": "3490135",
    "prefectureCode": "11",
    "prefectureNumber": 11,
    "prefecture": "埼玉県",
    "city": "蓮田市",
    "town": "井沼"
  },
  "3490136": {
    "zipcode": "3490136",
    "prefectureCode": "11",
    "prefectureNumber": 11,
    "prefecture": "埼玉県",
    "city": "蓮田市",
    "town": "上平野"
  },
  "3490137": {
    "zipcode": "3490137",
    "prefectureCode": "11",
    "prefectureNumber": 11,
    "prefecture": "埼玉県",
    "city": "蓮田市",
    "town": "高虫"
  },
  "3490141": {
    "zipcode": "3490141",
    "prefectureCode": "11",
    "prefectureNumber": 11,
    "prefecture": "埼玉県",
    "city": "蓮田市",
    "town": "西新宿"
  },
  "3490142": {
    "zipcode": "3490142",
    "prefectureCode": "11",
    "prefectureNumber": 11,
    "prefecture": "埼玉県",
    "city": "蓮田市",
    "town": "南新宿"
  },
  "3490143": {
    "zipcode": "3490143",
    "prefectureCode": "11",
    "prefectureNumber": 11,
    "prefecture": "埼玉県",
    "city": "蓮田市",
    "town": "城"
  },
  "3490144": {
    "zipcode": "3490144",
    "prefectureCode": "11",
    "prefectureNumber": 11,
    "prefecture": "埼玉県",
    "city": "蓮田市",
    "town": "椿山"
  },
  "3490145": {
    "zipcode": "3490145",
    "prefectureCode": "11",
    "prefectureNumber": 11,
    "prefecture": "埼玉県",
    "city": "蓮田市",
    "town": "西城"
  },
  "3490200": {
    "zipcode": "3490200",
    "prefectureCode": "11",
    "prefectureNumber": 11,
    "prefecture": "埼玉県",
    "city": "白岡市",
    "town": "以下に掲載がない場合"
  },
  "3490201": {
    "zipcode": "3490201",
    "prefectureCode": "11",
    "prefectureNumber": 11,
    "prefecture": "埼玉県",
    "city": "白岡市",
    "town": "柴山"
  },
  "3490202": {
    "zipcode": "3490202",
    "prefectureCode": "11",
    "prefectureNumber": 11,
    "prefecture": "埼玉県",
    "city": "白岡市",
    "town": "荒井新田"
  },
  "3490203": {
    "zipcode": "3490203",
    "prefectureCode": "11",
    "prefectureNumber": 11,
    "prefecture": "埼玉県",
    "city": "白岡市",
    "town": "下大崎"
  },
  "3490204": {
    "zipcode": "3490204",
    "prefectureCode": "11",
    "prefectureNumber": 11,
    "prefecture": "埼玉県",
    "city": "白岡市",
    "town": "篠津"
  },
  "3490205": {
    "zipcode": "3490205",
    "prefectureCode": "11",
    "prefectureNumber": 11,
    "prefecture": "埼玉県",
    "city": "白岡市",
    "town": "西"
  },
  "3490211": {
    "zipcode": "3490211",
    "prefectureCode": "11",
    "prefectureNumber": 11,
    "prefecture": "埼玉県",
    "city": "白岡市",
    "town": "野牛"
  },
  "3490212": {
    "zipcode": "3490212",
    "prefectureCode": "11",
    "prefectureNumber": 11,
    "prefecture": "埼玉県",
    "city": "白岡市",
    "town": "新白岡"
  },
  "3490213": {
    "zipcode": "3490213",
    "prefectureCode": "11",
    "prefectureNumber": 11,
    "prefecture": "埼玉県",
    "city": "白岡市",
    "town": "高岩"
  },
  "3490214": {
    "zipcode": "3490214",
    "prefectureCode": "11",
    "prefectureNumber": 11,
    "prefecture": "埼玉県",
    "city": "白岡市",
    "town": "寺塚"
  },
  "3490215": {
    "zipcode": "3490215",
    "prefectureCode": "11",
    "prefectureNumber": 11,
    "prefecture": "埼玉県",
    "city": "白岡市",
    "town": "千駄野"
  },
  "3490216": {
    "zipcode": "3490216",
    "prefectureCode": "11",
    "prefectureNumber": 11,
    "prefecture": "埼玉県",
    "city": "白岡市",
    "town": "実ケ谷"
  },
  "3490217": {
    "zipcode": "3490217",
    "prefectureCode": "11",
    "prefectureNumber": 11,
    "prefecture": "埼玉県",
    "city": "白岡市",
    "town": "小久喜"
  },
  "3490218": {
    "zipcode": "3490218",
    "prefectureCode": "11",
    "prefectureNumber": 11,
    "prefecture": "埼玉県",
    "city": "白岡市",
    "town": "白岡"
  },
  "3490219": {
    "zipcode": "3490219",
    "prefectureCode": "11",
    "prefectureNumber": 11,
    "prefecture": "埼玉県",
    "city": "白岡市",
    "town": "白岡東"
  },
  "3490221": {
    "zipcode": "3490221",
    "prefectureCode": "11",
    "prefectureNumber": 11,
    "prefecture": "埼玉県",
    "city": "白岡市",
    "town": "上野田"
  },
  "3490222": {
    "zipcode": "3490222",
    "prefectureCode": "11",
    "prefectureNumber": 11,
    "prefecture": "埼玉県",
    "city": "白岡市",
    "town": "爪田ケ谷"
  },
  "3490223": {
    "zipcode": "3490223",
    "prefectureCode": "11",
    "prefectureNumber": 11,
    "prefecture": "埼玉県",
    "city": "白岡市",
    "town": "下野田"
  },
  "3490224": {
    "zipcode": "3490224",
    "prefectureCode": "11",
    "prefectureNumber": 11,
    "prefecture": "埼玉県",
    "city": "白岡市",
    "town": "彦兵衛"
  },
  "3490225": {
    "zipcode": "3490225",
    "prefectureCode": "11",
    "prefectureNumber": 11,
    "prefecture": "埼玉県",
    "city": "白岡市",
    "town": "太田新井"
  },
  "3490226": {
    "zipcode": "3490226",
    "prefectureCode": "11",
    "prefectureNumber": 11,
    "prefecture": "埼玉県",
    "city": "白岡市",
    "town": "岡泉"
  },
  "3491101": {
    "zipcode": "3491101",
    "prefectureCode": "11",
    "prefectureNumber": 11,
    "prefecture": "埼玉県",
    "city": "久喜市",
    "town": "栗橋北"
  },
  "3491102": {
    "zipcode": "3491102",
    "prefectureCode": "11",
    "prefectureNumber": 11,
    "prefecture": "埼玉県",
    "city": "久喜市",
    "town": "栗橋中央"
  },
  "3491103": {
    "zipcode": "3491103",
    "prefectureCode": "11",
    "prefectureNumber": 11,
    "prefecture": "埼玉県",
    "city": "久喜市",
    "town": "栗橋東"
  },
  "3491104": {
    "zipcode": "3491104",
    "prefectureCode": "11",
    "prefectureNumber": 11,
    "prefecture": "埼玉県",
    "city": "久喜市",
    "town": "栗橋"
  },
  "3491105": {
    "zipcode": "3491105",
    "prefectureCode": "11",
    "prefectureNumber": 11,
    "prefecture": "埼玉県",
    "city": "久喜市",
    "town": "小右衛門"
  },
  "3491106": {
    "zipcode": "3491106",
    "prefectureCode": "11",
    "prefectureNumber": 11,
    "prefecture": "埼玉県",
    "city": "久喜市",
    "town": "緑"
  },
  "3491111": {
    "zipcode": "3491111",
    "prefectureCode": "11",
    "prefectureNumber": 11,
    "prefecture": "埼玉県",
    "city": "久喜市",
    "town": "北広島"
  },
  "3491112": {
    "zipcode": "3491112",
    "prefectureCode": "11",
    "prefectureNumber": 11,
    "prefecture": "埼玉県",
    "city": "久喜市",
    "town": "中里"
  },
  "3491113": {
    "zipcode": "3491113",
    "prefectureCode": "11",
    "prefectureNumber": 11,
    "prefecture": "埼玉県",
    "city": "久喜市",
    "town": "狐塚"
  },
  "3491114": {
    "zipcode": "3491114",
    "prefectureCode": "11",
    "prefectureNumber": 11,
    "prefecture": "埼玉県",
    "city": "久喜市",
    "town": "河原代"
  },
  "3491115": {
    "zipcode": "3491115",
    "prefectureCode": "11",
    "prefectureNumber": 11,
    "prefecture": "埼玉県",
    "city": "久喜市",
    "town": "新井"
  },
  "3491116": {
    "zipcode": "3491116",
    "prefectureCode": "11",
    "prefectureNumber": 11,
    "prefecture": "埼玉県",
    "city": "久喜市",
    "town": "島川"
  },
  "3491117": {
    "zipcode": "3491117",
    "prefectureCode": "11",
    "prefectureNumber": 11,
    "prefecture": "埼玉県",
    "city": "久喜市",
    "town": "南栗橋"
  },
  "3491121": {
    "zipcode": "3491121",
    "prefectureCode": "11",
    "prefectureNumber": 11,
    "prefecture": "埼玉県",
    "city": "久喜市",
    "town": "伊坂"
  },
  "3491122": {
    "zipcode": "3491122",
    "prefectureCode": "11",
    "prefectureNumber": 11,
    "prefecture": "埼玉県",
    "city": "久喜市",
    "town": "松永"
  },
  "3491123": {
    "zipcode": "3491123",
    "prefectureCode": "11",
    "prefectureNumber": 11,
    "prefecture": "埼玉県",
    "city": "久喜市",
    "town": "間鎌"
  },
  "3491124": {
    "zipcode": "3491124",
    "prefectureCode": "11",
    "prefectureNumber": 11,
    "prefecture": "埼玉県",
    "city": "久喜市",
    "town": "佐間"
  },
  "3491125": {
    "zipcode": "3491125",
    "prefectureCode": "11",
    "prefectureNumber": 11,
    "prefecture": "埼玉県",
    "city": "久喜市",
    "town": "高柳"
  },
  "3491126": {
    "zipcode": "3491126",
    "prefectureCode": "11",
    "prefectureNumber": 11,
    "prefecture": "埼玉県",
    "city": "久喜市",
    "town": "伊坂北"
  },
  "3491127": {
    "zipcode": "3491127",
    "prefectureCode": "11",
    "prefectureNumber": 11,
    "prefecture": "埼玉県",
    "city": "久喜市",
    "town": "伊坂中央"
  },
  "3491128": {
    "zipcode": "3491128",
    "prefectureCode": "11",
    "prefectureNumber": 11,
    "prefecture": "埼玉県",
    "city": "久喜市",
    "town": "伊坂南"
  },
  "3491131": {
    "zipcode": "3491131",
    "prefectureCode": "11",
    "prefectureNumber": 11,
    "prefecture": "埼玉県",
    "city": "加須市",
    "town": "中渡"
  },
  "3491132": {
    "zipcode": "3491132",
    "prefectureCode": "11",
    "prefectureNumber": 11,
    "prefecture": "埼玉県",
    "city": "加須市",
    "town": "旗井"
  },
  "3491133": {
    "zipcode": "3491133",
    "prefectureCode": "11",
    "prefectureNumber": 11,
    "prefecture": "埼玉県",
    "city": "加須市",
    "town": "琴寄"
  },
  "3491134": {
    "zipcode": "3491134",
    "prefectureCode": "11",
    "prefectureNumber": 11,
    "prefecture": "埼玉県",
    "city": "加須市",
    "town": "北下新井"
  },
  "3491135": {
    "zipcode": "3491135",
    "prefectureCode": "11",
    "prefectureNumber": 11,
    "prefecture": "埼玉県",
    "city": "加須市",
    "town": "北平野"
  },
  "3491141": {
    "zipcode": "3491141",
    "prefectureCode": "11",
    "prefectureNumber": 11,
    "prefecture": "埼玉県",
    "city": "加須市",
    "town": "松永新田"
  },
  "3491142": {
    "zipcode": "3491142",
    "prefectureCode": "11",
    "prefectureNumber": 11,
    "prefecture": "埼玉県",
    "city": "加須市",
    "town": "杓子木"
  },
  "3491143": {
    "zipcode": "3491143",
    "prefectureCode": "11",
    "prefectureNumber": 11,
    "prefecture": "埼玉県",
    "city": "加須市",
    "town": "生出"
  },
  "3491144": {
    "zipcode": "3491144",
    "prefectureCode": "11",
    "prefectureNumber": 11,
    "prefecture": "埼玉県",
    "city": "加須市",
    "town": "阿佐間"
  },
  "3491145": {
    "zipcode": "3491145",
    "prefectureCode": "11",
    "prefectureNumber": 11,
    "prefecture": "埼玉県",
    "city": "加須市",
    "town": "間口"
  },
  "3491146": {
    "zipcode": "3491146",
    "prefectureCode": "11",
    "prefectureNumber": 11,
    "prefecture": "埼玉県",
    "city": "加須市",
    "town": "新井新田"
  },
  "3491147": {
    "zipcode": "3491147",
    "prefectureCode": "11",
    "prefectureNumber": 11,
    "prefecture": "埼玉県",
    "city": "加須市",
    "town": "北大桑"
  },
  "3491148": {
    "zipcode": "3491148",
    "prefectureCode": "11",
    "prefectureNumber": 11,
    "prefecture": "埼玉県",
    "city": "加須市",
    "town": "豊野台"
  },
  "3491151": {
    "zipcode": "3491151",
    "prefectureCode": "11",
    "prefectureNumber": 11,
    "prefecture": "埼玉県",
    "city": "加須市",
    "town": "佐波"
  },
  "3491152": {
    "zipcode": "3491152",
    "prefectureCode": "11",
    "prefectureNumber": 11,
    "prefecture": "埼玉県",
    "city": "加須市",
    "town": "弥兵衛"
  },
  "3491153": {
    "zipcode": "3491153",
    "prefectureCode": "11",
    "prefectureNumber": 11,
    "prefecture": "埼玉県",
    "city": "加須市",
    "town": "新川通"
  },
  "3491154": {
    "zipcode": "3491154",
    "prefectureCode": "11",
    "prefectureNumber": 11,
    "prefecture": "埼玉県",
    "city": "加須市",
    "town": "外記新田"
  },
  "3491155": {
    "zipcode": "3491155",
    "prefectureCode": "11",
    "prefectureNumber": 11,
    "prefecture": "埼玉県",
    "city": "加須市",
    "town": "砂原"
  },
  "3491156": {
    "zipcode": "3491156",
    "prefectureCode": "11",
    "prefectureNumber": 11,
    "prefecture": "埼玉県",
    "city": "加須市",
    "town": "細間"
  },
  "3491157": {
    "zipcode": "3491157",
    "prefectureCode": "11",
    "prefectureNumber": 11,
    "prefecture": "埼玉県",
    "city": "加須市",
    "town": "道目"
  },
  "3491158": {
    "zipcode": "3491158",
    "prefectureCode": "11",
    "prefectureNumber": 11,
    "prefecture": "埼玉県",
    "city": "加須市",
    "town": "新利根"
  },
  "3491201": {
    "zipcode": "3491201",
    "prefectureCode": "11",
    "prefectureNumber": 11,
    "prefecture": "埼玉県",
    "city": "加須市",
    "town": "柳生"
  },
  "3491202": {
    "zipcode": "3491202",
    "prefectureCode": "11",
    "prefectureNumber": 11,
    "prefecture": "埼玉県",
    "city": "加須市",
    "town": "小野袋"
  },
  "3491203": {
    "zipcode": "3491203",
    "prefectureCode": "11",
    "prefectureNumber": 11,
    "prefecture": "埼玉県",
    "city": "加須市",
    "town": "柏戸"
  },
  "3491204": {
    "zipcode": "3491204",
    "prefectureCode": "11",
    "prefectureNumber": 11,
    "prefecture": "埼玉県",
    "city": "加須市",
    "town": "陽光台"
  },
  "3491205": {
    "zipcode": "3491205",
    "prefectureCode": "11",
    "prefectureNumber": 11,
    "prefecture": "埼玉県",
    "city": "加須市",
    "town": "向古河"
  },
  "3491211": {
    "zipcode": "3491211",
    "prefectureCode": "11",
    "prefectureNumber": 11,
    "prefecture": "埼玉県",
    "city": "加須市",
    "town": "飯積"
  },
  "3491212": {
    "zipcode": "3491212",
    "prefectureCode": "11",
    "prefectureNumber": 11,
    "prefecture": "埼玉県",
    "city": "加須市",
    "town": "麦倉"
  },
  "3491213": {
    "zipcode": "3491213",
    "prefectureCode": "11",
    "prefectureNumber": 11,
    "prefecture": "埼玉県",
    "city": "加須市",
    "town": "栄"
  },
  "3491214": {
    "zipcode": "3491214",
    "prefectureCode": "11",
    "prefectureNumber": 11,
    "prefecture": "埼玉県",
    "city": "加須市",
    "town": "駒場"
  },
  "3491215": {
    "zipcode": "3491215",
    "prefectureCode": "11",
    "prefectureNumber": 11,
    "prefecture": "埼玉県",
    "city": "加須市",
    "town": "伊賀袋"
  },
  "3491216": {
    "zipcode": "3491216",
    "prefectureCode": "11",
    "prefectureNumber": 11,
    "prefecture": "埼玉県",
    "city": "加須市",
    "town": "本郷"
  },
  "3491221": {
    "zipcode": "3491221",
    "prefectureCode": "09",
    "prefectureNumber": 9,
    "prefecture": "栃木県",
    "city": "栃木市",
    "town": "藤岡町下宮"
  }
}
