{
  "3510000": {
    "zipcode": "3510000",
    "prefectureCode": "11",
    "prefectureNumber": 11,
    "prefecture": "埼玉県",
    "city": "朝霞市",
    "town": "以下に掲載がない場合"
  },
  "3510001": {
    "zipcode": "3510001",
    "prefectureCode": "11",
    "prefectureNumber": 11,
    "prefecture": "埼玉県",
    "city": "朝霞市",
    "town": "上内間木"
  },
  "3510002": {
    "zipcode": "3510002",
    "prefectureCode": "11",
    "prefectureNumber": 11,
    "prefecture": "埼玉県",
    "city": "朝霞市",
    "town": "下内間木"
  },
  "3510003": {
    "zipcode": "3510003",
    "prefectureCode": "11",
    "prefectureNumber": 11,
    "prefecture": "埼玉県",
    "city": "朝霞市",
    "town": "台"
  },
  "3510004": {
    "zipcode": "3510004",
    "prefectureCode": "11",
    "prefectureNumber": 11,
    "prefecture": "埼玉県",
    "city": "朝霞市",
    "town": "根岸"
  },
  "3510005": {
    "zipcode": "3510005",
    "prefectureCode": "11",
    "prefectureNumber": 11,
    "prefecture": "埼玉県",
    "city": "朝霞市",
    "town": "根岸台"
  },
  "3510006": {
    "zipcode": "3510006",
    "prefectureCode": "11",
    "prefectureNumber": 11,
    "prefecture": "埼玉県",
    "city": "朝霞市",
    "town": "仲町"
  },
  "3510007": {
    "zipcode": "3510007",
    "prefectureCode": "11",
    "prefectureNumber": 11,
    "prefecture": "埼玉県",
    "city": "朝霞市",
    "town": "岡"
  },
  "3510011": {
    "zipcode": "3510011",
    "prefectureCode": "11",
    "prefectureNumber": 11,
    "prefecture": "埼玉県",
    "city": "朝霞市",
    "town": "本町"
  },
  "3510012": {
    "zipcode": "3510012",
    "prefectureCode": "11",
    "prefectureNumber": 11,
    "prefecture": "埼玉県",
    "city": "朝霞市",
    "town": "栄町"
  },
  "3510013": {
    "zipcode": "3510013",
    "prefectureCode": "11",
    "prefectureNumber": 11,
    "prefecture": "埼玉県",
    "city": "朝霞市",
    "town": "膝折"
  },
  "3510014": {
    "zipcode": "3510014",
    "prefectureCode": "11",
    "prefectureNumber": 11,
    "prefecture": "埼玉県",
    "city": "朝霞市",
    "town": "膝折町"
  },
  "3510015": {
    "zipcode": "3510015",
    "prefectureCode": "11",
    "prefectureNumber": 11,
    "prefecture": "埼玉県",
    "city": "朝霞市",
    "town": "幸町"
  },
  "3510016": {
    "zipcode": "3510016",
    "prefectureCode": "11",
    "prefectureNumber": 11,
    "prefecture": "埼玉県",
    "city": "朝霞市",
    "town": "青葉台"
  },
  "3510021": {
    "zipcode": "3510021",
    "prefectureCode": "11",
    "prefectureNumber": 11,
    "prefecture": "埼玉県",
    "city": "朝霞市",
    "town": "西弁財"
  },
  "3510022": {
    "zipcode": "3510022",
    "prefectureCode": "11",
    "prefectureNumber": 11,
    "prefecture": "埼玉県",
    "city": "朝霞市",
    "town": "東弁財"
  },
  "3510023": {
    "zipcode": "3510023",
    "prefectureCode": "11",
    "prefectureNumber": 11,
    "prefecture": "埼玉県",
    "city": "朝霞市",
    "town": "溝沼"
  },
  "3510024": {
    "zipcode": "3510024",
    "prefectureCode": "11",
    "prefectureNumber": 11,
    "prefecture": "埼玉県",
    "city": "朝霞市",
    "town": "泉水"
  },
  "3510025": {
    "zipcode": "3510025",
    "prefectureCode": "11",
    "prefectureNumber": 11,
    "prefecture": "埼玉県",
    "city": "朝霞市",
    "town": "三原"
  },
  "3510031": {
    "zipcode": "3510031",
    "prefectureCode": "11",
    "prefectureNumber": 11,
    "prefecture": "埼玉県",
    "city": "朝霞市",
    "town": "宮戸"
  },
  "3510032": {
    "zipcode": "3510032",
    "prefectureCode": "11",
    "prefectureNumber": 11,
    "prefecture": "埼玉県",
    "city": "朝霞市",
    "town": "田島"
  },
  "3510033": {
    "zipcode": "3510033",
    "prefectureCode": "11",
    "prefectureNumber": 11,
    "prefecture": "埼玉県",
    "city": "朝霞市",
    "town": "浜崎"
  },
  "3510034": {
    "zipcode": "3510034",
    "prefectureCode": "11",
    "prefectureNumber": 11,
    "prefecture": "埼玉県",
    "city": "朝霞市",
    "town": "西原"
  },
  "3510035": {
    "zipcode": "3510035",
    "prefectureCode": "11",
    "prefectureNumber": 11,
    "prefecture": "埼玉県",
    "city": "朝霞市",
    "town": "朝志ケ丘"
  },
  "3510036": {
    "zipcode": "3510036",
    "prefectureCode": "11",
    "prefectureNumber": 11,
    "prefecture": "埼玉県",
    "city": "朝霞市",
    "town": "北原"
  },
  "3510100": {
    "zipcode": "3510100",
    "prefectureCode": "11",
    "prefectureNumber": 11,
    "prefecture": "埼玉県",
    "city": "和光市",
    "town": "以下に掲載がない場合"
  },
  "3510101": {
    "zipcode": "3510101",
    "prefectureCode": "11",
    "prefectureNumber": 11,
    "prefecture": "埼玉県",
    "city": "和光市",
    "town": "白子"
  },
  "3510102": {
    "zipcode": "3510102",
    "prefectureCode": "11",
    "prefectureNumber": 11,
    "prefecture": "埼玉県",
    "city": "和光市",
    "town": "諏訪"
  },
  "3510103": {
    "zipcode": "3510103",
    "prefectureCode": "11",
    "prefectureNumber": 11,
    "prefecture": "埼玉県",
    "city": "和光市",
    "town": "諏訪原団地"
  },
  "3510104": {
    "zipcode": "3510104",
    "prefectureCode": "11",
    "prefectureNumber": 11,
    "prefecture": "埼玉県",
    "city": "和光市",
    "town": "南"
  },
  "3510105": {
    "zipcode": "3510105",
    "prefectureCode": "11",
    "prefectureNumber": 11,
    "prefecture": "埼玉県",
    "city": "和光市",
    "town": "西大和団地"
  },
  "3510106": {
    "zipcode": "3510106",
    "prefectureCode": "11",
    "prefectureNumber": 11,
    "prefecture": "埼玉県",
    "city": "和光市",
    "town": "広沢"
  },
  "3510111": {
    "zipcode": "3510111",
    "prefectureCode": "11",
    "prefectureNumber": 11,
    "prefecture": "埼玉県",
    "city": "和光市",
    "town": "下新倉"
  },
  "3510112": {
    "zipcode": "3510112",
    "prefectureCode": "11",
    "prefectureNumber": 11,
    "prefecture": "埼玉県",
    "city": "和光市",
    "town": "丸山台"
  },
  "3510113": {
    "zipcode": "3510113",
    "prefectureCode": "11",
    "prefectureNumber": 11,
    "prefecture": "埼玉県",
    "city": "和光市",
    "town": "中央"
  },
  "3510114": {
    "zipcode": "3510114",
    "prefectureCode": "11",
    "prefectureNumber": 11,
    "prefecture": "埼玉県",
    "city": "和光市",
    "town": "本町"
  },
  "3510115": {
    "zipcode": "3510115",
    "prefectureCode": "11",
    "prefectureNumber": 11,
    "prefecture": "埼玉県",
    "city": "和光市",
    "town": "新倉"
  },
  "3510116": {
    "zipcode": "3510116",
    "prefectureCode": "11",
    "prefectureNumber": 11,
    "prefecture": "埼玉県",
    "city": "和光市",
    "town": "松ノ木島町"
  }
}
