{
  "3520000": {
    "zipcode": "3520000",
    "prefectureCode": "11",
    "prefectureNumber": 11,
    "prefecture": "埼玉県",
    "city": "新座市",
    "town": "以下に掲載がない場合"
  },
  "3520001": {
    "zipcode": "3520001",
    "prefectureCode": "11",
    "prefectureNumber": 11,
    "prefecture": "埼玉県",
    "city": "新座市",
    "town": "東北"
  },
  "3520002": {
    "zipcode": "3520002",
    "prefectureCode": "11",
    "prefectureNumber": 11,
    "prefecture": "埼玉県",
    "city": "新座市",
    "town": "東"
  },
  "3520003": {
    "zipcode": "3520003",
    "prefectureCode": "11",
    "prefectureNumber": 11,
    "prefecture": "埼玉県",
    "city": "新座市",
    "town": "北野"
  },
  "3520004": {
    "zipcode": "3520004",
    "prefectureCode": "11",
    "prefectureNumber": 11,
    "prefecture": "埼玉県",
    "city": "新座市",
    "town": "大和田"
  },
  "3520005": {
    "zipcode": "3520005",
    "prefectureCode": "11",
    "prefectureNumber": 11,
    "prefecture": "埼玉県",
    "city": "新座市",
    "town": "中野"
  },
  "3520006": {
    "zipcode": "3520006",
    "prefectureCode": "11",
    "prefectureNumber": 11,
    "prefecture": "埼玉県",
    "city": "新座市",
    "town": "新座"
  },
  "3520011": {
    "zipcode": "3520011",
    "prefectureCode": "11",
    "prefectureNumber": 11,
    "prefecture": "埼玉県",
    "city": "新座市",
    "town": "野火止"
  },
  "3520012": {
    "zipcode": "3520012",
    "prefectureCode": "11",
    "prefectureNumber": 11,
    "prefecture": "埼玉県",
    "city": "新座市",
    "town": "畑中"
  },
  "3520013": {
    "zipcode": "3520013",
    "prefectureCode": "11",
    "prefectureNumber": 11,
    "prefecture": "埼玉県",
    "city": "新座市",
    "town": "新塚"
  },
  "3520014": {
    "zipcode": "3520014",
    "prefectureCode": "11",
    "prefectureNumber": 11,
    "prefecture": "埼玉県",
    "city": "新座市",
    "town": "栄"
  },
  "3520015": {
    "zipcode": "3520015",
    "prefectureCode": "11",
    "prefectureNumber": 11,
    "prefecture": "埼玉県",
    "city": "新座市",
    "town": "池田"
  },
  "3520016": {
    "zipcode": "3520016",
    "prefectureCode": "11",
    "prefectureNumber": 11,
    "prefecture": "埼玉県",
    "city": "新座市",
    "town": "馬場"
  },
  "3520017": {
    "zipcode": "3520017",
    "prefectureCode": "11",
    "prefectureNumber": 11,
    "prefecture": "埼玉県",
    "city": "新座市",
    "town": "菅沢"
  },
  "3520021": {
    "zipcode": "3520021",
    "prefectureCode": "11",
    "prefectureNumber": 11,
    "prefecture": "埼玉県",
    "city": "新座市",
    "town": "あたご"
  },
  "3520022": {
    "zipcode": "3520022",
    "prefectureCode": "11",
    "prefectureNumber": 11,
    "prefecture": "埼玉県",
    "city": "新座市",
    "town": "本多"
  },
  "3520023": {
    "zipcode": "3520023",
    "prefectureCode": "11",
    "prefectureNumber": 11,
    "prefecture": "埼玉県",
    "city": "新座市",
    "town": "堀ノ内"
  },
  "3520024": {
    "zipcode": "3520024",
    "prefectureCode": "11",
    "prefectureNumber": 11,
    "prefecture": "埼玉県",
    "city": "新座市",
    "town": "道場"
  },
  "3520025": {
    "zipcode": "3520025",
    "prefectureCode": "11",
    "prefectureNumber": 11,
    "prefecture": "埼玉県",
    "city": "新座市",
    "town": "片山"
  },
  "3520031": {
    "zipcode": "3520031",
    "prefectureCode": "11",
    "prefectureNumber": 11,
    "prefecture": "埼玉県",
    "city": "新座市",
    "town": "西堀"
  },
  "3520032": {
    "zipcode": "3520032",
    "prefectureCode": "11",
    "prefectureNumber": 11,
    "prefecture": "埼玉県",
    "city": "新座市",
    "town": "新堀"
  },
  "3520033": {
    "zipcode": "3520033",
    "prefectureCode": "11",
    "prefectureNumber": 11,
    "prefecture": "埼玉県",
    "city": "新座市",
    "town": "石神"
  },
  "3520034": {
    "zipcode": "3520034",
    "prefectureCode": "11",
    "prefectureNumber": 11,
    "prefecture": "埼玉県",
    "city": "新座市",
    "town": "野寺"
  },
  "3520035": {
    "zipcode": "3520035",
    "prefectureCode": "11",
    "prefectureNumber": 11,
    "prefecture": "埼玉県",
    "city": "新座市",
    "town": "栗原"
  }
}
