{
  "3530000": {
    "zipcode": "3530000",
    "prefectureCode": "11",
    "prefectureNumber": 11,
    "prefecture": "埼玉県",
    "city": "志木市",
    "town": "以下に掲載がない場合"
  },
  "3530001": {
    "zipcode": "3530001",
    "prefectureCode": "11",
    "prefectureNumber": 11,
    "prefecture": "埼玉県",
    "city": "志木市",
    "town": "上宗岡"
  },
  "3530002": {
    "zipcode": "3530002",
    "prefectureCode": "11",
    "prefectureNumber": 11,
    "prefecture": "埼玉県",
    "city": "志木市",
    "town": "中宗岡"
  },
  "3530003": {
    "zipcode": "3530003",
    "prefectureCode": "11",
    "prefectureNumber": 11,
    "prefecture": "埼玉県",
    "city": "志木市",
    "town": "下宗岡"
  },
  "3530004": {
    "zipcode": "3530004",
    "prefectureCode": "11",
    "prefectureNumber": 11,
    "prefecture": "埼玉県",
    "city": "志木市",
    "town": "本町"
  },
  "3530005": {
    "zipcode": "3530005",
    "prefectureCode": "11",
    "prefectureNumber": 11,
    "prefecture": "埼玉県",
    "city": "志木市",
    "town": "幸町"
  },
  "3530006": {
    "zipcode": "3530006",
    "prefectureCode": "11",
    "prefectureNumber": 11,
    "prefecture": "埼玉県",
    "city": "志木市",
    "town": "館"
  },
  "3530007": {
    "zipcode": "3530007",
    "prefectureCode": "11",
    "prefectureNumber": 11,
    "prefecture": "埼玉県",
    "city": "志木市",
    "town": "柏町"
  },
  "3530008": {
    "zipcode": "3530008",
    "prefectureCode": "11",
    "prefectureNumber": 11,
    "prefecture": "埼玉県",
    "city": "志木市",
    "town": "宗岡"
  }
}
