{
  "3540000": {
    "zipcode": "3540000",
    "prefectureCode": "11",
    "prefectureNumber": 11,
    "prefecture": "埼玉県",
    "city": "入間郡三芳町",
    "town": "以下に掲載がない場合"
  },
  "3540001": {
    "zipcode": "3540001",
    "prefectureCode": "11",
    "prefectureNumber": 11,
    "prefecture": "埼玉県",
    "city": "富士見市",
    "town": "東大久保"
  },
  "3540002": {
    "zipcode": "3540002",
    "prefectureCode": "11",
    "prefectureNumber": 11,
    "prefecture": "埼玉県",
    "city": "富士見市",
    "town": "上南畑"
  },
  "3540003": {
    "zipcode": "3540003",
    "prefectureCode": "11",
    "prefectureNumber": 11,
    "prefecture": "埼玉県",
    "city": "富士見市",
    "town": "南畑新田"
  },
  "3540004": {
    "zipcode": "3540004",
    "prefectureCode": "11",
    "prefectureNumber": 11,
    "prefecture": "埼玉県",
    "city": "富士見市",
    "town": "下南畑"
  },
  "3540005": {
    "zipcode": "3540005",
    "prefectureCode": "11",
    "prefectureNumber": 11,
    "prefecture": "埼玉県",
    "city": "富士見市",
    "town": "みどり野北"
  },
  "3540006": {
    "zipcode": "3540006",
    "prefectureCode": "11",
    "prefectureNumber": 11,
    "prefecture": "埼玉県",
    "city": "富士見市",
    "town": "みどり野東"
  },
  "3540007": {
    "zipcode": "3540007",
    "prefectureCode": "11",
    "prefectureNumber": 11,
    "prefecture": "埼玉県",
    "city": "富士見市",
    "town": "みどり野南"
  },
  "3540008": {
    "zipcode": "3540008",
    "prefectureCode": "11",
    "prefectureNumber": 11,
    "prefecture": "埼玉県",
    "city": "富士見市",
    "town": "みどり野西"
  },
  "3540011": {
    "zipcode": "3540011",
    "prefectureCode": "11",
    "prefectureNumber": 11,
    "prefecture": "埼玉県",
    "city": "富士見市",
    "town": "水子"
  },
  "3540012": {
    "zipcode": "3540012",
    "prefectureCode": "11",
    "prefectureNumber": 11,
    "prefecture": "埼玉県",
    "city": "富士見市",
    "town": "貝塚"
  },
  "3540013": {
    "zipcode": "3540013",
    "prefectureCode": "11",
    "prefectureNumber": 11,
    "prefecture": "埼玉県",
    "city": "富士見市",
    "town": "水谷東"
  },
  "3540014": {
    "zipcode": "3540014",
    "prefectureCode": "11",
    "prefectureNumber": 11,
    "prefecture": "埼玉県",
    "city": "富士見市",
    "town": "水谷"
  },
  "3540015": {
    "zipcode": "3540015",
    "prefectureCode": "11",
    "prefectureNumber": 11,
    "prefecture": "埼玉県",
    "city": "富士見市",
    "town": "東みずほ台"
  },
  "3540016": {
    "zipcode": "3540016",
    "prefectureCode": "11",
    "prefectureNumber": 11,
    "prefecture": "埼玉県",
    "city": "富士見市",
    "town": "榎町"
  },
  "3540017": {
    "zipcode": "3540017",
    "prefectureCode": "11",
    "prefectureNumber": 11,
    "prefecture": "埼玉県",
    "city": "富士見市",
    "town": "針ケ谷"
  },
  "3540018": {
    "zipcode": "3540018",
    "prefectureCode": "11",
    "prefectureNumber": 11,
    "prefecture": "埼玉県",
    "city": "富士見市",
    "town": "西みずほ台"
  },
  "3540021": {
    "zipcode": "3540021",
    "prefectureCode": "11",
    "prefectureNumber": 11,
    "prefecture": "埼玉県",
    "city": "富士見市",
    "town": "鶴馬"
  },
  "3540022": {
    "zipcode": "3540022",
    "prefectureCode": "11",
    "prefectureNumber": 11,
    "prefecture": "埼玉県",
    "city": "富士見市",
    "town": "山室"
  },
  "3540023": {
    "zipcode": "3540023",
    "prefectureCode": "11",
    "prefectureNumber": 11,
    "prefecture": "埼玉県",
    "city": "富士見市",
    "town": "諏訪"
  },
  "3540024": {
    "zipcode": "3540024",
    "prefectureCode": "11",
    "prefectureNumber": 11,
    "prefecture": "埼玉県",
    "city": "富士見市",
    "town": "鶴瀬東"
  },
  "3540025": {
    "zipcode": "3540025",
    "prefectureCode": "11",
    "prefectureNumber": 11,
    "prefecture": "埼玉県",
    "city": "富士見市",
    "town": "関沢"
  },
  "3540026": {
    "zipcode": "3540026",
    "prefectureCode": "11",
    "prefectureNumber": 11,
    "prefecture": "埼玉県",
    "city": "富士見市",
    "town": "鶴瀬西"
  },
  "3540031": {
    "zipcode": "3540031",
    "prefectureCode": "11",
    "prefectureNumber": 11,
    "prefecture": "埼玉県",
    "city": "富士見市",
    "town": "勝瀬"
  },
  "3540032": {
    "zipcode": "3540032",
    "prefectureCode": "11",
    "prefectureNumber": 11,
    "prefecture": "埼玉県",
    "city": "富士見市",
    "town": "渡戸"
  },
  "3540033": {
    "zipcode": "3540033",
    "prefectureCode": "11",
    "prefectureNumber": 11,
    "prefecture": "埼玉県",
    "city": "富士見市",
    "town": "羽沢"
  },
  "3540034": {
    "zipcode": "3540034",
    "prefectureCode": "11",
    "prefectureNumber": 11,
    "prefecture": "埼玉県",
    "city": "富士見市",
    "town": "上沢"
  },
  "3540035": {
    "zipcode": "3540035",
    "prefectureCode": "11",
    "prefectureNumber": 11,
    "prefecture": "埼玉県",
    "city": "富士見市",
    "town": "ふじみ野西"
  },
  "3540036": {
    "zipcode": "3540036",
    "prefectureCode": "11",
    "prefectureNumber": 11,
    "prefecture": "埼玉県",
    "city": "富士見市",
    "town": "ふじみ野東"
  },
  "3540041": {
    "zipcode": "3540041",
    "prefectureCode": "11",
    "prefectureNumber": 11,
    "prefecture": "埼玉県",
    "city": "入間郡三芳町",
    "town": "藤久保"
  },
  "3540042": {
    "zipcode": "3540042",
    "prefectureCode": "11",
    "prefectureNumber": 11,
    "prefecture": "埼玉県",
    "city": "入間郡三芳町",
    "town": "みよし台"
  },
  "3540043": {
    "zipcode": "3540043",
    "prefectureCode": "11",
    "prefectureNumber": 11,
    "prefecture": "埼玉県",
    "city": "入間郡三芳町",
    "town": "竹間沢"
  },
  "3540044": {
    "zipcode": "3540044",
    "prefectureCode": "11",
    "prefectureNumber": 11,
    "prefecture": "埼玉県",
    "city": "入間郡三芳町",
    "town": "北永井"
  },
  "3540045": {
    "zipcode": "3540045",
    "prefectureCode": "11",
    "prefectureNumber": 11,
    "prefecture": "埼玉県",
    "city": "入間郡三芳町",
    "town": "上富"
  },
  "3540046": {
    "zipcode": "3540046",
    "prefectureCode": "11",
    "prefectureNumber": 11,
    "prefecture": "埼玉県",
    "city": "入間郡三芳町",
    "town": "竹間沢東"
  }
}
