{
  "3550000": {
    "zipcode": "3550000",
    "prefectureCode": "11",
    "prefectureNumber": 11,
    "prefecture": "埼玉県",
    "city": "東松山市",
    "town": "以下に掲載がない場合"
  },
  "3550001": {
    "zipcode": "3550001",
    "prefectureCode": "11",
    "prefectureNumber": 11,
    "prefecture": "埼玉県",
    "city": "東松山市",
    "town": "岡"
  },
  "3550002": {
    "zipcode": "3550002",
    "prefectureCode": "11",
    "prefectureNumber": 11,
    "prefecture": "埼玉県",
    "city": "東松山市",
    "town": "東平"
  },
  "3550003": {
    "zipcode": "3550003",
    "prefectureCode": "11",
    "prefectureNumber": 11,
    "prefecture": "埼玉県",
    "city": "東松山市",
    "town": "殿山町"
  },
  "3550004": {
    "zipcode": "3550004",
    "prefectureCode": "11",
    "prefectureNumber": 11,
    "prefecture": "埼玉県",
    "city": "東松山市",
    "town": "沢口町"
  },
  "3550005": {
    "zipcode": "3550005",
    "prefectureCode": "11",
    "prefectureNumber": 11,
    "prefecture": "埼玉県",
    "city": "東松山市",
    "town": "松山"
  },
  "3550006": {
    "zipcode": "3550006",
    "prefectureCode": "11",
    "prefectureNumber": 11,
    "prefecture": "埼玉県",
    "city": "東松山市",
    "town": "市ノ川"
  },
  "3550007": {
    "zipcode": "3550007",
    "prefectureCode": "11",
    "prefectureNumber": 11,
    "prefecture": "埼玉県",
    "city": "東松山市",
    "town": "野田"
  },
  "3550008": {
    "zipcode": "3550008",
    "prefectureCode": "11",
    "prefectureNumber": 11,
    "prefecture": "埼玉県",
    "city": "東松山市",
    "town": "大谷"
  },
  "3550009": {
    "zipcode": "3550009",
    "prefectureCode": "11",
    "prefectureNumber": 11,
    "prefecture": "埼玉県",
    "city": "東松山市",
    "town": "仲田町"
  },
  "3550010": {
    "zipcode": "3550010",
    "prefectureCode": "11",
    "prefectureNumber": 11,
    "prefecture": "埼玉県",
    "city": "東松山市",
    "town": "美原町"
  },
  "3550011": {
    "zipcode": "3550011",
    "prefectureCode": "11",
    "prefectureNumber": 11,
    "prefecture": "埼玉県",
    "city": "東松山市",
    "town": "加美町"
  },
  "3550012": {
    "zipcode": "3550012",
    "prefectureCode": "11",
    "prefectureNumber": 11,
    "prefecture": "埼玉県",
    "city": "東松山市",
    "town": "日吉町"
  },
  "3550013": {
    "zipcode": "3550013",
    "prefectureCode": "11",
    "prefectureNumber": 11,
    "prefecture": "埼玉県",
    "city": "東松山市",
    "town": "小松原町"
  },
  "3550014": {
    "zipcode": "3550014",
    "prefectureCode": "11",
    "prefectureNumber": 11,
    "prefecture": "埼玉県",
    "city": "東松山市",
    "town": "松本町"
  },
  "3550015": {
    "zipcode": "3550015",
    "prefectureCode": "11",
    "prefectureNumber": 11,
    "prefecture": "埼玉県",
    "city": "東松山市",
    "town": "本町"
  },
  "3550016": {
    "zipcode": "3550016",
    "prefectureCode": "11",
    "prefectureNumber": 11,
    "prefecture": "埼玉県",
    "city": "東松山市",
    "town": "材木町"
  },
  "3550017": {
    "zipcode": "3550017",
    "prefectureCode": "11",
    "prefectureNumber": 11,
    "prefecture": "埼玉県",
    "city": "東松山市",
    "town": "松葉町"
  },
  "3550018": {
    "zipcode": "3550018",
    "prefectureCode": "11",
    "prefectureNumber": 11,
    "prefecture": "埼玉県",
    "city": "東松山市",
    "town": "松山町"
  },
  "3550019": {
    "zipcode": "3550019",
    "prefectureCode": "11",
    "prefectureNumber": 11,
    "prefecture": "埼玉県",
    "city": "東松山市",
    "town": "砂田町"
  },
  "3550021": {
    "zipcode": "3550021",
    "prefectureCode": "11",
    "prefectureNumber": 11,
    "prefecture": "埼玉県",
    "city": "東松山市",
    "town": "神明町"
  },
  "3550022": {
    "zipcode": "3550022",
    "prefectureCode": "11",
    "prefectureNumber": 11,
    "prefecture": "埼玉県",
    "city": "東松山市",
    "town": "御茶山町"
  },
  "3550023": {
    "zipcode": "3550023",
    "prefectureCode": "11",
    "prefectureNumber": 11,
    "prefecture": "埼玉県",
    "city": "東松山市",
    "town": "六反町"
  },
  "3550024": {
    "zipcode": "3550024",
    "prefectureCode": "11",
    "prefectureNumber": 11,
    "prefecture": "埼玉県",
    "city": "東松山市",
    "town": "六軒町"
  },
  "3550025": {
    "zipcode": "3550025",
    "prefectureCode": "11",
    "prefectureNumber": 11,
    "prefecture": "埼玉県",
    "city": "東松山市",
    "town": "幸町"
  },
  "3550026": {
    "zipcode": "3550026",
    "prefectureCode": "11",
    "prefectureNumber": 11,
    "prefecture": "埼玉県",
    "city": "東松山市",
    "town": "和泉町"
  },
  "3550027": {
    "zipcode": "3550027",
    "prefectureCode": "11",
    "prefectureNumber": 11,
    "prefecture": "埼玉県",
    "city": "東松山市",
    "town": "美土里町"
  },
  "3550028": {
    "zipcode": "3550028",
    "prefectureCode": "11",
    "prefectureNumber": 11,
    "prefecture": "埼玉県",
    "city": "東松山市",
    "town": "箭弓町"
  },
  "3550031": {
    "zipcode": "3550031",
    "prefectureCode": "11",
    "prefectureNumber": 11,
    "prefecture": "埼玉県",
    "city": "東松山市",
    "town": "五領町"
  },
  "3550032": {
    "zipcode": "3550032",
    "prefectureCode": "11",
    "prefectureNumber": 11,
    "prefecture": "埼玉県",
    "city": "東松山市",
    "town": "新宿町"
  },
  "3550033": {
    "zipcode": "3550033",
    "prefectureCode": "11",
    "prefectureNumber": 11,
    "prefecture": "埼玉県",
    "city": "東松山市",
    "town": "山崎町"
  },
  "3550034": {
    "zipcode": "3550034",
    "prefectureCode": "11",
    "prefectureNumber": 11,
    "prefecture": "埼玉県",
    "city": "東松山市",
    "town": "柏崎"
  },
  "3550035": {
    "zipcode": "3550035",
    "prefectureCode": "11",
    "prefectureNumber": 11,
    "prefecture": "埼玉県",
    "city": "東松山市",
    "town": "古凍"
  },
  "3550036": {
    "zipcode": "3550036",
    "prefectureCode": "11",
    "prefectureNumber": 11,
    "prefecture": "埼玉県",
    "city": "東松山市",
    "town": "下野本"
  },
  "3550037": {
    "zipcode": "3550037",
    "prefectureCode": "11",
    "prefectureNumber": 11,
    "prefecture": "埼玉県",
    "city": "東松山市",
    "town": "若松町"
  },
  "3550041": {
    "zipcode": "3550041",
    "prefectureCode": "11",
    "prefectureNumber": 11,
    "prefecture": "埼玉県",
    "city": "東松山市",
    "town": "下押垂"
  },
  "3550042": {
    "zipcode": "3550042",
    "prefectureCode": "11",
    "prefectureNumber": 11,
    "prefecture": "埼玉県",
    "city": "東松山市",
    "town": "今泉"
  },
  "3550043": {
    "zipcode": "3550043",
    "prefectureCode": "11",
    "prefectureNumber": 11,
    "prefecture": "埼玉県",
    "city": "東松山市",
    "town": "早俣"
  },
  "3550044": {
    "zipcode": "3550044",
    "prefectureCode": "11",
    "prefectureNumber": 11,
    "prefecture": "埼玉県",
    "city": "東松山市",
    "town": "正代"
  },
  "3550045": {
    "zipcode": "3550045",
    "prefectureCode": "11",
    "prefectureNumber": 11,
    "prefecture": "埼玉県",
    "city": "東松山市",
    "town": "宮鼻"
  },
  "3550046": {
    "zipcode": "3550046",
    "prefectureCode": "11",
    "prefectureNumber": 11,
    "prefecture": "埼玉県",
    "city": "東松山市",
    "town": "大黒部"
  },
  "3550047": {
    "zipcode": "3550047",
    "prefectureCode": "11",
    "prefectureNumber": 11,
    "prefecture": "埼玉県",
    "city": "東松山市",
    "town": "高坂"
  },
  "3550048": {
    "zipcode": "3550048",
    "prefectureCode": "11",
    "prefectureNumber": 11,
    "prefecture": "埼玉県",
    "city": "東松山市",
    "town": "あずま町"
  },
  "3550051": {
    "zipcode": "3550051",
    "prefectureCode": "11",
    "prefectureNumber": 11,
    "prefecture": "埼玉県",
    "city": "東松山市",
    "town": "白山台"
  },
  "3550052": {
    "zipcode": "3550052",
    "prefectureCode": "11",
    "prefectureNumber": 11,
    "prefecture": "埼玉県",
    "city": "東松山市",
    "town": "桜山台"
  },
  "3550053": {
    "zipcode": "3550053",
    "prefectureCode": "11",
    "prefectureNumber": 11,
    "prefecture": "埼玉県",
    "city": "東松山市",
    "town": "田木"
  },
  "3550054": {
    "zipcode": "3550054",
    "prefectureCode": "11",
    "prefectureNumber": 11,
    "prefecture": "埼玉県",
    "city": "東松山市",
    "town": "旗立台"
  },
  "3550055": {
    "zipcode": "3550055",
    "prefectureCode": "11",
    "prefectureNumber": 11,
    "prefecture": "埼玉県",
    "city": "東松山市",
    "town": "松風台"
  },
  "3550061": {
    "zipcode": "3550061",
    "prefectureCode": "11",
    "prefectureNumber": 11,
    "prefecture": "埼玉県",
    "city": "東松山市",
    "town": "葛袋"
  },
  "3550062": {
    "zipcode": "3550062",
    "prefectureCode": "11",
    "prefectureNumber": 11,
    "prefecture": "埼玉県",
    "city": "東松山市",
    "town": "西本宿"
  },
  "3550063": {
    "zipcode": "3550063",
    "prefectureCode": "11",
    "prefectureNumber": 11,
    "prefecture": "埼玉県",
    "city": "東松山市",
    "town": "元宿"
  },
  "3550064": {
    "zipcode": "3550064",
    "prefectureCode": "11",
    "prefectureNumber": 11,
    "prefecture": "埼玉県",
    "city": "東松山市",
    "town": "毛塚"
  },
  "3550065": {
    "zipcode": "3550065",
    "prefectureCode": "11",
    "prefectureNumber": 11,
    "prefecture": "埼玉県",
    "city": "東松山市",
    "town": "岩殿"
  },
  "3550066": {
    "zipcode": "3550066",
    "prefectureCode": "11",
    "prefectureNumber": 11,
    "prefecture": "埼玉県",
    "city": "東松山市",
    "town": "神戸"
  },
  "3550067": {
    "zipcode": "3550067",
    "prefectureCode": "11",
    "prefectureNumber": 11,
    "prefecture": "埼玉県",
    "city": "東松山市",
    "town": "坂東山"
  },
  "3550071": {
    "zipcode": "3550071",
    "prefectureCode": "11",
    "prefectureNumber": 11,
    "prefecture": "埼玉県",
    "city": "東松山市",
    "town": "新郷"
  },
  "3550072": {
    "zipcode": "3550072",
    "prefectureCode": "11",
    "prefectureNumber": 11,
    "prefecture": "埼玉県",
    "city": "東松山市",
    "town": "石橋"
  },
  "3550073": {
    "zipcode": "3550073",
    "prefectureCode": "11",
    "prefectureNumber": 11,
    "prefecture": "埼玉県",
    "city": "東松山市",
    "town": "上野本"
  },
  "3550074": {
    "zipcode": "3550074",
    "prefectureCode": "11",
    "prefectureNumber": 11,
    "prefecture": "埼玉県",
    "city": "東松山市",
    "town": "上押垂"
  },
  "3550075": {
    "zipcode": "3550075",
    "prefectureCode": "11",
    "prefectureNumber": 11,
    "prefecture": "埼玉県",
    "city": "東松山市",
    "town": "下青鳥"
  },
  "3550076": {
    "zipcode": "3550076",
    "prefectureCode": "11",
    "prefectureNumber": 11,
    "prefecture": "埼玉県",
    "city": "東松山市",
    "town": "下唐子"
  },
  "3550077": {
    "zipcode": "3550077",
    "prefectureCode": "11",
    "prefectureNumber": 11,
    "prefecture": "埼玉県",
    "city": "東松山市",
    "town": "上唐子"
  },
  "3550100": {
    "zipcode": "3550100",
    "prefectureCode": "11",
    "prefectureNumber": 11,
    "prefecture": "埼玉県",
    "city": "比企郡吉見町",
    "town": "以下に掲載がない場合"
  },
  "3550101": {
    "zipcode": "3550101",
    "prefectureCode": "11",
    "prefectureNumber": 11,
    "prefecture": "埼玉県",
    "city": "比企郡吉見町",
    "town": "一ツ木"
  },
  "3550102": {
    "zipcode": "3550102",
    "prefectureCode": "11",
    "prefectureNumber": 11,
    "prefecture": "埼玉県",
    "city": "比企郡吉見町",
    "town": "明秋"
  },
  "3550103": {
    "zipcode": "3550103",
    "prefectureCode": "11",
    "prefectureNumber": 11,
    "prefecture": "埼玉県",
    "city": "比企郡吉見町",
    "town": "今泉"
  },
  "3550104": {
    "zipcode": "3550104",
    "prefectureCode": "11",
    "prefectureNumber": 11,
    "prefecture": "埼玉県",
    "city": "比企郡吉見町",
    "town": "地頭方"
  },
  "3550105": {
    "zipcode": "3550105",
    "prefectureCode": "11",
    "prefectureNumber": 11,
    "prefecture": "埼玉県",
    "city": "比企郡吉見町",
    "town": "上砂"
  },
  "3550106": {
    "zipcode": "3550106",
    "prefectureCode": "11",
    "prefectureNumber": 11,
    "prefecture": "埼玉県",
    "city": "比企郡吉見町",
    "town": "中曽根"
  },
  "3550110": {
    "zipcode": "3550110",
    "prefectureCode": "11",
    "prefectureNumber": 11,
    "prefecture": "埼玉県",
    "city": "比企郡吉見町",
    "town": "東野"
  },
  "3550111": {
    "zipcode": "3550111",
    "prefectureCode": "11",
    "prefectureNumber": 11,
    "prefecture": "埼玉県",
    "city": "比企郡吉見町",
    "town": "北下砂"
  },
  "3550112": {
    "zipcode": "3550112",
    "prefectureCode": "11",
    "prefectureNumber": 11,
    "prefecture": "埼玉県",
    "city": "比企郡吉見町",
    "town": "丸貫"
  },
  "3550113": {
    "zipcode": "3550113",
    "prefectureCode": "11",
    "prefectureNumber": 11,
    "prefecture": "埼玉県",
    "city": "比企郡吉見町",
    "town": "古名新田"
  },
  "3550114": {
    "zipcode": "3550114",
    "prefectureCode": "11",
    "prefectureNumber": 11,
    "prefecture": "埼玉県",
    "city": "比企郡吉見町",
    "town": "古名"
  },
  "3550115": {
    "zipcode": "3550115",
    "prefectureCode": "11",
    "prefectureNumber": 11,
    "prefecture": "埼玉県",
    "city": "比企郡吉見町",
    "town": "上銀谷"
  },
  "3550116": {
    "zipcode": "3550116",
    "prefectureCode": "11",
    "prefectureNumber": 11,
    "prefecture": "埼玉県",
    "city": "比企郡吉見町",
    "town": "下銀谷"
  },
  "3550117": {
    "zipcode": "3550117",
    "prefectureCode": "11",
    "prefectureNumber": 11,
    "prefecture": "埼玉県",
    "city": "比企郡吉見町",
    "town": "谷口"
  },
  "3550118": {
    "zipcode": "3550118",
    "prefectureCode": "11",
    "prefectureNumber": 11,
    "prefecture": "埼玉県",
    "city": "比企郡吉見町",
    "town": "下細谷"
  },
  "3550119": {
    "zipcode": "3550119",
    "prefectureCode": "11",
    "prefectureNumber": 11,
    "prefecture": "埼玉県",
    "city": "比企郡吉見町",
    "town": "中新井"
  },
  "3550121": {
    "zipcode": "3550121",
    "prefectureCode": "11",
    "prefectureNumber": 11,
    "prefecture": "埼玉県",
    "city": "比企郡吉見町",
    "town": "蓮沼新田"
  },
  "3550122": {
    "zipcode": "3550122",
    "prefectureCode": "11",
    "prefectureNumber": 11,
    "prefecture": "埼玉県",
    "city": "比企郡吉見町",
    "town": "高尾新田"
  },
  "3550123": {
    "zipcode": "3550123",
    "prefectureCode": "11",
    "prefectureNumber": 11,
    "prefecture": "埼玉県",
    "city": "比企郡吉見町",
    "town": "須ノ子新田"
  },
  "3550124": {
    "zipcode": "3550124",
    "prefectureCode": "11",
    "prefectureNumber": 11,
    "prefecture": "埼玉県",
    "city": "比企郡吉見町",
    "town": "久保田新田"
  },
  "3550125": {
    "zipcode": "3550125",
    "prefectureCode": "11",
    "prefectureNumber": 11,
    "prefecture": "埼玉県",
    "city": "比企郡吉見町",
    "town": "蚊斗谷"
  },
  "3550126": {
    "zipcode": "3550126",
    "prefectureCode": "11",
    "prefectureNumber": 11,
    "prefecture": "埼玉県",
    "city": "比企郡吉見町",
    "town": "万光寺"
  },
  "3550127": {
    "zipcode": "3550127",
    "prefectureCode": "11",
    "prefectureNumber": 11,
    "prefecture": "埼玉県",
    "city": "比企郡吉見町",
    "town": "大和田"
  },
  "3550131": {
    "zipcode": "3550131",
    "prefectureCode": "11",
    "prefectureNumber": 11,
    "prefecture": "埼玉県",
    "city": "比企郡吉見町",
    "town": "荒子"
  },
  "3550132": {
    "zipcode": "3550132",
    "prefectureCode": "11",
    "prefectureNumber": 11,
    "prefecture": "埼玉県",
    "city": "比企郡吉見町",
    "town": "飯島新田"
  },
  "3550133": {
    "zipcode": "3550133",
    "prefectureCode": "11",
    "prefectureNumber": 11,
    "prefecture": "埼玉県",
    "city": "比企郡吉見町",
    "town": "江和井"
  },
  "3550134": {
    "zipcode": "3550134",
    "prefectureCode": "11",
    "prefectureNumber": 11,
    "prefecture": "埼玉県",
    "city": "比企郡吉見町",
    "town": "大串"
  },
  "3550135": {
    "zipcode": "3550135",
    "prefectureCode": "11",
    "prefectureNumber": 11,
    "prefecture": "埼玉県",
    "city": "比企郡吉見町",
    "town": "前河内"
  },
  "3550136": {
    "zipcode": "3550136",
    "prefectureCode": "11",
    "prefectureNumber": 11,
    "prefecture": "埼玉県",
    "city": "比企郡吉見町",
    "town": "江綱"
  },
  "3550137": {
    "zipcode": "3550137",
    "prefectureCode": "11",
    "prefectureNumber": 11,
    "prefecture": "埼玉県",
    "city": "比企郡吉見町",
    "town": "久保田"
  },
  "3550151": {
    "zipcode": "3550151",
    "prefectureCode": "11",
    "prefectureNumber": 11,
    "prefecture": "埼玉県",
    "city": "比企郡吉見町",
    "town": "御所"
  },
  "3550152": {
    "zipcode": "3550152",
    "prefectureCode": "11",
    "prefectureNumber": 11,
    "prefecture": "埼玉県",
    "city": "比企郡吉見町",
    "town": "和名"
  },
  "3550153": {
    "zipcode": "3550153",
    "prefectureCode": "11",
    "prefectureNumber": 11,
    "prefecture": "埼玉県",
    "city": "比企郡吉見町",
    "town": "久米田"
  },
  "3550154": {
    "zipcode": "3550154",
    "prefectureCode": "11",
    "prefectureNumber": 11,
    "prefecture": "埼玉県",
    "city": "比企郡吉見町",
    "town": "南吉見"
  },
  "3550155": {
    "zipcode": "3550155",
    "prefectureCode": "11",
    "prefectureNumber": 11,
    "prefecture": "埼玉県",
    "city": "比企郡吉見町",
    "town": "北吉見"
  },
  "3550156": {
    "zipcode": "3550156",
    "prefectureCode": "11",
    "prefectureNumber": 11,
    "prefecture": "埼玉県",
    "city": "比企郡吉見町",
    "town": "長谷"
  },
  "3550157": {
    "zipcode": "3550157",
    "prefectureCode": "11",
    "prefectureNumber": 11,
    "prefecture": "埼玉県",
    "city": "比企郡吉見町",
    "town": "西吉見"
  },
  "3550161": {
    "zipcode": "3550161",
    "prefectureCode": "11",
    "prefectureNumber": 11,
    "prefecture": "埼玉県",
    "city": "比企郡吉見町",
    "town": "山ノ下"
  },
  "3550162": {
    "zipcode": "3550162",
    "prefectureCode": "11",
    "prefectureNumber": 11,
    "prefecture": "埼玉県",
    "city": "比企郡吉見町",
    "town": "松崎"
  },
  "3550163": {
    "zipcode": "3550163",
    "prefectureCode": "11",
    "prefectureNumber": 11,
    "prefecture": "埼玉県",
    "city": "比企郡吉見町",
    "town": "本沢"
  },
  "3550164": {
    "zipcode": "3550164",
    "prefectureCode": "11",
    "prefectureNumber": 11,
    "prefecture": "埼玉県",
    "city": "比企郡吉見町",
    "town": "小新井"
  },
  "3550165": {
    "zipcode": "3550165",
    "prefectureCode": "11",
    "prefectureNumber": 11,
    "prefecture": "埼玉県",
    "city": "比企郡吉見町",
    "town": "上細谷"
  },
  "3550166": {
    "zipcode": "3550166",
    "prefectureCode": "11",
    "prefectureNumber": 11,
    "prefecture": "埼玉県",
    "city": "比企郡吉見町",
    "town": "黒岩"
  },
  "3550167": {
    "zipcode": "3550167",
    "prefectureCode": "11",
    "prefectureNumber": 11,
    "prefecture": "埼玉県",
    "city": "比企郡吉見町",
    "town": "田甲"
  },
  "3550200": {
    "zipcode": "3550200",
    "prefectureCode": "11",
    "prefectureNumber": 11,
    "prefecture": "埼玉県",
    "city": "比企郡嵐山町",
    "town": "以下に掲載がない場合"
  },
  "3550201": {
    "zipcode": "3550201",
    "prefectureCode": "11",
    "prefectureNumber": 11,
    "prefecture": "埼玉県",
    "city": "比企郡嵐山町",
    "town": "古里"
  },
  "3550202": {
    "zipcode": "3550202",
    "prefectureCode": "11",
    "prefectureNumber": 11,
    "prefecture": "埼玉県",
    "city": "比企郡嵐山町",
    "town": "吉田"
  },
  "3550203": {
    "zipcode": "3550203",
    "prefectureCode": "11",
    "prefectureNumber": 11,
    "prefecture": "埼玉県",
    "city": "比企郡嵐山町",
    "town": "勝田"
  },
  "3550204": {
    "zipcode": "3550204",
    "prefectureCode": "11",
    "prefectureNumber": 11,
    "prefecture": "埼玉県",
    "city": "比企郡嵐山町",
    "town": "花見台"
  },
  "3550205": {
    "zipcode": "3550205",
    "prefectureCode": "11",
    "prefectureNumber": 11,
    "prefecture": "埼玉県",
    "city": "比企郡嵐山町",
    "town": "広野"
  },
  "3550206": {
    "zipcode": "3550206",
    "prefectureCode": "11",
    "prefectureNumber": 11,
    "prefecture": "埼玉県",
    "city": "比企郡嵐山町",
    "town": "越畑"
  },
  "3550211": {
    "zipcode": "3550211",
    "prefectureCode": "11",
    "prefectureNumber": 11,
    "prefecture": "埼玉県",
    "city": "比企郡嵐山町",
    "town": "杉山"
  },
  "3550212": {
    "zipcode": "3550212",
    "prefectureCode": "11",
    "prefectureNumber": 11,
    "prefecture": "埼玉県",
    "city": "比企郡嵐山町",
    "town": "太郎丸"
  },
  "3550213": {
    "zipcode": "3550213",
    "prefectureCode": "11",
    "prefectureNumber": 11,
    "prefecture": "埼玉県",
    "city": "比企郡嵐山町",
    "town": "川島"
  },
  "3550214": {
    "zipcode": "3550214",
    "prefectureCode": "11",
    "prefectureNumber": 11,
    "prefecture": "埼玉県",
    "city": "比企郡嵐山町",
    "town": "志賀"
  },
  "3550215": {
    "zipcode": "3550215",
    "prefectureCode": "11",
    "prefectureNumber": 11,
    "prefecture": "埼玉県",
    "city": "比企郡嵐山町",
    "town": "平澤"
  },
  "3550216": {
    "zipcode": "3550216",
    "prefectureCode": "11",
    "prefectureNumber": 11,
    "prefecture": "埼玉県",
    "city": "比企郡嵐山町",
    "town": "むさし台"
  },
  "3550221": {
    "zipcode": "3550221",
    "prefectureCode": "11",
    "prefectureNumber": 11,
    "prefecture": "埼玉県",
    "city": "比企郡嵐山町",
    "town": "菅谷"
  },
  "3550222": {
    "zipcode": "3550222",
    "prefectureCode": "11",
    "prefectureNumber": 11,
    "prefecture": "埼玉県",
    "city": "比企郡嵐山町",
    "town": "大蔵"
  },
  "3550223": {
    "zipcode": "3550223",
    "prefectureCode": "11",
    "prefectureNumber": 11,
    "prefecture": "埼玉県",
    "city": "比企郡嵐山町",
    "town": "根岸"
  },
  "3550224": {
    "zipcode": "3550224",
    "prefectureCode": "11",
    "prefectureNumber": 11,
    "prefecture": "埼玉県",
    "city": "比企郡嵐山町",
    "town": "将軍沢"
  },
  "3550225": {
    "zipcode": "3550225",
    "prefectureCode": "11",
    "prefectureNumber": 11,
    "prefecture": "埼玉県",
    "city": "比企郡嵐山町",
    "town": "鎌形"
  },
  "3550226": {
    "zipcode": "3550226",
    "prefectureCode": "11",
    "prefectureNumber": 11,
    "prefecture": "埼玉県",
    "city": "比企郡嵐山町",
    "town": "遠山"
  },
  "3550227": {
    "zipcode": "3550227",
    "prefectureCode": "11",
    "prefectureNumber": 11,
    "prefecture": "埼玉県",
    "city": "比企郡嵐山町",
    "town": "千手堂"
  },
  "3550300": {
    "zipcode": "3550300",
    "prefectureCode": "11",
    "prefectureNumber": 11,
    "prefecture": "埼玉県",
    "city": "秩父郡東秩父村",
    "town": "以下に掲載がない場合"
  },
  "3550301": {
    "zipcode": "3550301",
    "prefectureCode": "11",
    "prefectureNumber": 11,
    "prefecture": "埼玉県",
    "city": "比企郡小川町",
    "town": "西古里"
  },
  "3550302": {
    "zipcode": "3550302",
    "prefectureCode": "11",
    "prefectureNumber": 11,
    "prefecture": "埼玉県",
    "city": "比企郡小川町",
    "town": "鷹巣"
  },
  "3550303": {
    "zipcode": "3550303",
    "prefectureCode": "11",
    "prefectureNumber": 11,
    "prefecture": "埼玉県",
    "city": "比企郡小川町",
    "town": "奈良梨"
  },
  "3550304": {
    "zipcode": "3550304",
    "prefectureCode": "11",
    "prefectureNumber": 11,
    "prefecture": "埼玉県",
    "city": "比企郡小川町",
    "town": "伊勢根"
  },
  "3550305": {
    "zipcode": "3550305",
    "prefectureCode": "11",
    "prefectureNumber": 11,
    "prefecture": "埼玉県",
    "city": "比企郡小川町",
    "town": "能増"
  },
  "3550306": {
    "zipcode": "3550306",
    "prefectureCode": "11",
    "prefectureNumber": 11,
    "prefecture": "埼玉県",
    "city": "比企郡小川町",
    "town": "高見"
  },
  "3550311": {
    "zipcode": "3550311",
    "prefectureCode": "11",
    "prefectureNumber": 11,
    "prefecture": "埼玉県",
    "city": "比企郡小川町",
    "town": "高谷"
  },
  "3550312": {
    "zipcode": "3550312",
    "prefectureCode": "11",
    "prefectureNumber": 11,
    "prefecture": "埼玉県",
    "city": "比企郡小川町",
    "town": "上横田"
  },
  "3550313": {
    "zipcode": "3550313",
    "prefectureCode": "11",
    "prefectureNumber": 11,
    "prefecture": "埼玉県",
    "city": "比企郡小川町",
    "town": "下横田"
  },
  "3550314": {
    "zipcode": "3550314",
    "prefectureCode": "11",
    "prefectureNumber": 11,
    "prefecture": "埼玉県",
    "city": "比企郡小川町",
    "town": "中爪"
  },
  "3550315": {
    "zipcode": "3550315",
    "prefectureCode": "11",
    "prefectureNumber": 11,
    "prefecture": "埼玉県",
    "city": "比企郡小川町",
    "town": "みどりが丘"
  },
  "3550316": {
    "zipcode": "3550316",
    "prefectureCode": "11",
    "prefectureNumber": 11,
    "prefecture": "埼玉県",
    "city": "比企郡小川町",
    "town": "角山"
  },
  "3550317": {
    "zipcode": "3550317",
    "prefectureCode": "11",
    "prefectureNumber": 11,
    "prefecture": "埼玉県",
    "city": "比企郡小川町",
    "town": "原川"
  },
  "3550318": {
    "zipcode": "3550318",
    "prefectureCode": "11",
    "prefectureNumber": 11,
    "prefecture": "埼玉県",
    "city": "比企郡小川町",
    "town": "ひばり台"
  },
  "3550321": {
    "zipcode": "3550321",
    "prefectureCode": "11",
    "prefectureNumber": 11,
    "prefecture": "埼玉県",
    "city": "比企郡小川町",
    "town": "小川"
  },
  "3550322": {
    "zipcode": "3550322",
    "prefectureCode": "11",
    "prefectureNumber": 11,
    "prefecture": "埼玉県",
    "city": "比企郡小川町",
    "town": "東小川"
  },
  "3550323": {
    "zipcode": "3550323",
    "prefectureCode": "11",
    "prefectureNumber": 11,
    "prefecture": "埼玉県",
    "city": "比企郡小川町",
    "town": "下里"
  },
  "3550324": {
    "zipcode": "3550324",
    "prefectureCode": "11",
    "prefectureNumber": 11,
    "prefecture": "埼玉県",
    "city": "比企郡小川町",
    "town": "青山"
  },
  "3550325": {
    "zipcode": "3550325",
    "prefectureCode": "11",
    "prefectureNumber": 11,
    "prefecture": "埼玉県",
    "city": "比企郡小川町",
    "town": "上古寺"
  },
  "3550326": {
    "zipcode": "3550326",
    "prefectureCode": "11",
    "prefectureNumber": 11,
    "prefecture": "埼玉県",
    "city": "比企郡小川町",
    "town": "下古寺"
  },
  "3550327": {
    "zipcode": "3550327",
    "prefectureCode": "11",
    "prefectureNumber": 11,
    "prefecture": "埼玉県",
    "city": "比企郡小川町",
    "town": "腰越"
  },
  "3550328": {
    "zipcode": "3550328",
    "prefectureCode": "11",
    "prefectureNumber": 11,
    "prefecture": "埼玉県",
    "city": "比企郡小川町",
    "town": "大塚"
  },
  "3550331": {
    "zipcode": "3550331",
    "prefectureCode": "11",
    "prefectureNumber": 11,
    "prefecture": "埼玉県",
    "city": "比企郡小川町",
    "town": "靱負"
  },
  "3550332": {
    "zipcode": "3550332",
    "prefectureCode": "11",
    "prefectureNumber": 11,
    "prefecture": "埼玉県",
    "city": "比企郡小川町",
    "town": "増尾"
  },
  "3550333": {
    "zipcode": "3550333",
    "prefectureCode": "11",
    "prefectureNumber": 11,
    "prefecture": "埼玉県",
    "city": "比企郡小川町",
    "town": "飯田"
  },
  "3550334": {
    "zipcode": "3550334",
    "prefectureCode": "11",
    "prefectureNumber": 11,
    "prefecture": "埼玉県",
    "city": "比企郡小川町",
    "town": "笠原"
  },
  "3550335": {
    "zipcode": "3550335",
    "prefectureCode": "11",
    "prefectureNumber": 11,
    "prefecture": "埼玉県",
    "city": "比企郡小川町",
    "town": "木部"
  },
  "3550336": {
    "zipcode": "3550336",
    "prefectureCode": "11",
    "prefectureNumber": 11,
    "prefecture": "埼玉県",
    "city": "比企郡小川町",
    "town": "勝呂"
  },
  "3550337": {
    "zipcode": "3550337",
    "prefectureCode": "11",
    "prefectureNumber": 11,
    "prefecture": "埼玉県",
    "city": "比企郡小川町",
    "town": "木呂子"
  },
  "3550341": {
    "zipcode": "3550341",
    "prefectureCode": "11",
    "prefectureNumber": 11,
    "prefecture": "埼玉県",
    "city": "比企郡ときがわ町",
    "town": "田黒"
  },
  "3550342": {
    "zipcode": "3550342",
    "prefectureCode": "11",
    "prefectureNumber": 11,
    "prefecture": "埼玉県",
    "city": "比企郡ときがわ町",
    "town": "玉川"
  },
  "3550343": {
    "zipcode": "3550343",
    "prefectureCode": "11",
    "prefectureNumber": 11,
    "prefecture": "埼玉県",
    "city": "比企郡ときがわ町",
    "town": "五明"
  },
  "3550344": {
    "zipcode": "3550344",
    "prefectureCode": "11",
    "prefectureNumber": 11,
    "prefecture": "埼玉県",
    "city": "比企郡ときがわ町",
    "town": "日影"
  },
  "3550351": {
    "zipcode": "3550351",
    "prefectureCode": "11",
    "prefectureNumber": 11,
    "prefecture": "埼玉県",
    "city": "比企郡ときがわ町",
    "town": "雲河原"
  },
  "3550352": {
    "zipcode": "3550352",
    "prefectureCode": "11",
    "prefectureNumber": 11,
    "prefecture": "埼玉県",
    "city": "比企郡ときがわ町",
    "town": "別所"
  },
  "3550353": {
    "zipcode": "3550353",
    "prefectureCode": "11",
    "prefectureNumber": 11,
    "prefecture": "埼玉県",
    "city": "比企郡ときがわ町",
    "town": "本郷"
  },
  "3550354": {
    "zipcode": "3550354",
    "prefectureCode": "11",
    "prefectureNumber": 11,
    "prefecture": "埼玉県",
    "city": "比企郡ときがわ町",
    "town": "番匠"
  },
  "3550355": {
    "zipcode": "3550355",
    "prefectureCode": "11",
    "prefectureNumber": 11,
    "prefecture": "埼玉県",
    "city": "比企郡ときがわ町",
    "town": "馬場"
  },
  "3550356": {
    "zipcode": "3550356",
    "prefectureCode": "11",
    "prefectureNumber": 11,
    "prefecture": "埼玉県",
    "city": "比企郡ときがわ町",
    "town": "関堀"
  },
  "3550357": {
    "zipcode": "3550357",
    "prefectureCode": "11",
    "prefectureNumber": 11,
    "prefecture": "埼玉県",
    "city": "比企郡ときがわ町",
    "town": "田中"
  },
  "3550358": {
    "zipcode": "3550358",
    "prefectureCode": "11",
    "prefectureNumber": 11,
    "prefecture": "埼玉県",
    "city": "比企郡ときがわ町",
    "town": "瀬戸元上"
  },
  "3550359": {
    "zipcode": "3550359",
    "prefectureCode": "11",
    "prefectureNumber": 11,
    "prefecture": "埼玉県",
    "city": "比企郡ときがわ町",
    "town": "瀬戸元下"
  },
  "3550361": {
    "zipcode": "3550361",
    "prefectureCode": "11",
    "prefectureNumber": 11,
    "prefecture": "埼玉県",
    "city": "比企郡ときがわ町",
    "town": "桃木"
  },
  "3550363": {
    "zipcode": "3550363",
    "prefectureCode": "11",
    "prefectureNumber": 11,
    "prefecture": "埼玉県",
    "city": "比企郡ときがわ町",
    "town": "大附"
  },
  "3550364": {
    "zipcode": "3550364",
    "prefectureCode": "11",
    "prefectureNumber": 11,
    "prefecture": "埼玉県",
    "city": "比企郡ときがわ町",
    "town": "西平"
  },
  "3550365": {
    "zipcode": "3550365",
    "prefectureCode": "11",
    "prefectureNumber": 11,
    "prefecture": "埼玉県",
    "city": "比企郡ときがわ町",
    "town": "椚平"
  },
  "3550366": {
    "zipcode": "3550366",
    "prefectureCode": "11",
    "prefectureNumber": 11,
    "prefecture": "埼玉県",
    "city": "比企郡ときがわ町",
    "town": "大野"
  },
  "3550371": {
    "zipcode": "3550371",
    "prefectureCode": "11",
    "prefectureNumber": 11,
    "prefecture": "埼玉県",
    "city": "秩父郡東秩父村",
    "town": "大内沢"
  },
  "3550372": {
    "zipcode": "3550372",
    "prefectureCode": "11",
    "prefectureNumber": 11,
    "prefecture": "埼玉県",
    "city": "秩父郡東秩父村",
    "town": "坂本"
  },
  "3550373": {
    "zipcode": "3550373",
    "prefectureCode": "11",
    "prefectureNumber": 11,
    "prefecture": "埼玉県",
    "city": "秩父郡東秩父村",
    "town": "奥沢"
  },
  "3550374": {
    "zipcode": "3550374",
    "prefectureCode": "11",
    "prefectureNumber": 11,
    "prefecture": "埼玉県",
    "city": "秩父郡東秩父村",
    "town": "安戸"
  },
  "3550375": {
    "zipcode": "3550375",
    "prefectureCode": "11",
    "prefectureNumber": 11,
    "prefecture": "埼玉県",
    "city": "秩父郡東秩父村",
    "town": "御堂"
  },
  "3550376": {
    "zipcode": "3550376",
    "prefectureCode": "11",
    "prefectureNumber": 11,
    "prefecture": "埼玉県",
    "city": "秩父郡東秩父村",
    "town": "皆谷"
  },
  "3550377": {
    "zipcode": "3550377",
    "prefectureCode": "11",
    "prefectureNumber": 11,
    "prefecture": "埼玉県",
    "city": "秩父郡東秩父村",
    "town": "白石"
  },
  "3550800": {
    "zipcode": "3550800",
    "prefectureCode": "11",
    "prefectureNumber": 11,
    "prefecture": "埼玉県",
    "city": "比企郡滑川町",
    "town": "以下に掲載がない場合"
  },
  "3550801": {
    "zipcode": "3550801",
    "prefectureCode": "11",
    "prefectureNumber": 11,
    "prefecture": "埼玉県",
    "city": "比企郡滑川町",
    "town": "土塩"
  },
  "3550802": {
    "zipcode": "3550802",
    "prefectureCode": "11",
    "prefectureNumber": 11,
    "prefecture": "埼玉県",
    "city": "比企郡滑川町",
    "town": "山田"
  },
  "3550803": {
    "zipcode": "3550803",
    "prefectureCode": "11",
    "prefectureNumber": 11,
    "prefecture": "埼玉県",
    "city": "比企郡滑川町",
    "town": "福田"
  },
  "3550804": {
    "zipcode": "3550804",
    "prefectureCode": "11",
    "prefectureNumber": 11,
    "prefecture": "埼玉県",
    "city": "比企郡滑川町",
    "town": "中尾"
  },
  "3550805": {
    "zipcode": "3550805",
    "prefectureCode": "11",
    "prefectureNumber": 11,
    "prefecture": "埼玉県",
    "city": "比企郡滑川町",
    "town": "水房"
  },
  "3550806": {
    "zipcode": "3550806",
    "prefectureCode": "11",
    "prefectureNumber": 11,
    "prefecture": "埼玉県",
    "city": "比企郡滑川町",
    "town": "伊古"
  },
  "3550807": {
    "zipcode": "3550807",
    "prefectureCode": "11",
    "prefectureNumber": 11,
    "prefecture": "埼玉県",
    "city": "比企郡滑川町",
    "town": "和泉"
  },
  "3550808": {
    "zipcode": "3550808",
    "prefectureCode": "11",
    "prefectureNumber": 11,
    "prefecture": "埼玉県",
    "city": "比企郡滑川町",
    "town": "菅田"
  },
  "3550811": {
    "zipcode": "3550811",
    "prefectureCode": "11",
    "prefectureNumber": 11,
    "prefecture": "埼玉県",
    "city": "比企郡滑川町",
    "town": "羽尾"
  },
  "3550812": {
    "zipcode": "3550812",
    "prefectureCode": "11",
    "prefectureNumber": 11,
    "prefecture": "埼玉県",
    "city": "比企郡滑川町",
    "town": "都"
  },
  "3550813": {
    "zipcode": "3550813",
    "prefectureCode": "11",
    "prefectureNumber": 11,
    "prefecture": "埼玉県",
    "city": "比企郡滑川町",
    "town": "月輪"
  },
  "3550814": {
    "zipcode": "3550814",
    "prefectureCode": "11",
    "prefectureNumber": 11,
    "prefecture": "埼玉県",
    "city": "比企郡滑川町",
    "town": "みなみ野"
  },
  "3550815": {
    "zipcode": "3550815",
    "prefectureCode": "11",
    "prefectureNumber": 11,
    "prefecture": "埼玉県",
    "city": "比企郡滑川町",
    "town": "月の輪"
  }
}
