{
  "3560000": {
    "zipcode": "3560000",
    "prefectureCode": "11",
    "prefectureNumber": 11,
    "prefecture": "埼玉県",
    "city": "ふじみ野市",
    "town": "以下に掲載がない場合"
  },
  "3560001": {
    "zipcode": "3560001",
    "prefectureCode": "11",
    "prefectureNumber": 11,
    "prefecture": "埼玉県",
    "city": "ふじみ野市",
    "town": "川崎"
  },
  "3560002": {
    "zipcode": "3560002",
    "prefectureCode": "11",
    "prefectureNumber": 11,
    "prefecture": "埼玉県",
    "city": "ふじみ野市",
    "town": "清見"
  },
  "3560003": {
    "zipcode": "3560003",
    "prefectureCode": "11",
    "prefectureNumber": 11,
    "prefecture": "埼玉県",
    "city": "ふじみ野市",
    "town": "大原"
  },
  "3560004": {
    "zipcode": "3560004",
    "prefectureCode": "11",
    "prefectureNumber": 11,
    "prefecture": "埼玉県",
    "city": "ふじみ野市",
    "town": "上福岡"
  },
  "3560005": {
    "zipcode": "3560005",
    "prefectureCode": "11",
    "prefectureNumber": 11,
    "prefecture": "埼玉県",
    "city": "ふじみ野市",
    "town": "西"
  },
  "3560006": {
    "zipcode": "3560006",
    "prefectureCode": "11",
    "prefectureNumber": 11,
    "prefecture": "埼玉県",
    "city": "ふじみ野市",
    "town": "霞ケ丘"
  },
  "3560007": {
    "zipcode": "3560007",
    "prefectureCode": "11",
    "prefectureNumber": 11,
    "prefecture": "埼玉県",
    "city": "ふじみ野市",
    "town": "北野"
  },
  "3560008": {
    "zipcode": "3560008",
    "prefectureCode": "11",
    "prefectureNumber": 11,
    "prefecture": "埼玉県",
    "city": "ふじみ野市",
    "town": "元福岡"
  },
  "3560011": {
    "zipcode": "3560011",
    "prefectureCode": "11",
    "prefectureNumber": 11,
    "prefecture": "埼玉県",
    "city": "ふじみ野市",
    "town": "福岡"
  },
  "3560012": {
    "zipcode": "3560012",
    "prefectureCode": "11",
    "prefectureNumber": 11,
    "prefecture": "埼玉県",
    "city": "ふじみ野市",
    "town": "滝"
  },
  "3560013": {
    "zipcode": "3560013",
    "prefectureCode": "11",
    "prefectureNumber": 11,
    "prefecture": "埼玉県",
    "city": "ふじみ野市",
    "town": "中福岡"
  },
  "3560014": {
    "zipcode": "3560014",
    "prefectureCode": "11",
    "prefectureNumber": 11,
    "prefecture": "埼玉県",
    "city": "ふじみ野市",
    "town": "福岡新田"
  },
  "3560015": {
    "zipcode": "3560015",
    "prefectureCode": "11",
    "prefectureNumber": 11,
    "prefecture": "埼玉県",
    "city": "ふじみ野市",
    "town": "花ノ木"
  },
  "3560016": {
    "zipcode": "3560016",
    "prefectureCode": "11",
    "prefectureNumber": 11,
    "prefecture": "埼玉県",
    "city": "ふじみ野市",
    "town": "中丸"
  },
  "3560017": {
    "zipcode": "3560017",
    "prefectureCode": "11",
    "prefectureNumber": 11,
    "prefecture": "埼玉県",
    "city": "ふじみ野市",
    "town": "上野台"
  },
  "3560018": {
    "zipcode": "3560018",
    "prefectureCode": "11",
    "prefectureNumber": 11,
    "prefecture": "埼玉県",
    "city": "ふじみ野市",
    "town": "本新田"
  },
  "3560019": {
    "zipcode": "3560019",
    "prefectureCode": "11",
    "prefectureNumber": 11,
    "prefecture": "埼玉県",
    "city": "ふじみ野市",
    "town": "池上"
  },
  "3560020": {
    "zipcode": "3560020",
    "prefectureCode": "11",
    "prefectureNumber": 11,
    "prefecture": "埼玉県",
    "city": "ふじみ野市",
    "town": "水宮"
  },
  "3560021": {
    "zipcode": "3560021",
    "prefectureCode": "11",
    "prefectureNumber": 11,
    "prefecture": "埼玉県",
    "city": "ふじみ野市",
    "town": "上ノ原"
  },
  "3560022": {
    "zipcode": "3560022",
    "prefectureCode": "11",
    "prefectureNumber": 11,
    "prefecture": "埼玉県",
    "city": "ふじみ野市",
    "town": "長宮"
  },
  "3560023": {
    "zipcode": "3560023",
    "prefectureCode": "11",
    "prefectureNumber": 11,
    "prefecture": "埼玉県",
    "city": "ふじみ野市",
    "town": "中ノ島"
  },
  "3560024": {
    "zipcode": "3560024",
    "prefectureCode": "11",
    "prefectureNumber": 11,
    "prefecture": "埼玉県",
    "city": "ふじみ野市",
    "town": "谷田"
  },
  "3560025": {
    "zipcode": "3560025",
    "prefectureCode": "11",
    "prefectureNumber": 11,
    "prefecture": "埼玉県",
    "city": "ふじみ野市",
    "town": "仲"
  },
  "3560026": {
    "zipcode": "3560026",
    "prefectureCode": "11",
    "prefectureNumber": 11,
    "prefecture": "埼玉県",
    "city": "ふじみ野市",
    "town": "築地"
  },
  "3560027": {
    "zipcode": "3560027",
    "prefectureCode": "11",
    "prefectureNumber": 11,
    "prefecture": "埼玉県",
    "city": "ふじみ野市",
    "town": "松山"
  },
  "3560028": {
    "zipcode": "3560028",
    "prefectureCode": "11",
    "prefectureNumber": 11,
    "prefecture": "埼玉県",
    "city": "ふじみ野市",
    "town": "西原"
  },
  "3560029": {
    "zipcode": "3560029",
    "prefectureCode": "11",
    "prefectureNumber": 11,
    "prefecture": "埼玉県",
    "city": "ふじみ野市",
    "town": "駒西"
  },
  "3560030": {
    "zipcode": "3560030",
    "prefectureCode": "11",
    "prefectureNumber": 11,
    "prefecture": "埼玉県",
    "city": "ふじみ野市",
    "town": "新駒林"
  },
  "3560031": {
    "zipcode": "3560031",
    "prefectureCode": "11",
    "prefectureNumber": 11,
    "prefecture": "埼玉県",
    "city": "ふじみ野市",
    "town": "福岡中央"
  },
  "3560032": {
    "zipcode": "3560032",
    "prefectureCode": "11",
    "prefectureNumber": 11,
    "prefecture": "埼玉県",
    "city": "ふじみ野市",
    "town": "富士見台"
  },
  "3560033": {
    "zipcode": "3560033",
    "prefectureCode": "11",
    "prefectureNumber": 11,
    "prefecture": "埼玉県",
    "city": "ふじみ野市",
    "town": "新田"
  },
  "3560034": {
    "zipcode": "3560034",
    "prefectureCode": "11",
    "prefectureNumber": 11,
    "prefecture": "埼玉県",
    "city": "ふじみ野市",
    "town": "駒林"
  },
  "3560035": {
    "zipcode": "3560035",
    "prefectureCode": "11",
    "prefectureNumber": 11,
    "prefecture": "埼玉県",
    "city": "ふじみ野市",
    "town": "丸山"
  },
  "3560036": {
    "zipcode": "3560036",
    "prefectureCode": "11",
    "prefectureNumber": 11,
    "prefecture": "埼玉県",
    "city": "ふじみ野市",
    "town": "南台"
  },
  "3560037": {
    "zipcode": "3560037",
    "prefectureCode": "11",
    "prefectureNumber": 11,
    "prefecture": "埼玉県",
    "city": "ふじみ野市",
    "town": "福岡武蔵野"
  },
  "3560038": {
    "zipcode": "3560038",
    "prefectureCode": "11",
    "prefectureNumber": 11,
    "prefecture": "埼玉県",
    "city": "ふじみ野市",
    "town": "駒林元町"
  },
  "3560041": {
    "zipcode": "3560041",
    "prefectureCode": "11",
    "prefectureNumber": 11,
    "prefecture": "埼玉県",
    "city": "ふじみ野市",
    "town": "鶴ケ舞"
  },
  "3560042": {
    "zipcode": "3560042",
    "prefectureCode": "11",
    "prefectureNumber": 11,
    "prefecture": "埼玉県",
    "city": "ふじみ野市",
    "town": "東久保"
  },
  "3560043": {
    "zipcode": "3560043",
    "prefectureCode": "11",
    "prefectureNumber": 11,
    "prefecture": "埼玉県",
    "city": "ふじみ野市",
    "town": "緑ケ丘"
  },
  "3560044": {
    "zipcode": "3560044",
    "prefectureCode": "11",
    "prefectureNumber": 11,
    "prefecture": "埼玉県",
    "city": "ふじみ野市",
    "town": "西鶴ケ岡"
  },
  "3560045": {
    "zipcode": "3560045",
    "prefectureCode": "11",
    "prefectureNumber": 11,
    "prefecture": "埼玉県",
    "city": "ふじみ野市",
    "town": "鶴ケ岡"
  },
  "3560050": {
    "zipcode": "3560050",
    "prefectureCode": "11",
    "prefectureNumber": 11,
    "prefecture": "埼玉県",
    "city": "ふじみ野市",
    "town": "ふじみ野"
  },
  "3560051": {
    "zipcode": "3560051",
    "prefectureCode": "11",
    "prefectureNumber": 11,
    "prefecture": "埼玉県",
    "city": "ふじみ野市",
    "town": "亀久保"
  },
  "3560052": {
    "zipcode": "3560052",
    "prefectureCode": "11",
    "prefectureNumber": 11,
    "prefecture": "埼玉県",
    "city": "ふじみ野市",
    "town": "苗間"
  },
  "3560053": {
    "zipcode": "3560053",
    "prefectureCode": "11",
    "prefectureNumber": 11,
    "prefecture": "埼玉県",
    "city": "ふじみ野市",
    "town": "大井"
  },
  "3560054": {
    "zipcode": "3560054",
    "prefectureCode": "11",
    "prefectureNumber": 11,
    "prefecture": "埼玉県",
    "city": "ふじみ野市",
    "town": "大井武蔵野"
  },
  "3560055": {
    "zipcode": "3560055",
    "prefectureCode": "11",
    "prefectureNumber": 11,
    "prefecture": "埼玉県",
    "city": "ふじみ野市",
    "town": "旭"
  },
  "3560056": {
    "zipcode": "3560056",
    "prefectureCode": "11",
    "prefectureNumber": 11,
    "prefecture": "埼玉県",
    "city": "ふじみ野市",
    "town": "うれし野"
  },
  "3560057": {
    "zipcode": "3560057",
    "prefectureCode": "11",
    "prefectureNumber": 11,
    "prefecture": "埼玉県",
    "city": "ふじみ野市",
    "town": "市沢"
  },
  "3560058": {
    "zipcode": "3560058",
    "prefectureCode": "11",
    "prefectureNumber": 11,
    "prefecture": "埼玉県",
    "city": "ふじみ野市",
    "town": "大井中央"
  },
  "3560059": {
    "zipcode": "3560059",
    "prefectureCode": "11",
    "prefectureNumber": 11,
    "prefecture": "埼玉県",
    "city": "ふじみ野市",
    "town": "桜ケ丘"
  }
}
