{
  "3580000": {
    "zipcode": "3580000",
    "prefectureCode": "11",
    "prefectureNumber": 11,
    "prefecture": "埼玉県",
    "city": "入間市",
    "town": "以下に掲載がない場合"
  },
  "3580001": {
    "zipcode": "3580001",
    "prefectureCode": "11",
    "prefectureNumber": 11,
    "prefecture": "埼玉県",
    "city": "入間市",
    "town": "向陽台"
  },
  "3580002": {
    "zipcode": "3580002",
    "prefectureCode": "11",
    "prefectureNumber": 11,
    "prefecture": "埼玉県",
    "city": "入間市",
    "town": "東町"
  },
  "3580003": {
    "zipcode": "3580003",
    "prefectureCode": "11",
    "prefectureNumber": 11,
    "prefecture": "埼玉県",
    "city": "入間市",
    "town": "豊岡"
  },
  "3580004": {
    "zipcode": "3580004",
    "prefectureCode": "11",
    "prefectureNumber": 11,
    "prefecture": "埼玉県",
    "city": "入間市",
    "town": "鍵山"
  },
  "3580005": {
    "zipcode": "3580005",
    "prefectureCode": "11",
    "prefectureNumber": 11,
    "prefecture": "埼玉県",
    "city": "入間市",
    "town": "宮前町"
  },
  "3580006": {
    "zipcode": "3580006",
    "prefectureCode": "11",
    "prefectureNumber": 11,
    "prefecture": "埼玉県",
    "city": "入間市",
    "town": "春日町"
  },
  "3580007": {
    "zipcode": "3580007",
    "prefectureCode": "11",
    "prefectureNumber": 11,
    "prefecture": "埼玉県",
    "city": "入間市",
    "town": "黒須"
  },
  "3580008": {
    "zipcode": "3580008",
    "prefectureCode": "11",
    "prefectureNumber": 11,
    "prefecture": "埼玉県",
    "city": "入間市",
    "town": "河原町"
  },
  "3580011": {
    "zipcode": "3580011",
    "prefectureCode": "11",
    "prefectureNumber": 11,
    "prefecture": "埼玉県",
    "city": "入間市",
    "town": "下藤沢"
  },
  "3580012": {
    "zipcode": "3580012",
    "prefectureCode": "11",
    "prefectureNumber": 11,
    "prefecture": "埼玉県",
    "city": "入間市",
    "town": "東藤沢"
  },
  "3580013": {
    "zipcode": "3580013",
    "prefectureCode": "11",
    "prefectureNumber": 11,
    "prefecture": "埼玉県",
    "city": "入間市",
    "town": "上藤沢"
  },
  "3580014": {
    "zipcode": "3580014",
    "prefectureCode": "11",
    "prefectureNumber": 11,
    "prefecture": "埼玉県",
    "city": "入間市",
    "town": "宮寺"
  },
  "3580015": {
    "zipcode": "3580015",
    "prefectureCode": "11",
    "prefectureNumber": 11,
    "prefecture": "埼玉県",
    "city": "入間市",
    "town": "二本木"
  },
  "3580016": {
    "zipcode": "3580016",
    "prefectureCode": "11",
    "prefectureNumber": 11,
    "prefecture": "埼玉県",
    "city": "入間市",
    "town": "高根"
  },
  "3580017": {
    "zipcode": "3580017",
    "prefectureCode": "11",
    "prefectureNumber": 11,
    "prefecture": "埼玉県",
    "city": "入間市",
    "town": "駒形富士山"
  },
  "3580021": {
    "zipcode": "3580021",
    "prefectureCode": "11",
    "prefectureNumber": 11,
    "prefecture": "埼玉県",
    "city": "入間市",
    "town": "高倉"
  },
  "3580022": {
    "zipcode": "3580022",
    "prefectureCode": "11",
    "prefectureNumber": 11,
    "prefecture": "埼玉県",
    "city": "入間市",
    "town": "扇町屋"
  },
  "3580023": {
    "zipcode": "3580023",
    "prefectureCode": "11",
    "prefectureNumber": 11,
    "prefecture": "埼玉県",
    "city": "入間市",
    "town": "扇台"
  },
  "3580024": {
    "zipcode": "3580024",
    "prefectureCode": "11",
    "prefectureNumber": 11,
    "prefecture": "埼玉県",
    "city": "入間市",
    "town": "久保稲荷"
  },
  "3580025": {
    "zipcode": "3580025",
    "prefectureCode": "11",
    "prefectureNumber": 11,
    "prefecture": "埼玉県",
    "city": "入間市",
    "town": "善蔵新田"
  },
  "3580026": {
    "zipcode": "3580026",
    "prefectureCode": "11",
    "prefectureNumber": 11,
    "prefecture": "埼玉県",
    "city": "入間市",
    "town": "小谷田"
  },
  "3580027": {
    "zipcode": "3580027",
    "prefectureCode": "11",
    "prefectureNumber": 11,
    "prefecture": "埼玉県",
    "city": "入間市",
    "town": "上小谷田"
  },
  "3580031": {
    "zipcode": "3580031",
    "prefectureCode": "11",
    "prefectureNumber": 11,
    "prefecture": "埼玉県",
    "city": "入間市",
    "town": "新久"
  },
  "3580032": {
    "zipcode": "3580032",
    "prefectureCode": "11",
    "prefectureNumber": 11,
    "prefecture": "埼玉県",
    "city": "入間市",
    "town": "狭山ケ原"
  },
  "3580033": {
    "zipcode": "3580033",
    "prefectureCode": "11",
    "prefectureNumber": 11,
    "prefecture": "埼玉県",
    "city": "入間市",
    "town": "狭山台"
  },
  "3580034": {
    "zipcode": "3580034",
    "prefectureCode": "11",
    "prefectureNumber": 11,
    "prefecture": "埼玉県",
    "city": "入間市",
    "town": "根岸"
  },
  "3580035": {
    "zipcode": "3580035",
    "prefectureCode": "11",
    "prefectureNumber": 11,
    "prefecture": "埼玉県",
    "city": "入間市",
    "town": "中神"
  },
  "3580036": {
    "zipcode": "3580036",
    "prefectureCode": "11",
    "prefectureNumber": 11,
    "prefecture": "埼玉県",
    "city": "入間市",
    "town": "花ノ木"
  },
  "3580041": {
    "zipcode": "3580041",
    "prefectureCode": "11",
    "prefectureNumber": 11,
    "prefecture": "埼玉県",
    "city": "入間市",
    "town": "下谷ケ貫"
  },
  "3580042": {
    "zipcode": "3580042",
    "prefectureCode": "11",
    "prefectureNumber": 11,
    "prefecture": "埼玉県",
    "city": "入間市",
    "town": "上谷ケ貫"
  },
  "3580043": {
    "zipcode": "3580043",
    "prefectureCode": "11",
    "prefectureNumber": 11,
    "prefecture": "埼玉県",
    "city": "入間市",
    "town": "西三ツ木"
  },
  "3580044": {
    "zipcode": "3580044",
    "prefectureCode": "11",
    "prefectureNumber": 11,
    "prefecture": "埼玉県",
    "city": "入間市",
    "town": "三ツ木台"
  },
  "3580045": {
    "zipcode": "3580045",
    "prefectureCode": "11",
    "prefectureNumber": 11,
    "prefecture": "埼玉県",
    "city": "入間市",
    "town": "寺竹"
  },
  "3580046": {
    "zipcode": "3580046",
    "prefectureCode": "11",
    "prefectureNumber": 11,
    "prefecture": "埼玉県",
    "city": "入間市",
    "town": "南峯"
  },
  "3580047": {
    "zipcode": "3580047",
    "prefectureCode": "11",
    "prefectureNumber": 11,
    "prefecture": "埼玉県",
    "city": "入間市",
    "town": "木蓮寺"
  },
  "3580048": {
    "zipcode": "3580048",
    "prefectureCode": "11",
    "prefectureNumber": 11,
    "prefecture": "埼玉県",
    "city": "入間市",
    "town": "金子中央"
  },
  "3580051": {
    "zipcode": "3580051",
    "prefectureCode": "11",
    "prefectureNumber": 11,
    "prefecture": "埼玉県",
    "city": "入間市",
    "town": "牛沢町"
  },
  "3580052": {
    "zipcode": "3580052",
    "prefectureCode": "11",
    "prefectureNumber": 11,
    "prefecture": "埼玉県",
    "city": "入間市",
    "town": "森坂"
  },
  "3580053": {
    "zipcode": "3580053",
    "prefectureCode": "11",
    "prefectureNumber": 11,
    "prefecture": "埼玉県",
    "city": "入間市",
    "town": "仏子"
  },
  "3580054": {
    "zipcode": "3580054",
    "prefectureCode": "11",
    "prefectureNumber": 11,
    "prefecture": "埼玉県",
    "city": "入間市",
    "town": "野田"
  },
  "3580055": {
    "zipcode": "3580055",
    "prefectureCode": "11",
    "prefectureNumber": 11,
    "prefecture": "埼玉県",
    "city": "入間市",
    "town": "新光"
  }
}
