{
  "3600000": {
    "zipcode": "3600000",
    "prefectureCode": "11",
    "prefectureNumber": 11,
    "prefecture": "埼玉県",
    "city": "熊谷市",
    "town": "以下に掲載がない場合"
  },
  "3600001": {
    "zipcode": "3600001",
    "prefectureCode": "11",
    "prefectureNumber": 11,
    "prefecture": "埼玉県",
    "city": "熊谷市",
    "town": "上中条"
  },
  "3600002": {
    "zipcode": "3600002",
    "prefectureCode": "11",
    "prefectureNumber": 11,
    "prefecture": "埼玉県",
    "city": "熊谷市",
    "town": "大塚"
  },
  "3600003": {
    "zipcode": "3600003",
    "prefectureCode": "11",
    "prefectureNumber": 11,
    "prefecture": "埼玉県",
    "city": "熊谷市",
    "town": "下川上"
  },
  "3600004": {
    "zipcode": "3600004",
    "prefectureCode": "11",
    "prefectureNumber": 11,
    "prefecture": "埼玉県",
    "city": "熊谷市",
    "town": "上川上"
  },
  "3600005": {
    "zipcode": "3600005",
    "prefectureCode": "11",
    "prefectureNumber": 11,
    "prefecture": "埼玉県",
    "city": "熊谷市",
    "town": "今井"
  },
  "3600006": {
    "zipcode": "3600006",
    "prefectureCode": "11",
    "prefectureNumber": 11,
    "prefecture": "埼玉県",
    "city": "熊谷市",
    "town": "四方寺"
  },
  "3600011": {
    "zipcode": "3600011",
    "prefectureCode": "11",
    "prefectureNumber": 11,
    "prefecture": "埼玉県",
    "city": "熊谷市",
    "town": "池上"
  },
  "3600012": {
    "zipcode": "3600012",
    "prefectureCode": "11",
    "prefectureNumber": 11,
    "prefecture": "埼玉県",
    "city": "熊谷市",
    "town": "上之"
  },
  "3600013": {
    "zipcode": "3600013",
    "prefectureCode": "11",
    "prefectureNumber": 11,
    "prefecture": "埼玉県",
    "city": "熊谷市",
    "town": "中西"
  },
  "3600014": {
    "zipcode": "3600014",
    "prefectureCode": "11",
    "prefectureNumber": 11,
    "prefecture": "埼玉県",
    "city": "熊谷市",
    "town": "箱田"
  },
  "3600015": {
    "zipcode": "3600015",
    "prefectureCode": "11",
    "prefectureNumber": 11,
    "prefecture": "埼玉県",
    "city": "熊谷市",
    "town": "肥塚"
  },
  "3600016": {
    "zipcode": "3600016",
    "prefectureCode": "11",
    "prefectureNumber": 11,
    "prefecture": "埼玉県",
    "city": "熊谷市",
    "town": "熊谷"
  },
  "3600017": {
    "zipcode": "3600017",
    "prefectureCode": "11",
    "prefectureNumber": 11,
    "prefecture": "埼玉県",
    "city": "熊谷市",
    "town": "小曽根"
  },
  "3600018": {
    "zipcode": "3600018",
    "prefectureCode": "11",
    "prefectureNumber": 11,
    "prefecture": "埼玉県",
    "city": "熊谷市",
    "town": "中央"
  },
  "3600021": {
    "zipcode": "3600021",
    "prefectureCode": "11",
    "prefectureNumber": 11,
    "prefecture": "埼玉県",
    "city": "熊谷市",
    "town": "平戸"
  },
  "3600022": {
    "zipcode": "3600022",
    "prefectureCode": "11",
    "prefectureNumber": 11,
    "prefecture": "埼玉県",
    "city": "熊谷市",
    "town": "戸出"
  },
  "3600023": {
    "zipcode": "3600023",
    "prefectureCode": "11",
    "prefectureNumber": 11,
    "prefecture": "埼玉県",
    "city": "熊谷市",
    "town": "佐谷田"
  },
  "3600024": {
    "zipcode": "3600024",
    "prefectureCode": "11",
    "prefectureNumber": 11,
    "prefecture": "埼玉県",
    "city": "熊谷市",
    "town": "問屋町"
  },
  "3600025": {
    "zipcode": "3600025",
    "prefectureCode": "11",
    "prefectureNumber": 11,
    "prefecture": "埼玉県",
    "city": "熊谷市",
    "town": "太井"
  },
  "3600026": {
    "zipcode": "3600026",
    "prefectureCode": "11",
    "prefectureNumber": 11,
    "prefecture": "埼玉県",
    "city": "熊谷市",
    "town": "久下"
  },
  "3600027": {
    "zipcode": "3600027",
    "prefectureCode": "11",
    "prefectureNumber": 11,
    "prefecture": "埼玉県",
    "city": "熊谷市",
    "town": "新川"
  },
  "3600031": {
    "zipcode": "3600031",
    "prefectureCode": "11",
    "prefectureNumber": 11,
    "prefecture": "埼玉県",
    "city": "熊谷市",
    "town": "末広"
  },
  "3600032": {
    "zipcode": "3600032",
    "prefectureCode": "11",
    "prefectureNumber": 11,
    "prefecture": "埼玉県",
    "city": "熊谷市",
    "town": "銀座"
  },
  "3600033": {
    "zipcode": "3600033",
    "prefectureCode": "11",
    "prefectureNumber": 11,
    "prefecture": "埼玉県",
    "city": "熊谷市",
    "town": "曙町"
  },
  "3600034": {
    "zipcode": "3600034",
    "prefectureCode": "11",
    "prefectureNumber": 11,
    "prefecture": "埼玉県",
    "city": "熊谷市",
    "town": "万平町"
  },
  "3600035": {
    "zipcode": "3600035",
    "prefectureCode": "11",
    "prefectureNumber": 11,
    "prefecture": "埼玉県",
    "city": "熊谷市",
    "town": "河原町"
  },
  "3600036": {
    "zipcode": "3600036",
    "prefectureCode": "11",
    "prefectureNumber": 11,
    "prefecture": "埼玉県",
    "city": "熊谷市",
    "town": "桜木町"
  },
  "3600037": {
    "zipcode": "3600037",
    "prefectureCode": "11",
    "prefectureNumber": 11,
    "prefecture": "埼玉県",
    "city": "熊谷市",
    "town": "筑波"
  },
  "3600041": {
    "zipcode": "3600041",
    "prefectureCode": "11",
    "prefectureNumber": 11,
    "prefecture": "埼玉県",
    "city": "熊谷市",
    "town": "宮町"
  },
  "3600042": {
    "zipcode": "3600042",
    "prefectureCode": "11",
    "prefectureNumber": 11,
    "prefecture": "埼玉県",
    "city": "熊谷市",
    "town": "本町"
  },
  "3600043": {
    "zipcode": "3600043",
    "prefectureCode": "11",
    "prefectureNumber": 11,
    "prefecture": "埼玉県",
    "city": "熊谷市",
    "town": "星川"
  },
  "3600044": {
    "zipcode": "3600044",
    "prefectureCode": "11",
    "prefectureNumber": 11,
    "prefecture": "埼玉県",
    "city": "熊谷市",
    "town": "弥生"
  },
  "3600045": {
    "zipcode": "3600045",
    "prefectureCode": "11",
    "prefectureNumber": 11,
    "prefecture": "埼玉県",
    "city": "熊谷市",
    "town": "宮前町"
  },
  "3600046": {
    "zipcode": "3600046",
    "prefectureCode": "11",
    "prefectureNumber": 11,
    "prefecture": "埼玉県",
    "city": "熊谷市",
    "town": "鎌倉町"
  },
  "3600047": {
    "zipcode": "3600047",
    "prefectureCode": "11",
    "prefectureNumber": 11,
    "prefecture": "埼玉県",
    "city": "熊谷市",
    "town": "仲町"
  },
  "3600101": {
    "zipcode": "3600101",
    "prefectureCode": "11",
    "prefectureNumber": 11,
    "prefecture": "埼玉県",
    "city": "熊谷市",
    "town": "野原"
  },
  "3600102": {
    "zipcode": "3600102",
    "prefectureCode": "11",
    "prefectureNumber": 11,
    "prefecture": "埼玉県",
    "city": "熊谷市",
    "town": "須賀広"
  },
  "3600103": {
    "zipcode": "3600103",
    "prefectureCode": "11",
    "prefectureNumber": 11,
    "prefecture": "埼玉県",
    "city": "熊谷市",
    "town": "小江川"
  },
  "3600104": {
    "zipcode": "3600104",
    "prefectureCode": "11",
    "prefectureNumber": 11,
    "prefecture": "埼玉県",
    "city": "熊谷市",
    "town": "塩"
  },
  "3600105": {
    "zipcode": "3600105",
    "prefectureCode": "11",
    "prefectureNumber": 11,
    "prefecture": "埼玉県",
    "city": "熊谷市",
    "town": "板井"
  },
  "3600106": {
    "zipcode": "3600106",
    "prefectureCode": "11",
    "prefectureNumber": 11,
    "prefecture": "埼玉県",
    "city": "熊谷市",
    "town": "柴"
  },
  "3600107": {
    "zipcode": "3600107",
    "prefectureCode": "11",
    "prefectureNumber": 11,
    "prefecture": "埼玉県",
    "city": "熊谷市",
    "town": "千代"
  },
  "3600111": {
    "zipcode": "3600111",
    "prefectureCode": "11",
    "prefectureNumber": 11,
    "prefecture": "埼玉県",
    "city": "熊谷市",
    "town": "押切"
  },
  "3600112": {
    "zipcode": "3600112",
    "prefectureCode": "11",
    "prefectureNumber": 11,
    "prefecture": "埼玉県",
    "city": "熊谷市",
    "town": "樋春"
  },
  "3600113": {
    "zipcode": "3600113",
    "prefectureCode": "11",
    "prefectureNumber": 11,
    "prefecture": "埼玉県",
    "city": "熊谷市",
    "town": "御正新田"
  },
  "3600114": {
    "zipcode": "3600114",
    "prefectureCode": "11",
    "prefectureNumber": 11,
    "prefecture": "埼玉県",
    "city": "熊谷市",
    "town": "江南中央"
  },
  "3600115": {
    "zipcode": "3600115",
    "prefectureCode": "11",
    "prefectureNumber": 11,
    "prefecture": "埼玉県",
    "city": "熊谷市",
    "town": "成沢"
  },
  "3600116": {
    "zipcode": "3600116",
    "prefectureCode": "11",
    "prefectureNumber": 11,
    "prefecture": "埼玉県",
    "city": "熊谷市",
    "town": "三本"
  },
  "3600117": {
    "zipcode": "3600117",
    "prefectureCode": "11",
    "prefectureNumber": 11,
    "prefecture": "埼玉県",
    "city": "熊谷市",
    "town": "上新田"
  },
  "3600121": {
    "zipcode": "3600121",
    "prefectureCode": "11",
    "prefectureNumber": 11,
    "prefecture": "埼玉県",
    "city": "熊谷市",
    "town": "手島"
  },
  "3600122": {
    "zipcode": "3600122",
    "prefectureCode": "11",
    "prefectureNumber": 11,
    "prefecture": "埼玉県",
    "city": "熊谷市",
    "town": "小泉"
  },
  "3600123": {
    "zipcode": "3600123",
    "prefectureCode": "11",
    "prefectureNumber": 11,
    "prefecture": "埼玉県",
    "city": "熊谷市",
    "town": "下恩田"
  },
  "3600124": {
    "zipcode": "3600124",
    "prefectureCode": "11",
    "prefectureNumber": 11,
    "prefecture": "埼玉県",
    "city": "熊谷市",
    "town": "中恩田"
  },
  "3600125": {
    "zipcode": "3600125",
    "prefectureCode": "11",
    "prefectureNumber": 11,
    "prefecture": "埼玉県",
    "city": "熊谷市",
    "town": "上恩田"
  },
  "3600131": {
    "zipcode": "3600131",
    "prefectureCode": "11",
    "prefectureNumber": 11,
    "prefecture": "埼玉県",
    "city": "熊谷市",
    "town": "屈戸"
  },
  "3600132": {
    "zipcode": "3600132",
    "prefectureCode": "11",
    "prefectureNumber": 11,
    "prefecture": "埼玉県",
    "city": "熊谷市",
    "town": "津田新田"
  },
  "3600133": {
    "zipcode": "3600133",
    "prefectureCode": "11",
    "prefectureNumber": 11,
    "prefecture": "埼玉県",
    "city": "熊谷市",
    "town": "中曽根"
  },
  "3600134": {
    "zipcode": "3600134",
    "prefectureCode": "11",
    "prefectureNumber": 11,
    "prefecture": "埼玉県",
    "city": "熊谷市",
    "town": "高本"
  },
  "3600135": {
    "zipcode": "3600135",
    "prefectureCode": "11",
    "prefectureNumber": 11,
    "prefecture": "埼玉県",
    "city": "熊谷市",
    "town": "沼黒"
  },
  "3600136": {
    "zipcode": "3600136",
    "prefectureCode": "11",
    "prefectureNumber": 11,
    "prefecture": "埼玉県",
    "city": "熊谷市",
    "town": "吉所敷"
  },
  "3600161": {
    "zipcode": "3600161",
    "prefectureCode": "11",
    "prefectureNumber": 11,
    "prefecture": "埼玉県",
    "city": "熊谷市",
    "town": "万吉"
  },
  "3600162": {
    "zipcode": "3600162",
    "prefectureCode": "11",
    "prefectureNumber": 11,
    "prefecture": "埼玉県",
    "city": "熊谷市",
    "town": "村岡"
  },
  "3600163": {
    "zipcode": "3600163",
    "prefectureCode": "11",
    "prefectureNumber": 11,
    "prefecture": "埼玉県",
    "city": "熊谷市",
    "town": "平塚新田"
  },
  "3600164": {
    "zipcode": "3600164",
    "prefectureCode": "11",
    "prefectureNumber": 11,
    "prefecture": "埼玉県",
    "city": "熊谷市",
    "town": "楊井"
  },
  "3600201": {
    "zipcode": "3600201",
    "prefectureCode": "11",
    "prefectureNumber": 11,
    "prefecture": "埼玉県",
    "city": "熊谷市",
    "town": "妻沼"
  },
  "3600202": {
    "zipcode": "3600202",
    "prefectureCode": "11",
    "prefectureNumber": 11,
    "prefecture": "埼玉県",
    "city": "熊谷市",
    "town": "妻沼東"
  },
  "3600203": {
    "zipcode": "3600203",
    "prefectureCode": "11",
    "prefectureNumber": 11,
    "prefecture": "埼玉県",
    "city": "熊谷市",
    "town": "弥藤吾"
  },
  "3600204": {
    "zipcode": "3600204",
    "prefectureCode": "11",
    "prefectureNumber": 11,
    "prefecture": "埼玉県",
    "city": "熊谷市",
    "town": "妻沼中央"
  },
  "3600211": {
    "zipcode": "3600211",
    "prefectureCode": "11",
    "prefectureNumber": 11,
    "prefecture": "埼玉県",
    "city": "熊谷市",
    "town": "善ケ島"
  },
  "3600212": {
    "zipcode": "3600212",
    "prefectureCode": "11",
    "prefectureNumber": 11,
    "prefecture": "埼玉県",
    "city": "熊谷市",
    "town": "江波"
  },
  "3600213": {
    "zipcode": "3600213",
    "prefectureCode": "11",
    "prefectureNumber": 11,
    "prefecture": "埼玉県",
    "city": "熊谷市",
    "town": "上須戸"
  },
  "3600214": {
    "zipcode": "3600214",
    "prefectureCode": "11",
    "prefectureNumber": 11,
    "prefecture": "埼玉県",
    "city": "熊谷市",
    "town": "西城"
  },
  "3600215": {
    "zipcode": "3600215",
    "prefectureCode": "11",
    "prefectureNumber": 11,
    "prefecture": "埼玉県",
    "city": "熊谷市",
    "town": "田島"
  },
  "3600216": {
    "zipcode": "3600216",
    "prefectureCode": "11",
    "prefectureNumber": 11,
    "prefecture": "埼玉県",
    "city": "熊谷市",
    "town": "西野"
  },
  "3600217": {
    "zipcode": "3600217",
    "prefectureCode": "11",
    "prefectureNumber": 11,
    "prefecture": "埼玉県",
    "city": "熊谷市",
    "town": "上根"
  },
  "3600218": {
    "zipcode": "3600218",
    "prefectureCode": "11",
    "prefectureNumber": 11,
    "prefecture": "埼玉県",
    "city": "熊谷市",
    "town": "八ツ口"
  },
  "3600221": {
    "zipcode": "3600221",
    "prefectureCode": "11",
    "prefectureNumber": 11,
    "prefecture": "埼玉県",
    "city": "熊谷市",
    "town": "大野"
  },
  "3600222": {
    "zipcode": "3600222",
    "prefectureCode": "11",
    "prefectureNumber": 11,
    "prefecture": "埼玉県",
    "city": "熊谷市",
    "town": "葛和田"
  },
  "3600223": {
    "zipcode": "3600223",
    "prefectureCode": "11",
    "prefectureNumber": 11,
    "prefecture": "埼玉県",
    "city": "熊谷市",
    "town": "俵瀬"
  },
  "3600224": {
    "zipcode": "3600224",
    "prefectureCode": "11",
    "prefectureNumber": 11,
    "prefecture": "埼玉県",
    "city": "熊谷市",
    "town": "日向"
  },
  "3600225": {
    "zipcode": "3600225",
    "prefectureCode": "11",
    "prefectureNumber": 11,
    "prefecture": "埼玉県",
    "city": "熊谷市",
    "town": "弁財"
  },
  "3600231": {
    "zipcode": "3600231",
    "prefectureCode": "11",
    "prefectureNumber": 11,
    "prefecture": "埼玉県",
    "city": "熊谷市",
    "town": "飯塚"
  },
  "3600232": {
    "zipcode": "3600232",
    "prefectureCode": "11",
    "prefectureNumber": 11,
    "prefecture": "埼玉県",
    "city": "熊谷市",
    "town": "道ケ谷戸"
  },
  "3600233": {
    "zipcode": "3600233",
    "prefectureCode": "11",
    "prefectureNumber": 11,
    "prefecture": "埼玉県",
    "city": "熊谷市",
    "town": "八木田"
  },
  "3600234": {
    "zipcode": "3600234",
    "prefectureCode": "11",
    "prefectureNumber": 11,
    "prefecture": "埼玉県",
    "city": "熊谷市",
    "town": "上江袋"
  },
  "3600235": {
    "zipcode": "3600235",
    "prefectureCode": "11",
    "prefectureNumber": 11,
    "prefecture": "埼玉県",
    "city": "熊谷市",
    "town": "原井"
  },
  "3600236": {
    "zipcode": "3600236",
    "prefectureCode": "11",
    "prefectureNumber": 11,
    "prefecture": "埼玉県",
    "city": "熊谷市",
    "town": "市ノ坪"
  },
  "3600237": {
    "zipcode": "3600237",
    "prefectureCode": "11",
    "prefectureNumber": 11,
    "prefecture": "埼玉県",
    "city": "熊谷市",
    "town": "永井太田"
  },
  "3600238": {
    "zipcode": "3600238",
    "prefectureCode": "11",
    "prefectureNumber": 11,
    "prefecture": "埼玉県",
    "city": "熊谷市",
    "town": "妻沼西"
  },
  "3600241": {
    "zipcode": "3600241",
    "prefectureCode": "11",
    "prefectureNumber": 11,
    "prefecture": "埼玉県",
    "city": "熊谷市",
    "town": "妻沼台"
  },
  "3600242": {
    "zipcode": "3600242",
    "prefectureCode": "11",
    "prefectureNumber": 11,
    "prefecture": "埼玉県",
    "city": "熊谷市",
    "town": "男沼"
  },
  "3600243": {
    "zipcode": "3600243",
    "prefectureCode": "11",
    "prefectureNumber": 11,
    "prefecture": "埼玉県",
    "city": "熊谷市",
    "town": "間々田"
  },
  "3600244": {
    "zipcode": "3600244",
    "prefectureCode": "11",
    "prefectureNumber": 11,
    "prefecture": "埼玉県",
    "city": "熊谷市",
    "town": "出来島"
  },
  "3600245": {
    "zipcode": "3600245",
    "prefectureCode": "11",
    "prefectureNumber": 11,
    "prefecture": "埼玉県",
    "city": "熊谷市",
    "town": "妻沼小島"
  },
  "3600801": {
    "zipcode": "3600801",
    "prefectureCode": "11",
    "prefectureNumber": 11,
    "prefecture": "埼玉県",
    "city": "熊谷市",
    "town": "中奈良"
  },
  "3600802": {
    "zipcode": "3600802",
    "prefectureCode": "11",
    "prefectureNumber": 11,
    "prefecture": "埼玉県",
    "city": "熊谷市",
    "town": "下奈良"
  },
  "3600803": {
    "zipcode": "3600803",
    "prefectureCode": "11",
    "prefectureNumber": 11,
    "prefecture": "埼玉県",
    "city": "熊谷市",
    "town": "柿沼"
  },
  "3600804": {
    "zipcode": "3600804",
    "prefectureCode": "11",
    "prefectureNumber": 11,
    "prefecture": "埼玉県",
    "city": "熊谷市",
    "town": "代"
  },
  "3600805": {
    "zipcode": "3600805",
    "prefectureCode": "11",
    "prefectureNumber": 11,
    "prefecture": "埼玉県",
    "city": "熊谷市",
    "town": "上奈良"
  },
  "3600806": {
    "zipcode": "3600806",
    "prefectureCode": "11",
    "prefectureNumber": 11,
    "prefecture": "埼玉県",
    "city": "熊谷市",
    "town": "奈良新田"
  },
  "3600811": {
    "zipcode": "3600811",
    "prefectureCode": "11",
    "prefectureNumber": 11,
    "prefecture": "埼玉県",
    "city": "熊谷市",
    "town": "原島"
  },
  "3600812": {
    "zipcode": "3600812",
    "prefectureCode": "11",
    "prefectureNumber": 11,
    "prefecture": "埼玉県",
    "city": "熊谷市",
    "town": "大原"
  },
  "3600813": {
    "zipcode": "3600813",
    "prefectureCode": "11",
    "prefectureNumber": 11,
    "prefecture": "埼玉県",
    "city": "熊谷市",
    "town": "円光"
  },
  "3600814": {
    "zipcode": "3600814",
    "prefectureCode": "11",
    "prefectureNumber": 11,
    "prefecture": "埼玉県",
    "city": "熊谷市",
    "town": "桜町"
  },
  "3600815": {
    "zipcode": "3600815",
    "prefectureCode": "11",
    "prefectureNumber": 11,
    "prefecture": "埼玉県",
    "city": "熊谷市",
    "town": "本石"
  },
  "3600816": {
    "zipcode": "3600816",
    "prefectureCode": "11",
    "prefectureNumber": 11,
    "prefecture": "埼玉県",
    "city": "熊谷市",
    "town": "石原"
  },
  "3600817": {
    "zipcode": "3600817",
    "prefectureCode": "11",
    "prefectureNumber": 11,
    "prefecture": "埼玉県",
    "city": "熊谷市",
    "town": "新島"
  },
  "3600821": {
    "zipcode": "3600821",
    "prefectureCode": "11",
    "prefectureNumber": 11,
    "prefecture": "埼玉県",
    "city": "熊谷市",
    "town": "伊勢町"
  },
  "3600822": {
    "zipcode": "3600822",
    "prefectureCode": "11",
    "prefectureNumber": 11,
    "prefecture": "埼玉県",
    "city": "熊谷市",
    "town": "宮本町"
  },
  "3600823": {
    "zipcode": "3600823",
    "prefectureCode": "11",
    "prefectureNumber": 11,
    "prefecture": "埼玉県",
    "city": "熊谷市",
    "town": "榎町"
  },
  "3600824": {
    "zipcode": "3600824",
    "prefectureCode": "11",
    "prefectureNumber": 11,
    "prefecture": "埼玉県",
    "city": "熊谷市",
    "town": "見晴町"
  },
  "3600825": {
    "zipcode": "3600825",
    "prefectureCode": "11",
    "prefectureNumber": 11,
    "prefecture": "埼玉県",
    "city": "熊谷市",
    "town": "月見町"
  },
  "3600826": {
    "zipcode": "3600826",
    "prefectureCode": "11",
    "prefectureNumber": 11,
    "prefecture": "埼玉県",
    "city": "熊谷市",
    "town": "赤城町"
  },
  "3600831": {
    "zipcode": "3600831",
    "prefectureCode": "11",
    "prefectureNumber": 11,
    "prefecture": "埼玉県",
    "city": "熊谷市",
    "town": "久保島"
  },
  "3600832": {
    "zipcode": "3600832",
    "prefectureCode": "11",
    "prefectureNumber": 11,
    "prefecture": "埼玉県",
    "city": "熊谷市",
    "town": "小島"
  },
  "3600833": {
    "zipcode": "3600833",
    "prefectureCode": "11",
    "prefectureNumber": 11,
    "prefecture": "埼玉県",
    "city": "熊谷市",
    "town": "広瀬"
  },
  "3600834": {
    "zipcode": "3600834",
    "prefectureCode": "11",
    "prefectureNumber": 11,
    "prefecture": "埼玉県",
    "city": "熊谷市",
    "town": "瀬南"
  },
  "3600835": {
    "zipcode": "3600835",
    "prefectureCode": "11",
    "prefectureNumber": 11,
    "prefecture": "埼玉県",
    "city": "熊谷市",
    "town": "大麻生"
  },
  "3600836": {
    "zipcode": "3600836",
    "prefectureCode": "11",
    "prefectureNumber": 11,
    "prefecture": "埼玉県",
    "city": "熊谷市",
    "town": "武体"
  },
  "3600837": {
    "zipcode": "3600837",
    "prefectureCode": "11",
    "prefectureNumber": 11,
    "prefecture": "埼玉県",
    "city": "熊谷市",
    "town": "川原明戸"
  },
  "3600841": {
    "zipcode": "3600841",
    "prefectureCode": "11",
    "prefectureNumber": 11,
    "prefecture": "埼玉県",
    "city": "熊谷市",
    "town": "新堀"
  },
  "3600842": {
    "zipcode": "3600842",
    "prefectureCode": "11",
    "prefectureNumber": 11,
    "prefecture": "埼玉県",
    "city": "熊谷市",
    "town": "新堀新田"
  },
  "3600843": {
    "zipcode": "3600843",
    "prefectureCode": "11",
    "prefectureNumber": 11,
    "prefecture": "埼玉県",
    "city": "熊谷市",
    "town": "三ケ尻"
  },
  "3600844": {
    "zipcode": "3600844",
    "prefectureCode": "11",
    "prefectureNumber": 11,
    "prefecture": "埼玉県",
    "city": "熊谷市",
    "town": "御稜威ケ原"
  },
  "3600845": {
    "zipcode": "3600845",
    "prefectureCode": "11",
    "prefectureNumber": 11,
    "prefecture": "埼玉県",
    "city": "熊谷市",
    "town": "美土里町"
  },
  "3600846": {
    "zipcode": "3600846",
    "prefectureCode": "11",
    "prefectureNumber": 11,
    "prefecture": "埼玉県",
    "city": "熊谷市",
    "town": "拾六間"
  },
  "3600847": {
    "zipcode": "3600847",
    "prefectureCode": "11",
    "prefectureNumber": 11,
    "prefecture": "埼玉県",
    "city": "熊谷市",
    "town": "籠原南"
  },
  "3600851": {
    "zipcode": "3600851",
    "prefectureCode": "11",
    "prefectureNumber": 11,
    "prefecture": "埼玉県",
    "city": "熊谷市",
    "town": "下増田"
  },
  "3600852": {
    "zipcode": "3600852",
    "prefectureCode": "11",
    "prefectureNumber": 11,
    "prefecture": "埼玉県",
    "city": "熊谷市",
    "town": "東別府"
  },
  "3600853": {
    "zipcode": "3600853",
    "prefectureCode": "11",
    "prefectureNumber": 11,
    "prefecture": "埼玉県",
    "city": "熊谷市",
    "town": "玉井"
  },
  "3600854": {
    "zipcode": "3600854",
    "prefectureCode": "11",
    "prefectureNumber": 11,
    "prefecture": "埼玉県",
    "city": "熊谷市",
    "town": "玉井南"
  },
  "3600855": {
    "zipcode": "3600855",
    "prefectureCode": "11",
    "prefectureNumber": 11,
    "prefecture": "埼玉県",
    "city": "熊谷市",
    "town": "高柳"
  },
  "3600856": {
    "zipcode": "3600856",
    "prefectureCode": "11",
    "prefectureNumber": 11,
    "prefecture": "埼玉県",
    "city": "熊谷市",
    "town": "別府"
  },
  "3600857": {
    "zipcode": "3600857",
    "prefectureCode": "11",
    "prefectureNumber": 11,
    "prefecture": "埼玉県",
    "city": "熊谷市",
    "town": "西別府"
  }
}
