{
  "3610000": {
    "zipcode": "3610000",
    "prefectureCode": "11",
    "prefectureNumber": 11,
    "prefecture": "埼玉県",
    "city": "行田市",
    "town": "以下に掲載がない場合"
  },
  "3610001": {
    "zipcode": "3610001",
    "prefectureCode": "11",
    "prefectureNumber": 11,
    "prefecture": "埼玉県",
    "city": "行田市",
    "town": "北河原"
  },
  "3610002": {
    "zipcode": "3610002",
    "prefectureCode": "11",
    "prefectureNumber": 11,
    "prefecture": "埼玉県",
    "city": "行田市",
    "town": "酒巻"
  },
  "3610003": {
    "zipcode": "3610003",
    "prefectureCode": "11",
    "prefectureNumber": 11,
    "prefecture": "埼玉県",
    "city": "行田市",
    "town": "下中条"
  },
  "3610004": {
    "zipcode": "3610004",
    "prefectureCode": "11",
    "prefectureNumber": 11,
    "prefecture": "埼玉県",
    "city": "行田市",
    "town": "須加"
  },
  "3610005": {
    "zipcode": "3610005",
    "prefectureCode": "11",
    "prefectureNumber": 11,
    "prefecture": "埼玉県",
    "city": "行田市",
    "town": "斎条"
  },
  "3610006": {
    "zipcode": "3610006",
    "prefectureCode": "11",
    "prefectureNumber": 11,
    "prefecture": "埼玉県",
    "city": "行田市",
    "town": "白川戸"
  },
  "3610007": {
    "zipcode": "3610007",
    "prefectureCode": "11",
    "prefectureNumber": 11,
    "prefecture": "埼玉県",
    "city": "行田市",
    "town": "小見"
  },
  "3610011": {
    "zipcode": "3610011",
    "prefectureCode": "11",
    "prefectureNumber": 11,
    "prefecture": "埼玉県",
    "city": "行田市",
    "town": "荒木"
  },
  "3610012": {
    "zipcode": "3610012",
    "prefectureCode": "11",
    "prefectureNumber": 11,
    "prefecture": "埼玉県",
    "city": "行田市",
    "town": "下須戸"
  },
  "3610013": {
    "zipcode": "3610013",
    "prefectureCode": "11",
    "prefectureNumber": 11,
    "prefecture": "埼玉県",
    "city": "行田市",
    "town": "真名板"
  },
  "3610014": {
    "zipcode": "3610014",
    "prefectureCode": "11",
    "prefectureNumber": 11,
    "prefecture": "埼玉県",
    "city": "行田市",
    "town": "藤間"
  },
  "3610015": {
    "zipcode": "3610015",
    "prefectureCode": "11",
    "prefectureNumber": 11,
    "prefecture": "埼玉県",
    "city": "行田市",
    "town": "関根"
  },
  "3610016": {
    "zipcode": "3610016",
    "prefectureCode": "11",
    "prefectureNumber": 11,
    "prefecture": "埼玉県",
    "city": "行田市",
    "town": "藤原町"
  },
  "3610017": {
    "zipcode": "3610017",
    "prefectureCode": "11",
    "prefectureNumber": 11,
    "prefecture": "埼玉県",
    "city": "行田市",
    "town": "若小玉"
  },
  "3610021": {
    "zipcode": "3610021",
    "prefectureCode": "11",
    "prefectureNumber": 11,
    "prefecture": "埼玉県",
    "city": "行田市",
    "town": "富士見町"
  },
  "3610022": {
    "zipcode": "3610022",
    "prefectureCode": "11",
    "prefectureNumber": 11,
    "prefecture": "埼玉県",
    "city": "行田市",
    "town": "桜町"
  },
  "3610023": {
    "zipcode": "3610023",
    "prefectureCode": "11",
    "prefectureNumber": 11,
    "prefecture": "埼玉県",
    "city": "行田市",
    "town": "長野"
  },
  "3610024": {
    "zipcode": "3610024",
    "prefectureCode": "11",
    "prefectureNumber": 11,
    "prefecture": "埼玉県",
    "city": "行田市",
    "town": "小針"
  },
  "3610025": {
    "zipcode": "3610025",
    "prefectureCode": "11",
    "prefectureNumber": 11,
    "prefecture": "埼玉県",
    "city": "行田市",
    "town": "埼玉"
  },
  "3610026": {
    "zipcode": "3610026",
    "prefectureCode": "11",
    "prefectureNumber": 11,
    "prefecture": "埼玉県",
    "city": "行田市",
    "town": "野"
  },
  "3610031": {
    "zipcode": "3610031",
    "prefectureCode": "11",
    "prefectureNumber": 11,
    "prefecture": "埼玉県",
    "city": "行田市",
    "town": "緑町"
  },
  "3610032": {
    "zipcode": "3610032",
    "prefectureCode": "11",
    "prefectureNumber": 11,
    "prefecture": "埼玉県",
    "city": "行田市",
    "town": "佐間"
  },
  "3610033": {
    "zipcode": "3610033",
    "prefectureCode": "11",
    "prefectureNumber": 11,
    "prefecture": "埼玉県",
    "city": "行田市",
    "town": "渡柳"
  },
  "3610034": {
    "zipcode": "3610034",
    "prefectureCode": "11",
    "prefectureNumber": 11,
    "prefecture": "埼玉県",
    "city": "行田市",
    "town": "利田"
  },
  "3610035": {
    "zipcode": "3610035",
    "prefectureCode": "11",
    "prefectureNumber": 11,
    "prefecture": "埼玉県",
    "city": "行田市",
    "town": "堤根"
  },
  "3610036": {
    "zipcode": "3610036",
    "prefectureCode": "11",
    "prefectureNumber": 11,
    "prefecture": "埼玉県",
    "city": "行田市",
    "town": "樋上"
  },
  "3610037": {
    "zipcode": "3610037",
    "prefectureCode": "11",
    "prefectureNumber": 11,
    "prefecture": "埼玉県",
    "city": "行田市",
    "town": "下忍"
  },
  "3610038": {
    "zipcode": "3610038",
    "prefectureCode": "11",
    "prefectureNumber": 11,
    "prefecture": "埼玉県",
    "city": "行田市",
    "town": "前谷"
  },
  "3610041": {
    "zipcode": "3610041",
    "prefectureCode": "11",
    "prefectureNumber": 11,
    "prefecture": "埼玉県",
    "city": "行田市",
    "town": "棚田町"
  },
  "3610042": {
    "zipcode": "3610042",
    "prefectureCode": "11",
    "prefectureNumber": 11,
    "prefecture": "埼玉県",
    "city": "行田市",
    "town": "西新町"
  },
  "3610043": {
    "zipcode": "3610043",
    "prefectureCode": "11",
    "prefectureNumber": 11,
    "prefecture": "埼玉県",
    "city": "行田市",
    "town": "深水町"
  },
  "3610044": {
    "zipcode": "3610044",
    "prefectureCode": "11",
    "prefectureNumber": 11,
    "prefecture": "埼玉県",
    "city": "行田市",
    "town": "門井町"
  },
  "3610045": {
    "zipcode": "3610045",
    "prefectureCode": "11",
    "prefectureNumber": 11,
    "prefecture": "埼玉県",
    "city": "行田市",
    "town": "押上町"
  },
  "3610046": {
    "zipcode": "3610046",
    "prefectureCode": "11",
    "prefectureNumber": 11,
    "prefecture": "埼玉県",
    "city": "行田市",
    "town": "壱里山町"
  },
  "3610047": {
    "zipcode": "3610047",
    "prefectureCode": "11",
    "prefectureNumber": 11,
    "prefecture": "埼玉県",
    "city": "行田市",
    "town": "清水町"
  },
  "3610051": {
    "zipcode": "3610051",
    "prefectureCode": "11",
    "prefectureNumber": 11,
    "prefecture": "埼玉県",
    "city": "行田市",
    "town": "矢場"
  },
  "3610052": {
    "zipcode": "3610052",
    "prefectureCode": "11",
    "prefectureNumber": 11,
    "prefecture": "埼玉県",
    "city": "行田市",
    "town": "本丸"
  },
  "3610053": {
    "zipcode": "3610053",
    "prefectureCode": "11",
    "prefectureNumber": 11,
    "prefecture": "埼玉県",
    "city": "行田市",
    "town": "水城公園"
  },
  "3610054": {
    "zipcode": "3610054",
    "prefectureCode": "11",
    "prefectureNumber": 11,
    "prefecture": "埼玉県",
    "city": "行田市",
    "town": "城南"
  },
  "3610055": {
    "zipcode": "3610055",
    "prefectureCode": "11",
    "prefectureNumber": 11,
    "prefecture": "埼玉県",
    "city": "行田市",
    "town": "駒形"
  },
  "3610056": {
    "zipcode": "3610056",
    "prefectureCode": "11",
    "prefectureNumber": 11,
    "prefecture": "埼玉県",
    "city": "行田市",
    "town": "持田"
  },
  "3610057": {
    "zipcode": "3610057",
    "prefectureCode": "11",
    "prefectureNumber": 11,
    "prefecture": "埼玉県",
    "city": "行田市",
    "town": "城西"
  },
  "3610061": {
    "zipcode": "3610061",
    "prefectureCode": "11",
    "prefectureNumber": 11,
    "prefecture": "埼玉県",
    "city": "行田市",
    "town": "和田"
  },
  "3610062": {
    "zipcode": "3610062",
    "prefectureCode": "11",
    "prefectureNumber": 11,
    "prefecture": "埼玉県",
    "city": "行田市",
    "town": "谷郷"
  },
  "3610063": {
    "zipcode": "3610063",
    "prefectureCode": "11",
    "prefectureNumber": 11,
    "prefecture": "埼玉県",
    "city": "行田市",
    "town": "皿尾"
  },
  "3610064": {
    "zipcode": "3610064",
    "prefectureCode": "11",
    "prefectureNumber": 11,
    "prefecture": "埼玉県",
    "city": "行田市",
    "town": "中里"
  },
  "3610065": {
    "zipcode": "3610065",
    "prefectureCode": "11",
    "prefectureNumber": 11,
    "prefecture": "埼玉県",
    "city": "行田市",
    "town": "小敷田"
  },
  "3610066": {
    "zipcode": "3610066",
    "prefectureCode": "11",
    "prefectureNumber": 11,
    "prefecture": "埼玉県",
    "city": "行田市",
    "town": "上池守"
  },
  "3610067": {
    "zipcode": "3610067",
    "prefectureCode": "11",
    "prefectureNumber": 11,
    "prefecture": "埼玉県",
    "city": "行田市",
    "town": "下池守"
  },
  "3610071": {
    "zipcode": "3610071",
    "prefectureCode": "11",
    "prefectureNumber": 11,
    "prefecture": "埼玉県",
    "city": "行田市",
    "town": "栄町"
  },
  "3610072": {
    "zipcode": "3610072",
    "prefectureCode": "11",
    "prefectureNumber": 11,
    "prefecture": "埼玉県",
    "city": "行田市",
    "town": "宮本"
  },
  "3610073": {
    "zipcode": "3610073",
    "prefectureCode": "11",
    "prefectureNumber": 11,
    "prefecture": "埼玉県",
    "city": "行田市",
    "town": "行田"
  },
  "3610074": {
    "zipcode": "3610074",
    "prefectureCode": "11",
    "prefectureNumber": 11,
    "prefecture": "埼玉県",
    "city": "行田市",
    "town": "旭町"
  },
  "3610075": {
    "zipcode": "3610075",
    "prefectureCode": "11",
    "prefectureNumber": 11,
    "prefecture": "埼玉県",
    "city": "行田市",
    "town": "向町"
  },
  "3610076": {
    "zipcode": "3610076",
    "prefectureCode": "11",
    "prefectureNumber": 11,
    "prefecture": "埼玉県",
    "city": "行田市",
    "town": "天満"
  },
  "3610077": {
    "zipcode": "3610077",
    "prefectureCode": "11",
    "prefectureNumber": 11,
    "prefecture": "埼玉県",
    "city": "行田市",
    "town": "忍"
  },
  "3610078": {
    "zipcode": "3610078",
    "prefectureCode": "11",
    "prefectureNumber": 11,
    "prefecture": "埼玉県",
    "city": "行田市",
    "town": "中央"
  },
  "3610081": {
    "zipcode": "3610081",
    "prefectureCode": "11",
    "prefectureNumber": 11,
    "prefecture": "埼玉県",
    "city": "行田市",
    "town": "犬塚"
  },
  "3610082": {
    "zipcode": "3610082",
    "prefectureCode": "11",
    "prefectureNumber": 11,
    "prefecture": "埼玉県",
    "city": "行田市",
    "town": "馬見塚"
  },
  "3610083": {
    "zipcode": "3610083",
    "prefectureCode": "11",
    "prefectureNumber": 11,
    "prefecture": "埼玉県",
    "city": "行田市",
    "town": "中江袋"
  },
  "3610084": {
    "zipcode": "3610084",
    "prefectureCode": "11",
    "prefectureNumber": 11,
    "prefecture": "埼玉県",
    "city": "行田市",
    "town": "南河原"
  }
}
