{
  "3640000": {
    "zipcode": "3640000",
    "prefectureCode": "11",
    "prefectureNumber": 11,
    "prefecture": "埼玉県",
    "city": "北本市",
    "town": "以下に掲載がない場合"
  },
  "3640001": {
    "zipcode": "3640001",
    "prefectureCode": "11",
    "prefectureNumber": 11,
    "prefecture": "埼玉県",
    "city": "北本市",
    "town": "深井"
  },
  "3640002": {
    "zipcode": "3640002",
    "prefectureCode": "11",
    "prefectureNumber": 11,
    "prefecture": "埼玉県",
    "city": "北本市",
    "town": "宮内"
  },
  "3640003": {
    "zipcode": "3640003",
    "prefectureCode": "11",
    "prefectureNumber": 11,
    "prefecture": "埼玉県",
    "city": "北本市",
    "town": "古市場"
  },
  "3640004": {
    "zipcode": "3640004",
    "prefectureCode": "11",
    "prefectureNumber": 11,
    "prefecture": "埼玉県",
    "city": "北本市",
    "town": "山中"
  },
  "3640005": {
    "zipcode": "3640005",
    "prefectureCode": "11",
    "prefectureNumber": 11,
    "prefecture": "埼玉県",
    "city": "北本市",
    "town": "本宿"
  },
  "3640006": {
    "zipcode": "3640006",
    "prefectureCode": "11",
    "prefectureNumber": 11,
    "prefecture": "埼玉県",
    "city": "北本市",
    "town": "北本"
  },
  "3640007": {
    "zipcode": "3640007",
    "prefectureCode": "11",
    "prefectureNumber": 11,
    "prefecture": "埼玉県",
    "city": "北本市",
    "town": "東間"
  },
  "3640011": {
    "zipcode": "3640011",
    "prefectureCode": "11",
    "prefectureNumber": 11,
    "prefecture": "埼玉県",
    "city": "北本市",
    "town": "朝日"
  },
  "3640012": {
    "zipcode": "3640012",
    "prefectureCode": "11",
    "prefectureNumber": 11,
    "prefecture": "埼玉県",
    "city": "北本市",
    "town": "北中丸"
  },
  "3640013": {
    "zipcode": "3640013",
    "prefectureCode": "11",
    "prefectureNumber": 11,
    "prefecture": "埼玉県",
    "city": "北本市",
    "town": "中丸"
  },
  "3640014": {
    "zipcode": "3640014",
    "prefectureCode": "11",
    "prefectureNumber": 11,
    "prefecture": "埼玉県",
    "city": "北本市",
    "town": "二ツ家"
  },
  "3640021": {
    "zipcode": "3640021",
    "prefectureCode": "11",
    "prefectureNumber": 11,
    "prefecture": "埼玉県",
    "city": "北本市",
    "town": "北本宿"
  },
  "3640022": {
    "zipcode": "3640022",
    "prefectureCode": "11",
    "prefectureNumber": 11,
    "prefecture": "埼玉県",
    "city": "北本市",
    "town": "下石戸上"
  },
  "3640023": {
    "zipcode": "3640023",
    "prefectureCode": "11",
    "prefectureNumber": 11,
    "prefecture": "埼玉県",
    "city": "北本市",
    "town": "下石戸下"
  },
  "3640024": {
    "zipcode": "3640024",
    "prefectureCode": "11",
    "prefectureNumber": 11,
    "prefecture": "埼玉県",
    "city": "北本市",
    "town": "石戸"
  },
  "3640025": {
    "zipcode": "3640025",
    "prefectureCode": "11",
    "prefectureNumber": 11,
    "prefecture": "埼玉県",
    "city": "北本市",
    "town": "石戸宿"
  },
  "3640026": {
    "zipcode": "3640026",
    "prefectureCode": "11",
    "prefectureNumber": 11,
    "prefecture": "埼玉県",
    "city": "北本市",
    "town": "荒井"
  },
  "3640027": {
    "zipcode": "3640027",
    "prefectureCode": "11",
    "prefectureNumber": 11,
    "prefecture": "埼玉県",
    "city": "北本市",
    "town": "栄"
  },
  "3640028": {
    "zipcode": "3640028",
    "prefectureCode": "11",
    "prefectureNumber": 11,
    "prefecture": "埼玉県",
    "city": "北本市",
    "town": "下石戸"
  },
  "3640031": {
    "zipcode": "3640031",
    "prefectureCode": "11",
    "prefectureNumber": 11,
    "prefecture": "埼玉県",
    "city": "北本市",
    "town": "中央"
  },
  "3640032": {
    "zipcode": "3640032",
    "prefectureCode": "11",
    "prefectureNumber": 11,
    "prefecture": "埼玉県",
    "city": "北本市",
    "town": "緑"
  },
  "3640033": {
    "zipcode": "3640033",
    "prefectureCode": "11",
    "prefectureNumber": 11,
    "prefecture": "埼玉県",
    "city": "北本市",
    "town": "本町"
  },
  "3640034": {
    "zipcode": "3640034",
    "prefectureCode": "11",
    "prefectureNumber": 11,
    "prefecture": "埼玉県",
    "city": "北本市",
    "town": "高尾"
  },
  "3640035": {
    "zipcode": "3640035",
    "prefectureCode": "11",
    "prefectureNumber": 11,
    "prefecture": "埼玉県",
    "city": "北本市",
    "town": "西高尾"
  }
}
