{
  "3650000": {
    "zipcode": "3650000",
    "prefectureCode": "11",
    "prefectureNumber": 11,
    "prefecture": "埼玉県",
    "city": "鴻巣市",
    "town": "以下に掲載がない場合"
  },
  "3650001": {
    "zipcode": "3650001",
    "prefectureCode": "11",
    "prefectureNumber": 11,
    "prefecture": "埼玉県",
    "city": "鴻巣市",
    "town": "赤城台"
  },
  "3650002": {
    "zipcode": "3650002",
    "prefectureCode": "11",
    "prefectureNumber": 11,
    "prefecture": "埼玉県",
    "city": "鴻巣市",
    "town": "赤城"
  },
  "3650003": {
    "zipcode": "3650003",
    "prefectureCode": "11",
    "prefectureNumber": 11,
    "prefecture": "埼玉県",
    "city": "鴻巣市",
    "town": "北根"
  },
  "3650004": {
    "zipcode": "3650004",
    "prefectureCode": "11",
    "prefectureNumber": 11,
    "prefecture": "埼玉県",
    "city": "鴻巣市",
    "town": "関新田"
  },
  "3650005": {
    "zipcode": "3650005",
    "prefectureCode": "11",
    "prefectureNumber": 11,
    "prefecture": "埼玉県",
    "city": "鴻巣市",
    "town": "広田"
  },
  "3650011": {
    "zipcode": "3650011",
    "prefectureCode": "11",
    "prefectureNumber": 11,
    "prefecture": "埼玉県",
    "city": "鴻巣市",
    "town": "新井"
  },
  "3650012": {
    "zipcode": "3650012",
    "prefectureCode": "11",
    "prefectureNumber": 11,
    "prefecture": "埼玉県",
    "city": "鴻巣市",
    "town": "上会下"
  },
  "3650013": {
    "zipcode": "3650013",
    "prefectureCode": "11",
    "prefectureNumber": 11,
    "prefecture": "埼玉県",
    "city": "鴻巣市",
    "town": "境"
  },
  "3650014": {
    "zipcode": "3650014",
    "prefectureCode": "11",
    "prefectureNumber": 11,
    "prefecture": "埼玉県",
    "city": "鴻巣市",
    "town": "屈巣"
  },
  "3650021": {
    "zipcode": "3650021",
    "prefectureCode": "11",
    "prefectureNumber": 11,
    "prefecture": "埼玉県",
    "city": "鴻巣市",
    "town": "安養寺"
  },
  "3650022": {
    "zipcode": "3650022",
    "prefectureCode": "11",
    "prefectureNumber": 11,
    "prefecture": "埼玉県",
    "city": "鴻巣市",
    "town": "郷地"
  },
  "3650023": {
    "zipcode": "3650023",
    "prefectureCode": "11",
    "prefectureNumber": 11,
    "prefecture": "埼玉県",
    "city": "鴻巣市",
    "town": "笠原"
  },
  "3650024": {
    "zipcode": "3650024",
    "prefectureCode": "11",
    "prefectureNumber": 11,
    "prefecture": "埼玉県",
    "city": "鴻巣市",
    "town": "常光"
  },
  "3650025": {
    "zipcode": "3650025",
    "prefectureCode": "11",
    "prefectureNumber": 11,
    "prefecture": "埼玉県",
    "city": "鴻巣市",
    "town": "下谷"
  },
  "3650026": {
    "zipcode": "3650026",
    "prefectureCode": "11",
    "prefectureNumber": 11,
    "prefecture": "埼玉県",
    "city": "鴻巣市",
    "town": "西中曽根"
  },
  "3650027": {
    "zipcode": "3650027",
    "prefectureCode": "11",
    "prefectureNumber": 11,
    "prefecture": "埼玉県",
    "city": "鴻巣市",
    "town": "上谷"
  },
  "3650028": {
    "zipcode": "3650028",
    "prefectureCode": "11",
    "prefectureNumber": 11,
    "prefecture": "埼玉県",
    "city": "鴻巣市",
    "town": "鴻巣"
  },
  "3650031": {
    "zipcode": "3650031",
    "prefectureCode": "11",
    "prefectureNumber": 11,
    "prefecture": "埼玉県",
    "city": "鴻巣市",
    "town": "ひばり野"
  },
  "3650032": {
    "zipcode": "3650032",
    "prefectureCode": "11",
    "prefectureNumber": 11,
    "prefecture": "埼玉県",
    "city": "鴻巣市",
    "town": "中央"
  },
  "3650033": {
    "zipcode": "3650033",
    "prefectureCode": "11",
    "prefectureNumber": 11,
    "prefecture": "埼玉県",
    "city": "鴻巣市",
    "town": "生出塚"
  },
  "3650034": {
    "zipcode": "3650034",
    "prefectureCode": "11",
    "prefectureNumber": 11,
    "prefecture": "埼玉県",
    "city": "鴻巣市",
    "town": "上生出塚"
  },
  "3650035": {
    "zipcode": "3650035",
    "prefectureCode": "11",
    "prefectureNumber": 11,
    "prefecture": "埼玉県",
    "city": "鴻巣市",
    "town": "下生出塚"
  },
  "3650036": {
    "zipcode": "3650036",
    "prefectureCode": "11",
    "prefectureNumber": 11,
    "prefecture": "埼玉県",
    "city": "鴻巣市",
    "town": "天神"
  },
  "3650037": {
    "zipcode": "3650037",
    "prefectureCode": "11",
    "prefectureNumber": 11,
    "prefecture": "埼玉県",
    "city": "鴻巣市",
    "town": "人形"
  },
  "3650038": {
    "zipcode": "3650038",
    "prefectureCode": "11",
    "prefectureNumber": 11,
    "prefecture": "埼玉県",
    "city": "鴻巣市",
    "town": "本町"
  },
  "3650039": {
    "zipcode": "3650039",
    "prefectureCode": "11",
    "prefectureNumber": 11,
    "prefecture": "埼玉県",
    "city": "鴻巣市",
    "town": "東"
  },
  "3650041": {
    "zipcode": "3650041",
    "prefectureCode": "11",
    "prefectureNumber": 11,
    "prefecture": "埼玉県",
    "city": "鴻巣市",
    "town": "小松"
  },
  "3650042": {
    "zipcode": "3650042",
    "prefectureCode": "11",
    "prefectureNumber": 11,
    "prefecture": "埼玉県",
    "city": "鴻巣市",
    "town": "松原"
  },
  "3650043": {
    "zipcode": "3650043",
    "prefectureCode": "11",
    "prefectureNumber": 11,
    "prefecture": "埼玉県",
    "city": "鴻巣市",
    "town": "原馬室"
  },
  "3650044": {
    "zipcode": "3650044",
    "prefectureCode": "11",
    "prefectureNumber": 11,
    "prefecture": "埼玉県",
    "city": "鴻巣市",
    "town": "滝馬室"
  },
  "3650045": {
    "zipcode": "3650045",
    "prefectureCode": "11",
    "prefectureNumber": 11,
    "prefecture": "埼玉県",
    "city": "鴻巣市",
    "town": "氷川町"
  },
  "3650046": {
    "zipcode": "3650046",
    "prefectureCode": "11",
    "prefectureNumber": 11,
    "prefecture": "埼玉県",
    "city": "鴻巣市",
    "town": "富士見町"
  },
  "3650047": {
    "zipcode": "3650047",
    "prefectureCode": "11",
    "prefectureNumber": 11,
    "prefecture": "埼玉県",
    "city": "鴻巣市",
    "town": "逆川"
  },
  "3650051": {
    "zipcode": "3650051",
    "prefectureCode": "11",
    "prefectureNumber": 11,
    "prefecture": "埼玉県",
    "city": "鴻巣市",
    "town": "宮前"
  },
  "3650052": {
    "zipcode": "3650052",
    "prefectureCode": "11",
    "prefectureNumber": 11,
    "prefecture": "埼玉県",
    "city": "鴻巣市",
    "town": "登戸"
  },
  "3650053": {
    "zipcode": "3650053",
    "prefectureCode": "11",
    "prefectureNumber": 11,
    "prefecture": "埼玉県",
    "city": "鴻巣市",
    "town": "緑町"
  },
  "3650054": {
    "zipcode": "3650054",
    "prefectureCode": "11",
    "prefectureNumber": 11,
    "prefecture": "埼玉県",
    "city": "鴻巣市",
    "town": "大間"
  },
  "3650055": {
    "zipcode": "3650055",
    "prefectureCode": "11",
    "prefectureNumber": 11,
    "prefecture": "埼玉県",
    "city": "鴻巣市",
    "town": "栄町"
  },
  "3650056": {
    "zipcode": "3650056",
    "prefectureCode": "11",
    "prefectureNumber": 11,
    "prefecture": "埼玉県",
    "city": "鴻巣市",
    "town": "堤町"
  },
  "3650057": {
    "zipcode": "3650057",
    "prefectureCode": "11",
    "prefectureNumber": 11,
    "prefecture": "埼玉県",
    "city": "鴻巣市",
    "town": "幸町"
  },
  "3650058": {
    "zipcode": "3650058",
    "prefectureCode": "11",
    "prefectureNumber": 11,
    "prefecture": "埼玉県",
    "city": "鴻巣市",
    "town": "北中野"
  },
  "3650059": {
    "zipcode": "3650059",
    "prefectureCode": "11",
    "prefectureNumber": 11,
    "prefecture": "埼玉県",
    "city": "鴻巣市",
    "town": "糠田"
  },
  "3650061": {
    "zipcode": "3650061",
    "prefectureCode": "11",
    "prefectureNumber": 11,
    "prefecture": "埼玉県",
    "city": "鴻巣市",
    "town": "川面"
  },
  "3650062": {
    "zipcode": "3650062",
    "prefectureCode": "11",
    "prefectureNumber": 11,
    "prefecture": "埼玉県",
    "city": "鴻巣市",
    "town": "箕田"
  },
  "3650063": {
    "zipcode": "3650063",
    "prefectureCode": "11",
    "prefectureNumber": 11,
    "prefecture": "埼玉県",
    "city": "鴻巣市",
    "town": "稲荷町"
  },
  "3650064": {
    "zipcode": "3650064",
    "prefectureCode": "11",
    "prefectureNumber": 11,
    "prefecture": "埼玉県",
    "city": "鴻巣市",
    "town": "赤見台"
  },
  "3650065": {
    "zipcode": "3650065",
    "prefectureCode": "11",
    "prefectureNumber": 11,
    "prefecture": "埼玉県",
    "city": "鴻巣市",
    "town": "中井"
  },
  "3650066": {
    "zipcode": "3650066",
    "prefectureCode": "11",
    "prefectureNumber": 11,
    "prefecture": "埼玉県",
    "city": "鴻巣市",
    "town": "三ツ木"
  },
  "3650067": {
    "zipcode": "3650067",
    "prefectureCode": "11",
    "prefectureNumber": 11,
    "prefecture": "埼玉県",
    "city": "鴻巣市",
    "town": "すみれ野"
  },
  "3650068": {
    "zipcode": "3650068",
    "prefectureCode": "11",
    "prefectureNumber": 11,
    "prefecture": "埼玉県",
    "city": "鴻巣市",
    "town": "愛の町"
  },
  "3650071": {
    "zipcode": "3650071",
    "prefectureCode": "11",
    "prefectureNumber": 11,
    "prefecture": "埼玉県",
    "city": "鴻巣市",
    "town": "寺谷"
  },
  "3650072": {
    "zipcode": "3650072",
    "prefectureCode": "11",
    "prefectureNumber": 11,
    "prefecture": "埼玉県",
    "city": "鴻巣市",
    "town": "市ノ縄"
  },
  "3650073": {
    "zipcode": "3650073",
    "prefectureCode": "11",
    "prefectureNumber": 11,
    "prefecture": "埼玉県",
    "city": "鴻巣市",
    "town": "八幡田"
  },
  "3650074": {
    "zipcode": "3650074",
    "prefectureCode": "11",
    "prefectureNumber": 11,
    "prefecture": "埼玉県",
    "city": "鴻巣市",
    "town": "神明"
  },
  "3650075": {
    "zipcode": "3650075",
    "prefectureCode": "11",
    "prefectureNumber": 11,
    "prefecture": "埼玉県",
    "city": "鴻巣市",
    "town": "宮地"
  },
  "3650076": {
    "zipcode": "3650076",
    "prefectureCode": "11",
    "prefectureNumber": 11,
    "prefecture": "埼玉県",
    "city": "鴻巣市",
    "town": "本宮町"
  },
  "3650077": {
    "zipcode": "3650077",
    "prefectureCode": "11",
    "prefectureNumber": 11,
    "prefecture": "埼玉県",
    "city": "鴻巣市",
    "town": "雷電"
  },
  "3650078": {
    "zipcode": "3650078",
    "prefectureCode": "11",
    "prefectureNumber": 11,
    "prefecture": "埼玉県",
    "city": "鴻巣市",
    "town": "加美"
  }
}
