{
  "3680000": {
    "zipcode": "3680000",
    "prefectureCode": "11",
    "prefectureNumber": 11,
    "prefecture": "埼玉県",
    "city": "秩父郡横瀬町",
    "town": "以下に掲載がない場合"
  },
  "3680001": {
    "zipcode": "3680001",
    "prefectureCode": "11",
    "prefectureNumber": 11,
    "prefecture": "埼玉県",
    "city": "秩父市",
    "town": "黒谷"
  },
  "3680002": {
    "zipcode": "3680002",
    "prefectureCode": "11",
    "prefectureNumber": 11,
    "prefecture": "埼玉県",
    "city": "秩父市",
    "town": "栃谷"
  },
  "3680003": {
    "zipcode": "3680003",
    "prefectureCode": "11",
    "prefectureNumber": 11,
    "prefecture": "埼玉県",
    "city": "秩父市",
    "town": "定峰"
  },
  "3680004": {
    "zipcode": "3680004",
    "prefectureCode": "11",
    "prefectureNumber": 11,
    "prefecture": "埼玉県",
    "city": "秩父市",
    "town": "山田"
  },
  "3680005": {
    "zipcode": "3680005",
    "prefectureCode": "11",
    "prefectureNumber": 11,
    "prefecture": "埼玉県",
    "city": "秩父市",
    "town": "大野原"
  },
  "3680011": {
    "zipcode": "3680011",
    "prefectureCode": "11",
    "prefectureNumber": 11,
    "prefecture": "埼玉県",
    "city": "秩父市",
    "town": "大畑町"
  },
  "3680012": {
    "zipcode": "3680012",
    "prefectureCode": "11",
    "prefectureNumber": 11,
    "prefecture": "埼玉県",
    "city": "秩父市",
    "town": "滝の上町"
  },
  "3680013": {
    "zipcode": "3680013",
    "prefectureCode": "11",
    "prefectureNumber": 11,
    "prefecture": "埼玉県",
    "city": "秩父市",
    "town": "永田町"
  },
  "3680014": {
    "zipcode": "3680014",
    "prefectureCode": "11",
    "prefectureNumber": 11,
    "prefecture": "埼玉県",
    "city": "秩父市",
    "town": "金室町"
  },
  "3680015": {
    "zipcode": "3680015",
    "prefectureCode": "11",
    "prefectureNumber": 11,
    "prefecture": "埼玉県",
    "city": "秩父市",
    "town": "柳田町"
  },
  "3680016": {
    "zipcode": "3680016",
    "prefectureCode": "11",
    "prefectureNumber": 11,
    "prefecture": "埼玉県",
    "city": "秩父市",
    "town": "阿保町"
  },
  "3680021": {
    "zipcode": "3680021",
    "prefectureCode": "11",
    "prefectureNumber": 11,
    "prefecture": "埼玉県",
    "city": "秩父市",
    "town": "下宮地町"
  },
  "3680022": {
    "zipcode": "3680022",
    "prefectureCode": "11",
    "prefectureNumber": 11,
    "prefecture": "埼玉県",
    "city": "秩父市",
    "town": "中宮地町"
  },
  "3680023": {
    "zipcode": "3680023",
    "prefectureCode": "11",
    "prefectureNumber": 11,
    "prefecture": "埼玉県",
    "city": "秩父市",
    "town": "大宮"
  },
  "3680024": {
    "zipcode": "3680024",
    "prefectureCode": "11",
    "prefectureNumber": 11,
    "prefecture": "埼玉県",
    "city": "秩父市",
    "town": "上宮地町"
  },
  "3680025": {
    "zipcode": "3680025",
    "prefectureCode": "11",
    "prefectureNumber": 11,
    "prefecture": "埼玉県",
    "city": "秩父市",
    "town": "桜木町"
  },
  "3680026": {
    "zipcode": "3680026",
    "prefectureCode": "11",
    "prefectureNumber": 11,
    "prefecture": "埼玉県",
    "city": "秩父市",
    "town": "相生町"
  },
  "3680031": {
    "zipcode": "3680031",
    "prefectureCode": "11",
    "prefectureNumber": 11,
    "prefecture": "埼玉県",
    "city": "秩父市",
    "town": "上野町"
  },
  "3680032": {
    "zipcode": "3680032",
    "prefectureCode": "11",
    "prefectureNumber": 11,
    "prefecture": "埼玉県",
    "city": "秩父市",
    "town": "熊木町"
  },
  "3680033": {
    "zipcode": "3680033",
    "prefectureCode": "11",
    "prefectureNumber": 11,
    "prefecture": "埼玉県",
    "city": "秩父市",
    "town": "野坂町"
  },
  "3680034": {
    "zipcode": "3680034",
    "prefectureCode": "11",
    "prefectureNumber": 11,
    "prefecture": "埼玉県",
    "city": "秩父市",
    "town": "日野田町"
  },
  "3680035": {
    "zipcode": "3680035",
    "prefectureCode": "11",
    "prefectureNumber": 11,
    "prefecture": "埼玉県",
    "city": "秩父市",
    "town": "上町"
  },
  "3680041": {
    "zipcode": "3680041",
    "prefectureCode": "11",
    "prefectureNumber": 11,
    "prefecture": "埼玉県",
    "city": "秩父市",
    "town": "番場町"
  },
  "3680042": {
    "zipcode": "3680042",
    "prefectureCode": "11",
    "prefectureNumber": 11,
    "prefecture": "埼玉県",
    "city": "秩父市",
    "town": "東町"
  },
  "3680043": {
    "zipcode": "3680043",
    "prefectureCode": "11",
    "prefectureNumber": 11,
    "prefecture": "埼玉県",
    "city": "秩父市",
    "town": "中町"
  },
  "3680044": {
    "zipcode": "3680044",
    "prefectureCode": "11",
    "prefectureNumber": 11,
    "prefecture": "埼玉県",
    "city": "秩父市",
    "town": "本町"
  },
  "3680045": {
    "zipcode": "3680045",
    "prefectureCode": "11",
    "prefectureNumber": 11,
    "prefecture": "埼玉県",
    "city": "秩父市",
    "town": "道生町"
  },
  "3680046": {
    "zipcode": "3680046",
    "prefectureCode": "11",
    "prefectureNumber": 11,
    "prefecture": "埼玉県",
    "city": "秩父市",
    "town": "宮側町"
  },
  "3680051": {
    "zipcode": "3680051",
    "prefectureCode": "11",
    "prefectureNumber": 11,
    "prefecture": "埼玉県",
    "city": "秩父市",
    "town": "中村町"
  },
  "3680052": {
    "zipcode": "3680052",
    "prefectureCode": "11",
    "prefectureNumber": 11,
    "prefecture": "埼玉県",
    "city": "秩父市",
    "town": "近戸町"
  },
  "3680053": {
    "zipcode": "3680053",
    "prefectureCode": "11",
    "prefectureNumber": 11,
    "prefecture": "埼玉県",
    "city": "秩父市",
    "town": "久那"
  },
  "3680054": {
    "zipcode": "3680054",
    "prefectureCode": "11",
    "prefectureNumber": 11,
    "prefecture": "埼玉県",
    "city": "秩父市",
    "town": "別所"
  },
  "3680055": {
    "zipcode": "3680055",
    "prefectureCode": "11",
    "prefectureNumber": 11,
    "prefecture": "埼玉県",
    "city": "秩父市",
    "town": "田村"
  },
  "3680056": {
    "zipcode": "3680056",
    "prefectureCode": "11",
    "prefectureNumber": 11,
    "prefecture": "埼玉県",
    "city": "秩父市",
    "town": "寺尾"
  },
  "3680061": {
    "zipcode": "3680061",
    "prefectureCode": "11",
    "prefectureNumber": 11,
    "prefecture": "埼玉県",
    "city": "秩父市",
    "town": "小柱"
  },
  "3680062": {
    "zipcode": "3680062",
    "prefectureCode": "11",
    "prefectureNumber": 11,
    "prefecture": "埼玉県",
    "city": "秩父市",
    "town": "蒔田"
  },
  "3680063": {
    "zipcode": "3680063",
    "prefectureCode": "11",
    "prefectureNumber": 11,
    "prefecture": "埼玉県",
    "city": "秩父市",
    "town": "伊古田"
  },
  "3680064": {
    "zipcode": "3680064",
    "prefectureCode": "11",
    "prefectureNumber": 11,
    "prefecture": "埼玉県",
    "city": "秩父市",
    "town": "品沢"
  },
  "3680065": {
    "zipcode": "3680065",
    "prefectureCode": "11",
    "prefectureNumber": 11,
    "prefecture": "埼玉県",
    "city": "秩父市",
    "town": "太田"
  },
  "3680066": {
    "zipcode": "3680066",
    "prefectureCode": "11",
    "prefectureNumber": 11,
    "prefecture": "埼玉県",
    "city": "秩父市",
    "town": "堀切"
  },
  "3680067": {
    "zipcode": "3680067",
    "prefectureCode": "11",
    "prefectureNumber": 11,
    "prefecture": "埼玉県",
    "city": "秩父市",
    "town": "みどりが丘"
  },
  "3680071": {
    "zipcode": "3680071",
    "prefectureCode": "11",
    "prefectureNumber": 11,
    "prefecture": "埼玉県",
    "city": "秩父郡横瀬町",
    "town": "芦ケ久保"
  },
  "3680072": {
    "zipcode": "3680072",
    "prefectureCode": "11",
    "prefectureNumber": 11,
    "prefecture": "埼玉県",
    "city": "秩父郡横瀬町",
    "town": "横瀬"
  },
  "3680100": {
    "zipcode": "3680100",
    "prefectureCode": "11",
    "prefectureNumber": 11,
    "prefecture": "埼玉県",
    "city": "秩父郡小鹿野町",
    "town": "以下に掲載がない場合"
  },
  "3680101": {
    "zipcode": "3680101",
    "prefectureCode": "11",
    "prefectureNumber": 11,
    "prefecture": "埼玉県",
    "city": "秩父郡小鹿野町",
    "town": "下小鹿野"
  },
  "3680102": {
    "zipcode": "3680102",
    "prefectureCode": "11",
    "prefectureNumber": 11,
    "prefecture": "埼玉県",
    "city": "秩父郡小鹿野町",
    "town": "長留"
  },
  "3680103": {
    "zipcode": "3680103",
    "prefectureCode": "11",
    "prefectureNumber": 11,
    "prefecture": "埼玉県",
    "city": "秩父郡小鹿野町",
    "town": "般若"
  },
  "3680104": {
    "zipcode": "3680104",
    "prefectureCode": "11",
    "prefectureNumber": 11,
    "prefecture": "埼玉県",
    "city": "秩父郡小鹿野町",
    "town": "伊豆沢"
  },
  "3680105": {
    "zipcode": "3680105",
    "prefectureCode": "11",
    "prefectureNumber": 11,
    "prefecture": "埼玉県",
    "city": "秩父郡小鹿野町",
    "town": "小鹿野"
  },
  "3680111": {
    "zipcode": "3680111",
    "prefectureCode": "11",
    "prefectureNumber": 11,
    "prefecture": "埼玉県",
    "city": "秩父郡小鹿野町",
    "town": "飯田"
  },
  "3680112": {
    "zipcode": "3680112",
    "prefectureCode": "11",
    "prefectureNumber": 11,
    "prefecture": "埼玉県",
    "city": "秩父郡小鹿野町",
    "town": "三山"
  },
  "3680113": {
    "zipcode": "3680113",
    "prefectureCode": "11",
    "prefectureNumber": 11,
    "prefecture": "埼玉県",
    "city": "秩父郡小鹿野町",
    "town": "河原沢"
  },
  "3680114": {
    "zipcode": "3680114",
    "prefectureCode": "11",
    "prefectureNumber": 11,
    "prefecture": "埼玉県",
    "city": "秩父郡小鹿野町",
    "town": "藤倉"
  },
  "3680115": {
    "zipcode": "3680115",
    "prefectureCode": "11",
    "prefectureNumber": 11,
    "prefecture": "埼玉県",
    "city": "秩父郡小鹿野町",
    "town": "日尾"
  },
  "3680201": {
    "zipcode": "3680201",
    "prefectureCode": "11",
    "prefectureNumber": 11,
    "prefecture": "埼玉県",
    "city": "秩父郡小鹿野町",
    "town": "両神薄"
  },
  "3680202": {
    "zipcode": "3680202",
    "prefectureCode": "11",
    "prefectureNumber": 11,
    "prefecture": "埼玉県",
    "city": "秩父郡小鹿野町",
    "town": "両神小森"
  }
}
