{
  "3690101": {
    "zipcode": "3690101",
    "prefectureCode": "11",
    "prefectureNumber": 11,
    "prefecture": "埼玉県",
    "city": "熊谷市",
    "town": "津田"
  },
  "3690102": {
    "zipcode": "3690102",
    "prefectureCode": "11",
    "prefectureNumber": 11,
    "prefecture": "埼玉県",
    "city": "熊谷市",
    "town": "玉作"
  },
  "3690103": {
    "zipcode": "3690103",
    "prefectureCode": "11",
    "prefectureNumber": 11,
    "prefecture": "埼玉県",
    "city": "熊谷市",
    "town": "小八林"
  },
  "3690104": {
    "zipcode": "3690104",
    "prefectureCode": "11",
    "prefectureNumber": 11,
    "prefecture": "埼玉県",
    "city": "熊谷市",
    "town": "冑山"
  },
  "3690105": {
    "zipcode": "3690105",
    "prefectureCode": "11",
    "prefectureNumber": 11,
    "prefecture": "埼玉県",
    "city": "熊谷市",
    "town": "箕輪"
  },
  "3690106": {
    "zipcode": "3690106",
    "prefectureCode": "11",
    "prefectureNumber": 11,
    "prefecture": "埼玉県",
    "city": "熊谷市",
    "town": "相上"
  },
  "3690107": {
    "zipcode": "3690107",
    "prefectureCode": "11",
    "prefectureNumber": 11,
    "prefecture": "埼玉県",
    "city": "熊谷市",
    "town": "向谷"
  },
  "3690108": {
    "zipcode": "3690108",
    "prefectureCode": "11",
    "prefectureNumber": 11,
    "prefecture": "埼玉県",
    "city": "熊谷市",
    "town": "船木台"
  },
  "3690111": {
    "zipcode": "3690111",
    "prefectureCode": "11",
    "prefectureNumber": 11,
    "prefecture": "埼玉県",
    "city": "鴻巣市",
    "town": "新宿"
  },
  "3690112": {
    "zipcode": "3690112",
    "prefectureCode": "11",
    "prefectureNumber": 11,
    "prefecture": "埼玉県",
    "city": "鴻巣市",
    "town": "鎌塚"
  },
  "3690113": {
    "zipcode": "3690113",
    "prefectureCode": "11",
    "prefectureNumber": 11,
    "prefecture": "埼玉県",
    "city": "鴻巣市",
    "town": "下忍"
  },
  "3690114": {
    "zipcode": "3690114",
    "prefectureCode": "11",
    "prefectureNumber": 11,
    "prefecture": "埼玉県",
    "city": "鴻巣市",
    "town": "筑波"
  },
  "3690115": {
    "zipcode": "3690115",
    "prefectureCode": "11",
    "prefectureNumber": 11,
    "prefecture": "埼玉県",
    "city": "鴻巣市",
    "town": "吹上本町"
  },
  "3690116": {
    "zipcode": "3690116",
    "prefectureCode": "11",
    "prefectureNumber": 11,
    "prefecture": "埼玉県",
    "city": "鴻巣市",
    "town": "北新宿"
  },
  "3690121": {
    "zipcode": "3690121",
    "prefectureCode": "11",
    "prefectureNumber": 11,
    "prefecture": "埼玉県",
    "city": "鴻巣市",
    "town": "吹上富士見"
  },
  "3690122": {
    "zipcode": "3690122",
    "prefectureCode": "11",
    "prefectureNumber": 11,
    "prefecture": "埼玉県",
    "city": "鴻巣市",
    "town": "南"
  },
  "3690123": {
    "zipcode": "3690123",
    "prefectureCode": "11",
    "prefectureNumber": 11,
    "prefecture": "埼玉県",
    "city": "鴻巣市",
    "town": "榎戸"
  },
  "3690124": {
    "zipcode": "3690124",
    "prefectureCode": "11",
    "prefectureNumber": 11,
    "prefecture": "埼玉県",
    "city": "鴻巣市",
    "town": "荊原"
  },
  "3690131": {
    "zipcode": "3690131",
    "prefectureCode": "11",
    "prefectureNumber": 11,
    "prefecture": "埼玉県",
    "city": "鴻巣市",
    "town": "袋"
  },
  "3690132": {
    "zipcode": "3690132",
    "prefectureCode": "11",
    "prefectureNumber": 11,
    "prefecture": "埼玉県",
    "city": "鴻巣市",
    "town": "前砂"
  },
  "3690133": {
    "zipcode": "3690133",
    "prefectureCode": "11",
    "prefectureNumber": 11,
    "prefecture": "埼玉県",
    "city": "鴻巣市",
    "town": "小谷"
  },
  "3690134": {
    "zipcode": "3690134",
    "prefectureCode": "11",
    "prefectureNumber": 11,
    "prefecture": "埼玉県",
    "city": "鴻巣市",
    "town": "三町免"
  },
  "3690135": {
    "zipcode": "3690135",
    "prefectureCode": "11",
    "prefectureNumber": 11,
    "prefecture": "埼玉県",
    "city": "鴻巣市",
    "town": "明用"
  },
  "3690136": {
    "zipcode": "3690136",
    "prefectureCode": "11",
    "prefectureNumber": 11,
    "prefecture": "埼玉県",
    "city": "鴻巣市",
    "town": "吹上"
  },
  "3690137": {
    "zipcode": "3690137",
    "prefectureCode": "11",
    "prefectureNumber": 11,
    "prefecture": "埼玉県",
    "city": "鴻巣市",
    "town": "大芦"
  },
  "3690201": {
    "zipcode": "3690201",
    "prefectureCode": "11",
    "prefectureNumber": 11,
    "prefecture": "埼玉県",
    "city": "深谷市",
    "town": "岡"
  },
  "3690202": {
    "zipcode": "3690202",
    "prefectureCode": "11",
    "prefectureNumber": 11,
    "prefecture": "埼玉県",
    "city": "深谷市",
    "town": "岡里"
  },
  "3690203": {
    "zipcode": "3690203",
    "prefectureCode": "11",
    "prefectureNumber": 11,
    "prefecture": "埼玉県",
    "city": "深谷市",
    "town": "普済寺"
  },
  "3690211": {
    "zipcode": "3690211",
    "prefectureCode": "11",
    "prefectureNumber": 11,
    "prefecture": "埼玉県",
    "city": "深谷市",
    "town": "岡部"
  },
  "3690212": {
    "zipcode": "3690212",
    "prefectureCode": "11",
    "prefectureNumber": 11,
    "prefecture": "埼玉県",
    "city": "深谷市",
    "town": "櫛挽"
  },
  "3690213": {
    "zipcode": "3690213",
    "prefectureCode": "11",
    "prefectureNumber": 11,
    "prefecture": "埼玉県",
    "city": "深谷市",
    "town": "針ケ谷"
  },
  "3690214": {
    "zipcode": "3690214",
    "prefectureCode": "11",
    "prefectureNumber": 11,
    "prefecture": "埼玉県",
    "city": "深谷市",
    "town": "本郷"
  },
  "3690215": {
    "zipcode": "3690215",
    "prefectureCode": "11",
    "prefectureNumber": 11,
    "prefecture": "埼玉県",
    "city": "深谷市",
    "town": "今泉"
  },
  "3690216": {
    "zipcode": "3690216",
    "prefectureCode": "11",
    "prefectureNumber": 11,
    "prefecture": "埼玉県",
    "city": "深谷市",
    "town": "山崎"
  },
  "3690217": {
    "zipcode": "3690217",
    "prefectureCode": "11",
    "prefectureNumber": 11,
    "prefecture": "埼玉県",
    "city": "深谷市",
    "town": "山河"
  },
  "3690221": {
    "zipcode": "3690221",
    "prefectureCode": "11",
    "prefectureNumber": 11,
    "prefecture": "埼玉県",
    "city": "深谷市",
    "town": "榛沢新田"
  },
  "3690222": {
    "zipcode": "3690222",
    "prefectureCode": "11",
    "prefectureNumber": 11,
    "prefecture": "埼玉県",
    "city": "深谷市",
    "town": "後榛沢"
  },
  "3690223": {
    "zipcode": "3690223",
    "prefectureCode": "11",
    "prefectureNumber": 11,
    "prefecture": "埼玉県",
    "city": "深谷市",
    "town": "榛沢"
  },
  "3690224": {
    "zipcode": "3690224",
    "prefectureCode": "11",
    "prefectureNumber": 11,
    "prefecture": "埼玉県",
    "city": "深谷市",
    "town": "西田"
  },
  "3690225": {
    "zipcode": "3690225",
    "prefectureCode": "11",
    "prefectureNumber": 11,
    "prefecture": "埼玉県",
    "city": "深谷市",
    "town": "沓掛"
  },
  "3690300": {
    "zipcode": "3690300",
    "prefectureCode": "11",
    "prefectureNumber": 11,
    "prefecture": "埼玉県",
    "city": "児玉郡上里町",
    "town": "以下に掲載がない場合"
  },
  "3690301": {
    "zipcode": "3690301",
    "prefectureCode": "11",
    "prefectureNumber": 11,
    "prefecture": "埼玉県",
    "city": "児玉郡上里町",
    "town": "金久保"
  },
  "3690302": {
    "zipcode": "3690302",
    "prefectureCode": "11",
    "prefectureNumber": 11,
    "prefecture": "埼玉県",
    "city": "児玉郡上里町",
    "town": "黛"
  },
  "3690303": {
    "zipcode": "3690303",
    "prefectureCode": "11",
    "prefectureNumber": 11,
    "prefecture": "埼玉県",
    "city": "児玉郡上里町",
    "town": "忍保"
  },
  "3690304": {
    "zipcode": "3690304",
    "prefectureCode": "11",
    "prefectureNumber": 11,
    "prefecture": "埼玉県",
    "city": "児玉郡上里町",
    "town": "八町河原"
  },
  "3690305": {
    "zipcode": "3690305",
    "prefectureCode": "11",
    "prefectureNumber": 11,
    "prefecture": "埼玉県",
    "city": "児玉郡上里町",
    "town": "神保原町"
  },
  "3690306": {
    "zipcode": "3690306",
    "prefectureCode": "11",
    "prefectureNumber": 11,
    "prefecture": "埼玉県",
    "city": "児玉郡上里町",
    "town": "七本木"
  },
  "3690307": {
    "zipcode": "3690307",
    "prefectureCode": "11",
    "prefectureNumber": 11,
    "prefecture": "埼玉県",
    "city": "児玉郡上里町",
    "town": "嘉美"
  },
  "3690308": {
    "zipcode": "3690308",
    "prefectureCode": "11",
    "prefectureNumber": 11,
    "prefecture": "埼玉県",
    "city": "児玉郡上里町",
    "town": "毘沙吐"
  },
  "3690311": {
    "zipcode": "3690311",
    "prefectureCode": "11",
    "prefectureNumber": 11,
    "prefecture": "埼玉県",
    "city": "児玉郡上里町",
    "town": "勅使河原"
  },
  "3690312": {
    "zipcode": "3690312",
    "prefectureCode": "11",
    "prefectureNumber": 11,
    "prefecture": "埼玉県",
    "city": "児玉郡上里町",
    "town": "帯刀"
  },
  "3690313": {
    "zipcode": "3690313",
    "prefectureCode": "11",
    "prefectureNumber": 11,
    "prefecture": "埼玉県",
    "city": "児玉郡上里町",
    "town": "堤"
  },
  "3690314": {
    "zipcode": "3690314",
    "prefectureCode": "11",
    "prefectureNumber": 11,
    "prefecture": "埼玉県",
    "city": "児玉郡上里町",
    "town": "三町"
  },
  "3690315": {
    "zipcode": "3690315",
    "prefectureCode": "11",
    "prefectureNumber": 11,
    "prefecture": "埼玉県",
    "city": "児玉郡上里町",
    "town": "大御堂"
  },
  "3690316": {
    "zipcode": "3690316",
    "prefectureCode": "11",
    "prefectureNumber": 11,
    "prefecture": "埼玉県",
    "city": "児玉郡上里町",
    "town": "長浜"
  },
  "3690317": {
    "zipcode": "3690317",
    "prefectureCode": "11",
    "prefectureNumber": 11,
    "prefecture": "埼玉県",
    "city": "児玉郡上里町",
    "town": "五明"
  },
  "3690318": {
    "zipcode": "3690318",
    "prefectureCode": "11",
    "prefectureNumber": 11,
    "prefecture": "埼玉県",
    "city": "児玉郡上里町",
    "town": "藤木戸"
  },
  "3691101": {
    "zipcode": "3691101",
    "prefectureCode": "11",
    "prefectureNumber": 11,
    "prefecture": "埼玉県",
    "city": "深谷市",
    "town": "長在家"
  },
  "3691102": {
    "zipcode": "3691102",
    "prefectureCode": "11",
    "prefectureNumber": 11,
    "prefecture": "埼玉県",
    "city": "深谷市",
    "town": "瀬山"
  },
  "3691103": {
    "zipcode": "3691103",
    "prefectureCode": "11",
    "prefectureNumber": 11,
    "prefecture": "埼玉県",
    "city": "深谷市",
    "town": "川本明戸"
  },
  "3691104": {
    "zipcode": "3691104",
    "prefectureCode": "11",
    "prefectureNumber": 11,
    "prefecture": "埼玉県",
    "city": "深谷市",
    "town": "菅沼"
  },
  "3691105": {
    "zipcode": "3691105",
    "prefectureCode": "11",
    "prefectureNumber": 11,
    "prefecture": "埼玉県",
    "city": "深谷市",
    "town": "本田"
  },
  "3691106": {
    "zipcode": "3691106",
    "prefectureCode": "11",
    "prefectureNumber": 11,
    "prefecture": "埼玉県",
    "city": "深谷市",
    "town": "白草台"
  },
  "3691107": {
    "zipcode": "3691107",
    "prefectureCode": "11",
    "prefectureNumber": 11,
    "prefecture": "埼玉県",
    "city": "深谷市",
    "town": "畠山"
  },
  "3691108": {
    "zipcode": "3691108",
    "prefectureCode": "11",
    "prefectureNumber": 11,
    "prefecture": "埼玉県",
    "city": "深谷市",
    "town": "田中"
  },
  "3691109": {
    "zipcode": "3691109",
    "prefectureCode": "11",
    "prefectureNumber": 11,
    "prefecture": "埼玉県",
    "city": "深谷市",
    "town": "上原"
  },
  "3691111": {
    "zipcode": "3691111",
    "prefectureCode": "11",
    "prefectureNumber": 11,
    "prefecture": "埼玉県",
    "city": "深谷市",
    "town": "武川"
  },
  "3691200": {
    "zipcode": "3691200",
    "prefectureCode": "11",
    "prefectureNumber": 11,
    "prefecture": "埼玉県",
    "city": "大里郡寄居町",
    "town": "以下に掲載がない場合"
  },
  "3691201": {
    "zipcode": "3691201",
    "prefectureCode": "11",
    "prefectureNumber": 11,
    "prefecture": "埼玉県",
    "city": "大里郡寄居町",
    "town": "用土"
  },
  "3691202": {
    "zipcode": "3691202",
    "prefectureCode": "11",
    "prefectureNumber": 11,
    "prefecture": "埼玉県",
    "city": "大里郡寄居町",
    "town": "桜沢"
  },
  "3691203": {
    "zipcode": "3691203",
    "prefectureCode": "11",
    "prefectureNumber": 11,
    "prefecture": "埼玉県",
    "city": "大里郡寄居町",
    "town": "寄居"
  },
  "3691204": {
    "zipcode": "3691204",
    "prefectureCode": "11",
    "prefectureNumber": 11,
    "prefecture": "埼玉県",
    "city": "大里郡寄居町",
    "town": "藤田"
  },
  "3691205": {
    "zipcode": "3691205",
    "prefectureCode": "11",
    "prefectureNumber": 11,
    "prefecture": "埼玉県",
    "city": "大里郡寄居町",
    "town": "末野"
  },
  "3691211": {
    "zipcode": "3691211",
    "prefectureCode": "11",
    "prefectureNumber": 11,
    "prefecture": "埼玉県",
    "city": "大里郡寄居町",
    "town": "赤浜"
  },
  "3691212": {
    "zipcode": "3691212",
    "prefectureCode": "11",
    "prefectureNumber": 11,
    "prefecture": "埼玉県",
    "city": "大里郡寄居町",
    "town": "西古里"
  },
  "3691213": {
    "zipcode": "3691213",
    "prefectureCode": "11",
    "prefectureNumber": 11,
    "prefecture": "埼玉県",
    "city": "大里郡寄居町",
    "town": "鷹巣"
  },
  "3691214": {
    "zipcode": "3691214",
    "prefectureCode": "11",
    "prefectureNumber": 11,
    "prefecture": "埼玉県",
    "city": "大里郡寄居町",
    "town": "今市"
  },
  "3691215": {
    "zipcode": "3691215",
    "prefectureCode": "11",
    "prefectureNumber": 11,
    "prefecture": "埼玉県",
    "city": "大里郡寄居町",
    "town": "牟礼"
  },
  "3691216": {
    "zipcode": "3691216",
    "prefectureCode": "11",
    "prefectureNumber": 11,
    "prefecture": "埼玉県",
    "city": "大里郡寄居町",
    "town": "富田"
  },
  "3691217": {
    "zipcode": "3691217",
    "prefectureCode": "11",
    "prefectureNumber": 11,
    "prefecture": "埼玉県",
    "city": "大里郡寄居町",
    "town": "小園"
  },
  "3691221": {
    "zipcode": "3691221",
    "prefectureCode": "11",
    "prefectureNumber": 11,
    "prefecture": "埼玉県",
    "city": "大里郡寄居町",
    "town": "保田原"
  },
  "3691222": {
    "zipcode": "3691222",
    "prefectureCode": "11",
    "prefectureNumber": 11,
    "prefecture": "埼玉県",
    "city": "大里郡寄居町",
    "town": "露梨子"
  },
  "3691223": {
    "zipcode": "3691223",
    "prefectureCode": "11",
    "prefectureNumber": 11,
    "prefecture": "埼玉県",
    "city": "大里郡寄居町",
    "town": "三ケ山"
  },
  "3691224": {
    "zipcode": "3691224",
    "prefectureCode": "11",
    "prefectureNumber": 11,
    "prefecture": "埼玉県",
    "city": "大里郡寄居町",
    "town": "鉢形"
  },
  "3691225": {
    "zipcode": "3691225",
    "prefectureCode": "11",
    "prefectureNumber": 11,
    "prefecture": "埼玉県",
    "city": "大里郡寄居町",
    "town": "西ノ入"
  },
  "3691231": {
    "zipcode": "3691231",
    "prefectureCode": "11",
    "prefectureNumber": 11,
    "prefecture": "埼玉県",
    "city": "大里郡寄居町",
    "town": "立原"
  },
  "3691232": {
    "zipcode": "3691232",
    "prefectureCode": "11",
    "prefectureNumber": 11,
    "prefecture": "埼玉県",
    "city": "大里郡寄居町",
    "town": "三品"
  },
  "3691233": {
    "zipcode": "3691233",
    "prefectureCode": "11",
    "prefectureNumber": 11,
    "prefecture": "埼玉県",
    "city": "大里郡寄居町",
    "town": "秋山"
  },
  "3691234": {
    "zipcode": "3691234",
    "prefectureCode": "11",
    "prefectureNumber": 11,
    "prefecture": "埼玉県",
    "city": "大里郡寄居町",
    "town": "折原"
  },
  "3691235": {
    "zipcode": "3691235",
    "prefectureCode": "11",
    "prefectureNumber": 11,
    "prefecture": "埼玉県",
    "city": "大里郡寄居町",
    "town": "風布"
  },
  "3691236": {
    "zipcode": "3691236",
    "prefectureCode": "11",
    "prefectureNumber": 11,
    "prefecture": "埼玉県",
    "city": "大里郡寄居町",
    "town": "金尾"
  },
  "3691241": {
    "zipcode": "3691241",
    "prefectureCode": "11",
    "prefectureNumber": 11,
    "prefecture": "埼玉県",
    "city": "深谷市",
    "town": "武蔵野"
  },
  "3691242": {
    "zipcode": "3691242",
    "prefectureCode": "11",
    "prefectureNumber": 11,
    "prefecture": "埼玉県",
    "city": "深谷市",
    "town": "北根"
  },
  "3691243": {
    "zipcode": "3691243",
    "prefectureCode": "11",
    "prefectureNumber": 11,
    "prefecture": "埼玉県",
    "city": "深谷市",
    "town": "永田"
  },
  "3691244": {
    "zipcode": "3691244",
    "prefectureCode": "11",
    "prefectureNumber": 11,
    "prefecture": "埼玉県",
    "city": "深谷市",
    "town": "黒田"
  },
  "3691245": {
    "zipcode": "3691245",
    "prefectureCode": "11",
    "prefectureNumber": 11,
    "prefecture": "埼玉県",
    "city": "深谷市",
    "town": "荒川"
  },
  "3691246": {
    "zipcode": "3691246",
    "prefectureCode": "11",
    "prefectureNumber": 11,
    "prefecture": "埼玉県",
    "city": "深谷市",
    "town": "小前田"
  },
  "3691247": {
    "zipcode": "3691247",
    "prefectureCode": "11",
    "prefectureNumber": 11,
    "prefecture": "埼玉県",
    "city": "深谷市",
    "town": "緑台"
  },
  "3691248": {
    "zipcode": "3691248",
    "prefectureCode": "11",
    "prefectureNumber": 11,
    "prefecture": "埼玉県",
    "city": "深谷市",
    "town": "花園"
  },
  "3691300": {
    "zipcode": "3691300",
    "prefectureCode": "11",
    "prefectureNumber": 11,
    "prefecture": "埼玉県",
    "city": "秩父郡長瀞町",
    "town": "以下に掲載がない場合"
  },
  "3691301": {
    "zipcode": "3691301",
    "prefectureCode": "11",
    "prefectureNumber": 11,
    "prefecture": "埼玉県",
    "city": "秩父郡長瀞町",
    "town": "矢那瀬"
  },
  "3691302": {
    "zipcode": "3691302",
    "prefectureCode": "11",
    "prefectureNumber": 11,
    "prefecture": "埼玉県",
    "city": "秩父郡長瀞町",
    "town": "野上下郷"
  },
  "3691303": {
    "zipcode": "3691303",
    "prefectureCode": "11",
    "prefectureNumber": 11,
    "prefecture": "埼玉県",
    "city": "秩父郡長瀞町",
    "town": "中野上"
  },
  "3691304": {
    "zipcode": "3691304",
    "prefectureCode": "11",
    "prefectureNumber": 11,
    "prefecture": "埼玉県",
    "city": "秩父郡長瀞町",
    "town": "本野上"
  },
  "3691305": {
    "zipcode": "3691305",
    "prefectureCode": "11",
    "prefectureNumber": 11,
    "prefecture": "埼玉県",
    "city": "秩父郡長瀞町",
    "town": "長瀞"
  },
  "3691311": {
    "zipcode": "3691311",
    "prefectureCode": "11",
    "prefectureNumber": 11,
    "prefecture": "埼玉県",
    "city": "秩父郡長瀞町",
    "town": "岩田"
  },
  "3691312": {
    "zipcode": "3691312",
    "prefectureCode": "11",
    "prefectureNumber": 11,
    "prefecture": "埼玉県",
    "city": "秩父郡長瀞町",
    "town": "井戸"
  },
  "3691313": {
    "zipcode": "3691313",
    "prefectureCode": "11",
    "prefectureNumber": 11,
    "prefecture": "埼玉県",
    "city": "秩父郡長瀞町",
    "town": "風布"
  },
  "3691400": {
    "zipcode": "3691400",
    "prefectureCode": "11",
    "prefectureNumber": 11,
    "prefecture": "埼玉県",
    "city": "秩父郡皆野町",
    "town": "以下に掲載がない場合"
  },
  "3691411": {
    "zipcode": "3691411",
    "prefectureCode": "11",
    "prefectureNumber": 11,
    "prefecture": "埼玉県",
    "city": "秩父郡皆野町",
    "town": "三沢"
  },
  "3691412": {
    "zipcode": "3691412",
    "prefectureCode": "11",
    "prefectureNumber": 11,
    "prefecture": "埼玉県",
    "city": "秩父郡皆野町",
    "town": "皆野"
  },
  "3691413": {
    "zipcode": "3691413",
    "prefectureCode": "11",
    "prefectureNumber": 11,
    "prefecture": "埼玉県",
    "city": "秩父郡皆野町",
    "town": "下田野"
  },
  "3691501": {
    "zipcode": "3691501",
    "prefectureCode": "11",
    "prefectureNumber": 11,
    "prefecture": "埼玉県",
    "city": "秩父市",
    "town": "吉田久長"
  },
  "3691502": {
    "zipcode": "3691502",
    "prefectureCode": "11",
    "prefectureNumber": 11,
    "prefecture": "埼玉県",
    "city": "秩父市",
    "town": "吉田阿熊"
  },
  "3691503": {
    "zipcode": "3691503",
    "prefectureCode": "11",
    "prefectureNumber": 11,
    "prefecture": "埼玉県",
    "city": "秩父市",
    "town": "下吉田"
  },
  "3691504": {
    "zipcode": "3691504",
    "prefectureCode": "11",
    "prefectureNumber": 11,
    "prefecture": "埼玉県",
    "city": "秩父市",
    "town": "吉田石間"
  },
  "3691505": {
    "zipcode": "3691505",
    "prefectureCode": "11",
    "prefectureNumber": 11,
    "prefecture": "埼玉県",
    "city": "秩父市",
    "town": "上吉田"
  },
  "3691601": {
    "zipcode": "3691601",
    "prefectureCode": "11",
    "prefectureNumber": 11,
    "prefecture": "埼玉県",
    "city": "秩父郡皆野町",
    "town": "金沢"
  },
  "3691621": {
    "zipcode": "3691621",
    "prefectureCode": "11",
    "prefectureNumber": 11,
    "prefecture": "埼玉県",
    "city": "秩父郡皆野町",
    "town": "金崎"
  },
  "3691622": {
    "zipcode": "3691622",
    "prefectureCode": "11",
    "prefectureNumber": 11,
    "prefecture": "埼玉県",
    "city": "秩父郡皆野町",
    "town": "国神"
  },
  "3691623": {
    "zipcode": "3691623",
    "prefectureCode": "11",
    "prefectureNumber": 11,
    "prefecture": "埼玉県",
    "city": "秩父郡皆野町",
    "town": "大淵"
  },
  "3691624": {
    "zipcode": "3691624",
    "prefectureCode": "11",
    "prefectureNumber": 11,
    "prefecture": "埼玉県",
    "city": "秩父郡皆野町",
    "town": "野巻"
  },
  "3691625": {
    "zipcode": "3691625",
    "prefectureCode": "11",
    "prefectureNumber": 11,
    "prefecture": "埼玉県",
    "city": "秩父郡皆野町",
    "town": "下日野沢"
  },
  "3691626": {
    "zipcode": "3691626",
    "prefectureCode": "11",
    "prefectureNumber": 11,
    "prefecture": "埼玉県",
    "city": "秩父郡皆野町",
    "town": "上日野沢"
  },
  "3691801": {
    "zipcode": "3691801",
    "prefectureCode": "11",
    "prefectureNumber": 11,
    "prefecture": "埼玉県",
    "city": "秩父市",
    "town": "荒川久那"
  },
  "3691802": {
    "zipcode": "3691802",
    "prefectureCode": "11",
    "prefectureNumber": 11,
    "prefecture": "埼玉県",
    "city": "秩父市",
    "town": "荒川上田野"
  },
  "3691803": {
    "zipcode": "3691803",
    "prefectureCode": "11",
    "prefectureNumber": 11,
    "prefecture": "埼玉県",
    "city": "秩父市",
    "town": "荒川日野"
  },
  "3691804": {
    "zipcode": "3691804",
    "prefectureCode": "11",
    "prefectureNumber": 11,
    "prefecture": "埼玉県",
    "city": "秩父市",
    "town": "荒川小野原"
  },
  "3691871": {
    "zipcode": "3691871",
    "prefectureCode": "11",
    "prefectureNumber": 11,
    "prefecture": "埼玉県",
    "city": "秩父市",
    "town": "下影森"
  },
  "3691872": {
    "zipcode": "3691872",
    "prefectureCode": "11",
    "prefectureNumber": 11,
    "prefecture": "埼玉県",
    "city": "秩父市",
    "town": "上影森"
  },
  "3691873": {
    "zipcode": "3691873",
    "prefectureCode": "11",
    "prefectureNumber": 11,
    "prefecture": "埼玉県",
    "city": "秩父市",
    "town": "浦山"
  },
  "3691874": {
    "zipcode": "3691874",
    "prefectureCode": "11",
    "prefectureNumber": 11,
    "prefecture": "埼玉県",
    "city": "秩父市",
    "town": "和泉町"
  },
  "3691901": {
    "zipcode": "3691901",
    "prefectureCode": "11",
    "prefectureNumber": 11,
    "prefecture": "埼玉県",
    "city": "秩父市",
    "town": "大滝"
  },
  "3691902": {
    "zipcode": "3691902",
    "prefectureCode": "11",
    "prefectureNumber": 11,
    "prefecture": "埼玉県",
    "city": "秩父市",
    "town": "三峰"
  },
  "3691903": {
    "zipcode": "3691903",
    "prefectureCode": "11",
    "prefectureNumber": 11,
    "prefecture": "埼玉県",
    "city": "秩父市",
    "town": "中津川"
  },
  "3691911": {
    "zipcode": "3691911",
    "prefectureCode": "11",
    "prefectureNumber": 11,
    "prefecture": "埼玉県",
    "city": "秩父市",
    "town": "荒川贄川"
  },
  "3691912": {
    "zipcode": "3691912",
    "prefectureCode": "11",
    "prefectureNumber": 11,
    "prefecture": "埼玉県",
    "city": "秩父市",
    "town": "荒川白久"
  }
}
