{
  "3700000": {
    "zipcode": "3700000",
    "prefectureCode": "10",
    "prefectureNumber": 10,
    "prefecture": "群馬県",
    "city": "高崎市",
    "town": "以下に掲載がない場合"
  },
  "3700001": {
    "zipcode": "3700001",
    "prefectureCode": "10",
    "prefectureNumber": 10,
    "prefecture": "群馬県",
    "city": "高崎市",
    "town": "中尾町"
  },
  "3700002": {
    "zipcode": "3700002",
    "prefectureCode": "10",
    "prefectureNumber": 10,
    "prefecture": "群馬県",
    "city": "高崎市",
    "town": "日高町"
  },
  "3700003": {
    "zipcode": "3700003",
    "prefectureCode": "10",
    "prefectureNumber": 10,
    "prefecture": "群馬県",
    "city": "高崎市",
    "town": "新保田中町"
  },
  "3700004": {
    "zipcode": "3700004",
    "prefectureCode": "10",
    "prefectureNumber": 10,
    "prefecture": "群馬県",
    "city": "高崎市",
    "town": "井野町"
  },
  "3700005": {
    "zipcode": "3700005",
    "prefectureCode": "10",
    "prefectureNumber": 10,
    "prefecture": "群馬県",
    "city": "高崎市",
    "town": "浜尻町"
  },
  "3700006": {
    "zipcode": "3700006",
    "prefectureCode": "10",
    "prefectureNumber": 10,
    "prefecture": "群馬県",
    "city": "高崎市",
    "town": "問屋町"
  },
  "3700007": {
    "zipcode": "3700007",
    "prefectureCode": "10",
    "prefectureNumber": 10,
    "prefecture": "群馬県",
    "city": "高崎市",
    "town": "問屋町西"
  },
  "3700008": {
    "zipcode": "3700008",
    "prefectureCode": "10",
    "prefectureNumber": 10,
    "prefecture": "群馬県",
    "city": "高崎市",
    "town": "正観寺町"
  },
  "3700011": {
    "zipcode": "3700011",
    "prefectureCode": "10",
    "prefectureNumber": 10,
    "prefecture": "群馬県",
    "city": "高崎市",
    "town": "京目町"
  },
  "3700012": {
    "zipcode": "3700012",
    "prefectureCode": "10",
    "prefectureNumber": 10,
    "prefecture": "群馬県",
    "city": "高崎市",
    "town": "大沢町"
  },
  "3700013": {
    "zipcode": "3700013",
    "prefectureCode": "10",
    "prefectureNumber": 10,
    "prefecture": "群馬県",
    "city": "高崎市",
    "town": "萩原町"
  },
  "3700014": {
    "zipcode": "3700014",
    "prefectureCode": "10",
    "prefectureNumber": 10,
    "prefecture": "群馬県",
    "city": "高崎市",
    "town": "元島名町"
  },
  "3700015": {
    "zipcode": "3700015",
    "prefectureCode": "10",
    "prefectureNumber": 10,
    "prefecture": "群馬県",
    "city": "高崎市",
    "town": "島野町"
  },
  "3700016": {
    "zipcode": "3700016",
    "prefectureCode": "10",
    "prefectureNumber": 10,
    "prefecture": "群馬県",
    "city": "高崎市",
    "town": "矢島町"
  },
  "3700017": {
    "zipcode": "3700017",
    "prefectureCode": "10",
    "prefectureNumber": 10,
    "prefecture": "群馬県",
    "city": "高崎市",
    "town": "西島町"
  },
  "3700018": {
    "zipcode": "3700018",
    "prefectureCode": "10",
    "prefectureNumber": 10,
    "prefecture": "群馬県",
    "city": "高崎市",
    "town": "新保町"
  },
  "3700021": {
    "zipcode": "3700021",
    "prefectureCode": "10",
    "prefectureNumber": 10,
    "prefecture": "群馬県",
    "city": "高崎市",
    "town": "西横手町"
  },
  "3700022": {
    "zipcode": "3700022",
    "prefectureCode": "10",
    "prefectureNumber": 10,
    "prefecture": "群馬県",
    "city": "高崎市",
    "town": "宿横手町"
  },
  "3700023": {
    "zipcode": "3700023",
    "prefectureCode": "10",
    "prefectureNumber": 10,
    "prefecture": "群馬県",
    "city": "高崎市",
    "town": "中島町"
  },
  "3700024": {
    "zipcode": "3700024",
    "prefectureCode": "10",
    "prefectureNumber": 10,
    "prefecture": "群馬県",
    "city": "高崎市",
    "town": "八幡原町"
  },
  "3700025": {
    "zipcode": "3700025",
    "prefectureCode": "10",
    "prefectureNumber": 10,
    "prefecture": "群馬県",
    "city": "高崎市",
    "town": "下斉田町"
  },
  "3700026": {
    "zipcode": "3700026",
    "prefectureCode": "10",
    "prefectureNumber": 10,
    "prefecture": "群馬県",
    "city": "高崎市",
    "town": "下滝町"
  },
  "3700027": {
    "zipcode": "3700027",
    "prefectureCode": "10",
    "prefectureNumber": 10,
    "prefecture": "群馬県",
    "city": "高崎市",
    "town": "上滝町"
  },
  "3700031": {
    "zipcode": "3700031",
    "prefectureCode": "10",
    "prefectureNumber": 10,
    "prefecture": "群馬県",
    "city": "高崎市",
    "town": "上大類町"
  },
  "3700032": {
    "zipcode": "3700032",
    "prefectureCode": "10",
    "prefectureNumber": 10,
    "prefecture": "群馬県",
    "city": "高崎市",
    "town": "宿大類町"
  },
  "3700033": {
    "zipcode": "3700033",
    "prefectureCode": "10",
    "prefectureNumber": 10,
    "prefecture": "群馬県",
    "city": "高崎市",
    "town": "中大類町"
  },
  "3700034": {
    "zipcode": "3700034",
    "prefectureCode": "10",
    "prefectureNumber": 10,
    "prefecture": "群馬県",
    "city": "高崎市",
    "town": "下大類町"
  },
  "3700035": {
    "zipcode": "3700035",
    "prefectureCode": "10",
    "prefectureNumber": 10,
    "prefecture": "群馬県",
    "city": "高崎市",
    "town": "柴崎町"
  },
  "3700036": {
    "zipcode": "3700036",
    "prefectureCode": "10",
    "prefectureNumber": 10,
    "prefecture": "群馬県",
    "city": "高崎市",
    "town": "南大類町"
  },
  "3700041": {
    "zipcode": "3700041",
    "prefectureCode": "10",
    "prefectureNumber": 10,
    "prefecture": "群馬県",
    "city": "高崎市",
    "town": "東貝沢町"
  },
  "3700042": {
    "zipcode": "3700042",
    "prefectureCode": "10",
    "prefectureNumber": 10,
    "prefecture": "群馬県",
    "city": "高崎市",
    "town": "貝沢町"
  },
  "3700043": {
    "zipcode": "3700043",
    "prefectureCode": "10",
    "prefectureNumber": 10,
    "prefecture": "群馬県",
    "city": "高崎市",
    "town": "高関町"
  },
  "3700044": {
    "zipcode": "3700044",
    "prefectureCode": "10",
    "prefectureNumber": 10,
    "prefecture": "群馬県",
    "city": "高崎市",
    "town": "岩押町"
  },
  "3700045": {
    "zipcode": "3700045",
    "prefectureCode": "10",
    "prefectureNumber": 10,
    "prefecture": "群馬県",
    "city": "高崎市",
    "town": "東町"
  },
  "3700046": {
    "zipcode": "3700046",
    "prefectureCode": "10",
    "prefectureNumber": 10,
    "prefecture": "群馬県",
    "city": "高崎市",
    "town": "江木町"
  },
  "3700047": {
    "zipcode": "3700047",
    "prefectureCode": "10",
    "prefectureNumber": 10,
    "prefecture": "群馬県",
    "city": "高崎市",
    "town": "高砂町"
  },
  "3700048": {
    "zipcode": "3700048",
    "prefectureCode": "10",
    "prefectureNumber": 10,
    "prefecture": "群馬県",
    "city": "高崎市",
    "town": "日光町"
  },
  "3700051": {
    "zipcode": "3700051",
    "prefectureCode": "10",
    "prefectureNumber": 10,
    "prefecture": "群馬県",
    "city": "高崎市",
    "town": "弓町"
  },
  "3700052": {
    "zipcode": "3700052",
    "prefectureCode": "10",
    "prefectureNumber": 10,
    "prefecture": "群馬県",
    "city": "高崎市",
    "town": "旭町"
  },
  "3700053": {
    "zipcode": "3700053",
    "prefectureCode": "10",
    "prefectureNumber": 10,
    "prefecture": "群馬県",
    "city": "高崎市",
    "town": "通町"
  },
  "3700054": {
    "zipcode": "3700054",
    "prefectureCode": "10",
    "prefectureNumber": 10,
    "prefecture": "群馬県",
    "city": "高崎市",
    "town": "真町"
  },
  "3700055": {
    "zipcode": "3700055",
    "prefectureCode": "10",
    "prefectureNumber": 10,
    "prefecture": "群馬県",
    "city": "高崎市",
    "town": "羅漢町"
  },
  "3700056": {
    "zipcode": "3700056",
    "prefectureCode": "10",
    "prefectureNumber": 10,
    "prefecture": "群馬県",
    "city": "高崎市",
    "town": "北通町"
  },
  "3700057": {
    "zipcode": "3700057",
    "prefectureCode": "10",
    "prefectureNumber": 10,
    "prefecture": "群馬県",
    "city": "高崎市",
    "town": "元紺屋町"
  },
  "3700058": {
    "zipcode": "3700058",
    "prefectureCode": "10",
    "prefectureNumber": 10,
    "prefecture": "群馬県",
    "city": "高崎市",
    "town": "九蔵町"
  },
  "3700059": {
    "zipcode": "3700059",
    "prefectureCode": "10",
    "prefectureNumber": 10,
    "prefecture": "群馬県",
    "city": "高崎市",
    "town": "椿町"
  },
  "3700061": {
    "zipcode": "3700061",
    "prefectureCode": "10",
    "prefectureNumber": 10,
    "prefecture": "群馬県",
    "city": "高崎市",
    "town": "天神町"
  },
  "3700062": {
    "zipcode": "3700062",
    "prefectureCode": "10",
    "prefectureNumber": 10,
    "prefecture": "群馬県",
    "city": "高崎市",
    "town": "稲荷町"
  },
  "3700063": {
    "zipcode": "3700063",
    "prefectureCode": "10",
    "prefectureNumber": 10,
    "prefecture": "群馬県",
    "city": "高崎市",
    "town": "飯玉町"
  },
  "3700064": {
    "zipcode": "3700064",
    "prefectureCode": "10",
    "prefectureNumber": 10,
    "prefecture": "群馬県",
    "city": "高崎市",
    "town": "芝塚町"
  },
  "3700065": {
    "zipcode": "3700065",
    "prefectureCode": "10",
    "prefectureNumber": 10,
    "prefecture": "群馬県",
    "city": "高崎市",
    "town": "末広町"
  },
  "3700066": {
    "zipcode": "3700066",
    "prefectureCode": "10",
    "prefectureNumber": 10,
    "prefecture": "群馬県",
    "city": "高崎市",
    "town": "山田町"
  },
  "3700067": {
    "zipcode": "3700067",
    "prefectureCode": "10",
    "prefectureNumber": 10,
    "prefecture": "群馬県",
    "city": "高崎市",
    "town": "請地町"
  },
  "3700068": {
    "zipcode": "3700068",
    "prefectureCode": "10",
    "prefectureNumber": 10,
    "prefecture": "群馬県",
    "city": "高崎市",
    "town": "昭和町"
  },
  "3700069": {
    "zipcode": "3700069",
    "prefectureCode": "10",
    "prefectureNumber": 10,
    "prefecture": "群馬県",
    "city": "高崎市",
    "town": "飯塚町"
  },
  "3700071": {
    "zipcode": "3700071",
    "prefectureCode": "10",
    "prefectureNumber": 10,
    "prefecture": "群馬県",
    "city": "高崎市",
    "town": "小八木町"
  },
  "3700072": {
    "zipcode": "3700072",
    "prefectureCode": "10",
    "prefectureNumber": 10,
    "prefecture": "群馬県",
    "city": "高崎市",
    "town": "大八木町"
  },
  "3700073": {
    "zipcode": "3700073",
    "prefectureCode": "10",
    "prefectureNumber": 10,
    "prefecture": "群馬県",
    "city": "高崎市",
    "town": "緑町"
  },
  "3700074": {
    "zipcode": "3700074",
    "prefectureCode": "10",
    "prefectureNumber": 10,
    "prefecture": "群馬県",
    "city": "高崎市",
    "town": "下小鳥町"
  },
  "3700075": {
    "zipcode": "3700075",
    "prefectureCode": "10",
    "prefectureNumber": 10,
    "prefecture": "群馬県",
    "city": "高崎市",
    "town": "筑縄町"
  },
  "3700076": {
    "zipcode": "3700076",
    "prefectureCode": "10",
    "prefectureNumber": 10,
    "prefecture": "群馬県",
    "city": "高崎市",
    "town": "下小塙町"
  },
  "3700077": {
    "zipcode": "3700077",
    "prefectureCode": "10",
    "prefectureNumber": 10,
    "prefecture": "群馬県",
    "city": "高崎市",
    "town": "上小塙町"
  },
  "3700078": {
    "zipcode": "3700078",
    "prefectureCode": "10",
    "prefectureNumber": 10,
    "prefecture": "群馬県",
    "city": "高崎市",
    "town": "上小鳥町"
  },
  "3700081": {
    "zipcode": "3700081",
    "prefectureCode": "10",
    "prefectureNumber": 10,
    "prefecture": "群馬県",
    "city": "高崎市",
    "town": "浜川町"
  },
  "3700082": {
    "zipcode": "3700082",
    "prefectureCode": "10",
    "prefectureNumber": 10,
    "prefecture": "群馬県",
    "city": "高崎市",
    "town": "北新波町"
  },
  "3700083": {
    "zipcode": "3700083",
    "prefectureCode": "10",
    "prefectureNumber": 10,
    "prefecture": "群馬県",
    "city": "高崎市",
    "town": "南新波町"
  },
  "3700084": {
    "zipcode": "3700084",
    "prefectureCode": "10",
    "prefectureNumber": 10,
    "prefecture": "群馬県",
    "city": "高崎市",
    "town": "菊地町"
  },
  "3700085": {
    "zipcode": "3700085",
    "prefectureCode": "10",
    "prefectureNumber": 10,
    "prefecture": "群馬県",
    "city": "高崎市",
    "town": "我峰町"
  },
  "3700086": {
    "zipcode": "3700086",
    "prefectureCode": "10",
    "prefectureNumber": 10,
    "prefecture": "群馬県",
    "city": "高崎市",
    "town": "沖町"
  },
  "3700087": {
    "zipcode": "3700087",
    "prefectureCode": "10",
    "prefectureNumber": 10,
    "prefecture": "群馬県",
    "city": "高崎市",
    "town": "楽間町"
  },
  "3700088": {
    "zipcode": "3700088",
    "prefectureCode": "10",
    "prefectureNumber": 10,
    "prefecture": "群馬県",
    "city": "高崎市",
    "town": "行力町"
  },
  "3700101": {
    "zipcode": "3700101",
    "prefectureCode": "10",
    "prefectureNumber": 10,
    "prefecture": "群馬県",
    "city": "伊勢崎市",
    "town": "境東新井"
  },
  "3700102": {
    "zipcode": "3700102",
    "prefectureCode": "10",
    "prefectureNumber": 10,
    "prefecture": "群馬県",
    "city": "伊勢崎市",
    "town": "境上渕名"
  },
  "3700103": {
    "zipcode": "3700103",
    "prefectureCode": "10",
    "prefectureNumber": 10,
    "prefecture": "群馬県",
    "city": "伊勢崎市",
    "town": "境下渕名"
  },
  "3700104": {
    "zipcode": "3700104",
    "prefectureCode": "10",
    "prefectureNumber": 10,
    "prefecture": "群馬県",
    "city": "伊勢崎市",
    "town": "境木島"
  },
  "3700105": {
    "zipcode": "3700105",
    "prefectureCode": "10",
    "prefectureNumber": 10,
    "prefecture": "群馬県",
    "city": "伊勢崎市",
    "town": "境伊与久"
  },
  "3700111": {
    "zipcode": "3700111",
    "prefectureCode": "10",
    "prefectureNumber": 10,
    "prefecture": "群馬県",
    "city": "伊勢崎市",
    "town": "境上矢島"
  },
  "3700112": {
    "zipcode": "3700112",
    "prefectureCode": "10",
    "prefectureNumber": 10,
    "prefecture": "群馬県",
    "city": "伊勢崎市",
    "town": "境西今井"
  },
  "3700113": {
    "zipcode": "3700113",
    "prefectureCode": "10",
    "prefectureNumber": 10,
    "prefecture": "群馬県",
    "city": "伊勢崎市",
    "town": "境三ツ木"
  },
  "3700114": {
    "zipcode": "3700114",
    "prefectureCode": "10",
    "prefectureNumber": 10,
    "prefecture": "群馬県",
    "city": "伊勢崎市",
    "town": "境新栄"
  },
  "3700115": {
    "zipcode": "3700115",
    "prefectureCode": "10",
    "prefectureNumber": 10,
    "prefecture": "群馬県",
    "city": "伊勢崎市",
    "town": "境美原"
  },
  "3700116": {
    "zipcode": "3700116",
    "prefectureCode": "10",
    "prefectureNumber": 10,
    "prefecture": "群馬県",
    "city": "伊勢崎市",
    "town": "境百々東"
  },
  "3700117": {
    "zipcode": "3700117",
    "prefectureCode": "10",
    "prefectureNumber": 10,
    "prefecture": "群馬県",
    "city": "伊勢崎市",
    "town": "境百々"
  },
  "3700121": {
    "zipcode": "3700121",
    "prefectureCode": "10",
    "prefectureNumber": 10,
    "prefecture": "群馬県",
    "city": "伊勢崎市",
    "town": "境女塚"
  },
  "3700122": {
    "zipcode": "3700122",
    "prefectureCode": "10",
    "prefectureNumber": 10,
    "prefecture": "群馬県",
    "city": "伊勢崎市",
    "town": "境栄"
  },
  "3700123": {
    "zipcode": "3700123",
    "prefectureCode": "10",
    "prefectureNumber": 10,
    "prefecture": "群馬県",
    "city": "伊勢崎市",
    "town": "境東"
  },
  "3700124": {
    "zipcode": "3700124",
    "prefectureCode": "10",
    "prefectureNumber": 10,
    "prefecture": "群馬県",
    "city": "伊勢崎市",
    "town": "境"
  },
  "3700125": {
    "zipcode": "3700125",
    "prefectureCode": "10",
    "prefectureNumber": 10,
    "prefecture": "群馬県",
    "city": "伊勢崎市",
    "town": "境萩原"
  },
  "3700126": {
    "zipcode": "3700126",
    "prefectureCode": "10",
    "prefectureNumber": 10,
    "prefecture": "群馬県",
    "city": "伊勢崎市",
    "town": "境下武士"
  },
  "3700127": {
    "zipcode": "3700127",
    "prefectureCode": "10",
    "prefectureNumber": 10,
    "prefecture": "群馬県",
    "city": "伊勢崎市",
    "town": "境上武士"
  },
  "3700128": {
    "zipcode": "3700128",
    "prefectureCode": "10",
    "prefectureNumber": 10,
    "prefecture": "群馬県",
    "city": "伊勢崎市",
    "town": "境保泉"
  },
  "3700131": {
    "zipcode": "3700131",
    "prefectureCode": "10",
    "prefectureNumber": 10,
    "prefecture": "群馬県",
    "city": "伊勢崎市",
    "town": "境米岡"
  },
  "3700132": {
    "zipcode": "3700132",
    "prefectureCode": "10",
    "prefectureNumber": 10,
    "prefecture": "群馬県",
    "city": "伊勢崎市",
    "town": "境平塚"
  },
  "3700133": {
    "zipcode": "3700133",
    "prefectureCode": "10",
    "prefectureNumber": 10,
    "prefecture": "群馬県",
    "city": "伊勢崎市",
    "town": "境中島"
  },
  "3700134": {
    "zipcode": "3700134",
    "prefectureCode": "10",
    "prefectureNumber": 10,
    "prefecture": "群馬県",
    "city": "伊勢崎市",
    "town": "境島村"
  },
  "3700135": {
    "zipcode": "3700135",
    "prefectureCode": "10",
    "prefectureNumber": 10,
    "prefecture": "群馬県",
    "city": "伊勢崎市",
    "town": "境小此木"
  },
  "3700301": {
    "zipcode": "3700301",
    "prefectureCode": "10",
    "prefectureNumber": 10,
    "prefecture": "群馬県",
    "city": "太田市",
    "town": "新田天良町"
  },
  "3700302": {
    "zipcode": "3700302",
    "prefectureCode": "10",
    "prefectureNumber": 10,
    "prefecture": "群馬県",
    "city": "太田市",
    "town": "新田小金町"
  },
  "3700303": {
    "zipcode": "3700303",
    "prefectureCode": "10",
    "prefectureNumber": 10,
    "prefecture": "群馬県",
    "city": "太田市",
    "town": "新田小金井町"
  },
  "3700304": {
    "zipcode": "3700304",
    "prefectureCode": "10",
    "prefectureNumber": 10,
    "prefecture": "群馬県",
    "city": "太田市",
    "town": "新田市町"
  },
  "3700305": {
    "zipcode": "3700305",
    "prefectureCode": "10",
    "prefectureNumber": 10,
    "prefecture": "群馬県",
    "city": "太田市",
    "town": "新田多村新田町"
  },
  "3700306": {
    "zipcode": "3700306",
    "prefectureCode": "10",
    "prefectureNumber": 10,
    "prefecture": "群馬県",
    "city": "太田市",
    "town": "新田市野倉町"
  },
  "3700311": {
    "zipcode": "3700311",
    "prefectureCode": "10",
    "prefectureNumber": 10,
    "prefecture": "群馬県",
    "city": "太田市",
    "town": "新田瑞木町"
  },
  "3700312": {
    "zipcode": "3700312",
    "prefectureCode": "10",
    "prefectureNumber": 10,
    "prefecture": "群馬県",
    "city": "太田市",
    "town": "新田村田町"
  },
  "3700313": {
    "zipcode": "3700313",
    "prefectureCode": "10",
    "prefectureNumber": 10,
    "prefecture": "群馬県",
    "city": "太田市",
    "town": "新田反町町"
  },
  "3700314": {
    "zipcode": "3700314",
    "prefectureCode": "10",
    "prefectureNumber": 10,
    "prefecture": "群馬県",
    "city": "太田市",
    "town": "新田市野井町"
  },
  "3700321": {
    "zipcode": "3700321",
    "prefectureCode": "10",
    "prefectureNumber": 10,
    "prefecture": "群馬県",
    "city": "太田市",
    "town": "新田木崎町"
  },
  "3700331": {
    "zipcode": "3700331",
    "prefectureCode": "10",
    "prefectureNumber": 10,
    "prefecture": "群馬県",
    "city": "太田市",
    "town": "新田赤堀町"
  },
  "3700332": {
    "zipcode": "3700332",
    "prefectureCode": "10",
    "prefectureNumber": 10,
    "prefecture": "群馬県",
    "city": "太田市",
    "town": "新田中江田町"
  },
  "3700333": {
    "zipcode": "3700333",
    "prefectureCode": "10",
    "prefectureNumber": 10,
    "prefecture": "群馬県",
    "city": "太田市",
    "town": "新田下江田町"
  },
  "3700334": {
    "zipcode": "3700334",
    "prefectureCode": "10",
    "prefectureNumber": 10,
    "prefecture": "群馬県",
    "city": "太田市",
    "town": "新田高尾町"
  },
  "3700341": {
    "zipcode": "3700341",
    "prefectureCode": "10",
    "prefectureNumber": 10,
    "prefecture": "群馬県",
    "city": "太田市",
    "town": "新田金井町"
  },
  "3700342": {
    "zipcode": "3700342",
    "prefectureCode": "10",
    "prefectureNumber": 10,
    "prefecture": "群馬県",
    "city": "太田市",
    "town": "新田上江田町"
  },
  "3700343": {
    "zipcode": "3700343",
    "prefectureCode": "10",
    "prefectureNumber": 10,
    "prefecture": "群馬県",
    "city": "太田市",
    "town": "新田下田中町"
  },
  "3700344": {
    "zipcode": "3700344",
    "prefectureCode": "10",
    "prefectureNumber": 10,
    "prefecture": "群馬県",
    "city": "太田市",
    "town": "新田早川町"
  },
  "3700345": {
    "zipcode": "3700345",
    "prefectureCode": "10",
    "prefectureNumber": 10,
    "prefecture": "群馬県",
    "city": "太田市",
    "town": "新田花香塚町"
  },
  "3700346": {
    "zipcode": "3700346",
    "prefectureCode": "10",
    "prefectureNumber": 10,
    "prefecture": "群馬県",
    "city": "太田市",
    "town": "新田上田中町"
  },
  "3700347": {
    "zipcode": "3700347",
    "prefectureCode": "10",
    "prefectureNumber": 10,
    "prefecture": "群馬県",
    "city": "太田市",
    "town": "新田大根町"
  },
  "3700351": {
    "zipcode": "3700351",
    "prefectureCode": "10",
    "prefectureNumber": 10,
    "prefecture": "群馬県",
    "city": "太田市",
    "town": "新田大町"
  },
  "3700352": {
    "zipcode": "3700352",
    "prefectureCode": "10",
    "prefectureNumber": 10,
    "prefecture": "群馬県",
    "city": "太田市",
    "town": "新田嘉祢町"
  },
  "3700353": {
    "zipcode": "3700353",
    "prefectureCode": "10",
    "prefectureNumber": 10,
    "prefecture": "群馬県",
    "city": "太田市",
    "town": "新田上中町"
  },
  "3700354": {
    "zipcode": "3700354",
    "prefectureCode": "10",
    "prefectureNumber": 10,
    "prefecture": "群馬県",
    "city": "太田市",
    "town": "新田溜池町"
  },
  "3700355": {
    "zipcode": "3700355",
    "prefectureCode": "10",
    "prefectureNumber": 10,
    "prefecture": "群馬県",
    "city": "太田市",
    "town": "新田権右衛門町"
  },
  "3700356": {
    "zipcode": "3700356",
    "prefectureCode": "10",
    "prefectureNumber": 10,
    "prefecture": "群馬県",
    "city": "太田市",
    "town": "新田萩町"
  },
  "3700401": {
    "zipcode": "3700401",
    "prefectureCode": "10",
    "prefectureNumber": 10,
    "prefecture": "群馬県",
    "city": "太田市",
    "town": "尾島町"
  },
  "3700402": {
    "zipcode": "3700402",
    "prefectureCode": "10",
    "prefectureNumber": 10,
    "prefecture": "群馬県",
    "city": "太田市",
    "town": "阿久津町"
  },
  "3700403": {
    "zipcode": "3700403",
    "prefectureCode": "10",
    "prefectureNumber": 10,
    "prefecture": "群馬県",
    "city": "太田市",
    "town": "岩松町"
  },
  "3700404": {
    "zipcode": "3700404",
    "prefectureCode": "10",
    "prefectureNumber": 10,
    "prefecture": "群馬県",
    "city": "太田市",
    "town": "備前島町"
  },
  "3700405": {
    "zipcode": "3700405",
    "prefectureCode": "10",
    "prefectureNumber": 10,
    "prefecture": "群馬県",
    "city": "太田市",
    "town": "押切町"
  },
  "3700406": {
    "zipcode": "3700406",
    "prefectureCode": "10",
    "prefectureNumber": 10,
    "prefecture": "群馬県",
    "city": "太田市",
    "town": "前小屋町"
  },
  "3700411": {
    "zipcode": "3700411",
    "prefectureCode": "10",
    "prefectureNumber": 10,
    "prefecture": "群馬県",
    "city": "太田市",
    "town": "亀岡町"
  },
  "3700412": {
    "zipcode": "3700412",
    "prefectureCode": "10",
    "prefectureNumber": 10,
    "prefecture": "群馬県",
    "city": "太田市",
    "town": "太子町"
  },
  "3700413": {
    "zipcode": "3700413",
    "prefectureCode": "10",
    "prefectureNumber": 10,
    "prefecture": "群馬県",
    "city": "太田市",
    "town": "すずかけ町"
  },
  "3700414": {
    "zipcode": "3700414",
    "prefectureCode": "10",
    "prefectureNumber": 10,
    "prefecture": "群馬県",
    "city": "太田市",
    "town": "堀口町"
  },
  "3700415": {
    "zipcode": "3700415",
    "prefectureCode": "10",
    "prefectureNumber": 10,
    "prefecture": "群馬県",
    "city": "太田市",
    "town": "南ケ丘町"
  },
  "3700416": {
    "zipcode": "3700416",
    "prefectureCode": "10",
    "prefectureNumber": 10,
    "prefecture": "群馬県",
    "city": "太田市",
    "town": "前島町"
  },
  "3700417": {
    "zipcode": "3700417",
    "prefectureCode": "10",
    "prefectureNumber": 10,
    "prefecture": "群馬県",
    "city": "太田市",
    "town": "二ツ小屋町"
  },
  "3700418": {
    "zipcode": "3700418",
    "prefectureCode": "10",
    "prefectureNumber": 10,
    "prefecture": "群馬県",
    "city": "太田市",
    "town": "武蔵島町"
  },
  "3700421": {
    "zipcode": "3700421",
    "prefectureCode": "10",
    "prefectureNumber": 10,
    "prefecture": "群馬県",
    "city": "太田市",
    "town": "粕川町"
  },
  "3700422": {
    "zipcode": "3700422",
    "prefectureCode": "10",
    "prefectureNumber": 10,
    "prefecture": "群馬県",
    "city": "太田市",
    "town": "安養寺町"
  },
  "3700423": {
    "zipcode": "3700423",
    "prefectureCode": "10",
    "prefectureNumber": 10,
    "prefecture": "群馬県",
    "city": "太田市",
    "town": "大舘町"
  },
  "3700424": {
    "zipcode": "3700424",
    "prefectureCode": "10",
    "prefectureNumber": 10,
    "prefecture": "群馬県",
    "city": "太田市",
    "town": "出塚町"
  },
  "3700425": {
    "zipcode": "3700425",
    "prefectureCode": "10",
    "prefectureNumber": 10,
    "prefecture": "群馬県",
    "city": "太田市",
    "town": "徳川町"
  },
  "3700426": {
    "zipcode": "3700426",
    "prefectureCode": "10",
    "prefectureNumber": 10,
    "prefecture": "群馬県",
    "city": "太田市",
    "town": "世良田町"
  },
  "3700427": {
    "zipcode": "3700427",
    "prefectureCode": "10",
    "prefectureNumber": 10,
    "prefecture": "群馬県",
    "city": "太田市",
    "town": "小角田町"
  },
  "3700500": {
    "zipcode": "3700500",
    "prefectureCode": "10",
    "prefectureNumber": 10,
    "prefecture": "群馬県",
    "city": "邑楽郡大泉町",
    "town": "以下に掲載がない場合"
  },
  "3700501": {
    "zipcode": "3700501",
    "prefectureCode": "10",
    "prefectureNumber": 10,
    "prefecture": "群馬県",
    "city": "邑楽郡千代田町",
    "town": "福島"
  },
  "3700502": {
    "zipcode": "3700502",
    "prefectureCode": "10",
    "prefectureNumber": 10,
    "prefecture": "群馬県",
    "city": "邑楽郡千代田町",
    "town": "鍋谷"
  },
  "3700503": {
    "zipcode": "3700503",
    "prefectureCode": "10",
    "prefectureNumber": 10,
    "prefecture": "群馬県",
    "city": "邑楽郡千代田町",
    "town": "赤岩"
  },
  "3700504": {
    "zipcode": "3700504",
    "prefectureCode": "10",
    "prefectureNumber": 10,
    "prefecture": "群馬県",
    "city": "邑楽郡千代田町",
    "town": "舞木"
  },
  "3700505": {
    "zipcode": "3700505",
    "prefectureCode": "10",
    "prefectureNumber": 10,
    "prefecture": "群馬県",
    "city": "邑楽郡千代田町",
    "town": "新福寺"
  },
  "3700506": {
    "zipcode": "3700506",
    "prefectureCode": "10",
    "prefectureNumber": 10,
    "prefecture": "群馬県",
    "city": "邑楽郡千代田町",
    "town": "赤岩西"
  },
  "3700507": {
    "zipcode": "3700507",
    "prefectureCode": "10",
    "prefectureNumber": 10,
    "prefecture": "群馬県",
    "city": "邑楽郡千代田町",
    "town": "舞木東"
  },
  "3700511": {
    "zipcode": "3700511",
    "prefectureCode": "10",
    "prefectureNumber": 10,
    "prefecture": "群馬県",
    "city": "邑楽郡大泉町",
    "town": "北小泉"
  },
  "3700512": {
    "zipcode": "3700512",
    "prefectureCode": "10",
    "prefectureNumber": 10,
    "prefecture": "群馬県",
    "city": "邑楽郡大泉町",
    "town": "上小泉"
  },
  "3700513": {
    "zipcode": "3700513",
    "prefectureCode": "10",
    "prefectureNumber": 10,
    "prefecture": "群馬県",
    "city": "邑楽郡大泉町",
    "town": "東小泉"
  },
  "3700514": {
    "zipcode": "3700514",
    "prefectureCode": "10",
    "prefectureNumber": 10,
    "prefecture": "群馬県",
    "city": "邑楽郡大泉町",
    "town": "朝日"
  },
  "3700515": {
    "zipcode": "3700515",
    "prefectureCode": "10",
    "prefectureNumber": 10,
    "prefecture": "群馬県",
    "city": "邑楽郡大泉町",
    "town": "下小泉"
  },
  "3700516": {
    "zipcode": "3700516",
    "prefectureCode": "10",
    "prefectureNumber": 10,
    "prefecture": "群馬県",
    "city": "邑楽郡大泉町",
    "town": "中央"
  },
  "3700517": {
    "zipcode": "3700517",
    "prefectureCode": "10",
    "prefectureNumber": 10,
    "prefecture": "群馬県",
    "city": "邑楽郡大泉町",
    "town": "西小泉"
  },
  "3700518": {
    "zipcode": "3700518",
    "prefectureCode": "10",
    "prefectureNumber": 10,
    "prefecture": "群馬県",
    "city": "邑楽郡大泉町",
    "town": "城之内"
  },
  "3700521": {
    "zipcode": "3700521",
    "prefectureCode": "10",
    "prefectureNumber": 10,
    "prefecture": "群馬県",
    "city": "邑楽郡大泉町",
    "town": "住吉"
  },
  "3700522": {
    "zipcode": "3700522",
    "prefectureCode": "10",
    "prefectureNumber": 10,
    "prefecture": "群馬県",
    "city": "邑楽郡大泉町",
    "town": "富士"
  },
  "3700523": {
    "zipcode": "3700523",
    "prefectureCode": "10",
    "prefectureNumber": 10,
    "prefecture": "群馬県",
    "city": "邑楽郡大泉町",
    "town": "吉田"
  },
  "3700524": {
    "zipcode": "3700524",
    "prefectureCode": "10",
    "prefectureNumber": 10,
    "prefecture": "群馬県",
    "city": "邑楽郡大泉町",
    "town": "古海"
  },
  "3700525": {
    "zipcode": "3700525",
    "prefectureCode": "10",
    "prefectureNumber": 10,
    "prefecture": "群馬県",
    "city": "邑楽郡大泉町",
    "town": "日の出"
  },
  "3700531": {
    "zipcode": "3700531",
    "prefectureCode": "10",
    "prefectureNumber": 10,
    "prefecture": "群馬県",
    "city": "邑楽郡大泉町",
    "town": "いずみ"
  },
  "3700532": {
    "zipcode": "3700532",
    "prefectureCode": "10",
    "prefectureNumber": 10,
    "prefecture": "群馬県",
    "city": "邑楽郡大泉町",
    "town": "坂田"
  },
  "3700533": {
    "zipcode": "3700533",
    "prefectureCode": "10",
    "prefectureNumber": 10,
    "prefecture": "群馬県",
    "city": "邑楽郡大泉町",
    "town": "仙石"
  },
  "3700534": {
    "zipcode": "3700534",
    "prefectureCode": "10",
    "prefectureNumber": 10,
    "prefecture": "群馬県",
    "city": "邑楽郡大泉町",
    "town": "丘山"
  },
  "3700535": {
    "zipcode": "3700535",
    "prefectureCode": "10",
    "prefectureNumber": 10,
    "prefecture": "群馬県",
    "city": "邑楽郡大泉町",
    "town": "寄木戸"
  },
  "3700536": {
    "zipcode": "3700536",
    "prefectureCode": "10",
    "prefectureNumber": 10,
    "prefecture": "群馬県",
    "city": "邑楽郡大泉町",
    "town": "古氷"
  },
  "3700600": {
    "zipcode": "3700600",
    "prefectureCode": "10",
    "prefectureNumber": 10,
    "prefecture": "群馬県",
    "city": "邑楽郡邑楽町",
    "town": "以下に掲載がない場合"
  },
  "3700601": {
    "zipcode": "3700601",
    "prefectureCode": "10",
    "prefectureNumber": 10,
    "prefecture": "群馬県",
    "city": "邑楽郡邑楽町",
    "town": "鶉"
  },
  "3700602": {
    "zipcode": "3700602",
    "prefectureCode": "10",
    "prefectureNumber": 10,
    "prefecture": "群馬県",
    "city": "邑楽郡邑楽町",
    "town": "明野"
  },
  "3700603": {
    "zipcode": "3700603",
    "prefectureCode": "10",
    "prefectureNumber": 10,
    "prefecture": "群馬県",
    "city": "邑楽郡邑楽町",
    "town": "中野"
  },
  "3700604": {
    "zipcode": "3700604",
    "prefectureCode": "10",
    "prefectureNumber": 10,
    "prefecture": "群馬県",
    "city": "邑楽郡邑楽町",
    "town": "石打"
  },
  "3700605": {
    "zipcode": "3700605",
    "prefectureCode": "10",
    "prefectureNumber": 10,
    "prefecture": "群馬県",
    "city": "邑楽郡邑楽町",
    "town": "藤川"
  },
  "3700606": {
    "zipcode": "3700606",
    "prefectureCode": "10",
    "prefectureNumber": 10,
    "prefecture": "群馬県",
    "city": "邑楽郡邑楽町",
    "town": "秋妻"
  },
  "3700611": {
    "zipcode": "3700611",
    "prefectureCode": "10",
    "prefectureNumber": 10,
    "prefecture": "群馬県",
    "city": "邑楽郡邑楽町",
    "town": "鶉新田"
  },
  "3700612": {
    "zipcode": "3700612",
    "prefectureCode": "10",
    "prefectureNumber": 10,
    "prefecture": "群馬県",
    "city": "邑楽郡邑楽町",
    "town": "新中野"
  },
  "3700613": {
    "zipcode": "3700613",
    "prefectureCode": "10",
    "prefectureNumber": 10,
    "prefecture": "群馬県",
    "city": "邑楽郡邑楽町",
    "town": "狸塚"
  },
  "3700614": {
    "zipcode": "3700614",
    "prefectureCode": "10",
    "prefectureNumber": 10,
    "prefecture": "群馬県",
    "city": "邑楽郡邑楽町",
    "town": "赤堀"
  },
  "3700615": {
    "zipcode": "3700615",
    "prefectureCode": "10",
    "prefectureNumber": 10,
    "prefecture": "群馬県",
    "city": "邑楽郡邑楽町",
    "town": "篠塚"
  },
  "3700616": {
    "zipcode": "3700616",
    "prefectureCode": "10",
    "prefectureNumber": 10,
    "prefecture": "群馬県",
    "city": "邑楽郡邑楽町",
    "town": "光善寺"
  },
  "3700700": {
    "zipcode": "3700700",
    "prefectureCode": "10",
    "prefectureNumber": 10,
    "prefecture": "群馬県",
    "city": "邑楽郡明和町",
    "town": "以下に掲載がない場合"
  },
  "3700701": {
    "zipcode": "3700701",
    "prefectureCode": "10",
    "prefectureNumber": 10,
    "prefecture": "群馬県",
    "city": "邑楽郡明和町",
    "town": "南大島"
  },
  "3700702": {
    "zipcode": "3700702",
    "prefectureCode": "10",
    "prefectureNumber": 10,
    "prefecture": "群馬県",
    "city": "邑楽郡明和町",
    "town": "上江黒"
  },
  "3700703": {
    "zipcode": "3700703",
    "prefectureCode": "10",
    "prefectureNumber": 10,
    "prefecture": "群馬県",
    "city": "邑楽郡明和町",
    "town": "下江黒"
  },
  "3700704": {
    "zipcode": "3700704",
    "prefectureCode": "10",
    "prefectureNumber": 10,
    "prefecture": "群馬県",
    "city": "邑楽郡明和町",
    "town": "斗合田"
  },
  "3700705": {
    "zipcode": "3700705",
    "prefectureCode": "10",
    "prefectureNumber": 10,
    "prefecture": "群馬県",
    "city": "邑楽郡明和町",
    "town": "千津井"
  },
  "3700706": {
    "zipcode": "3700706",
    "prefectureCode": "10",
    "prefectureNumber": 10,
    "prefecture": "群馬県",
    "city": "邑楽郡明和町",
    "town": "江口"
  },
  "3700707": {
    "zipcode": "3700707",
    "prefectureCode": "10",
    "prefectureNumber": 10,
    "prefecture": "群馬県",
    "city": "邑楽郡明和町",
    "town": "田島"
  },
  "3700708": {
    "zipcode": "3700708",
    "prefectureCode": "10",
    "prefectureNumber": 10,
    "prefecture": "群馬県",
    "city": "邑楽郡明和町",
    "town": "新里"
  },
  "3700711": {
    "zipcode": "3700711",
    "prefectureCode": "10",
    "prefectureNumber": 10,
    "prefecture": "群馬県",
    "city": "邑楽郡明和町",
    "town": "入ケ谷"
  },
  "3700712": {
    "zipcode": "3700712",
    "prefectureCode": "10",
    "prefectureNumber": 10,
    "prefecture": "群馬県",
    "city": "邑楽郡明和町",
    "town": "矢島"
  },
  "3700713": {
    "zipcode": "3700713",
    "prefectureCode": "10",
    "prefectureNumber": 10,
    "prefecture": "群馬県",
    "city": "邑楽郡明和町",
    "town": "中谷"
  },
  "3700714": {
    "zipcode": "3700714",
    "prefectureCode": "10",
    "prefectureNumber": 10,
    "prefecture": "群馬県",
    "city": "邑楽郡明和町",
    "town": "梅原"
  },
  "3700715": {
    "zipcode": "3700715",
    "prefectureCode": "10",
    "prefectureNumber": 10,
    "prefecture": "群馬県",
    "city": "邑楽郡明和町",
    "town": "大佐貫"
  },
  "3700716": {
    "zipcode": "3700716",
    "prefectureCode": "10",
    "prefectureNumber": 10,
    "prefecture": "群馬県",
    "city": "邑楽郡明和町",
    "town": "川俣"
  },
  "3700717": {
    "zipcode": "3700717",
    "prefectureCode": "10",
    "prefectureNumber": 10,
    "prefecture": "群馬県",
    "city": "邑楽郡明和町",
    "town": "須賀"
  },
  "3700718": {
    "zipcode": "3700718",
    "prefectureCode": "10",
    "prefectureNumber": 10,
    "prefecture": "群馬県",
    "city": "邑楽郡明和町",
    "town": "大輪"
  },
  "3700721": {
    "zipcode": "3700721",
    "prefectureCode": "10",
    "prefectureNumber": 10,
    "prefecture": "群馬県",
    "city": "邑楽郡千代田町",
    "town": "木崎"
  },
  "3700722": {
    "zipcode": "3700722",
    "prefectureCode": "10",
    "prefectureNumber": 10,
    "prefecture": "群馬県",
    "city": "邑楽郡千代田町",
    "town": "萱野"
  },
  "3700723": {
    "zipcode": "3700723",
    "prefectureCode": "10",
    "prefectureNumber": 10,
    "prefecture": "群馬県",
    "city": "邑楽郡千代田町",
    "town": "昭和"
  },
  "3700724": {
    "zipcode": "3700724",
    "prefectureCode": "10",
    "prefectureNumber": 10,
    "prefecture": "群馬県",
    "city": "邑楽郡千代田町",
    "town": "下中森"
  },
  "3700725": {
    "zipcode": "3700725",
    "prefectureCode": "10",
    "prefectureNumber": 10,
    "prefecture": "群馬県",
    "city": "邑楽郡千代田町",
    "town": "上中森"
  },
  "3700726": {
    "zipcode": "3700726",
    "prefectureCode": "10",
    "prefectureNumber": 10,
    "prefecture": "群馬県",
    "city": "邑楽郡千代田町",
    "town": "上五箇"
  },
  "3700727": {
    "zipcode": "3700727",
    "prefectureCode": "10",
    "prefectureNumber": 10,
    "prefecture": "群馬県",
    "city": "邑楽郡千代田町",
    "town": "瀬戸井"
  },
  "3700801": {
    "zipcode": "3700801",
    "prefectureCode": "10",
    "prefectureNumber": 10,
    "prefecture": "群馬県",
    "city": "高崎市",
    "town": "上並榎町"
  },
  "3700802": {
    "zipcode": "3700802",
    "prefectureCode": "10",
    "prefectureNumber": 10,
    "prefecture": "群馬県",
    "city": "高崎市",
    "town": "並榎町"
  },
  "3700803": {
    "zipcode": "3700803",
    "prefectureCode": "10",
    "prefectureNumber": 10,
    "prefecture": "群馬県",
    "city": "高崎市",
    "town": "大橋町"
  },
  "3700804": {
    "zipcode": "3700804",
    "prefectureCode": "10",
    "prefectureNumber": 10,
    "prefecture": "群馬県",
    "city": "高崎市",
    "town": "住吉町"
  },
  "3700805": {
    "zipcode": "3700805",
    "prefectureCode": "10",
    "prefectureNumber": 10,
    "prefecture": "群馬県",
    "city": "高崎市",
    "town": "台町"
  },
  "3700806": {
    "zipcode": "3700806",
    "prefectureCode": "10",
    "prefectureNumber": 10,
    "prefecture": "群馬県",
    "city": "高崎市",
    "town": "上和田町"
  },
  "3700807": {
    "zipcode": "3700807",
    "prefectureCode": "10",
    "prefectureNumber": 10,
    "prefecture": "群馬県",
    "city": "高崎市",
    "town": "歌川町"
  },
  "3700811": {
    "zipcode": "3700811",
    "prefectureCode": "10",
    "prefectureNumber": 10,
    "prefecture": "群馬県",
    "city": "高崎市",
    "town": "相生町"
  },
  "3700812": {
    "zipcode": "3700812",
    "prefectureCode": "10",
    "prefectureNumber": 10,
    "prefecture": "群馬県",
    "city": "高崎市",
    "town": "成田町"
  },
  "3700813": {
    "zipcode": "3700813",
    "prefectureCode": "10",
    "prefectureNumber": 10,
    "prefecture": "群馬県",
    "city": "高崎市",
    "town": "本町"
  },
  "3700814": {
    "zipcode": "3700814",
    "prefectureCode": "10",
    "prefectureNumber": 10,
    "prefecture": "群馬県",
    "city": "高崎市",
    "town": "嘉多町"
  },
  "3700815": {
    "zipcode": "3700815",
    "prefectureCode": "10",
    "prefectureNumber": 10,
    "prefecture": "群馬県",
    "city": "高崎市",
    "town": "柳川町"
  },
  "3700816": {
    "zipcode": "3700816",
    "prefectureCode": "10",
    "prefectureNumber": 10,
    "prefecture": "群馬県",
    "city": "高崎市",
    "town": "常盤町"
  },
  "3700817": {
    "zipcode": "3700817",
    "prefectureCode": "10",
    "prefectureNumber": 10,
    "prefecture": "群馬県",
    "city": "高崎市",
    "town": "堰代町"
  },
  "3700818": {
    "zipcode": "3700818",
    "prefectureCode": "10",
    "prefectureNumber": 10,
    "prefecture": "群馬県",
    "city": "高崎市",
    "town": "赤坂町"
  },
  "3700819": {
    "zipcode": "3700819",
    "prefectureCode": "10",
    "prefectureNumber": 10,
    "prefecture": "群馬県",
    "city": "高崎市",
    "town": "四ツ屋町"
  },
  "3700821": {
    "zipcode": "3700821",
    "prefectureCode": "10",
    "prefectureNumber": 10,
    "prefecture": "群馬県",
    "city": "高崎市",
    "town": "新紺屋町"
  },
  "3700822": {
    "zipcode": "3700822",
    "prefectureCode": "10",
    "prefectureNumber": 10,
    "prefecture": "群馬県",
    "city": "高崎市",
    "town": "寄合町"
  },
  "3700823": {
    "zipcode": "3700823",
    "prefectureCode": "10",
    "prefectureNumber": 10,
    "prefecture": "群馬県",
    "city": "高崎市",
    "town": "中紺屋町"
  },
  "3700824": {
    "zipcode": "3700824",
    "prefectureCode": "10",
    "prefectureNumber": 10,
    "prefecture": "群馬県",
    "city": "高崎市",
    "town": "田町"
  },
  "3700825": {
    "zipcode": "3700825",
    "prefectureCode": "10",
    "prefectureNumber": 10,
    "prefecture": "群馬県",
    "city": "高崎市",
    "town": "白銀町"
  },
  "3700826": {
    "zipcode": "3700826",
    "prefectureCode": "10",
    "prefectureNumber": 10,
    "prefecture": "群馬県",
    "city": "高崎市",
    "town": "連雀町"
  },
  "3700827": {
    "zipcode": "3700827",
    "prefectureCode": "10",
    "prefectureNumber": 10,
    "prefecture": "群馬県",
    "city": "高崎市",
    "town": "鞘町"
  },
  "3700828": {
    "zipcode": "3700828",
    "prefectureCode": "10",
    "prefectureNumber": 10,
    "prefecture": "群馬県",
    "city": "高崎市",
    "town": "宮元町"
  },
  "3700829": {
    "zipcode": "3700829",
    "prefectureCode": "10",
    "prefectureNumber": 10,
    "prefecture": "群馬県",
    "city": "高崎市",
    "town": "高松町"
  },
  "3700831": {
    "zipcode": "3700831",
    "prefectureCode": "10",
    "prefectureNumber": 10,
    "prefecture": "群馬県",
    "city": "高崎市",
    "town": "あら町"
  },
  "3700832": {
    "zipcode": "3700832",
    "prefectureCode": "10",
    "prefectureNumber": 10,
    "prefecture": "群馬県",
    "city": "高崎市",
    "town": "砂賀町"
  },
  "3700833": {
    "zipcode": "3700833",
    "prefectureCode": "10",
    "prefectureNumber": 10,
    "prefecture": "群馬県",
    "city": "高崎市",
    "town": "新田町"
  },
  "3700834": {
    "zipcode": "3700834",
    "prefectureCode": "10",
    "prefectureNumber": 10,
    "prefecture": "群馬県",
    "city": "高崎市",
    "town": "南町"
  },
  "3700835": {
    "zipcode": "3700835",
    "prefectureCode": "10",
    "prefectureNumber": 10,
    "prefecture": "群馬県",
    "city": "高崎市",
    "town": "竜見町"
  },
  "3700836": {
    "zipcode": "3700836",
    "prefectureCode": "10",
    "prefectureNumber": 10,
    "prefecture": "群馬県",
    "city": "高崎市",
    "town": "若松町"
  },
  "3700837": {
    "zipcode": "3700837",
    "prefectureCode": "10",
    "prefectureNumber": 10,
    "prefecture": "群馬県",
    "city": "高崎市",
    "town": "下横町"
  },
  "3700838": {
    "zipcode": "3700838",
    "prefectureCode": "10",
    "prefectureNumber": 10,
    "prefecture": "群馬県",
    "city": "高崎市",
    "town": "鍛冶町"
  },
  "3700839": {
    "zipcode": "3700839",
    "prefectureCode": "10",
    "prefectureNumber": 10,
    "prefecture": "群馬県",
    "city": "高崎市",
    "town": "檜物町"
  },
  "3700841": {
    "zipcode": "3700841",
    "prefectureCode": "10",
    "prefectureNumber": 10,
    "prefecture": "群馬県",
    "city": "高崎市",
    "town": "栄町"
  },
  "3700842": {
    "zipcode": "3700842",
    "prefectureCode": "10",
    "prefectureNumber": 10,
    "prefecture": "群馬県",
    "city": "高崎市",
    "town": "北双葉町"
  },
  "3700843": {
    "zipcode": "3700843",
    "prefectureCode": "10",
    "prefectureNumber": 10,
    "prefecture": "群馬県",
    "city": "高崎市",
    "town": "双葉町"
  },
  "3700844": {
    "zipcode": "3700844",
    "prefectureCode": "10",
    "prefectureNumber": 10,
    "prefecture": "群馬県",
    "city": "高崎市",
    "town": "和田多中町"
  },
  "3700845": {
    "zipcode": "3700845",
    "prefectureCode": "10",
    "prefectureNumber": 10,
    "prefecture": "群馬県",
    "city": "高崎市",
    "town": "新後閑町"
  },
  "3700846": {
    "zipcode": "3700846",
    "prefectureCode": "10",
    "prefectureNumber": 10,
    "prefecture": "群馬県",
    "city": "高崎市",
    "town": "下和田町"
  },
  "3700847": {
    "zipcode": "3700847",
    "prefectureCode": "10",
    "prefectureNumber": 10,
    "prefecture": "群馬県",
    "city": "高崎市",
    "town": "和田町"
  },
  "3700848": {
    "zipcode": "3700848",
    "prefectureCode": "10",
    "prefectureNumber": 10,
    "prefecture": "群馬県",
    "city": "高崎市",
    "town": "鶴見町"
  },
  "3700849": {
    "zipcode": "3700849",
    "prefectureCode": "10",
    "prefectureNumber": 10,
    "prefecture": "群馬県",
    "city": "高崎市",
    "town": "八島町"
  },
  "3700851": {
    "zipcode": "3700851",
    "prefectureCode": "10",
    "prefectureNumber": 10,
    "prefecture": "群馬県",
    "city": "高崎市",
    "town": "上中居町"
  },
  "3700852": {
    "zipcode": "3700852",
    "prefectureCode": "10",
    "prefectureNumber": 10,
    "prefecture": "群馬県",
    "city": "高崎市",
    "town": "中居町"
  },
  "3700853": {
    "zipcode": "3700853",
    "prefectureCode": "10",
    "prefectureNumber": 10,
    "prefecture": "群馬県",
    "city": "高崎市",
    "town": "下中居町"
  },
  "3700854": {
    "zipcode": "3700854",
    "prefectureCode": "10",
    "prefectureNumber": 10,
    "prefecture": "群馬県",
    "city": "高崎市",
    "town": "下之城町"
  },
  "3700855": {
    "zipcode": "3700855",
    "prefectureCode": "10",
    "prefectureNumber": 10,
    "prefecture": "群馬県",
    "city": "高崎市",
    "town": "下佐野町"
  },
  "3700856": {
    "zipcode": "3700856",
    "prefectureCode": "10",
    "prefectureNumber": 10,
    "prefecture": "群馬県",
    "city": "高崎市",
    "town": "佐野窪町"
  },
  "3700857": {
    "zipcode": "3700857",
    "prefectureCode": "10",
    "prefectureNumber": 10,
    "prefecture": "群馬県",
    "city": "高崎市",
    "town": "上佐野町"
  },
  "3700861": {
    "zipcode": "3700861",
    "prefectureCode": "10",
    "prefectureNumber": 10,
    "prefecture": "群馬県",
    "city": "高崎市",
    "town": "八千代町"
  },
  "3700862": {
    "zipcode": "3700862",
    "prefectureCode": "10",
    "prefectureNumber": 10,
    "prefecture": "群馬県",
    "city": "高崎市",
    "town": "片岡町"
  },
  "3700863": {
    "zipcode": "3700863",
    "prefectureCode": "10",
    "prefectureNumber": 10,
    "prefecture": "群馬県",
    "city": "高崎市",
    "town": "聖石町"
  },
  "3700864": {
    "zipcode": "3700864",
    "prefectureCode": "10",
    "prefectureNumber": 10,
    "prefecture": "群馬県",
    "city": "高崎市",
    "town": "石原町"
  },
  "3700865": {
    "zipcode": "3700865",
    "prefectureCode": "10",
    "prefectureNumber": 10,
    "prefecture": "群馬県",
    "city": "高崎市",
    "town": "寺尾町"
  },
  "3700866": {
    "zipcode": "3700866",
    "prefectureCode": "10",
    "prefectureNumber": 10,
    "prefecture": "群馬県",
    "city": "高崎市",
    "town": "城山町"
  },
  "3700867": {
    "zipcode": "3700867",
    "prefectureCode": "10",
    "prefectureNumber": 10,
    "prefecture": "群馬県",
    "city": "高崎市",
    "town": "乗附町"
  },
  "3700868": {
    "zipcode": "3700868",
    "prefectureCode": "10",
    "prefectureNumber": 10,
    "prefecture": "群馬県",
    "city": "高崎市",
    "town": "鼻高町"
  },
  "3700871": {
    "zipcode": "3700871",
    "prefectureCode": "10",
    "prefectureNumber": 10,
    "prefecture": "群馬県",
    "city": "高崎市",
    "town": "上豊岡町"
  },
  "3700872": {
    "zipcode": "3700872",
    "prefectureCode": "10",
    "prefectureNumber": 10,
    "prefecture": "群馬県",
    "city": "高崎市",
    "town": "北久保町"
  },
  "3700873": {
    "zipcode": "3700873",
    "prefectureCode": "10",
    "prefectureNumber": 10,
    "prefecture": "群馬県",
    "city": "高崎市",
    "town": "下豊岡町"
  },
  "3700874": {
    "zipcode": "3700874",
    "prefectureCode": "10",
    "prefectureNumber": 10,
    "prefecture": "群馬県",
    "city": "高崎市",
    "town": "中豊岡町"
  },
  "3700875": {
    "zipcode": "3700875",
    "prefectureCode": "10",
    "prefectureNumber": 10,
    "prefecture": "群馬県",
    "city": "高崎市",
    "town": "藤塚町"
  },
  "3700881": {
    "zipcode": "3700881",
    "prefectureCode": "10",
    "prefectureNumber": 10,
    "prefecture": "群馬県",
    "city": "高崎市",
    "town": "町屋町"
  },
  "3700882": {
    "zipcode": "3700882",
    "prefectureCode": "10",
    "prefectureNumber": 10,
    "prefecture": "群馬県",
    "city": "高崎市",
    "town": "金井淵町"
  },
  "3700883": {
    "zipcode": "3700883",
    "prefectureCode": "10",
    "prefectureNumber": 10,
    "prefecture": "群馬県",
    "city": "高崎市",
    "town": "剣崎町"
  },
  "3700884": {
    "zipcode": "3700884",
    "prefectureCode": "10",
    "prefectureNumber": 10,
    "prefecture": "群馬県",
    "city": "高崎市",
    "town": "八幡町"
  },
  "3700885": {
    "zipcode": "3700885",
    "prefectureCode": "10",
    "prefectureNumber": 10,
    "prefecture": "群馬県",
    "city": "高崎市",
    "town": "若田町"
  },
  "3700886": {
    "zipcode": "3700886",
    "prefectureCode": "10",
    "prefectureNumber": 10,
    "prefecture": "群馬県",
    "city": "高崎市",
    "town": "下大島町"
  },
  "3701100": {
    "zipcode": "3701100",
    "prefectureCode": "10",
    "prefectureNumber": 10,
    "prefecture": "群馬県",
    "city": "佐波郡玉村町",
    "town": "以下に掲載がない場合"
  },
  "3701101": {
    "zipcode": "3701101",
    "prefectureCode": "10",
    "prefectureNumber": 10,
    "prefecture": "群馬県",
    "city": "佐波郡玉村町",
    "town": "藤川"
  },
  "3701102": {
    "zipcode": "3701102",
    "prefectureCode": "10",
    "prefectureNumber": 10,
    "prefecture": "群馬県",
    "city": "佐波郡玉村町",
    "town": "飯塚"
  },
  "3701103": {
    "zipcode": "3701103",
    "prefectureCode": "10",
    "prefectureNumber": 10,
    "prefecture": "群馬県",
    "city": "佐波郡玉村町",
    "town": "樋越"
  },
  "3701104": {
    "zipcode": "3701104",
    "prefectureCode": "10",
    "prefectureNumber": 10,
    "prefecture": "群馬県",
    "city": "佐波郡玉村町",
    "town": "上福島"
  },
  "3701105": {
    "zipcode": "3701105",
    "prefectureCode": "10",
    "prefectureNumber": 10,
    "prefecture": "群馬県",
    "city": "佐波郡玉村町",
    "town": "福島"
  },
  "3701111": {
    "zipcode": "3701111",
    "prefectureCode": "10",
    "prefectureNumber": 10,
    "prefecture": "群馬県",
    "city": "佐波郡玉村町",
    "town": "南玉"
  },
  "3701112": {
    "zipcode": "3701112",
    "prefectureCode": "10",
    "prefectureNumber": 10,
    "prefecture": "群馬県",
    "city": "佐波郡玉村町",
    "town": "下之宮"
  },
  "3701113": {
    "zipcode": "3701113",
    "prefectureCode": "10",
    "prefectureNumber": 10,
    "prefecture": "群馬県",
    "city": "佐波郡玉村町",
    "town": "箱石"
  },
  "3701114": {
    "zipcode": "3701114",
    "prefectureCode": "10",
    "prefectureNumber": 10,
    "prefecture": "群馬県",
    "city": "佐波郡玉村町",
    "town": "小泉"
  },
  "3701115": {
    "zipcode": "3701115",
    "prefectureCode": "10",
    "prefectureNumber": 10,
    "prefecture": "群馬県",
    "city": "佐波郡玉村町",
    "town": "五料"
  },
  "3701116": {
    "zipcode": "3701116",
    "prefectureCode": "10",
    "prefectureNumber": 10,
    "prefecture": "群馬県",
    "city": "佐波郡玉村町",
    "town": "飯倉"
  },
  "3701117": {
    "zipcode": "3701117",
    "prefectureCode": "10",
    "prefectureNumber": 10,
    "prefecture": "群馬県",
    "city": "佐波郡玉村町",
    "town": "川井"
  },
  "3701121": {
    "zipcode": "3701121",
    "prefectureCode": "10",
    "prefectureNumber": 10,
    "prefecture": "群馬県",
    "city": "佐波郡玉村町",
    "town": "上飯島"
  },
  "3701122": {
    "zipcode": "3701122",
    "prefectureCode": "10",
    "prefectureNumber": 10,
    "prefecture": "群馬県",
    "city": "佐波郡玉村町",
    "town": "上茂木"
  },
  "3701123": {
    "zipcode": "3701123",
    "prefectureCode": "10",
    "prefectureNumber": 10,
    "prefecture": "群馬県",
    "city": "佐波郡玉村町",
    "town": "下茂木"
  },
  "3701124": {
    "zipcode": "3701124",
    "prefectureCode": "10",
    "prefectureNumber": 10,
    "prefecture": "群馬県",
    "city": "佐波郡玉村町",
    "town": "角渕"
  },
  "3701125": {
    "zipcode": "3701125",
    "prefectureCode": "10",
    "prefectureNumber": 10,
    "prefecture": "群馬県",
    "city": "佐波郡玉村町",
    "town": "八幡原"
  },
  "3701126": {
    "zipcode": "3701126",
    "prefectureCode": "10",
    "prefectureNumber": 10,
    "prefecture": "群馬県",
    "city": "佐波郡玉村町",
    "town": "宇貫"
  },
  "3701127": {
    "zipcode": "3701127",
    "prefectureCode": "10",
    "prefectureNumber": 10,
    "prefecture": "群馬県",
    "city": "佐波郡玉村町",
    "town": "上之手"
  },
  "3701128": {
    "zipcode": "3701128",
    "prefectureCode": "10",
    "prefectureNumber": 10,
    "prefecture": "群馬県",
    "city": "佐波郡玉村町",
    "town": "後箇"
  },
  "3701131": {
    "zipcode": "3701131",
    "prefectureCode": "10",
    "prefectureNumber": 10,
    "prefecture": "群馬県",
    "city": "佐波郡玉村町",
    "town": "斎田"
  },
  "3701132": {
    "zipcode": "3701132",
    "prefectureCode": "10",
    "prefectureNumber": 10,
    "prefecture": "群馬県",
    "city": "佐波郡玉村町",
    "town": "下新田"
  },
  "3701133": {
    "zipcode": "3701133",
    "prefectureCode": "10",
    "prefectureNumber": 10,
    "prefecture": "群馬県",
    "city": "佐波郡玉村町",
    "town": "上新田"
  },
  "3701134": {
    "zipcode": "3701134",
    "prefectureCode": "10",
    "prefectureNumber": 10,
    "prefecture": "群馬県",
    "city": "佐波郡玉村町",
    "town": "与六分"
  },
  "3701135": {
    "zipcode": "3701135",
    "prefectureCode": "10",
    "prefectureNumber": 10,
    "prefecture": "群馬県",
    "city": "佐波郡玉村町",
    "town": "板井"
  },
  "3701201": {
    "zipcode": "3701201",
    "prefectureCode": "10",
    "prefectureNumber": 10,
    "prefecture": "群馬県",
    "city": "高崎市",
    "town": "倉賀野町"
  },
  "3701202": {
    "zipcode": "3701202",
    "prefectureCode": "10",
    "prefectureNumber": 10,
    "prefecture": "群馬県",
    "city": "高崎市",
    "town": "宮原町"
  },
  "3701203": {
    "zipcode": "3701203",
    "prefectureCode": "10",
    "prefectureNumber": 10,
    "prefecture": "群馬県",
    "city": "高崎市",
    "town": "矢中町"
  },
  "3701204": {
    "zipcode": "3701204",
    "prefectureCode": "10",
    "prefectureNumber": 10,
    "prefecture": "群馬県",
    "city": "高崎市",
    "town": "東中里町"
  },
  "3701205": {
    "zipcode": "3701205",
    "prefectureCode": "10",
    "prefectureNumber": 10,
    "prefecture": "群馬県",
    "city": "高崎市",
    "town": "栗崎町"
  },
  "3701206": {
    "zipcode": "3701206",
    "prefectureCode": "10",
    "prefectureNumber": 10,
    "prefecture": "群馬県",
    "city": "高崎市",
    "town": "台新田町"
  },
  "3701207": {
    "zipcode": "3701207",
    "prefectureCode": "10",
    "prefectureNumber": 10,
    "prefecture": "群馬県",
    "city": "高崎市",
    "town": "綿貫町"
  },
  "3701208": {
    "zipcode": "3701208",
    "prefectureCode": "10",
    "prefectureNumber": 10,
    "prefecture": "群馬県",
    "city": "高崎市",
    "town": "岩鼻町"
  },
  "3701211": {
    "zipcode": "3701211",
    "prefectureCode": "10",
    "prefectureNumber": 10,
    "prefecture": "群馬県",
    "city": "高崎市",
    "town": "阿久津町"
  },
  "3701212": {
    "zipcode": "3701212",
    "prefectureCode": "10",
    "prefectureNumber": 10,
    "prefecture": "群馬県",
    "city": "高崎市",
    "town": "木部町"
  },
  "3701213": {
    "zipcode": "3701213",
    "prefectureCode": "10",
    "prefectureNumber": 10,
    "prefecture": "群馬県",
    "city": "高崎市",
    "town": "山名町"
  },
  "3701214": {
    "zipcode": "3701214",
    "prefectureCode": "10",
    "prefectureNumber": 10,
    "prefecture": "群馬県",
    "city": "高崎市",
    "town": "根小屋町"
  },
  "3701301": {
    "zipcode": "3701301",
    "prefectureCode": "10",
    "prefectureNumber": 10,
    "prefecture": "群馬県",
    "city": "高崎市",
    "town": "新町"
  },
  "3701401": {
    "zipcode": "3701401",
    "prefectureCode": "10",
    "prefectureNumber": 10,
    "prefecture": "群馬県",
    "city": "藤岡市",
    "town": "鬼石"
  },
  "3701402": {
    "zipcode": "3701402",
    "prefectureCode": "10",
    "prefectureNumber": 10,
    "prefecture": "群馬県",
    "city": "藤岡市",
    "town": "譲原"
  },
  "3701403": {
    "zipcode": "3701403",
    "prefectureCode": "10",
    "prefectureNumber": 10,
    "prefecture": "群馬県",
    "city": "藤岡市",
    "town": "保美濃山"
  },
  "3701404": {
    "zipcode": "3701404",
    "prefectureCode": "10",
    "prefectureNumber": 10,
    "prefecture": "群馬県",
    "city": "藤岡市",
    "town": "坂原"
  },
  "3701405": {
    "zipcode": "3701405",
    "prefectureCode": "10",
    "prefectureNumber": 10,
    "prefecture": "群馬県",
    "city": "藤岡市",
    "town": "三波川"
  },
  "3701406": {
    "zipcode": "3701406",
    "prefectureCode": "10",
    "prefectureNumber": 10,
    "prefecture": "群馬県",
    "city": "藤岡市",
    "town": "浄法寺"
  },
  "3701501": {
    "zipcode": "3701501",
    "prefectureCode": "10",
    "prefectureNumber": 10,
    "prefecture": "群馬県",
    "city": "多野郡神流町",
    "town": "柏木"
  },
  "3701502": {
    "zipcode": "3701502",
    "prefectureCode": "10",
    "prefectureNumber": 10,
    "prefecture": "群馬県",
    "city": "多野郡神流町",
    "town": "麻生"
  },
  "3701503": {
    "zipcode": "3701503",
    "prefectureCode": "10",
    "prefectureNumber": 10,
    "prefecture": "群馬県",
    "city": "多野郡神流町",
    "town": "生利"
  },
  "3701504": {
    "zipcode": "3701504",
    "prefectureCode": "10",
    "prefectureNumber": 10,
    "prefecture": "群馬県",
    "city": "多野郡神流町",
    "town": "万場"
  },
  "3701505": {
    "zipcode": "3701505",
    "prefectureCode": "10",
    "prefectureNumber": 10,
    "prefecture": "群馬県",
    "city": "多野郡神流町",
    "town": "森戸"
  },
  "3701506": {
    "zipcode": "3701506",
    "prefectureCode": "10",
    "prefectureNumber": 10,
    "prefecture": "群馬県",
    "city": "多野郡神流町",
    "town": "黒田"
  },
  "3701507": {
    "zipcode": "3701507",
    "prefectureCode": "11",
    "prefectureNumber": 11,
    "prefecture": "埼玉県",
    "city": "秩父市",
    "town": "吉田太田部"
  },
  "3701511": {
    "zipcode": "3701511",
    "prefectureCode": "10",
    "prefectureNumber": 10,
    "prefecture": "群馬県",
    "city": "多野郡神流町",
    "town": "相原"
  },
  "3701512": {
    "zipcode": "3701512",
    "prefectureCode": "10",
    "prefectureNumber": 10,
    "prefecture": "群馬県",
    "city": "多野郡神流町",
    "town": "青梨"
  },
  "3701513": {
    "zipcode": "3701513",
    "prefectureCode": "10",
    "prefectureNumber": 10,
    "prefecture": "群馬県",
    "city": "多野郡神流町",
    "town": "小平"
  },
  "3701514": {
    "zipcode": "3701514",
    "prefectureCode": "10",
    "prefectureNumber": 10,
    "prefecture": "群馬県",
    "city": "多野郡神流町",
    "town": "塩沢"
  },
  "3701515": {
    "zipcode": "3701515",
    "prefectureCode": "10",
    "prefectureNumber": 10,
    "prefecture": "群馬県",
    "city": "多野郡神流町",
    "town": "船子"
  },
  "3701600": {
    "zipcode": "3701600",
    "prefectureCode": "10",
    "prefectureNumber": 10,
    "prefecture": "群馬県",
    "city": "多野郡神流町",
    "town": "以下に掲載がない場合"
  },
  "3701601": {
    "zipcode": "3701601",
    "prefectureCode": "10",
    "prefectureNumber": 10,
    "prefecture": "群馬県",
    "city": "多野郡神流町",
    "town": "魚尾"
  },
  "3701602": {
    "zipcode": "3701602",
    "prefectureCode": "10",
    "prefectureNumber": 10,
    "prefecture": "群馬県",
    "city": "多野郡神流町",
    "town": "神ケ原"
  },
  "3701603": {
    "zipcode": "3701603",
    "prefectureCode": "10",
    "prefectureNumber": 10,
    "prefecture": "群馬県",
    "city": "多野郡神流町",
    "town": "平原"
  },
  "3701604": {
    "zipcode": "3701604",
    "prefectureCode": "10",
    "prefectureNumber": 10,
    "prefecture": "群馬県",
    "city": "多野郡神流町",
    "town": "尾附"
  },
  "3701611": {
    "zipcode": "3701611",
    "prefectureCode": "10",
    "prefectureNumber": 10,
    "prefecture": "群馬県",
    "city": "多野郡上野村",
    "town": "新羽"
  },
  "3701612": {
    "zipcode": "3701612",
    "prefectureCode": "10",
    "prefectureNumber": 10,
    "prefecture": "群馬県",
    "city": "多野郡上野村",
    "town": "野栗沢"
  },
  "3701613": {
    "zipcode": "3701613",
    "prefectureCode": "10",
    "prefectureNumber": 10,
    "prefecture": "群馬県",
    "city": "多野郡上野村",
    "town": "勝山"
  },
  "3701614": {
    "zipcode": "3701614",
    "prefectureCode": "10",
    "prefectureNumber": 10,
    "prefecture": "群馬県",
    "city": "多野郡上野村",
    "town": "川和"
  },
  "3701615": {
    "zipcode": "3701615",
    "prefectureCode": "10",
    "prefectureNumber": 10,
    "prefecture": "群馬県",
    "city": "多野郡上野村",
    "town": "乙母"
  },
  "3701616": {
    "zipcode": "3701616",
    "prefectureCode": "10",
    "prefectureNumber": 10,
    "prefecture": "群馬県",
    "city": "多野郡上野村",
    "town": "乙父"
  },
  "3701617": {
    "zipcode": "3701617",
    "prefectureCode": "10",
    "prefectureNumber": 10,
    "prefecture": "群馬県",
    "city": "多野郡上野村",
    "town": "楢原"
  },
  "3702101": {
    "zipcode": "3702101",
    "prefectureCode": "10",
    "prefectureNumber": 10,
    "prefecture": "群馬県",
    "city": "高崎市",
    "town": "吉井町南陽台"
  },
  "3702102": {
    "zipcode": "3702102",
    "prefectureCode": "10",
    "prefectureNumber": 10,
    "prefecture": "群馬県",
    "city": "高崎市",
    "town": "吉井町小暮"
  },
  "3702103": {
    "zipcode": "3702103",
    "prefectureCode": "10",
    "prefectureNumber": 10,
    "prefecture": "群馬県",
    "city": "高崎市",
    "town": "吉井町岩井"
  },
  "3702104": {
    "zipcode": "3702104",
    "prefectureCode": "10",
    "prefectureNumber": 10,
    "prefecture": "群馬県",
    "city": "高崎市",
    "town": "吉井町馬庭"
  },
  "3702105": {
    "zipcode": "3702105",
    "prefectureCode": "10",
    "prefectureNumber": 10,
    "prefecture": "群馬県",
    "city": "高崎市",
    "town": "吉井町中島"
  },
  "3702106": {
    "zipcode": "3702106",
    "prefectureCode": "10",
    "prefectureNumber": 10,
    "prefecture": "群馬県",
    "city": "高崎市",
    "town": "吉井町矢田"
  },
  "3702107": {
    "zipcode": "3702107",
    "prefectureCode": "10",
    "prefectureNumber": 10,
    "prefecture": "群馬県",
    "city": "高崎市",
    "town": "吉井町池"
  },
  "3702111": {
    "zipcode": "3702111",
    "prefectureCode": "10",
    "prefectureNumber": 10,
    "prefecture": "群馬県",
    "city": "高崎市",
    "town": "吉井町小串"
  },
  "3702112": {
    "zipcode": "3702112",
    "prefectureCode": "10",
    "prefectureNumber": 10,
    "prefecture": "群馬県",
    "city": "高崎市",
    "town": "吉井町黒熊"
  },
  "3702113": {
    "zipcode": "3702113",
    "prefectureCode": "10",
    "prefectureNumber": 10,
    "prefecture": "群馬県",
    "city": "高崎市",
    "town": "吉井町深沢"
  },
  "3702114": {
    "zipcode": "3702114",
    "prefectureCode": "10",
    "prefectureNumber": 10,
    "prefecture": "群馬県",
    "city": "高崎市",
    "town": "吉井町石神"
  },
  "3702115": {
    "zipcode": "3702115",
    "prefectureCode": "10",
    "prefectureNumber": 10,
    "prefecture": "群馬県",
    "city": "高崎市",
    "town": "吉井町多比良"
  },
  "3702116": {
    "zipcode": "3702116",
    "prefectureCode": "10",
    "prefectureNumber": 10,
    "prefecture": "群馬県",
    "city": "高崎市",
    "town": "吉井町多胡"
  },
  "3702121": {
    "zipcode": "3702121",
    "prefectureCode": "10",
    "prefectureNumber": 10,
    "prefecture": "群馬県",
    "city": "高崎市",
    "town": "吉井町下長根"
  },
  "3702122": {
    "zipcode": "3702122",
    "prefectureCode": "10",
    "prefectureNumber": 10,
    "prefecture": "群馬県",
    "city": "高崎市",
    "town": "吉井町高"
  },
  "3702123": {
    "zipcode": "3702123",
    "prefectureCode": "10",
    "prefectureNumber": 10,
    "prefecture": "群馬県",
    "city": "高崎市",
    "town": "吉井町神保"
  },
  "3702124": {
    "zipcode": "3702124",
    "prefectureCode": "10",
    "prefectureNumber": 10,
    "prefecture": "群馬県",
    "city": "高崎市",
    "town": "吉井町塩"
  },
  "3702125": {
    "zipcode": "3702125",
    "prefectureCode": "10",
    "prefectureNumber": 10,
    "prefecture": "群馬県",
    "city": "高崎市",
    "town": "吉井町大沢"
  },
  "3702126": {
    "zipcode": "3702126",
    "prefectureCode": "10",
    "prefectureNumber": 10,
    "prefecture": "群馬県",
    "city": "高崎市",
    "town": "吉井町東谷"
  },
  "3702127": {
    "zipcode": "3702127",
    "prefectureCode": "10",
    "prefectureNumber": 10,
    "prefecture": "群馬県",
    "city": "高崎市",
    "town": "吉井町長根"
  },
  "3702128": {
    "zipcode": "3702128",
    "prefectureCode": "10",
    "prefectureNumber": 10,
    "prefecture": "群馬県",
    "city": "高崎市",
    "town": "吉井町本郷"
  },
  "3702131": {
    "zipcode": "3702131",
    "prefectureCode": "10",
    "prefectureNumber": 10,
    "prefecture": "群馬県",
    "city": "高崎市",
    "town": "吉井町岩崎"
  },
  "3702132": {
    "zipcode": "3702132",
    "prefectureCode": "10",
    "prefectureNumber": 10,
    "prefecture": "群馬県",
    "city": "高崎市",
    "town": "吉井町吉井"
  },
  "3702133": {
    "zipcode": "3702133",
    "prefectureCode": "10",
    "prefectureNumber": 10,
    "prefecture": "群馬県",
    "city": "高崎市",
    "town": "吉井町吉井川"
  },
  "3702134": {
    "zipcode": "3702134",
    "prefectureCode": "10",
    "prefectureNumber": 10,
    "prefecture": "群馬県",
    "city": "高崎市",
    "town": "吉井町塩川"
  },
  "3702135": {
    "zipcode": "3702135",
    "prefectureCode": "10",
    "prefectureNumber": 10,
    "prefecture": "群馬県",
    "city": "高崎市",
    "town": "吉井町片山"
  },
  "3702136": {
    "zipcode": "3702136",
    "prefectureCode": "10",
    "prefectureNumber": 10,
    "prefecture": "群馬県",
    "city": "高崎市",
    "town": "吉井町小棚"
  },
  "3702137": {
    "zipcode": "3702137",
    "prefectureCode": "10",
    "prefectureNumber": 10,
    "prefecture": "群馬県",
    "city": "高崎市",
    "town": "吉井町坂口"
  },
  "3702138": {
    "zipcode": "3702138",
    "prefectureCode": "10",
    "prefectureNumber": 10,
    "prefecture": "群馬県",
    "city": "高崎市",
    "town": "吉井町下奥平"
  },
  "3702139": {
    "zipcode": "3702139",
    "prefectureCode": "10",
    "prefectureNumber": 10,
    "prefecture": "群馬県",
    "city": "高崎市",
    "town": "吉井町上奥平"
  },
  "3702200": {
    "zipcode": "3702200",
    "prefectureCode": "10",
    "prefectureNumber": 10,
    "prefecture": "群馬県",
    "city": "甘楽郡甘楽町",
    "town": "以下に掲載がない場合"
  },
  "3702201": {
    "zipcode": "3702201",
    "prefectureCode": "10",
    "prefectureNumber": 10,
    "prefecture": "群馬県",
    "city": "甘楽郡甘楽町",
    "town": "上野"
  },
  "3702202": {
    "zipcode": "3702202",
    "prefectureCode": "10",
    "prefectureNumber": 10,
    "prefecture": "群馬県",
    "city": "甘楽郡甘楽町",
    "town": "小幡"
  },
  "3702203": {
    "zipcode": "3702203",
    "prefectureCode": "10",
    "prefectureNumber": 10,
    "prefecture": "群馬県",
    "city": "甘楽郡甘楽町",
    "town": "轟"
  },
  "3702204": {
    "zipcode": "3702204",
    "prefectureCode": "10",
    "prefectureNumber": 10,
    "prefecture": "群馬県",
    "city": "甘楽郡甘楽町",
    "town": "秋畑"
  },
  "3702205": {
    "zipcode": "3702205",
    "prefectureCode": "10",
    "prefectureNumber": 10,
    "prefecture": "群馬県",
    "city": "甘楽郡甘楽町",
    "town": "国峰"
  },
  "3702206": {
    "zipcode": "3702206",
    "prefectureCode": "10",
    "prefectureNumber": 10,
    "prefecture": "群馬県",
    "city": "甘楽郡甘楽町",
    "town": "善慶寺"
  },
  "3702211": {
    "zipcode": "3702211",
    "prefectureCode": "10",
    "prefectureNumber": 10,
    "prefecture": "群馬県",
    "city": "甘楽郡甘楽町",
    "town": "小川"
  },
  "3702212": {
    "zipcode": "3702212",
    "prefectureCode": "10",
    "prefectureNumber": 10,
    "prefecture": "群馬県",
    "city": "甘楽郡甘楽町",
    "town": "福島"
  },
  "3702213": {
    "zipcode": "3702213",
    "prefectureCode": "10",
    "prefectureNumber": 10,
    "prefecture": "群馬県",
    "city": "甘楽郡甘楽町",
    "town": "白倉"
  },
  "3702214": {
    "zipcode": "3702214",
    "prefectureCode": "10",
    "prefectureNumber": 10,
    "prefecture": "群馬県",
    "city": "甘楽郡甘楽町",
    "town": "庭谷"
  },
  "3702215": {
    "zipcode": "3702215",
    "prefectureCode": "10",
    "prefectureNumber": 10,
    "prefecture": "群馬県",
    "city": "甘楽郡甘楽町",
    "town": "造石"
  },
  "3702216": {
    "zipcode": "3702216",
    "prefectureCode": "10",
    "prefectureNumber": 10,
    "prefecture": "群馬県",
    "city": "甘楽郡甘楽町",
    "town": "金井"
  },
  "3702217": {
    "zipcode": "3702217",
    "prefectureCode": "10",
    "prefectureNumber": 10,
    "prefecture": "群馬県",
    "city": "甘楽郡甘楽町",
    "town": "天引"
  },
  "3702300": {
    "zipcode": "3702300",
    "prefectureCode": "10",
    "prefectureNumber": 10,
    "prefecture": "群馬県",
    "city": "富岡市",
    "town": "以下に掲載がない場合"
  },
  "3702301": {
    "zipcode": "3702301",
    "prefectureCode": "10",
    "prefectureNumber": 10,
    "prefecture": "群馬県",
    "city": "富岡市",
    "town": "桑原"
  },
  "3702302": {
    "zipcode": "3702302",
    "prefectureCode": "10",
    "prefectureNumber": 10,
    "prefecture": "群馬県",
    "city": "富岡市",
    "town": "小桑原"
  },
  "3702303": {
    "zipcode": "3702303",
    "prefectureCode": "10",
    "prefectureNumber": 10,
    "prefecture": "群馬県",
    "city": "富岡市",
    "town": "蕨"
  },
  "3702304": {
    "zipcode": "3702304",
    "prefectureCode": "10",
    "prefectureNumber": 10,
    "prefecture": "群馬県",
    "city": "富岡市",
    "town": "後賀"
  },
  "3702305": {
    "zipcode": "3702305",
    "prefectureCode": "10",
    "prefectureNumber": 10,
    "prefecture": "群馬県",
    "city": "富岡市",
    "town": "白岩"
  },
  "3702306": {
    "zipcode": "3702306",
    "prefectureCode": "10",
    "prefectureNumber": 10,
    "prefecture": "群馬県",
    "city": "富岡市",
    "town": "相野田"
  },
  "3702307": {
    "zipcode": "3702307",
    "prefectureCode": "10",
    "prefectureNumber": 10,
    "prefecture": "群馬県",
    "city": "富岡市",
    "town": "藤木"
  },
  "3702311": {
    "zipcode": "3702311",
    "prefectureCode": "10",
    "prefectureNumber": 10,
    "prefecture": "群馬県",
    "city": "富岡市",
    "town": "下高尾"
  },
  "3702312": {
    "zipcode": "3702312",
    "prefectureCode": "10",
    "prefectureNumber": 10,
    "prefecture": "群馬県",
    "city": "富岡市",
    "town": "星田"
  },
  "3702313": {
    "zipcode": "3702313",
    "prefectureCode": "10",
    "prefectureNumber": 10,
    "prefecture": "群馬県",
    "city": "富岡市",
    "town": "君川"
  },
  "3702314": {
    "zipcode": "3702314",
    "prefectureCode": "10",
    "prefectureNumber": 10,
    "prefecture": "群馬県",
    "city": "富岡市",
    "town": "田篠"
  },
  "3702315": {
    "zipcode": "3702315",
    "prefectureCode": "10",
    "prefectureNumber": 10,
    "prefecture": "群馬県",
    "city": "富岡市",
    "town": "曽木"
  },
  "3702316": {
    "zipcode": "3702316",
    "prefectureCode": "10",
    "prefectureNumber": 10,
    "prefecture": "群馬県",
    "city": "富岡市",
    "town": "富岡"
  },
  "3702317": {
    "zipcode": "3702317",
    "prefectureCode": "10",
    "prefectureNumber": 10,
    "prefecture": "群馬県",
    "city": "富岡市",
    "town": "上高尾"
  },
  "3702321": {
    "zipcode": "3702321",
    "prefectureCode": "10",
    "prefectureNumber": 10,
    "prefecture": "群馬県",
    "city": "富岡市",
    "town": "岡本"
  },
  "3702322": {
    "zipcode": "3702322",
    "prefectureCode": "10",
    "prefectureNumber": 10,
    "prefecture": "群馬県",
    "city": "富岡市",
    "town": "岩染"
  },
  "3702323": {
    "zipcode": "3702323",
    "prefectureCode": "10",
    "prefectureNumber": 10,
    "prefecture": "群馬県",
    "city": "富岡市",
    "town": "野上"
  },
  "3702324": {
    "zipcode": "3702324",
    "prefectureCode": "10",
    "prefectureNumber": 10,
    "prefecture": "群馬県",
    "city": "富岡市",
    "town": "南後箇"
  },
  "3702331": {
    "zipcode": "3702331",
    "prefectureCode": "10",
    "prefectureNumber": 10,
    "prefecture": "群馬県",
    "city": "富岡市",
    "town": "内匠"
  },
  "3702332": {
    "zipcode": "3702332",
    "prefectureCode": "10",
    "prefectureNumber": 10,
    "prefecture": "群馬県",
    "city": "富岡市",
    "town": "下高瀬"
  },
  "3702333": {
    "zipcode": "3702333",
    "prefectureCode": "10",
    "prefectureNumber": 10,
    "prefecture": "群馬県",
    "city": "富岡市",
    "town": "中高瀬"
  },
  "3702334": {
    "zipcode": "3702334",
    "prefectureCode": "10",
    "prefectureNumber": 10,
    "prefecture": "群馬県",
    "city": "富岡市",
    "town": "上高瀬"
  },
  "3702335": {
    "zipcode": "3702335",
    "prefectureCode": "10",
    "prefectureNumber": 10,
    "prefecture": "群馬県",
    "city": "富岡市",
    "town": "大島"
  },
  "3702341": {
    "zipcode": "3702341",
    "prefectureCode": "10",
    "prefectureNumber": 10,
    "prefecture": "群馬県",
    "city": "富岡市",
    "town": "下黒岩"
  },
  "3702342": {
    "zipcode": "3702342",
    "prefectureCode": "10",
    "prefectureNumber": 10,
    "prefecture": "群馬県",
    "city": "富岡市",
    "town": "別保"
  },
  "3702343": {
    "zipcode": "3702343",
    "prefectureCode": "10",
    "prefectureNumber": 10,
    "prefecture": "群馬県",
    "city": "富岡市",
    "town": "七日市"
  },
  "3702344": {
    "zipcode": "3702344",
    "prefectureCode": "10",
    "prefectureNumber": 10,
    "prefecture": "群馬県",
    "city": "富岡市",
    "town": "黒川"
  },
  "3702345": {
    "zipcode": "3702345",
    "prefectureCode": "10",
    "prefectureNumber": 10,
    "prefecture": "群馬県",
    "city": "富岡市",
    "town": "上黒岩"
  },
  "3702411": {
    "zipcode": "3702411",
    "prefectureCode": "10",
    "prefectureNumber": 10,
    "prefecture": "群馬県",
    "city": "富岡市",
    "town": "妙義町上高田"
  },
  "3702412": {
    "zipcode": "3702412",
    "prefectureCode": "10",
    "prefectureNumber": 10,
    "prefecture": "群馬県",
    "city": "富岡市",
    "town": "妙義町下高田"
  },
  "3702413": {
    "zipcode": "3702413",
    "prefectureCode": "10",
    "prefectureNumber": 10,
    "prefecture": "群馬県",
    "city": "富岡市",
    "town": "妙義町八木連"
  },
  "3702451": {
    "zipcode": "3702451",
    "prefectureCode": "10",
    "prefectureNumber": 10,
    "prefecture": "群馬県",
    "city": "富岡市",
    "town": "宇田"
  },
  "3702452": {
    "zipcode": "3702452",
    "prefectureCode": "10",
    "prefectureNumber": 10,
    "prefecture": "群馬県",
    "city": "富岡市",
    "town": "一ノ宮"
  },
  "3702453": {
    "zipcode": "3702453",
    "prefectureCode": "10",
    "prefectureNumber": 10,
    "prefecture": "群馬県",
    "city": "富岡市",
    "town": "宮崎"
  },
  "3702454": {
    "zipcode": "3702454",
    "prefectureCode": "10",
    "prefectureNumber": 10,
    "prefecture": "群馬県",
    "city": "富岡市",
    "town": "田島"
  },
  "3702455": {
    "zipcode": "3702455",
    "prefectureCode": "10",
    "prefectureNumber": 10,
    "prefecture": "群馬県",
    "city": "富岡市",
    "town": "神農原"
  },
  "3702456": {
    "zipcode": "3702456",
    "prefectureCode": "10",
    "prefectureNumber": 10,
    "prefecture": "群馬県",
    "city": "富岡市",
    "town": "上小林"
  },
  "3702461": {
    "zipcode": "3702461",
    "prefectureCode": "10",
    "prefectureNumber": 10,
    "prefecture": "群馬県",
    "city": "富岡市",
    "town": "上丹生"
  },
  "3702462": {
    "zipcode": "3702462",
    "prefectureCode": "10",
    "prefectureNumber": 10,
    "prefecture": "群馬県",
    "city": "富岡市",
    "town": "下丹生"
  },
  "3702463": {
    "zipcode": "3702463",
    "prefectureCode": "10",
    "prefectureNumber": 10,
    "prefecture": "群馬県",
    "city": "富岡市",
    "town": "神成"
  },
  "3702464": {
    "zipcode": "3702464",
    "prefectureCode": "10",
    "prefectureNumber": 10,
    "prefecture": "群馬県",
    "city": "富岡市",
    "town": "南蛇井"
  },
  "3702465": {
    "zipcode": "3702465",
    "prefectureCode": "10",
    "prefectureNumber": 10,
    "prefecture": "群馬県",
    "city": "富岡市",
    "town": "中沢"
  },
  "3702466": {
    "zipcode": "3702466",
    "prefectureCode": "10",
    "prefectureNumber": 10,
    "prefecture": "群馬県",
    "city": "富岡市",
    "town": "蚊沼"
  },
  "3702467": {
    "zipcode": "3702467",
    "prefectureCode": "10",
    "prefectureNumber": 10,
    "prefecture": "群馬県",
    "city": "富岡市",
    "town": "原"
  },
  "3702600": {
    "zipcode": "3702600",
    "prefectureCode": "10",
    "prefectureNumber": 10,
    "prefecture": "群馬県",
    "city": "甘楽郡下仁田町",
    "town": "以下に掲載がない場合"
  },
  "3702601": {
    "zipcode": "3702601",
    "prefectureCode": "10",
    "prefectureNumber": 10,
    "prefecture": "群馬県",
    "city": "甘楽郡下仁田町",
    "town": "下仁田"
  },
  "3702602": {
    "zipcode": "3702602",
    "prefectureCode": "10",
    "prefectureNumber": 10,
    "prefecture": "群馬県",
    "city": "甘楽郡下仁田町",
    "town": "白山"
  },
  "3702603": {
    "zipcode": "3702603",
    "prefectureCode": "10",
    "prefectureNumber": 10,
    "prefecture": "群馬県",
    "city": "甘楽郡下仁田町",
    "town": "馬山"
  },
  "3702604": {
    "zipcode": "3702604",
    "prefectureCode": "10",
    "prefectureNumber": 10,
    "prefecture": "群馬県",
    "city": "甘楽郡下仁田町",
    "town": "吉崎"
  },
  "3702605": {
    "zipcode": "3702605",
    "prefectureCode": "10",
    "prefectureNumber": 10,
    "prefecture": "群馬県",
    "city": "甘楽郡下仁田町",
    "town": "栗山"
  },
  "3702606": {
    "zipcode": "3702606",
    "prefectureCode": "10",
    "prefectureNumber": 10,
    "prefecture": "群馬県",
    "city": "甘楽郡下仁田町",
    "town": "川井"
  },
  "3702611": {
    "zipcode": "3702611",
    "prefectureCode": "10",
    "prefectureNumber": 10,
    "prefecture": "群馬県",
    "city": "甘楽郡下仁田町",
    "town": "青倉"
  },
  "3702612": {
    "zipcode": "3702612",
    "prefectureCode": "10",
    "prefectureNumber": 10,
    "prefecture": "群馬県",
    "city": "甘楽郡下仁田町",
    "town": "平原"
  },
  "3702613": {
    "zipcode": "3702613",
    "prefectureCode": "10",
    "prefectureNumber": 10,
    "prefecture": "群馬県",
    "city": "甘楽郡下仁田町",
    "town": "大桑原"
  },
  "3702614": {
    "zipcode": "3702614",
    "prefectureCode": "10",
    "prefectureNumber": 10,
    "prefecture": "群馬県",
    "city": "甘楽郡下仁田町",
    "town": "風口"
  },
  "3702615": {
    "zipcode": "3702615",
    "prefectureCode": "10",
    "prefectureNumber": 10,
    "prefecture": "群馬県",
    "city": "甘楽郡下仁田町",
    "town": "宮室"
  },
  "3702616": {
    "zipcode": "3702616",
    "prefectureCode": "10",
    "prefectureNumber": 10,
    "prefecture": "群馬県",
    "city": "甘楽郡下仁田町",
    "town": "下郷"
  },
  "3702621": {
    "zipcode": "3702621",
    "prefectureCode": "10",
    "prefectureNumber": 10,
    "prefecture": "群馬県",
    "city": "甘楽郡下仁田町",
    "town": "上小坂"
  },
  "3702622": {
    "zipcode": "3702622",
    "prefectureCode": "10",
    "prefectureNumber": 10,
    "prefecture": "群馬県",
    "city": "甘楽郡下仁田町",
    "town": "中小坂"
  },
  "3702623": {
    "zipcode": "3702623",
    "prefectureCode": "10",
    "prefectureNumber": 10,
    "prefecture": "群馬県",
    "city": "甘楽郡下仁田町",
    "town": "下小坂"
  },
  "3702624": {
    "zipcode": "3702624",
    "prefectureCode": "10",
    "prefectureNumber": 10,
    "prefecture": "群馬県",
    "city": "甘楽郡下仁田町",
    "town": "東野牧"
  },
  "3702625": {
    "zipcode": "3702625",
    "prefectureCode": "10",
    "prefectureNumber": 10,
    "prefecture": "群馬県",
    "city": "甘楽郡下仁田町",
    "town": "本宿"
  },
  "3702626": {
    "zipcode": "3702626",
    "prefectureCode": "10",
    "prefectureNumber": 10,
    "prefecture": "群馬県",
    "city": "甘楽郡下仁田町",
    "town": "南野牧"
  },
  "3702627": {
    "zipcode": "3702627",
    "prefectureCode": "10",
    "prefectureNumber": 10,
    "prefecture": "群馬県",
    "city": "甘楽郡下仁田町",
    "town": "西野牧"
  },
  "3702800": {
    "zipcode": "3702800",
    "prefectureCode": "10",
    "prefectureNumber": 10,
    "prefecture": "群馬県",
    "city": "甘楽郡南牧村",
    "town": "以下に掲載がない場合"
  },
  "3702801": {
    "zipcode": "3702801",
    "prefectureCode": "10",
    "prefectureNumber": 10,
    "prefecture": "群馬県",
    "city": "甘楽郡南牧村",
    "town": "大塩沢"
  },
  "3702802": {
    "zipcode": "3702802",
    "prefectureCode": "10",
    "prefectureNumber": 10,
    "prefecture": "群馬県",
    "city": "甘楽郡南牧村",
    "town": "小沢"
  },
  "3702803": {
    "zipcode": "3702803",
    "prefectureCode": "10",
    "prefectureNumber": 10,
    "prefecture": "群馬県",
    "city": "甘楽郡南牧村",
    "town": "千原"
  },
  "3702804": {
    "zipcode": "3702804",
    "prefectureCode": "10",
    "prefectureNumber": 10,
    "prefecture": "群馬県",
    "city": "甘楽郡南牧村",
    "town": "磐戸"
  },
  "3702805": {
    "zipcode": "3702805",
    "prefectureCode": "10",
    "prefectureNumber": 10,
    "prefecture": "群馬県",
    "city": "甘楽郡南牧村",
    "town": "檜沢"
  },
  "3702806": {
    "zipcode": "3702806",
    "prefectureCode": "10",
    "prefectureNumber": 10,
    "prefecture": "群馬県",
    "city": "甘楽郡南牧村",
    "town": "大日向"
  },
  "3702811": {
    "zipcode": "3702811",
    "prefectureCode": "10",
    "prefectureNumber": 10,
    "prefecture": "群馬県",
    "city": "甘楽郡南牧村",
    "town": "六車"
  },
  "3702812": {
    "zipcode": "3702812",
    "prefectureCode": "10",
    "prefectureNumber": 10,
    "prefecture": "群馬県",
    "city": "甘楽郡南牧村",
    "town": "大仁田"
  },
  "3702813": {
    "zipcode": "3702813",
    "prefectureCode": "10",
    "prefectureNumber": 10,
    "prefecture": "群馬県",
    "city": "甘楽郡南牧村",
    "town": "砥沢"
  },
  "3702814": {
    "zipcode": "3702814",
    "prefectureCode": "10",
    "prefectureNumber": 10,
    "prefecture": "群馬県",
    "city": "甘楽郡南牧村",
    "town": "羽沢"
  },
  "3702815": {
    "zipcode": "3702815",
    "prefectureCode": "10",
    "prefectureNumber": 10,
    "prefecture": "群馬県",
    "city": "甘楽郡南牧村",
    "town": "熊倉"
  },
  "3702816": {
    "zipcode": "3702816",
    "prefectureCode": "10",
    "prefectureNumber": 10,
    "prefecture": "群馬県",
    "city": "甘楽郡南牧村",
    "town": "星尾"
  },
  "3703101": {
    "zipcode": "3703101",
    "prefectureCode": "10",
    "prefectureNumber": 10,
    "prefecture": "群馬県",
    "city": "高崎市",
    "town": "箕郷町柏木沢"
  },
  "3703102": {
    "zipcode": "3703102",
    "prefectureCode": "10",
    "prefectureNumber": 10,
    "prefecture": "群馬県",
    "city": "高崎市",
    "town": "箕郷町生原"
  },
  "3703103": {
    "zipcode": "3703103",
    "prefectureCode": "10",
    "prefectureNumber": 10,
    "prefecture": "群馬県",
    "city": "高崎市",
    "town": "箕郷町下芝"
  },
  "3703104": {
    "zipcode": "3703104",
    "prefectureCode": "10",
    "prefectureNumber": 10,
    "prefecture": "群馬県",
    "city": "高崎市",
    "town": "箕郷町上芝"
  },
  "3703105": {
    "zipcode": "3703105",
    "prefectureCode": "10",
    "prefectureNumber": 10,
    "prefecture": "群馬県",
    "city": "高崎市",
    "town": "箕郷町西明屋"
  },
  "3703106": {
    "zipcode": "3703106",
    "prefectureCode": "10",
    "prefectureNumber": 10,
    "prefecture": "群馬県",
    "city": "高崎市",
    "town": "箕郷町東明屋"
  },
  "3703107": {
    "zipcode": "3703107",
    "prefectureCode": "10",
    "prefectureNumber": 10,
    "prefecture": "群馬県",
    "city": "高崎市",
    "town": "箕郷町矢原"
  },
  "3703111": {
    "zipcode": "3703111",
    "prefectureCode": "10",
    "prefectureNumber": 10,
    "prefecture": "群馬県",
    "city": "高崎市",
    "town": "箕郷町中野"
  },
  "3703112": {
    "zipcode": "3703112",
    "prefectureCode": "10",
    "prefectureNumber": 10,
    "prefecture": "群馬県",
    "city": "高崎市",
    "town": "箕郷町善地"
  },
  "3703113": {
    "zipcode": "3703113",
    "prefectureCode": "10",
    "prefectureNumber": 10,
    "prefecture": "群馬県",
    "city": "高崎市",
    "town": "箕郷町松之沢"
  },
  "3703114": {
    "zipcode": "3703114",
    "prefectureCode": "10",
    "prefectureNumber": 10,
    "prefecture": "群馬県",
    "city": "高崎市",
    "town": "箕郷町金敷平"
  },
  "3703115": {
    "zipcode": "3703115",
    "prefectureCode": "10",
    "prefectureNumber": 10,
    "prefecture": "群馬県",
    "city": "高崎市",
    "town": "箕郷町富岡"
  },
  "3703116": {
    "zipcode": "3703116",
    "prefectureCode": "10",
    "prefectureNumber": 10,
    "prefecture": "群馬県",
    "city": "高崎市",
    "town": "箕郷町和田山"
  },
  "3703117": {
    "zipcode": "3703117",
    "prefectureCode": "10",
    "prefectureNumber": 10,
    "prefecture": "群馬県",
    "city": "高崎市",
    "town": "箕郷町白川"
  },
  "3703311": {
    "zipcode": "3703311",
    "prefectureCode": "10",
    "prefectureNumber": 10,
    "prefecture": "群馬県",
    "city": "吾妻郡東吾妻町",
    "town": "岡崎（烏帽子「榛名湖畔」）"
  },
  "3703321": {
    "zipcode": "3703321",
    "prefectureCode": "10",
    "prefectureNumber": 10,
    "prefecture": "群馬県",
    "city": "吾妻郡東吾妻町",
    "town": "泉沢（烏帽子「榛名湖畔」、烏帽子国有林７７林班）"
  },
  "3703322": {
    "zipcode": "3703322",
    "prefectureCode": "10",
    "prefectureNumber": 10,
    "prefecture": "群馬県",
    "city": "吾妻郡東吾妻町",
    "town": "川戸（烏帽子「榛名湖畔」）"
  },
  "3703331": {
    "zipcode": "3703331",
    "prefectureCode": "10",
    "prefectureNumber": 10,
    "prefecture": "群馬県",
    "city": "高崎市",
    "town": "十文字町"
  },
  "3703332": {
    "zipcode": "3703332",
    "prefectureCode": "10",
    "prefectureNumber": 10,
    "prefecture": "群馬県",
    "city": "高崎市",
    "town": "白岩町"
  },
  "3703333": {
    "zipcode": "3703333",
    "prefectureCode": "10",
    "prefectureNumber": 10,
    "prefecture": "群馬県",
    "city": "高崎市",
    "town": "高浜町"
  },
  "3703334": {
    "zipcode": "3703334",
    "prefectureCode": "10",
    "prefectureNumber": 10,
    "prefecture": "群馬県",
    "city": "高崎市",
    "town": "本郷町"
  },
  "3703335": {
    "zipcode": "3703335",
    "prefectureCode": "10",
    "prefectureNumber": 10,
    "prefecture": "群馬県",
    "city": "高崎市",
    "town": "上大島町"
  },
  "3703336": {
    "zipcode": "3703336",
    "prefectureCode": "10",
    "prefectureNumber": 10,
    "prefecture": "群馬県",
    "city": "高崎市",
    "town": "神戸町"
  },
  "3703337": {
    "zipcode": "3703337",
    "prefectureCode": "10",
    "prefectureNumber": 10,
    "prefecture": "群馬県",
    "city": "高崎市",
    "town": "三ツ子沢町"
  },
  "3703338": {
    "zipcode": "3703338",
    "prefectureCode": "10",
    "prefectureNumber": 10,
    "prefecture": "群馬県",
    "city": "高崎市",
    "town": "宮沢町"
  },
  "3703341": {
    "zipcode": "3703341",
    "prefectureCode": "10",
    "prefectureNumber": 10,
    "prefecture": "群馬県",
    "city": "高崎市",
    "town": "榛名山町"
  },
  "3703342": {
    "zipcode": "3703342",
    "prefectureCode": "10",
    "prefectureNumber": 10,
    "prefecture": "群馬県",
    "city": "高崎市",
    "town": "下室田町"
  },
  "3703343": {
    "zipcode": "3703343",
    "prefectureCode": "10",
    "prefectureNumber": 10,
    "prefecture": "群馬県",
    "city": "高崎市",
    "town": "下里見町"
  },
  "3703344": {
    "zipcode": "3703344",
    "prefectureCode": "10",
    "prefectureNumber": 10,
    "prefecture": "群馬県",
    "city": "高崎市",
    "town": "中里見町"
  },
  "3703345": {
    "zipcode": "3703345",
    "prefectureCode": "10",
    "prefectureNumber": 10,
    "prefecture": "群馬県",
    "city": "高崎市",
    "town": "上里見町"
  },
  "3703346": {
    "zipcode": "3703346",
    "prefectureCode": "10",
    "prefectureNumber": 10,
    "prefecture": "群馬県",
    "city": "高崎市",
    "town": "上室田町"
  },
  "3703347": {
    "zipcode": "3703347",
    "prefectureCode": "10",
    "prefectureNumber": 10,
    "prefecture": "群馬県",
    "city": "高崎市",
    "town": "中室田町"
  },
  "3703348": {
    "zipcode": "3703348",
    "prefectureCode": "10",
    "prefectureNumber": 10,
    "prefecture": "群馬県",
    "city": "高崎市",
    "town": "榛名湖町"
  },
  "3703401": {
    "zipcode": "3703401",
    "prefectureCode": "10",
    "prefectureNumber": 10,
    "prefecture": "群馬県",
    "city": "高崎市",
    "town": "倉渕町権田"
  },
  "3703402": {
    "zipcode": "3703402",
    "prefectureCode": "10",
    "prefectureNumber": 10,
    "prefecture": "群馬県",
    "city": "高崎市",
    "town": "倉渕町三ノ倉"
  },
  "3703403": {
    "zipcode": "3703403",
    "prefectureCode": "10",
    "prefectureNumber": 10,
    "prefecture": "群馬県",
    "city": "高崎市",
    "town": "倉渕町水沼"
  },
  "3703404": {
    "zipcode": "3703404",
    "prefectureCode": "10",
    "prefectureNumber": 10,
    "prefecture": "群馬県",
    "city": "高崎市",
    "town": "倉渕町岩氷"
  },
  "3703405": {
    "zipcode": "3703405",
    "prefectureCode": "10",
    "prefectureNumber": 10,
    "prefecture": "群馬県",
    "city": "高崎市",
    "town": "倉渕町川浦"
  },
  "3703500": {
    "zipcode": "3703500",
    "prefectureCode": "10",
    "prefectureNumber": 10,
    "prefecture": "群馬県",
    "city": "北群馬郡榛東村",
    "town": "以下に掲載がない場合"
  },
  "3703501": {
    "zipcode": "3703501",
    "prefectureCode": "10",
    "prefectureNumber": 10,
    "prefecture": "群馬県",
    "city": "北群馬郡榛東村",
    "town": "長岡"
  },
  "3703502": {
    "zipcode": "3703502",
    "prefectureCode": "10",
    "prefectureNumber": 10,
    "prefecture": "群馬県",
    "city": "北群馬郡榛東村",
    "town": "山子田"
  },
  "3703503": {
    "zipcode": "3703503",
    "prefectureCode": "10",
    "prefectureNumber": 10,
    "prefecture": "群馬県",
    "city": "北群馬郡榛東村",
    "town": "新井"
  },
  "3703504": {
    "zipcode": "3703504",
    "prefectureCode": "10",
    "prefectureNumber": 10,
    "prefecture": "群馬県",
    "city": "北群馬郡榛東村",
    "town": "広馬場"
  },
  "3703505": {
    "zipcode": "3703505",
    "prefectureCode": "10",
    "prefectureNumber": 10,
    "prefecture": "群馬県",
    "city": "北群馬郡榛東村",
    "town": "上野原"
  },
  "3703511": {
    "zipcode": "3703511",
    "prefectureCode": "10",
    "prefectureNumber": 10,
    "prefecture": "群馬県",
    "city": "高崎市",
    "town": "金古町"
  },
  "3703512": {
    "zipcode": "3703512",
    "prefectureCode": "10",
    "prefectureNumber": 10,
    "prefecture": "群馬県",
    "city": "高崎市",
    "town": "西国分町"
  },
  "3703513": {
    "zipcode": "3703513",
    "prefectureCode": "10",
    "prefectureNumber": 10,
    "prefecture": "群馬県",
    "city": "高崎市",
    "town": "北原町"
  },
  "3703514": {
    "zipcode": "3703514",
    "prefectureCode": "10",
    "prefectureNumber": 10,
    "prefecture": "群馬県",
    "city": "高崎市",
    "town": "東国分町"
  },
  "3703515": {
    "zipcode": "3703515",
    "prefectureCode": "10",
    "prefectureNumber": 10,
    "prefecture": "群馬県",
    "city": "高崎市",
    "town": "塚田町"
  },
  "3703516": {
    "zipcode": "3703516",
    "prefectureCode": "10",
    "prefectureNumber": 10,
    "prefecture": "群馬県",
    "city": "高崎市",
    "town": "稲荷台町"
  },
  "3703517": {
    "zipcode": "3703517",
    "prefectureCode": "10",
    "prefectureNumber": 10,
    "prefecture": "群馬県",
    "city": "高崎市",
    "town": "引間町"
  },
  "3703518": {
    "zipcode": "3703518",
    "prefectureCode": "10",
    "prefectureNumber": 10,
    "prefecture": "群馬県",
    "city": "高崎市",
    "town": "後疋間町"
  },
  "3703519": {
    "zipcode": "3703519",
    "prefectureCode": "10",
    "prefectureNumber": 10,
    "prefecture": "群馬県",
    "city": "高崎市",
    "town": "冷水町"
  },
  "3703521": {
    "zipcode": "3703521",
    "prefectureCode": "10",
    "prefectureNumber": 10,
    "prefecture": "群馬県",
    "city": "高崎市",
    "town": "棟高町"
  },
  "3703522": {
    "zipcode": "3703522",
    "prefectureCode": "10",
    "prefectureNumber": 10,
    "prefecture": "群馬県",
    "city": "高崎市",
    "town": "菅谷町"
  },
  "3703523": {
    "zipcode": "3703523",
    "prefectureCode": "10",
    "prefectureNumber": 10,
    "prefecture": "群馬県",
    "city": "高崎市",
    "town": "福島町"
  },
  "3703524": {
    "zipcode": "3703524",
    "prefectureCode": "10",
    "prefectureNumber": 10,
    "prefecture": "群馬県",
    "city": "高崎市",
    "town": "中泉町"
  },
  "3703525": {
    "zipcode": "3703525",
    "prefectureCode": "10",
    "prefectureNumber": 10,
    "prefecture": "群馬県",
    "city": "高崎市",
    "town": "三ツ寺町"
  },
  "3703531": {
    "zipcode": "3703531",
    "prefectureCode": "10",
    "prefectureNumber": 10,
    "prefecture": "群馬県",
    "city": "高崎市",
    "town": "足門町"
  },
  "3703532": {
    "zipcode": "3703532",
    "prefectureCode": "10",
    "prefectureNumber": 10,
    "prefecture": "群馬県",
    "city": "高崎市",
    "town": "中里町"
  },
  "3703533": {
    "zipcode": "3703533",
    "prefectureCode": "10",
    "prefectureNumber": 10,
    "prefecture": "群馬県",
    "city": "高崎市",
    "town": "保渡田町"
  },
  "3703534": {
    "zipcode": "3703534",
    "prefectureCode": "10",
    "prefectureNumber": 10,
    "prefecture": "群馬県",
    "city": "高崎市",
    "town": "井出町"
  },
  "3703571": {
    "zipcode": "3703571",
    "prefectureCode": "10",
    "prefectureNumber": 10,
    "prefecture": "群馬県",
    "city": "前橋市",
    "town": "池端町"
  },
  "3703572": {
    "zipcode": "3703572",
    "prefectureCode": "10",
    "prefectureNumber": 10,
    "prefecture": "群馬県",
    "city": "前橋市",
    "town": "上青梨子町"
  },
  "3703573": {
    "zipcode": "3703573",
    "prefectureCode": "10",
    "prefectureNumber": 10,
    "prefecture": "群馬県",
    "city": "前橋市",
    "town": "青梨子町"
  },
  "3703574": {
    "zipcode": "3703574",
    "prefectureCode": "10",
    "prefectureNumber": 10,
    "prefecture": "群馬県",
    "city": "前橋市",
    "town": "清野町"
  },
  "3703600": {
    "zipcode": "3703600",
    "prefectureCode": "10",
    "prefectureNumber": 10,
    "prefecture": "群馬県",
    "city": "北群馬郡吉岡町",
    "town": "以下に掲載がない場合"
  },
  "3703601": {
    "zipcode": "3703601",
    "prefectureCode": "10",
    "prefectureNumber": 10,
    "prefecture": "群馬県",
    "city": "北群馬郡吉岡町",
    "town": "漆原"
  },
  "3703602": {
    "zipcode": "3703602",
    "prefectureCode": "10",
    "prefectureNumber": 10,
    "prefecture": "群馬県",
    "city": "北群馬郡吉岡町",
    "town": "大久保"
  },
  "3703603": {
    "zipcode": "3703603",
    "prefectureCode": "10",
    "prefectureNumber": 10,
    "prefecture": "群馬県",
    "city": "北群馬郡吉岡町",
    "town": "陣場"
  },
  "3703604": {
    "zipcode": "3703604",
    "prefectureCode": "10",
    "prefectureNumber": 10,
    "prefecture": "群馬県",
    "city": "北群馬郡吉岡町",
    "town": "南下"
  },
  "3703605": {
    "zipcode": "3703605",
    "prefectureCode": "10",
    "prefectureNumber": 10,
    "prefecture": "群馬県",
    "city": "北群馬郡吉岡町",
    "town": "北下"
  },
  "3703606": {
    "zipcode": "3703606",
    "prefectureCode": "10",
    "prefectureNumber": 10,
    "prefecture": "群馬県",
    "city": "北群馬郡吉岡町",
    "town": "上野田"
  },
  "3703607": {
    "zipcode": "3703607",
    "prefectureCode": "10",
    "prefectureNumber": 10,
    "prefecture": "群馬県",
    "city": "北群馬郡吉岡町",
    "town": "小倉"
  },
  "3703608": {
    "zipcode": "3703608",
    "prefectureCode": "10",
    "prefectureNumber": 10,
    "prefecture": "群馬県",
    "city": "北群馬郡吉岡町",
    "town": "下野田"
  }
}
