{
  "3710000": {
    "zipcode": "3710000",
    "prefectureCode": "10",
    "prefectureNumber": 10,
    "prefecture": "群馬県",
    "city": "前橋市",
    "town": "以下に掲載がない場合"
  },
  "3710001": {
    "zipcode": "3710001",
    "prefectureCode": "10",
    "prefectureNumber": 10,
    "prefecture": "群馬県",
    "city": "前橋市",
    "town": "荻窪町"
  },
  "3710002": {
    "zipcode": "3710002",
    "prefectureCode": "10",
    "prefectureNumber": 10,
    "prefecture": "群馬県",
    "city": "前橋市",
    "town": "江木町"
  },
  "3710003": {
    "zipcode": "3710003",
    "prefectureCode": "10",
    "prefectureNumber": 10,
    "prefecture": "群馬県",
    "city": "前橋市",
    "town": "堤町"
  },
  "3710004": {
    "zipcode": "3710004",
    "prefectureCode": "10",
    "prefectureNumber": 10,
    "prefecture": "群馬県",
    "city": "前橋市",
    "town": "亀泉町"
  },
  "3710005": {
    "zipcode": "3710005",
    "prefectureCode": "10",
    "prefectureNumber": 10,
    "prefecture": "群馬県",
    "city": "前橋市",
    "town": "堀之下町"
  },
  "3710006": {
    "zipcode": "3710006",
    "prefectureCode": "10",
    "prefectureNumber": 10,
    "prefecture": "群馬県",
    "city": "前橋市",
    "town": "石関町"
  },
  "3710007": {
    "zipcode": "3710007",
    "prefectureCode": "10",
    "prefectureNumber": 10,
    "prefecture": "群馬県",
    "city": "前橋市",
    "town": "上泉町"
  },
  "3710011": {
    "zipcode": "3710011",
    "prefectureCode": "10",
    "prefectureNumber": 10,
    "prefecture": "群馬県",
    "city": "前橋市",
    "town": "下沖町"
  },
  "3710012": {
    "zipcode": "3710012",
    "prefectureCode": "10",
    "prefectureNumber": 10,
    "prefecture": "群馬県",
    "city": "前橋市",
    "town": "東片貝町"
  },
  "3710013": {
    "zipcode": "3710013",
    "prefectureCode": "10",
    "prefectureNumber": 10,
    "prefecture": "群馬県",
    "city": "前橋市",
    "town": "西片貝町"
  },
  "3710014": {
    "zipcode": "3710014",
    "prefectureCode": "10",
    "prefectureNumber": 10,
    "prefecture": "群馬県",
    "city": "前橋市",
    "town": "朝日町"
  },
  "3710015": {
    "zipcode": "3710015",
    "prefectureCode": "10",
    "prefectureNumber": 10,
    "prefecture": "群馬県",
    "city": "前橋市",
    "town": "三河町"
  },
  "3710016": {
    "zipcode": "3710016",
    "prefectureCode": "10",
    "prefectureNumber": 10,
    "prefecture": "群馬県",
    "city": "前橋市",
    "town": "城東町"
  },
  "3710017": {
    "zipcode": "3710017",
    "prefectureCode": "10",
    "prefectureNumber": 10,
    "prefecture": "群馬県",
    "city": "前橋市",
    "town": "日吉町"
  },
  "3710018": {
    "zipcode": "3710018",
    "prefectureCode": "10",
    "prefectureNumber": 10,
    "prefecture": "群馬県",
    "city": "前橋市",
    "town": "三俣町"
  },
  "3710021": {
    "zipcode": "3710021",
    "prefectureCode": "10",
    "prefectureNumber": 10,
    "prefecture": "群馬県",
    "city": "前橋市",
    "town": "住吉町"
  },
  "3710022": {
    "zipcode": "3710022",
    "prefectureCode": "10",
    "prefectureNumber": 10,
    "prefecture": "群馬県",
    "city": "前橋市",
    "town": "千代田町"
  },
  "3710023": {
    "zipcode": "3710023",
    "prefectureCode": "10",
    "prefectureNumber": 10,
    "prefecture": "群馬県",
    "city": "前橋市",
    "town": "本町"
  },
  "3710024": {
    "zipcode": "3710024",
    "prefectureCode": "10",
    "prefectureNumber": 10,
    "prefecture": "群馬県",
    "city": "前橋市",
    "town": "表町"
  },
  "3710025": {
    "zipcode": "3710025",
    "prefectureCode": "10",
    "prefectureNumber": 10,
    "prefecture": "群馬県",
    "city": "前橋市",
    "town": "紅雲町"
  },
  "3710026": {
    "zipcode": "3710026",
    "prefectureCode": "10",
    "prefectureNumber": 10,
    "prefecture": "群馬県",
    "city": "前橋市",
    "town": "大手町"
  },
  "3710027": {
    "zipcode": "3710027",
    "prefectureCode": "10",
    "prefectureNumber": 10,
    "prefecture": "群馬県",
    "city": "前橋市",
    "town": "平和町"
  },
  "3710031": {
    "zipcode": "3710031",
    "prefectureCode": "10",
    "prefectureNumber": 10,
    "prefecture": "群馬県",
    "city": "前橋市",
    "town": "下小出町"
  },
  "3710032": {
    "zipcode": "3710032",
    "prefectureCode": "10",
    "prefectureNumber": 10,
    "prefecture": "群馬県",
    "city": "前橋市",
    "town": "若宮町"
  },
  "3710033": {
    "zipcode": "3710033",
    "prefectureCode": "10",
    "prefectureNumber": 10,
    "prefecture": "群馬県",
    "city": "前橋市",
    "town": "国領町"
  },
  "3710034": {
    "zipcode": "3710034",
    "prefectureCode": "10",
    "prefectureNumber": 10,
    "prefecture": "群馬県",
    "city": "前橋市",
    "town": "昭和町"
  },
  "3710035": {
    "zipcode": "3710035",
    "prefectureCode": "10",
    "prefectureNumber": 10,
    "prefecture": "群馬県",
    "city": "前橋市",
    "town": "岩神町"
  },
  "3710036": {
    "zipcode": "3710036",
    "prefectureCode": "10",
    "prefectureNumber": 10,
    "prefecture": "群馬県",
    "city": "前橋市",
    "town": "敷島町"
  },
  "3710037": {
    "zipcode": "3710037",
    "prefectureCode": "10",
    "prefectureNumber": 10,
    "prefecture": "群馬県",
    "city": "前橋市",
    "town": "上小出町"
  },
  "3710041": {
    "zipcode": "3710041",
    "prefectureCode": "10",
    "prefectureNumber": 10,
    "prefecture": "群馬県",
    "city": "前橋市",
    "town": "川端町"
  },
  "3710042": {
    "zipcode": "3710042",
    "prefectureCode": "10",
    "prefectureNumber": 10,
    "prefecture": "群馬県",
    "city": "前橋市",
    "town": "日輪寺町"
  },
  "3710043": {
    "zipcode": "3710043",
    "prefectureCode": "10",
    "prefectureNumber": 10,
    "prefecture": "群馬県",
    "city": "前橋市",
    "town": "南橘町"
  },
  "3710044": {
    "zipcode": "3710044",
    "prefectureCode": "10",
    "prefectureNumber": 10,
    "prefecture": "群馬県",
    "city": "前橋市",
    "town": "荒牧町"
  },
  "3710045": {
    "zipcode": "3710045",
    "prefectureCode": "10",
    "prefectureNumber": 10,
    "prefecture": "群馬県",
    "city": "前橋市",
    "town": "緑が丘町"
  },
  "3710046": {
    "zipcode": "3710046",
    "prefectureCode": "10",
    "prefectureNumber": 10,
    "prefecture": "群馬県",
    "city": "前橋市",
    "town": "川原町"
  },
  "3710047": {
    "zipcode": "3710047",
    "prefectureCode": "10",
    "prefectureNumber": 10,
    "prefecture": "群馬県",
    "city": "前橋市",
    "town": "関根町"
  },
  "3710048": {
    "zipcode": "3710048",
    "prefectureCode": "10",
    "prefectureNumber": 10,
    "prefecture": "群馬県",
    "city": "前橋市",
    "town": "田口町"
  },
  "3710051": {
    "zipcode": "3710051",
    "prefectureCode": "10",
    "prefectureNumber": 10,
    "prefecture": "群馬県",
    "city": "前橋市",
    "town": "上細井町"
  },
  "3710052": {
    "zipcode": "3710052",
    "prefectureCode": "10",
    "prefectureNumber": 10,
    "prefecture": "群馬県",
    "city": "前橋市",
    "town": "上沖町"
  },
  "3710053": {
    "zipcode": "3710053",
    "prefectureCode": "10",
    "prefectureNumber": 10,
    "prefecture": "群馬県",
    "city": "前橋市",
    "town": "幸塚町"
  },
  "3710054": {
    "zipcode": "3710054",
    "prefectureCode": "10",
    "prefectureNumber": 10,
    "prefecture": "群馬県",
    "city": "前橋市",
    "town": "下細井町"
  },
  "3710055": {
    "zipcode": "3710055",
    "prefectureCode": "10",
    "prefectureNumber": 10,
    "prefecture": "群馬県",
    "city": "前橋市",
    "town": "北代田町"
  },
  "3710056": {
    "zipcode": "3710056",
    "prefectureCode": "10",
    "prefectureNumber": 10,
    "prefecture": "群馬県",
    "city": "前橋市",
    "town": "青柳町"
  },
  "3710057": {
    "zipcode": "3710057",
    "prefectureCode": "10",
    "prefectureNumber": 10,
    "prefecture": "群馬県",
    "city": "前橋市",
    "town": "龍蔵寺町"
  },
  "3710101": {
    "zipcode": "3710101",
    "prefectureCode": "10",
    "prefectureNumber": 10,
    "prefecture": "群馬県",
    "city": "前橋市",
    "town": "富士見町赤城山"
  },
  "3710102": {
    "zipcode": "3710102",
    "prefectureCode": "10",
    "prefectureNumber": 10,
    "prefecture": "群馬県",
    "city": "前橋市",
    "town": "富士見町皆沢"
  },
  "3710103": {
    "zipcode": "3710103",
    "prefectureCode": "10",
    "prefectureNumber": 10,
    "prefecture": "群馬県",
    "city": "前橋市",
    "town": "富士見町小暮"
  },
  "3710104": {
    "zipcode": "3710104",
    "prefectureCode": "10",
    "prefectureNumber": 10,
    "prefecture": "群馬県",
    "city": "前橋市",
    "town": "富士見町時沢"
  },
  "3710105": {
    "zipcode": "3710105",
    "prefectureCode": "10",
    "prefectureNumber": 10,
    "prefecture": "群馬県",
    "city": "前橋市",
    "town": "富士見町石井"
  },
  "3710106": {
    "zipcode": "3710106",
    "prefectureCode": "10",
    "prefectureNumber": 10,
    "prefecture": "群馬県",
    "city": "前橋市",
    "town": "富士見町市之木場"
  },
  "3710107": {
    "zipcode": "3710107",
    "prefectureCode": "10",
    "prefectureNumber": 10,
    "prefecture": "群馬県",
    "city": "前橋市",
    "town": "富士見町山口"
  },
  "3710111": {
    "zipcode": "3710111",
    "prefectureCode": "10",
    "prefectureNumber": 10,
    "prefecture": "群馬県",
    "city": "前橋市",
    "town": "富士見町米野"
  },
  "3710112": {
    "zipcode": "3710112",
    "prefectureCode": "10",
    "prefectureNumber": 10,
    "prefecture": "群馬県",
    "city": "前橋市",
    "town": "富士見町引田"
  },
  "3710113": {
    "zipcode": "3710113",
    "prefectureCode": "10",
    "prefectureNumber": 10,
    "prefecture": "群馬県",
    "city": "前橋市",
    "town": "富士見町漆窪"
  },
  "3710114": {
    "zipcode": "3710114",
    "prefectureCode": "10",
    "prefectureNumber": 10,
    "prefecture": "群馬県",
    "city": "前橋市",
    "town": "富士見町田島"
  },
  "3710115": {
    "zipcode": "3710115",
    "prefectureCode": "10",
    "prefectureNumber": 10,
    "prefecture": "群馬県",
    "city": "前橋市",
    "town": "富士見町小沢"
  },
  "3710116": {
    "zipcode": "3710116",
    "prefectureCode": "10",
    "prefectureNumber": 10,
    "prefecture": "群馬県",
    "city": "前橋市",
    "town": "富士見町原之郷"
  },
  "3710117": {
    "zipcode": "3710117",
    "prefectureCode": "10",
    "prefectureNumber": 10,
    "prefecture": "群馬県",
    "city": "前橋市",
    "town": "富士見町横室"
  },
  "3710121": {
    "zipcode": "3710121",
    "prefectureCode": "10",
    "prefectureNumber": 10,
    "prefecture": "群馬県",
    "city": "前橋市",
    "town": "金丸町"
  },
  "3710122": {
    "zipcode": "3710122",
    "prefectureCode": "10",
    "prefectureNumber": 10,
    "prefecture": "群馬県",
    "city": "前橋市",
    "town": "小坂子町"
  },
  "3710123": {
    "zipcode": "3710123",
    "prefectureCode": "10",
    "prefectureNumber": 10,
    "prefecture": "群馬県",
    "city": "前橋市",
    "town": "高花台"
  },
  "3710124": {
    "zipcode": "3710124",
    "prefectureCode": "10",
    "prefectureNumber": 10,
    "prefecture": "群馬県",
    "city": "前橋市",
    "town": "勝沢町"
  },
  "3710125": {
    "zipcode": "3710125",
    "prefectureCode": "10",
    "prefectureNumber": 10,
    "prefecture": "群馬県",
    "city": "前橋市",
    "town": "嶺町"
  },
  "3710131": {
    "zipcode": "3710131",
    "prefectureCode": "10",
    "prefectureNumber": 10,
    "prefecture": "群馬県",
    "city": "前橋市",
    "town": "鳥取町"
  },
  "3710132": {
    "zipcode": "3710132",
    "prefectureCode": "10",
    "prefectureNumber": 10,
    "prefecture": "群馬県",
    "city": "前橋市",
    "town": "五代町"
  },
  "3710133": {
    "zipcode": "3710133",
    "prefectureCode": "10",
    "prefectureNumber": 10,
    "prefecture": "群馬県",
    "city": "前橋市",
    "town": "端気町"
  },
  "3710134": {
    "zipcode": "3710134",
    "prefectureCode": "10",
    "prefectureNumber": 10,
    "prefecture": "群馬県",
    "city": "前橋市",
    "town": "小神明町"
  },
  "3710201": {
    "zipcode": "3710201",
    "prefectureCode": "10",
    "prefectureNumber": 10,
    "prefecture": "群馬県",
    "city": "前橋市",
    "town": "粕川町中之沢"
  },
  "3710202": {
    "zipcode": "3710202",
    "prefectureCode": "10",
    "prefectureNumber": 10,
    "prefecture": "群馬県",
    "city": "前橋市",
    "town": "粕川町室沢"
  },
  "3710203": {
    "zipcode": "3710203",
    "prefectureCode": "10",
    "prefectureNumber": 10,
    "prefecture": "群馬県",
    "city": "前橋市",
    "town": "粕川町月田"
  },
  "3710204": {
    "zipcode": "3710204",
    "prefectureCode": "10",
    "prefectureNumber": 10,
    "prefecture": "群馬県",
    "city": "前橋市",
    "town": "粕川町膳"
  },
  "3710205": {
    "zipcode": "3710205",
    "prefectureCode": "10",
    "prefectureNumber": 10,
    "prefecture": "群馬県",
    "city": "前橋市",
    "town": "粕川町中"
  },
  "3710206": {
    "zipcode": "3710206",
    "prefectureCode": "10",
    "prefectureNumber": 10,
    "prefecture": "群馬県",
    "city": "前橋市",
    "town": "粕川町新屋"
  },
  "3710207": {
    "zipcode": "3710207",
    "prefectureCode": "10",
    "prefectureNumber": 10,
    "prefecture": "群馬県",
    "city": "前橋市",
    "town": "粕川町稲里"
  },
  "3710211": {
    "zipcode": "3710211",
    "prefectureCode": "10",
    "prefectureNumber": 10,
    "prefecture": "群馬県",
    "city": "前橋市",
    "town": "粕川町上東田面"
  },
  "3710212": {
    "zipcode": "3710212",
    "prefectureCode": "10",
    "prefectureNumber": 10,
    "prefecture": "群馬県",
    "city": "前橋市",
    "town": "粕川町下東田面"
  },
  "3710213": {
    "zipcode": "3710213",
    "prefectureCode": "10",
    "prefectureNumber": 10,
    "prefecture": "群馬県",
    "city": "前橋市",
    "town": "粕川町一日市"
  },
  "3710214": {
    "zipcode": "3710214",
    "prefectureCode": "10",
    "prefectureNumber": 10,
    "prefecture": "群馬県",
    "city": "前橋市",
    "town": "粕川町女渕"
  },
  "3710215": {
    "zipcode": "3710215",
    "prefectureCode": "10",
    "prefectureNumber": 10,
    "prefecture": "群馬県",
    "city": "前橋市",
    "town": "粕川町深津"
  },
  "3710216": {
    "zipcode": "3710216",
    "prefectureCode": "10",
    "prefectureNumber": 10,
    "prefecture": "群馬県",
    "city": "前橋市",
    "town": "粕川町込皆戸"
  },
  "3710217": {
    "zipcode": "3710217",
    "prefectureCode": "10",
    "prefectureNumber": 10,
    "prefecture": "群馬県",
    "city": "前橋市",
    "town": "粕川町西田面"
  },
  "3710218": {
    "zipcode": "3710218",
    "prefectureCode": "10",
    "prefectureNumber": 10,
    "prefecture": "群馬県",
    "city": "前橋市",
    "town": "粕川町前皆戸"
  },
  "3710221": {
    "zipcode": "3710221",
    "prefectureCode": "10",
    "prefectureNumber": 10,
    "prefecture": "群馬県",
    "city": "前橋市",
    "town": "樋越町"
  },
  "3710222": {
    "zipcode": "3710222",
    "prefectureCode": "10",
    "prefectureNumber": 10,
    "prefecture": "群馬県",
    "city": "前橋市",
    "town": "上大屋町"
  },
  "3710223": {
    "zipcode": "3710223",
    "prefectureCode": "10",
    "prefectureNumber": 10,
    "prefecture": "群馬県",
    "city": "前橋市",
    "town": "大胡町"
  },
  "3710224": {
    "zipcode": "3710224",
    "prefectureCode": "10",
    "prefectureNumber": 10,
    "prefecture": "群馬県",
    "city": "前橋市",
    "town": "河原浜町"
  },
  "3710231": {
    "zipcode": "3710231",
    "prefectureCode": "10",
    "prefectureNumber": 10,
    "prefecture": "群馬県",
    "city": "前橋市",
    "town": "堀越町"
  },
  "3710232": {
    "zipcode": "3710232",
    "prefectureCode": "10",
    "prefectureNumber": 10,
    "prefecture": "群馬県",
    "city": "前橋市",
    "town": "茂木町"
  },
  "3710233": {
    "zipcode": "3710233",
    "prefectureCode": "10",
    "prefectureNumber": 10,
    "prefecture": "群馬県",
    "city": "前橋市",
    "town": "横沢町"
  },
  "3710234": {
    "zipcode": "3710234",
    "prefectureCode": "10",
    "prefectureNumber": 10,
    "prefecture": "群馬県",
    "city": "前橋市",
    "town": "東金丸町"
  },
  "3710235": {
    "zipcode": "3710235",
    "prefectureCode": "10",
    "prefectureNumber": 10,
    "prefecture": "群馬県",
    "city": "前橋市",
    "town": "滝窪町"
  },
  "3710241": {
    "zipcode": "3710241",
    "prefectureCode": "10",
    "prefectureNumber": 10,
    "prefecture": "群馬県",
    "city": "前橋市",
    "town": "苗ケ島町"
  },
  "3710242": {
    "zipcode": "3710242",
    "prefectureCode": "10",
    "prefectureNumber": 10,
    "prefecture": "群馬県",
    "city": "前橋市",
    "town": "馬場町"
  },
  "3710243": {
    "zipcode": "3710243",
    "prefectureCode": "10",
    "prefectureNumber": 10,
    "prefecture": "群馬県",
    "city": "前橋市",
    "town": "大前田町"
  },
  "3710244": {
    "zipcode": "3710244",
    "prefectureCode": "10",
    "prefectureNumber": 10,
    "prefecture": "群馬県",
    "city": "前橋市",
    "town": "鼻毛石町"
  },
  "3710245": {
    "zipcode": "3710245",
    "prefectureCode": "10",
    "prefectureNumber": 10,
    "prefecture": "群馬県",
    "city": "前橋市",
    "town": "市之関町"
  },
  "3710246": {
    "zipcode": "3710246",
    "prefectureCode": "10",
    "prefectureNumber": 10,
    "prefecture": "群馬県",
    "city": "前橋市",
    "town": "柏倉町"
  },
  "3710247": {
    "zipcode": "3710247",
    "prefectureCode": "10",
    "prefectureNumber": 10,
    "prefecture": "群馬県",
    "city": "前橋市",
    "town": "三夜沢町"
  },
  "3710801": {
    "zipcode": "3710801",
    "prefectureCode": "10",
    "prefectureNumber": 10,
    "prefecture": "群馬県",
    "city": "前橋市",
    "town": "文京町"
  },
  "3710802": {
    "zipcode": "3710802",
    "prefectureCode": "10",
    "prefectureNumber": 10,
    "prefecture": "群馬県",
    "city": "前橋市",
    "town": "天川町"
  },
  "3710803": {
    "zipcode": "3710803",
    "prefectureCode": "10",
    "prefectureNumber": 10,
    "prefecture": "群馬県",
    "city": "前橋市",
    "town": "天川原町"
  },
  "3710804": {
    "zipcode": "3710804",
    "prefectureCode": "10",
    "prefectureNumber": 10,
    "prefecture": "群馬県",
    "city": "前橋市",
    "town": "六供町"
  },
  "3710805": {
    "zipcode": "3710805",
    "prefectureCode": "10",
    "prefectureNumber": 10,
    "prefecture": "群馬県",
    "city": "前橋市",
    "town": "南町"
  },
  "3710811": {
    "zipcode": "3710811",
    "prefectureCode": "10",
    "prefectureNumber": 10,
    "prefecture": "群馬県",
    "city": "前橋市",
    "town": "朝倉町"
  },
  "3710812": {
    "zipcode": "3710812",
    "prefectureCode": "10",
    "prefectureNumber": 10,
    "prefecture": "群馬県",
    "city": "前橋市",
    "town": "広瀬町"
  },
  "3710813": {
    "zipcode": "3710813",
    "prefectureCode": "10",
    "prefectureNumber": 10,
    "prefecture": "群馬県",
    "city": "前橋市",
    "town": "後閑町"
  },
  "3710814": {
    "zipcode": "3710814",
    "prefectureCode": "10",
    "prefectureNumber": 10,
    "prefecture": "群馬県",
    "city": "前橋市",
    "town": "宮地町"
  },
  "3710815": {
    "zipcode": "3710815",
    "prefectureCode": "10",
    "prefectureNumber": 10,
    "prefecture": "群馬県",
    "city": "前橋市",
    "town": "下佐鳥町"
  },
  "3710816": {
    "zipcode": "3710816",
    "prefectureCode": "10",
    "prefectureNumber": 10,
    "prefecture": "群馬県",
    "city": "前橋市",
    "town": "上佐鳥町"
  },
  "3710817": {
    "zipcode": "3710817",
    "prefectureCode": "10",
    "prefectureNumber": 10,
    "prefecture": "群馬県",
    "city": "前橋市",
    "town": "ぬで島町"
  },
  "3710821": {
    "zipcode": "3710821",
    "prefectureCode": "10",
    "prefectureNumber": 10,
    "prefecture": "群馬県",
    "city": "前橋市",
    "town": "上新田町"
  },
  "3710822": {
    "zipcode": "3710822",
    "prefectureCode": "10",
    "prefectureNumber": 10,
    "prefecture": "群馬県",
    "city": "前橋市",
    "town": "下新田町"
  },
  "3710823": {
    "zipcode": "3710823",
    "prefectureCode": "10",
    "prefectureNumber": 10,
    "prefecture": "群馬県",
    "city": "前橋市",
    "town": "川曲町"
  },
  "3710824": {
    "zipcode": "3710824",
    "prefectureCode": "10",
    "prefectureNumber": 10,
    "prefecture": "群馬県",
    "city": "前橋市",
    "town": "稲荷新田町"
  },
  "3710825": {
    "zipcode": "3710825",
    "prefectureCode": "10",
    "prefectureNumber": 10,
    "prefecture": "群馬県",
    "city": "前橋市",
    "town": "大利根町"
  },
  "3710826": {
    "zipcode": "3710826",
    "prefectureCode": "10",
    "prefectureNumber": 10,
    "prefecture": "群馬県",
    "city": "前橋市",
    "town": "青葉町"
  },
  "3710831": {
    "zipcode": "3710831",
    "prefectureCode": "10",
    "prefectureNumber": 10,
    "prefecture": "群馬県",
    "city": "前橋市",
    "town": "小相木町"
  },
  "3710832": {
    "zipcode": "3710832",
    "prefectureCode": "10",
    "prefectureNumber": 10,
    "prefecture": "群馬県",
    "city": "前橋市",
    "town": "朝日が丘町"
  },
  "3710833": {
    "zipcode": "3710833",
    "prefectureCode": "10",
    "prefectureNumber": 10,
    "prefecture": "群馬県",
    "city": "前橋市",
    "town": "光が丘町"
  },
  "3710834": {
    "zipcode": "3710834",
    "prefectureCode": "10",
    "prefectureNumber": 10,
    "prefecture": "群馬県",
    "city": "前橋市",
    "town": "後家町"
  },
  "3710835": {
    "zipcode": "3710835",
    "prefectureCode": "10",
    "prefectureNumber": 10,
    "prefecture": "群馬県",
    "city": "前橋市",
    "town": "前箱田町"
  },
  "3710836": {
    "zipcode": "3710836",
    "prefectureCode": "10",
    "prefectureNumber": 10,
    "prefecture": "群馬県",
    "city": "前橋市",
    "town": "江田町"
  },
  "3710837": {
    "zipcode": "3710837",
    "prefectureCode": "10",
    "prefectureNumber": 10,
    "prefecture": "群馬県",
    "city": "前橋市",
    "town": "箱田町"
  },
  "3710841": {
    "zipcode": "3710841",
    "prefectureCode": "10",
    "prefectureNumber": 10,
    "prefecture": "群馬県",
    "city": "前橋市",
    "town": "石倉町"
  },
  "3710842": {
    "zipcode": "3710842",
    "prefectureCode": "10",
    "prefectureNumber": 10,
    "prefecture": "群馬県",
    "city": "前橋市",
    "town": "下石倉町"
  },
  "3710843": {
    "zipcode": "3710843",
    "prefectureCode": "10",
    "prefectureNumber": 10,
    "prefecture": "群馬県",
    "city": "前橋市",
    "town": "新前橋町"
  },
  "3710844": {
    "zipcode": "3710844",
    "prefectureCode": "10",
    "prefectureNumber": 10,
    "prefecture": "群馬県",
    "city": "前橋市",
    "town": "古市町"
  },
  "3710845": {
    "zipcode": "3710845",
    "prefectureCode": "10",
    "prefectureNumber": 10,
    "prefecture": "群馬県",
    "city": "前橋市",
    "town": "鳥羽町"
  },
  "3710846": {
    "zipcode": "3710846",
    "prefectureCode": "10",
    "prefectureNumber": 10,
    "prefecture": "群馬県",
    "city": "前橋市",
    "town": "元総社町"
  },
  "3710847": {
    "zipcode": "3710847",
    "prefectureCode": "10",
    "prefectureNumber": 10,
    "prefecture": "群馬県",
    "city": "前橋市",
    "town": "大友町"
  },
  "3710851": {
    "zipcode": "3710851",
    "prefectureCode": "10",
    "prefectureNumber": 10,
    "prefecture": "群馬県",
    "city": "前橋市",
    "town": "総社町植野"
  },
  "3710852": {
    "zipcode": "3710852",
    "prefectureCode": "10",
    "prefectureNumber": 10,
    "prefecture": "群馬県",
    "city": "前橋市",
    "town": "総社町総社"
  },
  "3710853": {
    "zipcode": "3710853",
    "prefectureCode": "10",
    "prefectureNumber": 10,
    "prefecture": "群馬県",
    "city": "前橋市",
    "town": "総社町"
  },
  "3710854": {
    "zipcode": "3710854",
    "prefectureCode": "10",
    "prefectureNumber": 10,
    "prefecture": "群馬県",
    "city": "前橋市",
    "town": "大渡町"
  },
  "3710855": {
    "zipcode": "3710855",
    "prefectureCode": "10",
    "prefectureNumber": 10,
    "prefecture": "群馬県",
    "city": "前橋市",
    "town": "問屋町"
  },
  "3710856": {
    "zipcode": "3710856",
    "prefectureCode": "10",
    "prefectureNumber": 10,
    "prefecture": "群馬県",
    "city": "前橋市",
    "town": "総社町高井"
  },
  "3710857": {
    "zipcode": "3710857",
    "prefectureCode": "10",
    "prefectureNumber": 10,
    "prefecture": "群馬県",
    "city": "前橋市",
    "town": "高井町"
  },
  "3710858": {
    "zipcode": "3710858",
    "prefectureCode": "10",
    "prefectureNumber": 10,
    "prefecture": "群馬県",
    "city": "前橋市",
    "town": "総社町桜が丘"
  }
}
