{
  "3740000": {
    "zipcode": "3740000",
    "prefectureCode": "10",
    "prefectureNumber": 10,
    "prefecture": "群馬県",
    "city": "館林市",
    "town": "以下に掲載がない場合"
  },
  "3740001": {
    "zipcode": "3740001",
    "prefectureCode": "10",
    "prefectureNumber": 10,
    "prefecture": "群馬県",
    "city": "館林市",
    "town": "大島町"
  },
  "3740002": {
    "zipcode": "3740002",
    "prefectureCode": "10",
    "prefectureNumber": 10,
    "prefecture": "群馬県",
    "city": "館林市",
    "town": "田谷町"
  },
  "3740003": {
    "zipcode": "3740003",
    "prefectureCode": "10",
    "prefectureNumber": 10,
    "prefecture": "群馬県",
    "city": "館林市",
    "town": "四ツ谷町"
  },
  "3740004": {
    "zipcode": "3740004",
    "prefectureCode": "10",
    "prefectureNumber": 10,
    "prefecture": "群馬県",
    "city": "館林市",
    "town": "楠町"
  },
  "3740005": {
    "zipcode": "3740005",
    "prefectureCode": "10",
    "prefectureNumber": 10,
    "prefecture": "群馬県",
    "city": "館林市",
    "town": "花山町"
  },
  "3740006": {
    "zipcode": "3740006",
    "prefectureCode": "10",
    "prefectureNumber": 10,
    "prefecture": "群馬県",
    "city": "館林市",
    "town": "当郷町"
  },
  "3740007": {
    "zipcode": "3740007",
    "prefectureCode": "10",
    "prefectureNumber": 10,
    "prefecture": "群馬県",
    "city": "館林市",
    "town": "若宮町"
  },
  "3740008": {
    "zipcode": "3740008",
    "prefectureCode": "10",
    "prefectureNumber": 10,
    "prefecture": "群馬県",
    "city": "館林市",
    "town": "細内町"
  },
  "3740009": {
    "zipcode": "3740009",
    "prefectureCode": "10",
    "prefectureNumber": 10,
    "prefecture": "群馬県",
    "city": "館林市",
    "town": "千塚町"
  },
  "3740011": {
    "zipcode": "3740011",
    "prefectureCode": "10",
    "prefectureNumber": 10,
    "prefecture": "群馬県",
    "city": "館林市",
    "town": "羽附町"
  },
  "3740012": {
    "zipcode": "3740012",
    "prefectureCode": "10",
    "prefectureNumber": 10,
    "prefecture": "群馬県",
    "city": "館林市",
    "town": "羽附旭町"
  },
  "3740013": {
    "zipcode": "3740013",
    "prefectureCode": "10",
    "prefectureNumber": 10,
    "prefecture": "群馬県",
    "city": "館林市",
    "town": "赤生田町"
  },
  "3740014": {
    "zipcode": "3740014",
    "prefectureCode": "10",
    "prefectureNumber": 10,
    "prefecture": "群馬県",
    "city": "館林市",
    "town": "赤生田本町"
  },
  "3740015": {
    "zipcode": "3740015",
    "prefectureCode": "10",
    "prefectureNumber": 10,
    "prefecture": "群馬県",
    "city": "館林市",
    "town": "上赤生田町"
  },
  "3740016": {
    "zipcode": "3740016",
    "prefectureCode": "10",
    "prefectureNumber": 10,
    "prefecture": "群馬県",
    "city": "館林市",
    "town": "松原"
  },
  "3740017": {
    "zipcode": "3740017",
    "prefectureCode": "10",
    "prefectureNumber": 10,
    "prefecture": "群馬県",
    "city": "館林市",
    "town": "つつじ町"
  },
  "3740018": {
    "zipcode": "3740018",
    "prefectureCode": "10",
    "prefectureNumber": 10,
    "prefecture": "群馬県",
    "city": "館林市",
    "town": "城町"
  },
  "3740019": {
    "zipcode": "3740019",
    "prefectureCode": "10",
    "prefectureNumber": 10,
    "prefecture": "群馬県",
    "city": "館林市",
    "town": "尾曳町"
  },
  "3740021": {
    "zipcode": "3740021",
    "prefectureCode": "10",
    "prefectureNumber": 10,
    "prefecture": "群馬県",
    "city": "館林市",
    "town": "瀬戸谷町"
  },
  "3740022": {
    "zipcode": "3740022",
    "prefectureCode": "10",
    "prefectureNumber": 10,
    "prefecture": "群馬県",
    "city": "館林市",
    "town": "加法師町"
  },
  "3740023": {
    "zipcode": "3740023",
    "prefectureCode": "10",
    "prefectureNumber": 10,
    "prefecture": "群馬県",
    "city": "館林市",
    "town": "大手町"
  },
  "3740024": {
    "zipcode": "3740024",
    "prefectureCode": "10",
    "prefectureNumber": 10,
    "prefecture": "群馬県",
    "city": "館林市",
    "town": "本町"
  },
  "3740025": {
    "zipcode": "3740025",
    "prefectureCode": "10",
    "prefectureNumber": 10,
    "prefecture": "群馬県",
    "city": "館林市",
    "town": "緑町"
  },
  "3740026": {
    "zipcode": "3740026",
    "prefectureCode": "10",
    "prefectureNumber": 10,
    "prefecture": "群馬県",
    "city": "館林市",
    "town": "新宿"
  },
  "3740027": {
    "zipcode": "3740027",
    "prefectureCode": "10",
    "prefectureNumber": 10,
    "prefecture": "群馬県",
    "city": "館林市",
    "town": "富士見町"
  },
  "3740028": {
    "zipcode": "3740028",
    "prefectureCode": "10",
    "prefectureNumber": 10,
    "prefecture": "群馬県",
    "city": "館林市",
    "town": "千代田町"
  },
  "3740029": {
    "zipcode": "3740029",
    "prefectureCode": "10",
    "prefectureNumber": 10,
    "prefecture": "群馬県",
    "city": "館林市",
    "town": "仲町"
  },
  "3740031": {
    "zipcode": "3740031",
    "prefectureCode": "10",
    "prefectureNumber": 10,
    "prefecture": "群馬県",
    "city": "館林市",
    "town": "東美園町"
  },
  "3740032": {
    "zipcode": "3740032",
    "prefectureCode": "10",
    "prefectureNumber": 10,
    "prefecture": "群馬県",
    "city": "館林市",
    "town": "南美園町"
  },
  "3740033": {
    "zipcode": "3740033",
    "prefectureCode": "10",
    "prefectureNumber": 10,
    "prefecture": "群馬県",
    "city": "館林市",
    "town": "堀工町"
  },
  "3740034": {
    "zipcode": "3740034",
    "prefectureCode": "10",
    "prefectureNumber": 10,
    "prefecture": "群馬県",
    "city": "館林市",
    "town": "分福町"
  },
  "3740035": {
    "zipcode": "3740035",
    "prefectureCode": "10",
    "prefectureNumber": 10,
    "prefecture": "群馬県",
    "city": "館林市",
    "town": "青柳町"
  },
  "3740036": {
    "zipcode": "3740036",
    "prefectureCode": "10",
    "prefectureNumber": 10,
    "prefecture": "群馬県",
    "city": "館林市",
    "town": "諏訪町"
  },
  "3740037": {
    "zipcode": "3740037",
    "prefectureCode": "10",
    "prefectureNumber": 10,
    "prefecture": "群馬県",
    "city": "館林市",
    "town": "小桑原町"
  },
  "3740038": {
    "zipcode": "3740038",
    "prefectureCode": "10",
    "prefectureNumber": 10,
    "prefecture": "群馬県",
    "city": "館林市",
    "town": "西美園町"
  },
  "3740039": {
    "zipcode": "3740039",
    "prefectureCode": "10",
    "prefectureNumber": 10,
    "prefecture": "群馬県",
    "city": "館林市",
    "town": "美園町"
  },
  "3740041": {
    "zipcode": "3740041",
    "prefectureCode": "10",
    "prefectureNumber": 10,
    "prefecture": "群馬県",
    "city": "館林市",
    "town": "富士原町"
  },
  "3740042": {
    "zipcode": "3740042",
    "prefectureCode": "10",
    "prefectureNumber": 10,
    "prefecture": "群馬県",
    "city": "館林市",
    "town": "近藤町"
  },
  "3740043": {
    "zipcode": "3740043",
    "prefectureCode": "10",
    "prefectureNumber": 10,
    "prefecture": "群馬県",
    "city": "館林市",
    "town": "苗木町"
  },
  "3740044": {
    "zipcode": "3740044",
    "prefectureCode": "10",
    "prefectureNumber": 10,
    "prefecture": "群馬県",
    "city": "館林市",
    "town": "下三林町"
  },
  "3740045": {
    "zipcode": "3740045",
    "prefectureCode": "10",
    "prefectureNumber": 10,
    "prefecture": "群馬県",
    "city": "館林市",
    "town": "入ケ谷町"
  },
  "3740046": {
    "zipcode": "3740046",
    "prefectureCode": "10",
    "prefectureNumber": 10,
    "prefecture": "群馬県",
    "city": "館林市",
    "town": "上三林町"
  },
  "3740047": {
    "zipcode": "3740047",
    "prefectureCode": "10",
    "prefectureNumber": 10,
    "prefecture": "群馬県",
    "city": "館林市",
    "town": "野辺町"
  },
  "3740051": {
    "zipcode": "3740051",
    "prefectureCode": "10",
    "prefectureNumber": 10,
    "prefecture": "群馬県",
    "city": "館林市",
    "town": "新栄町"
  },
  "3740052": {
    "zipcode": "3740052",
    "prefectureCode": "10",
    "prefectureNumber": 10,
    "prefecture": "群馬県",
    "city": "館林市",
    "town": "栄町"
  },
  "3740053": {
    "zipcode": "3740053",
    "prefectureCode": "10",
    "prefectureNumber": 10,
    "prefecture": "群馬県",
    "city": "館林市",
    "town": "赤土町"
  },
  "3740054": {
    "zipcode": "3740054",
    "prefectureCode": "10",
    "prefectureNumber": 10,
    "prefecture": "群馬県",
    "city": "館林市",
    "town": "大谷町"
  },
  "3740055": {
    "zipcode": "3740055",
    "prefectureCode": "10",
    "prefectureNumber": 10,
    "prefecture": "群馬県",
    "city": "館林市",
    "town": "成島町"
  },
  "3740056": {
    "zipcode": "3740056",
    "prefectureCode": "10",
    "prefectureNumber": 10,
    "prefecture": "群馬県",
    "city": "館林市",
    "town": "松沼町"
  },
  "3740057": {
    "zipcode": "3740057",
    "prefectureCode": "10",
    "prefectureNumber": 10,
    "prefecture": "群馬県",
    "city": "館林市",
    "town": "北成島町"
  },
  "3740061": {
    "zipcode": "3740061",
    "prefectureCode": "10",
    "prefectureNumber": 10,
    "prefecture": "群馬県",
    "city": "館林市",
    "town": "東広内町"
  },
  "3740062": {
    "zipcode": "3740062",
    "prefectureCode": "10",
    "prefectureNumber": 10,
    "prefecture": "群馬県",
    "city": "館林市",
    "town": "広内町"
  },
  "3740063": {
    "zipcode": "3740063",
    "prefectureCode": "10",
    "prefectureNumber": 10,
    "prefecture": "群馬県",
    "city": "館林市",
    "town": "朝日町"
  },
  "3740064": {
    "zipcode": "3740064",
    "prefectureCode": "10",
    "prefectureNumber": 10,
    "prefecture": "群馬県",
    "city": "館林市",
    "town": "代官町"
  },
  "3740065": {
    "zipcode": "3740065",
    "prefectureCode": "10",
    "prefectureNumber": 10,
    "prefecture": "群馬県",
    "city": "館林市",
    "town": "西本町"
  },
  "3740066": {
    "zipcode": "3740066",
    "prefectureCode": "10",
    "prefectureNumber": 10,
    "prefecture": "群馬県",
    "city": "館林市",
    "town": "大街道"
  },
  "3740067": {
    "zipcode": "3740067",
    "prefectureCode": "10",
    "prefectureNumber": 10,
    "prefecture": "群馬県",
    "city": "館林市",
    "town": "岡野町"
  },
  "3740068": {
    "zipcode": "3740068",
    "prefectureCode": "10",
    "prefectureNumber": 10,
    "prefecture": "群馬県",
    "city": "館林市",
    "town": "台宿町"
  },
  "3740069": {
    "zipcode": "3740069",
    "prefectureCode": "10",
    "prefectureNumber": 10,
    "prefecture": "群馬県",
    "city": "館林市",
    "town": "坂下町"
  },
  "3740071": {
    "zipcode": "3740071",
    "prefectureCode": "10",
    "prefectureNumber": 10,
    "prefecture": "群馬県",
    "city": "館林市",
    "town": "下早川田町"
  },
  "3740072": {
    "zipcode": "3740072",
    "prefectureCode": "10",
    "prefectureNumber": 10,
    "prefecture": "群馬県",
    "city": "館林市",
    "town": "大新田町"
  },
  "3740073": {
    "zipcode": "3740073",
    "prefectureCode": "10",
    "prefectureNumber": 10,
    "prefecture": "群馬県",
    "city": "館林市",
    "town": "足次町"
  },
  "3740074": {
    "zipcode": "3740074",
    "prefectureCode": "10",
    "prefectureNumber": 10,
    "prefecture": "群馬県",
    "city": "館林市",
    "town": "高根町"
  },
  "3740075": {
    "zipcode": "3740075",
    "prefectureCode": "10",
    "prefectureNumber": 10,
    "prefecture": "群馬県",
    "city": "館林市",
    "town": "西高根町"
  },
  "3740076": {
    "zipcode": "3740076",
    "prefectureCode": "10",
    "prefectureNumber": 10,
    "prefecture": "群馬県",
    "city": "館林市",
    "town": "日向町"
  },
  "3740077": {
    "zipcode": "3740077",
    "prefectureCode": "10",
    "prefectureNumber": 10,
    "prefecture": "群馬県",
    "city": "館林市",
    "town": "木戸町"
  },
  "3740078": {
    "zipcode": "3740078",
    "prefectureCode": "10",
    "prefectureNumber": 10,
    "prefecture": "群馬県",
    "city": "館林市",
    "town": "傍示塚町"
  },
  "3740079": {
    "zipcode": "3740079",
    "prefectureCode": "10",
    "prefectureNumber": 10,
    "prefecture": "群馬県",
    "city": "館林市",
    "town": "上早川田町"
  },
  "3740100": {
    "zipcode": "3740100",
    "prefectureCode": "10",
    "prefectureNumber": 10,
    "prefecture": "群馬県",
    "city": "邑楽郡板倉町",
    "town": "以下に掲載がない場合"
  },
  "3740101": {
    "zipcode": "3740101",
    "prefectureCode": "10",
    "prefectureNumber": 10,
    "prefecture": "群馬県",
    "city": "邑楽郡板倉町",
    "town": "除川"
  },
  "3740102": {
    "zipcode": "3740102",
    "prefectureCode": "10",
    "prefectureNumber": 10,
    "prefecture": "群馬県",
    "city": "邑楽郡板倉町",
    "town": "離"
  },
  "3740103": {
    "zipcode": "3740103",
    "prefectureCode": "10",
    "prefectureNumber": 10,
    "prefecture": "群馬県",
    "city": "邑楽郡板倉町",
    "town": "細谷"
  },
  "3740104": {
    "zipcode": "3740104",
    "prefectureCode": "10",
    "prefectureNumber": 10,
    "prefecture": "群馬県",
    "city": "邑楽郡板倉町",
    "town": "大荷場"
  },
  "3740105": {
    "zipcode": "3740105",
    "prefectureCode": "10",
    "prefectureNumber": 10,
    "prefecture": "群馬県",
    "city": "邑楽郡板倉町",
    "town": "大曲"
  },
  "3740106": {
    "zipcode": "3740106",
    "prefectureCode": "10",
    "prefectureNumber": 10,
    "prefecture": "群馬県",
    "city": "邑楽郡板倉町",
    "town": "西岡新田"
  },
  "3740107": {
    "zipcode": "3740107",
    "prefectureCode": "10",
    "prefectureNumber": 10,
    "prefecture": "群馬県",
    "city": "邑楽郡板倉町",
    "town": "西岡"
  },
  "3740111": {
    "zipcode": "3740111",
    "prefectureCode": "10",
    "prefectureNumber": 10,
    "prefecture": "群馬県",
    "city": "邑楽郡板倉町",
    "town": "海老瀬"
  },
  "3740112": {
    "zipcode": "3740112",
    "prefectureCode": "10",
    "prefectureNumber": 10,
    "prefecture": "群馬県",
    "city": "邑楽郡板倉町",
    "town": "朝日野"
  },
  "3740113": {
    "zipcode": "3740113",
    "prefectureCode": "10",
    "prefectureNumber": 10,
    "prefecture": "群馬県",
    "city": "邑楽郡板倉町",
    "town": "泉野"
  },
  "3740121": {
    "zipcode": "3740121",
    "prefectureCode": "10",
    "prefectureNumber": 10,
    "prefecture": "群馬県",
    "city": "邑楽郡板倉町",
    "town": "下五箇"
  },
  "3740122": {
    "zipcode": "3740122",
    "prefectureCode": "10",
    "prefectureNumber": 10,
    "prefecture": "群馬県",
    "city": "邑楽郡板倉町",
    "town": "大高嶋"
  },
  "3740123": {
    "zipcode": "3740123",
    "prefectureCode": "10",
    "prefectureNumber": 10,
    "prefecture": "群馬県",
    "city": "邑楽郡板倉町",
    "town": "飯野"
  },
  "3740131": {
    "zipcode": "3740131",
    "prefectureCode": "10",
    "prefectureNumber": 10,
    "prefecture": "群馬県",
    "city": "邑楽郡板倉町",
    "town": "大蔵"
  },
  "3740132": {
    "zipcode": "3740132",
    "prefectureCode": "10",
    "prefectureNumber": 10,
    "prefecture": "群馬県",
    "city": "邑楽郡板倉町",
    "town": "板倉"
  },
  "3740133": {
    "zipcode": "3740133",
    "prefectureCode": "10",
    "prefectureNumber": 10,
    "prefecture": "群馬県",
    "city": "邑楽郡板倉町",
    "town": "岩田"
  },
  "3740134": {
    "zipcode": "3740134",
    "prefectureCode": "10",
    "prefectureNumber": 10,
    "prefecture": "群馬県",
    "city": "邑楽郡板倉町",
    "town": "籾谷"
  },
  "3740135": {
    "zipcode": "3740135",
    "prefectureCode": "10",
    "prefectureNumber": 10,
    "prefecture": "群馬県",
    "city": "邑楽郡板倉町",
    "town": "内蔵新田"
  }
}
