{
  "3750000": {
    "zipcode": "3750000",
    "prefectureCode": "10",
    "prefectureNumber": 10,
    "prefecture": "群馬県",
    "city": "藤岡市",
    "town": "以下に掲載がない場合"
  },
  "3750001": {
    "zipcode": "3750001",
    "prefectureCode": "10",
    "prefectureNumber": 10,
    "prefecture": "群馬県",
    "city": "藤岡市",
    "town": "中島"
  },
  "3750002": {
    "zipcode": "3750002",
    "prefectureCode": "10",
    "prefectureNumber": 10,
    "prefecture": "群馬県",
    "city": "藤岡市",
    "town": "立石"
  },
  "3750003": {
    "zipcode": "3750003",
    "prefectureCode": "10",
    "prefectureNumber": 10,
    "prefecture": "群馬県",
    "city": "藤岡市",
    "town": "立石新田"
  },
  "3750004": {
    "zipcode": "3750004",
    "prefectureCode": "10",
    "prefectureNumber": 10,
    "prefecture": "群馬県",
    "city": "藤岡市",
    "town": "森"
  },
  "3750005": {
    "zipcode": "3750005",
    "prefectureCode": "10",
    "prefectureNumber": 10,
    "prefecture": "群馬県",
    "city": "藤岡市",
    "town": "中"
  },
  "3750006": {
    "zipcode": "3750006",
    "prefectureCode": "10",
    "prefectureNumber": 10,
    "prefecture": "群馬県",
    "city": "藤岡市",
    "town": "森新田"
  },
  "3750011": {
    "zipcode": "3750011",
    "prefectureCode": "10",
    "prefectureNumber": 10,
    "prefecture": "群馬県",
    "city": "藤岡市",
    "town": "岡之郷"
  },
  "3750012": {
    "zipcode": "3750012",
    "prefectureCode": "10",
    "prefectureNumber": 10,
    "prefecture": "群馬県",
    "city": "藤岡市",
    "town": "下戸塚"
  },
  "3750013": {
    "zipcode": "3750013",
    "prefectureCode": "10",
    "prefectureNumber": 10,
    "prefecture": "群馬県",
    "city": "藤岡市",
    "town": "上戸塚"
  },
  "3750014": {
    "zipcode": "3750014",
    "prefectureCode": "10",
    "prefectureNumber": 10,
    "prefecture": "群馬県",
    "city": "藤岡市",
    "town": "下栗須"
  },
  "3750015": {
    "zipcode": "3750015",
    "prefectureCode": "10",
    "prefectureNumber": 10,
    "prefecture": "群馬県",
    "city": "藤岡市",
    "town": "中栗須"
  },
  "3750016": {
    "zipcode": "3750016",
    "prefectureCode": "10",
    "prefectureNumber": 10,
    "prefecture": "群馬県",
    "city": "藤岡市",
    "town": "上栗須"
  },
  "3750017": {
    "zipcode": "3750017",
    "prefectureCode": "10",
    "prefectureNumber": 10,
    "prefecture": "群馬県",
    "city": "藤岡市",
    "town": "篠塚"
  },
  "3750021": {
    "zipcode": "3750021",
    "prefectureCode": "10",
    "prefectureNumber": 10,
    "prefecture": "群馬県",
    "city": "藤岡市",
    "town": "小林"
  },
  "3750022": {
    "zipcode": "3750022",
    "prefectureCode": "10",
    "prefectureNumber": 10,
    "prefecture": "群馬県",
    "city": "藤岡市",
    "town": "根岸"
  },
  "3750023": {
    "zipcode": "3750023",
    "prefectureCode": "10",
    "prefectureNumber": 10,
    "prefecture": "群馬県",
    "city": "藤岡市",
    "town": "本郷"
  },
  "3750024": {
    "zipcode": "3750024",
    "prefectureCode": "10",
    "prefectureNumber": 10,
    "prefecture": "群馬県",
    "city": "藤岡市",
    "town": "藤岡"
  },
  "3750031": {
    "zipcode": "3750031",
    "prefectureCode": "10",
    "prefectureNumber": 10,
    "prefecture": "群馬県",
    "city": "藤岡市",
    "town": "矢場"
  },
  "3750032": {
    "zipcode": "3750032",
    "prefectureCode": "10",
    "prefectureNumber": 10,
    "prefecture": "群馬県",
    "city": "藤岡市",
    "town": "神田"
  },
  "3750033": {
    "zipcode": "3750033",
    "prefectureCode": "10",
    "prefectureNumber": 10,
    "prefecture": "群馬県",
    "city": "藤岡市",
    "town": "川除"
  },
  "3750034": {
    "zipcode": "3750034",
    "prefectureCode": "10",
    "prefectureNumber": 10,
    "prefecture": "群馬県",
    "city": "藤岡市",
    "town": "牛田"
  },
  "3750035": {
    "zipcode": "3750035",
    "prefectureCode": "10",
    "prefectureNumber": 10,
    "prefecture": "群馬県",
    "city": "藤岡市",
    "town": "保美"
  },
  "3750036": {
    "zipcode": "3750036",
    "prefectureCode": "10",
    "prefectureNumber": 10,
    "prefecture": "群馬県",
    "city": "藤岡市",
    "town": "高山"
  },
  "3750037": {
    "zipcode": "3750037",
    "prefectureCode": "10",
    "prefectureNumber": 10,
    "prefecture": "群馬県",
    "city": "藤岡市",
    "town": "三本木"
  },
  "3750041": {
    "zipcode": "3750041",
    "prefectureCode": "10",
    "prefectureNumber": 10,
    "prefecture": "群馬県",
    "city": "藤岡市",
    "town": "緑埜"
  },
  "3750042": {
    "zipcode": "3750042",
    "prefectureCode": "10",
    "prefectureNumber": 10,
    "prefecture": "群馬県",
    "city": "藤岡市",
    "town": "鮎川"
  },
  "3750043": {
    "zipcode": "3750043",
    "prefectureCode": "10",
    "prefectureNumber": 10,
    "prefecture": "群馬県",
    "city": "藤岡市",
    "town": "東平井"
  },
  "3750044": {
    "zipcode": "3750044",
    "prefectureCode": "10",
    "prefectureNumber": 10,
    "prefecture": "群馬県",
    "city": "藤岡市",
    "town": "西平井"
  },
  "3750045": {
    "zipcode": "3750045",
    "prefectureCode": "10",
    "prefectureNumber": 10,
    "prefecture": "群馬県",
    "city": "藤岡市",
    "town": "金井"
  },
  "3750046": {
    "zipcode": "3750046",
    "prefectureCode": "10",
    "prefectureNumber": 10,
    "prefecture": "群馬県",
    "city": "藤岡市",
    "town": "下日野"
  },
  "3750047": {
    "zipcode": "3750047",
    "prefectureCode": "10",
    "prefectureNumber": 10,
    "prefecture": "群馬県",
    "city": "藤岡市",
    "town": "上日野"
  },
  "3750051": {
    "zipcode": "3750051",
    "prefectureCode": "10",
    "prefectureNumber": 10,
    "prefecture": "群馬県",
    "city": "藤岡市",
    "town": "本動堂"
  },
  "3750052": {
    "zipcode": "3750052",
    "prefectureCode": "10",
    "prefectureNumber": 10,
    "prefecture": "群馬県",
    "city": "藤岡市",
    "town": "下大塚"
  },
  "3750053": {
    "zipcode": "3750053",
    "prefectureCode": "10",
    "prefectureNumber": 10,
    "prefecture": "群馬県",
    "city": "藤岡市",
    "town": "中大塚"
  },
  "3750054": {
    "zipcode": "3750054",
    "prefectureCode": "10",
    "prefectureNumber": 10,
    "prefecture": "群馬県",
    "city": "藤岡市",
    "town": "上大塚"
  },
  "3750055": {
    "zipcode": "3750055",
    "prefectureCode": "10",
    "prefectureNumber": 10,
    "prefecture": "群馬県",
    "city": "藤岡市",
    "town": "白石"
  },
  "3750056": {
    "zipcode": "3750056",
    "prefectureCode": "10",
    "prefectureNumber": 10,
    "prefecture": "群馬県",
    "city": "藤岡市",
    "town": "三ツ木"
  },
  "3750057": {
    "zipcode": "3750057",
    "prefectureCode": "10",
    "prefectureNumber": 10,
    "prefecture": "群馬県",
    "city": "藤岡市",
    "town": "上落合"
  }
}
