{
  "3770000": {
    "zipcode": "3770000",
    "prefectureCode": "10",
    "prefectureNumber": 10,
    "prefecture": "群馬県",
    "city": "渋川市",
    "town": "以下に掲載がない場合"
  },
  "3770002": {
    "zipcode": "3770002",
    "prefectureCode": "10",
    "prefectureNumber": 10,
    "prefecture": "群馬県",
    "city": "渋川市",
    "town": "中村"
  },
  "3770003": {
    "zipcode": "3770003",
    "prefectureCode": "10",
    "prefectureNumber": 10,
    "prefecture": "群馬県",
    "city": "渋川市",
    "town": "八木原"
  },
  "3770004": {
    "zipcode": "3770004",
    "prefectureCode": "10",
    "prefectureNumber": 10,
    "prefecture": "群馬県",
    "city": "渋川市",
    "town": "半田"
  },
  "3770005": {
    "zipcode": "3770005",
    "prefectureCode": "10",
    "prefectureNumber": 10,
    "prefecture": "群馬県",
    "city": "渋川市",
    "town": "有馬"
  },
  "3770006": {
    "zipcode": "3770006",
    "prefectureCode": "10",
    "prefectureNumber": 10,
    "prefecture": "群馬県",
    "city": "渋川市",
    "town": "行幸田"
  },
  "3770007": {
    "zipcode": "3770007",
    "prefectureCode": "10",
    "prefectureNumber": 10,
    "prefecture": "群馬県",
    "city": "渋川市",
    "town": "石原"
  },
  "3770008": {
    "zipcode": "3770008",
    "prefectureCode": "10",
    "prefectureNumber": 10,
    "prefecture": "群馬県",
    "city": "渋川市",
    "town": "渋川"
  },
  "3770024": {
    "zipcode": "3770024",
    "prefectureCode": "10",
    "prefectureNumber": 10,
    "prefecture": "群馬県",
    "city": "渋川市",
    "town": "祖母島"
  },
  "3770025": {
    "zipcode": "3770025",
    "prefectureCode": "10",
    "prefectureNumber": 10,
    "prefecture": "群馬県",
    "city": "渋川市",
    "town": "川島"
  },
  "3770026": {
    "zipcode": "3770026",
    "prefectureCode": "10",
    "prefectureNumber": 10,
    "prefecture": "群馬県",
    "city": "渋川市",
    "town": "南牧"
  },
  "3770027": {
    "zipcode": "3770027",
    "prefectureCode": "10",
    "prefectureNumber": 10,
    "prefecture": "群馬県",
    "city": "渋川市",
    "town": "金井"
  },
  "3770031": {
    "zipcode": "3770031",
    "prefectureCode": "10",
    "prefectureNumber": 10,
    "prefecture": "群馬県",
    "city": "渋川市",
    "town": "阿久津"
  },
  "3770051": {
    "zipcode": "3770051",
    "prefectureCode": "10",
    "prefectureNumber": 10,
    "prefecture": "群馬県",
    "city": "渋川市",
    "town": "北橘町赤城山"
  },
  "3770052": {
    "zipcode": "3770052",
    "prefectureCode": "10",
    "prefectureNumber": 10,
    "prefecture": "群馬県",
    "city": "渋川市",
    "town": "北橘町上箱田"
  },
  "3770053": {
    "zipcode": "3770053",
    "prefectureCode": "10",
    "prefectureNumber": 10,
    "prefecture": "群馬県",
    "city": "渋川市",
    "town": "北橘町箱田"
  },
  "3770054": {
    "zipcode": "3770054",
    "prefectureCode": "10",
    "prefectureNumber": 10,
    "prefecture": "群馬県",
    "city": "渋川市",
    "town": "北橘町下南室"
  },
  "3770055": {
    "zipcode": "3770055",
    "prefectureCode": "10",
    "prefectureNumber": 10,
    "prefecture": "群馬県",
    "city": "渋川市",
    "town": "北橘町上南室"
  },
  "3770061": {
    "zipcode": "3770061",
    "prefectureCode": "10",
    "prefectureNumber": 10,
    "prefecture": "群馬県",
    "city": "渋川市",
    "town": "北橘町下箱田"
  },
  "3770062": {
    "zipcode": "3770062",
    "prefectureCode": "10",
    "prefectureNumber": 10,
    "prefecture": "群馬県",
    "city": "渋川市",
    "town": "北橘町真壁"
  },
  "3770063": {
    "zipcode": "3770063",
    "prefectureCode": "10",
    "prefectureNumber": 10,
    "prefecture": "群馬県",
    "city": "渋川市",
    "town": "北橘町分郷八崎"
  },
  "3770064": {
    "zipcode": "3770064",
    "prefectureCode": "10",
    "prefectureNumber": 10,
    "prefecture": "群馬県",
    "city": "渋川市",
    "town": "北橘町八崎"
  },
  "3770065": {
    "zipcode": "3770065",
    "prefectureCode": "10",
    "prefectureNumber": 10,
    "prefecture": "群馬県",
    "city": "渋川市",
    "town": "北橘町小室"
  },
  "3770101": {
    "zipcode": "3770101",
    "prefectureCode": "10",
    "prefectureNumber": 10,
    "prefecture": "群馬県",
    "city": "渋川市",
    "town": "伊香保町湯中子"
  },
  "3770102": {
    "zipcode": "3770102",
    "prefectureCode": "10",
    "prefectureNumber": 10,
    "prefecture": "群馬県",
    "city": "渋川市",
    "town": "伊香保町伊香保"
  },
  "3770103": {
    "zipcode": "3770103",
    "prefectureCode": "10",
    "prefectureNumber": 10,
    "prefecture": "群馬県",
    "city": "渋川市",
    "town": "伊香保町水沢"
  },
  "3770201": {
    "zipcode": "3770201",
    "prefectureCode": "10",
    "prefectureNumber": 10,
    "prefecture": "群馬県",
    "city": "渋川市",
    "town": "上白井"
  },
  "3770202": {
    "zipcode": "3770202",
    "prefectureCode": "10",
    "prefectureNumber": 10,
    "prefecture": "群馬県",
    "city": "渋川市",
    "town": "中郷"
  },
  "3770203": {
    "zipcode": "3770203",
    "prefectureCode": "10",
    "prefectureNumber": 10,
    "prefecture": "群馬県",
    "city": "渋川市",
    "town": "吹屋"
  },
  "3770204": {
    "zipcode": "3770204",
    "prefectureCode": "10",
    "prefectureNumber": 10,
    "prefecture": "群馬県",
    "city": "渋川市",
    "town": "白井"
  },
  "3770205": {
    "zipcode": "3770205",
    "prefectureCode": "10",
    "prefectureNumber": 10,
    "prefecture": "群馬県",
    "city": "渋川市",
    "town": "北牧"
  },
  "3770206": {
    "zipcode": "3770206",
    "prefectureCode": "10",
    "prefectureNumber": 10,
    "prefecture": "群馬県",
    "city": "渋川市",
    "town": "横堀"
  },
  "3770301": {
    "zipcode": "3770301",
    "prefectureCode": "10",
    "prefectureNumber": 10,
    "prefecture": "群馬県",
    "city": "吾妻郡東吾妻町",
    "town": "箱島"
  },
  "3770302": {
    "zipcode": "3770302",
    "prefectureCode": "10",
    "prefectureNumber": 10,
    "prefecture": "群馬県",
    "city": "吾妻郡東吾妻町",
    "town": "岡崎（その他）"
  },
  "3770303": {
    "zipcode": "3770303",
    "prefectureCode": "10",
    "prefectureNumber": 10,
    "prefecture": "群馬県",
    "city": "吾妻郡東吾妻町",
    "town": "新巻"
  },
  "3770304": {
    "zipcode": "3770304",
    "prefectureCode": "10",
    "prefectureNumber": 10,
    "prefecture": "群馬県",
    "city": "吾妻郡東吾妻町",
    "town": "奥田"
  },
  "3770305": {
    "zipcode": "3770305",
    "prefectureCode": "10",
    "prefectureNumber": 10,
    "prefecture": "群馬県",
    "city": "吾妻郡東吾妻町",
    "town": "五町田"
  },
  "3770311": {
    "zipcode": "3770311",
    "prefectureCode": "10",
    "prefectureNumber": 10,
    "prefecture": "群馬県",
    "city": "渋川市",
    "town": "村上"
  },
  "3770312": {
    "zipcode": "3770312",
    "prefectureCode": "10",
    "prefectureNumber": 10,
    "prefecture": "群馬県",
    "city": "渋川市",
    "town": "小野子"
  },
  "3770400": {
    "zipcode": "3770400",
    "prefectureCode": "10",
    "prefectureNumber": 10,
    "prefecture": "群馬県",
    "city": "吾妻郡中之条町",
    "town": "以下に掲載がない場合"
  },
  "3770411": {
    "zipcode": "3770411",
    "prefectureCode": "10",
    "prefectureNumber": 10,
    "prefecture": "群馬県",
    "city": "吾妻郡中之条町",
    "town": "大道"
  },
  "3770412": {
    "zipcode": "3770412",
    "prefectureCode": "10",
    "prefectureNumber": 10,
    "prefecture": "群馬県",
    "city": "吾妻郡中之条町",
    "town": "栃窪"
  },
  "3770413": {
    "zipcode": "3770413",
    "prefectureCode": "10",
    "prefectureNumber": 10,
    "prefecture": "群馬県",
    "city": "吾妻郡中之条町",
    "town": "大塚"
  },
  "3770414": {
    "zipcode": "3770414",
    "prefectureCode": "10",
    "prefectureNumber": 10,
    "prefecture": "群馬県",
    "city": "吾妻郡中之条町",
    "town": "平"
  },
  "3770415": {
    "zipcode": "3770415",
    "prefectureCode": "10",
    "prefectureNumber": 10,
    "prefecture": "群馬県",
    "city": "吾妻郡中之条町",
    "town": "横尾"
  },
  "3770416": {
    "zipcode": "3770416",
    "prefectureCode": "10",
    "prefectureNumber": 10,
    "prefecture": "群馬県",
    "city": "吾妻郡中之条町",
    "town": "蟻川"
  },
  "3770417": {
    "zipcode": "3770417",
    "prefectureCode": "10",
    "prefectureNumber": 10,
    "prefecture": "群馬県",
    "city": "吾妻郡中之条町",
    "town": "赤坂"
  },
  "3770421": {
    "zipcode": "3770421",
    "prefectureCode": "10",
    "prefectureNumber": 10,
    "prefecture": "群馬県",
    "city": "吾妻郡中之条町",
    "town": "市城"
  },
  "3770422": {
    "zipcode": "3770422",
    "prefectureCode": "10",
    "prefectureNumber": 10,
    "prefecture": "群馬県",
    "city": "吾妻郡中之条町",
    "town": "青山"
  },
  "3770423": {
    "zipcode": "3770423",
    "prefectureCode": "10",
    "prefectureNumber": 10,
    "prefecture": "群馬県",
    "city": "吾妻郡中之条町",
    "town": "伊勢町"
  },
  "3770424": {
    "zipcode": "3770424",
    "prefectureCode": "10",
    "prefectureNumber": 10,
    "prefecture": "群馬県",
    "city": "吾妻郡中之条町",
    "town": "中之条町"
  },
  "3770425": {
    "zipcode": "3770425",
    "prefectureCode": "10",
    "prefectureNumber": 10,
    "prefecture": "群馬県",
    "city": "吾妻郡中之条町",
    "town": "西中之条"
  },
  "3770431": {
    "zipcode": "3770431",
    "prefectureCode": "10",
    "prefectureNumber": 10,
    "prefecture": "群馬県",
    "city": "吾妻郡中之条町",
    "town": "岩本"
  },
  "3770432": {
    "zipcode": "3770432",
    "prefectureCode": "10",
    "prefectureNumber": 10,
    "prefecture": "群馬県",
    "city": "吾妻郡中之条町",
    "town": "五反田"
  },
  "3770433": {
    "zipcode": "3770433",
    "prefectureCode": "10",
    "prefectureNumber": 10,
    "prefecture": "群馬県",
    "city": "吾妻郡中之条町",
    "town": "折田（その他）"
  },
  "3770434": {
    "zipcode": "3770434",
    "prefectureCode": "10",
    "prefectureNumber": 10,
    "prefecture": "群馬県",
    "city": "吾妻郡中之条町",
    "town": "山田（その他）"
  },
  "3770541": {
    "zipcode": "3770541",
    "prefectureCode": "10",
    "prefectureNumber": 10,
    "prefecture": "群馬県",
    "city": "吾妻郡中之条町",
    "town": "上沢渡"
  },
  "3770542": {
    "zipcode": "3770542",
    "prefectureCode": "10",
    "prefectureNumber": 10,
    "prefecture": "群馬県",
    "city": "吾妻郡中之条町",
    "town": "下沢渡"
  },
  "3770543": {
    "zipcode": "3770543",
    "prefectureCode": "10",
    "prefectureNumber": 10,
    "prefecture": "群馬県",
    "city": "吾妻郡中之条町",
    "town": "山田（寺社原、細尾）"
  },
  "3770544": {
    "zipcode": "3770544",
    "prefectureCode": "10",
    "prefectureNumber": 10,
    "prefecture": "群馬県",
    "city": "吾妻郡中之条町",
    "town": "折田（戦道）"
  },
  "3770601": {
    "zipcode": "3770601",
    "prefectureCode": "10",
    "prefectureNumber": 10,
    "prefecture": "群馬県",
    "city": "吾妻郡中之条町",
    "town": "四万"
  },
  "3770700": {
    "zipcode": "3770700",
    "prefectureCode": "10",
    "prefectureNumber": 10,
    "prefecture": "群馬県",
    "city": "吾妻郡高山村",
    "town": "以下に掲載がない場合"
  },
  "3770701": {
    "zipcode": "3770701",
    "prefectureCode": "10",
    "prefectureNumber": 10,
    "prefecture": "群馬県",
    "city": "吾妻郡高山村",
    "town": "尻高"
  },
  "3770702": {
    "zipcode": "3770702",
    "prefectureCode": "10",
    "prefectureNumber": 10,
    "prefecture": "群馬県",
    "city": "吾妻郡高山村",
    "town": "中山"
  },
  "3770800": {
    "zipcode": "3770800",
    "prefectureCode": "10",
    "prefectureNumber": 10,
    "prefecture": "群馬県",
    "city": "吾妻郡東吾妻町",
    "town": "以下に掲載がない場合"
  },
  "3770801": {
    "zipcode": "3770801",
    "prefectureCode": "10",
    "prefectureNumber": 10,
    "prefecture": "群馬県",
    "city": "吾妻郡東吾妻町",
    "town": "原町"
  },
  "3770802": {
    "zipcode": "3770802",
    "prefectureCode": "10",
    "prefectureNumber": 10,
    "prefecture": "群馬県",
    "city": "吾妻郡東吾妻町",
    "town": "川戸（その他）"
  },
  "3770803": {
    "zipcode": "3770803",
    "prefectureCode": "10",
    "prefectureNumber": 10,
    "prefecture": "群馬県",
    "city": "吾妻郡東吾妻町",
    "town": "金井"
  },
  "3770804": {
    "zipcode": "3770804",
    "prefectureCode": "10",
    "prefectureNumber": 10,
    "prefecture": "群馬県",
    "city": "吾妻郡東吾妻町",
    "town": "岩井"
  },
  "3770805": {
    "zipcode": "3770805",
    "prefectureCode": "10",
    "prefectureNumber": 10,
    "prefecture": "群馬県",
    "city": "吾妻郡東吾妻町",
    "town": "植栗"
  },
  "3770806": {
    "zipcode": "3770806",
    "prefectureCode": "10",
    "prefectureNumber": 10,
    "prefecture": "群馬県",
    "city": "吾妻郡東吾妻町",
    "town": "小泉"
  },
  "3770807": {
    "zipcode": "3770807",
    "prefectureCode": "10",
    "prefectureNumber": 10,
    "prefecture": "群馬県",
    "city": "吾妻郡東吾妻町",
    "town": "泉沢（その他）"
  },
  "3770811": {
    "zipcode": "3770811",
    "prefectureCode": "10",
    "prefectureNumber": 10,
    "prefecture": "群馬県",
    "city": "吾妻郡東吾妻町",
    "town": "郷原"
  },
  "3770812": {
    "zipcode": "3770812",
    "prefectureCode": "10",
    "prefectureNumber": 10,
    "prefecture": "群馬県",
    "city": "吾妻郡東吾妻町",
    "town": "厚田"
  },
  "3770813": {
    "zipcode": "3770813",
    "prefectureCode": "10",
    "prefectureNumber": 10,
    "prefecture": "群馬県",
    "city": "吾妻郡東吾妻町",
    "town": "三島"
  },
  "3770814": {
    "zipcode": "3770814",
    "prefectureCode": "10",
    "prefectureNumber": 10,
    "prefecture": "群馬県",
    "city": "吾妻郡東吾妻町",
    "town": "松谷"
  },
  "3770815": {
    "zipcode": "3770815",
    "prefectureCode": "10",
    "prefectureNumber": 10,
    "prefecture": "群馬県",
    "city": "吾妻郡東吾妻町",
    "town": "岩下"
  },
  "3770816": {
    "zipcode": "3770816",
    "prefectureCode": "10",
    "prefectureNumber": 10,
    "prefecture": "群馬県",
    "city": "吾妻郡東吾妻町",
    "town": "矢倉"
  },
  "3770931": {
    "zipcode": "3770931",
    "prefectureCode": "10",
    "prefectureNumber": 10,
    "prefecture": "群馬県",
    "city": "吾妻郡東吾妻町",
    "town": "大戸"
  },
  "3770932": {
    "zipcode": "3770932",
    "prefectureCode": "10",
    "prefectureNumber": 10,
    "prefecture": "群馬県",
    "city": "吾妻郡東吾妻町",
    "town": "萩生"
  },
  "3770933": {
    "zipcode": "3770933",
    "prefectureCode": "10",
    "prefectureNumber": 10,
    "prefecture": "群馬県",
    "city": "吾妻郡東吾妻町",
    "town": "本宿"
  },
  "3770934": {
    "zipcode": "3770934",
    "prefectureCode": "10",
    "prefectureNumber": 10,
    "prefecture": "群馬県",
    "city": "吾妻郡東吾妻町",
    "town": "須賀尾"
  },
  "3770935": {
    "zipcode": "3770935",
    "prefectureCode": "10",
    "prefectureNumber": 10,
    "prefecture": "群馬県",
    "city": "吾妻郡東吾妻町",
    "town": "大柏木"
  },
  "3771300": {
    "zipcode": "3771300",
    "prefectureCode": "10",
    "prefectureNumber": 10,
    "prefecture": "群馬県",
    "city": "吾妻郡長野原町",
    "town": "以下に掲載がない場合"
  },
  "3771301": {
    "zipcode": "3771301",
    "prefectureCode": "10",
    "prefectureNumber": 10,
    "prefecture": "群馬県",
    "city": "吾妻郡長野原町",
    "town": "川原畑"
  },
  "3771302": {
    "zipcode": "3771302",
    "prefectureCode": "10",
    "prefectureNumber": 10,
    "prefecture": "群馬県",
    "city": "吾妻郡長野原町",
    "town": "川原湯"
  },
  "3771303": {
    "zipcode": "3771303",
    "prefectureCode": "10",
    "prefectureNumber": 10,
    "prefecture": "群馬県",
    "city": "吾妻郡長野原町",
    "town": "横壁"
  },
  "3771304": {
    "zipcode": "3771304",
    "prefectureCode": "10",
    "prefectureNumber": 10,
    "prefecture": "群馬県",
    "city": "吾妻郡長野原町",
    "town": "長野原"
  },
  "3771305": {
    "zipcode": "3771305",
    "prefectureCode": "10",
    "prefectureNumber": 10,
    "prefecture": "群馬県",
    "city": "吾妻郡長野原町",
    "town": "与喜屋"
  },
  "3771306": {
    "zipcode": "3771306",
    "prefectureCode": "10",
    "prefectureNumber": 10,
    "prefecture": "群馬県",
    "city": "吾妻郡長野原町",
    "town": "古森"
  },
  "3771307": {
    "zipcode": "3771307",
    "prefectureCode": "10",
    "prefectureNumber": 10,
    "prefecture": "群馬県",
    "city": "吾妻郡長野原町",
    "town": "羽根尾"
  },
  "3771308": {
    "zipcode": "3771308",
    "prefectureCode": "10",
    "prefectureNumber": 10,
    "prefecture": "群馬県",
    "city": "吾妻郡長野原町",
    "town": "大津"
  },
  "3771309": {
    "zipcode": "3771309",
    "prefectureCode": "10",
    "prefectureNumber": 10,
    "prefecture": "群馬県",
    "city": "吾妻郡長野原町",
    "town": "林"
  },
  "3771310": {
    "zipcode": "3771310",
    "prefectureCode": "10",
    "prefectureNumber": 10,
    "prefecture": "群馬県",
    "city": "吾妻郡長野原町",
    "town": "応桑（堂光原）"
  },
  "3771311": {
    "zipcode": "3771311",
    "prefectureCode": "10",
    "prefectureNumber": 10,
    "prefecture": "群馬県",
    "city": "吾妻郡中之条町",
    "town": "赤岩"
  },
  "3771312": {
    "zipcode": "3771312",
    "prefectureCode": "10",
    "prefectureNumber": 10,
    "prefecture": "群馬県",
    "city": "吾妻郡中之条町",
    "town": "日影"
  },
  "3771401": {
    "zipcode": "3771401",
    "prefectureCode": "10",
    "prefectureNumber": 10,
    "prefecture": "群馬県",
    "city": "吾妻郡嬬恋村",
    "town": "鎌原（奥軽井沢）"
  },
  "3771402": {
    "zipcode": "3771402",
    "prefectureCode": "10",
    "prefectureNumber": 10,
    "prefecture": "群馬県",
    "city": "吾妻郡嬬恋村",
    "town": "鎌原（鬼の泉水）"
  },
  "3771403": {
    "zipcode": "3771403",
    "prefectureCode": "10",
    "prefectureNumber": 10,
    "prefecture": "群馬県",
    "city": "吾妻郡嬬恋村",
    "town": "鎌原（あやめケ原）"
  },
  "3771404": {
    "zipcode": "3771404",
    "prefectureCode": "10",
    "prefectureNumber": 10,
    "prefecture": "群馬県",
    "city": "吾妻郡嬬恋村",
    "town": "鎌原（大カイシコ）"
  },
  "3771405": {
    "zipcode": "3771405",
    "prefectureCode": "10",
    "prefectureNumber": 10,
    "prefecture": "群馬県",
    "city": "吾妻郡嬬恋村",
    "town": "鎌原（モロシコ「浅間園」）"
  },
  "3771411": {
    "zipcode": "3771411",
    "prefectureCode": "10",
    "prefectureNumber": 10,
    "prefecture": "群馬県",
    "city": "吾妻郡長野原町",
    "town": "応桑（その他）"
  },
  "3771412": {
    "zipcode": "3771412",
    "prefectureCode": "10",
    "prefectureNumber": 10,
    "prefecture": "群馬県",
    "city": "吾妻郡長野原町",
    "town": "北軽井沢"
  },
  "3771500": {
    "zipcode": "3771500",
    "prefectureCode": "10",
    "prefectureNumber": 10,
    "prefecture": "群馬県",
    "city": "吾妻郡嬬恋村",
    "town": "以下に掲載がない場合"
  },
  "3771512": {
    "zipcode": "3771512",
    "prefectureCode": "10",
    "prefectureNumber": 10,
    "prefecture": "群馬県",
    "city": "吾妻郡嬬恋村",
    "town": "大前（細原２２５９〜）"
  },
  "3771521": {
    "zipcode": "3771521",
    "prefectureCode": "10",
    "prefectureNumber": 10,
    "prefecture": "群馬県",
    "city": "吾妻郡嬬恋村",
    "town": "今井"
  },
  "3771522": {
    "zipcode": "3771522",
    "prefectureCode": "10",
    "prefectureNumber": 10,
    "prefecture": "群馬県",
    "city": "吾妻郡嬬恋村",
    "town": "袋倉"
  },
  "3771523": {
    "zipcode": "3771523",
    "prefectureCode": "10",
    "prefectureNumber": 10,
    "prefecture": "群馬県",
    "city": "吾妻郡嬬恋村",
    "town": "芦生田"
  },
  "3771524": {
    "zipcode": "3771524",
    "prefectureCode": "10",
    "prefectureNumber": 10,
    "prefecture": "群馬県",
    "city": "吾妻郡嬬恋村",
    "town": "鎌原（その他）"
  },
  "3771525": {
    "zipcode": "3771525",
    "prefectureCode": "10",
    "prefectureNumber": 10,
    "prefecture": "群馬県",
    "city": "吾妻郡嬬恋村",
    "town": "西窪"
  },
  "3771526": {
    "zipcode": "3771526",
    "prefectureCode": "10",
    "prefectureNumber": 10,
    "prefecture": "群馬県",
    "city": "吾妻郡嬬恋村",
    "town": "三原"
  },
  "3771527": {
    "zipcode": "3771527",
    "prefectureCode": "10",
    "prefectureNumber": 10,
    "prefecture": "群馬県",
    "city": "吾妻郡嬬恋村",
    "town": "門貝"
  },
  "3771528": {
    "zipcode": "3771528",
    "prefectureCode": "10",
    "prefectureNumber": 10,
    "prefecture": "群馬県",
    "city": "吾妻郡嬬恋村",
    "town": "干俣（吾妻鉱山、万座温泉）"
  },
  "3771611": {
    "zipcode": "3771611",
    "prefectureCode": "10",
    "prefectureNumber": 10,
    "prefecture": "群馬県",
    "city": "吾妻郡嬬恋村",
    "town": "干俣（その他）"
  },
  "3771612": {
    "zipcode": "3771612",
    "prefectureCode": "10",
    "prefectureNumber": 10,
    "prefecture": "群馬県",
    "city": "吾妻郡嬬恋村",
    "town": "大前（その他）"
  },
  "3771613": {
    "zipcode": "3771613",
    "prefectureCode": "10",
    "prefectureNumber": 10,
    "prefecture": "群馬県",
    "city": "吾妻郡嬬恋村",
    "town": "大笹"
  },
  "3771614": {
    "zipcode": "3771614",
    "prefectureCode": "10",
    "prefectureNumber": 10,
    "prefecture": "群馬県",
    "city": "吾妻郡嬬恋村",
    "town": "田代"
  },
  "3771615": {
    "zipcode": "3771615",
    "prefectureCode": "10",
    "prefectureNumber": 10,
    "prefecture": "群馬県",
    "city": "吾妻郡嬬恋村",
    "town": "鎌原（藤原）"
  },
  "3771616": {
    "zipcode": "3771616",
    "prefectureCode": "10",
    "prefectureNumber": 10,
    "prefecture": "群馬県",
    "city": "吾妻郡嬬恋村",
    "town": "鎌原（柏木塚）"
  },
  "3771617": {
    "zipcode": "3771617",
    "prefectureCode": "10",
    "prefectureNumber": 10,
    "prefecture": "群馬県",
    "city": "吾妻郡嬬恋村",
    "town": "鎌原（群馬坂）"
  },
  "3771700": {
    "zipcode": "3771700",
    "prefectureCode": "10",
    "prefectureNumber": 10,
    "prefecture": "群馬県",
    "city": "吾妻郡草津町",
    "town": "以下に掲載がない場合"
  },
  "3771701": {
    "zipcode": "3771701",
    "prefectureCode": "10",
    "prefectureNumber": 10,
    "prefecture": "群馬県",
    "city": "吾妻郡中之条町",
    "town": "入山"
  },
  "3771702": {
    "zipcode": "3771702",
    "prefectureCode": "10",
    "prefectureNumber": 10,
    "prefecture": "群馬県",
    "city": "吾妻郡中之条町",
    "town": "生須"
  },
  "3771703": {
    "zipcode": "3771703",
    "prefectureCode": "10",
    "prefectureNumber": 10,
    "prefecture": "群馬県",
    "city": "吾妻郡中之条町",
    "town": "太子"
  },
  "3771704": {
    "zipcode": "3771704",
    "prefectureCode": "10",
    "prefectureNumber": 10,
    "prefecture": "群馬県",
    "city": "吾妻郡中之条町",
    "town": "小雨"
  },
  "3771711": {
    "zipcode": "3771711",
    "prefectureCode": "10",
    "prefectureNumber": 10,
    "prefecture": "群馬県",
    "city": "吾妻郡草津町",
    "town": "草津"
  },
  "3771712": {
    "zipcode": "3771712",
    "prefectureCode": "10",
    "prefectureNumber": 10,
    "prefecture": "群馬県",
    "city": "吾妻郡草津町",
    "town": "前口"
  }
}
