{
  "3790100": {
    "zipcode": "3790100",
    "prefectureCode": "10",
    "prefectureNumber": 10,
    "prefecture": "群馬県",
    "city": "安中市",
    "town": "以下に掲載がない場合"
  },
  "3790101": {
    "zipcode": "3790101",
    "prefectureCode": "10",
    "prefectureNumber": 10,
    "prefecture": "群馬県",
    "city": "安中市",
    "town": "西上秋間"
  },
  "3790102": {
    "zipcode": "3790102",
    "prefectureCode": "10",
    "prefectureNumber": 10,
    "prefecture": "群馬県",
    "city": "安中市",
    "town": "東上秋間"
  },
  "3790103": {
    "zipcode": "3790103",
    "prefectureCode": "10",
    "prefectureNumber": 10,
    "prefecture": "群馬県",
    "city": "安中市",
    "town": "中秋間"
  },
  "3790104": {
    "zipcode": "3790104",
    "prefectureCode": "10",
    "prefectureNumber": 10,
    "prefecture": "群馬県",
    "city": "安中市",
    "town": "下秋間"
  },
  "3790105": {
    "zipcode": "3790105",
    "prefectureCode": "10",
    "prefectureNumber": 10,
    "prefecture": "群馬県",
    "city": "安中市",
    "town": "小俣"
  },
  "3790106": {
    "zipcode": "3790106",
    "prefectureCode": "10",
    "prefectureNumber": 10,
    "prefecture": "群馬県",
    "city": "安中市",
    "town": "下後閑"
  },
  "3790107": {
    "zipcode": "3790107",
    "prefectureCode": "10",
    "prefectureNumber": 10,
    "prefecture": "群馬県",
    "city": "安中市",
    "town": "中後閑"
  },
  "3790108": {
    "zipcode": "3790108",
    "prefectureCode": "10",
    "prefectureNumber": 10,
    "prefecture": "群馬県",
    "city": "安中市",
    "town": "上後閑"
  },
  "3790109": {
    "zipcode": "3790109",
    "prefectureCode": "10",
    "prefectureNumber": 10,
    "prefecture": "群馬県",
    "city": "安中市",
    "town": "秋間みのりが丘"
  },
  "3790111": {
    "zipcode": "3790111",
    "prefectureCode": "10",
    "prefectureNumber": 10,
    "prefecture": "群馬県",
    "city": "安中市",
    "town": "板鼻"
  },
  "3790112": {
    "zipcode": "3790112",
    "prefectureCode": "10",
    "prefectureNumber": 10,
    "prefecture": "群馬県",
    "city": "安中市",
    "town": "岩井"
  },
  "3790113": {
    "zipcode": "3790113",
    "prefectureCode": "10",
    "prefectureNumber": 10,
    "prefecture": "群馬県",
    "city": "安中市",
    "town": "大谷"
  },
  "3790114": {
    "zipcode": "3790114",
    "prefectureCode": "10",
    "prefectureNumber": 10,
    "prefecture": "群馬県",
    "city": "安中市",
    "town": "野殿"
  },
  "3790115": {
    "zipcode": "3790115",
    "prefectureCode": "10",
    "prefectureNumber": 10,
    "prefecture": "群馬県",
    "city": "安中市",
    "town": "中宿"
  },
  "3790116": {
    "zipcode": "3790116",
    "prefectureCode": "10",
    "prefectureNumber": 10,
    "prefecture": "群馬県",
    "city": "安中市",
    "town": "安中"
  },
  "3790121": {
    "zipcode": "3790121",
    "prefectureCode": "10",
    "prefectureNumber": 10,
    "prefecture": "群馬県",
    "city": "安中市",
    "town": "大竹"
  },
  "3790122": {
    "zipcode": "3790122",
    "prefectureCode": "10",
    "prefectureNumber": 10,
    "prefecture": "群馬県",
    "city": "安中市",
    "town": "下間仁田"
  },
  "3790123": {
    "zipcode": "3790123",
    "prefectureCode": "10",
    "prefectureNumber": 10,
    "prefecture": "群馬県",
    "city": "安中市",
    "town": "上間仁田"
  },
  "3790124": {
    "zipcode": "3790124",
    "prefectureCode": "10",
    "prefectureNumber": 10,
    "prefecture": "群馬県",
    "city": "安中市",
    "town": "鷺宮"
  },
  "3790125": {
    "zipcode": "3790125",
    "prefectureCode": "10",
    "prefectureNumber": 10,
    "prefecture": "群馬県",
    "city": "安中市",
    "town": "中野谷"
  },
  "3790126": {
    "zipcode": "3790126",
    "prefectureCode": "10",
    "prefectureNumber": 10,
    "prefecture": "群馬県",
    "city": "安中市",
    "town": "西上磯部"
  },
  "3790127": {
    "zipcode": "3790127",
    "prefectureCode": "10",
    "prefectureNumber": 10,
    "prefecture": "群馬県",
    "city": "安中市",
    "town": "磯部"
  },
  "3790128": {
    "zipcode": "3790128",
    "prefectureCode": "10",
    "prefectureNumber": 10,
    "prefecture": "群馬県",
    "city": "安中市",
    "town": "東上磯部"
  },
  "3790129": {
    "zipcode": "3790129",
    "prefectureCode": "10",
    "prefectureNumber": 10,
    "prefecture": "群馬県",
    "city": "安中市",
    "town": "下磯部"
  },
  "3790131": {
    "zipcode": "3790131",
    "prefectureCode": "10",
    "prefectureNumber": 10,
    "prefecture": "群馬県",
    "city": "安中市",
    "town": "古屋"
  },
  "3790132": {
    "zipcode": "3790132",
    "prefectureCode": "10",
    "prefectureNumber": 10,
    "prefecture": "群馬県",
    "city": "安中市",
    "town": "高別当"
  },
  "3790133": {
    "zipcode": "3790133",
    "prefectureCode": "10",
    "prefectureNumber": 10,
    "prefecture": "群馬県",
    "city": "安中市",
    "town": "原市"
  },
  "3790134": {
    "zipcode": "3790134",
    "prefectureCode": "10",
    "prefectureNumber": 10,
    "prefecture": "群馬県",
    "city": "安中市",
    "town": "簗瀬"
  },
  "3790135": {
    "zipcode": "3790135",
    "prefectureCode": "10",
    "prefectureNumber": 10,
    "prefecture": "群馬県",
    "city": "安中市",
    "town": "郷原"
  },
  "3790136": {
    "zipcode": "3790136",
    "prefectureCode": "10",
    "prefectureNumber": 10,
    "prefecture": "群馬県",
    "city": "安中市",
    "town": "嶺"
  },
  "3790201": {
    "zipcode": "3790201",
    "prefectureCode": "10",
    "prefectureNumber": 10,
    "prefecture": "群馬県",
    "city": "富岡市",
    "town": "妙義町妙義"
  },
  "3790202": {
    "zipcode": "3790202",
    "prefectureCode": "10",
    "prefectureNumber": 10,
    "prefecture": "群馬県",
    "city": "富岡市",
    "town": "妙義町大牛"
  },
  "3790203": {
    "zipcode": "3790203",
    "prefectureCode": "10",
    "prefectureNumber": 10,
    "prefecture": "群馬県",
    "city": "富岡市",
    "town": "妙義町岳"
  },
  "3790204": {
    "zipcode": "3790204",
    "prefectureCode": "10",
    "prefectureNumber": 10,
    "prefecture": "群馬県",
    "city": "富岡市",
    "town": "妙義町行沢"
  },
  "3790205": {
    "zipcode": "3790205",
    "prefectureCode": "10",
    "prefectureNumber": 10,
    "prefecture": "群馬県",
    "city": "富岡市",
    "town": "妙義町北山"
  },
  "3790206": {
    "zipcode": "3790206",
    "prefectureCode": "10",
    "prefectureNumber": 10,
    "prefecture": "群馬県",
    "city": "富岡市",
    "town": "妙義町中里"
  },
  "3790207": {
    "zipcode": "3790207",
    "prefectureCode": "10",
    "prefectureNumber": 10,
    "prefecture": "群馬県",
    "city": "富岡市",
    "town": "妙義町古立"
  },
  "3790208": {
    "zipcode": "3790208",
    "prefectureCode": "10",
    "prefectureNumber": 10,
    "prefecture": "群馬県",
    "city": "富岡市",
    "town": "妙義町菅原"
  },
  "3790209": {
    "zipcode": "3790209",
    "prefectureCode": "10",
    "prefectureNumber": 10,
    "prefecture": "群馬県",
    "city": "富岡市",
    "town": "妙義町諸戸"
  },
  "3790211": {
    "zipcode": "3790211",
    "prefectureCode": "10",
    "prefectureNumber": 10,
    "prefecture": "群馬県",
    "city": "安中市",
    "town": "松井田町上増田"
  },
  "3790212": {
    "zipcode": "3790212",
    "prefectureCode": "10",
    "prefectureNumber": 10,
    "prefecture": "群馬県",
    "city": "安中市",
    "town": "松井田町下増田"
  },
  "3790213": {
    "zipcode": "3790213",
    "prefectureCode": "10",
    "prefectureNumber": 10,
    "prefecture": "群馬県",
    "city": "安中市",
    "town": "松井田町小日向"
  },
  "3790214": {
    "zipcode": "3790214",
    "prefectureCode": "10",
    "prefectureNumber": 10,
    "prefecture": "群馬県",
    "city": "安中市",
    "town": "松井田町国衙"
  },
  "3790215": {
    "zipcode": "3790215",
    "prefectureCode": "10",
    "prefectureNumber": 10,
    "prefecture": "群馬県",
    "city": "安中市",
    "town": "松井田町高梨子"
  },
  "3790216": {
    "zipcode": "3790216",
    "prefectureCode": "10",
    "prefectureNumber": 10,
    "prefecture": "群馬県",
    "city": "安中市",
    "town": "松井田町新井"
  },
  "3790217": {
    "zipcode": "3790217",
    "prefectureCode": "10",
    "prefectureNumber": 10,
    "prefecture": "群馬県",
    "city": "安中市",
    "town": "松井田町土塩"
  },
  "3790221": {
    "zipcode": "3790221",
    "prefectureCode": "10",
    "prefectureNumber": 10,
    "prefecture": "群馬県",
    "city": "安中市",
    "town": "松井田町新堀"
  },
  "3790222": {
    "zipcode": "3790222",
    "prefectureCode": "10",
    "prefectureNumber": 10,
    "prefecture": "群馬県",
    "city": "安中市",
    "town": "松井田町松井田"
  },
  "3790223": {
    "zipcode": "3790223",
    "prefectureCode": "10",
    "prefectureNumber": 10,
    "prefecture": "群馬県",
    "city": "安中市",
    "town": "松井田町二軒在家"
  },
  "3790224": {
    "zipcode": "3790224",
    "prefectureCode": "10",
    "prefectureNumber": 10,
    "prefecture": "群馬県",
    "city": "安中市",
    "town": "松井田町人見"
  },
  "3790225": {
    "zipcode": "3790225",
    "prefectureCode": "10",
    "prefectureNumber": 10,
    "prefecture": "群馬県",
    "city": "安中市",
    "town": "松井田町八城"
  },
  "3790226": {
    "zipcode": "3790226",
    "prefectureCode": "10",
    "prefectureNumber": 10,
    "prefecture": "群馬県",
    "city": "安中市",
    "town": "松井田町行田"
  },
  "3790301": {
    "zipcode": "3790301",
    "prefectureCode": "10",
    "prefectureNumber": 10,
    "prefecture": "群馬県",
    "city": "安中市",
    "town": "松井田町横川"
  },
  "3790302": {
    "zipcode": "3790302",
    "prefectureCode": "10",
    "prefectureNumber": 10,
    "prefecture": "群馬県",
    "city": "安中市",
    "town": "松井田町五料"
  },
  "3790303": {
    "zipcode": "3790303",
    "prefectureCode": "10",
    "prefectureNumber": 10,
    "prefecture": "群馬県",
    "city": "安中市",
    "town": "松井田町西野牧"
  },
  "3790304": {
    "zipcode": "3790304",
    "prefectureCode": "10",
    "prefectureNumber": 10,
    "prefecture": "群馬県",
    "city": "安中市",
    "town": "松井田町北野牧"
  },
  "3790305": {
    "zipcode": "3790305",
    "prefectureCode": "10",
    "prefectureNumber": 10,
    "prefecture": "群馬県",
    "city": "安中市",
    "town": "松井田町入山"
  },
  "3790306": {
    "zipcode": "3790306",
    "prefectureCode": "10",
    "prefectureNumber": 10,
    "prefecture": "群馬県",
    "city": "安中市",
    "town": "松井田町原"
  },
  "3790307": {
    "zipcode": "3790307",
    "prefectureCode": "10",
    "prefectureNumber": 10,
    "prefecture": "群馬県",
    "city": "安中市",
    "town": "松井田町坂本"
  },
  "3791101": {
    "zipcode": "3791101",
    "prefectureCode": "10",
    "prefectureNumber": 10,
    "prefecture": "群馬県",
    "city": "渋川市",
    "town": "赤城町棚下"
  },
  "3791102": {
    "zipcode": "3791102",
    "prefectureCode": "10",
    "prefectureNumber": 10,
    "prefecture": "群馬県",
    "city": "渋川市",
    "town": "赤城町長井小川田"
  },
  "3791103": {
    "zipcode": "3791103",
    "prefectureCode": "10",
    "prefectureNumber": 10,
    "prefecture": "群馬県",
    "city": "渋川市",
    "town": "赤城町津久田"
  },
  "3791104": {
    "zipcode": "3791104",
    "prefectureCode": "10",
    "prefectureNumber": 10,
    "prefecture": "群馬県",
    "city": "渋川市",
    "town": "赤城町敷島"
  },
  "3791105": {
    "zipcode": "3791105",
    "prefectureCode": "10",
    "prefectureNumber": 10,
    "prefecture": "群馬県",
    "city": "渋川市",
    "town": "赤城町北上野"
  },
  "3791111": {
    "zipcode": "3791111",
    "prefectureCode": "10",
    "prefectureNumber": 10,
    "prefecture": "群馬県",
    "city": "渋川市",
    "town": "赤城町北赤城山"
  },
  "3791112": {
    "zipcode": "3791112",
    "prefectureCode": "10",
    "prefectureNumber": 10,
    "prefecture": "群馬県",
    "city": "渋川市",
    "town": "赤城町深山"
  },
  "3791113": {
    "zipcode": "3791113",
    "prefectureCode": "10",
    "prefectureNumber": 10,
    "prefecture": "群馬県",
    "city": "渋川市",
    "town": "赤城町南赤城山"
  },
  "3791114": {
    "zipcode": "3791114",
    "prefectureCode": "10",
    "prefectureNumber": 10,
    "prefecture": "群馬県",
    "city": "渋川市",
    "town": "赤城町栄"
  },
  "3791115": {
    "zipcode": "3791115",
    "prefectureCode": "10",
    "prefectureNumber": 10,
    "prefecture": "群馬県",
    "city": "渋川市",
    "town": "赤城町溝呂木"
  },
  "3791116": {
    "zipcode": "3791116",
    "prefectureCode": "10",
    "prefectureNumber": 10,
    "prefecture": "群馬県",
    "city": "渋川市",
    "town": "赤城町持柏木"
  },
  "3791121": {
    "zipcode": "3791121",
    "prefectureCode": "10",
    "prefectureNumber": 10,
    "prefecture": "群馬県",
    "city": "渋川市",
    "town": "赤城町宮田"
  },
  "3791122": {
    "zipcode": "3791122",
    "prefectureCode": "10",
    "prefectureNumber": 10,
    "prefecture": "群馬県",
    "city": "渋川市",
    "town": "赤城町勝保沢"
  },
  "3791123": {
    "zipcode": "3791123",
    "prefectureCode": "10",
    "prefectureNumber": 10,
    "prefecture": "群馬県",
    "city": "渋川市",
    "town": "赤城町見立"
  },
  "3791124": {
    "zipcode": "3791124",
    "prefectureCode": "10",
    "prefectureNumber": 10,
    "prefecture": "群馬県",
    "city": "渋川市",
    "town": "赤城町滝沢"
  },
  "3791125": {
    "zipcode": "3791125",
    "prefectureCode": "10",
    "prefectureNumber": 10,
    "prefecture": "群馬県",
    "city": "渋川市",
    "town": "赤城町上三原田"
  },
  "3791126": {
    "zipcode": "3791126",
    "prefectureCode": "10",
    "prefectureNumber": 10,
    "prefecture": "群馬県",
    "city": "渋川市",
    "town": "赤城町三原田"
  },
  "3791127": {
    "zipcode": "3791127",
    "prefectureCode": "10",
    "prefectureNumber": 10,
    "prefecture": "群馬県",
    "city": "渋川市",
    "town": "赤城町樽"
  },
  "3791200": {
    "zipcode": "3791200",
    "prefectureCode": "10",
    "prefectureNumber": 10,
    "prefecture": "群馬県",
    "city": "利根郡昭和村",
    "town": "以下に掲載がない場合"
  },
  "3791201": {
    "zipcode": "3791201",
    "prefectureCode": "10",
    "prefectureNumber": 10,
    "prefecture": "群馬県",
    "city": "利根郡昭和村",
    "town": "生越"
  },
  "3791202": {
    "zipcode": "3791202",
    "prefectureCode": "10",
    "prefectureNumber": 10,
    "prefecture": "群馬県",
    "city": "利根郡昭和村",
    "town": "貝野瀬"
  },
  "3791203": {
    "zipcode": "3791203",
    "prefectureCode": "10",
    "prefectureNumber": 10,
    "prefecture": "群馬県",
    "city": "利根郡昭和村",
    "town": "糸井"
  },
  "3791204": {
    "zipcode": "3791204",
    "prefectureCode": "10",
    "prefectureNumber": 10,
    "prefecture": "群馬県",
    "city": "利根郡昭和村",
    "town": "森下"
  },
  "3791205": {
    "zipcode": "3791205",
    "prefectureCode": "10",
    "prefectureNumber": 10,
    "prefecture": "群馬県",
    "city": "利根郡昭和村",
    "town": "川額"
  },
  "3791206": {
    "zipcode": "3791206",
    "prefectureCode": "10",
    "prefectureNumber": 10,
    "prefecture": "群馬県",
    "city": "利根郡昭和村",
    "town": "橡久保"
  },
  "3791207": {
    "zipcode": "3791207",
    "prefectureCode": "10",
    "prefectureNumber": 10,
    "prefecture": "群馬県",
    "city": "利根郡昭和村",
    "town": "赤城原"
  },
  "3791300": {
    "zipcode": "3791300",
    "prefectureCode": "10",
    "prefectureNumber": 10,
    "prefecture": "群馬県",
    "city": "利根郡みなかみ町",
    "town": "以下に掲載がない場合"
  },
  "3791301": {
    "zipcode": "3791301",
    "prefectureCode": "10",
    "prefectureNumber": 10,
    "prefecture": "群馬県",
    "city": "利根郡みなかみ町",
    "town": "奈女沢"
  },
  "3791302": {
    "zipcode": "3791302",
    "prefectureCode": "10",
    "prefectureNumber": 10,
    "prefecture": "群馬県",
    "city": "利根郡みなかみ町",
    "town": "大沼"
  },
  "3791303": {
    "zipcode": "3791303",
    "prefectureCode": "10",
    "prefectureNumber": 10,
    "prefecture": "群馬県",
    "city": "利根郡みなかみ町",
    "town": "上牧"
  },
  "3791304": {
    "zipcode": "3791304",
    "prefectureCode": "10",
    "prefectureNumber": 10,
    "prefecture": "群馬県",
    "city": "利根郡みなかみ町",
    "town": "下牧"
  },
  "3791305": {
    "zipcode": "3791305",
    "prefectureCode": "10",
    "prefectureNumber": 10,
    "prefecture": "群馬県",
    "city": "利根郡みなかみ町",
    "town": "後閑"
  },
  "3791306": {
    "zipcode": "3791306",
    "prefectureCode": "10",
    "prefectureNumber": 10,
    "prefecture": "群馬県",
    "city": "利根郡みなかみ町",
    "town": "師"
  },
  "3791307": {
    "zipcode": "3791307",
    "prefectureCode": "10",
    "prefectureNumber": 10,
    "prefecture": "群馬県",
    "city": "利根郡みなかみ町",
    "town": "政所"
  },
  "3791308": {
    "zipcode": "3791308",
    "prefectureCode": "10",
    "prefectureNumber": 10,
    "prefecture": "群馬県",
    "city": "利根郡みなかみ町",
    "town": "真庭"
  },
  "3791311": {
    "zipcode": "3791311",
    "prefectureCode": "10",
    "prefectureNumber": 10,
    "prefecture": "群馬県",
    "city": "利根郡みなかみ町",
    "town": "石倉"
  },
  "3791312": {
    "zipcode": "3791312",
    "prefectureCode": "10",
    "prefectureNumber": 10,
    "prefecture": "群馬県",
    "city": "利根郡みなかみ町",
    "town": "小川"
  },
  "3791313": {
    "zipcode": "3791313",
    "prefectureCode": "10",
    "prefectureNumber": 10,
    "prefecture": "群馬県",
    "city": "利根郡みなかみ町",
    "town": "月夜野"
  },
  "3791314": {
    "zipcode": "3791314",
    "prefectureCode": "10",
    "prefectureNumber": 10,
    "prefecture": "群馬県",
    "city": "利根郡みなかみ町",
    "town": "下津"
  },
  "3791315": {
    "zipcode": "3791315",
    "prefectureCode": "10",
    "prefectureNumber": 10,
    "prefecture": "群馬県",
    "city": "利根郡みなかみ町",
    "town": "上津"
  },
  "3791401": {
    "zipcode": "3791401",
    "prefectureCode": "10",
    "prefectureNumber": 10,
    "prefecture": "群馬県",
    "city": "利根郡みなかみ町",
    "town": "永井"
  },
  "3791402": {
    "zipcode": "3791402",
    "prefectureCode": "10",
    "prefectureNumber": 10,
    "prefecture": "群馬県",
    "city": "利根郡みなかみ町",
    "town": "吹路"
  },
  "3791403": {
    "zipcode": "3791403",
    "prefectureCode": "10",
    "prefectureNumber": 10,
    "prefecture": "群馬県",
    "city": "利根郡みなかみ町",
    "town": "猿ヶ京温泉"
  },
  "3791404": {
    "zipcode": "3791404",
    "prefectureCode": "10",
    "prefectureNumber": 10,
    "prefecture": "群馬県",
    "city": "利根郡みなかみ町",
    "town": "相俣"
  },
  "3791409": {
    "zipcode": "3791409",
    "prefectureCode": "10",
    "prefectureNumber": 10,
    "prefecture": "群馬県",
    "city": "利根郡みなかみ町",
    "town": "湯宿温泉"
  },
  "3791411": {
    "zipcode": "3791411",
    "prefectureCode": "10",
    "prefectureNumber": 10,
    "prefecture": "群馬県",
    "city": "利根郡みなかみ町",
    "town": "新巻"
  },
  "3791412": {
    "zipcode": "3791412",
    "prefectureCode": "10",
    "prefectureNumber": 10,
    "prefecture": "群馬県",
    "city": "利根郡みなかみ町",
    "town": "羽場"
  },
  "3791413": {
    "zipcode": "3791413",
    "prefectureCode": "10",
    "prefectureNumber": 10,
    "prefecture": "群馬県",
    "city": "利根郡みなかみ町",
    "town": "師田"
  },
  "3791414": {
    "zipcode": "3791414",
    "prefectureCode": "10",
    "prefectureNumber": 10,
    "prefecture": "群馬県",
    "city": "利根郡みなかみ町",
    "town": "布施"
  },
  "3791415": {
    "zipcode": "3791415",
    "prefectureCode": "10",
    "prefectureNumber": 10,
    "prefecture": "群馬県",
    "city": "利根郡みなかみ町",
    "town": "西峰須川"
  },
  "3791416": {
    "zipcode": "3791416",
    "prefectureCode": "10",
    "prefectureNumber": 10,
    "prefecture": "群馬県",
    "city": "利根郡みなかみ町",
    "town": "入須川"
  },
  "3791417": {
    "zipcode": "3791417",
    "prefectureCode": "10",
    "prefectureNumber": 10,
    "prefecture": "群馬県",
    "city": "利根郡みなかみ町",
    "town": "東峰"
  },
  "3791418": {
    "zipcode": "3791418",
    "prefectureCode": "10",
    "prefectureNumber": 10,
    "prefecture": "群馬県",
    "city": "利根郡みなかみ町",
    "town": "須川"
  },
  "3791601": {
    "zipcode": "3791601",
    "prefectureCode": "10",
    "prefectureNumber": 10,
    "prefecture": "群馬県",
    "city": "利根郡みなかみ町",
    "town": "吉本"
  },
  "3791611": {
    "zipcode": "3791611",
    "prefectureCode": "10",
    "prefectureNumber": 10,
    "prefecture": "群馬県",
    "city": "利根郡みなかみ町",
    "town": "鹿野沢"
  },
  "3791612": {
    "zipcode": "3791612",
    "prefectureCode": "10",
    "prefectureNumber": 10,
    "prefecture": "群馬県",
    "city": "利根郡みなかみ町",
    "town": "小日向"
  },
  "3791613": {
    "zipcode": "3791613",
    "prefectureCode": "10",
    "prefectureNumber": 10,
    "prefecture": "群馬県",
    "city": "利根郡みなかみ町",
    "town": "高日向"
  },
  "3791614": {
    "zipcode": "3791614",
    "prefectureCode": "10",
    "prefectureNumber": 10,
    "prefecture": "群馬県",
    "city": "利根郡みなかみ町",
    "town": "寺間"
  },
  "3791615": {
    "zipcode": "3791615",
    "prefectureCode": "10",
    "prefectureNumber": 10,
    "prefecture": "群馬県",
    "city": "利根郡みなかみ町",
    "town": "小仁田"
  },
  "3791616": {
    "zipcode": "3791616",
    "prefectureCode": "10",
    "prefectureNumber": 10,
    "prefecture": "群馬県",
    "city": "利根郡みなかみ町",
    "town": "川上"
  },
  "3791617": {
    "zipcode": "3791617",
    "prefectureCode": "10",
    "prefectureNumber": 10,
    "prefecture": "群馬県",
    "city": "利根郡みなかみ町",
    "town": "湯原"
  },
  "3791618": {
    "zipcode": "3791618",
    "prefectureCode": "10",
    "prefectureNumber": 10,
    "prefecture": "群馬県",
    "city": "利根郡みなかみ町",
    "town": "阿能川"
  },
  "3791619": {
    "zipcode": "3791619",
    "prefectureCode": "10",
    "prefectureNumber": 10,
    "prefecture": "群馬県",
    "city": "利根郡みなかみ町",
    "town": "谷川"
  },
  "3791721": {
    "zipcode": "3791721",
    "prefectureCode": "10",
    "prefectureNumber": 10,
    "prefecture": "群馬県",
    "city": "利根郡みなかみ町",
    "town": "藤原"
  },
  "3791722": {
    "zipcode": "3791722",
    "prefectureCode": "10",
    "prefectureNumber": 10,
    "prefecture": "群馬県",
    "city": "利根郡みなかみ町",
    "town": "夜後"
  },
  "3791723": {
    "zipcode": "3791723",
    "prefectureCode": "10",
    "prefectureNumber": 10,
    "prefecture": "群馬県",
    "city": "利根郡みなかみ町",
    "town": "粟沢"
  },
  "3791724": {
    "zipcode": "3791724",
    "prefectureCode": "10",
    "prefectureNumber": 10,
    "prefecture": "群馬県",
    "city": "利根郡みなかみ町",
    "town": "向山"
  },
  "3791725": {
    "zipcode": "3791725",
    "prefectureCode": "10",
    "prefectureNumber": 10,
    "prefecture": "群馬県",
    "city": "利根郡みなかみ町",
    "town": "綱子"
  },
  "3791726": {
    "zipcode": "3791726",
    "prefectureCode": "10",
    "prefectureNumber": 10,
    "prefecture": "群馬県",
    "city": "利根郡みなかみ町",
    "town": "幸知"
  },
  "3791727": {
    "zipcode": "3791727",
    "prefectureCode": "10",
    "prefectureNumber": 10,
    "prefecture": "群馬県",
    "city": "利根郡みなかみ町",
    "town": "大穴"
  },
  "3791728": {
    "zipcode": "3791728",
    "prefectureCode": "10",
    "prefectureNumber": 10,
    "prefecture": "群馬県",
    "city": "利根郡みなかみ町",
    "town": "湯桧曽"
  },
  "3792101": {
    "zipcode": "3792101",
    "prefectureCode": "10",
    "prefectureNumber": 10,
    "prefecture": "群馬県",
    "city": "前橋市",
    "town": "泉沢町"
  },
  "3792102": {
    "zipcode": "3792102",
    "prefectureCode": "10",
    "prefectureNumber": 10,
    "prefecture": "群馬県",
    "city": "前橋市",
    "town": "下大屋町"
  },
  "3792103": {
    "zipcode": "3792103",
    "prefectureCode": "10",
    "prefectureNumber": 10,
    "prefecture": "群馬県",
    "city": "前橋市",
    "town": "神沢の森"
  },
  "3792104": {
    "zipcode": "3792104",
    "prefectureCode": "10",
    "prefectureNumber": 10,
    "prefecture": "群馬県",
    "city": "前橋市",
    "town": "西大室町"
  },
  "3792105": {
    "zipcode": "3792105",
    "prefectureCode": "10",
    "prefectureNumber": 10,
    "prefecture": "群馬県",
    "city": "前橋市",
    "town": "東大室町"
  },
  "3792106": {
    "zipcode": "3792106",
    "prefectureCode": "10",
    "prefectureNumber": 10,
    "prefecture": "群馬県",
    "city": "前橋市",
    "town": "荒子町"
  },
  "3792107": {
    "zipcode": "3792107",
    "prefectureCode": "10",
    "prefectureNumber": 10,
    "prefecture": "群馬県",
    "city": "前橋市",
    "town": "荒口町"
  },
  "3792108": {
    "zipcode": "3792108",
    "prefectureCode": "10",
    "prefectureNumber": 10,
    "prefecture": "群馬県",
    "city": "前橋市",
    "town": "鶴が谷町"
  },
  "3792111": {
    "zipcode": "3792111",
    "prefectureCode": "10",
    "prefectureNumber": 10,
    "prefecture": "群馬県",
    "city": "前橋市",
    "town": "飯土井町"
  },
  "3792112": {
    "zipcode": "3792112",
    "prefectureCode": "10",
    "prefectureNumber": 10,
    "prefecture": "群馬県",
    "city": "前橋市",
    "town": "新井町"
  },
  "3792113": {
    "zipcode": "3792113",
    "prefectureCode": "10",
    "prefectureNumber": 10,
    "prefecture": "群馬県",
    "city": "前橋市",
    "town": "下増田町"
  },
  "3792114": {
    "zipcode": "3792114",
    "prefectureCode": "10",
    "prefectureNumber": 10,
    "prefecture": "群馬県",
    "city": "前橋市",
    "town": "上増田町"
  },
  "3792115": {
    "zipcode": "3792115",
    "prefectureCode": "10",
    "prefectureNumber": 10,
    "prefecture": "群馬県",
    "city": "前橋市",
    "town": "笂井町"
  },
  "3792116": {
    "zipcode": "3792116",
    "prefectureCode": "10",
    "prefectureNumber": 10,
    "prefecture": "群馬県",
    "city": "前橋市",
    "town": "今井町"
  },
  "3792117": {
    "zipcode": "3792117",
    "prefectureCode": "10",
    "prefectureNumber": 10,
    "prefecture": "群馬県",
    "city": "前橋市",
    "town": "二之宮町"
  },
  "3792121": {
    "zipcode": "3792121",
    "prefectureCode": "10",
    "prefectureNumber": 10,
    "prefecture": "群馬県",
    "city": "前橋市",
    "town": "小屋原町"
  },
  "3792122": {
    "zipcode": "3792122",
    "prefectureCode": "10",
    "prefectureNumber": 10,
    "prefecture": "群馬県",
    "city": "前橋市",
    "town": "駒形町"
  },
  "3792123": {
    "zipcode": "3792123",
    "prefectureCode": "10",
    "prefectureNumber": 10,
    "prefecture": "群馬県",
    "city": "前橋市",
    "town": "山王町"
  },
  "3792131": {
    "zipcode": "3792131",
    "prefectureCode": "10",
    "prefectureNumber": 10,
    "prefecture": "群馬県",
    "city": "前橋市",
    "town": "西善町"
  },
  "3792132": {
    "zipcode": "3792132",
    "prefectureCode": "10",
    "prefectureNumber": 10,
    "prefecture": "群馬県",
    "city": "前橋市",
    "town": "東善町"
  },
  "3792133": {
    "zipcode": "3792133",
    "prefectureCode": "10",
    "prefectureNumber": 10,
    "prefecture": "群馬県",
    "city": "前橋市",
    "town": "中内町"
  },
  "3792134": {
    "zipcode": "3792134",
    "prefectureCode": "10",
    "prefectureNumber": 10,
    "prefecture": "群馬県",
    "city": "前橋市",
    "town": "力丸町"
  },
  "3792135": {
    "zipcode": "3792135",
    "prefectureCode": "10",
    "prefectureNumber": 10,
    "prefecture": "群馬県",
    "city": "前橋市",
    "town": "徳丸町"
  },
  "3792136": {
    "zipcode": "3792136",
    "prefectureCode": "10",
    "prefectureNumber": 10,
    "prefecture": "群馬県",
    "city": "前橋市",
    "town": "房丸町"
  },
  "3792141": {
    "zipcode": "3792141",
    "prefectureCode": "10",
    "prefectureNumber": 10,
    "prefecture": "群馬県",
    "city": "前橋市",
    "town": "鶴光路町"
  },
  "3792142": {
    "zipcode": "3792142",
    "prefectureCode": "10",
    "prefectureNumber": 10,
    "prefecture": "群馬県",
    "city": "前橋市",
    "town": "下阿内町"
  },
  "3792143": {
    "zipcode": "3792143",
    "prefectureCode": "10",
    "prefectureNumber": 10,
    "prefecture": "群馬県",
    "city": "前橋市",
    "town": "新堀町"
  },
  "3792144": {
    "zipcode": "3792144",
    "prefectureCode": "10",
    "prefectureNumber": 10,
    "prefecture": "群馬県",
    "city": "前橋市",
    "town": "下川町"
  },
  "3792145": {
    "zipcode": "3792145",
    "prefectureCode": "10",
    "prefectureNumber": 10,
    "prefecture": "群馬県",
    "city": "前橋市",
    "town": "横手町"
  },
  "3792146": {
    "zipcode": "3792146",
    "prefectureCode": "10",
    "prefectureNumber": 10,
    "prefecture": "群馬県",
    "city": "前橋市",
    "town": "公田町"
  },
  "3792147": {
    "zipcode": "3792147",
    "prefectureCode": "10",
    "prefectureNumber": 10,
    "prefecture": "群馬県",
    "city": "前橋市",
    "town": "亀里町"
  },
  "3792151": {
    "zipcode": "3792151",
    "prefectureCode": "10",
    "prefectureNumber": 10,
    "prefecture": "群馬県",
    "city": "前橋市",
    "town": "下長磯町"
  },
  "3792152": {
    "zipcode": "3792152",
    "prefectureCode": "10",
    "prefectureNumber": 10,
    "prefecture": "群馬県",
    "city": "前橋市",
    "town": "下大島町"
  },
  "3792153": {
    "zipcode": "3792153",
    "prefectureCode": "10",
    "prefectureNumber": 10,
    "prefecture": "群馬県",
    "city": "前橋市",
    "town": "上大島町"
  },
  "3792154": {
    "zipcode": "3792154",
    "prefectureCode": "10",
    "prefectureNumber": 10,
    "prefecture": "群馬県",
    "city": "前橋市",
    "town": "天川大島町"
  },
  "3792161": {
    "zipcode": "3792161",
    "prefectureCode": "10",
    "prefectureNumber": 10,
    "prefecture": "群馬県",
    "city": "前橋市",
    "town": "富田町"
  },
  "3792162": {
    "zipcode": "3792162",
    "prefectureCode": "10",
    "prefectureNumber": 10,
    "prefecture": "群馬県",
    "city": "前橋市",
    "town": "小島田町"
  },
  "3792163": {
    "zipcode": "3792163",
    "prefectureCode": "10",
    "prefectureNumber": 10,
    "prefecture": "群馬県",
    "city": "前橋市",
    "town": "女屋町"
  },
  "3792164": {
    "zipcode": "3792164",
    "prefectureCode": "10",
    "prefectureNumber": 10,
    "prefecture": "群馬県",
    "city": "前橋市",
    "town": "東上野町"
  },
  "3792165": {
    "zipcode": "3792165",
    "prefectureCode": "10",
    "prefectureNumber": 10,
    "prefecture": "群馬県",
    "city": "前橋市",
    "town": "上長磯町"
  },
  "3792166": {
    "zipcode": "3792166",
    "prefectureCode": "10",
    "prefectureNumber": 10,
    "prefecture": "群馬県",
    "city": "前橋市",
    "town": "野中町"
  },
  "3792201": {
    "zipcode": "3792201",
    "prefectureCode": "10",
    "prefectureNumber": 10,
    "prefecture": "群馬県",
    "city": "伊勢崎市",
    "town": "間野谷町"
  },
  "3792202": {
    "zipcode": "3792202",
    "prefectureCode": "10",
    "prefectureNumber": 10,
    "prefecture": "群馬県",
    "city": "伊勢崎市",
    "town": "赤堀鹿島町"
  },
  "3792203": {
    "zipcode": "3792203",
    "prefectureCode": "10",
    "prefectureNumber": 10,
    "prefecture": "群馬県",
    "city": "伊勢崎市",
    "town": "曲沢町"
  },
  "3792204": {
    "zipcode": "3792204",
    "prefectureCode": "10",
    "prefectureNumber": 10,
    "prefecture": "群馬県",
    "city": "伊勢崎市",
    "town": "西久保町"
  },
  "3792205": {
    "zipcode": "3792205",
    "prefectureCode": "10",
    "prefectureNumber": 10,
    "prefecture": "群馬県",
    "city": "伊勢崎市",
    "town": "野町"
  },
  "3792206": {
    "zipcode": "3792206",
    "prefectureCode": "10",
    "prefectureNumber": 10,
    "prefecture": "群馬県",
    "city": "伊勢崎市",
    "town": "香林町"
  },
  "3792211": {
    "zipcode": "3792211",
    "prefectureCode": "10",
    "prefectureNumber": 10,
    "prefecture": "群馬県",
    "city": "伊勢崎市",
    "town": "市場町"
  },
  "3792212": {
    "zipcode": "3792212",
    "prefectureCode": "10",
    "prefectureNumber": 10,
    "prefecture": "群馬県",
    "city": "伊勢崎市",
    "town": "堀下町"
  },
  "3792213": {
    "zipcode": "3792213",
    "prefectureCode": "10",
    "prefectureNumber": 10,
    "prefecture": "群馬県",
    "city": "伊勢崎市",
    "town": "五目牛町"
  },
  "3792214": {
    "zipcode": "3792214",
    "prefectureCode": "10",
    "prefectureNumber": 10,
    "prefecture": "群馬県",
    "city": "伊勢崎市",
    "town": "下触町"
  },
  "3792215": {
    "zipcode": "3792215",
    "prefectureCode": "10",
    "prefectureNumber": 10,
    "prefecture": "群馬県",
    "city": "伊勢崎市",
    "town": "赤堀今井町"
  },
  "3792216": {
    "zipcode": "3792216",
    "prefectureCode": "10",
    "prefectureNumber": 10,
    "prefecture": "群馬県",
    "city": "伊勢崎市",
    "town": "西野町"
  },
  "3792217": {
    "zipcode": "3792217",
    "prefectureCode": "10",
    "prefectureNumber": 10,
    "prefecture": "群馬県",
    "city": "伊勢崎市",
    "town": "磯町"
  },
  "3792221": {
    "zipcode": "3792221",
    "prefectureCode": "10",
    "prefectureNumber": 10,
    "prefecture": "群馬県",
    "city": "伊勢崎市",
    "town": "国定町"
  },
  "3792222": {
    "zipcode": "3792222",
    "prefectureCode": "10",
    "prefectureNumber": 10,
    "prefecture": "群馬県",
    "city": "伊勢崎市",
    "town": "田部井町"
  },
  "3792224": {
    "zipcode": "3792224",
    "prefectureCode": "10",
    "prefectureNumber": 10,
    "prefecture": "群馬県",
    "city": "伊勢崎市",
    "town": "西小保方町"
  },
  "3792225": {
    "zipcode": "3792225",
    "prefectureCode": "10",
    "prefectureNumber": 10,
    "prefecture": "群馬県",
    "city": "伊勢崎市",
    "town": "上田町"
  },
  "3792231": {
    "zipcode": "3792231",
    "prefectureCode": "10",
    "prefectureNumber": 10,
    "prefecture": "群馬県",
    "city": "伊勢崎市",
    "town": "東町"
  },
  "3792232": {
    "zipcode": "3792232",
    "prefectureCode": "10",
    "prefectureNumber": 10,
    "prefecture": "群馬県",
    "city": "伊勢崎市",
    "town": "小泉町"
  },
  "3792233": {
    "zipcode": "3792233",
    "prefectureCode": "10",
    "prefectureNumber": 10,
    "prefecture": "群馬県",
    "city": "伊勢崎市",
    "town": "平井町"
  },
  "3792234": {
    "zipcode": "3792234",
    "prefectureCode": "10",
    "prefectureNumber": 10,
    "prefecture": "群馬県",
    "city": "伊勢崎市",
    "town": "東小保方町"
  },
  "3792235": {
    "zipcode": "3792235",
    "prefectureCode": "10",
    "prefectureNumber": 10,
    "prefecture": "群馬県",
    "city": "伊勢崎市",
    "town": "三室町"
  },
  "3792236": {
    "zipcode": "3792236",
    "prefectureCode": "10",
    "prefectureNumber": 10,
    "prefecture": "群馬県",
    "city": "伊勢崎市",
    "town": "八寸町"
  },
  "3792301": {
    "zipcode": "3792301",
    "prefectureCode": "10",
    "prefectureNumber": 10,
    "prefecture": "群馬県",
    "city": "太田市",
    "town": "藪塚町"
  },
  "3792302": {
    "zipcode": "3792302",
    "prefectureCode": "10",
    "prefectureNumber": 10,
    "prefecture": "群馬県",
    "city": "太田市",
    "town": "山之神町"
  },
  "3792303": {
    "zipcode": "3792303",
    "prefectureCode": "10",
    "prefectureNumber": 10,
    "prefecture": "群馬県",
    "city": "太田市",
    "town": "寄合町"
  },
  "3792304": {
    "zipcode": "3792304",
    "prefectureCode": "10",
    "prefectureNumber": 10,
    "prefecture": "群馬県",
    "city": "太田市",
    "town": "大原町"
  },
  "3792305": {
    "zipcode": "3792305",
    "prefectureCode": "10",
    "prefectureNumber": 10,
    "prefecture": "群馬県",
    "city": "太田市",
    "town": "六千石町"
  },
  "3792306": {
    "zipcode": "3792306",
    "prefectureCode": "10",
    "prefectureNumber": 10,
    "prefecture": "群馬県",
    "city": "太田市",
    "town": "大久保町"
  },
  "3792311": {
    "zipcode": "3792311",
    "prefectureCode": "10",
    "prefectureNumber": 10,
    "prefecture": "群馬県",
    "city": "みどり市",
    "town": "笠懸町阿左美"
  },
  "3792312": {
    "zipcode": "3792312",
    "prefectureCode": "10",
    "prefectureNumber": 10,
    "prefecture": "群馬県",
    "city": "みどり市",
    "town": "笠懸町久宮"
  },
  "3792313": {
    "zipcode": "3792313",
    "prefectureCode": "10",
    "prefectureNumber": 10,
    "prefecture": "群馬県",
    "city": "みどり市",
    "town": "笠懸町鹿"
  },
  "3792314": {
    "zipcode": "3792314",
    "prefectureCode": "10",
    "prefectureNumber": 10,
    "prefecture": "群馬県",
    "city": "みどり市",
    "town": "笠懸町西鹿田"
  }
}
