{
  "3810000": {
    "zipcode": "3810000",
    "prefectureCode": "20",
    "prefectureNumber": 20,
    "prefecture": "長野県",
    "city": "長野市",
    "town": "以下に掲載がない場合"
  },
  "3810001": {
    "zipcode": "3810001",
    "prefectureCode": "20",
    "prefectureNumber": 20,
    "prefecture": "長野県",
    "city": "長野市",
    "town": "赤沼"
  },
  "3810002": {
    "zipcode": "3810002",
    "prefectureCode": "20",
    "prefectureNumber": 20,
    "prefecture": "長野県",
    "city": "長野市",
    "town": "津野"
  },
  "3810003": {
    "zipcode": "3810003",
    "prefectureCode": "20",
    "prefectureNumber": 20,
    "prefecture": "長野県",
    "city": "長野市",
    "town": "穂保"
  },
  "3810004": {
    "zipcode": "3810004",
    "prefectureCode": "20",
    "prefectureNumber": 20,
    "prefecture": "長野県",
    "city": "長野市",
    "town": "大町"
  },
  "3810005": {
    "zipcode": "3810005",
    "prefectureCode": "20",
    "prefectureNumber": 20,
    "prefecture": "長野県",
    "city": "長野市",
    "town": "北堀"
  },
  "3810006": {
    "zipcode": "3810006",
    "prefectureCode": "20",
    "prefectureNumber": 20,
    "prefecture": "長野県",
    "city": "長野市",
    "town": "富竹"
  },
  "3810007": {
    "zipcode": "3810007",
    "prefectureCode": "20",
    "prefectureNumber": 20,
    "prefecture": "長野県",
    "city": "長野市",
    "town": "金箱"
  },
  "3810008": {
    "zipcode": "3810008",
    "prefectureCode": "20",
    "prefectureNumber": 20,
    "prefecture": "長野県",
    "city": "長野市",
    "town": "下駒沢"
  },
  "3810011": {
    "zipcode": "3810011",
    "prefectureCode": "20",
    "prefectureNumber": 20,
    "prefecture": "長野県",
    "city": "長野市",
    "town": "村山"
  },
  "3810012": {
    "zipcode": "3810012",
    "prefectureCode": "20",
    "prefectureNumber": 20,
    "prefecture": "長野県",
    "city": "長野市",
    "town": "柳原"
  },
  "3810013": {
    "zipcode": "3810013",
    "prefectureCode": "20",
    "prefectureNumber": 20,
    "prefecture": "長野県",
    "city": "長野市",
    "town": "桜新町"
  },
  "3810014": {
    "zipcode": "3810014",
    "prefectureCode": "20",
    "prefectureNumber": 20,
    "prefecture": "長野県",
    "city": "長野市",
    "town": "北尾張部"
  },
  "3810015": {
    "zipcode": "3810015",
    "prefectureCode": "20",
    "prefectureNumber": 20,
    "prefecture": "長野県",
    "city": "長野市",
    "town": "石渡"
  },
  "3810016": {
    "zipcode": "3810016",
    "prefectureCode": "20",
    "prefectureNumber": 20,
    "prefecture": "長野県",
    "city": "長野市",
    "town": "南堀"
  },
  "3810017": {
    "zipcode": "3810017",
    "prefectureCode": "20",
    "prefectureNumber": 20,
    "prefecture": "長野県",
    "city": "長野市",
    "town": "小島"
  },
  "3810021": {
    "zipcode": "3810021",
    "prefectureCode": "20",
    "prefectureNumber": 20,
    "prefecture": "長野県",
    "city": "長野市",
    "town": "屋島"
  },
  "3810022": {
    "zipcode": "3810022",
    "prefectureCode": "20",
    "prefectureNumber": 20,
    "prefecture": "長野県",
    "city": "長野市",
    "town": "大豆島"
  },
  "3810023": {
    "zipcode": "3810023",
    "prefectureCode": "20",
    "prefectureNumber": 20,
    "prefecture": "長野県",
    "city": "長野市",
    "town": "風間"
  },
  "3810024": {
    "zipcode": "3810024",
    "prefectureCode": "20",
    "prefectureNumber": 20,
    "prefecture": "長野県",
    "city": "長野市",
    "town": "南長池"
  },
  "3810025": {
    "zipcode": "3810025",
    "prefectureCode": "20",
    "prefectureNumber": 20,
    "prefecture": "長野県",
    "city": "長野市",
    "town": "北長池"
  },
  "3810026": {
    "zipcode": "3810026",
    "prefectureCode": "20",
    "prefectureNumber": 20,
    "prefecture": "長野県",
    "city": "長野市",
    "town": "松岡"
  },
  "3810031": {
    "zipcode": "3810031",
    "prefectureCode": "20",
    "prefectureNumber": 20,
    "prefecture": "長野県",
    "city": "長野市",
    "town": "西尾張部"
  },
  "3810032": {
    "zipcode": "3810032",
    "prefectureCode": "20",
    "prefectureNumber": 20,
    "prefecture": "長野県",
    "city": "長野市",
    "town": "若宮"
  },
  "3810033": {
    "zipcode": "3810033",
    "prefectureCode": "20",
    "prefectureNumber": 20,
    "prefecture": "長野県",
    "city": "長野市",
    "town": "南高田"
  },
  "3810034": {
    "zipcode": "3810034",
    "prefectureCode": "20",
    "prefectureNumber": 20,
    "prefecture": "長野県",
    "city": "長野市",
    "town": "高田"
  },
  "3810035": {
    "zipcode": "3810035",
    "prefectureCode": "20",
    "prefectureNumber": 20,
    "prefecture": "長野県",
    "city": "長野市",
    "town": "北条町"
  },
  "3810036": {
    "zipcode": "3810036",
    "prefectureCode": "20",
    "prefectureNumber": 20,
    "prefecture": "長野県",
    "city": "長野市",
    "town": "平林"
  },
  "3810037": {
    "zipcode": "3810037",
    "prefectureCode": "20",
    "prefectureNumber": 20,
    "prefecture": "長野県",
    "city": "長野市",
    "town": "西和田"
  },
  "3810038": {
    "zipcode": "3810038",
    "prefectureCode": "20",
    "prefectureNumber": 20,
    "prefecture": "長野県",
    "city": "長野市",
    "town": "東和田"
  },
  "3810041": {
    "zipcode": "3810041",
    "prefectureCode": "20",
    "prefectureNumber": 20,
    "prefecture": "長野県",
    "city": "長野市",
    "town": "徳間"
  },
  "3810042": {
    "zipcode": "3810042",
    "prefectureCode": "20",
    "prefectureNumber": 20,
    "prefecture": "長野県",
    "city": "長野市",
    "town": "稲田"
  },
  "3810043": {
    "zipcode": "3810043",
    "prefectureCode": "20",
    "prefectureNumber": 20,
    "prefecture": "長野県",
    "city": "長野市",
    "town": "吉田"
  },
  "3810044": {
    "zipcode": "3810044",
    "prefectureCode": "20",
    "prefectureNumber": 20,
    "prefecture": "長野県",
    "city": "長野市",
    "town": "中越"
  },
  "3810045": {
    "zipcode": "3810045",
    "prefectureCode": "20",
    "prefectureNumber": 20,
    "prefecture": "長野県",
    "city": "長野市",
    "town": "桐原"
  },
  "3810051": {
    "zipcode": "3810051",
    "prefectureCode": "20",
    "prefectureNumber": 20,
    "prefecture": "長野県",
    "city": "長野市",
    "town": "若槻団地"
  },
  "3810052": {
    "zipcode": "3810052",
    "prefectureCode": "20",
    "prefectureNumber": 20,
    "prefecture": "長野県",
    "city": "長野市",
    "town": "檀田"
  },
  "3810053": {
    "zipcode": "3810053",
    "prefectureCode": "20",
    "prefectureNumber": 20,
    "prefecture": "長野県",
    "city": "長野市",
    "town": "神楽橋"
  },
  "3810054": {
    "zipcode": "3810054",
    "prefectureCode": "20",
    "prefectureNumber": 20,
    "prefecture": "長野県",
    "city": "長野市",
    "town": "浅川"
  },
  "3810055": {
    "zipcode": "3810055",
    "prefectureCode": "20",
    "prefectureNumber": 20,
    "prefecture": "長野県",
    "city": "長野市",
    "town": "屋敷田"
  },
  "3810056": {
    "zipcode": "3810056",
    "prefectureCode": "20",
    "prefectureNumber": 20,
    "prefecture": "長野県",
    "city": "長野市",
    "town": "浅川押田"
  },
  "3810057": {
    "zipcode": "3810057",
    "prefectureCode": "20",
    "prefectureNumber": 20,
    "prefecture": "長野県",
    "city": "長野市",
    "town": "浅川西条"
  },
  "3810061": {
    "zipcode": "3810061",
    "prefectureCode": "20",
    "prefectureNumber": 20,
    "prefecture": "長野県",
    "city": "長野市",
    "town": "坂中"
  },
  "3810062": {
    "zipcode": "3810062",
    "prefectureCode": "20",
    "prefectureNumber": 20,
    "prefecture": "長野県",
    "city": "長野市",
    "town": "浅川福岡"
  },
  "3810063": {
    "zipcode": "3810063",
    "prefectureCode": "20",
    "prefectureNumber": 20,
    "prefecture": "長野県",
    "city": "長野市",
    "town": "伺去"
  },
  "3810064": {
    "zipcode": "3810064",
    "prefectureCode": "20",
    "prefectureNumber": 20,
    "prefecture": "長野県",
    "city": "長野市",
    "town": "浅川東条"
  },
  "3810065": {
    "zipcode": "3810065",
    "prefectureCode": "20",
    "prefectureNumber": 20,
    "prefecture": "長野県",
    "city": "長野市",
    "town": "真光寺"
  },
  "3810066": {
    "zipcode": "3810066",
    "prefectureCode": "20",
    "prefectureNumber": 20,
    "prefecture": "長野県",
    "city": "長野市",
    "town": "浅川西平"
  },
  "3810071": {
    "zipcode": "3810071",
    "prefectureCode": "20",
    "prefectureNumber": 20,
    "prefecture": "長野県",
    "city": "長野市",
    "town": "台ケ窪"
  },
  "3810072": {
    "zipcode": "3810072",
    "prefectureCode": "20",
    "prefectureNumber": 20,
    "prefecture": "長野県",
    "city": "長野市",
    "town": "浅川清水"
  },
  "3810073": {
    "zipcode": "3810073",
    "prefectureCode": "20",
    "prefectureNumber": 20,
    "prefecture": "長野県",
    "city": "長野市",
    "town": "浅川畑山"
  },
  "3810074": {
    "zipcode": "3810074",
    "prefectureCode": "20",
    "prefectureNumber": 20,
    "prefecture": "長野県",
    "city": "長野市",
    "town": "中曽根"
  },
  "3810075": {
    "zipcode": "3810075",
    "prefectureCode": "20",
    "prefectureNumber": 20,
    "prefecture": "長野県",
    "city": "長野市",
    "town": "北郷"
  },
  "3810076": {
    "zipcode": "3810076",
    "prefectureCode": "20",
    "prefectureNumber": 20,
    "prefecture": "長野県",
    "city": "長野市",
    "town": "三ツ出"
  },
  "3810081": {
    "zipcode": "3810081",
    "prefectureCode": "20",
    "prefectureNumber": 20,
    "prefecture": "長野県",
    "city": "長野市",
    "town": "三才"
  },
  "3810082": {
    "zipcode": "3810082",
    "prefectureCode": "20",
    "prefectureNumber": 20,
    "prefecture": "長野県",
    "city": "長野市",
    "town": "上駒沢"
  },
  "3810083": {
    "zipcode": "3810083",
    "prefectureCode": "20",
    "prefectureNumber": 20,
    "prefecture": "長野県",
    "city": "長野市",
    "town": "西三才"
  },
  "3810084": {
    "zipcode": "3810084",
    "prefectureCode": "20",
    "prefectureNumber": 20,
    "prefecture": "長野県",
    "city": "長野市",
    "town": "若槻東条"
  },
  "3810085": {
    "zipcode": "3810085",
    "prefectureCode": "20",
    "prefectureNumber": 20,
    "prefecture": "長野県",
    "city": "長野市",
    "town": "上野"
  },
  "3810086": {
    "zipcode": "3810086",
    "prefectureCode": "20",
    "prefectureNumber": 20,
    "prefecture": "長野県",
    "city": "長野市",
    "town": "田中"
  },
  "3810087": {
    "zipcode": "3810087",
    "prefectureCode": "20",
    "prefectureNumber": 20,
    "prefecture": "長野県",
    "city": "長野市",
    "town": "田子"
  },
  "3810088": {
    "zipcode": "3810088",
    "prefectureCode": "20",
    "prefectureNumber": 20,
    "prefecture": "長野県",
    "city": "長野市",
    "town": "吉"
  },
  "3810089": {
    "zipcode": "3810089",
    "prefectureCode": "20",
    "prefectureNumber": 20,
    "prefecture": "長野県",
    "city": "長野市",
    "town": "若槻西条"
  },
  "3810101": {
    "zipcode": "3810101",
    "prefectureCode": "20",
    "prefectureNumber": 20,
    "prefecture": "長野県",
    "city": "長野市",
    "town": "若穂綿内"
  },
  "3810102": {
    "zipcode": "3810102",
    "prefectureCode": "20",
    "prefectureNumber": 20,
    "prefecture": "長野県",
    "city": "長野市",
    "town": "若穂保科"
  },
  "3810103": {
    "zipcode": "3810103",
    "prefectureCode": "20",
    "prefectureNumber": 20,
    "prefecture": "長野県",
    "city": "長野市",
    "town": "若穂川田"
  },
  "3810104": {
    "zipcode": "3810104",
    "prefectureCode": "20",
    "prefectureNumber": 20,
    "prefecture": "長野県",
    "city": "長野市",
    "town": "若穂牛島（その他）"
  },
  "3810200": {
    "zipcode": "3810200",
    "prefectureCode": "20",
    "prefectureNumber": 20,
    "prefecture": "長野県",
    "city": "上高井郡小布施町",
    "town": "以下に掲載がない場合"
  },
  "3810201": {
    "zipcode": "3810201",
    "prefectureCode": "20",
    "prefectureNumber": 20,
    "prefecture": "長野県",
    "city": "上高井郡小布施町",
    "town": "小布施"
  },
  "3810202": {
    "zipcode": "3810202",
    "prefectureCode": "20",
    "prefectureNumber": 20,
    "prefecture": "長野県",
    "city": "上高井郡小布施町",
    "town": "福原"
  },
  "3810203": {
    "zipcode": "3810203",
    "prefectureCode": "20",
    "prefectureNumber": 20,
    "prefecture": "長野県",
    "city": "上高井郡小布施町",
    "town": "大島"
  },
  "3810204": {
    "zipcode": "3810204",
    "prefectureCode": "20",
    "prefectureNumber": 20,
    "prefecture": "長野県",
    "city": "上高井郡小布施町",
    "town": "飯田"
  },
  "3810205": {
    "zipcode": "3810205",
    "prefectureCode": "20",
    "prefectureNumber": 20,
    "prefecture": "長野県",
    "city": "上高井郡小布施町",
    "town": "山王島"
  },
  "3810206": {
    "zipcode": "3810206",
    "prefectureCode": "20",
    "prefectureNumber": 20,
    "prefecture": "長野県",
    "city": "上高井郡小布施町",
    "town": "北岡"
  },
  "3810207": {
    "zipcode": "3810207",
    "prefectureCode": "20",
    "prefectureNumber": 20,
    "prefecture": "長野県",
    "city": "上高井郡小布施町",
    "town": "押羽"
  },
  "3810208": {
    "zipcode": "3810208",
    "prefectureCode": "20",
    "prefectureNumber": 20,
    "prefecture": "長野県",
    "city": "上高井郡小布施町",
    "town": "都住"
  },
  "3810209": {
    "zipcode": "3810209",
    "prefectureCode": "20",
    "prefectureNumber": 20,
    "prefecture": "長野県",
    "city": "上高井郡小布施町",
    "town": "中松"
  },
  "3810211": {
    "zipcode": "3810211",
    "prefectureCode": "20",
    "prefectureNumber": 20,
    "prefecture": "長野県",
    "city": "上高井郡小布施町",
    "town": "雁田"
  },
  "3810212": {
    "zipcode": "3810212",
    "prefectureCode": "20",
    "prefectureNumber": 20,
    "prefecture": "長野県",
    "city": "上高井郡小布施町",
    "town": "吉島"
  },
  "3810400": {
    "zipcode": "3810400",
    "prefectureCode": "20",
    "prefectureNumber": 20,
    "prefecture": "長野県",
    "city": "下高井郡山ノ内町",
    "town": "以下に掲載がない場合"
  },
  "3810401": {
    "zipcode": "3810401",
    "prefectureCode": "20",
    "prefectureNumber": 20,
    "prefecture": "長野県",
    "city": "下高井郡山ノ内町",
    "town": "平穏"
  },
  "3810402": {
    "zipcode": "3810402",
    "prefectureCode": "20",
    "prefectureNumber": 20,
    "prefecture": "長野県",
    "city": "下高井郡山ノ内町",
    "town": "佐野"
  },
  "3810403": {
    "zipcode": "3810403",
    "prefectureCode": "20",
    "prefectureNumber": 20,
    "prefecture": "長野県",
    "city": "下高井郡山ノ内町",
    "town": "寒沢"
  },
  "3810404": {
    "zipcode": "3810404",
    "prefectureCode": "20",
    "prefectureNumber": 20,
    "prefecture": "長野県",
    "city": "下高井郡山ノ内町",
    "town": "戸狩"
  },
  "3810405": {
    "zipcode": "3810405",
    "prefectureCode": "20",
    "prefectureNumber": 20,
    "prefecture": "長野県",
    "city": "下高井郡山ノ内町",
    "town": "夜間瀬"
  },
  "3811211": {
    "zipcode": "3811211",
    "prefectureCode": "20",
    "prefectureNumber": 20,
    "prefecture": "長野県",
    "city": "長野市",
    "town": "松代町大室"
  },
  "3811212": {
    "zipcode": "3811212",
    "prefectureCode": "20",
    "prefectureNumber": 20,
    "prefecture": "長野県",
    "city": "長野市",
    "town": "松代町牧島"
  },
  "3811213": {
    "zipcode": "3811213",
    "prefectureCode": "20",
    "prefectureNumber": 20,
    "prefecture": "長野県",
    "city": "長野市",
    "town": "松代町小島田"
  },
  "3811214": {
    "zipcode": "3811214",
    "prefectureCode": "20",
    "prefectureNumber": 20,
    "prefecture": "長野県",
    "city": "長野市",
    "town": "松代町柴"
  },
  "3811215": {
    "zipcode": "3811215",
    "prefectureCode": "20",
    "prefectureNumber": 20,
    "prefecture": "長野県",
    "city": "長野市",
    "town": "松代町西寺尾"
  },
  "3811221": {
    "zipcode": "3811221",
    "prefectureCode": "20",
    "prefectureNumber": 20,
    "prefecture": "長野県",
    "city": "長野市",
    "town": "松代町東条"
  },
  "3811222": {
    "zipcode": "3811222",
    "prefectureCode": "20",
    "prefectureNumber": 20,
    "prefecture": "長野県",
    "city": "長野市",
    "town": "松代町豊栄"
  },
  "3811223": {
    "zipcode": "3811223",
    "prefectureCode": "20",
    "prefectureNumber": 20,
    "prefecture": "長野県",
    "city": "長野市",
    "town": "皆神台"
  },
  "3811224": {
    "zipcode": "3811224",
    "prefectureCode": "20",
    "prefectureNumber": 20,
    "prefecture": "長野県",
    "city": "長野市",
    "town": "松代町城東"
  },
  "3811225": {
    "zipcode": "3811225",
    "prefectureCode": "20",
    "prefectureNumber": 20,
    "prefecture": "長野県",
    "city": "長野市",
    "town": "松代町東寺尾"
  },
  "3811226": {
    "zipcode": "3811226",
    "prefectureCode": "20",
    "prefectureNumber": 20,
    "prefecture": "長野県",
    "city": "長野市",
    "town": "松代温泉"
  },
  "3811231": {
    "zipcode": "3811231",
    "prefectureCode": "20",
    "prefectureNumber": 20,
    "prefecture": "長野県",
    "city": "長野市",
    "town": "松代町松代"
  },
  "3811232": {
    "zipcode": "3811232",
    "prefectureCode": "20",
    "prefectureNumber": 20,
    "prefecture": "長野県",
    "city": "長野市",
    "town": "松代町西条"
  },
  "3811233": {
    "zipcode": "3811233",
    "prefectureCode": "20",
    "prefectureNumber": 20,
    "prefecture": "長野県",
    "city": "長野市",
    "town": "松代町清野"
  },
  "3811234": {
    "zipcode": "3811234",
    "prefectureCode": "20",
    "prefectureNumber": 20,
    "prefecture": "長野県",
    "city": "長野市",
    "town": "松代町岩野"
  },
  "3811235": {
    "zipcode": "3811235",
    "prefectureCode": "20",
    "prefectureNumber": 20,
    "prefecture": "長野県",
    "city": "長野市",
    "town": "松代町城北"
  },
  "3812201": {
    "zipcode": "3812201",
    "prefectureCode": "20",
    "prefectureNumber": 20,
    "prefecture": "長野県",
    "city": "長野市",
    "town": "若穂牛島（１２９８〜１８３５番地）"
  },
  "3812202": {
    "zipcode": "3812202",
    "prefectureCode": "20",
    "prefectureNumber": 20,
    "prefecture": "長野県",
    "city": "長野市",
    "town": "市場"
  },
  "3812203": {
    "zipcode": "3812203",
    "prefectureCode": "20",
    "prefectureNumber": 20,
    "prefecture": "長野県",
    "city": "長野市",
    "town": "真島町川合"
  },
  "3812204": {
    "zipcode": "3812204",
    "prefectureCode": "20",
    "prefectureNumber": 20,
    "prefecture": "長野県",
    "city": "長野市",
    "town": "真島町真島"
  },
  "3812205": {
    "zipcode": "3812205",
    "prefectureCode": "20",
    "prefectureNumber": 20,
    "prefecture": "長野県",
    "city": "長野市",
    "town": "青木島町大塚"
  },
  "3812206": {
    "zipcode": "3812206",
    "prefectureCode": "20",
    "prefectureNumber": 20,
    "prefecture": "長野県",
    "city": "長野市",
    "town": "青木島町綱島"
  },
  "3812207": {
    "zipcode": "3812207",
    "prefectureCode": "20",
    "prefectureNumber": 20,
    "prefecture": "長野県",
    "city": "長野市",
    "town": "大橋南"
  },
  "3812211": {
    "zipcode": "3812211",
    "prefectureCode": "20",
    "prefectureNumber": 20,
    "prefecture": "長野県",
    "city": "長野市",
    "town": "稲里町下氷鉋"
  },
  "3812212": {
    "zipcode": "3812212",
    "prefectureCode": "20",
    "prefectureNumber": 20,
    "prefecture": "長野県",
    "city": "長野市",
    "town": "小島田町"
  },
  "3812213": {
    "zipcode": "3812213",
    "prefectureCode": "20",
    "prefectureNumber": 20,
    "prefecture": "長野県",
    "city": "長野市",
    "town": "広田"
  },
  "3812214": {
    "zipcode": "3812214",
    "prefectureCode": "20",
    "prefectureNumber": 20,
    "prefecture": "長野県",
    "city": "長野市",
    "town": "稲里町田牧"
  },
  "3812215": {
    "zipcode": "3812215",
    "prefectureCode": "20",
    "prefectureNumber": 20,
    "prefecture": "長野県",
    "city": "長野市",
    "town": "稲里町中氷鉋"
  },
  "3812216": {
    "zipcode": "3812216",
    "prefectureCode": "20",
    "prefectureNumber": 20,
    "prefecture": "長野県",
    "city": "長野市",
    "town": "下氷鉋"
  },
  "3812217": {
    "zipcode": "3812217",
    "prefectureCode": "20",
    "prefectureNumber": 20,
    "prefecture": "長野県",
    "city": "長野市",
    "town": "稲里町中央"
  },
  "3812221": {
    "zipcode": "3812221",
    "prefectureCode": "20",
    "prefectureNumber": 20,
    "prefecture": "長野県",
    "city": "長野市",
    "town": "川中島町御厨"
  },
  "3812222": {
    "zipcode": "3812222",
    "prefectureCode": "20",
    "prefectureNumber": 20,
    "prefecture": "長野県",
    "city": "長野市",
    "town": "金井田"
  },
  "3812223": {
    "zipcode": "3812223",
    "prefectureCode": "20",
    "prefectureNumber": 20,
    "prefecture": "長野県",
    "city": "長野市",
    "town": "里島"
  },
  "3812224": {
    "zipcode": "3812224",
    "prefectureCode": "20",
    "prefectureNumber": 20,
    "prefecture": "長野県",
    "city": "長野市",
    "town": "川中島町原"
  },
  "3812225": {
    "zipcode": "3812225",
    "prefectureCode": "20",
    "prefectureNumber": 20,
    "prefecture": "長野県",
    "city": "長野市",
    "town": "篠ノ井岡田"
  },
  "3812226": {
    "zipcode": "3812226",
    "prefectureCode": "20",
    "prefectureNumber": 20,
    "prefecture": "長野県",
    "city": "長野市",
    "town": "川中島町今井"
  },
  "3812227": {
    "zipcode": "3812227",
    "prefectureCode": "20",
    "prefectureNumber": 20,
    "prefecture": "長野県",
    "city": "長野市",
    "town": "川中島町今井原"
  },
  "3812231": {
    "zipcode": "3812231",
    "prefectureCode": "20",
    "prefectureNumber": 20,
    "prefecture": "長野県",
    "city": "長野市",
    "town": "川中島町四ツ屋"
  },
  "3812232": {
    "zipcode": "3812232",
    "prefectureCode": "20",
    "prefectureNumber": 20,
    "prefecture": "長野県",
    "city": "長野市",
    "town": "川中島町若葉町"
  },
  "3812233": {
    "zipcode": "3812233",
    "prefectureCode": "20",
    "prefectureNumber": 20,
    "prefecture": "長野県",
    "city": "長野市",
    "town": "川中島町上氷鉋"
  },
  "3812234": {
    "zipcode": "3812234",
    "prefectureCode": "20",
    "prefectureNumber": 20,
    "prefecture": "長野県",
    "city": "長野市",
    "town": "川中島町今里"
  },
  "3812235": {
    "zipcode": "3812235",
    "prefectureCode": "20",
    "prefectureNumber": 20,
    "prefecture": "長野県",
    "city": "長野市",
    "town": "篠ノ井小松原"
  },
  "3812241": {
    "zipcode": "3812241",
    "prefectureCode": "20",
    "prefectureNumber": 20,
    "prefecture": "長野県",
    "city": "長野市",
    "town": "青木島町青木島乙"
  },
  "3812242": {
    "zipcode": "3812242",
    "prefectureCode": "20",
    "prefectureNumber": 20,
    "prefecture": "長野県",
    "city": "長野市",
    "town": "青木島町青木島"
  },
  "3812243": {
    "zipcode": "3812243",
    "prefectureCode": "20",
    "prefectureNumber": 20,
    "prefecture": "長野県",
    "city": "長野市",
    "town": "稲里"
  },
  "3812244": {
    "zipcode": "3812244",
    "prefectureCode": "20",
    "prefectureNumber": 20,
    "prefecture": "長野県",
    "city": "長野市",
    "town": "三本柳西"
  },
  "3812245": {
    "zipcode": "3812245",
    "prefectureCode": "20",
    "prefectureNumber": 20,
    "prefecture": "長野県",
    "city": "長野市",
    "town": "三本柳東"
  },
  "3812246": {
    "zipcode": "3812246",
    "prefectureCode": "20",
    "prefectureNumber": 20,
    "prefecture": "長野県",
    "city": "長野市",
    "town": "丹波島"
  },
  "3812247": {
    "zipcode": "3812247",
    "prefectureCode": "20",
    "prefectureNumber": 20,
    "prefecture": "長野県",
    "city": "長野市",
    "town": "青木島"
  },
  "3812341": {
    "zipcode": "3812341",
    "prefectureCode": "20",
    "prefectureNumber": 20,
    "prefecture": "長野県",
    "city": "長野市",
    "town": "信更町下平"
  },
  "3812342": {
    "zipcode": "3812342",
    "prefectureCode": "20",
    "prefectureNumber": 20,
    "prefecture": "長野県",
    "city": "長野市",
    "town": "信更町宮平"
  },
  "3812343": {
    "zipcode": "3812343",
    "prefectureCode": "20",
    "prefectureNumber": 20,
    "prefecture": "長野県",
    "city": "長野市",
    "town": "信更町桜井"
  },
  "3812344": {
    "zipcode": "3812344",
    "prefectureCode": "20",
    "prefectureNumber": 20,
    "prefecture": "長野県",
    "city": "長野市",
    "town": "信更町上尾"
  },
  "3812345": {
    "zipcode": "3812345",
    "prefectureCode": "20",
    "prefectureNumber": 20,
    "prefecture": "長野県",
    "city": "長野市",
    "town": "信更町涌池"
  },
  "3812346": {
    "zipcode": "3812346",
    "prefectureCode": "20",
    "prefectureNumber": 20,
    "prefecture": "長野県",
    "city": "長野市",
    "town": "信更町安庭"
  },
  "3812347": {
    "zipcode": "3812347",
    "prefectureCode": "20",
    "prefectureNumber": 20,
    "prefecture": "長野県",
    "city": "長野市",
    "town": "信更町古藤"
  },
  "3812351": {
    "zipcode": "3812351",
    "prefectureCode": "20",
    "prefectureNumber": 20,
    "prefecture": "長野県",
    "city": "長野市",
    "town": "信更町氷ノ田"
  },
  "3812352": {
    "zipcode": "3812352",
    "prefectureCode": "20",
    "prefectureNumber": 20,
    "prefecture": "長野県",
    "city": "長野市",
    "town": "信更町赤田"
  },
  "3812353": {
    "zipcode": "3812353",
    "prefectureCode": "20",
    "prefectureNumber": 20,
    "prefecture": "長野県",
    "city": "長野市",
    "town": "信更町田野口"
  },
  "3812354": {
    "zipcode": "3812354",
    "prefectureCode": "20",
    "prefectureNumber": 20,
    "prefecture": "長野県",
    "city": "長野市",
    "town": "信更町田沢"
  },
  "3812355": {
    "zipcode": "3812355",
    "prefectureCode": "20",
    "prefectureNumber": 20,
    "prefecture": "長野県",
    "city": "長野市",
    "town": "信更町高野"
  },
  "3812356": {
    "zipcode": "3812356",
    "prefectureCode": "20",
    "prefectureNumber": 20,
    "prefecture": "長野県",
    "city": "長野市",
    "town": "信更町吉原"
  },
  "3812357": {
    "zipcode": "3812357",
    "prefectureCode": "20",
    "prefectureNumber": 20,
    "prefecture": "長野県",
    "city": "長野市",
    "town": "信更町灰原"
  },
  "3812358": {
    "zipcode": "3812358",
    "prefectureCode": "20",
    "prefectureNumber": 20,
    "prefecture": "長野県",
    "city": "長野市",
    "town": "信更町今泉"
  },
  "3812359": {
    "zipcode": "3812359",
    "prefectureCode": "20",
    "prefectureNumber": 20,
    "prefecture": "長野県",
    "city": "長野市",
    "town": "信更町三水"
  },
  "3812401": {
    "zipcode": "3812401",
    "prefectureCode": "20",
    "prefectureNumber": 20,
    "prefecture": "長野県",
    "city": "長野市",
    "town": "信州新町越道"
  },
  "3812402": {
    "zipcode": "3812402",
    "prefectureCode": "20",
    "prefectureNumber": 20,
    "prefecture": "長野県",
    "city": "長野市",
    "town": "信州新町山上条"
  },
  "3812403": {
    "zipcode": "3812403",
    "prefectureCode": "20",
    "prefectureNumber": 20,
    "prefecture": "長野県",
    "city": "長野市",
    "town": "信州新町水内"
  },
  "3812404": {
    "zipcode": "3812404",
    "prefectureCode": "20",
    "prefectureNumber": 20,
    "prefecture": "長野県",
    "city": "長野市",
    "town": "信州新町上条"
  },
  "3812405": {
    "zipcode": "3812405",
    "prefectureCode": "20",
    "prefectureNumber": 20,
    "prefecture": "長野県",
    "city": "長野市",
    "town": "信州新町新町"
  },
  "3812406": {
    "zipcode": "3812406",
    "prefectureCode": "20",
    "prefectureNumber": 20,
    "prefecture": "長野県",
    "city": "長野市",
    "town": "信州新町里穂刈"
  },
  "3812407": {
    "zipcode": "3812407",
    "prefectureCode": "20",
    "prefectureNumber": 20,
    "prefecture": "長野県",
    "city": "長野市",
    "town": "信州新町山穂刈"
  },
  "3812411": {
    "zipcode": "3812411",
    "prefectureCode": "20",
    "prefectureNumber": 20,
    "prefecture": "長野県",
    "city": "長野市",
    "town": "信州新町竹房"
  },
  "3812412": {
    "zipcode": "3812412",
    "prefectureCode": "20",
    "prefectureNumber": 20,
    "prefecture": "長野県",
    "city": "長野市",
    "town": "信州新町牧野島"
  },
  "3812413": {
    "zipcode": "3812413",
    "prefectureCode": "20",
    "prefectureNumber": 20,
    "prefecture": "長野県",
    "city": "長野市",
    "town": "信州新町下市場"
  },
  "3812414": {
    "zipcode": "3812414",
    "prefectureCode": "20",
    "prefectureNumber": 20,
    "prefecture": "長野県",
    "city": "長野市",
    "town": "信州新町牧田中"
  },
  "3812415": {
    "zipcode": "3812415",
    "prefectureCode": "20",
    "prefectureNumber": 20,
    "prefecture": "長野県",
    "city": "長野市",
    "town": "信州新町中牧"
  },
  "3812416": {
    "zipcode": "3812416",
    "prefectureCode": "20",
    "prefectureNumber": 20,
    "prefecture": "長野県",
    "city": "長野市",
    "town": "信州新町弘崎"
  },
  "3812421": {
    "zipcode": "3812421",
    "prefectureCode": "20",
    "prefectureNumber": 20,
    "prefecture": "長野県",
    "city": "長野市",
    "town": "信州新町信級"
  },
  "3812422": {
    "zipcode": "3812422",
    "prefectureCode": "20",
    "prefectureNumber": 20,
    "prefecture": "長野県",
    "city": "長野市",
    "town": "信州新町日原東"
  },
  "3812423": {
    "zipcode": "3812423",
    "prefectureCode": "20",
    "prefectureNumber": 20,
    "prefecture": "長野県",
    "city": "長野市",
    "town": "信州新町日原西"
  },
  "3812424": {
    "zipcode": "3812424",
    "prefectureCode": "20",
    "prefectureNumber": 20,
    "prefecture": "長野県",
    "city": "長野市",
    "town": "信州新町左右"
  },
  "3812701": {
    "zipcode": "3812701",
    "prefectureCode": "20",
    "prefectureNumber": 20,
    "prefecture": "長野県",
    "city": "長野市",
    "town": "大岡中牧"
  },
  "3812702": {
    "zipcode": "3812702",
    "prefectureCode": "20",
    "prefectureNumber": 20,
    "prefecture": "長野県",
    "city": "長野市",
    "town": "大岡丙"
  },
  "3812703": {
    "zipcode": "3812703",
    "prefectureCode": "20",
    "prefectureNumber": 20,
    "prefecture": "長野県",
    "city": "長野市",
    "town": "大岡乙"
  },
  "3812704": {
    "zipcode": "3812704",
    "prefectureCode": "20",
    "prefectureNumber": 20,
    "prefecture": "長野県",
    "city": "長野市",
    "town": "大岡甲"
  },
  "3812705": {
    "zipcode": "3812705",
    "prefectureCode": "20",
    "prefectureNumber": 20,
    "prefecture": "長野県",
    "city": "長野市",
    "town": "大岡弘崎"
  },
  "3813161": {
    "zipcode": "3813161",
    "prefectureCode": "20",
    "prefectureNumber": 20,
    "prefecture": "長野県",
    "city": "長野市",
    "town": "七二会丁"
  },
  "3813162": {
    "zipcode": "3813162",
    "prefectureCode": "20",
    "prefectureNumber": 20,
    "prefecture": "長野県",
    "city": "長野市",
    "town": "七二会戊"
  },
  "3813163": {
    "zipcode": "3813163",
    "prefectureCode": "20",
    "prefectureNumber": 20,
    "prefecture": "長野県",
    "city": "長野市",
    "town": "七二会己"
  },
  "3813164": {
    "zipcode": "3813164",
    "prefectureCode": "20",
    "prefectureNumber": 20,
    "prefecture": "長野県",
    "city": "長野市",
    "town": "七二会乙"
  },
  "3813165": {
    "zipcode": "3813165",
    "prefectureCode": "20",
    "prefectureNumber": 20,
    "prefecture": "長野県",
    "city": "長野市",
    "town": "七二会甲"
  },
  "3813166": {
    "zipcode": "3813166",
    "prefectureCode": "20",
    "prefectureNumber": 20,
    "prefecture": "長野県",
    "city": "長野市",
    "town": "七二会丙"
  },
  "3813201": {
    "zipcode": "3813201",
    "prefectureCode": "20",
    "prefectureNumber": 20,
    "prefecture": "長野県",
    "city": "長野市",
    "town": "中条日高"
  },
  "3813202": {
    "zipcode": "3813202",
    "prefectureCode": "20",
    "prefectureNumber": 20,
    "prefecture": "長野県",
    "city": "長野市",
    "town": "中条日下野"
  },
  "3813203": {
    "zipcode": "3813203",
    "prefectureCode": "20",
    "prefectureNumber": 20,
    "prefecture": "長野県",
    "city": "長野市",
    "town": "中条"
  },
  "3813204": {
    "zipcode": "3813204",
    "prefectureCode": "20",
    "prefectureNumber": 20,
    "prefecture": "長野県",
    "city": "長野市",
    "town": "中条御山里"
  },
  "3813205": {
    "zipcode": "3813205",
    "prefectureCode": "20",
    "prefectureNumber": 20,
    "prefecture": "長野県",
    "city": "長野市",
    "town": "中条住良木"
  },
  "3813300": {
    "zipcode": "3813300",
    "prefectureCode": "20",
    "prefectureNumber": 20,
    "prefecture": "長野県",
    "city": "上水内郡小川村",
    "town": "以下に掲載がない場合"
  },
  "3813301": {
    "zipcode": "3813301",
    "prefectureCode": "20",
    "prefectureNumber": 20,
    "prefecture": "長野県",
    "city": "上水内郡小川村",
    "town": "稲丘"
  },
  "3813302": {
    "zipcode": "3813302",
    "prefectureCode": "20",
    "prefectureNumber": 20,
    "prefecture": "長野県",
    "city": "上水内郡小川村",
    "town": "高府"
  },
  "3813303": {
    "zipcode": "3813303",
    "prefectureCode": "20",
    "prefectureNumber": 20,
    "prefecture": "長野県",
    "city": "上水内郡小川村",
    "town": "小根山"
  },
  "3813304": {
    "zipcode": "3813304",
    "prefectureCode": "20",
    "prefectureNumber": 20,
    "prefecture": "長野県",
    "city": "上水内郡小川村",
    "town": "瀬戸川"
  },
  "3814101": {
    "zipcode": "3814101",
    "prefectureCode": "20",
    "prefectureNumber": 20,
    "prefecture": "長野県",
    "city": "長野市",
    "town": "戸隠"
  },
  "3814102": {
    "zipcode": "3814102",
    "prefectureCode": "20",
    "prefectureNumber": 20,
    "prefecture": "長野県",
    "city": "長野市",
    "town": "戸隠豊岡"
  },
  "3814103": {
    "zipcode": "3814103",
    "prefectureCode": "20",
    "prefectureNumber": 20,
    "prefecture": "長野県",
    "city": "長野市",
    "town": "戸隠祖山"
  },
  "3814104": {
    "zipcode": "3814104",
    "prefectureCode": "20",
    "prefectureNumber": 20,
    "prefecture": "長野県",
    "city": "長野市",
    "town": "戸隠栃原"
  },
  "3814301": {
    "zipcode": "3814301",
    "prefectureCode": "20",
    "prefectureNumber": 20,
    "prefecture": "長野県",
    "city": "長野市",
    "town": "鬼無里"
  },
  "3814302": {
    "zipcode": "3814302",
    "prefectureCode": "20",
    "prefectureNumber": 20,
    "prefecture": "長野県",
    "city": "長野市",
    "town": "鬼無里日影"
  },
  "3814303": {
    "zipcode": "3814303",
    "prefectureCode": "20",
    "prefectureNumber": 20,
    "prefecture": "長野県",
    "city": "長野市",
    "town": "鬼無里日下野"
  }
}
