{
  "3830000": {
    "zipcode": "3830000",
    "prefectureCode": "20",
    "prefectureNumber": 20,
    "prefecture": "長野県",
    "city": "中野市",
    "town": "以下に掲載がない場合"
  },
  "3830001": {
    "zipcode": "3830001",
    "prefectureCode": "20",
    "prefectureNumber": 20,
    "prefecture": "長野県",
    "city": "中野市",
    "town": "岩井"
  },
  "3830002": {
    "zipcode": "3830002",
    "prefectureCode": "20",
    "prefectureNumber": 20,
    "prefecture": "長野県",
    "city": "中野市",
    "town": "田上（その他）"
  },
  "3830003": {
    "zipcode": "3830003",
    "prefectureCode": "20",
    "prefectureNumber": 20,
    "prefecture": "長野県",
    "city": "中野市",
    "town": "柳沢"
  },
  "3830004": {
    "zipcode": "3830004",
    "prefectureCode": "20",
    "prefectureNumber": 20,
    "prefecture": "長野県",
    "city": "中野市",
    "town": "赤岩"
  },
  "3830005": {
    "zipcode": "3830005",
    "prefectureCode": "20",
    "prefectureNumber": 20,
    "prefecture": "長野県",
    "city": "中野市",
    "town": "越"
  },
  "3830006": {
    "zipcode": "3830006",
    "prefectureCode": "20",
    "prefectureNumber": 20,
    "prefecture": "長野県",
    "city": "中野市",
    "town": "深沢"
  },
  "3830007": {
    "zipcode": "3830007",
    "prefectureCode": "20",
    "prefectureNumber": 20,
    "prefecture": "長野県",
    "city": "中野市",
    "town": "竹原"
  },
  "3830008": {
    "zipcode": "3830008",
    "prefectureCode": "20",
    "prefectureNumber": 20,
    "prefecture": "長野県",
    "city": "中野市",
    "town": "金井"
  },
  "3830011": {
    "zipcode": "3830011",
    "prefectureCode": "20",
    "prefectureNumber": 20,
    "prefecture": "長野県",
    "city": "中野市",
    "town": "若宮"
  },
  "3830012": {
    "zipcode": "3830012",
    "prefectureCode": "20",
    "prefectureNumber": 20,
    "prefecture": "長野県",
    "city": "中野市",
    "town": "一本木"
  },
  "3830013": {
    "zipcode": "3830013",
    "prefectureCode": "20",
    "prefectureNumber": 20,
    "prefecture": "長野県",
    "city": "中野市",
    "town": "中野"
  },
  "3830014": {
    "zipcode": "3830014",
    "prefectureCode": "20",
    "prefectureNumber": 20,
    "prefecture": "長野県",
    "city": "中野市",
    "town": "諏訪町"
  },
  "3830015": {
    "zipcode": "3830015",
    "prefectureCode": "20",
    "prefectureNumber": 20,
    "prefecture": "長野県",
    "city": "中野市",
    "town": "吉田"
  },
  "3830021": {
    "zipcode": "3830021",
    "prefectureCode": "20",
    "prefectureNumber": 20,
    "prefecture": "長野県",
    "city": "中野市",
    "town": "西"
  },
  "3830022": {
    "zipcode": "3830022",
    "prefectureCode": "20",
    "prefectureNumber": 20,
    "prefecture": "長野県",
    "city": "中野市",
    "town": "中央"
  },
  "3830023": {
    "zipcode": "3830023",
    "prefectureCode": "20",
    "prefectureNumber": 20,
    "prefecture": "長野県",
    "city": "中野市",
    "town": "小舘"
  },
  "3830024": {
    "zipcode": "3830024",
    "prefectureCode": "20",
    "prefectureNumber": 20,
    "prefecture": "長野県",
    "city": "中野市",
    "town": "東山"
  },
  "3830025": {
    "zipcode": "3830025",
    "prefectureCode": "20",
    "prefectureNumber": 20,
    "prefecture": "長野県",
    "city": "中野市",
    "town": "三好町"
  },
  "3830031": {
    "zipcode": "3830031",
    "prefectureCode": "20",
    "prefectureNumber": 20,
    "prefecture": "長野県",
    "city": "中野市",
    "town": "南宮"
  },
  "3830032": {
    "zipcode": "3830032",
    "prefectureCode": "20",
    "prefectureNumber": 20,
    "prefecture": "長野県",
    "city": "中野市",
    "town": "更科"
  },
  "3830033": {
    "zipcode": "3830033",
    "prefectureCode": "20",
    "prefectureNumber": 20,
    "prefecture": "長野県",
    "city": "中野市",
    "town": "間山"
  },
  "3830034": {
    "zipcode": "3830034",
    "prefectureCode": "20",
    "prefectureNumber": 20,
    "prefecture": "長野県",
    "city": "中野市",
    "town": "新野"
  },
  "3830035": {
    "zipcode": "3830035",
    "prefectureCode": "20",
    "prefectureNumber": 20,
    "prefecture": "長野県",
    "city": "中野市",
    "town": "篠井"
  },
  "3830036": {
    "zipcode": "3830036",
    "prefectureCode": "20",
    "prefectureNumber": 20,
    "prefecture": "長野県",
    "city": "中野市",
    "town": "新保"
  },
  "3830037": {
    "zipcode": "3830037",
    "prefectureCode": "20",
    "prefectureNumber": 20,
    "prefecture": "長野県",
    "city": "中野市",
    "town": "小田中"
  },
  "3830041": {
    "zipcode": "3830041",
    "prefectureCode": "20",
    "prefectureNumber": 20,
    "prefecture": "長野県",
    "city": "中野市",
    "town": "岩船"
  },
  "3830042": {
    "zipcode": "3830042",
    "prefectureCode": "20",
    "prefectureNumber": 20,
    "prefecture": "長野県",
    "city": "中野市",
    "town": "西条"
  },
  "3830043": {
    "zipcode": "3830043",
    "prefectureCode": "20",
    "prefectureNumber": 20,
    "prefecture": "長野県",
    "city": "中野市",
    "town": "三ツ和"
  },
  "3830044": {
    "zipcode": "3830044",
    "prefectureCode": "20",
    "prefectureNumber": 20,
    "prefecture": "長野県",
    "city": "中野市",
    "town": "桜沢"
  },
  "3830045": {
    "zipcode": "3830045",
    "prefectureCode": "20",
    "prefectureNumber": 20,
    "prefecture": "長野県",
    "city": "中野市",
    "town": "江部"
  },
  "3830046": {
    "zipcode": "3830046",
    "prefectureCode": "20",
    "prefectureNumber": 20,
    "prefecture": "長野県",
    "city": "中野市",
    "town": "片塩"
  },
  "3830051": {
    "zipcode": "3830051",
    "prefectureCode": "20",
    "prefectureNumber": 20,
    "prefecture": "長野県",
    "city": "中野市",
    "town": "七瀬"
  },
  "3830052": {
    "zipcode": "3830052",
    "prefectureCode": "20",
    "prefectureNumber": 20,
    "prefecture": "長野県",
    "city": "中野市",
    "town": "安源寺"
  },
  "3830053": {
    "zipcode": "3830053",
    "prefectureCode": "20",
    "prefectureNumber": 20,
    "prefecture": "長野県",
    "city": "中野市",
    "town": "草間"
  },
  "3830054": {
    "zipcode": "3830054",
    "prefectureCode": "20",
    "prefectureNumber": 20,
    "prefecture": "長野県",
    "city": "中野市",
    "town": "立ケ花"
  },
  "3830055": {
    "zipcode": "3830055",
    "prefectureCode": "20",
    "prefectureNumber": 20,
    "prefecture": "長野県",
    "city": "中野市",
    "town": "牛出"
  },
  "3830056": {
    "zipcode": "3830056",
    "prefectureCode": "20",
    "prefectureNumber": 20,
    "prefecture": "長野県",
    "city": "中野市",
    "town": "栗林"
  },
  "3830057": {
    "zipcode": "3830057",
    "prefectureCode": "20",
    "prefectureNumber": 20,
    "prefecture": "長野県",
    "city": "中野市",
    "town": "大俣"
  },
  "3830061": {
    "zipcode": "3830061",
    "prefectureCode": "20",
    "prefectureNumber": 20,
    "prefecture": "長野県",
    "city": "中野市",
    "town": "壁田"
  },
  "3830062": {
    "zipcode": "3830062",
    "prefectureCode": "20",
    "prefectureNumber": 20,
    "prefecture": "長野県",
    "city": "中野市",
    "town": "笠原"
  },
  "3830063": {
    "zipcode": "3830063",
    "prefectureCode": "20",
    "prefectureNumber": 20,
    "prefecture": "長野県",
    "city": "中野市",
    "town": "間長瀬"
  },
  "3830064": {
    "zipcode": "3830064",
    "prefectureCode": "20",
    "prefectureNumber": 20,
    "prefecture": "長野県",
    "city": "中野市",
    "town": "新井"
  },
  "3830065": {
    "zipcode": "3830065",
    "prefectureCode": "20",
    "prefectureNumber": 20,
    "prefecture": "長野県",
    "city": "中野市",
    "town": "田麦"
  },
  "3830066": {
    "zipcode": "3830066",
    "prefectureCode": "20",
    "prefectureNumber": 20,
    "prefecture": "長野県",
    "city": "中野市",
    "town": "厚貝"
  }
}
