{
  "3840000": {
    "zipcode": "3840000",
    "prefectureCode": "20",
    "prefectureNumber": 20,
    "prefecture": "長野県",
    "city": "小諸市",
    "town": "以下に掲載がない場合"
  },
  "3840001": {
    "zipcode": "3840001",
    "prefectureCode": "20",
    "prefectureNumber": 20,
    "prefecture": "長野県",
    "city": "小諸市",
    "town": "小原"
  },
  "3840002": {
    "zipcode": "3840002",
    "prefectureCode": "20",
    "prefectureNumber": 20,
    "prefecture": "長野県",
    "city": "小諸市",
    "town": "唐松"
  },
  "3840003": {
    "zipcode": "3840003",
    "prefectureCode": "20",
    "prefectureNumber": 20,
    "prefecture": "長野県",
    "city": "小諸市",
    "town": "東山"
  },
  "3840004": {
    "zipcode": "3840004",
    "prefectureCode": "20",
    "prefectureNumber": 20,
    "prefecture": "長野県",
    "city": "小諸市",
    "town": "乙女"
  },
  "3840005": {
    "zipcode": "3840005",
    "prefectureCode": "20",
    "prefectureNumber": 20,
    "prefecture": "長野県",
    "city": "小諸市",
    "town": "御幸町"
  },
  "3840006": {
    "zipcode": "3840006",
    "prefectureCode": "20",
    "prefectureNumber": 20,
    "prefecture": "長野県",
    "city": "小諸市",
    "town": "与良町"
  },
  "3840007": {
    "zipcode": "3840007",
    "prefectureCode": "20",
    "prefectureNumber": 20,
    "prefecture": "長野県",
    "city": "小諸市",
    "town": "鶴巻"
  },
  "3840008": {
    "zipcode": "3840008",
    "prefectureCode": "20",
    "prefectureNumber": 20,
    "prefecture": "長野県",
    "city": "小諸市",
    "town": "東小諸"
  },
  "3840011": {
    "zipcode": "3840011",
    "prefectureCode": "20",
    "prefectureNumber": 20,
    "prefecture": "長野県",
    "city": "小諸市",
    "town": "赤坂"
  },
  "3840012": {
    "zipcode": "3840012",
    "prefectureCode": "20",
    "prefectureNumber": 20,
    "prefecture": "長野県",
    "city": "小諸市",
    "town": "南町"
  },
  "3840013": {
    "zipcode": "3840013",
    "prefectureCode": "20",
    "prefectureNumber": 20,
    "prefecture": "長野県",
    "city": "小諸市",
    "town": "緑ケ丘"
  },
  "3840014": {
    "zipcode": "3840014",
    "prefectureCode": "20",
    "prefectureNumber": 20,
    "prefecture": "長野県",
    "city": "小諸市",
    "town": "荒町"
  },
  "3840015": {
    "zipcode": "3840015",
    "prefectureCode": "20",
    "prefectureNumber": 20,
    "prefecture": "長野県",
    "city": "小諸市",
    "town": "紺屋町"
  },
  "3840016": {
    "zipcode": "3840016",
    "prefectureCode": "20",
    "prefectureNumber": 20,
    "prefecture": "長野県",
    "city": "小諸市",
    "town": "八幡町"
  },
  "3840017": {
    "zipcode": "3840017",
    "prefectureCode": "20",
    "prefectureNumber": 20,
    "prefecture": "長野県",
    "city": "小諸市",
    "town": "三和"
  },
  "3840018": {
    "zipcode": "3840018",
    "prefectureCode": "20",
    "prefectureNumber": 20,
    "prefecture": "長野県",
    "city": "小諸市",
    "town": "坂ノ上"
  },
  "3840021": {
    "zipcode": "3840021",
    "prefectureCode": "20",
    "prefectureNumber": 20,
    "prefecture": "長野県",
    "city": "小諸市",
    "town": "天池"
  },
  "3840022": {
    "zipcode": "3840022",
    "prefectureCode": "20",
    "prefectureNumber": 20,
    "prefecture": "長野県",
    "city": "小諸市",
    "town": "松井"
  },
  "3840023": {
    "zipcode": "3840023",
    "prefectureCode": "20",
    "prefectureNumber": 20,
    "prefecture": "長野県",
    "city": "小諸市",
    "town": "東雲"
  },
  "3840024": {
    "zipcode": "3840024",
    "prefectureCode": "20",
    "prefectureNumber": 20,
    "prefecture": "長野県",
    "city": "小諸市",
    "town": "熊ノ堂"
  },
  "3840025": {
    "zipcode": "3840025",
    "prefectureCode": "20",
    "prefectureNumber": 20,
    "prefecture": "長野県",
    "city": "小諸市",
    "town": "相生町"
  },
  "3840026": {
    "zipcode": "3840026",
    "prefectureCode": "20",
    "prefectureNumber": 20,
    "prefecture": "長野県",
    "city": "小諸市",
    "town": "本町"
  },
  "3840027": {
    "zipcode": "3840027",
    "prefectureCode": "20",
    "prefectureNumber": 20,
    "prefecture": "長野県",
    "city": "小諸市",
    "town": "六供"
  },
  "3840028": {
    "zipcode": "3840028",
    "prefectureCode": "20",
    "prefectureNumber": 20,
    "prefecture": "長野県",
    "city": "小諸市",
    "town": "田町"
  },
  "3840031": {
    "zipcode": "3840031",
    "prefectureCode": "20",
    "prefectureNumber": 20,
    "prefecture": "長野県",
    "city": "小諸市",
    "town": "大手"
  },
  "3840032": {
    "zipcode": "3840032",
    "prefectureCode": "20",
    "prefectureNumber": 20,
    "prefecture": "長野県",
    "city": "小諸市",
    "town": "古城"
  },
  "3840033": {
    "zipcode": "3840033",
    "prefectureCode": "20",
    "prefectureNumber": 20,
    "prefecture": "長野県",
    "city": "小諸市",
    "town": "市町"
  },
  "3840034": {
    "zipcode": "3840034",
    "prefectureCode": "20",
    "prefectureNumber": 20,
    "prefecture": "長野県",
    "city": "小諸市",
    "town": "新町"
  },
  "3840035": {
    "zipcode": "3840035",
    "prefectureCode": "20",
    "prefectureNumber": 20,
    "prefecture": "長野県",
    "city": "小諸市",
    "town": "両神"
  },
  "3840036": {
    "zipcode": "3840036",
    "prefectureCode": "20",
    "prefectureNumber": 20,
    "prefecture": "長野県",
    "city": "小諸市",
    "town": "富士見平"
  },
  "3840037": {
    "zipcode": "3840037",
    "prefectureCode": "20",
    "prefectureNumber": 20,
    "prefecture": "長野県",
    "city": "小諸市",
    "town": "押出"
  },
  "3840038": {
    "zipcode": "3840038",
    "prefectureCode": "20",
    "prefectureNumber": 20,
    "prefecture": "長野県",
    "city": "小諸市",
    "town": "栃木"
  },
  "3840041": {
    "zipcode": "3840041",
    "prefectureCode": "20",
    "prefectureNumber": 20,
    "prefecture": "長野県",
    "city": "小諸市",
    "town": "菱平"
  },
  "3840042": {
    "zipcode": "3840042",
    "prefectureCode": "20",
    "prefectureNumber": 20,
    "prefecture": "長野県",
    "city": "小諸市",
    "town": "後平"
  },
  "3840043": {
    "zipcode": "3840043",
    "prefectureCode": "20",
    "prefectureNumber": 20,
    "prefecture": "長野県",
    "city": "小諸市",
    "town": "諸"
  },
  "3840044": {
    "zipcode": "3840044",
    "prefectureCode": "20",
    "prefectureNumber": 20,
    "prefecture": "長野県",
    "city": "小諸市",
    "town": "西原"
  },
  "3840045": {
    "zipcode": "3840045",
    "prefectureCode": "20",
    "prefectureNumber": 20,
    "prefecture": "長野県",
    "city": "小諸市",
    "town": "滝原"
  },
  "3840046": {
    "zipcode": "3840046",
    "prefectureCode": "20",
    "prefectureNumber": 20,
    "prefecture": "長野県",
    "city": "小諸市",
    "town": "芝生田"
  },
  "3840047": {
    "zipcode": "3840047",
    "prefectureCode": "20",
    "prefectureNumber": 20,
    "prefecture": "長野県",
    "city": "小諸市",
    "town": "井子"
  },
  "3840048": {
    "zipcode": "3840048",
    "prefectureCode": "20",
    "prefectureNumber": 20,
    "prefecture": "長野県",
    "city": "小諸市",
    "town": "糠地"
  },
  "3840051": {
    "zipcode": "3840051",
    "prefectureCode": "20",
    "prefectureNumber": 20,
    "prefecture": "長野県",
    "city": "小諸市",
    "town": "八満"
  },
  "3840052": {
    "zipcode": "3840052",
    "prefectureCode": "20",
    "prefectureNumber": 20,
    "prefecture": "長野県",
    "city": "小諸市",
    "town": "東区"
  },
  "3840053": {
    "zipcode": "3840053",
    "prefectureCode": "20",
    "prefectureNumber": 20,
    "prefecture": "長野県",
    "city": "小諸市",
    "town": "藤塚"
  },
  "3840054": {
    "zipcode": "3840054",
    "prefectureCode": "20",
    "prefectureNumber": 20,
    "prefecture": "長野県",
    "city": "小諸市",
    "town": "石峠"
  },
  "3840055": {
    "zipcode": "3840055",
    "prefectureCode": "20",
    "prefectureNumber": 20,
    "prefecture": "長野県",
    "city": "小諸市",
    "town": "柏木"
  },
  "3840056": {
    "zipcode": "3840056",
    "prefectureCode": "20",
    "prefectureNumber": 20,
    "prefecture": "長野県",
    "city": "小諸市",
    "town": "四ツ谷"
  },
  "3840061": {
    "zipcode": "3840061",
    "prefectureCode": "20",
    "prefectureNumber": 20,
    "prefecture": "長野県",
    "city": "小諸市",
    "town": "加増"
  },
  "3840062": {
    "zipcode": "3840062",
    "prefectureCode": "20",
    "prefectureNumber": 20,
    "prefecture": "長野県",
    "city": "小諸市",
    "town": "荒堀"
  },
  "3840063": {
    "zipcode": "3840063",
    "prefectureCode": "20",
    "prefectureNumber": 20,
    "prefecture": "長野県",
    "city": "小諸市",
    "town": "南ケ原"
  },
  "3840064": {
    "zipcode": "3840064",
    "prefectureCode": "20",
    "prefectureNumber": 20,
    "prefecture": "長野県",
    "city": "小諸市",
    "town": "乗瀬"
  },
  "3840065": {
    "zipcode": "3840065",
    "prefectureCode": "20",
    "prefectureNumber": 20,
    "prefecture": "長野県",
    "city": "小諸市",
    "town": "ひばりケ丘"
  },
  "3840071": {
    "zipcode": "3840071",
    "prefectureCode": "20",
    "prefectureNumber": 20,
    "prefecture": "長野県",
    "city": "小諸市",
    "town": "大久保"
  },
  "3840072": {
    "zipcode": "3840072",
    "prefectureCode": "20",
    "prefectureNumber": 20,
    "prefecture": "長野県",
    "city": "小諸市",
    "town": "鴇久保"
  },
  "3840074": {
    "zipcode": "3840074",
    "prefectureCode": "20",
    "prefectureNumber": 20,
    "prefecture": "長野県",
    "city": "小諸市",
    "town": "西浦"
  },
  "3840075": {
    "zipcode": "3840075",
    "prefectureCode": "20",
    "prefectureNumber": 20,
    "prefecture": "長野県",
    "city": "小諸市",
    "town": "上ノ平"
  },
  "3840076": {
    "zipcode": "3840076",
    "prefectureCode": "20",
    "prefectureNumber": 20,
    "prefecture": "長野県",
    "city": "小諸市",
    "town": "久保"
  },
  "3840077": {
    "zipcode": "3840077",
    "prefectureCode": "20",
    "prefectureNumber": 20,
    "prefecture": "長野県",
    "city": "小諸市",
    "town": "大杭"
  },
  "3840078": {
    "zipcode": "3840078",
    "prefectureCode": "20",
    "prefectureNumber": 20,
    "prefecture": "長野県",
    "city": "小諸市",
    "town": "宮沢"
  },
  "3840081": {
    "zipcode": "3840081",
    "prefectureCode": "20",
    "prefectureNumber": 20,
    "prefecture": "長野県",
    "city": "小諸市",
    "town": "御牧ケ原"
  },
  "3840082": {
    "zipcode": "3840082",
    "prefectureCode": "20",
    "prefectureNumber": 20,
    "prefecture": "長野県",
    "city": "小諸市",
    "town": "諏訪山"
  },
  "3840083": {
    "zipcode": "3840083",
    "prefectureCode": "20",
    "prefectureNumber": 20,
    "prefecture": "長野県",
    "city": "小諸市",
    "town": "市"
  },
  "3840084": {
    "zipcode": "3840084",
    "prefectureCode": "20",
    "prefectureNumber": 20,
    "prefecture": "長野県",
    "city": "小諸市",
    "town": "耳取"
  },
  "3840085": {
    "zipcode": "3840085",
    "prefectureCode": "20",
    "prefectureNumber": 20,
    "prefecture": "長野県",
    "city": "小諸市",
    "town": "森山"
  },
  "3840091": {
    "zipcode": "3840091",
    "prefectureCode": "20",
    "prefectureNumber": 20,
    "prefecture": "長野県",
    "city": "小諸市",
    "town": "御影"
  },
  "3840092": {
    "zipcode": "3840092",
    "prefectureCode": "20",
    "prefectureNumber": 20,
    "prefecture": "長野県",
    "city": "小諸市",
    "town": "平原"
  },
  "3840093": {
    "zipcode": "3840093",
    "prefectureCode": "20",
    "prefectureNumber": 20,
    "prefecture": "長野県",
    "city": "小諸市",
    "town": "和田"
  },
  "3840094": {
    "zipcode": "3840094",
    "prefectureCode": "20",
    "prefectureNumber": 20,
    "prefecture": "長野県",
    "city": "小諸市",
    "town": "一ツ谷"
  },
  "3840095": {
    "zipcode": "3840095",
    "prefectureCode": "20",
    "prefectureNumber": 20,
    "prefecture": "長野県",
    "city": "小諸市",
    "town": "谷地原"
  },
  "3840096": {
    "zipcode": "3840096",
    "prefectureCode": "20",
    "prefectureNumber": 20,
    "prefecture": "長野県",
    "city": "小諸市",
    "town": "池ノ前"
  },
  "3840097": {
    "zipcode": "3840097",
    "prefectureCode": "10",
    "prefectureNumber": 10,
    "prefecture": "群馬県",
    "city": "吾妻郡嬬恋村",
    "town": "鎌原（高峰高原）"
  },
  "3840301": {
    "zipcode": "3840301",
    "prefectureCode": "20",
    "prefectureNumber": 20,
    "prefecture": "長野県",
    "city": "佐久市",
    "town": "臼田"
  },
  "3840302": {
    "zipcode": "3840302",
    "prefectureCode": "20",
    "prefectureNumber": 20,
    "prefecture": "長野県",
    "city": "佐久市",
    "town": "勝間"
  },
  "3840303": {
    "zipcode": "3840303",
    "prefectureCode": "20",
    "prefectureNumber": 20,
    "prefecture": "長野県",
    "city": "佐久市",
    "town": "下小田切"
  },
  "3840304": {
    "zipcode": "3840304",
    "prefectureCode": "20",
    "prefectureNumber": 20,
    "prefecture": "長野県",
    "city": "佐久市",
    "town": "北川"
  },
  "3840305": {
    "zipcode": "3840305",
    "prefectureCode": "20",
    "prefectureNumber": 20,
    "prefecture": "長野県",
    "city": "佐久市",
    "town": "中小田切"
  },
  "3840306": {
    "zipcode": "3840306",
    "prefectureCode": "20",
    "prefectureNumber": 20,
    "prefecture": "長野県",
    "city": "佐久市",
    "town": "上小田切"
  },
  "3840307": {
    "zipcode": "3840307",
    "prefectureCode": "20",
    "prefectureNumber": 20,
    "prefecture": "長野県",
    "city": "佐久市",
    "town": "湯原"
  },
  "3840411": {
    "zipcode": "3840411",
    "prefectureCode": "20",
    "prefectureNumber": 20,
    "prefecture": "長野県",
    "city": "佐久市",
    "town": "清川"
  },
  "3840412": {
    "zipcode": "3840412",
    "prefectureCode": "20",
    "prefectureNumber": 20,
    "prefecture": "長野県",
    "city": "佐久市",
    "town": "田口"
  },
  "3840413": {
    "zipcode": "3840413",
    "prefectureCode": "20",
    "prefectureNumber": 20,
    "prefecture": "長野県",
    "city": "佐久市",
    "town": "三分"
  },
  "3840414": {
    "zipcode": "3840414",
    "prefectureCode": "20",
    "prefectureNumber": 20,
    "prefecture": "長野県",
    "city": "佐久市",
    "town": "下越"
  },
  "3840501": {
    "zipcode": "3840501",
    "prefectureCode": "20",
    "prefectureNumber": 20,
    "prefecture": "長野県",
    "city": "南佐久郡佐久穂町",
    "town": "余地"
  },
  "3840502": {
    "zipcode": "3840502",
    "prefectureCode": "20",
    "prefectureNumber": 20,
    "prefecture": "長野県",
    "city": "南佐久郡佐久穂町",
    "town": "大日向"
  },
  "3840503": {
    "zipcode": "3840503",
    "prefectureCode": "20",
    "prefectureNumber": 20,
    "prefecture": "長野県",
    "city": "南佐久郡佐久穂町",
    "town": "海瀬"
  },
  "3840600": {
    "zipcode": "3840600",
    "prefectureCode": "20",
    "prefectureNumber": 20,
    "prefecture": "長野県",
    "city": "南佐久郡佐久穂町",
    "town": "以下に掲載がない場合"
  },
  "3840611": {
    "zipcode": "3840611",
    "prefectureCode": "20",
    "prefectureNumber": 20,
    "prefecture": "長野県",
    "city": "南佐久郡佐久穂町",
    "town": "平林"
  },
  "3840612": {
    "zipcode": "3840612",
    "prefectureCode": "20",
    "prefectureNumber": 20,
    "prefecture": "長野県",
    "city": "南佐久郡佐久穂町",
    "town": "宿岩"
  },
  "3840613": {
    "zipcode": "3840613",
    "prefectureCode": "20",
    "prefectureNumber": 20,
    "prefecture": "長野県",
    "city": "南佐久郡佐久穂町",
    "town": "高野町"
  },
  "3840614": {
    "zipcode": "3840614",
    "prefectureCode": "20",
    "prefectureNumber": 20,
    "prefecture": "長野県",
    "city": "南佐久郡佐久穂町",
    "town": "上"
  },
  "3840621": {
    "zipcode": "3840621",
    "prefectureCode": "20",
    "prefectureNumber": 20,
    "prefecture": "長野県",
    "city": "佐久市",
    "town": "入澤"
  },
  "3840622": {
    "zipcode": "3840622",
    "prefectureCode": "20",
    "prefectureNumber": 20,
    "prefecture": "長野県",
    "city": "佐久市",
    "town": "平林"
  },
  "3840701": {
    "zipcode": "3840701",
    "prefectureCode": "20",
    "prefectureNumber": 20,
    "prefecture": "長野県",
    "city": "南佐久郡佐久穂町",
    "town": "畑"
  },
  "3840702": {
    "zipcode": "3840702",
    "prefectureCode": "20",
    "prefectureNumber": 20,
    "prefecture": "長野県",
    "city": "南佐久郡佐久穂町",
    "town": "穂積"
  },
  "3840703": {
    "zipcode": "3840703",
    "prefectureCode": "20",
    "prefectureNumber": 20,
    "prefecture": "長野県",
    "city": "南佐久郡佐久穂町",
    "town": "千代里"
  },
  "3840704": {
    "zipcode": "3840704",
    "prefectureCode": "20",
    "prefectureNumber": 20,
    "prefecture": "長野県",
    "city": "南佐久郡佐久穂町",
    "town": "八郡"
  },
  "3840801": {
    "zipcode": "3840801",
    "prefectureCode": "20",
    "prefectureNumber": 20,
    "prefecture": "長野県",
    "city": "小諸市",
    "town": "甲"
  },
  "3840802": {
    "zipcode": "3840802",
    "prefectureCode": "20",
    "prefectureNumber": 20,
    "prefecture": "長野県",
    "city": "小諸市",
    "town": "乙"
  },
  "3840803": {
    "zipcode": "3840803",
    "prefectureCode": "20",
    "prefectureNumber": 20,
    "prefecture": "長野県",
    "city": "小諸市",
    "town": "丙"
  },
  "3840804": {
    "zipcode": "3840804",
    "prefectureCode": "20",
    "prefectureNumber": 20,
    "prefecture": "長野県",
    "city": "小諸市",
    "town": "丁"
  },
  "3840805": {
    "zipcode": "3840805",
    "prefectureCode": "20",
    "prefectureNumber": 20,
    "prefecture": "長野県",
    "city": "小諸市",
    "town": "己"
  },
  "3840806": {
    "zipcode": "3840806",
    "prefectureCode": "20",
    "prefectureNumber": 20,
    "prefecture": "長野県",
    "city": "小諸市",
    "town": "塩野"
  },
  "3840807": {
    "zipcode": "3840807",
    "prefectureCode": "20",
    "prefectureNumber": 20,
    "prefecture": "長野県",
    "city": "小諸市",
    "town": "山浦"
  },
  "3840808": {
    "zipcode": "3840808",
    "prefectureCode": "20",
    "prefectureNumber": 20,
    "prefecture": "長野県",
    "city": "小諸市",
    "town": "御影新田"
  },
  "3840809": {
    "zipcode": "3840809",
    "prefectureCode": "20",
    "prefectureNumber": 20,
    "prefecture": "長野県",
    "city": "小諸市",
    "town": "滋野甲"
  },
  "3841100": {
    "zipcode": "3841100",
    "prefectureCode": "20",
    "prefectureNumber": 20,
    "prefecture": "長野県",
    "city": "南佐久郡小海町",
    "town": "以下に掲載がない場合"
  },
  "3841101": {
    "zipcode": "3841101",
    "prefectureCode": "20",
    "prefectureNumber": 20,
    "prefecture": "長野県",
    "city": "南佐久郡小海町",
    "town": "東馬流"
  },
  "3841102": {
    "zipcode": "3841102",
    "prefectureCode": "20",
    "prefectureNumber": 20,
    "prefecture": "長野県",
    "city": "南佐久郡小海町",
    "town": "小海"
  },
  "3841103": {
    "zipcode": "3841103",
    "prefectureCode": "20",
    "prefectureNumber": 20,
    "prefecture": "長野県",
    "city": "南佐久郡小海町",
    "town": "豊里"
  },
  "3841104": {
    "zipcode": "3841104",
    "prefectureCode": "20",
    "prefectureNumber": 20,
    "prefecture": "長野県",
    "city": "南佐久郡小海町",
    "town": "稲子"
  },
  "3841105": {
    "zipcode": "3841105",
    "prefectureCode": "20",
    "prefectureNumber": 20,
    "prefecture": "長野県",
    "city": "南佐久郡小海町",
    "town": "千代里"
  },
  "3841201": {
    "zipcode": "3841201",
    "prefectureCode": "20",
    "prefectureNumber": 20,
    "prefecture": "長野県",
    "city": "南佐久郡北相木村",
    "town": "北相木村一円"
  },
  "3841211": {
    "zipcode": "3841211",
    "prefectureCode": "20",
    "prefectureNumber": 20,
    "prefecture": "長野県",
    "city": "南佐久郡南相木村",
    "town": "南相木村一円"
  },
  "3841300": {
    "zipcode": "3841300",
    "prefectureCode": "20",
    "prefectureNumber": 20,
    "prefecture": "長野県",
    "city": "南佐久郡南牧村",
    "town": "以下に掲載がない場合"
  },
  "3841301": {
    "zipcode": "3841301",
    "prefectureCode": "20",
    "prefectureNumber": 20,
    "prefecture": "長野県",
    "city": "南佐久郡南牧村",
    "town": "海尻"
  },
  "3841302": {
    "zipcode": "3841302",
    "prefectureCode": "20",
    "prefectureNumber": 20,
    "prefecture": "長野県",
    "city": "南佐久郡南牧村",
    "town": "海ノ口"
  },
  "3841303": {
    "zipcode": "3841303",
    "prefectureCode": "20",
    "prefectureNumber": 20,
    "prefecture": "長野県",
    "city": "南佐久郡南牧村",
    "town": "広瀬"
  },
  "3841304": {
    "zipcode": "3841304",
    "prefectureCode": "20",
    "prefectureNumber": 20,
    "prefecture": "長野県",
    "city": "南佐久郡南牧村",
    "town": "板橋"
  },
  "3841305": {
    "zipcode": "3841305",
    "prefectureCode": "20",
    "prefectureNumber": 20,
    "prefecture": "長野県",
    "city": "南佐久郡南牧村",
    "town": "野辺山"
  },
  "3841306": {
    "zipcode": "3841306",
    "prefectureCode": "20",
    "prefectureNumber": 20,
    "prefecture": "長野県",
    "city": "南佐久郡南牧村",
    "town": "平沢"
  },
  "3841400": {
    "zipcode": "3841400",
    "prefectureCode": "20",
    "prefectureNumber": 20,
    "prefecture": "長野県",
    "city": "南佐久郡川上村",
    "town": "以下に掲載がない場合"
  },
  "3841401": {
    "zipcode": "3841401",
    "prefectureCode": "20",
    "prefectureNumber": 20,
    "prefecture": "長野県",
    "city": "南佐久郡川上村",
    "town": "川端下"
  },
  "3841402": {
    "zipcode": "3841402",
    "prefectureCode": "20",
    "prefectureNumber": 20,
    "prefecture": "長野県",
    "city": "南佐久郡川上村",
    "town": "梓山"
  },
  "3841403": {
    "zipcode": "3841403",
    "prefectureCode": "20",
    "prefectureNumber": 20,
    "prefecture": "長野県",
    "city": "南佐久郡川上村",
    "town": "秋山"
  },
  "3841404": {
    "zipcode": "3841404",
    "prefectureCode": "20",
    "prefectureNumber": 20,
    "prefecture": "長野県",
    "city": "南佐久郡川上村",
    "town": "居倉"
  },
  "3841405": {
    "zipcode": "3841405",
    "prefectureCode": "20",
    "prefectureNumber": 20,
    "prefecture": "長野県",
    "city": "南佐久郡川上村",
    "town": "大深山"
  },
  "3841406": {
    "zipcode": "3841406",
    "prefectureCode": "20",
    "prefectureNumber": 20,
    "prefecture": "長野県",
    "city": "南佐久郡川上村",
    "town": "原"
  },
  "3841407": {
    "zipcode": "3841407",
    "prefectureCode": "20",
    "prefectureNumber": 20,
    "prefecture": "長野県",
    "city": "南佐久郡川上村",
    "town": "御所平"
  },
  "3841408": {
    "zipcode": "3841408",
    "prefectureCode": "20",
    "prefectureNumber": 20,
    "prefecture": "長野県",
    "city": "南佐久郡川上村",
    "town": "樋沢"
  },
  "3842101": {
    "zipcode": "3842101",
    "prefectureCode": "20",
    "prefectureNumber": 20,
    "prefecture": "長野県",
    "city": "佐久市",
    "town": "桑山"
  },
  "3842102": {
    "zipcode": "3842102",
    "prefectureCode": "20",
    "prefectureNumber": 20,
    "prefecture": "長野県",
    "city": "佐久市",
    "town": "塩名田"
  },
  "3842103": {
    "zipcode": "3842103",
    "prefectureCode": "20",
    "prefectureNumber": 20,
    "prefecture": "長野県",
    "city": "佐久市",
    "town": "御馬寄"
  },
  "3842104": {
    "zipcode": "3842104",
    "prefectureCode": "20",
    "prefectureNumber": 20,
    "prefecture": "長野県",
    "city": "佐久市",
    "town": "甲"
  },
  "3842105": {
    "zipcode": "3842105",
    "prefectureCode": "20",
    "prefectureNumber": 20,
    "prefecture": "長野県",
    "city": "佐久市",
    "town": "矢嶋"
  },
  "3842106": {
    "zipcode": "3842106",
    "prefectureCode": "20",
    "prefectureNumber": 20,
    "prefecture": "長野県",
    "city": "佐久市",
    "town": "八幡"
  },
  "3842107": {
    "zipcode": "3842107",
    "prefectureCode": "20",
    "prefectureNumber": 20,
    "prefecture": "長野県",
    "city": "佐久市",
    "town": "蓬田"
  },
  "3842201": {
    "zipcode": "3842201",
    "prefectureCode": "20",
    "prefectureNumber": 20,
    "prefecture": "長野県",
    "city": "佐久市",
    "town": "印内"
  },
  "3842202": {
    "zipcode": "3842202",
    "prefectureCode": "20",
    "prefectureNumber": 20,
    "prefecture": "長野県",
    "city": "佐久市",
    "town": "望月"
  },
  "3842203": {
    "zipcode": "3842203",
    "prefectureCode": "20",
    "prefectureNumber": 20,
    "prefecture": "長野県",
    "city": "佐久市",
    "town": "布施"
  },
  "3842204": {
    "zipcode": "3842204",
    "prefectureCode": "20",
    "prefectureNumber": 20,
    "prefecture": "長野県",
    "city": "佐久市",
    "town": "協和"
  },
  "3842205": {
    "zipcode": "3842205",
    "prefectureCode": "20",
    "prefectureNumber": 20,
    "prefecture": "長野県",
    "city": "佐久市",
    "town": "春日"
  },
  "3842206": {
    "zipcode": "3842206",
    "prefectureCode": "20",
    "prefectureNumber": 20,
    "prefecture": "長野県",
    "city": "佐久市",
    "town": "茂田井"
  },
  "3842211": {
    "zipcode": "3842211",
    "prefectureCode": "20",
    "prefectureNumber": 20,
    "prefecture": "長野県",
    "city": "北佐久郡立科町",
    "town": "茂田井（その他）"
  },
  "3842300": {
    "zipcode": "3842300",
    "prefectureCode": "20",
    "prefectureNumber": 20,
    "prefecture": "長野県",
    "city": "北佐久郡立科町",
    "town": "以下に掲載がない場合"
  },
  "3842301": {
    "zipcode": "3842301",
    "prefectureCode": "20",
    "prefectureNumber": 20,
    "prefecture": "長野県",
    "city": "北佐久郡立科町",
    "town": "桐原"
  },
  "3842302": {
    "zipcode": "3842302",
    "prefectureCode": "20",
    "prefectureNumber": 20,
    "prefecture": "長野県",
    "city": "北佐久郡立科町",
    "town": "藤沢"
  },
  "3842303": {
    "zipcode": "3842303",
    "prefectureCode": "20",
    "prefectureNumber": 20,
    "prefecture": "長野県",
    "city": "北佐久郡立科町",
    "town": "塩沢"
  },
  "3842304": {
    "zipcode": "3842304",
    "prefectureCode": "20",
    "prefectureNumber": 20,
    "prefecture": "長野県",
    "city": "北佐久郡立科町",
    "town": "茂田井（１〜５００「２１１番地を除く」「古町」、２５２７〜２５２９「土遠」）"
  },
  "3842305": {
    "zipcode": "3842305",
    "prefectureCode": "20",
    "prefectureNumber": 20,
    "prefecture": "長野県",
    "city": "北佐久郡立科町",
    "town": "芦田"
  },
  "3842306": {
    "zipcode": "3842306",
    "prefectureCode": "20",
    "prefectureNumber": 20,
    "prefecture": "長野県",
    "city": "北佐久郡立科町",
    "town": "宇山"
  },
  "3842307": {
    "zipcode": "3842307",
    "prefectureCode": "20",
    "prefectureNumber": 20,
    "prefecture": "長野県",
    "city": "北佐久郡立科町",
    "town": "山部"
  },
  "3842308": {
    "zipcode": "3842308",
    "prefectureCode": "20",
    "prefectureNumber": 20,
    "prefecture": "長野県",
    "city": "北佐久郡立科町",
    "town": "牛鹿"
  },
  "3842309": {
    "zipcode": "3842309",
    "prefectureCode": "20",
    "prefectureNumber": 20,
    "prefecture": "長野県",
    "city": "北佐久郡立科町",
    "town": "芦田八ケ野（その他）"
  }
}
