{
  "3850000": {
    "zipcode": "3850000",
    "prefectureCode": "20",
    "prefectureNumber": 20,
    "prefecture": "長野県",
    "city": "佐久市",
    "town": "以下に掲載がない場合"
  },
  "3850001": {
    "zipcode": "3850001",
    "prefectureCode": "20",
    "prefectureNumber": 20,
    "prefecture": "長野県",
    "city": "佐久市",
    "town": "横根"
  },
  "3850002": {
    "zipcode": "3850002",
    "prefectureCode": "20",
    "prefectureNumber": 20,
    "prefecture": "長野県",
    "city": "佐久市",
    "town": "上平尾"
  },
  "3850003": {
    "zipcode": "3850003",
    "prefectureCode": "20",
    "prefectureNumber": 20,
    "prefecture": "長野県",
    "city": "佐久市",
    "town": "下平尾"
  },
  "3850004": {
    "zipcode": "3850004",
    "prefectureCode": "20",
    "prefectureNumber": 20,
    "prefecture": "長野県",
    "city": "佐久市",
    "town": "安原"
  },
  "3850005": {
    "zipcode": "3850005",
    "prefectureCode": "20",
    "prefectureNumber": 20,
    "prefecture": "長野県",
    "city": "佐久市",
    "town": "香坂"
  },
  "3850006": {
    "zipcode": "3850006",
    "prefectureCode": "20",
    "prefectureNumber": 20,
    "prefecture": "長野県",
    "city": "佐久市",
    "town": "志賀"
  },
  "3850007": {
    "zipcode": "3850007",
    "prefectureCode": "20",
    "prefectureNumber": 20,
    "prefecture": "長野県",
    "city": "佐久市",
    "town": "新子田"
  },
  "3850009": {
    "zipcode": "3850009",
    "prefectureCode": "20",
    "prefectureNumber": 20,
    "prefecture": "長野県",
    "city": "佐久市",
    "town": "小田井"
  },
  "3850011": {
    "zipcode": "3850011",
    "prefectureCode": "20",
    "prefectureNumber": 20,
    "prefecture": "長野県",
    "city": "佐久市",
    "town": "猿久保"
  },
  "3850012": {
    "zipcode": "3850012",
    "prefectureCode": "20",
    "prefectureNumber": 20,
    "prefecture": "長野県",
    "city": "佐久市",
    "town": "根々井"
  },
  "3850013": {
    "zipcode": "3850013",
    "prefectureCode": "20",
    "prefectureNumber": 20,
    "prefecture": "長野県",
    "city": "佐久市",
    "town": "横和"
  },
  "3850014": {
    "zipcode": "3850014",
    "prefectureCode": "20",
    "prefectureNumber": 20,
    "prefecture": "長野県",
    "city": "佐久市",
    "town": "三河田"
  },
  "3850015": {
    "zipcode": "3850015",
    "prefectureCode": "20",
    "prefectureNumber": 20,
    "prefecture": "長野県",
    "city": "佐久市",
    "town": "今井"
  },
  "3850016": {
    "zipcode": "3850016",
    "prefectureCode": "20",
    "prefectureNumber": 20,
    "prefecture": "長野県",
    "city": "佐久市",
    "town": "鳴瀬"
  },
  "3850021": {
    "zipcode": "3850021",
    "prefectureCode": "20",
    "prefectureNumber": 20,
    "prefecture": "長野県",
    "city": "佐久市",
    "town": "長土呂"
  },
  "3850022": {
    "zipcode": "3850022",
    "prefectureCode": "20",
    "prefectureNumber": 20,
    "prefecture": "長野県",
    "city": "佐久市",
    "town": "岩村田"
  },
  "3850023": {
    "zipcode": "3850023",
    "prefectureCode": "20",
    "prefectureNumber": 20,
    "prefecture": "長野県",
    "city": "佐久市",
    "town": "岩村田北"
  },
  "3850024": {
    "zipcode": "3850024",
    "prefectureCode": "20",
    "prefectureNumber": 20,
    "prefecture": "長野県",
    "city": "佐久市",
    "town": "平塚"
  },
  "3850025": {
    "zipcode": "3850025",
    "prefectureCode": "20",
    "prefectureNumber": 20,
    "prefecture": "長野県",
    "city": "佐久市",
    "town": "塚原"
  },
  "3850026": {
    "zipcode": "3850026",
    "prefectureCode": "20",
    "prefectureNumber": 20,
    "prefecture": "長野県",
    "city": "佐久市",
    "town": "常田"
  },
  "3850027": {
    "zipcode": "3850027",
    "prefectureCode": "20",
    "prefectureNumber": 20,
    "prefecture": "長野県",
    "city": "佐久市",
    "town": "佐久平駅北"
  },
  "3850028": {
    "zipcode": "3850028",
    "prefectureCode": "20",
    "prefectureNumber": 20,
    "prefecture": "長野県",
    "city": "佐久市",
    "town": "佐久平駅東"
  },
  "3850029": {
    "zipcode": "3850029",
    "prefectureCode": "20",
    "prefectureNumber": 20,
    "prefecture": "長野県",
    "city": "佐久市",
    "town": "佐久平駅南"
  },
  "3850031": {
    "zipcode": "3850031",
    "prefectureCode": "20",
    "prefectureNumber": 20,
    "prefecture": "長野県",
    "city": "佐久市",
    "town": "内山"
  },
  "3850032": {
    "zipcode": "3850032",
    "prefectureCode": "20",
    "prefectureNumber": 20,
    "prefecture": "長野県",
    "city": "佐久市",
    "town": "常和"
  },
  "3850033": {
    "zipcode": "3850033",
    "prefectureCode": "20",
    "prefectureNumber": 20,
    "prefecture": "長野県",
    "city": "佐久市",
    "town": "太田部"
  },
  "3850034": {
    "zipcode": "3850034",
    "prefectureCode": "20",
    "prefectureNumber": 20,
    "prefecture": "長野県",
    "city": "佐久市",
    "town": "平賀"
  },
  "3850035": {
    "zipcode": "3850035",
    "prefectureCode": "20",
    "prefectureNumber": 20,
    "prefecture": "長野県",
    "city": "佐久市",
    "town": "瀬戸"
  },
  "3850041": {
    "zipcode": "3850041",
    "prefectureCode": "20",
    "prefectureNumber": 20,
    "prefecture": "長野県",
    "city": "佐久市",
    "town": "鍛冶屋"
  },
  "3850042": {
    "zipcode": "3850042",
    "prefectureCode": "20",
    "prefectureNumber": 20,
    "prefecture": "長野県",
    "city": "佐久市",
    "town": "高柳"
  },
  "3850043": {
    "zipcode": "3850043",
    "prefectureCode": "20",
    "prefectureNumber": 20,
    "prefecture": "長野県",
    "city": "佐久市",
    "town": "取出町"
  },
  "3850044": {
    "zipcode": "3850044",
    "prefectureCode": "20",
    "prefectureNumber": 20,
    "prefecture": "長野県",
    "city": "佐久市",
    "town": "本新町"
  },
  "3850045": {
    "zipcode": "3850045",
    "prefectureCode": "20",
    "prefectureNumber": 20,
    "prefecture": "長野県",
    "city": "佐久市",
    "town": "大沢"
  },
  "3850046": {
    "zipcode": "3850046",
    "prefectureCode": "20",
    "prefectureNumber": 20,
    "prefecture": "長野県",
    "city": "佐久市",
    "town": "前山"
  },
  "3850047": {
    "zipcode": "3850047",
    "prefectureCode": "20",
    "prefectureNumber": 20,
    "prefecture": "長野県",
    "city": "佐久市",
    "town": "小宮山"
  },
  "3850051": {
    "zipcode": "3850051",
    "prefectureCode": "20",
    "prefectureNumber": 20,
    "prefecture": "長野県",
    "city": "佐久市",
    "town": "中込"
  },
  "3850052": {
    "zipcode": "3850052",
    "prefectureCode": "20",
    "prefectureNumber": 20,
    "prefecture": "長野県",
    "city": "佐久市",
    "town": "原"
  },
  "3850053": {
    "zipcode": "3850053",
    "prefectureCode": "20",
    "prefectureNumber": 20,
    "prefecture": "長野県",
    "city": "佐久市",
    "town": "野沢"
  },
  "3850054": {
    "zipcode": "3850054",
    "prefectureCode": "20",
    "prefectureNumber": 20,
    "prefecture": "長野県",
    "city": "佐久市",
    "town": "跡部"
  },
  "3850055": {
    "zipcode": "3850055",
    "prefectureCode": "20",
    "prefectureNumber": 20,
    "prefecture": "長野県",
    "city": "佐久市",
    "town": "三塚"
  },
  "3850056": {
    "zipcode": "3850056",
    "prefectureCode": "20",
    "prefectureNumber": 20,
    "prefecture": "長野県",
    "city": "佐久市",
    "town": "桜井"
  },
  "3850061": {
    "zipcode": "3850061",
    "prefectureCode": "20",
    "prefectureNumber": 20,
    "prefecture": "長野県",
    "city": "佐久市",
    "town": "伴野"
  },
  "3850062": {
    "zipcode": "3850062",
    "prefectureCode": "20",
    "prefectureNumber": 20,
    "prefecture": "長野県",
    "city": "佐久市",
    "town": "根岸"
  },
  "3850063": {
    "zipcode": "3850063",
    "prefectureCode": "20",
    "prefectureNumber": 20,
    "prefecture": "長野県",
    "city": "佐久市",
    "town": "東立科"
  }
}
