{
  "3860000": {
    "zipcode": "3860000",
    "prefectureCode": "20",
    "prefectureNumber": 20,
    "prefecture": "長野県",
    "city": "上田市",
    "town": "以下に掲載がない場合"
  },
  "3860001": {
    "zipcode": "3860001",
    "prefectureCode": "20",
    "prefectureNumber": 20,
    "prefecture": "長野県",
    "city": "上田市",
    "town": "上田"
  },
  "3860002": {
    "zipcode": "3860002",
    "prefectureCode": "20",
    "prefectureNumber": 20,
    "prefecture": "長野県",
    "city": "上田市",
    "town": "住吉"
  },
  "3860003": {
    "zipcode": "3860003",
    "prefectureCode": "20",
    "prefectureNumber": 20,
    "prefecture": "長野県",
    "city": "上田市",
    "town": "上野"
  },
  "3860004": {
    "zipcode": "3860004",
    "prefectureCode": "20",
    "prefectureNumber": 20,
    "prefecture": "長野県",
    "city": "上田市",
    "town": "殿城"
  },
  "3860005": {
    "zipcode": "3860005",
    "prefectureCode": "20",
    "prefectureNumber": 20,
    "prefecture": "長野県",
    "city": "上田市",
    "town": "古里"
  },
  "3860006": {
    "zipcode": "3860006",
    "prefectureCode": "20",
    "prefectureNumber": 20,
    "prefecture": "長野県",
    "city": "上田市",
    "town": "漆戸"
  },
  "3860011": {
    "zipcode": "3860011",
    "prefectureCode": "20",
    "prefectureNumber": 20,
    "prefecture": "長野県",
    "city": "上田市",
    "town": "中央北"
  },
  "3860012": {
    "zipcode": "3860012",
    "prefectureCode": "20",
    "prefectureNumber": 20,
    "prefecture": "長野県",
    "city": "上田市",
    "town": "中央"
  },
  "3860013": {
    "zipcode": "3860013",
    "prefectureCode": "20",
    "prefectureNumber": 20,
    "prefecture": "長野県",
    "city": "上田市",
    "town": "中央東"
  },
  "3860014": {
    "zipcode": "3860014",
    "prefectureCode": "20",
    "prefectureNumber": 20,
    "prefecture": "長野県",
    "city": "上田市",
    "town": "材木町"
  },
  "3860015": {
    "zipcode": "3860015",
    "prefectureCode": "20",
    "prefectureNumber": 20,
    "prefecture": "長野県",
    "city": "上田市",
    "town": "常入"
  },
  "3860016": {
    "zipcode": "3860016",
    "prefectureCode": "20",
    "prefectureNumber": 20,
    "prefecture": "長野県",
    "city": "上田市",
    "town": "国分"
  },
  "3860017": {
    "zipcode": "3860017",
    "prefectureCode": "20",
    "prefectureNumber": 20,
    "prefecture": "長野県",
    "city": "上田市",
    "town": "踏入"
  },
  "3860018": {
    "zipcode": "3860018",
    "prefectureCode": "20",
    "prefectureNumber": 20,
    "prefecture": "長野県",
    "city": "上田市",
    "town": "常田"
  },
  "3860022": {
    "zipcode": "3860022",
    "prefectureCode": "20",
    "prefectureNumber": 20,
    "prefecture": "長野県",
    "city": "上田市",
    "town": "緑が丘"
  },
  "3860023": {
    "zipcode": "3860023",
    "prefectureCode": "20",
    "prefectureNumber": 20,
    "prefecture": "長野県",
    "city": "上田市",
    "town": "中央西"
  },
  "3860024": {
    "zipcode": "3860024",
    "prefectureCode": "20",
    "prefectureNumber": 20,
    "prefecture": "長野県",
    "city": "上田市",
    "town": "大手"
  },
  "3860025": {
    "zipcode": "3860025",
    "prefectureCode": "20",
    "prefectureNumber": 20,
    "prefecture": "長野県",
    "city": "上田市",
    "town": "天神"
  },
  "3860026": {
    "zipcode": "3860026",
    "prefectureCode": "20",
    "prefectureNumber": 20,
    "prefecture": "長野県",
    "city": "上田市",
    "town": "二の丸"
  },
  "3860027": {
    "zipcode": "3860027",
    "prefectureCode": "20",
    "prefectureNumber": 20,
    "prefecture": "長野県",
    "city": "上田市",
    "town": "常磐城"
  },
  "3860031": {
    "zipcode": "3860031",
    "prefectureCode": "20",
    "prefectureNumber": 20,
    "prefecture": "長野県",
    "city": "上田市",
    "town": "小牧"
  },
  "3860032": {
    "zipcode": "3860032",
    "prefectureCode": "20",
    "prefectureNumber": 20,
    "prefecture": "長野県",
    "city": "上田市",
    "town": "諏訪形"
  },
  "3860033": {
    "zipcode": "3860033",
    "prefectureCode": "20",
    "prefectureNumber": 20,
    "prefecture": "長野県",
    "city": "上田市",
    "town": "御所"
  },
  "3860034": {
    "zipcode": "3860034",
    "prefectureCode": "20",
    "prefectureNumber": 20,
    "prefecture": "長野県",
    "city": "上田市",
    "town": "中之条"
  },
  "3860041": {
    "zipcode": "3860041",
    "prefectureCode": "20",
    "prefectureNumber": 20,
    "prefecture": "長野県",
    "city": "上田市",
    "town": "秋和"
  },
  "3860042": {
    "zipcode": "3860042",
    "prefectureCode": "20",
    "prefectureNumber": 20,
    "prefecture": "長野県",
    "city": "上田市",
    "town": "上塩尻"
  },
  "3860043": {
    "zipcode": "3860043",
    "prefectureCode": "20",
    "prefectureNumber": 20,
    "prefecture": "長野県",
    "city": "上田市",
    "town": "下塩尻"
  },
  "3860151": {
    "zipcode": "3860151",
    "prefectureCode": "20",
    "prefectureNumber": 20,
    "prefecture": "長野県",
    "city": "上田市",
    "town": "芳田"
  },
  "3860152": {
    "zipcode": "3860152",
    "prefectureCode": "20",
    "prefectureNumber": 20,
    "prefecture": "長野県",
    "city": "上田市",
    "town": "大屋"
  },
  "3860153": {
    "zipcode": "3860153",
    "prefectureCode": "20",
    "prefectureNumber": 20,
    "prefecture": "長野県",
    "city": "上田市",
    "town": "岩下"
  },
  "3860155": {
    "zipcode": "3860155",
    "prefectureCode": "20",
    "prefectureNumber": 20,
    "prefecture": "長野県",
    "city": "上田市",
    "town": "蒼久保"
  },
  "3860156": {
    "zipcode": "3860156",
    "prefectureCode": "20",
    "prefectureNumber": 20,
    "prefecture": "長野県",
    "city": "上田市",
    "town": "林之郷"
  },
  "3860321": {
    "zipcode": "3860321",
    "prefectureCode": "20",
    "prefectureNumber": 20,
    "prefecture": "長野県",
    "city": "上田市",
    "town": "平井"
  },
  "3860322": {
    "zipcode": "3860322",
    "prefectureCode": "20",
    "prefectureNumber": 20,
    "prefecture": "長野県",
    "city": "上田市",
    "town": "西内"
  },
  "3860323": {
    "zipcode": "3860323",
    "prefectureCode": "20",
    "prefectureNumber": 20,
    "prefecture": "長野県",
    "city": "上田市",
    "town": "鹿教湯温泉"
  },
  "3860401": {
    "zipcode": "3860401",
    "prefectureCode": "20",
    "prefectureNumber": 20,
    "prefecture": "長野県",
    "city": "上田市",
    "town": "塩川"
  },
  "3860402": {
    "zipcode": "3860402",
    "prefectureCode": "20",
    "prefectureNumber": 20,
    "prefecture": "長野県",
    "city": "上田市",
    "town": "藤原田"
  },
  "3860403": {
    "zipcode": "3860403",
    "prefectureCode": "20",
    "prefectureNumber": 20,
    "prefecture": "長野県",
    "city": "上田市",
    "town": "腰越"
  },
  "3860404": {
    "zipcode": "3860404",
    "prefectureCode": "20",
    "prefectureNumber": 20,
    "prefecture": "長野県",
    "city": "上田市",
    "town": "上丸子"
  },
  "3860405": {
    "zipcode": "3860405",
    "prefectureCode": "20",
    "prefectureNumber": 20,
    "prefecture": "長野県",
    "city": "上田市",
    "town": "中丸子"
  },
  "3860406": {
    "zipcode": "3860406",
    "prefectureCode": "20",
    "prefectureNumber": 20,
    "prefecture": "長野県",
    "city": "上田市",
    "town": "下丸子"
  },
  "3860407": {
    "zipcode": "3860407",
    "prefectureCode": "20",
    "prefectureNumber": 20,
    "prefecture": "長野県",
    "city": "上田市",
    "town": "長瀬"
  },
  "3860408": {
    "zipcode": "3860408",
    "prefectureCode": "20",
    "prefectureNumber": 20,
    "prefecture": "長野県",
    "city": "上田市",
    "town": "本海野"
  },
  "3860411": {
    "zipcode": "3860411",
    "prefectureCode": "20",
    "prefectureNumber": 20,
    "prefecture": "長野県",
    "city": "上田市",
    "town": "生田"
  },
  "3860412": {
    "zipcode": "3860412",
    "prefectureCode": "20",
    "prefectureNumber": 20,
    "prefecture": "長野県",
    "city": "上田市",
    "town": "御嶽堂"
  },
  "3860413": {
    "zipcode": "3860413",
    "prefectureCode": "20",
    "prefectureNumber": 20,
    "prefecture": "長野県",
    "city": "上田市",
    "town": "東内"
  },
  "3860501": {
    "zipcode": "3860501",
    "prefectureCode": "20",
    "prefectureNumber": 20,
    "prefecture": "長野県",
    "city": "上田市",
    "town": "武石鳥屋"
  },
  "3860502": {
    "zipcode": "3860502",
    "prefectureCode": "20",
    "prefectureNumber": 20,
    "prefecture": "長野県",
    "city": "上田市",
    "town": "武石沖"
  },
  "3860503": {
    "zipcode": "3860503",
    "prefectureCode": "20",
    "prefectureNumber": 20,
    "prefecture": "長野県",
    "city": "上田市",
    "town": "下武石"
  },
  "3860504": {
    "zipcode": "3860504",
    "prefectureCode": "20",
    "prefectureNumber": 20,
    "prefecture": "長野県",
    "city": "上田市",
    "town": "武石小沢根"
  },
  "3860505": {
    "zipcode": "3860505",
    "prefectureCode": "20",
    "prefectureNumber": 20,
    "prefecture": "長野県",
    "city": "上田市",
    "town": "武石余里"
  },
  "3860506": {
    "zipcode": "3860506",
    "prefectureCode": "20",
    "prefectureNumber": 20,
    "prefecture": "長野県",
    "city": "上田市",
    "town": "武石下本入"
  },
  "3860507": {
    "zipcode": "3860507",
    "prefectureCode": "20",
    "prefectureNumber": 20,
    "prefecture": "長野県",
    "city": "上田市",
    "town": "武石上本入"
  },
  "3860508": {
    "zipcode": "3860508",
    "prefectureCode": "20",
    "prefectureNumber": 20,
    "prefecture": "長野県",
    "city": "上田市",
    "town": "上武石"
  },
  "3860600": {
    "zipcode": "3860600",
    "prefectureCode": "20",
    "prefectureNumber": 20,
    "prefecture": "長野県",
    "city": "小県郡長和町",
    "town": "以下に掲載がない場合"
  },
  "3860601": {
    "zipcode": "3860601",
    "prefectureCode": "20",
    "prefectureNumber": 20,
    "prefecture": "長野県",
    "city": "小県郡長和町",
    "town": "大門"
  },
  "3860602": {
    "zipcode": "3860602",
    "prefectureCode": "20",
    "prefectureNumber": 20,
    "prefecture": "長野県",
    "city": "小県郡長和町",
    "town": "長久保"
  },
  "3860603": {
    "zipcode": "3860603",
    "prefectureCode": "20",
    "prefectureNumber": 20,
    "prefecture": "長野県",
    "city": "小県郡長和町",
    "town": "古町"
  },
  "3860701": {
    "zipcode": "3860701",
    "prefectureCode": "20",
    "prefectureNumber": 20,
    "prefecture": "長野県",
    "city": "小県郡長和町",
    "town": "和田"
  },
  "3861101": {
    "zipcode": "3861101",
    "prefectureCode": "20",
    "prefectureNumber": 20,
    "prefecture": "長野県",
    "city": "上田市",
    "town": "下之条"
  },
  "3861102": {
    "zipcode": "3861102",
    "prefectureCode": "20",
    "prefectureNumber": 20,
    "prefecture": "長野県",
    "city": "上田市",
    "town": "上田原"
  },
  "3861103": {
    "zipcode": "3861103",
    "prefectureCode": "20",
    "prefectureNumber": 20,
    "prefecture": "長野県",
    "city": "上田市",
    "town": "神畑"
  },
  "3861104": {
    "zipcode": "3861104",
    "prefectureCode": "20",
    "prefectureNumber": 20,
    "prefecture": "長野県",
    "city": "上田市",
    "town": "福田"
  },
  "3861105": {
    "zipcode": "3861105",
    "prefectureCode": "20",
    "prefectureNumber": 20,
    "prefecture": "長野県",
    "city": "上田市",
    "town": "吉田"
  },
  "3861106": {
    "zipcode": "3861106",
    "prefectureCode": "20",
    "prefectureNumber": 20,
    "prefecture": "長野県",
    "city": "上田市",
    "town": "小泉"
  },
  "3861107": {
    "zipcode": "3861107",
    "prefectureCode": "20",
    "prefectureNumber": 20,
    "prefecture": "長野県",
    "city": "上田市",
    "town": "築地"
  },
  "3861108": {
    "zipcode": "3861108",
    "prefectureCode": "20",
    "prefectureNumber": 20,
    "prefecture": "長野県",
    "city": "上田市",
    "town": "神畑乙"
  },
  "3861211": {
    "zipcode": "3861211",
    "prefectureCode": "20",
    "prefectureNumber": 20,
    "prefecture": "長野県",
    "city": "上田市",
    "town": "下之郷"
  },
  "3861212": {
    "zipcode": "3861212",
    "prefectureCode": "20",
    "prefectureNumber": 20,
    "prefecture": "長野県",
    "city": "上田市",
    "town": "富士山"
  },
  "3861213": {
    "zipcode": "3861213",
    "prefectureCode": "20",
    "prefectureNumber": 20,
    "prefecture": "長野県",
    "city": "上田市",
    "town": "古安曽"
  },
  "3861214": {
    "zipcode": "3861214",
    "prefectureCode": "20",
    "prefectureNumber": 20,
    "prefecture": "長野県",
    "city": "上田市",
    "town": "下之郷乙"
  },
  "3861321": {
    "zipcode": "3861321",
    "prefectureCode": "20",
    "prefectureNumber": 20,
    "prefecture": "長野県",
    "city": "上田市",
    "town": "保野"
  },
  "3861322": {
    "zipcode": "3861322",
    "prefectureCode": "20",
    "prefectureNumber": 20,
    "prefecture": "長野県",
    "city": "上田市",
    "town": "小島"
  },
  "3861323": {
    "zipcode": "3861323",
    "prefectureCode": "20",
    "prefectureNumber": 20,
    "prefecture": "長野県",
    "city": "上田市",
    "town": "本郷"
  },
  "3861324": {
    "zipcode": "3861324",
    "prefectureCode": "20",
    "prefectureNumber": 20,
    "prefecture": "長野県",
    "city": "上田市",
    "town": "五加"
  },
  "3861325": {
    "zipcode": "3861325",
    "prefectureCode": "20",
    "prefectureNumber": 20,
    "prefecture": "長野県",
    "city": "上田市",
    "town": "中野"
  },
  "3861326": {
    "zipcode": "3861326",
    "prefectureCode": "20",
    "prefectureNumber": 20,
    "prefecture": "長野県",
    "city": "上田市",
    "town": "舞田"
  },
  "3861327": {
    "zipcode": "3861327",
    "prefectureCode": "20",
    "prefectureNumber": 20,
    "prefecture": "長野県",
    "city": "上田市",
    "town": "八木沢"
  },
  "3861431": {
    "zipcode": "3861431",
    "prefectureCode": "20",
    "prefectureNumber": 20,
    "prefecture": "長野県",
    "city": "上田市",
    "town": "別所温泉"
  },
  "3861432": {
    "zipcode": "3861432",
    "prefectureCode": "20",
    "prefectureNumber": 20,
    "prefecture": "長野県",
    "city": "上田市",
    "town": "山田"
  },
  "3861433": {
    "zipcode": "3861433",
    "prefectureCode": "20",
    "prefectureNumber": 20,
    "prefecture": "長野県",
    "city": "上田市",
    "town": "手塚"
  },
  "3861434": {
    "zipcode": "3861434",
    "prefectureCode": "20",
    "prefectureNumber": 20,
    "prefecture": "長野県",
    "city": "上田市",
    "town": "新町"
  },
  "3861435": {
    "zipcode": "3861435",
    "prefectureCode": "20",
    "prefectureNumber": 20,
    "prefecture": "長野県",
    "city": "上田市",
    "town": "十人"
  },
  "3861436": {
    "zipcode": "3861436",
    "prefectureCode": "20",
    "prefectureNumber": 20,
    "prefecture": "長野県",
    "city": "上田市",
    "town": "前山"
  },
  "3861437": {
    "zipcode": "3861437",
    "prefectureCode": "20",
    "prefectureNumber": 20,
    "prefecture": "長野県",
    "city": "上田市",
    "town": "野倉"
  },
  "3861541": {
    "zipcode": "3861541",
    "prefectureCode": "20",
    "prefectureNumber": 20,
    "prefecture": "長野県",
    "city": "上田市",
    "town": "上室賀"
  },
  "3861542": {
    "zipcode": "3861542",
    "prefectureCode": "20",
    "prefectureNumber": 20,
    "prefecture": "長野県",
    "city": "上田市",
    "town": "下室賀"
  },
  "3861543": {
    "zipcode": "3861543",
    "prefectureCode": "20",
    "prefectureNumber": 20,
    "prefecture": "長野県",
    "city": "上田市",
    "town": "岡"
  },
  "3861544": {
    "zipcode": "3861544",
    "prefectureCode": "20",
    "prefectureNumber": 20,
    "prefecture": "長野県",
    "city": "上田市",
    "town": "仁古田"
  },
  "3861545": {
    "zipcode": "3861545",
    "prefectureCode": "20",
    "prefectureNumber": 20,
    "prefecture": "長野県",
    "city": "上田市",
    "town": "越戸"
  },
  "3861546": {
    "zipcode": "3861546",
    "prefectureCode": "20",
    "prefectureNumber": 20,
    "prefecture": "長野県",
    "city": "上田市",
    "town": "浦野"
  },
  "3861600": {
    "zipcode": "3861600",
    "prefectureCode": "20",
    "prefectureNumber": 20,
    "prefecture": "長野県",
    "city": "小県郡青木村",
    "town": "以下に掲載がない場合"
  },
  "3861601": {
    "zipcode": "3861601",
    "prefectureCode": "20",
    "prefectureNumber": 20,
    "prefecture": "長野県",
    "city": "小県郡青木村",
    "town": "田沢"
  },
  "3861602": {
    "zipcode": "3861602",
    "prefectureCode": "20",
    "prefectureNumber": 20,
    "prefecture": "長野県",
    "city": "小県郡青木村",
    "town": "村松"
  },
  "3861603": {
    "zipcode": "3861603",
    "prefectureCode": "20",
    "prefectureNumber": 20,
    "prefecture": "長野県",
    "city": "小県郡青木村",
    "town": "当郷"
  },
  "3861604": {
    "zipcode": "3861604",
    "prefectureCode": "20",
    "prefectureNumber": 20,
    "prefecture": "長野県",
    "city": "小県郡青木村",
    "town": "殿戸"
  },
  "3861605": {
    "zipcode": "3861605",
    "prefectureCode": "20",
    "prefectureNumber": 20,
    "prefecture": "長野県",
    "city": "小県郡青木村",
    "town": "夫神"
  },
  "3861606": {
    "zipcode": "3861606",
    "prefectureCode": "20",
    "prefectureNumber": 20,
    "prefecture": "長野県",
    "city": "小県郡青木村",
    "town": "沓掛"
  },
  "3861607": {
    "zipcode": "3861607",
    "prefectureCode": "20",
    "prefectureNumber": 20,
    "prefecture": "長野県",
    "city": "小県郡青木村",
    "town": "奈良本"
  },
  "3862201": {
    "zipcode": "3862201",
    "prefectureCode": "20",
    "prefectureNumber": 20,
    "prefecture": "長野県",
    "city": "上田市",
    "town": "真田町長"
  },
  "3862202": {
    "zipcode": "3862202",
    "prefectureCode": "20",
    "prefectureNumber": 20,
    "prefecture": "長野県",
    "city": "上田市",
    "town": "真田町本原"
  },
  "3862203": {
    "zipcode": "3862203",
    "prefectureCode": "20",
    "prefectureNumber": 20,
    "prefecture": "長野県",
    "city": "上田市",
    "town": "真田町傍陽"
  },
  "3862204": {
    "zipcode": "3862204",
    "prefectureCode": "20",
    "prefectureNumber": 20,
    "prefecture": "長野県",
    "city": "上田市",
    "town": "菅平高原"
  },
  "3862211": {
    "zipcode": "3862211",
    "prefectureCode": "20",
    "prefectureNumber": 20,
    "prefecture": "長野県",
    "city": "須坂市",
    "town": "仁礼（３１５３−１〜３１５３−１１００「峰の原高原」）"
  }
}
