{
  "3870000": {
    "zipcode": "3870000",
    "prefectureCode": "20",
    "prefectureNumber": 20,
    "prefecture": "長野県",
    "city": "千曲市",
    "town": "以下に掲載がない場合"
  },
  "3870001": {
    "zipcode": "3870001",
    "prefectureCode": "20",
    "prefectureNumber": 20,
    "prefecture": "長野県",
    "city": "千曲市",
    "town": "雨宮"
  },
  "3870002": {
    "zipcode": "3870002",
    "prefectureCode": "20",
    "prefectureNumber": 20,
    "prefecture": "長野県",
    "city": "千曲市",
    "town": "土口"
  },
  "3870003": {
    "zipcode": "3870003",
    "prefectureCode": "20",
    "prefectureNumber": 20,
    "prefecture": "長野県",
    "city": "千曲市",
    "town": "生萱"
  },
  "3870004": {
    "zipcode": "3870004",
    "prefectureCode": "20",
    "prefectureNumber": 20,
    "prefecture": "長野県",
    "city": "千曲市",
    "town": "倉科"
  },
  "3870005": {
    "zipcode": "3870005",
    "prefectureCode": "20",
    "prefectureNumber": 20,
    "prefecture": "長野県",
    "city": "千曲市",
    "town": "森"
  },
  "3870006": {
    "zipcode": "3870006",
    "prefectureCode": "20",
    "prefectureNumber": 20,
    "prefecture": "長野県",
    "city": "千曲市",
    "town": "粟佐"
  },
  "3870007": {
    "zipcode": "3870007",
    "prefectureCode": "20",
    "prefectureNumber": 20,
    "prefecture": "長野県",
    "city": "千曲市",
    "town": "屋代"
  },
  "3870011": {
    "zipcode": "3870011",
    "prefectureCode": "20",
    "prefectureNumber": 20,
    "prefecture": "長野県",
    "city": "千曲市",
    "town": "杭瀬下"
  },
  "3870012": {
    "zipcode": "3870012",
    "prefectureCode": "20",
    "prefectureNumber": 20,
    "prefecture": "長野県",
    "city": "千曲市",
    "town": "桜堂"
  },
  "3870013": {
    "zipcode": "3870013",
    "prefectureCode": "20",
    "prefectureNumber": 20,
    "prefecture": "長野県",
    "city": "千曲市",
    "town": "小島"
  },
  "3870014": {
    "zipcode": "3870014",
    "prefectureCode": "20",
    "prefectureNumber": 20,
    "prefecture": "長野県",
    "city": "千曲市",
    "town": "打沢"
  },
  "3870015": {
    "zipcode": "3870015",
    "prefectureCode": "20",
    "prefectureNumber": 20,
    "prefecture": "長野県",
    "city": "千曲市",
    "town": "鋳物師屋"
  },
  "3870016": {
    "zipcode": "3870016",
    "prefectureCode": "20",
    "prefectureNumber": 20,
    "prefecture": "長野県",
    "city": "千曲市",
    "town": "寂蒔"
  },
  "3870017": {
    "zipcode": "3870017",
    "prefectureCode": "20",
    "prefectureNumber": 20,
    "prefecture": "長野県",
    "city": "千曲市",
    "town": "中"
  },
  "3870018": {
    "zipcode": "3870018",
    "prefectureCode": "20",
    "prefectureNumber": 20,
    "prefecture": "長野県",
    "city": "千曲市",
    "town": "新田"
  },
  "3870021": {
    "zipcode": "3870021",
    "prefectureCode": "20",
    "prefectureNumber": 20,
    "prefecture": "長野県",
    "city": "千曲市",
    "town": "稲荷山"
  },
  "3870022": {
    "zipcode": "3870022",
    "prefectureCode": "20",
    "prefectureNumber": 20,
    "prefecture": "長野県",
    "city": "千曲市",
    "town": "野高場"
  },
  "3870023": {
    "zipcode": "3870023",
    "prefectureCode": "20",
    "prefectureNumber": 20,
    "prefecture": "長野県",
    "city": "千曲市",
    "town": "八幡"
  },
  "3870024": {
    "zipcode": "3870024",
    "prefectureCode": "20",
    "prefectureNumber": 20,
    "prefecture": "長野県",
    "city": "千曲市",
    "town": "桑原"
  }
}
