{
  "3888001": {
    "zipcode": "3888001",
    "prefectureCode": "20",
    "prefectureNumber": 20,
    "prefecture": "長野県",
    "city": "長野市",
    "town": "東犀南"
  },
  "3888002": {
    "zipcode": "3888002",
    "prefectureCode": "20",
    "prefectureNumber": 20,
    "prefecture": "長野県",
    "city": "長野市",
    "town": "篠ノ井東福寺"
  },
  "3888003": {
    "zipcode": "3888003",
    "prefectureCode": "20",
    "prefectureNumber": 20,
    "prefecture": "長野県",
    "city": "長野市",
    "town": "篠ノ井小森"
  },
  "3888004": {
    "zipcode": "3888004",
    "prefectureCode": "20",
    "prefectureNumber": 20,
    "prefecture": "長野県",
    "city": "長野市",
    "town": "篠ノ井会"
  },
  "3888005": {
    "zipcode": "3888005",
    "prefectureCode": "20",
    "prefectureNumber": 20,
    "prefecture": "長野県",
    "city": "長野市",
    "town": "篠ノ井横田"
  },
  "3888006": {
    "zipcode": "3888006",
    "prefectureCode": "20",
    "prefectureNumber": 20,
    "prefecture": "長野県",
    "city": "長野市",
    "town": "篠ノ井御幣川"
  },
  "3888007": {
    "zipcode": "3888007",
    "prefectureCode": "20",
    "prefectureNumber": 20,
    "prefecture": "長野県",
    "city": "長野市",
    "town": "篠ノ井布施高田"
  },
  "3888008": {
    "zipcode": "3888008",
    "prefectureCode": "20",
    "prefectureNumber": 20,
    "prefecture": "長野県",
    "city": "長野市",
    "town": "合戦場"
  },
  "3888011": {
    "zipcode": "3888011",
    "prefectureCode": "20",
    "prefectureNumber": 20,
    "prefecture": "長野県",
    "city": "長野市",
    "town": "篠ノ井布施五明"
  },
  "3888012": {
    "zipcode": "3888012",
    "prefectureCode": "20",
    "prefectureNumber": 20,
    "prefecture": "長野県",
    "city": "長野市",
    "town": "篠ノ井二ツ柳"
  },
  "3888013": {
    "zipcode": "3888013",
    "prefectureCode": "20",
    "prefectureNumber": 20,
    "prefecture": "長野県",
    "city": "長野市",
    "town": "みこと川"
  },
  "3888014": {
    "zipcode": "3888014",
    "prefectureCode": "20",
    "prefectureNumber": 20,
    "prefecture": "長野県",
    "city": "長野市",
    "town": "篠ノ井塩崎"
  },
  "3888015": {
    "zipcode": "3888015",
    "prefectureCode": "20",
    "prefectureNumber": 20,
    "prefecture": "長野県",
    "city": "長野市",
    "town": "篠ノ井石川"
  },
  "3888016": {
    "zipcode": "3888016",
    "prefectureCode": "20",
    "prefectureNumber": 20,
    "prefecture": "長野県",
    "city": "長野市",
    "town": "篠ノ井有旅"
  },
  "3888017": {
    "zipcode": "3888017",
    "prefectureCode": "20",
    "prefectureNumber": 20,
    "prefecture": "長野県",
    "city": "長野市",
    "town": "篠ノ井山布施"
  },
  "3888018": {
    "zipcode": "3888018",
    "prefectureCode": "20",
    "prefectureNumber": 20,
    "prefecture": "長野県",
    "city": "長野市",
    "town": "篠ノ井西寺尾"
  },
  "3888019": {
    "zipcode": "3888019",
    "prefectureCode": "20",
    "prefectureNumber": 20,
    "prefecture": "長野県",
    "city": "長野市",
    "town": "篠ノ井杵淵"
  },
  "3888020": {
    "zipcode": "3888020",
    "prefectureCode": "20",
    "prefectureNumber": 20,
    "prefecture": "長野県",
    "city": "長野市",
    "town": "神明"
  }
}
