{
  "3910000": {
    "zipcode": "3910000",
    "prefectureCode": "20",
    "prefectureNumber": 20,
    "prefecture": "長野県",
    "city": "茅野市",
    "town": "以下に掲載がない場合"
  },
  "3910001": {
    "zipcode": "3910001",
    "prefectureCode": "20",
    "prefectureNumber": 20,
    "prefecture": "長野県",
    "city": "茅野市",
    "town": "ちの"
  },
  "3910002": {
    "zipcode": "3910002",
    "prefectureCode": "20",
    "prefectureNumber": 20,
    "prefecture": "長野県",
    "city": "茅野市",
    "town": "塚原"
  },
  "3910003": {
    "zipcode": "3910003",
    "prefectureCode": "20",
    "prefectureNumber": 20,
    "prefecture": "長野県",
    "city": "茅野市",
    "town": "本町"
  },
  "3910004": {
    "zipcode": "3910004",
    "prefectureCode": "20",
    "prefectureNumber": 20,
    "prefecture": "長野県",
    "city": "茅野市",
    "town": "城山"
  },
  "3910005": {
    "zipcode": "3910005",
    "prefectureCode": "20",
    "prefectureNumber": 20,
    "prefecture": "長野県",
    "city": "茅野市",
    "town": "仲町"
  },
  "3910011": {
    "zipcode": "3910011",
    "prefectureCode": "20",
    "prefectureNumber": 20,
    "prefecture": "長野県",
    "city": "茅野市",
    "town": "玉川"
  },
  "3910012": {
    "zipcode": "3910012",
    "prefectureCode": "20",
    "prefectureNumber": 20,
    "prefecture": "長野県",
    "city": "茅野市",
    "town": "金沢"
  },
  "3910013": {
    "zipcode": "3910013",
    "prefectureCode": "20",
    "prefectureNumber": 20,
    "prefecture": "長野県",
    "city": "茅野市",
    "town": "宮川"
  },
  "3910021": {
    "zipcode": "3910021",
    "prefectureCode": "20",
    "prefectureNumber": 20,
    "prefecture": "長野県",
    "city": "諏訪郡富士見町",
    "town": "富士見（入笠湖）"
  },
  "3910100": {
    "zipcode": "3910100",
    "prefectureCode": "20",
    "prefectureNumber": 20,
    "prefecture": "長野県",
    "city": "諏訪郡原村",
    "town": "以下に掲載がない場合"
  },
  "3910101": {
    "zipcode": "3910101",
    "prefectureCode": "20",
    "prefectureNumber": 20,
    "prefecture": "長野県",
    "city": "諏訪郡原村",
    "town": "大久保"
  },
  "3910102": {
    "zipcode": "3910102",
    "prefectureCode": "20",
    "prefectureNumber": 20,
    "prefecture": "長野県",
    "city": "諏訪郡原村",
    "town": "柳沢"
  },
  "3910103": {
    "zipcode": "3910103",
    "prefectureCode": "20",
    "prefectureNumber": 20,
    "prefecture": "長野県",
    "city": "諏訪郡原村",
    "town": "八ツ手"
  },
  "3910104": {
    "zipcode": "3910104",
    "prefectureCode": "20",
    "prefectureNumber": 20,
    "prefecture": "長野県",
    "city": "諏訪郡原村",
    "town": "払沢"
  },
  "3910105": {
    "zipcode": "3910105",
    "prefectureCode": "20",
    "prefectureNumber": 20,
    "prefecture": "長野県",
    "city": "諏訪郡原村",
    "town": "柏木"
  },
  "3910106": {
    "zipcode": "3910106",
    "prefectureCode": "20",
    "prefectureNumber": 20,
    "prefecture": "長野県",
    "city": "諏訪郡原村",
    "town": "菖蒲沢"
  },
  "3910107": {
    "zipcode": "3910107",
    "prefectureCode": "20",
    "prefectureNumber": 20,
    "prefecture": "長野県",
    "city": "諏訪郡原村",
    "town": "室内"
  },
  "3910108": {
    "zipcode": "3910108",
    "prefectureCode": "20",
    "prefectureNumber": 20,
    "prefecture": "長野県",
    "city": "諏訪郡原村",
    "town": "中新田"
  },
  "3910109": {
    "zipcode": "3910109",
    "prefectureCode": "20",
    "prefectureNumber": 20,
    "prefecture": "長野県",
    "city": "諏訪郡原村",
    "town": "南原"
  },
  "3910111": {
    "zipcode": "3910111",
    "prefectureCode": "20",
    "prefectureNumber": 20,
    "prefecture": "長野県",
    "city": "諏訪郡原村",
    "town": "上里"
  },
  "3910112": {
    "zipcode": "3910112",
    "prefectureCode": "20",
    "prefectureNumber": 20,
    "prefecture": "長野県",
    "city": "諏訪郡原村",
    "town": "農場"
  },
  "3910113": {
    "zipcode": "3910113",
    "prefectureCode": "20",
    "prefectureNumber": 20,
    "prefecture": "長野県",
    "city": "諏訪郡原村",
    "town": "やつがね"
  },
  "3910114": {
    "zipcode": "3910114",
    "prefectureCode": "20",
    "prefectureNumber": 20,
    "prefecture": "長野県",
    "city": "諏訪郡原村",
    "town": "ペンション"
  },
  "3910115": {
    "zipcode": "3910115",
    "prefectureCode": "20",
    "prefectureNumber": 20,
    "prefecture": "長野県",
    "city": "諏訪郡原村",
    "town": "原山"
  },
  "3910116": {
    "zipcode": "3910116",
    "prefectureCode": "20",
    "prefectureNumber": 20,
    "prefecture": "長野県",
    "city": "諏訪郡原村",
    "town": "判の木"
  },
  "3910211": {
    "zipcode": "3910211",
    "prefectureCode": "20",
    "prefectureNumber": 20,
    "prefecture": "長野県",
    "city": "茅野市",
    "town": "湖東"
  },
  "3910212": {
    "zipcode": "3910212",
    "prefectureCode": "20",
    "prefectureNumber": 20,
    "prefecture": "長野県",
    "city": "茅野市",
    "town": "北山（渋御殿湯・渋の湯）"
  },
  "3910213": {
    "zipcode": "3910213",
    "prefectureCode": "20",
    "prefectureNumber": 20,
    "prefecture": "長野県",
    "city": "茅野市",
    "town": "豊平"
  },
  "3910214": {
    "zipcode": "3910214",
    "prefectureCode": "20",
    "prefectureNumber": 20,
    "prefecture": "長野県",
    "city": "茅野市",
    "town": "泉野"
  },
  "3910215": {
    "zipcode": "3910215",
    "prefectureCode": "20",
    "prefectureNumber": 20,
    "prefecture": "長野県",
    "city": "茅野市",
    "town": "中大塩"
  },
  "3910216": {
    "zipcode": "3910216",
    "prefectureCode": "20",
    "prefectureNumber": 20,
    "prefecture": "長野県",
    "city": "茅野市",
    "town": "米沢"
  },
  "3910301": {
    "zipcode": "3910301",
    "prefectureCode": "20",
    "prefectureNumber": 20,
    "prefecture": "長野県",
    "city": "茅野市",
    "town": "北山（その他）"
  },
  "3910321": {
    "zipcode": "3910321",
    "prefectureCode": "20",
    "prefectureNumber": 20,
    "prefecture": "長野県",
    "city": "北佐久郡立科町",
    "town": "池の平"
  }
}
