{
  "3920000": {
    "zipcode": "3920000",
    "prefectureCode": "20",
    "prefectureNumber": 20,
    "prefecture": "長野県",
    "city": "諏訪市",
    "town": "以下に掲載がない場合"
  },
  "3920001": {
    "zipcode": "3920001",
    "prefectureCode": "20",
    "prefectureNumber": 20,
    "prefecture": "長野県",
    "city": "諏訪市",
    "town": "大和"
  },
  "3920002": {
    "zipcode": "3920002",
    "prefectureCode": "20",
    "prefectureNumber": 20,
    "prefecture": "長野県",
    "city": "諏訪市",
    "town": "湯の脇"
  },
  "3920003": {
    "zipcode": "3920003",
    "prefectureCode": "20",
    "prefectureNumber": 20,
    "prefecture": "長野県",
    "city": "諏訪市",
    "town": "上諏訪"
  },
  "3920004": {
    "zipcode": "3920004",
    "prefectureCode": "20",
    "prefectureNumber": 20,
    "prefecture": "長野県",
    "city": "諏訪市",
    "town": "諏訪"
  },
  "3920005": {
    "zipcode": "3920005",
    "prefectureCode": "20",
    "prefectureNumber": 20,
    "prefecture": "長野県",
    "city": "諏訪市",
    "town": "岡村"
  },
  "3920006": {
    "zipcode": "3920006",
    "prefectureCode": "20",
    "prefectureNumber": 20,
    "prefecture": "長野県",
    "city": "諏訪市",
    "town": "元町"
  },
  "3920007": {
    "zipcode": "3920007",
    "prefectureCode": "20",
    "prefectureNumber": 20,
    "prefecture": "長野県",
    "city": "諏訪市",
    "town": "清水"
  },
  "3920008": {
    "zipcode": "3920008",
    "prefectureCode": "20",
    "prefectureNumber": 20,
    "prefecture": "長野県",
    "city": "諏訪市",
    "town": "霧ケ峰"
  },
  "3920009": {
    "zipcode": "3920009",
    "prefectureCode": "20",
    "prefectureNumber": 20,
    "prefecture": "長野県",
    "city": "諏訪市",
    "town": "杉菜池"
  },
  "3920010": {
    "zipcode": "3920010",
    "prefectureCode": "20",
    "prefectureNumber": 20,
    "prefecture": "長野県",
    "city": "諏訪市",
    "town": "渋崎"
  },
  "3920011": {
    "zipcode": "3920011",
    "prefectureCode": "20",
    "prefectureNumber": 20,
    "prefecture": "長野県",
    "city": "諏訪市",
    "town": "赤羽根"
  },
  "3920012": {
    "zipcode": "3920012",
    "prefectureCode": "20",
    "prefectureNumber": 20,
    "prefecture": "長野県",
    "city": "諏訪市",
    "town": "四賀"
  },
  "3920013": {
    "zipcode": "3920013",
    "prefectureCode": "20",
    "prefectureNumber": 20,
    "prefecture": "長野県",
    "city": "諏訪市",
    "town": "沖田町"
  },
  "3920014": {
    "zipcode": "3920014",
    "prefectureCode": "20",
    "prefectureNumber": 20,
    "prefecture": "長野県",
    "city": "諏訪市",
    "town": "南町"
  },
  "3920015": {
    "zipcode": "3920015",
    "prefectureCode": "20",
    "prefectureNumber": 20,
    "prefecture": "長野県",
    "city": "諏訪市",
    "town": "中洲"
  },
  "3920016": {
    "zipcode": "3920016",
    "prefectureCode": "20",
    "prefectureNumber": 20,
    "prefecture": "長野県",
    "city": "諏訪市",
    "town": "豊田"
  },
  "3920017": {
    "zipcode": "3920017",
    "prefectureCode": "20",
    "prefectureNumber": 20,
    "prefecture": "長野県",
    "city": "諏訪市",
    "town": "城南"
  },
  "3920021": {
    "zipcode": "3920021",
    "prefectureCode": "20",
    "prefectureNumber": 20,
    "prefecture": "長野県",
    "city": "諏訪市",
    "town": "上川"
  },
  "3920022": {
    "zipcode": "3920022",
    "prefectureCode": "20",
    "prefectureNumber": 20,
    "prefecture": "長野県",
    "city": "諏訪市",
    "town": "高島"
  },
  "3920023": {
    "zipcode": "3920023",
    "prefectureCode": "20",
    "prefectureNumber": 20,
    "prefecture": "長野県",
    "city": "諏訪市",
    "town": "小和田南"
  },
  "3920024": {
    "zipcode": "3920024",
    "prefectureCode": "20",
    "prefectureNumber": 20,
    "prefecture": "長野県",
    "city": "諏訪市",
    "town": "小和田"
  },
  "3920025": {
    "zipcode": "3920025",
    "prefectureCode": "20",
    "prefectureNumber": 20,
    "prefecture": "長野県",
    "city": "諏訪市",
    "town": "末広"
  },
  "3920026": {
    "zipcode": "3920026",
    "prefectureCode": "20",
    "prefectureNumber": 20,
    "prefecture": "長野県",
    "city": "諏訪市",
    "town": "大手"
  },
  "3920027": {
    "zipcode": "3920027",
    "prefectureCode": "20",
    "prefectureNumber": 20,
    "prefecture": "長野県",
    "city": "諏訪市",
    "town": "湖岸通り"
  },
  "3920131": {
    "zipcode": "3920131",
    "prefectureCode": "20",
    "prefectureNumber": 20,
    "prefecture": "長野県",
    "city": "諏訪市",
    "town": "湖南"
  }
}
