{
  "3930000": {
    "zipcode": "3930000",
    "prefectureCode": "20",
    "prefectureNumber": 20,
    "prefecture": "長野県",
    "city": "諏訪郡下諏訪町",
    "town": "以下に掲載がない場合"
  },
  "3930001": {
    "zipcode": "3930001",
    "prefectureCode": "20",
    "prefectureNumber": 20,
    "prefecture": "長野県",
    "city": "諏訪郡下諏訪町",
    "town": "樋橋"
  },
  "3930002": {
    "zipcode": "3930002",
    "prefectureCode": "20",
    "prefectureNumber": 20,
    "prefecture": "長野県",
    "city": "諏訪郡下諏訪町",
    "town": "東俣"
  },
  "3930003": {
    "zipcode": "3930003",
    "prefectureCode": "20",
    "prefectureNumber": 20,
    "prefecture": "長野県",
    "city": "諏訪郡下諏訪町",
    "town": "萩倉"
  },
  "3930004": {
    "zipcode": "3930004",
    "prefectureCode": "20",
    "prefectureNumber": 20,
    "prefecture": "長野県",
    "city": "諏訪郡下諏訪町",
    "town": "東町下"
  },
  "3930005": {
    "zipcode": "3930005",
    "prefectureCode": "20",
    "prefectureNumber": 20,
    "prefecture": "長野県",
    "city": "諏訪郡下諏訪町",
    "town": "東町中"
  },
  "3930006": {
    "zipcode": "3930006",
    "prefectureCode": "20",
    "prefectureNumber": 20,
    "prefecture": "長野県",
    "city": "諏訪郡下諏訪町",
    "town": "東町上"
  },
  "3930007": {
    "zipcode": "3930007",
    "prefectureCode": "20",
    "prefectureNumber": 20,
    "prefecture": "長野県",
    "city": "諏訪郡下諏訪町",
    "town": "下屋敷"
  },
  "3930008": {
    "zipcode": "3930008",
    "prefectureCode": "20",
    "prefectureNumber": 20,
    "prefecture": "長野県",
    "city": "諏訪郡下諏訪町",
    "town": "町屋敷"
  },
  "3930011": {
    "zipcode": "3930011",
    "prefectureCode": "20",
    "prefectureNumber": 20,
    "prefecture": "長野県",
    "city": "諏訪郡下諏訪町",
    "town": "新町上"
  },
  "3930012": {
    "zipcode": "3930012",
    "prefectureCode": "20",
    "prefectureNumber": 20,
    "prefecture": "長野県",
    "city": "諏訪郡下諏訪町",
    "town": "横町"
  },
  "3930013": {
    "zipcode": "3930013",
    "prefectureCode": "20",
    "prefectureNumber": 20,
    "prefecture": "長野県",
    "city": "諏訪郡下諏訪町",
    "town": "小湯の上"
  },
  "3930014": {
    "zipcode": "3930014",
    "prefectureCode": "20",
    "prefectureNumber": 20,
    "prefecture": "長野県",
    "city": "諏訪郡下諏訪町",
    "town": "木の下"
  },
  "3930015": {
    "zipcode": "3930015",
    "prefectureCode": "20",
    "prefectureNumber": 20,
    "prefecture": "長野県",
    "city": "諏訪郡下諏訪町",
    "town": "立町"
  },
  "3930016": {
    "zipcode": "3930016",
    "prefectureCode": "20",
    "prefectureNumber": 20,
    "prefecture": "長野県",
    "city": "諏訪郡下諏訪町",
    "town": "湯田町"
  },
  "3930017": {
    "zipcode": "3930017",
    "prefectureCode": "20",
    "prefectureNumber": 20,
    "prefecture": "長野県",
    "city": "諏訪郡下諏訪町",
    "town": "湯田仲町"
  },
  "3930018": {
    "zipcode": "3930018",
    "prefectureCode": "20",
    "prefectureNumber": 20,
    "prefecture": "長野県",
    "city": "諏訪郡下諏訪町",
    "town": "新町下"
  },
  "3930019": {
    "zipcode": "3930019",
    "prefectureCode": "20",
    "prefectureNumber": 20,
    "prefecture": "長野県",
    "city": "諏訪郡下諏訪町",
    "town": "横町木の下"
  },
  "3930021": {
    "zipcode": "3930021",
    "prefectureCode": "20",
    "prefectureNumber": 20,
    "prefecture": "長野県",
    "city": "諏訪郡下諏訪町",
    "town": "武居"
  },
  "3930022": {
    "zipcode": "3930022",
    "prefectureCode": "20",
    "prefectureNumber": 20,
    "prefecture": "長野県",
    "city": "諏訪郡下諏訪町",
    "town": "関屋"
  },
  "3930023": {
    "zipcode": "3930023",
    "prefectureCode": "20",
    "prefectureNumber": 20,
    "prefecture": "長野県",
    "city": "諏訪郡下諏訪町",
    "town": "富ケ丘"
  },
  "3930024": {
    "zipcode": "3930024",
    "prefectureCode": "20",
    "prefectureNumber": 20,
    "prefecture": "長野県",
    "city": "諏訪郡下諏訪町",
    "town": "五官"
  },
  "3930025": {
    "zipcode": "3930025",
    "prefectureCode": "20",
    "prefectureNumber": 20,
    "prefecture": "長野県",
    "city": "諏訪郡下諏訪町",
    "town": "本郷"
  },
  "3930026": {
    "zipcode": "3930026",
    "prefectureCode": "20",
    "prefectureNumber": 20,
    "prefecture": "長野県",
    "city": "諏訪郡下諏訪町",
    "town": "久保海道"
  },
  "3930031": {
    "zipcode": "3930031",
    "prefectureCode": "20",
    "prefectureNumber": 20,
    "prefecture": "長野県",
    "city": "諏訪郡下諏訪町",
    "town": "東豊"
  },
  "3930032": {
    "zipcode": "3930032",
    "prefectureCode": "20",
    "prefectureNumber": 20,
    "prefecture": "長野県",
    "city": "諏訪郡下諏訪町",
    "town": "西浜"
  },
  "3930033": {
    "zipcode": "3930033",
    "prefectureCode": "20",
    "prefectureNumber": 20,
    "prefecture": "長野県",
    "city": "諏訪郡下諏訪町",
    "town": "高木"
  },
  "3930034": {
    "zipcode": "3930034",
    "prefectureCode": "20",
    "prefectureNumber": 20,
    "prefecture": "長野県",
    "city": "諏訪郡下諏訪町",
    "town": "高浜"
  },
  "3930035": {
    "zipcode": "3930035",
    "prefectureCode": "20",
    "prefectureNumber": 20,
    "prefecture": "長野県",
    "city": "諏訪郡下諏訪町",
    "town": "西豊"
  },
  "3930041": {
    "zipcode": "3930041",
    "prefectureCode": "20",
    "prefectureNumber": 20,
    "prefecture": "長野県",
    "city": "諏訪郡下諏訪町",
    "town": "西四王"
  },
  "3930042": {
    "zipcode": "3930042",
    "prefectureCode": "20",
    "prefectureNumber": 20,
    "prefecture": "長野県",
    "city": "諏訪郡下諏訪町",
    "town": "北四王"
  },
  "3930043": {
    "zipcode": "3930043",
    "prefectureCode": "20",
    "prefectureNumber": 20,
    "prefecture": "長野県",
    "city": "諏訪郡下諏訪町",
    "town": "東四王"
  },
  "3930044": {
    "zipcode": "3930044",
    "prefectureCode": "20",
    "prefectureNumber": 20,
    "prefecture": "長野県",
    "city": "諏訪郡下諏訪町",
    "town": "湖畔町"
  },
  "3930045": {
    "zipcode": "3930045",
    "prefectureCode": "20",
    "prefectureNumber": 20,
    "prefecture": "長野県",
    "city": "諏訪郡下諏訪町",
    "town": "南四王"
  },
  "3930046": {
    "zipcode": "3930046",
    "prefectureCode": "20",
    "prefectureNumber": 20,
    "prefecture": "長野県",
    "city": "諏訪郡下諏訪町",
    "town": "東赤砂"
  },
  "3930047": {
    "zipcode": "3930047",
    "prefectureCode": "20",
    "prefectureNumber": 20,
    "prefecture": "長野県",
    "city": "諏訪郡下諏訪町",
    "town": "西赤砂"
  },
  "3930051": {
    "zipcode": "3930051",
    "prefectureCode": "20",
    "prefectureNumber": 20,
    "prefecture": "長野県",
    "city": "諏訪郡下諏訪町",
    "town": "大社通"
  },
  "3930052": {
    "zipcode": "3930052",
    "prefectureCode": "20",
    "prefectureNumber": 20,
    "prefecture": "長野県",
    "city": "諏訪郡下諏訪町",
    "town": "上久保"
  },
  "3930053": {
    "zipcode": "3930053",
    "prefectureCode": "20",
    "prefectureNumber": 20,
    "prefecture": "長野県",
    "city": "諏訪郡下諏訪町",
    "town": "上馬場"
  },
  "3930054": {
    "zipcode": "3930054",
    "prefectureCode": "20",
    "prefectureNumber": 20,
    "prefecture": "長野県",
    "city": "諏訪郡下諏訪町",
    "town": "菅野町"
  },
  "3930055": {
    "zipcode": "3930055",
    "prefectureCode": "20",
    "prefectureNumber": 20,
    "prefecture": "長野県",
    "city": "諏訪郡下諏訪町",
    "town": "富士見町"
  },
  "3930056": {
    "zipcode": "3930056",
    "prefectureCode": "20",
    "prefectureNumber": 20,
    "prefecture": "長野県",
    "city": "諏訪郡下諏訪町",
    "town": "広瀬町"
  },
  "3930057": {
    "zipcode": "3930057",
    "prefectureCode": "20",
    "prefectureNumber": 20,
    "prefecture": "長野県",
    "city": "諏訪郡下諏訪町",
    "town": "友之町"
  },
  "3930061": {
    "zipcode": "3930061",
    "prefectureCode": "20",
    "prefectureNumber": 20,
    "prefecture": "長野県",
    "city": "諏訪郡下諏訪町",
    "town": "御田町"
  },
  "3930062": {
    "zipcode": "3930062",
    "prefectureCode": "20",
    "prefectureNumber": 20,
    "prefecture": "長野県",
    "city": "諏訪郡下諏訪町",
    "town": "平沢町"
  },
  "3930063": {
    "zipcode": "3930063",
    "prefectureCode": "20",
    "prefectureNumber": 20,
    "prefecture": "長野県",
    "city": "諏訪郡下諏訪町",
    "town": "花咲町"
  },
  "3930064": {
    "zipcode": "3930064",
    "prefectureCode": "20",
    "prefectureNumber": 20,
    "prefecture": "長野県",
    "city": "諏訪郡下諏訪町",
    "town": "中汐町"
  },
  "3930065": {
    "zipcode": "3930065",
    "prefectureCode": "20",
    "prefectureNumber": 20,
    "prefecture": "長野県",
    "city": "諏訪郡下諏訪町",
    "town": "魁町"
  },
  "3930066": {
    "zipcode": "3930066",
    "prefectureCode": "20",
    "prefectureNumber": 20,
    "prefecture": "長野県",
    "city": "諏訪郡下諏訪町",
    "town": "曙町"
  },
  "3930067": {
    "zipcode": "3930067",
    "prefectureCode": "20",
    "prefectureNumber": 20,
    "prefecture": "長野県",
    "city": "諏訪郡下諏訪町",
    "town": "矢木東"
  },
  "3930068": {
    "zipcode": "3930068",
    "prefectureCode": "20",
    "prefectureNumber": 20,
    "prefecture": "長野県",
    "city": "諏訪郡下諏訪町",
    "town": "春日町"
  },
  "3930071": {
    "zipcode": "3930071",
    "prefectureCode": "20",
    "prefectureNumber": 20,
    "prefecture": "長野県",
    "city": "諏訪郡下諏訪町",
    "town": "仲町"
  },
  "3930072": {
    "zipcode": "3930072",
    "prefectureCode": "20",
    "prefectureNumber": 20,
    "prefecture": "長野県",
    "city": "諏訪郡下諏訪町",
    "town": "桜町"
  },
  "3930073": {
    "zipcode": "3930073",
    "prefectureCode": "20",
    "prefectureNumber": 20,
    "prefecture": "長野県",
    "city": "諏訪郡下諏訪町",
    "town": "塚田町"
  },
  "3930074": {
    "zipcode": "3930074",
    "prefectureCode": "20",
    "prefectureNumber": 20,
    "prefecture": "長野県",
    "city": "諏訪郡下諏訪町",
    "town": "緑町"
  },
  "3930075": {
    "zipcode": "3930075",
    "prefectureCode": "20",
    "prefectureNumber": 20,
    "prefecture": "長野県",
    "city": "諏訪郡下諏訪町",
    "town": "中央通"
  },
  "3930076": {
    "zipcode": "3930076",
    "prefectureCode": "20",
    "prefectureNumber": 20,
    "prefecture": "長野県",
    "city": "諏訪郡下諏訪町",
    "town": "矢木西"
  },
  "3930077": {
    "zipcode": "3930077",
    "prefectureCode": "20",
    "prefectureNumber": 20,
    "prefecture": "長野県",
    "city": "諏訪郡下諏訪町",
    "town": "矢木町"
  },
  "3930078": {
    "zipcode": "3930078",
    "prefectureCode": "20",
    "prefectureNumber": 20,
    "prefecture": "長野県",
    "city": "諏訪郡下諏訪町",
    "town": "田中町"
  },
  "3930081": {
    "zipcode": "3930081",
    "prefectureCode": "20",
    "prefectureNumber": 20,
    "prefecture": "長野県",
    "city": "諏訪郡下諏訪町",
    "town": "社東町"
  },
  "3930082": {
    "zipcode": "3930082",
    "prefectureCode": "20",
    "prefectureNumber": 20,
    "prefecture": "長野県",
    "city": "諏訪郡下諏訪町",
    "town": "西弥生町"
  },
  "3930083": {
    "zipcode": "3930083",
    "prefectureCode": "20",
    "prefectureNumber": 20,
    "prefecture": "長野県",
    "city": "諏訪郡下諏訪町",
    "town": "東弥生町"
  },
  "3930084": {
    "zipcode": "3930084",
    "prefectureCode": "20",
    "prefectureNumber": 20,
    "prefecture": "長野県",
    "city": "諏訪郡下諏訪町",
    "town": "栄町"
  },
  "3930085": {
    "zipcode": "3930085",
    "prefectureCode": "20",
    "prefectureNumber": 20,
    "prefecture": "長野県",
    "city": "諏訪郡下諏訪町",
    "town": "東鷹野町"
  },
  "3930086": {
    "zipcode": "3930086",
    "prefectureCode": "20",
    "prefectureNumber": 20,
    "prefecture": "長野県",
    "city": "諏訪郡下諏訪町",
    "town": "清水町"
  },
  "3930087": {
    "zipcode": "3930087",
    "prefectureCode": "20",
    "prefectureNumber": 20,
    "prefecture": "長野県",
    "city": "諏訪郡下諏訪町",
    "town": "西鷹野町"
  },
  "3930091": {
    "zipcode": "3930091",
    "prefectureCode": "20",
    "prefectureNumber": 20,
    "prefecture": "長野県",
    "city": "諏訪郡下諏訪町",
    "town": "星が丘"
  },
  "3930092": {
    "zipcode": "3930092",
    "prefectureCode": "20",
    "prefectureNumber": 20,
    "prefecture": "長野県",
    "city": "諏訪郡下諏訪町",
    "town": "大門"
  },
  "3930093": {
    "zipcode": "3930093",
    "prefectureCode": "20",
    "prefectureNumber": 20,
    "prefecture": "長野県",
    "city": "諏訪郡下諏訪町",
    "town": "東山田"
  }
}
