{
  "3940000": {
    "zipcode": "3940000",
    "prefectureCode": "20",
    "prefectureNumber": 20,
    "prefecture": "長野県",
    "city": "岡谷市",
    "town": "以下に掲載がない場合"
  },
  "3940001": {
    "zipcode": "3940001",
    "prefectureCode": "20",
    "prefectureNumber": 20,
    "prefecture": "長野県",
    "city": "岡谷市",
    "town": "今井"
  },
  "3940002": {
    "zipcode": "3940002",
    "prefectureCode": "20",
    "prefectureNumber": 20,
    "prefecture": "長野県",
    "city": "岡谷市",
    "town": "赤羽"
  },
  "3940003": {
    "zipcode": "3940003",
    "prefectureCode": "20",
    "prefectureNumber": 20,
    "prefecture": "長野県",
    "city": "岡谷市",
    "town": "加茂町"
  },
  "3940004": {
    "zipcode": "3940004",
    "prefectureCode": "20",
    "prefectureNumber": 20,
    "prefecture": "長野県",
    "city": "岡谷市",
    "town": "神明町"
  },
  "3940005": {
    "zipcode": "3940005",
    "prefectureCode": "20",
    "prefectureNumber": 20,
    "prefecture": "長野県",
    "city": "岡谷市",
    "town": "山下町"
  },
  "3940011": {
    "zipcode": "3940011",
    "prefectureCode": "20",
    "prefectureNumber": 20,
    "prefecture": "長野県",
    "city": "岡谷市",
    "town": "長地"
  },
  "3940021": {
    "zipcode": "3940021",
    "prefectureCode": "20",
    "prefectureNumber": 20,
    "prefecture": "長野県",
    "city": "岡谷市",
    "town": "郷田"
  },
  "3940022": {
    "zipcode": "3940022",
    "prefectureCode": "20",
    "prefectureNumber": 20,
    "prefecture": "長野県",
    "city": "岡谷市",
    "town": "銀座"
  },
  "3940023": {
    "zipcode": "3940023",
    "prefectureCode": "20",
    "prefectureNumber": 20,
    "prefecture": "長野県",
    "city": "岡谷市",
    "town": "東銀座"
  },
  "3940024": {
    "zipcode": "3940024",
    "prefectureCode": "20",
    "prefectureNumber": 20,
    "prefecture": "長野県",
    "city": "岡谷市",
    "town": "堀ノ内"
  },
  "3940025": {
    "zipcode": "3940025",
    "prefectureCode": "20",
    "prefectureNumber": 20,
    "prefecture": "長野県",
    "city": "岡谷市",
    "town": "大栄町"
  },
  "3940026": {
    "zipcode": "3940026",
    "prefectureCode": "20",
    "prefectureNumber": 20,
    "prefecture": "長野県",
    "city": "岡谷市",
    "town": "塚間町"
  },
  "3940027": {
    "zipcode": "3940027",
    "prefectureCode": "20",
    "prefectureNumber": 20,
    "prefecture": "長野県",
    "city": "岡谷市",
    "town": "中央町"
  },
  "3940028": {
    "zipcode": "3940028",
    "prefectureCode": "20",
    "prefectureNumber": 20,
    "prefecture": "長野県",
    "city": "岡谷市",
    "town": "本町"
  },
  "3940029": {
    "zipcode": "3940029",
    "prefectureCode": "20",
    "prefectureNumber": 20,
    "prefecture": "長野県",
    "city": "岡谷市",
    "town": "幸町"
  },
  "3940031": {
    "zipcode": "3940031",
    "prefectureCode": "20",
    "prefectureNumber": 20,
    "prefecture": "長野県",
    "city": "岡谷市",
    "town": "田中町"
  },
  "3940032": {
    "zipcode": "3940032",
    "prefectureCode": "20",
    "prefectureNumber": 20,
    "prefecture": "長野県",
    "city": "岡谷市",
    "town": "若宮"
  },
  "3940033": {
    "zipcode": "3940033",
    "prefectureCode": "20",
    "prefectureNumber": 20,
    "prefecture": "長野県",
    "city": "岡谷市",
    "town": "南宮"
  },
  "3940034": {
    "zipcode": "3940034",
    "prefectureCode": "20",
    "prefectureNumber": 20,
    "prefecture": "長野県",
    "city": "岡谷市",
    "town": "湖畔"
  },
  "3940035": {
    "zipcode": "3940035",
    "prefectureCode": "20",
    "prefectureNumber": 20,
    "prefecture": "長野県",
    "city": "岡谷市",
    "town": "天竜町"
  },
  "3940041": {
    "zipcode": "3940041",
    "prefectureCode": "20",
    "prefectureNumber": 20,
    "prefecture": "長野県",
    "city": "岡谷市",
    "town": "山手町"
  },
  "3940042": {
    "zipcode": "3940042",
    "prefectureCode": "20",
    "prefectureNumber": 20,
    "prefecture": "長野県",
    "city": "岡谷市",
    "town": "成田町"
  },
  "3940043": {
    "zipcode": "3940043",
    "prefectureCode": "20",
    "prefectureNumber": 20,
    "prefecture": "長野県",
    "city": "岡谷市",
    "town": "御倉町"
  },
  "3940044": {
    "zipcode": "3940044",
    "prefectureCode": "20",
    "prefectureNumber": 20,
    "prefecture": "長野県",
    "city": "岡谷市",
    "town": "湊"
  },
  "3940045": {
    "zipcode": "3940045",
    "prefectureCode": "20",
    "prefectureNumber": 20,
    "prefecture": "長野県",
    "city": "岡谷市",
    "town": "川岸東"
  },
  "3940046": {
    "zipcode": "3940046",
    "prefectureCode": "20",
    "prefectureNumber": 20,
    "prefecture": "長野県",
    "city": "岡谷市",
    "town": "川岸西"
  },
  "3940047": {
    "zipcode": "3940047",
    "prefectureCode": "20",
    "prefectureNumber": 20,
    "prefecture": "長野県",
    "city": "岡谷市",
    "town": "川岸中"
  },
  "3940048": {
    "zipcode": "3940048",
    "prefectureCode": "20",
    "prefectureNumber": 20,
    "prefecture": "長野県",
    "city": "岡谷市",
    "town": "川岸上"
  },
  "3940051": {
    "zipcode": "3940051",
    "prefectureCode": "20",
    "prefectureNumber": 20,
    "prefecture": "長野県",
    "city": "岡谷市",
    "town": "塩嶺"
  },
  "3940052": {
    "zipcode": "3940052",
    "prefectureCode": "20",
    "prefectureNumber": 20,
    "prefecture": "長野県",
    "city": "岡谷市",
    "town": "西林"
  },
  "3940053": {
    "zipcode": "3940053",
    "prefectureCode": "20",
    "prefectureNumber": 20,
    "prefecture": "長野県",
    "city": "岡谷市",
    "town": "ヨギトギ沢"
  },
  "3940054": {
    "zipcode": "3940054",
    "prefectureCode": "20",
    "prefectureNumber": 20,
    "prefecture": "長野県",
    "city": "岡谷市",
    "town": "半ノ木"
  },
  "3940055": {
    "zipcode": "3940055",
    "prefectureCode": "20",
    "prefectureNumber": 20,
    "prefecture": "長野県",
    "city": "岡谷市",
    "town": "内山"
  },
  "3940056": {
    "zipcode": "3940056",
    "prefectureCode": "20",
    "prefectureNumber": 20,
    "prefecture": "長野県",
    "city": "岡谷市",
    "town": "樋沢"
  },
  "3940081": {
    "zipcode": "3940081",
    "prefectureCode": "20",
    "prefectureNumber": 20,
    "prefecture": "長野県",
    "city": "岡谷市",
    "town": "長地権現町"
  },
  "3940082": {
    "zipcode": "3940082",
    "prefectureCode": "20",
    "prefectureNumber": 20,
    "prefecture": "長野県",
    "city": "岡谷市",
    "town": "長地御所"
  },
  "3940083": {
    "zipcode": "3940083",
    "prefectureCode": "20",
    "prefectureNumber": 20,
    "prefecture": "長野県",
    "city": "岡谷市",
    "town": "長地柴宮"
  },
  "3940084": {
    "zipcode": "3940084",
    "prefectureCode": "20",
    "prefectureNumber": 20,
    "prefecture": "長野県",
    "city": "岡谷市",
    "town": "長地片間町"
  },
  "3940085": {
    "zipcode": "3940085",
    "prefectureCode": "20",
    "prefectureNumber": 20,
    "prefecture": "長野県",
    "city": "岡谷市",
    "town": "長地小萩"
  },
  "3940086": {
    "zipcode": "3940086",
    "prefectureCode": "20",
    "prefectureNumber": 20,
    "prefecture": "長野県",
    "city": "岡谷市",
    "town": "長地源"
  },
  "3940087": {
    "zipcode": "3940087",
    "prefectureCode": "20",
    "prefectureNumber": 20,
    "prefecture": "長野県",
    "city": "岡谷市",
    "town": "長地鎮"
  },
  "3940088": {
    "zipcode": "3940088",
    "prefectureCode": "20",
    "prefectureNumber": 20,
    "prefecture": "長野県",
    "city": "岡谷市",
    "town": "長地梨久保"
  },
  "3940089": {
    "zipcode": "3940089",
    "prefectureCode": "20",
    "prefectureNumber": 20,
    "prefecture": "長野県",
    "city": "岡谷市",
    "town": "長地出早"
  },
  "3940091": {
    "zipcode": "3940091",
    "prefectureCode": "20",
    "prefectureNumber": 20,
    "prefecture": "長野県",
    "city": "岡谷市",
    "town": "岡谷市の次に番地がくる場合"
  }
}
