{
  "3960000": {
    "zipcode": "3960000",
    "prefectureCode": "20",
    "prefectureNumber": 20,
    "prefecture": "長野県",
    "city": "伊那市",
    "town": "以下に掲載がない場合"
  },
  "3960001": {
    "zipcode": "3960001",
    "prefectureCode": "20",
    "prefectureNumber": 20,
    "prefecture": "長野県",
    "city": "伊那市",
    "town": "福島"
  },
  "3960002": {
    "zipcode": "3960002",
    "prefectureCode": "20",
    "prefectureNumber": 20,
    "prefecture": "長野県",
    "city": "伊那市",
    "town": "手良沢岡"
  },
  "3960003": {
    "zipcode": "3960003",
    "prefectureCode": "20",
    "prefectureNumber": 20,
    "prefecture": "長野県",
    "city": "伊那市",
    "town": "手良野口"
  },
  "3960004": {
    "zipcode": "3960004",
    "prefectureCode": "20",
    "prefectureNumber": 20,
    "prefecture": "長野県",
    "city": "伊那市",
    "town": "手良中坪"
  },
  "3960005": {
    "zipcode": "3960005",
    "prefectureCode": "20",
    "prefectureNumber": 20,
    "prefecture": "長野県",
    "city": "伊那市",
    "town": "野底"
  },
  "3960006": {
    "zipcode": "3960006",
    "prefectureCode": "20",
    "prefectureNumber": 20,
    "prefecture": "長野県",
    "city": "伊那市",
    "town": "上牧"
  },
  "3960007": {
    "zipcode": "3960007",
    "prefectureCode": "20",
    "prefectureNumber": 20,
    "prefecture": "長野県",
    "city": "伊那市",
    "town": "若宮"
  },
  "3960008": {
    "zipcode": "3960008",
    "prefectureCode": "20",
    "prefectureNumber": 20,
    "prefecture": "長野県",
    "city": "伊那市",
    "town": "上の原"
  },
  "3960009": {
    "zipcode": "3960009",
    "prefectureCode": "20",
    "prefectureNumber": 20,
    "prefecture": "長野県",
    "city": "伊那市",
    "town": "日影"
  },
  "3960010": {
    "zipcode": "3960010",
    "prefectureCode": "20",
    "prefectureNumber": 20,
    "prefecture": "長野県",
    "city": "伊那市",
    "town": "境"
  },
  "3960011": {
    "zipcode": "3960011",
    "prefectureCode": "20",
    "prefectureNumber": 20,
    "prefecture": "長野県",
    "city": "伊那市",
    "town": "伊那部"
  },
  "3960012": {
    "zipcode": "3960012",
    "prefectureCode": "20",
    "prefectureNumber": 20,
    "prefecture": "長野県",
    "city": "伊那市",
    "town": "上新田"
  },
  "3960013": {
    "zipcode": "3960013",
    "prefectureCode": "20",
    "prefectureNumber": 20,
    "prefecture": "長野県",
    "city": "伊那市",
    "town": "下新田"
  },
  "3960014": {
    "zipcode": "3960014",
    "prefectureCode": "20",
    "prefectureNumber": 20,
    "prefecture": "長野県",
    "city": "伊那市",
    "town": "狐島"
  },
  "3960015": {
    "zipcode": "3960015",
    "prefectureCode": "20",
    "prefectureNumber": 20,
    "prefecture": "長野県",
    "city": "伊那市",
    "town": "中央"
  },
  "3960021": {
    "zipcode": "3960021",
    "prefectureCode": "20",
    "prefectureNumber": 20,
    "prefecture": "長野県",
    "city": "伊那市",
    "town": "伊那"
  },
  "3960022": {
    "zipcode": "3960022",
    "prefectureCode": "20",
    "prefectureNumber": 20,
    "prefecture": "長野県",
    "city": "伊那市",
    "town": "御園"
  },
  "3960023": {
    "zipcode": "3960023",
    "prefectureCode": "20",
    "prefectureNumber": 20,
    "prefecture": "長野県",
    "city": "伊那市",
    "town": "山寺"
  },
  "3960024": {
    "zipcode": "3960024",
    "prefectureCode": "20",
    "prefectureNumber": 20,
    "prefecture": "長野県",
    "city": "伊那市",
    "town": "坂下"
  },
  "3960025": {
    "zipcode": "3960025",
    "prefectureCode": "20",
    "prefectureNumber": 20,
    "prefecture": "長野県",
    "city": "伊那市",
    "town": "荒井"
  },
  "3960026": {
    "zipcode": "3960026",
    "prefectureCode": "20",
    "prefectureNumber": 20,
    "prefecture": "長野県",
    "city": "伊那市",
    "town": "西町"
  },
  "3960027": {
    "zipcode": "3960027",
    "prefectureCode": "20",
    "prefectureNumber": 20,
    "prefecture": "長野県",
    "city": "伊那市",
    "town": "ますみヶ丘"
  },
  "3960028": {
    "zipcode": "3960028",
    "prefectureCode": "20",
    "prefectureNumber": 20,
    "prefecture": "長野県",
    "city": "伊那市",
    "town": "荒井内の萱"
  },
  "3960029": {
    "zipcode": "3960029",
    "prefectureCode": "20",
    "prefectureNumber": 20,
    "prefecture": "長野県",
    "city": "伊那市",
    "town": "横山"
  },
  "3960030": {
    "zipcode": "3960030",
    "prefectureCode": "20",
    "prefectureNumber": 20,
    "prefecture": "長野県",
    "city": "伊那市",
    "town": "平沢"
  },
  "3960031": {
    "zipcode": "3960031",
    "prefectureCode": "20",
    "prefectureNumber": 20,
    "prefecture": "長野県",
    "city": "伊那市",
    "town": "中の原"
  },
  "3960032": {
    "zipcode": "3960032",
    "prefectureCode": "20",
    "prefectureNumber": 20,
    "prefecture": "長野県",
    "city": "伊那市",
    "town": "小沢"
  },
  "3960033": {
    "zipcode": "3960033",
    "prefectureCode": "20",
    "prefectureNumber": 20,
    "prefecture": "長野県",
    "city": "伊那市",
    "town": "小四郎久保"
  },
  "3960041": {
    "zipcode": "3960041",
    "prefectureCode": "20",
    "prefectureNumber": 20,
    "prefecture": "長野県",
    "city": "伊那市",
    "town": "西箕輪"
  },
  "3960111": {
    "zipcode": "3960111",
    "prefectureCode": "20",
    "prefectureNumber": 20,
    "prefecture": "長野県",
    "city": "伊那市",
    "town": "美篶"
  },
  "3960112": {
    "zipcode": "3960112",
    "prefectureCode": "20",
    "prefectureNumber": 20,
    "prefecture": "長野県",
    "city": "伊那市",
    "town": "前原"
  },
  "3960113": {
    "zipcode": "3960113",
    "prefectureCode": "20",
    "prefectureNumber": 20,
    "prefecture": "長野県",
    "city": "伊那市",
    "town": "美原"
  },
  "3960114": {
    "zipcode": "3960114",
    "prefectureCode": "20",
    "prefectureNumber": 20,
    "prefecture": "長野県",
    "city": "伊那市",
    "town": "仙美"
  },
  "3960211": {
    "zipcode": "3960211",
    "prefectureCode": "20",
    "prefectureNumber": 20,
    "prefecture": "長野県",
    "city": "伊那市",
    "town": "高遠町西高遠"
  },
  "3960212": {
    "zipcode": "3960212",
    "prefectureCode": "20",
    "prefectureNumber": 20,
    "prefecture": "長野県",
    "city": "伊那市",
    "town": "高遠町長藤（１〜６５８番地）"
  },
  "3960213": {
    "zipcode": "3960213",
    "prefectureCode": "20",
    "prefectureNumber": 20,
    "prefecture": "長野県",
    "city": "伊那市",
    "town": "高遠町東高遠"
  },
  "3960214": {
    "zipcode": "3960214",
    "prefectureCode": "20",
    "prefectureNumber": 20,
    "prefecture": "長野県",
    "city": "伊那市",
    "town": "高遠町勝間"
  },
  "3960215": {
    "zipcode": "3960215",
    "prefectureCode": "20",
    "prefectureNumber": 20,
    "prefecture": "長野県",
    "city": "伊那市",
    "town": "高遠町小原"
  },
  "3960216": {
    "zipcode": "3960216",
    "prefectureCode": "20",
    "prefectureNumber": 20,
    "prefecture": "長野県",
    "city": "伊那市",
    "town": "高遠町下山田"
  },
  "3960217": {
    "zipcode": "3960217",
    "prefectureCode": "20",
    "prefectureNumber": 20,
    "prefecture": "長野県",
    "city": "伊那市",
    "town": "高遠町上山田"
  },
  "3960301": {
    "zipcode": "3960301",
    "prefectureCode": "20",
    "prefectureNumber": 20,
    "prefecture": "長野県",
    "city": "伊那市",
    "town": "高遠町藤沢"
  },
  "3960302": {
    "zipcode": "3960302",
    "prefectureCode": "20",
    "prefectureNumber": 20,
    "prefecture": "長野県",
    "city": "伊那市",
    "town": "高遠町芝平"
  },
  "3960303": {
    "zipcode": "3960303",
    "prefectureCode": "20",
    "prefectureNumber": 20,
    "prefecture": "長野県",
    "city": "伊那市",
    "town": "高遠町荊口"
  },
  "3960304": {
    "zipcode": "3960304",
    "prefectureCode": "20",
    "prefectureNumber": 20,
    "prefecture": "長野県",
    "city": "伊那市",
    "town": "高遠町山室"
  },
  "3960305": {
    "zipcode": "3960305",
    "prefectureCode": "20",
    "prefectureNumber": 20,
    "prefecture": "長野県",
    "city": "伊那市",
    "town": "高遠町長藤（その他）"
  },
  "3960401": {
    "zipcode": "3960401",
    "prefectureCode": "20",
    "prefectureNumber": 20,
    "prefecture": "長野県",
    "city": "伊那市",
    "town": "長谷非持"
  },
  "3960402": {
    "zipcode": "3960402",
    "prefectureCode": "20",
    "prefectureNumber": 20,
    "prefecture": "長野県",
    "city": "伊那市",
    "town": "長谷溝口"
  },
  "3960403": {
    "zipcode": "3960403",
    "prefectureCode": "20",
    "prefectureNumber": 20,
    "prefecture": "長野県",
    "city": "伊那市",
    "town": "長谷黒河内"
  },
  "3960404": {
    "zipcode": "3960404",
    "prefectureCode": "20",
    "prefectureNumber": 20,
    "prefecture": "長野県",
    "city": "伊那市",
    "town": "長谷中尾"
  },
  "3960405": {
    "zipcode": "3960405",
    "prefectureCode": "20",
    "prefectureNumber": 20,
    "prefecture": "長野県",
    "city": "伊那市",
    "town": "長谷市野瀬"
  },
  "3960406": {
    "zipcode": "3960406",
    "prefectureCode": "20",
    "prefectureNumber": 20,
    "prefecture": "長野県",
    "city": "伊那市",
    "town": "長谷杉島"
  },
  "3960407": {
    "zipcode": "3960407",
    "prefectureCode": "20",
    "prefectureNumber": 20,
    "prefecture": "長野県",
    "city": "伊那市",
    "town": "長谷浦"
  },
  "3960621": {
    "zipcode": "3960621",
    "prefectureCode": "20",
    "prefectureNumber": 20,
    "prefecture": "長野県",
    "city": "伊那市",
    "town": "富県"
  }
}
