{
  "3990000": {
    "zipcode": "3990000",
    "prefectureCode": "20",
    "prefectureNumber": 20,
    "prefecture": "長野県",
    "city": "松本市",
    "town": "以下に掲載がない場合"
  },
  "3990001": {
    "zipcode": "3990001",
    "prefectureCode": "20",
    "prefectureNumber": 20,
    "prefecture": "長野県",
    "city": "松本市",
    "town": "宮田"
  },
  "3990002": {
    "zipcode": "3990002",
    "prefectureCode": "20",
    "prefectureNumber": 20,
    "prefecture": "長野県",
    "city": "松本市",
    "town": "芳野"
  },
  "3990004": {
    "zipcode": "3990004",
    "prefectureCode": "20",
    "prefectureNumber": 20,
    "prefecture": "長野県",
    "city": "松本市",
    "town": "市場"
  },
  "3990005": {
    "zipcode": "3990005",
    "prefectureCode": "20",
    "prefectureNumber": 20,
    "prefecture": "長野県",
    "city": "松本市",
    "town": "野溝木工"
  },
  "3990006": {
    "zipcode": "3990006",
    "prefectureCode": "20",
    "prefectureNumber": 20,
    "prefecture": "長野県",
    "city": "松本市",
    "town": "野溝西"
  },
  "3990007": {
    "zipcode": "3990007",
    "prefectureCode": "20",
    "prefectureNumber": 20,
    "prefecture": "長野県",
    "city": "松本市",
    "town": "石芝（３、４丁目）"
  },
  "3990011": {
    "zipcode": "3990011",
    "prefectureCode": "20",
    "prefectureNumber": 20,
    "prefecture": "長野県",
    "city": "松本市",
    "town": "寿北"
  },
  "3990012": {
    "zipcode": "3990012",
    "prefectureCode": "20",
    "prefectureNumber": 20,
    "prefecture": "長野県",
    "city": "松本市",
    "town": "寿白瀬渕"
  },
  "3990014": {
    "zipcode": "3990014",
    "prefectureCode": "20",
    "prefectureNumber": 20,
    "prefecture": "長野県",
    "city": "松本市",
    "town": "平田東"
  },
  "3990015": {
    "zipcode": "3990015",
    "prefectureCode": "20",
    "prefectureNumber": 20,
    "prefecture": "長野県",
    "city": "松本市",
    "town": "平田西"
  },
  "3990021": {
    "zipcode": "3990021",
    "prefectureCode": "20",
    "prefectureNumber": 20,
    "prefecture": "長野県",
    "city": "松本市",
    "town": "寿豊丘"
  },
  "3990022": {
    "zipcode": "3990022",
    "prefectureCode": "20",
    "prefectureNumber": 20,
    "prefecture": "長野県",
    "city": "松本市",
    "town": "松原"
  },
  "3990023": {
    "zipcode": "3990023",
    "prefectureCode": "20",
    "prefectureNumber": 20,
    "prefecture": "長野県",
    "city": "松本市",
    "town": "内田"
  },
  "3990024": {
    "zipcode": "3990024",
    "prefectureCode": "20",
    "prefectureNumber": 20,
    "prefecture": "長野県",
    "city": "松本市",
    "town": "寿小赤"
  },
  "3990025": {
    "zipcode": "3990025",
    "prefectureCode": "20",
    "prefectureNumber": 20,
    "prefecture": "長野県",
    "city": "松本市",
    "town": "寿台"
  },
  "3990026": {
    "zipcode": "3990026",
    "prefectureCode": "20",
    "prefectureNumber": 20,
    "prefecture": "長野県",
    "city": "松本市",
    "town": "寿中"
  },
  "3990027": {
    "zipcode": "3990027",
    "prefectureCode": "20",
    "prefectureNumber": 20,
    "prefecture": "長野県",
    "city": "松本市",
    "town": "寿南"
  },
  "3990033": {
    "zipcode": "3990033",
    "prefectureCode": "20",
    "prefectureNumber": 20,
    "prefecture": "長野県",
    "city": "松本市",
    "town": "笹賀"
  },
  "3990034": {
    "zipcode": "3990034",
    "prefectureCode": "20",
    "prefectureNumber": 20,
    "prefecture": "長野県",
    "city": "松本市",
    "town": "野溝東"
  },
  "3990035": {
    "zipcode": "3990035",
    "prefectureCode": "20",
    "prefectureNumber": 20,
    "prefecture": "長野県",
    "city": "松本市",
    "town": "村井町北"
  },
  "3990036": {
    "zipcode": "3990036",
    "prefectureCode": "20",
    "prefectureNumber": 20,
    "prefecture": "長野県",
    "city": "松本市",
    "town": "村井町南"
  },
  "3990037": {
    "zipcode": "3990037",
    "prefectureCode": "20",
    "prefectureNumber": 20,
    "prefecture": "長野県",
    "city": "松本市",
    "town": "村井町西"
  },
  "3990038": {
    "zipcode": "3990038",
    "prefectureCode": "20",
    "prefectureNumber": 20,
    "prefecture": "長野県",
    "city": "松本市",
    "town": "小屋南"
  },
  "3990039": {
    "zipcode": "3990039",
    "prefectureCode": "20",
    "prefectureNumber": 20,
    "prefecture": "長野県",
    "city": "松本市",
    "town": "小屋北"
  },
  "3990071": {
    "zipcode": "3990071",
    "prefectureCode": "20",
    "prefectureNumber": 20,
    "prefecture": "長野県",
    "city": "塩尻市",
    "town": "片丘（３６３５、３６８０、５７９４、６１１４番地）"
  },
  "3990101": {
    "zipcode": "3990101",
    "prefectureCode": "20",
    "prefectureNumber": 20,
    "prefecture": "長野県",
    "city": "諏訪郡富士見町",
    "town": "境"
  },
  "3990102": {
    "zipcode": "3990102",
    "prefectureCode": "20",
    "prefectureNumber": 20,
    "prefecture": "長野県",
    "city": "諏訪郡富士見町",
    "town": "落合（３０６０、３６００〜４６００番地）"
  },
  "3990200": {
    "zipcode": "3990200",
    "prefectureCode": "20",
    "prefectureNumber": 20,
    "prefecture": "長野県",
    "city": "諏訪郡富士見町",
    "town": "以下に掲載がない場合"
  },
  "3990211": {
    "zipcode": "3990211",
    "prefectureCode": "20",
    "prefectureNumber": 20,
    "prefecture": "長野県",
    "city": "諏訪郡富士見町",
    "town": "富士見（その他）"
  },
  "3990212": {
    "zipcode": "3990212",
    "prefectureCode": "20",
    "prefectureNumber": 20,
    "prefecture": "長野県",
    "city": "諏訪郡富士見町",
    "town": "立沢"
  },
  "3990213": {
    "zipcode": "3990213",
    "prefectureCode": "20",
    "prefectureNumber": 20,
    "prefecture": "長野県",
    "city": "諏訪郡富士見町",
    "town": "乙事"
  },
  "3990214": {
    "zipcode": "3990214",
    "prefectureCode": "20",
    "prefectureNumber": 20,
    "prefecture": "長野県",
    "city": "諏訪郡富士見町",
    "town": "落合（その他）"
  },
  "3990400": {
    "zipcode": "3990400",
    "prefectureCode": "20",
    "prefectureNumber": 20,
    "prefecture": "長野県",
    "city": "上伊那郡辰野町",
    "town": "以下に掲載がない場合"
  },
  "3990421": {
    "zipcode": "3990421",
    "prefectureCode": "20",
    "prefectureNumber": 20,
    "prefecture": "長野県",
    "city": "上伊那郡辰野町",
    "town": "辰野"
  },
  "3990422": {
    "zipcode": "3990422",
    "prefectureCode": "20",
    "prefectureNumber": 20,
    "prefecture": "長野県",
    "city": "上伊那郡辰野町",
    "town": "平出"
  },
  "3990423": {
    "zipcode": "3990423",
    "prefectureCode": "20",
    "prefectureNumber": 20,
    "prefecture": "長野県",
    "city": "上伊那郡辰野町",
    "town": "沢底"
  },
  "3990424": {
    "zipcode": "3990424",
    "prefectureCode": "20",
    "prefectureNumber": 20,
    "prefecture": "長野県",
    "city": "上伊那郡辰野町",
    "town": "赤羽"
  },
  "3990425": {
    "zipcode": "3990425",
    "prefectureCode": "20",
    "prefectureNumber": 20,
    "prefecture": "長野県",
    "city": "上伊那郡辰野町",
    "town": "樋口"
  },
  "3990426": {
    "zipcode": "3990426",
    "prefectureCode": "20",
    "prefectureNumber": 20,
    "prefecture": "長野県",
    "city": "上伊那郡辰野町",
    "town": "宮木"
  },
  "3990427": {
    "zipcode": "3990427",
    "prefectureCode": "20",
    "prefectureNumber": 20,
    "prefecture": "長野県",
    "city": "上伊那郡辰野町",
    "town": "中央"
  },
  "3990428": {
    "zipcode": "3990428",
    "prefectureCode": "20",
    "prefectureNumber": 20,
    "prefecture": "長野県",
    "city": "上伊那郡辰野町",
    "town": "伊那富"
  },
  "3990511": {
    "zipcode": "3990511",
    "prefectureCode": "20",
    "prefectureNumber": 20,
    "prefecture": "長野県",
    "city": "上伊那郡辰野町",
    "town": "横川"
  },
  "3990512": {
    "zipcode": "3990512",
    "prefectureCode": "20",
    "prefectureNumber": 20,
    "prefecture": "長野県",
    "city": "上伊那郡辰野町",
    "town": "上島"
  },
  "3990601": {
    "zipcode": "3990601",
    "prefectureCode": "20",
    "prefectureNumber": 20,
    "prefecture": "長野県",
    "city": "上伊那郡辰野町",
    "town": "小野"
  },
  "3990651": {
    "zipcode": "3990651",
    "prefectureCode": "20",
    "prefectureNumber": 20,
    "prefecture": "長野県",
    "city": "塩尻市",
    "town": "北小野"
  },
  "3990700": {
    "zipcode": "3990700",
    "prefectureCode": "20",
    "prefectureNumber": 20,
    "prefecture": "長野県",
    "city": "塩尻市",
    "town": "以下に掲載がない場合"
  },
  "3990701": {
    "zipcode": "3990701",
    "prefectureCode": "20",
    "prefectureNumber": 20,
    "prefecture": "長野県",
    "city": "塩尻市",
    "town": "広丘吉田"
  },
  "3990702": {
    "zipcode": "3990702",
    "prefectureCode": "20",
    "prefectureNumber": 20,
    "prefecture": "長野県",
    "city": "塩尻市",
    "town": "広丘野村"
  },
  "3990703": {
    "zipcode": "3990703",
    "prefectureCode": "20",
    "prefectureNumber": 20,
    "prefecture": "長野県",
    "city": "塩尻市",
    "town": "広丘高出"
  },
  "3990704": {
    "zipcode": "3990704",
    "prefectureCode": "20",
    "prefectureNumber": 20,
    "prefecture": "長野県",
    "city": "塩尻市",
    "town": "広丘郷原"
  },
  "3990705": {
    "zipcode": "3990705",
    "prefectureCode": "20",
    "prefectureNumber": 20,
    "prefecture": "長野県",
    "city": "塩尻市",
    "town": "広丘堅石"
  },
  "3990706": {
    "zipcode": "3990706",
    "prefectureCode": "20",
    "prefectureNumber": 20,
    "prefecture": "長野県",
    "city": "塩尻市",
    "town": "広丘原新田"
  },
  "3990711": {
    "zipcode": "3990711",
    "prefectureCode": "20",
    "prefectureNumber": 20,
    "prefecture": "長野県",
    "city": "塩尻市",
    "town": "片丘（その他）"
  },
  "3990712": {
    "zipcode": "3990712",
    "prefectureCode": "20",
    "prefectureNumber": 20,
    "prefecture": "長野県",
    "city": "塩尻市",
    "town": "塩尻町"
  },
  "3990713": {
    "zipcode": "3990713",
    "prefectureCode": "20",
    "prefectureNumber": 20,
    "prefecture": "長野県",
    "city": "塩尻市",
    "town": "大小屋"
  },
  "3990714": {
    "zipcode": "3990714",
    "prefectureCode": "20",
    "prefectureNumber": 20,
    "prefecture": "長野県",
    "city": "塩尻市",
    "town": "堀ノ内"
  },
  "3990715": {
    "zipcode": "3990715",
    "prefectureCode": "20",
    "prefectureNumber": 20,
    "prefecture": "長野県",
    "city": "塩尻市",
    "town": "長畝"
  },
  "3990716": {
    "zipcode": "3990716",
    "prefectureCode": "20",
    "prefectureNumber": 20,
    "prefecture": "長野県",
    "city": "塩尻市",
    "town": "桟敷"
  },
  "3990721": {
    "zipcode": "3990721",
    "prefectureCode": "20",
    "prefectureNumber": 20,
    "prefecture": "長野県",
    "city": "塩尻市",
    "town": "金井"
  },
  "3990722": {
    "zipcode": "3990722",
    "prefectureCode": "20",
    "prefectureNumber": 20,
    "prefecture": "長野県",
    "city": "塩尻市",
    "town": "柿沢"
  },
  "3990723": {
    "zipcode": "3990723",
    "prefectureCode": "20",
    "prefectureNumber": 20,
    "prefecture": "長野県",
    "city": "塩尻市",
    "town": "旧塩尻"
  },
  "3990724": {
    "zipcode": "3990724",
    "prefectureCode": "20",
    "prefectureNumber": 20,
    "prefecture": "長野県",
    "city": "塩尻市",
    "town": "上西条"
  },
  "3990725": {
    "zipcode": "3990725",
    "prefectureCode": "20",
    "prefectureNumber": 20,
    "prefecture": "長野県",
    "city": "塩尻市",
    "town": "中西条"
  },
  "3990726": {
    "zipcode": "3990726",
    "prefectureCode": "20",
    "prefectureNumber": 20,
    "prefecture": "長野県",
    "city": "塩尻市",
    "town": "下西条"
  },
  "3990727": {
    "zipcode": "3990727",
    "prefectureCode": "20",
    "prefectureNumber": 20,
    "prefecture": "長野県",
    "city": "塩尻市",
    "town": "みどり湖"
  },
  "3990728": {
    "zipcode": "3990728",
    "prefectureCode": "20",
    "prefectureNumber": 20,
    "prefecture": "長野県",
    "city": "塩尻市",
    "town": "峰原"
  },
  "3990731": {
    "zipcode": "3990731",
    "prefectureCode": "20",
    "prefectureNumber": 20,
    "prefecture": "長野県",
    "city": "塩尻市",
    "town": "大門六番町"
  },
  "3990732": {
    "zipcode": "3990732",
    "prefectureCode": "20",
    "prefectureNumber": 20,
    "prefecture": "長野県",
    "city": "塩尻市",
    "town": "大門五番町"
  },
  "3990733": {
    "zipcode": "3990733",
    "prefectureCode": "20",
    "prefectureNumber": 20,
    "prefecture": "長野県",
    "city": "塩尻市",
    "town": "大門三番町"
  },
  "3990734": {
    "zipcode": "3990734",
    "prefectureCode": "20",
    "prefectureNumber": 20,
    "prefecture": "長野県",
    "city": "塩尻市",
    "town": "大門四番町"
  },
  "3990735": {
    "zipcode": "3990735",
    "prefectureCode": "20",
    "prefectureNumber": 20,
    "prefecture": "長野県",
    "city": "塩尻市",
    "town": "大門二番町"
  },
  "3990736": {
    "zipcode": "3990736",
    "prefectureCode": "20",
    "prefectureNumber": 20,
    "prefecture": "長野県",
    "city": "塩尻市",
    "town": "大門一番町"
  },
  "3990737": {
    "zipcode": "3990737",
    "prefectureCode": "20",
    "prefectureNumber": 20,
    "prefecture": "長野県",
    "city": "塩尻市",
    "town": "大門八番町"
  },
  "3990738": {
    "zipcode": "3990738",
    "prefectureCode": "20",
    "prefectureNumber": 20,
    "prefecture": "長野県",
    "city": "塩尻市",
    "town": "大門七番町"
  },
  "3990741": {
    "zipcode": "3990741",
    "prefectureCode": "20",
    "prefectureNumber": 20,
    "prefecture": "長野県",
    "city": "塩尻市",
    "town": "大門幸町"
  },
  "3990742": {
    "zipcode": "3990742",
    "prefectureCode": "20",
    "prefectureNumber": 20,
    "prefecture": "長野県",
    "city": "塩尻市",
    "town": "大門泉町"
  },
  "3990743": {
    "zipcode": "3990743",
    "prefectureCode": "20",
    "prefectureNumber": 20,
    "prefecture": "長野県",
    "city": "塩尻市",
    "town": "大門田川町"
  },
  "3990744": {
    "zipcode": "3990744",
    "prefectureCode": "20",
    "prefectureNumber": 20,
    "prefecture": "長野県",
    "city": "塩尻市",
    "town": "大門（番地）"
  },
  "3990745": {
    "zipcode": "3990745",
    "prefectureCode": "20",
    "prefectureNumber": 20,
    "prefecture": "長野県",
    "city": "塩尻市",
    "town": "大門桔梗町"
  },
  "3990746": {
    "zipcode": "3990746",
    "prefectureCode": "20",
    "prefectureNumber": 20,
    "prefecture": "長野県",
    "city": "塩尻市",
    "town": "大門並木町"
  },
  "3991200": {
    "zipcode": "3991200",
    "prefectureCode": "20",
    "prefectureNumber": 20,
    "prefecture": "長野県",
    "city": "下伊那郡天龍村",
    "town": "以下に掲載がない場合"
  },
  "3991201": {
    "zipcode": "3991201",
    "prefectureCode": "20",
    "prefectureNumber": 20,
    "prefecture": "長野県",
    "city": "下伊那郡天龍村",
    "town": "平岡"
  },
  "3991202": {
    "zipcode": "3991202",
    "prefectureCode": "20",
    "prefectureNumber": 20,
    "prefecture": "長野県",
    "city": "下伊那郡天龍村",
    "town": "神原"
  },
  "3991203": {
    "zipcode": "3991203",
    "prefectureCode": "20",
    "prefectureNumber": 20,
    "prefecture": "長野県",
    "city": "下伊那郡天龍村",
    "town": "長島"
  },
  "3991221": {
    "zipcode": "3991221",
    "prefectureCode": "20",
    "prefectureNumber": 20,
    "prefecture": "長野県",
    "city": "飯田市",
    "town": "南信濃南和田（万古）"
  },
  "3991311": {
    "zipcode": "3991311",
    "prefectureCode": "20",
    "prefectureNumber": 20,
    "prefecture": "長野県",
    "city": "飯田市",
    "town": "南信濃和田"
  },
  "3991312": {
    "zipcode": "3991312",
    "prefectureCode": "20",
    "prefectureNumber": 20,
    "prefecture": "長野県",
    "city": "飯田市",
    "town": "南信濃八重河内"
  },
  "3991313": {
    "zipcode": "3991313",
    "prefectureCode": "20",
    "prefectureNumber": 20,
    "prefecture": "長野県",
    "city": "飯田市",
    "town": "南信濃南和田（その他）"
  },
  "3991401": {
    "zipcode": "3991401",
    "prefectureCode": "20",
    "prefectureNumber": 20,
    "prefecture": "長野県",
    "city": "飯田市",
    "town": "南信濃木沢"
  },
  "3991403": {
    "zipcode": "3991403",
    "prefectureCode": "20",
    "prefectureNumber": 20,
    "prefecture": "長野県",
    "city": "飯田市",
    "town": "上村"
  },
  "3991500": {
    "zipcode": "3991500",
    "prefectureCode": "20",
    "prefectureNumber": 20,
    "prefecture": "長野県",
    "city": "下伊那郡阿南町",
    "town": "以下に掲載がない場合"
  },
  "3991501": {
    "zipcode": "3991501",
    "prefectureCode": "20",
    "prefectureNumber": 20,
    "prefecture": "長野県",
    "city": "下伊那郡阿南町",
    "town": "北條"
  },
  "3991502": {
    "zipcode": "3991502",
    "prefectureCode": "20",
    "prefectureNumber": 20,
    "prefecture": "長野県",
    "city": "下伊那郡阿南町",
    "town": "東條"
  },
  "3991503": {
    "zipcode": "3991503",
    "prefectureCode": "20",
    "prefectureNumber": 20,
    "prefecture": "長野県",
    "city": "下伊那郡阿南町",
    "town": "南條"
  },
  "3991504": {
    "zipcode": "3991504",
    "prefectureCode": "20",
    "prefectureNumber": 20,
    "prefecture": "長野県",
    "city": "下伊那郡阿南町",
    "town": "西條"
  },
  "3991505": {
    "zipcode": "3991505",
    "prefectureCode": "20",
    "prefectureNumber": 20,
    "prefecture": "長野県",
    "city": "下伊那郡阿南町",
    "town": "富草"
  },
  "3991601": {
    "zipcode": "3991601",
    "prefectureCode": "20",
    "prefectureNumber": 20,
    "prefecture": "長野県",
    "city": "下伊那郡売木村",
    "town": "売木村一円"
  },
  "3991611": {
    "zipcode": "3991611",
    "prefectureCode": "20",
    "prefectureNumber": 20,
    "prefecture": "長野県",
    "city": "下伊那郡阿南町",
    "town": "和合"
  },
  "3991612": {
    "zipcode": "3991612",
    "prefectureCode": "20",
    "prefectureNumber": 20,
    "prefecture": "長野県",
    "city": "下伊那郡阿南町",
    "town": "新野"
  },
  "3991801": {
    "zipcode": "3991801",
    "prefectureCode": "20",
    "prefectureNumber": 20,
    "prefecture": "長野県",
    "city": "下伊那郡泰阜村",
    "town": "泰阜村一円"
  },
  "3992100": {
    "zipcode": "3992100",
    "prefectureCode": "20",
    "prefectureNumber": 20,
    "prefecture": "長野県",
    "city": "下伊那郡下條村",
    "town": "以下に掲載がない場合"
  },
  "3992101": {
    "zipcode": "3992101",
    "prefectureCode": "20",
    "prefectureNumber": 20,
    "prefecture": "長野県",
    "city": "下伊那郡下條村",
    "town": "睦沢"
  },
  "3992102": {
    "zipcode": "3992102",
    "prefectureCode": "20",
    "prefectureNumber": 20,
    "prefecture": "長野県",
    "city": "下伊那郡下條村",
    "town": "陽皐"
  },
  "3992221": {
    "zipcode": "3992221",
    "prefectureCode": "20",
    "prefectureNumber": 20,
    "prefecture": "長野県",
    "city": "飯田市",
    "town": "龍江"
  },
  "3992222": {
    "zipcode": "3992222",
    "prefectureCode": "20",
    "prefectureNumber": 20,
    "prefecture": "長野県",
    "city": "飯田市",
    "town": "千代"
  },
  "3992223": {
    "zipcode": "3992223",
    "prefectureCode": "20",
    "prefectureNumber": 20,
    "prefecture": "長野県",
    "city": "飯田市",
    "town": "千栄"
  },
  "3992431": {
    "zipcode": "3992431",
    "prefectureCode": "20",
    "prefectureNumber": 20,
    "prefecture": "長野県",
    "city": "飯田市",
    "town": "川路"
  },
  "3992432": {
    "zipcode": "3992432",
    "prefectureCode": "20",
    "prefectureNumber": 20,
    "prefecture": "長野県",
    "city": "飯田市",
    "town": "下瀬"
  },
  "3992433": {
    "zipcode": "3992433",
    "prefectureCode": "20",
    "prefectureNumber": 20,
    "prefecture": "長野県",
    "city": "飯田市",
    "town": "立石"
  },
  "3992434": {
    "zipcode": "3992434",
    "prefectureCode": "20",
    "prefectureNumber": 20,
    "prefecture": "長野県",
    "city": "飯田市",
    "town": "伊豆木"
  },
  "3992561": {
    "zipcode": "3992561",
    "prefectureCode": "20",
    "prefectureNumber": 20,
    "prefecture": "長野県",
    "city": "飯田市",
    "town": "駄科"
  },
  "3992562": {
    "zipcode": "3992562",
    "prefectureCode": "20",
    "prefectureNumber": 20,
    "prefecture": "長野県",
    "city": "飯田市",
    "town": "長野原"
  },
  "3992563": {
    "zipcode": "3992563",
    "prefectureCode": "20",
    "prefectureNumber": 20,
    "prefecture": "長野県",
    "city": "飯田市",
    "town": "時又"
  },
  "3992564": {
    "zipcode": "3992564",
    "prefectureCode": "20",
    "prefectureNumber": 20,
    "prefecture": "長野県",
    "city": "飯田市",
    "town": "上川路"
  },
  "3992565": {
    "zipcode": "3992565",
    "prefectureCode": "20",
    "prefectureNumber": 20,
    "prefecture": "長野県",
    "city": "飯田市",
    "town": "桐林"
  },
  "3992566": {
    "zipcode": "3992566",
    "prefectureCode": "20",
    "prefectureNumber": 20,
    "prefecture": "長野県",
    "city": "飯田市",
    "town": "嶋"
  },
  "3992601": {
    "zipcode": "3992601",
    "prefectureCode": "20",
    "prefectureNumber": 20,
    "prefecture": "長野県",
    "city": "飯田市",
    "town": "虎岩"
  },
  "3992602": {
    "zipcode": "3992602",
    "prefectureCode": "20",
    "prefectureNumber": 20,
    "prefecture": "長野県",
    "city": "飯田市",
    "town": "下久堅下虎岩"
  },
  "3992603": {
    "zipcode": "3992603",
    "prefectureCode": "20",
    "prefectureNumber": 20,
    "prefecture": "長野県",
    "city": "飯田市",
    "town": "下久堅知久平"
  },
  "3992604": {
    "zipcode": "3992604",
    "prefectureCode": "20",
    "prefectureNumber": 20,
    "prefecture": "長野県",
    "city": "飯田市",
    "town": "下久堅柿野沢"
  },
  "3992605": {
    "zipcode": "3992605",
    "prefectureCode": "20",
    "prefectureNumber": 20,
    "prefecture": "長野県",
    "city": "飯田市",
    "town": "下久堅小林"
  },
  "3992606": {
    "zipcode": "3992606",
    "prefectureCode": "20",
    "prefectureNumber": 20,
    "prefecture": "長野県",
    "city": "飯田市",
    "town": "下久堅稲葉"
  },
  "3992607": {
    "zipcode": "3992607",
    "prefectureCode": "20",
    "prefectureNumber": 20,
    "prefecture": "長野県",
    "city": "飯田市",
    "town": "下久堅南原"
  },
  "3992611": {
    "zipcode": "3992611",
    "prefectureCode": "20",
    "prefectureNumber": 20,
    "prefecture": "長野県",
    "city": "飯田市",
    "town": "上久堅"
  },
  "3992612": {
    "zipcode": "3992612",
    "prefectureCode": "20",
    "prefectureNumber": 20,
    "prefecture": "長野県",
    "city": "飯田市",
    "town": "上久堅戊"
  },
  "3993100": {
    "zipcode": "3993100",
    "prefectureCode": "20",
    "prefectureNumber": 20,
    "prefecture": "長野県",
    "city": "下伊那郡高森町",
    "town": "以下に掲載がない場合"
  },
  "3993101": {
    "zipcode": "3993101",
    "prefectureCode": "20",
    "prefectureNumber": 20,
    "prefecture": "長野県",
    "city": "下伊那郡高森町",
    "town": "山吹"
  },
  "3993102": {
    "zipcode": "3993102",
    "prefectureCode": "20",
    "prefectureNumber": 20,
    "prefecture": "長野県",
    "city": "下伊那郡高森町",
    "town": "吉田"
  },
  "3993103": {
    "zipcode": "3993103",
    "prefectureCode": "20",
    "prefectureNumber": 20,
    "prefecture": "長野県",
    "city": "下伊那郡高森町",
    "town": "下市田"
  },
  "3993104": {
    "zipcode": "3993104",
    "prefectureCode": "20",
    "prefectureNumber": 20,
    "prefecture": "長野県",
    "city": "下伊那郡高森町",
    "town": "上市田"
  },
  "3993105": {
    "zipcode": "3993105",
    "prefectureCode": "20",
    "prefectureNumber": 20,
    "prefecture": "長野県",
    "city": "下伊那郡高森町",
    "town": "牛牧"
  },
  "3993106": {
    "zipcode": "3993106",
    "prefectureCode": "20",
    "prefectureNumber": 20,
    "prefecture": "長野県",
    "city": "下伊那郡高森町",
    "town": "大島山"
  },
  "3993107": {
    "zipcode": "3993107",
    "prefectureCode": "20",
    "prefectureNumber": 20,
    "prefecture": "長野県",
    "city": "下伊那郡高森町",
    "town": "出原"
  },
  "3993200": {
    "zipcode": "3993200",
    "prefectureCode": "20",
    "prefectureNumber": 20,
    "prefecture": "長野県",
    "city": "下伊那郡豊丘村",
    "town": "以下に掲載がない場合"
  },
  "3993201": {
    "zipcode": "3993201",
    "prefectureCode": "20",
    "prefectureNumber": 20,
    "prefecture": "長野県",
    "city": "下伊那郡豊丘村",
    "town": "河野（その他）"
  },
  "3993202": {
    "zipcode": "3993202",
    "prefectureCode": "20",
    "prefectureNumber": 20,
    "prefecture": "長野県",
    "city": "下伊那郡豊丘村",
    "town": "神稲"
  },
  "3993300": {
    "zipcode": "3993300",
    "prefectureCode": "20",
    "prefectureNumber": 20,
    "prefecture": "長野県",
    "city": "下伊那郡松川町",
    "town": "以下に掲載がない場合"
  },
  "3993301": {
    "zipcode": "3993301",
    "prefectureCode": "20",
    "prefectureNumber": 20,
    "prefecture": "長野県",
    "city": "下伊那郡松川町",
    "town": "上片桐"
  },
  "3993302": {
    "zipcode": "3993302",
    "prefectureCode": "20",
    "prefectureNumber": 20,
    "prefecture": "長野県",
    "city": "下伊那郡松川町",
    "town": "生田"
  },
  "3993303": {
    "zipcode": "3993303",
    "prefectureCode": "20",
    "prefectureNumber": 20,
    "prefecture": "長野県",
    "city": "下伊那郡松川町",
    "town": "元大島"
  },
  "3993304": {
    "zipcode": "3993304",
    "prefectureCode": "20",
    "prefectureNumber": 20,
    "prefecture": "長野県",
    "city": "下伊那郡松川町",
    "town": "大島"
  },
  "3993311": {
    "zipcode": "3993311",
    "prefectureCode": "20",
    "prefectureNumber": 20,
    "prefecture": "長野県",
    "city": "下伊那郡豊丘村",
    "town": "河野（７５３０〜７５９０番地）"
  },
  "3993500": {
    "zipcode": "3993500",
    "prefectureCode": "20",
    "prefectureNumber": 20,
    "prefecture": "長野県",
    "city": "下伊那郡大鹿村",
    "town": "以下に掲載がない場合"
  },
  "3993501": {
    "zipcode": "3993501",
    "prefectureCode": "20",
    "prefectureNumber": 20,
    "prefecture": "長野県",
    "city": "下伊那郡大鹿村",
    "town": "鹿塩"
  },
  "3993502": {
    "zipcode": "3993502",
    "prefectureCode": "20",
    "prefectureNumber": 20,
    "prefecture": "長野県",
    "city": "下伊那郡大鹿村",
    "town": "大河原"
  },
  "3993700": {
    "zipcode": "3993700",
    "prefectureCode": "20",
    "prefectureNumber": 20,
    "prefecture": "長野県",
    "city": "上伊那郡飯島町",
    "town": "以下に掲載がない場合"
  },
  "3993701": {
    "zipcode": "3993701",
    "prefectureCode": "20",
    "prefectureNumber": 20,
    "prefecture": "長野県",
    "city": "上伊那郡飯島町",
    "town": "田切"
  },
  "3993702": {
    "zipcode": "3993702",
    "prefectureCode": "20",
    "prefectureNumber": 20,
    "prefecture": "長野県",
    "city": "上伊那郡飯島町",
    "town": "飯島"
  },
  "3993703": {
    "zipcode": "3993703",
    "prefectureCode": "20",
    "prefectureNumber": 20,
    "prefecture": "長野県",
    "city": "上伊那郡飯島町",
    "town": "日曽利"
  },
  "3993704": {
    "zipcode": "3993704",
    "prefectureCode": "20",
    "prefectureNumber": 20,
    "prefecture": "長野県",
    "city": "上伊那郡飯島町",
    "town": "本郷"
  },
  "3993705": {
    "zipcode": "3993705",
    "prefectureCode": "20",
    "prefectureNumber": 20,
    "prefecture": "長野県",
    "city": "上伊那郡飯島町",
    "town": "七久保"
  },
  "3993800": {
    "zipcode": "3993800",
    "prefectureCode": "20",
    "prefectureNumber": 20,
    "prefecture": "長野県",
    "city": "上伊那郡中川村",
    "town": "以下に掲載がない場合"
  },
  "3993801": {
    "zipcode": "3993801",
    "prefectureCode": "20",
    "prefectureNumber": 20,
    "prefecture": "長野県",
    "city": "上伊那郡中川村",
    "town": "大草"
  },
  "3993802": {
    "zipcode": "3993802",
    "prefectureCode": "20",
    "prefectureNumber": 20,
    "prefecture": "長野県",
    "city": "上伊那郡中川村",
    "town": "片桐"
  },
  "3993803": {
    "zipcode": "3993803",
    "prefectureCode": "20",
    "prefectureNumber": 20,
    "prefecture": "長野県",
    "city": "上伊那郡中川村",
    "town": "葛島"
  },
  "3993804": {
    "zipcode": "3993804",
    "prefectureCode": "20",
    "prefectureNumber": 20,
    "prefecture": "長野県",
    "city": "上伊那郡中川村",
    "town": "四徳"
  },
  "3994100": {
    "zipcode": "3994100",
    "prefectureCode": "20",
    "prefectureNumber": 20,
    "prefecture": "長野県",
    "city": "駒ヶ根市",
    "town": "以下に掲載がない場合"
  },
  "3994101": {
    "zipcode": "3994101",
    "prefectureCode": "20",
    "prefectureNumber": 20,
    "prefecture": "長野県",
    "city": "駒ヶ根市",
    "town": "下平（その他）"
  },
  "3994102": {
    "zipcode": "3994102",
    "prefectureCode": "20",
    "prefectureNumber": 20,
    "prefecture": "長野県",
    "city": "駒ヶ根市",
    "town": "飯坂"
  },
  "3994103": {
    "zipcode": "3994103",
    "prefectureCode": "20",
    "prefectureNumber": 20,
    "prefecture": "長野県",
    "city": "駒ヶ根市",
    "town": "梨の木"
  },
  "3994104": {
    "zipcode": "3994104",
    "prefectureCode": "20",
    "prefectureNumber": 20,
    "prefecture": "長野県",
    "city": "駒ヶ根市",
    "town": "経塚"
  },
  "3994105": {
    "zipcode": "3994105",
    "prefectureCode": "20",
    "prefectureNumber": 20,
    "prefecture": "長野県",
    "city": "駒ヶ根市",
    "town": "赤須東"
  },
  "3994106": {
    "zipcode": "3994106",
    "prefectureCode": "20",
    "prefectureNumber": 20,
    "prefecture": "長野県",
    "city": "駒ヶ根市",
    "town": "東町"
  },
  "3994107": {
    "zipcode": "3994107",
    "prefectureCode": "20",
    "prefectureNumber": 20,
    "prefecture": "長野県",
    "city": "駒ヶ根市",
    "town": "南田"
  },
  "3994108": {
    "zipcode": "3994108",
    "prefectureCode": "20",
    "prefectureNumber": 20,
    "prefecture": "長野県",
    "city": "駒ヶ根市",
    "town": "下市場"
  },
  "3994111": {
    "zipcode": "3994111",
    "prefectureCode": "20",
    "prefectureNumber": 20,
    "prefecture": "長野県",
    "city": "駒ヶ根市",
    "town": "北町"
  },
  "3994112": {
    "zipcode": "3994112",
    "prefectureCode": "20",
    "prefectureNumber": 20,
    "prefecture": "長野県",
    "city": "駒ヶ根市",
    "town": "中央"
  },
  "3994113": {
    "zipcode": "3994113",
    "prefectureCode": "20",
    "prefectureNumber": 20,
    "prefecture": "長野県",
    "city": "駒ヶ根市",
    "town": "赤須町"
  },
  "3994114": {
    "zipcode": "3994114",
    "prefectureCode": "20",
    "prefectureNumber": 20,
    "prefecture": "長野県",
    "city": "駒ヶ根市",
    "town": "上穂南"
  },
  "3994115": {
    "zipcode": "3994115",
    "prefectureCode": "20",
    "prefectureNumber": 20,
    "prefecture": "長野県",
    "city": "駒ヶ根市",
    "town": "上穂栄町"
  },
  "3994116": {
    "zipcode": "3994116",
    "prefectureCode": "20",
    "prefectureNumber": 20,
    "prefecture": "長野県",
    "city": "駒ヶ根市",
    "town": "上穂北"
  },
  "3994117": {
    "zipcode": "3994117",
    "prefectureCode": "20",
    "prefectureNumber": 20,
    "prefecture": "長野県",
    "city": "駒ヶ根市",
    "town": "赤穂"
  },
  "3994231": {
    "zipcode": "3994231",
    "prefectureCode": "20",
    "prefectureNumber": 20,
    "prefecture": "長野県",
    "city": "駒ヶ根市",
    "town": "中沢"
  },
  "3994232": {
    "zipcode": "3994232",
    "prefectureCode": "20",
    "prefectureNumber": 20,
    "prefecture": "長野県",
    "city": "駒ヶ根市",
    "town": "下平（２０７０〜２１１９、２３０９〜２３１１、２４１９、２４２１〜２４２６、２４３３〜２４５０）"
  },
  "3994301": {
    "zipcode": "3994301",
    "prefectureCode": "20",
    "prefectureNumber": 20,
    "prefecture": "長野県",
    "city": "上伊那郡宮田村",
    "town": "宮田村一円"
  },
  "3994321": {
    "zipcode": "3994321",
    "prefectureCode": "20",
    "prefectureNumber": 20,
    "prefecture": "長野県",
    "city": "駒ヶ根市",
    "town": "東伊那"
  },
  "3994431": {
    "zipcode": "3994431",
    "prefectureCode": "20",
    "prefectureNumber": 20,
    "prefecture": "長野県",
    "city": "伊那市",
    "town": "西春近"
  },
  "3994432": {
    "zipcode": "3994432",
    "prefectureCode": "20",
    "prefectureNumber": 20,
    "prefecture": "長野県",
    "city": "伊那市",
    "town": "東春近"
  },
  "3994511": {
    "zipcode": "3994511",
    "prefectureCode": "20",
    "prefectureNumber": 20,
    "prefecture": "長野県",
    "city": "上伊那郡南箕輪村",
    "town": "南箕輪村一円"
  },
  "3994600": {
    "zipcode": "3994600",
    "prefectureCode": "20",
    "prefectureNumber": 20,
    "prefecture": "長野県",
    "city": "上伊那郡箕輪町",
    "town": "以下に掲載がない場合"
  },
  "3994601": {
    "zipcode": "3994601",
    "prefectureCode": "20",
    "prefectureNumber": 20,
    "prefecture": "長野県",
    "city": "上伊那郡箕輪町",
    "town": "中箕輪"
  },
  "3994602": {
    "zipcode": "3994602",
    "prefectureCode": "20",
    "prefectureNumber": 20,
    "prefecture": "長野県",
    "city": "上伊那郡箕輪町",
    "town": "東箕輪"
  },
  "3994603": {
    "zipcode": "3994603",
    "prefectureCode": "20",
    "prefectureNumber": 20,
    "prefecture": "長野県",
    "city": "上伊那郡箕輪町",
    "town": "三日町"
  },
  "3994604": {
    "zipcode": "3994604",
    "prefectureCode": "20",
    "prefectureNumber": 20,
    "prefecture": "長野県",
    "city": "上伊那郡箕輪町",
    "town": "福与"
  },
  "3994605": {
    "zipcode": "3994605",
    "prefectureCode": "20",
    "prefectureNumber": 20,
    "prefecture": "長野県",
    "city": "上伊那郡箕輪町",
    "town": "中曽根"
  },
  "3995300": {
    "zipcode": "3995300",
    "prefectureCode": "20",
    "prefectureNumber": 20,
    "prefecture": "長野県",
    "city": "木曽郡南木曽町",
    "town": "以下に掲載がない場合"
  },
  "3995301": {
    "zipcode": "3995301",
    "prefectureCode": "20",
    "prefectureNumber": 20,
    "prefecture": "長野県",
    "city": "木曽郡南木曽町",
    "town": "読書"
  },
  "3995302": {
    "zipcode": "3995302",
    "prefectureCode": "20",
    "prefectureNumber": 20,
    "prefecture": "長野県",
    "city": "木曽郡南木曽町",
    "town": "吾妻"
  },
  "3995303": {
    "zipcode": "3995303",
    "prefectureCode": "20",
    "prefectureNumber": 20,
    "prefecture": "長野県",
    "city": "木曽郡南木曽町",
    "town": "田立"
  },
  "3995500": {
    "zipcode": "3995500",
    "prefectureCode": "20",
    "prefectureNumber": 20,
    "prefecture": "長野県",
    "city": "木曽郡大桑村",
    "town": "以下に掲載がない場合"
  },
  "3995501": {
    "zipcode": "3995501",
    "prefectureCode": "20",
    "prefectureNumber": 20,
    "prefecture": "長野県",
    "city": "木曽郡大桑村",
    "town": "殿"
  },
  "3995502": {
    "zipcode": "3995502",
    "prefectureCode": "20",
    "prefectureNumber": 20,
    "prefecture": "長野県",
    "city": "木曽郡大桑村",
    "town": "須原"
  },
  "3995503": {
    "zipcode": "3995503",
    "prefectureCode": "20",
    "prefectureNumber": 20,
    "prefecture": "長野県",
    "city": "木曽郡大桑村",
    "town": "長野"
  },
  "3995504": {
    "zipcode": "3995504",
    "prefectureCode": "20",
    "prefectureNumber": 20,
    "prefecture": "長野県",
    "city": "木曽郡大桑村",
    "town": "野尻"
  },
  "3995600": {
    "zipcode": "3995600",
    "prefectureCode": "20",
    "prefectureNumber": 20,
    "prefecture": "長野県",
    "city": "木曽郡上松町",
    "town": "以下に掲載がない場合"
  },
  "3995601": {
    "zipcode": "3995601",
    "prefectureCode": "20",
    "prefectureNumber": 20,
    "prefecture": "長野県",
    "city": "木曽郡上松町",
    "town": "上松"
  },
  "3995602": {
    "zipcode": "3995602",
    "prefectureCode": "20",
    "prefectureNumber": 20,
    "prefecture": "長野県",
    "city": "木曽郡上松町",
    "town": "本町通り"
  },
  "3995603": {
    "zipcode": "3995603",
    "prefectureCode": "20",
    "prefectureNumber": 20,
    "prefecture": "長野県",
    "city": "木曽郡上松町",
    "town": "駅前通り"
  },
  "3995604": {
    "zipcode": "3995604",
    "prefectureCode": "20",
    "prefectureNumber": 20,
    "prefecture": "長野県",
    "city": "木曽郡上松町",
    "town": "正島町"
  },
  "3995605": {
    "zipcode": "3995605",
    "prefectureCode": "20",
    "prefectureNumber": 20,
    "prefecture": "長野県",
    "city": "木曽郡上松町",
    "town": "栄町"
  },
  "3995606": {
    "zipcode": "3995606",
    "prefectureCode": "20",
    "prefectureNumber": 20,
    "prefecture": "長野県",
    "city": "木曽郡上松町",
    "town": "緑町"
  },
  "3995607": {
    "zipcode": "3995607",
    "prefectureCode": "20",
    "prefectureNumber": 20,
    "prefecture": "長野県",
    "city": "木曽郡上松町",
    "town": "小川"
  },
  "3995608": {
    "zipcode": "3995608",
    "prefectureCode": "20",
    "prefectureNumber": 20,
    "prefecture": "長野県",
    "city": "木曽郡上松町",
    "town": "荻原"
  },
  "3995609": {
    "zipcode": "3995609",
    "prefectureCode": "20",
    "prefectureNumber": 20,
    "prefecture": "長野県",
    "city": "木曽郡上松町",
    "town": "旭町"
  },
  "3996101": {
    "zipcode": "3996101",
    "prefectureCode": "20",
    "prefectureNumber": 20,
    "prefecture": "長野県",
    "city": "木曽郡木曽町",
    "town": "日義"
  },
  "3996200": {
    "zipcode": "3996200",
    "prefectureCode": "20",
    "prefectureNumber": 20,
    "prefecture": "長野県",
    "city": "木曽郡木祖村",
    "town": "以下に掲載がない場合"
  },
  "3996201": {
    "zipcode": "3996201",
    "prefectureCode": "20",
    "prefectureNumber": 20,
    "prefecture": "長野県",
    "city": "木曽郡木祖村",
    "town": "薮原"
  },
  "3996202": {
    "zipcode": "3996202",
    "prefectureCode": "20",
    "prefectureNumber": 20,
    "prefecture": "長野県",
    "city": "木曽郡木祖村",
    "town": "菅"
  },
  "3996203": {
    "zipcode": "3996203",
    "prefectureCode": "20",
    "prefectureNumber": 20,
    "prefecture": "長野県",
    "city": "木曽郡木祖村",
    "town": "小木曽"
  },
  "3996301": {
    "zipcode": "3996301",
    "prefectureCode": "20",
    "prefectureNumber": 20,
    "prefecture": "長野県",
    "city": "塩尻市",
    "town": "贄川"
  },
  "3996302": {
    "zipcode": "3996302",
    "prefectureCode": "20",
    "prefectureNumber": 20,
    "prefecture": "長野県",
    "city": "塩尻市",
    "town": "木曽平沢"
  },
  "3996303": {
    "zipcode": "3996303",
    "prefectureCode": "20",
    "prefectureNumber": 20,
    "prefecture": "長野県",
    "city": "塩尻市",
    "town": "奈良井"
  },
  "3996461": {
    "zipcode": "3996461",
    "prefectureCode": "20",
    "prefectureNumber": 20,
    "prefecture": "長野県",
    "city": "塩尻市",
    "town": "宗賀"
  },
  "3996462": {
    "zipcode": "3996462",
    "prefectureCode": "20",
    "prefectureNumber": 20,
    "prefecture": "長野県",
    "city": "塩尻市",
    "town": "洗馬"
  },
  "3997101": {
    "zipcode": "3997101",
    "prefectureCode": "20",
    "prefectureNumber": 20,
    "prefecture": "長野県",
    "city": "安曇野市",
    "town": "明科東川手"
  },
  "3997102": {
    "zipcode": "3997102",
    "prefectureCode": "20",
    "prefectureNumber": 20,
    "prefecture": "長野県",
    "city": "安曇野市",
    "town": "明科中川手"
  },
  "3997103": {
    "zipcode": "3997103",
    "prefectureCode": "20",
    "prefectureNumber": 20,
    "prefecture": "長野県",
    "city": "安曇野市",
    "town": "明科光"
  },
  "3997104": {
    "zipcode": "3997104",
    "prefectureCode": "20",
    "prefectureNumber": 20,
    "prefecture": "長野県",
    "city": "安曇野市",
    "town": "明科七貴"
  },
  "3997105": {
    "zipcode": "3997105",
    "prefectureCode": "20",
    "prefectureNumber": 20,
    "prefecture": "長野県",
    "city": "安曇野市",
    "town": "明科南陸郷"
  },
  "3997200": {
    "zipcode": "3997200",
    "prefectureCode": "20",
    "prefectureNumber": 20,
    "prefecture": "長野県",
    "city": "東筑摩郡生坂村",
    "town": "以下に掲載がない場合"
  },
  "3997201": {
    "zipcode": "3997201",
    "prefectureCode": "20",
    "prefectureNumber": 20,
    "prefecture": "長野県",
    "city": "東筑摩郡生坂村",
    "town": "生坂村の次に番地がくる場合"
  },
  "3997202": {
    "zipcode": "3997202",
    "prefectureCode": "20",
    "prefectureNumber": 20,
    "prefecture": "長野県",
    "city": "東筑摩郡生坂村",
    "town": "北陸郷"
  },
  "3997301": {
    "zipcode": "3997301",
    "prefectureCode": "20",
    "prefectureNumber": 20,
    "prefecture": "長野県",
    "city": "大町市",
    "town": "八坂"
  },
  "3997302": {
    "zipcode": "3997302",
    "prefectureCode": "20",
    "prefectureNumber": 20,
    "prefecture": "長野県",
    "city": "大町市",
    "town": "八坂菖蒲"
  },
  "3997311": {
    "zipcode": "3997311",
    "prefectureCode": "20",
    "prefectureNumber": 20,
    "prefecture": "長野県",
    "city": "東筑摩郡生坂村",
    "town": "東広津"
  },
  "3997401": {
    "zipcode": "3997401",
    "prefectureCode": "20",
    "prefectureNumber": 20,
    "prefecture": "長野県",
    "city": "松本市",
    "town": "五常"
  },
  "3997402": {
    "zipcode": "3997402",
    "prefectureCode": "20",
    "prefectureNumber": 20,
    "prefecture": "長野県",
    "city": "松本市",
    "town": "会田"
  },
  "3997403": {
    "zipcode": "3997403",
    "prefectureCode": "20",
    "prefectureNumber": 20,
    "prefecture": "長野県",
    "city": "松本市",
    "town": "穴沢"
  },
  "3997404": {
    "zipcode": "3997404",
    "prefectureCode": "20",
    "prefectureNumber": 20,
    "prefecture": "長野県",
    "city": "松本市",
    "town": "取出"
  },
  "3997405": {
    "zipcode": "3997405",
    "prefectureCode": "20",
    "prefectureNumber": 20,
    "prefecture": "長野県",
    "city": "松本市",
    "town": "板場"
  },
  "3997411": {
    "zipcode": "3997411",
    "prefectureCode": "20",
    "prefectureNumber": 20,
    "prefecture": "長野県",
    "city": "松本市",
    "town": "中川"
  },
  "3997412": {
    "zipcode": "3997412",
    "prefectureCode": "20",
    "prefectureNumber": 20,
    "prefecture": "長野県",
    "city": "松本市",
    "town": "保福寺町"
  },
  "3997413": {
    "zipcode": "3997413",
    "prefectureCode": "20",
    "prefectureNumber": 20,
    "prefecture": "長野県",
    "city": "松本市",
    "town": "金山町"
  },
  "3997414": {
    "zipcode": "3997414",
    "prefectureCode": "20",
    "prefectureNumber": 20,
    "prefecture": "長野県",
    "city": "松本市",
    "town": "殿野入"
  },
  "3997415": {
    "zipcode": "3997415",
    "prefectureCode": "20",
    "prefectureNumber": 20,
    "prefecture": "長野県",
    "city": "松本市",
    "town": "赤怒田"
  },
  "3997416": {
    "zipcode": "3997416",
    "prefectureCode": "20",
    "prefectureNumber": 20,
    "prefecture": "長野県",
    "city": "松本市",
    "town": "七嵐"
  },
  "3997417": {
    "zipcode": "3997417",
    "prefectureCode": "20",
    "prefectureNumber": 20,
    "prefecture": "長野県",
    "city": "松本市",
    "town": "刈谷原町"
  },
  "3997418": {
    "zipcode": "3997418",
    "prefectureCode": "20",
    "prefectureNumber": 20,
    "prefecture": "長野県",
    "city": "松本市",
    "town": "反町"
  },
  "3997500": {
    "zipcode": "3997500",
    "prefectureCode": "20",
    "prefectureNumber": 20,
    "prefecture": "長野県",
    "city": "東筑摩郡筑北村",
    "town": "以下に掲載がない場合"
  },
  "3997501": {
    "zipcode": "3997501",
    "prefectureCode": "20",
    "prefectureNumber": 20,
    "prefecture": "長野県",
    "city": "東筑摩郡筑北村",
    "town": "西条"
  },
  "3997502": {
    "zipcode": "3997502",
    "prefectureCode": "20",
    "prefectureNumber": 20,
    "prefecture": "長野県",
    "city": "東筑摩郡筑北村",
    "town": "東条"
  },
  "3997503": {
    "zipcode": "3997503",
    "prefectureCode": "20",
    "prefectureNumber": 20,
    "prefecture": "長野県",
    "city": "東筑摩郡筑北村",
    "town": "大沢新田"
  },
  "3997504": {
    "zipcode": "3997504",
    "prefectureCode": "20",
    "prefectureNumber": 20,
    "prefecture": "長野県",
    "city": "東筑摩郡筑北村",
    "town": "乱橋"
  },
  "3997601": {
    "zipcode": "3997601",
    "prefectureCode": "20",
    "prefectureNumber": 20,
    "prefecture": "長野県",
    "city": "東筑摩郡筑北村",
    "town": "坂北"
  },
  "3997700": {
    "zipcode": "3997700",
    "prefectureCode": "20",
    "prefectureNumber": 20,
    "prefecture": "長野県",
    "city": "東筑摩郡麻績村",
    "town": "以下に掲載がない場合"
  },
  "3997701": {
    "zipcode": "3997701",
    "prefectureCode": "20",
    "prefectureNumber": 20,
    "prefecture": "長野県",
    "city": "東筑摩郡麻績村",
    "town": "麻"
  },
  "3997702": {
    "zipcode": "3997702",
    "prefectureCode": "20",
    "prefectureNumber": 20,
    "prefecture": "長野県",
    "city": "東筑摩郡麻績村",
    "town": "日"
  },
  "3997711": {
    "zipcode": "3997711",
    "prefectureCode": "20",
    "prefectureNumber": 20,
    "prefecture": "長野県",
    "city": "東筑摩郡筑北村",
    "town": "坂井"
  },
  "3998101": {
    "zipcode": "3998101",
    "prefectureCode": "20",
    "prefectureNumber": 20,
    "prefecture": "長野県",
    "city": "安曇野市",
    "town": "三郷明盛"
  },
  "3998102": {
    "zipcode": "3998102",
    "prefectureCode": "20",
    "prefectureNumber": 20,
    "prefecture": "長野県",
    "city": "安曇野市",
    "town": "三郷温"
  },
  "3998103": {
    "zipcode": "3998103",
    "prefectureCode": "20",
    "prefectureNumber": 20,
    "prefecture": "長野県",
    "city": "安曇野市",
    "town": "三郷小倉"
  },
  "3998200": {
    "zipcode": "3998200",
    "prefectureCode": "20",
    "prefectureNumber": 20,
    "prefecture": "長野県",
    "city": "安曇野市",
    "town": "以下に掲載がない場合"
  },
  "3998201": {
    "zipcode": "3998201",
    "prefectureCode": "20",
    "prefectureNumber": 20,
    "prefecture": "長野県",
    "city": "安曇野市",
    "town": "豊科南穂高"
  },
  "3998202": {
    "zipcode": "3998202",
    "prefectureCode": "20",
    "prefectureNumber": 20,
    "prefecture": "長野県",
    "city": "安曇野市",
    "town": "豊科光"
  },
  "3998203": {
    "zipcode": "3998203",
    "prefectureCode": "20",
    "prefectureNumber": 20,
    "prefecture": "長野県",
    "city": "安曇野市",
    "town": "豊科田沢"
  },
  "3998204": {
    "zipcode": "3998204",
    "prefectureCode": "20",
    "prefectureNumber": 20,
    "prefecture": "長野県",
    "city": "安曇野市",
    "town": "豊科高家"
  },
  "3998205": {
    "zipcode": "3998205",
    "prefectureCode": "20",
    "prefectureNumber": 20,
    "prefecture": "長野県",
    "city": "安曇野市",
    "town": "豊科"
  },
  "3998211": {
    "zipcode": "3998211",
    "prefectureCode": "20",
    "prefectureNumber": 20,
    "prefecture": "長野県",
    "city": "安曇野市",
    "town": "堀金烏川"
  },
  "3998212": {
    "zipcode": "3998212",
    "prefectureCode": "20",
    "prefectureNumber": 20,
    "prefecture": "長野県",
    "city": "安曇野市",
    "town": "堀金三田"
  },
  "3998251": {
    "zipcode": "3998251",
    "prefectureCode": "20",
    "prefectureNumber": 20,
    "prefecture": "長野県",
    "city": "松本市",
    "town": "島内（９８２０、９８２１、９８２３〜９８３０、９８６４番地以上）"
  },
  "3998301": {
    "zipcode": "3998301",
    "prefectureCode": "20",
    "prefectureNumber": 20,
    "prefecture": "長野県",
    "city": "安曇野市",
    "town": "穂高有明"
  },
  "3998302": {
    "zipcode": "3998302",
    "prefectureCode": "20",
    "prefectureNumber": 20,
    "prefecture": "長野県",
    "city": "安曇野市",
    "town": "穂高北穂高"
  },
  "3998303": {
    "zipcode": "3998303",
    "prefectureCode": "20",
    "prefectureNumber": 20,
    "prefecture": "長野県",
    "city": "安曇野市",
    "town": "穂高"
  },
  "3998304": {
    "zipcode": "3998304",
    "prefectureCode": "20",
    "prefectureNumber": 20,
    "prefecture": "長野県",
    "city": "安曇野市",
    "town": "穂高柏原"
  },
  "3998305": {
    "zipcode": "3998305",
    "prefectureCode": "20",
    "prefectureNumber": 20,
    "prefecture": "長野県",
    "city": "安曇野市",
    "town": "穂高牧"
  },
  "3998501": {
    "zipcode": "3998501",
    "prefectureCode": "20",
    "prefectureNumber": 20,
    "prefecture": "長野県",
    "city": "北安曇郡松川村",
    "town": "松川村一円"
  },
  "3998600": {
    "zipcode": "3998600",
    "prefectureCode": "20",
    "prefectureNumber": 20,
    "prefecture": "長野県",
    "city": "北安曇郡池田町",
    "town": "以下に掲載がない場合"
  },
  "3998601": {
    "zipcode": "3998601",
    "prefectureCode": "20",
    "prefectureNumber": 20,
    "prefecture": "長野県",
    "city": "北安曇郡池田町",
    "town": "池田"
  },
  "3998602": {
    "zipcode": "3998602",
    "prefectureCode": "20",
    "prefectureNumber": 20,
    "prefecture": "長野県",
    "city": "北安曇郡池田町",
    "town": "会染"
  },
  "3998603": {
    "zipcode": "3998603",
    "prefectureCode": "20",
    "prefectureNumber": 20,
    "prefecture": "長野県",
    "city": "北安曇郡池田町",
    "town": "中鵜"
  },
  "3998604": {
    "zipcode": "3998604",
    "prefectureCode": "20",
    "prefectureNumber": 20,
    "prefecture": "長野県",
    "city": "北安曇郡池田町",
    "town": "広津"
  },
  "3998605": {
    "zipcode": "3998605",
    "prefectureCode": "20",
    "prefectureNumber": 20,
    "prefecture": "長野県",
    "city": "北安曇郡池田町",
    "town": "陸郷"
  },
  "3999101": {
    "zipcode": "3999101",
    "prefectureCode": "20",
    "prefectureNumber": 20,
    "prefecture": "長野県",
    "city": "大町市",
    "town": "美麻"
  },
  "3999211": {
    "zipcode": "3999211",
    "prefectureCode": "20",
    "prefectureNumber": 20,
    "prefecture": "長野県",
    "city": "北安曇郡白馬村",
    "town": "神城"
  },
  "3999300": {
    "zipcode": "3999300",
    "prefectureCode": "20",
    "prefectureNumber": 20,
    "prefecture": "長野県",
    "city": "北安曇郡白馬村",
    "town": "以下に掲載がない場合"
  },
  "3999301": {
    "zipcode": "3999301",
    "prefectureCode": "20",
    "prefectureNumber": 20,
    "prefecture": "長野県",
    "city": "北安曇郡白馬村",
    "town": "北城"
  },
  "3999400": {
    "zipcode": "3999400",
    "prefectureCode": "20",
    "prefectureNumber": 20,
    "prefecture": "長野県",
    "city": "北安曇郡小谷村",
    "town": "以下に掲載がない場合"
  },
  "3999421": {
    "zipcode": "3999421",
    "prefectureCode": "20",
    "prefectureNumber": 20,
    "prefecture": "長野県",
    "city": "北安曇郡小谷村",
    "town": "中小谷"
  },
  "3999422": {
    "zipcode": "3999422",
    "prefectureCode": "20",
    "prefectureNumber": 20,
    "prefecture": "長野県",
    "city": "北安曇郡小谷村",
    "town": "千国"
  },
  "3999511": {
    "zipcode": "3999511",
    "prefectureCode": "20",
    "prefectureNumber": 20,
    "prefecture": "長野県",
    "city": "北安曇郡小谷村",
    "town": "中土"
  },
  "3999601": {
    "zipcode": "3999601",
    "prefectureCode": "20",
    "prefectureNumber": 20,
    "prefecture": "長野県",
    "city": "北安曇郡小谷村",
    "town": "北小谷"
  }
}
