{
  "4000000": {
    "zipcode": "4000000",
    "prefectureCode": "19",
    "prefectureNumber": 19,
    "prefecture": "山梨県",
    "city": "甲府市",
    "town": "以下に掲載がない場合"
  },
  "4000001": {
    "zipcode": "4000001",
    "prefectureCode": "19",
    "prefectureNumber": 19,
    "prefecture": "山梨県",
    "city": "甲府市",
    "town": "和田町"
  },
  "4000002": {
    "zipcode": "4000002",
    "prefectureCode": "19",
    "prefectureNumber": 19,
    "prefecture": "山梨県",
    "city": "甲府市",
    "town": "小松町"
  },
  "4000003": {
    "zipcode": "4000003",
    "prefectureCode": "19",
    "prefectureNumber": 19,
    "prefecture": "山梨県",
    "city": "甲府市",
    "town": "塚原町"
  },
  "4000004": {
    "zipcode": "4000004",
    "prefectureCode": "19",
    "prefectureNumber": 19,
    "prefecture": "山梨県",
    "city": "甲府市",
    "town": "西田町"
  },
  "4000005": {
    "zipcode": "4000005",
    "prefectureCode": "19",
    "prefectureNumber": 19,
    "prefecture": "山梨県",
    "city": "甲府市",
    "town": "北新"
  },
  "4000006": {
    "zipcode": "4000006",
    "prefectureCode": "19",
    "prefectureNumber": 19,
    "prefecture": "山梨県",
    "city": "甲府市",
    "town": "天神町"
  },
  "4000007": {
    "zipcode": "4000007",
    "prefectureCode": "19",
    "prefectureNumber": 19,
    "prefecture": "山梨県",
    "city": "甲府市",
    "town": "美咲"
  },
  "4000008": {
    "zipcode": "4000008",
    "prefectureCode": "19",
    "prefectureNumber": 19,
    "prefecture": "山梨県",
    "city": "甲府市",
    "town": "緑が丘"
  },
  "4000011": {
    "zipcode": "4000011",
    "prefectureCode": "19",
    "prefectureNumber": 19,
    "prefecture": "山梨県",
    "city": "甲府市",
    "town": "上積翠寺町"
  },
  "4000012": {
    "zipcode": "4000012",
    "prefectureCode": "19",
    "prefectureNumber": 19,
    "prefecture": "山梨県",
    "city": "甲府市",
    "town": "下積翠寺町"
  },
  "4000013": {
    "zipcode": "4000013",
    "prefectureCode": "19",
    "prefectureNumber": 19,
    "prefecture": "山梨県",
    "city": "甲府市",
    "town": "岩窪町"
  },
  "4000014": {
    "zipcode": "4000014",
    "prefectureCode": "19",
    "prefectureNumber": 19,
    "prefecture": "山梨県",
    "city": "甲府市",
    "town": "古府中町"
  },
  "4000015": {
    "zipcode": "4000015",
    "prefectureCode": "19",
    "prefectureNumber": 19,
    "prefecture": "山梨県",
    "city": "甲府市",
    "town": "大手"
  },
  "4000016": {
    "zipcode": "4000016",
    "prefectureCode": "19",
    "prefectureNumber": 19,
    "prefecture": "山梨県",
    "city": "甲府市",
    "town": "武田"
  },
  "4000017": {
    "zipcode": "4000017",
    "prefectureCode": "19",
    "prefectureNumber": 19,
    "prefecture": "山梨県",
    "city": "甲府市",
    "town": "屋形"
  },
  "4000021": {
    "zipcode": "4000021",
    "prefectureCode": "19",
    "prefectureNumber": 19,
    "prefecture": "山梨県",
    "city": "甲府市",
    "town": "宮前町"
  },
  "4000022": {
    "zipcode": "4000022",
    "prefectureCode": "19",
    "prefectureNumber": 19,
    "prefecture": "山梨県",
    "city": "甲府市",
    "town": "元紺屋町"
  },
  "4000023": {
    "zipcode": "4000023",
    "prefectureCode": "19",
    "prefectureNumber": 19,
    "prefecture": "山梨県",
    "city": "甲府市",
    "town": "愛宕町"
  },
  "4000024": {
    "zipcode": "4000024",
    "prefectureCode": "19",
    "prefectureNumber": 19,
    "prefecture": "山梨県",
    "city": "甲府市",
    "town": "北口"
  },
  "4000025": {
    "zipcode": "4000025",
    "prefectureCode": "19",
    "prefectureNumber": 19,
    "prefecture": "山梨県",
    "city": "甲府市",
    "town": "朝日"
  },
  "4000026": {
    "zipcode": "4000026",
    "prefectureCode": "19",
    "prefectureNumber": 19,
    "prefecture": "山梨県",
    "city": "甲府市",
    "town": "塩部"
  },
  "4000027": {
    "zipcode": "4000027",
    "prefectureCode": "19",
    "prefectureNumber": 19,
    "prefecture": "山梨県",
    "city": "甲府市",
    "town": "富士見"
  },
  "4000028": {
    "zipcode": "4000028",
    "prefectureCode": "19",
    "prefectureNumber": 19,
    "prefecture": "山梨県",
    "city": "甲府市",
    "town": "音羽町"
  },
  "4000031": {
    "zipcode": "4000031",
    "prefectureCode": "19",
    "prefectureNumber": 19,
    "prefecture": "山梨県",
    "city": "甲府市",
    "town": "丸の内"
  },
  "4000032": {
    "zipcode": "4000032",
    "prefectureCode": "19",
    "prefectureNumber": 19,
    "prefecture": "山梨県",
    "city": "甲府市",
    "town": "中央"
  },
  "4000033": {
    "zipcode": "4000033",
    "prefectureCode": "19",
    "prefectureNumber": 19,
    "prefecture": "山梨県",
    "city": "甲府市",
    "town": "寿町"
  },
  "4000034": {
    "zipcode": "4000034",
    "prefectureCode": "19",
    "prefectureNumber": 19,
    "prefecture": "山梨県",
    "city": "甲府市",
    "town": "宝"
  },
  "4000035": {
    "zipcode": "4000035",
    "prefectureCode": "19",
    "prefectureNumber": 19,
    "prefecture": "山梨県",
    "city": "甲府市",
    "town": "飯田"
  },
  "4000041": {
    "zipcode": "4000041",
    "prefectureCode": "19",
    "prefectureNumber": 19,
    "prefecture": "山梨県",
    "city": "甲府市",
    "town": "上石田"
  },
  "4000042": {
    "zipcode": "4000042",
    "prefectureCode": "19",
    "prefectureNumber": 19,
    "prefecture": "山梨県",
    "city": "甲府市",
    "town": "高畑"
  },
  "4000043": {
    "zipcode": "4000043",
    "prefectureCode": "19",
    "prefectureNumber": 19,
    "prefecture": "山梨県",
    "city": "甲府市",
    "town": "国母"
  },
  "4000044": {
    "zipcode": "4000044",
    "prefectureCode": "19",
    "prefectureNumber": 19,
    "prefecture": "山梨県",
    "city": "甲府市",
    "town": "上小河原町"
  },
  "4000045": {
    "zipcode": "4000045",
    "prefectureCode": "19",
    "prefectureNumber": 19,
    "prefecture": "山梨県",
    "city": "甲府市",
    "town": "後屋町"
  },
  "4000046": {
    "zipcode": "4000046",
    "prefectureCode": "19",
    "prefectureNumber": 19,
    "prefecture": "山梨県",
    "city": "甲府市",
    "town": "下石田"
  },
  "4000047": {
    "zipcode": "4000047",
    "prefectureCode": "19",
    "prefectureNumber": 19,
    "prefecture": "山梨県",
    "city": "甲府市",
    "town": "徳行"
  },
  "4000048": {
    "zipcode": "4000048",
    "prefectureCode": "19",
    "prefectureNumber": 19,
    "prefecture": "山梨県",
    "city": "甲府市",
    "town": "貢川本町"
  },
  "4000049": {
    "zipcode": "4000049",
    "prefectureCode": "19",
    "prefectureNumber": 19,
    "prefecture": "山梨県",
    "city": "甲府市",
    "town": "富竹"
  },
  "4000051": {
    "zipcode": "4000051",
    "prefectureCode": "19",
    "prefectureNumber": 19,
    "prefecture": "山梨県",
    "city": "甲府市",
    "town": "古上条町"
  },
  "4000052": {
    "zipcode": "4000052",
    "prefectureCode": "19",
    "prefectureNumber": 19,
    "prefecture": "山梨県",
    "city": "甲府市",
    "town": "上条新居町"
  },
  "4000053": {
    "zipcode": "4000053",
    "prefectureCode": "19",
    "prefectureNumber": 19,
    "prefecture": "山梨県",
    "city": "甲府市",
    "town": "大里町"
  },
  "4000054": {
    "zipcode": "4000054",
    "prefectureCode": "19",
    "prefectureNumber": 19,
    "prefecture": "山梨県",
    "city": "甲府市",
    "town": "西下条町"
  },
  "4000055": {
    "zipcode": "4000055",
    "prefectureCode": "19",
    "prefectureNumber": 19,
    "prefecture": "山梨県",
    "city": "甲府市",
    "town": "大津町"
  },
  "4000056": {
    "zipcode": "4000056",
    "prefectureCode": "19",
    "prefectureNumber": 19,
    "prefecture": "山梨県",
    "city": "甲府市",
    "town": "堀之内町"
  },
  "4000057": {
    "zipcode": "4000057",
    "prefectureCode": "19",
    "prefectureNumber": 19,
    "prefecture": "山梨県",
    "city": "甲府市",
    "town": "高室町"
  },
  "4000058": {
    "zipcode": "4000058",
    "prefectureCode": "19",
    "prefectureNumber": 19,
    "prefecture": "山梨県",
    "city": "甲府市",
    "town": "宮原町"
  },
  "4000061": {
    "zipcode": "4000061",
    "prefectureCode": "19",
    "prefectureNumber": 19,
    "prefecture": "山梨県",
    "city": "甲府市",
    "town": "荒川"
  },
  "4000062": {
    "zipcode": "4000062",
    "prefectureCode": "19",
    "prefectureNumber": 19,
    "prefecture": "山梨県",
    "city": "甲府市",
    "town": "池田"
  },
  "4000063": {
    "zipcode": "4000063",
    "prefectureCode": "19",
    "prefectureNumber": 19,
    "prefecture": "山梨県",
    "city": "甲府市",
    "town": "金竹町"
  },
  "4000064": {
    "zipcode": "4000064",
    "prefectureCode": "19",
    "prefectureNumber": 19,
    "prefecture": "山梨県",
    "city": "甲府市",
    "town": "下飯田"
  },
  "4000065": {
    "zipcode": "4000065",
    "prefectureCode": "19",
    "prefectureNumber": 19,
    "prefecture": "山梨県",
    "city": "甲府市",
    "town": "貢川"
  },
  "4000066": {
    "zipcode": "4000066",
    "prefectureCode": "19",
    "prefectureNumber": 19,
    "prefecture": "山梨県",
    "city": "甲府市",
    "town": "新田町"
  },
  "4000067": {
    "zipcode": "4000067",
    "prefectureCode": "19",
    "prefectureNumber": 19,
    "prefecture": "山梨県",
    "city": "甲府市",
    "town": "長松寺町"
  },
  "4000068": {
    "zipcode": "4000068",
    "prefectureCode": "19",
    "prefectureNumber": 19,
    "prefecture": "山梨県",
    "city": "甲府市",
    "town": "下河原町"
  },
  "4000069": {
    "zipcode": "4000069",
    "prefectureCode": "19",
    "prefectureNumber": 19,
    "prefecture": "山梨県",
    "city": "甲府市",
    "town": "中村町"
  },
  "4000071": {
    "zipcode": "4000071",
    "prefectureCode": "19",
    "prefectureNumber": 19,
    "prefecture": "山梨県",
    "city": "甲府市",
    "town": "羽黒町"
  },
  "4000072": {
    "zipcode": "4000072",
    "prefectureCode": "19",
    "prefectureNumber": 19,
    "prefecture": "山梨県",
    "city": "甲府市",
    "town": "大和町"
  },
  "4000073": {
    "zipcode": "4000073",
    "prefectureCode": "19",
    "prefectureNumber": 19,
    "prefecture": "山梨県",
    "city": "甲府市",
    "town": "湯村"
  },
  "4000074": {
    "zipcode": "4000074",
    "prefectureCode": "19",
    "prefectureNumber": 19,
    "prefecture": "山梨県",
    "city": "甲府市",
    "town": "千塚"
  },
  "4000075": {
    "zipcode": "4000075",
    "prefectureCode": "19",
    "prefectureNumber": 19,
    "prefecture": "山梨県",
    "city": "甲府市",
    "town": "山宮町"
  },
  "4000081": {
    "zipcode": "4000081",
    "prefectureCode": "19",
    "prefectureNumber": 19,
    "prefecture": "山梨県",
    "city": "甲府市",
    "town": "上帯那町"
  },
  "4000082": {
    "zipcode": "4000082",
    "prefectureCode": "19",
    "prefectureNumber": 19,
    "prefecture": "山梨県",
    "city": "甲府市",
    "town": "下帯那町"
  },
  "4000083": {
    "zipcode": "4000083",
    "prefectureCode": "19",
    "prefectureNumber": 19,
    "prefecture": "山梨県",
    "city": "甲府市",
    "town": "平瀬町"
  },
  "4000100": {
    "zipcode": "4000100",
    "prefectureCode": "19",
    "prefectureNumber": 19,
    "prefecture": "山梨県",
    "city": "甲斐市",
    "town": "以下に掲載がない場合"
  },
  "4000101": {
    "zipcode": "4000101",
    "prefectureCode": "19",
    "prefectureNumber": 19,
    "prefecture": "山梨県",
    "city": "甲斐市",
    "town": "菖蒲沢"
  },
  "4000102": {
    "zipcode": "4000102",
    "prefectureCode": "19",
    "prefectureNumber": 19,
    "prefecture": "山梨県",
    "city": "甲斐市",
    "town": "団子新居"
  },
  "4000103": {
    "zipcode": "4000103",
    "prefectureCode": "19",
    "prefectureNumber": 19,
    "prefecture": "山梨県",
    "city": "甲斐市",
    "town": "大垈"
  },
  "4000104": {
    "zipcode": "4000104",
    "prefectureCode": "19",
    "prefectureNumber": 19,
    "prefecture": "山梨県",
    "city": "甲斐市",
    "town": "龍地"
  },
  "4000105": {
    "zipcode": "4000105",
    "prefectureCode": "19",
    "prefectureNumber": 19,
    "prefecture": "山梨県",
    "city": "甲斐市",
    "town": "下今井"
  },
  "4000106": {
    "zipcode": "4000106",
    "prefectureCode": "19",
    "prefectureNumber": 19,
    "prefecture": "山梨県",
    "city": "甲斐市",
    "town": "岩森"
  },
  "4000107": {
    "zipcode": "4000107",
    "prefectureCode": "19",
    "prefectureNumber": 19,
    "prefecture": "山梨県",
    "city": "甲斐市",
    "town": "志田"
  },
  "4000108": {
    "zipcode": "4000108",
    "prefectureCode": "19",
    "prefectureNumber": 19,
    "prefecture": "山梨県",
    "city": "甲斐市",
    "town": "宇津谷"
  },
  "4000111": {
    "zipcode": "4000111",
    "prefectureCode": "19",
    "prefectureNumber": 19,
    "prefecture": "山梨県",
    "city": "甲斐市",
    "town": "竜王新町"
  },
  "4000112": {
    "zipcode": "4000112",
    "prefectureCode": "19",
    "prefectureNumber": 19,
    "prefecture": "山梨県",
    "city": "甲斐市",
    "town": "名取"
  },
  "4000113": {
    "zipcode": "4000113",
    "prefectureCode": "19",
    "prefectureNumber": 19,
    "prefecture": "山梨県",
    "city": "甲斐市",
    "town": "富竹新田"
  },
  "4000114": {
    "zipcode": "4000114",
    "prefectureCode": "19",
    "prefectureNumber": 19,
    "prefecture": "山梨県",
    "city": "甲斐市",
    "town": "万才"
  },
  "4000115": {
    "zipcode": "4000115",
    "prefectureCode": "19",
    "prefectureNumber": 19,
    "prefecture": "山梨県",
    "city": "甲斐市",
    "town": "篠原"
  },
  "4000116": {
    "zipcode": "4000116",
    "prefectureCode": "19",
    "prefectureNumber": 19,
    "prefecture": "山梨県",
    "city": "甲斐市",
    "town": "玉川"
  },
  "4000117": {
    "zipcode": "4000117",
    "prefectureCode": "19",
    "prefectureNumber": 19,
    "prefecture": "山梨県",
    "city": "甲斐市",
    "town": "西八幡"
  },
  "4000118": {
    "zipcode": "4000118",
    "prefectureCode": "19",
    "prefectureNumber": 19,
    "prefecture": "山梨県",
    "city": "甲斐市",
    "town": "竜王"
  },
  "4000121": {
    "zipcode": "4000121",
    "prefectureCode": "19",
    "prefectureNumber": 19,
    "prefecture": "山梨県",
    "city": "甲斐市",
    "town": "牛句"
  },
  "4000122": {
    "zipcode": "4000122",
    "prefectureCode": "19",
    "prefectureNumber": 19,
    "prefecture": "山梨県",
    "city": "甲斐市",
    "town": "境"
  },
  "4000123": {
    "zipcode": "4000123",
    "prefectureCode": "19",
    "prefectureNumber": 19,
    "prefecture": "山梨県",
    "city": "甲斐市",
    "town": "島上条"
  },
  "4000124": {
    "zipcode": "4000124",
    "prefectureCode": "19",
    "prefectureNumber": 19,
    "prefecture": "山梨県",
    "city": "甲斐市",
    "town": "中下条"
  },
  "4000125": {
    "zipcode": "4000125",
    "prefectureCode": "19",
    "prefectureNumber": 19,
    "prefecture": "山梨県",
    "city": "甲斐市",
    "town": "長塚"
  },
  "4000126": {
    "zipcode": "4000126",
    "prefectureCode": "19",
    "prefectureNumber": 19,
    "prefecture": "山梨県",
    "city": "甲斐市",
    "town": "大下条"
  },
  "4000127": {
    "zipcode": "4000127",
    "prefectureCode": "19",
    "prefectureNumber": 19,
    "prefecture": "山梨県",
    "city": "甲斐市",
    "town": "天狗沢"
  },
  "4000128": {
    "zipcode": "4000128",
    "prefectureCode": "19",
    "prefectureNumber": 19,
    "prefecture": "山梨県",
    "city": "甲斐市",
    "town": "大久保"
  },
  "4000201": {
    "zipcode": "4000201",
    "prefectureCode": "19",
    "prefectureNumber": 19,
    "prefecture": "山梨県",
    "city": "南アルプス市",
    "town": "上高砂"
  },
  "4000202": {
    "zipcode": "4000202",
    "prefectureCode": "19",
    "prefectureNumber": 19,
    "prefecture": "山梨県",
    "city": "南アルプス市",
    "town": "下高砂"
  },
  "4000203": {
    "zipcode": "4000203",
    "prefectureCode": "19",
    "prefectureNumber": 19,
    "prefecture": "山梨県",
    "city": "南アルプス市",
    "town": "徳永"
  },
  "4000204": {
    "zipcode": "4000204",
    "prefectureCode": "19",
    "prefectureNumber": 19,
    "prefecture": "山梨県",
    "city": "南アルプス市",
    "town": "榎原"
  },
  "4000205": {
    "zipcode": "4000205",
    "prefectureCode": "19",
    "prefectureNumber": 19,
    "prefecture": "山梨県",
    "city": "南アルプス市",
    "town": "野牛島"
  },
  "4000206": {
    "zipcode": "4000206",
    "prefectureCode": "19",
    "prefectureNumber": 19,
    "prefecture": "山梨県",
    "city": "南アルプス市",
    "town": "六科"
  },
  "4000211": {
    "zipcode": "4000211",
    "prefectureCode": "19",
    "prefectureNumber": 19,
    "prefecture": "山梨県",
    "city": "南アルプス市",
    "town": "上今諏訪"
  },
  "4000212": {
    "zipcode": "4000212",
    "prefectureCode": "19",
    "prefectureNumber": 19,
    "prefecture": "山梨県",
    "city": "南アルプス市",
    "town": "下今諏訪"
  },
  "4000213": {
    "zipcode": "4000213",
    "prefectureCode": "19",
    "prefectureNumber": 19,
    "prefecture": "山梨県",
    "city": "南アルプス市",
    "town": "西野"
  },
  "4000214": {
    "zipcode": "4000214",
    "prefectureCode": "19",
    "prefectureNumber": 19,
    "prefecture": "山梨県",
    "city": "南アルプス市",
    "town": "百々"
  },
  "4000215": {
    "zipcode": "4000215",
    "prefectureCode": "19",
    "prefectureNumber": 19,
    "prefecture": "山梨県",
    "city": "南アルプス市",
    "town": "上八田"
  },
  "4000221": {
    "zipcode": "4000221",
    "prefectureCode": "19",
    "prefectureNumber": 19,
    "prefecture": "山梨県",
    "city": "南アルプス市",
    "town": "在家塚"
  },
  "4000222": {
    "zipcode": "4000222",
    "prefectureCode": "19",
    "prefectureNumber": 19,
    "prefecture": "山梨県",
    "city": "南アルプス市",
    "town": "飯野"
  },
  "4000223": {
    "zipcode": "4000223",
    "prefectureCode": "19",
    "prefectureNumber": 19,
    "prefecture": "山梨県",
    "city": "南アルプス市",
    "town": "曲輪田新田"
  },
  "4000224": {
    "zipcode": "4000224",
    "prefectureCode": "19",
    "prefectureNumber": 19,
    "prefecture": "山梨県",
    "city": "南アルプス市",
    "town": "飯野新田"
  },
  "4000225": {
    "zipcode": "4000225",
    "prefectureCode": "19",
    "prefectureNumber": 19,
    "prefecture": "山梨県",
    "city": "南アルプス市",
    "town": "築山"
  },
  "4000226": {
    "zipcode": "4000226",
    "prefectureCode": "19",
    "prefectureNumber": 19,
    "prefecture": "山梨県",
    "city": "南アルプス市",
    "town": "有野"
  },
  "4000231": {
    "zipcode": "4000231",
    "prefectureCode": "19",
    "prefectureNumber": 19,
    "prefecture": "山梨県",
    "city": "南アルプス市",
    "town": "塩前"
  },
  "4000232": {
    "zipcode": "4000232",
    "prefectureCode": "19",
    "prefectureNumber": 19,
    "prefecture": "山梨県",
    "city": "南アルプス市",
    "town": "駒場"
  },
  "4000233": {
    "zipcode": "4000233",
    "prefectureCode": "19",
    "prefectureNumber": 19,
    "prefecture": "山梨県",
    "city": "南アルプス市",
    "town": "須沢"
  },
  "4000234": {
    "zipcode": "4000234",
    "prefectureCode": "19",
    "prefectureNumber": 19,
    "prefecture": "山梨県",
    "city": "南アルプス市",
    "town": "大嵐"
  },
  "4000241": {
    "zipcode": "4000241",
    "prefectureCode": "19",
    "prefectureNumber": 19,
    "prefecture": "山梨県",
    "city": "南アルプス市",
    "town": "芦安芦倉"
  },
  "4000242": {
    "zipcode": "4000242",
    "prefectureCode": "19",
    "prefectureNumber": 19,
    "prefecture": "山梨県",
    "city": "南アルプス市",
    "town": "芦安安通"
  },
  "4000301": {
    "zipcode": "4000301",
    "prefectureCode": "19",
    "prefectureNumber": 19,
    "prefecture": "山梨県",
    "city": "南アルプス市",
    "town": "桃園"
  },
  "4000302": {
    "zipcode": "4000302",
    "prefectureCode": "19",
    "prefectureNumber": 19,
    "prefecture": "山梨県",
    "city": "南アルプス市",
    "town": "沢登"
  },
  "4000303": {
    "zipcode": "4000303",
    "prefectureCode": "19",
    "prefectureNumber": 19,
    "prefecture": "山梨県",
    "city": "南アルプス市",
    "town": "上今井"
  },
  "4000304": {
    "zipcode": "4000304",
    "prefectureCode": "19",
    "prefectureNumber": 19,
    "prefecture": "山梨県",
    "city": "南アルプス市",
    "town": "吉田"
  },
  "4000305": {
    "zipcode": "4000305",
    "prefectureCode": "19",
    "prefectureNumber": 19,
    "prefecture": "山梨県",
    "city": "南アルプス市",
    "town": "十五所"
  },
  "4000306": {
    "zipcode": "4000306",
    "prefectureCode": "19",
    "prefectureNumber": 19,
    "prefecture": "山梨県",
    "city": "南アルプス市",
    "town": "小笠原"
  },
  "4000308": {
    "zipcode": "4000308",
    "prefectureCode": "19",
    "prefectureNumber": 19,
    "prefecture": "山梨県",
    "city": "南アルプス市",
    "town": "山寺"
  },
  "4000311": {
    "zipcode": "4000311",
    "prefectureCode": "19",
    "prefectureNumber": 19,
    "prefecture": "山梨県",
    "city": "南アルプス市",
    "town": "曲輪田"
  },
  "4000312": {
    "zipcode": "4000312",
    "prefectureCode": "19",
    "prefectureNumber": 19,
    "prefecture": "山梨県",
    "city": "南アルプス市",
    "town": "上宮地"
  },
  "4000313": {
    "zipcode": "4000313",
    "prefectureCode": "19",
    "prefectureNumber": 19,
    "prefecture": "山梨県",
    "city": "南アルプス市",
    "town": "平岡"
  },
  "4000314": {
    "zipcode": "4000314",
    "prefectureCode": "19",
    "prefectureNumber": 19,
    "prefecture": "山梨県",
    "city": "南アルプス市",
    "town": "下市之瀬"
  },
  "4000315": {
    "zipcode": "4000315",
    "prefectureCode": "19",
    "prefectureNumber": 19,
    "prefecture": "山梨県",
    "city": "南アルプス市",
    "town": "上野"
  },
  "4000316": {
    "zipcode": "4000316",
    "prefectureCode": "19",
    "prefectureNumber": 19,
    "prefecture": "山梨県",
    "city": "南アルプス市",
    "town": "中野"
  },
  "4000317": {
    "zipcode": "4000317",
    "prefectureCode": "19",
    "prefectureNumber": 19,
    "prefecture": "山梨県",
    "city": "南アルプス市",
    "town": "上市之瀬"
  },
  "4000318": {
    "zipcode": "4000318",
    "prefectureCode": "19",
    "prefectureNumber": 19,
    "prefecture": "山梨県",
    "city": "南アルプス市",
    "town": "高尾"
  },
  "4000319": {
    "zipcode": "4000319",
    "prefectureCode": "19",
    "prefectureNumber": 19,
    "prefecture": "山梨県",
    "city": "南アルプス市",
    "town": "あやめが丘"
  },
  "4000331": {
    "zipcode": "4000331",
    "prefectureCode": "19",
    "prefectureNumber": 19,
    "prefecture": "山梨県",
    "city": "南アルプス市",
    "town": "下今井"
  },
  "4000332": {
    "zipcode": "4000332",
    "prefectureCode": "19",
    "prefectureNumber": 19,
    "prefecture": "山梨県",
    "city": "南アルプス市",
    "town": "鏡中條"
  },
  "4000333": {
    "zipcode": "4000333",
    "prefectureCode": "19",
    "prefectureNumber": 19,
    "prefecture": "山梨県",
    "city": "南アルプス市",
    "town": "浅原"
  },
  "4000334": {
    "zipcode": "4000334",
    "prefectureCode": "19",
    "prefectureNumber": 19,
    "prefecture": "山梨県",
    "city": "南アルプス市",
    "town": "藤田"
  },
  "4000335": {
    "zipcode": "4000335",
    "prefectureCode": "19",
    "prefectureNumber": 19,
    "prefecture": "山梨県",
    "city": "南アルプス市",
    "town": "加賀美"
  },
  "4000336": {
    "zipcode": "4000336",
    "prefectureCode": "19",
    "prefectureNumber": 19,
    "prefecture": "山梨県",
    "city": "南アルプス市",
    "town": "十日市場"
  },
  "4000337": {
    "zipcode": "4000337",
    "prefectureCode": "19",
    "prefectureNumber": 19,
    "prefecture": "山梨県",
    "city": "南アルプス市",
    "town": "寺部"
  },
  "4000400": {
    "zipcode": "4000400",
    "prefectureCode": "19",
    "prefectureNumber": 19,
    "prefecture": "山梨県",
    "city": "南アルプス市",
    "town": "以下に掲載がない場合"
  },
  "4000401": {
    "zipcode": "4000401",
    "prefectureCode": "19",
    "prefectureNumber": 19,
    "prefecture": "山梨県",
    "city": "南アルプス市",
    "town": "江原"
  },
  "4000402": {
    "zipcode": "4000402",
    "prefectureCode": "19",
    "prefectureNumber": 19,
    "prefecture": "山梨県",
    "city": "南アルプス市",
    "town": "田島"
  },
  "4000403": {
    "zipcode": "4000403",
    "prefectureCode": "19",
    "prefectureNumber": 19,
    "prefecture": "山梨県",
    "city": "南アルプス市",
    "town": "鮎沢"
  },
  "4000404": {
    "zipcode": "4000404",
    "prefectureCode": "19",
    "prefectureNumber": 19,
    "prefecture": "山梨県",
    "city": "南アルプス市",
    "town": "古市場"
  },
  "4000405": {
    "zipcode": "4000405",
    "prefectureCode": "19",
    "prefectureNumber": 19,
    "prefecture": "山梨県",
    "city": "南アルプス市",
    "town": "下宮地"
  },
  "4000411": {
    "zipcode": "4000411",
    "prefectureCode": "19",
    "prefectureNumber": 19,
    "prefecture": "山梨県",
    "city": "南アルプス市",
    "town": "西南湖"
  },
  "4000412": {
    "zipcode": "4000412",
    "prefectureCode": "19",
    "prefectureNumber": 19,
    "prefecture": "山梨県",
    "city": "南アルプス市",
    "town": "東南湖"
  },
  "4000413": {
    "zipcode": "4000413",
    "prefectureCode": "19",
    "prefectureNumber": 19,
    "prefecture": "山梨県",
    "city": "南アルプス市",
    "town": "和泉"
  },
  "4000414": {
    "zipcode": "4000414",
    "prefectureCode": "19",
    "prefectureNumber": 19,
    "prefecture": "山梨県",
    "city": "南アルプス市",
    "town": "戸田"
  },
  "4000415": {
    "zipcode": "4000415",
    "prefectureCode": "19",
    "prefectureNumber": 19,
    "prefecture": "山梨県",
    "city": "南アルプス市",
    "town": "宮沢"
  },
  "4000416": {
    "zipcode": "4000416",
    "prefectureCode": "19",
    "prefectureNumber": 19,
    "prefecture": "山梨県",
    "city": "南アルプス市",
    "town": "大師"
  },
  "4000417": {
    "zipcode": "4000417",
    "prefectureCode": "19",
    "prefectureNumber": 19,
    "prefecture": "山梨県",
    "city": "南アルプス市",
    "town": "清水"
  },
  "4000421": {
    "zipcode": "4000421",
    "prefectureCode": "19",
    "prefectureNumber": 19,
    "prefecture": "山梨県",
    "city": "南アルプス市",
    "town": "川上"
  },
  "4000422": {
    "zipcode": "4000422",
    "prefectureCode": "19",
    "prefectureNumber": 19,
    "prefecture": "山梨県",
    "city": "南アルプス市",
    "town": "荊沢"
  },
  "4000423": {
    "zipcode": "4000423",
    "prefectureCode": "19",
    "prefectureNumber": 19,
    "prefecture": "山梨県",
    "city": "南アルプス市",
    "town": "落合"
  },
  "4000424": {
    "zipcode": "4000424",
    "prefectureCode": "19",
    "prefectureNumber": 19,
    "prefecture": "山梨県",
    "city": "南アルプス市",
    "town": "秋山"
  },
  "4000425": {
    "zipcode": "4000425",
    "prefectureCode": "19",
    "prefectureNumber": 19,
    "prefecture": "山梨県",
    "city": "南アルプス市",
    "town": "湯沢"
  },
  "4000426": {
    "zipcode": "4000426",
    "prefectureCode": "19",
    "prefectureNumber": 19,
    "prefecture": "山梨県",
    "city": "南アルプス市",
    "town": "塚原"
  },
  "4000500": {
    "zipcode": "4000500",
    "prefectureCode": "19",
    "prefectureNumber": 19,
    "prefecture": "山梨県",
    "city": "南巨摩郡富士川町",
    "town": "以下に掲載がない場合"
  },
  "4000501": {
    "zipcode": "4000501",
    "prefectureCode": "19",
    "prefectureNumber": 19,
    "prefecture": "山梨県",
    "city": "南巨摩郡富士川町",
    "town": "青柳町"
  },
  "4000502": {
    "zipcode": "4000502",
    "prefectureCode": "19",
    "prefectureNumber": 19,
    "prefecture": "山梨県",
    "city": "南巨摩郡富士川町",
    "town": "最勝寺"
  },
  "4000503": {
    "zipcode": "4000503",
    "prefectureCode": "19",
    "prefectureNumber": 19,
    "prefecture": "山梨県",
    "city": "南巨摩郡富士川町",
    "town": "天神中條"
  },
  "4000504": {
    "zipcode": "4000504",
    "prefectureCode": "19",
    "prefectureNumber": 19,
    "prefecture": "山梨県",
    "city": "南巨摩郡富士川町",
    "town": "小林"
  },
  "4000505": {
    "zipcode": "4000505",
    "prefectureCode": "19",
    "prefectureNumber": 19,
    "prefecture": "山梨県",
    "city": "南巨摩郡富士川町",
    "town": "長澤"
  },
  "4000506": {
    "zipcode": "4000506",
    "prefectureCode": "19",
    "prefectureNumber": 19,
    "prefecture": "山梨県",
    "city": "南巨摩郡富士川町",
    "town": "大椚"
  },
  "4000511": {
    "zipcode": "4000511",
    "prefectureCode": "19",
    "prefectureNumber": 19,
    "prefecture": "山梨県",
    "city": "南巨摩郡富士川町",
    "town": "大久保"
  },
  "4000512": {
    "zipcode": "4000512",
    "prefectureCode": "19",
    "prefectureNumber": 19,
    "prefecture": "山梨県",
    "city": "南巨摩郡富士川町",
    "town": "小室"
  },
  "4000513": {
    "zipcode": "4000513",
    "prefectureCode": "19",
    "prefectureNumber": 19,
    "prefecture": "山梨県",
    "city": "南巨摩郡富士川町",
    "town": "高下"
  },
  "4000514": {
    "zipcode": "4000514",
    "prefectureCode": "19",
    "prefectureNumber": 19,
    "prefecture": "山梨県",
    "city": "南巨摩郡富士川町",
    "town": "平林"
  },
  "4000515": {
    "zipcode": "4000515",
    "prefectureCode": "19",
    "prefectureNumber": 19,
    "prefecture": "山梨県",
    "city": "南巨摩郡富士川町",
    "town": "舂米"
  },
  "4000601": {
    "zipcode": "4000601",
    "prefectureCode": "19",
    "prefectureNumber": 19,
    "prefecture": "山梨県",
    "city": "南巨摩郡富士川町",
    "town": "鰍沢"
  },
  "4000602": {
    "zipcode": "4000602",
    "prefectureCode": "19",
    "prefectureNumber": 19,
    "prefecture": "山梨県",
    "city": "南巨摩郡富士川町",
    "town": "駅前通"
  },
  "4000603": {
    "zipcode": "4000603",
    "prefectureCode": "19",
    "prefectureNumber": 19,
    "prefecture": "山梨県",
    "city": "南巨摩郡富士川町",
    "town": "鹿島"
  },
  "4000604": {
    "zipcode": "4000604",
    "prefectureCode": "19",
    "prefectureNumber": 19,
    "prefecture": "山梨県",
    "city": "南巨摩郡富士川町",
    "town": "箱原"
  },
  "4000605": {
    "zipcode": "4000605",
    "prefectureCode": "19",
    "prefectureNumber": 19,
    "prefecture": "山梨県",
    "city": "南巨摩郡富士川町",
    "town": "柳川"
  },
  "4000606": {
    "zipcode": "4000606",
    "prefectureCode": "19",
    "prefectureNumber": 19,
    "prefecture": "山梨県",
    "city": "南巨摩郡富士川町",
    "town": "十谷"
  },
  "4000607": {
    "zipcode": "4000607",
    "prefectureCode": "19",
    "prefectureNumber": 19,
    "prefecture": "山梨県",
    "city": "南巨摩郡富士川町",
    "town": "鳥屋"
  },
  "4000608": {
    "zipcode": "4000608",
    "prefectureCode": "19",
    "prefectureNumber": 19,
    "prefecture": "山梨県",
    "city": "南巨摩郡富士川町",
    "town": "長知沢"
  },
  "4000801": {
    "zipcode": "4000801",
    "prefectureCode": "19",
    "prefectureNumber": 19,
    "prefecture": "山梨県",
    "city": "甲府市",
    "town": "善光寺町"
  },
  "4000802": {
    "zipcode": "4000802",
    "prefectureCode": "19",
    "prefectureNumber": 19,
    "prefecture": "山梨県",
    "city": "甲府市",
    "town": "横根町"
  },
  "4000803": {
    "zipcode": "4000803",
    "prefectureCode": "19",
    "prefectureNumber": 19,
    "prefecture": "山梨県",
    "city": "甲府市",
    "town": "桜井町"
  },
  "4000804": {
    "zipcode": "4000804",
    "prefectureCode": "19",
    "prefectureNumber": 19,
    "prefecture": "山梨県",
    "city": "甲府市",
    "town": "酒折町"
  },
  "4000805": {
    "zipcode": "4000805",
    "prefectureCode": "19",
    "prefectureNumber": 19,
    "prefecture": "山梨県",
    "city": "甲府市",
    "town": "酒折"
  },
  "4000806": {
    "zipcode": "4000806",
    "prefectureCode": "19",
    "prefectureNumber": 19,
    "prefecture": "山梨県",
    "city": "甲府市",
    "town": "善光寺"
  },
  "4000807": {
    "zipcode": "4000807",
    "prefectureCode": "19",
    "prefectureNumber": 19,
    "prefecture": "山梨県",
    "city": "甲府市",
    "town": "東光寺"
  },
  "4000808": {
    "zipcode": "4000808",
    "prefectureCode": "19",
    "prefectureNumber": 19,
    "prefecture": "山梨県",
    "city": "甲府市",
    "town": "東光寺町"
  },
  "4000811": {
    "zipcode": "4000811",
    "prefectureCode": "19",
    "prefectureNumber": 19,
    "prefecture": "山梨県",
    "city": "甲府市",
    "town": "川田町"
  },
  "4000812": {
    "zipcode": "4000812",
    "prefectureCode": "19",
    "prefectureNumber": 19,
    "prefecture": "山梨県",
    "city": "甲府市",
    "town": "和戸町"
  },
  "4000813": {
    "zipcode": "4000813",
    "prefectureCode": "19",
    "prefectureNumber": 19,
    "prefecture": "山梨県",
    "city": "甲府市",
    "town": "向町"
  },
  "4000814": {
    "zipcode": "4000814",
    "prefectureCode": "19",
    "prefectureNumber": 19,
    "prefecture": "山梨県",
    "city": "甲府市",
    "town": "上阿原町"
  },
  "4000815": {
    "zipcode": "4000815",
    "prefectureCode": "19",
    "prefectureNumber": 19,
    "prefecture": "山梨県",
    "city": "甲府市",
    "town": "国玉町"
  },
  "4000821": {
    "zipcode": "4000821",
    "prefectureCode": "19",
    "prefectureNumber": 19,
    "prefecture": "山梨県",
    "city": "甲府市",
    "town": "砂田町"
  },
  "4000822": {
    "zipcode": "4000822",
    "prefectureCode": "19",
    "prefectureNumber": 19,
    "prefecture": "山梨県",
    "city": "甲府市",
    "town": "里吉"
  },
  "4000823": {
    "zipcode": "4000823",
    "prefectureCode": "19",
    "prefectureNumber": 19,
    "prefecture": "山梨県",
    "city": "甲府市",
    "town": "里吉町"
  },
  "4000824": {
    "zipcode": "4000824",
    "prefectureCode": "19",
    "prefectureNumber": 19,
    "prefecture": "山梨県",
    "city": "甲府市",
    "town": "蓬沢町"
  },
  "4000825": {
    "zipcode": "4000825",
    "prefectureCode": "19",
    "prefectureNumber": 19,
    "prefecture": "山梨県",
    "city": "甲府市",
    "town": "七沢町"
  },
  "4000826": {
    "zipcode": "4000826",
    "prefectureCode": "19",
    "prefectureNumber": 19,
    "prefecture": "山梨県",
    "city": "甲府市",
    "town": "西高橋町"
  },
  "4000827": {
    "zipcode": "4000827",
    "prefectureCode": "19",
    "prefectureNumber": 19,
    "prefecture": "山梨県",
    "city": "甲府市",
    "town": "蓬沢"
  },
  "4000828": {
    "zipcode": "4000828",
    "prefectureCode": "19",
    "prefectureNumber": 19,
    "prefecture": "山梨県",
    "city": "甲府市",
    "town": "青葉町"
  },
  "4000831": {
    "zipcode": "4000831",
    "prefectureCode": "19",
    "prefectureNumber": 19,
    "prefecture": "山梨県",
    "city": "甲府市",
    "town": "上町"
  },
  "4000832": {
    "zipcode": "4000832",
    "prefectureCode": "19",
    "prefectureNumber": 19,
    "prefecture": "山梨県",
    "city": "甲府市",
    "town": "増坪町"
  },
  "4000833": {
    "zipcode": "4000833",
    "prefectureCode": "19",
    "prefectureNumber": 19,
    "prefecture": "山梨県",
    "city": "甲府市",
    "town": "西油川町"
  },
  "4000834": {
    "zipcode": "4000834",
    "prefectureCode": "19",
    "prefectureNumber": 19,
    "prefecture": "山梨県",
    "city": "甲府市",
    "town": "落合町"
  },
  "4000835": {
    "zipcode": "4000835",
    "prefectureCode": "19",
    "prefectureNumber": 19,
    "prefecture": "山梨県",
    "city": "甲府市",
    "town": "下鍛冶屋町"
  },
  "4000836": {
    "zipcode": "4000836",
    "prefectureCode": "19",
    "prefectureNumber": 19,
    "prefecture": "山梨県",
    "city": "甲府市",
    "town": "小瀬町"
  },
  "4000841": {
    "zipcode": "4000841",
    "prefectureCode": "19",
    "prefectureNumber": 19,
    "prefecture": "山梨県",
    "city": "甲府市",
    "town": "小曲町"
  },
  "4000842": {
    "zipcode": "4000842",
    "prefectureCode": "19",
    "prefectureNumber": 19,
    "prefecture": "山梨県",
    "city": "甲府市",
    "town": "下今井町"
  },
  "4000843": {
    "zipcode": "4000843",
    "prefectureCode": "19",
    "prefectureNumber": 19,
    "prefecture": "山梨県",
    "city": "甲府市",
    "town": "東下条町"
  },
  "4000844": {
    "zipcode": "4000844",
    "prefectureCode": "19",
    "prefectureNumber": 19,
    "prefecture": "山梨県",
    "city": "甲府市",
    "town": "中町"
  },
  "4000845": {
    "zipcode": "4000845",
    "prefectureCode": "19",
    "prefectureNumber": 19,
    "prefecture": "山梨県",
    "city": "甲府市",
    "town": "上今井町"
  },
  "4000851": {
    "zipcode": "4000851",
    "prefectureCode": "19",
    "prefectureNumber": 19,
    "prefecture": "山梨県",
    "city": "甲府市",
    "town": "住吉"
  },
  "4000852": {
    "zipcode": "4000852",
    "prefectureCode": "19",
    "prefectureNumber": 19,
    "prefecture": "山梨県",
    "city": "甲府市",
    "town": "住吉本町"
  },
  "4000853": {
    "zipcode": "4000853",
    "prefectureCode": "19",
    "prefectureNumber": 19,
    "prefecture": "山梨県",
    "city": "甲府市",
    "town": "下小河原町"
  },
  "4000854": {
    "zipcode": "4000854",
    "prefectureCode": "19",
    "prefectureNumber": 19,
    "prefecture": "山梨県",
    "city": "甲府市",
    "town": "中小河原町"
  },
  "4000855": {
    "zipcode": "4000855",
    "prefectureCode": "19",
    "prefectureNumber": 19,
    "prefecture": "山梨県",
    "city": "甲府市",
    "town": "中小河原"
  },
  "4000856": {
    "zipcode": "4000856",
    "prefectureCode": "19",
    "prefectureNumber": 19,
    "prefecture": "山梨県",
    "city": "甲府市",
    "town": "伊勢"
  },
  "4000857": {
    "zipcode": "4000857",
    "prefectureCode": "19",
    "prefectureNumber": 19,
    "prefecture": "山梨県",
    "city": "甲府市",
    "town": "幸町"
  },
  "4000858": {
    "zipcode": "4000858",
    "prefectureCode": "19",
    "prefectureNumber": 19,
    "prefecture": "山梨県",
    "city": "甲府市",
    "town": "相生"
  },
  "4000861": {
    "zipcode": "4000861",
    "prefectureCode": "19",
    "prefectureNumber": 19,
    "prefecture": "山梨県",
    "city": "甲府市",
    "town": "城東"
  },
  "4000862": {
    "zipcode": "4000862",
    "prefectureCode": "19",
    "prefectureNumber": 19,
    "prefecture": "山梨県",
    "city": "甲府市",
    "town": "朝気"
  },
  "4000863": {
    "zipcode": "4000863",
    "prefectureCode": "19",
    "prefectureNumber": 19,
    "prefecture": "山梨県",
    "city": "甲府市",
    "town": "南口町"
  },
  "4000864": {
    "zipcode": "4000864",
    "prefectureCode": "19",
    "prefectureNumber": 19,
    "prefecture": "山梨県",
    "city": "甲府市",
    "town": "湯田"
  },
  "4000865": {
    "zipcode": "4000865",
    "prefectureCode": "19",
    "prefectureNumber": 19,
    "prefecture": "山梨県",
    "city": "甲府市",
    "town": "太田町"
  },
  "4000866": {
    "zipcode": "4000866",
    "prefectureCode": "19",
    "prefectureNumber": 19,
    "prefecture": "山梨県",
    "city": "甲府市",
    "town": "若松町"
  },
  "4000867": {
    "zipcode": "4000867",
    "prefectureCode": "19",
    "prefectureNumber": 19,
    "prefecture": "山梨県",
    "city": "甲府市",
    "town": "青沼"
  },
  "4001111": {
    "zipcode": "4001111",
    "prefectureCode": "19",
    "prefectureNumber": 19,
    "prefecture": "山梨県",
    "city": "甲斐市",
    "town": "千田"
  },
  "4001112": {
    "zipcode": "4001112",
    "prefectureCode": "19",
    "prefectureNumber": 19,
    "prefecture": "山梨県",
    "city": "甲斐市",
    "town": "吉沢"
  },
  "4001113": {
    "zipcode": "4001113",
    "prefectureCode": "19",
    "prefectureNumber": 19,
    "prefecture": "山梨県",
    "city": "甲斐市",
    "town": "亀沢（その他）"
  },
  "4001114": {
    "zipcode": "4001114",
    "prefectureCode": "19",
    "prefectureNumber": 19,
    "prefecture": "山梨県",
    "city": "甲斐市",
    "town": "打返"
  },
  "4001115": {
    "zipcode": "4001115",
    "prefectureCode": "19",
    "prefectureNumber": 19,
    "prefecture": "山梨県",
    "city": "甲斐市",
    "town": "漆戸"
  },
  "4001116": {
    "zipcode": "4001116",
    "prefectureCode": "19",
    "prefectureNumber": 19,
    "prefecture": "山梨県",
    "city": "甲斐市",
    "town": "獅子平"
  },
  "4001117": {
    "zipcode": "4001117",
    "prefectureCode": "19",
    "prefectureNumber": 19,
    "prefecture": "山梨県",
    "city": "甲斐市",
    "town": "上菅口"
  },
  "4001121": {
    "zipcode": "4001121",
    "prefectureCode": "19",
    "prefectureNumber": 19,
    "prefecture": "山梨県",
    "city": "甲斐市",
    "town": "上芦沢"
  },
  "4001122": {
    "zipcode": "4001122",
    "prefectureCode": "19",
    "prefectureNumber": 19,
    "prefecture": "山梨県",
    "city": "甲斐市",
    "town": "下芦沢"
  },
  "4001123": {
    "zipcode": "4001123",
    "prefectureCode": "19",
    "prefectureNumber": 19,
    "prefecture": "山梨県",
    "city": "甲斐市",
    "town": "上福沢"
  },
  "4001124": {
    "zipcode": "4001124",
    "prefectureCode": "19",
    "prefectureNumber": 19,
    "prefecture": "山梨県",
    "city": "甲斐市",
    "town": "下福沢"
  },
  "4001125": {
    "zipcode": "4001125",
    "prefectureCode": "19",
    "prefectureNumber": 19,
    "prefecture": "山梨県",
    "city": "甲斐市",
    "town": "下菅口"
  },
  "4001126": {
    "zipcode": "4001126",
    "prefectureCode": "19",
    "prefectureNumber": 19,
    "prefecture": "山梨県",
    "city": "甲斐市",
    "town": "安寺"
  },
  "4001127": {
    "zipcode": "4001127",
    "prefectureCode": "19",
    "prefectureNumber": 19,
    "prefecture": "山梨県",
    "city": "甲斐市",
    "town": "神戸"
  },
  "4001131": {
    "zipcode": "4001131",
    "prefectureCode": "19",
    "prefectureNumber": 19,
    "prefecture": "山梨県",
    "city": "甲斐市",
    "town": "亀沢（大明神、６９４９番地）"
  },
  "4001211": {
    "zipcode": "4001211",
    "prefectureCode": "19",
    "prefectureNumber": 19,
    "prefecture": "山梨県",
    "city": "甲府市",
    "town": "黒平町"
  },
  "4001212": {
    "zipcode": "4001212",
    "prefectureCode": "19",
    "prefectureNumber": 19,
    "prefecture": "山梨県",
    "city": "甲府市",
    "town": "高町"
  },
  "4001213": {
    "zipcode": "4001213",
    "prefectureCode": "19",
    "prefectureNumber": 19,
    "prefecture": "山梨県",
    "city": "甲府市",
    "town": "川窪町"
  },
  "4001214": {
    "zipcode": "4001214",
    "prefectureCode": "19",
    "prefectureNumber": 19,
    "prefecture": "山梨県",
    "city": "甲府市",
    "town": "高成町"
  },
  "4001215": {
    "zipcode": "4001215",
    "prefectureCode": "19",
    "prefectureNumber": 19,
    "prefecture": "山梨県",
    "city": "甲府市",
    "town": "竹日向町"
  },
  "4001216": {
    "zipcode": "4001216",
    "prefectureCode": "19",
    "prefectureNumber": 19,
    "prefecture": "山梨県",
    "city": "甲府市",
    "town": "塔岩町"
  },
  "4001217": {
    "zipcode": "4001217",
    "prefectureCode": "19",
    "prefectureNumber": 19,
    "prefecture": "山梨県",
    "city": "甲府市",
    "town": "猪狩町"
  },
  "4001218": {
    "zipcode": "4001218",
    "prefectureCode": "19",
    "prefectureNumber": 19,
    "prefecture": "山梨県",
    "city": "甲府市",
    "town": "御岳町"
  },
  "4001219": {
    "zipcode": "4001219",
    "prefectureCode": "19",
    "prefectureNumber": 19,
    "prefecture": "山梨県",
    "city": "甲府市",
    "town": "草鹿沢町"
  },
  "4001501": {
    "zipcode": "4001501",
    "prefectureCode": "19",
    "prefectureNumber": 19,
    "prefecture": "山梨県",
    "city": "甲府市",
    "town": "上曽根町"
  },
  "4001502": {
    "zipcode": "4001502",
    "prefectureCode": "19",
    "prefectureNumber": 19,
    "prefecture": "山梨県",
    "city": "甲府市",
    "town": "白井町"
  },
  "4001503": {
    "zipcode": "4001503",
    "prefectureCode": "19",
    "prefectureNumber": 19,
    "prefecture": "山梨県",
    "city": "甲府市",
    "town": "心経寺町"
  },
  "4001504": {
    "zipcode": "4001504",
    "prefectureCode": "19",
    "prefectureNumber": 19,
    "prefecture": "山梨県",
    "city": "甲府市",
    "town": "右左口町"
  },
  "4001505": {
    "zipcode": "4001505",
    "prefectureCode": "19",
    "prefectureNumber": 19,
    "prefecture": "山梨県",
    "city": "甲府市",
    "town": "中畑町"
  },
  "4001506": {
    "zipcode": "4001506",
    "prefectureCode": "19",
    "prefectureNumber": 19,
    "prefecture": "山梨県",
    "city": "甲府市",
    "town": "上向山町"
  },
  "4001507": {
    "zipcode": "4001507",
    "prefectureCode": "19",
    "prefectureNumber": 19,
    "prefecture": "山梨県",
    "city": "甲府市",
    "town": "下向山町"
  },
  "4001508": {
    "zipcode": "4001508",
    "prefectureCode": "19",
    "prefectureNumber": 19,
    "prefecture": "山梨県",
    "city": "甲府市",
    "town": "下曽根町"
  },
  "4001511": {
    "zipcode": "4001511",
    "prefectureCode": "19",
    "prefectureNumber": 19,
    "prefecture": "山梨県",
    "city": "中央市",
    "town": "木原"
  },
  "4001512": {
    "zipcode": "4001512",
    "prefectureCode": "19",
    "prefectureNumber": 19,
    "prefecture": "山梨県",
    "city": "中央市",
    "town": "関原"
  },
  "4001513": {
    "zipcode": "4001513",
    "prefectureCode": "19",
    "prefectureNumber": 19,
    "prefecture": "山梨県",
    "city": "中央市",
    "town": "大鳥居"
  },
  "4001514": {
    "zipcode": "4001514",
    "prefectureCode": "19",
    "prefectureNumber": 19,
    "prefecture": "山梨県",
    "city": "中央市",
    "town": "浅利"
  },
  "4001515": {
    "zipcode": "4001515",
    "prefectureCode": "19",
    "prefectureNumber": 19,
    "prefecture": "山梨県",
    "city": "中央市",
    "town": "高部"
  }
}
