{
  "4010000": {
    "zipcode": "4010000",
    "prefectureCode": "19",
    "prefectureNumber": 19,
    "prefecture": "山梨県",
    "city": "大月市",
    "town": "以下に掲載がない場合"
  },
  "4010001": {
    "zipcode": "4010001",
    "prefectureCode": "19",
    "prefectureNumber": 19,
    "prefecture": "山梨県",
    "city": "大月市",
    "town": "賑岡町畑倉"
  },
  "4010002": {
    "zipcode": "4010002",
    "prefectureCode": "19",
    "prefectureNumber": 19,
    "prefecture": "山梨県",
    "city": "大月市",
    "town": "賑岡町岩殿"
  },
  "4010003": {
    "zipcode": "4010003",
    "prefectureCode": "19",
    "prefectureNumber": 19,
    "prefecture": "山梨県",
    "city": "大月市",
    "town": "賑岡町ゆりケ丘"
  },
  "4010004": {
    "zipcode": "4010004",
    "prefectureCode": "19",
    "prefectureNumber": 19,
    "prefecture": "山梨県",
    "city": "大月市",
    "town": "賑岡町強瀬"
  },
  "4010005": {
    "zipcode": "4010005",
    "prefectureCode": "19",
    "prefectureNumber": 19,
    "prefecture": "山梨県",
    "city": "大月市",
    "town": "賑岡町浅利"
  },
  "4010006": {
    "zipcode": "4010006",
    "prefectureCode": "19",
    "prefectureNumber": 19,
    "prefecture": "山梨県",
    "city": "大月市",
    "town": "賑岡町奥山"
  },
  "4010011": {
    "zipcode": "4010011",
    "prefectureCode": "19",
    "prefectureNumber": 19,
    "prefecture": "山梨県",
    "city": "大月市",
    "town": "駒橋"
  },
  "4010012": {
    "zipcode": "4010012",
    "prefectureCode": "19",
    "prefectureNumber": 19,
    "prefecture": "山梨県",
    "city": "大月市",
    "town": "御太刀"
  },
  "4010013": {
    "zipcode": "4010013",
    "prefectureCode": "19",
    "prefectureNumber": 19,
    "prefecture": "山梨県",
    "city": "大月市",
    "town": "大月（１〜３丁目）"
  },
  "4010014": {
    "zipcode": "4010014",
    "prefectureCode": "19",
    "prefectureNumber": 19,
    "prefecture": "山梨県",
    "city": "大月市",
    "town": "大月町大月"
  },
  "4010015": {
    "zipcode": "4010015",
    "prefectureCode": "19",
    "prefectureNumber": 19,
    "prefecture": "山梨県",
    "city": "大月市",
    "town": "大月町花咲"
  },
  "4010016": {
    "zipcode": "4010016",
    "prefectureCode": "19",
    "prefectureNumber": 19,
    "prefecture": "山梨県",
    "city": "大月市",
    "town": "大月町真木"
  },
  "4010021": {
    "zipcode": "4010021",
    "prefectureCode": "19",
    "prefectureNumber": 19,
    "prefecture": "山梨県",
    "city": "大月市",
    "town": "初狩町下初狩"
  },
  "4010022": {
    "zipcode": "4010022",
    "prefectureCode": "19",
    "prefectureNumber": 19,
    "prefecture": "山梨県",
    "city": "大月市",
    "town": "初狩町中初狩"
  },
  "4010023": {
    "zipcode": "4010023",
    "prefectureCode": "19",
    "prefectureNumber": 19,
    "prefecture": "山梨県",
    "city": "大月市",
    "town": "笹子町白野"
  },
  "4010024": {
    "zipcode": "4010024",
    "prefectureCode": "19",
    "prefectureNumber": 19,
    "prefecture": "山梨県",
    "city": "大月市",
    "town": "笹子町吉久保"
  },
  "4010025": {
    "zipcode": "4010025",
    "prefectureCode": "19",
    "prefectureNumber": 19,
    "prefecture": "山梨県",
    "city": "大月市",
    "town": "笹子町黒野田"
  },
  "4010201": {
    "zipcode": "4010201",
    "prefectureCode": "19",
    "prefectureNumber": 19,
    "prefecture": "山梨県",
    "city": "上野原市",
    "town": "秋山"
  },
  "4010300": {
    "zipcode": "4010300",
    "prefectureCode": "19",
    "prefectureNumber": 19,
    "prefecture": "山梨県",
    "city": "南都留郡富士河口湖町",
    "town": "以下に掲載がない場合"
  },
  "4010301": {
    "zipcode": "4010301",
    "prefectureCode": "19",
    "prefectureNumber": 19,
    "prefecture": "山梨県",
    "city": "南都留郡富士河口湖町",
    "town": "船津"
  },
  "4010302": {
    "zipcode": "4010302",
    "prefectureCode": "19",
    "prefectureNumber": 19,
    "prefecture": "山梨県",
    "city": "南都留郡富士河口湖町",
    "town": "小立"
  },
  "4010303": {
    "zipcode": "4010303",
    "prefectureCode": "19",
    "prefectureNumber": 19,
    "prefecture": "山梨県",
    "city": "南都留郡富士河口湖町",
    "town": "浅川"
  },
  "4010304": {
    "zipcode": "4010304",
    "prefectureCode": "19",
    "prefectureNumber": 19,
    "prefecture": "山梨県",
    "city": "南都留郡富士河口湖町",
    "town": "河口"
  },
  "4010305": {
    "zipcode": "4010305",
    "prefectureCode": "19",
    "prefectureNumber": 19,
    "prefecture": "山梨県",
    "city": "南都留郡富士河口湖町",
    "town": "大石"
  },
  "4010310": {
    "zipcode": "4010310",
    "prefectureCode": "19",
    "prefectureNumber": 19,
    "prefecture": "山梨県",
    "city": "南都留郡富士河口湖町",
    "town": "勝山"
  },
  "4010320": {
    "zipcode": "4010320",
    "prefectureCode": "19",
    "prefectureNumber": 19,
    "prefecture": "山梨県",
    "city": "南都留郡鳴沢村",
    "town": "鳴沢村一円"
  },
  "4010331": {
    "zipcode": "4010331",
    "prefectureCode": "19",
    "prefectureNumber": 19,
    "prefecture": "山梨県",
    "city": "南都留郡富士河口湖町",
    "town": "長浜"
  },
  "4010332": {
    "zipcode": "4010332",
    "prefectureCode": "19",
    "prefectureNumber": 19,
    "prefecture": "山梨県",
    "city": "南都留郡富士河口湖町",
    "town": "西湖"
  },
  "4010333": {
    "zipcode": "4010333",
    "prefectureCode": "19",
    "prefectureNumber": 19,
    "prefecture": "山梨県",
    "city": "南都留郡富士河口湖町",
    "town": "西湖西"
  },
  "4010334": {
    "zipcode": "4010334",
    "prefectureCode": "19",
    "prefectureNumber": 19,
    "prefecture": "山梨県",
    "city": "南都留郡富士河口湖町",
    "town": "西湖南"
  },
  "4010335": {
    "zipcode": "4010335",
    "prefectureCode": "19",
    "prefectureNumber": 19,
    "prefecture": "山梨県",
    "city": "南都留郡富士河口湖町",
    "town": "大嵐"
  },
  "4010336": {
    "zipcode": "4010336",
    "prefectureCode": "19",
    "prefectureNumber": 19,
    "prefecture": "山梨県",
    "city": "南都留郡富士河口湖町",
    "town": "精進"
  },
  "4010337": {
    "zipcode": "4010337",
    "prefectureCode": "19",
    "prefectureNumber": 19,
    "prefecture": "山梨県",
    "city": "南都留郡富士河口湖町",
    "town": "本栖"
  },
  "4010338": {
    "zipcode": "4010338",
    "prefectureCode": "19",
    "prefectureNumber": 19,
    "prefecture": "山梨県",
    "city": "南都留郡富士河口湖町",
    "town": "富士ケ嶺"
  },
  "4010500": {
    "zipcode": "4010500",
    "prefectureCode": "19",
    "prefectureNumber": 19,
    "prefecture": "山梨県",
    "city": "南都留郡山中湖村",
    "town": "以下に掲載がない場合"
  },
  "4010501": {
    "zipcode": "4010501",
    "prefectureCode": "19",
    "prefectureNumber": 19,
    "prefecture": "山梨県",
    "city": "南都留郡山中湖村",
    "town": "山中"
  },
  "4010502": {
    "zipcode": "4010502",
    "prefectureCode": "19",
    "prefectureNumber": 19,
    "prefecture": "山梨県",
    "city": "南都留郡山中湖村",
    "town": "平野"
  },
  "4010511": {
    "zipcode": "4010511",
    "prefectureCode": "19",
    "prefectureNumber": 19,
    "prefecture": "山梨県",
    "city": "南都留郡忍野村",
    "town": "忍草"
  },
  "4010512": {
    "zipcode": "4010512",
    "prefectureCode": "19",
    "prefectureNumber": 19,
    "prefecture": "山梨県",
    "city": "南都留郡忍野村",
    "town": "内野"
  }
}
