{
  "4020000": {
    "zipcode": "4020000",
    "prefectureCode": "19",
    "prefectureNumber": 19,
    "prefecture": "山梨県",
    "city": "都留市",
    "town": "以下に掲載がない場合"
  },
  "4020001": {
    "zipcode": "4020001",
    "prefectureCode": "19",
    "prefectureNumber": 19,
    "prefecture": "山梨県",
    "city": "都留市",
    "town": "田野倉"
  },
  "4020002": {
    "zipcode": "4020002",
    "prefectureCode": "19",
    "prefectureNumber": 19,
    "prefecture": "山梨県",
    "city": "都留市",
    "town": "大原"
  },
  "4020003": {
    "zipcode": "4020003",
    "prefectureCode": "19",
    "prefectureNumber": 19,
    "prefecture": "山梨県",
    "city": "都留市",
    "town": "川茂"
  },
  "4020004": {
    "zipcode": "4020004",
    "prefectureCode": "19",
    "prefectureNumber": 19,
    "prefecture": "山梨県",
    "city": "都留市",
    "town": "古川渡"
  },
  "4020005": {
    "zipcode": "4020005",
    "prefectureCode": "19",
    "prefectureNumber": 19,
    "prefecture": "山梨県",
    "city": "都留市",
    "town": "四日市場"
  },
  "4020006": {
    "zipcode": "4020006",
    "prefectureCode": "19",
    "prefectureNumber": 19,
    "prefecture": "山梨県",
    "city": "都留市",
    "town": "小形山"
  },
  "4020011": {
    "zipcode": "4020011",
    "prefectureCode": "19",
    "prefectureNumber": 19,
    "prefecture": "山梨県",
    "city": "都留市",
    "town": "井倉"
  },
  "4020012": {
    "zipcode": "4020012",
    "prefectureCode": "19",
    "prefectureNumber": 19,
    "prefecture": "山梨県",
    "city": "都留市",
    "town": "与縄"
  },
  "4020013": {
    "zipcode": "4020013",
    "prefectureCode": "19",
    "prefectureNumber": 19,
    "prefecture": "山梨県",
    "city": "都留市",
    "town": "盛里"
  },
  "4020014": {
    "zipcode": "4020014",
    "prefectureCode": "19",
    "prefectureNumber": 19,
    "prefecture": "山梨県",
    "city": "都留市",
    "town": "朝日馬場"
  },
  "4020015": {
    "zipcode": "4020015",
    "prefectureCode": "19",
    "prefectureNumber": 19,
    "prefecture": "山梨県",
    "city": "都留市",
    "town": "朝日曽雌"
  },
  "4020021": {
    "zipcode": "4020021",
    "prefectureCode": "19",
    "prefectureNumber": 19,
    "prefecture": "山梨県",
    "city": "都留市",
    "town": "玉川"
  },
  "4020022": {
    "zipcode": "4020022",
    "prefectureCode": "19",
    "prefectureNumber": 19,
    "prefecture": "山梨県",
    "city": "都留市",
    "town": "戸沢"
  },
  "4020023": {
    "zipcode": "4020023",
    "prefectureCode": "19",
    "prefectureNumber": 19,
    "prefecture": "山梨県",
    "city": "都留市",
    "town": "大野"
  },
  "4020024": {
    "zipcode": "4020024",
    "prefectureCode": "19",
    "prefectureNumber": 19,
    "prefecture": "山梨県",
    "city": "都留市",
    "town": "小野"
  },
  "4020025": {
    "zipcode": "4020025",
    "prefectureCode": "19",
    "prefectureNumber": 19,
    "prefecture": "山梨県",
    "city": "都留市",
    "town": "法能"
  },
  "4020031": {
    "zipcode": "4020031",
    "prefectureCode": "19",
    "prefectureNumber": 19,
    "prefecture": "山梨県",
    "city": "都留市",
    "town": "十日市場"
  },
  "4020032": {
    "zipcode": "4020032",
    "prefectureCode": "19",
    "prefectureNumber": 19,
    "prefecture": "山梨県",
    "city": "都留市",
    "town": "鹿留"
  },
  "4020033": {
    "zipcode": "4020033",
    "prefectureCode": "19",
    "prefectureNumber": 19,
    "prefecture": "山梨県",
    "city": "都留市",
    "town": "境"
  },
  "4020034": {
    "zipcode": "4020034",
    "prefectureCode": "19",
    "prefectureNumber": 19,
    "prefecture": "山梨県",
    "city": "都留市",
    "town": "桂町"
  },
  "4020035": {
    "zipcode": "4020035",
    "prefectureCode": "19",
    "prefectureNumber": 19,
    "prefecture": "山梨県",
    "city": "都留市",
    "town": "夏狩"
  },
  "4020041": {
    "zipcode": "4020041",
    "prefectureCode": "19",
    "prefectureNumber": 19,
    "prefecture": "山梨県",
    "city": "都留市",
    "town": "金井"
  },
  "4020042": {
    "zipcode": "4020042",
    "prefectureCode": "19",
    "prefectureNumber": 19,
    "prefecture": "山梨県",
    "city": "都留市",
    "town": "厚原"
  },
  "4020043": {
    "zipcode": "4020043",
    "prefectureCode": "19",
    "prefectureNumber": 19,
    "prefecture": "山梨県",
    "city": "都留市",
    "town": "平栗"
  },
  "4020044": {
    "zipcode": "4020044",
    "prefectureCode": "19",
    "prefectureNumber": 19,
    "prefecture": "山梨県",
    "city": "都留市",
    "town": "加畑"
  },
  "4020045": {
    "zipcode": "4020045",
    "prefectureCode": "19",
    "prefectureNumber": 19,
    "prefecture": "山梨県",
    "city": "都留市",
    "town": "大幡"
  },
  "4020046": {
    "zipcode": "4020046",
    "prefectureCode": "19",
    "prefectureNumber": 19,
    "prefecture": "山梨県",
    "city": "都留市",
    "town": "中津森"
  },
  "4020051": {
    "zipcode": "4020051",
    "prefectureCode": "19",
    "prefectureNumber": 19,
    "prefecture": "山梨県",
    "city": "都留市",
    "town": "下谷"
  },
  "4020052": {
    "zipcode": "4020052",
    "prefectureCode": "19",
    "prefectureNumber": 19,
    "prefecture": "山梨県",
    "city": "都留市",
    "town": "中央"
  },
  "4020053": {
    "zipcode": "4020053",
    "prefectureCode": "19",
    "prefectureNumber": 19,
    "prefecture": "山梨県",
    "city": "都留市",
    "town": "上谷"
  },
  "4020054": {
    "zipcode": "4020054",
    "prefectureCode": "19",
    "prefectureNumber": 19,
    "prefecture": "山梨県",
    "city": "都留市",
    "town": "田原"
  },
  "4020055": {
    "zipcode": "4020055",
    "prefectureCode": "19",
    "prefectureNumber": 19,
    "prefecture": "山梨県",
    "city": "都留市",
    "town": "川棚"
  },
  "4020056": {
    "zipcode": "4020056",
    "prefectureCode": "19",
    "prefectureNumber": 19,
    "prefecture": "山梨県",
    "city": "都留市",
    "town": "つる"
  },
  "4020200": {
    "zipcode": "4020200",
    "prefectureCode": "19",
    "prefectureNumber": 19,
    "prefecture": "山梨県",
    "city": "南都留郡道志村",
    "town": "以下に掲載がない場合"
  },
  "4020201": {
    "zipcode": "4020201",
    "prefectureCode": "19",
    "prefectureNumber": 19,
    "prefecture": "山梨県",
    "city": "南都留郡道志村",
    "town": "月夜野"
  },
  "4020202": {
    "zipcode": "4020202",
    "prefectureCode": "19",
    "prefectureNumber": 19,
    "prefecture": "山梨県",
    "city": "南都留郡道志村",
    "town": "大野"
  },
  "4020203": {
    "zipcode": "4020203",
    "prefectureCode": "19",
    "prefectureNumber": 19,
    "prefecture": "山梨県",
    "city": "南都留郡道志村",
    "town": "久保"
  },
  "4020204": {
    "zipcode": "4020204",
    "prefectureCode": "19",
    "prefectureNumber": 19,
    "prefecture": "山梨県",
    "city": "南都留郡道志村",
    "town": "大室指"
  },
  "4020205": {
    "zipcode": "4020205",
    "prefectureCode": "19",
    "prefectureNumber": 19,
    "prefecture": "山梨県",
    "city": "南都留郡道志村",
    "town": "椿"
  },
  "4020206": {
    "zipcode": "4020206",
    "prefectureCode": "19",
    "prefectureNumber": 19,
    "prefecture": "山梨県",
    "city": "南都留郡道志村",
    "town": "小善地"
  },
  "4020207": {
    "zipcode": "4020207",
    "prefectureCode": "19",
    "prefectureNumber": 19,
    "prefecture": "山梨県",
    "city": "南都留郡道志村",
    "town": "大栗"
  },
  "4020208": {
    "zipcode": "4020208",
    "prefectureCode": "19",
    "prefectureNumber": 19,
    "prefecture": "山梨県",
    "city": "南都留郡道志村",
    "town": "馬場"
  },
  "4020209": {
    "zipcode": "4020209",
    "prefectureCode": "19",
    "prefectureNumber": 19,
    "prefecture": "山梨県",
    "city": "南都留郡道志村",
    "town": "竹之本"
  },
  "4020211": {
    "zipcode": "4020211",
    "prefectureCode": "19",
    "prefectureNumber": 19,
    "prefecture": "山梨県",
    "city": "南都留郡道志村",
    "town": "東和出村"
  },
  "4020212": {
    "zipcode": "4020212",
    "prefectureCode": "19",
    "prefectureNumber": 19,
    "prefecture": "山梨県",
    "city": "南都留郡道志村",
    "town": "西和出村"
  },
  "4020213": {
    "zipcode": "4020213",
    "prefectureCode": "19",
    "prefectureNumber": 19,
    "prefecture": "山梨県",
    "city": "南都留郡道志村",
    "town": "谷相"
  },
  "4020214": {
    "zipcode": "4020214",
    "prefectureCode": "19",
    "prefectureNumber": 19,
    "prefecture": "山梨県",
    "city": "南都留郡道志村",
    "town": "川原畑"
  },
  "4020215": {
    "zipcode": "4020215",
    "prefectureCode": "19",
    "prefectureNumber": 19,
    "prefecture": "山梨県",
    "city": "南都留郡道志村",
    "town": "大指"
  },
  "4020216": {
    "zipcode": "4020216",
    "prefectureCode": "19",
    "prefectureNumber": 19,
    "prefecture": "山梨県",
    "city": "南都留郡道志村",
    "town": "釜之前"
  },
  "4020217": {
    "zipcode": "4020217",
    "prefectureCode": "19",
    "prefectureNumber": 19,
    "prefecture": "山梨県",
    "city": "南都留郡道志村",
    "town": "東神地"
  },
  "4020218": {
    "zipcode": "4020218",
    "prefectureCode": "19",
    "prefectureNumber": 19,
    "prefecture": "山梨県",
    "city": "南都留郡道志村",
    "town": "中神地"
  },
  "4020219": {
    "zipcode": "4020219",
    "prefectureCode": "19",
    "prefectureNumber": 19,
    "prefecture": "山梨県",
    "city": "南都留郡道志村",
    "town": "下中山"
  },
  "4020221": {
    "zipcode": "4020221",
    "prefectureCode": "19",
    "prefectureNumber": 19,
    "prefecture": "山梨県",
    "city": "南都留郡道志村",
    "town": "上中山"
  },
  "4020222": {
    "zipcode": "4020222",
    "prefectureCode": "19",
    "prefectureNumber": 19,
    "prefecture": "山梨県",
    "city": "南都留郡道志村",
    "town": "下善之木"
  },
  "4020223": {
    "zipcode": "4020223",
    "prefectureCode": "19",
    "prefectureNumber": 19,
    "prefecture": "山梨県",
    "city": "南都留郡道志村",
    "town": "上善之木"
  },
  "4020224": {
    "zipcode": "4020224",
    "prefectureCode": "19",
    "prefectureNumber": 19,
    "prefecture": "山梨県",
    "city": "南都留郡道志村",
    "town": "川村"
  },
  "4020225": {
    "zipcode": "4020225",
    "prefectureCode": "19",
    "prefectureNumber": 19,
    "prefecture": "山梨県",
    "city": "南都留郡道志村",
    "town": "板橋"
  },
  "4020226": {
    "zipcode": "4020226",
    "prefectureCode": "19",
    "prefectureNumber": 19,
    "prefecture": "山梨県",
    "city": "南都留郡道志村",
    "town": "下白井平"
  },
  "4020227": {
    "zipcode": "4020227",
    "prefectureCode": "19",
    "prefectureNumber": 19,
    "prefecture": "山梨県",
    "city": "南都留郡道志村",
    "town": "上白井平"
  },
  "4020228": {
    "zipcode": "4020228",
    "prefectureCode": "19",
    "prefectureNumber": 19,
    "prefecture": "山梨県",
    "city": "南都留郡道志村",
    "town": "長又"
  }
}
