{
  "4030000": {
    "zipcode": "4030000",
    "prefectureCode": "19",
    "prefectureNumber": 19,
    "prefecture": "山梨県",
    "city": "南都留郡西桂町",
    "town": "以下に掲載がない場合"
  },
  "4030001": {
    "zipcode": "4030001",
    "prefectureCode": "19",
    "prefectureNumber": 19,
    "prefecture": "山梨県",
    "city": "富士吉田市",
    "town": "上暮地"
  },
  "4030002": {
    "zipcode": "4030002",
    "prefectureCode": "19",
    "prefectureNumber": 19,
    "prefecture": "山梨県",
    "city": "富士吉田市",
    "town": "小明見"
  },
  "4030003": {
    "zipcode": "4030003",
    "prefectureCode": "19",
    "prefectureNumber": 19,
    "prefecture": "山梨県",
    "city": "富士吉田市",
    "town": "大明見"
  },
  "4030004": {
    "zipcode": "4030004",
    "prefectureCode": "19",
    "prefectureNumber": 19,
    "prefecture": "山梨県",
    "city": "富士吉田市",
    "town": "下吉田"
  },
  "4030005": {
    "zipcode": "4030005",
    "prefectureCode": "19",
    "prefectureNumber": 19,
    "prefecture": "山梨県",
    "city": "富士吉田市",
    "town": "上吉田"
  },
  "4030006": {
    "zipcode": "4030006",
    "prefectureCode": "19",
    "prefectureNumber": 19,
    "prefecture": "山梨県",
    "city": "富士吉田市",
    "town": "新屋"
  },
  "4030007": {
    "zipcode": "4030007",
    "prefectureCode": "19",
    "prefectureNumber": 19,
    "prefecture": "山梨県",
    "city": "富士吉田市",
    "town": "中曽根"
  },
  "4030008": {
    "zipcode": "4030008",
    "prefectureCode": "19",
    "prefectureNumber": 19,
    "prefecture": "山梨県",
    "city": "富士吉田市",
    "town": "下吉田東"
  },
  "4030009": {
    "zipcode": "4030009",
    "prefectureCode": "19",
    "prefectureNumber": 19,
    "prefecture": "山梨県",
    "city": "富士吉田市",
    "town": "富士見"
  },
  "4030011": {
    "zipcode": "4030011",
    "prefectureCode": "19",
    "prefectureNumber": 19,
    "prefecture": "山梨県",
    "city": "富士吉田市",
    "town": "新倉"
  },
  "4030012": {
    "zipcode": "4030012",
    "prefectureCode": "19",
    "prefectureNumber": 19,
    "prefecture": "山梨県",
    "city": "富士吉田市",
    "town": "旭"
  },
  "4030013": {
    "zipcode": "4030013",
    "prefectureCode": "19",
    "prefectureNumber": 19,
    "prefecture": "山梨県",
    "city": "富士吉田市",
    "town": "緑ケ丘"
  },
  "4030014": {
    "zipcode": "4030014",
    "prefectureCode": "19",
    "prefectureNumber": 19,
    "prefecture": "山梨県",
    "city": "富士吉田市",
    "town": "竜ケ丘"
  },
  "4030015": {
    "zipcode": "4030015",
    "prefectureCode": "19",
    "prefectureNumber": 19,
    "prefecture": "山梨県",
    "city": "富士吉田市",
    "town": "ときわ台"
  },
  "4030016": {
    "zipcode": "4030016",
    "prefectureCode": "19",
    "prefectureNumber": 19,
    "prefecture": "山梨県",
    "city": "富士吉田市",
    "town": "松山"
  },
  "4030017": {
    "zipcode": "4030017",
    "prefectureCode": "19",
    "prefectureNumber": 19,
    "prefecture": "山梨県",
    "city": "富士吉田市",
    "town": "新西原"
  },
  "4030018": {
    "zipcode": "4030018",
    "prefectureCode": "19",
    "prefectureNumber": 19,
    "prefecture": "山梨県",
    "city": "富士吉田市",
    "town": "向原"
  },
  "4030019": {
    "zipcode": "4030019",
    "prefectureCode": "19",
    "prefectureNumber": 19,
    "prefecture": "山梨県",
    "city": "富士吉田市",
    "town": "新町"
  },
  "4030021": {
    "zipcode": "4030021",
    "prefectureCode": "19",
    "prefectureNumber": 19,
    "prefecture": "山梨県",
    "city": "南都留郡西桂町",
    "town": "下暮地"
  },
  "4030022": {
    "zipcode": "4030022",
    "prefectureCode": "19",
    "prefectureNumber": 19,
    "prefecture": "山梨県",
    "city": "南都留郡西桂町",
    "town": "小沼"
  },
  "4030023": {
    "zipcode": "4030023",
    "prefectureCode": "19",
    "prefectureNumber": 19,
    "prefecture": "山梨県",
    "city": "南都留郡西桂町",
    "town": "倉見"
  },
  "4030031": {
    "zipcode": "4030031",
    "prefectureCode": "19",
    "prefectureNumber": 19,
    "prefecture": "山梨県",
    "city": "富士吉田市",
    "town": "浅間"
  },
  "4030032": {
    "zipcode": "4030032",
    "prefectureCode": "19",
    "prefectureNumber": 19,
    "prefecture": "山梨県",
    "city": "富士吉田市",
    "town": "上吉田東"
  }
}
