{
  "4040000": {
    "zipcode": "4040000",
    "prefectureCode": "19",
    "prefectureNumber": 19,
    "prefecture": "山梨県",
    "city": "甲州市",
    "town": "以下に掲載がない場合"
  },
  "4040001": {
    "zipcode": "4040001",
    "prefectureCode": "19",
    "prefectureNumber": 19,
    "prefecture": "山梨県",
    "city": "山梨市",
    "town": "牧丘町柳平"
  },
  "4040002": {
    "zipcode": "4040002",
    "prefectureCode": "19",
    "prefectureNumber": 19,
    "prefecture": "山梨県",
    "city": "山梨市",
    "town": "牧丘町杣口"
  },
  "4040003": {
    "zipcode": "4040003",
    "prefectureCode": "19",
    "prefectureNumber": 19,
    "prefecture": "山梨県",
    "city": "山梨市",
    "town": "牧丘町倉科"
  },
  "4040004": {
    "zipcode": "4040004",
    "prefectureCode": "19",
    "prefectureNumber": 19,
    "prefecture": "山梨県",
    "city": "山梨市",
    "town": "牧丘町西保下"
  },
  "4040005": {
    "zipcode": "4040005",
    "prefectureCode": "19",
    "prefectureNumber": 19,
    "prefecture": "山梨県",
    "city": "山梨市",
    "town": "牧丘町西保中"
  },
  "4040006": {
    "zipcode": "4040006",
    "prefectureCode": "19",
    "prefectureNumber": 19,
    "prefecture": "山梨県",
    "city": "山梨市",
    "town": "牧丘町牧平"
  },
  "4040007": {
    "zipcode": "4040007",
    "prefectureCode": "19",
    "prefectureNumber": 19,
    "prefecture": "山梨県",
    "city": "山梨市",
    "town": "牧丘町北原"
  },
  "4040011": {
    "zipcode": "4040011",
    "prefectureCode": "19",
    "prefectureNumber": 19,
    "prefecture": "山梨県",
    "city": "山梨市",
    "town": "牧丘町成沢"
  },
  "4040012": {
    "zipcode": "4040012",
    "prefectureCode": "19",
    "prefectureNumber": 19,
    "prefecture": "山梨県",
    "city": "山梨市",
    "town": "牧丘町室伏"
  },
  "4040013": {
    "zipcode": "4040013",
    "prefectureCode": "19",
    "prefectureNumber": 19,
    "prefecture": "山梨県",
    "city": "山梨市",
    "town": "牧丘町窪平"
  },
  "4040014": {
    "zipcode": "4040014",
    "prefectureCode": "19",
    "prefectureNumber": 19,
    "prefecture": "山梨県",
    "city": "山梨市",
    "town": "牧丘町隼"
  },
  "4040015": {
    "zipcode": "4040015",
    "prefectureCode": "19",
    "prefectureNumber": 19,
    "prefecture": "山梨県",
    "city": "山梨市",
    "town": "牧丘町城古寺"
  },
  "4040016": {
    "zipcode": "4040016",
    "prefectureCode": "19",
    "prefectureNumber": 19,
    "prefecture": "山梨県",
    "city": "山梨市",
    "town": "牧丘町千野々宮"
  },
  "4040021": {
    "zipcode": "4040021",
    "prefectureCode": "19",
    "prefectureNumber": 19,
    "prefecture": "山梨県",
    "city": "甲州市",
    "town": "塩山一之瀬高橋"
  },
  "4040022": {
    "zipcode": "4040022",
    "prefectureCode": "19",
    "prefectureNumber": 19,
    "prefecture": "山梨県",
    "city": "甲州市",
    "town": "塩山上萩原（その他）"
  },
  "4040023": {
    "zipcode": "4040023",
    "prefectureCode": "19",
    "prefectureNumber": 19,
    "prefecture": "山梨県",
    "city": "甲州市",
    "town": "塩山中萩原（その他）"
  },
  "4040024": {
    "zipcode": "4040024",
    "prefectureCode": "19",
    "prefectureNumber": 19,
    "prefecture": "山梨県",
    "city": "甲州市",
    "town": "塩山下萩原"
  },
  "4040025": {
    "zipcode": "4040025",
    "prefectureCode": "19",
    "prefectureNumber": 19,
    "prefecture": "山梨県",
    "city": "甲州市",
    "town": "塩山下小田原"
  },
  "4040026": {
    "zipcode": "4040026",
    "prefectureCode": "19",
    "prefectureNumber": 19,
    "prefecture": "山梨県",
    "city": "甲州市",
    "town": "塩山上小田原"
  },
  "4040031": {
    "zipcode": "4040031",
    "prefectureCode": "19",
    "prefectureNumber": 19,
    "prefecture": "山梨県",
    "city": "甲州市",
    "town": "塩山上粟生野"
  },
  "4040032": {
    "zipcode": "4040032",
    "prefectureCode": "19",
    "prefectureNumber": 19,
    "prefecture": "山梨県",
    "city": "甲州市",
    "town": "塩山下粟生野"
  },
  "4040033": {
    "zipcode": "4040033",
    "prefectureCode": "19",
    "prefectureNumber": 19,
    "prefecture": "山梨県",
    "city": "甲州市",
    "town": "塩山赤尾"
  },
  "4040034": {
    "zipcode": "4040034",
    "prefectureCode": "19",
    "prefectureNumber": 19,
    "prefecture": "山梨県",
    "city": "甲州市",
    "town": "塩山牛奥（その他）"
  },
  "4040035": {
    "zipcode": "4040035",
    "prefectureCode": "19",
    "prefectureNumber": 19,
    "prefecture": "山梨県",
    "city": "甲州市",
    "town": "塩山西野原"
  },
  "4040036": {
    "zipcode": "4040036",
    "prefectureCode": "19",
    "prefectureNumber": 19,
    "prefecture": "山梨県",
    "city": "甲州市",
    "town": "塩山熊野"
  },
  "4040037": {
    "zipcode": "4040037",
    "prefectureCode": "19",
    "prefectureNumber": 19,
    "prefecture": "山梨県",
    "city": "甲州市",
    "town": "塩山西広門田"
  },
  "4040041": {
    "zipcode": "4040041",
    "prefectureCode": "19",
    "prefectureNumber": 19,
    "prefecture": "山梨県",
    "city": "甲州市",
    "town": "塩山千野"
  },
  "4040042": {
    "zipcode": "4040042",
    "prefectureCode": "19",
    "prefectureNumber": 19,
    "prefecture": "山梨県",
    "city": "甲州市",
    "town": "塩山上於曽"
  },
  "4040043": {
    "zipcode": "4040043",
    "prefectureCode": "19",
    "prefectureNumber": 19,
    "prefecture": "山梨県",
    "city": "甲州市",
    "town": "塩山下於曽"
  },
  "4040044": {
    "zipcode": "4040044",
    "prefectureCode": "19",
    "prefectureNumber": 19,
    "prefecture": "山梨県",
    "city": "甲州市",
    "town": "塩山下塩後"
  },
  "4040045": {
    "zipcode": "4040045",
    "prefectureCode": "19",
    "prefectureNumber": 19,
    "prefecture": "山梨県",
    "city": "甲州市",
    "town": "塩山上塩後"
  },
  "4040046": {
    "zipcode": "4040046",
    "prefectureCode": "19",
    "prefectureNumber": 19,
    "prefecture": "山梨県",
    "city": "甲州市",
    "town": "塩山上井尻"
  },
  "4040047": {
    "zipcode": "4040047",
    "prefectureCode": "19",
    "prefectureNumber": 19,
    "prefecture": "山梨県",
    "city": "甲州市",
    "town": "塩山三日市場"
  },
  "4040051": {
    "zipcode": "4040051",
    "prefectureCode": "19",
    "prefectureNumber": 19,
    "prefecture": "山梨県",
    "city": "甲州市",
    "town": "塩山竹森"
  },
  "4040052": {
    "zipcode": "4040052",
    "prefectureCode": "19",
    "prefectureNumber": 19,
    "prefecture": "山梨県",
    "city": "甲州市",
    "town": "塩山平沢"
  },
  "4040053": {
    "zipcode": "4040053",
    "prefectureCode": "19",
    "prefectureNumber": 19,
    "prefecture": "山梨県",
    "city": "甲州市",
    "town": "塩山小屋敷（その他）"
  },
  "4040054": {
    "zipcode": "4040054",
    "prefectureCode": "19",
    "prefectureNumber": 19,
    "prefecture": "山梨県",
    "city": "甲州市",
    "town": "塩山藤木"
  },
  "4040055": {
    "zipcode": "4040055",
    "prefectureCode": "19",
    "prefectureNumber": 19,
    "prefecture": "山梨県",
    "city": "甲州市",
    "town": "塩山下柚木"
  },
  "4040056": {
    "zipcode": "4040056",
    "prefectureCode": "19",
    "prefectureNumber": 19,
    "prefecture": "山梨県",
    "city": "甲州市",
    "town": "塩山福生里"
  },
  "4040201": {
    "zipcode": "4040201",
    "prefectureCode": "19",
    "prefectureNumber": 19,
    "prefecture": "山梨県",
    "city": "山梨市",
    "town": "三富川浦"
  },
  "4040202": {
    "zipcode": "4040202",
    "prefectureCode": "19",
    "prefectureNumber": 19,
    "prefecture": "山梨県",
    "city": "山梨市",
    "town": "三富上柚木"
  },
  "4040203": {
    "zipcode": "4040203",
    "prefectureCode": "19",
    "prefectureNumber": 19,
    "prefecture": "山梨県",
    "city": "山梨市",
    "town": "三富下荻原"
  },
  "4040204": {
    "zipcode": "4040204",
    "prefectureCode": "19",
    "prefectureNumber": 19,
    "prefecture": "山梨県",
    "city": "山梨市",
    "town": "三富下釜口"
  },
  "4040205": {
    "zipcode": "4040205",
    "prefectureCode": "19",
    "prefectureNumber": 19,
    "prefecture": "山梨県",
    "city": "山梨市",
    "town": "三富徳和"
  },
  "4040206": {
    "zipcode": "4040206",
    "prefectureCode": "19",
    "prefectureNumber": 19,
    "prefecture": "山梨県",
    "city": "山梨市",
    "town": "三富上釜口"
  },
  "4040211": {
    "zipcode": "4040211",
    "prefectureCode": "19",
    "prefectureNumber": 19,
    "prefecture": "山梨県",
    "city": "甲州市",
    "town": "塩山小屋敷（滑沢）"
  }
}
