{
  "4070000": {
    "zipcode": "4070000",
    "prefectureCode": "19",
    "prefectureNumber": 19,
    "prefecture": "山梨県",
    "city": "韮崎市",
    "town": "以下に掲載がない場合"
  },
  "4070001": {
    "zipcode": "4070001",
    "prefectureCode": "19",
    "prefectureNumber": 19,
    "prefecture": "山梨県",
    "city": "韮崎市",
    "town": "藤井町駒井"
  },
  "4070002": {
    "zipcode": "4070002",
    "prefectureCode": "19",
    "prefectureNumber": 19,
    "prefecture": "山梨県",
    "city": "韮崎市",
    "town": "藤井町坂井"
  },
  "4070003": {
    "zipcode": "4070003",
    "prefectureCode": "19",
    "prefectureNumber": 19,
    "prefecture": "山梨県",
    "city": "韮崎市",
    "town": "藤井町北下條"
  },
  "4070004": {
    "zipcode": "4070004",
    "prefectureCode": "19",
    "prefectureNumber": 19,
    "prefecture": "山梨県",
    "city": "韮崎市",
    "town": "藤井町南下條"
  },
  "4070005": {
    "zipcode": "4070005",
    "prefectureCode": "19",
    "prefectureNumber": 19,
    "prefecture": "山梨県",
    "city": "韮崎市",
    "town": "一ツ谷"
  },
  "4070006": {
    "zipcode": "4070006",
    "prefectureCode": "19",
    "prefectureNumber": 19,
    "prefecture": "山梨県",
    "city": "韮崎市",
    "town": "下祖母石"
  },
  "4070007": {
    "zipcode": "4070007",
    "prefectureCode": "19",
    "prefectureNumber": 19,
    "prefecture": "山梨県",
    "city": "韮崎市",
    "town": "上祖母石"
  },
  "4070011": {
    "zipcode": "4070011",
    "prefectureCode": "19",
    "prefectureNumber": 19,
    "prefecture": "山梨県",
    "city": "韮崎市",
    "town": "上ノ山"
  },
  "4070012": {
    "zipcode": "4070012",
    "prefectureCode": "19",
    "prefectureNumber": 19,
    "prefecture": "山梨県",
    "city": "韮崎市",
    "town": "岩下"
  },
  "4070013": {
    "zipcode": "4070013",
    "prefectureCode": "19",
    "prefectureNumber": 19,
    "prefecture": "山梨県",
    "city": "韮崎市",
    "town": "中島"
  },
  "4070014": {
    "zipcode": "4070014",
    "prefectureCode": "19",
    "prefectureNumber": 19,
    "prefecture": "山梨県",
    "city": "韮崎市",
    "town": "富士見"
  },
  "4070015": {
    "zipcode": "4070015",
    "prefectureCode": "19",
    "prefectureNumber": 19,
    "prefecture": "山梨県",
    "city": "韮崎市",
    "town": "若宮"
  },
  "4070021": {
    "zipcode": "4070021",
    "prefectureCode": "19",
    "prefectureNumber": 19,
    "prefecture": "山梨県",
    "city": "韮崎市",
    "town": "富士見ケ丘"
  },
  "4070022": {
    "zipcode": "4070022",
    "prefectureCode": "19",
    "prefectureNumber": 19,
    "prefecture": "山梨県",
    "city": "韮崎市",
    "town": "水神"
  },
  "4070023": {
    "zipcode": "4070023",
    "prefectureCode": "19",
    "prefectureNumber": 19,
    "prefecture": "山梨県",
    "city": "韮崎市",
    "town": "中央町"
  },
  "4070024": {
    "zipcode": "4070024",
    "prefectureCode": "19",
    "prefectureNumber": 19,
    "prefecture": "山梨県",
    "city": "韮崎市",
    "town": "本町"
  },
  "4070025": {
    "zipcode": "4070025",
    "prefectureCode": "19",
    "prefectureNumber": 19,
    "prefecture": "山梨県",
    "city": "韮崎市",
    "town": "栄"
  },
  "4070031": {
    "zipcode": "4070031",
    "prefectureCode": "19",
    "prefectureNumber": 19,
    "prefecture": "山梨県",
    "city": "韮崎市",
    "town": "龍岡町若尾新田"
  },
  "4070032": {
    "zipcode": "4070032",
    "prefectureCode": "19",
    "prefectureNumber": 19,
    "prefecture": "山梨県",
    "city": "韮崎市",
    "town": "龍岡町下條東割"
  },
  "4070033": {
    "zipcode": "4070033",
    "prefectureCode": "19",
    "prefectureNumber": 19,
    "prefecture": "山梨県",
    "city": "韮崎市",
    "town": "龍岡町下條南割"
  },
  "4070034": {
    "zipcode": "4070034",
    "prefectureCode": "19",
    "prefectureNumber": 19,
    "prefecture": "山梨県",
    "city": "韮崎市",
    "town": "大草町下條中割"
  },
  "4070035": {
    "zipcode": "4070035",
    "prefectureCode": "19",
    "prefectureNumber": 19,
    "prefecture": "山梨県",
    "city": "韮崎市",
    "town": "大草町下條西割"
  },
  "4070036": {
    "zipcode": "4070036",
    "prefectureCode": "19",
    "prefectureNumber": 19,
    "prefecture": "山梨県",
    "city": "韮崎市",
    "town": "大草町上條東割"
  },
  "4070037": {
    "zipcode": "4070037",
    "prefectureCode": "19",
    "prefectureNumber": 19,
    "prefecture": "山梨県",
    "city": "韮崎市",
    "town": "大草町若尾"
  },
  "4070041": {
    "zipcode": "4070041",
    "prefectureCode": "19",
    "prefectureNumber": 19,
    "prefecture": "山梨県",
    "city": "韮崎市",
    "town": "神山町武田"
  },
  "4070042": {
    "zipcode": "4070042",
    "prefectureCode": "19",
    "prefectureNumber": 19,
    "prefecture": "山梨県",
    "city": "韮崎市",
    "town": "神山町北宮地"
  },
  "4070043": {
    "zipcode": "4070043",
    "prefectureCode": "19",
    "prefectureNumber": 19,
    "prefecture": "山梨県",
    "city": "韮崎市",
    "town": "神山町鍋山"
  },
  "4070044": {
    "zipcode": "4070044",
    "prefectureCode": "19",
    "prefectureNumber": 19,
    "prefecture": "山梨県",
    "city": "韮崎市",
    "town": "旭町上條北割"
  },
  "4070045": {
    "zipcode": "4070045",
    "prefectureCode": "19",
    "prefectureNumber": 19,
    "prefecture": "山梨県",
    "city": "韮崎市",
    "town": "旭町上條中割"
  },
  "4070046": {
    "zipcode": "4070046",
    "prefectureCode": "19",
    "prefectureNumber": 19,
    "prefecture": "山梨県",
    "city": "韮崎市",
    "town": "旭町上條南割"
  },
  "4070051": {
    "zipcode": "4070051",
    "prefectureCode": "19",
    "prefectureNumber": 19,
    "prefecture": "山梨県",
    "city": "韮崎市",
    "town": "円野町上円井"
  },
  "4070052": {
    "zipcode": "4070052",
    "prefectureCode": "19",
    "prefectureNumber": 19,
    "prefecture": "山梨県",
    "city": "韮崎市",
    "town": "円野町下円井"
  },
  "4070053": {
    "zipcode": "4070053",
    "prefectureCode": "19",
    "prefectureNumber": 19,
    "prefecture": "山梨県",
    "city": "韮崎市",
    "town": "円野町入戸野"
  },
  "4070054": {
    "zipcode": "4070054",
    "prefectureCode": "19",
    "prefectureNumber": 19,
    "prefecture": "山梨県",
    "city": "韮崎市",
    "town": "清哲町折居"
  },
  "4070055": {
    "zipcode": "4070055",
    "prefectureCode": "19",
    "prefectureNumber": 19,
    "prefecture": "山梨県",
    "city": "韮崎市",
    "town": "清哲町青木"
  },
  "4070057": {
    "zipcode": "4070057",
    "prefectureCode": "19",
    "prefectureNumber": 19,
    "prefecture": "山梨県",
    "city": "韮崎市",
    "town": "清哲町樋口"
  },
  "4070058": {
    "zipcode": "4070058",
    "prefectureCode": "19",
    "prefectureNumber": 19,
    "prefecture": "山梨県",
    "city": "韮崎市",
    "town": "清哲町水上"
  },
  "4070171": {
    "zipcode": "4070171",
    "prefectureCode": "19",
    "prefectureNumber": 19,
    "prefecture": "山梨県",
    "city": "韮崎市",
    "town": "穂坂町柳平"
  },
  "4070172": {
    "zipcode": "4070172",
    "prefectureCode": "19",
    "prefectureNumber": 19,
    "prefecture": "山梨県",
    "city": "韮崎市",
    "town": "穂坂町上今井"
  },
  "4070173": {
    "zipcode": "4070173",
    "prefectureCode": "19",
    "prefectureNumber": 19,
    "prefecture": "山梨県",
    "city": "韮崎市",
    "town": "穂坂町長久保"
  },
  "4070174": {
    "zipcode": "4070174",
    "prefectureCode": "19",
    "prefectureNumber": 19,
    "prefecture": "山梨県",
    "city": "韮崎市",
    "town": "穂坂町三ツ沢"
  },
  "4070175": {
    "zipcode": "4070175",
    "prefectureCode": "19",
    "prefectureNumber": 19,
    "prefecture": "山梨県",
    "city": "韮崎市",
    "town": "穂坂町宮久保"
  },
  "4070176": {
    "zipcode": "4070176",
    "prefectureCode": "19",
    "prefectureNumber": 19,
    "prefecture": "山梨県",
    "city": "韮崎市",
    "town": "穂坂町三之蔵"
  },
  "4070261": {
    "zipcode": "4070261",
    "prefectureCode": "19",
    "prefectureNumber": 19,
    "prefecture": "山梨県",
    "city": "韮崎市",
    "town": "中田町小田川"
  },
  "4070262": {
    "zipcode": "4070262",
    "prefectureCode": "19",
    "prefectureNumber": 19,
    "prefecture": "山梨県",
    "city": "韮崎市",
    "town": "中田町中條"
  },
  "4070263": {
    "zipcode": "4070263",
    "prefectureCode": "19",
    "prefectureNumber": 19,
    "prefecture": "山梨県",
    "city": "韮崎市",
    "town": "穴山町"
  },
  "4070301": {
    "zipcode": "4070301",
    "prefectureCode": "19",
    "prefectureNumber": 19,
    "prefecture": "山梨県",
    "city": "北杜市",
    "town": "高根町清里"
  },
  "4070302": {
    "zipcode": "4070302",
    "prefectureCode": "19",
    "prefectureNumber": 19,
    "prefecture": "山梨県",
    "city": "北杜市",
    "town": "高根町浅川"
  },
  "4070311": {
    "zipcode": "4070311",
    "prefectureCode": "19",
    "prefectureNumber": 19,
    "prefecture": "山梨県",
    "city": "北杜市",
    "town": "大泉町西井出８２４０−１（美森、たかね荘、清泉寮、サンメドウズスキー場）"
  },
  "4070321": {
    "zipcode": "4070321",
    "prefectureCode": "19",
    "prefectureNumber": 19,
    "prefecture": "山梨県",
    "city": "北杜市",
    "town": "須玉町上津金"
  },
  "4070322": {
    "zipcode": "4070322",
    "prefectureCode": "19",
    "prefectureNumber": 19,
    "prefecture": "山梨県",
    "city": "北杜市",
    "town": "須玉町下津金"
  }
}
