{
  "4090100": {
    "zipcode": "4090100",
    "prefectureCode": "19",
    "prefectureNumber": 19,
    "prefecture": "山梨県",
    "city": "上野原市",
    "town": "以下に掲載がない場合"
  },
  "4090111": {
    "zipcode": "4090111",
    "prefectureCode": "19",
    "prefectureNumber": 19,
    "prefecture": "山梨県",
    "city": "上野原市",
    "town": "棡原"
  },
  "4090112": {
    "zipcode": "4090112",
    "prefectureCode": "19",
    "prefectureNumber": 19,
    "prefecture": "山梨県",
    "city": "上野原市",
    "town": "上野原"
  },
  "4090113": {
    "zipcode": "4090113",
    "prefectureCode": "19",
    "prefectureNumber": 19,
    "prefecture": "山梨県",
    "city": "上野原市",
    "town": "新田"
  },
  "4090114": {
    "zipcode": "4090114",
    "prefectureCode": "19",
    "prefectureNumber": 19,
    "prefecture": "山梨県",
    "city": "上野原市",
    "town": "鶴島"
  },
  "4090115": {
    "zipcode": "4090115",
    "prefectureCode": "19",
    "prefectureNumber": 19,
    "prefecture": "山梨県",
    "city": "上野原市",
    "town": "松留"
  },
  "4090121": {
    "zipcode": "4090121",
    "prefectureCode": "19",
    "prefectureNumber": 19,
    "prefecture": "山梨県",
    "city": "上野原市",
    "town": "四方津"
  },
  "4090122": {
    "zipcode": "4090122",
    "prefectureCode": "19",
    "prefectureNumber": 19,
    "prefecture": "山梨県",
    "city": "上野原市",
    "town": "川合"
  },
  "4090123": {
    "zipcode": "4090123",
    "prefectureCode": "19",
    "prefectureNumber": 19,
    "prefecture": "山梨県",
    "city": "上野原市",
    "town": "大野"
  },
  "4090124": {
    "zipcode": "4090124",
    "prefectureCode": "19",
    "prefectureNumber": 19,
    "prefecture": "山梨県",
    "city": "上野原市",
    "town": "犬目"
  },
  "4090125": {
    "zipcode": "4090125",
    "prefectureCode": "19",
    "prefectureNumber": 19,
    "prefecture": "山梨県",
    "city": "上野原市",
    "town": "野田尻"
  },
  "4090126": {
    "zipcode": "4090126",
    "prefectureCode": "19",
    "prefectureNumber": 19,
    "prefecture": "山梨県",
    "city": "上野原市",
    "town": "コモアしおつ"
  },
  "4090131": {
    "zipcode": "4090131",
    "prefectureCode": "19",
    "prefectureNumber": 19,
    "prefecture": "山梨県",
    "city": "上野原市",
    "town": "大曽根"
  },
  "4090132": {
    "zipcode": "4090132",
    "prefectureCode": "19",
    "prefectureNumber": 19,
    "prefecture": "山梨県",
    "city": "上野原市",
    "town": "鶴川"
  },
  "4090133": {
    "zipcode": "4090133",
    "prefectureCode": "19",
    "prefectureNumber": 19,
    "prefecture": "山梨県",
    "city": "上野原市",
    "town": "八ツ沢"
  },
  "4090134": {
    "zipcode": "4090134",
    "prefectureCode": "19",
    "prefectureNumber": 19,
    "prefecture": "山梨県",
    "city": "上野原市",
    "town": "大椚"
  },
  "4090135": {
    "zipcode": "4090135",
    "prefectureCode": "19",
    "prefectureNumber": 19,
    "prefecture": "山梨県",
    "city": "上野原市",
    "town": "芦垣"
  },
  "4090136": {
    "zipcode": "4090136",
    "prefectureCode": "19",
    "prefectureNumber": 19,
    "prefecture": "山梨県",
    "city": "上野原市",
    "town": "桑久保"
  },
  "4090137": {
    "zipcode": "4090137",
    "prefectureCode": "19",
    "prefectureNumber": 19,
    "prefecture": "山梨県",
    "city": "上野原市",
    "town": "和見"
  },
  "4090138": {
    "zipcode": "4090138",
    "prefectureCode": "19",
    "prefectureNumber": 19,
    "prefecture": "山梨県",
    "city": "上野原市",
    "town": "大倉"
  },
  "4090141": {
    "zipcode": "4090141",
    "prefectureCode": "19",
    "prefectureNumber": 19,
    "prefecture": "山梨県",
    "city": "上野原市",
    "town": "西原"
  },
  "4090142": {
    "zipcode": "4090142",
    "prefectureCode": "19",
    "prefectureNumber": 19,
    "prefecture": "山梨県",
    "city": "北都留郡小菅村",
    "town": "小菅村の次に１〜６６３番地がくる場合"
  },
  "4090200": {
    "zipcode": "4090200",
    "prefectureCode": "19",
    "prefectureNumber": 19,
    "prefecture": "山梨県",
    "city": "北都留郡小菅村",
    "town": "以下に掲載がない場合"
  },
  "4090211": {
    "zipcode": "4090211",
    "prefectureCode": "19",
    "prefectureNumber": 19,
    "prefecture": "山梨県",
    "city": "北都留郡小菅村",
    "town": "小菅村の次に６６４番地以降がくる場合"
  },
  "4090300": {
    "zipcode": "4090300",
    "prefectureCode": "19",
    "prefectureNumber": 19,
    "prefecture": "山梨県",
    "city": "北都留郡丹波山村",
    "town": "以下に掲載がない場合"
  },
  "4090301": {
    "zipcode": "4090301",
    "prefectureCode": "19",
    "prefectureNumber": 19,
    "prefecture": "山梨県",
    "city": "北都留郡丹波山村",
    "town": "奥秋"
  },
  "4090302": {
    "zipcode": "4090302",
    "prefectureCode": "19",
    "prefectureNumber": 19,
    "prefecture": "山梨県",
    "city": "北都留郡丹波山村",
    "town": "上組"
  },
  "4090303": {
    "zipcode": "4090303",
    "prefectureCode": "19",
    "prefectureNumber": 19,
    "prefecture": "山梨県",
    "city": "北都留郡丹波山村",
    "town": "中組"
  },
  "4090304": {
    "zipcode": "4090304",
    "prefectureCode": "19",
    "prefectureNumber": 19,
    "prefecture": "山梨県",
    "city": "北都留郡丹波山村",
    "town": "下組"
  },
  "4090305": {
    "zipcode": "4090305",
    "prefectureCode": "19",
    "prefectureNumber": 19,
    "prefecture": "山梨県",
    "city": "北都留郡丹波山村",
    "town": "高尾"
  },
  "4090306": {
    "zipcode": "4090306",
    "prefectureCode": "19",
    "prefectureNumber": 19,
    "prefecture": "山梨県",
    "city": "北都留郡丹波山村",
    "town": "押垣外"
  },
  "4090311": {
    "zipcode": "4090311",
    "prefectureCode": "19",
    "prefectureNumber": 19,
    "prefecture": "山梨県",
    "city": "北都留郡丹波山村",
    "town": "保之瀬"
  },
  "4090312": {
    "zipcode": "4090312",
    "prefectureCode": "19",
    "prefectureNumber": 19,
    "prefecture": "山梨県",
    "city": "北都留郡丹波山村",
    "town": "高畑"
  },
  "4090313": {
    "zipcode": "4090313",
    "prefectureCode": "19",
    "prefectureNumber": 19,
    "prefecture": "山梨県",
    "city": "北都留郡丹波山村",
    "town": "親川"
  },
  "4090314": {
    "zipcode": "4090314",
    "prefectureCode": "19",
    "prefectureNumber": 19,
    "prefecture": "山梨県",
    "city": "北都留郡丹波山村",
    "town": "御祭"
  },
  "4090315": {
    "zipcode": "4090315",
    "prefectureCode": "19",
    "prefectureNumber": 19,
    "prefecture": "山梨県",
    "city": "北都留郡丹波山村",
    "town": "杉奈久保"
  },
  "4090316": {
    "zipcode": "4090316",
    "prefectureCode": "19",
    "prefectureNumber": 19,
    "prefecture": "山梨県",
    "city": "北都留郡丹波山村",
    "town": "所畑"
  },
  "4090317": {
    "zipcode": "4090317",
    "prefectureCode": "19",
    "prefectureNumber": 19,
    "prefecture": "山梨県",
    "city": "北都留郡丹波山村",
    "town": "小袖"
  },
  "4090318": {
    "zipcode": "4090318",
    "prefectureCode": "19",
    "prefectureNumber": 19,
    "prefecture": "山梨県",
    "city": "北都留郡丹波山村",
    "town": "鴨沢"
  },
  "4090501": {
    "zipcode": "4090501",
    "prefectureCode": "19",
    "prefectureNumber": 19,
    "prefecture": "山梨県",
    "city": "大月市",
    "town": "富浜町宮谷"
  },
  "4090502": {
    "zipcode": "4090502",
    "prefectureCode": "19",
    "prefectureNumber": 19,
    "prefecture": "山梨県",
    "city": "大月市",
    "town": "富浜町鳥沢"
  },
  "4090503": {
    "zipcode": "4090503",
    "prefectureCode": "19",
    "prefectureNumber": 19,
    "prefecture": "山梨県",
    "city": "大月市",
    "town": "梁川町綱の上"
  },
  "4090504": {
    "zipcode": "4090504",
    "prefectureCode": "19",
    "prefectureNumber": 19,
    "prefecture": "山梨県",
    "city": "大月市",
    "town": "梁川町新倉"
  },
  "4090505": {
    "zipcode": "4090505",
    "prefectureCode": "19",
    "prefectureNumber": 19,
    "prefecture": "山梨県",
    "city": "大月市",
    "town": "梁川町塩瀬"
  },
  "4090506": {
    "zipcode": "4090506",
    "prefectureCode": "19",
    "prefectureNumber": 19,
    "prefecture": "山梨県",
    "city": "大月市",
    "town": "梁川町立野"
  },
  "4090611": {
    "zipcode": "4090611",
    "prefectureCode": "19",
    "prefectureNumber": 19,
    "prefecture": "山梨県",
    "city": "大月市",
    "town": "猿橋町小篠"
  },
  "4090612": {
    "zipcode": "4090612",
    "prefectureCode": "19",
    "prefectureNumber": 19,
    "prefecture": "山梨県",
    "city": "大月市",
    "town": "猿橋町藤崎"
  },
  "4090613": {
    "zipcode": "4090613",
    "prefectureCode": "19",
    "prefectureNumber": 19,
    "prefecture": "山梨県",
    "city": "大月市",
    "town": "猿橋町伊良原"
  },
  "4090614": {
    "zipcode": "4090614",
    "prefectureCode": "19",
    "prefectureNumber": 19,
    "prefecture": "山梨県",
    "city": "大月市",
    "town": "猿橋町猿橋"
  },
  "4090615": {
    "zipcode": "4090615",
    "prefectureCode": "19",
    "prefectureNumber": 19,
    "prefecture": "山梨県",
    "city": "大月市",
    "town": "猿橋町朝日小沢"
  },
  "4090616": {
    "zipcode": "4090616",
    "prefectureCode": "19",
    "prefectureNumber": 19,
    "prefecture": "山梨県",
    "city": "大月市",
    "town": "猿橋町小沢"
  },
  "4090617": {
    "zipcode": "4090617",
    "prefectureCode": "19",
    "prefectureNumber": 19,
    "prefecture": "山梨県",
    "city": "大月市",
    "town": "猿橋町殿上"
  },
  "4090618": {
    "zipcode": "4090618",
    "prefectureCode": "19",
    "prefectureNumber": 19,
    "prefecture": "山梨県",
    "city": "大月市",
    "town": "猿橋町桂台"
  },
  "4090621": {
    "zipcode": "4090621",
    "prefectureCode": "19",
    "prefectureNumber": 19,
    "prefecture": "山梨県",
    "city": "大月市",
    "town": "七保町浅川"
  },
  "4090622": {
    "zipcode": "4090622",
    "prefectureCode": "19",
    "prefectureNumber": 19,
    "prefecture": "山梨県",
    "city": "大月市",
    "town": "七保町下和田"
  },
  "4090623": {
    "zipcode": "4090623",
    "prefectureCode": "19",
    "prefectureNumber": 19,
    "prefecture": "山梨県",
    "city": "大月市",
    "town": "七保町葛野"
  },
  "4090624": {
    "zipcode": "4090624",
    "prefectureCode": "19",
    "prefectureNumber": 19,
    "prefecture": "山梨県",
    "city": "大月市",
    "town": "七保町林"
  },
  "4090625": {
    "zipcode": "4090625",
    "prefectureCode": "19",
    "prefectureNumber": 19,
    "prefecture": "山梨県",
    "city": "大月市",
    "town": "七保町奈良子"
  },
  "4090626": {
    "zipcode": "4090626",
    "prefectureCode": "19",
    "prefectureNumber": 19,
    "prefecture": "山梨県",
    "city": "大月市",
    "town": "七保町瀬戸"
  },
  "4090627": {
    "zipcode": "4090627",
    "prefectureCode": "19",
    "prefectureNumber": 19,
    "prefecture": "山梨県",
    "city": "大月市",
    "town": "七保町駒宮"
  },
  "4091201": {
    "zipcode": "4091201",
    "prefectureCode": "19",
    "prefectureNumber": 19,
    "prefecture": "山梨県",
    "city": "甲州市",
    "town": "大和町木賊"
  },
  "4091202": {
    "zipcode": "4091202",
    "prefectureCode": "19",
    "prefectureNumber": 19,
    "prefecture": "山梨県",
    "city": "甲州市",
    "town": "大和町田野"
  },
  "4091203": {
    "zipcode": "4091203",
    "prefectureCode": "19",
    "prefectureNumber": 19,
    "prefecture": "山梨県",
    "city": "甲州市",
    "town": "大和町初鹿野"
  },
  "4091204": {
    "zipcode": "4091204",
    "prefectureCode": "19",
    "prefectureNumber": 19,
    "prefecture": "山梨県",
    "city": "甲州市",
    "town": "大和町日影"
  },
  "4091205": {
    "zipcode": "4091205",
    "prefectureCode": "19",
    "prefectureNumber": 19,
    "prefecture": "山梨県",
    "city": "甲州市",
    "town": "大和町鶴瀬"
  },
  "4091211": {
    "zipcode": "4091211",
    "prefectureCode": "19",
    "prefectureNumber": 19,
    "prefecture": "山梨県",
    "city": "甲州市",
    "town": "塩山上萩原（４０５１、４７８３、４７８４、すずらん荘、東電上部ダム）"
  },
  "4091212": {
    "zipcode": "4091212",
    "prefectureCode": "19",
    "prefectureNumber": 19,
    "prefecture": "山梨県",
    "city": "甲州市",
    "town": "塩山中萩原（日川小屋）"
  },
  "4091213": {
    "zipcode": "4091213",
    "prefectureCode": "19",
    "prefectureNumber": 19,
    "prefecture": "山梨県",
    "city": "甲州市",
    "town": "塩山牛奥（５５３２〜５５５０、奥野田開拓、嵯峨塩開拓、嵯峨塩温泉）"
  },
  "4091301": {
    "zipcode": "4091301",
    "prefectureCode": "19",
    "prefectureNumber": 19,
    "prefecture": "山梨県",
    "city": "甲州市",
    "town": "勝沼町中原"
  },
  "4091302": {
    "zipcode": "4091302",
    "prefectureCode": "19",
    "prefectureNumber": 19,
    "prefecture": "山梨県",
    "city": "甲州市",
    "town": "勝沼町菱山"
  },
  "4091303": {
    "zipcode": "4091303",
    "prefectureCode": "19",
    "prefectureNumber": 19,
    "prefecture": "山梨県",
    "city": "甲州市",
    "town": "勝沼町小佐手"
  },
  "4091304": {
    "zipcode": "4091304",
    "prefectureCode": "19",
    "prefectureNumber": 19,
    "prefecture": "山梨県",
    "city": "甲州市",
    "town": "勝沼町休息"
  },
  "4091305": {
    "zipcode": "4091305",
    "prefectureCode": "19",
    "prefectureNumber": 19,
    "prefecture": "山梨県",
    "city": "甲州市",
    "town": "勝沼町綿塚"
  },
  "4091306": {
    "zipcode": "4091306",
    "prefectureCode": "19",
    "prefectureNumber": 19,
    "prefecture": "山梨県",
    "city": "甲州市",
    "town": "勝沼町山"
  },
  "4091311": {
    "zipcode": "4091311",
    "prefectureCode": "19",
    "prefectureNumber": 19,
    "prefecture": "山梨県",
    "city": "甲州市",
    "town": "勝沼町深沢"
  },
  "4091312": {
    "zipcode": "4091312",
    "prefectureCode": "19",
    "prefectureNumber": 19,
    "prefecture": "山梨県",
    "city": "甲州市",
    "town": "勝沼町上岩崎"
  },
  "4091313": {
    "zipcode": "4091313",
    "prefectureCode": "19",
    "prefectureNumber": 19,
    "prefecture": "山梨県",
    "city": "甲州市",
    "town": "勝沼町下岩崎"
  },
  "4091314": {
    "zipcode": "4091314",
    "prefectureCode": "19",
    "prefectureNumber": 19,
    "prefecture": "山梨県",
    "city": "甲州市",
    "town": "勝沼町藤井"
  },
  "4091315": {
    "zipcode": "4091315",
    "prefectureCode": "19",
    "prefectureNumber": 19,
    "prefecture": "山梨県",
    "city": "甲州市",
    "town": "勝沼町等々力"
  },
  "4091316": {
    "zipcode": "4091316",
    "prefectureCode": "19",
    "prefectureNumber": 19,
    "prefecture": "山梨県",
    "city": "甲州市",
    "town": "勝沼町勝沼"
  },
  "4091321": {
    "zipcode": "4091321",
    "prefectureCode": "19",
    "prefectureNumber": 19,
    "prefecture": "山梨県",
    "city": "甲州市",
    "town": "塩山牛奥（５２８８、５２８８−１、５２８８−３、５２８９、５２８９−２、５２８９−１５）"
  },
  "4091501": {
    "zipcode": "4091501",
    "prefectureCode": "19",
    "prefectureNumber": 19,
    "prefecture": "山梨県",
    "city": "北杜市",
    "town": "大泉町西井出（その他）"
  },
  "4091502": {
    "zipcode": "4091502",
    "prefectureCode": "19",
    "prefectureNumber": 19,
    "prefecture": "山梨県",
    "city": "北杜市",
    "town": "大泉町谷戸"
  },
  "4092100": {
    "zipcode": "4092100",
    "prefectureCode": "19",
    "prefectureNumber": 19,
    "prefecture": "山梨県",
    "city": "南巨摩郡南部町",
    "town": "以下に掲載がない場合"
  },
  "4092101": {
    "zipcode": "4092101",
    "prefectureCode": "19",
    "prefectureNumber": 19,
    "prefecture": "山梨県",
    "city": "南巨摩郡南部町",
    "town": "楮根"
  },
  "4092102": {
    "zipcode": "4092102",
    "prefectureCode": "19",
    "prefectureNumber": 19,
    "prefecture": "山梨県",
    "city": "南巨摩郡南部町",
    "town": "福士"
  },
  "4092103": {
    "zipcode": "4092103",
    "prefectureCode": "19",
    "prefectureNumber": 19,
    "prefecture": "山梨県",
    "city": "南巨摩郡南部町",
    "town": "万沢"
  },
  "4092211": {
    "zipcode": "4092211",
    "prefectureCode": "19",
    "prefectureNumber": 19,
    "prefecture": "山梨県",
    "city": "南巨摩郡南部町",
    "town": "中野"
  },
  "4092212": {
    "zipcode": "4092212",
    "prefectureCode": "19",
    "prefectureNumber": 19,
    "prefecture": "山梨県",
    "city": "南巨摩郡南部町",
    "town": "南部"
  },
  "4092213": {
    "zipcode": "4092213",
    "prefectureCode": "19",
    "prefectureNumber": 19,
    "prefecture": "山梨県",
    "city": "南巨摩郡南部町",
    "town": "大和"
  },
  "4092214": {
    "zipcode": "4092214",
    "prefectureCode": "19",
    "prefectureNumber": 19,
    "prefecture": "山梨県",
    "city": "南巨摩郡南部町",
    "town": "塩沢"
  },
  "4092215": {
    "zipcode": "4092215",
    "prefectureCode": "19",
    "prefectureNumber": 19,
    "prefecture": "山梨県",
    "city": "南巨摩郡南部町",
    "town": "柳島"
  },
  "4092216": {
    "zipcode": "4092216",
    "prefectureCode": "19",
    "prefectureNumber": 19,
    "prefecture": "山梨県",
    "city": "南巨摩郡南部町",
    "town": "成島"
  },
  "4092217": {
    "zipcode": "4092217",
    "prefectureCode": "19",
    "prefectureNumber": 19,
    "prefecture": "山梨県",
    "city": "南巨摩郡南部町",
    "town": "本郷"
  },
  "4092301": {
    "zipcode": "4092301",
    "prefectureCode": "19",
    "prefectureNumber": 19,
    "prefecture": "山梨県",
    "city": "南巨摩郡南部町",
    "town": "上佐野"
  },
  "4092302": {
    "zipcode": "4092302",
    "prefectureCode": "19",
    "prefectureNumber": 19,
    "prefecture": "山梨県",
    "city": "南巨摩郡南部町",
    "town": "下佐野"
  },
  "4092303": {
    "zipcode": "4092303",
    "prefectureCode": "19",
    "prefectureNumber": 19,
    "prefecture": "山梨県",
    "city": "南巨摩郡南部町",
    "town": "十島"
  },
  "4092304": {
    "zipcode": "4092304",
    "prefectureCode": "19",
    "prefectureNumber": 19,
    "prefecture": "山梨県",
    "city": "南巨摩郡南部町",
    "town": "井出"
  },
  "4092305": {
    "zipcode": "4092305",
    "prefectureCode": "19",
    "prefectureNumber": 19,
    "prefecture": "山梨県",
    "city": "南巨摩郡南部町",
    "town": "内船"
  },
  "4092401": {
    "zipcode": "4092401",
    "prefectureCode": "19",
    "prefectureNumber": 19,
    "prefecture": "山梨県",
    "city": "南巨摩郡身延町",
    "town": "上八木沢"
  },
  "4092402": {
    "zipcode": "4092402",
    "prefectureCode": "19",
    "prefectureNumber": 19,
    "prefecture": "山梨県",
    "city": "南巨摩郡身延町",
    "town": "下八木沢"
  },
  "4092403": {
    "zipcode": "4092403",
    "prefectureCode": "19",
    "prefectureNumber": 19,
    "prefecture": "山梨県",
    "city": "南巨摩郡身延町",
    "town": "帯金"
  },
  "4092404": {
    "zipcode": "4092404",
    "prefectureCode": "19",
    "prefectureNumber": 19,
    "prefecture": "山梨県",
    "city": "南巨摩郡身延町",
    "town": "大垈"
  },
  "4092405": {
    "zipcode": "4092405",
    "prefectureCode": "19",
    "prefectureNumber": 19,
    "prefecture": "山梨県",
    "city": "南巨摩郡身延町",
    "town": "椿草里"
  },
  "4092406": {
    "zipcode": "4092406",
    "prefectureCode": "19",
    "prefectureNumber": 19,
    "prefecture": "山梨県",
    "city": "南巨摩郡身延町",
    "town": "大崩"
  },
  "4092411": {
    "zipcode": "4092411",
    "prefectureCode": "19",
    "prefectureNumber": 19,
    "prefecture": "山梨県",
    "city": "南巨摩郡身延町",
    "town": "丸滝"
  },
  "4092412": {
    "zipcode": "4092412",
    "prefectureCode": "19",
    "prefectureNumber": 19,
    "prefecture": "山梨県",
    "city": "南巨摩郡身延町",
    "town": "角打"
  },
  "4092413": {
    "zipcode": "4092413",
    "prefectureCode": "19",
    "prefectureNumber": 19,
    "prefecture": "山梨県",
    "city": "南巨摩郡身延町",
    "town": "和田"
  },
  "4092414": {
    "zipcode": "4092414",
    "prefectureCode": "19",
    "prefectureNumber": 19,
    "prefecture": "山梨県",
    "city": "南巨摩郡身延町",
    "town": "樋之上"
  },
  "4092415": {
    "zipcode": "4092415",
    "prefectureCode": "19",
    "prefectureNumber": 19,
    "prefecture": "山梨県",
    "city": "南巨摩郡身延町",
    "town": "大島"
  },
  "4092500": {
    "zipcode": "4092500",
    "prefectureCode": "19",
    "prefectureNumber": 19,
    "prefecture": "山梨県",
    "city": "南巨摩郡身延町",
    "town": "以下に掲載がない場合"
  },
  "4092521": {
    "zipcode": "4092521",
    "prefectureCode": "19",
    "prefectureNumber": 19,
    "prefecture": "山梨県",
    "city": "南巨摩郡身延町",
    "town": "粟倉"
  },
  "4092522": {
    "zipcode": "4092522",
    "prefectureCode": "19",
    "prefectureNumber": 19,
    "prefecture": "山梨県",
    "city": "南巨摩郡身延町",
    "town": "下山"
  },
  "4092523": {
    "zipcode": "4092523",
    "prefectureCode": "19",
    "prefectureNumber": 19,
    "prefecture": "山梨県",
    "city": "南巨摩郡身延町",
    "town": "波木井"
  },
  "4092524": {
    "zipcode": "4092524",
    "prefectureCode": "19",
    "prefectureNumber": 19,
    "prefecture": "山梨県",
    "city": "南巨摩郡身延町",
    "town": "身延"
  },
  "4092531": {
    "zipcode": "4092531",
    "prefectureCode": "19",
    "prefectureNumber": 19,
    "prefecture": "山梨県",
    "city": "南巨摩郡身延町",
    "town": "梅平"
  },
  "4092532": {
    "zipcode": "4092532",
    "prefectureCode": "19",
    "prefectureNumber": 19,
    "prefecture": "山梨県",
    "city": "南巨摩郡身延町",
    "town": "大野"
  },
  "4092533": {
    "zipcode": "4092533",
    "prefectureCode": "19",
    "prefectureNumber": 19,
    "prefecture": "山梨県",
    "city": "南巨摩郡身延町",
    "town": "清子"
  },
  "4092534": {
    "zipcode": "4092534",
    "prefectureCode": "19",
    "prefectureNumber": 19,
    "prefecture": "山梨県",
    "city": "南巨摩郡身延町",
    "town": "光子沢"
  },
  "4092535": {
    "zipcode": "4092535",
    "prefectureCode": "19",
    "prefectureNumber": 19,
    "prefecture": "山梨県",
    "city": "南巨摩郡身延町",
    "town": "横根中"
  },
  "4092536": {
    "zipcode": "4092536",
    "prefectureCode": "19",
    "prefectureNumber": 19,
    "prefecture": "山梨県",
    "city": "南巨摩郡身延町",
    "town": "相又"
  },
  "4092537": {
    "zipcode": "4092537",
    "prefectureCode": "19",
    "prefectureNumber": 19,
    "prefecture": "山梨県",
    "city": "南巨摩郡身延町",
    "town": "大城"
  },
  "4092538": {
    "zipcode": "4092538",
    "prefectureCode": "19",
    "prefectureNumber": 19,
    "prefecture": "山梨県",
    "city": "南巨摩郡身延町",
    "town": "門野"
  },
  "4092539": {
    "zipcode": "4092539",
    "prefectureCode": "19",
    "prefectureNumber": 19,
    "prefecture": "山梨県",
    "city": "南巨摩郡身延町",
    "town": "小田船原"
  },
  "4092700": {
    "zipcode": "4092700",
    "prefectureCode": "19",
    "prefectureNumber": 19,
    "prefecture": "山梨県",
    "city": "南巨摩郡早川町",
    "town": "以下に掲載がない場合"
  },
  "4092701": {
    "zipcode": "4092701",
    "prefectureCode": "19",
    "prefectureNumber": 19,
    "prefecture": "山梨県",
    "city": "南巨摩郡早川町",
    "town": "奈良田"
  },
  "4092702": {
    "zipcode": "4092702",
    "prefectureCode": "19",
    "prefectureNumber": 19,
    "prefecture": "山梨県",
    "city": "南巨摩郡早川町",
    "town": "湯島"
  },
  "4092703": {
    "zipcode": "4092703",
    "prefectureCode": "19",
    "prefectureNumber": 19,
    "prefecture": "山梨県",
    "city": "南巨摩郡早川町",
    "town": "新倉"
  },
  "4092704": {
    "zipcode": "4092704",
    "prefectureCode": "19",
    "prefectureNumber": 19,
    "prefecture": "山梨県",
    "city": "南巨摩郡早川町",
    "town": "大原野"
  },
  "4092705": {
    "zipcode": "4092705",
    "prefectureCode": "19",
    "prefectureNumber": 19,
    "prefecture": "山梨県",
    "city": "南巨摩郡早川町",
    "town": "早川"
  },
  "4092711": {
    "zipcode": "4092711",
    "prefectureCode": "19",
    "prefectureNumber": 19,
    "prefecture": "山梨県",
    "city": "南巨摩郡早川町",
    "town": "黒桂"
  },
  "4092712": {
    "zipcode": "4092712",
    "prefectureCode": "19",
    "prefectureNumber": 19,
    "prefecture": "山梨県",
    "city": "南巨摩郡早川町",
    "town": "西之宮"
  },
  "4092713": {
    "zipcode": "4092713",
    "prefectureCode": "19",
    "prefectureNumber": 19,
    "prefecture": "山梨県",
    "city": "南巨摩郡早川町",
    "town": "保"
  },
  "4092714": {
    "zipcode": "4092714",
    "prefectureCode": "19",
    "prefectureNumber": 19,
    "prefecture": "山梨県",
    "city": "南巨摩郡早川町",
    "town": "草塩"
  },
  "4092715": {
    "zipcode": "4092715",
    "prefectureCode": "19",
    "prefectureNumber": 19,
    "prefecture": "山梨県",
    "city": "南巨摩郡早川町",
    "town": "京ケ島"
  },
  "4092721": {
    "zipcode": "4092721",
    "prefectureCode": "19",
    "prefectureNumber": 19,
    "prefecture": "山梨県",
    "city": "南巨摩郡早川町",
    "town": "塩之上"
  },
  "4092722": {
    "zipcode": "4092722",
    "prefectureCode": "19",
    "prefectureNumber": 19,
    "prefecture": "山梨県",
    "city": "南巨摩郡早川町",
    "town": "笹走"
  },
  "4092723": {
    "zipcode": "4092723",
    "prefectureCode": "19",
    "prefectureNumber": 19,
    "prefecture": "山梨県",
    "city": "南巨摩郡早川町",
    "town": "榑坪"
  },
  "4092724": {
    "zipcode": "4092724",
    "prefectureCode": "19",
    "prefectureNumber": 19,
    "prefecture": "山梨県",
    "city": "南巨摩郡早川町",
    "town": "初鹿島"
  },
  "4092725": {
    "zipcode": "4092725",
    "prefectureCode": "19",
    "prefectureNumber": 19,
    "prefecture": "山梨県",
    "city": "南巨摩郡早川町",
    "town": "小縄"
  },
  "4092726": {
    "zipcode": "4092726",
    "prefectureCode": "19",
    "prefectureNumber": 19,
    "prefecture": "山梨県",
    "city": "南巨摩郡早川町",
    "town": "千須和"
  },
  "4092727": {
    "zipcode": "4092727",
    "prefectureCode": "19",
    "prefectureNumber": 19,
    "prefecture": "山梨県",
    "city": "南巨摩郡早川町",
    "town": "薬袋"
  },
  "4092731": {
    "zipcode": "4092731",
    "prefectureCode": "19",
    "prefectureNumber": 19,
    "prefecture": "山梨県",
    "city": "南巨摩郡早川町",
    "town": "大島"
  },
  "4092732": {
    "zipcode": "4092732",
    "prefectureCode": "19",
    "prefectureNumber": 19,
    "prefecture": "山梨県",
    "city": "南巨摩郡早川町",
    "town": "高住"
  },
  "4092733": {
    "zipcode": "4092733",
    "prefectureCode": "19",
    "prefectureNumber": 19,
    "prefecture": "山梨県",
    "city": "南巨摩郡早川町",
    "town": "赤沢"
  },
  "4092734": {
    "zipcode": "4092734",
    "prefectureCode": "19",
    "prefectureNumber": 19,
    "prefecture": "山梨県",
    "city": "南巨摩郡早川町",
    "town": "雨畑"
  },
  "4092931": {
    "zipcode": "4092931",
    "prefectureCode": "19",
    "prefectureNumber": 19,
    "prefecture": "山梨県",
    "city": "南巨摩郡身延町",
    "town": "北川"
  },
  "4092932": {
    "zipcode": "4092932",
    "prefectureCode": "19",
    "prefectureNumber": 19,
    "prefecture": "山梨県",
    "city": "南巨摩郡身延町",
    "town": "杉山"
  },
  "4092933": {
    "zipcode": "4092933",
    "prefectureCode": "19",
    "prefectureNumber": 19,
    "prefecture": "山梨県",
    "city": "南巨摩郡身延町",
    "town": "岩欠"
  },
  "4092934": {
    "zipcode": "4092934",
    "prefectureCode": "19",
    "prefectureNumber": 19,
    "prefecture": "山梨県",
    "city": "南巨摩郡身延町",
    "town": "大炊平"
  },
  "4092935": {
    "zipcode": "4092935",
    "prefectureCode": "19",
    "prefectureNumber": 19,
    "prefecture": "山梨県",
    "city": "南巨摩郡身延町",
    "town": "清沢"
  },
  "4092936": {
    "zipcode": "4092936",
    "prefectureCode": "19",
    "prefectureNumber": 19,
    "prefecture": "山梨県",
    "city": "南巨摩郡身延町",
    "town": "常葉"
  },
  "4092937": {
    "zipcode": "4092937",
    "prefectureCode": "19",
    "prefectureNumber": 19,
    "prefecture": "山梨県",
    "city": "南巨摩郡身延町",
    "town": "一色"
  },
  "4092938": {
    "zipcode": "4092938",
    "prefectureCode": "19",
    "prefectureNumber": 19,
    "prefecture": "山梨県",
    "city": "南巨摩郡身延町",
    "town": "市之瀬"
  },
  "4092941": {
    "zipcode": "4092941",
    "prefectureCode": "19",
    "prefectureNumber": 19,
    "prefecture": "山梨県",
    "city": "南巨摩郡身延町",
    "town": "湯之奥"
  },
  "4092942": {
    "zipcode": "4092942",
    "prefectureCode": "19",
    "prefectureNumber": 19,
    "prefecture": "山梨県",
    "city": "南巨摩郡身延町",
    "town": "下部"
  },
  "4092943": {
    "zipcode": "4092943",
    "prefectureCode": "19",
    "prefectureNumber": 19,
    "prefecture": "山梨県",
    "city": "南巨摩郡身延町",
    "town": "川向"
  },
  "4092944": {
    "zipcode": "4092944",
    "prefectureCode": "19",
    "prefectureNumber": 19,
    "prefecture": "山梨県",
    "city": "南巨摩郡身延町",
    "town": "桃ケ窪"
  },
  "4092945": {
    "zipcode": "4092945",
    "prefectureCode": "19",
    "prefectureNumber": 19,
    "prefecture": "山梨県",
    "city": "南巨摩郡身延町",
    "town": "波高島"
  },
  "4092946": {
    "zipcode": "4092946",
    "prefectureCode": "19",
    "prefectureNumber": 19,
    "prefecture": "山梨県",
    "city": "南巨摩郡身延町",
    "town": "大子"
  },
  "4092947": {
    "zipcode": "4092947",
    "prefectureCode": "19",
    "prefectureNumber": 19,
    "prefecture": "山梨県",
    "city": "南巨摩郡身延町",
    "town": "上之平"
  },
  "4093101": {
    "zipcode": "4093101",
    "prefectureCode": "19",
    "prefectureNumber": 19,
    "prefecture": "山梨県",
    "city": "南巨摩郡身延町",
    "town": "折門"
  },
  "4093102": {
    "zipcode": "4093102",
    "prefectureCode": "19",
    "prefectureNumber": 19,
    "prefecture": "山梨県",
    "city": "南巨摩郡身延町",
    "town": "八坂"
  },
  "4093103": {
    "zipcode": "4093103",
    "prefectureCode": "19",
    "prefectureNumber": 19,
    "prefecture": "山梨県",
    "city": "南巨摩郡身延町",
    "town": "根子"
  },
  "4093104": {
    "zipcode": "4093104",
    "prefectureCode": "19",
    "prefectureNumber": 19,
    "prefecture": "山梨県",
    "city": "南巨摩郡身延町",
    "town": "中之倉"
  },
  "4093105": {
    "zipcode": "4093105",
    "prefectureCode": "19",
    "prefectureNumber": 19,
    "prefecture": "山梨県",
    "city": "南巨摩郡身延町",
    "town": "釜額"
  },
  "4093106": {
    "zipcode": "4093106",
    "prefectureCode": "19",
    "prefectureNumber": 19,
    "prefecture": "山梨県",
    "city": "南巨摩郡身延町",
    "town": "古関"
  },
  "4093107": {
    "zipcode": "4093107",
    "prefectureCode": "19",
    "prefectureNumber": 19,
    "prefecture": "山梨県",
    "city": "南巨摩郡身延町",
    "town": "瀬戸"
  },
  "4093111": {
    "zipcode": "4093111",
    "prefectureCode": "19",
    "prefectureNumber": 19,
    "prefecture": "山梨県",
    "city": "南巨摩郡身延町",
    "town": "大磯小磯"
  },
  "4093112": {
    "zipcode": "4093112",
    "prefectureCode": "19",
    "prefectureNumber": 19,
    "prefecture": "山梨県",
    "city": "南巨摩郡身延町",
    "town": "芝草"
  },
  "4093113": {
    "zipcode": "4093113",
    "prefectureCode": "19",
    "prefectureNumber": 19,
    "prefecture": "山梨県",
    "city": "南巨摩郡身延町",
    "town": "水船"
  },
  "4093114": {
    "zipcode": "4093114",
    "prefectureCode": "19",
    "prefectureNumber": 19,
    "prefecture": "山梨県",
    "city": "南巨摩郡身延町",
    "town": "道"
  },
  "4093115": {
    "zipcode": "4093115",
    "prefectureCode": "19",
    "prefectureNumber": 19,
    "prefecture": "山梨県",
    "city": "南巨摩郡身延町",
    "town": "切房木"
  },
  "4093116": {
    "zipcode": "4093116",
    "prefectureCode": "19",
    "prefectureNumber": 19,
    "prefecture": "山梨県",
    "city": "南巨摩郡身延町",
    "town": "車田"
  },
  "4093117": {
    "zipcode": "4093117",
    "prefectureCode": "19",
    "prefectureNumber": 19,
    "prefecture": "山梨県",
    "city": "南巨摩郡身延町",
    "town": "三沢"
  },
  "4093118": {
    "zipcode": "4093118",
    "prefectureCode": "19",
    "prefectureNumber": 19,
    "prefecture": "山梨県",
    "city": "南巨摩郡身延町",
    "town": "上田原"
  },
  "4093121": {
    "zipcode": "4093121",
    "prefectureCode": "19",
    "prefectureNumber": 19,
    "prefecture": "山梨県",
    "city": "南巨摩郡身延町",
    "town": "大山"
  },
  "4093122": {
    "zipcode": "4093122",
    "prefectureCode": "19",
    "prefectureNumber": 19,
    "prefecture": "山梨県",
    "city": "南巨摩郡身延町",
    "town": "久保"
  },
  "4093123": {
    "zipcode": "4093123",
    "prefectureCode": "19",
    "prefectureNumber": 19,
    "prefecture": "山梨県",
    "city": "南巨摩郡身延町",
    "town": "熊沢"
  },
  "4093124": {
    "zipcode": "4093124",
    "prefectureCode": "19",
    "prefectureNumber": 19,
    "prefecture": "山梨県",
    "city": "南巨摩郡身延町",
    "town": "樋田"
  },
  "4093125": {
    "zipcode": "4093125",
    "prefectureCode": "19",
    "prefectureNumber": 19,
    "prefecture": "山梨県",
    "city": "南巨摩郡身延町",
    "town": "嶺"
  },
  "4093126": {
    "zipcode": "4093126",
    "prefectureCode": "19",
    "prefectureNumber": 19,
    "prefecture": "山梨県",
    "city": "南巨摩郡身延町",
    "town": "山家"
  },
  "4093231": {
    "zipcode": "4093231",
    "prefectureCode": "19",
    "prefectureNumber": 19,
    "prefecture": "山梨県",
    "city": "西八代郡市川三郷町",
    "town": "落居"
  },
  "4093232": {
    "zipcode": "4093232",
    "prefectureCode": "19",
    "prefectureNumber": 19,
    "prefecture": "山梨県",
    "city": "西八代郡市川三郷町",
    "town": "寺所"
  },
  "4093233": {
    "zipcode": "4093233",
    "prefectureCode": "19",
    "prefectureNumber": 19,
    "prefecture": "山梨県",
    "city": "西八代郡市川三郷町",
    "town": "五八"
  },
  "4093234": {
    "zipcode": "4093234",
    "prefectureCode": "19",
    "prefectureNumber": 19,
    "prefecture": "山梨県",
    "city": "西八代郡市川三郷町",
    "town": "岩下"
  },
  "4093241": {
    "zipcode": "4093241",
    "prefectureCode": "19",
    "prefectureNumber": 19,
    "prefecture": "山梨県",
    "city": "西八代郡市川三郷町",
    "town": "葛籠沢"
  },
  "4093242": {
    "zipcode": "4093242",
    "prefectureCode": "19",
    "prefectureNumber": 19,
    "prefecture": "山梨県",
    "city": "西八代郡市川三郷町",
    "town": "宮原"
  },
  "4093243": {
    "zipcode": "4093243",
    "prefectureCode": "19",
    "prefectureNumber": 19,
    "prefecture": "山梨県",
    "city": "西八代郡市川三郷町",
    "town": "鴨狩津向"
  },
  "4093244": {
    "zipcode": "4093244",
    "prefectureCode": "19",
    "prefectureNumber": 19,
    "prefecture": "山梨県",
    "city": "西八代郡市川三郷町",
    "town": "岩間"
  },
  "4093245": {
    "zipcode": "4093245",
    "prefectureCode": "19",
    "prefectureNumber": 19,
    "prefecture": "山梨県",
    "city": "西八代郡市川三郷町",
    "town": "楠甫"
  },
  "4093301": {
    "zipcode": "4093301",
    "prefectureCode": "19",
    "prefectureNumber": 19,
    "prefecture": "山梨県",
    "city": "南巨摩郡身延町",
    "town": "西嶋"
  },
  "4093302": {
    "zipcode": "4093302",
    "prefectureCode": "19",
    "prefectureNumber": 19,
    "prefecture": "山梨県",
    "city": "南巨摩郡身延町",
    "town": "手打沢"
  },
  "4093303": {
    "zipcode": "4093303",
    "prefectureCode": "19",
    "prefectureNumber": 19,
    "prefecture": "山梨県",
    "city": "南巨摩郡身延町",
    "town": "寺沢"
  },
  "4093304": {
    "zipcode": "4093304",
    "prefectureCode": "19",
    "prefectureNumber": 19,
    "prefecture": "山梨県",
    "city": "南巨摩郡身延町",
    "town": "切石"
  },
  "4093305": {
    "zipcode": "4093305",
    "prefectureCode": "19",
    "prefectureNumber": 19,
    "prefecture": "山梨県",
    "city": "南巨摩郡身延町",
    "town": "下田原"
  },
  "4093306": {
    "zipcode": "4093306",
    "prefectureCode": "19",
    "prefectureNumber": 19,
    "prefecture": "山梨県",
    "city": "南巨摩郡身延町",
    "town": "夜子沢"
  },
  "4093307": {
    "zipcode": "4093307",
    "prefectureCode": "19",
    "prefectureNumber": 19,
    "prefecture": "山梨県",
    "city": "南巨摩郡身延町",
    "town": "日向南沢"
  },
  "4093311": {
    "zipcode": "4093311",
    "prefectureCode": "19",
    "prefectureNumber": 19,
    "prefecture": "山梨県",
    "city": "南巨摩郡身延町",
    "town": "大塩"
  },
  "4093312": {
    "zipcode": "4093312",
    "prefectureCode": "19",
    "prefectureNumber": 19,
    "prefecture": "山梨県",
    "city": "南巨摩郡身延町",
    "town": "久成"
  },
  "4093313": {
    "zipcode": "4093313",
    "prefectureCode": "19",
    "prefectureNumber": 19,
    "prefecture": "山梨県",
    "city": "南巨摩郡身延町",
    "town": "平須"
  },
  "4093421": {
    "zipcode": "4093421",
    "prefectureCode": "19",
    "prefectureNumber": 19,
    "prefecture": "山梨県",
    "city": "南巨摩郡身延町",
    "town": "八日市場"
  },
  "4093422": {
    "zipcode": "4093422",
    "prefectureCode": "19",
    "prefectureNumber": 19,
    "prefecture": "山梨県",
    "city": "南巨摩郡身延町",
    "town": "宮木"
  },
  "4093423": {
    "zipcode": "4093423",
    "prefectureCode": "19",
    "prefectureNumber": 19,
    "prefecture": "山梨県",
    "city": "南巨摩郡身延町",
    "town": "飯富"
  },
  "4093424": {
    "zipcode": "4093424",
    "prefectureCode": "19",
    "prefectureNumber": 19,
    "prefecture": "山梨県",
    "city": "南巨摩郡身延町",
    "town": "伊沼"
  },
  "4093431": {
    "zipcode": "4093431",
    "prefectureCode": "19",
    "prefectureNumber": 19,
    "prefecture": "山梨県",
    "city": "南巨摩郡身延町",
    "town": "矢細工"
  },
  "4093432": {
    "zipcode": "4093432",
    "prefectureCode": "19",
    "prefectureNumber": 19,
    "prefecture": "山梨県",
    "city": "南巨摩郡身延町",
    "town": "中山"
  },
  "4093433": {
    "zipcode": "4093433",
    "prefectureCode": "19",
    "prefectureNumber": 19,
    "prefecture": "山梨県",
    "city": "南巨摩郡身延町",
    "town": "遅沢"
  },
  "4093434": {
    "zipcode": "4093434",
    "prefectureCode": "19",
    "prefectureNumber": 19,
    "prefecture": "山梨県",
    "city": "南巨摩郡身延町",
    "town": "江尻窪"
  },
  "4093435": {
    "zipcode": "4093435",
    "prefectureCode": "19",
    "prefectureNumber": 19,
    "prefecture": "山梨県",
    "city": "南巨摩郡身延町",
    "town": "梨子"
  },
  "4093436": {
    "zipcode": "4093436",
    "prefectureCode": "19",
    "prefectureNumber": 19,
    "prefecture": "山梨県",
    "city": "南巨摩郡身延町",
    "town": "福原"
  },
  "4093437": {
    "zipcode": "4093437",
    "prefectureCode": "19",
    "prefectureNumber": 19,
    "prefecture": "山梨県",
    "city": "南巨摩郡身延町",
    "town": "古長谷"
  },
  "4093600": {
    "zipcode": "4093600",
    "prefectureCode": "19",
    "prefectureNumber": 19,
    "prefecture": "山梨県",
    "city": "西八代郡市川三郷町",
    "town": "以下に掲載がない場合"
  },
  "4093601": {
    "zipcode": "4093601",
    "prefectureCode": "19",
    "prefectureNumber": 19,
    "prefecture": "山梨県",
    "city": "西八代郡市川三郷町",
    "town": "市川大門"
  },
  "4093602": {
    "zipcode": "4093602",
    "prefectureCode": "19",
    "prefectureNumber": 19,
    "prefecture": "山梨県",
    "city": "西八代郡市川三郷町",
    "town": "山保"
  },
  "4093603": {
    "zipcode": "4093603",
    "prefectureCode": "19",
    "prefectureNumber": 19,
    "prefecture": "山梨県",
    "city": "西八代郡市川三郷町",
    "town": "黒沢"
  },
  "4093604": {
    "zipcode": "4093604",
    "prefectureCode": "19",
    "prefectureNumber": 19,
    "prefecture": "山梨県",
    "city": "西八代郡市川三郷町",
    "town": "八之尻"
  },
  "4093605": {
    "zipcode": "4093605",
    "prefectureCode": "19",
    "prefectureNumber": 19,
    "prefecture": "山梨県",
    "city": "西八代郡市川三郷町",
    "town": "下大鳥居"
  },
  "4093606": {
    "zipcode": "4093606",
    "prefectureCode": "19",
    "prefectureNumber": 19,
    "prefecture": "山梨県",
    "city": "西八代郡市川三郷町",
    "town": "高田"
  },
  "4093607": {
    "zipcode": "4093607",
    "prefectureCode": "19",
    "prefectureNumber": 19,
    "prefecture": "山梨県",
    "city": "西八代郡市川三郷町",
    "town": "印沢"
  },
  "4093611": {
    "zipcode": "4093611",
    "prefectureCode": "19",
    "prefectureNumber": 19,
    "prefecture": "山梨県",
    "city": "西八代郡市川三郷町",
    "town": "大塚"
  },
  "4093612": {
    "zipcode": "4093612",
    "prefectureCode": "19",
    "prefectureNumber": 19,
    "prefecture": "山梨県",
    "city": "西八代郡市川三郷町",
    "town": "上野"
  },
  "4093621": {
    "zipcode": "4093621",
    "prefectureCode": "19",
    "prefectureNumber": 19,
    "prefecture": "山梨県",
    "city": "西八代郡市川三郷町",
    "town": "下芦川"
  },
  "4093622": {
    "zipcode": "4093622",
    "prefectureCode": "19",
    "prefectureNumber": 19,
    "prefecture": "山梨県",
    "city": "西八代郡市川三郷町",
    "town": "三帳"
  },
  "4093623": {
    "zipcode": "4093623",
    "prefectureCode": "19",
    "prefectureNumber": 19,
    "prefecture": "山梨県",
    "city": "西八代郡市川三郷町",
    "town": "高萩"
  },
  "4093624": {
    "zipcode": "4093624",
    "prefectureCode": "19",
    "prefectureNumber": 19,
    "prefecture": "山梨県",
    "city": "西八代郡市川三郷町",
    "town": "垈"
  },
  "4093625": {
    "zipcode": "4093625",
    "prefectureCode": "19",
    "prefectureNumber": 19,
    "prefecture": "山梨県",
    "city": "西八代郡市川三郷町",
    "town": "中山"
  },
  "4093626": {
    "zipcode": "4093626",
    "prefectureCode": "19",
    "prefectureNumber": 19,
    "prefecture": "山梨県",
    "city": "西八代郡市川三郷町",
    "town": "畑熊"
  },
  "4093701": {
    "zipcode": "4093701",
    "prefectureCode": "19",
    "prefectureNumber": 19,
    "prefecture": "山梨県",
    "city": "笛吹市",
    "town": "芦川町上芦川"
  },
  "4093702": {
    "zipcode": "4093702",
    "prefectureCode": "19",
    "prefectureNumber": 19,
    "prefecture": "山梨県",
    "city": "笛吹市",
    "town": "芦川町新井原"
  },
  "4093703": {
    "zipcode": "4093703",
    "prefectureCode": "19",
    "prefectureNumber": 19,
    "prefecture": "山梨県",
    "city": "笛吹市",
    "town": "芦川町中芦川"
  },
  "4093704": {
    "zipcode": "4093704",
    "prefectureCode": "19",
    "prefectureNumber": 19,
    "prefecture": "山梨県",
    "city": "笛吹市",
    "town": "芦川町鶯宿"
  },
  "4093711": {
    "zipcode": "4093711",
    "prefectureCode": "19",
    "prefectureNumber": 19,
    "prefecture": "山梨県",
    "city": "甲府市",
    "town": "梯町"
  },
  "4093712": {
    "zipcode": "4093712",
    "prefectureCode": "19",
    "prefectureNumber": 19,
    "prefecture": "山梨県",
    "city": "甲府市",
    "town": "古関町"
  },
  "4093800": {
    "zipcode": "4093800",
    "prefectureCode": "19",
    "prefectureNumber": 19,
    "prefecture": "山梨県",
    "city": "中巨摩郡昭和町",
    "town": "以下に掲載がない場合"
  },
  "4093801": {
    "zipcode": "4093801",
    "prefectureCode": "19",
    "prefectureNumber": 19,
    "prefecture": "山梨県",
    "city": "中央市",
    "town": "中楯"
  },
  "4093802": {
    "zipcode": "4093802",
    "prefectureCode": "19",
    "prefectureNumber": 19,
    "prefecture": "山梨県",
    "city": "中央市",
    "town": "西新居"
  },
  "4093803": {
    "zipcode": "4093803",
    "prefectureCode": "19",
    "prefectureNumber": 19,
    "prefecture": "山梨県",
    "city": "中央市",
    "town": "若宮"
  },
  "4093804": {
    "zipcode": "4093804",
    "prefectureCode": "19",
    "prefectureNumber": 19,
    "prefecture": "山梨県",
    "city": "中央市",
    "town": "井之口"
  },
  "4093811": {
    "zipcode": "4093811",
    "prefectureCode": "19",
    "prefectureNumber": 19,
    "prefecture": "山梨県",
    "city": "中央市",
    "town": "極楽寺"
  },
  "4093812": {
    "zipcode": "4093812",
    "prefectureCode": "19",
    "prefectureNumber": 19,
    "prefecture": "山梨県",
    "city": "中央市",
    "town": "乙黒"
  },
  "4093813": {
    "zipcode": "4093813",
    "prefectureCode": "19",
    "prefectureNumber": 19,
    "prefecture": "山梨県",
    "city": "中央市",
    "town": "一町畑"
  },
  "4093814": {
    "zipcode": "4093814",
    "prefectureCode": "19",
    "prefectureNumber": 19,
    "prefecture": "山梨県",
    "city": "中央市",
    "town": "町之田"
  },
  "4093815": {
    "zipcode": "4093815",
    "prefectureCode": "19",
    "prefectureNumber": 19,
    "prefecture": "山梨県",
    "city": "中央市",
    "town": "成島"
  },
  "4093821": {
    "zipcode": "4093821",
    "prefectureCode": "19",
    "prefectureNumber": 19,
    "prefecture": "山梨県",
    "city": "中央市",
    "town": "下河東"
  },
  "4093822": {
    "zipcode": "4093822",
    "prefectureCode": "19",
    "prefectureNumber": 19,
    "prefecture": "山梨県",
    "city": "中央市",
    "town": "下三條"
  },
  "4093823": {
    "zipcode": "4093823",
    "prefectureCode": "19",
    "prefectureNumber": 19,
    "prefecture": "山梨県",
    "city": "中央市",
    "town": "上三條"
  },
  "4093831": {
    "zipcode": "4093831",
    "prefectureCode": "19",
    "prefectureNumber": 19,
    "prefecture": "山梨県",
    "city": "中央市",
    "town": "大田和"
  },
  "4093832": {
    "zipcode": "4093832",
    "prefectureCode": "19",
    "prefectureNumber": 19,
    "prefecture": "山梨県",
    "city": "中央市",
    "town": "馬籠"
  },
  "4093833": {
    "zipcode": "4093833",
    "prefectureCode": "19",
    "prefectureNumber": 19,
    "prefecture": "山梨県",
    "city": "中央市",
    "town": "藤巻"
  },
  "4093834": {
    "zipcode": "4093834",
    "prefectureCode": "19",
    "prefectureNumber": 19,
    "prefecture": "山梨県",
    "city": "中央市",
    "town": "今福"
  },
  "4093835": {
    "zipcode": "4093835",
    "prefectureCode": "19",
    "prefectureNumber": 19,
    "prefecture": "山梨県",
    "city": "中央市",
    "town": "今福新田"
  },
  "4093841": {
    "zipcode": "4093841",
    "prefectureCode": "19",
    "prefectureNumber": 19,
    "prefecture": "山梨県",
    "city": "中央市",
    "town": "布施"
  },
  "4093842": {
    "zipcode": "4093842",
    "prefectureCode": "19",
    "prefectureNumber": 19,
    "prefecture": "山梨県",
    "city": "中央市",
    "town": "東花輪"
  },
  "4093843": {
    "zipcode": "4093843",
    "prefectureCode": "19",
    "prefectureNumber": 19,
    "prefecture": "山梨県",
    "city": "中央市",
    "town": "西花輪"
  },
  "4093844": {
    "zipcode": "4093844",
    "prefectureCode": "19",
    "prefectureNumber": 19,
    "prefecture": "山梨県",
    "city": "中央市",
    "town": "臼井阿原"
  },
  "4093845": {
    "zipcode": "4093845",
    "prefectureCode": "19",
    "prefectureNumber": 19,
    "prefecture": "山梨県",
    "city": "中央市",
    "town": "山之神"
  },
  "4093851": {
    "zipcode": "4093851",
    "prefectureCode": "19",
    "prefectureNumber": 19,
    "prefecture": "山梨県",
    "city": "中巨摩郡昭和町",
    "town": "河西"
  },
  "4093852": {
    "zipcode": "4093852",
    "prefectureCode": "19",
    "prefectureNumber": 19,
    "prefecture": "山梨県",
    "city": "中巨摩郡昭和町",
    "town": "飯喰"
  },
  "4093853": {
    "zipcode": "4093853",
    "prefectureCode": "19",
    "prefectureNumber": 19,
    "prefecture": "山梨県",
    "city": "中巨摩郡昭和町",
    "town": "築地新居"
  },
  "4093854": {
    "zipcode": "4093854",
    "prefectureCode": "19",
    "prefectureNumber": 19,
    "prefecture": "山梨県",
    "city": "中巨摩郡昭和町",
    "town": "築地新田"
  },
  "4093861": {
    "zipcode": "4093861",
    "prefectureCode": "19",
    "prefectureNumber": 19,
    "prefecture": "山梨県",
    "city": "中巨摩郡昭和町",
    "town": "紙漉阿原"
  },
  "4093862": {
    "zipcode": "4093862",
    "prefectureCode": "19",
    "prefectureNumber": 19,
    "prefecture": "山梨県",
    "city": "中巨摩郡昭和町",
    "town": "上河東"
  },
  "4093863": {
    "zipcode": "4093863",
    "prefectureCode": "19",
    "prefectureNumber": 19,
    "prefecture": "山梨県",
    "city": "中巨摩郡昭和町",
    "town": "河東中島"
  },
  "4093864": {
    "zipcode": "4093864",
    "prefectureCode": "19",
    "prefectureNumber": 19,
    "prefecture": "山梨県",
    "city": "中巨摩郡昭和町",
    "town": "押越"
  },
  "4093865": {
    "zipcode": "4093865",
    "prefectureCode": "19",
    "prefectureNumber": 19,
    "prefecture": "山梨県",
    "city": "中巨摩郡昭和町",
    "town": "西条新田"
  },
  "4093866": {
    "zipcode": "4093866",
    "prefectureCode": "19",
    "prefectureNumber": 19,
    "prefecture": "山梨県",
    "city": "中巨摩郡昭和町",
    "town": "西条"
  },
  "4093867": {
    "zipcode": "4093867",
    "prefectureCode": "19",
    "prefectureNumber": 19,
    "prefecture": "山梨県",
    "city": "中巨摩郡昭和町",
    "town": "清水新居"
  }
}
