{
  "4110000": {
    "zipcode": "4110000",
    "prefectureCode": "22",
    "prefectureNumber": 22,
    "prefecture": "静岡県",
    "city": "駿東郡長泉町",
    "town": "以下に掲載がない場合"
  },
  "4110001": {
    "zipcode": "4110001",
    "prefectureCode": "22",
    "prefectureNumber": 22,
    "prefecture": "静岡県",
    "city": "田方郡函南町",
    "town": "桑原（箱根峠）"
  },
  "4110011": {
    "zipcode": "4110011",
    "prefectureCode": "22",
    "prefectureNumber": 22,
    "prefecture": "静岡県",
    "city": "三島市",
    "town": "山中新田"
  },
  "4110012": {
    "zipcode": "4110012",
    "prefectureCode": "22",
    "prefectureNumber": 22,
    "prefecture": "静岡県",
    "city": "三島市",
    "town": "笹原新田"
  },
  "4110013": {
    "zipcode": "4110013",
    "prefectureCode": "22",
    "prefectureNumber": 22,
    "prefecture": "静岡県",
    "city": "三島市",
    "town": "三ツ谷新田"
  },
  "4110014": {
    "zipcode": "4110014",
    "prefectureCode": "22",
    "prefectureNumber": 22,
    "prefecture": "静岡県",
    "city": "三島市",
    "town": "玉沢"
  },
  "4110015": {
    "zipcode": "4110015",
    "prefectureCode": "22",
    "prefectureNumber": 22,
    "prefecture": "静岡県",
    "city": "三島市",
    "town": "市山新田"
  },
  "4110016": {
    "zipcode": "4110016",
    "prefectureCode": "22",
    "prefectureNumber": 22,
    "prefecture": "静岡県",
    "city": "三島市",
    "town": "塚原新田"
  },
  "4110017": {
    "zipcode": "4110017",
    "prefectureCode": "22",
    "prefectureNumber": 22,
    "prefecture": "静岡県",
    "city": "三島市",
    "town": "三恵台"
  },
  "4110018": {
    "zipcode": "4110018",
    "prefectureCode": "22",
    "prefectureNumber": 22,
    "prefecture": "静岡県",
    "city": "三島市",
    "town": "初音台"
  },
  "4110019": {
    "zipcode": "4110019",
    "prefectureCode": "22",
    "prefectureNumber": 22,
    "prefecture": "静岡県",
    "city": "三島市",
    "town": "松が丘"
  },
  "4110020": {
    "zipcode": "4110020",
    "prefectureCode": "22",
    "prefectureNumber": 22,
    "prefecture": "静岡県",
    "city": "三島市",
    "town": "旭ケ丘"
  },
  "4110021": {
    "zipcode": "4110021",
    "prefectureCode": "22",
    "prefectureNumber": 22,
    "prefecture": "静岡県",
    "city": "三島市",
    "town": "富士見台"
  },
  "4110022": {
    "zipcode": "4110022",
    "prefectureCode": "22",
    "prefectureNumber": 22,
    "prefecture": "静岡県",
    "city": "三島市",
    "town": "川原ケ谷"
  },
  "4110023": {
    "zipcode": "4110023",
    "prefectureCode": "22",
    "prefectureNumber": 22,
    "prefecture": "静岡県",
    "city": "三島市",
    "town": "加茂"
  },
  "4110024": {
    "zipcode": "4110024",
    "prefectureCode": "22",
    "prefectureNumber": 22,
    "prefecture": "静岡県",
    "city": "三島市",
    "town": "若松町"
  },
  "4110025": {
    "zipcode": "4110025",
    "prefectureCode": "22",
    "prefectureNumber": 22,
    "prefecture": "静岡県",
    "city": "三島市",
    "town": "壱町田"
  },
  "4110026": {
    "zipcode": "4110026",
    "prefectureCode": "22",
    "prefectureNumber": 22,
    "prefecture": "静岡県",
    "city": "三島市",
    "town": "東壱町田"
  },
  "4110027": {
    "zipcode": "4110027",
    "prefectureCode": "22",
    "prefectureNumber": 22,
    "prefecture": "静岡県",
    "city": "三島市",
    "town": "千枚原"
  },
  "4110028": {
    "zipcode": "4110028",
    "prefectureCode": "22",
    "prefectureNumber": 22,
    "prefecture": "静岡県",
    "city": "三島市",
    "town": "富士ビレッジ"
  },
  "4110029": {
    "zipcode": "4110029",
    "prefectureCode": "22",
    "prefectureNumber": 22,
    "prefecture": "静岡県",
    "city": "三島市",
    "town": "光ケ丘"
  },
  "4110030": {
    "zipcode": "4110030",
    "prefectureCode": "22",
    "prefectureNumber": 22,
    "prefecture": "静岡県",
    "city": "三島市",
    "town": "西旭ケ丘町"
  },
  "4110031": {
    "zipcode": "4110031",
    "prefectureCode": "22",
    "prefectureNumber": 22,
    "prefecture": "静岡県",
    "city": "三島市",
    "town": "幸原町"
  },
  "4110032": {
    "zipcode": "4110032",
    "prefectureCode": "22",
    "prefectureNumber": 22,
    "prefecture": "静岡県",
    "city": "三島市",
    "town": "末広町"
  },
  "4110033": {
    "zipcode": "4110033",
    "prefectureCode": "22",
    "prefectureNumber": 22,
    "prefecture": "静岡県",
    "city": "三島市",
    "town": "文教町"
  },
  "4110034": {
    "zipcode": "4110034",
    "prefectureCode": "22",
    "prefectureNumber": 22,
    "prefecture": "静岡県",
    "city": "三島市",
    "town": "加茂川町"
  },
  "4110035": {
    "zipcode": "4110035",
    "prefectureCode": "22",
    "prefectureNumber": 22,
    "prefecture": "静岡県",
    "city": "三島市",
    "town": "大宮町"
  },
  "4110036": {
    "zipcode": "4110036",
    "prefectureCode": "22",
    "prefectureNumber": 22,
    "prefecture": "静岡県",
    "city": "三島市",
    "town": "一番町"
  },
  "4110037": {
    "zipcode": "4110037",
    "prefectureCode": "22",
    "prefectureNumber": 22,
    "prefecture": "静岡県",
    "city": "三島市",
    "town": "泉町"
  },
  "4110038": {
    "zipcode": "4110038",
    "prefectureCode": "22",
    "prefectureNumber": 22,
    "prefecture": "静岡県",
    "city": "三島市",
    "town": "西若町"
  },
  "4110039": {
    "zipcode": "4110039",
    "prefectureCode": "22",
    "prefectureNumber": 22,
    "prefecture": "静岡県",
    "city": "三島市",
    "town": "寿町"
  },
  "4110041": {
    "zipcode": "4110041",
    "prefectureCode": "22",
    "prefectureNumber": 22,
    "prefecture": "静岡県",
    "city": "三島市",
    "town": "佐野見晴台"
  },
  "4110042": {
    "zipcode": "4110042",
    "prefectureCode": "22",
    "prefectureNumber": 22,
    "prefecture": "静岡県",
    "city": "三島市",
    "town": "平成台"
  },
  "4110043": {
    "zipcode": "4110043",
    "prefectureCode": "22",
    "prefectureNumber": 22,
    "prefecture": "静岡県",
    "city": "三島市",
    "town": "沢地"
  },
  "4110044": {
    "zipcode": "4110044",
    "prefectureCode": "22",
    "prefectureNumber": 22,
    "prefecture": "静岡県",
    "city": "三島市",
    "town": "徳倉"
  },
  "4110045": {
    "zipcode": "4110045",
    "prefectureCode": "22",
    "prefectureNumber": 22,
    "prefecture": "静岡県",
    "city": "三島市",
    "town": "萩"
  },
  "4110046": {
    "zipcode": "4110046",
    "prefectureCode": "22",
    "prefectureNumber": 22,
    "prefecture": "静岡県",
    "city": "三島市",
    "town": "芙蓉台"
  },
  "4110047": {
    "zipcode": "4110047",
    "prefectureCode": "22",
    "prefectureNumber": 22,
    "prefecture": "静岡県",
    "city": "三島市",
    "town": "佐野"
  },
  "4110801": {
    "zipcode": "4110801",
    "prefectureCode": "22",
    "prefectureNumber": 22,
    "prefecture": "静岡県",
    "city": "三島市",
    "town": "谷田"
  },
  "4110802": {
    "zipcode": "4110802",
    "prefectureCode": "22",
    "prefectureNumber": 22,
    "prefecture": "静岡県",
    "city": "三島市",
    "town": "東大場"
  },
  "4110803": {
    "zipcode": "4110803",
    "prefectureCode": "22",
    "prefectureNumber": 22,
    "prefecture": "静岡県",
    "city": "三島市",
    "town": "大場"
  },
  "4110804": {
    "zipcode": "4110804",
    "prefectureCode": "22",
    "prefectureNumber": 22,
    "prefecture": "静岡県",
    "city": "三島市",
    "town": "多呂"
  },
  "4110805": {
    "zipcode": "4110805",
    "prefectureCode": "22",
    "prefectureNumber": 22,
    "prefecture": "静岡県",
    "city": "三島市",
    "town": "北沢"
  },
  "4110806": {
    "zipcode": "4110806",
    "prefectureCode": "22",
    "prefectureNumber": 22,
    "prefecture": "静岡県",
    "city": "三島市",
    "town": "柳郷地"
  },
  "4110807": {
    "zipcode": "4110807",
    "prefectureCode": "22",
    "prefectureNumber": 22,
    "prefecture": "静岡県",
    "city": "三島市",
    "town": "竹倉"
  },
  "4110808": {
    "zipcode": "4110808",
    "prefectureCode": "22",
    "prefectureNumber": 22,
    "prefecture": "静岡県",
    "city": "三島市",
    "town": "錦が丘"
  },
  "4110811": {
    "zipcode": "4110811",
    "prefectureCode": "22",
    "prefectureNumber": 22,
    "prefecture": "静岡県",
    "city": "三島市",
    "town": "青木"
  },
  "4110812": {
    "zipcode": "4110812",
    "prefectureCode": "22",
    "prefectureNumber": 22,
    "prefecture": "静岡県",
    "city": "三島市",
    "town": "藤代町"
  },
  "4110813": {
    "zipcode": "4110813",
    "prefectureCode": "22",
    "prefectureNumber": 22,
    "prefecture": "静岡県",
    "city": "三島市",
    "town": "鶴喰"
  },
  "4110814": {
    "zipcode": "4110814",
    "prefectureCode": "22",
    "prefectureNumber": 22,
    "prefecture": "静岡県",
    "city": "三島市",
    "town": "中島"
  },
  "4110815": {
    "zipcode": "4110815",
    "prefectureCode": "22",
    "prefectureNumber": 22,
    "prefecture": "静岡県",
    "city": "三島市",
    "town": "安久"
  },
  "4110816": {
    "zipcode": "4110816",
    "prefectureCode": "22",
    "prefectureNumber": 22,
    "prefecture": "静岡県",
    "city": "三島市",
    "town": "梅名"
  },
  "4110817": {
    "zipcode": "4110817",
    "prefectureCode": "22",
    "prefectureNumber": 22,
    "prefecture": "静岡県",
    "city": "三島市",
    "town": "八反畑"
  },
  "4110821": {
    "zipcode": "4110821",
    "prefectureCode": "22",
    "prefectureNumber": 22,
    "prefecture": "静岡県",
    "city": "三島市",
    "town": "平田"
  },
  "4110822": {
    "zipcode": "4110822",
    "prefectureCode": "22",
    "prefectureNumber": 22,
    "prefecture": "静岡県",
    "city": "三島市",
    "town": "松本"
  },
  "4110823": {
    "zipcode": "4110823",
    "prefectureCode": "22",
    "prefectureNumber": 22,
    "prefecture": "静岡県",
    "city": "三島市",
    "town": "御園"
  },
  "4110824": {
    "zipcode": "4110824",
    "prefectureCode": "22",
    "prefectureNumber": 22,
    "prefecture": "静岡県",
    "city": "三島市",
    "town": "長伏"
  },
  "4110831": {
    "zipcode": "4110831",
    "prefectureCode": "22",
    "prefectureNumber": 22,
    "prefecture": "静岡県",
    "city": "三島市",
    "town": "東本町"
  },
  "4110832": {
    "zipcode": "4110832",
    "prefectureCode": "22",
    "prefectureNumber": 22,
    "prefecture": "静岡県",
    "city": "三島市",
    "town": "南二日町"
  },
  "4110833": {
    "zipcode": "4110833",
    "prefectureCode": "22",
    "prefectureNumber": 22,
    "prefecture": "静岡県",
    "city": "三島市",
    "town": "中"
  },
  "4110834": {
    "zipcode": "4110834",
    "prefectureCode": "22",
    "prefectureNumber": 22,
    "prefecture": "静岡県",
    "city": "三島市",
    "town": "新谷"
  },
  "4110835": {
    "zipcode": "4110835",
    "prefectureCode": "22",
    "prefectureNumber": 22,
    "prefecture": "静岡県",
    "city": "三島市",
    "town": "玉川"
  },
  "4110836": {
    "zipcode": "4110836",
    "prefectureCode": "22",
    "prefectureNumber": 22,
    "prefecture": "静岡県",
    "city": "三島市",
    "town": "富田町"
  },
  "4110837": {
    "zipcode": "4110837",
    "prefectureCode": "22",
    "prefectureNumber": 22,
    "prefecture": "静岡県",
    "city": "三島市",
    "town": "南田町"
  },
  "4110838": {
    "zipcode": "4110838",
    "prefectureCode": "22",
    "prefectureNumber": 22,
    "prefecture": "静岡県",
    "city": "三島市",
    "town": "中田町"
  },
  "4110841": {
    "zipcode": "4110841",
    "prefectureCode": "22",
    "prefectureNumber": 22,
    "prefecture": "静岡県",
    "city": "三島市",
    "town": "南本町"
  },
  "4110842": {
    "zipcode": "4110842",
    "prefectureCode": "22",
    "prefectureNumber": 22,
    "prefecture": "静岡県",
    "city": "三島市",
    "town": "南町"
  },
  "4110843": {
    "zipcode": "4110843",
    "prefectureCode": "22",
    "prefectureNumber": 22,
    "prefecture": "静岡県",
    "city": "三島市",
    "town": "三好町"
  },
  "4110844": {
    "zipcode": "4110844",
    "prefectureCode": "22",
    "prefectureNumber": 22,
    "prefecture": "静岡県",
    "city": "三島市",
    "town": "清住町"
  },
  "4110845": {
    "zipcode": "4110845",
    "prefectureCode": "22",
    "prefectureNumber": 22,
    "prefecture": "静岡県",
    "city": "三島市",
    "town": "加屋町"
  },
  "4110846": {
    "zipcode": "4110846",
    "prefectureCode": "22",
    "prefectureNumber": 22,
    "prefecture": "静岡県",
    "city": "三島市",
    "town": "栄町"
  },
  "4110847": {
    "zipcode": "4110847",
    "prefectureCode": "22",
    "prefectureNumber": 22,
    "prefecture": "静岡県",
    "city": "三島市",
    "town": "西本町"
  },
  "4110848": {
    "zipcode": "4110848",
    "prefectureCode": "22",
    "prefectureNumber": 22,
    "prefecture": "静岡県",
    "city": "三島市",
    "town": "緑町"
  },
  "4110851": {
    "zipcode": "4110851",
    "prefectureCode": "22",
    "prefectureNumber": 22,
    "prefecture": "静岡県",
    "city": "三島市",
    "town": "日の出町"
  },
  "4110852": {
    "zipcode": "4110852",
    "prefectureCode": "22",
    "prefectureNumber": 22,
    "prefecture": "静岡県",
    "city": "三島市",
    "town": "東町"
  },
  "4110853": {
    "zipcode": "4110853",
    "prefectureCode": "22",
    "prefectureNumber": 22,
    "prefecture": "静岡県",
    "city": "三島市",
    "town": "大社町"
  },
  "4110854": {
    "zipcode": "4110854",
    "prefectureCode": "22",
    "prefectureNumber": 22,
    "prefecture": "静岡県",
    "city": "三島市",
    "town": "北田町"
  },
  "4110855": {
    "zipcode": "4110855",
    "prefectureCode": "22",
    "prefectureNumber": 22,
    "prefecture": "静岡県",
    "city": "三島市",
    "town": "本町"
  },
  "4110856": {
    "zipcode": "4110856",
    "prefectureCode": "22",
    "prefectureNumber": 22,
    "prefecture": "静岡県",
    "city": "三島市",
    "town": "広小路町"
  },
  "4110857": {
    "zipcode": "4110857",
    "prefectureCode": "22",
    "prefectureNumber": 22,
    "prefecture": "静岡県",
    "city": "三島市",
    "town": "芝本町"
  },
  "4110858": {
    "zipcode": "4110858",
    "prefectureCode": "22",
    "prefectureNumber": 22,
    "prefecture": "静岡県",
    "city": "三島市",
    "town": "中央町"
  },
  "4110901": {
    "zipcode": "4110901",
    "prefectureCode": "22",
    "prefectureNumber": 22,
    "prefecture": "静岡県",
    "city": "駿東郡清水町",
    "town": "新宿"
  },
  "4110902": {
    "zipcode": "4110902",
    "prefectureCode": "22",
    "prefectureNumber": 22,
    "prefecture": "静岡県",
    "city": "駿東郡清水町",
    "town": "玉川"
  },
  "4110903": {
    "zipcode": "4110903",
    "prefectureCode": "22",
    "prefectureNumber": 22,
    "prefecture": "静岡県",
    "city": "駿東郡清水町",
    "town": "堂庭"
  },
  "4110904": {
    "zipcode": "4110904",
    "prefectureCode": "22",
    "prefectureNumber": 22,
    "prefecture": "静岡県",
    "city": "駿東郡清水町",
    "town": "柿田"
  },
  "4110905": {
    "zipcode": "4110905",
    "prefectureCode": "22",
    "prefectureNumber": 22,
    "prefecture": "静岡県",
    "city": "駿東郡清水町",
    "town": "長沢"
  },
  "4110906": {
    "zipcode": "4110906",
    "prefectureCode": "22",
    "prefectureNumber": 22,
    "prefecture": "静岡県",
    "city": "駿東郡清水町",
    "town": "八幡"
  },
  "4110907": {
    "zipcode": "4110907",
    "prefectureCode": "22",
    "prefectureNumber": 22,
    "prefecture": "静岡県",
    "city": "駿東郡清水町",
    "town": "伏見"
  },
  "4110911": {
    "zipcode": "4110911",
    "prefectureCode": "22",
    "prefectureNumber": 22,
    "prefecture": "静岡県",
    "city": "駿東郡清水町",
    "town": "久米田"
  },
  "4110912": {
    "zipcode": "4110912",
    "prefectureCode": "22",
    "prefectureNumber": 22,
    "prefecture": "静岡県",
    "city": "駿東郡清水町",
    "town": "卸団地"
  },
  "4110913": {
    "zipcode": "4110913",
    "prefectureCode": "22",
    "prefectureNumber": 22,
    "prefecture": "静岡県",
    "city": "駿東郡清水町",
    "town": "戸田"
  },
  "4110914": {
    "zipcode": "4110914",
    "prefectureCode": "22",
    "prefectureNumber": 22,
    "prefecture": "静岡県",
    "city": "駿東郡清水町",
    "town": "畑中"
  },
  "4110915": {
    "zipcode": "4110915",
    "prefectureCode": "22",
    "prefectureNumber": 22,
    "prefecture": "静岡県",
    "city": "駿東郡清水町",
    "town": "的場"
  },
  "4110916": {
    "zipcode": "4110916",
    "prefectureCode": "22",
    "prefectureNumber": 22,
    "prefecture": "静岡県",
    "city": "駿東郡清水町",
    "town": "中徳倉"
  },
  "4110917": {
    "zipcode": "4110917",
    "prefectureCode": "22",
    "prefectureNumber": 22,
    "prefecture": "静岡県",
    "city": "駿東郡清水町",
    "town": "徳倉（上徳倉、下徳倉、外原）"
  },
  "4110918": {
    "zipcode": "4110918",
    "prefectureCode": "22",
    "prefectureNumber": 22,
    "prefecture": "静岡県",
    "city": "駿東郡清水町",
    "town": "湯川"
  },
  "4110931": {
    "zipcode": "4110931",
    "prefectureCode": "22",
    "prefectureNumber": 22,
    "prefecture": "静岡県",
    "city": "駿東郡長泉町",
    "town": "東野"
  },
  "4110932": {
    "zipcode": "4110932",
    "prefectureCode": "22",
    "prefectureNumber": 22,
    "prefecture": "静岡県",
    "city": "駿東郡長泉町",
    "town": "南一色"
  },
  "4110933": {
    "zipcode": "4110933",
    "prefectureCode": "22",
    "prefectureNumber": 22,
    "prefecture": "静岡県",
    "city": "駿東郡長泉町",
    "town": "納米里"
  },
  "4110934": {
    "zipcode": "4110934",
    "prefectureCode": "22",
    "prefectureNumber": 22,
    "prefecture": "静岡県",
    "city": "駿東郡長泉町",
    "town": "下長窪"
  },
  "4110935": {
    "zipcode": "4110935",
    "prefectureCode": "22",
    "prefectureNumber": 22,
    "prefecture": "静岡県",
    "city": "駿東郡長泉町",
    "town": "上長窪"
  },
  "4110936": {
    "zipcode": "4110936",
    "prefectureCode": "22",
    "prefectureNumber": 22,
    "prefecture": "静岡県",
    "city": "駿東郡長泉町",
    "town": "元長窪"
  },
  "4110941": {
    "zipcode": "4110941",
    "prefectureCode": "22",
    "prefectureNumber": 22,
    "prefecture": "静岡県",
    "city": "駿東郡長泉町",
    "town": "上土狩"
  },
  "4110942": {
    "zipcode": "4110942",
    "prefectureCode": "22",
    "prefectureNumber": 22,
    "prefecture": "静岡県",
    "city": "駿東郡長泉町",
    "town": "中土狩"
  },
  "4110943": {
    "zipcode": "4110943",
    "prefectureCode": "22",
    "prefectureNumber": 22,
    "prefecture": "静岡県",
    "city": "駿東郡長泉町",
    "town": "下土狩"
  },
  "4110944": {
    "zipcode": "4110944",
    "prefectureCode": "22",
    "prefectureNumber": 22,
    "prefecture": "静岡県",
    "city": "駿東郡長泉町",
    "town": "竹原"
  },
  "4110945": {
    "zipcode": "4110945",
    "prefectureCode": "22",
    "prefectureNumber": 22,
    "prefecture": "静岡県",
    "city": "駿東郡長泉町",
    "town": "本宿"
  },
  "4110951": {
    "zipcode": "4110951",
    "prefectureCode": "22",
    "prefectureNumber": 22,
    "prefecture": "静岡県",
    "city": "駿東郡長泉町",
    "town": "桜堤"
  }
}
