{
  "4120000": {
    "zipcode": "4120000",
    "prefectureCode": "22",
    "prefectureNumber": 22,
    "prefecture": "静岡県",
    "city": "御殿場市",
    "town": "以下に掲載がない場合"
  },
  "4120001": {
    "zipcode": "4120001",
    "prefectureCode": "22",
    "prefectureNumber": 22,
    "prefecture": "静岡県",
    "city": "御殿場市",
    "town": "水土野"
  },
  "4120002": {
    "zipcode": "4120002",
    "prefectureCode": "22",
    "prefectureNumber": 22,
    "prefecture": "静岡県",
    "city": "御殿場市",
    "town": "上小林"
  },
  "4120003": {
    "zipcode": "4120003",
    "prefectureCode": "22",
    "prefectureNumber": 22,
    "prefecture": "静岡県",
    "city": "御殿場市",
    "town": "柴怒田"
  },
  "4120004": {
    "zipcode": "4120004",
    "prefectureCode": "22",
    "prefectureNumber": 22,
    "prefecture": "静岡県",
    "city": "御殿場市",
    "town": "北久原"
  },
  "4120005": {
    "zipcode": "4120005",
    "prefectureCode": "22",
    "prefectureNumber": 22,
    "prefecture": "静岡県",
    "city": "御殿場市",
    "town": "仁杉"
  },
  "4120006": {
    "zipcode": "4120006",
    "prefectureCode": "22",
    "prefectureNumber": 22,
    "prefecture": "静岡県",
    "city": "御殿場市",
    "town": "中畑"
  },
  "4120007": {
    "zipcode": "4120007",
    "prefectureCode": "22",
    "prefectureNumber": 22,
    "prefecture": "静岡県",
    "city": "御殿場市",
    "town": "永塚"
  },
  "4120008": {
    "zipcode": "4120008",
    "prefectureCode": "22",
    "prefectureNumber": 22,
    "prefecture": "静岡県",
    "city": "御殿場市",
    "town": "印野"
  },
  "4120009": {
    "zipcode": "4120009",
    "prefectureCode": "22",
    "prefectureNumber": 22,
    "prefecture": "静岡県",
    "city": "御殿場市",
    "town": "川柳"
  },
  "4120011": {
    "zipcode": "4120011",
    "prefectureCode": "22",
    "prefectureNumber": 22,
    "prefecture": "静岡県",
    "city": "御殿場市",
    "town": "古沢"
  },
  "4120012": {
    "zipcode": "4120012",
    "prefectureCode": "22",
    "prefectureNumber": 22,
    "prefecture": "静岡県",
    "city": "御殿場市",
    "town": "増田"
  },
  "4120013": {
    "zipcode": "4120013",
    "prefectureCode": "22",
    "prefectureNumber": 22,
    "prefecture": "静岡県",
    "city": "御殿場市",
    "town": "小倉野"
  },
  "4120014": {
    "zipcode": "4120014",
    "prefectureCode": "22",
    "prefectureNumber": 22,
    "prefecture": "静岡県",
    "city": "御殿場市",
    "town": "大堰"
  },
  "4120015": {
    "zipcode": "4120015",
    "prefectureCode": "22",
    "prefectureNumber": 22,
    "prefecture": "静岡県",
    "city": "御殿場市",
    "town": "中丸"
  },
  "4120016": {
    "zipcode": "4120016",
    "prefectureCode": "22",
    "prefectureNumber": 22,
    "prefecture": "静岡県",
    "city": "御殿場市",
    "town": "六日市場"
  },
  "4120017": {
    "zipcode": "4120017",
    "prefectureCode": "22",
    "prefectureNumber": 22,
    "prefecture": "静岡県",
    "city": "御殿場市",
    "town": "塚原"
  },
  "4120018": {
    "zipcode": "4120018",
    "prefectureCode": "22",
    "prefectureNumber": 22,
    "prefecture": "静岡県",
    "city": "御殿場市",
    "town": "山之尻"
  },
  "4120019": {
    "zipcode": "4120019",
    "prefectureCode": "22",
    "prefectureNumber": 22,
    "prefecture": "静岡県",
    "city": "御殿場市",
    "town": "山尾田"
  },
  "4120021": {
    "zipcode": "4120021",
    "prefectureCode": "22",
    "prefectureNumber": 22,
    "prefecture": "静岡県",
    "city": "御殿場市",
    "town": "二枚橋"
  },
  "4120022": {
    "zipcode": "4120022",
    "prefectureCode": "22",
    "prefectureNumber": 22,
    "prefecture": "静岡県",
    "city": "御殿場市",
    "town": "清後"
  },
  "4120023": {
    "zipcode": "4120023",
    "prefectureCode": "22",
    "prefectureNumber": 22,
    "prefecture": "静岡県",
    "city": "御殿場市",
    "town": "深沢"
  },
  "4120024": {
    "zipcode": "4120024",
    "prefectureCode": "22",
    "prefectureNumber": 22,
    "prefecture": "静岡県",
    "city": "御殿場市",
    "town": "東山"
  },
  "4120025": {
    "zipcode": "4120025",
    "prefectureCode": "22",
    "prefectureNumber": 22,
    "prefecture": "静岡県",
    "city": "御殿場市",
    "town": "二の岡"
  },
  "4120026": {
    "zipcode": "4120026",
    "prefectureCode": "22",
    "prefectureNumber": 22,
    "prefecture": "静岡県",
    "city": "御殿場市",
    "town": "東田中"
  },
  "4120027": {
    "zipcode": "4120027",
    "prefectureCode": "22",
    "prefectureNumber": 22,
    "prefecture": "静岡県",
    "city": "御殿場市",
    "town": "西田中"
  },
  "4120028": {
    "zipcode": "4120028",
    "prefectureCode": "22",
    "prefectureNumber": 22,
    "prefecture": "静岡県",
    "city": "御殿場市",
    "town": "御殿場"
  },
  "4120029": {
    "zipcode": "4120029",
    "prefectureCode": "22",
    "prefectureNumber": 22,
    "prefecture": "静岡県",
    "city": "御殿場市",
    "town": "神山平"
  },
  "4120031": {
    "zipcode": "4120031",
    "prefectureCode": "22",
    "prefectureNumber": 22,
    "prefecture": "静岡県",
    "city": "御殿場市",
    "town": "沼田"
  },
  "4120032": {
    "zipcode": "4120032",
    "prefectureCode": "22",
    "prefectureNumber": 22,
    "prefecture": "静岡県",
    "city": "御殿場市",
    "town": "二子"
  },
  "4120033": {
    "zipcode": "4120033",
    "prefectureCode": "22",
    "prefectureNumber": 22,
    "prefecture": "静岡県",
    "city": "御殿場市",
    "town": "神山"
  },
  "4120034": {
    "zipcode": "4120034",
    "prefectureCode": "22",
    "prefectureNumber": 22,
    "prefecture": "静岡県",
    "city": "御殿場市",
    "town": "大坂"
  },
  "4120035": {
    "zipcode": "4120035",
    "prefectureCode": "22",
    "prefectureNumber": 22,
    "prefecture": "静岡県",
    "city": "御殿場市",
    "town": "中山"
  },
  "4120036": {
    "zipcode": "4120036",
    "prefectureCode": "22",
    "prefectureNumber": 22,
    "prefecture": "静岡県",
    "city": "御殿場市",
    "town": "萩蕪"
  },
  "4120037": {
    "zipcode": "4120037",
    "prefectureCode": "22",
    "prefectureNumber": 22,
    "prefecture": "静岡県",
    "city": "御殿場市",
    "town": "中清水"
  },
  "4120038": {
    "zipcode": "4120038",
    "prefectureCode": "22",
    "prefectureNumber": 22,
    "prefecture": "静岡県",
    "city": "御殿場市",
    "town": "駒門"
  },
  "4120039": {
    "zipcode": "4120039",
    "prefectureCode": "22",
    "prefectureNumber": 22,
    "prefecture": "静岡県",
    "city": "御殿場市",
    "town": "竈"
  },
  "4120041": {
    "zipcode": "4120041",
    "prefectureCode": "22",
    "prefectureNumber": 22,
    "prefecture": "静岡県",
    "city": "御殿場市",
    "town": "茱萸沢"
  },
  "4120042": {
    "zipcode": "4120042",
    "prefectureCode": "22",
    "prefectureNumber": 22,
    "prefecture": "静岡県",
    "city": "御殿場市",
    "town": "萩原"
  },
  "4120043": {
    "zipcode": "4120043",
    "prefectureCode": "22",
    "prefectureNumber": 22,
    "prefecture": "静岡県",
    "city": "御殿場市",
    "town": "新橋"
  },
  "4120044": {
    "zipcode": "4120044",
    "prefectureCode": "22",
    "prefectureNumber": 22,
    "prefecture": "静岡県",
    "city": "御殿場市",
    "town": "杉名沢"
  },
  "4120045": {
    "zipcode": "4120045",
    "prefectureCode": "22",
    "prefectureNumber": 22,
    "prefecture": "静岡県",
    "city": "御殿場市",
    "town": "川島田"
  },
  "4120046": {
    "zipcode": "4120046",
    "prefectureCode": "22",
    "prefectureNumber": 22,
    "prefecture": "静岡県",
    "city": "御殿場市",
    "town": "保土沢"
  },
  "4120047": {
    "zipcode": "4120047",
    "prefectureCode": "22",
    "prefectureNumber": 22,
    "prefecture": "静岡県",
    "city": "御殿場市",
    "town": "神場"
  },
  "4120048": {
    "zipcode": "4120048",
    "prefectureCode": "22",
    "prefectureNumber": 22,
    "prefecture": "静岡県",
    "city": "御殿場市",
    "town": "板妻"
  },
  "4120051": {
    "zipcode": "4120051",
    "prefectureCode": "22",
    "prefectureNumber": 22,
    "prefecture": "静岡県",
    "city": "御殿場市",
    "town": "富士見原"
  }
}
