{
  "4140000": {
    "zipcode": "4140000",
    "prefectureCode": "22",
    "prefectureNumber": 22,
    "prefecture": "静岡県",
    "city": "伊東市",
    "town": "以下に掲載がない場合"
  },
  "4140001": {
    "zipcode": "4140001",
    "prefectureCode": "22",
    "prefectureNumber": 22,
    "prefecture": "静岡県",
    "city": "伊東市",
    "town": "宇佐美"
  },
  "4140002": {
    "zipcode": "4140002",
    "prefectureCode": "22",
    "prefectureNumber": 22,
    "prefecture": "静岡県",
    "city": "伊東市",
    "town": "湯川"
  },
  "4140003": {
    "zipcode": "4140003",
    "prefectureCode": "22",
    "prefectureNumber": 22,
    "prefecture": "静岡県",
    "city": "伊東市",
    "town": "中央町"
  },
  "4140004": {
    "zipcode": "4140004",
    "prefectureCode": "22",
    "prefectureNumber": 22,
    "prefecture": "静岡県",
    "city": "伊東市",
    "town": "猪戸"
  },
  "4140005": {
    "zipcode": "4140005",
    "prefectureCode": "22",
    "prefectureNumber": 22,
    "prefecture": "静岡県",
    "city": "伊東市",
    "town": "松原湯端町"
  },
  "4140006": {
    "zipcode": "4140006",
    "prefectureCode": "22",
    "prefectureNumber": 22,
    "prefecture": "静岡県",
    "city": "伊東市",
    "town": "松原"
  },
  "4140011": {
    "zipcode": "4140011",
    "prefectureCode": "22",
    "prefectureNumber": 22,
    "prefecture": "静岡県",
    "city": "伊東市",
    "town": "松川町"
  },
  "4140012": {
    "zipcode": "4140012",
    "prefectureCode": "22",
    "prefectureNumber": 22,
    "prefecture": "静岡県",
    "city": "伊東市",
    "town": "宝町"
  },
  "4140013": {
    "zipcode": "4140013",
    "prefectureCode": "22",
    "prefectureNumber": 22,
    "prefecture": "静岡県",
    "city": "伊東市",
    "town": "桜木町"
  },
  "4140014": {
    "zipcode": "4140014",
    "prefectureCode": "22",
    "prefectureNumber": 22,
    "prefecture": "静岡県",
    "city": "伊東市",
    "town": "弥生町"
  },
  "4140015": {
    "zipcode": "4140015",
    "prefectureCode": "22",
    "prefectureNumber": 22,
    "prefecture": "静岡県",
    "city": "伊東市",
    "town": "末広町"
  },
  "4140016": {
    "zipcode": "4140016",
    "prefectureCode": "22",
    "prefectureNumber": 22,
    "prefecture": "静岡県",
    "city": "伊東市",
    "town": "岡広町"
  },
  "4140017": {
    "zipcode": "4140017",
    "prefectureCode": "22",
    "prefectureNumber": 22,
    "prefecture": "静岡県",
    "city": "伊東市",
    "town": "幸町"
  },
  "4140018": {
    "zipcode": "4140018",
    "prefectureCode": "22",
    "prefectureNumber": 22,
    "prefecture": "静岡県",
    "city": "伊東市",
    "town": "寿町"
  },
  "4140021": {
    "zipcode": "4140021",
    "prefectureCode": "22",
    "prefectureNumber": 22,
    "prefecture": "静岡県",
    "city": "伊東市",
    "town": "松原本町"
  },
  "4140022": {
    "zipcode": "4140022",
    "prefectureCode": "22",
    "prefectureNumber": 22,
    "prefecture": "静岡県",
    "city": "伊東市",
    "town": "東松原町"
  },
  "4140023": {
    "zipcode": "4140023",
    "prefectureCode": "22",
    "prefectureNumber": 22,
    "prefecture": "静岡県",
    "city": "伊東市",
    "town": "渚町"
  },
  "4140024": {
    "zipcode": "4140024",
    "prefectureCode": "22",
    "prefectureNumber": 22,
    "prefecture": "静岡県",
    "city": "伊東市",
    "town": "和田"
  },
  "4140025": {
    "zipcode": "4140025",
    "prefectureCode": "22",
    "prefectureNumber": 22,
    "prefecture": "静岡県",
    "city": "伊東市",
    "town": "物見が丘"
  },
  "4140026": {
    "zipcode": "4140026",
    "prefectureCode": "22",
    "prefectureNumber": 22,
    "prefecture": "静岡県",
    "city": "伊東市",
    "town": "竹の台"
  },
  "4140027": {
    "zipcode": "4140027",
    "prefectureCode": "22",
    "prefectureNumber": 22,
    "prefecture": "静岡県",
    "city": "伊東市",
    "town": "竹の内"
  },
  "4140028": {
    "zipcode": "4140028",
    "prefectureCode": "22",
    "prefectureNumber": 22,
    "prefecture": "静岡県",
    "city": "伊東市",
    "town": "銀座元町"
  },
  "4140031": {
    "zipcode": "4140031",
    "prefectureCode": "22",
    "prefectureNumber": 22,
    "prefecture": "静岡県",
    "city": "伊東市",
    "town": "湯田町"
  },
  "4140032": {
    "zipcode": "4140032",
    "prefectureCode": "22",
    "prefectureNumber": 22,
    "prefecture": "静岡県",
    "city": "伊東市",
    "town": "音無町"
  },
  "4140033": {
    "zipcode": "4140033",
    "prefectureCode": "22",
    "prefectureNumber": 22,
    "prefecture": "静岡県",
    "city": "伊東市",
    "town": "馬場町"
  },
  "4140034": {
    "zipcode": "4140034",
    "prefectureCode": "22",
    "prefectureNumber": 22,
    "prefecture": "静岡県",
    "city": "伊東市",
    "town": "瓶山"
  },
  "4140035": {
    "zipcode": "4140035",
    "prefectureCode": "22",
    "prefectureNumber": 22,
    "prefecture": "静岡県",
    "city": "伊東市",
    "town": "南町"
  },
  "4140036": {
    "zipcode": "4140036",
    "prefectureCode": "22",
    "prefectureNumber": 22,
    "prefecture": "静岡県",
    "city": "伊東市",
    "town": "宮川町"
  },
  "4140037": {
    "zipcode": "4140037",
    "prefectureCode": "22",
    "prefectureNumber": 22,
    "prefecture": "静岡県",
    "city": "伊東市",
    "town": "桜ガ丘"
  },
  "4140038": {
    "zipcode": "4140038",
    "prefectureCode": "22",
    "prefectureNumber": 22,
    "prefecture": "静岡県",
    "city": "伊東市",
    "town": "広野"
  },
  "4140041": {
    "zipcode": "4140041",
    "prefectureCode": "22",
    "prefectureNumber": 22,
    "prefecture": "静岡県",
    "city": "伊東市",
    "town": "芝町"
  },
  "4140042": {
    "zipcode": "4140042",
    "prefectureCode": "22",
    "prefectureNumber": 22,
    "prefecture": "静岡県",
    "city": "伊東市",
    "town": "静海町"
  },
  "4140043": {
    "zipcode": "4140043",
    "prefectureCode": "22",
    "prefectureNumber": 22,
    "prefecture": "静岡県",
    "city": "伊東市",
    "town": "新井"
  },
  "4140044": {
    "zipcode": "4140044",
    "prefectureCode": "22",
    "prefectureNumber": 22,
    "prefecture": "静岡県",
    "city": "伊東市",
    "town": "川奈"
  },
  "4140045": {
    "zipcode": "4140045",
    "prefectureCode": "22",
    "prefectureNumber": 22,
    "prefecture": "静岡県",
    "city": "伊東市",
    "town": "玖須美元和田"
  },
  "4140046": {
    "zipcode": "4140046",
    "prefectureCode": "22",
    "prefectureNumber": 22,
    "prefecture": "静岡県",
    "city": "伊東市",
    "town": "大原"
  },
  "4140051": {
    "zipcode": "4140051",
    "prefectureCode": "22",
    "prefectureNumber": 22,
    "prefecture": "静岡県",
    "city": "伊東市",
    "town": "吉田"
  },
  "4140052": {
    "zipcode": "4140052",
    "prefectureCode": "22",
    "prefectureNumber": 22,
    "prefecture": "静岡県",
    "city": "伊東市",
    "town": "十足"
  },
  "4140053": {
    "zipcode": "4140053",
    "prefectureCode": "22",
    "prefectureNumber": 22,
    "prefecture": "静岡県",
    "city": "伊東市",
    "town": "荻"
  },
  "4140054": {
    "zipcode": "4140054",
    "prefectureCode": "22",
    "prefectureNumber": 22,
    "prefecture": "静岡県",
    "city": "伊東市",
    "town": "鎌田"
  },
  "4140055": {
    "zipcode": "4140055",
    "prefectureCode": "22",
    "prefectureNumber": 22,
    "prefecture": "静岡県",
    "city": "伊東市",
    "town": "岡"
  }
}
