{
  "4160901": {
    "zipcode": "4160901",
    "prefectureCode": "22",
    "prefectureNumber": 22,
    "prefecture": "静岡県",
    "city": "富士市",
    "town": "岩本"
  },
  "4160902": {
    "zipcode": "4160902",
    "prefectureCode": "22",
    "prefectureNumber": 22,
    "prefecture": "静岡県",
    "city": "富士市",
    "town": "長通"
  },
  "4160903": {
    "zipcode": "4160903",
    "prefectureCode": "22",
    "prefectureNumber": 22,
    "prefecture": "静岡県",
    "city": "富士市",
    "town": "松本"
  },
  "4160904": {
    "zipcode": "4160904",
    "prefectureCode": "22",
    "prefectureNumber": 22,
    "prefecture": "静岡県",
    "city": "富士市",
    "town": "本市場新田"
  },
  "4160905": {
    "zipcode": "4160905",
    "prefectureCode": "22",
    "prefectureNumber": 22,
    "prefecture": "静岡県",
    "city": "富士市",
    "town": "五味島"
  },
  "4160906": {
    "zipcode": "4160906",
    "prefectureCode": "22",
    "prefectureNumber": 22,
    "prefecture": "静岡県",
    "city": "富士市",
    "town": "本市場"
  },
  "4160907": {
    "zipcode": "4160907",
    "prefectureCode": "22",
    "prefectureNumber": 22,
    "prefecture": "静岡県",
    "city": "富士市",
    "town": "中島"
  },
  "4160908": {
    "zipcode": "4160908",
    "prefectureCode": "22",
    "prefectureNumber": 22,
    "prefecture": "静岡県",
    "city": "富士市",
    "town": "柚木"
  },
  "4160909": {
    "zipcode": "4160909",
    "prefectureCode": "22",
    "prefectureNumber": 22,
    "prefecture": "静岡県",
    "city": "富士市",
    "town": "松岡"
  },
  "4160911": {
    "zipcode": "4160911",
    "prefectureCode": "22",
    "prefectureNumber": 22,
    "prefecture": "静岡県",
    "city": "富士市",
    "town": "八幡町"
  },
  "4160912": {
    "zipcode": "4160912",
    "prefectureCode": "22",
    "prefectureNumber": 22,
    "prefecture": "静岡県",
    "city": "富士市",
    "town": "加島町"
  },
  "4160913": {
    "zipcode": "4160913",
    "prefectureCode": "22",
    "prefectureNumber": 22,
    "prefecture": "静岡県",
    "city": "富士市",
    "town": "平垣本町"
  },
  "4160914": {
    "zipcode": "4160914",
    "prefectureCode": "22",
    "prefectureNumber": 22,
    "prefecture": "静岡県",
    "city": "富士市",
    "town": "本町"
  },
  "4160915": {
    "zipcode": "4160915",
    "prefectureCode": "22",
    "prefectureNumber": 22,
    "prefecture": "静岡県",
    "city": "富士市",
    "town": "富士町"
  },
  "4160916": {
    "zipcode": "4160916",
    "prefectureCode": "22",
    "prefectureNumber": 22,
    "prefecture": "静岡県",
    "city": "富士市",
    "town": "平垣"
  },
  "4160917": {
    "zipcode": "4160917",
    "prefectureCode": "22",
    "prefectureNumber": 22,
    "prefecture": "静岡県",
    "city": "富士市",
    "town": "元町"
  },
  "4160918": {
    "zipcode": "4160918",
    "prefectureCode": "22",
    "prefectureNumber": 22,
    "prefecture": "静岡県",
    "city": "富士市",
    "town": "平垣町"
  },
  "4160919": {
    "zipcode": "4160919",
    "prefectureCode": "22",
    "prefectureNumber": 22,
    "prefecture": "静岡県",
    "city": "富士市",
    "town": "松富町"
  },
  "4160921": {
    "zipcode": "4160921",
    "prefectureCode": "22",
    "prefectureNumber": 22,
    "prefecture": "静岡県",
    "city": "富士市",
    "town": "水戸島"
  },
  "4160922": {
    "zipcode": "4160922",
    "prefectureCode": "22",
    "prefectureNumber": 22,
    "prefecture": "静岡県",
    "city": "富士市",
    "town": "水戸島元町"
  },
  "4160923": {
    "zipcode": "4160923",
    "prefectureCode": "22",
    "prefectureNumber": 22,
    "prefecture": "静岡県",
    "city": "富士市",
    "town": "横割本町"
  },
  "4160924": {
    "zipcode": "4160924",
    "prefectureCode": "22",
    "prefectureNumber": 22,
    "prefecture": "静岡県",
    "city": "富士市",
    "town": "水戸島本町"
  },
  "4160931": {
    "zipcode": "4160931",
    "prefectureCode": "22",
    "prefectureNumber": 22,
    "prefecture": "静岡県",
    "city": "富士市",
    "town": "蓼原"
  },
  "4160932": {
    "zipcode": "4160932",
    "prefectureCode": "22",
    "prefectureNumber": 22,
    "prefecture": "静岡県",
    "city": "富士市",
    "town": "柳島"
  },
  "4160933": {
    "zipcode": "4160933",
    "prefectureCode": "22",
    "prefectureNumber": 22,
    "prefecture": "静岡県",
    "city": "富士市",
    "town": "中丸"
  },
  "4160934": {
    "zipcode": "4160934",
    "prefectureCode": "22",
    "prefectureNumber": 22,
    "prefecture": "静岡県",
    "city": "富士市",
    "town": "鮫島"
  },
  "4160935": {
    "zipcode": "4160935",
    "prefectureCode": "22",
    "prefectureNumber": 22,
    "prefecture": "静岡県",
    "city": "富士市",
    "town": "田子"
  },
  "4160936": {
    "zipcode": "4160936",
    "prefectureCode": "22",
    "prefectureNumber": 22,
    "prefecture": "静岡県",
    "city": "富士市",
    "town": "中河原（その他）"
  },
  "4160937": {
    "zipcode": "4160937",
    "prefectureCode": "22",
    "prefectureNumber": 22,
    "prefecture": "静岡県",
    "city": "富士市",
    "town": "前田"
  },
  "4160938": {
    "zipcode": "4160938",
    "prefectureCode": "22",
    "prefectureNumber": 22,
    "prefecture": "静岡県",
    "city": "富士市",
    "town": "浜田町"
  },
  "4160939": {
    "zipcode": "4160939",
    "prefectureCode": "22",
    "prefectureNumber": 22,
    "prefecture": "静岡県",
    "city": "富士市",
    "town": "川成島"
  },
  "4160941": {
    "zipcode": "4160941",
    "prefectureCode": "22",
    "prefectureNumber": 22,
    "prefecture": "静岡県",
    "city": "富士市",
    "town": "十兵衛"
  },
  "4160942": {
    "zipcode": "4160942",
    "prefectureCode": "22",
    "prefectureNumber": 22,
    "prefecture": "静岡県",
    "city": "富士市",
    "town": "上横割"
  },
  "4160943": {
    "zipcode": "4160943",
    "prefectureCode": "22",
    "prefectureNumber": 22,
    "prefecture": "静岡県",
    "city": "富士市",
    "town": "下横割"
  },
  "4160944": {
    "zipcode": "4160944",
    "prefectureCode": "22",
    "prefectureNumber": 22,
    "prefecture": "静岡県",
    "city": "富士市",
    "town": "横割"
  },
  "4160945": {
    "zipcode": "4160945",
    "prefectureCode": "22",
    "prefectureNumber": 22,
    "prefecture": "静岡県",
    "city": "富士市",
    "town": "宮島"
  },
  "4160946": {
    "zipcode": "4160946",
    "prefectureCode": "22",
    "prefectureNumber": 22,
    "prefecture": "静岡県",
    "city": "富士市",
    "town": "五貫島"
  },
  "4160947": {
    "zipcode": "4160947",
    "prefectureCode": "22",
    "prefectureNumber": 22,
    "prefecture": "静岡県",
    "city": "富士市",
    "town": "宮下"
  },
  "4160948": {
    "zipcode": "4160948",
    "prefectureCode": "22",
    "prefectureNumber": 22,
    "prefecture": "静岡県",
    "city": "富士市",
    "town": "森島"
  },
  "4160949": {
    "zipcode": "4160949",
    "prefectureCode": "22",
    "prefectureNumber": 22,
    "prefecture": "静岡県",
    "city": "富士市",
    "town": "森下"
  },
  "4160951": {
    "zipcode": "4160951",
    "prefectureCode": "22",
    "prefectureNumber": 22,
    "prefecture": "静岡県",
    "city": "富士市",
    "town": "米之宮町"
  },
  "4160952": {
    "zipcode": "4160952",
    "prefectureCode": "22",
    "prefectureNumber": 22,
    "prefecture": "静岡県",
    "city": "富士市",
    "town": "青葉町"
  },
  "4160953": {
    "zipcode": "4160953",
    "prefectureCode": "22",
    "prefectureNumber": 22,
    "prefecture": "静岡県",
    "city": "富士市",
    "town": "蓼原町"
  },
  "4160954": {
    "zipcode": "4160954",
    "prefectureCode": "22",
    "prefectureNumber": 22,
    "prefecture": "静岡県",
    "city": "富士市",
    "town": "本市場町"
  },
  "4160955": {
    "zipcode": "4160955",
    "prefectureCode": "22",
    "prefectureNumber": 22,
    "prefecture": "静岡県",
    "city": "富士市",
    "town": "川成新町"
  }
}
