{
  "4170000": {
    "zipcode": "4170000",
    "prefectureCode": "22",
    "prefectureNumber": 22,
    "prefecture": "静岡県",
    "city": "富士市",
    "town": "以下に掲載がない場合"
  },
  "4170001": {
    "zipcode": "4170001",
    "prefectureCode": "22",
    "prefectureNumber": 22,
    "prefecture": "静岡県",
    "city": "富士市",
    "town": "今泉"
  },
  "4170002": {
    "zipcode": "4170002",
    "prefectureCode": "22",
    "prefectureNumber": 22,
    "prefecture": "静岡県",
    "city": "富士市",
    "town": "依田橋"
  },
  "4170003": {
    "zipcode": "4170003",
    "prefectureCode": "22",
    "prefectureNumber": 22,
    "prefecture": "静岡県",
    "city": "富士市",
    "town": "依田橋町"
  },
  "4170004": {
    "zipcode": "4170004",
    "prefectureCode": "22",
    "prefectureNumber": 22,
    "prefecture": "静岡県",
    "city": "富士市",
    "town": "新橋町"
  },
  "4170011": {
    "zipcode": "4170011",
    "prefectureCode": "22",
    "prefectureNumber": 22,
    "prefecture": "静岡県",
    "city": "富士市",
    "town": "鈴川本町"
  },
  "4170012": {
    "zipcode": "4170012",
    "prefectureCode": "22",
    "prefectureNumber": 22,
    "prefecture": "静岡県",
    "city": "富士市",
    "town": "鈴川東町"
  },
  "4170013": {
    "zipcode": "4170013",
    "prefectureCode": "22",
    "prefectureNumber": 22,
    "prefecture": "静岡県",
    "city": "富士市",
    "town": "鈴川中町"
  },
  "4170014": {
    "zipcode": "4170014",
    "prefectureCode": "22",
    "prefectureNumber": 22,
    "prefecture": "静岡県",
    "city": "富士市",
    "town": "鈴川西町"
  },
  "4170015": {
    "zipcode": "4170015",
    "prefectureCode": "22",
    "prefectureNumber": 22,
    "prefecture": "静岡県",
    "city": "富士市",
    "town": "鈴川町"
  },
  "4170021": {
    "zipcode": "4170021",
    "prefectureCode": "22",
    "prefectureNumber": 22,
    "prefecture": "静岡県",
    "city": "富士市",
    "town": "依田原"
  },
  "4170022": {
    "zipcode": "4170022",
    "prefectureCode": "22",
    "prefectureNumber": 22,
    "prefecture": "静岡県",
    "city": "富士市",
    "town": "依田原町"
  },
  "4170023": {
    "zipcode": "4170023",
    "prefectureCode": "22",
    "prefectureNumber": 22,
    "prefecture": "静岡県",
    "city": "富士市",
    "town": "吉原宝町"
  },
  "4170024": {
    "zipcode": "4170024",
    "prefectureCode": "22",
    "prefectureNumber": 22,
    "prefecture": "静岡県",
    "city": "富士市",
    "town": "八代町"
  },
  "4170025": {
    "zipcode": "4170025",
    "prefectureCode": "22",
    "prefectureNumber": 22,
    "prefecture": "静岡県",
    "city": "富士市",
    "town": "瓜島"
  },
  "4170026": {
    "zipcode": "4170026",
    "prefectureCode": "22",
    "prefectureNumber": 22,
    "prefecture": "静岡県",
    "city": "富士市",
    "town": "南町"
  },
  "4170031": {
    "zipcode": "4170031",
    "prefectureCode": "22",
    "prefectureNumber": 22,
    "prefecture": "静岡県",
    "city": "富士市",
    "town": "田島"
  },
  "4170032": {
    "zipcode": "4170032",
    "prefectureCode": "22",
    "prefectureNumber": 22,
    "prefecture": "静岡県",
    "city": "富士市",
    "town": "田島新田"
  },
  "4170033": {
    "zipcode": "4170033",
    "prefectureCode": "22",
    "prefectureNumber": 22,
    "prefecture": "静岡県",
    "city": "富士市",
    "town": "島田町"
  },
  "4170034": {
    "zipcode": "4170034",
    "prefectureCode": "22",
    "prefectureNumber": 22,
    "prefecture": "静岡県",
    "city": "富士市",
    "town": "津田"
  },
  "4170035": {
    "zipcode": "4170035",
    "prefectureCode": "22",
    "prefectureNumber": 22,
    "prefecture": "静岡県",
    "city": "富士市",
    "town": "津田町"
  },
  "4170036": {
    "zipcode": "4170036",
    "prefectureCode": "22",
    "prefectureNumber": 22,
    "prefecture": "静岡県",
    "city": "富士市",
    "town": "中河原（６６、８８、９３、１９７、２９２−４、３１５番地）"
  },
  "4170037": {
    "zipcode": "4170037",
    "prefectureCode": "22",
    "prefectureNumber": 22,
    "prefecture": "静岡県",
    "city": "富士市",
    "town": "外木"
  },
  "4170041": {
    "zipcode": "4170041",
    "prefectureCode": "22",
    "prefectureNumber": 22,
    "prefecture": "静岡県",
    "city": "富士市",
    "town": "御幸町"
  },
  "4170042": {
    "zipcode": "4170042",
    "prefectureCode": "22",
    "prefectureNumber": 22,
    "prefecture": "静岡県",
    "city": "富士市",
    "town": "荒田島"
  },
  "4170043": {
    "zipcode": "4170043",
    "prefectureCode": "22",
    "prefectureNumber": 22,
    "prefecture": "静岡県",
    "city": "富士市",
    "town": "荒田島町"
  },
  "4170044": {
    "zipcode": "4170044",
    "prefectureCode": "22",
    "prefectureNumber": 22,
    "prefecture": "静岡県",
    "city": "富士市",
    "town": "高嶺町"
  },
  "4170045": {
    "zipcode": "4170045",
    "prefectureCode": "22",
    "prefectureNumber": 22,
    "prefecture": "静岡県",
    "city": "富士市",
    "town": "錦町"
  },
  "4170046": {
    "zipcode": "4170046",
    "prefectureCode": "22",
    "prefectureNumber": 22,
    "prefecture": "静岡県",
    "city": "富士市",
    "town": "青島"
  },
  "4170047": {
    "zipcode": "4170047",
    "prefectureCode": "22",
    "prefectureNumber": 22,
    "prefecture": "静岡県",
    "city": "富士市",
    "town": "青島町"
  },
  "4170048": {
    "zipcode": "4170048",
    "prefectureCode": "22",
    "prefectureNumber": 22,
    "prefecture": "静岡県",
    "city": "富士市",
    "town": "高島町"
  },
  "4170049": {
    "zipcode": "4170049",
    "prefectureCode": "22",
    "prefectureNumber": 22,
    "prefecture": "静岡県",
    "city": "富士市",
    "town": "緑町"
  },
  "4170051": {
    "zipcode": "4170051",
    "prefectureCode": "22",
    "prefectureNumber": 22,
    "prefecture": "静岡県",
    "city": "富士市",
    "town": "吉原"
  },
  "4170052": {
    "zipcode": "4170052",
    "prefectureCode": "22",
    "prefectureNumber": 22,
    "prefecture": "静岡県",
    "city": "富士市",
    "town": "中央町"
  },
  "4170053": {
    "zipcode": "4170053",
    "prefectureCode": "22",
    "prefectureNumber": 22,
    "prefecture": "静岡県",
    "city": "富士市",
    "town": "依田原新田"
  },
  "4170054": {
    "zipcode": "4170054",
    "prefectureCode": "22",
    "prefectureNumber": 22,
    "prefecture": "静岡県",
    "city": "富士市",
    "town": "永田"
  },
  "4170055": {
    "zipcode": "4170055",
    "prefectureCode": "22",
    "prefectureNumber": 22,
    "prefecture": "静岡県",
    "city": "富士市",
    "town": "永田町"
  },
  "4170056": {
    "zipcode": "4170056",
    "prefectureCode": "22",
    "prefectureNumber": 22,
    "prefecture": "静岡県",
    "city": "富士市",
    "town": "日乃出町"
  },
  "4170057": {
    "zipcode": "4170057",
    "prefectureCode": "22",
    "prefectureNumber": 22,
    "prefecture": "静岡県",
    "city": "富士市",
    "town": "瓜島町"
  },
  "4170058": {
    "zipcode": "4170058",
    "prefectureCode": "22",
    "prefectureNumber": 22,
    "prefecture": "静岡県",
    "city": "富士市",
    "town": "永田北町"
  },
  "4170061": {
    "zipcode": "4170061",
    "prefectureCode": "22",
    "prefectureNumber": 22,
    "prefecture": "静岡県",
    "city": "富士市",
    "town": "伝法"
  },
  "4170062": {
    "zipcode": "4170062",
    "prefectureCode": "22",
    "prefectureNumber": 22,
    "prefecture": "静岡県",
    "city": "富士市",
    "town": "香西"
  },
  "4170063": {
    "zipcode": "4170063",
    "prefectureCode": "22",
    "prefectureNumber": 22,
    "prefecture": "静岡県",
    "city": "富士市",
    "town": "香西新田"
  },
  "4170064": {
    "zipcode": "4170064",
    "prefectureCode": "22",
    "prefectureNumber": 22,
    "prefecture": "静岡県",
    "city": "富士市",
    "town": "弥生"
  },
  "4170065": {
    "zipcode": "4170065",
    "prefectureCode": "22",
    "prefectureNumber": 22,
    "prefecture": "静岡県",
    "city": "富士市",
    "town": "弥生新田"
  },
  "4170071": {
    "zipcode": "4170071",
    "prefectureCode": "22",
    "prefectureNumber": 22,
    "prefecture": "静岡県",
    "city": "富士市",
    "town": "国久保"
  },
  "4170072": {
    "zipcode": "4170072",
    "prefectureCode": "22",
    "prefectureNumber": 22,
    "prefecture": "静岡県",
    "city": "富士市",
    "town": "浅間上町"
  },
  "4170073": {
    "zipcode": "4170073",
    "prefectureCode": "22",
    "prefectureNumber": 22,
    "prefecture": "静岡県",
    "city": "富士市",
    "town": "浅間本町"
  },
  "4170801": {
    "zipcode": "4170801",
    "prefectureCode": "22",
    "prefectureNumber": 22,
    "prefecture": "静岡県",
    "city": "富士市",
    "town": "大淵"
  },
  "4170802": {
    "zipcode": "4170802",
    "prefectureCode": "22",
    "prefectureNumber": 22,
    "prefecture": "静岡県",
    "city": "富士市",
    "town": "今宮"
  },
  "4170803": {
    "zipcode": "4170803",
    "prefectureCode": "22",
    "prefectureNumber": 22,
    "prefecture": "静岡県",
    "city": "富士市",
    "town": "桑崎"
  },
  "4170804": {
    "zipcode": "4170804",
    "prefectureCode": "22",
    "prefectureNumber": 22,
    "prefecture": "静岡県",
    "city": "富士市",
    "town": "石井"
  },
  "4170805": {
    "zipcode": "4170805",
    "prefectureCode": "22",
    "prefectureNumber": 22,
    "prefecture": "静岡県",
    "city": "富士市",
    "town": "鵜無ケ淵"
  },
  "4170806": {
    "zipcode": "4170806",
    "prefectureCode": "22",
    "prefectureNumber": 22,
    "prefecture": "静岡県",
    "city": "富士市",
    "town": "間門"
  },
  "4170807": {
    "zipcode": "4170807",
    "prefectureCode": "22",
    "prefectureNumber": 22,
    "prefecture": "静岡県",
    "city": "富士市",
    "town": "神戸"
  },
  "4170808": {
    "zipcode": "4170808",
    "prefectureCode": "22",
    "prefectureNumber": 22,
    "prefecture": "静岡県",
    "city": "富士市",
    "town": "一色"
  },
  "4170809": {
    "zipcode": "4170809",
    "prefectureCode": "22",
    "prefectureNumber": 22,
    "prefecture": "静岡県",
    "city": "富士市",
    "town": "中野"
  },
  "4170811": {
    "zipcode": "4170811",
    "prefectureCode": "22",
    "prefectureNumber": 22,
    "prefecture": "静岡県",
    "city": "富士市",
    "town": "江尾"
  },
  "4170812": {
    "zipcode": "4170812",
    "prefectureCode": "22",
    "prefectureNumber": 22,
    "prefecture": "静岡県",
    "city": "富士市",
    "town": "境"
  },
  "4170813": {
    "zipcode": "4170813",
    "prefectureCode": "22",
    "prefectureNumber": 22,
    "prefecture": "静岡県",
    "city": "富士市",
    "town": "船津"
  },
  "4170814": {
    "zipcode": "4170814",
    "prefectureCode": "22",
    "prefectureNumber": 22,
    "prefecture": "静岡県",
    "city": "富士市",
    "town": "西船津"
  },
  "4170815": {
    "zipcode": "4170815",
    "prefectureCode": "22",
    "prefectureNumber": 22,
    "prefecture": "静岡県",
    "city": "富士市",
    "town": "増川"
  },
  "4170816": {
    "zipcode": "4170816",
    "prefectureCode": "22",
    "prefectureNumber": 22,
    "prefecture": "静岡県",
    "city": "富士市",
    "town": "増川新町"
  },
  "4170817": {
    "zipcode": "4170817",
    "prefectureCode": "22",
    "prefectureNumber": 22,
    "prefecture": "静岡県",
    "city": "富士市",
    "town": "江尾南"
  },
  "4170821": {
    "zipcode": "4170821",
    "prefectureCode": "22",
    "prefectureNumber": 22,
    "prefecture": "静岡県",
    "city": "富士市",
    "town": "神谷"
  },
  "4170822": {
    "zipcode": "4170822",
    "prefectureCode": "22",
    "prefectureNumber": 22,
    "prefecture": "静岡県",
    "city": "富士市",
    "town": "神谷新町"
  },
  "4170823": {
    "zipcode": "4170823",
    "prefectureCode": "22",
    "prefectureNumber": 22,
    "prefecture": "静岡県",
    "city": "富士市",
    "town": "神谷南"
  },
  "4170824": {
    "zipcode": "4170824",
    "prefectureCode": "22",
    "prefectureNumber": 22,
    "prefecture": "静岡県",
    "city": "富士市",
    "town": "川尻東"
  },
  "4170825": {
    "zipcode": "4170825",
    "prefectureCode": "22",
    "prefectureNumber": 22,
    "prefecture": "静岡県",
    "city": "富士市",
    "town": "川尻"
  },
  "4170826": {
    "zipcode": "4170826",
    "prefectureCode": "22",
    "prefectureNumber": 22,
    "prefecture": "静岡県",
    "city": "富士市",
    "town": "中里"
  },
  "4170831": {
    "zipcode": "4170831",
    "prefectureCode": "22",
    "prefectureNumber": 22,
    "prefecture": "静岡県",
    "city": "富士市",
    "town": "東柏原新田"
  },
  "4170832": {
    "zipcode": "4170832",
    "prefectureCode": "22",
    "prefectureNumber": 22,
    "prefecture": "静岡県",
    "city": "富士市",
    "town": "中柏原新田"
  },
  "4170833": {
    "zipcode": "4170833",
    "prefectureCode": "22",
    "prefectureNumber": 22,
    "prefecture": "静岡県",
    "city": "富士市",
    "town": "沼田新田"
  },
  "4170834": {
    "zipcode": "4170834",
    "prefectureCode": "22",
    "prefectureNumber": 22,
    "prefecture": "静岡県",
    "city": "富士市",
    "town": "西柏原新田"
  },
  "4170835": {
    "zipcode": "4170835",
    "prefectureCode": "22",
    "prefectureNumber": 22,
    "prefecture": "静岡県",
    "city": "富士市",
    "town": "柏原"
  },
  "4170841": {
    "zipcode": "4170841",
    "prefectureCode": "22",
    "prefectureNumber": 22,
    "prefecture": "静岡県",
    "city": "富士市",
    "town": "富士岡"
  },
  "4170842": {
    "zipcode": "4170842",
    "prefectureCode": "22",
    "prefectureNumber": 22,
    "prefecture": "静岡県",
    "city": "富士市",
    "town": "三新田"
  },
  "4170843": {
    "zipcode": "4170843",
    "prefectureCode": "22",
    "prefectureNumber": 22,
    "prefecture": "静岡県",
    "city": "富士市",
    "town": "田中新田"
  },
  "4170844": {
    "zipcode": "4170844",
    "prefectureCode": "22",
    "prefectureNumber": 22,
    "prefecture": "静岡県",
    "city": "富士市",
    "town": "檜新田"
  },
  "4170845": {
    "zipcode": "4170845",
    "prefectureCode": "22",
    "prefectureNumber": 22,
    "prefecture": "静岡県",
    "city": "富士市",
    "town": "大野新田"
  },
  "4170846": {
    "zipcode": "4170846",
    "prefectureCode": "22",
    "prefectureNumber": 22,
    "prefecture": "静岡県",
    "city": "富士市",
    "town": "今井"
  },
  "4170847": {
    "zipcode": "4170847",
    "prefectureCode": "22",
    "prefectureNumber": 22,
    "prefecture": "静岡県",
    "city": "富士市",
    "town": "比奈"
  },
  "4170848": {
    "zipcode": "4170848",
    "prefectureCode": "22",
    "prefectureNumber": 22,
    "prefecture": "静岡県",
    "city": "富士市",
    "town": "大野"
  },
  "4170851": {
    "zipcode": "4170851",
    "prefectureCode": "22",
    "prefectureNumber": 22,
    "prefecture": "静岡県",
    "city": "富士市",
    "town": "富士見台"
  },
  "4170852": {
    "zipcode": "4170852",
    "prefectureCode": "22",
    "prefectureNumber": 22,
    "prefecture": "静岡県",
    "city": "富士市",
    "town": "原田"
  },
  "4170853": {
    "zipcode": "4170853",
    "prefectureCode": "22",
    "prefectureNumber": 22,
    "prefecture": "静岡県",
    "city": "富士市",
    "town": "宇東川東町"
  },
  "4170854": {
    "zipcode": "4170854",
    "prefectureCode": "22",
    "prefectureNumber": 22,
    "prefecture": "静岡県",
    "city": "富士市",
    "town": "宇東川西町"
  },
  "4170855": {
    "zipcode": "4170855",
    "prefectureCode": "22",
    "prefectureNumber": 22,
    "prefecture": "静岡県",
    "city": "富士市",
    "town": "三ツ沢"
  },
  "4170856": {
    "zipcode": "4170856",
    "prefectureCode": "22",
    "prefectureNumber": 22,
    "prefecture": "静岡県",
    "city": "富士市",
    "town": "さんどまき"
  },
  "4170861": {
    "zipcode": "4170861",
    "prefectureCode": "22",
    "prefectureNumber": 22,
    "prefecture": "静岡県",
    "city": "富士市",
    "town": "広見東本町"
  },
  "4170862": {
    "zipcode": "4170862",
    "prefectureCode": "22",
    "prefectureNumber": 22,
    "prefecture": "静岡県",
    "city": "富士市",
    "town": "石坂"
  },
  "4170863": {
    "zipcode": "4170863",
    "prefectureCode": "22",
    "prefectureNumber": 22,
    "prefecture": "静岡県",
    "city": "富士市",
    "town": "広見西本町"
  },
  "4170864": {
    "zipcode": "4170864",
    "prefectureCode": "22",
    "prefectureNumber": 22,
    "prefecture": "静岡県",
    "city": "富士市",
    "town": "広見本町"
  }
}
