{
  "4180000": {
    "zipcode": "4180000",
    "prefectureCode": "22",
    "prefectureNumber": 22,
    "prefecture": "静岡県",
    "city": "富士宮市",
    "town": "以下に掲載がない場合"
  },
  "4180001": {
    "zipcode": "4180001",
    "prefectureCode": "22",
    "prefectureNumber": 22,
    "prefecture": "静岡県",
    "city": "富士宮市",
    "town": "万野原新田"
  },
  "4180002": {
    "zipcode": "4180002",
    "prefectureCode": "22",
    "prefectureNumber": 22,
    "prefecture": "静岡県",
    "city": "富士宮市",
    "town": "中原町"
  },
  "4180003": {
    "zipcode": "4180003",
    "prefectureCode": "22",
    "prefectureNumber": 22,
    "prefecture": "静岡県",
    "city": "富士宮市",
    "town": "ひばりが丘"
  },
  "4180004": {
    "zipcode": "4180004",
    "prefectureCode": "22",
    "prefectureNumber": 22,
    "prefecture": "静岡県",
    "city": "富士宮市",
    "town": "三園平"
  },
  "4180005": {
    "zipcode": "4180005",
    "prefectureCode": "22",
    "prefectureNumber": 22,
    "prefecture": "静岡県",
    "city": "富士宮市",
    "town": "宮原"
  },
  "4180006": {
    "zipcode": "4180006",
    "prefectureCode": "22",
    "prefectureNumber": 22,
    "prefecture": "静岡県",
    "city": "富士宮市",
    "town": "外神"
  },
  "4180007": {
    "zipcode": "4180007",
    "prefectureCode": "22",
    "prefectureNumber": 22,
    "prefecture": "静岡県",
    "city": "富士宮市",
    "town": "外神東町"
  },
  "4180011": {
    "zipcode": "4180011",
    "prefectureCode": "22",
    "prefectureNumber": 22,
    "prefecture": "静岡県",
    "city": "富士宮市",
    "town": "粟倉"
  },
  "4180012": {
    "zipcode": "4180012",
    "prefectureCode": "22",
    "prefectureNumber": 22,
    "prefecture": "静岡県",
    "city": "富士宮市",
    "town": "村山"
  },
  "4180013": {
    "zipcode": "4180013",
    "prefectureCode": "22",
    "prefectureNumber": 22,
    "prefecture": "静岡県",
    "city": "富士宮市",
    "town": "大岩"
  },
  "4180014": {
    "zipcode": "4180014",
    "prefectureCode": "22",
    "prefectureNumber": 22,
    "prefecture": "静岡県",
    "city": "富士宮市",
    "town": "富士見ケ丘"
  },
  "4180015": {
    "zipcode": "4180015",
    "prefectureCode": "22",
    "prefectureNumber": 22,
    "prefecture": "静岡県",
    "city": "富士宮市",
    "town": "舞々木町"
  },
  "4180016": {
    "zipcode": "4180016",
    "prefectureCode": "22",
    "prefectureNumber": 22,
    "prefecture": "静岡県",
    "city": "富士宮市",
    "town": "阿幸地"
  },
  "4180017": {
    "zipcode": "4180017",
    "prefectureCode": "22",
    "prefectureNumber": 22,
    "prefecture": "静岡県",
    "city": "富士宮市",
    "town": "舟久保町"
  },
  "4180018": {
    "zipcode": "4180018",
    "prefectureCode": "22",
    "prefectureNumber": 22,
    "prefecture": "静岡県",
    "city": "富士宮市",
    "town": "粟倉南町"
  },
  "4180019": {
    "zipcode": "4180019",
    "prefectureCode": "22",
    "prefectureNumber": 22,
    "prefecture": "静岡県",
    "city": "富士宮市",
    "town": "南陵"
  },
  "4180021": {
    "zipcode": "4180021",
    "prefectureCode": "22",
    "prefectureNumber": 22,
    "prefecture": "静岡県",
    "city": "富士宮市",
    "town": "杉田"
  },
  "4180022": {
    "zipcode": "4180022",
    "prefectureCode": "22",
    "prefectureNumber": 22,
    "prefecture": "静岡県",
    "city": "富士宮市",
    "town": "小泉"
  },
  "4180023": {
    "zipcode": "4180023",
    "prefectureCode": "22",
    "prefectureNumber": 22,
    "prefecture": "静岡県",
    "city": "富士宮市",
    "town": "山本"
  },
  "4180024": {
    "zipcode": "4180024",
    "prefectureCode": "22",
    "prefectureNumber": 22,
    "prefecture": "静岡県",
    "city": "富士宮市",
    "town": "貫戸"
  },
  "4180025": {
    "zipcode": "4180025",
    "prefectureCode": "22",
    "prefectureNumber": 22,
    "prefecture": "静岡県",
    "city": "富士宮市",
    "town": "前田町"
  },
  "4180026": {
    "zipcode": "4180026",
    "prefectureCode": "22",
    "prefectureNumber": 22,
    "prefecture": "静岡県",
    "city": "富士宮市",
    "town": "西小泉町"
  },
  "4180031": {
    "zipcode": "4180031",
    "prefectureCode": "22",
    "prefectureNumber": 22,
    "prefecture": "静岡県",
    "city": "富士宮市",
    "town": "神田川町"
  },
  "4180032": {
    "zipcode": "4180032",
    "prefectureCode": "22",
    "prefectureNumber": 22,
    "prefecture": "静岡県",
    "city": "富士宮市",
    "town": "浅間町"
  },
  "4180033": {
    "zipcode": "4180033",
    "prefectureCode": "22",
    "prefectureNumber": 22,
    "prefecture": "静岡県",
    "city": "富士宮市",
    "town": "野中東町"
  },
  "4180034": {
    "zipcode": "4180034",
    "prefectureCode": "22",
    "prefectureNumber": 22,
    "prefecture": "静岡県",
    "city": "富士宮市",
    "town": "黒田"
  },
  "4180035": {
    "zipcode": "4180035",
    "prefectureCode": "22",
    "prefectureNumber": 22,
    "prefecture": "静岡県",
    "city": "富士宮市",
    "town": "星山"
  },
  "4180036": {
    "zipcode": "4180036",
    "prefectureCode": "22",
    "prefectureNumber": 22,
    "prefecture": "静岡県",
    "city": "富士宮市",
    "town": "沼久保"
  },
  "4180037": {
    "zipcode": "4180037",
    "prefectureCode": "22",
    "prefectureNumber": 22,
    "prefecture": "静岡県",
    "city": "富士宮市",
    "town": "安居山"
  },
  "4180038": {
    "zipcode": "4180038",
    "prefectureCode": "22",
    "prefectureNumber": 22,
    "prefecture": "静岡県",
    "city": "富士宮市",
    "town": "野中町"
  },
  "4180039": {
    "zipcode": "4180039",
    "prefectureCode": "22",
    "prefectureNumber": 22,
    "prefecture": "静岡県",
    "city": "富士宮市",
    "town": "野中"
  },
  "4180041": {
    "zipcode": "4180041",
    "prefectureCode": "22",
    "prefectureNumber": 22,
    "prefecture": "静岡県",
    "city": "富士宮市",
    "town": "淀川町"
  },
  "4180042": {
    "zipcode": "4180042",
    "prefectureCode": "22",
    "prefectureNumber": 22,
    "prefecture": "静岡県",
    "city": "富士宮市",
    "town": "貴船町"
  },
  "4180043": {
    "zipcode": "4180043",
    "prefectureCode": "22",
    "prefectureNumber": 22,
    "prefecture": "静岡県",
    "city": "富士宮市",
    "town": "泉町"
  },
  "4180044": {
    "zipcode": "4180044",
    "prefectureCode": "22",
    "prefectureNumber": 22,
    "prefecture": "静岡県",
    "city": "富士宮市",
    "town": "大中里"
  },
  "4180045": {
    "zipcode": "4180045",
    "prefectureCode": "22",
    "prefectureNumber": 22,
    "prefecture": "静岡県",
    "city": "富士宮市",
    "town": "中島町"
  },
  "4180046": {
    "zipcode": "4180046",
    "prefectureCode": "22",
    "prefectureNumber": 22,
    "prefecture": "静岡県",
    "city": "富士宮市",
    "town": "中里東町"
  },
  "4180047": {
    "zipcode": "4180047",
    "prefectureCode": "22",
    "prefectureNumber": 22,
    "prefecture": "静岡県",
    "city": "富士宮市",
    "town": "青木"
  },
  "4180048": {
    "zipcode": "4180048",
    "prefectureCode": "22",
    "prefectureNumber": 22,
    "prefecture": "静岡県",
    "city": "富士宮市",
    "town": "青木平"
  },
  "4180051": {
    "zipcode": "4180051",
    "prefectureCode": "22",
    "prefectureNumber": 22,
    "prefecture": "静岡県",
    "city": "富士宮市",
    "town": "淀師"
  },
  "4180052": {
    "zipcode": "4180052",
    "prefectureCode": "22",
    "prefectureNumber": 22,
    "prefecture": "静岡県",
    "city": "富士宮市",
    "town": "淀平町"
  },
  "4180053": {
    "zipcode": "4180053",
    "prefectureCode": "22",
    "prefectureNumber": 22,
    "prefecture": "静岡県",
    "city": "富士宮市",
    "town": "宮北町"
  },
  "4180054": {
    "zipcode": "4180054",
    "prefectureCode": "22",
    "prefectureNumber": 22,
    "prefecture": "静岡県",
    "city": "富士宮市",
    "town": "光町"
  },
  "4180055": {
    "zipcode": "4180055",
    "prefectureCode": "22",
    "prefectureNumber": 22,
    "prefecture": "静岡県",
    "city": "富士宮市",
    "town": "宝町"
  },
  "4180056": {
    "zipcode": "4180056",
    "prefectureCode": "22",
    "prefectureNumber": 22,
    "prefecture": "静岡県",
    "city": "富士宮市",
    "town": "西町"
  },
  "4180057": {
    "zipcode": "4180057",
    "prefectureCode": "22",
    "prefectureNumber": 22,
    "prefecture": "静岡県",
    "city": "富士宮市",
    "town": "朝日町"
  },
  "4180058": {
    "zipcode": "4180058",
    "prefectureCode": "22",
    "prefectureNumber": 22,
    "prefecture": "静岡県",
    "city": "富士宮市",
    "town": "穂波町"
  },
  "4180061": {
    "zipcode": "4180061",
    "prefectureCode": "22",
    "prefectureNumber": 22,
    "prefecture": "静岡県",
    "city": "富士宮市",
    "town": "北町"
  },
  "4180062": {
    "zipcode": "4180062",
    "prefectureCode": "22",
    "prefectureNumber": 22,
    "prefecture": "静岡県",
    "city": "富士宮市",
    "town": "城北町"
  },
  "4180063": {
    "zipcode": "4180063",
    "prefectureCode": "22",
    "prefectureNumber": 22,
    "prefecture": "静岡県",
    "city": "富士宮市",
    "town": "若の宮町"
  },
  "4180064": {
    "zipcode": "4180064",
    "prefectureCode": "22",
    "prefectureNumber": 22,
    "prefecture": "静岡県",
    "city": "富士宮市",
    "town": "元城町"
  },
  "4180065": {
    "zipcode": "4180065",
    "prefectureCode": "22",
    "prefectureNumber": 22,
    "prefecture": "静岡県",
    "city": "富士宮市",
    "town": "中央町"
  },
  "4180066": {
    "zipcode": "4180066",
    "prefectureCode": "22",
    "prefectureNumber": 22,
    "prefecture": "静岡県",
    "city": "富士宮市",
    "town": "大宮町"
  },
  "4180067": {
    "zipcode": "4180067",
    "prefectureCode": "22",
    "prefectureNumber": 22,
    "prefecture": "静岡県",
    "city": "富士宮市",
    "town": "宮町"
  },
  "4180068": {
    "zipcode": "4180068",
    "prefectureCode": "22",
    "prefectureNumber": 22,
    "prefecture": "静岡県",
    "city": "富士宮市",
    "town": "豊町"
  },
  "4180071": {
    "zipcode": "4180071",
    "prefectureCode": "22",
    "prefectureNumber": 22,
    "prefecture": "静岡県",
    "city": "富士宮市",
    "town": "東阿幸地"
  },
  "4180072": {
    "zipcode": "4180072",
    "prefectureCode": "22",
    "prefectureNumber": 22,
    "prefecture": "静岡県",
    "city": "富士宮市",
    "town": "矢立町"
  },
  "4180073": {
    "zipcode": "4180073",
    "prefectureCode": "22",
    "prefectureNumber": 22,
    "prefecture": "静岡県",
    "city": "富士宮市",
    "town": "弓沢町"
  },
  "4180074": {
    "zipcode": "4180074",
    "prefectureCode": "22",
    "prefectureNumber": 22,
    "prefecture": "静岡県",
    "city": "富士宮市",
    "town": "源道寺町"
  },
  "4180075": {
    "zipcode": "4180075",
    "prefectureCode": "22",
    "prefectureNumber": 22,
    "prefecture": "静岡県",
    "city": "富士宮市",
    "town": "田中町"
  },
  "4180076": {
    "zipcode": "4180076",
    "prefectureCode": "22",
    "prefectureNumber": 22,
    "prefecture": "静岡県",
    "city": "富士宮市",
    "town": "錦町"
  },
  "4180077": {
    "zipcode": "4180077",
    "prefectureCode": "22",
    "prefectureNumber": 22,
    "prefecture": "静岡県",
    "city": "富士宮市",
    "town": "東町"
  },
  "4180078": {
    "zipcode": "4180078",
    "prefectureCode": "22",
    "prefectureNumber": 22,
    "prefecture": "静岡県",
    "city": "富士宮市",
    "town": "阿幸地町"
  },
  "4180101": {
    "zipcode": "4180101",
    "prefectureCode": "22",
    "prefectureNumber": 22,
    "prefecture": "静岡県",
    "city": "富士宮市",
    "town": "根原"
  },
  "4180102": {
    "zipcode": "4180102",
    "prefectureCode": "22",
    "prefectureNumber": 22,
    "prefecture": "静岡県",
    "city": "富士宮市",
    "town": "人穴"
  },
  "4180103": {
    "zipcode": "4180103",
    "prefectureCode": "22",
    "prefectureNumber": 22,
    "prefecture": "静岡県",
    "city": "富士宮市",
    "town": "上井出"
  },
  "4180104": {
    "zipcode": "4180104",
    "prefectureCode": "22",
    "prefectureNumber": 22,
    "prefecture": "静岡県",
    "city": "富士宮市",
    "town": "内野"
  },
  "4180105": {
    "zipcode": "4180105",
    "prefectureCode": "22",
    "prefectureNumber": 22,
    "prefecture": "静岡県",
    "city": "富士宮市",
    "town": "原"
  },
  "4180106": {
    "zipcode": "4180106",
    "prefectureCode": "22",
    "prefectureNumber": 22,
    "prefecture": "静岡県",
    "city": "富士宮市",
    "town": "半野"
  },
  "4180107": {
    "zipcode": "4180107",
    "prefectureCode": "22",
    "prefectureNumber": 22,
    "prefecture": "静岡県",
    "city": "富士宮市",
    "town": "佐折"
  },
  "4180108": {
    "zipcode": "4180108",
    "prefectureCode": "22",
    "prefectureNumber": 22,
    "prefecture": "静岡県",
    "city": "富士宮市",
    "town": "猪之頭"
  },
  "4180109": {
    "zipcode": "4180109",
    "prefectureCode": "22",
    "prefectureNumber": 22,
    "prefecture": "静岡県",
    "city": "富士宮市",
    "town": "麓"
  },
  "4180111": {
    "zipcode": "4180111",
    "prefectureCode": "22",
    "prefectureNumber": 22,
    "prefecture": "静岡県",
    "city": "富士宮市",
    "town": "山宮"
  },
  "4180112": {
    "zipcode": "4180112",
    "prefectureCode": "22",
    "prefectureNumber": 22,
    "prefecture": "静岡県",
    "city": "富士宮市",
    "town": "北山"
  },
  "4180113": {
    "zipcode": "4180113",
    "prefectureCode": "22",
    "prefectureNumber": 22,
    "prefecture": "静岡県",
    "city": "富士宮市",
    "town": "馬見塚"
  },
  "4180114": {
    "zipcode": "4180114",
    "prefectureCode": "22",
    "prefectureNumber": 22,
    "prefecture": "静岡県",
    "city": "富士宮市",
    "town": "下条"
  },
  "4180115": {
    "zipcode": "4180115",
    "prefectureCode": "22",
    "prefectureNumber": 22,
    "prefecture": "静岡県",
    "city": "富士宮市",
    "town": "精進川"
  },
  "4180116": {
    "zipcode": "4180116",
    "prefectureCode": "22",
    "prefectureNumber": 22,
    "prefecture": "静岡県",
    "city": "富士宮市",
    "town": "上条"
  },
  "4180117": {
    "zipcode": "4180117",
    "prefectureCode": "22",
    "prefectureNumber": 22,
    "prefecture": "静岡県",
    "city": "富士宮市",
    "town": "狩宿"
  }
}
