{
  "4190100": {
    "zipcode": "4190100",
    "prefectureCode": "22",
    "prefectureNumber": 22,
    "prefecture": "静岡県",
    "city": "田方郡函南町",
    "town": "以下に掲載がない場合"
  },
  "4190101": {
    "zipcode": "4190101",
    "prefectureCode": "22",
    "prefectureNumber": 22,
    "prefecture": "静岡県",
    "city": "田方郡函南町",
    "town": "桑原（その他）"
  },
  "4190102": {
    "zipcode": "4190102",
    "prefectureCode": "22",
    "prefectureNumber": 22,
    "prefecture": "静岡県",
    "city": "田方郡函南町",
    "town": "田代"
  },
  "4190103": {
    "zipcode": "4190103",
    "prefectureCode": "22",
    "prefectureNumber": 22,
    "prefecture": "静岡県",
    "city": "田方郡函南町",
    "town": "軽井沢"
  },
  "4190104": {
    "zipcode": "4190104",
    "prefectureCode": "22",
    "prefectureNumber": 22,
    "prefecture": "静岡県",
    "city": "田方郡函南町",
    "town": "畑"
  },
  "4190105": {
    "zipcode": "4190105",
    "prefectureCode": "22",
    "prefectureNumber": 22,
    "prefecture": "静岡県",
    "city": "田方郡函南町",
    "town": "丹那"
  },
  "4190106": {
    "zipcode": "4190106",
    "prefectureCode": "22",
    "prefectureNumber": 22,
    "prefecture": "静岡県",
    "city": "田方郡函南町",
    "town": "南箱根ダイヤランド"
  },
  "4190107": {
    "zipcode": "4190107",
    "prefectureCode": "22",
    "prefectureNumber": 22,
    "prefecture": "静岡県",
    "city": "田方郡函南町",
    "town": "平井"
  },
  "4190111": {
    "zipcode": "4190111",
    "prefectureCode": "22",
    "prefectureNumber": 22,
    "prefecture": "静岡県",
    "city": "田方郡函南町",
    "town": "畑毛"
  },
  "4190112": {
    "zipcode": "4190112",
    "prefectureCode": "22",
    "prefectureNumber": 22,
    "prefecture": "静岡県",
    "city": "田方郡函南町",
    "town": "柏谷"
  },
  "4190113": {
    "zipcode": "4190113",
    "prefectureCode": "22",
    "prefectureNumber": 22,
    "prefecture": "静岡県",
    "city": "田方郡函南町",
    "town": "大土肥"
  },
  "4190114": {
    "zipcode": "4190114",
    "prefectureCode": "22",
    "prefectureNumber": 22,
    "prefecture": "静岡県",
    "city": "田方郡函南町",
    "town": "仁田"
  },
  "4190115": {
    "zipcode": "4190115",
    "prefectureCode": "22",
    "prefectureNumber": 22,
    "prefecture": "静岡県",
    "city": "田方郡函南町",
    "town": "新田"
  },
  "4190116": {
    "zipcode": "4190116",
    "prefectureCode": "22",
    "prefectureNumber": 22,
    "prefecture": "静岡県",
    "city": "田方郡函南町",
    "town": "日守"
  },
  "4190121": {
    "zipcode": "4190121",
    "prefectureCode": "22",
    "prefectureNumber": 22,
    "prefecture": "静岡県",
    "city": "田方郡函南町",
    "town": "大竹"
  },
  "4190122": {
    "zipcode": "4190122",
    "prefectureCode": "22",
    "prefectureNumber": 22,
    "prefecture": "静岡県",
    "city": "田方郡函南町",
    "town": "上沢"
  },
  "4190123": {
    "zipcode": "4190123",
    "prefectureCode": "22",
    "prefectureNumber": 22,
    "prefecture": "静岡県",
    "city": "田方郡函南町",
    "town": "間宮"
  },
  "4190124": {
    "zipcode": "4190124",
    "prefectureCode": "22",
    "prefectureNumber": 22,
    "prefecture": "静岡県",
    "city": "田方郡函南町",
    "town": "塚本"
  },
  "4190125": {
    "zipcode": "4190125",
    "prefectureCode": "22",
    "prefectureNumber": 22,
    "prefecture": "静岡県",
    "city": "田方郡函南町",
    "town": "肥田"
  },
  "4190201": {
    "zipcode": "4190201",
    "prefectureCode": "22",
    "prefectureNumber": 22,
    "prefecture": "静岡県",
    "city": "富士市",
    "town": "厚原"
  },
  "4190202": {
    "zipcode": "4190202",
    "prefectureCode": "22",
    "prefectureNumber": 22,
    "prefecture": "静岡県",
    "city": "富士市",
    "town": "久沢"
  },
  "4190203": {
    "zipcode": "4190203",
    "prefectureCode": "22",
    "prefectureNumber": 22,
    "prefecture": "静岡県",
    "city": "富士市",
    "town": "鷹岡本町"
  },
  "4190204": {
    "zipcode": "4190204",
    "prefectureCode": "22",
    "prefectureNumber": 22,
    "prefecture": "静岡県",
    "city": "富士市",
    "town": "入山瀬"
  },
  "4190205": {
    "zipcode": "4190205",
    "prefectureCode": "22",
    "prefectureNumber": 22,
    "prefecture": "静岡県",
    "city": "富士市",
    "town": "天間"
  },
  "4190301": {
    "zipcode": "4190301",
    "prefectureCode": "22",
    "prefectureNumber": 22,
    "prefecture": "静岡県",
    "city": "富士宮市",
    "town": "上柚野"
  },
  "4190302": {
    "zipcode": "4190302",
    "prefectureCode": "22",
    "prefectureNumber": 22,
    "prefecture": "静岡県",
    "city": "富士宮市",
    "town": "猫沢"
  },
  "4190303": {
    "zipcode": "4190303",
    "prefectureCode": "22",
    "prefectureNumber": 22,
    "prefecture": "静岡県",
    "city": "富士宮市",
    "town": "大鹿窪"
  },
  "4190304": {
    "zipcode": "4190304",
    "prefectureCode": "22",
    "prefectureNumber": 22,
    "prefecture": "静岡県",
    "city": "富士宮市",
    "town": "鳥並"
  },
  "4190305": {
    "zipcode": "4190305",
    "prefectureCode": "22",
    "prefectureNumber": 22,
    "prefecture": "静岡県",
    "city": "富士宮市",
    "town": "下柚野"
  },
  "4190311": {
    "zipcode": "4190311",
    "prefectureCode": "22",
    "prefectureNumber": 22,
    "prefecture": "静岡県",
    "city": "富士宮市",
    "town": "上稲子"
  },
  "4190312": {
    "zipcode": "4190312",
    "prefectureCode": "22",
    "prefectureNumber": 22,
    "prefecture": "静岡県",
    "city": "富士宮市",
    "town": "下稲子"
  },
  "4190313": {
    "zipcode": "4190313",
    "prefectureCode": "22",
    "prefectureNumber": 22,
    "prefecture": "静岡県",
    "city": "富士宮市",
    "town": "西山"
  },
  "4190314": {
    "zipcode": "4190314",
    "prefectureCode": "22",
    "prefectureNumber": 22,
    "prefecture": "静岡県",
    "city": "富士宮市",
    "town": "大久保"
  },
  "4190315": {
    "zipcode": "4190315",
    "prefectureCode": "22",
    "prefectureNumber": 22,
    "prefecture": "静岡県",
    "city": "富士宮市",
    "town": "長貫"
  },
  "4190316": {
    "zipcode": "4190316",
    "prefectureCode": "22",
    "prefectureNumber": 22,
    "prefecture": "静岡県",
    "city": "富士宮市",
    "town": "羽鮒"
  },
  "4190317": {
    "zipcode": "4190317",
    "prefectureCode": "22",
    "prefectureNumber": 22,
    "prefecture": "静岡県",
    "city": "富士宮市",
    "town": "内房"
  }
}
