{
  "4200001": {
    "zipcode": "4200001",
    "prefectureCode": "22",
    "prefectureNumber": 22,
    "prefecture": "静岡県",
    "city": "静岡市葵区",
    "town": "井宮町"
  },
  "4200002": {
    "zipcode": "4200002",
    "prefectureCode": "22",
    "prefectureNumber": 22,
    "prefecture": "静岡県",
    "city": "静岡市葵区",
    "town": "材木町"
  },
  "4200003": {
    "zipcode": "4200003",
    "prefectureCode": "22",
    "prefectureNumber": 22,
    "prefecture": "静岡県",
    "city": "静岡市葵区",
    "town": "片羽町"
  },
  "4200004": {
    "zipcode": "4200004",
    "prefectureCode": "22",
    "prefectureNumber": 22,
    "prefecture": "静岡県",
    "city": "静岡市葵区",
    "town": "末広町"
  },
  "4200005": {
    "zipcode": "4200005",
    "prefectureCode": "22",
    "prefectureNumber": 22,
    "prefecture": "静岡県",
    "city": "静岡市葵区",
    "town": "北番町"
  },
  "4200006": {
    "zipcode": "4200006",
    "prefectureCode": "22",
    "prefectureNumber": 22,
    "prefecture": "静岡県",
    "city": "静岡市葵区",
    "town": "若松町"
  },
  "4200007": {
    "zipcode": "4200007",
    "prefectureCode": "22",
    "prefectureNumber": 22,
    "prefecture": "静岡県",
    "city": "静岡市葵区",
    "town": "柳町"
  },
  "4200008": {
    "zipcode": "4200008",
    "prefectureCode": "22",
    "prefectureNumber": 22,
    "prefecture": "静岡県",
    "city": "静岡市葵区",
    "town": "水道町"
  },
  "4200009": {
    "zipcode": "4200009",
    "prefectureCode": "22",
    "prefectureNumber": 22,
    "prefecture": "静岡県",
    "city": "静岡市葵区",
    "town": "神明町"
  },
  "4200011": {
    "zipcode": "4200011",
    "prefectureCode": "22",
    "prefectureNumber": 22,
    "prefecture": "静岡県",
    "city": "静岡市葵区",
    "town": "安西"
  },
  "4200012": {
    "zipcode": "4200012",
    "prefectureCode": "22",
    "prefectureNumber": 22,
    "prefecture": "静岡県",
    "city": "静岡市葵区",
    "town": "柚木町"
  },
  "4200013": {
    "zipcode": "4200013",
    "prefectureCode": "22",
    "prefectureNumber": 22,
    "prefecture": "静岡県",
    "city": "静岡市葵区",
    "town": "八千代町"
  },
  "4200014": {
    "zipcode": "4200014",
    "prefectureCode": "22",
    "prefectureNumber": 22,
    "prefecture": "静岡県",
    "city": "静岡市葵区",
    "town": "上桶屋町"
  },
  "4200015": {
    "zipcode": "4200015",
    "prefectureCode": "22",
    "prefectureNumber": 22,
    "prefecture": "静岡県",
    "city": "静岡市葵区",
    "town": "錦町"
  },
  "4200016": {
    "zipcode": "4200016",
    "prefectureCode": "22",
    "prefectureNumber": 22,
    "prefecture": "静岡県",
    "city": "静岡市葵区",
    "town": "住吉町"
  },
  "4200017": {
    "zipcode": "4200017",
    "prefectureCode": "22",
    "prefectureNumber": 22,
    "prefecture": "静岡県",
    "city": "静岡市葵区",
    "town": "葵町"
  },
  "4200018": {
    "zipcode": "4200018",
    "prefectureCode": "22",
    "prefectureNumber": 22,
    "prefecture": "静岡県",
    "city": "静岡市葵区",
    "town": "土太夫町"
  },
  "4200021": {
    "zipcode": "4200021",
    "prefectureCode": "22",
    "prefectureNumber": 22,
    "prefecture": "静岡県",
    "city": "静岡市葵区",
    "town": "茶町"
  },
  "4200022": {
    "zipcode": "4200022",
    "prefectureCode": "22",
    "prefectureNumber": 22,
    "prefecture": "静岡県",
    "city": "静岡市葵区",
    "town": "車町"
  },
  "4200023": {
    "zipcode": "4200023",
    "prefectureCode": "22",
    "prefectureNumber": 22,
    "prefecture": "静岡県",
    "city": "静岡市葵区",
    "town": "富士見町"
  },
  "4200024": {
    "zipcode": "4200024",
    "prefectureCode": "22",
    "prefectureNumber": 22,
    "prefecture": "静岡県",
    "city": "静岡市葵区",
    "town": "中町"
  },
  "4200025": {
    "zipcode": "4200025",
    "prefectureCode": "22",
    "prefectureNumber": 22,
    "prefecture": "静岡県",
    "city": "静岡市葵区",
    "town": "金座町"
  },
  "4200026": {
    "zipcode": "4200026",
    "prefectureCode": "22",
    "prefectureNumber": 22,
    "prefecture": "静岡県",
    "city": "静岡市葵区",
    "town": "大鋸町"
  },
  "4200027": {
    "zipcode": "4200027",
    "prefectureCode": "22",
    "prefectureNumber": 22,
    "prefecture": "静岡県",
    "city": "静岡市葵区",
    "town": "大工町"
  },
  "4200028": {
    "zipcode": "4200028",
    "prefectureCode": "22",
    "prefectureNumber": 22,
    "prefecture": "静岡県",
    "city": "静岡市葵区",
    "town": "屋形町"
  },
  "4200029": {
    "zipcode": "4200029",
    "prefectureCode": "22",
    "prefectureNumber": 22,
    "prefecture": "静岡県",
    "city": "静岡市葵区",
    "town": "研屋町"
  },
  "4200031": {
    "zipcode": "4200031",
    "prefectureCode": "22",
    "prefectureNumber": 22,
    "prefecture": "静岡県",
    "city": "静岡市葵区",
    "town": "呉服町"
  },
  "4200032": {
    "zipcode": "4200032",
    "prefectureCode": "22",
    "prefectureNumber": 22,
    "prefecture": "静岡県",
    "city": "静岡市葵区",
    "town": "両替町"
  },
  "4200033": {
    "zipcode": "4200033",
    "prefectureCode": "22",
    "prefectureNumber": 22,
    "prefecture": "静岡県",
    "city": "静岡市葵区",
    "town": "昭和町"
  },
  "4200034": {
    "zipcode": "4200034",
    "prefectureCode": "22",
    "prefectureNumber": 22,
    "prefecture": "静岡県",
    "city": "静岡市葵区",
    "town": "常磐町"
  },
  "4200035": {
    "zipcode": "4200035",
    "prefectureCode": "22",
    "prefectureNumber": 22,
    "prefecture": "静岡県",
    "city": "静岡市葵区",
    "town": "七間町"
  },
  "4200036": {
    "zipcode": "4200036",
    "prefectureCode": "22",
    "prefectureNumber": 22,
    "prefecture": "静岡県",
    "city": "静岡市葵区",
    "town": "駿河町"
  },
  "4200037": {
    "zipcode": "4200037",
    "prefectureCode": "22",
    "prefectureNumber": 22,
    "prefecture": "静岡県",
    "city": "静岡市葵区",
    "town": "人宿町"
  },
  "4200038": {
    "zipcode": "4200038",
    "prefectureCode": "22",
    "prefectureNumber": 22,
    "prefecture": "静岡県",
    "city": "静岡市葵区",
    "town": "梅屋町"
  },
  "4200039": {
    "zipcode": "4200039",
    "prefectureCode": "22",
    "prefectureNumber": 22,
    "prefecture": "静岡県",
    "city": "静岡市葵区",
    "town": "上石町"
  },
  "4200041": {
    "zipcode": "4200041",
    "prefectureCode": "22",
    "prefectureNumber": 22,
    "prefecture": "静岡県",
    "city": "静岡市葵区",
    "town": "双葉町"
  },
  "4200042": {
    "zipcode": "4200042",
    "prefectureCode": "22",
    "prefectureNumber": 22,
    "prefecture": "静岡県",
    "city": "静岡市葵区",
    "town": "駒形通"
  },
  "4200043": {
    "zipcode": "4200043",
    "prefectureCode": "22",
    "prefectureNumber": 22,
    "prefecture": "静岡県",
    "city": "静岡市葵区",
    "town": "川辺町"
  },
  "4200044": {
    "zipcode": "4200044",
    "prefectureCode": "22",
    "prefectureNumber": 22,
    "prefecture": "静岡県",
    "city": "静岡市葵区",
    "town": "西門町"
  },
  "4200045": {
    "zipcode": "4200045",
    "prefectureCode": "22",
    "prefectureNumber": 22,
    "prefecture": "静岡県",
    "city": "静岡市葵区",
    "town": "天王町"
  },
  "4200046": {
    "zipcode": "4200046",
    "prefectureCode": "22",
    "prefectureNumber": 22,
    "prefecture": "静岡県",
    "city": "静岡市葵区",
    "town": "吉野町"
  },
  "4200047": {
    "zipcode": "4200047",
    "prefectureCode": "22",
    "prefectureNumber": 22,
    "prefecture": "静岡県",
    "city": "静岡市葵区",
    "town": "清閑町"
  },
  "4200048": {
    "zipcode": "4200048",
    "prefectureCode": "22",
    "prefectureNumber": 22,
    "prefecture": "静岡県",
    "city": "静岡市葵区",
    "town": "桜木町"
  },
  "4200051": {
    "zipcode": "4200051",
    "prefectureCode": "22",
    "prefectureNumber": 22,
    "prefecture": "静岡県",
    "city": "静岡市葵区",
    "town": "南田町"
  },
  "4200052": {
    "zipcode": "4200052",
    "prefectureCode": "22",
    "prefectureNumber": 22,
    "prefecture": "静岡県",
    "city": "静岡市葵区",
    "town": "川越町"
  },
  "4200053": {
    "zipcode": "4200053",
    "prefectureCode": "22",
    "prefectureNumber": 22,
    "prefecture": "静岡県",
    "city": "静岡市葵区",
    "town": "弥勒"
  },
  "4200054": {
    "zipcode": "4200054",
    "prefectureCode": "22",
    "prefectureNumber": 22,
    "prefecture": "静岡県",
    "city": "静岡市葵区",
    "town": "南安倍（１、２丁目）"
  },
  "4200061": {
    "zipcode": "4200061",
    "prefectureCode": "22",
    "prefectureNumber": 22,
    "prefecture": "静岡県",
    "city": "静岡市葵区",
    "town": "新富町"
  },
  "4200062": {
    "zipcode": "4200062",
    "prefectureCode": "22",
    "prefectureNumber": 22,
    "prefecture": "静岡県",
    "city": "静岡市葵区",
    "town": "上新富町"
  },
  "4200063": {
    "zipcode": "4200063",
    "prefectureCode": "22",
    "prefectureNumber": 22,
    "prefecture": "静岡県",
    "city": "静岡市葵区",
    "town": "通車町"
  },
  "4200064": {
    "zipcode": "4200064",
    "prefectureCode": "22",
    "prefectureNumber": 22,
    "prefecture": "静岡県",
    "city": "静岡市葵区",
    "town": "本通"
  },
  "4200065": {
    "zipcode": "4200065",
    "prefectureCode": "22",
    "prefectureNumber": 22,
    "prefecture": "静岡県",
    "city": "静岡市葵区",
    "town": "新通"
  },
  "4200066": {
    "zipcode": "4200066",
    "prefectureCode": "22",
    "prefectureNumber": 22,
    "prefecture": "静岡県",
    "city": "静岡市葵区",
    "town": "本通西町"
  },
  "4200067": {
    "zipcode": "4200067",
    "prefectureCode": "22",
    "prefectureNumber": 22,
    "prefecture": "静岡県",
    "city": "静岡市葵区",
    "town": "幸町"
  },
  "4200068": {
    "zipcode": "4200068",
    "prefectureCode": "22",
    "prefectureNumber": 22,
    "prefecture": "静岡県",
    "city": "静岡市葵区",
    "town": "田町"
  },
  "4200071": {
    "zipcode": "4200071",
    "prefectureCode": "22",
    "prefectureNumber": 22,
    "prefecture": "静岡県",
    "city": "静岡市葵区",
    "town": "一番町"
  },
  "4200072": {
    "zipcode": "4200072",
    "prefectureCode": "22",
    "prefectureNumber": 22,
    "prefecture": "静岡県",
    "city": "静岡市葵区",
    "town": "二番町"
  },
  "4200073": {
    "zipcode": "4200073",
    "prefectureCode": "22",
    "prefectureNumber": 22,
    "prefecture": "静岡県",
    "city": "静岡市葵区",
    "town": "三番町"
  },
  "4200074": {
    "zipcode": "4200074",
    "prefectureCode": "22",
    "prefectureNumber": 22,
    "prefecture": "静岡県",
    "city": "静岡市葵区",
    "town": "四番町"
  },
  "4200075": {
    "zipcode": "4200075",
    "prefectureCode": "22",
    "prefectureNumber": 22,
    "prefecture": "静岡県",
    "city": "静岡市葵区",
    "town": "五番町"
  },
  "4200076": {
    "zipcode": "4200076",
    "prefectureCode": "22",
    "prefectureNumber": 22,
    "prefecture": "静岡県",
    "city": "静岡市葵区",
    "town": "六番町"
  },
  "4200077": {
    "zipcode": "4200077",
    "prefectureCode": "22",
    "prefectureNumber": 22,
    "prefecture": "静岡県",
    "city": "静岡市葵区",
    "town": "七番町"
  },
  "4200078": {
    "zipcode": "4200078",
    "prefectureCode": "22",
    "prefectureNumber": 22,
    "prefecture": "静岡県",
    "city": "静岡市葵区",
    "town": "八番町"
  },
  "4200801": {
    "zipcode": "4200801",
    "prefectureCode": "22",
    "prefectureNumber": 22,
    "prefecture": "静岡県",
    "city": "静岡市葵区",
    "town": "東千代田"
  },
  "4200803": {
    "zipcode": "4200803",
    "prefectureCode": "22",
    "prefectureNumber": 22,
    "prefecture": "静岡県",
    "city": "静岡市葵区",
    "town": "千代田"
  },
  "4200804": {
    "zipcode": "4200804",
    "prefectureCode": "22",
    "prefectureNumber": 22,
    "prefecture": "静岡県",
    "city": "静岡市葵区",
    "town": "竜南"
  },
  "4200805": {
    "zipcode": "4200805",
    "prefectureCode": "22",
    "prefectureNumber": 22,
    "prefecture": "静岡県",
    "city": "静岡市葵区",
    "town": "城北"
  },
  "4200810": {
    "zipcode": "4200810",
    "prefectureCode": "22",
    "prefectureNumber": 22,
    "prefecture": "静岡県",
    "city": "静岡市葵区",
    "town": "上土"
  },
  "4200811": {
    "zipcode": "4200811",
    "prefectureCode": "22",
    "prefectureNumber": 22,
    "prefecture": "静岡県",
    "city": "静岡市葵区",
    "town": "上土新田"
  },
  "4200812": {
    "zipcode": "4200812",
    "prefectureCode": "22",
    "prefectureNumber": 22,
    "prefecture": "静岡県",
    "city": "静岡市葵区",
    "town": "古庄"
  },
  "4200813": {
    "zipcode": "4200813",
    "prefectureCode": "22",
    "prefectureNumber": 22,
    "prefecture": "静岡県",
    "city": "静岡市葵区",
    "town": "長沼"
  },
  "4200814": {
    "zipcode": "4200814",
    "prefectureCode": "22",
    "prefectureNumber": 22,
    "prefecture": "静岡県",
    "city": "静岡市葵区",
    "town": "長沼南"
  },
  "4200815": {
    "zipcode": "4200815",
    "prefectureCode": "22",
    "prefectureNumber": 22,
    "prefecture": "静岡県",
    "city": "静岡市葵区",
    "town": "上沓谷町"
  },
  "4200816": {
    "zipcode": "4200816",
    "prefectureCode": "22",
    "prefectureNumber": 22,
    "prefecture": "静岡県",
    "city": "静岡市葵区",
    "town": "沓谷"
  },
  "4200817": {
    "zipcode": "4200817",
    "prefectureCode": "22",
    "prefectureNumber": 22,
    "prefecture": "静岡県",
    "city": "静岡市葵区",
    "town": "東静岡"
  },
  "4200821": {
    "zipcode": "4200821",
    "prefectureCode": "22",
    "prefectureNumber": 22,
    "prefecture": "静岡県",
    "city": "静岡市葵区",
    "town": "柚木"
  },
  "4200822": {
    "zipcode": "4200822",
    "prefectureCode": "22",
    "prefectureNumber": 22,
    "prefecture": "静岡県",
    "city": "静岡市葵区",
    "town": "宮前町"
  },
  "4200823": {
    "zipcode": "4200823",
    "prefectureCode": "22",
    "prefectureNumber": 22,
    "prefecture": "静岡県",
    "city": "静岡市葵区",
    "town": "春日"
  },
  "4200824": {
    "zipcode": "4200824",
    "prefectureCode": "22",
    "prefectureNumber": 22,
    "prefecture": "静岡県",
    "city": "静岡市葵区",
    "town": "春日町"
  },
  "4200825": {
    "zipcode": "4200825",
    "prefectureCode": "22",
    "prefectureNumber": 22,
    "prefecture": "静岡県",
    "city": "静岡市葵区",
    "town": "瓦場町"
  },
  "4200831": {
    "zipcode": "4200831",
    "prefectureCode": "22",
    "prefectureNumber": 22,
    "prefecture": "静岡県",
    "city": "静岡市葵区",
    "town": "水落町"
  },
  "4200832": {
    "zipcode": "4200832",
    "prefectureCode": "22",
    "prefectureNumber": 22,
    "prefecture": "静岡県",
    "city": "静岡市葵区",
    "town": "横内町"
  },
  "4200833": {
    "zipcode": "4200833",
    "prefectureCode": "22",
    "prefectureNumber": 22,
    "prefecture": "静岡県",
    "city": "静岡市葵区",
    "town": "東鷹匠町"
  },
  "4200834": {
    "zipcode": "4200834",
    "prefectureCode": "22",
    "prefectureNumber": 22,
    "prefecture": "静岡県",
    "city": "静岡市葵区",
    "town": "音羽町"
  },
  "4200835": {
    "zipcode": "4200835",
    "prefectureCode": "22",
    "prefectureNumber": 22,
    "prefecture": "静岡県",
    "city": "静岡市葵区",
    "town": "横田町"
  },
  "4200836": {
    "zipcode": "4200836",
    "prefectureCode": "22",
    "prefectureNumber": 22,
    "prefecture": "静岡県",
    "city": "静岡市葵区",
    "town": "東町"
  },
  "4200837": {
    "zipcode": "4200837",
    "prefectureCode": "22",
    "prefectureNumber": 22,
    "prefecture": "静岡県",
    "city": "静岡市葵区",
    "town": "日出町"
  },
  "4200838": {
    "zipcode": "4200838",
    "prefectureCode": "22",
    "prefectureNumber": 22,
    "prefecture": "静岡県",
    "city": "静岡市葵区",
    "town": "相生町"
  },
  "4200839": {
    "zipcode": "4200839",
    "prefectureCode": "22",
    "prefectureNumber": 22,
    "prefecture": "静岡県",
    "city": "静岡市葵区",
    "town": "鷹匠"
  },
  "4200841": {
    "zipcode": "4200841",
    "prefectureCode": "22",
    "prefectureNumber": 22,
    "prefecture": "静岡県",
    "city": "静岡市葵区",
    "town": "上足洗"
  },
  "4200842": {
    "zipcode": "4200842",
    "prefectureCode": "22",
    "prefectureNumber": 22,
    "prefecture": "静岡県",
    "city": "静岡市葵区",
    "town": "銭座町"
  },
  "4200843": {
    "zipcode": "4200843",
    "prefectureCode": "22",
    "prefectureNumber": 22,
    "prefecture": "静岡県",
    "city": "静岡市葵区",
    "town": "巴町"
  },
  "4200844": {
    "zipcode": "4200844",
    "prefectureCode": "22",
    "prefectureNumber": 22,
    "prefecture": "静岡県",
    "city": "静岡市葵区",
    "town": "緑町"
  },
  "4200845": {
    "zipcode": "4200845",
    "prefectureCode": "22",
    "prefectureNumber": 22,
    "prefecture": "静岡県",
    "city": "静岡市葵区",
    "town": "太田町"
  },
  "4200846": {
    "zipcode": "4200846",
    "prefectureCode": "22",
    "prefectureNumber": 22,
    "prefecture": "静岡県",
    "city": "静岡市葵区",
    "town": "城東町"
  },
  "4200847": {
    "zipcode": "4200847",
    "prefectureCode": "22",
    "prefectureNumber": 22,
    "prefecture": "静岡県",
    "city": "静岡市葵区",
    "town": "西千代田町"
  },
  "4200851": {
    "zipcode": "4200851",
    "prefectureCode": "22",
    "prefectureNumber": 22,
    "prefecture": "静岡県",
    "city": "静岡市葵区",
    "town": "黒金町"
  },
  "4200852": {
    "zipcode": "4200852",
    "prefectureCode": "22",
    "prefectureNumber": 22,
    "prefecture": "静岡県",
    "city": "静岡市葵区",
    "town": "紺屋町"
  },
  "4200853": {
    "zipcode": "4200853",
    "prefectureCode": "22",
    "prefectureNumber": 22,
    "prefecture": "静岡県",
    "city": "静岡市葵区",
    "town": "追手町"
  },
  "4200854": {
    "zipcode": "4200854",
    "prefectureCode": "22",
    "prefectureNumber": 22,
    "prefecture": "静岡県",
    "city": "静岡市葵区",
    "town": "城内町"
  },
  "4200855": {
    "zipcode": "4200855",
    "prefectureCode": "22",
    "prefectureNumber": 22,
    "prefecture": "静岡県",
    "city": "静岡市葵区",
    "town": "駿府城公園"
  },
  "4200856": {
    "zipcode": "4200856",
    "prefectureCode": "22",
    "prefectureNumber": 22,
    "prefecture": "静岡県",
    "city": "静岡市葵区",
    "town": "駿府町"
  },
  "4200857": {
    "zipcode": "4200857",
    "prefectureCode": "22",
    "prefectureNumber": 22,
    "prefecture": "静岡県",
    "city": "静岡市葵区",
    "town": "御幸町"
  },
  "4200858": {
    "zipcode": "4200858",
    "prefectureCode": "22",
    "prefectureNumber": 22,
    "prefecture": "静岡県",
    "city": "静岡市葵区",
    "town": "伝馬町"
  },
  "4200859": {
    "zipcode": "4200859",
    "prefectureCode": "22",
    "prefectureNumber": 22,
    "prefecture": "静岡県",
    "city": "静岡市葵区",
    "town": "栄町"
  },
  "4200861": {
    "zipcode": "4200861",
    "prefectureCode": "22",
    "prefectureNumber": 22,
    "prefecture": "静岡県",
    "city": "静岡市葵区",
    "town": "丸山町"
  },
  "4200862": {
    "zipcode": "4200862",
    "prefectureCode": "22",
    "prefectureNumber": 22,
    "prefecture": "静岡県",
    "city": "静岡市葵区",
    "town": "浅間町"
  },
  "4200863": {
    "zipcode": "4200863",
    "prefectureCode": "22",
    "prefectureNumber": 22,
    "prefecture": "静岡県",
    "city": "静岡市葵区",
    "town": "安東柳町"
  },
  "4200864": {
    "zipcode": "4200864",
    "prefectureCode": "22",
    "prefectureNumber": 22,
    "prefecture": "静岡県",
    "city": "静岡市葵区",
    "town": "長谷町"
  },
  "4200865": {
    "zipcode": "4200865",
    "prefectureCode": "22",
    "prefectureNumber": 22,
    "prefecture": "静岡県",
    "city": "静岡市葵区",
    "town": "東草深町"
  },
  "4200866": {
    "zipcode": "4200866",
    "prefectureCode": "22",
    "prefectureNumber": 22,
    "prefecture": "静岡県",
    "city": "静岡市葵区",
    "town": "西草深町"
  },
  "4200867": {
    "zipcode": "4200867",
    "prefectureCode": "22",
    "prefectureNumber": 22,
    "prefecture": "静岡県",
    "city": "静岡市葵区",
    "town": "馬場町"
  },
  "4200868": {
    "zipcode": "4200868",
    "prefectureCode": "22",
    "prefectureNumber": 22,
    "prefecture": "静岡県",
    "city": "静岡市葵区",
    "town": "宮ケ崎町"
  },
  "4200869": {
    "zipcode": "4200869",
    "prefectureCode": "22",
    "prefectureNumber": 22,
    "prefecture": "静岡県",
    "city": "静岡市葵区",
    "town": "安倍町"
  },
  "4200871": {
    "zipcode": "4200871",
    "prefectureCode": "22",
    "prefectureNumber": 22,
    "prefecture": "静岡県",
    "city": "静岡市葵区",
    "town": "昭府"
  },
  "4200872": {
    "zipcode": "4200872",
    "prefectureCode": "22",
    "prefectureNumber": 22,
    "prefecture": "静岡県",
    "city": "静岡市葵区",
    "town": "昭府町"
  },
  "4200873": {
    "zipcode": "4200873",
    "prefectureCode": "22",
    "prefectureNumber": 22,
    "prefecture": "静岡県",
    "city": "静岡市葵区",
    "town": "籠上"
  },
  "4200874": {
    "zipcode": "4200874",
    "prefectureCode": "22",
    "prefectureNumber": 22,
    "prefecture": "静岡県",
    "city": "静岡市葵区",
    "town": "辰起町"
  },
  "4200875": {
    "zipcode": "4200875",
    "prefectureCode": "22",
    "prefectureNumber": 22,
    "prefecture": "静岡県",
    "city": "静岡市葵区",
    "town": "美川町"
  },
  "4200876": {
    "zipcode": "4200876",
    "prefectureCode": "22",
    "prefectureNumber": 22,
    "prefecture": "静岡県",
    "city": "静岡市葵区",
    "town": "平和"
  },
  "4200881": {
    "zipcode": "4200881",
    "prefectureCode": "22",
    "prefectureNumber": 22,
    "prefecture": "静岡県",
    "city": "静岡市葵区",
    "town": "北安東"
  },
  "4200882": {
    "zipcode": "4200882",
    "prefectureCode": "22",
    "prefectureNumber": 22,
    "prefecture": "静岡県",
    "city": "静岡市葵区",
    "town": "安東"
  },
  "4200883": {
    "zipcode": "4200883",
    "prefectureCode": "22",
    "prefectureNumber": 22,
    "prefecture": "静岡県",
    "city": "静岡市葵区",
    "town": "大岩宮下町"
  },
  "4200884": {
    "zipcode": "4200884",
    "prefectureCode": "22",
    "prefectureNumber": 22,
    "prefecture": "静岡県",
    "city": "静岡市葵区",
    "town": "大岩本町"
  },
  "4200885": {
    "zipcode": "4200885",
    "prefectureCode": "22",
    "prefectureNumber": 22,
    "prefecture": "静岡県",
    "city": "静岡市葵区",
    "town": "大岩町"
  },
  "4200886": {
    "zipcode": "4200886",
    "prefectureCode": "22",
    "prefectureNumber": 22,
    "prefecture": "静岡県",
    "city": "静岡市葵区",
    "town": "大岩"
  },
  "4200901": {
    "zipcode": "4200901",
    "prefectureCode": "22",
    "prefectureNumber": 22,
    "prefecture": "静岡県",
    "city": "静岡市葵区",
    "town": "北沼上"
  },
  "4200902": {
    "zipcode": "4200902",
    "prefectureCode": "22",
    "prefectureNumber": 22,
    "prefecture": "静岡県",
    "city": "静岡市葵区",
    "town": "諏訪"
  },
  "4200903": {
    "zipcode": "4200903",
    "prefectureCode": "22",
    "prefectureNumber": 22,
    "prefecture": "静岡県",
    "city": "静岡市葵区",
    "town": "長尾"
  },
  "4200904": {
    "zipcode": "4200904",
    "prefectureCode": "22",
    "prefectureNumber": 22,
    "prefecture": "静岡県",
    "city": "静岡市葵区",
    "town": "平山"
  },
  "4200905": {
    "zipcode": "4200905",
    "prefectureCode": "22",
    "prefectureNumber": 22,
    "prefecture": "静岡県",
    "city": "静岡市葵区",
    "town": "南沼上"
  },
  "4200906": {
    "zipcode": "4200906",
    "prefectureCode": "22",
    "prefectureNumber": 22,
    "prefecture": "静岡県",
    "city": "静岡市葵区",
    "town": "薬師"
  },
  "4200911": {
    "zipcode": "4200911",
    "prefectureCode": "22",
    "prefectureNumber": 22,
    "prefecture": "静岡県",
    "city": "静岡市葵区",
    "town": "瀬名"
  },
  "4200912": {
    "zipcode": "4200912",
    "prefectureCode": "22",
    "prefectureNumber": 22,
    "prefecture": "静岡県",
    "city": "静岡市葵区",
    "town": "東瀬名町"
  },
  "4200913": {
    "zipcode": "4200913",
    "prefectureCode": "22",
    "prefectureNumber": 22,
    "prefecture": "静岡県",
    "city": "静岡市葵区",
    "town": "瀬名川"
  },
  "4200914": {
    "zipcode": "4200914",
    "prefectureCode": "22",
    "prefectureNumber": 22,
    "prefecture": "静岡県",
    "city": "静岡市葵区",
    "town": "西瀬名町"
  },
  "4200915": {
    "zipcode": "4200915",
    "prefectureCode": "22",
    "prefectureNumber": 22,
    "prefecture": "静岡県",
    "city": "静岡市葵区",
    "town": "南瀬名町"
  },
  "4200916": {
    "zipcode": "4200916",
    "prefectureCode": "22",
    "prefectureNumber": 22,
    "prefecture": "静岡県",
    "city": "静岡市葵区",
    "town": "瀬名中央"
  },
  "4200921": {
    "zipcode": "4200921",
    "prefectureCode": "22",
    "prefectureNumber": 22,
    "prefecture": "静岡県",
    "city": "静岡市葵区",
    "town": "野丈"
  },
  "4200922": {
    "zipcode": "4200922",
    "prefectureCode": "22",
    "prefectureNumber": 22,
    "prefecture": "静岡県",
    "city": "静岡市葵区",
    "town": "流通センター"
  },
  "4200923": {
    "zipcode": "4200923",
    "prefectureCode": "22",
    "prefectureNumber": 22,
    "prefecture": "静岡県",
    "city": "静岡市葵区",
    "town": "川合"
  },
  "4200924": {
    "zipcode": "4200924",
    "prefectureCode": "22",
    "prefectureNumber": 22,
    "prefecture": "静岡県",
    "city": "静岡市葵区",
    "town": "川合新田"
  },
  "4200925": {
    "zipcode": "4200925",
    "prefectureCode": "22",
    "prefectureNumber": 22,
    "prefecture": "静岡県",
    "city": "静岡市葵区",
    "town": "加藤島"
  },
  "4200931": {
    "zipcode": "4200931",
    "prefectureCode": "22",
    "prefectureNumber": 22,
    "prefecture": "静岡県",
    "city": "静岡市葵区",
    "town": "観山"
  },
  "4200932": {
    "zipcode": "4200932",
    "prefectureCode": "22",
    "prefectureNumber": 22,
    "prefecture": "静岡県",
    "city": "静岡市葵区",
    "town": "豊地"
  },
  "4200933": {
    "zipcode": "4200933",
    "prefectureCode": "22",
    "prefectureNumber": 22,
    "prefecture": "静岡県",
    "city": "静岡市葵区",
    "town": "立石"
  },
  "4200934": {
    "zipcode": "4200934",
    "prefectureCode": "22",
    "prefectureNumber": 22,
    "prefecture": "静岡県",
    "city": "静岡市葵区",
    "town": "岳美"
  },
  "4200935": {
    "zipcode": "4200935",
    "prefectureCode": "22",
    "prefectureNumber": 22,
    "prefecture": "静岡県",
    "city": "静岡市葵区",
    "town": "池ケ谷東"
  },
  "4200936": {
    "zipcode": "4200936",
    "prefectureCode": "22",
    "prefectureNumber": 22,
    "prefecture": "静岡県",
    "city": "静岡市葵区",
    "town": "池ケ谷"
  },
  "4200937": {
    "zipcode": "4200937",
    "prefectureCode": "22",
    "prefectureNumber": 22,
    "prefecture": "静岡県",
    "city": "静岡市葵区",
    "town": "唐瀬"
  },
  "4200941": {
    "zipcode": "4200941",
    "prefectureCode": "22",
    "prefectureNumber": 22,
    "prefecture": "静岡県",
    "city": "静岡市葵区",
    "town": "松富"
  },
  "4200942": {
    "zipcode": "4200942",
    "prefectureCode": "22",
    "prefectureNumber": 22,
    "prefecture": "静岡県",
    "city": "静岡市葵区",
    "town": "松富上組"
  },
  "4200943": {
    "zipcode": "4200943",
    "prefectureCode": "22",
    "prefectureNumber": 22,
    "prefecture": "静岡県",
    "city": "静岡市葵区",
    "town": "上伝馬"
  },
  "4200944": {
    "zipcode": "4200944",
    "prefectureCode": "22",
    "prefectureNumber": 22,
    "prefecture": "静岡県",
    "city": "静岡市葵区",
    "town": "新伝馬"
  },
  "4200945": {
    "zipcode": "4200945",
    "prefectureCode": "22",
    "prefectureNumber": 22,
    "prefecture": "静岡県",
    "city": "静岡市葵区",
    "town": "桜町"
  },
  "4200946": {
    "zipcode": "4200946",
    "prefectureCode": "22",
    "prefectureNumber": 22,
    "prefecture": "静岡県",
    "city": "静岡市葵区",
    "town": "伊呂波町"
  },
  "4200947": {
    "zipcode": "4200947",
    "prefectureCode": "22",
    "prefectureNumber": 22,
    "prefecture": "静岡県",
    "city": "静岡市葵区",
    "town": "堤町"
  },
  "4200948": {
    "zipcode": "4200948",
    "prefectureCode": "22",
    "prefectureNumber": 22,
    "prefecture": "静岡県",
    "city": "静岡市葵区",
    "town": "秋山町"
  },
  "4200949": {
    "zipcode": "4200949",
    "prefectureCode": "22",
    "prefectureNumber": 22,
    "prefecture": "静岡県",
    "city": "静岡市葵区",
    "town": "与一"
  },
  "4200951": {
    "zipcode": "4200951",
    "prefectureCode": "22",
    "prefectureNumber": 22,
    "prefecture": "静岡県",
    "city": "静岡市葵区",
    "town": "天神前"
  },
  "4200952": {
    "zipcode": "4200952",
    "prefectureCode": "22",
    "prefectureNumber": 22,
    "prefecture": "静岡県",
    "city": "静岡市葵区",
    "town": "牛田"
  },
  "4200953": {
    "zipcode": "4200953",
    "prefectureCode": "22",
    "prefectureNumber": 22,
    "prefecture": "静岡県",
    "city": "静岡市葵区",
    "town": "漆山"
  },
  "4200954": {
    "zipcode": "4200954",
    "prefectureCode": "22",
    "prefectureNumber": 22,
    "prefecture": "静岡県",
    "city": "静岡市葵区",
    "town": "平柳"
  },
  "4200955": {
    "zipcode": "4200955",
    "prefectureCode": "22",
    "prefectureNumber": 22,
    "prefecture": "静岡県",
    "city": "静岡市葵区",
    "town": "芝原"
  },
  "4200956": {
    "zipcode": "4200956",
    "prefectureCode": "22",
    "prefectureNumber": 22,
    "prefecture": "静岡県",
    "city": "静岡市葵区",
    "town": "南"
  },
  "4200957": {
    "zipcode": "4200957",
    "prefectureCode": "22",
    "prefectureNumber": 22,
    "prefecture": "静岡県",
    "city": "静岡市葵区",
    "town": "前林"
  },
  "4200961": {
    "zipcode": "4200961",
    "prefectureCode": "22",
    "prefectureNumber": 22,
    "prefecture": "静岡県",
    "city": "静岡市葵区",
    "town": "北"
  },
  "4200962": {
    "zipcode": "4200962",
    "prefectureCode": "22",
    "prefectureNumber": 22,
    "prefecture": "静岡県",
    "city": "静岡市葵区",
    "town": "東"
  },
  "4200963": {
    "zipcode": "4200963",
    "prefectureCode": "22",
    "prefectureNumber": 22,
    "prefecture": "静岡県",
    "city": "静岡市葵区",
    "town": "赤松"
  },
  "4200964": {
    "zipcode": "4200964",
    "prefectureCode": "22",
    "prefectureNumber": 22,
    "prefecture": "静岡県",
    "city": "静岡市葵区",
    "town": "柳原"
  },
  "4200965": {
    "zipcode": "4200965",
    "prefectureCode": "22",
    "prefectureNumber": 22,
    "prefecture": "静岡県",
    "city": "静岡市葵区",
    "town": "有永"
  },
  "4200966": {
    "zipcode": "4200966",
    "prefectureCode": "22",
    "prefectureNumber": 22,
    "prefecture": "静岡県",
    "city": "静岡市葵区",
    "town": "羽高"
  },
  "4200967": {
    "zipcode": "4200967",
    "prefectureCode": "22",
    "prefectureNumber": 22,
    "prefecture": "静岡県",
    "city": "静岡市葵区",
    "town": "羽高町"
  },
  "4200968": {
    "zipcode": "4200968",
    "prefectureCode": "22",
    "prefectureNumber": 22,
    "prefecture": "静岡県",
    "city": "静岡市葵区",
    "town": "あさはた"
  },
  "4200969": {
    "zipcode": "4200969",
    "prefectureCode": "22",
    "prefectureNumber": 22,
    "prefecture": "静岡県",
    "city": "静岡市葵区",
    "town": "有永町"
  }
}
