{
  "4210101": {
    "zipcode": "4210101",
    "prefectureCode": "22",
    "prefectureNumber": 22,
    "prefecture": "静岡県",
    "city": "静岡市駿河区",
    "town": "向敷地"
  },
  "4210102": {
    "zipcode": "4210102",
    "prefectureCode": "22",
    "prefectureNumber": 22,
    "prefecture": "静岡県",
    "city": "静岡市駿河区",
    "town": "手越"
  },
  "4210103": {
    "zipcode": "4210103",
    "prefectureCode": "22",
    "prefectureNumber": 22,
    "prefecture": "静岡県",
    "city": "静岡市駿河区",
    "town": "丸子"
  },
  "4210104": {
    "zipcode": "4210104",
    "prefectureCode": "22",
    "prefectureNumber": 22,
    "prefecture": "静岡県",
    "city": "静岡市駿河区",
    "town": "丸子芹が谷町"
  },
  "4210105": {
    "zipcode": "4210105",
    "prefectureCode": "22",
    "prefectureNumber": 22,
    "prefecture": "静岡県",
    "city": "静岡市駿河区",
    "town": "宇津ノ谷"
  },
  "4210106": {
    "zipcode": "4210106",
    "prefectureCode": "22",
    "prefectureNumber": 22,
    "prefecture": "静岡県",
    "city": "静岡市駿河区",
    "town": "北丸子"
  },
  "4210107": {
    "zipcode": "4210107",
    "prefectureCode": "22",
    "prefectureNumber": 22,
    "prefecture": "静岡県",
    "city": "静岡市駿河区",
    "town": "向手越"
  },
  "4210111": {
    "zipcode": "4210111",
    "prefectureCode": "22",
    "prefectureNumber": 22,
    "prefecture": "静岡県",
    "city": "静岡市駿河区",
    "town": "丸子新田"
  },
  "4210112": {
    "zipcode": "4210112",
    "prefectureCode": "22",
    "prefectureNumber": 22,
    "prefecture": "静岡県",
    "city": "静岡市駿河区",
    "town": "東新田"
  },
  "4210113": {
    "zipcode": "4210113",
    "prefectureCode": "22",
    "prefectureNumber": 22,
    "prefecture": "静岡県",
    "city": "静岡市駿河区",
    "town": "下川原"
  },
  "4210114": {
    "zipcode": "4210114",
    "prefectureCode": "22",
    "prefectureNumber": 22,
    "prefecture": "静岡県",
    "city": "静岡市駿河区",
    "town": "桃園町"
  },
  "4210115": {
    "zipcode": "4210115",
    "prefectureCode": "22",
    "prefectureNumber": 22,
    "prefecture": "静岡県",
    "city": "静岡市駿河区",
    "town": "みずほ"
  },
  "4210116": {
    "zipcode": "4210116",
    "prefectureCode": "22",
    "prefectureNumber": 22,
    "prefecture": "静岡県",
    "city": "静岡市駿河区",
    "town": "光陽町"
  },
  "4210117": {
    "zipcode": "4210117",
    "prefectureCode": "22",
    "prefectureNumber": 22,
    "prefecture": "静岡県",
    "city": "静岡市駿河区",
    "town": "下川原南"
  },
  "4210121": {
    "zipcode": "4210121",
    "prefectureCode": "22",
    "prefectureNumber": 22,
    "prefecture": "静岡県",
    "city": "静岡市駿河区",
    "town": "広野"
  },
  "4210122": {
    "zipcode": "4210122",
    "prefectureCode": "22",
    "prefectureNumber": 22,
    "prefecture": "静岡県",
    "city": "静岡市駿河区",
    "town": "用宗"
  },
  "4210123": {
    "zipcode": "4210123",
    "prefectureCode": "22",
    "prefectureNumber": 22,
    "prefecture": "静岡県",
    "city": "静岡市駿河区",
    "town": "石部"
  },
  "4210124": {
    "zipcode": "4210124",
    "prefectureCode": "22",
    "prefectureNumber": 22,
    "prefecture": "静岡県",
    "city": "静岡市駿河区",
    "town": "用宗城山町"
  },
  "4210125": {
    "zipcode": "4210125",
    "prefectureCode": "22",
    "prefectureNumber": 22,
    "prefecture": "静岡県",
    "city": "静岡市駿河区",
    "town": "用宗小石町"
  },
  "4210126": {
    "zipcode": "4210126",
    "prefectureCode": "22",
    "prefectureNumber": 22,
    "prefecture": "静岡県",
    "city": "静岡市駿河区",
    "town": "用宗巴町"
  },
  "4210131": {
    "zipcode": "4210131",
    "prefectureCode": "22",
    "prefectureNumber": 22,
    "prefecture": "静岡県",
    "city": "静岡市駿河区",
    "town": "手越原"
  },
  "4210132": {
    "zipcode": "4210132",
    "prefectureCode": "22",
    "prefectureNumber": 22,
    "prefecture": "静岡県",
    "city": "静岡市駿河区",
    "town": "上川原"
  },
  "4210133": {
    "zipcode": "4210133",
    "prefectureCode": "22",
    "prefectureNumber": 22,
    "prefecture": "静岡県",
    "city": "静岡市駿河区",
    "town": "鎌田"
  },
  "4210134": {
    "zipcode": "4210134",
    "prefectureCode": "22",
    "prefectureNumber": 22,
    "prefecture": "静岡県",
    "city": "静岡市駿河区",
    "town": "青木"
  },
  "4210135": {
    "zipcode": "4210135",
    "prefectureCode": "22",
    "prefectureNumber": 22,
    "prefecture": "静岡県",
    "city": "静岡市駿河区",
    "town": "小坂"
  },
  "4210136": {
    "zipcode": "4210136",
    "prefectureCode": "22",
    "prefectureNumber": 22,
    "prefecture": "静岡県",
    "city": "静岡市駿河区",
    "town": "大和田"
  },
  "4210137": {
    "zipcode": "4210137",
    "prefectureCode": "22",
    "prefectureNumber": 22,
    "prefecture": "静岡県",
    "city": "静岡市駿河区",
    "town": "寺田"
  },
  "4210201": {
    "zipcode": "4210201",
    "prefectureCode": "22",
    "prefectureNumber": 22,
    "prefecture": "静岡県",
    "city": "焼津市",
    "town": "上小杉"
  },
  "4210202": {
    "zipcode": "4210202",
    "prefectureCode": "22",
    "prefectureNumber": 22,
    "prefecture": "静岡県",
    "city": "焼津市",
    "town": "下小杉"
  },
  "4210203": {
    "zipcode": "4210203",
    "prefectureCode": "22",
    "prefectureNumber": 22,
    "prefecture": "静岡県",
    "city": "焼津市",
    "town": "藤守"
  },
  "4210204": {
    "zipcode": "4210204",
    "prefectureCode": "22",
    "prefectureNumber": 22,
    "prefecture": "静岡県",
    "city": "焼津市",
    "town": "高新田"
  },
  "4210205": {
    "zipcode": "4210205",
    "prefectureCode": "22",
    "prefectureNumber": 22,
    "prefecture": "静岡県",
    "city": "焼津市",
    "town": "宗高"
  },
  "4210206": {
    "zipcode": "4210206",
    "prefectureCode": "22",
    "prefectureNumber": 22,
    "prefecture": "静岡県",
    "city": "焼津市",
    "town": "上新田"
  },
  "4210211": {
    "zipcode": "4210211",
    "prefectureCode": "22",
    "prefectureNumber": 22,
    "prefecture": "静岡県",
    "city": "焼津市",
    "town": "吉永"
  },
  "4210212": {
    "zipcode": "4210212",
    "prefectureCode": "22",
    "prefectureNumber": 22,
    "prefecture": "静岡県",
    "city": "焼津市",
    "town": "利右衛門"
  },
  "4210213": {
    "zipcode": "4210213",
    "prefectureCode": "22",
    "prefectureNumber": 22,
    "prefecture": "静岡県",
    "city": "焼津市",
    "town": "飯淵"
  },
  "4210214": {
    "zipcode": "4210214",
    "prefectureCode": "22",
    "prefectureNumber": 22,
    "prefecture": "静岡県",
    "city": "焼津市",
    "town": "中島"
  },
  "4210215": {
    "zipcode": "4210215",
    "prefectureCode": "22",
    "prefectureNumber": 22,
    "prefecture": "静岡県",
    "city": "焼津市",
    "town": "西島"
  },
  "4210216": {
    "zipcode": "4210216",
    "prefectureCode": "22",
    "prefectureNumber": 22,
    "prefecture": "静岡県",
    "city": "焼津市",
    "town": "相川"
  },
  "4210217": {
    "zipcode": "4210217",
    "prefectureCode": "22",
    "prefectureNumber": 22,
    "prefecture": "静岡県",
    "city": "焼津市",
    "town": "上泉"
  },
  "4210218": {
    "zipcode": "4210218",
    "prefectureCode": "22",
    "prefectureNumber": 22,
    "prefecture": "静岡県",
    "city": "焼津市",
    "town": "下江留"
  },
  "4210300": {
    "zipcode": "4210300",
    "prefectureCode": "22",
    "prefectureNumber": 22,
    "prefecture": "静岡県",
    "city": "榛原郡吉田町",
    "town": "以下に掲載がない場合"
  },
  "4210301": {
    "zipcode": "4210301",
    "prefectureCode": "22",
    "prefectureNumber": 22,
    "prefecture": "静岡県",
    "city": "榛原郡吉田町",
    "town": "住吉"
  },
  "4210302": {
    "zipcode": "4210302",
    "prefectureCode": "22",
    "prefectureNumber": 22,
    "prefecture": "静岡県",
    "city": "榛原郡吉田町",
    "town": "川尻"
  },
  "4210303": {
    "zipcode": "4210303",
    "prefectureCode": "22",
    "prefectureNumber": 22,
    "prefecture": "静岡県",
    "city": "榛原郡吉田町",
    "town": "片岡"
  },
  "4210304": {
    "zipcode": "4210304",
    "prefectureCode": "22",
    "prefectureNumber": 22,
    "prefecture": "静岡県",
    "city": "榛原郡吉田町",
    "town": "神戸"
  },
  "4210305": {
    "zipcode": "4210305",
    "prefectureCode": "22",
    "prefectureNumber": 22,
    "prefecture": "静岡県",
    "city": "榛原郡吉田町",
    "town": "大幡"
  },
  "4210401": {
    "zipcode": "4210401",
    "prefectureCode": "22",
    "prefectureNumber": 22,
    "prefecture": "静岡県",
    "city": "牧之原市",
    "town": "切山"
  },
  "4210402": {
    "zipcode": "4210402",
    "prefectureCode": "22",
    "prefectureNumber": 22,
    "prefecture": "静岡県",
    "city": "牧之原市",
    "town": "勝間"
  },
  "4210403": {
    "zipcode": "4210403",
    "prefectureCode": "22",
    "prefectureNumber": 22,
    "prefecture": "静岡県",
    "city": "牧之原市",
    "town": "中"
  },
  "4210404": {
    "zipcode": "4210404",
    "prefectureCode": "22",
    "prefectureNumber": 22,
    "prefecture": "静岡県",
    "city": "牧之原市",
    "town": "静谷"
  },
  "4210405": {
    "zipcode": "4210405",
    "prefectureCode": "22",
    "prefectureNumber": 22,
    "prefecture": "静岡県",
    "city": "牧之原市",
    "town": "白井（１２９１〜１６８２、１８３９〜１８４０番地）"
  },
  "4210406": {
    "zipcode": "4210406",
    "prefectureCode": "22",
    "prefectureNumber": 22,
    "prefecture": "静岡県",
    "city": "牧之原市",
    "town": "勝田"
  },
  "4210407": {
    "zipcode": "4210407",
    "prefectureCode": "22",
    "prefectureNumber": 22,
    "prefecture": "静岡県",
    "city": "牧之原市",
    "town": "布引原"
  },
  "4210408": {
    "zipcode": "4210408",
    "prefectureCode": "22",
    "prefectureNumber": 22,
    "prefecture": "静岡県",
    "city": "牧之原市",
    "town": "嶋"
  },
  "4210409": {
    "zipcode": "4210409",
    "prefectureCode": "22",
    "prefectureNumber": 22,
    "prefecture": "静岡県",
    "city": "牧之原市",
    "town": "牧之原（その他）"
  },
  "4210411": {
    "zipcode": "4210411",
    "prefectureCode": "22",
    "prefectureNumber": 22,
    "prefecture": "静岡県",
    "city": "牧之原市",
    "town": "坂口"
  },
  "4210412": {
    "zipcode": "4210412",
    "prefectureCode": "22",
    "prefectureNumber": 22,
    "prefecture": "静岡県",
    "city": "牧之原市",
    "town": "坂部"
  },
  "4210413": {
    "zipcode": "4210413",
    "prefectureCode": "22",
    "prefectureNumber": 22,
    "prefecture": "静岡県",
    "city": "牧之原市",
    "town": "仁田"
  },
  "4210414": {
    "zipcode": "4210414",
    "prefectureCode": "22",
    "prefectureNumber": 22,
    "prefecture": "静岡県",
    "city": "牧之原市",
    "town": "勝俣"
  },
  "4210415": {
    "zipcode": "4210415",
    "prefectureCode": "22",
    "prefectureNumber": 22,
    "prefecture": "静岡県",
    "city": "牧之原市",
    "town": "道場"
  },
  "4210421": {
    "zipcode": "4210421",
    "prefectureCode": "22",
    "prefectureNumber": 22,
    "prefecture": "静岡県",
    "city": "牧之原市",
    "town": "細江"
  },
  "4210422": {
    "zipcode": "4210422",
    "prefectureCode": "22",
    "prefectureNumber": 22,
    "prefecture": "静岡県",
    "city": "牧之原市",
    "town": "静波"
  },
  "4210500": {
    "zipcode": "4210500",
    "prefectureCode": "22",
    "prefectureNumber": 22,
    "prefecture": "静岡県",
    "city": "牧之原市",
    "town": "以下に掲載がない場合"
  },
  "4210501": {
    "zipcode": "4210501",
    "prefectureCode": "22",
    "prefectureNumber": 22,
    "prefecture": "静岡県",
    "city": "牧之原市",
    "town": "東萩間"
  },
  "4210502": {
    "zipcode": "4210502",
    "prefectureCode": "22",
    "prefectureNumber": 22,
    "prefecture": "静岡県",
    "city": "牧之原市",
    "town": "白井（その他）"
  },
  "4210503": {
    "zipcode": "4210503",
    "prefectureCode": "22",
    "prefectureNumber": 22,
    "prefecture": "静岡県",
    "city": "牧之原市",
    "town": "蛭ケ谷"
  },
  "4210504": {
    "zipcode": "4210504",
    "prefectureCode": "22",
    "prefectureNumber": 22,
    "prefecture": "静岡県",
    "city": "牧之原市",
    "town": "黒子"
  },
  "4210505": {
    "zipcode": "4210505",
    "prefectureCode": "22",
    "prefectureNumber": 22,
    "prefecture": "静岡県",
    "city": "牧之原市",
    "town": "中西"
  },
  "4210506": {
    "zipcode": "4210506",
    "prefectureCode": "22",
    "prefectureNumber": 22,
    "prefecture": "静岡県",
    "city": "牧之原市",
    "town": "大寄"
  },
  "4210507": {
    "zipcode": "4210507",
    "prefectureCode": "22",
    "prefectureNumber": 22,
    "prefecture": "静岡県",
    "city": "牧之原市",
    "town": "和田"
  },
  "4210508": {
    "zipcode": "4210508",
    "prefectureCode": "22",
    "prefectureNumber": 22,
    "prefecture": "静岡県",
    "city": "牧之原市",
    "town": "西萩間"
  },
  "4210509": {
    "zipcode": "4210509",
    "prefectureCode": "22",
    "prefectureNumber": 22,
    "prefecture": "静岡県",
    "city": "牧之原市",
    "town": "牧之原（１３６〜１４４番地）"
  },
  "4210511": {
    "zipcode": "4210511",
    "prefectureCode": "22",
    "prefectureNumber": 22,
    "prefecture": "静岡県",
    "city": "牧之原市",
    "town": "片浜"
  },
  "4210512": {
    "zipcode": "4210512",
    "prefectureCode": "22",
    "prefectureNumber": 22,
    "prefecture": "静岡県",
    "city": "牧之原市",
    "town": "大江"
  },
  "4210513": {
    "zipcode": "4210513",
    "prefectureCode": "22",
    "prefectureNumber": 22,
    "prefecture": "静岡県",
    "city": "牧之原市",
    "town": "松本"
  },
  "4210514": {
    "zipcode": "4210514",
    "prefectureCode": "22",
    "prefectureNumber": 22,
    "prefecture": "静岡県",
    "city": "牧之原市",
    "town": "菅ケ谷"
  },
  "4210515": {
    "zipcode": "4210515",
    "prefectureCode": "22",
    "prefectureNumber": 22,
    "prefecture": "静岡県",
    "city": "牧之原市",
    "town": "西山寺"
  },
  "4210516": {
    "zipcode": "4210516",
    "prefectureCode": "22",
    "prefectureNumber": 22,
    "prefecture": "静岡県",
    "city": "牧之原市",
    "town": "女神"
  },
  "4210517": {
    "zipcode": "4210517",
    "prefectureCode": "22",
    "prefectureNumber": 22,
    "prefecture": "静岡県",
    "city": "牧之原市",
    "town": "男神"
  },
  "4210521": {
    "zipcode": "4210521",
    "prefectureCode": "22",
    "prefectureNumber": 22,
    "prefecture": "静岡県",
    "city": "牧之原市",
    "town": "福岡"
  },
  "4210522": {
    "zipcode": "4210522",
    "prefectureCode": "22",
    "prefectureNumber": 22,
    "prefecture": "静岡県",
    "city": "牧之原市",
    "town": "相良"
  },
  "4210523": {
    "zipcode": "4210523",
    "prefectureCode": "22",
    "prefectureNumber": 22,
    "prefecture": "静岡県",
    "city": "牧之原市",
    "town": "波津"
  },
  "4210524": {
    "zipcode": "4210524",
    "prefectureCode": "22",
    "prefectureNumber": 22,
    "prefecture": "静岡県",
    "city": "牧之原市",
    "town": "須々木"
  },
  "4210525": {
    "zipcode": "4210525",
    "prefectureCode": "22",
    "prefectureNumber": 22,
    "prefecture": "静岡県",
    "city": "牧之原市",
    "town": "鬼女新田"
  },
  "4210526": {
    "zipcode": "4210526",
    "prefectureCode": "22",
    "prefectureNumber": 22,
    "prefecture": "静岡県",
    "city": "牧之原市",
    "town": "大沢"
  },
  "4210527": {
    "zipcode": "4210527",
    "prefectureCode": "22",
    "prefectureNumber": 22,
    "prefecture": "静岡県",
    "city": "牧之原市",
    "town": "汐見台"
  },
  "4210531": {
    "zipcode": "4210531",
    "prefectureCode": "22",
    "prefectureNumber": 22,
    "prefecture": "静岡県",
    "city": "牧之原市",
    "town": "落居"
  },
  "4210532": {
    "zipcode": "4210532",
    "prefectureCode": "22",
    "prefectureNumber": 22,
    "prefecture": "静岡県",
    "city": "牧之原市",
    "town": "地頭方"
  },
  "4210533": {
    "zipcode": "4210533",
    "prefectureCode": "22",
    "prefectureNumber": 22,
    "prefecture": "静岡県",
    "city": "牧之原市",
    "town": "新庄"
  },
  "4210534": {
    "zipcode": "4210534",
    "prefectureCode": "22",
    "prefectureNumber": 22,
    "prefecture": "静岡県",
    "city": "牧之原市",
    "town": "堀野新田"
  },
  "4210535": {
    "zipcode": "4210535",
    "prefectureCode": "22",
    "prefectureNumber": 22,
    "prefecture": "静岡県",
    "city": "牧之原市",
    "town": "笠名"
  },
  "4211101": {
    "zipcode": "4211101",
    "prefectureCode": "22",
    "prefectureNumber": 22,
    "prefecture": "静岡県",
    "city": "藤枝市",
    "town": "岡部町玉取"
  },
  "4211102": {
    "zipcode": "4211102",
    "prefectureCode": "22",
    "prefectureNumber": 22,
    "prefecture": "静岡県",
    "city": "藤枝市",
    "town": "岡部町宮島"
  },
  "4211103": {
    "zipcode": "4211103",
    "prefectureCode": "22",
    "prefectureNumber": 22,
    "prefecture": "静岡県",
    "city": "藤枝市",
    "town": "岡部町青羽根"
  },
  "4211111": {
    "zipcode": "4211111",
    "prefectureCode": "22",
    "prefectureNumber": 22,
    "prefecture": "静岡県",
    "city": "藤枝市",
    "town": "岡部町野田沢"
  },
  "4211112": {
    "zipcode": "4211112",
    "prefectureCode": "22",
    "prefectureNumber": 22,
    "prefecture": "静岡県",
    "city": "藤枝市",
    "town": "岡部町殿"
  },
  "4211113": {
    "zipcode": "4211113",
    "prefectureCode": "22",
    "prefectureNumber": 22,
    "prefecture": "静岡県",
    "city": "藤枝市",
    "town": "岡部町桂島"
  },
  "4211114": {
    "zipcode": "4211114",
    "prefectureCode": "22",
    "prefectureNumber": 22,
    "prefecture": "静岡県",
    "city": "藤枝市",
    "town": "岡部町羽佐間"
  },
  "4211115": {
    "zipcode": "4211115",
    "prefectureCode": "22",
    "prefectureNumber": 22,
    "prefecture": "静岡県",
    "city": "藤枝市",
    "town": "岡部町新舟"
  },
  "4211121": {
    "zipcode": "4211121",
    "prefectureCode": "22",
    "prefectureNumber": 22,
    "prefecture": "静岡県",
    "city": "藤枝市",
    "town": "岡部町岡部"
  },
  "4211122": {
    "zipcode": "4211122",
    "prefectureCode": "22",
    "prefectureNumber": 22,
    "prefecture": "静岡県",
    "city": "藤枝市",
    "town": "岡部町子持坂"
  },
  "4211123": {
    "zipcode": "4211123",
    "prefectureCode": "22",
    "prefectureNumber": 22,
    "prefecture": "静岡県",
    "city": "藤枝市",
    "town": "岡部町入野"
  },
  "4211124": {
    "zipcode": "4211124",
    "prefectureCode": "22",
    "prefectureNumber": 22,
    "prefecture": "静岡県",
    "city": "藤枝市",
    "town": "岡部町村良"
  },
  "4211131": {
    "zipcode": "4211131",
    "prefectureCode": "22",
    "prefectureNumber": 22,
    "prefecture": "静岡県",
    "city": "藤枝市",
    "town": "岡部町内谷"
  },
  "4211132": {
    "zipcode": "4211132",
    "prefectureCode": "22",
    "prefectureNumber": 22,
    "prefecture": "静岡県",
    "city": "藤枝市",
    "town": "岡部町三輪"
  },
  "4211201": {
    "zipcode": "4211201",
    "prefectureCode": "22",
    "prefectureNumber": 22,
    "prefecture": "静岡県",
    "city": "静岡市葵区",
    "town": "新間"
  },
  "4211202": {
    "zipcode": "4211202",
    "prefectureCode": "22",
    "prefectureNumber": 22,
    "prefecture": "静岡県",
    "city": "静岡市葵区",
    "town": "谷津"
  },
  "4211211": {
    "zipcode": "4211211",
    "prefectureCode": "22",
    "prefectureNumber": 22,
    "prefecture": "静岡県",
    "city": "静岡市葵区",
    "town": "慈悲尾"
  },
  "4211212": {
    "zipcode": "4211212",
    "prefectureCode": "22",
    "prefectureNumber": 22,
    "prefecture": "静岡県",
    "city": "静岡市葵区",
    "town": "千代"
  },
  "4211213": {
    "zipcode": "4211213",
    "prefectureCode": "22",
    "prefectureNumber": 22,
    "prefecture": "静岡県",
    "city": "静岡市葵区",
    "town": "山崎"
  },
  "4211214": {
    "zipcode": "4211214",
    "prefectureCode": "22",
    "prefectureNumber": 22,
    "prefecture": "静岡県",
    "city": "静岡市葵区",
    "town": "建穂"
  },
  "4211215": {
    "zipcode": "4211215",
    "prefectureCode": "22",
    "prefectureNumber": 22,
    "prefecture": "静岡県",
    "city": "静岡市葵区",
    "town": "羽鳥"
  },
  "4211216": {
    "zipcode": "4211216",
    "prefectureCode": "22",
    "prefectureNumber": 22,
    "prefecture": "静岡県",
    "city": "静岡市葵区",
    "town": "羽鳥大門町"
  },
  "4211217": {
    "zipcode": "4211217",
    "prefectureCode": "22",
    "prefectureNumber": 22,
    "prefecture": "静岡県",
    "city": "静岡市葵区",
    "town": "羽鳥本町"
  },
  "4211221": {
    "zipcode": "4211221",
    "prefectureCode": "22",
    "prefectureNumber": 22,
    "prefecture": "静岡県",
    "city": "静岡市葵区",
    "town": "牧ケ谷"
  },
  "4211222": {
    "zipcode": "4211222",
    "prefectureCode": "22",
    "prefectureNumber": 22,
    "prefecture": "静岡県",
    "city": "静岡市葵区",
    "town": "産女"
  },
  "4211223": {
    "zipcode": "4211223",
    "prefectureCode": "22",
    "prefectureNumber": 22,
    "prefecture": "静岡県",
    "city": "静岡市葵区",
    "town": "吉津"
  },
  "4211224": {
    "zipcode": "4211224",
    "prefectureCode": "22",
    "prefectureNumber": 22,
    "prefecture": "静岡県",
    "city": "静岡市葵区",
    "town": "飯間"
  },
  "4211225": {
    "zipcode": "4211225",
    "prefectureCode": "22",
    "prefectureNumber": 22,
    "prefecture": "静岡県",
    "city": "静岡市葵区",
    "town": "小瀬戸"
  },
  "4211226": {
    "zipcode": "4211226",
    "prefectureCode": "22",
    "prefectureNumber": 22,
    "prefecture": "静岡県",
    "city": "静岡市葵区",
    "town": "西又"
  },
  "4211301": {
    "zipcode": "4211301",
    "prefectureCode": "22",
    "prefectureNumber": 22,
    "prefecture": "静岡県",
    "city": "静岡市葵区",
    "town": "小島"
  },
  "4211302": {
    "zipcode": "4211302",
    "prefectureCode": "22",
    "prefectureNumber": 22,
    "prefecture": "静岡県",
    "city": "静岡市葵区",
    "town": "鍵穴"
  },
  "4211303": {
    "zipcode": "4211303",
    "prefectureCode": "22",
    "prefectureNumber": 22,
    "prefecture": "静岡県",
    "city": "静岡市葵区",
    "town": "坂本"
  },
  "4211304": {
    "zipcode": "4211304",
    "prefectureCode": "22",
    "prefectureNumber": 22,
    "prefecture": "静岡県",
    "city": "静岡市葵区",
    "town": "寺島"
  },
  "4211305": {
    "zipcode": "4211305",
    "prefectureCode": "22",
    "prefectureNumber": 22,
    "prefecture": "静岡県",
    "city": "静岡市葵区",
    "town": "赤沢"
  },
  "4211306": {
    "zipcode": "4211306",
    "prefectureCode": "22",
    "prefectureNumber": 22,
    "prefecture": "静岡県",
    "city": "静岡市葵区",
    "town": "昼居渡"
  },
  "4211307": {
    "zipcode": "4211307",
    "prefectureCode": "22",
    "prefectureNumber": 22,
    "prefecture": "静岡県",
    "city": "静岡市葵区",
    "town": "相俣"
  },
  "4211308": {
    "zipcode": "4211308",
    "prefectureCode": "22",
    "prefectureNumber": 22,
    "prefecture": "静岡県",
    "city": "静岡市葵区",
    "town": "黒俣"
  },
  "4211309": {
    "zipcode": "4211309",
    "prefectureCode": "22",
    "prefectureNumber": 22,
    "prefecture": "静岡県",
    "city": "静岡市葵区",
    "town": "杉尾"
  },
  "4211311": {
    "zipcode": "4211311",
    "prefectureCode": "22",
    "prefectureNumber": 22,
    "prefecture": "静岡県",
    "city": "静岡市葵区",
    "town": "富沢"
  },
  "4211312": {
    "zipcode": "4211312",
    "prefectureCode": "22",
    "prefectureNumber": 22,
    "prefecture": "静岡県",
    "city": "静岡市葵区",
    "town": "奈良間"
  },
  "4211313": {
    "zipcode": "4211313",
    "prefectureCode": "22",
    "prefectureNumber": 22,
    "prefecture": "静岡県",
    "city": "静岡市葵区",
    "town": "水見色"
  },
  "4211314": {
    "zipcode": "4211314",
    "prefectureCode": "22",
    "prefectureNumber": 22,
    "prefecture": "静岡県",
    "city": "静岡市葵区",
    "town": "大原"
  },
  "4211315": {
    "zipcode": "4211315",
    "prefectureCode": "22",
    "prefectureNumber": 22,
    "prefecture": "静岡県",
    "city": "静岡市葵区",
    "town": "富厚里"
  },
  "4211316": {
    "zipcode": "4211316",
    "prefectureCode": "22",
    "prefectureNumber": 22,
    "prefecture": "静岡県",
    "city": "静岡市葵区",
    "town": "小布杉"
  },
  "4211401": {
    "zipcode": "4211401",
    "prefectureCode": "22",
    "prefectureNumber": 22,
    "prefecture": "静岡県",
    "city": "静岡市葵区",
    "town": "大間"
  },
  "4211402": {
    "zipcode": "4211402",
    "prefectureCode": "22",
    "prefectureNumber": 22,
    "prefecture": "静岡県",
    "city": "静岡市葵区",
    "town": "諸子沢"
  },
  "4211403": {
    "zipcode": "4211403",
    "prefectureCode": "22",
    "prefectureNumber": 22,
    "prefecture": "静岡県",
    "city": "静岡市葵区",
    "town": "日向"
  },
  "4211404": {
    "zipcode": "4211404",
    "prefectureCode": "22",
    "prefectureNumber": 22,
    "prefecture": "静岡県",
    "city": "静岡市葵区",
    "town": "栃沢"
  },
  "4211405": {
    "zipcode": "4211405",
    "prefectureCode": "22",
    "prefectureNumber": 22,
    "prefecture": "静岡県",
    "city": "静岡市葵区",
    "town": "坂ノ上"
  },
  "4211406": {
    "zipcode": "4211406",
    "prefectureCode": "22",
    "prefectureNumber": 22,
    "prefecture": "静岡県",
    "city": "静岡市葵区",
    "town": "湯ノ島"
  },
  "4211407": {
    "zipcode": "4211407",
    "prefectureCode": "22",
    "prefectureNumber": 22,
    "prefecture": "静岡県",
    "city": "静岡市葵区",
    "town": "楢尾"
  },
  "4211408": {
    "zipcode": "4211408",
    "prefectureCode": "22",
    "prefectureNumber": 22,
    "prefecture": "静岡県",
    "city": "静岡市葵区",
    "town": "崩野"
  },
  "4211409": {
    "zipcode": "4211409",
    "prefectureCode": "22",
    "prefectureNumber": 22,
    "prefecture": "静岡県",
    "city": "静岡市葵区",
    "town": "八草"
  },
  "4212101": {
    "zipcode": "4212101",
    "prefectureCode": "22",
    "prefectureNumber": 22,
    "prefecture": "静岡県",
    "city": "静岡市葵区",
    "town": "俵峰"
  },
  "4212102": {
    "zipcode": "4212102",
    "prefectureCode": "22",
    "prefectureNumber": 22,
    "prefecture": "静岡県",
    "city": "静岡市葵区",
    "town": "油島"
  },
  "4212103": {
    "zipcode": "4212103",
    "prefectureCode": "22",
    "prefectureNumber": 22,
    "prefecture": "静岡県",
    "city": "静岡市葵区",
    "town": "俵沢"
  },
  "4212104": {
    "zipcode": "4212104",
    "prefectureCode": "22",
    "prefectureNumber": 22,
    "prefecture": "静岡県",
    "city": "静岡市葵区",
    "town": "野田平"
  },
  "4212105": {
    "zipcode": "4212105",
    "prefectureCode": "22",
    "prefectureNumber": 22,
    "prefecture": "静岡県",
    "city": "静岡市葵区",
    "town": "郷島"
  },
  "4212106": {
    "zipcode": "4212106",
    "prefectureCode": "22",
    "prefectureNumber": 22,
    "prefecture": "静岡県",
    "city": "静岡市葵区",
    "town": "牛妻"
  },
  "4212107": {
    "zipcode": "4212107",
    "prefectureCode": "22",
    "prefectureNumber": 22,
    "prefecture": "静岡県",
    "city": "静岡市葵区",
    "town": "門屋"
  },
  "4212108": {
    "zipcode": "4212108",
    "prefectureCode": "22",
    "prefectureNumber": 22,
    "prefecture": "静岡県",
    "city": "静岡市葵区",
    "town": "下"
  },
  "4212109": {
    "zipcode": "4212109",
    "prefectureCode": "22",
    "prefectureNumber": 22,
    "prefecture": "静岡県",
    "city": "静岡市葵区",
    "town": "福田ケ谷"
  },
  "4212111": {
    "zipcode": "4212111",
    "prefectureCode": "22",
    "prefectureNumber": 22,
    "prefecture": "静岡県",
    "city": "静岡市葵区",
    "town": "中ノ郷"
  },
  "4212112": {
    "zipcode": "4212112",
    "prefectureCode": "22",
    "prefectureNumber": 22,
    "prefecture": "静岡県",
    "city": "静岡市葵区",
    "town": "遠藤新田"
  },
  "4212113": {
    "zipcode": "4212113",
    "prefectureCode": "22",
    "prefectureNumber": 22,
    "prefecture": "静岡県",
    "city": "静岡市葵区",
    "town": "安倍口団地"
  },
  "4212114": {
    "zipcode": "4212114",
    "prefectureCode": "22",
    "prefectureNumber": 22,
    "prefecture": "静岡県",
    "city": "静岡市葵区",
    "town": "安倍口新田"
  },
  "4212115": {
    "zipcode": "4212115",
    "prefectureCode": "22",
    "prefectureNumber": 22,
    "prefecture": "静岡県",
    "city": "静岡市葵区",
    "town": "与左衛門新田"
  },
  "4212116": {
    "zipcode": "4212116",
    "prefectureCode": "22",
    "prefectureNumber": 22,
    "prefecture": "静岡県",
    "city": "静岡市葵区",
    "town": "西ケ谷"
  },
  "4212117": {
    "zipcode": "4212117",
    "prefectureCode": "22",
    "prefectureNumber": 22,
    "prefecture": "静岡県",
    "city": "静岡市葵区",
    "town": "幸庵新田"
  },
  "4212118": {
    "zipcode": "4212118",
    "prefectureCode": "22",
    "prefectureNumber": 22,
    "prefecture": "静岡県",
    "city": "静岡市葵区",
    "town": "内牧"
  },
  "4212121": {
    "zipcode": "4212121",
    "prefectureCode": "22",
    "prefectureNumber": 22,
    "prefecture": "静岡県",
    "city": "静岡市葵区",
    "town": "津渡野"
  },
  "4212122": {
    "zipcode": "4212122",
    "prefectureCode": "22",
    "prefectureNumber": 22,
    "prefecture": "静岡県",
    "city": "静岡市葵区",
    "town": "松野"
  },
  "4212123": {
    "zipcode": "4212123",
    "prefectureCode": "22",
    "prefectureNumber": 22,
    "prefecture": "静岡県",
    "city": "静岡市葵区",
    "town": "油山"
  },
  "4212124": {
    "zipcode": "4212124",
    "prefectureCode": "22",
    "prefectureNumber": 22,
    "prefecture": "静岡県",
    "city": "静岡市葵区",
    "town": "足久保口組"
  },
  "4212125": {
    "zipcode": "4212125",
    "prefectureCode": "22",
    "prefectureNumber": 22,
    "prefecture": "静岡県",
    "city": "静岡市葵区",
    "town": "足久保奥組"
  },
  "4212201": {
    "zipcode": "4212201",
    "prefectureCode": "22",
    "prefectureNumber": 22,
    "prefecture": "静岡県",
    "city": "静岡市葵区",
    "town": "奥仙俣"
  },
  "4212202": {
    "zipcode": "4212202",
    "prefectureCode": "22",
    "prefectureNumber": 22,
    "prefecture": "静岡県",
    "city": "静岡市葵区",
    "town": "口仙俣"
  },
  "4212203": {
    "zipcode": "4212203",
    "prefectureCode": "22",
    "prefectureNumber": 22,
    "prefecture": "静岡県",
    "city": "静岡市葵区",
    "town": "口坂本"
  },
  "4212211": {
    "zipcode": "4212211",
    "prefectureCode": "22",
    "prefectureNumber": 22,
    "prefecture": "静岡県",
    "city": "静岡市葵区",
    "town": "上落合"
  },
  "4212212": {
    "zipcode": "4212212",
    "prefectureCode": "22",
    "prefectureNumber": 22,
    "prefecture": "静岡県",
    "city": "静岡市葵区",
    "town": "油野"
  },
  "4212213": {
    "zipcode": "4212213",
    "prefectureCode": "22",
    "prefectureNumber": 22,
    "prefecture": "静岡県",
    "city": "静岡市葵区",
    "town": "長妻田"
  },
  "4212214": {
    "zipcode": "4212214",
    "prefectureCode": "22",
    "prefectureNumber": 22,
    "prefecture": "静岡県",
    "city": "静岡市葵区",
    "town": "柿島"
  },
  "4212215": {
    "zipcode": "4212215",
    "prefectureCode": "22",
    "prefectureNumber": 22,
    "prefecture": "静岡県",
    "city": "静岡市葵区",
    "town": "奥池ケ谷"
  },
  "4212216": {
    "zipcode": "4212216",
    "prefectureCode": "22",
    "prefectureNumber": 22,
    "prefecture": "静岡県",
    "city": "静岡市葵区",
    "town": "長熊"
  },
  "4212217": {
    "zipcode": "4212217",
    "prefectureCode": "22",
    "prefectureNumber": 22,
    "prefecture": "静岡県",
    "city": "静岡市葵区",
    "town": "森腰"
  },
  "4212221": {
    "zipcode": "4212221",
    "prefectureCode": "22",
    "prefectureNumber": 22,
    "prefecture": "静岡県",
    "city": "静岡市葵区",
    "town": "中沢"
  },
  "4212222": {
    "zipcode": "4212222",
    "prefectureCode": "22",
    "prefectureNumber": 22,
    "prefecture": "静岡県",
    "city": "静岡市葵区",
    "town": "桂山"
  },
  "4212223": {
    "zipcode": "4212223",
    "prefectureCode": "22",
    "prefectureNumber": 22,
    "prefecture": "静岡県",
    "city": "静岡市葵区",
    "town": "落合"
  },
  "4212224": {
    "zipcode": "4212224",
    "prefectureCode": "22",
    "prefectureNumber": 22,
    "prefecture": "静岡県",
    "city": "静岡市葵区",
    "town": "内匠"
  },
  "4212225": {
    "zipcode": "4212225",
    "prefectureCode": "22",
    "prefectureNumber": 22,
    "prefecture": "静岡県",
    "city": "静岡市葵区",
    "town": "腰越"
  },
  "4212226": {
    "zipcode": "4212226",
    "prefectureCode": "22",
    "prefectureNumber": 22,
    "prefecture": "静岡県",
    "city": "静岡市葵区",
    "town": "横沢"
  },
  "4212227": {
    "zipcode": "4212227",
    "prefectureCode": "22",
    "prefectureNumber": 22,
    "prefecture": "静岡県",
    "city": "静岡市葵区",
    "town": "大沢"
  },
  "4212301": {
    "zipcode": "4212301",
    "prefectureCode": "22",
    "prefectureNumber": 22,
    "prefecture": "静岡県",
    "city": "静岡市葵区",
    "town": "梅ケ島"
  },
  "4212302": {
    "zipcode": "4212302",
    "prefectureCode": "22",
    "prefectureNumber": 22,
    "prefecture": "静岡県",
    "city": "静岡市葵区",
    "town": "入島"
  },
  "4212303": {
    "zipcode": "4212303",
    "prefectureCode": "22",
    "prefectureNumber": 22,
    "prefecture": "静岡県",
    "city": "静岡市葵区",
    "town": "有東木"
  },
  "4212304": {
    "zipcode": "4212304",
    "prefectureCode": "22",
    "prefectureNumber": 22,
    "prefecture": "静岡県",
    "city": "静岡市葵区",
    "town": "渡"
  },
  "4212305": {
    "zipcode": "4212305",
    "prefectureCode": "22",
    "prefectureNumber": 22,
    "prefecture": "静岡県",
    "city": "静岡市葵区",
    "town": "中平"
  },
  "4212306": {
    "zipcode": "4212306",
    "prefectureCode": "22",
    "prefectureNumber": 22,
    "prefecture": "静岡県",
    "city": "静岡市葵区",
    "town": "平野"
  },
  "4212307": {
    "zipcode": "4212307",
    "prefectureCode": "22",
    "prefectureNumber": 22,
    "prefecture": "静岡県",
    "city": "静岡市葵区",
    "town": "横山"
  },
  "4212308": {
    "zipcode": "4212308",
    "prefectureCode": "22",
    "prefectureNumber": 22,
    "prefecture": "静岡県",
    "city": "静岡市葵区",
    "town": "蕨野"
  },
  "4212309": {
    "zipcode": "4212309",
    "prefectureCode": "22",
    "prefectureNumber": 22,
    "prefecture": "静岡県",
    "city": "静岡市葵区",
    "town": "相淵"
  },
  "4213101": {
    "zipcode": "4213101",
    "prefectureCode": "22",
    "prefectureNumber": 22,
    "prefecture": "静岡県",
    "city": "静岡市清水区",
    "town": "由比入山"
  },
  "4213102": {
    "zipcode": "4213102",
    "prefectureCode": "22",
    "prefectureNumber": 22,
    "prefecture": "静岡県",
    "city": "静岡市清水区",
    "town": "由比東山寺"
  },
  "4213103": {
    "zipcode": "4213103",
    "prefectureCode": "22",
    "prefectureNumber": 22,
    "prefecture": "静岡県",
    "city": "静岡市清水区",
    "town": "由比"
  },
  "4213104": {
    "zipcode": "4213104",
    "prefectureCode": "22",
    "prefectureNumber": 22,
    "prefecture": "静岡県",
    "city": "静岡市清水区",
    "town": "由比北田"
  },
  "4213105": {
    "zipcode": "4213105",
    "prefectureCode": "22",
    "prefectureNumber": 22,
    "prefecture": "静岡県",
    "city": "静岡市清水区",
    "town": "由比町屋原"
  },
  "4213106": {
    "zipcode": "4213106",
    "prefectureCode": "22",
    "prefectureNumber": 22,
    "prefecture": "静岡県",
    "city": "静岡市清水区",
    "town": "由比西山寺"
  },
  "4213107": {
    "zipcode": "4213107",
    "prefectureCode": "22",
    "prefectureNumber": 22,
    "prefecture": "静岡県",
    "city": "静岡市清水区",
    "town": "由比阿僧"
  },
  "4213111": {
    "zipcode": "4213111",
    "prefectureCode": "22",
    "prefectureNumber": 22,
    "prefecture": "静岡県",
    "city": "静岡市清水区",
    "town": "由比今宿"
  },
  "4213112": {
    "zipcode": "4213112",
    "prefectureCode": "22",
    "prefectureNumber": 22,
    "prefecture": "静岡県",
    "city": "静岡市清水区",
    "town": "由比寺尾"
  },
  "4213114": {
    "zipcode": "4213114",
    "prefectureCode": "22",
    "prefectureNumber": 22,
    "prefecture": "静岡県",
    "city": "静岡市清水区",
    "town": "由比東倉澤"
  },
  "4213115": {
    "zipcode": "4213115",
    "prefectureCode": "22",
    "prefectureNumber": 22,
    "prefecture": "静岡県",
    "city": "静岡市清水区",
    "town": "由比西倉澤"
  },
  "4213201": {
    "zipcode": "4213201",
    "prefectureCode": "22",
    "prefectureNumber": 22,
    "prefecture": "静岡県",
    "city": "静岡市清水区",
    "town": "蒲原東"
  },
  "4213202": {
    "zipcode": "4213202",
    "prefectureCode": "22",
    "prefectureNumber": 22,
    "prefecture": "静岡県",
    "city": "静岡市清水区",
    "town": "蒲原新栄"
  },
  "4213203": {
    "zipcode": "4213203",
    "prefectureCode": "22",
    "prefectureNumber": 22,
    "prefecture": "静岡県",
    "city": "静岡市清水区",
    "town": "蒲原"
  },
  "4213211": {
    "zipcode": "4213211",
    "prefectureCode": "22",
    "prefectureNumber": 22,
    "prefecture": "静岡県",
    "city": "静岡市清水区",
    "town": "蒲原新田"
  },
  "4213212": {
    "zipcode": "4213212",
    "prefectureCode": "22",
    "prefectureNumber": 22,
    "prefecture": "静岡県",
    "city": "静岡市清水区",
    "town": "蒲原小金"
  },
  "4213213": {
    "zipcode": "4213213",
    "prefectureCode": "22",
    "prefectureNumber": 22,
    "prefecture": "静岡県",
    "city": "静岡市清水区",
    "town": "蒲原中"
  },
  "4213214": {
    "zipcode": "4213214",
    "prefectureCode": "22",
    "prefectureNumber": 22,
    "prefecture": "静岡県",
    "city": "静岡市清水区",
    "town": "蒲原堰沢"
  },
  "4213215": {
    "zipcode": "4213215",
    "prefectureCode": "22",
    "prefectureNumber": 22,
    "prefecture": "静岡県",
    "city": "静岡市清水区",
    "town": "蒲原神沢"
  },
  "4213301": {
    "zipcode": "4213301",
    "prefectureCode": "22",
    "prefectureNumber": 22,
    "prefecture": "静岡県",
    "city": "富士市",
    "town": "北松野"
  },
  "4213302": {
    "zipcode": "4213302",
    "prefectureCode": "22",
    "prefectureNumber": 22,
    "prefecture": "静岡県",
    "city": "富士市",
    "town": "中野台"
  },
  "4213303": {
    "zipcode": "4213303",
    "prefectureCode": "22",
    "prefectureNumber": 22,
    "prefecture": "静岡県",
    "city": "富士市",
    "town": "南松野"
  },
  "4213304": {
    "zipcode": "4213304",
    "prefectureCode": "22",
    "prefectureNumber": 22,
    "prefecture": "静岡県",
    "city": "富士市",
    "town": "木島"
  },
  "4213305": {
    "zipcode": "4213305",
    "prefectureCode": "22",
    "prefectureNumber": 22,
    "prefecture": "静岡県",
    "city": "富士市",
    "town": "岩淵"
  },
  "4213306": {
    "zipcode": "4213306",
    "prefectureCode": "22",
    "prefectureNumber": 22,
    "prefecture": "静岡県",
    "city": "富士市",
    "town": "中之郷"
  }
}
