{
  "4240001": {
    "zipcode": "4240001",
    "prefectureCode": "22",
    "prefectureNumber": 22,
    "prefecture": "静岡県",
    "city": "静岡市清水区",
    "town": "梅ケ谷"
  },
  "4240002": {
    "zipcode": "4240002",
    "prefectureCode": "22",
    "prefectureNumber": 22,
    "prefecture": "静岡県",
    "city": "静岡市清水区",
    "town": "山原"
  },
  "4240003": {
    "zipcode": "4240003",
    "prefectureCode": "22",
    "prefectureNumber": 22,
    "prefecture": "静岡県",
    "city": "静岡市清水区",
    "town": "蜂ケ谷"
  },
  "4240004": {
    "zipcode": "4240004",
    "prefectureCode": "22",
    "prefectureNumber": 22,
    "prefecture": "静岡県",
    "city": "静岡市清水区",
    "town": "蜂ケ谷南町"
  },
  "4240005": {
    "zipcode": "4240005",
    "prefectureCode": "22",
    "prefectureNumber": 22,
    "prefecture": "静岡県",
    "city": "静岡市清水区",
    "town": "石川"
  },
  "4240006": {
    "zipcode": "4240006",
    "prefectureCode": "22",
    "prefectureNumber": 22,
    "prefecture": "静岡県",
    "city": "静岡市清水区",
    "town": "石川本町"
  },
  "4240007": {
    "zipcode": "4240007",
    "prefectureCode": "22",
    "prefectureNumber": 22,
    "prefecture": "静岡県",
    "city": "静岡市清水区",
    "town": "石川新町"
  },
  "4240008": {
    "zipcode": "4240008",
    "prefectureCode": "22",
    "prefectureNumber": 22,
    "prefecture": "静岡県",
    "city": "静岡市清水区",
    "town": "押切"
  },
  "4240009": {
    "zipcode": "4240009",
    "prefectureCode": "22",
    "prefectureNumber": 22,
    "prefecture": "静岡県",
    "city": "静岡市清水区",
    "town": "柏尾"
  },
  "4240011": {
    "zipcode": "4240011",
    "prefectureCode": "22",
    "prefectureNumber": 22,
    "prefecture": "静岡県",
    "city": "静岡市清水区",
    "town": "下野町"
  },
  "4240012": {
    "zipcode": "4240012",
    "prefectureCode": "22",
    "prefectureNumber": 22,
    "prefecture": "静岡県",
    "city": "静岡市清水区",
    "town": "下野西"
  },
  "4240013": {
    "zipcode": "4240013",
    "prefectureCode": "22",
    "prefectureNumber": 22,
    "prefecture": "静岡県",
    "city": "静岡市清水区",
    "town": "下野緑町"
  },
  "4240014": {
    "zipcode": "4240014",
    "prefectureCode": "22",
    "prefectureNumber": 22,
    "prefecture": "静岡県",
    "city": "静岡市清水区",
    "town": "天王南"
  },
  "4240015": {
    "zipcode": "4240015",
    "prefectureCode": "22",
    "prefectureNumber": 22,
    "prefecture": "静岡県",
    "city": "静岡市清水区",
    "town": "天王町"
  },
  "4240016": {
    "zipcode": "4240016",
    "prefectureCode": "22",
    "prefectureNumber": 22,
    "prefecture": "静岡県",
    "city": "静岡市清水区",
    "town": "天王西"
  },
  "4240017": {
    "zipcode": "4240017",
    "prefectureCode": "22",
    "prefectureNumber": 22,
    "prefecture": "静岡県",
    "city": "静岡市清水区",
    "town": "天王東"
  },
  "4240018": {
    "zipcode": "4240018",
    "prefectureCode": "22",
    "prefectureNumber": 22,
    "prefecture": "静岡県",
    "city": "静岡市清水区",
    "town": "弥生町"
  },
  "4240021": {
    "zipcode": "4240021",
    "prefectureCode": "22",
    "prefectureNumber": 22,
    "prefecture": "静岡県",
    "city": "静岡市清水区",
    "town": "下野北"
  },
  "4240022": {
    "zipcode": "4240022",
    "prefectureCode": "22",
    "prefectureNumber": 22,
    "prefecture": "静岡県",
    "city": "静岡市清水区",
    "town": "八坂町"
  },
  "4240023": {
    "zipcode": "4240023",
    "prefectureCode": "22",
    "prefectureNumber": 22,
    "prefecture": "静岡県",
    "city": "静岡市清水区",
    "town": "八坂北"
  },
  "4240024": {
    "zipcode": "4240024",
    "prefectureCode": "22",
    "prefectureNumber": 22,
    "prefecture": "静岡県",
    "city": "静岡市清水区",
    "town": "八坂東"
  },
  "4240025": {
    "zipcode": "4240025",
    "prefectureCode": "22",
    "prefectureNumber": 22,
    "prefecture": "静岡県",
    "city": "静岡市清水区",
    "town": "八坂西町"
  },
  "4240026": {
    "zipcode": "4240026",
    "prefectureCode": "22",
    "prefectureNumber": 22,
    "prefecture": "静岡県",
    "city": "静岡市清水区",
    "town": "八坂南町"
  },
  "4240027": {
    "zipcode": "4240027",
    "prefectureCode": "22",
    "prefectureNumber": 22,
    "prefecture": "静岡県",
    "city": "静岡市清水区",
    "town": "飯田町"
  },
  "4240028": {
    "zipcode": "4240028",
    "prefectureCode": "22",
    "prefectureNumber": 22,
    "prefecture": "静岡県",
    "city": "静岡市清水区",
    "town": "下野東"
  },
  "4240029": {
    "zipcode": "4240029",
    "prefectureCode": "22",
    "prefectureNumber": 22,
    "prefecture": "静岡県",
    "city": "静岡市清水区",
    "town": "下野中"
  },
  "4240031": {
    "zipcode": "4240031",
    "prefectureCode": "22",
    "prefectureNumber": 22,
    "prefecture": "静岡県",
    "city": "静岡市清水区",
    "town": "横砂"
  },
  "4240032": {
    "zipcode": "4240032",
    "prefectureCode": "22",
    "prefectureNumber": 22,
    "prefecture": "静岡県",
    "city": "静岡市清水区",
    "town": "横砂東町"
  },
  "4240033": {
    "zipcode": "4240033",
    "prefectureCode": "22",
    "prefectureNumber": 22,
    "prefecture": "静岡県",
    "city": "静岡市清水区",
    "town": "横砂本町"
  },
  "4240034": {
    "zipcode": "4240034",
    "prefectureCode": "22",
    "prefectureNumber": 22,
    "prefecture": "静岡県",
    "city": "静岡市清水区",
    "town": "横砂中町"
  },
  "4240035": {
    "zipcode": "4240035",
    "prefectureCode": "22",
    "prefectureNumber": 22,
    "prefecture": "静岡県",
    "city": "静岡市清水区",
    "town": "横砂南町"
  },
  "4240036": {
    "zipcode": "4240036",
    "prefectureCode": "22",
    "prefectureNumber": 22,
    "prefecture": "静岡県",
    "city": "静岡市清水区",
    "town": "横砂西町"
  },
  "4240037": {
    "zipcode": "4240037",
    "prefectureCode": "22",
    "prefectureNumber": 22,
    "prefecture": "静岡県",
    "city": "静岡市清水区",
    "town": "袖師町"
  },
  "4240038": {
    "zipcode": "4240038",
    "prefectureCode": "22",
    "prefectureNumber": 22,
    "prefecture": "静岡県",
    "city": "静岡市清水区",
    "town": "西久保"
  },
  "4240041": {
    "zipcode": "4240041",
    "prefectureCode": "22",
    "prefectureNumber": 22,
    "prefecture": "静岡県",
    "city": "静岡市清水区",
    "town": "高橋"
  },
  "4240042": {
    "zipcode": "4240042",
    "prefectureCode": "22",
    "prefectureNumber": 22,
    "prefecture": "静岡県",
    "city": "静岡市清水区",
    "town": "高橋南町"
  },
  "4240043": {
    "zipcode": "4240043",
    "prefectureCode": "22",
    "prefectureNumber": 22,
    "prefecture": "静岡県",
    "city": "静岡市清水区",
    "town": "永楽町"
  },
  "4240044": {
    "zipcode": "4240044",
    "prefectureCode": "22",
    "prefectureNumber": 22,
    "prefecture": "静岡県",
    "city": "静岡市清水区",
    "town": "江尻台町"
  },
  "4240045": {
    "zipcode": "4240045",
    "prefectureCode": "22",
    "prefectureNumber": 22,
    "prefecture": "静岡県",
    "city": "静岡市清水区",
    "town": "東大曲町"
  },
  "4240046": {
    "zipcode": "4240046",
    "prefectureCode": "22",
    "prefectureNumber": 22,
    "prefecture": "静岡県",
    "city": "静岡市清水区",
    "town": "西大曲町"
  },
  "4240047": {
    "zipcode": "4240047",
    "prefectureCode": "22",
    "prefectureNumber": 22,
    "prefecture": "静岡県",
    "city": "静岡市清水区",
    "town": "鶴舞町"
  },
  "4240048": {
    "zipcode": "4240048",
    "prefectureCode": "22",
    "prefectureNumber": 22,
    "prefecture": "静岡県",
    "city": "静岡市清水区",
    "town": "高橋町"
  },
  "4240051": {
    "zipcode": "4240051",
    "prefectureCode": "22",
    "prefectureNumber": 22,
    "prefecture": "静岡県",
    "city": "静岡市清水区",
    "town": "北脇新田"
  },
  "4240052": {
    "zipcode": "4240052",
    "prefectureCode": "22",
    "prefectureNumber": 22,
    "prefecture": "静岡県",
    "city": "静岡市清水区",
    "town": "北脇"
  },
  "4240053": {
    "zipcode": "4240053",
    "prefectureCode": "22",
    "prefectureNumber": 22,
    "prefecture": "静岡県",
    "city": "静岡市清水区",
    "town": "渋川"
  },
  "4240054": {
    "zipcode": "4240054",
    "prefectureCode": "22",
    "prefectureNumber": 22,
    "prefecture": "静岡県",
    "city": "静岡市清水区",
    "town": "恵比寿町"
  },
  "4240055": {
    "zipcode": "4240055",
    "prefectureCode": "22",
    "prefectureNumber": 22,
    "prefecture": "静岡県",
    "city": "静岡市清水区",
    "town": "吉川"
  },
  "4240056": {
    "zipcode": "4240056",
    "prefectureCode": "22",
    "prefectureNumber": 22,
    "prefecture": "静岡県",
    "city": "静岡市清水区",
    "town": "半左衛門新田"
  },
  "4240057": {
    "zipcode": "4240057",
    "prefectureCode": "22",
    "prefectureNumber": 22,
    "prefecture": "静岡県",
    "city": "静岡市清水区",
    "town": "堀込"
  },
  "4240061": {
    "zipcode": "4240061",
    "prefectureCode": "22",
    "prefectureNumber": 22,
    "prefecture": "静岡県",
    "city": "静岡市清水区",
    "town": "大内"
  },
  "4240062": {
    "zipcode": "4240062",
    "prefectureCode": "22",
    "prefectureNumber": 22,
    "prefecture": "静岡県",
    "city": "静岡市清水区",
    "town": "大内新田"
  },
  "4240063": {
    "zipcode": "4240063",
    "prefectureCode": "22",
    "prefectureNumber": 22,
    "prefecture": "静岡県",
    "city": "静岡市清水区",
    "town": "能島"
  },
  "4240064": {
    "zipcode": "4240064",
    "prefectureCode": "22",
    "prefectureNumber": 22,
    "prefecture": "静岡県",
    "city": "静岡市清水区",
    "town": "長崎新田"
  },
  "4240065": {
    "zipcode": "4240065",
    "prefectureCode": "22",
    "prefectureNumber": 22,
    "prefecture": "静岡県",
    "city": "静岡市清水区",
    "town": "長崎"
  },
  "4240066": {
    "zipcode": "4240066",
    "prefectureCode": "22",
    "prefectureNumber": 22,
    "prefecture": "静岡県",
    "city": "静岡市清水区",
    "town": "七ツ新屋"
  },
  "4240067": {
    "zipcode": "4240067",
    "prefectureCode": "22",
    "prefectureNumber": 22,
    "prefecture": "静岡県",
    "city": "静岡市清水区",
    "town": "鳥坂"
  },
  "4240068": {
    "zipcode": "4240068",
    "prefectureCode": "22",
    "prefectureNumber": 22,
    "prefecture": "静岡県",
    "city": "静岡市清水区",
    "town": "長崎南町"
  },
  "4240101": {
    "zipcode": "4240101",
    "prefectureCode": "22",
    "prefectureNumber": 22,
    "prefecture": "静岡県",
    "city": "静岡市清水区",
    "town": "茂畑"
  },
  "4240102": {
    "zipcode": "4240102",
    "prefectureCode": "22",
    "prefectureNumber": 22,
    "prefecture": "静岡県",
    "city": "静岡市清水区",
    "town": "広瀬"
  },
  "4240103": {
    "zipcode": "4240103",
    "prefectureCode": "22",
    "prefectureNumber": 22,
    "prefecture": "静岡県",
    "city": "静岡市清水区",
    "town": "尾羽"
  },
  "4240104": {
    "zipcode": "4240104",
    "prefectureCode": "22",
    "prefectureNumber": 22,
    "prefecture": "静岡県",
    "city": "静岡市清水区",
    "town": "草ケ谷"
  },
  "4240105": {
    "zipcode": "4240105",
    "prefectureCode": "22",
    "prefectureNumber": 22,
    "prefecture": "静岡県",
    "city": "静岡市清水区",
    "town": "山切"
  },
  "4240106": {
    "zipcode": "4240106",
    "prefectureCode": "22",
    "prefectureNumber": 22,
    "prefecture": "静岡県",
    "city": "静岡市清水区",
    "town": "杉山"
  },
  "4240107": {
    "zipcode": "4240107",
    "prefectureCode": "22",
    "prefectureNumber": 22,
    "prefecture": "静岡県",
    "city": "静岡市清水区",
    "town": "新丹谷"
  },
  "4240111": {
    "zipcode": "4240111",
    "prefectureCode": "22",
    "prefectureNumber": 22,
    "prefecture": "静岡県",
    "city": "静岡市清水区",
    "town": "吉原"
  },
  "4240112": {
    "zipcode": "4240112",
    "prefectureCode": "22",
    "prefectureNumber": 22,
    "prefecture": "静岡県",
    "city": "静岡市清水区",
    "town": "伊佐布"
  },
  "4240113": {
    "zipcode": "4240113",
    "prefectureCode": "22",
    "prefectureNumber": 22,
    "prefecture": "静岡県",
    "city": "静岡市清水区",
    "town": "原"
  },
  "4240114": {
    "zipcode": "4240114",
    "prefectureCode": "22",
    "prefectureNumber": 22,
    "prefecture": "静岡県",
    "city": "静岡市清水区",
    "town": "庵原町"
  },
  "4240201": {
    "zipcode": "4240201",
    "prefectureCode": "22",
    "prefectureNumber": 22,
    "prefecture": "静岡県",
    "city": "静岡市清水区",
    "town": "承元寺町"
  },
  "4240202": {
    "zipcode": "4240202",
    "prefectureCode": "22",
    "prefectureNumber": 22,
    "prefecture": "静岡県",
    "city": "静岡市清水区",
    "town": "興津井上町"
  },
  "4240203": {
    "zipcode": "4240203",
    "prefectureCode": "22",
    "prefectureNumber": 22,
    "prefecture": "静岡県",
    "city": "静岡市清水区",
    "town": "興津東町"
  },
  "4240204": {
    "zipcode": "4240204",
    "prefectureCode": "22",
    "prefectureNumber": 22,
    "prefecture": "静岡県",
    "city": "静岡市清水区",
    "town": "興津中町"
  },
  "4240205": {
    "zipcode": "4240205",
    "prefectureCode": "22",
    "prefectureNumber": 22,
    "prefecture": "静岡県",
    "city": "静岡市清水区",
    "town": "興津本町"
  },
  "4240206": {
    "zipcode": "4240206",
    "prefectureCode": "22",
    "prefectureNumber": 22,
    "prefecture": "静岡県",
    "city": "静岡市清水区",
    "town": "興津清見寺町"
  },
  "4240211": {
    "zipcode": "4240211",
    "prefectureCode": "22",
    "prefectureNumber": 22,
    "prefecture": "静岡県",
    "city": "静岡市清水区",
    "town": "谷津町"
  },
  "4240212": {
    "zipcode": "4240212",
    "prefectureCode": "22",
    "prefectureNumber": 22,
    "prefecture": "静岡県",
    "city": "静岡市清水区",
    "town": "八木間町"
  },
  "4240301": {
    "zipcode": "4240301",
    "prefectureCode": "22",
    "prefectureNumber": 22,
    "prefecture": "静岡県",
    "city": "静岡市清水区",
    "town": "宍原"
  },
  "4240302": {
    "zipcode": "4240302",
    "prefectureCode": "22",
    "prefectureNumber": 22,
    "prefecture": "静岡県",
    "city": "静岡市清水区",
    "town": "小河内"
  },
  "4240303": {
    "zipcode": "4240303",
    "prefectureCode": "22",
    "prefectureNumber": 22,
    "prefecture": "静岡県",
    "city": "静岡市清水区",
    "town": "但沼町"
  },
  "4240304": {
    "zipcode": "4240304",
    "prefectureCode": "22",
    "prefectureNumber": 22,
    "prefecture": "静岡県",
    "city": "静岡市清水区",
    "town": "立花"
  },
  "4240305": {
    "zipcode": "4240305",
    "prefectureCode": "22",
    "prefectureNumber": 22,
    "prefecture": "静岡県",
    "city": "静岡市清水区",
    "town": "小島町"
  },
  "4240306": {
    "zipcode": "4240306",
    "prefectureCode": "22",
    "prefectureNumber": 22,
    "prefecture": "静岡県",
    "city": "静岡市清水区",
    "town": "小島本町"
  },
  "4240401": {
    "zipcode": "4240401",
    "prefectureCode": "22",
    "prefectureNumber": 22,
    "prefecture": "静岡県",
    "city": "静岡市清水区",
    "town": "中河内"
  },
  "4240402": {
    "zipcode": "4240402",
    "prefectureCode": "22",
    "prefectureNumber": 22,
    "prefecture": "静岡県",
    "city": "静岡市清水区",
    "town": "清地"
  },
  "4240403": {
    "zipcode": "4240403",
    "prefectureCode": "22",
    "prefectureNumber": 22,
    "prefecture": "静岡県",
    "city": "静岡市清水区",
    "town": "和田島"
  },
  "4240404": {
    "zipcode": "4240404",
    "prefectureCode": "22",
    "prefectureNumber": 22,
    "prefecture": "静岡県",
    "city": "静岡市清水区",
    "town": "高山"
  },
  "4240405": {
    "zipcode": "4240405",
    "prefectureCode": "22",
    "prefectureNumber": 22,
    "prefecture": "静岡県",
    "city": "静岡市清水区",
    "town": "茂野島"
  },
  "4240406": {
    "zipcode": "4240406",
    "prefectureCode": "22",
    "prefectureNumber": 22,
    "prefecture": "静岡県",
    "city": "静岡市清水区",
    "town": "葛沢"
  },
  "4240411": {
    "zipcode": "4240411",
    "prefectureCode": "22",
    "prefectureNumber": 22,
    "prefecture": "静岡県",
    "city": "静岡市清水区",
    "town": "大平"
  },
  "4240412": {
    "zipcode": "4240412",
    "prefectureCode": "22",
    "prefectureNumber": 22,
    "prefecture": "静岡県",
    "city": "静岡市清水区",
    "town": "河内"
  },
  "4240413": {
    "zipcode": "4240413",
    "prefectureCode": "22",
    "prefectureNumber": 22,
    "prefecture": "静岡県",
    "city": "静岡市清水区",
    "town": "西里"
  },
  "4240414": {
    "zipcode": "4240414",
    "prefectureCode": "22",
    "prefectureNumber": 22,
    "prefecture": "静岡県",
    "city": "静岡市清水区",
    "town": "土"
  },
  "4240415": {
    "zipcode": "4240415",
    "prefectureCode": "22",
    "prefectureNumber": 22,
    "prefecture": "静岡県",
    "city": "静岡市清水区",
    "town": "布沢"
  },
  "4240801": {
    "zipcode": "4240801",
    "prefectureCode": "22",
    "prefectureNumber": 22,
    "prefecture": "静岡県",
    "city": "静岡市清水区",
    "town": "秋吉町"
  },
  "4240802": {
    "zipcode": "4240802",
    "prefectureCode": "22",
    "prefectureNumber": 22,
    "prefecture": "静岡県",
    "city": "静岡市清水区",
    "town": "矢倉町"
  },
  "4240803": {
    "zipcode": "4240803",
    "prefectureCode": "22",
    "prefectureNumber": 22,
    "prefecture": "静岡県",
    "city": "静岡市清水区",
    "town": "宮下町"
  },
  "4240804": {
    "zipcode": "4240804",
    "prefectureCode": "22",
    "prefectureNumber": 22,
    "prefecture": "静岡県",
    "city": "静岡市清水区",
    "town": "田町"
  },
  "4240805": {
    "zipcode": "4240805",
    "prefectureCode": "22",
    "prefectureNumber": 22,
    "prefecture": "静岡県",
    "city": "静岡市清水区",
    "town": "愛染町"
  },
  "4240806": {
    "zipcode": "4240806",
    "prefectureCode": "22",
    "prefectureNumber": 22,
    "prefecture": "静岡県",
    "city": "静岡市清水区",
    "town": "辻"
  },
  "4240807": {
    "zipcode": "4240807",
    "prefectureCode": "22",
    "prefectureNumber": 22,
    "prefecture": "静岡県",
    "city": "静岡市清水区",
    "town": "宮代町"
  },
  "4240808": {
    "zipcode": "4240808",
    "prefectureCode": "22",
    "prefectureNumber": 22,
    "prefecture": "静岡県",
    "city": "静岡市清水区",
    "town": "大手"
  },
  "4240809": {
    "zipcode": "4240809",
    "prefectureCode": "22",
    "prefectureNumber": 22,
    "prefecture": "静岡県",
    "city": "静岡市清水区",
    "town": "天神"
  },
  "4240811": {
    "zipcode": "4240811",
    "prefectureCode": "22",
    "prefectureNumber": 22,
    "prefecture": "静岡県",
    "city": "静岡市清水区",
    "town": "二の丸町"
  },
  "4240812": {
    "zipcode": "4240812",
    "prefectureCode": "22",
    "prefectureNumber": 22,
    "prefecture": "静岡県",
    "city": "静岡市清水区",
    "town": "小芝町"
  },
  "4240813": {
    "zipcode": "4240813",
    "prefectureCode": "22",
    "prefectureNumber": 22,
    "prefecture": "静岡県",
    "city": "静岡市清水区",
    "town": "宝町"
  },
  "4240814": {
    "zipcode": "4240814",
    "prefectureCode": "22",
    "prefectureNumber": 22,
    "prefecture": "静岡県",
    "city": "静岡市清水区",
    "town": "本郷町"
  },
  "4240815": {
    "zipcode": "4240815",
    "prefectureCode": "22",
    "prefectureNumber": 22,
    "prefecture": "静岡県",
    "city": "静岡市清水区",
    "town": "江尻東"
  },
  "4240816": {
    "zipcode": "4240816",
    "prefectureCode": "22",
    "prefectureNumber": 22,
    "prefecture": "静岡県",
    "city": "静岡市清水区",
    "town": "真砂町"
  },
  "4240817": {
    "zipcode": "4240817",
    "prefectureCode": "22",
    "prefectureNumber": 22,
    "prefecture": "静岡県",
    "city": "静岡市清水区",
    "town": "銀座"
  },
  "4240818": {
    "zipcode": "4240818",
    "prefectureCode": "22",
    "prefectureNumber": 22,
    "prefecture": "静岡県",
    "city": "静岡市清水区",
    "town": "江尻町"
  },
  "4240819": {
    "zipcode": "4240819",
    "prefectureCode": "22",
    "prefectureNumber": 22,
    "prefecture": "静岡県",
    "city": "静岡市清水区",
    "town": "元城町"
  },
  "4240821": {
    "zipcode": "4240821",
    "prefectureCode": "22",
    "prefectureNumber": 22,
    "prefecture": "静岡県",
    "city": "静岡市清水区",
    "town": "相生町"
  },
  "4240822": {
    "zipcode": "4240822",
    "prefectureCode": "22",
    "prefectureNumber": 22,
    "prefecture": "静岡県",
    "city": "静岡市清水区",
    "town": "旭町"
  },
  "4240823": {
    "zipcode": "4240823",
    "prefectureCode": "22",
    "prefectureNumber": 22,
    "prefecture": "静岡県",
    "city": "静岡市清水区",
    "town": "島崎町"
  },
  "4240824": {
    "zipcode": "4240824",
    "prefectureCode": "22",
    "prefectureNumber": 22,
    "prefecture": "静岡県",
    "city": "静岡市清水区",
    "town": "新港町"
  },
  "4240825": {
    "zipcode": "4240825",
    "prefectureCode": "22",
    "prefectureNumber": 22,
    "prefecture": "静岡県",
    "city": "静岡市清水区",
    "town": "松原町"
  },
  "4240826": {
    "zipcode": "4240826",
    "prefectureCode": "22",
    "prefectureNumber": 22,
    "prefecture": "静岡県",
    "city": "静岡市清水区",
    "town": "万世町"
  },
  "4240827": {
    "zipcode": "4240827",
    "prefectureCode": "22",
    "prefectureNumber": 22,
    "prefecture": "静岡県",
    "city": "静岡市清水区",
    "town": "上"
  },
  "4240828": {
    "zipcode": "4240828",
    "prefectureCode": "22",
    "prefectureNumber": 22,
    "prefecture": "静岡県",
    "city": "静岡市清水区",
    "town": "千歳町"
  },
  "4240829": {
    "zipcode": "4240829",
    "prefectureCode": "22",
    "prefectureNumber": 22,
    "prefecture": "静岡県",
    "city": "静岡市清水区",
    "town": "巴町"
  },
  "4240831": {
    "zipcode": "4240831",
    "prefectureCode": "22",
    "prefectureNumber": 22,
    "prefecture": "静岡県",
    "city": "静岡市清水区",
    "town": "入江"
  },
  "4240832": {
    "zipcode": "4240832",
    "prefectureCode": "22",
    "prefectureNumber": 22,
    "prefecture": "静岡県",
    "city": "静岡市清水区",
    "town": "入江南町"
  },
  "4240833": {
    "zipcode": "4240833",
    "prefectureCode": "22",
    "prefectureNumber": 22,
    "prefecture": "静岡県",
    "city": "静岡市清水区",
    "town": "新富町"
  },
  "4240834": {
    "zipcode": "4240834",
    "prefectureCode": "22",
    "prefectureNumber": 22,
    "prefecture": "静岡県",
    "city": "静岡市清水区",
    "town": "浜田町"
  },
  "4240835": {
    "zipcode": "4240835",
    "prefectureCode": "22",
    "prefectureNumber": 22,
    "prefecture": "静岡県",
    "city": "静岡市清水区",
    "town": "上清水町"
  },
  "4240836": {
    "zipcode": "4240836",
    "prefectureCode": "22",
    "prefectureNumber": 22,
    "prefecture": "静岡県",
    "city": "静岡市清水区",
    "town": "桜が丘町"
  },
  "4240837": {
    "zipcode": "4240837",
    "prefectureCode": "22",
    "prefectureNumber": 22,
    "prefecture": "静岡県",
    "city": "静岡市清水区",
    "town": "桜橋町"
  },
  "4240838": {
    "zipcode": "4240838",
    "prefectureCode": "22",
    "prefectureNumber": 22,
    "prefecture": "静岡県",
    "city": "静岡市清水区",
    "town": "淡島町"
  },
  "4240839": {
    "zipcode": "4240839",
    "prefectureCode": "22",
    "prefectureNumber": 22,
    "prefecture": "静岡県",
    "city": "静岡市清水区",
    "town": "入江岡町"
  },
  "4240841": {
    "zipcode": "4240841",
    "prefectureCode": "22",
    "prefectureNumber": 22,
    "prefecture": "静岡県",
    "city": "静岡市清水区",
    "town": "追分"
  },
  "4240842": {
    "zipcode": "4240842",
    "prefectureCode": "22",
    "prefectureNumber": 22,
    "prefecture": "静岡県",
    "city": "静岡市清水区",
    "town": "春日"
  },
  "4240843": {
    "zipcode": "4240843",
    "prefectureCode": "22",
    "prefectureNumber": 22,
    "prefecture": "静岡県",
    "city": "静岡市清水区",
    "town": "青葉町"
  },
  "4240844": {
    "zipcode": "4240844",
    "prefectureCode": "22",
    "prefectureNumber": 22,
    "prefecture": "静岡県",
    "city": "静岡市清水区",
    "town": "西高町"
  },
  "4240845": {
    "zipcode": "4240845",
    "prefectureCode": "22",
    "prefectureNumber": 22,
    "prefecture": "静岡県",
    "city": "静岡市清水区",
    "town": "船原"
  },
  "4240846": {
    "zipcode": "4240846",
    "prefectureCode": "22",
    "prefectureNumber": 22,
    "prefecture": "静岡県",
    "city": "静岡市清水区",
    "town": "木の下町"
  },
  "4240847": {
    "zipcode": "4240847",
    "prefectureCode": "22",
    "prefectureNumber": 22,
    "prefecture": "静岡県",
    "city": "静岡市清水区",
    "town": "大坪"
  },
  "4240851": {
    "zipcode": "4240851",
    "prefectureCode": "22",
    "prefectureNumber": 22,
    "prefecture": "静岡県",
    "city": "静岡市清水区",
    "town": "堂林"
  },
  "4240852": {
    "zipcode": "4240852",
    "prefectureCode": "22",
    "prefectureNumber": 22,
    "prefecture": "静岡県",
    "city": "静岡市清水区",
    "town": "神田町"
  },
  "4240853": {
    "zipcode": "4240853",
    "prefectureCode": "22",
    "prefectureNumber": 22,
    "prefecture": "静岡県",
    "city": "静岡市清水区",
    "town": "月見町"
  },
  "4240854": {
    "zipcode": "4240854",
    "prefectureCode": "22",
    "prefectureNumber": 22,
    "prefecture": "静岡県",
    "city": "静岡市清水区",
    "town": "中矢部町"
  },
  "4240855": {
    "zipcode": "4240855",
    "prefectureCode": "22",
    "prefectureNumber": 22,
    "prefecture": "静岡県",
    "city": "静岡市清水区",
    "town": "庄福町"
  },
  "4240856": {
    "zipcode": "4240856",
    "prefectureCode": "22",
    "prefectureNumber": 22,
    "prefecture": "静岡県",
    "city": "静岡市清水区",
    "town": "上力町"
  },
  "4240857": {
    "zipcode": "4240857",
    "prefectureCode": "22",
    "prefectureNumber": 22,
    "prefecture": "静岡県",
    "city": "静岡市清水区",
    "town": "川原町"
  },
  "4240858": {
    "zipcode": "4240858",
    "prefectureCode": "22",
    "prefectureNumber": 22,
    "prefecture": "静岡県",
    "city": "静岡市清水区",
    "town": "大沢町"
  },
  "4240861": {
    "zipcode": "4240861",
    "prefectureCode": "22",
    "prefectureNumber": 22,
    "prefecture": "静岡県",
    "city": "静岡市清水区",
    "town": "船越町"
  },
  "4240862": {
    "zipcode": "4240862",
    "prefectureCode": "22",
    "prefectureNumber": 22,
    "prefecture": "静岡県",
    "city": "静岡市清水区",
    "town": "船越東町"
  },
  "4240863": {
    "zipcode": "4240863",
    "prefectureCode": "22",
    "prefectureNumber": 22,
    "prefecture": "静岡県",
    "city": "静岡市清水区",
    "town": "船越南町"
  },
  "4240864": {
    "zipcode": "4240864",
    "prefectureCode": "22",
    "prefectureNumber": 22,
    "prefecture": "静岡県",
    "city": "静岡市清水区",
    "town": "南矢部"
  },
  "4240865": {
    "zipcode": "4240865",
    "prefectureCode": "22",
    "prefectureNumber": 22,
    "prefecture": "静岡県",
    "city": "静岡市清水区",
    "town": "北矢部"
  },
  "4240866": {
    "zipcode": "4240866",
    "prefectureCode": "22",
    "prefectureNumber": 22,
    "prefecture": "静岡県",
    "city": "静岡市清水区",
    "town": "船越"
  },
  "4240871": {
    "zipcode": "4240871",
    "prefectureCode": "22",
    "prefectureNumber": 22,
    "prefecture": "静岡県",
    "city": "静岡市清水区",
    "town": "上原"
  },
  "4240872": {
    "zipcode": "4240872",
    "prefectureCode": "22",
    "prefectureNumber": 22,
    "prefecture": "静岡県",
    "city": "静岡市清水区",
    "town": "平川地"
  },
  "4240873": {
    "zipcode": "4240873",
    "prefectureCode": "22",
    "prefectureNumber": 22,
    "prefecture": "静岡県",
    "city": "静岡市清水区",
    "town": "有東坂"
  },
  "4240874": {
    "zipcode": "4240874",
    "prefectureCode": "22",
    "prefectureNumber": 22,
    "prefecture": "静岡県",
    "city": "静岡市清水区",
    "town": "今泉"
  },
  "4240875": {
    "zipcode": "4240875",
    "prefectureCode": "22",
    "prefectureNumber": 22,
    "prefecture": "静岡県",
    "city": "静岡市清水区",
    "town": "馬走"
  },
  "4240876": {
    "zipcode": "4240876",
    "prefectureCode": "22",
    "prefectureNumber": 22,
    "prefecture": "静岡県",
    "city": "静岡市清水区",
    "town": "馬走北"
  },
  "4240877": {
    "zipcode": "4240877",
    "prefectureCode": "22",
    "prefectureNumber": 22,
    "prefecture": "静岡県",
    "city": "静岡市清水区",
    "town": "馬走坂の上"
  },
  "4240878": {
    "zipcode": "4240878",
    "prefectureCode": "22",
    "prefectureNumber": 22,
    "prefecture": "静岡県",
    "city": "静岡市清水区",
    "town": "御門台"
  },
  "4240879": {
    "zipcode": "4240879",
    "prefectureCode": "22",
    "prefectureNumber": 22,
    "prefecture": "静岡県",
    "city": "静岡市清水区",
    "town": "有度本町"
  },
  "4240881": {
    "zipcode": "4240881",
    "prefectureCode": "22",
    "prefectureNumber": 22,
    "prefecture": "静岡県",
    "city": "静岡市清水区",
    "town": "楠"
  },
  "4240882": {
    "zipcode": "4240882",
    "prefectureCode": "22",
    "prefectureNumber": 22,
    "prefecture": "静岡県",
    "city": "静岡市清水区",
    "town": "楠新田"
  },
  "4240883": {
    "zipcode": "4240883",
    "prefectureCode": "22",
    "prefectureNumber": 22,
    "prefecture": "静岡県",
    "city": "静岡市清水区",
    "town": "草薙北"
  },
  "4240884": {
    "zipcode": "4240884",
    "prefectureCode": "22",
    "prefectureNumber": 22,
    "prefecture": "静岡県",
    "city": "静岡市清水区",
    "town": "草薙一里山"
  },
  "4240885": {
    "zipcode": "4240885",
    "prefectureCode": "22",
    "prefectureNumber": 22,
    "prefecture": "静岡県",
    "city": "静岡市清水区",
    "town": "草薙杉道"
  },
  "4240886": {
    "zipcode": "4240886",
    "prefectureCode": "22",
    "prefectureNumber": 22,
    "prefecture": "静岡県",
    "city": "静岡市清水区",
    "town": "草薙"
  },
  "4240887": {
    "zipcode": "4240887",
    "prefectureCode": "22",
    "prefectureNumber": 22,
    "prefecture": "静岡県",
    "city": "静岡市清水区",
    "town": "谷田"
  },
  "4240888": {
    "zipcode": "4240888",
    "prefectureCode": "22",
    "prefectureNumber": 22,
    "prefecture": "静岡県",
    "city": "静岡市清水区",
    "town": "中之郷"
  },
  "4240901": {
    "zipcode": "4240901",
    "prefectureCode": "22",
    "prefectureNumber": 22,
    "prefecture": "静岡県",
    "city": "静岡市清水区",
    "town": "三保"
  },
  "4240902": {
    "zipcode": "4240902",
    "prefectureCode": "22",
    "prefectureNumber": 22,
    "prefecture": "静岡県",
    "city": "静岡市清水区",
    "town": "折戸"
  },
  "4240903": {
    "zipcode": "4240903",
    "prefectureCode": "22",
    "prefectureNumber": 22,
    "prefecture": "静岡県",
    "city": "静岡市清水区",
    "town": "駒越南町"
  },
  "4240904": {
    "zipcode": "4240904",
    "prefectureCode": "22",
    "prefectureNumber": 22,
    "prefecture": "静岡県",
    "city": "静岡市清水区",
    "town": "駒越中"
  },
  "4240905": {
    "zipcode": "4240905",
    "prefectureCode": "22",
    "prefectureNumber": 22,
    "prefecture": "静岡県",
    "city": "静岡市清水区",
    "town": "駒越西"
  },
  "4240906": {
    "zipcode": "4240906",
    "prefectureCode": "22",
    "prefectureNumber": 22,
    "prefecture": "静岡県",
    "city": "静岡市清水区",
    "town": "駒越北町"
  },
  "4240907": {
    "zipcode": "4240907",
    "prefectureCode": "22",
    "prefectureNumber": 22,
    "prefecture": "静岡県",
    "city": "静岡市清水区",
    "town": "駒越東町"
  },
  "4240908": {
    "zipcode": "4240908",
    "prefectureCode": "22",
    "prefectureNumber": 22,
    "prefecture": "静岡県",
    "city": "静岡市清水区",
    "town": "三保松原町"
  },
  "4240911": {
    "zipcode": "4240911",
    "prefectureCode": "22",
    "prefectureNumber": 22,
    "prefecture": "静岡県",
    "city": "静岡市清水区",
    "town": "宮加三"
  },
  "4240912": {
    "zipcode": "4240912",
    "prefectureCode": "22",
    "prefectureNumber": 22,
    "prefecture": "静岡県",
    "city": "静岡市清水区",
    "town": "殿沢"
  },
  "4240913": {
    "zipcode": "4240913",
    "prefectureCode": "22",
    "prefectureNumber": 22,
    "prefecture": "静岡県",
    "city": "静岡市清水区",
    "town": "迎山町"
  },
  "4240914": {
    "zipcode": "4240914",
    "prefectureCode": "22",
    "prefectureNumber": 22,
    "prefecture": "静岡県",
    "city": "静岡市清水区",
    "town": "港南町"
  },
  "4240915": {
    "zipcode": "4240915",
    "prefectureCode": "22",
    "prefectureNumber": 22,
    "prefecture": "静岡県",
    "city": "静岡市清水区",
    "town": "増"
  },
  "4240916": {
    "zipcode": "4240916",
    "prefectureCode": "22",
    "prefectureNumber": 22,
    "prefecture": "静岡県",
    "city": "静岡市清水区",
    "town": "蛇塚"
  },
  "4240917": {
    "zipcode": "4240917",
    "prefectureCode": "22",
    "prefectureNumber": 22,
    "prefecture": "静岡県",
    "city": "静岡市清水区",
    "town": "駒越"
  },
  "4240921": {
    "zipcode": "4240921",
    "prefectureCode": "22",
    "prefectureNumber": 22,
    "prefecture": "静岡県",
    "city": "静岡市清水区",
    "town": "松井町"
  },
  "4240922": {
    "zipcode": "4240922",
    "prefectureCode": "22",
    "prefectureNumber": 22,
    "prefecture": "静岡県",
    "city": "静岡市清水区",
    "town": "日の出町"
  },
  "4240923": {
    "zipcode": "4240923",
    "prefectureCode": "22",
    "prefectureNumber": 22,
    "prefecture": "静岡県",
    "city": "静岡市清水区",
    "town": "幸町"
  },
  "4240924": {
    "zipcode": "4240924",
    "prefectureCode": "22",
    "prefectureNumber": 22,
    "prefecture": "静岡県",
    "city": "静岡市清水区",
    "town": "清開"
  },
  "4240925": {
    "zipcode": "4240925",
    "prefectureCode": "22",
    "prefectureNumber": 22,
    "prefecture": "静岡県",
    "city": "静岡市清水区",
    "town": "清水村松地先新田"
  },
  "4240926": {
    "zipcode": "4240926",
    "prefectureCode": "22",
    "prefectureNumber": 22,
    "prefecture": "静岡県",
    "city": "静岡市清水区",
    "town": "村松"
  },
  "4240927": {
    "zipcode": "4240927",
    "prefectureCode": "22",
    "prefectureNumber": 22,
    "prefecture": "静岡県",
    "city": "静岡市清水区",
    "town": "新緑町"
  },
  "4240928": {
    "zipcode": "4240928",
    "prefectureCode": "22",
    "prefectureNumber": 22,
    "prefecture": "静岡県",
    "city": "静岡市清水区",
    "town": "緑が丘町"
  },
  "4240929": {
    "zipcode": "4240929",
    "prefectureCode": "22",
    "prefectureNumber": 22,
    "prefecture": "静岡県",
    "city": "静岡市清水区",
    "town": "日立町"
  },
  "4240931": {
    "zipcode": "4240931",
    "prefectureCode": "22",
    "prefectureNumber": 22,
    "prefecture": "静岡県",
    "city": "静岡市清水区",
    "town": "岡町"
  },
  "4240932": {
    "zipcode": "4240932",
    "prefectureCode": "22",
    "prefectureNumber": 22,
    "prefecture": "静岡県",
    "city": "静岡市清水区",
    "town": "南岡町"
  },
  "4240933": {
    "zipcode": "4240933",
    "prefectureCode": "22",
    "prefectureNumber": 22,
    "prefecture": "静岡県",
    "city": "静岡市清水区",
    "town": "三光町"
  },
  "4240934": {
    "zipcode": "4240934",
    "prefectureCode": "22",
    "prefectureNumber": 22,
    "prefecture": "静岡県",
    "city": "静岡市清水区",
    "town": "村松原"
  },
  "4240935": {
    "zipcode": "4240935",
    "prefectureCode": "22",
    "prefectureNumber": 22,
    "prefecture": "静岡県",
    "city": "静岡市清水区",
    "town": "沼田町"
  },
  "4240936": {
    "zipcode": "4240936",
    "prefectureCode": "22",
    "prefectureNumber": 22,
    "prefecture": "静岡県",
    "city": "静岡市清水区",
    "town": "向田町"
  },
  "4240937": {
    "zipcode": "4240937",
    "prefectureCode": "22",
    "prefectureNumber": 22,
    "prefecture": "静岡県",
    "city": "静岡市清水区",
    "town": "北矢部町"
  },
  "4240938": {
    "zipcode": "4240938",
    "prefectureCode": "22",
    "prefectureNumber": 22,
    "prefecture": "静岡県",
    "city": "静岡市清水区",
    "town": "梅が岡"
  },
  "4240939": {
    "zipcode": "4240939",
    "prefectureCode": "22",
    "prefectureNumber": 22,
    "prefecture": "静岡県",
    "city": "静岡市清水区",
    "town": "下清水町"
  },
  "4240941": {
    "zipcode": "4240941",
    "prefectureCode": "22",
    "prefectureNumber": 22,
    "prefecture": "静岡県",
    "city": "静岡市清水区",
    "town": "富士見町"
  },
  "4240942": {
    "zipcode": "4240942",
    "prefectureCode": "22",
    "prefectureNumber": 22,
    "prefecture": "静岡県",
    "city": "静岡市清水区",
    "town": "入船町"
  },
  "4240943": {
    "zipcode": "4240943",
    "prefectureCode": "22",
    "prefectureNumber": 22,
    "prefecture": "静岡県",
    "city": "静岡市清水区",
    "town": "港町"
  },
  "4240944": {
    "zipcode": "4240944",
    "prefectureCode": "22",
    "prefectureNumber": 22,
    "prefecture": "静岡県",
    "city": "静岡市清水区",
    "town": "築地町"
  },
  "4240945": {
    "zipcode": "4240945",
    "prefectureCode": "22",
    "prefectureNumber": 22,
    "prefecture": "静岡県",
    "city": "静岡市清水区",
    "town": "美濃輪町"
  },
  "4240946": {
    "zipcode": "4240946",
    "prefectureCode": "22",
    "prefectureNumber": 22,
    "prefecture": "静岡県",
    "city": "静岡市清水区",
    "town": "八千代町"
  },
  "4240947": {
    "zipcode": "4240947",
    "prefectureCode": "22",
    "prefectureNumber": 22,
    "prefecture": "静岡県",
    "city": "静岡市清水区",
    "town": "清水町"
  },
  "4240948": {
    "zipcode": "4240948",
    "prefectureCode": "22",
    "prefectureNumber": 22,
    "prefecture": "静岡県",
    "city": "静岡市清水区",
    "town": "梅田町"
  },
  "4240949": {
    "zipcode": "4240949",
    "prefectureCode": "22",
    "prefectureNumber": 22,
    "prefecture": "静岡県",
    "city": "静岡市清水区",
    "town": "本町"
  }
}
