{
  "4250000": {
    "zipcode": "4250000",
    "prefectureCode": "22",
    "prefectureNumber": 22,
    "prefecture": "静岡県",
    "city": "焼津市",
    "town": "以下に掲載がない場合"
  },
  "4250001": {
    "zipcode": "4250001",
    "prefectureCode": "22",
    "prefectureNumber": 22,
    "prefecture": "静岡県",
    "city": "焼津市",
    "town": "花沢"
  },
  "4250002": {
    "zipcode": "4250002",
    "prefectureCode": "22",
    "prefectureNumber": 22,
    "prefecture": "静岡県",
    "city": "焼津市",
    "town": "吉津"
  },
  "4250003": {
    "zipcode": "4250003",
    "prefectureCode": "22",
    "prefectureNumber": 22,
    "prefecture": "静岡県",
    "city": "焼津市",
    "town": "高崎"
  },
  "4250004": {
    "zipcode": "4250004",
    "prefectureCode": "22",
    "prefectureNumber": 22,
    "prefecture": "静岡県",
    "city": "焼津市",
    "town": "坂本"
  },
  "4250005": {
    "zipcode": "4250005",
    "prefectureCode": "22",
    "prefectureNumber": 22,
    "prefecture": "静岡県",
    "city": "焼津市",
    "town": "方ノ上"
  },
  "4250006": {
    "zipcode": "4250006",
    "prefectureCode": "22",
    "prefectureNumber": 22,
    "prefecture": "静岡県",
    "city": "焼津市",
    "town": "関方"
  },
  "4250007": {
    "zipcode": "4250007",
    "prefectureCode": "22",
    "prefectureNumber": 22,
    "prefecture": "静岡県",
    "city": "焼津市",
    "town": "策牛"
  },
  "4250011": {
    "zipcode": "4250011",
    "prefectureCode": "22",
    "prefectureNumber": 22,
    "prefecture": "静岡県",
    "city": "焼津市",
    "town": "小浜"
  },
  "4250012": {
    "zipcode": "4250012",
    "prefectureCode": "22",
    "prefectureNumber": 22,
    "prefecture": "静岡県",
    "city": "焼津市",
    "town": "浜当目"
  },
  "4250013": {
    "zipcode": "4250013",
    "prefectureCode": "22",
    "prefectureNumber": 22,
    "prefecture": "静岡県",
    "city": "焼津市",
    "town": "岡当目"
  },
  "4250014": {
    "zipcode": "4250014",
    "prefectureCode": "22",
    "prefectureNumber": 22,
    "prefecture": "静岡県",
    "city": "焼津市",
    "town": "中里"
  },
  "4250015": {
    "zipcode": "4250015",
    "prefectureCode": "22",
    "prefectureNumber": 22,
    "prefecture": "静岡県",
    "city": "焼津市",
    "town": "石脇上"
  },
  "4250016": {
    "zipcode": "4250016",
    "prefectureCode": "22",
    "prefectureNumber": 22,
    "prefecture": "静岡県",
    "city": "焼津市",
    "town": "石脇下"
  },
  "4250017": {
    "zipcode": "4250017",
    "prefectureCode": "22",
    "prefectureNumber": 22,
    "prefecture": "静岡県",
    "city": "焼津市",
    "town": "野秋"
  },
  "4250021": {
    "zipcode": "4250021",
    "prefectureCode": "22",
    "prefectureNumber": 22,
    "prefecture": "静岡県",
    "city": "焼津市",
    "town": "中港"
  },
  "4250022": {
    "zipcode": "4250022",
    "prefectureCode": "22",
    "prefectureNumber": 22,
    "prefecture": "静岡県",
    "city": "焼津市",
    "town": "本町"
  },
  "4250023": {
    "zipcode": "4250023",
    "prefectureCode": "22",
    "prefectureNumber": 22,
    "prefecture": "静岡県",
    "city": "焼津市",
    "town": "新屋"
  },
  "4250024": {
    "zipcode": "4250024",
    "prefectureCode": "22",
    "prefectureNumber": 22,
    "prefecture": "静岡県",
    "city": "焼津市",
    "town": "北浜通"
  },
  "4250025": {
    "zipcode": "4250025",
    "prefectureCode": "22",
    "prefectureNumber": 22,
    "prefecture": "静岡県",
    "city": "焼津市",
    "town": "城之腰"
  },
  "4250026": {
    "zipcode": "4250026",
    "prefectureCode": "22",
    "prefectureNumber": 22,
    "prefecture": "静岡県",
    "city": "焼津市",
    "town": "焼津"
  },
  "4250027": {
    "zipcode": "4250027",
    "prefectureCode": "22",
    "prefectureNumber": 22,
    "prefecture": "静岡県",
    "city": "焼津市",
    "town": "栄町"
  },
  "4250028": {
    "zipcode": "4250028",
    "prefectureCode": "22",
    "prefectureNumber": 22,
    "prefecture": "静岡県",
    "city": "焼津市",
    "town": "駅北"
  },
  "4250031": {
    "zipcode": "4250031",
    "prefectureCode": "22",
    "prefectureNumber": 22,
    "prefecture": "静岡県",
    "city": "焼津市",
    "town": "小川新町"
  },
  "4250032": {
    "zipcode": "4250032",
    "prefectureCode": "22",
    "prefectureNumber": 22,
    "prefecture": "静岡県",
    "city": "焼津市",
    "town": "鰯ケ島"
  },
  "4250033": {
    "zipcode": "4250033",
    "prefectureCode": "22",
    "prefectureNumber": 22,
    "prefecture": "静岡県",
    "city": "焼津市",
    "town": "小川"
  },
  "4250034": {
    "zipcode": "4250034",
    "prefectureCode": "22",
    "prefectureNumber": 22,
    "prefecture": "静岡県",
    "city": "焼津市",
    "town": "与惣次"
  },
  "4250035": {
    "zipcode": "4250035",
    "prefectureCode": "22",
    "prefectureNumber": 22,
    "prefecture": "静岡県",
    "city": "焼津市",
    "town": "東小川"
  },
  "4250036": {
    "zipcode": "4250036",
    "prefectureCode": "22",
    "prefectureNumber": 22,
    "prefecture": "静岡県",
    "city": "焼津市",
    "town": "西小川"
  },
  "4250037": {
    "zipcode": "4250037",
    "prefectureCode": "22",
    "prefectureNumber": 22,
    "prefecture": "静岡県",
    "city": "焼津市",
    "town": "南小川"
  },
  "4250038": {
    "zipcode": "4250038",
    "prefectureCode": "22",
    "prefectureNumber": 22,
    "prefecture": "静岡県",
    "city": "焼津市",
    "town": "黒石"
  },
  "4250041": {
    "zipcode": "4250041",
    "prefectureCode": "22",
    "prefectureNumber": 22,
    "prefecture": "静岡県",
    "city": "焼津市",
    "town": "石津"
  },
  "4250042": {
    "zipcode": "4250042",
    "prefectureCode": "22",
    "prefectureNumber": 22,
    "prefecture": "静岡県",
    "city": "焼津市",
    "town": "石津港町"
  },
  "4250043": {
    "zipcode": "4250043",
    "prefectureCode": "22",
    "prefectureNumber": 22,
    "prefecture": "静岡県",
    "city": "焼津市",
    "town": "石津中町"
  },
  "4250044": {
    "zipcode": "4250044",
    "prefectureCode": "22",
    "prefectureNumber": 22,
    "prefecture": "静岡県",
    "city": "焼津市",
    "town": "石津向町"
  },
  "4250045": {
    "zipcode": "4250045",
    "prefectureCode": "22",
    "prefectureNumber": 22,
    "prefecture": "静岡県",
    "city": "焼津市",
    "town": "祢宜島"
  },
  "4250046": {
    "zipcode": "4250046",
    "prefectureCode": "22",
    "prefectureNumber": 22,
    "prefecture": "静岡県",
    "city": "焼津市",
    "town": "三右衛門新田"
  },
  "4250047": {
    "zipcode": "4250047",
    "prefectureCode": "22",
    "prefectureNumber": 22,
    "prefecture": "静岡県",
    "city": "焼津市",
    "town": "東祢宜島"
  },
  "4250048": {
    "zipcode": "4250048",
    "prefectureCode": "22",
    "prefectureNumber": 22,
    "prefecture": "静岡県",
    "city": "焼津市",
    "town": "東道原"
  },
  "4250051": {
    "zipcode": "4250051",
    "prefectureCode": "22",
    "prefectureNumber": 22,
    "prefecture": "静岡県",
    "city": "焼津市",
    "town": "田尻北"
  },
  "4250052": {
    "zipcode": "4250052",
    "prefectureCode": "22",
    "prefectureNumber": 22,
    "prefecture": "静岡県",
    "city": "焼津市",
    "town": "田尻"
  },
  "4250053": {
    "zipcode": "4250053",
    "prefectureCode": "22",
    "prefectureNumber": 22,
    "prefecture": "静岡県",
    "city": "焼津市",
    "town": "すみれ台"
  },
  "4250054": {
    "zipcode": "4250054",
    "prefectureCode": "22",
    "prefectureNumber": 22,
    "prefecture": "静岡県",
    "city": "焼津市",
    "town": "一色"
  },
  "4250055": {
    "zipcode": "4250055",
    "prefectureCode": "22",
    "prefectureNumber": 22,
    "prefecture": "静岡県",
    "city": "焼津市",
    "town": "道原"
  },
  "4250056": {
    "zipcode": "4250056",
    "prefectureCode": "22",
    "prefectureNumber": 22,
    "prefecture": "静岡県",
    "city": "焼津市",
    "town": "下小田中町"
  },
  "4250057": {
    "zipcode": "4250057",
    "prefectureCode": "22",
    "prefectureNumber": 22,
    "prefecture": "静岡県",
    "city": "焼津市",
    "town": "下小田"
  },
  "4250058": {
    "zipcode": "4250058",
    "prefectureCode": "22",
    "prefectureNumber": 22,
    "prefecture": "静岡県",
    "city": "焼津市",
    "town": "北新田"
  },
  "4250059": {
    "zipcode": "4250059",
    "prefectureCode": "22",
    "prefectureNumber": 22,
    "prefecture": "静岡県",
    "city": "焼津市",
    "town": "下小田上町"
  },
  "4250061": {
    "zipcode": "4250061",
    "prefectureCode": "22",
    "prefectureNumber": 22,
    "prefecture": "静岡県",
    "city": "焼津市",
    "town": "中根"
  },
  "4250062": {
    "zipcode": "4250062",
    "prefectureCode": "22",
    "prefectureNumber": 22,
    "prefecture": "静岡県",
    "city": "焼津市",
    "town": "中根新田"
  },
  "4250063": {
    "zipcode": "4250063",
    "prefectureCode": "22",
    "prefectureNumber": 22,
    "prefecture": "静岡県",
    "city": "焼津市",
    "town": "本中根"
  },
  "4250064": {
    "zipcode": "4250064",
    "prefectureCode": "22",
    "prefectureNumber": 22,
    "prefecture": "静岡県",
    "city": "焼津市",
    "town": "三和"
  },
  "4250065": {
    "zipcode": "4250065",
    "prefectureCode": "22",
    "prefectureNumber": 22,
    "prefecture": "静岡県",
    "city": "焼津市",
    "town": "惣右衛門"
  },
  "4250066": {
    "zipcode": "4250066",
    "prefectureCode": "22",
    "prefectureNumber": 22,
    "prefecture": "静岡県",
    "city": "焼津市",
    "town": "大島"
  },
  "4250067": {
    "zipcode": "4250067",
    "prefectureCode": "22",
    "prefectureNumber": 22,
    "prefecture": "静岡県",
    "city": "焼津市",
    "town": "治長請所"
  },
  "4250068": {
    "zipcode": "4250068",
    "prefectureCode": "22",
    "prefectureNumber": 22,
    "prefecture": "静岡県",
    "city": "焼津市",
    "town": "中新田"
  },
  "4250069": {
    "zipcode": "4250069",
    "prefectureCode": "22",
    "prefectureNumber": 22,
    "prefecture": "静岡県",
    "city": "焼津市",
    "town": "大島新田"
  },
  "4250071": {
    "zipcode": "4250071",
    "prefectureCode": "22",
    "prefectureNumber": 22,
    "prefecture": "静岡県",
    "city": "焼津市",
    "town": "三ケ名"
  },
  "4250072": {
    "zipcode": "4250072",
    "prefectureCode": "22",
    "prefectureNumber": 22,
    "prefecture": "静岡県",
    "city": "焼津市",
    "town": "大住"
  },
  "4250073": {
    "zipcode": "4250073",
    "prefectureCode": "22",
    "prefectureNumber": 22,
    "prefecture": "静岡県",
    "city": "焼津市",
    "town": "小柳津"
  },
  "4250074": {
    "zipcode": "4250074",
    "prefectureCode": "22",
    "prefectureNumber": 22,
    "prefecture": "静岡県",
    "city": "焼津市",
    "town": "柳新屋"
  },
  "4250075": {
    "zipcode": "4250075",
    "prefectureCode": "22",
    "prefectureNumber": 22,
    "prefecture": "静岡県",
    "city": "焼津市",
    "town": "西焼津"
  },
  "4250076": {
    "zipcode": "4250076",
    "prefectureCode": "22",
    "prefectureNumber": 22,
    "prefecture": "静岡県",
    "city": "焼津市",
    "town": "小屋敷"
  },
  "4250077": {
    "zipcode": "4250077",
    "prefectureCode": "22",
    "prefectureNumber": 22,
    "prefecture": "静岡県",
    "city": "焼津市",
    "town": "五ケ堀之内"
  },
  "4250081": {
    "zipcode": "4250081",
    "prefectureCode": "22",
    "prefectureNumber": 22,
    "prefecture": "静岡県",
    "city": "焼津市",
    "town": "大栄町"
  },
  "4250082": {
    "zipcode": "4250082",
    "prefectureCode": "22",
    "prefectureNumber": 22,
    "prefecture": "静岡県",
    "city": "焼津市",
    "town": "大村"
  },
  "4250083": {
    "zipcode": "4250083",
    "prefectureCode": "22",
    "prefectureNumber": 22,
    "prefecture": "静岡県",
    "city": "焼津市",
    "town": "大"
  },
  "4250084": {
    "zipcode": "4250084",
    "prefectureCode": "22",
    "prefectureNumber": 22,
    "prefecture": "静岡県",
    "city": "焼津市",
    "town": "大村新田"
  },
  "4250085": {
    "zipcode": "4250085",
    "prefectureCode": "22",
    "prefectureNumber": 22,
    "prefecture": "静岡県",
    "city": "焼津市",
    "town": "塩津"
  },
  "4250086": {
    "zipcode": "4250086",
    "prefectureCode": "22",
    "prefectureNumber": 22,
    "prefecture": "静岡県",
    "city": "焼津市",
    "town": "小土"
  },
  "4250087": {
    "zipcode": "4250087",
    "prefectureCode": "22",
    "prefectureNumber": 22,
    "prefecture": "静岡県",
    "city": "焼津市",
    "town": "保福島"
  },
  "4250088": {
    "zipcode": "4250088",
    "prefectureCode": "22",
    "prefectureNumber": 22,
    "prefecture": "静岡県",
    "city": "焼津市",
    "town": "大覚寺"
  },
  "4250091": {
    "zipcode": "4250091",
    "prefectureCode": "22",
    "prefectureNumber": 22,
    "prefecture": "静岡県",
    "city": "焼津市",
    "town": "八楠"
  },
  "4250092": {
    "zipcode": "4250092",
    "prefectureCode": "22",
    "prefectureNumber": 22,
    "prefecture": "静岡県",
    "city": "焼津市",
    "town": "越後島"
  }
}
