{
  "4270000": {
    "zipcode": "4270000",
    "prefectureCode": "22",
    "prefectureNumber": 22,
    "prefecture": "静岡県",
    "city": "島田市",
    "town": "以下に掲載がない場合"
  },
  "4270001": {
    "zipcode": "4270001",
    "prefectureCode": "22",
    "prefectureNumber": 22,
    "prefecture": "静岡県",
    "city": "島田市",
    "town": "千葉"
  },
  "4270002": {
    "zipcode": "4270002",
    "prefectureCode": "22",
    "prefectureNumber": 22,
    "prefecture": "静岡県",
    "city": "島田市",
    "town": "大草"
  },
  "4270003": {
    "zipcode": "4270003",
    "prefectureCode": "22",
    "prefectureNumber": 22,
    "prefecture": "静岡県",
    "city": "島田市",
    "town": "東光寺"
  },
  "4270004": {
    "zipcode": "4270004",
    "prefectureCode": "22",
    "prefectureNumber": 22,
    "prefecture": "静岡県",
    "city": "島田市",
    "town": "岸"
  },
  "4270005": {
    "zipcode": "4270005",
    "prefectureCode": "22",
    "prefectureNumber": 22,
    "prefecture": "静岡県",
    "city": "島田市",
    "town": "岸町"
  },
  "4270006": {
    "zipcode": "4270006",
    "prefectureCode": "22",
    "prefectureNumber": 22,
    "prefecture": "静岡県",
    "city": "島田市",
    "town": "阿知ケ谷"
  },
  "4270007": {
    "zipcode": "4270007",
    "prefectureCode": "22",
    "prefectureNumber": 22,
    "prefecture": "静岡県",
    "city": "島田市",
    "town": "野田"
  },
  "4270008": {
    "zipcode": "4270008",
    "prefectureCode": "22",
    "prefectureNumber": 22,
    "prefecture": "静岡県",
    "city": "島田市",
    "town": "落合"
  },
  "4270009": {
    "zipcode": "4270009",
    "prefectureCode": "22",
    "prefectureNumber": 22,
    "prefecture": "静岡県",
    "city": "島田市",
    "town": "尾川"
  },
  "4270011": {
    "zipcode": "4270011",
    "prefectureCode": "22",
    "prefectureNumber": 22,
    "prefecture": "静岡県",
    "city": "島田市",
    "town": "東町"
  },
  "4270012": {
    "zipcode": "4270012",
    "prefectureCode": "22",
    "prefectureNumber": 22,
    "prefecture": "静岡県",
    "city": "島田市",
    "town": "細島"
  },
  "4270013": {
    "zipcode": "4270013",
    "prefectureCode": "22",
    "prefectureNumber": 22,
    "prefecture": "静岡県",
    "city": "島田市",
    "town": "御請"
  },
  "4270014": {
    "zipcode": "4270014",
    "prefectureCode": "22",
    "prefectureNumber": 22,
    "prefecture": "静岡県",
    "city": "島田市",
    "town": "道悦島"
  },
  "4270015": {
    "zipcode": "4270015",
    "prefectureCode": "22",
    "prefectureNumber": 22,
    "prefecture": "静岡県",
    "city": "島田市",
    "town": "高島町"
  },
  "4270016": {
    "zipcode": "4270016",
    "prefectureCode": "22",
    "prefectureNumber": 22,
    "prefecture": "静岡県",
    "city": "島田市",
    "town": "宝来町"
  },
  "4270017": {
    "zipcode": "4270017",
    "prefectureCode": "22",
    "prefectureNumber": 22,
    "prefecture": "静岡県",
    "city": "島田市",
    "town": "南"
  },
  "4270018": {
    "zipcode": "4270018",
    "prefectureCode": "22",
    "prefectureNumber": 22,
    "prefecture": "静岡県",
    "city": "島田市",
    "town": "旭"
  },
  "4270019": {
    "zipcode": "4270019",
    "prefectureCode": "22",
    "prefectureNumber": 22,
    "prefecture": "静岡県",
    "city": "島田市",
    "town": "道悦"
  },
  "4270021": {
    "zipcode": "4270021",
    "prefectureCode": "22",
    "prefectureNumber": 22,
    "prefecture": "静岡県",
    "city": "島田市",
    "town": "柳町"
  },
  "4270022": {
    "zipcode": "4270022",
    "prefectureCode": "22",
    "prefectureNumber": 22,
    "prefecture": "静岡県",
    "city": "島田市",
    "town": "本通"
  },
  "4270023": {
    "zipcode": "4270023",
    "prefectureCode": "22",
    "prefectureNumber": 22,
    "prefecture": "静岡県",
    "city": "島田市",
    "town": "大川町"
  },
  "4270024": {
    "zipcode": "4270024",
    "prefectureCode": "22",
    "prefectureNumber": 22,
    "prefecture": "静岡県",
    "city": "島田市",
    "town": "横井"
  },
  "4270025": {
    "zipcode": "4270025",
    "prefectureCode": "22",
    "prefectureNumber": 22,
    "prefecture": "静岡県",
    "city": "島田市",
    "town": "大井町"
  },
  "4270026": {
    "zipcode": "4270026",
    "prefectureCode": "22",
    "prefectureNumber": 22,
    "prefecture": "静岡県",
    "city": "島田市",
    "town": "扇町"
  },
  "4270027": {
    "zipcode": "4270027",
    "prefectureCode": "22",
    "prefectureNumber": 22,
    "prefecture": "静岡県",
    "city": "島田市",
    "town": "幸町"
  },
  "4270028": {
    "zipcode": "4270028",
    "prefectureCode": "22",
    "prefectureNumber": 22,
    "prefecture": "静岡県",
    "city": "島田市",
    "town": "栄町"
  },
  "4270029": {
    "zipcode": "4270029",
    "prefectureCode": "22",
    "prefectureNumber": 22,
    "prefecture": "静岡県",
    "city": "島田市",
    "town": "日之出町"
  },
  "4270031": {
    "zipcode": "4270031",
    "prefectureCode": "22",
    "prefectureNumber": 22,
    "prefecture": "静岡県",
    "city": "島田市",
    "town": "鵜網"
  },
  "4270032": {
    "zipcode": "4270032",
    "prefectureCode": "22",
    "prefectureNumber": 22,
    "prefecture": "静岡県",
    "city": "島田市",
    "town": "神座"
  },
  "4270033": {
    "zipcode": "4270033",
    "prefectureCode": "22",
    "prefectureNumber": 22,
    "prefecture": "静岡県",
    "city": "島田市",
    "town": "相賀"
  },
  "4270034": {
    "zipcode": "4270034",
    "prefectureCode": "22",
    "prefectureNumber": 22,
    "prefecture": "静岡県",
    "city": "島田市",
    "town": "伊太"
  },
  "4270035": {
    "zipcode": "4270035",
    "prefectureCode": "22",
    "prefectureNumber": 22,
    "prefecture": "静岡県",
    "city": "島田市",
    "town": "向谷元町"
  },
  "4270036": {
    "zipcode": "4270036",
    "prefectureCode": "22",
    "prefectureNumber": 22,
    "prefecture": "静岡県",
    "city": "島田市",
    "town": "三ツ合町"
  },
  "4270037": {
    "zipcode": "4270037",
    "prefectureCode": "22",
    "prefectureNumber": 22,
    "prefecture": "静岡県",
    "city": "島田市",
    "town": "河原"
  },
  "4270038": {
    "zipcode": "4270038",
    "prefectureCode": "22",
    "prefectureNumber": 22,
    "prefecture": "静岡県",
    "city": "島田市",
    "town": "稲荷"
  },
  "4270039": {
    "zipcode": "4270039",
    "prefectureCode": "22",
    "prefectureNumber": 22,
    "prefecture": "静岡県",
    "city": "島田市",
    "town": "向谷"
  },
  "4270041": {
    "zipcode": "4270041",
    "prefectureCode": "22",
    "prefectureNumber": 22,
    "prefecture": "静岡県",
    "city": "島田市",
    "town": "中河町"
  },
  "4270042": {
    "zipcode": "4270042",
    "prefectureCode": "22",
    "prefectureNumber": 22,
    "prefecture": "静岡県",
    "city": "島田市",
    "town": "中央町"
  },
  "4270043": {
    "zipcode": "4270043",
    "prefectureCode": "22",
    "prefectureNumber": 22,
    "prefecture": "静岡県",
    "city": "島田市",
    "town": "中溝"
  },
  "4270044": {
    "zipcode": "4270044",
    "prefectureCode": "22",
    "prefectureNumber": 22,
    "prefecture": "静岡県",
    "city": "島田市",
    "town": "宮川町"
  },
  "4270045": {
    "zipcode": "4270045",
    "prefectureCode": "22",
    "prefectureNumber": 22,
    "prefecture": "静岡県",
    "city": "島田市",
    "town": "向島町"
  },
  "4270046": {
    "zipcode": "4270046",
    "prefectureCode": "22",
    "prefectureNumber": 22,
    "prefecture": "静岡県",
    "city": "島田市",
    "town": "若松町"
  },
  "4270047": {
    "zipcode": "4270047",
    "prefectureCode": "22",
    "prefectureNumber": 22,
    "prefecture": "静岡県",
    "city": "島田市",
    "town": "中溝町"
  },
  "4270048": {
    "zipcode": "4270048",
    "prefectureCode": "22",
    "prefectureNumber": 22,
    "prefecture": "静岡県",
    "city": "島田市",
    "town": "旗指"
  },
  "4270051": {
    "zipcode": "4270051",
    "prefectureCode": "22",
    "prefectureNumber": 22,
    "prefecture": "静岡県",
    "city": "島田市",
    "town": "元島田東町"
  },
  "4270052": {
    "zipcode": "4270052",
    "prefectureCode": "22",
    "prefectureNumber": 22,
    "prefecture": "静岡県",
    "city": "島田市",
    "town": "松葉町"
  },
  "4270053": {
    "zipcode": "4270053",
    "prefectureCode": "22",
    "prefectureNumber": 22,
    "prefecture": "静岡県",
    "city": "島田市",
    "town": "御仮屋町"
  },
  "4270054": {
    "zipcode": "4270054",
    "prefectureCode": "22",
    "prefectureNumber": 22,
    "prefecture": "静岡県",
    "city": "島田市",
    "town": "高砂町"
  },
  "4270055": {
    "zipcode": "4270055",
    "prefectureCode": "22",
    "prefectureNumber": 22,
    "prefecture": "静岡県",
    "city": "島田市",
    "town": "新町通"
  },
  "4270056": {
    "zipcode": "4270056",
    "prefectureCode": "22",
    "prefectureNumber": 22,
    "prefecture": "静岡県",
    "city": "島田市",
    "town": "大津通"
  },
  "4270057": {
    "zipcode": "4270057",
    "prefectureCode": "22",
    "prefectureNumber": 22,
    "prefecture": "静岡県",
    "city": "島田市",
    "town": "元島田"
  },
  "4270058": {
    "zipcode": "4270058",
    "prefectureCode": "22",
    "prefectureNumber": 22,
    "prefecture": "静岡県",
    "city": "島田市",
    "town": "祇園町"
  },
  "4270059": {
    "zipcode": "4270059",
    "prefectureCode": "22",
    "prefectureNumber": 22,
    "prefecture": "静岡県",
    "city": "島田市",
    "town": "新田町"
  },
  "4270061": {
    "zipcode": "4270061",
    "prefectureCode": "22",
    "prefectureNumber": 22,
    "prefecture": "静岡県",
    "city": "島田市",
    "town": "ばらの丘"
  },
  "4270101": {
    "zipcode": "4270101",
    "prefectureCode": "22",
    "prefectureNumber": 22,
    "prefecture": "静岡県",
    "city": "島田市",
    "town": "大柳"
  },
  "4270102": {
    "zipcode": "4270102",
    "prefectureCode": "22",
    "prefectureNumber": 22,
    "prefecture": "静岡県",
    "city": "島田市",
    "town": "大柳南"
  },
  "4270103": {
    "zipcode": "4270103",
    "prefectureCode": "22",
    "prefectureNumber": 22,
    "prefecture": "静岡県",
    "city": "島田市",
    "town": "中河"
  },
  "4270104": {
    "zipcode": "4270104",
    "prefectureCode": "22",
    "prefectureNumber": 22,
    "prefecture": "静岡県",
    "city": "島田市",
    "town": "井口"
  },
  "4270105": {
    "zipcode": "4270105",
    "prefectureCode": "22",
    "prefectureNumber": 22,
    "prefecture": "静岡県",
    "city": "島田市",
    "town": "南原"
  },
  "4270106": {
    "zipcode": "4270106",
    "prefectureCode": "22",
    "prefectureNumber": 22,
    "prefecture": "静岡県",
    "city": "島田市",
    "town": "岡田"
  },
  "4270107": {
    "zipcode": "4270107",
    "prefectureCode": "22",
    "prefectureNumber": 22,
    "prefecture": "静岡県",
    "city": "島田市",
    "town": "船木"
  },
  "4270108": {
    "zipcode": "4270108",
    "prefectureCode": "22",
    "prefectureNumber": 22,
    "prefecture": "静岡県",
    "city": "島田市",
    "town": "牧之原（その他）"
  },
  "4270111": {
    "zipcode": "4270111",
    "prefectureCode": "22",
    "prefectureNumber": 22,
    "prefecture": "静岡県",
    "city": "島田市",
    "town": "阪本"
  },
  "4270112": {
    "zipcode": "4270112",
    "prefectureCode": "22",
    "prefectureNumber": 22,
    "prefecture": "静岡県",
    "city": "島田市",
    "town": "月坂"
  },
  "4270113": {
    "zipcode": "4270113",
    "prefectureCode": "22",
    "prefectureNumber": 22,
    "prefecture": "静岡県",
    "city": "島田市",
    "town": "湯日"
  },
  "4270231": {
    "zipcode": "4270231",
    "prefectureCode": "22",
    "prefectureNumber": 22,
    "prefecture": "静岡県",
    "city": "島田市",
    "town": "笹間下"
  },
  "4270232": {
    "zipcode": "4270232",
    "prefectureCode": "22",
    "prefectureNumber": 22,
    "prefecture": "静岡県",
    "city": "島田市",
    "town": "伊久美"
  },
  "4270233": {
    "zipcode": "4270233",
    "prefectureCode": "22",
    "prefectureNumber": 22,
    "prefecture": "静岡県",
    "city": "島田市",
    "town": "身成"
  }
}
