{
  "4300801": {
    "zipcode": "4300801",
    "prefectureCode": "22",
    "prefectureNumber": 22,
    "prefecture": "静岡県",
    "city": "浜松市中央区",
    "town": "神立町"
  },
  "4300802": {
    "zipcode": "4300802",
    "prefectureCode": "22",
    "prefectureNumber": 22,
    "prefecture": "静岡県",
    "city": "浜松市中央区",
    "town": "将監町"
  },
  "4300803": {
    "zipcode": "4300803",
    "prefectureCode": "22",
    "prefectureNumber": 22,
    "prefecture": "静岡県",
    "city": "浜松市中央区",
    "town": "植松町"
  },
  "4300804": {
    "zipcode": "4300804",
    "prefectureCode": "22",
    "prefectureNumber": 22,
    "prefecture": "静岡県",
    "city": "浜松市中央区",
    "town": "富吉町"
  },
  "4300805": {
    "zipcode": "4300805",
    "prefectureCode": "22",
    "prefectureNumber": 22,
    "prefecture": "静岡県",
    "city": "浜松市中央区",
    "town": "相生町"
  },
  "4300806": {
    "zipcode": "4300806",
    "prefectureCode": "22",
    "prefectureNumber": 22,
    "prefecture": "静岡県",
    "city": "浜松市中央区",
    "town": "木戸町"
  },
  "4300807": {
    "zipcode": "4300807",
    "prefectureCode": "22",
    "prefectureNumber": 22,
    "prefecture": "静岡県",
    "city": "浜松市中央区",
    "town": "佐藤"
  },
  "4300808": {
    "zipcode": "4300808",
    "prefectureCode": "22",
    "prefectureNumber": 22,
    "prefecture": "静岡県",
    "city": "浜松市中央区",
    "town": "天神町"
  },
  "4300811": {
    "zipcode": "4300811",
    "prefectureCode": "22",
    "prefectureNumber": 22,
    "prefecture": "静岡県",
    "city": "浜松市中央区",
    "town": "名塚町"
  },
  "4300812": {
    "zipcode": "4300812",
    "prefectureCode": "22",
    "prefectureNumber": 22,
    "prefecture": "静岡県",
    "city": "浜松市中央区",
    "town": "本郷町"
  },
  "4300813": {
    "zipcode": "4300813",
    "prefectureCode": "22",
    "prefectureNumber": 22,
    "prefecture": "静岡県",
    "city": "浜松市中央区",
    "town": "芳川町"
  },
  "4300814": {
    "zipcode": "4300814",
    "prefectureCode": "22",
    "prefectureNumber": 22,
    "prefecture": "静岡県",
    "city": "浜松市中央区",
    "town": "恩地町"
  },
  "4300815": {
    "zipcode": "4300815",
    "prefectureCode": "22",
    "prefectureNumber": 22,
    "prefecture": "静岡県",
    "city": "浜松市中央区",
    "town": "都盛町"
  },
  "4300816": {
    "zipcode": "4300816",
    "prefectureCode": "22",
    "prefectureNumber": 22,
    "prefecture": "静岡県",
    "city": "浜松市中央区",
    "town": "参野町"
  },
  "4300817": {
    "zipcode": "4300817",
    "prefectureCode": "22",
    "prefectureNumber": 22,
    "prefecture": "静岡県",
    "city": "浜松市中央区",
    "town": "頭陀寺町"
  },
  "4300821": {
    "zipcode": "4300821",
    "prefectureCode": "22",
    "prefectureNumber": 22,
    "prefecture": "静岡県",
    "city": "浜松市中央区",
    "town": "西町"
  },
  "4300822": {
    "zipcode": "4300822",
    "prefectureCode": "22",
    "prefectureNumber": 22,
    "prefecture": "静岡県",
    "city": "浜松市中央区",
    "town": "東町"
  },
  "4300823": {
    "zipcode": "4300823",
    "prefectureCode": "22",
    "prefectureNumber": 22,
    "prefecture": "静岡県",
    "city": "浜松市中央区",
    "town": "河輪町"
  },
  "4300824": {
    "zipcode": "4300824",
    "prefectureCode": "22",
    "prefectureNumber": 22,
    "prefecture": "静岡県",
    "city": "浜松市中央区",
    "town": "富屋町"
  },
  "4300825": {
    "zipcode": "4300825",
    "prefectureCode": "22",
    "prefectureNumber": 22,
    "prefecture": "静岡県",
    "city": "浜松市中央区",
    "town": "下江町"
  },
  "4300826": {
    "zipcode": "4300826",
    "prefectureCode": "22",
    "prefectureNumber": 22,
    "prefecture": "静岡県",
    "city": "浜松市中央区",
    "town": "四本松町"
  },
  "4300827": {
    "zipcode": "4300827",
    "prefectureCode": "22",
    "prefectureNumber": 22,
    "prefecture": "静岡県",
    "city": "浜松市中央区",
    "town": "立野町"
  },
  "4300831": {
    "zipcode": "4300831",
    "prefectureCode": "22",
    "prefectureNumber": 22,
    "prefecture": "静岡県",
    "city": "浜松市中央区",
    "town": "御給町"
  },
  "4300832": {
    "zipcode": "4300832",
    "prefectureCode": "22",
    "prefectureNumber": 22,
    "prefecture": "静岡県",
    "city": "浜松市中央区",
    "town": "長田町"
  },
  "4300833": {
    "zipcode": "4300833",
    "prefectureCode": "22",
    "prefectureNumber": 22,
    "prefecture": "静岡県",
    "city": "浜松市中央区",
    "town": "三新町"
  },
  "4300834": {
    "zipcode": "4300834",
    "prefectureCode": "22",
    "prefectureNumber": 22,
    "prefecture": "静岡県",
    "city": "浜松市中央区",
    "town": "松島町"
  },
  "4300835": {
    "zipcode": "4300835",
    "prefectureCode": "22",
    "prefectureNumber": 22,
    "prefecture": "静岡県",
    "city": "浜松市中央区",
    "town": "遠州浜"
  },
  "4300836": {
    "zipcode": "4300836",
    "prefectureCode": "22",
    "prefectureNumber": 22,
    "prefecture": "静岡県",
    "city": "浜松市中央区",
    "town": "福島町"
  },
  "4300837": {
    "zipcode": "4300837",
    "prefectureCode": "22",
    "prefectureNumber": 22,
    "prefecture": "静岡県",
    "city": "浜松市中央区",
    "town": "西島町"
  },
  "4300838": {
    "zipcode": "4300838",
    "prefectureCode": "22",
    "prefectureNumber": 22,
    "prefecture": "静岡県",
    "city": "浜松市中央区",
    "town": "鼡野町"
  },
  "4300841": {
    "zipcode": "4300841",
    "prefectureCode": "22",
    "prefectureNumber": 22,
    "prefecture": "静岡県",
    "city": "浜松市中央区",
    "town": "寺脇町"
  },
  "4300842": {
    "zipcode": "4300842",
    "prefectureCode": "22",
    "prefectureNumber": 22,
    "prefecture": "静岡県",
    "city": "浜松市中央区",
    "town": "大柳町"
  },
  "4300843": {
    "zipcode": "4300843",
    "prefectureCode": "22",
    "prefectureNumber": 22,
    "prefecture": "静岡県",
    "city": "浜松市中央区",
    "town": "福塚町"
  },
  "4300844": {
    "zipcode": "4300844",
    "prefectureCode": "22",
    "prefectureNumber": 22,
    "prefecture": "静岡県",
    "city": "浜松市中央区",
    "town": "江之島町"
  },
  "4300845": {
    "zipcode": "4300845",
    "prefectureCode": "22",
    "prefectureNumber": 22,
    "prefecture": "静岡県",
    "city": "浜松市中央区",
    "town": "中田島町"
  },
  "4300846": {
    "zipcode": "4300846",
    "prefectureCode": "22",
    "prefectureNumber": 22,
    "prefecture": "静岡県",
    "city": "浜松市中央区",
    "town": "白羽町"
  },
  "4300851": {
    "zipcode": "4300851",
    "prefectureCode": "22",
    "prefectureNumber": 22,
    "prefecture": "静岡県",
    "city": "浜松市中央区",
    "town": "向宿"
  },
  "4300852": {
    "zipcode": "4300852",
    "prefectureCode": "22",
    "prefectureNumber": 22,
    "prefecture": "静岡県",
    "city": "浜松市中央区",
    "town": "領家"
  },
  "4300853": {
    "zipcode": "4300853",
    "prefectureCode": "22",
    "prefectureNumber": 22,
    "prefecture": "静岡県",
    "city": "浜松市中央区",
    "town": "三島町"
  },
  "4300854": {
    "zipcode": "4300854",
    "prefectureCode": "22",
    "prefectureNumber": 22,
    "prefecture": "静岡県",
    "city": "浜松市中央区",
    "town": "瓜内町"
  },
  "4300855": {
    "zipcode": "4300855",
    "prefectureCode": "22",
    "prefectureNumber": 22,
    "prefecture": "静岡県",
    "city": "浜松市中央区",
    "town": "楊子町"
  },
  "4300856": {
    "zipcode": "4300856",
    "prefectureCode": "22",
    "prefectureNumber": 22,
    "prefecture": "静岡県",
    "city": "浜松市中央区",
    "town": "中島"
  },
  "4300857": {
    "zipcode": "4300857",
    "prefectureCode": "22",
    "prefectureNumber": 22,
    "prefecture": "静岡県",
    "city": "浜松市中央区",
    "town": "中島町"
  },
  "4300901": {
    "zipcode": "4300901",
    "prefectureCode": "22",
    "prefectureNumber": 22,
    "prefecture": "静岡県",
    "city": "浜松市中央区",
    "town": "曳馬"
  },
  "4300902": {
    "zipcode": "4300902",
    "prefectureCode": "22",
    "prefectureNumber": 22,
    "prefecture": "静岡県",
    "city": "浜松市中央区",
    "town": "曳馬町"
  },
  "4300903": {
    "zipcode": "4300903",
    "prefectureCode": "22",
    "prefectureNumber": 22,
    "prefecture": "静岡県",
    "city": "浜松市中央区",
    "town": "助信町"
  },
  "4300904": {
    "zipcode": "4300904",
    "prefectureCode": "22",
    "prefectureNumber": 22,
    "prefecture": "静岡県",
    "city": "浜松市中央区",
    "town": "中沢町"
  },
  "4300905": {
    "zipcode": "4300905",
    "prefectureCode": "22",
    "prefectureNumber": 22,
    "prefecture": "静岡県",
    "city": "浜松市中央区",
    "town": "下池川町"
  },
  "4300906": {
    "zipcode": "4300906",
    "prefectureCode": "22",
    "prefectureNumber": 22,
    "prefecture": "静岡県",
    "city": "浜松市中央区",
    "town": "住吉"
  },
  "4300907": {
    "zipcode": "4300907",
    "prefectureCode": "22",
    "prefectureNumber": 22,
    "prefecture": "静岡県",
    "city": "浜松市中央区",
    "town": "高林"
  },
  "4300911": {
    "zipcode": "4300911",
    "prefectureCode": "22",
    "prefectureNumber": 22,
    "prefecture": "静岡県",
    "city": "浜松市中央区",
    "town": "新津町"
  },
  "4300912": {
    "zipcode": "4300912",
    "prefectureCode": "22",
    "prefectureNumber": 22,
    "prefecture": "静岡県",
    "city": "浜松市中央区",
    "town": "茄子町"
  },
  "4300913": {
    "zipcode": "4300913",
    "prefectureCode": "22",
    "prefectureNumber": 22,
    "prefecture": "静岡県",
    "city": "浜松市中央区",
    "town": "船越町"
  },
  "4300915": {
    "zipcode": "4300915",
    "prefectureCode": "22",
    "prefectureNumber": 22,
    "prefecture": "静岡県",
    "city": "浜松市中央区",
    "town": "東田町"
  },
  "4300916": {
    "zipcode": "4300916",
    "prefectureCode": "22",
    "prefectureNumber": 22,
    "prefecture": "静岡県",
    "city": "浜松市中央区",
    "town": "早馬町"
  },
  "4300917": {
    "zipcode": "4300917",
    "prefectureCode": "22",
    "prefectureNumber": 22,
    "prefecture": "静岡県",
    "city": "浜松市中央区",
    "town": "常盤町"
  },
  "4300918": {
    "zipcode": "4300918",
    "prefectureCode": "22",
    "prefectureNumber": 22,
    "prefecture": "静岡県",
    "city": "浜松市中央区",
    "town": "八幡町"
  },
  "4300919": {
    "zipcode": "4300919",
    "prefectureCode": "22",
    "prefectureNumber": 22,
    "prefecture": "静岡県",
    "city": "浜松市中央区",
    "town": "野口町"
  },
  "4300923": {
    "zipcode": "4300923",
    "prefectureCode": "22",
    "prefectureNumber": 22,
    "prefecture": "静岡県",
    "city": "浜松市中央区",
    "town": "北寺島町"
  },
  "4300924": {
    "zipcode": "4300924",
    "prefectureCode": "22",
    "prefectureNumber": 22,
    "prefecture": "静岡県",
    "city": "浜松市中央区",
    "town": "龍禅寺町"
  },
  "4300925": {
    "zipcode": "4300925",
    "prefectureCode": "22",
    "prefectureNumber": 22,
    "prefecture": "静岡県",
    "city": "浜松市中央区",
    "town": "寺島町"
  },
  "4300926": {
    "zipcode": "4300926",
    "prefectureCode": "22",
    "prefectureNumber": 22,
    "prefecture": "静岡県",
    "city": "浜松市中央区",
    "town": "砂山町"
  },
  "4300927": {
    "zipcode": "4300927",
    "prefectureCode": "22",
    "prefectureNumber": 22,
    "prefecture": "静岡県",
    "city": "浜松市中央区",
    "town": "旭町"
  },
  "4300928": {
    "zipcode": "4300928",
    "prefectureCode": "22",
    "prefectureNumber": 22,
    "prefecture": "静岡県",
    "city": "浜松市中央区",
    "town": "板屋町（次のビルを除く）"
  },
  "4300929": {
    "zipcode": "4300929",
    "prefectureCode": "22",
    "prefectureNumber": 22,
    "prefecture": "静岡県",
    "city": "浜松市中央区",
    "town": "中央"
  },
  "4300931": {
    "zipcode": "4300931",
    "prefectureCode": "22",
    "prefectureNumber": 22,
    "prefecture": "静岡県",
    "city": "浜松市中央区",
    "town": "神明町"
  },
  "4300932": {
    "zipcode": "4300932",
    "prefectureCode": "22",
    "prefectureNumber": 22,
    "prefecture": "静岡県",
    "city": "浜松市中央区",
    "town": "肴町"
  },
  "4300933": {
    "zipcode": "4300933",
    "prefectureCode": "22",
    "prefectureNumber": 22,
    "prefecture": "静岡県",
    "city": "浜松市中央区",
    "town": "鍛冶町"
  },
  "4300934": {
    "zipcode": "4300934",
    "prefectureCode": "22",
    "prefectureNumber": 22,
    "prefecture": "静岡県",
    "city": "浜松市中央区",
    "town": "千歳町"
  },
  "4300935": {
    "zipcode": "4300935",
    "prefectureCode": "22",
    "prefectureNumber": 22,
    "prefecture": "静岡県",
    "city": "浜松市中央区",
    "town": "伝馬町"
  },
  "4300936": {
    "zipcode": "4300936",
    "prefectureCode": "22",
    "prefectureNumber": 22,
    "prefecture": "静岡県",
    "city": "浜松市中央区",
    "town": "大工町"
  },
  "4300937": {
    "zipcode": "4300937",
    "prefectureCode": "22",
    "prefectureNumber": 22,
    "prefecture": "静岡県",
    "city": "浜松市中央区",
    "town": "利町"
  },
  "4300938": {
    "zipcode": "4300938",
    "prefectureCode": "22",
    "prefectureNumber": 22,
    "prefecture": "静岡県",
    "city": "浜松市中央区",
    "town": "紺屋町"
  },
  "4300939": {
    "zipcode": "4300939",
    "prefectureCode": "22",
    "prefectureNumber": 22,
    "prefecture": "静岡県",
    "city": "浜松市中央区",
    "town": "連尺町"
  },
  "4300941": {
    "zipcode": "4300941",
    "prefectureCode": "22",
    "prefectureNumber": 22,
    "prefecture": "静岡県",
    "city": "浜松市中央区",
    "town": "山下町"
  },
  "4300942": {
    "zipcode": "4300942",
    "prefectureCode": "22",
    "prefectureNumber": 22,
    "prefecture": "静岡県",
    "city": "浜松市中央区",
    "town": "元浜町"
  },
  "4300943": {
    "zipcode": "4300943",
    "prefectureCode": "22",
    "prefectureNumber": 22,
    "prefecture": "静岡県",
    "city": "浜松市中央区",
    "town": "北田町"
  },
  "4300944": {
    "zipcode": "4300944",
    "prefectureCode": "22",
    "prefectureNumber": 22,
    "prefecture": "静岡県",
    "city": "浜松市中央区",
    "town": "田町"
  },
  "4300945": {
    "zipcode": "4300945",
    "prefectureCode": "22",
    "prefectureNumber": 22,
    "prefecture": "静岡県",
    "city": "浜松市中央区",
    "town": "池町"
  },
  "4300946": {
    "zipcode": "4300946",
    "prefectureCode": "22",
    "prefectureNumber": 22,
    "prefecture": "静岡県",
    "city": "浜松市中央区",
    "town": "元城町"
  },
  "4300947": {
    "zipcode": "4300947",
    "prefectureCode": "22",
    "prefectureNumber": 22,
    "prefecture": "静岡県",
    "city": "浜松市中央区",
    "town": "松城町"
  },
  "4300948": {
    "zipcode": "4300948",
    "prefectureCode": "22",
    "prefectureNumber": 22,
    "prefecture": "静岡県",
    "city": "浜松市中央区",
    "town": "元目町"
  },
  "4300949": {
    "zipcode": "4300949",
    "prefectureCode": "22",
    "prefectureNumber": 22,
    "prefecture": "静岡県",
    "city": "浜松市中央区",
    "town": "尾張町"
  },
  "4307701": {
    "zipcode": "4307701",
    "prefectureCode": "22",
    "prefectureNumber": 22,
    "prefecture": "静岡県",
    "city": "浜松市中央区",
    "town": "板屋町浜松アクトタワー（１階）"
  },
  "4307702": {
    "zipcode": "4307702",
    "prefectureCode": "22",
    "prefectureNumber": 22,
    "prefecture": "静岡県",
    "city": "浜松市中央区",
    "town": "板屋町浜松アクトタワー（２階）"
  },
  "4307703": {
    "zipcode": "4307703",
    "prefectureCode": "22",
    "prefectureNumber": 22,
    "prefecture": "静岡県",
    "city": "浜松市中央区",
    "town": "板屋町浜松アクトタワー（３階）"
  },
  "4307704": {
    "zipcode": "4307704",
    "prefectureCode": "22",
    "prefectureNumber": 22,
    "prefecture": "静岡県",
    "city": "浜松市中央区",
    "town": "板屋町浜松アクトタワー（４階）"
  },
  "4307705": {
    "zipcode": "4307705",
    "prefectureCode": "22",
    "prefectureNumber": 22,
    "prefecture": "静岡県",
    "city": "浜松市中央区",
    "town": "板屋町浜松アクトタワー（５階）"
  },
  "4307706": {
    "zipcode": "4307706",
    "prefectureCode": "22",
    "prefectureNumber": 22,
    "prefecture": "静岡県",
    "city": "浜松市中央区",
    "town": "板屋町浜松アクトタワー（６階）"
  },
  "4307707": {
    "zipcode": "4307707",
    "prefectureCode": "22",
    "prefectureNumber": 22,
    "prefecture": "静岡県",
    "city": "浜松市中央区",
    "town": "板屋町浜松アクトタワー（７階）"
  },
  "4307708": {
    "zipcode": "4307708",
    "prefectureCode": "22",
    "prefectureNumber": 22,
    "prefecture": "静岡県",
    "city": "浜松市中央区",
    "town": "板屋町浜松アクトタワー（８階）"
  },
  "4307709": {
    "zipcode": "4307709",
    "prefectureCode": "22",
    "prefectureNumber": 22,
    "prefecture": "静岡県",
    "city": "浜松市中央区",
    "town": "板屋町浜松アクトタワー（９階）"
  },
  "4307710": {
    "zipcode": "4307710",
    "prefectureCode": "22",
    "prefectureNumber": 22,
    "prefecture": "静岡県",
    "city": "浜松市中央区",
    "town": "板屋町浜松アクトタワー（１０階）"
  },
  "4307711": {
    "zipcode": "4307711",
    "prefectureCode": "22",
    "prefectureNumber": 22,
    "prefecture": "静岡県",
    "city": "浜松市中央区",
    "town": "板屋町浜松アクトタワー（１１階）"
  },
  "4307712": {
    "zipcode": "4307712",
    "prefectureCode": "22",
    "prefectureNumber": 22,
    "prefecture": "静岡県",
    "city": "浜松市中央区",
    "town": "板屋町浜松アクトタワー（１２階）"
  },
  "4307713": {
    "zipcode": "4307713",
    "prefectureCode": "22",
    "prefectureNumber": 22,
    "prefecture": "静岡県",
    "city": "浜松市中央区",
    "town": "板屋町浜松アクトタワー（１３階）"
  },
  "4307714": {
    "zipcode": "4307714",
    "prefectureCode": "22",
    "prefectureNumber": 22,
    "prefecture": "静岡県",
    "city": "浜松市中央区",
    "town": "板屋町浜松アクトタワー（１４階）"
  },
  "4307715": {
    "zipcode": "4307715",
    "prefectureCode": "22",
    "prefectureNumber": 22,
    "prefecture": "静岡県",
    "city": "浜松市中央区",
    "town": "板屋町浜松アクトタワー（１５階）"
  },
  "4307716": {
    "zipcode": "4307716",
    "prefectureCode": "22",
    "prefectureNumber": 22,
    "prefecture": "静岡県",
    "city": "浜松市中央区",
    "town": "板屋町浜松アクトタワー（１６階）"
  },
  "4307717": {
    "zipcode": "4307717",
    "prefectureCode": "22",
    "prefectureNumber": 22,
    "prefecture": "静岡県",
    "city": "浜松市中央区",
    "town": "板屋町浜松アクトタワー（１７階）"
  },
  "4307718": {
    "zipcode": "4307718",
    "prefectureCode": "22",
    "prefectureNumber": 22,
    "prefecture": "静岡県",
    "city": "浜松市中央区",
    "town": "板屋町浜松アクトタワー（１８階）"
  },
  "4307719": {
    "zipcode": "4307719",
    "prefectureCode": "22",
    "prefectureNumber": 22,
    "prefecture": "静岡県",
    "city": "浜松市中央区",
    "town": "板屋町浜松アクトタワー（１９階）"
  },
  "4307720": {
    "zipcode": "4307720",
    "prefectureCode": "22",
    "prefectureNumber": 22,
    "prefecture": "静岡県",
    "city": "浜松市中央区",
    "town": "板屋町浜松アクトタワー（２０階）"
  },
  "4307721": {
    "zipcode": "4307721",
    "prefectureCode": "22",
    "prefectureNumber": 22,
    "prefecture": "静岡県",
    "city": "浜松市中央区",
    "town": "板屋町浜松アクトタワー（２１階）"
  },
  "4307722": {
    "zipcode": "4307722",
    "prefectureCode": "22",
    "prefectureNumber": 22,
    "prefecture": "静岡県",
    "city": "浜松市中央区",
    "town": "板屋町浜松アクトタワー（２２階）"
  },
  "4307723": {
    "zipcode": "4307723",
    "prefectureCode": "22",
    "prefectureNumber": 22,
    "prefecture": "静岡県",
    "city": "浜松市中央区",
    "town": "板屋町浜松アクトタワー（２３階）"
  },
  "4307724": {
    "zipcode": "4307724",
    "prefectureCode": "22",
    "prefectureNumber": 22,
    "prefecture": "静岡県",
    "city": "浜松市中央区",
    "town": "板屋町浜松アクトタワー（２４階）"
  },
  "4307725": {
    "zipcode": "4307725",
    "prefectureCode": "22",
    "prefectureNumber": 22,
    "prefecture": "静岡県",
    "city": "浜松市中央区",
    "town": "板屋町浜松アクトタワー（２５階）"
  },
  "4307726": {
    "zipcode": "4307726",
    "prefectureCode": "22",
    "prefectureNumber": 22,
    "prefecture": "静岡県",
    "city": "浜松市中央区",
    "town": "板屋町浜松アクトタワー（２６階）"
  },
  "4307727": {
    "zipcode": "4307727",
    "prefectureCode": "22",
    "prefectureNumber": 22,
    "prefecture": "静岡県",
    "city": "浜松市中央区",
    "town": "板屋町浜松アクトタワー（２７階）"
  },
  "4307728": {
    "zipcode": "4307728",
    "prefectureCode": "22",
    "prefectureNumber": 22,
    "prefecture": "静岡県",
    "city": "浜松市中央区",
    "town": "板屋町浜松アクトタワー（２８階）"
  },
  "4307729": {
    "zipcode": "4307729",
    "prefectureCode": "22",
    "prefectureNumber": 22,
    "prefecture": "静岡県",
    "city": "浜松市中央区",
    "town": "板屋町浜松アクトタワー（２９階）"
  },
  "4307730": {
    "zipcode": "4307730",
    "prefectureCode": "22",
    "prefectureNumber": 22,
    "prefecture": "静岡県",
    "city": "浜松市中央区",
    "town": "板屋町浜松アクトタワー（３０階）"
  },
  "4307731": {
    "zipcode": "4307731",
    "prefectureCode": "22",
    "prefectureNumber": 22,
    "prefecture": "静岡県",
    "city": "浜松市中央区",
    "town": "板屋町浜松アクトタワー（３１階）"
  },
  "4307732": {
    "zipcode": "4307732",
    "prefectureCode": "22",
    "prefectureNumber": 22,
    "prefecture": "静岡県",
    "city": "浜松市中央区",
    "town": "板屋町浜松アクトタワー（３２階）"
  },
  "4307733": {
    "zipcode": "4307733",
    "prefectureCode": "22",
    "prefectureNumber": 22,
    "prefecture": "静岡県",
    "city": "浜松市中央区",
    "town": "板屋町浜松アクトタワー（３３階）"
  },
  "4307734": {
    "zipcode": "4307734",
    "prefectureCode": "22",
    "prefectureNumber": 22,
    "prefecture": "静岡県",
    "city": "浜松市中央区",
    "town": "板屋町浜松アクトタワー（３４階）"
  },
  "4307735": {
    "zipcode": "4307735",
    "prefectureCode": "22",
    "prefectureNumber": 22,
    "prefecture": "静岡県",
    "city": "浜松市中央区",
    "town": "板屋町浜松アクトタワー（３５階）"
  },
  "4307736": {
    "zipcode": "4307736",
    "prefectureCode": "22",
    "prefectureNumber": 22,
    "prefecture": "静岡県",
    "city": "浜松市中央区",
    "town": "板屋町浜松アクトタワー（３６階）"
  },
  "4307737": {
    "zipcode": "4307737",
    "prefectureCode": "22",
    "prefectureNumber": 22,
    "prefecture": "静岡県",
    "city": "浜松市中央区",
    "town": "板屋町浜松アクトタワー（３７階）"
  },
  "4307738": {
    "zipcode": "4307738",
    "prefectureCode": "22",
    "prefectureNumber": 22,
    "prefecture": "静岡県",
    "city": "浜松市中央区",
    "town": "板屋町浜松アクトタワー（３８階）"
  },
  "4307739": {
    "zipcode": "4307739",
    "prefectureCode": "22",
    "prefectureNumber": 22,
    "prefecture": "静岡県",
    "city": "浜松市中央区",
    "town": "板屋町浜松アクトタワー（３９階）"
  },
  "4307740": {
    "zipcode": "4307740",
    "prefectureCode": "22",
    "prefectureNumber": 22,
    "prefecture": "静岡県",
    "city": "浜松市中央区",
    "town": "板屋町浜松アクトタワー（４０階）"
  },
  "4307741": {
    "zipcode": "4307741",
    "prefectureCode": "22",
    "prefectureNumber": 22,
    "prefecture": "静岡県",
    "city": "浜松市中央区",
    "town": "板屋町浜松アクトタワー（４１階）"
  },
  "4307742": {
    "zipcode": "4307742",
    "prefectureCode": "22",
    "prefectureNumber": 22,
    "prefecture": "静岡県",
    "city": "浜松市中央区",
    "town": "板屋町浜松アクトタワー（４２階）"
  },
  "4307743": {
    "zipcode": "4307743",
    "prefectureCode": "22",
    "prefectureNumber": 22,
    "prefecture": "静岡県",
    "city": "浜松市中央区",
    "town": "板屋町浜松アクトタワー（４３階）"
  },
  "4307744": {
    "zipcode": "4307744",
    "prefectureCode": "22",
    "prefectureNumber": 22,
    "prefecture": "静岡県",
    "city": "浜松市中央区",
    "town": "板屋町浜松アクトタワー（４４階）"
  },
  "4307745": {
    "zipcode": "4307745",
    "prefectureCode": "22",
    "prefectureNumber": 22,
    "prefecture": "静岡県",
    "city": "浜松市中央区",
    "town": "板屋町浜松アクトタワー（４５階）"
  },
  "4307790": {
    "zipcode": "4307790",
    "prefectureCode": "22",
    "prefectureNumber": 22,
    "prefecture": "静岡県",
    "city": "浜松市中央区",
    "town": "板屋町浜松アクトタワー（地階・階層不明）"
  }
}
