{
  "4310101": {
    "zipcode": "4310101",
    "prefectureCode": "22",
    "prefectureNumber": 22,
    "prefecture": "静岡県",
    "city": "浜松市中央区",
    "town": "雄踏町山崎"
  },
  "4310102": {
    "zipcode": "4310102",
    "prefectureCode": "22",
    "prefectureNumber": 22,
    "prefecture": "静岡県",
    "city": "浜松市中央区",
    "town": "雄踏町宇布見"
  },
  "4310103": {
    "zipcode": "4310103",
    "prefectureCode": "22",
    "prefectureNumber": 22,
    "prefecture": "静岡県",
    "city": "浜松市中央区",
    "town": "雄踏"
  },
  "4310201": {
    "zipcode": "4310201",
    "prefectureCode": "22",
    "prefectureNumber": 22,
    "prefecture": "静岡県",
    "city": "浜松市中央区",
    "town": "篠原町"
  },
  "4310202": {
    "zipcode": "4310202",
    "prefectureCode": "22",
    "prefectureNumber": 22,
    "prefecture": "静岡県",
    "city": "浜松市中央区",
    "town": "坪井町"
  },
  "4310203": {
    "zipcode": "4310203",
    "prefectureCode": "22",
    "prefectureNumber": 22,
    "prefecture": "静岡県",
    "city": "浜松市中央区",
    "town": "馬郡町"
  },
  "4310211": {
    "zipcode": "4310211",
    "prefectureCode": "22",
    "prefectureNumber": 22,
    "prefecture": "静岡県",
    "city": "浜松市中央区",
    "town": "舞阪町舞阪"
  },
  "4310212": {
    "zipcode": "4310212",
    "prefectureCode": "22",
    "prefectureNumber": 22,
    "prefecture": "静岡県",
    "city": "浜松市中央区",
    "town": "舞阪町長十新田"
  },
  "4310213": {
    "zipcode": "4310213",
    "prefectureCode": "22",
    "prefectureNumber": 22,
    "prefecture": "静岡県",
    "city": "浜松市中央区",
    "town": "舞阪町浜田"
  },
  "4310214": {
    "zipcode": "4310214",
    "prefectureCode": "22",
    "prefectureNumber": 22,
    "prefecture": "静岡県",
    "city": "浜松市中央区",
    "town": "舞阪町弁天島"
  },
  "4310301": {
    "zipcode": "4310301",
    "prefectureCode": "22",
    "prefectureNumber": 22,
    "prefecture": "静岡県",
    "city": "湖西市",
    "town": "新居町中之郷"
  },
  "4310302": {
    "zipcode": "4310302",
    "prefectureCode": "22",
    "prefectureNumber": 22,
    "prefecture": "静岡県",
    "city": "湖西市",
    "town": "新居町新居"
  },
  "4310303": {
    "zipcode": "4310303",
    "prefectureCode": "22",
    "prefectureNumber": 22,
    "prefecture": "静岡県",
    "city": "湖西市",
    "town": "新居町浜名"
  },
  "4310304": {
    "zipcode": "4310304",
    "prefectureCode": "22",
    "prefectureNumber": 22,
    "prefecture": "静岡県",
    "city": "湖西市",
    "town": "新居町内山"
  },
  "4310400": {
    "zipcode": "4310400",
    "prefectureCode": "22",
    "prefectureNumber": 22,
    "prefecture": "静岡県",
    "city": "湖西市",
    "town": "以下に掲載がない場合"
  },
  "4310401": {
    "zipcode": "4310401",
    "prefectureCode": "22",
    "prefectureNumber": 22,
    "prefecture": "静岡県",
    "city": "湖西市",
    "town": "横山"
  },
  "4310402": {
    "zipcode": "4310402",
    "prefectureCode": "22",
    "prefectureNumber": 22,
    "prefecture": "静岡県",
    "city": "湖西市",
    "town": "利木"
  },
  "4310403": {
    "zipcode": "4310403",
    "prefectureCode": "22",
    "prefectureNumber": 22,
    "prefecture": "静岡県",
    "city": "湖西市",
    "town": "大知波"
  },
  "4310404": {
    "zipcode": "4310404",
    "prefectureCode": "22",
    "prefectureNumber": 22,
    "prefecture": "静岡県",
    "city": "湖西市",
    "town": "太田"
  },
  "4310405": {
    "zipcode": "4310405",
    "prefectureCode": "22",
    "prefectureNumber": 22,
    "prefecture": "静岡県",
    "city": "湖西市",
    "town": "神座"
  },
  "4310411": {
    "zipcode": "4310411",
    "prefectureCode": "22",
    "prefectureNumber": 22,
    "prefecture": "静岡県",
    "city": "湖西市",
    "town": "入出"
  },
  "4310412": {
    "zipcode": "4310412",
    "prefectureCode": "22",
    "prefectureNumber": 22,
    "prefecture": "静岡県",
    "city": "湖西市",
    "town": "内浦"
  },
  "4310421": {
    "zipcode": "4310421",
    "prefectureCode": "22",
    "prefectureNumber": 22,
    "prefecture": "静岡県",
    "city": "湖西市",
    "town": "新所"
  },
  "4310422": {
    "zipcode": "4310422",
    "prefectureCode": "22",
    "prefectureNumber": 22,
    "prefecture": "静岡県",
    "city": "湖西市",
    "town": "岡崎"
  },
  "4310423": {
    "zipcode": "4310423",
    "prefectureCode": "22",
    "prefectureNumber": 22,
    "prefecture": "静岡県",
    "city": "湖西市",
    "town": "新所・岡崎・梅田入会地"
  },
  "4310424": {
    "zipcode": "4310424",
    "prefectureCode": "22",
    "prefectureNumber": 22,
    "prefecture": "静岡県",
    "city": "湖西市",
    "town": "新所原"
  },
  "4310425": {
    "zipcode": "4310425",
    "prefectureCode": "22",
    "prefectureNumber": 22,
    "prefecture": "静岡県",
    "city": "湖西市",
    "town": "梅田"
  },
  "4310426": {
    "zipcode": "4310426",
    "prefectureCode": "22",
    "prefectureNumber": 22,
    "prefecture": "静岡県",
    "city": "湖西市",
    "town": "新所原東"
  },
  "4310427": {
    "zipcode": "4310427",
    "prefectureCode": "22",
    "prefectureNumber": 22,
    "prefecture": "静岡県",
    "city": "湖西市",
    "town": "駅南"
  },
  "4310428": {
    "zipcode": "4310428",
    "prefectureCode": "22",
    "prefectureNumber": 22,
    "prefecture": "静岡県",
    "city": "湖西市",
    "town": "ときわ"
  },
  "4310429": {
    "zipcode": "4310429",
    "prefectureCode": "22",
    "prefectureNumber": 22,
    "prefecture": "静岡県",
    "city": "湖西市",
    "town": "南台"
  },
  "4310431": {
    "zipcode": "4310431",
    "prefectureCode": "22",
    "prefectureNumber": 22,
    "prefecture": "静岡県",
    "city": "湖西市",
    "town": "鷲津"
  },
  "4310432": {
    "zipcode": "4310432",
    "prefectureCode": "22",
    "prefectureNumber": 22,
    "prefecture": "静岡県",
    "city": "湖西市",
    "town": "風の杜"
  },
  "4310441": {
    "zipcode": "4310441",
    "prefectureCode": "22",
    "prefectureNumber": 22,
    "prefecture": "静岡県",
    "city": "湖西市",
    "town": "吉美"
  },
  "4310442": {
    "zipcode": "4310442",
    "prefectureCode": "22",
    "prefectureNumber": 22,
    "prefecture": "静岡県",
    "city": "湖西市",
    "town": "古見"
  },
  "4310443": {
    "zipcode": "4310443",
    "prefectureCode": "22",
    "prefectureNumber": 22,
    "prefecture": "静岡県",
    "city": "湖西市",
    "town": "山口"
  },
  "4310444": {
    "zipcode": "4310444",
    "prefectureCode": "22",
    "prefectureNumber": 22,
    "prefecture": "静岡県",
    "city": "湖西市",
    "town": "坊瀬"
  },
  "4310451": {
    "zipcode": "4310451",
    "prefectureCode": "22",
    "prefectureNumber": 22,
    "prefecture": "静岡県",
    "city": "湖西市",
    "town": "白須賀"
  },
  "4310452": {
    "zipcode": "4310452",
    "prefectureCode": "22",
    "prefectureNumber": 22,
    "prefecture": "静岡県",
    "city": "湖西市",
    "town": "境宿"
  },
  "4311101": {
    "zipcode": "4311101",
    "prefectureCode": "22",
    "prefectureNumber": 22,
    "prefecture": "静岡県",
    "city": "浜松市中央区",
    "town": "和光町"
  },
  "4311102": {
    "zipcode": "4311102",
    "prefectureCode": "22",
    "prefectureNumber": 22,
    "prefecture": "静岡県",
    "city": "浜松市中央区",
    "town": "大山町"
  },
  "4311103": {
    "zipcode": "4311103",
    "prefectureCode": "22",
    "prefectureNumber": 22,
    "prefecture": "静岡県",
    "city": "浜松市中央区",
    "town": "湖東町"
  },
  "4311104": {
    "zipcode": "4311104",
    "prefectureCode": "22",
    "prefectureNumber": 22,
    "prefecture": "静岡県",
    "city": "浜松市中央区",
    "town": "桜台"
  },
  "4311111": {
    "zipcode": "4311111",
    "prefectureCode": "22",
    "prefectureNumber": 22,
    "prefecture": "静岡県",
    "city": "浜松市中央区",
    "town": "伊左地町"
  },
  "4311112": {
    "zipcode": "4311112",
    "prefectureCode": "22",
    "prefectureNumber": 22,
    "prefecture": "静岡県",
    "city": "浜松市中央区",
    "town": "大人見町"
  },
  "4311113": {
    "zipcode": "4311113",
    "prefectureCode": "22",
    "prefectureNumber": 22,
    "prefecture": "静岡県",
    "city": "浜松市中央区",
    "town": "古人見町"
  },
  "4311114": {
    "zipcode": "4311114",
    "prefectureCode": "22",
    "prefectureNumber": 22,
    "prefecture": "静岡県",
    "city": "浜松市中央区",
    "town": "佐浜町"
  },
  "4311115": {
    "zipcode": "4311115",
    "prefectureCode": "22",
    "prefectureNumber": 22,
    "prefecture": "静岡県",
    "city": "浜松市中央区",
    "town": "和地町"
  },
  "4311201": {
    "zipcode": "4311201",
    "prefectureCode": "22",
    "prefectureNumber": 22,
    "prefecture": "静岡県",
    "city": "浜松市中央区",
    "town": "深萩町"
  },
  "4311202": {
    "zipcode": "4311202",
    "prefectureCode": "22",
    "prefectureNumber": 22,
    "prefecture": "静岡県",
    "city": "浜松市中央区",
    "town": "呉松町"
  },
  "4311203": {
    "zipcode": "4311203",
    "prefectureCode": "22",
    "prefectureNumber": 22,
    "prefecture": "静岡県",
    "city": "浜松市中央区",
    "town": "平松町"
  },
  "4311204": {
    "zipcode": "4311204",
    "prefectureCode": "22",
    "prefectureNumber": 22,
    "prefecture": "静岡県",
    "city": "浜松市中央区",
    "town": "白洲町"
  },
  "4311205": {
    "zipcode": "4311205",
    "prefectureCode": "22",
    "prefectureNumber": 22,
    "prefecture": "静岡県",
    "city": "浜松市中央区",
    "town": "協和町"
  },
  "4311206": {
    "zipcode": "4311206",
    "prefectureCode": "22",
    "prefectureNumber": 22,
    "prefecture": "静岡県",
    "city": "浜松市中央区",
    "town": "庄和町"
  },
  "4311207": {
    "zipcode": "4311207",
    "prefectureCode": "22",
    "prefectureNumber": 22,
    "prefecture": "静岡県",
    "city": "浜松市中央区",
    "town": "村櫛町"
  },
  "4311208": {
    "zipcode": "4311208",
    "prefectureCode": "22",
    "prefectureNumber": 22,
    "prefecture": "静岡県",
    "city": "浜松市中央区",
    "town": "庄内町"
  },
  "4311209": {
    "zipcode": "4311209",
    "prefectureCode": "22",
    "prefectureNumber": 22,
    "prefecture": "静岡県",
    "city": "浜松市中央区",
    "town": "舘山寺町"
  },
  "4311301": {
    "zipcode": "4311301",
    "prefectureCode": "22",
    "prefectureNumber": 22,
    "prefecture": "静岡県",
    "city": "浜松市浜名区",
    "town": "細江町小野"
  },
  "4311302": {
    "zipcode": "4311302",
    "prefectureCode": "22",
    "prefectureNumber": 22,
    "prefecture": "静岡県",
    "city": "浜松市浜名区",
    "town": "細江町広岡"
  },
  "4311303": {
    "zipcode": "4311303",
    "prefectureCode": "22",
    "prefectureNumber": 22,
    "prefecture": "静岡県",
    "city": "浜松市浜名区",
    "town": "細江町三和"
  },
  "4311304": {
    "zipcode": "4311304",
    "prefectureCode": "22",
    "prefectureNumber": 22,
    "prefecture": "静岡県",
    "city": "浜松市浜名区",
    "town": "細江町中川"
  },
  "4311305": {
    "zipcode": "4311305",
    "prefectureCode": "22",
    "prefectureNumber": 22,
    "prefecture": "静岡県",
    "city": "浜松市浜名区",
    "town": "細江町気賀"
  },
  "4311401": {
    "zipcode": "4311401",
    "prefectureCode": "22",
    "prefectureNumber": 22,
    "prefecture": "静岡県",
    "city": "浜松市浜名区",
    "town": "三ヶ日町佐久米"
  },
  "4311402": {
    "zipcode": "4311402",
    "prefectureCode": "22",
    "prefectureNumber": 22,
    "prefecture": "静岡県",
    "city": "浜松市浜名区",
    "town": "三ヶ日町都筑"
  },
  "4311403": {
    "zipcode": "4311403",
    "prefectureCode": "22",
    "prefectureNumber": 22,
    "prefecture": "静岡県",
    "city": "浜松市浜名区",
    "town": "三ヶ日町大崎"
  },
  "4311404": {
    "zipcode": "4311404",
    "prefectureCode": "22",
    "prefectureNumber": 22,
    "prefecture": "静岡県",
    "city": "浜松市浜名区",
    "town": "三ヶ日町宇志"
  },
  "4311405": {
    "zipcode": "4311405",
    "prefectureCode": "22",
    "prefectureNumber": 22,
    "prefecture": "静岡県",
    "city": "浜松市浜名区",
    "town": "三ヶ日町津々崎"
  },
  "4311406": {
    "zipcode": "4311406",
    "prefectureCode": "22",
    "prefectureNumber": 22,
    "prefecture": "静岡県",
    "city": "浜松市浜名区",
    "town": "三ヶ日町駒場"
  },
  "4311407": {
    "zipcode": "4311407",
    "prefectureCode": "22",
    "prefectureNumber": 22,
    "prefecture": "静岡県",
    "city": "浜松市浜名区",
    "town": "三ヶ日町大谷"
  },
  "4311411": {
    "zipcode": "4311411",
    "prefectureCode": "22",
    "prefectureNumber": 22,
    "prefecture": "静岡県",
    "city": "浜松市浜名区",
    "town": "三ヶ日町福長"
  },
  "4311412": {
    "zipcode": "4311412",
    "prefectureCode": "22",
    "prefectureNumber": 22,
    "prefecture": "静岡県",
    "city": "浜松市浜名区",
    "town": "三ヶ日町只木"
  },
  "4311413": {
    "zipcode": "4311413",
    "prefectureCode": "22",
    "prefectureNumber": 22,
    "prefecture": "静岡県",
    "city": "浜松市浜名区",
    "town": "三ヶ日町摩訶耶"
  },
  "4311414": {
    "zipcode": "4311414",
    "prefectureCode": "22",
    "prefectureNumber": 22,
    "prefecture": "静岡県",
    "city": "浜松市浜名区",
    "town": "三ヶ日町三ヶ日"
  },
  "4311415": {
    "zipcode": "4311415",
    "prefectureCode": "22",
    "prefectureNumber": 22,
    "prefecture": "静岡県",
    "city": "浜松市浜名区",
    "town": "三ヶ日町岡本"
  },
  "4311416": {
    "zipcode": "4311416",
    "prefectureCode": "22",
    "prefectureNumber": 22,
    "prefecture": "静岡県",
    "city": "浜松市浜名区",
    "town": "三ヶ日町釣"
  },
  "4311417": {
    "zipcode": "4311417",
    "prefectureCode": "22",
    "prefectureNumber": 22,
    "prefecture": "静岡県",
    "city": "浜松市浜名区",
    "town": "三ヶ日町平山"
  },
  "4311421": {
    "zipcode": "4311421",
    "prefectureCode": "22",
    "prefectureNumber": 22,
    "prefecture": "静岡県",
    "city": "浜松市浜名区",
    "town": "三ヶ日町本坂"
  },
  "4311422": {
    "zipcode": "4311422",
    "prefectureCode": "22",
    "prefectureNumber": 22,
    "prefecture": "静岡県",
    "city": "浜松市浜名区",
    "town": "三ヶ日町日比沢"
  },
  "4311423": {
    "zipcode": "4311423",
    "prefectureCode": "22",
    "prefectureNumber": 22,
    "prefecture": "静岡県",
    "city": "浜松市浜名区",
    "town": "三ヶ日町鵺代"
  },
  "4311424": {
    "zipcode": "4311424",
    "prefectureCode": "22",
    "prefectureNumber": 22,
    "prefecture": "静岡県",
    "city": "浜松市浜名区",
    "town": "三ヶ日町下尾奈"
  },
  "4311425": {
    "zipcode": "4311425",
    "prefectureCode": "22",
    "prefectureNumber": 22,
    "prefecture": "静岡県",
    "city": "浜松市浜名区",
    "town": "三ヶ日町上尾奈"
  },
  "4312101": {
    "zipcode": "4312101",
    "prefectureCode": "22",
    "prefectureNumber": 22,
    "prefecture": "静岡県",
    "city": "浜松市浜名区",
    "town": "滝沢町"
  },
  "4312102": {
    "zipcode": "4312102",
    "prefectureCode": "22",
    "prefectureNumber": 22,
    "prefecture": "静岡県",
    "city": "浜松市浜名区",
    "town": "都田町"
  },
  "4312103": {
    "zipcode": "4312103",
    "prefectureCode": "22",
    "prefectureNumber": 22,
    "prefecture": "静岡県",
    "city": "浜松市浜名区",
    "town": "新都田"
  },
  "4312104": {
    "zipcode": "4312104",
    "prefectureCode": "22",
    "prefectureNumber": 22,
    "prefecture": "静岡県",
    "city": "浜松市浜名区",
    "town": "鷲沢町"
  },
  "4312201": {
    "zipcode": "4312201",
    "prefectureCode": "22",
    "prefectureNumber": 22,
    "prefecture": "静岡県",
    "city": "浜松市浜名区",
    "town": "引佐町東久留女木（その他）"
  },
  "4312202": {
    "zipcode": "4312202",
    "prefectureCode": "22",
    "prefectureNumber": 22,
    "prefecture": "静岡県",
    "city": "浜松市浜名区",
    "town": "引佐町川名"
  },
  "4312203": {
    "zipcode": "4312203",
    "prefectureCode": "22",
    "prefectureNumber": 22,
    "prefecture": "静岡県",
    "city": "浜松市浜名区",
    "town": "引佐町三岳"
  },
  "4312204": {
    "zipcode": "4312204",
    "prefectureCode": "22",
    "prefectureNumber": 22,
    "prefecture": "静岡県",
    "city": "浜松市浜名区",
    "town": "引佐町兎荷"
  },
  "4312205": {
    "zipcode": "4312205",
    "prefectureCode": "22",
    "prefectureNumber": 22,
    "prefecture": "静岡県",
    "city": "浜松市浜名区",
    "town": "引佐町伊平"
  },
  "4312206": {
    "zipcode": "4312206",
    "prefectureCode": "22",
    "prefectureNumber": 22,
    "prefecture": "静岡県",
    "city": "浜松市浜名区",
    "town": "引佐町西黒田"
  },
  "4312207": {
    "zipcode": "4312207",
    "prefectureCode": "22",
    "prefectureNumber": 22,
    "prefecture": "静岡県",
    "city": "浜松市浜名区",
    "town": "引佐町東黒田"
  },
  "4312211": {
    "zipcode": "4312211",
    "prefectureCode": "22",
    "prefectureNumber": 22,
    "prefecture": "静岡県",
    "city": "浜松市浜名区",
    "town": "引佐町花平"
  },
  "4312212": {
    "zipcode": "4312212",
    "prefectureCode": "22",
    "prefectureNumber": 22,
    "prefecture": "静岡県",
    "city": "浜松市浜名区",
    "town": "引佐町井伊谷"
  },
  "4312213": {
    "zipcode": "4312213",
    "prefectureCode": "22",
    "prefectureNumber": 22,
    "prefecture": "静岡県",
    "city": "浜松市浜名区",
    "town": "引佐町金指"
  },
  "4312214": {
    "zipcode": "4312214",
    "prefectureCode": "22",
    "prefectureNumber": 22,
    "prefecture": "静岡県",
    "city": "浜松市浜名区",
    "town": "引佐町横尾"
  },
  "4312215": {
    "zipcode": "4312215",
    "prefectureCode": "22",
    "prefectureNumber": 22,
    "prefecture": "静岡県",
    "city": "浜松市浜名区",
    "town": "引佐町白岩"
  },
  "4312216": {
    "zipcode": "4312216",
    "prefectureCode": "22",
    "prefectureNumber": 22,
    "prefecture": "静岡県",
    "city": "浜松市浜名区",
    "town": "神宮寺町"
  },
  "4312221": {
    "zipcode": "4312221",
    "prefectureCode": "22",
    "prefectureNumber": 22,
    "prefecture": "静岡県",
    "city": "浜松市浜名区",
    "town": "引佐町田畑"
  },
  "4312222": {
    "zipcode": "4312222",
    "prefectureCode": "22",
    "prefectureNumber": 22,
    "prefecture": "静岡県",
    "city": "浜松市浜名区",
    "town": "引佐町黒渕"
  },
  "4312223": {
    "zipcode": "4312223",
    "prefectureCode": "22",
    "prefectureNumber": 22,
    "prefecture": "静岡県",
    "city": "浜松市浜名区",
    "town": "引佐町栃窪"
  },
  "4312224": {
    "zipcode": "4312224",
    "prefectureCode": "22",
    "prefectureNumber": 22,
    "prefecture": "静岡県",
    "city": "浜松市浜名区",
    "town": "引佐町奥山"
  },
  "4312225": {
    "zipcode": "4312225",
    "prefectureCode": "22",
    "prefectureNumber": 22,
    "prefecture": "静岡県",
    "city": "浜松市浜名区",
    "town": "引佐町狩宿"
  },
  "4312226": {
    "zipcode": "4312226",
    "prefectureCode": "22",
    "prefectureNumber": 22,
    "prefecture": "静岡県",
    "city": "浜松市浜名区",
    "town": "引佐町谷沢"
  },
  "4312531": {
    "zipcode": "4312531",
    "prefectureCode": "22",
    "prefectureNumber": 22,
    "prefecture": "静岡県",
    "city": "浜松市浜名区",
    "town": "引佐町東久留女木（３７２〜７９９番地）"
  },
  "4312532": {
    "zipcode": "4312532",
    "prefectureCode": "22",
    "prefectureNumber": 22,
    "prefecture": "静岡県",
    "city": "浜松市浜名区",
    "town": "引佐町西久留女木"
  },
  "4312533": {
    "zipcode": "4312533",
    "prefectureCode": "22",
    "prefectureNumber": 22,
    "prefecture": "静岡県",
    "city": "浜松市浜名区",
    "town": "引佐町四方浄"
  },
  "4312534": {
    "zipcode": "4312534",
    "prefectureCode": "22",
    "prefectureNumber": 22,
    "prefecture": "静岡県",
    "city": "浜松市浜名区",
    "town": "引佐町別所"
  },
  "4312535": {
    "zipcode": "4312535",
    "prefectureCode": "22",
    "prefectureNumber": 22,
    "prefecture": "静岡県",
    "city": "浜松市浜名区",
    "town": "引佐町的場"
  },
  "4312536": {
    "zipcode": "4312536",
    "prefectureCode": "22",
    "prefectureNumber": 22,
    "prefecture": "静岡県",
    "city": "浜松市浜名区",
    "town": "引佐町田沢"
  },
  "4312537": {
    "zipcode": "4312537",
    "prefectureCode": "22",
    "prefectureNumber": 22,
    "prefecture": "静岡県",
    "city": "浜松市浜名区",
    "town": "引佐町渋川"
  },
  "4313101": {
    "zipcode": "4313101",
    "prefectureCode": "22",
    "prefectureNumber": 22,
    "prefecture": "静岡県",
    "city": "浜松市中央区",
    "town": "豊町"
  },
  "4313102": {
    "zipcode": "4313102",
    "prefectureCode": "22",
    "prefectureNumber": 22,
    "prefecture": "静岡県",
    "city": "浜松市中央区",
    "town": "豊西町"
  },
  "4313103": {
    "zipcode": "4313103",
    "prefectureCode": "22",
    "prefectureNumber": 22,
    "prefecture": "静岡県",
    "city": "浜松市中央区",
    "town": "常光町"
  },
  "4313104": {
    "zipcode": "4313104",
    "prefectureCode": "22",
    "prefectureNumber": 22,
    "prefecture": "静岡県",
    "city": "浜松市中央区",
    "town": "貴平町"
  },
  "4313105": {
    "zipcode": "4313105",
    "prefectureCode": "22",
    "prefectureNumber": 22,
    "prefecture": "静岡県",
    "city": "浜松市中央区",
    "town": "笠井新田町"
  },
  "4313106": {
    "zipcode": "4313106",
    "prefectureCode": "22",
    "prefectureNumber": 22,
    "prefecture": "静岡県",
    "city": "浜松市中央区",
    "town": "笠井上町"
  },
  "4313107": {
    "zipcode": "4313107",
    "prefectureCode": "22",
    "prefectureNumber": 22,
    "prefecture": "静岡県",
    "city": "浜松市中央区",
    "town": "笠井町"
  },
  "4313108": {
    "zipcode": "4313108",
    "prefectureCode": "22",
    "prefectureNumber": 22,
    "prefecture": "静岡県",
    "city": "浜松市中央区",
    "town": "恒武町"
  },
  "4313111": {
    "zipcode": "4313111",
    "prefectureCode": "22",
    "prefectureNumber": 22,
    "prefecture": "静岡県",
    "city": "浜松市中央区",
    "town": "中郡町"
  },
  "4313112": {
    "zipcode": "4313112",
    "prefectureCode": "22",
    "prefectureNumber": 22,
    "prefecture": "静岡県",
    "city": "浜松市中央区",
    "town": "大島町"
  },
  "4313113": {
    "zipcode": "4313113",
    "prefectureCode": "22",
    "prefectureNumber": 22,
    "prefecture": "静岡県",
    "city": "浜松市中央区",
    "town": "大瀬町"
  },
  "4313114": {
    "zipcode": "4313114",
    "prefectureCode": "22",
    "prefectureNumber": 22,
    "prefecture": "静岡県",
    "city": "浜松市中央区",
    "town": "積志町"
  },
  "4313115": {
    "zipcode": "4313115",
    "prefectureCode": "22",
    "prefectureNumber": 22,
    "prefecture": "静岡県",
    "city": "浜松市中央区",
    "town": "西ケ崎町"
  },
  "4313121": {
    "zipcode": "4313121",
    "prefectureCode": "22",
    "prefectureNumber": 22,
    "prefecture": "静岡県",
    "city": "浜松市中央区",
    "town": "有玉北町"
  },
  "4313122": {
    "zipcode": "4313122",
    "prefectureCode": "22",
    "prefectureNumber": 22,
    "prefecture": "静岡県",
    "city": "浜松市中央区",
    "town": "有玉南町"
  },
  "4313123": {
    "zipcode": "4313123",
    "prefectureCode": "22",
    "prefectureNumber": 22,
    "prefecture": "静岡県",
    "city": "浜松市中央区",
    "town": "有玉西町"
  },
  "4313124": {
    "zipcode": "4313124",
    "prefectureCode": "22",
    "prefectureNumber": 22,
    "prefecture": "静岡県",
    "city": "浜松市中央区",
    "town": "半田町"
  },
  "4313125": {
    "zipcode": "4313125",
    "prefectureCode": "22",
    "prefectureNumber": 22,
    "prefecture": "静岡県",
    "city": "浜松市中央区",
    "town": "半田山"
  },
  "4313126": {
    "zipcode": "4313126",
    "prefectureCode": "22",
    "prefectureNumber": 22,
    "prefecture": "静岡県",
    "city": "浜松市中央区",
    "town": "有玉台"
  },
  "4313301": {
    "zipcode": "4313301",
    "prefectureCode": "22",
    "prefectureNumber": 22,
    "prefecture": "静岡県",
    "city": "浜松市天竜区",
    "town": "横川"
  },
  "4313302": {
    "zipcode": "4313302",
    "prefectureCode": "22",
    "prefectureNumber": 22,
    "prefecture": "静岡県",
    "city": "浜松市天竜区",
    "town": "只来"
  },
  "4313303": {
    "zipcode": "4313303",
    "prefectureCode": "22",
    "prefectureNumber": 22,
    "prefecture": "静岡県",
    "city": "浜松市天竜区",
    "town": "山東"
  },
  "4313304": {
    "zipcode": "4313304",
    "prefectureCode": "22",
    "prefectureNumber": 22,
    "prefecture": "静岡県",
    "city": "浜松市天竜区",
    "town": "次郎八新田"
  },
  "4313305": {
    "zipcode": "4313305",
    "prefectureCode": "22",
    "prefectureNumber": 22,
    "prefecture": "静岡県",
    "city": "浜松市天竜区",
    "town": "大谷"
  },
  "4313306": {
    "zipcode": "4313306",
    "prefectureCode": "22",
    "prefectureNumber": 22,
    "prefecture": "静岡県",
    "city": "浜松市天竜区",
    "town": "船明"
  },
  "4313311": {
    "zipcode": "4313311",
    "prefectureCode": "22",
    "prefectureNumber": 22,
    "prefecture": "静岡県",
    "city": "浜松市天竜区",
    "town": "二俣町阿蔵"
  },
  "4313312": {
    "zipcode": "4313312",
    "prefectureCode": "22",
    "prefectureNumber": 22,
    "prefecture": "静岡県",
    "city": "浜松市天竜区",
    "town": "二俣町南鹿島"
  },
  "4313313": {
    "zipcode": "4313313",
    "prefectureCode": "22",
    "prefectureNumber": 22,
    "prefecture": "静岡県",
    "city": "浜松市天竜区",
    "town": "二俣町鹿島"
  },
  "4313314": {
    "zipcode": "4313314",
    "prefectureCode": "22",
    "prefectureNumber": 22,
    "prefecture": "静岡県",
    "city": "浜松市天竜区",
    "town": "二俣町二俣"
  },
  "4313315": {
    "zipcode": "4313315",
    "prefectureCode": "22",
    "prefectureNumber": 22,
    "prefecture": "静岡県",
    "city": "浜松市天竜区",
    "town": "二俣町大園"
  },
  "4313421": {
    "zipcode": "4313421",
    "prefectureCode": "22",
    "prefectureNumber": 22,
    "prefecture": "静岡県",
    "city": "浜松市天竜区",
    "town": "日明"
  },
  "4313422": {
    "zipcode": "4313422",
    "prefectureCode": "22",
    "prefectureNumber": 22,
    "prefecture": "静岡県",
    "city": "浜松市天竜区",
    "town": "米沢"
  },
  "4313423": {
    "zipcode": "4313423",
    "prefectureCode": "22",
    "prefectureNumber": 22,
    "prefecture": "静岡県",
    "city": "浜松市天竜区",
    "town": "渡ケ島"
  },
  "4313424": {
    "zipcode": "4313424",
    "prefectureCode": "22",
    "prefectureNumber": 22,
    "prefecture": "静岡県",
    "city": "浜松市天竜区",
    "town": "緑恵台"
  },
  "4313425": {
    "zipcode": "4313425",
    "prefectureCode": "22",
    "prefectureNumber": 22,
    "prefecture": "静岡県",
    "city": "浜松市天竜区",
    "town": "青谷"
  },
  "4313426": {
    "zipcode": "4313426",
    "prefectureCode": "22",
    "prefectureNumber": 22,
    "prefecture": "静岡県",
    "city": "浜松市天竜区",
    "town": "両島"
  },
  "4313427": {
    "zipcode": "4313427",
    "prefectureCode": "22",
    "prefectureNumber": 22,
    "prefecture": "静岡県",
    "city": "浜松市天竜区",
    "town": "上野"
  },
  "4313428": {
    "zipcode": "4313428",
    "prefectureCode": "22",
    "prefectureNumber": 22,
    "prefecture": "静岡県",
    "city": "浜松市天竜区",
    "town": "石神"
  },
  "4313531": {
    "zipcode": "4313531",
    "prefectureCode": "22",
    "prefectureNumber": 22,
    "prefecture": "静岡県",
    "city": "浜松市天竜区",
    "town": "東藤平"
  },
  "4313532": {
    "zipcode": "4313532",
    "prefectureCode": "22",
    "prefectureNumber": 22,
    "prefecture": "静岡県",
    "city": "浜松市天竜区",
    "town": "西藤平"
  },
  "4313533": {
    "zipcode": "4313533",
    "prefectureCode": "22",
    "prefectureNumber": 22,
    "prefecture": "静岡県",
    "city": "浜松市天竜区",
    "town": "長沢"
  },
  "4313534": {
    "zipcode": "4313534",
    "prefectureCode": "22",
    "prefectureNumber": 22,
    "prefecture": "静岡県",
    "city": "浜松市天竜区",
    "town": "懐山"
  },
  "4313535": {
    "zipcode": "4313535",
    "prefectureCode": "22",
    "prefectureNumber": 22,
    "prefecture": "静岡県",
    "city": "浜松市天竜区",
    "town": "芦窪"
  },
  "4313536": {
    "zipcode": "4313536",
    "prefectureCode": "22",
    "prefectureNumber": 22,
    "prefecture": "静岡県",
    "city": "浜松市天竜区",
    "town": "阿寺"
  },
  "4313641": {
    "zipcode": "4313641",
    "prefectureCode": "22",
    "prefectureNumber": 22,
    "prefecture": "静岡県",
    "city": "浜松市天竜区",
    "town": "熊"
  },
  "4313642": {
    "zipcode": "4313642",
    "prefectureCode": "22",
    "prefectureNumber": 22,
    "prefecture": "静岡県",
    "city": "浜松市天竜区",
    "town": "大栗安"
  },
  "4313643": {
    "zipcode": "4313643",
    "prefectureCode": "22",
    "prefectureNumber": 22,
    "prefecture": "静岡県",
    "city": "浜松市天竜区",
    "town": "神沢"
  },
  "4313751": {
    "zipcode": "4313751",
    "prefectureCode": "22",
    "prefectureNumber": 22,
    "prefecture": "静岡県",
    "city": "浜松市天竜区",
    "town": "東雲名"
  },
  "4313752": {
    "zipcode": "4313752",
    "prefectureCode": "22",
    "prefectureNumber": 22,
    "prefecture": "静岡県",
    "city": "浜松市天竜区",
    "town": "小川"
  },
  "4313753": {
    "zipcode": "4313753",
    "prefectureCode": "22",
    "prefectureNumber": 22,
    "prefecture": "静岡県",
    "city": "浜松市天竜区",
    "town": "佐久"
  },
  "4313754": {
    "zipcode": "4313754",
    "prefectureCode": "22",
    "prefectureNumber": 22,
    "prefecture": "静岡県",
    "city": "浜松市天竜区",
    "town": "相津"
  },
  "4313755": {
    "zipcode": "4313755",
    "prefectureCode": "22",
    "prefectureNumber": 22,
    "prefecture": "静岡県",
    "city": "浜松市天竜区",
    "town": "大川"
  },
  "4313756": {
    "zipcode": "4313756",
    "prefectureCode": "22",
    "prefectureNumber": 22,
    "prefecture": "静岡県",
    "city": "浜松市天竜区",
    "town": "谷山"
  },
  "4313761": {
    "zipcode": "4313761",
    "prefectureCode": "22",
    "prefectureNumber": 22,
    "prefecture": "静岡県",
    "city": "浜松市天竜区",
    "town": "西雲名"
  },
  "4313762": {
    "zipcode": "4313762",
    "prefectureCode": "22",
    "prefectureNumber": 22,
    "prefecture": "静岡県",
    "city": "浜松市天竜区",
    "town": "伊砂"
  },
  "4313763": {
    "zipcode": "4313763",
    "prefectureCode": "22",
    "prefectureNumber": 22,
    "prefecture": "静岡県",
    "city": "浜松市天竜区",
    "town": "月"
  },
  "4313764": {
    "zipcode": "4313764",
    "prefectureCode": "22",
    "prefectureNumber": 22,
    "prefecture": "静岡県",
    "city": "浜松市天竜区",
    "town": "横山町"
  },
  "4313801": {
    "zipcode": "4313801",
    "prefectureCode": "22",
    "prefectureNumber": 22,
    "prefecture": "静岡県",
    "city": "浜松市天竜区",
    "town": "龍山町瀬尻"
  },
  "4313802": {
    "zipcode": "4313802",
    "prefectureCode": "22",
    "prefectureNumber": 22,
    "prefecture": "静岡県",
    "city": "浜松市天竜区",
    "town": "龍山町下平山"
  },
  "4313803": {
    "zipcode": "4313803",
    "prefectureCode": "22",
    "prefectureNumber": 22,
    "prefecture": "静岡県",
    "city": "浜松市天竜区",
    "town": "龍山町戸倉"
  },
  "4313804": {
    "zipcode": "4313804",
    "prefectureCode": "22",
    "prefectureNumber": 22,
    "prefecture": "静岡県",
    "city": "浜松市天竜区",
    "town": "龍山町大嶺"
  },
  "4313901": {
    "zipcode": "4313901",
    "prefectureCode": "22",
    "prefectureNumber": 22,
    "prefecture": "静岡県",
    "city": "浜松市天竜区",
    "town": "佐久間町佐久間"
  },
  "4313902": {
    "zipcode": "4313902",
    "prefectureCode": "22",
    "prefectureNumber": 22,
    "prefecture": "静岡県",
    "city": "浜松市天竜区",
    "town": "佐久間町大井"
  },
  "4313903": {
    "zipcode": "4313903",
    "prefectureCode": "22",
    "prefectureNumber": 22,
    "prefecture": "静岡県",
    "city": "浜松市天竜区",
    "town": "佐久間町上平山"
  },
  "4313904": {
    "zipcode": "4313904",
    "prefectureCode": "22",
    "prefectureNumber": 22,
    "prefecture": "静岡県",
    "city": "浜松市天竜区",
    "town": "佐久間町戸口"
  },
  "4313905": {
    "zipcode": "4313905",
    "prefectureCode": "22",
    "prefectureNumber": 22,
    "prefecture": "静岡県",
    "city": "浜松市天竜区",
    "town": "佐久間町半場"
  },
  "4313906": {
    "zipcode": "4313906",
    "prefectureCode": "22",
    "prefectureNumber": 22,
    "prefecture": "静岡県",
    "city": "浜松市天竜区",
    "town": "佐久間町浦川"
  },
  "4313907": {
    "zipcode": "4313907",
    "prefectureCode": "22",
    "prefectureNumber": 22,
    "prefecture": "静岡県",
    "city": "浜松市天竜区",
    "town": "佐久間町川合"
  },
  "4313908": {
    "zipcode": "4313908",
    "prefectureCode": "22",
    "prefectureNumber": 22,
    "prefecture": "静岡県",
    "city": "浜松市天竜区",
    "town": "佐久間町中部"
  },
  "4314101": {
    "zipcode": "4314101",
    "prefectureCode": "22",
    "prefectureNumber": 22,
    "prefecture": "静岡県",
    "city": "浜松市天竜区",
    "town": "水窪町奥領家"
  },
  "4314102": {
    "zipcode": "4314102",
    "prefectureCode": "22",
    "prefectureNumber": 22,
    "prefecture": "静岡県",
    "city": "浜松市天竜区",
    "town": "水窪町地頭方"
  },
  "4314103": {
    "zipcode": "4314103",
    "prefectureCode": "22",
    "prefectureNumber": 22,
    "prefecture": "静岡県",
    "city": "浜松市天竜区",
    "town": "水窪町山住"
  },
  "4314111": {
    "zipcode": "4314111",
    "prefectureCode": "22",
    "prefectureNumber": 22,
    "prefecture": "静岡県",
    "city": "浜松市天竜区",
    "town": "佐久間町相月"
  },
  "4314112": {
    "zipcode": "4314112",
    "prefectureCode": "22",
    "prefectureNumber": 22,
    "prefecture": "静岡県",
    "city": "浜松市天竜区",
    "town": "佐久間町奥領家"
  },
  "4314121": {
    "zipcode": "4314121",
    "prefectureCode": "23",
    "prefectureNumber": 23,
    "prefecture": "愛知県",
    "city": "北設楽郡豊根村",
    "town": "富山"
  }
}
