{
  "4320000": {
    "zipcode": "4320000",
    "prefectureCode": "22",
    "prefectureNumber": 22,
    "prefecture": "静岡県",
    "city": "浜松市天竜区",
    "town": "以下に掲載がない場合"
  },
  "4328001": {
    "zipcode": "4328001",
    "prefectureCode": "22",
    "prefectureNumber": 22,
    "prefecture": "静岡県",
    "city": "浜松市中央区",
    "town": "西山町"
  },
  "4328002": {
    "zipcode": "4328002",
    "prefectureCode": "22",
    "prefectureNumber": 22,
    "prefecture": "静岡県",
    "city": "浜松市中央区",
    "town": "富塚町"
  },
  "4328003": {
    "zipcode": "4328003",
    "prefectureCode": "22",
    "prefectureNumber": 22,
    "prefecture": "静岡県",
    "city": "浜松市中央区",
    "town": "和地山"
  },
  "4328004": {
    "zipcode": "4328004",
    "prefectureCode": "22",
    "prefectureNumber": 22,
    "prefecture": "静岡県",
    "city": "浜松市中央区",
    "town": "文丘町"
  },
  "4328005": {
    "zipcode": "4328005",
    "prefectureCode": "22",
    "prefectureNumber": 22,
    "prefecture": "静岡県",
    "city": "浜松市中央区",
    "town": "神ケ谷町"
  },
  "4328006": {
    "zipcode": "4328006",
    "prefectureCode": "22",
    "prefectureNumber": 22,
    "prefecture": "静岡県",
    "city": "浜松市中央区",
    "town": "大久保町"
  },
  "4328007": {
    "zipcode": "4328007",
    "prefectureCode": "22",
    "prefectureNumber": 22,
    "prefecture": "静岡県",
    "city": "浜松市中央区",
    "town": "神原町"
  },
  "4328011": {
    "zipcode": "4328011",
    "prefectureCode": "22",
    "prefectureNumber": 22,
    "prefecture": "静岡県",
    "city": "浜松市中央区",
    "town": "城北"
  },
  "4328012": {
    "zipcode": "4328012",
    "prefectureCode": "22",
    "prefectureNumber": 22,
    "prefecture": "静岡県",
    "city": "浜松市中央区",
    "town": "布橋"
  },
  "4328013": {
    "zipcode": "4328013",
    "prefectureCode": "22",
    "prefectureNumber": 22,
    "prefecture": "静岡県",
    "city": "浜松市中央区",
    "town": "広沢"
  },
  "4328014": {
    "zipcode": "4328014",
    "prefectureCode": "22",
    "prefectureNumber": 22,
    "prefecture": "静岡県",
    "city": "浜松市中央区",
    "town": "鹿谷町"
  },
  "4328015": {
    "zipcode": "4328015",
    "prefectureCode": "22",
    "prefectureNumber": 22,
    "prefecture": "静岡県",
    "city": "浜松市中央区",
    "town": "高町"
  },
  "4328016": {
    "zipcode": "4328016",
    "prefectureCode": "22",
    "prefectureNumber": 22,
    "prefecture": "静岡県",
    "city": "浜松市中央区",
    "town": "中山町"
  },
  "4328017": {
    "zipcode": "4328017",
    "prefectureCode": "22",
    "prefectureNumber": 22,
    "prefecture": "静岡県",
    "city": "浜松市中央区",
    "town": "三組町"
  },
  "4328018": {
    "zipcode": "4328018",
    "prefectureCode": "22",
    "prefectureNumber": 22,
    "prefecture": "静岡県",
    "city": "浜松市中央区",
    "town": "蜆塚"
  },
  "4328021": {
    "zipcode": "4328021",
    "prefectureCode": "22",
    "prefectureNumber": 22,
    "prefecture": "静岡県",
    "city": "浜松市中央区",
    "town": "佐鳴台"
  },
  "4328022": {
    "zipcode": "4328022",
    "prefectureCode": "22",
    "prefectureNumber": 22,
    "prefecture": "静岡県",
    "city": "浜松市中央区",
    "town": "山手町"
  },
  "4328023": {
    "zipcode": "4328023",
    "prefectureCode": "22",
    "prefectureNumber": 22,
    "prefecture": "静岡県",
    "city": "浜松市中央区",
    "town": "鴨江"
  },
  "4328024": {
    "zipcode": "4328024",
    "prefectureCode": "22",
    "prefectureNumber": 22,
    "prefecture": "静岡県",
    "city": "浜松市中央区",
    "town": "鴨江町"
  },
  "4328025": {
    "zipcode": "4328025",
    "prefectureCode": "22",
    "prefectureNumber": 22,
    "prefecture": "静岡県",
    "city": "浜松市中央区",
    "town": "栄町"
  },
  "4328026": {
    "zipcode": "4328026",
    "prefectureCode": "22",
    "prefectureNumber": 22,
    "prefecture": "静岡県",
    "city": "浜松市中央区",
    "town": "元魚町"
  },
  "4328027": {
    "zipcode": "4328027",
    "prefectureCode": "22",
    "prefectureNumber": 22,
    "prefecture": "静岡県",
    "city": "浜松市中央区",
    "town": "旅籠町"
  },
  "4328031": {
    "zipcode": "4328031",
    "prefectureCode": "22",
    "prefectureNumber": 22,
    "prefecture": "静岡県",
    "city": "浜松市中央区",
    "town": "平田町"
  },
  "4328032": {
    "zipcode": "4328032",
    "prefectureCode": "22",
    "prefectureNumber": 22,
    "prefecture": "静岡県",
    "city": "浜松市中央区",
    "town": "海老塚町"
  },
  "4328033": {
    "zipcode": "4328033",
    "prefectureCode": "22",
    "prefectureNumber": 22,
    "prefecture": "静岡県",
    "city": "浜松市中央区",
    "town": "海老塚"
  },
  "4328034": {
    "zipcode": "4328034",
    "prefectureCode": "22",
    "prefectureNumber": 22,
    "prefecture": "静岡県",
    "city": "浜松市中央区",
    "town": "塩町"
  },
  "4328035": {
    "zipcode": "4328035",
    "prefectureCode": "22",
    "prefectureNumber": 22,
    "prefecture": "静岡県",
    "city": "浜松市中央区",
    "town": "成子町"
  },
  "4328036": {
    "zipcode": "4328036",
    "prefectureCode": "22",
    "prefectureNumber": 22,
    "prefecture": "静岡県",
    "city": "浜松市中央区",
    "town": "東伊場"
  },
  "4328037": {
    "zipcode": "4328037",
    "prefectureCode": "22",
    "prefectureNumber": 22,
    "prefecture": "静岡県",
    "city": "浜松市中央区",
    "town": "南伊場町"
  },
  "4328038": {
    "zipcode": "4328038",
    "prefectureCode": "22",
    "prefectureNumber": 22,
    "prefecture": "静岡県",
    "city": "浜松市中央区",
    "town": "西伊場町"
  },
  "4328041": {
    "zipcode": "4328041",
    "prefectureCode": "22",
    "prefectureNumber": 22,
    "prefecture": "静岡県",
    "city": "浜松市中央区",
    "town": "菅原町"
  },
  "4328042": {
    "zipcode": "4328042",
    "prefectureCode": "22",
    "prefectureNumber": 22,
    "prefecture": "静岡県",
    "city": "浜松市中央区",
    "town": "上浅田"
  },
  "4328043": {
    "zipcode": "4328043",
    "prefectureCode": "22",
    "prefectureNumber": 22,
    "prefecture": "静岡県",
    "city": "浜松市中央区",
    "town": "浅田町"
  },
  "4328044": {
    "zipcode": "4328044",
    "prefectureCode": "22",
    "prefectureNumber": 22,
    "prefecture": "静岡県",
    "city": "浜松市中央区",
    "town": "南浅田"
  },
  "4328045": {
    "zipcode": "4328045",
    "prefectureCode": "22",
    "prefectureNumber": 22,
    "prefecture": "静岡県",
    "city": "浜松市中央区",
    "town": "西浅田"
  },
  "4328046": {
    "zipcode": "4328046",
    "prefectureCode": "22",
    "prefectureNumber": 22,
    "prefecture": "静岡県",
    "city": "浜松市中央区",
    "town": "春日町"
  },
  "4328047": {
    "zipcode": "4328047",
    "prefectureCode": "22",
    "prefectureNumber": 22,
    "prefecture": "静岡県",
    "city": "浜松市中央区",
    "town": "神田町"
  },
  "4328048": {
    "zipcode": "4328048",
    "prefectureCode": "22",
    "prefectureNumber": 22,
    "prefecture": "静岡県",
    "city": "浜松市中央区",
    "town": "森田町"
  },
  "4328051": {
    "zipcode": "4328051",
    "prefectureCode": "22",
    "prefectureNumber": 22,
    "prefecture": "静岡県",
    "city": "浜松市中央区",
    "town": "若林町"
  },
  "4328052": {
    "zipcode": "4328052",
    "prefectureCode": "22",
    "prefectureNumber": 22,
    "prefecture": "静岡県",
    "city": "浜松市中央区",
    "town": "東若林町"
  },
  "4328053": {
    "zipcode": "4328053",
    "prefectureCode": "22",
    "prefectureNumber": 22,
    "prefecture": "静岡県",
    "city": "浜松市中央区",
    "town": "法枝町"
  },
  "4328054": {
    "zipcode": "4328054",
    "prefectureCode": "22",
    "prefectureNumber": 22,
    "prefecture": "静岡県",
    "city": "浜松市中央区",
    "town": "田尻町"
  },
  "4328055": {
    "zipcode": "4328055",
    "prefectureCode": "22",
    "prefectureNumber": 22,
    "prefecture": "静岡県",
    "city": "浜松市中央区",
    "town": "卸本町"
  },
  "4328056": {
    "zipcode": "4328056",
    "prefectureCode": "22",
    "prefectureNumber": 22,
    "prefecture": "静岡県",
    "city": "浜松市中央区",
    "town": "米津町"
  },
  "4328057": {
    "zipcode": "4328057",
    "prefectureCode": "22",
    "prefectureNumber": 22,
    "prefecture": "静岡県",
    "city": "浜松市中央区",
    "town": "堤町"
  },
  "4328058": {
    "zipcode": "4328058",
    "prefectureCode": "22",
    "prefectureNumber": 22,
    "prefecture": "静岡県",
    "city": "浜松市中央区",
    "town": "新橋町"
  },
  "4328061": {
    "zipcode": "4328061",
    "prefectureCode": "22",
    "prefectureNumber": 22,
    "prefecture": "静岡県",
    "city": "浜松市中央区",
    "town": "入野町"
  },
  "4328062": {
    "zipcode": "4328062",
    "prefectureCode": "22",
    "prefectureNumber": 22,
    "prefecture": "静岡県",
    "city": "浜松市中央区",
    "town": "増楽町"
  },
  "4328063": {
    "zipcode": "4328063",
    "prefectureCode": "22",
    "prefectureNumber": 22,
    "prefecture": "静岡県",
    "city": "浜松市中央区",
    "town": "小沢渡町"
  },
  "4328064": {
    "zipcode": "4328064",
    "prefectureCode": "22",
    "prefectureNumber": 22,
    "prefecture": "静岡県",
    "city": "浜松市中央区",
    "town": "倉松町"
  },
  "4328065": {
    "zipcode": "4328065",
    "prefectureCode": "22",
    "prefectureNumber": 22,
    "prefecture": "静岡県",
    "city": "浜松市中央区",
    "town": "高塚町"
  },
  "4328066": {
    "zipcode": "4328066",
    "prefectureCode": "22",
    "prefectureNumber": 22,
    "prefecture": "静岡県",
    "city": "浜松市中央区",
    "town": "志都呂町"
  },
  "4328067": {
    "zipcode": "4328067",
    "prefectureCode": "22",
    "prefectureNumber": 22,
    "prefecture": "静岡県",
    "city": "浜松市中央区",
    "town": "西鴨江町"
  },
  "4328068": {
    "zipcode": "4328068",
    "prefectureCode": "22",
    "prefectureNumber": 22,
    "prefecture": "静岡県",
    "city": "浜松市中央区",
    "town": "大平台"
  },
  "4328069": {
    "zipcode": "4328069",
    "prefectureCode": "22",
    "prefectureNumber": 22,
    "prefecture": "静岡県",
    "city": "浜松市中央区",
    "town": "志都呂"
  },
  "4328071": {
    "zipcode": "4328071",
    "prefectureCode": "22",
    "prefectureNumber": 22,
    "prefecture": "静岡県",
    "city": "浜松市中央区",
    "town": "西都台町"
  }
}
