{
  "4338101": {
    "zipcode": "4338101",
    "prefectureCode": "22",
    "prefectureNumber": 22,
    "prefecture": "静岡県",
    "city": "浜松市中央区",
    "town": "三幸町"
  },
  "4338102": {
    "zipcode": "4338102",
    "prefectureCode": "22",
    "prefectureNumber": 22,
    "prefecture": "静岡県",
    "city": "浜松市中央区",
    "town": "大原町"
  },
  "4338103": {
    "zipcode": "4338103",
    "prefectureCode": "22",
    "prefectureNumber": 22,
    "prefecture": "静岡県",
    "city": "浜松市中央区",
    "town": "豊岡町"
  },
  "4338104": {
    "zipcode": "4338104",
    "prefectureCode": "22",
    "prefectureNumber": 22,
    "prefecture": "静岡県",
    "city": "浜松市中央区",
    "town": "東三方町"
  },
  "4338105": {
    "zipcode": "4338105",
    "prefectureCode": "22",
    "prefectureNumber": 22,
    "prefecture": "静岡県",
    "city": "浜松市中央区",
    "town": "三方原町"
  },
  "4338108": {
    "zipcode": "4338108",
    "prefectureCode": "22",
    "prefectureNumber": 22,
    "prefecture": "静岡県",
    "city": "浜松市中央区",
    "town": "根洗町"
  },
  "4338109": {
    "zipcode": "4338109",
    "prefectureCode": "22",
    "prefectureNumber": 22,
    "prefecture": "静岡県",
    "city": "浜松市中央区",
    "town": "花川町"
  },
  "4338111": {
    "zipcode": "4338111",
    "prefectureCode": "22",
    "prefectureNumber": 22,
    "prefecture": "静岡県",
    "city": "浜松市中央区",
    "town": "葵西"
  },
  "4338112": {
    "zipcode": "4338112",
    "prefectureCode": "22",
    "prefectureNumber": 22,
    "prefecture": "静岡県",
    "city": "浜松市中央区",
    "town": "初生町"
  },
  "4338113": {
    "zipcode": "4338113",
    "prefectureCode": "22",
    "prefectureNumber": 22,
    "prefecture": "静岡県",
    "city": "浜松市中央区",
    "town": "小豆餅"
  },
  "4338114": {
    "zipcode": "4338114",
    "prefectureCode": "22",
    "prefectureNumber": 22,
    "prefecture": "静岡県",
    "city": "浜松市中央区",
    "town": "葵東"
  },
  "4338116": {
    "zipcode": "4338116",
    "prefectureCode": "22",
    "prefectureNumber": 22,
    "prefecture": "静岡県",
    "city": "浜松市中央区",
    "town": "西丘町"
  },
  "4338117": {
    "zipcode": "4338117",
    "prefectureCode": "22",
    "prefectureNumber": 22,
    "prefecture": "静岡県",
    "city": "浜松市中央区",
    "town": "高丘東"
  },
  "4338118": {
    "zipcode": "4338118",
    "prefectureCode": "22",
    "prefectureNumber": 22,
    "prefecture": "静岡県",
    "city": "浜松市中央区",
    "town": "高丘西"
  },
  "4338119": {
    "zipcode": "4338119",
    "prefectureCode": "22",
    "prefectureNumber": 22,
    "prefecture": "静岡県",
    "city": "浜松市中央区",
    "town": "高丘北"
  },
  "4338121": {
    "zipcode": "4338121",
    "prefectureCode": "22",
    "prefectureNumber": 22,
    "prefecture": "静岡県",
    "city": "浜松市中央区",
    "town": "萩丘"
  },
  "4338122": {
    "zipcode": "4338122",
    "prefectureCode": "22",
    "prefectureNumber": 22,
    "prefecture": "静岡県",
    "city": "浜松市中央区",
    "town": "上島"
  },
  "4338123": {
    "zipcode": "4338123",
    "prefectureCode": "22",
    "prefectureNumber": 22,
    "prefecture": "静岡県",
    "city": "浜松市中央区",
    "town": "幸"
  },
  "4338124": {
    "zipcode": "4338124",
    "prefectureCode": "22",
    "prefectureNumber": 22,
    "prefecture": "静岡県",
    "city": "浜松市中央区",
    "town": "泉"
  },
  "4338125": {
    "zipcode": "4338125",
    "prefectureCode": "22",
    "prefectureNumber": 22,
    "prefecture": "静岡県",
    "city": "浜松市中央区",
    "town": "和合町"
  },
  "4338126": {
    "zipcode": "4338126",
    "prefectureCode": "22",
    "prefectureNumber": 22,
    "prefecture": "静岡県",
    "city": "浜松市中央区",
    "town": "泉町"
  },
  "4338127": {
    "zipcode": "4338127",
    "prefectureCode": "22",
    "prefectureNumber": 22,
    "prefecture": "静岡県",
    "city": "浜松市中央区",
    "town": "和合北"
  }
}
