{
  "4340001": {
    "zipcode": "4340001",
    "prefectureCode": "22",
    "prefectureNumber": 22,
    "prefecture": "静岡県",
    "city": "浜松市浜名区",
    "town": "堀谷"
  },
  "4340002": {
    "zipcode": "4340002",
    "prefectureCode": "22",
    "prefectureNumber": 22,
    "prefecture": "静岡県",
    "city": "浜松市浜名区",
    "town": "尾野"
  },
  "4340003": {
    "zipcode": "4340003",
    "prefectureCode": "22",
    "prefectureNumber": 22,
    "prefecture": "静岡県",
    "city": "浜松市浜名区",
    "town": "新原"
  },
  "4340004": {
    "zipcode": "4340004",
    "prefectureCode": "22",
    "prefectureNumber": 22,
    "prefecture": "静岡県",
    "city": "浜松市浜名区",
    "town": "宮口"
  },
  "4340005": {
    "zipcode": "4340005",
    "prefectureCode": "22",
    "prefectureNumber": 22,
    "prefecture": "静岡県",
    "city": "浜松市浜名区",
    "town": "大平"
  },
  "4340006": {
    "zipcode": "4340006",
    "prefectureCode": "22",
    "prefectureNumber": 22,
    "prefecture": "静岡県",
    "city": "浜松市浜名区",
    "town": "四大地"
  },
  "4340007": {
    "zipcode": "4340007",
    "prefectureCode": "22",
    "prefectureNumber": 22,
    "prefecture": "静岡県",
    "city": "浜松市浜名区",
    "town": "灰木"
  },
  "4340011": {
    "zipcode": "4340011",
    "prefectureCode": "22",
    "prefectureNumber": 22,
    "prefecture": "静岡県",
    "city": "浜松市浜名区",
    "town": "上島"
  },
  "4340012": {
    "zipcode": "4340012",
    "prefectureCode": "22",
    "prefectureNumber": 22,
    "prefecture": "静岡県",
    "city": "浜松市浜名区",
    "town": "中瀬"
  },
  "4340013": {
    "zipcode": "4340013",
    "prefectureCode": "22",
    "prefectureNumber": 22,
    "prefecture": "静岡県",
    "city": "浜松市浜名区",
    "town": "永島"
  },
  "4340014": {
    "zipcode": "4340014",
    "prefectureCode": "22",
    "prefectureNumber": 22,
    "prefecture": "静岡県",
    "city": "浜松市浜名区",
    "town": "本沢合"
  },
  "4340015": {
    "zipcode": "4340015",
    "prefectureCode": "22",
    "prefectureNumber": 22,
    "prefecture": "静岡県",
    "city": "浜松市浜名区",
    "town": "於呂"
  },
  "4340016": {
    "zipcode": "4340016",
    "prefectureCode": "22",
    "prefectureNumber": 22,
    "prefecture": "静岡県",
    "city": "浜松市浜名区",
    "town": "根堅"
  },
  "4340017": {
    "zipcode": "4340017",
    "prefectureCode": "22",
    "prefectureNumber": 22,
    "prefecture": "静岡県",
    "city": "浜松市浜名区",
    "town": "豊保"
  },
  "4340018": {
    "zipcode": "4340018",
    "prefectureCode": "22",
    "prefectureNumber": 22,
    "prefecture": "静岡県",
    "city": "浜松市浜名区",
    "town": "西中瀬"
  },
  "4340021": {
    "zipcode": "4340021",
    "prefectureCode": "22",
    "prefectureNumber": 22,
    "prefecture": "静岡県",
    "city": "浜松市浜名区",
    "town": "八幡"
  },
  "4340022": {
    "zipcode": "4340022",
    "prefectureCode": "22",
    "prefectureNumber": 22,
    "prefecture": "静岡県",
    "city": "浜松市浜名区",
    "town": "新堀"
  },
  "4340023": {
    "zipcode": "4340023",
    "prefectureCode": "22",
    "prefectureNumber": 22,
    "prefecture": "静岡県",
    "city": "浜松市浜名区",
    "town": "高薗"
  },
  "4340024": {
    "zipcode": "4340024",
    "prefectureCode": "22",
    "prefectureNumber": 22,
    "prefecture": "静岡県",
    "city": "浜松市浜名区",
    "town": "竜南"
  },
  "4340025": {
    "zipcode": "4340025",
    "prefectureCode": "22",
    "prefectureNumber": 22,
    "prefecture": "静岡県",
    "city": "浜松市浜名区",
    "town": "善地"
  },
  "4340026": {
    "zipcode": "4340026",
    "prefectureCode": "22",
    "prefectureNumber": 22,
    "prefecture": "静岡県",
    "city": "浜松市浜名区",
    "town": "東美薗"
  },
  "4340027": {
    "zipcode": "4340027",
    "prefectureCode": "22",
    "prefectureNumber": 22,
    "prefecture": "静岡県",
    "city": "浜松市浜名区",
    "town": "油一色"
  },
  "4340028": {
    "zipcode": "4340028",
    "prefectureCode": "22",
    "prefectureNumber": 22,
    "prefecture": "静岡県",
    "city": "浜松市浜名区",
    "town": "上善地"
  },
  "4340029": {
    "zipcode": "4340029",
    "prefectureCode": "22",
    "prefectureNumber": 22,
    "prefecture": "静岡県",
    "city": "浜松市浜名区",
    "town": "新野"
  },
  "4340031": {
    "zipcode": "4340031",
    "prefectureCode": "22",
    "prefectureNumber": 22,
    "prefecture": "静岡県",
    "city": "浜松市浜名区",
    "town": "小林"
  },
  "4340032": {
    "zipcode": "4340032",
    "prefectureCode": "22",
    "prefectureNumber": 22,
    "prefecture": "静岡県",
    "city": "浜松市浜名区",
    "town": "道本"
  },
  "4340033": {
    "zipcode": "4340033",
    "prefectureCode": "22",
    "prefectureNumber": 22,
    "prefecture": "静岡県",
    "city": "浜松市浜名区",
    "town": "西美薗"
  },
  "4340034": {
    "zipcode": "4340034",
    "prefectureCode": "22",
    "prefectureNumber": 22,
    "prefecture": "静岡県",
    "city": "浜松市浜名区",
    "town": "高畑"
  },
  "4340035": {
    "zipcode": "4340035",
    "prefectureCode": "22",
    "prefectureNumber": 22,
    "prefecture": "静岡県",
    "city": "浜松市浜名区",
    "town": "寺島"
  },
  "4340036": {
    "zipcode": "4340036",
    "prefectureCode": "22",
    "prefectureNumber": 22,
    "prefecture": "静岡県",
    "city": "浜松市浜名区",
    "town": "横須賀"
  },
  "4340037": {
    "zipcode": "4340037",
    "prefectureCode": "22",
    "prefectureNumber": 22,
    "prefecture": "静岡県",
    "city": "浜松市浜名区",
    "town": "沼"
  },
  "4340038": {
    "zipcode": "4340038",
    "prefectureCode": "22",
    "prefectureNumber": 22,
    "prefecture": "静岡県",
    "city": "浜松市浜名区",
    "town": "貴布祢"
  },
  "4340041": {
    "zipcode": "4340041",
    "prefectureCode": "22",
    "prefectureNumber": 22,
    "prefecture": "静岡県",
    "city": "浜松市浜名区",
    "town": "平口"
  },
  "4340042": {
    "zipcode": "4340042",
    "prefectureCode": "22",
    "prefectureNumber": 22,
    "prefecture": "静岡県",
    "city": "浜松市浜名区",
    "town": "小松"
  },
  "4340043": {
    "zipcode": "4340043",
    "prefectureCode": "22",
    "prefectureNumber": 22,
    "prefecture": "静岡県",
    "city": "浜松市浜名区",
    "town": "中条"
  },
  "4340044": {
    "zipcode": "4340044",
    "prefectureCode": "22",
    "prefectureNumber": 22,
    "prefecture": "静岡県",
    "city": "浜松市浜名区",
    "town": "内野"
  },
  "4340045": {
    "zipcode": "4340045",
    "prefectureCode": "22",
    "prefectureNumber": 22,
    "prefecture": "静岡県",
    "city": "浜松市浜名区",
    "town": "内野台"
  },
  "4340046": {
    "zipcode": "4340046",
    "prefectureCode": "22",
    "prefectureNumber": 22,
    "prefecture": "静岡県",
    "city": "浜松市浜名区",
    "town": "染地台"
  }
}
