{
  "4370000": {
    "zipcode": "4370000",
    "prefectureCode": "22",
    "prefectureNumber": 22,
    "prefecture": "静岡県",
    "city": "袋井市",
    "town": "以下に掲載がない場合"
  },
  "4370001": {
    "zipcode": "4370001",
    "prefectureCode": "22",
    "prefectureNumber": 22,
    "prefecture": "静岡県",
    "city": "袋井市",
    "town": "山田"
  },
  "4370002": {
    "zipcode": "4370002",
    "prefectureCode": "22",
    "prefectureNumber": 22,
    "prefecture": "静岡県",
    "city": "袋井市",
    "town": "川会"
  },
  "4370003": {
    "zipcode": "4370003",
    "prefectureCode": "22",
    "prefectureNumber": 22,
    "prefecture": "静岡県",
    "city": "袋井市",
    "town": "萱間"
  },
  "4370004": {
    "zipcode": "4370004",
    "prefectureCode": "22",
    "prefectureNumber": 22,
    "prefecture": "静岡県",
    "city": "袋井市",
    "town": "友永"
  },
  "4370005": {
    "zipcode": "4370005",
    "prefectureCode": "22",
    "prefectureNumber": 22,
    "prefecture": "静岡県",
    "city": "袋井市",
    "town": "見取"
  },
  "4370006": {
    "zipcode": "4370006",
    "prefectureCode": "22",
    "prefectureNumber": 22,
    "prefecture": "静岡県",
    "city": "袋井市",
    "town": "大谷"
  },
  "4370011": {
    "zipcode": "4370011",
    "prefectureCode": "22",
    "prefectureNumber": 22,
    "prefecture": "静岡県",
    "city": "袋井市",
    "town": "村松"
  },
  "4370012": {
    "zipcode": "4370012",
    "prefectureCode": "22",
    "prefectureNumber": 22,
    "prefecture": "静岡県",
    "city": "袋井市",
    "town": "国本"
  },
  "4370013": {
    "zipcode": "4370013",
    "prefectureCode": "22",
    "prefectureNumber": 22,
    "prefecture": "静岡県",
    "city": "袋井市",
    "town": "新屋"
  },
  "4370014": {
    "zipcode": "4370014",
    "prefectureCode": "22",
    "prefectureNumber": 22,
    "prefecture": "静岡県",
    "city": "袋井市",
    "town": "永楽町"
  },
  "4370015": {
    "zipcode": "4370015",
    "prefectureCode": "22",
    "prefectureNumber": 22,
    "prefecture": "静岡県",
    "city": "袋井市",
    "town": "旭町"
  },
  "4370016": {
    "zipcode": "4370016",
    "prefectureCode": "22",
    "prefectureNumber": 22,
    "prefecture": "静岡県",
    "city": "袋井市",
    "town": "葵町"
  },
  "4370017": {
    "zipcode": "4370017",
    "prefectureCode": "22",
    "prefectureNumber": 22,
    "prefecture": "静岡県",
    "city": "袋井市",
    "town": "鷲巣"
  },
  "4370021": {
    "zipcode": "4370021",
    "prefectureCode": "22",
    "prefectureNumber": 22,
    "prefecture": "静岡県",
    "city": "袋井市",
    "town": "広岡"
  },
  "4370022": {
    "zipcode": "4370022",
    "prefectureCode": "22",
    "prefectureNumber": 22,
    "prefecture": "静岡県",
    "city": "袋井市",
    "town": "方丈"
  },
  "4370023": {
    "zipcode": "4370023",
    "prefectureCode": "22",
    "prefectureNumber": 22,
    "prefecture": "静岡県",
    "city": "袋井市",
    "town": "高尾"
  },
  "4370024": {
    "zipcode": "4370024",
    "prefectureCode": "22",
    "prefectureNumber": 22,
    "prefecture": "静岡県",
    "city": "袋井市",
    "town": "三門町"
  },
  "4370025": {
    "zipcode": "4370025",
    "prefectureCode": "22",
    "prefectureNumber": 22,
    "prefecture": "静岡県",
    "city": "袋井市",
    "town": "栄町"
  },
  "4370026": {
    "zipcode": "4370026",
    "prefectureCode": "22",
    "prefectureNumber": 22,
    "prefecture": "静岡県",
    "city": "袋井市",
    "town": "袋井"
  },
  "4370027": {
    "zipcode": "4370027",
    "prefectureCode": "22",
    "prefectureNumber": 22,
    "prefecture": "静岡県",
    "city": "袋井市",
    "town": "高尾町"
  },
  "4370028": {
    "zipcode": "4370028",
    "prefectureCode": "22",
    "prefectureNumber": 22,
    "prefecture": "静岡県",
    "city": "袋井市",
    "town": "神長"
  },
  "4370029": {
    "zipcode": "4370029",
    "prefectureCode": "22",
    "prefectureNumber": 22,
    "prefecture": "静岡県",
    "city": "袋井市",
    "town": "掛之上"
  },
  "4370031": {
    "zipcode": "4370031",
    "prefectureCode": "22",
    "prefectureNumber": 22,
    "prefecture": "静岡県",
    "city": "袋井市",
    "town": "愛野"
  },
  "4370032": {
    "zipcode": "4370032",
    "prefectureCode": "22",
    "prefectureNumber": 22,
    "prefecture": "静岡県",
    "city": "袋井市",
    "town": "豊沢"
  },
  "4370033": {
    "zipcode": "4370033",
    "prefectureCode": "22",
    "prefectureNumber": 22,
    "prefecture": "静岡県",
    "city": "袋井市",
    "town": "上田町"
  },
  "4370034": {
    "zipcode": "4370034",
    "prefectureCode": "22",
    "prefectureNumber": 22,
    "prefecture": "静岡県",
    "city": "袋井市",
    "town": "青木町"
  },
  "4370035": {
    "zipcode": "4370035",
    "prefectureCode": "22",
    "prefectureNumber": 22,
    "prefecture": "静岡県",
    "city": "袋井市",
    "town": "砂本町"
  },
  "4370036": {
    "zipcode": "4370036",
    "prefectureCode": "22",
    "prefectureNumber": 22,
    "prefecture": "静岡県",
    "city": "袋井市",
    "town": "小川町"
  },
  "4370037": {
    "zipcode": "4370037",
    "prefectureCode": "22",
    "prefectureNumber": 22,
    "prefecture": "静岡県",
    "city": "袋井市",
    "town": "清水町"
  },
  "4370038": {
    "zipcode": "4370038",
    "prefectureCode": "22",
    "prefectureNumber": 22,
    "prefecture": "静岡県",
    "city": "袋井市",
    "town": "大門"
  },
  "4370039": {
    "zipcode": "4370039",
    "prefectureCode": "22",
    "prefectureNumber": 22,
    "prefecture": "静岡県",
    "city": "袋井市",
    "town": "愛野東"
  },
  "4370040": {
    "zipcode": "4370040",
    "prefectureCode": "22",
    "prefectureNumber": 22,
    "prefecture": "静岡県",
    "city": "袋井市",
    "town": "愛野南"
  },
  "4370041": {
    "zipcode": "4370041",
    "prefectureCode": "22",
    "prefectureNumber": 22,
    "prefecture": "静岡県",
    "city": "袋井市",
    "town": "睦町"
  },
  "4370042": {
    "zipcode": "4370042",
    "prefectureCode": "22",
    "prefectureNumber": 22,
    "prefecture": "静岡県",
    "city": "袋井市",
    "town": "山名町"
  },
  "4370043": {
    "zipcode": "4370043",
    "prefectureCode": "22",
    "prefectureNumber": 22,
    "prefecture": "静岡県",
    "city": "袋井市",
    "town": "新池"
  },
  "4370044": {
    "zipcode": "4370044",
    "prefectureCode": "22",
    "prefectureNumber": 22,
    "prefecture": "静岡県",
    "city": "袋井市",
    "town": "松袋井"
  },
  "4370045": {
    "zipcode": "4370045",
    "prefectureCode": "22",
    "prefectureNumber": 22,
    "prefecture": "静岡県",
    "city": "袋井市",
    "town": "彦島"
  },
  "4370046": {
    "zipcode": "4370046",
    "prefectureCode": "22",
    "prefectureNumber": 22,
    "prefecture": "静岡県",
    "city": "袋井市",
    "town": "木原"
  },
  "4370047": {
    "zipcode": "4370047",
    "prefectureCode": "22",
    "prefectureNumber": 22,
    "prefecture": "静岡県",
    "city": "袋井市",
    "town": "西田"
  },
  "4370051": {
    "zipcode": "4370051",
    "prefectureCode": "22",
    "prefectureNumber": 22,
    "prefecture": "静岡県",
    "city": "袋井市",
    "town": "深見"
  },
  "4370052": {
    "zipcode": "4370052",
    "prefectureCode": "22",
    "prefectureNumber": 22,
    "prefecture": "静岡県",
    "city": "袋井市",
    "town": "太田"
  },
  "4370053": {
    "zipcode": "4370053",
    "prefectureCode": "22",
    "prefectureNumber": 22,
    "prefecture": "静岡県",
    "city": "袋井市",
    "town": "延久"
  },
  "4370054": {
    "zipcode": "4370054",
    "prefectureCode": "22",
    "prefectureNumber": 22,
    "prefecture": "静岡県",
    "city": "袋井市",
    "town": "徳光"
  },
  "4370055": {
    "zipcode": "4370055",
    "prefectureCode": "22",
    "prefectureNumber": 22,
    "prefecture": "静岡県",
    "city": "袋井市",
    "town": "土橋"
  },
  "4370056": {
    "zipcode": "4370056",
    "prefectureCode": "22",
    "prefectureNumber": 22,
    "prefecture": "静岡県",
    "city": "袋井市",
    "town": "小山"
  },
  "4370057": {
    "zipcode": "4370057",
    "prefectureCode": "22",
    "prefectureNumber": 22,
    "prefecture": "静岡県",
    "city": "袋井市",
    "town": "横井"
  },
  "4370061": {
    "zipcode": "4370061",
    "prefectureCode": "22",
    "prefectureNumber": 22,
    "prefecture": "静岡県",
    "city": "袋井市",
    "town": "久能"
  },
  "4370062": {
    "zipcode": "4370062",
    "prefectureCode": "22",
    "prefectureNumber": 22,
    "prefecture": "静岡県",
    "city": "袋井市",
    "town": "泉町"
  },
  "4370063": {
    "zipcode": "4370063",
    "prefectureCode": "22",
    "prefectureNumber": 22,
    "prefecture": "静岡県",
    "city": "袋井市",
    "town": "田町"
  },
  "4370064": {
    "zipcode": "4370064",
    "prefectureCode": "22",
    "prefectureNumber": 22,
    "prefecture": "静岡県",
    "city": "袋井市",
    "town": "川井"
  },
  "4370065": {
    "zipcode": "4370065",
    "prefectureCode": "22",
    "prefectureNumber": 22,
    "prefecture": "静岡県",
    "city": "袋井市",
    "town": "堀越"
  },
  "4370066": {
    "zipcode": "4370066",
    "prefectureCode": "22",
    "prefectureNumber": 22,
    "prefecture": "静岡県",
    "city": "袋井市",
    "town": "山科"
  },
  "4370067": {
    "zipcode": "4370067",
    "prefectureCode": "22",
    "prefectureNumber": 22,
    "prefecture": "静岡県",
    "city": "袋井市",
    "town": "天神町"
  },
  "4370121": {
    "zipcode": "4370121",
    "prefectureCode": "22",
    "prefectureNumber": 22,
    "prefecture": "静岡県",
    "city": "袋井市",
    "town": "宇刈"
  },
  "4370122": {
    "zipcode": "4370122",
    "prefectureCode": "22",
    "prefectureNumber": 22,
    "prefecture": "静岡県",
    "city": "袋井市",
    "town": "春岡"
  },
  "4370123": {
    "zipcode": "4370123",
    "prefectureCode": "22",
    "prefectureNumber": 22,
    "prefecture": "静岡県",
    "city": "袋井市",
    "town": "下山梨"
  },
  "4370124": {
    "zipcode": "4370124",
    "prefectureCode": "22",
    "prefectureNumber": 22,
    "prefecture": "静岡県",
    "city": "袋井市",
    "town": "沖山梨"
  },
  "4370125": {
    "zipcode": "4370125",
    "prefectureCode": "22",
    "prefectureNumber": 22,
    "prefecture": "静岡県",
    "city": "袋井市",
    "town": "上山梨"
  },
  "4370126": {
    "zipcode": "4370126",
    "prefectureCode": "22",
    "prefectureNumber": 22,
    "prefecture": "静岡県",
    "city": "袋井市",
    "town": "月見町"
  },
  "4370127": {
    "zipcode": "4370127",
    "prefectureCode": "22",
    "prefectureNumber": 22,
    "prefecture": "静岡県",
    "city": "袋井市",
    "town": "可睡の杜"
  },
  "4370200": {
    "zipcode": "4370200",
    "prefectureCode": "22",
    "prefectureNumber": 22,
    "prefecture": "静岡県",
    "city": "周智郡森町",
    "town": "以下に掲載がない場合"
  },
  "4370201": {
    "zipcode": "4370201",
    "prefectureCode": "22",
    "prefectureNumber": 22,
    "prefecture": "静岡県",
    "city": "周智郡森町",
    "town": "嵯塚"
  },
  "4370202": {
    "zipcode": "4370202",
    "prefectureCode": "22",
    "prefectureNumber": 22,
    "prefecture": "静岡県",
    "city": "周智郡森町",
    "town": "亀久保"
  },
  "4370203": {
    "zipcode": "4370203",
    "prefectureCode": "22",
    "prefectureNumber": 22,
    "prefecture": "静岡県",
    "city": "周智郡森町",
    "town": "鍛冶島"
  },
  "4370204": {
    "zipcode": "4370204",
    "prefectureCode": "22",
    "prefectureNumber": 22,
    "prefecture": "静岡県",
    "city": "周智郡森町",
    "town": "問詰"
  },
  "4370205": {
    "zipcode": "4370205",
    "prefectureCode": "22",
    "prefectureNumber": 22,
    "prefecture": "静岡県",
    "city": "周智郡森町",
    "town": "大鳥居"
  },
  "4370206": {
    "zipcode": "4370206",
    "prefectureCode": "22",
    "prefectureNumber": 22,
    "prefecture": "静岡県",
    "city": "周智郡森町",
    "town": "葛布"
  },
  "4370207": {
    "zipcode": "4370207",
    "prefectureCode": "22",
    "prefectureNumber": 22,
    "prefecture": "静岡県",
    "city": "周智郡森町",
    "town": "西俣"
  },
  "4370208": {
    "zipcode": "4370208",
    "prefectureCode": "22",
    "prefectureNumber": 22,
    "prefecture": "静岡県",
    "city": "周智郡森町",
    "town": "三倉"
  },
  "4370211": {
    "zipcode": "4370211",
    "prefectureCode": "22",
    "prefectureNumber": 22,
    "prefecture": "静岡県",
    "city": "周智郡森町",
    "town": "城下"
  },
  "4370212": {
    "zipcode": "4370212",
    "prefectureCode": "22",
    "prefectureNumber": 22,
    "prefecture": "静岡県",
    "city": "周智郡森町",
    "town": "向天方"
  },
  "4370213": {
    "zipcode": "4370213",
    "prefectureCode": "22",
    "prefectureNumber": 22,
    "prefecture": "静岡県",
    "city": "周智郡森町",
    "town": "睦実"
  },
  "4370214": {
    "zipcode": "4370214",
    "prefectureCode": "22",
    "prefectureNumber": 22,
    "prefecture": "静岡県",
    "city": "周智郡森町",
    "town": "草ケ谷"
  },
  "4370215": {
    "zipcode": "4370215",
    "prefectureCode": "22",
    "prefectureNumber": 22,
    "prefecture": "静岡県",
    "city": "周智郡森町",
    "town": "森"
  },
  "4370216": {
    "zipcode": "4370216",
    "prefectureCode": "22",
    "prefectureNumber": 22,
    "prefecture": "静岡県",
    "city": "周智郡森町",
    "town": "天宮"
  },
  "4370217": {
    "zipcode": "4370217",
    "prefectureCode": "22",
    "prefectureNumber": 22,
    "prefecture": "静岡県",
    "city": "周智郡森町",
    "town": "薄場"
  },
  "4370221": {
    "zipcode": "4370221",
    "prefectureCode": "22",
    "prefectureNumber": 22,
    "prefecture": "静岡県",
    "city": "周智郡森町",
    "town": "円田"
  },
  "4370222": {
    "zipcode": "4370222",
    "prefectureCode": "22",
    "prefectureNumber": 22,
    "prefecture": "静岡県",
    "city": "周智郡森町",
    "town": "飯田"
  },
  "4370223": {
    "zipcode": "4370223",
    "prefectureCode": "22",
    "prefectureNumber": 22,
    "prefecture": "静岡県",
    "city": "周智郡森町",
    "town": "中川"
  },
  "4370224": {
    "zipcode": "4370224",
    "prefectureCode": "22",
    "prefectureNumber": 22,
    "prefecture": "静岡県",
    "city": "周智郡森町",
    "town": "牛飼"
  },
  "4370225": {
    "zipcode": "4370225",
    "prefectureCode": "22",
    "prefectureNumber": 22,
    "prefecture": "静岡県",
    "city": "周智郡森町",
    "town": "谷中"
  },
  "4370226": {
    "zipcode": "4370226",
    "prefectureCode": "22",
    "prefectureNumber": 22,
    "prefecture": "静岡県",
    "city": "周智郡森町",
    "town": "一宮"
  },
  "4370227": {
    "zipcode": "4370227",
    "prefectureCode": "22",
    "prefectureNumber": 22,
    "prefecture": "静岡県",
    "city": "周智郡森町",
    "town": "橘"
  },
  "4370601": {
    "zipcode": "4370601",
    "prefectureCode": "22",
    "prefectureNumber": 22,
    "prefecture": "静岡県",
    "city": "浜松市天竜区",
    "town": "春野町川上"
  },
  "4370602": {
    "zipcode": "4370602",
    "prefectureCode": "22",
    "prefectureNumber": 22,
    "prefecture": "静岡県",
    "city": "浜松市天竜区",
    "town": "春野町杉"
  },
  "4370603": {
    "zipcode": "4370603",
    "prefectureCode": "22",
    "prefectureNumber": 22,
    "prefecture": "静岡県",
    "city": "浜松市天竜区",
    "town": "春野町五和"
  },
  "4370604": {
    "zipcode": "4370604",
    "prefectureCode": "22",
    "prefectureNumber": 22,
    "prefecture": "静岡県",
    "city": "浜松市天竜区",
    "town": "春野町宮川"
  },
  "4370605": {
    "zipcode": "4370605",
    "prefectureCode": "22",
    "prefectureNumber": 22,
    "prefecture": "静岡県",
    "city": "浜松市天竜区",
    "town": "春野町気田"
  },
  "4370606": {
    "zipcode": "4370606",
    "prefectureCode": "22",
    "prefectureNumber": 22,
    "prefecture": "静岡県",
    "city": "浜松市天竜区",
    "town": "春野町豊岡"
  },
  "4370607": {
    "zipcode": "4370607",
    "prefectureCode": "22",
    "prefectureNumber": 22,
    "prefecture": "静岡県",
    "city": "浜松市天竜区",
    "town": "春野町石切"
  },
  "4370608": {
    "zipcode": "4370608",
    "prefectureCode": "22",
    "prefectureNumber": 22,
    "prefecture": "静岡県",
    "city": "浜松市天竜区",
    "town": "春野町小俣京丸"
  },
  "4370611": {
    "zipcode": "4370611",
    "prefectureCode": "22",
    "prefectureNumber": 22,
    "prefecture": "静岡県",
    "city": "浜松市天竜区",
    "town": "春野町田河内"
  },
  "4370612": {
    "zipcode": "4370612",
    "prefectureCode": "22",
    "prefectureNumber": 22,
    "prefecture": "静岡県",
    "city": "浜松市天竜区",
    "town": "春野町花島"
  },
  "4370613": {
    "zipcode": "4370613",
    "prefectureCode": "22",
    "prefectureNumber": 22,
    "prefecture": "静岡県",
    "city": "浜松市天竜区",
    "town": "春野町牧野"
  },
  "4370614": {
    "zipcode": "4370614",
    "prefectureCode": "22",
    "prefectureNumber": 22,
    "prefecture": "静岡県",
    "city": "浜松市天竜区",
    "town": "春野町長蔵寺"
  },
  "4370615": {
    "zipcode": "4370615",
    "prefectureCode": "22",
    "prefectureNumber": 22,
    "prefecture": "静岡県",
    "city": "浜松市天竜区",
    "town": "春野町石打松下"
  },
  "4370616": {
    "zipcode": "4370616",
    "prefectureCode": "22",
    "prefectureNumber": 22,
    "prefecture": "静岡県",
    "city": "浜松市天竜区",
    "town": "春野町田黒"
  },
  "4370617": {
    "zipcode": "4370617",
    "prefectureCode": "22",
    "prefectureNumber": 22,
    "prefecture": "静岡県",
    "city": "浜松市天竜区",
    "town": "春野町筏戸大上"
  },
  "4370618": {
    "zipcode": "4370618",
    "prefectureCode": "22",
    "prefectureNumber": 22,
    "prefecture": "静岡県",
    "city": "浜松市天竜区",
    "town": "春野町越木平"
  },
  "4370621": {
    "zipcode": "4370621",
    "prefectureCode": "22",
    "prefectureNumber": 22,
    "prefecture": "静岡県",
    "city": "浜松市天竜区",
    "town": "春野町砂川"
  },
  "4370622": {
    "zipcode": "4370622",
    "prefectureCode": "22",
    "prefectureNumber": 22,
    "prefecture": "静岡県",
    "city": "浜松市天竜区",
    "town": "春野町大時"
  },
  "4370623": {
    "zipcode": "4370623",
    "prefectureCode": "22",
    "prefectureNumber": 22,
    "prefecture": "静岡県",
    "city": "浜松市天竜区",
    "town": "春野町胡桃平"
  },
  "4370624": {
    "zipcode": "4370624",
    "prefectureCode": "22",
    "prefectureNumber": 22,
    "prefecture": "静岡県",
    "city": "浜松市天竜区",
    "town": "春野町和泉平"
  },
  "4370625": {
    "zipcode": "4370625",
    "prefectureCode": "22",
    "prefectureNumber": 22,
    "prefecture": "静岡県",
    "city": "浜松市天竜区",
    "town": "春野町堀之内"
  },
  "4370626": {
    "zipcode": "4370626",
    "prefectureCode": "22",
    "prefectureNumber": 22,
    "prefecture": "静岡県",
    "city": "浜松市天竜区",
    "town": "春野町領家"
  },
  "4371101": {
    "zipcode": "4371101",
    "prefectureCode": "22",
    "prefectureNumber": 22,
    "prefecture": "静岡県",
    "city": "袋井市",
    "town": "浅羽"
  },
  "4371102": {
    "zipcode": "4371102",
    "prefectureCode": "22",
    "prefectureNumber": 22,
    "prefecture": "静岡県",
    "city": "袋井市",
    "town": "浅名"
  },
  "4371103": {
    "zipcode": "4371103",
    "prefectureCode": "22",
    "prefectureNumber": 22,
    "prefecture": "静岡県",
    "city": "袋井市",
    "town": "豊住"
  },
  "4371104": {
    "zipcode": "4371104",
    "prefectureCode": "22",
    "prefectureNumber": 22,
    "prefecture": "静岡県",
    "city": "袋井市",
    "town": "新堀"
  },
  "4371105": {
    "zipcode": "4371105",
    "prefectureCode": "22",
    "prefectureNumber": 22,
    "prefecture": "静岡県",
    "city": "袋井市",
    "town": "梅山"
  },
  "4371111": {
    "zipcode": "4371111",
    "prefectureCode": "22",
    "prefectureNumber": 22,
    "prefecture": "静岡県",
    "city": "袋井市",
    "town": "中新田"
  },
  "4371112": {
    "zipcode": "4371112",
    "prefectureCode": "22",
    "prefectureNumber": 22,
    "prefecture": "静岡県",
    "city": "袋井市",
    "town": "大野"
  },
  "4371113": {
    "zipcode": "4371113",
    "prefectureCode": "22",
    "prefectureNumber": 22,
    "prefecture": "静岡県",
    "city": "袋井市",
    "town": "東同笠"
  },
  "4371114": {
    "zipcode": "4371114",
    "prefectureCode": "22",
    "prefectureNumber": 22,
    "prefecture": "静岡県",
    "city": "袋井市",
    "town": "西同笠"
  },
  "4371115": {
    "zipcode": "4371115",
    "prefectureCode": "22",
    "prefectureNumber": 22,
    "prefecture": "静岡県",
    "city": "袋井市",
    "town": "湊"
  },
  "4371116": {
    "zipcode": "4371116",
    "prefectureCode": "22",
    "prefectureNumber": 22,
    "prefecture": "静岡県",
    "city": "袋井市",
    "town": "太郎助"
  },
  "4371117": {
    "zipcode": "4371117",
    "prefectureCode": "22",
    "prefectureNumber": 22,
    "prefecture": "静岡県",
    "city": "袋井市",
    "town": "松原"
  },
  "4371118": {
    "zipcode": "4371118",
    "prefectureCode": "22",
    "prefectureNumber": 22,
    "prefecture": "静岡県",
    "city": "袋井市",
    "town": "西ケ崎"
  },
  "4371119": {
    "zipcode": "4371119",
    "prefectureCode": "22",
    "prefectureNumber": 22,
    "prefecture": "静岡県",
    "city": "袋井市",
    "town": "初越"
  },
  "4371121": {
    "zipcode": "4371121",
    "prefectureCode": "22",
    "prefectureNumber": 22,
    "prefecture": "静岡県",
    "city": "袋井市",
    "town": "諸井"
  },
  "4371122": {
    "zipcode": "4371122",
    "prefectureCode": "22",
    "prefectureNumber": 22,
    "prefecture": "静岡県",
    "city": "袋井市",
    "town": "浅岡"
  },
  "4371123": {
    "zipcode": "4371123",
    "prefectureCode": "22",
    "prefectureNumber": 22,
    "prefecture": "静岡県",
    "city": "袋井市",
    "town": "浅羽一色"
  },
  "4371124": {
    "zipcode": "4371124",
    "prefectureCode": "22",
    "prefectureNumber": 22,
    "prefecture": "静岡県",
    "city": "袋井市",
    "town": "富里"
  },
  "4371125": {
    "zipcode": "4371125",
    "prefectureCode": "22",
    "prefectureNumber": 22,
    "prefecture": "静岡県",
    "city": "袋井市",
    "town": "中"
  },
  "4371126": {
    "zipcode": "4371126",
    "prefectureCode": "22",
    "prefectureNumber": 22,
    "prefecture": "静岡県",
    "city": "袋井市",
    "town": "長溝"
  },
  "4371201": {
    "zipcode": "4371201",
    "prefectureCode": "22",
    "prefectureNumber": 22,
    "prefecture": "静岡県",
    "city": "磐田市",
    "town": "豊浜中野"
  },
  "4371202": {
    "zipcode": "4371202",
    "prefectureCode": "22",
    "prefectureNumber": 22,
    "prefecture": "静岡県",
    "city": "磐田市",
    "town": "豊浜"
  },
  "4371203": {
    "zipcode": "4371203",
    "prefectureCode": "22",
    "prefectureNumber": 22,
    "prefecture": "静岡県",
    "city": "磐田市",
    "town": "福田"
  },
  "4371204": {
    "zipcode": "4371204",
    "prefectureCode": "22",
    "prefectureNumber": 22,
    "prefecture": "静岡県",
    "city": "磐田市",
    "town": "福田中島"
  },
  "4371205": {
    "zipcode": "4371205",
    "prefectureCode": "22",
    "prefectureNumber": 22,
    "prefecture": "静岡県",
    "city": "磐田市",
    "town": "下太"
  },
  "4371206": {
    "zipcode": "4371206",
    "prefectureCode": "22",
    "prefectureNumber": 22,
    "prefecture": "静岡県",
    "city": "磐田市",
    "town": "五十子"
  },
  "4371207": {
    "zipcode": "4371207",
    "prefectureCode": "22",
    "prefectureNumber": 22,
    "prefecture": "静岡県",
    "city": "磐田市",
    "town": "蛭池"
  },
  "4371208": {
    "zipcode": "4371208",
    "prefectureCode": "22",
    "prefectureNumber": 22,
    "prefecture": "静岡県",
    "city": "磐田市",
    "town": "東小島"
  },
  "4371209": {
    "zipcode": "4371209",
    "prefectureCode": "22",
    "prefectureNumber": 22,
    "prefecture": "静岡県",
    "city": "磐田市",
    "town": "南島"
  },
  "4371211": {
    "zipcode": "4371211",
    "prefectureCode": "22",
    "prefectureNumber": 22,
    "prefecture": "静岡県",
    "city": "磐田市",
    "town": "大原（その他）"
  },
  "4371212": {
    "zipcode": "4371212",
    "prefectureCode": "22",
    "prefectureNumber": 22,
    "prefecture": "静岡県",
    "city": "磐田市",
    "town": "南田"
  },
  "4371213": {
    "zipcode": "4371213",
    "prefectureCode": "22",
    "prefectureNumber": 22,
    "prefecture": "静岡県",
    "city": "磐田市",
    "town": "塩新田"
  },
  "4371214": {
    "zipcode": "4371214",
    "prefectureCode": "22",
    "prefectureNumber": 22,
    "prefecture": "静岡県",
    "city": "磐田市",
    "town": "清庵新田"
  },
  "4371215": {
    "zipcode": "4371215",
    "prefectureCode": "22",
    "prefectureNumber": 22,
    "prefecture": "静岡県",
    "city": "磐田市",
    "town": "太郎馬新田"
  },
  "4371216": {
    "zipcode": "4371216",
    "prefectureCode": "22",
    "prefectureNumber": 22,
    "prefecture": "静岡県",
    "city": "磐田市",
    "town": "一色"
  },
  "4371217": {
    "zipcode": "4371217",
    "prefectureCode": "22",
    "prefectureNumber": 22,
    "prefecture": "静岡県",
    "city": "磐田市",
    "town": "宇兵衛新田"
  },
  "4371218": {
    "zipcode": "4371218",
    "prefectureCode": "22",
    "prefectureNumber": 22,
    "prefecture": "静岡県",
    "city": "磐田市",
    "town": "南田伊兵衛新田"
  },
  "4371301": {
    "zipcode": "4371301",
    "prefectureCode": "22",
    "prefectureNumber": 22,
    "prefecture": "静岡県",
    "city": "掛川市",
    "town": "横須賀"
  },
  "4371302": {
    "zipcode": "4371302",
    "prefectureCode": "22",
    "prefectureNumber": 22,
    "prefecture": "静岡県",
    "city": "掛川市",
    "town": "大渕"
  },
  "4371303": {
    "zipcode": "4371303",
    "prefectureCode": "22",
    "prefectureNumber": 22,
    "prefecture": "静岡県",
    "city": "掛川市",
    "town": "沖之須"
  },
  "4371304": {
    "zipcode": "4371304",
    "prefectureCode": "22",
    "prefectureNumber": 22,
    "prefecture": "静岡県",
    "city": "掛川市",
    "town": "西大渕"
  },
  "4371305": {
    "zipcode": "4371305",
    "prefectureCode": "22",
    "prefectureNumber": 22,
    "prefecture": "静岡県",
    "city": "掛川市",
    "town": "山崎"
  },
  "4371306": {
    "zipcode": "4371306",
    "prefectureCode": "22",
    "prefectureNumber": 22,
    "prefecture": "静岡県",
    "city": "掛川市",
    "town": "洋望台"
  },
  "4371311": {
    "zipcode": "4371311",
    "prefectureCode": "22",
    "prefectureNumber": 22,
    "prefecture": "静岡県",
    "city": "袋井市",
    "town": "山崎"
  },
  "4371312": {
    "zipcode": "4371312",
    "prefectureCode": "22",
    "prefectureNumber": 22,
    "prefecture": "静岡県",
    "city": "袋井市",
    "town": "岡崎"
  },
  "4371401": {
    "zipcode": "4371401",
    "prefectureCode": "22",
    "prefectureNumber": 22,
    "prefecture": "静岡県",
    "city": "掛川市",
    "town": "高瀬"
  },
  "4371402": {
    "zipcode": "4371402",
    "prefectureCode": "22",
    "prefectureNumber": 22,
    "prefecture": "静岡県",
    "city": "掛川市",
    "town": "中方"
  },
  "4371403": {
    "zipcode": "4371403",
    "prefectureCode": "22",
    "prefectureNumber": 22,
    "prefecture": "静岡県",
    "city": "掛川市",
    "town": "岩滑"
  },
  "4371404": {
    "zipcode": "4371404",
    "prefectureCode": "22",
    "prefectureNumber": 22,
    "prefecture": "静岡県",
    "city": "掛川市",
    "town": "西之谷"
  },
  "4371405": {
    "zipcode": "4371405",
    "prefectureCode": "22",
    "prefectureNumber": 22,
    "prefecture": "静岡県",
    "city": "掛川市",
    "town": "中"
  },
  "4371406": {
    "zipcode": "4371406",
    "prefectureCode": "22",
    "prefectureNumber": 22,
    "prefecture": "静岡県",
    "city": "掛川市",
    "town": "川久保"
  },
  "4371407": {
    "zipcode": "4371407",
    "prefectureCode": "22",
    "prefectureNumber": 22,
    "prefecture": "静岡県",
    "city": "掛川市",
    "town": "小貫"
  },
  "4371411": {
    "zipcode": "4371411",
    "prefectureCode": "22",
    "prefectureNumber": 22,
    "prefecture": "静岡県",
    "city": "掛川市",
    "town": "坂里"
  },
  "4371412": {
    "zipcode": "4371412",
    "prefectureCode": "22",
    "prefectureNumber": 22,
    "prefecture": "静岡県",
    "city": "掛川市",
    "town": "千浜"
  },
  "4371413": {
    "zipcode": "4371413",
    "prefectureCode": "22",
    "prefectureNumber": 22,
    "prefecture": "静岡県",
    "city": "掛川市",
    "town": "国安"
  },
  "4371414": {
    "zipcode": "4371414",
    "prefectureCode": "22",
    "prefectureNumber": 22,
    "prefecture": "静岡県",
    "city": "掛川市",
    "town": "国包"
  },
  "4371415": {
    "zipcode": "4371415",
    "prefectureCode": "22",
    "prefectureNumber": 22,
    "prefecture": "静岡県",
    "city": "掛川市",
    "town": "菊浜"
  },
  "4371416": {
    "zipcode": "4371416",
    "prefectureCode": "22",
    "prefectureNumber": 22,
    "prefecture": "静岡県",
    "city": "掛川市",
    "town": "三俣"
  },
  "4371421": {
    "zipcode": "4371421",
    "prefectureCode": "22",
    "prefectureNumber": 22,
    "prefecture": "静岡県",
    "city": "掛川市",
    "town": "大坂"
  },
  "4371422": {
    "zipcode": "4371422",
    "prefectureCode": "22",
    "prefectureNumber": 22,
    "prefecture": "静岡県",
    "city": "掛川市",
    "town": "海戸"
  },
  "4371423": {
    "zipcode": "4371423",
    "prefectureCode": "22",
    "prefectureNumber": 22,
    "prefecture": "静岡県",
    "city": "掛川市",
    "town": "浜川新田"
  },
  "4371424": {
    "zipcode": "4371424",
    "prefectureCode": "22",
    "prefectureNumber": 22,
    "prefecture": "静岡県",
    "city": "掛川市",
    "town": "浜野"
  },
  "4371425": {
    "zipcode": "4371425",
    "prefectureCode": "22",
    "prefectureNumber": 22,
    "prefecture": "静岡県",
    "city": "掛川市",
    "town": "浜野新田"
  },
  "4371431": {
    "zipcode": "4371431",
    "prefectureCode": "22",
    "prefectureNumber": 22,
    "prefecture": "静岡県",
    "city": "掛川市",
    "town": "上土方落合"
  },
  "4371432": {
    "zipcode": "4371432",
    "prefectureCode": "22",
    "prefectureNumber": 22,
    "prefecture": "静岡県",
    "city": "掛川市",
    "town": "上土方工業団地"
  },
  "4371433": {
    "zipcode": "4371433",
    "prefectureCode": "22",
    "prefectureNumber": 22,
    "prefecture": "静岡県",
    "city": "掛川市",
    "town": "上土方"
  },
  "4371434": {
    "zipcode": "4371434",
    "prefectureCode": "22",
    "prefectureNumber": 22,
    "prefecture": "静岡県",
    "city": "掛川市",
    "town": "下土方"
  },
  "4371435": {
    "zipcode": "4371435",
    "prefectureCode": "22",
    "prefectureNumber": 22,
    "prefecture": "静岡県",
    "city": "掛川市",
    "town": "上土方嶺向"
  },
  "4371436": {
    "zipcode": "4371436",
    "prefectureCode": "22",
    "prefectureNumber": 22,
    "prefecture": "静岡県",
    "city": "掛川市",
    "town": "今滝"
  },
  "4371437": {
    "zipcode": "4371437",
    "prefectureCode": "22",
    "prefectureNumber": 22,
    "prefecture": "静岡県",
    "city": "掛川市",
    "town": "上土方旦付新田"
  },
  "4371438": {
    "zipcode": "4371438",
    "prefectureCode": "22",
    "prefectureNumber": 22,
    "prefecture": "静岡県",
    "city": "掛川市",
    "town": "入山瀬"
  },
  "4371439": {
    "zipcode": "4371439",
    "prefectureCode": "22",
    "prefectureNumber": 22,
    "prefecture": "静岡県",
    "city": "掛川市",
    "town": "大坪台"
  },
  "4371501": {
    "zipcode": "4371501",
    "prefectureCode": "22",
    "prefectureNumber": 22,
    "prefecture": "静岡県",
    "city": "菊川市",
    "town": "丹野"
  },
  "4371502": {
    "zipcode": "4371502",
    "prefectureCode": "22",
    "prefectureNumber": 22,
    "prefecture": "静岡県",
    "city": "菊川市",
    "town": "古谷"
  },
  "4371503": {
    "zipcode": "4371503",
    "prefectureCode": "22",
    "prefectureNumber": 22,
    "prefecture": "静岡県",
    "city": "菊川市",
    "town": "川上"
  },
  "4371504": {
    "zipcode": "4371504",
    "prefectureCode": "22",
    "prefectureNumber": 22,
    "prefecture": "静岡県",
    "city": "菊川市",
    "town": "花水木"
  },
  "4371505": {
    "zipcode": "4371505",
    "prefectureCode": "22",
    "prefectureNumber": 22,
    "prefecture": "静岡県",
    "city": "菊川市",
    "town": "高橋"
  },
  "4371506": {
    "zipcode": "4371506",
    "prefectureCode": "22",
    "prefectureNumber": 22,
    "prefecture": "静岡県",
    "city": "菊川市",
    "town": "河東"
  },
  "4371507": {
    "zipcode": "4371507",
    "prefectureCode": "22",
    "prefectureNumber": 22,
    "prefecture": "静岡県",
    "city": "菊川市",
    "town": "赤土"
  },
  "4371511": {
    "zipcode": "4371511",
    "prefectureCode": "22",
    "prefectureNumber": 22,
    "prefecture": "静岡県",
    "city": "菊川市",
    "town": "目木"
  },
  "4371512": {
    "zipcode": "4371512",
    "prefectureCode": "22",
    "prefectureNumber": 22,
    "prefecture": "静岡県",
    "city": "菊川市",
    "town": "猿渡"
  },
  "4371513": {
    "zipcode": "4371513",
    "prefectureCode": "22",
    "prefectureNumber": 22,
    "prefecture": "静岡県",
    "city": "菊川市",
    "town": "棚草"
  },
  "4371514": {
    "zipcode": "4371514",
    "prefectureCode": "22",
    "prefectureNumber": 22,
    "prefecture": "静岡県",
    "city": "菊川市",
    "town": "下平川"
  },
  "4371521": {
    "zipcode": "4371521",
    "prefectureCode": "22",
    "prefectureNumber": 22,
    "prefecture": "静岡県",
    "city": "菊川市",
    "town": "上平川"
  },
  "4371522": {
    "zipcode": "4371522",
    "prefectureCode": "22",
    "prefectureNumber": 22,
    "prefecture": "静岡県",
    "city": "菊川市",
    "town": "嶺田"
  },
  "4371523": {
    "zipcode": "4371523",
    "prefectureCode": "22",
    "prefectureNumber": 22,
    "prefecture": "静岡県",
    "city": "菊川市",
    "town": "堂山新田"
  },
  "4371524": {
    "zipcode": "4371524",
    "prefectureCode": "22",
    "prefectureNumber": 22,
    "prefecture": "静岡県",
    "city": "菊川市",
    "town": "大石"
  },
  "4371600": {
    "zipcode": "4371600",
    "prefectureCode": "22",
    "prefectureNumber": 22,
    "prefecture": "静岡県",
    "city": "御前崎市",
    "town": "以下に掲載がない場合"
  },
  "4371601": {
    "zipcode": "4371601",
    "prefectureCode": "22",
    "prefectureNumber": 22,
    "prefecture": "静岡県",
    "city": "御前崎市",
    "town": "上朝比奈"
  },
  "4371602": {
    "zipcode": "4371602",
    "prefectureCode": "22",
    "prefectureNumber": 22,
    "prefecture": "静岡県",
    "city": "御前崎市",
    "town": "比木"
  },
  "4371603": {
    "zipcode": "4371603",
    "prefectureCode": "22",
    "prefectureNumber": 22,
    "prefecture": "静岡県",
    "city": "御前崎市",
    "town": "宮内"
  },
  "4371604": {
    "zipcode": "4371604",
    "prefectureCode": "22",
    "prefectureNumber": 22,
    "prefecture": "静岡県",
    "city": "御前崎市",
    "town": "佐倉"
  },
  "4371605": {
    "zipcode": "4371605",
    "prefectureCode": "22",
    "prefectureNumber": 22,
    "prefecture": "静岡県",
    "city": "御前崎市",
    "town": "下朝比奈"
  },
  "4371611": {
    "zipcode": "4371611",
    "prefectureCode": "22",
    "prefectureNumber": 22,
    "prefecture": "静岡県",
    "city": "御前崎市",
    "town": "新野"
  },
  "4371612": {
    "zipcode": "4371612",
    "prefectureCode": "22",
    "prefectureNumber": 22,
    "prefecture": "静岡県",
    "city": "御前崎市",
    "town": "池新田"
  },
  "4371613": {
    "zipcode": "4371613",
    "prefectureCode": "22",
    "prefectureNumber": 22,
    "prefecture": "静岡県",
    "city": "御前崎市",
    "town": "合戸"
  },
  "4371614": {
    "zipcode": "4371614",
    "prefectureCode": "22",
    "prefectureNumber": 22,
    "prefecture": "静岡県",
    "city": "御前崎市",
    "town": "塩原新田"
  },
  "4371615": {
    "zipcode": "4371615",
    "prefectureCode": "22",
    "prefectureNumber": 22,
    "prefecture": "静岡県",
    "city": "御前崎市",
    "town": "門屋"
  },
  "4371621": {
    "zipcode": "4371621",
    "prefectureCode": "22",
    "prefectureNumber": 22,
    "prefecture": "静岡県",
    "city": "御前崎市",
    "town": "御前崎"
  },
  "4371622": {
    "zipcode": "4371622",
    "prefectureCode": "22",
    "prefectureNumber": 22,
    "prefecture": "静岡県",
    "city": "御前崎市",
    "town": "白羽"
  },
  "4371623": {
    "zipcode": "4371623",
    "prefectureCode": "22",
    "prefectureNumber": 22,
    "prefecture": "静岡県",
    "city": "御前崎市",
    "town": "港"
  }
}
