{
  "4380000": {
    "zipcode": "4380000",
    "prefectureCode": "22",
    "prefectureNumber": 22,
    "prefecture": "静岡県",
    "city": "磐田市",
    "town": "以下に掲載がない場合"
  },
  "4380001": {
    "zipcode": "4380001",
    "prefectureCode": "22",
    "prefectureNumber": 22,
    "prefecture": "静岡県",
    "city": "磐田市",
    "town": "藤上原"
  },
  "4380002": {
    "zipcode": "4380002",
    "prefectureCode": "22",
    "prefectureNumber": 22,
    "prefecture": "静岡県",
    "city": "磐田市",
    "town": "大久保"
  },
  "4380003": {
    "zipcode": "4380003",
    "prefectureCode": "22",
    "prefectureNumber": 22,
    "prefecture": "静岡県",
    "city": "磐田市",
    "town": "匂坂新"
  },
  "4380004": {
    "zipcode": "4380004",
    "prefectureCode": "22",
    "prefectureNumber": 22,
    "prefecture": "静岡県",
    "city": "磐田市",
    "town": "匂坂中"
  },
  "4380005": {
    "zipcode": "4380005",
    "prefectureCode": "22",
    "prefectureNumber": 22,
    "prefecture": "静岡県",
    "city": "磐田市",
    "town": "匂坂上"
  },
  "4380006": {
    "zipcode": "4380006",
    "prefectureCode": "22",
    "prefectureNumber": 22,
    "prefecture": "静岡県",
    "city": "磐田市",
    "town": "寺谷"
  },
  "4380007": {
    "zipcode": "4380007",
    "prefectureCode": "22",
    "prefectureNumber": 22,
    "prefecture": "静岡県",
    "city": "磐田市",
    "town": "寺谷新田"
  },
  "4380008": {
    "zipcode": "4380008",
    "prefectureCode": "22",
    "prefectureNumber": 22,
    "prefecture": "静岡県",
    "city": "磐田市",
    "town": "平松掛下入作"
  },
  "4380011": {
    "zipcode": "4380011",
    "prefectureCode": "22",
    "prefectureNumber": 22,
    "prefecture": "静岡県",
    "city": "磐田市",
    "town": "笠梅"
  },
  "4380012": {
    "zipcode": "4380012",
    "prefectureCode": "22",
    "prefectureNumber": 22,
    "prefecture": "静岡県",
    "city": "磐田市",
    "town": "向笠新屋"
  },
  "4380013": {
    "zipcode": "4380013",
    "prefectureCode": "22",
    "prefectureNumber": 22,
    "prefecture": "静岡県",
    "city": "磐田市",
    "town": "向笠竹之内"
  },
  "4380014": {
    "zipcode": "4380014",
    "prefectureCode": "22",
    "prefectureNumber": 22,
    "prefecture": "静岡県",
    "city": "磐田市",
    "town": "向笠西"
  },
  "4380015": {
    "zipcode": "4380015",
    "prefectureCode": "22",
    "prefectureNumber": 22,
    "prefecture": "静岡県",
    "city": "磐田市",
    "town": "篠原"
  },
  "4380016": {
    "zipcode": "4380016",
    "prefectureCode": "22",
    "prefectureNumber": 22,
    "prefecture": "静岡県",
    "city": "磐田市",
    "town": "岩井"
  },
  "4380017": {
    "zipcode": "4380017",
    "prefectureCode": "22",
    "prefectureNumber": 22,
    "prefecture": "静岡県",
    "city": "磐田市",
    "town": "安久路"
  },
  "4380018": {
    "zipcode": "4380018",
    "prefectureCode": "22",
    "prefectureNumber": 22,
    "prefecture": "静岡県",
    "city": "磐田市",
    "town": "三ケ野台"
  },
  "4380019": {
    "zipcode": "4380019",
    "prefectureCode": "22",
    "prefectureNumber": 22,
    "prefecture": "静岡県",
    "city": "磐田市",
    "town": "明ケ島原"
  },
  "4380021": {
    "zipcode": "4380021",
    "prefectureCode": "22",
    "prefectureNumber": 22,
    "prefecture": "静岡県",
    "city": "磐田市",
    "town": "玉越"
  },
  "4380022": {
    "zipcode": "4380022",
    "prefectureCode": "22",
    "prefectureNumber": 22,
    "prefecture": "静岡県",
    "city": "磐田市",
    "town": "西島"
  },
  "4380023": {
    "zipcode": "4380023",
    "prefectureCode": "22",
    "prefectureNumber": 22,
    "prefecture": "静岡県",
    "city": "磐田市",
    "town": "彦島"
  },
  "4380024": {
    "zipcode": "4380024",
    "prefectureCode": "22",
    "prefectureNumber": 22,
    "prefecture": "静岡県",
    "city": "磐田市",
    "town": "明ケ島"
  },
  "4380025": {
    "zipcode": "4380025",
    "prefectureCode": "22",
    "prefectureNumber": 22,
    "prefecture": "静岡県",
    "city": "磐田市",
    "town": "新貝"
  },
  "4380026": {
    "zipcode": "4380026",
    "prefectureCode": "22",
    "prefectureNumber": 22,
    "prefecture": "静岡県",
    "city": "磐田市",
    "town": "西貝塚"
  },
  "4380027": {
    "zipcode": "4380027",
    "prefectureCode": "22",
    "prefectureNumber": 22,
    "prefecture": "静岡県",
    "city": "磐田市",
    "town": "三ケ野"
  },
  "4380028": {
    "zipcode": "4380028",
    "prefectureCode": "22",
    "prefectureNumber": 22,
    "prefecture": "静岡県",
    "city": "磐田市",
    "town": "東山"
  },
  "4380031": {
    "zipcode": "4380031",
    "prefectureCode": "22",
    "prefectureNumber": 22,
    "prefecture": "静岡県",
    "city": "磐田市",
    "town": "稗原"
  },
  "4380032": {
    "zipcode": "4380032",
    "prefectureCode": "22",
    "prefectureNumber": 22,
    "prefecture": "静岡県",
    "city": "磐田市",
    "town": "東脇"
  },
  "4380033": {
    "zipcode": "4380033",
    "prefectureCode": "22",
    "prefectureNumber": 22,
    "prefecture": "静岡県",
    "city": "磐田市",
    "town": "新出"
  },
  "4380034": {
    "zipcode": "4380034",
    "prefectureCode": "22",
    "prefectureNumber": 22,
    "prefecture": "静岡県",
    "city": "磐田市",
    "town": "和口"
  },
  "4380035": {
    "zipcode": "4380035",
    "prefectureCode": "22",
    "prefectureNumber": 22,
    "prefecture": "静岡県",
    "city": "磐田市",
    "town": "東新屋"
  },
  "4380036": {
    "zipcode": "4380036",
    "prefectureCode": "22",
    "prefectureNumber": 22,
    "prefecture": "静岡県",
    "city": "磐田市",
    "town": "大立野"
  },
  "4380037": {
    "zipcode": "4380037",
    "prefectureCode": "22",
    "prefectureNumber": 22,
    "prefecture": "静岡県",
    "city": "磐田市",
    "town": "東貝塚"
  },
  "4380038": {
    "zipcode": "4380038",
    "prefectureCode": "22",
    "prefectureNumber": 22,
    "prefecture": "静岡県",
    "city": "磐田市",
    "town": "鎌田"
  },
  "4380039": {
    "zipcode": "4380039",
    "prefectureCode": "22",
    "prefectureNumber": 22,
    "prefecture": "静岡県",
    "city": "磐田市",
    "town": "東新町"
  },
  "4380041": {
    "zipcode": "4380041",
    "prefectureCode": "22",
    "prefectureNumber": 22,
    "prefecture": "静岡県",
    "city": "磐田市",
    "town": "西之島"
  },
  "4380042": {
    "zipcode": "4380042",
    "prefectureCode": "22",
    "prefectureNumber": 22,
    "prefecture": "静岡県",
    "city": "磐田市",
    "town": "上南田"
  },
  "4380043": {
    "zipcode": "4380043",
    "prefectureCode": "22",
    "prefectureNumber": 22,
    "prefecture": "静岡県",
    "city": "磐田市",
    "town": "大原（１番地〜２０６１番地、２７５７番地〜２７６８番地）"
  },
  "4380044": {
    "zipcode": "4380044",
    "prefectureCode": "22",
    "prefectureNumber": 22,
    "prefecture": "静岡県",
    "city": "磐田市",
    "town": "大泉町"
  },
  "4380045": {
    "zipcode": "4380045",
    "prefectureCode": "22",
    "prefectureNumber": 22,
    "prefecture": "静岡県",
    "city": "磐田市",
    "town": "上岡田"
  },
  "4380046": {
    "zipcode": "4380046",
    "prefectureCode": "22",
    "prefectureNumber": 22,
    "prefecture": "静岡県",
    "city": "磐田市",
    "town": "下岡田"
  },
  "4380047": {
    "zipcode": "4380047",
    "prefectureCode": "22",
    "prefectureNumber": 22,
    "prefecture": "静岡県",
    "city": "磐田市",
    "town": "豊島"
  },
  "4380051": {
    "zipcode": "4380051",
    "prefectureCode": "22",
    "prefectureNumber": 22,
    "prefecture": "静岡県",
    "city": "磐田市",
    "town": "上大之郷"
  },
  "4380052": {
    "zipcode": "4380052",
    "prefectureCode": "22",
    "prefectureNumber": 22,
    "prefecture": "静岡県",
    "city": "磐田市",
    "town": "下大之郷"
  },
  "4380053": {
    "zipcode": "4380053",
    "prefectureCode": "22",
    "prefectureNumber": 22,
    "prefecture": "静岡県",
    "city": "磐田市",
    "town": "中野"
  },
  "4380054": {
    "zipcode": "4380054",
    "prefectureCode": "22",
    "prefectureNumber": 22,
    "prefecture": "静岡県",
    "city": "磐田市",
    "town": "浜部"
  },
  "4380055": {
    "zipcode": "4380055",
    "prefectureCode": "22",
    "prefectureNumber": 22,
    "prefecture": "静岡県",
    "city": "磐田市",
    "town": "鮫島"
  },
  "4380056": {
    "zipcode": "4380056",
    "prefectureCode": "22",
    "prefectureNumber": 22,
    "prefecture": "静岡県",
    "city": "磐田市",
    "town": "小島"
  },
  "4380057": {
    "zipcode": "4380057",
    "prefectureCode": "22",
    "prefectureNumber": 22,
    "prefecture": "静岡県",
    "city": "磐田市",
    "town": "千手堂"
  },
  "4380058": {
    "zipcode": "4380058",
    "prefectureCode": "22",
    "prefectureNumber": 22,
    "prefecture": "静岡県",
    "city": "磐田市",
    "town": "万正寺"
  },
  "4380061": {
    "zipcode": "4380061",
    "prefectureCode": "22",
    "prefectureNumber": 22,
    "prefecture": "静岡県",
    "city": "磐田市",
    "town": "刑部島"
  },
  "4380062": {
    "zipcode": "4380062",
    "prefectureCode": "22",
    "prefectureNumber": 22,
    "prefecture": "静岡県",
    "city": "磐田市",
    "town": "新島"
  },
  "4380063": {
    "zipcode": "4380063",
    "prefectureCode": "22",
    "prefectureNumber": 22,
    "prefecture": "静岡県",
    "city": "磐田市",
    "town": "真光寺"
  },
  "4380064": {
    "zipcode": "4380064",
    "prefectureCode": "22",
    "prefectureNumber": 22,
    "prefecture": "静岡県",
    "city": "磐田市",
    "town": "北島"
  },
  "4380065": {
    "zipcode": "4380065",
    "prefectureCode": "22",
    "prefectureNumber": 22,
    "prefecture": "静岡県",
    "city": "磐田市",
    "town": "野箱"
  },
  "4380066": {
    "zipcode": "4380066",
    "prefectureCode": "22",
    "prefectureNumber": 22,
    "prefecture": "静岡県",
    "city": "磐田市",
    "town": "白拍子"
  },
  "4380067": {
    "zipcode": "4380067",
    "prefectureCode": "22",
    "prefectureNumber": 22,
    "prefecture": "静岡県",
    "city": "磐田市",
    "town": "草崎"
  },
  "4380068": {
    "zipcode": "4380068",
    "prefectureCode": "22",
    "prefectureNumber": 22,
    "prefecture": "静岡県",
    "city": "磐田市",
    "town": "前野"
  },
  "4380069": {
    "zipcode": "4380069",
    "prefectureCode": "22",
    "prefectureNumber": 22,
    "prefecture": "静岡県",
    "city": "磐田市",
    "town": "長須賀"
  },
  "4380071": {
    "zipcode": "4380071",
    "prefectureCode": "22",
    "prefectureNumber": 22,
    "prefecture": "静岡県",
    "city": "磐田市",
    "town": "今之浦"
  },
  "4380072": {
    "zipcode": "4380072",
    "prefectureCode": "22",
    "prefectureNumber": 22,
    "prefecture": "静岡県",
    "city": "磐田市",
    "town": "鳥之瀬"
  },
  "4380073": {
    "zipcode": "4380073",
    "prefectureCode": "22",
    "prefectureNumber": 22,
    "prefecture": "静岡県",
    "city": "磐田市",
    "town": "二之宮東"
  },
  "4380074": {
    "zipcode": "4380074",
    "prefectureCode": "22",
    "prefectureNumber": 22,
    "prefecture": "静岡県",
    "city": "磐田市",
    "town": "二之宮浅間"
  },
  "4380075": {
    "zipcode": "4380075",
    "prefectureCode": "22",
    "prefectureNumber": 22,
    "prefecture": "静岡県",
    "city": "磐田市",
    "town": "天龍"
  },
  "4380077": {
    "zipcode": "4380077",
    "prefectureCode": "22",
    "prefectureNumber": 22,
    "prefecture": "静岡県",
    "city": "磐田市",
    "town": "国府台"
  },
  "4380078": {
    "zipcode": "4380078",
    "prefectureCode": "22",
    "prefectureNumber": 22,
    "prefecture": "静岡県",
    "city": "磐田市",
    "town": "本町"
  },
  "4380081": {
    "zipcode": "4380081",
    "prefectureCode": "22",
    "prefectureNumber": 22,
    "prefecture": "静岡県",
    "city": "磐田市",
    "town": "緑ケ丘"
  },
  "4380082": {
    "zipcode": "4380082",
    "prefectureCode": "22",
    "prefectureNumber": 22,
    "prefecture": "静岡県",
    "city": "磐田市",
    "town": "元天神町"
  },
  "4380083": {
    "zipcode": "4380083",
    "prefectureCode": "22",
    "prefectureNumber": 22,
    "prefecture": "静岡県",
    "city": "磐田市",
    "town": "富士見町"
  },
  "4380084": {
    "zipcode": "4380084",
    "prefectureCode": "22",
    "prefectureNumber": 22,
    "prefecture": "静岡県",
    "city": "磐田市",
    "town": "城之崎"
  },
  "4380085": {
    "zipcode": "4380085",
    "prefectureCode": "22",
    "prefectureNumber": 22,
    "prefecture": "静岡県",
    "city": "磐田市",
    "town": "水堀"
  },
  "4380086": {
    "zipcode": "4380086",
    "prefectureCode": "22",
    "prefectureNumber": 22,
    "prefecture": "静岡県",
    "city": "磐田市",
    "town": "元宮町"
  },
  "4380088": {
    "zipcode": "4380088",
    "prefectureCode": "22",
    "prefectureNumber": 22,
    "prefecture": "静岡県",
    "city": "磐田市",
    "town": "富士見台"
  },
  "4380101": {
    "zipcode": "4380101",
    "prefectureCode": "22",
    "prefectureNumber": 22,
    "prefecture": "静岡県",
    "city": "磐田市",
    "town": "万瀬"
  },
  "4380102": {
    "zipcode": "4380102",
    "prefectureCode": "22",
    "prefectureNumber": 22,
    "prefecture": "静岡県",
    "city": "磐田市",
    "town": "虫生"
  },
  "4380103": {
    "zipcode": "4380103",
    "prefectureCode": "22",
    "prefectureNumber": 22,
    "prefecture": "静岡県",
    "city": "磐田市",
    "town": "大平"
  },
  "4380104": {
    "zipcode": "4380104",
    "prefectureCode": "22",
    "prefectureNumber": 22,
    "prefecture": "静岡県",
    "city": "磐田市",
    "town": "岩室"
  },
  "4380105": {
    "zipcode": "4380105",
    "prefectureCode": "22",
    "prefectureNumber": 22,
    "prefecture": "静岡県",
    "city": "磐田市",
    "town": "家田"
  },
  "4380106": {
    "zipcode": "4380106",
    "prefectureCode": "22",
    "prefectureNumber": 22,
    "prefecture": "静岡県",
    "city": "磐田市",
    "town": "敷地"
  },
  "4380107": {
    "zipcode": "4380107",
    "prefectureCode": "22",
    "prefectureNumber": 22,
    "prefecture": "静岡県",
    "city": "磐田市",
    "town": "大当所"
  },
  "4380108": {
    "zipcode": "4380108",
    "prefectureCode": "22",
    "prefectureNumber": 22,
    "prefecture": "静岡県",
    "city": "磐田市",
    "town": "社山"
  },
  "4380111": {
    "zipcode": "4380111",
    "prefectureCode": "22",
    "prefectureNumber": 22,
    "prefecture": "静岡県",
    "city": "磐田市",
    "town": "上野部"
  },
  "4380112": {
    "zipcode": "4380112",
    "prefectureCode": "22",
    "prefectureNumber": 22,
    "prefecture": "静岡県",
    "city": "磐田市",
    "town": "下野部"
  },
  "4380113": {
    "zipcode": "4380113",
    "prefectureCode": "22",
    "prefectureNumber": 22,
    "prefecture": "静岡県",
    "city": "磐田市",
    "town": "新開"
  },
  "4380114": {
    "zipcode": "4380114",
    "prefectureCode": "22",
    "prefectureNumber": 22,
    "prefecture": "静岡県",
    "city": "磐田市",
    "town": "合代島"
  },
  "4380115": {
    "zipcode": "4380115",
    "prefectureCode": "22",
    "prefectureNumber": 22,
    "prefecture": "静岡県",
    "city": "磐田市",
    "town": "上神増"
  },
  "4380116": {
    "zipcode": "4380116",
    "prefectureCode": "22",
    "prefectureNumber": 22,
    "prefecture": "静岡県",
    "city": "磐田市",
    "town": "壱貫地"
  },
  "4380121": {
    "zipcode": "4380121",
    "prefectureCode": "22",
    "prefectureNumber": 22,
    "prefecture": "静岡県",
    "city": "磐田市",
    "town": "神増"
  },
  "4380122": {
    "zipcode": "4380122",
    "prefectureCode": "22",
    "prefectureNumber": 22,
    "prefecture": "静岡県",
    "city": "磐田市",
    "town": "惣兵衛下新田"
  },
  "4380123": {
    "zipcode": "4380123",
    "prefectureCode": "22",
    "prefectureNumber": 22,
    "prefecture": "静岡県",
    "city": "磐田市",
    "town": "平松"
  },
  "4380124": {
    "zipcode": "4380124",
    "prefectureCode": "22",
    "prefectureNumber": 22,
    "prefecture": "静岡県",
    "city": "磐田市",
    "town": "掛下"
  },
  "4380125": {
    "zipcode": "4380125",
    "prefectureCode": "22",
    "prefectureNumber": 22,
    "prefecture": "静岡県",
    "city": "磐田市",
    "town": "松之木島"
  },
  "4380126": {
    "zipcode": "4380126",
    "prefectureCode": "22",
    "prefectureNumber": 22,
    "prefecture": "静岡県",
    "city": "磐田市",
    "town": "下神増"
  },
  "4380127": {
    "zipcode": "4380127",
    "prefectureCode": "22",
    "prefectureNumber": 22,
    "prefecture": "静岡県",
    "city": "磐田市",
    "town": "三家"
  },
  "4380201": {
    "zipcode": "4380201",
    "prefectureCode": "22",
    "prefectureNumber": 22,
    "prefecture": "静岡県",
    "city": "磐田市",
    "town": "竜洋中島"
  },
  "4380202": {
    "zipcode": "4380202",
    "prefectureCode": "22",
    "prefectureNumber": 22,
    "prefecture": "静岡県",
    "city": "磐田市",
    "town": "高木"
  },
  "4380203": {
    "zipcode": "4380203",
    "prefectureCode": "22",
    "prefectureNumber": 22,
    "prefecture": "静岡県",
    "city": "磐田市",
    "town": "平間"
  },
  "4380204": {
    "zipcode": "4380204",
    "prefectureCode": "22",
    "prefectureNumber": 22,
    "prefecture": "静岡県",
    "city": "磐田市",
    "town": "岡"
  },
  "4380205": {
    "zipcode": "4380205",
    "prefectureCode": "22",
    "prefectureNumber": 22,
    "prefecture": "静岡県",
    "city": "磐田市",
    "town": "堀之内"
  },
  "4380206": {
    "zipcode": "4380206",
    "prefectureCode": "22",
    "prefectureNumber": 22,
    "prefecture": "静岡県",
    "city": "磐田市",
    "town": "松本"
  },
  "4380207": {
    "zipcode": "4380207",
    "prefectureCode": "22",
    "prefectureNumber": 22,
    "prefecture": "静岡県",
    "city": "磐田市",
    "town": "宮本"
  },
  "4380211": {
    "zipcode": "4380211",
    "prefectureCode": "22",
    "prefectureNumber": 22,
    "prefecture": "静岡県",
    "city": "磐田市",
    "town": "東平松"
  },
  "4380212": {
    "zipcode": "4380212",
    "prefectureCode": "22",
    "prefectureNumber": 22,
    "prefecture": "静岡県",
    "city": "磐田市",
    "town": "海老島"
  },
  "4380213": {
    "zipcode": "4380213",
    "prefectureCode": "22",
    "prefectureNumber": 22,
    "prefecture": "静岡県",
    "city": "磐田市",
    "town": "竜洋稗原"
  },
  "4380214": {
    "zipcode": "4380214",
    "prefectureCode": "22",
    "prefectureNumber": 22,
    "prefecture": "静岡県",
    "city": "磐田市",
    "town": "大中瀬"
  },
  "4380215": {
    "zipcode": "4380215",
    "prefectureCode": "22",
    "prefectureNumber": 22,
    "prefecture": "静岡県",
    "city": "磐田市",
    "town": "小中瀬"
  },
  "4380216": {
    "zipcode": "4380216",
    "prefectureCode": "22",
    "prefectureNumber": 22,
    "prefecture": "静岡県",
    "city": "磐田市",
    "town": "飛平松"
  },
  "4380217": {
    "zipcode": "4380217",
    "prefectureCode": "22",
    "prefectureNumber": 22,
    "prefecture": "静岡県",
    "city": "磐田市",
    "town": "西平松"
  },
  "4380218": {
    "zipcode": "4380218",
    "prefectureCode": "22",
    "prefectureNumber": 22,
    "prefecture": "静岡県",
    "city": "磐田市",
    "town": "中平松"
  },
  "4380221": {
    "zipcode": "4380221",
    "prefectureCode": "22",
    "prefectureNumber": 22,
    "prefecture": "静岡県",
    "city": "磐田市",
    "town": "南平松"
  },
  "4380222": {
    "zipcode": "4380222",
    "prefectureCode": "22",
    "prefectureNumber": 22,
    "prefecture": "静岡県",
    "city": "磐田市",
    "town": "須恵新田"
  },
  "4380223": {
    "zipcode": "4380223",
    "prefectureCode": "22",
    "prefectureNumber": 22,
    "prefecture": "静岡県",
    "city": "磐田市",
    "town": "請負新田"
  },
  "4380224": {
    "zipcode": "4380224",
    "prefectureCode": "22",
    "prefectureNumber": 22,
    "prefecture": "静岡県",
    "city": "磐田市",
    "town": "浜新田"
  },
  "4380231": {
    "zipcode": "4380231",
    "prefectureCode": "22",
    "prefectureNumber": 22,
    "prefecture": "静岡県",
    "city": "磐田市",
    "town": "豊岡"
  },
  "4380232": {
    "zipcode": "4380232",
    "prefectureCode": "22",
    "prefectureNumber": 22,
    "prefecture": "静岡県",
    "city": "磐田市",
    "town": "川袋"
  },
  "4380233": {
    "zipcode": "4380233",
    "prefectureCode": "22",
    "prefectureNumber": 22,
    "prefecture": "静岡県",
    "city": "磐田市",
    "town": "駒場"
  },
  "4380234": {
    "zipcode": "4380234",
    "prefectureCode": "22",
    "prefectureNumber": 22,
    "prefecture": "静岡県",
    "city": "磐田市",
    "town": "掛塚"
  },
  "4380235": {
    "zipcode": "4380235",
    "prefectureCode": "22",
    "prefectureNumber": 22,
    "prefecture": "静岡県",
    "city": "磐田市",
    "town": "白羽"
  },
  "4380236": {
    "zipcode": "4380236",
    "prefectureCode": "22",
    "prefectureNumber": 22,
    "prefecture": "静岡県",
    "city": "磐田市",
    "town": "十郎島"
  },
  "4380801": {
    "zipcode": "4380801",
    "prefectureCode": "22",
    "prefectureNumber": 22,
    "prefecture": "静岡県",
    "city": "磐田市",
    "town": "高見丘"
  },
  "4380802": {
    "zipcode": "4380802",
    "prefectureCode": "22",
    "prefectureNumber": 22,
    "prefecture": "静岡県",
    "city": "磐田市",
    "town": "東原"
  },
  "4380803": {
    "zipcode": "4380803",
    "prefectureCode": "22",
    "prefectureNumber": 22,
    "prefecture": "静岡県",
    "city": "磐田市",
    "town": "富丘"
  },
  "4380804": {
    "zipcode": "4380804",
    "prefectureCode": "22",
    "prefectureNumber": 22,
    "prefecture": "静岡県",
    "city": "磐田市",
    "town": "加茂"
  },
  "4380805": {
    "zipcode": "4380805",
    "prefectureCode": "22",
    "prefectureNumber": 22,
    "prefecture": "静岡県",
    "city": "磐田市",
    "town": "池田"
  },
  "4380806": {
    "zipcode": "4380806",
    "prefectureCode": "22",
    "prefectureNumber": 22,
    "prefecture": "静岡県",
    "city": "磐田市",
    "town": "東名"
  },
  "4380807": {
    "zipcode": "4380807",
    "prefectureCode": "22",
    "prefectureNumber": 22,
    "prefecture": "静岡県",
    "city": "磐田市",
    "town": "富里"
  },
  "4380808": {
    "zipcode": "4380808",
    "prefectureCode": "22",
    "prefectureNumber": 22,
    "prefecture": "静岡県",
    "city": "磐田市",
    "town": "豊田"
  },
  "4380811": {
    "zipcode": "4380811",
    "prefectureCode": "22",
    "prefectureNumber": 22,
    "prefecture": "静岡県",
    "city": "磐田市",
    "town": "一言"
  },
  "4380812": {
    "zipcode": "4380812",
    "prefectureCode": "22",
    "prefectureNumber": 22,
    "prefecture": "静岡県",
    "city": "磐田市",
    "town": "海老塚"
  },
  "4380813": {
    "zipcode": "4380813",
    "prefectureCode": "22",
    "prefectureNumber": 22,
    "prefecture": "静岡県",
    "city": "磐田市",
    "town": "笹原島"
  },
  "4380814": {
    "zipcode": "4380814",
    "prefectureCode": "22",
    "prefectureNumber": 22,
    "prefecture": "静岡県",
    "city": "磐田市",
    "town": "気子島"
  },
  "4380815": {
    "zipcode": "4380815",
    "prefectureCode": "22",
    "prefectureNumber": 22,
    "prefecture": "静岡県",
    "city": "磐田市",
    "town": "中田"
  },
  "4380816": {
    "zipcode": "4380816",
    "prefectureCode": "22",
    "prefectureNumber": 22,
    "prefecture": "静岡県",
    "city": "磐田市",
    "town": "宮之一色"
  },
  "4380817": {
    "zipcode": "4380817",
    "prefectureCode": "22",
    "prefectureNumber": 22,
    "prefecture": "静岡県",
    "city": "磐田市",
    "town": "上万能"
  },
  "4380818": {
    "zipcode": "4380818",
    "prefectureCode": "22",
    "prefectureNumber": 22,
    "prefecture": "静岡県",
    "city": "磐田市",
    "town": "下万能"
  },
  "4380821": {
    "zipcode": "4380821",
    "prefectureCode": "22",
    "prefectureNumber": 22,
    "prefecture": "静岡県",
    "city": "磐田市",
    "town": "立野"
  },
  "4380822": {
    "zipcode": "4380822",
    "prefectureCode": "22",
    "prefectureNumber": 22,
    "prefecture": "静岡県",
    "city": "磐田市",
    "town": "上本郷"
  },
  "4380823": {
    "zipcode": "4380823",
    "prefectureCode": "22",
    "prefectureNumber": 22,
    "prefecture": "静岡県",
    "city": "磐田市",
    "town": "下本郷"
  },
  "4380824": {
    "zipcode": "4380824",
    "prefectureCode": "22",
    "prefectureNumber": 22,
    "prefecture": "静岡県",
    "city": "磐田市",
    "town": "赤池"
  },
  "4380825": {
    "zipcode": "4380825",
    "prefectureCode": "22",
    "prefectureNumber": 22,
    "prefecture": "静岡県",
    "city": "磐田市",
    "town": "森本"
  },
  "4380831": {
    "zipcode": "4380831",
    "prefectureCode": "22",
    "prefectureNumber": 22,
    "prefecture": "静岡県",
    "city": "磐田市",
    "town": "上新屋"
  },
  "4380832": {
    "zipcode": "4380832",
    "prefectureCode": "22",
    "prefectureNumber": 22,
    "prefecture": "静岡県",
    "city": "磐田市",
    "town": "森岡"
  },
  "4380833": {
    "zipcode": "4380833",
    "prefectureCode": "22",
    "prefectureNumber": 22,
    "prefecture": "静岡県",
    "city": "磐田市",
    "town": "弥藤太島"
  },
  "4380834": {
    "zipcode": "4380834",
    "prefectureCode": "22",
    "prefectureNumber": 22,
    "prefecture": "静岡県",
    "city": "磐田市",
    "town": "森下"
  },
  "4380835": {
    "zipcode": "4380835",
    "prefectureCode": "22",
    "prefectureNumber": 22,
    "prefecture": "静岡県",
    "city": "磐田市",
    "town": "豊田西之島"
  },
  "4380836": {
    "zipcode": "4380836",
    "prefectureCode": "22",
    "prefectureNumber": 22,
    "prefecture": "静岡県",
    "city": "磐田市",
    "town": "長森"
  },
  "4380837": {
    "zipcode": "4380837",
    "prefectureCode": "22",
    "prefectureNumber": 22,
    "prefecture": "静岡県",
    "city": "磐田市",
    "town": "源平新田"
  },
  "4380838": {
    "zipcode": "4380838",
    "prefectureCode": "22",
    "prefectureNumber": 22,
    "prefecture": "静岡県",
    "city": "磐田市",
    "town": "小立野"
  }
}
