{
  "4390000": {
    "zipcode": "4390000",
    "prefectureCode": "22",
    "prefectureNumber": 22,
    "prefecture": "静岡県",
    "city": "菊川市",
    "town": "以下に掲載がない場合"
  },
  "4390001": {
    "zipcode": "4390001",
    "prefectureCode": "22",
    "prefectureNumber": 22,
    "prefecture": "静岡県",
    "city": "菊川市",
    "town": "富田"
  },
  "4390002": {
    "zipcode": "4390002",
    "prefectureCode": "22",
    "prefectureNumber": 22,
    "prefecture": "静岡県",
    "city": "菊川市",
    "town": "倉沢"
  },
  "4390003": {
    "zipcode": "4390003",
    "prefectureCode": "22",
    "prefectureNumber": 22,
    "prefecture": "静岡県",
    "city": "菊川市",
    "town": "沢水加"
  },
  "4390004": {
    "zipcode": "4390004",
    "prefectureCode": "22",
    "prefectureNumber": 22,
    "prefecture": "静岡県",
    "city": "菊川市",
    "town": "和田"
  },
  "4390005": {
    "zipcode": "4390005",
    "prefectureCode": "22",
    "prefectureNumber": 22,
    "prefecture": "静岡県",
    "city": "菊川市",
    "town": "潮海寺"
  },
  "4390006": {
    "zipcode": "4390006",
    "prefectureCode": "22",
    "prefectureNumber": 22,
    "prefecture": "静岡県",
    "city": "菊川市",
    "town": "堀之内"
  },
  "4390007": {
    "zipcode": "4390007",
    "prefectureCode": "22",
    "prefectureNumber": 22,
    "prefecture": "静岡県",
    "city": "菊川市",
    "town": "柳"
  },
  "4390008": {
    "zipcode": "4390008",
    "prefectureCode": "22",
    "prefectureNumber": 22,
    "prefecture": "静岡県",
    "city": "菊川市",
    "town": "友田"
  },
  "4390009": {
    "zipcode": "4390009",
    "prefectureCode": "22",
    "prefectureNumber": 22,
    "prefecture": "静岡県",
    "city": "菊川市",
    "town": "吉沢"
  },
  "4390011": {
    "zipcode": "4390011",
    "prefectureCode": "22",
    "prefectureNumber": 22,
    "prefecture": "静岡県",
    "city": "菊川市",
    "town": "仲島"
  },
  "4390012": {
    "zipcode": "4390012",
    "prefectureCode": "22",
    "prefectureNumber": 22,
    "prefecture": "静岡県",
    "city": "菊川市",
    "town": "青葉台"
  },
  "4390013": {
    "zipcode": "4390013",
    "prefectureCode": "22",
    "prefectureNumber": 22,
    "prefecture": "静岡県",
    "city": "菊川市",
    "town": "牛渕"
  },
  "4390014": {
    "zipcode": "4390014",
    "prefectureCode": "22",
    "prefectureNumber": 22,
    "prefecture": "静岡県",
    "city": "菊川市",
    "town": "小沢"
  },
  "4390015": {
    "zipcode": "4390015",
    "prefectureCode": "22",
    "prefectureNumber": 22,
    "prefecture": "静岡県",
    "city": "菊川市",
    "town": "牧之原"
  },
  "4390016": {
    "zipcode": "4390016",
    "prefectureCode": "22",
    "prefectureNumber": 22,
    "prefecture": "静岡県",
    "city": "菊川市",
    "town": "神尾"
  },
  "4390017": {
    "zipcode": "4390017",
    "prefectureCode": "22",
    "prefectureNumber": 22,
    "prefecture": "静岡県",
    "city": "菊川市",
    "town": "朝日"
  },
  "4390018": {
    "zipcode": "4390018",
    "prefectureCode": "22",
    "prefectureNumber": 22,
    "prefecture": "静岡県",
    "city": "菊川市",
    "town": "本所"
  },
  "4390019": {
    "zipcode": "4390019",
    "prefectureCode": "22",
    "prefectureNumber": 22,
    "prefecture": "静岡県",
    "city": "菊川市",
    "town": "半済"
  },
  "4390021": {
    "zipcode": "4390021",
    "prefectureCode": "22",
    "prefectureNumber": 22,
    "prefecture": "静岡県",
    "city": "菊川市",
    "town": "小出"
  },
  "4390022": {
    "zipcode": "4390022",
    "prefectureCode": "22",
    "prefectureNumber": 22,
    "prefecture": "静岡県",
    "city": "菊川市",
    "town": "東横地"
  },
  "4390023": {
    "zipcode": "4390023",
    "prefectureCode": "22",
    "prefectureNumber": 22,
    "prefecture": "静岡県",
    "city": "菊川市",
    "town": "三沢"
  },
  "4390024": {
    "zipcode": "4390024",
    "prefectureCode": "22",
    "prefectureNumber": 22,
    "prefecture": "静岡県",
    "city": "菊川市",
    "town": "奈良野"
  },
  "4390025": {
    "zipcode": "4390025",
    "prefectureCode": "22",
    "prefectureNumber": 22,
    "prefecture": "静岡県",
    "city": "菊川市",
    "town": "土橋"
  },
  "4390026": {
    "zipcode": "4390026",
    "prefectureCode": "22",
    "prefectureNumber": 22,
    "prefecture": "静岡県",
    "city": "菊川市",
    "town": "西横地"
  },
  "4390031": {
    "zipcode": "4390031",
    "prefectureCode": "22",
    "prefectureNumber": 22,
    "prefecture": "静岡県",
    "city": "菊川市",
    "town": "加茂"
  },
  "4390032": {
    "zipcode": "4390032",
    "prefectureCode": "22",
    "prefectureNumber": 22,
    "prefecture": "静岡県",
    "city": "菊川市",
    "town": "月岡"
  },
  "4390033": {
    "zipcode": "4390033",
    "prefectureCode": "22",
    "prefectureNumber": 22,
    "prefecture": "静岡県",
    "city": "菊川市",
    "town": "耳川"
  },
  "4390034": {
    "zipcode": "4390034",
    "prefectureCode": "22",
    "prefectureNumber": 22,
    "prefecture": "静岡県",
    "city": "菊川市",
    "town": "下内田"
  },
  "4390035": {
    "zipcode": "4390035",
    "prefectureCode": "22",
    "prefectureNumber": 22,
    "prefecture": "静岡県",
    "city": "菊川市",
    "town": "平尾"
  },
  "4390036": {
    "zipcode": "4390036",
    "prefectureCode": "22",
    "prefectureNumber": 22,
    "prefecture": "静岡県",
    "city": "菊川市",
    "town": "中内田"
  },
  "4390037": {
    "zipcode": "4390037",
    "prefectureCode": "22",
    "prefectureNumber": 22,
    "prefecture": "静岡県",
    "city": "菊川市",
    "town": "西方"
  }
}
