{
  "4400001": {
    "zipcode": "4400001",
    "prefectureCode": "23",
    "prefectureNumber": 23,
    "prefecture": "愛知県",
    "city": "豊橋市",
    "town": "下条西町"
  },
  "4400002": {
    "zipcode": "4400002",
    "prefectureCode": "23",
    "prefectureNumber": 23,
    "prefecture": "愛知県",
    "city": "豊橋市",
    "town": "下条東町"
  },
  "4400003": {
    "zipcode": "4400003",
    "prefectureCode": "23",
    "prefectureNumber": 23,
    "prefecture": "愛知県",
    "city": "豊橋市",
    "town": "浪の上町"
  },
  "4400004": {
    "zipcode": "4400004",
    "prefectureCode": "23",
    "prefectureNumber": 23,
    "prefecture": "愛知県",
    "city": "豊橋市",
    "town": "忠興"
  },
  "4400005": {
    "zipcode": "4400005",
    "prefectureCode": "23",
    "prefectureNumber": 23,
    "prefecture": "愛知県",
    "city": "豊橋市",
    "town": "緑ケ丘"
  },
  "4400006": {
    "zipcode": "4400006",
    "prefectureCode": "23",
    "prefectureNumber": 23,
    "prefecture": "愛知県",
    "city": "豊橋市",
    "town": "牛川町（乗小路）"
  },
  "4400011": {
    "zipcode": "4400011",
    "prefectureCode": "23",
    "prefectureNumber": 23,
    "prefecture": "愛知県",
    "city": "豊橋市",
    "town": "牛川通"
  },
  "4400012": {
    "zipcode": "4400012",
    "prefectureCode": "23",
    "prefectureNumber": 23,
    "prefecture": "愛知県",
    "city": "豊橋市",
    "town": "東小鷹野"
  },
  "4400013": {
    "zipcode": "4400013",
    "prefectureCode": "23",
    "prefectureNumber": 23,
    "prefecture": "愛知県",
    "city": "豊橋市",
    "town": "西小鷹野"
  },
  "4400014": {
    "zipcode": "4400014",
    "prefectureCode": "23",
    "prefectureNumber": 23,
    "prefecture": "愛知県",
    "city": "豊橋市",
    "town": "南牛川"
  },
  "4400015": {
    "zipcode": "4400015",
    "prefectureCode": "23",
    "prefectureNumber": 23,
    "prefecture": "愛知県",
    "city": "豊橋市",
    "town": "牛川薬師町"
  },
  "4400016": {
    "zipcode": "4400016",
    "prefectureCode": "23",
    "prefectureNumber": 23,
    "prefecture": "愛知県",
    "city": "豊橋市",
    "town": "牛川町（その他）"
  },
  "4400021": {
    "zipcode": "4400021",
    "prefectureCode": "23",
    "prefectureNumber": 23,
    "prefecture": "愛知県",
    "city": "豊橋市",
    "town": "多米町"
  },
  "4400022": {
    "zipcode": "4400022",
    "prefectureCode": "23",
    "prefectureNumber": 23,
    "prefecture": "愛知県",
    "city": "豊橋市",
    "town": "岩崎町"
  },
  "4400023": {
    "zipcode": "4400023",
    "prefectureCode": "23",
    "prefectureNumber": 23,
    "prefecture": "愛知県",
    "city": "豊橋市",
    "town": "岩田町（影岩）"
  },
  "4400024": {
    "zipcode": "4400024",
    "prefectureCode": "23",
    "prefectureNumber": 23,
    "prefecture": "愛知県",
    "city": "豊橋市",
    "town": "東田町（井原）"
  },
  "4400025": {
    "zipcode": "4400025",
    "prefectureCode": "23",
    "prefectureNumber": 23,
    "prefecture": "愛知県",
    "city": "豊橋市",
    "town": "井原町"
  },
  "4400026": {
    "zipcode": "4400026",
    "prefectureCode": "23",
    "prefectureNumber": 23,
    "prefecture": "愛知県",
    "city": "豊橋市",
    "town": "多米西町"
  },
  "4400027": {
    "zipcode": "4400027",
    "prefectureCode": "23",
    "prefectureNumber": 23,
    "prefecture": "愛知県",
    "city": "豊橋市",
    "town": "多米中町"
  },
  "4400028": {
    "zipcode": "4400028",
    "prefectureCode": "23",
    "prefectureNumber": 23,
    "prefecture": "愛知県",
    "city": "豊橋市",
    "town": "多米東町"
  },
  "4400031": {
    "zipcode": "4400031",
    "prefectureCode": "23",
    "prefectureNumber": 23,
    "prefecture": "愛知県",
    "city": "豊橋市",
    "town": "北岩田"
  },
  "4400032": {
    "zipcode": "4400032",
    "prefectureCode": "23",
    "prefectureNumber": 23,
    "prefecture": "愛知県",
    "city": "豊橋市",
    "town": "岩田町（居村、北郷中）"
  },
  "4400033": {
    "zipcode": "4400033",
    "prefectureCode": "23",
    "prefectureNumber": 23,
    "prefecture": "愛知県",
    "city": "豊橋市",
    "town": "東岩田"
  },
  "4400034": {
    "zipcode": "4400034",
    "prefectureCode": "23",
    "prefectureNumber": 23,
    "prefecture": "愛知県",
    "city": "豊橋市",
    "town": "豊岡町"
  },
  "4400035": {
    "zipcode": "4400035",
    "prefectureCode": "23",
    "prefectureNumber": 23,
    "prefecture": "愛知県",
    "city": "豊橋市",
    "town": "平川南町"
  },
  "4400036": {
    "zipcode": "4400036",
    "prefectureCode": "23",
    "prefectureNumber": 23,
    "prefecture": "愛知県",
    "city": "豊橋市",
    "town": "東光町"
  },
  "4400037": {
    "zipcode": "4400037",
    "prefectureCode": "23",
    "prefectureNumber": 23,
    "prefecture": "愛知県",
    "city": "豊橋市",
    "town": "平川町"
  },
  "4400038": {
    "zipcode": "4400038",
    "prefectureCode": "23",
    "prefectureNumber": 23,
    "prefecture": "愛知県",
    "city": "豊橋市",
    "town": "平川本町"
  },
  "4400041": {
    "zipcode": "4400041",
    "prefectureCode": "23",
    "prefectureNumber": 23,
    "prefecture": "愛知県",
    "city": "豊橋市",
    "town": "岩田町（宮下、道合）"
  },
  "4400042": {
    "zipcode": "4400042",
    "prefectureCode": "23",
    "prefectureNumber": 23,
    "prefecture": "愛知県",
    "city": "豊橋市",
    "town": "栄町"
  },
  "4400043": {
    "zipcode": "4400043",
    "prefectureCode": "23",
    "prefectureNumber": 23,
    "prefecture": "愛知県",
    "city": "豊橋市",
    "town": "朝丘町"
  },
  "4400044": {
    "zipcode": "4400044",
    "prefectureCode": "23",
    "prefectureNumber": 23,
    "prefecture": "愛知県",
    "city": "豊橋市",
    "town": "宮下町"
  },
  "4400045": {
    "zipcode": "4400045",
    "prefectureCode": "23",
    "prefectureNumber": 23,
    "prefecture": "愛知県",
    "city": "豊橋市",
    "town": "吾妻町"
  },
  "4400046": {
    "zipcode": "4400046",
    "prefectureCode": "23",
    "prefectureNumber": 23,
    "prefecture": "愛知県",
    "city": "豊橋市",
    "town": "仲ノ町"
  },
  "4400047": {
    "zipcode": "4400047",
    "prefectureCode": "23",
    "prefectureNumber": 23,
    "prefecture": "愛知県",
    "city": "豊橋市",
    "town": "東田仲の町"
  },
  "4400048": {
    "zipcode": "4400048",
    "prefectureCode": "23",
    "prefectureNumber": 23,
    "prefecture": "愛知県",
    "city": "豊橋市",
    "town": "東田町（その他）"
  },
  "4400051": {
    "zipcode": "4400051",
    "prefectureCode": "23",
    "prefectureNumber": 23,
    "prefecture": "愛知県",
    "city": "豊橋市",
    "town": "東雲町"
  },
  "4400052": {
    "zipcode": "4400052",
    "prefectureCode": "23",
    "prefectureNumber": 23,
    "prefecture": "愛知県",
    "city": "豊橋市",
    "town": "住吉町"
  },
  "4400053": {
    "zipcode": "4400053",
    "prefectureCode": "23",
    "prefectureNumber": 23,
    "prefecture": "愛知県",
    "city": "豊橋市",
    "town": "老松町"
  },
  "4400054": {
    "zipcode": "4400054",
    "prefectureCode": "23",
    "prefectureNumber": 23,
    "prefecture": "愛知県",
    "city": "豊橋市",
    "town": "東田町（西前山）"
  },
  "4400055": {
    "zipcode": "4400055",
    "prefectureCode": "23",
    "prefectureNumber": 23,
    "prefecture": "愛知県",
    "city": "豊橋市",
    "town": "前畑町"
  },
  "4400056": {
    "zipcode": "4400056",
    "prefectureCode": "23",
    "prefectureNumber": 23,
    "prefecture": "愛知県",
    "city": "豊橋市",
    "town": "南旭町"
  },
  "4400057": {
    "zipcode": "4400057",
    "prefectureCode": "23",
    "prefectureNumber": 23,
    "prefecture": "愛知県",
    "city": "豊橋市",
    "town": "旭町"
  },
  "4400058": {
    "zipcode": "4400058",
    "prefectureCode": "23",
    "prefectureNumber": 23,
    "prefecture": "愛知県",
    "city": "豊橋市",
    "town": "旭本町"
  },
  "4400061": {
    "zipcode": "4400061",
    "prefectureCode": "23",
    "prefectureNumber": 23,
    "prefecture": "愛知県",
    "city": "豊橋市",
    "town": "飽海町"
  },
  "4400062": {
    "zipcode": "4400062",
    "prefectureCode": "23",
    "prefectureNumber": 23,
    "prefecture": "愛知県",
    "city": "豊橋市",
    "town": "東田町（西脇）"
  },
  "4400063": {
    "zipcode": "4400063",
    "prefectureCode": "23",
    "prefectureNumber": 23,
    "prefecture": "愛知県",
    "city": "豊橋市",
    "town": "東田中郷町"
  },
  "4400064": {
    "zipcode": "4400064",
    "prefectureCode": "23",
    "prefectureNumber": 23,
    "prefecture": "愛知県",
    "city": "豊橋市",
    "town": "西郷町"
  },
  "4400065": {
    "zipcode": "4400065",
    "prefectureCode": "23",
    "prefectureNumber": 23,
    "prefecture": "愛知県",
    "city": "豊橋市",
    "town": "仁連木町"
  },
  "4400066": {
    "zipcode": "4400066",
    "prefectureCode": "23",
    "prefectureNumber": 23,
    "prefecture": "愛知県",
    "city": "豊橋市",
    "town": "東田町（番地）"
  },
  "4400067": {
    "zipcode": "4400067",
    "prefectureCode": "23",
    "prefectureNumber": 23,
    "prefecture": "愛知県",
    "city": "豊橋市",
    "town": "上地町"
  },
  "4400068": {
    "zipcode": "4400068",
    "prefectureCode": "23",
    "prefectureNumber": 23,
    "prefecture": "愛知県",
    "city": "豊橋市",
    "town": "東郷町"
  },
  "4400069": {
    "zipcode": "4400069",
    "prefectureCode": "23",
    "prefectureNumber": 23,
    "prefecture": "愛知県",
    "city": "豊橋市",
    "town": "御園町"
  },
  "4400071": {
    "zipcode": "4400071",
    "prefectureCode": "23",
    "prefectureNumber": 23,
    "prefecture": "愛知県",
    "city": "豊橋市",
    "town": "北島町"
  },
  "4400072": {
    "zipcode": "4400072",
    "prefectureCode": "23",
    "prefectureNumber": 23,
    "prefecture": "愛知県",
    "city": "豊橋市",
    "town": "船町"
  },
  "4400073": {
    "zipcode": "4400073",
    "prefectureCode": "23",
    "prefectureNumber": 23,
    "prefecture": "愛知県",
    "city": "豊橋市",
    "town": "湊町"
  },
  "4400074": {
    "zipcode": "4400074",
    "prefectureCode": "23",
    "prefectureNumber": 23,
    "prefecture": "愛知県",
    "city": "豊橋市",
    "town": "上伝馬町"
  },
  "4400075": {
    "zipcode": "4400075",
    "prefectureCode": "23",
    "prefectureNumber": 23,
    "prefecture": "愛知県",
    "city": "豊橋市",
    "town": "花田町（無番地）"
  },
  "4400076": {
    "zipcode": "4400076",
    "prefectureCode": "23",
    "prefectureNumber": 23,
    "prefecture": "愛知県",
    "city": "豊橋市",
    "town": "大橋通"
  },
  "4400077": {
    "zipcode": "4400077",
    "prefectureCode": "23",
    "prefectureNumber": 23,
    "prefecture": "愛知県",
    "city": "豊橋市",
    "town": "南島町"
  },
  "4400078": {
    "zipcode": "4400078",
    "prefectureCode": "23",
    "prefectureNumber": 23,
    "prefecture": "愛知県",
    "city": "豊橋市",
    "town": "絹田町"
  },
  "4400081": {
    "zipcode": "4400081",
    "prefectureCode": "23",
    "prefectureNumber": 23,
    "prefecture": "愛知県",
    "city": "豊橋市",
    "town": "大村町"
  },
  "4400082": {
    "zipcode": "4400082",
    "prefectureCode": "23",
    "prefectureNumber": 23,
    "prefecture": "愛知県",
    "city": "豊橋市",
    "town": "長瀬町"
  },
  "4400083": {
    "zipcode": "4400083",
    "prefectureCode": "23",
    "prefectureNumber": 23,
    "prefecture": "愛知県",
    "city": "豊橋市",
    "town": "下地町（若宮）"
  },
  "4400084": {
    "zipcode": "4400084",
    "prefectureCode": "23",
    "prefectureNumber": 23,
    "prefecture": "愛知県",
    "city": "豊橋市",
    "town": "下地町（宮腰）"
  },
  "4400085": {
    "zipcode": "4400085",
    "prefectureCode": "23",
    "prefectureNumber": 23,
    "prefecture": "愛知県",
    "city": "豊橋市",
    "town": "下地町（丁目）"
  },
  "4400086": {
    "zipcode": "4400086",
    "prefectureCode": "23",
    "prefectureNumber": 23,
    "prefecture": "愛知県",
    "city": "豊橋市",
    "town": "下地町（その他）"
  },
  "4400091": {
    "zipcode": "4400091",
    "prefectureCode": "23",
    "prefectureNumber": 23,
    "prefecture": "愛知県",
    "city": "豊橋市",
    "town": "下五井町"
  },
  "4400092": {
    "zipcode": "4400092",
    "prefectureCode": "23",
    "prefectureNumber": 23,
    "prefecture": "愛知県",
    "city": "豊橋市",
    "town": "瓜郷町"
  },
  "4400093": {
    "zipcode": "4400093",
    "prefectureCode": "23",
    "prefectureNumber": 23,
    "prefecture": "愛知県",
    "city": "豊橋市",
    "town": "横須賀町"
  },
  "4400094": {
    "zipcode": "4400094",
    "prefectureCode": "23",
    "prefectureNumber": 23,
    "prefecture": "愛知県",
    "city": "豊橋市",
    "town": "川崎町"
  },
  "4400095": {
    "zipcode": "4400095",
    "prefectureCode": "23",
    "prefectureNumber": 23,
    "prefecture": "愛知県",
    "city": "豊橋市",
    "town": "清須町"
  },
  "4400801": {
    "zipcode": "4400801",
    "prefectureCode": "23",
    "prefectureNumber": 23,
    "prefecture": "愛知県",
    "city": "豊橋市",
    "town": "今橋町"
  },
  "4400802": {
    "zipcode": "4400802",
    "prefectureCode": "23",
    "prefectureNumber": 23,
    "prefecture": "愛知県",
    "city": "豊橋市",
    "town": "鍛冶町"
  },
  "4400803": {
    "zipcode": "4400803",
    "prefectureCode": "23",
    "prefectureNumber": 23,
    "prefecture": "愛知県",
    "city": "豊橋市",
    "town": "曲尺手町"
  },
  "4400804": {
    "zipcode": "4400804",
    "prefectureCode": "23",
    "prefectureNumber": 23,
    "prefecture": "愛知県",
    "city": "豊橋市",
    "town": "呉服町"
  },
  "4400805": {
    "zipcode": "4400805",
    "prefectureCode": "23",
    "prefectureNumber": 23,
    "prefecture": "愛知県",
    "city": "豊橋市",
    "town": "大手町"
  },
  "4400806": {
    "zipcode": "4400806",
    "prefectureCode": "23",
    "prefectureNumber": 23,
    "prefecture": "愛知県",
    "city": "豊橋市",
    "town": "八町通"
  },
  "4400811": {
    "zipcode": "4400811",
    "prefectureCode": "23",
    "prefectureNumber": 23,
    "prefecture": "愛知県",
    "city": "豊橋市",
    "town": "西新町"
  },
  "4400812": {
    "zipcode": "4400812",
    "prefectureCode": "23",
    "prefectureNumber": 23,
    "prefecture": "愛知県",
    "city": "豊橋市",
    "town": "東新町"
  },
  "4400813": {
    "zipcode": "4400813",
    "prefectureCode": "23",
    "prefectureNumber": 23,
    "prefecture": "愛知県",
    "city": "豊橋市",
    "town": "舟原町"
  },
  "4400814": {
    "zipcode": "4400814",
    "prefectureCode": "23",
    "prefectureNumber": 23,
    "prefecture": "愛知県",
    "city": "豊橋市",
    "town": "前田町"
  },
  "4400815": {
    "zipcode": "4400815",
    "prefectureCode": "23",
    "prefectureNumber": 23,
    "prefecture": "愛知県",
    "city": "豊橋市",
    "town": "中世古町"
  },
  "4400816": {
    "zipcode": "4400816",
    "prefectureCode": "23",
    "prefectureNumber": 23,
    "prefecture": "愛知県",
    "city": "豊橋市",
    "town": "談合町"
  },
  "4400821": {
    "zipcode": "4400821",
    "prefectureCode": "23",
    "prefectureNumber": 23,
    "prefecture": "愛知県",
    "city": "豊橋市",
    "town": "春日町"
  },
  "4400822": {
    "zipcode": "4400822",
    "prefectureCode": "23",
    "prefectureNumber": 23,
    "prefecture": "愛知県",
    "city": "豊橋市",
    "town": "伝馬町"
  },
  "4400823": {
    "zipcode": "4400823",
    "prefectureCode": "23",
    "prefectureNumber": 23,
    "prefecture": "愛知県",
    "city": "豊橋市",
    "town": "南瓦町"
  },
  "4400824": {
    "zipcode": "4400824",
    "prefectureCode": "23",
    "prefectureNumber": 23,
    "prefecture": "愛知県",
    "city": "豊橋市",
    "town": "瓦町通"
  },
  "4400825": {
    "zipcode": "4400825",
    "prefectureCode": "23",
    "prefectureNumber": 23,
    "prefecture": "愛知県",
    "city": "豊橋市",
    "town": "瓦町"
  },
  "4400826": {
    "zipcode": "4400826",
    "prefectureCode": "23",
    "prefectureNumber": 23,
    "prefecture": "愛知県",
    "city": "豊橋市",
    "town": "大井町"
  },
  "4400827": {
    "zipcode": "4400827",
    "prefectureCode": "23",
    "prefectureNumber": 23,
    "prefecture": "愛知県",
    "city": "豊橋市",
    "town": "池見町"
  },
  "4400831": {
    "zipcode": "4400831",
    "prefectureCode": "23",
    "prefectureNumber": 23,
    "prefecture": "愛知県",
    "city": "豊橋市",
    "town": "西岩田"
  },
  "4400832": {
    "zipcode": "4400832",
    "prefectureCode": "23",
    "prefectureNumber": 23,
    "prefecture": "愛知県",
    "city": "豊橋市",
    "town": "中岩田"
  },
  "4400833": {
    "zipcode": "4400833",
    "prefectureCode": "23",
    "prefectureNumber": 23,
    "prefecture": "愛知県",
    "city": "豊橋市",
    "town": "飯村町（西山、高山）"
  },
  "4400834": {
    "zipcode": "4400834",
    "prefectureCode": "23",
    "prefectureNumber": 23,
    "prefecture": "愛知県",
    "city": "豊橋市",
    "town": "飯村北"
  },
  "4400835": {
    "zipcode": "4400835",
    "prefectureCode": "23",
    "prefectureNumber": 23,
    "prefecture": "愛知県",
    "city": "豊橋市",
    "town": "飯村南"
  },
  "4400836": {
    "zipcode": "4400836",
    "prefectureCode": "23",
    "prefectureNumber": 23,
    "prefecture": "愛知県",
    "city": "豊橋市",
    "town": "飯村町（その他）"
  },
  "4400837": {
    "zipcode": "4400837",
    "prefectureCode": "23",
    "prefectureNumber": 23,
    "prefecture": "愛知県",
    "city": "豊橋市",
    "town": "三ノ輪町三ノ輪"
  },
  "4400838": {
    "zipcode": "4400838",
    "prefectureCode": "23",
    "prefectureNumber": 23,
    "prefecture": "愛知県",
    "city": "豊橋市",
    "town": "三ノ輪町"
  },
  "4400841": {
    "zipcode": "4400841",
    "prefectureCode": "23",
    "prefectureNumber": 23,
    "prefecture": "愛知県",
    "city": "豊橋市",
    "town": "西口町"
  },
  "4400842": {
    "zipcode": "4400842",
    "prefectureCode": "23",
    "prefectureNumber": 23,
    "prefecture": "愛知県",
    "city": "豊橋市",
    "town": "岩屋町"
  },
  "4400843": {
    "zipcode": "4400843",
    "prefectureCode": "23",
    "prefectureNumber": 23,
    "prefecture": "愛知県",
    "city": "豊橋市",
    "town": "東幸町"
  },
  "4400844": {
    "zipcode": "4400844",
    "prefectureCode": "23",
    "prefectureNumber": 23,
    "prefecture": "愛知県",
    "city": "豊橋市",
    "town": "高師町（丸田）"
  },
  "4400845": {
    "zipcode": "4400845",
    "prefectureCode": "23",
    "prefectureNumber": 23,
    "prefecture": "愛知県",
    "city": "豊橋市",
    "town": "高師町（その他）"
  },
  "4400851": {
    "zipcode": "4400851",
    "prefectureCode": "23",
    "prefectureNumber": 23,
    "prefecture": "愛知県",
    "city": "豊橋市",
    "town": "前田南町"
  },
  "4400853": {
    "zipcode": "4400853",
    "prefectureCode": "23",
    "prefectureNumber": 23,
    "prefecture": "愛知県",
    "city": "豊橋市",
    "town": "佐藤町"
  },
  "4400854": {
    "zipcode": "4400854",
    "prefectureCode": "23",
    "prefectureNumber": 23,
    "prefecture": "愛知県",
    "city": "豊橋市",
    "town": "山田町（その他）"
  },
  "4400855": {
    "zipcode": "4400855",
    "prefectureCode": "23",
    "prefectureNumber": 23,
    "prefecture": "愛知県",
    "city": "豊橋市",
    "town": "東小池町"
  },
  "4400856": {
    "zipcode": "4400856",
    "prefectureCode": "23",
    "prefectureNumber": 23,
    "prefecture": "愛知県",
    "city": "豊橋市",
    "town": "鍵田町"
  },
  "4400857": {
    "zipcode": "4400857",
    "prefectureCode": "23",
    "prefectureNumber": 23,
    "prefecture": "愛知県",
    "city": "豊橋市",
    "town": "堂浦町"
  },
  "4400858": {
    "zipcode": "4400858",
    "prefectureCode": "23",
    "prefectureNumber": 23,
    "prefecture": "愛知県",
    "city": "豊橋市",
    "town": "つつじが丘"
  },
  "4400861": {
    "zipcode": "4400861",
    "prefectureCode": "23",
    "prefectureNumber": 23,
    "prefecture": "愛知県",
    "city": "豊橋市",
    "town": "向山西町"
  },
  "4400862": {
    "zipcode": "4400862",
    "prefectureCode": "23",
    "prefectureNumber": 23,
    "prefecture": "愛知県",
    "city": "豊橋市",
    "town": "向山大池町"
  },
  "4400863": {
    "zipcode": "4400863",
    "prefectureCode": "23",
    "prefectureNumber": 23,
    "prefecture": "愛知県",
    "city": "豊橋市",
    "town": "向山東町"
  },
  "4400864": {
    "zipcode": "4400864",
    "prefectureCode": "23",
    "prefectureNumber": 23,
    "prefecture": "愛知県",
    "city": "豊橋市",
    "town": "向山町"
  },
  "4400865": {
    "zipcode": "4400865",
    "prefectureCode": "23",
    "prefectureNumber": 23,
    "prefecture": "愛知県",
    "city": "豊橋市",
    "town": "向山台町"
  },
  "4400871": {
    "zipcode": "4400871",
    "prefectureCode": "23",
    "prefectureNumber": 23,
    "prefecture": "愛知県",
    "city": "豊橋市",
    "town": "新吉町"
  },
  "4400872": {
    "zipcode": "4400872",
    "prefectureCode": "23",
    "prefectureNumber": 23,
    "prefecture": "愛知県",
    "city": "豊橋市",
    "town": "前田中町"
  },
  "4400873": {
    "zipcode": "4400873",
    "prefectureCode": "23",
    "prefectureNumber": 23,
    "prefecture": "愛知県",
    "city": "豊橋市",
    "town": "小畷町"
  },
  "4400874": {
    "zipcode": "4400874",
    "prefectureCode": "23",
    "prefectureNumber": 23,
    "prefecture": "愛知県",
    "city": "豊橋市",
    "town": "東松山町"
  },
  "4400875": {
    "zipcode": "4400875",
    "prefectureCode": "23",
    "prefectureNumber": 23,
    "prefecture": "愛知県",
    "city": "豊橋市",
    "town": "中松山町"
  },
  "4400876": {
    "zipcode": "4400876",
    "prefectureCode": "23",
    "prefectureNumber": 23,
    "prefecture": "愛知県",
    "city": "豊橋市",
    "town": "西松山町"
  },
  "4400877": {
    "zipcode": "4400877",
    "prefectureCode": "23",
    "prefectureNumber": 23,
    "prefecture": "愛知県",
    "city": "豊橋市",
    "town": "南松山町"
  },
  "4400881": {
    "zipcode": "4400881",
    "prefectureCode": "23",
    "prefectureNumber": 23,
    "prefecture": "愛知県",
    "city": "豊橋市",
    "town": "広小路"
  },
  "4400882": {
    "zipcode": "4400882",
    "prefectureCode": "23",
    "prefectureNumber": 23,
    "prefecture": "愛知県",
    "city": "豊橋市",
    "town": "神明町"
  },
  "4400883": {
    "zipcode": "4400883",
    "prefectureCode": "23",
    "prefectureNumber": 23,
    "prefecture": "愛知県",
    "city": "豊橋市",
    "town": "新川町"
  },
  "4400884": {
    "zipcode": "4400884",
    "prefectureCode": "23",
    "prefectureNumber": 23,
    "prefecture": "愛知県",
    "city": "豊橋市",
    "town": "大国町"
  },
  "4400885": {
    "zipcode": "4400885",
    "prefectureCode": "23",
    "prefectureNumber": 23,
    "prefecture": "愛知県",
    "city": "豊橋市",
    "town": "中柴町"
  },
  "4400886": {
    "zipcode": "4400886",
    "prefectureCode": "23",
    "prefectureNumber": 23,
    "prefecture": "愛知県",
    "city": "豊橋市",
    "town": "東小田原町"
  },
  "4400887": {
    "zipcode": "4400887",
    "prefectureCode": "23",
    "prefectureNumber": 23,
    "prefecture": "愛知県",
    "city": "豊橋市",
    "town": "西小田原町"
  },
  "4400888": {
    "zipcode": "4400888",
    "prefectureCode": "23",
    "prefectureNumber": 23,
    "prefecture": "愛知県",
    "city": "豊橋市",
    "town": "駅前大通"
  },
  "4400891": {
    "zipcode": "4400891",
    "prefectureCode": "23",
    "prefectureNumber": 23,
    "prefecture": "愛知県",
    "city": "豊橋市",
    "town": "関屋町"
  },
  "4400892": {
    "zipcode": "4400892",
    "prefectureCode": "23",
    "prefectureNumber": 23,
    "prefecture": "愛知県",
    "city": "豊橋市",
    "town": "新本町"
  },
  "4400893": {
    "zipcode": "4400893",
    "prefectureCode": "23",
    "prefectureNumber": 23,
    "prefecture": "愛知県",
    "city": "豊橋市",
    "town": "札木町"
  },
  "4400894": {
    "zipcode": "4400894",
    "prefectureCode": "23",
    "prefectureNumber": 23,
    "prefecture": "愛知県",
    "city": "豊橋市",
    "town": "魚町"
  },
  "4400895": {
    "zipcode": "4400895",
    "prefectureCode": "23",
    "prefectureNumber": 23,
    "prefecture": "愛知県",
    "city": "豊橋市",
    "town": "花園町"
  },
  "4400896": {
    "zipcode": "4400896",
    "prefectureCode": "23",
    "prefectureNumber": 23,
    "prefecture": "愛知県",
    "city": "豊橋市",
    "town": "萱町"
  },
  "4400897": {
    "zipcode": "4400897",
    "prefectureCode": "23",
    "prefectureNumber": 23,
    "prefecture": "愛知県",
    "city": "豊橋市",
    "town": "松葉町"
  }
}
