{
  "4420000": {
    "zipcode": "4420000",
    "prefectureCode": "23",
    "prefectureNumber": 23,
    "prefecture": "愛知県",
    "city": "豊川市",
    "town": "以下に掲載がない場合"
  },
  "4420001": {
    "zipcode": "4420001",
    "prefectureCode": "23",
    "prefectureNumber": 23,
    "prefecture": "愛知県",
    "city": "豊川市",
    "town": "千両町"
  },
  "4420002": {
    "zipcode": "4420002",
    "prefectureCode": "23",
    "prefectureNumber": 23,
    "prefecture": "愛知県",
    "city": "豊川市",
    "town": "六角町"
  },
  "4420003": {
    "zipcode": "4420003",
    "prefectureCode": "23",
    "prefectureNumber": 23,
    "prefecture": "愛知県",
    "city": "豊川市",
    "town": "長草町"
  },
  "4420004": {
    "zipcode": "4420004",
    "prefectureCode": "23",
    "prefectureNumber": 23,
    "prefecture": "愛知県",
    "city": "豊川市",
    "town": "樽井町"
  },
  "4420005": {
    "zipcode": "4420005",
    "prefectureCode": "23",
    "prefectureNumber": 23,
    "prefecture": "愛知県",
    "city": "豊川市",
    "town": "本野ケ原"
  },
  "4420006": {
    "zipcode": "4420006",
    "prefectureCode": "23",
    "prefectureNumber": 23,
    "prefecture": "愛知県",
    "city": "豊川市",
    "town": "三蔵子町"
  },
  "4420007": {
    "zipcode": "4420007",
    "prefectureCode": "23",
    "prefectureNumber": 23,
    "prefecture": "愛知県",
    "city": "豊川市",
    "town": "大崎町"
  },
  "4420008": {
    "zipcode": "4420008",
    "prefectureCode": "23",
    "prefectureNumber": 23,
    "prefecture": "愛知県",
    "city": "豊川市",
    "town": "南千両"
  },
  "4420011": {
    "zipcode": "4420011",
    "prefectureCode": "23",
    "prefectureNumber": 23,
    "prefecture": "愛知県",
    "city": "豊川市",
    "town": "東曙町"
  },
  "4420012": {
    "zipcode": "4420012",
    "prefectureCode": "23",
    "prefectureNumber": 23,
    "prefecture": "愛知県",
    "city": "豊川市",
    "town": "新豊町"
  },
  "4420013": {
    "zipcode": "4420013",
    "prefectureCode": "23",
    "prefectureNumber": 23,
    "prefecture": "愛知県",
    "city": "豊川市",
    "town": "大堀町"
  },
  "4420014": {
    "zipcode": "4420014",
    "prefectureCode": "23",
    "prefectureNumber": 23,
    "prefecture": "愛知県",
    "city": "豊川市",
    "town": "豊栄町"
  },
  "4420015": {
    "zipcode": "4420015",
    "prefectureCode": "23",
    "prefectureNumber": 23,
    "prefecture": "愛知県",
    "city": "豊川市",
    "town": "曙町"
  },
  "4420016": {
    "zipcode": "4420016",
    "prefectureCode": "23",
    "prefectureNumber": 23,
    "prefecture": "愛知県",
    "city": "豊川市",
    "town": "美幸町"
  },
  "4420017": {
    "zipcode": "4420017",
    "prefectureCode": "23",
    "prefectureNumber": 23,
    "prefecture": "愛知県",
    "city": "豊川市",
    "town": "佐土町"
  },
  "4420018": {
    "zipcode": "4420018",
    "prefectureCode": "23",
    "prefectureNumber": 23,
    "prefecture": "愛知県",
    "city": "豊川市",
    "town": "白雲町"
  },
  "4420019": {
    "zipcode": "4420019",
    "prefectureCode": "23",
    "prefectureNumber": 23,
    "prefecture": "愛知県",
    "city": "豊川市",
    "town": "東名町"
  },
  "4420021": {
    "zipcode": "4420021",
    "prefectureCode": "23",
    "prefectureNumber": 23,
    "prefecture": "愛知県",
    "city": "豊川市",
    "town": "小桜町"
  },
  "4420022": {
    "zipcode": "4420022",
    "prefectureCode": "23",
    "prefectureNumber": 23,
    "prefecture": "愛知県",
    "city": "豊川市",
    "town": "東光町"
  },
  "4420023": {
    "zipcode": "4420023",
    "prefectureCode": "23",
    "prefectureNumber": 23,
    "prefecture": "愛知県",
    "city": "豊川市",
    "town": "稲荷通"
  },
  "4420024": {
    "zipcode": "4420024",
    "prefectureCode": "23",
    "prefectureNumber": 23,
    "prefecture": "愛知県",
    "city": "豊川市",
    "town": "西豊町"
  },
  "4420025": {
    "zipcode": "4420025",
    "prefectureCode": "23",
    "prefectureNumber": 23,
    "prefecture": "愛知県",
    "city": "豊川市",
    "town": "東豊町"
  },
  "4420026": {
    "zipcode": "4420026",
    "prefectureCode": "23",
    "prefectureNumber": 23,
    "prefecture": "愛知県",
    "city": "豊川市",
    "town": "東新町"
  },
  "4420027": {
    "zipcode": "4420027",
    "prefectureCode": "23",
    "prefectureNumber": 23,
    "prefecture": "愛知県",
    "city": "豊川市",
    "town": "桜木通"
  },
  "4420028": {
    "zipcode": "4420028",
    "prefectureCode": "23",
    "prefectureNumber": 23,
    "prefecture": "愛知県",
    "city": "豊川市",
    "town": "東桜木町"
  },
  "4420029": {
    "zipcode": "4420029",
    "prefectureCode": "23",
    "prefectureNumber": 23,
    "prefecture": "愛知県",
    "city": "豊川市",
    "town": "末広通"
  },
  "4420031": {
    "zipcode": "4420031",
    "prefectureCode": "23",
    "prefectureNumber": 23,
    "prefecture": "愛知県",
    "city": "豊川市",
    "town": "豊川西町"
  },
  "4420032": {
    "zipcode": "4420032",
    "prefectureCode": "23",
    "prefectureNumber": 23,
    "prefecture": "愛知県",
    "city": "豊川市",
    "town": "豊川仲町"
  },
  "4420033": {
    "zipcode": "4420033",
    "prefectureCode": "23",
    "prefectureNumber": 23,
    "prefecture": "愛知県",
    "city": "豊川市",
    "town": "豊川町"
  },
  "4420034": {
    "zipcode": "4420034",
    "prefectureCode": "23",
    "prefectureNumber": 23,
    "prefecture": "愛知県",
    "city": "豊川市",
    "town": "西本町"
  },
  "4420035": {
    "zipcode": "4420035",
    "prefectureCode": "23",
    "prefectureNumber": 23,
    "prefecture": "愛知県",
    "city": "豊川市",
    "town": "豊川元町"
  },
  "4420036": {
    "zipcode": "4420036",
    "prefectureCode": "23",
    "prefectureNumber": 23,
    "prefecture": "愛知県",
    "city": "豊川市",
    "town": "豊川栄町"
  },
  "4420037": {
    "zipcode": "4420037",
    "prefectureCode": "23",
    "prefectureNumber": 23,
    "prefecture": "愛知県",
    "city": "豊川市",
    "town": "門前町"
  },
  "4420038": {
    "zipcode": "4420038",
    "prefectureCode": "23",
    "prefectureNumber": 23,
    "prefecture": "愛知県",
    "city": "豊川市",
    "town": "光陽町"
  },
  "4420039": {
    "zipcode": "4420039",
    "prefectureCode": "23",
    "prefectureNumber": 23,
    "prefecture": "愛知県",
    "city": "豊川市",
    "town": "天神町"
  },
  "4420041": {
    "zipcode": "4420041",
    "prefectureCode": "23",
    "prefectureNumber": 23,
    "prefecture": "愛知県",
    "city": "豊川市",
    "town": "旭町"
  },
  "4420042": {
    "zipcode": "4420042",
    "prefectureCode": "23",
    "prefectureNumber": 23,
    "prefecture": "愛知県",
    "city": "豊川市",
    "town": "北浦町"
  },
  "4420043": {
    "zipcode": "4420043",
    "prefectureCode": "23",
    "prefectureNumber": 23,
    "prefecture": "愛知県",
    "city": "豊川市",
    "town": "新宿町"
  },
  "4420044": {
    "zipcode": "4420044",
    "prefectureCode": "23",
    "prefectureNumber": 23,
    "prefecture": "愛知県",
    "city": "豊川市",
    "town": "二見町"
  },
  "4420045": {
    "zipcode": "4420045",
    "prefectureCode": "23",
    "prefectureNumber": 23,
    "prefecture": "愛知県",
    "city": "豊川市",
    "town": "駅前通"
  },
  "4420046": {
    "zipcode": "4420046",
    "prefectureCode": "23",
    "prefectureNumber": 23,
    "prefecture": "愛知県",
    "city": "豊川市",
    "town": "幸町"
  },
  "4420047": {
    "zipcode": "4420047",
    "prefectureCode": "23",
    "prefectureNumber": 23,
    "prefecture": "愛知県",
    "city": "豊川市",
    "town": "若宮町"
  },
  "4420048": {
    "zipcode": "4420048",
    "prefectureCode": "23",
    "prefectureNumber": 23,
    "prefecture": "愛知県",
    "city": "豊川市",
    "town": "開運通"
  },
  "4420049": {
    "zipcode": "4420049",
    "prefectureCode": "23",
    "prefectureNumber": 23,
    "prefecture": "愛知県",
    "city": "豊川市",
    "town": "緑町"
  },
  "4420051": {
    "zipcode": "4420051",
    "prefectureCode": "23",
    "prefectureNumber": 23,
    "prefecture": "愛知県",
    "city": "豊川市",
    "town": "中央通"
  },
  "4420052": {
    "zipcode": "4420052",
    "prefectureCode": "23",
    "prefectureNumber": 23,
    "prefecture": "愛知県",
    "city": "豊川市",
    "town": "金屋本町"
  },
  "4420053": {
    "zipcode": "4420053",
    "prefectureCode": "23",
    "prefectureNumber": 23,
    "prefecture": "愛知県",
    "city": "豊川市",
    "town": "金屋町"
  },
  "4420054": {
    "zipcode": "4420054",
    "prefectureCode": "23",
    "prefectureNumber": 23,
    "prefecture": "愛知県",
    "city": "豊川市",
    "town": "赤代町"
  },
  "4420055": {
    "zipcode": "4420055",
    "prefectureCode": "23",
    "prefectureNumber": 23,
    "prefecture": "愛知県",
    "city": "豊川市",
    "town": "金屋橋町"
  },
  "4420061": {
    "zipcode": "4420061",
    "prefectureCode": "23",
    "prefectureNumber": 23,
    "prefecture": "愛知県",
    "city": "豊川市",
    "town": "穂ノ原"
  },
  "4420062": {
    "zipcode": "4420062",
    "prefectureCode": "23",
    "prefectureNumber": 23,
    "prefecture": "愛知県",
    "city": "豊川市",
    "town": "本野町"
  },
  "4420063": {
    "zipcode": "4420063",
    "prefectureCode": "23",
    "prefectureNumber": 23,
    "prefecture": "愛知県",
    "city": "豊川市",
    "town": "西桜木町"
  },
  "4420064": {
    "zipcode": "4420064",
    "prefectureCode": "23",
    "prefectureNumber": 23,
    "prefecture": "愛知県",
    "city": "豊川市",
    "town": "桜ケ丘町"
  },
  "4420065": {
    "zipcode": "4420065",
    "prefectureCode": "23",
    "prefectureNumber": 23,
    "prefecture": "愛知県",
    "city": "豊川市",
    "town": "若鳩町"
  },
  "4420066": {
    "zipcode": "4420066",
    "prefectureCode": "23",
    "prefectureNumber": 23,
    "prefecture": "愛知県",
    "city": "豊川市",
    "town": "金屋元町"
  },
  "4420067": {
    "zipcode": "4420067",
    "prefectureCode": "23",
    "prefectureNumber": 23,
    "prefecture": "愛知県",
    "city": "豊川市",
    "town": "金屋西町"
  },
  "4420068": {
    "zipcode": "4420068",
    "prefectureCode": "23",
    "prefectureNumber": 23,
    "prefecture": "愛知県",
    "city": "豊川市",
    "town": "諏訪"
  },
  "4420069": {
    "zipcode": "4420069",
    "prefectureCode": "23",
    "prefectureNumber": 23,
    "prefecture": "愛知県",
    "city": "豊川市",
    "town": "諏訪西町"
  },
  "4420801": {
    "zipcode": "4420801",
    "prefectureCode": "23",
    "prefectureNumber": 23,
    "prefecture": "愛知県",
    "city": "豊川市",
    "town": "上野"
  },
  "4420802": {
    "zipcode": "4420802",
    "prefectureCode": "23",
    "prefectureNumber": 23,
    "prefecture": "愛知県",
    "city": "豊川市",
    "town": "麻生田町"
  },
  "4420803": {
    "zipcode": "4420803",
    "prefectureCode": "23",
    "prefectureNumber": 23,
    "prefecture": "愛知県",
    "city": "豊川市",
    "town": "向河原町"
  },
  "4420804": {
    "zipcode": "4420804",
    "prefectureCode": "23",
    "prefectureNumber": 23,
    "prefecture": "愛知県",
    "city": "豊川市",
    "town": "二葉町"
  },
  "4420805": {
    "zipcode": "4420805",
    "prefectureCode": "23",
    "prefectureNumber": 23,
    "prefecture": "愛知県",
    "city": "豊川市",
    "town": "三谷原町"
  },
  "4420806": {
    "zipcode": "4420806",
    "prefectureCode": "23",
    "prefectureNumber": 23,
    "prefecture": "愛知県",
    "city": "豊川市",
    "town": "牧野町"
  },
  "4420807": {
    "zipcode": "4420807",
    "prefectureCode": "23",
    "prefectureNumber": 23,
    "prefecture": "愛知県",
    "city": "豊川市",
    "town": "谷川町"
  },
  "4420808": {
    "zipcode": "4420808",
    "prefectureCode": "23",
    "prefectureNumber": 23,
    "prefecture": "愛知県",
    "city": "豊川市",
    "town": "豊が丘町"
  },
  "4420809": {
    "zipcode": "4420809",
    "prefectureCode": "23",
    "prefectureNumber": 23,
    "prefecture": "愛知県",
    "city": "豊川市",
    "town": "大橋町"
  },
  "4420811": {
    "zipcode": "4420811",
    "prefectureCode": "23",
    "prefectureNumber": 23,
    "prefecture": "愛知県",
    "city": "豊川市",
    "town": "馬場町"
  },
  "4420812": {
    "zipcode": "4420812",
    "prefectureCode": "23",
    "prefectureNumber": 23,
    "prefecture": "愛知県",
    "city": "豊川市",
    "town": "三上町"
  },
  "4420813": {
    "zipcode": "4420813",
    "prefectureCode": "23",
    "prefectureNumber": 23,
    "prefecture": "愛知県",
    "city": "豊川市",
    "town": "土筒町"
  },
  "4420814": {
    "zipcode": "4420814",
    "prefectureCode": "23",
    "prefectureNumber": 23,
    "prefecture": "愛知県",
    "city": "豊川市",
    "town": "院之子町"
  },
  "4420815": {
    "zipcode": "4420815",
    "prefectureCode": "23",
    "prefectureNumber": 23,
    "prefecture": "愛知県",
    "city": "豊川市",
    "town": "瀬木町"
  },
  "4420816": {
    "zipcode": "4420816",
    "prefectureCode": "23",
    "prefectureNumber": 23,
    "prefecture": "愛知県",
    "city": "豊川市",
    "town": "花井町"
  },
  "4420817": {
    "zipcode": "4420817",
    "prefectureCode": "23",
    "prefectureNumber": 23,
    "prefecture": "愛知県",
    "city": "豊川市",
    "town": "古宿町"
  },
  "4420818": {
    "zipcode": "4420818",
    "prefectureCode": "23",
    "prefectureNumber": 23,
    "prefecture": "愛知県",
    "city": "豊川市",
    "town": "中条町"
  },
  "4420819": {
    "zipcode": "4420819",
    "prefectureCode": "23",
    "prefectureNumber": 23,
    "prefecture": "愛知県",
    "city": "豊川市",
    "town": "住吉町"
  },
  "4420821": {
    "zipcode": "4420821",
    "prefectureCode": "23",
    "prefectureNumber": 23,
    "prefecture": "愛知県",
    "city": "豊川市",
    "town": "当古町"
  },
  "4420822": {
    "zipcode": "4420822",
    "prefectureCode": "23",
    "prefectureNumber": 23,
    "prefecture": "愛知県",
    "city": "豊川市",
    "town": "行明町"
  },
  "4420823": {
    "zipcode": "4420823",
    "prefectureCode": "23",
    "prefectureNumber": 23,
    "prefecture": "愛知県",
    "city": "豊川市",
    "town": "正岡町"
  },
  "4420824": {
    "zipcode": "4420824",
    "prefectureCode": "23",
    "prefectureNumber": 23,
    "prefecture": "愛知県",
    "city": "豊川市",
    "town": "下長山町"
  },
  "4420825": {
    "zipcode": "4420825",
    "prefectureCode": "23",
    "prefectureNumber": 23,
    "prefecture": "愛知県",
    "city": "豊川市",
    "town": "美和通"
  },
  "4420826": {
    "zipcode": "4420826",
    "prefectureCode": "23",
    "prefectureNumber": 23,
    "prefecture": "愛知県",
    "city": "豊川市",
    "town": "牛久保町"
  },
  "4420827": {
    "zipcode": "4420827",
    "prefectureCode": "23",
    "prefectureNumber": 23,
    "prefecture": "愛知県",
    "city": "豊川市",
    "town": "西島町"
  },
  "4420828": {
    "zipcode": "4420828",
    "prefectureCode": "23",
    "prefectureNumber": 23,
    "prefecture": "愛知県",
    "city": "豊川市",
    "town": "柑子町"
  },
  "4420831": {
    "zipcode": "4420831",
    "prefectureCode": "23",
    "prefectureNumber": 23,
    "prefecture": "愛知県",
    "city": "豊川市",
    "town": "弥生町"
  },
  "4420832": {
    "zipcode": "4420832",
    "prefectureCode": "23",
    "prefectureNumber": 23,
    "prefecture": "愛知県",
    "city": "豊川市",
    "town": "寿通"
  },
  "4420833": {
    "zipcode": "4420833",
    "prefectureCode": "23",
    "prefectureNumber": 23,
    "prefecture": "愛知県",
    "city": "豊川市",
    "town": "西口町"
  },
  "4420834": {
    "zipcode": "4420834",
    "prefectureCode": "23",
    "prefectureNumber": 23,
    "prefecture": "愛知県",
    "city": "豊川市",
    "town": "西香ノ木町"
  },
  "4420835": {
    "zipcode": "4420835",
    "prefectureCode": "23",
    "prefectureNumber": 23,
    "prefecture": "愛知県",
    "city": "豊川市",
    "town": "新桜町通"
  },
  "4420836": {
    "zipcode": "4420836",
    "prefectureCode": "23",
    "prefectureNumber": 23,
    "prefecture": "愛知県",
    "city": "豊川市",
    "town": "堺町"
  },
  "4420837": {
    "zipcode": "4420837",
    "prefectureCode": "23",
    "prefectureNumber": 23,
    "prefecture": "愛知県",
    "city": "豊川市",
    "town": "川花町"
  },
  "4420838": {
    "zipcode": "4420838",
    "prefectureCode": "23",
    "prefectureNumber": 23,
    "prefecture": "愛知県",
    "city": "豊川市",
    "town": "西塚町"
  },
  "4420839": {
    "zipcode": "4420839",
    "prefectureCode": "23",
    "prefectureNumber": 23,
    "prefecture": "愛知県",
    "city": "豊川市",
    "town": "四ツ谷町"
  },
  "4420841": {
    "zipcode": "4420841",
    "prefectureCode": "23",
    "prefectureNumber": 23,
    "prefecture": "愛知県",
    "city": "豊川市",
    "town": "代田町"
  },
  "4420842": {
    "zipcode": "4420842",
    "prefectureCode": "23",
    "prefectureNumber": 23,
    "prefecture": "愛知県",
    "city": "豊川市",
    "town": "蔵子"
  },
  "4420843": {
    "zipcode": "4420843",
    "prefectureCode": "23",
    "prefectureNumber": 23,
    "prefecture": "愛知県",
    "city": "豊川市",
    "town": "桜町"
  },
  "4420844": {
    "zipcode": "4420844",
    "prefectureCode": "23",
    "prefectureNumber": 23,
    "prefecture": "愛知県",
    "city": "豊川市",
    "town": "小田渕町"
  },
  "4420845": {
    "zipcode": "4420845",
    "prefectureCode": "23",
    "prefectureNumber": 23,
    "prefecture": "愛知県",
    "city": "豊川市",
    "town": "為当町"
  },
  "4420846": {
    "zipcode": "4420846",
    "prefectureCode": "23",
    "prefectureNumber": 23,
    "prefecture": "愛知県",
    "city": "豊川市",
    "town": "森"
  },
  "4420847": {
    "zipcode": "4420847",
    "prefectureCode": "23",
    "prefectureNumber": 23,
    "prefecture": "愛知県",
    "city": "豊川市",
    "town": "白鳥"
  },
  "4420848": {
    "zipcode": "4420848",
    "prefectureCode": "23",
    "prefectureNumber": 23,
    "prefecture": "愛知県",
    "city": "豊川市",
    "town": "白鳥町"
  },
  "4420851": {
    "zipcode": "4420851",
    "prefectureCode": "23",
    "prefectureNumber": 23,
    "prefecture": "愛知県",
    "city": "豊川市",
    "town": "野口町"
  },
  "4420852": {
    "zipcode": "4420852",
    "prefectureCode": "23",
    "prefectureNumber": 23,
    "prefecture": "愛知県",
    "city": "豊川市",
    "town": "国府南"
  },
  "4420853": {
    "zipcode": "4420853",
    "prefectureCode": "23",
    "prefectureNumber": 23,
    "prefecture": "愛知県",
    "city": "豊川市",
    "town": "新青馬町"
  },
  "4420854": {
    "zipcode": "4420854",
    "prefectureCode": "23",
    "prefectureNumber": 23,
    "prefecture": "愛知県",
    "city": "豊川市",
    "town": "国府町"
  },
  "4420855": {
    "zipcode": "4420855",
    "prefectureCode": "23",
    "prefectureNumber": 23,
    "prefecture": "愛知県",
    "city": "豊川市",
    "town": "新栄町"
  },
  "4420856": {
    "zipcode": "4420856",
    "prefectureCode": "23",
    "prefectureNumber": 23,
    "prefecture": "愛知県",
    "city": "豊川市",
    "town": "久保町"
  },
  "4420857": {
    "zipcode": "4420857",
    "prefectureCode": "23",
    "prefectureNumber": 23,
    "prefecture": "愛知県",
    "city": "豊川市",
    "town": "八幡町"
  },
  "4420861": {
    "zipcode": "4420861",
    "prefectureCode": "23",
    "prefectureNumber": 23,
    "prefecture": "愛知県",
    "city": "豊川市",
    "town": "財賀町"
  },
  "4420862": {
    "zipcode": "4420862",
    "prefectureCode": "23",
    "prefectureNumber": 23,
    "prefecture": "愛知県",
    "city": "豊川市",
    "town": "市田町"
  },
  "4420863": {
    "zipcode": "4420863",
    "prefectureCode": "23",
    "prefectureNumber": 23,
    "prefecture": "愛知県",
    "city": "豊川市",
    "town": "平尾町"
  },
  "4420871": {
    "zipcode": "4420871",
    "prefectureCode": "23",
    "prefectureNumber": 23,
    "prefecture": "愛知県",
    "city": "豊川市",
    "town": "松風町"
  },
  "4420872": {
    "zipcode": "4420872",
    "prefectureCode": "23",
    "prefectureNumber": 23,
    "prefecture": "愛知県",
    "city": "豊川市",
    "town": "金塚町"
  },
  "4420873": {
    "zipcode": "4420873",
    "prefectureCode": "23",
    "prefectureNumber": 23,
    "prefecture": "愛知県",
    "city": "豊川市",
    "town": "山道町"
  },
  "4420874": {
    "zipcode": "4420874",
    "prefectureCode": "23",
    "prefectureNumber": 23,
    "prefecture": "愛知県",
    "city": "豊川市",
    "town": "松久町"
  },
  "4420875": {
    "zipcode": "4420875",
    "prefectureCode": "23",
    "prefectureNumber": 23,
    "prefecture": "愛知県",
    "city": "豊川市",
    "town": "佐奈川町"
  },
  "4420876": {
    "zipcode": "4420876",
    "prefectureCode": "23",
    "prefectureNumber": 23,
    "prefecture": "愛知県",
    "city": "豊川市",
    "town": "中部町"
  },
  "4420877": {
    "zipcode": "4420877",
    "prefectureCode": "23",
    "prefectureNumber": 23,
    "prefecture": "愛知県",
    "city": "豊川市",
    "town": "下野川町"
  },
  "4420878": {
    "zipcode": "4420878",
    "prefectureCode": "23",
    "prefectureNumber": 23,
    "prefecture": "愛知県",
    "city": "豊川市",
    "town": "新道町"
  },
  "4420879": {
    "zipcode": "4420879",
    "prefectureCode": "23",
    "prefectureNumber": 23,
    "prefecture": "愛知県",
    "city": "豊川市",
    "town": "萩山町"
  },
  "4420881": {
    "zipcode": "4420881",
    "prefectureCode": "23",
    "prefectureNumber": 23,
    "prefecture": "愛知県",
    "city": "豊川市",
    "town": "塔ノ木町"
  },
  "4420882": {
    "zipcode": "4420882",
    "prefectureCode": "23",
    "prefectureNumber": 23,
    "prefecture": "愛知県",
    "city": "豊川市",
    "town": "光輝町"
  },
  "4420883": {
    "zipcode": "4420883",
    "prefectureCode": "23",
    "prefectureNumber": 23,
    "prefecture": "愛知県",
    "city": "豊川市",
    "town": "高見町"
  },
  "4420884": {
    "zipcode": "4420884",
    "prefectureCode": "23",
    "prefectureNumber": 23,
    "prefecture": "愛知県",
    "city": "豊川市",
    "town": "光明町"
  },
  "4420885": {
    "zipcode": "4420885",
    "prefectureCode": "23",
    "prefectureNumber": 23,
    "prefecture": "愛知県",
    "city": "豊川市",
    "town": "中野川町"
  },
  "4420886": {
    "zipcode": "4420886",
    "prefectureCode": "23",
    "prefectureNumber": 23,
    "prefecture": "愛知県",
    "city": "豊川市",
    "town": "牛久保駅通"
  },
  "4420887": {
    "zipcode": "4420887",
    "prefectureCode": "23",
    "prefectureNumber": 23,
    "prefecture": "愛知県",
    "city": "豊川市",
    "town": "明野町"
  },
  "4420888": {
    "zipcode": "4420888",
    "prefectureCode": "23",
    "prefectureNumber": 23,
    "prefecture": "愛知県",
    "city": "豊川市",
    "town": "千歳通"
  },
  "4420889": {
    "zipcode": "4420889",
    "prefectureCode": "23",
    "prefectureNumber": 23,
    "prefecture": "愛知県",
    "city": "豊川市",
    "town": "南大通"
  }
}
