{
  "4430000": {
    "zipcode": "4430000",
    "prefectureCode": "23",
    "prefectureNumber": 23,
    "prefecture": "愛知県",
    "city": "蒲郡市",
    "town": "以下に掲載がない場合"
  },
  "4430001": {
    "zipcode": "4430001",
    "prefectureCode": "23",
    "prefectureNumber": 23,
    "prefecture": "愛知県",
    "city": "蒲郡市",
    "town": "坂本町"
  },
  "4430002": {
    "zipcode": "4430002",
    "prefectureCode": "23",
    "prefectureNumber": 23,
    "prefecture": "愛知県",
    "city": "蒲郡市",
    "town": "清田町"
  },
  "4430003": {
    "zipcode": "4430003",
    "prefectureCode": "23",
    "prefectureNumber": 23,
    "prefecture": "愛知県",
    "city": "蒲郡市",
    "town": "五井町"
  },
  "4430004": {
    "zipcode": "4430004",
    "prefectureCode": "23",
    "prefectureNumber": 23,
    "prefecture": "愛知県",
    "city": "蒲郡市",
    "town": "平田町"
  },
  "4430005": {
    "zipcode": "4430005",
    "prefectureCode": "23",
    "prefectureNumber": 23,
    "prefecture": "愛知県",
    "city": "蒲郡市",
    "town": "水竹町"
  },
  "4430006": {
    "zipcode": "4430006",
    "prefectureCode": "23",
    "prefectureNumber": 23,
    "prefecture": "愛知県",
    "city": "蒲郡市",
    "town": "蒲郡町"
  },
  "4430007": {
    "zipcode": "4430007",
    "prefectureCode": "23",
    "prefectureNumber": 23,
    "prefecture": "愛知県",
    "city": "蒲郡市",
    "town": "神ノ郷町"
  },
  "4430008": {
    "zipcode": "4430008",
    "prefectureCode": "23",
    "prefectureNumber": 23,
    "prefecture": "愛知県",
    "city": "蒲郡市",
    "town": "柏原町"
  },
  "4430011": {
    "zipcode": "4430011",
    "prefectureCode": "23",
    "prefectureNumber": 23,
    "prefecture": "愛知県",
    "city": "蒲郡市",
    "town": "豊岡町"
  },
  "4430012": {
    "zipcode": "4430012",
    "prefectureCode": "23",
    "prefectureNumber": 23,
    "prefecture": "愛知県",
    "city": "蒲郡市",
    "town": "相楽町"
  },
  "4430013": {
    "zipcode": "4430013",
    "prefectureCode": "23",
    "prefectureNumber": 23,
    "prefecture": "愛知県",
    "city": "蒲郡市",
    "town": "大塚町"
  },
  "4430014": {
    "zipcode": "4430014",
    "prefectureCode": "23",
    "prefectureNumber": 23,
    "prefecture": "愛知県",
    "city": "蒲郡市",
    "town": "海陽町"
  },
  "4430021": {
    "zipcode": "4430021",
    "prefectureCode": "23",
    "prefectureNumber": 23,
    "prefecture": "愛知県",
    "city": "蒲郡市",
    "town": "三谷町"
  },
  "4430022": {
    "zipcode": "4430022",
    "prefectureCode": "23",
    "prefectureNumber": 23,
    "prefecture": "愛知県",
    "city": "蒲郡市",
    "town": "三谷北通"
  },
  "4430031": {
    "zipcode": "4430031",
    "prefectureCode": "23",
    "prefectureNumber": 23,
    "prefecture": "愛知県",
    "city": "蒲郡市",
    "town": "竹島町"
  },
  "4430032": {
    "zipcode": "4430032",
    "prefectureCode": "23",
    "prefectureNumber": 23,
    "prefecture": "愛知県",
    "city": "蒲郡市",
    "town": "丸山町"
  },
  "4430033": {
    "zipcode": "4430033",
    "prefectureCode": "23",
    "prefectureNumber": 23,
    "prefecture": "愛知県",
    "city": "蒲郡市",
    "town": "松原町"
  },
  "4430034": {
    "zipcode": "4430034",
    "prefectureCode": "23",
    "prefectureNumber": 23,
    "prefecture": "愛知県",
    "city": "蒲郡市",
    "town": "港町"
  },
  "4430035": {
    "zipcode": "4430035",
    "prefectureCode": "23",
    "prefectureNumber": 23,
    "prefecture": "愛知県",
    "city": "蒲郡市",
    "town": "栄町"
  },
  "4430036": {
    "zipcode": "4430036",
    "prefectureCode": "23",
    "prefectureNumber": 23,
    "prefecture": "愛知県",
    "city": "蒲郡市",
    "town": "浜町"
  },
  "4430037": {
    "zipcode": "4430037",
    "prefectureCode": "23",
    "prefectureNumber": 23,
    "prefecture": "愛知県",
    "city": "蒲郡市",
    "town": "鹿島町"
  },
  "4430038": {
    "zipcode": "4430038",
    "prefectureCode": "23",
    "prefectureNumber": 23,
    "prefecture": "愛知県",
    "city": "蒲郡市",
    "town": "拾石町"
  },
  "4430041": {
    "zipcode": "4430041",
    "prefectureCode": "23",
    "prefectureNumber": 23,
    "prefecture": "愛知県",
    "city": "蒲郡市",
    "town": "宮成町"
  },
  "4430042": {
    "zipcode": "4430042",
    "prefectureCode": "23",
    "prefectureNumber": 23,
    "prefecture": "愛知県",
    "city": "蒲郡市",
    "town": "御幸町"
  },
  "4430043": {
    "zipcode": "4430043",
    "prefectureCode": "23",
    "prefectureNumber": 23,
    "prefecture": "愛知県",
    "city": "蒲郡市",
    "town": "元町"
  },
  "4430044": {
    "zipcode": "4430044",
    "prefectureCode": "23",
    "prefectureNumber": 23,
    "prefecture": "愛知県",
    "city": "蒲郡市",
    "town": "宝町"
  },
  "4430045": {
    "zipcode": "4430045",
    "prefectureCode": "23",
    "prefectureNumber": 23,
    "prefecture": "愛知県",
    "city": "蒲郡市",
    "town": "旭町"
  },
  "4430046": {
    "zipcode": "4430046",
    "prefectureCode": "23",
    "prefectureNumber": 23,
    "prefecture": "愛知県",
    "city": "蒲郡市",
    "town": "竹谷町"
  },
  "4430047": {
    "zipcode": "4430047",
    "prefectureCode": "23",
    "prefectureNumber": 23,
    "prefecture": "愛知県",
    "city": "蒲郡市",
    "town": "西迫町"
  },
  "4430048": {
    "zipcode": "4430048",
    "prefectureCode": "23",
    "prefectureNumber": 23,
    "prefecture": "愛知県",
    "city": "蒲郡市",
    "town": "緑町"
  },
  "4430051": {
    "zipcode": "4430051",
    "prefectureCode": "23",
    "prefectureNumber": 23,
    "prefecture": "愛知県",
    "city": "蒲郡市",
    "town": "新井形町南"
  },
  "4430052": {
    "zipcode": "4430052",
    "prefectureCode": "23",
    "prefectureNumber": 23,
    "prefecture": "愛知県",
    "city": "蒲郡市",
    "town": "新井町南"
  },
  "4430053": {
    "zipcode": "4430053",
    "prefectureCode": "23",
    "prefectureNumber": 23,
    "prefecture": "愛知県",
    "city": "蒲郡市",
    "town": "堀込町"
  },
  "4430054": {
    "zipcode": "4430054",
    "prefectureCode": "23",
    "prefectureNumber": 23,
    "prefecture": "愛知県",
    "city": "蒲郡市",
    "town": "府相町"
  },
  "4430055": {
    "zipcode": "4430055",
    "prefectureCode": "23",
    "prefectureNumber": 23,
    "prefecture": "愛知県",
    "city": "蒲郡市",
    "town": "八百富町"
  },
  "4430056": {
    "zipcode": "4430056",
    "prefectureCode": "23",
    "prefectureNumber": 23,
    "prefecture": "愛知県",
    "city": "蒲郡市",
    "town": "神明町東"
  },
  "4430057": {
    "zipcode": "4430057",
    "prefectureCode": "23",
    "prefectureNumber": 23,
    "prefecture": "愛知県",
    "city": "蒲郡市",
    "town": "中央本町"
  },
  "4430058": {
    "zipcode": "4430058",
    "prefectureCode": "23",
    "prefectureNumber": 23,
    "prefecture": "愛知県",
    "city": "蒲郡市",
    "town": "上本町"
  },
  "4430059": {
    "zipcode": "4430059",
    "prefectureCode": "23",
    "prefectureNumber": 23,
    "prefecture": "愛知県",
    "city": "蒲郡市",
    "town": "本町東"
  },
  "4430101": {
    "zipcode": "4430101",
    "prefectureCode": "23",
    "prefectureNumber": 23,
    "prefecture": "愛知県",
    "city": "蒲郡市",
    "town": "一色町"
  },
  "4430102": {
    "zipcode": "4430102",
    "prefectureCode": "23",
    "prefectureNumber": 23,
    "prefecture": "愛知県",
    "city": "蒲郡市",
    "town": "金平町"
  },
  "4430103": {
    "zipcode": "4430103",
    "prefectureCode": "23",
    "prefectureNumber": 23,
    "prefecture": "愛知県",
    "city": "蒲郡市",
    "town": "形原町北浜"
  },
  "4430104": {
    "zipcode": "4430104",
    "prefectureCode": "23",
    "prefectureNumber": 23,
    "prefecture": "愛知県",
    "city": "蒲郡市",
    "town": "形原町"
  },
  "4430105": {
    "zipcode": "4430105",
    "prefectureCode": "23",
    "prefectureNumber": 23,
    "prefecture": "愛知県",
    "city": "蒲郡市",
    "town": "西浦町"
  },
  "4430106": {
    "zipcode": "4430106",
    "prefectureCode": "23",
    "prefectureNumber": 23,
    "prefecture": "愛知県",
    "city": "蒲郡市",
    "town": "形原町春日浦"
  }
}
