{
  "4440000": {
    "zipcode": "4440000",
    "prefectureCode": "23",
    "prefectureNumber": 23,
    "prefecture": "愛知県",
    "city": "岡崎市",
    "town": "以下に掲載がない場合"
  },
  "4440001": {
    "zipcode": "4440001",
    "prefectureCode": "23",
    "prefectureNumber": 23,
    "prefecture": "愛知県",
    "city": "岡崎市",
    "town": "箱柳町（その他）"
  },
  "4440002": {
    "zipcode": "4440002",
    "prefectureCode": "23",
    "prefectureNumber": 23,
    "prefecture": "愛知県",
    "city": "岡崎市",
    "town": "高隆寺町"
  },
  "4440003": {
    "zipcode": "4440003",
    "prefectureCode": "23",
    "prefectureNumber": 23,
    "prefecture": "愛知県",
    "city": "岡崎市",
    "town": "小美町"
  },
  "4440004": {
    "zipcode": "4440004",
    "prefectureCode": "23",
    "prefectureNumber": 23,
    "prefecture": "愛知県",
    "city": "岡崎市",
    "town": "保母町"
  },
  "4440005": {
    "zipcode": "4440005",
    "prefectureCode": "23",
    "prefectureNumber": 23,
    "prefecture": "愛知県",
    "city": "岡崎市",
    "town": "岡町"
  },
  "4440006": {
    "zipcode": "4440006",
    "prefectureCode": "23",
    "prefectureNumber": 23,
    "prefecture": "愛知県",
    "city": "岡崎市",
    "town": "丸山町"
  },
  "4440007": {
    "zipcode": "4440007",
    "prefectureCode": "23",
    "prefectureNumber": 23,
    "prefecture": "愛知県",
    "city": "岡崎市",
    "town": "大平町"
  },
  "4440008": {
    "zipcode": "4440008",
    "prefectureCode": "23",
    "prefectureNumber": 23,
    "prefecture": "愛知県",
    "city": "岡崎市",
    "town": "洞町"
  },
  "4440009": {
    "zipcode": "4440009",
    "prefectureCode": "23",
    "prefectureNumber": 23,
    "prefecture": "愛知県",
    "city": "岡崎市",
    "town": "小呂町"
  },
  "4440011": {
    "zipcode": "4440011",
    "prefectureCode": "23",
    "prefectureNumber": 23,
    "prefecture": "愛知県",
    "city": "岡崎市",
    "town": "欠町"
  },
  "4440012": {
    "zipcode": "4440012",
    "prefectureCode": "23",
    "prefectureNumber": 23,
    "prefecture": "愛知県",
    "city": "岡崎市",
    "town": "栄町"
  },
  "4440013": {
    "zipcode": "4440013",
    "prefectureCode": "23",
    "prefectureNumber": 23,
    "prefecture": "愛知県",
    "city": "岡崎市",
    "town": "根石町"
  },
  "4440014": {
    "zipcode": "4440014",
    "prefectureCode": "23",
    "prefectureNumber": 23,
    "prefecture": "愛知県",
    "city": "岡崎市",
    "town": "若宮町"
  },
  "4440015": {
    "zipcode": "4440015",
    "prefectureCode": "23",
    "prefectureNumber": 23,
    "prefecture": "愛知県",
    "city": "岡崎市",
    "town": "中町"
  },
  "4440016": {
    "zipcode": "4440016",
    "prefectureCode": "23",
    "prefectureNumber": 23,
    "prefecture": "愛知県",
    "city": "岡崎市",
    "town": "元欠町"
  },
  "4440021": {
    "zipcode": "4440021",
    "prefectureCode": "23",
    "prefectureNumber": 23,
    "prefecture": "愛知県",
    "city": "岡崎市",
    "town": "蓬莱町"
  },
  "4440022": {
    "zipcode": "4440022",
    "prefectureCode": "23",
    "prefectureNumber": 23,
    "prefecture": "愛知県",
    "city": "岡崎市",
    "town": "朝日町"
  },
  "4440023": {
    "zipcode": "4440023",
    "prefectureCode": "23",
    "prefectureNumber": 23,
    "prefecture": "愛知県",
    "city": "岡崎市",
    "town": "両町"
  },
  "4440024": {
    "zipcode": "4440024",
    "prefectureCode": "23",
    "prefectureNumber": 23,
    "prefecture": "愛知県",
    "city": "岡崎市",
    "town": "西中町"
  },
  "4440025": {
    "zipcode": "4440025",
    "prefectureCode": "23",
    "prefectureNumber": 23,
    "prefecture": "愛知県",
    "city": "岡崎市",
    "town": "曙町"
  },
  "4440031": {
    "zipcode": "4440031",
    "prefectureCode": "23",
    "prefectureNumber": 23,
    "prefecture": "愛知県",
    "city": "岡崎市",
    "town": "梅園町"
  },
  "4440032": {
    "zipcode": "4440032",
    "prefectureCode": "23",
    "prefectureNumber": 23,
    "prefecture": "愛知県",
    "city": "岡崎市",
    "town": "門前町"
  },
  "4440033": {
    "zipcode": "4440033",
    "prefectureCode": "23",
    "prefectureNumber": 23,
    "prefecture": "愛知県",
    "city": "岡崎市",
    "town": "久右ヱ門町"
  },
  "4440034": {
    "zipcode": "4440034",
    "prefectureCode": "23",
    "prefectureNumber": 23,
    "prefecture": "愛知県",
    "city": "岡崎市",
    "town": "十王町"
  },
  "4440035": {
    "zipcode": "4440035",
    "prefectureCode": "23",
    "prefectureNumber": 23,
    "prefecture": "愛知県",
    "city": "岡崎市",
    "town": "菅生町"
  },
  "4440036": {
    "zipcode": "4440036",
    "prefectureCode": "23",
    "prefectureNumber": 23,
    "prefecture": "愛知県",
    "city": "岡崎市",
    "town": "島町"
  },
  "4440037": {
    "zipcode": "4440037",
    "prefectureCode": "23",
    "prefectureNumber": 23,
    "prefecture": "愛知県",
    "city": "岡崎市",
    "town": "祐金町"
  },
  "4440038": {
    "zipcode": "4440038",
    "prefectureCode": "23",
    "prefectureNumber": 23,
    "prefecture": "愛知県",
    "city": "岡崎市",
    "town": "伝馬通"
  },
  "4440039": {
    "zipcode": "4440039",
    "prefectureCode": "23",
    "prefectureNumber": 23,
    "prefecture": "愛知県",
    "city": "岡崎市",
    "town": "花崗町"
  },
  "4440041": {
    "zipcode": "4440041",
    "prefectureCode": "23",
    "prefectureNumber": 23,
    "prefecture": "愛知県",
    "city": "岡崎市",
    "town": "籠田町"
  },
  "4440042": {
    "zipcode": "4440042",
    "prefectureCode": "23",
    "prefectureNumber": 23,
    "prefecture": "愛知県",
    "city": "岡崎市",
    "town": "六地蔵町"
  },
  "4440043": {
    "zipcode": "4440043",
    "prefectureCode": "23",
    "prefectureNumber": 23,
    "prefecture": "愛知県",
    "city": "岡崎市",
    "town": "唐沢町"
  },
  "4440044": {
    "zipcode": "4440044",
    "prefectureCode": "23",
    "prefectureNumber": 23,
    "prefecture": "愛知県",
    "city": "岡崎市",
    "town": "康生通南"
  },
  "4440045": {
    "zipcode": "4440045",
    "prefectureCode": "23",
    "prefectureNumber": 23,
    "prefecture": "愛知県",
    "city": "岡崎市",
    "town": "康生通東"
  },
  "4440046": {
    "zipcode": "4440046",
    "prefectureCode": "23",
    "prefectureNumber": 23,
    "prefecture": "愛知県",
    "city": "岡崎市",
    "town": "連尺通"
  },
  "4440047": {
    "zipcode": "4440047",
    "prefectureCode": "23",
    "prefectureNumber": 23,
    "prefecture": "愛知県",
    "city": "岡崎市",
    "town": "八幡町"
  },
  "4440048": {
    "zipcode": "4440048",
    "prefectureCode": "23",
    "prefectureNumber": 23,
    "prefecture": "愛知県",
    "city": "岡崎市",
    "town": "六供本町"
  },
  "4440049": {
    "zipcode": "4440049",
    "prefectureCode": "23",
    "prefectureNumber": 23,
    "prefecture": "愛知県",
    "city": "岡崎市",
    "town": "亀井町"
  },
  "4440051": {
    "zipcode": "4440051",
    "prefectureCode": "23",
    "prefectureNumber": 23,
    "prefecture": "愛知県",
    "city": "岡崎市",
    "town": "本町通"
  },
  "4440052": {
    "zipcode": "4440052",
    "prefectureCode": "23",
    "prefectureNumber": 23,
    "prefecture": "愛知県",
    "city": "岡崎市",
    "town": "康生町"
  },
  "4440053": {
    "zipcode": "4440053",
    "prefectureCode": "23",
    "prefectureNumber": 23,
    "prefecture": "愛知県",
    "city": "岡崎市",
    "town": "板屋町"
  },
  "4440054": {
    "zipcode": "4440054",
    "prefectureCode": "23",
    "prefectureNumber": 23,
    "prefecture": "愛知県",
    "city": "岡崎市",
    "town": "田町"
  },
  "4440055": {
    "zipcode": "4440055",
    "prefectureCode": "23",
    "prefectureNumber": 23,
    "prefecture": "愛知県",
    "city": "岡崎市",
    "town": "西魚町"
  },
  "4440056": {
    "zipcode": "4440056",
    "prefectureCode": "23",
    "prefectureNumber": 23,
    "prefecture": "愛知県",
    "city": "岡崎市",
    "town": "福寿町"
  },
  "4440057": {
    "zipcode": "4440057",
    "prefectureCode": "23",
    "prefectureNumber": 23,
    "prefecture": "愛知県",
    "city": "岡崎市",
    "town": "材木町"
  },
  "4440058": {
    "zipcode": "4440058",
    "prefectureCode": "23",
    "prefectureNumber": 23,
    "prefecture": "愛知県",
    "city": "岡崎市",
    "town": "魚町"
  },
  "4440059": {
    "zipcode": "4440059",
    "prefectureCode": "23",
    "prefectureNumber": 23,
    "prefecture": "愛知県",
    "city": "岡崎市",
    "town": "康生通西"
  },
  "4440061": {
    "zipcode": "4440061",
    "prefectureCode": "23",
    "prefectureNumber": 23,
    "prefecture": "愛知県",
    "city": "岡崎市",
    "town": "能見町"
  },
  "4440062": {
    "zipcode": "4440062",
    "prefectureCode": "23",
    "prefectureNumber": 23,
    "prefecture": "愛知県",
    "city": "岡崎市",
    "town": "松本町"
  },
  "4440063": {
    "zipcode": "4440063",
    "prefectureCode": "23",
    "prefectureNumber": 23,
    "prefecture": "愛知県",
    "city": "岡崎市",
    "town": "元能見町"
  },
  "4440064": {
    "zipcode": "4440064",
    "prefectureCode": "23",
    "prefectureNumber": 23,
    "prefecture": "愛知県",
    "city": "岡崎市",
    "town": "城北町"
  },
  "4440065": {
    "zipcode": "4440065",
    "prefectureCode": "23",
    "prefectureNumber": 23,
    "prefecture": "愛知県",
    "city": "岡崎市",
    "town": "柿田町"
  },
  "4440066": {
    "zipcode": "4440066",
    "prefectureCode": "23",
    "prefectureNumber": 23,
    "prefecture": "愛知県",
    "city": "岡崎市",
    "town": "広幡町"
  },
  "4440067": {
    "zipcode": "4440067",
    "prefectureCode": "23",
    "prefectureNumber": 23,
    "prefecture": "愛知県",
    "city": "岡崎市",
    "town": "錦町"
  },
  "4440068": {
    "zipcode": "4440068",
    "prefectureCode": "23",
    "prefectureNumber": 23,
    "prefecture": "愛知県",
    "city": "岡崎市",
    "town": "井田南町"
  },
  "4440069": {
    "zipcode": "4440069",
    "prefectureCode": "23",
    "prefectureNumber": 23,
    "prefecture": "愛知県",
    "city": "岡崎市",
    "town": "井田新町"
  },
  "4440071": {
    "zipcode": "4440071",
    "prefectureCode": "23",
    "prefectureNumber": 23,
    "prefecture": "愛知県",
    "city": "岡崎市",
    "town": "稲熊町"
  },
  "4440072": {
    "zipcode": "4440072",
    "prefectureCode": "23",
    "prefectureNumber": 23,
    "prefecture": "愛知県",
    "city": "岡崎市",
    "town": "六供町"
  },
  "4440073": {
    "zipcode": "4440073",
    "prefectureCode": "23",
    "prefectureNumber": 23,
    "prefecture": "愛知県",
    "city": "岡崎市",
    "town": "能見通"
  },
  "4440074": {
    "zipcode": "4440074",
    "prefectureCode": "23",
    "prefectureNumber": 23,
    "prefecture": "愛知県",
    "city": "岡崎市",
    "town": "東能見町"
  },
  "4440075": {
    "zipcode": "4440075",
    "prefectureCode": "23",
    "prefectureNumber": 23,
    "prefecture": "愛知県",
    "city": "岡崎市",
    "town": "伊賀町"
  },
  "4440076": {
    "zipcode": "4440076",
    "prefectureCode": "23",
    "prefectureNumber": 23,
    "prefecture": "愛知県",
    "city": "岡崎市",
    "town": "井田町"
  },
  "4440077": {
    "zipcode": "4440077",
    "prefectureCode": "23",
    "prefectureNumber": 23,
    "prefecture": "愛知県",
    "city": "岡崎市",
    "town": "井田町茨坪"
  },
  "4440078": {
    "zipcode": "4440078",
    "prefectureCode": "23",
    "prefectureNumber": 23,
    "prefecture": "愛知県",
    "city": "岡崎市",
    "town": "伊賀新町"
  },
  "4440079": {
    "zipcode": "4440079",
    "prefectureCode": "23",
    "prefectureNumber": 23,
    "prefecture": "愛知県",
    "city": "岡崎市",
    "town": "石神町"
  },
  "4440100": {
    "zipcode": "4440100",
    "prefectureCode": "23",
    "prefectureNumber": 23,
    "prefecture": "愛知県",
    "city": "額田郡幸田町",
    "town": "以下に掲載がない場合"
  },
  "4440101": {
    "zipcode": "4440101",
    "prefectureCode": "23",
    "prefectureNumber": 23,
    "prefecture": "愛知県",
    "city": "額田郡幸田町",
    "town": "長嶺"
  },
  "4440102": {
    "zipcode": "4440102",
    "prefectureCode": "23",
    "prefectureNumber": 23,
    "prefecture": "愛知県",
    "city": "額田郡幸田町",
    "town": "久保田"
  },
  "4440103": {
    "zipcode": "4440103",
    "prefectureCode": "23",
    "prefectureNumber": 23,
    "prefecture": "愛知県",
    "city": "額田郡幸田町",
    "town": "大草"
  },
  "4440104": {
    "zipcode": "4440104",
    "prefectureCode": "23",
    "prefectureNumber": 23,
    "prefecture": "愛知県",
    "city": "額田郡幸田町",
    "town": "坂崎"
  },
  "4440111": {
    "zipcode": "4440111",
    "prefectureCode": "23",
    "prefectureNumber": 23,
    "prefecture": "愛知県",
    "city": "額田郡幸田町",
    "town": "高力"
  },
  "4440113": {
    "zipcode": "4440113",
    "prefectureCode": "23",
    "prefectureNumber": 23,
    "prefecture": "愛知県",
    "city": "額田郡幸田町",
    "town": "菱池"
  },
  "4440114": {
    "zipcode": "4440114",
    "prefectureCode": "23",
    "prefectureNumber": 23,
    "prefecture": "愛知県",
    "city": "額田郡幸田町",
    "town": "横落"
  },
  "4440115": {
    "zipcode": "4440115",
    "prefectureCode": "23",
    "prefectureNumber": 23,
    "prefecture": "愛知県",
    "city": "額田郡幸田町",
    "town": "荻"
  },
  "4440116": {
    "zipcode": "4440116",
    "prefectureCode": "23",
    "prefectureNumber": 23,
    "prefecture": "愛知県",
    "city": "額田郡幸田町",
    "town": "芦谷"
  },
  "4440117": {
    "zipcode": "4440117",
    "prefectureCode": "23",
    "prefectureNumber": 23,
    "prefecture": "愛知県",
    "city": "額田郡幸田町",
    "town": "相見"
  },
  "4440121": {
    "zipcode": "4440121",
    "prefectureCode": "23",
    "prefectureNumber": 23,
    "prefecture": "愛知県",
    "city": "額田郡幸田町",
    "town": "永野"
  },
  "4440122": {
    "zipcode": "4440122",
    "prefectureCode": "23",
    "prefectureNumber": 23,
    "prefecture": "愛知県",
    "city": "額田郡幸田町",
    "town": "六栗"
  },
  "4440123": {
    "zipcode": "4440123",
    "prefectureCode": "23",
    "prefectureNumber": 23,
    "prefecture": "愛知県",
    "city": "額田郡幸田町",
    "town": "上六栗"
  },
  "4440124": {
    "zipcode": "4440124",
    "prefectureCode": "23",
    "prefectureNumber": 23,
    "prefecture": "愛知県",
    "city": "額田郡幸田町",
    "town": "深溝"
  },
  "4440125": {
    "zipcode": "4440125",
    "prefectureCode": "23",
    "prefectureNumber": 23,
    "prefecture": "愛知県",
    "city": "額田郡幸田町",
    "town": "逆川"
  },
  "4440126": {
    "zipcode": "4440126",
    "prefectureCode": "23",
    "prefectureNumber": 23,
    "prefecture": "愛知県",
    "city": "額田郡幸田町",
    "town": "桐山"
  },
  "4440127": {
    "zipcode": "4440127",
    "prefectureCode": "23",
    "prefectureNumber": 23,
    "prefecture": "愛知県",
    "city": "額田郡幸田町",
    "town": "須美"
  },
  "4440128": {
    "zipcode": "4440128",
    "prefectureCode": "23",
    "prefectureNumber": 23,
    "prefecture": "愛知県",
    "city": "額田郡幸田町",
    "town": "野場"
  },
  "4440201": {
    "zipcode": "4440201",
    "prefectureCode": "23",
    "prefectureNumber": 23,
    "prefecture": "愛知県",
    "city": "岡崎市",
    "town": "上和田町"
  },
  "4440202": {
    "zipcode": "4440202",
    "prefectureCode": "23",
    "prefectureNumber": 23,
    "prefecture": "愛知県",
    "city": "岡崎市",
    "town": "宮地町"
  },
  "4440203": {
    "zipcode": "4440203",
    "prefectureCode": "23",
    "prefectureNumber": 23,
    "prefecture": "愛知県",
    "city": "岡崎市",
    "town": "井内町"
  },
  "4440204": {
    "zipcode": "4440204",
    "prefectureCode": "23",
    "prefectureNumber": 23,
    "prefecture": "愛知県",
    "city": "岡崎市",
    "town": "土井町"
  },
  "4440205": {
    "zipcode": "4440205",
    "prefectureCode": "23",
    "prefectureNumber": 23,
    "prefecture": "愛知県",
    "city": "岡崎市",
    "town": "牧御堂町"
  },
  "4440206": {
    "zipcode": "4440206",
    "prefectureCode": "23",
    "prefectureNumber": 23,
    "prefecture": "愛知県",
    "city": "岡崎市",
    "town": "法性寺町"
  },
  "4440211": {
    "zipcode": "4440211",
    "prefectureCode": "23",
    "prefectureNumber": 23,
    "prefecture": "愛知県",
    "city": "岡崎市",
    "town": "野畑町"
  },
  "4440212": {
    "zipcode": "4440212",
    "prefectureCode": "23",
    "prefectureNumber": 23,
    "prefecture": "愛知県",
    "city": "岡崎市",
    "town": "下和田町"
  },
  "4440213": {
    "zipcode": "4440213",
    "prefectureCode": "23",
    "prefectureNumber": 23,
    "prefecture": "愛知県",
    "city": "岡崎市",
    "town": "坂左右町"
  },
  "4440214": {
    "zipcode": "4440214",
    "prefectureCode": "23",
    "prefectureNumber": 23,
    "prefecture": "愛知県",
    "city": "岡崎市",
    "town": "国正町"
  },
  "4440215": {
    "zipcode": "4440215",
    "prefectureCode": "23",
    "prefectureNumber": 23,
    "prefecture": "愛知県",
    "city": "岡崎市",
    "town": "中村町"
  },
  "4440216": {
    "zipcode": "4440216",
    "prefectureCode": "23",
    "prefectureNumber": 23,
    "prefecture": "愛知県",
    "city": "岡崎市",
    "town": "定国町"
  },
  "4440221": {
    "zipcode": "4440221",
    "prefectureCode": "23",
    "prefectureNumber": 23,
    "prefecture": "愛知県",
    "city": "岡崎市",
    "town": "正名町"
  },
  "4440222": {
    "zipcode": "4440222",
    "prefectureCode": "23",
    "prefectureNumber": 23,
    "prefecture": "愛知県",
    "city": "岡崎市",
    "town": "二軒屋町"
  },
  "4440223": {
    "zipcode": "4440223",
    "prefectureCode": "23",
    "prefectureNumber": 23,
    "prefecture": "愛知県",
    "city": "岡崎市",
    "town": "中島東町"
  },
  "4440224": {
    "zipcode": "4440224",
    "prefectureCode": "23",
    "prefectureNumber": 23,
    "prefecture": "愛知県",
    "city": "岡崎市",
    "town": "中島中町"
  },
  "4440225": {
    "zipcode": "4440225",
    "prefectureCode": "23",
    "prefectureNumber": 23,
    "prefecture": "愛知県",
    "city": "岡崎市",
    "town": "中島西町"
  },
  "4440226": {
    "zipcode": "4440226",
    "prefectureCode": "23",
    "prefectureNumber": 23,
    "prefecture": "愛知県",
    "city": "岡崎市",
    "town": "中島町"
  },
  "4440231": {
    "zipcode": "4440231",
    "prefectureCode": "23",
    "prefectureNumber": 23,
    "prefecture": "愛知県",
    "city": "岡崎市",
    "town": "高橋町"
  },
  "4440232": {
    "zipcode": "4440232",
    "prefectureCode": "23",
    "prefectureNumber": 23,
    "prefecture": "愛知県",
    "city": "岡崎市",
    "town": "合歓木町"
  },
  "4440233": {
    "zipcode": "4440233",
    "prefectureCode": "23",
    "prefectureNumber": 23,
    "prefecture": "愛知県",
    "city": "岡崎市",
    "town": "福桶町"
  },
  "4440234": {
    "zipcode": "4440234",
    "prefectureCode": "23",
    "prefectureNumber": 23,
    "prefecture": "愛知県",
    "city": "岡崎市",
    "town": "安藤町"
  },
  "4440241": {
    "zipcode": "4440241",
    "prefectureCode": "23",
    "prefectureNumber": 23,
    "prefecture": "愛知県",
    "city": "岡崎市",
    "town": "赤渋町"
  },
  "4440242": {
    "zipcode": "4440242",
    "prefectureCode": "23",
    "prefectureNumber": 23,
    "prefecture": "愛知県",
    "city": "岡崎市",
    "town": "中之郷町"
  },
  "4440243": {
    "zipcode": "4440243",
    "prefectureCode": "23",
    "prefectureNumber": 23,
    "prefecture": "愛知県",
    "city": "岡崎市",
    "town": "上青野町"
  },
  "4440244": {
    "zipcode": "4440244",
    "prefectureCode": "23",
    "prefectureNumber": 23,
    "prefecture": "愛知県",
    "city": "岡崎市",
    "town": "下青野町"
  },
  "4440245": {
    "zipcode": "4440245",
    "prefectureCode": "23",
    "prefectureNumber": 23,
    "prefecture": "愛知県",
    "city": "岡崎市",
    "town": "在家町"
  },
  "4440246": {
    "zipcode": "4440246",
    "prefectureCode": "23",
    "prefectureNumber": 23,
    "prefecture": "愛知県",
    "city": "岡崎市",
    "town": "上三ツ木町"
  },
  "4440247": {
    "zipcode": "4440247",
    "prefectureCode": "23",
    "prefectureNumber": 23,
    "prefecture": "愛知県",
    "city": "岡崎市",
    "town": "下三ツ木町"
  },
  "4440301": {
    "zipcode": "4440301",
    "prefectureCode": "23",
    "prefectureNumber": 23,
    "prefecture": "愛知県",
    "city": "西尾市",
    "town": "田貫町"
  },
  "4440302": {
    "zipcode": "4440302",
    "prefectureCode": "23",
    "prefectureNumber": 23,
    "prefecture": "愛知県",
    "city": "西尾市",
    "town": "田貫"
  },
  "4440303": {
    "zipcode": "4440303",
    "prefectureCode": "23",
    "prefectureNumber": 23,
    "prefecture": "愛知県",
    "city": "西尾市",
    "town": "中畑町"
  },
  "4440304": {
    "zipcode": "4440304",
    "prefectureCode": "23",
    "prefectureNumber": 23,
    "prefecture": "愛知県",
    "city": "西尾市",
    "town": "中畑"
  },
  "4440305": {
    "zipcode": "4440305",
    "prefectureCode": "23",
    "prefectureNumber": 23,
    "prefecture": "愛知県",
    "city": "西尾市",
    "town": "平坂町"
  },
  "4440311": {
    "zipcode": "4440311",
    "prefectureCode": "23",
    "prefectureNumber": 23,
    "prefecture": "愛知県",
    "city": "西尾市",
    "town": "新在家町"
  },
  "4440312": {
    "zipcode": "4440312",
    "prefectureCode": "23",
    "prefectureNumber": 23,
    "prefecture": "愛知県",
    "city": "西尾市",
    "town": "国森町"
  },
  "4440313": {
    "zipcode": "4440313",
    "prefectureCode": "23",
    "prefectureNumber": 23,
    "prefecture": "愛知県",
    "city": "西尾市",
    "town": "上矢田町"
  },
  "4440314": {
    "zipcode": "4440314",
    "prefectureCode": "23",
    "prefectureNumber": 23,
    "prefecture": "愛知県",
    "city": "西尾市",
    "town": "下矢田町"
  },
  "4440315": {
    "zipcode": "4440315",
    "prefectureCode": "23",
    "prefectureNumber": 23,
    "prefecture": "愛知県",
    "city": "西尾市",
    "town": "徳永町"
  },
  "4440316": {
    "zipcode": "4440316",
    "prefectureCode": "23",
    "prefectureNumber": 23,
    "prefecture": "愛知県",
    "city": "西尾市",
    "town": "羽塚町"
  },
  "4440317": {
    "zipcode": "4440317",
    "prefectureCode": "23",
    "prefectureNumber": 23,
    "prefecture": "愛知県",
    "city": "西尾市",
    "town": "羽塚西ノ山"
  },
  "4440318": {
    "zipcode": "4440318",
    "prefectureCode": "23",
    "prefectureNumber": 23,
    "prefecture": "愛知県",
    "city": "西尾市",
    "town": "矢田"
  },
  "4440321": {
    "zipcode": "4440321",
    "prefectureCode": "23",
    "prefectureNumber": 23,
    "prefecture": "愛知県",
    "city": "西尾市",
    "town": "刈宿町"
  },
  "4440322": {
    "zipcode": "4440322",
    "prefectureCode": "23",
    "prefectureNumber": 23,
    "prefecture": "愛知県",
    "city": "西尾市",
    "town": "巨海町"
  },
  "4440323": {
    "zipcode": "4440323",
    "prefectureCode": "23",
    "prefectureNumber": 23,
    "prefecture": "愛知県",
    "city": "西尾市",
    "town": "中根町"
  },
  "4440324": {
    "zipcode": "4440324",
    "prefectureCode": "23",
    "prefectureNumber": 23,
    "prefecture": "愛知県",
    "city": "西尾市",
    "town": "寺津町"
  },
  "4440325": {
    "zipcode": "4440325",
    "prefectureCode": "23",
    "prefectureNumber": 23,
    "prefecture": "愛知県",
    "city": "西尾市",
    "town": "楠村町"
  },
  "4440326": {
    "zipcode": "4440326",
    "prefectureCode": "23",
    "prefectureNumber": 23,
    "prefecture": "愛知県",
    "city": "西尾市",
    "town": "富山町"
  },
  "4440327": {
    "zipcode": "4440327",
    "prefectureCode": "23",
    "prefectureNumber": 23,
    "prefecture": "愛知県",
    "city": "西尾市",
    "town": "寺津"
  },
  "4440328": {
    "zipcode": "4440328",
    "prefectureCode": "23",
    "prefectureNumber": 23,
    "prefecture": "愛知県",
    "city": "西尾市",
    "town": "平坂吉山"
  },
  "4440329": {
    "zipcode": "4440329",
    "prefectureCode": "23",
    "prefectureNumber": 23,
    "prefecture": "愛知県",
    "city": "西尾市",
    "town": "富山"
  },
  "4440331": {
    "zipcode": "4440331",
    "prefectureCode": "23",
    "prefectureNumber": 23,
    "prefecture": "愛知県",
    "city": "西尾市",
    "town": "西小梛町"
  },
  "4440332": {
    "zipcode": "4440332",
    "prefectureCode": "23",
    "prefectureNumber": 23,
    "prefecture": "愛知県",
    "city": "西尾市",
    "town": "小栗町"
  },
  "4440333": {
    "zipcode": "4440333",
    "prefectureCode": "23",
    "prefectureNumber": 23,
    "prefecture": "愛知県",
    "city": "西尾市",
    "town": "奥田町"
  },
  "4440334": {
    "zipcode": "4440334",
    "prefectureCode": "23",
    "prefectureNumber": 23,
    "prefecture": "愛知県",
    "city": "西尾市",
    "town": "南奥田町"
  },
  "4440335": {
    "zipcode": "4440335",
    "prefectureCode": "23",
    "prefectureNumber": 23,
    "prefecture": "愛知県",
    "city": "西尾市",
    "town": "港町"
  },
  "4440336": {
    "zipcode": "4440336",
    "prefectureCode": "23",
    "prefectureNumber": 23,
    "prefecture": "愛知県",
    "city": "西尾市",
    "town": "西奥田町"
  },
  "4440401": {
    "zipcode": "4440401",
    "prefectureCode": "23",
    "prefectureNumber": 23,
    "prefecture": "愛知県",
    "city": "西尾市",
    "town": "一色町池田"
  },
  "4440402": {
    "zipcode": "4440402",
    "prefectureCode": "23",
    "prefectureNumber": 23,
    "prefecture": "愛知県",
    "city": "西尾市",
    "town": "一色町大塚"
  },
  "4440403": {
    "zipcode": "4440403",
    "prefectureCode": "23",
    "prefectureNumber": 23,
    "prefecture": "愛知県",
    "city": "西尾市",
    "town": "一色町松木島"
  },
  "4440404": {
    "zipcode": "4440404",
    "prefectureCode": "23",
    "prefectureNumber": 23,
    "prefecture": "愛知県",
    "city": "西尾市",
    "town": "一色町野田"
  },
  "4440405": {
    "zipcode": "4440405",
    "prefectureCode": "23",
    "prefectureNumber": 23,
    "prefecture": "愛知県",
    "city": "西尾市",
    "town": "一色町惣五郎"
  },
  "4440406": {
    "zipcode": "4440406",
    "prefectureCode": "23",
    "prefectureNumber": 23,
    "prefecture": "愛知県",
    "city": "西尾市",
    "town": "一色町対米"
  },
  "4440407": {
    "zipcode": "4440407",
    "prefectureCode": "23",
    "prefectureNumber": 23,
    "prefecture": "愛知県",
    "city": "西尾市",
    "town": "一色町前野"
  },
  "4440411": {
    "zipcode": "4440411",
    "prefectureCode": "23",
    "prefectureNumber": 23,
    "prefecture": "愛知県",
    "city": "西尾市",
    "town": "一色町千間"
  },
  "4440412": {
    "zipcode": "4440412",
    "prefectureCode": "23",
    "prefectureNumber": 23,
    "prefecture": "愛知県",
    "city": "西尾市",
    "town": "一色町生田"
  },
  "4440413": {
    "zipcode": "4440413",
    "prefectureCode": "23",
    "prefectureNumber": 23,
    "prefecture": "愛知県",
    "city": "西尾市",
    "town": "一色町坂田新田"
  },
  "4440414": {
    "zipcode": "4440414",
    "prefectureCode": "23",
    "prefectureNumber": 23,
    "prefecture": "愛知県",
    "city": "西尾市",
    "town": "一色町藤江"
  },
  "4440415": {
    "zipcode": "4440415",
    "prefectureCode": "23",
    "prefectureNumber": 23,
    "prefecture": "愛知県",
    "city": "西尾市",
    "town": "一色町酒手島"
  },
  "4440416": {
    "zipcode": "4440416",
    "prefectureCode": "23",
    "prefectureNumber": 23,
    "prefecture": "愛知県",
    "city": "西尾市",
    "town": "一色町佐久島"
  },
  "4440421": {
    "zipcode": "4440421",
    "prefectureCode": "23",
    "prefectureNumber": 23,
    "prefecture": "愛知県",
    "city": "西尾市",
    "town": "一色町開正"
  },
  "4440422": {
    "zipcode": "4440422",
    "prefectureCode": "23",
    "prefectureNumber": 23,
    "prefecture": "愛知県",
    "city": "西尾市",
    "town": "一色町味浜"
  },
  "4440423": {
    "zipcode": "4440423",
    "prefectureCode": "23",
    "prefectureNumber": 23,
    "prefecture": "愛知県",
    "city": "西尾市",
    "town": "一色町一色"
  },
  "4440424": {
    "zipcode": "4440424",
    "prefectureCode": "23",
    "prefectureNumber": 23,
    "prefecture": "愛知県",
    "city": "西尾市",
    "town": "一色町小薮"
  },
  "4440425": {
    "zipcode": "4440425",
    "prefectureCode": "23",
    "prefectureNumber": 23,
    "prefecture": "愛知県",
    "city": "西尾市",
    "town": "一色町細川"
  },
  "4440426": {
    "zipcode": "4440426",
    "prefectureCode": "23",
    "prefectureNumber": 23,
    "prefecture": "愛知県",
    "city": "西尾市",
    "town": "一色町治明"
  },
  "4440427": {
    "zipcode": "4440427",
    "prefectureCode": "23",
    "prefectureNumber": 23,
    "prefecture": "愛知県",
    "city": "西尾市",
    "town": "一色町赤羽"
  },
  "4440428": {
    "zipcode": "4440428",
    "prefectureCode": "23",
    "prefectureNumber": 23,
    "prefecture": "愛知県",
    "city": "西尾市",
    "town": "一色町中外沢"
  },
  "4440429": {
    "zipcode": "4440429",
    "prefectureCode": "23",
    "prefectureNumber": 23,
    "prefecture": "愛知県",
    "city": "西尾市",
    "town": "一色町養ケ島"
  },
  "4440501": {
    "zipcode": "4440501",
    "prefectureCode": "23",
    "prefectureNumber": 23,
    "prefecture": "愛知県",
    "city": "西尾市",
    "town": "吉良町駮馬"
  },
  "4440502": {
    "zipcode": "4440502",
    "prefectureCode": "23",
    "prefectureNumber": 23,
    "prefecture": "愛知県",
    "city": "西尾市",
    "town": "吉良町宮迫"
  },
  "4440503": {
    "zipcode": "4440503",
    "prefectureCode": "23",
    "prefectureNumber": 23,
    "prefecture": "愛知県",
    "city": "西尾市",
    "town": "吉良町津平"
  },
  "4440504": {
    "zipcode": "4440504",
    "prefectureCode": "23",
    "prefectureNumber": 23,
    "prefecture": "愛知県",
    "city": "西尾市",
    "town": "吉良町友国"
  },
  "4440511": {
    "zipcode": "4440511",
    "prefectureCode": "23",
    "prefectureNumber": 23,
    "prefecture": "愛知県",
    "city": "西尾市",
    "town": "吉良町小山田"
  },
  "4440512": {
    "zipcode": "4440512",
    "prefectureCode": "23",
    "prefectureNumber": 23,
    "prefecture": "愛知県",
    "city": "西尾市",
    "town": "吉良町乙川"
  },
  "4440513": {
    "zipcode": "4440513",
    "prefectureCode": "23",
    "prefectureNumber": 23,
    "prefecture": "愛知県",
    "city": "西尾市",
    "town": "吉良町宮崎"
  },
  "4440514": {
    "zipcode": "4440514",
    "prefectureCode": "23",
    "prefectureNumber": 23,
    "prefecture": "愛知県",
    "city": "西尾市",
    "town": "吉良町白浜新田"
  },
  "4440515": {
    "zipcode": "4440515",
    "prefectureCode": "23",
    "prefectureNumber": 23,
    "prefecture": "愛知県",
    "city": "西尾市",
    "town": "吉良町富好新田"
  },
  "4440516": {
    "zipcode": "4440516",
    "prefectureCode": "23",
    "prefectureNumber": 23,
    "prefecture": "愛知県",
    "city": "西尾市",
    "town": "吉良町吉田"
  },
  "4440517": {
    "zipcode": "4440517",
    "prefectureCode": "23",
    "prefectureNumber": 23,
    "prefecture": "愛知県",
    "city": "西尾市",
    "town": "吉良町大島"
  },
  "4440521": {
    "zipcode": "4440521",
    "prefectureCode": "23",
    "prefectureNumber": 23,
    "prefecture": "愛知県",
    "city": "西尾市",
    "town": "吉良町上横須賀"
  },
  "4440522": {
    "zipcode": "4440522",
    "prefectureCode": "23",
    "prefectureNumber": 23,
    "prefecture": "愛知県",
    "city": "西尾市",
    "town": "吉良町下横須賀"
  },
  "4440523": {
    "zipcode": "4440523",
    "prefectureCode": "23",
    "prefectureNumber": 23,
    "prefecture": "愛知県",
    "city": "西尾市",
    "town": "吉良町饗庭"
  },
  "4440524": {
    "zipcode": "4440524",
    "prefectureCode": "23",
    "prefectureNumber": 23,
    "prefecture": "愛知県",
    "city": "西尾市",
    "town": "吉良町荻原"
  },
  "4440525": {
    "zipcode": "4440525",
    "prefectureCode": "23",
    "prefectureNumber": 23,
    "prefecture": "愛知県",
    "city": "西尾市",
    "town": "吉良町富田"
  },
  "4440526": {
    "zipcode": "4440526",
    "prefectureCode": "23",
    "prefectureNumber": 23,
    "prefecture": "愛知県",
    "city": "西尾市",
    "town": "吉良町八幡川田"
  },
  "4440531": {
    "zipcode": "4440531",
    "prefectureCode": "23",
    "prefectureNumber": 23,
    "prefecture": "愛知県",
    "city": "西尾市",
    "town": "吉良町岡山"
  },
  "4440532": {
    "zipcode": "4440532",
    "prefectureCode": "23",
    "prefectureNumber": 23,
    "prefecture": "愛知県",
    "city": "西尾市",
    "town": "吉良町瀬戸"
  },
  "4440533": {
    "zipcode": "4440533",
    "prefectureCode": "23",
    "prefectureNumber": 23,
    "prefecture": "愛知県",
    "city": "西尾市",
    "town": "吉良町寺嶋"
  },
  "4440534": {
    "zipcode": "4440534",
    "prefectureCode": "23",
    "prefectureNumber": 23,
    "prefecture": "愛知県",
    "city": "西尾市",
    "town": "吉良町木田"
  },
  "4440535": {
    "zipcode": "4440535",
    "prefectureCode": "23",
    "prefectureNumber": 23,
    "prefecture": "愛知県",
    "city": "西尾市",
    "town": "吉良町小牧"
  },
  "4440536": {
    "zipcode": "4440536",
    "prefectureCode": "23",
    "prefectureNumber": 23,
    "prefecture": "愛知県",
    "city": "西尾市",
    "town": "吉良町中野"
  },
  "4440537": {
    "zipcode": "4440537",
    "prefectureCode": "23",
    "prefectureNumber": 23,
    "prefecture": "愛知県",
    "city": "西尾市",
    "town": "吉良町酒井"
  },
  "4440701": {
    "zipcode": "4440701",
    "prefectureCode": "23",
    "prefectureNumber": 23,
    "prefecture": "愛知県",
    "city": "西尾市",
    "town": "東幡豆町"
  },
  "4440702": {
    "zipcode": "4440702",
    "prefectureCode": "23",
    "prefectureNumber": 23,
    "prefecture": "愛知県",
    "city": "西尾市",
    "town": "寺部町"
  },
  "4440703": {
    "zipcode": "4440703",
    "prefectureCode": "23",
    "prefectureNumber": 23,
    "prefecture": "愛知県",
    "city": "西尾市",
    "town": "西幡豆町"
  },
  "4440704": {
    "zipcode": "4440704",
    "prefectureCode": "23",
    "prefectureNumber": 23,
    "prefecture": "愛知県",
    "city": "西尾市",
    "town": "鳥羽町"
  },
  "4440801": {
    "zipcode": "4440801",
    "prefectureCode": "23",
    "prefectureNumber": 23,
    "prefecture": "愛知県",
    "city": "岡崎市",
    "town": "美合新町"
  },
  "4440802": {
    "zipcode": "4440802",
    "prefectureCode": "23",
    "prefectureNumber": 23,
    "prefecture": "愛知県",
    "city": "岡崎市",
    "town": "美合町"
  },
  "4440803": {
    "zipcode": "4440803",
    "prefectureCode": "23",
    "prefectureNumber": 23,
    "prefecture": "愛知県",
    "city": "岡崎市",
    "town": "美合町入込"
  },
  "4440804": {
    "zipcode": "4440804",
    "prefectureCode": "23",
    "prefectureNumber": 23,
    "prefecture": "愛知県",
    "city": "岡崎市",
    "town": "美合町生田"
  },
  "4440805": {
    "zipcode": "4440805",
    "prefectureCode": "23",
    "prefectureNumber": 23,
    "prefecture": "愛知県",
    "city": "岡崎市",
    "town": "美合町地蔵野"
  },
  "4440806": {
    "zipcode": "4440806",
    "prefectureCode": "23",
    "prefectureNumber": 23,
    "prefecture": "愛知県",
    "city": "岡崎市",
    "town": "緑丘"
  },
  "4440807": {
    "zipcode": "4440807",
    "prefectureCode": "23",
    "prefectureNumber": 23,
    "prefecture": "愛知県",
    "city": "岡崎市",
    "town": "美合西町"
  },
  "4440811": {
    "zipcode": "4440811",
    "prefectureCode": "23",
    "prefectureNumber": 23,
    "prefecture": "愛知県",
    "city": "岡崎市",
    "town": "大西町"
  },
  "4440812": {
    "zipcode": "4440812",
    "prefectureCode": "23",
    "prefectureNumber": 23,
    "prefecture": "愛知県",
    "city": "岡崎市",
    "town": "大西町南ケ原"
  },
  "4440813": {
    "zipcode": "4440813",
    "prefectureCode": "23",
    "prefectureNumber": 23,
    "prefecture": "愛知県",
    "city": "岡崎市",
    "town": "羽根町"
  },
  "4440814": {
    "zipcode": "4440814",
    "prefectureCode": "23",
    "prefectureNumber": 23,
    "prefecture": "愛知県",
    "city": "岡崎市",
    "town": "羽根町小豆坂"
  },
  "4440815": {
    "zipcode": "4440815",
    "prefectureCode": "23",
    "prefectureNumber": 23,
    "prefecture": "愛知県",
    "city": "岡崎市",
    "town": "羽根町陣場"
  },
  "4440816": {
    "zipcode": "4440816",
    "prefectureCode": "23",
    "prefectureNumber": 23,
    "prefecture": "愛知県",
    "city": "岡崎市",
    "town": "羽根町大池"
  },
  "4440817": {
    "zipcode": "4440817",
    "prefectureCode": "23",
    "prefectureNumber": 23,
    "prefecture": "愛知県",
    "city": "岡崎市",
    "town": "不吹町"
  },
  "4440820": {
    "zipcode": "4440820",
    "prefectureCode": "23",
    "prefectureNumber": 23,
    "prefecture": "愛知県",
    "city": "岡崎市",
    "town": "若松西"
  },
  "4440821": {
    "zipcode": "4440821",
    "prefectureCode": "23",
    "prefectureNumber": 23,
    "prefecture": "愛知県",
    "city": "岡崎市",
    "town": "庄司田"
  },
  "4440822": {
    "zipcode": "4440822",
    "prefectureCode": "23",
    "prefectureNumber": 23,
    "prefecture": "愛知県",
    "city": "岡崎市",
    "town": "若松東"
  },
  "4440823": {
    "zipcode": "4440823",
    "prefectureCode": "23",
    "prefectureNumber": 23,
    "prefecture": "愛知県",
    "city": "岡崎市",
    "town": "上地"
  },
  "4440824": {
    "zipcode": "4440824",
    "prefectureCode": "23",
    "prefectureNumber": 23,
    "prefecture": "愛知県",
    "city": "岡崎市",
    "town": "上地町"
  },
  "4440825": {
    "zipcode": "4440825",
    "prefectureCode": "23",
    "prefectureNumber": 23,
    "prefecture": "愛知県",
    "city": "岡崎市",
    "town": "福岡町"
  },
  "4440826": {
    "zipcode": "4440826",
    "prefectureCode": "23",
    "prefectureNumber": 23,
    "prefecture": "愛知県",
    "city": "岡崎市",
    "town": "若松町"
  },
  "4440827": {
    "zipcode": "4440827",
    "prefectureCode": "23",
    "prefectureNumber": 23,
    "prefecture": "愛知県",
    "city": "岡崎市",
    "town": "針崎町"
  },
  "4440828": {
    "zipcode": "4440828",
    "prefectureCode": "23",
    "prefectureNumber": 23,
    "prefecture": "愛知県",
    "city": "岡崎市",
    "town": "針崎"
  },
  "4440829": {
    "zipcode": "4440829",
    "prefectureCode": "23",
    "prefectureNumber": 23,
    "prefecture": "愛知県",
    "city": "岡崎市",
    "town": "針崎西"
  },
  "4440830": {
    "zipcode": "4440830",
    "prefectureCode": "23",
    "prefectureNumber": 23,
    "prefecture": "愛知県",
    "city": "岡崎市",
    "town": "柱西"
  },
  "4440831": {
    "zipcode": "4440831",
    "prefectureCode": "23",
    "prefectureNumber": 23,
    "prefecture": "愛知県",
    "city": "岡崎市",
    "town": "羽根北町"
  },
  "4440832": {
    "zipcode": "4440832",
    "prefectureCode": "23",
    "prefectureNumber": 23,
    "prefecture": "愛知県",
    "city": "岡崎市",
    "town": "羽根東町"
  },
  "4440833": {
    "zipcode": "4440833",
    "prefectureCode": "23",
    "prefectureNumber": 23,
    "prefecture": "愛知県",
    "city": "岡崎市",
    "town": "柱曙"
  },
  "4440834": {
    "zipcode": "4440834",
    "prefectureCode": "23",
    "prefectureNumber": 23,
    "prefecture": "愛知県",
    "city": "岡崎市",
    "town": "柱町"
  },
  "4440835": {
    "zipcode": "4440835",
    "prefectureCode": "23",
    "prefectureNumber": 23,
    "prefecture": "愛知県",
    "city": "岡崎市",
    "town": "城南町"
  },
  "4440836": {
    "zipcode": "4440836",
    "prefectureCode": "23",
    "prefectureNumber": 23,
    "prefecture": "愛知県",
    "city": "岡崎市",
    "town": "中田町"
  },
  "4440837": {
    "zipcode": "4440837",
    "prefectureCode": "23",
    "prefectureNumber": 23,
    "prefecture": "愛知県",
    "city": "岡崎市",
    "town": "柱"
  },
  "4440838": {
    "zipcode": "4440838",
    "prefectureCode": "23",
    "prefectureNumber": 23,
    "prefecture": "愛知県",
    "city": "岡崎市",
    "town": "羽根西"
  },
  "4440839": {
    "zipcode": "4440839",
    "prefectureCode": "23",
    "prefectureNumber": 23,
    "prefecture": "愛知県",
    "city": "岡崎市",
    "town": "羽根西新町"
  },
  "4440840": {
    "zipcode": "4440840",
    "prefectureCode": "23",
    "prefectureNumber": 23,
    "prefecture": "愛知県",
    "city": "岡崎市",
    "town": "戸崎町"
  },
  "4440841": {
    "zipcode": "4440841",
    "prefectureCode": "23",
    "prefectureNumber": 23,
    "prefecture": "愛知県",
    "city": "岡崎市",
    "town": "戸崎町藤狭"
  },
  "4440842": {
    "zipcode": "4440842",
    "prefectureCode": "23",
    "prefectureNumber": 23,
    "prefecture": "愛知県",
    "city": "岡崎市",
    "town": "戸崎元町"
  },
  "4440843": {
    "zipcode": "4440843",
    "prefectureCode": "23",
    "prefectureNumber": 23,
    "prefecture": "愛知県",
    "city": "岡崎市",
    "town": "江口"
  },
  "4440844": {
    "zipcode": "4440844",
    "prefectureCode": "23",
    "prefectureNumber": 23,
    "prefecture": "愛知県",
    "city": "岡崎市",
    "town": "天白町"
  },
  "4440845": {
    "zipcode": "4440845",
    "prefectureCode": "23",
    "prefectureNumber": 23,
    "prefecture": "愛知県",
    "city": "岡崎市",
    "town": "六名南"
  },
  "4440846": {
    "zipcode": "4440846",
    "prefectureCode": "23",
    "prefectureNumber": 23,
    "prefecture": "愛知県",
    "city": "岡崎市",
    "town": "六名新町"
  },
  "4440847": {
    "zipcode": "4440847",
    "prefectureCode": "23",
    "prefectureNumber": 23,
    "prefecture": "愛知県",
    "city": "岡崎市",
    "town": "六名東町"
  },
  "4440848": {
    "zipcode": "4440848",
    "prefectureCode": "23",
    "prefectureNumber": 23,
    "prefecture": "愛知県",
    "city": "岡崎市",
    "town": "向山町"
  },
  "4440849": {
    "zipcode": "4440849",
    "prefectureCode": "23",
    "prefectureNumber": 23,
    "prefecture": "愛知県",
    "city": "岡崎市",
    "town": "戸崎新町"
  },
  "4440851": {
    "zipcode": "4440851",
    "prefectureCode": "23",
    "prefectureNumber": 23,
    "prefecture": "愛知県",
    "city": "岡崎市",
    "town": "久後崎町"
  },
  "4440852": {
    "zipcode": "4440852",
    "prefectureCode": "23",
    "prefectureNumber": 23,
    "prefecture": "愛知県",
    "city": "岡崎市",
    "town": "南明大寺町"
  },
  "4440853": {
    "zipcode": "4440853",
    "prefectureCode": "23",
    "prefectureNumber": 23,
    "prefecture": "愛知県",
    "city": "岡崎市",
    "town": "三崎町"
  },
  "4440854": {
    "zipcode": "4440854",
    "prefectureCode": "23",
    "prefectureNumber": 23,
    "prefecture": "愛知県",
    "city": "岡崎市",
    "town": "六名本町"
  },
  "4440855": {
    "zipcode": "4440855",
    "prefectureCode": "23",
    "prefectureNumber": 23,
    "prefecture": "愛知県",
    "city": "岡崎市",
    "town": "真宮町"
  },
  "4440856": {
    "zipcode": "4440856",
    "prefectureCode": "23",
    "prefectureNumber": 23,
    "prefecture": "愛知県",
    "city": "岡崎市",
    "town": "六名"
  },
  "4440857": {
    "zipcode": "4440857",
    "prefectureCode": "23",
    "prefectureNumber": 23,
    "prefecture": "愛知県",
    "city": "岡崎市",
    "town": "六名町"
  },
  "4440858": {
    "zipcode": "4440858",
    "prefectureCode": "23",
    "prefectureNumber": 23,
    "prefecture": "愛知県",
    "city": "岡崎市",
    "town": "上六名"
  },
  "4440859": {
    "zipcode": "4440859",
    "prefectureCode": "23",
    "prefectureNumber": 23,
    "prefecture": "愛知県",
    "city": "岡崎市",
    "town": "上六名町"
  },
  "4440860": {
    "zipcode": "4440860",
    "prefectureCode": "23",
    "prefectureNumber": 23,
    "prefecture": "愛知県",
    "city": "岡崎市",
    "town": "明大寺本町"
  },
  "4440861": {
    "zipcode": "4440861",
    "prefectureCode": "23",
    "prefectureNumber": 23,
    "prefecture": "愛知県",
    "city": "岡崎市",
    "town": "上明大寺町"
  },
  "4440862": {
    "zipcode": "4440862",
    "prefectureCode": "23",
    "prefectureNumber": 23,
    "prefecture": "愛知県",
    "city": "岡崎市",
    "town": "吹矢町"
  },
  "4440863": {
    "zipcode": "4440863",
    "prefectureCode": "23",
    "prefectureNumber": 23,
    "prefecture": "愛知県",
    "city": "岡崎市",
    "town": "東明大寺町"
  },
  "4440864": {
    "zipcode": "4440864",
    "prefectureCode": "23",
    "prefectureNumber": 23,
    "prefecture": "愛知県",
    "city": "岡崎市",
    "town": "明大寺町（その他）"
  },
  "4440865": {
    "zipcode": "4440865",
    "prefectureCode": "23",
    "prefectureNumber": 23,
    "prefecture": "愛知県",
    "city": "岡崎市",
    "town": "明大寺町大圦"
  },
  "4440866": {
    "zipcode": "4440866",
    "prefectureCode": "23",
    "prefectureNumber": 23,
    "prefecture": "愛知県",
    "city": "岡崎市",
    "town": "明大寺町（仲ケ入）"
  },
  "4440867": {
    "zipcode": "4440867",
    "prefectureCode": "23",
    "prefectureNumber": 23,
    "prefecture": "愛知県",
    "city": "岡崎市",
    "town": "明大寺町（西郷中）"
  },
  "4440868": {
    "zipcode": "4440868",
    "prefectureCode": "23",
    "prefectureNumber": 23,
    "prefecture": "愛知県",
    "city": "岡崎市",
    "town": "明大寺町（馬場東）"
  },
  "4440869": {
    "zipcode": "4440869",
    "prefectureCode": "23",
    "prefectureNumber": 23,
    "prefecture": "愛知県",
    "city": "岡崎市",
    "town": "明大寺町（出口）"
  },
  "4440870": {
    "zipcode": "4440870",
    "prefectureCode": "23",
    "prefectureNumber": 23,
    "prefecture": "愛知県",
    "city": "岡崎市",
    "town": "竜美大入町"
  },
  "4440871": {
    "zipcode": "4440871",
    "prefectureCode": "23",
    "prefectureNumber": 23,
    "prefecture": "愛知県",
    "city": "岡崎市",
    "town": "大西"
  },
  "4440872": {
    "zipcode": "4440872",
    "prefectureCode": "23",
    "prefectureNumber": 23,
    "prefecture": "愛知県",
    "city": "岡崎市",
    "town": "竜美新町"
  },
  "4440873": {
    "zipcode": "4440873",
    "prefectureCode": "23",
    "prefectureNumber": 23,
    "prefecture": "愛知県",
    "city": "岡崎市",
    "town": "竜美台"
  },
  "4440874": {
    "zipcode": "4440874",
    "prefectureCode": "23",
    "prefectureNumber": 23,
    "prefecture": "愛知県",
    "city": "岡崎市",
    "town": "竜美南"
  },
  "4440875": {
    "zipcode": "4440875",
    "prefectureCode": "23",
    "prefectureNumber": 23,
    "prefecture": "愛知県",
    "city": "岡崎市",
    "town": "竜美西"
  },
  "4440876": {
    "zipcode": "4440876",
    "prefectureCode": "23",
    "prefectureNumber": 23,
    "prefecture": "愛知県",
    "city": "岡崎市",
    "town": "竜美北"
  },
  "4440877": {
    "zipcode": "4440877",
    "prefectureCode": "23",
    "prefectureNumber": 23,
    "prefecture": "愛知県",
    "city": "岡崎市",
    "town": "竜美旭町"
  },
  "4440878": {
    "zipcode": "4440878",
    "prefectureCode": "23",
    "prefectureNumber": 23,
    "prefecture": "愛知県",
    "city": "岡崎市",
    "town": "竜美東"
  },
  "4440879": {
    "zipcode": "4440879",
    "prefectureCode": "23",
    "prefectureNumber": 23,
    "prefecture": "愛知県",
    "city": "岡崎市",
    "town": "竜美中"
  },
  "4440901": {
    "zipcode": "4440901",
    "prefectureCode": "23",
    "prefectureNumber": 23,
    "prefecture": "愛知県",
    "city": "岡崎市",
    "town": "森越町"
  },
  "4440902": {
    "zipcode": "4440902",
    "prefectureCode": "23",
    "prefectureNumber": 23,
    "prefecture": "愛知県",
    "city": "岡崎市",
    "town": "舳越町"
  },
  "4440903": {
    "zipcode": "4440903",
    "prefectureCode": "23",
    "prefectureNumber": 23,
    "prefecture": "愛知県",
    "city": "岡崎市",
    "town": "東大友町"
  },
  "4440904": {
    "zipcode": "4440904",
    "prefectureCode": "23",
    "prefectureNumber": 23,
    "prefecture": "愛知県",
    "city": "岡崎市",
    "town": "西大友町"
  },
  "4440905": {
    "zipcode": "4440905",
    "prefectureCode": "23",
    "prefectureNumber": 23,
    "prefecture": "愛知県",
    "city": "岡崎市",
    "town": "宇頭町"
  },
  "4440906": {
    "zipcode": "4440906",
    "prefectureCode": "23",
    "prefectureNumber": 23,
    "prefecture": "愛知県",
    "city": "岡崎市",
    "town": "宇頭北町"
  },
  "4440907": {
    "zipcode": "4440907",
    "prefectureCode": "23",
    "prefectureNumber": 23,
    "prefecture": "愛知県",
    "city": "岡崎市",
    "town": "小針町"
  },
  "4440908": {
    "zipcode": "4440908",
    "prefectureCode": "23",
    "prefectureNumber": 23,
    "prefecture": "愛知県",
    "city": "岡崎市",
    "town": "橋目町"
  },
  "4440909": {
    "zipcode": "4440909",
    "prefectureCode": "23",
    "prefectureNumber": 23,
    "prefecture": "愛知県",
    "city": "岡崎市",
    "town": "橋目町御小屋西"
  },
  "4440911": {
    "zipcode": "4440911",
    "prefectureCode": "23",
    "prefectureNumber": 23,
    "prefecture": "愛知県",
    "city": "岡崎市",
    "town": "日名北町"
  },
  "4440912": {
    "zipcode": "4440912",
    "prefectureCode": "23",
    "prefectureNumber": 23,
    "prefecture": "愛知県",
    "city": "岡崎市",
    "town": "井田西町"
  },
  "4440913": {
    "zipcode": "4440913",
    "prefectureCode": "23",
    "prefectureNumber": 23,
    "prefecture": "愛知県",
    "city": "岡崎市",
    "town": "葵町"
  },
  "4440914": {
    "zipcode": "4440914",
    "prefectureCode": "23",
    "prefectureNumber": 23,
    "prefecture": "愛知県",
    "city": "岡崎市",
    "town": "末広町"
  },
  "4440915": {
    "zipcode": "4440915",
    "prefectureCode": "23",
    "prefectureNumber": 23,
    "prefecture": "愛知県",
    "city": "岡崎市",
    "town": "日名南町"
  },
  "4440916": {
    "zipcode": "4440916",
    "prefectureCode": "23",
    "prefectureNumber": 23,
    "prefecture": "愛知県",
    "city": "岡崎市",
    "town": "日名本町"
  },
  "4440917": {
    "zipcode": "4440917",
    "prefectureCode": "23",
    "prefectureNumber": 23,
    "prefecture": "愛知県",
    "city": "岡崎市",
    "town": "日名西町"
  },
  "4440918": {
    "zipcode": "4440918",
    "prefectureCode": "23",
    "prefectureNumber": 23,
    "prefecture": "愛知県",
    "city": "岡崎市",
    "town": "日名中町"
  },
  "4440921": {
    "zipcode": "4440921",
    "prefectureCode": "23",
    "prefectureNumber": 23,
    "prefecture": "愛知県",
    "city": "岡崎市",
    "town": "中岡崎町"
  },
  "4440922": {
    "zipcode": "4440922",
    "prefectureCode": "23",
    "prefectureNumber": 23,
    "prefecture": "愛知県",
    "city": "岡崎市",
    "town": "八帖南町"
  },
  "4440923": {
    "zipcode": "4440923",
    "prefectureCode": "23",
    "prefectureNumber": 23,
    "prefecture": "愛知県",
    "city": "岡崎市",
    "town": "八帖町"
  },
  "4440924": {
    "zipcode": "4440924",
    "prefectureCode": "23",
    "prefectureNumber": 23,
    "prefecture": "愛知県",
    "city": "岡崎市",
    "town": "八帖北町"
  },
  "4440925": {
    "zipcode": "4440925",
    "prefectureCode": "23",
    "prefectureNumber": 23,
    "prefecture": "愛知県",
    "city": "岡崎市",
    "town": "八丁町"
  },
  "4440931": {
    "zipcode": "4440931",
    "prefectureCode": "23",
    "prefectureNumber": 23,
    "prefecture": "愛知県",
    "city": "岡崎市",
    "town": "大和町"
  },
  "4440932": {
    "zipcode": "4440932",
    "prefectureCode": "23",
    "prefectureNumber": 23,
    "prefecture": "愛知県",
    "city": "岡崎市",
    "town": "筒針町"
  },
  "4440933": {
    "zipcode": "4440933",
    "prefectureCode": "23",
    "prefectureNumber": 23,
    "prefecture": "愛知県",
    "city": "岡崎市",
    "town": "渡町"
  },
  "4440934": {
    "zipcode": "4440934",
    "prefectureCode": "23",
    "prefectureNumber": 23,
    "prefecture": "愛知県",
    "city": "岡崎市",
    "town": "東牧内町"
  },
  "4440935": {
    "zipcode": "4440935",
    "prefectureCode": "23",
    "prefectureNumber": 23,
    "prefecture": "愛知県",
    "city": "岡崎市",
    "town": "下佐々木町"
  },
  "4440936": {
    "zipcode": "4440936",
    "prefectureCode": "23",
    "prefectureNumber": 23,
    "prefecture": "愛知県",
    "city": "岡崎市",
    "town": "上佐々木町"
  },
  "4440937": {
    "zipcode": "4440937",
    "prefectureCode": "23",
    "prefectureNumber": 23,
    "prefecture": "愛知県",
    "city": "岡崎市",
    "town": "島坂町"
  },
  "4440938": {
    "zipcode": "4440938",
    "prefectureCode": "23",
    "prefectureNumber": 23,
    "prefecture": "愛知県",
    "city": "岡崎市",
    "town": "昭和町"
  },
  "4440939": {
    "zipcode": "4440939",
    "prefectureCode": "23",
    "prefectureNumber": 23,
    "prefecture": "愛知県",
    "city": "岡崎市",
    "town": "新堀町"
  },
  "4440941": {
    "zipcode": "4440941",
    "prefectureCode": "23",
    "prefectureNumber": 23,
    "prefecture": "愛知県",
    "city": "岡崎市",
    "town": "暮戸町"
  },
  "4440942": {
    "zipcode": "4440942",
    "prefectureCode": "23",
    "prefectureNumber": 23,
    "prefecture": "愛知県",
    "city": "岡崎市",
    "town": "中園町"
  },
  "4440943": {
    "zipcode": "4440943",
    "prefectureCode": "23",
    "prefectureNumber": 23,
    "prefecture": "愛知県",
    "city": "岡崎市",
    "town": "矢作町"
  },
  "4440944": {
    "zipcode": "4440944",
    "prefectureCode": "23",
    "prefectureNumber": 23,
    "prefecture": "愛知県",
    "city": "岡崎市",
    "town": "北本郷町"
  },
  "4440945": {
    "zipcode": "4440945",
    "prefectureCode": "23",
    "prefectureNumber": 23,
    "prefecture": "愛知県",
    "city": "岡崎市",
    "town": "東本郷町"
  },
  "4440946": {
    "zipcode": "4440946",
    "prefectureCode": "23",
    "prefectureNumber": 23,
    "prefecture": "愛知県",
    "city": "岡崎市",
    "town": "富永町"
  },
  "4440947": {
    "zipcode": "4440947",
    "prefectureCode": "23",
    "prefectureNumber": 23,
    "prefecture": "愛知県",
    "city": "岡崎市",
    "town": "西本郷町"
  },
  "4440948": {
    "zipcode": "4440948",
    "prefectureCode": "23",
    "prefectureNumber": 23,
    "prefecture": "愛知県",
    "city": "岡崎市",
    "town": "西本郷町和志山"
  },
  "4440949": {
    "zipcode": "4440949",
    "prefectureCode": "23",
    "prefectureNumber": 23,
    "prefecture": "愛知県",
    "city": "岡崎市",
    "town": "宇頭南町"
  },
  "4440950": {
    "zipcode": "4440950",
    "prefectureCode": "23",
    "prefectureNumber": 23,
    "prefecture": "愛知県",
    "city": "岡崎市",
    "town": "宇頭東町"
  },
  "4440951": {
    "zipcode": "4440951",
    "prefectureCode": "23",
    "prefectureNumber": 23,
    "prefecture": "愛知県",
    "city": "岡崎市",
    "town": "北野町"
  },
  "4441151": {
    "zipcode": "4441151",
    "prefectureCode": "23",
    "prefectureNumber": 23,
    "prefecture": "愛知県",
    "city": "安城市",
    "town": "村高町"
  },
  "4441152": {
    "zipcode": "4441152",
    "prefectureCode": "23",
    "prefectureNumber": 23,
    "prefecture": "愛知県",
    "city": "安城市",
    "town": "川島町"
  },
  "4441153": {
    "zipcode": "4441153",
    "prefectureCode": "23",
    "prefectureNumber": 23,
    "prefecture": "愛知県",
    "city": "安城市",
    "town": "東町"
  },
  "4441154": {
    "zipcode": "4441154",
    "prefectureCode": "23",
    "prefectureNumber": 23,
    "prefecture": "愛知県",
    "city": "安城市",
    "town": "桜井町"
  },
  "4441155": {
    "zipcode": "4441155",
    "prefectureCode": "23",
    "prefectureNumber": 23,
    "prefecture": "愛知県",
    "city": "安城市",
    "town": "堀内町"
  },
  "4441161": {
    "zipcode": "4441161",
    "prefectureCode": "23",
    "prefectureNumber": 23,
    "prefecture": "愛知県",
    "city": "安城市",
    "town": "姫小川町"
  },
  "4441162": {
    "zipcode": "4441162",
    "prefectureCode": "23",
    "prefectureNumber": 23,
    "prefecture": "愛知県",
    "city": "安城市",
    "town": "小川町"
  },
  "4441163": {
    "zipcode": "4441163",
    "prefectureCode": "23",
    "prefectureNumber": 23,
    "prefecture": "愛知県",
    "city": "安城市",
    "town": "木戸町"
  },
  "4441164": {
    "zipcode": "4441164",
    "prefectureCode": "23",
    "prefectureNumber": 23,
    "prefecture": "愛知県",
    "city": "安城市",
    "town": "藤井町"
  },
  "4441165": {
    "zipcode": "4441165",
    "prefectureCode": "23",
    "prefectureNumber": 23,
    "prefecture": "愛知県",
    "city": "安城市",
    "town": "野寺町"
  },
  "4441166": {
    "zipcode": "4441166",
    "prefectureCode": "23",
    "prefectureNumber": 23,
    "prefecture": "愛知県",
    "city": "安城市",
    "town": "寺領町"
  },
  "4441201": {
    "zipcode": "4441201",
    "prefectureCode": "23",
    "prefectureNumber": 23,
    "prefecture": "愛知県",
    "city": "安城市",
    "town": "石井町"
  },
  "4441202": {
    "zipcode": "4441202",
    "prefectureCode": "23",
    "prefectureNumber": 23,
    "prefecture": "愛知県",
    "city": "安城市",
    "town": "城ケ入町（団戸）"
  },
  "4441203": {
    "zipcode": "4441203",
    "prefectureCode": "23",
    "prefectureNumber": 23,
    "prefecture": "愛知県",
    "city": "安城市",
    "town": "城ケ入町（立出）"
  },
  "4441204": {
    "zipcode": "4441204",
    "prefectureCode": "23",
    "prefectureNumber": 23,
    "prefecture": "愛知県",
    "city": "安城市",
    "town": "城ケ入町（北立出）"
  },
  "4441205": {
    "zipcode": "4441205",
    "prefectureCode": "23",
    "prefectureNumber": 23,
    "prefecture": "愛知県",
    "city": "安城市",
    "town": "城ケ入町（広見）"
  },
  "4441206": {
    "zipcode": "4441206",
    "prefectureCode": "23",
    "prefectureNumber": 23,
    "prefecture": "愛知県",
    "city": "安城市",
    "town": "城ケ入町"
  },
  "4441211": {
    "zipcode": "4441211",
    "prefectureCode": "23",
    "prefectureNumber": 23,
    "prefecture": "愛知県",
    "city": "安城市",
    "town": "根崎町"
  },
  "4441212": {
    "zipcode": "4441212",
    "prefectureCode": "23",
    "prefectureNumber": 23,
    "prefecture": "愛知県",
    "city": "安城市",
    "town": "根崎町（北根）"
  },
  "4441213": {
    "zipcode": "4441213",
    "prefectureCode": "23",
    "prefectureNumber": 23,
    "prefecture": "愛知県",
    "city": "安城市",
    "town": "東端町"
  },
  "4441214": {
    "zipcode": "4441214",
    "prefectureCode": "23",
    "prefectureNumber": 23,
    "prefecture": "愛知県",
    "city": "安城市",
    "town": "榎前町"
  },
  "4441215": {
    "zipcode": "4441215",
    "prefectureCode": "23",
    "prefectureNumber": 23,
    "prefecture": "愛知県",
    "city": "安城市",
    "town": "榎前町（井杭山）"
  },
  "4441221": {
    "zipcode": "4441221",
    "prefectureCode": "23",
    "prefectureNumber": 23,
    "prefecture": "愛知県",
    "city": "安城市",
    "town": "和泉町"
  },
  "4441222": {
    "zipcode": "4441222",
    "prefectureCode": "23",
    "prefectureNumber": 23,
    "prefecture": "愛知県",
    "city": "安城市",
    "town": "和泉町（大海古）"
  },
  "4441223": {
    "zipcode": "4441223",
    "prefectureCode": "23",
    "prefectureNumber": 23,
    "prefecture": "愛知県",
    "city": "安城市",
    "town": "和泉町（北大木）"
  },
  "4441224": {
    "zipcode": "4441224",
    "prefectureCode": "23",
    "prefectureNumber": 23,
    "prefecture": "愛知県",
    "city": "安城市",
    "town": "和泉町（八兵エ）"
  },
  "4441225": {
    "zipcode": "4441225",
    "prefectureCode": "23",
    "prefectureNumber": 23,
    "prefecture": "愛知県",
    "city": "安城市",
    "town": "和泉町（井上）"
  },
  "4441300": {
    "zipcode": "4441300",
    "prefectureCode": "23",
    "prefectureNumber": 23,
    "prefecture": "愛知県",
    "city": "高浜市",
    "town": "以下に掲載がない場合"
  },
  "4441301": {
    "zipcode": "4441301",
    "prefectureCode": "23",
    "prefectureNumber": 23,
    "prefecture": "愛知県",
    "city": "高浜市",
    "town": "新田町"
  },
  "4441302": {
    "zipcode": "4441302",
    "prefectureCode": "23",
    "prefectureNumber": 23,
    "prefecture": "愛知県",
    "city": "高浜市",
    "town": "八幡町"
  },
  "4441303": {
    "zipcode": "4441303",
    "prefectureCode": "23",
    "prefectureNumber": 23,
    "prefecture": "愛知県",
    "city": "高浜市",
    "town": "小池町"
  },
  "4441304": {
    "zipcode": "4441304",
    "prefectureCode": "23",
    "prefectureNumber": 23,
    "prefecture": "愛知県",
    "city": "高浜市",
    "town": "豊田町"
  },
  "4441305": {
    "zipcode": "4441305",
    "prefectureCode": "23",
    "prefectureNumber": 23,
    "prefecture": "愛知県",
    "city": "高浜市",
    "town": "神明町"
  },
  "4441311": {
    "zipcode": "4441311",
    "prefectureCode": "23",
    "prefectureNumber": 23,
    "prefecture": "愛知県",
    "city": "高浜市",
    "town": "本郷町"
  },
  "4441312": {
    "zipcode": "4441312",
    "prefectureCode": "23",
    "prefectureNumber": 23,
    "prefecture": "愛知県",
    "city": "高浜市",
    "town": "清水町"
  },
  "4441313": {
    "zipcode": "4441313",
    "prefectureCode": "23",
    "prefectureNumber": 23,
    "prefecture": "愛知県",
    "city": "高浜市",
    "town": "向山町"
  },
  "4441314": {
    "zipcode": "4441314",
    "prefectureCode": "23",
    "prefectureNumber": 23,
    "prefecture": "愛知県",
    "city": "高浜市",
    "town": "論地町"
  },
  "4441321": {
    "zipcode": "4441321",
    "prefectureCode": "23",
    "prefectureNumber": 23,
    "prefecture": "愛知県",
    "city": "高浜市",
    "town": "稗田町"
  },
  "4441322": {
    "zipcode": "4441322",
    "prefectureCode": "23",
    "prefectureNumber": 23,
    "prefecture": "愛知県",
    "city": "高浜市",
    "town": "二池町"
  },
  "4441323": {
    "zipcode": "4441323",
    "prefectureCode": "23",
    "prefectureNumber": 23,
    "prefecture": "愛知県",
    "city": "高浜市",
    "town": "田戸町"
  },
  "4441324": {
    "zipcode": "4441324",
    "prefectureCode": "23",
    "prefectureNumber": 23,
    "prefecture": "愛知県",
    "city": "高浜市",
    "town": "碧海町"
  },
  "4441325": {
    "zipcode": "4441325",
    "prefectureCode": "23",
    "prefectureNumber": 23,
    "prefecture": "愛知県",
    "city": "高浜市",
    "town": "青木町"
  },
  "4441331": {
    "zipcode": "4441331",
    "prefectureCode": "23",
    "prefectureNumber": 23,
    "prefecture": "愛知県",
    "city": "高浜市",
    "town": "屋敷町"
  },
  "4441332": {
    "zipcode": "4441332",
    "prefectureCode": "23",
    "prefectureNumber": 23,
    "prefecture": "愛知県",
    "city": "高浜市",
    "town": "湯山町"
  },
  "4441333": {
    "zipcode": "4441333",
    "prefectureCode": "23",
    "prefectureNumber": 23,
    "prefecture": "愛知県",
    "city": "高浜市",
    "town": "沢渡町"
  },
  "4441334": {
    "zipcode": "4441334",
    "prefectureCode": "23",
    "prefectureNumber": 23,
    "prefecture": "愛知県",
    "city": "高浜市",
    "town": "春日町"
  },
  "4441335": {
    "zipcode": "4441335",
    "prefectureCode": "23",
    "prefectureNumber": 23,
    "prefecture": "愛知県",
    "city": "高浜市",
    "town": "芳川町"
  },
  "4441336": {
    "zipcode": "4441336",
    "prefectureCode": "23",
    "prefectureNumber": 23,
    "prefecture": "愛知県",
    "city": "高浜市",
    "town": "呉竹町"
  },
  "4442101": {
    "zipcode": "4442101",
    "prefectureCode": "23",
    "prefectureNumber": 23,
    "prefecture": "愛知県",
    "city": "岡崎市",
    "town": "川向町"
  },
  "4442102": {
    "zipcode": "4442102",
    "prefectureCode": "23",
    "prefectureNumber": 23,
    "prefecture": "愛知県",
    "city": "岡崎市",
    "town": "日影町"
  },
  "4442103": {
    "zipcode": "4442103",
    "prefectureCode": "23",
    "prefectureNumber": 23,
    "prefecture": "愛知県",
    "city": "岡崎市",
    "town": "渡通津町"
  },
  "4442104": {
    "zipcode": "4442104",
    "prefectureCode": "23",
    "prefectureNumber": 23,
    "prefecture": "愛知県",
    "city": "岡崎市",
    "town": "駒立町"
  },
  "4442105": {
    "zipcode": "4442105",
    "prefectureCode": "23",
    "prefectureNumber": 23,
    "prefecture": "愛知県",
    "city": "岡崎市",
    "town": "丹坂町"
  },
  "4442106": {
    "zipcode": "4442106",
    "prefectureCode": "23",
    "prefectureNumber": 23,
    "prefecture": "愛知県",
    "city": "岡崎市",
    "town": "真福寺町"
  },
  "4442107": {
    "zipcode": "4442107",
    "prefectureCode": "23",
    "prefectureNumber": 23,
    "prefecture": "愛知県",
    "city": "岡崎市",
    "town": "恵田町"
  },
  "4442108": {
    "zipcode": "4442108",
    "prefectureCode": "23",
    "prefectureNumber": 23,
    "prefecture": "愛知県",
    "city": "岡崎市",
    "town": "奥殿町"
  },
  "4442109": {
    "zipcode": "4442109",
    "prefectureCode": "23",
    "prefectureNumber": 23,
    "prefecture": "愛知県",
    "city": "岡崎市",
    "town": "宮石町"
  },
  "4442111": {
    "zipcode": "4442111",
    "prefectureCode": "23",
    "prefectureNumber": 23,
    "prefecture": "愛知県",
    "city": "岡崎市",
    "town": "西阿知和町"
  },
  "4442112": {
    "zipcode": "4442112",
    "prefectureCode": "23",
    "prefectureNumber": 23,
    "prefecture": "愛知県",
    "city": "岡崎市",
    "town": "東阿知和町"
  },
  "4442113": {
    "zipcode": "4442113",
    "prefectureCode": "23",
    "prefectureNumber": 23,
    "prefecture": "愛知県",
    "city": "岡崎市",
    "town": "松橋町"
  },
  "4442114": {
    "zipcode": "4442114",
    "prefectureCode": "23",
    "prefectureNumber": 23,
    "prefecture": "愛知県",
    "city": "岡崎市",
    "town": "堂前町"
  },
  "4442115": {
    "zipcode": "4442115",
    "prefectureCode": "23",
    "prefectureNumber": 23,
    "prefecture": "愛知県",
    "city": "岡崎市",
    "town": "百々町"
  },
  "4442116": {
    "zipcode": "4442116",
    "prefectureCode": "23",
    "prefectureNumber": 23,
    "prefecture": "愛知県",
    "city": "岡崎市",
    "town": "寿町"
  },
  "4442117": {
    "zipcode": "4442117",
    "prefectureCode": "23",
    "prefectureNumber": 23,
    "prefecture": "愛知県",
    "city": "岡崎市",
    "town": "百々西町"
  },
  "4442118": {
    "zipcode": "4442118",
    "prefectureCode": "23",
    "prefectureNumber": 23,
    "prefecture": "愛知県",
    "city": "岡崎市",
    "town": "河原町"
  },
  "4442121": {
    "zipcode": "4442121",
    "prefectureCode": "23",
    "prefectureNumber": 23,
    "prefecture": "愛知県",
    "city": "岡崎市",
    "town": "鴨田町"
  },
  "4442122": {
    "zipcode": "4442122",
    "prefectureCode": "23",
    "prefectureNumber": 23,
    "prefecture": "愛知県",
    "city": "岡崎市",
    "town": "鴨田本町"
  },
  "4442123": {
    "zipcode": "4442123",
    "prefectureCode": "23",
    "prefectureNumber": 23,
    "prefecture": "愛知県",
    "city": "岡崎市",
    "town": "鴨田南町"
  },
  "4442131": {
    "zipcode": "4442131",
    "prefectureCode": "23",
    "prefectureNumber": 23,
    "prefecture": "愛知県",
    "city": "岡崎市",
    "town": "青木町"
  },
  "4442132": {
    "zipcode": "4442132",
    "prefectureCode": "23",
    "prefectureNumber": 23,
    "prefecture": "愛知県",
    "city": "岡崎市",
    "town": "井ノ口新町"
  },
  "4442133": {
    "zipcode": "4442133",
    "prefectureCode": "23",
    "prefectureNumber": 23,
    "prefecture": "愛知県",
    "city": "岡崎市",
    "town": "井ノ口町"
  },
  "4442134": {
    "zipcode": "4442134",
    "prefectureCode": "23",
    "prefectureNumber": 23,
    "prefecture": "愛知県",
    "city": "岡崎市",
    "town": "大樹寺"
  },
  "4442135": {
    "zipcode": "4442135",
    "prefectureCode": "23",
    "prefectureNumber": 23,
    "prefecture": "愛知県",
    "city": "岡崎市",
    "town": "大門"
  },
  "4442136": {
    "zipcode": "4442136",
    "prefectureCode": "23",
    "prefectureNumber": 23,
    "prefecture": "愛知県",
    "city": "岡崎市",
    "town": "上里"
  },
  "4442137": {
    "zipcode": "4442137",
    "prefectureCode": "23",
    "prefectureNumber": 23,
    "prefecture": "愛知県",
    "city": "岡崎市",
    "town": "薮田"
  },
  "4442141": {
    "zipcode": "4442141",
    "prefectureCode": "23",
    "prefectureNumber": 23,
    "prefecture": "愛知県",
    "city": "岡崎市",
    "town": "桑原町"
  },
  "4442142": {
    "zipcode": "4442142",
    "prefectureCode": "23",
    "prefectureNumber": 23,
    "prefecture": "愛知県",
    "city": "岡崎市",
    "town": "奥山田町"
  },
  "4442143": {
    "zipcode": "4442143",
    "prefectureCode": "23",
    "prefectureNumber": 23,
    "prefecture": "愛知県",
    "city": "岡崎市",
    "town": "八ツ木町"
  },
  "4442144": {
    "zipcode": "4442144",
    "prefectureCode": "23",
    "prefectureNumber": 23,
    "prefecture": "愛知県",
    "city": "岡崎市",
    "town": "岩津町"
  },
  "4442145": {
    "zipcode": "4442145",
    "prefectureCode": "23",
    "prefectureNumber": 23,
    "prefecture": "愛知県",
    "city": "岡崎市",
    "town": "東蔵前"
  },
  "4442146": {
    "zipcode": "4442146",
    "prefectureCode": "23",
    "prefectureNumber": 23,
    "prefecture": "愛知県",
    "city": "岡崎市",
    "town": "東蔵前町"
  },
  "4442147": {
    "zipcode": "4442147",
    "prefectureCode": "23",
    "prefectureNumber": 23,
    "prefecture": "愛知県",
    "city": "岡崎市",
    "town": "西蔵前町"
  },
  "4442148": {
    "zipcode": "4442148",
    "prefectureCode": "23",
    "prefectureNumber": 23,
    "prefecture": "愛知県",
    "city": "岡崎市",
    "town": "仁木町"
  },
  "4442149": {
    "zipcode": "4442149",
    "prefectureCode": "23",
    "prefectureNumber": 23,
    "prefecture": "愛知県",
    "city": "岡崎市",
    "town": "細川町"
  },
  "4442201": {
    "zipcode": "4442201",
    "prefectureCode": "23",
    "prefectureNumber": 23,
    "prefecture": "愛知県",
    "city": "豊田市",
    "town": "坂上町"
  },
  "4442202": {
    "zipcode": "4442202",
    "prefectureCode": "23",
    "prefectureNumber": 23,
    "prefecture": "愛知県",
    "city": "豊田市",
    "town": "松平町"
  },
  "4442203": {
    "zipcode": "4442203",
    "prefectureCode": "23",
    "prefectureNumber": 23,
    "prefecture": "愛知県",
    "city": "豊田市",
    "town": "豊松町"
  },
  "4442204": {
    "zipcode": "4442204",
    "prefectureCode": "23",
    "prefectureNumber": 23,
    "prefecture": "愛知県",
    "city": "豊田市",
    "town": "鵜ケ瀬町"
  },
  "4442205": {
    "zipcode": "4442205",
    "prefectureCode": "23",
    "prefectureNumber": 23,
    "prefecture": "愛知県",
    "city": "豊田市",
    "town": "鍋田町"
  },
  "4442206": {
    "zipcode": "4442206",
    "prefectureCode": "23",
    "prefectureNumber": 23,
    "prefecture": "愛知県",
    "city": "豊田市",
    "town": "王滝町"
  },
  "4442207": {
    "zipcode": "4442207",
    "prefectureCode": "23",
    "prefectureNumber": 23,
    "prefecture": "愛知県",
    "city": "豊田市",
    "town": "石楠町"
  },
  "4442211": {
    "zipcode": "4442211",
    "prefectureCode": "23",
    "prefectureNumber": 23,
    "prefecture": "愛知県",
    "city": "豊田市",
    "town": "長沢町"
  },
  "4442212": {
    "zipcode": "4442212",
    "prefectureCode": "23",
    "prefectureNumber": 23,
    "prefecture": "愛知県",
    "city": "豊田市",
    "town": "滝脇町"
  },
  "4442213": {
    "zipcode": "4442213",
    "prefectureCode": "23",
    "prefectureNumber": 23,
    "prefecture": "愛知県",
    "city": "豊田市",
    "town": "加茂川町"
  },
  "4442214": {
    "zipcode": "4442214",
    "prefectureCode": "23",
    "prefectureNumber": 23,
    "prefecture": "愛知県",
    "city": "豊田市",
    "town": "桂野町"
  },
  "4442215": {
    "zipcode": "4442215",
    "prefectureCode": "23",
    "prefectureNumber": 23,
    "prefecture": "愛知県",
    "city": "豊田市",
    "town": "中垣内町"
  },
  "4442216": {
    "zipcode": "4442216",
    "prefectureCode": "23",
    "prefectureNumber": 23,
    "prefecture": "愛知県",
    "city": "豊田市",
    "town": "九久平町"
  },
  "4442217": {
    "zipcode": "4442217",
    "prefectureCode": "23",
    "prefectureNumber": 23,
    "prefecture": "愛知県",
    "city": "豊田市",
    "town": "大内町"
  },
  "4442218": {
    "zipcode": "4442218",
    "prefectureCode": "23",
    "prefectureNumber": 23,
    "prefecture": "愛知県",
    "city": "豊田市",
    "town": "林添町"
  },
  "4442221": {
    "zipcode": "4442221",
    "prefectureCode": "23",
    "prefectureNumber": 23,
    "prefecture": "愛知県",
    "city": "豊田市",
    "town": "幸海町"
  },
  "4442222": {
    "zipcode": "4442222",
    "prefectureCode": "23",
    "prefectureNumber": 23,
    "prefecture": "愛知県",
    "city": "豊田市",
    "town": "穂積町"
  },
  "4442223": {
    "zipcode": "4442223",
    "prefectureCode": "23",
    "prefectureNumber": 23,
    "prefecture": "愛知県",
    "city": "豊田市",
    "town": "松平志賀町"
  },
  "4442224": {
    "zipcode": "4442224",
    "prefectureCode": "23",
    "prefectureNumber": 23,
    "prefecture": "愛知県",
    "city": "豊田市",
    "town": "巴町"
  },
  "4442225": {
    "zipcode": "4442225",
    "prefectureCode": "23",
    "prefectureNumber": 23,
    "prefecture": "愛知県",
    "city": "豊田市",
    "town": "岩倉町"
  },
  "4442226": {
    "zipcode": "4442226",
    "prefectureCode": "23",
    "prefectureNumber": 23,
    "prefecture": "愛知県",
    "city": "豊田市",
    "town": "幸穂台"
  },
  "4442301": {
    "zipcode": "4442301",
    "prefectureCode": "23",
    "prefectureNumber": 23,
    "prefecture": "愛知県",
    "city": "豊田市",
    "town": "東川端町"
  },
  "4442302": {
    "zipcode": "4442302",
    "prefectureCode": "23",
    "prefectureNumber": 23,
    "prefecture": "愛知県",
    "city": "豊田市",
    "town": "戸中町"
  },
  "4442303": {
    "zipcode": "4442303",
    "prefectureCode": "23",
    "prefectureNumber": 23,
    "prefecture": "愛知県",
    "city": "豊田市",
    "town": "野林町"
  },
  "4442311": {
    "zipcode": "4442311",
    "prefectureCode": "23",
    "prefectureNumber": 23,
    "prefecture": "愛知県",
    "city": "豊田市",
    "town": "沢ノ堂町"
  },
  "4442312": {
    "zipcode": "4442312",
    "prefectureCode": "23",
    "prefectureNumber": 23,
    "prefecture": "愛知県",
    "city": "豊田市",
    "town": "四ツ松町"
  },
  "4442313": {
    "zipcode": "4442313",
    "prefectureCode": "23",
    "prefectureNumber": 23,
    "prefecture": "愛知県",
    "city": "豊田市",
    "town": "冷田町"
  },
  "4442314": {
    "zipcode": "4442314",
    "prefectureCode": "23",
    "prefectureNumber": 23,
    "prefecture": "愛知県",
    "city": "豊田市",
    "town": "上小田町"
  },
  "4442321": {
    "zipcode": "4442321",
    "prefectureCode": "23",
    "prefectureNumber": 23,
    "prefecture": "愛知県",
    "city": "豊田市",
    "town": "下国谷町"
  },
  "4442324": {
    "zipcode": "4442324",
    "prefectureCode": "23",
    "prefectureNumber": 23,
    "prefecture": "愛知県",
    "city": "豊田市",
    "town": "栃本町"
  },
  "4442325": {
    "zipcode": "4442325",
    "prefectureCode": "23",
    "prefectureNumber": 23,
    "prefecture": "愛知県",
    "city": "豊田市",
    "town": "桑原田町"
  },
  "4442326": {
    "zipcode": "4442326",
    "prefectureCode": "23",
    "prefectureNumber": 23,
    "prefecture": "愛知県",
    "city": "豊田市",
    "town": "国谷町"
  },
  "4442327": {
    "zipcode": "4442327",
    "prefectureCode": "23",
    "prefectureNumber": 23,
    "prefecture": "愛知県",
    "city": "豊田市",
    "town": "白倉町"
  },
  "4442331": {
    "zipcode": "4442331",
    "prefectureCode": "23",
    "prefectureNumber": 23,
    "prefecture": "愛知県",
    "city": "豊田市",
    "town": "岩谷町"
  },
  "4442332": {
    "zipcode": "4442332",
    "prefectureCode": "23",
    "prefectureNumber": 23,
    "prefecture": "愛知県",
    "city": "豊田市",
    "town": "下平町"
  },
  "4442333": {
    "zipcode": "4442333",
    "prefectureCode": "23",
    "prefectureNumber": 23,
    "prefecture": "愛知県",
    "city": "豊田市",
    "town": "平折町"
  },
  "4442334": {
    "zipcode": "4442334",
    "prefectureCode": "23",
    "prefectureNumber": 23,
    "prefecture": "愛知県",
    "city": "豊田市",
    "town": "国閑町"
  },
  "4442335": {
    "zipcode": "4442335",
    "prefectureCode": "23",
    "prefectureNumber": 23,
    "prefecture": "愛知県",
    "city": "豊田市",
    "town": "上脇町"
  },
  "4442336": {
    "zipcode": "4442336",
    "prefectureCode": "23",
    "prefectureNumber": 23,
    "prefecture": "愛知県",
    "city": "豊田市",
    "town": "下佐切町"
  },
  "4442337": {
    "zipcode": "4442337",
    "prefectureCode": "23",
    "prefectureNumber": 23,
    "prefecture": "愛知県",
    "city": "豊田市",
    "town": "上佐切町"
  },
  "4442342": {
    "zipcode": "4442342",
    "prefectureCode": "23",
    "prefectureNumber": 23,
    "prefecture": "愛知県",
    "city": "豊田市",
    "town": "則定町"
  },
  "4442343": {
    "zipcode": "4442343",
    "prefectureCode": "23",
    "prefectureNumber": 23,
    "prefecture": "愛知県",
    "city": "豊田市",
    "town": "霧山町"
  },
  "4442344": {
    "zipcode": "4442344",
    "prefectureCode": "23",
    "prefectureNumber": 23,
    "prefecture": "愛知県",
    "city": "豊田市",
    "town": "東大島町"
  },
  "4442351": {
    "zipcode": "4442351",
    "prefectureCode": "23",
    "prefectureNumber": 23,
    "prefecture": "愛知県",
    "city": "豊田市",
    "town": "岩神町（その他）"
  },
  "4442352": {
    "zipcode": "4442352",
    "prefectureCode": "23",
    "prefectureNumber": 23,
    "prefecture": "愛知県",
    "city": "豊田市",
    "town": "篭林町"
  },
  "4442353": {
    "zipcode": "4442353",
    "prefectureCode": "23",
    "prefectureNumber": 23,
    "prefecture": "愛知県",
    "city": "豊田市",
    "town": "田振町"
  },
  "4442354": {
    "zipcode": "4442354",
    "prefectureCode": "23",
    "prefectureNumber": 23,
    "prefecture": "愛知県",
    "city": "豊田市",
    "town": "井ノ口町"
  },
  "4442355": {
    "zipcode": "4442355",
    "prefectureCode": "23",
    "prefectureNumber": 23,
    "prefecture": "愛知県",
    "city": "豊田市",
    "town": "近岡町"
  },
  "4442401": {
    "zipcode": "4442401",
    "prefectureCode": "23",
    "prefectureNumber": 23,
    "prefecture": "愛知県",
    "city": "豊田市",
    "town": "二タ宮町"
  },
  "4442402": {
    "zipcode": "4442402",
    "prefectureCode": "23",
    "prefectureNumber": 23,
    "prefecture": "愛知県",
    "city": "豊田市",
    "town": "竜岡町"
  },
  "4442403": {
    "zipcode": "4442403",
    "prefectureCode": "23",
    "prefectureNumber": 23,
    "prefecture": "愛知県",
    "city": "豊田市",
    "town": "川面町"
  },
  "4442404": {
    "zipcode": "4442404",
    "prefectureCode": "23",
    "prefectureNumber": 23,
    "prefecture": "愛知県",
    "city": "豊田市",
    "town": "怒田沢町"
  },
  "4442405": {
    "zipcode": "4442405",
    "prefectureCode": "23",
    "prefectureNumber": 23,
    "prefecture": "愛知県",
    "city": "豊田市",
    "town": "大蔵連町"
  },
  "4442406": {
    "zipcode": "4442406",
    "prefectureCode": "23",
    "prefectureNumber": 23,
    "prefecture": "愛知県",
    "city": "豊田市",
    "town": "漆畑町"
  },
  "4442407": {
    "zipcode": "4442407",
    "prefectureCode": "23",
    "prefectureNumber": 23,
    "prefecture": "愛知県",
    "city": "豊田市",
    "town": "桑田和町"
  },
  "4442409": {
    "zipcode": "4442409",
    "prefectureCode": "23",
    "prefectureNumber": 23,
    "prefecture": "愛知県",
    "city": "豊田市",
    "town": "菅生町"
  },
  "4442411": {
    "zipcode": "4442411",
    "prefectureCode": "23",
    "prefectureNumber": 23,
    "prefecture": "愛知県",
    "city": "豊田市",
    "town": "御内町"
  },
  "4442412": {
    "zipcode": "4442412",
    "prefectureCode": "23",
    "prefectureNumber": 23,
    "prefecture": "愛知県",
    "city": "豊田市",
    "town": "山ノ中立町"
  },
  "4442413": {
    "zipcode": "4442413",
    "prefectureCode": "23",
    "prefectureNumber": 23,
    "prefecture": "愛知県",
    "city": "豊田市",
    "town": "東大見町"
  },
  "4442414": {
    "zipcode": "4442414",
    "prefectureCode": "23",
    "prefectureNumber": 23,
    "prefecture": "愛知県",
    "city": "豊田市",
    "town": "葛沢町"
  },
  "4442415": {
    "zipcode": "4442415",
    "prefectureCode": "23",
    "prefectureNumber": 23,
    "prefecture": "愛知県",
    "city": "豊田市",
    "town": "山谷町"
  },
  "4442416": {
    "zipcode": "4442416",
    "prefectureCode": "23",
    "prefectureNumber": 23,
    "prefecture": "愛知県",
    "city": "豊田市",
    "town": "有洞町"
  },
  "4442417": {
    "zipcode": "4442417",
    "prefectureCode": "23",
    "prefectureNumber": 23,
    "prefecture": "愛知県",
    "city": "豊田市",
    "town": "室口町"
  },
  "4442418": {
    "zipcode": "4442418",
    "prefectureCode": "23",
    "prefectureNumber": 23,
    "prefecture": "愛知県",
    "city": "豊田市",
    "town": "綾渡町"
  },
  "4442419": {
    "zipcode": "4442419",
    "prefectureCode": "23",
    "prefectureNumber": 23,
    "prefecture": "愛知県",
    "city": "豊田市",
    "town": "椿立町"
  },
  "4442423": {
    "zipcode": "4442423",
    "prefectureCode": "23",
    "prefectureNumber": 23,
    "prefecture": "愛知県",
    "city": "豊田市",
    "town": "安実京町"
  },
  "4442424": {
    "zipcode": "4442424",
    "prefectureCode": "23",
    "prefectureNumber": 23,
    "prefecture": "愛知県",
    "city": "豊田市",
    "town": "足助町"
  },
  "4442451": {
    "zipcode": "4442451",
    "prefectureCode": "23",
    "prefectureNumber": 23,
    "prefecture": "愛知県",
    "city": "豊田市",
    "town": "岩神町（足助高等学校）"
  },
  "4442501": {
    "zipcode": "4442501",
    "prefectureCode": "23",
    "prefectureNumber": 23,
    "prefecture": "愛知県",
    "city": "豊田市",
    "town": "大井町"
  },
  "4442502": {
    "zipcode": "4442502",
    "prefectureCode": "23",
    "prefectureNumber": 23,
    "prefecture": "愛知県",
    "city": "豊田市",
    "town": "北小田町"
  },
  "4442503": {
    "zipcode": "4442503",
    "prefectureCode": "23",
    "prefectureNumber": 23,
    "prefecture": "愛知県",
    "city": "豊田市",
    "town": "細田町"
  },
  "4442504": {
    "zipcode": "4442504",
    "prefectureCode": "23",
    "prefectureNumber": 23,
    "prefecture": "愛知県",
    "city": "豊田市",
    "town": "永野町"
  },
  "4442505": {
    "zipcode": "4442505",
    "prefectureCode": "23",
    "prefectureNumber": 23,
    "prefecture": "愛知県",
    "city": "豊田市",
    "town": "新盛町"
  },
  "4442506": {
    "zipcode": "4442506",
    "prefectureCode": "23",
    "prefectureNumber": 23,
    "prefecture": "愛知県",
    "city": "豊田市",
    "town": "久木町"
  },
  "4442510": {
    "zipcode": "4442510",
    "prefectureCode": "23",
    "prefectureNumber": 23,
    "prefecture": "愛知県",
    "city": "豊田市",
    "town": "富岡町"
  },
  "4442511": {
    "zipcode": "4442511",
    "prefectureCode": "23",
    "prefectureNumber": 23,
    "prefecture": "愛知県",
    "city": "豊田市",
    "town": "大蔵町"
  },
  "4442512": {
    "zipcode": "4442512",
    "prefectureCode": "23",
    "prefectureNumber": 23,
    "prefecture": "愛知県",
    "city": "豊田市",
    "town": "東中山町"
  },
  "4442513": {
    "zipcode": "4442513",
    "prefectureCode": "23",
    "prefectureNumber": 23,
    "prefecture": "愛知県",
    "city": "豊田市",
    "town": "足助白山町"
  },
  "4442514": {
    "zipcode": "4442514",
    "prefectureCode": "23",
    "prefectureNumber": 23,
    "prefecture": "愛知県",
    "city": "豊田市",
    "town": "栃ノ沢町"
  },
  "4442515": {
    "zipcode": "4442515",
    "prefectureCode": "23",
    "prefectureNumber": 23,
    "prefecture": "愛知県",
    "city": "豊田市",
    "town": "大塚町"
  },
  "4442516": {
    "zipcode": "4442516",
    "prefectureCode": "23",
    "prefectureNumber": 23,
    "prefecture": "愛知県",
    "city": "豊田市",
    "town": "塩ノ沢町"
  },
  "4442517": {
    "zipcode": "4442517",
    "prefectureCode": "23",
    "prefectureNumber": 23,
    "prefecture": "愛知県",
    "city": "豊田市",
    "town": "中立町"
  },
  "4442521": {
    "zipcode": "4442521",
    "prefectureCode": "23",
    "prefectureNumber": 23,
    "prefecture": "愛知県",
    "city": "豊田市",
    "town": "小町"
  },
  "4442522": {
    "zipcode": "4442522",
    "prefectureCode": "23",
    "prefectureNumber": 23,
    "prefecture": "愛知県",
    "city": "豊田市",
    "town": "御蔵町"
  },
  "4442523": {
    "zipcode": "4442523",
    "prefectureCode": "23",
    "prefectureNumber": 23,
    "prefecture": "愛知県",
    "city": "豊田市",
    "town": "実栗町"
  },
  "4442524": {
    "zipcode": "4442524",
    "prefectureCode": "23",
    "prefectureNumber": 23,
    "prefecture": "愛知県",
    "city": "豊田市",
    "town": "摺町"
  },
  "4442525": {
    "zipcode": "4442525",
    "prefectureCode": "23",
    "prefectureNumber": 23,
    "prefecture": "愛知県",
    "city": "豊田市",
    "town": "大河原町"
  },
  "4442526": {
    "zipcode": "4442526",
    "prefectureCode": "23",
    "prefectureNumber": 23,
    "prefecture": "愛知県",
    "city": "豊田市",
    "town": "葛町"
  },
  "4442527": {
    "zipcode": "4442527",
    "prefectureCode": "23",
    "prefectureNumber": 23,
    "prefecture": "愛知県",
    "city": "豊田市",
    "town": "月原町"
  },
  "4442528": {
    "zipcode": "4442528",
    "prefectureCode": "23",
    "prefectureNumber": 23,
    "prefecture": "愛知県",
    "city": "豊田市",
    "town": "東渡合町"
  },
  "4442531": {
    "zipcode": "4442531",
    "prefectureCode": "23",
    "prefectureNumber": 23,
    "prefecture": "愛知県",
    "city": "豊田市",
    "town": "上切山町"
  },
  "4442532": {
    "zipcode": "4442532",
    "prefectureCode": "23",
    "prefectureNumber": 23,
    "prefecture": "愛知県",
    "city": "豊田市",
    "town": "西樫尾町"
  },
  "4442533": {
    "zipcode": "4442533",
    "prefectureCode": "23",
    "prefectureNumber": 23,
    "prefecture": "愛知県",
    "city": "豊田市",
    "town": "小手沢町"
  },
  "4442601": {
    "zipcode": "4442601",
    "prefectureCode": "23",
    "prefectureNumber": 23,
    "prefecture": "愛知県",
    "city": "豊田市",
    "town": "明川町"
  },
  "4442602": {
    "zipcode": "4442602",
    "prefectureCode": "23",
    "prefectureNumber": 23,
    "prefecture": "愛知県",
    "city": "豊田市",
    "town": "連谷町"
  },
  "4442603": {
    "zipcode": "4442603",
    "prefectureCode": "23",
    "prefectureNumber": 23,
    "prefecture": "愛知県",
    "city": "豊田市",
    "town": "大多賀町"
  },
  "4442604": {
    "zipcode": "4442604",
    "prefectureCode": "23",
    "prefectureNumber": 23,
    "prefecture": "愛知県",
    "city": "豊田市",
    "town": "上八木町"
  },
  "4442605": {
    "zipcode": "4442605",
    "prefectureCode": "23",
    "prefectureNumber": 23,
    "prefecture": "愛知県",
    "city": "豊田市",
    "town": "玉野町"
  },
  "4442606": {
    "zipcode": "4442606",
    "prefectureCode": "23",
    "prefectureNumber": 23,
    "prefecture": "愛知県",
    "city": "豊田市",
    "town": "千田町"
  },
  "4442607": {
    "zipcode": "4442607",
    "prefectureCode": "23",
    "prefectureNumber": 23,
    "prefecture": "愛知県",
    "city": "豊田市",
    "town": "平沢町"
  },
  "4442608": {
    "zipcode": "4442608",
    "prefectureCode": "23",
    "prefectureNumber": 23,
    "prefecture": "愛知県",
    "city": "豊田市",
    "town": "五反田町"
  },
  "4442801": {
    "zipcode": "4442801",
    "prefectureCode": "23",
    "prefectureNumber": 23,
    "prefecture": "愛知県",
    "city": "豊田市",
    "town": "牛地町"
  },
  "4442802": {
    "zipcode": "4442802",
    "prefectureCode": "23",
    "prefectureNumber": 23,
    "prefecture": "愛知県",
    "city": "豊田市",
    "town": "田津原町"
  },
  "4442803": {
    "zipcode": "4442803",
    "prefectureCode": "23",
    "prefectureNumber": 23,
    "prefecture": "愛知県",
    "city": "豊田市",
    "town": "坪崎町"
  },
  "4442804": {
    "zipcode": "4442804",
    "prefectureCode": "23",
    "prefectureNumber": 23,
    "prefecture": "愛知県",
    "city": "豊田市",
    "town": "日下部町"
  },
  "4442805": {
    "zipcode": "4442805",
    "prefectureCode": "23",
    "prefectureNumber": 23,
    "prefecture": "愛知県",
    "city": "豊田市",
    "town": "小畑町"
  },
  "4442806": {
    "zipcode": "4442806",
    "prefectureCode": "23",
    "prefectureNumber": 23,
    "prefecture": "愛知県",
    "city": "豊田市",
    "town": "惣田町"
  },
  "4442807": {
    "zipcode": "4442807",
    "prefectureCode": "23",
    "prefectureNumber": 23,
    "prefecture": "愛知県",
    "city": "豊田市",
    "town": "伊熊町"
  },
  "4442808": {
    "zipcode": "4442808",
    "prefectureCode": "23",
    "prefectureNumber": 23,
    "prefecture": "愛知県",
    "city": "豊田市",
    "town": "槇本町"
  },
  "4442809": {
    "zipcode": "4442809",
    "prefectureCode": "23",
    "prefectureNumber": 23,
    "prefecture": "愛知県",
    "city": "豊田市",
    "town": "小滝野町"
  },
  "4442811": {
    "zipcode": "4442811",
    "prefectureCode": "23",
    "prefectureNumber": 23,
    "prefecture": "愛知県",
    "city": "豊田市",
    "town": "太田町"
  },
  "4442812": {
    "zipcode": "4442812",
    "prefectureCode": "23",
    "prefectureNumber": 23,
    "prefecture": "愛知県",
    "city": "豊田市",
    "town": "押井町"
  },
  "4442813": {
    "zipcode": "4442813",
    "prefectureCode": "23",
    "prefectureNumber": 23,
    "prefecture": "愛知県",
    "city": "豊田市",
    "town": "加塩町"
  },
  "4442814": {
    "zipcode": "4442814",
    "prefectureCode": "23",
    "prefectureNumber": 23,
    "prefecture": "愛知県",
    "city": "豊田市",
    "town": "榊野町"
  },
  "4442815": {
    "zipcode": "4442815",
    "prefectureCode": "23",
    "prefectureNumber": 23,
    "prefecture": "愛知県",
    "city": "豊田市",
    "town": "万根町"
  },
  "4442816": {
    "zipcode": "4442816",
    "prefectureCode": "23",
    "prefectureNumber": 23,
    "prefecture": "愛知県",
    "city": "豊田市",
    "town": "杉本町"
  },
  "4442817": {
    "zipcode": "4442817",
    "prefectureCode": "23",
    "prefectureNumber": 23,
    "prefecture": "愛知県",
    "city": "豊田市",
    "town": "明賀町"
  },
  "4442821": {
    "zipcode": "4442821",
    "prefectureCode": "23",
    "prefectureNumber": 23,
    "prefecture": "愛知県",
    "city": "豊田市",
    "town": "小田町"
  },
  "4442822": {
    "zipcode": "4442822",
    "prefectureCode": "23",
    "prefectureNumber": 23,
    "prefecture": "愛知県",
    "city": "豊田市",
    "town": "大坪町"
  },
  "4442823": {
    "zipcode": "4442823",
    "prefectureCode": "23",
    "prefectureNumber": 23,
    "prefecture": "愛知県",
    "city": "豊田市",
    "town": "東萩平町"
  },
  "4442824": {
    "zipcode": "4442824",
    "prefectureCode": "23",
    "prefectureNumber": 23,
    "prefecture": "愛知県",
    "city": "豊田市",
    "town": "池島町"
  },
  "4442825": {
    "zipcode": "4442825",
    "prefectureCode": "23",
    "prefectureNumber": 23,
    "prefecture": "愛知県",
    "city": "豊田市",
    "town": "市平町"
  },
  "4442826": {
    "zipcode": "4442826",
    "prefectureCode": "23",
    "prefectureNumber": 23,
    "prefecture": "愛知県",
    "city": "豊田市",
    "town": "笹戸町"
  },
  "4442827": {
    "zipcode": "4442827",
    "prefectureCode": "23",
    "prefectureNumber": 23,
    "prefecture": "愛知県",
    "city": "豊田市",
    "town": "有間町"
  },
  "4442831": {
    "zipcode": "4442831",
    "prefectureCode": "23",
    "prefectureNumber": 23,
    "prefecture": "愛知県",
    "city": "豊田市",
    "town": "須渕町"
  },
  "4442832": {
    "zipcode": "4442832",
    "prefectureCode": "23",
    "prefectureNumber": 23,
    "prefecture": "愛知県",
    "city": "豊田市",
    "town": "浅谷町"
  },
  "4442833": {
    "zipcode": "4442833",
    "prefectureCode": "23",
    "prefectureNumber": 23,
    "prefecture": "愛知県",
    "city": "豊田市",
    "town": "下切町"
  },
  "4442834": {
    "zipcode": "4442834",
    "prefectureCode": "23",
    "prefectureNumber": 23,
    "prefecture": "愛知県",
    "city": "豊田市",
    "town": "島崎町"
  },
  "4442835": {
    "zipcode": "4442835",
    "prefectureCode": "23",
    "prefectureNumber": 23,
    "prefecture": "愛知県",
    "city": "豊田市",
    "town": "上中町"
  },
  "4442836": {
    "zipcode": "4442836",
    "prefectureCode": "23",
    "prefectureNumber": 23,
    "prefecture": "愛知県",
    "city": "豊田市",
    "town": "上切町"
  },
  "4442837": {
    "zipcode": "4442837",
    "prefectureCode": "23",
    "prefectureNumber": 23,
    "prefecture": "愛知県",
    "city": "豊田市",
    "town": "一色町"
  },
  "4442838": {
    "zipcode": "4442838",
    "prefectureCode": "23",
    "prefectureNumber": 23,
    "prefecture": "愛知県",
    "city": "豊田市",
    "town": "下中町"
  },
  "4442839": {
    "zipcode": "4442839",
    "prefectureCode": "23",
    "prefectureNumber": 23,
    "prefecture": "愛知県",
    "city": "豊田市",
    "town": "三分山町"
  },
  "4442841": {
    "zipcode": "4442841",
    "prefectureCode": "23",
    "prefectureNumber": 23,
    "prefecture": "愛知県",
    "city": "豊田市",
    "town": "閑羅瀬町"
  },
  "4442842": {
    "zipcode": "4442842",
    "prefectureCode": "23",
    "prefectureNumber": 23,
    "prefecture": "愛知県",
    "city": "豊田市",
    "town": "余平町"
  },
  "4442843": {
    "zipcode": "4442843",
    "prefectureCode": "23",
    "prefectureNumber": 23,
    "prefecture": "愛知県",
    "city": "豊田市",
    "town": "旭八幡町"
  },
  "4442844": {
    "zipcode": "4442844",
    "prefectureCode": "23",
    "prefectureNumber": 23,
    "prefecture": "愛知県",
    "city": "豊田市",
    "town": "伯母沢町"
  },
  "4442845": {
    "zipcode": "4442845",
    "prefectureCode": "23",
    "prefectureNumber": 23,
    "prefecture": "愛知県",
    "city": "豊田市",
    "town": "万町町"
  },
  "4442846": {
    "zipcode": "4442846",
    "prefectureCode": "23",
    "prefectureNumber": 23,
    "prefecture": "愛知県",
    "city": "豊田市",
    "town": "小渡町"
  },
  "4442847": {
    "zipcode": "4442847",
    "prefectureCode": "23",
    "prefectureNumber": 23,
    "prefecture": "愛知県",
    "city": "豊田市",
    "town": "時瀬町"
  },
  "4443151": {
    "zipcode": "4443151",
    "prefectureCode": "23",
    "prefectureNumber": 23,
    "prefecture": "愛知県",
    "city": "岡崎市",
    "town": "箱柳町（中立）"
  },
  "4443161": {
    "zipcode": "4443161",
    "prefectureCode": "23",
    "prefectureNumber": 23,
    "prefecture": "愛知県",
    "city": "岡崎市",
    "town": "大柳町"
  },
  "4443162": {
    "zipcode": "4443162",
    "prefectureCode": "23",
    "prefectureNumber": 23,
    "prefecture": "愛知県",
    "city": "岡崎市",
    "town": "新居町"
  },
  "4443163": {
    "zipcode": "4443163",
    "prefectureCode": "23",
    "prefectureNumber": 23,
    "prefecture": "愛知県",
    "city": "岡崎市",
    "town": "小丸町"
  },
  "4443164": {
    "zipcode": "4443164",
    "prefectureCode": "23",
    "prefectureNumber": 23,
    "prefecture": "愛知県",
    "city": "岡崎市",
    "town": "蔵次町"
  },
  "4443165": {
    "zipcode": "4443165",
    "prefectureCode": "23",
    "prefectureNumber": 23,
    "prefecture": "愛知県",
    "city": "岡崎市",
    "town": "岩中町"
  },
  "4443166": {
    "zipcode": "4443166",
    "prefectureCode": "23",
    "prefectureNumber": 23,
    "prefecture": "愛知県",
    "city": "岡崎市",
    "town": "大井野町"
  },
  "4443167": {
    "zipcode": "4443167",
    "prefectureCode": "23",
    "prefectureNumber": 23,
    "prefecture": "愛知県",
    "city": "岡崎市",
    "town": "米河内町"
  },
  "4443168": {
    "zipcode": "4443168",
    "prefectureCode": "23",
    "prefectureNumber": 23,
    "prefecture": "愛知県",
    "city": "岡崎市",
    "town": "安戸町"
  },
  "4443171": {
    "zipcode": "4443171",
    "prefectureCode": "23",
    "prefectureNumber": 23,
    "prefecture": "愛知県",
    "city": "岡崎市",
    "town": "板田町"
  },
  "4443172": {
    "zipcode": "4443172",
    "prefectureCode": "23",
    "prefectureNumber": 23,
    "prefecture": "愛知県",
    "city": "岡崎市",
    "town": "田口町"
  },
  "4443173": {
    "zipcode": "4443173",
    "prefectureCode": "23",
    "prefectureNumber": 23,
    "prefecture": "愛知県",
    "city": "岡崎市",
    "town": "滝町"
  },
  "4443174": {
    "zipcode": "4443174",
    "prefectureCode": "23",
    "prefectureNumber": 23,
    "prefecture": "愛知県",
    "city": "岡崎市",
    "town": "真伝町"
  },
  "4443175": {
    "zipcode": "4443175",
    "prefectureCode": "23",
    "prefectureNumber": 23,
    "prefecture": "愛知県",
    "city": "岡崎市",
    "town": "真伝"
  },
  "4443176": {
    "zipcode": "4443176",
    "prefectureCode": "23",
    "prefectureNumber": 23,
    "prefecture": "愛知県",
    "city": "岡崎市",
    "town": "真伝吉祥"
  },
  "4443201": {
    "zipcode": "4443201",
    "prefectureCode": "23",
    "prefectureNumber": 23,
    "prefecture": "愛知県",
    "city": "豊田市",
    "town": "梨野町"
  },
  "4443202": {
    "zipcode": "4443202",
    "prefectureCode": "23",
    "prefectureNumber": 23,
    "prefecture": "愛知県",
    "city": "豊田市",
    "town": "阿蔵町"
  },
  "4443203": {
    "zipcode": "4443203",
    "prefectureCode": "23",
    "prefectureNumber": 23,
    "prefecture": "愛知県",
    "city": "豊田市",
    "town": "宇連野町"
  },
  "4443205": {
    "zipcode": "4443205",
    "prefectureCode": "23",
    "prefectureNumber": 23,
    "prefecture": "愛知県",
    "city": "豊田市",
    "town": "野原町"
  },
  "4443206": {
    "zipcode": "4443206",
    "prefectureCode": "23",
    "prefectureNumber": 23,
    "prefecture": "愛知県",
    "city": "豊田市",
    "town": "羽布町"
  },
  "4443207": {
    "zipcode": "4443207",
    "prefectureCode": "23",
    "prefectureNumber": 23,
    "prefecture": "愛知県",
    "city": "豊田市",
    "town": "大桑町"
  },
  "4443208": {
    "zipcode": "4443208",
    "prefectureCode": "23",
    "prefectureNumber": 23,
    "prefecture": "愛知県",
    "city": "豊田市",
    "town": "高野町"
  },
  "4443211": {
    "zipcode": "4443211",
    "prefectureCode": "23",
    "prefectureNumber": 23,
    "prefecture": "愛知県",
    "city": "豊田市",
    "town": "和合町"
  },
  "4443212": {
    "zipcode": "4443212",
    "prefectureCode": "23",
    "prefectureNumber": 23,
    "prefecture": "愛知県",
    "city": "豊田市",
    "town": "黒坂町"
  },
  "4443213": {
    "zipcode": "4443213",
    "prefectureCode": "23",
    "prefectureNumber": 23,
    "prefecture": "愛知県",
    "city": "豊田市",
    "town": "小松野町"
  },
  "4443216": {
    "zipcode": "4443216",
    "prefectureCode": "23",
    "prefectureNumber": 23,
    "prefecture": "愛知県",
    "city": "豊田市",
    "town": "蘭町"
  },
  "4443221": {
    "zipcode": "4443221",
    "prefectureCode": "23",
    "prefectureNumber": 23,
    "prefecture": "愛知県",
    "city": "豊田市",
    "town": "田折町"
  },
  "4443222": {
    "zipcode": "4443222",
    "prefectureCode": "23",
    "prefectureNumber": 23,
    "prefecture": "愛知県",
    "city": "豊田市",
    "town": "下山田代町"
  },
  "4443223": {
    "zipcode": "4443223",
    "prefectureCode": "23",
    "prefectureNumber": 23,
    "prefecture": "愛知県",
    "city": "豊田市",
    "town": "蕪木町"
  },
  "4443231": {
    "zipcode": "4443231",
    "prefectureCode": "23",
    "prefectureNumber": 23,
    "prefecture": "愛知県",
    "city": "豊田市",
    "town": "花沢町"
  },
  "4443242": {
    "zipcode": "4443242",
    "prefectureCode": "23",
    "prefectureNumber": 23,
    "prefecture": "愛知県",
    "city": "豊田市",
    "town": "大沼町"
  },
  "4443251": {
    "zipcode": "4443251",
    "prefectureCode": "23",
    "prefectureNumber": 23,
    "prefecture": "愛知県",
    "city": "豊田市",
    "town": "平瀬町"
  },
  "4443252": {
    "zipcode": "4443252",
    "prefectureCode": "23",
    "prefectureNumber": 23,
    "prefecture": "愛知県",
    "city": "豊田市",
    "town": "神殿町"
  },
  "4443261": {
    "zipcode": "4443261",
    "prefectureCode": "23",
    "prefectureNumber": 23,
    "prefecture": "愛知県",
    "city": "豊田市",
    "town": "東大林町"
  },
  "4443262": {
    "zipcode": "4443262",
    "prefectureCode": "23",
    "prefectureNumber": 23,
    "prefecture": "愛知県",
    "city": "豊田市",
    "town": "立岩町"
  },
  "4443264": {
    "zipcode": "4443264",
    "prefectureCode": "23",
    "prefectureNumber": 23,
    "prefecture": "愛知県",
    "city": "豊田市",
    "town": "栃立町"
  },
  "4443265": {
    "zipcode": "4443265",
    "prefectureCode": "23",
    "prefectureNumber": 23,
    "prefecture": "愛知県",
    "city": "豊田市",
    "town": "田平沢町"
  },
  "4443331": {
    "zipcode": "4443331",
    "prefectureCode": "23",
    "prefectureNumber": 23,
    "prefecture": "愛知県",
    "city": "岡崎市",
    "town": "古部町"
  },
  "4443332": {
    "zipcode": "4443332",
    "prefectureCode": "23",
    "prefectureNumber": 23,
    "prefecture": "愛知県",
    "city": "岡崎市",
    "town": "切越町"
  },
  "4443333": {
    "zipcode": "4443333",
    "prefectureCode": "23",
    "prefectureNumber": 23,
    "prefecture": "愛知県",
    "city": "岡崎市",
    "town": "蓬生町"
  },
  "4443334": {
    "zipcode": "4443334",
    "prefectureCode": "23",
    "prefectureNumber": 23,
    "prefecture": "愛知県",
    "city": "岡崎市",
    "town": "生平町"
  },
  "4443335": {
    "zipcode": "4443335",
    "prefectureCode": "23",
    "prefectureNumber": 23,
    "prefecture": "愛知県",
    "city": "岡崎市",
    "town": "茅原沢町"
  },
  "4443341": {
    "zipcode": "4443341",
    "prefectureCode": "23",
    "prefectureNumber": 23,
    "prefecture": "愛知県",
    "city": "岡崎市",
    "town": "須淵町"
  },
  "4443342": {
    "zipcode": "4443342",
    "prefectureCode": "23",
    "prefectureNumber": 23,
    "prefecture": "愛知県",
    "city": "岡崎市",
    "town": "才栗町"
  },
  "4443343": {
    "zipcode": "4443343",
    "prefectureCode": "23",
    "prefectureNumber": 23,
    "prefecture": "愛知県",
    "city": "岡崎市",
    "town": "秦梨町"
  },
  "4443344": {
    "zipcode": "4443344",
    "prefectureCode": "23",
    "prefectureNumber": 23,
    "prefecture": "愛知県",
    "city": "岡崎市",
    "town": "岩戸町"
  },
  "4443431": {
    "zipcode": "4443431",
    "prefectureCode": "23",
    "prefectureNumber": 23,
    "prefecture": "愛知県",
    "city": "岡崎市",
    "town": "切山町"
  },
  "4443432": {
    "zipcode": "4443432",
    "prefectureCode": "23",
    "prefectureNumber": 23,
    "prefecture": "愛知県",
    "city": "岡崎市",
    "town": "千万町町"
  },
  "4443433": {
    "zipcode": "4443433",
    "prefectureCode": "23",
    "prefectureNumber": 23,
    "prefecture": "愛知県",
    "city": "岡崎市",
    "town": "木下町"
  },
  "4443434": {
    "zipcode": "4443434",
    "prefectureCode": "23",
    "prefectureNumber": 23,
    "prefecture": "愛知県",
    "city": "岡崎市",
    "town": "井沢町"
  },
  "4443435": {
    "zipcode": "4443435",
    "prefectureCode": "23",
    "prefectureNumber": 23,
    "prefecture": "愛知県",
    "city": "岡崎市",
    "town": "桜形町"
  },
  "4443436": {
    "zipcode": "4443436",
    "prefectureCode": "23",
    "prefectureNumber": 23,
    "prefecture": "愛知県",
    "city": "岡崎市",
    "town": "小久田町"
  },
  "4443437": {
    "zipcode": "4443437",
    "prefectureCode": "23",
    "prefectureNumber": 23,
    "prefecture": "愛知県",
    "city": "岡崎市",
    "town": "毛呂町"
  },
  "4443441": {
    "zipcode": "4443441",
    "prefectureCode": "23",
    "prefectureNumber": 23,
    "prefecture": "愛知県",
    "city": "岡崎市",
    "town": "冨尾町"
  },
  "4443442": {
    "zipcode": "4443442",
    "prefectureCode": "23",
    "prefectureNumber": 23,
    "prefecture": "愛知県",
    "city": "岡崎市",
    "town": "保久町"
  },
  "4443443": {
    "zipcode": "4443443",
    "prefectureCode": "23",
    "prefectureNumber": 23,
    "prefecture": "愛知県",
    "city": "岡崎市",
    "town": "鍛埜町"
  },
  "4443444": {
    "zipcode": "4443444",
    "prefectureCode": "23",
    "prefectureNumber": 23,
    "prefecture": "愛知県",
    "city": "岡崎市",
    "town": "南大須町"
  },
  "4443445": {
    "zipcode": "4443445",
    "prefectureCode": "23",
    "prefectureNumber": 23,
    "prefecture": "愛知県",
    "city": "岡崎市",
    "town": "大高味町"
  },
  "4443446": {
    "zipcode": "4443446",
    "prefectureCode": "23",
    "prefectureNumber": 23,
    "prefecture": "愛知県",
    "city": "岡崎市",
    "town": "中伊町"
  },
  "4443447": {
    "zipcode": "4443447",
    "prefectureCode": "23",
    "prefectureNumber": 23,
    "prefecture": "愛知県",
    "city": "岡崎市",
    "town": "一色町"
  },
  "4443448": {
    "zipcode": "4443448",
    "prefectureCode": "23",
    "prefectureNumber": 23,
    "prefecture": "愛知県",
    "city": "岡崎市",
    "town": "外山町"
  },
  "4443449": {
    "zipcode": "4443449",
    "prefectureCode": "23",
    "prefectureNumber": 23,
    "prefecture": "愛知県",
    "city": "岡崎市",
    "town": "中伊西町"
  },
  "4443501": {
    "zipcode": "4443501",
    "prefectureCode": "23",
    "prefectureNumber": 23,
    "prefecture": "愛知県",
    "city": "岡崎市",
    "town": "池金町"
  },
  "4443502": {
    "zipcode": "4443502",
    "prefectureCode": "23",
    "prefectureNumber": 23,
    "prefecture": "愛知県",
    "city": "岡崎市",
    "town": "大幡町"
  },
  "4443503": {
    "zipcode": "4443503",
    "prefectureCode": "23",
    "prefectureNumber": 23,
    "prefecture": "愛知県",
    "city": "岡崎市",
    "town": "鶇巣町"
  },
  "4443504": {
    "zipcode": "4443504",
    "prefectureCode": "23",
    "prefectureNumber": 23,
    "prefecture": "愛知県",
    "city": "岡崎市",
    "town": "上衣文町"
  },
  "4443505": {
    "zipcode": "4443505",
    "prefectureCode": "23",
    "prefectureNumber": 23,
    "prefecture": "愛知県",
    "city": "岡崎市",
    "town": "本宿町"
  },
  "4443506": {
    "zipcode": "4443506",
    "prefectureCode": "23",
    "prefectureNumber": 23,
    "prefecture": "愛知県",
    "city": "岡崎市",
    "town": "本宿西"
  },
  "4443507": {
    "zipcode": "4443507",
    "prefectureCode": "23",
    "prefectureNumber": 23,
    "prefecture": "愛知県",
    "city": "岡崎市",
    "town": "本宿台"
  },
  "4443508": {
    "zipcode": "4443508",
    "prefectureCode": "23",
    "prefectureNumber": 23,
    "prefecture": "愛知県",
    "city": "岡崎市",
    "town": "本宿茜"
  },
  "4443511": {
    "zipcode": "4443511",
    "prefectureCode": "23",
    "prefectureNumber": 23,
    "prefecture": "愛知県",
    "city": "岡崎市",
    "town": "舞木町"
  },
  "4443512": {
    "zipcode": "4443512",
    "prefectureCode": "23",
    "prefectureNumber": 23,
    "prefecture": "愛知県",
    "city": "岡崎市",
    "town": "鉢地町"
  },
  "4443513": {
    "zipcode": "4443513",
    "prefectureCode": "23",
    "prefectureNumber": 23,
    "prefecture": "愛知県",
    "city": "岡崎市",
    "town": "山綱町（その他）"
  },
  "4443514": {
    "zipcode": "4443514",
    "prefectureCode": "23",
    "prefectureNumber": 23,
    "prefecture": "愛知県",
    "city": "岡崎市",
    "town": "羽栗町"
  },
  "4443515": {
    "zipcode": "4443515",
    "prefectureCode": "23",
    "prefectureNumber": 23,
    "prefecture": "愛知県",
    "city": "岡崎市",
    "town": "桑谷町"
  },
  "4443516": {
    "zipcode": "4443516",
    "prefectureCode": "23",
    "prefectureNumber": 23,
    "prefecture": "愛知県",
    "city": "岡崎市",
    "town": "山綱町（丁目）"
  },
  "4443521": {
    "zipcode": "4443521",
    "prefectureCode": "23",
    "prefectureNumber": 23,
    "prefecture": "愛知県",
    "city": "岡崎市",
    "town": "市場町"
  },
  "4443522": {
    "zipcode": "4443522",
    "prefectureCode": "23",
    "prefectureNumber": 23,
    "prefecture": "愛知県",
    "city": "岡崎市",
    "town": "藤川台"
  },
  "4443523": {
    "zipcode": "4443523",
    "prefectureCode": "23",
    "prefectureNumber": 23,
    "prefecture": "愛知県",
    "city": "岡崎市",
    "town": "藤川町"
  },
  "4443524": {
    "zipcode": "4443524",
    "prefectureCode": "23",
    "prefectureNumber": 23,
    "prefecture": "愛知県",
    "city": "岡崎市",
    "town": "竜泉寺町"
  },
  "4443525": {
    "zipcode": "4443525",
    "prefectureCode": "23",
    "prefectureNumber": 23,
    "prefecture": "愛知県",
    "city": "岡崎市",
    "town": "蓑川町"
  },
  "4443526": {
    "zipcode": "4443526",
    "prefectureCode": "23",
    "prefectureNumber": 23,
    "prefecture": "愛知県",
    "city": "岡崎市",
    "town": "蓑川新町"
  },
  "4443527": {
    "zipcode": "4443527",
    "prefectureCode": "23",
    "prefectureNumber": 23,
    "prefecture": "愛知県",
    "city": "岡崎市",
    "town": "藤川荒古"
  },
  "4443528": {
    "zipcode": "4443528",
    "prefectureCode": "23",
    "prefectureNumber": 23,
    "prefecture": "愛知県",
    "city": "岡崎市",
    "town": "みはらし台"
  },
  "4443601": {
    "zipcode": "4443601",
    "prefectureCode": "23",
    "prefectureNumber": 23,
    "prefecture": "愛知県",
    "city": "岡崎市",
    "town": "石原町"
  },
  "4443602": {
    "zipcode": "4443602",
    "prefectureCode": "23",
    "prefectureNumber": 23,
    "prefecture": "愛知県",
    "city": "岡崎市",
    "town": "東河原町"
  },
  "4443603": {
    "zipcode": "4443603",
    "prefectureCode": "23",
    "prefectureNumber": 23,
    "prefecture": "愛知県",
    "city": "岡崎市",
    "town": "雨山町"
  },
  "4443604": {
    "zipcode": "4443604",
    "prefectureCode": "23",
    "prefectureNumber": 23,
    "prefecture": "愛知県",
    "city": "岡崎市",
    "town": "大代町"
  },
  "4443605": {
    "zipcode": "4443605",
    "prefectureCode": "23",
    "prefectureNumber": 23,
    "prefecture": "愛知県",
    "city": "岡崎市",
    "town": "中金町"
  },
  "4443611": {
    "zipcode": "4443611",
    "prefectureCode": "23",
    "prefectureNumber": 23,
    "prefecture": "愛知県",
    "city": "岡崎市",
    "town": "宮崎町"
  },
  "4443612": {
    "zipcode": "4443612",
    "prefectureCode": "23",
    "prefectureNumber": 23,
    "prefecture": "愛知県",
    "city": "岡崎市",
    "town": "明見町"
  },
  "4443613": {
    "zipcode": "4443613",
    "prefectureCode": "23",
    "prefectureNumber": 23,
    "prefecture": "愛知県",
    "city": "岡崎市",
    "town": "滝尻町"
  },
  "4443614": {
    "zipcode": "4443614",
    "prefectureCode": "23",
    "prefectureNumber": 23,
    "prefecture": "愛知県",
    "city": "岡崎市",
    "town": "鳥川町"
  },
  "4443615": {
    "zipcode": "4443615",
    "prefectureCode": "23",
    "prefectureNumber": 23,
    "prefecture": "愛知県",
    "city": "岡崎市",
    "town": "細光町"
  },
  "4443616": {
    "zipcode": "4443616",
    "prefectureCode": "23",
    "prefectureNumber": 23,
    "prefecture": "愛知県",
    "city": "岡崎市",
    "town": "片寄町"
  },
  "4443617": {
    "zipcode": "4443617",
    "prefectureCode": "23",
    "prefectureNumber": 23,
    "prefecture": "愛知県",
    "city": "岡崎市",
    "town": "淡渕町"
  },
  "4443621": {
    "zipcode": "4443621",
    "prefectureCode": "23",
    "prefectureNumber": 23,
    "prefecture": "愛知県",
    "city": "岡崎市",
    "town": "夏山町"
  },
  "4443622": {
    "zipcode": "4443622",
    "prefectureCode": "23",
    "prefectureNumber": 23,
    "prefecture": "愛知県",
    "city": "岡崎市",
    "town": "樫山町"
  },
  "4443623": {
    "zipcode": "4443623",
    "prefectureCode": "23",
    "prefectureNumber": 23,
    "prefecture": "愛知県",
    "city": "岡崎市",
    "town": "鹿勝川町"
  },
  "4443624": {
    "zipcode": "4443624",
    "prefectureCode": "23",
    "prefectureNumber": 23,
    "prefecture": "愛知県",
    "city": "岡崎市",
    "town": "牧平町"
  },
  "4443625": {
    "zipcode": "4443625",
    "prefectureCode": "23",
    "prefectureNumber": 23,
    "prefecture": "愛知県",
    "city": "岡崎市",
    "town": "下衣文町"
  },
  "4443626": {
    "zipcode": "4443626",
    "prefectureCode": "23",
    "prefectureNumber": 23,
    "prefecture": "愛知県",
    "city": "岡崎市",
    "town": "桜井寺町"
  }
}
