{
  "4460000": {
    "zipcode": "4460000",
    "prefectureCode": "23",
    "prefectureNumber": 23,
    "prefecture": "愛知県",
    "city": "安城市",
    "town": "以下に掲載がない場合"
  },
  "4460001": {
    "zipcode": "4460001",
    "prefectureCode": "23",
    "prefectureNumber": 23,
    "prefecture": "愛知県",
    "city": "安城市",
    "town": "里町"
  },
  "4460002": {
    "zipcode": "4460002",
    "prefectureCode": "23",
    "prefectureNumber": 23,
    "prefecture": "愛知県",
    "city": "安城市",
    "town": "橋目町"
  },
  "4460003": {
    "zipcode": "4460003",
    "prefectureCode": "23",
    "prefectureNumber": 23,
    "prefecture": "愛知県",
    "city": "安城市",
    "town": "柿さき町"
  },
  "4460004": {
    "zipcode": "4460004",
    "prefectureCode": "23",
    "prefectureNumber": 23,
    "prefecture": "愛知県",
    "city": "安城市",
    "town": "尾崎町"
  },
  "4460005": {
    "zipcode": "4460005",
    "prefectureCode": "23",
    "prefectureNumber": 23,
    "prefecture": "愛知県",
    "city": "安城市",
    "town": "宇頭茶屋町"
  },
  "4460006": {
    "zipcode": "4460006",
    "prefectureCode": "23",
    "prefectureNumber": 23,
    "prefecture": "愛知県",
    "city": "安城市",
    "town": "浜屋町"
  },
  "4460007": {
    "zipcode": "4460007",
    "prefectureCode": "23",
    "prefectureNumber": 23,
    "prefecture": "愛知県",
    "city": "安城市",
    "town": "東栄町"
  },
  "4460008": {
    "zipcode": "4460008",
    "prefectureCode": "23",
    "prefectureNumber": 23,
    "prefecture": "愛知県",
    "city": "安城市",
    "town": "今本町"
  },
  "4460011": {
    "zipcode": "4460011",
    "prefectureCode": "23",
    "prefectureNumber": 23,
    "prefecture": "愛知県",
    "city": "安城市",
    "town": "北山崎町"
  },
  "4460012": {
    "zipcode": "4460012",
    "prefectureCode": "23",
    "prefectureNumber": 23,
    "prefecture": "愛知県",
    "city": "安城市",
    "town": "西別所町"
  },
  "4460013": {
    "zipcode": "4460013",
    "prefectureCode": "23",
    "prefectureNumber": 23,
    "prefecture": "愛知県",
    "city": "安城市",
    "town": "東別所町"
  },
  "4460014": {
    "zipcode": "4460014",
    "prefectureCode": "23",
    "prefectureNumber": 23,
    "prefecture": "愛知県",
    "city": "安城市",
    "town": "別郷町"
  },
  "4460015": {
    "zipcode": "4460015",
    "prefectureCode": "23",
    "prefectureNumber": 23,
    "prefecture": "愛知県",
    "city": "安城市",
    "town": "高木町"
  },
  "4460016": {
    "zipcode": "4460016",
    "prefectureCode": "23",
    "prefectureNumber": 23,
    "prefecture": "愛知県",
    "city": "安城市",
    "town": "山崎町"
  },
  "4460017": {
    "zipcode": "4460017",
    "prefectureCode": "23",
    "prefectureNumber": 23,
    "prefecture": "愛知県",
    "city": "安城市",
    "town": "大岡町"
  },
  "4460018": {
    "zipcode": "4460018",
    "prefectureCode": "23",
    "prefectureNumber": 23,
    "prefecture": "愛知県",
    "city": "安城市",
    "town": "東新町"
  },
  "4460019": {
    "zipcode": "4460019",
    "prefectureCode": "23",
    "prefectureNumber": 23,
    "prefecture": "愛知県",
    "city": "安城市",
    "town": "新明町"
  },
  "4460021": {
    "zipcode": "4460021",
    "prefectureCode": "23",
    "prefectureNumber": 23,
    "prefecture": "愛知県",
    "city": "安城市",
    "town": "法連町"
  },
  "4460022": {
    "zipcode": "4460022",
    "prefectureCode": "23",
    "prefectureNumber": 23,
    "prefecture": "愛知県",
    "city": "安城市",
    "town": "浜富町"
  },
  "4460023": {
    "zipcode": "4460023",
    "prefectureCode": "23",
    "prefectureNumber": 23,
    "prefecture": "愛知県",
    "city": "安城市",
    "town": "上条町"
  },
  "4460024": {
    "zipcode": "4460024",
    "prefectureCode": "23",
    "prefectureNumber": 23,
    "prefecture": "愛知県",
    "city": "安城市",
    "town": "河野町"
  },
  "4460025": {
    "zipcode": "4460025",
    "prefectureCode": "23",
    "prefectureNumber": 23,
    "prefecture": "愛知県",
    "city": "安城市",
    "town": "古井町"
  },
  "4460026": {
    "zipcode": "4460026",
    "prefectureCode": "23",
    "prefectureNumber": 23,
    "prefecture": "愛知県",
    "city": "安城市",
    "town": "安城町"
  },
  "4460027": {
    "zipcode": "4460027",
    "prefectureCode": "23",
    "prefectureNumber": 23,
    "prefecture": "愛知県",
    "city": "安城市",
    "town": "東明町"
  },
  "4460031": {
    "zipcode": "4460031",
    "prefectureCode": "23",
    "prefectureNumber": 23,
    "prefecture": "愛知県",
    "city": "安城市",
    "town": "朝日町"
  },
  "4460032": {
    "zipcode": "4460032",
    "prefectureCode": "23",
    "prefectureNumber": 23,
    "prefecture": "愛知県",
    "city": "安城市",
    "town": "御幸本町"
  },
  "4460033": {
    "zipcode": "4460033",
    "prefectureCode": "23",
    "prefectureNumber": 23,
    "prefecture": "愛知県",
    "city": "安城市",
    "town": "日の出町"
  },
  "4460034": {
    "zipcode": "4460034",
    "prefectureCode": "23",
    "prefectureNumber": 23,
    "prefecture": "愛知県",
    "city": "安城市",
    "town": "南町"
  },
  "4460035": {
    "zipcode": "4460035",
    "prefectureCode": "23",
    "prefectureNumber": 23,
    "prefecture": "愛知県",
    "city": "安城市",
    "town": "錦町"
  },
  "4460036": {
    "zipcode": "4460036",
    "prefectureCode": "23",
    "prefectureNumber": 23,
    "prefecture": "愛知県",
    "city": "安城市",
    "town": "小堤町"
  },
  "4460037": {
    "zipcode": "4460037",
    "prefectureCode": "23",
    "prefectureNumber": 23,
    "prefecture": "愛知県",
    "city": "安城市",
    "town": "相生町"
  },
  "4460038": {
    "zipcode": "4460038",
    "prefectureCode": "23",
    "prefectureNumber": 23,
    "prefecture": "愛知県",
    "city": "安城市",
    "town": "末広町"
  },
  "4460039": {
    "zipcode": "4460039",
    "prefectureCode": "23",
    "prefectureNumber": 23,
    "prefecture": "愛知県",
    "city": "安城市",
    "town": "花ノ木町"
  },
  "4460041": {
    "zipcode": "4460041",
    "prefectureCode": "23",
    "prefectureNumber": 23,
    "prefecture": "愛知県",
    "city": "安城市",
    "town": "桜町"
  },
  "4460042": {
    "zipcode": "4460042",
    "prefectureCode": "23",
    "prefectureNumber": 23,
    "prefecture": "愛知県",
    "city": "安城市",
    "town": "大山町"
  },
  "4460043": {
    "zipcode": "4460043",
    "prefectureCode": "23",
    "prefectureNumber": 23,
    "prefecture": "愛知県",
    "city": "安城市",
    "town": "城南町"
  },
  "4460044": {
    "zipcode": "4460044",
    "prefectureCode": "23",
    "prefectureNumber": 23,
    "prefecture": "愛知県",
    "city": "安城市",
    "town": "百石町"
  },
  "4460045": {
    "zipcode": "4460045",
    "prefectureCode": "23",
    "prefectureNumber": 23,
    "prefecture": "愛知県",
    "city": "安城市",
    "town": "横山町"
  },
  "4460046": {
    "zipcode": "4460046",
    "prefectureCode": "23",
    "prefectureNumber": 23,
    "prefecture": "愛知県",
    "city": "安城市",
    "town": "赤松町"
  },
  "4460051": {
    "zipcode": "4460051",
    "prefectureCode": "23",
    "prefectureNumber": 23,
    "prefecture": "愛知県",
    "city": "安城市",
    "town": "箕輪町"
  },
  "4460052": {
    "zipcode": "4460052",
    "prefectureCode": "23",
    "prefectureNumber": 23,
    "prefecture": "愛知県",
    "city": "安城市",
    "town": "福釜町"
  },
  "4460053": {
    "zipcode": "4460053",
    "prefectureCode": "23",
    "prefectureNumber": 23,
    "prefecture": "愛知県",
    "city": "安城市",
    "town": "高棚町"
  },
  "4460054": {
    "zipcode": "4460054",
    "prefectureCode": "23",
    "prefectureNumber": 23,
    "prefecture": "愛知県",
    "city": "安城市",
    "town": "二本木町"
  },
  "4460055": {
    "zipcode": "4460055",
    "prefectureCode": "23",
    "prefectureNumber": 23,
    "prefecture": "愛知県",
    "city": "安城市",
    "town": "緑町"
  },
  "4460056": {
    "zipcode": "4460056",
    "prefectureCode": "23",
    "prefectureNumber": 23,
    "prefecture": "愛知県",
    "city": "安城市",
    "town": "三河安城町"
  },
  "4460057": {
    "zipcode": "4460057",
    "prefectureCode": "23",
    "prefectureNumber": 23,
    "prefecture": "愛知県",
    "city": "安城市",
    "town": "三河安城東町"
  },
  "4460058": {
    "zipcode": "4460058",
    "prefectureCode": "23",
    "prefectureNumber": 23,
    "prefecture": "愛知県",
    "city": "安城市",
    "town": "三河安城南町"
  },
  "4460059": {
    "zipcode": "4460059",
    "prefectureCode": "23",
    "prefectureNumber": 23,
    "prefecture": "愛知県",
    "city": "安城市",
    "town": "三河安城本町"
  },
  "4460061": {
    "zipcode": "4460061",
    "prefectureCode": "23",
    "prefectureNumber": 23,
    "prefecture": "愛知県",
    "city": "安城市",
    "town": "新田町"
  },
  "4460062": {
    "zipcode": "4460062",
    "prefectureCode": "23",
    "prefectureNumber": 23,
    "prefecture": "愛知県",
    "city": "安城市",
    "town": "明治本町"
  },
  "4460063": {
    "zipcode": "4460063",
    "prefectureCode": "23",
    "prefectureNumber": 23,
    "prefecture": "愛知県",
    "city": "安城市",
    "town": "昭和町"
  },
  "4460064": {
    "zipcode": "4460064",
    "prefectureCode": "23",
    "prefectureNumber": 23,
    "prefecture": "愛知県",
    "city": "安城市",
    "town": "弁天町"
  },
  "4460065": {
    "zipcode": "4460065",
    "prefectureCode": "23",
    "prefectureNumber": 23,
    "prefecture": "愛知県",
    "city": "安城市",
    "town": "大東町"
  },
  "4460066": {
    "zipcode": "4460066",
    "prefectureCode": "23",
    "prefectureNumber": 23,
    "prefecture": "愛知県",
    "city": "安城市",
    "town": "池浦町"
  },
  "4460071": {
    "zipcode": "4460071",
    "prefectureCode": "23",
    "prefectureNumber": 23,
    "prefecture": "愛知県",
    "city": "安城市",
    "town": "今池町"
  },
  "4460072": {
    "zipcode": "4460072",
    "prefectureCode": "23",
    "prefectureNumber": 23,
    "prefecture": "愛知県",
    "city": "安城市",
    "town": "住吉町"
  },
  "4460073": {
    "zipcode": "4460073",
    "prefectureCode": "23",
    "prefectureNumber": 23,
    "prefecture": "愛知県",
    "city": "安城市",
    "town": "篠目町"
  },
  "4460074": {
    "zipcode": "4460074",
    "prefectureCode": "23",
    "prefectureNumber": 23,
    "prefecture": "愛知県",
    "city": "安城市",
    "town": "井杭山町"
  },
  "4460075": {
    "zipcode": "4460075",
    "prefectureCode": "23",
    "prefectureNumber": 23,
    "prefecture": "愛知県",
    "city": "安城市",
    "town": "二本木新町"
  },
  "4460076": {
    "zipcode": "4460076",
    "prefectureCode": "23",
    "prefectureNumber": 23,
    "prefecture": "愛知県",
    "city": "安城市",
    "town": "美園町"
  }
}
