{
  "4470000": {
    "zipcode": "4470000",
    "prefectureCode": "23",
    "prefectureNumber": 23,
    "prefecture": "愛知県",
    "city": "碧南市",
    "town": "以下に掲載がない場合"
  },
  "4470001": {
    "zipcode": "4470001",
    "prefectureCode": "23",
    "prefectureNumber": 23,
    "prefecture": "愛知県",
    "city": "碧南市",
    "town": "北町"
  },
  "4470002": {
    "zipcode": "4470002",
    "prefectureCode": "23",
    "prefectureNumber": 23,
    "prefecture": "愛知県",
    "city": "碧南市",
    "town": "井口町"
  },
  "4470003": {
    "zipcode": "4470003",
    "prefectureCode": "23",
    "prefectureNumber": 23,
    "prefecture": "愛知県",
    "city": "碧南市",
    "town": "雁道町"
  },
  "4470004": {
    "zipcode": "4470004",
    "prefectureCode": "23",
    "prefectureNumber": 23,
    "prefecture": "愛知県",
    "city": "碧南市",
    "town": "用久町"
  },
  "4470005": {
    "zipcode": "4470005",
    "prefectureCode": "23",
    "prefectureNumber": 23,
    "prefecture": "愛知県",
    "city": "碧南市",
    "town": "若水町"
  },
  "4470006": {
    "zipcode": "4470006",
    "prefectureCode": "23",
    "prefectureNumber": 23,
    "prefecture": "愛知県",
    "city": "碧南市",
    "town": "宝町"
  },
  "4470007": {
    "zipcode": "4470007",
    "prefectureCode": "23",
    "prefectureNumber": 23,
    "prefecture": "愛知県",
    "city": "碧南市",
    "town": "竹原町"
  },
  "4470008": {
    "zipcode": "4470008",
    "prefectureCode": "23",
    "prefectureNumber": 23,
    "prefecture": "愛知県",
    "city": "碧南市",
    "town": "大久手町"
  },
  "4470011": {
    "zipcode": "4470011",
    "prefectureCode": "23",
    "prefectureNumber": 23,
    "prefecture": "愛知県",
    "city": "碧南市",
    "town": "平山町"
  },
  "4470012": {
    "zipcode": "4470012",
    "prefectureCode": "23",
    "prefectureNumber": 23,
    "prefecture": "愛知県",
    "city": "碧南市",
    "town": "大坪町"
  },
  "4470013": {
    "zipcode": "4470013",
    "prefectureCode": "23",
    "prefectureNumber": 23,
    "prefecture": "愛知県",
    "city": "碧南市",
    "town": "白沢町"
  },
  "4470014": {
    "zipcode": "4470014",
    "prefectureCode": "23",
    "prefectureNumber": 23,
    "prefecture": "愛知県",
    "city": "碧南市",
    "town": "長田町"
  },
  "4470015": {
    "zipcode": "4470015",
    "prefectureCode": "23",
    "prefectureNumber": 23,
    "prefecture": "愛知県",
    "city": "碧南市",
    "town": "半崎町"
  },
  "4470016": {
    "zipcode": "4470016",
    "prefectureCode": "23",
    "prefectureNumber": 23,
    "prefecture": "愛知県",
    "city": "碧南市",
    "town": "神田町"
  },
  "4470017": {
    "zipcode": "4470017",
    "prefectureCode": "23",
    "prefectureNumber": 23,
    "prefecture": "愛知県",
    "city": "碧南市",
    "town": "奥沢町"
  },
  "4470021": {
    "zipcode": "4470021",
    "prefectureCode": "23",
    "prefectureNumber": 23,
    "prefecture": "愛知県",
    "city": "碧南市",
    "town": "縄手町"
  },
  "4470022": {
    "zipcode": "4470022",
    "prefectureCode": "23",
    "prefectureNumber": 23,
    "prefecture": "愛知県",
    "city": "碧南市",
    "town": "旭町"
  },
  "4470023": {
    "zipcode": "4470023",
    "prefectureCode": "23",
    "prefectureNumber": 23,
    "prefecture": "愛知県",
    "city": "碧南市",
    "town": "池下町"
  },
  "4470024": {
    "zipcode": "4470024",
    "prefectureCode": "23",
    "prefectureNumber": 23,
    "prefecture": "愛知県",
    "city": "碧南市",
    "town": "亀穴町"
  },
  "4470025": {
    "zipcode": "4470025",
    "prefectureCode": "23",
    "prefectureNumber": 23,
    "prefecture": "愛知県",
    "city": "碧南市",
    "town": "大堤町"
  },
  "4470026": {
    "zipcode": "4470026",
    "prefectureCode": "23",
    "prefectureNumber": 23,
    "prefecture": "愛知県",
    "city": "碧南市",
    "town": "三宅町"
  },
  "4470027": {
    "zipcode": "4470027",
    "prefectureCode": "23",
    "prefectureNumber": 23,
    "prefecture": "愛知県",
    "city": "碧南市",
    "town": "照光町"
  },
  "4470028": {
    "zipcode": "4470028",
    "prefectureCode": "23",
    "prefectureNumber": 23,
    "prefecture": "愛知県",
    "city": "碧南市",
    "town": "神有町"
  },
  "4470029": {
    "zipcode": "4470029",
    "prefectureCode": "23",
    "prefectureNumber": 23,
    "prefecture": "愛知県",
    "city": "碧南市",
    "town": "二本木町"
  },
  "4470031": {
    "zipcode": "4470031",
    "prefectureCode": "23",
    "prefectureNumber": 23,
    "prefecture": "愛知県",
    "city": "碧南市",
    "town": "見合町"
  },
  "4470032": {
    "zipcode": "4470032",
    "prefectureCode": "23",
    "prefectureNumber": 23,
    "prefecture": "愛知県",
    "city": "碧南市",
    "town": "北浦町"
  },
  "4470033": {
    "zipcode": "4470033",
    "prefectureCode": "23",
    "prefectureNumber": 23,
    "prefecture": "愛知県",
    "city": "碧南市",
    "town": "天神町"
  },
  "4470034": {
    "zipcode": "4470034",
    "prefectureCode": "23",
    "prefectureNumber": 23,
    "prefecture": "愛知県",
    "city": "碧南市",
    "town": "鴻島町"
  },
  "4470035": {
    "zipcode": "4470035",
    "prefectureCode": "23",
    "prefectureNumber": 23,
    "prefecture": "愛知県",
    "city": "碧南市",
    "town": "中山町"
  },
  "4470036": {
    "zipcode": "4470036",
    "prefectureCode": "23",
    "prefectureNumber": 23,
    "prefecture": "愛知県",
    "city": "碧南市",
    "town": "尾城町"
  },
  "4470037": {
    "zipcode": "4470037",
    "prefectureCode": "23",
    "prefectureNumber": 23,
    "prefecture": "愛知県",
    "city": "碧南市",
    "town": "城山町"
  },
  "4470038": {
    "zipcode": "4470038",
    "prefectureCode": "23",
    "prefectureNumber": 23,
    "prefecture": "愛知県",
    "city": "碧南市",
    "town": "荒子町"
  },
  "4470041": {
    "zipcode": "4470041",
    "prefectureCode": "23",
    "prefectureNumber": 23,
    "prefecture": "愛知県",
    "city": "碧南市",
    "town": "緑町"
  },
  "4470042": {
    "zipcode": "4470042",
    "prefectureCode": "23",
    "prefectureNumber": 23,
    "prefecture": "愛知県",
    "city": "碧南市",
    "town": "中後町"
  },
  "4470043": {
    "zipcode": "4470043",
    "prefectureCode": "23",
    "prefectureNumber": 23,
    "prefecture": "愛知県",
    "city": "碧南市",
    "town": "幸町"
  },
  "4470044": {
    "zipcode": "4470044",
    "prefectureCode": "23",
    "prefectureNumber": 23,
    "prefecture": "愛知県",
    "city": "碧南市",
    "town": "末広町"
  },
  "4470045": {
    "zipcode": "4470045",
    "prefectureCode": "23",
    "prefectureNumber": 23,
    "prefecture": "愛知県",
    "city": "碧南市",
    "town": "篭田町"
  },
  "4470046": {
    "zipcode": "4470046",
    "prefectureCode": "23",
    "prefectureNumber": 23,
    "prefecture": "愛知県",
    "city": "碧南市",
    "town": "堀方町"
  },
  "4470047": {
    "zipcode": "4470047",
    "prefectureCode": "23",
    "prefectureNumber": 23,
    "prefecture": "愛知県",
    "city": "碧南市",
    "town": "植出町"
  },
  "4470048": {
    "zipcode": "4470048",
    "prefectureCode": "23",
    "prefectureNumber": 23,
    "prefecture": "愛知県",
    "city": "碧南市",
    "town": "福清水町"
  },
  "4470051": {
    "zipcode": "4470051",
    "prefectureCode": "23",
    "prefectureNumber": 23,
    "prefecture": "愛知県",
    "city": "碧南市",
    "town": "東山町"
  },
  "4470052": {
    "zipcode": "4470052",
    "prefectureCode": "23",
    "prefectureNumber": 23,
    "prefecture": "愛知県",
    "city": "碧南市",
    "town": "新道町"
  },
  "4470053": {
    "zipcode": "4470053",
    "prefectureCode": "23",
    "prefectureNumber": 23,
    "prefecture": "愛知県",
    "city": "碧南市",
    "town": "笹山町"
  },
  "4470054": {
    "zipcode": "4470054",
    "prefectureCode": "23",
    "prefectureNumber": 23,
    "prefecture": "愛知県",
    "city": "碧南市",
    "town": "踏分町"
  },
  "4470055": {
    "zipcode": "4470055",
    "prefectureCode": "23",
    "prefectureNumber": 23,
    "prefecture": "愛知県",
    "city": "碧南市",
    "town": "浜尾町"
  },
  "4470056": {
    "zipcode": "4470056",
    "prefectureCode": "23",
    "prefectureNumber": 23,
    "prefecture": "愛知県",
    "city": "碧南市",
    "town": "千福町"
  },
  "4470057": {
    "zipcode": "4470057",
    "prefectureCode": "23",
    "prefectureNumber": 23,
    "prefecture": "愛知県",
    "city": "碧南市",
    "town": "鶴見町"
  },
  "4470058": {
    "zipcode": "4470058",
    "prefectureCode": "23",
    "prefectureNumber": 23,
    "prefecture": "愛知県",
    "city": "碧南市",
    "town": "住吉町"
  },
  "4470061": {
    "zipcode": "4470061",
    "prefectureCode": "23",
    "prefectureNumber": 23,
    "prefecture": "愛知県",
    "city": "碧南市",
    "town": "三度山町"
  },
  "4470062": {
    "zipcode": "4470062",
    "prefectureCode": "23",
    "prefectureNumber": 23,
    "prefecture": "愛知県",
    "city": "碧南市",
    "town": "古川町"
  },
  "4470063": {
    "zipcode": "4470063",
    "prefectureCode": "23",
    "prefectureNumber": 23,
    "prefecture": "愛知県",
    "city": "碧南市",
    "town": "山下町"
  },
  "4470064": {
    "zipcode": "4470064",
    "prefectureCode": "23",
    "prefectureNumber": 23,
    "prefecture": "愛知県",
    "city": "碧南市",
    "town": "西山町"
  },
  "4470065": {
    "zipcode": "4470065",
    "prefectureCode": "23",
    "prefectureNumber": 23,
    "prefecture": "愛知県",
    "city": "碧南市",
    "town": "久沓町"
  },
  "4470066": {
    "zipcode": "4470066",
    "prefectureCode": "23",
    "prefectureNumber": 23,
    "prefecture": "愛知県",
    "city": "碧南市",
    "town": "丸山町"
  },
  "4470067": {
    "zipcode": "4470067",
    "prefectureCode": "23",
    "prefectureNumber": 23,
    "prefecture": "愛知県",
    "city": "碧南市",
    "town": "広見町"
  },
  "4470068": {
    "zipcode": "4470068",
    "prefectureCode": "23",
    "prefectureNumber": 23,
    "prefecture": "愛知県",
    "city": "碧南市",
    "town": "荒居町"
  },
  "4470071": {
    "zipcode": "4470071",
    "prefectureCode": "23",
    "prefectureNumber": 23,
    "prefecture": "愛知県",
    "city": "碧南市",
    "town": "桃山町"
  },
  "4470072": {
    "zipcode": "4470072",
    "prefectureCode": "23",
    "prefectureNumber": 23,
    "prefecture": "愛知県",
    "city": "碧南市",
    "town": "清水町"
  },
  "4470073": {
    "zipcode": "4470073",
    "prefectureCode": "23",
    "prefectureNumber": 23,
    "prefecture": "愛知県",
    "city": "碧南市",
    "town": "鳥追町"
  },
  "4470074": {
    "zipcode": "4470074",
    "prefectureCode": "23",
    "prefectureNumber": 23,
    "prefecture": "愛知県",
    "city": "碧南市",
    "town": "上町"
  },
  "4470075": {
    "zipcode": "4470075",
    "prefectureCode": "23",
    "prefectureNumber": 23,
    "prefecture": "愛知県",
    "city": "碧南市",
    "town": "立山町"
  },
  "4470076": {
    "zipcode": "4470076",
    "prefectureCode": "23",
    "prefectureNumber": 23,
    "prefecture": "愛知県",
    "city": "碧南市",
    "town": "白砂町"
  },
  "4470077": {
    "zipcode": "4470077",
    "prefectureCode": "23",
    "prefectureNumber": 23,
    "prefecture": "愛知県",
    "city": "碧南市",
    "town": "屋敷町"
  },
  "4470078": {
    "zipcode": "4470078",
    "prefectureCode": "23",
    "prefectureNumber": 23,
    "prefecture": "愛知県",
    "city": "碧南市",
    "town": "島池町"
  },
  "4470079": {
    "zipcode": "4470079",
    "prefectureCode": "23",
    "prefectureNumber": 23,
    "prefecture": "愛知県",
    "city": "碧南市",
    "town": "松原町"
  },
  "4470081": {
    "zipcode": "4470081",
    "prefectureCode": "23",
    "prefectureNumber": 23,
    "prefecture": "愛知県",
    "city": "碧南市",
    "town": "吹上町"
  },
  "4470082": {
    "zipcode": "4470082",
    "prefectureCode": "23",
    "prefectureNumber": 23,
    "prefecture": "愛知県",
    "city": "碧南市",
    "town": "湖西町"
  },
  "4470083": {
    "zipcode": "4470083",
    "prefectureCode": "23",
    "prefectureNumber": 23,
    "prefecture": "愛知県",
    "city": "碧南市",
    "town": "油渕町"
  },
  "4470084": {
    "zipcode": "4470084",
    "prefectureCode": "23",
    "prefectureNumber": 23,
    "prefecture": "愛知県",
    "city": "碧南市",
    "town": "平和町"
  },
  "4470085": {
    "zipcode": "4470085",
    "prefectureCode": "23",
    "prefectureNumber": 23,
    "prefecture": "愛知県",
    "city": "碧南市",
    "town": "金山町"
  },
  "4470086": {
    "zipcode": "4470086",
    "prefectureCode": "23",
    "prefectureNumber": 23,
    "prefecture": "愛知県",
    "city": "碧南市",
    "town": "洲先町"
  },
  "4470087": {
    "zipcode": "4470087",
    "prefectureCode": "23",
    "prefectureNumber": 23,
    "prefecture": "愛知県",
    "city": "碧南市",
    "town": "坂口町"
  },
  "4470088": {
    "zipcode": "4470088",
    "prefectureCode": "23",
    "prefectureNumber": 23,
    "prefecture": "愛知県",
    "city": "碧南市",
    "town": "札木町"
  },
  "4470801": {
    "zipcode": "4470801",
    "prefectureCode": "23",
    "prefectureNumber": 23,
    "prefecture": "愛知県",
    "city": "碧南市",
    "town": "野銭町"
  },
  "4470802": {
    "zipcode": "4470802",
    "prefectureCode": "23",
    "prefectureNumber": 23,
    "prefecture": "愛知県",
    "city": "碧南市",
    "town": "鷲林町"
  },
  "4470803": {
    "zipcode": "4470803",
    "prefectureCode": "23",
    "prefectureNumber": 23,
    "prefecture": "愛知県",
    "city": "碧南市",
    "town": "三角町"
  },
  "4470804": {
    "zipcode": "4470804",
    "prefectureCode": "23",
    "prefectureNumber": 23,
    "prefecture": "愛知県",
    "city": "碧南市",
    "town": "流作町"
  },
  "4470805": {
    "zipcode": "4470805",
    "prefectureCode": "23",
    "prefectureNumber": 23,
    "prefecture": "愛知県",
    "city": "碧南市",
    "town": "矢縄町"
  },
  "4470806": {
    "zipcode": "4470806",
    "prefectureCode": "23",
    "prefectureNumber": 23,
    "prefecture": "愛知県",
    "city": "碧南市",
    "town": "三間町"
  },
  "4470807": {
    "zipcode": "4470807",
    "prefectureCode": "23",
    "prefectureNumber": 23,
    "prefecture": "愛知県",
    "city": "碧南市",
    "town": "伏見町"
  },
  "4470808": {
    "zipcode": "4470808",
    "prefectureCode": "23",
    "prefectureNumber": 23,
    "prefecture": "愛知県",
    "city": "碧南市",
    "town": "鷲塚町"
  },
  "4470809": {
    "zipcode": "4470809",
    "prefectureCode": "23",
    "prefectureNumber": 23,
    "prefecture": "愛知県",
    "city": "碧南市",
    "town": "小屋下町"
  },
  "4470811": {
    "zipcode": "4470811",
    "prefectureCode": "23",
    "prefectureNumber": 23,
    "prefecture": "愛知県",
    "city": "碧南市",
    "town": "舟江町"
  },
  "4470812": {
    "zipcode": "4470812",
    "prefectureCode": "23",
    "prefectureNumber": 23,
    "prefecture": "愛知県",
    "city": "碧南市",
    "town": "中江町"
  },
  "4470813": {
    "zipcode": "4470813",
    "prefectureCode": "23",
    "prefectureNumber": 23,
    "prefecture": "愛知県",
    "city": "碧南市",
    "town": "雨池町"
  },
  "4470814": {
    "zipcode": "4470814",
    "prefectureCode": "23",
    "prefectureNumber": 23,
    "prefecture": "愛知県",
    "city": "碧南市",
    "town": "弥生町"
  },
  "4470815": {
    "zipcode": "4470815",
    "prefectureCode": "23",
    "prefectureNumber": 23,
    "prefecture": "愛知県",
    "city": "碧南市",
    "town": "棚尾本町"
  },
  "4470816": {
    "zipcode": "4470816",
    "prefectureCode": "23",
    "prefectureNumber": 23,
    "prefecture": "愛知県",
    "city": "碧南市",
    "town": "志貴崎町"
  },
  "4470817": {
    "zipcode": "4470817",
    "prefectureCode": "23",
    "prefectureNumber": 23,
    "prefecture": "愛知県",
    "city": "碧南市",
    "town": "川端町"
  },
  "4470818": {
    "zipcode": "4470818",
    "prefectureCode": "23",
    "prefectureNumber": 23,
    "prefecture": "愛知県",
    "city": "碧南市",
    "town": "若宮町"
  },
  "4470821": {
    "zipcode": "4470821",
    "prefectureCode": "23",
    "prefectureNumber": 23,
    "prefecture": "愛知県",
    "city": "碧南市",
    "town": "稲荷町"
  },
  "4470822": {
    "zipcode": "4470822",
    "prefectureCode": "23",
    "prefectureNumber": 23,
    "prefecture": "愛知県",
    "city": "碧南市",
    "town": "河方町"
  },
  "4470823": {
    "zipcode": "4470823",
    "prefectureCode": "23",
    "prefectureNumber": 23,
    "prefecture": "愛知県",
    "city": "碧南市",
    "town": "川口町"
  },
  "4470824": {
    "zipcode": "4470824",
    "prefectureCode": "23",
    "prefectureNumber": 23,
    "prefecture": "愛知県",
    "city": "碧南市",
    "town": "港南町"
  },
  "4470825": {
    "zipcode": "4470825",
    "prefectureCode": "23",
    "prefectureNumber": 23,
    "prefecture": "愛知県",
    "city": "碧南市",
    "town": "江口町"
  },
  "4470826": {
    "zipcode": "4470826",
    "prefectureCode": "23",
    "prefectureNumber": 23,
    "prefecture": "愛知県",
    "city": "碧南市",
    "town": "葭生町"
  },
  "4470827": {
    "zipcode": "4470827",
    "prefectureCode": "23",
    "prefectureNumber": 23,
    "prefecture": "愛知県",
    "city": "碧南市",
    "town": "前浜町"
  },
  "4470828": {
    "zipcode": "4470828",
    "prefectureCode": "23",
    "prefectureNumber": 23,
    "prefecture": "愛知県",
    "city": "碧南市",
    "town": "潮見町"
  },
  "4470829": {
    "zipcode": "4470829",
    "prefectureCode": "23",
    "prefectureNumber": 23,
    "prefecture": "愛知県",
    "city": "碧南市",
    "town": "中田町"
  },
  "4470831": {
    "zipcode": "4470831",
    "prefectureCode": "23",
    "prefectureNumber": 23,
    "prefecture": "愛知県",
    "city": "碧南市",
    "town": "入船町"
  },
  "4470832": {
    "zipcode": "4470832",
    "prefectureCode": "23",
    "prefectureNumber": 23,
    "prefecture": "愛知県",
    "city": "碧南市",
    "town": "岬町"
  },
  "4470833": {
    "zipcode": "4470833",
    "prefectureCode": "23",
    "prefectureNumber": 23,
    "prefecture": "愛知県",
    "city": "碧南市",
    "town": "権現町"
  },
  "4470834": {
    "zipcode": "4470834",
    "prefectureCode": "23",
    "prefectureNumber": 23,
    "prefecture": "愛知県",
    "city": "碧南市",
    "town": "玉津浦町"
  },
  "4470835": {
    "zipcode": "4470835",
    "prefectureCode": "23",
    "prefectureNumber": 23,
    "prefecture": "愛知県",
    "city": "碧南市",
    "town": "宮町"
  },
  "4470836": {
    "zipcode": "4470836",
    "prefectureCode": "23",
    "prefectureNumber": 23,
    "prefecture": "愛知県",
    "city": "碧南市",
    "town": "若松町"
  },
  "4470837": {
    "zipcode": "4470837",
    "prefectureCode": "23",
    "prefectureNumber": 23,
    "prefecture": "愛知県",
    "city": "碧南市",
    "town": "伊勢町"
  },
  "4470838": {
    "zipcode": "4470838",
    "prefectureCode": "23",
    "prefectureNumber": 23,
    "prefecture": "愛知県",
    "city": "碧南市",
    "town": "権田町"
  },
  "4470841": {
    "zipcode": "4470841",
    "prefectureCode": "23",
    "prefectureNumber": 23,
    "prefecture": "愛知県",
    "city": "碧南市",
    "town": "塩浜町"
  },
  "4470842": {
    "zipcode": "4470842",
    "prefectureCode": "23",
    "prefectureNumber": 23,
    "prefecture": "愛知県",
    "city": "碧南市",
    "town": "浜田町"
  },
  "4470843": {
    "zipcode": "4470843",
    "prefectureCode": "23",
    "prefectureNumber": 23,
    "prefecture": "愛知県",
    "city": "碧南市",
    "town": "西浜町"
  },
  "4470844": {
    "zipcode": "4470844",
    "prefectureCode": "23",
    "prefectureNumber": 23,
    "prefecture": "愛知県",
    "city": "碧南市",
    "town": "港本町"
  },
  "4470845": {
    "zipcode": "4470845",
    "prefectureCode": "23",
    "prefectureNumber": 23,
    "prefecture": "愛知県",
    "city": "碧南市",
    "town": "浜寺町"
  },
  "4470846": {
    "zipcode": "4470846",
    "prefectureCode": "23",
    "prefectureNumber": 23,
    "prefecture": "愛知県",
    "city": "碧南市",
    "town": "中町"
  },
  "4470847": {
    "zipcode": "4470847",
    "prefectureCode": "23",
    "prefectureNumber": 23,
    "prefecture": "愛知県",
    "city": "碧南市",
    "town": "音羽町"
  },
  "4470848": {
    "zipcode": "4470848",
    "prefectureCode": "23",
    "prefectureNumber": 23,
    "prefecture": "愛知県",
    "city": "碧南市",
    "town": "錦町"
  },
  "4470849": {
    "zipcode": "4470849",
    "prefectureCode": "23",
    "prefectureNumber": 23,
    "prefecture": "愛知県",
    "city": "碧南市",
    "town": "築山町"
  },
  "4470851": {
    "zipcode": "4470851",
    "prefectureCode": "23",
    "prefectureNumber": 23,
    "prefecture": "愛知県",
    "city": "碧南市",
    "town": "羽根町"
  },
  "4470852": {
    "zipcode": "4470852",
    "prefectureCode": "23",
    "prefectureNumber": 23,
    "prefecture": "愛知県",
    "city": "碧南市",
    "town": "本郷町"
  },
  "4470853": {
    "zipcode": "4470853",
    "prefectureCode": "23",
    "prefectureNumber": 23,
    "prefecture": "愛知県",
    "city": "碧南市",
    "town": "浜町"
  },
  "4470854": {
    "zipcode": "4470854",
    "prefectureCode": "23",
    "prefectureNumber": 23,
    "prefecture": "愛知県",
    "city": "碧南市",
    "town": "須磨町"
  },
  "4470855": {
    "zipcode": "4470855",
    "prefectureCode": "23",
    "prefectureNumber": 23,
    "prefecture": "愛知県",
    "city": "碧南市",
    "town": "天王町"
  },
  "4470856": {
    "zipcode": "4470856",
    "prefectureCode": "23",
    "prefectureNumber": 23,
    "prefecture": "愛知県",
    "city": "碧南市",
    "town": "宮後町"
  },
  "4470857": {
    "zipcode": "4470857",
    "prefectureCode": "23",
    "prefectureNumber": 23,
    "prefecture": "愛知県",
    "city": "碧南市",
    "town": "大浜上町"
  },
  "4470858": {
    "zipcode": "4470858",
    "prefectureCode": "23",
    "prefectureNumber": 23,
    "prefecture": "愛知県",
    "city": "碧南市",
    "town": "石橋町"
  },
  "4470859": {
    "zipcode": "4470859",
    "prefectureCode": "23",
    "prefectureNumber": 23,
    "prefecture": "愛知県",
    "city": "碧南市",
    "town": "中松町"
  },
  "4470861": {
    "zipcode": "4470861",
    "prefectureCode": "23",
    "prefectureNumber": 23,
    "prefecture": "愛知県",
    "city": "碧南市",
    "town": "六軒町"
  },
  "4470862": {
    "zipcode": "4470862",
    "prefectureCode": "23",
    "prefectureNumber": 23,
    "prefecture": "愛知県",
    "city": "碧南市",
    "town": "相生町"
  },
  "4470863": {
    "zipcode": "4470863",
    "prefectureCode": "23",
    "prefectureNumber": 23,
    "prefecture": "愛知県",
    "city": "碧南市",
    "town": "新川町"
  },
  "4470864": {
    "zipcode": "4470864",
    "prefectureCode": "23",
    "prefectureNumber": 23,
    "prefecture": "愛知県",
    "city": "碧南市",
    "town": "道場山町"
  },
  "4470865": {
    "zipcode": "4470865",
    "prefectureCode": "23",
    "prefectureNumber": 23,
    "prefecture": "愛知県",
    "city": "碧南市",
    "town": "浅間町"
  },
  "4470866": {
    "zipcode": "4470866",
    "prefectureCode": "23",
    "prefectureNumber": 23,
    "prefecture": "愛知県",
    "city": "碧南市",
    "town": "明石町"
  },
  "4470867": {
    "zipcode": "4470867",
    "prefectureCode": "23",
    "prefectureNumber": 23,
    "prefecture": "愛知県",
    "city": "碧南市",
    "town": "田尻町"
  },
  "4470868": {
    "zipcode": "4470868",
    "prefectureCode": "23",
    "prefectureNumber": 23,
    "prefecture": "愛知県",
    "city": "碧南市",
    "town": "松江町"
  },
  "4470869": {
    "zipcode": "4470869",
    "prefectureCode": "23",
    "prefectureNumber": 23,
    "prefecture": "愛知県",
    "city": "碧南市",
    "town": "山神町"
  },
  "4470871": {
    "zipcode": "4470871",
    "prefectureCode": "23",
    "prefectureNumber": 23,
    "prefecture": "愛知県",
    "city": "碧南市",
    "town": "向陽町"
  },
  "4470872": {
    "zipcode": "4470872",
    "prefectureCode": "23",
    "prefectureNumber": 23,
    "prefecture": "愛知県",
    "city": "碧南市",
    "town": "源氏神明町"
  },
  "4470873": {
    "zipcode": "4470873",
    "prefectureCode": "23",
    "prefectureNumber": 23,
    "prefecture": "愛知県",
    "city": "碧南市",
    "town": "栗山町"
  },
  "4470874": {
    "zipcode": "4470874",
    "prefectureCode": "23",
    "prefectureNumber": 23,
    "prefecture": "愛知県",
    "city": "碧南市",
    "town": "作塚町"
  },
  "4470875": {
    "zipcode": "4470875",
    "prefectureCode": "23",
    "prefectureNumber": 23,
    "prefecture": "愛知県",
    "city": "碧南市",
    "town": "善明町"
  },
  "4470876": {
    "zipcode": "4470876",
    "prefectureCode": "23",
    "prefectureNumber": 23,
    "prefecture": "愛知県",
    "city": "碧南市",
    "town": "野田町"
  },
  "4470877": {
    "zipcode": "4470877",
    "prefectureCode": "23",
    "prefectureNumber": 23,
    "prefecture": "愛知県",
    "city": "碧南市",
    "town": "栄町"
  },
  "4470878": {
    "zipcode": "4470878",
    "prefectureCode": "23",
    "prefectureNumber": 23,
    "prefecture": "愛知県",
    "city": "碧南市",
    "town": "松本町"
  },
  "4470879": {
    "zipcode": "4470879",
    "prefectureCode": "23",
    "prefectureNumber": 23,
    "prefecture": "愛知県",
    "city": "碧南市",
    "town": "沢渡町"
  },
  "4470881": {
    "zipcode": "4470881",
    "prefectureCode": "23",
    "prefectureNumber": 23,
    "prefecture": "愛知県",
    "city": "碧南市",
    "town": "霞浦町"
  },
  "4470882": {
    "zipcode": "4470882",
    "prefectureCode": "23",
    "prefectureNumber": 23,
    "prefecture": "愛知県",
    "city": "碧南市",
    "town": "日進町"
  },
  "4470883": {
    "zipcode": "4470883",
    "prefectureCode": "23",
    "prefectureNumber": 23,
    "prefecture": "愛知県",
    "city": "碧南市",
    "town": "下洲町"
  },
  "4470884": {
    "zipcode": "4470884",
    "prefectureCode": "23",
    "prefectureNumber": 23,
    "prefecture": "愛知県",
    "city": "碧南市",
    "town": "平七町"
  },
  "4470885": {
    "zipcode": "4470885",
    "prefectureCode": "23",
    "prefectureNumber": 23,
    "prefecture": "愛知県",
    "city": "碧南市",
    "town": "志貴町"
  },
  "4470886": {
    "zipcode": "4470886",
    "prefectureCode": "23",
    "prefectureNumber": 23,
    "prefecture": "愛知県",
    "city": "碧南市",
    "town": "源氏町"
  },
  "4470887": {
    "zipcode": "4470887",
    "prefectureCode": "23",
    "prefectureNumber": 23,
    "prefecture": "愛知県",
    "city": "碧南市",
    "town": "汐田町"
  },
  "4470888": {
    "zipcode": "4470888",
    "prefectureCode": "23",
    "prefectureNumber": 23,
    "prefecture": "愛知県",
    "city": "碧南市",
    "town": "春日町"
  },
  "4470889": {
    "zipcode": "4470889",
    "prefectureCode": "23",
    "prefectureNumber": 23,
    "prefecture": "愛知県",
    "city": "碧南市",
    "town": "東浦町"
  }
}
