{
  "4480000": {
    "zipcode": "4480000",
    "prefectureCode": "23",
    "prefectureNumber": 23,
    "prefecture": "愛知県",
    "city": "刈谷市",
    "town": "以下に掲載がない場合"
  },
  "4480001": {
    "zipcode": "4480001",
    "prefectureCode": "23",
    "prefectureNumber": 23,
    "prefecture": "愛知県",
    "city": "刈谷市",
    "town": "井ケ谷町"
  },
  "4480002": {
    "zipcode": "4480002",
    "prefectureCode": "23",
    "prefectureNumber": 23,
    "prefecture": "愛知県",
    "city": "刈谷市",
    "town": "一里山町"
  },
  "4480003": {
    "zipcode": "4480003",
    "prefectureCode": "23",
    "prefectureNumber": 23,
    "prefecture": "愛知県",
    "city": "刈谷市",
    "town": "一ツ木町"
  },
  "4480004": {
    "zipcode": "4480004",
    "prefectureCode": "23",
    "prefectureNumber": 23,
    "prefecture": "愛知県",
    "city": "刈谷市",
    "town": "泉田町"
  },
  "4480005": {
    "zipcode": "4480005",
    "prefectureCode": "23",
    "prefectureNumber": 23,
    "prefecture": "愛知県",
    "city": "刈谷市",
    "town": "今川町"
  },
  "4480006": {
    "zipcode": "4480006",
    "prefectureCode": "23",
    "prefectureNumber": 23,
    "prefecture": "愛知県",
    "city": "刈谷市",
    "town": "西境町"
  },
  "4480007": {
    "zipcode": "4480007",
    "prefectureCode": "23",
    "prefectureNumber": 23,
    "prefecture": "愛知県",
    "city": "刈谷市",
    "town": "東境町"
  },
  "4480008": {
    "zipcode": "4480008",
    "prefectureCode": "23",
    "prefectureNumber": 23,
    "prefecture": "愛知県",
    "city": "刈谷市",
    "town": "今岡町"
  },
  "4480011": {
    "zipcode": "4480011",
    "prefectureCode": "23",
    "prefectureNumber": 23,
    "prefecture": "愛知県",
    "city": "刈谷市",
    "town": "築地町"
  },
  "4480012": {
    "zipcode": "4480012",
    "prefectureCode": "23",
    "prefectureNumber": 23,
    "prefecture": "愛知県",
    "city": "刈谷市",
    "town": "上重原町"
  },
  "4480013": {
    "zipcode": "4480013",
    "prefectureCode": "23",
    "prefectureNumber": 23,
    "prefecture": "愛知県",
    "city": "刈谷市",
    "town": "恩田町"
  },
  "4480014": {
    "zipcode": "4480014",
    "prefectureCode": "23",
    "prefectureNumber": 23,
    "prefecture": "愛知県",
    "city": "刈谷市",
    "town": "青山町"
  },
  "4480015": {
    "zipcode": "4480015",
    "prefectureCode": "23",
    "prefectureNumber": 23,
    "prefecture": "愛知県",
    "city": "刈谷市",
    "town": "新田町"
  },
  "4480021": {
    "zipcode": "4480021",
    "prefectureCode": "23",
    "prefectureNumber": 23,
    "prefecture": "愛知県",
    "city": "刈谷市",
    "town": "八軒町"
  },
  "4480022": {
    "zipcode": "4480022",
    "prefectureCode": "23",
    "prefectureNumber": 23,
    "prefecture": "愛知県",
    "city": "刈谷市",
    "town": "一色町"
  },
  "4480023": {
    "zipcode": "4480023",
    "prefectureCode": "23",
    "prefectureNumber": 23,
    "prefecture": "愛知県",
    "city": "刈谷市",
    "town": "重原本町"
  },
  "4480024": {
    "zipcode": "4480024",
    "prefectureCode": "23",
    "prefectureNumber": 23,
    "prefecture": "愛知県",
    "city": "刈谷市",
    "town": "下重原町"
  },
  "4480025": {
    "zipcode": "4480025",
    "prefectureCode": "23",
    "prefectureNumber": 23,
    "prefecture": "愛知県",
    "city": "刈谷市",
    "town": "幸町"
  },
  "4480026": {
    "zipcode": "4480026",
    "prefectureCode": "23",
    "prefectureNumber": 23,
    "prefecture": "愛知県",
    "city": "刈谷市",
    "town": "中山町"
  },
  "4480027": {
    "zipcode": "4480027",
    "prefectureCode": "23",
    "prefectureNumber": 23,
    "prefecture": "愛知県",
    "city": "刈谷市",
    "town": "相生町"
  },
  "4480028": {
    "zipcode": "4480028",
    "prefectureCode": "23",
    "prefectureNumber": 23,
    "prefecture": "愛知県",
    "city": "刈谷市",
    "town": "桜町"
  },
  "4480029": {
    "zipcode": "4480029",
    "prefectureCode": "23",
    "prefectureNumber": 23,
    "prefecture": "愛知県",
    "city": "刈谷市",
    "town": "昭和町"
  },
  "4480031": {
    "zipcode": "4480031",
    "prefectureCode": "23",
    "prefectureNumber": 23,
    "prefecture": "愛知県",
    "city": "刈谷市",
    "town": "東新町"
  },
  "4480032": {
    "zipcode": "4480032",
    "prefectureCode": "23",
    "prefectureNumber": 23,
    "prefecture": "愛知県",
    "city": "刈谷市",
    "town": "朝日町"
  },
  "4480033": {
    "zipcode": "4480033",
    "prefectureCode": "23",
    "prefectureNumber": 23,
    "prefecture": "愛知県",
    "city": "刈谷市",
    "town": "丸田町"
  },
  "4480034": {
    "zipcode": "4480034",
    "prefectureCode": "23",
    "prefectureNumber": 23,
    "prefecture": "愛知県",
    "city": "刈谷市",
    "town": "神明町"
  },
  "4480035": {
    "zipcode": "4480035",
    "prefectureCode": "23",
    "prefectureNumber": 23,
    "prefecture": "愛知県",
    "city": "刈谷市",
    "town": "矢場町"
  },
  "4480036": {
    "zipcode": "4480036",
    "prefectureCode": "23",
    "prefectureNumber": 23,
    "prefecture": "愛知県",
    "city": "刈谷市",
    "town": "山池町"
  },
  "4480037": {
    "zipcode": "4480037",
    "prefectureCode": "23",
    "prefectureNumber": 23,
    "prefecture": "愛知県",
    "city": "刈谷市",
    "town": "高倉町"
  },
  "4480038": {
    "zipcode": "4480038",
    "prefectureCode": "23",
    "prefectureNumber": 23,
    "prefecture": "愛知県",
    "city": "刈谷市",
    "town": "稲場町"
  },
  "4480039": {
    "zipcode": "4480039",
    "prefectureCode": "23",
    "prefectureNumber": 23,
    "prefecture": "愛知県",
    "city": "刈谷市",
    "town": "原崎町"
  },
  "4480041": {
    "zipcode": "4480041",
    "prefectureCode": "23",
    "prefectureNumber": 23,
    "prefecture": "愛知県",
    "city": "刈谷市",
    "town": "一番町"
  },
  "4480042": {
    "zipcode": "4480042",
    "prefectureCode": "23",
    "prefectureNumber": 23,
    "prefecture": "愛知県",
    "city": "刈谷市",
    "town": "広見町"
  },
  "4480043": {
    "zipcode": "4480043",
    "prefectureCode": "23",
    "prefectureNumber": 23,
    "prefecture": "愛知県",
    "city": "刈谷市",
    "town": "小山町"
  },
  "4480044": {
    "zipcode": "4480044",
    "prefectureCode": "23",
    "prefectureNumber": 23,
    "prefecture": "愛知県",
    "city": "刈谷市",
    "town": "池田町"
  },
  "4480045": {
    "zipcode": "4480045",
    "prefectureCode": "23",
    "prefectureNumber": 23,
    "prefecture": "愛知県",
    "city": "刈谷市",
    "town": "新富町"
  },
  "4480046": {
    "zipcode": "4480046",
    "prefectureCode": "23",
    "prefectureNumber": 23,
    "prefecture": "愛知県",
    "city": "刈谷市",
    "town": "日高町"
  },
  "4480047": {
    "zipcode": "4480047",
    "prefectureCode": "23",
    "prefectureNumber": 23,
    "prefecture": "愛知県",
    "city": "刈谷市",
    "town": "高津波町"
  },
  "4480048": {
    "zipcode": "4480048",
    "prefectureCode": "23",
    "prefectureNumber": 23,
    "prefecture": "愛知県",
    "city": "刈谷市",
    "town": "三田町"
  },
  "4480049": {
    "zipcode": "4480049",
    "prefectureCode": "23",
    "prefectureNumber": 23,
    "prefecture": "愛知県",
    "city": "刈谷市",
    "town": "中手町"
  },
  "4480801": {
    "zipcode": "4480801",
    "prefectureCode": "23",
    "prefectureNumber": 23,
    "prefecture": "愛知県",
    "city": "刈谷市",
    "town": "板倉町"
  },
  "4480802": {
    "zipcode": "4480802",
    "prefectureCode": "23",
    "prefectureNumber": 23,
    "prefecture": "愛知県",
    "city": "刈谷市",
    "town": "末広町"
  },
  "4480803": {
    "zipcode": "4480803",
    "prefectureCode": "23",
    "prefectureNumber": 23,
    "prefecture": "愛知県",
    "city": "刈谷市",
    "town": "野田町"
  },
  "4480804": {
    "zipcode": "4480804",
    "prefectureCode": "23",
    "prefectureNumber": 23,
    "prefecture": "愛知県",
    "city": "刈谷市",
    "town": "半城土町"
  },
  "4480805": {
    "zipcode": "4480805",
    "prefectureCode": "23",
    "prefectureNumber": 23,
    "prefecture": "愛知県",
    "city": "刈谷市",
    "town": "半城土中町"
  },
  "4480806": {
    "zipcode": "4480806",
    "prefectureCode": "23",
    "prefectureNumber": 23,
    "prefecture": "愛知県",
    "city": "刈谷市",
    "town": "松栄町"
  },
  "4480807": {
    "zipcode": "4480807",
    "prefectureCode": "23",
    "prefectureNumber": 23,
    "prefecture": "愛知県",
    "city": "刈谷市",
    "town": "東刈谷町"
  },
  "4480808": {
    "zipcode": "4480808",
    "prefectureCode": "23",
    "prefectureNumber": 23,
    "prefecture": "愛知県",
    "city": "刈谷市",
    "town": "沖野町"
  },
  "4480809": {
    "zipcode": "4480809",
    "prefectureCode": "23",
    "prefectureNumber": 23,
    "prefecture": "愛知県",
    "city": "刈谷市",
    "town": "南沖野町"
  },
  "4480810": {
    "zipcode": "4480810",
    "prefectureCode": "23",
    "prefectureNumber": 23,
    "prefecture": "愛知県",
    "city": "刈谷市",
    "town": "場割町"
  },
  "4480811": {
    "zipcode": "4480811",
    "prefectureCode": "23",
    "prefectureNumber": 23,
    "prefecture": "愛知県",
    "city": "刈谷市",
    "town": "田町"
  },
  "4480812": {
    "zipcode": "4480812",
    "prefectureCode": "23",
    "prefectureNumber": 23,
    "prefecture": "愛知県",
    "city": "刈谷市",
    "town": "高須町"
  },
  "4480813": {
    "zipcode": "4480813",
    "prefectureCode": "23",
    "prefectureNumber": 23,
    "prefecture": "愛知県",
    "city": "刈谷市",
    "town": "小垣江町"
  },
  "4480814": {
    "zipcode": "4480814",
    "prefectureCode": "23",
    "prefectureNumber": 23,
    "prefecture": "愛知県",
    "city": "刈谷市",
    "town": "荒井町"
  },
  "4480815": {
    "zipcode": "4480815",
    "prefectureCode": "23",
    "prefectureNumber": 23,
    "prefecture": "愛知県",
    "city": "刈谷市",
    "town": "中島町"
  },
  "4480816": {
    "zipcode": "4480816",
    "prefectureCode": "23",
    "prefectureNumber": 23,
    "prefecture": "愛知県",
    "city": "刈谷市",
    "town": "半城土西町"
  },
  "4480821": {
    "zipcode": "4480821",
    "prefectureCode": "23",
    "prefectureNumber": 23,
    "prefecture": "愛知県",
    "city": "刈谷市",
    "town": "御幸町"
  },
  "4480822": {
    "zipcode": "4480822",
    "prefectureCode": "23",
    "prefectureNumber": 23,
    "prefecture": "愛知県",
    "city": "刈谷市",
    "town": "松坂町"
  },
  "4480823": {
    "zipcode": "4480823",
    "prefectureCode": "23",
    "prefectureNumber": 23,
    "prefecture": "愛知県",
    "city": "刈谷市",
    "town": "中川町"
  },
  "4480824": {
    "zipcode": "4480824",
    "prefectureCode": "23",
    "prefectureNumber": 23,
    "prefecture": "愛知県",
    "city": "刈谷市",
    "town": "天王町"
  },
  "4480825": {
    "zipcode": "4480825",
    "prefectureCode": "23",
    "prefectureNumber": 23,
    "prefecture": "愛知県",
    "city": "刈谷市",
    "town": "元町"
  },
  "4480831": {
    "zipcode": "4480831",
    "prefectureCode": "23",
    "prefectureNumber": 23,
    "prefecture": "愛知県",
    "city": "刈谷市",
    "town": "熊野町"
  },
  "4480832": {
    "zipcode": "4480832",
    "prefectureCode": "23",
    "prefectureNumber": 23,
    "prefecture": "愛知県",
    "city": "刈谷市",
    "town": "八幡町"
  },
  "4480833": {
    "zipcode": "4480833",
    "prefectureCode": "23",
    "prefectureNumber": 23,
    "prefecture": "愛知県",
    "city": "刈谷市",
    "town": "城町"
  },
  "4480834": {
    "zipcode": "4480834",
    "prefectureCode": "23",
    "prefectureNumber": 23,
    "prefecture": "愛知県",
    "city": "刈谷市",
    "town": "司町"
  },
  "4480835": {
    "zipcode": "4480835",
    "prefectureCode": "23",
    "prefectureNumber": 23,
    "prefecture": "愛知県",
    "city": "刈谷市",
    "town": "港町"
  },
  "4480836": {
    "zipcode": "4480836",
    "prefectureCode": "23",
    "prefectureNumber": 23,
    "prefecture": "愛知県",
    "city": "刈谷市",
    "town": "浜町"
  },
  "4480837": {
    "zipcode": "4480837",
    "prefectureCode": "23",
    "prefectureNumber": 23,
    "prefecture": "愛知県",
    "city": "刈谷市",
    "town": "衣崎町"
  },
  "4480838": {
    "zipcode": "4480838",
    "prefectureCode": "23",
    "prefectureNumber": 23,
    "prefecture": "愛知県",
    "city": "刈谷市",
    "town": "逢妻町"
  },
  "4480841": {
    "zipcode": "4480841",
    "prefectureCode": "23",
    "prefectureNumber": 23,
    "prefecture": "愛知県",
    "city": "刈谷市",
    "town": "南桜町"
  },
  "4480842": {
    "zipcode": "4480842",
    "prefectureCode": "23",
    "prefectureNumber": 23,
    "prefecture": "愛知県",
    "city": "刈谷市",
    "town": "東陽町"
  },
  "4480843": {
    "zipcode": "4480843",
    "prefectureCode": "23",
    "prefectureNumber": 23,
    "prefecture": "愛知県",
    "city": "刈谷市",
    "town": "新栄町"
  },
  "4480844": {
    "zipcode": "4480844",
    "prefectureCode": "23",
    "prefectureNumber": 23,
    "prefecture": "愛知県",
    "city": "刈谷市",
    "town": "広小路"
  },
  "4480845": {
    "zipcode": "4480845",
    "prefectureCode": "23",
    "prefectureNumber": 23,
    "prefecture": "愛知県",
    "city": "刈谷市",
    "town": "銀座"
  },
  "4480846": {
    "zipcode": "4480846",
    "prefectureCode": "23",
    "prefectureNumber": 23,
    "prefecture": "愛知県",
    "city": "刈谷市",
    "town": "寺横町"
  },
  "4480847": {
    "zipcode": "4480847",
    "prefectureCode": "23",
    "prefectureNumber": 23,
    "prefecture": "愛知県",
    "city": "刈谷市",
    "town": "宝町"
  },
  "4480848": {
    "zipcode": "4480848",
    "prefectureCode": "23",
    "prefectureNumber": 23,
    "prefecture": "愛知県",
    "city": "刈谷市",
    "town": "豊田町"
  },
  "4480851": {
    "zipcode": "4480851",
    "prefectureCode": "23",
    "prefectureNumber": 23,
    "prefecture": "愛知県",
    "city": "刈谷市",
    "town": "神田町"
  },
  "4480852": {
    "zipcode": "4480852",
    "prefectureCode": "23",
    "prefectureNumber": 23,
    "prefecture": "愛知県",
    "city": "刈谷市",
    "town": "住吉町"
  },
  "4480853": {
    "zipcode": "4480853",
    "prefectureCode": "23",
    "prefectureNumber": 23,
    "prefecture": "愛知県",
    "city": "刈谷市",
    "town": "高松町"
  },
  "4480854": {
    "zipcode": "4480854",
    "prefectureCode": "23",
    "prefectureNumber": 23,
    "prefecture": "愛知県",
    "city": "刈谷市",
    "town": "富士見町"
  },
  "4480855": {
    "zipcode": "4480855",
    "prefectureCode": "23",
    "prefectureNumber": 23,
    "prefecture": "愛知県",
    "city": "刈谷市",
    "town": "大正町"
  },
  "4480856": {
    "zipcode": "4480856",
    "prefectureCode": "23",
    "prefectureNumber": 23,
    "prefecture": "愛知県",
    "city": "刈谷市",
    "town": "寿町"
  },
  "4480857": {
    "zipcode": "4480857",
    "prefectureCode": "23",
    "prefectureNumber": 23,
    "prefecture": "愛知県",
    "city": "刈谷市",
    "town": "大手町"
  },
  "4480858": {
    "zipcode": "4480858",
    "prefectureCode": "23",
    "prefectureNumber": 23,
    "prefecture": "愛知県",
    "city": "刈谷市",
    "town": "若松町"
  },
  "4480861": {
    "zipcode": "4480861",
    "prefectureCode": "23",
    "prefectureNumber": 23,
    "prefecture": "愛知県",
    "city": "刈谷市",
    "town": "半城土北町"
  },
  "4480862": {
    "zipcode": "4480862",
    "prefectureCode": "23",
    "prefectureNumber": 23,
    "prefecture": "愛知県",
    "city": "刈谷市",
    "town": "野田新町"
  }
}
