{
  "4490200": {
    "zipcode": "4490200",
    "prefectureCode": "23",
    "prefectureNumber": 23,
    "prefecture": "愛知県",
    "city": "北設楽郡東栄町",
    "town": "以下に掲載がない場合"
  },
  "4490201": {
    "zipcode": "4490201",
    "prefectureCode": "23",
    "prefectureNumber": 23,
    "prefecture": "愛知県",
    "city": "北設楽郡東栄町",
    "town": "御園"
  },
  "4490202": {
    "zipcode": "4490202",
    "prefectureCode": "23",
    "prefectureNumber": 23,
    "prefecture": "愛知県",
    "city": "北設楽郡東栄町",
    "town": "足込"
  },
  "4490203": {
    "zipcode": "4490203",
    "prefectureCode": "23",
    "prefectureNumber": 23,
    "prefecture": "愛知県",
    "city": "北設楽郡東栄町",
    "town": "東薗目"
  },
  "4490204": {
    "zipcode": "4490204",
    "prefectureCode": "23",
    "prefectureNumber": 23,
    "prefecture": "愛知県",
    "city": "北設楽郡東栄町",
    "town": "西薗目"
  },
  "4490205": {
    "zipcode": "4490205",
    "prefectureCode": "23",
    "prefectureNumber": 23,
    "prefecture": "愛知県",
    "city": "北設楽郡東栄町",
    "town": "川角"
  },
  "4490206": {
    "zipcode": "4490206",
    "prefectureCode": "23",
    "prefectureNumber": 23,
    "prefecture": "愛知県",
    "city": "北設楽郡東栄町",
    "town": "下田"
  },
  "4490211": {
    "zipcode": "4490211",
    "prefectureCode": "23",
    "prefectureNumber": 23,
    "prefecture": "愛知県",
    "city": "北設楽郡東栄町",
    "town": "中設楽"
  },
  "4490212": {
    "zipcode": "4490212",
    "prefectureCode": "23",
    "prefectureNumber": 23,
    "prefecture": "愛知県",
    "city": "北設楽郡東栄町",
    "town": "月"
  },
  "4490213": {
    "zipcode": "4490213",
    "prefectureCode": "23",
    "prefectureNumber": 23,
    "prefecture": "愛知県",
    "city": "北設楽郡東栄町",
    "town": "振草"
  },
  "4490214": {
    "zipcode": "4490214",
    "prefectureCode": "23",
    "prefectureNumber": 23,
    "prefecture": "愛知県",
    "city": "北設楽郡東栄町",
    "town": "本郷"
  },
  "4490215": {
    "zipcode": "4490215",
    "prefectureCode": "23",
    "prefectureNumber": 23,
    "prefecture": "愛知県",
    "city": "北設楽郡東栄町",
    "town": "奈根"
  },
  "4490216": {
    "zipcode": "4490216",
    "prefectureCode": "23",
    "prefectureNumber": 23,
    "prefecture": "愛知県",
    "city": "北設楽郡東栄町",
    "town": "三輪"
  },
  "4490400": {
    "zipcode": "4490400",
    "prefectureCode": "23",
    "prefectureNumber": 23,
    "prefecture": "愛知県",
    "city": "北設楽郡豊根村",
    "town": "以下に掲載がない場合"
  },
  "4490401": {
    "zipcode": "4490401",
    "prefectureCode": "23",
    "prefectureNumber": 23,
    "prefecture": "愛知県",
    "city": "北設楽郡豊根村",
    "town": "三沢"
  },
  "4490402": {
    "zipcode": "4490402",
    "prefectureCode": "23",
    "prefectureNumber": 23,
    "prefecture": "愛知県",
    "city": "北設楽郡豊根村",
    "town": "古真立"
  },
  "4490403": {
    "zipcode": "4490403",
    "prefectureCode": "23",
    "prefectureNumber": 23,
    "prefecture": "愛知県",
    "city": "北設楽郡豊根村",
    "town": "下黒川"
  },
  "4490404": {
    "zipcode": "4490404",
    "prefectureCode": "23",
    "prefectureNumber": 23,
    "prefecture": "愛知県",
    "city": "北設楽郡豊根村",
    "town": "上黒川"
  },
  "4490405": {
    "zipcode": "4490405",
    "prefectureCode": "23",
    "prefectureNumber": 23,
    "prefecture": "愛知県",
    "city": "北設楽郡豊根村",
    "town": "坂宇場"
  }
}
