{
  "4510000": {
    "zipcode": "4510000",
    "prefectureCode": "23",
    "prefectureNumber": 23,
    "prefecture": "愛知県",
    "city": "名古屋市西区",
    "town": "以下に掲載がない場合"
  },
  "4510011": {
    "zipcode": "4510011",
    "prefectureCode": "23",
    "prefectureNumber": 23,
    "prefecture": "愛知県",
    "city": "名古屋市西区",
    "town": "桝形町"
  },
  "4510012": {
    "zipcode": "4510012",
    "prefectureCode": "23",
    "prefectureNumber": 23,
    "prefecture": "愛知県",
    "city": "名古屋市西区",
    "town": "稲生町"
  },
  "4510013": {
    "zipcode": "4510013",
    "prefectureCode": "23",
    "prefectureNumber": 23,
    "prefecture": "愛知県",
    "city": "名古屋市西区",
    "town": "江向町"
  },
  "4510014": {
    "zipcode": "4510014",
    "prefectureCode": "23",
    "prefectureNumber": 23,
    "prefecture": "愛知県",
    "city": "名古屋市西区",
    "town": "又穂町"
  },
  "4510015": {
    "zipcode": "4510015",
    "prefectureCode": "23",
    "prefectureNumber": 23,
    "prefecture": "愛知県",
    "city": "名古屋市西区",
    "town": "香呑町"
  },
  "4510016": {
    "zipcode": "4510016",
    "prefectureCode": "23",
    "prefectureNumber": 23,
    "prefecture": "愛知県",
    "city": "名古屋市西区",
    "town": "庄内通"
  },
  "4510021": {
    "zipcode": "4510021",
    "prefectureCode": "23",
    "prefectureNumber": 23,
    "prefecture": "愛知県",
    "city": "名古屋市西区",
    "town": "天塚町"
  },
  "4510022": {
    "zipcode": "4510022",
    "prefectureCode": "23",
    "prefectureNumber": 23,
    "prefecture": "愛知県",
    "city": "名古屋市西区",
    "town": "貝田町"
  },
  "4510023": {
    "zipcode": "4510023",
    "prefectureCode": "23",
    "prefectureNumber": 23,
    "prefecture": "愛知県",
    "city": "名古屋市西区",
    "town": "城北町"
  },
  "4510024": {
    "zipcode": "4510024",
    "prefectureCode": "23",
    "prefectureNumber": 23,
    "prefecture": "愛知県",
    "city": "名古屋市西区",
    "town": "秩父通"
  },
  "4510025": {
    "zipcode": "4510025",
    "prefectureCode": "23",
    "prefectureNumber": 23,
    "prefecture": "愛知県",
    "city": "名古屋市西区",
    "town": "上名古屋"
  },
  "4510026": {
    "zipcode": "4510026",
    "prefectureCode": "23",
    "prefectureNumber": 23,
    "prefecture": "愛知県",
    "city": "名古屋市西区",
    "town": "田幡町"
  },
  "4510027": {
    "zipcode": "4510027",
    "prefectureCode": "23",
    "prefectureNumber": 23,
    "prefecture": "愛知県",
    "city": "名古屋市西区",
    "town": "西志賀町"
  },
  "4510031": {
    "zipcode": "4510031",
    "prefectureCode": "23",
    "prefectureNumber": 23,
    "prefecture": "愛知県",
    "city": "名古屋市西区",
    "town": "城西"
  },
  "4510032": {
    "zipcode": "4510032",
    "prefectureCode": "23",
    "prefectureNumber": 23,
    "prefecture": "愛知県",
    "city": "名古屋市西区",
    "town": "数寄屋町"
  },
  "4510033": {
    "zipcode": "4510033",
    "prefectureCode": "23",
    "prefectureNumber": 23,
    "prefecture": "愛知県",
    "city": "名古屋市西区",
    "town": "堀端町"
  },
  "4510034": {
    "zipcode": "4510034",
    "prefectureCode": "23",
    "prefectureNumber": 23,
    "prefecture": "愛知県",
    "city": "名古屋市西区",
    "town": "樋の口町"
  },
  "4510035": {
    "zipcode": "4510035",
    "prefectureCode": "23",
    "prefectureNumber": 23,
    "prefecture": "愛知県",
    "city": "名古屋市西区",
    "town": "浅間"
  },
  "4510041": {
    "zipcode": "4510041",
    "prefectureCode": "23",
    "prefectureNumber": 23,
    "prefecture": "愛知県",
    "city": "名古屋市西区",
    "town": "幅下"
  },
  "4510042": {
    "zipcode": "4510042",
    "prefectureCode": "23",
    "prefectureNumber": 23,
    "prefecture": "愛知県",
    "city": "名古屋市西区",
    "town": "那古野"
  },
  "4510043": {
    "zipcode": "4510043",
    "prefectureCode": "23",
    "prefectureNumber": 23,
    "prefecture": "愛知県",
    "city": "名古屋市西区",
    "town": "新道"
  },
  "4510044": {
    "zipcode": "4510044",
    "prefectureCode": "23",
    "prefectureNumber": 23,
    "prefecture": "愛知県",
    "city": "名古屋市西区",
    "town": "菊井"
  },
  "4510045": {
    "zipcode": "4510045",
    "prefectureCode": "23",
    "prefectureNumber": 23,
    "prefecture": "愛知県",
    "city": "名古屋市西区",
    "town": "名駅"
  },
  "4510046": {
    "zipcode": "4510046",
    "prefectureCode": "23",
    "prefectureNumber": 23,
    "prefecture": "愛知県",
    "city": "名古屋市西区",
    "town": "牛島町（次のビルを除く）"
  },
  "4510051": {
    "zipcode": "4510051",
    "prefectureCode": "23",
    "prefectureNumber": 23,
    "prefecture": "愛知県",
    "city": "名古屋市西区",
    "town": "則武新町"
  },
  "4510052": {
    "zipcode": "4510052",
    "prefectureCode": "23",
    "prefectureNumber": 23,
    "prefecture": "愛知県",
    "city": "名古屋市西区",
    "town": "栄生"
  },
  "4510053": {
    "zipcode": "4510053",
    "prefectureCode": "23",
    "prefectureNumber": 23,
    "prefecture": "愛知県",
    "city": "名古屋市西区",
    "town": "枇杷島"
  },
  "4510054": {
    "zipcode": "4510054",
    "prefectureCode": "23",
    "prefectureNumber": 23,
    "prefecture": "愛知県",
    "city": "名古屋市西区",
    "town": "南堀越"
  },
  "4510055": {
    "zipcode": "4510055",
    "prefectureCode": "23",
    "prefectureNumber": 23,
    "prefecture": "愛知県",
    "city": "名古屋市西区",
    "town": "堀越"
  },
  "4510061": {
    "zipcode": "4510061",
    "prefectureCode": "23",
    "prefectureNumber": 23,
    "prefecture": "愛知県",
    "city": "名古屋市西区",
    "town": "浄心"
  },
  "4510062": {
    "zipcode": "4510062",
    "prefectureCode": "23",
    "prefectureNumber": 23,
    "prefecture": "愛知県",
    "city": "名古屋市西区",
    "town": "花の木"
  },
  "4510063": {
    "zipcode": "4510063",
    "prefectureCode": "23",
    "prefectureNumber": 23,
    "prefecture": "愛知県",
    "city": "名古屋市西区",
    "town": "押切"
  },
  "4510064": {
    "zipcode": "4510064",
    "prefectureCode": "23",
    "prefectureNumber": 23,
    "prefecture": "愛知県",
    "city": "名古屋市西区",
    "town": "名西"
  },
  "4510065": {
    "zipcode": "4510065",
    "prefectureCode": "23",
    "prefectureNumber": 23,
    "prefecture": "愛知県",
    "city": "名古屋市西区",
    "town": "天神山町"
  },
  "4510066": {
    "zipcode": "4510066",
    "prefectureCode": "23",
    "prefectureNumber": 23,
    "prefecture": "愛知県",
    "city": "名古屋市西区",
    "town": "児玉"
  },
  "4510071": {
    "zipcode": "4510071",
    "prefectureCode": "23",
    "prefectureNumber": 23,
    "prefecture": "愛知県",
    "city": "名古屋市西区",
    "town": "鳥見町"
  },
  "4510072": {
    "zipcode": "4510072",
    "prefectureCode": "23",
    "prefectureNumber": 23,
    "prefecture": "愛知県",
    "city": "名古屋市西区",
    "town": "笠取町"
  },
  "4510073": {
    "zipcode": "4510073",
    "prefectureCode": "23",
    "prefectureNumber": 23,
    "prefecture": "愛知県",
    "city": "名古屋市西区",
    "town": "浄心本通"
  },
  "4510074": {
    "zipcode": "4510074",
    "prefectureCode": "23",
    "prefectureNumber": 23,
    "prefecture": "愛知県",
    "city": "名古屋市西区",
    "town": "万代町"
  },
  "4510075": {
    "zipcode": "4510075",
    "prefectureCode": "23",
    "prefectureNumber": 23,
    "prefecture": "愛知県",
    "city": "名古屋市西区",
    "town": "康生通"
  },
  "4510076": {
    "zipcode": "4510076",
    "prefectureCode": "23",
    "prefectureNumber": 23,
    "prefecture": "愛知県",
    "city": "名古屋市西区",
    "town": "東岸町"
  },
  "4510077": {
    "zipcode": "4510077",
    "prefectureCode": "23",
    "prefectureNumber": 23,
    "prefecture": "愛知県",
    "city": "名古屋市西区",
    "town": "笹塚町"
  },
  "4510081": {
    "zipcode": "4510081",
    "prefectureCode": "23",
    "prefectureNumber": 23,
    "prefecture": "愛知県",
    "city": "名古屋市西区",
    "town": "名塚町"
  },
  "4510082": {
    "zipcode": "4510082",
    "prefectureCode": "23",
    "prefectureNumber": 23,
    "prefecture": "愛知県",
    "city": "名古屋市西区",
    "town": "大金町"
  },
  "4510083": {
    "zipcode": "4510083",
    "prefectureCode": "23",
    "prefectureNumber": 23,
    "prefecture": "愛知県",
    "city": "名古屋市西区",
    "town": "新福寺町"
  },
  "4510084": {
    "zipcode": "4510084",
    "prefectureCode": "23",
    "prefectureNumber": 23,
    "prefecture": "愛知県",
    "city": "名古屋市西区",
    "town": "上堀越町"
  },
  "4516001": {
    "zipcode": "4516001",
    "prefectureCode": "23",
    "prefectureNumber": 23,
    "prefecture": "愛知県",
    "city": "名古屋市西区",
    "town": "牛島町名古屋ルーセントタワー（１階）"
  },
  "4516002": {
    "zipcode": "4516002",
    "prefectureCode": "23",
    "prefectureNumber": 23,
    "prefecture": "愛知県",
    "city": "名古屋市西区",
    "town": "牛島町名古屋ルーセントタワー（２階）"
  },
  "4516003": {
    "zipcode": "4516003",
    "prefectureCode": "23",
    "prefectureNumber": 23,
    "prefecture": "愛知県",
    "city": "名古屋市西区",
    "town": "牛島町名古屋ルーセントタワー（３階）"
  },
  "4516004": {
    "zipcode": "4516004",
    "prefectureCode": "23",
    "prefectureNumber": 23,
    "prefecture": "愛知県",
    "city": "名古屋市西区",
    "town": "牛島町名古屋ルーセントタワー（４階）"
  },
  "4516005": {
    "zipcode": "4516005",
    "prefectureCode": "23",
    "prefectureNumber": 23,
    "prefecture": "愛知県",
    "city": "名古屋市西区",
    "town": "牛島町名古屋ルーセントタワー（５階）"
  },
  "4516006": {
    "zipcode": "4516006",
    "prefectureCode": "23",
    "prefectureNumber": 23,
    "prefecture": "愛知県",
    "city": "名古屋市西区",
    "town": "牛島町名古屋ルーセントタワー（６階）"
  },
  "4516007": {
    "zipcode": "4516007",
    "prefectureCode": "23",
    "prefectureNumber": 23,
    "prefecture": "愛知県",
    "city": "名古屋市西区",
    "town": "牛島町名古屋ルーセントタワー（７階）"
  },
  "4516008": {
    "zipcode": "4516008",
    "prefectureCode": "23",
    "prefectureNumber": 23,
    "prefecture": "愛知県",
    "city": "名古屋市西区",
    "town": "牛島町名古屋ルーセントタワー（８階）"
  },
  "4516009": {
    "zipcode": "4516009",
    "prefectureCode": "23",
    "prefectureNumber": 23,
    "prefecture": "愛知県",
    "city": "名古屋市西区",
    "town": "牛島町名古屋ルーセントタワー（９階）"
  },
  "4516010": {
    "zipcode": "4516010",
    "prefectureCode": "23",
    "prefectureNumber": 23,
    "prefecture": "愛知県",
    "city": "名古屋市西区",
    "town": "牛島町名古屋ルーセントタワー（１０階）"
  },
  "4516011": {
    "zipcode": "4516011",
    "prefectureCode": "23",
    "prefectureNumber": 23,
    "prefecture": "愛知県",
    "city": "名古屋市西区",
    "town": "牛島町名古屋ルーセントタワー（１１階）"
  },
  "4516012": {
    "zipcode": "4516012",
    "prefectureCode": "23",
    "prefectureNumber": 23,
    "prefecture": "愛知県",
    "city": "名古屋市西区",
    "town": "牛島町名古屋ルーセントタワー（１２階）"
  },
  "4516013": {
    "zipcode": "4516013",
    "prefectureCode": "23",
    "prefectureNumber": 23,
    "prefecture": "愛知県",
    "city": "名古屋市西区",
    "town": "牛島町名古屋ルーセントタワー（１３階）"
  },
  "4516014": {
    "zipcode": "4516014",
    "prefectureCode": "23",
    "prefectureNumber": 23,
    "prefecture": "愛知県",
    "city": "名古屋市西区",
    "town": "牛島町名古屋ルーセントタワー（１４階）"
  },
  "4516015": {
    "zipcode": "4516015",
    "prefectureCode": "23",
    "prefectureNumber": 23,
    "prefecture": "愛知県",
    "city": "名古屋市西区",
    "town": "牛島町名古屋ルーセントタワー（１５階）"
  },
  "4516016": {
    "zipcode": "4516016",
    "prefectureCode": "23",
    "prefectureNumber": 23,
    "prefecture": "愛知県",
    "city": "名古屋市西区",
    "town": "牛島町名古屋ルーセントタワー（１６階）"
  },
  "4516017": {
    "zipcode": "4516017",
    "prefectureCode": "23",
    "prefectureNumber": 23,
    "prefecture": "愛知県",
    "city": "名古屋市西区",
    "town": "牛島町名古屋ルーセントタワー（１７階）"
  },
  "4516018": {
    "zipcode": "4516018",
    "prefectureCode": "23",
    "prefectureNumber": 23,
    "prefecture": "愛知県",
    "city": "名古屋市西区",
    "town": "牛島町名古屋ルーセントタワー（１８階）"
  },
  "4516019": {
    "zipcode": "4516019",
    "prefectureCode": "23",
    "prefectureNumber": 23,
    "prefecture": "愛知県",
    "city": "名古屋市西区",
    "town": "牛島町名古屋ルーセントタワー（１９階）"
  },
  "4516020": {
    "zipcode": "4516020",
    "prefectureCode": "23",
    "prefectureNumber": 23,
    "prefecture": "愛知県",
    "city": "名古屋市西区",
    "town": "牛島町名古屋ルーセントタワー（２０階）"
  },
  "4516021": {
    "zipcode": "4516021",
    "prefectureCode": "23",
    "prefectureNumber": 23,
    "prefecture": "愛知県",
    "city": "名古屋市西区",
    "town": "牛島町名古屋ルーセントタワー（２１階）"
  },
  "4516022": {
    "zipcode": "4516022",
    "prefectureCode": "23",
    "prefectureNumber": 23,
    "prefecture": "愛知県",
    "city": "名古屋市西区",
    "town": "牛島町名古屋ルーセントタワー（２２階）"
  },
  "4516023": {
    "zipcode": "4516023",
    "prefectureCode": "23",
    "prefectureNumber": 23,
    "prefecture": "愛知県",
    "city": "名古屋市西区",
    "town": "牛島町名古屋ルーセントタワー（２３階）"
  },
  "4516024": {
    "zipcode": "4516024",
    "prefectureCode": "23",
    "prefectureNumber": 23,
    "prefecture": "愛知県",
    "city": "名古屋市西区",
    "town": "牛島町名古屋ルーセントタワー（２４階）"
  },
  "4516025": {
    "zipcode": "4516025",
    "prefectureCode": "23",
    "prefectureNumber": 23,
    "prefecture": "愛知県",
    "city": "名古屋市西区",
    "town": "牛島町名古屋ルーセントタワー（２５階）"
  },
  "4516026": {
    "zipcode": "4516026",
    "prefectureCode": "23",
    "prefectureNumber": 23,
    "prefecture": "愛知県",
    "city": "名古屋市西区",
    "town": "牛島町名古屋ルーセントタワー（２６階）"
  },
  "4516027": {
    "zipcode": "4516027",
    "prefectureCode": "23",
    "prefectureNumber": 23,
    "prefecture": "愛知県",
    "city": "名古屋市西区",
    "town": "牛島町名古屋ルーセントタワー（２７階）"
  },
  "4516028": {
    "zipcode": "4516028",
    "prefectureCode": "23",
    "prefectureNumber": 23,
    "prefecture": "愛知県",
    "city": "名古屋市西区",
    "town": "牛島町名古屋ルーセントタワー（２８階）"
  },
  "4516029": {
    "zipcode": "4516029",
    "prefectureCode": "23",
    "prefectureNumber": 23,
    "prefecture": "愛知県",
    "city": "名古屋市西区",
    "town": "牛島町名古屋ルーセントタワー（２９階）"
  },
  "4516030": {
    "zipcode": "4516030",
    "prefectureCode": "23",
    "prefectureNumber": 23,
    "prefecture": "愛知県",
    "city": "名古屋市西区",
    "town": "牛島町名古屋ルーセントタワー（３０階）"
  },
  "4516031": {
    "zipcode": "4516031",
    "prefectureCode": "23",
    "prefectureNumber": 23,
    "prefecture": "愛知県",
    "city": "名古屋市西区",
    "town": "牛島町名古屋ルーセントタワー（３１階）"
  },
  "4516032": {
    "zipcode": "4516032",
    "prefectureCode": "23",
    "prefectureNumber": 23,
    "prefecture": "愛知県",
    "city": "名古屋市西区",
    "town": "牛島町名古屋ルーセントタワー（３２階）"
  },
  "4516033": {
    "zipcode": "4516033",
    "prefectureCode": "23",
    "prefectureNumber": 23,
    "prefecture": "愛知県",
    "city": "名古屋市西区",
    "town": "牛島町名古屋ルーセントタワー（３３階）"
  },
  "4516034": {
    "zipcode": "4516034",
    "prefectureCode": "23",
    "prefectureNumber": 23,
    "prefecture": "愛知県",
    "city": "名古屋市西区",
    "town": "牛島町名古屋ルーセントタワー（３４階）"
  },
  "4516035": {
    "zipcode": "4516035",
    "prefectureCode": "23",
    "prefectureNumber": 23,
    "prefecture": "愛知県",
    "city": "名古屋市西区",
    "town": "牛島町名古屋ルーセントタワー（３５階）"
  },
  "4516036": {
    "zipcode": "4516036",
    "prefectureCode": "23",
    "prefectureNumber": 23,
    "prefecture": "愛知県",
    "city": "名古屋市西区",
    "town": "牛島町名古屋ルーセントタワー（３６階）"
  },
  "4516037": {
    "zipcode": "4516037",
    "prefectureCode": "23",
    "prefectureNumber": 23,
    "prefecture": "愛知県",
    "city": "名古屋市西区",
    "town": "牛島町名古屋ルーセントタワー（３７階）"
  },
  "4516038": {
    "zipcode": "4516038",
    "prefectureCode": "23",
    "prefectureNumber": 23,
    "prefecture": "愛知県",
    "city": "名古屋市西区",
    "town": "牛島町名古屋ルーセントタワー（３８階）"
  },
  "4516039": {
    "zipcode": "4516039",
    "prefectureCode": "23",
    "prefectureNumber": 23,
    "prefecture": "愛知県",
    "city": "名古屋市西区",
    "town": "牛島町名古屋ルーセントタワー（３９階）"
  },
  "4516040": {
    "zipcode": "4516040",
    "prefectureCode": "23",
    "prefectureNumber": 23,
    "prefecture": "愛知県",
    "city": "名古屋市西区",
    "town": "牛島町名古屋ルーセントタワー（４０階）"
  },
  "4516090": {
    "zipcode": "4516090",
    "prefectureCode": "23",
    "prefectureNumber": 23,
    "prefecture": "愛知県",
    "city": "名古屋市西区",
    "town": "牛島町名古屋ルーセントタワー（地階・階層不明）"
  }
}
