{
  "4520000": {
    "zipcode": "4520000",
    "prefectureCode": "23",
    "prefectureNumber": 23,
    "prefecture": "愛知県",
    "city": "清須市",
    "town": "以下に掲載がない場合"
  },
  "4520001": {
    "zipcode": "4520001",
    "prefectureCode": "23",
    "prefectureNumber": 23,
    "prefecture": "愛知県",
    "city": "清須市",
    "town": "西枇杷島町古城"
  },
  "4520002": {
    "zipcode": "4520002",
    "prefectureCode": "23",
    "prefectureNumber": 23,
    "prefecture": "愛知県",
    "city": "清須市",
    "town": "西枇杷島町花咲"
  },
  "4520003": {
    "zipcode": "4520003",
    "prefectureCode": "23",
    "prefectureNumber": 23,
    "prefecture": "愛知県",
    "city": "清須市",
    "town": "西枇杷島町末広"
  },
  "4520004": {
    "zipcode": "4520004",
    "prefectureCode": "23",
    "prefectureNumber": 23,
    "prefecture": "愛知県",
    "city": "清須市",
    "town": "西枇杷島町大黒"
  },
  "4520005": {
    "zipcode": "4520005",
    "prefectureCode": "23",
    "prefectureNumber": 23,
    "prefecture": "愛知県",
    "city": "清須市",
    "town": "西枇杷島町恵比須"
  },
  "4520006": {
    "zipcode": "4520006",
    "prefectureCode": "23",
    "prefectureNumber": 23,
    "prefecture": "愛知県",
    "city": "清須市",
    "town": "西枇杷島町弁天"
  },
  "4520007": {
    "zipcode": "4520007",
    "prefectureCode": "23",
    "prefectureNumber": 23,
    "prefecture": "愛知県",
    "city": "清須市",
    "town": "西枇杷島町一反五畝割"
  },
  "4520008": {
    "zipcode": "4520008",
    "prefectureCode": "23",
    "prefectureNumber": 23,
    "prefecture": "愛知県",
    "city": "清須市",
    "town": "西枇杷島町地領"
  },
  "4520009": {
    "zipcode": "4520009",
    "prefectureCode": "23",
    "prefectureNumber": 23,
    "prefecture": "愛知県",
    "city": "清須市",
    "town": "西枇杷島町西八丁"
  },
  "4520010": {
    "zipcode": "4520010",
    "prefectureCode": "23",
    "prefectureNumber": 23,
    "prefecture": "愛知県",
    "city": "清須市",
    "town": "西枇杷島町稲株"
  },
  "4520011": {
    "zipcode": "4520011",
    "prefectureCode": "23",
    "prefectureNumber": 23,
    "prefecture": "愛知県",
    "city": "清須市",
    "town": "西枇杷島町城並"
  },
  "4520012": {
    "zipcode": "4520012",
    "prefectureCode": "23",
    "prefectureNumber": 23,
    "prefecture": "愛知県",
    "city": "清須市",
    "town": "西枇杷島町北大和"
  },
  "4520013": {
    "zipcode": "4520013",
    "prefectureCode": "23",
    "prefectureNumber": 23,
    "prefecture": "愛知県",
    "city": "清須市",
    "town": "西枇杷島町南大和"
  },
  "4520014": {
    "zipcode": "4520014",
    "prefectureCode": "23",
    "prefectureNumber": 23,
    "prefecture": "愛知県",
    "city": "清須市",
    "town": "西枇杷島町押花"
  },
  "4520015": {
    "zipcode": "4520015",
    "prefectureCode": "23",
    "prefectureNumber": 23,
    "prefecture": "愛知県",
    "city": "清須市",
    "town": "西枇杷島町泉"
  },
  "4520016": {
    "zipcode": "4520016",
    "prefectureCode": "23",
    "prefectureNumber": 23,
    "prefecture": "愛知県",
    "city": "清須市",
    "town": "西枇杷島町砂入"
  },
  "4520017": {
    "zipcode": "4520017",
    "prefectureCode": "23",
    "prefectureNumber": 23,
    "prefecture": "愛知県",
    "city": "清須市",
    "town": "西枇杷島町下砂入"
  },
  "4520018": {
    "zipcode": "4520018",
    "prefectureCode": "23",
    "prefectureNumber": 23,
    "prefecture": "愛知県",
    "city": "清須市",
    "town": "西枇杷島町住吉"
  },
  "4520021": {
    "zipcode": "4520021",
    "prefectureCode": "23",
    "prefectureNumber": 23,
    "prefecture": "愛知県",
    "city": "清須市",
    "town": "西枇杷島町小田井"
  },
  "4520022": {
    "zipcode": "4520022",
    "prefectureCode": "23",
    "prefectureNumber": 23,
    "prefecture": "愛知県",
    "city": "清須市",
    "town": "西枇杷島町上新"
  },
  "4520023": {
    "zipcode": "4520023",
    "prefectureCode": "23",
    "prefectureNumber": 23,
    "prefecture": "愛知県",
    "city": "清須市",
    "town": "西枇杷島町下新"
  },
  "4520024": {
    "zipcode": "4520024",
    "prefectureCode": "23",
    "prefectureNumber": 23,
    "prefecture": "愛知県",
    "city": "清須市",
    "town": "西枇杷島町片町"
  },
  "4520025": {
    "zipcode": "4520025",
    "prefectureCode": "23",
    "prefectureNumber": 23,
    "prefecture": "愛知県",
    "city": "清須市",
    "town": "西枇杷島町十軒裏"
  },
  "4520026": {
    "zipcode": "4520026",
    "prefectureCode": "23",
    "prefectureNumber": 23,
    "prefecture": "愛知県",
    "city": "清須市",
    "town": "西枇杷島町橋詰"
  },
  "4520031": {
    "zipcode": "4520031",
    "prefectureCode": "23",
    "prefectureNumber": 23,
    "prefecture": "愛知県",
    "city": "清須市",
    "town": "西枇杷島町宮前"
  },
  "4520032": {
    "zipcode": "4520032",
    "prefectureCode": "23",
    "prefectureNumber": 23,
    "prefecture": "愛知県",
    "city": "清須市",
    "town": "西枇杷島町養和"
  },
  "4520033": {
    "zipcode": "4520033",
    "prefectureCode": "23",
    "prefectureNumber": 23,
    "prefecture": "愛知県",
    "city": "清須市",
    "town": "西枇杷島町二見"
  },
  "4520034": {
    "zipcode": "4520034",
    "prefectureCode": "23",
    "prefectureNumber": 23,
    "prefecture": "愛知県",
    "city": "清須市",
    "town": "西枇杷島町日の出"
  },
  "4520035": {
    "zipcode": "4520035",
    "prefectureCode": "23",
    "prefectureNumber": 23,
    "prefecture": "愛知県",
    "city": "清須市",
    "town": "西枇杷島町問屋"
  },
  "4520036": {
    "zipcode": "4520036",
    "prefectureCode": "23",
    "prefectureNumber": 23,
    "prefecture": "愛知県",
    "city": "清須市",
    "town": "西枇杷島町南問屋"
  },
  "4520037": {
    "zipcode": "4520037",
    "prefectureCode": "23",
    "prefectureNumber": 23,
    "prefecture": "愛知県",
    "city": "清須市",
    "town": "枇杷島駅前東"
  },
  "4520041": {
    "zipcode": "4520041",
    "prefectureCode": "23",
    "prefectureNumber": 23,
    "prefecture": "愛知県",
    "city": "清須市",
    "town": "西枇杷島町小野田"
  },
  "4520042": {
    "zipcode": "4520042",
    "prefectureCode": "23",
    "prefectureNumber": 23,
    "prefecture": "愛知県",
    "city": "清須市",
    "town": "西枇杷島町川口"
  },
  "4520043": {
    "zipcode": "4520043",
    "prefectureCode": "23",
    "prefectureNumber": 23,
    "prefecture": "愛知県",
    "city": "清須市",
    "town": "西枇杷島町東六軒"
  },
  "4520044": {
    "zipcode": "4520044",
    "prefectureCode": "23",
    "prefectureNumber": 23,
    "prefecture": "愛知県",
    "city": "清須市",
    "town": "西枇杷島町南六軒"
  },
  "4520045": {
    "zipcode": "4520045",
    "prefectureCode": "23",
    "prefectureNumber": 23,
    "prefecture": "愛知県",
    "city": "清須市",
    "town": "西枇杷島町西六軒"
  },
  "4520046": {
    "zipcode": "4520046",
    "prefectureCode": "23",
    "prefectureNumber": 23,
    "prefecture": "愛知県",
    "city": "清須市",
    "town": "西枇杷島町西笹子原"
  },
  "4520047": {
    "zipcode": "4520047",
    "prefectureCode": "23",
    "prefectureNumber": 23,
    "prefecture": "愛知県",
    "city": "清須市",
    "town": "西枇杷島町東笹子原"
  },
  "4520051": {
    "zipcode": "4520051",
    "prefectureCode": "23",
    "prefectureNumber": 23,
    "prefecture": "愛知県",
    "city": "清須市",
    "town": "西枇杷島町大野"
  },
  "4520052": {
    "zipcode": "4520052",
    "prefectureCode": "23",
    "prefectureNumber": 23,
    "prefecture": "愛知県",
    "city": "清須市",
    "town": "西枇杷島町辰新田"
  },
  "4520053": {
    "zipcode": "4520053",
    "prefectureCode": "23",
    "prefectureNumber": 23,
    "prefecture": "愛知県",
    "city": "清須市",
    "town": "西枇杷島町南松原"
  },
  "4520054": {
    "zipcode": "4520054",
    "prefectureCode": "23",
    "prefectureNumber": 23,
    "prefecture": "愛知県",
    "city": "清須市",
    "town": "西枇杷島町南二ツ杁"
  },
  "4520055": {
    "zipcode": "4520055",
    "prefectureCode": "23",
    "prefectureNumber": 23,
    "prefecture": "愛知県",
    "city": "清須市",
    "town": "西枇杷島町北二ツ杁"
  },
  "4520061": {
    "zipcode": "4520061",
    "prefectureCode": "23",
    "prefectureNumber": 23,
    "prefecture": "愛知県",
    "city": "清須市",
    "town": "西枇杷島町小場塚"
  },
  "4520062": {
    "zipcode": "4520062",
    "prefectureCode": "23",
    "prefectureNumber": 23,
    "prefecture": "愛知県",
    "city": "清須市",
    "town": "西枇杷島町五畝割"
  },
  "4520063": {
    "zipcode": "4520063",
    "prefectureCode": "23",
    "prefectureNumber": 23,
    "prefecture": "愛知県",
    "city": "清須市",
    "town": "西枇杷島町七畝割"
  },
  "4520064": {
    "zipcode": "4520064",
    "prefectureCode": "23",
    "prefectureNumber": 23,
    "prefecture": "愛知県",
    "city": "清須市",
    "town": "西枇杷島町旭"
  },
  "4520065": {
    "zipcode": "4520065",
    "prefectureCode": "23",
    "prefectureNumber": 23,
    "prefecture": "愛知県",
    "city": "清須市",
    "town": "西枇杷島町芳野"
  },
  "4520066": {
    "zipcode": "4520066",
    "prefectureCode": "23",
    "prefectureNumber": 23,
    "prefecture": "愛知県",
    "city": "清須市",
    "town": "西枇杷島町芝野新田"
  },
  "4520067": {
    "zipcode": "4520067",
    "prefectureCode": "23",
    "prefectureNumber": 23,
    "prefecture": "愛知県",
    "city": "清須市",
    "town": "西枇杷島町替地"
  },
  "4520068": {
    "zipcode": "4520068",
    "prefectureCode": "23",
    "prefectureNumber": 23,
    "prefecture": "愛知県",
    "city": "清須市",
    "town": "西枇杷島町子新田"
  },
  "4520801": {
    "zipcode": "4520801",
    "prefectureCode": "23",
    "prefectureNumber": 23,
    "prefecture": "愛知県",
    "city": "名古屋市西区",
    "town": "清里町"
  },
  "4520802": {
    "zipcode": "4520802",
    "prefectureCode": "23",
    "prefectureNumber": 23,
    "prefecture": "愛知県",
    "city": "名古屋市西区",
    "town": "比良"
  },
  "4520803": {
    "zipcode": "4520803",
    "prefectureCode": "23",
    "prefectureNumber": 23,
    "prefecture": "愛知県",
    "city": "名古屋市西区",
    "town": "大野木"
  },
  "4520804": {
    "zipcode": "4520804",
    "prefectureCode": "23",
    "prefectureNumber": 23,
    "prefecture": "愛知県",
    "city": "名古屋市西区",
    "town": "坂井戸町"
  },
  "4520805": {
    "zipcode": "4520805",
    "prefectureCode": "23",
    "prefectureNumber": 23,
    "prefecture": "愛知県",
    "city": "名古屋市西区",
    "town": "市場木町"
  },
  "4520806": {
    "zipcode": "4520806",
    "prefectureCode": "23",
    "prefectureNumber": 23,
    "prefecture": "愛知県",
    "city": "名古屋市西区",
    "town": "五才美町"
  },
  "4520807": {
    "zipcode": "4520807",
    "prefectureCode": "23",
    "prefectureNumber": 23,
    "prefecture": "愛知県",
    "city": "名古屋市西区",
    "town": "歌里町"
  },
  "4520808": {
    "zipcode": "4520808",
    "prefectureCode": "23",
    "prefectureNumber": 23,
    "prefecture": "愛知県",
    "city": "名古屋市西区",
    "town": "宝地町"
  },
  "4520809": {
    "zipcode": "4520809",
    "prefectureCode": "23",
    "prefectureNumber": 23,
    "prefecture": "愛知県",
    "city": "名古屋市西区",
    "town": "花原町"
  },
  "4520811": {
    "zipcode": "4520811",
    "prefectureCode": "23",
    "prefectureNumber": 23,
    "prefecture": "愛知県",
    "city": "名古屋市西区",
    "town": "砂原町"
  },
  "4520812": {
    "zipcode": "4520812",
    "prefectureCode": "23",
    "prefectureNumber": 23,
    "prefecture": "愛知県",
    "city": "名古屋市西区",
    "town": "玉池町"
  },
  "4520813": {
    "zipcode": "4520813",
    "prefectureCode": "23",
    "prefectureNumber": 23,
    "prefecture": "愛知県",
    "city": "名古屋市西区",
    "town": "赤城町"
  },
  "4520814": {
    "zipcode": "4520814",
    "prefectureCode": "23",
    "prefectureNumber": 23,
    "prefecture": "愛知県",
    "city": "名古屋市西区",
    "town": "南川町"
  },
  "4520815": {
    "zipcode": "4520815",
    "prefectureCode": "23",
    "prefectureNumber": 23,
    "prefecture": "愛知県",
    "city": "名古屋市西区",
    "town": "八筋町"
  },
  "4520816": {
    "zipcode": "4520816",
    "prefectureCode": "23",
    "prefectureNumber": 23,
    "prefecture": "愛知県",
    "city": "名古屋市西区",
    "town": "貴生町"
  },
  "4520817": {
    "zipcode": "4520817",
    "prefectureCode": "23",
    "prefectureNumber": 23,
    "prefecture": "愛知県",
    "city": "名古屋市西区",
    "town": "二方町"
  },
  "4520818": {
    "zipcode": "4520818",
    "prefectureCode": "23",
    "prefectureNumber": 23,
    "prefecture": "愛知県",
    "city": "名古屋市西区",
    "town": "山田町"
  },
  "4520821": {
    "zipcode": "4520821",
    "prefectureCode": "23",
    "prefectureNumber": 23,
    "prefecture": "愛知県",
    "city": "名古屋市西区",
    "town": "上小田井"
  },
  "4520822": {
    "zipcode": "4520822",
    "prefectureCode": "23",
    "prefectureNumber": 23,
    "prefecture": "愛知県",
    "city": "名古屋市西区",
    "town": "中小田井"
  },
  "4520823": {
    "zipcode": "4520823",
    "prefectureCode": "23",
    "prefectureNumber": 23,
    "prefecture": "愛知県",
    "city": "名古屋市西区",
    "town": "あし原町"
  },
  "4520824": {
    "zipcode": "4520824",
    "prefectureCode": "23",
    "prefectureNumber": 23,
    "prefecture": "愛知県",
    "city": "名古屋市西区",
    "town": "こも原町"
  },
  "4520831": {
    "zipcode": "4520831",
    "prefectureCode": "23",
    "prefectureNumber": 23,
    "prefecture": "愛知県",
    "city": "名古屋市西区",
    "town": "円明町"
  },
  "4520832": {
    "zipcode": "4520832",
    "prefectureCode": "23",
    "prefectureNumber": 23,
    "prefecture": "愛知県",
    "city": "名古屋市西区",
    "town": "平出町"
  },
  "4520833": {
    "zipcode": "4520833",
    "prefectureCode": "23",
    "prefectureNumber": 23,
    "prefecture": "愛知県",
    "city": "名古屋市西区",
    "town": "山木"
  },
  "4520834": {
    "zipcode": "4520834",
    "prefectureCode": "23",
    "prefectureNumber": 23,
    "prefecture": "愛知県",
    "city": "名古屋市西区",
    "town": "木前町"
  },
  "4520835": {
    "zipcode": "4520835",
    "prefectureCode": "23",
    "prefectureNumber": 23,
    "prefecture": "愛知県",
    "city": "名古屋市西区",
    "town": "丸野"
  },
  "4520836": {
    "zipcode": "4520836",
    "prefectureCode": "23",
    "prefectureNumber": 23,
    "prefecture": "愛知県",
    "city": "名古屋市西区",
    "town": "新木町"
  },
  "4520837": {
    "zipcode": "4520837",
    "prefectureCode": "23",
    "prefectureNumber": 23,
    "prefecture": "愛知県",
    "city": "名古屋市西区",
    "town": "十方町"
  },
  "4520838": {
    "zipcode": "4520838",
    "prefectureCode": "23",
    "prefectureNumber": 23,
    "prefecture": "愛知県",
    "city": "名古屋市西区",
    "town": "長先町"
  },
  "4520839": {
    "zipcode": "4520839",
    "prefectureCode": "23",
    "prefectureNumber": 23,
    "prefecture": "愛知県",
    "city": "名古屋市西区",
    "town": "見寄町"
  },
  "4520841": {
    "zipcode": "4520841",
    "prefectureCode": "23",
    "prefectureNumber": 23,
    "prefecture": "愛知県",
    "city": "名古屋市西区",
    "town": "城西町"
  },
  "4520842": {
    "zipcode": "4520842",
    "prefectureCode": "23",
    "prefectureNumber": 23,
    "prefecture": "愛知県",
    "city": "名古屋市西区",
    "town": "城町"
  },
  "4520843": {
    "zipcode": "4520843",
    "prefectureCode": "23",
    "prefectureNumber": 23,
    "prefecture": "愛知県",
    "city": "名古屋市西区",
    "town": "平中町"
  },
  "4520844": {
    "zipcode": "4520844",
    "prefectureCode": "23",
    "prefectureNumber": 23,
    "prefecture": "愛知県",
    "city": "名古屋市西区",
    "town": "上橋町"
  },
  "4520845": {
    "zipcode": "4520845",
    "prefectureCode": "23",
    "prefectureNumber": 23,
    "prefecture": "愛知県",
    "city": "名古屋市西区",
    "town": "中沼町"
  },
  "4520846": {
    "zipcode": "4520846",
    "prefectureCode": "23",
    "prefectureNumber": 23,
    "prefecture": "愛知県",
    "city": "名古屋市西区",
    "town": "浮野町"
  },
  "4520847": {
    "zipcode": "4520847",
    "prefectureCode": "23",
    "prefectureNumber": 23,
    "prefecture": "愛知県",
    "city": "名古屋市西区",
    "town": "野南町"
  },
  "4520848": {
    "zipcode": "4520848",
    "prefectureCode": "23",
    "prefectureNumber": 23,
    "prefecture": "愛知県",
    "city": "名古屋市西区",
    "town": "西原町"
  },
  "4520901": {
    "zipcode": "4520901",
    "prefectureCode": "23",
    "prefectureNumber": 23,
    "prefecture": "愛知県",
    "city": "清須市",
    "town": "阿原"
  },
  "4520902": {
    "zipcode": "4520902",
    "prefectureCode": "23",
    "prefectureNumber": 23,
    "prefecture": "愛知県",
    "city": "清須市",
    "town": "助七（その他）"
  },
  "4520903": {
    "zipcode": "4520903",
    "prefectureCode": "23",
    "prefectureNumber": 23,
    "prefecture": "愛知県",
    "city": "清須市",
    "town": "助七（１、２丁目）"
  },
  "4520904": {
    "zipcode": "4520904",
    "prefectureCode": "23",
    "prefectureNumber": 23,
    "prefecture": "愛知県",
    "city": "清須市",
    "town": "東須ケ口"
  },
  "4520905": {
    "zipcode": "4520905",
    "prefectureCode": "23",
    "prefectureNumber": 23,
    "prefecture": "愛知県",
    "city": "清須市",
    "town": "須ケ口"
  },
  "4520906": {
    "zipcode": "4520906",
    "prefectureCode": "23",
    "prefectureNumber": 23,
    "prefecture": "愛知県",
    "city": "清須市",
    "town": "東外町"
  },
  "4520907": {
    "zipcode": "4520907",
    "prefectureCode": "23",
    "prefectureNumber": 23,
    "prefecture": "愛知県",
    "city": "清須市",
    "town": "鍋片"
  },
  "4520908": {
    "zipcode": "4520908",
    "prefectureCode": "23",
    "prefectureNumber": 23,
    "prefecture": "愛知県",
    "city": "清須市",
    "town": "寺野"
  },
  "4520911": {
    "zipcode": "4520911",
    "prefectureCode": "23",
    "prefectureNumber": 23,
    "prefecture": "愛知県",
    "city": "清須市",
    "town": "西須ケ口"
  },
  "4520912": {
    "zipcode": "4520912",
    "prefectureCode": "23",
    "prefectureNumber": 23,
    "prefecture": "愛知県",
    "city": "清須市",
    "town": "須ケ口駅前"
  },
  "4520913": {
    "zipcode": "4520913",
    "prefectureCode": "23",
    "prefectureNumber": 23,
    "prefecture": "愛知県",
    "city": "清須市",
    "town": "上河原"
  },
  "4520914": {
    "zipcode": "4520914",
    "prefectureCode": "23",
    "prefectureNumber": 23,
    "prefecture": "愛知県",
    "city": "清須市",
    "town": "土器野"
  },
  "4520915": {
    "zipcode": "4520915",
    "prefectureCode": "23",
    "prefectureNumber": 23,
    "prefecture": "愛知県",
    "city": "清須市",
    "town": "中河原"
  },
  "4520916": {
    "zipcode": "4520916",
    "prefectureCode": "23",
    "prefectureNumber": 23,
    "prefecture": "愛知県",
    "city": "清須市",
    "town": "下河原"
  },
  "4520917": {
    "zipcode": "4520917",
    "prefectureCode": "23",
    "prefectureNumber": 23,
    "prefecture": "愛知県",
    "city": "清須市",
    "town": "西堀江"
  },
  "4520918": {
    "zipcode": "4520918",
    "prefectureCode": "23",
    "prefectureNumber": 23,
    "prefecture": "愛知県",
    "city": "清須市",
    "town": "桃栄"
  },
  "4520919": {
    "zipcode": "4520919",
    "prefectureCode": "23",
    "prefectureNumber": 23,
    "prefecture": "愛知県",
    "city": "清須市",
    "town": "萩野"
  },
  "4520931": {
    "zipcode": "4520931",
    "prefectureCode": "23",
    "prefectureNumber": 23,
    "prefecture": "愛知県",
    "city": "清須市",
    "town": "一場"
  },
  "4520932": {
    "zipcode": "4520932",
    "prefectureCode": "23",
    "prefectureNumber": 23,
    "prefecture": "愛知県",
    "city": "清須市",
    "town": "朝日"
  },
  "4520933": {
    "zipcode": "4520933",
    "prefectureCode": "23",
    "prefectureNumber": 23,
    "prefecture": "愛知県",
    "city": "清須市",
    "town": "西田中"
  },
  "4520934": {
    "zipcode": "4520934",
    "prefectureCode": "23",
    "prefectureNumber": 23,
    "prefecture": "愛知県",
    "city": "清須市",
    "town": "大嶋"
  },
  "4520935": {
    "zipcode": "4520935",
    "prefectureCode": "23",
    "prefectureNumber": 23,
    "prefecture": "愛知県",
    "city": "清須市",
    "town": "北市場本町"
  },
  "4520941": {
    "zipcode": "4520941",
    "prefectureCode": "23",
    "prefectureNumber": 23,
    "prefecture": "愛知県",
    "city": "清須市",
    "town": "西市場"
  },
  "4520942": {
    "zipcode": "4520942",
    "prefectureCode": "23",
    "prefectureNumber": 23,
    "prefecture": "愛知県",
    "city": "清須市",
    "town": "清洲"
  },
  "4520943": {
    "zipcode": "4520943",
    "prefectureCode": "23",
    "prefectureNumber": 23,
    "prefecture": "愛知県",
    "city": "清須市",
    "town": "新清洲"
  },
  "4520944": {
    "zipcode": "4520944",
    "prefectureCode": "23",
    "prefectureNumber": 23,
    "prefecture": "愛知県",
    "city": "清須市",
    "town": "上条"
  },
  "4520945": {
    "zipcode": "4520945",
    "prefectureCode": "23",
    "prefectureNumber": 23,
    "prefecture": "愛知県",
    "city": "清須市",
    "town": "土田"
  },
  "4520946": {
    "zipcode": "4520946",
    "prefectureCode": "23",
    "prefectureNumber": 23,
    "prefecture": "愛知県",
    "city": "清須市",
    "town": "廻間"
  },
  "4520947": {
    "zipcode": "4520947",
    "prefectureCode": "23",
    "prefectureNumber": 23,
    "prefecture": "愛知県",
    "city": "清須市",
    "town": "花水木"
  },
  "4520961": {
    "zipcode": "4520961",
    "prefectureCode": "23",
    "prefectureNumber": 23,
    "prefecture": "愛知県",
    "city": "清須市",
    "town": "春日蓮花寺前"
  },
  "4520962": {
    "zipcode": "4520962",
    "prefectureCode": "23",
    "prefectureNumber": 23,
    "prefecture": "愛知県",
    "city": "清須市",
    "town": "春日焼田"
  },
  "4520963": {
    "zipcode": "4520963",
    "prefectureCode": "23",
    "prefectureNumber": 23,
    "prefecture": "愛知県",
    "city": "清須市",
    "town": "下津町"
  },
  "4520964": {
    "zipcode": "4520964",
    "prefectureCode": "23",
    "prefectureNumber": 23,
    "prefecture": "愛知県",
    "city": "清須市",
    "town": "春日さくら"
  }
}
