{
  "4530000": {
    "zipcode": "4530000",
    "prefectureCode": "23",
    "prefectureNumber": 23,
    "prefecture": "愛知県",
    "city": "名古屋市中村区",
    "town": "以下に掲載がない場合"
  },
  "4530002": {
    "zipcode": "4530002",
    "prefectureCode": "23",
    "prefectureNumber": 23,
    "prefecture": "愛知県",
    "city": "名古屋市中村区",
    "town": "名駅（１−１−８、１−１−１２、１−１−１３、１−１−１４、１−３−４、１−３−７）"
  },
  "4530011": {
    "zipcode": "4530011",
    "prefectureCode": "23",
    "prefectureNumber": 23,
    "prefecture": "愛知県",
    "city": "名古屋市中村区",
    "town": "千原町"
  },
  "4530012": {
    "zipcode": "4530012",
    "prefectureCode": "23",
    "prefectureNumber": 23,
    "prefecture": "愛知県",
    "city": "名古屋市中村区",
    "town": "井深町"
  },
  "4530013": {
    "zipcode": "4530013",
    "prefectureCode": "23",
    "prefectureNumber": 23,
    "prefecture": "愛知県",
    "city": "名古屋市中村区",
    "town": "亀島"
  },
  "4530014": {
    "zipcode": "4530014",
    "prefectureCode": "23",
    "prefectureNumber": 23,
    "prefecture": "愛知県",
    "city": "名古屋市中村区",
    "town": "則武"
  },
  "4530015": {
    "zipcode": "4530015",
    "prefectureCode": "23",
    "prefectureNumber": 23,
    "prefecture": "愛知県",
    "city": "名古屋市中村区",
    "town": "椿町"
  },
  "4530016": {
    "zipcode": "4530016",
    "prefectureCode": "23",
    "prefectureNumber": 23,
    "prefecture": "愛知県",
    "city": "名古屋市中村区",
    "town": "竹橋町"
  },
  "4530017": {
    "zipcode": "4530017",
    "prefectureCode": "23",
    "prefectureNumber": 23,
    "prefecture": "愛知県",
    "city": "名古屋市中村区",
    "town": "則武本通"
  },
  "4530018": {
    "zipcode": "4530018",
    "prefectureCode": "23",
    "prefectureNumber": 23,
    "prefecture": "愛知県",
    "city": "名古屋市中村区",
    "town": "佐古前町"
  },
  "4530021": {
    "zipcode": "4530021",
    "prefectureCode": "23",
    "prefectureNumber": 23,
    "prefecture": "愛知県",
    "city": "名古屋市中村区",
    "town": "松原町"
  },
  "4530022": {
    "zipcode": "4530022",
    "prefectureCode": "23",
    "prefectureNumber": 23,
    "prefecture": "愛知県",
    "city": "名古屋市中村区",
    "town": "中島町"
  },
  "4530023": {
    "zipcode": "4530023",
    "prefectureCode": "23",
    "prefectureNumber": 23,
    "prefecture": "愛知県",
    "city": "名古屋市中村区",
    "town": "若宮町"
  },
  "4530024": {
    "zipcode": "4530024",
    "prefectureCode": "23",
    "prefectureNumber": 23,
    "prefecture": "愛知県",
    "city": "名古屋市中村区",
    "town": "名楽町"
  },
  "4530025": {
    "zipcode": "4530025",
    "prefectureCode": "23",
    "prefectureNumber": 23,
    "prefecture": "愛知県",
    "city": "名古屋市中村区",
    "town": "賑町"
  },
  "4530026": {
    "zipcode": "4530026",
    "prefectureCode": "23",
    "prefectureNumber": 23,
    "prefecture": "愛知県",
    "city": "名古屋市中村区",
    "town": "羽衣町"
  },
  "4530027": {
    "zipcode": "4530027",
    "prefectureCode": "23",
    "prefectureNumber": 23,
    "prefecture": "愛知県",
    "city": "名古屋市中村区",
    "town": "大門町"
  },
  "4530028": {
    "zipcode": "4530028",
    "prefectureCode": "23",
    "prefectureNumber": 23,
    "prefecture": "愛知県",
    "city": "名古屋市中村区",
    "town": "寿町"
  },
  "4530029": {
    "zipcode": "4530029",
    "prefectureCode": "23",
    "prefectureNumber": 23,
    "prefecture": "愛知県",
    "city": "名古屋市中村区",
    "town": "日吉町"
  },
  "4530031": {
    "zipcode": "4530031",
    "prefectureCode": "23",
    "prefectureNumber": 23,
    "prefecture": "愛知県",
    "city": "名古屋市中村区",
    "town": "新富町"
  },
  "4530032": {
    "zipcode": "4530032",
    "prefectureCode": "23",
    "prefectureNumber": 23,
    "prefecture": "愛知県",
    "city": "名古屋市中村区",
    "town": "塩池町"
  },
  "4530033": {
    "zipcode": "4530033",
    "prefectureCode": "23",
    "prefectureNumber": 23,
    "prefecture": "愛知県",
    "city": "名古屋市中村区",
    "town": "栄生町"
  },
  "4530034": {
    "zipcode": "4530034",
    "prefectureCode": "23",
    "prefectureNumber": 23,
    "prefecture": "愛知県",
    "city": "名古屋市中村区",
    "town": "大日町"
  },
  "4530035": {
    "zipcode": "4530035",
    "prefectureCode": "23",
    "prefectureNumber": 23,
    "prefecture": "愛知県",
    "city": "名古屋市中村区",
    "town": "十王町"
  },
  "4530036": {
    "zipcode": "4530036",
    "prefectureCode": "23",
    "prefectureNumber": 23,
    "prefecture": "愛知県",
    "city": "名古屋市中村区",
    "town": "森田町"
  },
  "4530037": {
    "zipcode": "4530037",
    "prefectureCode": "23",
    "prefectureNumber": 23,
    "prefecture": "愛知県",
    "city": "名古屋市中村区",
    "town": "高道町"
  },
  "4530038": {
    "zipcode": "4530038",
    "prefectureCode": "23",
    "prefectureNumber": 23,
    "prefecture": "愛知県",
    "city": "名古屋市中村区",
    "town": "猪之越町"
  },
  "4530041": {
    "zipcode": "4530041",
    "prefectureCode": "23",
    "prefectureNumber": 23,
    "prefecture": "愛知県",
    "city": "名古屋市中村区",
    "town": "本陣通"
  },
  "4530042": {
    "zipcode": "4530042",
    "prefectureCode": "23",
    "prefectureNumber": 23,
    "prefecture": "愛知県",
    "city": "名古屋市中村区",
    "town": "大秋町"
  },
  "4530043": {
    "zipcode": "4530043",
    "prefectureCode": "23",
    "prefectureNumber": 23,
    "prefecture": "愛知県",
    "city": "名古屋市中村区",
    "town": "上ノ宮町"
  },
  "4530044": {
    "zipcode": "4530044",
    "prefectureCode": "23",
    "prefectureNumber": 23,
    "prefecture": "愛知県",
    "city": "名古屋市中村区",
    "town": "鳥居通"
  },
  "4530045": {
    "zipcode": "4530045",
    "prefectureCode": "23",
    "prefectureNumber": 23,
    "prefecture": "愛知県",
    "city": "名古屋市中村区",
    "town": "藤江町"
  },
  "4530046": {
    "zipcode": "4530046",
    "prefectureCode": "23",
    "prefectureNumber": 23,
    "prefecture": "愛知県",
    "city": "名古屋市中村区",
    "town": "道下町"
  },
  "4530047": {
    "zipcode": "4530047",
    "prefectureCode": "23",
    "prefectureNumber": 23,
    "prefecture": "愛知県",
    "city": "名古屋市中村区",
    "town": "元中村町"
  },
  "4530051": {
    "zipcode": "4530051",
    "prefectureCode": "23",
    "prefectureNumber": 23,
    "prefecture": "愛知県",
    "city": "名古屋市中村区",
    "town": "豊幡町"
  },
  "4530052": {
    "zipcode": "4530052",
    "prefectureCode": "23",
    "prefectureNumber": 23,
    "prefecture": "愛知県",
    "city": "名古屋市中村区",
    "town": "森末町"
  },
  "4530053": {
    "zipcode": "4530053",
    "prefectureCode": "23",
    "prefectureNumber": 23,
    "prefecture": "愛知県",
    "city": "名古屋市中村区",
    "town": "中村町"
  },
  "4530054": {
    "zipcode": "4530054",
    "prefectureCode": "23",
    "prefectureNumber": 23,
    "prefecture": "愛知県",
    "city": "名古屋市中村区",
    "town": "鳥居西通"
  },
  "4530055": {
    "zipcode": "4530055",
    "prefectureCode": "23",
    "prefectureNumber": 23,
    "prefecture": "愛知県",
    "city": "名古屋市中村区",
    "town": "香取町"
  },
  "4530056": {
    "zipcode": "4530056",
    "prefectureCode": "23",
    "prefectureNumber": 23,
    "prefecture": "愛知県",
    "city": "名古屋市中村区",
    "town": "砂田町"
  },
  "4530057": {
    "zipcode": "4530057",
    "prefectureCode": "23",
    "prefectureNumber": 23,
    "prefecture": "愛知県",
    "city": "名古屋市中村区",
    "town": "稲葉地本通"
  },
  "4530058": {
    "zipcode": "4530058",
    "prefectureCode": "23",
    "prefectureNumber": 23,
    "prefecture": "愛知県",
    "city": "名古屋市中村区",
    "town": "城屋敷町"
  },
  "4530061": {
    "zipcode": "4530061",
    "prefectureCode": "23",
    "prefectureNumber": 23,
    "prefecture": "愛知県",
    "city": "名古屋市中村区",
    "town": "日比津町"
  },
  "4530062": {
    "zipcode": "4530062",
    "prefectureCode": "23",
    "prefectureNumber": 23,
    "prefecture": "愛知県",
    "city": "名古屋市中村区",
    "town": "諏訪町"
  },
  "4530063": {
    "zipcode": "4530063",
    "prefectureCode": "23",
    "prefectureNumber": 23,
    "prefecture": "愛知県",
    "city": "名古屋市中村区",
    "town": "東宿町"
  },
  "4530064": {
    "zipcode": "4530064",
    "prefectureCode": "23",
    "prefectureNumber": 23,
    "prefecture": "愛知県",
    "city": "名古屋市中村区",
    "town": "草薙町"
  },
  "4530065": {
    "zipcode": "4530065",
    "prefectureCode": "23",
    "prefectureNumber": 23,
    "prefecture": "愛知県",
    "city": "名古屋市中村区",
    "town": "靖国町"
  },
  "4530066": {
    "zipcode": "4530066",
    "prefectureCode": "23",
    "prefectureNumber": 23,
    "prefecture": "愛知県",
    "city": "名古屋市中村区",
    "town": "稲上町"
  },
  "4530067": {
    "zipcode": "4530067",
    "prefectureCode": "23",
    "prefectureNumber": 23,
    "prefecture": "愛知県",
    "city": "名古屋市中村区",
    "town": "宿跡町"
  },
  "4530068": {
    "zipcode": "4530068",
    "prefectureCode": "23",
    "prefectureNumber": 23,
    "prefecture": "愛知県",
    "city": "名古屋市中村区",
    "town": "菊水町"
  },
  "4530069": {
    "zipcode": "4530069",
    "prefectureCode": "23",
    "prefectureNumber": 23,
    "prefecture": "愛知県",
    "city": "名古屋市中村区",
    "town": "橋下町"
  },
  "4530801": {
    "zipcode": "4530801",
    "prefectureCode": "23",
    "prefectureNumber": 23,
    "prefecture": "愛知県",
    "city": "名古屋市中村区",
    "town": "太閤"
  },
  "4530802": {
    "zipcode": "4530802",
    "prefectureCode": "23",
    "prefectureNumber": 23,
    "prefecture": "愛知県",
    "city": "名古屋市中村区",
    "town": "下米野町"
  },
  "4530803": {
    "zipcode": "4530803",
    "prefectureCode": "23",
    "prefectureNumber": 23,
    "prefecture": "愛知県",
    "city": "名古屋市中村区",
    "town": "長戸井町"
  },
  "4530804": {
    "zipcode": "4530804",
    "prefectureCode": "23",
    "prefectureNumber": 23,
    "prefecture": "愛知県",
    "city": "名古屋市中村区",
    "town": "黄金通"
  },
  "4530805": {
    "zipcode": "4530805",
    "prefectureCode": "23",
    "prefectureNumber": 23,
    "prefecture": "愛知県",
    "city": "名古屋市中村区",
    "town": "深川町"
  },
  "4530806": {
    "zipcode": "4530806",
    "prefectureCode": "23",
    "prefectureNumber": 23,
    "prefecture": "愛知県",
    "city": "名古屋市中村区",
    "town": "大正町"
  },
  "4530807": {
    "zipcode": "4530807",
    "prefectureCode": "23",
    "prefectureNumber": 23,
    "prefecture": "愛知県",
    "city": "名古屋市中村区",
    "town": "権現通"
  },
  "4530808": {
    "zipcode": "4530808",
    "prefectureCode": "23",
    "prefectureNumber": 23,
    "prefecture": "愛知県",
    "city": "名古屋市中村区",
    "town": "郷前町"
  },
  "4530809": {
    "zipcode": "4530809",
    "prefectureCode": "23",
    "prefectureNumber": 23,
    "prefecture": "愛知県",
    "city": "名古屋市中村区",
    "town": "上米野町"
  },
  "4530811": {
    "zipcode": "4530811",
    "prefectureCode": "23",
    "prefectureNumber": 23,
    "prefecture": "愛知県",
    "city": "名古屋市中村区",
    "town": "太閤通"
  },
  "4530812": {
    "zipcode": "4530812",
    "prefectureCode": "23",
    "prefectureNumber": 23,
    "prefecture": "愛知県",
    "city": "名古屋市中村区",
    "town": "西米野町"
  },
  "4530813": {
    "zipcode": "4530813",
    "prefectureCode": "23",
    "prefectureNumber": 23,
    "prefecture": "愛知県",
    "city": "名古屋市中村区",
    "town": "二ツ橋町"
  },
  "4530814": {
    "zipcode": "4530814",
    "prefectureCode": "23",
    "prefectureNumber": 23,
    "prefecture": "愛知県",
    "city": "名古屋市中村区",
    "town": "熊野町"
  },
  "4530815": {
    "zipcode": "4530815",
    "prefectureCode": "23",
    "prefectureNumber": 23,
    "prefecture": "愛知県",
    "city": "名古屋市中村区",
    "town": "北畑町"
  },
  "4530816": {
    "zipcode": "4530816",
    "prefectureCode": "23",
    "prefectureNumber": 23,
    "prefecture": "愛知県",
    "city": "名古屋市中村区",
    "town": "京田町"
  },
  "4530817": {
    "zipcode": "4530817",
    "prefectureCode": "23",
    "prefectureNumber": 23,
    "prefecture": "愛知県",
    "city": "名古屋市中村区",
    "town": "白子町"
  },
  "4530818": {
    "zipcode": "4530818",
    "prefectureCode": "23",
    "prefectureNumber": 23,
    "prefecture": "愛知県",
    "city": "名古屋市中村区",
    "town": "千成通"
  },
  "4530819": {
    "zipcode": "4530819",
    "prefectureCode": "23",
    "prefectureNumber": 23,
    "prefecture": "愛知県",
    "city": "名古屋市中村区",
    "town": "城主町"
  },
  "4530821": {
    "zipcode": "4530821",
    "prefectureCode": "23",
    "prefectureNumber": 23,
    "prefecture": "愛知県",
    "city": "名古屋市中村区",
    "town": "大宮町"
  },
  "4530822": {
    "zipcode": "4530822",
    "prefectureCode": "23",
    "prefectureNumber": 23,
    "prefecture": "愛知県",
    "city": "名古屋市中村区",
    "town": "名西通"
  },
  "4530823": {
    "zipcode": "4530823",
    "prefectureCode": "23",
    "prefectureNumber": 23,
    "prefecture": "愛知県",
    "city": "名古屋市中村区",
    "town": "日ノ宮町"
  },
  "4530824": {
    "zipcode": "4530824",
    "prefectureCode": "23",
    "prefectureNumber": 23,
    "prefecture": "愛知県",
    "city": "名古屋市中村区",
    "town": "北浦町"
  },
  "4530825": {
    "zipcode": "4530825",
    "prefectureCode": "23",
    "prefectureNumber": 23,
    "prefecture": "愛知県",
    "city": "名古屋市中村区",
    "town": "沖田町"
  },
  "4530826": {
    "zipcode": "4530826",
    "prefectureCode": "23",
    "prefectureNumber": 23,
    "prefecture": "愛知県",
    "city": "名古屋市中村区",
    "town": "鈍池町"
  },
  "4530827": {
    "zipcode": "4530827",
    "prefectureCode": "23",
    "prefectureNumber": 23,
    "prefecture": "愛知県",
    "city": "名古屋市中村区",
    "town": "下中村町"
  },
  "4530828": {
    "zipcode": "4530828",
    "prefectureCode": "23",
    "prefectureNumber": 23,
    "prefecture": "愛知県",
    "city": "名古屋市中村区",
    "town": "中村本町"
  },
  "4530831": {
    "zipcode": "4530831",
    "prefectureCode": "23",
    "prefectureNumber": 23,
    "prefecture": "愛知県",
    "city": "名古屋市中村区",
    "town": "中村中町"
  },
  "4530832": {
    "zipcode": "4530832",
    "prefectureCode": "23",
    "prefectureNumber": 23,
    "prefecture": "愛知県",
    "city": "名古屋市中村区",
    "town": "乾出町"
  },
  "4530833": {
    "zipcode": "4530833",
    "prefectureCode": "23",
    "prefectureNumber": 23,
    "prefecture": "愛知県",
    "city": "名古屋市中村区",
    "town": "押木田町"
  },
  "4530834": {
    "zipcode": "4530834",
    "prefectureCode": "23",
    "prefectureNumber": 23,
    "prefecture": "愛知県",
    "city": "名古屋市中村区",
    "town": "豊国通"
  },
  "4530835": {
    "zipcode": "4530835",
    "prefectureCode": "23",
    "prefectureNumber": 23,
    "prefecture": "愛知県",
    "city": "名古屋市中村区",
    "town": "上石川町"
  },
  "4530836": {
    "zipcode": "4530836",
    "prefectureCode": "23",
    "prefectureNumber": 23,
    "prefecture": "愛知県",
    "city": "名古屋市中村区",
    "town": "五反城町"
  },
  "4530837": {
    "zipcode": "4530837",
    "prefectureCode": "23",
    "prefectureNumber": 23,
    "prefecture": "愛知県",
    "city": "名古屋市中村区",
    "town": "二瀬町"
  },
  "4530838": {
    "zipcode": "4530838",
    "prefectureCode": "23",
    "prefectureNumber": 23,
    "prefecture": "愛知県",
    "city": "名古屋市中村区",
    "town": "向島町"
  },
  "4530839": {
    "zipcode": "4530839",
    "prefectureCode": "23",
    "prefectureNumber": 23,
    "prefecture": "愛知県",
    "city": "名古屋市中村区",
    "town": "長筬町"
  },
  "4530841": {
    "zipcode": "4530841",
    "prefectureCode": "23",
    "prefectureNumber": 23,
    "prefecture": "愛知県",
    "city": "名古屋市中村区",
    "town": "稲葉地町"
  },
  "4530842": {
    "zipcode": "4530842",
    "prefectureCode": "23",
    "prefectureNumber": 23,
    "prefecture": "愛知県",
    "city": "名古屋市中村区",
    "town": "剣町"
  },
  "4530843": {
    "zipcode": "4530843",
    "prefectureCode": "23",
    "prefectureNumber": 23,
    "prefecture": "愛知県",
    "city": "名古屋市中村区",
    "town": "鴨付町"
  },
  "4530844": {
    "zipcode": "4530844",
    "prefectureCode": "23",
    "prefectureNumber": 23,
    "prefecture": "愛知県",
    "city": "名古屋市中村区",
    "town": "小鴨町"
  },
  "4530845": {
    "zipcode": "4530845",
    "prefectureCode": "23",
    "prefectureNumber": 23,
    "prefecture": "愛知県",
    "city": "名古屋市中村区",
    "town": "宮塚町"
  },
  "4530846": {
    "zipcode": "4530846",
    "prefectureCode": "23",
    "prefectureNumber": 23,
    "prefecture": "愛知県",
    "city": "名古屋市中村区",
    "town": "西栄町"
  },
  "4530847": {
    "zipcode": "4530847",
    "prefectureCode": "23",
    "prefectureNumber": 23,
    "prefecture": "愛知県",
    "city": "名古屋市中村区",
    "town": "岩上町"
  },
  "4530848": {
    "zipcode": "4530848",
    "prefectureCode": "23",
    "prefectureNumber": 23,
    "prefecture": "愛知県",
    "city": "名古屋市中村区",
    "town": "荒輪井町"
  },
  "4530849": {
    "zipcode": "4530849",
    "prefectureCode": "23",
    "prefectureNumber": 23,
    "prefecture": "愛知県",
    "city": "名古屋市中村区",
    "town": "稲西町"
  },
  "4530851": {
    "zipcode": "4530851",
    "prefectureCode": "23",
    "prefectureNumber": 23,
    "prefecture": "愛知県",
    "city": "名古屋市中村区",
    "town": "畑江通"
  },
  "4530852": {
    "zipcode": "4530852",
    "prefectureCode": "23",
    "prefectureNumber": 23,
    "prefecture": "愛知県",
    "city": "名古屋市中村区",
    "town": "角割町"
  },
  "4530853": {
    "zipcode": "4530853",
    "prefectureCode": "23",
    "prefectureNumber": 23,
    "prefecture": "愛知県",
    "city": "名古屋市中村区",
    "town": "牛田通"
  },
  "4530854": {
    "zipcode": "4530854",
    "prefectureCode": "23",
    "prefectureNumber": 23,
    "prefecture": "愛知県",
    "city": "名古屋市中村区",
    "town": "高須賀町"
  },
  "4530855": {
    "zipcode": "4530855",
    "prefectureCode": "23",
    "prefectureNumber": 23,
    "prefecture": "愛知県",
    "city": "名古屋市中村区",
    "town": "烏森町"
  },
  "4530856": {
    "zipcode": "4530856",
    "prefectureCode": "23",
    "prefectureNumber": 23,
    "prefecture": "愛知県",
    "city": "名古屋市中村区",
    "town": "並木"
  },
  "4530857": {
    "zipcode": "4530857",
    "prefectureCode": "23",
    "prefectureNumber": 23,
    "prefecture": "愛知県",
    "city": "名古屋市中村区",
    "town": "長草町"
  },
  "4530858": {
    "zipcode": "4530858",
    "prefectureCode": "23",
    "prefectureNumber": 23,
    "prefecture": "愛知県",
    "city": "名古屋市中村区",
    "town": "野田町"
  },
  "4530859": {
    "zipcode": "4530859",
    "prefectureCode": "23",
    "prefectureNumber": 23,
    "prefecture": "愛知県",
    "city": "名古屋市中村区",
    "town": "野上町"
  },
  "4530861": {
    "zipcode": "4530861",
    "prefectureCode": "23",
    "prefectureNumber": 23,
    "prefecture": "愛知県",
    "city": "名古屋市中村区",
    "town": "岩塚本通"
  },
  "4530862": {
    "zipcode": "4530862",
    "prefectureCode": "23",
    "prefectureNumber": 23,
    "prefecture": "愛知県",
    "city": "名古屋市中村区",
    "town": "岩塚町"
  },
  "4530863": {
    "zipcode": "4530863",
    "prefectureCode": "23",
    "prefectureNumber": 23,
    "prefecture": "愛知県",
    "city": "名古屋市中村区",
    "town": "八社"
  },
  "4530864": {
    "zipcode": "4530864",
    "prefectureCode": "23",
    "prefectureNumber": 23,
    "prefecture": "愛知県",
    "city": "名古屋市中村区",
    "town": "横前町"
  },
  "4530865": {
    "zipcode": "4530865",
    "prefectureCode": "23",
    "prefectureNumber": 23,
    "prefecture": "愛知県",
    "city": "名古屋市中村区",
    "town": "川前町"
  },
  "4530866": {
    "zipcode": "4530866",
    "prefectureCode": "23",
    "prefectureNumber": 23,
    "prefecture": "愛知県",
    "city": "名古屋市中村区",
    "town": "横井"
  },
  "4530867": {
    "zipcode": "4530867",
    "prefectureCode": "23",
    "prefectureNumber": 23,
    "prefecture": "愛知県",
    "city": "名古屋市中村区",
    "town": "横井町"
  },
  "4530871": {
    "zipcode": "4530871",
    "prefectureCode": "23",
    "prefectureNumber": 23,
    "prefecture": "愛知県",
    "city": "名古屋市中村区",
    "town": "牧野町"
  },
  "4530872": {
    "zipcode": "4530872",
    "prefectureCode": "23",
    "prefectureNumber": 23,
    "prefecture": "愛知県",
    "city": "名古屋市中村区",
    "town": "平池町（次のビルを除く）"
  },
  "4530873": {
    "zipcode": "4530873",
    "prefectureCode": "23",
    "prefectureNumber": 23,
    "prefecture": "愛知県",
    "city": "名古屋市中村区",
    "town": "運河町"
  },
  "4536101": {
    "zipcode": "4536101",
    "prefectureCode": "23",
    "prefectureNumber": 23,
    "prefecture": "愛知県",
    "city": "名古屋市中村区",
    "town": "平池町グローバルゲート（１階）"
  },
  "4536102": {
    "zipcode": "4536102",
    "prefectureCode": "23",
    "prefectureNumber": 23,
    "prefecture": "愛知県",
    "city": "名古屋市中村区",
    "town": "平池町グローバルゲート（２階）"
  },
  "4536103": {
    "zipcode": "4536103",
    "prefectureCode": "23",
    "prefectureNumber": 23,
    "prefecture": "愛知県",
    "city": "名古屋市中村区",
    "town": "平池町グローバルゲート（３階）"
  },
  "4536104": {
    "zipcode": "4536104",
    "prefectureCode": "23",
    "prefectureNumber": 23,
    "prefecture": "愛知県",
    "city": "名古屋市中村区",
    "town": "平池町グローバルゲート（４階）"
  },
  "4536105": {
    "zipcode": "4536105",
    "prefectureCode": "23",
    "prefectureNumber": 23,
    "prefecture": "愛知県",
    "city": "名古屋市中村区",
    "town": "平池町グローバルゲート（５階）"
  },
  "4536106": {
    "zipcode": "4536106",
    "prefectureCode": "23",
    "prefectureNumber": 23,
    "prefecture": "愛知県",
    "city": "名古屋市中村区",
    "town": "平池町グローバルゲート（６階）"
  },
  "4536107": {
    "zipcode": "4536107",
    "prefectureCode": "23",
    "prefectureNumber": 23,
    "prefecture": "愛知県",
    "city": "名古屋市中村区",
    "town": "平池町グローバルゲート（７階）"
  },
  "4536108": {
    "zipcode": "4536108",
    "prefectureCode": "23",
    "prefectureNumber": 23,
    "prefecture": "愛知県",
    "city": "名古屋市中村区",
    "town": "平池町グローバルゲート（８階）"
  },
  "4536109": {
    "zipcode": "4536109",
    "prefectureCode": "23",
    "prefectureNumber": 23,
    "prefecture": "愛知県",
    "city": "名古屋市中村区",
    "town": "平池町グローバルゲート（９階）"
  },
  "4536110": {
    "zipcode": "4536110",
    "prefectureCode": "23",
    "prefectureNumber": 23,
    "prefecture": "愛知県",
    "city": "名古屋市中村区",
    "town": "平池町グローバルゲート（１０階）"
  },
  "4536111": {
    "zipcode": "4536111",
    "prefectureCode": "23",
    "prefectureNumber": 23,
    "prefecture": "愛知県",
    "city": "名古屋市中村区",
    "town": "平池町グローバルゲート（１１階）"
  },
  "4536112": {
    "zipcode": "4536112",
    "prefectureCode": "23",
    "prefectureNumber": 23,
    "prefecture": "愛知県",
    "city": "名古屋市中村区",
    "town": "平池町グローバルゲート（１２階）"
  },
  "4536113": {
    "zipcode": "4536113",
    "prefectureCode": "23",
    "prefectureNumber": 23,
    "prefecture": "愛知県",
    "city": "名古屋市中村区",
    "town": "平池町グローバルゲート（１３階）"
  },
  "4536114": {
    "zipcode": "4536114",
    "prefectureCode": "23",
    "prefectureNumber": 23,
    "prefecture": "愛知県",
    "city": "名古屋市中村区",
    "town": "平池町グローバルゲート（１４階）"
  },
  "4536115": {
    "zipcode": "4536115",
    "prefectureCode": "23",
    "prefectureNumber": 23,
    "prefecture": "愛知県",
    "city": "名古屋市中村区",
    "town": "平池町グローバルゲート（１５階）"
  },
  "4536116": {
    "zipcode": "4536116",
    "prefectureCode": "23",
    "prefectureNumber": 23,
    "prefecture": "愛知県",
    "city": "名古屋市中村区",
    "town": "平池町グローバルゲート（１６階）"
  },
  "4536117": {
    "zipcode": "4536117",
    "prefectureCode": "23",
    "prefectureNumber": 23,
    "prefecture": "愛知県",
    "city": "名古屋市中村区",
    "town": "平池町グローバルゲート（１７階）"
  },
  "4536118": {
    "zipcode": "4536118",
    "prefectureCode": "23",
    "prefectureNumber": 23,
    "prefecture": "愛知県",
    "city": "名古屋市中村区",
    "town": "平池町グローバルゲート（１８階）"
  },
  "4536119": {
    "zipcode": "4536119",
    "prefectureCode": "23",
    "prefectureNumber": 23,
    "prefecture": "愛知県",
    "city": "名古屋市中村区",
    "town": "平池町グローバルゲート（１９階）"
  },
  "4536120": {
    "zipcode": "4536120",
    "prefectureCode": "23",
    "prefectureNumber": 23,
    "prefecture": "愛知県",
    "city": "名古屋市中村区",
    "town": "平池町グローバルゲート（２０階）"
  },
  "4536121": {
    "zipcode": "4536121",
    "prefectureCode": "23",
    "prefectureNumber": 23,
    "prefecture": "愛知県",
    "city": "名古屋市中村区",
    "town": "平池町グローバルゲート（２１階）"
  },
  "4536122": {
    "zipcode": "4536122",
    "prefectureCode": "23",
    "prefectureNumber": 23,
    "prefecture": "愛知県",
    "city": "名古屋市中村区",
    "town": "平池町グローバルゲート（２２階）"
  },
  "4536123": {
    "zipcode": "4536123",
    "prefectureCode": "23",
    "prefectureNumber": 23,
    "prefecture": "愛知県",
    "city": "名古屋市中村区",
    "town": "平池町グローバルゲート（２３階）"
  },
  "4536124": {
    "zipcode": "4536124",
    "prefectureCode": "23",
    "prefectureNumber": 23,
    "prefecture": "愛知県",
    "city": "名古屋市中村区",
    "town": "平池町グローバルゲート（２４階）"
  },
  "4536125": {
    "zipcode": "4536125",
    "prefectureCode": "23",
    "prefectureNumber": 23,
    "prefecture": "愛知県",
    "city": "名古屋市中村区",
    "town": "平池町グローバルゲート（２５階）"
  },
  "4536126": {
    "zipcode": "4536126",
    "prefectureCode": "23",
    "prefectureNumber": 23,
    "prefecture": "愛知県",
    "city": "名古屋市中村区",
    "town": "平池町グローバルゲート（２６階）"
  },
  "4536127": {
    "zipcode": "4536127",
    "prefectureCode": "23",
    "prefectureNumber": 23,
    "prefecture": "愛知県",
    "city": "名古屋市中村区",
    "town": "平池町グローバルゲート（２７階）"
  },
  "4536128": {
    "zipcode": "4536128",
    "prefectureCode": "23",
    "prefectureNumber": 23,
    "prefecture": "愛知県",
    "city": "名古屋市中村区",
    "town": "平池町グローバルゲート（２８階）"
  },
  "4536129": {
    "zipcode": "4536129",
    "prefectureCode": "23",
    "prefectureNumber": 23,
    "prefecture": "愛知県",
    "city": "名古屋市中村区",
    "town": "平池町グローバルゲート（２９階）"
  },
  "4536130": {
    "zipcode": "4536130",
    "prefectureCode": "23",
    "prefectureNumber": 23,
    "prefecture": "愛知県",
    "city": "名古屋市中村区",
    "town": "平池町グローバルゲート（３０階）"
  },
  "4536131": {
    "zipcode": "4536131",
    "prefectureCode": "23",
    "prefectureNumber": 23,
    "prefecture": "愛知県",
    "city": "名古屋市中村区",
    "town": "平池町グローバルゲート（３１階）"
  },
  "4536132": {
    "zipcode": "4536132",
    "prefectureCode": "23",
    "prefectureNumber": 23,
    "prefecture": "愛知県",
    "city": "名古屋市中村区",
    "town": "平池町グローバルゲート（３２階）"
  },
  "4536133": {
    "zipcode": "4536133",
    "prefectureCode": "23",
    "prefectureNumber": 23,
    "prefecture": "愛知県",
    "city": "名古屋市中村区",
    "town": "平池町グローバルゲート（３３階）"
  },
  "4536134": {
    "zipcode": "4536134",
    "prefectureCode": "23",
    "prefectureNumber": 23,
    "prefecture": "愛知県",
    "city": "名古屋市中村区",
    "town": "平池町グローバルゲート（３４階）"
  },
  "4536135": {
    "zipcode": "4536135",
    "prefectureCode": "23",
    "prefectureNumber": 23,
    "prefecture": "愛知県",
    "city": "名古屋市中村区",
    "town": "平池町グローバルゲート（３５階）"
  },
  "4536136": {
    "zipcode": "4536136",
    "prefectureCode": "23",
    "prefectureNumber": 23,
    "prefecture": "愛知県",
    "city": "名古屋市中村区",
    "town": "平池町グローバルゲート（３６階）"
  },
  "4536190": {
    "zipcode": "4536190",
    "prefectureCode": "23",
    "prefectureNumber": 23,
    "prefecture": "愛知県",
    "city": "名古屋市中村区",
    "town": "平池町グローバルゲート（地階・階層不明）"
  }
}
