{
  "4550000": {
    "zipcode": "4550000",
    "prefectureCode": "23",
    "prefectureNumber": 23,
    "prefecture": "愛知県",
    "city": "名古屋市港区",
    "town": "以下に掲載がない場合"
  },
  "4550001": {
    "zipcode": "4550001",
    "prefectureCode": "23",
    "prefectureNumber": 23,
    "prefecture": "愛知県",
    "city": "名古屋市港区",
    "town": "七番町"
  },
  "4550002": {
    "zipcode": "4550002",
    "prefectureCode": "23",
    "prefectureNumber": 23,
    "prefecture": "愛知県",
    "city": "名古屋市港区",
    "town": "東海通"
  },
  "4550003": {
    "zipcode": "4550003",
    "prefectureCode": "23",
    "prefectureNumber": 23,
    "prefecture": "愛知県",
    "city": "名古屋市港区",
    "town": "辰巳町"
  },
  "4550004": {
    "zipcode": "4550004",
    "prefectureCode": "23",
    "prefectureNumber": 23,
    "prefecture": "愛知県",
    "city": "名古屋市港区",
    "town": "津金"
  },
  "4550005": {
    "zipcode": "4550005",
    "prefectureCode": "23",
    "prefectureNumber": 23,
    "prefecture": "愛知県",
    "city": "名古屋市港区",
    "town": "新川町"
  },
  "4550006": {
    "zipcode": "4550006",
    "prefectureCode": "23",
    "prefectureNumber": 23,
    "prefecture": "愛知県",
    "city": "名古屋市港区",
    "town": "南十一番町"
  },
  "4550007": {
    "zipcode": "4550007",
    "prefectureCode": "23",
    "prefectureNumber": 23,
    "prefecture": "愛知県",
    "city": "名古屋市港区",
    "town": "南十番町"
  },
  "4550008": {
    "zipcode": "4550008",
    "prefectureCode": "23",
    "prefectureNumber": 23,
    "prefecture": "愛知県",
    "city": "名古屋市港区",
    "town": "九番町"
  },
  "4550011": {
    "zipcode": "4550011",
    "prefectureCode": "23",
    "prefectureNumber": 23,
    "prefecture": "愛知県",
    "city": "名古屋市港区",
    "town": "千年"
  },
  "4550012": {
    "zipcode": "4550012",
    "prefectureCode": "23",
    "prefectureNumber": 23,
    "prefecture": "愛知県",
    "city": "名古屋市港区",
    "town": "作倉町"
  },
  "4550013": {
    "zipcode": "4550013",
    "prefectureCode": "23",
    "prefectureNumber": 23,
    "prefecture": "愛知県",
    "city": "名古屋市港区",
    "town": "港陽"
  },
  "4550014": {
    "zipcode": "4550014",
    "prefectureCode": "23",
    "prefectureNumber": 23,
    "prefecture": "愛知県",
    "city": "名古屋市港区",
    "town": "港楽"
  },
  "4550015": {
    "zipcode": "4550015",
    "prefectureCode": "23",
    "prefectureNumber": 23,
    "prefecture": "愛知県",
    "city": "名古屋市港区",
    "town": "港栄"
  },
  "4550016": {
    "zipcode": "4550016",
    "prefectureCode": "23",
    "prefectureNumber": 23,
    "prefecture": "愛知県",
    "city": "名古屋市港区",
    "town": "河口町"
  },
  "4550017": {
    "zipcode": "4550017",
    "prefectureCode": "23",
    "prefectureNumber": 23,
    "prefecture": "愛知県",
    "city": "名古屋市港区",
    "town": "金川町"
  },
  "4550018": {
    "zipcode": "4550018",
    "prefectureCode": "23",
    "prefectureNumber": 23,
    "prefecture": "愛知県",
    "city": "名古屋市港区",
    "town": "港明"
  },
  "4550021": {
    "zipcode": "4550021",
    "prefectureCode": "23",
    "prefectureNumber": 23,
    "prefecture": "愛知県",
    "city": "名古屋市港区",
    "town": "木場町"
  },
  "4550022": {
    "zipcode": "4550022",
    "prefectureCode": "23",
    "prefectureNumber": 23,
    "prefecture": "愛知県",
    "city": "名古屋市港区",
    "town": "竜宮町"
  },
  "4550023": {
    "zipcode": "4550023",
    "prefectureCode": "23",
    "prefectureNumber": 23,
    "prefecture": "愛知県",
    "city": "名古屋市港区",
    "town": "東築地町"
  },
  "4550024": {
    "zipcode": "4550024",
    "prefectureCode": "23",
    "prefectureNumber": 23,
    "prefecture": "愛知県",
    "city": "名古屋市港区",
    "town": "大江町"
  },
  "4550025": {
    "zipcode": "4550025",
    "prefectureCode": "23",
    "prefectureNumber": 23,
    "prefecture": "愛知県",
    "city": "名古屋市港区",
    "town": "本星崎町"
  },
  "4550026": {
    "zipcode": "4550026",
    "prefectureCode": "23",
    "prefectureNumber": 23,
    "prefecture": "愛知県",
    "city": "名古屋市港区",
    "town": "昭和町"
  },
  "4550027": {
    "zipcode": "4550027",
    "prefectureCode": "23",
    "prefectureNumber": 23,
    "prefecture": "愛知県",
    "city": "名古屋市港区",
    "town": "船見町"
  },
  "4550028": {
    "zipcode": "4550028",
    "prefectureCode": "23",
    "prefectureNumber": 23,
    "prefecture": "愛知県",
    "city": "名古屋市港区",
    "town": "潮見町"
  },
  "4550031": {
    "zipcode": "4550031",
    "prefectureCode": "23",
    "prefectureNumber": 23,
    "prefecture": "愛知県",
    "city": "名古屋市港区",
    "town": "千鳥"
  },
  "4550032": {
    "zipcode": "4550032",
    "prefectureCode": "23",
    "prefectureNumber": 23,
    "prefecture": "愛知県",
    "city": "名古屋市港区",
    "town": "入船"
  },
  "4550033": {
    "zipcode": "4550033",
    "prefectureCode": "23",
    "prefectureNumber": 23,
    "prefecture": "愛知県",
    "city": "名古屋市港区",
    "town": "港町"
  },
  "4550034": {
    "zipcode": "4550034",
    "prefectureCode": "23",
    "prefectureNumber": 23,
    "prefecture": "愛知県",
    "city": "名古屋市港区",
    "town": "西倉町"
  },
  "4550035": {
    "zipcode": "4550035",
    "prefectureCode": "23",
    "prefectureNumber": 23,
    "prefecture": "愛知県",
    "city": "名古屋市港区",
    "town": "熱田前新田"
  },
  "4550036": {
    "zipcode": "4550036",
    "prefectureCode": "23",
    "prefectureNumber": 23,
    "prefecture": "愛知県",
    "city": "名古屋市港区",
    "town": "浜"
  },
  "4550037": {
    "zipcode": "4550037",
    "prefectureCode": "23",
    "prefectureNumber": 23,
    "prefecture": "愛知県",
    "city": "名古屋市港区",
    "town": "名港"
  },
  "4550041": {
    "zipcode": "4550041",
    "prefectureCode": "23",
    "prefectureNumber": 23,
    "prefecture": "愛知県",
    "city": "名古屋市港区",
    "town": "幸町"
  },
  "4550042": {
    "zipcode": "4550042",
    "prefectureCode": "23",
    "prefectureNumber": 23,
    "prefecture": "愛知県",
    "city": "名古屋市港区",
    "town": "佐野町"
  },
  "4550043": {
    "zipcode": "4550043",
    "prefectureCode": "23",
    "prefectureNumber": 23,
    "prefecture": "愛知県",
    "city": "名古屋市港区",
    "town": "魁町"
  },
  "4550044": {
    "zipcode": "4550044",
    "prefectureCode": "23",
    "prefectureNumber": 23,
    "prefecture": "愛知県",
    "city": "名古屋市港区",
    "town": "築三町"
  },
  "4550045": {
    "zipcode": "4550045",
    "prefectureCode": "23",
    "prefectureNumber": 23,
    "prefecture": "愛知県",
    "city": "名古屋市港区",
    "town": "築地町"
  },
  "4550046": {
    "zipcode": "4550046",
    "prefectureCode": "23",
    "prefectureNumber": 23,
    "prefecture": "愛知県",
    "city": "名古屋市港区",
    "town": "大手町"
  },
  "4550047": {
    "zipcode": "4550047",
    "prefectureCode": "23",
    "prefectureNumber": 23,
    "prefecture": "愛知県",
    "city": "名古屋市港区",
    "town": "中之島通"
  },
  "4550051": {
    "zipcode": "4550051",
    "prefectureCode": "23",
    "prefectureNumber": 23,
    "prefecture": "愛知県",
    "city": "名古屋市港区",
    "town": "中川本町"
  },
  "4550052": {
    "zipcode": "4550052",
    "prefectureCode": "23",
    "prefectureNumber": 23,
    "prefecture": "愛知県",
    "city": "名古屋市港区",
    "town": "いろは町"
  },
  "4550053": {
    "zipcode": "4550053",
    "prefectureCode": "23",
    "prefectureNumber": 23,
    "prefecture": "愛知県",
    "city": "名古屋市港区",
    "town": "名四町"
  },
  "4550054": {
    "zipcode": "4550054",
    "prefectureCode": "23",
    "prefectureNumber": 23,
    "prefecture": "愛知県",
    "city": "名古屋市港区",
    "town": "遠若町"
  },
  "4550055": {
    "zipcode": "4550055",
    "prefectureCode": "23",
    "prefectureNumber": 23,
    "prefecture": "愛知県",
    "city": "名古屋市港区",
    "town": "品川町"
  },
  "4550056": {
    "zipcode": "4550056",
    "prefectureCode": "23",
    "prefectureNumber": 23,
    "prefecture": "愛知県",
    "city": "名古屋市港区",
    "town": "砂美町"
  },
  "4550057": {
    "zipcode": "4550057",
    "prefectureCode": "23",
    "prefectureNumber": 23,
    "prefecture": "愛知県",
    "city": "名古屋市港区",
    "town": "築盛町"
  },
  "4550061": {
    "zipcode": "4550061",
    "prefectureCode": "23",
    "prefectureNumber": 23,
    "prefecture": "愛知県",
    "city": "名古屋市港区",
    "town": "東土古町"
  },
  "4550062": {
    "zipcode": "4550062",
    "prefectureCode": "23",
    "prefectureNumber": 23,
    "prefecture": "愛知県",
    "city": "名古屋市港区",
    "town": "小碓町"
  },
  "4550063": {
    "zipcode": "4550063",
    "prefectureCode": "23",
    "prefectureNumber": 23,
    "prefecture": "愛知県",
    "city": "名古屋市港区",
    "town": "金船町"
  },
  "4550064": {
    "zipcode": "4550064",
    "prefectureCode": "23",
    "prefectureNumber": 23,
    "prefecture": "愛知県",
    "city": "名古屋市港区",
    "town": "本宮町"
  },
  "4550065": {
    "zipcode": "4550065",
    "prefectureCode": "23",
    "prefectureNumber": 23,
    "prefecture": "愛知県",
    "city": "名古屋市港区",
    "town": "本宮新町"
  },
  "4550066": {
    "zipcode": "4550066",
    "prefectureCode": "23",
    "prefectureNumber": 23,
    "prefecture": "愛知県",
    "city": "名古屋市港区",
    "town": "寛政町"
  },
  "4550067": {
    "zipcode": "4550067",
    "prefectureCode": "23",
    "prefectureNumber": 23,
    "prefecture": "愛知県",
    "city": "名古屋市港区",
    "town": "港北町"
  },
  "4550068": {
    "zipcode": "4550068",
    "prefectureCode": "23",
    "prefectureNumber": 23,
    "prefecture": "愛知県",
    "city": "名古屋市港区",
    "town": "土古町"
  },
  "4550069": {
    "zipcode": "4550069",
    "prefectureCode": "23",
    "prefectureNumber": 23,
    "prefecture": "愛知県",
    "city": "名古屋市港区",
    "town": "泰明町"
  },
  "4550071": {
    "zipcode": "4550071",
    "prefectureCode": "23",
    "prefectureNumber": 23,
    "prefecture": "愛知県",
    "city": "名古屋市港区",
    "town": "新船町"
  },
  "4550072": {
    "zipcode": "4550072",
    "prefectureCode": "23",
    "prefectureNumber": 23,
    "prefecture": "愛知県",
    "city": "名古屋市港区",
    "town": "須成町"
  },
  "4550073": {
    "zipcode": "4550073",
    "prefectureCode": "23",
    "prefectureNumber": 23,
    "prefecture": "愛知県",
    "city": "名古屋市港区",
    "town": "川西通"
  },
  "4550074": {
    "zipcode": "4550074",
    "prefectureCode": "23",
    "prefectureNumber": 23,
    "prefecture": "愛知県",
    "city": "名古屋市港区",
    "town": "正保町"
  },
  "4550075": {
    "zipcode": "4550075",
    "prefectureCode": "23",
    "prefectureNumber": 23,
    "prefecture": "愛知県",
    "city": "名古屋市港区",
    "town": "正徳町"
  },
  "4550076": {
    "zipcode": "4550076",
    "prefectureCode": "23",
    "prefectureNumber": 23,
    "prefecture": "愛知県",
    "city": "名古屋市港区",
    "town": "川間町"
  },
  "4550077": {
    "zipcode": "4550077",
    "prefectureCode": "23",
    "prefectureNumber": 23,
    "prefecture": "愛知県",
    "city": "名古屋市港区",
    "town": "小割通"
  },
  "4550078": {
    "zipcode": "4550078",
    "prefectureCode": "23",
    "prefectureNumber": 23,
    "prefecture": "愛知県",
    "city": "名古屋市港区",
    "town": "丸池町"
  },
  "4550801": {
    "zipcode": "4550801",
    "prefectureCode": "23",
    "prefectureNumber": 23,
    "prefecture": "愛知県",
    "city": "名古屋市港区",
    "town": "小碓"
  },
  "4550802": {
    "zipcode": "4550802",
    "prefectureCode": "23",
    "prefectureNumber": 23,
    "prefecture": "愛知県",
    "city": "名古屋市港区",
    "town": "入場町"
  },
  "4550803": {
    "zipcode": "4550803",
    "prefectureCode": "23",
    "prefectureNumber": 23,
    "prefecture": "愛知県",
    "city": "名古屋市港区",
    "town": "入場"
  },
  "4550804": {
    "zipcode": "4550804",
    "prefectureCode": "23",
    "prefectureNumber": 23,
    "prefecture": "愛知県",
    "city": "名古屋市港区",
    "town": "当知"
  },
  "4550805": {
    "zipcode": "4550805",
    "prefectureCode": "23",
    "prefectureNumber": 23,
    "prefecture": "愛知県",
    "city": "名古屋市港区",
    "town": "当知町"
  },
  "4550806": {
    "zipcode": "4550806",
    "prefectureCode": "23",
    "prefectureNumber": 23,
    "prefecture": "愛知県",
    "city": "名古屋市港区",
    "town": "明正"
  },
  "4550811": {
    "zipcode": "4550811",
    "prefectureCode": "23",
    "prefectureNumber": 23,
    "prefecture": "愛知県",
    "city": "名古屋市港区",
    "town": "善進町"
  },
  "4550812": {
    "zipcode": "4550812",
    "prefectureCode": "23",
    "prefectureNumber": 23,
    "prefecture": "愛知県",
    "city": "名古屋市港区",
    "town": "善北町"
  },
  "4550813": {
    "zipcode": "4550813",
    "prefectureCode": "23",
    "prefectureNumber": 23,
    "prefecture": "愛知県",
    "city": "名古屋市港区",
    "town": "善進本町"
  },
  "4550814": {
    "zipcode": "4550814",
    "prefectureCode": "23",
    "prefectureNumber": 23,
    "prefecture": "愛知県",
    "city": "名古屋市港区",
    "town": "善南町"
  },
  "4550815": {
    "zipcode": "4550815",
    "prefectureCode": "23",
    "prefectureNumber": 23,
    "prefecture": "愛知県",
    "city": "名古屋市港区",
    "town": "油屋町"
  },
  "4550821": {
    "zipcode": "4550821",
    "prefectureCode": "23",
    "prefectureNumber": 23,
    "prefecture": "愛知県",
    "city": "名古屋市港区",
    "town": "高木町"
  },
  "4550822": {
    "zipcode": "4550822",
    "prefectureCode": "23",
    "prefectureNumber": 23,
    "prefecture": "愛知県",
    "city": "名古屋市港区",
    "town": "甚兵衛通"
  },
  "4550823": {
    "zipcode": "4550823",
    "prefectureCode": "23",
    "prefectureNumber": 23,
    "prefecture": "愛知県",
    "city": "名古屋市港区",
    "town": "惟信町"
  },
  "4550824": {
    "zipcode": "4550824",
    "prefectureCode": "23",
    "prefectureNumber": 23,
    "prefecture": "愛知県",
    "city": "名古屋市港区",
    "town": "西川町"
  },
  "4550825": {
    "zipcode": "4550825",
    "prefectureCode": "23",
    "prefectureNumber": 23,
    "prefecture": "愛知県",
    "city": "名古屋市港区",
    "town": "多加良浦町"
  },
  "4550831": {
    "zipcode": "4550831",
    "prefectureCode": "23",
    "prefectureNumber": 23,
    "prefecture": "愛知県",
    "city": "名古屋市港区",
    "town": "十一屋"
  },
  "4550832": {
    "zipcode": "4550832",
    "prefectureCode": "23",
    "prefectureNumber": 23,
    "prefecture": "愛知県",
    "city": "名古屋市港区",
    "town": "宝神"
  },
  "4550833": {
    "zipcode": "4550833",
    "prefectureCode": "23",
    "prefectureNumber": 23,
    "prefecture": "愛知県",
    "city": "名古屋市港区",
    "town": "宝神町"
  },
  "4550834": {
    "zipcode": "4550834",
    "prefectureCode": "23",
    "prefectureNumber": 23,
    "prefecture": "愛知県",
    "city": "名古屋市港区",
    "town": "神宮寺"
  },
  "4550835": {
    "zipcode": "4550835",
    "prefectureCode": "23",
    "prefectureNumber": 23,
    "prefecture": "愛知県",
    "city": "名古屋市港区",
    "town": "十一屋町"
  },
  "4550841": {
    "zipcode": "4550841",
    "prefectureCode": "23",
    "prefectureNumber": 23,
    "prefecture": "愛知県",
    "city": "名古屋市港区",
    "town": "一州町"
  },
  "4550842": {
    "zipcode": "4550842",
    "prefectureCode": "23",
    "prefectureNumber": 23,
    "prefecture": "愛知県",
    "city": "名古屋市港区",
    "town": "稲永"
  },
  "4550843": {
    "zipcode": "4550843",
    "prefectureCode": "23",
    "prefectureNumber": 23,
    "prefecture": "愛知県",
    "city": "名古屋市港区",
    "town": "錦町"
  },
  "4550844": {
    "zipcode": "4550844",
    "prefectureCode": "23",
    "prefectureNumber": 23,
    "prefecture": "愛知県",
    "city": "名古屋市港区",
    "town": "潮凪町"
  },
  "4550845": {
    "zipcode": "4550845",
    "prefectureCode": "23",
    "prefectureNumber": 23,
    "prefecture": "愛知県",
    "city": "名古屋市港区",
    "town": "野跡"
  },
  "4550846": {
    "zipcode": "4550846",
    "prefectureCode": "23",
    "prefectureNumber": 23,
    "prefecture": "愛知県",
    "city": "名古屋市港区",
    "town": "汐止町"
  },
  "4550847": {
    "zipcode": "4550847",
    "prefectureCode": "23",
    "prefectureNumber": 23,
    "prefecture": "愛知県",
    "city": "名古屋市港区",
    "town": "空見町"
  },
  "4550848": {
    "zipcode": "4550848",
    "prefectureCode": "23",
    "prefectureNumber": 23,
    "prefecture": "愛知県",
    "city": "名古屋市港区",
    "town": "金城ふ頭"
  },
  "4550851": {
    "zipcode": "4550851",
    "prefectureCode": "23",
    "prefectureNumber": 23,
    "prefecture": "愛知県",
    "city": "名古屋市港区",
    "town": "東茶屋"
  },
  "4550852": {
    "zipcode": "4550852",
    "prefectureCode": "23",
    "prefectureNumber": 23,
    "prefecture": "愛知県",
    "city": "名古屋市港区",
    "town": "七島"
  },
  "4550853": {
    "zipcode": "4550853",
    "prefectureCode": "23",
    "prefectureNumber": 23,
    "prefecture": "愛知県",
    "city": "名古屋市港区",
    "town": "南陽町七島新田"
  },
  "4550854": {
    "zipcode": "4550854",
    "prefectureCode": "23",
    "prefectureNumber": 23,
    "prefecture": "愛知県",
    "city": "名古屋市港区",
    "town": "藤高"
  },
  "4550855": {
    "zipcode": "4550855",
    "prefectureCode": "23",
    "prefectureNumber": 23,
    "prefecture": "愛知県",
    "city": "名古屋市港区",
    "town": "藤前"
  },
  "4550856": {
    "zipcode": "4550856",
    "prefectureCode": "23",
    "prefectureNumber": 23,
    "prefecture": "愛知県",
    "city": "名古屋市港区",
    "town": "川園"
  },
  "4550857": {
    "zipcode": "4550857",
    "prefectureCode": "23",
    "prefectureNumber": 23,
    "prefecture": "愛知県",
    "city": "名古屋市港区",
    "town": "秋葉"
  },
  "4550858": {
    "zipcode": "4550858",
    "prefectureCode": "23",
    "prefectureNumber": 23,
    "prefecture": "愛知県",
    "city": "名古屋市港区",
    "town": "西茶屋"
  },
  "4550861": {
    "zipcode": "4550861",
    "prefectureCode": "23",
    "prefectureNumber": 23,
    "prefecture": "愛知県",
    "city": "名古屋市港区",
    "town": "大西"
  },
  "4550862": {
    "zipcode": "4550862",
    "prefectureCode": "23",
    "prefectureNumber": 23,
    "prefecture": "愛知県",
    "city": "名古屋市港区",
    "town": "南陽町茶屋新田"
  },
  "4550863": {
    "zipcode": "4550863",
    "prefectureCode": "23",
    "prefectureNumber": 23,
    "prefecture": "愛知県",
    "city": "名古屋市港区",
    "town": "新茶屋"
  },
  "4550864": {
    "zipcode": "4550864",
    "prefectureCode": "23",
    "prefectureNumber": 23,
    "prefecture": "愛知県",
    "city": "名古屋市港区",
    "town": "小川"
  },
  "4550865": {
    "zipcode": "4550865",
    "prefectureCode": "23",
    "prefectureNumber": 23,
    "prefecture": "愛知県",
    "city": "名古屋市港区",
    "town": "天目町"
  },
  "4550866": {
    "zipcode": "4550866",
    "prefectureCode": "23",
    "prefectureNumber": 23,
    "prefecture": "愛知県",
    "city": "名古屋市港区",
    "town": "南陽町茶屋後新田"
  },
  "4550867": {
    "zipcode": "4550867",
    "prefectureCode": "23",
    "prefectureNumber": 23,
    "prefecture": "愛知県",
    "city": "名古屋市港区",
    "town": "南陽町福田前新田"
  },
  "4550868": {
    "zipcode": "4550868",
    "prefectureCode": "23",
    "prefectureNumber": 23,
    "prefecture": "愛知県",
    "city": "名古屋市港区",
    "town": "南陽町西福田"
  },
  "4550869": {
    "zipcode": "4550869",
    "prefectureCode": "23",
    "prefectureNumber": 23,
    "prefecture": "愛知県",
    "city": "名古屋市港区",
    "town": "協和"
  },
  "4550871": {
    "zipcode": "4550871",
    "prefectureCode": "23",
    "prefectureNumber": 23,
    "prefecture": "愛知県",
    "city": "名古屋市港区",
    "town": "南陽町福田"
  },
  "4550872": {
    "zipcode": "4550872",
    "prefectureCode": "23",
    "prefectureNumber": 23,
    "prefecture": "愛知県",
    "city": "名古屋市港区",
    "town": "西蟹田"
  },
  "4550873": {
    "zipcode": "4550873",
    "prefectureCode": "23",
    "prefectureNumber": 23,
    "prefecture": "愛知県",
    "city": "名古屋市港区",
    "town": "春田野"
  },
  "4550874": {
    "zipcode": "4550874",
    "prefectureCode": "23",
    "prefectureNumber": 23,
    "prefecture": "愛知県",
    "city": "名古屋市港区",
    "town": "西福田"
  },
  "4550875": {
    "zipcode": "4550875",
    "prefectureCode": "23",
    "prefectureNumber": 23,
    "prefecture": "愛知県",
    "city": "名古屋市港区",
    "town": "寺前町"
  },
  "4550876": {
    "zipcode": "4550876",
    "prefectureCode": "23",
    "prefectureNumber": 23,
    "prefecture": "愛知県",
    "city": "名古屋市港区",
    "town": "福屋"
  },
  "4550877": {
    "zipcode": "4550877",
    "prefectureCode": "23",
    "prefectureNumber": 23,
    "prefecture": "愛知県",
    "city": "名古屋市港区",
    "town": "六軒家"
  },
  "4550878": {
    "zipcode": "4550878",
    "prefectureCode": "23",
    "prefectureNumber": 23,
    "prefecture": "愛知県",
    "city": "名古屋市港区",
    "town": "福前"
  },
  "4550879": {
    "zipcode": "4550879",
    "prefectureCode": "23",
    "prefectureNumber": 23,
    "prefecture": "愛知県",
    "city": "名古屋市港区",
    "town": "畑中"
  },
  "4550881": {
    "zipcode": "4550881",
    "prefectureCode": "23",
    "prefectureNumber": 23,
    "prefecture": "愛知県",
    "city": "名古屋市港区",
    "town": "船頭場"
  },
  "4550882": {
    "zipcode": "4550882",
    "prefectureCode": "23",
    "prefectureNumber": 23,
    "prefecture": "愛知県",
    "city": "名古屋市港区",
    "town": "小賀須"
  },
  "4550883": {
    "zipcode": "4550883",
    "prefectureCode": "23",
    "prefectureNumber": 23,
    "prefecture": "愛知県",
    "city": "名古屋市港区",
    "town": "知多"
  },
  "4550884": {
    "zipcode": "4550884",
    "prefectureCode": "23",
    "prefectureNumber": 23,
    "prefecture": "愛知県",
    "city": "名古屋市港区",
    "town": "七反野"
  },
  "4550885": {
    "zipcode": "4550885",
    "prefectureCode": "23",
    "prefectureNumber": 23,
    "prefecture": "愛知県",
    "city": "名古屋市港区",
    "town": "八百島"
  },
  "4550886": {
    "zipcode": "4550886",
    "prefectureCode": "23",
    "prefectureNumber": 23,
    "prefecture": "愛知県",
    "city": "名古屋市港区",
    "town": "東蟹田"
  },
  "4550887": {
    "zipcode": "4550887",
    "prefectureCode": "23",
    "prefectureNumber": 23,
    "prefecture": "愛知県",
    "city": "名古屋市港区",
    "town": "福田"
  }
}
