{
  "4560000": {
    "zipcode": "4560000",
    "prefectureCode": "23",
    "prefectureNumber": 23,
    "prefecture": "愛知県",
    "city": "名古屋市熱田区",
    "town": "以下に掲載がない場合"
  },
  "4560001": {
    "zipcode": "4560001",
    "prefectureCode": "23",
    "prefectureNumber": 23,
    "prefecture": "愛知県",
    "city": "名古屋市熱田区",
    "town": "金山"
  },
  "4560002": {
    "zipcode": "4560002",
    "prefectureCode": "23",
    "prefectureNumber": 23,
    "prefecture": "愛知県",
    "city": "名古屋市熱田区",
    "town": "金山町"
  },
  "4560003": {
    "zipcode": "4560003",
    "prefectureCode": "23",
    "prefectureNumber": 23,
    "prefecture": "愛知県",
    "city": "名古屋市熱田区",
    "town": "波寄町"
  },
  "4560004": {
    "zipcode": "4560004",
    "prefectureCode": "23",
    "prefectureNumber": 23,
    "prefecture": "愛知県",
    "city": "名古屋市熱田区",
    "town": "桜田町"
  },
  "4560005": {
    "zipcode": "4560005",
    "prefectureCode": "23",
    "prefectureNumber": 23,
    "prefecture": "愛知県",
    "city": "名古屋市熱田区",
    "town": "池内町"
  },
  "4560006": {
    "zipcode": "4560006",
    "prefectureCode": "23",
    "prefectureNumber": 23,
    "prefecture": "愛知県",
    "city": "名古屋市熱田区",
    "town": "沢下町"
  },
  "4560011": {
    "zipcode": "4560011",
    "prefectureCode": "23",
    "prefectureNumber": 23,
    "prefecture": "愛知県",
    "city": "名古屋市熱田区",
    "town": "花町"
  },
  "4560012": {
    "zipcode": "4560012",
    "prefectureCode": "23",
    "prefectureNumber": 23,
    "prefecture": "愛知県",
    "city": "名古屋市熱田区",
    "town": "沢上"
  },
  "4560013": {
    "zipcode": "4560013",
    "prefectureCode": "23",
    "prefectureNumber": 23,
    "prefecture": "愛知県",
    "city": "名古屋市熱田区",
    "town": "外土居町"
  },
  "4560014": {
    "zipcode": "4560014",
    "prefectureCode": "23",
    "prefectureNumber": 23,
    "prefecture": "愛知県",
    "city": "名古屋市熱田区",
    "town": "中田町"
  },
  "4560015": {
    "zipcode": "4560015",
    "prefectureCode": "23",
    "prefectureNumber": 23,
    "prefecture": "愛知県",
    "city": "名古屋市熱田区",
    "town": "高蔵町"
  },
  "4560016": {
    "zipcode": "4560016",
    "prefectureCode": "23",
    "prefectureNumber": 23,
    "prefecture": "愛知県",
    "city": "名古屋市熱田区",
    "town": "五本松町"
  },
  "4560017": {
    "zipcode": "4560017",
    "prefectureCode": "23",
    "prefectureNumber": 23,
    "prefecture": "愛知県",
    "city": "名古屋市熱田区",
    "town": "尾頭町"
  },
  "4560018": {
    "zipcode": "4560018",
    "prefectureCode": "23",
    "prefectureNumber": 23,
    "prefecture": "愛知県",
    "city": "名古屋市熱田区",
    "town": "新尾頭"
  },
  "4560021": {
    "zipcode": "4560021",
    "prefectureCode": "23",
    "prefectureNumber": 23,
    "prefecture": "愛知県",
    "city": "名古屋市熱田区",
    "town": "夜寒町"
  },
  "4560022": {
    "zipcode": "4560022",
    "prefectureCode": "23",
    "prefectureNumber": 23,
    "prefecture": "愛知県",
    "city": "名古屋市熱田区",
    "town": "横田"
  },
  "4560023": {
    "zipcode": "4560023",
    "prefectureCode": "23",
    "prefectureNumber": 23,
    "prefecture": "愛知県",
    "city": "名古屋市熱田区",
    "town": "六野"
  },
  "4560024": {
    "zipcode": "4560024",
    "prefectureCode": "23",
    "prefectureNumber": 23,
    "prefecture": "愛知県",
    "city": "名古屋市熱田区",
    "town": "森後町"
  },
  "4560025": {
    "zipcode": "4560025",
    "prefectureCode": "23",
    "prefectureNumber": 23,
    "prefecture": "愛知県",
    "city": "名古屋市熱田区",
    "town": "玉の井町"
  },
  "4560026": {
    "zipcode": "4560026",
    "prefectureCode": "23",
    "prefectureNumber": 23,
    "prefecture": "愛知県",
    "city": "名古屋市熱田区",
    "town": "旗屋町"
  },
  "4560027": {
    "zipcode": "4560027",
    "prefectureCode": "23",
    "prefectureNumber": 23,
    "prefecture": "愛知県",
    "city": "名古屋市熱田区",
    "town": "旗屋"
  },
  "4560031": {
    "zipcode": "4560031",
    "prefectureCode": "23",
    "prefectureNumber": 23,
    "prefecture": "愛知県",
    "city": "名古屋市熱田区",
    "town": "神宮"
  },
  "4560032": {
    "zipcode": "4560032",
    "prefectureCode": "23",
    "prefectureNumber": 23,
    "prefecture": "愛知県",
    "city": "名古屋市熱田区",
    "town": "三本松町"
  },
  "4560033": {
    "zipcode": "4560033",
    "prefectureCode": "23",
    "prefectureNumber": 23,
    "prefecture": "愛知県",
    "city": "名古屋市熱田区",
    "town": "花表町"
  },
  "4560034": {
    "zipcode": "4560034",
    "prefectureCode": "23",
    "prefectureNumber": 23,
    "prefecture": "愛知県",
    "city": "名古屋市熱田区",
    "town": "伝馬"
  },
  "4560035": {
    "zipcode": "4560035",
    "prefectureCode": "23",
    "prefectureNumber": 23,
    "prefecture": "愛知県",
    "city": "名古屋市熱田区",
    "town": "白鳥"
  },
  "4560036": {
    "zipcode": "4560036",
    "prefectureCode": "23",
    "prefectureNumber": 23,
    "prefecture": "愛知県",
    "city": "名古屋市熱田区",
    "town": "熱田西町"
  },
  "4560037": {
    "zipcode": "4560037",
    "prefectureCode": "23",
    "prefectureNumber": 23,
    "prefecture": "愛知県",
    "city": "名古屋市熱田区",
    "town": "熱田新田東組"
  },
  "4560041": {
    "zipcode": "4560041",
    "prefectureCode": "23",
    "prefectureNumber": 23,
    "prefecture": "愛知県",
    "city": "名古屋市熱田区",
    "town": "中瀬町"
  },
  "4560042": {
    "zipcode": "4560042",
    "prefectureCode": "23",
    "prefectureNumber": 23,
    "prefecture": "愛知県",
    "city": "名古屋市熱田区",
    "town": "須賀町"
  },
  "4560043": {
    "zipcode": "4560043",
    "prefectureCode": "23",
    "prefectureNumber": 23,
    "prefecture": "愛知県",
    "city": "名古屋市熱田区",
    "town": "神戸町"
  },
  "4560044": {
    "zipcode": "4560044",
    "prefectureCode": "23",
    "prefectureNumber": 23,
    "prefecture": "愛知県",
    "city": "名古屋市熱田区",
    "town": "内田町"
  },
  "4560045": {
    "zipcode": "4560045",
    "prefectureCode": "23",
    "prefectureNumber": 23,
    "prefecture": "愛知県",
    "city": "名古屋市熱田区",
    "town": "大瀬子町"
  },
  "4560046": {
    "zipcode": "4560046",
    "prefectureCode": "23",
    "prefectureNumber": 23,
    "prefecture": "愛知県",
    "city": "名古屋市熱田区",
    "town": "木之免町"
  },
  "4560047": {
    "zipcode": "4560047",
    "prefectureCode": "23",
    "prefectureNumber": 23,
    "prefecture": "愛知県",
    "city": "名古屋市熱田区",
    "town": "田中町"
  },
  "4560048": {
    "zipcode": "4560048",
    "prefectureCode": "23",
    "prefectureNumber": 23,
    "prefecture": "愛知県",
    "city": "名古屋市熱田区",
    "town": "白鳥町"
  },
  "4560051": {
    "zipcode": "4560051",
    "prefectureCode": "23",
    "prefectureNumber": 23,
    "prefecture": "愛知県",
    "city": "名古屋市熱田区",
    "town": "四番"
  },
  "4560052": {
    "zipcode": "4560052",
    "prefectureCode": "23",
    "prefectureNumber": 23,
    "prefecture": "愛知県",
    "city": "名古屋市熱田区",
    "town": "二番"
  },
  "4560053": {
    "zipcode": "4560053",
    "prefectureCode": "23",
    "prefectureNumber": 23,
    "prefecture": "愛知県",
    "city": "名古屋市熱田区",
    "town": "一番"
  },
  "4560054": {
    "zipcode": "4560054",
    "prefectureCode": "23",
    "prefectureNumber": 23,
    "prefecture": "愛知県",
    "city": "名古屋市熱田区",
    "town": "千年"
  },
  "4560055": {
    "zipcode": "4560055",
    "prefectureCode": "23",
    "prefectureNumber": 23,
    "prefecture": "愛知県",
    "city": "名古屋市熱田区",
    "town": "南一番町"
  },
  "4560056": {
    "zipcode": "4560056",
    "prefectureCode": "23",
    "prefectureNumber": 23,
    "prefecture": "愛知県",
    "city": "名古屋市熱田区",
    "town": "三番町"
  },
  "4560057": {
    "zipcode": "4560057",
    "prefectureCode": "23",
    "prefectureNumber": 23,
    "prefecture": "愛知県",
    "city": "名古屋市熱田区",
    "town": "五番町"
  },
  "4560058": {
    "zipcode": "4560058",
    "prefectureCode": "23",
    "prefectureNumber": 23,
    "prefecture": "愛知県",
    "city": "名古屋市熱田区",
    "town": "六番"
  },
  "4560059": {
    "zipcode": "4560059",
    "prefectureCode": "23",
    "prefectureNumber": 23,
    "prefecture": "愛知県",
    "city": "名古屋市熱田区",
    "town": "八番"
  },
  "4560061": {
    "zipcode": "4560061",
    "prefectureCode": "23",
    "prefectureNumber": 23,
    "prefecture": "愛知県",
    "city": "名古屋市熱田区",
    "town": "西郊通"
  },
  "4560062": {
    "zipcode": "4560062",
    "prefectureCode": "23",
    "prefectureNumber": 23,
    "prefecture": "愛知県",
    "city": "名古屋市熱田区",
    "town": "大宝"
  },
  "4560063": {
    "zipcode": "4560063",
    "prefectureCode": "23",
    "prefectureNumber": 23,
    "prefecture": "愛知県",
    "city": "名古屋市熱田区",
    "town": "西野町"
  },
  "4560064": {
    "zipcode": "4560064",
    "prefectureCode": "23",
    "prefectureNumber": 23,
    "prefecture": "愛知県",
    "city": "名古屋市熱田区",
    "town": "古新町"
  },
  "4560065": {
    "zipcode": "4560065",
    "prefectureCode": "23",
    "prefectureNumber": 23,
    "prefecture": "愛知県",
    "city": "名古屋市熱田区",
    "town": "河田町"
  },
  "4560066": {
    "zipcode": "4560066",
    "prefectureCode": "23",
    "prefectureNumber": 23,
    "prefecture": "愛知県",
    "city": "名古屋市熱田区",
    "town": "野立町"
  },
  "4560067": {
    "zipcode": "4560067",
    "prefectureCode": "23",
    "prefectureNumber": 23,
    "prefecture": "愛知県",
    "city": "名古屋市熱田区",
    "town": "中出町"
  },
  "4560068": {
    "zipcode": "4560068",
    "prefectureCode": "23",
    "prefectureNumber": 23,
    "prefecture": "愛知県",
    "city": "名古屋市熱田区",
    "town": "神野町"
  },
  "4560069": {
    "zipcode": "4560069",
    "prefectureCode": "23",
    "prefectureNumber": 23,
    "prefecture": "愛知県",
    "city": "名古屋市熱田区",
    "town": "中野新町"
  },
  "4560071": {
    "zipcode": "4560071",
    "prefectureCode": "23",
    "prefectureNumber": 23,
    "prefecture": "愛知県",
    "city": "名古屋市熱田区",
    "town": "明野町"
  },
  "4560072": {
    "zipcode": "4560072",
    "prefectureCode": "23",
    "prefectureNumber": 23,
    "prefecture": "愛知県",
    "city": "名古屋市熱田区",
    "town": "川並町"
  },
  "4560073": {
    "zipcode": "4560073",
    "prefectureCode": "23",
    "prefectureNumber": 23,
    "prefecture": "愛知県",
    "city": "名古屋市熱田区",
    "town": "千代田町"
  },
  "4560074": {
    "zipcode": "4560074",
    "prefectureCode": "23",
    "prefectureNumber": 23,
    "prefecture": "愛知県",
    "city": "名古屋市熱田区",
    "town": "比々野町"
  },
  "4560075": {
    "zipcode": "4560075",
    "prefectureCode": "23",
    "prefectureNumber": 23,
    "prefecture": "愛知県",
    "city": "名古屋市熱田区",
    "town": "青池町"
  },
  "4560076": {
    "zipcode": "4560076",
    "prefectureCode": "23",
    "prefectureNumber": 23,
    "prefecture": "愛知県",
    "city": "名古屋市熱田区",
    "town": "切戸町"
  },
  "4560077": {
    "zipcode": "4560077",
    "prefectureCode": "23",
    "prefectureNumber": 23,
    "prefecture": "愛知県",
    "city": "名古屋市熱田区",
    "town": "幡野町"
  },
  "4560078": {
    "zipcode": "4560078",
    "prefectureCode": "23",
    "prefectureNumber": 23,
    "prefecture": "愛知県",
    "city": "名古屋市熱田区",
    "town": "南八熊町"
  }
}
