{
  "4570000": {
    "zipcode": "4570000",
    "prefectureCode": "23",
    "prefectureNumber": 23,
    "prefecture": "愛知県",
    "city": "名古屋市南区",
    "town": "以下に掲載がない場合"
  },
  "4570001": {
    "zipcode": "4570001",
    "prefectureCode": "23",
    "prefectureNumber": 23,
    "prefecture": "愛知県",
    "city": "名古屋市南区",
    "town": "平子"
  },
  "4570002": {
    "zipcode": "4570002",
    "prefectureCode": "23",
    "prefectureNumber": 23,
    "prefecture": "愛知県",
    "city": "名古屋市南区",
    "town": "大堀町"
  },
  "4570003": {
    "zipcode": "4570003",
    "prefectureCode": "23",
    "prefectureNumber": 23,
    "prefecture": "愛知県",
    "city": "名古屋市南区",
    "town": "鶴田"
  },
  "4570004": {
    "zipcode": "4570004",
    "prefectureCode": "23",
    "prefectureNumber": 23,
    "prefecture": "愛知県",
    "city": "名古屋市南区",
    "town": "中江"
  },
  "4570005": {
    "zipcode": "4570005",
    "prefectureCode": "23",
    "prefectureNumber": 23,
    "prefecture": "愛知県",
    "city": "名古屋市南区",
    "town": "桜台"
  },
  "4570006": {
    "zipcode": "4570006",
    "prefectureCode": "23",
    "prefectureNumber": 23,
    "prefecture": "愛知県",
    "city": "名古屋市南区",
    "town": "鳥栖"
  },
  "4570007": {
    "zipcode": "4570007",
    "prefectureCode": "23",
    "prefectureNumber": 23,
    "prefecture": "愛知県",
    "city": "名古屋市南区",
    "town": "駈上"
  },
  "4570008": {
    "zipcode": "4570008",
    "prefectureCode": "23",
    "prefectureNumber": 23,
    "prefecture": "愛知県",
    "city": "名古屋市南区",
    "town": "外山"
  },
  "4570011": {
    "zipcode": "4570011",
    "prefectureCode": "23",
    "prefectureNumber": 23,
    "prefecture": "愛知県",
    "city": "名古屋市南区",
    "town": "呼続元町"
  },
  "4570012": {
    "zipcode": "4570012",
    "prefectureCode": "23",
    "prefectureNumber": 23,
    "prefecture": "愛知県",
    "city": "名古屋市南区",
    "town": "菊住"
  },
  "4570013": {
    "zipcode": "4570013",
    "prefectureCode": "23",
    "prefectureNumber": 23,
    "prefecture": "愛知県",
    "city": "名古屋市南区",
    "town": "寺崎町"
  },
  "4570014": {
    "zipcode": "4570014",
    "prefectureCode": "23",
    "prefectureNumber": 23,
    "prefecture": "愛知県",
    "city": "名古屋市南区",
    "town": "呼続"
  },
  "4570015": {
    "zipcode": "4570015",
    "prefectureCode": "23",
    "prefectureNumber": 23,
    "prefecture": "愛知県",
    "city": "名古屋市南区",
    "town": "岩戸町"
  },
  "4570016": {
    "zipcode": "4570016",
    "prefectureCode": "23",
    "prefectureNumber": 23,
    "prefecture": "愛知県",
    "city": "名古屋市南区",
    "town": "汐田町"
  },
  "4570021": {
    "zipcode": "4570021",
    "prefectureCode": "23",
    "prefectureNumber": 23,
    "prefecture": "愛知県",
    "city": "名古屋市南区",
    "town": "鶴里町"
  },
  "4570022": {
    "zipcode": "4570022",
    "prefectureCode": "23",
    "prefectureNumber": 23,
    "prefecture": "愛知県",
    "city": "名古屋市南区",
    "town": "明円町"
  },
  "4570023": {
    "zipcode": "4570023",
    "prefectureCode": "23",
    "prefectureNumber": 23,
    "prefecture": "愛知県",
    "city": "名古屋市南区",
    "town": "芝町"
  },
  "4570024": {
    "zipcode": "4570024",
    "prefectureCode": "23",
    "prefectureNumber": 23,
    "prefecture": "愛知県",
    "city": "名古屋市南区",
    "town": "赤坪町"
  },
  "4570025": {
    "zipcode": "4570025",
    "prefectureCode": "23",
    "prefectureNumber": 23,
    "prefecture": "愛知県",
    "city": "名古屋市南区",
    "town": "白雲町"
  },
  "4570026": {
    "zipcode": "4570026",
    "prefectureCode": "23",
    "prefectureNumber": 23,
    "prefecture": "愛知県",
    "city": "名古屋市南区",
    "town": "見晴町"
  },
  "4570027": {
    "zipcode": "4570027",
    "prefectureCode": "23",
    "prefectureNumber": 23,
    "prefecture": "愛知県",
    "city": "名古屋市南区",
    "town": "弥生町"
  },
  "4570028": {
    "zipcode": "4570028",
    "prefectureCode": "23",
    "prefectureNumber": 23,
    "prefecture": "愛知県",
    "city": "名古屋市南区",
    "town": "楠町"
  },
  "4570031": {
    "zipcode": "4570031",
    "prefectureCode": "23",
    "prefectureNumber": 23,
    "prefecture": "愛知県",
    "city": "名古屋市南区",
    "town": "鯛取通"
  },
  "4570032": {
    "zipcode": "4570032",
    "prefectureCode": "23",
    "prefectureNumber": 23,
    "prefecture": "愛知県",
    "city": "名古屋市南区",
    "town": "元桜田町"
  },
  "4570033": {
    "zipcode": "4570033",
    "prefectureCode": "23",
    "prefectureNumber": 23,
    "prefecture": "愛知県",
    "city": "名古屋市南区",
    "town": "霞町"
  },
  "4570034": {
    "zipcode": "4570034",
    "prefectureCode": "23",
    "prefectureNumber": 23,
    "prefecture": "愛知県",
    "city": "名古屋市南区",
    "town": "春日野町"
  },
  "4570035": {
    "zipcode": "4570035",
    "prefectureCode": "23",
    "prefectureNumber": 23,
    "prefecture": "愛知県",
    "city": "名古屋市南区",
    "town": "貝塚町"
  },
  "4570036": {
    "zipcode": "4570036",
    "prefectureCode": "23",
    "prefectureNumber": 23,
    "prefecture": "愛知県",
    "city": "名古屋市南区",
    "town": "若草町"
  },
  "4570037": {
    "zipcode": "4570037",
    "prefectureCode": "23",
    "prefectureNumber": 23,
    "prefecture": "愛知県",
    "city": "名古屋市南区",
    "town": "扇田町"
  },
  "4570038": {
    "zipcode": "4570038",
    "prefectureCode": "23",
    "prefectureNumber": 23,
    "prefecture": "愛知県",
    "city": "名古屋市南区",
    "town": "桜本町"
  },
  "4570039": {
    "zipcode": "4570039",
    "prefectureCode": "23",
    "prefectureNumber": 23,
    "prefecture": "愛知県",
    "city": "名古屋市南区",
    "town": "西桜町"
  },
  "4570041": {
    "zipcode": "4570041",
    "prefectureCode": "23",
    "prefectureNumber": 23,
    "prefecture": "愛知県",
    "city": "名古屋市南区",
    "town": "薬師通"
  },
  "4570042": {
    "zipcode": "4570042",
    "prefectureCode": "23",
    "prefectureNumber": 23,
    "prefecture": "愛知県",
    "city": "名古屋市南区",
    "town": "曽池町"
  },
  "4570043": {
    "zipcode": "4570043",
    "prefectureCode": "23",
    "prefectureNumber": 23,
    "prefecture": "愛知県",
    "city": "名古屋市南区",
    "town": "戸部町"
  },
  "4570044": {
    "zipcode": "4570044",
    "prefectureCode": "23",
    "prefectureNumber": 23,
    "prefecture": "愛知県",
    "city": "名古屋市南区",
    "town": "柵下町"
  },
  "4570045": {
    "zipcode": "4570045",
    "prefectureCode": "23",
    "prefectureNumber": 23,
    "prefecture": "愛知県",
    "city": "名古屋市南区",
    "town": "松城町"
  },
  "4570046": {
    "zipcode": "4570046",
    "prefectureCode": "23",
    "prefectureNumber": 23,
    "prefecture": "愛知県",
    "city": "名古屋市南区",
    "town": "松池町"
  },
  "4570047": {
    "zipcode": "4570047",
    "prefectureCode": "23",
    "prefectureNumber": 23,
    "prefecture": "愛知県",
    "city": "名古屋市南区",
    "town": "城下町"
  },
  "4570048": {
    "zipcode": "4570048",
    "prefectureCode": "23",
    "prefectureNumber": 23,
    "prefecture": "愛知県",
    "city": "名古屋市南区",
    "town": "大磯通"
  },
  "4570049": {
    "zipcode": "4570049",
    "prefectureCode": "23",
    "prefectureNumber": 23,
    "prefecture": "愛知県",
    "city": "名古屋市南区",
    "town": "北内町"
  },
  "4570051": {
    "zipcode": "4570051",
    "prefectureCode": "23",
    "prefectureNumber": 23,
    "prefecture": "愛知県",
    "city": "名古屋市南区",
    "town": "笠寺町"
  },
  "4570052": {
    "zipcode": "4570052",
    "prefectureCode": "23",
    "prefectureNumber": 23,
    "prefecture": "愛知県",
    "city": "名古屋市南区",
    "town": "粕畠町"
  },
  "4570053": {
    "zipcode": "4570053",
    "prefectureCode": "23",
    "prefectureNumber": 23,
    "prefecture": "愛知県",
    "city": "名古屋市南区",
    "town": "本城町"
  },
  "4570054": {
    "zipcode": "4570054",
    "prefectureCode": "23",
    "prefectureNumber": 23,
    "prefecture": "愛知県",
    "city": "名古屋市南区",
    "town": "砂口町"
  },
  "4570055": {
    "zipcode": "4570055",
    "prefectureCode": "23",
    "prefectureNumber": 23,
    "prefecture": "愛知県",
    "city": "名古屋市南区",
    "town": "星宮町"
  },
  "4570056": {
    "zipcode": "4570056",
    "prefectureCode": "23",
    "prefectureNumber": 23,
    "prefecture": "愛知県",
    "city": "名古屋市南区",
    "town": "本星崎町"
  },
  "4570057": {
    "zipcode": "4570057",
    "prefectureCode": "23",
    "prefectureNumber": 23,
    "prefecture": "愛知県",
    "city": "名古屋市南区",
    "town": "鳥山町"
  },
  "4570058": {
    "zipcode": "4570058",
    "prefectureCode": "23",
    "prefectureNumber": 23,
    "prefecture": "愛知県",
    "city": "名古屋市南区",
    "town": "前浜通"
  },
  "4570061": {
    "zipcode": "4570061",
    "prefectureCode": "23",
    "prefectureNumber": 23,
    "prefecture": "愛知県",
    "city": "名古屋市南区",
    "town": "星崎町（殿海道）"
  },
  "4570062": {
    "zipcode": "4570062",
    "prefectureCode": "23",
    "prefectureNumber": 23,
    "prefecture": "愛知県",
    "city": "名古屋市南区",
    "town": "星崎町（阿原）"
  },
  "4570063": {
    "zipcode": "4570063",
    "prefectureCode": "23",
    "prefectureNumber": 23,
    "prefecture": "愛知県",
    "city": "名古屋市南区",
    "town": "阿原町"
  },
  "4570064": {
    "zipcode": "4570064",
    "prefectureCode": "23",
    "prefectureNumber": 23,
    "prefecture": "愛知県",
    "city": "名古屋市南区",
    "town": "星崎"
  },
  "4570065": {
    "zipcode": "4570065",
    "prefectureCode": "23",
    "prefectureNumber": 23,
    "prefecture": "愛知県",
    "city": "名古屋市南区",
    "town": "元鳴尾町"
  },
  "4570066": {
    "zipcode": "4570066",
    "prefectureCode": "23",
    "prefectureNumber": 23,
    "prefecture": "愛知県",
    "city": "名古屋市南区",
    "town": "鳴尾"
  },
  "4570067": {
    "zipcode": "4570067",
    "prefectureCode": "23",
    "prefectureNumber": 23,
    "prefecture": "愛知県",
    "city": "名古屋市南区",
    "town": "上浜町"
  },
  "4570068": {
    "zipcode": "4570068",
    "prefectureCode": "23",
    "prefectureNumber": 23,
    "prefecture": "愛知県",
    "city": "名古屋市南区",
    "town": "南野"
  },
  "4570069": {
    "zipcode": "4570069",
    "prefectureCode": "23",
    "prefectureNumber": 23,
    "prefecture": "愛知県",
    "city": "名古屋市南区",
    "town": "星園町"
  },
  "4570071": {
    "zipcode": "4570071",
    "prefectureCode": "23",
    "prefectureNumber": 23,
    "prefecture": "愛知県",
    "city": "名古屋市南区",
    "town": "千竈通"
  },
  "4570072": {
    "zipcode": "4570072",
    "prefectureCode": "23",
    "prefectureNumber": 23,
    "prefecture": "愛知県",
    "city": "名古屋市南区",
    "town": "寺部通"
  },
  "4570073": {
    "zipcode": "4570073",
    "prefectureCode": "23",
    "prefectureNumber": 23,
    "prefecture": "愛知県",
    "city": "名古屋市南区",
    "town": "西田町"
  },
  "4570074": {
    "zipcode": "4570074",
    "prefectureCode": "23",
    "prefectureNumber": 23,
    "prefecture": "愛知県",
    "city": "名古屋市南区",
    "town": "本地通"
  },
  "4570075": {
    "zipcode": "4570075",
    "prefectureCode": "23",
    "prefectureNumber": 23,
    "prefecture": "愛知県",
    "city": "名古屋市南区",
    "town": "石元町"
  },
  "4570076": {
    "zipcode": "4570076",
    "prefectureCode": "23",
    "prefectureNumber": 23,
    "prefecture": "愛知県",
    "city": "名古屋市南区",
    "town": "道全町"
  },
  "4570077": {
    "zipcode": "4570077",
    "prefectureCode": "23",
    "prefectureNumber": 23,
    "prefecture": "愛知県",
    "city": "名古屋市南区",
    "town": "立脇町"
  },
  "4570078": {
    "zipcode": "4570078",
    "prefectureCode": "23",
    "prefectureNumber": 23,
    "prefecture": "愛知県",
    "city": "名古屋市南区",
    "town": "塩屋町"
  },
  "4570801": {
    "zipcode": "4570801",
    "prefectureCode": "23",
    "prefectureNumber": 23,
    "prefecture": "愛知県",
    "city": "名古屋市南区",
    "town": "丹後通"
  },
  "4570802": {
    "zipcode": "4570802",
    "prefectureCode": "23",
    "prefectureNumber": 23,
    "prefecture": "愛知県",
    "city": "名古屋市南区",
    "town": "要町"
  },
  "4570803": {
    "zipcode": "4570803",
    "prefectureCode": "23",
    "prefectureNumber": 23,
    "prefecture": "愛知県",
    "city": "名古屋市南区",
    "town": "天白町"
  },
  "4570804": {
    "zipcode": "4570804",
    "prefectureCode": "23",
    "prefectureNumber": 23,
    "prefecture": "愛知県",
    "city": "名古屋市南区",
    "town": "源兵衛町"
  },
  "4570805": {
    "zipcode": "4570805",
    "prefectureCode": "23",
    "prefectureNumber": 23,
    "prefecture": "愛知県",
    "city": "名古屋市南区",
    "town": "三吉町"
  },
  "4570806": {
    "zipcode": "4570806",
    "prefectureCode": "23",
    "prefectureNumber": 23,
    "prefecture": "愛知県",
    "city": "名古屋市南区",
    "town": "鳴浜町"
  },
  "4570807": {
    "zipcode": "4570807",
    "prefectureCode": "23",
    "prefectureNumber": 23,
    "prefecture": "愛知県",
    "city": "名古屋市南区",
    "town": "鶴見通"
  },
  "4570808": {
    "zipcode": "4570808",
    "prefectureCode": "23",
    "prefectureNumber": 23,
    "prefecture": "愛知県",
    "city": "名古屋市南区",
    "town": "松下町"
  },
  "4570811": {
    "zipcode": "4570811",
    "prefectureCode": "23",
    "prefectureNumber": 23,
    "prefecture": "愛知県",
    "city": "名古屋市南区",
    "town": "大同町"
  },
  "4570812": {
    "zipcode": "4570812",
    "prefectureCode": "23",
    "prefectureNumber": 23,
    "prefecture": "愛知県",
    "city": "名古屋市南区",
    "town": "星崎町"
  },
  "4570813": {
    "zipcode": "4570813",
    "prefectureCode": "23",
    "prefectureNumber": 23,
    "prefecture": "愛知県",
    "city": "名古屋市南区",
    "town": "鳴尾町（丹後江）"
  },
  "4570814": {
    "zipcode": "4570814",
    "prefectureCode": "23",
    "prefectureNumber": 23,
    "prefecture": "愛知県",
    "city": "名古屋市南区",
    "town": "柴田本通"
  },
  "4570815": {
    "zipcode": "4570815",
    "prefectureCode": "23",
    "prefectureNumber": 23,
    "prefecture": "愛知県",
    "city": "名古屋市南区",
    "town": "柴田町"
  },
  "4570816": {
    "zipcode": "4570816",
    "prefectureCode": "23",
    "prefectureNumber": 23,
    "prefecture": "愛知県",
    "city": "名古屋市南区",
    "town": "元柴田東町"
  },
  "4570817": {
    "zipcode": "4570817",
    "prefectureCode": "23",
    "prefectureNumber": 23,
    "prefecture": "愛知県",
    "city": "名古屋市南区",
    "town": "元柴田西町"
  },
  "4570818": {
    "zipcode": "4570818",
    "prefectureCode": "23",
    "prefectureNumber": 23,
    "prefecture": "愛知県",
    "city": "名古屋市南区",
    "town": "白水町"
  },
  "4570819": {
    "zipcode": "4570819",
    "prefectureCode": "23",
    "prefectureNumber": 23,
    "prefecture": "愛知県",
    "city": "名古屋市南区",
    "town": "滝春町"
  },
  "4570821": {
    "zipcode": "4570821",
    "prefectureCode": "23",
    "prefectureNumber": 23,
    "prefecture": "愛知県",
    "city": "名古屋市南区",
    "town": "弥次ヱ町"
  },
  "4570822": {
    "zipcode": "4570822",
    "prefectureCode": "23",
    "prefectureNumber": 23,
    "prefecture": "愛知県",
    "city": "名古屋市南区",
    "town": "浜田町"
  },
  "4570823": {
    "zipcode": "4570823",
    "prefectureCode": "23",
    "prefectureNumber": 23,
    "prefecture": "愛知県",
    "city": "名古屋市南区",
    "town": "元塩町"
  },
  "4570824": {
    "zipcode": "4570824",
    "prefectureCode": "23",
    "prefectureNumber": 23,
    "prefecture": "愛知県",
    "city": "名古屋市南区",
    "town": "神松町"
  },
  "4570825": {
    "zipcode": "4570825",
    "prefectureCode": "23",
    "prefectureNumber": 23,
    "prefecture": "愛知県",
    "city": "名古屋市南区",
    "town": "堤起町"
  },
  "4570826": {
    "zipcode": "4570826",
    "prefectureCode": "23",
    "prefectureNumber": 23,
    "prefecture": "愛知県",
    "city": "名古屋市南区",
    "town": "中割町"
  },
  "4570827": {
    "zipcode": "4570827",
    "prefectureCode": "23",
    "prefectureNumber": 23,
    "prefecture": "愛知県",
    "city": "名古屋市南区",
    "town": "北頭町"
  },
  "4570828": {
    "zipcode": "4570828",
    "prefectureCode": "23",
    "prefectureNumber": 23,
    "prefecture": "愛知県",
    "city": "名古屋市南区",
    "town": "宝生町"
  },
  "4570831": {
    "zipcode": "4570831",
    "prefectureCode": "23",
    "prefectureNumber": 23,
    "prefecture": "愛知県",
    "city": "名古屋市南区",
    "town": "荒浜町"
  },
  "4570832": {
    "zipcode": "4570832",
    "prefectureCode": "23",
    "prefectureNumber": 23,
    "prefecture": "愛知県",
    "city": "名古屋市南区",
    "town": "浜中町"
  },
  "4570833": {
    "zipcode": "4570833",
    "prefectureCode": "23",
    "prefectureNumber": 23,
    "prefecture": "愛知県",
    "city": "名古屋市南区",
    "town": "東又兵ヱ町"
  },
  "4570834": {
    "zipcode": "4570834",
    "prefectureCode": "23",
    "prefectureNumber": 23,
    "prefecture": "愛知県",
    "city": "名古屋市南区",
    "town": "港東通"
  },
  "4570835": {
    "zipcode": "4570835",
    "prefectureCode": "23",
    "prefectureNumber": 23,
    "prefecture": "愛知県",
    "city": "名古屋市南区",
    "town": "西又兵ヱ町"
  },
  "4570836": {
    "zipcode": "4570836",
    "prefectureCode": "23",
    "prefectureNumber": 23,
    "prefecture": "愛知県",
    "city": "名古屋市南区",
    "town": "加福本通"
  },
  "4570837": {
    "zipcode": "4570837",
    "prefectureCode": "23",
    "prefectureNumber": 23,
    "prefecture": "愛知県",
    "city": "名古屋市南区",
    "town": "加福町"
  },
  "4570841": {
    "zipcode": "4570841",
    "prefectureCode": "23",
    "prefectureNumber": 23,
    "prefecture": "愛知県",
    "city": "名古屋市南区",
    "town": "豊田"
  },
  "4570842": {
    "zipcode": "4570842",
    "prefectureCode": "23",
    "prefectureNumber": 23,
    "prefecture": "愛知県",
    "city": "名古屋市南区",
    "town": "戸部下"
  },
  "4570843": {
    "zipcode": "4570843",
    "prefectureCode": "23",
    "prefectureNumber": 23,
    "prefecture": "愛知県",
    "city": "名古屋市南区",
    "town": "忠次"
  },
  "4570844": {
    "zipcode": "4570844",
    "prefectureCode": "23",
    "prefectureNumber": 23,
    "prefecture": "愛知県",
    "city": "名古屋市南区",
    "town": "堤町"
  },
  "4570845": {
    "zipcode": "4570845",
    "prefectureCode": "23",
    "prefectureNumber": 23,
    "prefecture": "愛知県",
    "city": "名古屋市南区",
    "town": "観音町"
  },
  "4570846": {
    "zipcode": "4570846",
    "prefectureCode": "23",
    "prefectureNumber": 23,
    "prefecture": "愛知県",
    "city": "名古屋市南区",
    "town": "道徳通"
  },
  "4570847": {
    "zipcode": "4570847",
    "prefectureCode": "23",
    "prefectureNumber": 23,
    "prefecture": "愛知県",
    "city": "名古屋市南区",
    "town": "道徳新町"
  },
  "4570851": {
    "zipcode": "4570851",
    "prefectureCode": "23",
    "prefectureNumber": 23,
    "prefecture": "愛知県",
    "city": "名古屋市南区",
    "town": "五条町"
  },
  "4570852": {
    "zipcode": "4570852",
    "prefectureCode": "23",
    "prefectureNumber": 23,
    "prefecture": "愛知県",
    "city": "名古屋市南区",
    "town": "泉楽通"
  },
  "4570853": {
    "zipcode": "4570853",
    "prefectureCode": "23",
    "prefectureNumber": 23,
    "prefecture": "愛知県",
    "city": "名古屋市南区",
    "town": "六条町"
  },
  "4570854": {
    "zipcode": "4570854",
    "prefectureCode": "23",
    "prefectureNumber": 23,
    "prefecture": "愛知県",
    "city": "名古屋市南区",
    "town": "七条町"
  },
  "4570855": {
    "zipcode": "4570855",
    "prefectureCode": "23",
    "prefectureNumber": 23,
    "prefecture": "愛知県",
    "city": "名古屋市南区",
    "town": "豊田町"
  },
  "4570856": {
    "zipcode": "4570856",
    "prefectureCode": "23",
    "prefectureNumber": 23,
    "prefecture": "愛知県",
    "city": "名古屋市南区",
    "town": "南陽通"
  },
  "4570861": {
    "zipcode": "4570861",
    "prefectureCode": "23",
    "prefectureNumber": 23,
    "prefecture": "愛知県",
    "city": "名古屋市南区",
    "town": "明治"
  },
  "4570862": {
    "zipcode": "4570862",
    "prefectureCode": "23",
    "prefectureNumber": 23,
    "prefecture": "愛知県",
    "city": "名古屋市南区",
    "town": "内田橋"
  },
  "4570863": {
    "zipcode": "4570863",
    "prefectureCode": "23",
    "prefectureNumber": 23,
    "prefecture": "愛知県",
    "city": "名古屋市南区",
    "town": "豊"
  },
  "4570864": {
    "zipcode": "4570864",
    "prefectureCode": "23",
    "prefectureNumber": 23,
    "prefecture": "愛知県",
    "city": "名古屋市南区",
    "town": "道徳北町"
  },
  "4570865": {
    "zipcode": "4570865",
    "prefectureCode": "23",
    "prefectureNumber": 23,
    "prefecture": "愛知県",
    "city": "名古屋市南区",
    "town": "氷室町"
  },
  "4570866": {
    "zipcode": "4570866",
    "prefectureCode": "23",
    "prefectureNumber": 23,
    "prefecture": "愛知県",
    "city": "名古屋市南区",
    "town": "三条"
  }
}
