{
  "4600000": {
    "zipcode": "4600000",
    "prefectureCode": "23",
    "prefectureNumber": 23,
    "prefecture": "愛知県",
    "city": "名古屋市中区",
    "town": "以下に掲載がない場合"
  },
  "4600001": {
    "zipcode": "4600001",
    "prefectureCode": "23",
    "prefectureNumber": 23,
    "prefecture": "愛知県",
    "city": "名古屋市中区",
    "town": "三の丸"
  },
  "4600002": {
    "zipcode": "4600002",
    "prefectureCode": "23",
    "prefectureNumber": 23,
    "prefecture": "愛知県",
    "city": "名古屋市中区",
    "town": "丸の内"
  },
  "4600003": {
    "zipcode": "4600003",
    "prefectureCode": "23",
    "prefectureNumber": 23,
    "prefecture": "愛知県",
    "city": "名古屋市中区",
    "town": "錦"
  },
  "4600004": {
    "zipcode": "4600004",
    "prefectureCode": "23",
    "prefectureNumber": 23,
    "prefecture": "愛知県",
    "city": "名古屋市中区",
    "town": "新栄町"
  },
  "4600005": {
    "zipcode": "4600005",
    "prefectureCode": "23",
    "prefectureNumber": 23,
    "prefecture": "愛知県",
    "city": "名古屋市中区",
    "town": "東桜"
  },
  "4600006": {
    "zipcode": "4600006",
    "prefectureCode": "23",
    "prefectureNumber": 23,
    "prefecture": "愛知県",
    "city": "名古屋市中区",
    "town": "葵"
  },
  "4600007": {
    "zipcode": "4600007",
    "prefectureCode": "23",
    "prefectureNumber": 23,
    "prefecture": "愛知県",
    "city": "名古屋市中区",
    "town": "新栄"
  },
  "4600008": {
    "zipcode": "4600008",
    "prefectureCode": "23",
    "prefectureNumber": 23,
    "prefecture": "愛知県",
    "city": "名古屋市中区",
    "town": "栄"
  },
  "4600011": {
    "zipcode": "4600011",
    "prefectureCode": "23",
    "prefectureNumber": 23,
    "prefecture": "愛知県",
    "city": "名古屋市中区",
    "town": "大須"
  },
  "4600012": {
    "zipcode": "4600012",
    "prefectureCode": "23",
    "prefectureNumber": 23,
    "prefecture": "愛知県",
    "city": "名古屋市中区",
    "town": "千代田"
  },
  "4600013": {
    "zipcode": "4600013",
    "prefectureCode": "23",
    "prefectureNumber": 23,
    "prefecture": "愛知県",
    "city": "名古屋市中区",
    "town": "上前津"
  },
  "4600014": {
    "zipcode": "4600014",
    "prefectureCode": "23",
    "prefectureNumber": 23,
    "prefecture": "愛知県",
    "city": "名古屋市中区",
    "town": "富士見町"
  },
  "4600015": {
    "zipcode": "4600015",
    "prefectureCode": "23",
    "prefectureNumber": 23,
    "prefecture": "愛知県",
    "city": "名古屋市中区",
    "town": "大井町"
  },
  "4600016": {
    "zipcode": "4600016",
    "prefectureCode": "23",
    "prefectureNumber": 23,
    "prefecture": "愛知県",
    "city": "名古屋市中区",
    "town": "橘"
  },
  "4600017": {
    "zipcode": "4600017",
    "prefectureCode": "23",
    "prefectureNumber": 23,
    "prefecture": "愛知県",
    "city": "名古屋市中区",
    "town": "松原"
  },
  "4600018": {
    "zipcode": "4600018",
    "prefectureCode": "23",
    "prefectureNumber": 23,
    "prefecture": "愛知県",
    "city": "名古屋市中区",
    "town": "門前町"
  },
  "4600021": {
    "zipcode": "4600021",
    "prefectureCode": "23",
    "prefectureNumber": 23,
    "prefecture": "愛知県",
    "city": "名古屋市中区",
    "town": "平和"
  },
  "4600022": {
    "zipcode": "4600022",
    "prefectureCode": "23",
    "prefectureNumber": 23,
    "prefecture": "愛知県",
    "city": "名古屋市中区",
    "town": "金山"
  },
  "4600023": {
    "zipcode": "4600023",
    "prefectureCode": "23",
    "prefectureNumber": 23,
    "prefecture": "愛知県",
    "city": "名古屋市中区",
    "town": "金山町"
  },
  "4600024": {
    "zipcode": "4600024",
    "prefectureCode": "23",
    "prefectureNumber": 23,
    "prefecture": "愛知県",
    "city": "名古屋市中区",
    "town": "正木"
  },
  "4600025": {
    "zipcode": "4600025",
    "prefectureCode": "23",
    "prefectureNumber": 23,
    "prefecture": "愛知県",
    "city": "名古屋市中区",
    "town": "古渡町"
  },
  "4600026": {
    "zipcode": "4600026",
    "prefectureCode": "23",
    "prefectureNumber": 23,
    "prefecture": "愛知県",
    "city": "名古屋市中区",
    "town": "伊勢山"
  },
  "4600031": {
    "zipcode": "4600031",
    "prefectureCode": "23",
    "prefectureNumber": 23,
    "prefecture": "愛知県",
    "city": "名古屋市中区",
    "town": "本丸"
  },
  "4600032": {
    "zipcode": "4600032",
    "prefectureCode": "23",
    "prefectureNumber": 23,
    "prefecture": "愛知県",
    "city": "名古屋市中区",
    "town": "二の丸"
  }
}
