{
  "4610000": {
    "zipcode": "4610000",
    "prefectureCode": "23",
    "prefectureNumber": 23,
    "prefecture": "愛知県",
    "city": "名古屋市東区",
    "town": "以下に掲載がない場合"
  },
  "4610001": {
    "zipcode": "4610001",
    "prefectureCode": "23",
    "prefectureNumber": 23,
    "prefecture": "愛知県",
    "city": "名古屋市東区",
    "town": "泉"
  },
  "4610002": {
    "zipcode": "4610002",
    "prefectureCode": "23",
    "prefectureNumber": 23,
    "prefecture": "愛知県",
    "city": "名古屋市東区",
    "town": "代官町"
  },
  "4610003": {
    "zipcode": "4610003",
    "prefectureCode": "23",
    "prefectureNumber": 23,
    "prefecture": "愛知県",
    "city": "名古屋市東区",
    "town": "筒井町"
  },
  "4610004": {
    "zipcode": "4610004",
    "prefectureCode": "23",
    "prefectureNumber": 23,
    "prefecture": "愛知県",
    "city": "名古屋市東区",
    "town": "葵"
  },
  "4610005": {
    "zipcode": "4610005",
    "prefectureCode": "23",
    "prefectureNumber": 23,
    "prefecture": "愛知県",
    "city": "名古屋市東区",
    "town": "東桜"
  },
  "4610006": {
    "zipcode": "4610006",
    "prefectureCode": "23",
    "prefectureNumber": 23,
    "prefecture": "愛知県",
    "city": "名古屋市東区",
    "town": "東新町"
  },
  "4610007": {
    "zipcode": "4610007",
    "prefectureCode": "23",
    "prefectureNumber": 23,
    "prefecture": "愛知県",
    "city": "名古屋市東区",
    "town": "西新町"
  },
  "4610008": {
    "zipcode": "4610008",
    "prefectureCode": "23",
    "prefectureNumber": 23,
    "prefecture": "愛知県",
    "city": "名古屋市東区",
    "town": "武平町"
  },
  "4610009": {
    "zipcode": "4610009",
    "prefectureCode": "23",
    "prefectureNumber": 23,
    "prefecture": "愛知県",
    "city": "名古屋市東区",
    "town": "久屋町"
  },
  "4610011": {
    "zipcode": "4610011",
    "prefectureCode": "23",
    "prefectureNumber": 23,
    "prefecture": "愛知県",
    "city": "名古屋市東区",
    "town": "白壁"
  },
  "4610012": {
    "zipcode": "4610012",
    "prefectureCode": "23",
    "prefectureNumber": 23,
    "prefecture": "愛知県",
    "city": "名古屋市東区",
    "town": "相生町"
  },
  "4610013": {
    "zipcode": "4610013",
    "prefectureCode": "23",
    "prefectureNumber": 23,
    "prefecture": "愛知県",
    "city": "名古屋市東区",
    "town": "飯田町"
  },
  "4610014": {
    "zipcode": "4610014",
    "prefectureCode": "23",
    "prefectureNumber": 23,
    "prefecture": "愛知県",
    "city": "名古屋市東区",
    "town": "橦木町"
  },
  "4610015": {
    "zipcode": "4610015",
    "prefectureCode": "23",
    "prefectureNumber": 23,
    "prefecture": "愛知県",
    "city": "名古屋市東区",
    "town": "東片端町"
  },
  "4610016": {
    "zipcode": "4610016",
    "prefectureCode": "23",
    "prefectureNumber": 23,
    "prefecture": "愛知県",
    "city": "名古屋市東区",
    "town": "上竪杉町"
  },
  "4610017": {
    "zipcode": "4610017",
    "prefectureCode": "23",
    "prefectureNumber": 23,
    "prefecture": "愛知県",
    "city": "名古屋市東区",
    "town": "東外堀町"
  },
  "4610018": {
    "zipcode": "4610018",
    "prefectureCode": "23",
    "prefectureNumber": 23,
    "prefecture": "愛知県",
    "city": "名古屋市東区",
    "town": "主税町"
  },
  "4610019": {
    "zipcode": "4610019",
    "prefectureCode": "23",
    "prefectureNumber": 23,
    "prefecture": "愛知県",
    "city": "名古屋市東区",
    "town": "三の丸"
  },
  "4610021": {
    "zipcode": "4610021",
    "prefectureCode": "23",
    "prefectureNumber": 23,
    "prefecture": "愛知県",
    "city": "名古屋市東区",
    "town": "大曽根"
  },
  "4610022": {
    "zipcode": "4610022",
    "prefectureCode": "23",
    "prefectureNumber": 23,
    "prefecture": "愛知県",
    "city": "名古屋市東区",
    "town": "東大曽根町"
  },
  "4610023": {
    "zipcode": "4610023",
    "prefectureCode": "23",
    "prefectureNumber": 23,
    "prefecture": "愛知県",
    "city": "名古屋市東区",
    "town": "徳川町"
  },
  "4610024": {
    "zipcode": "4610024",
    "prefectureCode": "23",
    "prefectureNumber": 23,
    "prefecture": "愛知県",
    "city": "名古屋市東区",
    "town": "山口町"
  },
  "4610025": {
    "zipcode": "4610025",
    "prefectureCode": "23",
    "prefectureNumber": 23,
    "prefecture": "愛知県",
    "city": "名古屋市東区",
    "town": "徳川"
  },
  "4610026": {
    "zipcode": "4610026",
    "prefectureCode": "23",
    "prefectureNumber": 23,
    "prefecture": "愛知県",
    "city": "名古屋市東区",
    "town": "赤塚町"
  },
  "4610027": {
    "zipcode": "4610027",
    "prefectureCode": "23",
    "prefectureNumber": 23,
    "prefecture": "愛知県",
    "city": "名古屋市東区",
    "town": "芳野"
  },
  "4610031": {
    "zipcode": "4610031",
    "prefectureCode": "23",
    "prefectureNumber": 23,
    "prefecture": "愛知県",
    "city": "名古屋市東区",
    "town": "明倫町"
  },
  "4610032": {
    "zipcode": "4610032",
    "prefectureCode": "23",
    "prefectureNumber": 23,
    "prefecture": "愛知県",
    "city": "名古屋市東区",
    "town": "出来町"
  },
  "4610033": {
    "zipcode": "4610033",
    "prefectureCode": "23",
    "prefectureNumber": 23,
    "prefecture": "愛知県",
    "city": "名古屋市東区",
    "town": "大松町"
  },
  "4610034": {
    "zipcode": "4610034",
    "prefectureCode": "23",
    "prefectureNumber": 23,
    "prefecture": "愛知県",
    "city": "名古屋市東区",
    "town": "豊前町"
  },
  "4610035": {
    "zipcode": "4610035",
    "prefectureCode": "23",
    "prefectureNumber": 23,
    "prefecture": "愛知県",
    "city": "名古屋市東区",
    "town": "黒門町"
  },
  "4610036": {
    "zipcode": "4610036",
    "prefectureCode": "23",
    "prefectureNumber": 23,
    "prefecture": "愛知県",
    "city": "名古屋市東区",
    "town": "車道町"
  },
  "4610037": {
    "zipcode": "4610037",
    "prefectureCode": "23",
    "prefectureNumber": 23,
    "prefecture": "愛知県",
    "city": "名古屋市東区",
    "town": "百人町"
  },
  "4610038": {
    "zipcode": "4610038",
    "prefectureCode": "23",
    "prefectureNumber": 23,
    "prefecture": "愛知県",
    "city": "名古屋市東区",
    "town": "新出来"
  },
  "4610040": {
    "zipcode": "4610040",
    "prefectureCode": "23",
    "prefectureNumber": 23,
    "prefecture": "愛知県",
    "city": "名古屋市東区",
    "town": "矢田"
  },
  "4610043": {
    "zipcode": "4610043",
    "prefectureCode": "23",
    "prefectureNumber": 23,
    "prefecture": "愛知県",
    "city": "名古屋市東区",
    "town": "大幸"
  },
  "4610044": {
    "zipcode": "4610044",
    "prefectureCode": "23",
    "prefectureNumber": 23,
    "prefecture": "愛知県",
    "city": "名古屋市東区",
    "town": "矢田東"
  },
  "4610045": {
    "zipcode": "4610045",
    "prefectureCode": "23",
    "prefectureNumber": 23,
    "prefecture": "愛知県",
    "city": "名古屋市東区",
    "town": "砂田橋"
  },
  "4610046": {
    "zipcode": "4610046",
    "prefectureCode": "23",
    "prefectureNumber": 23,
    "prefecture": "愛知県",
    "city": "名古屋市東区",
    "town": "前浪町"
  },
  "4610047": {
    "zipcode": "4610047",
    "prefectureCode": "23",
    "prefectureNumber": 23,
    "prefecture": "愛知県",
    "city": "名古屋市東区",
    "town": "大幸南"
  },
  "4610048": {
    "zipcode": "4610048",
    "prefectureCode": "23",
    "prefectureNumber": 23,
    "prefecture": "愛知県",
    "city": "名古屋市東区",
    "town": "矢田南"
  },
  "4610049": {
    "zipcode": "4610049",
    "prefectureCode": "23",
    "prefectureNumber": 23,
    "prefecture": "愛知県",
    "city": "名古屋市東区",
    "town": "古出来"
  }
}
