{
  "4620000": {
    "zipcode": "4620000",
    "prefectureCode": "23",
    "prefectureNumber": 23,
    "prefecture": "愛知県",
    "city": "名古屋市北区",
    "town": "以下に掲載がない場合"
  },
  "4620001": {
    "zipcode": "4620001",
    "prefectureCode": "23",
    "prefectureNumber": 23,
    "prefecture": "愛知県",
    "city": "名古屋市北区",
    "town": "北久手町"
  },
  "4620002": {
    "zipcode": "4620002",
    "prefectureCode": "23",
    "prefectureNumber": 23,
    "prefecture": "愛知県",
    "city": "名古屋市北区",
    "town": "六が池町"
  },
  "4620003": {
    "zipcode": "4620003",
    "prefectureCode": "23",
    "prefectureNumber": 23,
    "prefecture": "愛知県",
    "city": "名古屋市北区",
    "town": "桐畑町"
  },
  "4620004": {
    "zipcode": "4620004",
    "prefectureCode": "23",
    "prefectureNumber": 23,
    "prefecture": "愛知県",
    "city": "名古屋市北区",
    "town": "三軒町"
  },
  "4620005": {
    "zipcode": "4620005",
    "prefectureCode": "23",
    "prefectureNumber": 23,
    "prefecture": "愛知県",
    "city": "名古屋市北区",
    "town": "池花町"
  },
  "4620006": {
    "zipcode": "4620006",
    "prefectureCode": "23",
    "prefectureNumber": 23,
    "prefecture": "愛知県",
    "city": "名古屋市北区",
    "town": "若鶴町"
  },
  "4620007": {
    "zipcode": "4620007",
    "prefectureCode": "23",
    "prefectureNumber": 23,
    "prefecture": "愛知県",
    "city": "名古屋市北区",
    "town": "如意"
  },
  "4620008": {
    "zipcode": "4620008",
    "prefectureCode": "23",
    "prefectureNumber": 23,
    "prefecture": "愛知県",
    "city": "名古屋市北区",
    "town": "如来町"
  },
  "4620009": {
    "zipcode": "4620009",
    "prefectureCode": "23",
    "prefectureNumber": 23,
    "prefecture": "愛知県",
    "city": "名古屋市北区",
    "town": "苗田町"
  },
  "4620011": {
    "zipcode": "4620011",
    "prefectureCode": "23",
    "prefectureNumber": 23,
    "prefecture": "愛知県",
    "city": "名古屋市北区",
    "town": "五反田町"
  },
  "4620012": {
    "zipcode": "4620012",
    "prefectureCode": "23",
    "prefectureNumber": 23,
    "prefecture": "愛知県",
    "city": "名古屋市北区",
    "town": "楠"
  },
  "4620013": {
    "zipcode": "4620013",
    "prefectureCode": "23",
    "prefectureNumber": 23,
    "prefecture": "愛知県",
    "city": "名古屋市北区",
    "town": "東味鋺"
  },
  "4620014": {
    "zipcode": "4620014",
    "prefectureCode": "23",
    "prefectureNumber": 23,
    "prefecture": "愛知県",
    "city": "名古屋市北区",
    "town": "楠味鋺"
  },
  "4620015": {
    "zipcode": "4620015",
    "prefectureCode": "23",
    "prefectureNumber": 23,
    "prefecture": "愛知県",
    "city": "名古屋市北区",
    "town": "中味鋺"
  },
  "4620016": {
    "zipcode": "4620016",
    "prefectureCode": "23",
    "prefectureNumber": 23,
    "prefecture": "愛知県",
    "city": "名古屋市北区",
    "town": "西味鋺"
  },
  "4620017": {
    "zipcode": "4620017",
    "prefectureCode": "23",
    "prefectureNumber": 23,
    "prefecture": "愛知県",
    "city": "名古屋市北区",
    "town": "落合町"
  },
  "4620018": {
    "zipcode": "4620018",
    "prefectureCode": "23",
    "prefectureNumber": 23,
    "prefecture": "愛知県",
    "city": "名古屋市北区",
    "town": "玄馬町"
  },
  "4620021": {
    "zipcode": "4620021",
    "prefectureCode": "23",
    "prefectureNumber": 23,
    "prefecture": "愛知県",
    "city": "名古屋市北区",
    "town": "成願寺"
  },
  "4620022": {
    "zipcode": "4620022",
    "prefectureCode": "23",
    "prefectureNumber": 23,
    "prefecture": "愛知県",
    "city": "名古屋市北区",
    "town": "川中町"
  },
  "4620023": {
    "zipcode": "4620023",
    "prefectureCode": "23",
    "prefectureNumber": 23,
    "prefecture": "愛知県",
    "city": "名古屋市北区",
    "town": "安井"
  },
  "4620024": {
    "zipcode": "4620024",
    "prefectureCode": "23",
    "prefectureNumber": 23,
    "prefecture": "愛知県",
    "city": "名古屋市北区",
    "town": "鳩岡"
  },
  "4620025": {
    "zipcode": "4620025",
    "prefectureCode": "23",
    "prefectureNumber": 23,
    "prefecture": "愛知県",
    "city": "名古屋市北区",
    "town": "鳩岡町"
  },
  "4620026": {
    "zipcode": "4620026",
    "prefectureCode": "23",
    "prefectureNumber": 23,
    "prefecture": "愛知県",
    "city": "名古屋市北区",
    "town": "萩野通"
  },
  "4620031": {
    "zipcode": "4620031",
    "prefectureCode": "23",
    "prefectureNumber": 23,
    "prefecture": "愛知県",
    "city": "名古屋市北区",
    "town": "米が瀬町"
  },
  "4620032": {
    "zipcode": "4620032",
    "prefectureCode": "23",
    "prefectureNumber": 23,
    "prefecture": "愛知県",
    "city": "名古屋市北区",
    "town": "辻町"
  },
  "4620033": {
    "zipcode": "4620033",
    "prefectureCode": "23",
    "prefectureNumber": 23,
    "prefecture": "愛知県",
    "city": "名古屋市北区",
    "town": "金田町"
  },
  "4620034": {
    "zipcode": "4620034",
    "prefectureCode": "23",
    "prefectureNumber": 23,
    "prefecture": "愛知県",
    "city": "名古屋市北区",
    "town": "天道町"
  },
  "4620035": {
    "zipcode": "4620035",
    "prefectureCode": "23",
    "prefectureNumber": 23,
    "prefecture": "愛知県",
    "city": "名古屋市北区",
    "town": "大野町"
  },
  "4620036": {
    "zipcode": "4620036",
    "prefectureCode": "23",
    "prefectureNumber": 23,
    "prefecture": "愛知県",
    "city": "名古屋市北区",
    "town": "長喜町"
  },
  "4620037": {
    "zipcode": "4620037",
    "prefectureCode": "23",
    "prefectureNumber": 23,
    "prefecture": "愛知県",
    "city": "名古屋市北区",
    "town": "志賀町"
  },
  "4620038": {
    "zipcode": "4620038",
    "prefectureCode": "23",
    "prefectureNumber": 23,
    "prefecture": "愛知県",
    "city": "名古屋市北区",
    "town": "稚児宮通"
  },
  "4620041": {
    "zipcode": "4620041",
    "prefectureCode": "23",
    "prefectureNumber": 23,
    "prefecture": "愛知県",
    "city": "名古屋市北区",
    "town": "浪打町"
  },
  "4620042": {
    "zipcode": "4620042",
    "prefectureCode": "23",
    "prefectureNumber": 23,
    "prefecture": "愛知県",
    "city": "名古屋市北区",
    "town": "水草町"
  },
  "4620043": {
    "zipcode": "4620043",
    "prefectureCode": "23",
    "prefectureNumber": 23,
    "prefecture": "愛知県",
    "city": "名古屋市北区",
    "town": "八代町"
  },
  "4620044": {
    "zipcode": "4620044",
    "prefectureCode": "23",
    "prefectureNumber": 23,
    "prefecture": "愛知県",
    "city": "名古屋市北区",
    "town": "元志賀町"
  },
  "4620045": {
    "zipcode": "4620045",
    "prefectureCode": "23",
    "prefectureNumber": 23,
    "prefecture": "愛知県",
    "city": "名古屋市北区",
    "town": "敷島町"
  },
  "4620046": {
    "zipcode": "4620046",
    "prefectureCode": "23",
    "prefectureNumber": 23,
    "prefecture": "愛知県",
    "city": "名古屋市北区",
    "town": "城見通"
  },
  "4620047": {
    "zipcode": "4620047",
    "prefectureCode": "23",
    "prefectureNumber": 23,
    "prefecture": "愛知県",
    "city": "名古屋市北区",
    "town": "金城町"
  },
  "4620051": {
    "zipcode": "4620051",
    "prefectureCode": "23",
    "prefectureNumber": 23,
    "prefecture": "愛知県",
    "city": "名古屋市北区",
    "town": "中切町"
  },
  "4620052": {
    "zipcode": "4620052",
    "prefectureCode": "23",
    "prefectureNumber": 23,
    "prefecture": "愛知県",
    "city": "名古屋市北区",
    "town": "福徳町"
  },
  "4620053": {
    "zipcode": "4620053",
    "prefectureCode": "23",
    "prefectureNumber": 23,
    "prefecture": "愛知県",
    "city": "名古屋市北区",
    "town": "光音寺町"
  },
  "4620054": {
    "zipcode": "4620054",
    "prefectureCode": "23",
    "prefectureNumber": 23,
    "prefecture": "愛知県",
    "city": "名古屋市北区",
    "town": "野方通"
  },
  "4620055": {
    "zipcode": "4620055",
    "prefectureCode": "23",
    "prefectureNumber": 23,
    "prefecture": "愛知県",
    "city": "名古屋市北区",
    "town": "桝形町"
  },
  "4620056": {
    "zipcode": "4620056",
    "prefectureCode": "23",
    "prefectureNumber": 23,
    "prefecture": "愛知県",
    "city": "名古屋市北区",
    "town": "中丸町"
  },
  "4620057": {
    "zipcode": "4620057",
    "prefectureCode": "23",
    "prefectureNumber": 23,
    "prefecture": "愛知県",
    "city": "名古屋市北区",
    "town": "平手町"
  },
  "4620058": {
    "zipcode": "4620058",
    "prefectureCode": "23",
    "prefectureNumber": 23,
    "prefecture": "愛知県",
    "city": "名古屋市北区",
    "town": "西志賀町"
  },
  "4620059": {
    "zipcode": "4620059",
    "prefectureCode": "23",
    "prefectureNumber": 23,
    "prefecture": "愛知県",
    "city": "名古屋市北区",
    "town": "駒止町"
  },
  "4620061": {
    "zipcode": "4620061",
    "prefectureCode": "23",
    "prefectureNumber": 23,
    "prefecture": "愛知県",
    "city": "名古屋市北区",
    "town": "会所町"
  },
  "4620062": {
    "zipcode": "4620062",
    "prefectureCode": "23",
    "prefectureNumber": 23,
    "prefecture": "愛知県",
    "city": "名古屋市北区",
    "town": "新沼町"
  },
  "4620063": {
    "zipcode": "4620063",
    "prefectureCode": "23",
    "prefectureNumber": 23,
    "prefecture": "愛知県",
    "city": "名古屋市北区",
    "town": "丸新町"
  },
  "4620064": {
    "zipcode": "4620064",
    "prefectureCode": "23",
    "prefectureNumber": 23,
    "prefecture": "愛知県",
    "city": "名古屋市北区",
    "town": "大我麻町"
  },
  "4620065": {
    "zipcode": "4620065",
    "prefectureCode": "23",
    "prefectureNumber": 23,
    "prefecture": "愛知県",
    "city": "名古屋市北区",
    "town": "喜惣治"
  },
  "4620066": {
    "zipcode": "4620066",
    "prefectureCode": "23",
    "prefectureNumber": 23,
    "prefecture": "愛知県",
    "city": "名古屋市北区",
    "town": "楠町喜惣治新田"
  },
  "4620801": {
    "zipcode": "4620801",
    "prefectureCode": "23",
    "prefectureNumber": 23,
    "prefecture": "愛知県",
    "city": "名古屋市北区",
    "town": "新堀町"
  },
  "4620802": {
    "zipcode": "4620802",
    "prefectureCode": "23",
    "prefectureNumber": 23,
    "prefecture": "愛知県",
    "city": "名古屋市北区",
    "town": "上飯田北町"
  },
  "4620803": {
    "zipcode": "4620803",
    "prefectureCode": "23",
    "prefectureNumber": 23,
    "prefecture": "愛知県",
    "city": "名古屋市北区",
    "town": "上飯田東町"
  },
  "4620804": {
    "zipcode": "4620804",
    "prefectureCode": "23",
    "prefectureNumber": 23,
    "prefecture": "愛知県",
    "city": "名古屋市北区",
    "town": "上飯田南町"
  },
  "4620805": {
    "zipcode": "4620805",
    "prefectureCode": "23",
    "prefectureNumber": 23,
    "prefecture": "愛知県",
    "city": "名古屋市北区",
    "town": "八龍町"
  },
  "4620807": {
    "zipcode": "4620807",
    "prefectureCode": "23",
    "prefectureNumber": 23,
    "prefecture": "愛知県",
    "city": "名古屋市北区",
    "town": "御成通"
  },
  "4620808": {
    "zipcode": "4620808",
    "prefectureCode": "23",
    "prefectureNumber": 23,
    "prefecture": "愛知県",
    "city": "名古屋市北区",
    "town": "上飯田通"
  },
  "4620809": {
    "zipcode": "4620809",
    "prefectureCode": "23",
    "prefectureNumber": 23,
    "prefecture": "愛知県",
    "city": "名古屋市北区",
    "town": "上飯田西町"
  },
  "4620810": {
    "zipcode": "4620810",
    "prefectureCode": "23",
    "prefectureNumber": 23,
    "prefecture": "愛知県",
    "city": "名古屋市北区",
    "town": "山田"
  },
  "4620811": {
    "zipcode": "4620811",
    "prefectureCode": "23",
    "prefectureNumber": 23,
    "prefecture": "愛知県",
    "city": "名古屋市北区",
    "town": "山田北町"
  },
  "4620812": {
    "zipcode": "4620812",
    "prefectureCode": "23",
    "prefectureNumber": 23,
    "prefecture": "愛知県",
    "city": "名古屋市北区",
    "town": "矢田町"
  },
  "4620813": {
    "zipcode": "4620813",
    "prefectureCode": "23",
    "prefectureNumber": 23,
    "prefecture": "愛知県",
    "city": "名古屋市北区",
    "town": "山田町"
  },
  "4620814": {
    "zipcode": "4620814",
    "prefectureCode": "23",
    "prefectureNumber": 23,
    "prefecture": "愛知県",
    "city": "名古屋市北区",
    "town": "山田西町"
  },
  "4620816": {
    "zipcode": "4620816",
    "prefectureCode": "23",
    "prefectureNumber": 23,
    "prefecture": "愛知県",
    "city": "名古屋市北区",
    "town": "平安通"
  },
  "4620818": {
    "zipcode": "4620818",
    "prefectureCode": "23",
    "prefectureNumber": 23,
    "prefecture": "愛知県",
    "city": "名古屋市北区",
    "town": "彩紅橋通"
  },
  "4620819": {
    "zipcode": "4620819",
    "prefectureCode": "23",
    "prefectureNumber": 23,
    "prefecture": "愛知県",
    "city": "名古屋市北区",
    "town": "平安"
  },
  "4620823": {
    "zipcode": "4620823",
    "prefectureCode": "23",
    "prefectureNumber": 23,
    "prefecture": "愛知県",
    "city": "名古屋市北区",
    "town": "東大曽根町上"
  },
  "4620824": {
    "zipcode": "4620824",
    "prefectureCode": "23",
    "prefectureNumber": 23,
    "prefecture": "愛知県",
    "city": "名古屋市北区",
    "town": "芳野"
  },
  "4620825": {
    "zipcode": "4620825",
    "prefectureCode": "23",
    "prefectureNumber": 23,
    "prefecture": "愛知県",
    "city": "名古屋市北区",
    "town": "大曽根"
  },
  "4620826": {
    "zipcode": "4620826",
    "prefectureCode": "23",
    "prefectureNumber": 23,
    "prefecture": "愛知県",
    "city": "名古屋市北区",
    "town": "東大杉町"
  },
  "4620827": {
    "zipcode": "4620827",
    "prefectureCode": "23",
    "prefectureNumber": 23,
    "prefecture": "愛知県",
    "city": "名古屋市北区",
    "town": "東長田町"
  },
  "4620828": {
    "zipcode": "4620828",
    "prefectureCode": "23",
    "prefectureNumber": 23,
    "prefecture": "愛知県",
    "city": "名古屋市北区",
    "town": "東水切町"
  },
  "4620829": {
    "zipcode": "4620829",
    "prefectureCode": "23",
    "prefectureNumber": 23,
    "prefecture": "愛知県",
    "city": "名古屋市北区",
    "town": "杉栄町"
  },
  "4620831": {
    "zipcode": "4620831",
    "prefectureCode": "23",
    "prefectureNumber": 23,
    "prefecture": "愛知県",
    "city": "名古屋市北区",
    "town": "城東町"
  },
  "4620832": {
    "zipcode": "4620832",
    "prefectureCode": "23",
    "prefectureNumber": 23,
    "prefecture": "愛知県",
    "city": "名古屋市北区",
    "town": "生駒町"
  },
  "4620833": {
    "zipcode": "4620833",
    "prefectureCode": "23",
    "prefectureNumber": 23,
    "prefecture": "愛知県",
    "city": "名古屋市北区",
    "town": "水切町"
  },
  "4620834": {
    "zipcode": "4620834",
    "prefectureCode": "23",
    "prefectureNumber": 23,
    "prefecture": "愛知県",
    "city": "名古屋市北区",
    "town": "長田町"
  },
  "4620835": {
    "zipcode": "4620835",
    "prefectureCode": "23",
    "prefectureNumber": 23,
    "prefecture": "愛知県",
    "city": "名古屋市北区",
    "town": "杉村"
  },
  "4620836": {
    "zipcode": "4620836",
    "prefectureCode": "23",
    "prefectureNumber": 23,
    "prefecture": "愛知県",
    "city": "名古屋市北区",
    "town": "大杉町"
  },
  "4620837": {
    "zipcode": "4620837",
    "prefectureCode": "23",
    "prefectureNumber": 23,
    "prefecture": "愛知県",
    "city": "名古屋市北区",
    "town": "大杉"
  },
  "4620838": {
    "zipcode": "4620838",
    "prefectureCode": "23",
    "prefectureNumber": 23,
    "prefecture": "愛知県",
    "city": "名古屋市北区",
    "town": "中杉町"
  },
  "4620841": {
    "zipcode": "4620841",
    "prefectureCode": "23",
    "prefectureNumber": 23,
    "prefecture": "愛知県",
    "city": "名古屋市北区",
    "town": "黒川本通"
  },
  "4620842": {
    "zipcode": "4620842",
    "prefectureCode": "23",
    "prefectureNumber": 23,
    "prefecture": "愛知県",
    "city": "名古屋市北区",
    "town": "志賀南通"
  },
  "4620843": {
    "zipcode": "4620843",
    "prefectureCode": "23",
    "prefectureNumber": 23,
    "prefecture": "愛知県",
    "city": "名古屋市北区",
    "town": "田幡"
  },
  "4620844": {
    "zipcode": "4620844",
    "prefectureCode": "23",
    "prefectureNumber": 23,
    "prefecture": "愛知県",
    "city": "名古屋市北区",
    "town": "清水"
  },
  "4620845": {
    "zipcode": "4620845",
    "prefectureCode": "23",
    "prefectureNumber": 23,
    "prefecture": "愛知県",
    "city": "名古屋市北区",
    "town": "柳原"
  },
  "4620846": {
    "zipcode": "4620846",
    "prefectureCode": "23",
    "prefectureNumber": 23,
    "prefecture": "愛知県",
    "city": "名古屋市北区",
    "town": "名城"
  },
  "4620847": {
    "zipcode": "4620847",
    "prefectureCode": "23",
    "prefectureNumber": 23,
    "prefecture": "愛知県",
    "city": "名古屋市北区",
    "town": "金城"
  },
  "4620851": {
    "zipcode": "4620851",
    "prefectureCode": "23",
    "prefectureNumber": 23,
    "prefecture": "愛知県",
    "city": "名古屋市北区",
    "town": "木津根町"
  },
  "4620852": {
    "zipcode": "4620852",
    "prefectureCode": "23",
    "prefectureNumber": 23,
    "prefecture": "愛知県",
    "city": "名古屋市北区",
    "town": "猿投町"
  },
  "4620853": {
    "zipcode": "4620853",
    "prefectureCode": "23",
    "prefectureNumber": 23,
    "prefecture": "愛知県",
    "city": "名古屋市北区",
    "town": "志賀本通"
  },
  "4620854": {
    "zipcode": "4620854",
    "prefectureCode": "23",
    "prefectureNumber": 23,
    "prefecture": "愛知県",
    "city": "名古屋市北区",
    "town": "若葉通"
  },
  "4620855": {
    "zipcode": "4620855",
    "prefectureCode": "23",
    "prefectureNumber": 23,
    "prefecture": "愛知県",
    "city": "名古屋市北区",
    "town": "石園町"
  },
  "4620856": {
    "zipcode": "4620856",
    "prefectureCode": "23",
    "prefectureNumber": 23,
    "prefecture": "愛知県",
    "city": "名古屋市北区",
    "town": "芦辺町"
  },
  "4620857": {
    "zipcode": "4620857",
    "prefectureCode": "23",
    "prefectureNumber": 23,
    "prefecture": "愛知県",
    "city": "名古屋市北区",
    "town": "紅雲町"
  },
  "4620858": {
    "zipcode": "4620858",
    "prefectureCode": "23",
    "prefectureNumber": 23,
    "prefecture": "愛知県",
    "city": "名古屋市北区",
    "town": "大蔵町"
  },
  "4620859": {
    "zipcode": "4620859",
    "prefectureCode": "23",
    "prefectureNumber": 23,
    "prefecture": "愛知県",
    "city": "名古屋市北区",
    "town": "神明町"
  },
  "4620861": {
    "zipcode": "4620861",
    "prefectureCode": "23",
    "prefectureNumber": 23,
    "prefecture": "愛知県",
    "city": "名古屋市北区",
    "town": "辻本通"
  },
  "4620862": {
    "zipcode": "4620862",
    "prefectureCode": "23",
    "prefectureNumber": 23,
    "prefecture": "愛知県",
    "city": "名古屋市北区",
    "town": "真畔町"
  },
  "4620863": {
    "zipcode": "4620863",
    "prefectureCode": "23",
    "prefectureNumber": 23,
    "prefecture": "愛知県",
    "city": "名古屋市北区",
    "town": "尾上町"
  },
  "4620864": {
    "zipcode": "4620864",
    "prefectureCode": "23",
    "prefectureNumber": 23,
    "prefecture": "愛知県",
    "city": "名古屋市北区",
    "town": "織部町"
  },
  "4620865": {
    "zipcode": "4620865",
    "prefectureCode": "23",
    "prefectureNumber": 23,
    "prefecture": "愛知県",
    "city": "名古屋市北区",
    "town": "下飯田町"
  },
  "4620866": {
    "zipcode": "4620866",
    "prefectureCode": "23",
    "prefectureNumber": 23,
    "prefecture": "愛知県",
    "city": "名古屋市北区",
    "town": "瑠璃光町"
  },
  "4620867": {
    "zipcode": "4620867",
    "prefectureCode": "23",
    "prefectureNumber": 23,
    "prefecture": "愛知県",
    "city": "名古屋市北区",
    "town": "垣戸町"
  },
  "4620868": {
    "zipcode": "4620868",
    "prefectureCode": "23",
    "prefectureNumber": 23,
    "prefecture": "愛知県",
    "city": "名古屋市北区",
    "town": "憧旛町"
  },
  "4620869": {
    "zipcode": "4620869",
    "prefectureCode": "23",
    "prefectureNumber": 23,
    "prefecture": "愛知県",
    "city": "名古屋市北区",
    "town": "龍ノ口町"
  }
}
