{
  "4640000": {
    "zipcode": "4640000",
    "prefectureCode": "23",
    "prefectureNumber": 23,
    "prefecture": "愛知県",
    "city": "名古屋市千種区",
    "town": "以下に掲載がない場合"
  },
  "4640001": {
    "zipcode": "4640001",
    "prefectureCode": "23",
    "prefectureNumber": 23,
    "prefecture": "愛知県",
    "city": "名古屋市千種区",
    "town": "東千種台"
  },
  "4640002": {
    "zipcode": "4640002",
    "prefectureCode": "23",
    "prefectureNumber": 23,
    "prefecture": "愛知県",
    "city": "名古屋市千種区",
    "town": "香流橋"
  },
  "4640003": {
    "zipcode": "4640003",
    "prefectureCode": "23",
    "prefectureNumber": 23,
    "prefecture": "愛知県",
    "city": "名古屋市千種区",
    "town": "新西"
  },
  "4640004": {
    "zipcode": "4640004",
    "prefectureCode": "23",
    "prefectureNumber": 23,
    "prefecture": "愛知県",
    "city": "名古屋市千種区",
    "town": "京命"
  },
  "4640005": {
    "zipcode": "4640005",
    "prefectureCode": "23",
    "prefectureNumber": 23,
    "prefecture": "愛知県",
    "city": "名古屋市千種区",
    "town": "千代が丘"
  },
  "4640006": {
    "zipcode": "4640006",
    "prefectureCode": "23",
    "prefectureNumber": 23,
    "prefecture": "愛知県",
    "city": "名古屋市千種区",
    "town": "光が丘"
  },
  "4640007": {
    "zipcode": "4640007",
    "prefectureCode": "23",
    "prefectureNumber": 23,
    "prefecture": "愛知県",
    "city": "名古屋市千種区",
    "town": "竹越"
  },
  "4640008": {
    "zipcode": "4640008",
    "prefectureCode": "23",
    "prefectureNumber": 23,
    "prefecture": "愛知県",
    "city": "名古屋市千種区",
    "town": "宮根台"
  },
  "4640011": {
    "zipcode": "4640011",
    "prefectureCode": "23",
    "prefectureNumber": 23,
    "prefecture": "愛知県",
    "city": "名古屋市千種区",
    "town": "千代田橋"
  },
  "4640012": {
    "zipcode": "4640012",
    "prefectureCode": "23",
    "prefectureNumber": 23,
    "prefecture": "愛知県",
    "city": "名古屋市千種区",
    "town": "猪高町猪子石猪々道"
  },
  "4640013": {
    "zipcode": "4640013",
    "prefectureCode": "23",
    "prefectureNumber": 23,
    "prefecture": "愛知県",
    "city": "名古屋市千種区",
    "town": "汁谷町"
  },
  "4640014": {
    "zipcode": "4640014",
    "prefectureCode": "23",
    "prefectureNumber": 23,
    "prefecture": "愛知県",
    "city": "名古屋市千種区",
    "town": "御影町"
  },
  "4640015": {
    "zipcode": "4640015",
    "prefectureCode": "23",
    "prefectureNumber": 23,
    "prefecture": "愛知県",
    "city": "名古屋市千種区",
    "town": "富士見台"
  },
  "4640016": {
    "zipcode": "4640016",
    "prefectureCode": "23",
    "prefectureNumber": 23,
    "prefecture": "愛知県",
    "city": "名古屋市千種区",
    "town": "希望ケ丘"
  },
  "4640017": {
    "zipcode": "4640017",
    "prefectureCode": "23",
    "prefectureNumber": 23,
    "prefecture": "愛知県",
    "city": "名古屋市千種区",
    "town": "鍋屋上野町（汁谷）"
  },
  "4640018": {
    "zipcode": "4640018",
    "prefectureCode": "23",
    "prefectureNumber": 23,
    "prefecture": "愛知県",
    "city": "名古屋市千種区",
    "town": "鍋屋上野町（北山）"
  },
  "4640019": {
    "zipcode": "4640019",
    "prefectureCode": "23",
    "prefectureNumber": 23,
    "prefecture": "愛知県",
    "city": "名古屋市千種区",
    "town": "揚羽町"
  },
  "4640021": {
    "zipcode": "4640021",
    "prefectureCode": "23",
    "prefectureNumber": 23,
    "prefecture": "愛知県",
    "city": "名古屋市千種区",
    "town": "鹿子殿"
  },
  "4640022": {
    "zipcode": "4640022",
    "prefectureCode": "23",
    "prefectureNumber": 23,
    "prefecture": "愛知県",
    "city": "名古屋市千種区",
    "town": "平和公園"
  },
  "4640023": {
    "zipcode": "4640023",
    "prefectureCode": "23",
    "prefectureNumber": 23,
    "prefecture": "愛知県",
    "city": "名古屋市千種区",
    "town": "田代町（鹿子殿）"
  },
  "4640024": {
    "zipcode": "4640024",
    "prefectureCode": "23",
    "prefectureNumber": 23,
    "prefecture": "愛知県",
    "city": "名古屋市千種区",
    "town": "平和が丘"
  },
  "4640025": {
    "zipcode": "4640025",
    "prefectureCode": "23",
    "prefectureNumber": 23,
    "prefecture": "愛知県",
    "city": "名古屋市千種区",
    "town": "桜が丘"
  },
  "4640026": {
    "zipcode": "4640026",
    "prefectureCode": "23",
    "prefectureNumber": 23,
    "prefecture": "愛知県",
    "city": "名古屋市千種区",
    "town": "井上町"
  },
  "4640027": {
    "zipcode": "4640027",
    "prefectureCode": "23",
    "prefectureNumber": 23,
    "prefecture": "愛知県",
    "city": "名古屋市千種区",
    "town": "新池町"
  },
  "4640028": {
    "zipcode": "4640028",
    "prefectureCode": "23",
    "prefectureNumber": 23,
    "prefecture": "愛知県",
    "city": "名古屋市千種区",
    "town": "東明町"
  },
  "4640029": {
    "zipcode": "4640029",
    "prefectureCode": "23",
    "prefectureNumber": 23,
    "prefecture": "愛知県",
    "city": "名古屋市千種区",
    "town": "池上町"
  },
  "4640031": {
    "zipcode": "4640031",
    "prefectureCode": "23",
    "prefectureNumber": 23,
    "prefecture": "愛知県",
    "city": "名古屋市千種区",
    "town": "徳川山町"
  },
  "4640032": {
    "zipcode": "4640032",
    "prefectureCode": "23",
    "prefectureNumber": 23,
    "prefecture": "愛知県",
    "city": "名古屋市千種区",
    "town": "猫洞通"
  },
  "4640033": {
    "zipcode": "4640033",
    "prefectureCode": "23",
    "prefectureNumber": 23,
    "prefecture": "愛知県",
    "city": "名古屋市千種区",
    "town": "鹿子町"
  },
  "4640034": {
    "zipcode": "4640034",
    "prefectureCode": "23",
    "prefectureNumber": 23,
    "prefecture": "愛知県",
    "city": "名古屋市千種区",
    "town": "清住町"
  },
  "4640035": {
    "zipcode": "4640035",
    "prefectureCode": "23",
    "prefectureNumber": 23,
    "prefecture": "愛知県",
    "city": "名古屋市千種区",
    "town": "橋本町"
  },
  "4640036": {
    "zipcode": "4640036",
    "prefectureCode": "23",
    "prefectureNumber": 23,
    "prefecture": "愛知県",
    "city": "名古屋市千種区",
    "town": "本山町"
  },
  "4640037": {
    "zipcode": "4640037",
    "prefectureCode": "23",
    "prefectureNumber": 23,
    "prefecture": "愛知県",
    "city": "名古屋市千種区",
    "town": "楠元町"
  },
  "4640038": {
    "zipcode": "4640038",
    "prefectureCode": "23",
    "prefectureNumber": 23,
    "prefecture": "愛知県",
    "city": "名古屋市千種区",
    "town": "春里町"
  },
  "4640039": {
    "zipcode": "4640039",
    "prefectureCode": "23",
    "prefectureNumber": 23,
    "prefecture": "愛知県",
    "city": "名古屋市千種区",
    "town": "日和町"
  },
  "4640041": {
    "zipcode": "4640041",
    "prefectureCode": "23",
    "prefectureNumber": 23,
    "prefecture": "愛知県",
    "city": "名古屋市千種区",
    "town": "霞ケ丘"
  },
  "4640042": {
    "zipcode": "4640042",
    "prefectureCode": "23",
    "prefectureNumber": 23,
    "prefecture": "愛知県",
    "city": "名古屋市千種区",
    "town": "南ケ丘"
  },
  "4640043": {
    "zipcode": "4640043",
    "prefectureCode": "23",
    "prefectureNumber": 23,
    "prefecture": "愛知県",
    "city": "名古屋市千種区",
    "town": "月ケ丘"
  },
  "4640044": {
    "zipcode": "4640044",
    "prefectureCode": "23",
    "prefectureNumber": 23,
    "prefecture": "愛知県",
    "city": "名古屋市千種区",
    "town": "自由ケ丘"
  },
  "4640045": {
    "zipcode": "4640045",
    "prefectureCode": "23",
    "prefectureNumber": 23,
    "prefecture": "愛知県",
    "city": "名古屋市千種区",
    "town": "城山町"
  },
  "4640046": {
    "zipcode": "4640046",
    "prefectureCode": "23",
    "prefectureNumber": 23,
    "prefecture": "愛知県",
    "city": "名古屋市千種区",
    "town": "城山新町"
  },
  "4640051": {
    "zipcode": "4640051",
    "prefectureCode": "23",
    "prefectureNumber": 23,
    "prefecture": "愛知県",
    "city": "名古屋市千種区",
    "town": "田代町（四観音道東）"
  },
  "4640052": {
    "zipcode": "4640052",
    "prefectureCode": "23",
    "prefectureNumber": 23,
    "prefecture": "愛知県",
    "city": "名古屋市千種区",
    "town": "田代町（四観音道西）"
  },
  "4640053": {
    "zipcode": "4640053",
    "prefectureCode": "23",
    "prefectureNumber": 23,
    "prefecture": "愛知県",
    "city": "名古屋市千種区",
    "town": "田代町（岩谷）"
  },
  "4640054": {
    "zipcode": "4640054",
    "prefectureCode": "23",
    "prefectureNumber": 23,
    "prefecture": "愛知県",
    "city": "名古屋市千種区",
    "town": "田代町（蝮ケ池上）"
  },
  "4640055": {
    "zipcode": "4640055",
    "prefectureCode": "23",
    "prefectureNumber": 23,
    "prefecture": "愛知県",
    "city": "名古屋市千種区",
    "town": "姫池通"
  },
  "4640056": {
    "zipcode": "4640056",
    "prefectureCode": "23",
    "prefectureNumber": 23,
    "prefecture": "愛知県",
    "city": "名古屋市千種区",
    "town": "月見坂町"
  },
  "4640057": {
    "zipcode": "4640057",
    "prefectureCode": "23",
    "prefectureNumber": 23,
    "prefecture": "愛知県",
    "city": "名古屋市千種区",
    "town": "法王町"
  },
  "4640061": {
    "zipcode": "4640061",
    "prefectureCode": "23",
    "prefectureNumber": 23,
    "prefecture": "愛知県",
    "city": "名古屋市千種区",
    "town": "向陽"
  },
  "4640062": {
    "zipcode": "4640062",
    "prefectureCode": "23",
    "prefectureNumber": 23,
    "prefecture": "愛知県",
    "city": "名古屋市千種区",
    "town": "向陽町"
  },
  "4640063": {
    "zipcode": "4640063",
    "prefectureCode": "23",
    "prefectureNumber": 23,
    "prefecture": "愛知県",
    "city": "名古屋市千種区",
    "town": "西山元町"
  },
  "4640064": {
    "zipcode": "4640064",
    "prefectureCode": "23",
    "prefectureNumber": 23,
    "prefecture": "愛知県",
    "city": "名古屋市千種区",
    "town": "山門町"
  },
  "4640065": {
    "zipcode": "4640065",
    "prefectureCode": "23",
    "prefectureNumber": 23,
    "prefecture": "愛知県",
    "city": "名古屋市千種区",
    "town": "堀割町"
  },
  "4640066": {
    "zipcode": "4640066",
    "prefectureCode": "23",
    "prefectureNumber": 23,
    "prefecture": "愛知県",
    "city": "名古屋市千種区",
    "town": "池下町"
  },
  "4640067": {
    "zipcode": "4640067",
    "prefectureCode": "23",
    "prefectureNumber": 23,
    "prefecture": "愛知県",
    "city": "名古屋市千種区",
    "town": "池下"
  },
  "4640071": {
    "zipcode": "4640071",
    "prefectureCode": "23",
    "prefectureNumber": 23,
    "prefecture": "愛知県",
    "city": "名古屋市千種区",
    "town": "若水"
  },
  "4640072": {
    "zipcode": "4640072",
    "prefectureCode": "23",
    "prefectureNumber": 23,
    "prefecture": "愛知県",
    "city": "名古屋市千種区",
    "town": "振甫町"
  },
  "4640073": {
    "zipcode": "4640073",
    "prefectureCode": "23",
    "prefectureNumber": 23,
    "prefecture": "愛知県",
    "city": "名古屋市千種区",
    "town": "高見"
  },
  "4640074": {
    "zipcode": "4640074",
    "prefectureCode": "23",
    "prefectureNumber": 23,
    "prefecture": "愛知県",
    "city": "名古屋市千種区",
    "town": "仲田"
  },
  "4640075": {
    "zipcode": "4640075",
    "prefectureCode": "23",
    "prefectureNumber": 23,
    "prefecture": "愛知県",
    "city": "名古屋市千種区",
    "town": "内山"
  },
  "4640076": {
    "zipcode": "4640076",
    "prefectureCode": "23",
    "prefectureNumber": 23,
    "prefecture": "愛知県",
    "city": "名古屋市千種区",
    "town": "豊年町"
  },
  "4640077": {
    "zipcode": "4640077",
    "prefectureCode": "23",
    "prefectureNumber": 23,
    "prefecture": "愛知県",
    "city": "名古屋市千種区",
    "town": "神田町"
  },
  "4640081": {
    "zipcode": "4640081",
    "prefectureCode": "23",
    "prefectureNumber": 23,
    "prefecture": "愛知県",
    "city": "名古屋市千種区",
    "town": "谷口町"
  },
  "4640082": {
    "zipcode": "4640082",
    "prefectureCode": "23",
    "prefectureNumber": 23,
    "prefecture": "愛知県",
    "city": "名古屋市千種区",
    "town": "上野"
  },
  "4640083": {
    "zipcode": "4640083",
    "prefectureCode": "23",
    "prefectureNumber": 23,
    "prefecture": "愛知県",
    "city": "名古屋市千種区",
    "town": "北千種"
  },
  "4640084": {
    "zipcode": "4640084",
    "prefectureCode": "23",
    "prefectureNumber": 23,
    "prefecture": "愛知県",
    "city": "名古屋市千種区",
    "town": "松軒"
  },
  "4640085": {
    "zipcode": "4640085",
    "prefectureCode": "23",
    "prefectureNumber": 23,
    "prefecture": "愛知県",
    "city": "名古屋市千種区",
    "town": "古出来"
  },
  "4640086": {
    "zipcode": "4640086",
    "prefectureCode": "23",
    "prefectureNumber": 23,
    "prefecture": "愛知県",
    "city": "名古屋市千種区",
    "town": "萱場"
  },
  "4640087": {
    "zipcode": "4640087",
    "prefectureCode": "23",
    "prefectureNumber": 23,
    "prefecture": "愛知県",
    "city": "名古屋市千種区",
    "town": "清明山"
  },
  "4640091": {
    "zipcode": "4640091",
    "prefectureCode": "23",
    "prefectureNumber": 23,
    "prefecture": "愛知県",
    "city": "名古屋市千種区",
    "town": "宮の腰町"
  },
  "4640092": {
    "zipcode": "4640092",
    "prefectureCode": "23",
    "prefectureNumber": 23,
    "prefecture": "愛知県",
    "city": "名古屋市千種区",
    "town": "茶屋が坂"
  },
  "4640093": {
    "zipcode": "4640093",
    "prefectureCode": "23",
    "prefectureNumber": 23,
    "prefecture": "愛知県",
    "city": "名古屋市千種区",
    "town": "茶屋坂通"
  },
  "4640094": {
    "zipcode": "4640094",
    "prefectureCode": "23",
    "prefectureNumber": 23,
    "prefecture": "愛知県",
    "city": "名古屋市千種区",
    "town": "赤坂町"
  },
  "4640095": {
    "zipcode": "4640095",
    "prefectureCode": "23",
    "prefectureNumber": 23,
    "prefecture": "愛知県",
    "city": "名古屋市千種区",
    "town": "天満通"
  },
  "4640096": {
    "zipcode": "4640096",
    "prefectureCode": "23",
    "prefectureNumber": 23,
    "prefecture": "愛知県",
    "city": "名古屋市千種区",
    "town": "下方町"
  },
  "4640097": {
    "zipcode": "4640097",
    "prefectureCode": "23",
    "prefectureNumber": 23,
    "prefecture": "愛知県",
    "city": "名古屋市千種区",
    "town": "鍋屋上野町（東脇）"
  },
  "4640801": {
    "zipcode": "4640801",
    "prefectureCode": "23",
    "prefectureNumber": 23,
    "prefecture": "愛知県",
    "city": "名古屋市千種区",
    "town": "星ケ丘"
  },
  "4640802": {
    "zipcode": "4640802",
    "prefectureCode": "23",
    "prefectureNumber": 23,
    "prefecture": "愛知県",
    "city": "名古屋市千種区",
    "town": "星が丘元町"
  },
  "4640803": {
    "zipcode": "4640803",
    "prefectureCode": "23",
    "prefectureNumber": 23,
    "prefecture": "愛知県",
    "city": "名古屋市千種区",
    "town": "田代町（瓶杁）"
  },
  "4640804": {
    "zipcode": "4640804",
    "prefectureCode": "23",
    "prefectureNumber": 23,
    "prefecture": "愛知県",
    "city": "名古屋市千種区",
    "town": "東山元町"
  },
  "4640805": {
    "zipcode": "4640805",
    "prefectureCode": "23",
    "prefectureNumber": 23,
    "prefecture": "愛知県",
    "city": "名古屋市千種区",
    "town": "萩岡町"
  },
  "4640806": {
    "zipcode": "4640806",
    "prefectureCode": "23",
    "prefectureNumber": 23,
    "prefecture": "愛知県",
    "city": "名古屋市千種区",
    "town": "唐山町"
  },
  "4640807": {
    "zipcode": "4640807",
    "prefectureCode": "23",
    "prefectureNumber": 23,
    "prefecture": "愛知県",
    "city": "名古屋市千種区",
    "town": "東山通"
  },
  "4640808": {
    "zipcode": "4640808",
    "prefectureCode": "23",
    "prefectureNumber": 23,
    "prefecture": "愛知県",
    "city": "名古屋市千種区",
    "town": "星が丘山手"
  },
  "4640811": {
    "zipcode": "4640811",
    "prefectureCode": "23",
    "prefectureNumber": 23,
    "prefecture": "愛知県",
    "city": "名古屋市千種区",
    "town": "朝岡町"
  },
  "4640812": {
    "zipcode": "4640812",
    "prefectureCode": "23",
    "prefectureNumber": 23,
    "prefecture": "愛知県",
    "city": "名古屋市千種区",
    "town": "園山町"
  },
  "4640813": {
    "zipcode": "4640813",
    "prefectureCode": "23",
    "prefectureNumber": 23,
    "prefecture": "愛知県",
    "city": "名古屋市千種区",
    "town": "仁座町"
  },
  "4640814": {
    "zipcode": "4640814",
    "prefectureCode": "23",
    "prefectureNumber": 23,
    "prefecture": "愛知県",
    "city": "名古屋市千種区",
    "town": "不老町"
  },
  "4640815": {
    "zipcode": "4640815",
    "prefectureCode": "23",
    "prefectureNumber": 23,
    "prefecture": "愛知県",
    "city": "名古屋市千種区",
    "town": "幸川町"
  },
  "4640816": {
    "zipcode": "4640816",
    "prefectureCode": "23",
    "prefectureNumber": 23,
    "prefecture": "愛知県",
    "city": "名古屋市千種区",
    "town": "鏡池通"
  },
  "4640817": {
    "zipcode": "4640817",
    "prefectureCode": "23",
    "prefectureNumber": 23,
    "prefecture": "愛知県",
    "city": "名古屋市千種区",
    "town": "見附町"
  },
  "4640818": {
    "zipcode": "4640818",
    "prefectureCode": "23",
    "prefectureNumber": 23,
    "prefecture": "愛知県",
    "city": "名古屋市千種区",
    "town": "池園町"
  },
  "4640819": {
    "zipcode": "4640819",
    "prefectureCode": "23",
    "prefectureNumber": 23,
    "prefecture": "愛知県",
    "city": "名古屋市千種区",
    "town": "四谷通"
  },
  "4640821": {
    "zipcode": "4640821",
    "prefectureCode": "23",
    "prefectureNumber": 23,
    "prefecture": "愛知県",
    "city": "名古屋市千種区",
    "town": "末盛通"
  },
  "4640822": {
    "zipcode": "4640822",
    "prefectureCode": "23",
    "prefectureNumber": 23,
    "prefecture": "愛知県",
    "city": "名古屋市千種区",
    "town": "穂波町"
  },
  "4640823": {
    "zipcode": "4640823",
    "prefectureCode": "23",
    "prefectureNumber": 23,
    "prefecture": "愛知県",
    "city": "名古屋市千種区",
    "town": "松竹町"
  },
  "4640824": {
    "zipcode": "4640824",
    "prefectureCode": "23",
    "prefectureNumber": 23,
    "prefecture": "愛知県",
    "city": "名古屋市千種区",
    "town": "稲舟通"
  },
  "4640825": {
    "zipcode": "4640825",
    "prefectureCode": "23",
    "prefectureNumber": 23,
    "prefecture": "愛知県",
    "city": "名古屋市千種区",
    "town": "西崎町"
  },
  "4640826": {
    "zipcode": "4640826",
    "prefectureCode": "23",
    "prefectureNumber": 23,
    "prefecture": "愛知県",
    "city": "名古屋市千種区",
    "town": "川崎町"
  },
  "4640827": {
    "zipcode": "4640827",
    "prefectureCode": "23",
    "prefectureNumber": 23,
    "prefecture": "愛知県",
    "city": "名古屋市千種区",
    "town": "田代本通"
  },
  "4640831": {
    "zipcode": "4640831",
    "prefectureCode": "23",
    "prefectureNumber": 23,
    "prefecture": "愛知県",
    "city": "名古屋市千種区",
    "town": "観月町"
  },
  "4640832": {
    "zipcode": "4640832",
    "prefectureCode": "23",
    "prefectureNumber": 23,
    "prefecture": "愛知県",
    "city": "名古屋市千種区",
    "town": "山添町"
  },
  "4640833": {
    "zipcode": "4640833",
    "prefectureCode": "23",
    "prefectureNumber": 23,
    "prefecture": "愛知県",
    "city": "名古屋市千種区",
    "town": "大島町"
  },
  "4640834": {
    "zipcode": "4640834",
    "prefectureCode": "23",
    "prefectureNumber": 23,
    "prefecture": "愛知県",
    "city": "名古屋市千種区",
    "town": "日岡町"
  },
  "4640835": {
    "zipcode": "4640835",
    "prefectureCode": "23",
    "prefectureNumber": 23,
    "prefecture": "愛知県",
    "city": "名古屋市千種区",
    "town": "御棚町"
  },
  "4640836": {
    "zipcode": "4640836",
    "prefectureCode": "23",
    "prefectureNumber": 23,
    "prefecture": "愛知県",
    "city": "名古屋市千種区",
    "town": "菊坂町"
  },
  "4640837": {
    "zipcode": "4640837",
    "prefectureCode": "23",
    "prefectureNumber": 23,
    "prefecture": "愛知県",
    "city": "名古屋市千種区",
    "town": "丘上町"
  },
  "4640841": {
    "zipcode": "4640841",
    "prefectureCode": "23",
    "prefectureNumber": 23,
    "prefecture": "愛知県",
    "city": "名古屋市千種区",
    "town": "覚王山通"
  },
  "4640842": {
    "zipcode": "4640842",
    "prefectureCode": "23",
    "prefectureNumber": 23,
    "prefecture": "愛知県",
    "city": "名古屋市千種区",
    "town": "桐林町"
  },
  "4640843": {
    "zipcode": "4640843",
    "prefectureCode": "23",
    "prefectureNumber": 23,
    "prefecture": "愛知県",
    "city": "名古屋市千種区",
    "town": "丸山町"
  },
  "4640844": {
    "zipcode": "4640844",
    "prefectureCode": "23",
    "prefectureNumber": 23,
    "prefecture": "愛知県",
    "city": "名古屋市千種区",
    "town": "日進通"
  },
  "4640845": {
    "zipcode": "4640845",
    "prefectureCode": "23",
    "prefectureNumber": 23,
    "prefecture": "愛知県",
    "city": "名古屋市千種区",
    "town": "南明町"
  },
  "4640846": {
    "zipcode": "4640846",
    "prefectureCode": "23",
    "prefectureNumber": 23,
    "prefecture": "愛知県",
    "city": "名古屋市千種区",
    "town": "城木町"
  },
  "4640847": {
    "zipcode": "4640847",
    "prefectureCode": "23",
    "prefectureNumber": 23,
    "prefecture": "愛知県",
    "city": "名古屋市千種区",
    "town": "春岡通"
  },
  "4640848": {
    "zipcode": "4640848",
    "prefectureCode": "23",
    "prefectureNumber": 23,
    "prefecture": "愛知県",
    "city": "名古屋市千種区",
    "town": "春岡"
  },
  "4640850": {
    "zipcode": "4640850",
    "prefectureCode": "23",
    "prefectureNumber": 23,
    "prefecture": "愛知県",
    "city": "名古屋市千種区",
    "town": "今池"
  },
  "4640851": {
    "zipcode": "4640851",
    "prefectureCode": "23",
    "prefectureNumber": 23,
    "prefecture": "愛知県",
    "city": "名古屋市千種区",
    "town": "今池南"
  },
  "4640852": {
    "zipcode": "4640852",
    "prefectureCode": "23",
    "prefectureNumber": 23,
    "prefecture": "愛知県",
    "city": "名古屋市千種区",
    "town": "青柳町"
  },
  "4640853": {
    "zipcode": "4640853",
    "prefectureCode": "23",
    "prefectureNumber": 23,
    "prefecture": "愛知県",
    "city": "名古屋市千種区",
    "town": "小松町"
  },
  "4640854": {
    "zipcode": "4640854",
    "prefectureCode": "23",
    "prefectureNumber": 23,
    "prefecture": "愛知県",
    "city": "名古屋市千種区",
    "town": "大久手町"
  },
  "4640855": {
    "zipcode": "4640855",
    "prefectureCode": "23",
    "prefectureNumber": 23,
    "prefecture": "愛知県",
    "city": "名古屋市千種区",
    "town": "千種通"
  },
  "4640856": {
    "zipcode": "4640856",
    "prefectureCode": "23",
    "prefectureNumber": 23,
    "prefecture": "愛知県",
    "city": "名古屋市千種区",
    "town": "吹上"
  },
  "4640857": {
    "zipcode": "4640857",
    "prefectureCode": "23",
    "prefectureNumber": 23,
    "prefecture": "愛知県",
    "city": "名古屋市千種区",
    "town": "花田町"
  },
  "4640858": {
    "zipcode": "4640858",
    "prefectureCode": "23",
    "prefectureNumber": 23,
    "prefecture": "愛知県",
    "city": "名古屋市千種区",
    "town": "千種"
  },
  "4640859": {
    "zipcode": "4640859",
    "prefectureCode": "23",
    "prefectureNumber": 23,
    "prefecture": "愛知県",
    "city": "名古屋市千種区",
    "town": "新栄（３丁目）"
  },
  "4640871": {
    "zipcode": "4640871",
    "prefectureCode": "23",
    "prefectureNumber": 23,
    "prefecture": "愛知県",
    "city": "名古屋市千種区",
    "town": "天白町植田"
  }
}
