{
  "4650000": {
    "zipcode": "4650000",
    "prefectureCode": "23",
    "prefectureNumber": 23,
    "prefecture": "愛知県",
    "city": "名古屋市名東区",
    "town": "以下に掲載がない場合"
  },
  "4650002": {
    "zipcode": "4650002",
    "prefectureCode": "23",
    "prefectureNumber": 23,
    "prefecture": "愛知県",
    "city": "名古屋市名東区",
    "town": "引山"
  },
  "4650003": {
    "zipcode": "4650003",
    "prefectureCode": "23",
    "prefectureNumber": 23,
    "prefecture": "愛知県",
    "city": "名古屋市名東区",
    "town": "延珠町"
  },
  "4650004": {
    "zipcode": "4650004",
    "prefectureCode": "23",
    "prefectureNumber": 23,
    "prefecture": "愛知県",
    "city": "名古屋市名東区",
    "town": "香南"
  },
  "4650005": {
    "zipcode": "4650005",
    "prefectureCode": "23",
    "prefectureNumber": 23,
    "prefecture": "愛知県",
    "city": "名古屋市名東区",
    "town": "香流"
  },
  "4650006": {
    "zipcode": "4650006",
    "prefectureCode": "23",
    "prefectureNumber": 23,
    "prefecture": "愛知県",
    "city": "名古屋市名東区",
    "town": "神月町"
  },
  "4650007": {
    "zipcode": "4650007",
    "prefectureCode": "23",
    "prefectureNumber": 23,
    "prefecture": "愛知県",
    "city": "名古屋市名東区",
    "town": "香坂"
  },
  "4650008": {
    "zipcode": "4650008",
    "prefectureCode": "23",
    "prefectureNumber": 23,
    "prefecture": "愛知県",
    "city": "名古屋市名東区",
    "town": "猪子石原"
  },
  "4650009": {
    "zipcode": "4650009",
    "prefectureCode": "23",
    "prefectureNumber": 23,
    "prefecture": "愛知県",
    "city": "名古屋市名東区",
    "town": "天神下"
  },
  "4650011": {
    "zipcode": "4650011",
    "prefectureCode": "23",
    "prefectureNumber": 23,
    "prefecture": "愛知県",
    "city": "名古屋市名東区",
    "town": "山の手"
  },
  "4650012": {
    "zipcode": "4650012",
    "prefectureCode": "23",
    "prefectureNumber": 23,
    "prefecture": "愛知県",
    "city": "名古屋市名東区",
    "town": "文教台"
  },
  "4650013": {
    "zipcode": "4650013",
    "prefectureCode": "23",
    "prefectureNumber": 23,
    "prefecture": "愛知県",
    "city": "名古屋市名東区",
    "town": "社口"
  },
  "4650014": {
    "zipcode": "4650014",
    "prefectureCode": "23",
    "prefectureNumber": 23,
    "prefecture": "愛知県",
    "city": "名古屋市名東区",
    "town": "上菅"
  },
  "4650015": {
    "zipcode": "4650015",
    "prefectureCode": "23",
    "prefectureNumber": 23,
    "prefecture": "愛知県",
    "city": "名古屋市名東区",
    "town": "若葉台"
  },
  "4650016": {
    "zipcode": "4650016",
    "prefectureCode": "23",
    "prefectureNumber": 23,
    "prefecture": "愛知県",
    "city": "名古屋市名東区",
    "town": "赤松台"
  },
  "4650017": {
    "zipcode": "4650017",
    "prefectureCode": "23",
    "prefectureNumber": 23,
    "prefecture": "愛知県",
    "city": "名古屋市名東区",
    "town": "つつじが丘"
  },
  "4650018": {
    "zipcode": "4650018",
    "prefectureCode": "23",
    "prefectureNumber": 23,
    "prefecture": "愛知県",
    "city": "名古屋市名東区",
    "town": "八前"
  },
  "4650021": {
    "zipcode": "4650021",
    "prefectureCode": "23",
    "prefectureNumber": 23,
    "prefecture": "愛知県",
    "city": "名古屋市名東区",
    "town": "猪子石"
  },
  "4650022": {
    "zipcode": "4650022",
    "prefectureCode": "23",
    "prefectureNumber": 23,
    "prefecture": "愛知県",
    "city": "名古屋市名東区",
    "town": "藤森西町"
  },
  "4650023": {
    "zipcode": "4650023",
    "prefectureCode": "23",
    "prefectureNumber": 23,
    "prefecture": "愛知県",
    "city": "名古屋市名東区",
    "town": "石が根町"
  },
  "4650024": {
    "zipcode": "4650024",
    "prefectureCode": "23",
    "prefectureNumber": 23,
    "prefecture": "愛知県",
    "city": "名古屋市名東区",
    "town": "本郷"
  },
  "4650025": {
    "zipcode": "4650025",
    "prefectureCode": "23",
    "prefectureNumber": 23,
    "prefecture": "愛知県",
    "city": "名古屋市名東区",
    "town": "上社"
  },
  "4650026": {
    "zipcode": "4650026",
    "prefectureCode": "23",
    "prefectureNumber": 23,
    "prefecture": "愛知県",
    "city": "名古屋市名東区",
    "town": "藤森"
  },
  "4650027": {
    "zipcode": "4650027",
    "prefectureCode": "23",
    "prefectureNumber": 23,
    "prefecture": "愛知県",
    "city": "名古屋市名東区",
    "town": "丁田町"
  },
  "4650028": {
    "zipcode": "4650028",
    "prefectureCode": "23",
    "prefectureNumber": 23,
    "prefecture": "愛知県",
    "city": "名古屋市名東区",
    "town": "猪高台"
  },
  "4650031": {
    "zipcode": "4650031",
    "prefectureCode": "23",
    "prefectureNumber": 23,
    "prefecture": "愛知県",
    "city": "名古屋市名東区",
    "town": "富が丘"
  },
  "4650032": {
    "zipcode": "4650032",
    "prefectureCode": "23",
    "prefectureNumber": 23,
    "prefecture": "愛知県",
    "city": "名古屋市名東区",
    "town": "藤が丘"
  },
  "4650033": {
    "zipcode": "4650033",
    "prefectureCode": "23",
    "prefectureNumber": 23,
    "prefecture": "愛知県",
    "city": "名古屋市名東区",
    "town": "明が丘"
  },
  "4650034": {
    "zipcode": "4650034",
    "prefectureCode": "23",
    "prefectureNumber": 23,
    "prefecture": "愛知県",
    "city": "名古屋市名東区",
    "town": "高柳町"
  },
  "4650035": {
    "zipcode": "4650035",
    "prefectureCode": "23",
    "prefectureNumber": 23,
    "prefecture": "愛知県",
    "city": "名古屋市名東区",
    "town": "豊が丘"
  },
  "4650036": {
    "zipcode": "4650036",
    "prefectureCode": "23",
    "prefectureNumber": 23,
    "prefecture": "愛知県",
    "city": "名古屋市名東区",
    "town": "藤里町"
  },
  "4650037": {
    "zipcode": "4650037",
    "prefectureCode": "23",
    "prefectureNumber": 23,
    "prefecture": "愛知県",
    "city": "名古屋市名東区",
    "town": "藤香町"
  },
  "4650041": {
    "zipcode": "4650041",
    "prefectureCode": "23",
    "prefectureNumber": 23,
    "prefecture": "愛知県",
    "city": "名古屋市名東区",
    "town": "朝日が丘"
  },
  "4650042": {
    "zipcode": "4650042",
    "prefectureCode": "23",
    "prefectureNumber": 23,
    "prefecture": "愛知県",
    "city": "名古屋市名東区",
    "town": "照が丘"
  },
  "4650043": {
    "zipcode": "4650043",
    "prefectureCode": "23",
    "prefectureNumber": 23,
    "prefecture": "愛知県",
    "city": "名古屋市名東区",
    "town": "宝が丘"
  },
  "4650044": {
    "zipcode": "4650044",
    "prefectureCode": "23",
    "prefectureNumber": 23,
    "prefecture": "愛知県",
    "city": "名古屋市名東区",
    "town": "小井堀町"
  },
  "4650045": {
    "zipcode": "4650045",
    "prefectureCode": "23",
    "prefectureNumber": 23,
    "prefecture": "愛知県",
    "city": "名古屋市名東区",
    "town": "姫若町"
  },
  "4650046": {
    "zipcode": "4650046",
    "prefectureCode": "23",
    "prefectureNumber": 23,
    "prefecture": "愛知県",
    "city": "名古屋市名東区",
    "town": "望が丘"
  },
  "4650047": {
    "zipcode": "4650047",
    "prefectureCode": "23",
    "prefectureNumber": 23,
    "prefecture": "愛知県",
    "city": "名古屋市名東区",
    "town": "小池町"
  },
  "4650048": {
    "zipcode": "4650048",
    "prefectureCode": "23",
    "prefectureNumber": 23,
    "prefecture": "愛知県",
    "city": "名古屋市名東区",
    "town": "藤見が丘"
  },
  "4650051": {
    "zipcode": "4650051",
    "prefectureCode": "23",
    "prefectureNumber": 23,
    "prefecture": "愛知県",
    "city": "名古屋市名東区",
    "town": "社が丘"
  },
  "4650052": {
    "zipcode": "4650052",
    "prefectureCode": "23",
    "prefectureNumber": 23,
    "prefecture": "愛知県",
    "city": "名古屋市名東区",
    "town": "猪高町上社"
  },
  "4650053": {
    "zipcode": "4650053",
    "prefectureCode": "23",
    "prefectureNumber": 23,
    "prefecture": "愛知県",
    "city": "名古屋市名東区",
    "town": "極楽"
  },
  "4650054": {
    "zipcode": "4650054",
    "prefectureCode": "23",
    "prefectureNumber": 23,
    "prefecture": "愛知県",
    "city": "名古屋市名東区",
    "town": "高針台"
  },
  "4650055": {
    "zipcode": "4650055",
    "prefectureCode": "23",
    "prefectureNumber": 23,
    "prefecture": "愛知県",
    "city": "名古屋市名東区",
    "town": "勢子坊"
  },
  "4650056": {
    "zipcode": "4650056",
    "prefectureCode": "23",
    "prefectureNumber": 23,
    "prefecture": "愛知県",
    "city": "名古屋市名東区",
    "town": "野間町"
  },
  "4650057": {
    "zipcode": "4650057",
    "prefectureCode": "23",
    "prefectureNumber": 23,
    "prefecture": "愛知県",
    "city": "名古屋市名東区",
    "town": "陸前町"
  },
  "4650058": {
    "zipcode": "4650058",
    "prefectureCode": "23",
    "prefectureNumber": 23,
    "prefecture": "愛知県",
    "city": "名古屋市名東区",
    "town": "貴船"
  },
  "4650061": {
    "zipcode": "4650061",
    "prefectureCode": "23",
    "prefectureNumber": 23,
    "prefecture": "愛知県",
    "city": "名古屋市名東区",
    "town": "高針"
  },
  "4650062": {
    "zipcode": "4650062",
    "prefectureCode": "23",
    "prefectureNumber": 23,
    "prefecture": "愛知県",
    "city": "名古屋市名東区",
    "town": "松井町"
  },
  "4650063": {
    "zipcode": "4650063",
    "prefectureCode": "23",
    "prefectureNumber": 23,
    "prefecture": "愛知県",
    "city": "名古屋市名東区",
    "town": "新宿"
  },
  "4650064": {
    "zipcode": "4650064",
    "prefectureCode": "23",
    "prefectureNumber": 23,
    "prefecture": "愛知県",
    "city": "名古屋市名東区",
    "town": "大針"
  },
  "4650065": {
    "zipcode": "4650065",
    "prefectureCode": "23",
    "prefectureNumber": 23,
    "prefecture": "愛知県",
    "city": "名古屋市名東区",
    "town": "梅森坂"
  },
  "4650066": {
    "zipcode": "4650066",
    "prefectureCode": "23",
    "prefectureNumber": 23,
    "prefecture": "愛知県",
    "city": "名古屋市名東区",
    "town": "梅森坂西"
  },
  "4650067": {
    "zipcode": "4650067",
    "prefectureCode": "23",
    "prefectureNumber": 23,
    "prefecture": "愛知県",
    "city": "名古屋市名東区",
    "town": "猪高町高針"
  },
  "4650068": {
    "zipcode": "4650068",
    "prefectureCode": "23",
    "prefectureNumber": 23,
    "prefecture": "愛知県",
    "city": "名古屋市名東区",
    "town": "牧の里"
  },
  "4650069": {
    "zipcode": "4650069",
    "prefectureCode": "23",
    "prefectureNumber": 23,
    "prefecture": "愛知県",
    "city": "名古屋市名東区",
    "town": "高針荒田"
  },
  "4650071": {
    "zipcode": "4650071",
    "prefectureCode": "23",
    "prefectureNumber": 23,
    "prefecture": "愛知県",
    "city": "名古屋市名東区",
    "town": "西山台"
  },
  "4650072": {
    "zipcode": "4650072",
    "prefectureCode": "23",
    "prefectureNumber": 23,
    "prefecture": "愛知県",
    "city": "名古屋市名東区",
    "town": "牧の原"
  },
  "4650073": {
    "zipcode": "4650073",
    "prefectureCode": "23",
    "prefectureNumber": 23,
    "prefecture": "愛知県",
    "city": "名古屋市名東区",
    "town": "高針原"
  },
  "4650074": {
    "zipcode": "4650074",
    "prefectureCode": "23",
    "prefectureNumber": 23,
    "prefecture": "愛知県",
    "city": "名古屋市名東区",
    "town": "山香町"
  },
  "4650075": {
    "zipcode": "4650075",
    "prefectureCode": "23",
    "prefectureNumber": 23,
    "prefecture": "愛知県",
    "city": "名古屋市名東区",
    "town": "藤巻町"
  },
  "4650076": {
    "zipcode": "4650076",
    "prefectureCode": "23",
    "prefectureNumber": 23,
    "prefecture": "愛知県",
    "city": "名古屋市名東区",
    "town": "扇町"
  },
  "4650077": {
    "zipcode": "4650077",
    "prefectureCode": "23",
    "prefectureNumber": 23,
    "prefecture": "愛知県",
    "city": "名古屋市名東区",
    "town": "植園町"
  },
  "4650078": {
    "zipcode": "4650078",
    "prefectureCode": "23",
    "prefectureNumber": 23,
    "prefecture": "愛知県",
    "city": "名古屋市名東区",
    "town": "にじが丘"
  },
  "4650081": {
    "zipcode": "4650081",
    "prefectureCode": "23",
    "prefectureNumber": 23,
    "prefecture": "愛知県",
    "city": "名古屋市名東区",
    "town": "高間町"
  },
  "4650082": {
    "zipcode": "4650082",
    "prefectureCode": "23",
    "prefectureNumber": 23,
    "prefecture": "愛知県",
    "city": "名古屋市名東区",
    "town": "神里"
  },
  "4650083": {
    "zipcode": "4650083",
    "prefectureCode": "23",
    "prefectureNumber": 23,
    "prefecture": "愛知県",
    "city": "名古屋市名東区",
    "town": "神丘町"
  },
  "4650084": {
    "zipcode": "4650084",
    "prefectureCode": "23",
    "prefectureNumber": 23,
    "prefecture": "愛知県",
    "city": "名古屋市名東区",
    "town": "西里町"
  },
  "4650085": {
    "zipcode": "4650085",
    "prefectureCode": "23",
    "prefectureNumber": 23,
    "prefecture": "愛知県",
    "city": "名古屋市名東区",
    "town": "西山本通"
  },
  "4650086": {
    "zipcode": "4650086",
    "prefectureCode": "23",
    "prefectureNumber": 23,
    "prefecture": "愛知県",
    "city": "名古屋市名東区",
    "town": "代万町"
  },
  "4650087": {
    "zipcode": "4650087",
    "prefectureCode": "23",
    "prefectureNumber": 23,
    "prefecture": "愛知県",
    "city": "名古屋市名東区",
    "town": "名東本通"
  },
  "4650088": {
    "zipcode": "4650088",
    "prefectureCode": "23",
    "prefectureNumber": 23,
    "prefecture": "愛知県",
    "city": "名古屋市名東区",
    "town": "名東本町"
  },
  "4650091": {
    "zipcode": "4650091",
    "prefectureCode": "23",
    "prefectureNumber": 23,
    "prefecture": "愛知県",
    "city": "名古屋市名東区",
    "town": "よもぎ台"
  },
  "4650092": {
    "zipcode": "4650092",
    "prefectureCode": "23",
    "prefectureNumber": 23,
    "prefecture": "愛知県",
    "city": "名古屋市名東区",
    "town": "社台"
  },
  "4650093": {
    "zipcode": "4650093",
    "prefectureCode": "23",
    "prefectureNumber": 23,
    "prefecture": "愛知県",
    "city": "名古屋市名東区",
    "town": "一社"
  },
  "4650094": {
    "zipcode": "4650094",
    "prefectureCode": "23",
    "prefectureNumber": 23,
    "prefecture": "愛知県",
    "city": "名古屋市名東区",
    "town": "亀の井"
  },
  "4650095": {
    "zipcode": "4650095",
    "prefectureCode": "23",
    "prefectureNumber": 23,
    "prefecture": "愛知県",
    "city": "名古屋市名東区",
    "town": "高社"
  },
  "4650096": {
    "zipcode": "4650096",
    "prefectureCode": "23",
    "prefectureNumber": 23,
    "prefecture": "愛知県",
    "city": "名古屋市名東区",
    "town": "桜が丘"
  },
  "4650097": {
    "zipcode": "4650097",
    "prefectureCode": "23",
    "prefectureNumber": 23,
    "prefecture": "愛知県",
    "city": "名古屋市名東区",
    "town": "平和が丘"
  }
}
