{
  "4660000": {
    "zipcode": "4660000",
    "prefectureCode": "23",
    "prefectureNumber": 23,
    "prefecture": "愛知県",
    "city": "名古屋市昭和区",
    "town": "以下に掲載がない場合"
  },
  "4660001": {
    "zipcode": "4660001",
    "prefectureCode": "23",
    "prefectureNumber": 23,
    "prefecture": "愛知県",
    "city": "名古屋市昭和区",
    "town": "車田町"
  },
  "4660002": {
    "zipcode": "4660002",
    "prefectureCode": "23",
    "prefectureNumber": 23,
    "prefecture": "愛知県",
    "city": "名古屋市昭和区",
    "town": "吹上町"
  },
  "4660003": {
    "zipcode": "4660003",
    "prefectureCode": "23",
    "prefectureNumber": 23,
    "prefecture": "愛知県",
    "city": "名古屋市昭和区",
    "town": "曙町"
  },
  "4660004": {
    "zipcode": "4660004",
    "prefectureCode": "23",
    "prefectureNumber": 23,
    "prefecture": "愛知県",
    "city": "名古屋市昭和区",
    "town": "広瀬町"
  },
  "4660005": {
    "zipcode": "4660005",
    "prefectureCode": "23",
    "prefectureNumber": 23,
    "prefecture": "愛知県",
    "city": "名古屋市昭和区",
    "town": "雪見町"
  },
  "4660006": {
    "zipcode": "4660006",
    "prefectureCode": "23",
    "prefectureNumber": 23,
    "prefecture": "愛知県",
    "city": "名古屋市昭和区",
    "town": "北山町"
  },
  "4660011": {
    "zipcode": "4660011",
    "prefectureCode": "23",
    "prefectureNumber": 23,
    "prefecture": "愛知県",
    "city": "名古屋市昭和区",
    "town": "鶴羽町"
  },
  "4660012": {
    "zipcode": "4660012",
    "prefectureCode": "23",
    "prefectureNumber": 23,
    "prefecture": "愛知県",
    "city": "名古屋市昭和区",
    "town": "小桜町"
  },
  "4660013": {
    "zipcode": "4660013",
    "prefectureCode": "23",
    "prefectureNumber": 23,
    "prefecture": "愛知県",
    "city": "名古屋市昭和区",
    "town": "緑町"
  },
  "4660014": {
    "zipcode": "4660014",
    "prefectureCode": "23",
    "prefectureNumber": 23,
    "prefecture": "愛知県",
    "city": "名古屋市昭和区",
    "town": "東畑町"
  },
  "4660015": {
    "zipcode": "4660015",
    "prefectureCode": "23",
    "prefectureNumber": 23,
    "prefecture": "愛知県",
    "city": "名古屋市昭和区",
    "town": "御器所通"
  },
  "4660016": {
    "zipcode": "4660016",
    "prefectureCode": "23",
    "prefectureNumber": 23,
    "prefecture": "愛知県",
    "city": "名古屋市昭和区",
    "town": "北山本町"
  },
  "4660021": {
    "zipcode": "4660021",
    "prefectureCode": "23",
    "prefectureNumber": 23,
    "prefecture": "愛知県",
    "city": "名古屋市昭和区",
    "town": "小坂町"
  },
  "4660022": {
    "zipcode": "4660022",
    "prefectureCode": "23",
    "prefectureNumber": 23,
    "prefecture": "愛知県",
    "city": "名古屋市昭和区",
    "town": "塩付通"
  },
  "4660023": {
    "zipcode": "4660023",
    "prefectureCode": "23",
    "prefectureNumber": 23,
    "prefecture": "愛知県",
    "city": "名古屋市昭和区",
    "town": "石仏町"
  },
  "4660024": {
    "zipcode": "4660024",
    "prefectureCode": "23",
    "prefectureNumber": 23,
    "prefecture": "愛知県",
    "city": "名古屋市昭和区",
    "town": "大和町"
  },
  "4660025": {
    "zipcode": "4660025",
    "prefectureCode": "23",
    "prefectureNumber": 23,
    "prefecture": "愛知県",
    "city": "名古屋市昭和区",
    "town": "下構町"
  },
  "4660026": {
    "zipcode": "4660026",
    "prefectureCode": "23",
    "prefectureNumber": 23,
    "prefecture": "愛知県",
    "city": "名古屋市昭和区",
    "town": "陶生町"
  },
  "4660027": {
    "zipcode": "4660027",
    "prefectureCode": "23",
    "prefectureNumber": 23,
    "prefecture": "愛知県",
    "city": "名古屋市昭和区",
    "town": "阿由知通"
  },
  "4660031": {
    "zipcode": "4660031",
    "prefectureCode": "23",
    "prefectureNumber": 23,
    "prefecture": "愛知県",
    "city": "名古屋市昭和区",
    "town": "紅梅町"
  },
  "4660032": {
    "zipcode": "4660032",
    "prefectureCode": "23",
    "prefectureNumber": 23,
    "prefecture": "愛知県",
    "city": "名古屋市昭和区",
    "town": "天神町"
  },
  "4660033": {
    "zipcode": "4660033",
    "prefectureCode": "23",
    "prefectureNumber": 23,
    "prefecture": "愛知県",
    "city": "名古屋市昭和区",
    "town": "台町"
  },
  "4660034": {
    "zipcode": "4660034",
    "prefectureCode": "23",
    "prefectureNumber": 23,
    "prefecture": "愛知県",
    "city": "名古屋市昭和区",
    "town": "明月町"
  },
  "4660035": {
    "zipcode": "4660035",
    "prefectureCode": "23",
    "prefectureNumber": 23,
    "prefecture": "愛知県",
    "city": "名古屋市昭和区",
    "town": "松風町"
  },
  "4660036": {
    "zipcode": "4660036",
    "prefectureCode": "23",
    "prefectureNumber": 23,
    "prefecture": "愛知県",
    "city": "名古屋市昭和区",
    "town": "若柳町"
  },
  "4660037": {
    "zipcode": "4660037",
    "prefectureCode": "23",
    "prefectureNumber": 23,
    "prefecture": "愛知県",
    "city": "名古屋市昭和区",
    "town": "恵方町"
  },
  "4660041": {
    "zipcode": "4660041",
    "prefectureCode": "23",
    "prefectureNumber": 23,
    "prefecture": "愛知県",
    "city": "名古屋市昭和区",
    "town": "出口町"
  },
  "4660042": {
    "zipcode": "4660042",
    "prefectureCode": "23",
    "prefectureNumber": 23,
    "prefecture": "愛知県",
    "city": "名古屋市昭和区",
    "town": "広池町"
  },
  "4660043": {
    "zipcode": "4660043",
    "prefectureCode": "23",
    "prefectureNumber": 23,
    "prefecture": "愛知県",
    "city": "名古屋市昭和区",
    "town": "池端町"
  },
  "4660044": {
    "zipcode": "4660044",
    "prefectureCode": "23",
    "prefectureNumber": 23,
    "prefecture": "愛知県",
    "city": "名古屋市昭和区",
    "town": "桜山町"
  },
  "4660045": {
    "zipcode": "4660045",
    "prefectureCode": "23",
    "prefectureNumber": 23,
    "prefecture": "愛知県",
    "city": "名古屋市昭和区",
    "town": "丸屋町"
  },
  "4660046": {
    "zipcode": "4660046",
    "prefectureCode": "23",
    "prefectureNumber": 23,
    "prefecture": "愛知県",
    "city": "名古屋市昭和区",
    "town": "広見町"
  },
  "4660047": {
    "zipcode": "4660047",
    "prefectureCode": "23",
    "prefectureNumber": 23,
    "prefecture": "愛知県",
    "city": "名古屋市昭和区",
    "town": "永金町"
  },
  "4660051": {
    "zipcode": "4660051",
    "prefectureCode": "23",
    "prefectureNumber": 23,
    "prefecture": "愛知県",
    "city": "名古屋市昭和区",
    "town": "御器所"
  },
  "4660052": {
    "zipcode": "4660052",
    "prefectureCode": "23",
    "prefectureNumber": 23,
    "prefecture": "愛知県",
    "city": "名古屋市昭和区",
    "town": "村雲町"
  },
  "4660053": {
    "zipcode": "4660053",
    "prefectureCode": "23",
    "prefectureNumber": 23,
    "prefecture": "愛知県",
    "city": "名古屋市昭和区",
    "town": "滝子町"
  },
  "4660054": {
    "zipcode": "4660054",
    "prefectureCode": "23",
    "prefectureNumber": 23,
    "prefecture": "愛知県",
    "city": "名古屋市昭和区",
    "town": "円上町"
  },
  "4660055": {
    "zipcode": "4660055",
    "prefectureCode": "23",
    "prefectureNumber": 23,
    "prefecture": "愛知県",
    "city": "名古屋市昭和区",
    "town": "滝子通"
  },
  "4660056": {
    "zipcode": "4660056",
    "prefectureCode": "23",
    "prefectureNumber": 23,
    "prefecture": "愛知県",
    "city": "名古屋市昭和区",
    "town": "東郊通"
  },
  "4660057": {
    "zipcode": "4660057",
    "prefectureCode": "23",
    "prefectureNumber": 23,
    "prefecture": "愛知県",
    "city": "名古屋市昭和区",
    "town": "高辻町"
  },
  "4660058": {
    "zipcode": "4660058",
    "prefectureCode": "23",
    "prefectureNumber": 23,
    "prefecture": "愛知県",
    "city": "名古屋市昭和区",
    "town": "白金"
  },
  "4660059": {
    "zipcode": "4660059",
    "prefectureCode": "23",
    "prefectureNumber": 23,
    "prefecture": "愛知県",
    "city": "名古屋市昭和区",
    "town": "福江"
  },
  "4660061": {
    "zipcode": "4660061",
    "prefectureCode": "23",
    "prefectureNumber": 23,
    "prefecture": "愛知県",
    "city": "名古屋市昭和区",
    "town": "御器所町"
  },
  "4660062": {
    "zipcode": "4660062",
    "prefectureCode": "23",
    "prefectureNumber": 23,
    "prefecture": "愛知県",
    "city": "名古屋市昭和区",
    "town": "狭間町"
  },
  "4660063": {
    "zipcode": "4660063",
    "prefectureCode": "23",
    "prefectureNumber": 23,
    "prefecture": "愛知県",
    "city": "名古屋市昭和区",
    "town": "山脇町"
  },
  "4660064": {
    "zipcode": "4660064",
    "prefectureCode": "23",
    "prefectureNumber": 23,
    "prefecture": "愛知県",
    "city": "名古屋市昭和区",
    "town": "鶴舞"
  },
  "4660065": {
    "zipcode": "4660065",
    "prefectureCode": "23",
    "prefectureNumber": 23,
    "prefecture": "愛知県",
    "city": "名古屋市昭和区",
    "town": "鶴舞町"
  },
  "4660801": {
    "zipcode": "4660801",
    "prefectureCode": "23",
    "prefectureNumber": 23,
    "prefecture": "愛知県",
    "city": "名古屋市昭和区",
    "town": "田面町"
  },
  "4660802": {
    "zipcode": "4660802",
    "prefectureCode": "23",
    "prefectureNumber": 23,
    "prefecture": "愛知県",
    "city": "名古屋市昭和区",
    "town": "神村町"
  },
  "4660803": {
    "zipcode": "4660803",
    "prefectureCode": "23",
    "prefectureNumber": 23,
    "prefecture": "愛知県",
    "city": "名古屋市昭和区",
    "town": "福原町"
  },
  "4660804": {
    "zipcode": "4660804",
    "prefectureCode": "23",
    "prefectureNumber": 23,
    "prefecture": "愛知県",
    "city": "名古屋市昭和区",
    "town": "宮東町"
  },
  "4660805": {
    "zipcode": "4660805",
    "prefectureCode": "23",
    "prefectureNumber": 23,
    "prefecture": "愛知県",
    "city": "名古屋市昭和区",
    "town": "伊勝町"
  },
  "4660806": {
    "zipcode": "4660806",
    "prefectureCode": "23",
    "prefectureNumber": 23,
    "prefecture": "愛知県",
    "city": "名古屋市昭和区",
    "town": "西畑町"
  },
  "4660807": {
    "zipcode": "4660807",
    "prefectureCode": "23",
    "prefectureNumber": 23,
    "prefecture": "愛知県",
    "city": "名古屋市昭和区",
    "town": "山花町"
  },
  "4660811": {
    "zipcode": "4660811",
    "prefectureCode": "23",
    "prefectureNumber": 23,
    "prefecture": "愛知県",
    "city": "名古屋市昭和区",
    "town": "高峯町"
  },
  "4660812": {
    "zipcode": "4660812",
    "prefectureCode": "23",
    "prefectureNumber": 23,
    "prefecture": "愛知県",
    "city": "名古屋市昭和区",
    "town": "八事富士見"
  },
  "4660814": {
    "zipcode": "4660814",
    "prefectureCode": "23",
    "prefectureNumber": 23,
    "prefecture": "愛知県",
    "city": "名古屋市昭和区",
    "town": "妙見町"
  },
  "4660815": {
    "zipcode": "4660815",
    "prefectureCode": "23",
    "prefectureNumber": 23,
    "prefecture": "愛知県",
    "city": "名古屋市昭和区",
    "town": "山手通"
  },
  "4660821": {
    "zipcode": "4660821",
    "prefectureCode": "23",
    "prefectureNumber": 23,
    "prefecture": "愛知県",
    "city": "名古屋市昭和区",
    "town": "前山町"
  },
  "4660822": {
    "zipcode": "4660822",
    "prefectureCode": "23",
    "prefectureNumber": 23,
    "prefecture": "愛知県",
    "city": "名古屋市昭和区",
    "town": "楽園町"
  },
  "4660823": {
    "zipcode": "4660823",
    "prefectureCode": "23",
    "prefectureNumber": 23,
    "prefecture": "愛知県",
    "city": "名古屋市昭和区",
    "town": "八雲町"
  },
  "4660824": {
    "zipcode": "4660824",
    "prefectureCode": "23",
    "prefectureNumber": 23,
    "prefecture": "愛知県",
    "city": "名古屋市昭和区",
    "town": "山里町"
  },
  "4660825": {
    "zipcode": "4660825",
    "prefectureCode": "23",
    "prefectureNumber": 23,
    "prefecture": "愛知県",
    "city": "名古屋市昭和区",
    "town": "八事本町"
  },
  "4660826": {
    "zipcode": "4660826",
    "prefectureCode": "23",
    "prefectureNumber": 23,
    "prefecture": "愛知県",
    "city": "名古屋市昭和区",
    "town": "滝川町"
  },
  "4660827": {
    "zipcode": "4660827",
    "prefectureCode": "23",
    "prefectureNumber": 23,
    "prefecture": "愛知県",
    "city": "名古屋市昭和区",
    "town": "川名山町"
  },
  "4660828": {
    "zipcode": "4660828",
    "prefectureCode": "23",
    "prefectureNumber": 23,
    "prefecture": "愛知県",
    "city": "名古屋市昭和区",
    "town": "山中町"
  },
  "4660829": {
    "zipcode": "4660829",
    "prefectureCode": "23",
    "prefectureNumber": 23,
    "prefecture": "愛知県",
    "city": "名古屋市昭和区",
    "town": "向山町"
  },
  "4660831": {
    "zipcode": "4660831",
    "prefectureCode": "23",
    "prefectureNumber": 23,
    "prefecture": "愛知県",
    "city": "名古屋市昭和区",
    "town": "花見通"
  },
  "4660832": {
    "zipcode": "4660832",
    "prefectureCode": "23",
    "prefectureNumber": 23,
    "prefecture": "愛知県",
    "city": "名古屋市昭和区",
    "town": "駒方町"
  },
  "4660833": {
    "zipcode": "4660833",
    "prefectureCode": "23",
    "prefectureNumber": 23,
    "prefecture": "愛知県",
    "city": "名古屋市昭和区",
    "town": "隼人町"
  },
  "4660834": {
    "zipcode": "4660834",
    "prefectureCode": "23",
    "prefectureNumber": 23,
    "prefecture": "愛知県",
    "city": "名古屋市昭和区",
    "town": "広路町"
  },
  "4660835": {
    "zipcode": "4660835",
    "prefectureCode": "23",
    "prefectureNumber": 23,
    "prefecture": "愛知県",
    "city": "名古屋市昭和区",
    "town": "南山町"
  },
  "4660836": {
    "zipcode": "4660836",
    "prefectureCode": "23",
    "prefectureNumber": 23,
    "prefecture": "愛知県",
    "city": "名古屋市昭和区",
    "town": "上山町"
  },
  "4660837": {
    "zipcode": "4660837",
    "prefectureCode": "23",
    "prefectureNumber": 23,
    "prefecture": "愛知県",
    "city": "名古屋市昭和区",
    "town": "汐見町"
  },
  "4660838": {
    "zipcode": "4660838",
    "prefectureCode": "23",
    "prefectureNumber": 23,
    "prefecture": "愛知県",
    "city": "名古屋市昭和区",
    "town": "五軒家町"
  },
  "4660841": {
    "zipcode": "4660841",
    "prefectureCode": "23",
    "prefectureNumber": 23,
    "prefecture": "愛知県",
    "city": "名古屋市昭和区",
    "town": "広路本町"
  },
  "4660842": {
    "zipcode": "4660842",
    "prefectureCode": "23",
    "prefectureNumber": 23,
    "prefecture": "愛知県",
    "city": "名古屋市昭和区",
    "town": "檀溪通"
  },
  "4660843": {
    "zipcode": "4660843",
    "prefectureCode": "23",
    "prefectureNumber": 23,
    "prefecture": "愛知県",
    "city": "名古屋市昭和区",
    "town": "菊園町"
  },
  "4660844": {
    "zipcode": "4660844",
    "prefectureCode": "23",
    "prefectureNumber": 23,
    "prefecture": "愛知県",
    "city": "名古屋市昭和区",
    "town": "荒田町"
  },
  "4660845": {
    "zipcode": "4660845",
    "prefectureCode": "23",
    "prefectureNumber": 23,
    "prefecture": "愛知県",
    "city": "名古屋市昭和区",
    "town": "藤成通"
  },
  "4660846": {
    "zipcode": "4660846",
    "prefectureCode": "23",
    "prefectureNumber": 23,
    "prefecture": "愛知県",
    "city": "名古屋市昭和区",
    "town": "戸田町"
  },
  "4660847": {
    "zipcode": "4660847",
    "prefectureCode": "23",
    "prefectureNumber": 23,
    "prefecture": "愛知県",
    "city": "名古屋市昭和区",
    "town": "長池町"
  },
  "4660848": {
    "zipcode": "4660848",
    "prefectureCode": "23",
    "prefectureNumber": 23,
    "prefecture": "愛知県",
    "city": "名古屋市昭和区",
    "town": "長戸町"
  },
  "4660849": {
    "zipcode": "4660849",
    "prefectureCode": "23",
    "prefectureNumber": 23,
    "prefecture": "愛知県",
    "city": "名古屋市昭和区",
    "town": "南分町"
  },
  "4660851": {
    "zipcode": "4660851",
    "prefectureCode": "23",
    "prefectureNumber": 23,
    "prefecture": "愛知県",
    "city": "名古屋市昭和区",
    "town": "元宮町"
  },
  "4660852": {
    "zipcode": "4660852",
    "prefectureCode": "23",
    "prefectureNumber": 23,
    "prefecture": "愛知県",
    "city": "名古屋市昭和区",
    "town": "萩原町"
  },
  "4660853": {
    "zipcode": "4660853",
    "prefectureCode": "23",
    "prefectureNumber": 23,
    "prefecture": "愛知県",
    "city": "名古屋市昭和区",
    "town": "川原通"
  },
  "4660854": {
    "zipcode": "4660854",
    "prefectureCode": "23",
    "prefectureNumber": 23,
    "prefecture": "愛知県",
    "city": "名古屋市昭和区",
    "town": "広路通"
  },
  "4660855": {
    "zipcode": "4660855",
    "prefectureCode": "23",
    "prefectureNumber": 23,
    "prefecture": "愛知県",
    "city": "名古屋市昭和区",
    "town": "川名本町"
  },
  "4660856": {
    "zipcode": "4660856",
    "prefectureCode": "23",
    "prefectureNumber": 23,
    "prefecture": "愛知県",
    "city": "名古屋市昭和区",
    "town": "川名町"
  },
  "4660857": {
    "zipcode": "4660857",
    "prefectureCode": "23",
    "prefectureNumber": 23,
    "prefecture": "愛知県",
    "city": "名古屋市昭和区",
    "town": "安田通"
  },
  "4660858": {
    "zipcode": "4660858",
    "prefectureCode": "23",
    "prefectureNumber": 23,
    "prefecture": "愛知県",
    "city": "名古屋市昭和区",
    "town": "折戸町"
  }
}
