{
  "4670000": {
    "zipcode": "4670000",
    "prefectureCode": "23",
    "prefectureNumber": 23,
    "prefecture": "愛知県",
    "city": "名古屋市瑞穂区",
    "town": "以下に掲載がない場合"
  },
  "4670001": {
    "zipcode": "4670001",
    "prefectureCode": "23",
    "prefectureNumber": 23,
    "prefecture": "愛知県",
    "city": "名古屋市瑞穂区",
    "town": "瑞穂町（川澄）"
  },
  "4670002": {
    "zipcode": "4670002",
    "prefectureCode": "23",
    "prefectureNumber": 23,
    "prefecture": "愛知県",
    "city": "名古屋市瑞穂区",
    "town": "川澄町"
  },
  "4670003": {
    "zipcode": "4670003",
    "prefectureCode": "23",
    "prefectureNumber": 23,
    "prefecture": "愛知県",
    "city": "名古屋市瑞穂区",
    "town": "汐路町"
  },
  "4670004": {
    "zipcode": "4670004",
    "prefectureCode": "23",
    "prefectureNumber": 23,
    "prefecture": "愛知県",
    "city": "名古屋市瑞穂区",
    "town": "松月町"
  },
  "4670005": {
    "zipcode": "4670005",
    "prefectureCode": "23",
    "prefectureNumber": 23,
    "prefecture": "愛知県",
    "city": "名古屋市瑞穂区",
    "town": "石川町"
  },
  "4670006": {
    "zipcode": "4670006",
    "prefectureCode": "23",
    "prefectureNumber": 23,
    "prefecture": "愛知県",
    "city": "名古屋市瑞穂区",
    "town": "御莨町"
  },
  "4670007": {
    "zipcode": "4670007",
    "prefectureCode": "23",
    "prefectureNumber": 23,
    "prefecture": "愛知県",
    "city": "名古屋市瑞穂区",
    "town": "大殿町"
  },
  "4670008": {
    "zipcode": "4670008",
    "prefectureCode": "23",
    "prefectureNumber": 23,
    "prefecture": "愛知県",
    "city": "名古屋市瑞穂区",
    "town": "村上町"
  },
  "4670011": {
    "zipcode": "4670011",
    "prefectureCode": "23",
    "prefectureNumber": 23,
    "prefecture": "愛知県",
    "city": "名古屋市瑞穂区",
    "town": "萩山町"
  },
  "4670012": {
    "zipcode": "4670012",
    "prefectureCode": "23",
    "prefectureNumber": 23,
    "prefecture": "愛知県",
    "city": "名古屋市瑞穂区",
    "town": "豊岡通"
  },
  "4670013": {
    "zipcode": "4670013",
    "prefectureCode": "23",
    "prefectureNumber": 23,
    "prefecture": "愛知県",
    "city": "名古屋市瑞穂区",
    "town": "膳棚町"
  },
  "4670014": {
    "zipcode": "4670014",
    "prefectureCode": "23",
    "prefectureNumber": 23,
    "prefecture": "愛知県",
    "city": "名古屋市瑞穂区",
    "town": "白羽根町"
  },
  "4670015": {
    "zipcode": "4670015",
    "prefectureCode": "23",
    "prefectureNumber": 23,
    "prefecture": "愛知県",
    "city": "名古屋市瑞穂区",
    "town": "十六町"
  },
  "4670016": {
    "zipcode": "4670016",
    "prefectureCode": "23",
    "prefectureNumber": 23,
    "prefecture": "愛知県",
    "city": "名古屋市瑞穂区",
    "town": "佐渡町"
  },
  "4670017": {
    "zipcode": "4670017",
    "prefectureCode": "23",
    "prefectureNumber": 23,
    "prefecture": "愛知県",
    "city": "名古屋市瑞穂区",
    "town": "東栄町"
  },
  "4670021": {
    "zipcode": "4670021",
    "prefectureCode": "23",
    "prefectureNumber": 23,
    "prefecture": "愛知県",
    "city": "名古屋市瑞穂区",
    "town": "檀渓通"
  },
  "4670022": {
    "zipcode": "4670022",
    "prefectureCode": "23",
    "prefectureNumber": 23,
    "prefecture": "愛知県",
    "city": "名古屋市瑞穂区",
    "town": "上山町"
  },
  "4670023": {
    "zipcode": "4670023",
    "prefectureCode": "23",
    "prefectureNumber": 23,
    "prefecture": "愛知県",
    "city": "名古屋市瑞穂区",
    "town": "南山町"
  },
  "4670024": {
    "zipcode": "4670024",
    "prefectureCode": "23",
    "prefectureNumber": 23,
    "prefecture": "愛知県",
    "city": "名古屋市瑞穂区",
    "town": "春山町"
  },
  "4670025": {
    "zipcode": "4670025",
    "prefectureCode": "23",
    "prefectureNumber": 23,
    "prefecture": "愛知県",
    "city": "名古屋市瑞穂区",
    "town": "松栄町"
  },
  "4670026": {
    "zipcode": "4670026",
    "prefectureCode": "23",
    "prefectureNumber": 23,
    "prefecture": "愛知県",
    "city": "名古屋市瑞穂区",
    "town": "陽明町"
  },
  "4670027": {
    "zipcode": "4670027",
    "prefectureCode": "23",
    "prefectureNumber": 23,
    "prefecture": "愛知県",
    "city": "名古屋市瑞穂区",
    "town": "田辺通"
  },
  "4670028": {
    "zipcode": "4670028",
    "prefectureCode": "23",
    "prefectureNumber": 23,
    "prefecture": "愛知県",
    "city": "名古屋市瑞穂区",
    "town": "初日町"
  },
  "4670031": {
    "zipcode": "4670031",
    "prefectureCode": "23",
    "prefectureNumber": 23,
    "prefecture": "愛知県",
    "city": "名古屋市瑞穂区",
    "town": "弥富町緑ケ岡"
  },
  "4670032": {
    "zipcode": "4670032",
    "prefectureCode": "23",
    "prefectureNumber": 23,
    "prefecture": "愛知県",
    "city": "名古屋市瑞穂区",
    "town": "弥富町紅葉園"
  },
  "4670033": {
    "zipcode": "4670033",
    "prefectureCode": "23",
    "prefectureNumber": 23,
    "prefecture": "愛知県",
    "city": "名古屋市瑞穂区",
    "town": "弥富町円山"
  },
  "4670034": {
    "zipcode": "4670034",
    "prefectureCode": "23",
    "prefectureNumber": 23,
    "prefecture": "愛知県",
    "city": "名古屋市瑞穂区",
    "town": "弥富町桜ケ岡"
  },
  "4670035": {
    "zipcode": "4670035",
    "prefectureCode": "23",
    "prefectureNumber": 23,
    "prefecture": "愛知県",
    "city": "名古屋市瑞穂区",
    "town": "弥富町月見ケ岡"
  },
  "4670036": {
    "zipcode": "4670036",
    "prefectureCode": "23",
    "prefectureNumber": 23,
    "prefecture": "愛知県",
    "city": "名古屋市瑞穂区",
    "town": "弥富町密柑山"
  },
  "4670037": {
    "zipcode": "4670037",
    "prefectureCode": "23",
    "prefectureNumber": 23,
    "prefecture": "愛知県",
    "city": "名古屋市瑞穂区",
    "town": "弥富町上山"
  },
  "4670038": {
    "zipcode": "4670038",
    "prefectureCode": "23",
    "prefectureNumber": 23,
    "prefecture": "愛知県",
    "city": "名古屋市瑞穂区",
    "town": "弥富町清水ケ岡"
  },
  "4670039": {
    "zipcode": "4670039",
    "prefectureCode": "23",
    "prefectureNumber": 23,
    "prefecture": "愛知県",
    "city": "名古屋市瑞穂区",
    "town": "弥富町茨山"
  },
  "4670041": {
    "zipcode": "4670041",
    "prefectureCode": "23",
    "prefectureNumber": 23,
    "prefecture": "愛知県",
    "city": "名古屋市瑞穂区",
    "town": "密柑山町"
  },
  "4670042": {
    "zipcode": "4670042",
    "prefectureCode": "23",
    "prefectureNumber": 23,
    "prefecture": "愛知県",
    "city": "名古屋市瑞穂区",
    "town": "八勝通"
  },
  "4670043": {
    "zipcode": "4670043",
    "prefectureCode": "23",
    "prefectureNumber": 23,
    "prefecture": "愛知県",
    "city": "名古屋市瑞穂区",
    "town": "岳見町"
  },
  "4670044": {
    "zipcode": "4670044",
    "prefectureCode": "23",
    "prefectureNumber": 23,
    "prefecture": "愛知県",
    "city": "名古屋市瑞穂区",
    "town": "柏木町"
  },
  "4670045": {
    "zipcode": "4670045",
    "prefectureCode": "23",
    "prefectureNumber": 23,
    "prefecture": "愛知県",
    "city": "名古屋市瑞穂区",
    "town": "茨木町"
  },
  "4670046": {
    "zipcode": "4670046",
    "prefectureCode": "23",
    "prefectureNumber": 23,
    "prefecture": "愛知県",
    "city": "名古屋市瑞穂区",
    "town": "玉水町"
  },
  "4670047": {
    "zipcode": "4670047",
    "prefectureCode": "23",
    "prefectureNumber": 23,
    "prefecture": "愛知県",
    "city": "名古屋市瑞穂区",
    "town": "日向町"
  },
  "4670048": {
    "zipcode": "4670048",
    "prefectureCode": "23",
    "prefectureNumber": 23,
    "prefecture": "愛知県",
    "city": "名古屋市瑞穂区",
    "town": "弥富ケ丘町"
  },
  "4670049": {
    "zipcode": "4670049",
    "prefectureCode": "23",
    "prefectureNumber": 23,
    "prefecture": "愛知県",
    "city": "名古屋市瑞穂区",
    "town": "下山町"
  },
  "4670051": {
    "zipcode": "4670051",
    "prefectureCode": "23",
    "prefectureNumber": 23,
    "prefecture": "愛知県",
    "city": "名古屋市瑞穂区",
    "town": "釜塚町"
  },
  "4670052": {
    "zipcode": "4670052",
    "prefectureCode": "23",
    "prefectureNumber": 23,
    "prefecture": "愛知県",
    "city": "名古屋市瑞穂区",
    "town": "片坂町"
  },
  "4670053": {
    "zipcode": "4670053",
    "prefectureCode": "23",
    "prefectureNumber": 23,
    "prefecture": "愛知県",
    "city": "名古屋市瑞穂区",
    "town": "仁所町"
  },
  "4670054": {
    "zipcode": "4670054",
    "prefectureCode": "23",
    "prefectureNumber": 23,
    "prefecture": "愛知県",
    "city": "名古屋市瑞穂区",
    "town": "丸根町"
  },
  "4670055": {
    "zipcode": "4670055",
    "prefectureCode": "23",
    "prefectureNumber": 23,
    "prefecture": "愛知県",
    "city": "名古屋市瑞穂区",
    "town": "中根町"
  },
  "4670056": {
    "zipcode": "4670056",
    "prefectureCode": "23",
    "prefectureNumber": 23,
    "prefecture": "愛知県",
    "city": "名古屋市瑞穂区",
    "town": "白砂町"
  },
  "4670057": {
    "zipcode": "4670057",
    "prefectureCode": "23",
    "prefectureNumber": 23,
    "prefecture": "愛知県",
    "city": "名古屋市瑞穂区",
    "town": "井の元町"
  },
  "4670058": {
    "zipcode": "4670058",
    "prefectureCode": "23",
    "prefectureNumber": 23,
    "prefecture": "愛知県",
    "city": "名古屋市瑞穂区",
    "town": "関取町"
  },
  "4670059": {
    "zipcode": "4670059",
    "prefectureCode": "23",
    "prefectureNumber": 23,
    "prefecture": "愛知県",
    "city": "名古屋市瑞穂区",
    "town": "軍水町"
  },
  "4670061": {
    "zipcode": "4670061",
    "prefectureCode": "23",
    "prefectureNumber": 23,
    "prefecture": "愛知県",
    "city": "名古屋市瑞穂区",
    "town": "師長町"
  },
  "4670062": {
    "zipcode": "4670062",
    "prefectureCode": "23",
    "prefectureNumber": 23,
    "prefecture": "愛知県",
    "city": "名古屋市瑞穂区",
    "town": "山下通"
  },
  "4670063": {
    "zipcode": "4670063",
    "prefectureCode": "23",
    "prefectureNumber": 23,
    "prefecture": "愛知県",
    "city": "名古屋市瑞穂区",
    "town": "市丘町"
  },
  "4670064": {
    "zipcode": "4670064",
    "prefectureCode": "23",
    "prefectureNumber": 23,
    "prefecture": "愛知県",
    "city": "名古屋市瑞穂区",
    "town": "弥富通"
  },
  "4670065": {
    "zipcode": "4670065",
    "prefectureCode": "23",
    "prefectureNumber": 23,
    "prefecture": "愛知県",
    "city": "名古屋市瑞穂区",
    "town": "松園町"
  },
  "4670066": {
    "zipcode": "4670066",
    "prefectureCode": "23",
    "prefectureNumber": 23,
    "prefecture": "愛知県",
    "city": "名古屋市瑞穂区",
    "town": "洲山町"
  },
  "4670067": {
    "zipcode": "4670067",
    "prefectureCode": "23",
    "prefectureNumber": 23,
    "prefecture": "愛知県",
    "city": "名古屋市瑞穂区",
    "town": "石田町"
  },
  "4670068": {
    "zipcode": "4670068",
    "prefectureCode": "23",
    "prefectureNumber": 23,
    "prefecture": "愛知県",
    "city": "名古屋市瑞穂区",
    "town": "内方町"
  },
  "4670801": {
    "zipcode": "4670801",
    "prefectureCode": "23",
    "prefectureNumber": 23,
    "prefecture": "愛知県",
    "city": "名古屋市瑞穂区",
    "town": "瑞穂町（西藤塚）"
  },
  "4670802": {
    "zipcode": "4670802",
    "prefectureCode": "23",
    "prefectureNumber": 23,
    "prefecture": "愛知県",
    "city": "名古屋市瑞穂区",
    "town": "瑞穂町（山の畑）"
  },
  "4670803": {
    "zipcode": "4670803",
    "prefectureCode": "23",
    "prefectureNumber": 23,
    "prefecture": "愛知県",
    "city": "名古屋市瑞穂区",
    "town": "中山町"
  },
  "4670804": {
    "zipcode": "4670804",
    "prefectureCode": "23",
    "prefectureNumber": 23,
    "prefecture": "愛知県",
    "city": "名古屋市瑞穂区",
    "town": "洲雲町"
  },
  "4670805": {
    "zipcode": "4670805",
    "prefectureCode": "23",
    "prefectureNumber": 23,
    "prefecture": "愛知県",
    "city": "名古屋市瑞穂区",
    "town": "桜見町"
  },
  "4670806": {
    "zipcode": "4670806",
    "prefectureCode": "23",
    "prefectureNumber": 23,
    "prefecture": "愛知県",
    "city": "名古屋市瑞穂区",
    "town": "瑞穂通"
  },
  "4670807": {
    "zipcode": "4670807",
    "prefectureCode": "23",
    "prefectureNumber": 23,
    "prefecture": "愛知県",
    "city": "名古屋市瑞穂区",
    "town": "駒場町"
  },
  "4670808": {
    "zipcode": "4670808",
    "prefectureCode": "23",
    "prefectureNumber": 23,
    "prefecture": "愛知県",
    "city": "名古屋市瑞穂区",
    "town": "高田町"
  },
  "4670811": {
    "zipcode": "4670811",
    "prefectureCode": "23",
    "prefectureNumber": 23,
    "prefecture": "愛知県",
    "city": "名古屋市瑞穂区",
    "town": "北原町"
  },
  "4670812": {
    "zipcode": "4670812",
    "prefectureCode": "23",
    "prefectureNumber": 23,
    "prefecture": "愛知県",
    "city": "名古屋市瑞穂区",
    "town": "薩摩町"
  },
  "4670813": {
    "zipcode": "4670813",
    "prefectureCode": "23",
    "prefectureNumber": 23,
    "prefecture": "愛知県",
    "city": "名古屋市瑞穂区",
    "town": "西ノ割町"
  },
  "4670814": {
    "zipcode": "4670814",
    "prefectureCode": "23",
    "prefectureNumber": 23,
    "prefecture": "愛知県",
    "city": "名古屋市瑞穂区",
    "town": "本願寺町"
  },
  "4670815": {
    "zipcode": "4670815",
    "prefectureCode": "23",
    "prefectureNumber": 23,
    "prefecture": "愛知県",
    "city": "名古屋市瑞穂区",
    "town": "前田町"
  },
  "4670816": {
    "zipcode": "4670816",
    "prefectureCode": "23",
    "prefectureNumber": 23,
    "prefecture": "愛知県",
    "city": "名古屋市瑞穂区",
    "town": "牧町"
  },
  "4670821": {
    "zipcode": "4670821",
    "prefectureCode": "23",
    "prefectureNumber": 23,
    "prefecture": "愛知県",
    "city": "名古屋市瑞穂区",
    "town": "上坂町"
  },
  "4670822": {
    "zipcode": "4670822",
    "prefectureCode": "23",
    "prefectureNumber": 23,
    "prefecture": "愛知県",
    "city": "名古屋市瑞穂区",
    "town": "大喜町"
  },
  "4670823": {
    "zipcode": "4670823",
    "prefectureCode": "23",
    "prefectureNumber": 23,
    "prefecture": "愛知県",
    "city": "名古屋市瑞穂区",
    "town": "津賀田町"
  },
  "4670824": {
    "zipcode": "4670824",
    "prefectureCode": "23",
    "prefectureNumber": 23,
    "prefecture": "愛知県",
    "city": "名古屋市瑞穂区",
    "town": "甲山町"
  },
  "4670825": {
    "zipcode": "4670825",
    "prefectureCode": "23",
    "prefectureNumber": 23,
    "prefecture": "愛知県",
    "city": "名古屋市瑞穂区",
    "town": "柳ケ枝町"
  },
  "4670826": {
    "zipcode": "4670826",
    "prefectureCode": "23",
    "prefectureNumber": 23,
    "prefecture": "愛知県",
    "city": "名古屋市瑞穂区",
    "town": "白龍町"
  },
  "4670827": {
    "zipcode": "4670827",
    "prefectureCode": "23",
    "prefectureNumber": 23,
    "prefecture": "愛知県",
    "city": "名古屋市瑞穂区",
    "town": "下坂町"
  },
  "4670828": {
    "zipcode": "4670828",
    "prefectureCode": "23",
    "prefectureNumber": 23,
    "prefecture": "愛知県",
    "city": "名古屋市瑞穂区",
    "town": "田光町"
  },
  "4670831": {
    "zipcode": "4670831",
    "prefectureCode": "23",
    "prefectureNumber": 23,
    "prefecture": "愛知県",
    "city": "名古屋市瑞穂区",
    "town": "惣作町"
  },
  "4670832": {
    "zipcode": "4670832",
    "prefectureCode": "23",
    "prefectureNumber": 23,
    "prefecture": "愛知県",
    "city": "名古屋市瑞穂区",
    "town": "神前町"
  },
  "4670833": {
    "zipcode": "4670833",
    "prefectureCode": "23",
    "prefectureNumber": 23,
    "prefecture": "愛知県",
    "city": "名古屋市瑞穂区",
    "town": "鍵田町"
  },
  "4670834": {
    "zipcode": "4670834",
    "prefectureCode": "23",
    "prefectureNumber": 23,
    "prefecture": "愛知県",
    "city": "名古屋市瑞穂区",
    "town": "姫宮町"
  },
  "4670835": {
    "zipcode": "4670835",
    "prefectureCode": "23",
    "prefectureNumber": 23,
    "prefecture": "愛知県",
    "city": "名古屋市瑞穂区",
    "town": "井戸田町"
  },
  "4670836": {
    "zipcode": "4670836",
    "prefectureCode": "23",
    "prefectureNumber": 23,
    "prefecture": "愛知県",
    "city": "名古屋市瑞穂区",
    "town": "佃町"
  },
  "4670837": {
    "zipcode": "4670837",
    "prefectureCode": "23",
    "prefectureNumber": 23,
    "prefecture": "愛知県",
    "city": "名古屋市瑞穂区",
    "town": "花目町"
  },
  "4670841": {
    "zipcode": "4670841",
    "prefectureCode": "23",
    "prefectureNumber": 23,
    "prefecture": "愛知県",
    "city": "名古屋市瑞穂区",
    "town": "苗代町"
  },
  "4670842": {
    "zipcode": "4670842",
    "prefectureCode": "23",
    "prefectureNumber": 23,
    "prefecture": "愛知県",
    "city": "名古屋市瑞穂区",
    "town": "妙音通"
  },
  "4670843": {
    "zipcode": "4670843",
    "prefectureCode": "23",
    "prefectureNumber": 23,
    "prefecture": "愛知県",
    "city": "名古屋市瑞穂区",
    "town": "土市町"
  },
  "4670844": {
    "zipcode": "4670844",
    "prefectureCode": "23",
    "prefectureNumber": 23,
    "prefecture": "愛知県",
    "city": "名古屋市瑞穂区",
    "town": "河岸町"
  },
  "4670845": {
    "zipcode": "4670845",
    "prefectureCode": "23",
    "prefectureNumber": 23,
    "prefecture": "愛知県",
    "city": "名古屋市瑞穂区",
    "town": "河岸"
  },
  "4670846": {
    "zipcode": "4670846",
    "prefectureCode": "23",
    "prefectureNumber": 23,
    "prefecture": "愛知県",
    "city": "名古屋市瑞穂区",
    "town": "荒崎町"
  },
  "4670847": {
    "zipcode": "4670847",
    "prefectureCode": "23",
    "prefectureNumber": 23,
    "prefecture": "愛知県",
    "city": "名古屋市瑞穂区",
    "town": "神穂町"
  },
  "4670851": {
    "zipcode": "4670851",
    "prefectureCode": "23",
    "prefectureNumber": 23,
    "prefecture": "愛知県",
    "city": "名古屋市瑞穂区",
    "town": "塩入町"
  },
  "4670852": {
    "zipcode": "4670852",
    "prefectureCode": "23",
    "prefectureNumber": 23,
    "prefecture": "愛知県",
    "city": "名古屋市瑞穂区",
    "town": "明前町"
  },
  "4670853": {
    "zipcode": "4670853",
    "prefectureCode": "23",
    "prefectureNumber": 23,
    "prefecture": "愛知県",
    "city": "名古屋市瑞穂区",
    "town": "内浜町"
  },
  "4670854": {
    "zipcode": "4670854",
    "prefectureCode": "23",
    "prefectureNumber": 23,
    "prefecture": "愛知県",
    "city": "名古屋市瑞穂区",
    "town": "浮島町"
  },
  "4670855": {
    "zipcode": "4670855",
    "prefectureCode": "23",
    "prefectureNumber": 23,
    "prefecture": "愛知県",
    "city": "名古屋市瑞穂区",
    "town": "桃園町"
  },
  "4670856": {
    "zipcode": "4670856",
    "prefectureCode": "23",
    "prefectureNumber": 23,
    "prefecture": "愛知県",
    "city": "名古屋市瑞穂区",
    "town": "新開町"
  },
  "4670861": {
    "zipcode": "4670861",
    "prefectureCode": "23",
    "prefectureNumber": 23,
    "prefecture": "愛知県",
    "city": "名古屋市瑞穂区",
    "town": "二野町"
  },
  "4670862": {
    "zipcode": "4670862",
    "prefectureCode": "23",
    "prefectureNumber": 23,
    "prefecture": "愛知県",
    "city": "名古屋市瑞穂区",
    "town": "堀田通"
  },
  "4670863": {
    "zipcode": "4670863",
    "prefectureCode": "23",
    "prefectureNumber": 23,
    "prefecture": "愛知県",
    "city": "名古屋市瑞穂区",
    "town": "牛巻町"
  },
  "4670864": {
    "zipcode": "4670864",
    "prefectureCode": "23",
    "prefectureNumber": 23,
    "prefecture": "愛知県",
    "city": "名古屋市瑞穂区",
    "town": "豆田町"
  },
  "4670865": {
    "zipcode": "4670865",
    "prefectureCode": "23",
    "prefectureNumber": 23,
    "prefecture": "愛知県",
    "city": "名古屋市瑞穂区",
    "town": "直来町"
  },
  "4670866": {
    "zipcode": "4670866",
    "prefectureCode": "23",
    "prefectureNumber": 23,
    "prefecture": "愛知県",
    "city": "名古屋市瑞穂区",
    "town": "宝田町"
  },
  "4670867": {
    "zipcode": "4670867",
    "prefectureCode": "23",
    "prefectureNumber": 23,
    "prefecture": "愛知県",
    "city": "名古屋市瑞穂区",
    "town": "春敲町"
  },
  "4670868": {
    "zipcode": "4670868",
    "prefectureCode": "23",
    "prefectureNumber": 23,
    "prefecture": "愛知県",
    "city": "名古屋市瑞穂区",
    "town": "大喜新町"
  },
  "4670871": {
    "zipcode": "4670871",
    "prefectureCode": "23",
    "prefectureNumber": 23,
    "prefecture": "愛知県",
    "city": "名古屋市瑞穂区",
    "town": "須田町"
  },
  "4670872": {
    "zipcode": "4670872",
    "prefectureCode": "23",
    "prefectureNumber": 23,
    "prefecture": "愛知県",
    "city": "名古屋市瑞穂区",
    "town": "高辻町"
  },
  "4670873": {
    "zipcode": "4670873",
    "prefectureCode": "23",
    "prefectureNumber": 23,
    "prefecture": "愛知県",
    "city": "名古屋市瑞穂区",
    "town": "竹田町"
  },
  "4670874": {
    "zipcode": "4670874",
    "prefectureCode": "23",
    "prefectureNumber": 23,
    "prefecture": "愛知県",
    "city": "名古屋市瑞穂区",
    "town": "太田町"
  },
  "4670875": {
    "zipcode": "4670875",
    "prefectureCode": "23",
    "prefectureNumber": 23,
    "prefecture": "愛知県",
    "city": "名古屋市瑞穂区",
    "town": "御劔町"
  },
  "4670876": {
    "zipcode": "4670876",
    "prefectureCode": "23",
    "prefectureNumber": 23,
    "prefecture": "愛知県",
    "city": "名古屋市瑞穂区",
    "town": "亀城町"
  },
  "4670877": {
    "zipcode": "4670877",
    "prefectureCode": "23",
    "prefectureNumber": 23,
    "prefecture": "愛知県",
    "city": "名古屋市瑞穂区",
    "town": "雁道町"
  },
  "4670878": {
    "zipcode": "4670878",
    "prefectureCode": "23",
    "prefectureNumber": 23,
    "prefecture": "愛知県",
    "city": "名古屋市瑞穂区",
    "town": "船原町"
  },
  "4670879": {
    "zipcode": "4670879",
    "prefectureCode": "23",
    "prefectureNumber": 23,
    "prefecture": "愛知県",
    "city": "名古屋市瑞穂区",
    "town": "平郷町"
  }
}
