{
  "4680000": {
    "zipcode": "4680000",
    "prefectureCode": "23",
    "prefectureNumber": 23,
    "prefecture": "愛知県",
    "city": "名古屋市天白区",
    "town": "以下に掲載がない場合"
  },
  "4680001": {
    "zipcode": "4680001",
    "prefectureCode": "23",
    "prefectureNumber": 23,
    "prefecture": "愛知県",
    "city": "名古屋市天白区",
    "town": "植田山"
  },
  "4680002": {
    "zipcode": "4680002",
    "prefectureCode": "23",
    "prefectureNumber": 23,
    "prefecture": "愛知県",
    "city": "名古屋市天白区",
    "town": "焼山"
  },
  "4680003": {
    "zipcode": "4680003",
    "prefectureCode": "23",
    "prefectureNumber": 23,
    "prefecture": "愛知県",
    "city": "名古屋市天白区",
    "town": "鴻の巣"
  },
  "4680004": {
    "zipcode": "4680004",
    "prefectureCode": "23",
    "prefectureNumber": 23,
    "prefecture": "愛知県",
    "city": "名古屋市天白区",
    "town": "梅が丘"
  },
  "4680005": {
    "zipcode": "4680005",
    "prefectureCode": "23",
    "prefectureNumber": 23,
    "prefecture": "愛知県",
    "city": "名古屋市天白区",
    "town": "天白町植田"
  },
  "4680006": {
    "zipcode": "4680006",
    "prefectureCode": "23",
    "prefectureNumber": 23,
    "prefecture": "愛知県",
    "city": "名古屋市天白区",
    "town": "植田東"
  },
  "4680007": {
    "zipcode": "4680007",
    "prefectureCode": "23",
    "prefectureNumber": 23,
    "prefecture": "愛知県",
    "city": "名古屋市天白区",
    "town": "植田本町"
  },
  "4680008": {
    "zipcode": "4680008",
    "prefectureCode": "23",
    "prefectureNumber": 23,
    "prefecture": "愛知県",
    "city": "名古屋市天白区",
    "town": "一本松"
  },
  "4680009": {
    "zipcode": "4680009",
    "prefectureCode": "23",
    "prefectureNumber": 23,
    "prefecture": "愛知県",
    "city": "名古屋市天白区",
    "town": "元植田"
  },
  "4680011": {
    "zipcode": "4680011",
    "prefectureCode": "23",
    "prefectureNumber": 23,
    "prefecture": "愛知県",
    "city": "名古屋市天白区",
    "town": "平針"
  },
  "4680012": {
    "zipcode": "4680012",
    "prefectureCode": "23",
    "prefectureNumber": 23,
    "prefecture": "愛知県",
    "city": "名古屋市天白区",
    "town": "向が丘"
  },
  "4680013": {
    "zipcode": "4680013",
    "prefectureCode": "23",
    "prefectureNumber": 23,
    "prefecture": "愛知県",
    "city": "名古屋市天白区",
    "town": "荒池"
  },
  "4680014": {
    "zipcode": "4680014",
    "prefectureCode": "23",
    "prefectureNumber": 23,
    "prefecture": "愛知県",
    "city": "名古屋市天白区",
    "town": "中平"
  },
  "4680015": {
    "zipcode": "4680015",
    "prefectureCode": "23",
    "prefectureNumber": 23,
    "prefecture": "愛知県",
    "city": "名古屋市天白区",
    "town": "原"
  },
  "4680020": {
    "zipcode": "4680020",
    "prefectureCode": "23",
    "prefectureNumber": 23,
    "prefecture": "愛知県",
    "city": "名古屋市天白区",
    "town": "平針南"
  },
  "4680021": {
    "zipcode": "4680021",
    "prefectureCode": "23",
    "prefectureNumber": 23,
    "prefecture": "愛知県",
    "city": "名古屋市天白区",
    "town": "天白町平針"
  },
  "4680022": {
    "zipcode": "4680022",
    "prefectureCode": "23",
    "prefectureNumber": 23,
    "prefecture": "愛知県",
    "city": "名古屋市天白区",
    "town": "高島"
  },
  "4680023": {
    "zipcode": "4680023",
    "prefectureCode": "23",
    "prefectureNumber": 23,
    "prefecture": "愛知県",
    "city": "名古屋市天白区",
    "town": "御前場町"
  },
  "4680024": {
    "zipcode": "4680024",
    "prefectureCode": "23",
    "prefectureNumber": 23,
    "prefecture": "愛知県",
    "city": "名古屋市天白区",
    "town": "大根町"
  },
  "4680025": {
    "zipcode": "4680025",
    "prefectureCode": "23",
    "prefectureNumber": 23,
    "prefecture": "愛知県",
    "city": "名古屋市天白区",
    "town": "高坂町"
  },
  "4680026": {
    "zipcode": "4680026",
    "prefectureCode": "23",
    "prefectureNumber": 23,
    "prefecture": "愛知県",
    "city": "名古屋市天白区",
    "town": "土原"
  },
  "4680027": {
    "zipcode": "4680027",
    "prefectureCode": "23",
    "prefectureNumber": 23,
    "prefecture": "愛知県",
    "city": "名古屋市天白区",
    "town": "天白町島田"
  },
  "4680028": {
    "zipcode": "4680028",
    "prefectureCode": "23",
    "prefectureNumber": 23,
    "prefecture": "愛知県",
    "city": "名古屋市天白区",
    "town": "島田黒石"
  },
  "4680029": {
    "zipcode": "4680029",
    "prefectureCode": "23",
    "prefectureNumber": 23,
    "prefecture": "愛知県",
    "city": "名古屋市天白区",
    "town": "島田が丘"
  },
  "4680030": {
    "zipcode": "4680030",
    "prefectureCode": "23",
    "prefectureNumber": 23,
    "prefecture": "愛知県",
    "city": "名古屋市天白区",
    "town": "平針台"
  },
  "4680031": {
    "zipcode": "4680031",
    "prefectureCode": "23",
    "prefectureNumber": 23,
    "prefecture": "愛知県",
    "city": "名古屋市天白区",
    "town": "高宮町"
  },
  "4680032": {
    "zipcode": "4680032",
    "prefectureCode": "23",
    "prefectureNumber": 23,
    "prefecture": "愛知県",
    "city": "名古屋市天白区",
    "town": "山郷町"
  },
  "4680033": {
    "zipcode": "4680033",
    "prefectureCode": "23",
    "prefectureNumber": 23,
    "prefecture": "愛知県",
    "city": "名古屋市天白区",
    "town": "一つ山"
  },
  "4680034": {
    "zipcode": "4680034",
    "prefectureCode": "23",
    "prefectureNumber": 23,
    "prefecture": "愛知県",
    "city": "名古屋市天白区",
    "town": "久方"
  },
  "4680035": {
    "zipcode": "4680035",
    "prefectureCode": "23",
    "prefectureNumber": 23,
    "prefecture": "愛知県",
    "city": "名古屋市天白区",
    "town": "境根町"
  },
  "4680037": {
    "zipcode": "4680037",
    "prefectureCode": "23",
    "prefectureNumber": 23,
    "prefecture": "愛知県",
    "city": "名古屋市天白区",
    "town": "天白町野並"
  },
  "4680038": {
    "zipcode": "4680038",
    "prefectureCode": "23",
    "prefectureNumber": 23,
    "prefecture": "愛知県",
    "city": "名古屋市天白区",
    "town": "山根町"
  },
  "4680039": {
    "zipcode": "4680039",
    "prefectureCode": "23",
    "prefectureNumber": 23,
    "prefecture": "愛知県",
    "city": "名古屋市天白区",
    "town": "西入町"
  },
  "4680041": {
    "zipcode": "4680041",
    "prefectureCode": "23",
    "prefectureNumber": 23,
    "prefecture": "愛知県",
    "city": "名古屋市天白区",
    "town": "保呂町"
  },
  "4680042": {
    "zipcode": "4680042",
    "prefectureCode": "23",
    "prefectureNumber": 23,
    "prefecture": "愛知県",
    "city": "名古屋市天白区",
    "town": "海老山町"
  },
  "4680043": {
    "zipcode": "4680043",
    "prefectureCode": "23",
    "prefectureNumber": 23,
    "prefecture": "愛知県",
    "city": "名古屋市天白区",
    "town": "菅田"
  },
  "4680044": {
    "zipcode": "4680044",
    "prefectureCode": "23",
    "prefectureNumber": 23,
    "prefecture": "愛知県",
    "city": "名古屋市天白区",
    "town": "笹原町"
  },
  "4680045": {
    "zipcode": "4680045",
    "prefectureCode": "23",
    "prefectureNumber": 23,
    "prefecture": "愛知県",
    "city": "名古屋市天白区",
    "town": "野並"
  },
  "4680046": {
    "zipcode": "4680046",
    "prefectureCode": "23",
    "prefectureNumber": 23,
    "prefecture": "愛知県",
    "city": "名古屋市天白区",
    "town": "古川町"
  },
  "4680047": {
    "zipcode": "4680047",
    "prefectureCode": "23",
    "prefectureNumber": 23,
    "prefecture": "愛知県",
    "city": "名古屋市天白区",
    "town": "井の森町"
  },
  "4680048": {
    "zipcode": "4680048",
    "prefectureCode": "23",
    "prefectureNumber": 23,
    "prefecture": "愛知県",
    "city": "名古屋市天白区",
    "town": "中坪町"
  },
  "4680049": {
    "zipcode": "4680049",
    "prefectureCode": "23",
    "prefectureNumber": 23,
    "prefecture": "愛知県",
    "city": "名古屋市天白区",
    "town": "福池"
  },
  "4680051": {
    "zipcode": "4680051",
    "prefectureCode": "23",
    "prefectureNumber": 23,
    "prefecture": "愛知県",
    "city": "名古屋市天白区",
    "town": "植田"
  },
  "4680052": {
    "zipcode": "4680052",
    "prefectureCode": "23",
    "prefectureNumber": 23,
    "prefecture": "愛知県",
    "city": "名古屋市天白区",
    "town": "井口"
  },
  "4680053": {
    "zipcode": "4680053",
    "prefectureCode": "23",
    "prefectureNumber": 23,
    "prefecture": "愛知県",
    "city": "名古屋市天白区",
    "town": "植田南"
  },
  "4680054": {
    "zipcode": "4680054",
    "prefectureCode": "23",
    "prefectureNumber": 23,
    "prefecture": "愛知県",
    "city": "名古屋市天白区",
    "town": "横町"
  },
  "4680055": {
    "zipcode": "4680055",
    "prefectureCode": "23",
    "prefectureNumber": 23,
    "prefecture": "愛知県",
    "city": "名古屋市天白区",
    "town": "池場"
  },
  "4680056": {
    "zipcode": "4680056",
    "prefectureCode": "23",
    "prefectureNumber": 23,
    "prefecture": "愛知県",
    "city": "名古屋市天白区",
    "town": "島田"
  },
  "4680058": {
    "zipcode": "4680058",
    "prefectureCode": "23",
    "prefectureNumber": 23,
    "prefecture": "愛知県",
    "city": "名古屋市天白区",
    "town": "植田西"
  },
  "4680061": {
    "zipcode": "4680061",
    "prefectureCode": "23",
    "prefectureNumber": 23,
    "prefecture": "愛知県",
    "city": "名古屋市天白区",
    "town": "八事天道"
  },
  "4680062": {
    "zipcode": "4680062",
    "prefectureCode": "23",
    "prefectureNumber": 23,
    "prefecture": "愛知県",
    "city": "名古屋市天白区",
    "town": "弥生が岡"
  },
  "4680063": {
    "zipcode": "4680063",
    "prefectureCode": "23",
    "prefectureNumber": 23,
    "prefecture": "愛知県",
    "city": "名古屋市天白区",
    "town": "音聞山"
  },
  "4680064": {
    "zipcode": "4680064",
    "prefectureCode": "23",
    "prefectureNumber": 23,
    "prefecture": "愛知県",
    "city": "名古屋市天白区",
    "town": "道明町"
  },
  "4680065": {
    "zipcode": "4680065",
    "prefectureCode": "23",
    "prefectureNumber": 23,
    "prefecture": "愛知県",
    "city": "名古屋市天白区",
    "town": "中砂町"
  },
  "4680066": {
    "zipcode": "4680066",
    "prefectureCode": "23",
    "prefectureNumber": 23,
    "prefecture": "愛知県",
    "city": "名古屋市天白区",
    "town": "元八事"
  },
  "4680067": {
    "zipcode": "4680067",
    "prefectureCode": "23",
    "prefectureNumber": 23,
    "prefecture": "愛知県",
    "city": "名古屋市天白区",
    "town": "池見"
  },
  "4680068": {
    "zipcode": "4680068",
    "prefectureCode": "23",
    "prefectureNumber": 23,
    "prefecture": "愛知県",
    "city": "名古屋市天白区",
    "town": "表台"
  },
  "4680069": {
    "zipcode": "4680069",
    "prefectureCode": "23",
    "prefectureNumber": 23,
    "prefecture": "愛知県",
    "city": "名古屋市天白区",
    "town": "表山"
  },
  "4680071": {
    "zipcode": "4680071",
    "prefectureCode": "23",
    "prefectureNumber": 23,
    "prefecture": "愛知県",
    "city": "名古屋市天白区",
    "town": "天白町八事"
  },
  "4680072": {
    "zipcode": "4680072",
    "prefectureCode": "23",
    "prefectureNumber": 23,
    "prefecture": "愛知県",
    "city": "名古屋市天白区",
    "town": "大坪"
  },
  "4680073": {
    "zipcode": "4680073",
    "prefectureCode": "23",
    "prefectureNumber": 23,
    "prefecture": "愛知県",
    "city": "名古屋市天白区",
    "town": "塩釜口"
  },
  "4680074": {
    "zipcode": "4680074",
    "prefectureCode": "23",
    "prefectureNumber": 23,
    "prefecture": "愛知県",
    "city": "名古屋市天白区",
    "town": "八幡山"
  },
  "4680075": {
    "zipcode": "4680075",
    "prefectureCode": "23",
    "prefectureNumber": 23,
    "prefecture": "愛知県",
    "city": "名古屋市天白区",
    "town": "御幸山"
  },
  "4680076": {
    "zipcode": "4680076",
    "prefectureCode": "23",
    "prefectureNumber": 23,
    "prefecture": "愛知県",
    "city": "名古屋市天白区",
    "town": "八事石坂"
  },
  "4680077": {
    "zipcode": "4680077",
    "prefectureCode": "23",
    "prefectureNumber": 23,
    "prefecture": "愛知県",
    "city": "名古屋市天白区",
    "town": "八事山"
  },
  "4680836": {
    "zipcode": "4680836",
    "prefectureCode": "23",
    "prefectureNumber": 23,
    "prefecture": "愛知県",
    "city": "名古屋市天白区",
    "town": "相川"
  }
}
