{
  "4710000": {
    "zipcode": "4710000",
    "prefectureCode": "23",
    "prefectureNumber": 23,
    "prefecture": "愛知県",
    "city": "豊田市",
    "town": "以下に掲載がない場合"
  },
  "4710001": {
    "zipcode": "4710001",
    "prefectureCode": "23",
    "prefectureNumber": 23,
    "prefecture": "愛知県",
    "city": "豊田市",
    "town": "池田町"
  },
  "4710002": {
    "zipcode": "4710002",
    "prefectureCode": "23",
    "prefectureNumber": 23,
    "prefecture": "愛知県",
    "city": "豊田市",
    "town": "矢並町"
  },
  "4710003": {
    "zipcode": "4710003",
    "prefectureCode": "23",
    "prefectureNumber": 23,
    "prefecture": "愛知県",
    "city": "豊田市",
    "town": "岩滝町"
  },
  "4710004": {
    "zipcode": "4710004",
    "prefectureCode": "23",
    "prefectureNumber": 23,
    "prefecture": "愛知県",
    "city": "豊田市",
    "town": "双美町"
  },
  "4710005": {
    "zipcode": "4710005",
    "prefectureCode": "23",
    "prefectureNumber": 23,
    "prefecture": "愛知県",
    "city": "豊田市",
    "town": "京ケ峰"
  },
  "4710006": {
    "zipcode": "4710006",
    "prefectureCode": "23",
    "prefectureNumber": 23,
    "prefecture": "愛知県",
    "city": "豊田市",
    "town": "市木町"
  },
  "4710007": {
    "zipcode": "4710007",
    "prefectureCode": "23",
    "prefectureNumber": 23,
    "prefecture": "愛知県",
    "city": "豊田市",
    "town": "美和町"
  },
  "4710008": {
    "zipcode": "4710008",
    "prefectureCode": "23",
    "prefectureNumber": 23,
    "prefecture": "愛知県",
    "city": "豊田市",
    "town": "百々町"
  },
  "4710009": {
    "zipcode": "4710009",
    "prefectureCode": "23",
    "prefectureNumber": 23,
    "prefecture": "愛知県",
    "city": "豊田市",
    "town": "扶桑町"
  },
  "4710011": {
    "zipcode": "4710011",
    "prefectureCode": "23",
    "prefectureNumber": 23,
    "prefecture": "愛知県",
    "city": "豊田市",
    "town": "平井町"
  },
  "4710012": {
    "zipcode": "4710012",
    "prefectureCode": "23",
    "prefectureNumber": 23,
    "prefecture": "愛知県",
    "city": "豊田市",
    "town": "水間町"
  },
  "4710013": {
    "zipcode": "4710013",
    "prefectureCode": "23",
    "prefectureNumber": 23,
    "prefecture": "愛知県",
    "city": "豊田市",
    "town": "高上"
  },
  "4710014": {
    "zipcode": "4710014",
    "prefectureCode": "23",
    "prefectureNumber": 23,
    "prefecture": "愛知県",
    "city": "豊田市",
    "town": "東山町"
  },
  "4710015": {
    "zipcode": "4710015",
    "prefectureCode": "23",
    "prefectureNumber": 23,
    "prefecture": "愛知県",
    "city": "豊田市",
    "town": "上野町"
  },
  "4710016": {
    "zipcode": "4710016",
    "prefectureCode": "23",
    "prefectureNumber": 23,
    "prefecture": "愛知県",
    "city": "豊田市",
    "town": "千石町"
  },
  "4710017": {
    "zipcode": "4710017",
    "prefectureCode": "23",
    "prefectureNumber": 23,
    "prefecture": "愛知県",
    "city": "豊田市",
    "town": "寺部町"
  },
  "4710018": {
    "zipcode": "4710018",
    "prefectureCode": "23",
    "prefectureNumber": 23,
    "prefecture": "愛知県",
    "city": "豊田市",
    "town": "社町"
  },
  "4710019": {
    "zipcode": "4710019",
    "prefectureCode": "23",
    "prefectureNumber": 23,
    "prefecture": "愛知県",
    "city": "豊田市",
    "town": "高橋町"
  },
  "4710021": {
    "zipcode": "4710021",
    "prefectureCode": "23",
    "prefectureNumber": 23,
    "prefecture": "愛知県",
    "city": "豊田市",
    "town": "中島町"
  },
  "4710022": {
    "zipcode": "4710022",
    "prefectureCode": "23",
    "prefectureNumber": 23,
    "prefecture": "愛知県",
    "city": "豊田市",
    "town": "白浜町"
  },
  "4710023": {
    "zipcode": "4710023",
    "prefectureCode": "23",
    "prefectureNumber": 23,
    "prefecture": "愛知県",
    "city": "豊田市",
    "town": "挙母町"
  },
  "4710024": {
    "zipcode": "4710024",
    "prefectureCode": "23",
    "prefectureNumber": 23,
    "prefecture": "愛知県",
    "city": "豊田市",
    "town": "元城町"
  },
  "4710025": {
    "zipcode": "4710025",
    "prefectureCode": "23",
    "prefectureNumber": 23,
    "prefecture": "愛知県",
    "city": "豊田市",
    "town": "西町"
  },
  "4710026": {
    "zipcode": "4710026",
    "prefectureCode": "23",
    "prefectureNumber": 23,
    "prefecture": "愛知県",
    "city": "豊田市",
    "town": "若宮町"
  },
  "4710027": {
    "zipcode": "4710027",
    "prefectureCode": "23",
    "prefectureNumber": 23,
    "prefecture": "愛知県",
    "city": "豊田市",
    "town": "喜多町"
  },
  "4710028": {
    "zipcode": "4710028",
    "prefectureCode": "23",
    "prefectureNumber": 23,
    "prefecture": "愛知県",
    "city": "豊田市",
    "town": "神明町"
  },
  "4710029": {
    "zipcode": "4710029",
    "prefectureCode": "23",
    "prefectureNumber": 23,
    "prefecture": "愛知県",
    "city": "豊田市",
    "town": "桜町"
  },
  "4710031": {
    "zipcode": "4710031",
    "prefectureCode": "23",
    "prefectureNumber": 23,
    "prefecture": "愛知県",
    "city": "豊田市",
    "town": "朝日町"
  },
  "4710032": {
    "zipcode": "4710032",
    "prefectureCode": "23",
    "prefectureNumber": 23,
    "prefecture": "愛知県",
    "city": "豊田市",
    "town": "日南町"
  },
  "4710033": {
    "zipcode": "4710033",
    "prefectureCode": "23",
    "prefectureNumber": 23,
    "prefecture": "愛知県",
    "city": "豊田市",
    "town": "月見町"
  },
  "4710034": {
    "zipcode": "4710034",
    "prefectureCode": "23",
    "prefectureNumber": 23,
    "prefecture": "愛知県",
    "city": "豊田市",
    "town": "小坂本町"
  },
  "4710035": {
    "zipcode": "4710035",
    "prefectureCode": "23",
    "prefectureNumber": 23,
    "prefecture": "愛知県",
    "city": "豊田市",
    "town": "小坂町"
  },
  "4710036": {
    "zipcode": "4710036",
    "prefectureCode": "23",
    "prefectureNumber": 23,
    "prefecture": "愛知県",
    "city": "豊田市",
    "town": "広久手町"
  },
  "4710037": {
    "zipcode": "4710037",
    "prefectureCode": "23",
    "prefectureNumber": 23,
    "prefecture": "愛知県",
    "city": "豊田市",
    "town": "三軒町"
  },
  "4710038": {
    "zipcode": "4710038",
    "prefectureCode": "23",
    "prefectureNumber": 23,
    "prefecture": "愛知県",
    "city": "豊田市",
    "town": "宮上町"
  },
  "4710041": {
    "zipcode": "4710041",
    "prefectureCode": "23",
    "prefectureNumber": 23,
    "prefecture": "愛知県",
    "city": "豊田市",
    "town": "汐見町"
  },
  "4710042": {
    "zipcode": "4710042",
    "prefectureCode": "23",
    "prefectureNumber": 23,
    "prefecture": "愛知県",
    "city": "豊田市",
    "town": "宮口町"
  },
  "4710043": {
    "zipcode": "4710043",
    "prefectureCode": "23",
    "prefectureNumber": 23,
    "prefecture": "愛知県",
    "city": "豊田市",
    "town": "宮町"
  },
  "4710044": {
    "zipcode": "4710044",
    "prefectureCode": "23",
    "prefectureNumber": 23,
    "prefecture": "愛知県",
    "city": "豊田市",
    "town": "新町"
  },
  "4710045": {
    "zipcode": "4710045",
    "prefectureCode": "23",
    "prefectureNumber": 23,
    "prefecture": "愛知県",
    "city": "豊田市",
    "town": "東新町"
  },
  "4710046": {
    "zipcode": "4710046",
    "prefectureCode": "23",
    "prefectureNumber": 23,
    "prefecture": "愛知県",
    "city": "豊田市",
    "town": "本新町"
  },
  "4710047": {
    "zipcode": "4710047",
    "prefectureCode": "23",
    "prefectureNumber": 23,
    "prefecture": "愛知県",
    "city": "豊田市",
    "town": "西新町"
  },
  "4710048": {
    "zipcode": "4710048",
    "prefectureCode": "23",
    "prefectureNumber": 23,
    "prefecture": "愛知県",
    "city": "豊田市",
    "town": "高崎町"
  },
  "4710049": {
    "zipcode": "4710049",
    "prefectureCode": "23",
    "prefectureNumber": 23,
    "prefecture": "愛知県",
    "city": "豊田市",
    "town": "田町"
  },
  "4710051": {
    "zipcode": "4710051",
    "prefectureCode": "23",
    "prefectureNumber": 23,
    "prefecture": "愛知県",
    "city": "豊田市",
    "town": "花丘町"
  },
  "4710052": {
    "zipcode": "4710052",
    "prefectureCode": "23",
    "prefectureNumber": 23,
    "prefecture": "愛知県",
    "city": "豊田市",
    "town": "逢妻町"
  },
  "4710053": {
    "zipcode": "4710053",
    "prefectureCode": "23",
    "prefectureNumber": 23,
    "prefecture": "愛知県",
    "city": "豊田市",
    "town": "丸根町"
  },
  "4710054": {
    "zipcode": "4710054",
    "prefectureCode": "23",
    "prefectureNumber": 23,
    "prefecture": "愛知県",
    "city": "豊田市",
    "town": "天王町"
  },
  "4710055": {
    "zipcode": "4710055",
    "prefectureCode": "23",
    "prefectureNumber": 23,
    "prefecture": "愛知県",
    "city": "豊田市",
    "town": "久岡町"
  },
  "4710056": {
    "zipcode": "4710056",
    "prefectureCode": "23",
    "prefectureNumber": 23,
    "prefecture": "愛知県",
    "city": "豊田市",
    "town": "白山町"
  },
  "4710057": {
    "zipcode": "4710057",
    "prefectureCode": "23",
    "prefectureNumber": 23,
    "prefecture": "愛知県",
    "city": "豊田市",
    "town": "太平町"
  },
  "4710058": {
    "zipcode": "4710058",
    "prefectureCode": "23",
    "prefectureNumber": 23,
    "prefecture": "愛知県",
    "city": "豊田市",
    "town": "大池町"
  },
  "4710059": {
    "zipcode": "4710059",
    "prefectureCode": "23",
    "prefectureNumber": 23,
    "prefecture": "愛知県",
    "city": "豊田市",
    "town": "貞宝町"
  },
  "4710061": {
    "zipcode": "4710061",
    "prefectureCode": "23",
    "prefectureNumber": 23,
    "prefecture": "愛知県",
    "city": "豊田市",
    "town": "若草町"
  },
  "4710062": {
    "zipcode": "4710062",
    "prefectureCode": "23",
    "prefectureNumber": 23,
    "prefecture": "愛知県",
    "city": "豊田市",
    "town": "西山町"
  },
  "4710063": {
    "zipcode": "4710063",
    "prefectureCode": "23",
    "prefectureNumber": 23,
    "prefecture": "愛知県",
    "city": "豊田市",
    "town": "京町"
  },
  "4710064": {
    "zipcode": "4710064",
    "prefectureCode": "23",
    "prefectureNumber": 23,
    "prefecture": "愛知県",
    "city": "豊田市",
    "town": "梅坪町"
  },
  "4710065": {
    "zipcode": "4710065",
    "prefectureCode": "23",
    "prefectureNumber": 23,
    "prefecture": "愛知県",
    "city": "豊田市",
    "town": "平芝町"
  },
  "4710066": {
    "zipcode": "4710066",
    "prefectureCode": "23",
    "prefectureNumber": 23,
    "prefecture": "愛知県",
    "city": "豊田市",
    "town": "栄町"
  },
  "4710067": {
    "zipcode": "4710067",
    "prefectureCode": "23",
    "prefectureNumber": 23,
    "prefecture": "愛知県",
    "city": "豊田市",
    "town": "栄生町"
  },
  "4710068": {
    "zipcode": "4710068",
    "prefectureCode": "23",
    "prefectureNumber": 23,
    "prefecture": "愛知県",
    "city": "豊田市",
    "town": "横山町"
  },
  "4710069": {
    "zipcode": "4710069",
    "prefectureCode": "23",
    "prefectureNumber": 23,
    "prefecture": "愛知県",
    "city": "豊田市",
    "town": "高原町"
  },
  "4710071": {
    "zipcode": "4710071",
    "prefectureCode": "23",
    "prefectureNumber": 23,
    "prefecture": "愛知県",
    "city": "豊田市",
    "town": "東梅坪町"
  },
  "4710072": {
    "zipcode": "4710072",
    "prefectureCode": "23",
    "prefectureNumber": 23,
    "prefecture": "愛知県",
    "city": "豊田市",
    "town": "落合町"
  },
  "4710073": {
    "zipcode": "4710073",
    "prefectureCode": "23",
    "prefectureNumber": 23,
    "prefecture": "愛知県",
    "city": "豊田市",
    "town": "川田町"
  },
  "4710074": {
    "zipcode": "4710074",
    "prefectureCode": "23",
    "prefectureNumber": 23,
    "prefecture": "愛知県",
    "city": "豊田市",
    "town": "川端町"
  },
  "4710075": {
    "zipcode": "4710075",
    "prefectureCode": "23",
    "prefectureNumber": 23,
    "prefecture": "愛知県",
    "city": "豊田市",
    "town": "日之出町"
  },
  "4710076": {
    "zipcode": "4710076",
    "prefectureCode": "23",
    "prefectureNumber": 23,
    "prefecture": "愛知県",
    "city": "豊田市",
    "town": "久保町"
  },
  "4710077": {
    "zipcode": "4710077",
    "prefectureCode": "23",
    "prefectureNumber": 23,
    "prefecture": "愛知県",
    "city": "豊田市",
    "town": "竹生町"
  },
  "4710078": {
    "zipcode": "4710078",
    "prefectureCode": "23",
    "prefectureNumber": 23,
    "prefecture": "愛知県",
    "city": "豊田市",
    "town": "昭和町"
  },
  "4710079": {
    "zipcode": "4710079",
    "prefectureCode": "23",
    "prefectureNumber": 23,
    "prefecture": "愛知県",
    "city": "豊田市",
    "town": "陣中町"
  },
  "4710801": {
    "zipcode": "4710801",
    "prefectureCode": "23",
    "prefectureNumber": 23,
    "prefecture": "愛知県",
    "city": "豊田市",
    "town": "古瀬間町"
  },
  "4710802": {
    "zipcode": "4710802",
    "prefectureCode": "23",
    "prefectureNumber": 23,
    "prefecture": "愛知県",
    "city": "豊田市",
    "town": "志賀町"
  },
  "4710803": {
    "zipcode": "4710803",
    "prefectureCode": "23",
    "prefectureNumber": 23,
    "prefecture": "愛知県",
    "city": "豊田市",
    "town": "泉町"
  },
  "4710804": {
    "zipcode": "4710804",
    "prefectureCode": "23",
    "prefectureNumber": 23,
    "prefecture": "愛知県",
    "city": "豊田市",
    "town": "神池町"
  },
  "4710805": {
    "zipcode": "4710805",
    "prefectureCode": "23",
    "prefectureNumber": 23,
    "prefecture": "愛知県",
    "city": "豊田市",
    "town": "美里"
  },
  "4710806": {
    "zipcode": "4710806",
    "prefectureCode": "23",
    "prefectureNumber": 23,
    "prefecture": "愛知県",
    "city": "豊田市",
    "town": "森町"
  },
  "4710807": {
    "zipcode": "4710807",
    "prefectureCode": "23",
    "prefectureNumber": 23,
    "prefecture": "愛知県",
    "city": "豊田市",
    "town": "広川町"
  },
  "4710808": {
    "zipcode": "4710808",
    "prefectureCode": "23",
    "prefectureNumber": 23,
    "prefecture": "愛知県",
    "city": "豊田市",
    "town": "渋谷町"
  },
  "4710809": {
    "zipcode": "4710809",
    "prefectureCode": "23",
    "prefectureNumber": 23,
    "prefecture": "愛知県",
    "city": "豊田市",
    "town": "宝来町"
  },
  "4710811": {
    "zipcode": "4710811",
    "prefectureCode": "23",
    "prefectureNumber": 23,
    "prefecture": "愛知県",
    "city": "豊田市",
    "town": "御立町"
  },
  "4710812": {
    "zipcode": "4710812",
    "prefectureCode": "23",
    "prefectureNumber": 23,
    "prefecture": "愛知県",
    "city": "豊田市",
    "town": "野見町"
  },
  "4710813": {
    "zipcode": "4710813",
    "prefectureCode": "23",
    "prefectureNumber": 23,
    "prefecture": "愛知県",
    "city": "豊田市",
    "town": "野見山町"
  },
  "4710814": {
    "zipcode": "4710814",
    "prefectureCode": "23",
    "prefectureNumber": 23,
    "prefecture": "愛知県",
    "city": "豊田市",
    "town": "五ケ丘"
  },
  "4710815": {
    "zipcode": "4710815",
    "prefectureCode": "23",
    "prefectureNumber": 23,
    "prefecture": "愛知県",
    "city": "豊田市",
    "town": "大見町"
  },
  "4710816": {
    "zipcode": "4710816",
    "prefectureCode": "23",
    "prefectureNumber": 23,
    "prefecture": "愛知県",
    "city": "豊田市",
    "town": "琴平町"
  },
  "4710817": {
    "zipcode": "4710817",
    "prefectureCode": "23",
    "prefectureNumber": 23,
    "prefecture": "愛知県",
    "city": "豊田市",
    "town": "渡合町"
  },
  "4710818": {
    "zipcode": "4710818",
    "prefectureCode": "23",
    "prefectureNumber": 23,
    "prefecture": "愛知県",
    "city": "豊田市",
    "town": "室町"
  },
  "4710819": {
    "zipcode": "4710819",
    "prefectureCode": "23",
    "prefectureNumber": 23,
    "prefecture": "愛知県",
    "city": "豊田市",
    "town": "宮前町"
  },
  "4710821": {
    "zipcode": "4710821",
    "prefectureCode": "23",
    "prefectureNumber": 23,
    "prefecture": "愛知県",
    "city": "豊田市",
    "town": "平和町"
  },
  "4710822": {
    "zipcode": "4710822",
    "prefectureCode": "23",
    "prefectureNumber": 23,
    "prefecture": "愛知県",
    "city": "豊田市",
    "town": "水源町"
  },
  "4710823": {
    "zipcode": "4710823",
    "prefectureCode": "23",
    "prefectureNumber": 23,
    "prefecture": "愛知県",
    "city": "豊田市",
    "town": "今町"
  },
  "4710824": {
    "zipcode": "4710824",
    "prefectureCode": "23",
    "prefectureNumber": 23,
    "prefecture": "愛知県",
    "city": "豊田市",
    "town": "河合町"
  },
  "4710825": {
    "zipcode": "4710825",
    "prefectureCode": "23",
    "prefectureNumber": 23,
    "prefecture": "愛知県",
    "city": "豊田市",
    "town": "明和町"
  },
  "4710826": {
    "zipcode": "4710826",
    "prefectureCode": "23",
    "prefectureNumber": 23,
    "prefecture": "愛知県",
    "city": "豊田市",
    "town": "トヨタ町"
  },
  "4710827": {
    "zipcode": "4710827",
    "prefectureCode": "23",
    "prefectureNumber": 23,
    "prefecture": "愛知県",
    "city": "豊田市",
    "town": "平山町"
  },
  "4710828": {
    "zipcode": "4710828",
    "prefectureCode": "23",
    "prefectureNumber": 23,
    "prefecture": "愛知県",
    "city": "豊田市",
    "town": "前山町"
  },
  "4710831": {
    "zipcode": "4710831",
    "prefectureCode": "23",
    "prefectureNumber": 23,
    "prefecture": "愛知県",
    "city": "豊田市",
    "town": "司町"
  },
  "4710832": {
    "zipcode": "4710832",
    "prefectureCode": "23",
    "prefectureNumber": 23,
    "prefecture": "愛知県",
    "city": "豊田市",
    "town": "丸山町"
  },
  "4710833": {
    "zipcode": "4710833",
    "prefectureCode": "23",
    "prefectureNumber": 23,
    "prefecture": "愛知県",
    "city": "豊田市",
    "town": "山之手"
  },
  "4710834": {
    "zipcode": "4710834",
    "prefectureCode": "23",
    "prefectureNumber": 23,
    "prefecture": "愛知県",
    "city": "豊田市",
    "town": "寿町"
  },
  "4710835": {
    "zipcode": "4710835",
    "prefectureCode": "23",
    "prefectureNumber": 23,
    "prefecture": "愛知県",
    "city": "豊田市",
    "town": "曙町"
  },
  "4710836": {
    "zipcode": "4710836",
    "prefectureCode": "23",
    "prefectureNumber": 23,
    "prefecture": "愛知県",
    "city": "豊田市",
    "town": "鴻ノ巣町"
  },
  "4710837": {
    "zipcode": "4710837",
    "prefectureCode": "23",
    "prefectureNumber": 23,
    "prefecture": "愛知県",
    "city": "豊田市",
    "town": "新生町"
  },
  "4710838": {
    "zipcode": "4710838",
    "prefectureCode": "23",
    "prefectureNumber": 23,
    "prefecture": "愛知県",
    "city": "豊田市",
    "town": "緑ケ丘"
  },
  "4710841": {
    "zipcode": "4710841",
    "prefectureCode": "23",
    "prefectureNumber": 23,
    "prefecture": "愛知県",
    "city": "豊田市",
    "town": "深田町"
  },
  "4710842": {
    "zipcode": "4710842",
    "prefectureCode": "23",
    "prefectureNumber": 23,
    "prefecture": "愛知県",
    "city": "豊田市",
    "town": "土橋町"
  },
  "4710843": {
    "zipcode": "4710843",
    "prefectureCode": "23",
    "prefectureNumber": 23,
    "prefecture": "愛知県",
    "city": "豊田市",
    "town": "清水町"
  },
  "4710844": {
    "zipcode": "4710844",
    "prefectureCode": "23",
    "prefectureNumber": 23,
    "prefecture": "愛知県",
    "city": "豊田市",
    "town": "聖心町"
  },
  "4710845": {
    "zipcode": "4710845",
    "prefectureCode": "23",
    "prefectureNumber": 23,
    "prefecture": "愛知県",
    "city": "豊田市",
    "town": "田中町"
  },
  "4710846": {
    "zipcode": "4710846",
    "prefectureCode": "23",
    "prefectureNumber": 23,
    "prefecture": "愛知県",
    "city": "豊田市",
    "town": "田代町"
  },
  "4710847": {
    "zipcode": "4710847",
    "prefectureCode": "23",
    "prefectureNumber": 23,
    "prefecture": "愛知県",
    "city": "豊田市",
    "town": "千足町"
  },
  "4710848": {
    "zipcode": "4710848",
    "prefectureCode": "23",
    "prefectureNumber": 23,
    "prefecture": "愛知県",
    "city": "豊田市",
    "town": "本地町"
  },
  "4710849": {
    "zipcode": "4710849",
    "prefectureCode": "23",
    "prefectureNumber": 23,
    "prefecture": "愛知県",
    "city": "豊田市",
    "town": "美山町"
  },
  "4710851": {
    "zipcode": "4710851",
    "prefectureCode": "23",
    "prefectureNumber": 23,
    "prefecture": "愛知県",
    "city": "豊田市",
    "town": "樹木町"
  },
  "4710852": {
    "zipcode": "4710852",
    "prefectureCode": "23",
    "prefectureNumber": 23,
    "prefecture": "愛知県",
    "city": "豊田市",
    "town": "御幸町"
  },
  "4710853": {
    "zipcode": "4710853",
    "prefectureCode": "23",
    "prefectureNumber": 23,
    "prefecture": "愛知県",
    "city": "豊田市",
    "town": "細谷町"
  },
  "4710854": {
    "zipcode": "4710854",
    "prefectureCode": "23",
    "prefectureNumber": 23,
    "prefecture": "愛知県",
    "city": "豊田市",
    "town": "元町"
  },
  "4710855": {
    "zipcode": "4710855",
    "prefectureCode": "23",
    "prefectureNumber": 23,
    "prefecture": "愛知県",
    "city": "豊田市",
    "town": "柿本町"
  },
  "4710856": {
    "zipcode": "4710856",
    "prefectureCode": "23",
    "prefectureNumber": 23,
    "prefecture": "愛知県",
    "city": "豊田市",
    "town": "衣ケ原"
  },
  "4710857": {
    "zipcode": "4710857",
    "prefectureCode": "23",
    "prefectureNumber": 23,
    "prefecture": "愛知県",
    "city": "豊田市",
    "town": "小川町"
  },
  "4710858": {
    "zipcode": "4710858",
    "prefectureCode": "23",
    "prefectureNumber": 23,
    "prefecture": "愛知県",
    "city": "豊田市",
    "town": "朝日ケ丘"
  },
  "4710861": {
    "zipcode": "4710861",
    "prefectureCode": "23",
    "prefectureNumber": 23,
    "prefecture": "愛知県",
    "city": "豊田市",
    "town": "八幡町"
  },
  "4710862": {
    "zipcode": "4710862",
    "prefectureCode": "23",
    "prefectureNumber": 23,
    "prefecture": "愛知県",
    "city": "豊田市",
    "town": "砂町"
  },
  "4710863": {
    "zipcode": "4710863",
    "prefectureCode": "23",
    "prefectureNumber": 23,
    "prefecture": "愛知県",
    "city": "豊田市",
    "town": "瑞穂町"
  },
  "4710864": {
    "zipcode": "4710864",
    "prefectureCode": "23",
    "prefectureNumber": 23,
    "prefecture": "愛知県",
    "city": "豊田市",
    "town": "広路町"
  },
  "4710865": {
    "zipcode": "4710865",
    "prefectureCode": "23",
    "prefectureNumber": 23,
    "prefecture": "愛知県",
    "city": "豊田市",
    "town": "松ケ枝町"
  },
  "4710866": {
    "zipcode": "4710866",
    "prefectureCode": "23",
    "prefectureNumber": 23,
    "prefecture": "愛知県",
    "city": "豊田市",
    "town": "上挙母"
  },
  "4710867": {
    "zipcode": "4710867",
    "prefectureCode": "23",
    "prefectureNumber": 23,
    "prefecture": "愛知県",
    "city": "豊田市",
    "town": "常盤町"
  },
  "4710868": {
    "zipcode": "4710868",
    "prefectureCode": "23",
    "prefectureNumber": 23,
    "prefecture": "愛知県",
    "city": "豊田市",
    "town": "神田町"
  },
  "4710869": {
    "zipcode": "4710869",
    "prefectureCode": "23",
    "prefectureNumber": 23,
    "prefecture": "愛知県",
    "city": "豊田市",
    "town": "十塚町"
  },
  "4710871": {
    "zipcode": "4710871",
    "prefectureCode": "23",
    "prefectureNumber": 23,
    "prefecture": "愛知県",
    "city": "豊田市",
    "town": "元宮町"
  },
  "4710872": {
    "zipcode": "4710872",
    "prefectureCode": "23",
    "prefectureNumber": 23,
    "prefecture": "愛知県",
    "city": "豊田市",
    "town": "竜宮町"
  },
  "4710873": {
    "zipcode": "4710873",
    "prefectureCode": "23",
    "prefectureNumber": 23,
    "prefecture": "愛知県",
    "city": "豊田市",
    "town": "秋葉町"
  },
  "4710874": {
    "zipcode": "4710874",
    "prefectureCode": "23",
    "prefectureNumber": 23,
    "prefecture": "愛知県",
    "city": "豊田市",
    "town": "前田町"
  },
  "4710875": {
    "zipcode": "4710875",
    "prefectureCode": "23",
    "prefectureNumber": 23,
    "prefecture": "愛知県",
    "city": "豊田市",
    "town": "下市場町"
  },
  "4710876": {
    "zipcode": "4710876",
    "prefectureCode": "23",
    "prefectureNumber": 23,
    "prefecture": "愛知県",
    "city": "豊田市",
    "town": "金谷町"
  },
  "4710877": {
    "zipcode": "4710877",
    "prefectureCode": "23",
    "prefectureNumber": 23,
    "prefecture": "愛知県",
    "city": "豊田市",
    "town": "錦町"
  },
  "4710878": {
    "zipcode": "4710878",
    "prefectureCode": "23",
    "prefectureNumber": 23,
    "prefecture": "愛知県",
    "city": "豊田市",
    "town": "下林町"
  },
  "4710879": {
    "zipcode": "4710879",
    "prefectureCode": "23",
    "prefectureNumber": 23,
    "prefecture": "愛知県",
    "city": "豊田市",
    "town": "長興寺"
  }
}
