{
  "4720000": {
    "zipcode": "4720000",
    "prefectureCode": "23",
    "prefectureNumber": 23,
    "prefecture": "愛知県",
    "city": "知立市",
    "town": "以下に掲載がない場合"
  },
  "4720001": {
    "zipcode": "4720001",
    "prefectureCode": "23",
    "prefectureNumber": 23,
    "prefecture": "愛知県",
    "city": "知立市",
    "town": "八橋町"
  },
  "4720002": {
    "zipcode": "4720002",
    "prefectureCode": "23",
    "prefectureNumber": 23,
    "prefecture": "愛知県",
    "city": "知立市",
    "town": "来迎寺町"
  },
  "4720003": {
    "zipcode": "4720003",
    "prefectureCode": "23",
    "prefectureNumber": 23,
    "prefecture": "愛知県",
    "city": "知立市",
    "town": "牛田"
  },
  "4720004": {
    "zipcode": "4720004",
    "prefectureCode": "23",
    "prefectureNumber": 23,
    "prefecture": "愛知県",
    "city": "知立市",
    "town": "南陽"
  },
  "4720005": {
    "zipcode": "4720005",
    "prefectureCode": "23",
    "prefectureNumber": 23,
    "prefecture": "愛知県",
    "city": "知立市",
    "town": "新池"
  },
  "4720006": {
    "zipcode": "4720006",
    "prefectureCode": "23",
    "prefectureNumber": 23,
    "prefecture": "愛知県",
    "city": "知立市",
    "town": "山町"
  },
  "4720007": {
    "zipcode": "4720007",
    "prefectureCode": "23",
    "prefectureNumber": 23,
    "prefecture": "愛知県",
    "city": "知立市",
    "town": "牛田町"
  },
  "4720011": {
    "zipcode": "4720011",
    "prefectureCode": "23",
    "prefectureNumber": 23,
    "prefecture": "愛知県",
    "city": "知立市",
    "town": "昭和"
  },
  "4720012": {
    "zipcode": "4720012",
    "prefectureCode": "23",
    "prefectureNumber": 23,
    "prefecture": "愛知県",
    "city": "知立市",
    "town": "八ツ田町"
  },
  "4720013": {
    "zipcode": "4720013",
    "prefectureCode": "23",
    "prefectureNumber": 23,
    "prefecture": "愛知県",
    "city": "知立市",
    "town": "谷田町"
  },
  "4720014": {
    "zipcode": "4720014",
    "prefectureCode": "23",
    "prefectureNumber": 23,
    "prefecture": "愛知県",
    "city": "知立市",
    "town": "谷田町西"
  },
  "4720015": {
    "zipcode": "4720015",
    "prefectureCode": "23",
    "prefectureNumber": 23,
    "prefecture": "愛知県",
    "city": "知立市",
    "town": "谷田町本林"
  },
  "4720016": {
    "zipcode": "4720016",
    "prefectureCode": "23",
    "prefectureNumber": 23,
    "prefecture": "愛知県",
    "city": "知立市",
    "town": "西中町"
  },
  "4720017": {
    "zipcode": "4720017",
    "prefectureCode": "23",
    "prefectureNumber": 23,
    "prefecture": "愛知県",
    "city": "知立市",
    "town": "新林町"
  },
  "4720021": {
    "zipcode": "4720021",
    "prefectureCode": "23",
    "prefectureNumber": 23,
    "prefecture": "愛知県",
    "city": "知立市",
    "town": "逢妻町"
  },
  "4720022": {
    "zipcode": "4720022",
    "prefectureCode": "23",
    "prefectureNumber": 23,
    "prefecture": "愛知県",
    "city": "知立市",
    "town": "山屋敷町"
  },
  "4720023": {
    "zipcode": "4720023",
    "prefectureCode": "23",
    "prefectureNumber": 23,
    "prefecture": "愛知県",
    "city": "知立市",
    "town": "西町"
  },
  "4720024": {
    "zipcode": "4720024",
    "prefectureCode": "23",
    "prefectureNumber": 23,
    "prefecture": "愛知県",
    "city": "知立市",
    "town": "宝町"
  },
  "4720025": {
    "zipcode": "4720025",
    "prefectureCode": "23",
    "prefectureNumber": 23,
    "prefecture": "愛知県",
    "city": "知立市",
    "town": "池端"
  },
  "4720026": {
    "zipcode": "4720026",
    "prefectureCode": "23",
    "prefectureNumber": 23,
    "prefecture": "愛知県",
    "city": "知立市",
    "town": "上重原町"
  },
  "4720027": {
    "zipcode": "4720027",
    "prefectureCode": "23",
    "prefectureNumber": 23,
    "prefecture": "愛知県",
    "city": "知立市",
    "town": "西丘町"
  },
  "4720031": {
    "zipcode": "4720031",
    "prefectureCode": "23",
    "prefectureNumber": 23,
    "prefecture": "愛知県",
    "city": "知立市",
    "town": "桜木町"
  },
  "4720032": {
    "zipcode": "4720032",
    "prefectureCode": "23",
    "prefectureNumber": 23,
    "prefecture": "愛知県",
    "city": "知立市",
    "town": "中山町"
  },
  "4720033": {
    "zipcode": "4720033",
    "prefectureCode": "23",
    "prefectureNumber": 23,
    "prefecture": "愛知県",
    "city": "知立市",
    "town": "中町"
  },
  "4720034": {
    "zipcode": "4720034",
    "prefectureCode": "23",
    "prefectureNumber": 23,
    "prefecture": "愛知県",
    "city": "知立市",
    "town": "弘栄"
  },
  "4720035": {
    "zipcode": "4720035",
    "prefectureCode": "23",
    "prefectureNumber": 23,
    "prefecture": "愛知県",
    "city": "知立市",
    "town": "長田"
  },
  "4720036": {
    "zipcode": "4720036",
    "prefectureCode": "23",
    "prefectureNumber": 23,
    "prefecture": "愛知県",
    "city": "知立市",
    "town": "堀切"
  },
  "4720037": {
    "zipcode": "4720037",
    "prefectureCode": "23",
    "prefectureNumber": 23,
    "prefecture": "愛知県",
    "city": "知立市",
    "town": "栄"
  },
  "4720038": {
    "zipcode": "4720038",
    "prefectureCode": "23",
    "prefectureNumber": 23,
    "prefecture": "愛知県",
    "city": "知立市",
    "town": "本町"
  },
  "4720041": {
    "zipcode": "4720041",
    "prefectureCode": "23",
    "prefectureNumber": 23,
    "prefecture": "愛知県",
    "city": "知立市",
    "town": "新地町"
  },
  "4720042": {
    "zipcode": "4720042",
    "prefectureCode": "23",
    "prefectureNumber": 23,
    "prefecture": "愛知県",
    "city": "知立市",
    "town": "内幸町"
  },
  "4720043": {
    "zipcode": "4720043",
    "prefectureCode": "23",
    "prefectureNumber": 23,
    "prefecture": "愛知県",
    "city": "知立市",
    "town": "東栄"
  },
  "4720044": {
    "zipcode": "4720044",
    "prefectureCode": "23",
    "prefectureNumber": 23,
    "prefecture": "愛知県",
    "city": "知立市",
    "town": "広見"
  },
  "4720045": {
    "zipcode": "4720045",
    "prefectureCode": "23",
    "prefectureNumber": 23,
    "prefecture": "愛知県",
    "city": "知立市",
    "town": "長篠町"
  },
  "4720046": {
    "zipcode": "4720046",
    "prefectureCode": "23",
    "prefectureNumber": 23,
    "prefecture": "愛知県",
    "city": "知立市",
    "town": "弘法町"
  },
  "4720047": {
    "zipcode": "4720047",
    "prefectureCode": "23",
    "prefectureNumber": 23,
    "prefecture": "愛知県",
    "city": "知立市",
    "town": "新富"
  },
  "4720051": {
    "zipcode": "4720051",
    "prefectureCode": "23",
    "prefectureNumber": 23,
    "prefecture": "愛知県",
    "city": "知立市",
    "town": "東長篠"
  },
  "4720052": {
    "zipcode": "4720052",
    "prefectureCode": "23",
    "prefectureNumber": 23,
    "prefecture": "愛知県",
    "city": "知立市",
    "town": "弘法"
  },
  "4720053": {
    "zipcode": "4720053",
    "prefectureCode": "23",
    "prefectureNumber": 23,
    "prefecture": "愛知県",
    "city": "知立市",
    "town": "南新地"
  },
  "4720054": {
    "zipcode": "4720054",
    "prefectureCode": "23",
    "prefectureNumber": 23,
    "prefecture": "愛知県",
    "city": "知立市",
    "town": "東上重原"
  },
  "4720055": {
    "zipcode": "4720055",
    "prefectureCode": "23",
    "prefectureNumber": 23,
    "prefecture": "愛知県",
    "city": "知立市",
    "town": "鳥居"
  },
  "4720056": {
    "zipcode": "4720056",
    "prefectureCode": "23",
    "prefectureNumber": 23,
    "prefecture": "愛知県",
    "city": "知立市",
    "town": "宝"
  },
  "4720057": {
    "zipcode": "4720057",
    "prefectureCode": "23",
    "prefectureNumber": 23,
    "prefecture": "愛知県",
    "city": "知立市",
    "town": "西"
  },
  "4720058": {
    "zipcode": "4720058",
    "prefectureCode": "23",
    "prefectureNumber": 23,
    "prefecture": "愛知県",
    "city": "知立市",
    "town": "上重原"
  }
}
