{
  "4730901": {
    "zipcode": "4730901",
    "prefectureCode": "23",
    "prefectureNumber": 23,
    "prefecture": "愛知県",
    "city": "豊田市",
    "town": "御幸本町"
  },
  "4730902": {
    "zipcode": "4730902",
    "prefectureCode": "23",
    "prefectureNumber": 23,
    "prefecture": "愛知県",
    "city": "豊田市",
    "town": "大林町"
  },
  "4730903": {
    "zipcode": "4730903",
    "prefectureCode": "23",
    "prefectureNumber": 23,
    "prefecture": "愛知県",
    "city": "豊田市",
    "town": "西田町"
  },
  "4730904": {
    "zipcode": "4730904",
    "prefectureCode": "23",
    "prefectureNumber": 23,
    "prefecture": "愛知県",
    "city": "豊田市",
    "town": "中町"
  },
  "4730905": {
    "zipcode": "4730905",
    "prefectureCode": "23",
    "prefectureNumber": 23,
    "prefecture": "愛知県",
    "city": "豊田市",
    "town": "住吉町"
  },
  "4730906": {
    "zipcode": "4730906",
    "prefectureCode": "23",
    "prefectureNumber": 23,
    "prefecture": "愛知県",
    "city": "豊田市",
    "town": "竹町"
  },
  "4730907": {
    "zipcode": "4730907",
    "prefectureCode": "23",
    "prefectureNumber": 23,
    "prefecture": "愛知県",
    "city": "豊田市",
    "town": "竜神町"
  },
  "4730908": {
    "zipcode": "4730908",
    "prefectureCode": "23",
    "prefectureNumber": 23,
    "prefecture": "愛知県",
    "city": "豊田市",
    "town": "宝町"
  },
  "4730911": {
    "zipcode": "4730911",
    "prefectureCode": "23",
    "prefectureNumber": 23,
    "prefecture": "愛知県",
    "city": "豊田市",
    "town": "本町"
  },
  "4730912": {
    "zipcode": "4730912",
    "prefectureCode": "23",
    "prefectureNumber": 23,
    "prefecture": "愛知県",
    "city": "豊田市",
    "town": "広田町"
  },
  "4730913": {
    "zipcode": "4730913",
    "prefectureCode": "23",
    "prefectureNumber": 23,
    "prefecture": "愛知県",
    "city": "豊田市",
    "town": "竹元町"
  },
  "4730914": {
    "zipcode": "4730914",
    "prefectureCode": "23",
    "prefectureNumber": 23,
    "prefecture": "愛知県",
    "city": "豊田市",
    "town": "若林東町"
  },
  "4730915": {
    "zipcode": "4730915",
    "prefectureCode": "23",
    "prefectureNumber": 23,
    "prefecture": "愛知県",
    "city": "豊田市",
    "town": "若林東町中外根"
  },
  "4730916": {
    "zipcode": "4730916",
    "prefectureCode": "23",
    "prefectureNumber": 23,
    "prefecture": "愛知県",
    "city": "豊田市",
    "town": "吉原町"
  },
  "4730917": {
    "zipcode": "4730917",
    "prefectureCode": "23",
    "prefectureNumber": 23,
    "prefecture": "愛知県",
    "city": "豊田市",
    "town": "若林西町"
  },
  "4730918": {
    "zipcode": "4730918",
    "prefectureCode": "23",
    "prefectureNumber": 23,
    "prefecture": "愛知県",
    "city": "豊田市",
    "town": "高美町"
  },
  "4730921": {
    "zipcode": "4730921",
    "prefectureCode": "23",
    "prefectureNumber": 23,
    "prefecture": "愛知県",
    "city": "豊田市",
    "town": "高丘新町"
  },
  "4730922": {
    "zipcode": "4730922",
    "prefectureCode": "23",
    "prefectureNumber": 23,
    "prefecture": "愛知県",
    "city": "豊田市",
    "town": "高岡本町"
  },
  "4730923": {
    "zipcode": "4730923",
    "prefectureCode": "23",
    "prefectureNumber": 23,
    "prefecture": "愛知県",
    "city": "豊田市",
    "town": "中根町"
  },
  "4730924": {
    "zipcode": "4730924",
    "prefectureCode": "23",
    "prefectureNumber": 23,
    "prefecture": "愛知県",
    "city": "豊田市",
    "town": "花園町"
  },
  "4730925": {
    "zipcode": "4730925",
    "prefectureCode": "23",
    "prefectureNumber": 23,
    "prefecture": "愛知県",
    "city": "豊田市",
    "town": "駒場町"
  },
  "4730926": {
    "zipcode": "4730926",
    "prefectureCode": "23",
    "prefectureNumber": 23,
    "prefecture": "愛知県",
    "city": "豊田市",
    "town": "駒新町"
  },
  "4730927": {
    "zipcode": "4730927",
    "prefectureCode": "23",
    "prefectureNumber": 23,
    "prefecture": "愛知県",
    "city": "豊田市",
    "town": "中田町"
  },
  "4730928": {
    "zipcode": "4730928",
    "prefectureCode": "23",
    "prefectureNumber": 23,
    "prefecture": "愛知県",
    "city": "豊田市",
    "town": "生駒町"
  },
  "4730931": {
    "zipcode": "4730931",
    "prefectureCode": "23",
    "prefectureNumber": 23,
    "prefecture": "愛知県",
    "city": "豊田市",
    "town": "上丘町"
  },
  "4730932": {
    "zipcode": "4730932",
    "prefectureCode": "23",
    "prefectureNumber": 23,
    "prefecture": "愛知県",
    "city": "豊田市",
    "town": "堤町"
  },
  "4730933": {
    "zipcode": "4730933",
    "prefectureCode": "23",
    "prefectureNumber": 23,
    "prefecture": "愛知県",
    "city": "豊田市",
    "town": "高岡町"
  },
  "4730934": {
    "zipcode": "4730934",
    "prefectureCode": "23",
    "prefectureNumber": 23,
    "prefecture": "愛知県",
    "city": "豊田市",
    "town": "前林町"
  },
  "4730935": {
    "zipcode": "4730935",
    "prefectureCode": "23",
    "prefectureNumber": 23,
    "prefecture": "愛知県",
    "city": "豊田市",
    "town": "大島町"
  },
  "4730936": {
    "zipcode": "4730936",
    "prefectureCode": "23",
    "prefectureNumber": 23,
    "prefecture": "愛知県",
    "city": "豊田市",
    "town": "西岡町"
  },
  "4730937": {
    "zipcode": "4730937",
    "prefectureCode": "23",
    "prefectureNumber": 23,
    "prefecture": "愛知県",
    "city": "豊田市",
    "town": "西岡町星ケ丘"
  },
  "4730938": {
    "zipcode": "4730938",
    "prefectureCode": "23",
    "prefectureNumber": 23,
    "prefecture": "愛知県",
    "city": "豊田市",
    "town": "本田町"
  },
  "4730939": {
    "zipcode": "4730939",
    "prefectureCode": "23",
    "prefectureNumber": 23,
    "prefecture": "愛知県",
    "city": "豊田市",
    "town": "堤本町"
  }
}
