{
  "4740000": {
    "zipcode": "4740000",
    "prefectureCode": "23",
    "prefectureNumber": 23,
    "prefecture": "愛知県",
    "city": "大府市",
    "town": "以下に掲載がない場合"
  },
  "4740001": {
    "zipcode": "4740001",
    "prefectureCode": "23",
    "prefectureNumber": 23,
    "prefecture": "愛知県",
    "city": "大府市",
    "town": "北崎町"
  },
  "4740002": {
    "zipcode": "4740002",
    "prefectureCode": "23",
    "prefectureNumber": 23,
    "prefecture": "愛知県",
    "city": "大府市",
    "town": "北崎町（丁目）"
  },
  "4740003": {
    "zipcode": "4740003",
    "prefectureCode": "23",
    "prefectureNumber": 23,
    "prefecture": "愛知県",
    "city": "大府市",
    "town": "神田町"
  },
  "4740011": {
    "zipcode": "4740011",
    "prefectureCode": "23",
    "prefectureNumber": 23,
    "prefecture": "愛知県",
    "city": "大府市",
    "town": "横根町"
  },
  "4740021": {
    "zipcode": "4740021",
    "prefectureCode": "23",
    "prefectureNumber": 23,
    "prefecture": "愛知県",
    "city": "大府市",
    "town": "長根町"
  },
  "4740022": {
    "zipcode": "4740022",
    "prefectureCode": "23",
    "prefectureNumber": 23,
    "prefecture": "愛知県",
    "city": "大府市",
    "town": "若草町"
  },
  "4740023": {
    "zipcode": "4740023",
    "prefectureCode": "23",
    "prefectureNumber": 23,
    "prefecture": "愛知県",
    "city": "大府市",
    "town": "大東町"
  },
  "4740024": {
    "zipcode": "4740024",
    "prefectureCode": "23",
    "prefectureNumber": 23,
    "prefecture": "愛知県",
    "city": "大府市",
    "town": "朝日町"
  },
  "4740025": {
    "zipcode": "4740025",
    "prefectureCode": "23",
    "prefectureNumber": 23,
    "prefecture": "愛知県",
    "city": "大府市",
    "town": "中央町"
  },
  "4740026": {
    "zipcode": "4740026",
    "prefectureCode": "23",
    "prefectureNumber": 23,
    "prefecture": "愛知県",
    "city": "大府市",
    "town": "桃山町"
  },
  "4740027": {
    "zipcode": "4740027",
    "prefectureCode": "23",
    "prefectureNumber": 23,
    "prefecture": "愛知県",
    "city": "大府市",
    "town": "追分町"
  },
  "4740031": {
    "zipcode": "4740031",
    "prefectureCode": "23",
    "prefectureNumber": 23,
    "prefecture": "愛知県",
    "city": "大府市",
    "town": "森岡町（その他）"
  },
  "4740035": {
    "zipcode": "4740035",
    "prefectureCode": "23",
    "prefectureNumber": 23,
    "prefecture": "愛知県",
    "city": "大府市",
    "town": "江端町"
  },
  "4740036": {
    "zipcode": "4740036",
    "prefectureCode": "23",
    "prefectureNumber": 23,
    "prefecture": "愛知県",
    "city": "大府市",
    "town": "月見町"
  },
  "4740037": {
    "zipcode": "4740037",
    "prefectureCode": "23",
    "prefectureNumber": 23,
    "prefecture": "愛知県",
    "city": "大府市",
    "town": "半月町"
  },
  "4740038": {
    "zipcode": "4740038",
    "prefectureCode": "23",
    "prefectureNumber": 23,
    "prefecture": "愛知県",
    "city": "大府市",
    "town": "森岡町（丁目）"
  },
  "4740041": {
    "zipcode": "4740041",
    "prefectureCode": "23",
    "prefectureNumber": 23,
    "prefecture": "愛知県",
    "city": "大府市",
    "town": "吉田町（その他）"
  },
  "4740042": {
    "zipcode": "4740042",
    "prefectureCode": "23",
    "prefectureNumber": 23,
    "prefecture": "愛知県",
    "city": "大府市",
    "town": "高丘町"
  },
  "4740043": {
    "zipcode": "4740043",
    "prefectureCode": "23",
    "prefectureNumber": 23,
    "prefecture": "愛知県",
    "city": "大府市",
    "town": "米田町"
  },
  "4740044": {
    "zipcode": "4740044",
    "prefectureCode": "23",
    "prefectureNumber": 23,
    "prefecture": "愛知県",
    "city": "大府市",
    "town": "桜木町"
  },
  "4740045": {
    "zipcode": "4740045",
    "prefectureCode": "23",
    "prefectureNumber": 23,
    "prefecture": "愛知県",
    "city": "大府市",
    "town": "馬池町"
  },
  "4740046": {
    "zipcode": "4740046",
    "prefectureCode": "23",
    "prefectureNumber": 23,
    "prefecture": "愛知県",
    "city": "大府市",
    "town": "吉川町"
  },
  "4740047": {
    "zipcode": "4740047",
    "prefectureCode": "23",
    "prefectureNumber": 23,
    "prefecture": "愛知県",
    "city": "大府市",
    "town": "宮内町"
  },
  "4740048": {
    "zipcode": "4740048",
    "prefectureCode": "23",
    "prefectureNumber": 23,
    "prefecture": "愛知県",
    "city": "大府市",
    "town": "吉田町（１〜６丁目）"
  },
  "4740051": {
    "zipcode": "4740051",
    "prefectureCode": "23",
    "prefectureNumber": 23,
    "prefecture": "愛知県",
    "city": "大府市",
    "town": "大府町"
  },
  "4740052": {
    "zipcode": "4740052",
    "prefectureCode": "23",
    "prefectureNumber": 23,
    "prefecture": "愛知県",
    "city": "大府市",
    "town": "長草町"
  },
  "4740053": {
    "zipcode": "4740053",
    "prefectureCode": "23",
    "prefectureNumber": 23,
    "prefecture": "愛知県",
    "city": "大府市",
    "town": "柊山町"
  },
  "4740055": {
    "zipcode": "4740055",
    "prefectureCode": "23",
    "prefectureNumber": 23,
    "prefecture": "愛知県",
    "city": "大府市",
    "town": "一屋町"
  },
  "4740056": {
    "zipcode": "4740056",
    "prefectureCode": "23",
    "prefectureNumber": 23,
    "prefecture": "愛知県",
    "city": "大府市",
    "town": "明成町"
  },
  "4740057": {
    "zipcode": "4740057",
    "prefectureCode": "23",
    "prefectureNumber": 23,
    "prefecture": "愛知県",
    "city": "大府市",
    "town": "共和町（キョウワマチ）"
  },
  "4740061": {
    "zipcode": "4740061",
    "prefectureCode": "23",
    "prefectureNumber": 23,
    "prefecture": "愛知県",
    "city": "大府市",
    "town": "共和町（丁目）"
  },
  "4740062": {
    "zipcode": "4740062",
    "prefectureCode": "23",
    "prefectureNumber": 23,
    "prefecture": "愛知県",
    "city": "大府市",
    "town": "共西町"
  },
  "4740071": {
    "zipcode": "4740071",
    "prefectureCode": "23",
    "prefectureNumber": 23,
    "prefecture": "愛知県",
    "city": "大府市",
    "town": "梶田町"
  },
  "4740072": {
    "zipcode": "4740072",
    "prefectureCode": "23",
    "prefectureNumber": 23,
    "prefecture": "愛知県",
    "city": "大府市",
    "town": "北山町"
  },
  "4740073": {
    "zipcode": "4740073",
    "prefectureCode": "23",
    "prefectureNumber": 23,
    "prefecture": "愛知県",
    "city": "大府市",
    "town": "東新町"
  },
  "4740074": {
    "zipcode": "4740074",
    "prefectureCode": "23",
    "prefectureNumber": 23,
    "prefecture": "愛知県",
    "city": "大府市",
    "town": "共栄町"
  }
}
