{
  "4750000": {
    "zipcode": "4750000",
    "prefectureCode": "23",
    "prefectureNumber": 23,
    "prefecture": "愛知県",
    "city": "半田市",
    "town": "以下に掲載がない場合"
  },
  "4750001": {
    "zipcode": "4750001",
    "prefectureCode": "23",
    "prefectureNumber": 23,
    "prefecture": "愛知県",
    "city": "半田市",
    "town": "石塚町"
  },
  "4750002": {
    "zipcode": "4750002",
    "prefectureCode": "23",
    "prefectureNumber": 23,
    "prefecture": "愛知県",
    "city": "半田市",
    "town": "緑ケ丘"
  },
  "4750003": {
    "zipcode": "4750003",
    "prefectureCode": "23",
    "prefectureNumber": 23,
    "prefecture": "愛知県",
    "city": "半田市",
    "town": "東大矢知町"
  },
  "4750004": {
    "zipcode": "4750004",
    "prefectureCode": "23",
    "prefectureNumber": 23,
    "prefecture": "愛知県",
    "city": "半田市",
    "town": "上池町"
  },
  "4750005": {
    "zipcode": "4750005",
    "prefectureCode": "23",
    "prefectureNumber": 23,
    "prefecture": "愛知県",
    "city": "半田市",
    "town": "横川町"
  },
  "4750006": {
    "zipcode": "4750006",
    "prefectureCode": "23",
    "prefectureNumber": 23,
    "prefecture": "愛知県",
    "city": "半田市",
    "town": "南大矢知町"
  },
  "4750007": {
    "zipcode": "4750007",
    "prefectureCode": "23",
    "prefectureNumber": 23,
    "prefecture": "愛知県",
    "city": "半田市",
    "town": "西大矢知町"
  },
  "4750008": {
    "zipcode": "4750008",
    "prefectureCode": "23",
    "prefectureNumber": 23,
    "prefecture": "愛知県",
    "city": "半田市",
    "town": "北大矢知町"
  },
  "4750009": {
    "zipcode": "4750009",
    "prefectureCode": "23",
    "prefectureNumber": 23,
    "prefecture": "愛知県",
    "city": "半田市",
    "town": "上定光町"
  },
  "4750011": {
    "zipcode": "4750011",
    "prefectureCode": "23",
    "prefectureNumber": 23,
    "prefecture": "愛知県",
    "city": "半田市",
    "town": "稲穂町"
  },
  "4750012": {
    "zipcode": "4750012",
    "prefectureCode": "23",
    "prefectureNumber": 23,
    "prefecture": "愛知県",
    "city": "半田市",
    "town": "東生見町"
  },
  "4750013": {
    "zipcode": "4750013",
    "prefectureCode": "23",
    "prefectureNumber": 23,
    "prefecture": "愛知県",
    "city": "半田市",
    "town": "平地馬場町"
  },
  "4750014": {
    "zipcode": "4750014",
    "prefectureCode": "23",
    "prefectureNumber": 23,
    "prefecture": "愛知県",
    "city": "半田市",
    "town": "一本木町"
  },
  "4750015": {
    "zipcode": "4750015",
    "prefectureCode": "23",
    "prefectureNumber": 23,
    "prefecture": "愛知県",
    "city": "半田市",
    "town": "大高町"
  },
  "4750016": {
    "zipcode": "4750016",
    "prefectureCode": "23",
    "prefectureNumber": 23,
    "prefecture": "愛知県",
    "city": "半田市",
    "town": "西生見町"
  },
  "4750017": {
    "zipcode": "4750017",
    "prefectureCode": "23",
    "prefectureNumber": 23,
    "prefecture": "愛知県",
    "city": "半田市",
    "town": "有脇町"
  },
  "4750018": {
    "zipcode": "4750018",
    "prefectureCode": "23",
    "prefectureNumber": 23,
    "prefecture": "愛知県",
    "city": "半田市",
    "town": "中生見町"
  },
  "4750019": {
    "zipcode": "4750019",
    "prefectureCode": "23",
    "prefectureNumber": 23,
    "prefecture": "愛知県",
    "city": "半田市",
    "town": "のぞみが丘"
  },
  "4750021": {
    "zipcode": "4750021",
    "prefectureCode": "23",
    "prefectureNumber": 23,
    "prefecture": "愛知県",
    "city": "半田市",
    "town": "州の崎町"
  },
  "4750022": {
    "zipcode": "4750022",
    "prefectureCode": "23",
    "prefectureNumber": 23,
    "prefecture": "愛知県",
    "city": "半田市",
    "town": "亀崎月見町"
  },
  "4750023": {
    "zipcode": "4750023",
    "prefectureCode": "23",
    "prefectureNumber": 23,
    "prefecture": "愛知県",
    "city": "半田市",
    "town": "亀崎町"
  },
  "4750024": {
    "zipcode": "4750024",
    "prefectureCode": "23",
    "prefectureNumber": 23,
    "prefecture": "愛知県",
    "city": "半田市",
    "town": "亀崎高根町"
  },
  "4750025": {
    "zipcode": "4750025",
    "prefectureCode": "23",
    "prefectureNumber": 23,
    "prefecture": "愛知県",
    "city": "半田市",
    "town": "亀崎大洞町"
  },
  "4750026": {
    "zipcode": "4750026",
    "prefectureCode": "23",
    "prefectureNumber": 23,
    "prefecture": "愛知県",
    "city": "半田市",
    "town": "亀崎新田町"
  },
  "4750027": {
    "zipcode": "4750027",
    "prefectureCode": "23",
    "prefectureNumber": 23,
    "prefecture": "愛知県",
    "city": "半田市",
    "town": "亀崎北浦町"
  },
  "4750028": {
    "zipcode": "4750028",
    "prefectureCode": "23",
    "prefectureNumber": 23,
    "prefecture": "愛知県",
    "city": "半田市",
    "town": "亀崎相生町"
  },
  "4750029": {
    "zipcode": "4750029",
    "prefectureCode": "23",
    "prefectureNumber": 23,
    "prefecture": "愛知県",
    "city": "半田市",
    "town": "亀崎常盤町"
  },
  "4750031": {
    "zipcode": "4750031",
    "prefectureCode": "23",
    "prefectureNumber": 23,
    "prefecture": "愛知県",
    "city": "半田市",
    "town": "阿原町"
  },
  "4750032": {
    "zipcode": "4750032",
    "prefectureCode": "23",
    "prefectureNumber": 23,
    "prefecture": "愛知県",
    "city": "半田市",
    "town": "潮干町"
  },
  "4750033": {
    "zipcode": "4750033",
    "prefectureCode": "23",
    "prefectureNumber": 23,
    "prefecture": "愛知県",
    "city": "半田市",
    "town": "日東町"
  },
  "4750034": {
    "zipcode": "4750034",
    "prefectureCode": "23",
    "prefectureNumber": 23,
    "prefecture": "愛知県",
    "city": "半田市",
    "town": "東億田町"
  },
  "4750035": {
    "zipcode": "4750035",
    "prefectureCode": "23",
    "prefectureNumber": 23,
    "prefecture": "愛知県",
    "city": "半田市",
    "town": "中億田町"
  },
  "4750036": {
    "zipcode": "4750036",
    "prefectureCode": "23",
    "prefectureNumber": 23,
    "prefecture": "愛知県",
    "city": "半田市",
    "town": "高砂町"
  },
  "4750037": {
    "zipcode": "4750037",
    "prefectureCode": "23",
    "prefectureNumber": 23,
    "prefecture": "愛知県",
    "city": "半田市",
    "town": "中午町"
  },
  "4750038": {
    "zipcode": "4750038",
    "prefectureCode": "23",
    "prefectureNumber": 23,
    "prefecture": "愛知県",
    "city": "半田市",
    "town": "祢宜町"
  },
  "4750039": {
    "zipcode": "4750039",
    "prefectureCode": "23",
    "prefectureNumber": 23,
    "prefecture": "愛知県",
    "city": "半田市",
    "town": "新居町"
  },
  "4750041": {
    "zipcode": "4750041",
    "prefectureCode": "23",
    "prefectureNumber": 23,
    "prefecture": "愛知県",
    "city": "半田市",
    "town": "乙川太田町"
  },
  "4750042": {
    "zipcode": "4750042",
    "prefectureCode": "23",
    "prefectureNumber": 23,
    "prefecture": "愛知県",
    "city": "半田市",
    "town": "乙川向田町"
  },
  "4750043": {
    "zipcode": "4750043",
    "prefectureCode": "23",
    "prefectureNumber": 23,
    "prefecture": "愛知県",
    "city": "半田市",
    "town": "乙川浜側町"
  },
  "4750044": {
    "zipcode": "4750044",
    "prefectureCode": "23",
    "prefectureNumber": 23,
    "prefecture": "愛知県",
    "city": "半田市",
    "town": "乙川八幡町"
  },
  "4750045": {
    "zipcode": "4750045",
    "prefectureCode": "23",
    "prefectureNumber": 23,
    "prefecture": "愛知県",
    "city": "半田市",
    "town": "乙川殿町"
  },
  "4750046": {
    "zipcode": "4750046",
    "prefectureCode": "23",
    "prefectureNumber": 23,
    "prefecture": "愛知県",
    "city": "半田市",
    "town": "乙川市場町"
  },
  "4750047": {
    "zipcode": "4750047",
    "prefectureCode": "23",
    "prefectureNumber": 23,
    "prefecture": "愛知県",
    "city": "半田市",
    "town": "乙川北側町"
  },
  "4750048": {
    "zipcode": "4750048",
    "prefectureCode": "23",
    "prefectureNumber": 23,
    "prefecture": "愛知県",
    "city": "半田市",
    "town": "乙川稗田町"
  },
  "4750051": {
    "zipcode": "4750051",
    "prefectureCode": "23",
    "prefectureNumber": 23,
    "prefecture": "愛知県",
    "city": "半田市",
    "town": "乙川栄町"
  },
  "4750052": {
    "zipcode": "4750052",
    "prefectureCode": "23",
    "prefectureNumber": 23,
    "prefecture": "愛知県",
    "city": "半田市",
    "town": "乙川高良町"
  },
  "4750053": {
    "zipcode": "4750053",
    "prefectureCode": "23",
    "prefectureNumber": 23,
    "prefecture": "愛知県",
    "city": "半田市",
    "town": "乙川内山町"
  },
  "4750054": {
    "zipcode": "4750054",
    "prefectureCode": "23",
    "prefectureNumber": 23,
    "prefecture": "愛知県",
    "city": "半田市",
    "town": "乙川町"
  },
  "4750055": {
    "zipcode": "4750055",
    "prefectureCode": "23",
    "prefectureNumber": 23,
    "prefecture": "愛知県",
    "city": "半田市",
    "town": "北浜田町"
  },
  "4750056": {
    "zipcode": "4750056",
    "prefectureCode": "23",
    "prefectureNumber": 23,
    "prefecture": "愛知県",
    "city": "半田市",
    "town": "乙川一色町"
  },
  "4750057": {
    "zipcode": "4750057",
    "prefectureCode": "23",
    "prefectureNumber": 23,
    "prefecture": "愛知県",
    "city": "半田市",
    "town": "乙川新町"
  },
  "4750058": {
    "zipcode": "4750058",
    "prefectureCode": "23",
    "prefectureNumber": 23,
    "prefecture": "愛知県",
    "city": "半田市",
    "town": "乙川吉野町"
  },
  "4750061": {
    "zipcode": "4750061",
    "prefectureCode": "23",
    "prefectureNumber": 23,
    "prefecture": "愛知県",
    "city": "半田市",
    "town": "一ノ草町"
  },
  "4750062": {
    "zipcode": "4750062",
    "prefectureCode": "23",
    "prefectureNumber": 23,
    "prefecture": "愛知県",
    "city": "半田市",
    "town": "飯森町"
  },
  "4750063": {
    "zipcode": "4750063",
    "prefectureCode": "23",
    "prefectureNumber": 23,
    "prefecture": "愛知県",
    "city": "半田市",
    "town": "乙川若宮町"
  },
  "4750064": {
    "zipcode": "4750064",
    "prefectureCode": "23",
    "prefectureNumber": 23,
    "prefecture": "愛知県",
    "city": "半田市",
    "town": "乙川薬師町"
  },
  "4750065": {
    "zipcode": "4750065",
    "prefectureCode": "23",
    "prefectureNumber": 23,
    "prefecture": "愛知県",
    "city": "半田市",
    "town": "乙川深田町"
  },
  "4750066": {
    "zipcode": "4750066",
    "prefectureCode": "23",
    "prefectureNumber": 23,
    "prefecture": "愛知県",
    "city": "半田市",
    "town": "乙川源内林町"
  },
  "4750067": {
    "zipcode": "4750067",
    "prefectureCode": "23",
    "prefectureNumber": 23,
    "prefecture": "愛知県",
    "city": "半田市",
    "town": "乙川畑田町"
  },
  "4750068": {
    "zipcode": "4750068",
    "prefectureCode": "23",
    "prefectureNumber": 23,
    "prefecture": "愛知県",
    "city": "半田市",
    "town": "乙川西ノ宮町"
  },
  "4750071": {
    "zipcode": "4750071",
    "prefectureCode": "23",
    "prefectureNumber": 23,
    "prefecture": "愛知県",
    "city": "半田市",
    "town": "大伝根町"
  },
  "4750072": {
    "zipcode": "4750072",
    "prefectureCode": "23",
    "prefectureNumber": 23,
    "prefecture": "愛知県",
    "city": "半田市",
    "town": "七本木町"
  },
  "4750073": {
    "zipcode": "4750073",
    "prefectureCode": "23",
    "prefectureNumber": 23,
    "prefecture": "愛知県",
    "city": "半田市",
    "town": "美原町"
  },
  "4750074": {
    "zipcode": "4750074",
    "prefectureCode": "23",
    "prefectureNumber": 23,
    "prefecture": "愛知県",
    "city": "半田市",
    "town": "長根町"
  },
  "4750075": {
    "zipcode": "4750075",
    "prefectureCode": "23",
    "prefectureNumber": 23,
    "prefecture": "愛知県",
    "city": "半田市",
    "town": "苗代町"
  },
  "4750076": {
    "zipcode": "4750076",
    "prefectureCode": "23",
    "prefectureNumber": 23,
    "prefecture": "愛知県",
    "city": "半田市",
    "town": "横松上町"
  },
  "4750077": {
    "zipcode": "4750077",
    "prefectureCode": "23",
    "prefectureNumber": 23,
    "prefecture": "愛知県",
    "city": "半田市",
    "town": "兀山町"
  },
  "4750078": {
    "zipcode": "4750078",
    "prefectureCode": "23",
    "prefectureNumber": 23,
    "prefecture": "愛知県",
    "city": "半田市",
    "town": "新池町"
  },
  "4750081": {
    "zipcode": "4750081",
    "prefectureCode": "23",
    "prefectureNumber": 23,
    "prefecture": "愛知県",
    "city": "半田市",
    "town": "平地町"
  },
  "4750082": {
    "zipcode": "4750082",
    "prefectureCode": "23",
    "prefectureNumber": 23,
    "prefecture": "愛知県",
    "city": "半田市",
    "town": "前田町"
  },
  "4750083": {
    "zipcode": "4750083",
    "prefectureCode": "23",
    "prefectureNumber": 23,
    "prefecture": "愛知県",
    "city": "半田市",
    "town": "大松町"
  },
  "4750084": {
    "zipcode": "4750084",
    "prefectureCode": "23",
    "prefectureNumber": 23,
    "prefecture": "愛知県",
    "city": "半田市",
    "town": "向山町"
  },
  "4750085": {
    "zipcode": "4750085",
    "prefectureCode": "23",
    "prefectureNumber": 23,
    "prefecture": "愛知県",
    "city": "半田市",
    "town": "小神町"
  },
  "4750086": {
    "zipcode": "4750086",
    "prefectureCode": "23",
    "prefectureNumber": 23,
    "prefecture": "愛知県",
    "city": "半田市",
    "town": "庚申町"
  },
  "4750087": {
    "zipcode": "4750087",
    "prefectureCode": "23",
    "prefectureNumber": 23,
    "prefecture": "愛知県",
    "city": "半田市",
    "town": "大池町"
  },
  "4750088": {
    "zipcode": "4750088",
    "prefectureCode": "23",
    "prefectureNumber": 23,
    "prefecture": "愛知県",
    "city": "半田市",
    "town": "花田町"
  },
  "4750801": {
    "zipcode": "4750801",
    "prefectureCode": "23",
    "prefectureNumber": 23,
    "prefecture": "愛知県",
    "city": "半田市",
    "town": "相賀町"
  },
  "4750802": {
    "zipcode": "4750802",
    "prefectureCode": "23",
    "prefectureNumber": 23,
    "prefecture": "愛知県",
    "city": "半田市",
    "town": "西億田町"
  },
  "4750803": {
    "zipcode": "4750803",
    "prefectureCode": "23",
    "prefectureNumber": 23,
    "prefecture": "愛知県",
    "city": "半田市",
    "town": "乙川末広町"
  },
  "4750804": {
    "zipcode": "4750804",
    "prefectureCode": "23",
    "prefectureNumber": 23,
    "prefecture": "愛知県",
    "city": "半田市",
    "town": "上浜町"
  },
  "4750805": {
    "zipcode": "4750805",
    "prefectureCode": "23",
    "prefectureNumber": 23,
    "prefecture": "愛知県",
    "city": "半田市",
    "town": "浜田町"
  },
  "4750806": {
    "zipcode": "4750806",
    "prefectureCode": "23",
    "prefectureNumber": 23,
    "prefecture": "愛知県",
    "city": "半田市",
    "town": "古浜町"
  },
  "4750807": {
    "zipcode": "4750807",
    "prefectureCode": "23",
    "prefectureNumber": 23,
    "prefecture": "愛知県",
    "city": "半田市",
    "town": "八軒町"
  },
  "4750808": {
    "zipcode": "4750808",
    "prefectureCode": "23",
    "prefectureNumber": 23,
    "prefecture": "愛知県",
    "city": "半田市",
    "town": "川田町"
  },
  "4750813": {
    "zipcode": "4750813",
    "prefectureCode": "23",
    "prefectureNumber": 23,
    "prefecture": "愛知県",
    "city": "半田市",
    "town": "東浜町"
  },
  "4750814": {
    "zipcode": "4750814",
    "prefectureCode": "23",
    "prefectureNumber": 23,
    "prefecture": "愛知県",
    "city": "半田市",
    "town": "幸町"
  },
  "4750815": {
    "zipcode": "4750815",
    "prefectureCode": "23",
    "prefectureNumber": 23,
    "prefecture": "愛知県",
    "city": "半田市",
    "town": "新栄町"
  },
  "4750816": {
    "zipcode": "4750816",
    "prefectureCode": "23",
    "prefectureNumber": 23,
    "prefecture": "愛知県",
    "city": "半田市",
    "town": "源平町"
  },
  "4750817": {
    "zipcode": "4750817",
    "prefectureCode": "23",
    "prefectureNumber": 23,
    "prefecture": "愛知県",
    "city": "半田市",
    "town": "東洋町"
  },
  "4750819": {
    "zipcode": "4750819",
    "prefectureCode": "23",
    "prefectureNumber": 23,
    "prefecture": "愛知県",
    "city": "半田市",
    "town": "日ノ出町"
  },
  "4750821": {
    "zipcode": "4750821",
    "prefectureCode": "23",
    "prefectureNumber": 23,
    "prefecture": "愛知県",
    "city": "半田市",
    "town": "船入町"
  },
  "4750822": {
    "zipcode": "4750822",
    "prefectureCode": "23",
    "prefectureNumber": 23,
    "prefecture": "愛知県",
    "city": "半田市",
    "town": "浜町"
  },
  "4750823": {
    "zipcode": "4750823",
    "prefectureCode": "23",
    "prefectureNumber": 23,
    "prefecture": "愛知県",
    "city": "半田市",
    "town": "港町"
  },
  "4750824": {
    "zipcode": "4750824",
    "prefectureCode": "23",
    "prefectureNumber": 23,
    "prefecture": "愛知県",
    "city": "半田市",
    "town": "新浜町"
  },
  "4750825": {
    "zipcode": "4750825",
    "prefectureCode": "23",
    "prefectureNumber": 23,
    "prefecture": "愛知県",
    "city": "半田市",
    "town": "前潟町"
  },
  "4750826": {
    "zipcode": "4750826",
    "prefectureCode": "23",
    "prefectureNumber": 23,
    "prefecture": "愛知県",
    "city": "半田市",
    "town": "神明町"
  },
  "4750827": {
    "zipcode": "4750827",
    "prefectureCode": "23",
    "prefectureNumber": 23,
    "prefecture": "愛知県",
    "city": "半田市",
    "town": "港本町"
  },
  "4750828": {
    "zipcode": "4750828",
    "prefectureCode": "23",
    "prefectureNumber": 23,
    "prefecture": "愛知県",
    "city": "半田市",
    "town": "瑞穂町"
  },
  "4750831": {
    "zipcode": "4750831",
    "prefectureCode": "23",
    "prefectureNumber": 23,
    "prefecture": "愛知県",
    "city": "半田市",
    "town": "十一号地"
  },
  "4750832": {
    "zipcode": "4750832",
    "prefectureCode": "23",
    "prefectureNumber": 23,
    "prefecture": "愛知県",
    "city": "半田市",
    "town": "川崎町"
  },
  "4750833": {
    "zipcode": "4750833",
    "prefectureCode": "23",
    "prefectureNumber": 23,
    "prefecture": "愛知県",
    "city": "半田市",
    "town": "花園町"
  },
  "4750834": {
    "zipcode": "4750834",
    "prefectureCode": "23",
    "prefectureNumber": 23,
    "prefecture": "愛知県",
    "city": "半田市",
    "town": "冨士ケ丘"
  },
  "4750835": {
    "zipcode": "4750835",
    "prefectureCode": "23",
    "prefectureNumber": 23,
    "prefecture": "愛知県",
    "city": "半田市",
    "town": "稲荷町"
  },
  "4750836": {
    "zipcode": "4750836",
    "prefectureCode": "23",
    "prefectureNumber": 23,
    "prefecture": "愛知県",
    "city": "半田市",
    "town": "青山"
  },
  "4750837": {
    "zipcode": "4750837",
    "prefectureCode": "23",
    "prefectureNumber": 23,
    "prefecture": "愛知県",
    "city": "半田市",
    "town": "有楽町"
  },
  "4750838": {
    "zipcode": "4750838",
    "prefectureCode": "23",
    "prefectureNumber": 23,
    "prefecture": "愛知県",
    "city": "半田市",
    "town": "旭町"
  },
  "4750841": {
    "zipcode": "4750841",
    "prefectureCode": "23",
    "prefectureNumber": 23,
    "prefecture": "愛知県",
    "city": "半田市",
    "town": "大和町"
  },
  "4750842": {
    "zipcode": "4750842",
    "prefectureCode": "23",
    "prefectureNumber": 23,
    "prefecture": "愛知県",
    "city": "半田市",
    "town": "郷中町"
  },
  "4750843": {
    "zipcode": "4750843",
    "prefectureCode": "23",
    "prefectureNumber": 23,
    "prefecture": "愛知県",
    "city": "半田市",
    "town": "中島町"
  },
  "4750844": {
    "zipcode": "4750844",
    "prefectureCode": "23",
    "prefectureNumber": 23,
    "prefecture": "愛知県",
    "city": "半田市",
    "town": "寺町"
  },
  "4750845": {
    "zipcode": "4750845",
    "prefectureCode": "23",
    "prefectureNumber": 23,
    "prefecture": "愛知県",
    "city": "半田市",
    "town": "成岩東町"
  },
  "4750846": {
    "zipcode": "4750846",
    "prefectureCode": "23",
    "prefectureNumber": 23,
    "prefecture": "愛知県",
    "city": "半田市",
    "town": "栄町"
  },
  "4750847": {
    "zipcode": "4750847",
    "prefectureCode": "23",
    "prefectureNumber": 23,
    "prefecture": "愛知県",
    "city": "半田市",
    "town": "畑合町"
  },
  "4750848": {
    "zipcode": "4750848",
    "prefectureCode": "23",
    "prefectureNumber": 23,
    "prefecture": "愛知県",
    "city": "半田市",
    "town": "成岩本町"
  },
  "4750851": {
    "zipcode": "4750851",
    "prefectureCode": "23",
    "prefectureNumber": 23,
    "prefecture": "愛知県",
    "city": "半田市",
    "town": "堀崎町"
  },
  "4750852": {
    "zipcode": "4750852",
    "prefectureCode": "23",
    "prefectureNumber": 23,
    "prefecture": "愛知県",
    "city": "半田市",
    "town": "北末広町"
  },
  "4750853": {
    "zipcode": "4750853",
    "prefectureCode": "23",
    "prefectureNumber": 23,
    "prefecture": "愛知県",
    "city": "半田市",
    "town": "南末広町"
  },
  "4750854": {
    "zipcode": "4750854",
    "prefectureCode": "23",
    "prefectureNumber": 23,
    "prefecture": "愛知県",
    "city": "半田市",
    "town": "協和町"
  },
  "4750855": {
    "zipcode": "4750855",
    "prefectureCode": "23",
    "prefectureNumber": 23,
    "prefecture": "愛知県",
    "city": "半田市",
    "town": "中町"
  },
  "4750856": {
    "zipcode": "4750856",
    "prefectureCode": "23",
    "prefectureNumber": 23,
    "prefecture": "愛知県",
    "city": "半田市",
    "town": "更生町"
  },
  "4750857": {
    "zipcode": "4750857",
    "prefectureCode": "23",
    "prefectureNumber": 23,
    "prefecture": "愛知県",
    "city": "半田市",
    "town": "広小路町"
  },
  "4750858": {
    "zipcode": "4750858",
    "prefectureCode": "23",
    "prefectureNumber": 23,
    "prefecture": "愛知県",
    "city": "半田市",
    "town": "泉町"
  },
  "4750859": {
    "zipcode": "4750859",
    "prefectureCode": "23",
    "prefectureNumber": 23,
    "prefecture": "愛知県",
    "city": "半田市",
    "town": "天王町"
  },
  "4750861": {
    "zipcode": "4750861",
    "prefectureCode": "23",
    "prefectureNumber": 23,
    "prefecture": "愛知県",
    "city": "半田市",
    "town": "東新町"
  },
  "4750862": {
    "zipcode": "4750862",
    "prefectureCode": "23",
    "prefectureNumber": 23,
    "prefecture": "愛知県",
    "city": "半田市",
    "town": "住吉町"
  },
  "4750863": {
    "zipcode": "4750863",
    "prefectureCode": "23",
    "prefectureNumber": 23,
    "prefecture": "愛知県",
    "city": "半田市",
    "town": "前崎東町"
  },
  "4750864": {
    "zipcode": "4750864",
    "prefectureCode": "23",
    "prefectureNumber": 23,
    "prefecture": "愛知県",
    "city": "半田市",
    "town": "前崎西町"
  },
  "4750865": {
    "zipcode": "4750865",
    "prefectureCode": "23",
    "prefectureNumber": 23,
    "prefecture": "愛知県",
    "city": "半田市",
    "town": "清水西町"
  },
  "4750866": {
    "zipcode": "4750866",
    "prefectureCode": "23",
    "prefectureNumber": 23,
    "prefecture": "愛知県",
    "city": "半田市",
    "town": "清水北町"
  },
  "4750867": {
    "zipcode": "4750867",
    "prefectureCode": "23",
    "prefectureNumber": 23,
    "prefecture": "愛知県",
    "city": "半田市",
    "town": "榎下町"
  },
  "4750868": {
    "zipcode": "4750868",
    "prefectureCode": "23",
    "prefectureNumber": 23,
    "prefecture": "愛知県",
    "city": "半田市",
    "town": "西新町"
  },
  "4750869": {
    "zipcode": "4750869",
    "prefectureCode": "23",
    "prefectureNumber": 23,
    "prefecture": "愛知県",
    "city": "半田市",
    "town": "清水東町"
  },
  "4750871": {
    "zipcode": "4750871",
    "prefectureCode": "23",
    "prefectureNumber": 23,
    "prefecture": "愛知県",
    "city": "半田市",
    "town": "本町"
  },
  "4750872": {
    "zipcode": "4750872",
    "prefectureCode": "23",
    "prefectureNumber": 23,
    "prefecture": "愛知県",
    "city": "半田市",
    "town": "東雲町"
  },
  "4750873": {
    "zipcode": "4750873",
    "prefectureCode": "23",
    "prefectureNumber": 23,
    "prefecture": "愛知県",
    "city": "半田市",
    "town": "中村町"
  },
  "4750874": {
    "zipcode": "4750874",
    "prefectureCode": "23",
    "prefectureNumber": 23,
    "prefecture": "愛知県",
    "city": "半田市",
    "town": "銀座本町"
  },
  "4750875": {
    "zipcode": "4750875",
    "prefectureCode": "23",
    "prefectureNumber": 23,
    "prefecture": "愛知県",
    "city": "半田市",
    "town": "山崎町"
  },
  "4750876": {
    "zipcode": "4750876",
    "prefectureCode": "23",
    "prefectureNumber": 23,
    "prefecture": "愛知県",
    "city": "半田市",
    "town": "東天王町"
  },
  "4750877": {
    "zipcode": "4750877",
    "prefectureCode": "23",
    "prefectureNumber": 23,
    "prefecture": "愛知県",
    "city": "半田市",
    "town": "勘内町"
  },
  "4750878": {
    "zipcode": "4750878",
    "prefectureCode": "23",
    "prefectureNumber": 23,
    "prefecture": "愛知県",
    "city": "半田市",
    "town": "東本町"
  },
  "4750881": {
    "zipcode": "4750881",
    "prefectureCode": "23",
    "prefectureNumber": 23,
    "prefecture": "愛知県",
    "city": "半田市",
    "town": "荒古町"
  },
  "4750882": {
    "zipcode": "4750882",
    "prefectureCode": "23",
    "prefectureNumber": 23,
    "prefecture": "愛知県",
    "city": "半田市",
    "town": "南本町"
  },
  "4750883": {
    "zipcode": "4750883",
    "prefectureCode": "23",
    "prefectureNumber": 23,
    "prefecture": "愛知県",
    "city": "半田市",
    "town": "妙見町"
  },
  "4750884": {
    "zipcode": "4750884",
    "prefectureCode": "23",
    "prefectureNumber": 23,
    "prefecture": "愛知県",
    "city": "半田市",
    "town": "西端町"
  },
  "4750885": {
    "zipcode": "4750885",
    "prefectureCode": "23",
    "prefectureNumber": 23,
    "prefecture": "愛知県",
    "city": "半田市",
    "town": "山ノ神町"
  },
  "4750886": {
    "zipcode": "4750886",
    "prefectureCode": "23",
    "prefectureNumber": 23,
    "prefecture": "愛知県",
    "city": "半田市",
    "town": "新川町"
  },
  "4750887": {
    "zipcode": "4750887",
    "prefectureCode": "23",
    "prefectureNumber": 23,
    "prefecture": "愛知県",
    "city": "半田市",
    "town": "御幸町"
  },
  "4750901": {
    "zipcode": "4750901",
    "prefectureCode": "23",
    "prefectureNumber": 23,
    "prefecture": "愛知県",
    "city": "半田市",
    "town": "岩滑南浜町"
  },
  "4750902": {
    "zipcode": "4750902",
    "prefectureCode": "23",
    "prefectureNumber": 23,
    "prefecture": "愛知県",
    "city": "半田市",
    "town": "宮路町"
  },
  "4750903": {
    "zipcode": "4750903",
    "prefectureCode": "23",
    "prefectureNumber": 23,
    "prefecture": "愛知県",
    "city": "半田市",
    "town": "出口町"
  },
  "4750904": {
    "zipcode": "4750904",
    "prefectureCode": "23",
    "prefectureNumber": 23,
    "prefecture": "愛知県",
    "city": "半田市",
    "town": "大坪町"
  },
  "4750905": {
    "zipcode": "4750905",
    "prefectureCode": "23",
    "prefectureNumber": 23,
    "prefecture": "愛知県",
    "city": "半田市",
    "town": "岩滑東町"
  },
  "4750906": {
    "zipcode": "4750906",
    "prefectureCode": "23",
    "prefectureNumber": 23,
    "prefecture": "愛知県",
    "city": "半田市",
    "town": "岩滑北浜町"
  },
  "4750911": {
    "zipcode": "4750911",
    "prefectureCode": "23",
    "prefectureNumber": 23,
    "prefecture": "愛知県",
    "city": "半田市",
    "town": "星崎町"
  },
  "4750912": {
    "zipcode": "4750912",
    "prefectureCode": "23",
    "prefectureNumber": 23,
    "prefecture": "愛知県",
    "city": "半田市",
    "town": "白山町"
  },
  "4750914": {
    "zipcode": "4750914",
    "prefectureCode": "23",
    "prefectureNumber": 23,
    "prefecture": "愛知県",
    "city": "半田市",
    "town": "土井山町"
  },
  "4750915": {
    "zipcode": "4750915",
    "prefectureCode": "23",
    "prefectureNumber": 23,
    "prefecture": "愛知県",
    "city": "半田市",
    "town": "枝山町"
  },
  "4750916": {
    "zipcode": "4750916",
    "prefectureCode": "23",
    "prefectureNumber": 23,
    "prefecture": "愛知県",
    "city": "半田市",
    "town": "柊町"
  },
  "4750917": {
    "zipcode": "4750917",
    "prefectureCode": "23",
    "prefectureNumber": 23,
    "prefecture": "愛知県",
    "city": "半田市",
    "town": "清城町"
  },
  "4750918": {
    "zipcode": "4750918",
    "prefectureCode": "23",
    "prefectureNumber": 23,
    "prefecture": "愛知県",
    "city": "半田市",
    "town": "雁宿町"
  },
  "4750921": {
    "zipcode": "4750921",
    "prefectureCode": "23",
    "prefectureNumber": 23,
    "prefecture": "愛知県",
    "city": "半田市",
    "town": "天神町"
  },
  "4750922": {
    "zipcode": "4750922",
    "prefectureCode": "23",
    "prefectureNumber": 23,
    "prefecture": "愛知県",
    "city": "半田市",
    "town": "昭和町"
  },
  "4750923": {
    "zipcode": "4750923",
    "prefectureCode": "23",
    "prefectureNumber": 23,
    "prefecture": "愛知県",
    "city": "半田市",
    "town": "春日町"
  },
  "4750924": {
    "zipcode": "4750924",
    "prefectureCode": "23",
    "prefectureNumber": 23,
    "prefecture": "愛知県",
    "city": "半田市",
    "town": "東郷町"
  },
  "4750925": {
    "zipcode": "4750925",
    "prefectureCode": "23",
    "prefectureNumber": 23,
    "prefecture": "愛知県",
    "city": "半田市",
    "town": "宮本町"
  },
  "4750926": {
    "zipcode": "4750926",
    "prefectureCode": "23",
    "prefectureNumber": 23,
    "prefecture": "愛知県",
    "city": "半田市",
    "town": "南二ツ坂町"
  },
  "4750927": {
    "zipcode": "4750927",
    "prefectureCode": "23",
    "prefectureNumber": 23,
    "prefecture": "愛知県",
    "city": "半田市",
    "town": "北二ツ坂町"
  },
  "4750928": {
    "zipcode": "4750928",
    "prefectureCode": "23",
    "prefectureNumber": 23,
    "prefecture": "愛知県",
    "city": "半田市",
    "town": "桐ケ丘"
  },
  "4750929": {
    "zipcode": "4750929",
    "prefectureCode": "23",
    "prefectureNumber": 23,
    "prefecture": "愛知県",
    "city": "半田市",
    "town": "仲田町"
  },
  "4750931": {
    "zipcode": "4750931",
    "prefectureCode": "23",
    "prefectureNumber": 23,
    "prefecture": "愛知県",
    "city": "半田市",
    "town": "新宮町"
  },
  "4750932": {
    "zipcode": "4750932",
    "prefectureCode": "23",
    "prefectureNumber": 23,
    "prefecture": "愛知県",
    "city": "半田市",
    "town": "鴉根町"
  },
  "4750933": {
    "zipcode": "4750933",
    "prefectureCode": "23",
    "prefectureNumber": 23,
    "prefecture": "愛知県",
    "city": "半田市",
    "town": "新野町"
  },
  "4750934": {
    "zipcode": "4750934",
    "prefectureCode": "23",
    "prefectureNumber": 23,
    "prefecture": "愛知県",
    "city": "半田市",
    "town": "椎ノ木町"
  },
  "4750935": {
    "zipcode": "4750935",
    "prefectureCode": "23",
    "prefectureNumber": 23,
    "prefecture": "愛知県",
    "city": "半田市",
    "town": "大湯町"
  },
  "4750936": {
    "zipcode": "4750936",
    "prefectureCode": "23",
    "prefectureNumber": 23,
    "prefecture": "愛知県",
    "city": "半田市",
    "town": "板山町"
  },
  "4750937": {
    "zipcode": "4750937",
    "prefectureCode": "23",
    "prefectureNumber": 23,
    "prefecture": "愛知県",
    "city": "半田市",
    "town": "神田町"
  },
  "4750938": {
    "zipcode": "4750938",
    "prefectureCode": "23",
    "prefectureNumber": 23,
    "prefecture": "愛知県",
    "city": "半田市",
    "town": "君ケ橋町"
  },
  "4750939": {
    "zipcode": "4750939",
    "prefectureCode": "23",
    "prefectureNumber": 23,
    "prefecture": "愛知県",
    "city": "半田市",
    "town": "四方木町"
  },
  "4750941": {
    "zipcode": "4750941",
    "prefectureCode": "23",
    "prefectureNumber": 23,
    "prefecture": "愛知県",
    "city": "半田市",
    "town": "滑楚町"
  },
  "4750942": {
    "zipcode": "4750942",
    "prefectureCode": "23",
    "prefectureNumber": 23,
    "prefecture": "愛知県",
    "city": "半田市",
    "town": "松堀町"
  },
  "4750943": {
    "zipcode": "4750943",
    "prefectureCode": "23",
    "prefectureNumber": 23,
    "prefecture": "愛知県",
    "city": "半田市",
    "town": "高峯町"
  },
  "4750944": {
    "zipcode": "4750944",
    "prefectureCode": "23",
    "prefectureNumber": 23,
    "prefecture": "愛知県",
    "city": "半田市",
    "town": "神代町"
  },
  "4750945": {
    "zipcode": "4750945",
    "prefectureCode": "23",
    "prefectureNumber": 23,
    "prefecture": "愛知県",
    "city": "半田市",
    "town": "池田町"
  },
  "4750946": {
    "zipcode": "4750946",
    "prefectureCode": "23",
    "prefectureNumber": 23,
    "prefecture": "愛知県",
    "city": "半田市",
    "town": "横山町"
  },
  "4750947": {
    "zipcode": "4750947",
    "prefectureCode": "23",
    "prefectureNumber": 23,
    "prefecture": "愛知県",
    "city": "半田市",
    "town": "砂谷町"
  },
  "4750948": {
    "zipcode": "4750948",
    "prefectureCode": "23",
    "prefectureNumber": 23,
    "prefecture": "愛知県",
    "city": "半田市",
    "town": "田代町"
  },
  "4750951": {
    "zipcode": "4750951",
    "prefectureCode": "23",
    "prefectureNumber": 23,
    "prefecture": "愛知県",
    "city": "半田市",
    "town": "宝来町"
  },
  "4750952": {
    "zipcode": "4750952",
    "prefectureCode": "23",
    "prefectureNumber": 23,
    "prefecture": "愛知県",
    "city": "半田市",
    "town": "馬捨町"
  },
  "4750953": {
    "zipcode": "4750953",
    "prefectureCode": "23",
    "prefectureNumber": 23,
    "prefecture": "愛知県",
    "city": "半田市",
    "town": "金山町"
  },
  "4750954": {
    "zipcode": "4750954",
    "prefectureCode": "23",
    "prefectureNumber": 23,
    "prefecture": "愛知県",
    "city": "半田市",
    "town": "十三塚町"
  },
  "4750955": {
    "zipcode": "4750955",
    "prefectureCode": "23",
    "prefectureNumber": 23,
    "prefecture": "愛知県",
    "city": "半田市",
    "town": "行人町"
  },
  "4750956": {
    "zipcode": "4750956",
    "prefectureCode": "23",
    "prefectureNumber": 23,
    "prefecture": "愛知県",
    "city": "半田市",
    "town": "三ツ池町"
  },
  "4750957": {
    "zipcode": "4750957",
    "prefectureCode": "23",
    "prefectureNumber": 23,
    "prefecture": "愛知県",
    "city": "半田市",
    "town": "奥町"
  },
  "4750958": {
    "zipcode": "4750958",
    "prefectureCode": "23",
    "prefectureNumber": 23,
    "prefecture": "愛知県",
    "city": "半田市",
    "town": "鵜ノ池町"
  },
  "4750959": {
    "zipcode": "4750959",
    "prefectureCode": "23",
    "prefectureNumber": 23,
    "prefecture": "愛知県",
    "city": "半田市",
    "town": "桃山町"
  },
  "4750961": {
    "zipcode": "4750961",
    "prefectureCode": "23",
    "prefectureNumber": 23,
    "prefecture": "愛知県",
    "city": "半田市",
    "town": "岩滑中町"
  },
  "4750962": {
    "zipcode": "4750962",
    "prefectureCode": "23",
    "prefectureNumber": 23,
    "prefecture": "愛知県",
    "city": "半田市",
    "town": "岩滑高山町"
  },
  "4750963": {
    "zipcode": "4750963",
    "prefectureCode": "23",
    "prefectureNumber": 23,
    "prefecture": "愛知県",
    "city": "半田市",
    "town": "平和町"
  },
  "4750964": {
    "zipcode": "4750964",
    "prefectureCode": "23",
    "prefectureNumber": 23,
    "prefecture": "愛知県",
    "city": "半田市",
    "town": "平井町"
  },
  "4750965": {
    "zipcode": "4750965",
    "prefectureCode": "23",
    "prefectureNumber": 23,
    "prefecture": "愛知県",
    "city": "半田市",
    "town": "新生町"
  },
  "4750966": {
    "zipcode": "4750966",
    "prefectureCode": "23",
    "prefectureNumber": 23,
    "prefecture": "愛知県",
    "city": "半田市",
    "town": "岩滑西町"
  },
  "4750967": {
    "zipcode": "4750967",
    "prefectureCode": "23",
    "prefectureNumber": 23,
    "prefecture": "愛知県",
    "city": "半田市",
    "town": "欠ケ下町"
  },
  "4750968": {
    "zipcode": "4750968",
    "prefectureCode": "23",
    "prefectureNumber": 23,
    "prefecture": "愛知県",
    "city": "半田市",
    "town": "丁田町"
  },
  "4750971": {
    "zipcode": "4750971",
    "prefectureCode": "23",
    "prefectureNumber": 23,
    "prefecture": "愛知県",
    "city": "半田市",
    "town": "深谷町"
  },
  "4750972": {
    "zipcode": "4750972",
    "prefectureCode": "23",
    "prefectureNumber": 23,
    "prefecture": "愛知県",
    "city": "半田市",
    "town": "北滑草町"
  },
  "4750973": {
    "zipcode": "4750973",
    "prefectureCode": "23",
    "prefectureNumber": 23,
    "prefecture": "愛知県",
    "city": "半田市",
    "town": "葭谷町"
  },
  "4750974": {
    "zipcode": "4750974",
    "prefectureCode": "23",
    "prefectureNumber": 23,
    "prefecture": "愛知県",
    "city": "半田市",
    "town": "山代町"
  },
  "4750975": {
    "zipcode": "4750975",
    "prefectureCode": "23",
    "prefectureNumber": 23,
    "prefecture": "愛知県",
    "city": "半田市",
    "town": "彦洲町"
  },
  "4750976": {
    "zipcode": "4750976",
    "prefectureCode": "23",
    "prefectureNumber": 23,
    "prefecture": "愛知県",
    "city": "半田市",
    "town": "黒石町"
  },
  "4750977": {
    "zipcode": "4750977",
    "prefectureCode": "23",
    "prefectureNumber": 23,
    "prefecture": "愛知県",
    "city": "半田市",
    "town": "吉田町"
  },
  "4750978": {
    "zipcode": "4750978",
    "prefectureCode": "23",
    "prefectureNumber": 23,
    "prefecture": "愛知県",
    "city": "半田市",
    "town": "福地町"
  }
}
