{
  "4760000": {
    "zipcode": "4760000",
    "prefectureCode": "23",
    "prefectureNumber": 23,
    "prefecture": "愛知県",
    "city": "東海市",
    "town": "以下に掲載がない場合"
  },
  "4760001": {
    "zipcode": "4760001",
    "prefectureCode": "23",
    "prefectureNumber": 23,
    "prefecture": "愛知県",
    "city": "東海市",
    "town": "南柴田町"
  },
  "4760002": {
    "zipcode": "4760002",
    "prefectureCode": "23",
    "prefectureNumber": 23,
    "prefecture": "愛知県",
    "city": "東海市",
    "town": "名和町"
  },
  "4760003": {
    "zipcode": "4760003",
    "prefectureCode": "23",
    "prefectureNumber": 23,
    "prefecture": "愛知県",
    "city": "東海市",
    "town": "荒尾町"
  },
  "4760004": {
    "zipcode": "4760004",
    "prefectureCode": "23",
    "prefectureNumber": 23,
    "prefecture": "愛知県",
    "city": "東海市",
    "town": "荒尾町水深"
  },
  "4760005": {
    "zipcode": "4760005",
    "prefectureCode": "23",
    "prefectureNumber": 23,
    "prefecture": "愛知県",
    "city": "東海市",
    "town": "新宝町"
  },
  "4760006": {
    "zipcode": "4760006",
    "prefectureCode": "23",
    "prefectureNumber": 23,
    "prefecture": "愛知県",
    "city": "東海市",
    "town": "浅山"
  },
  "4760011": {
    "zipcode": "4760011",
    "prefectureCode": "23",
    "prefectureNumber": 23,
    "prefecture": "愛知県",
    "city": "東海市",
    "town": "富木島町"
  },
  "4760012": {
    "zipcode": "4760012",
    "prefectureCode": "23",
    "prefectureNumber": 23,
    "prefecture": "愛知県",
    "city": "東海市",
    "town": "富木島町伏見"
  },
  "4760013": {
    "zipcode": "4760013",
    "prefectureCode": "23",
    "prefectureNumber": 23,
    "prefecture": "愛知県",
    "city": "東海市",
    "town": "中央町"
  },
  "4760014": {
    "zipcode": "4760014",
    "prefectureCode": "23",
    "prefectureNumber": 23,
    "prefecture": "愛知県",
    "city": "東海市",
    "town": "富貴ノ台"
  },
  "4760015": {
    "zipcode": "4760015",
    "prefectureCode": "23",
    "prefectureNumber": 23,
    "prefecture": "愛知県",
    "city": "東海市",
    "town": "東海町"
  }
}
