{
  "4790000": {
    "zipcode": "4790000",
    "prefectureCode": "23",
    "prefectureNumber": 23,
    "prefecture": "愛知県",
    "city": "常滑市",
    "town": "以下に掲載がない場合"
  },
  "4790001": {
    "zipcode": "4790001",
    "prefectureCode": "23",
    "prefectureNumber": 23,
    "prefecture": "愛知県",
    "city": "常滑市",
    "town": "矢田"
  },
  "4790002": {
    "zipcode": "4790002",
    "prefectureCode": "23",
    "prefectureNumber": 23,
    "prefecture": "愛知県",
    "city": "常滑市",
    "town": "久米"
  },
  "4790003": {
    "zipcode": "4790003",
    "prefectureCode": "23",
    "prefectureNumber": 23,
    "prefecture": "愛知県",
    "city": "常滑市",
    "town": "金山"
  },
  "4790004": {
    "zipcode": "4790004",
    "prefectureCode": "23",
    "prefectureNumber": 23,
    "prefecture": "愛知県",
    "city": "常滑市",
    "town": "青海町"
  },
  "4790005": {
    "zipcode": "4790005",
    "prefectureCode": "23",
    "prefectureNumber": 23,
    "prefecture": "愛知県",
    "city": "常滑市",
    "town": "大塚町"
  },
  "4790006": {
    "zipcode": "4790006",
    "prefectureCode": "23",
    "prefectureNumber": 23,
    "prefecture": "愛知県",
    "city": "常滑市",
    "town": "古道"
  },
  "4790007": {
    "zipcode": "4790007",
    "prefectureCode": "23",
    "prefectureNumber": 23,
    "prefecture": "愛知県",
    "city": "常滑市",
    "town": "庄兵衛新田"
  },
  "4790008": {
    "zipcode": "4790008",
    "prefectureCode": "23",
    "prefectureNumber": 23,
    "prefecture": "愛知県",
    "city": "常滑市",
    "town": "酉新田"
  },
  "4790009": {
    "zipcode": "4790009",
    "prefectureCode": "23",
    "prefectureNumber": 23,
    "prefecture": "愛知県",
    "city": "常滑市",
    "town": "平池"
  },
  "4790011": {
    "zipcode": "4790011",
    "prefectureCode": "23",
    "prefectureNumber": 23,
    "prefecture": "愛知県",
    "city": "常滑市",
    "town": "花狭間"
  },
  "4790012": {
    "zipcode": "4790012",
    "prefectureCode": "23",
    "prefectureNumber": 23,
    "prefecture": "愛知県",
    "city": "常滑市",
    "town": "上納"
  },
  "4790013": {
    "zipcode": "4790013",
    "prefectureCode": "23",
    "prefectureNumber": 23,
    "prefecture": "愛知県",
    "city": "常滑市",
    "town": "二ノ割"
  },
  "4790014": {
    "zipcode": "4790014",
    "prefectureCode": "23",
    "prefectureNumber": 23,
    "prefecture": "愛知県",
    "city": "常滑市",
    "town": "一ノ割"
  },
  "4790015": {
    "zipcode": "4790015",
    "prefectureCode": "23",
    "prefectureNumber": 23,
    "prefecture": "愛知県",
    "city": "常滑市",
    "town": "大窯"
  },
  "4790016": {
    "zipcode": "4790016",
    "prefectureCode": "23",
    "prefectureNumber": 23,
    "prefecture": "愛知県",
    "city": "常滑市",
    "town": "高坂"
  },
  "4790017": {
    "zipcode": "4790017",
    "prefectureCode": "23",
    "prefectureNumber": 23,
    "prefecture": "愛知県",
    "city": "常滑市",
    "town": "椎池"
  },
  "4790018": {
    "zipcode": "4790018",
    "prefectureCode": "23",
    "prefectureNumber": 23,
    "prefecture": "愛知県",
    "city": "常滑市",
    "town": "二ノ田"
  },
  "4790019": {
    "zipcode": "4790019",
    "prefectureCode": "23",
    "prefectureNumber": 23,
    "prefecture": "愛知県",
    "city": "常滑市",
    "town": "柴山"
  },
  "4790021": {
    "zipcode": "4790021",
    "prefectureCode": "23",
    "prefectureNumber": 23,
    "prefecture": "愛知県",
    "city": "常滑市",
    "town": "大曽町"
  },
  "4790022": {
    "zipcode": "4790022",
    "prefectureCode": "23",
    "prefectureNumber": 23,
    "prefecture": "愛知県",
    "city": "常滑市",
    "town": "堕星"
  },
  "4790023": {
    "zipcode": "4790023",
    "prefectureCode": "23",
    "prefectureNumber": 23,
    "prefecture": "愛知県",
    "city": "常滑市",
    "town": "長峰一ノ切"
  },
  "4790024": {
    "zipcode": "4790024",
    "prefectureCode": "23",
    "prefectureNumber": 23,
    "prefecture": "愛知県",
    "city": "常滑市",
    "town": "池田口"
  },
  "4790025": {
    "zipcode": "4790025",
    "prefectureCode": "23",
    "prefectureNumber": 23,
    "prefecture": "愛知県",
    "city": "常滑市",
    "town": "新池"
  },
  "4790026": {
    "zipcode": "4790026",
    "prefectureCode": "23",
    "prefectureNumber": 23,
    "prefecture": "愛知県",
    "city": "常滑市",
    "town": "天竺"
  },
  "4790027": {
    "zipcode": "4790027",
    "prefectureCode": "23",
    "prefectureNumber": 23,
    "prefecture": "愛知県",
    "city": "常滑市",
    "town": "大流"
  },
  "4790028": {
    "zipcode": "4790028",
    "prefectureCode": "23",
    "prefectureNumber": 23,
    "prefecture": "愛知県",
    "city": "常滑市",
    "town": "長峰二ノ切"
  },
  "4790029": {
    "zipcode": "4790029",
    "prefectureCode": "23",
    "prefectureNumber": 23,
    "prefecture": "愛知県",
    "city": "常滑市",
    "town": "古道東割"
  },
  "4790031": {
    "zipcode": "4790031",
    "prefectureCode": "23",
    "prefectureNumber": 23,
    "prefecture": "愛知県",
    "city": "常滑市",
    "town": "長峰三ノ切"
  },
  "4790032": {
    "zipcode": "4790032",
    "prefectureCode": "23",
    "prefectureNumber": 23,
    "prefecture": "愛知県",
    "city": "常滑市",
    "town": "下隅"
  },
  "4790033": {
    "zipcode": "4790033",
    "prefectureCode": "23",
    "prefectureNumber": 23,
    "prefecture": "愛知県",
    "city": "常滑市",
    "town": "中椎田"
  },
  "4790034": {
    "zipcode": "4790034",
    "prefectureCode": "23",
    "prefectureNumber": 23,
    "prefecture": "愛知県",
    "city": "常滑市",
    "town": "椎田奥"
  },
  "4790035": {
    "zipcode": "4790035",
    "prefectureCode": "23",
    "prefectureNumber": 23,
    "prefecture": "愛知県",
    "city": "常滑市",
    "town": "椎草南割"
  },
  "4790036": {
    "zipcode": "4790036",
    "prefectureCode": "23",
    "prefectureNumber": 23,
    "prefecture": "愛知県",
    "city": "常滑市",
    "town": "椎田口"
  },
  "4790037": {
    "zipcode": "4790037",
    "prefectureCode": "23",
    "prefectureNumber": 23,
    "prefecture": "愛知県",
    "city": "常滑市",
    "town": "中大流"
  },
  "4790038": {
    "zipcode": "4790038",
    "prefectureCode": "23",
    "prefectureNumber": 23,
    "prefecture": "愛知県",
    "city": "常滑市",
    "town": "石窯"
  },
  "4790039": {
    "zipcode": "4790039",
    "prefectureCode": "23",
    "prefectureNumber": 23,
    "prefecture": "愛知県",
    "city": "常滑市",
    "town": "大流天竺口"
  },
  "4790041": {
    "zipcode": "4790041",
    "prefectureCode": "23",
    "prefectureNumber": 23,
    "prefecture": "愛知県",
    "city": "常滑市",
    "town": "千代"
  },
  "4790042": {
    "zipcode": "4790042",
    "prefectureCode": "23",
    "prefectureNumber": 23,
    "prefecture": "愛知県",
    "city": "常滑市",
    "town": "社辺"
  },
  "4790043": {
    "zipcode": "4790043",
    "prefectureCode": "23",
    "prefectureNumber": 23,
    "prefecture": "愛知県",
    "city": "常滑市",
    "town": "古社"
  },
  "4790044": {
    "zipcode": "4790044",
    "prefectureCode": "23",
    "prefectureNumber": 23,
    "prefecture": "愛知県",
    "city": "常滑市",
    "town": "乙田"
  },
  "4790045": {
    "zipcode": "4790045",
    "prefectureCode": "23",
    "prefectureNumber": 23,
    "prefecture": "愛知県",
    "city": "常滑市",
    "town": "仲井"
  },
  "4790046": {
    "zipcode": "4790046",
    "prefectureCode": "23",
    "prefectureNumber": 23,
    "prefecture": "愛知県",
    "city": "常滑市",
    "town": "北古千代"
  },
  "4790047": {
    "zipcode": "4790047",
    "prefectureCode": "23",
    "prefectureNumber": 23,
    "prefecture": "愛知県",
    "city": "常滑市",
    "town": "南古千代"
  },
  "4790048": {
    "zipcode": "4790048",
    "prefectureCode": "23",
    "prefectureNumber": 23,
    "prefecture": "愛知県",
    "city": "常滑市",
    "town": "中千代"
  },
  "4790049": {
    "zipcode": "4790049",
    "prefectureCode": "23",
    "prefectureNumber": 23,
    "prefecture": "愛知県",
    "city": "常滑市",
    "town": "長峰四ノ切"
  },
  "4790053": {
    "zipcode": "4790053",
    "prefectureCode": "23",
    "prefectureNumber": 23,
    "prefecture": "愛知県",
    "city": "常滑市",
    "town": "奥夏敷"
  },
  "4790054": {
    "zipcode": "4790054",
    "prefectureCode": "23",
    "prefectureNumber": 23,
    "prefecture": "愛知県",
    "city": "常滑市",
    "town": "西梨木"
  },
  "4790055": {
    "zipcode": "4790055",
    "prefectureCode": "23",
    "prefectureNumber": 23,
    "prefecture": "愛知県",
    "city": "常滑市",
    "town": "広内"
  },
  "4790056": {
    "zipcode": "4790056",
    "prefectureCode": "23",
    "prefectureNumber": 23,
    "prefecture": "愛知県",
    "city": "常滑市",
    "town": "椎垂木"
  },
  "4790057": {
    "zipcode": "4790057",
    "prefectureCode": "23",
    "prefectureNumber": 23,
    "prefecture": "愛知県",
    "city": "常滑市",
    "town": "樋掛"
  },
  "4790058": {
    "zipcode": "4790058",
    "prefectureCode": "23",
    "prefectureNumber": 23,
    "prefecture": "愛知県",
    "city": "常滑市",
    "town": "古千代"
  },
  "4790059": {
    "zipcode": "4790059",
    "prefectureCode": "23",
    "prefectureNumber": 23,
    "prefecture": "愛知県",
    "city": "常滑市",
    "town": "南蛇廻間"
  },
  "4790061": {
    "zipcode": "4790061",
    "prefectureCode": "23",
    "prefectureNumber": 23,
    "prefecture": "愛知県",
    "city": "常滑市",
    "town": "耳切"
  },
  "4790062": {
    "zipcode": "4790062",
    "prefectureCode": "23",
    "prefectureNumber": 23,
    "prefecture": "愛知県",
    "city": "常滑市",
    "town": "運内"
  },
  "4790063": {
    "zipcode": "4790063",
    "prefectureCode": "23",
    "prefectureNumber": 23,
    "prefecture": "愛知県",
    "city": "常滑市",
    "town": "萱苅口"
  },
  "4790064": {
    "zipcode": "4790064",
    "prefectureCode": "23",
    "prefectureNumber": 23,
    "prefecture": "愛知県",
    "city": "常滑市",
    "town": "斧口"
  },
  "4790065": {
    "zipcode": "4790065",
    "prefectureCode": "23",
    "prefectureNumber": 23,
    "prefecture": "愛知県",
    "city": "常滑市",
    "town": "長間"
  },
  "4790066": {
    "zipcode": "4790066",
    "prefectureCode": "23",
    "prefectureNumber": 23,
    "prefecture": "愛知県",
    "city": "常滑市",
    "town": "脇田口"
  },
  "4790067": {
    "zipcode": "4790067",
    "prefectureCode": "23",
    "prefectureNumber": 23,
    "prefecture": "愛知県",
    "city": "常滑市",
    "town": "小森"
  },
  "4790068": {
    "zipcode": "4790068",
    "prefectureCode": "23",
    "prefectureNumber": 23,
    "prefecture": "愛知県",
    "city": "常滑市",
    "town": "長田"
  },
  "4790069": {
    "zipcode": "4790069",
    "prefectureCode": "23",
    "prefectureNumber": 23,
    "prefecture": "愛知県",
    "city": "常滑市",
    "town": "折戸"
  },
  "4790071": {
    "zipcode": "4790071",
    "prefectureCode": "23",
    "prefectureNumber": 23,
    "prefecture": "愛知県",
    "city": "常滑市",
    "town": "蛇廻間"
  },
  "4790072": {
    "zipcode": "4790072",
    "prefectureCode": "23",
    "prefectureNumber": 23,
    "prefecture": "愛知県",
    "city": "常滑市",
    "town": "乳母子"
  },
  "4790073": {
    "zipcode": "4790073",
    "prefectureCode": "23",
    "prefectureNumber": 23,
    "prefecture": "愛知県",
    "city": "常滑市",
    "town": "飛渡川"
  },
  "4790074": {
    "zipcode": "4790074",
    "prefectureCode": "23",
    "prefectureNumber": 23,
    "prefecture": "愛知県",
    "city": "常滑市",
    "town": "池田川"
  },
  "4790075": {
    "zipcode": "4790075",
    "prefectureCode": "23",
    "prefectureNumber": 23,
    "prefecture": "愛知県",
    "city": "常滑市",
    "town": "菅場"
  },
  "4790076": {
    "zipcode": "4790076",
    "prefectureCode": "23",
    "prefectureNumber": 23,
    "prefecture": "愛知県",
    "city": "常滑市",
    "town": "鳥根"
  },
  "4790077": {
    "zipcode": "4790077",
    "prefectureCode": "23",
    "prefectureNumber": 23,
    "prefecture": "愛知県",
    "city": "常滑市",
    "town": "南飛渡"
  },
  "4790079": {
    "zipcode": "4790079",
    "prefectureCode": "23",
    "prefectureNumber": 23,
    "prefecture": "愛知県",
    "city": "常滑市",
    "town": "黒山"
  },
  "4790801": {
    "zipcode": "4790801",
    "prefectureCode": "23",
    "prefectureNumber": 23,
    "prefecture": "愛知県",
    "city": "常滑市",
    "town": "樽水"
  },
  "4790802": {
    "zipcode": "4790802",
    "prefectureCode": "23",
    "prefectureNumber": 23,
    "prefecture": "愛知県",
    "city": "常滑市",
    "town": "西阿野"
  },
  "4790803": {
    "zipcode": "4790803",
    "prefectureCode": "23",
    "prefectureNumber": 23,
    "prefecture": "愛知県",
    "city": "常滑市",
    "town": "桧原"
  },
  "4790804": {
    "zipcode": "4790804",
    "prefectureCode": "23",
    "prefectureNumber": 23,
    "prefecture": "愛知県",
    "city": "常滑市",
    "town": "古場"
  },
  "4790805": {
    "zipcode": "4790805",
    "prefectureCode": "23",
    "prefectureNumber": 23,
    "prefecture": "愛知県",
    "city": "常滑市",
    "town": "苅屋"
  },
  "4790806": {
    "zipcode": "4790806",
    "prefectureCode": "23",
    "prefectureNumber": 23,
    "prefecture": "愛知県",
    "city": "常滑市",
    "town": "大谷"
  },
  "4790807": {
    "zipcode": "4790807",
    "prefectureCode": "23",
    "prefectureNumber": 23,
    "prefecture": "愛知県",
    "city": "常滑市",
    "town": "小鈴谷"
  },
  "4790808": {
    "zipcode": "4790808",
    "prefectureCode": "23",
    "prefectureNumber": 23,
    "prefecture": "愛知県",
    "city": "常滑市",
    "town": "広目"
  },
  "4790809": {
    "zipcode": "4790809",
    "prefectureCode": "23",
    "prefectureNumber": 23,
    "prefecture": "愛知県",
    "city": "常滑市",
    "town": "坂井"
  },
  "4790810": {
    "zipcode": "4790810",
    "prefectureCode": "23",
    "prefectureNumber": 23,
    "prefecture": "愛知県",
    "city": "常滑市",
    "town": "大谷朝陽ケ丘"
  },
  "4790811": {
    "zipcode": "4790811",
    "prefectureCode": "23",
    "prefectureNumber": 23,
    "prefecture": "愛知県",
    "city": "常滑市",
    "town": "泉町"
  },
  "4790812": {
    "zipcode": "4790812",
    "prefectureCode": "23",
    "prefectureNumber": 23,
    "prefecture": "愛知県",
    "city": "常滑市",
    "town": "井戸田町"
  },
  "4790813": {
    "zipcode": "4790813",
    "prefectureCode": "23",
    "prefectureNumber": 23,
    "prefecture": "愛知県",
    "city": "常滑市",
    "town": "塩田町"
  },
  "4790814": {
    "zipcode": "4790814",
    "prefectureCode": "23",
    "prefectureNumber": 23,
    "prefecture": "愛知県",
    "city": "常滑市",
    "town": "阿野町"
  },
  "4790815": {
    "zipcode": "4790815",
    "prefectureCode": "23",
    "prefectureNumber": 23,
    "prefecture": "愛知県",
    "city": "常滑市",
    "town": "唐崎町"
  },
  "4790816": {
    "zipcode": "4790816",
    "prefectureCode": "23",
    "prefectureNumber": 23,
    "prefecture": "愛知県",
    "city": "常滑市",
    "town": "熊野"
  },
  "4790817": {
    "zipcode": "4790817",
    "prefectureCode": "23",
    "prefectureNumber": 23,
    "prefecture": "愛知県",
    "city": "常滑市",
    "town": "熊野町"
  },
  "4790818": {
    "zipcode": "4790818",
    "prefectureCode": "23",
    "prefectureNumber": 23,
    "prefecture": "愛知県",
    "city": "常滑市",
    "town": "古場町"
  },
  "4790819": {
    "zipcode": "4790819",
    "prefectureCode": "23",
    "prefectureNumber": 23,
    "prefecture": "愛知県",
    "city": "常滑市",
    "town": "苅屋町"
  },
  "4790821": {
    "zipcode": "4790821",
    "prefectureCode": "23",
    "prefectureNumber": 23,
    "prefecture": "愛知県",
    "city": "常滑市",
    "town": "瀬木町"
  },
  "4790822": {
    "zipcode": "4790822",
    "prefectureCode": "23",
    "prefectureNumber": 23,
    "prefecture": "愛知県",
    "city": "常滑市",
    "town": "奥条"
  },
  "4790823": {
    "zipcode": "4790823",
    "prefectureCode": "23",
    "prefectureNumber": 23,
    "prefecture": "愛知県",
    "city": "常滑市",
    "town": "奥栄町"
  },
  "4790824": {
    "zipcode": "4790824",
    "prefectureCode": "23",
    "prefectureNumber": 23,
    "prefecture": "愛知県",
    "city": "常滑市",
    "town": "白山町"
  },
  "4790825": {
    "zipcode": "4790825",
    "prefectureCode": "23",
    "prefectureNumber": 23,
    "prefecture": "愛知県",
    "city": "常滑市",
    "town": "山方町"
  },
  "4790826": {
    "zipcode": "4790826",
    "prefectureCode": "23",
    "prefectureNumber": 23,
    "prefecture": "愛知県",
    "city": "常滑市",
    "town": "樽水町"
  },
  "4790827": {
    "zipcode": "4790827",
    "prefectureCode": "23",
    "prefectureNumber": 23,
    "prefecture": "愛知県",
    "city": "常滑市",
    "town": "保示町"
  },
  "4790828": {
    "zipcode": "4790828",
    "prefectureCode": "23",
    "prefectureNumber": 23,
    "prefecture": "愛知県",
    "city": "常滑市",
    "town": "市場町"
  },
  "4790829": {
    "zipcode": "4790829",
    "prefectureCode": "23",
    "prefectureNumber": 23,
    "prefecture": "愛知県",
    "city": "常滑市",
    "town": "本町"
  },
  "4790831": {
    "zipcode": "4790831",
    "prefectureCode": "23",
    "prefectureNumber": 23,
    "prefecture": "愛知県",
    "city": "常滑市",
    "town": "錦町"
  },
  "4790832": {
    "zipcode": "4790832",
    "prefectureCode": "23",
    "prefectureNumber": 23,
    "prefecture": "愛知県",
    "city": "常滑市",
    "town": "原松町"
  },
  "4790833": {
    "zipcode": "4790833",
    "prefectureCode": "23",
    "prefectureNumber": 23,
    "prefecture": "愛知県",
    "city": "常滑市",
    "town": "北条"
  },
  "4790834": {
    "zipcode": "4790834",
    "prefectureCode": "23",
    "prefectureNumber": 23,
    "prefecture": "愛知県",
    "city": "常滑市",
    "town": "千代ケ丘"
  },
  "4790835": {
    "zipcode": "4790835",
    "prefectureCode": "23",
    "prefectureNumber": 23,
    "prefecture": "愛知県",
    "city": "常滑市",
    "town": "陶郷町"
  },
  "4790836": {
    "zipcode": "4790836",
    "prefectureCode": "23",
    "prefectureNumber": 23,
    "prefecture": "愛知県",
    "city": "常滑市",
    "town": "栄町"
  },
  "4790837": {
    "zipcode": "4790837",
    "prefectureCode": "23",
    "prefectureNumber": 23,
    "prefecture": "愛知県",
    "city": "常滑市",
    "town": "新開町"
  },
  "4790838": {
    "zipcode": "4790838",
    "prefectureCode": "23",
    "prefectureNumber": 23,
    "prefecture": "愛知県",
    "city": "常滑市",
    "town": "鯉江本町"
  },
  "4790839": {
    "zipcode": "4790839",
    "prefectureCode": "23",
    "prefectureNumber": 23,
    "prefecture": "愛知県",
    "city": "常滑市",
    "town": "多屋町"
  },
  "4790841": {
    "zipcode": "4790841",
    "prefectureCode": "23",
    "prefectureNumber": 23,
    "prefecture": "愛知県",
    "city": "常滑市",
    "town": "明和町"
  },
  "4790842": {
    "zipcode": "4790842",
    "prefectureCode": "23",
    "prefectureNumber": 23,
    "prefecture": "愛知県",
    "city": "常滑市",
    "town": "大鳥町"
  },
  "4790843": {
    "zipcode": "4790843",
    "prefectureCode": "23",
    "prefectureNumber": 23,
    "prefecture": "愛知県",
    "city": "常滑市",
    "town": "多屋"
  },
  "4790844": {
    "zipcode": "4790844",
    "prefectureCode": "23",
    "prefectureNumber": 23,
    "prefecture": "愛知県",
    "city": "常滑市",
    "town": "大和町"
  },
  "4790845": {
    "zipcode": "4790845",
    "prefectureCode": "23",
    "prefectureNumber": 23,
    "prefecture": "愛知県",
    "city": "常滑市",
    "town": "森西町"
  },
  "4790846": {
    "zipcode": "4790846",
    "prefectureCode": "23",
    "prefectureNumber": 23,
    "prefecture": "愛知県",
    "city": "常滑市",
    "town": "末広町"
  },
  "4790847": {
    "zipcode": "4790847",
    "prefectureCode": "23",
    "prefectureNumber": 23,
    "prefecture": "愛知県",
    "city": "常滑市",
    "town": "新浜町"
  },
  "4790848": {
    "zipcode": "4790848",
    "prefectureCode": "23",
    "prefectureNumber": 23,
    "prefecture": "愛知県",
    "city": "常滑市",
    "town": "港町"
  },
  "4790849": {
    "zipcode": "4790849",
    "prefectureCode": "23",
    "prefectureNumber": 23,
    "prefecture": "愛知県",
    "city": "常滑市",
    "town": "虹の丘"
  },
  "4790851": {
    "zipcode": "4790851",
    "prefectureCode": "23",
    "prefectureNumber": 23,
    "prefecture": "愛知県",
    "city": "常滑市",
    "town": "若松町"
  },
  "4790852": {
    "zipcode": "4790852",
    "prefectureCode": "23",
    "prefectureNumber": 23,
    "prefecture": "愛知県",
    "city": "常滑市",
    "town": "神明町"
  },
  "4790853": {
    "zipcode": "4790853",
    "prefectureCode": "23",
    "prefectureNumber": 23,
    "prefecture": "愛知県",
    "city": "常滑市",
    "town": "本郷町"
  },
  "4790854": {
    "zipcode": "4790854",
    "prefectureCode": "23",
    "prefectureNumber": 23,
    "prefecture": "愛知県",
    "city": "常滑市",
    "town": "榎戸町"
  },
  "4790855": {
    "zipcode": "4790855",
    "prefectureCode": "23",
    "prefectureNumber": 23,
    "prefecture": "愛知県",
    "city": "常滑市",
    "town": "新田町"
  },
  "4790856": {
    "zipcode": "4790856",
    "prefectureCode": "23",
    "prefectureNumber": 23,
    "prefecture": "愛知県",
    "city": "常滑市",
    "town": "蒲池町"
  },
  "4790857": {
    "zipcode": "4790857",
    "prefectureCode": "23",
    "prefectureNumber": 23,
    "prefecture": "愛知県",
    "city": "常滑市",
    "town": "榎戸"
  },
  "4790858": {
    "zipcode": "4790858",
    "prefectureCode": "23",
    "prefectureNumber": 23,
    "prefecture": "愛知県",
    "city": "常滑市",
    "town": "蒲池"
  },
  "4790861": {
    "zipcode": "4790861",
    "prefectureCode": "23",
    "prefectureNumber": 23,
    "prefecture": "愛知県",
    "city": "常滑市",
    "town": "晩台町"
  },
  "4790862": {
    "zipcode": "4790862",
    "prefectureCode": "23",
    "prefectureNumber": 23,
    "prefecture": "愛知県",
    "city": "常滑市",
    "town": "小倉町"
  },
  "4790863": {
    "zipcode": "4790863",
    "prefectureCode": "23",
    "prefectureNumber": 23,
    "prefecture": "愛知県",
    "city": "常滑市",
    "town": "西之口"
  },
  "4790864": {
    "zipcode": "4790864",
    "prefectureCode": "23",
    "prefectureNumber": 23,
    "prefecture": "愛知県",
    "city": "常滑市",
    "town": "住吉町"
  },
  "4790865": {
    "zipcode": "4790865",
    "prefectureCode": "23",
    "prefectureNumber": 23,
    "prefecture": "愛知県",
    "city": "常滑市",
    "town": "小林町"
  },
  "4790866": {
    "zipcode": "4790866",
    "prefectureCode": "23",
    "prefectureNumber": 23,
    "prefecture": "愛知県",
    "city": "常滑市",
    "town": "大野町"
  },
  "4790867": {
    "zipcode": "4790867",
    "prefectureCode": "23",
    "prefectureNumber": 23,
    "prefecture": "愛知県",
    "city": "常滑市",
    "town": "北汐見坂"
  },
  "4790868": {
    "zipcode": "4790868",
    "prefectureCode": "23",
    "prefectureNumber": 23,
    "prefecture": "愛知県",
    "city": "常滑市",
    "town": "飛香台"
  },
  "4790871": {
    "zipcode": "4790871",
    "prefectureCode": "23",
    "prefectureNumber": 23,
    "prefecture": "愛知県",
    "city": "常滑市",
    "town": "大曽"
  },
  "4790873": {
    "zipcode": "4790873",
    "prefectureCode": "23",
    "prefectureNumber": 23,
    "prefecture": "愛知県",
    "city": "常滑市",
    "town": "かじま台"
  },
  "4790881": {
    "zipcode": "4790881",
    "prefectureCode": "23",
    "prefectureNumber": 23,
    "prefecture": "愛知県",
    "city": "常滑市",
    "town": "セントレア"
  },
  "4790882": {
    "zipcode": "4790882",
    "prefectureCode": "23",
    "prefectureNumber": 23,
    "prefecture": "愛知県",
    "city": "常滑市",
    "town": "りんくう町"
  }
}
