{
  "4800100": {
    "zipcode": "4800100",
    "prefectureCode": "23",
    "prefectureNumber": 23,
    "prefecture": "愛知県",
    "city": "丹羽郡扶桑町",
    "town": "以下に掲載がない場合"
  },
  "4800101": {
    "zipcode": "4800101",
    "prefectureCode": "23",
    "prefectureNumber": 23,
    "prefecture": "愛知県",
    "city": "丹羽郡扶桑町",
    "town": "山那"
  },
  "4800102": {
    "zipcode": "4800102",
    "prefectureCode": "23",
    "prefectureNumber": 23,
    "prefecture": "愛知県",
    "city": "丹羽郡扶桑町",
    "town": "高雄"
  },
  "4800103": {
    "zipcode": "4800103",
    "prefectureCode": "23",
    "prefectureNumber": 23,
    "prefecture": "愛知県",
    "city": "丹羽郡扶桑町",
    "town": "柏森"
  },
  "4800104": {
    "zipcode": "4800104",
    "prefectureCode": "23",
    "prefectureNumber": 23,
    "prefecture": "愛知県",
    "city": "丹羽郡扶桑町",
    "town": "斎藤"
  },
  "4800105": {
    "zipcode": "4800105",
    "prefectureCode": "23",
    "prefectureNumber": 23,
    "prefecture": "愛知県",
    "city": "丹羽郡扶桑町",
    "town": "南山名"
  },
  "4800106": {
    "zipcode": "4800106",
    "prefectureCode": "23",
    "prefectureNumber": 23,
    "prefecture": "愛知県",
    "city": "丹羽郡扶桑町",
    "town": "小淵"
  },
  "4800107": {
    "zipcode": "4800107",
    "prefectureCode": "23",
    "prefectureNumber": 23,
    "prefecture": "愛知県",
    "city": "丹羽郡扶桑町",
    "town": "高木"
  },
  "4800121": {
    "zipcode": "4800121",
    "prefectureCode": "23",
    "prefectureNumber": 23,
    "prefecture": "愛知県",
    "city": "丹羽郡大口町",
    "town": "河北"
  },
  "4800122": {
    "zipcode": "4800122",
    "prefectureCode": "23",
    "prefectureNumber": 23,
    "prefecture": "愛知県",
    "city": "丹羽郡大口町",
    "town": "仲沖"
  },
  "4800123": {
    "zipcode": "4800123",
    "prefectureCode": "23",
    "prefectureNumber": 23,
    "prefecture": "愛知県",
    "city": "丹羽郡大口町",
    "town": "二ツ屋"
  },
  "4800124": {
    "zipcode": "4800124",
    "prefectureCode": "23",
    "prefectureNumber": 23,
    "prefecture": "愛知県",
    "city": "丹羽郡大口町",
    "town": "萩島"
  },
  "4800125": {
    "zipcode": "4800125",
    "prefectureCode": "23",
    "prefectureNumber": 23,
    "prefecture": "愛知県",
    "city": "丹羽郡大口町",
    "town": "外坪"
  },
  "4800126": {
    "zipcode": "4800126",
    "prefectureCode": "23",
    "prefectureNumber": 23,
    "prefecture": "愛知県",
    "city": "丹羽郡大口町",
    "town": "伝右"
  },
  "4800127": {
    "zipcode": "4800127",
    "prefectureCode": "23",
    "prefectureNumber": 23,
    "prefecture": "愛知県",
    "city": "丹羽郡大口町",
    "town": "新宮"
  },
  "4800131": {
    "zipcode": "4800131",
    "prefectureCode": "23",
    "prefectureNumber": 23,
    "prefecture": "愛知県",
    "city": "丹羽郡大口町",
    "town": "高橋"
  },
  "4800132": {
    "zipcode": "4800132",
    "prefectureCode": "23",
    "prefectureNumber": 23,
    "prefecture": "愛知県",
    "city": "丹羽郡大口町",
    "town": "秋田"
  },
  "4800133": {
    "zipcode": "4800133",
    "prefectureCode": "23",
    "prefectureNumber": 23,
    "prefecture": "愛知県",
    "city": "丹羽郡大口町",
    "town": "替地"
  },
  "4800134": {
    "zipcode": "4800134",
    "prefectureCode": "23",
    "prefectureNumber": 23,
    "prefecture": "愛知県",
    "city": "丹羽郡大口町",
    "town": "豊田"
  },
  "4800135": {
    "zipcode": "4800135",
    "prefectureCode": "23",
    "prefectureNumber": 23,
    "prefecture": "愛知県",
    "city": "丹羽郡大口町",
    "town": "御供所"
  },
  "4800136": {
    "zipcode": "4800136",
    "prefectureCode": "23",
    "prefectureNumber": 23,
    "prefecture": "愛知県",
    "city": "丹羽郡大口町",
    "town": "堀尾跡"
  },
  "4800137": {
    "zipcode": "4800137",
    "prefectureCode": "23",
    "prefectureNumber": 23,
    "prefecture": "愛知県",
    "city": "丹羽郡大口町",
    "town": "大屋敷"
  },
  "4800138": {
    "zipcode": "4800138",
    "prefectureCode": "23",
    "prefectureNumber": 23,
    "prefecture": "愛知県",
    "city": "丹羽郡大口町",
    "town": "大御堂"
  },
  "4800139": {
    "zipcode": "4800139",
    "prefectureCode": "23",
    "prefectureNumber": 23,
    "prefecture": "愛知県",
    "city": "丹羽郡大口町",
    "town": "奈良子"
  },
  "4800141": {
    "zipcode": "4800141",
    "prefectureCode": "23",
    "prefectureNumber": 23,
    "prefecture": "愛知県",
    "city": "丹羽郡大口町",
    "town": "上小口"
  },
  "4800142": {
    "zipcode": "4800142",
    "prefectureCode": "23",
    "prefectureNumber": 23,
    "prefecture": "愛知県",
    "city": "丹羽郡大口町",
    "town": "中小口"
  },
  "4800143": {
    "zipcode": "4800143",
    "prefectureCode": "23",
    "prefectureNumber": 23,
    "prefecture": "愛知県",
    "city": "丹羽郡大口町",
    "town": "城屋敷"
  },
  "4800144": {
    "zipcode": "4800144",
    "prefectureCode": "23",
    "prefectureNumber": 23,
    "prefecture": "愛知県",
    "city": "丹羽郡大口町",
    "town": "下小口"
  },
  "4800145": {
    "zipcode": "4800145",
    "prefectureCode": "23",
    "prefectureNumber": 23,
    "prefecture": "愛知県",
    "city": "丹羽郡大口町",
    "town": "丸"
  },
  "4800146": {
    "zipcode": "4800146",
    "prefectureCode": "23",
    "prefectureNumber": 23,
    "prefecture": "愛知県",
    "city": "丹羽郡大口町",
    "town": "余野"
  },
  "4800147": {
    "zipcode": "4800147",
    "prefectureCode": "23",
    "prefectureNumber": 23,
    "prefecture": "愛知県",
    "city": "丹羽郡大口町",
    "town": "竹田"
  },
  "4800148": {
    "zipcode": "4800148",
    "prefectureCode": "23",
    "prefectureNumber": 23,
    "prefecture": "愛知県",
    "city": "丹羽郡大口町",
    "town": "小口"
  },
  "4800149": {
    "zipcode": "4800149",
    "prefectureCode": "23",
    "prefectureNumber": 23,
    "prefecture": "愛知県",
    "city": "丹羽郡大口町",
    "town": "垣田"
  },
  "4800151": {
    "zipcode": "4800151",
    "prefectureCode": "23",
    "prefectureNumber": 23,
    "prefecture": "愛知県",
    "city": "丹羽郡大口町",
    "town": "さつきケ丘"
  },
  "4800200": {
    "zipcode": "4800200",
    "prefectureCode": "23",
    "prefectureNumber": 23,
    "prefecture": "愛知県",
    "city": "西春日井郡豊山町",
    "town": "以下に掲載がない場合"
  },
  "4800201": {
    "zipcode": "4800201",
    "prefectureCode": "23",
    "prefectureNumber": 23,
    "prefecture": "愛知県",
    "city": "西春日井郡豊山町",
    "town": "青山"
  },
  "4800202": {
    "zipcode": "4800202",
    "prefectureCode": "23",
    "prefectureNumber": 23,
    "prefecture": "愛知県",
    "city": "西春日井郡豊山町",
    "town": "豊場"
  },
  "4800301": {
    "zipcode": "4800301",
    "prefectureCode": "23",
    "prefectureNumber": 23,
    "prefecture": "愛知県",
    "city": "春日井市",
    "town": "内津町"
  },
  "4800302": {
    "zipcode": "4800302",
    "prefectureCode": "23",
    "prefectureNumber": 23,
    "prefecture": "愛知県",
    "city": "春日井市",
    "town": "西尾町"
  },
  "4800303": {
    "zipcode": "4800303",
    "prefectureCode": "23",
    "prefectureNumber": 23,
    "prefecture": "愛知県",
    "city": "春日井市",
    "town": "明知町"
  },
  "4800304": {
    "zipcode": "4800304",
    "prefectureCode": "23",
    "prefectureNumber": 23,
    "prefecture": "愛知県",
    "city": "春日井市",
    "town": "神屋町"
  },
  "4800305": {
    "zipcode": "4800305",
    "prefectureCode": "23",
    "prefectureNumber": 23,
    "prefecture": "愛知県",
    "city": "春日井市",
    "town": "坂下町"
  },
  "4800306": {
    "zipcode": "4800306",
    "prefectureCode": "23",
    "prefectureNumber": 23,
    "prefecture": "愛知県",
    "city": "春日井市",
    "town": "上野町"
  },
  "4801100": {
    "zipcode": "4801100",
    "prefectureCode": "23",
    "prefectureNumber": 23,
    "prefecture": "愛知県",
    "city": "長久手市",
    "town": "以下に掲載がない場合"
  },
  "4801102": {
    "zipcode": "4801102",
    "prefectureCode": "23",
    "prefectureNumber": 23,
    "prefecture": "愛知県",
    "city": "長久手市",
    "town": "前熊溝下"
  },
  "4801103": {
    "zipcode": "4801103",
    "prefectureCode": "23",
    "prefectureNumber": 23,
    "prefecture": "愛知県",
    "city": "長久手市",
    "town": "岩作早稲田"
  },
  "4801104": {
    "zipcode": "4801104",
    "prefectureCode": "23",
    "prefectureNumber": 23,
    "prefecture": "愛知県",
    "city": "長久手市",
    "town": "棒振"
  },
  "4801105": {
    "zipcode": "4801105",
    "prefectureCode": "23",
    "prefectureNumber": 23,
    "prefecture": "愛知県",
    "city": "長久手市",
    "town": "丸根"
  },
  "4801106": {
    "zipcode": "4801106",
    "prefectureCode": "23",
    "prefectureNumber": 23,
    "prefecture": "愛知県",
    "city": "長久手市",
    "town": "大久手"
  },
  "4801107": {
    "zipcode": "4801107",
    "prefectureCode": "23",
    "prefectureNumber": 23,
    "prefecture": "愛知県",
    "city": "長久手市",
    "town": "下権田"
  },
  "4801108": {
    "zipcode": "4801108",
    "prefectureCode": "23",
    "prefectureNumber": 23,
    "prefecture": "愛知県",
    "city": "長久手市",
    "town": "中池"
  },
  "4801111": {
    "zipcode": "4801111",
    "prefectureCode": "23",
    "prefectureNumber": 23,
    "prefecture": "愛知県",
    "city": "長久手市",
    "town": "山越"
  },
  "4801112": {
    "zipcode": "4801112",
    "prefectureCode": "23",
    "prefectureNumber": 23,
    "prefecture": "愛知県",
    "city": "長久手市",
    "town": "砂子"
  },
  "4801113": {
    "zipcode": "4801113",
    "prefectureCode": "23",
    "prefectureNumber": 23,
    "prefecture": "愛知県",
    "city": "長久手市",
    "town": "山野田"
  },
  "4801114": {
    "zipcode": "4801114",
    "prefectureCode": "23",
    "prefectureNumber": 23,
    "prefecture": "愛知県",
    "city": "長久手市",
    "town": "長配"
  },
  "4801115": {
    "zipcode": "4801115",
    "prefectureCode": "23",
    "prefectureNumber": 23,
    "prefecture": "愛知県",
    "city": "長久手市",
    "town": "菖蒲池"
  },
  "4801116": {
    "zipcode": "4801116",
    "prefectureCode": "23",
    "prefectureNumber": 23,
    "prefecture": "愛知県",
    "city": "長久手市",
    "town": "杁ケ池"
  },
  "4801117": {
    "zipcode": "4801117",
    "prefectureCode": "23",
    "prefectureNumber": 23,
    "prefecture": "愛知県",
    "city": "長久手市",
    "town": "喜婦嶽"
  },
  "4801118": {
    "zipcode": "4801118",
    "prefectureCode": "23",
    "prefectureNumber": 23,
    "prefecture": "愛知県",
    "city": "長久手市",
    "town": "横道"
  },
  "4801119": {
    "zipcode": "4801119",
    "prefectureCode": "23",
    "prefectureNumber": 23,
    "prefecture": "愛知県",
    "city": "長久手市",
    "town": "深廻間"
  },
  "4801121": {
    "zipcode": "4801121",
    "prefectureCode": "23",
    "prefectureNumber": 23,
    "prefecture": "愛知県",
    "city": "長久手市",
    "town": "武蔵塚"
  },
  "4801122": {
    "zipcode": "4801122",
    "prefectureCode": "23",
    "prefectureNumber": 23,
    "prefecture": "愛知県",
    "city": "長久手市",
    "town": "城屋敷"
  },
  "4801123": {
    "zipcode": "4801123",
    "prefectureCode": "23",
    "prefectureNumber": 23,
    "prefecture": "愛知県",
    "city": "長久手市",
    "town": "東狭間"
  },
  "4801124": {
    "zipcode": "4801124",
    "prefectureCode": "23",
    "prefectureNumber": 23,
    "prefecture": "愛知県",
    "city": "長久手市",
    "town": "戸田谷"
  },
  "4801125": {
    "zipcode": "4801125",
    "prefectureCode": "23",
    "prefectureNumber": 23,
    "prefecture": "愛知県",
    "city": "長久手市",
    "town": "氏神前"
  },
  "4801126": {
    "zipcode": "4801126",
    "prefectureCode": "23",
    "prefectureNumber": 23,
    "prefecture": "愛知県",
    "city": "長久手市",
    "town": "深田"
  },
  "4801127": {
    "zipcode": "4801127",
    "prefectureCode": "23",
    "prefectureNumber": 23,
    "prefecture": "愛知県",
    "city": "長久手市",
    "town": "菅池"
  },
  "4801128": {
    "zipcode": "4801128",
    "prefectureCode": "23",
    "prefectureNumber": 23,
    "prefecture": "愛知県",
    "city": "長久手市",
    "town": "勝入塚"
  },
  "4801129": {
    "zipcode": "4801129",
    "prefectureCode": "23",
    "prefectureNumber": 23,
    "prefecture": "愛知県",
    "city": "長久手市",
    "town": "よし池"
  },
  "4801132": {
    "zipcode": "4801132",
    "prefectureCode": "23",
    "prefectureNumber": 23,
    "prefecture": "愛知県",
    "city": "長久手市",
    "town": "上川原"
  },
  "4801133": {
    "zipcode": "4801133",
    "prefectureCode": "23",
    "prefectureNumber": 23,
    "prefecture": "愛知県",
    "city": "長久手市",
    "town": "原山"
  },
  "4801134": {
    "zipcode": "4801134",
    "prefectureCode": "23",
    "prefectureNumber": 23,
    "prefecture": "愛知県",
    "city": "長久手市",
    "town": "南原山"
  },
  "4801135": {
    "zipcode": "4801135",
    "prefectureCode": "23",
    "prefectureNumber": 23,
    "prefecture": "愛知県",
    "city": "長久手市",
    "town": "下山"
  },
  "4801136": {
    "zipcode": "4801136",
    "prefectureCode": "23",
    "prefectureNumber": 23,
    "prefecture": "愛知県",
    "city": "長久手市",
    "town": "櫨木"
  },
  "4801137": {
    "zipcode": "4801137",
    "prefectureCode": "23",
    "prefectureNumber": 23,
    "prefecture": "愛知県",
    "city": "長久手市",
    "town": "下川原"
  },
  "4801138": {
    "zipcode": "4801138",
    "prefectureCode": "23",
    "prefectureNumber": 23,
    "prefecture": "愛知県",
    "city": "長久手市",
    "town": "西原山"
  },
  "4801139": {
    "zipcode": "4801139",
    "prefectureCode": "23",
    "prefectureNumber": 23,
    "prefecture": "愛知県",
    "city": "長久手市",
    "town": "中川原"
  },
  "4801141": {
    "zipcode": "4801141",
    "prefectureCode": "23",
    "prefectureNumber": 23,
    "prefecture": "愛知県",
    "city": "長久手市",
    "town": "根の神"
  },
  "4801142": {
    "zipcode": "4801142",
    "prefectureCode": "23",
    "prefectureNumber": 23,
    "prefecture": "愛知県",
    "city": "長久手市",
    "town": "蟹原"
  },
  "4801143": {
    "zipcode": "4801143",
    "prefectureCode": "23",
    "prefectureNumber": 23,
    "prefecture": "愛知県",
    "city": "長久手市",
    "town": "井堀"
  },
  "4801144": {
    "zipcode": "4801144",
    "prefectureCode": "23",
    "prefectureNumber": 23,
    "prefecture": "愛知県",
    "city": "長久手市",
    "town": "熊田"
  },
  "4801145": {
    "zipcode": "4801145",
    "prefectureCode": "23",
    "prefectureNumber": 23,
    "prefecture": "愛知県",
    "city": "長久手市",
    "town": "卯塚"
  },
  "4801146": {
    "zipcode": "4801146",
    "prefectureCode": "23",
    "prefectureNumber": 23,
    "prefecture": "愛知県",
    "city": "長久手市",
    "town": "片平"
  },
  "4801147": {
    "zipcode": "4801147",
    "prefectureCode": "23",
    "prefectureNumber": 23,
    "prefecture": "愛知県",
    "city": "長久手市",
    "town": "市が洞"
  },
  "4801148": {
    "zipcode": "4801148",
    "prefectureCode": "23",
    "prefectureNumber": 23,
    "prefecture": "愛知県",
    "city": "長久手市",
    "town": "根嶽"
  },
  "4801151": {
    "zipcode": "4801151",
    "prefectureCode": "23",
    "prefectureNumber": 23,
    "prefecture": "愛知県",
    "city": "長久手市",
    "town": "久保山"
  },
  "4801152": {
    "zipcode": "4801152",
    "prefectureCode": "23",
    "prefectureNumber": 23,
    "prefecture": "愛知県",
    "city": "長久手市",
    "town": "打越"
  },
  "4801153": {
    "zipcode": "4801153",
    "prefectureCode": "23",
    "prefectureNumber": 23,
    "prefecture": "愛知県",
    "city": "長久手市",
    "town": "作田"
  },
  "4801154": {
    "zipcode": "4801154",
    "prefectureCode": "23",
    "prefectureNumber": 23,
    "prefecture": "愛知県",
    "city": "長久手市",
    "town": "塚田"
  },
  "4801155": {
    "zipcode": "4801155",
    "prefectureCode": "23",
    "prefectureNumber": 23,
    "prefecture": "愛知県",
    "city": "長久手市",
    "town": "平池"
  },
  "4801156": {
    "zipcode": "4801156",
    "prefectureCode": "23",
    "prefectureNumber": 23,
    "prefecture": "愛知県",
    "city": "長久手市",
    "town": "五合池"
  },
  "4801157": {
    "zipcode": "4801157",
    "prefectureCode": "23",
    "prefectureNumber": 23,
    "prefecture": "愛知県",
    "city": "長久手市",
    "town": "桜作"
  },
  "4801158": {
    "zipcode": "4801158",
    "prefectureCode": "23",
    "prefectureNumber": 23,
    "prefecture": "愛知県",
    "city": "長久手市",
    "town": "東原山"
  },
  "4801161": {
    "zipcode": "4801161",
    "prefectureCode": "23",
    "prefectureNumber": 23,
    "prefecture": "愛知県",
    "city": "長久手市",
    "town": "荒田"
  },
  "4801162": {
    "zipcode": "4801162",
    "prefectureCode": "23",
    "prefectureNumber": 23,
    "prefecture": "愛知県",
    "city": "長久手市",
    "town": "段の上"
  },
  "4801163": {
    "zipcode": "4801163",
    "prefectureCode": "23",
    "prefectureNumber": 23,
    "prefecture": "愛知県",
    "city": "長久手市",
    "town": "原邸"
  },
  "4801164": {
    "zipcode": "4801164",
    "prefectureCode": "23",
    "prefectureNumber": 23,
    "prefecture": "愛知県",
    "city": "長久手市",
    "town": "山桶"
  },
  "4801165": {
    "zipcode": "4801165",
    "prefectureCode": "23",
    "prefectureNumber": 23,
    "prefecture": "愛知県",
    "city": "長久手市",
    "town": "鴨田"
  },
  "4801166": {
    "zipcode": "4801166",
    "prefectureCode": "23",
    "prefectureNumber": 23,
    "prefecture": "愛知県",
    "city": "長久手市",
    "town": "野田農"
  },
  "4801167": {
    "zipcode": "4801167",
    "prefectureCode": "23",
    "prefectureNumber": 23,
    "prefecture": "愛知県",
    "city": "長久手市",
    "town": "仲田"
  },
  "4801168": {
    "zipcode": "4801168",
    "prefectureCode": "23",
    "prefectureNumber": 23,
    "prefecture": "愛知県",
    "city": "長久手市",
    "town": "坊の後"
  },
  "4801171": {
    "zipcode": "4801171",
    "prefectureCode": "23",
    "prefectureNumber": 23,
    "prefecture": "愛知県",
    "city": "長久手市",
    "town": "西浦"
  },
  "4801172": {
    "zipcode": "4801172",
    "prefectureCode": "23",
    "prefectureNumber": 23,
    "prefecture": "愛知県",
    "city": "長久手市",
    "town": "宮脇"
  },
  "4801173": {
    "zipcode": "4801173",
    "prefectureCode": "23",
    "prefectureNumber": 23,
    "prefecture": "愛知県",
    "city": "長久手市",
    "town": "富士浦"
  },
  "4801174": {
    "zipcode": "4801174",
    "prefectureCode": "23",
    "prefectureNumber": 23,
    "prefecture": "愛知県",
    "city": "長久手市",
    "town": "東浦"
  },
  "4801175": {
    "zipcode": "4801175",
    "prefectureCode": "23",
    "prefectureNumber": 23,
    "prefecture": "愛知県",
    "city": "長久手市",
    "town": "先達"
  },
  "4801176": {
    "zipcode": "4801176",
    "prefectureCode": "23",
    "prefectureNumber": 23,
    "prefecture": "愛知県",
    "city": "長久手市",
    "town": "香桶"
  },
  "4801177": {
    "zipcode": "4801177",
    "prefectureCode": "23",
    "prefectureNumber": 23,
    "prefecture": "愛知県",
    "city": "長久手市",
    "town": "仏が根"
  },
  "4801178": {
    "zipcode": "4801178",
    "prefectureCode": "23",
    "prefectureNumber": 23,
    "prefecture": "愛知県",
    "city": "長久手市",
    "town": "丁子田"
  },
  "4801181": {
    "zipcode": "4801181",
    "prefectureCode": "23",
    "prefectureNumber": 23,
    "prefecture": "愛知県",
    "city": "長久手市",
    "town": "東原"
  },
  "4801182": {
    "zipcode": "4801182",
    "prefectureCode": "23",
    "prefectureNumber": 23,
    "prefecture": "愛知県",
    "city": "長久手市",
    "town": "池田"
  },
  "4801183": {
    "zipcode": "4801183",
    "prefectureCode": "23",
    "prefectureNumber": 23,
    "prefecture": "愛知県",
    "city": "長久手市",
    "town": "西原"
  },
  "4801184": {
    "zipcode": "4801184",
    "prefectureCode": "23",
    "prefectureNumber": 23,
    "prefecture": "愛知県",
    "city": "長久手市",
    "town": "草掛"
  },
  "4801201": {
    "zipcode": "4801201",
    "prefectureCode": "23",
    "prefectureNumber": 23,
    "prefecture": "愛知県",
    "city": "瀬戸市",
    "town": "定光寺町"
  },
  "4801202": {
    "zipcode": "4801202",
    "prefectureCode": "23",
    "prefectureNumber": 23,
    "prefecture": "愛知県",
    "city": "瀬戸市",
    "town": "下半田川町"
  },
  "4801203": {
    "zipcode": "4801203",
    "prefectureCode": "23",
    "prefectureNumber": 23,
    "prefecture": "愛知県",
    "city": "瀬戸市",
    "town": "広之田町"
  },
  "4801204": {
    "zipcode": "4801204",
    "prefectureCode": "23",
    "prefectureNumber": 23,
    "prefecture": "愛知県",
    "city": "瀬戸市",
    "town": "北丘町"
  },
  "4801205": {
    "zipcode": "4801205",
    "prefectureCode": "23",
    "prefectureNumber": 23,
    "prefecture": "愛知県",
    "city": "瀬戸市",
    "town": "落合町"
  },
  "4801206": {
    "zipcode": "4801206",
    "prefectureCode": "23",
    "prefectureNumber": 23,
    "prefecture": "愛知県",
    "city": "瀬戸市",
    "town": "八床町"
  },
  "4801207": {
    "zipcode": "4801207",
    "prefectureCode": "23",
    "prefectureNumber": 23,
    "prefecture": "愛知県",
    "city": "瀬戸市",
    "town": "品野町"
  },
  "4801211": {
    "zipcode": "4801211",
    "prefectureCode": "23",
    "prefectureNumber": 23,
    "prefecture": "愛知県",
    "city": "瀬戸市",
    "town": "上半田川町"
  },
  "4801212": {
    "zipcode": "4801212",
    "prefectureCode": "23",
    "prefectureNumber": 23,
    "prefecture": "愛知県",
    "city": "瀬戸市",
    "town": "片草町"
  },
  "4801213": {
    "zipcode": "4801213",
    "prefectureCode": "23",
    "prefectureNumber": 23,
    "prefecture": "愛知県",
    "city": "瀬戸市",
    "town": "白岩町"
  },
  "4801214": {
    "zipcode": "4801214",
    "prefectureCode": "23",
    "prefectureNumber": 23,
    "prefecture": "愛知県",
    "city": "瀬戸市",
    "town": "上品野町"
  },
  "4801215": {
    "zipcode": "4801215",
    "prefectureCode": "23",
    "prefectureNumber": 23,
    "prefecture": "愛知県",
    "city": "瀬戸市",
    "town": "岩屋町"
  },
  "4801216": {
    "zipcode": "4801216",
    "prefectureCode": "23",
    "prefectureNumber": 23,
    "prefecture": "愛知県",
    "city": "瀬戸市",
    "town": "鳥原町"
  },
  "4801217": {
    "zipcode": "4801217",
    "prefectureCode": "23",
    "prefectureNumber": 23,
    "prefecture": "愛知県",
    "city": "瀬戸市",
    "town": "井山町"
  },
  "4801218": {
    "zipcode": "4801218",
    "prefectureCode": "23",
    "prefectureNumber": 23,
    "prefecture": "愛知県",
    "city": "瀬戸市",
    "town": "中品野町"
  },
  "4801219": {
    "zipcode": "4801219",
    "prefectureCode": "23",
    "prefectureNumber": 23,
    "prefecture": "愛知県",
    "city": "瀬戸市",
    "town": "窯町"
  },
  "4801301": {
    "zipcode": "4801301",
    "prefectureCode": "23",
    "prefectureNumber": 23,
    "prefecture": "愛知県",
    "city": "長久手市",
    "town": "北浦"
  },
  "4801302": {
    "zipcode": "4801302",
    "prefectureCode": "23",
    "prefectureNumber": 23,
    "prefecture": "愛知県",
    "city": "長久手市",
    "town": "杁ノ洞"
  },
  "4801303": {
    "zipcode": "4801303",
    "prefectureCode": "23",
    "prefectureNumber": 23,
    "prefecture": "愛知県",
    "city": "長久手市",
    "town": "東田"
  },
  "4801304": {
    "zipcode": "4801304",
    "prefectureCode": "23",
    "prefectureNumber": 23,
    "prefecture": "愛知県",
    "city": "長久手市",
    "town": "郷前"
  },
  "4801305": {
    "zipcode": "4801305",
    "prefectureCode": "23",
    "prefectureNumber": 23,
    "prefecture": "愛知県",
    "city": "長久手市",
    "town": "中井"
  },
  "4801306": {
    "zipcode": "4801306",
    "prefectureCode": "23",
    "prefectureNumber": 23,
    "prefecture": "愛知県",
    "city": "長久手市",
    "town": "真行田"
  },
  "4801307": {
    "zipcode": "4801307",
    "prefectureCode": "23",
    "prefectureNumber": 23,
    "prefecture": "愛知県",
    "city": "長久手市",
    "town": "立花"
  },
  "4801308": {
    "zipcode": "4801308",
    "prefectureCode": "23",
    "prefectureNumber": 23,
    "prefecture": "愛知県",
    "city": "長久手市",
    "town": "岩廻間"
  },
  "4801309": {
    "zipcode": "4801309",
    "prefectureCode": "23",
    "prefectureNumber": 23,
    "prefecture": "愛知県",
    "city": "長久手市",
    "town": "溝之杁"
  },
  "4801311": {
    "zipcode": "4801311",
    "prefectureCode": "23",
    "prefectureNumber": 23,
    "prefecture": "愛知県",
    "city": "長久手市",
    "town": "福井"
  },
  "4801312": {
    "zipcode": "4801312",
    "prefectureCode": "23",
    "prefectureNumber": 23,
    "prefecture": "愛知県",
    "city": "長久手市",
    "town": "熊張深田"
  },
  "4801313": {
    "zipcode": "4801313",
    "prefectureCode": "23",
    "prefectureNumber": 23,
    "prefecture": "愛知県",
    "city": "長久手市",
    "town": "小深"
  },
  "4801314": {
    "zipcode": "4801314",
    "prefectureCode": "23",
    "prefectureNumber": 23,
    "prefecture": "愛知県",
    "city": "長久手市",
    "town": "馬堤"
  },
  "4801315": {
    "zipcode": "4801315",
    "prefectureCode": "23",
    "prefectureNumber": 23,
    "prefecture": "愛知県",
    "city": "長久手市",
    "town": "東平地"
  },
  "4801316": {
    "zipcode": "4801316",
    "prefectureCode": "23",
    "prefectureNumber": 23,
    "prefecture": "愛知県",
    "city": "長久手市",
    "town": "平地"
  },
  "4801317": {
    "zipcode": "4801317",
    "prefectureCode": "23",
    "prefectureNumber": 23,
    "prefecture": "愛知県",
    "city": "長久手市",
    "town": "松杁"
  },
  "4801318": {
    "zipcode": "4801318",
    "prefectureCode": "23",
    "prefectureNumber": 23,
    "prefecture": "愛知県",
    "city": "長久手市",
    "town": "東山"
  },
  "4801321": {
    "zipcode": "4801321",
    "prefectureCode": "23",
    "prefectureNumber": 23,
    "prefecture": "愛知県",
    "city": "長久手市",
    "town": "神明"
  },
  "4801322": {
    "zipcode": "4801322",
    "prefectureCode": "23",
    "prefectureNumber": 23,
    "prefecture": "愛知県",
    "city": "長久手市",
    "town": "汐見坂"
  },
  "4801323": {
    "zipcode": "4801323",
    "prefectureCode": "23",
    "prefectureNumber": 23,
    "prefecture": "愛知県",
    "city": "長久手市",
    "town": "阿畑"
  },
  "4801324": {
    "zipcode": "4801324",
    "prefectureCode": "23",
    "prefectureNumber": 23,
    "prefecture": "愛知県",
    "city": "長久手市",
    "town": "段留"
  },
  "4801325": {
    "zipcode": "4801325",
    "prefectureCode": "23",
    "prefectureNumber": 23,
    "prefecture": "愛知県",
    "city": "長久手市",
    "town": "杁ケ根"
  },
  "4801326": {
    "zipcode": "4801326",
    "prefectureCode": "23",
    "prefectureNumber": 23,
    "prefecture": "愛知県",
    "city": "長久手市",
    "town": "助六"
  },
  "4801327": {
    "zipcode": "4801327",
    "prefectureCode": "23",
    "prefectureNumber": 23,
    "prefecture": "愛知県",
    "city": "長久手市",
    "town": "観音堂"
  },
  "4801328": {
    "zipcode": "4801328",
    "prefectureCode": "23",
    "prefectureNumber": 23,
    "prefecture": "愛知県",
    "city": "長久手市",
    "town": "早稲田"
  },
  "4801329": {
    "zipcode": "4801329",
    "prefectureCode": "23",
    "prefectureNumber": 23,
    "prefecture": "愛知県",
    "city": "長久手市",
    "town": "申平"
  },
  "4801331": {
    "zipcode": "4801331",
    "prefectureCode": "23",
    "prefectureNumber": 23,
    "prefecture": "愛知県",
    "city": "長久手市",
    "town": "雨堤"
  },
  "4801332": {
    "zipcode": "4801332",
    "prefectureCode": "23",
    "prefectureNumber": 23,
    "prefecture": "愛知県",
    "city": "長久手市",
    "town": "神門前"
  },
  "4801333": {
    "zipcode": "4801333",
    "prefectureCode": "23",
    "prefectureNumber": 23,
    "prefecture": "愛知県",
    "city": "長久手市",
    "town": "蛭子"
  },
  "4801334": {
    "zipcode": "4801334",
    "prefectureCode": "23",
    "prefectureNumber": 23,
    "prefecture": "愛知県",
    "city": "長久手市",
    "town": "榎ノ下"
  },
  "4801335": {
    "zipcode": "4801335",
    "prefectureCode": "23",
    "prefectureNumber": 23,
    "prefecture": "愛知県",
    "city": "長久手市",
    "town": "大日"
  },
  "4801336": {
    "zipcode": "4801336",
    "prefectureCode": "23",
    "prefectureNumber": 23,
    "prefecture": "愛知県",
    "city": "長久手市",
    "town": "小稲葉"
  },
  "4801337": {
    "zipcode": "4801337",
    "prefectureCode": "23",
    "prefectureNumber": 23,
    "prefecture": "愛知県",
    "city": "長久手市",
    "town": "中屋"
  },
  "4801338": {
    "zipcode": "4801338",
    "prefectureCode": "23",
    "prefectureNumber": 23,
    "prefecture": "愛知県",
    "city": "長久手市",
    "town": "下田"
  },
  "4801339": {
    "zipcode": "4801339",
    "prefectureCode": "23",
    "prefectureNumber": 23,
    "prefecture": "愛知県",
    "city": "長久手市",
    "town": "北熊"
  },
  "4801341": {
    "zipcode": "4801341",
    "prefectureCode": "23",
    "prefectureNumber": 23,
    "prefecture": "愛知県",
    "city": "長久手市",
    "town": "葭ケ廻間"
  },
  "4801342": {
    "zipcode": "4801342",
    "prefectureCode": "23",
    "prefectureNumber": 23,
    "prefecture": "愛知県",
    "city": "長久手市",
    "town": "茨ケ廻間"
  },
  "4801343": {
    "zipcode": "4801343",
    "prefectureCode": "23",
    "prefectureNumber": 23,
    "prefecture": "愛知県",
    "city": "長久手市",
    "town": "石場"
  },
  "4801344": {
    "zipcode": "4801344",
    "prefectureCode": "23",
    "prefectureNumber": 23,
    "prefecture": "愛知県",
    "city": "長久手市",
    "town": "広田"
  },
  "4801345": {
    "zipcode": "4801345",
    "prefectureCode": "23",
    "prefectureNumber": 23,
    "prefecture": "愛知県",
    "city": "長久手市",
    "town": "丸山"
  },
  "4801346": {
    "zipcode": "4801346",
    "prefectureCode": "23",
    "prefectureNumber": 23,
    "prefecture": "愛知県",
    "city": "長久手市",
    "town": "堂脇"
  },
  "4801347": {
    "zipcode": "4801347",
    "prefectureCode": "23",
    "prefectureNumber": 23,
    "prefecture": "愛知県",
    "city": "長久手市",
    "town": "鯉ケ廻間"
  }
}
