{
  "4810000": {
    "zipcode": "4810000",
    "prefectureCode": "23",
    "prefectureNumber": 23,
    "prefecture": "愛知県",
    "city": "北名古屋市",
    "town": "以下に掲載がない場合"
  },
  "4810001": {
    "zipcode": "4810001",
    "prefectureCode": "23",
    "prefectureNumber": 23,
    "prefecture": "愛知県",
    "city": "北名古屋市",
    "town": "六ツ師"
  },
  "4810002": {
    "zipcode": "4810002",
    "prefectureCode": "23",
    "prefectureNumber": 23,
    "prefecture": "愛知県",
    "city": "北名古屋市",
    "town": "片場"
  },
  "4810003": {
    "zipcode": "4810003",
    "prefectureCode": "23",
    "prefectureNumber": 23,
    "prefecture": "愛知県",
    "city": "北名古屋市",
    "town": "能田"
  },
  "4810004": {
    "zipcode": "4810004",
    "prefectureCode": "23",
    "prefectureNumber": 23,
    "prefecture": "愛知県",
    "city": "北名古屋市",
    "town": "鹿田"
  },
  "4810005": {
    "zipcode": "4810005",
    "prefectureCode": "23",
    "prefectureNumber": 23,
    "prefecture": "愛知県",
    "city": "北名古屋市",
    "town": "薬師寺"
  },
  "4810006": {
    "zipcode": "4810006",
    "prefectureCode": "23",
    "prefectureNumber": 23,
    "prefecture": "愛知県",
    "city": "北名古屋市",
    "town": "熊之庄"
  },
  "4810011": {
    "zipcode": "4810011",
    "prefectureCode": "23",
    "prefectureNumber": 23,
    "prefecture": "愛知県",
    "city": "北名古屋市",
    "town": "高田寺"
  },
  "4810012": {
    "zipcode": "4810012",
    "prefectureCode": "23",
    "prefectureNumber": 23,
    "prefecture": "愛知県",
    "city": "北名古屋市",
    "town": "久地野"
  },
  "4810013": {
    "zipcode": "4810013",
    "prefectureCode": "23",
    "prefectureNumber": 23,
    "prefecture": "愛知県",
    "city": "北名古屋市",
    "town": "二子"
  },
  "4810014": {
    "zipcode": "4810014",
    "prefectureCode": "23",
    "prefectureNumber": 23,
    "prefecture": "愛知県",
    "city": "北名古屋市",
    "town": "井瀬木"
  },
  "4810031": {
    "zipcode": "4810031",
    "prefectureCode": "23",
    "prefectureNumber": 23,
    "prefecture": "愛知県",
    "city": "北名古屋市",
    "town": "弥勒寺東"
  },
  "4810032": {
    "zipcode": "4810032",
    "prefectureCode": "23",
    "prefectureNumber": 23,
    "prefecture": "愛知県",
    "city": "北名古屋市",
    "town": "弥勒寺西"
  },
  "4810033": {
    "zipcode": "4810033",
    "prefectureCode": "23",
    "prefectureNumber": 23,
    "prefecture": "愛知県",
    "city": "北名古屋市",
    "town": "西之保"
  },
  "4810034": {
    "zipcode": "4810034",
    "prefectureCode": "23",
    "prefectureNumber": 23,
    "prefecture": "愛知県",
    "city": "北名古屋市",
    "town": "北野"
  },
  "4810035": {
    "zipcode": "4810035",
    "prefectureCode": "23",
    "prefectureNumber": 23,
    "prefecture": "愛知県",
    "city": "北名古屋市",
    "town": "宇福寺"
  },
  "4810036": {
    "zipcode": "4810036",
    "prefectureCode": "23",
    "prefectureNumber": 23,
    "prefecture": "愛知県",
    "city": "北名古屋市",
    "town": "山之腰"
  },
  "4810037": {
    "zipcode": "4810037",
    "prefectureCode": "23",
    "prefectureNumber": 23,
    "prefecture": "愛知県",
    "city": "北名古屋市",
    "town": "鍜治ケ一色"
  },
  "4810038": {
    "zipcode": "4810038",
    "prefectureCode": "23",
    "prefectureNumber": 23,
    "prefecture": "愛知県",
    "city": "北名古屋市",
    "town": "徳重"
  },
  "4810039": {
    "zipcode": "4810039",
    "prefectureCode": "23",
    "prefectureNumber": 23,
    "prefecture": "愛知県",
    "city": "北名古屋市",
    "town": "法成寺"
  },
  "4810040": {
    "zipcode": "4810040",
    "prefectureCode": "23",
    "prefectureNumber": 23,
    "prefecture": "愛知県",
    "city": "北名古屋市",
    "town": "西春駅前"
  },
  "4810041": {
    "zipcode": "4810041",
    "prefectureCode": "23",
    "prefectureNumber": 23,
    "prefecture": "愛知県",
    "city": "北名古屋市",
    "town": "九之坪"
  },
  "4810042": {
    "zipcode": "4810042",
    "prefectureCode": "23",
    "prefectureNumber": 23,
    "prefecture": "愛知県",
    "city": "北名古屋市",
    "town": "野崎"
  },
  "4810043": {
    "zipcode": "4810043",
    "prefectureCode": "23",
    "prefectureNumber": 23,
    "prefecture": "愛知県",
    "city": "北名古屋市",
    "town": "沖村"
  },
  "4810044": {
    "zipcode": "4810044",
    "prefectureCode": "23",
    "prefectureNumber": 23,
    "prefecture": "愛知県",
    "city": "北名古屋市",
    "town": "加島新田"
  },
  "4810045": {
    "zipcode": "4810045",
    "prefectureCode": "23",
    "prefectureNumber": 23,
    "prefecture": "愛知県",
    "city": "北名古屋市",
    "town": "中之郷"
  },
  "4810046": {
    "zipcode": "4810046",
    "prefectureCode": "23",
    "prefectureNumber": 23,
    "prefecture": "愛知県",
    "city": "北名古屋市",
    "town": "石橋"
  }
}
