{
  "4820000": {
    "zipcode": "4820000",
    "prefectureCode": "23",
    "prefectureNumber": 23,
    "prefecture": "愛知県",
    "city": "岩倉市",
    "town": "以下に掲載がない場合"
  },
  "4820001": {
    "zipcode": "4820001",
    "prefectureCode": "23",
    "prefectureNumber": 23,
    "prefecture": "愛知県",
    "city": "岩倉市",
    "town": "東新町"
  },
  "4820002": {
    "zipcode": "4820002",
    "prefectureCode": "23",
    "prefectureNumber": 23,
    "prefecture": "愛知県",
    "city": "岩倉市",
    "town": "大市場町"
  },
  "4820003": {
    "zipcode": "4820003",
    "prefectureCode": "23",
    "prefectureNumber": 23,
    "prefecture": "愛知県",
    "city": "岩倉市",
    "town": "曽野町"
  },
  "4820004": {
    "zipcode": "4820004",
    "prefectureCode": "23",
    "prefectureNumber": 23,
    "prefecture": "愛知県",
    "city": "岩倉市",
    "town": "五条町"
  },
  "4820005": {
    "zipcode": "4820005",
    "prefectureCode": "23",
    "prefectureNumber": 23,
    "prefecture": "愛知県",
    "city": "岩倉市",
    "town": "下本町"
  },
  "4820006": {
    "zipcode": "4820006",
    "prefectureCode": "23",
    "prefectureNumber": 23,
    "prefecture": "愛知県",
    "city": "岩倉市",
    "town": "稲荷町羽根"
  },
  "4820007": {
    "zipcode": "4820007",
    "prefectureCode": "23",
    "prefectureNumber": 23,
    "prefecture": "愛知県",
    "city": "岩倉市",
    "town": "大山寺元町"
  },
  "4820011": {
    "zipcode": "4820011",
    "prefectureCode": "23",
    "prefectureNumber": 23,
    "prefecture": "愛知県",
    "city": "岩倉市",
    "town": "昭和町"
  },
  "4820012": {
    "zipcode": "4820012",
    "prefectureCode": "23",
    "prefectureNumber": 23,
    "prefecture": "愛知県",
    "city": "岩倉市",
    "town": "稲荷町"
  },
  "4820013": {
    "zipcode": "4820013",
    "prefectureCode": "23",
    "prefectureNumber": 23,
    "prefecture": "愛知県",
    "city": "岩倉市",
    "town": "南新町"
  },
  "4820014": {
    "zipcode": "4820014",
    "prefectureCode": "23",
    "prefectureNumber": 23,
    "prefecture": "愛知県",
    "city": "岩倉市",
    "town": "大山寺町"
  },
  "4820015": {
    "zipcode": "4820015",
    "prefectureCode": "23",
    "prefectureNumber": 23,
    "prefecture": "愛知県",
    "city": "岩倉市",
    "town": "川井町"
  },
  "4820016": {
    "zipcode": "4820016",
    "prefectureCode": "23",
    "prefectureNumber": 23,
    "prefecture": "愛知県",
    "city": "岩倉市",
    "town": "野寄町"
  },
  "4820017": {
    "zipcode": "4820017",
    "prefectureCode": "23",
    "prefectureNumber": 23,
    "prefecture": "愛知県",
    "city": "岩倉市",
    "town": "北島町"
  },
  "4820018": {
    "zipcode": "4820018",
    "prefectureCode": "23",
    "prefectureNumber": 23,
    "prefecture": "愛知県",
    "city": "岩倉市",
    "town": "大山寺本町"
  },
  "4820021": {
    "zipcode": "4820021",
    "prefectureCode": "23",
    "prefectureNumber": 23,
    "prefecture": "愛知県",
    "city": "岩倉市",
    "town": "新柳町"
  },
  "4820022": {
    "zipcode": "4820022",
    "prefectureCode": "23",
    "prefectureNumber": 23,
    "prefecture": "愛知県",
    "city": "岩倉市",
    "town": "栄町"
  },
  "4820023": {
    "zipcode": "4820023",
    "prefectureCode": "23",
    "prefectureNumber": 23,
    "prefecture": "愛知県",
    "city": "岩倉市",
    "town": "中央町"
  },
  "4820024": {
    "zipcode": "4820024",
    "prefectureCode": "23",
    "prefectureNumber": 23,
    "prefecture": "愛知県",
    "city": "岩倉市",
    "town": "旭町"
  },
  "4820025": {
    "zipcode": "4820025",
    "prefectureCode": "23",
    "prefectureNumber": 23,
    "prefecture": "愛知県",
    "city": "岩倉市",
    "town": "大地新町"
  },
  "4820026": {
    "zipcode": "4820026",
    "prefectureCode": "23",
    "prefectureNumber": 23,
    "prefecture": "愛知県",
    "city": "岩倉市",
    "town": "大地町"
  },
  "4820031": {
    "zipcode": "4820031",
    "prefectureCode": "23",
    "prefectureNumber": 23,
    "prefecture": "愛知県",
    "city": "岩倉市",
    "town": "八剱町"
  },
  "4820032": {
    "zipcode": "4820032",
    "prefectureCode": "23",
    "prefectureNumber": 23,
    "prefecture": "愛知県",
    "city": "岩倉市",
    "town": "井上町"
  },
  "4820033": {
    "zipcode": "4820033",
    "prefectureCode": "23",
    "prefectureNumber": 23,
    "prefecture": "愛知県",
    "city": "岩倉市",
    "town": "神野町"
  },
  "4820034": {
    "zipcode": "4820034",
    "prefectureCode": "23",
    "prefectureNumber": 23,
    "prefecture": "愛知県",
    "city": "岩倉市",
    "town": "石仏町"
  },
  "4820035": {
    "zipcode": "4820035",
    "prefectureCode": "23",
    "prefectureNumber": 23,
    "prefecture": "愛知県",
    "city": "岩倉市",
    "town": "鈴井町"
  },
  "4820036": {
    "zipcode": "4820036",
    "prefectureCode": "23",
    "prefectureNumber": 23,
    "prefecture": "愛知県",
    "city": "岩倉市",
    "town": "西市町"
  },
  "4820041": {
    "zipcode": "4820041",
    "prefectureCode": "23",
    "prefectureNumber": 23,
    "prefecture": "愛知県",
    "city": "岩倉市",
    "town": "東町"
  },
  "4820042": {
    "zipcode": "4820042",
    "prefectureCode": "23",
    "prefectureNumber": 23,
    "prefecture": "愛知県",
    "city": "岩倉市",
    "town": "中本町"
  },
  "4820043": {
    "zipcode": "4820043",
    "prefectureCode": "23",
    "prefectureNumber": 23,
    "prefecture": "愛知県",
    "city": "岩倉市",
    "town": "本町"
  },
  "4820044": {
    "zipcode": "4820044",
    "prefectureCode": "23",
    "prefectureNumber": 23,
    "prefecture": "愛知県",
    "city": "岩倉市",
    "town": "宮前町"
  },
  "4820045": {
    "zipcode": "4820045",
    "prefectureCode": "23",
    "prefectureNumber": 23,
    "prefecture": "愛知県",
    "city": "岩倉市",
    "town": "泉町"
  },
  "4820046": {
    "zipcode": "4820046",
    "prefectureCode": "23",
    "prefectureNumber": 23,
    "prefecture": "愛知県",
    "city": "岩倉市",
    "town": "中野町"
  }
}
