{
  "4840000": {
    "zipcode": "4840000",
    "prefectureCode": "23",
    "prefectureNumber": 23,
    "prefecture": "愛知県",
    "city": "犬山市",
    "town": "以下に掲載がない場合"
  },
  "4840001": {
    "zipcode": "4840001",
    "prefectureCode": "23",
    "prefectureNumber": 23,
    "prefecture": "愛知県",
    "city": "犬山市",
    "town": "垣ノ内"
  },
  "4840002": {
    "zipcode": "4840002",
    "prefectureCode": "23",
    "prefectureNumber": 23,
    "prefecture": "愛知県",
    "city": "犬山市",
    "town": "栗栖"
  },
  "4840003": {
    "zipcode": "4840003",
    "prefectureCode": "23",
    "prefectureNumber": 23,
    "prefecture": "愛知県",
    "city": "犬山市",
    "town": "善師野"
  },
  "4840004": {
    "zipcode": "4840004",
    "prefectureCode": "23",
    "prefectureNumber": 23,
    "prefecture": "愛知県",
    "city": "犬山市",
    "town": "善師野台"
  },
  "4840005": {
    "zipcode": "4840005",
    "prefectureCode": "23",
    "prefectureNumber": 23,
    "prefecture": "愛知県",
    "city": "犬山市",
    "town": "今井"
  },
  "4840006": {
    "zipcode": "4840006",
    "prefectureCode": "23",
    "prefectureNumber": 23,
    "prefecture": "愛知県",
    "city": "犬山市",
    "town": "八曽"
  },
  "4840007": {
    "zipcode": "4840007",
    "prefectureCode": "23",
    "prefectureNumber": 23,
    "prefecture": "愛知県",
    "city": "犬山市",
    "town": "十三塚"
  },
  "4840008": {
    "zipcode": "4840008",
    "prefectureCode": "23",
    "prefectureNumber": 23,
    "prefecture": "愛知県",
    "city": "犬山市",
    "town": "岩穴"
  },
  "4840009": {
    "zipcode": "4840009",
    "prefectureCode": "23",
    "prefectureNumber": 23,
    "prefecture": "愛知県",
    "city": "犬山市",
    "town": "田口"
  },
  "4840011": {
    "zipcode": "4840011",
    "prefectureCode": "23",
    "prefectureNumber": 23,
    "prefecture": "愛知県",
    "city": "犬山市",
    "town": "北高根"
  },
  "4840012": {
    "zipcode": "4840012",
    "prefectureCode": "23",
    "prefectureNumber": 23,
    "prefecture": "愛知県",
    "city": "犬山市",
    "town": "南高根"
  },
  "4840013": {
    "zipcode": "4840013",
    "prefectureCode": "23",
    "prefectureNumber": 23,
    "prefecture": "愛知県",
    "city": "犬山市",
    "town": "寺洞"
  },
  "4840014": {
    "zipcode": "4840014",
    "prefectureCode": "23",
    "prefectureNumber": 23,
    "prefecture": "愛知県",
    "city": "犬山市",
    "town": "郷中"
  },
  "4840015": {
    "zipcode": "4840015",
    "prefectureCode": "23",
    "prefectureNumber": 23,
    "prefecture": "愛知県",
    "city": "犬山市",
    "town": "御殿屋敷"
  },
  "4840016": {
    "zipcode": "4840016",
    "prefectureCode": "23",
    "prefectureNumber": 23,
    "prefecture": "愛知県",
    "city": "犬山市",
    "town": "藪ケ洞"
  },
  "4840017": {
    "zipcode": "4840017",
    "prefectureCode": "23",
    "prefectureNumber": 23,
    "prefecture": "愛知県",
    "city": "犬山市",
    "town": "篠平"
  },
  "4840018": {
    "zipcode": "4840018",
    "prefectureCode": "23",
    "prefectureNumber": 23,
    "prefecture": "愛知県",
    "city": "犬山市",
    "town": "佐ケ瀬"
  },
  "4840019": {
    "zipcode": "4840019",
    "prefectureCode": "23",
    "prefectureNumber": 23,
    "prefecture": "愛知県",
    "city": "犬山市",
    "town": "四季の丘"
  },
  "4840020": {
    "zipcode": "4840020",
    "prefectureCode": "23",
    "prefectureNumber": 23,
    "prefecture": "愛知県",
    "city": "犬山市",
    "town": "もえぎケ丘"
  },
  "4840021": {
    "zipcode": "4840021",
    "prefectureCode": "23",
    "prefectureNumber": 23,
    "prefecture": "愛知県",
    "city": "犬山市",
    "town": "杁下"
  },
  "4840022": {
    "zipcode": "4840022",
    "prefectureCode": "23",
    "prefectureNumber": 23,
    "prefecture": "愛知県",
    "city": "犬山市",
    "town": "白山洞"
  },
  "4840023": {
    "zipcode": "4840023",
    "prefectureCode": "23",
    "prefectureNumber": 23,
    "prefecture": "愛知県",
    "city": "犬山市",
    "town": "堤下"
  },
  "4840024": {
    "zipcode": "4840024",
    "prefectureCode": "23",
    "prefectureNumber": 23,
    "prefecture": "愛知県",
    "city": "犬山市",
    "town": "喜六屋敷"
  },
  "4840025": {
    "zipcode": "4840025",
    "prefectureCode": "23",
    "prefectureNumber": 23,
    "prefecture": "愛知県",
    "city": "犬山市",
    "town": "野中"
  },
  "4840026": {
    "zipcode": "4840026",
    "prefectureCode": "23",
    "prefectureNumber": 23,
    "prefecture": "愛知県",
    "city": "犬山市",
    "town": "内屋敷"
  },
  "4840027": {
    "zipcode": "4840027",
    "prefectureCode": "23",
    "prefectureNumber": 23,
    "prefecture": "愛知県",
    "city": "犬山市",
    "town": "倉曽洞"
  },
  "4840028": {
    "zipcode": "4840028",
    "prefectureCode": "23",
    "prefectureNumber": 23,
    "prefecture": "愛知県",
    "city": "犬山市",
    "town": "向田"
  },
  "4840029": {
    "zipcode": "4840029",
    "prefectureCode": "23",
    "prefectureNumber": 23,
    "prefecture": "愛知県",
    "city": "犬山市",
    "town": "西洞"
  },
  "4840031": {
    "zipcode": "4840031",
    "prefectureCode": "23",
    "prefectureNumber": 23,
    "prefecture": "愛知県",
    "city": "犬山市",
    "town": "東桑原"
  },
  "4840032": {
    "zipcode": "4840032",
    "prefectureCode": "23",
    "prefectureNumber": 23,
    "prefecture": "愛知県",
    "city": "犬山市",
    "town": "池野安楽寺"
  },
  "4840033": {
    "zipcode": "4840033",
    "prefectureCode": "23",
    "prefectureNumber": 23,
    "prefecture": "愛知県",
    "city": "犬山市",
    "town": "井ノ元"
  },
  "4840034": {
    "zipcode": "4840034",
    "prefectureCode": "23",
    "prefectureNumber": 23,
    "prefecture": "愛知県",
    "city": "犬山市",
    "town": "大洞"
  },
  "4840035": {
    "zipcode": "4840035",
    "prefectureCode": "23",
    "prefectureNumber": 23,
    "prefecture": "愛知県",
    "city": "犬山市",
    "town": "裏山"
  },
  "4840036": {
    "zipcode": "4840036",
    "prefectureCode": "23",
    "prefectureNumber": 23,
    "prefecture": "愛知県",
    "city": "犬山市",
    "town": "西桑原"
  },
  "4840037": {
    "zipcode": "4840037",
    "prefectureCode": "23",
    "prefectureNumber": 23,
    "prefecture": "愛知県",
    "city": "犬山市",
    "town": "西片草"
  },
  "4840038": {
    "zipcode": "4840038",
    "prefectureCode": "23",
    "prefectureNumber": 23,
    "prefecture": "愛知県",
    "city": "犬山市",
    "town": "東片草"
  },
  "4840041": {
    "zipcode": "4840041",
    "prefectureCode": "23",
    "prefectureNumber": 23,
    "prefecture": "愛知県",
    "city": "犬山市",
    "town": "長者町"
  },
  "4840042": {
    "zipcode": "4840042",
    "prefectureCode": "23",
    "prefectureNumber": 23,
    "prefecture": "愛知県",
    "city": "犬山市",
    "town": "二本木"
  },
  "4840043": {
    "zipcode": "4840043",
    "prefectureCode": "23",
    "prefectureNumber": 23,
    "prefecture": "愛知県",
    "city": "犬山市",
    "town": "上ノ田"
  },
  "4840044": {
    "zipcode": "4840044",
    "prefectureCode": "23",
    "prefectureNumber": 23,
    "prefecture": "愛知県",
    "city": "犬山市",
    "town": "下屋敷"
  },
  "4840045": {
    "zipcode": "4840045",
    "prefectureCode": "23",
    "prefectureNumber": 23,
    "prefecture": "愛知県",
    "city": "犬山市",
    "town": "仲畑"
  },
  "4840046": {
    "zipcode": "4840046",
    "prefectureCode": "23",
    "prefectureNumber": 23,
    "prefecture": "愛知県",
    "city": "犬山市",
    "town": "屋敷裏"
  },
  "4840047": {
    "zipcode": "4840047",
    "prefectureCode": "23",
    "prefectureNumber": 23,
    "prefecture": "愛知県",
    "city": "犬山市",
    "town": "内久保"
  },
  "4840048": {
    "zipcode": "4840048",
    "prefectureCode": "23",
    "prefectureNumber": 23,
    "prefecture": "愛知県",
    "city": "犬山市",
    "town": "楽田内久保"
  },
  "4840049": {
    "zipcode": "4840049",
    "prefectureCode": "23",
    "prefectureNumber": 23,
    "prefecture": "愛知県",
    "city": "犬山市",
    "town": "前田面"
  },
  "4840051": {
    "zipcode": "4840051",
    "prefectureCode": "23",
    "prefectureNumber": 23,
    "prefecture": "愛知県",
    "city": "犬山市",
    "town": "宮裏"
  },
  "4840052": {
    "zipcode": "4840052",
    "prefectureCode": "23",
    "prefectureNumber": 23,
    "prefecture": "愛知県",
    "city": "犬山市",
    "town": "早稲田"
  },
  "4840053": {
    "zipcode": "4840053",
    "prefectureCode": "23",
    "prefectureNumber": 23,
    "prefecture": "愛知県",
    "city": "犬山市",
    "town": "石畑"
  },
  "4840054": {
    "zipcode": "4840054",
    "prefectureCode": "23",
    "prefectureNumber": 23,
    "prefecture": "愛知県",
    "city": "犬山市",
    "town": "仲屋敷"
  },
  "4840055": {
    "zipcode": "4840055",
    "prefectureCode": "23",
    "prefectureNumber": 23,
    "prefecture": "愛知県",
    "city": "犬山市",
    "town": "牛岩"
  },
  "4840056": {
    "zipcode": "4840056",
    "prefectureCode": "23",
    "prefectureNumber": 23,
    "prefecture": "愛知県",
    "city": "犬山市",
    "town": "稲干場"
  },
  "4840057": {
    "zipcode": "4840057",
    "prefectureCode": "23",
    "prefectureNumber": 23,
    "prefecture": "愛知県",
    "city": "犬山市",
    "town": "富士山"
  },
  "4840058": {
    "zipcode": "4840058",
    "prefectureCode": "23",
    "prefectureNumber": 23,
    "prefecture": "愛知県",
    "city": "犬山市",
    "town": "大門"
  },
  "4840059": {
    "zipcode": "4840059",
    "prefectureCode": "23",
    "prefectureNumber": 23,
    "prefecture": "愛知県",
    "city": "犬山市",
    "town": "上坂町"
  },
  "4840061": {
    "zipcode": "4840061",
    "prefectureCode": "23",
    "prefectureNumber": 23,
    "prefecture": "愛知県",
    "city": "犬山市",
    "town": "前原"
  },
  "4840062": {
    "zipcode": "4840062",
    "prefectureCode": "23",
    "prefectureNumber": 23,
    "prefecture": "愛知県",
    "city": "犬山市",
    "town": "前原味鹿"
  },
  "4840063": {
    "zipcode": "4840063",
    "prefectureCode": "23",
    "prefectureNumber": 23,
    "prefecture": "愛知県",
    "city": "犬山市",
    "town": "前原南"
  },
  "4840064": {
    "zipcode": "4840064",
    "prefectureCode": "23",
    "prefectureNumber": 23,
    "prefecture": "愛知県",
    "city": "犬山市",
    "town": "前原西"
  },
  "4840065": {
    "zipcode": "4840065",
    "prefectureCode": "23",
    "prefectureNumber": 23,
    "prefecture": "愛知県",
    "city": "犬山市",
    "town": "五郎丸東"
  },
  "4840066": {
    "zipcode": "4840066",
    "prefectureCode": "23",
    "prefectureNumber": 23,
    "prefecture": "愛知県",
    "city": "犬山市",
    "town": "五郎丸"
  },
  "4840071": {
    "zipcode": "4840071",
    "prefectureCode": "23",
    "prefectureNumber": 23,
    "prefecture": "愛知県",
    "city": "犬山市",
    "town": "内田東町"
  },
  "4840072": {
    "zipcode": "4840072",
    "prefectureCode": "23",
    "prefectureNumber": 23,
    "prefecture": "愛知県",
    "city": "犬山市",
    "town": "丸山天白町"
  },
  "4840073": {
    "zipcode": "4840073",
    "prefectureCode": "23",
    "prefectureNumber": 23,
    "prefecture": "愛知県",
    "city": "犬山市",
    "town": "天神町"
  },
  "4840074": {
    "zipcode": "4840074",
    "prefectureCode": "23",
    "prefectureNumber": 23,
    "prefecture": "愛知県",
    "city": "犬山市",
    "town": "梅坪"
  },
  "4840075": {
    "zipcode": "4840075",
    "prefectureCode": "23",
    "prefectureNumber": 23,
    "prefecture": "愛知県",
    "city": "犬山市",
    "town": "橋爪東"
  },
  "4840076": {
    "zipcode": "4840076",
    "prefectureCode": "23",
    "prefectureNumber": 23,
    "prefecture": "愛知県",
    "city": "犬山市",
    "town": "橋爪"
  },
  "4840077": {
    "zipcode": "4840077",
    "prefectureCode": "23",
    "prefectureNumber": 23,
    "prefecture": "愛知県",
    "city": "犬山市",
    "town": "上野"
  },
  "4840078": {
    "zipcode": "4840078",
    "prefectureCode": "23",
    "prefectureNumber": 23,
    "prefecture": "愛知県",
    "city": "犬山市",
    "town": "上野新町"
  },
  "4840079": {
    "zipcode": "4840079",
    "prefectureCode": "23",
    "prefectureNumber": 23,
    "prefecture": "愛知県",
    "city": "犬山市",
    "town": "木津"
  },
  "4840081": {
    "zipcode": "4840081",
    "prefectureCode": "23",
    "prefectureNumber": 23,
    "prefecture": "愛知県",
    "city": "犬山市",
    "town": "犬山"
  },
  "4840082": {
    "zipcode": "4840082",
    "prefectureCode": "23",
    "prefectureNumber": 23,
    "prefecture": "愛知県",
    "city": "犬山市",
    "town": "北古券"
  },
  "4840083": {
    "zipcode": "4840083",
    "prefectureCode": "23",
    "prefectureNumber": 23,
    "prefecture": "愛知県",
    "city": "犬山市",
    "town": "東古券"
  },
  "4840084": {
    "zipcode": "4840084",
    "prefectureCode": "23",
    "prefectureNumber": 23,
    "prefecture": "愛知県",
    "city": "犬山市",
    "town": "南古券"
  },
  "4840085": {
    "zipcode": "4840085",
    "prefectureCode": "23",
    "prefectureNumber": 23,
    "prefecture": "愛知県",
    "city": "犬山市",
    "town": "西古券"
  },
  "4840086": {
    "zipcode": "4840086",
    "prefectureCode": "23",
    "prefectureNumber": 23,
    "prefecture": "愛知県",
    "city": "犬山市",
    "town": "松本町"
  },
  "4840087": {
    "zipcode": "4840087",
    "prefectureCode": "23",
    "prefectureNumber": 23,
    "prefecture": "愛知県",
    "city": "犬山市",
    "town": "中山町"
  },
  "4840091": {
    "zipcode": "4840091",
    "prefectureCode": "23",
    "prefectureNumber": 23,
    "prefecture": "愛知県",
    "city": "犬山市",
    "town": "継鹿尾"
  },
  "4840092": {
    "zipcode": "4840092",
    "prefectureCode": "23",
    "prefectureNumber": 23,
    "prefecture": "愛知県",
    "city": "犬山市",
    "town": "富岡"
  },
  "4840093": {
    "zipcode": "4840093",
    "prefectureCode": "23",
    "prefectureNumber": 23,
    "prefecture": "愛知県",
    "city": "犬山市",
    "town": "富岡東"
  },
  "4840094": {
    "zipcode": "4840094",
    "prefectureCode": "23",
    "prefectureNumber": 23,
    "prefecture": "愛知県",
    "city": "犬山市",
    "town": "塔野地"
  },
  "4840095": {
    "zipcode": "4840095",
    "prefectureCode": "23",
    "prefectureNumber": 23,
    "prefecture": "愛知県",
    "city": "犬山市",
    "town": "塔野地杉"
  },
  "4840096": {
    "zipcode": "4840096",
    "prefectureCode": "23",
    "prefectureNumber": 23,
    "prefecture": "愛知県",
    "city": "犬山市",
    "town": "塔野地西"
  },
  "4840097": {
    "zipcode": "4840097",
    "prefectureCode": "23",
    "prefectureNumber": 23,
    "prefecture": "愛知県",
    "city": "犬山市",
    "town": "塔野地北"
  },
  "4840098": {
    "zipcode": "4840098",
    "prefectureCode": "23",
    "prefectureNumber": 23,
    "prefecture": "愛知県",
    "city": "犬山市",
    "town": "富岡南"
  },
  "4840099": {
    "zipcode": "4840099",
    "prefectureCode": "23",
    "prefectureNumber": 23,
    "prefecture": "愛知県",
    "city": "犬山市",
    "town": "富岡新町"
  },
  "4840801": {
    "zipcode": "4840801",
    "prefectureCode": "23",
    "prefectureNumber": 23,
    "prefecture": "愛知県",
    "city": "犬山市",
    "town": "羽黒安戸南"
  },
  "4840802": {
    "zipcode": "4840802",
    "prefectureCode": "23",
    "prefectureNumber": 23,
    "prefecture": "愛知県",
    "city": "犬山市",
    "town": "羽黒安戸西"
  },
  "4840803": {
    "zipcode": "4840803",
    "prefectureCode": "23",
    "prefectureNumber": 23,
    "prefecture": "愛知県",
    "city": "犬山市",
    "town": "羽黒新赤坂"
  },
  "4840804": {
    "zipcode": "4840804",
    "prefectureCode": "23",
    "prefectureNumber": 23,
    "prefecture": "愛知県",
    "city": "犬山市",
    "town": "羽黒桜海道"
  },
  "4840805": {
    "zipcode": "4840805",
    "prefectureCode": "23",
    "prefectureNumber": 23,
    "prefecture": "愛知県",
    "city": "犬山市",
    "town": "羽黒新外山"
  },
  "4840806": {
    "zipcode": "4840806",
    "prefectureCode": "23",
    "prefectureNumber": 23,
    "prefecture": "愛知県",
    "city": "犬山市",
    "town": "羽黒朝日"
  },
  "4840807": {
    "zipcode": "4840807",
    "prefectureCode": "23",
    "prefectureNumber": 23,
    "prefecture": "愛知県",
    "city": "犬山市",
    "town": "羽黒鉾添"
  },
  "4840811": {
    "zipcode": "4840811",
    "prefectureCode": "23",
    "prefectureNumber": 23,
    "prefecture": "愛知県",
    "city": "犬山市",
    "town": "楽田長塚東"
  },
  "4840812": {
    "zipcode": "4840812",
    "prefectureCode": "23",
    "prefectureNumber": 23,
    "prefecture": "愛知県",
    "city": "犬山市",
    "town": "山ノ田"
  },
  "4840813": {
    "zipcode": "4840813",
    "prefectureCode": "23",
    "prefectureNumber": 23,
    "prefecture": "愛知県",
    "city": "犬山市",
    "town": "山ノ田腰"
  },
  "4840814": {
    "zipcode": "4840814",
    "prefectureCode": "23",
    "prefectureNumber": 23,
    "prefecture": "愛知県",
    "city": "犬山市",
    "town": "高根"
  },
  "4840815": {
    "zipcode": "4840815",
    "prefectureCode": "23",
    "prefectureNumber": 23,
    "prefecture": "愛知県",
    "city": "犬山市",
    "town": "郷東"
  },
  "4840816": {
    "zipcode": "4840816",
    "prefectureCode": "23",
    "prefectureNumber": 23,
    "prefecture": "愛知県",
    "city": "犬山市",
    "town": "楽田原東"
  },
  "4840817": {
    "zipcode": "4840817",
    "prefectureCode": "23",
    "prefectureNumber": 23,
    "prefecture": "愛知県",
    "city": "犬山市",
    "town": "郷西"
  },
  "4840818": {
    "zipcode": "4840818",
    "prefectureCode": "23",
    "prefectureNumber": 23,
    "prefecture": "愛知県",
    "city": "犬山市",
    "town": "北浦"
  },
  "4840819": {
    "zipcode": "4840819",
    "prefectureCode": "23",
    "prefectureNumber": 23,
    "prefecture": "愛知県",
    "city": "犬山市",
    "town": "楽田長塚西"
  },
  "4840821": {
    "zipcode": "4840821",
    "prefectureCode": "23",
    "prefectureNumber": 23,
    "prefecture": "愛知県",
    "city": "犬山市",
    "town": "山崎西"
  },
  "4840822": {
    "zipcode": "4840822",
    "prefectureCode": "23",
    "prefectureNumber": 23,
    "prefecture": "愛知県",
    "city": "犬山市",
    "town": "中切"
  },
  "4840823": {
    "zipcode": "4840823",
    "prefectureCode": "23",
    "prefectureNumber": 23,
    "prefecture": "愛知県",
    "city": "犬山市",
    "town": "北大門"
  },
  "4840824": {
    "zipcode": "4840824",
    "prefectureCode": "23",
    "prefectureNumber": 23,
    "prefecture": "愛知県",
    "city": "犬山市",
    "town": "北洞"
  },
  "4840825": {
    "zipcode": "4840825",
    "prefectureCode": "23",
    "prefectureNumber": 23,
    "prefecture": "愛知県",
    "city": "犬山市",
    "town": "常福寺洞"
  },
  "4840826": {
    "zipcode": "4840826",
    "prefectureCode": "23",
    "prefectureNumber": 23,
    "prefecture": "愛知県",
    "city": "犬山市",
    "town": "山ノ鼻"
  },
  "4840827": {
    "zipcode": "4840827",
    "prefectureCode": "23",
    "prefectureNumber": 23,
    "prefecture": "愛知県",
    "city": "犬山市",
    "town": "薬師前"
  },
  "4840828": {
    "zipcode": "4840828",
    "prefectureCode": "23",
    "prefectureNumber": 23,
    "prefecture": "愛知県",
    "city": "犬山市",
    "town": "薬師浦"
  },
  "4840831": {
    "zipcode": "4840831",
    "prefectureCode": "23",
    "prefectureNumber": 23,
    "prefecture": "愛知県",
    "city": "犬山市",
    "town": "堂屋敷"
  },
  "4840832": {
    "zipcode": "4840832",
    "prefectureCode": "23",
    "prefectureNumber": 23,
    "prefecture": "愛知県",
    "city": "犬山市",
    "town": "向山"
  },
  "4840833": {
    "zipcode": "4840833",
    "prefectureCode": "23",
    "prefectureNumber": 23,
    "prefecture": "愛知県",
    "city": "犬山市",
    "town": "宮西"
  },
  "4840834": {
    "zipcode": "4840834",
    "prefectureCode": "23",
    "prefectureNumber": 23,
    "prefecture": "愛知県",
    "city": "犬山市",
    "town": "宮山"
  },
  "4840835": {
    "zipcode": "4840835",
    "prefectureCode": "23",
    "prefectureNumber": 23,
    "prefecture": "愛知県",
    "city": "犬山市",
    "town": "蓮池"
  },
  "4840836": {
    "zipcode": "4840836",
    "prefectureCode": "23",
    "prefectureNumber": 23,
    "prefecture": "愛知県",
    "city": "犬山市",
    "town": "笛田"
  },
  "4840837": {
    "zipcode": "4840837",
    "prefectureCode": "23",
    "prefectureNumber": 23,
    "prefecture": "愛知県",
    "city": "犬山市",
    "town": "荒井"
  },
  "4840838": {
    "zipcode": "4840838",
    "prefectureCode": "23",
    "prefectureNumber": 23,
    "prefecture": "愛知県",
    "city": "犬山市",
    "town": "小路"
  },
  "4840839": {
    "zipcode": "4840839",
    "prefectureCode": "23",
    "prefectureNumber": 23,
    "prefecture": "愛知県",
    "city": "犬山市",
    "town": "桃山台"
  },
  "4840841": {
    "zipcode": "4840841",
    "prefectureCode": "23",
    "prefectureNumber": 23,
    "prefecture": "愛知県",
    "city": "犬山市",
    "town": "楽田小針"
  },
  "4840842": {
    "zipcode": "4840842",
    "prefectureCode": "23",
    "prefectureNumber": 23,
    "prefecture": "愛知県",
    "city": "犬山市",
    "town": "下小針"
  },
  "4840843": {
    "zipcode": "4840843",
    "prefectureCode": "23",
    "prefectureNumber": 23,
    "prefecture": "愛知県",
    "city": "犬山市",
    "town": "楽田打越"
  },
  "4840844": {
    "zipcode": "4840844",
    "prefectureCode": "23",
    "prefectureNumber": 23,
    "prefecture": "愛知県",
    "city": "犬山市",
    "town": "鷺山"
  },
  "4840845": {
    "zipcode": "4840845",
    "prefectureCode": "23",
    "prefectureNumber": 23,
    "prefecture": "愛知県",
    "city": "犬山市",
    "town": "高坪"
  },
  "4840846": {
    "zipcode": "4840846",
    "prefectureCode": "23",
    "prefectureNumber": 23,
    "prefecture": "愛知県",
    "city": "犬山市",
    "town": "楽田山ノ田"
  },
  "4840851": {
    "zipcode": "4840851",
    "prefectureCode": "23",
    "prefectureNumber": 23,
    "prefecture": "愛知県",
    "city": "犬山市",
    "town": "烏杜"
  },
  "4840852": {
    "zipcode": "4840852",
    "prefectureCode": "23",
    "prefectureNumber": 23,
    "prefecture": "愛知県",
    "city": "犬山市",
    "town": "中小針"
  },
  "4840853": {
    "zipcode": "4840853",
    "prefectureCode": "23",
    "prefectureNumber": 23,
    "prefecture": "愛知県",
    "city": "犬山市",
    "town": "横町"
  },
  "4840854": {
    "zipcode": "4840854",
    "prefectureCode": "23",
    "prefectureNumber": 23,
    "prefecture": "愛知県",
    "city": "犬山市",
    "town": "裏之門"
  },
  "4840855": {
    "zipcode": "4840855",
    "prefectureCode": "23",
    "prefectureNumber": 23,
    "prefecture": "愛知県",
    "city": "犬山市",
    "town": "小洞"
  },
  "4840856": {
    "zipcode": "4840856",
    "prefectureCode": "23",
    "prefectureNumber": 23,
    "prefecture": "愛知県",
    "city": "犬山市",
    "town": "楽田天神"
  },
  "4840857": {
    "zipcode": "4840857",
    "prefectureCode": "23",
    "prefectureNumber": 23,
    "prefecture": "愛知県",
    "city": "犬山市",
    "town": "外屋敷"
  },
  "4840858": {
    "zipcode": "4840858",
    "prefectureCode": "23",
    "prefectureNumber": 23,
    "prefecture": "愛知県",
    "city": "犬山市",
    "town": "城山"
  },
  "4840861": {
    "zipcode": "4840861",
    "prefectureCode": "23",
    "prefectureNumber": 23,
    "prefecture": "愛知県",
    "city": "犬山市",
    "town": "若宮"
  },
  "4840862": {
    "zipcode": "4840862",
    "prefectureCode": "23",
    "prefectureNumber": 23,
    "prefecture": "愛知県",
    "city": "犬山市",
    "town": "石塚"
  },
  "4840863": {
    "zipcode": "4840863",
    "prefectureCode": "23",
    "prefectureNumber": 23,
    "prefecture": "愛知県",
    "city": "犬山市",
    "town": "野田"
  },
  "4840864": {
    "zipcode": "4840864",
    "prefectureCode": "23",
    "prefectureNumber": 23,
    "prefecture": "愛知県",
    "city": "犬山市",
    "town": "番前"
  },
  "4840865": {
    "zipcode": "4840865",
    "prefectureCode": "23",
    "prefectureNumber": 23,
    "prefecture": "愛知県",
    "city": "犬山市",
    "town": "藪畔"
  },
  "4840866": {
    "zipcode": "4840866",
    "prefectureCode": "23",
    "prefectureNumber": 23,
    "prefecture": "愛知県",
    "city": "犬山市",
    "town": "寺西"
  },
  "4840867": {
    "zipcode": "4840867",
    "prefectureCode": "23",
    "prefectureNumber": 23,
    "prefecture": "愛知県",
    "city": "犬山市",
    "town": "九左エ門廻り"
  },
  "4840868": {
    "zipcode": "4840868",
    "prefectureCode": "23",
    "prefectureNumber": 23,
    "prefecture": "愛知県",
    "city": "犬山市",
    "town": "東北野"
  },
  "4840869": {
    "zipcode": "4840869",
    "prefectureCode": "23",
    "prefectureNumber": 23,
    "prefecture": "愛知県",
    "city": "犬山市",
    "town": "惣作"
  },
  "4840871": {
    "zipcode": "4840871",
    "prefectureCode": "23",
    "prefectureNumber": 23,
    "prefecture": "愛知県",
    "city": "犬山市",
    "town": "前並"
  },
  "4840872": {
    "zipcode": "4840872",
    "prefectureCode": "23",
    "prefectureNumber": 23,
    "prefecture": "愛知県",
    "city": "犬山市",
    "town": "岩田"
  },
  "4840873": {
    "zipcode": "4840873",
    "prefectureCode": "23",
    "prefectureNumber": 23,
    "prefecture": "愛知県",
    "city": "犬山市",
    "town": "天王前"
  },
  "4840874": {
    "zipcode": "4840874",
    "prefectureCode": "23",
    "prefectureNumber": 23,
    "prefecture": "愛知県",
    "city": "犬山市",
    "town": "楽田今村"
  },
  "4840875": {
    "zipcode": "4840875",
    "prefectureCode": "23",
    "prefectureNumber": 23,
    "prefecture": "愛知県",
    "city": "犬山市",
    "town": "林吾塚"
  },
  "4840876": {
    "zipcode": "4840876",
    "prefectureCode": "23",
    "prefectureNumber": 23,
    "prefecture": "愛知県",
    "city": "犬山市",
    "town": "山神"
  },
  "4840877": {
    "zipcode": "4840877",
    "prefectureCode": "23",
    "prefectureNumber": 23,
    "prefecture": "愛知県",
    "city": "犬山市",
    "town": "楽田東追分"
  },
  "4840878": {
    "zipcode": "4840878",
    "prefectureCode": "23",
    "prefectureNumber": 23,
    "prefecture": "愛知県",
    "city": "犬山市",
    "town": "栗林"
  },
  "4840879": {
    "zipcode": "4840879",
    "prefectureCode": "23",
    "prefectureNumber": 23,
    "prefecture": "愛知県",
    "city": "犬山市",
    "town": "楽田三ツ塚"
  },
  "4840881": {
    "zipcode": "4840881",
    "prefectureCode": "23",
    "prefectureNumber": 23,
    "prefecture": "愛知県",
    "city": "犬山市",
    "town": "羽黒成海西"
  },
  "4840882": {
    "zipcode": "4840882",
    "prefectureCode": "23",
    "prefectureNumber": 23,
    "prefecture": "愛知県",
    "city": "犬山市",
    "town": "羽黒菊川"
  },
  "4840883": {
    "zipcode": "4840883",
    "prefectureCode": "23",
    "prefectureNumber": 23,
    "prefecture": "愛知県",
    "city": "犬山市",
    "town": "羽黒成海南"
  },
  "4840884": {
    "zipcode": "4840884",
    "prefectureCode": "23",
    "prefectureNumber": 23,
    "prefecture": "愛知県",
    "city": "犬山市",
    "town": "羽黒起"
  },
  "4840885": {
    "zipcode": "4840885",
    "prefectureCode": "23",
    "prefectureNumber": 23,
    "prefecture": "愛知県",
    "city": "犬山市",
    "town": "楽田原西"
  },
  "4840886": {
    "zipcode": "4840886",
    "prefectureCode": "23",
    "prefectureNumber": 23,
    "prefecture": "愛知県",
    "city": "犬山市",
    "town": "宮浦"
  },
  "4840887": {
    "zipcode": "4840887",
    "prefectureCode": "23",
    "prefectureNumber": 23,
    "prefecture": "愛知県",
    "city": "犬山市",
    "town": "池田"
  },
  "4840888": {
    "zipcode": "4840888",
    "prefectureCode": "23",
    "prefectureNumber": 23,
    "prefecture": "愛知県",
    "city": "犬山市",
    "town": "羽黒新田"
  },
  "4840889": {
    "zipcode": "4840889",
    "prefectureCode": "23",
    "prefectureNumber": 23,
    "prefecture": "愛知県",
    "city": "犬山市",
    "town": "羽黒高橋"
  },
  "4840891": {
    "zipcode": "4840891",
    "prefectureCode": "23",
    "prefectureNumber": 23,
    "prefecture": "愛知県",
    "city": "犬山市",
    "town": "羽黒恩田島"
  },
  "4840892": {
    "zipcode": "4840892",
    "prefectureCode": "23",
    "prefectureNumber": 23,
    "prefecture": "愛知県",
    "city": "犬山市",
    "town": "羽黒惣境"
  },
  "4840893": {
    "zipcode": "4840893",
    "prefectureCode": "23",
    "prefectureNumber": 23,
    "prefecture": "愛知県",
    "city": "犬山市",
    "town": "羽黒栄"
  },
  "4840894": {
    "zipcode": "4840894",
    "prefectureCode": "23",
    "prefectureNumber": 23,
    "prefecture": "愛知県",
    "city": "犬山市",
    "town": "羽黒"
  },
  "4840895": {
    "zipcode": "4840895",
    "prefectureCode": "23",
    "prefectureNumber": 23,
    "prefecture": "愛知県",
    "city": "犬山市",
    "town": "羽黒摺墨"
  },
  "4840896": {
    "zipcode": "4840896",
    "prefectureCode": "23",
    "prefectureNumber": 23,
    "prefecture": "愛知県",
    "city": "犬山市",
    "town": "羽黒余町"
  },
  "4840897": {
    "zipcode": "4840897",
    "prefectureCode": "23",
    "prefectureNumber": 23,
    "prefecture": "愛知県",
    "city": "犬山市",
    "town": "羽黒堂前"
  },
  "4840898": {
    "zipcode": "4840898",
    "prefectureCode": "23",
    "prefectureNumber": 23,
    "prefecture": "愛知県",
    "city": "犬山市",
    "town": "羽黒稲葉西"
  },
  "4840899": {
    "zipcode": "4840899",
    "prefectureCode": "23",
    "prefectureNumber": 23,
    "prefecture": "愛知県",
    "city": "犬山市",
    "town": "羽黒稲葉東"
  },
  "4840901": {
    "zipcode": "4840901",
    "prefectureCode": "23",
    "prefectureNumber": 23,
    "prefecture": "愛知県",
    "city": "犬山市",
    "town": "柿畑"
  },
  "4840902": {
    "zipcode": "4840902",
    "prefectureCode": "23",
    "prefectureNumber": 23,
    "prefecture": "愛知県",
    "city": "犬山市",
    "town": "追分"
  },
  "4840903": {
    "zipcode": "4840903",
    "prefectureCode": "23",
    "prefectureNumber": 23,
    "prefecture": "愛知県",
    "city": "犬山市",
    "town": "追分東"
  },
  "4840904": {
    "zipcode": "4840904",
    "prefectureCode": "23",
    "prefectureNumber": 23,
    "prefecture": "愛知県",
    "city": "犬山市",
    "town": "楽田勝部前"
  },
  "4840905": {
    "zipcode": "4840905",
    "prefectureCode": "23",
    "prefectureNumber": 23,
    "prefecture": "愛知県",
    "city": "犬山市",
    "town": "西北野"
  },
  "4840906": {
    "zipcode": "4840906",
    "prefectureCode": "23",
    "prefectureNumber": 23,
    "prefecture": "愛知県",
    "city": "犬山市",
    "town": "焼野"
  },
  "4840907": {
    "zipcode": "4840907",
    "prefectureCode": "23",
    "prefectureNumber": 23,
    "prefecture": "愛知県",
    "city": "犬山市",
    "town": "楽田地蔵池"
  },
  "4840908": {
    "zipcode": "4840908",
    "prefectureCode": "23",
    "prefectureNumber": 23,
    "prefecture": "愛知県",
    "city": "犬山市",
    "town": "大上戸"
  },
  "4840911": {
    "zipcode": "4840911",
    "prefectureCode": "23",
    "prefectureNumber": 23,
    "prefecture": "愛知県",
    "city": "犬山市",
    "town": "北之門"
  },
  "4840912": {
    "zipcode": "4840912",
    "prefectureCode": "23",
    "prefectureNumber": 23,
    "prefecture": "愛知県",
    "city": "犬山市",
    "town": "舟田"
  },
  "4840913": {
    "zipcode": "4840913",
    "prefectureCode": "23",
    "prefectureNumber": 23,
    "prefecture": "愛知県",
    "city": "犬山市",
    "town": "鳥屋越"
  },
  "4840914": {
    "zipcode": "4840914",
    "prefectureCode": "23",
    "prefectureNumber": 23,
    "prefecture": "愛知県",
    "city": "犬山市",
    "town": "観音浦"
  },
  "4840915": {
    "zipcode": "4840915",
    "prefectureCode": "23",
    "prefectureNumber": 23,
    "prefecture": "愛知県",
    "city": "犬山市",
    "town": "楽田上沼"
  },
  "4840916": {
    "zipcode": "4840916",
    "prefectureCode": "23",
    "prefectureNumber": 23,
    "prefecture": "愛知県",
    "city": "犬山市",
    "town": "楽田西浦"
  },
  "4840917": {
    "zipcode": "4840917",
    "prefectureCode": "23",
    "prefectureNumber": 23,
    "prefecture": "愛知県",
    "city": "犬山市",
    "town": "土取"
  },
  "4840918": {
    "zipcode": "4840918",
    "prefectureCode": "23",
    "prefectureNumber": 23,
    "prefecture": "愛知県",
    "city": "犬山市",
    "town": "ニタ田"
  },
  "4840919": {
    "zipcode": "4840919",
    "prefectureCode": "23",
    "prefectureNumber": 23,
    "prefecture": "愛知県",
    "city": "犬山市",
    "town": "中道"
  },
  "4840921": {
    "zipcode": "4840921",
    "prefectureCode": "23",
    "prefectureNumber": 23,
    "prefecture": "愛知県",
    "city": "犬山市",
    "town": "味加田"
  },
  "4840922": {
    "zipcode": "4840922",
    "prefectureCode": "23",
    "prefectureNumber": 23,
    "prefecture": "愛知県",
    "city": "犬山市",
    "town": "北大橋"
  },
  "4840923": {
    "zipcode": "4840923",
    "prefectureCode": "23",
    "prefectureNumber": 23,
    "prefecture": "愛知県",
    "city": "犬山市",
    "town": "下沼"
  },
  "4840924": {
    "zipcode": "4840924",
    "prefectureCode": "23",
    "prefectureNumber": 23,
    "prefecture": "愛知県",
    "city": "犬山市",
    "town": "楽田大橋"
  },
  "4840925": {
    "zipcode": "4840925",
    "prefectureCode": "23",
    "prefectureNumber": 23,
    "prefecture": "愛知県",
    "city": "犬山市",
    "town": "楽田西野"
  },
  "4840926": {
    "zipcode": "4840926",
    "prefectureCode": "23",
    "prefectureNumber": 23,
    "prefecture": "愛知県",
    "city": "犬山市",
    "town": "楽田一色浦"
  },
  "4840927": {
    "zipcode": "4840927",
    "prefectureCode": "23",
    "prefectureNumber": 23,
    "prefecture": "愛知県",
    "city": "犬山市",
    "town": "的場"
  },
  "4840928": {
    "zipcode": "4840928",
    "prefectureCode": "23",
    "prefectureNumber": 23,
    "prefecture": "愛知県",
    "city": "犬山市",
    "town": "七ツ屋"
  },
  "4840931": {
    "zipcode": "4840931",
    "prefectureCode": "23",
    "prefectureNumber": 23,
    "prefecture": "愛知県",
    "city": "犬山市",
    "town": "南大橋"
  },
  "4840932": {
    "zipcode": "4840932",
    "prefectureCode": "23",
    "prefectureNumber": 23,
    "prefecture": "愛知県",
    "city": "犬山市",
    "town": "西野"
  },
  "4840933": {
    "zipcode": "4840933",
    "prefectureCode": "23",
    "prefectureNumber": 23,
    "prefecture": "愛知県",
    "city": "犬山市",
    "town": "東唐曽"
  },
  "4840934": {
    "zipcode": "4840934",
    "prefectureCode": "23",
    "prefectureNumber": 23,
    "prefecture": "愛知県",
    "city": "犬山市",
    "town": "中唐曽"
  },
  "4840935": {
    "zipcode": "4840935",
    "prefectureCode": "23",
    "prefectureNumber": 23,
    "prefecture": "愛知県",
    "city": "犬山市",
    "town": "西唐曽"
  },
  "4840936": {
    "zipcode": "4840936",
    "prefectureCode": "23",
    "prefectureNumber": 23,
    "prefecture": "愛知県",
    "city": "犬山市",
    "town": "楽田青塚"
  },
  "4840937": {
    "zipcode": "4840937",
    "prefectureCode": "23",
    "prefectureNumber": 23,
    "prefecture": "愛知県",
    "city": "犬山市",
    "town": "宮東"
  },
  "4840941": {
    "zipcode": "4840941",
    "prefectureCode": "23",
    "prefectureNumber": 23,
    "prefecture": "愛知県",
    "city": "犬山市",
    "town": "巾廻り"
  },
  "4840942": {
    "zipcode": "4840942",
    "prefectureCode": "23",
    "prefectureNumber": 23,
    "prefecture": "愛知県",
    "city": "犬山市",
    "town": "楽田巾"
  },
  "4840943": {
    "zipcode": "4840943",
    "prefectureCode": "23",
    "prefectureNumber": 23,
    "prefecture": "愛知県",
    "city": "犬山市",
    "town": "巾前"
  },
  "4840944": {
    "zipcode": "4840944",
    "prefectureCode": "23",
    "prefectureNumber": 23,
    "prefecture": "愛知県",
    "city": "犬山市",
    "town": "楽田安師"
  },
  "4840945": {
    "zipcode": "4840945",
    "prefectureCode": "23",
    "prefectureNumber": 23,
    "prefecture": "愛知県",
    "city": "犬山市",
    "town": "青塚"
  },
  "4840946": {
    "zipcode": "4840946",
    "prefectureCode": "23",
    "prefectureNumber": 23,
    "prefecture": "愛知県",
    "city": "犬山市",
    "town": "東大円"
  },
  "4840947": {
    "zipcode": "4840947",
    "prefectureCode": "23",
    "prefectureNumber": 23,
    "prefecture": "愛知県",
    "city": "犬山市",
    "town": "楽田大円"
  },
  "4840948": {
    "zipcode": "4840948",
    "prefectureCode": "23",
    "prefectureNumber": 23,
    "prefecture": "愛知県",
    "city": "犬山市",
    "town": "西大円"
  },
  "4840951": {
    "zipcode": "4840951",
    "prefectureCode": "23",
    "prefectureNumber": 23,
    "prefecture": "愛知県",
    "city": "犬山市",
    "town": "八反田"
  },
  "4840952": {
    "zipcode": "4840952",
    "prefectureCode": "23",
    "prefectureNumber": 23,
    "prefecture": "愛知県",
    "city": "犬山市",
    "town": "上舞台"
  },
  "4840953": {
    "zipcode": "4840953",
    "prefectureCode": "23",
    "prefectureNumber": 23,
    "prefecture": "愛知県",
    "city": "犬山市",
    "town": "下舞台"
  },
  "4840954": {
    "zipcode": "4840954",
    "prefectureCode": "23",
    "prefectureNumber": 23,
    "prefecture": "愛知県",
    "city": "犬山市",
    "town": "元散前"
  },
  "4840955": {
    "zipcode": "4840955",
    "prefectureCode": "23",
    "prefectureNumber": 23,
    "prefecture": "愛知県",
    "city": "犬山市",
    "town": "角池"
  },
  "4840956": {
    "zipcode": "4840956",
    "prefectureCode": "23",
    "prefectureNumber": 23,
    "prefecture": "愛知県",
    "city": "犬山市",
    "town": "新川"
  },
  "4840957": {
    "zipcode": "4840957",
    "prefectureCode": "23",
    "prefectureNumber": 23,
    "prefecture": "愛知県",
    "city": "犬山市",
    "town": "五反田"
  },
  "4840958": {
    "zipcode": "4840958",
    "prefectureCode": "23",
    "prefectureNumber": 23,
    "prefecture": "愛知県",
    "city": "犬山市",
    "town": "平塚"
  },
  "4840959": {
    "zipcode": "4840959",
    "prefectureCode": "23",
    "prefectureNumber": 23,
    "prefecture": "愛知県",
    "city": "犬山市",
    "town": "北平塚"
  },
  "4840961": {
    "zipcode": "4840961",
    "prefectureCode": "23",
    "prefectureNumber": 23,
    "prefecture": "愛知県",
    "city": "犬山市",
    "town": "太吉屋敷"
  },
  "4840962": {
    "zipcode": "4840962",
    "prefectureCode": "23",
    "prefectureNumber": 23,
    "prefecture": "愛知県",
    "city": "犬山市",
    "town": "落添"
  },
  "4840963": {
    "zipcode": "4840963",
    "prefectureCode": "23",
    "prefectureNumber": 23,
    "prefecture": "愛知県",
    "city": "犬山市",
    "town": "楽田鶴池"
  },
  "4840964": {
    "zipcode": "4840964",
    "prefectureCode": "23",
    "prefectureNumber": 23,
    "prefecture": "愛知県",
    "city": "犬山市",
    "town": "上榎島"
  },
  "4840965": {
    "zipcode": "4840965",
    "prefectureCode": "23",
    "prefectureNumber": 23,
    "prefecture": "愛知県",
    "city": "犬山市",
    "town": "下榎島"
  },
  "4840966": {
    "zipcode": "4840966",
    "prefectureCode": "23",
    "prefectureNumber": 23,
    "prefecture": "愛知県",
    "city": "犬山市",
    "town": "五郎丸二タ俣"
  }
}
