{
  "4870001": {
    "zipcode": "4870001",
    "prefectureCode": "23",
    "prefectureNumber": 23,
    "prefecture": "愛知県",
    "city": "春日井市",
    "town": "細野町"
  },
  "4870002": {
    "zipcode": "4870002",
    "prefectureCode": "23",
    "prefectureNumber": 23,
    "prefecture": "愛知県",
    "city": "春日井市",
    "town": "外之原町"
  },
  "4870003": {
    "zipcode": "4870003",
    "prefectureCode": "23",
    "prefectureNumber": 23,
    "prefecture": "愛知県",
    "city": "春日井市",
    "town": "木附町"
  },
  "4870004": {
    "zipcode": "4870004",
    "prefectureCode": "23",
    "prefectureNumber": 23,
    "prefecture": "愛知県",
    "city": "春日井市",
    "town": "玉野町"
  },
  "4870005": {
    "zipcode": "4870005",
    "prefectureCode": "23",
    "prefectureNumber": 23,
    "prefecture": "愛知県",
    "city": "春日井市",
    "town": "押沢台"
  },
  "4870006": {
    "zipcode": "4870006",
    "prefectureCode": "23",
    "prefectureNumber": 23,
    "prefecture": "愛知県",
    "city": "春日井市",
    "town": "石尾台"
  },
  "4870007": {
    "zipcode": "4870007",
    "prefectureCode": "23",
    "prefectureNumber": 23,
    "prefecture": "愛知県",
    "city": "春日井市",
    "town": "玉野台"
  },
  "4870011": {
    "zipcode": "4870011",
    "prefectureCode": "23",
    "prefectureNumber": 23,
    "prefecture": "愛知県",
    "city": "春日井市",
    "town": "中央台"
  },
  "4870012": {
    "zipcode": "4870012",
    "prefectureCode": "23",
    "prefectureNumber": 23,
    "prefecture": "愛知県",
    "city": "春日井市",
    "town": "高座町"
  },
  "4870013": {
    "zipcode": "4870013",
    "prefectureCode": "23",
    "prefectureNumber": 23,
    "prefecture": "愛知県",
    "city": "春日井市",
    "town": "高蔵寺町"
  },
  "4870014": {
    "zipcode": "4870014",
    "prefectureCode": "23",
    "prefectureNumber": 23,
    "prefecture": "愛知県",
    "city": "春日井市",
    "town": "気噴町"
  },
  "4870015": {
    "zipcode": "4870015",
    "prefectureCode": "23",
    "prefectureNumber": 23,
    "prefecture": "愛知県",
    "city": "春日井市",
    "town": "気噴町北"
  },
  "4870016": {
    "zipcode": "4870016",
    "prefectureCode": "23",
    "prefectureNumber": 23,
    "prefecture": "愛知県",
    "city": "春日井市",
    "town": "高蔵寺町北"
  },
  "4870017": {
    "zipcode": "4870017",
    "prefectureCode": "23",
    "prefectureNumber": 23,
    "prefecture": "愛知県",
    "city": "春日井市",
    "town": "高座台"
  },
  "4870021": {
    "zipcode": "4870021",
    "prefectureCode": "23",
    "prefectureNumber": 23,
    "prefecture": "愛知県",
    "city": "春日井市",
    "town": "東神明町"
  },
  "4870022": {
    "zipcode": "4870022",
    "prefectureCode": "23",
    "prefectureNumber": 23,
    "prefecture": "愛知県",
    "city": "春日井市",
    "town": "庄名町"
  },
  "4870023": {
    "zipcode": "4870023",
    "prefectureCode": "23",
    "prefectureNumber": 23,
    "prefecture": "愛知県",
    "city": "春日井市",
    "town": "不二ガ丘"
  },
  "4870024": {
    "zipcode": "4870024",
    "prefectureCode": "23",
    "prefectureNumber": 23,
    "prefecture": "愛知県",
    "city": "春日井市",
    "town": "大留町"
  },
  "4870025": {
    "zipcode": "4870025",
    "prefectureCode": "23",
    "prefectureNumber": 23,
    "prefecture": "愛知県",
    "city": "春日井市",
    "town": "出川町"
  },
  "4870026": {
    "zipcode": "4870026",
    "prefectureCode": "23",
    "prefectureNumber": 23,
    "prefecture": "愛知県",
    "city": "春日井市",
    "town": "不二町"
  },
  "4870027": {
    "zipcode": "4870027",
    "prefectureCode": "23",
    "prefectureNumber": 23,
    "prefecture": "愛知県",
    "city": "春日井市",
    "town": "松本町"
  },
  "4870031": {
    "zipcode": "4870031",
    "prefectureCode": "23",
    "prefectureNumber": 23,
    "prefecture": "愛知県",
    "city": "春日井市",
    "town": "廻間町"
  },
  "4870032": {
    "zipcode": "4870032",
    "prefectureCode": "23",
    "prefectureNumber": 23,
    "prefecture": "愛知県",
    "city": "春日井市",
    "town": "高森台"
  },
  "4870033": {
    "zipcode": "4870033",
    "prefectureCode": "23",
    "prefectureNumber": 23,
    "prefecture": "愛知県",
    "city": "春日井市",
    "town": "岩成台"
  },
  "4870034": {
    "zipcode": "4870034",
    "prefectureCode": "23",
    "prefectureNumber": 23,
    "prefecture": "愛知県",
    "city": "春日井市",
    "town": "白山町"
  },
  "4870035": {
    "zipcode": "4870035",
    "prefectureCode": "23",
    "prefectureNumber": 23,
    "prefecture": "愛知県",
    "city": "春日井市",
    "town": "藤山台"
  }
}
