{
  "4890000": {
    "zipcode": "4890000",
    "prefectureCode": "23",
    "prefectureNumber": 23,
    "prefecture": "愛知県",
    "city": "瀬戸市",
    "town": "以下に掲載がない場合"
  },
  "4890001": {
    "zipcode": "4890001",
    "prefectureCode": "23",
    "prefectureNumber": 23,
    "prefecture": "愛知県",
    "city": "瀬戸市",
    "town": "川平町"
  },
  "4890002": {
    "zipcode": "4890002",
    "prefectureCode": "23",
    "prefectureNumber": 23,
    "prefecture": "愛知県",
    "city": "瀬戸市",
    "town": "余床町"
  },
  "4890003": {
    "zipcode": "4890003",
    "prefectureCode": "23",
    "prefectureNumber": 23,
    "prefecture": "愛知県",
    "city": "瀬戸市",
    "town": "穴田町"
  },
  "4890004": {
    "zipcode": "4890004",
    "prefectureCode": "23",
    "prefectureNumber": 23,
    "prefecture": "愛知県",
    "city": "瀬戸市",
    "town": "日の出町"
  },
  "4890005": {
    "zipcode": "4890005",
    "prefectureCode": "23",
    "prefectureNumber": 23,
    "prefecture": "愛知県",
    "city": "瀬戸市",
    "town": "中水野町"
  },
  "4890006": {
    "zipcode": "4890006",
    "prefectureCode": "23",
    "prefectureNumber": 23,
    "prefecture": "愛知県",
    "city": "瀬戸市",
    "town": "三沢町"
  },
  "4890007": {
    "zipcode": "4890007",
    "prefectureCode": "23",
    "prefectureNumber": 23,
    "prefecture": "愛知県",
    "city": "瀬戸市",
    "town": "鹿乗町"
  },
  "4890008": {
    "zipcode": "4890008",
    "prefectureCode": "23",
    "prefectureNumber": 23,
    "prefecture": "愛知県",
    "city": "瀬戸市",
    "town": "曽野町"
  },
  "4890009": {
    "zipcode": "4890009",
    "prefectureCode": "23",
    "prefectureNumber": 23,
    "prefecture": "愛知県",
    "city": "瀬戸市",
    "town": "水北町"
  },
  "4890011": {
    "zipcode": "4890011",
    "prefectureCode": "23",
    "prefectureNumber": 23,
    "prefecture": "愛知県",
    "city": "瀬戸市",
    "town": "針原町"
  },
  "4890012": {
    "zipcode": "4890012",
    "prefectureCode": "23",
    "prefectureNumber": 23,
    "prefecture": "愛知県",
    "city": "瀬戸市",
    "town": "長谷口町"
  },
  "4890013": {
    "zipcode": "4890013",
    "prefectureCode": "23",
    "prefectureNumber": 23,
    "prefecture": "愛知県",
    "city": "瀬戸市",
    "town": "中白坂町"
  },
  "4890014": {
    "zipcode": "4890014",
    "prefectureCode": "23",
    "prefectureNumber": 23,
    "prefecture": "愛知県",
    "city": "瀬戸市",
    "town": "北白坂町"
  },
  "4890015": {
    "zipcode": "4890015",
    "prefectureCode": "23",
    "prefectureNumber": 23,
    "prefecture": "愛知県",
    "city": "瀬戸市",
    "town": "東白坂町"
  },
  "4890016": {
    "zipcode": "4890016",
    "prefectureCode": "23",
    "prefectureNumber": 23,
    "prefecture": "愛知県",
    "city": "瀬戸市",
    "town": "南白坂町"
  },
  "4890017": {
    "zipcode": "4890017",
    "prefectureCode": "23",
    "prefectureNumber": 23,
    "prefecture": "愛知県",
    "city": "瀬戸市",
    "town": "白坂町"
  },
  "4890018": {
    "zipcode": "4890018",
    "prefectureCode": "23",
    "prefectureNumber": 23,
    "prefecture": "愛知県",
    "city": "瀬戸市",
    "town": "西白坂町"
  },
  "4890021": {
    "zipcode": "4890021",
    "prefectureCode": "23",
    "prefectureNumber": 23,
    "prefecture": "愛知県",
    "city": "瀬戸市",
    "town": "馬ケ城町"
  },
  "4890022": {
    "zipcode": "4890022",
    "prefectureCode": "23",
    "prefectureNumber": 23,
    "prefecture": "愛知県",
    "city": "瀬戸市",
    "town": "赤津町"
  },
  "4890023": {
    "zipcode": "4890023",
    "prefectureCode": "23",
    "prefectureNumber": 23,
    "prefecture": "愛知県",
    "city": "瀬戸市",
    "town": "窯元町"
  },
  "4890024": {
    "zipcode": "4890024",
    "prefectureCode": "23",
    "prefectureNumber": 23,
    "prefecture": "愛知県",
    "city": "瀬戸市",
    "town": "八王子町"
  },
  "4890025": {
    "zipcode": "4890025",
    "prefectureCode": "23",
    "prefectureNumber": 23,
    "prefecture": "愛知県",
    "city": "瀬戸市",
    "town": "凧山町"
  },
  "4890026": {
    "zipcode": "4890026",
    "prefectureCode": "23",
    "prefectureNumber": 23,
    "prefecture": "愛知県",
    "city": "瀬戸市",
    "town": "東明町"
  },
  "4890027": {
    "zipcode": "4890027",
    "prefectureCode": "23",
    "prefectureNumber": 23,
    "prefecture": "愛知県",
    "city": "瀬戸市",
    "town": "東拝戸町"
  },
  "4890028": {
    "zipcode": "4890028",
    "prefectureCode": "23",
    "prefectureNumber": 23,
    "prefecture": "愛知県",
    "city": "瀬戸市",
    "town": "西窯町"
  },
  "4890029": {
    "zipcode": "4890029",
    "prefectureCode": "23",
    "prefectureNumber": 23,
    "prefecture": "愛知県",
    "city": "瀬戸市",
    "town": "中畑町"
  },
  "4890031": {
    "zipcode": "4890031",
    "prefectureCode": "23",
    "prefectureNumber": 23,
    "prefecture": "愛知県",
    "city": "瀬戸市",
    "town": "五位塚町"
  },
  "4890032": {
    "zipcode": "4890032",
    "prefectureCode": "23",
    "prefectureNumber": 23,
    "prefecture": "愛知県",
    "city": "瀬戸市",
    "town": "古瀬戸町"
  },
  "4890033": {
    "zipcode": "4890033",
    "prefectureCode": "23",
    "prefectureNumber": 23,
    "prefecture": "愛知県",
    "city": "瀬戸市",
    "town": "須原町"
  },
  "4890034": {
    "zipcode": "4890034",
    "prefectureCode": "23",
    "prefectureNumber": 23,
    "prefecture": "愛知県",
    "city": "瀬戸市",
    "town": "刎田町"
  },
  "4890035": {
    "zipcode": "4890035",
    "prefectureCode": "23",
    "prefectureNumber": 23,
    "prefecture": "愛知県",
    "city": "瀬戸市",
    "town": "紺屋田町"
  },
  "4890036": {
    "zipcode": "4890036",
    "prefectureCode": "23",
    "prefectureNumber": 23,
    "prefecture": "愛知県",
    "city": "瀬戸市",
    "town": "西古瀬戸町"
  },
  "4890037": {
    "zipcode": "4890037",
    "prefectureCode": "23",
    "prefectureNumber": 23,
    "prefecture": "愛知県",
    "city": "瀬戸市",
    "town": "東古瀬戸町"
  },
  "4890041": {
    "zipcode": "4890041",
    "prefectureCode": "23",
    "prefectureNumber": 23,
    "prefecture": "愛知県",
    "city": "瀬戸市",
    "town": "背戸側町"
  },
  "4890042": {
    "zipcode": "4890042",
    "prefectureCode": "23",
    "prefectureNumber": 23,
    "prefecture": "愛知県",
    "city": "瀬戸市",
    "town": "仲切町"
  },
  "4890043": {
    "zipcode": "4890043",
    "prefectureCode": "23",
    "prefectureNumber": 23,
    "prefecture": "愛知県",
    "city": "瀬戸市",
    "town": "朝日町"
  },
  "4890044": {
    "zipcode": "4890044",
    "prefectureCode": "23",
    "prefectureNumber": 23,
    "prefecture": "愛知県",
    "city": "瀬戸市",
    "town": "栄町"
  },
  "4890045": {
    "zipcode": "4890045",
    "prefectureCode": "23",
    "prefectureNumber": 23,
    "prefecture": "愛知県",
    "city": "瀬戸市",
    "town": "陶本町"
  },
  "4890046": {
    "zipcode": "4890046",
    "prefectureCode": "23",
    "prefectureNumber": 23,
    "prefecture": "愛知県",
    "city": "瀬戸市",
    "town": "元町"
  },
  "4890047": {
    "zipcode": "4890047",
    "prefectureCode": "23",
    "prefectureNumber": 23,
    "prefecture": "愛知県",
    "city": "瀬戸市",
    "town": "西谷町"
  },
  "4890048": {
    "zipcode": "4890048",
    "prefectureCode": "23",
    "prefectureNumber": 23,
    "prefecture": "愛知県",
    "city": "瀬戸市",
    "town": "窯神町"
  },
  "4890051": {
    "zipcode": "4890051",
    "prefectureCode": "23",
    "prefectureNumber": 23,
    "prefecture": "愛知県",
    "city": "瀬戸市",
    "town": "下陣屋町"
  },
  "4890052": {
    "zipcode": "4890052",
    "prefectureCode": "23",
    "prefectureNumber": 23,
    "prefecture": "愛知県",
    "city": "瀬戸市",
    "town": "安戸町"
  },
  "4890053": {
    "zipcode": "4890053",
    "prefectureCode": "23",
    "prefectureNumber": 23,
    "prefecture": "愛知県",
    "city": "瀬戸市",
    "town": "東安戸町"
  },
  "4890054": {
    "zipcode": "4890054",
    "prefectureCode": "23",
    "prefectureNumber": 23,
    "prefecture": "愛知県",
    "city": "瀬戸市",
    "town": "道泉町"
  },
  "4890055": {
    "zipcode": "4890055",
    "prefectureCode": "23",
    "prefectureNumber": 23,
    "prefecture": "愛知県",
    "city": "瀬戸市",
    "town": "滝之湯町"
  },
  "4890056": {
    "zipcode": "4890056",
    "prefectureCode": "23",
    "prefectureNumber": 23,
    "prefecture": "愛知県",
    "city": "瀬戸市",
    "town": "東十三塚町"
  },
  "4890057": {
    "zipcode": "4890057",
    "prefectureCode": "23",
    "prefectureNumber": 23,
    "prefecture": "愛知県",
    "city": "瀬戸市",
    "town": "西十三塚町"
  },
  "4890058": {
    "zipcode": "4890058",
    "prefectureCode": "23",
    "prefectureNumber": 23,
    "prefecture": "愛知県",
    "city": "瀬戸市",
    "town": "進陶町"
  },
  "4890061": {
    "zipcode": "4890061",
    "prefectureCode": "23",
    "prefectureNumber": 23,
    "prefecture": "愛知県",
    "city": "瀬戸市",
    "town": "上本町"
  },
  "4890062": {
    "zipcode": "4890062",
    "prefectureCode": "23",
    "prefectureNumber": 23,
    "prefecture": "愛知県",
    "city": "瀬戸市",
    "town": "上水野町"
  },
  "4890063": {
    "zipcode": "4890063",
    "prefectureCode": "23",
    "prefectureNumber": 23,
    "prefecture": "愛知県",
    "city": "瀬戸市",
    "town": "上陣屋町"
  },
  "4890064": {
    "zipcode": "4890064",
    "prefectureCode": "23",
    "prefectureNumber": 23,
    "prefecture": "愛知県",
    "city": "瀬戸市",
    "town": "小金町"
  },
  "4890065": {
    "zipcode": "4890065",
    "prefectureCode": "23",
    "prefectureNumber": 23,
    "prefecture": "愛知県",
    "city": "瀬戸市",
    "town": "西追分町"
  },
  "4890066": {
    "zipcode": "4890066",
    "prefectureCode": "23",
    "prefectureNumber": 23,
    "prefecture": "愛知県",
    "city": "瀬戸市",
    "town": "東横山町"
  },
  "4890067": {
    "zipcode": "4890067",
    "prefectureCode": "23",
    "prefectureNumber": 23,
    "prefecture": "愛知県",
    "city": "瀬戸市",
    "town": "小田妻町"
  },
  "4890068": {
    "zipcode": "4890068",
    "prefectureCode": "23",
    "prefectureNumber": 23,
    "prefecture": "愛知県",
    "city": "瀬戸市",
    "town": "上松山町"
  },
  "4890069": {
    "zipcode": "4890069",
    "prefectureCode": "23",
    "prefectureNumber": 23,
    "prefecture": "愛知県",
    "city": "瀬戸市",
    "town": "東松山町"
  },
  "4890071": {
    "zipcode": "4890071",
    "prefectureCode": "23",
    "prefectureNumber": 23,
    "prefecture": "愛知県",
    "city": "瀬戸市",
    "town": "暁町"
  },
  "4890072": {
    "zipcode": "4890072",
    "prefectureCode": "23",
    "prefectureNumber": 23,
    "prefecture": "愛知県",
    "city": "瀬戸市",
    "town": "東印所町"
  },
  "4890073": {
    "zipcode": "4890073",
    "prefectureCode": "23",
    "prefectureNumber": 23,
    "prefecture": "愛知県",
    "city": "瀬戸市",
    "town": "泉町"
  },
  "4890074": {
    "zipcode": "4890074",
    "prefectureCode": "23",
    "prefectureNumber": 23,
    "prefecture": "愛知県",
    "city": "瀬戸市",
    "town": "宮脇町"
  },
  "4890075": {
    "zipcode": "4890075",
    "prefectureCode": "23",
    "prefectureNumber": 23,
    "prefecture": "愛知県",
    "city": "瀬戸市",
    "town": "新道町"
  },
  "4890076": {
    "zipcode": "4890076",
    "prefectureCode": "23",
    "prefectureNumber": 23,
    "prefecture": "愛知県",
    "city": "瀬戸市",
    "town": "深川町"
  },
  "4890077": {
    "zipcode": "4890077",
    "prefectureCode": "23",
    "prefectureNumber": 23,
    "prefecture": "愛知県",
    "city": "瀬戸市",
    "town": "宮里町"
  },
  "4890078": {
    "zipcode": "4890078",
    "prefectureCode": "23",
    "prefectureNumber": 23,
    "prefecture": "愛知県",
    "city": "瀬戸市",
    "town": "湯之根町"
  },
  "4890079": {
    "zipcode": "4890079",
    "prefectureCode": "23",
    "prefectureNumber": 23,
    "prefecture": "愛知県",
    "city": "瀬戸市",
    "town": "西印所町"
  },
  "4890801": {
    "zipcode": "4890801",
    "prefectureCode": "23",
    "prefectureNumber": 23,
    "prefecture": "愛知県",
    "city": "瀬戸市",
    "town": "汗干町"
  },
  "4890802": {
    "zipcode": "4890802",
    "prefectureCode": "23",
    "prefectureNumber": 23,
    "prefecture": "愛知県",
    "city": "瀬戸市",
    "town": "今池町"
  },
  "4890803": {
    "zipcode": "4890803",
    "prefectureCode": "23",
    "prefectureNumber": 23,
    "prefecture": "愛知県",
    "city": "瀬戸市",
    "town": "追分町"
  },
  "4890804": {
    "zipcode": "4890804",
    "prefectureCode": "23",
    "prefectureNumber": 23,
    "prefecture": "愛知県",
    "city": "瀬戸市",
    "town": "京町"
  },
  "4890805": {
    "zipcode": "4890805",
    "prefectureCode": "23",
    "prefectureNumber": 23,
    "prefecture": "愛知県",
    "city": "瀬戸市",
    "town": "陶原町"
  },
  "4890806": {
    "zipcode": "4890806",
    "prefectureCode": "23",
    "prefectureNumber": 23,
    "prefecture": "愛知県",
    "city": "瀬戸市",
    "town": "東吉田町"
  },
  "4890807": {
    "zipcode": "4890807",
    "prefectureCode": "23",
    "prefectureNumber": 23,
    "prefecture": "愛知県",
    "city": "瀬戸市",
    "town": "西吉田町"
  },
  "4890808": {
    "zipcode": "4890808",
    "prefectureCode": "23",
    "prefectureNumber": 23,
    "prefecture": "愛知県",
    "city": "瀬戸市",
    "town": "見付町"
  },
  "4890809": {
    "zipcode": "4890809",
    "prefectureCode": "23",
    "prefectureNumber": 23,
    "prefecture": "愛知県",
    "city": "瀬戸市",
    "town": "共栄通"
  },
  "4890811": {
    "zipcode": "4890811",
    "prefectureCode": "23",
    "prefectureNumber": 23,
    "prefecture": "愛知県",
    "city": "瀬戸市",
    "town": "山脇町"
  },
  "4890812": {
    "zipcode": "4890812",
    "prefectureCode": "23",
    "prefectureNumber": 23,
    "prefecture": "愛知県",
    "city": "瀬戸市",
    "town": "西蔵所町"
  },
  "4890813": {
    "zipcode": "4890813",
    "prefectureCode": "23",
    "prefectureNumber": 23,
    "prefecture": "愛知県",
    "city": "瀬戸市",
    "town": "蔵所町"
  },
  "4890814": {
    "zipcode": "4890814",
    "prefectureCode": "23",
    "prefectureNumber": 23,
    "prefecture": "愛知県",
    "city": "瀬戸市",
    "town": "末広町"
  },
  "4890815": {
    "zipcode": "4890815",
    "prefectureCode": "23",
    "prefectureNumber": 23,
    "prefecture": "愛知県",
    "city": "瀬戸市",
    "town": "南仲之切町"
  },
  "4890816": {
    "zipcode": "4890816",
    "prefectureCode": "23",
    "prefectureNumber": 23,
    "prefecture": "愛知県",
    "city": "瀬戸市",
    "town": "東本町"
  },
  "4890817": {
    "zipcode": "4890817",
    "prefectureCode": "23",
    "prefectureNumber": 23,
    "prefecture": "愛知県",
    "city": "瀬戸市",
    "town": "銀杏木町"
  },
  "4890818": {
    "zipcode": "4890818",
    "prefectureCode": "23",
    "prefectureNumber": 23,
    "prefecture": "愛知県",
    "city": "瀬戸市",
    "town": "幸町"
  },
  "4890819": {
    "zipcode": "4890819",
    "prefectureCode": "23",
    "prefectureNumber": 23,
    "prefecture": "愛知県",
    "city": "瀬戸市",
    "town": "西本町"
  },
  "4890821": {
    "zipcode": "4890821",
    "prefectureCode": "23",
    "prefectureNumber": 23,
    "prefecture": "愛知県",
    "city": "瀬戸市",
    "town": "薬師町"
  },
  "4890822": {
    "zipcode": "4890822",
    "prefectureCode": "23",
    "prefectureNumber": 23,
    "prefecture": "愛知県",
    "city": "瀬戸市",
    "town": "杉塚町"
  },
  "4890823": {
    "zipcode": "4890823",
    "prefectureCode": "23",
    "prefectureNumber": 23,
    "prefecture": "愛知県",
    "city": "瀬戸市",
    "town": "東郷町"
  },
  "4890824": {
    "zipcode": "4890824",
    "prefectureCode": "23",
    "prefectureNumber": 23,
    "prefecture": "愛知県",
    "city": "瀬戸市",
    "town": "仲郷町"
  },
  "4890825": {
    "zipcode": "4890825",
    "prefectureCode": "23",
    "prefectureNumber": 23,
    "prefecture": "愛知県",
    "city": "瀬戸市",
    "town": "祖母懐町"
  },
  "4890826": {
    "zipcode": "4890826",
    "prefectureCode": "23",
    "prefectureNumber": 23,
    "prefecture": "愛知県",
    "city": "瀬戸市",
    "town": "蛭子町"
  },
  "4890827": {
    "zipcode": "4890827",
    "prefectureCode": "23",
    "prefectureNumber": 23,
    "prefecture": "愛知県",
    "city": "瀬戸市",
    "town": "陶生町"
  },
  "4890828": {
    "zipcode": "4890828",
    "prefectureCode": "23",
    "prefectureNumber": 23,
    "prefecture": "愛知県",
    "city": "瀬戸市",
    "town": "前田町"
  },
  "4890829": {
    "zipcode": "4890829",
    "prefectureCode": "23",
    "prefectureNumber": 23,
    "prefecture": "愛知県",
    "city": "瀬戸市",
    "town": "西郷町"
  },
  "4890831": {
    "zipcode": "4890831",
    "prefectureCode": "23",
    "prefectureNumber": 23,
    "prefecture": "愛知県",
    "city": "瀬戸市",
    "town": "藤四郎町"
  },
  "4890832": {
    "zipcode": "4890832",
    "prefectureCode": "23",
    "prefectureNumber": 23,
    "prefecture": "愛知県",
    "city": "瀬戸市",
    "town": "王子沢町"
  },
  "4890833": {
    "zipcode": "4890833",
    "prefectureCode": "23",
    "prefectureNumber": 23,
    "prefecture": "愛知県",
    "city": "瀬戸市",
    "town": "仲洞町"
  },
  "4890834": {
    "zipcode": "4890834",
    "prefectureCode": "23",
    "prefectureNumber": 23,
    "prefecture": "愛知県",
    "city": "瀬戸市",
    "town": "南東町"
  },
  "4890835": {
    "zipcode": "4890835",
    "prefectureCode": "23",
    "prefectureNumber": 23,
    "prefecture": "愛知県",
    "city": "瀬戸市",
    "town": "中山町"
  },
  "4890836": {
    "zipcode": "4890836",
    "prefectureCode": "23",
    "prefectureNumber": 23,
    "prefecture": "愛知県",
    "city": "瀬戸市",
    "town": "一里塚町"
  },
  "4890837": {
    "zipcode": "4890837",
    "prefectureCode": "23",
    "prefectureNumber": 23,
    "prefecture": "愛知県",
    "city": "瀬戸市",
    "town": "西洞町"
  },
  "4890838": {
    "zipcode": "4890838",
    "prefectureCode": "23",
    "prefectureNumber": 23,
    "prefecture": "愛知県",
    "city": "瀬戸市",
    "town": "寺本町"
  },
  "4890841": {
    "zipcode": "4890841",
    "prefectureCode": "23",
    "prefectureNumber": 23,
    "prefecture": "愛知県",
    "city": "瀬戸市",
    "town": "東洞町"
  },
  "4890842": {
    "zipcode": "4890842",
    "prefectureCode": "23",
    "prefectureNumber": 23,
    "prefecture": "愛知県",
    "city": "瀬戸市",
    "town": "小空町"
  },
  "4890843": {
    "zipcode": "4890843",
    "prefectureCode": "23",
    "prefectureNumber": 23,
    "prefecture": "愛知県",
    "city": "瀬戸市",
    "town": "惣作町"
  },
  "4890844": {
    "zipcode": "4890844",
    "prefectureCode": "23",
    "prefectureNumber": 23,
    "prefecture": "愛知県",
    "city": "瀬戸市",
    "town": "門前町"
  },
  "4890845": {
    "zipcode": "4890845",
    "prefectureCode": "23",
    "prefectureNumber": 23,
    "prefecture": "愛知県",
    "city": "瀬戸市",
    "town": "鐘場町"
  },
  "4890846": {
    "zipcode": "4890846",
    "prefectureCode": "23",
    "prefectureNumber": 23,
    "prefecture": "愛知県",
    "city": "瀬戸市",
    "town": "太子町"
  },
  "4890847": {
    "zipcode": "4890847",
    "prefectureCode": "23",
    "prefectureNumber": 23,
    "prefecture": "愛知県",
    "city": "瀬戸市",
    "town": "東町"
  },
  "4890848": {
    "zipcode": "4890848",
    "prefectureCode": "23",
    "prefectureNumber": 23,
    "prefecture": "愛知県",
    "city": "瀬戸市",
    "town": "西拝戸町"
  },
  "4890849": {
    "zipcode": "4890849",
    "prefectureCode": "23",
    "prefectureNumber": 23,
    "prefecture": "愛知県",
    "city": "瀬戸市",
    "town": "新明町"
  },
  "4890851": {
    "zipcode": "4890851",
    "prefectureCode": "23",
    "prefectureNumber": 23,
    "prefecture": "愛知県",
    "city": "瀬戸市",
    "town": "西山路町"
  },
  "4890852": {
    "zipcode": "4890852",
    "prefectureCode": "23",
    "prefectureNumber": 23,
    "prefecture": "愛知県",
    "city": "瀬戸市",
    "town": "巡間町"
  },
  "4890853": {
    "zipcode": "4890853",
    "prefectureCode": "23",
    "prefectureNumber": 23,
    "prefecture": "愛知県",
    "city": "瀬戸市",
    "town": "上山路町"
  },
  "4890854": {
    "zipcode": "4890854",
    "prefectureCode": "23",
    "prefectureNumber": 23,
    "prefecture": "愛知県",
    "city": "瀬戸市",
    "town": "東山路町"
  },
  "4890855": {
    "zipcode": "4890855",
    "prefectureCode": "23",
    "prefectureNumber": 23,
    "prefecture": "愛知県",
    "city": "瀬戸市",
    "town": "海上町"
  },
  "4890856": {
    "zipcode": "4890856",
    "prefectureCode": "23",
    "prefectureNumber": 23,
    "prefecture": "愛知県",
    "city": "瀬戸市",
    "town": "広久手町"
  },
  "4890857": {
    "zipcode": "4890857",
    "prefectureCode": "23",
    "prefectureNumber": 23,
    "prefecture": "愛知県",
    "city": "瀬戸市",
    "town": "吉野町"
  },
  "4890858": {
    "zipcode": "4890858",
    "prefectureCode": "23",
    "prefectureNumber": 23,
    "prefecture": "愛知県",
    "city": "瀬戸市",
    "town": "屋戸町"
  },
  "4890859": {
    "zipcode": "4890859",
    "prefectureCode": "23",
    "prefectureNumber": 23,
    "prefecture": "愛知県",
    "city": "瀬戸市",
    "town": "山路町"
  },
  "4890861": {
    "zipcode": "4890861",
    "prefectureCode": "23",
    "prefectureNumber": 23,
    "prefecture": "愛知県",
    "city": "瀬戸市",
    "town": "八幡台"
  },
  "4890862": {
    "zipcode": "4890862",
    "prefectureCode": "23",
    "prefectureNumber": 23,
    "prefecture": "愛知県",
    "city": "瀬戸市",
    "town": "八幡町"
  },
  "4890863": {
    "zipcode": "4890863",
    "prefectureCode": "23",
    "prefectureNumber": 23,
    "prefecture": "愛知県",
    "city": "瀬戸市",
    "town": "せいれい町"
  },
  "4890864": {
    "zipcode": "4890864",
    "prefectureCode": "23",
    "prefectureNumber": 23,
    "prefecture": "愛知県",
    "city": "瀬戸市",
    "town": "若宮町"
  },
  "4890865": {
    "zipcode": "4890865",
    "prefectureCode": "23",
    "prefectureNumber": 23,
    "prefecture": "愛知県",
    "city": "瀬戸市",
    "town": "山口町"
  },
  "4890866": {
    "zipcode": "4890866",
    "prefectureCode": "23",
    "prefectureNumber": 23,
    "prefecture": "愛知県",
    "city": "瀬戸市",
    "town": "矢形町"
  },
  "4890867": {
    "zipcode": "4890867",
    "prefectureCode": "23",
    "prefectureNumber": 23,
    "prefecture": "愛知県",
    "city": "瀬戸市",
    "town": "大坂町"
  },
  "4890868": {
    "zipcode": "4890868",
    "prefectureCode": "23",
    "prefectureNumber": 23,
    "prefecture": "愛知県",
    "city": "瀬戸市",
    "town": "今林町"
  },
  "4890871": {
    "zipcode": "4890871",
    "prefectureCode": "23",
    "prefectureNumber": 23,
    "prefecture": "愛知県",
    "city": "瀬戸市",
    "town": "東長根町"
  },
  "4890872": {
    "zipcode": "4890872",
    "prefectureCode": "23",
    "prefectureNumber": 23,
    "prefecture": "愛知県",
    "city": "瀬戸市",
    "town": "水無瀬町"
  },
  "4890873": {
    "zipcode": "4890873",
    "prefectureCode": "23",
    "prefectureNumber": 23,
    "prefecture": "愛知県",
    "city": "瀬戸市",
    "town": "新郷町"
  },
  "4890874": {
    "zipcode": "4890874",
    "prefectureCode": "23",
    "prefectureNumber": 23,
    "prefecture": "愛知県",
    "city": "瀬戸市",
    "town": "幡野町"
  },
  "4890875": {
    "zipcode": "4890875",
    "prefectureCode": "23",
    "prefectureNumber": 23,
    "prefecture": "愛知県",
    "city": "瀬戸市",
    "town": "緑町"
  },
  "4890876": {
    "zipcode": "4890876",
    "prefectureCode": "23",
    "prefectureNumber": 23,
    "prefecture": "愛知県",
    "city": "瀬戸市",
    "town": "白山町"
  },
  "4890877": {
    "zipcode": "4890877",
    "prefectureCode": "23",
    "prefectureNumber": 23,
    "prefecture": "愛知県",
    "city": "瀬戸市",
    "town": "東赤重町"
  },
  "4890878": {
    "zipcode": "4890878",
    "prefectureCode": "23",
    "prefectureNumber": 23,
    "prefecture": "愛知県",
    "city": "瀬戸市",
    "town": "赤重町"
  },
  "4890879": {
    "zipcode": "4890879",
    "prefectureCode": "23",
    "prefectureNumber": 23,
    "prefecture": "愛知県",
    "city": "瀬戸市",
    "town": "瘤木町"
  },
  "4890881": {
    "zipcode": "4890881",
    "prefectureCode": "23",
    "prefectureNumber": 23,
    "prefecture": "愛知県",
    "city": "瀬戸市",
    "town": "熊野町"
  },
  "4890882": {
    "zipcode": "4890882",
    "prefectureCode": "23",
    "prefectureNumber": 23,
    "prefecture": "愛知県",
    "city": "瀬戸市",
    "town": "西権現町"
  },
  "4890883": {
    "zipcode": "4890883",
    "prefectureCode": "23",
    "prefectureNumber": 23,
    "prefecture": "愛知県",
    "city": "瀬戸市",
    "town": "東権現町"
  },
  "4890884": {
    "zipcode": "4890884",
    "prefectureCode": "23",
    "prefectureNumber": 23,
    "prefecture": "愛知県",
    "city": "瀬戸市",
    "town": "西茨町"
  },
  "4890885": {
    "zipcode": "4890885",
    "prefectureCode": "23",
    "prefectureNumber": 23,
    "prefecture": "愛知県",
    "city": "瀬戸市",
    "town": "萩殿町"
  },
  "4890886": {
    "zipcode": "4890886",
    "prefectureCode": "23",
    "prefectureNumber": 23,
    "prefecture": "愛知県",
    "city": "瀬戸市",
    "town": "萩山台"
  },
  "4890887": {
    "zipcode": "4890887",
    "prefectureCode": "23",
    "prefectureNumber": 23,
    "prefecture": "愛知県",
    "city": "瀬戸市",
    "town": "菱野台"
  },
  "4890888": {
    "zipcode": "4890888",
    "prefectureCode": "23",
    "prefectureNumber": 23,
    "prefecture": "愛知県",
    "city": "瀬戸市",
    "town": "原山台"
  },
  "4890889": {
    "zipcode": "4890889",
    "prefectureCode": "23",
    "prefectureNumber": 23,
    "prefecture": "愛知県",
    "city": "瀬戸市",
    "town": "原山町"
  },
  "4890891": {
    "zipcode": "4890891",
    "prefectureCode": "23",
    "prefectureNumber": 23,
    "prefecture": "愛知県",
    "city": "瀬戸市",
    "town": "陶栄町"
  },
  "4890892": {
    "zipcode": "4890892",
    "prefectureCode": "23",
    "prefectureNumber": 23,
    "prefecture": "愛知県",
    "city": "瀬戸市",
    "town": "上ノ切町"
  },
  "4890893": {
    "zipcode": "4890893",
    "prefectureCode": "23",
    "prefectureNumber": 23,
    "prefecture": "愛知県",
    "city": "瀬戸市",
    "town": "春雨町"
  },
  "4890894": {
    "zipcode": "4890894",
    "prefectureCode": "23",
    "prefectureNumber": 23,
    "prefecture": "愛知県",
    "city": "瀬戸市",
    "town": "川合町"
  },
  "4890895": {
    "zipcode": "4890895",
    "prefectureCode": "23",
    "prefectureNumber": 23,
    "prefecture": "愛知県",
    "city": "瀬戸市",
    "town": "塩草町"
  },
  "4890896": {
    "zipcode": "4890896",
    "prefectureCode": "23",
    "prefectureNumber": 23,
    "prefecture": "愛知県",
    "city": "瀬戸市",
    "town": "宝ケ丘町"
  },
  "4890897": {
    "zipcode": "4890897",
    "prefectureCode": "23",
    "prefectureNumber": 23,
    "prefecture": "愛知県",
    "city": "瀬戸市",
    "town": "東茨町"
  },
  "4890898": {
    "zipcode": "4890898",
    "prefectureCode": "23",
    "prefectureNumber": 23,
    "prefecture": "愛知県",
    "city": "瀬戸市",
    "town": "秋葉町"
  },
  "4890899": {
    "zipcode": "4890899",
    "prefectureCode": "23",
    "prefectureNumber": 23,
    "prefecture": "愛知県",
    "city": "瀬戸市",
    "town": "塩草が丘"
  },
  "4890901": {
    "zipcode": "4890901",
    "prefectureCode": "23",
    "prefectureNumber": 23,
    "prefecture": "愛知県",
    "city": "瀬戸市",
    "town": "十軒町"
  },
  "4890902": {
    "zipcode": "4890902",
    "prefectureCode": "23",
    "prefectureNumber": 23,
    "prefecture": "愛知県",
    "city": "瀬戸市",
    "town": "内田町"
  },
  "4890903": {
    "zipcode": "4890903",
    "prefectureCode": "23",
    "prefectureNumber": 23,
    "prefecture": "愛知県",
    "city": "瀬戸市",
    "town": "ゆりの台"
  },
  "4890904": {
    "zipcode": "4890904",
    "prefectureCode": "23",
    "prefectureNumber": 23,
    "prefecture": "愛知県",
    "city": "瀬戸市",
    "town": "すみれ台"
  },
  "4890905": {
    "zipcode": "4890905",
    "prefectureCode": "23",
    "prefectureNumber": 23,
    "prefecture": "愛知県",
    "city": "瀬戸市",
    "town": "はぎの台"
  },
  "4890906": {
    "zipcode": "4890906",
    "prefectureCode": "23",
    "prefectureNumber": 23,
    "prefecture": "愛知県",
    "city": "瀬戸市",
    "town": "本郷町"
  },
  "4890907": {
    "zipcode": "4890907",
    "prefectureCode": "23",
    "prefectureNumber": 23,
    "prefecture": "愛知県",
    "city": "瀬戸市",
    "town": "ふじの台"
  },
  "4890908": {
    "zipcode": "4890908",
    "prefectureCode": "23",
    "prefectureNumber": 23,
    "prefecture": "愛知県",
    "city": "瀬戸市",
    "town": "ききょう台"
  },
  "4890909": {
    "zipcode": "4890909",
    "prefectureCode": "23",
    "prefectureNumber": 23,
    "prefecture": "愛知県",
    "city": "瀬戸市",
    "town": "みずの坂"
  },
  "4890910": {
    "zipcode": "4890910",
    "prefectureCode": "23",
    "prefectureNumber": 23,
    "prefecture": "愛知県",
    "city": "瀬戸市",
    "town": "北みずの坂"
  },
  "4890911": {
    "zipcode": "4890911",
    "prefectureCode": "23",
    "prefectureNumber": 23,
    "prefecture": "愛知県",
    "city": "瀬戸市",
    "town": "北松山町"
  },
  "4890912": {
    "zipcode": "4890912",
    "prefectureCode": "23",
    "prefectureNumber": 23,
    "prefecture": "愛知県",
    "city": "瀬戸市",
    "town": "西松山町"
  },
  "4890913": {
    "zipcode": "4890913",
    "prefectureCode": "23",
    "prefectureNumber": 23,
    "prefecture": "愛知県",
    "city": "瀬戸市",
    "town": "水南町"
  },
  "4890914": {
    "zipcode": "4890914",
    "prefectureCode": "23",
    "prefectureNumber": 23,
    "prefecture": "愛知県",
    "city": "瀬戸市",
    "town": "孫田町"
  },
  "4890915": {
    "zipcode": "4890915",
    "prefectureCode": "23",
    "prefectureNumber": 23,
    "prefecture": "愛知県",
    "city": "瀬戸市",
    "town": "北浦町"
  },
  "4890916": {
    "zipcode": "4890916",
    "prefectureCode": "23",
    "prefectureNumber": 23,
    "prefecture": "愛知県",
    "city": "瀬戸市",
    "town": "平町"
  },
  "4890917": {
    "zipcode": "4890917",
    "prefectureCode": "23",
    "prefectureNumber": 23,
    "prefecture": "愛知県",
    "city": "瀬戸市",
    "town": "效範町"
  },
  "4890918": {
    "zipcode": "4890918",
    "prefectureCode": "23",
    "prefectureNumber": 23,
    "prefecture": "愛知県",
    "city": "瀬戸市",
    "town": "北脇町"
  },
  "4890919": {
    "zipcode": "4890919",
    "prefectureCode": "23",
    "prefectureNumber": 23,
    "prefecture": "愛知県",
    "city": "瀬戸市",
    "town": "川端町"
  },
  "4890921": {
    "zipcode": "4890921",
    "prefectureCode": "23",
    "prefectureNumber": 23,
    "prefecture": "愛知県",
    "city": "瀬戸市",
    "town": "田端町"
  },
  "4890922": {
    "zipcode": "4890922",
    "prefectureCode": "23",
    "prefectureNumber": 23,
    "prefecture": "愛知県",
    "city": "瀬戸市",
    "town": "市場町"
  },
  "4890923": {
    "zipcode": "4890923",
    "prefectureCode": "23",
    "prefectureNumber": 23,
    "prefecture": "愛知県",
    "city": "瀬戸市",
    "town": "城屋敷町"
  },
  "4890924": {
    "zipcode": "4890924",
    "prefectureCode": "23",
    "prefectureNumber": 23,
    "prefecture": "愛知県",
    "city": "瀬戸市",
    "town": "城ケ根町"
  },
  "4890925": {
    "zipcode": "4890925",
    "prefectureCode": "23",
    "prefectureNumber": 23,
    "prefecture": "愛知県",
    "city": "瀬戸市",
    "town": "西寺山町"
  },
  "4890926": {
    "zipcode": "4890926",
    "prefectureCode": "23",
    "prefectureNumber": 23,
    "prefecture": "愛知県",
    "city": "瀬戸市",
    "town": "川西町"
  },
  "4890927": {
    "zipcode": "4890927",
    "prefectureCode": "23",
    "prefectureNumber": 23,
    "prefecture": "愛知県",
    "city": "瀬戸市",
    "town": "川北町"
  },
  "4890928": {
    "zipcode": "4890928",
    "prefectureCode": "23",
    "prefectureNumber": 23,
    "prefecture": "愛知県",
    "city": "瀬戸市",
    "town": "東寺山町"
  },
  "4890929": {
    "zipcode": "4890929",
    "prefectureCode": "23",
    "prefectureNumber": 23,
    "prefecture": "愛知県",
    "city": "瀬戸市",
    "town": "西長根町"
  },
  "4890931": {
    "zipcode": "4890931",
    "prefectureCode": "23",
    "prefectureNumber": 23,
    "prefecture": "愛知県",
    "city": "瀬戸市",
    "town": "高根町"
  },
  "4890932": {
    "zipcode": "4890932",
    "prefectureCode": "23",
    "prefectureNumber": 23,
    "prefecture": "愛知県",
    "city": "瀬戸市",
    "town": "美濃池町"
  },
  "4890933": {
    "zipcode": "4890933",
    "prefectureCode": "23",
    "prefectureNumber": 23,
    "prefecture": "愛知県",
    "city": "瀬戸市",
    "town": "神川町"
  },
  "4890934": {
    "zipcode": "4890934",
    "prefectureCode": "23",
    "prefectureNumber": 23,
    "prefecture": "愛知県",
    "city": "瀬戸市",
    "town": "菱野町"
  },
  "4890935": {
    "zipcode": "4890935",
    "prefectureCode": "23",
    "prefectureNumber": 23,
    "prefecture": "愛知県",
    "city": "瀬戸市",
    "town": "福元町"
  },
  "4890936": {
    "zipcode": "4890936",
    "prefectureCode": "23",
    "prefectureNumber": 23,
    "prefecture": "愛知県",
    "city": "瀬戸市",
    "town": "西脇町"
  },
  "4890937": {
    "zipcode": "4890937",
    "prefectureCode": "23",
    "prefectureNumber": 23,
    "prefecture": "愛知県",
    "city": "瀬戸市",
    "town": "南菱野町"
  },
  "4890938": {
    "zipcode": "4890938",
    "prefectureCode": "23",
    "prefectureNumber": 23,
    "prefecture": "愛知県",
    "city": "瀬戸市",
    "town": "幡西町"
  },
  "4890941": {
    "zipcode": "4890941",
    "prefectureCode": "23",
    "prefectureNumber": 23,
    "prefecture": "愛知県",
    "city": "瀬戸市",
    "town": "瀬戸口町"
  },
  "4890942": {
    "zipcode": "4890942",
    "prefectureCode": "23",
    "prefectureNumber": 23,
    "prefecture": "愛知県",
    "city": "瀬戸市",
    "town": "東菱野町"
  },
  "4890943": {
    "zipcode": "4890943",
    "prefectureCode": "23",
    "prefectureNumber": 23,
    "prefecture": "愛知県",
    "city": "瀬戸市",
    "town": "西米泉町"
  },
  "4890944": {
    "zipcode": "4890944",
    "prefectureCode": "23",
    "prefectureNumber": 23,
    "prefecture": "愛知県",
    "city": "瀬戸市",
    "town": "東米泉町"
  },
  "4890945": {
    "zipcode": "4890945",
    "prefectureCode": "23",
    "prefectureNumber": 23,
    "prefecture": "愛知県",
    "city": "瀬戸市",
    "town": "弁天町"
  },
  "4890946": {
    "zipcode": "4890946",
    "prefectureCode": "23",
    "prefectureNumber": 23,
    "prefecture": "愛知県",
    "city": "瀬戸市",
    "town": "幡中町"
  },
  "4890947": {
    "zipcode": "4890947",
    "prefectureCode": "23",
    "prefectureNumber": 23,
    "prefecture": "愛知県",
    "city": "瀬戸市",
    "town": "羽根町"
  },
  "4890948": {
    "zipcode": "4890948",
    "prefectureCode": "23",
    "prefectureNumber": 23,
    "prefecture": "愛知県",
    "city": "瀬戸市",
    "town": "幡山町"
  },
  "4890949": {
    "zipcode": "4890949",
    "prefectureCode": "23",
    "prefectureNumber": 23,
    "prefecture": "愛知県",
    "city": "瀬戸市",
    "town": "新田町"
  },
  "4890951": {
    "zipcode": "4890951",
    "prefectureCode": "23",
    "prefectureNumber": 23,
    "prefecture": "愛知県",
    "city": "瀬戸市",
    "town": "石田町"
  },
  "4890952": {
    "zipcode": "4890952",
    "prefectureCode": "23",
    "prefectureNumber": 23,
    "prefecture": "愛知県",
    "city": "瀬戸市",
    "town": "池田町"
  },
  "4890953": {
    "zipcode": "4890953",
    "prefectureCode": "23",
    "prefectureNumber": 23,
    "prefecture": "愛知県",
    "city": "瀬戸市",
    "town": "柳ケ坪町"
  },
  "4890954": {
    "zipcode": "4890954",
    "prefectureCode": "23",
    "prefectureNumber": 23,
    "prefecture": "愛知県",
    "city": "瀬戸市",
    "town": "台六町"
  },
  "4890955": {
    "zipcode": "4890955",
    "prefectureCode": "23",
    "prefectureNumber": 23,
    "prefecture": "愛知県",
    "city": "瀬戸市",
    "town": "南ケ丘町"
  },
  "4890961": {
    "zipcode": "4890961",
    "prefectureCode": "23",
    "prefectureNumber": 23,
    "prefecture": "愛知県",
    "city": "瀬戸市",
    "town": "田中町"
  },
  "4890962": {
    "zipcode": "4890962",
    "prefectureCode": "23",
    "prefectureNumber": 23,
    "prefecture": "愛知県",
    "city": "瀬戸市",
    "town": "大坪町"
  },
  "4890963": {
    "zipcode": "4890963",
    "prefectureCode": "23",
    "prefectureNumber": 23,
    "prefecture": "愛知県",
    "city": "瀬戸市",
    "town": "宮地町"
  },
  "4890964": {
    "zipcode": "4890964",
    "prefectureCode": "23",
    "prefectureNumber": 23,
    "prefecture": "愛知県",
    "city": "瀬戸市",
    "town": "上之山町"
  },
  "4890965": {
    "zipcode": "4890965",
    "prefectureCode": "23",
    "prefectureNumber": 23,
    "prefecture": "愛知県",
    "city": "瀬戸市",
    "town": "南山口町"
  },
  "4890966": {
    "zipcode": "4890966",
    "prefectureCode": "23",
    "prefectureNumber": 23,
    "prefecture": "愛知県",
    "city": "瀬戸市",
    "town": "掛下町"
  },
  "4890971": {
    "zipcode": "4890971",
    "prefectureCode": "23",
    "prefectureNumber": 23,
    "prefecture": "愛知県",
    "city": "瀬戸市",
    "town": "西本地町"
  },
  "4890972": {
    "zipcode": "4890972",
    "prefectureCode": "23",
    "prefectureNumber": 23,
    "prefecture": "愛知県",
    "city": "瀬戸市",
    "town": "西原町"
  },
  "4890973": {
    "zipcode": "4890973",
    "prefectureCode": "23",
    "prefectureNumber": 23,
    "prefecture": "愛知県",
    "city": "瀬戸市",
    "town": "東本地町"
  },
  "4890974": {
    "zipcode": "4890974",
    "prefectureCode": "23",
    "prefectureNumber": 23,
    "prefecture": "愛知県",
    "city": "瀬戸市",
    "town": "駒前町"
  },
  "4890975": {
    "zipcode": "4890975",
    "prefectureCode": "23",
    "prefectureNumber": 23,
    "prefecture": "愛知県",
    "city": "瀬戸市",
    "town": "山の田町"
  },
  "4890976": {
    "zipcode": "4890976",
    "prefectureCode": "23",
    "prefectureNumber": 23,
    "prefecture": "愛知県",
    "city": "瀬戸市",
    "town": "井戸金町"
  },
  "4890977": {
    "zipcode": "4890977",
    "prefectureCode": "23",
    "prefectureNumber": 23,
    "prefecture": "愛知県",
    "city": "瀬戸市",
    "town": "坂上町"
  },
  "4890978": {
    "zipcode": "4890978",
    "prefectureCode": "23",
    "prefectureNumber": 23,
    "prefecture": "愛知県",
    "city": "瀬戸市",
    "town": "小坂町"
  },
  "4890979": {
    "zipcode": "4890979",
    "prefectureCode": "23",
    "prefectureNumber": 23,
    "prefecture": "愛知県",
    "city": "瀬戸市",
    "town": "坊金町"
  },
  "4890980": {
    "zipcode": "4890980",
    "prefectureCode": "23",
    "prefectureNumber": 23,
    "prefecture": "愛知県",
    "city": "瀬戸市",
    "town": "やまて坂"
  },
  "4890981": {
    "zipcode": "4890981",
    "prefectureCode": "23",
    "prefectureNumber": 23,
    "prefecture": "愛知県",
    "city": "瀬戸市",
    "town": "ひまわり台"
  },
  "4890982": {
    "zipcode": "4890982",
    "prefectureCode": "23",
    "prefectureNumber": 23,
    "prefecture": "愛知県",
    "city": "瀬戸市",
    "town": "さつき台"
  },
  "4890983": {
    "zipcode": "4890983",
    "prefectureCode": "23",
    "prefectureNumber": 23,
    "prefecture": "愛知県",
    "city": "瀬戸市",
    "town": "苗場町"
  },
  "4890984": {
    "zipcode": "4890984",
    "prefectureCode": "23",
    "prefectureNumber": 23,
    "prefecture": "愛知県",
    "city": "瀬戸市",
    "town": "北山町"
  },
  "4890985": {
    "zipcode": "4890985",
    "prefectureCode": "23",
    "prefectureNumber": 23,
    "prefecture": "愛知県",
    "city": "瀬戸市",
    "town": "松原町"
  },
  "4890986": {
    "zipcode": "4890986",
    "prefectureCode": "23",
    "prefectureNumber": 23,
    "prefecture": "愛知県",
    "city": "瀬戸市",
    "town": "南山町"
  },
  "4890987": {
    "zipcode": "4890987",
    "prefectureCode": "23",
    "prefectureNumber": 23,
    "prefecture": "愛知県",
    "city": "瀬戸市",
    "town": "西山町"
  },
  "4890988": {
    "zipcode": "4890988",
    "prefectureCode": "23",
    "prefectureNumber": 23,
    "prefecture": "愛知県",
    "city": "瀬戸市",
    "town": "東山町"
  },
  "4890989": {
    "zipcode": "4890989",
    "prefectureCode": "23",
    "prefectureNumber": 23,
    "prefecture": "愛知県",
    "city": "瀬戸市",
    "town": "山手町"
  }
}
