{
  "4910000": {
    "zipcode": "4910000",
    "prefectureCode": "23",
    "prefectureNumber": 23,
    "prefecture": "愛知県",
    "city": "一宮市",
    "town": "以下に掲載がない場合"
  },
  "4910001": {
    "zipcode": "4910001",
    "prefectureCode": "23",
    "prefectureNumber": 23,
    "prefecture": "愛知県",
    "city": "一宮市",
    "town": "瀬部"
  },
  "4910002": {
    "zipcode": "4910002",
    "prefectureCode": "23",
    "prefectureNumber": 23,
    "prefecture": "愛知県",
    "city": "一宮市",
    "town": "時之島"
  },
  "4910003": {
    "zipcode": "4910003",
    "prefectureCode": "23",
    "prefectureNumber": 23,
    "prefecture": "愛知県",
    "city": "一宮市",
    "town": "春明"
  },
  "4910004": {
    "zipcode": "4910004",
    "prefectureCode": "23",
    "prefectureNumber": 23,
    "prefecture": "愛知県",
    "city": "一宮市",
    "town": "定水寺"
  },
  "4910005": {
    "zipcode": "4910005",
    "prefectureCode": "23",
    "prefectureNumber": 23,
    "prefecture": "愛知県",
    "city": "一宮市",
    "town": "西大海道"
  },
  "4910011": {
    "zipcode": "4910011",
    "prefectureCode": "23",
    "prefectureNumber": 23,
    "prefecture": "愛知県",
    "city": "一宮市",
    "town": "柚木颪"
  },
  "4910012": {
    "zipcode": "4910012",
    "prefectureCode": "23",
    "prefectureNumber": 23,
    "prefecture": "愛知県",
    "city": "一宮市",
    "town": "小赤見"
  },
  "4910013": {
    "zipcode": "4910013",
    "prefectureCode": "23",
    "prefectureNumber": 23,
    "prefecture": "愛知県",
    "city": "一宮市",
    "town": "北小渕"
  },
  "4910014": {
    "zipcode": "4910014",
    "prefectureCode": "23",
    "prefectureNumber": 23,
    "prefecture": "愛知県",
    "city": "一宮市",
    "town": "南小渕"
  },
  "4910015": {
    "zipcode": "4910015",
    "prefectureCode": "23",
    "prefectureNumber": 23,
    "prefecture": "愛知県",
    "city": "一宮市",
    "town": "大赤見"
  },
  "4910021": {
    "zipcode": "4910021",
    "prefectureCode": "23",
    "prefectureNumber": 23,
    "prefecture": "愛知県",
    "city": "一宮市",
    "town": "東両郷町"
  },
  "4910022": {
    "zipcode": "4910022",
    "prefectureCode": "23",
    "prefectureNumber": 23,
    "prefecture": "愛知県",
    "city": "一宮市",
    "town": "両郷町"
  },
  "4910023": {
    "zipcode": "4910023",
    "prefectureCode": "23",
    "prefectureNumber": 23,
    "prefecture": "愛知県",
    "city": "一宮市",
    "town": "赤見"
  },
  "4910024": {
    "zipcode": "4910024",
    "prefectureCode": "23",
    "prefectureNumber": 23,
    "prefecture": "愛知県",
    "city": "一宮市",
    "town": "富士"
  },
  "4910025": {
    "zipcode": "4910025",
    "prefectureCode": "23",
    "prefectureNumber": 23,
    "prefecture": "愛知県",
    "city": "一宮市",
    "town": "羽衣"
  },
  "4910026": {
    "zipcode": "4910026",
    "prefectureCode": "23",
    "prefectureNumber": 23,
    "prefecture": "愛知県",
    "city": "一宮市",
    "town": "和光"
  },
  "4910027": {
    "zipcode": "4910027",
    "prefectureCode": "23",
    "prefectureNumber": 23,
    "prefecture": "愛知県",
    "city": "一宮市",
    "town": "藤塚町"
  },
  "4910028": {
    "zipcode": "4910028",
    "prefectureCode": "23",
    "prefectureNumber": 23,
    "prefecture": "愛知県",
    "city": "一宮市",
    "town": "朝日"
  },
  "4910031": {
    "zipcode": "4910031",
    "prefectureCode": "23",
    "prefectureNumber": 23,
    "prefecture": "愛知県",
    "city": "一宮市",
    "town": "観音町"
  },
  "4910032": {
    "zipcode": "4910032",
    "prefectureCode": "23",
    "prefectureNumber": 23,
    "prefecture": "愛知県",
    "city": "一宮市",
    "town": "下沼町"
  },
  "4910033": {
    "zipcode": "4910033",
    "prefectureCode": "23",
    "prefectureNumber": 23,
    "prefecture": "愛知県",
    "city": "一宮市",
    "town": "別明町"
  },
  "4910034": {
    "zipcode": "4910034",
    "prefectureCode": "23",
    "prefectureNumber": 23,
    "prefecture": "愛知県",
    "city": "一宮市",
    "town": "浜町"
  },
  "4910035": {
    "zipcode": "4910035",
    "prefectureCode": "23",
    "prefectureNumber": 23,
    "prefecture": "愛知県",
    "city": "一宮市",
    "town": "大浜"
  },
  "4910036": {
    "zipcode": "4910036",
    "prefectureCode": "23",
    "prefectureNumber": 23,
    "prefecture": "愛知県",
    "city": "一宮市",
    "town": "桜"
  },
  "4910037": {
    "zipcode": "4910037",
    "prefectureCode": "23",
    "prefectureNumber": 23,
    "prefecture": "愛知県",
    "city": "一宮市",
    "town": "貴船"
  },
  "4910041": {
    "zipcode": "4910041",
    "prefectureCode": "23",
    "prefectureNumber": 23,
    "prefecture": "愛知県",
    "city": "一宮市",
    "town": "文京"
  },
  "4910042": {
    "zipcode": "4910042",
    "prefectureCode": "23",
    "prefectureNumber": 23,
    "prefecture": "愛知県",
    "city": "一宮市",
    "town": "松降"
  },
  "4910043": {
    "zipcode": "4910043",
    "prefectureCode": "23",
    "prefectureNumber": 23,
    "prefecture": "愛知県",
    "city": "一宮市",
    "town": "真清田"
  },
  "4910044": {
    "zipcode": "4910044",
    "prefectureCode": "23",
    "prefectureNumber": 23,
    "prefecture": "愛知県",
    "city": "一宮市",
    "town": "大宮"
  },
  "4910045": {
    "zipcode": "4910045",
    "prefectureCode": "23",
    "prefectureNumber": 23,
    "prefecture": "愛知県",
    "city": "一宮市",
    "town": "音羽"
  },
  "4910046": {
    "zipcode": "4910046",
    "prefectureCode": "23",
    "prefectureNumber": 23,
    "prefecture": "愛知県",
    "city": "一宮市",
    "town": "天王"
  },
  "4910051": {
    "zipcode": "4910051",
    "prefectureCode": "23",
    "prefectureNumber": 23,
    "prefecture": "愛知県",
    "city": "一宮市",
    "town": "今伊勢町馬寄（その他）"
  },
  "4910052": {
    "zipcode": "4910052",
    "prefectureCode": "23",
    "prefectureNumber": 23,
    "prefecture": "愛知県",
    "city": "一宮市",
    "town": "今伊勢町新神戸"
  },
  "4910053": {
    "zipcode": "4910053",
    "prefectureCode": "23",
    "prefectureNumber": 23,
    "prefecture": "愛知県",
    "city": "一宮市",
    "town": "今伊勢町本神戸"
  },
  "4910054": {
    "zipcode": "4910054",
    "prefectureCode": "23",
    "prefectureNumber": 23,
    "prefecture": "愛知県",
    "city": "一宮市",
    "town": "大正通"
  },
  "4910055": {
    "zipcode": "4910055",
    "prefectureCode": "23",
    "prefectureNumber": 23,
    "prefecture": "愛知県",
    "city": "一宮市",
    "town": "神戸町"
  },
  "4910056": {
    "zipcode": "4910056",
    "prefectureCode": "23",
    "prefectureNumber": 23,
    "prefecture": "愛知県",
    "city": "一宮市",
    "town": "東出町"
  },
  "4910057": {
    "zipcode": "4910057",
    "prefectureCode": "23",
    "prefectureNumber": 23,
    "prefecture": "愛知県",
    "city": "一宮市",
    "town": "今伊勢町宮後"
  },
  "4910058": {
    "zipcode": "4910058",
    "prefectureCode": "23",
    "prefectureNumber": 23,
    "prefecture": "愛知県",
    "city": "一宮市",
    "town": "今伊勢町馬寄（舟入）"
  },
  "4910059": {
    "zipcode": "4910059",
    "prefectureCode": "23",
    "prefectureNumber": 23,
    "prefecture": "愛知県",
    "city": "一宮市",
    "town": "一宮"
  },
  "4910061": {
    "zipcode": "4910061",
    "prefectureCode": "23",
    "prefectureNumber": 23,
    "prefecture": "愛知県",
    "city": "一宮市",
    "town": "乾町"
  },
  "4910062": {
    "zipcode": "4910062",
    "prefectureCode": "23",
    "prefectureNumber": 23,
    "prefecture": "愛知県",
    "city": "一宮市",
    "town": "西島町"
  },
  "4910063": {
    "zipcode": "4910063",
    "prefectureCode": "23",
    "prefectureNumber": 23,
    "prefecture": "愛知県",
    "city": "一宮市",
    "town": "常願通"
  },
  "4910064": {
    "zipcode": "4910064",
    "prefectureCode": "23",
    "prefectureNumber": 23,
    "prefecture": "愛知県",
    "city": "一宮市",
    "town": "宮西通"
  },
  "4910065": {
    "zipcode": "4910065",
    "prefectureCode": "23",
    "prefectureNumber": 23,
    "prefecture": "愛知県",
    "city": "一宮市",
    "town": "水落町"
  },
  "4910066": {
    "zipcode": "4910066",
    "prefectureCode": "23",
    "prefectureNumber": 23,
    "prefecture": "愛知県",
    "city": "一宮市",
    "town": "三丹町"
  },
  "4910067": {
    "zipcode": "4910067",
    "prefectureCode": "23",
    "prefectureNumber": 23,
    "prefecture": "愛知県",
    "city": "一宮市",
    "town": "北丹町"
  },
  "4910068": {
    "zipcode": "4910068",
    "prefectureCode": "23",
    "prefectureNumber": 23,
    "prefecture": "愛知県",
    "city": "一宮市",
    "town": "小栗町"
  },
  "4910069": {
    "zipcode": "4910069",
    "prefectureCode": "23",
    "prefectureNumber": 23,
    "prefecture": "愛知県",
    "city": "一宮市",
    "town": "北神明町"
  },
  "4910071": {
    "zipcode": "4910071",
    "prefectureCode": "23",
    "prefectureNumber": 23,
    "prefecture": "愛知県",
    "city": "一宮市",
    "town": "長島町"
  },
  "4910072": {
    "zipcode": "4910072",
    "prefectureCode": "23",
    "prefectureNumber": 23,
    "prefecture": "愛知県",
    "city": "一宮市",
    "town": "中島通"
  },
  "4910073": {
    "zipcode": "4910073",
    "prefectureCode": "23",
    "prefectureNumber": 23,
    "prefecture": "愛知県",
    "city": "一宮市",
    "town": "高畑町"
  },
  "4910074": {
    "zipcode": "4910074",
    "prefectureCode": "23",
    "prefectureNumber": 23,
    "prefecture": "愛知県",
    "city": "一宮市",
    "town": "東島町"
  },
  "4910075": {
    "zipcode": "4910075",
    "prefectureCode": "23",
    "prefectureNumber": 23,
    "prefecture": "愛知県",
    "city": "一宮市",
    "town": "寺島町"
  },
  "4910076": {
    "zipcode": "4910076",
    "prefectureCode": "23",
    "prefectureNumber": 23,
    "prefecture": "愛知県",
    "city": "一宮市",
    "town": "貴船町"
  },
  "4910077": {
    "zipcode": "4910077",
    "prefectureCode": "23",
    "prefectureNumber": 23,
    "prefecture": "愛知県",
    "city": "一宮市",
    "town": "枠杁町"
  },
  "4910078": {
    "zipcode": "4910078",
    "prefectureCode": "23",
    "prefectureNumber": 23,
    "prefecture": "愛知県",
    "city": "一宮市",
    "town": "松降通"
  },
  "4910079": {
    "zipcode": "4910079",
    "prefectureCode": "23",
    "prefectureNumber": 23,
    "prefecture": "愛知県",
    "city": "一宮市",
    "town": "九品町"
  },
  "4910081": {
    "zipcode": "4910081",
    "prefectureCode": "23",
    "prefectureNumber": 23,
    "prefecture": "愛知県",
    "city": "一宮市",
    "town": "西小原町"
  },
  "4910082": {
    "zipcode": "4910082",
    "prefectureCode": "23",
    "prefectureNumber": 23,
    "prefecture": "愛知県",
    "city": "一宮市",
    "town": "小原町"
  },
  "4910083": {
    "zipcode": "4910083",
    "prefectureCode": "23",
    "prefectureNumber": 23,
    "prefecture": "愛知県",
    "city": "一宮市",
    "town": "丹羽"
  },
  "4910084": {
    "zipcode": "4910084",
    "prefectureCode": "23",
    "prefectureNumber": 23,
    "prefecture": "愛知県",
    "city": "一宮市",
    "town": "古見町"
  },
  "4910085": {
    "zipcode": "4910085",
    "prefectureCode": "23",
    "prefectureNumber": 23,
    "prefecture": "愛知県",
    "city": "一宮市",
    "town": "松山町"
  },
  "4910086": {
    "zipcode": "4910086",
    "prefectureCode": "23",
    "prefectureNumber": 23,
    "prefecture": "愛知県",
    "city": "一宮市",
    "town": "田島町"
  },
  "4910101": {
    "zipcode": "4910101",
    "prefectureCode": "23",
    "prefectureNumber": 23,
    "prefecture": "愛知県",
    "city": "一宮市",
    "town": "浅井町尾関"
  },
  "4910102": {
    "zipcode": "4910102",
    "prefectureCode": "23",
    "prefectureNumber": 23,
    "prefecture": "愛知県",
    "city": "一宮市",
    "town": "浅井町尾関（長田）"
  },
  "4910103": {
    "zipcode": "4910103",
    "prefectureCode": "23",
    "prefectureNumber": 23,
    "prefecture": "愛知県",
    "city": "一宮市",
    "town": "浅井町前野"
  },
  "4910104": {
    "zipcode": "4910104",
    "prefectureCode": "23",
    "prefectureNumber": 23,
    "prefecture": "愛知県",
    "city": "一宮市",
    "town": "浅井町小日比野"
  },
  "4910105": {
    "zipcode": "4910105",
    "prefectureCode": "23",
    "prefectureNumber": 23,
    "prefecture": "愛知県",
    "city": "一宮市",
    "town": "浅井町大日比野"
  },
  "4910111": {
    "zipcode": "4910111",
    "prefectureCode": "23",
    "prefectureNumber": 23,
    "prefecture": "愛知県",
    "city": "一宮市",
    "town": "浅井町河端"
  },
  "4910112": {
    "zipcode": "4910112",
    "prefectureCode": "23",
    "prefectureNumber": 23,
    "prefecture": "愛知県",
    "city": "一宮市",
    "town": "浅井町東浅井"
  },
  "4910113": {
    "zipcode": "4910113",
    "prefectureCode": "23",
    "prefectureNumber": 23,
    "prefecture": "愛知県",
    "city": "一宮市",
    "town": "浅井町西浅井"
  },
  "4910114": {
    "zipcode": "4910114",
    "prefectureCode": "23",
    "prefectureNumber": 23,
    "prefecture": "愛知県",
    "city": "一宮市",
    "town": "浅井町江森"
  },
  "4910115": {
    "zipcode": "4910115",
    "prefectureCode": "23",
    "prefectureNumber": 23,
    "prefecture": "愛知県",
    "city": "一宮市",
    "town": "浅井町西海戸"
  },
  "4910121": {
    "zipcode": "4910121",
    "prefectureCode": "23",
    "prefectureNumber": 23,
    "prefecture": "愛知県",
    "city": "一宮市",
    "town": "島村"
  },
  "4910122": {
    "zipcode": "4910122",
    "prefectureCode": "23",
    "prefectureNumber": 23,
    "prefecture": "愛知県",
    "city": "一宮市",
    "town": "島村（西山）"
  },
  "4910123": {
    "zipcode": "4910123",
    "prefectureCode": "23",
    "prefectureNumber": 23,
    "prefecture": "愛知県",
    "city": "一宮市",
    "town": "富塚"
  },
  "4910124": {
    "zipcode": "4910124",
    "prefectureCode": "23",
    "prefectureNumber": 23,
    "prefecture": "愛知県",
    "city": "一宮市",
    "town": "佐千原"
  },
  "4910125": {
    "zipcode": "4910125",
    "prefectureCode": "23",
    "prefectureNumber": 23,
    "prefecture": "愛知県",
    "city": "一宮市",
    "town": "高田"
  },
  "4910131": {
    "zipcode": "4910131",
    "prefectureCode": "23",
    "prefectureNumber": 23,
    "prefecture": "愛知県",
    "city": "一宮市",
    "town": "笹野"
  },
  "4910132": {
    "zipcode": "4910132",
    "prefectureCode": "23",
    "prefectureNumber": 23,
    "prefecture": "愛知県",
    "city": "一宮市",
    "town": "大毛"
  },
  "4910133": {
    "zipcode": "4910133",
    "prefectureCode": "23",
    "prefectureNumber": 23,
    "prefecture": "愛知県",
    "city": "一宮市",
    "town": "田所"
  },
  "4910134": {
    "zipcode": "4910134",
    "prefectureCode": "23",
    "prefectureNumber": 23,
    "prefecture": "愛知県",
    "city": "一宮市",
    "town": "更屋敷"
  },
  "4910135": {
    "zipcode": "4910135",
    "prefectureCode": "23",
    "prefectureNumber": 23,
    "prefecture": "愛知県",
    "city": "一宮市",
    "town": "光明寺"
  },
  "4910136": {
    "zipcode": "4910136",
    "prefectureCode": "23",
    "prefectureNumber": 23,
    "prefecture": "愛知県",
    "city": "一宮市",
    "town": "杉山"
  },
  "4910141": {
    "zipcode": "4910141",
    "prefectureCode": "23",
    "prefectureNumber": 23,
    "prefecture": "愛知県",
    "city": "一宮市",
    "town": "浅井町黒岩"
  },
  "4910142": {
    "zipcode": "4910142",
    "prefectureCode": "23",
    "prefectureNumber": 23,
    "prefecture": "愛知県",
    "city": "一宮市",
    "town": "浅井町河田"
  },
  "4910143": {
    "zipcode": "4910143",
    "prefectureCode": "23",
    "prefectureNumber": 23,
    "prefecture": "愛知県",
    "city": "一宮市",
    "town": "浅井町大野"
  },
  "4910144": {
    "zipcode": "4910144",
    "prefectureCode": "23",
    "prefectureNumber": 23,
    "prefecture": "愛知県",
    "city": "一宮市",
    "town": "浅井町極楽寺"
  },
  "4910201": {
    "zipcode": "4910201",
    "prefectureCode": "23",
    "prefectureNumber": 23,
    "prefecture": "愛知県",
    "city": "一宮市",
    "town": "奥町"
  },
  "4910351": {
    "zipcode": "4910351",
    "prefectureCode": "23",
    "prefectureNumber": 23,
    "prefecture": "愛知県",
    "city": "一宮市",
    "town": "萩原町花井方"
  },
  "4910352": {
    "zipcode": "4910352",
    "prefectureCode": "23",
    "prefectureNumber": 23,
    "prefecture": "愛知県",
    "city": "一宮市",
    "town": "萩原町富田方"
  },
  "4910353": {
    "zipcode": "4910353",
    "prefectureCode": "23",
    "prefectureNumber": 23,
    "prefecture": "愛知県",
    "city": "一宮市",
    "town": "萩原町萩原"
  },
  "4910354": {
    "zipcode": "4910354",
    "prefectureCode": "23",
    "prefectureNumber": 23,
    "prefecture": "愛知県",
    "city": "一宮市",
    "town": "萩原町朝宮"
  },
  "4910361": {
    "zipcode": "4910361",
    "prefectureCode": "23",
    "prefectureNumber": 23,
    "prefecture": "愛知県",
    "city": "一宮市",
    "town": "萩原町林野"
  },
  "4910362": {
    "zipcode": "4910362",
    "prefectureCode": "23",
    "prefectureNumber": 23,
    "prefecture": "愛知県",
    "city": "一宮市",
    "town": "萩原町西宮重"
  },
  "4910363": {
    "zipcode": "4910363",
    "prefectureCode": "23",
    "prefectureNumber": 23,
    "prefecture": "愛知県",
    "city": "一宮市",
    "town": "萩原町東宮重"
  },
  "4910364": {
    "zipcode": "4910364",
    "prefectureCode": "23",
    "prefectureNumber": 23,
    "prefecture": "愛知県",
    "city": "一宮市",
    "town": "萩原町中島"
  },
  "4910365": {
    "zipcode": "4910365",
    "prefectureCode": "23",
    "prefectureNumber": 23,
    "prefecture": "愛知県",
    "city": "一宮市",
    "town": "萩原町西御堂"
  },
  "4910366": {
    "zipcode": "4910366",
    "prefectureCode": "23",
    "prefectureNumber": 23,
    "prefecture": "愛知県",
    "city": "一宮市",
    "town": "萩原町河田方"
  },
  "4910371": {
    "zipcode": "4910371",
    "prefectureCode": "23",
    "prefectureNumber": 23,
    "prefecture": "愛知県",
    "city": "一宮市",
    "town": "萩原町高木"
  },
  "4910372": {
    "zipcode": "4910372",
    "prefectureCode": "23",
    "prefectureNumber": 23,
    "prefecture": "愛知県",
    "city": "一宮市",
    "town": "萩原町滝"
  },
  "4910373": {
    "zipcode": "4910373",
    "prefectureCode": "23",
    "prefectureNumber": 23,
    "prefecture": "愛知県",
    "city": "一宮市",
    "town": "萩原町高松"
  },
  "4910374": {
    "zipcode": "4910374",
    "prefectureCode": "23",
    "prefectureNumber": 23,
    "prefecture": "愛知県",
    "city": "一宮市",
    "town": "萩原町築込"
  },
  "4910375": {
    "zipcode": "4910375",
    "prefectureCode": "23",
    "prefectureNumber": 23,
    "prefecture": "愛知県",
    "city": "一宮市",
    "town": "萩原町戸苅"
  },
  "4910376": {
    "zipcode": "4910376",
    "prefectureCode": "23",
    "prefectureNumber": 23,
    "prefecture": "愛知県",
    "city": "一宮市",
    "town": "萩原町串作"
  },
  "4910801": {
    "zipcode": "4910801",
    "prefectureCode": "23",
    "prefectureNumber": 23,
    "prefecture": "愛知県",
    "city": "一宮市",
    "town": "千秋町加茂"
  },
  "4910802": {
    "zipcode": "4910802",
    "prefectureCode": "23",
    "prefectureNumber": 23,
    "prefecture": "愛知県",
    "city": "一宮市",
    "town": "千秋町勝栗"
  },
  "4910803": {
    "zipcode": "4910803",
    "prefectureCode": "23",
    "prefectureNumber": 23,
    "prefecture": "愛知県",
    "city": "一宮市",
    "town": "千秋町穂積塚本"
  },
  "4910804": {
    "zipcode": "4910804",
    "prefectureCode": "23",
    "prefectureNumber": 23,
    "prefecture": "愛知県",
    "city": "一宮市",
    "town": "千秋町佐野"
  },
  "4910805": {
    "zipcode": "4910805",
    "prefectureCode": "23",
    "prefectureNumber": 23,
    "prefecture": "愛知県",
    "city": "一宮市",
    "town": "千秋町一色"
  },
  "4910806": {
    "zipcode": "4910806",
    "prefectureCode": "23",
    "prefectureNumber": 23,
    "prefecture": "愛知県",
    "city": "一宮市",
    "town": "千秋町浮野"
  },
  "4910811": {
    "zipcode": "4910811",
    "prefectureCode": "23",
    "prefectureNumber": 23,
    "prefecture": "愛知県",
    "city": "一宮市",
    "town": "千秋町加納馬場"
  },
  "4910812": {
    "zipcode": "4910812",
    "prefectureCode": "23",
    "prefectureNumber": 23,
    "prefecture": "愛知県",
    "city": "一宮市",
    "town": "千秋町芝原"
  },
  "4910813": {
    "zipcode": "4910813",
    "prefectureCode": "23",
    "prefectureNumber": 23,
    "prefecture": "愛知県",
    "city": "一宮市",
    "town": "千秋町町屋"
  },
  "4910814": {
    "zipcode": "4910814",
    "prefectureCode": "23",
    "prefectureNumber": 23,
    "prefecture": "愛知県",
    "city": "一宮市",
    "town": "千秋町小山"
  },
  "4910815": {
    "zipcode": "4910815",
    "prefectureCode": "23",
    "prefectureNumber": 23,
    "prefecture": "愛知県",
    "city": "一宮市",
    "town": "千秋町塩尻"
  },
  "4910816": {
    "zipcode": "4910816",
    "prefectureCode": "23",
    "prefectureNumber": 23,
    "prefecture": "愛知県",
    "city": "一宮市",
    "town": "千秋町浅野羽根"
  },
  "4910817": {
    "zipcode": "4910817",
    "prefectureCode": "23",
    "prefectureNumber": 23,
    "prefecture": "愛知県",
    "city": "一宮市",
    "town": "千秋町天摩"
  },
  "4910821": {
    "zipcode": "4910821",
    "prefectureCode": "23",
    "prefectureNumber": 23,
    "prefecture": "愛知県",
    "city": "一宮市",
    "town": "丹陽町重吉"
  },
  "4910823": {
    "zipcode": "4910823",
    "prefectureCode": "23",
    "prefectureNumber": 23,
    "prefecture": "愛知県",
    "city": "一宮市",
    "town": "丹陽町五日市場"
  },
  "4910824": {
    "zipcode": "4910824",
    "prefectureCode": "23",
    "prefectureNumber": 23,
    "prefecture": "愛知県",
    "city": "一宮市",
    "town": "丹陽町九日市場"
  },
  "4910825": {
    "zipcode": "4910825",
    "prefectureCode": "23",
    "prefectureNumber": 23,
    "prefecture": "愛知県",
    "city": "一宮市",
    "town": "丹陽町外崎"
  },
  "4910826": {
    "zipcode": "4910826",
    "prefectureCode": "23",
    "prefectureNumber": 23,
    "prefecture": "愛知県",
    "city": "一宮市",
    "town": "丹陽町三ツ井"
  },
  "4910827": {
    "zipcode": "4910827",
    "prefectureCode": "23",
    "prefectureNumber": 23,
    "prefecture": "愛知県",
    "city": "一宮市",
    "town": "三ツ井"
  },
  "4910828": {
    "zipcode": "4910828",
    "prefectureCode": "23",
    "prefectureNumber": 23,
    "prefecture": "愛知県",
    "city": "一宮市",
    "town": "伝法寺"
  },
  "4910831": {
    "zipcode": "4910831",
    "prefectureCode": "23",
    "prefectureNumber": 23,
    "prefecture": "愛知県",
    "city": "一宮市",
    "town": "森本"
  },
  "4910832": {
    "zipcode": "4910832",
    "prefectureCode": "23",
    "prefectureNumber": 23,
    "prefecture": "愛知県",
    "city": "一宮市",
    "town": "若竹"
  },
  "4910833": {
    "zipcode": "4910833",
    "prefectureCode": "23",
    "prefectureNumber": 23,
    "prefecture": "愛知県",
    "city": "一宮市",
    "town": "平島"
  },
  "4910834": {
    "zipcode": "4910834",
    "prefectureCode": "23",
    "prefectureNumber": 23,
    "prefecture": "愛知県",
    "city": "一宮市",
    "town": "島崎"
  },
  "4910835": {
    "zipcode": "4910835",
    "prefectureCode": "23",
    "prefectureNumber": 23,
    "prefecture": "愛知県",
    "city": "一宮市",
    "town": "あずら"
  },
  "4910836": {
    "zipcode": "4910836",
    "prefectureCode": "23",
    "prefectureNumber": 23,
    "prefecture": "愛知県",
    "city": "一宮市",
    "town": "丹陽町多加木"
  },
  "4910837": {
    "zipcode": "4910837",
    "prefectureCode": "23",
    "prefectureNumber": 23,
    "prefecture": "愛知県",
    "city": "一宮市",
    "town": "多加木"
  },
  "4910838": {
    "zipcode": "4910838",
    "prefectureCode": "23",
    "prefectureNumber": 23,
    "prefecture": "愛知県",
    "city": "一宮市",
    "town": "丹陽町猿海道"
  },
  "4910841": {
    "zipcode": "4910841",
    "prefectureCode": "23",
    "prefectureNumber": 23,
    "prefecture": "愛知県",
    "city": "一宮市",
    "town": "松島町"
  },
  "4910842": {
    "zipcode": "4910842",
    "prefectureCode": "23",
    "prefectureNumber": 23,
    "prefecture": "愛知県",
    "city": "一宮市",
    "town": "公園通"
  },
  "4910843": {
    "zipcode": "4910843",
    "prefectureCode": "23",
    "prefectureNumber": 23,
    "prefecture": "愛知県",
    "city": "一宮市",
    "town": "柳戸町"
  },
  "4910844": {
    "zipcode": "4910844",
    "prefectureCode": "23",
    "prefectureNumber": 23,
    "prefecture": "愛知県",
    "city": "一宮市",
    "town": "八町通"
  },
  "4910845": {
    "zipcode": "4910845",
    "prefectureCode": "23",
    "prefectureNumber": 23,
    "prefecture": "愛知県",
    "city": "一宮市",
    "town": "下川田町"
  },
  "4910846": {
    "zipcode": "4910846",
    "prefectureCode": "23",
    "prefectureNumber": 23,
    "prefecture": "愛知県",
    "city": "一宮市",
    "town": "牛野通"
  },
  "4910847": {
    "zipcode": "4910847",
    "prefectureCode": "23",
    "prefectureNumber": 23,
    "prefecture": "愛知県",
    "city": "一宮市",
    "town": "大和町宮地花池"
  },
  "4910848": {
    "zipcode": "4910848",
    "prefectureCode": "23",
    "prefectureNumber": 23,
    "prefecture": "愛知県",
    "city": "一宮市",
    "town": "殿町"
  },
  "4910851": {
    "zipcode": "4910851",
    "prefectureCode": "23",
    "prefectureNumber": 23,
    "prefecture": "愛知県",
    "city": "一宮市",
    "town": "大江"
  },
  "4910852": {
    "zipcode": "4910852",
    "prefectureCode": "23",
    "prefectureNumber": 23,
    "prefecture": "愛知県",
    "city": "一宮市",
    "town": "大志"
  },
  "4910853": {
    "zipcode": "4910853",
    "prefectureCode": "23",
    "prefectureNumber": 23,
    "prefecture": "愛知県",
    "city": "一宮市",
    "town": "川田町"
  },
  "4910854": {
    "zipcode": "4910854",
    "prefectureCode": "23",
    "prefectureNumber": 23,
    "prefecture": "愛知県",
    "city": "一宮市",
    "town": "北園通"
  },
  "4910855": {
    "zipcode": "4910855",
    "prefectureCode": "23",
    "prefectureNumber": 23,
    "prefecture": "愛知県",
    "city": "一宮市",
    "town": "石山町"
  },
  "4910856": {
    "zipcode": "4910856",
    "prefectureCode": "23",
    "prefectureNumber": 23,
    "prefecture": "愛知県",
    "city": "一宮市",
    "town": "本町通"
  },
  "4910857": {
    "zipcode": "4910857",
    "prefectureCode": "23",
    "prefectureNumber": 23,
    "prefecture": "愛知県",
    "city": "一宮市",
    "town": "明治通"
  },
  "4910858": {
    "zipcode": "4910858",
    "prefectureCode": "23",
    "prefectureNumber": 23,
    "prefecture": "愛知県",
    "city": "一宮市",
    "town": "栄"
  },
  "4910859": {
    "zipcode": "4910859",
    "prefectureCode": "23",
    "prefectureNumber": 23,
    "prefecture": "愛知県",
    "city": "一宮市",
    "town": "本町"
  },
  "4910861": {
    "zipcode": "4910861",
    "prefectureCode": "23",
    "prefectureNumber": 23,
    "prefecture": "愛知県",
    "city": "一宮市",
    "town": "泉"
  },
  "4910862": {
    "zipcode": "4910862",
    "prefectureCode": "23",
    "prefectureNumber": 23,
    "prefecture": "愛知県",
    "city": "一宮市",
    "town": "緑"
  },
  "4910863": {
    "zipcode": "4910863",
    "prefectureCode": "23",
    "prefectureNumber": 23,
    "prefecture": "愛知県",
    "city": "一宮市",
    "town": "東印田町"
  },
  "4910865": {
    "zipcode": "4910865",
    "prefectureCode": "23",
    "prefectureNumber": 23,
    "prefecture": "愛知県",
    "city": "一宮市",
    "town": "印田通"
  },
  "4910866": {
    "zipcode": "4910866",
    "prefectureCode": "23",
    "prefectureNumber": 23,
    "prefecture": "愛知県",
    "city": "一宮市",
    "town": "城崎通"
  },
  "4910867": {
    "zipcode": "4910867",
    "prefectureCode": "23",
    "prefectureNumber": 23,
    "prefecture": "愛知県",
    "city": "一宮市",
    "town": "古金町"
  },
  "4910868": {
    "zipcode": "4910868",
    "prefectureCode": "23",
    "prefectureNumber": 23,
    "prefecture": "愛知県",
    "city": "一宮市",
    "town": "向山南"
  },
  "4910869": {
    "zipcode": "4910869",
    "prefectureCode": "23",
    "prefectureNumber": 23,
    "prefecture": "愛知県",
    "city": "一宮市",
    "town": "向山町"
  },
  "4910871": {
    "zipcode": "4910871",
    "prefectureCode": "23",
    "prefectureNumber": 23,
    "prefecture": "愛知県",
    "city": "一宮市",
    "town": "浅野"
  },
  "4910872": {
    "zipcode": "4910872",
    "prefectureCode": "23",
    "prefectureNumber": 23,
    "prefecture": "愛知県",
    "city": "一宮市",
    "town": "平安"
  },
  "4910873": {
    "zipcode": "4910873",
    "prefectureCode": "23",
    "prefectureNumber": 23,
    "prefecture": "愛知県",
    "city": "一宮市",
    "town": "せんい"
  },
  "4910874": {
    "zipcode": "4910874",
    "prefectureCode": "23",
    "prefectureNumber": 23,
    "prefecture": "愛知県",
    "city": "一宮市",
    "town": "馬見塚"
  },
  "4910878": {
    "zipcode": "4910878",
    "prefectureCode": "23",
    "prefectureNumber": 23,
    "prefecture": "愛知県",
    "city": "一宮市",
    "town": "水附町"
  },
  "4910879": {
    "zipcode": "4910879",
    "prefectureCode": "23",
    "prefectureNumber": 23,
    "prefecture": "愛知県",
    "city": "一宮市",
    "town": "白旗通"
  },
  "4910881": {
    "zipcode": "4910881",
    "prefectureCode": "23",
    "prefectureNumber": 23,
    "prefecture": "愛知県",
    "city": "一宮市",
    "town": "南印田"
  },
  "4910882": {
    "zipcode": "4910882",
    "prefectureCode": "23",
    "prefectureNumber": 23,
    "prefecture": "愛知県",
    "city": "一宮市",
    "town": "相生"
  },
  "4910883": {
    "zipcode": "4910883",
    "prefectureCode": "23",
    "prefectureNumber": 23,
    "prefecture": "愛知県",
    "city": "一宮市",
    "town": "下田"
  },
  "4910901": {
    "zipcode": "4910901",
    "prefectureCode": "23",
    "prefectureNumber": 23,
    "prefecture": "愛知県",
    "city": "一宮市",
    "town": "北浦町"
  },
  "4910902": {
    "zipcode": "4910902",
    "prefectureCode": "23",
    "prefectureNumber": 23,
    "prefecture": "愛知県",
    "city": "一宮市",
    "town": "一色町"
  },
  "4910903": {
    "zipcode": "4910903",
    "prefectureCode": "23",
    "prefectureNumber": 23,
    "prefecture": "愛知県",
    "city": "一宮市",
    "town": "八幡"
  },
  "4910904": {
    "zipcode": "4910904",
    "prefectureCode": "23",
    "prefectureNumber": 23,
    "prefecture": "愛知県",
    "city": "一宮市",
    "town": "神山"
  },
  "4910905": {
    "zipcode": "4910905",
    "prefectureCode": "23",
    "prefectureNumber": 23,
    "prefecture": "愛知県",
    "city": "一宮市",
    "town": "平和"
  },
  "4910906": {
    "zipcode": "4910906",
    "prefectureCode": "23",
    "prefectureNumber": 23,
    "prefecture": "愛知県",
    "city": "一宮市",
    "town": "南出町"
  },
  "4910907": {
    "zipcode": "4910907",
    "prefectureCode": "23",
    "prefectureNumber": 23,
    "prefecture": "愛知県",
    "city": "一宮市",
    "town": "西出町"
  },
  "4910908": {
    "zipcode": "4910908",
    "prefectureCode": "23",
    "prefectureNumber": 23,
    "prefecture": "愛知県",
    "city": "一宮市",
    "town": "深坪町"
  },
  "4910911": {
    "zipcode": "4910911",
    "prefectureCode": "23",
    "prefectureNumber": 23,
    "prefecture": "愛知県",
    "city": "一宮市",
    "town": "野口"
  },
  "4910912": {
    "zipcode": "4910912",
    "prefectureCode": "23",
    "prefectureNumber": 23,
    "prefecture": "愛知県",
    "city": "一宮市",
    "town": "新生"
  },
  "4910913": {
    "zipcode": "4910913",
    "prefectureCode": "23",
    "prefectureNumber": 23,
    "prefecture": "愛知県",
    "city": "一宮市",
    "town": "中町"
  },
  "4910914": {
    "zipcode": "4910914",
    "prefectureCode": "23",
    "prefectureNumber": 23,
    "prefecture": "愛知県",
    "city": "一宮市",
    "town": "花池"
  },
  "4910915": {
    "zipcode": "4910915",
    "prefectureCode": "23",
    "prefectureNumber": 23,
    "prefecture": "愛知県",
    "city": "一宮市",
    "town": "宮地"
  },
  "4910916": {
    "zipcode": "4910916",
    "prefectureCode": "23",
    "prefectureNumber": 23,
    "prefecture": "愛知県",
    "city": "一宮市",
    "town": "観音寺"
  },
  "4910917": {
    "zipcode": "4910917",
    "prefectureCode": "23",
    "prefectureNumber": 23,
    "prefecture": "愛知県",
    "city": "一宮市",
    "town": "昭和"
  },
  "4910918": {
    "zipcode": "4910918",
    "prefectureCode": "23",
    "prefectureNumber": 23,
    "prefecture": "愛知県",
    "city": "一宮市",
    "town": "末広"
  },
  "4910919": {
    "zipcode": "4910919",
    "prefectureCode": "23",
    "prefectureNumber": 23,
    "prefecture": "愛知県",
    "city": "一宮市",
    "town": "住吉"
  },
  "4910921": {
    "zipcode": "4910921",
    "prefectureCode": "23",
    "prefectureNumber": 23,
    "prefecture": "愛知県",
    "city": "一宮市",
    "town": "妙興寺"
  },
  "4910922": {
    "zipcode": "4910922",
    "prefectureCode": "23",
    "prefectureNumber": 23,
    "prefecture": "愛知県",
    "city": "一宮市",
    "town": "大和町妙興寺"
  },
  "4910923": {
    "zipcode": "4910923",
    "prefectureCode": "23",
    "prefectureNumber": 23,
    "prefecture": "愛知県",
    "city": "一宮市",
    "town": "大和町氏永"
  },
  "4910924": {
    "zipcode": "4910924",
    "prefectureCode": "23",
    "prefectureNumber": 23,
    "prefecture": "愛知県",
    "city": "一宮市",
    "town": "大和町於保"
  },
  "4910925": {
    "zipcode": "4910925",
    "prefectureCode": "23",
    "prefectureNumber": 23,
    "prefecture": "愛知県",
    "city": "一宮市",
    "town": "大和町南高井"
  },
  "4910926": {
    "zipcode": "4910926",
    "prefectureCode": "23",
    "prefectureNumber": 23,
    "prefecture": "愛知県",
    "city": "一宮市",
    "town": "大和町北高井"
  },
  "4910927": {
    "zipcode": "4910927",
    "prefectureCode": "23",
    "prefectureNumber": 23,
    "prefecture": "愛知県",
    "city": "一宮市",
    "town": "大和町戸塚"
  },
  "4910931": {
    "zipcode": "4910931",
    "prefectureCode": "23",
    "prefectureNumber": 23,
    "prefecture": "愛知県",
    "city": "一宮市",
    "town": "大和町馬引"
  },
  "4910932": {
    "zipcode": "4910932",
    "prefectureCode": "23",
    "prefectureNumber": 23,
    "prefecture": "愛知県",
    "city": "一宮市",
    "town": "大和町毛受"
  },
  "4910933": {
    "zipcode": "4910933",
    "prefectureCode": "23",
    "prefectureNumber": 23,
    "prefecture": "愛知県",
    "city": "一宮市",
    "town": "苅安賀"
  },
  "4910934": {
    "zipcode": "4910934",
    "prefectureCode": "23",
    "prefectureNumber": 23,
    "prefecture": "愛知県",
    "city": "一宮市",
    "town": "大和町苅安賀"
  },
  "4910935": {
    "zipcode": "4910935",
    "prefectureCode": "23",
    "prefectureNumber": 23,
    "prefecture": "愛知県",
    "city": "一宮市",
    "town": "大和町福森"
  },
  "4910936": {
    "zipcode": "4910936",
    "prefectureCode": "23",
    "prefectureNumber": 23,
    "prefecture": "愛知県",
    "city": "一宮市",
    "town": "寺前町"
  },
  "4910937": {
    "zipcode": "4910937",
    "prefectureCode": "23",
    "prefectureNumber": 23,
    "prefecture": "愛知県",
    "city": "一宮市",
    "town": "竹橋町"
  },
  "4910938": {
    "zipcode": "4910938",
    "prefectureCode": "23",
    "prefectureNumber": 23,
    "prefecture": "愛知県",
    "city": "一宮市",
    "town": "日光町"
  }
}
