{
  "4920000": {
    "zipcode": "4920000",
    "prefectureCode": "23",
    "prefectureNumber": 23,
    "prefecture": "愛知県",
    "city": "稲沢市",
    "town": "以下に掲載がない場合"
  },
  "4928001": {
    "zipcode": "4928001",
    "prefectureCode": "23",
    "prefectureNumber": 23,
    "prefecture": "愛知県",
    "city": "稲沢市",
    "town": "赤池池田町"
  },
  "4928002": {
    "zipcode": "4928002",
    "prefectureCode": "23",
    "prefectureNumber": 23,
    "prefecture": "愛知県",
    "city": "稲沢市",
    "town": "赤池居道町"
  },
  "4928003": {
    "zipcode": "4928003",
    "prefectureCode": "23",
    "prefectureNumber": 23,
    "prefecture": "愛知県",
    "city": "稲沢市",
    "town": "赤池西出町"
  },
  "4928004": {
    "zipcode": "4928004",
    "prefectureCode": "23",
    "prefectureNumber": 23,
    "prefecture": "愛知県",
    "city": "稲沢市",
    "town": "赤池裏田町"
  },
  "4928005": {
    "zipcode": "4928005",
    "prefectureCode": "23",
    "prefectureNumber": 23,
    "prefecture": "愛知県",
    "city": "稲沢市",
    "town": "赤池陣出町"
  },
  "4928006": {
    "zipcode": "4928006",
    "prefectureCode": "23",
    "prefectureNumber": 23,
    "prefecture": "愛知県",
    "city": "稲沢市",
    "town": "赤池真崎町"
  },
  "4928007": {
    "zipcode": "4928007",
    "prefectureCode": "23",
    "prefectureNumber": 23,
    "prefecture": "愛知県",
    "city": "稲沢市",
    "town": "赤池山中町"
  },
  "4928008": {
    "zipcode": "4928008",
    "prefectureCode": "23",
    "prefectureNumber": 23,
    "prefecture": "愛知県",
    "city": "稲沢市",
    "town": "赤池町"
  },
  "4928011": {
    "zipcode": "4928011",
    "prefectureCode": "23",
    "prefectureNumber": 23,
    "prefecture": "愛知県",
    "city": "稲沢市",
    "town": "赤池前山町"
  },
  "4928012": {
    "zipcode": "4928012",
    "prefectureCode": "23",
    "prefectureNumber": 23,
    "prefecture": "愛知県",
    "city": "稲沢市",
    "town": "赤池天王町"
  },
  "4928013": {
    "zipcode": "4928013",
    "prefectureCode": "23",
    "prefectureNumber": 23,
    "prefecture": "愛知県",
    "city": "稲沢市",
    "town": "赤池寺東町"
  },
  "4928014": {
    "zipcode": "4928014",
    "prefectureCode": "23",
    "prefectureNumber": 23,
    "prefecture": "愛知県",
    "city": "稲沢市",
    "town": "赤池北町"
  },
  "4928015": {
    "zipcode": "4928015",
    "prefectureCode": "23",
    "prefectureNumber": 23,
    "prefecture": "愛知県",
    "city": "稲沢市",
    "town": "赤池北池田町"
  },
  "4928016": {
    "zipcode": "4928016",
    "prefectureCode": "23",
    "prefectureNumber": 23,
    "prefecture": "愛知県",
    "city": "稲沢市",
    "town": "赤池宮西町"
  },
  "4928017": {
    "zipcode": "4928017",
    "prefectureCode": "23",
    "prefectureNumber": 23,
    "prefecture": "愛知県",
    "city": "稲沢市",
    "town": "赤池旗屋町"
  },
  "4928021": {
    "zipcode": "4928021",
    "prefectureCode": "23",
    "prefectureNumber": 23,
    "prefecture": "愛知県",
    "city": "稲沢市",
    "town": "赤池東山町"
  },
  "4928022": {
    "zipcode": "4928022",
    "prefectureCode": "23",
    "prefectureNumber": 23,
    "prefecture": "愛知県",
    "city": "稲沢市",
    "town": "赤池坂畑町"
  },
  "4928023": {
    "zipcode": "4928023",
    "prefectureCode": "23",
    "prefectureNumber": 23,
    "prefecture": "愛知県",
    "city": "稲沢市",
    "town": "赤池広畑町"
  },
  "4928024": {
    "zipcode": "4928024",
    "prefectureCode": "23",
    "prefectureNumber": 23,
    "prefecture": "愛知県",
    "city": "稲沢市",
    "town": "赤池南町"
  },
  "4928025": {
    "zipcode": "4928025",
    "prefectureCode": "23",
    "prefectureNumber": 23,
    "prefecture": "愛知県",
    "city": "稲沢市",
    "town": "赤池中町"
  },
  "4928031": {
    "zipcode": "4928031",
    "prefectureCode": "23",
    "prefectureNumber": 23,
    "prefecture": "愛知県",
    "city": "稲沢市",
    "town": "陸田高畑町"
  },
  "4928032": {
    "zipcode": "4928032",
    "prefectureCode": "23",
    "prefectureNumber": 23,
    "prefecture": "愛知県",
    "city": "稲沢市",
    "town": "陸田東出町"
  },
  "4928033": {
    "zipcode": "4928033",
    "prefectureCode": "23",
    "prefectureNumber": 23,
    "prefecture": "愛知県",
    "city": "稲沢市",
    "town": "陸田一里山町"
  },
  "4928034": {
    "zipcode": "4928034",
    "prefectureCode": "23",
    "prefectureNumber": 23,
    "prefecture": "愛知県",
    "city": "稲沢市",
    "town": "陸田栗林町"
  },
  "4928036": {
    "zipcode": "4928036",
    "prefectureCode": "23",
    "prefectureNumber": 23,
    "prefecture": "愛知県",
    "city": "稲沢市",
    "town": "陸田本町"
  },
  "4928037": {
    "zipcode": "4928037",
    "prefectureCode": "23",
    "prefectureNumber": 23,
    "prefecture": "愛知県",
    "city": "稲沢市",
    "town": "陸田白山町"
  },
  "4928038": {
    "zipcode": "4928038",
    "prefectureCode": "23",
    "prefectureNumber": 23,
    "prefecture": "愛知県",
    "city": "稲沢市",
    "town": "陸田町"
  },
  "4928041": {
    "zipcode": "4928041",
    "prefectureCode": "23",
    "prefectureNumber": 23,
    "prefecture": "愛知県",
    "city": "稲沢市",
    "town": "陸田丸之内町"
  },
  "4928042": {
    "zipcode": "4928042",
    "prefectureCode": "23",
    "prefectureNumber": 23,
    "prefecture": "愛知県",
    "city": "稲沢市",
    "town": "陸田花塚町"
  },
  "4928043": {
    "zipcode": "4928043",
    "prefectureCode": "23",
    "prefectureNumber": 23,
    "prefecture": "愛知県",
    "city": "稲沢市",
    "town": "陸田馬山町"
  },
  "4928044": {
    "zipcode": "4928044",
    "prefectureCode": "23",
    "prefectureNumber": 23,
    "prefecture": "愛知県",
    "city": "稲沢市",
    "town": "陸田宮前"
  },
  "4928045": {
    "zipcode": "4928045",
    "prefectureCode": "23",
    "prefectureNumber": 23,
    "prefecture": "愛知県",
    "city": "稲沢市",
    "town": "陸田栗林"
  },
  "4928051": {
    "zipcode": "4928051",
    "prefectureCode": "23",
    "prefectureNumber": 23,
    "prefecture": "愛知県",
    "city": "稲沢市",
    "town": "下津光明寺町"
  },
  "4928052": {
    "zipcode": "4928052",
    "prefectureCode": "23",
    "prefectureNumber": 23,
    "prefecture": "愛知県",
    "city": "稲沢市",
    "town": "下津ふじ塚町"
  },
  "4928053": {
    "zipcode": "4928053",
    "prefectureCode": "23",
    "prefectureNumber": 23,
    "prefecture": "愛知県",
    "city": "稲沢市",
    "town": "下津蛇池町"
  },
  "4928054": {
    "zipcode": "4928054",
    "prefectureCode": "23",
    "prefectureNumber": 23,
    "prefecture": "愛知県",
    "city": "稲沢市",
    "town": "下津片町"
  },
  "4928055": {
    "zipcode": "4928055",
    "prefectureCode": "23",
    "prefectureNumber": 23,
    "prefecture": "愛知県",
    "city": "稲沢市",
    "town": "下津穂所町"
  },
  "4928056": {
    "zipcode": "4928056",
    "prefectureCode": "23",
    "prefectureNumber": 23,
    "prefecture": "愛知県",
    "city": "稲沢市",
    "town": "下津鞍掛町"
  },
  "4928057": {
    "zipcode": "4928057",
    "prefectureCode": "23",
    "prefectureNumber": 23,
    "prefecture": "愛知県",
    "city": "稲沢市",
    "town": "下津長田町"
  },
  "4928058": {
    "zipcode": "4928058",
    "prefectureCode": "23",
    "prefectureNumber": 23,
    "prefecture": "愛知県",
    "city": "稲沢市",
    "town": "下津牛洗町"
  },
  "4928061": {
    "zipcode": "4928061",
    "prefectureCode": "23",
    "prefectureNumber": 23,
    "prefecture": "愛知県",
    "city": "稲沢市",
    "town": "下津高戸町"
  },
  "4928062": {
    "zipcode": "4928062",
    "prefectureCode": "23",
    "prefectureNumber": 23,
    "prefecture": "愛知県",
    "city": "稲沢市",
    "town": "下津住吉町"
  },
  "4928063": {
    "zipcode": "4928063",
    "prefectureCode": "23",
    "prefectureNumber": 23,
    "prefecture": "愛知県",
    "city": "稲沢市",
    "town": "下津矢口町"
  },
  "4928064": {
    "zipcode": "4928064",
    "prefectureCode": "23",
    "prefectureNumber": 23,
    "prefecture": "愛知県",
    "city": "稲沢市",
    "town": "下津二本杉町"
  },
  "4928065": {
    "zipcode": "4928065",
    "prefectureCode": "23",
    "prefectureNumber": 23,
    "prefecture": "愛知県",
    "city": "稲沢市",
    "town": "下津大門町"
  },
  "4928066": {
    "zipcode": "4928066",
    "prefectureCode": "23",
    "prefectureNumber": 23,
    "prefecture": "愛知県",
    "city": "稲沢市",
    "town": "下津新町"
  },
  "4928068": {
    "zipcode": "4928068",
    "prefectureCode": "23",
    "prefectureNumber": 23,
    "prefecture": "愛知県",
    "city": "稲沢市",
    "town": "下津小井戸町"
  },
  "4928071": {
    "zipcode": "4928071",
    "prefectureCode": "23",
    "prefectureNumber": 23,
    "prefecture": "愛知県",
    "city": "稲沢市",
    "town": "下津本郷町"
  },
  "4928072": {
    "zipcode": "4928072",
    "prefectureCode": "23",
    "prefectureNumber": 23,
    "prefecture": "愛知県",
    "city": "稲沢市",
    "town": "下津北信正寺町"
  },
  "4928073": {
    "zipcode": "4928073",
    "prefectureCode": "23",
    "prefectureNumber": 23,
    "prefecture": "愛知県",
    "city": "稲沢市",
    "town": "下津南信正寺町"
  },
  "4928074": {
    "zipcode": "4928074",
    "prefectureCode": "23",
    "prefectureNumber": 23,
    "prefecture": "愛知県",
    "city": "稲沢市",
    "town": "下津下町東"
  },
  "4928075": {
    "zipcode": "4928075",
    "prefectureCode": "23",
    "prefectureNumber": 23,
    "prefecture": "愛知県",
    "city": "稲沢市",
    "town": "下津町"
  },
  "4928076": {
    "zipcode": "4928076",
    "prefectureCode": "23",
    "prefectureNumber": 23,
    "prefecture": "愛知県",
    "city": "稲沢市",
    "town": "下津宮西町"
  },
  "4928077": {
    "zipcode": "4928077",
    "prefectureCode": "23",
    "prefectureNumber": 23,
    "prefecture": "愛知県",
    "city": "稲沢市",
    "town": "下津土山町"
  },
  "4928078": {
    "zipcode": "4928078",
    "prefectureCode": "23",
    "prefectureNumber": 23,
    "prefecture": "愛知県",
    "city": "稲沢市",
    "town": "下津寺前町"
  },
  "4928081": {
    "zipcode": "4928081",
    "prefectureCode": "23",
    "prefectureNumber": 23,
    "prefecture": "愛知県",
    "city": "稲沢市",
    "town": "下津油田町"
  },
  "4928082": {
    "zipcode": "4928082",
    "prefectureCode": "23",
    "prefectureNumber": 23,
    "prefecture": "愛知県",
    "city": "稲沢市",
    "town": "下津下町西"
  },
  "4928083": {
    "zipcode": "4928083",
    "prefectureCode": "23",
    "prefectureNumber": 23,
    "prefecture": "愛知県",
    "city": "稲沢市",
    "town": "下津森町"
  },
  "4928084": {
    "zipcode": "4928084",
    "prefectureCode": "23",
    "prefectureNumber": 23,
    "prefecture": "愛知県",
    "city": "稲沢市",
    "town": "下津南山町"
  },
  "4928085": {
    "zipcode": "4928085",
    "prefectureCode": "23",
    "prefectureNumber": 23,
    "prefecture": "愛知県",
    "city": "稲沢市",
    "town": "下津丹下田町"
  },
  "4928091": {
    "zipcode": "4928091",
    "prefectureCode": "23",
    "prefectureNumber": 23,
    "prefecture": "愛知県",
    "city": "稲沢市",
    "town": "下津鞍掛"
  },
  "4928092": {
    "zipcode": "4928092",
    "prefectureCode": "23",
    "prefectureNumber": 23,
    "prefecture": "愛知県",
    "city": "稲沢市",
    "town": "下津穂所"
  },
  "4928093": {
    "zipcode": "4928093",
    "prefectureCode": "23",
    "prefectureNumber": 23,
    "prefecture": "愛知県",
    "city": "稲沢市",
    "town": "下津小井戸"
  },
  "4928094": {
    "zipcode": "4928094",
    "prefectureCode": "23",
    "prefectureNumber": 23,
    "prefecture": "愛知県",
    "city": "稲沢市",
    "town": "下津北山"
  },
  "4928095": {
    "zipcode": "4928095",
    "prefectureCode": "23",
    "prefectureNumber": 23,
    "prefecture": "愛知県",
    "city": "稲沢市",
    "town": "下津南山"
  },
  "4928101": {
    "zipcode": "4928101",
    "prefectureCode": "23",
    "prefectureNumber": 23,
    "prefecture": "愛知県",
    "city": "稲沢市",
    "town": "子生和池田町"
  },
  "4928102": {
    "zipcode": "4928102",
    "prefectureCode": "23",
    "prefectureNumber": 23,
    "prefecture": "愛知県",
    "city": "稲沢市",
    "town": "子生和神明町"
  },
  "4928103": {
    "zipcode": "4928103",
    "prefectureCode": "23",
    "prefectureNumber": 23,
    "prefecture": "愛知県",
    "city": "稲沢市",
    "town": "子生和溝師町"
  },
  "4928104": {
    "zipcode": "4928104",
    "prefectureCode": "23",
    "prefectureNumber": 23,
    "prefecture": "愛知県",
    "city": "稲沢市",
    "town": "子生和八島町"
  },
  "4928105": {
    "zipcode": "4928105",
    "prefectureCode": "23",
    "prefectureNumber": 23,
    "prefecture": "愛知県",
    "city": "稲沢市",
    "town": "子生和円場町"
  },
  "4928106": {
    "zipcode": "4928106",
    "prefectureCode": "23",
    "prefectureNumber": 23,
    "prefecture": "愛知県",
    "city": "稲沢市",
    "town": "子生和町"
  },
  "4928107": {
    "zipcode": "4928107",
    "prefectureCode": "23",
    "prefectureNumber": 23,
    "prefecture": "愛知県",
    "city": "稲沢市",
    "town": "子生和住吉町"
  },
  "4928108": {
    "zipcode": "4928108",
    "prefectureCode": "23",
    "prefectureNumber": 23,
    "prefecture": "愛知県",
    "city": "稲沢市",
    "town": "子生和子安賀町"
  },
  "4928109": {
    "zipcode": "4928109",
    "prefectureCode": "23",
    "prefectureNumber": 23,
    "prefecture": "愛知県",
    "city": "稲沢市",
    "town": "子生和山王町"
  },
  "4928111": {
    "zipcode": "4928111",
    "prefectureCode": "23",
    "prefectureNumber": 23,
    "prefecture": "愛知県",
    "city": "稲沢市",
    "town": "子生和小原町"
  },
  "4928112": {
    "zipcode": "4928112",
    "prefectureCode": "23",
    "prefectureNumber": 23,
    "prefecture": "愛知県",
    "city": "稲沢市",
    "town": "子生和坂田町"
  },
  "4928113": {
    "zipcode": "4928113",
    "prefectureCode": "23",
    "prefectureNumber": 23,
    "prefecture": "愛知県",
    "city": "稲沢市",
    "town": "治郎丸神木町"
  },
  "4928114": {
    "zipcode": "4928114",
    "prefectureCode": "23",
    "prefectureNumber": 23,
    "prefecture": "愛知県",
    "city": "稲沢市",
    "town": "治郎丸椿町"
  },
  "4928115": {
    "zipcode": "4928115",
    "prefectureCode": "23",
    "prefectureNumber": 23,
    "prefecture": "愛知県",
    "city": "稲沢市",
    "town": "治郎丸東町"
  },
  "4928116": {
    "zipcode": "4928116",
    "prefectureCode": "23",
    "prefectureNumber": 23,
    "prefecture": "愛知県",
    "city": "稲沢市",
    "town": "治郎丸西町"
  },
  "4928117": {
    "zipcode": "4928117",
    "prefectureCode": "23",
    "prefectureNumber": 23,
    "prefecture": "愛知県",
    "city": "稲沢市",
    "town": "治郎丸高須町"
  },
  "4928118": {
    "zipcode": "4928118",
    "prefectureCode": "23",
    "prefectureNumber": 23,
    "prefecture": "愛知県",
    "city": "稲沢市",
    "town": "治郎丸北町"
  },
  "4928119": {
    "zipcode": "4928119",
    "prefectureCode": "23",
    "prefectureNumber": 23,
    "prefecture": "愛知県",
    "city": "稲沢市",
    "town": "治郎丸大明町"
  },
  "4928121": {
    "zipcode": "4928121",
    "prefectureCode": "23",
    "prefectureNumber": 23,
    "prefecture": "愛知県",
    "city": "稲沢市",
    "town": "治郎丸柳町"
  },
  "4928122": {
    "zipcode": "4928122",
    "prefectureCode": "23",
    "prefectureNumber": 23,
    "prefecture": "愛知県",
    "city": "稲沢市",
    "town": "治郎丸元町"
  },
  "4928123": {
    "zipcode": "4928123",
    "prefectureCode": "23",
    "prefectureNumber": 23,
    "prefecture": "愛知県",
    "city": "稲沢市",
    "town": "治郎丸白山町"
  },
  "4928124": {
    "zipcode": "4928124",
    "prefectureCode": "23",
    "prefectureNumber": 23,
    "prefecture": "愛知県",
    "city": "稲沢市",
    "town": "治郎丸土井町"
  },
  "4928125": {
    "zipcode": "4928125",
    "prefectureCode": "23",
    "prefectureNumber": 23,
    "prefecture": "愛知県",
    "city": "稲沢市",
    "town": "治郎丸清敷町"
  },
  "4928126": {
    "zipcode": "4928126",
    "prefectureCode": "23",
    "prefectureNumber": 23,
    "prefecture": "愛知県",
    "city": "稲沢市",
    "town": "治郎丸郷前町"
  },
  "4928127": {
    "zipcode": "4928127",
    "prefectureCode": "23",
    "prefectureNumber": 23,
    "prefecture": "愛知県",
    "city": "稲沢市",
    "town": "治郎丸南町"
  },
  "4928128": {
    "zipcode": "4928128",
    "prefectureCode": "23",
    "prefectureNumber": 23,
    "prefecture": "愛知県",
    "city": "稲沢市",
    "town": "治郎丸中町"
  },
  "4928131": {
    "zipcode": "4928131",
    "prefectureCode": "23",
    "prefectureNumber": 23,
    "prefecture": "愛知県",
    "city": "稲沢市",
    "town": "治郎丸古江町"
  },
  "4928132": {
    "zipcode": "4928132",
    "prefectureCode": "23",
    "prefectureNumber": 23,
    "prefecture": "愛知県",
    "city": "稲沢市",
    "town": "治郎丸天神町"
  },
  "4928133": {
    "zipcode": "4928133",
    "prefectureCode": "23",
    "prefectureNumber": 23,
    "prefecture": "愛知県",
    "city": "稲沢市",
    "town": "治郎丸細道町"
  },
  "4928134": {
    "zipcode": "4928134",
    "prefectureCode": "23",
    "prefectureNumber": 23,
    "prefecture": "愛知県",
    "city": "稲沢市",
    "town": "治郎丸大角町"
  },
  "4928135": {
    "zipcode": "4928135",
    "prefectureCode": "23",
    "prefectureNumber": 23,
    "prefecture": "愛知県",
    "city": "稲沢市",
    "town": "治郎丸石塚町"
  },
  "4928136": {
    "zipcode": "4928136",
    "prefectureCode": "23",
    "prefectureNumber": 23,
    "prefecture": "愛知県",
    "city": "稲沢市",
    "town": "小池正明寺町北街道"
  },
  "4928137": {
    "zipcode": "4928137",
    "prefectureCode": "23",
    "prefectureNumber": 23,
    "prefecture": "愛知県",
    "city": "稲沢市",
    "town": "国府宮"
  },
  "4928138": {
    "zipcode": "4928138",
    "prefectureCode": "23",
    "prefectureNumber": 23,
    "prefecture": "愛知県",
    "city": "稲沢市",
    "town": "国府宮町"
  },
  "4928139": {
    "zipcode": "4928139",
    "prefectureCode": "23",
    "prefectureNumber": 23,
    "prefecture": "愛知県",
    "city": "稲沢市",
    "town": "国府宮神田町"
  },
  "4928141": {
    "zipcode": "4928141",
    "prefectureCode": "23",
    "prefectureNumber": 23,
    "prefecture": "愛知県",
    "city": "稲沢市",
    "town": "長野町"
  },
  "4928142": {
    "zipcode": "4928142",
    "prefectureCode": "23",
    "prefectureNumber": 23,
    "prefecture": "愛知県",
    "city": "稲沢市",
    "town": "長野"
  },
  "4928143": {
    "zipcode": "4928143",
    "prefectureCode": "23",
    "prefectureNumber": 23,
    "prefecture": "愛知県",
    "city": "稲沢市",
    "town": "駅前"
  },
  "4928144": {
    "zipcode": "4928144",
    "prefectureCode": "23",
    "prefectureNumber": 23,
    "prefecture": "愛知県",
    "city": "稲沢市",
    "town": "小池"
  },
  "4928145": {
    "zipcode": "4928145",
    "prefectureCode": "23",
    "prefectureNumber": 23,
    "prefecture": "愛知県",
    "city": "稲沢市",
    "town": "正明寺"
  },
  "4928146": {
    "zipcode": "4928146",
    "prefectureCode": "23",
    "prefectureNumber": 23,
    "prefecture": "愛知県",
    "city": "稲沢市",
    "town": "御供所町"
  },
  "4928147": {
    "zipcode": "4928147",
    "prefectureCode": "23",
    "prefectureNumber": 23,
    "prefecture": "愛知県",
    "city": "稲沢市",
    "town": "小池正明寺町"
  },
  "4928151": {
    "zipcode": "4928151",
    "prefectureCode": "23",
    "prefectureNumber": 23,
    "prefecture": "愛知県",
    "city": "稲沢市",
    "town": "井之口北畑町"
  },
  "4928152": {
    "zipcode": "4928152",
    "prefectureCode": "23",
    "prefectureNumber": 23,
    "prefecture": "愛知県",
    "city": "稲沢市",
    "town": "井之口大宮町"
  },
  "4928153": {
    "zipcode": "4928153",
    "prefectureCode": "23",
    "prefectureNumber": 23,
    "prefecture": "愛知県",
    "city": "稲沢市",
    "town": "井之口町"
  },
  "4928154": {
    "zipcode": "4928154",
    "prefectureCode": "23",
    "prefectureNumber": 23,
    "prefecture": "愛知県",
    "city": "稲沢市",
    "town": "井之口本町"
  },
  "4928155": {
    "zipcode": "4928155",
    "prefectureCode": "23",
    "prefectureNumber": 23,
    "prefecture": "愛知県",
    "city": "稲沢市",
    "town": "井之口四家町"
  },
  "4928156": {
    "zipcode": "4928156",
    "prefectureCode": "23",
    "prefectureNumber": 23,
    "prefecture": "愛知県",
    "city": "稲沢市",
    "town": "井之口親畑町"
  },
  "4928157": {
    "zipcode": "4928157",
    "prefectureCode": "23",
    "prefectureNumber": 23,
    "prefecture": "愛知県",
    "city": "稲沢市",
    "town": "井之口柿ノ木町"
  },
  "4928158": {
    "zipcode": "4928158",
    "prefectureCode": "23",
    "prefectureNumber": 23,
    "prefecture": "愛知県",
    "city": "稲沢市",
    "town": "井之口白山町"
  },
  "4928161": {
    "zipcode": "4928161",
    "prefectureCode": "23",
    "prefectureNumber": 23,
    "prefecture": "愛知県",
    "city": "稲沢市",
    "town": "菱町"
  },
  "4928162": {
    "zipcode": "4928162",
    "prefectureCode": "23",
    "prefectureNumber": 23,
    "prefecture": "愛知県",
    "city": "稲沢市",
    "town": "井之口小番戸町"
  },
  "4928163": {
    "zipcode": "4928163",
    "prefectureCode": "23",
    "prefectureNumber": 23,
    "prefecture": "愛知県",
    "city": "稲沢市",
    "town": "井之口石塚町"
  },
  "4928164": {
    "zipcode": "4928164",
    "prefectureCode": "23",
    "prefectureNumber": 23,
    "prefecture": "愛知県",
    "city": "稲沢市",
    "town": "井之口大坪町"
  },
  "4928165": {
    "zipcode": "4928165",
    "prefectureCode": "23",
    "prefectureNumber": 23,
    "prefecture": "愛知県",
    "city": "稲沢市",
    "town": "井之口鶴田町"
  },
  "4928166": {
    "zipcode": "4928166",
    "prefectureCode": "23",
    "prefectureNumber": 23,
    "prefecture": "愛知県",
    "city": "稲沢市",
    "town": "井之口沖ノ田町"
  },
  "4928167": {
    "zipcode": "4928167",
    "prefectureCode": "23",
    "prefectureNumber": 23,
    "prefecture": "愛知県",
    "city": "稲沢市",
    "town": "長束町"
  },
  "4928171": {
    "zipcode": "4928171",
    "prefectureCode": "23",
    "prefectureNumber": 23,
    "prefecture": "愛知県",
    "city": "稲沢市",
    "town": "六角堂西町"
  },
  "4928172": {
    "zipcode": "4928172",
    "prefectureCode": "23",
    "prefectureNumber": 23,
    "prefecture": "愛知県",
    "city": "稲沢市",
    "town": "六角堂東町"
  },
  "4928173": {
    "zipcode": "4928173",
    "prefectureCode": "23",
    "prefectureNumber": 23,
    "prefecture": "愛知県",
    "city": "稲沢市",
    "town": "北市場町"
  },
  "4928174": {
    "zipcode": "4928174",
    "prefectureCode": "23",
    "prefectureNumber": 23,
    "prefecture": "愛知県",
    "city": "稲沢市",
    "town": "北市場西町"
  },
  "4928175": {
    "zipcode": "4928175",
    "prefectureCode": "23",
    "prefectureNumber": 23,
    "prefecture": "愛知県",
    "city": "稲沢市",
    "town": "北市場南町"
  },
  "4928176": {
    "zipcode": "4928176",
    "prefectureCode": "23",
    "prefectureNumber": 23,
    "prefecture": "愛知県",
    "city": "稲沢市",
    "town": "日下部花ノ木町"
  },
  "4928177": {
    "zipcode": "4928177",
    "prefectureCode": "23",
    "prefectureNumber": 23,
    "prefecture": "愛知県",
    "city": "稲沢市",
    "town": "日下部東町"
  },
  "4928178": {
    "zipcode": "4928178",
    "prefectureCode": "23",
    "prefectureNumber": 23,
    "prefecture": "愛知県",
    "city": "稲沢市",
    "town": "北市場本町"
  },
  "4928181": {
    "zipcode": "4928181",
    "prefectureCode": "23",
    "prefectureNumber": 23,
    "prefecture": "愛知県",
    "city": "稲沢市",
    "town": "日下部北町"
  },
  "4928182": {
    "zipcode": "4928182",
    "prefectureCode": "23",
    "prefectureNumber": 23,
    "prefecture": "愛知県",
    "city": "稲沢市",
    "town": "日下部中町"
  },
  "4928183": {
    "zipcode": "4928183",
    "prefectureCode": "23",
    "prefectureNumber": 23,
    "prefecture": "愛知県",
    "city": "稲沢市",
    "town": "日下部南町"
  },
  "4928184": {
    "zipcode": "4928184",
    "prefectureCode": "23",
    "prefectureNumber": 23,
    "prefecture": "愛知県",
    "city": "稲沢市",
    "town": "日下部松野町"
  },
  "4928185": {
    "zipcode": "4928185",
    "prefectureCode": "23",
    "prefectureNumber": 23,
    "prefecture": "愛知県",
    "city": "稲沢市",
    "town": "日下部西町"
  },
  "4928186": {
    "zipcode": "4928186",
    "prefectureCode": "23",
    "prefectureNumber": 23,
    "prefecture": "愛知県",
    "city": "稲沢市",
    "town": "日下部町"
  },
  "4928201": {
    "zipcode": "4928201",
    "prefectureCode": "23",
    "prefectureNumber": 23,
    "prefecture": "愛知県",
    "city": "稲沢市",
    "town": "島子安賀町"
  },
  "4928202": {
    "zipcode": "4928202",
    "prefectureCode": "23",
    "prefectureNumber": 23,
    "prefecture": "愛知県",
    "city": "稲沢市",
    "town": "島東之郷町"
  },
  "4928203": {
    "zipcode": "4928203",
    "prefectureCode": "23",
    "prefectureNumber": 23,
    "prefecture": "愛知県",
    "city": "稲沢市",
    "town": "島小原町"
  },
  "4928204": {
    "zipcode": "4928204",
    "prefectureCode": "23",
    "prefectureNumber": 23,
    "prefecture": "愛知県",
    "city": "稲沢市",
    "town": "島高須賀町"
  },
  "4928205": {
    "zipcode": "4928205",
    "prefectureCode": "23",
    "prefectureNumber": 23,
    "prefecture": "愛知県",
    "city": "稲沢市",
    "town": "島町"
  },
  "4928206": {
    "zipcode": "4928206",
    "prefectureCode": "23",
    "prefectureNumber": 23,
    "prefecture": "愛知県",
    "city": "稲沢市",
    "town": "稲島法成寺町"
  },
  "4928207": {
    "zipcode": "4928207",
    "prefectureCode": "23",
    "prefectureNumber": 23,
    "prefecture": "愛知県",
    "city": "稲沢市",
    "town": "稲島町"
  },
  "4928208": {
    "zipcode": "4928208",
    "prefectureCode": "23",
    "prefectureNumber": 23,
    "prefecture": "愛知県",
    "city": "稲沢市",
    "town": "松下"
  },
  "4928209": {
    "zipcode": "4928209",
    "prefectureCode": "23",
    "prefectureNumber": 23,
    "prefecture": "愛知県",
    "city": "稲沢市",
    "town": "木全町"
  },
  "4928210": {
    "zipcode": "4928210",
    "prefectureCode": "23",
    "prefectureNumber": 23,
    "prefecture": "愛知県",
    "city": "稲沢市",
    "town": "木全"
  },
  "4928211": {
    "zipcode": "4928211",
    "prefectureCode": "23",
    "prefectureNumber": 23,
    "prefecture": "愛知県",
    "city": "稲沢市",
    "town": "稲沢町北山"
  },
  "4928212": {
    "zipcode": "4928212",
    "prefectureCode": "23",
    "prefectureNumber": 23,
    "prefecture": "愛知県",
    "city": "稲沢市",
    "town": "小沢"
  },
  "4928213": {
    "zipcode": "4928213",
    "prefectureCode": "23",
    "prefectureNumber": 23,
    "prefecture": "愛知県",
    "city": "稲沢市",
    "town": "高御堂"
  },
  "4928214": {
    "zipcode": "4928214",
    "prefectureCode": "23",
    "prefectureNumber": 23,
    "prefecture": "愛知県",
    "city": "稲沢市",
    "town": "大塚南"
  },
  "4928215": {
    "zipcode": "4928215",
    "prefectureCode": "23",
    "prefectureNumber": 23,
    "prefecture": "愛知県",
    "city": "稲沢市",
    "town": "大塚北"
  },
  "4928216": {
    "zipcode": "4928216",
    "prefectureCode": "23",
    "prefectureNumber": 23,
    "prefecture": "愛知県",
    "city": "稲沢市",
    "town": "大塚町"
  },
  "4928217": {
    "zipcode": "4928217",
    "prefectureCode": "23",
    "prefectureNumber": 23,
    "prefecture": "愛知県",
    "city": "稲沢市",
    "town": "稲沢町"
  },
  "4928218": {
    "zipcode": "4928218",
    "prefectureCode": "23",
    "prefectureNumber": 23,
    "prefecture": "愛知県",
    "city": "稲沢市",
    "town": "西町"
  },
  "4928219": {
    "zipcode": "4928219",
    "prefectureCode": "23",
    "prefectureNumber": 23,
    "prefecture": "愛知県",
    "city": "稲沢市",
    "town": "稲葉"
  },
  "4928220": {
    "zipcode": "4928220",
    "prefectureCode": "23",
    "prefectureNumber": 23,
    "prefecture": "愛知県",
    "city": "稲沢市",
    "town": "前田"
  },
  "4928221": {
    "zipcode": "4928221",
    "prefectureCode": "23",
    "prefectureNumber": 23,
    "prefecture": "愛知県",
    "city": "稲沢市",
    "town": "幸町"
  },
  "4928222": {
    "zipcode": "4928222",
    "prefectureCode": "23",
    "prefectureNumber": 23,
    "prefecture": "愛知県",
    "city": "稲沢市",
    "town": "奥田天目寺町"
  },
  "4928223": {
    "zipcode": "4928223",
    "prefectureCode": "23",
    "prefectureNumber": 23,
    "prefecture": "愛知県",
    "city": "稲沢市",
    "town": "奥田井之下町"
  },
  "4928224": {
    "zipcode": "4928224",
    "prefectureCode": "23",
    "prefectureNumber": 23,
    "prefecture": "愛知県",
    "city": "稲沢市",
    "town": "奥田大沢町"
  },
  "4928225": {
    "zipcode": "4928225",
    "prefectureCode": "23",
    "prefectureNumber": 23,
    "prefecture": "愛知県",
    "city": "稲沢市",
    "town": "奥田膳棚町"
  },
  "4928226": {
    "zipcode": "4928226",
    "prefectureCode": "23",
    "prefectureNumber": 23,
    "prefecture": "愛知県",
    "city": "稲沢市",
    "town": "奥田大門町"
  },
  "4928227": {
    "zipcode": "4928227",
    "prefectureCode": "23",
    "prefectureNumber": 23,
    "prefecture": "愛知県",
    "city": "稲沢市",
    "town": "奥田白山町"
  },
  "4928228": {
    "zipcode": "4928228",
    "prefectureCode": "23",
    "prefectureNumber": 23,
    "prefecture": "愛知県",
    "city": "稲沢市",
    "town": "奥田長角町"
  },
  "4928229": {
    "zipcode": "4928229",
    "prefectureCode": "23",
    "prefectureNumber": 23,
    "prefecture": "愛知県",
    "city": "稲沢市",
    "town": "稲島"
  },
  "4928230": {
    "zipcode": "4928230",
    "prefectureCode": "23",
    "prefectureNumber": 23,
    "prefecture": "愛知県",
    "city": "稲沢市",
    "town": "稲島東"
  },
  "4928231": {
    "zipcode": "4928231",
    "prefectureCode": "23",
    "prefectureNumber": 23,
    "prefecture": "愛知県",
    "city": "稲沢市",
    "town": "奥田流町"
  },
  "4928232": {
    "zipcode": "4928232",
    "prefectureCode": "23",
    "prefectureNumber": 23,
    "prefecture": "愛知県",
    "city": "稲沢市",
    "town": "奥田酒伊町"
  },
  "4928233": {
    "zipcode": "4928233",
    "prefectureCode": "23",
    "prefectureNumber": 23,
    "prefecture": "愛知県",
    "city": "稲沢市",
    "town": "奥田町"
  },
  "4928234": {
    "zipcode": "4928234",
    "prefectureCode": "23",
    "prefectureNumber": 23,
    "prefecture": "愛知県",
    "city": "稲沢市",
    "town": "奥田切田町"
  },
  "4928235": {
    "zipcode": "4928235",
    "prefectureCode": "23",
    "prefectureNumber": 23,
    "prefecture": "愛知県",
    "city": "稲沢市",
    "town": "奥田立長町"
  },
  "4928236": {
    "zipcode": "4928236",
    "prefectureCode": "23",
    "prefectureNumber": 23,
    "prefecture": "愛知県",
    "city": "稲沢市",
    "town": "奥田寺切町"
  },
  "4928237": {
    "zipcode": "4928237",
    "prefectureCode": "23",
    "prefectureNumber": 23,
    "prefecture": "愛知県",
    "city": "稲沢市",
    "town": "奥田馬場町"
  },
  "4928238": {
    "zipcode": "4928238",
    "prefectureCode": "23",
    "prefectureNumber": 23,
    "prefecture": "愛知県",
    "city": "稲沢市",
    "town": "奥田堀畑町"
  },
  "4928239": {
    "zipcode": "4928239",
    "prefectureCode": "23",
    "prefectureNumber": 23,
    "prefecture": "愛知県",
    "city": "稲沢市",
    "town": "奥田中切町"
  },
  "4928240": {
    "zipcode": "4928240",
    "prefectureCode": "23",
    "prefectureNumber": 23,
    "prefecture": "愛知県",
    "city": "稲沢市",
    "town": "島下畑町"
  },
  "4928241": {
    "zipcode": "4928241",
    "prefectureCode": "23",
    "prefectureNumber": 23,
    "prefecture": "愛知県",
    "city": "稲沢市",
    "town": "奥田田畑町"
  },
  "4928242": {
    "zipcode": "4928242",
    "prefectureCode": "23",
    "prefectureNumber": 23,
    "prefecture": "愛知県",
    "city": "稲沢市",
    "town": "奥田町文七西"
  },
  "4928243": {
    "zipcode": "4928243",
    "prefectureCode": "23",
    "prefectureNumber": 23,
    "prefecture": "愛知県",
    "city": "稲沢市",
    "town": "奥田木塚町"
  },
  "4928244": {
    "zipcode": "4928244",
    "prefectureCode": "23",
    "prefectureNumber": 23,
    "prefecture": "愛知県",
    "city": "稲沢市",
    "town": "奥田下河町"
  },
  "4928245": {
    "zipcode": "4928245",
    "prefectureCode": "23",
    "prefectureNumber": 23,
    "prefecture": "愛知県",
    "city": "稲沢市",
    "town": "奥田南花ノ木町"
  },
  "4928246": {
    "zipcode": "4928246",
    "prefectureCode": "23",
    "prefectureNumber": 23,
    "prefecture": "愛知県",
    "city": "稲沢市",
    "town": "奥田計用町"
  },
  "4928247": {
    "zipcode": "4928247",
    "prefectureCode": "23",
    "prefectureNumber": 23,
    "prefecture": "愛知県",
    "city": "稲沢市",
    "town": "東畑"
  },
  "4928248": {
    "zipcode": "4928248",
    "prefectureCode": "23",
    "prefectureNumber": 23,
    "prefecture": "愛知県",
    "city": "稲沢市",
    "town": "島寺西町"
  },
  "4928249": {
    "zipcode": "4928249",
    "prefectureCode": "23",
    "prefectureNumber": 23,
    "prefecture": "愛知県",
    "city": "稲沢市",
    "town": "島新田町"
  },
  "4928251": {
    "zipcode": "4928251",
    "prefectureCode": "23",
    "prefectureNumber": 23,
    "prefecture": "愛知県",
    "city": "稲沢市",
    "town": "東緑町"
  },
  "4928252": {
    "zipcode": "4928252",
    "prefectureCode": "23",
    "prefectureNumber": 23,
    "prefecture": "愛知県",
    "city": "稲沢市",
    "town": "緑町"
  },
  "4928253": {
    "zipcode": "4928253",
    "prefectureCode": "23",
    "prefectureNumber": 23,
    "prefecture": "愛知県",
    "city": "稲沢市",
    "town": "奥田神ノ木町"
  },
  "4928254": {
    "zipcode": "4928254",
    "prefectureCode": "23",
    "prefectureNumber": 23,
    "prefecture": "愛知県",
    "city": "稲沢市",
    "town": "奥田宮長町"
  },
  "4928255": {
    "zipcode": "4928255",
    "prefectureCode": "23",
    "prefectureNumber": 23,
    "prefecture": "愛知県",
    "city": "稲沢市",
    "town": "奥田天神町"
  },
  "4928256": {
    "zipcode": "4928256",
    "prefectureCode": "23",
    "prefectureNumber": 23,
    "prefecture": "愛知県",
    "city": "稲沢市",
    "town": "奥田北花ノ木町"
  },
  "4928257": {
    "zipcode": "4928257",
    "prefectureCode": "23",
    "prefectureNumber": 23,
    "prefecture": "愛知県",
    "city": "稲沢市",
    "town": "奥田島崎町"
  },
  "4928258": {
    "zipcode": "4928258",
    "prefectureCode": "23",
    "prefectureNumber": 23,
    "prefecture": "愛知県",
    "city": "稲沢市",
    "town": "島本郷町"
  },
  "4928259": {
    "zipcode": "4928259",
    "prefectureCode": "23",
    "prefectureNumber": 23,
    "prefecture": "愛知県",
    "city": "稲沢市",
    "town": "島北浦町"
  },
  "4928261": {
    "zipcode": "4928261",
    "prefectureCode": "23",
    "prefectureNumber": 23,
    "prefecture": "愛知県",
    "city": "稲沢市",
    "town": "重本"
  },
  "4928262": {
    "zipcode": "4928262",
    "prefectureCode": "23",
    "prefectureNumber": 23,
    "prefecture": "愛知県",
    "city": "稲沢市",
    "town": "池部町"
  },
  "4928263": {
    "zipcode": "4928263",
    "prefectureCode": "23",
    "prefectureNumber": 23,
    "prefecture": "愛知県",
    "city": "稲沢市",
    "town": "平野"
  },
  "4928264": {
    "zipcode": "4928264",
    "prefectureCode": "23",
    "prefectureNumber": 23,
    "prefecture": "愛知県",
    "city": "稲沢市",
    "town": "平野町"
  },
  "4928265": {
    "zipcode": "4928265",
    "prefectureCode": "23",
    "prefectureNumber": 23,
    "prefecture": "愛知県",
    "city": "稲沢市",
    "town": "小寺町"
  },
  "4928266": {
    "zipcode": "4928266",
    "prefectureCode": "23",
    "prefectureNumber": 23,
    "prefecture": "愛知県",
    "city": "稲沢市",
    "town": "横地"
  },
  "4928267": {
    "zipcode": "4928267",
    "prefectureCode": "23",
    "prefectureNumber": 23,
    "prefecture": "愛知県",
    "city": "稲沢市",
    "town": "船橋町"
  },
  "4928268": {
    "zipcode": "4928268",
    "prefectureCode": "23",
    "prefectureNumber": 23,
    "prefecture": "愛知県",
    "city": "稲沢市",
    "town": "朝府町"
  },
  "4928269": {
    "zipcode": "4928269",
    "prefectureCode": "23",
    "prefectureNumber": 23,
    "prefecture": "愛知県",
    "city": "稲沢市",
    "town": "稲府町"
  },
  "4928271": {
    "zipcode": "4928271",
    "prefectureCode": "23",
    "prefectureNumber": 23,
    "prefecture": "愛知県",
    "city": "稲沢市",
    "town": "石橋"
  },
  "4928272": {
    "zipcode": "4928272",
    "prefectureCode": "23",
    "prefectureNumber": 23,
    "prefecture": "愛知県",
    "city": "稲沢市",
    "town": "桜木"
  },
  "4928273": {
    "zipcode": "4928273",
    "prefectureCode": "23",
    "prefectureNumber": 23,
    "prefecture": "愛知県",
    "city": "稲沢市",
    "town": "桜木宮前町"
  },
  "4928274": {
    "zipcode": "4928274",
    "prefectureCode": "23",
    "prefectureNumber": 23,
    "prefecture": "愛知県",
    "city": "稲沢市",
    "town": "天池光田町"
  },
  "4928275": {
    "zipcode": "4928275",
    "prefectureCode": "23",
    "prefectureNumber": 23,
    "prefecture": "愛知県",
    "city": "稲沢市",
    "town": "天池五反田町"
  },
  "4928276": {
    "zipcode": "4928276",
    "prefectureCode": "23",
    "prefectureNumber": 23,
    "prefecture": "愛知県",
    "city": "稲沢市",
    "town": "天池町"
  },
  "4928277": {
    "zipcode": "4928277",
    "prefectureCode": "23",
    "prefectureNumber": 23,
    "prefecture": "愛知県",
    "city": "稲沢市",
    "town": "天池牧作町"
  },
  "4928278": {
    "zipcode": "4928278",
    "prefectureCode": "23",
    "prefectureNumber": 23,
    "prefecture": "愛知県",
    "city": "稲沢市",
    "town": "天池金山町"
  },
  "4928279": {
    "zipcode": "4928279",
    "prefectureCode": "23",
    "prefectureNumber": 23,
    "prefecture": "愛知県",
    "city": "稲沢市",
    "town": "天池遠松町"
  },
  "4928281": {
    "zipcode": "4928281",
    "prefectureCode": "23",
    "prefectureNumber": 23,
    "prefecture": "愛知県",
    "city": "稲沢市",
    "town": "天池伝代町"
  },
  "4928282": {
    "zipcode": "4928282",
    "prefectureCode": "23",
    "prefectureNumber": 23,
    "prefecture": "愛知県",
    "city": "稲沢市",
    "town": "天池東町"
  },
  "4928283": {
    "zipcode": "4928283",
    "prefectureCode": "23",
    "prefectureNumber": 23,
    "prefecture": "愛知県",
    "city": "稲沢市",
    "town": "天池浪寄町"
  },
  "4928284": {
    "zipcode": "4928284",
    "prefectureCode": "23",
    "prefectureNumber": 23,
    "prefecture": "愛知県",
    "city": "稲沢市",
    "town": "天池西町"
  },
  "4928285": {
    "zipcode": "4928285",
    "prefectureCode": "23",
    "prefectureNumber": 23,
    "prefecture": "愛知県",
    "city": "稲沢市",
    "town": "竹腰東町"
  },
  "4928286": {
    "zipcode": "4928286",
    "prefectureCode": "23",
    "prefectureNumber": 23,
    "prefecture": "愛知県",
    "city": "稲沢市",
    "town": "竹腰中町"
  },
  "4928287": {
    "zipcode": "4928287",
    "prefectureCode": "23",
    "prefectureNumber": 23,
    "prefecture": "愛知県",
    "city": "稲沢市",
    "town": "竹腰西町"
  },
  "4928288": {
    "zipcode": "4928288",
    "prefectureCode": "23",
    "prefectureNumber": 23,
    "prefecture": "愛知県",
    "city": "稲沢市",
    "town": "竹腰北町"
  },
  "4928289": {
    "zipcode": "4928289",
    "prefectureCode": "23",
    "prefectureNumber": 23,
    "prefecture": "愛知県",
    "city": "稲沢市",
    "town": "竹腰本町"
  },
  "4928301": {
    "zipcode": "4928301",
    "prefectureCode": "23",
    "prefectureNumber": 23,
    "prefecture": "愛知県",
    "city": "稲沢市",
    "town": "生出本町"
  },
  "4928302": {
    "zipcode": "4928302",
    "prefectureCode": "23",
    "prefectureNumber": 23,
    "prefecture": "愛知県",
    "city": "稲沢市",
    "town": "生出西道根町"
  },
  "4928303": {
    "zipcode": "4928303",
    "prefectureCode": "23",
    "prefectureNumber": 23,
    "prefecture": "愛知県",
    "city": "稲沢市",
    "town": "生出東道根町"
  },
  "4928304": {
    "zipcode": "4928304",
    "prefectureCode": "23",
    "prefectureNumber": 23,
    "prefecture": "愛知県",
    "city": "稲沢市",
    "town": "生出山田町"
  },
  "4928305": {
    "zipcode": "4928305",
    "prefectureCode": "23",
    "prefectureNumber": 23,
    "prefecture": "愛知県",
    "city": "稲沢市",
    "town": "生出郷前町"
  },
  "4928306": {
    "zipcode": "4928306",
    "prefectureCode": "23",
    "prefectureNumber": 23,
    "prefecture": "愛知県",
    "city": "稲沢市",
    "town": "生出横西町"
  },
  "4928307": {
    "zipcode": "4928307",
    "prefectureCode": "23",
    "prefectureNumber": 23,
    "prefecture": "愛知県",
    "city": "稲沢市",
    "town": "生出上山町"
  },
  "4928308": {
    "zipcode": "4928308",
    "prefectureCode": "23",
    "prefectureNumber": 23,
    "prefecture": "愛知県",
    "city": "稲沢市",
    "town": "生出河戸町"
  },
  "4928310": {
    "zipcode": "4928310",
    "prefectureCode": "23",
    "prefectureNumber": 23,
    "prefecture": "愛知県",
    "city": "稲沢市",
    "town": "下屋"
  },
  "4928311": {
    "zipcode": "4928311",
    "prefectureCode": "23",
    "prefectureNumber": 23,
    "prefecture": "愛知県",
    "city": "稲沢市",
    "town": "清水西川原町"
  },
  "4928312": {
    "zipcode": "4928312",
    "prefectureCode": "23",
    "prefectureNumber": 23,
    "prefecture": "愛知県",
    "city": "稲沢市",
    "town": "清水八尻町"
  },
  "4928313": {
    "zipcode": "4928313",
    "prefectureCode": "23",
    "prefectureNumber": 23,
    "prefecture": "愛知県",
    "city": "稲沢市",
    "town": "清水阿原町"
  },
  "4928314": {
    "zipcode": "4928314",
    "prefectureCode": "23",
    "prefectureNumber": 23,
    "prefecture": "愛知県",
    "city": "稲沢市",
    "town": "清水町"
  },
  "4928315": {
    "zipcode": "4928315",
    "prefectureCode": "23",
    "prefectureNumber": 23,
    "prefecture": "愛知県",
    "city": "稲沢市",
    "town": "清水郷西町"
  },
  "4928316": {
    "zipcode": "4928316",
    "prefectureCode": "23",
    "prefectureNumber": 23,
    "prefecture": "愛知県",
    "city": "稲沢市",
    "town": "清水寺前町"
  },
  "4928317": {
    "zipcode": "4928317",
    "prefectureCode": "23",
    "prefectureNumber": 23,
    "prefecture": "愛知県",
    "city": "稲沢市",
    "town": "清水八神町"
  },
  "4928318": {
    "zipcode": "4928318",
    "prefectureCode": "23",
    "prefectureNumber": 23,
    "prefecture": "愛知県",
    "city": "稲沢市",
    "town": "浅井町"
  },
  "4928319": {
    "zipcode": "4928319",
    "prefectureCode": "23",
    "prefectureNumber": 23,
    "prefecture": "愛知県",
    "city": "稲沢市",
    "town": "下屋町"
  },
  "4928321": {
    "zipcode": "4928321",
    "prefectureCode": "23",
    "prefectureNumber": 23,
    "prefecture": "愛知県",
    "city": "稲沢市",
    "town": "西島北町"
  },
  "4928322": {
    "zipcode": "4928322",
    "prefectureCode": "23",
    "prefectureNumber": 23,
    "prefecture": "愛知県",
    "city": "稲沢市",
    "town": "西島出町"
  },
  "4928323": {
    "zipcode": "4928323",
    "prefectureCode": "23",
    "prefectureNumber": 23,
    "prefecture": "愛知県",
    "city": "稲沢市",
    "town": "西島新町"
  },
  "4928325": {
    "zipcode": "4928325",
    "prefectureCode": "23",
    "prefectureNumber": 23,
    "prefecture": "愛知県",
    "city": "稲沢市",
    "town": "西島東町"
  },
  "4928326": {
    "zipcode": "4928326",
    "prefectureCode": "23",
    "prefectureNumber": 23,
    "prefecture": "愛知県",
    "city": "稲沢市",
    "town": "西島本町"
  },
  "4928327": {
    "zipcode": "4928327",
    "prefectureCode": "23",
    "prefectureNumber": 23,
    "prefecture": "愛知県",
    "city": "稲沢市",
    "town": "西島中町"
  },
  "4928328": {
    "zipcode": "4928328",
    "prefectureCode": "23",
    "prefectureNumber": 23,
    "prefecture": "愛知県",
    "city": "稲沢市",
    "town": "西島"
  },
  "4928329": {
    "zipcode": "4928329",
    "prefectureCode": "23",
    "prefectureNumber": 23,
    "prefecture": "愛知県",
    "city": "稲沢市",
    "town": "西島町"
  },
  "4928331": {
    "zipcode": "4928331",
    "prefectureCode": "23",
    "prefectureNumber": 23,
    "prefecture": "愛知県",
    "city": "稲沢市",
    "town": "平佛供田町"
  },
  "4928332": {
    "zipcode": "4928332",
    "prefectureCode": "23",
    "prefectureNumber": 23,
    "prefecture": "愛知県",
    "city": "稲沢市",
    "town": "平尾苅町"
  },
  "4928333": {
    "zipcode": "4928333",
    "prefectureCode": "23",
    "prefectureNumber": 23,
    "prefecture": "愛知県",
    "city": "稲沢市",
    "town": "平蜂ノ坪町"
  },
  "4928334": {
    "zipcode": "4928334",
    "prefectureCode": "23",
    "prefectureNumber": 23,
    "prefecture": "愛知県",
    "city": "稲沢市",
    "town": "平高道町"
  },
  "4928335": {
    "zipcode": "4928335",
    "prefectureCode": "23",
    "prefectureNumber": 23,
    "prefecture": "愛知県",
    "city": "稲沢市",
    "town": "法花寺町"
  },
  "4928336": {
    "zipcode": "4928336",
    "prefectureCode": "23",
    "prefectureNumber": 23,
    "prefecture": "愛知県",
    "city": "稲沢市",
    "town": "平苅田町"
  },
  "4928337": {
    "zipcode": "4928337",
    "prefectureCode": "23",
    "prefectureNumber": 23,
    "prefecture": "愛知県",
    "city": "稲沢市",
    "town": "平細工蔵町"
  },
  "4928338": {
    "zipcode": "4928338",
    "prefectureCode": "23",
    "prefectureNumber": 23,
    "prefecture": "愛知県",
    "city": "稲沢市",
    "town": "平金森町"
  },
  "4928339": {
    "zipcode": "4928339",
    "prefectureCode": "23",
    "prefectureNumber": 23,
    "prefecture": "愛知県",
    "city": "稲沢市",
    "town": "平江向町"
  },
  "4928341": {
    "zipcode": "4928341",
    "prefectureCode": "23",
    "prefectureNumber": 23,
    "prefecture": "愛知県",
    "city": "稲沢市",
    "town": "馬場町"
  },
  "4928342": {
    "zipcode": "4928342",
    "prefectureCode": "23",
    "prefectureNumber": 23,
    "prefecture": "愛知県",
    "city": "稲沢市",
    "town": "矢合町"
  },
  "4928344": {
    "zipcode": "4928344",
    "prefectureCode": "23",
    "prefectureNumber": 23,
    "prefecture": "愛知県",
    "city": "稲沢市",
    "town": "山口南町"
  },
  "4928345": {
    "zipcode": "4928345",
    "prefectureCode": "23",
    "prefectureNumber": 23,
    "prefecture": "愛知県",
    "city": "稲沢市",
    "town": "山口宮前町"
  },
  "4928346": {
    "zipcode": "4928346",
    "prefectureCode": "23",
    "prefectureNumber": 23,
    "prefecture": "愛知県",
    "city": "稲沢市",
    "town": "山口本町"
  },
  "4928347": {
    "zipcode": "4928347",
    "prefectureCode": "23",
    "prefectureNumber": 23,
    "prefecture": "愛知県",
    "city": "稲沢市",
    "town": "山口町"
  },
  "4928348": {
    "zipcode": "4928348",
    "prefectureCode": "23",
    "prefectureNumber": 23,
    "prefecture": "愛知県",
    "city": "稲沢市",
    "town": "馬場"
  },
  "4928349": {
    "zipcode": "4928349",
    "prefectureCode": "23",
    "prefectureNumber": 23,
    "prefecture": "愛知県",
    "city": "稲沢市",
    "town": "儀長"
  },
  "4928351": {
    "zipcode": "4928351",
    "prefectureCode": "23",
    "prefectureNumber": 23,
    "prefecture": "愛知県",
    "city": "稲沢市",
    "town": "一色竹橋町"
  },
  "4928352": {
    "zipcode": "4928352",
    "prefectureCode": "23",
    "prefectureNumber": 23,
    "prefecture": "愛知県",
    "city": "稲沢市",
    "town": "一色神宮町"
  },
  "4928353": {
    "zipcode": "4928353",
    "prefectureCode": "23",
    "prefectureNumber": 23,
    "prefecture": "愛知県",
    "city": "稲沢市",
    "town": "一色藤塚町"
  },
  "4928354": {
    "zipcode": "4928354",
    "prefectureCode": "23",
    "prefectureNumber": 23,
    "prefecture": "愛知県",
    "city": "稲沢市",
    "town": "一色三反田町"
  },
  "4928355": {
    "zipcode": "4928355",
    "prefectureCode": "23",
    "prefectureNumber": 23,
    "prefecture": "愛知県",
    "city": "稲沢市",
    "town": "片原一色町"
  },
  "4928356": {
    "zipcode": "4928356",
    "prefectureCode": "23",
    "prefectureNumber": 23,
    "prefecture": "愛知県",
    "city": "稲沢市",
    "town": "一色市場町"
  },
  "4928357": {
    "zipcode": "4928357",
    "prefectureCode": "23",
    "prefectureNumber": 23,
    "prefecture": "愛知県",
    "city": "稲沢市",
    "town": "一色道上町"
  },
  "4928358": {
    "zipcode": "4928358",
    "prefectureCode": "23",
    "prefectureNumber": 23,
    "prefecture": "愛知県",
    "city": "稲沢市",
    "town": "一色白山町"
  },
  "4928361": {
    "zipcode": "4928361",
    "prefectureCode": "23",
    "prefectureNumber": 23,
    "prefecture": "愛知県",
    "city": "稲沢市",
    "town": "一色長畑町"
  },
  "4928362": {
    "zipcode": "4928362",
    "prefectureCode": "23",
    "prefectureNumber": 23,
    "prefecture": "愛知県",
    "city": "稲沢市",
    "town": "一色青海町"
  },
  "4928363": {
    "zipcode": "4928363",
    "prefectureCode": "23",
    "prefectureNumber": 23,
    "prefecture": "愛知県",
    "city": "稲沢市",
    "town": "一色跡之口町"
  },
  "4928364": {
    "zipcode": "4928364",
    "prefectureCode": "23",
    "prefectureNumber": 23,
    "prefecture": "愛知県",
    "city": "稲沢市",
    "town": "一色森山町"
  },
  "4928365": {
    "zipcode": "4928365",
    "prefectureCode": "23",
    "prefectureNumber": 23,
    "prefecture": "愛知県",
    "city": "稲沢市",
    "town": "一色下方町"
  },
  "4928366": {
    "zipcode": "4928366",
    "prefectureCode": "23",
    "prefectureNumber": 23,
    "prefecture": "愛知県",
    "city": "稲沢市",
    "town": "一色川俣町"
  },
  "4928371": {
    "zipcode": "4928371",
    "prefectureCode": "23",
    "prefectureNumber": 23,
    "prefecture": "愛知県",
    "city": "稲沢市",
    "town": "一色上方町"
  },
  "4928372": {
    "zipcode": "4928372",
    "prefectureCode": "23",
    "prefectureNumber": 23,
    "prefecture": "愛知県",
    "city": "稲沢市",
    "town": "一色中屋敷町"
  },
  "4928373": {
    "zipcode": "4928373",
    "prefectureCode": "23",
    "prefectureNumber": 23,
    "prefecture": "愛知県",
    "city": "稲沢市",
    "town": "一色中通町"
  },
  "4928374": {
    "zipcode": "4928374",
    "prefectureCode": "23",
    "prefectureNumber": 23,
    "prefecture": "愛知県",
    "city": "稲沢市",
    "town": "一色西町"
  },
  "4928375": {
    "zipcode": "4928375",
    "prefectureCode": "23",
    "prefectureNumber": 23,
    "prefecture": "愛知県",
    "city": "稲沢市",
    "town": "一色巡見町"
  },
  "4928381": {
    "zipcode": "4928381",
    "prefectureCode": "23",
    "prefectureNumber": 23,
    "prefecture": "愛知県",
    "city": "稲沢市",
    "town": "横野西郷町"
  },
  "4928382": {
    "zipcode": "4928382",
    "prefectureCode": "23",
    "prefectureNumber": 23,
    "prefecture": "愛知県",
    "city": "稲沢市",
    "town": "横野堂根町"
  },
  "4928383": {
    "zipcode": "4928383",
    "prefectureCode": "23",
    "prefectureNumber": 23,
    "prefecture": "愛知県",
    "city": "稲沢市",
    "town": "横野東出町"
  },
  "4928384": {
    "zipcode": "4928384",
    "prefectureCode": "23",
    "prefectureNumber": 23,
    "prefecture": "愛知県",
    "city": "稲沢市",
    "town": "横野東郷町"
  },
  "4928385": {
    "zipcode": "4928385",
    "prefectureCode": "23",
    "prefectureNumber": 23,
    "prefecture": "愛知県",
    "city": "稲沢市",
    "town": "横野河原町"
  },
  "4928386": {
    "zipcode": "4928386",
    "prefectureCode": "23",
    "prefectureNumber": 23,
    "prefecture": "愛知県",
    "city": "稲沢市",
    "town": "横野松前町"
  },
  "4928387": {
    "zipcode": "4928387",
    "prefectureCode": "23",
    "prefectureNumber": 23,
    "prefecture": "愛知県",
    "city": "稲沢市",
    "town": "横野神田町"
  },
  "4928388": {
    "zipcode": "4928388",
    "prefectureCode": "23",
    "prefectureNumber": 23,
    "prefecture": "愛知県",
    "city": "稲沢市",
    "town": "横野境塚町"
  },
  "4928389": {
    "zipcode": "4928389",
    "prefectureCode": "23",
    "prefectureNumber": 23,
    "prefecture": "愛知県",
    "city": "稲沢市",
    "town": "横野町"
  },
  "4928391": {
    "zipcode": "4928391",
    "prefectureCode": "23",
    "prefectureNumber": 23,
    "prefecture": "愛知県",
    "city": "稲沢市",
    "town": "中野川端町"
  },
  "4928392": {
    "zipcode": "4928392",
    "prefectureCode": "23",
    "prefectureNumber": 23,
    "prefecture": "愛知県",
    "city": "稲沢市",
    "town": "中野元町"
  },
  "4928393": {
    "zipcode": "4928393",
    "prefectureCode": "23",
    "prefectureNumber": 23,
    "prefecture": "愛知県",
    "city": "稲沢市",
    "town": "中野宮町"
  },
  "4928401": {
    "zipcode": "4928401",
    "prefectureCode": "23",
    "prefectureNumber": 23,
    "prefecture": "愛知県",
    "city": "稲沢市",
    "town": "梅須賀町"
  },
  "4928402": {
    "zipcode": "4928402",
    "prefectureCode": "23",
    "prefectureNumber": 23,
    "prefecture": "愛知県",
    "city": "稲沢市",
    "town": "千代町"
  },
  "4928403": {
    "zipcode": "4928403",
    "prefectureCode": "23",
    "prefectureNumber": 23,
    "prefecture": "愛知県",
    "city": "稲沢市",
    "town": "千代"
  },
  "4928404": {
    "zipcode": "4928404",
    "prefectureCode": "23",
    "prefectureNumber": 23,
    "prefecture": "愛知県",
    "city": "稲沢市",
    "town": "千代西町"
  },
  "4928405": {
    "zipcode": "4928405",
    "prefectureCode": "23",
    "prefectureNumber": 23,
    "prefecture": "愛知県",
    "city": "稲沢市",
    "town": "堀之内町"
  },
  "4928406": {
    "zipcode": "4928406",
    "prefectureCode": "23",
    "prefectureNumber": 23,
    "prefecture": "愛知県",
    "city": "稲沢市",
    "town": "井堀大縄町"
  },
  "4928407": {
    "zipcode": "4928407",
    "prefectureCode": "23",
    "prefectureNumber": 23,
    "prefecture": "愛知県",
    "city": "稲沢市",
    "town": "井堀宿塚町"
  },
  "4928408": {
    "zipcode": "4928408",
    "prefectureCode": "23",
    "prefectureNumber": 23,
    "prefecture": "愛知県",
    "city": "稲沢市",
    "town": "井堀川東町"
  },
  "4928409": {
    "zipcode": "4928409",
    "prefectureCode": "23",
    "prefectureNumber": 23,
    "prefecture": "愛知県",
    "city": "稲沢市",
    "town": "井堀橋下町"
  },
  "4928410": {
    "zipcode": "4928410",
    "prefectureCode": "23",
    "prefectureNumber": 23,
    "prefecture": "愛知県",
    "city": "稲沢市",
    "town": "北島"
  },
  "4928411": {
    "zipcode": "4928411",
    "prefectureCode": "23",
    "prefectureNumber": 23,
    "prefecture": "愛知県",
    "city": "稲沢市",
    "town": "北島町"
  },
  "4928412": {
    "zipcode": "4928412",
    "prefectureCode": "23",
    "prefectureNumber": 23,
    "prefecture": "愛知県",
    "city": "稲沢市",
    "town": "大矢町"
  },
  "4928413": {
    "zipcode": "4928413",
    "prefectureCode": "23",
    "prefectureNumber": 23,
    "prefecture": "愛知県",
    "city": "稲沢市",
    "town": "大矢江西町"
  },
  "4928414": {
    "zipcode": "4928414",
    "prefectureCode": "23",
    "prefectureNumber": 23,
    "prefecture": "愛知県",
    "city": "稲沢市",
    "town": "大矢浄土寺町"
  },
  "4928415": {
    "zipcode": "4928415",
    "prefectureCode": "23",
    "prefectureNumber": 23,
    "prefecture": "愛知県",
    "city": "稲沢市",
    "town": "大矢青山町"
  },
  "4928416": {
    "zipcode": "4928416",
    "prefectureCode": "23",
    "prefectureNumber": 23,
    "prefecture": "愛知県",
    "city": "稲沢市",
    "town": "大矢白山町"
  },
  "4928417": {
    "zipcode": "4928417",
    "prefectureCode": "23",
    "prefectureNumber": 23,
    "prefecture": "愛知県",
    "city": "稲沢市",
    "town": "大矢仙口町"
  },
  "4928418": {
    "zipcode": "4928418",
    "prefectureCode": "23",
    "prefectureNumber": 23,
    "prefecture": "愛知県",
    "city": "稲沢市",
    "town": "大矢高田町"
  },
  "4928419": {
    "zipcode": "4928419",
    "prefectureCode": "23",
    "prefectureNumber": 23,
    "prefecture": "愛知県",
    "city": "稲沢市",
    "town": "大矢真宮町"
  },
  "4928421": {
    "zipcode": "4928421",
    "prefectureCode": "23",
    "prefectureNumber": 23,
    "prefecture": "愛知県",
    "city": "稲沢市",
    "town": "高重西町"
  },
  "4928422": {
    "zipcode": "4928422",
    "prefectureCode": "23",
    "prefectureNumber": 23,
    "prefecture": "愛知県",
    "city": "稲沢市",
    "town": "高重町"
  },
  "4928423": {
    "zipcode": "4928423",
    "prefectureCode": "23",
    "prefectureNumber": 23,
    "prefecture": "愛知県",
    "city": "稲沢市",
    "town": "高重中町"
  },
  "4928424": {
    "zipcode": "4928424",
    "prefectureCode": "23",
    "prefectureNumber": 23,
    "prefecture": "愛知県",
    "city": "稲沢市",
    "town": "高重東町"
  },
  "4928425": {
    "zipcode": "4928425",
    "prefectureCode": "23",
    "prefectureNumber": 23,
    "prefecture": "愛知県",
    "city": "稲沢市",
    "town": "増田北町"
  },
  "4928426": {
    "zipcode": "4928426",
    "prefectureCode": "23",
    "prefectureNumber": 23,
    "prefecture": "愛知県",
    "city": "稲沢市",
    "town": "増田東町"
  },
  "4928427": {
    "zipcode": "4928427",
    "prefectureCode": "23",
    "prefectureNumber": 23,
    "prefecture": "愛知県",
    "city": "稲沢市",
    "town": "増田南町"
  },
  "4928428": {
    "zipcode": "4928428",
    "prefectureCode": "23",
    "prefectureNumber": 23,
    "prefecture": "愛知県",
    "city": "稲沢市",
    "town": "増田町"
  },
  "4928429": {
    "zipcode": "4928429",
    "prefectureCode": "23",
    "prefectureNumber": 23,
    "prefecture": "愛知県",
    "city": "稲沢市",
    "town": "増田西町"
  },
  "4928431": {
    "zipcode": "4928431",
    "prefectureCode": "23",
    "prefectureNumber": 23,
    "prefecture": "愛知県",
    "city": "稲沢市",
    "town": "中之庄高畑町"
  },
  "4928432": {
    "zipcode": "4928432",
    "prefectureCode": "23",
    "prefectureNumber": 23,
    "prefecture": "愛知県",
    "city": "稲沢市",
    "town": "中之庄半田町"
  },
  "4928433": {
    "zipcode": "4928433",
    "prefectureCode": "23",
    "prefectureNumber": 23,
    "prefecture": "愛知県",
    "city": "稲沢市",
    "town": "中之庄元屋敷町"
  },
  "4928434": {
    "zipcode": "4928434",
    "prefectureCode": "23",
    "prefectureNumber": 23,
    "prefecture": "愛知県",
    "city": "稲沢市",
    "town": "中之庄堤畔町"
  },
  "4928435": {
    "zipcode": "4928435",
    "prefectureCode": "23",
    "prefectureNumber": 23,
    "prefecture": "愛知県",
    "city": "稲沢市",
    "town": "中之庄町"
  },
  "4928436": {
    "zipcode": "4928436",
    "prefectureCode": "23",
    "prefectureNumber": 23,
    "prefecture": "愛知県",
    "city": "稲沢市",
    "town": "中之庄海道町"
  },
  "4928437": {
    "zipcode": "4928437",
    "prefectureCode": "23",
    "prefectureNumber": 23,
    "prefecture": "愛知県",
    "city": "稲沢市",
    "town": "中之庄長堤町"
  },
  "4928438": {
    "zipcode": "4928438",
    "prefectureCode": "23",
    "prefectureNumber": 23,
    "prefecture": "愛知県",
    "city": "稲沢市",
    "town": "堀田町"
  },
  "4928439": {
    "zipcode": "4928439",
    "prefectureCode": "23",
    "prefectureNumber": 23,
    "prefecture": "愛知県",
    "city": "稲沢市",
    "town": "七ツ寺町"
  },
  "4928441": {
    "zipcode": "4928441",
    "prefectureCode": "23",
    "prefectureNumber": 23,
    "prefecture": "愛知県",
    "city": "稲沢市",
    "town": "福島町"
  },
  "4928442": {
    "zipcode": "4928442",
    "prefectureCode": "23",
    "prefectureNumber": 23,
    "prefecture": "愛知県",
    "city": "稲沢市",
    "town": "附島町"
  },
  "4928443": {
    "zipcode": "4928443",
    "prefectureCode": "23",
    "prefectureNumber": 23,
    "prefecture": "愛知県",
    "city": "稲沢市",
    "town": "牛踏町"
  },
  "4928444": {
    "zipcode": "4928444",
    "prefectureCode": "23",
    "prefectureNumber": 23,
    "prefecture": "愛知県",
    "city": "稲沢市",
    "town": "込野町"
  },
  "4928445": {
    "zipcode": "4928445",
    "prefectureCode": "23",
    "prefectureNumber": 23,
    "prefecture": "愛知県",
    "city": "稲沢市",
    "town": "南麻績町"
  },
  "4928446": {
    "zipcode": "4928446",
    "prefectureCode": "23",
    "prefectureNumber": 23,
    "prefecture": "愛知県",
    "city": "稲沢市",
    "town": "目比町"
  },
  "4928447": {
    "zipcode": "4928447",
    "prefectureCode": "23",
    "prefectureNumber": 23,
    "prefecture": "愛知県",
    "city": "稲沢市",
    "town": "野崎町"
  },
  "4928448": {
    "zipcode": "4928448",
    "prefectureCode": "23",
    "prefectureNumber": 23,
    "prefecture": "愛知県",
    "city": "稲沢市",
    "town": "北麻績町"
  },
  "4928451": {
    "zipcode": "4928451",
    "prefectureCode": "23",
    "prefectureNumber": 23,
    "prefecture": "愛知県",
    "city": "稲沢市",
    "town": "板葺町"
  },
  "4928452": {
    "zipcode": "4928452",
    "prefectureCode": "23",
    "prefectureNumber": 23,
    "prefecture": "愛知県",
    "city": "稲沢市",
    "town": "西溝口町"
  },
  "4928453": {
    "zipcode": "4928453",
    "prefectureCode": "23",
    "prefectureNumber": 23,
    "prefecture": "愛知県",
    "city": "稲沢市",
    "town": "今村町"
  },
  "4928454": {
    "zipcode": "4928454",
    "prefectureCode": "23",
    "prefectureNumber": 23,
    "prefecture": "愛知県",
    "city": "稲沢市",
    "town": "坂田町"
  },
  "4928455": {
    "zipcode": "4928455",
    "prefectureCode": "23",
    "prefectureNumber": 23,
    "prefecture": "愛知県",
    "city": "稲沢市",
    "town": "田代"
  },
  "4928456": {
    "zipcode": "4928456",
    "prefectureCode": "23",
    "prefectureNumber": 23,
    "prefecture": "愛知県",
    "city": "稲沢市",
    "town": "氷室町"
  },
  "4928461": {
    "zipcode": "4928461",
    "prefectureCode": "23",
    "prefectureNumber": 23,
    "prefecture": "愛知県",
    "city": "稲沢市",
    "town": "井堀北出町"
  },
  "4928462": {
    "zipcode": "4928462",
    "prefectureCode": "23",
    "prefectureNumber": 23,
    "prefecture": "愛知県",
    "city": "稲沢市",
    "town": "井堀高見町"
  },
  "4928463": {
    "zipcode": "4928463",
    "prefectureCode": "23",
    "prefectureNumber": 23,
    "prefecture": "愛知県",
    "city": "稲沢市",
    "town": "井堀中郷町"
  },
  "4928464": {
    "zipcode": "4928464",
    "prefectureCode": "23",
    "prefectureNumber": 23,
    "prefecture": "愛知県",
    "city": "稲沢市",
    "town": "井堀下郷町"
  },
  "4928465": {
    "zipcode": "4928465",
    "prefectureCode": "23",
    "prefectureNumber": 23,
    "prefecture": "愛知県",
    "city": "稲沢市",
    "town": "井堀犬城町"
  },
  "4928466": {
    "zipcode": "4928466",
    "prefectureCode": "23",
    "prefectureNumber": 23,
    "prefecture": "愛知県",
    "city": "稲沢市",
    "town": "井堀江西町"
  },
  "4928467": {
    "zipcode": "4928467",
    "prefectureCode": "23",
    "prefectureNumber": 23,
    "prefecture": "愛知県",
    "city": "稲沢市",
    "town": "井堀蒲六町"
  },
  "4928468": {
    "zipcode": "4928468",
    "prefectureCode": "23",
    "prefectureNumber": 23,
    "prefecture": "愛知県",
    "city": "稲沢市",
    "town": "井堀野口町"
  }
}
