{
  "4930001": {
    "zipcode": "4930001",
    "prefectureCode": "23",
    "prefectureNumber": 23,
    "prefecture": "愛知県",
    "city": "一宮市",
    "town": "木曽川町黒田"
  },
  "4930002": {
    "zipcode": "4930002",
    "prefectureCode": "23",
    "prefectureNumber": 23,
    "prefecture": "愛知県",
    "city": "一宮市",
    "town": "木曽川町門間"
  },
  "4930003": {
    "zipcode": "4930003",
    "prefectureCode": "23",
    "prefectureNumber": 23,
    "prefecture": "愛知県",
    "city": "一宮市",
    "town": "木曽川町三ツ法寺"
  },
  "4930004": {
    "zipcode": "4930004",
    "prefectureCode": "23",
    "prefectureNumber": 23,
    "prefecture": "愛知県",
    "city": "一宮市",
    "town": "木曽川町玉ノ井"
  },
  "4930005": {
    "zipcode": "4930005",
    "prefectureCode": "23",
    "prefectureNumber": 23,
    "prefecture": "愛知県",
    "city": "一宮市",
    "town": "木曽川町里小牧"
  },
  "4930006": {
    "zipcode": "4930006",
    "prefectureCode": "23",
    "prefectureNumber": 23,
    "prefecture": "愛知県",
    "city": "一宮市",
    "town": "木曽川町内割田"
  },
  "4930007": {
    "zipcode": "4930007",
    "prefectureCode": "23",
    "prefectureNumber": 23,
    "prefecture": "愛知県",
    "city": "一宮市",
    "town": "木曽川町外割田"
  },
  "4938001": {
    "zipcode": "4938001",
    "prefectureCode": "23",
    "prefectureNumber": 23,
    "prefecture": "愛知県",
    "city": "一宮市",
    "town": "北方町北方"
  },
  "4938002": {
    "zipcode": "4938002",
    "prefectureCode": "23",
    "prefectureNumber": 23,
    "prefecture": "愛知県",
    "city": "一宮市",
    "town": "北方町曽根"
  },
  "4938003": {
    "zipcode": "4938003",
    "prefectureCode": "23",
    "prefectureNumber": 23,
    "prefecture": "愛知県",
    "city": "一宮市",
    "town": "北方町中島"
  }
}
