{
  "4940001": {
    "zipcode": "4940001",
    "prefectureCode": "23",
    "prefectureNumber": 23,
    "prefecture": "愛知県",
    "city": "一宮市",
    "town": "開明"
  },
  "4940002": {
    "zipcode": "4940002",
    "prefectureCode": "23",
    "prefectureNumber": 23,
    "prefecture": "愛知県",
    "city": "一宮市",
    "town": "篭屋"
  },
  "4940003": {
    "zipcode": "4940003",
    "prefectureCode": "23",
    "prefectureNumber": 23,
    "prefecture": "愛知県",
    "city": "一宮市",
    "town": "三条"
  },
  "4940004": {
    "zipcode": "4940004",
    "prefectureCode": "23",
    "prefectureNumber": 23,
    "prefecture": "愛知県",
    "city": "一宮市",
    "town": "北今"
  },
  "4940005": {
    "zipcode": "4940005",
    "prefectureCode": "23",
    "prefectureNumber": 23,
    "prefecture": "愛知県",
    "city": "一宮市",
    "town": "西五城"
  },
  "4940006": {
    "zipcode": "4940006",
    "prefectureCode": "23",
    "prefectureNumber": 23,
    "prefecture": "愛知県",
    "city": "一宮市",
    "town": "起"
  },
  "4940007": {
    "zipcode": "4940007",
    "prefectureCode": "23",
    "prefectureNumber": 23,
    "prefecture": "愛知県",
    "city": "一宮市",
    "town": "小信中島"
  },
  "4940008": {
    "zipcode": "4940008",
    "prefectureCode": "23",
    "prefectureNumber": 23,
    "prefecture": "愛知県",
    "city": "一宮市",
    "town": "東五城"
  },
  "4940011": {
    "zipcode": "4940011",
    "prefectureCode": "23",
    "prefectureNumber": 23,
    "prefecture": "愛知県",
    "city": "一宮市",
    "town": "西萩原"
  },
  "4940012": {
    "zipcode": "4940012",
    "prefectureCode": "23",
    "prefectureNumber": 23,
    "prefecture": "愛知県",
    "city": "一宮市",
    "town": "明地"
  },
  "4940013": {
    "zipcode": "4940013",
    "prefectureCode": "23",
    "prefectureNumber": 23,
    "prefecture": "愛知県",
    "city": "一宮市",
    "town": "玉野"
  },
  "4940014": {
    "zipcode": "4940014",
    "prefectureCode": "23",
    "prefectureNumber": 23,
    "prefecture": "愛知県",
    "city": "一宮市",
    "town": "上祖父江"
  },
  "4940015": {
    "zipcode": "4940015",
    "prefectureCode": "23",
    "prefectureNumber": 23,
    "prefecture": "愛知県",
    "city": "一宮市",
    "town": "西中野"
  },
  "4940016": {
    "zipcode": "4940016",
    "prefectureCode": "23",
    "prefectureNumber": 23,
    "prefecture": "愛知県",
    "city": "一宮市",
    "town": "東加賀野井"
  },
  "4940017": {
    "zipcode": "4940017",
    "prefectureCode": "23",
    "prefectureNumber": 23,
    "prefecture": "愛知県",
    "city": "一宮市",
    "town": "祐久"
  },
  "4940018": {
    "zipcode": "4940018",
    "prefectureCode": "23",
    "prefectureNumber": 23,
    "prefecture": "愛知県",
    "city": "一宮市",
    "town": "冨田"
  },
  "4940019": {
    "zipcode": "4940019",
    "prefectureCode": "23",
    "prefectureNumber": 23,
    "prefecture": "愛知県",
    "city": "一宮市",
    "town": "蓮池"
  }
}
