{
  "4950001": {
    "zipcode": "4950001",
    "prefectureCode": "23",
    "prefectureNumber": 23,
    "prefecture": "愛知県",
    "city": "稲沢市",
    "town": "祖父江町祖父江"
  },
  "4950002": {
    "zipcode": "4950002",
    "prefectureCode": "23",
    "prefectureNumber": 23,
    "prefecture": "愛知県",
    "city": "稲沢市",
    "town": "祖父江町山崎"
  },
  "4950003": {
    "zipcode": "4950003",
    "prefectureCode": "23",
    "prefectureNumber": 23,
    "prefecture": "愛知県",
    "city": "稲沢市",
    "town": "祖父江町高熊西"
  },
  "4950011": {
    "zipcode": "4950011",
    "prefectureCode": "23",
    "prefectureNumber": 23,
    "prefecture": "愛知県",
    "city": "稲沢市",
    "town": "祖父江町森上"
  },
  "4950012": {
    "zipcode": "4950012",
    "prefectureCode": "23",
    "prefectureNumber": 23,
    "prefecture": "愛知県",
    "city": "稲沢市",
    "town": "祖父江町本甲"
  },
  "4950013": {
    "zipcode": "4950013",
    "prefectureCode": "23",
    "prefectureNumber": 23,
    "prefecture": "愛知県",
    "city": "稲沢市",
    "town": "祖父江町二俣"
  },
  "4950014": {
    "zipcode": "4950014",
    "prefectureCode": "23",
    "prefectureNumber": 23,
    "prefecture": "愛知県",
    "city": "稲沢市",
    "town": "祖父江町大牧"
  },
  "4950015": {
    "zipcode": "4950015",
    "prefectureCode": "23",
    "prefectureNumber": 23,
    "prefecture": "愛知県",
    "city": "稲沢市",
    "town": "祖父江町桜方"
  },
  "4950021": {
    "zipcode": "4950021",
    "prefectureCode": "23",
    "prefectureNumber": 23,
    "prefecture": "愛知県",
    "city": "稲沢市",
    "town": "祖父江町三丸渕"
  },
  "4950022": {
    "zipcode": "4950022",
    "prefectureCode": "23",
    "prefectureNumber": 23,
    "prefecture": "愛知県",
    "city": "稲沢市",
    "town": "祖父江町甲新田"
  },
  "4950023": {
    "zipcode": "4950023",
    "prefectureCode": "23",
    "prefectureNumber": 23,
    "prefecture": "愛知県",
    "city": "稲沢市",
    "town": "祖父江町島本"
  },
  "4950024": {
    "zipcode": "4950024",
    "prefectureCode": "23",
    "prefectureNumber": 23,
    "prefecture": "愛知県",
    "city": "稲沢市",
    "town": "祖父江町野田"
  },
  "4950025": {
    "zipcode": "4950025",
    "prefectureCode": "23",
    "prefectureNumber": 23,
    "prefecture": "愛知県",
    "city": "稲沢市",
    "town": "祖父江町両寺内"
  },
  "4950031": {
    "zipcode": "4950031",
    "prefectureCode": "23",
    "prefectureNumber": 23,
    "prefecture": "愛知県",
    "city": "稲沢市",
    "town": "祖父江町上牧"
  },
  "4950032": {
    "zipcode": "4950032",
    "prefectureCode": "23",
    "prefectureNumber": 23,
    "prefecture": "愛知県",
    "city": "稲沢市",
    "town": "祖父江町中牧"
  },
  "4950033": {
    "zipcode": "4950033",
    "prefectureCode": "23",
    "prefectureNumber": 23,
    "prefecture": "愛知県",
    "city": "稲沢市",
    "town": "祖父江町四貫"
  },
  "4950034": {
    "zipcode": "4950034",
    "prefectureCode": "23",
    "prefectureNumber": 23,
    "prefecture": "愛知県",
    "city": "稲沢市",
    "town": "祖父江町西鵜之本"
  },
  "4950035": {
    "zipcode": "4950035",
    "prefectureCode": "23",
    "prefectureNumber": 23,
    "prefecture": "愛知県",
    "city": "稲沢市",
    "town": "祖父江町神明津"
  },
  "4950036": {
    "zipcode": "4950036",
    "prefectureCode": "23",
    "prefectureNumber": 23,
    "prefecture": "愛知県",
    "city": "稲沢市",
    "town": "祖父江町馬飼"
  },
  "4950037": {
    "zipcode": "4950037",
    "prefectureCode": "23",
    "prefectureNumber": 23,
    "prefecture": "愛知県",
    "city": "稲沢市",
    "town": "祖父江町拾町野"
  }
}
