{
  "4960000": {
    "zipcode": "4960000",
    "prefectureCode": "23",
    "prefectureNumber": 23,
    "prefecture": "愛知県",
    "city": "愛西市",
    "town": "以下に掲載がない場合"
  },
  "4960001": {
    "zipcode": "4960001",
    "prefectureCode": "23",
    "prefectureNumber": 23,
    "prefecture": "愛知県",
    "city": "津島市",
    "town": "青塚町"
  },
  "4960002": {
    "zipcode": "4960002",
    "prefectureCode": "23",
    "prefectureNumber": 23,
    "prefecture": "愛知県",
    "city": "津島市",
    "town": "牧野町"
  },
  "4960003": {
    "zipcode": "4960003",
    "prefectureCode": "23",
    "prefectureNumber": 23,
    "prefecture": "愛知県",
    "city": "津島市",
    "town": "寺野町"
  },
  "4960004": {
    "zipcode": "4960004",
    "prefectureCode": "23",
    "prefectureNumber": 23,
    "prefecture": "愛知県",
    "city": "津島市",
    "town": "蛭間町"
  },
  "4960005": {
    "zipcode": "4960005",
    "prefectureCode": "23",
    "prefectureNumber": 23,
    "prefecture": "愛知県",
    "city": "津島市",
    "town": "神守町"
  },
  "4960006": {
    "zipcode": "4960006",
    "prefectureCode": "23",
    "prefectureNumber": 23,
    "prefecture": "愛知県",
    "city": "津島市",
    "town": "大木町"
  },
  "4960007": {
    "zipcode": "4960007",
    "prefectureCode": "23",
    "prefectureNumber": 23,
    "prefecture": "愛知県",
    "city": "津島市",
    "town": "光正寺町"
  },
  "4960008": {
    "zipcode": "4960008",
    "prefectureCode": "23",
    "prefectureNumber": 23,
    "prefecture": "愛知県",
    "city": "津島市",
    "town": "宇治町"
  },
  "4960009": {
    "zipcode": "4960009",
    "prefectureCode": "23",
    "prefectureNumber": 23,
    "prefecture": "愛知県",
    "city": "津島市",
    "town": "葉苅町"
  },
  "4960011": {
    "zipcode": "4960011",
    "prefectureCode": "23",
    "prefectureNumber": 23,
    "prefecture": "愛知県",
    "city": "津島市",
    "town": "莪原町"
  },
  "4960012": {
    "zipcode": "4960012",
    "prefectureCode": "23",
    "prefectureNumber": 23,
    "prefecture": "愛知県",
    "city": "津島市",
    "town": "大坪町"
  },
  "4960013": {
    "zipcode": "4960013",
    "prefectureCode": "23",
    "prefectureNumber": 23,
    "prefecture": "愛知県",
    "city": "津島市",
    "town": "神尾町"
  },
  "4960014": {
    "zipcode": "4960014",
    "prefectureCode": "23",
    "prefectureNumber": 23,
    "prefecture": "愛知県",
    "city": "津島市",
    "town": "金柳町"
  },
  "4960015": {
    "zipcode": "4960015",
    "prefectureCode": "23",
    "prefectureNumber": 23,
    "prefecture": "愛知県",
    "city": "津島市",
    "town": "高台寺町"
  },
  "4960016": {
    "zipcode": "4960016",
    "prefectureCode": "23",
    "prefectureNumber": 23,
    "prefecture": "愛知県",
    "city": "津島市",
    "town": "白浜町"
  },
  "4960017": {
    "zipcode": "4960017",
    "prefectureCode": "23",
    "prefectureNumber": 23,
    "prefecture": "愛知県",
    "city": "津島市",
    "town": "百町"
  },
  "4960018": {
    "zipcode": "4960018",
    "prefectureCode": "23",
    "prefectureNumber": 23,
    "prefecture": "愛知県",
    "city": "津島市",
    "town": "牛田町"
  },
  "4960019": {
    "zipcode": "4960019",
    "prefectureCode": "23",
    "prefectureNumber": 23,
    "prefecture": "愛知県",
    "city": "津島市",
    "town": "百島町"
  },
  "4960021": {
    "zipcode": "4960021",
    "prefectureCode": "23",
    "prefectureNumber": 23,
    "prefecture": "愛知県",
    "city": "津島市",
    "town": "椿市町"
  },
  "4960022": {
    "zipcode": "4960022",
    "prefectureCode": "23",
    "prefectureNumber": 23,
    "prefecture": "愛知県",
    "city": "津島市",
    "town": "越津町"
  },
  "4960023": {
    "zipcode": "4960023",
    "prefectureCode": "23",
    "prefectureNumber": 23,
    "prefecture": "愛知県",
    "city": "津島市",
    "town": "鹿伏兎町"
  },
  "4960024": {
    "zipcode": "4960024",
    "prefectureCode": "23",
    "prefectureNumber": 23,
    "prefecture": "愛知県",
    "city": "津島市",
    "town": "半頭町"
  },
  "4960025": {
    "zipcode": "4960025",
    "prefectureCode": "23",
    "prefectureNumber": 23,
    "prefecture": "愛知県",
    "city": "津島市",
    "town": "中一色町"
  },
  "4960026": {
    "zipcode": "4960026",
    "prefectureCode": "23",
    "prefectureNumber": 23,
    "prefecture": "愛知県",
    "city": "津島市",
    "town": "唐臼町"
  },
  "4960027": {
    "zipcode": "4960027",
    "prefectureCode": "23",
    "prefectureNumber": 23,
    "prefecture": "愛知県",
    "city": "津島市",
    "town": "津島"
  },
  "4960028": {
    "zipcode": "4960028",
    "prefectureCode": "23",
    "prefectureNumber": 23,
    "prefecture": "愛知県",
    "city": "津島市",
    "town": "日光"
  },
  "4960029": {
    "zipcode": "4960029",
    "prefectureCode": "23",
    "prefectureNumber": 23,
    "prefecture": "愛知県",
    "city": "津島市",
    "town": "下切町"
  },
  "4960031": {
    "zipcode": "4960031",
    "prefectureCode": "23",
    "prefectureNumber": 23,
    "prefecture": "愛知県",
    "city": "津島市",
    "town": "埋田町"
  },
  "4960032": {
    "zipcode": "4960032",
    "prefectureCode": "23",
    "prefectureNumber": 23,
    "prefecture": "愛知県",
    "city": "津島市",
    "town": "深坪町"
  },
  "4960033": {
    "zipcode": "4960033",
    "prefectureCode": "23",
    "prefectureNumber": 23,
    "prefecture": "愛知県",
    "city": "津島市",
    "town": "杁前町"
  },
  "4960034": {
    "zipcode": "4960034",
    "prefectureCode": "23",
    "prefectureNumber": 23,
    "prefecture": "愛知県",
    "city": "津島市",
    "town": "元寺町"
  },
  "4960035": {
    "zipcode": "4960035",
    "prefectureCode": "23",
    "prefectureNumber": 23,
    "prefecture": "愛知県",
    "city": "津島市",
    "town": "東愛宕町"
  },
  "4960036": {
    "zipcode": "4960036",
    "prefectureCode": "23",
    "prefectureNumber": 23,
    "prefecture": "愛知県",
    "city": "津島市",
    "town": "愛宕町"
  },
  "4960037": {
    "zipcode": "4960037",
    "prefectureCode": "23",
    "prefectureNumber": 23,
    "prefecture": "愛知県",
    "city": "津島市",
    "town": "西愛宕町"
  },
  "4960038": {
    "zipcode": "4960038",
    "prefectureCode": "23",
    "prefectureNumber": 23,
    "prefecture": "愛知県",
    "city": "津島市",
    "town": "橘町"
  },
  "4960041": {
    "zipcode": "4960041",
    "prefectureCode": "23",
    "prefectureNumber": 23,
    "prefecture": "愛知県",
    "city": "津島市",
    "town": "高畑町"
  },
  "4960042": {
    "zipcode": "4960042",
    "prefectureCode": "23",
    "prefectureNumber": 23,
    "prefecture": "愛知県",
    "city": "津島市",
    "town": "寺前町"
  },
  "4960043": {
    "zipcode": "4960043",
    "prefectureCode": "23",
    "prefectureNumber": 23,
    "prefecture": "愛知県",
    "city": "津島市",
    "town": "古川町"
  },
  "4960044": {
    "zipcode": "4960044",
    "prefectureCode": "23",
    "prefectureNumber": 23,
    "prefecture": "愛知県",
    "city": "津島市",
    "town": "立込町"
  },
  "4960045": {
    "zipcode": "4960045",
    "prefectureCode": "23",
    "prefectureNumber": 23,
    "prefecture": "愛知県",
    "city": "津島市",
    "town": "東柳原町"
  },
  "4960046": {
    "zipcode": "4960046",
    "prefectureCode": "23",
    "prefectureNumber": 23,
    "prefecture": "愛知県",
    "city": "津島市",
    "town": "柳原町"
  },
  "4960047": {
    "zipcode": "4960047",
    "prefectureCode": "23",
    "prefectureNumber": 23,
    "prefecture": "愛知県",
    "city": "津島市",
    "town": "西柳原町"
  },
  "4960048": {
    "zipcode": "4960048",
    "prefectureCode": "23",
    "prefectureNumber": 23,
    "prefecture": "愛知県",
    "city": "津島市",
    "town": "藤里町"
  },
  "4960071": {
    "zipcode": "4960071",
    "prefectureCode": "23",
    "prefectureNumber": 23,
    "prefecture": "愛知県",
    "city": "津島市",
    "town": "新開町"
  },
  "4960072": {
    "zipcode": "4960072",
    "prefectureCode": "23",
    "prefectureNumber": 23,
    "prefecture": "愛知県",
    "city": "津島市",
    "town": "南新開町"
  },
  "4960801": {
    "zipcode": "4960801",
    "prefectureCode": "23",
    "prefectureNumber": 23,
    "prefecture": "愛知県",
    "city": "津島市",
    "town": "藤浪町"
  },
  "4960802": {
    "zipcode": "4960802",
    "prefectureCode": "23",
    "prefectureNumber": 23,
    "prefecture": "愛知県",
    "city": "津島市",
    "town": "錦町"
  },
  "4960803": {
    "zipcode": "4960803",
    "prefectureCode": "23",
    "prefectureNumber": 23,
    "prefecture": "愛知県",
    "city": "津島市",
    "town": "今市場町"
  },
  "4960804": {
    "zipcode": "4960804",
    "prefectureCode": "23",
    "prefectureNumber": 23,
    "prefecture": "愛知県",
    "city": "津島市",
    "town": "弥生町"
  },
  "4960805": {
    "zipcode": "4960805",
    "prefectureCode": "23",
    "prefectureNumber": 23,
    "prefecture": "愛知県",
    "city": "津島市",
    "town": "本町"
  },
  "4960806": {
    "zipcode": "4960806",
    "prefectureCode": "23",
    "prefectureNumber": 23,
    "prefecture": "愛知県",
    "city": "津島市",
    "town": "池麩町"
  },
  "4960807": {
    "zipcode": "4960807",
    "prefectureCode": "23",
    "prefectureNumber": 23,
    "prefecture": "愛知県",
    "city": "津島市",
    "town": "天王通"
  },
  "4960808": {
    "zipcode": "4960808",
    "prefectureCode": "23",
    "prefectureNumber": 23,
    "prefecture": "愛知県",
    "city": "津島市",
    "town": "宝町"
  },
  "4960809": {
    "zipcode": "4960809",
    "prefectureCode": "23",
    "prefectureNumber": 23,
    "prefecture": "愛知県",
    "city": "津島市",
    "town": "昭和町"
  },
  "4960811": {
    "zipcode": "4960811",
    "prefectureCode": "23",
    "prefectureNumber": 23,
    "prefecture": "愛知県",
    "city": "津島市",
    "town": "喜楽町"
  },
  "4960812": {
    "zipcode": "4960812",
    "prefectureCode": "23",
    "prefectureNumber": 23,
    "prefecture": "愛知県",
    "city": "津島市",
    "town": "兼平町"
  },
  "4960813": {
    "zipcode": "4960813",
    "prefectureCode": "23",
    "prefectureNumber": 23,
    "prefecture": "愛知県",
    "city": "津島市",
    "town": "片岡町"
  },
  "4960814": {
    "zipcode": "4960814",
    "prefectureCode": "23",
    "prefectureNumber": 23,
    "prefecture": "愛知県",
    "city": "津島市",
    "town": "良王町"
  },
  "4960815": {
    "zipcode": "4960815",
    "prefectureCode": "23",
    "prefectureNumber": 23,
    "prefecture": "愛知県",
    "city": "津島市",
    "town": "米之座町"
  },
  "4960816": {
    "zipcode": "4960816",
    "prefectureCode": "23",
    "prefectureNumber": 23,
    "prefecture": "愛知県",
    "city": "津島市",
    "town": "米町"
  },
  "4960817": {
    "zipcode": "4960817",
    "prefectureCode": "23",
    "prefectureNumber": 23,
    "prefecture": "愛知県",
    "city": "津島市",
    "town": "北町"
  },
  "4960818": {
    "zipcode": "4960818",
    "prefectureCode": "23",
    "prefectureNumber": 23,
    "prefecture": "愛知県",
    "city": "津島市",
    "town": "松原町"
  },
  "4960819": {
    "zipcode": "4960819",
    "prefectureCode": "23",
    "prefectureNumber": 23,
    "prefecture": "愛知県",
    "city": "津島市",
    "town": "又吉町"
  },
  "4960821": {
    "zipcode": "4960821",
    "prefectureCode": "23",
    "prefectureNumber": 23,
    "prefecture": "愛知県",
    "city": "津島市",
    "town": "城之越町"
  },
  "4960822": {
    "zipcode": "4960822",
    "prefectureCode": "23",
    "prefectureNumber": 23,
    "prefecture": "愛知県",
    "city": "津島市",
    "town": "高屋敷町"
  },
  "4960823": {
    "zipcode": "4960823",
    "prefectureCode": "23",
    "prefectureNumber": 23,
    "prefecture": "愛知県",
    "city": "津島市",
    "town": "上河原町"
  },
  "4960824": {
    "zipcode": "4960824",
    "prefectureCode": "23",
    "prefectureNumber": 23,
    "prefecture": "愛知県",
    "city": "津島市",
    "town": "金町"
  },
  "4960825": {
    "zipcode": "4960825",
    "prefectureCode": "23",
    "prefectureNumber": 23,
    "prefecture": "愛知県",
    "city": "津島市",
    "town": "橋詰町"
  },
  "4960826": {
    "zipcode": "4960826",
    "prefectureCode": "23",
    "prefectureNumber": 23,
    "prefecture": "愛知県",
    "city": "津島市",
    "town": "片町"
  },
  "4960827": {
    "zipcode": "4960827",
    "prefectureCode": "23",
    "prefectureNumber": 23,
    "prefecture": "愛知県",
    "city": "津島市",
    "town": "浦方町"
  },
  "4960828": {
    "zipcode": "4960828",
    "prefectureCode": "23",
    "prefectureNumber": 23,
    "prefecture": "愛知県",
    "city": "津島市",
    "town": "池須町"
  },
  "4960829": {
    "zipcode": "4960829",
    "prefectureCode": "23",
    "prefectureNumber": 23,
    "prefecture": "愛知県",
    "city": "津島市",
    "town": "寿町"
  },
  "4960831": {
    "zipcode": "4960831",
    "prefectureCode": "23",
    "prefectureNumber": 23,
    "prefecture": "愛知県",
    "city": "津島市",
    "town": "瑞穂町"
  },
  "4960832": {
    "zipcode": "4960832",
    "prefectureCode": "23",
    "prefectureNumber": 23,
    "prefecture": "愛知県",
    "city": "津島市",
    "town": "東洋町"
  },
  "4960833": {
    "zipcode": "4960833",
    "prefectureCode": "23",
    "prefectureNumber": 23,
    "prefecture": "愛知県",
    "city": "津島市",
    "town": "常盤町"
  },
  "4960834": {
    "zipcode": "4960834",
    "prefectureCode": "23",
    "prefectureNumber": 23,
    "prefecture": "愛知県",
    "city": "津島市",
    "town": "南本町"
  },
  "4960835": {
    "zipcode": "4960835",
    "prefectureCode": "23",
    "prefectureNumber": 23,
    "prefecture": "愛知県",
    "city": "津島市",
    "town": "皆戸町"
  },
  "4960836": {
    "zipcode": "4960836",
    "prefectureCode": "23",
    "prefectureNumber": 23,
    "prefecture": "愛知県",
    "city": "津島市",
    "town": "中野町"
  },
  "4960837": {
    "zipcode": "4960837",
    "prefectureCode": "23",
    "prefectureNumber": 23,
    "prefecture": "愛知県",
    "city": "津島市",
    "town": "大政町"
  },
  "4960838": {
    "zipcode": "4960838",
    "prefectureCode": "23",
    "prefectureNumber": 23,
    "prefecture": "愛知県",
    "city": "津島市",
    "town": "明天町"
  },
  "4960839": {
    "zipcode": "4960839",
    "prefectureCode": "23",
    "prefectureNumber": 23,
    "prefecture": "愛知県",
    "city": "津島市",
    "town": "藤川町"
  },
  "4960841": {
    "zipcode": "4960841",
    "prefectureCode": "23",
    "prefectureNumber": 23,
    "prefecture": "愛知県",
    "city": "津島市",
    "town": "横町"
  },
  "4960842": {
    "zipcode": "4960842",
    "prefectureCode": "23",
    "prefectureNumber": 23,
    "prefecture": "愛知県",
    "city": "津島市",
    "town": "筏場町"
  },
  "4960843": {
    "zipcode": "4960843",
    "prefectureCode": "23",
    "prefectureNumber": 23,
    "prefecture": "愛知県",
    "city": "津島市",
    "town": "舟戸町"
  },
  "4960844": {
    "zipcode": "4960844",
    "prefectureCode": "23",
    "prefectureNumber": 23,
    "prefecture": "愛知県",
    "city": "津島市",
    "town": "薬師町"
  },
  "4960845": {
    "zipcode": "4960845",
    "prefectureCode": "23",
    "prefectureNumber": 23,
    "prefecture": "愛知県",
    "city": "津島市",
    "town": "永楽町"
  },
  "4960846": {
    "zipcode": "4960846",
    "prefectureCode": "23",
    "prefectureNumber": 23,
    "prefecture": "愛知県",
    "city": "津島市",
    "town": "東中地町"
  },
  "4960847": {
    "zipcode": "4960847",
    "prefectureCode": "23",
    "prefectureNumber": 23,
    "prefecture": "愛知県",
    "city": "津島市",
    "town": "中地町"
  },
  "4960848": {
    "zipcode": "4960848",
    "prefectureCode": "23",
    "prefectureNumber": 23,
    "prefecture": "愛知県",
    "city": "津島市",
    "town": "大慶寺町"
  },
  "4960849": {
    "zipcode": "4960849",
    "prefectureCode": "23",
    "prefectureNumber": 23,
    "prefecture": "愛知県",
    "city": "津島市",
    "town": "西御堂町"
  },
  "4960851": {
    "zipcode": "4960851",
    "prefectureCode": "23",
    "prefectureNumber": 23,
    "prefecture": "愛知県",
    "city": "津島市",
    "town": "神明町"
  },
  "4960852": {
    "zipcode": "4960852",
    "prefectureCode": "23",
    "prefectureNumber": 23,
    "prefecture": "愛知県",
    "city": "津島市",
    "town": "祢宜町"
  },
  "4960853": {
    "zipcode": "4960853",
    "prefectureCode": "23",
    "prefectureNumber": 23,
    "prefecture": "愛知県",
    "city": "津島市",
    "town": "宮川町"
  },
  "4960854": {
    "zipcode": "4960854",
    "prefectureCode": "23",
    "prefectureNumber": 23,
    "prefecture": "愛知県",
    "city": "津島市",
    "town": "老松町"
  },
  "4960855": {
    "zipcode": "4960855",
    "prefectureCode": "23",
    "prefectureNumber": 23,
    "prefecture": "愛知県",
    "city": "津島市",
    "town": "江東町"
  },
  "4960856": {
    "zipcode": "4960856",
    "prefectureCode": "23",
    "prefectureNumber": 23,
    "prefecture": "愛知県",
    "city": "津島市",
    "town": "瑠璃小路町"
  },
  "4960857": {
    "zipcode": "4960857",
    "prefectureCode": "23",
    "prefectureNumber": 23,
    "prefecture": "愛知県",
    "city": "津島市",
    "town": "南門前町"
  },
  "4960861": {
    "zipcode": "4960861",
    "prefectureCode": "23",
    "prefectureNumber": 23,
    "prefecture": "愛知県",
    "city": "津島市",
    "town": "観音町"
  },
  "4960862": {
    "zipcode": "4960862",
    "prefectureCode": "23",
    "prefectureNumber": 23,
    "prefecture": "愛知県",
    "city": "津島市",
    "town": "城山町"
  },
  "4960863": {
    "zipcode": "4960863",
    "prefectureCode": "23",
    "prefectureNumber": 23,
    "prefecture": "愛知県",
    "city": "津島市",
    "town": "上之町"
  },
  "4960864": {
    "zipcode": "4960864",
    "prefectureCode": "23",
    "prefectureNumber": 23,
    "prefecture": "愛知県",
    "city": "津島市",
    "town": "中之町"
  },
  "4960865": {
    "zipcode": "4960865",
    "prefectureCode": "23",
    "prefectureNumber": 23,
    "prefecture": "愛知県",
    "city": "津島市",
    "town": "馬場町"
  },
  "4960866": {
    "zipcode": "4960866",
    "prefectureCode": "23",
    "prefectureNumber": 23,
    "prefecture": "愛知県",
    "city": "津島市",
    "town": "大和町"
  },
  "4960867": {
    "zipcode": "4960867",
    "prefectureCode": "23",
    "prefectureNumber": 23,
    "prefecture": "愛知県",
    "city": "津島市",
    "town": "江川町"
  },
  "4960868": {
    "zipcode": "4960868",
    "prefectureCode": "23",
    "prefectureNumber": 23,
    "prefecture": "愛知県",
    "city": "津島市",
    "town": "申塚町"
  },
  "4960869": {
    "zipcode": "4960869",
    "prefectureCode": "23",
    "prefectureNumber": 23,
    "prefecture": "愛知県",
    "city": "津島市",
    "town": "河原町"
  },
  "4960871": {
    "zipcode": "4960871",
    "prefectureCode": "23",
    "prefectureNumber": 23,
    "prefecture": "愛知県",
    "city": "津島市",
    "town": "上新田町"
  },
  "4960872": {
    "zipcode": "4960872",
    "prefectureCode": "23",
    "prefectureNumber": 23,
    "prefecture": "愛知県",
    "city": "津島市",
    "town": "松ケ下町"
  },
  "4960873": {
    "zipcode": "4960873",
    "prefectureCode": "23",
    "prefectureNumber": 23,
    "prefecture": "愛知県",
    "city": "津島市",
    "town": "一本木町"
  },
  "4960874": {
    "zipcode": "4960874",
    "prefectureCode": "23",
    "prefectureNumber": 23,
    "prefecture": "愛知県",
    "city": "津島市",
    "town": "江西町"
  },
  "4960875": {
    "zipcode": "4960875",
    "prefectureCode": "23",
    "prefectureNumber": 23,
    "prefecture": "愛知県",
    "city": "津島市",
    "town": "下新田町"
  },
  "4960876": {
    "zipcode": "4960876",
    "prefectureCode": "23",
    "prefectureNumber": 23,
    "prefecture": "愛知県",
    "city": "津島市",
    "town": "大縄町"
  },
  "4960877": {
    "zipcode": "4960877",
    "prefectureCode": "23",
    "prefectureNumber": 23,
    "prefecture": "愛知県",
    "city": "津島市",
    "town": "河田町"
  },
  "4960901": {
    "zipcode": "4960901",
    "prefectureCode": "23",
    "prefectureNumber": 23,
    "prefecture": "愛知県",
    "city": "愛西市",
    "town": "佐屋町"
  },
  "4960902": {
    "zipcode": "4960902",
    "prefectureCode": "23",
    "prefectureNumber": 23,
    "prefecture": "愛知県",
    "city": "愛西市",
    "town": "須依町"
  },
  "4960903": {
    "zipcode": "4960903",
    "prefectureCode": "23",
    "prefectureNumber": 23,
    "prefecture": "愛知県",
    "city": "愛西市",
    "town": "内佐屋町"
  },
  "4960904": {
    "zipcode": "4960904",
    "prefectureCode": "23",
    "prefectureNumber": 23,
    "prefecture": "愛知県",
    "city": "愛西市",
    "town": "柚木町"
  },
  "4960905": {
    "zipcode": "4960905",
    "prefectureCode": "23",
    "prefectureNumber": 23,
    "prefecture": "愛知県",
    "city": "愛西市",
    "town": "北一色町"
  },
  "4960906": {
    "zipcode": "4960906",
    "prefectureCode": "23",
    "prefectureNumber": 23,
    "prefecture": "愛知県",
    "city": "愛西市",
    "town": "日置町"
  },
  "4960907": {
    "zipcode": "4960907",
    "prefectureCode": "23",
    "prefectureNumber": 23,
    "prefecture": "愛知県",
    "city": "愛西市",
    "town": "稲葉町"
  },
  "4960908": {
    "zipcode": "4960908",
    "prefectureCode": "23",
    "prefectureNumber": 23,
    "prefecture": "愛知県",
    "city": "愛西市",
    "town": "甘村井町"
  },
  "4960909": {
    "zipcode": "4960909",
    "prefectureCode": "23",
    "prefectureNumber": 23,
    "prefecture": "愛知県",
    "city": "愛西市",
    "town": "落合町"
  },
  "4960911": {
    "zipcode": "4960911",
    "prefectureCode": "23",
    "prefectureNumber": 23,
    "prefecture": "愛知県",
    "city": "愛西市",
    "town": "西保町"
  },
  "4960912": {
    "zipcode": "4960912",
    "prefectureCode": "23",
    "prefectureNumber": 23,
    "prefecture": "愛知県",
    "city": "愛西市",
    "town": "東保町"
  },
  "4960913": {
    "zipcode": "4960913",
    "prefectureCode": "23",
    "prefectureNumber": 23,
    "prefecture": "愛知県",
    "city": "愛西市",
    "town": "西條町"
  },
  "4960914": {
    "zipcode": "4960914",
    "prefectureCode": "23",
    "prefectureNumber": 23,
    "prefecture": "愛知県",
    "city": "愛西市",
    "town": "東條町"
  },
  "4960915": {
    "zipcode": "4960915",
    "prefectureCode": "23",
    "prefectureNumber": 23,
    "prefecture": "愛知県",
    "city": "愛西市",
    "town": "本部田町"
  },
  "4960921": {
    "zipcode": "4960921",
    "prefectureCode": "23",
    "prefectureNumber": 23,
    "prefecture": "愛知県",
    "city": "愛西市",
    "town": "大井町"
  },
  "4960922": {
    "zipcode": "4960922",
    "prefectureCode": "23",
    "prefectureNumber": 23,
    "prefecture": "愛知県",
    "city": "愛西市",
    "town": "大野町"
  },
  "4960923": {
    "zipcode": "4960923",
    "prefectureCode": "23",
    "prefectureNumber": 23,
    "prefecture": "愛知県",
    "city": "愛西市",
    "town": "鰯江町"
  },
  "4960924": {
    "zipcode": "4960924",
    "prefectureCode": "23",
    "prefectureNumber": 23,
    "prefecture": "愛知県",
    "city": "愛西市",
    "town": "善太新田町"
  },
  "4960931": {
    "zipcode": "4960931",
    "prefectureCode": "23",
    "prefectureNumber": 23,
    "prefecture": "愛知県",
    "city": "愛西市",
    "town": "早尾町"
  },
  "4960932": {
    "zipcode": "4960932",
    "prefectureCode": "23",
    "prefectureNumber": 23,
    "prefecture": "愛知県",
    "city": "愛西市",
    "town": "葛木町"
  },
  "4960933": {
    "zipcode": "4960933",
    "prefectureCode": "23",
    "prefectureNumber": 23,
    "prefecture": "愛知県",
    "city": "愛西市",
    "town": "戸倉町"
  },
  "4960934": {
    "zipcode": "4960934",
    "prefectureCode": "23",
    "prefectureNumber": 23,
    "prefecture": "愛知県",
    "city": "愛西市",
    "town": "新右エ門新田町"
  },
  "4960935": {
    "zipcode": "4960935",
    "prefectureCode": "23",
    "prefectureNumber": 23,
    "prefecture": "愛知県",
    "city": "愛西市",
    "town": "下一色町"
  },
  "4960936": {
    "zipcode": "4960936",
    "prefectureCode": "23",
    "prefectureNumber": 23,
    "prefecture": "愛知県",
    "city": "愛西市",
    "town": "四会町"
  },
  "4960937": {
    "zipcode": "4960937",
    "prefectureCode": "23",
    "prefectureNumber": 23,
    "prefecture": "愛知県",
    "city": "愛西市",
    "town": "宮地町"
  },
  "4960938": {
    "zipcode": "4960938",
    "prefectureCode": "23",
    "prefectureNumber": 23,
    "prefecture": "愛知県",
    "city": "愛西市",
    "town": "石田町"
  },
  "4960939": {
    "zipcode": "4960939",
    "prefectureCode": "23",
    "prefectureNumber": 23,
    "prefecture": "愛知県",
    "city": "愛西市",
    "town": "後江町"
  },
  "4960941": {
    "zipcode": "4960941",
    "prefectureCode": "23",
    "prefectureNumber": 23,
    "prefecture": "愛知県",
    "city": "愛西市",
    "town": "雀ケ森町"
  },
  "4960942": {
    "zipcode": "4960942",
    "prefectureCode": "23",
    "prefectureNumber": 23,
    "prefecture": "愛知県",
    "city": "愛西市",
    "town": "山路町"
  },
  "4960943": {
    "zipcode": "4960943",
    "prefectureCode": "23",
    "prefectureNumber": 23,
    "prefecture": "愛知県",
    "city": "愛西市",
    "town": "森川町"
  },
  "4960944": {
    "zipcode": "4960944",
    "prefectureCode": "23",
    "prefectureNumber": 23,
    "prefecture": "愛知県",
    "city": "愛西市",
    "town": "小茂井町"
  },
  "4960945": {
    "zipcode": "4960945",
    "prefectureCode": "23",
    "prefectureNumber": 23,
    "prefecture": "愛知県",
    "city": "愛西市",
    "town": "三和町"
  },
  "4960946": {
    "zipcode": "4960946",
    "prefectureCode": "23",
    "prefectureNumber": 23,
    "prefecture": "愛知県",
    "city": "愛西市",
    "town": "立田町"
  },
  "4960947": {
    "zipcode": "4960947",
    "prefectureCode": "23",
    "prefectureNumber": 23,
    "prefecture": "愛知県",
    "city": "愛西市",
    "town": "福原新田町"
  },
  "4968001": {
    "zipcode": "4968001",
    "prefectureCode": "23",
    "prefectureNumber": 23,
    "prefecture": "愛知県",
    "city": "愛西市",
    "town": "勝幡町"
  },
  "4968002": {
    "zipcode": "4968002",
    "prefectureCode": "23",
    "prefectureNumber": 23,
    "prefecture": "愛知県",
    "city": "愛西市",
    "town": "佐折町"
  },
  "4968003": {
    "zipcode": "4968003",
    "prefectureCode": "23",
    "prefectureNumber": 23,
    "prefecture": "愛知県",
    "city": "愛西市",
    "town": "千引町"
  },
  "4968004": {
    "zipcode": "4968004",
    "prefectureCode": "23",
    "prefectureNumber": 23,
    "prefecture": "愛知県",
    "city": "愛西市",
    "town": "古瀬町"
  },
  "4968005": {
    "zipcode": "4968005",
    "prefectureCode": "23",
    "prefectureNumber": 23,
    "prefecture": "愛知県",
    "city": "愛西市",
    "town": "諸桑町"
  },
  "4968006": {
    "zipcode": "4968006",
    "prefectureCode": "23",
    "prefectureNumber": 23,
    "prefecture": "愛知県",
    "city": "愛西市",
    "town": "持中町"
  },
  "4968007": {
    "zipcode": "4968007",
    "prefectureCode": "23",
    "prefectureNumber": 23,
    "prefecture": "愛知県",
    "city": "愛西市",
    "town": "南河田町"
  },
  "4968008": {
    "zipcode": "4968008",
    "prefectureCode": "23",
    "prefectureNumber": 23,
    "prefecture": "愛知県",
    "city": "愛西市",
    "town": "北河田町"
  },
  "4968009": {
    "zipcode": "4968009",
    "prefectureCode": "23",
    "prefectureNumber": 23,
    "prefecture": "愛知県",
    "city": "愛西市",
    "town": "小津町"
  },
  "4968010": {
    "zipcode": "4968010",
    "prefectureCode": "23",
    "prefectureNumber": 23,
    "prefecture": "愛知県",
    "city": "愛西市",
    "town": "六輪町"
  },
  "4968011": {
    "zipcode": "4968011",
    "prefectureCode": "23",
    "prefectureNumber": 23,
    "prefecture": "愛知県",
    "city": "愛西市",
    "town": "諏訪町"
  },
  "4968012": {
    "zipcode": "4968012",
    "prefectureCode": "23",
    "prefectureNumber": 23,
    "prefecture": "愛知県",
    "city": "愛西市",
    "town": "根高町"
  },
  "4968013": {
    "zipcode": "4968013",
    "prefectureCode": "23",
    "prefectureNumber": 23,
    "prefecture": "愛知県",
    "city": "愛西市",
    "town": "見越町"
  },
  "4968014": {
    "zipcode": "4968014",
    "prefectureCode": "23",
    "prefectureNumber": 23,
    "prefecture": "愛知県",
    "city": "愛西市",
    "town": "町方町"
  },
  "4968015": {
    "zipcode": "4968015",
    "prefectureCode": "23",
    "prefectureNumber": 23,
    "prefecture": "愛知県",
    "city": "愛西市",
    "town": "草平町"
  },
  "4968016": {
    "zipcode": "4968016",
    "prefectureCode": "23",
    "prefectureNumber": 23,
    "prefecture": "愛知県",
    "city": "愛西市",
    "town": "鷹場町"
  },
  "4968017": {
    "zipcode": "4968017",
    "prefectureCode": "23",
    "prefectureNumber": 23,
    "prefecture": "愛知県",
    "city": "愛西市",
    "town": "大野山町"
  },
  "4968018": {
    "zipcode": "4968018",
    "prefectureCode": "23",
    "prefectureNumber": 23,
    "prefecture": "愛知県",
    "city": "愛西市",
    "town": "渕高町"
  },
  "4968019": {
    "zipcode": "4968019",
    "prefectureCode": "23",
    "prefectureNumber": 23,
    "prefecture": "愛知県",
    "city": "愛西市",
    "town": "西川端町"
  },
  "4968020": {
    "zipcode": "4968020",
    "prefectureCode": "23",
    "prefectureNumber": 23,
    "prefecture": "愛知県",
    "city": "愛西市",
    "town": "平和町"
  },
  "4968030": {
    "zipcode": "4968030",
    "prefectureCode": "23",
    "prefectureNumber": 23,
    "prefecture": "愛知県",
    "city": "愛西市",
    "town": "二子町柳原"
  },
  "4968031": {
    "zipcode": "4968031",
    "prefectureCode": "23",
    "prefectureNumber": 23,
    "prefecture": "愛知県",
    "city": "愛西市",
    "town": "上東川町"
  },
  "4968032": {
    "zipcode": "4968032",
    "prefectureCode": "23",
    "prefectureNumber": 23,
    "prefecture": "愛知県",
    "city": "愛西市",
    "town": "下東川町"
  },
  "4968033": {
    "zipcode": "4968033",
    "prefectureCode": "23",
    "prefectureNumber": 23,
    "prefecture": "愛知県",
    "city": "愛西市",
    "town": "鵜多須町"
  },
  "4968034": {
    "zipcode": "4968034",
    "prefectureCode": "23",
    "prefectureNumber": 23,
    "prefecture": "愛知県",
    "city": "愛西市",
    "town": "二子町小判山"
  },
  "4968035": {
    "zipcode": "4968035",
    "prefectureCode": "23",
    "prefectureNumber": 23,
    "prefecture": "愛知県",
    "city": "愛西市",
    "town": "二子町上丸島"
  },
  "4968036": {
    "zipcode": "4968036",
    "prefectureCode": "23",
    "prefectureNumber": 23,
    "prefecture": "愛知県",
    "city": "愛西市",
    "town": "二子町丸島"
  },
  "4968037": {
    "zipcode": "4968037",
    "prefectureCode": "23",
    "prefectureNumber": 23,
    "prefecture": "愛知県",
    "city": "愛西市",
    "town": "二子町新田"
  },
  "4968038": {
    "zipcode": "4968038",
    "prefectureCode": "23",
    "prefectureNumber": 23,
    "prefecture": "愛知県",
    "city": "愛西市",
    "town": "二子町定納"
  },
  "4968039": {
    "zipcode": "4968039",
    "prefectureCode": "23",
    "prefectureNumber": 23,
    "prefecture": "愛知県",
    "city": "愛西市",
    "town": "川北町"
  },
  "4968040": {
    "zipcode": "4968040",
    "prefectureCode": "23",
    "prefectureNumber": 23,
    "prefecture": "愛知県",
    "city": "愛西市",
    "town": "二子町松原"
  },
  "4968041": {
    "zipcode": "4968041",
    "prefectureCode": "23",
    "prefectureNumber": 23,
    "prefecture": "愛知県",
    "city": "愛西市",
    "town": "藤ケ瀬町"
  },
  "4968042": {
    "zipcode": "4968042",
    "prefectureCode": "23",
    "prefectureNumber": 23,
    "prefecture": "愛知県",
    "city": "愛西市",
    "town": "給父町"
  },
  "4968043": {
    "zipcode": "4968043",
    "prefectureCode": "23",
    "prefectureNumber": 23,
    "prefecture": "愛知県",
    "city": "愛西市",
    "town": "高畑町"
  },
  "4968044": {
    "zipcode": "4968044",
    "prefectureCode": "23",
    "prefectureNumber": 23,
    "prefecture": "愛知県",
    "city": "愛西市",
    "town": "江西町"
  },
  "4968045": {
    "zipcode": "4968045",
    "prefectureCode": "23",
    "prefectureNumber": 23,
    "prefecture": "愛知県",
    "city": "愛西市",
    "town": "元赤目町"
  },
  "4968046": {
    "zipcode": "4968046",
    "prefectureCode": "23",
    "prefectureNumber": 23,
    "prefecture": "愛知県",
    "city": "愛西市",
    "town": "赤目町"
  },
  "4968047": {
    "zipcode": "4968047",
    "prefectureCode": "23",
    "prefectureNumber": 23,
    "prefecture": "愛知県",
    "city": "愛西市",
    "town": "立石町"
  },
  "4968048": {
    "zipcode": "4968048",
    "prefectureCode": "23",
    "prefectureNumber": 23,
    "prefecture": "愛知県",
    "city": "愛西市",
    "town": "下大牧町"
  },
  "4968049": {
    "zipcode": "4968049",
    "prefectureCode": "23",
    "prefectureNumber": 23,
    "prefecture": "愛知県",
    "city": "愛西市",
    "town": "塩田町"
  }
}
