{
  "4970000": {
    "zipcode": "4970000",
    "prefectureCode": "23",
    "prefectureNumber": 23,
    "prefecture": "愛知県",
    "city": "海部郡蟹江町",
    "town": "以下に掲載がない場合"
  },
  "4970001": {
    "zipcode": "4970001",
    "prefectureCode": "23",
    "prefectureNumber": 23,
    "prefecture": "愛知県",
    "city": "あま市",
    "town": "七宝町沖之島"
  },
  "4970002": {
    "zipcode": "4970002",
    "prefectureCode": "23",
    "prefectureNumber": 23,
    "prefecture": "愛知県",
    "city": "あま市",
    "town": "七宝町遠島"
  },
  "4970003": {
    "zipcode": "4970003",
    "prefectureCode": "23",
    "prefectureNumber": 23,
    "prefecture": "愛知県",
    "city": "あま市",
    "town": "七宝町秋竹"
  },
  "4970004": {
    "zipcode": "4970004",
    "prefectureCode": "23",
    "prefectureNumber": 23,
    "prefecture": "愛知県",
    "city": "あま市",
    "town": "七宝町桂"
  },
  "4970005": {
    "zipcode": "4970005",
    "prefectureCode": "23",
    "prefectureNumber": 23,
    "prefecture": "愛知県",
    "city": "あま市",
    "town": "七宝町伊福"
  },
  "4970006": {
    "zipcode": "4970006",
    "prefectureCode": "23",
    "prefectureNumber": 23,
    "prefecture": "愛知県",
    "city": "あま市",
    "town": "七宝町下之森"
  },
  "4970011": {
    "zipcode": "4970011",
    "prefectureCode": "23",
    "prefectureNumber": 23,
    "prefecture": "愛知県",
    "city": "あま市",
    "town": "七宝町安松"
  },
  "4970012": {
    "zipcode": "4970012",
    "prefectureCode": "23",
    "prefectureNumber": 23,
    "prefecture": "愛知県",
    "city": "あま市",
    "town": "七宝町下田"
  },
  "4970013": {
    "zipcode": "4970013",
    "prefectureCode": "23",
    "prefectureNumber": 23,
    "prefecture": "愛知県",
    "city": "あま市",
    "town": "七宝町川部"
  },
  "4970014": {
    "zipcode": "4970014",
    "prefectureCode": "23",
    "prefectureNumber": 23,
    "prefecture": "愛知県",
    "city": "あま市",
    "town": "七宝町鷹居"
  },
  "4970015": {
    "zipcode": "4970015",
    "prefectureCode": "23",
    "prefectureNumber": 23,
    "prefecture": "愛知県",
    "city": "あま市",
    "town": "七宝町鯰橋"
  },
  "4970016": {
    "zipcode": "4970016",
    "prefectureCode": "23",
    "prefectureNumber": 23,
    "prefecture": "愛知県",
    "city": "あま市",
    "town": "七宝町徳実"
  },
  "4970030": {
    "zipcode": "4970030",
    "prefectureCode": "23",
    "prefectureNumber": 23,
    "prefecture": "愛知県",
    "city": "海部郡蟹江町",
    "town": "宝"
  },
  "4970031": {
    "zipcode": "4970031",
    "prefectureCode": "23",
    "prefectureNumber": 23,
    "prefecture": "愛知県",
    "city": "海部郡蟹江町",
    "town": "須成"
  },
  "4970032": {
    "zipcode": "4970032",
    "prefectureCode": "23",
    "prefectureNumber": 23,
    "prefecture": "愛知県",
    "city": "海部郡蟹江町",
    "town": "今"
  },
  "4970033": {
    "zipcode": "4970033",
    "prefectureCode": "23",
    "prefectureNumber": 23,
    "prefecture": "愛知県",
    "city": "海部郡蟹江町",
    "town": "蟹江本町"
  },
  "4970034": {
    "zipcode": "4970034",
    "prefectureCode": "23",
    "prefectureNumber": 23,
    "prefecture": "愛知県",
    "city": "海部郡蟹江町",
    "town": "本町"
  },
  "4970035": {
    "zipcode": "4970035",
    "prefectureCode": "23",
    "prefectureNumber": 23,
    "prefecture": "愛知県",
    "city": "海部郡蟹江町",
    "town": "蟹江新町"
  },
  "4970036": {
    "zipcode": "4970036",
    "prefectureCode": "23",
    "prefectureNumber": 23,
    "prefecture": "愛知県",
    "city": "海部郡蟹江町",
    "town": "須成西"
  },
  "4970037": {
    "zipcode": "4970037",
    "prefectureCode": "23",
    "prefectureNumber": 23,
    "prefecture": "愛知県",
    "city": "海部郡蟹江町",
    "town": "今西"
  },
  "4970038": {
    "zipcode": "4970038",
    "prefectureCode": "23",
    "prefectureNumber": 23,
    "prefecture": "愛知県",
    "city": "海部郡蟹江町",
    "town": "桜"
  },
  "4970040": {
    "zipcode": "4970040",
    "prefectureCode": "23",
    "prefectureNumber": 23,
    "prefecture": "愛知県",
    "city": "海部郡蟹江町",
    "town": "城"
  },
  "4970041": {
    "zipcode": "4970041",
    "prefectureCode": "23",
    "prefectureNumber": 23,
    "prefecture": "愛知県",
    "city": "海部郡蟹江町",
    "town": "南"
  },
  "4970042": {
    "zipcode": "4970042",
    "prefectureCode": "23",
    "prefectureNumber": 23,
    "prefecture": "愛知県",
    "city": "海部郡蟹江町",
    "town": "鍋蓋新田"
  },
  "4970043": {
    "zipcode": "4970043",
    "prefectureCode": "23",
    "prefectureNumber": 23,
    "prefecture": "愛知県",
    "city": "海部郡蟹江町",
    "town": "新千秋"
  },
  "4970044": {
    "zipcode": "4970044",
    "prefectureCode": "23",
    "prefectureNumber": 23,
    "prefecture": "愛知県",
    "city": "海部郡蟹江町",
    "town": "蟹江新田"
  },
  "4970045": {
    "zipcode": "4970045",
    "prefectureCode": "23",
    "prefectureNumber": 23,
    "prefecture": "愛知県",
    "city": "海部郡蟹江町",
    "town": "緑"
  },
  "4970046": {
    "zipcode": "4970046",
    "prefectureCode": "23",
    "prefectureNumber": 23,
    "prefecture": "愛知県",
    "city": "海部郡蟹江町",
    "town": "旭"
  },
  "4970047": {
    "zipcode": "4970047",
    "prefectureCode": "23",
    "prefectureNumber": 23,
    "prefecture": "愛知県",
    "city": "海部郡蟹江町",
    "town": "泉"
  },
  "4970048": {
    "zipcode": "4970048",
    "prefectureCode": "23",
    "prefectureNumber": 23,
    "prefecture": "愛知県",
    "city": "海部郡蟹江町",
    "town": "舟入"
  },
  "4970050": {
    "zipcode": "4970050",
    "prefectureCode": "23",
    "prefectureNumber": 23,
    "prefecture": "愛知県",
    "city": "海部郡蟹江町",
    "town": "学戸"
  },
  "4970051": {
    "zipcode": "4970051",
    "prefectureCode": "23",
    "prefectureNumber": 23,
    "prefecture": "愛知県",
    "city": "海部郡蟹江町",
    "town": "北新田"
  },
  "4970052": {
    "zipcode": "4970052",
    "prefectureCode": "23",
    "prefectureNumber": 23,
    "prefecture": "愛知県",
    "city": "海部郡蟹江町",
    "town": "西之森"
  },
  "4970053": {
    "zipcode": "4970053",
    "prefectureCode": "23",
    "prefectureNumber": 23,
    "prefecture": "愛知県",
    "city": "海部郡蟹江町",
    "town": "平安"
  },
  "4970054": {
    "zipcode": "4970054",
    "prefectureCode": "23",
    "prefectureNumber": 23,
    "prefecture": "愛知県",
    "city": "海部郡蟹江町",
    "town": "錦"
  },
  "4970055": {
    "zipcode": "4970055",
    "prefectureCode": "23",
    "prefectureNumber": 23,
    "prefecture": "愛知県",
    "city": "海部郡蟹江町",
    "town": "源氏"
  },
  "4970056": {
    "zipcode": "4970056",
    "prefectureCode": "23",
    "prefectureNumber": 23,
    "prefecture": "愛知県",
    "city": "海部郡蟹江町",
    "town": "八幡"
  },
  "4970057": {
    "zipcode": "4970057",
    "prefectureCode": "23",
    "prefectureNumber": 23,
    "prefecture": "愛知県",
    "city": "海部郡蟹江町",
    "town": "上川田"
  },
  "4970058": {
    "zipcode": "4970058",
    "prefectureCode": "23",
    "prefectureNumber": 23,
    "prefecture": "愛知県",
    "city": "海部郡蟹江町",
    "town": "富吉"
  }
}
