{
  "5000000": {
    "zipcode": "5000000",
    "prefectureCode": "21",
    "prefectureNumber": 21,
    "prefecture": "岐阜県",
    "city": "岐阜市",
    "town": "以下に掲載がない場合"
  },
  "5008001": {
    "zipcode": "5008001",
    "prefectureCode": "21",
    "prefectureNumber": 21,
    "prefecture": "岐阜県",
    "city": "岐阜市",
    "town": "鏡岩"
  },
  "5008002": {
    "zipcode": "5008002",
    "prefectureCode": "21",
    "prefectureNumber": 21,
    "prefecture": "岐阜県",
    "city": "岐阜市",
    "town": "御手洗"
  },
  "5008003": {
    "zipcode": "5008003",
    "prefectureCode": "21",
    "prefectureNumber": 21,
    "prefecture": "岐阜県",
    "city": "岐阜市",
    "town": "大宮町"
  },
  "5008004": {
    "zipcode": "5008004",
    "prefectureCode": "21",
    "prefectureNumber": 21,
    "prefecture": "岐阜県",
    "city": "岐阜市",
    "town": "千畳敷"
  },
  "5008005": {
    "zipcode": "5008005",
    "prefectureCode": "21",
    "prefectureNumber": 21,
    "prefecture": "岐阜県",
    "city": "岐阜市",
    "town": "上材木町"
  },
  "5008006": {
    "zipcode": "5008006",
    "prefectureCode": "21",
    "prefectureNumber": 21,
    "prefecture": "岐阜県",
    "city": "岐阜市",
    "town": "堤外"
  },
  "5008007": {
    "zipcode": "5008007",
    "prefectureCode": "21",
    "prefectureNumber": 21,
    "prefecture": "岐阜県",
    "city": "岐阜市",
    "town": "元浜町"
  },
  "5008008": {
    "zipcode": "5008008",
    "prefectureCode": "21",
    "prefectureNumber": 21,
    "prefecture": "岐阜県",
    "city": "岐阜市",
    "town": "玉井町"
  },
  "5008009": {
    "zipcode": "5008009",
    "prefectureCode": "21",
    "prefectureNumber": 21,
    "prefecture": "岐阜県",
    "city": "岐阜市",
    "town": "湊町"
  },
  "5008011": {
    "zipcode": "5008011",
    "prefectureCode": "21",
    "prefectureNumber": 21,
    "prefecture": "岐阜県",
    "city": "岐阜市",
    "town": "木挽町"
  },
  "5008012": {
    "zipcode": "5008012",
    "prefectureCode": "21",
    "prefectureNumber": 21,
    "prefecture": "岐阜県",
    "city": "岐阜市",
    "town": "山口町"
  },
  "5008013": {
    "zipcode": "5008013",
    "prefectureCode": "21",
    "prefectureNumber": 21,
    "prefecture": "岐阜県",
    "city": "岐阜市",
    "town": "松下町"
  },
  "5008014": {
    "zipcode": "5008014",
    "prefectureCode": "21",
    "prefectureNumber": 21,
    "prefecture": "岐阜県",
    "city": "岐阜市",
    "town": "夕陽ケ丘"
  },
  "5008015": {
    "zipcode": "5008015",
    "prefectureCode": "21",
    "prefectureNumber": 21,
    "prefecture": "岐阜県",
    "city": "岐阜市",
    "town": "松山町"
  },
  "5008016": {
    "zipcode": "5008016",
    "prefectureCode": "21",
    "prefectureNumber": 21,
    "prefecture": "岐阜県",
    "city": "岐阜市",
    "town": "松ケ枝町"
  },
  "5008017": {
    "zipcode": "5008017",
    "prefectureCode": "21",
    "prefectureNumber": 21,
    "prefecture": "岐阜県",
    "city": "岐阜市",
    "town": "梶川町"
  },
  "5008018": {
    "zipcode": "5008018",
    "prefectureCode": "21",
    "prefectureNumber": 21,
    "prefecture": "岐阜県",
    "city": "岐阜市",
    "town": "大仏町"
  },
  "5008019": {
    "zipcode": "5008019",
    "prefectureCode": "21",
    "prefectureNumber": 21,
    "prefecture": "岐阜県",
    "city": "岐阜市",
    "town": "益屋町"
  },
  "5008021": {
    "zipcode": "5008021",
    "prefectureCode": "21",
    "prefectureNumber": 21,
    "prefecture": "岐阜県",
    "city": "岐阜市",
    "town": "上茶屋町"
  },
  "5008022": {
    "zipcode": "5008022",
    "prefectureCode": "21",
    "prefectureNumber": 21,
    "prefecture": "岐阜県",
    "city": "岐阜市",
    "town": "下茶屋町"
  },
  "5008023": {
    "zipcode": "5008023",
    "prefectureCode": "21",
    "prefectureNumber": 21,
    "prefecture": "岐阜県",
    "city": "岐阜市",
    "town": "今町"
  },
  "5008024": {
    "zipcode": "5008024",
    "prefectureCode": "21",
    "prefectureNumber": 21,
    "prefecture": "岐阜県",
    "city": "岐阜市",
    "town": "上新町"
  },
  "5008025": {
    "zipcode": "5008025",
    "prefectureCode": "21",
    "prefectureNumber": 21,
    "prefecture": "岐阜県",
    "city": "岐阜市",
    "town": "久屋町"
  },
  "5008026": {
    "zipcode": "5008026",
    "prefectureCode": "21",
    "prefectureNumber": 21,
    "prefecture": "岐阜県",
    "city": "岐阜市",
    "town": "上大久和町"
  },
  "5008027": {
    "zipcode": "5008027",
    "prefectureCode": "21",
    "prefectureNumber": 21,
    "prefecture": "岐阜県",
    "city": "岐阜市",
    "town": "中大桑町"
  },
  "5008028": {
    "zipcode": "5008028",
    "prefectureCode": "21",
    "prefectureNumber": 21,
    "prefecture": "岐阜県",
    "city": "岐阜市",
    "town": "西材木町"
  },
  "5008029": {
    "zipcode": "5008029",
    "prefectureCode": "21",
    "prefectureNumber": 21,
    "prefecture": "岐阜県",
    "city": "岐阜市",
    "town": "東材木町"
  },
  "5008031": {
    "zipcode": "5008031",
    "prefectureCode": "21",
    "prefectureNumber": 21,
    "prefecture": "岐阜県",
    "city": "岐阜市",
    "town": "蜂屋町"
  },
  "5008032": {
    "zipcode": "5008032",
    "prefectureCode": "21",
    "prefectureNumber": 21,
    "prefecture": "岐阜県",
    "city": "岐阜市",
    "town": "中新町"
  },
  "5008033": {
    "zipcode": "5008033",
    "prefectureCode": "21",
    "prefectureNumber": 21,
    "prefecture": "岐阜県",
    "city": "岐阜市",
    "town": "魚屋町"
  },
  "5008034": {
    "zipcode": "5008034",
    "prefectureCode": "21",
    "prefectureNumber": 21,
    "prefecture": "岐阜県",
    "city": "岐阜市",
    "town": "本町"
  },
  "5008035": {
    "zipcode": "5008035",
    "prefectureCode": "21",
    "prefectureNumber": 21,
    "prefecture": "岐阜県",
    "city": "岐阜市",
    "town": "布屋町"
  },
  "5008036": {
    "zipcode": "5008036",
    "prefectureCode": "21",
    "prefectureNumber": 21,
    "prefecture": "岐阜県",
    "city": "岐阜市",
    "town": "甚衛町"
  },
  "5008037": {
    "zipcode": "5008037",
    "prefectureCode": "21",
    "prefectureNumber": 21,
    "prefecture": "岐阜県",
    "city": "岐阜市",
    "town": "下新町"
  },
  "5008038": {
    "zipcode": "5008038",
    "prefectureCode": "21",
    "prefectureNumber": 21,
    "prefecture": "岐阜県",
    "city": "岐阜市",
    "town": "大工町"
  },
  "5008039": {
    "zipcode": "5008039",
    "prefectureCode": "21",
    "prefectureNumber": 21,
    "prefecture": "岐阜県",
    "city": "岐阜市",
    "town": "下大桑町"
  },
  "5008041": {
    "zipcode": "5008041",
    "prefectureCode": "21",
    "prefectureNumber": 21,
    "prefecture": "岐阜県",
    "city": "岐阜市",
    "town": "靱屋町"
  },
  "5008042": {
    "zipcode": "5008042",
    "prefectureCode": "21",
    "prefectureNumber": 21,
    "prefecture": "岐阜県",
    "city": "岐阜市",
    "town": "末広町"
  },
  "5008043": {
    "zipcode": "5008043",
    "prefectureCode": "21",
    "prefectureNumber": 21,
    "prefecture": "岐阜県",
    "city": "岐阜市",
    "town": "伊奈波通"
  },
  "5008044": {
    "zipcode": "5008044",
    "prefectureCode": "21",
    "prefectureNumber": 21,
    "prefecture": "岐阜県",
    "city": "岐阜市",
    "town": "万力町"
  },
  "5008045": {
    "zipcode": "5008045",
    "prefectureCode": "21",
    "prefectureNumber": 21,
    "prefecture": "岐阜県",
    "city": "岐阜市",
    "town": "新桜町"
  },
  "5008046": {
    "zipcode": "5008046",
    "prefectureCode": "21",
    "prefectureNumber": 21,
    "prefecture": "岐阜県",
    "city": "岐阜市",
    "town": "米屋町"
  },
  "5008047": {
    "zipcode": "5008047",
    "prefectureCode": "21",
    "prefectureNumber": 21,
    "prefecture": "岐阜県",
    "city": "岐阜市",
    "town": "中竹屋町"
  },
  "5008048": {
    "zipcode": "5008048",
    "prefectureCode": "21",
    "prefectureNumber": 21,
    "prefecture": "岐阜県",
    "city": "岐阜市",
    "town": "大和町"
  },
  "5008049": {
    "zipcode": "5008049",
    "prefectureCode": "21",
    "prefectureNumber": 21,
    "prefecture": "岐阜県",
    "city": "岐阜市",
    "town": "上竹屋町"
  },
  "5008051": {
    "zipcode": "5008051",
    "prefectureCode": "21",
    "prefectureNumber": 21,
    "prefecture": "岐阜県",
    "city": "岐阜市",
    "town": "駿河山"
  },
  "5008052": {
    "zipcode": "5008052",
    "prefectureCode": "21",
    "prefectureNumber": 21,
    "prefecture": "岐阜県",
    "city": "岐阜市",
    "town": "鶯谷"
  },
  "5008053": {
    "zipcode": "5008053",
    "prefectureCode": "21",
    "prefectureNumber": 21,
    "prefecture": "岐阜県",
    "city": "岐阜市",
    "town": "鶯谷町"
  },
  "5008054": {
    "zipcode": "5008054",
    "prefectureCode": "21",
    "prefectureNumber": 21,
    "prefecture": "岐阜県",
    "city": "岐阜市",
    "town": "大門町"
  },
  "5008055": {
    "zipcode": "5008055",
    "prefectureCode": "21",
    "prefectureNumber": 21,
    "prefecture": "岐阜県",
    "city": "岐阜市",
    "town": "笹土居町"
  },
  "5008056": {
    "zipcode": "5008056",
    "prefectureCode": "21",
    "prefectureNumber": 21,
    "prefecture": "岐阜県",
    "city": "岐阜市",
    "town": "下竹町"
  },
  "5008057": {
    "zipcode": "5008057",
    "prefectureCode": "21",
    "prefectureNumber": 21,
    "prefecture": "岐阜県",
    "city": "岐阜市",
    "town": "上竹町"
  },
  "5008058": {
    "zipcode": "5008058",
    "prefectureCode": "21",
    "prefectureNumber": 21,
    "prefecture": "岐阜県",
    "city": "岐阜市",
    "town": "常盤町"
  },
  "5008059": {
    "zipcode": "5008059",
    "prefectureCode": "21",
    "prefectureNumber": 21,
    "prefecture": "岐阜県",
    "city": "岐阜市",
    "town": "栄扇町"
  },
  "5008061": {
    "zipcode": "5008061",
    "prefectureCode": "21",
    "prefectureNumber": 21,
    "prefecture": "岐阜県",
    "city": "岐阜市",
    "town": "小熊町"
  },
  "5008062": {
    "zipcode": "5008062",
    "prefectureCode": "21",
    "prefectureNumber": 21,
    "prefecture": "岐阜県",
    "city": "岐阜市",
    "town": "初音町"
  },
  "5008063": {
    "zipcode": "5008063",
    "prefectureCode": "21",
    "prefectureNumber": 21,
    "prefecture": "岐阜県",
    "city": "岐阜市",
    "town": "金屋横町"
  },
  "5008064": {
    "zipcode": "5008064",
    "prefectureCode": "21",
    "prefectureNumber": 21,
    "prefecture": "岐阜県",
    "city": "岐阜市",
    "town": "柳沢町"
  },
  "5008065": {
    "zipcode": "5008065",
    "prefectureCode": "21",
    "prefectureNumber": 21,
    "prefecture": "岐阜県",
    "city": "岐阜市",
    "town": "金屋町"
  },
  "5008066": {
    "zipcode": "5008066",
    "prefectureCode": "21",
    "prefectureNumber": 21,
    "prefecture": "岐阜県",
    "city": "岐阜市",
    "town": "下太田町"
  },
  "5008067": {
    "zipcode": "5008067",
    "prefectureCode": "21",
    "prefectureNumber": 21,
    "prefecture": "岐阜県",
    "city": "岐阜市",
    "town": "秋津町"
  },
  "5008068": {
    "zipcode": "5008068",
    "prefectureCode": "21",
    "prefectureNumber": 21,
    "prefecture": "岐阜県",
    "city": "岐阜市",
    "town": "上太田町"
  },
  "5008069": {
    "zipcode": "5008069",
    "prefectureCode": "21",
    "prefectureNumber": 21,
    "prefecture": "岐阜県",
    "city": "岐阜市",
    "town": "今小町"
  },
  "5008071": {
    "zipcode": "5008071",
    "prefectureCode": "21",
    "prefectureNumber": 21,
    "prefecture": "岐阜県",
    "city": "岐阜市",
    "town": "柳町"
  },
  "5008072": {
    "zipcode": "5008072",
    "prefectureCode": "21",
    "prefectureNumber": 21,
    "prefecture": "岐阜県",
    "city": "岐阜市",
    "town": "緑町"
  },
  "5008073": {
    "zipcode": "5008073",
    "prefectureCode": "21",
    "prefectureNumber": 21,
    "prefecture": "岐阜県",
    "city": "岐阜市",
    "town": "泉町"
  },
  "5008074": {
    "zipcode": "5008074",
    "prefectureCode": "21",
    "prefectureNumber": 21,
    "prefecture": "岐阜県",
    "city": "岐阜市",
    "town": "七軒町"
  },
  "5008075": {
    "zipcode": "5008075",
    "prefectureCode": "21",
    "prefectureNumber": 21,
    "prefecture": "岐阜県",
    "city": "岐阜市",
    "town": "室町"
  },
  "5008076": {
    "zipcode": "5008076",
    "prefectureCode": "21",
    "prefectureNumber": 21,
    "prefecture": "岐阜県",
    "city": "岐阜市",
    "town": "司町"
  },
  "5008077": {
    "zipcode": "5008077",
    "prefectureCode": "21",
    "prefectureNumber": 21,
    "prefecture": "岐阜県",
    "city": "岐阜市",
    "town": "伊吹町"
  },
  "5008078": {
    "zipcode": "5008078",
    "prefectureCode": "21",
    "prefectureNumber": 21,
    "prefecture": "岐阜県",
    "city": "岐阜市",
    "town": "柳生町"
  },
  "5008079": {
    "zipcode": "5008079",
    "prefectureCode": "21",
    "prefectureNumber": 21,
    "prefecture": "岐阜県",
    "city": "岐阜市",
    "town": "御杉町"
  },
  "5008081": {
    "zipcode": "5008081",
    "prefectureCode": "21",
    "prefectureNumber": 21,
    "prefecture": "岐阜県",
    "city": "岐阜市",
    "town": "啓運町"
  },
  "5008082": {
    "zipcode": "5008082",
    "prefectureCode": "21",
    "prefectureNumber": 21,
    "prefecture": "岐阜県",
    "city": "岐阜市",
    "town": "矢島町"
  },
  "5008083": {
    "zipcode": "5008083",
    "prefectureCode": "21",
    "prefectureNumber": 21,
    "prefecture": "岐阜県",
    "city": "岐阜市",
    "town": "間之町"
  },
  "5008084": {
    "zipcode": "5008084",
    "prefectureCode": "21",
    "prefectureNumber": 21,
    "prefecture": "岐阜県",
    "city": "岐阜市",
    "town": "松屋町"
  },
  "5008085": {
    "zipcode": "5008085",
    "prefectureCode": "21",
    "prefectureNumber": 21,
    "prefecture": "岐阜県",
    "city": "岐阜市",
    "town": "白木町"
  },
  "5008086": {
    "zipcode": "5008086",
    "prefectureCode": "21",
    "prefectureNumber": 21,
    "prefecture": "岐阜県",
    "city": "岐阜市",
    "town": "木造町"
  },
  "5008087": {
    "zipcode": "5008087",
    "prefectureCode": "21",
    "prefectureNumber": 21,
    "prefecture": "岐阜県",
    "city": "岐阜市",
    "town": "堀江町"
  },
  "5008088": {
    "zipcode": "5008088",
    "prefectureCode": "21",
    "prefectureNumber": 21,
    "prefecture": "岐阜県",
    "city": "岐阜市",
    "town": "四屋町"
  },
  "5008089": {
    "zipcode": "5008089",
    "prefectureCode": "21",
    "prefectureNumber": 21,
    "prefecture": "岐阜県",
    "city": "岐阜市",
    "town": "若松町"
  },
  "5008101": {
    "zipcode": "5008101",
    "prefectureCode": "21",
    "prefectureNumber": 21,
    "prefecture": "岐阜県",
    "city": "岐阜市",
    "town": "多賀町"
  },
  "5008102": {
    "zipcode": "5008102",
    "prefectureCode": "21",
    "prefectureNumber": 21,
    "prefecture": "岐阜県",
    "city": "岐阜市",
    "town": "粕森町"
  },
  "5008103": {
    "zipcode": "5008103",
    "prefectureCode": "21",
    "prefectureNumber": 21,
    "prefecture": "岐阜県",
    "city": "岐阜市",
    "town": "藍川町"
  },
  "5008104": {
    "zipcode": "5008104",
    "prefectureCode": "21",
    "prefectureNumber": 21,
    "prefecture": "岐阜県",
    "city": "岐阜市",
    "town": "美園町"
  },
  "5008105": {
    "zipcode": "5008105",
    "prefectureCode": "21",
    "prefectureNumber": 21,
    "prefecture": "岐阜県",
    "city": "岐阜市",
    "town": "西園町"
  },
  "5008106": {
    "zipcode": "5008106",
    "prefectureCode": "21",
    "prefectureNumber": 21,
    "prefecture": "岐阜県",
    "city": "岐阜市",
    "town": "東高岩町"
  },
  "5008107": {
    "zipcode": "5008107",
    "prefectureCode": "21",
    "prefectureNumber": 21,
    "prefecture": "岐阜県",
    "city": "岐阜市",
    "town": "高岩町"
  },
  "5008108": {
    "zipcode": "5008108",
    "prefectureCode": "21",
    "prefectureNumber": 21,
    "prefecture": "岐阜県",
    "city": "岐阜市",
    "town": "川端町"
  },
  "5008109": {
    "zipcode": "5008109",
    "prefectureCode": "21",
    "prefectureNumber": 21,
    "prefecture": "岐阜県",
    "city": "岐阜市",
    "town": "朝日町"
  },
  "5008111": {
    "zipcode": "5008111",
    "prefectureCode": "21",
    "prefectureNumber": 21,
    "prefecture": "岐阜県",
    "city": "岐阜市",
    "town": "梅林"
  },
  "5008112": {
    "zipcode": "5008112",
    "prefectureCode": "21",
    "prefectureNumber": 21,
    "prefecture": "岐阜県",
    "city": "岐阜市",
    "town": "梅林南町"
  },
  "5008113": {
    "zipcode": "5008113",
    "prefectureCode": "21",
    "prefectureNumber": 21,
    "prefecture": "岐阜県",
    "city": "岐阜市",
    "town": "金園町"
  },
  "5008114": {
    "zipcode": "5008114",
    "prefectureCode": "21",
    "prefectureNumber": 21,
    "prefecture": "岐阜県",
    "city": "岐阜市",
    "town": "金竜町"
  },
  "5008115": {
    "zipcode": "5008115",
    "prefectureCode": "21",
    "prefectureNumber": 21,
    "prefecture": "岐阜県",
    "city": "岐阜市",
    "town": "田端町"
  },
  "5008116": {
    "zipcode": "5008116",
    "prefectureCode": "21",
    "prefectureNumber": 21,
    "prefecture": "岐阜県",
    "city": "岐阜市",
    "town": "殿町"
  },
  "5008117": {
    "zipcode": "5008117",
    "prefectureCode": "21",
    "prefectureNumber": 21,
    "prefecture": "岐阜県",
    "city": "岐阜市",
    "town": "南殿町"
  },
  "5008118": {
    "zipcode": "5008118",
    "prefectureCode": "21",
    "prefectureNumber": 21,
    "prefecture": "岐阜県",
    "city": "岐阜市",
    "town": "寺町"
  },
  "5008119": {
    "zipcode": "5008119",
    "prefectureCode": "21",
    "prefectureNumber": 21,
    "prefecture": "岐阜県",
    "city": "岐阜市",
    "town": "梅林西町"
  },
  "5008121": {
    "zipcode": "5008121",
    "prefectureCode": "21",
    "prefectureNumber": 21,
    "prefecture": "岐阜県",
    "city": "岐阜市",
    "town": "上加納山"
  },
  "5008122": {
    "zipcode": "5008122",
    "prefectureCode": "21",
    "prefectureNumber": 21,
    "prefecture": "岐阜県",
    "city": "岐阜市",
    "town": "旭見ケ池町"
  },
  "5008123": {
    "zipcode": "5008123",
    "prefectureCode": "21",
    "prefectureNumber": 21,
    "prefecture": "岐阜県",
    "city": "岐阜市",
    "town": "雲竜町"
  },
  "5008124": {
    "zipcode": "5008124",
    "prefectureCode": "21",
    "prefectureNumber": 21,
    "prefecture": "岐阜県",
    "city": "岐阜市",
    "town": "宝来町"
  },
  "5008125": {
    "zipcode": "5008125",
    "prefectureCode": "21",
    "prefectureNumber": 21,
    "prefecture": "岐阜県",
    "city": "岐阜市",
    "town": "城望町"
  },
  "5008126": {
    "zipcode": "5008126",
    "prefectureCode": "21",
    "prefectureNumber": 21,
    "prefecture": "岐阜県",
    "city": "岐阜市",
    "town": "隆城町"
  },
  "5008127": {
    "zipcode": "5008127",
    "prefectureCode": "21",
    "prefectureNumber": 21,
    "prefecture": "岐阜県",
    "city": "岐阜市",
    "town": "塩町"
  },
  "5008128": {
    "zipcode": "5008128",
    "prefectureCode": "21",
    "prefectureNumber": 21,
    "prefecture": "岐阜県",
    "city": "岐阜市",
    "town": "花月町"
  },
  "5008129": {
    "zipcode": "5008129",
    "prefectureCode": "21",
    "prefectureNumber": 21,
    "prefecture": "岐阜県",
    "city": "岐阜市",
    "town": "鶴見町"
  },
  "5008131": {
    "zipcode": "5008131",
    "prefectureCode": "21",
    "prefectureNumber": 21,
    "prefecture": "岐阜県",
    "city": "岐阜市",
    "town": "月ノ会町"
  },
  "5008132": {
    "zipcode": "5008132",
    "prefectureCode": "21",
    "prefectureNumber": 21,
    "prefecture": "岐阜県",
    "city": "岐阜市",
    "town": "尼ケ崎町"
  },
  "5008133": {
    "zipcode": "5008133",
    "prefectureCode": "21",
    "prefectureNumber": 21,
    "prefecture": "岐阜県",
    "city": "岐阜市",
    "town": "永楽町"
  },
  "5008134": {
    "zipcode": "5008134",
    "prefectureCode": "21",
    "prefectureNumber": 21,
    "prefecture": "岐阜県",
    "city": "岐阜市",
    "town": "岩栄町"
  },
  "5008135": {
    "zipcode": "5008135",
    "prefectureCode": "21",
    "prefectureNumber": 21,
    "prefecture": "岐阜県",
    "city": "岐阜市",
    "town": "織田塚町"
  },
  "5008136": {
    "zipcode": "5008136",
    "prefectureCode": "21",
    "prefectureNumber": 21,
    "prefecture": "岐阜県",
    "city": "岐阜市",
    "town": "雪見町"
  },
  "5008137": {
    "zipcode": "5008137",
    "prefectureCode": "21",
    "prefectureNumber": 21,
    "prefecture": "岐阜県",
    "city": "岐阜市",
    "town": "東興町"
  },
  "5008138": {
    "zipcode": "5008138",
    "prefectureCode": "21",
    "prefectureNumber": 21,
    "prefecture": "岐阜県",
    "city": "岐阜市",
    "town": "中道北"
  },
  "5008139": {
    "zipcode": "5008139",
    "prefectureCode": "21",
    "prefectureNumber": 21,
    "prefecture": "岐阜県",
    "city": "岐阜市",
    "town": "庵町"
  },
  "5008141": {
    "zipcode": "5008141",
    "prefectureCode": "21",
    "prefectureNumber": 21,
    "prefecture": "岐阜県",
    "city": "岐阜市",
    "town": "月丘町"
  },
  "5008142": {
    "zipcode": "5008142",
    "prefectureCode": "21",
    "prefectureNumber": 21,
    "prefecture": "岐阜県",
    "city": "岐阜市",
    "town": "花沢町"
  },
  "5008143": {
    "zipcode": "5008143",
    "prefectureCode": "21",
    "prefectureNumber": 21,
    "prefecture": "岐阜県",
    "city": "岐阜市",
    "town": "瑞雲町"
  },
  "5008144": {
    "zipcode": "5008144",
    "prefectureCode": "21",
    "prefectureNumber": 21,
    "prefecture": "岐阜県",
    "city": "岐阜市",
    "town": "東栄町"
  },
  "5008145": {
    "zipcode": "5008145",
    "prefectureCode": "21",
    "prefectureNumber": 21,
    "prefecture": "岐阜県",
    "city": "岐阜市",
    "town": "雲井町"
  },
  "5008146": {
    "zipcode": "5008146",
    "prefectureCode": "21",
    "prefectureNumber": 21,
    "prefecture": "岐阜県",
    "city": "岐阜市",
    "town": "九重町"
  },
  "5008147": {
    "zipcode": "5008147",
    "prefectureCode": "21",
    "prefectureNumber": 21,
    "prefecture": "岐阜県",
    "city": "岐阜市",
    "town": "三笠町"
  },
  "5008148": {
    "zipcode": "5008148",
    "prefectureCode": "21",
    "prefectureNumber": 21,
    "prefecture": "岐阜県",
    "city": "岐阜市",
    "town": "曙町"
  },
  "5008149": {
    "zipcode": "5008149",
    "prefectureCode": "21",
    "prefectureNumber": 21,
    "prefecture": "岐阜県",
    "city": "岐阜市",
    "town": "戎町"
  },
  "5008151": {
    "zipcode": "5008151",
    "prefectureCode": "21",
    "prefectureNumber": 21,
    "prefecture": "岐阜県",
    "city": "岐阜市",
    "town": "大黒町"
  },
  "5008152": {
    "zipcode": "5008152",
    "prefectureCode": "21",
    "prefectureNumber": 21,
    "prefecture": "岐阜県",
    "city": "岐阜市",
    "town": "入舟町"
  },
  "5008153": {
    "zipcode": "5008153",
    "prefectureCode": "21",
    "prefectureNumber": 21,
    "prefecture": "岐阜県",
    "city": "岐阜市",
    "town": "石長町"
  },
  "5008154": {
    "zipcode": "5008154",
    "prefectureCode": "21",
    "prefectureNumber": 21,
    "prefecture": "岐阜県",
    "city": "岐阜市",
    "town": "木ノ下町"
  },
  "5008155": {
    "zipcode": "5008155",
    "prefectureCode": "21",
    "prefectureNumber": 21,
    "prefecture": "岐阜県",
    "city": "岐阜市",
    "town": "市ノ坪町"
  },
  "5008156": {
    "zipcode": "5008156",
    "prefectureCode": "21",
    "prefectureNumber": 21,
    "prefecture": "岐阜県",
    "city": "岐阜市",
    "town": "祈年町"
  },
  "5008157": {
    "zipcode": "5008157",
    "prefectureCode": "21",
    "prefectureNumber": 21,
    "prefecture": "岐阜県",
    "city": "岐阜市",
    "town": "五坪町"
  },
  "5008158": {
    "zipcode": "5008158",
    "prefectureCode": "21",
    "prefectureNumber": 21,
    "prefecture": "岐阜県",
    "city": "岐阜市",
    "town": "田神"
  },
  "5008159": {
    "zipcode": "5008159",
    "prefectureCode": "21",
    "prefectureNumber": 21,
    "prefecture": "岐阜県",
    "city": "岐阜市",
    "town": "田神町"
  },
  "5008161": {
    "zipcode": "5008161",
    "prefectureCode": "21",
    "prefectureNumber": 21,
    "prefecture": "岐阜県",
    "city": "岐阜市",
    "town": "茨木町"
  },
  "5008162": {
    "zipcode": "5008162",
    "prefectureCode": "21",
    "prefectureNumber": 21,
    "prefecture": "岐阜県",
    "city": "岐阜市",
    "town": "高尾町"
  },
  "5008163": {
    "zipcode": "5008163",
    "prefectureCode": "21",
    "prefectureNumber": 21,
    "prefecture": "岐阜県",
    "city": "岐阜市",
    "town": "鶴舞町"
  },
  "5008164": {
    "zipcode": "5008164",
    "prefectureCode": "21",
    "prefectureNumber": 21,
    "prefecture": "岐阜県",
    "city": "岐阜市",
    "town": "鶴田町"
  },
  "5008165": {
    "zipcode": "5008165",
    "prefectureCode": "21",
    "prefectureNumber": 21,
    "prefecture": "岐阜県",
    "city": "岐阜市",
    "town": "老松町"
  },
  "5008166": {
    "zipcode": "5008166",
    "prefectureCode": "21",
    "prefectureNumber": 21,
    "prefecture": "岐阜県",
    "city": "岐阜市",
    "town": "天王町"
  },
  "5008167": {
    "zipcode": "5008167",
    "prefectureCode": "21",
    "prefectureNumber": 21,
    "prefecture": "岐阜県",
    "city": "岐阜市",
    "town": "東金宝町"
  },
  "5008168": {
    "zipcode": "5008168",
    "prefectureCode": "21",
    "prefectureNumber": 21,
    "prefecture": "岐阜県",
    "city": "岐阜市",
    "town": "東駒爪町"
  },
  "5008169": {
    "zipcode": "5008169",
    "prefectureCode": "21",
    "prefectureNumber": 21,
    "prefecture": "岐阜県",
    "city": "岐阜市",
    "town": "溝旗町"
  },
  "5008171": {
    "zipcode": "5008171",
    "prefectureCode": "21",
    "prefectureNumber": 21,
    "prefecture": "岐阜県",
    "city": "岐阜市",
    "town": "高森町"
  },
  "5008172": {
    "zipcode": "5008172",
    "prefectureCode": "21",
    "prefectureNumber": 21,
    "prefecture": "岐阜県",
    "city": "岐阜市",
    "town": "白山町"
  },
  "5008173": {
    "zipcode": "5008173",
    "prefectureCode": "21",
    "prefectureNumber": 21,
    "prefecture": "岐阜県",
    "city": "岐阜市",
    "town": "田生越町"
  },
  "5008174": {
    "zipcode": "5008174",
    "prefectureCode": "21",
    "prefectureNumber": 21,
    "prefecture": "岐阜県",
    "city": "岐阜市",
    "town": "栗矢田町"
  },
  "5008175": {
    "zipcode": "5008175",
    "prefectureCode": "21",
    "prefectureNumber": 21,
    "prefecture": "岐阜県",
    "city": "岐阜市",
    "town": "長住町"
  },
  "5008176": {
    "zipcode": "5008176",
    "prefectureCode": "21",
    "prefectureNumber": 21,
    "prefecture": "岐阜県",
    "city": "岐阜市",
    "town": "県町"
  },
  "5008177": {
    "zipcode": "5008177",
    "prefectureCode": "21",
    "prefectureNumber": 21,
    "prefecture": "岐阜県",
    "city": "岐阜市",
    "town": "長旗町"
  },
  "5008178": {
    "zipcode": "5008178",
    "prefectureCode": "21",
    "prefectureNumber": 21,
    "prefecture": "岐阜県",
    "city": "岐阜市",
    "town": "清住町"
  },
  "5008179": {
    "zipcode": "5008179",
    "prefectureCode": "21",
    "prefectureNumber": 21,
    "prefecture": "岐阜県",
    "city": "岐阜市",
    "town": "元住町"
  },
  "5008181": {
    "zipcode": "5008181",
    "prefectureCode": "21",
    "prefectureNumber": 21,
    "prefecture": "岐阜県",
    "city": "岐阜市",
    "town": "御浪町"
  },
  "5008182": {
    "zipcode": "5008182",
    "prefectureCode": "21",
    "prefectureNumber": 21,
    "prefecture": "岐阜県",
    "city": "岐阜市",
    "town": "美殿町"
  },
  "5008183": {
    "zipcode": "5008183",
    "prefectureCode": "21",
    "prefectureNumber": 21,
    "prefecture": "岐阜県",
    "city": "岐阜市",
    "town": "一番町"
  },
  "5008184": {
    "zipcode": "5008184",
    "prefectureCode": "21",
    "prefectureNumber": 21,
    "prefecture": "岐阜県",
    "city": "岐阜市",
    "town": "西駒爪町"
  },
  "5008185": {
    "zipcode": "5008185",
    "prefectureCode": "21",
    "prefectureNumber": 21,
    "prefecture": "岐阜県",
    "city": "岐阜市",
    "town": "元町"
  },
  "5008186": {
    "zipcode": "5008186",
    "prefectureCode": "21",
    "prefectureNumber": 21,
    "prefecture": "岐阜県",
    "city": "岐阜市",
    "town": "霞町"
  },
  "5008187": {
    "zipcode": "5008187",
    "prefectureCode": "21",
    "prefectureNumber": 21,
    "prefecture": "岐阜県",
    "city": "岐阜市",
    "town": "吉津町"
  },
  "5008188": {
    "zipcode": "5008188",
    "prefectureCode": "21",
    "prefectureNumber": 21,
    "prefecture": "岐阜県",
    "city": "岐阜市",
    "town": "二番町"
  },
  "5008189": {
    "zipcode": "5008189",
    "prefectureCode": "21",
    "prefectureNumber": 21,
    "prefecture": "岐阜県",
    "city": "岐阜市",
    "town": "三番町"
  },
  "5008207": {
    "zipcode": "5008207",
    "prefectureCode": "21",
    "prefectureNumber": 21,
    "prefecture": "岐阜県",
    "city": "岐阜市",
    "town": "日野北"
  },
  "5008211": {
    "zipcode": "5008211",
    "prefectureCode": "21",
    "prefectureNumber": 21,
    "prefecture": "岐阜県",
    "city": "岐阜市",
    "town": "日野東"
  },
  "5008212": {
    "zipcode": "5008212",
    "prefectureCode": "21",
    "prefectureNumber": 21,
    "prefecture": "岐阜県",
    "city": "岐阜市",
    "town": "日野南"
  },
  "5008213": {
    "zipcode": "5008213",
    "prefectureCode": "21",
    "prefectureNumber": 21,
    "prefecture": "岐阜県",
    "city": "岐阜市",
    "town": "日野西"
  },
  "5008221": {
    "zipcode": "5008221",
    "prefectureCode": "21",
    "prefectureNumber": 21,
    "prefecture": "岐阜県",
    "city": "岐阜市",
    "town": "天池"
  },
  "5008222": {
    "zipcode": "5008222",
    "prefectureCode": "21",
    "prefectureNumber": 21,
    "prefecture": "岐阜県",
    "city": "岐阜市",
    "town": "琴塚"
  },
  "5008223": {
    "zipcode": "5008223",
    "prefectureCode": "21",
    "prefectureNumber": 21,
    "prefecture": "岐阜県",
    "city": "岐阜市",
    "town": "水海道"
  },
  "5008224": {
    "zipcode": "5008224",
    "prefectureCode": "21",
    "prefectureNumber": 21,
    "prefecture": "岐阜県",
    "city": "岐阜市",
    "town": "高田"
  },
  "5008225": {
    "zipcode": "5008225",
    "prefectureCode": "21",
    "prefectureNumber": 21,
    "prefecture": "岐阜県",
    "city": "岐阜市",
    "town": "岩地"
  },
  "5008226": {
    "zipcode": "5008226",
    "prefectureCode": "21",
    "prefectureNumber": 21,
    "prefecture": "岐阜県",
    "city": "岐阜市",
    "town": "野一色"
  },
  "5008227": {
    "zipcode": "5008227",
    "prefectureCode": "21",
    "prefectureNumber": 21,
    "prefecture": "岐阜県",
    "city": "岐阜市",
    "town": "北一色"
  },
  "5008228": {
    "zipcode": "5008228",
    "prefectureCode": "21",
    "prefectureNumber": 21,
    "prefecture": "岐阜県",
    "city": "岐阜市",
    "town": "長森本町"
  },
  "5008229": {
    "zipcode": "5008229",
    "prefectureCode": "21",
    "prefectureNumber": 21,
    "prefecture": "岐阜県",
    "city": "岐阜市",
    "town": "長森岩戸"
  },
  "5008231": {
    "zipcode": "5008231",
    "prefectureCode": "21",
    "prefectureNumber": 21,
    "prefecture": "岐阜県",
    "city": "岐阜市",
    "town": "前一色西町"
  },
  "5008232": {
    "zipcode": "5008232",
    "prefectureCode": "21",
    "prefectureNumber": 21,
    "prefecture": "岐阜県",
    "city": "岐阜市",
    "town": "前一色"
  },
  "5008233": {
    "zipcode": "5008233",
    "prefectureCode": "21",
    "prefectureNumber": 21,
    "prefecture": "岐阜県",
    "city": "岐阜市",
    "town": "蔵前"
  },
  "5008234": {
    "zipcode": "5008234",
    "prefectureCode": "21",
    "prefectureNumber": 21,
    "prefecture": "岐阜県",
    "city": "岐阜市",
    "town": "芋島"
  },
  "5008235": {
    "zipcode": "5008235",
    "prefectureCode": "21",
    "prefectureNumber": 21,
    "prefecture": "岐阜県",
    "city": "岐阜市",
    "town": "東中島"
  },
  "5008236": {
    "zipcode": "5008236",
    "prefectureCode": "21",
    "prefectureNumber": 21,
    "prefecture": "岐阜県",
    "city": "岐阜市",
    "town": "手力町"
  },
  "5008237": {
    "zipcode": "5008237",
    "prefectureCode": "21",
    "prefectureNumber": 21,
    "prefecture": "岐阜県",
    "city": "岐阜市",
    "town": "切通"
  },
  "5008238": {
    "zipcode": "5008238",
    "prefectureCode": "21",
    "prefectureNumber": 21,
    "prefecture": "岐阜県",
    "city": "岐阜市",
    "town": "細畑"
  },
  "5008241": {
    "zipcode": "5008241",
    "prefectureCode": "21",
    "prefectureNumber": 21,
    "prefecture": "岐阜県",
    "city": "岐阜市",
    "town": "領下"
  },
  "5008242": {
    "zipcode": "5008242",
    "prefectureCode": "21",
    "prefectureNumber": 21,
    "prefecture": "岐阜県",
    "city": "岐阜市",
    "town": "細畑野寄"
  },
  "5008243": {
    "zipcode": "5008243",
    "prefectureCode": "21",
    "prefectureNumber": 21,
    "prefecture": "岐阜県",
    "city": "岐阜市",
    "town": "細畑華南"
  },
  "5008244": {
    "zipcode": "5008244",
    "prefectureCode": "21",
    "prefectureNumber": 21,
    "prefecture": "岐阜県",
    "city": "岐阜市",
    "town": "細畑塚浦"
  },
  "5008245": {
    "zipcode": "5008245",
    "prefectureCode": "21",
    "prefectureNumber": 21,
    "prefecture": "岐阜県",
    "city": "岐阜市",
    "town": "上川手"
  },
  "5008246": {
    "zipcode": "5008246",
    "prefectureCode": "21",
    "prefectureNumber": 21,
    "prefecture": "岐阜県",
    "city": "岐阜市",
    "town": "下川手"
  },
  "5008247": {
    "zipcode": "5008247",
    "prefectureCode": "21",
    "prefectureNumber": 21,
    "prefecture": "岐阜県",
    "city": "岐阜市",
    "town": "長森細畑"
  },
  "5008251": {
    "zipcode": "5008251",
    "prefectureCode": "21",
    "prefectureNumber": 21,
    "prefecture": "岐阜県",
    "city": "岐阜市",
    "town": "加納御車町"
  },
  "5008252": {
    "zipcode": "5008252",
    "prefectureCode": "21",
    "prefectureNumber": 21,
    "prefecture": "岐阜県",
    "city": "岐阜市",
    "town": "加納舟田町"
  },
  "5008253": {
    "zipcode": "5008253",
    "prefectureCode": "21",
    "prefectureNumber": 21,
    "prefecture": "岐阜県",
    "city": "岐阜市",
    "town": "薬師町"
  },
  "5008254": {
    "zipcode": "5008254",
    "prefectureCode": "21",
    "prefectureNumber": 21,
    "prefecture": "岐阜県",
    "city": "岐阜市",
    "town": "光樹町"
  },
  "5008255": {
    "zipcode": "5008255",
    "prefectureCode": "21",
    "prefectureNumber": 21,
    "prefecture": "岐阜県",
    "city": "岐阜市",
    "town": "朝霧町"
  },
  "5008256": {
    "zipcode": "5008256",
    "prefectureCode": "21",
    "prefectureNumber": 21,
    "prefecture": "岐阜県",
    "city": "岐阜市",
    "town": "八坂町"
  },
  "5008257": {
    "zipcode": "5008257",
    "prefectureCode": "21",
    "prefectureNumber": 21,
    "prefecture": "岐阜県",
    "city": "岐阜市",
    "town": "東川手"
  },
  "5008258": {
    "zipcode": "5008258",
    "prefectureCode": "21",
    "prefectureNumber": 21,
    "prefecture": "岐阜県",
    "city": "岐阜市",
    "town": "西川手"
  },
  "5008259": {
    "zipcode": "5008259",
    "prefectureCode": "21",
    "prefectureNumber": 21,
    "prefecture": "岐阜県",
    "city": "岐阜市",
    "town": "水主町"
  },
  "5008261": {
    "zipcode": "5008261",
    "prefectureCode": "21",
    "prefectureNumber": 21,
    "prefecture": "岐阜県",
    "city": "岐阜市",
    "town": "茜部大野"
  },
  "5008262": {
    "zipcode": "5008262",
    "prefectureCode": "21",
    "prefectureNumber": 21,
    "prefecture": "岐阜県",
    "city": "岐阜市",
    "town": "茜部本郷"
  },
  "5008263": {
    "zipcode": "5008263",
    "prefectureCode": "21",
    "prefectureNumber": 21,
    "prefecture": "岐阜県",
    "city": "岐阜市",
    "town": "茜部新所"
  },
  "5008264": {
    "zipcode": "5008264",
    "prefectureCode": "21",
    "prefectureNumber": 21,
    "prefecture": "岐阜県",
    "city": "岐阜市",
    "town": "茜部辰新"
  },
  "5008265": {
    "zipcode": "5008265",
    "prefectureCode": "21",
    "prefectureNumber": 21,
    "prefecture": "岐阜県",
    "city": "岐阜市",
    "town": "茜部神清寺"
  },
  "5008266": {
    "zipcode": "5008266",
    "prefectureCode": "21",
    "prefectureNumber": 21,
    "prefecture": "岐阜県",
    "city": "岐阜市",
    "town": "境川"
  },
  "5008267": {
    "zipcode": "5008267",
    "prefectureCode": "21",
    "prefectureNumber": 21,
    "prefecture": "岐阜県",
    "city": "岐阜市",
    "town": "茜部寺屋敷"
  },
  "5008268": {
    "zipcode": "5008268",
    "prefectureCode": "21",
    "prefectureNumber": 21,
    "prefecture": "岐阜県",
    "city": "岐阜市",
    "town": "茜部菱野"
  },
  "5008269": {
    "zipcode": "5008269",
    "prefectureCode": "21",
    "prefectureNumber": 21,
    "prefecture": "岐阜県",
    "city": "岐阜市",
    "town": "茜部中島"
  },
  "5008271": {
    "zipcode": "5008271",
    "prefectureCode": "21",
    "prefectureNumber": 21,
    "prefecture": "岐阜県",
    "city": "岐阜市",
    "town": "加納堀田町"
  },
  "5008272": {
    "zipcode": "5008272",
    "prefectureCode": "21",
    "prefectureNumber": 21,
    "prefecture": "岐阜県",
    "city": "岐阜市",
    "town": "加納奥平町"
  },
  "5008273": {
    "zipcode": "5008273",
    "prefectureCode": "21",
    "prefectureNumber": 21,
    "prefecture": "岐阜県",
    "city": "岐阜市",
    "town": "加納矢場町"
  },
  "5008274": {
    "zipcode": "5008274",
    "prefectureCode": "21",
    "prefectureNumber": 21,
    "prefecture": "岐阜県",
    "city": "岐阜市",
    "town": "加納鷹匠町"
  },
  "5008275": {
    "zipcode": "5008275",
    "prefectureCode": "21",
    "prefectureNumber": 21,
    "prefecture": "岐阜県",
    "city": "岐阜市",
    "town": "加納花ノ木町"
  },
  "5008276": {
    "zipcode": "5008276",
    "prefectureCode": "21",
    "prefectureNumber": 21,
    "prefecture": "岐阜県",
    "city": "岐阜市",
    "town": "加納南陽町"
  },
  "5008277": {
    "zipcode": "5008277",
    "prefectureCode": "21",
    "prefectureNumber": 21,
    "prefecture": "岐阜県",
    "city": "岐阜市",
    "town": "加納立花町"
  },
  "5008278": {
    "zipcode": "5008278",
    "prefectureCode": "21",
    "prefectureNumber": 21,
    "prefecture": "岐阜県",
    "city": "岐阜市",
    "town": "加納西山町"
  },
  "5008279": {
    "zipcode": "5008279",
    "prefectureCode": "21",
    "prefectureNumber": 21,
    "prefecture": "岐阜県",
    "city": "岐阜市",
    "town": "加納梅田町"
  },
  "5008281": {
    "zipcode": "5008281",
    "prefectureCode": "21",
    "prefectureNumber": 21,
    "prefecture": "岐阜県",
    "city": "岐阜市",
    "town": "東鶉"
  },
  "5008282": {
    "zipcode": "5008282",
    "prefectureCode": "21",
    "prefectureNumber": 21,
    "prefecture": "岐阜県",
    "city": "岐阜市",
    "town": "茜部大川"
  },
  "5008283": {
    "zipcode": "5008283",
    "prefectureCode": "21",
    "prefectureNumber": 21,
    "prefecture": "岐阜県",
    "city": "岐阜市",
    "town": "茜部野瀬"
  },
  "5008284": {
    "zipcode": "5008284",
    "prefectureCode": "21",
    "prefectureNumber": 21,
    "prefecture": "岐阜県",
    "city": "岐阜市",
    "town": "茜町"
  },
  "5008285": {
    "zipcode": "5008285",
    "prefectureCode": "21",
    "prefectureNumber": 21,
    "prefecture": "岐阜県",
    "city": "岐阜市",
    "town": "南鶉"
  },
  "5008286": {
    "zipcode": "5008286",
    "prefectureCode": "21",
    "prefectureNumber": 21,
    "prefecture": "岐阜県",
    "city": "岐阜市",
    "town": "西鶉"
  },
  "5008287": {
    "zipcode": "5008287",
    "prefectureCode": "21",
    "prefectureNumber": 21,
    "prefecture": "岐阜県",
    "city": "岐阜市",
    "town": "北鶉"
  },
  "5008288": {
    "zipcode": "5008288",
    "prefectureCode": "21",
    "prefectureNumber": 21,
    "prefecture": "岐阜県",
    "city": "岐阜市",
    "town": "中鶉"
  },
  "5008289": {
    "zipcode": "5008289",
    "prefectureCode": "21",
    "prefectureNumber": 21,
    "prefecture": "岐阜県",
    "city": "岐阜市",
    "town": "須賀"
  },
  "5008301": {
    "zipcode": "5008301",
    "prefectureCode": "21",
    "prefectureNumber": 21,
    "prefecture": "岐阜県",
    "city": "岐阜市",
    "town": "浪花町"
  },
  "5008302": {
    "zipcode": "5008302",
    "prefectureCode": "21",
    "prefectureNumber": 21,
    "prefecture": "岐阜県",
    "city": "岐阜市",
    "town": "本郷町"
  },
  "5008303": {
    "zipcode": "5008303",
    "prefectureCode": "21",
    "prefectureNumber": 21,
    "prefecture": "岐阜県",
    "city": "岐阜市",
    "town": "春日町"
  },
  "5008304": {
    "zipcode": "5008304",
    "prefectureCode": "21",
    "prefectureNumber": 21,
    "prefecture": "岐阜県",
    "city": "岐阜市",
    "town": "柳川町"
  },
  "5008305": {
    "zipcode": "5008305",
    "prefectureCode": "21",
    "prefectureNumber": 21,
    "prefecture": "岐阜県",
    "city": "岐阜市",
    "town": "沖ノ橋町"
  },
  "5008306": {
    "zipcode": "5008306",
    "prefectureCode": "21",
    "prefectureNumber": 21,
    "prefecture": "岐阜県",
    "city": "岐阜市",
    "town": "鍵屋東町"
  },
  "5008307": {
    "zipcode": "5008307",
    "prefectureCode": "21",
    "prefectureNumber": 21,
    "prefecture": "岐阜県",
    "city": "岐阜市",
    "town": "弁天町"
  },
  "5008308": {
    "zipcode": "5008308",
    "prefectureCode": "21",
    "prefectureNumber": 21,
    "prefecture": "岐阜県",
    "city": "岐阜市",
    "town": "三橋町"
  },
  "5008309": {
    "zipcode": "5008309",
    "prefectureCode": "21",
    "prefectureNumber": 21,
    "prefecture": "岐阜県",
    "city": "岐阜市",
    "town": "都通"
  },
  "5008311": {
    "zipcode": "5008311",
    "prefectureCode": "21",
    "prefectureNumber": 21,
    "prefecture": "岐阜県",
    "city": "岐阜市",
    "town": "長者町"
  },
  "5008312": {
    "zipcode": "5008312",
    "prefectureCode": "21",
    "prefectureNumber": 21,
    "prefecture": "岐阜県",
    "city": "岐阜市",
    "town": "村雨町"
  },
  "5008313": {
    "zipcode": "5008313",
    "prefectureCode": "21",
    "prefectureNumber": 21,
    "prefecture": "岐阜県",
    "city": "岐阜市",
    "town": "鍵屋中町"
  },
  "5008314": {
    "zipcode": "5008314",
    "prefectureCode": "21",
    "prefectureNumber": 21,
    "prefecture": "岐阜県",
    "city": "岐阜市",
    "town": "鍵屋西町"
  },
  "5008315": {
    "zipcode": "5008315",
    "prefectureCode": "21",
    "prefectureNumber": 21,
    "prefecture": "岐阜県",
    "city": "岐阜市",
    "town": "島田東町"
  },
  "5008316": {
    "zipcode": "5008316",
    "prefectureCode": "21",
    "prefectureNumber": 21,
    "prefecture": "岐阜県",
    "city": "岐阜市",
    "town": "島田中町"
  },
  "5008317": {
    "zipcode": "5008317",
    "prefectureCode": "21",
    "prefectureNumber": 21,
    "prefecture": "岐阜県",
    "city": "岐阜市",
    "town": "島田西町"
  },
  "5008318": {
    "zipcode": "5008318",
    "prefectureCode": "21",
    "prefectureNumber": 21,
    "prefecture": "岐阜県",
    "city": "岐阜市",
    "town": "桜通"
  },
  "5008319": {
    "zipcode": "5008319",
    "prefectureCode": "21",
    "prefectureNumber": 21,
    "prefecture": "岐阜県",
    "city": "岐阜市",
    "town": "早田（１９７３〜２００９番地）"
  },
  "5008321": {
    "zipcode": "5008321",
    "prefectureCode": "21",
    "prefectureNumber": 21,
    "prefecture": "岐阜県",
    "city": "岐阜市",
    "town": "菊井町"
  },
  "5008322": {
    "zipcode": "5008322",
    "prefectureCode": "21",
    "prefectureNumber": 21,
    "prefecture": "岐阜県",
    "city": "岐阜市",
    "town": "香取町"
  },
  "5008323": {
    "zipcode": "5008323",
    "prefectureCode": "21",
    "prefectureNumber": 21,
    "prefecture": "岐阜県",
    "city": "岐阜市",
    "town": "鹿島町"
  },
  "5008324": {
    "zipcode": "5008324",
    "prefectureCode": "21",
    "prefectureNumber": 21,
    "prefecture": "岐阜県",
    "city": "岐阜市",
    "town": "早苗町"
  },
  "5008325": {
    "zipcode": "5008325",
    "prefectureCode": "21",
    "prefectureNumber": 21,
    "prefecture": "岐阜県",
    "city": "岐阜市",
    "town": "寿町"
  },
  "5008326": {
    "zipcode": "5008326",
    "prefectureCode": "21",
    "prefectureNumber": 21,
    "prefecture": "岐阜県",
    "city": "岐阜市",
    "town": "吹上町"
  },
  "5008327": {
    "zipcode": "5008327",
    "prefectureCode": "21",
    "prefectureNumber": 21,
    "prefecture": "岐阜県",
    "city": "岐阜市",
    "town": "如月町"
  },
  "5008328": {
    "zipcode": "5008328",
    "prefectureCode": "21",
    "prefectureNumber": 21,
    "prefecture": "岐阜県",
    "city": "岐阜市",
    "town": "五反田町"
  },
  "5008329": {
    "zipcode": "5008329",
    "prefectureCode": "21",
    "prefectureNumber": 21,
    "prefecture": "岐阜県",
    "city": "岐阜市",
    "town": "本荘町"
  },
  "5008331": {
    "zipcode": "5008331",
    "prefectureCode": "21",
    "prefectureNumber": 21,
    "prefecture": "岐阜県",
    "city": "岐阜市",
    "town": "錦町"
  },
  "5008332": {
    "zipcode": "5008332",
    "prefectureCode": "21",
    "prefectureNumber": 21,
    "prefecture": "岐阜県",
    "city": "岐阜市",
    "town": "羽衣町"
  },
  "5008333": {
    "zipcode": "5008333",
    "prefectureCode": "21",
    "prefectureNumber": 21,
    "prefecture": "岐阜県",
    "city": "岐阜市",
    "town": "此花町"
  },
  "5008334": {
    "zipcode": "5008334",
    "prefectureCode": "21",
    "prefectureNumber": 21,
    "prefecture": "岐阜県",
    "city": "岐阜市",
    "town": "葭町"
  },
  "5008335": {
    "zipcode": "5008335",
    "prefectureCode": "21",
    "prefectureNumber": 21,
    "prefecture": "岐阜県",
    "city": "岐阜市",
    "town": "三歳町"
  },
  "5008336": {
    "zipcode": "5008336",
    "prefectureCode": "21",
    "prefectureNumber": 21,
    "prefecture": "岐阜県",
    "city": "岐阜市",
    "town": "稲荷町"
  },
  "5008337": {
    "zipcode": "5008337",
    "prefectureCode": "21",
    "prefectureNumber": 21,
    "prefecture": "岐阜県",
    "city": "岐阜市",
    "town": "雨踊町"
  },
  "5008339": {
    "zipcode": "5008339",
    "prefectureCode": "21",
    "prefectureNumber": 21,
    "prefecture": "岐阜県",
    "city": "岐阜市",
    "town": "千鳥町"
  },
  "5008341": {
    "zipcode": "5008341",
    "prefectureCode": "21",
    "prefectureNumber": 21,
    "prefecture": "岐阜県",
    "city": "岐阜市",
    "town": "南本荘四条通"
  },
  "5008342": {
    "zipcode": "5008342",
    "prefectureCode": "21",
    "prefectureNumber": 21,
    "prefecture": "岐阜県",
    "city": "岐阜市",
    "town": "南本荘三条通"
  },
  "5008343": {
    "zipcode": "5008343",
    "prefectureCode": "21",
    "prefectureNumber": 21,
    "prefecture": "岐阜県",
    "city": "岐阜市",
    "town": "南本荘二条通"
  },
  "5008344": {
    "zipcode": "5008344",
    "prefectureCode": "21",
    "prefectureNumber": 21,
    "prefecture": "岐阜県",
    "city": "岐阜市",
    "town": "南本荘一条通"
  },
  "5008345": {
    "zipcode": "5008345",
    "prefectureCode": "21",
    "prefectureNumber": 21,
    "prefecture": "岐阜県",
    "city": "岐阜市",
    "town": "菊地町"
  },
  "5008346": {
    "zipcode": "5008346",
    "prefectureCode": "21",
    "prefectureNumber": 21,
    "prefecture": "岐阜県",
    "city": "岐阜市",
    "town": "清"
  },
  "5008347": {
    "zipcode": "5008347",
    "prefectureCode": "21",
    "prefectureNumber": 21,
    "prefecture": "岐阜県",
    "city": "岐阜市",
    "town": "松原町"
  },
  "5008348": {
    "zipcode": "5008348",
    "prefectureCode": "21",
    "prefectureNumber": 21,
    "prefecture": "岐阜県",
    "city": "岐阜市",
    "town": "三ツ又町"
  },
  "5008349": {
    "zipcode": "5008349",
    "prefectureCode": "21",
    "prefectureNumber": 21,
    "prefecture": "岐阜県",
    "city": "岐阜市",
    "town": "久保見町"
  },
  "5008351": {
    "zipcode": "5008351",
    "prefectureCode": "21",
    "prefectureNumber": 21,
    "prefecture": "岐阜県",
    "city": "岐阜市",
    "town": "清本町"
  },
  "5008352": {
    "zipcode": "5008352",
    "prefectureCode": "21",
    "prefectureNumber": 21,
    "prefecture": "岐阜県",
    "city": "岐阜市",
    "town": "六条"
  },
  "5008353": {
    "zipcode": "5008353",
    "prefectureCode": "21",
    "prefectureNumber": 21,
    "prefecture": "岐阜県",
    "city": "岐阜市",
    "town": "六条東"
  },
  "5008354": {
    "zipcode": "5008354",
    "prefectureCode": "21",
    "prefectureNumber": 21,
    "prefecture": "岐阜県",
    "city": "岐阜市",
    "town": "六条福寿町"
  },
  "5008355": {
    "zipcode": "5008355",
    "prefectureCode": "21",
    "prefectureNumber": 21,
    "prefecture": "岐阜県",
    "city": "岐阜市",
    "town": "六条片田"
  },
  "5008356": {
    "zipcode": "5008356",
    "prefectureCode": "21",
    "prefectureNumber": 21,
    "prefecture": "岐阜県",
    "city": "岐阜市",
    "town": "六条江東"
  },
  "5008357": {
    "zipcode": "5008357",
    "prefectureCode": "21",
    "prefectureNumber": 21,
    "prefecture": "岐阜県",
    "city": "岐阜市",
    "town": "六条大溝"
  },
  "5008358": {
    "zipcode": "5008358",
    "prefectureCode": "21",
    "prefectureNumber": 21,
    "prefecture": "岐阜県",
    "city": "岐阜市",
    "town": "六条南"
  },
  "5008359": {
    "zipcode": "5008359",
    "prefectureCode": "21",
    "prefectureNumber": 21,
    "prefecture": "岐阜県",
    "city": "岐阜市",
    "town": "六条北"
  },
  "5008361": {
    "zipcode": "5008361",
    "prefectureCode": "21",
    "prefectureNumber": 21,
    "prefecture": "岐阜県",
    "city": "岐阜市",
    "town": "本荘西"
  },
  "5008362": {
    "zipcode": "5008362",
    "prefectureCode": "21",
    "prefectureNumber": 21,
    "prefecture": "岐阜県",
    "city": "岐阜市",
    "town": "西荘"
  },
  "5008363": {
    "zipcode": "5008363",
    "prefectureCode": "21",
    "prefectureNumber": 21,
    "prefecture": "岐阜県",
    "city": "岐阜市",
    "town": "爪"
  },
  "5008364": {
    "zipcode": "5008364",
    "prefectureCode": "21",
    "prefectureNumber": 21,
    "prefecture": "岐阜県",
    "city": "岐阜市",
    "town": "本荘中ノ町"
  },
  "5008365": {
    "zipcode": "5008365",
    "prefectureCode": "21",
    "prefectureNumber": 21,
    "prefecture": "岐阜県",
    "city": "岐阜市",
    "town": "柳森町"
  },
  "5008366": {
    "zipcode": "5008366",
    "prefectureCode": "21",
    "prefectureNumber": 21,
    "prefecture": "岐阜県",
    "city": "岐阜市",
    "town": "宇佐東町"
  },
  "5008367": {
    "zipcode": "5008367",
    "prefectureCode": "21",
    "prefectureNumber": 21,
    "prefecture": "岐阜県",
    "city": "岐阜市",
    "town": "宇佐南"
  },
  "5008368": {
    "zipcode": "5008368",
    "prefectureCode": "21",
    "prefectureNumber": 21,
    "prefecture": "岐阜県",
    "city": "岐阜市",
    "town": "宇佐"
  },
  "5008369": {
    "zipcode": "5008369",
    "prefectureCode": "21",
    "prefectureNumber": 21,
    "prefecture": "岐阜県",
    "city": "岐阜市",
    "town": "敷島町"
  },
  "5008371": {
    "zipcode": "5008371",
    "prefectureCode": "21",
    "prefectureNumber": 21,
    "prefecture": "岐阜県",
    "city": "岐阜市",
    "town": "梅園町"
  },
  "5008372": {
    "zipcode": "5008372",
    "prefectureCode": "21",
    "prefectureNumber": 21,
    "prefecture": "岐阜県",
    "city": "岐阜市",
    "town": "熊野町"
  },
  "5008373": {
    "zipcode": "5008373",
    "prefectureCode": "21",
    "prefectureNumber": 21,
    "prefecture": "岐阜県",
    "city": "岐阜市",
    "town": "大池町"
  },
  "5008374": {
    "zipcode": "5008374",
    "prefectureCode": "21",
    "prefectureNumber": 21,
    "prefecture": "岐阜県",
    "city": "岐阜市",
    "town": "豊岡町"
  },
  "5008375": {
    "zipcode": "5008375",
    "prefectureCode": "21",
    "prefectureNumber": 21,
    "prefecture": "岐阜県",
    "city": "岐阜市",
    "town": "新興町"
  },
  "5008376": {
    "zipcode": "5008376",
    "prefectureCode": "21",
    "prefectureNumber": 21,
    "prefecture": "岐阜県",
    "city": "岐阜市",
    "town": "富沢町"
  },
  "5008377": {
    "zipcode": "5008377",
    "prefectureCode": "21",
    "prefectureNumber": 21,
    "prefecture": "岐阜県",
    "city": "岐阜市",
    "town": "瑞穂町"
  },
  "5008378": {
    "zipcode": "5008378",
    "prefectureCode": "21",
    "prefectureNumber": 21,
    "prefecture": "岐阜県",
    "city": "岐阜市",
    "town": "雲雀ケ丘"
  },
  "5008379": {
    "zipcode": "5008379",
    "prefectureCode": "21",
    "prefectureNumber": 21,
    "prefecture": "岐阜県",
    "city": "岐阜市",
    "town": "権現町"
  },
  "5008381": {
    "zipcode": "5008381",
    "prefectureCode": "21",
    "prefectureNumber": 21,
    "prefecture": "岐阜県",
    "city": "岐阜市",
    "town": "市橋"
  },
  "5008382": {
    "zipcode": "5008382",
    "prefectureCode": "21",
    "prefectureNumber": 21,
    "prefecture": "岐阜県",
    "city": "岐阜市",
    "town": "薮田東"
  },
  "5008383": {
    "zipcode": "5008383",
    "prefectureCode": "21",
    "prefectureNumber": 21,
    "prefecture": "岐阜県",
    "city": "岐阜市",
    "town": "江添"
  },
  "5008384": {
    "zipcode": "5008384",
    "prefectureCode": "21",
    "prefectureNumber": 21,
    "prefecture": "岐阜県",
    "city": "岐阜市",
    "town": "薮田南"
  },
  "5008385": {
    "zipcode": "5008385",
    "prefectureCode": "21",
    "prefectureNumber": 21,
    "prefecture": "岐阜県",
    "city": "岐阜市",
    "town": "下奈良"
  },
  "5008386": {
    "zipcode": "5008386",
    "prefectureCode": "21",
    "prefectureNumber": 21,
    "prefecture": "岐阜県",
    "city": "岐阜市",
    "town": "薮田西"
  },
  "5008387": {
    "zipcode": "5008387",
    "prefectureCode": "21",
    "prefectureNumber": 21,
    "prefecture": "岐阜県",
    "city": "岐阜市",
    "town": "薮田中"
  },
  "5008388": {
    "zipcode": "5008388",
    "prefectureCode": "21",
    "prefectureNumber": 21,
    "prefecture": "岐阜県",
    "city": "岐阜市",
    "town": "今嶺"
  },
  "5008389": {
    "zipcode": "5008389",
    "prefectureCode": "21",
    "prefectureNumber": 21,
    "prefecture": "岐阜県",
    "city": "岐阜市",
    "town": "本荘"
  },
  "5008401": {
    "zipcode": "5008401",
    "prefectureCode": "21",
    "prefectureNumber": 21,
    "prefecture": "岐阜県",
    "city": "岐阜市",
    "town": "安良田町"
  },
  "5008402": {
    "zipcode": "5008402",
    "prefectureCode": "21",
    "prefectureNumber": 21,
    "prefecture": "岐阜県",
    "city": "岐阜市",
    "town": "竜田町"
  },
  "5008403": {
    "zipcode": "5008403",
    "prefectureCode": "21",
    "prefectureNumber": 21,
    "prefecture": "岐阜県",
    "city": "岐阜市",
    "town": "一松道"
  },
  "5008404": {
    "zipcode": "5008404",
    "prefectureCode": "21",
    "prefectureNumber": 21,
    "prefecture": "岐阜県",
    "city": "岐阜市",
    "town": "華陽"
  },
  "5008405": {
    "zipcode": "5008405",
    "prefectureCode": "21",
    "prefectureNumber": 21,
    "prefecture": "岐阜県",
    "city": "岐阜市",
    "town": "生田町"
  },
  "5008406": {
    "zipcode": "5008406",
    "prefectureCode": "21",
    "prefectureNumber": 21,
    "prefecture": "岐阜県",
    "city": "岐阜市",
    "town": "平安町"
  },
  "5008407": {
    "zipcode": "5008407",
    "prefectureCode": "21",
    "prefectureNumber": 21,
    "prefecture": "岐阜県",
    "city": "岐阜市",
    "town": "高砂町"
  },
  "5008408": {
    "zipcode": "5008408",
    "prefectureCode": "21",
    "prefectureNumber": 21,
    "prefecture": "岐阜県",
    "city": "岐阜市",
    "town": "住ノ江町"
  },
  "5008409": {
    "zipcode": "5008409",
    "prefectureCode": "21",
    "prefectureNumber": 21,
    "prefecture": "岐阜県",
    "city": "岐阜市",
    "town": "幸ノ町"
  },
  "5008411": {
    "zipcode": "5008411",
    "prefectureCode": "21",
    "prefectureNumber": 21,
    "prefecture": "岐阜県",
    "city": "岐阜市",
    "town": "安宅町"
  },
  "5008412": {
    "zipcode": "5008412",
    "prefectureCode": "21",
    "prefectureNumber": 21,
    "prefecture": "岐阜県",
    "city": "岐阜市",
    "town": "松鴻町"
  },
  "5008413": {
    "zipcode": "5008413",
    "prefectureCode": "21",
    "prefectureNumber": 21,
    "prefecture": "岐阜県",
    "city": "岐阜市",
    "town": "加納東陽町"
  },
  "5008414": {
    "zipcode": "5008414",
    "prefectureCode": "21",
    "prefectureNumber": 21,
    "prefecture": "岐阜県",
    "city": "岐阜市",
    "town": "加納東広江町"
  },
  "5008415": {
    "zipcode": "5008415",
    "prefectureCode": "21",
    "prefectureNumber": 21,
    "prefecture": "岐阜県",
    "city": "岐阜市",
    "town": "加納中広江町"
  },
  "5008416": {
    "zipcode": "5008416",
    "prefectureCode": "21",
    "prefectureNumber": 21,
    "prefecture": "岐阜県",
    "city": "岐阜市",
    "town": "加納徳川町"
  },
  "5008417": {
    "zipcode": "5008417",
    "prefectureCode": "21",
    "prefectureNumber": 21,
    "prefecture": "岐阜県",
    "city": "岐阜市",
    "town": "加納清田町"
  },
  "5008418": {
    "zipcode": "5008418",
    "prefectureCode": "21",
    "prefectureNumber": 21,
    "prefecture": "岐阜県",
    "city": "岐阜市",
    "town": "加納西広江町"
  },
  "5008419": {
    "zipcode": "5008419",
    "prefectureCode": "21",
    "prefectureNumber": 21,
    "prefecture": "岐阜県",
    "city": "岐阜市",
    "town": "加納北広江町"
  },
  "5008421": {
    "zipcode": "5008421",
    "prefectureCode": "21",
    "prefectureNumber": 21,
    "prefecture": "岐阜県",
    "city": "岐阜市",
    "town": "加納新柳町"
  },
  "5008422": {
    "zipcode": "5008422",
    "prefectureCode": "21",
    "prefectureNumber": 21,
    "prefecture": "岐阜県",
    "city": "岐阜市",
    "town": "加納安良町"
  },
  "5008423": {
    "zipcode": "5008423",
    "prefectureCode": "21",
    "prefectureNumber": 21,
    "prefecture": "岐阜県",
    "city": "岐阜市",
    "town": "渋谷町"
  },
  "5008424": {
    "zipcode": "5008424",
    "prefectureCode": "21",
    "prefectureNumber": 21,
    "prefecture": "岐阜県",
    "city": "岐阜市",
    "town": "加納柳町"
  },
  "5008425": {
    "zipcode": "5008425",
    "prefectureCode": "21",
    "prefectureNumber": 21,
    "prefecture": "岐阜県",
    "city": "岐阜市",
    "town": "加納新町"
  },
  "5008426": {
    "zipcode": "5008426",
    "prefectureCode": "21",
    "prefectureNumber": 21,
    "prefecture": "岐阜県",
    "city": "岐阜市",
    "town": "加納南広江町"
  },
  "5008427": {
    "zipcode": "5008427",
    "prefectureCode": "21",
    "prefectureNumber": 21,
    "prefecture": "岐阜県",
    "city": "岐阜市",
    "town": "加納大石町"
  },
  "5008428": {
    "zipcode": "5008428",
    "prefectureCode": "21",
    "prefectureNumber": 21,
    "prefecture": "岐阜県",
    "city": "岐阜市",
    "town": "加納桜道"
  },
  "5008429": {
    "zipcode": "5008429",
    "prefectureCode": "21",
    "prefectureNumber": 21,
    "prefecture": "岐阜県",
    "city": "岐阜市",
    "town": "加納清水町"
  },
  "5008431": {
    "zipcode": "5008431",
    "prefectureCode": "21",
    "prefectureNumber": 21,
    "prefecture": "岐阜県",
    "city": "岐阜市",
    "town": "加納八幡町"
  },
  "5008432": {
    "zipcode": "5008432",
    "prefectureCode": "21",
    "prefectureNumber": 21,
    "prefecture": "岐阜県",
    "city": "岐阜市",
    "town": "畷町"
  },
  "5008433": {
    "zipcode": "5008433",
    "prefectureCode": "21",
    "prefectureNumber": 21,
    "prefecture": "岐阜県",
    "city": "岐阜市",
    "town": "若杉町"
  },
  "5008434": {
    "zipcode": "5008434",
    "prefectureCode": "21",
    "prefectureNumber": 21,
    "prefecture": "岐阜県",
    "city": "岐阜市",
    "town": "向陽町"
  },
  "5008435": {
    "zipcode": "5008435",
    "prefectureCode": "21",
    "prefectureNumber": 21,
    "prefecture": "岐阜県",
    "city": "岐阜市",
    "town": "宮北町"
  },
  "5008436": {
    "zipcode": "5008436",
    "prefectureCode": "21",
    "prefectureNumber": 21,
    "prefecture": "岐阜県",
    "city": "岐阜市",
    "town": "東明見町"
  },
  "5008437": {
    "zipcode": "5008437",
    "prefectureCode": "21",
    "prefectureNumber": 21,
    "prefecture": "岐阜県",
    "city": "岐阜市",
    "town": "石切町"
  },
  "5008438": {
    "zipcode": "5008438",
    "prefectureCode": "21",
    "prefectureNumber": 21,
    "prefecture": "岐阜県",
    "city": "岐阜市",
    "town": "島原町"
  },
  "5008439": {
    "zipcode": "5008439",
    "prefectureCode": "21",
    "prefectureNumber": 21,
    "prefecture": "岐阜県",
    "city": "岐阜市",
    "town": "村里町"
  },
  "5008441": {
    "zipcode": "5008441",
    "prefectureCode": "21",
    "prefectureNumber": 21,
    "prefecture": "岐阜県",
    "city": "岐阜市",
    "town": "城東通"
  },
  "5008442": {
    "zipcode": "5008442",
    "prefectureCode": "21",
    "prefectureNumber": 21,
    "prefecture": "岐阜県",
    "city": "岐阜市",
    "town": "正法寺町"
  },
  "5008443": {
    "zipcode": "5008443",
    "prefectureCode": "21",
    "prefectureNumber": 21,
    "prefecture": "岐阜県",
    "city": "岐阜市",
    "town": "神楽町"
  },
  "5008444": {
    "zipcode": "5008444",
    "prefectureCode": "21",
    "prefectureNumber": 21,
    "prefecture": "岐阜県",
    "city": "岐阜市",
    "town": "西明見町"
  },
  "5008445": {
    "zipcode": "5008445",
    "prefectureCode": "21",
    "prefectureNumber": 21,
    "prefecture": "岐阜県",
    "city": "岐阜市",
    "town": "八島町"
  },
  "5008446": {
    "zipcode": "5008446",
    "prefectureCode": "21",
    "prefectureNumber": 21,
    "prefecture": "岐阜県",
    "city": "岐阜市",
    "town": "矢倉町"
  },
  "5008447": {
    "zipcode": "5008447",
    "prefectureCode": "21",
    "prefectureNumber": 21,
    "prefecture": "岐阜県",
    "city": "岐阜市",
    "town": "大倉町"
  },
  "5008448": {
    "zipcode": "5008448",
    "prefectureCode": "21",
    "prefectureNumber": 21,
    "prefecture": "岐阜県",
    "city": "岐阜市",
    "town": "中洲町"
  },
  "5008449": {
    "zipcode": "5008449",
    "prefectureCode": "21",
    "prefectureNumber": 21,
    "prefecture": "岐阜県",
    "city": "岐阜市",
    "town": "荒川町"
  },
  "5008451": {
    "zipcode": "5008451",
    "prefectureCode": "21",
    "prefectureNumber": 21,
    "prefecture": "岐阜県",
    "city": "岐阜市",
    "town": "加納上本町"
  },
  "5008452": {
    "zipcode": "5008452",
    "prefectureCode": "21",
    "prefectureNumber": 21,
    "prefecture": "岐阜県",
    "city": "岐阜市",
    "town": "加納朝日町"
  },
  "5008453": {
    "zipcode": "5008453",
    "prefectureCode": "21",
    "prefectureNumber": 21,
    "prefecture": "岐阜県",
    "city": "岐阜市",
    "town": "加納鉄砲町"
  },
  "5008454": {
    "zipcode": "5008454",
    "prefectureCode": "21",
    "prefectureNumber": 21,
    "prefecture": "岐阜県",
    "city": "岐阜市",
    "town": "加納永井町"
  },
  "5008455": {
    "zipcode": "5008455",
    "prefectureCode": "21",
    "prefectureNumber": 21,
    "prefecture": "岐阜県",
    "city": "岐阜市",
    "town": "加納栄町通"
  },
  "5008456": {
    "zipcode": "5008456",
    "prefectureCode": "21",
    "prefectureNumber": 21,
    "prefecture": "岐阜県",
    "city": "岐阜市",
    "town": "加納大黒町"
  },
  "5008457": {
    "zipcode": "5008457",
    "prefectureCode": "21",
    "prefectureNumber": 21,
    "prefecture": "岐阜県",
    "city": "岐阜市",
    "town": "加納青藤町"
  },
  "5008458": {
    "zipcode": "5008458",
    "prefectureCode": "21",
    "prefectureNumber": 21,
    "prefecture": "岐阜県",
    "city": "岐阜市",
    "town": "加納村松町"
  },
  "5008459": {
    "zipcode": "5008459",
    "prefectureCode": "21",
    "prefectureNumber": 21,
    "prefecture": "岐阜県",
    "city": "岐阜市",
    "town": "加納高柳町"
  },
  "5008461": {
    "zipcode": "5008461",
    "prefectureCode": "21",
    "prefectureNumber": 21,
    "prefecture": "岐阜県",
    "city": "岐阜市",
    "town": "加納黒木町"
  },
  "5008462": {
    "zipcode": "5008462",
    "prefectureCode": "21",
    "prefectureNumber": 21,
    "prefecture": "岐阜県",
    "city": "岐阜市",
    "town": "加納神明町"
  },
  "5008463": {
    "zipcode": "5008463",
    "prefectureCode": "21",
    "prefectureNumber": 21,
    "prefecture": "岐阜県",
    "city": "岐阜市",
    "town": "加納新本町"
  },
  "5008464": {
    "zipcode": "5008464",
    "prefectureCode": "21",
    "prefectureNumber": 21,
    "prefecture": "岐阜県",
    "city": "岐阜市",
    "town": "加納前田町"
  },
  "5008465": {
    "zipcode": "5008465",
    "prefectureCode": "21",
    "prefectureNumber": 21,
    "prefecture": "岐阜県",
    "city": "岐阜市",
    "town": "加納寿町"
  },
  "5008466": {
    "zipcode": "5008466",
    "prefectureCode": "21",
    "prefectureNumber": 21,
    "prefecture": "岐阜県",
    "city": "岐阜市",
    "town": "加納本石町"
  },
  "5008467": {
    "zipcode": "5008467",
    "prefectureCode": "21",
    "prefectureNumber": 21,
    "prefecture": "岐阜県",
    "city": "岐阜市",
    "town": "加納三笠町"
  },
  "5008468": {
    "zipcode": "5008468",
    "prefectureCode": "21",
    "prefectureNumber": 21,
    "prefecture": "岐阜県",
    "city": "岐阜市",
    "town": "加納桜田町"
  },
  "5008469": {
    "zipcode": "5008469",
    "prefectureCode": "21",
    "prefectureNumber": 21,
    "prefecture": "岐阜県",
    "city": "岐阜市",
    "town": "加納竜興町"
  },
  "5008471": {
    "zipcode": "5008471",
    "prefectureCode": "21",
    "prefectureNumber": 21,
    "prefecture": "岐阜県",
    "city": "岐阜市",
    "town": "加納富士町"
  },
  "5008472": {
    "zipcode": "5008472",
    "prefectureCode": "21",
    "prefectureNumber": 21,
    "prefecture": "岐阜県",
    "city": "岐阜市",
    "town": "加納清野町"
  },
  "5008473": {
    "zipcode": "5008473",
    "prefectureCode": "21",
    "prefectureNumber": 21,
    "prefecture": "岐阜県",
    "city": "岐阜市",
    "town": "加納天神町"
  },
  "5008474": {
    "zipcode": "5008474",
    "prefectureCode": "21",
    "prefectureNumber": 21,
    "prefecture": "岐阜県",
    "city": "岐阜市",
    "town": "加納本町"
  },
  "5008475": {
    "zipcode": "5008475",
    "prefectureCode": "21",
    "prefectureNumber": 21,
    "prefecture": "岐阜県",
    "city": "岐阜市",
    "town": "加納坂井町"
  },
  "5008476": {
    "zipcode": "5008476",
    "prefectureCode": "21",
    "prefectureNumber": 21,
    "prefecture": "岐阜県",
    "city": "岐阜市",
    "town": "加納愛宕町"
  },
  "5008477": {
    "zipcode": "5008477",
    "prefectureCode": "21",
    "prefectureNumber": 21,
    "prefecture": "岐阜県",
    "city": "岐阜市",
    "town": "加納水野町"
  },
  "5008478": {
    "zipcode": "5008478",
    "prefectureCode": "21",
    "prefectureNumber": 21,
    "prefecture": "岐阜県",
    "city": "岐阜市",
    "town": "加納伏見町"
  },
  "5008479": {
    "zipcode": "5008479",
    "prefectureCode": "21",
    "prefectureNumber": 21,
    "prefecture": "岐阜県",
    "city": "岐阜市",
    "town": "加納菱野町"
  },
  "5008481": {
    "zipcode": "5008481",
    "prefectureCode": "21",
    "prefectureNumber": 21,
    "prefecture": "岐阜県",
    "city": "岐阜市",
    "town": "加納沓井町"
  },
  "5008482": {
    "zipcode": "5008482",
    "prefectureCode": "21",
    "prefectureNumber": 21,
    "prefecture": "岐阜県",
    "city": "岐阜市",
    "town": "加納大手町"
  },
  "5008483": {
    "zipcode": "5008483",
    "prefectureCode": "21",
    "prefectureNumber": 21,
    "prefecture": "岐阜県",
    "city": "岐阜市",
    "town": "加納東丸町"
  },
  "5008484": {
    "zipcode": "5008484",
    "prefectureCode": "21",
    "prefectureNumber": 21,
    "prefecture": "岐阜県",
    "city": "岐阜市",
    "town": "加納二之丸"
  },
  "5008485": {
    "zipcode": "5008485",
    "prefectureCode": "21",
    "prefectureNumber": 21,
    "prefecture": "岐阜県",
    "city": "岐阜市",
    "town": "加納丸之内"
  },
  "5008486": {
    "zipcode": "5008486",
    "prefectureCode": "21",
    "prefectureNumber": 21,
    "prefecture": "岐阜県",
    "city": "岐阜市",
    "town": "加納城南通"
  },
  "5008487": {
    "zipcode": "5008487",
    "prefectureCode": "21",
    "prefectureNumber": 21,
    "prefecture": "岐阜県",
    "city": "岐阜市",
    "town": "加納長刀堀"
  },
  "5008488": {
    "zipcode": "5008488",
    "prefectureCode": "21",
    "prefectureNumber": 21,
    "prefecture": "岐阜県",
    "city": "岐阜市",
    "town": "加納西丸町"
  },
  "5008489": {
    "zipcode": "5008489",
    "prefectureCode": "21",
    "prefectureNumber": 21,
    "prefecture": "岐阜県",
    "city": "岐阜市",
    "town": "稲荷山"
  },
  "5008801": {
    "zipcode": "5008801",
    "prefectureCode": "21",
    "prefectureNumber": 21,
    "prefecture": "岐阜県",
    "city": "岐阜市",
    "town": "忠節町"
  },
  "5008802": {
    "zipcode": "5008802",
    "prefectureCode": "21",
    "prefectureNumber": 21,
    "prefecture": "岐阜県",
    "city": "岐阜市",
    "town": "不動町"
  },
  "5008803": {
    "zipcode": "5008803",
    "prefectureCode": "21",
    "prefectureNumber": 21,
    "prefecture": "岐阜県",
    "city": "岐阜市",
    "town": "佐久間町"
  },
  "5008804": {
    "zipcode": "5008804",
    "prefectureCode": "21",
    "prefectureNumber": 21,
    "prefecture": "岐阜県",
    "city": "岐阜市",
    "town": "京町"
  },
  "5008805": {
    "zipcode": "5008805",
    "prefectureCode": "21",
    "prefectureNumber": 21,
    "prefecture": "岐阜県",
    "city": "岐阜市",
    "town": "忠節三丁目南町"
  },
  "5008806": {
    "zipcode": "5008806",
    "prefectureCode": "21",
    "prefectureNumber": 21,
    "prefecture": "岐阜県",
    "city": "岐阜市",
    "town": "天神町"
  },
  "5008807": {
    "zipcode": "5008807",
    "prefectureCode": "21",
    "prefectureNumber": 21,
    "prefecture": "岐阜県",
    "city": "岐阜市",
    "town": "北野町"
  },
  "5008808": {
    "zipcode": "5008808",
    "prefectureCode": "21",
    "prefectureNumber": 21,
    "prefecture": "岐阜県",
    "city": "岐阜市",
    "town": "永田町"
  },
  "5008809": {
    "zipcode": "5008809",
    "prefectureCode": "21",
    "prefectureNumber": 21,
    "prefecture": "岐阜県",
    "city": "岐阜市",
    "town": "平河町"
  },
  "5008811": {
    "zipcode": "5008811",
    "prefectureCode": "21",
    "prefectureNumber": 21,
    "prefecture": "岐阜県",
    "city": "岐阜市",
    "town": "端詰町"
  },
  "5008812": {
    "zipcode": "5008812",
    "prefectureCode": "21",
    "prefectureNumber": 21,
    "prefecture": "岐阜県",
    "city": "岐阜市",
    "town": "美江寺町"
  },
  "5008813": {
    "zipcode": "5008813",
    "prefectureCode": "21",
    "prefectureNumber": 21,
    "prefecture": "岐阜県",
    "city": "岐阜市",
    "town": "明徳町"
  },
  "5008814": {
    "zipcode": "5008814",
    "prefectureCode": "21",
    "prefectureNumber": 21,
    "prefecture": "岐阜県",
    "city": "岐阜市",
    "town": "今川町"
  },
  "5008815": {
    "zipcode": "5008815",
    "prefectureCode": "21",
    "prefectureNumber": 21,
    "prefecture": "岐阜県",
    "city": "岐阜市",
    "town": "梅河町"
  },
  "5008816": {
    "zipcode": "5008816",
    "prefectureCode": "21",
    "prefectureNumber": 21,
    "prefecture": "岐阜県",
    "city": "岐阜市",
    "town": "菅原町"
  },
  "5008817": {
    "zipcode": "5008817",
    "prefectureCode": "21",
    "prefectureNumber": 21,
    "prefecture": "岐阜県",
    "city": "岐阜市",
    "town": "八ツ梅町"
  },
  "5008818": {
    "zipcode": "5008818",
    "prefectureCode": "21",
    "prefectureNumber": 21,
    "prefecture": "岐阜県",
    "city": "岐阜市",
    "town": "梅ケ枝町"
  },
  "5008819": {
    "zipcode": "5008819",
    "prefectureCode": "21",
    "prefectureNumber": 21,
    "prefecture": "岐阜県",
    "city": "岐阜市",
    "town": "千石町"
  },
  "5008821": {
    "zipcode": "5008821",
    "prefectureCode": "21",
    "prefectureNumber": 21,
    "prefecture": "岐阜県",
    "city": "岐阜市",
    "town": "鷹見町"
  },
  "5008822": {
    "zipcode": "5008822",
    "prefectureCode": "21",
    "prefectureNumber": 21,
    "prefecture": "岐阜県",
    "city": "岐阜市",
    "town": "今沢町"
  },
  "5008823": {
    "zipcode": "5008823",
    "prefectureCode": "21",
    "prefectureNumber": 21,
    "prefecture": "岐阜県",
    "city": "岐阜市",
    "town": "江川町"
  },
  "5008824": {
    "zipcode": "5008824",
    "prefectureCode": "21",
    "prefectureNumber": 21,
    "prefecture": "岐阜県",
    "city": "岐阜市",
    "town": "北八ツ寺町"
  },
  "5008825": {
    "zipcode": "5008825",
    "prefectureCode": "21",
    "prefectureNumber": 21,
    "prefecture": "岐阜県",
    "city": "岐阜市",
    "town": "八ツ寺町"
  },
  "5008826": {
    "zipcode": "5008826",
    "prefectureCode": "21",
    "prefectureNumber": 21,
    "prefecture": "岐阜県",
    "city": "岐阜市",
    "town": "住吉町"
  },
  "5008827": {
    "zipcode": "5008827",
    "prefectureCode": "21",
    "prefectureNumber": 21,
    "prefecture": "岐阜県",
    "city": "岐阜市",
    "town": "弥八町"
  },
  "5008828": {
    "zipcode": "5008828",
    "prefectureCode": "21",
    "prefectureNumber": 21,
    "prefecture": "岐阜県",
    "city": "岐阜市",
    "town": "若宮町"
  },
  "5008829": {
    "zipcode": "5008829",
    "prefectureCode": "21",
    "prefectureNumber": 21,
    "prefecture": "岐阜県",
    "city": "岐阜市",
    "town": "杉山町"
  },
  "5008831": {
    "zipcode": "5008831",
    "prefectureCode": "21",
    "prefectureNumber": 21,
    "prefecture": "岐阜県",
    "city": "岐阜市",
    "town": "弥生町"
  },
  "5008832": {
    "zipcode": "5008832",
    "prefectureCode": "21",
    "prefectureNumber": 21,
    "prefecture": "岐阜県",
    "city": "岐阜市",
    "town": "小柳町"
  },
  "5008833": {
    "zipcode": "5008833",
    "prefectureCode": "21",
    "prefectureNumber": 21,
    "prefecture": "岐阜県",
    "city": "岐阜市",
    "town": "神田町"
  },
  "5008834": {
    "zipcode": "5008834",
    "prefectureCode": "21",
    "prefectureNumber": 21,
    "prefecture": "岐阜県",
    "city": "岐阜市",
    "town": "羽根町"
  },
  "5008835": {
    "zipcode": "5008835",
    "prefectureCode": "21",
    "prefectureNumber": 21,
    "prefecture": "岐阜県",
    "city": "岐阜市",
    "town": "玉宮町"
  },
  "5008836": {
    "zipcode": "5008836",
    "prefectureCode": "21",
    "prefectureNumber": 21,
    "prefecture": "岐阜県",
    "city": "岐阜市",
    "town": "西玉宮町"
  },
  "5008837": {
    "zipcode": "5008837",
    "prefectureCode": "21",
    "prefectureNumber": 21,
    "prefecture": "岐阜県",
    "city": "岐阜市",
    "town": "玉森町"
  },
  "5008838": {
    "zipcode": "5008838",
    "prefectureCode": "21",
    "prefectureNumber": 21,
    "prefecture": "岐阜県",
    "city": "岐阜市",
    "town": "八幡町"
  },
  "5008839": {
    "zipcode": "5008839",
    "prefectureCode": "21",
    "prefectureNumber": 21,
    "prefecture": "岐阜県",
    "city": "岐阜市",
    "town": "蕪城町"
  },
  "5008841": {
    "zipcode": "5008841",
    "prefectureCode": "21",
    "prefectureNumber": 21,
    "prefecture": "岐阜県",
    "city": "岐阜市",
    "town": "高野町"
  },
  "5008842": {
    "zipcode": "5008842",
    "prefectureCode": "21",
    "prefectureNumber": 21,
    "prefecture": "岐阜県",
    "city": "岐阜市",
    "town": "金町"
  },
  "5008843": {
    "zipcode": "5008843",
    "prefectureCode": "21",
    "prefectureNumber": 21,
    "prefecture": "岐阜県",
    "city": "岐阜市",
    "town": "住田町"
  },
  "5008844": {
    "zipcode": "5008844",
    "prefectureCode": "21",
    "prefectureNumber": 21,
    "prefecture": "岐阜県",
    "city": "岐阜市",
    "town": "吉野町"
  },
  "5008845": {
    "zipcode": "5008845",
    "prefectureCode": "21",
    "prefectureNumber": 21,
    "prefecture": "岐阜県",
    "city": "岐阜市",
    "town": "問屋町"
  },
  "5008846": {
    "zipcode": "5008846",
    "prefectureCode": "21",
    "prefectureNumber": 21,
    "prefecture": "岐阜県",
    "city": "岐阜市",
    "town": "玉姓町"
  },
  "5008847": {
    "zipcode": "5008847",
    "prefectureCode": "21",
    "prefectureNumber": 21,
    "prefecture": "岐阜県",
    "city": "岐阜市",
    "town": "金宝町"
  },
  "5008848": {
    "zipcode": "5008848",
    "prefectureCode": "21",
    "prefectureNumber": 21,
    "prefecture": "岐阜県",
    "city": "岐阜市",
    "town": "神明町"
  },
  "5008849": {
    "zipcode": "5008849",
    "prefectureCode": "21",
    "prefectureNumber": 21,
    "prefecture": "岐阜県",
    "city": "岐阜市",
    "town": "金岡町"
  },
  "5008851": {
    "zipcode": "5008851",
    "prefectureCode": "21",
    "prefectureNumber": 21,
    "prefecture": "岐阜県",
    "city": "岐阜市",
    "town": "大宝町"
  },
  "5008852": {
    "zipcode": "5008852",
    "prefectureCode": "21",
    "prefectureNumber": 21,
    "prefecture": "岐阜県",
    "city": "岐阜市",
    "town": "日ノ本町"
  },
  "5008853": {
    "zipcode": "5008853",
    "prefectureCode": "21",
    "prefectureNumber": 21,
    "prefecture": "岐阜県",
    "city": "岐阜市",
    "town": "西問屋町"
  },
  "5008854": {
    "zipcode": "5008854",
    "prefectureCode": "21",
    "prefectureNumber": 21,
    "prefecture": "岐阜県",
    "city": "岐阜市",
    "town": "花園町"
  },
  "5008855": {
    "zipcode": "5008855",
    "prefectureCode": "21",
    "prefectureNumber": 21,
    "prefecture": "岐阜県",
    "city": "岐阜市",
    "town": "新栄町"
  },
  "5008856": {
    "zipcode": "5008856",
    "prefectureCode": "21",
    "prefectureNumber": 21,
    "prefecture": "岐阜県",
    "city": "岐阜市",
    "town": "橋本町"
  },
  "5008857": {
    "zipcode": "5008857",
    "prefectureCode": "21",
    "prefectureNumber": 21,
    "prefecture": "岐阜県",
    "city": "岐阜市",
    "town": "坂井町"
  },
  "5008858": {
    "zipcode": "5008858",
    "prefectureCode": "21",
    "prefectureNumber": 21,
    "prefecture": "岐阜県",
    "city": "岐阜市",
    "town": "福住町"
  },
  "5008859": {
    "zipcode": "5008859",
    "prefectureCode": "21",
    "prefectureNumber": 21,
    "prefecture": "岐阜県",
    "city": "岐阜市",
    "town": "室津町"
  },
  "5008861": {
    "zipcode": "5008861",
    "prefectureCode": "21",
    "prefectureNumber": 21,
    "prefecture": "岐阜県",
    "city": "岐阜市",
    "town": "千手堂北町"
  },
  "5008862": {
    "zipcode": "5008862",
    "prefectureCode": "21",
    "prefectureNumber": 21,
    "prefecture": "岐阜県",
    "city": "岐阜市",
    "town": "千手堂中町"
  },
  "5008863": {
    "zipcode": "5008863",
    "prefectureCode": "21",
    "prefectureNumber": 21,
    "prefecture": "岐阜県",
    "city": "岐阜市",
    "town": "千手堂南町"
  },
  "5008864": {
    "zipcode": "5008864",
    "prefectureCode": "21",
    "prefectureNumber": 21,
    "prefecture": "岐阜県",
    "city": "岐阜市",
    "town": "真砂町"
  },
  "5008865": {
    "zipcode": "5008865",
    "prefectureCode": "21",
    "prefectureNumber": 21,
    "prefecture": "岐阜県",
    "city": "岐阜市",
    "town": "昭和町"
  },
  "5008866": {
    "zipcode": "5008866",
    "prefectureCode": "21",
    "prefectureNumber": 21,
    "prefecture": "岐阜県",
    "city": "岐阜市",
    "town": "寺島町"
  },
  "5008867": {
    "zipcode": "5008867",
    "prefectureCode": "21",
    "prefectureNumber": 21,
    "prefecture": "岐阜県",
    "city": "岐阜市",
    "town": "木ノ本町"
  },
  "5008868": {
    "zipcode": "5008868",
    "prefectureCode": "21",
    "prefectureNumber": 21,
    "prefecture": "岐阜県",
    "city": "岐阜市",
    "town": "光明町"
  },
  "5008869": {
    "zipcode": "5008869",
    "prefectureCode": "21",
    "prefectureNumber": 21,
    "prefecture": "岐阜県",
    "city": "岐阜市",
    "town": "元宮町"
  },
  "5008871": {
    "zipcode": "5008871",
    "prefectureCode": "21",
    "prefectureNumber": 21,
    "prefecture": "岐阜県",
    "city": "岐阜市",
    "town": "大正町"
  },
  "5008872": {
    "zipcode": "5008872",
    "prefectureCode": "21",
    "prefectureNumber": 21,
    "prefecture": "岐阜県",
    "city": "岐阜市",
    "town": "栄枝町"
  },
  "5008873": {
    "zipcode": "5008873",
    "prefectureCode": "21",
    "prefectureNumber": 21,
    "prefecture": "岐阜県",
    "city": "岐阜市",
    "town": "大富町"
  },
  "5008874": {
    "zipcode": "5008874",
    "prefectureCode": "21",
    "prefectureNumber": 21,
    "prefecture": "岐阜県",
    "city": "岐阜市",
    "town": "銀町"
  },
  "5008875": {
    "zipcode": "5008875",
    "prefectureCode": "21",
    "prefectureNumber": 21,
    "prefecture": "岐阜県",
    "city": "岐阜市",
    "town": "柳ケ瀬通"
  },
  "5008876": {
    "zipcode": "5008876",
    "prefectureCode": "21",
    "prefectureNumber": 21,
    "prefecture": "岐阜県",
    "city": "岐阜市",
    "town": "日ノ出町"
  },
  "5008877": {
    "zipcode": "5008877",
    "prefectureCode": "21",
    "prefectureNumber": 21,
    "prefecture": "岐阜県",
    "city": "岐阜市",
    "town": "雲雀町"
  },
  "5008878": {
    "zipcode": "5008878",
    "prefectureCode": "21",
    "prefectureNumber": 21,
    "prefecture": "岐阜県",
    "city": "岐阜市",
    "town": "神室町"
  },
  "5008879": {
    "zipcode": "5008879",
    "prefectureCode": "21",
    "prefectureNumber": 21,
    "prefecture": "岐阜県",
    "city": "岐阜市",
    "town": "徹明通"
  },
  "5008881": {
    "zipcode": "5008881",
    "prefectureCode": "21",
    "prefectureNumber": 21,
    "prefecture": "岐阜県",
    "city": "岐阜市",
    "town": "青柳町"
  },
  "5008882": {
    "zipcode": "5008882",
    "prefectureCode": "21",
    "prefectureNumber": 21,
    "prefecture": "岐阜県",
    "city": "岐阜市",
    "town": "西野町"
  },
  "5008883": {
    "zipcode": "5008883",
    "prefectureCode": "21",
    "prefectureNumber": 21,
    "prefecture": "岐阜県",
    "city": "岐阜市",
    "town": "吾妻町"
  },
  "5008884": {
    "zipcode": "5008884",
    "prefectureCode": "21",
    "prefectureNumber": 21,
    "prefecture": "岐阜県",
    "city": "岐阜市",
    "town": "池田町"
  },
  "5008885": {
    "zipcode": "5008885",
    "prefectureCode": "21",
    "prefectureNumber": 21,
    "prefecture": "岐阜県",
    "city": "岐阜市",
    "town": "大柳町"
  },
  "5008886": {
    "zipcode": "5008886",
    "prefectureCode": "21",
    "prefectureNumber": 21,
    "prefecture": "岐阜県",
    "city": "岐阜市",
    "town": "西野町七丁目北町"
  },
  "5008887": {
    "zipcode": "5008887",
    "prefectureCode": "21",
    "prefectureNumber": 21,
    "prefecture": "岐阜県",
    "city": "岐阜市",
    "town": "西野町六丁目北町"
  },
  "5008888": {
    "zipcode": "5008888",
    "prefectureCode": "21",
    "prefectureNumber": 21,
    "prefecture": "岐阜県",
    "city": "岐阜市",
    "town": "万年町"
  },
  "5008889": {
    "zipcode": "5008889",
    "prefectureCode": "21",
    "prefectureNumber": 21,
    "prefecture": "岐阜県",
    "city": "岐阜市",
    "town": "大縄場"
  },
  "5008891": {
    "zipcode": "5008891",
    "prefectureCode": "21",
    "prefectureNumber": 21,
    "prefecture": "岐阜県",
    "city": "岐阜市",
    "town": "香蘭"
  }
}
