{
  "5010101": {
    "zipcode": "5010101",
    "prefectureCode": "21",
    "prefectureNumber": 21,
    "prefecture": "岐阜県",
    "city": "岐阜市",
    "town": "曽我屋"
  },
  "5010102": {
    "zipcode": "5010102",
    "prefectureCode": "21",
    "prefectureNumber": 21,
    "prefecture": "岐阜県",
    "city": "岐阜市",
    "town": "一日市場北町"
  },
  "5010103": {
    "zipcode": "5010103",
    "prefectureCode": "21",
    "prefectureNumber": 21,
    "prefecture": "岐阜県",
    "city": "岐阜市",
    "town": "一日市場"
  },
  "5010104": {
    "zipcode": "5010104",
    "prefectureCode": "21",
    "prefectureNumber": 21,
    "prefecture": "岐阜県",
    "city": "岐阜市",
    "town": "寺田"
  },
  "5010105": {
    "zipcode": "5010105",
    "prefectureCode": "21",
    "prefectureNumber": 21,
    "prefecture": "岐阜県",
    "city": "岐阜市",
    "town": "河渡"
  },
  "5010106": {
    "zipcode": "5010106",
    "prefectureCode": "21",
    "prefectureNumber": 21,
    "prefecture": "岐阜県",
    "city": "岐阜市",
    "town": "西河渡"
  },
  "5010111": {
    "zipcode": "5010111",
    "prefectureCode": "21",
    "prefectureNumber": 21,
    "prefecture": "岐阜県",
    "city": "岐阜市",
    "town": "川原畑"
  },
  "5010112": {
    "zipcode": "5010112",
    "prefectureCode": "21",
    "prefectureNumber": 21,
    "prefecture": "岐阜県",
    "city": "岐阜市",
    "town": "鏡島精華"
  },
  "5010113": {
    "zipcode": "5010113",
    "prefectureCode": "21",
    "prefectureNumber": 21,
    "prefecture": "岐阜県",
    "city": "岐阜市",
    "town": "鏡島市場"
  },
  "5010115": {
    "zipcode": "5010115",
    "prefectureCode": "21",
    "prefectureNumber": 21,
    "prefecture": "岐阜県",
    "city": "岐阜市",
    "town": "鏡島南"
  },
  "5010117": {
    "zipcode": "5010117",
    "prefectureCode": "21",
    "prefectureNumber": 21,
    "prefecture": "岐阜県",
    "city": "岐阜市",
    "town": "江崎"
  },
  "5010118": {
    "zipcode": "5010118",
    "prefectureCode": "21",
    "prefectureNumber": 21,
    "prefecture": "岐阜県",
    "city": "岐阜市",
    "town": "大菅北"
  },
  "5010119": {
    "zipcode": "5010119",
    "prefectureCode": "21",
    "prefectureNumber": 21,
    "prefecture": "岐阜県",
    "city": "岐阜市",
    "town": "大菅南"
  },
  "5010121": {
    "zipcode": "5010121",
    "prefectureCode": "21",
    "prefectureNumber": 21,
    "prefecture": "岐阜県",
    "city": "岐阜市",
    "town": "江崎北"
  },
  "5010122": {
    "zipcode": "5010122",
    "prefectureCode": "21",
    "prefectureNumber": 21,
    "prefecture": "岐阜県",
    "city": "岐阜市",
    "town": "江崎南"
  },
  "5010123": {
    "zipcode": "5010123",
    "prefectureCode": "21",
    "prefectureNumber": 21,
    "prefecture": "岐阜県",
    "city": "岐阜市",
    "town": "鏡島西"
  },
  "5010124": {
    "zipcode": "5010124",
    "prefectureCode": "21",
    "prefectureNumber": 21,
    "prefecture": "岐阜県",
    "city": "岐阜市",
    "town": "鏡島中"
  },
  "5010200": {
    "zipcode": "5010200",
    "prefectureCode": "21",
    "prefectureNumber": 21,
    "prefecture": "岐阜県",
    "city": "瑞穂市",
    "town": "以下に掲載がない場合"
  },
  "5010201": {
    "zipcode": "5010201",
    "prefectureCode": "21",
    "prefectureNumber": 21,
    "prefecture": "岐阜県",
    "city": "瑞穂市",
    "town": "馬場"
  },
  "5010202": {
    "zipcode": "5010202",
    "prefectureCode": "21",
    "prefectureNumber": 21,
    "prefecture": "岐阜県",
    "city": "瑞穂市",
    "town": "馬場前畑町"
  },
  "5010203": {
    "zipcode": "5010203",
    "prefectureCode": "21",
    "prefectureNumber": 21,
    "prefecture": "岐阜県",
    "city": "瑞穂市",
    "town": "馬場上光町"
  },
  "5010204": {
    "zipcode": "5010204",
    "prefectureCode": "21",
    "prefectureNumber": 21,
    "prefecture": "岐阜県",
    "city": "瑞穂市",
    "town": "馬場春雨町"
  },
  "5010205": {
    "zipcode": "5010205",
    "prefectureCode": "21",
    "prefectureNumber": 21,
    "prefecture": "岐阜県",
    "city": "瑞穂市",
    "town": "馬場小城町"
  },
  "5010206": {
    "zipcode": "5010206",
    "prefectureCode": "21",
    "prefectureNumber": 21,
    "prefecture": "岐阜県",
    "city": "瑞穂市",
    "town": "馬場北町"
  },
  "5010211": {
    "zipcode": "5010211",
    "prefectureCode": "21",
    "prefectureNumber": 21,
    "prefecture": "岐阜県",
    "city": "瑞穂市",
    "town": "生津"
  },
  "5010212": {
    "zipcode": "5010212",
    "prefectureCode": "21",
    "prefectureNumber": 21,
    "prefecture": "岐阜県",
    "city": "瑞穂市",
    "town": "生津滝坪町"
  },
  "5010213": {
    "zipcode": "5010213",
    "prefectureCode": "21",
    "prefectureNumber": 21,
    "prefecture": "岐阜県",
    "city": "瑞穂市",
    "town": "生津内宮町"
  },
  "5010214": {
    "zipcode": "5010214",
    "prefectureCode": "21",
    "prefectureNumber": 21,
    "prefecture": "岐阜県",
    "city": "瑞穂市",
    "town": "生津外宮東町"
  },
  "5010215": {
    "zipcode": "5010215",
    "prefectureCode": "21",
    "prefectureNumber": 21,
    "prefecture": "岐阜県",
    "city": "瑞穂市",
    "town": "生津天王東町"
  },
  "5010216": {
    "zipcode": "5010216",
    "prefectureCode": "21",
    "prefectureNumber": 21,
    "prefecture": "岐阜県",
    "city": "瑞穂市",
    "town": "生津天王町"
  },
  "5010217": {
    "zipcode": "5010217",
    "prefectureCode": "21",
    "prefectureNumber": 21,
    "prefecture": "岐阜県",
    "city": "瑞穂市",
    "town": "生津外宮前町"
  },
  "5010221": {
    "zipcode": "5010221",
    "prefectureCode": "21",
    "prefectureNumber": 21,
    "prefecture": "岐阜県",
    "city": "瑞穂市",
    "town": "只越"
  },
  "5010222": {
    "zipcode": "5010222",
    "prefectureCode": "21",
    "prefectureNumber": 21,
    "prefecture": "岐阜県",
    "city": "瑞穂市",
    "town": "別府"
  },
  "5010223": {
    "zipcode": "5010223",
    "prefectureCode": "21",
    "prefectureNumber": 21,
    "prefecture": "岐阜県",
    "city": "瑞穂市",
    "town": "穂積"
  },
  "5010224": {
    "zipcode": "5010224",
    "prefectureCode": "21",
    "prefectureNumber": 21,
    "prefecture": "岐阜県",
    "city": "瑞穂市",
    "town": "稲里"
  },
  "5010225": {
    "zipcode": "5010225",
    "prefectureCode": "21",
    "prefectureNumber": 21,
    "prefecture": "岐阜県",
    "city": "瑞穂市",
    "town": "祖父江"
  },
  "5010231": {
    "zipcode": "5010231",
    "prefectureCode": "21",
    "prefectureNumber": 21,
    "prefecture": "岐阜県",
    "city": "瑞穂市",
    "town": "野白新田"
  },
  "5010232": {
    "zipcode": "5010232",
    "prefectureCode": "21",
    "prefectureNumber": 21,
    "prefecture": "岐阜県",
    "city": "瑞穂市",
    "town": "野田新田"
  },
  "5010233": {
    "zipcode": "5010233",
    "prefectureCode": "21",
    "prefectureNumber": 21,
    "prefecture": "岐阜県",
    "city": "瑞穂市",
    "town": "宝江"
  },
  "5010234": {
    "zipcode": "5010234",
    "prefectureCode": "21",
    "prefectureNumber": 21,
    "prefecture": "岐阜県",
    "city": "瑞穂市",
    "town": "牛牧"
  },
  "5010235": {
    "zipcode": "5010235",
    "prefectureCode": "21",
    "prefectureNumber": 21,
    "prefecture": "岐阜県",
    "city": "瑞穂市",
    "town": "十九条"
  },
  "5010236": {
    "zipcode": "5010236",
    "prefectureCode": "21",
    "prefectureNumber": 21,
    "prefecture": "岐阜県",
    "city": "瑞穂市",
    "town": "本田"
  },
  "5010237": {
    "zipcode": "5010237",
    "prefectureCode": "21",
    "prefectureNumber": 21,
    "prefecture": "岐阜県",
    "city": "瑞穂市",
    "town": "犀川"
  },
  "5010301": {
    "zipcode": "5010301",
    "prefectureCode": "21",
    "prefectureNumber": 21,
    "prefecture": "岐阜県",
    "city": "瑞穂市",
    "town": "七崎"
  },
  "5010302": {
    "zipcode": "5010302",
    "prefectureCode": "21",
    "prefectureNumber": 21,
    "prefecture": "岐阜県",
    "city": "瑞穂市",
    "town": "居倉"
  },
  "5010303": {
    "zipcode": "5010303",
    "prefectureCode": "21",
    "prefectureNumber": 21,
    "prefecture": "岐阜県",
    "city": "瑞穂市",
    "town": "森"
  },
  "5010304": {
    "zipcode": "5010304",
    "prefectureCode": "21",
    "prefectureNumber": 21,
    "prefecture": "岐阜県",
    "city": "瑞穂市",
    "town": "田之上"
  },
  "5010305": {
    "zipcode": "5010305",
    "prefectureCode": "21",
    "prefectureNumber": 21,
    "prefecture": "岐阜県",
    "city": "瑞穂市",
    "town": "宮田"
  },
  "5010306": {
    "zipcode": "5010306",
    "prefectureCode": "21",
    "prefectureNumber": 21,
    "prefecture": "岐阜県",
    "city": "瑞穂市",
    "town": "大月"
  },
  "5010307": {
    "zipcode": "5010307",
    "prefectureCode": "21",
    "prefectureNumber": 21,
    "prefecture": "岐阜県",
    "city": "瑞穂市",
    "town": "唐栗"
  },
  "5010311": {
    "zipcode": "5010311",
    "prefectureCode": "21",
    "prefectureNumber": 21,
    "prefecture": "岐阜県",
    "city": "瑞穂市",
    "town": "重里"
  },
  "5010312": {
    "zipcode": "5010312",
    "prefectureCode": "21",
    "prefectureNumber": 21,
    "prefecture": "岐阜県",
    "city": "瑞穂市",
    "town": "美江寺"
  },
  "5010313": {
    "zipcode": "5010313",
    "prefectureCode": "21",
    "prefectureNumber": 21,
    "prefecture": "岐阜県",
    "city": "瑞穂市",
    "town": "十七条"
  },
  "5010314": {
    "zipcode": "5010314",
    "prefectureCode": "21",
    "prefectureNumber": 21,
    "prefecture": "岐阜県",
    "city": "瑞穂市",
    "town": "十八条"
  },
  "5010321": {
    "zipcode": "5010321",
    "prefectureCode": "21",
    "prefectureNumber": 21,
    "prefecture": "岐阜県",
    "city": "瑞穂市",
    "town": "横屋"
  },
  "5010322": {
    "zipcode": "5010322",
    "prefectureCode": "21",
    "prefectureNumber": 21,
    "prefecture": "岐阜県",
    "city": "瑞穂市",
    "town": "古橋"
  },
  "5010323": {
    "zipcode": "5010323",
    "prefectureCode": "21",
    "prefectureNumber": 21,
    "prefecture": "岐阜県",
    "city": "瑞穂市",
    "town": "中宮"
  },
  "5010324": {
    "zipcode": "5010324",
    "prefectureCode": "21",
    "prefectureNumber": 21,
    "prefecture": "岐阜県",
    "city": "瑞穂市",
    "town": "呂久"
  },
  "5010400": {
    "zipcode": "5010400",
    "prefectureCode": "21",
    "prefectureNumber": 21,
    "prefecture": "岐阜県",
    "city": "本巣郡北方町",
    "town": "以下に掲載がない場合"
  },
  "5010401": {
    "zipcode": "5010401",
    "prefectureCode": "21",
    "prefectureNumber": 21,
    "prefecture": "岐阜県",
    "city": "本巣市",
    "town": "上保"
  },
  "5010402": {
    "zipcode": "5010402",
    "prefectureCode": "21",
    "prefectureNumber": 21,
    "prefecture": "岐阜県",
    "city": "本巣市",
    "town": "郡府"
  },
  "5010403": {
    "zipcode": "5010403",
    "prefectureCode": "21",
    "prefectureNumber": 21,
    "prefecture": "岐阜県",
    "city": "本巣市",
    "town": "北野"
  },
  "5010404": {
    "zipcode": "5010404",
    "prefectureCode": "21",
    "prefectureNumber": 21,
    "prefecture": "岐阜県",
    "city": "本巣市",
    "town": "春近"
  },
  "5010405": {
    "zipcode": "5010405",
    "prefectureCode": "21",
    "prefectureNumber": 21,
    "prefecture": "岐阜県",
    "city": "本巣市",
    "town": "石原"
  },
  "5010406": {
    "zipcode": "5010406",
    "prefectureCode": "21",
    "prefectureNumber": 21,
    "prefecture": "岐阜県",
    "city": "本巣市",
    "town": "三橋"
  },
  "5010407": {
    "zipcode": "5010407",
    "prefectureCode": "21",
    "prefectureNumber": 21,
    "prefecture": "岐阜県",
    "city": "本巣市",
    "town": "仏生寺"
  },
  "5010410": {
    "zipcode": "5010410",
    "prefectureCode": "21",
    "prefectureNumber": 21,
    "prefecture": "岐阜県",
    "city": "本巣市",
    "town": "石神"
  },
  "5010411": {
    "zipcode": "5010411",
    "prefectureCode": "21",
    "prefectureNumber": 21,
    "prefecture": "岐阜県",
    "city": "本巣市",
    "town": "上高屋"
  },
  "5010412": {
    "zipcode": "5010412",
    "prefectureCode": "21",
    "prefectureNumber": 21,
    "prefecture": "岐阜県",
    "city": "本巣市",
    "town": "長屋"
  },
  "5010413": {
    "zipcode": "5010413",
    "prefectureCode": "21",
    "prefectureNumber": 21,
    "prefecture": "岐阜県",
    "city": "本巣市",
    "town": "見延"
  },
  "5010414": {
    "zipcode": "5010414",
    "prefectureCode": "21",
    "prefectureNumber": 21,
    "prefecture": "岐阜県",
    "city": "本巣市",
    "town": "数屋"
  },
  "5010415": {
    "zipcode": "5010415",
    "prefectureCode": "21",
    "prefectureNumber": 21,
    "prefecture": "岐阜県",
    "city": "本巣市",
    "town": "有里"
  },
  "5010416": {
    "zipcode": "5010416",
    "prefectureCode": "21",
    "prefectureNumber": 21,
    "prefecture": "岐阜県",
    "city": "本巣市",
    "town": "随原"
  },
  "5010417": {
    "zipcode": "5010417",
    "prefectureCode": "21",
    "prefectureNumber": 21,
    "prefecture": "岐阜県",
    "city": "本巣市",
    "town": "屋井"
  },
  "5010418": {
    "zipcode": "5010418",
    "prefectureCode": "21",
    "prefectureNumber": 21,
    "prefecture": "岐阜県",
    "city": "本巣市",
    "town": "七五三"
  },
  "5010419": {
    "zipcode": "5010419",
    "prefectureCode": "21",
    "prefectureNumber": 21,
    "prefecture": "岐阜県",
    "city": "本巣市",
    "town": "早野"
  },
  "5010421": {
    "zipcode": "5010421",
    "prefectureCode": "21",
    "prefectureNumber": 21,
    "prefecture": "岐阜県",
    "city": "本巣郡北方町",
    "town": "芝原西町"
  },
  "5010422": {
    "zipcode": "5010422",
    "prefectureCode": "21",
    "prefectureNumber": 21,
    "prefecture": "岐阜県",
    "city": "本巣郡北方町",
    "town": "芝原中町"
  },
  "5010423": {
    "zipcode": "5010423",
    "prefectureCode": "21",
    "prefectureNumber": 21,
    "prefecture": "岐阜県",
    "city": "本巣郡北方町",
    "town": "芝原東町"
  },
  "5010424": {
    "zipcode": "5010424",
    "prefectureCode": "21",
    "prefectureNumber": 21,
    "prefecture": "岐阜県",
    "city": "本巣郡北方町",
    "town": "朝日町"
  },
  "5010425": {
    "zipcode": "5010425",
    "prefectureCode": "21",
    "prefectureNumber": 21,
    "prefecture": "岐阜県",
    "city": "本巣郡北方町",
    "town": "加茂"
  },
  "5010426": {
    "zipcode": "5010426",
    "prefectureCode": "21",
    "prefectureNumber": 21,
    "prefecture": "岐阜県",
    "city": "本巣郡北方町",
    "town": "東加茂"
  },
  "5010427": {
    "zipcode": "5010427",
    "prefectureCode": "21",
    "prefectureNumber": 21,
    "prefecture": "岐阜県",
    "city": "本巣郡北方町",
    "town": "栄町"
  },
  "5010428": {
    "zipcode": "5010428",
    "prefectureCode": "21",
    "prefectureNumber": 21,
    "prefecture": "岐阜県",
    "city": "本巣郡北方町",
    "town": "若宮"
  },
  "5010431": {
    "zipcode": "5010431",
    "prefectureCode": "21",
    "prefectureNumber": 21,
    "prefecture": "岐阜県",
    "city": "本巣郡北方町",
    "town": "北方"
  },
  "5010432": {
    "zipcode": "5010432",
    "prefectureCode": "21",
    "prefectureNumber": 21,
    "prefecture": "岐阜県",
    "city": "本巣郡北方町",
    "town": "一本松"
  },
  "5010433": {
    "zipcode": "5010433",
    "prefectureCode": "21",
    "prefectureNumber": 21,
    "prefecture": "岐阜県",
    "city": "本巣郡北方町",
    "town": "天狗堂"
  },
  "5010434": {
    "zipcode": "5010434",
    "prefectureCode": "21",
    "prefectureNumber": 21,
    "prefecture": "岐阜県",
    "city": "本巣郡北方町",
    "town": "小柳"
  },
  "5010435": {
    "zipcode": "5010435",
    "prefectureCode": "21",
    "prefectureNumber": 21,
    "prefecture": "岐阜県",
    "city": "本巣郡北方町",
    "town": "春来町"
  },
  "5010436": {
    "zipcode": "5010436",
    "prefectureCode": "21",
    "prefectureNumber": 21,
    "prefecture": "岐阜県",
    "city": "本巣郡北方町",
    "town": "長谷川西"
  },
  "5010437": {
    "zipcode": "5010437",
    "prefectureCode": "21",
    "prefectureNumber": 21,
    "prefecture": "岐阜県",
    "city": "本巣郡北方町",
    "town": "清水"
  },
  "5010438": {
    "zipcode": "5010438",
    "prefectureCode": "21",
    "prefectureNumber": 21,
    "prefecture": "岐阜県",
    "city": "本巣郡北方町",
    "town": "平成"
  },
  "5010439": {
    "zipcode": "5010439",
    "prefectureCode": "21",
    "prefectureNumber": 21,
    "prefecture": "岐阜県",
    "city": "本巣郡北方町",
    "town": "長谷川"
  },
  "5010441": {
    "zipcode": "5010441",
    "prefectureCode": "21",
    "prefectureNumber": 21,
    "prefecture": "岐阜県",
    "city": "本巣郡北方町",
    "town": "曲路"
  },
  "5010442": {
    "zipcode": "5010442",
    "prefectureCode": "21",
    "prefectureNumber": 21,
    "prefecture": "岐阜県",
    "city": "本巣郡北方町",
    "town": "曲路東"
  },
  "5010443": {
    "zipcode": "5010443",
    "prefectureCode": "21",
    "prefectureNumber": 21,
    "prefecture": "岐阜県",
    "city": "本巣郡北方町",
    "town": "柱本池之頭"
  },
  "5010444": {
    "zipcode": "5010444",
    "prefectureCode": "21",
    "prefectureNumber": 21,
    "prefecture": "岐阜県",
    "city": "本巣郡北方町",
    "town": "柱本白坪"
  },
  "5010445": {
    "zipcode": "5010445",
    "prefectureCode": "21",
    "prefectureNumber": 21,
    "prefecture": "岐阜県",
    "city": "本巣郡北方町",
    "town": "柱本南"
  },
  "5010446": {
    "zipcode": "5010446",
    "prefectureCode": "21",
    "prefectureNumber": 21,
    "prefecture": "岐阜県",
    "city": "本巣郡北方町",
    "town": "柱本"
  },
  "5010451": {
    "zipcode": "5010451",
    "prefectureCode": "21",
    "prefectureNumber": 21,
    "prefecture": "岐阜県",
    "city": "本巣郡北方町",
    "town": "高屋勅使"
  },
  "5010452": {
    "zipcode": "5010452",
    "prefectureCode": "21",
    "prefectureNumber": 21,
    "prefecture": "岐阜県",
    "city": "本巣郡北方町",
    "town": "高屋石末"
  },
  "5010453": {
    "zipcode": "5010453",
    "prefectureCode": "21",
    "prefectureNumber": 21,
    "prefecture": "岐阜県",
    "city": "本巣郡北方町",
    "town": "高屋分木"
  },
  "5010454": {
    "zipcode": "5010454",
    "prefectureCode": "21",
    "prefectureNumber": 21,
    "prefecture": "岐阜県",
    "city": "本巣郡北方町",
    "town": "高屋白木"
  },
  "5010455": {
    "zipcode": "5010455",
    "prefectureCode": "21",
    "prefectureNumber": 21,
    "prefecture": "岐阜県",
    "city": "本巣郡北方町",
    "town": "高屋伊勢田"
  },
  "5010456": {
    "zipcode": "5010456",
    "prefectureCode": "21",
    "prefectureNumber": 21,
    "prefecture": "岐阜県",
    "city": "本巣郡北方町",
    "town": "高屋条里"
  },
  "5010457": {
    "zipcode": "5010457",
    "prefectureCode": "21",
    "prefectureNumber": 21,
    "prefecture": "岐阜県",
    "city": "本巣郡北方町",
    "town": "高屋太子"
  },
  "5010458": {
    "zipcode": "5010458",
    "prefectureCode": "21",
    "prefectureNumber": 21,
    "prefecture": "岐阜県",
    "city": "本巣郡北方町",
    "town": "高屋"
  },
  "5010459": {
    "zipcode": "5010459",
    "prefectureCode": "21",
    "prefectureNumber": 21,
    "prefecture": "岐阜県",
    "city": "本巣郡北方町",
    "town": "高屋清流"
  },
  "5010461": {
    "zipcode": "5010461",
    "prefectureCode": "21",
    "prefectureNumber": 21,
    "prefecture": "岐阜県",
    "city": "本巣市",
    "town": "上真桑"
  },
  "5010462": {
    "zipcode": "5010462",
    "prefectureCode": "21",
    "prefectureNumber": 21,
    "prefecture": "岐阜県",
    "city": "本巣市",
    "town": "宗慶"
  },
  "5010463": {
    "zipcode": "5010463",
    "prefectureCode": "21",
    "prefectureNumber": 21,
    "prefecture": "岐阜県",
    "city": "本巣市",
    "town": "小柿"
  },
  "5010464": {
    "zipcode": "5010464",
    "prefectureCode": "21",
    "prefectureNumber": 21,
    "prefecture": "岐阜県",
    "city": "本巣市",
    "town": "十四条"
  },
  "5010465": {
    "zipcode": "5010465",
    "prefectureCode": "21",
    "prefectureNumber": 21,
    "prefecture": "岐阜県",
    "city": "本巣市",
    "town": "軽海"
  },
  "5010466": {
    "zipcode": "5010466",
    "prefectureCode": "21",
    "prefectureNumber": 21,
    "prefecture": "岐阜県",
    "city": "本巣市",
    "town": "下真桑"
  },
  "5010471": {
    "zipcode": "5010471",
    "prefectureCode": "21",
    "prefectureNumber": 21,
    "prefecture": "岐阜県",
    "city": "本巣市",
    "town": "政田"
  },
  "5010472": {
    "zipcode": "5010472",
    "prefectureCode": "21",
    "prefectureNumber": 21,
    "prefecture": "岐阜県",
    "city": "本巣市",
    "town": "下福島"
  },
  "5010473": {
    "zipcode": "5010473",
    "prefectureCode": "21",
    "prefectureNumber": 21,
    "prefecture": "岐阜県",
    "city": "本巣市",
    "town": "温井"
  },
  "5010474": {
    "zipcode": "5010474",
    "prefectureCode": "21",
    "prefectureNumber": 21,
    "prefecture": "岐阜県",
    "city": "本巣市",
    "town": "国領"
  },
  "5010475": {
    "zipcode": "5010475",
    "prefectureCode": "21",
    "prefectureNumber": 21,
    "prefecture": "岐阜県",
    "city": "本巣市",
    "town": "浅木"
  },
  "5010476": {
    "zipcode": "5010476",
    "prefectureCode": "21",
    "prefectureNumber": 21,
    "prefecture": "岐阜県",
    "city": "本巣市",
    "town": "海老"
  },
  "5010500": {
    "zipcode": "5010500",
    "prefectureCode": "21",
    "prefectureNumber": 21,
    "prefecture": "岐阜県",
    "city": "揖斐郡大野町",
    "town": "以下に掲載がない場合"
  },
  "5010501": {
    "zipcode": "5010501",
    "prefectureCode": "21",
    "prefectureNumber": 21,
    "prefecture": "岐阜県",
    "city": "揖斐郡大野町",
    "town": "稲富"
  },
  "5010502": {
    "zipcode": "5010502",
    "prefectureCode": "21",
    "prefectureNumber": 21,
    "prefecture": "岐阜県",
    "city": "揖斐郡大野町",
    "town": "古川"
  },
  "5010503": {
    "zipcode": "5010503",
    "prefectureCode": "21",
    "prefectureNumber": 21,
    "prefecture": "岐阜県",
    "city": "揖斐郡大野町",
    "town": "寺内"
  },
  "5010504": {
    "zipcode": "5010504",
    "prefectureCode": "21",
    "prefectureNumber": 21,
    "prefecture": "岐阜県",
    "city": "揖斐郡大野町",
    "town": "野"
  },
  "5010511": {
    "zipcode": "5010511",
    "prefectureCode": "21",
    "prefectureNumber": 21,
    "prefecture": "岐阜県",
    "city": "揖斐郡大野町",
    "town": "稲畑"
  },
  "5010512": {
    "zipcode": "5010512",
    "prefectureCode": "21",
    "prefectureNumber": 21,
    "prefecture": "岐阜県",
    "city": "揖斐郡大野町",
    "town": "上秋"
  },
  "5010513": {
    "zipcode": "5010513",
    "prefectureCode": "21",
    "prefectureNumber": 21,
    "prefecture": "岐阜県",
    "city": "揖斐郡大野町",
    "town": "大野"
  },
  "5010514": {
    "zipcode": "5010514",
    "prefectureCode": "21",
    "prefectureNumber": 21,
    "prefecture": "岐阜県",
    "city": "揖斐郡大野町",
    "town": "西方"
  },
  "5010515": {
    "zipcode": "5010515",
    "prefectureCode": "21",
    "prefectureNumber": 21,
    "prefecture": "岐阜県",
    "city": "揖斐郡大野町",
    "town": "桜大門"
  },
  "5010521": {
    "zipcode": "5010521",
    "prefectureCode": "21",
    "prefectureNumber": 21,
    "prefecture": "岐阜県",
    "city": "揖斐郡大野町",
    "town": "黒野"
  },
  "5010522": {
    "zipcode": "5010522",
    "prefectureCode": "21",
    "prefectureNumber": 21,
    "prefecture": "岐阜県",
    "city": "揖斐郡大野町",
    "town": "相羽"
  },
  "5010523": {
    "zipcode": "5010523",
    "prefectureCode": "21",
    "prefectureNumber": 21,
    "prefecture": "岐阜県",
    "city": "揖斐郡大野町",
    "town": "下方"
  },
  "5010524": {
    "zipcode": "5010524",
    "prefectureCode": "21",
    "prefectureNumber": 21,
    "prefecture": "岐阜県",
    "city": "揖斐郡大野町",
    "town": "郡家"
  },
  "5010525": {
    "zipcode": "5010525",
    "prefectureCode": "21",
    "prefectureNumber": 21,
    "prefecture": "岐阜県",
    "city": "揖斐郡大野町",
    "town": "六里"
  },
  "5010531": {
    "zipcode": "5010531",
    "prefectureCode": "21",
    "prefectureNumber": 21,
    "prefecture": "岐阜県",
    "city": "揖斐郡大野町",
    "town": "上磯"
  },
  "5010532": {
    "zipcode": "5010532",
    "prefectureCode": "21",
    "prefectureNumber": 21,
    "prefecture": "岐阜県",
    "city": "揖斐郡大野町",
    "town": "下磯"
  },
  "5010533": {
    "zipcode": "5010533",
    "prefectureCode": "21",
    "prefectureNumber": 21,
    "prefecture": "岐阜県",
    "city": "揖斐郡大野町",
    "town": "本庄"
  },
  "5010534": {
    "zipcode": "5010534",
    "prefectureCode": "21",
    "prefectureNumber": 21,
    "prefecture": "岐阜県",
    "city": "揖斐郡大野町",
    "town": "下座倉"
  },
  "5010535": {
    "zipcode": "5010535",
    "prefectureCode": "21",
    "prefectureNumber": 21,
    "prefecture": "岐阜県",
    "city": "揖斐郡大野町",
    "town": "加納"
  },
  "5010551": {
    "zipcode": "5010551",
    "prefectureCode": "21",
    "prefectureNumber": 21,
    "prefecture": "岐阜県",
    "city": "揖斐郡大野町",
    "town": "小衣斐"
  },
  "5010552": {
    "zipcode": "5010552",
    "prefectureCode": "21",
    "prefectureNumber": 21,
    "prefecture": "岐阜県",
    "city": "揖斐郡大野町",
    "town": "大衣斐"
  },
  "5010553": {
    "zipcode": "5010553",
    "prefectureCode": "21",
    "prefectureNumber": 21,
    "prefecture": "岐阜県",
    "city": "揖斐郡大野町",
    "town": "南方"
  },
  "5010554": {
    "zipcode": "5010554",
    "prefectureCode": "21",
    "prefectureNumber": 21,
    "prefecture": "岐阜県",
    "city": "揖斐郡大野町",
    "town": "五之里"
  },
  "5010555": {
    "zipcode": "5010555",
    "prefectureCode": "21",
    "prefectureNumber": 21,
    "prefecture": "岐阜県",
    "city": "揖斐郡大野町",
    "town": "公郷"
  },
  "5010556": {
    "zipcode": "5010556",
    "prefectureCode": "21",
    "prefectureNumber": 21,
    "prefecture": "岐阜県",
    "city": "揖斐郡大野町",
    "town": "領家"
  },
  "5010561": {
    "zipcode": "5010561",
    "prefectureCode": "21",
    "prefectureNumber": 21,
    "prefecture": "岐阜県",
    "city": "揖斐郡大野町",
    "town": "牛洞"
  },
  "5010562": {
    "zipcode": "5010562",
    "prefectureCode": "21",
    "prefectureNumber": 21,
    "prefecture": "岐阜県",
    "city": "揖斐郡大野町",
    "town": "松山"
  },
  "5010563": {
    "zipcode": "5010563",
    "prefectureCode": "21",
    "prefectureNumber": 21,
    "prefecture": "岐阜県",
    "city": "揖斐郡大野町",
    "town": "瀬古"
  },
  "5010564": {
    "zipcode": "5010564",
    "prefectureCode": "21",
    "prefectureNumber": 21,
    "prefecture": "岐阜県",
    "city": "揖斐郡大野町",
    "town": "麻生"
  },
  "5010565": {
    "zipcode": "5010565",
    "prefectureCode": "21",
    "prefectureNumber": 21,
    "prefecture": "岐阜県",
    "city": "揖斐郡大野町",
    "town": "中之元"
  },
  "5010600": {
    "zipcode": "5010600",
    "prefectureCode": "21",
    "prefectureNumber": 21,
    "prefecture": "岐阜県",
    "city": "揖斐郡揖斐川町",
    "town": "以下に掲載がない場合"
  },
  "5010601": {
    "zipcode": "5010601",
    "prefectureCode": "21",
    "prefectureNumber": 21,
    "prefecture": "岐阜県",
    "city": "揖斐郡揖斐川町",
    "town": "北方"
  },
  "5010602": {
    "zipcode": "5010602",
    "prefectureCode": "21",
    "prefectureNumber": 21,
    "prefecture": "岐阜県",
    "city": "揖斐郡揖斐川町",
    "town": "若松"
  },
  "5010603": {
    "zipcode": "5010603",
    "prefectureCode": "21",
    "prefectureNumber": 21,
    "prefecture": "岐阜県",
    "city": "揖斐郡揖斐川町",
    "town": "上南方"
  },
  "5010604": {
    "zipcode": "5010604",
    "prefectureCode": "21",
    "prefectureNumber": 21,
    "prefecture": "岐阜県",
    "city": "揖斐郡揖斐川町",
    "town": "大光寺"
  },
  "5010605": {
    "zipcode": "5010605",
    "prefectureCode": "21",
    "prefectureNumber": 21,
    "prefecture": "岐阜県",
    "city": "揖斐郡揖斐川町",
    "town": "極楽寺"
  },
  "5010606": {
    "zipcode": "5010606",
    "prefectureCode": "21",
    "prefectureNumber": 21,
    "prefecture": "岐阜県",
    "city": "揖斐郡揖斐川町",
    "town": "房島"
  },
  "5010607": {
    "zipcode": "5010607",
    "prefectureCode": "21",
    "prefectureNumber": 21,
    "prefecture": "岐阜県",
    "city": "揖斐郡揖斐川町",
    "town": "桂"
  },
  "5010611": {
    "zipcode": "5010611",
    "prefectureCode": "21",
    "prefectureNumber": 21,
    "prefecture": "岐阜県",
    "city": "揖斐郡揖斐川町",
    "town": "小谷"
  },
  "5010612": {
    "zipcode": "5010612",
    "prefectureCode": "21",
    "prefectureNumber": 21,
    "prefecture": "岐阜県",
    "city": "揖斐郡揖斐川町",
    "town": "小野"
  },
  "5010613": {
    "zipcode": "5010613",
    "prefectureCode": "21",
    "prefectureNumber": 21,
    "prefecture": "岐阜県",
    "city": "揖斐郡揖斐川町",
    "town": "志津山"
  },
  "5010614": {
    "zipcode": "5010614",
    "prefectureCode": "21",
    "prefectureNumber": 21,
    "prefecture": "岐阜県",
    "city": "揖斐郡揖斐川町",
    "town": "長良"
  },
  "5010615": {
    "zipcode": "5010615",
    "prefectureCode": "21",
    "prefectureNumber": 21,
    "prefecture": "岐阜県",
    "city": "揖斐郡揖斐川町",
    "town": "清水"
  },
  "5010616": {
    "zipcode": "5010616",
    "prefectureCode": "21",
    "prefectureNumber": 21,
    "prefecture": "岐阜県",
    "city": "揖斐郡揖斐川町",
    "town": "福島"
  },
  "5010617": {
    "zipcode": "5010617",
    "prefectureCode": "21",
    "prefectureNumber": 21,
    "prefecture": "岐阜県",
    "city": "揖斐郡揖斐川町",
    "town": "島"
  },
  "5010618": {
    "zipcode": "5010618",
    "prefectureCode": "21",
    "prefectureNumber": 21,
    "prefecture": "岐阜県",
    "city": "揖斐郡揖斐川町",
    "town": "上ミ野"
  },
  "5010619": {
    "zipcode": "5010619",
    "prefectureCode": "21",
    "prefectureNumber": 21,
    "prefecture": "岐阜県",
    "city": "揖斐郡揖斐川町",
    "town": "三輪"
  },
  "5010621": {
    "zipcode": "5010621",
    "prefectureCode": "21",
    "prefectureNumber": 21,
    "prefecture": "岐阜県",
    "city": "揖斐郡揖斐川町",
    "town": "下岡島"
  },
  "5010622": {
    "zipcode": "5010622",
    "prefectureCode": "21",
    "prefectureNumber": 21,
    "prefecture": "岐阜県",
    "city": "揖斐郡揖斐川町",
    "town": "脛永"
  },
  "5010623": {
    "zipcode": "5010623",
    "prefectureCode": "21",
    "prefectureNumber": 21,
    "prefecture": "岐阜県",
    "city": "揖斐郡揖斐川町",
    "town": "和田"
  },
  "5010624": {
    "zipcode": "5010624",
    "prefectureCode": "21",
    "prefectureNumber": 21,
    "prefecture": "岐阜県",
    "city": "揖斐郡揖斐川町",
    "town": "岡"
  },
  "5010625": {
    "zipcode": "5010625",
    "prefectureCode": "21",
    "prefectureNumber": 21,
    "prefecture": "岐阜県",
    "city": "揖斐郡揖斐川町",
    "town": "黒田"
  },
  "5010626": {
    "zipcode": "5010626",
    "prefectureCode": "21",
    "prefectureNumber": 21,
    "prefecture": "岐阜県",
    "city": "揖斐郡揖斐川町",
    "town": "瑞岩寺"
  },
  "5010627": {
    "zipcode": "5010627",
    "prefectureCode": "21",
    "prefectureNumber": 21,
    "prefecture": "岐阜県",
    "city": "揖斐郡揖斐川町",
    "town": "市場"
  },
  "5010628": {
    "zipcode": "5010628",
    "prefectureCode": "21",
    "prefectureNumber": 21,
    "prefecture": "岐阜県",
    "city": "揖斐郡揖斐川町",
    "town": "新宮"
  },
  "5010631": {
    "zipcode": "5010631",
    "prefectureCode": "21",
    "prefectureNumber": 21,
    "prefecture": "岐阜県",
    "city": "揖斐郡揖斐川町",
    "town": "上岡島"
  },
  "5010632": {
    "zipcode": "5010632",
    "prefectureCode": "21",
    "prefectureNumber": 21,
    "prefecture": "岐阜県",
    "city": "揖斐郡揖斐川町",
    "town": "上東野"
  },
  "5010633": {
    "zipcode": "5010633",
    "prefectureCode": "21",
    "prefectureNumber": 21,
    "prefecture": "岐阜県",
    "city": "揖斐郡揖斐川町",
    "town": "小島"
  },
  "5010634": {
    "zipcode": "5010634",
    "prefectureCode": "21",
    "prefectureNumber": 21,
    "prefecture": "岐阜県",
    "city": "揖斐郡揖斐川町",
    "town": "上野"
  },
  "5010635": {
    "zipcode": "5010635",
    "prefectureCode": "21",
    "prefectureNumber": 21,
    "prefecture": "岐阜県",
    "city": "揖斐郡揖斐川町",
    "town": "白樫"
  },
  "5010701": {
    "zipcode": "5010701",
    "prefectureCode": "21",
    "prefectureNumber": 21,
    "prefecture": "岐阜県",
    "city": "揖斐郡揖斐川町",
    "town": "小津"
  },
  "5010702": {
    "zipcode": "5010702",
    "prefectureCode": "21",
    "prefectureNumber": 21,
    "prefecture": "岐阜県",
    "city": "揖斐郡揖斐川町",
    "town": "東津汲"
  },
  "5010703": {
    "zipcode": "5010703",
    "prefectureCode": "21",
    "prefectureNumber": 21,
    "prefecture": "岐阜県",
    "city": "揖斐郡揖斐川町",
    "town": "乙原"
  },
  "5010704": {
    "zipcode": "5010704",
    "prefectureCode": "21",
    "prefectureNumber": 21,
    "prefecture": "岐阜県",
    "city": "揖斐郡揖斐川町",
    "town": "三倉"
  },
  "5010705": {
    "zipcode": "5010705",
    "prefectureCode": "21",
    "prefectureNumber": 21,
    "prefecture": "岐阜県",
    "city": "揖斐郡揖斐川町",
    "town": "外津汲"
  },
  "5010706": {
    "zipcode": "5010706",
    "prefectureCode": "21",
    "prefectureNumber": 21,
    "prefecture": "岐阜県",
    "city": "揖斐郡揖斐川町",
    "town": "西津汲"
  },
  "5010707": {
    "zipcode": "5010707",
    "prefectureCode": "21",
    "prefectureNumber": 21,
    "prefecture": "岐阜県",
    "city": "揖斐郡揖斐川町",
    "town": "日坂"
  },
  "5010708": {
    "zipcode": "5010708",
    "prefectureCode": "21",
    "prefectureNumber": 21,
    "prefecture": "岐阜県",
    "city": "揖斐郡揖斐川町",
    "town": "樫原"
  },
  "5010802": {
    "zipcode": "5010802",
    "prefectureCode": "21",
    "prefectureNumber": 21,
    "prefecture": "岐阜県",
    "city": "揖斐郡揖斐川町",
    "town": "鶴見"
  },
  "5010803": {
    "zipcode": "5010803",
    "prefectureCode": "21",
    "prefectureNumber": 21,
    "prefecture": "岐阜県",
    "city": "揖斐郡揖斐川町",
    "town": "東杉原"
  },
  "5010804": {
    "zipcode": "5010804",
    "prefectureCode": "21",
    "prefectureNumber": 21,
    "prefecture": "岐阜県",
    "city": "揖斐郡揖斐川町",
    "town": "東横山"
  },
  "5010805": {
    "zipcode": "5010805",
    "prefectureCode": "21",
    "prefectureNumber": 21,
    "prefecture": "岐阜県",
    "city": "揖斐郡揖斐川町",
    "town": "西横山"
  },
  "5010811": {
    "zipcode": "5010811",
    "prefectureCode": "21",
    "prefectureNumber": 21,
    "prefecture": "岐阜県",
    "city": "揖斐郡揖斐川町",
    "town": "塚"
  },
  "5010812": {
    "zipcode": "5010812",
    "prefectureCode": "21",
    "prefectureNumber": 21,
    "prefecture": "岐阜県",
    "city": "揖斐郡揖斐川町",
    "town": "櫨原"
  },
  "5010813": {
    "zipcode": "5010813",
    "prefectureCode": "21",
    "prefectureNumber": 21,
    "prefecture": "岐阜県",
    "city": "揖斐郡揖斐川町",
    "town": "山手"
  },
  "5010814": {
    "zipcode": "5010814",
    "prefectureCode": "21",
    "prefectureNumber": 21,
    "prefecture": "岐阜県",
    "city": "揖斐郡揖斐川町",
    "town": "徳山"
  },
  "5010815": {
    "zipcode": "5010815",
    "prefectureCode": "21",
    "prefectureNumber": 21,
    "prefecture": "岐阜県",
    "city": "揖斐郡揖斐川町",
    "town": "開田"
  },
  "5010816": {
    "zipcode": "5010816",
    "prefectureCode": "21",
    "prefectureNumber": 21,
    "prefecture": "岐阜県",
    "city": "揖斐郡揖斐川町",
    "town": "戸入"
  },
  "5010817": {
    "zipcode": "5010817",
    "prefectureCode": "21",
    "prefectureNumber": 21,
    "prefecture": "岐阜県",
    "city": "揖斐郡揖斐川町",
    "town": "門入"
  },
  "5010901": {
    "zipcode": "5010901",
    "prefectureCode": "21",
    "prefectureNumber": 21,
    "prefecture": "岐阜県",
    "city": "揖斐郡揖斐川町",
    "town": "坂内川上"
  },
  "5010902": {
    "zipcode": "5010902",
    "prefectureCode": "21",
    "prefectureNumber": 21,
    "prefecture": "岐阜県",
    "city": "揖斐郡揖斐川町",
    "town": "坂内広瀬"
  },
  "5010903": {
    "zipcode": "5010903",
    "prefectureCode": "21",
    "prefectureNumber": 21,
    "prefecture": "岐阜県",
    "city": "揖斐郡揖斐川町",
    "town": "坂内坂本"
  },
  "5011101": {
    "zipcode": "5011101",
    "prefectureCode": "21",
    "prefectureNumber": 21,
    "prefecture": "岐阜県",
    "city": "岐阜市",
    "town": "佐野"
  },
  "5011102": {
    "zipcode": "5011102",
    "prefectureCode": "21",
    "prefectureNumber": 21,
    "prefecture": "岐阜県",
    "city": "岐阜市",
    "town": "岩利"
  },
  "5011103": {
    "zipcode": "5011103",
    "prefectureCode": "21",
    "prefectureNumber": 21,
    "prefecture": "岐阜県",
    "city": "岐阜市",
    "town": "彦坂川北"
  },
  "5011104": {
    "zipcode": "5011104",
    "prefectureCode": "21",
    "prefectureNumber": 21,
    "prefecture": "岐阜県",
    "city": "岐阜市",
    "town": "彦坂川上"
  },
  "5011105": {
    "zipcode": "5011105",
    "prefectureCode": "21",
    "prefectureNumber": 21,
    "prefecture": "岐阜県",
    "city": "岐阜市",
    "town": "彦坂"
  },
  "5011106": {
    "zipcode": "5011106",
    "prefectureCode": "21",
    "prefectureNumber": 21,
    "prefecture": "岐阜県",
    "city": "岐阜市",
    "town": "石谷"
  },
  "5011107": {
    "zipcode": "5011107",
    "prefectureCode": "21",
    "prefectureNumber": 21,
    "prefecture": "岐阜県",
    "city": "岐阜市",
    "town": "村山"
  },
  "5011108": {
    "zipcode": "5011108",
    "prefectureCode": "21",
    "prefectureNumber": 21,
    "prefecture": "岐阜県",
    "city": "岐阜市",
    "town": "安食志良古"
  },
  "5011109": {
    "zipcode": "5011109",
    "prefectureCode": "21",
    "prefectureNumber": 21,
    "prefecture": "岐阜県",
    "city": "岐阜市",
    "town": "安食"
  },
  "5011111": {
    "zipcode": "5011111",
    "prefectureCode": "21",
    "prefectureNumber": 21,
    "prefecture": "岐阜県",
    "city": "岐阜市",
    "town": "大学北"
  },
  "5011112": {
    "zipcode": "5011112",
    "prefectureCode": "21",
    "prefectureNumber": 21,
    "prefecture": "岐阜県",
    "city": "岐阜市",
    "town": "柳戸"
  },
  "5011113": {
    "zipcode": "5011113",
    "prefectureCode": "21",
    "prefectureNumber": 21,
    "prefecture": "岐阜県",
    "city": "岐阜市",
    "town": "大学西"
  },
  "5011114": {
    "zipcode": "5011114",
    "prefectureCode": "21",
    "prefectureNumber": 21,
    "prefecture": "岐阜県",
    "city": "岐阜市",
    "town": "今川"
  },
  "5011115": {
    "zipcode": "5011115",
    "prefectureCode": "21",
    "prefectureNumber": 21,
    "prefecture": "岐阜県",
    "city": "岐阜市",
    "town": "交人"
  },
  "5011116": {
    "zipcode": "5011116",
    "prefectureCode": "21",
    "prefectureNumber": 21,
    "prefecture": "岐阜県",
    "city": "岐阜市",
    "town": "深坂"
  },
  "5011121": {
    "zipcode": "5011121",
    "prefectureCode": "21",
    "prefectureNumber": 21,
    "prefecture": "岐阜県",
    "city": "岐阜市",
    "town": "古市場"
  },
  "5011122": {
    "zipcode": "5011122",
    "prefectureCode": "21",
    "prefectureNumber": 21,
    "prefecture": "岐阜県",
    "city": "岐阜市",
    "town": "古市場老ノ上"
  },
  "5011123": {
    "zipcode": "5011123",
    "prefectureCode": "21",
    "prefectureNumber": 21,
    "prefecture": "岐阜県",
    "city": "岐阜市",
    "town": "古市場高田"
  },
  "5011124": {
    "zipcode": "5011124",
    "prefectureCode": "21",
    "prefectureNumber": 21,
    "prefecture": "岐阜県",
    "city": "岐阜市",
    "town": "古市場中原"
  },
  "5011125": {
    "zipcode": "5011125",
    "prefectureCode": "21",
    "prefectureNumber": 21,
    "prefecture": "岐阜県",
    "city": "岐阜市",
    "town": "古市場東町田"
  },
  "5011126": {
    "zipcode": "5011126",
    "prefectureCode": "21",
    "prefectureNumber": 21,
    "prefecture": "岐阜県",
    "city": "岐阜市",
    "town": "古市場高宮"
  },
  "5011127": {
    "zipcode": "5011127",
    "prefectureCode": "21",
    "prefectureNumber": 21,
    "prefecture": "岐阜県",
    "city": "岐阜市",
    "town": "古市場神田"
  },
  "5011128": {
    "zipcode": "5011128",
    "prefectureCode": "21",
    "prefectureNumber": 21,
    "prefecture": "岐阜県",
    "city": "岐阜市",
    "town": "洞"
  },
  "5011131": {
    "zipcode": "5011131",
    "prefectureCode": "21",
    "prefectureNumber": 21,
    "prefecture": "岐阜県",
    "city": "岐阜市",
    "town": "黒野"
  },
  "5011132": {
    "zipcode": "5011132",
    "prefectureCode": "21",
    "prefectureNumber": 21,
    "prefecture": "岐阜県",
    "city": "岐阜市",
    "town": "折立"
  },
  "5011133": {
    "zipcode": "5011133",
    "prefectureCode": "21",
    "prefectureNumber": 21,
    "prefecture": "岐阜県",
    "city": "岐阜市",
    "town": "北柿ケ瀬"
  },
  "5011134": {
    "zipcode": "5011134",
    "prefectureCode": "21",
    "prefectureNumber": 21,
    "prefecture": "岐阜県",
    "city": "岐阜市",
    "town": "南柿ケ瀬"
  },
  "5011135": {
    "zipcode": "5011135",
    "prefectureCode": "21",
    "prefectureNumber": 21,
    "prefecture": "岐阜県",
    "city": "岐阜市",
    "town": "木田"
  },
  "5011136": {
    "zipcode": "5011136",
    "prefectureCode": "21",
    "prefectureNumber": 21,
    "prefecture": "岐阜県",
    "city": "岐阜市",
    "town": "黒野南"
  },
  "5011141": {
    "zipcode": "5011141",
    "prefectureCode": "21",
    "prefectureNumber": 21,
    "prefecture": "岐阜県",
    "city": "岐阜市",
    "town": "東板谷"
  },
  "5011142": {
    "zipcode": "5011142",
    "prefectureCode": "21",
    "prefectureNumber": 21,
    "prefecture": "岐阜県",
    "city": "岐阜市",
    "town": "東改田"
  },
  "5011143": {
    "zipcode": "5011143",
    "prefectureCode": "21",
    "prefectureNumber": 21,
    "prefecture": "岐阜県",
    "city": "岐阜市",
    "town": "東改田鶴田"
  },
  "5011144": {
    "zipcode": "5011144",
    "prefectureCode": "21",
    "prefectureNumber": 21,
    "prefecture": "岐阜県",
    "city": "岐阜市",
    "town": "東改田再勝"
  },
  "5011145": {
    "zipcode": "5011145",
    "prefectureCode": "21",
    "prefectureNumber": 21,
    "prefecture": "岐阜県",
    "city": "岐阜市",
    "town": "東改田腰前田"
  },
  "5011146": {
    "zipcode": "5011146",
    "prefectureCode": "21",
    "prefectureNumber": 21,
    "prefecture": "岐阜県",
    "city": "岐阜市",
    "town": "下尻毛"
  },
  "5011147": {
    "zipcode": "5011147",
    "prefectureCode": "21",
    "prefectureNumber": 21,
    "prefecture": "岐阜県",
    "city": "岐阜市",
    "town": "尻毛"
  },
  "5011148": {
    "zipcode": "5011148",
    "prefectureCode": "21",
    "prefectureNumber": 21,
    "prefecture": "岐阜県",
    "city": "岐阜市",
    "town": "上尻毛日吉"
  },
  "5011149": {
    "zipcode": "5011149",
    "prefectureCode": "21",
    "prefectureNumber": 21,
    "prefecture": "岐阜県",
    "city": "岐阜市",
    "town": "上尻毛八幡"
  },
  "5011150": {
    "zipcode": "5011150",
    "prefectureCode": "21",
    "prefectureNumber": 21,
    "prefecture": "岐阜県",
    "city": "岐阜市",
    "town": "上尻毛"
  },
  "5011151": {
    "zipcode": "5011151",
    "prefectureCode": "21",
    "prefectureNumber": 21,
    "prefecture": "岐阜県",
    "city": "岐阜市",
    "town": "川部"
  },
  "5011152": {
    "zipcode": "5011152",
    "prefectureCode": "21",
    "prefectureNumber": 21,
    "prefecture": "岐阜県",
    "city": "岐阜市",
    "town": "又丸"
  },
  "5011153": {
    "zipcode": "5011153",
    "prefectureCode": "21",
    "prefectureNumber": 21,
    "prefecture": "岐阜県",
    "city": "岐阜市",
    "town": "又丸町畑"
  },
  "5011154": {
    "zipcode": "5011154",
    "prefectureCode": "21",
    "prefectureNumber": 21,
    "prefecture": "岐阜県",
    "city": "岐阜市",
    "town": "又丸柳町"
  },
  "5011155": {
    "zipcode": "5011155",
    "prefectureCode": "21",
    "prefectureNumber": 21,
    "prefecture": "岐阜県",
    "city": "岐阜市",
    "town": "又丸宮東"
  },
  "5011156": {
    "zipcode": "5011156",
    "prefectureCode": "21",
    "prefectureNumber": 21,
    "prefecture": "岐阜県",
    "city": "岐阜市",
    "town": "又丸津島"
  },
  "5011157": {
    "zipcode": "5011157",
    "prefectureCode": "21",
    "prefectureNumber": 21,
    "prefecture": "岐阜県",
    "city": "岐阜市",
    "town": "又丸村中"
  },
  "5011158": {
    "zipcode": "5011158",
    "prefectureCode": "21",
    "prefectureNumber": 21,
    "prefecture": "岐阜県",
    "city": "岐阜市",
    "town": "西改田先道"
  },
  "5011159": {
    "zipcode": "5011159",
    "prefectureCode": "21",
    "prefectureNumber": 21,
    "prefecture": "岐阜県",
    "city": "岐阜市",
    "town": "西改田松の木"
  },
  "5011161": {
    "zipcode": "5011161",
    "prefectureCode": "21",
    "prefectureNumber": 21,
    "prefecture": "岐阜県",
    "city": "岐阜市",
    "town": "西改田川向"
  },
  "5011162": {
    "zipcode": "5011162",
    "prefectureCode": "21",
    "prefectureNumber": 21,
    "prefecture": "岐阜県",
    "city": "岐阜市",
    "town": "西改田若宮"
  },
  "5011163": {
    "zipcode": "5011163",
    "prefectureCode": "21",
    "prefectureNumber": 21,
    "prefecture": "岐阜県",
    "city": "岐阜市",
    "town": "西改田米野"
  },
  "5011164": {
    "zipcode": "5011164",
    "prefectureCode": "21",
    "prefectureNumber": 21,
    "prefecture": "岐阜県",
    "city": "岐阜市",
    "town": "西改田東改田入会地"
  },
  "5011165": {
    "zipcode": "5011165",
    "prefectureCode": "21",
    "prefectureNumber": 21,
    "prefecture": "岐阜県",
    "city": "岐阜市",
    "town": "西改田宮西"
  },
  "5011166": {
    "zipcode": "5011166",
    "prefectureCode": "21",
    "prefectureNumber": 21,
    "prefecture": "岐阜県",
    "city": "岐阜市",
    "town": "西改田村前"
  },
  "5011167": {
    "zipcode": "5011167",
    "prefectureCode": "21",
    "prefectureNumber": 21,
    "prefecture": "岐阜県",
    "city": "岐阜市",
    "town": "西改田夏梅"
  },
  "5011168": {
    "zipcode": "5011168",
    "prefectureCode": "21",
    "prefectureNumber": 21,
    "prefecture": "岐阜県",
    "city": "岐阜市",
    "town": "西改田上の町"
  },
  "5011169": {
    "zipcode": "5011169",
    "prefectureCode": "21",
    "prefectureNumber": 21,
    "prefecture": "岐阜県",
    "city": "岐阜市",
    "town": "西改田七石"
  },
  "5011171": {
    "zipcode": "5011171",
    "prefectureCode": "21",
    "prefectureNumber": 21,
    "prefecture": "岐阜県",
    "city": "岐阜市",
    "town": "御望"
  },
  "5011172": {
    "zipcode": "5011172",
    "prefectureCode": "21",
    "prefectureNumber": 21,
    "prefecture": "岐阜県",
    "city": "岐阜市",
    "town": "下鵜飼"
  },
  "5011173": {
    "zipcode": "5011173",
    "prefectureCode": "21",
    "prefectureNumber": 21,
    "prefecture": "岐阜県",
    "city": "岐阜市",
    "town": "中"
  },
  "5011174": {
    "zipcode": "5011174",
    "prefectureCode": "21",
    "prefectureNumber": 21,
    "prefecture": "岐阜県",
    "city": "岐阜市",
    "town": "小野"
  },
  "5011175": {
    "zipcode": "5011175",
    "prefectureCode": "21",
    "prefectureNumber": 21,
    "prefecture": "岐阜県",
    "city": "岐阜市",
    "town": "下西郷"
  },
  "5011176": {
    "zipcode": "5011176",
    "prefectureCode": "21",
    "prefectureNumber": 21,
    "prefecture": "岐阜県",
    "city": "岐阜市",
    "town": "小西郷"
  },
  "5011177": {
    "zipcode": "5011177",
    "prefectureCode": "21",
    "prefectureNumber": 21,
    "prefecture": "岐阜県",
    "city": "岐阜市",
    "town": "中西郷"
  },
  "5011178": {
    "zipcode": "5011178",
    "prefectureCode": "21",
    "prefectureNumber": 21,
    "prefecture": "岐阜県",
    "city": "岐阜市",
    "town": "上西郷"
  },
  "5011181": {
    "zipcode": "5011181",
    "prefectureCode": "21",
    "prefectureNumber": 21,
    "prefecture": "岐阜県",
    "city": "岐阜市",
    "town": "雛倉"
  },
  "5011182": {
    "zipcode": "5011182",
    "prefectureCode": "21",
    "prefectureNumber": 21,
    "prefecture": "岐阜県",
    "city": "岐阜市",
    "town": "秋沢"
  },
  "5011183": {
    "zipcode": "5011183",
    "prefectureCode": "21",
    "prefectureNumber": 21,
    "prefecture": "岐阜県",
    "city": "岐阜市",
    "town": "則松"
  },
  "5011184": {
    "zipcode": "5011184",
    "prefectureCode": "21",
    "prefectureNumber": 21,
    "prefecture": "岐阜県",
    "city": "岐阜市",
    "town": "西秋沢"
  },
  "5011185": {
    "zipcode": "5011185",
    "prefectureCode": "21",
    "prefectureNumber": 21,
    "prefecture": "岐阜県",
    "city": "岐阜市",
    "town": "奥"
  },
  "5011186": {
    "zipcode": "5011186",
    "prefectureCode": "21",
    "prefectureNumber": 21,
    "prefecture": "岐阜県",
    "city": "岐阜市",
    "town": "外山"
  },
  "5011201": {
    "zipcode": "5011201",
    "prefectureCode": "21",
    "prefectureNumber": 21,
    "prefecture": "岐阜県",
    "city": "本巣市",
    "town": "山口"
  },
  "5011202": {
    "zipcode": "5011202",
    "prefectureCode": "21",
    "prefectureNumber": 21,
    "prefecture": "岐阜県",
    "city": "本巣市",
    "town": "法林寺"
  },
  "5011203": {
    "zipcode": "5011203",
    "prefectureCode": "21",
    "prefectureNumber": 21,
    "prefecture": "岐阜県",
    "city": "本巣市",
    "town": "文殊"
  },
  "5011205": {
    "zipcode": "5011205",
    "prefectureCode": "21",
    "prefectureNumber": 21,
    "prefecture": "岐阜県",
    "city": "本巣市",
    "town": "曽井中島"
  },
  "5011231": {
    "zipcode": "5011231",
    "prefectureCode": "21",
    "prefectureNumber": 21,
    "prefecture": "岐阜県",
    "city": "本巣市",
    "town": "日当"
  },
  "5011232": {
    "zipcode": "5011232",
    "prefectureCode": "21",
    "prefectureNumber": 21,
    "prefecture": "岐阜県",
    "city": "本巣市",
    "town": "金原"
  },
  "5011233": {
    "zipcode": "5011233",
    "prefectureCode": "21",
    "prefectureNumber": 21,
    "prefecture": "岐阜県",
    "city": "本巣市",
    "town": "外山"
  },
  "5011234": {
    "zipcode": "5011234",
    "prefectureCode": "21",
    "prefectureNumber": 21,
    "prefecture": "岐阜県",
    "city": "本巣市",
    "town": "木知原"
  },
  "5011235": {
    "zipcode": "5011235",
    "prefectureCode": "21",
    "prefectureNumber": 21,
    "prefecture": "岐阜県",
    "city": "本巣市",
    "town": "神海"
  },
  "5011236": {
    "zipcode": "5011236",
    "prefectureCode": "21",
    "prefectureNumber": 21,
    "prefecture": "岐阜県",
    "city": "本巣市",
    "town": "鍋原"
  },
  "5011301": {
    "zipcode": "5011301",
    "prefectureCode": "21",
    "prefectureNumber": 21,
    "prefecture": "岐阜県",
    "city": "揖斐郡揖斐川町",
    "town": "谷汲高科"
  },
  "5011302": {
    "zipcode": "5011302",
    "prefectureCode": "21",
    "prefectureNumber": 21,
    "prefecture": "岐阜県",
    "city": "揖斐郡揖斐川町",
    "town": "谷汲岐礼"
  },
  "5011303": {
    "zipcode": "5011303",
    "prefectureCode": "21",
    "prefectureNumber": 21,
    "prefecture": "岐阜県",
    "city": "揖斐郡揖斐川町",
    "town": "谷汲長瀬"
  },
  "5011311": {
    "zipcode": "5011311",
    "prefectureCode": "21",
    "prefectureNumber": 21,
    "prefecture": "岐阜県",
    "city": "揖斐郡揖斐川町",
    "town": "谷汲徳積"
  },
  "5011312": {
    "zipcode": "5011312",
    "prefectureCode": "21",
    "prefectureNumber": 21,
    "prefecture": "岐阜県",
    "city": "揖斐郡揖斐川町",
    "town": "谷汲大洞"
  },
  "5011313": {
    "zipcode": "5011313",
    "prefectureCode": "21",
    "prefectureNumber": 21,
    "prefecture": "岐阜県",
    "city": "揖斐郡揖斐川町",
    "town": "谷汲深坂"
  },
  "5011314": {
    "zipcode": "5011314",
    "prefectureCode": "21",
    "prefectureNumber": 21,
    "prefecture": "岐阜県",
    "city": "揖斐郡揖斐川町",
    "town": "谷汲名礼"
  },
  "5011315": {
    "zipcode": "5011315",
    "prefectureCode": "21",
    "prefectureNumber": 21,
    "prefecture": "岐阜県",
    "city": "揖斐郡揖斐川町",
    "town": "谷汲有鳥"
  },
  "5011316": {
    "zipcode": "5011316",
    "prefectureCode": "21",
    "prefectureNumber": 21,
    "prefecture": "岐阜県",
    "city": "揖斐郡揖斐川町",
    "town": "谷汲木曽屋"
  },
  "5011317": {
    "zipcode": "5011317",
    "prefectureCode": "21",
    "prefectureNumber": 21,
    "prefecture": "岐阜県",
    "city": "揖斐郡揖斐川町",
    "town": "谷汲神原"
  },
  "5011501": {
    "zipcode": "5011501",
    "prefectureCode": "21",
    "prefectureNumber": 21,
    "prefecture": "岐阜県",
    "city": "本巣市",
    "town": "根尾越波"
  },
  "5011502": {
    "zipcode": "5011502",
    "prefectureCode": "21",
    "prefectureNumber": 21,
    "prefecture": "岐阜県",
    "city": "本巣市",
    "town": "根尾黒津"
  },
  "5011503": {
    "zipcode": "5011503",
    "prefectureCode": "21",
    "prefectureNumber": 21,
    "prefecture": "岐阜県",
    "city": "本巣市",
    "town": "根尾長嶺"
  },
  "5011504": {
    "zipcode": "5011504",
    "prefectureCode": "21",
    "prefectureNumber": 21,
    "prefecture": "岐阜県",
    "city": "本巣市",
    "town": "根尾天神堂"
  },
  "5011505": {
    "zipcode": "5011505",
    "prefectureCode": "21",
    "prefectureNumber": 21,
    "prefecture": "岐阜県",
    "city": "本巣市",
    "town": "根尾長島"
  },
  "5011506": {
    "zipcode": "5011506",
    "prefectureCode": "21",
    "prefectureNumber": 21,
    "prefecture": "岐阜県",
    "city": "本巣市",
    "town": "根尾能郷"
  },
  "5011507": {
    "zipcode": "5011507",
    "prefectureCode": "21",
    "prefectureNumber": 21,
    "prefecture": "岐阜県",
    "city": "本巣市",
    "town": "根尾大河原"
  },
  "5011511": {
    "zipcode": "5011511",
    "prefectureCode": "21",
    "prefectureNumber": 21,
    "prefecture": "岐阜県",
    "city": "本巣市",
    "town": "根尾上大須"
  },
  "5011512": {
    "zipcode": "5011512",
    "prefectureCode": "21",
    "prefectureNumber": 21,
    "prefecture": "岐阜県",
    "city": "本巣市",
    "town": "根尾下大須"
  },
  "5011513": {
    "zipcode": "5011513",
    "prefectureCode": "21",
    "prefectureNumber": 21,
    "prefecture": "岐阜県",
    "city": "本巣市",
    "town": "根尾松田"
  },
  "5011514": {
    "zipcode": "5011514",
    "prefectureCode": "21",
    "prefectureNumber": 21,
    "prefecture": "岐阜県",
    "city": "本巣市",
    "town": "根尾奥谷"
  },
  "5011515": {
    "zipcode": "5011515",
    "prefectureCode": "21",
    "prefectureNumber": 21,
    "prefecture": "岐阜県",
    "city": "本巣市",
    "town": "根尾口谷"
  },
  "5011516": {
    "zipcode": "5011516",
    "prefectureCode": "21",
    "prefectureNumber": 21,
    "prefecture": "岐阜県",
    "city": "本巣市",
    "town": "根尾東板屋"
  },
  "5011517": {
    "zipcode": "5011517",
    "prefectureCode": "21",
    "prefectureNumber": 21,
    "prefecture": "岐阜県",
    "city": "本巣市",
    "town": "根尾西板屋"
  },
  "5011518": {
    "zipcode": "5011518",
    "prefectureCode": "21",
    "prefectureNumber": 21,
    "prefecture": "岐阜県",
    "city": "本巣市",
    "town": "根尾小鹿"
  },
  "5011521": {
    "zipcode": "5011521",
    "prefectureCode": "21",
    "prefectureNumber": 21,
    "prefecture": "岐阜県",
    "city": "本巣市",
    "town": "根尾市場"
  },
  "5011522": {
    "zipcode": "5011522",
    "prefectureCode": "21",
    "prefectureNumber": 21,
    "prefecture": "岐阜県",
    "city": "本巣市",
    "town": "根尾樽見"
  },
  "5011523": {
    "zipcode": "5011523",
    "prefectureCode": "21",
    "prefectureNumber": 21,
    "prefecture": "岐阜県",
    "city": "本巣市",
    "town": "根尾川原"
  },
  "5011524": {
    "zipcode": "5011524",
    "prefectureCode": "21",
    "prefectureNumber": 21,
    "prefecture": "岐阜県",
    "city": "本巣市",
    "town": "根尾板所"
  },
  "5011525": {
    "zipcode": "5011525",
    "prefectureCode": "21",
    "prefectureNumber": 21,
    "prefecture": "岐阜県",
    "city": "本巣市",
    "town": "根尾今村"
  },
  "5011526": {
    "zipcode": "5011526",
    "prefectureCode": "21",
    "prefectureNumber": 21,
    "prefecture": "岐阜県",
    "city": "本巣市",
    "town": "根尾平野"
  },
  "5011527": {
    "zipcode": "5011527",
    "prefectureCode": "21",
    "prefectureNumber": 21,
    "prefecture": "岐阜県",
    "city": "本巣市",
    "town": "根尾宇津志"
  },
  "5011528": {
    "zipcode": "5011528",
    "prefectureCode": "21",
    "prefectureNumber": 21,
    "prefecture": "岐阜県",
    "city": "本巣市",
    "town": "根尾高尾"
  },
  "5011529": {
    "zipcode": "5011529",
    "prefectureCode": "21",
    "prefectureNumber": 21,
    "prefecture": "岐阜県",
    "city": "本巣市",
    "town": "根尾水鳥"
  },
  "5011531": {
    "zipcode": "5011531",
    "prefectureCode": "21",
    "prefectureNumber": 21,
    "prefecture": "岐阜県",
    "city": "本巣市",
    "town": "根尾門脇"
  },
  "5011532": {
    "zipcode": "5011532",
    "prefectureCode": "21",
    "prefectureNumber": 21,
    "prefecture": "岐阜県",
    "city": "本巣市",
    "town": "根尾越卒"
  },
  "5011533": {
    "zipcode": "5011533",
    "prefectureCode": "21",
    "prefectureNumber": 21,
    "prefecture": "岐阜県",
    "city": "本巣市",
    "town": "根尾中"
  },
  "5011534": {
    "zipcode": "5011534",
    "prefectureCode": "21",
    "prefectureNumber": 21,
    "prefecture": "岐阜県",
    "city": "本巣市",
    "town": "根尾神所"
  },
  "5011535": {
    "zipcode": "5011535",
    "prefectureCode": "21",
    "prefectureNumber": 21,
    "prefecture": "岐阜県",
    "city": "本巣市",
    "town": "根尾大井"
  },
  "5011536": {
    "zipcode": "5011536",
    "prefectureCode": "21",
    "prefectureNumber": 21,
    "prefecture": "岐阜県",
    "city": "本巣市",
    "town": "根尾八谷"
  },
  "5012100": {
    "zipcode": "5012100",
    "prefectureCode": "21",
    "prefectureNumber": 21,
    "prefecture": "岐阜県",
    "city": "山県市",
    "town": "以下に掲載がない場合"
  },
  "5012101": {
    "zipcode": "5012101",
    "prefectureCode": "21",
    "prefectureNumber": 21,
    "prefecture": "岐阜県",
    "city": "山県市",
    "town": "大桑"
  },
  "5012102": {
    "zipcode": "5012102",
    "prefectureCode": "21",
    "prefectureNumber": 21,
    "prefecture": "岐阜県",
    "city": "山県市",
    "town": "伊佐美"
  },
  "5012103": {
    "zipcode": "5012103",
    "prefectureCode": "21",
    "prefectureNumber": 21,
    "prefecture": "岐阜県",
    "city": "山県市",
    "town": "椎倉"
  },
  "5012104": {
    "zipcode": "5012104",
    "prefectureCode": "21",
    "prefectureNumber": 21,
    "prefecture": "岐阜県",
    "city": "山県市",
    "town": "東深瀬"
  },
  "5012105": {
    "zipcode": "5012105",
    "prefectureCode": "21",
    "prefectureNumber": 21,
    "prefecture": "岐阜県",
    "city": "山県市",
    "town": "高富"
  },
  "5012111": {
    "zipcode": "5012111",
    "prefectureCode": "21",
    "prefectureNumber": 21,
    "prefecture": "岐阜県",
    "city": "山県市",
    "town": "赤尾"
  },
  "5012112": {
    "zipcode": "5012112",
    "prefectureCode": "21",
    "prefectureNumber": 21,
    "prefecture": "岐阜県",
    "city": "山県市",
    "town": "西深瀬"
  },
  "5012113": {
    "zipcode": "5012113",
    "prefectureCode": "21",
    "prefectureNumber": 21,
    "prefecture": "岐阜県",
    "city": "山県市",
    "town": "高木"
  },
  "5012114": {
    "zipcode": "5012114",
    "prefectureCode": "21",
    "prefectureNumber": 21,
    "prefecture": "岐阜県",
    "city": "山県市",
    "town": "佐賀"
  },
  "5012115": {
    "zipcode": "5012115",
    "prefectureCode": "21",
    "prefectureNumber": 21,
    "prefecture": "岐阜県",
    "city": "山県市",
    "town": "梅原"
  },
  "5012121": {
    "zipcode": "5012121",
    "prefectureCode": "21",
    "prefectureNumber": 21,
    "prefecture": "岐阜県",
    "city": "山県市",
    "town": "大門"
  },
  "5012122": {
    "zipcode": "5012122",
    "prefectureCode": "21",
    "prefectureNumber": 21,
    "prefecture": "岐阜県",
    "city": "山県市",
    "town": "藤倉"
  },
  "5012123": {
    "zipcode": "5012123",
    "prefectureCode": "21",
    "prefectureNumber": 21,
    "prefecture": "岐阜県",
    "city": "山県市",
    "town": "大森"
  },
  "5012124": {
    "zipcode": "5012124",
    "prefectureCode": "21",
    "prefectureNumber": 21,
    "prefecture": "岐阜県",
    "city": "山県市",
    "town": "小倉"
  },
  "5012125": {
    "zipcode": "5012125",
    "prefectureCode": "21",
    "prefectureNumber": 21,
    "prefecture": "岐阜県",
    "city": "山県市",
    "town": "洞田"
  },
  "5012131": {
    "zipcode": "5012131",
    "prefectureCode": "21",
    "prefectureNumber": 21,
    "prefecture": "岐阜県",
    "city": "山県市",
    "town": "平井"
  },
  "5012132": {
    "zipcode": "5012132",
    "prefectureCode": "21",
    "prefectureNumber": 21,
    "prefecture": "岐阜県",
    "city": "山県市",
    "town": "掛"
  },
  "5012133": {
    "zipcode": "5012133",
    "prefectureCode": "21",
    "prefectureNumber": 21,
    "prefecture": "岐阜県",
    "city": "山県市",
    "town": "上願"
  },
  "5012134": {
    "zipcode": "5012134",
    "prefectureCode": "21",
    "prefectureNumber": 21,
    "prefecture": "岐阜県",
    "city": "山県市",
    "town": "松尾"
  },
  "5012135": {
    "zipcode": "5012135",
    "prefectureCode": "21",
    "prefectureNumber": 21,
    "prefecture": "岐阜県",
    "city": "山県市",
    "town": "長滝"
  },
  "5012251": {
    "zipcode": "5012251",
    "prefectureCode": "21",
    "prefectureNumber": 21,
    "prefecture": "岐阜県",
    "city": "山県市",
    "town": "柿野"
  },
  "5012252": {
    "zipcode": "5012252",
    "prefectureCode": "21",
    "prefectureNumber": 21,
    "prefecture": "岐阜県",
    "city": "山県市",
    "town": "相戸"
  },
  "5012253": {
    "zipcode": "5012253",
    "prefectureCode": "21",
    "prefectureNumber": 21,
    "prefecture": "岐阜県",
    "city": "山県市",
    "town": "日永"
  },
  "5012254": {
    "zipcode": "5012254",
    "prefectureCode": "21",
    "prefectureNumber": 21,
    "prefecture": "岐阜県",
    "city": "山県市",
    "town": "出戸"
  },
  "5012255": {
    "zipcode": "5012255",
    "prefectureCode": "21",
    "prefectureNumber": 21,
    "prefecture": "岐阜県",
    "city": "山県市",
    "town": "船越"
  },
  "5012256": {
    "zipcode": "5012256",
    "prefectureCode": "21",
    "prefectureNumber": 21,
    "prefecture": "岐阜県",
    "city": "山県市",
    "town": "青波"
  },
  "5012257": {
    "zipcode": "5012257",
    "prefectureCode": "21",
    "prefectureNumber": 21,
    "prefecture": "岐阜県",
    "city": "山県市",
    "town": "富永"
  },
  "5012258": {
    "zipcode": "5012258",
    "prefectureCode": "21",
    "prefectureNumber": 21,
    "prefecture": "岐阜県",
    "city": "山県市",
    "town": "中洞"
  },
  "5012259": {
    "zipcode": "5012259",
    "prefectureCode": "21",
    "prefectureNumber": 21,
    "prefecture": "岐阜県",
    "city": "山県市",
    "town": "岩佐"
  },
  "5012301": {
    "zipcode": "5012301",
    "prefectureCode": "21",
    "prefectureNumber": 21,
    "prefecture": "岐阜県",
    "city": "山県市",
    "town": "神崎"
  },
  "5012302": {
    "zipcode": "5012302",
    "prefectureCode": "21",
    "prefectureNumber": 21,
    "prefecture": "岐阜県",
    "city": "山県市",
    "town": "円原"
  },
  "5012303": {
    "zipcode": "5012303",
    "prefectureCode": "21",
    "prefectureNumber": 21,
    "prefecture": "岐阜県",
    "city": "山県市",
    "town": "片原"
  },
  "5012311": {
    "zipcode": "5012311",
    "prefectureCode": "21",
    "prefectureNumber": 21,
    "prefecture": "岐阜県",
    "city": "山県市",
    "town": "椿"
  },
  "5012312": {
    "zipcode": "5012312",
    "prefectureCode": "21",
    "prefectureNumber": 21,
    "prefecture": "岐阜県",
    "city": "山県市",
    "town": "佐野"
  },
  "5012313": {
    "zipcode": "5012313",
    "prefectureCode": "21",
    "prefectureNumber": 21,
    "prefecture": "岐阜県",
    "city": "山県市",
    "town": "徳永"
  },
  "5012314": {
    "zipcode": "5012314",
    "prefectureCode": "21",
    "prefectureNumber": 21,
    "prefecture": "岐阜県",
    "city": "山県市",
    "town": "笹賀"
  },
  "5012315": {
    "zipcode": "5012315",
    "prefectureCode": "21",
    "prefectureNumber": 21,
    "prefecture": "岐阜県",
    "city": "山県市",
    "town": "田栗"
  },
  "5012321": {
    "zipcode": "5012321",
    "prefectureCode": "21",
    "prefectureNumber": 21,
    "prefecture": "岐阜県",
    "city": "山県市",
    "town": "谷合"
  },
  "5012331": {
    "zipcode": "5012331",
    "prefectureCode": "21",
    "prefectureNumber": 21,
    "prefecture": "岐阜県",
    "city": "山県市",
    "town": "葛原"
  },
  "5012501": {
    "zipcode": "5012501",
    "prefectureCode": "21",
    "prefectureNumber": 21,
    "prefecture": "岐阜県",
    "city": "岐阜市",
    "town": "出屋敷"
  },
  "5012502": {
    "zipcode": "5012502",
    "prefectureCode": "21",
    "prefectureNumber": 21,
    "prefecture": "岐阜県",
    "city": "岐阜市",
    "town": "山県北野"
  },
  "5012503": {
    "zipcode": "5012503",
    "prefectureCode": "21",
    "prefectureNumber": 21,
    "prefecture": "岐阜県",
    "city": "岐阜市",
    "town": "北野阿原"
  },
  "5012504": {
    "zipcode": "5012504",
    "prefectureCode": "21",
    "prefectureNumber": 21,
    "prefecture": "岐阜県",
    "city": "岐阜市",
    "town": "山県岩"
  },
  "5012505": {
    "zipcode": "5012505",
    "prefectureCode": "21",
    "prefectureNumber": 21,
    "prefecture": "岐阜県",
    "city": "岐阜市",
    "town": "山県岩東"
  },
  "5012506": {
    "zipcode": "5012506",
    "prefectureCode": "21",
    "prefectureNumber": 21,
    "prefecture": "岐阜県",
    "city": "岐阜市",
    "town": "山県岩南"
  },
  "5012507": {
    "zipcode": "5012507",
    "prefectureCode": "21",
    "prefectureNumber": 21,
    "prefecture": "岐阜県",
    "city": "岐阜市",
    "town": "山県岩中"
  },
  "5012508": {
    "zipcode": "5012508",
    "prefectureCode": "21",
    "prefectureNumber": 21,
    "prefecture": "岐阜県",
    "city": "岐阜市",
    "town": "山県岩明光"
  },
  "5012509": {
    "zipcode": "5012509",
    "prefectureCode": "21",
    "prefectureNumber": 21,
    "prefecture": "岐阜県",
    "city": "岐阜市",
    "town": "山県岩西"
  },
  "5012511": {
    "zipcode": "5012511",
    "prefectureCode": "21",
    "prefectureNumber": 21,
    "prefecture": "岐阜県",
    "city": "岐阜市",
    "town": "北野北"
  },
  "5012512": {
    "zipcode": "5012512",
    "prefectureCode": "21",
    "prefectureNumber": 21,
    "prefecture": "岐阜県",
    "city": "岐阜市",
    "town": "北野東"
  },
  "5012513": {
    "zipcode": "5012513",
    "prefectureCode": "21",
    "prefectureNumber": 21,
    "prefecture": "岐阜県",
    "city": "岐阜市",
    "town": "三輪"
  },
  "5012514": {
    "zipcode": "5012514",
    "prefectureCode": "21",
    "prefectureNumber": 21,
    "prefecture": "岐阜県",
    "city": "岐阜市",
    "town": "三輪宮前"
  },
  "5012515": {
    "zipcode": "5012515",
    "prefectureCode": "21",
    "prefectureNumber": 21,
    "prefecture": "岐阜県",
    "city": "岐阜市",
    "town": "三輪宮西"
  },
  "5012516": {
    "zipcode": "5012516",
    "prefectureCode": "21",
    "prefectureNumber": 21,
    "prefecture": "岐阜県",
    "city": "岐阜市",
    "town": "北野南"
  },
  "5012517": {
    "zipcode": "5012517",
    "prefectureCode": "21",
    "prefectureNumber": 21,
    "prefecture": "岐阜県",
    "city": "岐阜市",
    "town": "三輪ぷりんとぴあ"
  },
  "5012518": {
    "zipcode": "5012518",
    "prefectureCode": "21",
    "prefectureNumber": 21,
    "prefecture": "岐阜県",
    "city": "岐阜市",
    "town": "北野西"
  },
  "5012519": {
    "zipcode": "5012519",
    "prefectureCode": "21",
    "prefectureNumber": 21,
    "prefecture": "岐阜県",
    "city": "岐阜市",
    "town": "北野西山"
  },
  "5012521": {
    "zipcode": "5012521",
    "prefectureCode": "21",
    "prefectureNumber": 21,
    "prefecture": "岐阜県",
    "city": "岐阜市",
    "town": "門屋"
  },
  "5012522": {
    "zipcode": "5012522",
    "prefectureCode": "21",
    "prefectureNumber": 21,
    "prefecture": "岐阜県",
    "city": "岐阜市",
    "town": "門屋溝上"
  },
  "5012523": {
    "zipcode": "5012523",
    "prefectureCode": "21",
    "prefectureNumber": 21,
    "prefecture": "岐阜県",
    "city": "岐阜市",
    "town": "茂地"
  },
  "5012524": {
    "zipcode": "5012524",
    "prefectureCode": "21",
    "prefectureNumber": 21,
    "prefecture": "岐阜県",
    "city": "岐阜市",
    "town": "春近古市場北"
  },
  "5012525": {
    "zipcode": "5012525",
    "prefectureCode": "21",
    "prefectureNumber": 21,
    "prefecture": "岐阜県",
    "city": "岐阜市",
    "town": "春近古市場南"
  },
  "5012526": {
    "zipcode": "5012526",
    "prefectureCode": "21",
    "prefectureNumber": 21,
    "prefecture": "岐阜県",
    "city": "岐阜市",
    "town": "門屋野崎"
  },
  "5012527": {
    "zipcode": "5012527",
    "prefectureCode": "21",
    "prefectureNumber": 21,
    "prefecture": "岐阜県",
    "city": "岐阜市",
    "town": "門屋勢引"
  },
  "5012528": {
    "zipcode": "5012528",
    "prefectureCode": "21",
    "prefectureNumber": 21,
    "prefecture": "岐阜県",
    "city": "岐阜市",
    "town": "門屋門"
  },
  "5012531": {
    "zipcode": "5012531",
    "prefectureCode": "21",
    "prefectureNumber": 21,
    "prefecture": "岐阜県",
    "city": "岐阜市",
    "town": "中屋東"
  },
  "5012532": {
    "zipcode": "5012532",
    "prefectureCode": "21",
    "prefectureNumber": 21,
    "prefecture": "岐阜県",
    "city": "岐阜市",
    "town": "中屋西"
  },
  "5012533": {
    "zipcode": "5012533",
    "prefectureCode": "21",
    "prefectureNumber": 21,
    "prefecture": "岐阜県",
    "city": "岐阜市",
    "town": "森東"
  },
  "5012534": {
    "zipcode": "5012534",
    "prefectureCode": "21",
    "prefectureNumber": 21,
    "prefecture": "岐阜県",
    "city": "岐阜市",
    "town": "森西"
  },
  "5012535": {
    "zipcode": "5012535",
    "prefectureCode": "21",
    "prefectureNumber": 21,
    "prefecture": "岐阜県",
    "city": "岐阜市",
    "town": "石原（１〜３丁目）"
  },
  "5012536": {
    "zipcode": "5012536",
    "prefectureCode": "21",
    "prefectureNumber": 21,
    "prefecture": "岐阜県",
    "city": "岐阜市",
    "town": "太郎丸樫木"
  },
  "5012541": {
    "zipcode": "5012541",
    "prefectureCode": "21",
    "prefectureNumber": 21,
    "prefecture": "岐阜県",
    "city": "岐阜市",
    "town": "世保"
  },
  "5012542": {
    "zipcode": "5012542",
    "prefectureCode": "21",
    "prefectureNumber": 21,
    "prefecture": "岐阜県",
    "city": "岐阜市",
    "town": "世保東"
  },
  "5012543": {
    "zipcode": "5012543",
    "prefectureCode": "21",
    "prefectureNumber": 21,
    "prefecture": "岐阜県",
    "city": "岐阜市",
    "town": "世保南"
  },
  "5012544": {
    "zipcode": "5012544",
    "prefectureCode": "21",
    "prefectureNumber": 21,
    "prefecture": "岐阜県",
    "city": "岐阜市",
    "town": "世保西"
  },
  "5012545": {
    "zipcode": "5012545",
    "prefectureCode": "21",
    "prefectureNumber": 21,
    "prefecture": "岐阜県",
    "city": "岐阜市",
    "town": "世保北"
  },
  "5012551": {
    "zipcode": "5012551",
    "prefectureCode": "21",
    "prefectureNumber": 21,
    "prefecture": "岐阜県",
    "city": "岐阜市",
    "town": "溝口"
  },
  "5012552": {
    "zipcode": "5012552",
    "prefectureCode": "21",
    "prefectureNumber": 21,
    "prefecture": "岐阜県",
    "city": "岐阜市",
    "town": "溝口東"
  },
  "5012553": {
    "zipcode": "5012553",
    "prefectureCode": "21",
    "prefectureNumber": 21,
    "prefecture": "岐阜県",
    "city": "岐阜市",
    "town": "溝口中野"
  },
  "5012554": {
    "zipcode": "5012554",
    "prefectureCode": "21",
    "prefectureNumber": 21,
    "prefecture": "岐阜県",
    "city": "岐阜市",
    "town": "溝口童子"
  },
  "5012555": {
    "zipcode": "5012555",
    "prefectureCode": "21",
    "prefectureNumber": 21,
    "prefecture": "岐阜県",
    "city": "岐阜市",
    "town": "溝口下"
  },
  "5012556": {
    "zipcode": "5012556",
    "prefectureCode": "21",
    "prefectureNumber": 21,
    "prefecture": "岐阜県",
    "city": "岐阜市",
    "town": "溝口中"
  },
  "5012557": {
    "zipcode": "5012557",
    "prefectureCode": "21",
    "prefectureNumber": 21,
    "prefecture": "岐阜県",
    "city": "岐阜市",
    "town": "溝口上"
  },
  "5012561": {
    "zipcode": "5012561",
    "prefectureCode": "21",
    "prefectureNumber": 21,
    "prefecture": "岐阜県",
    "city": "岐阜市",
    "town": "福富笠海道"
  },
  "5012562": {
    "zipcode": "5012562",
    "prefectureCode": "21",
    "prefectureNumber": 21,
    "prefecture": "岐阜県",
    "city": "岐阜市",
    "town": "福富出口"
  },
  "5012563": {
    "zipcode": "5012563",
    "prefectureCode": "21",
    "prefectureNumber": 21,
    "prefecture": "岐阜県",
    "city": "岐阜市",
    "town": "福富迎田"
  },
  "5012564": {
    "zipcode": "5012564",
    "prefectureCode": "21",
    "prefectureNumber": 21,
    "prefecture": "岐阜県",
    "city": "岐阜市",
    "town": "福富永田"
  },
  "5012565": {
    "zipcode": "5012565",
    "prefectureCode": "21",
    "prefectureNumber": 21,
    "prefecture": "岐阜県",
    "city": "岐阜市",
    "town": "福富"
  },
  "5012566": {
    "zipcode": "5012566",
    "prefectureCode": "21",
    "prefectureNumber": 21,
    "prefecture": "岐阜県",
    "city": "岐阜市",
    "town": "福富天神前"
  },
  "5012567": {
    "zipcode": "5012567",
    "prefectureCode": "21",
    "prefectureNumber": 21,
    "prefecture": "岐阜県",
    "city": "岐阜市",
    "town": "福富町田"
  },
  "5012571": {
    "zipcode": "5012571",
    "prefectureCode": "21",
    "prefectureNumber": 21,
    "prefecture": "岐阜県",
    "city": "岐阜市",
    "town": "太郎丸向良"
  },
  "5012572": {
    "zipcode": "5012572",
    "prefectureCode": "21",
    "prefectureNumber": 21,
    "prefecture": "岐阜県",
    "city": "岐阜市",
    "town": "太郎丸北郷"
  },
  "5012573": {
    "zipcode": "5012573",
    "prefectureCode": "21",
    "prefectureNumber": 21,
    "prefecture": "岐阜県",
    "city": "岐阜市",
    "town": "太郎丸諏訪"
  },
  "5012574": {
    "zipcode": "5012574",
    "prefectureCode": "21",
    "prefectureNumber": 21,
    "prefecture": "岐阜県",
    "city": "岐阜市",
    "town": "太郎丸北浦"
  },
  "5012575": {
    "zipcode": "5012575",
    "prefectureCode": "21",
    "prefectureNumber": 21,
    "prefecture": "岐阜県",
    "city": "岐阜市",
    "town": "太郎丸中島"
  },
  "5012576": {
    "zipcode": "5012576",
    "prefectureCode": "21",
    "prefectureNumber": 21,
    "prefecture": "岐阜県",
    "city": "岐阜市",
    "town": "太郎丸新屋敷"
  },
  "5012577": {
    "zipcode": "5012577",
    "prefectureCode": "21",
    "prefectureNumber": 21,
    "prefecture": "岐阜県",
    "city": "岐阜市",
    "town": "太郎丸"
  },
  "5012578": {
    "zipcode": "5012578",
    "prefectureCode": "21",
    "prefectureNumber": 21,
    "prefecture": "岐阜県",
    "city": "岐阜市",
    "town": "太郎丸野田"
  },
  "5012579": {
    "zipcode": "5012579",
    "prefectureCode": "21",
    "prefectureNumber": 21,
    "prefecture": "岐阜県",
    "city": "岐阜市",
    "town": "太郎丸知之道"
  },
  "5012601": {
    "zipcode": "5012601",
    "prefectureCode": "21",
    "prefectureNumber": 21,
    "prefecture": "岐阜県",
    "city": "関市",
    "town": "武芸川町谷口"
  },
  "5012602": {
    "zipcode": "5012602",
    "prefectureCode": "21",
    "prefectureNumber": 21,
    "prefecture": "岐阜県",
    "city": "関市",
    "town": "武芸川町小知野"
  },
  "5012603": {
    "zipcode": "5012603",
    "prefectureCode": "21",
    "prefectureNumber": 21,
    "prefecture": "岐阜県",
    "city": "関市",
    "town": "武芸川町八幡"
  },
  "5012604": {
    "zipcode": "5012604",
    "prefectureCode": "21",
    "prefectureNumber": 21,
    "prefecture": "岐阜県",
    "city": "関市",
    "town": "武芸川町高野"
  },
  "5012605": {
    "zipcode": "5012605",
    "prefectureCode": "21",
    "prefectureNumber": 21,
    "prefecture": "岐阜県",
    "city": "関市",
    "town": "武芸川町跡部"
  },
  "5012606": {
    "zipcode": "5012606",
    "prefectureCode": "21",
    "prefectureNumber": 21,
    "prefecture": "岐阜県",
    "city": "関市",
    "town": "武芸川町平"
  },
  "5012607": {
    "zipcode": "5012607",
    "prefectureCode": "21",
    "prefectureNumber": 21,
    "prefecture": "岐阜県",
    "city": "関市",
    "town": "武芸川町宇多院"
  },
  "5012801": {
    "zipcode": "5012801",
    "prefectureCode": "21",
    "prefectureNumber": 21,
    "prefecture": "岐阜県",
    "city": "関市",
    "town": "洞戸栗原"
  },
  "5012802": {
    "zipcode": "5012802",
    "prefectureCode": "21",
    "prefectureNumber": 21,
    "prefecture": "岐阜県",
    "city": "関市",
    "town": "洞戸通元寺"
  },
  "5012803": {
    "zipcode": "5012803",
    "prefectureCode": "21",
    "prefectureNumber": 21,
    "prefecture": "岐阜県",
    "city": "関市",
    "town": "洞戸飛瀬"
  },
  "5012805": {
    "zipcode": "5012805",
    "prefectureCode": "21",
    "prefectureNumber": 21,
    "prefecture": "岐阜県",
    "city": "関市",
    "town": "洞戸尾倉"
  },
  "5012806": {
    "zipcode": "5012806",
    "prefectureCode": "21",
    "prefectureNumber": 21,
    "prefecture": "岐阜県",
    "city": "関市",
    "town": "洞戸高賀"
  },
  "5012807": {
    "zipcode": "5012807",
    "prefectureCode": "21",
    "prefectureNumber": 21,
    "prefecture": "岐阜県",
    "city": "関市",
    "town": "洞戸阿部"
  },
  "5012808": {
    "zipcode": "5012808",
    "prefectureCode": "21",
    "prefectureNumber": 21,
    "prefecture": "岐阜県",
    "city": "関市",
    "town": "洞戸高見"
  },
  "5012809": {
    "zipcode": "5012809",
    "prefectureCode": "21",
    "prefectureNumber": 21,
    "prefecture": "岐阜県",
    "city": "関市",
    "town": "洞戸小瀬見"
  },
  "5012811": {
    "zipcode": "5012811",
    "prefectureCode": "21",
    "prefectureNumber": 21,
    "prefecture": "岐阜県",
    "city": "関市",
    "town": "洞戸片"
  },
  "5012812": {
    "zipcode": "5012812",
    "prefectureCode": "21",
    "prefectureNumber": 21,
    "prefecture": "岐阜県",
    "city": "関市",
    "town": "洞戸市場"
  },
  "5012814": {
    "zipcode": "5012814",
    "prefectureCode": "21",
    "prefectureNumber": 21,
    "prefecture": "岐阜県",
    "city": "関市",
    "town": "洞戸菅谷"
  },
  "5012815": {
    "zipcode": "5012815",
    "prefectureCode": "21",
    "prefectureNumber": 21,
    "prefecture": "岐阜県",
    "city": "関市",
    "town": "洞戸黒谷"
  },
  "5012816": {
    "zipcode": "5012816",
    "prefectureCode": "21",
    "prefectureNumber": 21,
    "prefecture": "岐阜県",
    "city": "関市",
    "town": "洞戸大野"
  },
  "5012817": {
    "zipcode": "5012817",
    "prefectureCode": "21",
    "prefectureNumber": 21,
    "prefecture": "岐阜県",
    "city": "関市",
    "town": "洞戸小坂"
  },
  "5012901": {
    "zipcode": "5012901",
    "prefectureCode": "21",
    "prefectureNumber": 21,
    "prefecture": "岐阜県",
    "city": "関市",
    "town": "板取"
  },
  "5013101": {
    "zipcode": "5013101",
    "prefectureCode": "21",
    "prefectureNumber": 21,
    "prefecture": "岐阜県",
    "city": "岐阜市",
    "town": "岩井"
  },
  "5013102": {
    "zipcode": "5013102",
    "prefectureCode": "21",
    "prefectureNumber": 21,
    "prefecture": "岐阜県",
    "city": "岐阜市",
    "town": "岩井万場"
  },
  "5013104": {
    "zipcode": "5013104",
    "prefectureCode": "21",
    "prefectureNumber": 21,
    "prefecture": "岐阜県",
    "city": "岐阜市",
    "town": "石原（その他）"
  },
  "5013107": {
    "zipcode": "5013107",
    "prefectureCode": "21",
    "prefectureNumber": 21,
    "prefecture": "岐阜県",
    "city": "岐阜市",
    "town": "加野"
  },
  "5013108": {
    "zipcode": "5013108",
    "prefectureCode": "21",
    "prefectureNumber": 21,
    "prefecture": "岐阜県",
    "city": "岐阜市",
    "town": "大蔵台"
  },
  "5013109": {
    "zipcode": "5013109",
    "prefectureCode": "21",
    "prefectureNumber": 21,
    "prefecture": "岐阜県",
    "city": "岐阜市",
    "town": "向加野"
  },
  "5013111": {
    "zipcode": "5013111",
    "prefectureCode": "21",
    "prefectureNumber": 21,
    "prefecture": "岐阜県",
    "city": "岐阜市",
    "town": "芥見大退"
  },
  "5013112": {
    "zipcode": "5013112",
    "prefectureCode": "21",
    "prefectureNumber": 21,
    "prefecture": "岐阜県",
    "city": "岐阜市",
    "town": "芥見東山"
  },
  "5013113": {
    "zipcode": "5013113",
    "prefectureCode": "21",
    "prefectureNumber": 21,
    "prefecture": "岐阜県",
    "city": "岐阜市",
    "town": "北山"
  },
  "5013114": {
    "zipcode": "5013114",
    "prefectureCode": "21",
    "prefectureNumber": 21,
    "prefecture": "岐阜県",
    "city": "岐阜市",
    "town": "芥見大船"
  },
  "5013115": {
    "zipcode": "5013115",
    "prefectureCode": "21",
    "prefectureNumber": 21,
    "prefecture": "岐阜県",
    "city": "岐阜市",
    "town": "上芥見"
  },
  "5013116": {
    "zipcode": "5013116",
    "prefectureCode": "21",
    "prefectureNumber": 21,
    "prefecture": "岐阜県",
    "city": "岐阜市",
    "town": "芥見町屋"
  },
  "5013117": {
    "zipcode": "5013117",
    "prefectureCode": "21",
    "prefectureNumber": 21,
    "prefecture": "岐阜県",
    "city": "岐阜市",
    "town": "コモンヒルズ北山"
  },
  "5013121": {
    "zipcode": "5013121",
    "prefectureCode": "21",
    "prefectureNumber": 21,
    "prefecture": "岐阜県",
    "city": "岐阜市",
    "town": "大洞桐が丘"
  },
  "5013122": {
    "zipcode": "5013122",
    "prefectureCode": "21",
    "prefectureNumber": 21,
    "prefecture": "岐阜県",
    "city": "岐阜市",
    "town": "大洞紅葉が丘"
  },
  "5013123": {
    "zipcode": "5013123",
    "prefectureCode": "21",
    "prefectureNumber": 21,
    "prefecture": "岐阜県",
    "city": "岐阜市",
    "town": "大洞柏台"
  },
  "5013124": {
    "zipcode": "5013124",
    "prefectureCode": "21",
    "prefectureNumber": 21,
    "prefecture": "岐阜県",
    "city": "岐阜市",
    "town": "大洞"
  },
  "5013125": {
    "zipcode": "5013125",
    "prefectureCode": "21",
    "prefectureNumber": 21,
    "prefecture": "岐阜県",
    "city": "岐阜市",
    "town": "大洞緑山"
  },
  "5013126": {
    "zipcode": "5013126",
    "prefectureCode": "21",
    "prefectureNumber": 21,
    "prefecture": "岐阜県",
    "city": "岐阜市",
    "town": "大洞西"
  },
  "5013127": {
    "zipcode": "5013127",
    "prefectureCode": "21",
    "prefectureNumber": 21,
    "prefecture": "岐阜県",
    "city": "岐阜市",
    "town": "大洞桜台"
  },
  "5013131": {
    "zipcode": "5013131",
    "prefectureCode": "21",
    "prefectureNumber": 21,
    "prefecture": "岐阜県",
    "city": "岐阜市",
    "town": "祇園"
  },
  "5013132": {
    "zipcode": "5013132",
    "prefectureCode": "21",
    "prefectureNumber": 21,
    "prefecture": "岐阜県",
    "city": "岐阜市",
    "town": "芥見長山"
  },
  "5013133": {
    "zipcode": "5013133",
    "prefectureCode": "21",
    "prefectureNumber": 21,
    "prefecture": "岐阜県",
    "city": "岐阜市",
    "town": "芥見南山"
  },
  "5013134": {
    "zipcode": "5013134",
    "prefectureCode": "21",
    "prefectureNumber": 21,
    "prefecture": "岐阜県",
    "city": "岐阜市",
    "town": "芥見"
  },
  "5013135": {
    "zipcode": "5013135",
    "prefectureCode": "21",
    "prefectureNumber": 21,
    "prefecture": "岐阜県",
    "city": "岐阜市",
    "town": "芥見清水"
  },
  "5013136": {
    "zipcode": "5013136",
    "prefectureCode": "21",
    "prefectureNumber": 21,
    "prefecture": "岐阜県",
    "city": "岐阜市",
    "town": "芥見海戸山"
  },
  "5013141": {
    "zipcode": "5013141",
    "prefectureCode": "21",
    "prefectureNumber": 21,
    "prefecture": "岐阜県",
    "city": "岐阜市",
    "town": "芥見中野畑"
  },
  "5013142": {
    "zipcode": "5013142",
    "prefectureCode": "21",
    "prefectureNumber": 21,
    "prefecture": "岐阜県",
    "city": "岐阜市",
    "town": "諏訪山"
  },
  "5013143": {
    "zipcode": "5013143",
    "prefectureCode": "21",
    "prefectureNumber": 21,
    "prefecture": "岐阜県",
    "city": "岐阜市",
    "town": "芥見影山"
  },
  "5013144": {
    "zipcode": "5013144",
    "prefectureCode": "21",
    "prefectureNumber": 21,
    "prefecture": "岐阜県",
    "city": "岐阜市",
    "town": "芥見大般若"
  },
  "5013145": {
    "zipcode": "5013145",
    "prefectureCode": "21",
    "prefectureNumber": 21,
    "prefecture": "岐阜県",
    "city": "岐阜市",
    "town": "芥見野畑"
  },
  "5013146": {
    "zipcode": "5013146",
    "prefectureCode": "21",
    "prefectureNumber": 21,
    "prefecture": "岐阜県",
    "city": "岐阜市",
    "town": "芥見嵯峨"
  },
  "5013147": {
    "zipcode": "5013147",
    "prefectureCode": "21",
    "prefectureNumber": 21,
    "prefecture": "岐阜県",
    "city": "岐阜市",
    "town": "芥見堀田"
  },
  "5013151": {
    "zipcode": "5013151",
    "prefectureCode": "21",
    "prefectureNumber": 21,
    "prefecture": "岐阜県",
    "city": "岐阜市",
    "town": "岩滝東"
  },
  "5013152": {
    "zipcode": "5013152",
    "prefectureCode": "21",
    "prefectureNumber": 21,
    "prefecture": "岐阜県",
    "city": "岐阜市",
    "town": "岩滝西"
  },
  "5013153": {
    "zipcode": "5013153",
    "prefectureCode": "21",
    "prefectureNumber": 21,
    "prefecture": "岐阜県",
    "city": "岐阜市",
    "town": "静が丘町"
  },
  "5013154": {
    "zipcode": "5013154",
    "prefectureCode": "21",
    "prefectureNumber": 21,
    "prefecture": "岐阜県",
    "city": "岐阜市",
    "town": "岩田東"
  },
  "5013155": {
    "zipcode": "5013155",
    "prefectureCode": "21",
    "prefectureNumber": 21,
    "prefecture": "岐阜県",
    "city": "岐阜市",
    "town": "岩田坂"
  },
  "5013156": {
    "zipcode": "5013156",
    "prefectureCode": "21",
    "prefectureNumber": 21,
    "prefecture": "岐阜県",
    "city": "岐阜市",
    "town": "岩田西"
  },
  "5013200": {
    "zipcode": "5013200",
    "prefectureCode": "21",
    "prefectureNumber": 21,
    "prefecture": "岐阜県",
    "city": "関市",
    "town": "以下に掲載がない場合"
  },
  "5013201": {
    "zipcode": "5013201",
    "prefectureCode": "21",
    "prefectureNumber": 21,
    "prefecture": "岐阜県",
    "city": "関市",
    "town": "小野"
  },
  "5013202": {
    "zipcode": "5013202",
    "prefectureCode": "21",
    "prefectureNumber": 21,
    "prefecture": "岐阜県",
    "city": "関市",
    "town": "西神野"
  },
  "5013203": {
    "zipcode": "5013203",
    "prefectureCode": "21",
    "prefectureNumber": 21,
    "prefecture": "岐阜県",
    "city": "関市",
    "town": "神野"
  },
  "5013204": {
    "zipcode": "5013204",
    "prefectureCode": "21",
    "prefectureNumber": 21,
    "prefecture": "岐阜県",
    "city": "関市",
    "town": "上大野"
  },
  "5013205": {
    "zipcode": "5013205",
    "prefectureCode": "21",
    "prefectureNumber": 21,
    "prefecture": "岐阜県",
    "city": "関市",
    "town": "志津野"
  },
  "5013206": {
    "zipcode": "5013206",
    "prefectureCode": "21",
    "prefectureNumber": 21,
    "prefecture": "岐阜県",
    "city": "関市",
    "town": "塔ノ洞"
  },
  "5013207": {
    "zipcode": "5013207",
    "prefectureCode": "21",
    "prefectureNumber": 21,
    "prefecture": "岐阜県",
    "city": "関市",
    "town": "黒屋"
  },
  "5013210": {
    "zipcode": "5013210",
    "prefectureCode": "21",
    "prefectureNumber": 21,
    "prefecture": "岐阜県",
    "city": "関市",
    "town": "尾太町"
  },
  "5013211": {
    "zipcode": "5013211",
    "prefectureCode": "21",
    "prefectureNumber": 21,
    "prefecture": "岐阜県",
    "city": "関市",
    "town": "関ノ上"
  },
  "5013212": {
    "zipcode": "5013212",
    "prefectureCode": "21",
    "prefectureNumber": 21,
    "prefecture": "岐阜県",
    "city": "関市",
    "town": "寺田"
  },
  "5013213": {
    "zipcode": "5013213",
    "prefectureCode": "21",
    "prefectureNumber": 21,
    "prefecture": "岐阜県",
    "city": "関市",
    "town": "東貸上"
  },
  "5013214": {
    "zipcode": "5013214",
    "prefectureCode": "21",
    "prefectureNumber": 21,
    "prefecture": "岐阜県",
    "city": "関市",
    "town": "貸上町"
  },
  "5013215": {
    "zipcode": "5013215",
    "prefectureCode": "21",
    "prefectureNumber": 21,
    "prefecture": "岐阜県",
    "city": "関市",
    "town": "西境松町"
  },
  "5013216": {
    "zipcode": "5013216",
    "prefectureCode": "21",
    "prefectureNumber": 21,
    "prefecture": "岐阜県",
    "city": "関市",
    "town": "水ノ輪町"
  },
  "5013217": {
    "zipcode": "5013217",
    "prefectureCode": "21",
    "prefectureNumber": 21,
    "prefecture": "岐阜県",
    "city": "関市",
    "town": "下有知"
  },
  "5013218": {
    "zipcode": "5013218",
    "prefectureCode": "21",
    "prefectureNumber": 21,
    "prefecture": "岐阜県",
    "city": "関市",
    "town": "東志摩"
  },
  "5013219": {
    "zipcode": "5013219",
    "prefectureCode": "21",
    "prefectureNumber": 21,
    "prefecture": "岐阜県",
    "city": "関市",
    "town": "のぞみケ丘"
  },
  "5013221": {
    "zipcode": "5013221",
    "prefectureCode": "21",
    "prefectureNumber": 21,
    "prefecture": "岐阜県",
    "city": "関市",
    "town": "西貸上"
  },
  "5013222": {
    "zipcode": "5013222",
    "prefectureCode": "21",
    "prefectureNumber": 21,
    "prefecture": "岐阜県",
    "city": "関市",
    "town": "南貸上"
  },
  "5013223": {
    "zipcode": "5013223",
    "prefectureCode": "21",
    "prefectureNumber": 21,
    "prefecture": "岐阜県",
    "city": "関市",
    "town": "竪切南"
  },
  "5013224": {
    "zipcode": "5013224",
    "prefectureCode": "21",
    "prefectureNumber": 21,
    "prefecture": "岐阜県",
    "city": "関市",
    "town": "東仙房"
  },
  "5013225": {
    "zipcode": "5013225",
    "prefectureCode": "21",
    "prefectureNumber": 21,
    "prefecture": "岐阜県",
    "city": "関市",
    "town": "南仙房"
  },
  "5013226": {
    "zipcode": "5013226",
    "prefectureCode": "21",
    "prefectureNumber": 21,
    "prefecture": "岐阜県",
    "city": "関市",
    "town": "向西仙房"
  },
  "5013227": {
    "zipcode": "5013227",
    "prefectureCode": "21",
    "prefectureNumber": 21,
    "prefecture": "岐阜県",
    "city": "関市",
    "town": "北仙房"
  },
  "5013228": {
    "zipcode": "5013228",
    "prefectureCode": "21",
    "prefectureNumber": 21,
    "prefecture": "岐阜県",
    "city": "関市",
    "town": "竪切北"
  },
  "5013231": {
    "zipcode": "5013231",
    "prefectureCode": "21",
    "prefectureNumber": 21,
    "prefecture": "岐阜県",
    "city": "関市",
    "town": "東桜町"
  },
  "5013232": {
    "zipcode": "5013232",
    "prefectureCode": "21",
    "prefectureNumber": 21,
    "prefecture": "岐阜県",
    "city": "関市",
    "town": "桜本町"
  },
  "5013233": {
    "zipcode": "5013233",
    "prefectureCode": "21",
    "prefectureNumber": 21,
    "prefecture": "岐阜県",
    "city": "関市",
    "town": "西木戸町"
  },
  "5013234": {
    "zipcode": "5013234",
    "prefectureCode": "21",
    "prefectureNumber": 21,
    "prefecture": "岐阜県",
    "city": "関市",
    "town": "若宮町"
  },
  "5013235": {
    "zipcode": "5013235",
    "prefectureCode": "21",
    "prefectureNumber": 21,
    "prefecture": "岐阜県",
    "city": "関市",
    "town": "川間町"
  },
  "5013236": {
    "zipcode": "5013236",
    "prefectureCode": "21",
    "prefectureNumber": 21,
    "prefecture": "岐阜県",
    "city": "関市",
    "town": "辻井戸町"
  },
  "5013237": {
    "zipcode": "5013237",
    "prefectureCode": "21",
    "prefectureNumber": 21,
    "prefecture": "岐阜県",
    "city": "関市",
    "town": "緑町"
  },
  "5013241": {
    "zipcode": "5013241",
    "prefectureCode": "21",
    "prefectureNumber": 21,
    "prefecture": "岐阜県",
    "city": "関市",
    "town": "西仙房"
  },
  "5013242": {
    "zipcode": "5013242",
    "prefectureCode": "21",
    "prefectureNumber": 21,
    "prefecture": "岐阜県",
    "city": "関市",
    "town": "東福野町"
  },
  "5013243": {
    "zipcode": "5013243",
    "prefectureCode": "21",
    "prefectureNumber": 21,
    "prefecture": "岐阜県",
    "city": "関市",
    "town": "中福野町"
  },
  "5013244": {
    "zipcode": "5013244",
    "prefectureCode": "21",
    "prefectureNumber": 21,
    "prefecture": "岐阜県",
    "city": "関市",
    "town": "西福野町"
  },
  "5013245": {
    "zipcode": "5013245",
    "prefectureCode": "21",
    "prefectureNumber": 21,
    "prefecture": "岐阜県",
    "city": "関市",
    "town": "北福野町"
  },
  "5013246": {
    "zipcode": "5013246",
    "prefectureCode": "21",
    "prefectureNumber": 21,
    "prefecture": "岐阜県",
    "city": "関市",
    "town": "緑ケ丘"
  },
  "5013247": {
    "zipcode": "5013247",
    "prefectureCode": "21",
    "prefectureNumber": 21,
    "prefecture": "岐阜県",
    "city": "関市",
    "town": "池田町"
  },
  "5013250": {
    "zipcode": "5013250",
    "prefectureCode": "21",
    "prefectureNumber": 21,
    "prefecture": "岐阜県",
    "city": "関市",
    "town": "十三塚町"
  },
  "5013251": {
    "zipcode": "5013251",
    "prefectureCode": "21",
    "prefectureNumber": 21,
    "prefecture": "岐阜県",
    "city": "関市",
    "town": "山王通西"
  },
  "5013252": {
    "zipcode": "5013252",
    "prefectureCode": "21",
    "prefectureNumber": 21,
    "prefecture": "岐阜県",
    "city": "関市",
    "town": "山王通"
  },
  "5013253": {
    "zipcode": "5013253",
    "prefectureCode": "21",
    "prefectureNumber": 21,
    "prefecture": "岐阜県",
    "city": "関市",
    "town": "栄町"
  },
  "5013254": {
    "zipcode": "5013254",
    "prefectureCode": "21",
    "prefectureNumber": 21,
    "prefecture": "岐阜県",
    "city": "関市",
    "town": "雄飛ケ丘"
  },
  "5013255": {
    "zipcode": "5013255",
    "prefectureCode": "21",
    "prefectureNumber": 21,
    "prefecture": "岐阜県",
    "city": "関市",
    "town": "段下"
  },
  "5013256": {
    "zipcode": "5013256",
    "prefectureCode": "21",
    "prefectureNumber": 21,
    "prefecture": "岐阜県",
    "city": "関市",
    "town": "巾"
  },
  "5013257": {
    "zipcode": "5013257",
    "prefectureCode": "21",
    "prefectureNumber": 21,
    "prefecture": "岐阜県",
    "city": "関市",
    "town": "新田"
  },
  "5013258": {
    "zipcode": "5013258",
    "prefectureCode": "21",
    "prefectureNumber": 21,
    "prefecture": "岐阜県",
    "city": "関市",
    "town": "十三塚南"
  },
  "5013259": {
    "zipcode": "5013259",
    "prefectureCode": "21",
    "prefectureNumber": 21,
    "prefecture": "岐阜県",
    "city": "関市",
    "town": "十三塚北"
  },
  "5013261": {
    "zipcode": "5013261",
    "prefectureCode": "21",
    "prefectureNumber": 21,
    "prefecture": "岐阜県",
    "city": "関市",
    "town": "広見北町"
  },
  "5013262": {
    "zipcode": "5013262",
    "prefectureCode": "21",
    "prefectureNumber": 21,
    "prefecture": "岐阜県",
    "city": "関市",
    "town": "広見東町"
  },
  "5013263": {
    "zipcode": "5013263",
    "prefectureCode": "21",
    "prefectureNumber": 21,
    "prefecture": "岐阜県",
    "city": "関市",
    "town": "広見"
  },
  "5013264": {
    "zipcode": "5013264",
    "prefectureCode": "21",
    "prefectureNumber": 21,
    "prefecture": "岐阜県",
    "city": "関市",
    "town": "池尻"
  },
  "5013265": {
    "zipcode": "5013265",
    "prefectureCode": "21",
    "prefectureNumber": 21,
    "prefecture": "岐阜県",
    "city": "関市",
    "town": "小瀬"
  },
  "5013266": {
    "zipcode": "5013266",
    "prefectureCode": "21",
    "prefectureNumber": 21,
    "prefecture": "岐阜県",
    "city": "関市",
    "town": "小瀬南"
  },
  "5013267": {
    "zipcode": "5013267",
    "prefectureCode": "21",
    "prefectureNumber": 21,
    "prefecture": "岐阜県",
    "city": "関市",
    "town": "星ケ丘"
  },
  "5013268": {
    "zipcode": "5013268",
    "prefectureCode": "21",
    "prefectureNumber": 21,
    "prefecture": "岐阜県",
    "city": "関市",
    "town": "小瀬長池町"
  },
  "5013300": {
    "zipcode": "5013300",
    "prefectureCode": "21",
    "prefectureNumber": 21,
    "prefecture": "岐阜県",
    "city": "加茂郡富加町",
    "town": "以下に掲載がない場合"
  },
  "5013301": {
    "zipcode": "5013301",
    "prefectureCode": "21",
    "prefectureNumber": 21,
    "prefecture": "岐阜県",
    "city": "加茂郡富加町",
    "town": "加治田"
  },
  "5013302": {
    "zipcode": "5013302",
    "prefectureCode": "21",
    "prefectureNumber": 21,
    "prefecture": "岐阜県",
    "city": "加茂郡富加町",
    "town": "夕田"
  },
  "5013303": {
    "zipcode": "5013303",
    "prefectureCode": "21",
    "prefectureNumber": 21,
    "prefecture": "岐阜県",
    "city": "加茂郡富加町",
    "town": "羽生"
  },
  "5013304": {
    "zipcode": "5013304",
    "prefectureCode": "21",
    "prefectureNumber": 21,
    "prefecture": "岐阜県",
    "city": "加茂郡富加町",
    "town": "高畑"
  },
  "5013305": {
    "zipcode": "5013305",
    "prefectureCode": "21",
    "prefectureNumber": 21,
    "prefecture": "岐阜県",
    "city": "加茂郡富加町",
    "town": "滝田"
  },
  "5013306": {
    "zipcode": "5013306",
    "prefectureCode": "21",
    "prefectureNumber": 21,
    "prefecture": "岐阜県",
    "city": "加茂郡富加町",
    "town": "大山"
  },
  "5013307": {
    "zipcode": "5013307",
    "prefectureCode": "21",
    "prefectureNumber": 21,
    "prefecture": "岐阜県",
    "city": "加茂郡富加町",
    "town": "大平賀"
  },
  "5013501": {
    "zipcode": "5013501",
    "prefectureCode": "21",
    "prefectureNumber": 21,
    "prefecture": "岐阜県",
    "city": "関市",
    "town": "富之保"
  },
  "5013511": {
    "zipcode": "5013511",
    "prefectureCode": "21",
    "prefectureNumber": 21,
    "prefecture": "岐阜県",
    "city": "関市",
    "town": "中之保"
  },
  "5013521": {
    "zipcode": "5013521",
    "prefectureCode": "21",
    "prefectureNumber": 21,
    "prefecture": "岐阜県",
    "city": "関市",
    "town": "下之保"
  },
  "5013601": {
    "zipcode": "5013601",
    "prefectureCode": "21",
    "prefectureNumber": 21,
    "prefecture": "岐阜県",
    "city": "関市",
    "town": "上之保"
  },
  "5013700": {
    "zipcode": "5013700",
    "prefectureCode": "21",
    "prefectureNumber": 21,
    "prefecture": "岐阜県",
    "city": "美濃市",
    "town": "以下に掲載がない場合"
  },
  "5013701": {
    "zipcode": "5013701",
    "prefectureCode": "21",
    "prefectureNumber": 21,
    "prefecture": "岐阜県",
    "city": "美濃市",
    "town": "美濃市の次に番地がくる場合"
  },
  "5013702": {
    "zipcode": "5013702",
    "prefectureCode": "21",
    "prefectureNumber": 21,
    "prefecture": "岐阜県",
    "city": "美濃市",
    "town": "上河和"
  },
  "5013703": {
    "zipcode": "5013703",
    "prefectureCode": "21",
    "prefectureNumber": 21,
    "prefecture": "岐阜県",
    "city": "美濃市",
    "town": "下河和"
  },
  "5013704": {
    "zipcode": "5013704",
    "prefectureCode": "21",
    "prefectureNumber": 21,
    "prefecture": "岐阜県",
    "city": "美濃市",
    "town": "保木脇"
  },
  "5013705": {
    "zipcode": "5013705",
    "prefectureCode": "21",
    "prefectureNumber": 21,
    "prefecture": "岐阜県",
    "city": "美濃市",
    "town": "立花"
  },
  "5013706": {
    "zipcode": "5013706",
    "prefectureCode": "21",
    "prefectureNumber": 21,
    "prefecture": "岐阜県",
    "city": "美濃市",
    "town": "須原"
  },
  "5013711": {
    "zipcode": "5013711",
    "prefectureCode": "21",
    "prefectureNumber": 21,
    "prefecture": "岐阜県",
    "city": "美濃市",
    "town": "樋ケ洞"
  },
  "5013712": {
    "zipcode": "5013712",
    "prefectureCode": "21",
    "prefectureNumber": 21,
    "prefecture": "岐阜県",
    "city": "美濃市",
    "town": "口野々"
  },
  "5013713": {
    "zipcode": "5013713",
    "prefectureCode": "21",
    "prefectureNumber": 21,
    "prefecture": "岐阜県",
    "city": "美濃市",
    "town": "富野"
  },
  "5013714": {
    "zipcode": "5013714",
    "prefectureCode": "21",
    "prefectureNumber": 21,
    "prefecture": "岐阜県",
    "city": "美濃市",
    "town": "曽代"
  },
  "5013715": {
    "zipcode": "5013715",
    "prefectureCode": "21",
    "prefectureNumber": 21,
    "prefecture": "岐阜県",
    "city": "美濃市",
    "town": "梅山町"
  },
  "5013716": {
    "zipcode": "5013716",
    "prefectureCode": "21",
    "prefectureNumber": 21,
    "prefecture": "岐阜県",
    "city": "美濃市",
    "town": "前野"
  },
  "5013717": {
    "zipcode": "5013717",
    "prefectureCode": "21",
    "prefectureNumber": 21,
    "prefecture": "岐阜県",
    "city": "美濃市",
    "town": "安毛"
  },
  "5013721": {
    "zipcode": "5013721",
    "prefectureCode": "21",
    "prefectureNumber": 21,
    "prefecture": "岐阜県",
    "city": "美濃市",
    "town": "吉川町"
  },
  "5013722": {
    "zipcode": "5013722",
    "prefectureCode": "21",
    "prefectureNumber": 21,
    "prefecture": "岐阜県",
    "city": "美濃市",
    "town": "常盤町"
  },
  "5013723": {
    "zipcode": "5013723",
    "prefectureCode": "21",
    "prefectureNumber": 21,
    "prefecture": "岐阜県",
    "city": "美濃市",
    "town": "相生町"
  },
  "5013724": {
    "zipcode": "5013724",
    "prefectureCode": "21",
    "prefectureNumber": 21,
    "prefecture": "岐阜県",
    "city": "美濃市",
    "town": "魚屋町"
  },
  "5013725": {
    "zipcode": "5013725",
    "prefectureCode": "21",
    "prefectureNumber": 21,
    "prefecture": "岐阜県",
    "city": "美濃市",
    "town": "俵町"
  },
  "5013726": {
    "zipcode": "5013726",
    "prefectureCode": "21",
    "prefectureNumber": 21,
    "prefecture": "岐阜県",
    "city": "美濃市",
    "town": "加治屋町"
  },
  "5013727": {
    "zipcode": "5013727",
    "prefectureCode": "21",
    "prefectureNumber": 21,
    "prefecture": "岐阜県",
    "city": "美濃市",
    "town": "永重町"
  },
  "5013728": {
    "zipcode": "5013728",
    "prefectureCode": "21",
    "prefectureNumber": 21,
    "prefecture": "岐阜県",
    "city": "美濃市",
    "town": "本住町"
  },
  "5013729": {
    "zipcode": "5013729",
    "prefectureCode": "21",
    "prefectureNumber": 21,
    "prefecture": "岐阜県",
    "city": "美濃市",
    "town": "泉町"
  },
  "5013731": {
    "zipcode": "5013731",
    "prefectureCode": "21",
    "prefectureNumber": 21,
    "prefecture": "岐阜県",
    "city": "美濃市",
    "town": "東市場町"
  },
  "5013732": {
    "zipcode": "5013732",
    "prefectureCode": "21",
    "prefectureNumber": 21,
    "prefecture": "岐阜県",
    "city": "美濃市",
    "town": "広岡町"
  },
  "5013733": {
    "zipcode": "5013733",
    "prefectureCode": "21",
    "prefectureNumber": 21,
    "prefecture": "岐阜県",
    "city": "美濃市",
    "town": "亀野町"
  },
  "5013734": {
    "zipcode": "5013734",
    "prefectureCode": "21",
    "prefectureNumber": 21,
    "prefecture": "岐阜県",
    "city": "美濃市",
    "town": "千畝町"
  },
  "5013735": {
    "zipcode": "5013735",
    "prefectureCode": "21",
    "prefectureNumber": 21,
    "prefecture": "岐阜県",
    "city": "美濃市",
    "town": "西市場町"
  },
  "5013736": {
    "zipcode": "5013736",
    "prefectureCode": "21",
    "prefectureNumber": 21,
    "prefecture": "岐阜県",
    "city": "美濃市",
    "town": "米屋町"
  },
  "5013737": {
    "zipcode": "5013737",
    "prefectureCode": "21",
    "prefectureNumber": 21,
    "prefecture": "岐阜県",
    "city": "美濃市",
    "town": "新町"
  },
  "5013741": {
    "zipcode": "5013741",
    "prefectureCode": "21",
    "prefectureNumber": 21,
    "prefecture": "岐阜県",
    "city": "美濃市",
    "town": "港町"
  },
  "5013742": {
    "zipcode": "5013742",
    "prefectureCode": "21",
    "prefectureNumber": 21,
    "prefecture": "岐阜県",
    "city": "美濃市",
    "town": "殿町"
  },
  "5013743": {
    "zipcode": "5013743",
    "prefectureCode": "21",
    "prefectureNumber": 21,
    "prefecture": "岐阜県",
    "city": "美濃市",
    "town": "上条"
  },
  "5013744": {
    "zipcode": "5013744",
    "prefectureCode": "21",
    "prefectureNumber": 21,
    "prefecture": "岐阜県",
    "city": "美濃市",
    "town": "段町"
  },
  "5013745": {
    "zipcode": "5013745",
    "prefectureCode": "21",
    "prefectureNumber": 21,
    "prefecture": "岐阜県",
    "city": "美濃市",
    "town": "下渡"
  },
  "5013746": {
    "zipcode": "5013746",
    "prefectureCode": "21",
    "prefectureNumber": 21,
    "prefecture": "岐阜県",
    "city": "美濃市",
    "town": "中央"
  },
  "5013751": {
    "zipcode": "5013751",
    "prefectureCode": "21",
    "prefectureNumber": 21,
    "prefecture": "岐阜県",
    "city": "美濃市",
    "town": "松倉台"
  },
  "5013752": {
    "zipcode": "5013752",
    "prefectureCode": "21",
    "prefectureNumber": 21,
    "prefecture": "岐阜県",
    "city": "美濃市",
    "town": "松栄町"
  },
  "5013753": {
    "zipcode": "5013753",
    "prefectureCode": "21",
    "prefectureNumber": 21,
    "prefecture": "岐阜県",
    "city": "美濃市",
    "town": "松森"
  },
  "5013754": {
    "zipcode": "5013754",
    "prefectureCode": "21",
    "prefectureNumber": 21,
    "prefecture": "岐阜県",
    "city": "美濃市",
    "town": "さくらケ丘"
  },
  "5013755": {
    "zipcode": "5013755",
    "prefectureCode": "21",
    "prefectureNumber": 21,
    "prefecture": "岐阜県",
    "city": "美濃市",
    "town": "志摩"
  },
  "5013756": {
    "zipcode": "5013756",
    "prefectureCode": "21",
    "prefectureNumber": 21,
    "prefecture": "岐阜県",
    "city": "美濃市",
    "town": "生櫛"
  },
  "5013761": {
    "zipcode": "5013761",
    "prefectureCode": "21",
    "prefectureNumber": 21,
    "prefecture": "岐阜県",
    "city": "美濃市",
    "town": "横越"
  },
  "5013762": {
    "zipcode": "5013762",
    "prefectureCode": "21",
    "prefectureNumber": 21,
    "prefecture": "岐阜県",
    "city": "美濃市",
    "town": "藍川"
  },
  "5013763": {
    "zipcode": "5013763",
    "prefectureCode": "21",
    "prefectureNumber": 21,
    "prefecture": "岐阜県",
    "city": "美濃市",
    "town": "極楽寺"
  },
  "5013764": {
    "zipcode": "5013764",
    "prefectureCode": "21",
    "prefectureNumber": 21,
    "prefecture": "岐阜県",
    "city": "美濃市",
    "town": "笠神"
  },
  "5013771": {
    "zipcode": "5013771",
    "prefectureCode": "21",
    "prefectureNumber": 21,
    "prefecture": "岐阜県",
    "city": "美濃市",
    "town": "大矢田"
  },
  "5013772": {
    "zipcode": "5013772",
    "prefectureCode": "21",
    "prefectureNumber": 21,
    "prefecture": "岐阜県",
    "city": "美濃市",
    "town": "楓台"
  },
  "5013773": {
    "zipcode": "5013773",
    "prefectureCode": "21",
    "prefectureNumber": 21,
    "prefecture": "岐阜県",
    "city": "美濃市",
    "town": "もみじが丘"
  },
  "5013781": {
    "zipcode": "5013781",
    "prefectureCode": "21",
    "prefectureNumber": 21,
    "prefecture": "岐阜県",
    "city": "美濃市",
    "town": "片知"
  },
  "5013782": {
    "zipcode": "5013782",
    "prefectureCode": "21",
    "prefectureNumber": 21,
    "prefecture": "岐阜県",
    "city": "美濃市",
    "town": "長瀬"
  },
  "5013783": {
    "zipcode": "5013783",
    "prefectureCode": "21",
    "prefectureNumber": 21,
    "prefecture": "岐阜県",
    "city": "美濃市",
    "town": "神洞"
  },
  "5013784": {
    "zipcode": "5013784",
    "prefectureCode": "21",
    "prefectureNumber": 21,
    "prefecture": "岐阜県",
    "city": "美濃市",
    "town": "御手洗"
  },
  "5013785": {
    "zipcode": "5013785",
    "prefectureCode": "21",
    "prefectureNumber": 21,
    "prefecture": "岐阜県",
    "city": "美濃市",
    "town": "小倉"
  },
  "5013786": {
    "zipcode": "5013786",
    "prefectureCode": "21",
    "prefectureNumber": 21,
    "prefecture": "岐阜県",
    "city": "美濃市",
    "town": "乙狩"
  },
  "5013787": {
    "zipcode": "5013787",
    "prefectureCode": "21",
    "prefectureNumber": 21,
    "prefecture": "岐阜県",
    "city": "美濃市",
    "town": "上野"
  },
  "5013788": {
    "zipcode": "5013788",
    "prefectureCode": "21",
    "prefectureNumber": 21,
    "prefecture": "岐阜県",
    "city": "美濃市",
    "town": "蕨生"
  },
  "5013801": {
    "zipcode": "5013801",
    "prefectureCode": "21",
    "prefectureNumber": 21,
    "prefecture": "岐阜県",
    "city": "関市",
    "town": "大坪"
  },
  "5013802": {
    "zipcode": "5013802",
    "prefectureCode": "21",
    "prefectureNumber": 21,
    "prefecture": "岐阜県",
    "city": "関市",
    "town": "若草通"
  },
  "5013803": {
    "zipcode": "5013803",
    "prefectureCode": "21",
    "prefectureNumber": 21,
    "prefecture": "岐阜県",
    "city": "関市",
    "town": "西本郷通"
  },
  "5013804": {
    "zipcode": "5013804",
    "prefectureCode": "21",
    "prefectureNumber": 21,
    "prefecture": "岐阜県",
    "city": "関市",
    "town": "円保通"
  },
  "5013805": {
    "zipcode": "5013805",
    "prefectureCode": "21",
    "prefectureNumber": 21,
    "prefecture": "岐阜県",
    "city": "関市",
    "town": "本郷町"
  },
  "5013806": {
    "zipcode": "5013806",
    "prefectureCode": "21",
    "prefectureNumber": 21,
    "prefecture": "岐阜県",
    "city": "関市",
    "town": "観音山"
  },
  "5013807": {
    "zipcode": "5013807",
    "prefectureCode": "21",
    "prefectureNumber": 21,
    "prefecture": "岐阜県",
    "city": "関市",
    "town": "安桜山"
  },
  "5013808": {
    "zipcode": "5013808",
    "prefectureCode": "21",
    "prefectureNumber": 21,
    "prefecture": "岐阜県",
    "city": "関市",
    "town": "安桜台"
  },
  "5013811": {
    "zipcode": "5013811",
    "prefectureCode": "21",
    "prefectureNumber": 21,
    "prefecture": "岐阜県",
    "city": "関市",
    "town": "東本郷通"
  },
  "5013812": {
    "zipcode": "5013812",
    "prefectureCode": "21",
    "prefectureNumber": 21,
    "prefecture": "岐阜県",
    "city": "関市",
    "town": "東本郷"
  },
  "5013813": {
    "zipcode": "5013813",
    "prefectureCode": "21",
    "prefectureNumber": 21,
    "prefecture": "岐阜県",
    "city": "関市",
    "town": "東野町"
  },
  "5013814": {
    "zipcode": "5013814",
    "prefectureCode": "21",
    "prefectureNumber": 21,
    "prefecture": "岐阜県",
    "city": "関市",
    "town": "東山"
  },
  "5013815": {
    "zipcode": "5013815",
    "prefectureCode": "21",
    "prefectureNumber": 21,
    "prefecture": "岐阜県",
    "city": "関市",
    "town": "東町"
  },
  "5013816": {
    "zipcode": "5013816",
    "prefectureCode": "21",
    "prefectureNumber": 21,
    "prefecture": "岐阜県",
    "city": "関市",
    "town": "吉野町"
  },
  "5013817": {
    "zipcode": "5013817",
    "prefectureCode": "21",
    "prefectureNumber": 21,
    "prefecture": "岐阜県",
    "city": "関市",
    "town": "仲町"
  },
  "5013818": {
    "zipcode": "5013818",
    "prefectureCode": "21",
    "prefectureNumber": 21,
    "prefecture": "岐阜県",
    "city": "関市",
    "town": "吉本町"
  },
  "5013819": {
    "zipcode": "5013819",
    "prefectureCode": "21",
    "prefectureNumber": 21,
    "prefecture": "岐阜県",
    "city": "関市",
    "town": "西町"
  },
  "5013821": {
    "zipcode": "5013821",
    "prefectureCode": "21",
    "prefectureNumber": 21,
    "prefecture": "岐阜県",
    "city": "関市",
    "town": "平賀町"
  },
  "5013822": {
    "zipcode": "5013822",
    "prefectureCode": "21",
    "prefectureNumber": 21,
    "prefecture": "岐阜県",
    "city": "関市",
    "town": "市平賀"
  },
  "5013823": {
    "zipcode": "5013823",
    "prefectureCode": "21",
    "prefectureNumber": 21,
    "prefecture": "岐阜県",
    "city": "関市",
    "town": "東出町"
  },
  "5013824": {
    "zipcode": "5013824",
    "prefectureCode": "21",
    "prefectureNumber": 21,
    "prefecture": "岐阜県",
    "city": "関市",
    "town": "東新町"
  },
  "5013825": {
    "zipcode": "5013825",
    "prefectureCode": "21",
    "prefectureNumber": 21,
    "prefecture": "岐阜県",
    "city": "関市",
    "town": "南出"
  },
  "5013826": {
    "zipcode": "5013826",
    "prefectureCode": "21",
    "prefectureNumber": 21,
    "prefecture": "岐阜県",
    "city": "関市",
    "town": "関口町"
  },
  "5013827": {
    "zipcode": "5013827",
    "prefectureCode": "21",
    "prefectureNumber": 21,
    "prefecture": "岐阜県",
    "city": "関市",
    "town": "宮地町"
  },
  "5013828": {
    "zipcode": "5013828",
    "prefectureCode": "21",
    "prefectureNumber": 21,
    "prefecture": "岐阜県",
    "city": "関市",
    "town": "西旭ケ丘"
  },
  "5013829": {
    "zipcode": "5013829",
    "prefectureCode": "21",
    "prefectureNumber": 21,
    "prefecture": "岐阜県",
    "city": "関市",
    "town": "旭ケ丘"
  },
  "5013831": {
    "zipcode": "5013831",
    "prefectureCode": "21",
    "prefectureNumber": 21,
    "prefecture": "岐阜県",
    "city": "関市",
    "town": "長谷寺町"
  },
  "5013832": {
    "zipcode": "5013832",
    "prefectureCode": "21",
    "prefectureNumber": 21,
    "prefecture": "岐阜県",
    "city": "関市",
    "town": "花園町"
  },
  "5013833": {
    "zipcode": "5013833",
    "prefectureCode": "21",
    "prefectureNumber": 21,
    "prefecture": "岐阜県",
    "city": "関市",
    "town": "大平町"
  },
  "5013834": {
    "zipcode": "5013834",
    "prefectureCode": "21",
    "prefectureNumber": 21,
    "prefecture": "岐阜県",
    "city": "関市",
    "town": "大門町"
  },
  "5013835": {
    "zipcode": "5013835",
    "prefectureCode": "21",
    "prefectureNumber": 21,
    "prefecture": "岐阜県",
    "city": "関市",
    "town": "観音前"
  },
  "5013836": {
    "zipcode": "5013836",
    "prefectureCode": "21",
    "prefectureNumber": 21,
    "prefecture": "岐阜県",
    "city": "関市",
    "town": "美園町"
  },
  "5013837": {
    "zipcode": "5013837",
    "prefectureCode": "21",
    "prefectureNumber": 21,
    "prefecture": "岐阜県",
    "city": "関市",
    "town": "西門前町"
  },
  "5013838": {
    "zipcode": "5013838",
    "prefectureCode": "21",
    "prefectureNumber": 21,
    "prefecture": "岐阜県",
    "city": "関市",
    "town": "東門前町"
  },
  "5013839": {
    "zipcode": "5013839",
    "prefectureCode": "21",
    "prefectureNumber": 21,
    "prefecture": "岐阜県",
    "city": "関市",
    "town": "長住町"
  },
  "5013841": {
    "zipcode": "5013841",
    "prefectureCode": "21",
    "prefectureNumber": 21,
    "prefecture": "岐阜県",
    "city": "関市",
    "town": "伊勢町"
  },
  "5013842": {
    "zipcode": "5013842",
    "prefectureCode": "21",
    "prefectureNumber": 21,
    "prefecture": "岐阜県",
    "city": "関市",
    "town": "出来町"
  },
  "5013843": {
    "zipcode": "5013843",
    "prefectureCode": "21",
    "prefectureNumber": 21,
    "prefecture": "岐阜県",
    "city": "関市",
    "town": "吉田町"
  },
  "5013844": {
    "zipcode": "5013844",
    "prefectureCode": "21",
    "prefectureNumber": 21,
    "prefecture": "岐阜県",
    "city": "関市",
    "town": "美和町"
  },
  "5013845": {
    "zipcode": "5013845",
    "prefectureCode": "21",
    "prefectureNumber": 21,
    "prefecture": "岐阜県",
    "city": "関市",
    "town": "吾妻町"
  },
  "5013846": {
    "zipcode": "5013846",
    "prefectureCode": "21",
    "prefectureNumber": 21,
    "prefecture": "岐阜県",
    "city": "関市",
    "town": "住吉町"
  },
  "5013847": {
    "zipcode": "5013847",
    "prefectureCode": "21",
    "prefectureNumber": 21,
    "prefecture": "岐阜県",
    "city": "関市",
    "town": "新町"
  },
  "5013848": {
    "zipcode": "5013848",
    "prefectureCode": "21",
    "prefectureNumber": 21,
    "prefecture": "岐阜県",
    "city": "関市",
    "town": "末広町"
  },
  "5013851": {
    "zipcode": "5013851",
    "prefectureCode": "21",
    "prefectureNumber": 21,
    "prefecture": "岐阜県",
    "city": "関市",
    "town": "相生町"
  },
  "5013852": {
    "zipcode": "5013852",
    "prefectureCode": "21",
    "prefectureNumber": 21,
    "prefecture": "岐阜県",
    "city": "関市",
    "town": "上利町"
  },
  "5013853": {
    "zipcode": "5013853",
    "prefectureCode": "21",
    "prefectureNumber": 21,
    "prefecture": "岐阜県",
    "city": "関市",
    "town": "朝倉町"
  },
  "5013854": {
    "zipcode": "5013854",
    "prefectureCode": "21",
    "prefectureNumber": 21,
    "prefecture": "岐阜県",
    "city": "関市",
    "town": "月見町"
  },
  "5013855": {
    "zipcode": "5013855",
    "prefectureCode": "21",
    "prefectureNumber": 21,
    "prefecture": "岐阜県",
    "city": "関市",
    "town": "いろは町"
  },
  "5013856": {
    "zipcode": "5013856",
    "prefectureCode": "21",
    "prefectureNumber": 21,
    "prefecture": "岐阜県",
    "city": "関市",
    "town": "桜木町"
  },
  "5013857": {
    "zipcode": "5013857",
    "prefectureCode": "21",
    "prefectureNumber": 21,
    "prefecture": "岐阜県",
    "city": "関市",
    "town": "南春日町"
  },
  "5013861": {
    "zipcode": "5013861",
    "prefectureCode": "21",
    "prefectureNumber": 21,
    "prefecture": "岐阜県",
    "city": "関市",
    "town": "小柳町"
  },
  "5013862": {
    "zipcode": "5013862",
    "prefectureCode": "21",
    "prefectureNumber": 21,
    "prefecture": "岐阜県",
    "city": "関市",
    "town": "兼永町"
  },
  "5013863": {
    "zipcode": "5013863",
    "prefectureCode": "21",
    "prefectureNumber": 21,
    "prefecture": "岐阜県",
    "city": "関市",
    "town": "富本町"
  },
  "5013864": {
    "zipcode": "5013864",
    "prefectureCode": "21",
    "prefectureNumber": 21,
    "prefecture": "岐阜県",
    "city": "関市",
    "town": "前町"
  },
  "5013865": {
    "zipcode": "5013865",
    "prefectureCode": "21",
    "prefectureNumber": 21,
    "prefecture": "岐阜県",
    "city": "関市",
    "town": "春日町"
  },
  "5013866": {
    "zipcode": "5013866",
    "prefectureCode": "21",
    "prefectureNumber": 21,
    "prefecture": "岐阜県",
    "city": "関市",
    "town": "千年町"
  },
  "5013867": {
    "zipcode": "5013867",
    "prefectureCode": "21",
    "prefectureNumber": 21,
    "prefecture": "岐阜県",
    "city": "関市",
    "town": "常盤町"
  },
  "5013868": {
    "zipcode": "5013868",
    "prefectureCode": "21",
    "prefectureNumber": 21,
    "prefecture": "岐阜県",
    "city": "関市",
    "town": "白川町"
  },
  "5013871": {
    "zipcode": "5013871",
    "prefectureCode": "21",
    "prefectureNumber": 21,
    "prefecture": "岐阜県",
    "city": "関市",
    "town": "鍛冶町"
  },
  "5013872": {
    "zipcode": "5013872",
    "prefectureCode": "21",
    "prefectureNumber": 21,
    "prefecture": "岐阜県",
    "city": "関市",
    "town": "金屋町"
  },
  "5013873": {
    "zipcode": "5013873",
    "prefectureCode": "21",
    "prefectureNumber": 21,
    "prefecture": "岐阜県",
    "city": "関市",
    "town": "日ノ出町"
  },
  "5013874": {
    "zipcode": "5013874",
    "prefectureCode": "21",
    "prefectureNumber": 21,
    "prefecture": "岐阜県",
    "city": "関市",
    "town": "平和通"
  },
  "5013875": {
    "zipcode": "5013875",
    "prefectureCode": "21",
    "prefectureNumber": 21,
    "prefecture": "岐阜県",
    "city": "関市",
    "town": "森西町"
  },
  "5013876": {
    "zipcode": "5013876",
    "prefectureCode": "21",
    "prefectureNumber": 21,
    "prefecture": "岐阜県",
    "city": "関市",
    "town": "貴船町"
  },
  "5013877": {
    "zipcode": "5013877",
    "prefectureCode": "21",
    "prefectureNumber": 21,
    "prefecture": "岐阜県",
    "city": "関市",
    "town": "河合町"
  },
  "5013878": {
    "zipcode": "5013878",
    "prefectureCode": "21",
    "prefectureNumber": 21,
    "prefecture": "岐阜県",
    "city": "関市",
    "town": "十軒町"
  },
  "5013881": {
    "zipcode": "5013881",
    "prefectureCode": "21",
    "prefectureNumber": 21,
    "prefecture": "岐阜県",
    "city": "関市",
    "town": "元重町"
  },
  "5013882": {
    "zipcode": "5013882",
    "prefectureCode": "21",
    "prefectureNumber": 21,
    "prefecture": "岐阜県",
    "city": "関市",
    "town": "西日吉町"
  },
  "5013883": {
    "zipcode": "5013883",
    "prefectureCode": "21",
    "prefectureNumber": 21,
    "prefecture": "岐阜県",
    "city": "関市",
    "town": "東日吉町"
  },
  "5013884": {
    "zipcode": "5013884",
    "prefectureCode": "21",
    "prefectureNumber": 21,
    "prefecture": "岐阜県",
    "city": "関市",
    "town": "孫六町"
  },
  "5013885": {
    "zipcode": "5013885",
    "prefectureCode": "21",
    "prefectureNumber": 21,
    "prefecture": "岐阜県",
    "city": "関市",
    "town": "山ノ手"
  },
  "5013886": {
    "zipcode": "5013886",
    "prefectureCode": "21",
    "prefectureNumber": 21,
    "prefecture": "岐阜県",
    "city": "関市",
    "town": "本町"
  },
  "5013887": {
    "zipcode": "5013887",
    "prefectureCode": "21",
    "prefectureNumber": 21,
    "prefecture": "岐阜県",
    "city": "関市",
    "town": "吐月町"
  },
  "5013888": {
    "zipcode": "5013888",
    "prefectureCode": "21",
    "prefectureNumber": 21,
    "prefecture": "岐阜県",
    "city": "関市",
    "town": "坂下町"
  },
  "5013901": {
    "zipcode": "5013901",
    "prefectureCode": "21",
    "prefectureNumber": 21,
    "prefecture": "岐阜県",
    "city": "関市",
    "town": "春里町"
  },
  "5013902": {
    "zipcode": "5013902",
    "prefectureCode": "21",
    "prefectureNumber": 21,
    "prefecture": "岐阜県",
    "city": "関市",
    "town": "弥生町"
  },
  "5013903": {
    "zipcode": "5013903",
    "prefectureCode": "21",
    "prefectureNumber": 21,
    "prefecture": "岐阜県",
    "city": "関市",
    "town": "桜ケ丘"
  },
  "5013904": {
    "zipcode": "5013904",
    "prefectureCode": "21",
    "prefectureNumber": 21,
    "prefecture": "岐阜県",
    "city": "関市",
    "town": "明生町"
  },
  "5013905": {
    "zipcode": "5013905",
    "prefectureCode": "21",
    "prefectureNumber": 21,
    "prefecture": "岐阜県",
    "city": "関市",
    "town": "神明町"
  },
  "5013906": {
    "zipcode": "5013906",
    "prefectureCode": "21",
    "prefectureNumber": 21,
    "prefecture": "岐阜県",
    "city": "関市",
    "town": "西欠ノ下"
  },
  "5013907": {
    "zipcode": "5013907",
    "prefectureCode": "21",
    "prefectureNumber": 21,
    "prefecture": "岐阜県",
    "city": "関市",
    "town": "南町"
  },
  "5013908": {
    "zipcode": "5013908",
    "prefectureCode": "21",
    "prefectureNumber": 21,
    "prefecture": "岐阜県",
    "city": "関市",
    "town": "寿町"
  },
  "5013909": {
    "zipcode": "5013909",
    "prefectureCode": "21",
    "prefectureNumber": 21,
    "prefecture": "岐阜県",
    "city": "関市",
    "town": "新堀町"
  },
  "5013910": {
    "zipcode": "5013910",
    "prefectureCode": "21",
    "prefectureNumber": 21,
    "prefecture": "岐阜県",
    "city": "関市",
    "town": "笠屋"
  },
  "5013911": {
    "zipcode": "5013911",
    "prefectureCode": "21",
    "prefectureNumber": 21,
    "prefecture": "岐阜県",
    "city": "関市",
    "town": "肥田瀬"
  },
  "5013912": {
    "zipcode": "5013912",
    "prefectureCode": "21",
    "prefectureNumber": 21,
    "prefecture": "岐阜県",
    "city": "関市",
    "town": "宮河町"
  },
  "5013913": {
    "zipcode": "5013913",
    "prefectureCode": "21",
    "prefectureNumber": 21,
    "prefecture": "岐阜県",
    "city": "関市",
    "town": "稲河町"
  },
  "5013914": {
    "zipcode": "5013914",
    "prefectureCode": "21",
    "prefectureNumber": 21,
    "prefecture": "岐阜県",
    "city": "関市",
    "town": "鋳物師屋"
  },
  "5013915": {
    "zipcode": "5013915",
    "prefectureCode": "21",
    "prefectureNumber": 21,
    "prefecture": "岐阜県",
    "city": "関市",
    "town": "天徳町"
  },
  "5013916": {
    "zipcode": "5013916",
    "prefectureCode": "21",
    "prefectureNumber": 21,
    "prefecture": "岐阜県",
    "city": "関市",
    "town": "豊岡町"
  },
  "5013917": {
    "zipcode": "5013917",
    "prefectureCode": "21",
    "prefectureNumber": 21,
    "prefecture": "岐阜県",
    "city": "関市",
    "town": "北天神"
  },
  "5013918": {
    "zipcode": "5013918",
    "prefectureCode": "21",
    "prefectureNumber": 21,
    "prefecture": "岐阜県",
    "city": "関市",
    "town": "南天神"
  },
  "5013919": {
    "zipcode": "5013919",
    "prefectureCode": "21",
    "prefectureNumber": 21,
    "prefecture": "岐阜県",
    "city": "関市",
    "town": "平成通"
  },
  "5013921": {
    "zipcode": "5013921",
    "prefectureCode": "21",
    "prefectureNumber": 21,
    "prefecture": "岐阜県",
    "city": "関市",
    "town": "東田原"
  },
  "5013922": {
    "zipcode": "5013922",
    "prefectureCode": "21",
    "prefectureNumber": 21,
    "prefecture": "岐阜県",
    "city": "関市",
    "town": "大杉"
  },
  "5013923": {
    "zipcode": "5013923",
    "prefectureCode": "21",
    "prefectureNumber": 21,
    "prefecture": "岐阜県",
    "city": "関市",
    "town": "新迫間"
  },
  "5013924": {
    "zipcode": "5013924",
    "prefectureCode": "21",
    "prefectureNumber": 21,
    "prefecture": "岐阜県",
    "city": "関市",
    "town": "迫間"
  },
  "5013925": {
    "zipcode": "5013925",
    "prefectureCode": "21",
    "prefectureNumber": 21,
    "prefecture": "岐阜県",
    "city": "関市",
    "town": "迫間台"
  },
  "5013926": {
    "zipcode": "5013926",
    "prefectureCode": "21",
    "prefectureNumber": 21,
    "prefecture": "岐阜県",
    "city": "関市",
    "town": "小迫間"
  },
  "5013927": {
    "zipcode": "5013927",
    "prefectureCode": "21",
    "prefectureNumber": 21,
    "prefecture": "岐阜県",
    "city": "関市",
    "town": "向陽台"
  },
  "5013928": {
    "zipcode": "5013928",
    "prefectureCode": "21",
    "prefectureNumber": 21,
    "prefecture": "岐阜県",
    "city": "関市",
    "town": "西田原"
  },
  "5013930": {
    "zipcode": "5013930",
    "prefectureCode": "21",
    "prefectureNumber": 21,
    "prefecture": "岐阜県",
    "city": "関市",
    "town": "倉知南"
  },
  "5013931": {
    "zipcode": "5013931",
    "prefectureCode": "21",
    "prefectureNumber": 21,
    "prefecture": "岐阜県",
    "city": "関市",
    "town": "桜台"
  },
  "5013932": {
    "zipcode": "5013932",
    "prefectureCode": "21",
    "prefectureNumber": 21,
    "prefecture": "岐阜県",
    "city": "関市",
    "town": "稲口"
  },
  "5013933": {
    "zipcode": "5013933",
    "prefectureCode": "21",
    "prefectureNumber": 21,
    "prefecture": "岐阜県",
    "city": "関市",
    "town": "向山町"
  },
  "5013934": {
    "zipcode": "5013934",
    "prefectureCode": "21",
    "prefectureNumber": 21,
    "prefecture": "岐阜県",
    "city": "関市",
    "town": "桐谷台"
  },
  "5013935": {
    "zipcode": "5013935",
    "prefectureCode": "21",
    "prefectureNumber": 21,
    "prefecture": "岐阜県",
    "city": "関市",
    "town": "四季ノ台"
  },
  "5013936": {
    "zipcode": "5013936",
    "prefectureCode": "21",
    "prefectureNumber": 21,
    "prefecture": "岐阜県",
    "city": "関市",
    "town": "倉知"
  },
  "5013937": {
    "zipcode": "5013937",
    "prefectureCode": "21",
    "prefectureNumber": 21,
    "prefecture": "岐阜県",
    "city": "関市",
    "town": "前山町"
  },
  "5013938": {
    "zipcode": "5013938",
    "prefectureCode": "21",
    "prefectureNumber": 21,
    "prefecture": "岐阜県",
    "city": "関市",
    "town": "桐ヶ丘"
  },
  "5013939": {
    "zipcode": "5013939",
    "prefectureCode": "21",
    "prefectureNumber": 21,
    "prefecture": "岐阜県",
    "city": "関市",
    "town": "桃紅大地"
  },
  "5013941": {
    "zipcode": "5013941",
    "prefectureCode": "21",
    "prefectureNumber": 21,
    "prefecture": "岐阜県",
    "city": "関市",
    "town": "小屋名"
  },
  "5013942": {
    "zipcode": "5013942",
    "prefectureCode": "21",
    "prefectureNumber": 21,
    "prefecture": "岐阜県",
    "city": "関市",
    "town": "希望ケ丘町"
  },
  "5013943": {
    "zipcode": "5013943",
    "prefectureCode": "21",
    "prefectureNumber": 21,
    "prefecture": "岐阜県",
    "city": "関市",
    "town": "虹ケ丘南"
  },
  "5013944": {
    "zipcode": "5013944",
    "prefectureCode": "21",
    "prefectureNumber": 21,
    "prefecture": "岐阜県",
    "city": "関市",
    "town": "山田"
  },
  "5013945": {
    "zipcode": "5013945",
    "prefectureCode": "21",
    "prefectureNumber": 21,
    "prefecture": "岐阜県",
    "city": "関市",
    "town": "虹ケ丘北"
  },
  "5013946": {
    "zipcode": "5013946",
    "prefectureCode": "21",
    "prefectureNumber": 21,
    "prefecture": "岐阜県",
    "city": "関市",
    "town": "津保川台"
  },
  "5013947": {
    "zipcode": "5013947",
    "prefectureCode": "21",
    "prefectureNumber": 21,
    "prefecture": "岐阜県",
    "city": "関市",
    "town": "上白金"
  },
  "5013951": {
    "zipcode": "5013951",
    "prefectureCode": "21",
    "prefectureNumber": 21,
    "prefecture": "岐阜県",
    "city": "関市",
    "town": "植野"
  },
  "5013952": {
    "zipcode": "5013952",
    "prefectureCode": "21",
    "prefectureNumber": 21,
    "prefecture": "岐阜県",
    "city": "関市",
    "town": "大平台"
  },
  "5013953": {
    "zipcode": "5013953",
    "prefectureCode": "21",
    "prefectureNumber": 21,
    "prefecture": "岐阜県",
    "city": "関市",
    "town": "千疋北"
  },
  "5013954": {
    "zipcode": "5013954",
    "prefectureCode": "21",
    "prefectureNumber": 21,
    "prefecture": "岐阜県",
    "city": "関市",
    "town": "千疋"
  },
  "5013955": {
    "zipcode": "5013955",
    "prefectureCode": "21",
    "prefectureNumber": 21,
    "prefecture": "岐阜県",
    "city": "関市",
    "town": "下白金"
  },
  "5013956": {
    "zipcode": "5013956",
    "prefectureCode": "21",
    "prefectureNumber": 21,
    "prefecture": "岐阜県",
    "city": "関市",
    "town": "保明"
  },
  "5013957": {
    "zipcode": "5013957",
    "prefectureCode": "21",
    "prefectureNumber": 21,
    "prefecture": "岐阜県",
    "city": "関市",
    "town": "側島"
  },
  "5013958": {
    "zipcode": "5013958",
    "prefectureCode": "21",
    "prefectureNumber": 21,
    "prefecture": "岐阜県",
    "city": "関市",
    "town": "戸田"
  },
  "5013961": {
    "zipcode": "5013961",
    "prefectureCode": "21",
    "prefectureNumber": 21,
    "prefecture": "岐阜県",
    "city": "関市",
    "town": "清蔵寺"
  },
  "5013962": {
    "zipcode": "5013962",
    "prefectureCode": "21",
    "prefectureNumber": 21,
    "prefecture": "岐阜県",
    "city": "関市",
    "town": "柳町"
  },
  "5013963": {
    "zipcode": "5013963",
    "prefectureCode": "21",
    "prefectureNumber": 21,
    "prefecture": "岐阜県",
    "city": "関市",
    "town": "片倉町"
  },
  "5013964": {
    "zipcode": "5013964",
    "prefectureCode": "21",
    "prefectureNumber": 21,
    "prefecture": "岐阜県",
    "city": "関市",
    "town": "宝山町"
  },
  "5013965": {
    "zipcode": "5013965",
    "prefectureCode": "21",
    "prefectureNumber": 21,
    "prefecture": "岐阜県",
    "city": "関市",
    "town": "十六所"
  },
  "5013966": {
    "zipcode": "5013966",
    "prefectureCode": "21",
    "prefectureNumber": 21,
    "prefecture": "岐阜県",
    "city": "関市",
    "town": "居敷町"
  },
  "5013967": {
    "zipcode": "5013967",
    "prefectureCode": "21",
    "prefectureNumber": 21,
    "prefecture": "岐阜県",
    "city": "関市",
    "town": "西居敷"
  },
  "5013968": {
    "zipcode": "5013968",
    "prefectureCode": "21",
    "prefectureNumber": 21,
    "prefecture": "岐阜県",
    "city": "関市",
    "town": "力山"
  },
  "5013969": {
    "zipcode": "5013969",
    "prefectureCode": "21",
    "prefectureNumber": 21,
    "prefecture": "岐阜県",
    "city": "関市",
    "town": "馬場出"
  },
  "5013971": {
    "zipcode": "5013971",
    "prefectureCode": "21",
    "prefectureNumber": 21,
    "prefecture": "岐阜県",
    "city": "関市",
    "town": "古屋敷町"
  },
  "5013972": {
    "zipcode": "5013972",
    "prefectureCode": "21",
    "prefectureNumber": 21,
    "prefecture": "岐阜県",
    "city": "関市",
    "town": "寺内町"
  },
  "5013973": {
    "zipcode": "5013973",
    "prefectureCode": "21",
    "prefectureNumber": 21,
    "prefecture": "岐阜県",
    "city": "関市",
    "town": "一ツ山町"
  },
  "5013974": {
    "zipcode": "5013974",
    "prefectureCode": "21",
    "prefectureNumber": 21,
    "prefecture": "岐阜県",
    "city": "関市",
    "town": "梅ケ枝町"
  },
  "5013975": {
    "zipcode": "5013975",
    "prefectureCode": "21",
    "prefectureNumber": 21,
    "prefecture": "岐阜県",
    "city": "関市",
    "town": "豊川町"
  },
  "5013976": {
    "zipcode": "5013976",
    "prefectureCode": "21",
    "prefectureNumber": 21,
    "prefecture": "岐阜県",
    "city": "関市",
    "town": "梅竜寺山"
  },
  "5013977": {
    "zipcode": "5013977",
    "prefectureCode": "21",
    "prefectureNumber": 21,
    "prefecture": "岐阜県",
    "city": "関市",
    "town": "清水町"
  },
  "5013978": {
    "zipcode": "5013978",
    "prefectureCode": "21",
    "prefectureNumber": 21,
    "prefecture": "岐阜県",
    "city": "関市",
    "town": "赤渕"
  },
  "5013979": {
    "zipcode": "5013979",
    "prefectureCode": "21",
    "prefectureNumber": 21,
    "prefecture": "岐阜県",
    "city": "関市",
    "town": "一本木町"
  },
  "5014101": {
    "zipcode": "5014101",
    "prefectureCode": "21",
    "prefectureNumber": 21,
    "prefecture": "岐阜県",
    "city": "郡上市",
    "town": "美並町上田"
  },
  "5014102": {
    "zipcode": "5014102",
    "prefectureCode": "21",
    "prefectureNumber": 21,
    "prefecture": "岐阜県",
    "city": "郡上市",
    "town": "美並町高砂"
  },
  "5014103": {
    "zipcode": "5014103",
    "prefectureCode": "21",
    "prefectureNumber": 21,
    "prefecture": "岐阜県",
    "city": "郡上市",
    "town": "美並町山田"
  },
  "5014104": {
    "zipcode": "5014104",
    "prefectureCode": "21",
    "prefectureNumber": 21,
    "prefecture": "岐阜県",
    "city": "郡上市",
    "town": "美並町梅原"
  },
  "5014105": {
    "zipcode": "5014105",
    "prefectureCode": "21",
    "prefectureNumber": 21,
    "prefecture": "岐阜県",
    "city": "郡上市",
    "town": "美並町三戸"
  },
  "5014106": {
    "zipcode": "5014106",
    "prefectureCode": "21",
    "prefectureNumber": 21,
    "prefecture": "岐阜県",
    "city": "郡上市",
    "town": "美並町白山"
  },
  "5014107": {
    "zipcode": "5014107",
    "prefectureCode": "21",
    "prefectureNumber": 21,
    "prefecture": "岐阜県",
    "city": "郡上市",
    "town": "美並町大原"
  },
  "5014200": {
    "zipcode": "5014200",
    "prefectureCode": "21",
    "prefectureNumber": 21,
    "prefecture": "岐阜県",
    "city": "郡上市",
    "town": "以下に掲載がない場合"
  },
  "5014201": {
    "zipcode": "5014201",
    "prefectureCode": "21",
    "prefectureNumber": 21,
    "prefecture": "岐阜県",
    "city": "郡上市",
    "town": "八幡町有穂"
  },
  "5014202": {
    "zipcode": "5014202",
    "prefectureCode": "21",
    "prefectureNumber": 21,
    "prefecture": "岐阜県",
    "city": "郡上市",
    "town": "八幡町市島"
  },
  "5014203": {
    "zipcode": "5014203",
    "prefectureCode": "21",
    "prefectureNumber": 21,
    "prefecture": "岐阜県",
    "city": "郡上市",
    "town": "八幡町初納"
  },
  "5014204": {
    "zipcode": "5014204",
    "prefectureCode": "21",
    "prefectureNumber": 21,
    "prefecture": "岐阜県",
    "city": "郡上市",
    "town": "八幡町旭"
  },
  "5014205": {
    "zipcode": "5014205",
    "prefectureCode": "21",
    "prefectureNumber": 21,
    "prefecture": "岐阜県",
    "city": "郡上市",
    "town": "八幡町安久田"
  },
  "5014206": {
    "zipcode": "5014206",
    "prefectureCode": "21",
    "prefectureNumber": 21,
    "prefecture": "岐阜県",
    "city": "郡上市",
    "town": "八幡町吉野"
  },
  "5014207": {
    "zipcode": "5014207",
    "prefectureCode": "21",
    "prefectureNumber": 21,
    "prefecture": "岐阜県",
    "city": "郡上市",
    "town": "八幡町西乙原"
  },
  "5014211": {
    "zipcode": "5014211",
    "prefectureCode": "21",
    "prefectureNumber": 21,
    "prefecture": "岐阜県",
    "city": "郡上市",
    "town": "八幡町中坪"
  },
  "5014212": {
    "zipcode": "5014212",
    "prefectureCode": "21",
    "prefectureNumber": 21,
    "prefecture": "岐阜県",
    "city": "郡上市",
    "town": "八幡町職人町"
  },
  "5014213": {
    "zipcode": "5014213",
    "prefectureCode": "21",
    "prefectureNumber": 21,
    "prefecture": "岐阜県",
    "city": "郡上市",
    "town": "八幡町殿町"
  },
  "5014214": {
    "zipcode": "5014214",
    "prefectureCode": "21",
    "prefectureNumber": 21,
    "prefecture": "岐阜県",
    "city": "郡上市",
    "town": "八幡町柳町"
  },
  "5014215": {
    "zipcode": "5014215",
    "prefectureCode": "21",
    "prefectureNumber": 21,
    "prefecture": "岐阜県",
    "city": "郡上市",
    "town": "八幡町肴町"
  },
  "5014216": {
    "zipcode": "5014216",
    "prefectureCode": "21",
    "prefectureNumber": 21,
    "prefecture": "岐阜県",
    "city": "郡上市",
    "town": "八幡町本町"
  },
  "5014217": {
    "zipcode": "5014217",
    "prefectureCode": "21",
    "prefectureNumber": 21,
    "prefecture": "岐阜県",
    "city": "郡上市",
    "town": "八幡町尾崎町"
  },
  "5014218": {
    "zipcode": "5014218",
    "prefectureCode": "21",
    "prefectureNumber": 21,
    "prefecture": "岐阜県",
    "city": "郡上市",
    "town": "八幡町鍛冶屋町"
  },
  "5014219": {
    "zipcode": "5014219",
    "prefectureCode": "21",
    "prefectureNumber": 21,
    "prefecture": "岐阜県",
    "city": "郡上市",
    "town": "八幡町大手町"
  },
  "5014221": {
    "zipcode": "5014221",
    "prefectureCode": "21",
    "prefectureNumber": 21,
    "prefecture": "岐阜県",
    "city": "郡上市",
    "town": "八幡町小野"
  },
  "5014222": {
    "zipcode": "5014222",
    "prefectureCode": "21",
    "prefectureNumber": 21,
    "prefecture": "岐阜県",
    "city": "郡上市",
    "town": "八幡町島谷"
  },
  "5014223": {
    "zipcode": "5014223",
    "prefectureCode": "21",
    "prefectureNumber": 21,
    "prefecture": "岐阜県",
    "city": "郡上市",
    "town": "八幡町稲成"
  },
  "5014224": {
    "zipcode": "5014224",
    "prefectureCode": "21",
    "prefectureNumber": 21,
    "prefecture": "岐阜県",
    "city": "郡上市",
    "town": "八幡町城南町"
  },
  "5014225": {
    "zipcode": "5014225",
    "prefectureCode": "21",
    "prefectureNumber": 21,
    "prefecture": "岐阜県",
    "city": "郡上市",
    "town": "八幡町大正町"
  },
  "5014226": {
    "zipcode": "5014226",
    "prefectureCode": "21",
    "prefectureNumber": 21,
    "prefecture": "岐阜県",
    "city": "郡上市",
    "town": "八幡町新町"
  },
  "5014227": {
    "zipcode": "5014227",
    "prefectureCode": "21",
    "prefectureNumber": 21,
    "prefecture": "岐阜県",
    "city": "郡上市",
    "town": "八幡町橋本町"
  },
  "5014228": {
    "zipcode": "5014228",
    "prefectureCode": "21",
    "prefectureNumber": 21,
    "prefecture": "岐阜県",
    "city": "郡上市",
    "town": "八幡町桜町"
  },
  "5014231": {
    "zipcode": "5014231",
    "prefectureCode": "21",
    "prefectureNumber": 21,
    "prefecture": "岐阜県",
    "city": "郡上市",
    "town": "八幡町河鹿"
  },
  "5014232": {
    "zipcode": "5014232",
    "prefectureCode": "21",
    "prefectureNumber": 21,
    "prefecture": "岐阜県",
    "city": "郡上市",
    "town": "八幡町初音"
  },
  "5014233": {
    "zipcode": "5014233",
    "prefectureCode": "21",
    "prefectureNumber": 21,
    "prefecture": "岐阜県",
    "city": "郡上市",
    "town": "八幡町瀬取"
  },
  "5014234": {
    "zipcode": "5014234",
    "prefectureCode": "21",
    "prefectureNumber": 21,
    "prefecture": "岐阜県",
    "city": "郡上市",
    "town": "八幡町五町"
  },
  "5014235": {
    "zipcode": "5014235",
    "prefectureCode": "21",
    "prefectureNumber": 21,
    "prefecture": "岐阜県",
    "city": "郡上市",
    "town": "八幡町有坂"
  },
  "5014236": {
    "zipcode": "5014236",
    "prefectureCode": "21",
    "prefectureNumber": 21,
    "prefecture": "岐阜県",
    "city": "郡上市",
    "town": "八幡町相生"
  },
  "5014237": {
    "zipcode": "5014237",
    "prefectureCode": "21",
    "prefectureNumber": 21,
    "prefecture": "岐阜県",
    "city": "郡上市",
    "town": "八幡町那比"
  },
  "5014238": {
    "zipcode": "5014238",
    "prefectureCode": "21",
    "prefectureNumber": 21,
    "prefecture": "岐阜県",
    "city": "郡上市",
    "town": "八幡町島"
  },
  "5014241": {
    "zipcode": "5014241",
    "prefectureCode": "21",
    "prefectureNumber": 21,
    "prefecture": "岐阜県",
    "city": "郡上市",
    "town": "八幡町向山"
  },
  "5014301": {
    "zipcode": "5014301",
    "prefectureCode": "21",
    "prefectureNumber": 21,
    "prefecture": "岐阜県",
    "city": "郡上市",
    "town": "明宝大谷"
  },
  "5014302": {
    "zipcode": "5014302",
    "prefectureCode": "21",
    "prefectureNumber": 21,
    "prefecture": "岐阜県",
    "city": "郡上市",
    "town": "明宝寒水"
  },
  "5014303": {
    "zipcode": "5014303",
    "prefectureCode": "21",
    "prefectureNumber": 21,
    "prefecture": "岐阜県",
    "city": "郡上市",
    "town": "明宝気良"
  },
  "5014304": {
    "zipcode": "5014304",
    "prefectureCode": "21",
    "prefectureNumber": 21,
    "prefecture": "岐阜県",
    "city": "郡上市",
    "town": "明宝奥住"
  },
  "5014305": {
    "zipcode": "5014305",
    "prefectureCode": "21",
    "prefectureNumber": 21,
    "prefecture": "岐阜県",
    "city": "郡上市",
    "town": "明宝小川"
  },
  "5014306": {
    "zipcode": "5014306",
    "prefectureCode": "21",
    "prefectureNumber": 21,
    "prefecture": "岐阜県",
    "city": "郡上市",
    "town": "明宝畑佐"
  },
  "5014307": {
    "zipcode": "5014307",
    "prefectureCode": "21",
    "prefectureNumber": 21,
    "prefecture": "岐阜県",
    "city": "郡上市",
    "town": "明宝二間手"
  },
  "5014451": {
    "zipcode": "5014451",
    "prefectureCode": "21",
    "prefectureNumber": 21,
    "prefecture": "岐阜県",
    "city": "郡上市",
    "town": "八幡町入間"
  },
  "5014452": {
    "zipcode": "5014452",
    "prefectureCode": "21",
    "prefectureNumber": 21,
    "prefecture": "岐阜県",
    "city": "郡上市",
    "town": "八幡町美山"
  },
  "5014453": {
    "zipcode": "5014453",
    "prefectureCode": "21",
    "prefectureNumber": 21,
    "prefecture": "岐阜県",
    "city": "郡上市",
    "town": "八幡町洲河"
  },
  "5014454": {
    "zipcode": "5014454",
    "prefectureCode": "21",
    "prefectureNumber": 21,
    "prefecture": "岐阜県",
    "city": "郡上市",
    "town": "八幡町野々倉"
  },
  "5014455": {
    "zipcode": "5014455",
    "prefectureCode": "21",
    "prefectureNumber": 21,
    "prefecture": "岐阜県",
    "city": "郡上市",
    "town": "八幡町小那比"
  },
  "5014501": {
    "zipcode": "5014501",
    "prefectureCode": "21",
    "prefectureNumber": 21,
    "prefecture": "岐阜県",
    "city": "郡上市",
    "town": "和良町鹿倉"
  },
  "5014502": {
    "zipcode": "5014502",
    "prefectureCode": "21",
    "prefectureNumber": 21,
    "prefecture": "岐阜県",
    "city": "郡上市",
    "town": "和良町宮代"
  },
  "5014503": {
    "zipcode": "5014503",
    "prefectureCode": "21",
    "prefectureNumber": 21,
    "prefecture": "岐阜県",
    "city": "郡上市",
    "town": "和良町野尻"
  },
  "5014504": {
    "zipcode": "5014504",
    "prefectureCode": "21",
    "prefectureNumber": 21,
    "prefecture": "岐阜県",
    "city": "郡上市",
    "town": "和良町田平"
  },
  "5014505": {
    "zipcode": "5014505",
    "prefectureCode": "21",
    "prefectureNumber": 21,
    "prefecture": "岐阜県",
    "city": "郡上市",
    "town": "和良町東野"
  },
  "5014506": {
    "zipcode": "5014506",
    "prefectureCode": "21",
    "prefectureNumber": 21,
    "prefecture": "岐阜県",
    "city": "郡上市",
    "town": "和良町横野"
  },
  "5014507": {
    "zipcode": "5014507",
    "prefectureCode": "21",
    "prefectureNumber": 21,
    "prefecture": "岐阜県",
    "city": "郡上市",
    "town": "和良町宮地"
  },
  "5014508": {
    "zipcode": "5014508",
    "prefectureCode": "21",
    "prefectureNumber": 21,
    "prefecture": "岐阜県",
    "city": "郡上市",
    "town": "和良町上沢"
  },
  "5014509": {
    "zipcode": "5014509",
    "prefectureCode": "21",
    "prefectureNumber": 21,
    "prefecture": "岐阜県",
    "city": "郡上市",
    "town": "和良町下沢"
  },
  "5014510": {
    "zipcode": "5014510",
    "prefectureCode": "21",
    "prefectureNumber": 21,
    "prefecture": "岐阜県",
    "city": "郡上市",
    "town": "和良町法師丸"
  },
  "5014511": {
    "zipcode": "5014511",
    "prefectureCode": "21",
    "prefectureNumber": 21,
    "prefecture": "岐阜県",
    "city": "郡上市",
    "town": "和良町下洞"
  },
  "5014512": {
    "zipcode": "5014512",
    "prefectureCode": "21",
    "prefectureNumber": 21,
    "prefecture": "岐阜県",
    "city": "郡上市",
    "town": "和良町上土京"
  },
  "5014513": {
    "zipcode": "5014513",
    "prefectureCode": "21",
    "prefectureNumber": 21,
    "prefecture": "岐阜県",
    "city": "郡上市",
    "town": "和良町下土京"
  },
  "5014514": {
    "zipcode": "5014514",
    "prefectureCode": "21",
    "prefectureNumber": 21,
    "prefecture": "岐阜県",
    "city": "郡上市",
    "town": "和良町安郷野"
  },
  "5014515": {
    "zipcode": "5014515",
    "prefectureCode": "21",
    "prefectureNumber": 21,
    "prefecture": "岐阜県",
    "city": "郡上市",
    "town": "和良町方須"
  },
  "5014516": {
    "zipcode": "5014516",
    "prefectureCode": "21",
    "prefectureNumber": 21,
    "prefecture": "岐阜県",
    "city": "郡上市",
    "town": "和良町三庫"
  },
  "5014517": {
    "zipcode": "5014517",
    "prefectureCode": "21",
    "prefectureNumber": 21,
    "prefecture": "岐阜県",
    "city": "郡上市",
    "town": "和良町沢"
  },
  "5014518": {
    "zipcode": "5014518",
    "prefectureCode": "21",
    "prefectureNumber": 21,
    "prefecture": "岐阜県",
    "city": "郡上市",
    "town": "和良町土京"
  },
  "5014601": {
    "zipcode": "5014601",
    "prefectureCode": "21",
    "prefectureNumber": 21,
    "prefecture": "岐阜県",
    "city": "郡上市",
    "town": "大和町大間見"
  },
  "5014602": {
    "zipcode": "5014602",
    "prefectureCode": "21",
    "prefectureNumber": 21,
    "prefecture": "岐阜県",
    "city": "郡上市",
    "town": "大和町小間見"
  },
  "5014603": {
    "zipcode": "5014603",
    "prefectureCode": "21",
    "prefectureNumber": 21,
    "prefecture": "岐阜県",
    "city": "郡上市",
    "town": "大和町栗巣"
  },
  "5014604": {
    "zipcode": "5014604",
    "prefectureCode": "21",
    "prefectureNumber": 21,
    "prefecture": "岐阜県",
    "city": "郡上市",
    "town": "大和町古道"
  },
  "5014605": {
    "zipcode": "5014605",
    "prefectureCode": "21",
    "prefectureNumber": 21,
    "prefecture": "岐阜県",
    "city": "郡上市",
    "town": "大和町神路"
  },
  "5014606": {
    "zipcode": "5014606",
    "prefectureCode": "21",
    "prefectureNumber": 21,
    "prefecture": "岐阜県",
    "city": "郡上市",
    "town": "大和町河辺"
  },
  "5014607": {
    "zipcode": "5014607",
    "prefectureCode": "21",
    "prefectureNumber": 21,
    "prefecture": "岐阜県",
    "city": "郡上市",
    "town": "大和町徳永"
  },
  "5014608": {
    "zipcode": "5014608",
    "prefectureCode": "21",
    "prefectureNumber": 21,
    "prefecture": "岐阜県",
    "city": "郡上市",
    "town": "大和町牧"
  },
  "5014610": {
    "zipcode": "5014610",
    "prefectureCode": "21",
    "prefectureNumber": 21,
    "prefecture": "岐阜県",
    "city": "郡上市",
    "town": "大和町島"
  },
  "5014611": {
    "zipcode": "5014611",
    "prefectureCode": "21",
    "prefectureNumber": 21,
    "prefecture": "岐阜県",
    "city": "郡上市",
    "town": "大和町万場"
  },
  "5014612": {
    "zipcode": "5014612",
    "prefectureCode": "21",
    "prefectureNumber": 21,
    "prefecture": "岐阜県",
    "city": "郡上市",
    "town": "大和町剣"
  },
  "5014613": {
    "zipcode": "5014613",
    "prefectureCode": "21",
    "prefectureNumber": 21,
    "prefecture": "岐阜県",
    "city": "郡上市",
    "town": "大和町名皿部"
  },
  "5014614": {
    "zipcode": "5014614",
    "prefectureCode": "21",
    "prefectureNumber": 21,
    "prefecture": "岐阜県",
    "city": "郡上市",
    "town": "大和町野口"
  },
  "5014615": {
    "zipcode": "5014615",
    "prefectureCode": "21",
    "prefectureNumber": 21,
    "prefecture": "岐阜県",
    "city": "郡上市",
    "town": "大和町場皿"
  },
  "5014616": {
    "zipcode": "5014616",
    "prefectureCode": "21",
    "prefectureNumber": 21,
    "prefecture": "岐阜県",
    "city": "郡上市",
    "town": "大和町福田"
  },
  "5014617": {
    "zipcode": "5014617",
    "prefectureCode": "21",
    "prefectureNumber": 21,
    "prefecture": "岐阜県",
    "city": "郡上市",
    "town": "大和町洞口"
  },
  "5014618": {
    "zipcode": "5014618",
    "prefectureCode": "21",
    "prefectureNumber": 21,
    "prefecture": "岐阜県",
    "city": "郡上市",
    "town": "大和町内ケ谷"
  },
  "5014619": {
    "zipcode": "5014619",
    "prefectureCode": "21",
    "prefectureNumber": 21,
    "prefecture": "岐阜県",
    "city": "郡上市",
    "town": "大和町落部"
  },
  "5015101": {
    "zipcode": "5015101",
    "prefectureCode": "21",
    "prefectureNumber": 21,
    "prefecture": "岐阜県",
    "city": "郡上市",
    "town": "白鳥町前谷"
  },
  "5015102": {
    "zipcode": "5015102",
    "prefectureCode": "21",
    "prefectureNumber": 21,
    "prefecture": "岐阜県",
    "city": "郡上市",
    "town": "白鳥町歩岐島"
  },
  "5015103": {
    "zipcode": "5015103",
    "prefectureCode": "21",
    "prefectureNumber": 21,
    "prefecture": "岐阜県",
    "city": "郡上市",
    "town": "白鳥町二日町"
  },
  "5015104": {
    "zipcode": "5015104",
    "prefectureCode": "21",
    "prefectureNumber": 21,
    "prefecture": "岐阜県",
    "city": "郡上市",
    "town": "白鳥町長滝"
  },
  "5015105": {
    "zipcode": "5015105",
    "prefectureCode": "21",
    "prefectureNumber": 21,
    "prefecture": "岐阜県",
    "city": "郡上市",
    "town": "白鳥町干田野"
  },
  "5015111": {
    "zipcode": "5015111",
    "prefectureCode": "21",
    "prefectureNumber": 21,
    "prefecture": "岐阜県",
    "city": "郡上市",
    "town": "白鳥町阿多岐"
  },
  "5015112": {
    "zipcode": "5015112",
    "prefectureCode": "21",
    "prefectureNumber": 21,
    "prefecture": "岐阜県",
    "city": "郡上市",
    "town": "白鳥町六ノ里"
  },
  "5015113": {
    "zipcode": "5015113",
    "prefectureCode": "21",
    "prefectureNumber": 21,
    "prefecture": "岐阜県",
    "city": "郡上市",
    "town": "白鳥町野添"
  },
  "5015114": {
    "zipcode": "5015114",
    "prefectureCode": "21",
    "prefectureNumber": 21,
    "prefecture": "岐阜県",
    "city": "郡上市",
    "town": "白鳥町那留"
  },
  "5015115": {
    "zipcode": "5015115",
    "prefectureCode": "21",
    "prefectureNumber": 21,
    "prefecture": "岐阜県",
    "city": "郡上市",
    "town": "白鳥町恩地"
  },
  "5015116": {
    "zipcode": "5015116",
    "prefectureCode": "21",
    "prefectureNumber": 21,
    "prefecture": "岐阜県",
    "city": "郡上市",
    "town": "白鳥町中西"
  },
  "5015121": {
    "zipcode": "5015121",
    "prefectureCode": "21",
    "prefectureNumber": 21,
    "prefecture": "岐阜県",
    "city": "郡上市",
    "town": "白鳥町白鳥"
  },
  "5015122": {
    "zipcode": "5015122",
    "prefectureCode": "21",
    "prefectureNumber": 21,
    "prefecture": "岐阜県",
    "city": "郡上市",
    "town": "白鳥町為真"
  },
  "5015123": {
    "zipcode": "5015123",
    "prefectureCode": "21",
    "prefectureNumber": 21,
    "prefecture": "岐阜県",
    "city": "郡上市",
    "town": "白鳥町中津屋"
  },
  "5015124": {
    "zipcode": "5015124",
    "prefectureCode": "21",
    "prefectureNumber": 21,
    "prefecture": "岐阜県",
    "city": "郡上市",
    "town": "白鳥町大島"
  },
  "5015125": {
    "zipcode": "5015125",
    "prefectureCode": "21",
    "prefectureNumber": 21,
    "prefecture": "岐阜県",
    "city": "郡上市",
    "town": "白鳥町越佐"
  },
  "5015126": {
    "zipcode": "5015126",
    "prefectureCode": "21",
    "prefectureNumber": 21,
    "prefecture": "岐阜県",
    "city": "郡上市",
    "town": "白鳥町向小駄良"
  },
  "5015231": {
    "zipcode": "5015231",
    "prefectureCode": "21",
    "prefectureNumber": 21,
    "prefecture": "岐阜県",
    "city": "郡上市",
    "town": "白鳥町石徹白"
  },
  "5015301": {
    "zipcode": "5015301",
    "prefectureCode": "21",
    "prefectureNumber": 21,
    "prefecture": "岐阜県",
    "city": "郡上市",
    "town": "高鷲町ひるがの"
  },
  "5015302": {
    "zipcode": "5015302",
    "prefectureCode": "21",
    "prefectureNumber": 21,
    "prefecture": "岐阜県",
    "city": "郡上市",
    "town": "高鷲町鷲見（上野）"
  },
  "5015303": {
    "zipcode": "5015303",
    "prefectureCode": "21",
    "prefectureNumber": 21,
    "prefecture": "岐阜県",
    "city": "郡上市",
    "town": "高鷲町大鷲"
  },
  "5015304": {
    "zipcode": "5015304",
    "prefectureCode": "21",
    "prefectureNumber": 21,
    "prefecture": "岐阜県",
    "city": "郡上市",
    "town": "高鷲町切立"
  },
  "5015305": {
    "zipcode": "5015305",
    "prefectureCode": "21",
    "prefectureNumber": 21,
    "prefecture": "岐阜県",
    "city": "郡上市",
    "town": "高鷲町西洞"
  },
  "5015401": {
    "zipcode": "5015401",
    "prefectureCode": "21",
    "prefectureNumber": 21,
    "prefecture": "岐阜県",
    "city": "高山市",
    "town": "荘川町六厩"
  },
  "5015402": {
    "zipcode": "5015402",
    "prefectureCode": "21",
    "prefectureNumber": 21,
    "prefecture": "岐阜県",
    "city": "高山市",
    "town": "荘川町三谷"
  },
  "5015403": {
    "zipcode": "5015403",
    "prefectureCode": "21",
    "prefectureNumber": 21,
    "prefecture": "岐阜県",
    "city": "高山市",
    "town": "荘川町三尾河"
  },
  "5015404": {
    "zipcode": "5015404",
    "prefectureCode": "21",
    "prefectureNumber": 21,
    "prefecture": "岐阜県",
    "city": "高山市",
    "town": "荘川町黒谷"
  },
  "5015405": {
    "zipcode": "5015405",
    "prefectureCode": "21",
    "prefectureNumber": 21,
    "prefecture": "岐阜県",
    "city": "高山市",
    "town": "荘川町寺河戸"
  },
  "5015406": {
    "zipcode": "5015406",
    "prefectureCode": "21",
    "prefectureNumber": 21,
    "prefecture": "岐阜県",
    "city": "高山市",
    "town": "荘川町惣則"
  },
  "5015411": {
    "zipcode": "5015411",
    "prefectureCode": "21",
    "prefectureNumber": 21,
    "prefecture": "岐阜県",
    "city": "高山市",
    "town": "荘川町牧戸"
  },
  "5015412": {
    "zipcode": "5015412",
    "prefectureCode": "21",
    "prefectureNumber": 21,
    "prefecture": "岐阜県",
    "city": "高山市",
    "town": "荘川町中畑"
  },
  "5015413": {
    "zipcode": "5015413",
    "prefectureCode": "21",
    "prefectureNumber": 21,
    "prefecture": "岐阜県",
    "city": "高山市",
    "town": "荘川町新渕"
  },
  "5015414": {
    "zipcode": "5015414",
    "prefectureCode": "21",
    "prefectureNumber": 21,
    "prefecture": "岐阜県",
    "city": "高山市",
    "town": "荘川町猿丸"
  },
  "5015415": {
    "zipcode": "5015415",
    "prefectureCode": "21",
    "prefectureNumber": 21,
    "prefecture": "岐阜県",
    "city": "高山市",
    "town": "荘川町一色"
  },
  "5015416": {
    "zipcode": "5015416",
    "prefectureCode": "21",
    "prefectureNumber": 21,
    "prefecture": "岐阜県",
    "city": "高山市",
    "town": "荘川町町屋"
  },
  "5015417": {
    "zipcode": "5015417",
    "prefectureCode": "21",
    "prefectureNumber": 21,
    "prefecture": "岐阜県",
    "city": "高山市",
    "town": "荘川町野々俣"
  },
  "5015421": {
    "zipcode": "5015421",
    "prefectureCode": "21",
    "prefectureNumber": 21,
    "prefecture": "岐阜県",
    "city": "高山市",
    "town": "荘川町赤谷"
  },
  "5015422": {
    "zipcode": "5015422",
    "prefectureCode": "21",
    "prefectureNumber": 21,
    "prefecture": "岐阜県",
    "city": "高山市",
    "town": "荘川町牛丸"
  },
  "5015423": {
    "zipcode": "5015423",
    "prefectureCode": "21",
    "prefectureNumber": 21,
    "prefecture": "岐阜県",
    "city": "高山市",
    "town": "荘川町岩瀬"
  },
  "5015424": {
    "zipcode": "5015424",
    "prefectureCode": "21",
    "prefectureNumber": 21,
    "prefecture": "岐阜県",
    "city": "高山市",
    "town": "荘川町中野"
  },
  "5015425": {
    "zipcode": "5015425",
    "prefectureCode": "21",
    "prefectureNumber": 21,
    "prefecture": "岐阜県",
    "city": "高山市",
    "town": "荘川町海上"
  },
  "5015426": {
    "zipcode": "5015426",
    "prefectureCode": "21",
    "prefectureNumber": 21,
    "prefecture": "岐阜県",
    "city": "高山市",
    "town": "荘川町尾上郷"
  },
  "5015501": {
    "zipcode": "5015501",
    "prefectureCode": "21",
    "prefectureNumber": 21,
    "prefecture": "岐阜県",
    "city": "大野郡白川村",
    "town": "保木脇"
  },
  "5015502": {
    "zipcode": "5015502",
    "prefectureCode": "21",
    "prefectureNumber": 21,
    "prefecture": "岐阜県",
    "city": "大野郡白川村",
    "town": "木谷"
  },
  "5015503": {
    "zipcode": "5015503",
    "prefectureCode": "21",
    "prefectureNumber": 21,
    "prefecture": "岐阜県",
    "city": "大野郡白川村",
    "town": "長瀬"
  },
  "5015504": {
    "zipcode": "5015504",
    "prefectureCode": "21",
    "prefectureNumber": 21,
    "prefecture": "岐阜県",
    "city": "大野郡白川村",
    "town": "福島"
  },
  "5015505": {
    "zipcode": "5015505",
    "prefectureCode": "21",
    "prefectureNumber": 21,
    "prefecture": "岐阜県",
    "city": "大野郡白川村",
    "town": "牧"
  },
  "5015506": {
    "zipcode": "5015506",
    "prefectureCode": "21",
    "prefectureNumber": 21,
    "prefecture": "岐阜県",
    "city": "大野郡白川村",
    "town": "御母衣"
  },
  "5015507": {
    "zipcode": "5015507",
    "prefectureCode": "21",
    "prefectureNumber": 21,
    "prefecture": "岐阜県",
    "city": "大野郡白川村",
    "town": "平瀬"
  },
  "5015600": {
    "zipcode": "5015600",
    "prefectureCode": "21",
    "prefectureNumber": 21,
    "prefecture": "岐阜県",
    "city": "大野郡白川村",
    "town": "以下に掲載がない場合"
  },
  "5015620": {
    "zipcode": "5015620",
    "prefectureCode": "21",
    "prefectureNumber": 21,
    "prefecture": "岐阜県",
    "city": "大野郡白川村",
    "town": "馬狩"
  },
  "5015621": {
    "zipcode": "5015621",
    "prefectureCode": "21",
    "prefectureNumber": 21,
    "prefecture": "岐阜県",
    "city": "大野郡白川村",
    "town": "小白川"
  },
  "5015622": {
    "zipcode": "5015622",
    "prefectureCode": "21",
    "prefectureNumber": 21,
    "prefecture": "岐阜県",
    "city": "大野郡白川村",
    "town": "芦倉"
  },
  "5015623": {
    "zipcode": "5015623",
    "prefectureCode": "21",
    "prefectureNumber": 21,
    "prefecture": "岐阜県",
    "city": "大野郡白川村",
    "town": "椿原"
  },
  "5015624": {
    "zipcode": "5015624",
    "prefectureCode": "21",
    "prefectureNumber": 21,
    "prefecture": "岐阜県",
    "city": "大野郡白川村",
    "town": "有家ケ原"
  },
  "5015625": {
    "zipcode": "5015625",
    "prefectureCode": "21",
    "prefectureNumber": 21,
    "prefecture": "岐阜県",
    "city": "大野郡白川村",
    "town": "飯島"
  },
  "5015626": {
    "zipcode": "5015626",
    "prefectureCode": "21",
    "prefectureNumber": 21,
    "prefecture": "岐阜県",
    "city": "大野郡白川村",
    "town": "島"
  },
  "5015627": {
    "zipcode": "5015627",
    "prefectureCode": "21",
    "prefectureNumber": 21,
    "prefecture": "岐阜県",
    "city": "大野郡白川村",
    "town": "荻町"
  },
  "5015628": {
    "zipcode": "5015628",
    "prefectureCode": "21",
    "prefectureNumber": 21,
    "prefecture": "岐阜県",
    "city": "大野郡白川村",
    "town": "大牧"
  },
  "5015629": {
    "zipcode": "5015629",
    "prefectureCode": "21",
    "prefectureNumber": 21,
    "prefecture": "岐阜県",
    "city": "大野郡白川村",
    "town": "鳩谷"
  },
  "5016001": {
    "zipcode": "5016001",
    "prefectureCode": "21",
    "prefectureNumber": 21,
    "prefecture": "岐阜県",
    "city": "羽島郡岐南町",
    "town": "上印食"
  },
  "5016002": {
    "zipcode": "5016002",
    "prefectureCode": "21",
    "prefectureNumber": 21,
    "prefecture": "岐阜県",
    "city": "羽島郡岐南町",
    "town": "三宅"
  },
  "5016003": {
    "zipcode": "5016003",
    "prefectureCode": "21",
    "prefectureNumber": 21,
    "prefecture": "岐阜県",
    "city": "羽島郡岐南町",
    "town": "平島"
  },
  "5016004": {
    "zipcode": "5016004",
    "prefectureCode": "21",
    "prefectureNumber": 21,
    "prefecture": "岐阜県",
    "city": "羽島郡岐南町",
    "town": "野中"
  },
  "5016005": {
    "zipcode": "5016005",
    "prefectureCode": "21",
    "prefectureNumber": 21,
    "prefecture": "岐阜県",
    "city": "羽島郡岐南町",
    "town": "若宮地"
  },
  "5016006": {
    "zipcode": "5016006",
    "prefectureCode": "21",
    "prefectureNumber": 21,
    "prefecture": "岐阜県",
    "city": "羽島郡岐南町",
    "town": "伏屋"
  },
  "5016011": {
    "zipcode": "5016011",
    "prefectureCode": "21",
    "prefectureNumber": 21,
    "prefecture": "岐阜県",
    "city": "羽島郡岐南町",
    "town": "八剣北"
  },
  "5016012": {
    "zipcode": "5016012",
    "prefectureCode": "21",
    "prefectureNumber": 21,
    "prefecture": "岐阜県",
    "city": "羽島郡岐南町",
    "town": "八剣"
  },
  "5016013": {
    "zipcode": "5016013",
    "prefectureCode": "21",
    "prefectureNumber": 21,
    "prefecture": "岐阜県",
    "city": "羽島郡岐南町",
    "town": "平成"
  },
  "5016014": {
    "zipcode": "5016014",
    "prefectureCode": "21",
    "prefectureNumber": 21,
    "prefecture": "岐阜県",
    "city": "羽島郡岐南町",
    "town": "薬師寺"
  },
  "5016015": {
    "zipcode": "5016015",
    "prefectureCode": "21",
    "prefectureNumber": 21,
    "prefecture": "岐阜県",
    "city": "羽島郡岐南町",
    "town": "石原瀬"
  },
  "5016016": {
    "zipcode": "5016016",
    "prefectureCode": "21",
    "prefectureNumber": 21,
    "prefecture": "岐阜県",
    "city": "羽島郡岐南町",
    "town": "徳田"
  },
  "5016017": {
    "zipcode": "5016017",
    "prefectureCode": "21",
    "prefectureNumber": 21,
    "prefecture": "岐阜県",
    "city": "羽島郡岐南町",
    "town": "徳田西"
  },
  "5016018": {
    "zipcode": "5016018",
    "prefectureCode": "21",
    "prefectureNumber": 21,
    "prefecture": "岐阜県",
    "city": "羽島郡岐南町",
    "town": "下印食"
  },
  "5016019": {
    "zipcode": "5016019",
    "prefectureCode": "21",
    "prefectureNumber": 21,
    "prefecture": "岐阜県",
    "city": "羽島郡岐南町",
    "town": "みやまち"
  },
  "5016021": {
    "zipcode": "5016021",
    "prefectureCode": "21",
    "prefectureNumber": 21,
    "prefecture": "岐阜県",
    "city": "各務原市",
    "town": "川島笠田町"
  },
  "5016022": {
    "zipcode": "5016022",
    "prefectureCode": "21",
    "prefectureNumber": 21,
    "prefecture": "岐阜県",
    "city": "各務原市",
    "town": "川島松倉町"
  },
  "5016023": {
    "zipcode": "5016023",
    "prefectureCode": "21",
    "prefectureNumber": 21,
    "prefecture": "岐阜県",
    "city": "各務原市",
    "town": "川島小網町"
  },
  "5016024": {
    "zipcode": "5016024",
    "prefectureCode": "21",
    "prefectureNumber": 21,
    "prefecture": "岐阜県",
    "city": "各務原市",
    "town": "川島竹早町"
  },
  "5016025": {
    "zipcode": "5016025",
    "prefectureCode": "21",
    "prefectureNumber": 21,
    "prefecture": "岐阜県",
    "city": "各務原市",
    "town": "川島河田町"
  },
  "5016026": {
    "zipcode": "5016026",
    "prefectureCode": "21",
    "prefectureNumber": 21,
    "prefecture": "岐阜県",
    "city": "各務原市",
    "town": "川島松原町"
  },
  "5016027": {
    "zipcode": "5016027",
    "prefectureCode": "21",
    "prefectureNumber": 21,
    "prefecture": "岐阜県",
    "city": "各務原市",
    "town": "川島緑町"
  },
  "5016028": {
    "zipcode": "5016028",
    "prefectureCode": "21",
    "prefectureNumber": 21,
    "prefecture": "岐阜県",
    "city": "各務原市",
    "town": "川島渡町"
  },
  "5016029": {
    "zipcode": "5016029",
    "prefectureCode": "21",
    "prefectureNumber": 21,
    "prefecture": "岐阜県",
    "city": "各務原市",
    "town": "川島北山町"
  },
  "5016031": {
    "zipcode": "5016031",
    "prefectureCode": "21",
    "prefectureNumber": 21,
    "prefecture": "岐阜県",
    "city": "羽島郡笠松町",
    "town": "米野"
  },
  "5016032": {
    "zipcode": "5016032",
    "prefectureCode": "21",
    "prefectureNumber": 21,
    "prefecture": "岐阜県",
    "city": "羽島郡笠松町",
    "town": "江川"
  },
  "5016033": {
    "zipcode": "5016033",
    "prefectureCode": "21",
    "prefectureNumber": 21,
    "prefecture": "岐阜県",
    "city": "羽島郡笠松町",
    "town": "無動寺"
  },
  "5016034": {
    "zipcode": "5016034",
    "prefectureCode": "21",
    "prefectureNumber": 21,
    "prefecture": "岐阜県",
    "city": "羽島郡笠松町",
    "town": "中野"
  },
  "5016035": {
    "zipcode": "5016035",
    "prefectureCode": "21",
    "prefectureNumber": 21,
    "prefecture": "岐阜県",
    "city": "羽島郡笠松町",
    "town": "円城寺"
  },
  "5016036": {
    "zipcode": "5016036",
    "prefectureCode": "21",
    "prefectureNumber": 21,
    "prefecture": "岐阜県",
    "city": "羽島郡笠松町",
    "town": "若葉町"
  },
  "5016037": {
    "zipcode": "5016037",
    "prefectureCode": "21",
    "prefectureNumber": 21,
    "prefecture": "岐阜県",
    "city": "羽島郡笠松町",
    "town": "西金池町"
  },
  "5016038": {
    "zipcode": "5016038",
    "prefectureCode": "21",
    "prefectureNumber": 21,
    "prefecture": "岐阜県",
    "city": "羽島郡笠松町",
    "town": "東金池町"
  },
  "5016041": {
    "zipcode": "5016041",
    "prefectureCode": "21",
    "prefectureNumber": 21,
    "prefecture": "岐阜県",
    "city": "羽島郡笠松町",
    "town": "奈良町"
  },
  "5016042": {
    "zipcode": "5016042",
    "prefectureCode": "21",
    "prefectureNumber": 21,
    "prefecture": "岐阜県",
    "city": "羽島郡笠松町",
    "town": "八幡町"
  },
  "5016043": {
    "zipcode": "5016043",
    "prefectureCode": "21",
    "prefectureNumber": 21,
    "prefecture": "岐阜県",
    "city": "羽島郡笠松町",
    "town": "県町"
  },
  "5016044": {
    "zipcode": "5016044",
    "prefectureCode": "21",
    "prefectureNumber": 21,
    "prefecture": "岐阜県",
    "city": "羽島郡笠松町",
    "town": "相生町"
  },
  "5016045": {
    "zipcode": "5016045",
    "prefectureCode": "21",
    "prefectureNumber": 21,
    "prefecture": "岐阜県",
    "city": "羽島郡笠松町",
    "town": "司町"
  },
  "5016046": {
    "zipcode": "5016046",
    "prefectureCode": "21",
    "prefectureNumber": 21,
    "prefecture": "岐阜県",
    "city": "羽島郡笠松町",
    "town": "宮川町"
  },
  "5016047": {
    "zipcode": "5016047",
    "prefectureCode": "21",
    "prefectureNumber": 21,
    "prefecture": "岐阜県",
    "city": "羽島郡笠松町",
    "town": "二見町"
  },
  "5016051": {
    "zipcode": "5016051",
    "prefectureCode": "21",
    "prefectureNumber": 21,
    "prefecture": "岐阜県",
    "city": "羽島郡笠松町",
    "town": "上本町"
  },
  "5016052": {
    "zipcode": "5016052",
    "prefectureCode": "21",
    "prefectureNumber": 21,
    "prefecture": "岐阜県",
    "city": "羽島郡笠松町",
    "town": "下本町"
  },
  "5016053": {
    "zipcode": "5016053",
    "prefectureCode": "21",
    "prefectureNumber": 21,
    "prefecture": "岐阜県",
    "city": "羽島郡笠松町",
    "town": "港町"
  },
  "5016054": {
    "zipcode": "5016054",
    "prefectureCode": "21",
    "prefectureNumber": 21,
    "prefecture": "岐阜県",
    "city": "羽島郡笠松町",
    "town": "柳原町"
  },
  "5016055": {
    "zipcode": "5016055",
    "prefectureCode": "21",
    "prefectureNumber": 21,
    "prefecture": "岐阜県",
    "city": "羽島郡笠松町",
    "town": "西町"
  },
  "5016056": {
    "zipcode": "5016056",
    "prefectureCode": "21",
    "prefectureNumber": 21,
    "prefecture": "岐阜県",
    "city": "羽島郡笠松町",
    "town": "朝日町"
  },
  "5016057": {
    "zipcode": "5016057",
    "prefectureCode": "21",
    "prefectureNumber": 21,
    "prefecture": "岐阜県",
    "city": "羽島郡笠松町",
    "town": "下柳川町"
  },
  "5016058": {
    "zipcode": "5016058",
    "prefectureCode": "21",
    "prefectureNumber": 21,
    "prefecture": "岐阜県",
    "city": "羽島郡笠松町",
    "town": "上柳川町"
  },
  "5016059": {
    "zipcode": "5016059",
    "prefectureCode": "21",
    "prefectureNumber": 21,
    "prefecture": "岐阜県",
    "city": "羽島郡笠松町",
    "town": "東宮町"
  },
  "5016061": {
    "zipcode": "5016061",
    "prefectureCode": "21",
    "prefectureNumber": 21,
    "prefecture": "岐阜県",
    "city": "羽島郡笠松町",
    "town": "泉町"
  },
  "5016062": {
    "zipcode": "5016062",
    "prefectureCode": "21",
    "prefectureNumber": 21,
    "prefecture": "岐阜県",
    "city": "羽島郡笠松町",
    "town": "田代"
  },
  "5016063": {
    "zipcode": "5016063",
    "prefectureCode": "21",
    "prefectureNumber": 21,
    "prefecture": "岐阜県",
    "city": "羽島郡笠松町",
    "town": "長池"
  },
  "5016064": {
    "zipcode": "5016064",
    "prefectureCode": "21",
    "prefectureNumber": 21,
    "prefecture": "岐阜県",
    "city": "羽島郡笠松町",
    "town": "北及"
  },
  "5016065": {
    "zipcode": "5016065",
    "prefectureCode": "21",
    "prefectureNumber": 21,
    "prefecture": "岐阜県",
    "city": "羽島郡笠松町",
    "town": "門間"
  },
  "5016071": {
    "zipcode": "5016071",
    "prefectureCode": "21",
    "prefectureNumber": 21,
    "prefecture": "岐阜県",
    "city": "羽島郡笠松町",
    "town": "上新町"
  },
  "5016072": {
    "zipcode": "5016072",
    "prefectureCode": "21",
    "prefectureNumber": 21,
    "prefecture": "岐阜県",
    "city": "羽島郡笠松町",
    "town": "中新町"
  },
  "5016073": {
    "zipcode": "5016073",
    "prefectureCode": "21",
    "prefectureNumber": 21,
    "prefecture": "岐阜県",
    "city": "羽島郡笠松町",
    "town": "下新町"
  },
  "5016074": {
    "zipcode": "5016074",
    "prefectureCode": "21",
    "prefectureNumber": 21,
    "prefecture": "岐阜県",
    "city": "羽島郡笠松町",
    "town": "新町"
  },
  "5016075": {
    "zipcode": "5016075",
    "prefectureCode": "21",
    "prefectureNumber": 21,
    "prefecture": "岐阜県",
    "city": "羽島郡笠松町",
    "town": "西宮町"
  },
  "5016076": {
    "zipcode": "5016076",
    "prefectureCode": "21",
    "prefectureNumber": 21,
    "prefecture": "岐阜県",
    "city": "羽島郡笠松町",
    "town": "門前町"
  },
  "5016077": {
    "zipcode": "5016077",
    "prefectureCode": "21",
    "prefectureNumber": 21,
    "prefecture": "岐阜県",
    "city": "羽島郡笠松町",
    "town": "天王町"
  },
  "5016081": {
    "zipcode": "5016081",
    "prefectureCode": "21",
    "prefectureNumber": 21,
    "prefecture": "岐阜県",
    "city": "羽島郡笠松町",
    "town": "東陽町"
  },
  "5016082": {
    "zipcode": "5016082",
    "prefectureCode": "21",
    "prefectureNumber": 21,
    "prefecture": "岐阜県",
    "city": "羽島郡笠松町",
    "town": "春日町"
  },
  "5016083": {
    "zipcode": "5016083",
    "prefectureCode": "21",
    "prefectureNumber": 21,
    "prefecture": "岐阜県",
    "city": "羽島郡笠松町",
    "town": "常盤町"
  },
  "5016084": {
    "zipcode": "5016084",
    "prefectureCode": "21",
    "prefectureNumber": 21,
    "prefecture": "岐阜県",
    "city": "羽島郡笠松町",
    "town": "如月町"
  },
  "5016085": {
    "zipcode": "5016085",
    "prefectureCode": "21",
    "prefectureNumber": 21,
    "prefecture": "岐阜県",
    "city": "羽島郡笠松町",
    "town": "弥生町"
  },
  "5016086": {
    "zipcode": "5016086",
    "prefectureCode": "21",
    "prefectureNumber": 21,
    "prefecture": "岐阜県",
    "city": "羽島郡笠松町",
    "town": "清住町"
  },
  "5016087": {
    "zipcode": "5016087",
    "prefectureCode": "21",
    "prefectureNumber": 21,
    "prefecture": "岐阜県",
    "city": "羽島郡笠松町",
    "town": "大池町"
  },
  "5016088": {
    "zipcode": "5016088",
    "prefectureCode": "21",
    "prefectureNumber": 21,
    "prefecture": "岐阜県",
    "city": "羽島郡笠松町",
    "town": "美笠通"
  },
  "5016091": {
    "zipcode": "5016091",
    "prefectureCode": "21",
    "prefectureNumber": 21,
    "prefecture": "岐阜県",
    "city": "羽島郡笠松町",
    "town": "松栄町"
  },
  "5016092": {
    "zipcode": "5016092",
    "prefectureCode": "21",
    "prefectureNumber": 21,
    "prefecture": "岐阜県",
    "city": "羽島郡笠松町",
    "town": "月美町"
  },
  "5016093": {
    "zipcode": "5016093",
    "prefectureCode": "21",
    "prefectureNumber": 21,
    "prefecture": "岐阜県",
    "city": "羽島郡笠松町",
    "town": "緑町"
  },
  "5016094": {
    "zipcode": "5016094",
    "prefectureCode": "21",
    "prefectureNumber": 21,
    "prefecture": "岐阜県",
    "city": "羽島郡笠松町",
    "town": "羽衣町"
  },
  "5016095": {
    "zipcode": "5016095",
    "prefectureCode": "21",
    "prefectureNumber": 21,
    "prefecture": "岐阜県",
    "city": "羽島郡笠松町",
    "town": "中川町"
  },
  "5016096": {
    "zipcode": "5016096",
    "prefectureCode": "21",
    "prefectureNumber": 21,
    "prefecture": "岐阜県",
    "city": "羽島郡笠松町",
    "town": "友楽町"
  },
  "5016097": {
    "zipcode": "5016097",
    "prefectureCode": "21",
    "prefectureNumber": 21,
    "prefecture": "岐阜県",
    "city": "羽島郡笠松町",
    "town": "瓢町"
  },
  "5016098": {
    "zipcode": "5016098",
    "prefectureCode": "21",
    "prefectureNumber": 21,
    "prefecture": "岐阜県",
    "city": "羽島郡笠松町",
    "town": "桜町"
  },
  "5016100": {
    "zipcode": "5016100",
    "prefectureCode": "21",
    "prefectureNumber": 21,
    "prefecture": "岐阜県",
    "city": "羽島郡笠松町",
    "town": "以下に掲載がない場合"
  },
  "5016101": {
    "zipcode": "5016101",
    "prefectureCode": "21",
    "prefectureNumber": 21,
    "prefecture": "岐阜県",
    "city": "岐阜市",
    "town": "柳津町栄町"
  },
  "5016102": {
    "zipcode": "5016102",
    "prefectureCode": "21",
    "prefectureNumber": 21,
    "prefecture": "岐阜県",
    "city": "岐阜市",
    "town": "柳津町東塚"
  },
  "5016103": {
    "zipcode": "5016103",
    "prefectureCode": "21",
    "prefectureNumber": 21,
    "prefecture": "岐阜県",
    "city": "岐阜市",
    "town": "柳津町蓮池"
  },
  "5016104": {
    "zipcode": "5016104",
    "prefectureCode": "21",
    "prefectureNumber": 21,
    "prefecture": "岐阜県",
    "city": "岐阜市",
    "town": "柳津町本郷"
  },
  "5016105": {
    "zipcode": "5016105",
    "prefectureCode": "21",
    "prefectureNumber": 21,
    "prefecture": "岐阜県",
    "city": "岐阜市",
    "town": "柳津町梅松"
  },
  "5016111": {
    "zipcode": "5016111",
    "prefectureCode": "21",
    "prefectureNumber": 21,
    "prefecture": "岐阜県",
    "city": "岐阜市",
    "town": "柳津町宮東"
  },
  "5016112": {
    "zipcode": "5016112",
    "prefectureCode": "21",
    "prefectureNumber": 21,
    "prefecture": "岐阜県",
    "city": "岐阜市",
    "town": "柳津町北塚"
  },
  "5016113": {
    "zipcode": "5016113",
    "prefectureCode": "21",
    "prefectureNumber": 21,
    "prefecture": "岐阜県",
    "city": "岐阜市",
    "town": "柳津町南塚"
  },
  "5016115": {
    "zipcode": "5016115",
    "prefectureCode": "21",
    "prefectureNumber": 21,
    "prefecture": "岐阜県",
    "city": "岐阜市",
    "town": "柳津町丸野"
  },
  "5016121": {
    "zipcode": "5016121",
    "prefectureCode": "21",
    "prefectureNumber": 21,
    "prefecture": "岐阜県",
    "city": "岐阜市",
    "town": "柳津町下佐波西"
  },
  "5016122": {
    "zipcode": "5016122",
    "prefectureCode": "21",
    "prefectureNumber": 21,
    "prefecture": "岐阜県",
    "city": "岐阜市",
    "town": "柳津町高桑東"
  },
  "5016123": {
    "zipcode": "5016123",
    "prefectureCode": "21",
    "prefectureNumber": 21,
    "prefecture": "岐阜県",
    "city": "岐阜市",
    "town": "柳津町流通センター"
  },
  "5016131": {
    "zipcode": "5016131",
    "prefectureCode": "21",
    "prefectureNumber": 21,
    "prefecture": "岐阜県",
    "city": "岐阜市",
    "town": "高河原"
  },
  "5016132": {
    "zipcode": "5016132",
    "prefectureCode": "21",
    "prefectureNumber": 21,
    "prefecture": "岐阜県",
    "city": "岐阜市",
    "town": "次木"
  },
  "5016133": {
    "zipcode": "5016133",
    "prefectureCode": "21",
    "prefectureNumber": 21,
    "prefecture": "岐阜県",
    "city": "岐阜市",
    "town": "日置江"
  },
  "5016134": {
    "zipcode": "5016134",
    "prefectureCode": "21",
    "prefectureNumber": 21,
    "prefecture": "岐阜県",
    "city": "岐阜市",
    "town": "大脇"
  },
  "5016135": {
    "zipcode": "5016135",
    "prefectureCode": "21",
    "prefectureNumber": 21,
    "prefecture": "岐阜県",
    "city": "岐阜市",
    "town": "茶屋新田"
  },
  "5016200": {
    "zipcode": "5016200",
    "prefectureCode": "21",
    "prefectureNumber": 21,
    "prefecture": "岐阜県",
    "city": "羽島市",
    "town": "以下に掲載がない場合"
  },
  "5016201": {
    "zipcode": "5016201",
    "prefectureCode": "21",
    "prefectureNumber": 21,
    "prefecture": "岐阜県",
    "city": "羽島市",
    "town": "足近町北宿"
  },
  "5016202": {
    "zipcode": "5016202",
    "prefectureCode": "21",
    "prefectureNumber": 21,
    "prefecture": "岐阜県",
    "city": "羽島市",
    "town": "足近町市場"
  },
  "5016203": {
    "zipcode": "5016203",
    "prefectureCode": "21",
    "prefectureNumber": 21,
    "prefecture": "岐阜県",
    "city": "羽島市",
    "town": "足近町南宿"
  },
  "5016204": {
    "zipcode": "5016204",
    "prefectureCode": "21",
    "prefectureNumber": 21,
    "prefecture": "岐阜県",
    "city": "羽島市",
    "town": "足近町小荒井"
  },
  "5016205": {
    "zipcode": "5016205",
    "prefectureCode": "21",
    "prefectureNumber": 21,
    "prefecture": "岐阜県",
    "city": "羽島市",
    "town": "足近町南之川"
  },
  "5016206": {
    "zipcode": "5016206",
    "prefectureCode": "21",
    "prefectureNumber": 21,
    "prefecture": "岐阜県",
    "city": "羽島市",
    "town": "新生町"
  },
  "5016207": {
    "zipcode": "5016207",
    "prefectureCode": "21",
    "prefectureNumber": 21,
    "prefecture": "岐阜県",
    "city": "羽島市",
    "town": "足近町"
  },
  "5016208": {
    "zipcode": "5016208",
    "prefectureCode": "21",
    "prefectureNumber": 21,
    "prefecture": "岐阜県",
    "city": "羽島市",
    "town": "足近町坂井"
  },
  "5016209": {
    "zipcode": "5016209",
    "prefectureCode": "21",
    "prefectureNumber": 21,
    "prefecture": "岐阜県",
    "city": "羽島市",
    "town": "足近町直道"
  },
  "5016211": {
    "zipcode": "5016211",
    "prefectureCode": "21",
    "prefectureNumber": 21,
    "prefecture": "岐阜県",
    "city": "羽島市",
    "town": "正木町南及"
  },
  "5016212": {
    "zipcode": "5016212",
    "prefectureCode": "21",
    "prefectureNumber": 21,
    "prefecture": "岐阜県",
    "city": "羽島市",
    "town": "正木町上大浦"
  },
  "5016213": {
    "zipcode": "5016213",
    "prefectureCode": "21",
    "prefectureNumber": 21,
    "prefecture": "岐阜県",
    "city": "羽島市",
    "town": "正木町光法寺"
  },
  "5016214": {
    "zipcode": "5016214",
    "prefectureCode": "21",
    "prefectureNumber": 21,
    "prefecture": "岐阜県",
    "city": "羽島市",
    "town": "正木町須賀池端"
  },
  "5016215": {
    "zipcode": "5016215",
    "prefectureCode": "21",
    "prefectureNumber": 21,
    "prefecture": "岐阜県",
    "city": "羽島市",
    "town": "正木町須賀赤松"
  },
  "5016216": {
    "zipcode": "5016216",
    "prefectureCode": "21",
    "prefectureNumber": 21,
    "prefecture": "岐阜県",
    "city": "羽島市",
    "town": "正木町須賀"
  },
  "5016217": {
    "zipcode": "5016217",
    "prefectureCode": "21",
    "prefectureNumber": 21,
    "prefecture": "岐阜県",
    "city": "羽島市",
    "town": "正木町須賀小松"
  },
  "5016218": {
    "zipcode": "5016218",
    "prefectureCode": "21",
    "prefectureNumber": 21,
    "prefecture": "岐阜県",
    "city": "羽島市",
    "town": "正木町須賀本村"
  },
  "5016221": {
    "zipcode": "5016221",
    "prefectureCode": "21",
    "prefectureNumber": 21,
    "prefecture": "岐阜県",
    "city": "羽島市",
    "town": "正木町森"
  },
  "5016222": {
    "zipcode": "5016222",
    "prefectureCode": "21",
    "prefectureNumber": 21,
    "prefecture": "岐阜県",
    "city": "羽島市",
    "town": "正木町森新田"
  },
  "5016223": {
    "zipcode": "5016223",
    "prefectureCode": "21",
    "prefectureNumber": 21,
    "prefecture": "岐阜県",
    "city": "羽島市",
    "town": "正木町大浦新田"
  },
  "5016224": {
    "zipcode": "5016224",
    "prefectureCode": "21",
    "prefectureNumber": 21,
    "prefecture": "岐阜県",
    "city": "羽島市",
    "town": "正木町大浦"
  },
  "5016225": {
    "zipcode": "5016225",
    "prefectureCode": "21",
    "prefectureNumber": 21,
    "prefecture": "岐阜県",
    "city": "羽島市",
    "town": "正木町新井"
  },
  "5016226": {
    "zipcode": "5016226",
    "prefectureCode": "21",
    "prefectureNumber": 21,
    "prefecture": "岐阜県",
    "city": "羽島市",
    "town": "正木町三ツ柳"
  },
  "5016227": {
    "zipcode": "5016227",
    "prefectureCode": "21",
    "prefectureNumber": 21,
    "prefecture": "岐阜県",
    "city": "羽島市",
    "town": "正木町曲利"
  },
  "5016228": {
    "zipcode": "5016228",
    "prefectureCode": "21",
    "prefectureNumber": 21,
    "prefecture": "岐阜県",
    "city": "羽島市",
    "town": "正木町不破一色"
  },
  "5016229": {
    "zipcode": "5016229",
    "prefectureCode": "21",
    "prefectureNumber": 21,
    "prefecture": "岐阜県",
    "city": "羽島市",
    "town": "正木町坂丸"
  },
  "5016231": {
    "zipcode": "5016231",
    "prefectureCode": "21",
    "prefectureNumber": 21,
    "prefecture": "岐阜県",
    "city": "羽島市",
    "town": "竹鼻町神楽"
  },
  "5016232": {
    "zipcode": "5016232",
    "prefectureCode": "21",
    "prefectureNumber": 21,
    "prefecture": "岐阜県",
    "city": "羽島市",
    "town": "竹鼻町狐穴"
  },
  "5016233": {
    "zipcode": "5016233",
    "prefectureCode": "21",
    "prefectureNumber": 21,
    "prefecture": "岐阜県",
    "city": "羽島市",
    "town": "竹鼻町飯柄"
  },
  "5016234": {
    "zipcode": "5016234",
    "prefectureCode": "21",
    "prefectureNumber": 21,
    "prefecture": "岐阜県",
    "city": "羽島市",
    "town": "竹鼻町駒塚"
  },
  "5016235": {
    "zipcode": "5016235",
    "prefectureCode": "21",
    "prefectureNumber": 21,
    "prefecture": "岐阜県",
    "city": "羽島市",
    "town": "竹鼻町蜂尻"
  },
  "5016236": {
    "zipcode": "5016236",
    "prefectureCode": "21",
    "prefectureNumber": 21,
    "prefecture": "岐阜県",
    "city": "羽島市",
    "town": "江吉良町"
  },
  "5016237": {
    "zipcode": "5016237",
    "prefectureCode": "21",
    "prefectureNumber": 21,
    "prefecture": "岐阜県",
    "city": "羽島市",
    "town": "江吉良町江西"
  },
  "5016238": {
    "zipcode": "5016238",
    "prefectureCode": "21",
    "prefectureNumber": 21,
    "prefecture": "岐阜県",
    "city": "羽島市",
    "town": "江吉良町江中"
  },
  "5016239": {
    "zipcode": "5016239",
    "prefectureCode": "21",
    "prefectureNumber": 21,
    "prefecture": "岐阜県",
    "city": "羽島市",
    "town": "江吉良町江南"
  },
  "5016241": {
    "zipcode": "5016241",
    "prefectureCode": "21",
    "prefectureNumber": 21,
    "prefecture": "岐阜県",
    "city": "羽島市",
    "town": "竹鼻町"
  },
  "5016242": {
    "zipcode": "5016242",
    "prefectureCode": "21",
    "prefectureNumber": 21,
    "prefecture": "岐阜県",
    "city": "羽島市",
    "town": "竹鼻町錦町"
  },
  "5016243": {
    "zipcode": "5016243",
    "prefectureCode": "21",
    "prefectureNumber": 21,
    "prefecture": "岐阜県",
    "city": "羽島市",
    "town": "竹鼻町西野町"
  },
  "5016244": {
    "zipcode": "5016244",
    "prefectureCode": "21",
    "prefectureNumber": 21,
    "prefecture": "岐阜県",
    "city": "羽島市",
    "town": "竹鼻町丸の内"
  },
  "5016251": {
    "zipcode": "5016251",
    "prefectureCode": "21",
    "prefectureNumber": 21,
    "prefecture": "岐阜県",
    "city": "羽島市",
    "town": "福寿町間島"
  },
  "5016252": {
    "zipcode": "5016252",
    "prefectureCode": "21",
    "prefectureNumber": 21,
    "prefecture": "岐阜県",
    "city": "羽島市",
    "town": "小熊町島前"
  },
  "5016253": {
    "zipcode": "5016253",
    "prefectureCode": "21",
    "prefectureNumber": 21,
    "prefecture": "岐阜県",
    "city": "羽島市",
    "town": "小熊町島新道"
  },
  "5016254": {
    "zipcode": "5016254",
    "prefectureCode": "21",
    "prefectureNumber": 21,
    "prefecture": "岐阜県",
    "city": "羽島市",
    "town": "福寿町本郷"
  },
  "5016255": {
    "zipcode": "5016255",
    "prefectureCode": "21",
    "prefectureNumber": 21,
    "prefecture": "岐阜県",
    "city": "羽島市",
    "town": "福寿町浅平"
  },
  "5016256": {
    "zipcode": "5016256",
    "prefectureCode": "21",
    "prefectureNumber": 21,
    "prefecture": "岐阜県",
    "city": "羽島市",
    "town": "福寿町千代田"
  },
  "5016257": {
    "zipcode": "5016257",
    "prefectureCode": "21",
    "prefectureNumber": 21,
    "prefecture": "岐阜県",
    "city": "羽島市",
    "town": "福寿町平方"
  },
  "5016261": {
    "zipcode": "5016261",
    "prefectureCode": "21",
    "prefectureNumber": 21,
    "prefecture": "岐阜県",
    "city": "羽島市",
    "town": "小熊町外粟野"
  },
  "5016262": {
    "zipcode": "5016262",
    "prefectureCode": "21",
    "prefectureNumber": 21,
    "prefecture": "岐阜県",
    "city": "羽島市",
    "town": "小熊町内粟野"
  },
  "5016263": {
    "zipcode": "5016263",
    "prefectureCode": "21",
    "prefectureNumber": 21,
    "prefecture": "岐阜県",
    "city": "羽島市",
    "town": "小熊町江頭"
  },
  "5016264": {
    "zipcode": "5016264",
    "prefectureCode": "21",
    "prefectureNumber": 21,
    "prefecture": "岐阜県",
    "city": "羽島市",
    "town": "小熊町島"
  },
  "5016265": {
    "zipcode": "5016265",
    "prefectureCode": "21",
    "prefectureNumber": 21,
    "prefecture": "岐阜県",
    "city": "羽島市",
    "town": "小熊町川口前"
  },
  "5016266": {
    "zipcode": "5016266",
    "prefectureCode": "21",
    "prefectureNumber": 21,
    "prefecture": "岐阜県",
    "city": "羽島市",
    "town": "小熊町川口"
  },
  "5016267": {
    "zipcode": "5016267",
    "prefectureCode": "21",
    "prefectureNumber": 21,
    "prefecture": "岐阜県",
    "city": "羽島市",
    "town": "小熊町天王"
  },
  "5016271": {
    "zipcode": "5016271",
    "prefectureCode": "21",
    "prefectureNumber": 21,
    "prefecture": "岐阜県",
    "city": "羽島市",
    "town": "小熊町東小熊"
  },
  "5016272": {
    "zipcode": "5016272",
    "prefectureCode": "21",
    "prefectureNumber": 21,
    "prefecture": "岐阜県",
    "city": "羽島市",
    "town": "小熊町相田"
  },
  "5016273": {
    "zipcode": "5016273",
    "prefectureCode": "21",
    "prefectureNumber": 21,
    "prefecture": "岐阜県",
    "city": "羽島市",
    "town": "小熊町"
  },
  "5016274": {
    "zipcode": "5016274",
    "prefectureCode": "21",
    "prefectureNumber": 21,
    "prefecture": "岐阜県",
    "city": "羽島市",
    "town": "小熊町西小熊"
  },
  "5016301": {
    "zipcode": "5016301",
    "prefectureCode": "21",
    "prefectureNumber": 21,
    "prefecture": "岐阜県",
    "city": "羽島市",
    "town": "舟橋町宮北"
  },
  "5016302": {
    "zipcode": "5016302",
    "prefectureCode": "21",
    "prefectureNumber": 21,
    "prefecture": "岐阜県",
    "city": "羽島市",
    "town": "舟橋町"
  },
  "5016303": {
    "zipcode": "5016303",
    "prefectureCode": "21",
    "prefectureNumber": 21,
    "prefecture": "岐阜県",
    "city": "羽島市",
    "town": "舟橋町本町"
  },
  "5016304": {
    "zipcode": "5016304",
    "prefectureCode": "21",
    "prefectureNumber": 21,
    "prefecture": "岐阜県",
    "city": "羽島市",
    "town": "舟橋町出須賀"
  },
  "5016311": {
    "zipcode": "5016311",
    "prefectureCode": "21",
    "prefectureNumber": 21,
    "prefecture": "岐阜県",
    "city": "羽島市",
    "town": "上中町長間"
  },
  "5016312": {
    "zipcode": "5016312",
    "prefectureCode": "21",
    "prefectureNumber": 21,
    "prefecture": "岐阜県",
    "city": "羽島市",
    "town": "上中町一色"
  },
  "5016313": {
    "zipcode": "5016313",
    "prefectureCode": "21",
    "prefectureNumber": 21,
    "prefecture": "岐阜県",
    "city": "羽島市",
    "town": "下中町加賀野井"
  },
  "5016314": {
    "zipcode": "5016314",
    "prefectureCode": "21",
    "prefectureNumber": 21,
    "prefecture": "岐阜県",
    "city": "羽島市",
    "town": "下中町城屋敷"
  },
  "5016315": {
    "zipcode": "5016315",
    "prefectureCode": "21",
    "prefectureNumber": 21,
    "prefecture": "岐阜県",
    "city": "羽島市",
    "town": "下中町石田"
  },
  "5016316": {
    "zipcode": "5016316",
    "prefectureCode": "21",
    "prefectureNumber": 21,
    "prefecture": "岐阜県",
    "city": "羽島市",
    "town": "下中町市之枝"
  },
  "5016317": {
    "zipcode": "5016317",
    "prefectureCode": "21",
    "prefectureNumber": 21,
    "prefecture": "岐阜県",
    "city": "羽島市",
    "town": "上中町午北"
  },
  "5016318": {
    "zipcode": "5016318",
    "prefectureCode": "21",
    "prefectureNumber": 21,
    "prefecture": "岐阜県",
    "city": "羽島市",
    "town": "上中町沖"
  },
  "5016319": {
    "zipcode": "5016319",
    "prefectureCode": "21",
    "prefectureNumber": 21,
    "prefecture": "岐阜県",
    "city": "羽島市",
    "town": "上中町中"
  },
  "5016321": {
    "zipcode": "5016321",
    "prefectureCode": "21",
    "prefectureNumber": 21,
    "prefecture": "岐阜県",
    "city": "羽島市",
    "town": "桑原町八神"
  },
  "5016322": {
    "zipcode": "5016322",
    "prefectureCode": "21",
    "prefectureNumber": 21,
    "prefecture": "岐阜県",
    "city": "羽島市",
    "town": "桑原町前野"
  },
  "5016323": {
    "zipcode": "5016323",
    "prefectureCode": "21",
    "prefectureNumber": 21,
    "prefecture": "岐阜県",
    "city": "羽島市",
    "town": "桑原町午南"
  },
  "5016324": {
    "zipcode": "5016324",
    "prefectureCode": "21",
    "prefectureNumber": 21,
    "prefecture": "岐阜県",
    "city": "羽島市",
    "town": "桑原町小薮"
  },
  "5016325": {
    "zipcode": "5016325",
    "prefectureCode": "21",
    "prefectureNumber": 21,
    "prefecture": "岐阜県",
    "city": "羽島市",
    "town": "桑原町大須"
  },
  "5016326": {
    "zipcode": "5016326",
    "prefectureCode": "21",
    "prefectureNumber": 21,
    "prefecture": "岐阜県",
    "city": "羽島市",
    "town": "桑原町東方"
  },
  "5016327": {
    "zipcode": "5016327",
    "prefectureCode": "21",
    "prefectureNumber": 21,
    "prefecture": "岐阜県",
    "city": "羽島市",
    "town": "桑原町西小薮"
  },
  "5016328": {
    "zipcode": "5016328",
    "prefectureCode": "21",
    "prefectureNumber": 21,
    "prefecture": "岐阜県",
    "city": "羽島市",
    "town": "桑原町平太"
  },
  "5016330": {
    "zipcode": "5016330",
    "prefectureCode": "21",
    "prefectureNumber": 21,
    "prefecture": "岐阜県",
    "city": "羽島市",
    "town": "堀津町（その他）"
  },
  "5016331": {
    "zipcode": "5016331",
    "prefectureCode": "21",
    "prefectureNumber": 21,
    "prefecture": "岐阜県",
    "city": "羽島市",
    "town": "堀津町横手"
  },
  "5016332": {
    "zipcode": "5016332",
    "prefectureCode": "21",
    "prefectureNumber": 21,
    "prefecture": "岐阜県",
    "city": "羽島市",
    "town": "堀津町須賀北"
  },
  "5016333": {
    "zipcode": "5016333",
    "prefectureCode": "21",
    "prefectureNumber": 21,
    "prefecture": "岐阜県",
    "city": "羽島市",
    "town": "堀津町東山"
  },
  "5016334": {
    "zipcode": "5016334",
    "prefectureCode": "21",
    "prefectureNumber": 21,
    "prefecture": "岐阜県",
    "city": "羽島市",
    "town": "堀津町前谷"
  },
  "5016335": {
    "zipcode": "5016335",
    "prefectureCode": "21",
    "prefectureNumber": 21,
    "prefecture": "岐阜県",
    "city": "羽島市",
    "town": "堀津町須賀南"
  },
  "5016336": {
    "zipcode": "5016336",
    "prefectureCode": "21",
    "prefectureNumber": 21,
    "prefecture": "岐阜県",
    "city": "羽島市",
    "town": "堀津町須賀西"
  },
  "5016337": {
    "zipcode": "5016337",
    "prefectureCode": "21",
    "prefectureNumber": 21,
    "prefecture": "岐阜県",
    "city": "羽島市",
    "town": "堀津町中屋敷"
  },
  "5016338": {
    "zipcode": "5016338",
    "prefectureCode": "21",
    "prefectureNumber": 21,
    "prefecture": "岐阜県",
    "city": "羽島市",
    "town": "堀津町須賀中"
  }
}
