{
  "5020001": {
    "zipcode": "5020001",
    "prefectureCode": "21",
    "prefectureNumber": 21,
    "prefecture": "岐阜県",
    "city": "岐阜市",
    "town": "粟野"
  },
  "5020002": {
    "zipcode": "5020002",
    "prefectureCode": "21",
    "prefectureNumber": 21,
    "prefecture": "岐阜県",
    "city": "岐阜市",
    "town": "粟野東"
  },
  "5020003": {
    "zipcode": "5020003",
    "prefectureCode": "21",
    "prefectureNumber": 21,
    "prefecture": "岐阜県",
    "city": "岐阜市",
    "town": "三田洞東"
  },
  "5020004": {
    "zipcode": "5020004",
    "prefectureCode": "21",
    "prefectureNumber": 21,
    "prefecture": "岐阜県",
    "city": "岐阜市",
    "town": "三田洞"
  },
  "5020005": {
    "zipcode": "5020005",
    "prefectureCode": "21",
    "prefectureNumber": 21,
    "prefecture": "岐阜県",
    "city": "岐阜市",
    "town": "岩崎"
  },
  "5020006": {
    "zipcode": "5020006",
    "prefectureCode": "21",
    "prefectureNumber": 21,
    "prefecture": "岐阜県",
    "city": "岐阜市",
    "town": "粟野西"
  },
  "5020007": {
    "zipcode": "5020007",
    "prefectureCode": "21",
    "prefectureNumber": 21,
    "prefecture": "岐阜県",
    "city": "岐阜市",
    "town": "粟野台"
  },
  "5020011": {
    "zipcode": "5020011",
    "prefectureCode": "21",
    "prefectureNumber": 21,
    "prefecture": "岐阜県",
    "city": "岐阜市",
    "town": "長良古津"
  },
  "5020012": {
    "zipcode": "5020012",
    "prefectureCode": "21",
    "prefectureNumber": 21,
    "prefecture": "岐阜県",
    "city": "岐阜市",
    "town": "長良志段見"
  },
  "5020013": {
    "zipcode": "5020013",
    "prefectureCode": "21",
    "prefectureNumber": 21,
    "prefecture": "岐阜県",
    "city": "岐阜市",
    "town": "中川原"
  },
  "5020014": {
    "zipcode": "5020014",
    "prefectureCode": "21",
    "prefectureNumber": 21,
    "prefecture": "岐阜県",
    "city": "岐阜市",
    "town": "雄総緑町"
  },
  "5020015": {
    "zipcode": "5020015",
    "prefectureCode": "21",
    "prefectureNumber": 21,
    "prefecture": "岐阜県",
    "city": "岐阜市",
    "town": "雄総柳町"
  },
  "5020016": {
    "zipcode": "5020016",
    "prefectureCode": "21",
    "prefectureNumber": 21,
    "prefecture": "岐阜県",
    "city": "岐阜市",
    "town": "雄総桜町"
  },
  "5020017": {
    "zipcode": "5020017",
    "prefectureCode": "21",
    "prefectureNumber": 21,
    "prefecture": "岐阜県",
    "city": "岐阜市",
    "town": "長良雄総"
  },
  "5020021": {
    "zipcode": "5020021",
    "prefectureCode": "21",
    "prefectureNumber": 21,
    "prefecture": "岐阜県",
    "city": "岐阜市",
    "town": "西後町"
  },
  "5020022": {
    "zipcode": "5020022",
    "prefectureCode": "21",
    "prefectureNumber": 21,
    "prefecture": "岐阜県",
    "city": "岐阜市",
    "town": "長良東郷町"
  },
  "5020023": {
    "zipcode": "5020023",
    "prefectureCode": "21",
    "prefectureNumber": 21,
    "prefecture": "岐阜県",
    "city": "岐阜市",
    "town": "城前町"
  },
  "5020024": {
    "zipcode": "5020024",
    "prefectureCode": "21",
    "prefectureNumber": 21,
    "prefecture": "岐阜県",
    "city": "岐阜市",
    "town": "堀田町"
  },
  "5020025": {
    "zipcode": "5020025",
    "prefectureCode": "21",
    "prefectureNumber": 21,
    "prefecture": "岐阜県",
    "city": "岐阜市",
    "town": "山先町"
  },
  "5020026": {
    "zipcode": "5020026",
    "prefectureCode": "21",
    "prefectureNumber": 21,
    "prefecture": "岐阜県",
    "city": "岐阜市",
    "town": "長良桜井町"
  },
  "5020027": {
    "zipcode": "5020027",
    "prefectureCode": "21",
    "prefectureNumber": 21,
    "prefecture": "岐阜県",
    "city": "岐阜市",
    "town": "長良宮口町"
  },
  "5020028": {
    "zipcode": "5020028",
    "prefectureCode": "21",
    "prefectureNumber": 21,
    "prefecture": "岐阜県",
    "city": "岐阜市",
    "town": "長良白妙町"
  },
  "5020029": {
    "zipcode": "5020029",
    "prefectureCode": "21",
    "prefectureNumber": 21,
    "prefecture": "岐阜県",
    "city": "岐阜市",
    "town": "長良若葉町"
  },
  "5020031": {
    "zipcode": "5020031",
    "prefectureCode": "21",
    "prefectureNumber": 21,
    "prefecture": "岐阜県",
    "city": "岐阜市",
    "town": "長良大路"
  },
  "5020032": {
    "zipcode": "5020032",
    "prefectureCode": "21",
    "prefectureNumber": 21,
    "prefecture": "岐阜県",
    "city": "岐阜市",
    "town": "長良高嶺町"
  },
  "5020033": {
    "zipcode": "5020033",
    "prefectureCode": "21",
    "prefectureNumber": 21,
    "prefecture": "岐阜県",
    "city": "岐阜市",
    "town": "長良有楽町"
  },
  "5020034": {
    "zipcode": "5020034",
    "prefectureCode": "21",
    "prefectureNumber": 21,
    "prefecture": "岐阜県",
    "city": "岐阜市",
    "town": "長良有明町"
  },
  "5020035": {
    "zipcode": "5020035",
    "prefectureCode": "21",
    "prefectureNumber": 21,
    "prefecture": "岐阜県",
    "city": "岐阜市",
    "town": "長良南陽町"
  },
  "5020036": {
    "zipcode": "5020036",
    "prefectureCode": "21",
    "prefectureNumber": 21,
    "prefecture": "岐阜県",
    "city": "岐阜市",
    "town": "長良大前町"
  },
  "5020037": {
    "zipcode": "5020037",
    "prefectureCode": "21",
    "prefectureNumber": 21,
    "prefecture": "岐阜県",
    "city": "岐阜市",
    "town": "長良金碧町"
  },
  "5020038": {
    "zipcode": "5020038",
    "prefectureCode": "21",
    "prefectureNumber": 21,
    "prefecture": "岐阜県",
    "city": "岐阜市",
    "town": "長良法久寺町"
  },
  "5020041": {
    "zipcode": "5020041",
    "prefectureCode": "21",
    "prefectureNumber": 21,
    "prefecture": "岐阜県",
    "city": "岐阜市",
    "town": "長良海用町"
  },
  "5020042": {
    "zipcode": "5020042",
    "prefectureCode": "21",
    "prefectureNumber": 21,
    "prefecture": "岐阜県",
    "city": "岐阜市",
    "town": "長良城西町"
  },
  "5020043": {
    "zipcode": "5020043",
    "prefectureCode": "21",
    "prefectureNumber": 21,
    "prefecture": "岐阜県",
    "city": "岐阜市",
    "town": "長良東町"
  },
  "5020044": {
    "zipcode": "5020044",
    "prefectureCode": "21",
    "prefectureNumber": 21,
    "prefecture": "岐阜県",
    "city": "岐阜市",
    "town": "長良校文町"
  },
  "5020045": {
    "zipcode": "5020045",
    "prefectureCode": "21",
    "prefectureNumber": 21,
    "prefecture": "岐阜県",
    "city": "岐阜市",
    "town": "長良校前町"
  },
  "5020046": {
    "zipcode": "5020046",
    "prefectureCode": "21",
    "prefectureNumber": 21,
    "prefecture": "岐阜県",
    "city": "岐阜市",
    "town": "長良杉乃町"
  },
  "5020047": {
    "zipcode": "5020047",
    "prefectureCode": "21",
    "prefectureNumber": 21,
    "prefecture": "岐阜県",
    "city": "岐阜市",
    "town": "長良葵町"
  },
  "5020051": {
    "zipcode": "5020051",
    "prefectureCode": "21",
    "prefectureNumber": 21,
    "prefecture": "岐阜県",
    "city": "岐阜市",
    "town": "長良幸和町"
  },
  "5020052": {
    "zipcode": "5020052",
    "prefectureCode": "21",
    "prefectureNumber": 21,
    "prefecture": "岐阜県",
    "city": "岐阜市",
    "town": "長良小松町"
  },
  "5020053": {
    "zipcode": "5020053",
    "prefectureCode": "21",
    "prefectureNumber": 21,
    "prefecture": "岐阜県",
    "city": "岐阜市",
    "town": "長良宮路町"
  },
  "5020054": {
    "zipcode": "5020054",
    "prefectureCode": "21",
    "prefectureNumber": 21,
    "prefecture": "岐阜県",
    "city": "岐阜市",
    "town": "長良井田"
  },
  "5020055": {
    "zipcode": "5020055",
    "prefectureCode": "21",
    "prefectureNumber": 21,
    "prefecture": "岐阜県",
    "city": "岐阜市",
    "town": "長良福江町"
  },
  "5020056": {
    "zipcode": "5020056",
    "prefectureCode": "21",
    "prefectureNumber": 21,
    "prefecture": "岐阜県",
    "city": "岐阜市",
    "town": "長良真生町"
  },
  "5020061": {
    "zipcode": "5020061",
    "prefectureCode": "21",
    "prefectureNumber": 21,
    "prefecture": "岐阜県",
    "city": "岐阜市",
    "town": "長良竜東町"
  },
  "5020062": {
    "zipcode": "5020062",
    "prefectureCode": "21",
    "prefectureNumber": 21,
    "prefecture": "岐阜県",
    "city": "岐阜市",
    "town": "長良春田"
  },
  "5020063": {
    "zipcode": "5020063",
    "prefectureCode": "21",
    "prefectureNumber": 21,
    "prefecture": "岐阜県",
    "city": "岐阜市",
    "town": "長良一楽"
  },
  "5020064": {
    "zipcode": "5020064",
    "prefectureCode": "21",
    "prefectureNumber": 21,
    "prefecture": "岐阜県",
    "city": "岐阜市",
    "town": "長良田中前"
  },
  "5020065": {
    "zipcode": "5020065",
    "prefectureCode": "21",
    "prefectureNumber": 21,
    "prefecture": "岐阜県",
    "city": "岐阜市",
    "town": "長良森町"
  },
  "5020066": {
    "zipcode": "5020066",
    "prefectureCode": "21",
    "prefectureNumber": 21,
    "prefecture": "岐阜県",
    "city": "岐阜市",
    "town": "長良仙田町"
  },
  "5020067": {
    "zipcode": "5020067",
    "prefectureCode": "21",
    "prefectureNumber": 21,
    "prefecture": "岐阜県",
    "city": "岐阜市",
    "town": "長良西野前"
  },
  "5020071": {
    "zipcode": "5020071",
    "prefectureCode": "21",
    "prefectureNumber": 21,
    "prefecture": "岐阜県",
    "city": "岐阜市",
    "town": "長良（番地）"
  },
  "5020072": {
    "zipcode": "5020072",
    "prefectureCode": "21",
    "prefectureNumber": 21,
    "prefecture": "岐阜県",
    "city": "岐阜市",
    "town": "長良福泉"
  },
  "5020073": {
    "zipcode": "5020073",
    "prefectureCode": "21",
    "prefectureNumber": 21,
    "prefecture": "岐阜県",
    "city": "岐阜市",
    "town": "長良田中"
  },
  "5020074": {
    "zipcode": "5020074",
    "prefectureCode": "21",
    "prefectureNumber": 21,
    "prefecture": "岐阜県",
    "city": "岐阜市",
    "town": "長良西山前"
  },
  "5020075": {
    "zipcode": "5020075",
    "prefectureCode": "21",
    "prefectureNumber": 21,
    "prefecture": "岐阜県",
    "city": "岐阜市",
    "town": "長良子正賀"
  },
  "5020076": {
    "zipcode": "5020076",
    "prefectureCode": "21",
    "prefectureNumber": 21,
    "prefecture": "岐阜県",
    "city": "岐阜市",
    "town": "長良友瀬"
  },
  "5020077": {
    "zipcode": "5020077",
    "prefectureCode": "21",
    "prefectureNumber": 21,
    "prefecture": "岐阜県",
    "city": "岐阜市",
    "town": "長良奥郷"
  },
  "5020081": {
    "zipcode": "5020081",
    "prefectureCode": "21",
    "prefectureNumber": 21,
    "prefecture": "岐阜県",
    "city": "岐阜市",
    "town": "長良（丁目）"
  },
  "5020082": {
    "zipcode": "5020082",
    "prefectureCode": "21",
    "prefectureNumber": 21,
    "prefecture": "岐阜県",
    "city": "岐阜市",
    "town": "長良東"
  },
  "5020801": {
    "zipcode": "5020801",
    "prefectureCode": "21",
    "prefectureNumber": 21,
    "prefecture": "岐阜県",
    "city": "岐阜市",
    "town": "椿洞"
  },
  "5020802": {
    "zipcode": "5020802",
    "prefectureCode": "21",
    "prefectureNumber": 21,
    "prefecture": "岐阜県",
    "city": "岐阜市",
    "town": "打越"
  },
  "5020803": {
    "zipcode": "5020803",
    "prefectureCode": "21",
    "prefectureNumber": 21,
    "prefecture": "岐阜県",
    "city": "岐阜市",
    "town": "上土居"
  },
  "5020811": {
    "zipcode": "5020811",
    "prefectureCode": "21",
    "prefectureNumber": 21,
    "prefecture": "岐阜県",
    "city": "岐阜市",
    "town": "若福町"
  },
  "5020812": {
    "zipcode": "5020812",
    "prefectureCode": "21",
    "prefectureNumber": 21,
    "prefecture": "岐阜県",
    "city": "岐阜市",
    "town": "八代"
  },
  "5020813": {
    "zipcode": "5020813",
    "prefectureCode": "21",
    "prefectureNumber": 21,
    "prefecture": "岐阜県",
    "city": "岐阜市",
    "town": "福光東"
  },
  "5020814": {
    "zipcode": "5020814",
    "prefectureCode": "21",
    "prefectureNumber": 21,
    "prefecture": "岐阜県",
    "city": "岐阜市",
    "town": "福光西"
  },
  "5020815": {
    "zipcode": "5020815",
    "prefectureCode": "21",
    "prefectureNumber": 21,
    "prefecture": "岐阜県",
    "city": "岐阜市",
    "town": "福光南町"
  },
  "5020816": {
    "zipcode": "5020816",
    "prefectureCode": "21",
    "prefectureNumber": 21,
    "prefecture": "岐阜県",
    "city": "岐阜市",
    "town": "道三町"
  },
  "5020817": {
    "zipcode": "5020817",
    "prefectureCode": "21",
    "prefectureNumber": 21,
    "prefecture": "岐阜県",
    "city": "岐阜市",
    "town": "長良福光"
  },
  "5020821": {
    "zipcode": "5020821",
    "prefectureCode": "21",
    "prefectureNumber": 21,
    "prefecture": "岐阜県",
    "city": "岐阜市",
    "town": "太平町"
  },
  "5020822": {
    "zipcode": "5020822",
    "prefectureCode": "21",
    "prefectureNumber": 21,
    "prefecture": "岐阜県",
    "city": "岐阜市",
    "town": "福田町"
  },
  "5020823": {
    "zipcode": "5020823",
    "prefectureCode": "21",
    "prefectureNumber": 21,
    "prefecture": "岐阜県",
    "city": "岐阜市",
    "town": "光栄町"
  },
  "5020824": {
    "zipcode": "5020824",
    "prefectureCode": "21",
    "prefectureNumber": 21,
    "prefecture": "岐阜県",
    "city": "岐阜市",
    "town": "花ノ木町"
  },
  "5020825": {
    "zipcode": "5020825",
    "prefectureCode": "21",
    "prefectureNumber": 21,
    "prefecture": "岐阜県",
    "city": "岐阜市",
    "town": "初日町"
  },
  "5020826": {
    "zipcode": "5020826",
    "prefectureCode": "21",
    "prefectureNumber": 21,
    "prefecture": "岐阜県",
    "city": "岐阜市",
    "town": "楠町"
  },
  "5020827": {
    "zipcode": "5020827",
    "prefectureCode": "21",
    "prefectureNumber": 21,
    "prefecture": "岐阜県",
    "city": "岐阜市",
    "town": "平和通"
  },
  "5020828": {
    "zipcode": "5020828",
    "prefectureCode": "21",
    "prefectureNumber": 21,
    "prefecture": "岐阜県",
    "city": "岐阜市",
    "town": "金華町"
  },
  "5020829": {
    "zipcode": "5020829",
    "prefectureCode": "21",
    "prefectureNumber": 21,
    "prefecture": "岐阜県",
    "city": "岐阜市",
    "town": "万代町"
  },
  "5020831": {
    "zipcode": "5020831",
    "prefectureCode": "21",
    "prefectureNumber": 21,
    "prefecture": "岐阜県",
    "city": "岐阜市",
    "town": "菊水町"
  },
  "5020832": {
    "zipcode": "5020832",
    "prefectureCode": "21",
    "prefectureNumber": 21,
    "prefecture": "岐阜県",
    "city": "岐阜市",
    "town": "千代田町"
  },
  "5020833": {
    "zipcode": "5020833",
    "prefectureCode": "21",
    "prefectureNumber": 21,
    "prefecture": "岐阜県",
    "city": "岐阜市",
    "town": "松風町"
  },
  "5020834": {
    "zipcode": "5020834",
    "prefectureCode": "21",
    "prefectureNumber": 21,
    "prefecture": "岐阜県",
    "city": "岐阜市",
    "town": "養老町"
  },
  "5020835": {
    "zipcode": "5020835",
    "prefectureCode": "21",
    "prefectureNumber": 21,
    "prefecture": "岐阜県",
    "city": "岐阜市",
    "town": "織田町"
  },
  "5020836": {
    "zipcode": "5020836",
    "prefectureCode": "21",
    "prefectureNumber": 21,
    "prefecture": "岐阜県",
    "city": "岐阜市",
    "town": "若竹町"
  },
  "5020837": {
    "zipcode": "5020837",
    "prefectureCode": "21",
    "prefectureNumber": 21,
    "prefecture": "岐阜県",
    "city": "岐阜市",
    "town": "鵜川町"
  },
  "5020838": {
    "zipcode": "5020838",
    "prefectureCode": "21",
    "prefectureNumber": 21,
    "prefecture": "岐阜県",
    "city": "岐阜市",
    "town": "長良丘"
  },
  "5020841": {
    "zipcode": "5020841",
    "prefectureCode": "21",
    "prefectureNumber": 21,
    "prefecture": "岐阜県",
    "city": "岐阜市",
    "town": "学園町"
  },
  "5020842": {
    "zipcode": "5020842",
    "prefectureCode": "21",
    "prefectureNumber": 21,
    "prefecture": "岐阜県",
    "city": "岐阜市",
    "town": "早田（その他）"
  },
  "5020843": {
    "zipcode": "5020843",
    "prefectureCode": "21",
    "prefectureNumber": 21,
    "prefecture": "岐阜県",
    "city": "岐阜市",
    "town": "早田東町"
  },
  "5020844": {
    "zipcode": "5020844",
    "prefectureCode": "21",
    "prefectureNumber": 21,
    "prefecture": "岐阜県",
    "city": "岐阜市",
    "town": "岩倉町"
  },
  "5020845": {
    "zipcode": "5020845",
    "prefectureCode": "21",
    "prefectureNumber": 21,
    "prefecture": "岐阜県",
    "city": "岐阜市",
    "town": "早田町"
  },
  "5020846": {
    "zipcode": "5020846",
    "prefectureCode": "21",
    "prefectureNumber": 21,
    "prefecture": "岐阜県",
    "city": "岐阜市",
    "town": "津島町"
  },
  "5020847": {
    "zipcode": "5020847",
    "prefectureCode": "21",
    "prefectureNumber": 21,
    "prefecture": "岐阜県",
    "city": "岐阜市",
    "town": "早田栄町"
  },
  "5020848": {
    "zipcode": "5020848",
    "prefectureCode": "21",
    "prefectureNumber": 21,
    "prefecture": "岐阜県",
    "city": "岐阜市",
    "town": "早田本町"
  },
  "5020849": {
    "zipcode": "5020849",
    "prefectureCode": "21",
    "prefectureNumber": 21,
    "prefecture": "岐阜県",
    "city": "岐阜市",
    "town": "栄新町"
  },
  "5020850": {
    "zipcode": "5020850",
    "prefectureCode": "21",
    "prefectureNumber": 21,
    "prefecture": "岐阜県",
    "city": "岐阜市",
    "town": "鷺山東"
  },
  "5020851": {
    "zipcode": "5020851",
    "prefectureCode": "21",
    "prefectureNumber": 21,
    "prefecture": "岐阜県",
    "city": "岐阜市",
    "town": "鷺山"
  },
  "5020852": {
    "zipcode": "5020852",
    "prefectureCode": "21",
    "prefectureNumber": 21,
    "prefecture": "岐阜県",
    "city": "岐阜市",
    "town": "南蝉"
  },
  "5020853": {
    "zipcode": "5020853",
    "prefectureCode": "21",
    "prefectureNumber": 21,
    "prefecture": "岐阜県",
    "city": "岐阜市",
    "town": "鷺山清洲町"
  },
  "5020854": {
    "zipcode": "5020854",
    "prefectureCode": "21",
    "prefectureNumber": 21,
    "prefecture": "岐阜県",
    "city": "岐阜市",
    "town": "鷺山向井町"
  },
  "5020855": {
    "zipcode": "5020855",
    "prefectureCode": "21",
    "prefectureNumber": 21,
    "prefecture": "岐阜県",
    "city": "岐阜市",
    "town": "鷺山緑ケ丘"
  },
  "5020856": {
    "zipcode": "5020856",
    "prefectureCode": "21",
    "prefectureNumber": 21,
    "prefecture": "岐阜県",
    "city": "岐阜市",
    "town": "鷺山緑ケ丘新町"
  },
  "5020857": {
    "zipcode": "5020857",
    "prefectureCode": "21",
    "prefectureNumber": 21,
    "prefecture": "岐阜県",
    "city": "岐阜市",
    "town": "正木"
  },
  "5020858": {
    "zipcode": "5020858",
    "prefectureCode": "21",
    "prefectureNumber": 21,
    "prefecture": "岐阜県",
    "city": "岐阜市",
    "town": "下土居"
  },
  "5020859": {
    "zipcode": "5020859",
    "prefectureCode": "21",
    "prefectureNumber": 21,
    "prefecture": "岐阜県",
    "city": "岐阜市",
    "town": "城田寺"
  },
  "5020861": {
    "zipcode": "5020861",
    "prefectureCode": "21",
    "prefectureNumber": 21,
    "prefecture": "岐阜県",
    "city": "岐阜市",
    "town": "上城田寺南"
  },
  "5020862": {
    "zipcode": "5020862",
    "prefectureCode": "21",
    "prefectureNumber": 21,
    "prefecture": "岐阜県",
    "city": "岐阜市",
    "town": "上城田寺中"
  },
  "5020863": {
    "zipcode": "5020863",
    "prefectureCode": "21",
    "prefectureNumber": 21,
    "prefecture": "岐阜県",
    "city": "岐阜市",
    "town": "上城田寺西"
  },
  "5020864": {
    "zipcode": "5020864",
    "prefectureCode": "21",
    "prefectureNumber": 21,
    "prefecture": "岐阜県",
    "city": "岐阜市",
    "town": "上城田寺東"
  },
  "5020865": {
    "zipcode": "5020865",
    "prefectureCode": "21",
    "prefectureNumber": 21,
    "prefecture": "岐阜県",
    "city": "岐阜市",
    "town": "正木西町"
  },
  "5020866": {
    "zipcode": "5020866",
    "prefectureCode": "21",
    "prefectureNumber": 21,
    "prefecture": "岐阜県",
    "city": "岐阜市",
    "town": "正木南"
  },
  "5020867": {
    "zipcode": "5020867",
    "prefectureCode": "21",
    "prefectureNumber": 21,
    "prefecture": "岐阜県",
    "city": "岐阜市",
    "town": "鷺山南"
  },
  "5020871": {
    "zipcode": "5020871",
    "prefectureCode": "21",
    "prefectureNumber": 21,
    "prefecture": "岐阜県",
    "city": "岐阜市",
    "town": "鷺山新町"
  },
  "5020872": {
    "zipcode": "5020872",
    "prefectureCode": "21",
    "prefectureNumber": 21,
    "prefecture": "岐阜県",
    "city": "岐阜市",
    "town": "鷺山北町"
  },
  "5020881": {
    "zipcode": "5020881",
    "prefectureCode": "21",
    "prefectureNumber": 21,
    "prefecture": "岐阜県",
    "city": "岐阜市",
    "town": "正木北町"
  },
  "5020882": {
    "zipcode": "5020882",
    "prefectureCode": "21",
    "prefectureNumber": 21,
    "prefecture": "岐阜県",
    "city": "岐阜市",
    "town": "正木中"
  },
  "5020901": {
    "zipcode": "5020901",
    "prefectureCode": "21",
    "prefectureNumber": 21,
    "prefecture": "岐阜県",
    "city": "岐阜市",
    "town": "光町"
  },
  "5020902": {
    "zipcode": "5020902",
    "prefectureCode": "21",
    "prefectureNumber": 21,
    "prefecture": "岐阜県",
    "city": "岐阜市",
    "town": "早田大通"
  },
  "5020903": {
    "zipcode": "5020903",
    "prefectureCode": "21",
    "prefectureNumber": 21,
    "prefecture": "岐阜県",
    "city": "岐阜市",
    "town": "美島町"
  },
  "5020904": {
    "zipcode": "5020904",
    "prefectureCode": "21",
    "prefectureNumber": 21,
    "prefecture": "岐阜県",
    "city": "岐阜市",
    "town": "島栄町"
  },
  "5020905": {
    "zipcode": "5020905",
    "prefectureCode": "21",
    "prefectureNumber": 21,
    "prefecture": "岐阜県",
    "city": "岐阜市",
    "town": "山吹町"
  },
  "5020906": {
    "zipcode": "5020906",
    "prefectureCode": "21",
    "prefectureNumber": 21,
    "prefecture": "岐阜県",
    "city": "岐阜市",
    "town": "池ノ上町"
  },
  "5020907": {
    "zipcode": "5020907",
    "prefectureCode": "21",
    "prefectureNumber": 21,
    "prefecture": "岐阜県",
    "city": "岐阜市",
    "town": "島新町"
  },
  "5020908": {
    "zipcode": "5020908",
    "prefectureCode": "21",
    "prefectureNumber": 21,
    "prefecture": "岐阜県",
    "city": "岐阜市",
    "town": "近島"
  },
  "5020909": {
    "zipcode": "5020909",
    "prefectureCode": "21",
    "prefectureNumber": 21,
    "prefecture": "岐阜県",
    "city": "岐阜市",
    "town": "白菊町"
  },
  "5020911": {
    "zipcode": "5020911",
    "prefectureCode": "21",
    "prefectureNumber": 21,
    "prefecture": "岐阜県",
    "city": "岐阜市",
    "town": "北島"
  },
  "5020912": {
    "zipcode": "5020912",
    "prefectureCode": "21",
    "prefectureNumber": 21,
    "prefecture": "岐阜県",
    "city": "岐阜市",
    "town": "西島町"
  },
  "5020913": {
    "zipcode": "5020913",
    "prefectureCode": "21",
    "prefectureNumber": 21,
    "prefecture": "岐阜県",
    "city": "岐阜市",
    "town": "東島"
  },
  "5020914": {
    "zipcode": "5020914",
    "prefectureCode": "21",
    "prefectureNumber": 21,
    "prefecture": "岐阜県",
    "city": "岐阜市",
    "town": "菅生"
  },
  "5020915": {
    "zipcode": "5020915",
    "prefectureCode": "21",
    "prefectureNumber": 21,
    "prefecture": "岐阜県",
    "city": "岐阜市",
    "town": "江口"
  },
  "5020916": {
    "zipcode": "5020916",
    "prefectureCode": "21",
    "prefectureNumber": 21,
    "prefecture": "岐阜県",
    "city": "岐阜市",
    "town": "西中島"
  },
  "5020917": {
    "zipcode": "5020917",
    "prefectureCode": "21",
    "prefectureNumber": 21,
    "prefecture": "岐阜県",
    "city": "岐阜市",
    "town": "島田"
  },
  "5020921": {
    "zipcode": "5020921",
    "prefectureCode": "21",
    "prefectureNumber": 21,
    "prefecture": "岐阜県",
    "city": "岐阜市",
    "town": "守口町"
  },
  "5020922": {
    "zipcode": "5020922",
    "prefectureCode": "21",
    "prefectureNumber": 21,
    "prefecture": "岐阜県",
    "city": "岐阜市",
    "town": "明神町"
  },
  "5020923": {
    "zipcode": "5020923",
    "prefectureCode": "21",
    "prefectureNumber": 21,
    "prefecture": "岐阜県",
    "city": "岐阜市",
    "town": "宮浦町"
  },
  "5020924": {
    "zipcode": "5020924",
    "prefectureCode": "21",
    "prefectureNumber": 21,
    "prefecture": "岐阜県",
    "city": "岐阜市",
    "town": "旦島宮町"
  },
  "5020925": {
    "zipcode": "5020925",
    "prefectureCode": "21",
    "prefectureNumber": 21,
    "prefecture": "岐阜県",
    "city": "岐阜市",
    "town": "旦島中町"
  },
  "5020926": {
    "zipcode": "5020926",
    "prefectureCode": "21",
    "prefectureNumber": 21,
    "prefecture": "岐阜県",
    "city": "岐阜市",
    "town": "旦島"
  },
  "5020927": {
    "zipcode": "5020927",
    "prefectureCode": "21",
    "prefectureNumber": 21,
    "prefecture": "岐阜県",
    "city": "岐阜市",
    "town": "旦島西町"
  },
  "5020928": {
    "zipcode": "5020928",
    "prefectureCode": "21",
    "prefectureNumber": 21,
    "prefecture": "岐阜県",
    "city": "岐阜市",
    "town": "旦島中"
  },
  "5020929": {
    "zipcode": "5020929",
    "prefectureCode": "21",
    "prefectureNumber": 21,
    "prefecture": "岐阜県",
    "city": "岐阜市",
    "town": "則武東"
  },
  "5020931": {
    "zipcode": "5020931",
    "prefectureCode": "21",
    "prefectureNumber": 21,
    "prefecture": "岐阜県",
    "city": "岐阜市",
    "town": "則武"
  },
  "5020932": {
    "zipcode": "5020932",
    "prefectureCode": "21",
    "prefectureNumber": 21,
    "prefecture": "岐阜県",
    "city": "岐阜市",
    "town": "則武中"
  },
  "5020933": {
    "zipcode": "5020933",
    "prefectureCode": "21",
    "prefectureNumber": 21,
    "prefecture": "岐阜県",
    "city": "岐阜市",
    "town": "日光町"
  },
  "5020934": {
    "zipcode": "5020934",
    "prefectureCode": "21",
    "prefectureNumber": 21,
    "prefecture": "岐阜県",
    "city": "岐阜市",
    "town": "大福町"
  },
  "5020935": {
    "zipcode": "5020935",
    "prefectureCode": "21",
    "prefectureNumber": 21,
    "prefecture": "岐阜県",
    "city": "岐阜市",
    "town": "萱場東町"
  },
  "5020936": {
    "zipcode": "5020936",
    "prefectureCode": "21",
    "prefectureNumber": 21,
    "prefecture": "岐阜県",
    "city": "岐阜市",
    "town": "萱場南"
  },
  "5020937": {
    "zipcode": "5020937",
    "prefectureCode": "21",
    "prefectureNumber": 21,
    "prefecture": "岐阜県",
    "city": "岐阜市",
    "town": "萱場町"
  },
  "5020938": {
    "zipcode": "5020938",
    "prefectureCode": "21",
    "prefectureNumber": 21,
    "prefecture": "岐阜県",
    "city": "岐阜市",
    "town": "萱場北町"
  },
  "5020939": {
    "zipcode": "5020939",
    "prefectureCode": "21",
    "prefectureNumber": 21,
    "prefecture": "岐阜県",
    "city": "岐阜市",
    "town": "則武西"
  }
}
