{
  "5040000": {
    "zipcode": "5040000",
    "prefectureCode": "21",
    "prefectureNumber": 21,
    "prefecture": "岐阜県",
    "city": "各務原市",
    "town": "以下に掲載がない場合"
  },
  "5040001": {
    "zipcode": "5040001",
    "prefectureCode": "21",
    "prefectureNumber": 21,
    "prefecture": "岐阜県",
    "city": "各務原市",
    "town": "那加大洞"
  },
  "5040002": {
    "zipcode": "5040002",
    "prefectureCode": "21",
    "prefectureNumber": 21,
    "prefecture": "岐阜県",
    "city": "各務原市",
    "town": "尾崎北町"
  },
  "5040003": {
    "zipcode": "5040003",
    "prefectureCode": "21",
    "prefectureNumber": 21,
    "prefecture": "岐阜県",
    "city": "各務原市",
    "town": "尾崎南町"
  },
  "5040004": {
    "zipcode": "5040004",
    "prefectureCode": "21",
    "prefectureNumber": 21,
    "prefecture": "岐阜県",
    "city": "各務原市",
    "town": "尾崎西町"
  },
  "5040005": {
    "zipcode": "5040005",
    "prefectureCode": "21",
    "prefectureNumber": 21,
    "prefecture": "岐阜県",
    "city": "各務原市",
    "town": "那加柄山町"
  },
  "5040006": {
    "zipcode": "5040006",
    "prefectureCode": "21",
    "prefectureNumber": 21,
    "prefecture": "岐阜県",
    "city": "各務原市",
    "town": "那加琴が丘町"
  },
  "5040007": {
    "zipcode": "5040007",
    "prefectureCode": "21",
    "prefectureNumber": 21,
    "prefecture": "岐阜県",
    "city": "各務原市",
    "town": "那加芦原町"
  },
  "5040008": {
    "zipcode": "5040008",
    "prefectureCode": "21",
    "prefectureNumber": 21,
    "prefecture": "岐阜県",
    "city": "各務原市",
    "town": "那加桐野町"
  },
  "5040009": {
    "zipcode": "5040009",
    "prefectureCode": "21",
    "prefectureNumber": 21,
    "prefecture": "岐阜県",
    "city": "各務原市",
    "town": "那加扇平"
  },
  "5040011": {
    "zipcode": "5040011",
    "prefectureCode": "21",
    "prefectureNumber": 21,
    "prefecture": "岐阜県",
    "city": "各務原市",
    "town": "那加北洞町"
  },
  "5040012": {
    "zipcode": "5040012",
    "prefectureCode": "21",
    "prefectureNumber": 21,
    "prefecture": "岐阜県",
    "city": "各務原市",
    "town": "蘇原宮代町"
  },
  "5040013": {
    "zipcode": "5040013",
    "prefectureCode": "21",
    "prefectureNumber": 21,
    "prefecture": "岐阜県",
    "city": "各務原市",
    "town": "蘇原宮塚町"
  },
  "5040014": {
    "zipcode": "5040014",
    "prefectureCode": "21",
    "prefectureNumber": 21,
    "prefecture": "岐阜県",
    "city": "各務原市",
    "town": "那加山崎町"
  },
  "5040015": {
    "zipcode": "5040015",
    "prefectureCode": "21",
    "prefectureNumber": 21,
    "prefecture": "岐阜県",
    "city": "各務原市",
    "town": "那加東野町"
  },
  "5040016": {
    "zipcode": "5040016",
    "prefectureCode": "21",
    "prefectureNumber": 21,
    "prefecture": "岐阜県",
    "city": "各務原市",
    "town": "那加御屋敷町"
  },
  "5040017": {
    "zipcode": "5040017",
    "prefectureCode": "21",
    "prefectureNumber": 21,
    "prefecture": "岐阜県",
    "city": "各務原市",
    "town": "那加山下町"
  },
  "5040018": {
    "zipcode": "5040018",
    "prefectureCode": "21",
    "prefectureNumber": 21,
    "prefecture": "岐阜県",
    "city": "各務原市",
    "town": "那加西市場町"
  },
  "5040021": {
    "zipcode": "5040021",
    "prefectureCode": "21",
    "prefectureNumber": 21,
    "prefecture": "岐阜県",
    "city": "各務原市",
    "town": "那加前洞新町"
  },
  "5040022": {
    "zipcode": "5040022",
    "prefectureCode": "21",
    "prefectureNumber": 21,
    "prefecture": "岐阜県",
    "city": "各務原市",
    "town": "那加東亜町"
  },
  "5040023": {
    "zipcode": "5040023",
    "prefectureCode": "21",
    "prefectureNumber": 21,
    "prefecture": "岐阜県",
    "city": "各務原市",
    "town": "那加太平町"
  },
  "5040024": {
    "zipcode": "5040024",
    "prefectureCode": "21",
    "prefectureNumber": 21,
    "prefecture": "岐阜県",
    "city": "各務原市",
    "town": "那加幸町"
  },
  "5040025": {
    "zipcode": "5040025",
    "prefectureCode": "21",
    "prefectureNumber": 21,
    "prefecture": "岐阜県",
    "city": "各務原市",
    "town": "那加野畑町"
  },
  "5040026": {
    "zipcode": "5040026",
    "prefectureCode": "21",
    "prefectureNumber": 21,
    "prefecture": "岐阜県",
    "city": "各務原市",
    "town": "那加前野町"
  },
  "5040031": {
    "zipcode": "5040031",
    "prefectureCode": "21",
    "prefectureNumber": 21,
    "prefecture": "岐阜県",
    "city": "各務原市",
    "town": "那加兼橋町"
  },
  "5040032": {
    "zipcode": "5040032",
    "prefectureCode": "21",
    "prefectureNumber": 21,
    "prefecture": "岐阜県",
    "city": "各務原市",
    "town": "那加神田町"
  },
  "5040033": {
    "zipcode": "5040033",
    "prefectureCode": "21",
    "prefectureNumber": 21,
    "prefecture": "岐阜県",
    "city": "各務原市",
    "town": "那加大谷町"
  },
  "5040034": {
    "zipcode": "5040034",
    "prefectureCode": "21",
    "prefectureNumber": 21,
    "prefecture": "岐阜県",
    "city": "各務原市",
    "town": "那加浜見町"
  },
  "5040035": {
    "zipcode": "5040035",
    "prefectureCode": "21",
    "prefectureNumber": 21,
    "prefecture": "岐阜県",
    "city": "各務原市",
    "town": "那加宮浦町"
  },
  "5040036": {
    "zipcode": "5040036",
    "prefectureCode": "21",
    "prefectureNumber": 21,
    "prefecture": "岐阜県",
    "city": "各務原市",
    "town": "那加荒田町"
  },
  "5040037": {
    "zipcode": "5040037",
    "prefectureCode": "21",
    "prefectureNumber": 21,
    "prefecture": "岐阜県",
    "city": "各務原市",
    "town": "那加五反田町"
  },
  "5040038": {
    "zipcode": "5040038",
    "prefectureCode": "21",
    "prefectureNumber": 21,
    "prefecture": "岐阜県",
    "city": "各務原市",
    "town": "那加大門町"
  },
  "5040041": {
    "zipcode": "5040041",
    "prefectureCode": "21",
    "prefectureNumber": 21,
    "prefecture": "岐阜県",
    "city": "各務原市",
    "town": "那加土山町"
  },
  "5040042": {
    "zipcode": "5040042",
    "prefectureCode": "21",
    "prefectureNumber": 21,
    "prefecture": "岐阜県",
    "city": "各務原市",
    "town": "那加山後町"
  },
  "5040043": {
    "zipcode": "5040043",
    "prefectureCode": "21",
    "prefectureNumber": 21,
    "prefecture": "岐阜県",
    "city": "各務原市",
    "town": "那加手力町"
  },
  "5040044": {
    "zipcode": "5040044",
    "prefectureCode": "21",
    "prefectureNumber": 21,
    "prefecture": "岐阜県",
    "city": "各務原市",
    "town": "那加石山町"
  },
  "5040045": {
    "zipcode": "5040045",
    "prefectureCode": "21",
    "prefectureNumber": 21,
    "prefecture": "岐阜県",
    "city": "各務原市",
    "town": "那加新田町"
  },
  "5040046": {
    "zipcode": "5040046",
    "prefectureCode": "21",
    "prefectureNumber": 21,
    "prefecture": "岐阜県",
    "city": "各務原市",
    "town": "那加長塚町"
  },
  "5040047": {
    "zipcode": "5040047",
    "prefectureCode": "21",
    "prefectureNumber": 21,
    "prefecture": "岐阜県",
    "city": "各務原市",
    "town": "那加岩地町"
  },
  "5040801": {
    "zipcode": "5040801",
    "prefectureCode": "21",
    "prefectureNumber": 21,
    "prefecture": "岐阜県",
    "city": "各務原市",
    "town": "蘇原北山町"
  },
  "5040802": {
    "zipcode": "5040802",
    "prefectureCode": "21",
    "prefectureNumber": 21,
    "prefecture": "岐阜県",
    "city": "各務原市",
    "town": "蘇原持田町"
  },
  "5040803": {
    "zipcode": "5040803",
    "prefectureCode": "21",
    "prefectureNumber": 21,
    "prefecture": "岐阜県",
    "city": "各務原市",
    "town": "蘇原東門町"
  },
  "5040804": {
    "zipcode": "5040804",
    "prefectureCode": "21",
    "prefectureNumber": 21,
    "prefecture": "岐阜県",
    "city": "各務原市",
    "town": "蘇原新生町"
  },
  "5040805": {
    "zipcode": "5040805",
    "prefectureCode": "21",
    "prefectureNumber": 21,
    "prefecture": "岐阜県",
    "city": "各務原市",
    "town": "蘇原昭栄町"
  },
  "5040806": {
    "zipcode": "5040806",
    "prefectureCode": "21",
    "prefectureNumber": 21,
    "prefecture": "岐阜県",
    "city": "各務原市",
    "town": "蘇原外山町"
  },
  "5040807": {
    "zipcode": "5040807",
    "prefectureCode": "21",
    "prefectureNumber": 21,
    "prefecture": "岐阜県",
    "city": "各務原市",
    "town": "蘇原清住町"
  },
  "5040808": {
    "zipcode": "5040808",
    "prefectureCode": "21",
    "prefectureNumber": 21,
    "prefecture": "岐阜県",
    "city": "各務原市",
    "town": "蘇原飛鳥町"
  },
  "5040809": {
    "zipcode": "5040809",
    "prefectureCode": "21",
    "prefectureNumber": 21,
    "prefecture": "岐阜県",
    "city": "各務原市",
    "town": "蘇原北陽町"
  },
  "5040811": {
    "zipcode": "5040811",
    "prefectureCode": "21",
    "prefectureNumber": 21,
    "prefecture": "岐阜県",
    "city": "各務原市",
    "town": "蘇原和合町"
  },
  "5040812": {
    "zipcode": "5040812",
    "prefectureCode": "21",
    "prefectureNumber": 21,
    "prefecture": "岐阜県",
    "city": "各務原市",
    "town": "蘇原坂井町"
  },
  "5040813": {
    "zipcode": "5040813",
    "prefectureCode": "21",
    "prefectureNumber": 21,
    "prefecture": "岐阜県",
    "city": "各務原市",
    "town": "蘇原中央町"
  },
  "5040814": {
    "zipcode": "5040814",
    "prefectureCode": "21",
    "prefectureNumber": 21,
    "prefecture": "岐阜県",
    "city": "各務原市",
    "town": "蘇原興亜町"
  },
  "5040815": {
    "zipcode": "5040815",
    "prefectureCode": "21",
    "prefectureNumber": 21,
    "prefecture": "岐阜県",
    "city": "各務原市",
    "town": "蘇原東栄町"
  },
  "5040816": {
    "zipcode": "5040816",
    "prefectureCode": "21",
    "prefectureNumber": 21,
    "prefecture": "岐阜県",
    "city": "各務原市",
    "town": "蘇原東島町"
  },
  "5040821": {
    "zipcode": "5040821",
    "prefectureCode": "21",
    "prefectureNumber": 21,
    "prefecture": "岐阜県",
    "city": "各務原市",
    "town": "蘇原瑞雲町"
  },
  "5040822": {
    "zipcode": "5040822",
    "prefectureCode": "21",
    "prefectureNumber": 21,
    "prefecture": "岐阜県",
    "city": "各務原市",
    "town": "蘇原栄町"
  },
  "5040823": {
    "zipcode": "5040823",
    "prefectureCode": "21",
    "prefectureNumber": 21,
    "prefecture": "岐阜県",
    "city": "各務原市",
    "town": "蘇原菊園町"
  },
  "5040824": {
    "zipcode": "5040824",
    "prefectureCode": "21",
    "prefectureNumber": 21,
    "prefecture": "岐阜県",
    "city": "各務原市",
    "town": "蘇原旭町"
  },
  "5040825": {
    "zipcode": "5040825",
    "prefectureCode": "21",
    "prefectureNumber": 21,
    "prefecture": "岐阜県",
    "city": "各務原市",
    "town": "蘇原柿沢町"
  },
  "5040826": {
    "zipcode": "5040826",
    "prefectureCode": "21",
    "prefectureNumber": 21,
    "prefecture": "岐阜県",
    "city": "各務原市",
    "town": "蘇原早苗町"
  },
  "5040827": {
    "zipcode": "5040827",
    "prefectureCode": "21",
    "prefectureNumber": 21,
    "prefecture": "岐阜県",
    "city": "各務原市",
    "town": "蘇原沢上町"
  },
  "5040828": {
    "zipcode": "5040828",
    "prefectureCode": "21",
    "prefectureNumber": 21,
    "prefecture": "岐阜県",
    "city": "各務原市",
    "town": "蘇原村雨町"
  },
  "5040829": {
    "zipcode": "5040829",
    "prefectureCode": "21",
    "prefectureNumber": 21,
    "prefecture": "岐阜県",
    "city": "各務原市",
    "town": "蘇原希望町"
  },
  "5040831": {
    "zipcode": "5040831",
    "prefectureCode": "21",
    "prefectureNumber": 21,
    "prefecture": "岐阜県",
    "city": "各務原市",
    "town": "蘇原瑞穂町"
  },
  "5040832": {
    "zipcode": "5040832",
    "prefectureCode": "21",
    "prefectureNumber": 21,
    "prefecture": "岐阜県",
    "city": "各務原市",
    "town": "蘇原花園町"
  },
  "5040833": {
    "zipcode": "5040833",
    "prefectureCode": "21",
    "prefectureNumber": 21,
    "prefecture": "岐阜県",
    "city": "各務原市",
    "town": "入会町"
  },
  "5040834": {
    "zipcode": "5040834",
    "prefectureCode": "21",
    "prefectureNumber": 21,
    "prefecture": "岐阜県",
    "city": "各務原市",
    "town": "那加昭南町"
  },
  "5040835": {
    "zipcode": "5040835",
    "prefectureCode": "21",
    "prefectureNumber": 21,
    "prefecture": "岐阜県",
    "city": "各務原市",
    "town": "那加雄飛ケ丘町"
  },
  "5040836": {
    "zipcode": "5040836",
    "prefectureCode": "21",
    "prefectureNumber": 21,
    "prefecture": "岐阜県",
    "city": "各務原市",
    "town": "那加雲雀町"
  },
  "5040837": {
    "zipcode": "5040837",
    "prefectureCode": "21",
    "prefectureNumber": 21,
    "prefecture": "岐阜県",
    "city": "各務原市",
    "town": "那加甥田町"
  },
  "5040838": {
    "zipcode": "5040838",
    "prefectureCode": "21",
    "prefectureNumber": 21,
    "prefecture": "岐阜県",
    "city": "各務原市",
    "town": "那加不動丘"
  },
  "5040839": {
    "zipcode": "5040839",
    "prefectureCode": "21",
    "prefectureNumber": 21,
    "prefecture": "岐阜県",
    "city": "各務原市",
    "town": "那加巾下町"
  },
  "5040841": {
    "zipcode": "5040841",
    "prefectureCode": "21",
    "prefectureNumber": 21,
    "prefecture": "岐阜県",
    "city": "各務原市",
    "town": "蘇原赤羽根町"
  },
  "5040842": {
    "zipcode": "5040842",
    "prefectureCode": "21",
    "prefectureNumber": 21,
    "prefecture": "岐阜県",
    "city": "各務原市",
    "town": "蘇原寺島町"
  },
  "5040843": {
    "zipcode": "5040843",
    "prefectureCode": "21",
    "prefectureNumber": 21,
    "prefecture": "岐阜県",
    "city": "各務原市",
    "town": "蘇原青雲町"
  },
  "5040844": {
    "zipcode": "5040844",
    "prefectureCode": "21",
    "prefectureNumber": 21,
    "prefecture": "岐阜県",
    "city": "各務原市",
    "town": "蘇原吉新町"
  },
  "5040845": {
    "zipcode": "5040845",
    "prefectureCode": "21",
    "prefectureNumber": 21,
    "prefecture": "岐阜県",
    "city": "各務原市",
    "town": "蘇原申子町"
  },
  "5040846": {
    "zipcode": "5040846",
    "prefectureCode": "21",
    "prefectureNumber": 21,
    "prefecture": "岐阜県",
    "city": "各務原市",
    "town": "蘇原吉野町"
  },
  "5040847": {
    "zipcode": "5040847",
    "prefectureCode": "21",
    "prefectureNumber": 21,
    "prefecture": "岐阜県",
    "city": "各務原市",
    "town": "蘇原大島町"
  },
  "5040851": {
    "zipcode": "5040851",
    "prefectureCode": "21",
    "prefectureNumber": 21,
    "prefecture": "岐阜県",
    "city": "各務原市",
    "town": "蘇原伊吹町"
  },
  "5040852": {
    "zipcode": "5040852",
    "prefectureCode": "21",
    "prefectureNumber": 21,
    "prefecture": "岐阜県",
    "city": "各務原市",
    "town": "蘇原古市場町"
  },
  "5040853": {
    "zipcode": "5040853",
    "prefectureCode": "21",
    "prefectureNumber": 21,
    "prefecture": "岐阜県",
    "city": "各務原市",
    "town": "蘇原熊田町"
  },
  "5040854": {
    "zipcode": "5040854",
    "prefectureCode": "21",
    "prefectureNumber": 21,
    "prefecture": "岐阜県",
    "city": "各務原市",
    "town": "蘇原野口町"
  },
  "5040855": {
    "zipcode": "5040855",
    "prefectureCode": "21",
    "prefectureNumber": 21,
    "prefecture": "岐阜県",
    "city": "各務原市",
    "town": "蘇原新栄町"
  },
  "5040856": {
    "zipcode": "5040856",
    "prefectureCode": "21",
    "prefectureNumber": 21,
    "prefecture": "岐阜県",
    "city": "各務原市",
    "town": "蘇原島崎町"
  },
  "5040861": {
    "zipcode": "5040861",
    "prefectureCode": "21",
    "prefectureNumber": 21,
    "prefecture": "岐阜県",
    "city": "各務原市",
    "town": "東山"
  },
  "5040901": {
    "zipcode": "5040901",
    "prefectureCode": "21",
    "prefectureNumber": 21,
    "prefecture": "岐阜県",
    "city": "各務原市",
    "town": "那加東新町"
  },
  "5040902": {
    "zipcode": "5040902",
    "prefectureCode": "21",
    "prefectureNumber": 21,
    "prefecture": "岐阜県",
    "city": "各務原市",
    "town": "蘇原緑町"
  },
  "5040903": {
    "zipcode": "5040903",
    "prefectureCode": "21",
    "prefectureNumber": 21,
    "prefecture": "岐阜県",
    "city": "各務原市",
    "town": "蘇原月丘町"
  },
  "5040904": {
    "zipcode": "5040904",
    "prefectureCode": "21",
    "prefectureNumber": 21,
    "prefecture": "岐阜県",
    "city": "各務原市",
    "town": "蘇原三柿野町"
  },
  "5040905": {
    "zipcode": "5040905",
    "prefectureCode": "21",
    "prefectureNumber": 21,
    "prefecture": "岐阜県",
    "city": "各務原市",
    "town": "蘇原六軒町"
  },
  "5040906": {
    "zipcode": "5040906",
    "prefectureCode": "21",
    "prefectureNumber": 21,
    "prefecture": "岐阜県",
    "city": "各務原市",
    "town": "那加桐野外二ケ所大字入会地"
  },
  "5040907": {
    "zipcode": "5040907",
    "prefectureCode": "21",
    "prefectureNumber": 21,
    "prefecture": "岐阜県",
    "city": "各務原市",
    "town": "那加住吉町"
  },
  "5040908": {
    "zipcode": "5040908",
    "prefectureCode": "21",
    "prefectureNumber": 21,
    "prefecture": "岐阜県",
    "city": "各務原市",
    "town": "那加織田町"
  },
  "5040909": {
    "zipcode": "5040909",
    "prefectureCode": "21",
    "prefectureNumber": 21,
    "prefecture": "岐阜県",
    "city": "各務原市",
    "town": "那加信長町"
  },
  "5040911": {
    "zipcode": "5040911",
    "prefectureCode": "21",
    "prefectureNumber": 21,
    "prefecture": "岐阜県",
    "city": "各務原市",
    "town": "那加門前町"
  },
  "5040912": {
    "zipcode": "5040912",
    "prefectureCode": "21",
    "prefectureNumber": 21,
    "prefecture": "岐阜県",
    "city": "各務原市",
    "town": "那加桜町"
  },
  "5040913": {
    "zipcode": "5040913",
    "prefectureCode": "21",
    "prefectureNumber": 21,
    "prefecture": "岐阜県",
    "city": "各務原市",
    "town": "那加大東町"
  },
  "5040914": {
    "zipcode": "5040914",
    "prefectureCode": "21",
    "prefectureNumber": 21,
    "prefecture": "岐阜県",
    "city": "各務原市",
    "town": "三井東町"
  },
  "5040915": {
    "zipcode": "5040915",
    "prefectureCode": "21",
    "prefectureNumber": 21,
    "prefecture": "岐阜県",
    "city": "各務原市",
    "town": "三井山町"
  },
  "5040916": {
    "zipcode": "5040916",
    "prefectureCode": "21",
    "prefectureNumber": 21,
    "prefecture": "岐阜県",
    "city": "各務原市",
    "town": "那加楠町"
  },
  "5040921": {
    "zipcode": "5040921",
    "prefectureCode": "21",
    "prefectureNumber": 21,
    "prefecture": "岐阜県",
    "city": "各務原市",
    "town": "前渡北町"
  },
  "5040922": {
    "zipcode": "5040922",
    "prefectureCode": "21",
    "prefectureNumber": 21,
    "prefecture": "岐阜県",
    "city": "各務原市",
    "town": "前渡東町"
  },
  "5040923": {
    "zipcode": "5040923",
    "prefectureCode": "21",
    "prefectureNumber": 21,
    "prefecture": "岐阜県",
    "city": "各務原市",
    "town": "前渡西町"
  },
  "5040924": {
    "zipcode": "5040924",
    "prefectureCode": "21",
    "prefectureNumber": 21,
    "prefecture": "岐阜県",
    "city": "各務原市",
    "town": "下切町"
  },
  "5040925": {
    "zipcode": "5040925",
    "prefectureCode": "21",
    "prefectureNumber": 21,
    "prefecture": "岐阜県",
    "city": "各務原市",
    "town": "松本町"
  },
  "5040926": {
    "zipcode": "5040926",
    "prefectureCode": "21",
    "prefectureNumber": 21,
    "prefecture": "岐阜県",
    "city": "各務原市",
    "town": "上中屋町"
  },
  "5040927": {
    "zipcode": "5040927",
    "prefectureCode": "21",
    "prefectureNumber": 21,
    "prefecture": "岐阜県",
    "city": "各務原市",
    "town": "上戸町"
  },
  "5040928": {
    "zipcode": "5040928",
    "prefectureCode": "21",
    "prefectureNumber": 21,
    "prefecture": "岐阜県",
    "city": "各務原市",
    "town": "山脇町"
  },
  "5040931": {
    "zipcode": "5040931",
    "prefectureCode": "21",
    "prefectureNumber": 21,
    "prefecture": "岐阜県",
    "city": "各務原市",
    "town": "大佐野町"
  },
  "5040932": {
    "zipcode": "5040932",
    "prefectureCode": "21",
    "prefectureNumber": 21,
    "prefecture": "岐阜県",
    "city": "各務原市",
    "town": "下中屋町"
  },
  "5040933": {
    "zipcode": "5040933",
    "prefectureCode": "21",
    "prefectureNumber": 21,
    "prefecture": "岐阜県",
    "city": "各務原市",
    "town": "神置町"
  },
  "5040934": {
    "zipcode": "5040934",
    "prefectureCode": "21",
    "prefectureNumber": 21,
    "prefecture": "岐阜県",
    "city": "各務原市",
    "town": "大野町"
  },
  "5040935": {
    "zipcode": "5040935",
    "prefectureCode": "21",
    "prefectureNumber": 21,
    "prefecture": "岐阜県",
    "city": "各務原市",
    "town": "成清町"
  },
  "5040941": {
    "zipcode": "5040941",
    "prefectureCode": "21",
    "prefectureNumber": 21,
    "prefecture": "岐阜県",
    "city": "各務原市",
    "town": "三井町"
  },
  "5040942": {
    "zipcode": "5040942",
    "prefectureCode": "21",
    "prefectureNumber": 21,
    "prefecture": "岐阜県",
    "city": "各務原市",
    "town": "小佐野町"
  },
  "5040943": {
    "zipcode": "5040943",
    "prefectureCode": "21",
    "prefectureNumber": 21,
    "prefecture": "岐阜県",
    "city": "各務原市",
    "town": "那加萱場町"
  },
  "5040944": {
    "zipcode": "5040944",
    "prefectureCode": "21",
    "prefectureNumber": 21,
    "prefecture": "岐阜県",
    "city": "各務原市",
    "town": "那加緑町"
  },
  "5040945": {
    "zipcode": "5040945",
    "prefectureCode": "21",
    "prefectureNumber": 21,
    "prefecture": "岐阜県",
    "city": "各務原市",
    "town": "那加日新町"
  },
  "5040951": {
    "zipcode": "5040951",
    "prefectureCode": "21",
    "prefectureNumber": 21,
    "prefecture": "岐阜県",
    "city": "各務原市",
    "town": "那加日吉町"
  },
  "5040952": {
    "zipcode": "5040952",
    "prefectureCode": "21",
    "prefectureNumber": 21,
    "prefecture": "岐阜県",
    "city": "各務原市",
    "town": "那加西那加町"
  },
  "5040953": {
    "zipcode": "5040953",
    "prefectureCode": "21",
    "prefectureNumber": 21,
    "prefecture": "岐阜県",
    "city": "各務原市",
    "town": "那加東那加町"
  },
  "5040954": {
    "zipcode": "5040954",
    "prefectureCode": "21",
    "prefectureNumber": 21,
    "prefecture": "岐阜県",
    "city": "各務原市",
    "town": "那加栄町"
  },
  "5040955": {
    "zipcode": "5040955",
    "prefectureCode": "21",
    "prefectureNumber": 21,
    "prefecture": "岐阜県",
    "city": "各務原市",
    "town": "那加南栄町"
  },
  "5040956": {
    "zipcode": "5040956",
    "prefectureCode": "21",
    "prefectureNumber": 21,
    "prefecture": "岐阜県",
    "city": "各務原市",
    "town": "三井北町"
  },
  "5040957": {
    "zipcode": "5040957",
    "prefectureCode": "21",
    "prefectureNumber": 21,
    "prefecture": "岐阜県",
    "city": "各務原市",
    "town": "金属団地"
  },
  "5040958": {
    "zipcode": "5040958",
    "prefectureCode": "21",
    "prefectureNumber": 21,
    "prefecture": "岐阜県",
    "city": "各務原市",
    "town": "那加新加納町"
  },
  "5040959": {
    "zipcode": "5040959",
    "prefectureCode": "21",
    "prefectureNumber": 21,
    "prefecture": "岐阜県",
    "city": "各務原市",
    "town": "那加西浦町"
  },
  "5040961": {
    "zipcode": "5040961",
    "prefectureCode": "21",
    "prefectureNumber": 21,
    "prefecture": "岐阜県",
    "city": "各務原市",
    "town": "那加新那加町"
  },
  "5040962": {
    "zipcode": "5040962",
    "prefectureCode": "21",
    "prefectureNumber": 21,
    "prefecture": "岐阜県",
    "city": "各務原市",
    "town": "那加吾妻町"
  },
  "5040963": {
    "zipcode": "5040963",
    "prefectureCode": "21",
    "prefectureNumber": 21,
    "prefecture": "岐阜県",
    "city": "各務原市",
    "town": "那加北栄町"
  },
  "5040964": {
    "zipcode": "5040964",
    "prefectureCode": "21",
    "prefectureNumber": 21,
    "prefecture": "岐阜県",
    "city": "各務原市",
    "town": "那加元町"
  },
  "5040965": {
    "zipcode": "5040965",
    "prefectureCode": "21",
    "prefectureNumber": 21,
    "prefecture": "岐阜県",
    "city": "各務原市",
    "town": "那加日之出町"
  },
  "5040966": {
    "zipcode": "5040966",
    "prefectureCode": "21",
    "prefectureNumber": 21,
    "prefecture": "岐阜県",
    "city": "各務原市",
    "town": "那加本町"
  },
  "5040967": {
    "zipcode": "5040967",
    "prefectureCode": "21",
    "prefectureNumber": 21,
    "prefecture": "岐阜県",
    "city": "各務原市",
    "town": "那加楽天地町"
  },
  "5040968": {
    "zipcode": "5040968",
    "prefectureCode": "21",
    "prefectureNumber": 21,
    "prefecture": "岐阜県",
    "city": "各務原市",
    "town": "那加西野町"
  },
  "5040971": {
    "zipcode": "5040971",
    "prefectureCode": "21",
    "prefectureNumber": 21,
    "prefecture": "岐阜県",
    "city": "各務原市",
    "town": "川崎町"
  }
}
