{
  "5070000": {
    "zipcode": "5070000",
    "prefectureCode": "21",
    "prefectureNumber": 21,
    "prefecture": "岐阜県",
    "city": "多治見市",
    "town": "以下に掲載がない場合"
  },
  "5070001": {
    "zipcode": "5070001",
    "prefectureCode": "21",
    "prefectureNumber": 21,
    "prefecture": "岐阜県",
    "city": "多治見市",
    "town": "小名田町小滝"
  },
  "5070002": {
    "zipcode": "5070002",
    "prefectureCode": "21",
    "prefectureNumber": 21,
    "prefecture": "岐阜県",
    "city": "多治見市",
    "town": "小名田町別山"
  },
  "5070003": {
    "zipcode": "5070003",
    "prefectureCode": "21",
    "prefectureNumber": 21,
    "prefecture": "岐阜県",
    "city": "多治見市",
    "town": "小名田町東谷"
  },
  "5070004": {
    "zipcode": "5070004",
    "prefectureCode": "21",
    "prefectureNumber": 21,
    "prefecture": "岐阜県",
    "city": "多治見市",
    "town": "小名田町"
  },
  "5070005": {
    "zipcode": "5070005",
    "prefectureCode": "21",
    "prefectureNumber": 21,
    "prefecture": "岐阜県",
    "city": "多治見市",
    "town": "小名田町岩ケ根"
  },
  "5070006": {
    "zipcode": "5070006",
    "prefectureCode": "21",
    "prefectureNumber": 21,
    "prefecture": "岐阜県",
    "city": "多治見市",
    "town": "小名田町西山"
  },
  "5070007": {
    "zipcode": "5070007",
    "prefectureCode": "21",
    "prefectureNumber": 21,
    "prefecture": "岐阜県",
    "city": "多治見市",
    "town": "小名田町西ケ洞"
  },
  "5070008": {
    "zipcode": "5070008",
    "prefectureCode": "21",
    "prefectureNumber": 21,
    "prefecture": "岐阜県",
    "city": "多治見市",
    "town": "希望ケ丘"
  },
  "5070011": {
    "zipcode": "5070011",
    "prefectureCode": "21",
    "prefectureNumber": 21,
    "prefecture": "岐阜県",
    "city": "多治見市",
    "town": "高田町岩曽根"
  },
  "5070012": {
    "zipcode": "5070012",
    "prefectureCode": "21",
    "prefectureNumber": 21,
    "prefecture": "岐阜県",
    "city": "多治見市",
    "town": "高田町白粉"
  },
  "5070013": {
    "zipcode": "5070013",
    "prefectureCode": "21",
    "prefectureNumber": 21,
    "prefecture": "岐阜県",
    "city": "多治見市",
    "town": "東栄町"
  },
  "5070014": {
    "zipcode": "5070014",
    "prefectureCode": "21",
    "prefectureNumber": 21,
    "prefecture": "岐阜県",
    "city": "多治見市",
    "town": "虎渓山町"
  },
  "5070015": {
    "zipcode": "5070015",
    "prefectureCode": "21",
    "prefectureNumber": 21,
    "prefecture": "岐阜県",
    "city": "多治見市",
    "town": "住吉町"
  },
  "5070016": {
    "zipcode": "5070016",
    "prefectureCode": "21",
    "prefectureNumber": 21,
    "prefecture": "岐阜県",
    "city": "多治見市",
    "town": "金岡町"
  },
  "5070017": {
    "zipcode": "5070017",
    "prefectureCode": "21",
    "prefectureNumber": 21,
    "prefecture": "岐阜県",
    "city": "多治見市",
    "town": "長瀬町"
  },
  "5070018": {
    "zipcode": "5070018",
    "prefectureCode": "21",
    "prefectureNumber": 21,
    "prefecture": "岐阜県",
    "city": "多治見市",
    "town": "高田町"
  },
  "5070019": {
    "zipcode": "5070019",
    "prefectureCode": "21",
    "prefectureNumber": 21,
    "prefecture": "岐阜県",
    "city": "多治見市",
    "town": "東山"
  },
  "5070021": {
    "zipcode": "5070021",
    "prefectureCode": "21",
    "prefectureNumber": 21,
    "prefecture": "岐阜県",
    "city": "多治見市",
    "town": "緑ケ丘"
  },
  "5070022": {
    "zipcode": "5070022",
    "prefectureCode": "21",
    "prefectureNumber": 21,
    "prefecture": "岐阜県",
    "city": "多治見市",
    "town": "上山町"
  },
  "5070023": {
    "zipcode": "5070023",
    "prefectureCode": "21",
    "prefectureNumber": 21,
    "prefecture": "岐阜県",
    "city": "多治見市",
    "town": "小田町"
  },
  "5070024": {
    "zipcode": "5070024",
    "prefectureCode": "21",
    "prefectureNumber": 21,
    "prefecture": "岐阜県",
    "city": "多治見市",
    "town": "大正町"
  },
  "5070025": {
    "zipcode": "5070025",
    "prefectureCode": "21",
    "prefectureNumber": 21,
    "prefecture": "岐阜県",
    "city": "多治見市",
    "town": "宮前町"
  },
  "5070026": {
    "zipcode": "5070026",
    "prefectureCode": "21",
    "prefectureNumber": 21,
    "prefecture": "岐阜県",
    "city": "多治見市",
    "town": "虎渓町"
  },
  "5070027": {
    "zipcode": "5070027",
    "prefectureCode": "21",
    "prefectureNumber": 21,
    "prefecture": "岐阜県",
    "city": "多治見市",
    "town": "上野町"
  },
  "5070028": {
    "zipcode": "5070028",
    "prefectureCode": "21",
    "prefectureNumber": 21,
    "prefecture": "岐阜県",
    "city": "多治見市",
    "town": "弁天町"
  },
  "5070031": {
    "zipcode": "5070031",
    "prefectureCode": "21",
    "prefectureNumber": 21,
    "prefecture": "岐阜県",
    "city": "多治見市",
    "town": "精華町"
  },
  "5070032": {
    "zipcode": "5070032",
    "prefectureCode": "21",
    "prefectureNumber": 21,
    "prefecture": "岐阜県",
    "city": "多治見市",
    "town": "大日町"
  },
  "5070033": {
    "zipcode": "5070033",
    "prefectureCode": "21",
    "prefectureNumber": 21,
    "prefecture": "岐阜県",
    "city": "多治見市",
    "town": "本町"
  },
  "5070034": {
    "zipcode": "5070034",
    "prefectureCode": "21",
    "prefectureNumber": 21,
    "prefecture": "岐阜県",
    "city": "多治見市",
    "town": "豊岡町"
  },
  "5070035": {
    "zipcode": "5070035",
    "prefectureCode": "21",
    "prefectureNumber": 21,
    "prefecture": "岐阜県",
    "city": "多治見市",
    "town": "栄町"
  },
  "5070036": {
    "zipcode": "5070036",
    "prefectureCode": "21",
    "prefectureNumber": 21,
    "prefecture": "岐阜県",
    "city": "多治見市",
    "town": "田代町"
  },
  "5070037": {
    "zipcode": "5070037",
    "prefectureCode": "21",
    "prefectureNumber": 21,
    "prefecture": "岐阜県",
    "city": "多治見市",
    "town": "音羽町"
  },
  "5070038": {
    "zipcode": "5070038",
    "prefectureCode": "21",
    "prefectureNumber": 21,
    "prefecture": "岐阜県",
    "city": "多治見市",
    "town": "白山町"
  },
  "5070039": {
    "zipcode": "5070039",
    "prefectureCode": "21",
    "prefectureNumber": 21,
    "prefecture": "岐阜県",
    "city": "多治見市",
    "town": "十九田町"
  },
  "5070041": {
    "zipcode": "5070041",
    "prefectureCode": "21",
    "prefectureNumber": 21,
    "prefecture": "岐阜県",
    "city": "多治見市",
    "town": "太平町"
  },
  "5070042": {
    "zipcode": "5070042",
    "prefectureCode": "21",
    "prefectureNumber": 21,
    "prefecture": "岐阜県",
    "city": "多治見市",
    "town": "前畑町"
  },
  "5070043": {
    "zipcode": "5070043",
    "prefectureCode": "21",
    "prefectureNumber": 21,
    "prefecture": "岐阜県",
    "city": "多治見市",
    "town": "月見町"
  },
  "5070044": {
    "zipcode": "5070044",
    "prefectureCode": "21",
    "prefectureNumber": 21,
    "prefecture": "岐阜県",
    "city": "多治見市",
    "town": "諏訪町"
  },
  "5070045": {
    "zipcode": "5070045",
    "prefectureCode": "21",
    "prefectureNumber": 21,
    "prefecture": "岐阜県",
    "city": "多治見市",
    "town": "三の倉町"
  },
  "5070046": {
    "zipcode": "5070046",
    "prefectureCode": "21",
    "prefectureNumber": 21,
    "prefecture": "岐阜県",
    "city": "多治見市",
    "town": "廿原町"
  },
  "5070047": {
    "zipcode": "5070047",
    "prefectureCode": "21",
    "prefectureNumber": 21,
    "prefecture": "岐阜県",
    "city": "多治見市",
    "town": "富士見町"
  },
  "5070048": {
    "zipcode": "5070048",
    "prefectureCode": "21",
    "prefectureNumber": 21,
    "prefecture": "岐阜県",
    "city": "多治見市",
    "town": "池田町"
  },
  "5070051": {
    "zipcode": "5070051",
    "prefectureCode": "21",
    "prefectureNumber": 21,
    "prefecture": "岐阜県",
    "city": "多治見市",
    "town": "西坂町"
  },
  "5070052": {
    "zipcode": "5070052",
    "prefectureCode": "21",
    "prefectureNumber": 21,
    "prefecture": "岐阜県",
    "city": "多治見市",
    "town": "光ケ丘"
  },
  "5070053": {
    "zipcode": "5070053",
    "prefectureCode": "21",
    "prefectureNumber": 21,
    "prefecture": "岐阜県",
    "city": "多治見市",
    "town": "若松町"
  },
  "5070054": {
    "zipcode": "5070054",
    "prefectureCode": "21",
    "prefectureNumber": 21,
    "prefecture": "岐阜県",
    "city": "多治見市",
    "town": "宝町"
  },
  "5070055": {
    "zipcode": "5070055",
    "prefectureCode": "21",
    "prefectureNumber": 21,
    "prefecture": "岐阜県",
    "city": "多治見市",
    "town": "喜多町"
  },
  "5070056": {
    "zipcode": "5070056",
    "prefectureCode": "21",
    "prefectureNumber": 21,
    "prefecture": "岐阜県",
    "city": "多治見市",
    "town": "美山町"
  },
  "5070057": {
    "zipcode": "5070057",
    "prefectureCode": "21",
    "prefectureNumber": 21,
    "prefecture": "岐阜県",
    "city": "多治見市",
    "town": "赤坂町"
  },
  "5070058": {
    "zipcode": "5070058",
    "prefectureCode": "21",
    "prefectureNumber": 21,
    "prefecture": "岐阜県",
    "city": "多治見市",
    "town": "平井町"
  },
  "5070061": {
    "zipcode": "5070061",
    "prefectureCode": "21",
    "prefectureNumber": 21,
    "prefecture": "岐阜県",
    "city": "多治見市",
    "town": "姫町"
  },
  "5070062": {
    "zipcode": "5070062",
    "prefectureCode": "21",
    "prefectureNumber": 21,
    "prefecture": "岐阜県",
    "city": "多治見市",
    "town": "大針町"
  },
  "5070063": {
    "zipcode": "5070063",
    "prefectureCode": "21",
    "prefectureNumber": 21,
    "prefecture": "岐阜県",
    "city": "多治見市",
    "town": "松坂町"
  },
  "5070064": {
    "zipcode": "5070064",
    "prefectureCode": "21",
    "prefectureNumber": 21,
    "prefecture": "岐阜県",
    "city": "多治見市",
    "town": "北丘町"
  },
  "5070065": {
    "zipcode": "5070065",
    "prefectureCode": "21",
    "prefectureNumber": 21,
    "prefecture": "岐阜県",
    "city": "多治見市",
    "town": "根本町"
  },
  "5070066": {
    "zipcode": "5070066",
    "prefectureCode": "21",
    "prefectureNumber": 21,
    "prefecture": "岐阜県",
    "city": "多治見市",
    "town": "西山町"
  },
  "5070067": {
    "zipcode": "5070067",
    "prefectureCode": "21",
    "prefectureNumber": 21,
    "prefecture": "岐阜県",
    "city": "多治見市",
    "town": "北小木町"
  },
  "5070068": {
    "zipcode": "5070068",
    "prefectureCode": "21",
    "prefectureNumber": 21,
    "prefecture": "岐阜県",
    "city": "多治見市",
    "town": "大薮町"
  },
  "5070071": {
    "zipcode": "5070071",
    "prefectureCode": "21",
    "prefectureNumber": 21,
    "prefecture": "岐阜県",
    "city": "多治見市",
    "town": "旭ケ丘"
  },
  "5070072": {
    "zipcode": "5070072",
    "prefectureCode": "21",
    "prefectureNumber": 21,
    "prefecture": "岐阜県",
    "city": "多治見市",
    "town": "明和町"
  },
  "5070073": {
    "zipcode": "5070073",
    "prefectureCode": "21",
    "prefectureNumber": 21,
    "prefecture": "岐阜県",
    "city": "多治見市",
    "town": "小泉町"
  },
  "5070074": {
    "zipcode": "5070074",
    "prefectureCode": "21",
    "prefectureNumber": 21,
    "prefecture": "岐阜県",
    "city": "多治見市",
    "town": "大原町"
  },
  "5070075": {
    "zipcode": "5070075",
    "prefectureCode": "21",
    "prefectureNumber": 21,
    "prefecture": "岐阜県",
    "city": "多治見市",
    "town": "大沢町"
  },
  "5070076": {
    "zipcode": "5070076",
    "prefectureCode": "21",
    "prefectureNumber": 21,
    "prefecture": "岐阜県",
    "city": "多治見市",
    "town": "昭栄町"
  },
  "5070077": {
    "zipcode": "5070077",
    "prefectureCode": "21",
    "prefectureNumber": 21,
    "prefecture": "岐阜県",
    "city": "多治見市",
    "town": "幸町"
  },
  "5070078": {
    "zipcode": "5070078",
    "prefectureCode": "21",
    "prefectureNumber": 21,
    "prefecture": "岐阜県",
    "city": "多治見市",
    "town": "高根町"
  },
  "5070801": {
    "zipcode": "5070801",
    "prefectureCode": "21",
    "prefectureNumber": 21,
    "prefecture": "岐阜県",
    "city": "多治見市",
    "town": "東町"
  },
  "5070802": {
    "zipcode": "5070802",
    "prefectureCode": "21",
    "prefectureNumber": 21,
    "prefecture": "岐阜県",
    "city": "多治見市",
    "town": "山吹町"
  },
  "5070803": {
    "zipcode": "5070803",
    "prefectureCode": "21",
    "prefectureNumber": 21,
    "prefecture": "岐阜県",
    "city": "多治見市",
    "town": "美坂町"
  },
  "5070804": {
    "zipcode": "5070804",
    "prefectureCode": "21",
    "prefectureNumber": 21,
    "prefecture": "岐阜県",
    "city": "多治見市",
    "town": "坂上町"
  },
  "5070805": {
    "zipcode": "5070805",
    "prefectureCode": "21",
    "prefectureNumber": 21,
    "prefecture": "岐阜県",
    "city": "多治見市",
    "town": "新富町"
  },
  "5070806": {
    "zipcode": "5070806",
    "prefectureCode": "21",
    "prefectureNumber": 21,
    "prefecture": "岐阜県",
    "city": "多治見市",
    "town": "上町"
  },
  "5070807": {
    "zipcode": "5070807",
    "prefectureCode": "21",
    "prefectureNumber": 21,
    "prefecture": "岐阜県",
    "city": "多治見市",
    "town": "生田町"
  },
  "5070811": {
    "zipcode": "5070811",
    "prefectureCode": "21",
    "prefectureNumber": 21,
    "prefecture": "岐阜県",
    "city": "多治見市",
    "town": "星ケ台"
  },
  "5070812": {
    "zipcode": "5070812",
    "prefectureCode": "21",
    "prefectureNumber": 21,
    "prefecture": "岐阜県",
    "city": "多治見市",
    "town": "下沢町"
  },
  "5070813": {
    "zipcode": "5070813",
    "prefectureCode": "21",
    "prefectureNumber": 21,
    "prefecture": "岐阜県",
    "city": "多治見市",
    "town": "滝呂町"
  },
  "5070814": {
    "zipcode": "5070814",
    "prefectureCode": "21",
    "prefectureNumber": 21,
    "prefecture": "岐阜県",
    "city": "多治見市",
    "town": "市之倉町"
  },
  "5070815": {
    "zipcode": "5070815",
    "prefectureCode": "21",
    "prefectureNumber": 21,
    "prefecture": "岐阜県",
    "city": "多治見市",
    "town": "大畑町赤松"
  },
  "5070816": {
    "zipcode": "5070816",
    "prefectureCode": "21",
    "prefectureNumber": 21,
    "prefecture": "岐阜県",
    "city": "多治見市",
    "town": "大畑町西仲根"
  },
  "5070817": {
    "zipcode": "5070817",
    "prefectureCode": "21",
    "prefectureNumber": 21,
    "prefecture": "岐阜県",
    "city": "多治見市",
    "town": "大畑町大洞"
  },
  "5070818": {
    "zipcode": "5070818",
    "prefectureCode": "21",
    "prefectureNumber": 21,
    "prefecture": "岐阜県",
    "city": "多治見市",
    "town": "大畑町"
  },
  "5070821": {
    "zipcode": "5070821",
    "prefectureCode": "21",
    "prefectureNumber": 21,
    "prefecture": "岐阜県",
    "city": "多治見市",
    "town": "窯町"
  },
  "5070822": {
    "zipcode": "5070822",
    "prefectureCode": "21",
    "prefectureNumber": 21,
    "prefecture": "岐阜県",
    "city": "多治見市",
    "town": "奥川町"
  },
  "5070823": {
    "zipcode": "5070823",
    "prefectureCode": "21",
    "prefectureNumber": 21,
    "prefecture": "岐阜県",
    "city": "多治見市",
    "town": "平野町"
  },
  "5070824": {
    "zipcode": "5070824",
    "prefectureCode": "21",
    "prefectureNumber": 21,
    "prefecture": "岐阜県",
    "city": "多治見市",
    "town": "元町"
  },
  "5070825": {
    "zipcode": "5070825",
    "prefectureCode": "21",
    "prefectureNumber": 21,
    "prefecture": "岐阜県",
    "city": "多治見市",
    "town": "京町"
  },
  "5070826": {
    "zipcode": "5070826",
    "prefectureCode": "21",
    "prefectureNumber": 21,
    "prefecture": "岐阜県",
    "city": "多治見市",
    "town": "脇之島町"
  },
  "5070827": {
    "zipcode": "5070827",
    "prefectureCode": "21",
    "prefectureNumber": 21,
    "prefecture": "岐阜県",
    "city": "多治見市",
    "town": "平和町"
  },
  "5070828": {
    "zipcode": "5070828",
    "prefectureCode": "21",
    "prefectureNumber": 21,
    "prefecture": "岐阜県",
    "city": "多治見市",
    "town": "三笠町"
  },
  "5070831": {
    "zipcode": "5070831",
    "prefectureCode": "21",
    "prefectureNumber": 21,
    "prefecture": "岐阜県",
    "city": "多治見市",
    "town": "新町"
  },
  "5070832": {
    "zipcode": "5070832",
    "prefectureCode": "21",
    "prefectureNumber": 21,
    "prefecture": "岐阜県",
    "city": "多治見市",
    "town": "金山町"
  },
  "5070833": {
    "zipcode": "5070833",
    "prefectureCode": "21",
    "prefectureNumber": 21,
    "prefecture": "岐阜県",
    "city": "多治見市",
    "town": "広小路"
  },
  "5070834": {
    "zipcode": "5070834",
    "prefectureCode": "21",
    "prefectureNumber": 21,
    "prefecture": "岐阜県",
    "city": "多治見市",
    "town": "御幸町"
  },
  "5070835": {
    "zipcode": "5070835",
    "prefectureCode": "21",
    "prefectureNumber": 21,
    "prefecture": "岐阜県",
    "city": "多治見市",
    "town": "錦町"
  },
  "5070836": {
    "zipcode": "5070836",
    "prefectureCode": "21",
    "prefectureNumber": 21,
    "prefecture": "岐阜県",
    "city": "多治見市",
    "town": "昭和町"
  },
  "5070837": {
    "zipcode": "5070837",
    "prefectureCode": "21",
    "prefectureNumber": 21,
    "prefecture": "岐阜県",
    "city": "多治見市",
    "town": "青木町"
  },
  "5070838": {
    "zipcode": "5070838",
    "prefectureCode": "21",
    "prefectureNumber": 21,
    "prefecture": "岐阜県",
    "city": "多治見市",
    "town": "末広町"
  },
  "5070841": {
    "zipcode": "5070841",
    "prefectureCode": "21",
    "prefectureNumber": 21,
    "prefecture": "岐阜県",
    "city": "多治見市",
    "town": "明治町"
  },
  "5070842": {
    "zipcode": "5070842",
    "prefectureCode": "21",
    "prefectureNumber": 21,
    "prefecture": "岐阜県",
    "city": "多治見市",
    "town": "中町"
  },
  "5070843": {
    "zipcode": "5070843",
    "prefectureCode": "21",
    "prefectureNumber": 21,
    "prefecture": "岐阜県",
    "city": "多治見市",
    "town": "常盤町"
  },
  "5070844": {
    "zipcode": "5070844",
    "prefectureCode": "21",
    "prefectureNumber": 21,
    "prefecture": "岐阜県",
    "city": "多治見市",
    "town": "陶元町"
  },
  "5070845": {
    "zipcode": "5070845",
    "prefectureCode": "21",
    "prefectureNumber": 21,
    "prefecture": "岐阜県",
    "city": "多治見市",
    "town": "山下町"
  },
  "5070846": {
    "zipcode": "5070846",
    "prefectureCode": "21",
    "prefectureNumber": 21,
    "prefecture": "岐阜県",
    "city": "多治見市",
    "town": "神楽町"
  },
  "5070847": {
    "zipcode": "5070847",
    "prefectureCode": "21",
    "prefectureNumber": 21,
    "prefecture": "岐阜県",
    "city": "多治見市",
    "town": "小路町"
  },
  "5070848": {
    "zipcode": "5070848",
    "prefectureCode": "21",
    "prefectureNumber": 21,
    "prefecture": "岐阜県",
    "city": "多治見市",
    "town": "日ノ出町"
  },
  "5070901": {
    "zipcode": "5070901",
    "prefectureCode": "21",
    "prefectureNumber": 21,
    "prefecture": "岐阜県",
    "city": "多治見市",
    "town": "笠原町"
  }
}
