{
  "5080000": {
    "zipcode": "5080000",
    "prefectureCode": "21",
    "prefectureNumber": 21,
    "prefecture": "岐阜県",
    "city": "中津川市",
    "town": "以下に掲載がない場合"
  },
  "5080001": {
    "zipcode": "5080001",
    "prefectureCode": "21",
    "prefectureNumber": 21,
    "prefecture": "岐阜県",
    "city": "中津川市",
    "town": "中津川"
  },
  "5080002": {
    "zipcode": "5080002",
    "prefectureCode": "21",
    "prefectureNumber": 21,
    "prefecture": "岐阜県",
    "city": "中津川市",
    "town": "阿木川上"
  },
  "5080003": {
    "zipcode": "5080003",
    "prefectureCode": "21",
    "prefectureNumber": 21,
    "prefecture": "岐阜県",
    "city": "中津川市",
    "town": "中一色町"
  },
  "5080004": {
    "zipcode": "5080004",
    "prefectureCode": "21",
    "prefectureNumber": 21,
    "prefecture": "岐阜県",
    "city": "中津川市",
    "town": "花戸町"
  },
  "5080005": {
    "zipcode": "5080005",
    "prefectureCode": "21",
    "prefectureNumber": 21,
    "prefecture": "岐阜県",
    "city": "中津川市",
    "town": "日の出町"
  },
  "5080006": {
    "zipcode": "5080006",
    "prefectureCode": "21",
    "prefectureNumber": 21,
    "prefecture": "岐阜県",
    "city": "中津川市",
    "town": "落合"
  },
  "5080007": {
    "zipcode": "5080007",
    "prefectureCode": "21",
    "prefectureNumber": 21,
    "prefecture": "岐阜県",
    "city": "中津川市",
    "town": "神坂"
  },
  "5080011": {
    "zipcode": "5080011",
    "prefectureCode": "21",
    "prefectureNumber": 21,
    "prefecture": "岐阜県",
    "city": "中津川市",
    "town": "駒場"
  },
  "5080012": {
    "zipcode": "5080012",
    "prefectureCode": "21",
    "prefectureNumber": 21,
    "prefecture": "岐阜県",
    "city": "中津川市",
    "town": "津島町"
  },
  "5080013": {
    "zipcode": "5080013",
    "prefectureCode": "21",
    "prefectureNumber": 21,
    "prefecture": "岐阜県",
    "city": "中津川市",
    "town": "柳町"
  },
  "5080014": {
    "zipcode": "5080014",
    "prefectureCode": "21",
    "prefectureNumber": 21,
    "prefecture": "岐阜県",
    "city": "中津川市",
    "town": "駒場町"
  },
  "5080015": {
    "zipcode": "5080015",
    "prefectureCode": "21",
    "prefectureNumber": 21,
    "prefecture": "岐阜県",
    "city": "中津川市",
    "town": "手賀野"
  },
  "5080021": {
    "zipcode": "5080021",
    "prefectureCode": "21",
    "prefectureNumber": 21,
    "prefecture": "岐阜県",
    "city": "中津川市",
    "town": "中川町"
  },
  "5080022": {
    "zipcode": "5080022",
    "prefectureCode": "21",
    "prefectureNumber": 21,
    "prefecture": "岐阜県",
    "city": "中津川市",
    "town": "北野町"
  },
  "5080023": {
    "zipcode": "5080023",
    "prefectureCode": "21",
    "prefectureNumber": 21,
    "prefecture": "岐阜県",
    "city": "中津川市",
    "town": "小川町"
  },
  "5080024": {
    "zipcode": "5080024",
    "prefectureCode": "21",
    "prefectureNumber": 21,
    "prefecture": "岐阜県",
    "city": "中津川市",
    "town": "桃山町"
  },
  "5080031": {
    "zipcode": "5080031",
    "prefectureCode": "21",
    "prefectureNumber": 21,
    "prefecture": "岐阜県",
    "city": "中津川市",
    "town": "宮前町"
  },
  "5080032": {
    "zipcode": "5080032",
    "prefectureCode": "21",
    "prefectureNumber": 21,
    "prefecture": "岐阜県",
    "city": "中津川市",
    "town": "栄町"
  },
  "5080033": {
    "zipcode": "5080033",
    "prefectureCode": "21",
    "prefectureNumber": 21,
    "prefecture": "岐阜県",
    "city": "中津川市",
    "town": "太田町"
  },
  "5080034": {
    "zipcode": "5080034",
    "prefectureCode": "21",
    "prefectureNumber": 21,
    "prefecture": "岐阜県",
    "city": "中津川市",
    "town": "淀川町"
  },
  "5080035": {
    "zipcode": "5080035",
    "prefectureCode": "21",
    "prefectureNumber": 21,
    "prefecture": "岐阜県",
    "city": "中津川市",
    "town": "東町"
  },
  "5080036": {
    "zipcode": "5080036",
    "prefectureCode": "21",
    "prefectureNumber": 21,
    "prefecture": "岐阜県",
    "city": "中津川市",
    "town": "東宮町"
  },
  "5080037": {
    "zipcode": "5080037",
    "prefectureCode": "21",
    "prefectureNumber": 21,
    "prefecture": "岐阜県",
    "city": "中津川市",
    "town": "えびす町"
  },
  "5080038": {
    "zipcode": "5080038",
    "prefectureCode": "21",
    "prefectureNumber": 21,
    "prefecture": "岐阜県",
    "city": "中津川市",
    "town": "新町"
  },
  "5080041": {
    "zipcode": "5080041",
    "prefectureCode": "21",
    "prefectureNumber": 21,
    "prefecture": "岐阜県",
    "city": "中津川市",
    "town": "本町"
  },
  "5080042": {
    "zipcode": "5080042",
    "prefectureCode": "21",
    "prefectureNumber": 21,
    "prefecture": "岐阜県",
    "city": "中津川市",
    "town": "西宮町"
  },
  "5080043": {
    "zipcode": "5080043",
    "prefectureCode": "21",
    "prefectureNumber": 21,
    "prefecture": "岐阜県",
    "city": "中津川市",
    "town": "八幡町"
  },
  "5080044": {
    "zipcode": "5080044",
    "prefectureCode": "21",
    "prefectureNumber": 21,
    "prefecture": "岐阜県",
    "city": "中津川市",
    "town": "昭和町"
  },
  "5080045": {
    "zipcode": "5080045",
    "prefectureCode": "21",
    "prefectureNumber": 21,
    "prefecture": "岐阜県",
    "city": "中津川市",
    "town": "かやの木町"
  },
  "5080101": {
    "zipcode": "5080101",
    "prefectureCode": "21",
    "prefectureNumber": 21,
    "prefecture": "岐阜県",
    "city": "中津川市",
    "town": "苗木"
  },
  "5080111": {
    "zipcode": "5080111",
    "prefectureCode": "21",
    "prefectureNumber": 21,
    "prefecture": "岐阜県",
    "city": "中津川市",
    "town": "瀬戸"
  },
  "5080201": {
    "zipcode": "5080201",
    "prefectureCode": "21",
    "prefectureNumber": 21,
    "prefecture": "岐阜県",
    "city": "中津川市",
    "town": "田瀬"
  },
  "5080202": {
    "zipcode": "5080202",
    "prefectureCode": "21",
    "prefectureNumber": 21,
    "prefecture": "岐阜県",
    "city": "中津川市",
    "town": "下野"
  },
  "5080203": {
    "zipcode": "5080203",
    "prefectureCode": "21",
    "prefectureNumber": 21,
    "prefecture": "岐阜県",
    "city": "中津川市",
    "town": "福岡"
  },
  "5080204": {
    "zipcode": "5080204",
    "prefectureCode": "21",
    "prefectureNumber": 21,
    "prefecture": "岐阜県",
    "city": "中津川市",
    "town": "高山"
  },
  "5080351": {
    "zipcode": "5080351",
    "prefectureCode": "21",
    "prefectureNumber": 21,
    "prefecture": "岐阜県",
    "city": "中津川市",
    "town": "付知町"
  },
  "5080421": {
    "zipcode": "5080421",
    "prefectureCode": "21",
    "prefectureNumber": 21,
    "prefecture": "岐阜県",
    "city": "中津川市",
    "town": "加子母"
  },
  "5080501": {
    "zipcode": "5080501",
    "prefectureCode": "21",
    "prefectureNumber": 21,
    "prefecture": "岐阜県",
    "city": "中津川市",
    "town": "山口"
  },
  "5080502": {
    "zipcode": "5080502",
    "prefectureCode": "21",
    "prefectureNumber": 21,
    "prefecture": "岐阜県",
    "city": "中津川市",
    "town": "馬籠"
  }
}
