{
  "5090101": {
    "zipcode": "5090101",
    "prefectureCode": "21",
    "prefectureNumber": 21,
    "prefecture": "岐阜県",
    "city": "各務原市",
    "town": "須衛"
  },
  "5090102": {
    "zipcode": "5090102",
    "prefectureCode": "21",
    "prefectureNumber": 21,
    "prefecture": "岐阜県",
    "city": "各務原市",
    "town": "各務車洞"
  },
  "5090103": {
    "zipcode": "5090103",
    "prefectureCode": "21",
    "prefectureNumber": 21,
    "prefecture": "岐阜県",
    "city": "各務原市",
    "town": "各務東町"
  },
  "5090104": {
    "zipcode": "5090104",
    "prefectureCode": "21",
    "prefectureNumber": 21,
    "prefecture": "岐阜県",
    "city": "各務原市",
    "town": "各務おがせ町"
  },
  "5090105": {
    "zipcode": "5090105",
    "prefectureCode": "21",
    "prefectureNumber": 21,
    "prefecture": "岐阜県",
    "city": "各務原市",
    "town": "各務山の前町"
  },
  "5090106": {
    "zipcode": "5090106",
    "prefectureCode": "21",
    "prefectureNumber": 21,
    "prefecture": "岐阜県",
    "city": "各務原市",
    "town": "各務西町"
  },
  "5090107": {
    "zipcode": "5090107",
    "prefectureCode": "21",
    "prefectureNumber": 21,
    "prefecture": "岐阜県",
    "city": "各務原市",
    "town": "各務船山町"
  },
  "5090108": {
    "zipcode": "5090108",
    "prefectureCode": "21",
    "prefectureNumber": 21,
    "prefecture": "岐阜県",
    "city": "各務原市",
    "town": "須衛町"
  },
  "5090109": {
    "zipcode": "5090109",
    "prefectureCode": "21",
    "prefectureNumber": 21,
    "prefecture": "岐阜県",
    "city": "各務原市",
    "town": "テクノプラザ"
  },
  "5090111": {
    "zipcode": "5090111",
    "prefectureCode": "21",
    "prefectureNumber": 21,
    "prefecture": "岐阜県",
    "city": "各務原市",
    "town": "鵜沼"
  },
  "5090112": {
    "zipcode": "5090112",
    "prefectureCode": "21",
    "prefectureNumber": 21,
    "prefecture": "岐阜県",
    "city": "各務原市",
    "town": "緑苑北"
  },
  "5090113": {
    "zipcode": "5090113",
    "prefectureCode": "21",
    "prefectureNumber": 21,
    "prefecture": "岐阜県",
    "city": "各務原市",
    "town": "緑苑東"
  },
  "5090114": {
    "zipcode": "5090114",
    "prefectureCode": "21",
    "prefectureNumber": 21,
    "prefecture": "岐阜県",
    "city": "各務原市",
    "town": "緑苑中"
  },
  "5090115": {
    "zipcode": "5090115",
    "prefectureCode": "21",
    "prefectureNumber": 21,
    "prefecture": "岐阜県",
    "city": "各務原市",
    "town": "緑苑南"
  },
  "5090116": {
    "zipcode": "5090116",
    "prefectureCode": "21",
    "prefectureNumber": 21,
    "prefecture": "岐阜県",
    "city": "各務原市",
    "town": "緑苑西"
  },
  "5090117": {
    "zipcode": "5090117",
    "prefectureCode": "21",
    "prefectureNumber": 21,
    "prefecture": "岐阜県",
    "city": "各務原市",
    "town": "鵜沼大安寺町"
  },
  "5090118": {
    "zipcode": "5090118",
    "prefectureCode": "21",
    "prefectureNumber": 21,
    "prefecture": "岐阜県",
    "city": "各務原市",
    "town": "各務山"
  },
  "5090121": {
    "zipcode": "5090121",
    "prefectureCode": "21",
    "prefectureNumber": 21,
    "prefecture": "岐阜県",
    "city": "各務原市",
    "town": "鵜沼台"
  },
  "5090122": {
    "zipcode": "5090122",
    "prefectureCode": "21",
    "prefectureNumber": 21,
    "prefecture": "岐阜県",
    "city": "各務原市",
    "town": "新鵜沼台"
  },
  "5090123": {
    "zipcode": "5090123",
    "prefectureCode": "21",
    "prefectureNumber": 21,
    "prefecture": "岐阜県",
    "city": "各務原市",
    "town": "鵜沼宝積寺町"
  },
  "5090124": {
    "zipcode": "5090124",
    "prefectureCode": "21",
    "prefectureNumber": 21,
    "prefecture": "岐阜県",
    "city": "各務原市",
    "town": "鵜沼山崎町"
  },
  "5090125": {
    "zipcode": "5090125",
    "prefectureCode": "21",
    "prefectureNumber": 21,
    "prefecture": "岐阜県",
    "city": "各務原市",
    "town": "鵜沼南町"
  },
  "5090126": {
    "zipcode": "5090126",
    "prefectureCode": "21",
    "prefectureNumber": 21,
    "prefecture": "岐阜県",
    "city": "各務原市",
    "town": "鵜沼東町"
  },
  "5090127": {
    "zipcode": "5090127",
    "prefectureCode": "21",
    "prefectureNumber": 21,
    "prefecture": "岐阜県",
    "city": "各務原市",
    "town": "桜木町"
  },
  "5090131": {
    "zipcode": "5090131",
    "prefectureCode": "21",
    "prefectureNumber": 21,
    "prefecture": "岐阜県",
    "city": "各務原市",
    "town": "つつじが丘"
  },
  "5090132": {
    "zipcode": "5090132",
    "prefectureCode": "21",
    "prefectureNumber": 21,
    "prefecture": "岐阜県",
    "city": "各務原市",
    "town": "鵜沼西町"
  },
  "5090133": {
    "zipcode": "5090133",
    "prefectureCode": "21",
    "prefectureNumber": 21,
    "prefecture": "岐阜県",
    "city": "各務原市",
    "town": "鵜沼古市場町"
  },
  "5090134": {
    "zipcode": "5090134",
    "prefectureCode": "21",
    "prefectureNumber": 21,
    "prefecture": "岐阜県",
    "city": "各務原市",
    "town": "鵜沼真名越町"
  },
  "5090135": {
    "zipcode": "5090135",
    "prefectureCode": "21",
    "prefectureNumber": 21,
    "prefecture": "岐阜県",
    "city": "各務原市",
    "town": "鵜沼羽場町"
  },
  "5090136": {
    "zipcode": "5090136",
    "prefectureCode": "21",
    "prefectureNumber": 21,
    "prefecture": "岐阜県",
    "city": "各務原市",
    "town": "松が丘"
  },
  "5090141": {
    "zipcode": "5090141",
    "prefectureCode": "21",
    "prefectureNumber": 21,
    "prefecture": "岐阜県",
    "city": "各務原市",
    "town": "鵜沼各務原町"
  },
  "5090142": {
    "zipcode": "5090142",
    "prefectureCode": "21",
    "prefectureNumber": 21,
    "prefecture": "岐阜県",
    "city": "各務原市",
    "town": "鵜沼丸子町"
  },
  "5090143": {
    "zipcode": "5090143",
    "prefectureCode": "21",
    "prefectureNumber": 21,
    "prefecture": "岐阜県",
    "city": "各務原市",
    "town": "鵜沼小伊木町"
  },
  "5090144": {
    "zipcode": "5090144",
    "prefectureCode": "21",
    "prefectureNumber": 21,
    "prefecture": "岐阜県",
    "city": "各務原市",
    "town": "鵜沼大伊木町"
  },
  "5090145": {
    "zipcode": "5090145",
    "prefectureCode": "21",
    "prefectureNumber": 21,
    "prefecture": "岐阜県",
    "city": "各務原市",
    "town": "鵜沼朝日町"
  },
  "5090146": {
    "zipcode": "5090146",
    "prefectureCode": "21",
    "prefectureNumber": 21,
    "prefecture": "岐阜県",
    "city": "各務原市",
    "town": "鵜沼三ツ池町"
  },
  "5090147": {
    "zipcode": "5090147",
    "prefectureCode": "21",
    "prefectureNumber": 21,
    "prefecture": "岐阜県",
    "city": "各務原市",
    "town": "鵜沼川崎町"
  },
  "5090200": {
    "zipcode": "5090200",
    "prefectureCode": "21",
    "prefectureNumber": 21,
    "prefecture": "岐阜県",
    "city": "可児市",
    "town": "以下に掲載がない場合"
  },
  "5090201": {
    "zipcode": "5090201",
    "prefectureCode": "21",
    "prefectureNumber": 21,
    "prefecture": "岐阜県",
    "city": "可児市",
    "town": "川合"
  },
  "5090202": {
    "zipcode": "5090202",
    "prefectureCode": "21",
    "prefectureNumber": 21,
    "prefecture": "岐阜県",
    "city": "可児市",
    "town": "中恵土"
  },
  "5090203": {
    "zipcode": "5090203",
    "prefectureCode": "21",
    "prefectureNumber": 21,
    "prefecture": "岐阜県",
    "city": "可児市",
    "town": "下恵土"
  },
  "5090204": {
    "zipcode": "5090204",
    "prefectureCode": "21",
    "prefectureNumber": 21,
    "prefecture": "岐阜県",
    "city": "可児市",
    "town": "禅台寺"
  },
  "5090205": {
    "zipcode": "5090205",
    "prefectureCode": "21",
    "prefectureNumber": 21,
    "prefecture": "岐阜県",
    "city": "可児市",
    "town": "徳野南"
  },
  "5090206": {
    "zipcode": "5090206",
    "prefectureCode": "21",
    "prefectureNumber": 21,
    "prefecture": "岐阜県",
    "city": "可児市",
    "town": "土田"
  },
  "5090207": {
    "zipcode": "5090207",
    "prefectureCode": "21",
    "prefectureNumber": 21,
    "prefecture": "岐阜県",
    "city": "可児市",
    "town": "今渡"
  },
  "5090208": {
    "zipcode": "5090208",
    "prefectureCode": "21",
    "prefectureNumber": 21,
    "prefecture": "岐阜県",
    "city": "可児市",
    "town": "川合北"
  },
  "5090209": {
    "zipcode": "5090209",
    "prefectureCode": "21",
    "prefectureNumber": 21,
    "prefecture": "岐阜県",
    "city": "可児市",
    "town": "下恵土（１、２丁目）"
  },
  "5090211": {
    "zipcode": "5090211",
    "prefectureCode": "21",
    "prefectureNumber": 21,
    "prefecture": "岐阜県",
    "city": "可児市",
    "town": "渕之上"
  },
  "5090212": {
    "zipcode": "5090212",
    "prefectureCode": "21",
    "prefectureNumber": 21,
    "prefecture": "岐阜県",
    "city": "可児市",
    "town": "柿田"
  },
  "5090213": {
    "zipcode": "5090213",
    "prefectureCode": "21",
    "prefectureNumber": 21,
    "prefecture": "岐阜県",
    "city": "可児市",
    "town": "瀬田"
  },
  "5090214": {
    "zipcode": "5090214",
    "prefectureCode": "21",
    "prefectureNumber": 21,
    "prefecture": "岐阜県",
    "city": "可児市",
    "town": "広見"
  },
  "5090215": {
    "zipcode": "5090215",
    "prefectureCode": "21",
    "prefectureNumber": 21,
    "prefecture": "岐阜県",
    "city": "可児市",
    "town": "石井"
  },
  "5090216": {
    "zipcode": "5090216",
    "prefectureCode": "21",
    "prefectureNumber": 21,
    "prefecture": "岐阜県",
    "city": "可児市",
    "town": "石森"
  },
  "5090217": {
    "zipcode": "5090217",
    "prefectureCode": "21",
    "prefectureNumber": 21,
    "prefecture": "岐阜県",
    "city": "可児市",
    "town": "平貝戸"
  },
  "5090218": {
    "zipcode": "5090218",
    "prefectureCode": "21",
    "prefectureNumber": 21,
    "prefecture": "岐阜県",
    "city": "可児市",
    "town": "松伏"
  },
  "5090219": {
    "zipcode": "5090219",
    "prefectureCode": "21",
    "prefectureNumber": 21,
    "prefecture": "岐阜県",
    "city": "可児市",
    "town": "あけち"
  },
  "5090221": {
    "zipcode": "5090221",
    "prefectureCode": "21",
    "prefectureNumber": 21,
    "prefecture": "岐阜県",
    "city": "可児市",
    "town": "広眺ケ丘"
  },
  "5090222": {
    "zipcode": "5090222",
    "prefectureCode": "21",
    "prefectureNumber": 21,
    "prefecture": "岐阜県",
    "city": "可児市",
    "town": "羽崎"
  },
  "5090223": {
    "zipcode": "5090223",
    "prefectureCode": "21",
    "prefectureNumber": 21,
    "prefecture": "岐阜県",
    "city": "可児市",
    "town": "羽生ケ丘"
  },
  "5090224": {
    "zipcode": "5090224",
    "prefectureCode": "21",
    "prefectureNumber": 21,
    "prefecture": "岐阜県",
    "city": "可児市",
    "town": "久々利"
  },
  "5090230": {
    "zipcode": "5090230",
    "prefectureCode": "21",
    "prefectureNumber": 21,
    "prefecture": "岐阜県",
    "city": "可児市",
    "town": "星見台"
  },
  "5090231": {
    "zipcode": "5090231",
    "prefectureCode": "21",
    "prefectureNumber": 21,
    "prefecture": "岐阜県",
    "city": "可児市",
    "town": "緑ケ丘"
  },
  "5090232": {
    "zipcode": "5090232",
    "prefectureCode": "21",
    "prefectureNumber": 21,
    "prefecture": "岐阜県",
    "city": "可児市",
    "town": "二野"
  },
  "5090233": {
    "zipcode": "5090233",
    "prefectureCode": "21",
    "prefectureNumber": 21,
    "prefecture": "岐阜県",
    "city": "可児市",
    "town": "柿下"
  },
  "5090234": {
    "zipcode": "5090234",
    "prefectureCode": "21",
    "prefectureNumber": 21,
    "prefecture": "岐阜県",
    "city": "可児市",
    "town": "久々利柿下入会"
  },
  "5090235": {
    "zipcode": "5090235",
    "prefectureCode": "21",
    "prefectureNumber": 21,
    "prefecture": "岐阜県",
    "city": "可児市",
    "town": "桜ケ丘"
  },
  "5090236": {
    "zipcode": "5090236",
    "prefectureCode": "21",
    "prefectureNumber": 21,
    "prefecture": "岐阜県",
    "city": "可児市",
    "town": "皐ケ丘"
  },
  "5090237": {
    "zipcode": "5090237",
    "prefectureCode": "21",
    "prefectureNumber": 21,
    "prefecture": "岐阜県",
    "city": "可児市",
    "town": "桂ケ丘"
  },
  "5090238": {
    "zipcode": "5090238",
    "prefectureCode": "21",
    "prefectureNumber": 21,
    "prefecture": "岐阜県",
    "city": "可児市",
    "town": "大森"
  },
  "5090239": {
    "zipcode": "5090239",
    "prefectureCode": "21",
    "prefectureNumber": 21,
    "prefecture": "岐阜県",
    "city": "可児市",
    "town": "大森台"
  },
  "5090240": {
    "zipcode": "5090240",
    "prefectureCode": "21",
    "prefectureNumber": 21,
    "prefecture": "岐阜県",
    "city": "可児市",
    "town": "みずきケ丘"
  },
  "5090241": {
    "zipcode": "5090241",
    "prefectureCode": "21",
    "prefectureNumber": 21,
    "prefecture": "岐阜県",
    "city": "可児市",
    "town": "坂戸"
  },
  "5090242": {
    "zipcode": "5090242",
    "prefectureCode": "21",
    "prefectureNumber": 21,
    "prefecture": "岐阜県",
    "city": "可児市",
    "town": "谷迫間"
  },
  "5090245": {
    "zipcode": "5090245",
    "prefectureCode": "21",
    "prefectureNumber": 21,
    "prefecture": "岐阜県",
    "city": "可児市",
    "town": "下切"
  },
  "5090246": {
    "zipcode": "5090246",
    "prefectureCode": "21",
    "prefectureNumber": 21,
    "prefecture": "岐阜県",
    "city": "可児市",
    "town": "今"
  },
  "5090247": {
    "zipcode": "5090247",
    "prefectureCode": "21",
    "prefectureNumber": 21,
    "prefecture": "岐阜県",
    "city": "可児市",
    "town": "塩河"
  },
  "5090248": {
    "zipcode": "5090248",
    "prefectureCode": "21",
    "prefectureNumber": 21,
    "prefecture": "岐阜県",
    "city": "可児市",
    "town": "清水ケ丘"
  },
  "5090249": {
    "zipcode": "5090249",
    "prefectureCode": "21",
    "prefectureNumber": 21,
    "prefecture": "岐阜県",
    "city": "可児市",
    "town": "姫ケ丘"
  },
  "5090250": {
    "zipcode": "5090250",
    "prefectureCode": "21",
    "prefectureNumber": 21,
    "prefecture": "岐阜県",
    "city": "可児市",
    "town": "美里ケ丘"
  },
  "5090251": {
    "zipcode": "5090251",
    "prefectureCode": "21",
    "prefectureNumber": 21,
    "prefecture": "岐阜県",
    "city": "可児市",
    "town": "塩"
  },
  "5090252": {
    "zipcode": "5090252",
    "prefectureCode": "21",
    "prefectureNumber": 21,
    "prefecture": "岐阜県",
    "city": "可児市",
    "town": "矢戸"
  },
  "5090253": {
    "zipcode": "5090253",
    "prefectureCode": "21",
    "prefectureNumber": 21,
    "prefecture": "岐阜県",
    "city": "可児市",
    "town": "室原"
  },
  "5090254": {
    "zipcode": "5090254",
    "prefectureCode": "21",
    "prefectureNumber": 21,
    "prefecture": "岐阜県",
    "city": "可児市",
    "town": "長洞"
  },
  "5090255": {
    "zipcode": "5090255",
    "prefectureCode": "21",
    "prefectureNumber": 21,
    "prefecture": "岐阜県",
    "city": "可児市",
    "town": "光陽台"
  },
  "5090256": {
    "zipcode": "5090256",
    "prefectureCode": "21",
    "prefectureNumber": 21,
    "prefecture": "岐阜県",
    "city": "可児市",
    "town": "東帷子"
  },
  "5090257": {
    "zipcode": "5090257",
    "prefectureCode": "21",
    "prefectureNumber": 21,
    "prefecture": "岐阜県",
    "city": "可児市",
    "town": "長坂"
  },
  "5090258": {
    "zipcode": "5090258",
    "prefectureCode": "21",
    "prefectureNumber": 21,
    "prefecture": "岐阜県",
    "city": "可児市",
    "town": "若葉台"
  },
  "5090259": {
    "zipcode": "5090259",
    "prefectureCode": "21",
    "prefectureNumber": 21,
    "prefecture": "岐阜県",
    "city": "可児市",
    "town": "愛岐ケ丘"
  },
  "5090261": {
    "zipcode": "5090261",
    "prefectureCode": "21",
    "prefectureNumber": 21,
    "prefecture": "岐阜県",
    "city": "可児市",
    "town": "虹ケ丘"
  },
  "5090262": {
    "zipcode": "5090262",
    "prefectureCode": "21",
    "prefectureNumber": 21,
    "prefecture": "岐阜県",
    "city": "可児市",
    "town": "菅刈"
  },
  "5090263": {
    "zipcode": "5090263",
    "prefectureCode": "21",
    "prefectureNumber": 21,
    "prefecture": "岐阜県",
    "city": "可児市",
    "town": "緑"
  },
  "5090264": {
    "zipcode": "5090264",
    "prefectureCode": "21",
    "prefectureNumber": 21,
    "prefecture": "岐阜県",
    "city": "可児市",
    "town": "鳩吹台"
  },
  "5090265": {
    "zipcode": "5090265",
    "prefectureCode": "21",
    "prefectureNumber": 21,
    "prefecture": "岐阜県",
    "city": "可児市",
    "town": "西帷子"
  },
  "5090266": {
    "zipcode": "5090266",
    "prefectureCode": "21",
    "prefectureNumber": 21,
    "prefecture": "岐阜県",
    "city": "可児市",
    "town": "帷子新町"
  },
  "5090300": {
    "zipcode": "5090300",
    "prefectureCode": "21",
    "prefectureNumber": 21,
    "prefecture": "岐阜県",
    "city": "加茂郡川辺町",
    "town": "以下に掲載がない場合"
  },
  "5090301": {
    "zipcode": "5090301",
    "prefectureCode": "21",
    "prefectureNumber": 21,
    "prefecture": "岐阜県",
    "city": "加茂郡川辺町",
    "town": "下麻生"
  },
  "5090302": {
    "zipcode": "5090302",
    "prefectureCode": "21",
    "prefectureNumber": 21,
    "prefecture": "岐阜県",
    "city": "加茂郡川辺町",
    "town": "上川辺"
  },
  "5090303": {
    "zipcode": "5090303",
    "prefectureCode": "21",
    "prefectureNumber": 21,
    "prefecture": "岐阜県",
    "city": "加茂郡川辺町",
    "town": "石神"
  },
  "5090304": {
    "zipcode": "5090304",
    "prefectureCode": "21",
    "prefectureNumber": 21,
    "prefecture": "岐阜県",
    "city": "加茂郡川辺町",
    "town": "中川辺"
  },
  "5090305": {
    "zipcode": "5090305",
    "prefectureCode": "21",
    "prefectureNumber": 21,
    "prefecture": "岐阜県",
    "city": "加茂郡川辺町",
    "town": "西栃井"
  },
  "5090306": {
    "zipcode": "5090306",
    "prefectureCode": "21",
    "prefectureNumber": 21,
    "prefecture": "岐阜県",
    "city": "加茂郡川辺町",
    "town": "下川辺"
  },
  "5090307": {
    "zipcode": "5090307",
    "prefectureCode": "21",
    "prefectureNumber": 21,
    "prefecture": "岐阜県",
    "city": "加茂郡川辺町",
    "town": "鹿塩"
  },
  "5090311": {
    "zipcode": "5090311",
    "prefectureCode": "21",
    "prefectureNumber": 21,
    "prefecture": "岐阜県",
    "city": "加茂郡川辺町",
    "town": "下吉田"
  },
  "5090312": {
    "zipcode": "5090312",
    "prefectureCode": "21",
    "prefectureNumber": 21,
    "prefecture": "岐阜県",
    "city": "加茂郡川辺町",
    "town": "中野"
  },
  "5090313": {
    "zipcode": "5090313",
    "prefectureCode": "21",
    "prefectureNumber": 21,
    "prefecture": "岐阜県",
    "city": "加茂郡川辺町",
    "town": "下飯田"
  },
  "5090314": {
    "zipcode": "5090314",
    "prefectureCode": "21",
    "prefectureNumber": 21,
    "prefecture": "岐阜県",
    "city": "加茂郡川辺町",
    "town": "福島"
  },
  "5090315": {
    "zipcode": "5090315",
    "prefectureCode": "21",
    "prefectureNumber": 21,
    "prefecture": "岐阜県",
    "city": "加茂郡川辺町",
    "town": "比久見"
  },
  "5090400": {
    "zipcode": "5090400",
    "prefectureCode": "21",
    "prefectureNumber": 21,
    "prefecture": "岐阜県",
    "city": "加茂郡七宗町",
    "town": "以下に掲載がない場合"
  },
  "5090401": {
    "zipcode": "5090401",
    "prefectureCode": "21",
    "prefectureNumber": 21,
    "prefecture": "岐阜県",
    "city": "加茂郡七宗町",
    "town": "上麻生"
  },
  "5090402": {
    "zipcode": "5090402",
    "prefectureCode": "21",
    "prefectureNumber": 21,
    "prefecture": "岐阜県",
    "city": "加茂郡七宗町",
    "town": "川並"
  },
  "5090403": {
    "zipcode": "5090403",
    "prefectureCode": "21",
    "prefectureNumber": 21,
    "prefecture": "岐阜県",
    "city": "加茂郡七宗町",
    "town": "中麻生"
  },
  "5090511": {
    "zipcode": "5090511",
    "prefectureCode": "21",
    "prefectureNumber": 21,
    "prefecture": "岐阜県",
    "city": "加茂郡七宗町",
    "town": "神渕"
  },
  "5091100": {
    "zipcode": "5091100",
    "prefectureCode": "21",
    "prefectureNumber": 21,
    "prefecture": "岐阜県",
    "city": "加茂郡白川町",
    "town": "以下に掲載がない場合"
  },
  "5091101": {
    "zipcode": "5091101",
    "prefectureCode": "21",
    "prefectureNumber": 21,
    "prefecture": "岐阜県",
    "city": "加茂郡白川町",
    "town": "白山"
  },
  "5091102": {
    "zipcode": "5091102",
    "prefectureCode": "21",
    "prefectureNumber": 21,
    "prefecture": "岐阜県",
    "city": "加茂郡白川町",
    "town": "中川"
  },
  "5091103": {
    "zipcode": "5091103",
    "prefectureCode": "21",
    "prefectureNumber": 21,
    "prefecture": "岐阜県",
    "city": "加茂郡白川町",
    "town": "水戸野"
  },
  "5091104": {
    "zipcode": "5091104",
    "prefectureCode": "21",
    "prefectureNumber": 21,
    "prefecture": "岐阜県",
    "city": "加茂郡白川町",
    "town": "和泉"
  },
  "5091105": {
    "zipcode": "5091105",
    "prefectureCode": "21",
    "prefectureNumber": 21,
    "prefecture": "岐阜県",
    "city": "加茂郡白川町",
    "town": "河岐"
  },
  "5091106": {
    "zipcode": "5091106",
    "prefectureCode": "21",
    "prefectureNumber": 21,
    "prefecture": "岐阜県",
    "city": "加茂郡白川町",
    "town": "坂ノ東"
  },
  "5091107": {
    "zipcode": "5091107",
    "prefectureCode": "21",
    "prefectureNumber": 21,
    "prefecture": "岐阜県",
    "city": "加茂郡白川町",
    "town": "河東"
  },
  "5091108": {
    "zipcode": "5091108",
    "prefectureCode": "21",
    "prefectureNumber": 21,
    "prefecture": "岐阜県",
    "city": "加茂郡白川町",
    "town": "広野"
  },
  "5091111": {
    "zipcode": "5091111",
    "prefectureCode": "21",
    "prefectureNumber": 21,
    "prefecture": "岐阜県",
    "city": "加茂郡白川町",
    "town": "切井"
  },
  "5091112": {
    "zipcode": "5091112",
    "prefectureCode": "21",
    "prefectureNumber": 21,
    "prefecture": "岐阜県",
    "city": "加茂郡白川町",
    "town": "赤河"
  },
  "5091113": {
    "zipcode": "5091113",
    "prefectureCode": "21",
    "prefectureNumber": 21,
    "prefecture": "岐阜県",
    "city": "加茂郡白川町",
    "town": "三川"
  },
  "5091221": {
    "zipcode": "5091221",
    "prefectureCode": "21",
    "prefectureNumber": 21,
    "prefecture": "岐阜県",
    "city": "加茂郡白川町",
    "town": "上佐見"
  },
  "5091222": {
    "zipcode": "5091222",
    "prefectureCode": "21",
    "prefectureNumber": 21,
    "prefecture": "岐阜県",
    "city": "加茂郡白川町",
    "town": "下佐見"
  },
  "5091300": {
    "zipcode": "5091300",
    "prefectureCode": "21",
    "prefectureNumber": 21,
    "prefecture": "岐阜県",
    "city": "加茂郡東白川村",
    "town": "以下に掲載がない場合"
  },
  "5091301": {
    "zipcode": "5091301",
    "prefectureCode": "21",
    "prefectureNumber": 21,
    "prefecture": "岐阜県",
    "city": "加茂郡東白川村",
    "town": "越原"
  },
  "5091302": {
    "zipcode": "5091302",
    "prefectureCode": "21",
    "prefectureNumber": 21,
    "prefecture": "岐阜県",
    "city": "加茂郡東白川村",
    "town": "神土"
  },
  "5091303": {
    "zipcode": "5091303",
    "prefectureCode": "21",
    "prefectureNumber": 21,
    "prefecture": "岐阜県",
    "city": "加茂郡東白川村",
    "town": "五加"
  },
  "5091431": {
    "zipcode": "5091431",
    "prefectureCode": "21",
    "prefectureNumber": 21,
    "prefecture": "岐阜県",
    "city": "加茂郡白川町",
    "town": "黒川"
  },
  "5091601": {
    "zipcode": "5091601",
    "prefectureCode": "21",
    "prefectureNumber": 21,
    "prefecture": "岐阜県",
    "city": "下呂市",
    "town": "金山町弓掛"
  },
  "5091602": {
    "zipcode": "5091602",
    "prefectureCode": "21",
    "prefectureNumber": 21,
    "prefecture": "岐阜県",
    "city": "下呂市",
    "town": "金山町卯野原"
  },
  "5091603": {
    "zipcode": "5091603",
    "prefectureCode": "21",
    "prefectureNumber": 21,
    "prefecture": "岐阜県",
    "city": "下呂市",
    "town": "金山町岩瀬"
  },
  "5091604": {
    "zipcode": "5091604",
    "prefectureCode": "21",
    "prefectureNumber": 21,
    "prefecture": "岐阜県",
    "city": "下呂市",
    "town": "金山町東沓部"
  },
  "5091605": {
    "zipcode": "5091605",
    "prefectureCode": "21",
    "prefectureNumber": 21,
    "prefecture": "岐阜県",
    "city": "下呂市",
    "town": "金山町戸部"
  },
  "5091606": {
    "zipcode": "5091606",
    "prefectureCode": "21",
    "prefectureNumber": 21,
    "prefecture": "岐阜県",
    "city": "下呂市",
    "town": "金山町祖師野"
  },
  "5091607": {
    "zipcode": "5091607",
    "prefectureCode": "21",
    "prefectureNumber": 21,
    "prefecture": "岐阜県",
    "city": "下呂市",
    "town": "金山町乙原"
  },
  "5091611": {
    "zipcode": "5091611",
    "prefectureCode": "21",
    "prefectureNumber": 21,
    "prefecture": "岐阜県",
    "city": "下呂市",
    "town": "金山町中切"
  },
  "5091612": {
    "zipcode": "5091612",
    "prefectureCode": "21",
    "prefectureNumber": 21,
    "prefecture": "岐阜県",
    "city": "下呂市",
    "town": "金山町福来"
  },
  "5091613": {
    "zipcode": "5091613",
    "prefectureCode": "21",
    "prefectureNumber": 21,
    "prefecture": "岐阜県",
    "city": "下呂市",
    "town": "金山町中津原"
  },
  "5091614": {
    "zipcode": "5091614",
    "prefectureCode": "21",
    "prefectureNumber": 21,
    "prefecture": "岐阜県",
    "city": "下呂市",
    "town": "金山町大船渡"
  },
  "5091615": {
    "zipcode": "5091615",
    "prefectureCode": "21",
    "prefectureNumber": 21,
    "prefecture": "岐阜県",
    "city": "下呂市",
    "town": "金山町田島"
  },
  "5091616": {
    "zipcode": "5091616",
    "prefectureCode": "21",
    "prefectureNumber": 21,
    "prefecture": "岐阜県",
    "city": "下呂市",
    "town": "金山町下原町"
  },
  "5091621": {
    "zipcode": "5091621",
    "prefectureCode": "21",
    "prefectureNumber": 21,
    "prefecture": "岐阜県",
    "city": "下呂市",
    "town": "金山町渡"
  },
  "5091622": {
    "zipcode": "5091622",
    "prefectureCode": "21",
    "prefectureNumber": 21,
    "prefecture": "岐阜県",
    "city": "下呂市",
    "town": "金山町金山"
  },
  "5091623": {
    "zipcode": "5091623",
    "prefectureCode": "21",
    "prefectureNumber": 21,
    "prefecture": "岐阜県",
    "city": "下呂市",
    "town": "金山町菅田桐洞"
  },
  "5091624": {
    "zipcode": "5091624",
    "prefectureCode": "21",
    "prefectureNumber": 21,
    "prefecture": "岐阜県",
    "city": "下呂市",
    "town": "金山町菅田笹洞"
  },
  "5092131": {
    "zipcode": "5092131",
    "prefectureCode": "21",
    "prefectureNumber": 21,
    "prefecture": "岐阜県",
    "city": "下呂市",
    "town": "久野川"
  },
  "5092132": {
    "zipcode": "5092132",
    "prefectureCode": "21",
    "prefectureNumber": 21,
    "prefecture": "岐阜県",
    "city": "下呂市",
    "town": "火打"
  },
  "5092133": {
    "zipcode": "5092133",
    "prefectureCode": "21",
    "prefectureNumber": 21,
    "prefecture": "岐阜県",
    "city": "下呂市",
    "town": "和佐"
  },
  "5092134": {
    "zipcode": "5092134",
    "prefectureCode": "21",
    "prefectureNumber": 21,
    "prefecture": "岐阜県",
    "city": "下呂市",
    "town": "焼石"
  },
  "5092135": {
    "zipcode": "5092135",
    "prefectureCode": "21",
    "prefectureNumber": 21,
    "prefecture": "岐阜県",
    "city": "下呂市",
    "town": "三ツ渕"
  },
  "5092136": {
    "zipcode": "5092136",
    "prefectureCode": "21",
    "prefectureNumber": 21,
    "prefecture": "岐阜県",
    "city": "下呂市",
    "town": "瀬戸"
  },
  "5092137": {
    "zipcode": "5092137",
    "prefectureCode": "21",
    "prefectureNumber": 21,
    "prefecture": "岐阜県",
    "city": "下呂市",
    "town": "保井戸"
  },
  "5092138": {
    "zipcode": "5092138",
    "prefectureCode": "21",
    "prefectureNumber": 21,
    "prefecture": "岐阜県",
    "city": "下呂市",
    "town": "門原"
  },
  "5092200": {
    "zipcode": "5092200",
    "prefectureCode": "21",
    "prefectureNumber": 21,
    "prefecture": "岐阜県",
    "city": "下呂市",
    "town": "以下に掲載がない場合"
  },
  "5092201": {
    "zipcode": "5092201",
    "prefectureCode": "21",
    "prefectureNumber": 21,
    "prefecture": "岐阜県",
    "city": "下呂市",
    "town": "東上田"
  },
  "5092202": {
    "zipcode": "5092202",
    "prefectureCode": "21",
    "prefectureNumber": 21,
    "prefecture": "岐阜県",
    "city": "下呂市",
    "town": "森"
  },
  "5092203": {
    "zipcode": "5092203",
    "prefectureCode": "21",
    "prefectureNumber": 21,
    "prefecture": "岐阜県",
    "city": "下呂市",
    "town": "小川"
  },
  "5092204": {
    "zipcode": "5092204",
    "prefectureCode": "21",
    "prefectureNumber": 21,
    "prefecture": "岐阜県",
    "city": "下呂市",
    "town": "三原"
  },
  "5092205": {
    "zipcode": "5092205",
    "prefectureCode": "21",
    "prefectureNumber": 21,
    "prefecture": "岐阜県",
    "city": "下呂市",
    "town": "少ケ野"
  },
  "5092206": {
    "zipcode": "5092206",
    "prefectureCode": "21",
    "prefectureNumber": 21,
    "prefecture": "岐阜県",
    "city": "下呂市",
    "town": "幸田"
  },
  "5092207": {
    "zipcode": "5092207",
    "prefectureCode": "21",
    "prefectureNumber": 21,
    "prefecture": "岐阜県",
    "city": "下呂市",
    "town": "湯之島"
  },
  "5092311": {
    "zipcode": "5092311",
    "prefectureCode": "21",
    "prefectureNumber": 21,
    "prefecture": "岐阜県",
    "city": "下呂市",
    "town": "乗政"
  },
  "5092312": {
    "zipcode": "5092312",
    "prefectureCode": "21",
    "prefectureNumber": 21,
    "prefecture": "岐阜県",
    "city": "下呂市",
    "town": "御厩野"
  },
  "5092313": {
    "zipcode": "5092313",
    "prefectureCode": "21",
    "prefectureNumber": 21,
    "prefecture": "岐阜県",
    "city": "下呂市",
    "town": "野尻"
  },
  "5092314": {
    "zipcode": "5092314",
    "prefectureCode": "21",
    "prefectureNumber": 21,
    "prefecture": "岐阜県",
    "city": "下呂市",
    "town": "宮地"
  },
  "5092421": {
    "zipcode": "5092421",
    "prefectureCode": "21",
    "prefectureNumber": 21,
    "prefecture": "岐阜県",
    "city": "下呂市",
    "town": "夏焼"
  },
  "5092422": {
    "zipcode": "5092422",
    "prefectureCode": "21",
    "prefectureNumber": 21,
    "prefecture": "岐阜県",
    "city": "下呂市",
    "town": "田口"
  },
  "5092423": {
    "zipcode": "5092423",
    "prefectureCode": "21",
    "prefectureNumber": 21,
    "prefecture": "岐阜県",
    "city": "下呂市",
    "town": "蛇之尾"
  },
  "5092424": {
    "zipcode": "5092424",
    "prefectureCode": "21",
    "prefectureNumber": 21,
    "prefecture": "岐阜県",
    "city": "下呂市",
    "town": "門和佐"
  },
  "5092501": {
    "zipcode": "5092501",
    "prefectureCode": "21",
    "prefectureNumber": 21,
    "prefecture": "岐阜県",
    "city": "下呂市",
    "town": "萩原町山之口"
  },
  "5092502": {
    "zipcode": "5092502",
    "prefectureCode": "21",
    "prefectureNumber": 21,
    "prefecture": "岐阜県",
    "city": "下呂市",
    "town": "萩原町四美"
  },
  "5092503": {
    "zipcode": "5092503",
    "prefectureCode": "21",
    "prefectureNumber": 21,
    "prefecture": "岐阜県",
    "city": "下呂市",
    "town": "萩原町西上田"
  },
  "5092504": {
    "zipcode": "5092504",
    "prefectureCode": "21",
    "prefectureNumber": 21,
    "prefecture": "岐阜県",
    "city": "下呂市",
    "town": "萩原町跡津"
  },
  "5092505": {
    "zipcode": "5092505",
    "prefectureCode": "21",
    "prefectureNumber": 21,
    "prefecture": "岐阜県",
    "city": "下呂市",
    "town": "萩原町古関"
  },
  "5092506": {
    "zipcode": "5092506",
    "prefectureCode": "21",
    "prefectureNumber": 21,
    "prefecture": "岐阜県",
    "city": "下呂市",
    "town": "萩原町羽根"
  },
  "5092507": {
    "zipcode": "5092507",
    "prefectureCode": "21",
    "prefectureNumber": 21,
    "prefecture": "岐阜県",
    "city": "下呂市",
    "town": "萩原町野上"
  },
  "5092508": {
    "zipcode": "5092508",
    "prefectureCode": "21",
    "prefectureNumber": 21,
    "prefecture": "岐阜県",
    "city": "下呂市",
    "town": "萩原町尾崎"
  },
  "5092511": {
    "zipcode": "5092511",
    "prefectureCode": "21",
    "prefectureNumber": 21,
    "prefecture": "岐阜県",
    "city": "下呂市",
    "town": "萩原町宮田"
  },
  "5092512": {
    "zipcode": "5092512",
    "prefectureCode": "21",
    "prefectureNumber": 21,
    "prefecture": "岐阜県",
    "city": "下呂市",
    "town": "萩原町大ヶ洞"
  },
  "5092513": {
    "zipcode": "5092513",
    "prefectureCode": "21",
    "prefectureNumber": 21,
    "prefecture": "岐阜県",
    "city": "下呂市",
    "town": "萩原町桜洞"
  },
  "5092514": {
    "zipcode": "5092514",
    "prefectureCode": "21",
    "prefectureNumber": 21,
    "prefecture": "岐阜県",
    "city": "下呂市",
    "town": "萩原町中呂"
  },
  "5092515": {
    "zipcode": "5092515",
    "prefectureCode": "21",
    "prefectureNumber": 21,
    "prefecture": "岐阜県",
    "city": "下呂市",
    "town": "萩原町花池"
  },
  "5092516": {
    "zipcode": "5092516",
    "prefectureCode": "21",
    "prefectureNumber": 21,
    "prefecture": "岐阜県",
    "city": "下呂市",
    "town": "萩原町上村"
  },
  "5092517": {
    "zipcode": "5092517",
    "prefectureCode": "21",
    "prefectureNumber": 21,
    "prefecture": "岐阜県",
    "city": "下呂市",
    "town": "萩原町萩原"
  },
  "5092518": {
    "zipcode": "5092518",
    "prefectureCode": "21",
    "prefectureNumber": 21,
    "prefecture": "岐阜県",
    "city": "下呂市",
    "town": "萩原町上呂"
  },
  "5092519": {
    "zipcode": "5092519",
    "prefectureCode": "21",
    "prefectureNumber": 21,
    "prefecture": "岐阜県",
    "city": "下呂市",
    "town": "萩原町奥田洞"
  },
  "5092601": {
    "zipcode": "5092601",
    "prefectureCode": "21",
    "prefectureNumber": 21,
    "prefecture": "岐阜県",
    "city": "下呂市",
    "town": "馬瀬川上"
  },
  "5092602": {
    "zipcode": "5092602",
    "prefectureCode": "21",
    "prefectureNumber": 21,
    "prefecture": "岐阜県",
    "city": "下呂市",
    "town": "馬瀬黒石"
  },
  "5092603": {
    "zipcode": "5092603",
    "prefectureCode": "21",
    "prefectureNumber": 21,
    "prefecture": "岐阜県",
    "city": "下呂市",
    "town": "馬瀬数河"
  },
  "5092604": {
    "zipcode": "5092604",
    "prefectureCode": "21",
    "prefectureNumber": 21,
    "prefecture": "岐阜県",
    "city": "下呂市",
    "town": "馬瀬中切"
  },
  "5092611": {
    "zipcode": "5092611",
    "prefectureCode": "21",
    "prefectureNumber": 21,
    "prefecture": "岐阜県",
    "city": "下呂市",
    "town": "馬瀬堀之内"
  },
  "5092612": {
    "zipcode": "5092612",
    "prefectureCode": "21",
    "prefectureNumber": 21,
    "prefecture": "岐阜県",
    "city": "下呂市",
    "town": "馬瀬名丸"
  },
  "5092613": {
    "zipcode": "5092613",
    "prefectureCode": "21",
    "prefectureNumber": 21,
    "prefecture": "岐阜県",
    "city": "下呂市",
    "town": "馬瀬井谷"
  },
  "5092614": {
    "zipcode": "5092614",
    "prefectureCode": "21",
    "prefectureNumber": 21,
    "prefecture": "岐阜県",
    "city": "下呂市",
    "town": "馬瀬惣島"
  },
  "5092615": {
    "zipcode": "5092615",
    "prefectureCode": "21",
    "prefectureNumber": 21,
    "prefecture": "岐阜県",
    "city": "下呂市",
    "town": "馬瀬西村"
  },
  "5092701": {
    "zipcode": "5092701",
    "prefectureCode": "21",
    "prefectureNumber": 21,
    "prefecture": "岐阜県",
    "city": "高山市",
    "town": "清見町楢谷"
  },
  "5092702": {
    "zipcode": "5092702",
    "prefectureCode": "21",
    "prefectureNumber": 21,
    "prefecture": "岐阜県",
    "city": "高山市",
    "town": "清見町大原"
  },
  "5093101": {
    "zipcode": "5093101",
    "prefectureCode": "21",
    "prefectureNumber": 21,
    "prefecture": "岐阜県",
    "city": "下呂市",
    "town": "小坂町岩崎"
  },
  "5093102": {
    "zipcode": "5093102",
    "prefectureCode": "21",
    "prefectureNumber": 21,
    "prefecture": "岐阜県",
    "city": "下呂市",
    "town": "小坂町門坂"
  },
  "5093103": {
    "zipcode": "5093103",
    "prefectureCode": "21",
    "prefectureNumber": 21,
    "prefecture": "岐阜県",
    "city": "下呂市",
    "town": "小坂町大垣内"
  },
  "5093104": {
    "zipcode": "5093104",
    "prefectureCode": "21",
    "prefectureNumber": 21,
    "prefecture": "岐阜県",
    "city": "下呂市",
    "town": "小坂町小坂町"
  },
  "5093105": {
    "zipcode": "5093105",
    "prefectureCode": "21",
    "prefectureNumber": 21,
    "prefecture": "岐阜県",
    "city": "下呂市",
    "town": "小坂町坂下"
  },
  "5093106": {
    "zipcode": "5093106",
    "prefectureCode": "21",
    "prefectureNumber": 21,
    "prefecture": "岐阜県",
    "city": "下呂市",
    "town": "小坂町大島"
  },
  "5093107": {
    "zipcode": "5093107",
    "prefectureCode": "21",
    "prefectureNumber": 21,
    "prefecture": "岐阜県",
    "city": "下呂市",
    "town": "小坂町無数原"
  },
  "5093111": {
    "zipcode": "5093111",
    "prefectureCode": "21",
    "prefectureNumber": 21,
    "prefecture": "岐阜県",
    "city": "下呂市",
    "town": "小坂町落合"
  },
  "5093112": {
    "zipcode": "5093112",
    "prefectureCode": "21",
    "prefectureNumber": 21,
    "prefecture": "岐阜県",
    "city": "下呂市",
    "town": "小坂町大洞"
  },
  "5093113": {
    "zipcode": "5093113",
    "prefectureCode": "21",
    "prefectureNumber": 21,
    "prefecture": "岐阜県",
    "city": "下呂市",
    "town": "小坂町湯屋"
  },
  "5093114": {
    "zipcode": "5093114",
    "prefectureCode": "21",
    "prefectureNumber": 21,
    "prefecture": "岐阜県",
    "city": "下呂市",
    "town": "小坂町赤沼田"
  },
  "5093115": {
    "zipcode": "5093115",
    "prefectureCode": "21",
    "prefectureNumber": 21,
    "prefecture": "岐阜県",
    "city": "下呂市",
    "town": "小坂町長瀬"
  },
  "5093201": {
    "zipcode": "5093201",
    "prefectureCode": "21",
    "prefectureNumber": 21,
    "prefecture": "岐阜県",
    "city": "高山市",
    "town": "久々野町大西"
  },
  "5093202": {
    "zipcode": "5093202",
    "prefectureCode": "21",
    "prefectureNumber": 21,
    "prefecture": "岐阜県",
    "city": "高山市",
    "town": "久々野町小屋名"
  },
  "5093203": {
    "zipcode": "5093203",
    "prefectureCode": "21",
    "prefectureNumber": 21,
    "prefecture": "岐阜県",
    "city": "高山市",
    "town": "久々野町柳島"
  },
  "5093204": {
    "zipcode": "5093204",
    "prefectureCode": "21",
    "prefectureNumber": 21,
    "prefecture": "岐阜県",
    "city": "高山市",
    "town": "久々野町久須母"
  },
  "5093205": {
    "zipcode": "5093205",
    "prefectureCode": "21",
    "prefectureNumber": 21,
    "prefecture": "岐阜県",
    "city": "高山市",
    "town": "久々野町久々野"
  },
  "5093206": {
    "zipcode": "5093206",
    "prefectureCode": "21",
    "prefectureNumber": 21,
    "prefecture": "岐阜県",
    "city": "高山市",
    "town": "久々野町山梨"
  },
  "5093207": {
    "zipcode": "5093207",
    "prefectureCode": "21",
    "prefectureNumber": 21,
    "prefecture": "岐阜県",
    "city": "高山市",
    "town": "久々野町辻"
  },
  "5093211": {
    "zipcode": "5093211",
    "prefectureCode": "21",
    "prefectureNumber": 21,
    "prefecture": "岐阜県",
    "city": "高山市",
    "town": "久々野町小坊"
  },
  "5093212": {
    "zipcode": "5093212",
    "prefectureCode": "21",
    "prefectureNumber": 21,
    "prefecture": "岐阜県",
    "city": "高山市",
    "town": "久々野町阿多粕"
  },
  "5093213": {
    "zipcode": "5093213",
    "prefectureCode": "21",
    "prefectureNumber": 21,
    "prefecture": "岐阜県",
    "city": "高山市",
    "town": "久々野町渚"
  },
  "5093214": {
    "zipcode": "5093214",
    "prefectureCode": "21",
    "prefectureNumber": 21,
    "prefecture": "岐阜県",
    "city": "高山市",
    "town": "久々野町無数河"
  },
  "5093215": {
    "zipcode": "5093215",
    "prefectureCode": "21",
    "prefectureNumber": 21,
    "prefecture": "岐阜県",
    "city": "高山市",
    "town": "久々野町引下"
  },
  "5093216": {
    "zipcode": "5093216",
    "prefectureCode": "21",
    "prefectureNumber": 21,
    "prefecture": "岐阜県",
    "city": "高山市",
    "town": "久々野町木賊洞"
  },
  "5093217": {
    "zipcode": "5093217",
    "prefectureCode": "21",
    "prefectureNumber": 21,
    "prefecture": "岐阜県",
    "city": "高山市",
    "town": "久々野町長淀"
  },
  "5093218": {
    "zipcode": "5093218",
    "prefectureCode": "21",
    "prefectureNumber": 21,
    "prefecture": "岐阜県",
    "city": "高山市",
    "town": "久々野町有道"
  },
  "5093301": {
    "zipcode": "5093301",
    "prefectureCode": "21",
    "prefectureNumber": 21,
    "prefecture": "岐阜県",
    "city": "高山市",
    "town": "朝日町青屋"
  },
  "5093302": {
    "zipcode": "5093302",
    "prefectureCode": "21",
    "prefectureNumber": 21,
    "prefecture": "岐阜県",
    "city": "高山市",
    "town": "朝日町寺附"
  },
  "5093303": {
    "zipcode": "5093303",
    "prefectureCode": "21",
    "prefectureNumber": 21,
    "prefecture": "岐阜県",
    "city": "高山市",
    "town": "朝日町浅井"
  },
  "5093304": {
    "zipcode": "5093304",
    "prefectureCode": "21",
    "prefectureNumber": 21,
    "prefecture": "岐阜県",
    "city": "高山市",
    "town": "朝日町立岩"
  },
  "5093305": {
    "zipcode": "5093305",
    "prefectureCode": "21",
    "prefectureNumber": 21,
    "prefecture": "岐阜県",
    "city": "高山市",
    "town": "朝日町小瀬"
  },
  "5093306": {
    "zipcode": "5093306",
    "prefectureCode": "21",
    "prefectureNumber": 21,
    "prefecture": "岐阜県",
    "city": "高山市",
    "town": "朝日町見座"
  },
  "5093311": {
    "zipcode": "5093311",
    "prefectureCode": "21",
    "prefectureNumber": 21,
    "prefecture": "岐阜県",
    "city": "高山市",
    "town": "朝日町一之宿"
  },
  "5093312": {
    "zipcode": "5093312",
    "prefectureCode": "21",
    "prefectureNumber": 21,
    "prefecture": "岐阜県",
    "city": "高山市",
    "town": "朝日町桑之島"
  },
  "5093313": {
    "zipcode": "5093313",
    "prefectureCode": "21",
    "prefectureNumber": 21,
    "prefecture": "岐阜県",
    "city": "高山市",
    "town": "朝日町胡桃島"
  },
  "5093314": {
    "zipcode": "5093314",
    "prefectureCode": "21",
    "prefectureNumber": 21,
    "prefecture": "岐阜県",
    "city": "高山市",
    "town": "朝日町西洞（スズラン高原）"
  },
  "5093315": {
    "zipcode": "5093315",
    "prefectureCode": "21",
    "prefectureNumber": 21,
    "prefecture": "岐阜県",
    "city": "高山市",
    "town": "朝日町宮之前"
  },
  "5093316": {
    "zipcode": "5093316",
    "prefectureCode": "21",
    "prefectureNumber": 21,
    "prefecture": "岐阜県",
    "city": "高山市",
    "town": "朝日町黍生谷"
  },
  "5093317": {
    "zipcode": "5093317",
    "prefectureCode": "21",
    "prefectureNumber": 21,
    "prefecture": "岐阜県",
    "city": "高山市",
    "town": "朝日町小瀬ケ洞"
  },
  "5093321": {
    "zipcode": "5093321",
    "prefectureCode": "21",
    "prefectureNumber": 21,
    "prefecture": "岐阜県",
    "city": "高山市",
    "town": "朝日町黒川"
  },
  "5093322": {
    "zipcode": "5093322",
    "prefectureCode": "21",
    "prefectureNumber": 21,
    "prefecture": "岐阜県",
    "city": "高山市",
    "town": "朝日町大廣"
  },
  "5093323": {
    "zipcode": "5093323",
    "prefectureCode": "21",
    "prefectureNumber": 21,
    "prefecture": "岐阜県",
    "city": "高山市",
    "town": "朝日町寺澤"
  },
  "5093324": {
    "zipcode": "5093324",
    "prefectureCode": "21",
    "prefectureNumber": 21,
    "prefecture": "岐阜県",
    "city": "高山市",
    "town": "朝日町上ケ見"
  },
  "5093325": {
    "zipcode": "5093325",
    "prefectureCode": "21",
    "prefectureNumber": 21,
    "prefecture": "岐阜県",
    "city": "高山市",
    "town": "朝日町万石"
  },
  "5093326": {
    "zipcode": "5093326",
    "prefectureCode": "21",
    "prefectureNumber": 21,
    "prefecture": "岐阜県",
    "city": "高山市",
    "town": "朝日町甲"
  },
  "5093327": {
    "zipcode": "5093327",
    "prefectureCode": "21",
    "prefectureNumber": 21,
    "prefecture": "岐阜県",
    "city": "高山市",
    "town": "朝日町小谷"
  },
  "5093401": {
    "zipcode": "5093401",
    "prefectureCode": "21",
    "prefectureNumber": 21,
    "prefecture": "岐阜県",
    "city": "高山市",
    "town": "高根町阿多野郷"
  },
  "5093402": {
    "zipcode": "5093402",
    "prefectureCode": "21",
    "prefectureNumber": 21,
    "prefecture": "岐阜県",
    "city": "高山市",
    "town": "高根町野麦"
  },
  "5093403": {
    "zipcode": "5093403",
    "prefectureCode": "21",
    "prefectureNumber": 21,
    "prefecture": "岐阜県",
    "city": "高山市",
    "town": "高根町日和田"
  },
  "5093404": {
    "zipcode": "5093404",
    "prefectureCode": "21",
    "prefectureNumber": 21,
    "prefecture": "岐阜県",
    "city": "高山市",
    "town": "高根町小日和田"
  },
  "5093405": {
    "zipcode": "5093405",
    "prefectureCode": "21",
    "prefectureNumber": 21,
    "prefecture": "岐阜県",
    "city": "高山市",
    "town": "高根町留之原"
  },
  "5093411": {
    "zipcode": "5093411",
    "prefectureCode": "21",
    "prefectureNumber": 21,
    "prefecture": "岐阜県",
    "city": "高山市",
    "town": "高根町上ケ洞"
  },
  "5093412": {
    "zipcode": "5093412",
    "prefectureCode": "21",
    "prefectureNumber": 21,
    "prefecture": "岐阜県",
    "city": "高山市",
    "town": "高根町大古井"
  },
  "5093413": {
    "zipcode": "5093413",
    "prefectureCode": "21",
    "prefectureNumber": 21,
    "prefecture": "岐阜県",
    "city": "高山市",
    "town": "高根町下之向"
  },
  "5093414": {
    "zipcode": "5093414",
    "prefectureCode": "21",
    "prefectureNumber": 21,
    "prefecture": "岐阜県",
    "city": "高山市",
    "town": "高根町中之宿"
  },
  "5093415": {
    "zipcode": "5093415",
    "prefectureCode": "21",
    "prefectureNumber": 21,
    "prefecture": "岐阜県",
    "city": "高山市",
    "town": "高根町猪之鼻"
  },
  "5093416": {
    "zipcode": "5093416",
    "prefectureCode": "21",
    "prefectureNumber": 21,
    "prefecture": "岐阜県",
    "city": "高山市",
    "town": "高根町中洞"
  },
  "5093417": {
    "zipcode": "5093417",
    "prefectureCode": "21",
    "prefectureNumber": 21,
    "prefecture": "岐阜県",
    "city": "高山市",
    "town": "高根町池ケ洞"
  },
  "5093418": {
    "zipcode": "5093418",
    "prefectureCode": "21",
    "prefectureNumber": 21,
    "prefecture": "岐阜県",
    "city": "高山市",
    "town": "高根町黍生"
  },
  "5093419": {
    "zipcode": "5093419",
    "prefectureCode": "21",
    "prefectureNumber": 21,
    "prefecture": "岐阜県",
    "city": "高山市",
    "town": "高根町日影"
  },
  "5093505": {
    "zipcode": "5093505",
    "prefectureCode": "21",
    "prefectureNumber": 21,
    "prefecture": "岐阜県",
    "city": "高山市",
    "town": "一之宮町"
  },
  "5094101": {
    "zipcode": "5094101",
    "prefectureCode": "21",
    "prefectureNumber": 21,
    "prefecture": "岐阜県",
    "city": "高山市",
    "town": "国府町桐谷"
  },
  "5094102": {
    "zipcode": "5094102",
    "prefectureCode": "21",
    "prefectureNumber": 21,
    "prefecture": "岐阜県",
    "city": "高山市",
    "town": "国府町八日町"
  },
  "5094103": {
    "zipcode": "5094103",
    "prefectureCode": "21",
    "prefectureNumber": 21,
    "prefecture": "岐阜県",
    "city": "高山市",
    "town": "国府町宮地"
  },
  "5094104": {
    "zipcode": "5094104",
    "prefectureCode": "21",
    "prefectureNumber": 21,
    "prefecture": "岐阜県",
    "city": "高山市",
    "town": "国府町今"
  },
  "5094105": {
    "zipcode": "5094105",
    "prefectureCode": "21",
    "prefectureNumber": 21,
    "prefecture": "岐阜県",
    "city": "高山市",
    "town": "国府町蓑輪"
  },
  "5094106": {
    "zipcode": "5094106",
    "prefectureCode": "21",
    "prefectureNumber": 21,
    "prefecture": "岐阜県",
    "city": "高山市",
    "town": "国府町漆垣内"
  },
  "5094107": {
    "zipcode": "5094107",
    "prefectureCode": "21",
    "prefectureNumber": 21,
    "prefecture": "岐阜県",
    "city": "高山市",
    "town": "国府町西門前"
  },
  "5094108": {
    "zipcode": "5094108",
    "prefectureCode": "21",
    "prefectureNumber": 21,
    "prefecture": "岐阜県",
    "city": "高山市",
    "town": "国府町東門前"
  },
  "5094111": {
    "zipcode": "5094111",
    "prefectureCode": "21",
    "prefectureNumber": 21,
    "prefecture": "岐阜県",
    "city": "高山市",
    "town": "国府町山本"
  },
  "5094112": {
    "zipcode": "5094112",
    "prefectureCode": "21",
    "prefectureNumber": 21,
    "prefecture": "岐阜県",
    "city": "高山市",
    "town": "国府町鶴巣"
  },
  "5094113": {
    "zipcode": "5094113",
    "prefectureCode": "21",
    "prefectureNumber": 21,
    "prefecture": "岐阜県",
    "city": "高山市",
    "town": "国府町木曽垣内"
  },
  "5094114": {
    "zipcode": "5094114",
    "prefectureCode": "21",
    "prefectureNumber": 21,
    "prefecture": "岐阜県",
    "city": "高山市",
    "town": "国府町半田"
  },
  "5094115": {
    "zipcode": "5094115",
    "prefectureCode": "21",
    "prefectureNumber": 21,
    "prefecture": "岐阜県",
    "city": "高山市",
    "town": "国府町三日町"
  },
  "5094116": {
    "zipcode": "5094116",
    "prefectureCode": "21",
    "prefectureNumber": 21,
    "prefecture": "岐阜県",
    "city": "高山市",
    "town": "国府町上広瀬"
  },
  "5094117": {
    "zipcode": "5094117",
    "prefectureCode": "21",
    "prefectureNumber": 21,
    "prefecture": "岐阜県",
    "city": "高山市",
    "town": "国府町三川"
  },
  "5094119": {
    "zipcode": "5094119",
    "prefectureCode": "21",
    "prefectureNumber": 21,
    "prefecture": "岐阜県",
    "city": "高山市",
    "town": "国府町広瀬町（桜野）"
  },
  "5094121": {
    "zipcode": "5094121",
    "prefectureCode": "21",
    "prefectureNumber": 21,
    "prefecture": "岐阜県",
    "city": "高山市",
    "town": "国府町宇津江"
  },
  "5094122": {
    "zipcode": "5094122",
    "prefectureCode": "21",
    "prefectureNumber": 21,
    "prefecture": "岐阜県",
    "city": "高山市",
    "town": "国府町名張"
  },
  "5094123": {
    "zipcode": "5094123",
    "prefectureCode": "21",
    "prefectureNumber": 21,
    "prefecture": "岐阜県",
    "city": "高山市",
    "town": "国府町金桶"
  },
  "5094124": {
    "zipcode": "5094124",
    "prefectureCode": "21",
    "prefectureNumber": 21,
    "prefecture": "岐阜県",
    "city": "高山市",
    "town": "国府町村山"
  },
  "5094125": {
    "zipcode": "5094125",
    "prefectureCode": "21",
    "prefectureNumber": 21,
    "prefecture": "岐阜県",
    "city": "高山市",
    "town": "国府町糠塚"
  },
  "5094126": {
    "zipcode": "5094126",
    "prefectureCode": "21",
    "prefectureNumber": 21,
    "prefecture": "岐阜県",
    "city": "高山市",
    "town": "国府町瓜巣"
  },
  "5094201": {
    "zipcode": "5094201",
    "prefectureCode": "21",
    "prefectureNumber": 21,
    "prefecture": "岐阜県",
    "city": "飛騨市",
    "town": "古川町数河"
  },
  "5094202": {
    "zipcode": "5094202",
    "prefectureCode": "21",
    "prefectureNumber": 21,
    "prefecture": "岐阜県",
    "city": "飛騨市",
    "town": "古川町戸市"
  },
  "5094203": {
    "zipcode": "5094203",
    "prefectureCode": "21",
    "prefectureNumber": 21,
    "prefecture": "岐阜県",
    "city": "飛騨市",
    "town": "古川町袈裟丸"
  },
  "5094204": {
    "zipcode": "5094204",
    "prefectureCode": "21",
    "prefectureNumber": 21,
    "prefecture": "岐阜県",
    "city": "飛騨市",
    "town": "古川町野口"
  },
  "5094205": {
    "zipcode": "5094205",
    "prefectureCode": "21",
    "prefectureNumber": 21,
    "prefecture": "岐阜県",
    "city": "飛騨市",
    "town": "古川町末真"
  },
  "5094211": {
    "zipcode": "5094211",
    "prefectureCode": "21",
    "prefectureNumber": 21,
    "prefecture": "岐阜県",
    "city": "飛騨市",
    "town": "古川町太江"
  },
  "5094212": {
    "zipcode": "5094212",
    "prefectureCode": "21",
    "prefectureNumber": 21,
    "prefecture": "岐阜県",
    "city": "飛騨市",
    "town": "古川町上気多"
  },
  "5094213": {
    "zipcode": "5094213",
    "prefectureCode": "21",
    "prefectureNumber": 21,
    "prefecture": "岐阜県",
    "city": "飛騨市",
    "town": "古川町下気多"
  },
  "5094214": {
    "zipcode": "5094214",
    "prefectureCode": "21",
    "prefectureNumber": 21,
    "prefecture": "岐阜県",
    "city": "飛騨市",
    "town": "古川町沼町"
  },
  "5094215": {
    "zipcode": "5094215",
    "prefectureCode": "21",
    "prefectureNumber": 21,
    "prefecture": "岐阜県",
    "city": "飛騨市",
    "town": "古川町杉崎"
  },
  "5094221": {
    "zipcode": "5094221",
    "prefectureCode": "21",
    "prefectureNumber": 21,
    "prefecture": "岐阜県",
    "city": "飛騨市",
    "town": "古川町若宮"
  },
  "5094222": {
    "zipcode": "5094222",
    "prefectureCode": "21",
    "prefectureNumber": 21,
    "prefecture": "岐阜県",
    "city": "飛騨市",
    "town": "古川町片原町"
  },
  "5094223": {
    "zipcode": "5094223",
    "prefectureCode": "21",
    "prefectureNumber": 21,
    "prefecture": "岐阜県",
    "city": "飛騨市",
    "town": "古川町東町"
  },
  "5094224": {
    "zipcode": "5094224",
    "prefectureCode": "21",
    "prefectureNumber": 21,
    "prefecture": "岐阜県",
    "city": "飛騨市",
    "town": "古川町殿町"
  },
  "5094225": {
    "zipcode": "5094225",
    "prefectureCode": "21",
    "prefectureNumber": 21,
    "prefecture": "岐阜県",
    "city": "飛騨市",
    "town": "古川町金森町"
  },
  "5094231": {
    "zipcode": "5094231",
    "prefectureCode": "21",
    "prefectureNumber": 21,
    "prefecture": "岐阜県",
    "city": "飛騨市",
    "town": "古川町新栄町"
  },
  "5094232": {
    "zipcode": "5094232",
    "prefectureCode": "21",
    "prefectureNumber": 21,
    "prefecture": "岐阜県",
    "city": "飛騨市",
    "town": "古川町本町"
  },
  "5094233": {
    "zipcode": "5094233",
    "prefectureCode": "21",
    "prefectureNumber": 21,
    "prefecture": "岐阜県",
    "city": "飛騨市",
    "town": "古川町末広町"
  },
  "5094234": {
    "zipcode": "5094234",
    "prefectureCode": "21",
    "prefectureNumber": 21,
    "prefecture": "岐阜県",
    "city": "飛騨市",
    "town": "古川町壱之町"
  },
  "5094235": {
    "zipcode": "5094235",
    "prefectureCode": "21",
    "prefectureNumber": 21,
    "prefecture": "岐阜県",
    "city": "飛騨市",
    "town": "古川町弐之町"
  },
  "5094236": {
    "zipcode": "5094236",
    "prefectureCode": "21",
    "prefectureNumber": 21,
    "prefecture": "岐阜県",
    "city": "飛騨市",
    "town": "古川町三之町"
  },
  "5094237": {
    "zipcode": "5094237",
    "prefectureCode": "21",
    "prefectureNumber": 21,
    "prefecture": "岐阜県",
    "city": "飛騨市",
    "town": "古川町栄"
  },
  "5094241": {
    "zipcode": "5094241",
    "prefectureCode": "21",
    "prefectureNumber": 21,
    "prefecture": "岐阜県",
    "city": "飛騨市",
    "town": "古川町向町"
  },
  "5094242": {
    "zipcode": "5094242",
    "prefectureCode": "21",
    "prefectureNumber": 21,
    "prefecture": "岐阜県",
    "city": "飛騨市",
    "town": "古川町増島町"
  },
  "5094243": {
    "zipcode": "5094243",
    "prefectureCode": "21",
    "prefectureNumber": 21,
    "prefecture": "岐阜県",
    "city": "飛騨市",
    "town": "古川町貴船町"
  },
  "5094244": {
    "zipcode": "5094244",
    "prefectureCode": "21",
    "prefectureNumber": 21,
    "prefecture": "岐阜県",
    "city": "飛騨市",
    "town": "古川町是重"
  },
  "5094245": {
    "zipcode": "5094245",
    "prefectureCode": "21",
    "prefectureNumber": 21,
    "prefecture": "岐阜県",
    "city": "飛騨市",
    "town": "古川町幸栄町"
  },
  "5094251": {
    "zipcode": "5094251",
    "prefectureCode": "21",
    "prefectureNumber": 21,
    "prefecture": "岐阜県",
    "city": "飛騨市",
    "town": "古川町宮城町"
  },
  "5094252": {
    "zipcode": "5094252",
    "prefectureCode": "21",
    "prefectureNumber": 21,
    "prefecture": "岐阜県",
    "city": "飛騨市",
    "town": "古川町朝開町"
  },
  "5094253": {
    "zipcode": "5094253",
    "prefectureCode": "21",
    "prefectureNumber": 21,
    "prefecture": "岐阜県",
    "city": "飛騨市",
    "town": "古川町南成町"
  },
  "5094254": {
    "zipcode": "5094254",
    "prefectureCode": "21",
    "prefectureNumber": 21,
    "prefecture": "岐阜県",
    "city": "飛騨市",
    "town": "古川町上町"
  },
  "5094255": {
    "zipcode": "5094255",
    "prefectureCode": "21",
    "prefectureNumber": 21,
    "prefecture": "岐阜県",
    "city": "飛騨市",
    "town": "古川町大野町"
  },
  "5094256": {
    "zipcode": "5094256",
    "prefectureCode": "21",
    "prefectureNumber": 21,
    "prefecture": "岐阜県",
    "city": "飛騨市",
    "town": "古川町高野"
  },
  "5094261": {
    "zipcode": "5094261",
    "prefectureCode": "21",
    "prefectureNumber": 21,
    "prefecture": "岐阜県",
    "city": "飛騨市",
    "town": "古川町下野"
  },
  "5094262": {
    "zipcode": "5094262",
    "prefectureCode": "21",
    "prefectureNumber": 21,
    "prefecture": "岐阜県",
    "city": "飛騨市",
    "town": "古川町中野"
  },
  "5094263": {
    "zipcode": "5094263",
    "prefectureCode": "21",
    "prefectureNumber": 21,
    "prefecture": "岐阜県",
    "city": "飛騨市",
    "town": "古川町上野"
  },
  "5094264": {
    "zipcode": "5094264",
    "prefectureCode": "21",
    "prefectureNumber": 21,
    "prefecture": "岐阜県",
    "city": "飛騨市",
    "town": "古川町平岩"
  },
  "5094265": {
    "zipcode": "5094265",
    "prefectureCode": "21",
    "prefectureNumber": 21,
    "prefecture": "岐阜県",
    "city": "飛騨市",
    "town": "古川町畦畑"
  },
  "5094271": {
    "zipcode": "5094271",
    "prefectureCode": "21",
    "prefectureNumber": 21,
    "prefecture": "岐阜県",
    "city": "飛騨市",
    "town": "古川町谷"
  },
  "5094272": {
    "zipcode": "5094272",
    "prefectureCode": "21",
    "prefectureNumber": 21,
    "prefecture": "岐阜県",
    "city": "飛騨市",
    "town": "古川町信包"
  },
  "5094273": {
    "zipcode": "5094273",
    "prefectureCode": "21",
    "prefectureNumber": 21,
    "prefecture": "岐阜県",
    "city": "飛騨市",
    "town": "古川町寺地"
  },
  "5094274": {
    "zipcode": "5094274",
    "prefectureCode": "21",
    "prefectureNumber": 21,
    "prefecture": "岐阜県",
    "city": "飛騨市",
    "town": "古川町笹ケ洞"
  },
  "5094275": {
    "zipcode": "5094275",
    "prefectureCode": "21",
    "prefectureNumber": 21,
    "prefecture": "岐阜県",
    "city": "飛騨市",
    "town": "古川町黒内"
  },
  "5094301": {
    "zipcode": "5094301",
    "prefectureCode": "21",
    "prefectureNumber": 21,
    "prefecture": "岐阜県",
    "city": "飛騨市",
    "town": "河合町角川"
  },
  "5094302": {
    "zipcode": "5094302",
    "prefectureCode": "21",
    "prefectureNumber": 21,
    "prefecture": "岐阜県",
    "city": "飛騨市",
    "town": "河合町小無雁"
  },
  "5094303": {
    "zipcode": "5094303",
    "prefectureCode": "21",
    "prefectureNumber": 21,
    "prefecture": "岐阜県",
    "city": "飛騨市",
    "town": "河合町有家"
  },
  "5094304": {
    "zipcode": "5094304",
    "prefectureCode": "21",
    "prefectureNumber": 21,
    "prefecture": "岐阜県",
    "city": "飛騨市",
    "town": "河合町羽根"
  },
  "5094305": {
    "zipcode": "5094305",
    "prefectureCode": "21",
    "prefectureNumber": 21,
    "prefecture": "岐阜県",
    "city": "飛騨市",
    "town": "河合町保木林"
  },
  "5094306": {
    "zipcode": "5094306",
    "prefectureCode": "21",
    "prefectureNumber": 21,
    "prefecture": "岐阜県",
    "city": "飛騨市",
    "town": "河合町中沢上"
  },
  "5094311": {
    "zipcode": "5094311",
    "prefectureCode": "21",
    "prefectureNumber": 21,
    "prefecture": "岐阜県",
    "city": "飛騨市",
    "town": "河合町大谷"
  },
  "5094312": {
    "zipcode": "5094312",
    "prefectureCode": "21",
    "prefectureNumber": 21,
    "prefecture": "岐阜県",
    "city": "飛騨市",
    "town": "河合町稲越"
  },
  "5094313": {
    "zipcode": "5094313",
    "prefectureCode": "21",
    "prefectureNumber": 21,
    "prefecture": "岐阜県",
    "city": "飛騨市",
    "town": "河合町保"
  },
  "5094314": {
    "zipcode": "5094314",
    "prefectureCode": "21",
    "prefectureNumber": 21,
    "prefecture": "岐阜県",
    "city": "飛騨市",
    "town": "河合町月ケ瀬"
  },
  "5094315": {
    "zipcode": "5094315",
    "prefectureCode": "21",
    "prefectureNumber": 21,
    "prefecture": "岐阜県",
    "city": "飛騨市",
    "town": "河合町天生"
  },
  "5094316": {
    "zipcode": "5094316",
    "prefectureCode": "21",
    "prefectureNumber": 21,
    "prefecture": "岐阜県",
    "city": "飛騨市",
    "town": "河合町元田"
  },
  "5094317": {
    "zipcode": "5094317",
    "prefectureCode": "21",
    "prefectureNumber": 21,
    "prefecture": "岐阜県",
    "city": "飛騨市",
    "town": "河合町上ケ島"
  },
  "5094318": {
    "zipcode": "5094318",
    "prefectureCode": "21",
    "prefectureNumber": 21,
    "prefecture": "岐阜県",
    "city": "飛騨市",
    "town": "河合町新名"
  },
  "5094401": {
    "zipcode": "5094401",
    "prefectureCode": "21",
    "prefectureNumber": 21,
    "prefecture": "岐阜県",
    "city": "飛騨市",
    "town": "宮川町菅沼"
  },
  "5094402": {
    "zipcode": "5094402",
    "prefectureCode": "21",
    "prefectureNumber": 21,
    "prefecture": "岐阜県",
    "city": "飛騨市",
    "town": "宮川町種蔵"
  },
  "5094403": {
    "zipcode": "5094403",
    "prefectureCode": "21",
    "prefectureNumber": 21,
    "prefecture": "岐阜県",
    "city": "飛騨市",
    "town": "宮川町三川原"
  },
  "5094404": {
    "zipcode": "5094404",
    "prefectureCode": "21",
    "prefectureNumber": 21,
    "prefecture": "岐阜県",
    "city": "飛騨市",
    "town": "宮川町巣之内"
  },
  "5094405": {
    "zipcode": "5094405",
    "prefectureCode": "21",
    "prefectureNumber": 21,
    "prefecture": "岐阜県",
    "city": "飛騨市",
    "town": "宮川町丸山"
  },
  "5094406": {
    "zipcode": "5094406",
    "prefectureCode": "21",
    "prefectureNumber": 21,
    "prefecture": "岐阜県",
    "city": "飛騨市",
    "town": "宮川町牧戸"
  },
  "5094411": {
    "zipcode": "5094411",
    "prefectureCode": "21",
    "prefectureNumber": 21,
    "prefecture": "岐阜県",
    "city": "飛騨市",
    "town": "宮川町野首"
  },
  "5094412": {
    "zipcode": "5094412",
    "prefectureCode": "21",
    "prefectureNumber": 21,
    "prefecture": "岐阜県",
    "city": "飛騨市",
    "town": "宮川町岸奥"
  },
  "5094413": {
    "zipcode": "5094413",
    "prefectureCode": "21",
    "prefectureNumber": 21,
    "prefecture": "岐阜県",
    "city": "飛騨市",
    "town": "宮川町小谷"
  },
  "5094414": {
    "zipcode": "5094414",
    "prefectureCode": "21",
    "prefectureNumber": 21,
    "prefecture": "岐阜県",
    "city": "飛騨市",
    "town": "宮川町大無雁"
  },
  "5094415": {
    "zipcode": "5094415",
    "prefectureCode": "21",
    "prefectureNumber": 21,
    "prefecture": "岐阜県",
    "city": "飛騨市",
    "town": "宮川町落合"
  },
  "5094421": {
    "zipcode": "5094421",
    "prefectureCode": "21",
    "prefectureNumber": 21,
    "prefecture": "岐阜県",
    "city": "飛騨市",
    "town": "宮川町高牧"
  },
  "5094422": {
    "zipcode": "5094422",
    "prefectureCode": "21",
    "prefectureNumber": 21,
    "prefecture": "岐阜県",
    "city": "飛騨市",
    "town": "宮川町西忍"
  },
  "5094423": {
    "zipcode": "5094423",
    "prefectureCode": "21",
    "prefectureNumber": 21,
    "prefecture": "岐阜県",
    "city": "飛騨市",
    "town": "宮川町林"
  },
  "5094424": {
    "zipcode": "5094424",
    "prefectureCode": "21",
    "prefectureNumber": 21,
    "prefecture": "岐阜県",
    "city": "飛騨市",
    "town": "宮川町森安"
  },
  "5094531": {
    "zipcode": "5094531",
    "prefectureCode": "21",
    "prefectureNumber": 21,
    "prefecture": "岐阜県",
    "city": "飛騨市",
    "town": "宮川町巣納谷"
  },
  "5094532": {
    "zipcode": "5094532",
    "prefectureCode": "21",
    "prefectureNumber": 21,
    "prefecture": "岐阜県",
    "city": "飛騨市",
    "town": "宮川町洞"
  },
  "5094533": {
    "zipcode": "5094533",
    "prefectureCode": "21",
    "prefectureNumber": 21,
    "prefecture": "岐阜県",
    "city": "飛騨市",
    "town": "宮川町塩屋"
  },
  "5094534": {
    "zipcode": "5094534",
    "prefectureCode": "21",
    "prefectureNumber": 21,
    "prefecture": "岐阜県",
    "city": "飛騨市",
    "town": "宮川町中沢上"
  },
  "5094535": {
    "zipcode": "5094535",
    "prefectureCode": "21",
    "prefectureNumber": 21,
    "prefecture": "岐阜県",
    "city": "飛騨市",
    "town": "宮川町祢宜ケ沢上"
  },
  "5094541": {
    "zipcode": "5094541",
    "prefectureCode": "21",
    "prefectureNumber": 21,
    "prefecture": "岐阜県",
    "city": "飛騨市",
    "town": "宮川町小豆沢"
  },
  "5094542": {
    "zipcode": "5094542",
    "prefectureCode": "21",
    "prefectureNumber": 21,
    "prefecture": "岐阜県",
    "city": "飛騨市",
    "town": "宮川町杉原"
  },
  "5094543": {
    "zipcode": "5094543",
    "prefectureCode": "21",
    "prefectureNumber": 21,
    "prefecture": "岐阜県",
    "city": "飛騨市",
    "town": "宮川町桑野"
  },
  "5094544": {
    "zipcode": "5094544",
    "prefectureCode": "21",
    "prefectureNumber": 21,
    "prefecture": "岐阜県",
    "city": "飛騨市",
    "town": "宮川町戸谷"
  },
  "5094545": {
    "zipcode": "5094545",
    "prefectureCode": "21",
    "prefectureNumber": 21,
    "prefecture": "岐阜県",
    "city": "飛騨市",
    "town": "宮川町打保"
  },
  "5095100": {
    "zipcode": "5095100",
    "prefectureCode": "21",
    "prefectureNumber": 21,
    "prefecture": "岐阜県",
    "city": "土岐市",
    "town": "以下に掲載がない場合"
  },
  "5095101": {
    "zipcode": "5095101",
    "prefectureCode": "21",
    "prefectureNumber": 21,
    "prefecture": "岐阜県",
    "city": "土岐市",
    "town": "泉町河合"
  },
  "5095102": {
    "zipcode": "5095102",
    "prefectureCode": "21",
    "prefectureNumber": 21,
    "prefecture": "岐阜県",
    "city": "土岐市",
    "town": "泉町定林寺"
  },
  "5095103": {
    "zipcode": "5095103",
    "prefectureCode": "21",
    "prefectureNumber": 21,
    "prefecture": "岐阜県",
    "city": "土岐市",
    "town": "泉東窯町"
  },
  "5095104": {
    "zipcode": "5095104",
    "prefectureCode": "21",
    "prefectureNumber": 21,
    "prefecture": "岐阜県",
    "city": "土岐市",
    "town": "泉中窯町"
  },
  "5095105": {
    "zipcode": "5095105",
    "prefectureCode": "21",
    "prefectureNumber": 21,
    "prefecture": "岐阜県",
    "city": "土岐市",
    "town": "泉西窯町"
  },
  "5095106": {
    "zipcode": "5095106",
    "prefectureCode": "21",
    "prefectureNumber": 21,
    "prefecture": "岐阜県",
    "city": "土岐市",
    "town": "泉仲森町"
  },
  "5095107": {
    "zipcode": "5095107",
    "prefectureCode": "21",
    "prefectureNumber": 21,
    "prefecture": "岐阜県",
    "city": "土岐市",
    "town": "泉梅ノ木町"
  },
  "5095111": {
    "zipcode": "5095111",
    "prefectureCode": "21",
    "prefectureNumber": 21,
    "prefecture": "岐阜県",
    "city": "土岐市",
    "town": "肥田浅野双葉町"
  },
  "5095112": {
    "zipcode": "5095112",
    "prefectureCode": "21",
    "prefectureNumber": 21,
    "prefecture": "岐阜県",
    "city": "土岐市",
    "town": "肥田浅野笠神町"
  },
  "5095113": {
    "zipcode": "5095113",
    "prefectureCode": "21",
    "prefectureNumber": 21,
    "prefecture": "岐阜県",
    "city": "土岐市",
    "town": "肥田浅野元町"
  },
  "5095114": {
    "zipcode": "5095114",
    "prefectureCode": "21",
    "prefectureNumber": 21,
    "prefecture": "岐阜県",
    "city": "土岐市",
    "town": "肥田町浅野"
  },
  "5095115": {
    "zipcode": "5095115",
    "prefectureCode": "21",
    "prefectureNumber": 21,
    "prefecture": "岐阜県",
    "city": "土岐市",
    "town": "肥田町肥田（その他）"
  },
  "5095116": {
    "zipcode": "5095116",
    "prefectureCode": "21",
    "prefectureNumber": 21,
    "prefecture": "岐阜県",
    "city": "土岐市",
    "town": "肥田浅野矢落町"
  },
  "5095117": {
    "zipcode": "5095117",
    "prefectureCode": "21",
    "prefectureNumber": 21,
    "prefecture": "岐阜県",
    "city": "土岐市",
    "town": "肥田浅野朝日町"
  },
  "5095118": {
    "zipcode": "5095118",
    "prefectureCode": "21",
    "prefectureNumber": 21,
    "prefecture": "岐阜県",
    "city": "土岐市",
    "town": "肥田浅野梅ノ木町"
  },
  "5095121": {
    "zipcode": "5095121",
    "prefectureCode": "21",
    "prefectureNumber": 21,
    "prefecture": "岐阜県",
    "city": "土岐市",
    "town": "土岐津町高山"
  },
  "5095122": {
    "zipcode": "5095122",
    "prefectureCode": "21",
    "prefectureNumber": 21,
    "prefecture": "岐阜県",
    "city": "土岐市",
    "town": "土岐津町土岐口"
  },
  "5095123": {
    "zipcode": "5095123",
    "prefectureCode": "21",
    "prefectureNumber": 21,
    "prefecture": "岐阜県",
    "city": "土岐市",
    "town": "土岐口南町"
  },
  "5095124": {
    "zipcode": "5095124",
    "prefectureCode": "21",
    "prefectureNumber": 21,
    "prefecture": "岐阜県",
    "city": "土岐市",
    "town": "土岐口中町"
  },
  "5095125": {
    "zipcode": "5095125",
    "prefectureCode": "21",
    "prefectureNumber": 21,
    "prefecture": "岐阜県",
    "city": "土岐市",
    "town": "御幸町"
  },
  "5095126": {
    "zipcode": "5095126",
    "prefectureCode": "21",
    "prefectureNumber": 21,
    "prefecture": "岐阜県",
    "city": "土岐市",
    "town": "土岐口北町"
  },
  "5095127": {
    "zipcode": "5095127",
    "prefectureCode": "21",
    "prefectureNumber": 21,
    "prefecture": "岐阜県",
    "city": "土岐市",
    "town": "土岐ヶ丘"
  },
  "5095131": {
    "zipcode": "5095131",
    "prefectureCode": "21",
    "prefectureNumber": 21,
    "prefecture": "岐阜県",
    "city": "土岐市",
    "town": "泉寺田町"
  },
  "5095132": {
    "zipcode": "5095132",
    "prefectureCode": "21",
    "prefectureNumber": 21,
    "prefecture": "岐阜県",
    "city": "土岐市",
    "town": "泉町大富"
  },
  "5095133": {
    "zipcode": "5095133",
    "prefectureCode": "21",
    "prefectureNumber": 21,
    "prefecture": "岐阜県",
    "city": "土岐市",
    "town": "泉神栄町"
  },
  "5095134": {
    "zipcode": "5095134",
    "prefectureCode": "21",
    "prefectureNumber": 21,
    "prefecture": "岐阜県",
    "city": "土岐市",
    "town": "泉島田町"
  },
  "5095135": {
    "zipcode": "5095135",
    "prefectureCode": "21",
    "prefectureNumber": 21,
    "prefecture": "岐阜県",
    "city": "土岐市",
    "town": "泉森下町"
  },
  "5095136": {
    "zipcode": "5095136",
    "prefectureCode": "21",
    "prefectureNumber": 21,
    "prefecture": "岐阜県",
    "city": "土岐市",
    "town": "泉大島町"
  },
  "5095141": {
    "zipcode": "5095141",
    "prefectureCode": "21",
    "prefectureNumber": 21,
    "prefecture": "岐阜県",
    "city": "土岐市",
    "town": "泉岩畑町"
  },
  "5095142": {
    "zipcode": "5095142",
    "prefectureCode": "21",
    "prefectureNumber": 21,
    "prefecture": "岐阜県",
    "city": "土岐市",
    "town": "泉町久尻"
  },
  "5095143": {
    "zipcode": "5095143",
    "prefectureCode": "21",
    "prefectureNumber": 21,
    "prefecture": "岐阜県",
    "city": "土岐市",
    "town": "泉日之出町"
  },
  "5095144": {
    "zipcode": "5095144",
    "prefectureCode": "21",
    "prefectureNumber": 21,
    "prefecture": "岐阜県",
    "city": "土岐市",
    "town": "泉池ノ上町"
  },
  "5095145": {
    "zipcode": "5095145",
    "prefectureCode": "21",
    "prefectureNumber": 21,
    "prefecture": "岐阜県",
    "city": "土岐市",
    "town": "泉大沼町"
  },
  "5095146": {
    "zipcode": "5095146",
    "prefectureCode": "21",
    "prefectureNumber": 21,
    "prefecture": "岐阜県",
    "city": "土岐市",
    "town": "泉明治町"
  },
  "5095147": {
    "zipcode": "5095147",
    "prefectureCode": "21",
    "prefectureNumber": 21,
    "prefecture": "岐阜県",
    "city": "土岐市",
    "town": "泉郷町"
  },
  "5095151": {
    "zipcode": "5095151",
    "prefectureCode": "21",
    "prefectureNumber": 21,
    "prefecture": "岐阜県",
    "city": "土岐市",
    "town": "泉大坪町"
  },
  "5095152": {
    "zipcode": "5095152",
    "prefectureCode": "21",
    "prefectureNumber": 21,
    "prefecture": "岐阜県",
    "city": "土岐市",
    "town": "泉寺下町"
  },
  "5095153": {
    "zipcode": "5095153",
    "prefectureCode": "21",
    "prefectureNumber": 21,
    "prefecture": "岐阜県",
    "city": "土岐市",
    "town": "泉西原町"
  },
  "5095154": {
    "zipcode": "5095154",
    "prefectureCode": "21",
    "prefectureNumber": 21,
    "prefecture": "岐阜県",
    "city": "土岐市",
    "town": "泉西山町"
  },
  "5095161": {
    "zipcode": "5095161",
    "prefectureCode": "21",
    "prefectureNumber": 21,
    "prefecture": "岐阜県",
    "city": "土岐市",
    "town": "泉が丘町"
  },
  "5095171": {
    "zipcode": "5095171",
    "prefectureCode": "21",
    "prefectureNumber": 21,
    "prefecture": "岐阜県",
    "city": "土岐市",
    "town": "泉北山町"
  },
  "5095201": {
    "zipcode": "5095201",
    "prefectureCode": "21",
    "prefectureNumber": 21,
    "prefecture": "岐阜県",
    "city": "土岐市",
    "town": "下石阿庄町"
  },
  "5095202": {
    "zipcode": "5095202",
    "prefectureCode": "21",
    "prefectureNumber": 21,
    "prefecture": "岐阜県",
    "city": "土岐市",
    "town": "下石町"
  },
  "5095203": {
    "zipcode": "5095203",
    "prefectureCode": "21",
    "prefectureNumber": 21,
    "prefecture": "岐阜県",
    "city": "土岐市",
    "town": "下石陶史台"
  },
  "5095301": {
    "zipcode": "5095301",
    "prefectureCode": "21",
    "prefectureNumber": 21,
    "prefecture": "岐阜県",
    "city": "土岐市",
    "town": "妻木町"
  },
  "5095302": {
    "zipcode": "5095302",
    "prefectureCode": "21",
    "prefectureNumber": 21,
    "prefecture": "岐阜県",
    "city": "土岐市",
    "town": "妻木平成町"
  },
  "5095311": {
    "zipcode": "5095311",
    "prefectureCode": "21",
    "prefectureNumber": 21,
    "prefecture": "岐阜県",
    "city": "土岐市",
    "town": "鶴里町細野"
  },
  "5095312": {
    "zipcode": "5095312",
    "prefectureCode": "21",
    "prefectureNumber": 21,
    "prefecture": "岐阜県",
    "city": "土岐市",
    "town": "鶴里町柿野"
  },
  "5095401": {
    "zipcode": "5095401",
    "prefectureCode": "21",
    "prefectureNumber": 21,
    "prefecture": "岐阜県",
    "city": "土岐市",
    "town": "駄知町"
  },
  "5095402": {
    "zipcode": "5095402",
    "prefectureCode": "21",
    "prefectureNumber": 21,
    "prefecture": "岐阜県",
    "city": "土岐市",
    "town": "曽木町"
  },
  "5095403": {
    "zipcode": "5095403",
    "prefectureCode": "21",
    "prefectureNumber": 21,
    "prefecture": "岐阜県",
    "city": "土岐市",
    "town": "肥田町肥田（２８６〜２８７番地）"
  },
  "5096100": {
    "zipcode": "5096100",
    "prefectureCode": "21",
    "prefectureNumber": 21,
    "prefecture": "岐阜県",
    "city": "瑞浪市",
    "town": "以下に掲載がない場合"
  },
  "5096101": {
    "zipcode": "5096101",
    "prefectureCode": "21",
    "prefectureNumber": 21,
    "prefecture": "岐阜県",
    "city": "瑞浪市",
    "town": "土岐町"
  },
  "5096102": {
    "zipcode": "5096102",
    "prefectureCode": "21",
    "prefectureNumber": 21,
    "prefecture": "岐阜県",
    "city": "瑞浪市",
    "town": "稲津町萩原"
  },
  "5096103": {
    "zipcode": "5096103",
    "prefectureCode": "21",
    "prefectureNumber": 21,
    "prefecture": "岐阜県",
    "city": "瑞浪市",
    "town": "稲津町小里"
  },
  "5096104": {
    "zipcode": "5096104",
    "prefectureCode": "21",
    "prefectureNumber": 21,
    "prefecture": "岐阜県",
    "city": "瑞浪市",
    "town": "山田町"
  },
  "5096105": {
    "zipcode": "5096105",
    "prefectureCode": "21",
    "prefectureNumber": 21,
    "prefecture": "岐阜県",
    "city": "瑞浪市",
    "town": "明賀台"
  },
  "5096106": {
    "zipcode": "5096106",
    "prefectureCode": "21",
    "prefectureNumber": 21,
    "prefecture": "岐阜県",
    "city": "瑞浪市",
    "town": "学園台"
  },
  "5096107": {
    "zipcode": "5096107",
    "prefectureCode": "21",
    "prefectureNumber": 21,
    "prefecture": "岐阜県",
    "city": "瑞浪市",
    "town": "穂並"
  },
  "5096108": {
    "zipcode": "5096108",
    "prefectureCode": "21",
    "prefectureNumber": 21,
    "prefecture": "岐阜県",
    "city": "瑞浪市",
    "town": "益見町"
  },
  "5096111": {
    "zipcode": "5096111",
    "prefectureCode": "21",
    "prefectureNumber": 21,
    "prefecture": "岐阜県",
    "city": "瑞浪市",
    "town": "下沖町"
  },
  "5096112": {
    "zipcode": "5096112",
    "prefectureCode": "21",
    "prefectureNumber": 21,
    "prefecture": "岐阜県",
    "city": "瑞浪市",
    "town": "小田町"
  },
  "5096113": {
    "zipcode": "5096113",
    "prefectureCode": "21",
    "prefectureNumber": 21,
    "prefecture": "岐阜県",
    "city": "瑞浪市",
    "town": "和合町"
  },
  "5096114": {
    "zipcode": "5096114",
    "prefectureCode": "21",
    "prefectureNumber": 21,
    "prefecture": "岐阜県",
    "city": "瑞浪市",
    "town": "西小田町"
  },
  "5096115": {
    "zipcode": "5096115",
    "prefectureCode": "21",
    "prefectureNumber": 21,
    "prefecture": "岐阜県",
    "city": "瑞浪市",
    "town": "北小田町"
  },
  "5096116": {
    "zipcode": "5096116",
    "prefectureCode": "21",
    "prefectureNumber": 21,
    "prefecture": "岐阜県",
    "city": "瑞浪市",
    "town": "南小田町"
  },
  "5096121": {
    "zipcode": "5096121",
    "prefectureCode": "21",
    "prefectureNumber": 21,
    "prefecture": "岐阜県",
    "city": "瑞浪市",
    "town": "寺河戸町"
  },
  "5096122": {
    "zipcode": "5096122",
    "prefectureCode": "21",
    "prefectureNumber": 21,
    "prefecture": "岐阜県",
    "city": "瑞浪市",
    "town": "上平町"
  },
  "5096123": {
    "zipcode": "5096123",
    "prefectureCode": "21",
    "prefectureNumber": 21,
    "prefecture": "岐阜県",
    "city": "瑞浪市",
    "town": "樽上町"
  },
  "5096124": {
    "zipcode": "5096124",
    "prefectureCode": "21",
    "prefectureNumber": 21,
    "prefecture": "岐阜県",
    "city": "瑞浪市",
    "town": "一色町"
  },
  "5096125": {
    "zipcode": "5096125",
    "prefectureCode": "21",
    "prefectureNumber": 21,
    "prefecture": "岐阜県",
    "city": "瑞浪市",
    "town": "上野町"
  },
  "5096126": {
    "zipcode": "5096126",
    "prefectureCode": "21",
    "prefectureNumber": 21,
    "prefecture": "岐阜県",
    "city": "瑞浪市",
    "town": "高月町"
  },
  "5096127": {
    "zipcode": "5096127",
    "prefectureCode": "21",
    "prefectureNumber": 21,
    "prefecture": "岐阜県",
    "city": "瑞浪市",
    "town": "須野志町"
  },
  "5096128": {
    "zipcode": "5096128",
    "prefectureCode": "21",
    "prefectureNumber": 21,
    "prefecture": "岐阜県",
    "city": "瑞浪市",
    "town": "宮前町"
  },
  "5096131": {
    "zipcode": "5096131",
    "prefectureCode": "21",
    "prefectureNumber": 21,
    "prefecture": "岐阜県",
    "city": "瑞浪市",
    "town": "明世町月吉"
  },
  "5096132": {
    "zipcode": "5096132",
    "prefectureCode": "21",
    "prefectureNumber": 21,
    "prefecture": "岐阜県",
    "city": "瑞浪市",
    "town": "明世町山野内"
  },
  "5096133": {
    "zipcode": "5096133",
    "prefectureCode": "21",
    "prefectureNumber": 21,
    "prefecture": "岐阜県",
    "city": "瑞浪市",
    "town": "明世町戸狩"
  },
  "5096134": {
    "zipcode": "5096134",
    "prefectureCode": "21",
    "prefectureNumber": 21,
    "prefecture": "岐阜県",
    "city": "瑞浪市",
    "town": "松ケ瀬町"
  },
  "5096135": {
    "zipcode": "5096135",
    "prefectureCode": "21",
    "prefectureNumber": 21,
    "prefecture": "岐阜県",
    "city": "瑞浪市",
    "town": "薬師町"
  },
  "5096251": {
    "zipcode": "5096251",
    "prefectureCode": "21",
    "prefectureNumber": 21,
    "prefecture": "岐阜県",
    "city": "瑞浪市",
    "town": "日吉町"
  },
  "5096361": {
    "zipcode": "5096361",
    "prefectureCode": "21",
    "prefectureNumber": 21,
    "prefecture": "岐阜県",
    "city": "瑞浪市",
    "town": "陶町猿爪"
  },
  "5096362": {
    "zipcode": "5096362",
    "prefectureCode": "21",
    "prefectureNumber": 21,
    "prefecture": "岐阜県",
    "city": "瑞浪市",
    "town": "陶町水上"
  },
  "5096363": {
    "zipcode": "5096363",
    "prefectureCode": "21",
    "prefectureNumber": 21,
    "prefecture": "岐阜県",
    "city": "瑞浪市",
    "town": "陶町大川"
  },
  "5096471": {
    "zipcode": "5096471",
    "prefectureCode": "21",
    "prefectureNumber": 21,
    "prefecture": "岐阜県",
    "city": "瑞浪市",
    "town": "大湫町"
  },
  "5096472": {
    "zipcode": "5096472",
    "prefectureCode": "21",
    "prefectureNumber": 21,
    "prefecture": "岐阜県",
    "city": "瑞浪市",
    "town": "釜戸町"
  },
  "5097121": {
    "zipcode": "5097121",
    "prefectureCode": "21",
    "prefectureNumber": 21,
    "prefecture": "岐阜県",
    "city": "恵那市",
    "town": "武並町藤"
  },
  "5097122": {
    "zipcode": "5097122",
    "prefectureCode": "21",
    "prefectureNumber": 21,
    "prefecture": "岐阜県",
    "city": "恵那市",
    "town": "武並町竹折"
  },
  "5097123": {
    "zipcode": "5097123",
    "prefectureCode": "21",
    "prefectureNumber": 21,
    "prefecture": "岐阜県",
    "city": "恵那市",
    "town": "三郷町野井"
  },
  "5097124": {
    "zipcode": "5097124",
    "prefectureCode": "21",
    "prefectureNumber": 21,
    "prefecture": "岐阜県",
    "city": "恵那市",
    "town": "三郷町佐々良木"
  },
  "5097125": {
    "zipcode": "5097125",
    "prefectureCode": "21",
    "prefectureNumber": 21,
    "prefecture": "岐阜県",
    "city": "恵那市",
    "town": "三郷町椋実"
  },
  "5097126": {
    "zipcode": "5097126",
    "prefectureCode": "21",
    "prefectureNumber": 21,
    "prefecture": "岐阜県",
    "city": "恵那市",
    "town": "武並町新竹折"
  },
  "5097200": {
    "zipcode": "5097200",
    "prefectureCode": "21",
    "prefectureNumber": 21,
    "prefecture": "岐阜県",
    "city": "恵那市",
    "town": "以下に掲載がない場合"
  },
  "5097201": {
    "zipcode": "5097201",
    "prefectureCode": "21",
    "prefectureNumber": 21,
    "prefecture": "岐阜県",
    "city": "恵那市",
    "town": "大井町"
  },
  "5097202": {
    "zipcode": "5097202",
    "prefectureCode": "21",
    "prefectureNumber": 21,
    "prefecture": "岐阜県",
    "city": "恵那市",
    "town": "東野"
  },
  "5097203": {
    "zipcode": "5097203",
    "prefectureCode": "21",
    "prefectureNumber": 21,
    "prefecture": "岐阜県",
    "city": "恵那市",
    "town": "長島町正家"
  },
  "5097204": {
    "zipcode": "5097204",
    "prefectureCode": "21",
    "prefectureNumber": 21,
    "prefecture": "岐阜県",
    "city": "恵那市",
    "town": "長島町永田"
  },
  "5097205": {
    "zipcode": "5097205",
    "prefectureCode": "21",
    "prefectureNumber": 21,
    "prefecture": "岐阜県",
    "city": "恵那市",
    "town": "長島町中野"
  },
  "5097206": {
    "zipcode": "5097206",
    "prefectureCode": "21",
    "prefectureNumber": 21,
    "prefecture": "岐阜県",
    "city": "恵那市",
    "town": "長島町久須見"
  },
  "5097207": {
    "zipcode": "5097207",
    "prefectureCode": "21",
    "prefectureNumber": 21,
    "prefecture": "岐阜県",
    "city": "恵那市",
    "town": "笠置町河合"
  },
  "5097208": {
    "zipcode": "5097208",
    "prefectureCode": "21",
    "prefectureNumber": 21,
    "prefecture": "岐阜県",
    "city": "恵那市",
    "town": "笠置町姫栗"
  },
  "5097209": {
    "zipcode": "5097209",
    "prefectureCode": "21",
    "prefectureNumber": 21,
    "prefecture": "岐阜県",
    "city": "恵那市",
    "town": "笠置町毛呂窪"
  },
  "5097211": {
    "zipcode": "5097211",
    "prefectureCode": "21",
    "prefectureNumber": 21,
    "prefecture": "岐阜県",
    "city": "恵那市",
    "town": "長島町鍋山"
  },
  "5097321": {
    "zipcode": "5097321",
    "prefectureCode": "21",
    "prefectureNumber": 21,
    "prefecture": "岐阜県",
    "city": "中津川市",
    "town": "阿木（その他）"
  },
  "5097322": {
    "zipcode": "5097322",
    "prefectureCode": "21",
    "prefectureNumber": 21,
    "prefecture": "岐阜県",
    "city": "中津川市",
    "town": "飯沼"
  },
  "5097401": {
    "zipcode": "5097401",
    "prefectureCode": "21",
    "prefectureNumber": 21,
    "prefecture": "岐阜県",
    "city": "恵那市",
    "town": "岩村町飯羽間"
  },
  "5097402": {
    "zipcode": "5097402",
    "prefectureCode": "21",
    "prefectureNumber": 21,
    "prefecture": "岐阜県",
    "city": "恵那市",
    "town": "岩村町富田"
  },
  "5097403": {
    "zipcode": "5097403",
    "prefectureCode": "21",
    "prefectureNumber": 21,
    "prefecture": "岐阜県",
    "city": "恵那市",
    "town": "岩村町"
  },
  "5097501": {
    "zipcode": "5097501",
    "prefectureCode": "21",
    "prefectureNumber": 21,
    "prefecture": "岐阜県",
    "city": "恵那市",
    "town": "上矢作町（木ノ実）"
  },
  "5097502": {
    "zipcode": "5097502",
    "prefectureCode": "21",
    "prefectureNumber": 21,
    "prefecture": "岐阜県",
    "city": "恵那市",
    "town": "上矢作町（飯田洞）"
  },
  "5097503": {
    "zipcode": "5097503",
    "prefectureCode": "21",
    "prefectureNumber": 21,
    "prefecture": "岐阜県",
    "city": "恵那市",
    "town": "上矢作町（達原）"
  },
  "5097504": {
    "zipcode": "5097504",
    "prefectureCode": "21",
    "prefectureNumber": 21,
    "prefecture": "岐阜県",
    "city": "恵那市",
    "town": "上矢作町（小笹原）"
  },
  "5097505": {
    "zipcode": "5097505",
    "prefectureCode": "21",
    "prefectureNumber": 21,
    "prefecture": "岐阜県",
    "city": "恵那市",
    "town": "上矢作町（島）"
  },
  "5097506": {
    "zipcode": "5097506",
    "prefectureCode": "21",
    "prefectureNumber": 21,
    "prefecture": "岐阜県",
    "city": "恵那市",
    "town": "上矢作町（本郷）"
  },
  "5097507": {
    "zipcode": "5097507",
    "prefectureCode": "21",
    "prefectureNumber": 21,
    "prefecture": "岐阜県",
    "city": "恵那市",
    "town": "上矢作町（横道）"
  },
  "5097511": {
    "zipcode": "5097511",
    "prefectureCode": "21",
    "prefectureNumber": 21,
    "prefecture": "岐阜県",
    "city": "恵那市",
    "town": "上矢作町漆原"
  },
  "5097512": {
    "zipcode": "5097512",
    "prefectureCode": "21",
    "prefectureNumber": 21,
    "prefecture": "岐阜県",
    "city": "恵那市",
    "town": "上矢作町下"
  },
  "5097513": {
    "zipcode": "5097513",
    "prefectureCode": "21",
    "prefectureNumber": 21,
    "prefecture": "岐阜県",
    "city": "恵那市",
    "town": "上矢作町小田子"
  },
  "5097521": {
    "zipcode": "5097521",
    "prefectureCode": "21",
    "prefectureNumber": 21,
    "prefecture": "岐阜県",
    "city": "恵那市",
    "town": "上矢作町"
  },
  "5097601": {
    "zipcode": "5097601",
    "prefectureCode": "21",
    "prefectureNumber": 21,
    "prefecture": "岐阜県",
    "city": "恵那市",
    "town": "山岡町久保原"
  },
  "5097602": {
    "zipcode": "5097602",
    "prefectureCode": "21",
    "prefectureNumber": 21,
    "prefecture": "岐阜県",
    "city": "恵那市",
    "town": "山岡町馬場山田"
  },
  "5097603": {
    "zipcode": "5097603",
    "prefectureCode": "21",
    "prefectureNumber": 21,
    "prefecture": "岐阜県",
    "city": "恵那市",
    "town": "山岡町上手向"
  },
  "5097604": {
    "zipcode": "5097604",
    "prefectureCode": "21",
    "prefectureNumber": 21,
    "prefecture": "岐阜県",
    "city": "恵那市",
    "town": "山岡町釜屋"
  },
  "5097605": {
    "zipcode": "5097605",
    "prefectureCode": "21",
    "prefectureNumber": 21,
    "prefecture": "岐阜県",
    "city": "恵那市",
    "town": "山岡町原"
  },
  "5097606": {
    "zipcode": "5097606",
    "prefectureCode": "21",
    "prefectureNumber": 21,
    "prefecture": "岐阜県",
    "city": "恵那市",
    "town": "山岡町田代"
  },
  "5097607": {
    "zipcode": "5097607",
    "prefectureCode": "21",
    "prefectureNumber": 21,
    "prefecture": "岐阜県",
    "city": "恵那市",
    "town": "山岡町下手向"
  },
  "5097608": {
    "zipcode": "5097608",
    "prefectureCode": "21",
    "prefectureNumber": 21,
    "prefecture": "岐阜県",
    "city": "恵那市",
    "town": "山岡町田沢"
  },
  "5097701": {
    "zipcode": "5097701",
    "prefectureCode": "21",
    "prefectureNumber": 21,
    "prefecture": "岐阜県",
    "city": "恵那市",
    "town": "明智町野志"
  },
  "5097702": {
    "zipcode": "5097702",
    "prefectureCode": "21",
    "prefectureNumber": 21,
    "prefecture": "岐阜県",
    "city": "恵那市",
    "town": "明智町杉野"
  },
  "5097703": {
    "zipcode": "5097703",
    "prefectureCode": "21",
    "prefectureNumber": 21,
    "prefecture": "岐阜県",
    "city": "恵那市",
    "town": "明智町（市場町）"
  },
  "5097704": {
    "zipcode": "5097704",
    "prefectureCode": "21",
    "prefectureNumber": 21,
    "prefecture": "岐阜県",
    "city": "恵那市",
    "town": "明智町（駅前町）"
  },
  "5097705": {
    "zipcode": "5097705",
    "prefectureCode": "21",
    "prefectureNumber": 21,
    "prefecture": "岐阜県",
    "city": "恵那市",
    "town": "明智町（新町）"
  },
  "5097706": {
    "zipcode": "5097706",
    "prefectureCode": "21",
    "prefectureNumber": 21,
    "prefecture": "岐阜県",
    "city": "恵那市",
    "town": "明智町（向町）"
  },
  "5097707": {
    "zipcode": "5097707",
    "prefectureCode": "21",
    "prefectureNumber": 21,
    "prefecture": "岐阜県",
    "city": "恵那市",
    "town": "明智町（滝坂住宅）"
  },
  "5097708": {
    "zipcode": "5097708",
    "prefectureCode": "21",
    "prefectureNumber": 21,
    "prefecture": "岐阜県",
    "city": "恵那市",
    "town": "明智町（新井町）"
  },
  "5097711": {
    "zipcode": "5097711",
    "prefectureCode": "21",
    "prefectureNumber": 21,
    "prefecture": "岐阜県",
    "city": "恵那市",
    "town": "明智町東方"
  },
  "5097712": {
    "zipcode": "5097712",
    "prefectureCode": "21",
    "prefectureNumber": 21,
    "prefecture": "岐阜県",
    "city": "恵那市",
    "town": "明智町（的場町）"
  },
  "5097713": {
    "zipcode": "5097713",
    "prefectureCode": "21",
    "prefectureNumber": 21,
    "prefecture": "岐阜県",
    "city": "恵那市",
    "town": "明智町（片平町）"
  },
  "5097714": {
    "zipcode": "5097714",
    "prefectureCode": "21",
    "prefectureNumber": 21,
    "prefecture": "岐阜県",
    "city": "恵那市",
    "town": "明智町（常盤町）"
  },
  "5097715": {
    "zipcode": "5097715",
    "prefectureCode": "21",
    "prefectureNumber": 21,
    "prefecture": "岐阜県",
    "city": "恵那市",
    "town": "明智町（東町）"
  },
  "5097716": {
    "zipcode": "5097716",
    "prefectureCode": "21",
    "prefectureNumber": 21,
    "prefecture": "岐阜県",
    "city": "恵那市",
    "town": "明智町（本町）"
  },
  "5097717": {
    "zipcode": "5097717",
    "prefectureCode": "21",
    "prefectureNumber": 21,
    "prefecture": "岐阜県",
    "city": "恵那市",
    "town": "明智町（宮町）"
  },
  "5097718": {
    "zipcode": "5097718",
    "prefectureCode": "21",
    "prefectureNumber": 21,
    "prefecture": "岐阜県",
    "city": "恵那市",
    "town": "明智町（東山町）"
  },
  "5097721": {
    "zipcode": "5097721",
    "prefectureCode": "21",
    "prefectureNumber": 21,
    "prefecture": "岐阜県",
    "city": "恵那市",
    "town": "明智町大泉"
  },
  "5097722": {
    "zipcode": "5097722",
    "prefectureCode": "21",
    "prefectureNumber": 21,
    "prefecture": "岐阜県",
    "city": "恵那市",
    "town": "明智町（徳間町）"
  },
  "5097723": {
    "zipcode": "5097723",
    "prefectureCode": "21",
    "prefectureNumber": 21,
    "prefecture": "岐阜県",
    "city": "恵那市",
    "town": "明智町大田"
  },
  "5097724": {
    "zipcode": "5097724",
    "prefectureCode": "21",
    "prefectureNumber": 21,
    "prefecture": "岐阜県",
    "city": "恵那市",
    "town": "明智町横通"
  },
  "5097725": {
    "zipcode": "5097725",
    "prefectureCode": "21",
    "prefectureNumber": 21,
    "prefecture": "岐阜県",
    "city": "恵那市",
    "town": "明智町阿妻"
  },
  "5097726": {
    "zipcode": "5097726",
    "prefectureCode": "21",
    "prefectureNumber": 21,
    "prefecture": "岐阜県",
    "city": "恵那市",
    "town": "明智町吉良見"
  },
  "5097731": {
    "zipcode": "5097731",
    "prefectureCode": "21",
    "prefectureNumber": 21,
    "prefecture": "岐阜県",
    "city": "恵那市",
    "town": "明智町"
  },
  "5097801": {
    "zipcode": "5097801",
    "prefectureCode": "21",
    "prefectureNumber": 21,
    "prefecture": "岐阜県",
    "city": "恵那市",
    "town": "串原（中沢）"
  },
  "5097802": {
    "zipcode": "5097802",
    "prefectureCode": "21",
    "prefectureNumber": 21,
    "prefecture": "岐阜県",
    "city": "恵那市",
    "town": "串原（平山）"
  },
  "5097803": {
    "zipcode": "5097803",
    "prefectureCode": "21",
    "prefectureNumber": 21,
    "prefecture": "岐阜県",
    "city": "恵那市",
    "town": "串原（松本）"
  },
  "5097804": {
    "zipcode": "5097804",
    "prefectureCode": "21",
    "prefectureNumber": 21,
    "prefecture": "岐阜県",
    "city": "恵那市",
    "town": "串原（戸中）"
  },
  "5097805": {
    "zipcode": "5097805",
    "prefectureCode": "21",
    "prefectureNumber": 21,
    "prefecture": "岐阜県",
    "city": "恵那市",
    "town": "串原（峯）"
  },
  "5097806": {
    "zipcode": "5097806",
    "prefectureCode": "21",
    "prefectureNumber": 21,
    "prefecture": "岐阜県",
    "city": "恵那市",
    "town": "串原（松林）"
  },
  "5097811": {
    "zipcode": "5097811",
    "prefectureCode": "21",
    "prefectureNumber": 21,
    "prefecture": "岐阜県",
    "city": "恵那市",
    "town": "串原（福原）"
  },
  "5097812": {
    "zipcode": "5097812",
    "prefectureCode": "21",
    "prefectureNumber": 21,
    "prefecture": "岐阜県",
    "city": "恵那市",
    "town": "串原（森上）"
  },
  "5097813": {
    "zipcode": "5097813",
    "prefectureCode": "21",
    "prefectureNumber": 21,
    "prefecture": "岐阜県",
    "city": "恵那市",
    "town": "串原（大竹）"
  },
  "5097814": {
    "zipcode": "5097814",
    "prefectureCode": "21",
    "prefectureNumber": 21,
    "prefecture": "岐阜県",
    "city": "恵那市",
    "town": "串原（相走）"
  },
  "5097815": {
    "zipcode": "5097815",
    "prefectureCode": "21",
    "prefectureNumber": 21,
    "prefecture": "岐阜県",
    "city": "恵那市",
    "town": "串原（大野）"
  },
  "5097816": {
    "zipcode": "5097816",
    "prefectureCode": "21",
    "prefectureNumber": 21,
    "prefecture": "岐阜県",
    "city": "恵那市",
    "town": "串原（岩倉）"
  },
  "5097821": {
    "zipcode": "5097821",
    "prefectureCode": "21",
    "prefectureNumber": 21,
    "prefecture": "岐阜県",
    "city": "恵那市",
    "town": "串原（大平）"
  },
  "5097822": {
    "zipcode": "5097822",
    "prefectureCode": "21",
    "prefectureNumber": 21,
    "prefecture": "岐阜県",
    "city": "恵那市",
    "town": "串原（柿畑）"
  },
  "5097823": {
    "zipcode": "5097823",
    "prefectureCode": "21",
    "prefectureNumber": 21,
    "prefecture": "岐阜県",
    "city": "恵那市",
    "town": "串原（閑羅瀬）"
  },
  "5097824": {
    "zipcode": "5097824",
    "prefectureCode": "21",
    "prefectureNumber": 21,
    "prefecture": "岐阜県",
    "city": "恵那市",
    "town": "串原（大簗）"
  },
  "5097825": {
    "zipcode": "5097825",
    "prefectureCode": "21",
    "prefectureNumber": 21,
    "prefecture": "岐阜県",
    "city": "恵那市",
    "town": "串原（川ケ渡）"
  },
  "5097826": {
    "zipcode": "5097826",
    "prefectureCode": "21",
    "prefectureNumber": 21,
    "prefecture": "岐阜県",
    "city": "恵那市",
    "town": "串原（木根）"
  },
  "5097831": {
    "zipcode": "5097831",
    "prefectureCode": "21",
    "prefectureNumber": 21,
    "prefecture": "岐阜県",
    "city": "恵那市",
    "town": "串原"
  },
  "5098231": {
    "zipcode": "5098231",
    "prefectureCode": "21",
    "prefectureNumber": 21,
    "prefecture": "岐阜県",
    "city": "恵那市",
    "town": "中野方町"
  },
  "5098232": {
    "zipcode": "5098232",
    "prefectureCode": "21",
    "prefectureNumber": 21,
    "prefecture": "岐阜県",
    "city": "恵那市",
    "town": "飯地町"
  },
  "5098301": {
    "zipcode": "5098301",
    "prefectureCode": "21",
    "prefectureNumber": 21,
    "prefecture": "岐阜県",
    "city": "中津川市",
    "town": "蛭川"
  },
  "5099131": {
    "zipcode": "5099131",
    "prefectureCode": "21",
    "prefectureNumber": 21,
    "prefecture": "岐阜県",
    "city": "中津川市",
    "town": "千旦林"
  },
  "5099132": {
    "zipcode": "5099132",
    "prefectureCode": "21",
    "prefectureNumber": 21,
    "prefecture": "岐阜県",
    "city": "中津川市",
    "town": "茄子川"
  },
  "5099201": {
    "zipcode": "5099201",
    "prefectureCode": "21",
    "prefectureNumber": 21,
    "prefecture": "岐阜県",
    "city": "中津川市",
    "town": "川上"
  },
  "5099231": {
    "zipcode": "5099231",
    "prefectureCode": "21",
    "prefectureNumber": 21,
    "prefecture": "岐阜県",
    "city": "中津川市",
    "town": "上野"
  },
  "5099232": {
    "zipcode": "5099232",
    "prefectureCode": "21",
    "prefectureNumber": 21,
    "prefecture": "岐阜県",
    "city": "中津川市",
    "town": "坂下"
  }
}
