{
  "5100000": {
    "zipcode": "5100000",
    "prefectureCode": "24",
    "prefectureNumber": 24,
    "prefecture": "三重県",
    "city": "三重郡川越町",
    "town": "以下に掲載がない場合"
  },
  "5100001": {
    "zipcode": "5100001",
    "prefectureCode": "24",
    "prefectureNumber": 24,
    "prefecture": "三重県",
    "city": "四日市市",
    "town": "八田"
  },
  "5100002": {
    "zipcode": "5100002",
    "prefectureCode": "24",
    "prefectureNumber": 24,
    "prefecture": "三重県",
    "city": "四日市市",
    "town": "羽津中"
  },
  "5100003": {
    "zipcode": "5100003",
    "prefectureCode": "24",
    "prefectureNumber": 24,
    "prefecture": "三重県",
    "city": "四日市市",
    "town": "大宮町"
  },
  "5100004": {
    "zipcode": "5100004",
    "prefectureCode": "24",
    "prefectureNumber": 24,
    "prefecture": "三重県",
    "city": "四日市市",
    "town": "大宮西町"
  },
  "5100005": {
    "zipcode": "5100005",
    "prefectureCode": "24",
    "prefectureNumber": 24,
    "prefecture": "三重県",
    "city": "四日市市",
    "town": "山手町"
  },
  "5100006": {
    "zipcode": "5100006",
    "prefectureCode": "24",
    "prefectureNumber": 24,
    "prefecture": "三重県",
    "city": "四日市市",
    "town": "緑丘町"
  },
  "5100007": {
    "zipcode": "5100007",
    "prefectureCode": "24",
    "prefectureNumber": 24,
    "prefecture": "三重県",
    "city": "四日市市",
    "town": "別名"
  },
  "5100008": {
    "zipcode": "5100008",
    "prefectureCode": "24",
    "prefectureNumber": 24,
    "prefecture": "三重県",
    "city": "四日市市",
    "town": "南いかるが町"
  },
  "5100011": {
    "zipcode": "5100011",
    "prefectureCode": "24",
    "prefectureNumber": 24,
    "prefecture": "三重県",
    "city": "四日市市",
    "town": "霞"
  },
  "5100012": {
    "zipcode": "5100012",
    "prefectureCode": "24",
    "prefectureNumber": 24,
    "prefecture": "三重県",
    "city": "四日市市",
    "town": "羽津"
  },
  "5100013": {
    "zipcode": "5100013",
    "prefectureCode": "24",
    "prefectureNumber": 24,
    "prefecture": "三重県",
    "city": "四日市市",
    "town": "富士町"
  },
  "5100014": {
    "zipcode": "5100014",
    "prefectureCode": "24",
    "prefectureNumber": 24,
    "prefecture": "三重県",
    "city": "四日市市",
    "town": "金場町"
  },
  "5100015": {
    "zipcode": "5100015",
    "prefectureCode": "24",
    "prefectureNumber": 24,
    "prefecture": "三重県",
    "city": "四日市市",
    "town": "城山町"
  },
  "5100016": {
    "zipcode": "5100016",
    "prefectureCode": "24",
    "prefectureNumber": 24,
    "prefecture": "三重県",
    "city": "四日市市",
    "town": "羽津山町"
  },
  "5100017": {
    "zipcode": "5100017",
    "prefectureCode": "24",
    "prefectureNumber": 24,
    "prefecture": "三重県",
    "city": "四日市市",
    "town": "羽津町"
  },
  "5100018": {
    "zipcode": "5100018",
    "prefectureCode": "24",
    "prefectureNumber": 24,
    "prefecture": "三重県",
    "city": "四日市市",
    "town": "白須賀"
  },
  "5100021": {
    "zipcode": "5100021",
    "prefectureCode": "24",
    "prefectureNumber": 24,
    "prefecture": "三重県",
    "city": "四日市市",
    "town": "三郎町"
  },
  "5100022": {
    "zipcode": "5100022",
    "prefectureCode": "24",
    "prefectureNumber": 24,
    "prefecture": "三重県",
    "city": "四日市市",
    "town": "大協町"
  },
  "5100023": {
    "zipcode": "5100023",
    "prefectureCode": "24",
    "prefectureNumber": 24,
    "prefecture": "三重県",
    "city": "四日市市",
    "town": "午起"
  },
  "5100024": {
    "zipcode": "5100024",
    "prefectureCode": "24",
    "prefectureNumber": 24,
    "prefecture": "三重県",
    "city": "四日市市",
    "town": "新浜町"
  },
  "5100025": {
    "zipcode": "5100025",
    "prefectureCode": "24",
    "prefectureNumber": 24,
    "prefecture": "三重県",
    "city": "四日市市",
    "town": "東新町"
  },
  "5100026": {
    "zipcode": "5100026",
    "prefectureCode": "24",
    "prefectureNumber": 24,
    "prefecture": "三重県",
    "city": "四日市市",
    "town": "高浜町"
  },
  "5100027": {
    "zipcode": "5100027",
    "prefectureCode": "24",
    "prefectureNumber": 24,
    "prefecture": "三重県",
    "city": "四日市市",
    "town": "高浜新町"
  },
  "5100031": {
    "zipcode": "5100031",
    "prefectureCode": "24",
    "prefectureNumber": 24,
    "prefecture": "三重県",
    "city": "四日市市",
    "town": "浜一色町"
  },
  "5100032": {
    "zipcode": "5100032",
    "prefectureCode": "24",
    "prefectureNumber": 24,
    "prefecture": "三重県",
    "city": "四日市市",
    "town": "京町"
  },
  "5100033": {
    "zipcode": "5100033",
    "prefectureCode": "24",
    "prefectureNumber": 24,
    "prefecture": "三重県",
    "city": "四日市市",
    "town": "川原町"
  },
  "5100034": {
    "zipcode": "5100034",
    "prefectureCode": "24",
    "prefectureNumber": 24,
    "prefecture": "三重県",
    "city": "四日市市",
    "town": "滝川町"
  },
  "5100035": {
    "zipcode": "5100035",
    "prefectureCode": "24",
    "prefectureNumber": 24,
    "prefecture": "三重県",
    "city": "四日市市",
    "town": "陶栄町"
  },
  "5100041": {
    "zipcode": "5100041",
    "prefectureCode": "24",
    "prefectureNumber": 24,
    "prefecture": "三重県",
    "city": "四日市市",
    "town": "稲葉町"
  },
  "5100042": {
    "zipcode": "5100042",
    "prefectureCode": "24",
    "prefectureNumber": 24,
    "prefecture": "三重県",
    "city": "四日市市",
    "town": "高砂町"
  },
  "5100043": {
    "zipcode": "5100043",
    "prefectureCode": "24",
    "prefectureNumber": 24,
    "prefecture": "三重県",
    "city": "四日市市",
    "town": "南納屋町"
  },
  "5100044": {
    "zipcode": "5100044",
    "prefectureCode": "24",
    "prefectureNumber": 24,
    "prefecture": "三重県",
    "city": "四日市市",
    "town": "相生町"
  },
  "5100045": {
    "zipcode": "5100045",
    "prefectureCode": "24",
    "prefectureNumber": 24,
    "prefecture": "三重県",
    "city": "四日市市",
    "town": "蔵町"
  },
  "5100046": {
    "zipcode": "5100046",
    "prefectureCode": "24",
    "prefectureNumber": 24,
    "prefecture": "三重県",
    "city": "四日市市",
    "town": "浜町"
  },
  "5100047": {
    "zipcode": "5100047",
    "prefectureCode": "24",
    "prefectureNumber": 24,
    "prefecture": "三重県",
    "city": "四日市市",
    "town": "北納屋町"
  },
  "5100048": {
    "zipcode": "5100048",
    "prefectureCode": "24",
    "prefectureNumber": 24,
    "prefecture": "三重県",
    "city": "四日市市",
    "town": "中納屋町"
  },
  "5100051": {
    "zipcode": "5100051",
    "prefectureCode": "24",
    "prefectureNumber": 24,
    "prefecture": "三重県",
    "city": "四日市市",
    "town": "千歳町"
  },
  "5100052": {
    "zipcode": "5100052",
    "prefectureCode": "24",
    "prefectureNumber": 24,
    "prefecture": "三重県",
    "city": "四日市市",
    "town": "末広町"
  },
  "5100053": {
    "zipcode": "5100053",
    "prefectureCode": "24",
    "prefectureNumber": 24,
    "prefecture": "三重県",
    "city": "四日市市",
    "town": "曙"
  },
  "5100054": {
    "zipcode": "5100054",
    "prefectureCode": "24",
    "prefectureNumber": 24,
    "prefecture": "三重県",
    "city": "四日市市",
    "town": "曙町"
  },
  "5100055": {
    "zipcode": "5100055",
    "prefectureCode": "24",
    "prefectureNumber": 24,
    "prefecture": "三重県",
    "city": "四日市市",
    "town": "寿町"
  },
  "5100056": {
    "zipcode": "5100056",
    "prefectureCode": "24",
    "prefectureNumber": 24,
    "prefecture": "三重県",
    "city": "四日市市",
    "town": "南起町"
  },
  "5100057": {
    "zipcode": "5100057",
    "prefectureCode": "24",
    "prefectureNumber": 24,
    "prefecture": "三重県",
    "city": "四日市市",
    "town": "昌栄町"
  },
  "5100058": {
    "zipcode": "5100058",
    "prefectureCode": "24",
    "prefectureNumber": 24,
    "prefecture": "三重県",
    "city": "四日市市",
    "town": "西末広町"
  },
  "5100059": {
    "zipcode": "5100059",
    "prefectureCode": "24",
    "prefectureNumber": 24,
    "prefecture": "三重県",
    "city": "四日市市",
    "town": "尾上町"
  },
  "5100061": {
    "zipcode": "5100061",
    "prefectureCode": "24",
    "prefectureNumber": 24,
    "prefecture": "三重県",
    "city": "四日市市",
    "town": "朝日町"
  },
  "5100062": {
    "zipcode": "5100062",
    "prefectureCode": "24",
    "prefectureNumber": 24,
    "prefecture": "三重県",
    "city": "四日市市",
    "town": "北浜田町"
  },
  "5100063": {
    "zipcode": "5100063",
    "prefectureCode": "24",
    "prefectureNumber": 24,
    "prefecture": "三重県",
    "city": "四日市市",
    "town": "十七軒町"
  },
  "5100064": {
    "zipcode": "5100064",
    "prefectureCode": "24",
    "prefectureNumber": 24,
    "prefecture": "三重県",
    "city": "四日市市",
    "town": "新正"
  },
  "5100065": {
    "zipcode": "5100065",
    "prefectureCode": "24",
    "prefectureNumber": 24,
    "prefecture": "三重県",
    "city": "四日市市",
    "town": "中浜田町"
  },
  "5100066": {
    "zipcode": "5100066",
    "prefectureCode": "24",
    "prefectureNumber": 24,
    "prefecture": "三重県",
    "city": "四日市市",
    "town": "南浜田町"
  },
  "5100067": {
    "zipcode": "5100067",
    "prefectureCode": "24",
    "prefectureNumber": 24,
    "prefecture": "三重県",
    "city": "四日市市",
    "town": "浜田町"
  },
  "5100068": {
    "zipcode": "5100068",
    "prefectureCode": "24",
    "prefectureNumber": 24,
    "prefecture": "三重県",
    "city": "四日市市",
    "town": "三栄町"
  },
  "5100069": {
    "zipcode": "5100069",
    "prefectureCode": "24",
    "prefectureNumber": 24,
    "prefecture": "三重県",
    "city": "四日市市",
    "town": "幸町"
  },
  "5100071": {
    "zipcode": "5100071",
    "prefectureCode": "24",
    "prefectureNumber": 24,
    "prefecture": "三重県",
    "city": "四日市市",
    "town": "西浦"
  },
  "5100072": {
    "zipcode": "5100072",
    "prefectureCode": "24",
    "prefectureNumber": 24,
    "prefecture": "三重県",
    "city": "四日市市",
    "town": "九の城町"
  },
  "5100073": {
    "zipcode": "5100073",
    "prefectureCode": "24",
    "prefectureNumber": 24,
    "prefecture": "三重県",
    "city": "四日市市",
    "town": "西浜田町"
  },
  "5100074": {
    "zipcode": "5100074",
    "prefectureCode": "24",
    "prefectureNumber": 24,
    "prefecture": "三重県",
    "city": "四日市市",
    "town": "鵜の森"
  },
  "5100075": {
    "zipcode": "5100075",
    "prefectureCode": "24",
    "prefectureNumber": 24,
    "prefecture": "三重県",
    "city": "四日市市",
    "town": "安島"
  },
  "5100076": {
    "zipcode": "5100076",
    "prefectureCode": "24",
    "prefectureNumber": 24,
    "prefecture": "三重県",
    "city": "四日市市",
    "town": "堀木"
  },
  "5100081": {
    "zipcode": "5100081",
    "prefectureCode": "24",
    "prefectureNumber": 24,
    "prefecture": "三重県",
    "city": "四日市市",
    "town": "北町"
  },
  "5100082": {
    "zipcode": "5100082",
    "prefectureCode": "24",
    "prefectureNumber": 24,
    "prefecture": "三重県",
    "city": "四日市市",
    "town": "中部"
  },
  "5100083": {
    "zipcode": "5100083",
    "prefectureCode": "24",
    "prefectureNumber": 24,
    "prefecture": "三重県",
    "city": "四日市市",
    "town": "沖の島町"
  },
  "5100084": {
    "zipcode": "5100084",
    "prefectureCode": "24",
    "prefectureNumber": 24,
    "prefecture": "三重県",
    "city": "四日市市",
    "town": "栄町"
  },
  "5100085": {
    "zipcode": "5100085",
    "prefectureCode": "24",
    "prefectureNumber": 24,
    "prefecture": "三重県",
    "city": "四日市市",
    "town": "諏訪町"
  },
  "5100086": {
    "zipcode": "5100086",
    "prefectureCode": "24",
    "prefectureNumber": 24,
    "prefecture": "三重県",
    "city": "四日市市",
    "town": "諏訪栄町"
  },
  "5100087": {
    "zipcode": "5100087",
    "prefectureCode": "24",
    "prefectureNumber": 24,
    "prefecture": "三重県",
    "city": "四日市市",
    "town": "西新地"
  },
  "5100088": {
    "zipcode": "5100088",
    "prefectureCode": "24",
    "prefectureNumber": 24,
    "prefecture": "三重県",
    "city": "四日市市",
    "town": "元町"
  },
  "5100089": {
    "zipcode": "5100089",
    "prefectureCode": "24",
    "prefectureNumber": 24,
    "prefecture": "三重県",
    "city": "四日市市",
    "town": "西町"
  },
  "5100091": {
    "zipcode": "5100091",
    "prefectureCode": "24",
    "prefectureNumber": 24,
    "prefecture": "三重県",
    "city": "四日市市",
    "town": "北浜町"
  },
  "5100092": {
    "zipcode": "5100092",
    "prefectureCode": "24",
    "prefectureNumber": 24,
    "prefecture": "三重県",
    "city": "四日市市",
    "town": "新町"
  },
  "5100093": {
    "zipcode": "5100093",
    "prefectureCode": "24",
    "prefectureNumber": 24,
    "prefecture": "三重県",
    "city": "四日市市",
    "town": "本町"
  },
  "5100094": {
    "zipcode": "5100094",
    "prefectureCode": "24",
    "prefectureNumber": 24,
    "prefecture": "三重県",
    "city": "四日市市",
    "town": "新々町"
  },
  "5100095": {
    "zipcode": "5100095",
    "prefectureCode": "24",
    "prefectureNumber": 24,
    "prefecture": "三重県",
    "city": "四日市市",
    "town": "元新町"
  },
  "5100096": {
    "zipcode": "5100096",
    "prefectureCode": "24",
    "prefectureNumber": 24,
    "prefecture": "三重県",
    "city": "四日市市",
    "town": "中町"
  },
  "5100097": {
    "zipcode": "5100097",
    "prefectureCode": "24",
    "prefectureNumber": 24,
    "prefecture": "三重県",
    "city": "四日市市",
    "town": "八幡町"
  },
  "5100098": {
    "zipcode": "5100098",
    "prefectureCode": "24",
    "prefectureNumber": 24,
    "prefecture": "三重県",
    "city": "四日市市",
    "town": "北条町"
  },
  "5100101": {
    "zipcode": "5100101",
    "prefectureCode": "24",
    "prefectureNumber": 24,
    "prefecture": "三重県",
    "city": "四日市市",
    "town": "楠町小倉"
  },
  "5100102": {
    "zipcode": "5100102",
    "prefectureCode": "24",
    "prefectureNumber": 24,
    "prefecture": "三重県",
    "city": "四日市市",
    "town": "楠町吉崎"
  },
  "5100103": {
    "zipcode": "5100103",
    "prefectureCode": "24",
    "prefectureNumber": 24,
    "prefecture": "三重県",
    "city": "四日市市",
    "town": "楠町北五味塚"
  },
  "5100104": {
    "zipcode": "5100104",
    "prefectureCode": "24",
    "prefectureNumber": 24,
    "prefecture": "三重県",
    "city": "四日市市",
    "town": "楠町南五味塚"
  },
  "5100105": {
    "zipcode": "5100105",
    "prefectureCode": "24",
    "prefectureNumber": 24,
    "prefecture": "三重県",
    "city": "四日市市",
    "town": "楠町南川"
  },
  "5100106": {
    "zipcode": "5100106",
    "prefectureCode": "24",
    "prefectureNumber": 24,
    "prefecture": "三重県",
    "city": "四日市市",
    "town": "楠町本郷"
  },
  "5100107": {
    "zipcode": "5100107",
    "prefectureCode": "24",
    "prefectureNumber": 24,
    "prefecture": "三重県",
    "city": "四日市市",
    "town": "楠町北一色"
  },
  "5100201": {
    "zipcode": "5100201",
    "prefectureCode": "24",
    "prefectureNumber": 24,
    "prefecture": "三重県",
    "city": "鈴鹿市",
    "town": "稲生町"
  },
  "5100202": {
    "zipcode": "5100202",
    "prefectureCode": "24",
    "prefectureNumber": 24,
    "prefecture": "三重県",
    "city": "鈴鹿市",
    "town": "野町"
  },
  "5100203": {
    "zipcode": "5100203",
    "prefectureCode": "24",
    "prefectureNumber": 24,
    "prefecture": "三重県",
    "city": "鈴鹿市",
    "town": "野村町"
  },
  "5100204": {
    "zipcode": "5100204",
    "prefectureCode": "24",
    "prefectureNumber": 24,
    "prefecture": "三重県",
    "city": "鈴鹿市",
    "town": "稲生西"
  },
  "5100205": {
    "zipcode": "5100205",
    "prefectureCode": "24",
    "prefectureNumber": 24,
    "prefecture": "三重県",
    "city": "鈴鹿市",
    "town": "稲生"
  },
  "5100206": {
    "zipcode": "5100206",
    "prefectureCode": "24",
    "prefectureNumber": 24,
    "prefecture": "三重県",
    "city": "鈴鹿市",
    "town": "稲生こがね園"
  },
  "5100207": {
    "zipcode": "5100207",
    "prefectureCode": "24",
    "prefectureNumber": 24,
    "prefecture": "三重県",
    "city": "鈴鹿市",
    "town": "稲生塩屋"
  },
  "5100208": {
    "zipcode": "5100208",
    "prefectureCode": "24",
    "prefectureNumber": 24,
    "prefecture": "三重県",
    "city": "鈴鹿市",
    "town": "鈴鹿ハイツ"
  },
  "5100211": {
    "zipcode": "5100211",
    "prefectureCode": "24",
    "prefectureNumber": 24,
    "prefecture": "三重県",
    "city": "鈴鹿市",
    "town": "東旭が丘"
  },
  "5100212": {
    "zipcode": "5100212",
    "prefectureCode": "24",
    "prefectureNumber": 24,
    "prefecture": "三重県",
    "city": "鈴鹿市",
    "town": "中旭が丘"
  },
  "5100213": {
    "zipcode": "5100213",
    "prefectureCode": "24",
    "prefectureNumber": 24,
    "prefecture": "三重県",
    "city": "鈴鹿市",
    "town": "南旭が丘"
  },
  "5100216": {
    "zipcode": "5100216",
    "prefectureCode": "24",
    "prefectureNumber": 24,
    "prefecture": "三重県",
    "city": "鈴鹿市",
    "town": "野町中"
  },
  "5100217": {
    "zipcode": "5100217",
    "prefectureCode": "24",
    "prefectureNumber": 24,
    "prefecture": "三重県",
    "city": "鈴鹿市",
    "town": "野町東"
  },
  "5100218": {
    "zipcode": "5100218",
    "prefectureCode": "24",
    "prefectureNumber": 24,
    "prefecture": "三重県",
    "city": "鈴鹿市",
    "town": "野町西"
  },
  "5100219": {
    "zipcode": "5100219",
    "prefectureCode": "24",
    "prefectureNumber": 24,
    "prefecture": "三重県",
    "city": "鈴鹿市",
    "town": "野町南"
  },
  "5100221": {
    "zipcode": "5100221",
    "prefectureCode": "24",
    "prefectureNumber": 24,
    "prefecture": "三重県",
    "city": "鈴鹿市",
    "town": "北若松町"
  },
  "5100222": {
    "zipcode": "5100222",
    "prefectureCode": "24",
    "prefectureNumber": 24,
    "prefecture": "三重県",
    "city": "鈴鹿市",
    "town": "若松西"
  },
  "5100223": {
    "zipcode": "5100223",
    "prefectureCode": "24",
    "prefectureNumber": 24,
    "prefecture": "三重県",
    "city": "鈴鹿市",
    "town": "若松北"
  },
  "5100224": {
    "zipcode": "5100224",
    "prefectureCode": "24",
    "prefectureNumber": 24,
    "prefecture": "三重県",
    "city": "鈴鹿市",
    "town": "若松中"
  },
  "5100225": {
    "zipcode": "5100225",
    "prefectureCode": "24",
    "prefectureNumber": 24,
    "prefecture": "三重県",
    "city": "鈴鹿市",
    "town": "若松東"
  },
  "5100226": {
    "zipcode": "5100226",
    "prefectureCode": "24",
    "prefectureNumber": 24,
    "prefecture": "三重県",
    "city": "鈴鹿市",
    "town": "岸岡町"
  },
  "5100227": {
    "zipcode": "5100227",
    "prefectureCode": "24",
    "prefectureNumber": 24,
    "prefecture": "三重県",
    "city": "鈴鹿市",
    "town": "南若松町"
  },
  "5100231": {
    "zipcode": "5100231",
    "prefectureCode": "24",
    "prefectureNumber": 24,
    "prefecture": "三重県",
    "city": "鈴鹿市",
    "town": "江島台"
  },
  "5100232": {
    "zipcode": "5100232",
    "prefectureCode": "24",
    "prefectureNumber": 24,
    "prefecture": "三重県",
    "city": "鈴鹿市",
    "town": "北江島町"
  },
  "5100233": {
    "zipcode": "5100233",
    "prefectureCode": "24",
    "prefectureNumber": 24,
    "prefecture": "三重県",
    "city": "鈴鹿市",
    "town": "東江島町"
  },
  "5100234": {
    "zipcode": "5100234",
    "prefectureCode": "24",
    "prefectureNumber": 24,
    "prefecture": "三重県",
    "city": "鈴鹿市",
    "town": "江島本町"
  },
  "5100235": {
    "zipcode": "5100235",
    "prefectureCode": "24",
    "prefectureNumber": 24,
    "prefecture": "三重県",
    "city": "鈴鹿市",
    "town": "南江島町"
  },
  "5100236": {
    "zipcode": "5100236",
    "prefectureCode": "24",
    "prefectureNumber": 24,
    "prefecture": "三重県",
    "city": "鈴鹿市",
    "town": "中江島町"
  },
  "5100237": {
    "zipcode": "5100237",
    "prefectureCode": "24",
    "prefectureNumber": 24,
    "prefecture": "三重県",
    "city": "鈴鹿市",
    "town": "江島町"
  },
  "5100241": {
    "zipcode": "5100241",
    "prefectureCode": "24",
    "prefectureNumber": 24,
    "prefecture": "三重県",
    "city": "鈴鹿市",
    "town": "白子駅前"
  },
  "5100242": {
    "zipcode": "5100242",
    "prefectureCode": "24",
    "prefectureNumber": 24,
    "prefecture": "三重県",
    "city": "鈴鹿市",
    "town": "白子本町"
  },
  "5100243": {
    "zipcode": "5100243",
    "prefectureCode": "24",
    "prefectureNumber": 24,
    "prefecture": "三重県",
    "city": "鈴鹿市",
    "town": "白子"
  },
  "5100244": {
    "zipcode": "5100244",
    "prefectureCode": "24",
    "prefectureNumber": 24,
    "prefecture": "三重県",
    "city": "鈴鹿市",
    "town": "白子町"
  },
  "5100251": {
    "zipcode": "5100251",
    "prefectureCode": "24",
    "prefectureNumber": 24,
    "prefecture": "三重県",
    "city": "鈴鹿市",
    "town": "徳田町"
  },
  "5100252": {
    "zipcode": "5100252",
    "prefectureCode": "24",
    "prefectureNumber": 24,
    "prefecture": "三重県",
    "city": "鈴鹿市",
    "town": "五祝町"
  },
  "5100253": {
    "zipcode": "5100253",
    "prefectureCode": "24",
    "prefectureNumber": 24,
    "prefecture": "三重県",
    "city": "鈴鹿市",
    "town": "寺家町"
  },
  "5100254": {
    "zipcode": "5100254",
    "prefectureCode": "24",
    "prefectureNumber": 24,
    "prefecture": "三重県",
    "city": "鈴鹿市",
    "town": "寺家"
  },
  "5100255": {
    "zipcode": "5100255",
    "prefectureCode": "24",
    "prefectureNumber": 24,
    "prefecture": "三重県",
    "city": "鈴鹿市",
    "town": "磯山町"
  },
  "5100256": {
    "zipcode": "5100256",
    "prefectureCode": "24",
    "prefectureNumber": 24,
    "prefecture": "三重県",
    "city": "鈴鹿市",
    "town": "磯山"
  },
  "5100257": {
    "zipcode": "5100257",
    "prefectureCode": "24",
    "prefectureNumber": 24,
    "prefecture": "三重県",
    "city": "鈴鹿市",
    "town": "東磯山"
  },
  "5100258": {
    "zipcode": "5100258",
    "prefectureCode": "24",
    "prefectureNumber": 24,
    "prefecture": "三重県",
    "city": "鈴鹿市",
    "town": "秋永町"
  },
  "5100259": {
    "zipcode": "5100259",
    "prefectureCode": "24",
    "prefectureNumber": 24,
    "prefecture": "三重県",
    "city": "鈴鹿市",
    "town": "中瀬古町"
  },
  "5100261": {
    "zipcode": "5100261",
    "prefectureCode": "24",
    "prefectureNumber": 24,
    "prefecture": "三重県",
    "city": "鈴鹿市",
    "town": "御薗町"
  },
  "5100262": {
    "zipcode": "5100262",
    "prefectureCode": "24",
    "prefectureNumber": 24,
    "prefecture": "三重県",
    "city": "鈴鹿市",
    "town": "越知町"
  },
  "5100263": {
    "zipcode": "5100263",
    "prefectureCode": "24",
    "prefectureNumber": 24,
    "prefecture": "三重県",
    "city": "鈴鹿市",
    "town": "郡山町"
  },
  "5100264": {
    "zipcode": "5100264",
    "prefectureCode": "24",
    "prefectureNumber": 24,
    "prefecture": "三重県",
    "city": "鈴鹿市",
    "town": "徳居町"
  },
  "5100265": {
    "zipcode": "5100265",
    "prefectureCode": "24",
    "prefectureNumber": 24,
    "prefecture": "三重県",
    "city": "鈴鹿市",
    "town": "三宅町"
  },
  "5100266": {
    "zipcode": "5100266",
    "prefectureCode": "24",
    "prefectureNumber": 24,
    "prefecture": "三重県",
    "city": "鈴鹿市",
    "town": "長法寺町"
  },
  "5100301": {
    "zipcode": "5100301",
    "prefectureCode": "24",
    "prefectureNumber": 24,
    "prefecture": "三重県",
    "city": "津市",
    "town": "河芸町西千里"
  },
  "5100302": {
    "zipcode": "5100302",
    "prefectureCode": "24",
    "prefectureNumber": 24,
    "prefecture": "三重県",
    "city": "津市",
    "town": "河芸町千里ケ丘"
  },
  "5100303": {
    "zipcode": "5100303",
    "prefectureCode": "24",
    "prefectureNumber": 24,
    "prefecture": "三重県",
    "city": "津市",
    "town": "河芸町東千里"
  },
  "5100304": {
    "zipcode": "5100304",
    "prefectureCode": "24",
    "prefectureNumber": 24,
    "prefecture": "三重県",
    "city": "津市",
    "town": "河芸町上野"
  },
  "5100305": {
    "zipcode": "5100305",
    "prefectureCode": "24",
    "prefectureNumber": 24,
    "prefecture": "三重県",
    "city": "津市",
    "town": "河芸町中別保"
  },
  "5100306": {
    "zipcode": "5100306",
    "prefectureCode": "24",
    "prefectureNumber": 24,
    "prefecture": "三重県",
    "city": "津市",
    "town": "河芸町一色"
  },
  "5100307": {
    "zipcode": "5100307",
    "prefectureCode": "24",
    "prefectureNumber": 24,
    "prefecture": "三重県",
    "city": "津市",
    "town": "河芸町影重"
  },
  "5100308": {
    "zipcode": "5100308",
    "prefectureCode": "24",
    "prefectureNumber": 24,
    "prefecture": "三重県",
    "city": "津市",
    "town": "河芸町中瀬"
  },
  "5100311": {
    "zipcode": "5100311",
    "prefectureCode": "24",
    "prefectureNumber": 24,
    "prefecture": "三重県",
    "city": "津市",
    "town": "河芸町三行"
  },
  "5100312": {
    "zipcode": "5100312",
    "prefectureCode": "24",
    "prefectureNumber": 24,
    "prefecture": "三重県",
    "city": "津市",
    "town": "河芸町久知野"
  },
  "5100313": {
    "zipcode": "5100313",
    "prefectureCode": "24",
    "prefectureNumber": 24,
    "prefecture": "三重県",
    "city": "津市",
    "town": "河芸町赤部"
  },
  "5100314": {
    "zipcode": "5100314",
    "prefectureCode": "24",
    "prefectureNumber": 24,
    "prefecture": "三重県",
    "city": "津市",
    "town": "河芸町浜田"
  },
  "5100315": {
    "zipcode": "5100315",
    "prefectureCode": "24",
    "prefectureNumber": 24,
    "prefecture": "三重県",
    "city": "津市",
    "town": "河芸町高佐"
  },
  "5100316": {
    "zipcode": "5100316",
    "prefectureCode": "24",
    "prefectureNumber": 24,
    "prefecture": "三重県",
    "city": "津市",
    "town": "河芸町南黒田"
  },
  "5100317": {
    "zipcode": "5100317",
    "prefectureCode": "24",
    "prefectureNumber": 24,
    "prefecture": "三重県",
    "city": "津市",
    "town": "河芸町北黒田"
  },
  "5100318": {
    "zipcode": "5100318",
    "prefectureCode": "24",
    "prefectureNumber": 24,
    "prefecture": "三重県",
    "city": "津市",
    "town": "河芸町杜の街"
  },
  "5100801": {
    "zipcode": "5100801",
    "prefectureCode": "24",
    "prefectureNumber": 24,
    "prefecture": "三重県",
    "city": "四日市市",
    "town": "三ツ谷東町"
  },
  "5100802": {
    "zipcode": "5100802",
    "prefectureCode": "24",
    "prefectureNumber": 24,
    "prefecture": "三重県",
    "city": "四日市市",
    "town": "三ツ谷町"
  },
  "5100803": {
    "zipcode": "5100803",
    "prefectureCode": "24",
    "prefectureNumber": 24,
    "prefecture": "三重県",
    "city": "四日市市",
    "town": "阿倉川町"
  },
  "5100804": {
    "zipcode": "5100804",
    "prefectureCode": "24",
    "prefectureNumber": 24,
    "prefecture": "三重県",
    "city": "四日市市",
    "town": "万古町"
  },
  "5100805": {
    "zipcode": "5100805",
    "prefectureCode": "24",
    "prefectureNumber": 24,
    "prefecture": "三重県",
    "city": "四日市市",
    "town": "東阿倉川"
  },
  "5100806": {
    "zipcode": "5100806",
    "prefectureCode": "24",
    "prefectureNumber": 24,
    "prefecture": "三重県",
    "city": "四日市市",
    "town": "本郷町"
  },
  "5100807": {
    "zipcode": "5100807",
    "prefectureCode": "24",
    "prefectureNumber": 24,
    "prefecture": "三重県",
    "city": "四日市市",
    "town": "末永町"
  },
  "5100810": {
    "zipcode": "5100810",
    "prefectureCode": "24",
    "prefectureNumber": 24,
    "prefecture": "三重県",
    "city": "四日市市",
    "town": "阿倉川新町"
  },
  "5100811": {
    "zipcode": "5100811",
    "prefectureCode": "24",
    "prefectureNumber": 24,
    "prefecture": "三重県",
    "city": "四日市市",
    "town": "みゆきケ丘"
  },
  "5100812": {
    "zipcode": "5100812",
    "prefectureCode": "24",
    "prefectureNumber": 24,
    "prefecture": "三重県",
    "city": "四日市市",
    "town": "西阿倉川"
  },
  "5100813": {
    "zipcode": "5100813",
    "prefectureCode": "24",
    "prefectureNumber": 24,
    "prefecture": "三重県",
    "city": "四日市市",
    "town": "末永"
  },
  "5100814": {
    "zipcode": "5100814",
    "prefectureCode": "24",
    "prefectureNumber": 24,
    "prefecture": "三重県",
    "city": "四日市市",
    "town": "清水町"
  },
  "5100815": {
    "zipcode": "5100815",
    "prefectureCode": "24",
    "prefectureNumber": 24,
    "prefecture": "三重県",
    "city": "四日市市",
    "town": "野田"
  },
  "5100821": {
    "zipcode": "5100821",
    "prefectureCode": "24",
    "prefectureNumber": 24,
    "prefecture": "三重県",
    "city": "四日市市",
    "town": "久保田"
  },
  "5100822": {
    "zipcode": "5100822",
    "prefectureCode": "24",
    "prefectureNumber": 24,
    "prefecture": "三重県",
    "city": "四日市市",
    "town": "芝田"
  },
  "5100823": {
    "zipcode": "5100823",
    "prefectureCode": "24",
    "prefectureNumber": 24,
    "prefecture": "三重県",
    "city": "四日市市",
    "town": "城北町"
  },
  "5100824": {
    "zipcode": "5100824",
    "prefectureCode": "24",
    "prefectureNumber": 24,
    "prefecture": "三重県",
    "city": "四日市市",
    "town": "城東町"
  },
  "5100825": {
    "zipcode": "5100825",
    "prefectureCode": "24",
    "prefectureNumber": 24,
    "prefecture": "三重県",
    "city": "四日市市",
    "town": "赤堀新町"
  },
  "5100826": {
    "zipcode": "5100826",
    "prefectureCode": "24",
    "prefectureNumber": 24,
    "prefecture": "三重県",
    "city": "四日市市",
    "town": "赤堀"
  },
  "5100827": {
    "zipcode": "5100827",
    "prefectureCode": "24",
    "prefectureNumber": 24,
    "prefecture": "三重県",
    "city": "四日市市",
    "town": "赤堀南町"
  },
  "5100828": {
    "zipcode": "5100828",
    "prefectureCode": "24",
    "prefectureNumber": 24,
    "prefecture": "三重県",
    "city": "四日市市",
    "town": "石塚町"
  },
  "5100829": {
    "zipcode": "5100829",
    "prefectureCode": "24",
    "prefectureNumber": 24,
    "prefecture": "三重県",
    "city": "四日市市",
    "town": "城西町"
  },
  "5100831": {
    "zipcode": "5100831",
    "prefectureCode": "24",
    "prefectureNumber": 24,
    "prefecture": "三重県",
    "city": "四日市市",
    "town": "西伊倉町"
  },
  "5100832": {
    "zipcode": "5100832",
    "prefectureCode": "24",
    "prefectureNumber": 24,
    "prefecture": "三重県",
    "city": "四日市市",
    "town": "伊倉"
  },
  "5100833": {
    "zipcode": "5100833",
    "prefectureCode": "24",
    "prefectureNumber": 24,
    "prefecture": "三重県",
    "city": "四日市市",
    "town": "中川原"
  },
  "5100834": {
    "zipcode": "5100834",
    "prefectureCode": "24",
    "prefectureNumber": 24,
    "prefecture": "三重県",
    "city": "四日市市",
    "town": "ときわ"
  },
  "5100835": {
    "zipcode": "5100835",
    "prefectureCode": "24",
    "prefectureNumber": 24,
    "prefecture": "三重県",
    "city": "四日市市",
    "town": "大井手"
  },
  "5100836": {
    "zipcode": "5100836",
    "prefectureCode": "24",
    "prefectureNumber": 24,
    "prefecture": "三重県",
    "city": "四日市市",
    "town": "松本"
  },
  "5100837": {
    "zipcode": "5100837",
    "prefectureCode": "24",
    "prefectureNumber": 24,
    "prefecture": "三重県",
    "city": "四日市市",
    "town": "西松本町"
  },
  "5100838": {
    "zipcode": "5100838",
    "prefectureCode": "24",
    "prefectureNumber": 24,
    "prefecture": "三重県",
    "city": "四日市市",
    "town": "南松本町"
  },
  "5100839": {
    "zipcode": "5100839",
    "prefectureCode": "24",
    "prefectureNumber": 24,
    "prefecture": "三重県",
    "city": "四日市市",
    "town": "青葉町"
  },
  "5100841": {
    "zipcode": "5100841",
    "prefectureCode": "24",
    "prefectureNumber": 24,
    "prefecture": "三重県",
    "city": "四日市市",
    "town": "三田町"
  },
  "5100842": {
    "zipcode": "5100842",
    "prefectureCode": "24",
    "prefectureNumber": 24,
    "prefecture": "三重県",
    "city": "四日市市",
    "town": "石原町"
  },
  "5100843": {
    "zipcode": "5100843",
    "prefectureCode": "24",
    "prefectureNumber": 24,
    "prefecture": "三重県",
    "city": "四日市市",
    "town": "宮東町"
  },
  "5100844": {
    "zipcode": "5100844",
    "prefectureCode": "24",
    "prefectureNumber": 24,
    "prefecture": "三重県",
    "city": "四日市市",
    "town": "宝町"
  },
  "5100845": {
    "zipcode": "5100845",
    "prefectureCode": "24",
    "prefectureNumber": 24,
    "prefecture": "三重県",
    "city": "四日市市",
    "town": "海山道町"
  },
  "5100846": {
    "zipcode": "5100846",
    "prefectureCode": "24",
    "prefectureNumber": 24,
    "prefecture": "三重県",
    "city": "四日市市",
    "town": "大井の川町"
  },
  "5100847": {
    "zipcode": "5100847",
    "prefectureCode": "24",
    "prefectureNumber": 24,
    "prefecture": "三重県",
    "city": "四日市市",
    "town": "大浜町"
  },
  "5100848": {
    "zipcode": "5100848",
    "prefectureCode": "24",
    "prefectureNumber": 24,
    "prefecture": "三重県",
    "city": "四日市市",
    "town": "東邦町"
  },
  "5100851": {
    "zipcode": "5100851",
    "prefectureCode": "24",
    "prefectureNumber": 24,
    "prefecture": "三重県",
    "city": "四日市市",
    "town": "塩浜町"
  },
  "5100852": {
    "zipcode": "5100852",
    "prefectureCode": "24",
    "prefectureNumber": 24,
    "prefecture": "三重県",
    "city": "四日市市",
    "town": "浜旭町"
  },
  "5100853": {
    "zipcode": "5100853",
    "prefectureCode": "24",
    "prefectureNumber": 24,
    "prefecture": "三重県",
    "city": "四日市市",
    "town": "川合町"
  },
  "5100854": {
    "zipcode": "5100854",
    "prefectureCode": "24",
    "prefectureNumber": 24,
    "prefecture": "三重県",
    "city": "四日市市",
    "town": "塩浜本町"
  },
  "5100855": {
    "zipcode": "5100855",
    "prefectureCode": "24",
    "prefectureNumber": 24,
    "prefecture": "三重県",
    "city": "四日市市",
    "town": "馳出町"
  },
  "5100856": {
    "zipcode": "5100856",
    "prefectureCode": "24",
    "prefectureNumber": 24,
    "prefecture": "三重県",
    "city": "四日市市",
    "town": "七つ屋町"
  },
  "5100857": {
    "zipcode": "5100857",
    "prefectureCode": "24",
    "prefectureNumber": 24,
    "prefecture": "三重県",
    "city": "四日市市",
    "town": "高旭町"
  },
  "5100861": {
    "zipcode": "5100861",
    "prefectureCode": "24",
    "prefectureNumber": 24,
    "prefecture": "三重県",
    "city": "四日市市",
    "town": "柳町"
  },
  "5100862": {
    "zipcode": "5100862",
    "prefectureCode": "24",
    "prefectureNumber": 24,
    "prefecture": "三重県",
    "city": "四日市市",
    "town": "御薗町"
  },
  "5100863": {
    "zipcode": "5100863",
    "prefectureCode": "24",
    "prefectureNumber": 24,
    "prefecture": "三重県",
    "city": "四日市市",
    "town": "塩浜栄町"
  },
  "5100864": {
    "zipcode": "5100864",
    "prefectureCode": "24",
    "prefectureNumber": 24,
    "prefecture": "三重県",
    "city": "四日市市",
    "town": "中里町"
  },
  "5100865": {
    "zipcode": "5100865",
    "prefectureCode": "24",
    "prefectureNumber": 24,
    "prefecture": "三重県",
    "city": "四日市市",
    "town": "小浜町"
  },
  "5100866": {
    "zipcode": "5100866",
    "prefectureCode": "24",
    "prefectureNumber": 24,
    "prefecture": "三重県",
    "city": "四日市市",
    "town": "大池町"
  },
  "5100867": {
    "zipcode": "5100867",
    "prefectureCode": "24",
    "prefectureNumber": 24,
    "prefecture": "三重県",
    "city": "四日市市",
    "town": "松泉町"
  },
  "5100868": {
    "zipcode": "5100868",
    "prefectureCode": "24",
    "prefectureNumber": 24,
    "prefecture": "三重県",
    "city": "四日市市",
    "town": "馳出"
  },
  "5100871": {
    "zipcode": "5100871",
    "prefectureCode": "24",
    "prefectureNumber": 24,
    "prefecture": "三重県",
    "city": "四日市市",
    "town": "川尻町"
  },
  "5100872": {
    "zipcode": "5100872",
    "prefectureCode": "24",
    "prefectureNumber": 24,
    "prefecture": "三重県",
    "city": "四日市市",
    "town": "内堀町"
  },
  "5100873": {
    "zipcode": "5100873",
    "prefectureCode": "24",
    "prefectureNumber": 24,
    "prefecture": "三重県",
    "city": "四日市市",
    "town": "貝塚町"
  },
  "5100874": {
    "zipcode": "5100874",
    "prefectureCode": "24",
    "prefectureNumber": 24,
    "prefecture": "三重県",
    "city": "四日市市",
    "town": "河原田町"
  },
  "5100875": {
    "zipcode": "5100875",
    "prefectureCode": "24",
    "prefectureNumber": 24,
    "prefecture": "三重県",
    "city": "四日市市",
    "town": "大治田"
  },
  "5100881": {
    "zipcode": "5100881",
    "prefectureCode": "24",
    "prefectureNumber": 24,
    "prefecture": "三重県",
    "city": "四日市市",
    "town": "六呂見"
  },
  "5100882": {
    "zipcode": "5100882",
    "prefectureCode": "24",
    "prefectureNumber": 24,
    "prefecture": "三重県",
    "city": "四日市市",
    "town": "追分"
  },
  "5100883": {
    "zipcode": "5100883",
    "prefectureCode": "24",
    "prefectureNumber": 24,
    "prefecture": "三重県",
    "city": "四日市市",
    "town": "泊小柳町"
  },
  "5100884": {
    "zipcode": "5100884",
    "prefectureCode": "24",
    "prefectureNumber": 24,
    "prefecture": "三重県",
    "city": "四日市市",
    "town": "泊町"
  },
  "5100885": {
    "zipcode": "5100885",
    "prefectureCode": "24",
    "prefectureNumber": 24,
    "prefecture": "三重県",
    "city": "四日市市",
    "town": "日永"
  },
  "5100886": {
    "zipcode": "5100886",
    "prefectureCode": "24",
    "prefectureNumber": 24,
    "prefecture": "三重県",
    "city": "四日市市",
    "town": "日永東"
  },
  "5100891": {
    "zipcode": "5100891",
    "prefectureCode": "24",
    "prefectureNumber": 24,
    "prefecture": "三重県",
    "city": "四日市市",
    "town": "日永西"
  },
  "5100892": {
    "zipcode": "5100892",
    "prefectureCode": "24",
    "prefectureNumber": 24,
    "prefecture": "三重県",
    "city": "四日市市",
    "town": "泊山崎町"
  },
  "5100893": {
    "zipcode": "5100893",
    "prefectureCode": "24",
    "prefectureNumber": 24,
    "prefecture": "三重県",
    "city": "四日市市",
    "town": "前田町"
  },
  "5100894": {
    "zipcode": "5100894",
    "prefectureCode": "24",
    "prefectureNumber": 24,
    "prefecture": "三重県",
    "city": "四日市市",
    "town": "泊村"
  },
  "5100941": {
    "zipcode": "5100941",
    "prefectureCode": "24",
    "prefectureNumber": 24,
    "prefecture": "三重県",
    "city": "四日市市",
    "town": "東日野"
  },
  "5100942": {
    "zipcode": "5100942",
    "prefectureCode": "24",
    "prefectureNumber": 24,
    "prefecture": "三重県",
    "city": "四日市市",
    "town": "東日野町"
  },
  "5100943": {
    "zipcode": "5100943",
    "prefectureCode": "24",
    "prefectureNumber": 24,
    "prefecture": "三重県",
    "city": "四日市市",
    "town": "西日野町"
  },
  "5100944": {
    "zipcode": "5100944",
    "prefectureCode": "24",
    "prefectureNumber": 24,
    "prefecture": "三重県",
    "city": "四日市市",
    "town": "笹川"
  },
  "5100945": {
    "zipcode": "5100945",
    "prefectureCode": "24",
    "prefectureNumber": 24,
    "prefecture": "三重県",
    "city": "四日市市",
    "town": "高花平"
  },
  "5100946": {
    "zipcode": "5100946",
    "prefectureCode": "24",
    "prefectureNumber": 24,
    "prefecture": "三重県",
    "city": "四日市市",
    "town": "小林町"
  },
  "5100947": {
    "zipcode": "5100947",
    "prefectureCode": "24",
    "prefectureNumber": 24,
    "prefecture": "三重県",
    "city": "四日市市",
    "town": "八王子町"
  },
  "5100948": {
    "zipcode": "5100948",
    "prefectureCode": "24",
    "prefectureNumber": 24,
    "prefecture": "三重県",
    "city": "四日市市",
    "town": "室山町"
  },
  "5100951": {
    "zipcode": "5100951",
    "prefectureCode": "24",
    "prefectureNumber": 24,
    "prefecture": "三重県",
    "city": "四日市市",
    "town": "小古曽東"
  },
  "5100952": {
    "zipcode": "5100952",
    "prefectureCode": "24",
    "prefectureNumber": 24,
    "prefecture": "三重県",
    "city": "四日市市",
    "town": "小古曽町"
  },
  "5100953": {
    "zipcode": "5100953",
    "prefectureCode": "24",
    "prefectureNumber": 24,
    "prefecture": "三重県",
    "city": "四日市市",
    "town": "釆女が丘"
  },
  "5100954": {
    "zipcode": "5100954",
    "prefectureCode": "24",
    "prefectureNumber": 24,
    "prefecture": "三重県",
    "city": "四日市市",
    "town": "釆女町"
  },
  "5100955": {
    "zipcode": "5100955",
    "prefectureCode": "24",
    "prefectureNumber": 24,
    "prefecture": "三重県",
    "city": "四日市市",
    "town": "北小松町"
  },
  "5100956": {
    "zipcode": "5100956",
    "prefectureCode": "24",
    "prefectureNumber": 24,
    "prefecture": "三重県",
    "city": "四日市市",
    "town": "貝家町"
  },
  "5100957": {
    "zipcode": "5100957",
    "prefectureCode": "24",
    "prefectureNumber": 24,
    "prefecture": "三重県",
    "city": "四日市市",
    "town": "森カ山町"
  },
  "5100958": {
    "zipcode": "5100958",
    "prefectureCode": "24",
    "prefectureNumber": 24,
    "prefecture": "三重県",
    "city": "四日市市",
    "town": "小古曽"
  },
  "5100961": {
    "zipcode": "5100961",
    "prefectureCode": "24",
    "prefectureNumber": 24,
    "prefecture": "三重県",
    "city": "四日市市",
    "town": "波木町"
  },
  "5100962": {
    "zipcode": "5100962",
    "prefectureCode": "24",
    "prefectureNumber": 24,
    "prefecture": "三重県",
    "city": "四日市市",
    "town": "波木が丘町"
  },
  "5100963": {
    "zipcode": "5100963",
    "prefectureCode": "24",
    "prefectureNumber": 24,
    "prefecture": "三重県",
    "city": "四日市市",
    "town": "波木南台"
  },
  "5100971": {
    "zipcode": "5100971",
    "prefectureCode": "24",
    "prefectureNumber": 24,
    "prefecture": "三重県",
    "city": "四日市市",
    "town": "南小松町"
  },
  "5101200": {
    "zipcode": "5101200",
    "prefectureCode": "24",
    "prefectureNumber": 24,
    "prefecture": "三重県",
    "city": "三重郡菰野町",
    "town": "以下に掲載がない場合"
  },
  "5101221": {
    "zipcode": "5101221",
    "prefectureCode": "24",
    "prefectureNumber": 24,
    "prefecture": "三重県",
    "city": "三重郡菰野町",
    "town": "池底"
  },
  "5101222": {
    "zipcode": "5101222",
    "prefectureCode": "24",
    "prefectureNumber": 24,
    "prefecture": "三重県",
    "city": "三重郡菰野町",
    "town": "大強原"
  },
  "5101223": {
    "zipcode": "5101223",
    "prefectureCode": "24",
    "prefectureNumber": 24,
    "prefecture": "三重県",
    "city": "三重郡菰野町",
    "town": "諏訪"
  },
  "5101224": {
    "zipcode": "5101224",
    "prefectureCode": "24",
    "prefectureNumber": 24,
    "prefecture": "三重県",
    "city": "三重郡菰野町",
    "town": "川北"
  },
  "5101225": {
    "zipcode": "5101225",
    "prefectureCode": "24",
    "prefectureNumber": 24,
    "prefecture": "三重県",
    "city": "三重郡菰野町",
    "town": "下村"
  },
  "5101226": {
    "zipcode": "5101226",
    "prefectureCode": "24",
    "prefectureNumber": 24,
    "prefecture": "三重県",
    "city": "三重郡菰野町",
    "town": "吉沢"
  },
  "5101231": {
    "zipcode": "5101231",
    "prefectureCode": "24",
    "prefectureNumber": 24,
    "prefecture": "三重県",
    "city": "三重郡菰野町",
    "town": "神森"
  },
  "5101232": {
    "zipcode": "5101232",
    "prefectureCode": "24",
    "prefectureNumber": 24,
    "prefecture": "三重県",
    "city": "三重郡菰野町",
    "town": "宿野"
  },
  "5101233": {
    "zipcode": "5101233",
    "prefectureCode": "24",
    "prefectureNumber": 24,
    "prefecture": "三重県",
    "city": "三重郡菰野町",
    "town": "菰野"
  },
  "5101234": {
    "zipcode": "5101234",
    "prefectureCode": "24",
    "prefectureNumber": 24,
    "prefecture": "三重県",
    "city": "三重郡菰野町",
    "town": "福村"
  },
  "5101235": {
    "zipcode": "5101235",
    "prefectureCode": "24",
    "prefectureNumber": 24,
    "prefecture": "三重県",
    "city": "三重郡菰野町",
    "town": "宝永台"
  },
  "5101236": {
    "zipcode": "5101236",
    "prefectureCode": "24",
    "prefectureNumber": 24,
    "prefecture": "三重県",
    "city": "三重郡菰野町",
    "town": "初若の郷"
  },
  "5101241": {
    "zipcode": "5101241",
    "prefectureCode": "24",
    "prefectureNumber": 24,
    "prefecture": "三重県",
    "city": "三重郡菰野町",
    "town": "大羽根園新林町"
  },
  "5101242": {
    "zipcode": "5101242",
    "prefectureCode": "24",
    "prefectureNumber": 24,
    "prefecture": "三重県",
    "city": "三重郡菰野町",
    "town": "大羽根園柴垣町"
  },
  "5101243": {
    "zipcode": "5101243",
    "prefectureCode": "24",
    "prefectureNumber": 24,
    "prefecture": "三重県",
    "city": "三重郡菰野町",
    "town": "大羽根園呉竹町"
  },
  "5101244": {
    "zipcode": "5101244",
    "prefectureCode": "24",
    "prefectureNumber": 24,
    "prefecture": "三重県",
    "city": "三重郡菰野町",
    "town": "大羽根園並木通"
  },
  "5101245": {
    "zipcode": "5101245",
    "prefectureCode": "24",
    "prefectureNumber": 24,
    "prefecture": "三重県",
    "city": "三重郡菰野町",
    "town": "大羽根園松ケ枝町"
  },
  "5101246": {
    "zipcode": "5101246",
    "prefectureCode": "24",
    "prefectureNumber": 24,
    "prefecture": "三重県",
    "city": "三重郡菰野町",
    "town": "大羽根園青葉町"
  },
  "5101251": {
    "zipcode": "5101251",
    "prefectureCode": "24",
    "prefectureNumber": 24,
    "prefecture": "三重県",
    "city": "三重郡菰野町",
    "town": "千草"
  },
  "5101252": {
    "zipcode": "5101252",
    "prefectureCode": "24",
    "prefectureNumber": 24,
    "prefecture": "三重県",
    "city": "三重郡菰野町",
    "town": "音羽"
  },
  "5101253": {
    "zipcode": "5101253",
    "prefectureCode": "24",
    "prefectureNumber": 24,
    "prefecture": "三重県",
    "city": "三重郡菰野町",
    "town": "潤田"
  },
  "5101311": {
    "zipcode": "5101311",
    "prefectureCode": "24",
    "prefectureNumber": 24,
    "prefecture": "三重県",
    "city": "三重郡菰野町",
    "town": "永井"
  },
  "5101312": {
    "zipcode": "5101312",
    "prefectureCode": "24",
    "prefectureNumber": 24,
    "prefecture": "三重県",
    "city": "三重郡菰野町",
    "town": "竹成"
  },
  "5101321": {
    "zipcode": "5101321",
    "prefectureCode": "24",
    "prefectureNumber": 24,
    "prefecture": "三重県",
    "city": "三重郡菰野町",
    "town": "田口"
  },
  "5101322": {
    "zipcode": "5101322",
    "prefectureCode": "24",
    "prefectureNumber": 24,
    "prefecture": "三重県",
    "city": "三重郡菰野町",
    "town": "田口新田"
  },
  "5101323": {
    "zipcode": "5101323",
    "prefectureCode": "24",
    "prefectureNumber": 24,
    "prefecture": "三重県",
    "city": "三重郡菰野町",
    "town": "小島"
  },
  "5101324": {
    "zipcode": "5101324",
    "prefectureCode": "24",
    "prefectureNumber": 24,
    "prefecture": "三重県",
    "city": "三重郡菰野町",
    "town": "田光"
  },
  "5101325": {
    "zipcode": "5101325",
    "prefectureCode": "24",
    "prefectureNumber": 24,
    "prefecture": "三重県",
    "city": "三重郡菰野町",
    "town": "榊"
  },
  "5101326": {
    "zipcode": "5101326",
    "prefectureCode": "24",
    "prefectureNumber": 24,
    "prefecture": "三重県",
    "city": "三重郡菰野町",
    "town": "杉谷"
  },
  "5101327": {
    "zipcode": "5101327",
    "prefectureCode": "24",
    "prefectureNumber": 24,
    "prefecture": "三重県",
    "city": "三重郡菰野町",
    "town": "根の平"
  },
  "5101328": {
    "zipcode": "5101328",
    "prefectureCode": "24",
    "prefectureNumber": 24,
    "prefecture": "三重県",
    "city": "三重郡菰野町",
    "town": "切畑"
  },
  "5108001": {
    "zipcode": "5108001",
    "prefectureCode": "24",
    "prefectureNumber": 24,
    "prefecture": "三重県",
    "city": "四日市市",
    "town": "天カ須賀"
  },
  "5108002": {
    "zipcode": "5108002",
    "prefectureCode": "24",
    "prefectureNumber": 24,
    "prefecture": "三重県",
    "city": "四日市市",
    "town": "天カ須賀新町"
  },
  "5108003": {
    "zipcode": "5108003",
    "prefectureCode": "24",
    "prefectureNumber": 24,
    "prefecture": "三重県",
    "city": "四日市市",
    "town": "住吉町"
  },
  "5108004": {
    "zipcode": "5108004",
    "prefectureCode": "24",
    "prefectureNumber": 24,
    "prefecture": "三重県",
    "city": "四日市市",
    "town": "富田一色町"
  },
  "5108005": {
    "zipcode": "5108005",
    "prefectureCode": "24",
    "prefectureNumber": 24,
    "prefecture": "三重県",
    "city": "四日市市",
    "town": "富双"
  },
  "5108006": {
    "zipcode": "5108006",
    "prefectureCode": "24",
    "prefectureNumber": 24,
    "prefecture": "三重県",
    "city": "四日市市",
    "town": "東富田町"
  },
  "5108007": {
    "zipcode": "5108007",
    "prefectureCode": "24",
    "prefectureNumber": 24,
    "prefecture": "三重県",
    "city": "四日市市",
    "town": "富田浜元町"
  },
  "5108008": {
    "zipcode": "5108008",
    "prefectureCode": "24",
    "prefectureNumber": 24,
    "prefecture": "三重県",
    "city": "四日市市",
    "town": "富田浜町"
  },
  "5108009": {
    "zipcode": "5108009",
    "prefectureCode": "24",
    "prefectureNumber": 24,
    "prefecture": "三重県",
    "city": "四日市市",
    "town": "浜園町"
  },
  "5108011": {
    "zipcode": "5108011",
    "prefectureCode": "24",
    "prefectureNumber": 24,
    "prefecture": "三重県",
    "city": "四日市市",
    "town": "東茂福町"
  },
  "5108012": {
    "zipcode": "5108012",
    "prefectureCode": "24",
    "prefectureNumber": 24,
    "prefecture": "三重県",
    "city": "四日市市",
    "town": "茂福町"
  },
  "5108013": {
    "zipcode": "5108013",
    "prefectureCode": "24",
    "prefectureNumber": 24,
    "prefecture": "三重県",
    "city": "四日市市",
    "town": "南富田町"
  },
  "5108014": {
    "zipcode": "5108014",
    "prefectureCode": "24",
    "prefectureNumber": 24,
    "prefecture": "三重県",
    "city": "四日市市",
    "town": "富田"
  },
  "5108015": {
    "zipcode": "5108015",
    "prefectureCode": "24",
    "prefectureNumber": 24,
    "prefecture": "三重県",
    "city": "四日市市",
    "town": "松原町"
  },
  "5108016": {
    "zipcode": "5108016",
    "prefectureCode": "24",
    "prefectureNumber": 24,
    "prefecture": "三重県",
    "city": "四日市市",
    "town": "富州原町"
  },
  "5108017": {
    "zipcode": "5108017",
    "prefectureCode": "24",
    "prefectureNumber": 24,
    "prefecture": "三重県",
    "city": "四日市市",
    "town": "平町"
  },
  "5108021": {
    "zipcode": "5108021",
    "prefectureCode": "24",
    "prefectureNumber": 24,
    "prefecture": "三重県",
    "city": "四日市市",
    "town": "松寺"
  },
  "5108022": {
    "zipcode": "5108022",
    "prefectureCode": "24",
    "prefectureNumber": 24,
    "prefecture": "三重県",
    "city": "四日市市",
    "town": "蒔田"
  },
  "5108023": {
    "zipcode": "5108023",
    "prefectureCode": "24",
    "prefectureNumber": 24,
    "prefecture": "三重県",
    "city": "四日市市",
    "town": "西富田"
  },
  "5108024": {
    "zipcode": "5108024",
    "prefectureCode": "24",
    "prefectureNumber": 24,
    "prefecture": "三重県",
    "city": "四日市市",
    "town": "西富田町"
  },
  "5108025": {
    "zipcode": "5108025",
    "prefectureCode": "24",
    "prefectureNumber": 24,
    "prefecture": "三重県",
    "city": "四日市市",
    "town": "富田栄町"
  },
  "5108026": {
    "zipcode": "5108026",
    "prefectureCode": "24",
    "prefectureNumber": 24,
    "prefecture": "三重県",
    "city": "四日市市",
    "town": "十志町"
  },
  "5108027": {
    "zipcode": "5108027",
    "prefectureCode": "24",
    "prefectureNumber": 24,
    "prefecture": "三重県",
    "city": "四日市市",
    "town": "茂福"
  },
  "5108028": {
    "zipcode": "5108028",
    "prefectureCode": "24",
    "prefectureNumber": 24,
    "prefecture": "三重県",
    "city": "四日市市",
    "town": "下之宮町"
  },
  "5108031": {
    "zipcode": "5108031",
    "prefectureCode": "24",
    "prefectureNumber": 24,
    "prefecture": "三重県",
    "city": "四日市市",
    "town": "川北"
  },
  "5108032": {
    "zipcode": "5108032",
    "prefectureCode": "24",
    "prefectureNumber": 24,
    "prefecture": "三重県",
    "city": "四日市市",
    "town": "川北町"
  },
  "5108033": {
    "zipcode": "5108033",
    "prefectureCode": "24",
    "prefectureNumber": 24,
    "prefecture": "三重県",
    "city": "四日市市",
    "town": "下さざらい町"
  },
  "5108034": {
    "zipcode": "5108034",
    "prefectureCode": "24",
    "prefectureNumber": 24,
    "prefecture": "三重県",
    "city": "四日市市",
    "town": "大矢知町"
  },
  "5108035": {
    "zipcode": "5108035",
    "prefectureCode": "24",
    "prefectureNumber": 24,
    "prefecture": "三重県",
    "city": "四日市市",
    "town": "東垂坂町"
  },
  "5108036": {
    "zipcode": "5108036",
    "prefectureCode": "24",
    "prefectureNumber": 24,
    "prefecture": "三重県",
    "city": "四日市市",
    "town": "南垂坂町"
  },
  "5108037": {
    "zipcode": "5108037",
    "prefectureCode": "24",
    "prefectureNumber": 24,
    "prefecture": "三重県",
    "city": "四日市市",
    "town": "垂坂町"
  },
  "5108038": {
    "zipcode": "5108038",
    "prefectureCode": "24",
    "prefectureNumber": 24,
    "prefecture": "三重県",
    "city": "四日市市",
    "town": "垂坂新町"
  },
  "5108039": {
    "zipcode": "5108039",
    "prefectureCode": "24",
    "prefectureNumber": 24,
    "prefecture": "三重県",
    "city": "四日市市",
    "town": "大矢知新町"
  },
  "5108101": {
    "zipcode": "5108101",
    "prefectureCode": "24",
    "prefectureNumber": 24,
    "prefecture": "三重県",
    "city": "三重郡朝日町",
    "town": "縄生"
  },
  "5108102": {
    "zipcode": "5108102",
    "prefectureCode": "24",
    "prefectureNumber": 24,
    "prefecture": "三重県",
    "city": "三重郡朝日町",
    "town": "小向"
  },
  "5108103": {
    "zipcode": "5108103",
    "prefectureCode": "24",
    "prefectureNumber": 24,
    "prefecture": "三重県",
    "city": "三重郡朝日町",
    "town": "柿"
  },
  "5108104": {
    "zipcode": "5108104",
    "prefectureCode": "24",
    "prefectureNumber": 24,
    "prefecture": "三重県",
    "city": "三重郡朝日町",
    "town": "埋縄"
  },
  "5108105": {
    "zipcode": "5108105",
    "prefectureCode": "24",
    "prefectureNumber": 24,
    "prefecture": "三重県",
    "city": "三重郡朝日町",
    "town": "向陽台"
  },
  "5108106": {
    "zipcode": "5108106",
    "prefectureCode": "24",
    "prefectureNumber": 24,
    "prefecture": "三重県",
    "city": "三重郡朝日町",
    "town": "白梅の丘東"
  },
  "5108107": {
    "zipcode": "5108107",
    "prefectureCode": "24",
    "prefectureNumber": 24,
    "prefecture": "三重県",
    "city": "三重郡朝日町",
    "town": "白梅の丘西"
  },
  "5108111": {
    "zipcode": "5108111",
    "prefectureCode": "24",
    "prefectureNumber": 24,
    "prefecture": "三重県",
    "city": "三重郡川越町",
    "town": "当新田"
  },
  "5108112": {
    "zipcode": "5108112",
    "prefectureCode": "24",
    "prefectureNumber": 24,
    "prefecture": "三重県",
    "city": "三重郡川越町",
    "town": "亀須新田"
  },
  "5108113": {
    "zipcode": "5108113",
    "prefectureCode": "24",
    "prefectureNumber": 24,
    "prefecture": "三重県",
    "city": "三重郡川越町",
    "town": "亀尾新田"
  },
  "5108114": {
    "zipcode": "5108114",
    "prefectureCode": "24",
    "prefectureNumber": 24,
    "prefecture": "三重県",
    "city": "三重郡川越町",
    "town": "亀崎新田"
  },
  "5108121": {
    "zipcode": "5108121",
    "prefectureCode": "24",
    "prefectureNumber": 24,
    "prefecture": "三重県",
    "city": "三重郡川越町",
    "town": "高松"
  },
  "5108122": {
    "zipcode": "5108122",
    "prefectureCode": "24",
    "prefectureNumber": 24,
    "prefecture": "三重県",
    "city": "三重郡川越町",
    "town": "豊田"
  },
  "5108123": {
    "zipcode": "5108123",
    "prefectureCode": "24",
    "prefectureNumber": 24,
    "prefecture": "三重県",
    "city": "三重郡川越町",
    "town": "豊田一色"
  },
  "5108124": {
    "zipcode": "5108124",
    "prefectureCode": "24",
    "prefectureNumber": 24,
    "prefecture": "三重県",
    "city": "三重郡川越町",
    "town": "南福崎"
  },
  "5108125": {
    "zipcode": "5108125",
    "prefectureCode": "24",
    "prefectureNumber": 24,
    "prefecture": "三重県",
    "city": "三重郡川越町",
    "town": "北福崎"
  }
}
