{
  "5110000": {
    "zipcode": "5110000",
    "prefectureCode": "24",
    "prefectureNumber": 24,
    "prefecture": "三重県",
    "city": "桑名市",
    "town": "以下に掲載がない場合"
  },
  "5110001": {
    "zipcode": "5110001",
    "prefectureCode": "24",
    "prefectureNumber": 24,
    "prefecture": "三重県",
    "city": "桑名市",
    "town": "上之輪新田"
  },
  "5110002": {
    "zipcode": "5110002",
    "prefectureCode": "24",
    "prefectureNumber": 24,
    "prefecture": "三重県",
    "city": "桑名市",
    "town": "福島"
  },
  "5110003": {
    "zipcode": "5110003",
    "prefectureCode": "24",
    "prefectureNumber": 24,
    "prefecture": "三重県",
    "city": "桑名市",
    "town": "東太一丸"
  },
  "5110004": {
    "zipcode": "5110004",
    "prefectureCode": "24",
    "prefectureNumber": 24,
    "prefecture": "三重県",
    "city": "桑名市",
    "town": "住吉町"
  },
  "5110005": {
    "zipcode": "5110005",
    "prefectureCode": "24",
    "prefectureNumber": 24,
    "prefecture": "三重県",
    "city": "桑名市",
    "town": "太一丸"
  },
  "5110006": {
    "zipcode": "5110006",
    "prefectureCode": "24",
    "prefectureNumber": 24,
    "prefecture": "三重県",
    "city": "桑名市",
    "town": "今北町"
  },
  "5110007": {
    "zipcode": "5110007",
    "prefectureCode": "24",
    "prefectureNumber": 24,
    "prefecture": "三重県",
    "city": "桑名市",
    "town": "参宮通"
  },
  "5110008": {
    "zipcode": "5110008",
    "prefectureCode": "24",
    "prefectureNumber": 24,
    "prefecture": "三重県",
    "city": "桑名市",
    "town": "蓮見町"
  },
  "5110009": {
    "zipcode": "5110009",
    "prefectureCode": "24",
    "prefectureNumber": 24,
    "prefecture": "三重県",
    "city": "桑名市",
    "town": "桑名"
  },
  "5110011": {
    "zipcode": "5110011",
    "prefectureCode": "24",
    "prefectureNumber": 24,
    "prefecture": "三重県",
    "city": "桑名市",
    "town": "船馬町"
  },
  "5110012": {
    "zipcode": "5110012",
    "prefectureCode": "24",
    "prefectureNumber": 24,
    "prefecture": "三重県",
    "city": "桑名市",
    "town": "春日町"
  },
  "5110013": {
    "zipcode": "5110013",
    "prefectureCode": "24",
    "prefectureNumber": 24,
    "prefecture": "三重県",
    "city": "桑名市",
    "town": "宝殿町"
  },
  "5110014": {
    "zipcode": "5110014",
    "prefectureCode": "24",
    "prefectureNumber": 24,
    "prefecture": "三重県",
    "city": "桑名市",
    "town": "三崎通"
  },
  "5110015": {
    "zipcode": "5110015",
    "prefectureCode": "24",
    "prefectureNumber": 24,
    "prefecture": "三重県",
    "city": "桑名市",
    "town": "殿町"
  },
  "5110016": {
    "zipcode": "5110016",
    "prefectureCode": "24",
    "prefectureNumber": 24,
    "prefecture": "三重県",
    "city": "桑名市",
    "town": "相生町"
  },
  "5110017": {
    "zipcode": "5110017",
    "prefectureCode": "24",
    "prefectureNumber": 24,
    "prefecture": "三重県",
    "city": "桑名市",
    "town": "今片町"
  },
  "5110018": {
    "zipcode": "5110018",
    "prefectureCode": "24",
    "prefectureNumber": 24,
    "prefecture": "三重県",
    "city": "桑名市",
    "town": "今中町"
  },
  "5110019": {
    "zipcode": "5110019",
    "prefectureCode": "24",
    "prefectureNumber": 24,
    "prefecture": "三重県",
    "city": "桑名市",
    "town": "清水町"
  },
  "5110021": {
    "zipcode": "5110021",
    "prefectureCode": "24",
    "prefectureNumber": 24,
    "prefecture": "三重県",
    "city": "桑名市",
    "town": "川口町"
  },
  "5110022": {
    "zipcode": "5110022",
    "prefectureCode": "24",
    "prefectureNumber": 24,
    "prefecture": "三重県",
    "city": "桑名市",
    "town": "江戸町"
  },
  "5110023": {
    "zipcode": "5110023",
    "prefectureCode": "24",
    "prefectureNumber": 24,
    "prefecture": "三重県",
    "city": "桑名市",
    "town": "本町"
  },
  "5110024": {
    "zipcode": "5110024",
    "prefectureCode": "24",
    "prefectureNumber": 24,
    "prefecture": "三重県",
    "city": "桑名市",
    "town": "北魚町"
  },
  "5110025": {
    "zipcode": "5110025",
    "prefectureCode": "24",
    "prefectureNumber": 24,
    "prefecture": "三重県",
    "city": "桑名市",
    "town": "風呂町"
  },
  "5110026": {
    "zipcode": "5110026",
    "prefectureCode": "24",
    "prefectureNumber": 24,
    "prefecture": "三重県",
    "city": "桑名市",
    "town": "宮町"
  },
  "5110027": {
    "zipcode": "5110027",
    "prefectureCode": "24",
    "prefectureNumber": 24,
    "prefecture": "三重県",
    "city": "桑名市",
    "town": "福島新町"
  },
  "5110031": {
    "zipcode": "5110031",
    "prefectureCode": "24",
    "prefectureNumber": 24,
    "prefecture": "三重県",
    "city": "桑名市",
    "town": "三之丸"
  },
  "5110032": {
    "zipcode": "5110032",
    "prefectureCode": "24",
    "prefectureNumber": 24,
    "prefecture": "三重県",
    "city": "桑名市",
    "town": "吉之丸"
  },
  "5110033": {
    "zipcode": "5110033",
    "prefectureCode": "24",
    "prefectureNumber": 24,
    "prefecture": "三重県",
    "city": "桑名市",
    "town": "赤須賀"
  },
  "5110034": {
    "zipcode": "5110034",
    "prefectureCode": "24",
    "prefectureNumber": 24,
    "prefecture": "三重県",
    "city": "桑名市",
    "town": "地蔵"
  },
  "5110035": {
    "zipcode": "5110035",
    "prefectureCode": "24",
    "prefectureNumber": 24,
    "prefecture": "三重県",
    "city": "桑名市",
    "town": "東野"
  },
  "5110036": {
    "zipcode": "5110036",
    "prefectureCode": "24",
    "prefectureNumber": 24,
    "prefecture": "三重県",
    "city": "桑名市",
    "town": "伊賀町"
  },
  "5110037": {
    "zipcode": "5110037",
    "prefectureCode": "24",
    "prefectureNumber": 24,
    "prefecture": "三重県",
    "city": "桑名市",
    "town": "元赤須賀"
  },
  "5110038": {
    "zipcode": "5110038",
    "prefectureCode": "24",
    "prefectureNumber": 24,
    "prefecture": "三重県",
    "city": "桑名市",
    "town": "内堀"
  },
  "5110039": {
    "zipcode": "5110039",
    "prefectureCode": "24",
    "prefectureNumber": 24,
    "prefecture": "三重県",
    "city": "桑名市",
    "town": "京町"
  },
  "5110041": {
    "zipcode": "5110041",
    "prefectureCode": "24",
    "prefectureNumber": 24,
    "prefecture": "三重県",
    "city": "桑名市",
    "town": "外堀"
  },
  "5110042": {
    "zipcode": "5110042",
    "prefectureCode": "24",
    "prefectureNumber": 24,
    "prefecture": "三重県",
    "city": "桑名市",
    "town": "柳原"
  },
  "5110043": {
    "zipcode": "5110043",
    "prefectureCode": "24",
    "prefectureNumber": 24,
    "prefecture": "三重県",
    "city": "桑名市",
    "town": "新屋敷"
  },
  "5110044": {
    "zipcode": "5110044",
    "prefectureCode": "24",
    "prefectureNumber": 24,
    "prefecture": "三重県",
    "city": "桑名市",
    "town": "萱町"
  },
  "5110045": {
    "zipcode": "5110045",
    "prefectureCode": "24",
    "prefectureNumber": 24,
    "prefecture": "三重県",
    "city": "桑名市",
    "town": "伝馬町"
  },
  "5110046": {
    "zipcode": "5110046",
    "prefectureCode": "24",
    "prefectureNumber": 24,
    "prefecture": "三重県",
    "city": "桑名市",
    "town": "一色町"
  },
  "5110047": {
    "zipcode": "5110047",
    "prefectureCode": "24",
    "prefectureNumber": 24,
    "prefecture": "三重県",
    "city": "桑名市",
    "town": "鍜冶町"
  },
  "5110048": {
    "zipcode": "5110048",
    "prefectureCode": "24",
    "prefectureNumber": 24,
    "prefecture": "三重県",
    "city": "桑名市",
    "town": "新町"
  },
  "5110049": {
    "zipcode": "5110049",
    "prefectureCode": "24",
    "prefectureNumber": 24,
    "prefecture": "三重県",
    "city": "桑名市",
    "town": "八幡町"
  },
  "5110051": {
    "zipcode": "5110051",
    "prefectureCode": "24",
    "prefectureNumber": 24,
    "prefecture": "三重県",
    "city": "桑名市",
    "town": "矢田磧"
  },
  "5110052": {
    "zipcode": "5110052",
    "prefectureCode": "24",
    "prefectureNumber": 24,
    "prefecture": "三重県",
    "city": "桑名市",
    "town": "相川町"
  },
  "5110053": {
    "zipcode": "5110053",
    "prefectureCode": "24",
    "prefectureNumber": 24,
    "prefecture": "三重県",
    "city": "桑名市",
    "town": "東鍋屋町"
  },
  "5110054": {
    "zipcode": "5110054",
    "prefectureCode": "24",
    "prefectureNumber": 24,
    "prefecture": "三重県",
    "city": "桑名市",
    "town": "西鍋屋町"
  },
  "5110055": {
    "zipcode": "5110055",
    "prefectureCode": "24",
    "prefectureNumber": 24,
    "prefecture": "三重県",
    "city": "桑名市",
    "town": "東矢田町"
  },
  "5110056": {
    "zipcode": "5110056",
    "prefectureCode": "24",
    "prefectureNumber": 24,
    "prefecture": "三重県",
    "city": "桑名市",
    "town": "西矢田町"
  },
  "5110057": {
    "zipcode": "5110057",
    "prefectureCode": "24",
    "prefectureNumber": 24,
    "prefecture": "三重県",
    "city": "桑名市",
    "town": "三ツ矢橋"
  },
  "5110058": {
    "zipcode": "5110058",
    "prefectureCode": "24",
    "prefectureNumber": 24,
    "prefecture": "三重県",
    "city": "桑名市",
    "town": "千代田町"
  },
  "5110061": {
    "zipcode": "5110061",
    "prefectureCode": "24",
    "prefectureNumber": 24,
    "prefecture": "三重県",
    "city": "桑名市",
    "town": "寿町"
  },
  "5110062": {
    "zipcode": "5110062",
    "prefectureCode": "24",
    "prefectureNumber": 24,
    "prefecture": "三重県",
    "city": "桑名市",
    "town": "常盤町"
  },
  "5110063": {
    "zipcode": "5110063",
    "prefectureCode": "24",
    "prefectureNumber": 24,
    "prefecture": "三重県",
    "city": "桑名市",
    "town": "京橋町"
  },
  "5110064": {
    "zipcode": "5110064",
    "prefectureCode": "24",
    "prefectureNumber": 24,
    "prefecture": "三重県",
    "city": "桑名市",
    "town": "新築町"
  },
  "5110065": {
    "zipcode": "5110065",
    "prefectureCode": "24",
    "prefectureNumber": 24,
    "prefecture": "三重県",
    "city": "桑名市",
    "town": "大央町"
  },
  "5110066": {
    "zipcode": "5110066",
    "prefectureCode": "24",
    "prefectureNumber": 24,
    "prefecture": "三重県",
    "city": "桑名市",
    "town": "北鍋屋町"
  },
  "5110067": {
    "zipcode": "5110067",
    "prefectureCode": "24",
    "prefectureNumber": 24,
    "prefecture": "三重県",
    "city": "桑名市",
    "town": "掛樋"
  },
  "5110068": {
    "zipcode": "5110068",
    "prefectureCode": "24",
    "prefectureNumber": 24,
    "prefecture": "三重県",
    "city": "桑名市",
    "town": "中央町"
  },
  "5110069": {
    "zipcode": "5110069",
    "prefectureCode": "24",
    "prefectureNumber": 24,
    "prefecture": "三重県",
    "city": "桑名市",
    "town": "新矢田"
  },
  "5110071": {
    "zipcode": "5110071",
    "prefectureCode": "24",
    "prefectureNumber": 24,
    "prefecture": "三重県",
    "city": "桑名市",
    "town": "駅元町"
  },
  "5110072": {
    "zipcode": "5110072",
    "prefectureCode": "24",
    "prefectureNumber": 24,
    "prefecture": "三重県",
    "city": "桑名市",
    "town": "堤原"
  },
  "5110073": {
    "zipcode": "5110073",
    "prefectureCode": "24",
    "prefectureNumber": 24,
    "prefecture": "三重県",
    "city": "桑名市",
    "town": "北寺町"
  },
  "5110074": {
    "zipcode": "5110074",
    "prefectureCode": "24",
    "prefectureNumber": 24,
    "prefecture": "三重県",
    "city": "桑名市",
    "town": "南寺町"
  },
  "5110075": {
    "zipcode": "5110075",
    "prefectureCode": "24",
    "prefectureNumber": 24,
    "prefecture": "三重県",
    "city": "桑名市",
    "town": "三栄町"
  },
  "5110076": {
    "zipcode": "5110076",
    "prefectureCode": "24",
    "prefectureNumber": 24,
    "prefecture": "三重県",
    "city": "桑名市",
    "town": "八間通"
  },
  "5110077": {
    "zipcode": "5110077",
    "prefectureCode": "24",
    "prefectureNumber": 24,
    "prefecture": "三重県",
    "city": "桑名市",
    "town": "末広町"
  },
  "5110078": {
    "zipcode": "5110078",
    "prefectureCode": "24",
    "prefectureNumber": 24,
    "prefecture": "三重県",
    "city": "桑名市",
    "town": "桑栄町"
  },
  "5110079": {
    "zipcode": "5110079",
    "prefectureCode": "24",
    "prefectureNumber": 24,
    "prefecture": "三重県",
    "city": "桑名市",
    "town": "有楽町"
  },
  "5110081": {
    "zipcode": "5110081",
    "prefectureCode": "24",
    "prefectureNumber": 24,
    "prefecture": "三重県",
    "city": "桑名市",
    "town": "片町"
  },
  "5110082": {
    "zipcode": "5110082",
    "prefectureCode": "24",
    "prefectureNumber": 24,
    "prefecture": "三重県",
    "city": "桑名市",
    "town": "宮通"
  },
  "5110083": {
    "zipcode": "5110083",
    "prefectureCode": "24",
    "prefectureNumber": 24,
    "prefecture": "三重県",
    "city": "桑名市",
    "town": "職人町"
  },
  "5110084": {
    "zipcode": "5110084",
    "prefectureCode": "24",
    "prefectureNumber": 24,
    "prefecture": "三重県",
    "city": "桑名市",
    "town": "油町"
  },
  "5110085": {
    "zipcode": "5110085",
    "prefectureCode": "24",
    "prefectureNumber": 24,
    "prefecture": "三重県",
    "city": "桑名市",
    "town": "紺屋町"
  },
  "5110086": {
    "zipcode": "5110086",
    "prefectureCode": "24",
    "prefectureNumber": 24,
    "prefecture": "三重県",
    "city": "桑名市",
    "town": "入江葭町"
  },
  "5110087": {
    "zipcode": "5110087",
    "prefectureCode": "24",
    "prefectureNumber": 24,
    "prefecture": "三重県",
    "city": "桑名市",
    "town": "吉津屋町"
  },
  "5110088": {
    "zipcode": "5110088",
    "prefectureCode": "24",
    "prefectureNumber": 24,
    "prefecture": "三重県",
    "city": "桑名市",
    "town": "南魚町"
  },
  "5110089": {
    "zipcode": "5110089",
    "prefectureCode": "24",
    "prefectureNumber": 24,
    "prefecture": "三重県",
    "city": "桑名市",
    "town": "田町"
  },
  "5110101": {
    "zipcode": "5110101",
    "prefectureCode": "24",
    "prefectureNumber": 24,
    "prefecture": "三重県",
    "city": "桑名市",
    "town": "多度町柚井"
  },
  "5110102": {
    "zipcode": "5110102",
    "prefectureCode": "24",
    "prefectureNumber": 24,
    "prefecture": "三重県",
    "city": "桑名市",
    "town": "多度町香取"
  },
  "5110103": {
    "zipcode": "5110103",
    "prefectureCode": "24",
    "prefectureNumber": 24,
    "prefecture": "三重県",
    "city": "桑名市",
    "town": "多度町戸津"
  },
  "5110104": {
    "zipcode": "5110104",
    "prefectureCode": "24",
    "prefectureNumber": 24,
    "prefecture": "三重県",
    "city": "桑名市",
    "town": "多度町肱江"
  },
  "5110105": {
    "zipcode": "5110105",
    "prefectureCode": "24",
    "prefectureNumber": 24,
    "prefecture": "三重県",
    "city": "桑名市",
    "town": "多度町小山"
  },
  "5110106": {
    "zipcode": "5110106",
    "prefectureCode": "24",
    "prefectureNumber": 24,
    "prefecture": "三重県",
    "city": "桑名市",
    "town": "多度町多度"
  },
  "5110107": {
    "zipcode": "5110107",
    "prefectureCode": "24",
    "prefectureNumber": 24,
    "prefecture": "三重県",
    "city": "桑名市",
    "town": "多度町小山台"
  },
  "5110111": {
    "zipcode": "5110111",
    "prefectureCode": "24",
    "prefectureNumber": 24,
    "prefecture": "三重県",
    "city": "桑名市",
    "town": "多度町平古"
  },
  "5110112": {
    "zipcode": "5110112",
    "prefectureCode": "24",
    "prefectureNumber": 24,
    "prefecture": "三重県",
    "city": "桑名市",
    "town": "多度町福永"
  },
  "5110113": {
    "zipcode": "5110113",
    "prefectureCode": "24",
    "prefectureNumber": 24,
    "prefecture": "三重県",
    "city": "桑名市",
    "town": "多度町上之郷"
  },
  "5110114": {
    "zipcode": "5110114",
    "prefectureCode": "24",
    "prefectureNumber": 24,
    "prefecture": "三重県",
    "city": "桑名市",
    "town": "多度町中須"
  },
  "5110115": {
    "zipcode": "5110115",
    "prefectureCode": "24",
    "prefectureNumber": 24,
    "prefecture": "三重県",
    "city": "桑名市",
    "town": "多度町南之郷"
  },
  "5110116": {
    "zipcode": "5110116",
    "prefectureCode": "24",
    "prefectureNumber": 24,
    "prefecture": "三重県",
    "city": "桑名市",
    "town": "多度町大鳥居"
  },
  "5110117": {
    "zipcode": "5110117",
    "prefectureCode": "24",
    "prefectureNumber": 24,
    "prefecture": "三重県",
    "city": "桑名市",
    "town": "多度町下野代"
  },
  "5110118": {
    "zipcode": "5110118",
    "prefectureCode": "24",
    "prefectureNumber": 24,
    "prefecture": "三重県",
    "city": "桑名市",
    "town": "多度町御衣野"
  },
  "5110121": {
    "zipcode": "5110121",
    "prefectureCode": "24",
    "prefectureNumber": 24,
    "prefecture": "三重県",
    "city": "桑名市",
    "town": "多度町美鹿"
  },
  "5110122": {
    "zipcode": "5110122",
    "prefectureCode": "24",
    "prefectureNumber": 24,
    "prefecture": "三重県",
    "city": "桑名市",
    "town": "多度町古野"
  },
  "5110123": {
    "zipcode": "5110123",
    "prefectureCode": "24",
    "prefectureNumber": 24,
    "prefecture": "三重県",
    "city": "桑名市",
    "town": "多度町北猪飼"
  },
  "5110124": {
    "zipcode": "5110124",
    "prefectureCode": "24",
    "prefectureNumber": 24,
    "prefecture": "三重県",
    "city": "桑名市",
    "town": "多度町猪飼"
  },
  "5110125": {
    "zipcode": "5110125",
    "prefectureCode": "24",
    "prefectureNumber": 24,
    "prefecture": "三重県",
    "city": "桑名市",
    "town": "多度町力尾"
  },
  "5110200": {
    "zipcode": "5110200",
    "prefectureCode": "24",
    "prefectureNumber": 24,
    "prefecture": "三重県",
    "city": "員弁郡東員町",
    "town": "以下に掲載がない場合"
  },
  "5110201": {
    "zipcode": "5110201",
    "prefectureCode": "24",
    "prefectureNumber": 24,
    "prefecture": "三重県",
    "city": "いなべ市",
    "town": "員弁町市之原"
  },
  "5110202": {
    "zipcode": "5110202",
    "prefectureCode": "24",
    "prefectureNumber": 24,
    "prefecture": "三重県",
    "city": "いなべ市",
    "town": "員弁町楚原"
  },
  "5110203": {
    "zipcode": "5110203",
    "prefectureCode": "24",
    "prefectureNumber": 24,
    "prefecture": "三重県",
    "city": "いなべ市",
    "town": "員弁町畑新田"
  },
  "5110204": {
    "zipcode": "5110204",
    "prefectureCode": "24",
    "prefectureNumber": 24,
    "prefecture": "三重県",
    "city": "いなべ市",
    "town": "員弁町石仏"
  },
  "5110205": {
    "zipcode": "5110205",
    "prefectureCode": "24",
    "prefectureNumber": 24,
    "prefecture": "三重県",
    "city": "いなべ市",
    "town": "員弁町笠田新田"
  },
  "5110206": {
    "zipcode": "5110206",
    "prefectureCode": "24",
    "prefectureNumber": 24,
    "prefecture": "三重県",
    "city": "いなべ市",
    "town": "員弁町宇野"
  },
  "5110207": {
    "zipcode": "5110207",
    "prefectureCode": "24",
    "prefectureNumber": 24,
    "prefecture": "三重県",
    "city": "いなべ市",
    "town": "員弁町上笠田"
  },
  "5110208": {
    "zipcode": "5110208",
    "prefectureCode": "24",
    "prefectureNumber": 24,
    "prefecture": "三重県",
    "city": "いなべ市",
    "town": "員弁町坂東新田"
  },
  "5110211": {
    "zipcode": "5110211",
    "prefectureCode": "24",
    "prefectureNumber": 24,
    "prefecture": "三重県",
    "city": "いなべ市",
    "town": "員弁町松名新田"
  },
  "5110212": {
    "zipcode": "5110212",
    "prefectureCode": "24",
    "prefectureNumber": 24,
    "prefecture": "三重県",
    "city": "いなべ市",
    "town": "員弁町平古"
  },
  "5110213": {
    "zipcode": "5110213",
    "prefectureCode": "24",
    "prefectureNumber": 24,
    "prefecture": "三重県",
    "city": "いなべ市",
    "town": "員弁町暮明"
  },
  "5110214": {
    "zipcode": "5110214",
    "prefectureCode": "24",
    "prefectureNumber": 24,
    "prefecture": "三重県",
    "city": "いなべ市",
    "town": "員弁町岡丁田"
  },
  "5110215": {
    "zipcode": "5110215",
    "prefectureCode": "24",
    "prefectureNumber": 24,
    "prefecture": "三重県",
    "city": "いなべ市",
    "town": "員弁町東一色"
  },
  "5110216": {
    "zipcode": "5110216",
    "prefectureCode": "24",
    "prefectureNumber": 24,
    "prefecture": "三重県",
    "city": "いなべ市",
    "town": "員弁町松之木"
  },
  "5110217": {
    "zipcode": "5110217",
    "prefectureCode": "24",
    "prefectureNumber": 24,
    "prefecture": "三重県",
    "city": "いなべ市",
    "town": "員弁町大泉新田"
  },
  "5110221": {
    "zipcode": "5110221",
    "prefectureCode": "24",
    "prefectureNumber": 24,
    "prefecture": "三重県",
    "city": "いなべ市",
    "town": "員弁町下笠田"
  },
  "5110222": {
    "zipcode": "5110222",
    "prefectureCode": "24",
    "prefectureNumber": 24,
    "prefecture": "三重県",
    "city": "いなべ市",
    "town": "員弁町御薗"
  },
  "5110223": {
    "zipcode": "5110223",
    "prefectureCode": "24",
    "prefectureNumber": 24,
    "prefecture": "三重県",
    "city": "いなべ市",
    "town": "員弁町北金井"
  },
  "5110224": {
    "zipcode": "5110224",
    "prefectureCode": "24",
    "prefectureNumber": 24,
    "prefecture": "三重県",
    "city": "いなべ市",
    "town": "員弁町大泉"
  },
  "5110225": {
    "zipcode": "5110225",
    "prefectureCode": "24",
    "prefectureNumber": 24,
    "prefecture": "三重県",
    "city": "いなべ市",
    "town": "員弁町西方"
  },
  "5110231": {
    "zipcode": "5110231",
    "prefectureCode": "24",
    "prefectureNumber": 24,
    "prefecture": "三重県",
    "city": "員弁郡東員町",
    "town": "笹尾西"
  },
  "5110232": {
    "zipcode": "5110232",
    "prefectureCode": "24",
    "prefectureNumber": 24,
    "prefecture": "三重県",
    "city": "員弁郡東員町",
    "town": "笹尾東"
  },
  "5110233": {
    "zipcode": "5110233",
    "prefectureCode": "24",
    "prefectureNumber": 24,
    "prefecture": "三重県",
    "city": "員弁郡東員町",
    "town": "城山"
  },
  "5110241": {
    "zipcode": "5110241",
    "prefectureCode": "24",
    "prefectureNumber": 24,
    "prefecture": "三重県",
    "city": "員弁郡東員町",
    "town": "鳥取"
  },
  "5110242": {
    "zipcode": "5110242",
    "prefectureCode": "24",
    "prefectureNumber": 24,
    "prefecture": "三重県",
    "city": "員弁郡東員町",
    "town": "六把野新田"
  },
  "5110243": {
    "zipcode": "5110243",
    "prefectureCode": "24",
    "prefectureNumber": 24,
    "prefecture": "三重県",
    "city": "員弁郡東員町",
    "town": "穴太"
  },
  "5110244": {
    "zipcode": "5110244",
    "prefectureCode": "24",
    "prefectureNumber": 24,
    "prefecture": "三重県",
    "city": "員弁郡東員町",
    "town": "大木"
  },
  "5110245": {
    "zipcode": "5110245",
    "prefectureCode": "24",
    "prefectureNumber": 24,
    "prefecture": "三重県",
    "city": "員弁郡東員町",
    "town": "八幡新田"
  },
  "5110251": {
    "zipcode": "5110251",
    "prefectureCode": "24",
    "prefectureNumber": 24,
    "prefecture": "三重県",
    "city": "員弁郡東員町",
    "town": "山田"
  },
  "5110252": {
    "zipcode": "5110252",
    "prefectureCode": "24",
    "prefectureNumber": 24,
    "prefecture": "三重県",
    "city": "員弁郡東員町",
    "town": "瀬古泉"
  },
  "5110253": {
    "zipcode": "5110253",
    "prefectureCode": "24",
    "prefectureNumber": 24,
    "prefecture": "三重県",
    "city": "員弁郡東員町",
    "town": "筑紫"
  },
  "5110254": {
    "zipcode": "5110254",
    "prefectureCode": "24",
    "prefectureNumber": 24,
    "prefecture": "三重県",
    "city": "員弁郡東員町",
    "town": "中上"
  },
  "5110255": {
    "zipcode": "5110255",
    "prefectureCode": "24",
    "prefectureNumber": 24,
    "prefecture": "三重県",
    "city": "員弁郡東員町",
    "town": "長深"
  },
  "5110256": {
    "zipcode": "5110256",
    "prefectureCode": "24",
    "prefectureNumber": 24,
    "prefecture": "三重県",
    "city": "員弁郡東員町",
    "town": "南大社"
  },
  "5110257": {
    "zipcode": "5110257",
    "prefectureCode": "24",
    "prefectureNumber": 24,
    "prefecture": "三重県",
    "city": "員弁郡東員町",
    "town": "北大社"
  },
  "5110261": {
    "zipcode": "5110261",
    "prefectureCode": "24",
    "prefectureNumber": 24,
    "prefecture": "三重県",
    "city": "いなべ市",
    "town": "大安町丹生川上"
  },
  "5110262": {
    "zipcode": "5110262",
    "prefectureCode": "24",
    "prefectureNumber": 24,
    "prefecture": "三重県",
    "city": "いなべ市",
    "town": "大安町丹生川中"
  },
  "5110263": {
    "zipcode": "5110263",
    "prefectureCode": "24",
    "prefectureNumber": 24,
    "prefecture": "三重県",
    "city": "いなべ市",
    "town": "大安町丹生川久下"
  },
  "5110264": {
    "zipcode": "5110264",
    "prefectureCode": "24",
    "prefectureNumber": 24,
    "prefecture": "三重県",
    "city": "いなべ市",
    "town": "大安町石榑東"
  },
  "5110265": {
    "zipcode": "5110265",
    "prefectureCode": "24",
    "prefectureNumber": 24,
    "prefecture": "三重県",
    "city": "いなべ市",
    "town": "大安町石榑北"
  },
  "5110266": {
    "zipcode": "5110266",
    "prefectureCode": "24",
    "prefectureNumber": 24,
    "prefecture": "三重県",
    "city": "いなべ市",
    "town": "大安町石榑南"
  },
  "5110267": {
    "zipcode": "5110267",
    "prefectureCode": "24",
    "prefectureNumber": 24,
    "prefecture": "三重県",
    "city": "いなべ市",
    "town": "大安町石榑北山"
  },
  "5110271": {
    "zipcode": "5110271",
    "prefectureCode": "24",
    "prefectureNumber": 24,
    "prefecture": "三重県",
    "city": "いなべ市",
    "town": "大安町片樋"
  },
  "5110272": {
    "zipcode": "5110272",
    "prefectureCode": "24",
    "prefectureNumber": 24,
    "prefecture": "三重県",
    "city": "いなべ市",
    "town": "大安町高柳"
  },
  "5110273": {
    "zipcode": "5110273",
    "prefectureCode": "24",
    "prefectureNumber": 24,
    "prefecture": "三重県",
    "city": "いなべ市",
    "town": "大安町平塚"
  },
  "5110274": {
    "zipcode": "5110274",
    "prefectureCode": "24",
    "prefectureNumber": 24,
    "prefecture": "三重県",
    "city": "いなべ市",
    "town": "大安町大井田"
  },
  "5110275": {
    "zipcode": "5110275",
    "prefectureCode": "24",
    "prefectureNumber": 24,
    "prefecture": "三重県",
    "city": "いなべ市",
    "town": "大安町鍋坂"
  },
  "5110276": {
    "zipcode": "5110276",
    "prefectureCode": "24",
    "prefectureNumber": 24,
    "prefecture": "三重県",
    "city": "いなべ市",
    "town": "大安町石榑下"
  },
  "5110281": {
    "zipcode": "5110281",
    "prefectureCode": "24",
    "prefectureNumber": 24,
    "prefecture": "三重県",
    "city": "いなべ市",
    "town": "大安町門前"
  },
  "5110282": {
    "zipcode": "5110282",
    "prefectureCode": "24",
    "prefectureNumber": 24,
    "prefecture": "三重県",
    "city": "いなべ市",
    "town": "大安町大泉"
  },
  "5110283": {
    "zipcode": "5110283",
    "prefectureCode": "24",
    "prefectureNumber": 24,
    "prefecture": "三重県",
    "city": "いなべ市",
    "town": "大安町南金井"
  },
  "5110284": {
    "zipcode": "5110284",
    "prefectureCode": "24",
    "prefectureNumber": 24,
    "prefecture": "三重県",
    "city": "いなべ市",
    "town": "大安町梅戸"
  },
  "5110285": {
    "zipcode": "5110285",
    "prefectureCode": "24",
    "prefectureNumber": 24,
    "prefecture": "三重県",
    "city": "いなべ市",
    "town": "大安町宇賀新田"
  },
  "5110286": {
    "zipcode": "5110286",
    "prefectureCode": "24",
    "prefectureNumber": 24,
    "prefecture": "三重県",
    "city": "いなべ市",
    "town": "大安町宇賀"
  },
  "5110287": {
    "zipcode": "5110287",
    "prefectureCode": "24",
    "prefectureNumber": 24,
    "prefecture": "三重県",
    "city": "いなべ市",
    "town": "大安町中央ケ丘"
  },
  "5110401": {
    "zipcode": "5110401",
    "prefectureCode": "24",
    "prefectureNumber": 24,
    "prefecture": "三重県",
    "city": "いなべ市",
    "town": "北勢町川原"
  },
  "5110402": {
    "zipcode": "5110402",
    "prefectureCode": "24",
    "prefectureNumber": 24,
    "prefecture": "三重県",
    "city": "いなべ市",
    "town": "北勢町千司久連新田"
  },
  "5110403": {
    "zipcode": "5110403",
    "prefectureCode": "24",
    "prefectureNumber": 24,
    "prefecture": "三重県",
    "city": "いなべ市",
    "town": "北勢町二之瀬"
  },
  "5110404": {
    "zipcode": "5110404",
    "prefectureCode": "24",
    "prefectureNumber": 24,
    "prefecture": "三重県",
    "city": "いなべ市",
    "town": "北勢町小原一色"
  },
  "5110405": {
    "zipcode": "5110405",
    "prefectureCode": "24",
    "prefectureNumber": 24,
    "prefecture": "三重県",
    "city": "いなべ市",
    "town": "北勢町田辺"
  },
  "5110406": {
    "zipcode": "5110406",
    "prefectureCode": "24",
    "prefectureNumber": 24,
    "prefecture": "三重県",
    "city": "いなべ市",
    "town": "北勢町塩崎"
  },
  "5110411": {
    "zipcode": "5110411",
    "prefectureCode": "24",
    "prefectureNumber": 24,
    "prefecture": "三重県",
    "city": "いなべ市",
    "town": "北勢町京ケ野新田"
  },
  "5110412": {
    "zipcode": "5110412",
    "prefectureCode": "24",
    "prefectureNumber": 24,
    "prefecture": "三重県",
    "city": "いなべ市",
    "town": "北勢町向平"
  },
  "5110413": {
    "zipcode": "5110413",
    "prefectureCode": "24",
    "prefectureNumber": 24,
    "prefecture": "三重県",
    "city": "いなべ市",
    "town": "北勢町畑毛"
  },
  "5110414": {
    "zipcode": "5110414",
    "prefectureCode": "24",
    "prefectureNumber": 24,
    "prefecture": "三重県",
    "city": "いなべ市",
    "town": "北勢町西貝野"
  },
  "5110415": {
    "zipcode": "5110415",
    "prefectureCode": "24",
    "prefectureNumber": 24,
    "prefecture": "三重県",
    "city": "いなべ市",
    "town": "北勢町東貝野"
  },
  "5110416": {
    "zipcode": "5110416",
    "prefectureCode": "24",
    "prefectureNumber": 24,
    "prefecture": "三重県",
    "city": "いなべ市",
    "town": "北勢町飯倉"
  },
  "5110417": {
    "zipcode": "5110417",
    "prefectureCode": "24",
    "prefectureNumber": 24,
    "prefecture": "三重県",
    "city": "いなべ市",
    "town": "北勢町瀬木"
  },
  "5110418": {
    "zipcode": "5110418",
    "prefectureCode": "24",
    "prefectureNumber": 24,
    "prefecture": "三重県",
    "city": "いなべ市",
    "town": "北勢町下平"
  },
  "5110421": {
    "zipcode": "5110421",
    "prefectureCode": "24",
    "prefectureNumber": 24,
    "prefecture": "三重県",
    "city": "いなべ市",
    "town": "北勢町皷"
  },
  "5110422": {
    "zipcode": "5110422",
    "prefectureCode": "24",
    "prefectureNumber": 24,
    "prefecture": "三重県",
    "city": "いなべ市",
    "town": "北勢町北中津原"
  },
  "5110423": {
    "zipcode": "5110423",
    "prefectureCode": "24",
    "prefectureNumber": 24,
    "prefecture": "三重県",
    "city": "いなべ市",
    "town": "北勢町平野新田"
  },
  "5110424": {
    "zipcode": "5110424",
    "prefectureCode": "24",
    "prefectureNumber": 24,
    "prefecture": "三重県",
    "city": "いなべ市",
    "town": "北勢町南中津原"
  },
  "5110425": {
    "zipcode": "5110425",
    "prefectureCode": "24",
    "prefectureNumber": 24,
    "prefecture": "三重県",
    "city": "いなべ市",
    "town": "北勢町大辻新田"
  },
  "5110426": {
    "zipcode": "5110426",
    "prefectureCode": "24",
    "prefectureNumber": 24,
    "prefecture": "三重県",
    "city": "いなべ市",
    "town": "北勢町其原"
  },
  "5110427": {
    "zipcode": "5110427",
    "prefectureCode": "24",
    "prefectureNumber": 24,
    "prefecture": "三重県",
    "city": "いなべ市",
    "town": "北勢町麻生田"
  },
  "5110428": {
    "zipcode": "5110428",
    "prefectureCode": "24",
    "prefectureNumber": 24,
    "prefecture": "三重県",
    "city": "いなべ市",
    "town": "北勢町阿下喜"
  },
  "5110431": {
    "zipcode": "5110431",
    "prefectureCode": "24",
    "prefectureNumber": 24,
    "prefecture": "三重県",
    "city": "いなべ市",
    "town": "北勢町別名"
  },
  "5110432": {
    "zipcode": "5110432",
    "prefectureCode": "24",
    "prefectureNumber": 24,
    "prefecture": "三重県",
    "city": "いなべ市",
    "town": "北勢町東村"
  },
  "5110433": {
    "zipcode": "5110433",
    "prefectureCode": "24",
    "prefectureNumber": 24,
    "prefecture": "三重県",
    "city": "いなべ市",
    "town": "北勢町中山"
  },
  "5110434": {
    "zipcode": "5110434",
    "prefectureCode": "24",
    "prefectureNumber": 24,
    "prefecture": "三重県",
    "city": "いなべ市",
    "town": "北勢町麓村"
  },
  "5110435": {
    "zipcode": "5110435",
    "prefectureCode": "24",
    "prefectureNumber": 24,
    "prefecture": "三重県",
    "city": "いなべ市",
    "town": "北勢町奥村"
  },
  "5110436": {
    "zipcode": "5110436",
    "prefectureCode": "24",
    "prefectureNumber": 24,
    "prefecture": "三重県",
    "city": "いなべ市",
    "town": "北勢町新町"
  },
  "5110437": {
    "zipcode": "5110437",
    "prefectureCode": "24",
    "prefectureNumber": 24,
    "prefecture": "三重県",
    "city": "いなべ市",
    "town": "北勢町垣内"
  },
  "5110438": {
    "zipcode": "5110438",
    "prefectureCode": "24",
    "prefectureNumber": 24,
    "prefecture": "三重県",
    "city": "いなべ市",
    "town": "北勢町治田外面"
  },
  "5110501": {
    "zipcode": "5110501",
    "prefectureCode": "24",
    "prefectureNumber": 24,
    "prefecture": "三重県",
    "city": "いなべ市",
    "town": "藤原町鼎"
  },
  "5110502": {
    "zipcode": "5110502",
    "prefectureCode": "24",
    "prefectureNumber": 24,
    "prefecture": "三重県",
    "city": "いなべ市",
    "town": "藤原町上相場"
  },
  "5110503": {
    "zipcode": "5110503",
    "prefectureCode": "24",
    "prefectureNumber": 24,
    "prefecture": "三重県",
    "city": "いなべ市",
    "town": "藤原町下相場"
  },
  "5110504": {
    "zipcode": "5110504",
    "prefectureCode": "24",
    "prefectureNumber": 24,
    "prefecture": "三重県",
    "city": "いなべ市",
    "town": "藤原町川合"
  },
  "5110505": {
    "zipcode": "5110505",
    "prefectureCode": "24",
    "prefectureNumber": 24,
    "prefecture": "三重県",
    "city": "いなべ市",
    "town": "藤原町日内"
  },
  "5110506": {
    "zipcode": "5110506",
    "prefectureCode": "24",
    "prefectureNumber": 24,
    "prefecture": "三重県",
    "city": "いなべ市",
    "town": "藤原町長尾"
  },
  "5110507": {
    "zipcode": "5110507",
    "prefectureCode": "24",
    "prefectureNumber": 24,
    "prefecture": "三重県",
    "city": "いなべ市",
    "town": "藤原町上之山田"
  },
  "5110508": {
    "zipcode": "5110508",
    "prefectureCode": "24",
    "prefectureNumber": 24,
    "prefecture": "三重県",
    "city": "いなべ市",
    "town": "藤原町藤ケ丘"
  },
  "5110511": {
    "zipcode": "5110511",
    "prefectureCode": "24",
    "prefectureNumber": 24,
    "prefecture": "三重県",
    "city": "いなべ市",
    "town": "藤原町市場"
  },
  "5110512": {
    "zipcode": "5110512",
    "prefectureCode": "24",
    "prefectureNumber": 24,
    "prefecture": "三重県",
    "city": "いなべ市",
    "town": "藤原町志礼石新田"
  },
  "5110513": {
    "zipcode": "5110513",
    "prefectureCode": "24",
    "prefectureNumber": 24,
    "prefecture": "三重県",
    "city": "いなべ市",
    "town": "藤原町下野尻"
  },
  "5110514": {
    "zipcode": "5110514",
    "prefectureCode": "24",
    "prefectureNumber": 24,
    "prefecture": "三重県",
    "city": "いなべ市",
    "town": "藤原町石川"
  },
  "5110515": {
    "zipcode": "5110515",
    "prefectureCode": "24",
    "prefectureNumber": 24,
    "prefecture": "三重県",
    "city": "いなべ市",
    "town": "藤原町東禅寺"
  },
  "5110516": {
    "zipcode": "5110516",
    "prefectureCode": "24",
    "prefectureNumber": 24,
    "prefecture": "三重県",
    "city": "いなべ市",
    "town": "藤原町西野尻"
  },
  "5110517": {
    "zipcode": "5110517",
    "prefectureCode": "24",
    "prefectureNumber": 24,
    "prefecture": "三重県",
    "city": "いなべ市",
    "town": "藤原町大貝戸"
  },
  "5110518": {
    "zipcode": "5110518",
    "prefectureCode": "24",
    "prefectureNumber": 24,
    "prefecture": "三重県",
    "city": "いなべ市",
    "town": "藤原町坂本"
  },
  "5110519": {
    "zipcode": "5110519",
    "prefectureCode": "24",
    "prefectureNumber": 24,
    "prefecture": "三重県",
    "city": "いなべ市",
    "town": "藤原町別名"
  },
  "5110521": {
    "zipcode": "5110521",
    "prefectureCode": "24",
    "prefectureNumber": 24,
    "prefecture": "三重県",
    "city": "いなべ市",
    "town": "藤原町古田"
  },
  "5110522": {
    "zipcode": "5110522",
    "prefectureCode": "24",
    "prefectureNumber": 24,
    "prefecture": "三重県",
    "city": "いなべ市",
    "town": "藤原町篠立"
  },
  "5110523": {
    "zipcode": "5110523",
    "prefectureCode": "24",
    "prefectureNumber": 24,
    "prefecture": "三重県",
    "city": "いなべ市",
    "town": "藤原町本郷"
  },
  "5110524": {
    "zipcode": "5110524",
    "prefectureCode": "24",
    "prefectureNumber": 24,
    "prefecture": "三重県",
    "city": "いなべ市",
    "town": "藤原町山口"
  },
  "5110801": {
    "zipcode": "5110801",
    "prefectureCode": "24",
    "prefectureNumber": 24,
    "prefecture": "三重県",
    "city": "桑名市",
    "town": "今島"
  },
  "5110802": {
    "zipcode": "5110802",
    "prefectureCode": "24",
    "prefectureNumber": 24,
    "prefecture": "三重県",
    "city": "桑名市",
    "town": "川崎町"
  },
  "5110803": {
    "zipcode": "5110803",
    "prefectureCode": "24",
    "prefectureNumber": 24,
    "prefecture": "三重県",
    "city": "桑名市",
    "town": "枇杷島台"
  },
  "5110804": {
    "zipcode": "5110804",
    "prefectureCode": "24",
    "prefectureNumber": 24,
    "prefecture": "三重県",
    "city": "桑名市",
    "town": "北川原台"
  },
  "5110805": {
    "zipcode": "5110805",
    "prefectureCode": "24",
    "prefectureNumber": 24,
    "prefecture": "三重県",
    "city": "桑名市",
    "town": "深谷町"
  },
  "5110806": {
    "zipcode": "5110806",
    "prefectureCode": "24",
    "prefectureNumber": 24,
    "prefecture": "三重県",
    "city": "桑名市",
    "town": "東汰上"
  },
  "5110807": {
    "zipcode": "5110807",
    "prefectureCode": "24",
    "prefectureNumber": 24,
    "prefecture": "三重県",
    "city": "桑名市",
    "town": "西汰上"
  },
  "5110808": {
    "zipcode": "5110808",
    "prefectureCode": "24",
    "prefectureNumber": 24,
    "prefecture": "三重県",
    "city": "桑名市",
    "town": "下深谷部"
  },
  "5110809": {
    "zipcode": "5110809",
    "prefectureCode": "24",
    "prefectureNumber": 24,
    "prefecture": "三重県",
    "city": "桑名市",
    "town": "上深谷部"
  },
  "5110810": {
    "zipcode": "5110810",
    "prefectureCode": "24",
    "prefectureNumber": 24,
    "prefecture": "三重県",
    "city": "桑名市",
    "town": "清竹の丘"
  },
  "5110811": {
    "zipcode": "5110811",
    "prefectureCode": "24",
    "prefectureNumber": 24,
    "prefecture": "三重県",
    "city": "桑名市",
    "town": "東方"
  },
  "5110812": {
    "zipcode": "5110812",
    "prefectureCode": "24",
    "prefectureNumber": 24,
    "prefecture": "三重県",
    "city": "桑名市",
    "town": "尾野山"
  },
  "5110813": {
    "zipcode": "5110813",
    "prefectureCode": "24",
    "prefectureNumber": 24,
    "prefecture": "三重県",
    "city": "桑名市",
    "town": "桜通"
  },
  "5110814": {
    "zipcode": "5110814",
    "prefectureCode": "24",
    "prefectureNumber": 24,
    "prefecture": "三重県",
    "city": "桑名市",
    "town": "松並町"
  },
  "5110815": {
    "zipcode": "5110815",
    "prefectureCode": "24",
    "prefectureNumber": 24,
    "prefecture": "三重県",
    "city": "桑名市",
    "town": "梅園通"
  },
  "5110816": {
    "zipcode": "5110816",
    "prefectureCode": "24",
    "prefectureNumber": 24,
    "prefecture": "三重県",
    "city": "桑名市",
    "town": "汐見町"
  },
  "5110817": {
    "zipcode": "5110817",
    "prefectureCode": "24",
    "prefectureNumber": 24,
    "prefecture": "三重県",
    "city": "桑名市",
    "town": "青葉町"
  },
  "5110818": {
    "zipcode": "5110818",
    "prefectureCode": "24",
    "prefectureNumber": 24,
    "prefecture": "三重県",
    "city": "桑名市",
    "town": "高塚町"
  },
  "5110819": {
    "zipcode": "5110819",
    "prefectureCode": "24",
    "prefectureNumber": 24,
    "prefecture": "三重県",
    "city": "桑名市",
    "town": "北別所"
  },
  "5110821": {
    "zipcode": "5110821",
    "prefectureCode": "24",
    "prefectureNumber": 24,
    "prefecture": "三重県",
    "city": "桑名市",
    "town": "矢田"
  },
  "5110822": {
    "zipcode": "5110822",
    "prefectureCode": "24",
    "prefectureNumber": 24,
    "prefecture": "三重県",
    "city": "桑名市",
    "town": "馬道"
  },
  "5110823": {
    "zipcode": "5110823",
    "prefectureCode": "24",
    "prefectureNumber": 24,
    "prefecture": "三重県",
    "city": "桑名市",
    "town": "明正町"
  },
  "5110824": {
    "zipcode": "5110824",
    "prefectureCode": "24",
    "prefectureNumber": 24,
    "prefecture": "三重県",
    "city": "桑名市",
    "town": "繁松新田"
  },
  "5110825": {
    "zipcode": "5110825",
    "prefectureCode": "24",
    "prefectureNumber": 24,
    "prefecture": "三重県",
    "city": "桑名市",
    "town": "上野"
  },
  "5110826": {
    "zipcode": "5110826",
    "prefectureCode": "24",
    "prefectureNumber": 24,
    "prefecture": "三重県",
    "city": "桑名市",
    "town": "太夫"
  },
  "5110827": {
    "zipcode": "5110827",
    "prefectureCode": "24",
    "prefectureNumber": 24,
    "prefecture": "三重県",
    "city": "桑名市",
    "town": "霞町"
  },
  "5110828": {
    "zipcode": "5110828",
    "prefectureCode": "24",
    "prefectureNumber": 24,
    "prefecture": "三重県",
    "city": "桑名市",
    "town": "立花町"
  },
  "5110829": {
    "zipcode": "5110829",
    "prefectureCode": "24",
    "prefectureNumber": 24,
    "prefecture": "三重県",
    "city": "桑名市",
    "town": "神楽町"
  },
  "5110831": {
    "zipcode": "5110831",
    "prefectureCode": "24",
    "prefectureNumber": 24,
    "prefecture": "三重県",
    "city": "桑名市",
    "town": "益生町"
  },
  "5110832": {
    "zipcode": "5110832",
    "prefectureCode": "24",
    "prefectureNumber": 24,
    "prefecture": "三重県",
    "city": "桑名市",
    "town": "新地"
  },
  "5110833": {
    "zipcode": "5110833",
    "prefectureCode": "24",
    "prefectureNumber": 24,
    "prefecture": "三重県",
    "city": "桑名市",
    "town": "福江町"
  },
  "5110834": {
    "zipcode": "5110834",
    "prefectureCode": "24",
    "prefectureNumber": 24,
    "prefecture": "三重県",
    "city": "桑名市",
    "town": "大福"
  },
  "5110835": {
    "zipcode": "5110835",
    "prefectureCode": "24",
    "prefectureNumber": 24,
    "prefecture": "三重県",
    "city": "桑名市",
    "town": "本願寺"
  },
  "5110836": {
    "zipcode": "5110836",
    "prefectureCode": "24",
    "prefectureNumber": 24,
    "prefecture": "三重県",
    "city": "桑名市",
    "town": "江場"
  },
  "5110837": {
    "zipcode": "5110837",
    "prefectureCode": "24",
    "prefectureNumber": 24,
    "prefecture": "三重県",
    "city": "桑名市",
    "town": "小泉"
  },
  "5110838": {
    "zipcode": "5110838",
    "prefectureCode": "24",
    "prefectureNumber": 24,
    "prefecture": "三重県",
    "city": "桑名市",
    "town": "和泉"
  },
  "5110839": {
    "zipcode": "5110839",
    "prefectureCode": "24",
    "prefectureNumber": 24,
    "prefecture": "三重県",
    "city": "桑名市",
    "town": "安永"
  },
  "5110841": {
    "zipcode": "5110841",
    "prefectureCode": "24",
    "prefectureNumber": 24,
    "prefecture": "三重県",
    "city": "桑名市",
    "town": "小貝須"
  },
  "5110842": {
    "zipcode": "5110842",
    "prefectureCode": "24",
    "prefectureNumber": 24,
    "prefecture": "三重県",
    "city": "桑名市",
    "town": "立田町"
  },
  "5110843": {
    "zipcode": "5110843",
    "prefectureCode": "24",
    "prefectureNumber": 24,
    "prefecture": "三重県",
    "city": "桑名市",
    "town": "太平町"
  },
  "5110844": {
    "zipcode": "5110844",
    "prefectureCode": "24",
    "prefectureNumber": 24,
    "prefecture": "三重県",
    "city": "桑名市",
    "town": "福岡町"
  },
  "5110845": {
    "zipcode": "5110845",
    "prefectureCode": "24",
    "prefectureNumber": 24,
    "prefecture": "三重県",
    "city": "桑名市",
    "town": "福地"
  },
  "5110846": {
    "zipcode": "5110846",
    "prefectureCode": "24",
    "prefectureNumber": 24,
    "prefecture": "三重県",
    "city": "桑名市",
    "town": "城南萱町"
  },
  "5110847": {
    "zipcode": "5110847",
    "prefectureCode": "24",
    "prefectureNumber": 24,
    "prefecture": "三重県",
    "city": "桑名市",
    "town": "福江"
  },
  "5110848": {
    "zipcode": "5110848",
    "prefectureCode": "24",
    "prefectureNumber": 24,
    "prefecture": "三重県",
    "city": "桑名市",
    "town": "大貝須"
  },
  "5110851": {
    "zipcode": "5110851",
    "prefectureCode": "24",
    "prefectureNumber": 24,
    "prefecture": "三重県",
    "city": "桑名市",
    "town": "西別所"
  },
  "5110852": {
    "zipcode": "5110852",
    "prefectureCode": "24",
    "prefectureNumber": 24,
    "prefecture": "三重県",
    "city": "桑名市",
    "town": "稗田"
  },
  "5110853": {
    "zipcode": "5110853",
    "prefectureCode": "24",
    "prefectureNumber": 24,
    "prefecture": "三重県",
    "city": "桑名市",
    "town": "増田"
  },
  "5110854": {
    "zipcode": "5110854",
    "prefectureCode": "24",
    "prefectureNumber": 24,
    "prefecture": "三重県",
    "city": "桑名市",
    "town": "蓮花寺"
  },
  "5110855": {
    "zipcode": "5110855",
    "prefectureCode": "24",
    "prefectureNumber": 24,
    "prefecture": "三重県",
    "city": "桑名市",
    "town": "新倉持"
  },
  "5110861": {
    "zipcode": "5110861",
    "prefectureCode": "24",
    "prefectureNumber": 24,
    "prefecture": "三重県",
    "city": "桑名市",
    "town": "蠣塚新田"
  },
  "5110862": {
    "zipcode": "5110862",
    "prefectureCode": "24",
    "prefectureNumber": 24,
    "prefecture": "三重県",
    "city": "桑名市",
    "town": "播磨"
  },
  "5110863": {
    "zipcode": "5110863",
    "prefectureCode": "24",
    "prefectureNumber": 24,
    "prefecture": "三重県",
    "city": "桑名市",
    "town": "新西方"
  },
  "5110864": {
    "zipcode": "5110864",
    "prefectureCode": "24",
    "prefectureNumber": 24,
    "prefecture": "三重県",
    "city": "桑名市",
    "town": "西方"
  },
  "5110865": {
    "zipcode": "5110865",
    "prefectureCode": "24",
    "prefectureNumber": 24,
    "prefecture": "三重県",
    "city": "桑名市",
    "town": "藤が丘"
  },
  "5110866": {
    "zipcode": "5110866",
    "prefectureCode": "24",
    "prefectureNumber": 24,
    "prefecture": "三重県",
    "city": "桑名市",
    "town": "神成町"
  },
  "5110867": {
    "zipcode": "5110867",
    "prefectureCode": "24",
    "prefectureNumber": 24,
    "prefecture": "三重県",
    "city": "桑名市",
    "town": "陽だまりの丘"
  },
  "5110868": {
    "zipcode": "5110868",
    "prefectureCode": "24",
    "prefectureNumber": 24,
    "prefecture": "三重県",
    "city": "桑名市",
    "town": "さくらの丘"
  },
  "5110901": {
    "zipcode": "5110901",
    "prefectureCode": "24",
    "prefectureNumber": 24,
    "prefecture": "三重県",
    "city": "桑名市",
    "town": "筒尾"
  },
  "5110902": {
    "zipcode": "5110902",
    "prefectureCode": "24",
    "prefectureNumber": 24,
    "prefecture": "三重県",
    "city": "桑名市",
    "town": "松ノ木"
  },
  "5110903": {
    "zipcode": "5110903",
    "prefectureCode": "24",
    "prefectureNumber": 24,
    "prefecture": "三重県",
    "city": "桑名市",
    "town": "大山田"
  },
  "5110904": {
    "zipcode": "5110904",
    "prefectureCode": "24",
    "prefectureNumber": 24,
    "prefecture": "三重県",
    "city": "桑名市",
    "town": "野田"
  },
  "5110911": {
    "zipcode": "5110911",
    "prefectureCode": "24",
    "prefectureNumber": 24,
    "prefecture": "三重県",
    "city": "桑名市",
    "town": "額田"
  },
  "5110912": {
    "zipcode": "5110912",
    "prefectureCode": "24",
    "prefectureNumber": 24,
    "prefecture": "三重県",
    "city": "桑名市",
    "town": "星見ケ丘"
  },
  "5110913": {
    "zipcode": "5110913",
    "prefectureCode": "24",
    "prefectureNumber": 24,
    "prefecture": "三重県",
    "city": "桑名市",
    "town": "里町"
  },
  "5110914": {
    "zipcode": "5110914",
    "prefectureCode": "24",
    "prefectureNumber": 24,
    "prefecture": "三重県",
    "city": "桑名市",
    "town": "中山町"
  },
  "5110921": {
    "zipcode": "5110921",
    "prefectureCode": "24",
    "prefectureNumber": 24,
    "prefecture": "三重県",
    "city": "桑名市",
    "town": "東金井"
  },
  "5110922": {
    "zipcode": "5110922",
    "prefectureCode": "24",
    "prefectureNumber": 24,
    "prefecture": "三重県",
    "city": "桑名市",
    "town": "西金井"
  },
  "5110923": {
    "zipcode": "5110923",
    "prefectureCode": "24",
    "prefectureNumber": 24,
    "prefecture": "三重県",
    "city": "桑名市",
    "town": "桑部"
  },
  "5110924": {
    "zipcode": "5110924",
    "prefectureCode": "24",
    "prefectureNumber": 24,
    "prefecture": "三重県",
    "city": "桑名市",
    "town": "城山台"
  },
  "5110931": {
    "zipcode": "5110931",
    "prefectureCode": "24",
    "prefectureNumber": 24,
    "prefecture": "三重県",
    "city": "桑名市",
    "town": "能部"
  },
  "5110932": {
    "zipcode": "5110932",
    "prefectureCode": "24",
    "prefectureNumber": 24,
    "prefecture": "三重県",
    "city": "桑名市",
    "town": "東正和台"
  },
  "5110933": {
    "zipcode": "5110933",
    "prefectureCode": "24",
    "prefectureNumber": 24,
    "prefecture": "三重県",
    "city": "桑名市",
    "town": "西正和台"
  },
  "5110934": {
    "zipcode": "5110934",
    "prefectureCode": "24",
    "prefectureNumber": 24,
    "prefecture": "三重県",
    "city": "桑名市",
    "town": "赤尾"
  },
  "5110935": {
    "zipcode": "5110935",
    "prefectureCode": "24",
    "prefectureNumber": 24,
    "prefecture": "三重県",
    "city": "桑名市",
    "town": "赤尾台"
  },
  "5110936": {
    "zipcode": "5110936",
    "prefectureCode": "24",
    "prefectureNumber": 24,
    "prefecture": "三重県",
    "city": "桑名市",
    "town": "島田"
  },
  "5110937": {
    "zipcode": "5110937",
    "prefectureCode": "24",
    "prefectureNumber": 24,
    "prefecture": "三重県",
    "city": "桑名市",
    "town": "志知"
  },
  "5110938": {
    "zipcode": "5110938",
    "prefectureCode": "24",
    "prefectureNumber": 24,
    "prefecture": "三重県",
    "city": "桑名市",
    "town": "友村"
  },
  "5110939": {
    "zipcode": "5110939",
    "prefectureCode": "24",
    "prefectureNumber": 24,
    "prefecture": "三重県",
    "city": "桑名市",
    "town": "坂井"
  },
  "5110941": {
    "zipcode": "5110941",
    "prefectureCode": "24",
    "prefectureNumber": 24,
    "prefecture": "三重県",
    "city": "桑名市",
    "town": "嘉例川"
  },
  "5110942": {
    "zipcode": "5110942",
    "prefectureCode": "24",
    "prefectureNumber": 24,
    "prefecture": "三重県",
    "city": "桑名市",
    "town": "広見ケ丘"
  },
  "5110943": {
    "zipcode": "5110943",
    "prefectureCode": "24",
    "prefectureNumber": 24,
    "prefecture": "三重県",
    "city": "桑名市",
    "town": "森忠"
  },
  "5110944": {
    "zipcode": "5110944",
    "prefectureCode": "24",
    "prefectureNumber": 24,
    "prefecture": "三重県",
    "city": "桑名市",
    "town": "芳ケ崎"
  },
  "5110945": {
    "zipcode": "5110945",
    "prefectureCode": "24",
    "prefectureNumber": 24,
    "prefecture": "三重県",
    "city": "桑名市",
    "town": "筑紫"
  },
  "5110946": {
    "zipcode": "5110946",
    "prefectureCode": "24",
    "prefectureNumber": 24,
    "prefecture": "三重県",
    "city": "桑名市",
    "town": "五反田"
  },
  "5110947": {
    "zipcode": "5110947",
    "prefectureCode": "24",
    "prefectureNumber": 24,
    "prefecture": "三重県",
    "city": "桑名市",
    "town": "大仲新田"
  },
  "5111101": {
    "zipcode": "5111101",
    "prefectureCode": "24",
    "prefectureNumber": 24,
    "prefecture": "三重県",
    "city": "桑名市",
    "town": "長島町新所"
  },
  "5111102": {
    "zipcode": "5111102",
    "prefectureCode": "24",
    "prefectureNumber": 24,
    "prefecture": "三重県",
    "city": "桑名市",
    "town": "長島町西川"
  },
  "5111103": {
    "zipcode": "5111103",
    "prefectureCode": "24",
    "prefectureNumber": 24,
    "prefecture": "三重県",
    "city": "桑名市",
    "town": "長島町中川"
  },
  "5111104": {
    "zipcode": "5111104",
    "prefectureCode": "24",
    "prefectureNumber": 24,
    "prefecture": "三重県",
    "city": "桑名市",
    "town": "長島町高座"
  },
  "5111105": {
    "zipcode": "5111105",
    "prefectureCode": "24",
    "prefectureNumber": 24,
    "prefecture": "三重県",
    "city": "桑名市",
    "town": "長島町千倉"
  },
  "5111106": {
    "zipcode": "5111106",
    "prefectureCode": "24",
    "prefectureNumber": 24,
    "prefecture": "三重県",
    "city": "桑名市",
    "town": "長島町下坂手"
  },
  "5111107": {
    "zipcode": "5111107",
    "prefectureCode": "24",
    "prefectureNumber": 24,
    "prefecture": "三重県",
    "city": "桑名市",
    "town": "長島町上坂手"
  },
  "5111108": {
    "zipcode": "5111108",
    "prefectureCode": "24",
    "prefectureNumber": 24,
    "prefecture": "三重県",
    "city": "桑名市",
    "town": "長島町杉江"
  },
  "5111109": {
    "zipcode": "5111109",
    "prefectureCode": "24",
    "prefectureNumber": 24,
    "prefecture": "三重県",
    "city": "桑名市",
    "town": "長島町松之木"
  },
  "5111111": {
    "zipcode": "5111111",
    "prefectureCode": "24",
    "prefectureNumber": 24,
    "prefecture": "三重県",
    "city": "桑名市",
    "town": "長島町小島"
  },
  "5111112": {
    "zipcode": "5111112",
    "prefectureCode": "24",
    "prefectureNumber": 24,
    "prefecture": "三重県",
    "city": "桑名市",
    "town": "長島町大倉"
  },
  "5111113": {
    "zipcode": "5111113",
    "prefectureCode": "24",
    "prefectureNumber": 24,
    "prefecture": "三重県",
    "city": "桑名市",
    "town": "長島町押付"
  },
  "5111114": {
    "zipcode": "5111114",
    "prefectureCode": "24",
    "prefectureNumber": 24,
    "prefecture": "三重県",
    "city": "桑名市",
    "town": "長島町長島下町"
  },
  "5111115": {
    "zipcode": "5111115",
    "prefectureCode": "24",
    "prefectureNumber": 24,
    "prefecture": "三重県",
    "city": "桑名市",
    "town": "長島町長島中町"
  },
  "5111116": {
    "zipcode": "5111116",
    "prefectureCode": "24",
    "prefectureNumber": 24,
    "prefecture": "三重県",
    "city": "桑名市",
    "town": "長島町長島萱町"
  },
  "5111121": {
    "zipcode": "5111121",
    "prefectureCode": "24",
    "prefectureNumber": 24,
    "prefecture": "三重県",
    "city": "桑名市",
    "town": "長島町東殿名"
  },
  "5111122": {
    "zipcode": "5111122",
    "prefectureCode": "24",
    "prefectureNumber": 24,
    "prefecture": "三重県",
    "city": "桑名市",
    "town": "長島町松ケ島"
  },
  "5111123": {
    "zipcode": "5111123",
    "prefectureCode": "24",
    "prefectureNumber": 24,
    "prefecture": "三重県",
    "city": "桑名市",
    "town": "長島町鎌ケ地"
  },
  "5111124": {
    "zipcode": "5111124",
    "prefectureCode": "24",
    "prefectureNumber": 24,
    "prefecture": "三重県",
    "city": "桑名市",
    "town": "長島町葭ケ須"
  },
  "5111125": {
    "zipcode": "5111125",
    "prefectureCode": "24",
    "prefectureNumber": 24,
    "prefecture": "三重県",
    "city": "桑名市",
    "town": "長島町源部外面"
  },
  "5111126": {
    "zipcode": "5111126",
    "prefectureCode": "24",
    "prefectureNumber": 24,
    "prefecture": "三重県",
    "city": "桑名市",
    "town": "長島町又木"
  },
  "5111127": {
    "zipcode": "5111127",
    "prefectureCode": "24",
    "prefectureNumber": 24,
    "prefecture": "三重県",
    "city": "桑名市",
    "town": "長島町殿名"
  },
  "5111128": {
    "zipcode": "5111128",
    "prefectureCode": "24",
    "prefectureNumber": 24,
    "prefecture": "三重県",
    "city": "桑名市",
    "town": "長島町又木市街"
  },
  "5111131": {
    "zipcode": "5111131",
    "prefectureCode": "24",
    "prefectureNumber": 24,
    "prefecture": "三重県",
    "city": "桑名市",
    "town": "長島町赤地"
  },
  "5111132": {
    "zipcode": "5111132",
    "prefectureCode": "24",
    "prefectureNumber": 24,
    "prefecture": "三重県",
    "city": "桑名市",
    "town": "長島町福豊"
  },
  "5111133": {
    "zipcode": "5111133",
    "prefectureCode": "24",
    "prefectureNumber": 24,
    "prefecture": "三重県",
    "city": "桑名市",
    "town": "長島町横満蔵"
  },
  "5111134": {
    "zipcode": "5111134",
    "prefectureCode": "24",
    "prefectureNumber": 24,
    "prefecture": "三重県",
    "city": "桑名市",
    "town": "長島町松蔭"
  },
  "5111135": {
    "zipcode": "5111135",
    "prefectureCode": "24",
    "prefectureNumber": 24,
    "prefecture": "三重県",
    "city": "桑名市",
    "town": "長島町浦安"
  },
  "5111136": {
    "zipcode": "5111136",
    "prefectureCode": "24",
    "prefectureNumber": 24,
    "prefecture": "三重県",
    "city": "桑名市",
    "town": "長島町白鶏"
  },
  "5111137": {
    "zipcode": "5111137",
    "prefectureCode": "24",
    "prefectureNumber": 24,
    "prefecture": "三重県",
    "city": "桑名市",
    "town": "長島町福吉"
  },
  "5111141": {
    "zipcode": "5111141",
    "prefectureCode": "24",
    "prefectureNumber": 24,
    "prefecture": "三重県",
    "city": "桑名市",
    "town": "長島町間々"
  },
  "5111142": {
    "zipcode": "5111142",
    "prefectureCode": "24",
    "prefectureNumber": 24,
    "prefecture": "三重県",
    "city": "桑名市",
    "town": "長島町出口"
  },
  "5111143": {
    "zipcode": "5111143",
    "prefectureCode": "24",
    "prefectureNumber": 24,
    "prefecture": "三重県",
    "city": "桑名市",
    "town": "長島町西外面"
  },
  "5111144": {
    "zipcode": "5111144",
    "prefectureCode": "24",
    "prefectureNumber": 24,
    "prefecture": "三重県",
    "city": "桑名市",
    "town": "長島町駒江"
  },
  "5111145": {
    "zipcode": "5111145",
    "prefectureCode": "24",
    "prefectureNumber": 24,
    "prefecture": "三重県",
    "city": "桑名市",
    "town": "長島町大島"
  },
  "5111146": {
    "zipcode": "5111146",
    "prefectureCode": "24",
    "prefectureNumber": 24,
    "prefecture": "三重県",
    "city": "桑名市",
    "town": "長島町十日外面"
  },
  "5111147": {
    "zipcode": "5111147",
    "prefectureCode": "24",
    "prefectureNumber": 24,
    "prefecture": "三重県",
    "city": "桑名市",
    "town": "長島町平方"
  },
  "5111148": {
    "zipcode": "5111148",
    "prefectureCode": "24",
    "prefectureNumber": 24,
    "prefecture": "三重県",
    "city": "桑名市",
    "town": "長島町北殿名"
  },
  "5111149": {
    "zipcode": "5111149",
    "prefectureCode": "24",
    "prefectureNumber": 24,
    "prefecture": "三重県",
    "city": "桑名市",
    "town": "長島町西外面市街"
  }
}
