{
  "5120301": {
    "zipcode": "5120301",
    "prefectureCode": "24",
    "prefectureNumber": 24,
    "prefecture": "三重県",
    "city": "四日市市",
    "town": "水沢野田町"
  },
  "5120901": {
    "zipcode": "5120901",
    "prefectureCode": "24",
    "prefectureNumber": 24,
    "prefecture": "三重県",
    "city": "四日市市",
    "town": "大谷台"
  },
  "5120902": {
    "zipcode": "5120902",
    "prefectureCode": "24",
    "prefectureNumber": 24,
    "prefecture": "三重県",
    "city": "四日市市",
    "town": "小杉町"
  },
  "5120903": {
    "zipcode": "5120903",
    "prefectureCode": "24",
    "prefectureNumber": 24,
    "prefecture": "三重県",
    "city": "四日市市",
    "town": "小杉新町"
  },
  "5120904": {
    "zipcode": "5120904",
    "prefectureCode": "24",
    "prefectureNumber": 24,
    "prefecture": "三重県",
    "city": "四日市市",
    "town": "東坂部町"
  },
  "5120905": {
    "zipcode": "5120905",
    "prefectureCode": "24",
    "prefectureNumber": 24,
    "prefecture": "三重県",
    "city": "四日市市",
    "town": "坂部が丘"
  },
  "5120906": {
    "zipcode": "5120906",
    "prefectureCode": "24",
    "prefectureNumber": 24,
    "prefecture": "三重県",
    "city": "四日市市",
    "town": "山之一色町"
  },
  "5120907": {
    "zipcode": "5120907",
    "prefectureCode": "24",
    "prefectureNumber": 24,
    "prefecture": "三重県",
    "city": "四日市市",
    "town": "東ケ谷"
  },
  "5120908": {
    "zipcode": "5120908",
    "prefectureCode": "24",
    "prefectureNumber": 24,
    "prefecture": "三重県",
    "city": "四日市市",
    "town": "坂部台"
  },
  "5120911": {
    "zipcode": "5120911",
    "prefectureCode": "24",
    "prefectureNumber": 24,
    "prefecture": "三重県",
    "city": "四日市市",
    "town": "生桑町"
  },
  "5120912": {
    "zipcode": "5120912",
    "prefectureCode": "24",
    "prefectureNumber": 24,
    "prefecture": "三重県",
    "city": "四日市市",
    "town": "三重"
  },
  "5120913": {
    "zipcode": "5120913",
    "prefectureCode": "24",
    "prefectureNumber": 24,
    "prefecture": "三重県",
    "city": "四日市市",
    "town": "西坂部町"
  },
  "5120914": {
    "zipcode": "5120914",
    "prefectureCode": "24",
    "prefectureNumber": 24,
    "prefecture": "三重県",
    "city": "四日市市",
    "town": "南坂部町"
  },
  "5120921": {
    "zipcode": "5120921",
    "prefectureCode": "24",
    "prefectureNumber": 24,
    "prefecture": "三重県",
    "city": "四日市市",
    "town": "尾平町"
  },
  "5120922": {
    "zipcode": "5120922",
    "prefectureCode": "24",
    "prefectureNumber": 24,
    "prefecture": "三重県",
    "city": "四日市市",
    "town": "曽井町"
  },
  "5120923": {
    "zipcode": "5120923",
    "prefectureCode": "24",
    "prefectureNumber": 24,
    "prefecture": "三重県",
    "city": "四日市市",
    "town": "高角町"
  },
  "5120924": {
    "zipcode": "5120924",
    "prefectureCode": "24",
    "prefectureNumber": 24,
    "prefecture": "三重県",
    "city": "四日市市",
    "town": "寺方町"
  },
  "5120925": {
    "zipcode": "5120925",
    "prefectureCode": "24",
    "prefectureNumber": 24,
    "prefecture": "三重県",
    "city": "四日市市",
    "town": "菅原町"
  },
  "5120931": {
    "zipcode": "5120931",
    "prefectureCode": "24",
    "prefectureNumber": 24,
    "prefecture": "三重県",
    "city": "四日市市",
    "town": "浮橋"
  },
  "5120932": {
    "zipcode": "5120932",
    "prefectureCode": "24",
    "prefectureNumber": 24,
    "prefecture": "三重県",
    "city": "四日市市",
    "town": "小生町"
  },
  "5120933": {
    "zipcode": "5120933",
    "prefectureCode": "24",
    "prefectureNumber": 24,
    "prefecture": "三重県",
    "city": "四日市市",
    "town": "三滝台"
  },
  "5120934": {
    "zipcode": "5120934",
    "prefectureCode": "24",
    "prefectureNumber": 24,
    "prefecture": "三重県",
    "city": "四日市市",
    "town": "川島町"
  },
  "5120935": {
    "zipcode": "5120935",
    "prefectureCode": "24",
    "prefectureNumber": 24,
    "prefecture": "三重県",
    "city": "四日市市",
    "town": "川島新町"
  },
  "5120936": {
    "zipcode": "5120936",
    "prefectureCode": "24",
    "prefectureNumber": 24,
    "prefecture": "三重県",
    "city": "四日市市",
    "town": "別山"
  },
  "5121101": {
    "zipcode": "5121101",
    "prefectureCode": "24",
    "prefectureNumber": 24,
    "prefecture": "三重県",
    "city": "四日市市",
    "town": "内山町"
  },
  "5121102": {
    "zipcode": "5121102",
    "prefectureCode": "24",
    "prefectureNumber": 24,
    "prefecture": "三重県",
    "city": "四日市市",
    "town": "小山町"
  },
  "5121103": {
    "zipcode": "5121103",
    "prefectureCode": "24",
    "prefectureNumber": 24,
    "prefecture": "三重県",
    "city": "四日市市",
    "town": "西山町"
  },
  "5121104": {
    "zipcode": "5121104",
    "prefectureCode": "24",
    "prefectureNumber": 24,
    "prefecture": "三重県",
    "city": "四日市市",
    "town": "美里町"
  },
  "5121105": {
    "zipcode": "5121105",
    "prefectureCode": "24",
    "prefectureNumber": 24,
    "prefecture": "三重県",
    "city": "四日市市",
    "town": "水沢町"
  },
  "5121111": {
    "zipcode": "5121111",
    "prefectureCode": "24",
    "prefectureNumber": 24,
    "prefecture": "三重県",
    "city": "四日市市",
    "town": "山田町"
  },
  "5121113": {
    "zipcode": "5121113",
    "prefectureCode": "24",
    "prefectureNumber": 24,
    "prefecture": "三重県",
    "city": "四日市市",
    "town": "鹿間町"
  },
  "5121114": {
    "zipcode": "5121114",
    "prefectureCode": "24",
    "prefectureNumber": 24,
    "prefecture": "三重県",
    "city": "四日市市",
    "town": "和無田町"
  },
  "5121115": {
    "zipcode": "5121115",
    "prefectureCode": "24",
    "prefectureNumber": 24,
    "prefecture": "三重県",
    "city": "四日市市",
    "town": "堂ケ山町"
  },
  "5121116": {
    "zipcode": "5121116",
    "prefectureCode": "24",
    "prefectureNumber": 24,
    "prefecture": "三重県",
    "city": "四日市市",
    "town": "六名町"
  },
  "5121201": {
    "zipcode": "5121201",
    "prefectureCode": "24",
    "prefectureNumber": 24,
    "prefecture": "三重県",
    "city": "四日市市",
    "town": "上海老町"
  },
  "5121202": {
    "zipcode": "5121202",
    "prefectureCode": "24",
    "prefectureNumber": 24,
    "prefecture": "三重県",
    "city": "四日市市",
    "town": "あがたが丘"
  },
  "5121203": {
    "zipcode": "5121203",
    "prefectureCode": "24",
    "prefectureNumber": 24,
    "prefecture": "三重県",
    "city": "四日市市",
    "town": "下海老町"
  },
  "5121204": {
    "zipcode": "5121204",
    "prefectureCode": "24",
    "prefectureNumber": 24,
    "prefecture": "三重県",
    "city": "四日市市",
    "town": "赤水町"
  },
  "5121205": {
    "zipcode": "5121205",
    "prefectureCode": "24",
    "prefectureNumber": 24,
    "prefecture": "三重県",
    "city": "四日市市",
    "town": "平尾町"
  },
  "5121206": {
    "zipcode": "5121206",
    "prefectureCode": "24",
    "prefectureNumber": 24,
    "prefecture": "三重県",
    "city": "四日市市",
    "town": "江村町"
  },
  "5121207": {
    "zipcode": "5121207",
    "prefectureCode": "24",
    "prefectureNumber": 24,
    "prefecture": "三重県",
    "city": "四日市市",
    "town": "黒田町"
  },
  "5121208": {
    "zipcode": "5121208",
    "prefectureCode": "24",
    "prefectureNumber": 24,
    "prefecture": "三重県",
    "city": "四日市市",
    "town": "北野町"
  },
  "5121211": {
    "zipcode": "5121211",
    "prefectureCode": "24",
    "prefectureNumber": 24,
    "prefecture": "三重県",
    "city": "四日市市",
    "town": "桜町"
  },
  "5121212": {
    "zipcode": "5121212",
    "prefectureCode": "24",
    "prefectureNumber": 24,
    "prefecture": "三重県",
    "city": "四日市市",
    "town": "智積町"
  },
  "5121213": {
    "zipcode": "5121213",
    "prefectureCode": "24",
    "prefectureNumber": 24,
    "prefecture": "三重県",
    "city": "四日市市",
    "town": "桜台本町"
  },
  "5121214": {
    "zipcode": "5121214",
    "prefectureCode": "24",
    "prefectureNumber": 24,
    "prefecture": "三重県",
    "city": "四日市市",
    "town": "桜台"
  },
  "5121215": {
    "zipcode": "5121215",
    "prefectureCode": "24",
    "prefectureNumber": 24,
    "prefecture": "三重県",
    "city": "四日市市",
    "town": "桜新町"
  },
  "5121216": {
    "zipcode": "5121216",
    "prefectureCode": "24",
    "prefectureNumber": 24,
    "prefecture": "三重県",
    "city": "四日市市",
    "town": "桜花台"
  },
  "5121301": {
    "zipcode": "5121301",
    "prefectureCode": "24",
    "prefectureNumber": 24,
    "prefecture": "三重県",
    "city": "四日市市",
    "town": "高見台"
  },
  "5121302": {
    "zipcode": "5121302",
    "prefectureCode": "24",
    "prefectureNumber": 24,
    "prefecture": "三重県",
    "city": "四日市市",
    "town": "市場町"
  },
  "5121303": {
    "zipcode": "5121303",
    "prefectureCode": "24",
    "prefectureNumber": 24,
    "prefecture": "三重県",
    "city": "四日市市",
    "town": "小牧町"
  },
  "5121304": {
    "zipcode": "5121304",
    "prefectureCode": "24",
    "prefectureNumber": 24,
    "prefecture": "三重県",
    "city": "四日市市",
    "town": "中野町"
  },
  "5121305": {
    "zipcode": "5121305",
    "prefectureCode": "24",
    "prefectureNumber": 24,
    "prefecture": "三重県",
    "city": "四日市市",
    "town": "西村町"
  },
  "5121306": {
    "zipcode": "5121306",
    "prefectureCode": "24",
    "prefectureNumber": 24,
    "prefecture": "三重県",
    "city": "四日市市",
    "town": "まきの木台"
  },
  "5128041": {
    "zipcode": "5128041",
    "prefectureCode": "24",
    "prefectureNumber": 24,
    "prefecture": "三重県",
    "city": "四日市市",
    "town": "山分町"
  },
  "5128042": {
    "zipcode": "5128042",
    "prefectureCode": "24",
    "prefectureNumber": 24,
    "prefecture": "三重県",
    "city": "四日市市",
    "town": "平津町"
  },
  "5128043": {
    "zipcode": "5128043",
    "prefectureCode": "24",
    "prefectureNumber": 24,
    "prefecture": "三重県",
    "city": "四日市市",
    "town": "平津新町"
  },
  "5128044": {
    "zipcode": "5128044",
    "prefectureCode": "24",
    "prefectureNumber": 24,
    "prefecture": "三重県",
    "city": "四日市市",
    "town": "中村町"
  },
  "5128045": {
    "zipcode": "5128045",
    "prefectureCode": "24",
    "prefectureNumber": 24,
    "prefecture": "三重県",
    "city": "四日市市",
    "town": "萱生町"
  },
  "5128046": {
    "zipcode": "5128046",
    "prefectureCode": "24",
    "prefectureNumber": 24,
    "prefecture": "三重県",
    "city": "四日市市",
    "town": "あかつき台"
  },
  "5128047": {
    "zipcode": "5128047",
    "prefectureCode": "24",
    "prefectureNumber": 24,
    "prefecture": "三重県",
    "city": "四日市市",
    "town": "八千代台"
  },
  "5128048": {
    "zipcode": "5128048",
    "prefectureCode": "24",
    "prefectureNumber": 24,
    "prefecture": "三重県",
    "city": "四日市市",
    "town": "山城町"
  },
  "5128051": {
    "zipcode": "5128051",
    "prefectureCode": "24",
    "prefectureNumber": 24,
    "prefecture": "三重県",
    "city": "四日市市",
    "town": "北山町"
  },
  "5128052": {
    "zipcode": "5128052",
    "prefectureCode": "24",
    "prefectureNumber": 24,
    "prefecture": "三重県",
    "city": "四日市市",
    "town": "西大鐘町"
  },
  "5128053": {
    "zipcode": "5128053",
    "prefectureCode": "24",
    "prefectureNumber": 24,
    "prefecture": "三重県",
    "city": "四日市市",
    "town": "大鐘町"
  },
  "5128054": {
    "zipcode": "5128054",
    "prefectureCode": "24",
    "prefectureNumber": 24,
    "prefecture": "三重県",
    "city": "四日市市",
    "town": "朝明町"
  },
  "5128055": {
    "zipcode": "5128055",
    "prefectureCode": "24",
    "prefectureNumber": 24,
    "prefecture": "三重県",
    "city": "四日市市",
    "town": "あさけが丘"
  },
  "5128056": {
    "zipcode": "5128056",
    "prefectureCode": "24",
    "prefectureNumber": 24,
    "prefecture": "三重県",
    "city": "四日市市",
    "town": "札場町"
  },
  "5128061": {
    "zipcode": "5128061",
    "prefectureCode": "24",
    "prefectureNumber": 24,
    "prefecture": "三重県",
    "city": "四日市市",
    "town": "広永町"
  },
  "5128062": {
    "zipcode": "5128062",
    "prefectureCode": "24",
    "prefectureNumber": 24,
    "prefecture": "三重県",
    "city": "四日市市",
    "town": "黄金町"
  },
  "5128063": {
    "zipcode": "5128063",
    "prefectureCode": "24",
    "prefectureNumber": 24,
    "prefecture": "三重県",
    "city": "四日市市",
    "town": "山村町"
  },
  "5128064": {
    "zipcode": "5128064",
    "prefectureCode": "24",
    "prefectureNumber": 24,
    "prefecture": "三重県",
    "city": "四日市市",
    "town": "伊坂町"
  },
  "5128065": {
    "zipcode": "5128065",
    "prefectureCode": "24",
    "prefectureNumber": 24,
    "prefecture": "三重県",
    "city": "四日市市",
    "town": "千代田町"
  },
  "5128066": {
    "zipcode": "5128066",
    "prefectureCode": "24",
    "prefectureNumber": 24,
    "prefecture": "三重県",
    "city": "四日市市",
    "town": "伊坂台"
  }
}
