{
  "5140000": {
    "zipcode": "5140000",
    "prefectureCode": "24",
    "prefectureNumber": 24,
    "prefecture": "三重県",
    "city": "津市",
    "town": "以下に掲載がない場合"
  },
  "5140001": {
    "zipcode": "5140001",
    "prefectureCode": "24",
    "prefectureNumber": 24,
    "prefecture": "三重県",
    "city": "津市",
    "town": "江戸橋"
  },
  "5140002": {
    "zipcode": "5140002",
    "prefectureCode": "24",
    "prefectureNumber": 24,
    "prefecture": "三重県",
    "city": "津市",
    "town": "島崎町"
  },
  "5140003": {
    "zipcode": "5140003",
    "prefectureCode": "24",
    "prefectureNumber": 24,
    "prefecture": "三重県",
    "city": "津市",
    "town": "桜橋"
  },
  "5140004": {
    "zipcode": "5140004",
    "prefectureCode": "24",
    "prefectureNumber": 24,
    "prefecture": "三重県",
    "city": "津市",
    "town": "栄町"
  },
  "5140005": {
    "zipcode": "5140005",
    "prefectureCode": "24",
    "prefectureNumber": 24,
    "prefecture": "三重県",
    "city": "津市",
    "town": "鳥居町"
  },
  "5140006": {
    "zipcode": "5140006",
    "prefectureCode": "24",
    "prefectureNumber": 24,
    "prefecture": "三重県",
    "city": "津市",
    "town": "広明町"
  },
  "5140007": {
    "zipcode": "5140007",
    "prefectureCode": "24",
    "prefectureNumber": 24,
    "prefecture": "三重県",
    "city": "津市",
    "town": "大谷町"
  },
  "5140008": {
    "zipcode": "5140008",
    "prefectureCode": "24",
    "prefectureNumber": 24,
    "prefecture": "三重県",
    "city": "津市",
    "town": "上浜町"
  },
  "5140009": {
    "zipcode": "5140009",
    "prefectureCode": "24",
    "prefectureNumber": 24,
    "prefecture": "三重県",
    "city": "津市",
    "town": "羽所町"
  },
  "5140010": {
    "zipcode": "5140010",
    "prefectureCode": "24",
    "prefectureNumber": 24,
    "prefecture": "三重県",
    "city": "津市",
    "town": "なぎさまち"
  },
  "5140011": {
    "zipcode": "5140011",
    "prefectureCode": "24",
    "prefectureNumber": 24,
    "prefecture": "三重県",
    "city": "津市",
    "town": "高洲町"
  },
  "5140012": {
    "zipcode": "5140012",
    "prefectureCode": "24",
    "prefectureNumber": 24,
    "prefecture": "三重県",
    "city": "津市",
    "town": "末広町"
  },
  "5140013": {
    "zipcode": "5140013",
    "prefectureCode": "24",
    "prefectureNumber": 24,
    "prefecture": "三重県",
    "city": "津市",
    "town": "海岸町"
  },
  "5140014": {
    "zipcode": "5140014",
    "prefectureCode": "24",
    "prefectureNumber": 24,
    "prefecture": "三重県",
    "city": "津市",
    "town": "港町"
  },
  "5140015": {
    "zipcode": "5140015",
    "prefectureCode": "24",
    "prefectureNumber": 24,
    "prefecture": "三重県",
    "city": "津市",
    "town": "寿町"
  },
  "5140016": {
    "zipcode": "5140016",
    "prefectureCode": "24",
    "prefectureNumber": 24,
    "prefecture": "三重県",
    "city": "津市",
    "town": "乙部"
  },
  "5140017": {
    "zipcode": "5140017",
    "prefectureCode": "24",
    "prefectureNumber": 24,
    "prefecture": "三重県",
    "city": "津市",
    "town": "相生町"
  },
  "5140018": {
    "zipcode": "5140018",
    "prefectureCode": "24",
    "prefectureNumber": 24,
    "prefecture": "三重県",
    "city": "津市",
    "town": "中河原"
  },
  "5140019": {
    "zipcode": "5140019",
    "prefectureCode": "24",
    "prefectureNumber": 24,
    "prefecture": "三重県",
    "city": "津市",
    "town": "住吉町"
  },
  "5140021": {
    "zipcode": "5140021",
    "prefectureCode": "24",
    "prefectureNumber": 24,
    "prefecture": "三重県",
    "city": "津市",
    "town": "万町津"
  },
  "5140022": {
    "zipcode": "5140022",
    "prefectureCode": "24",
    "prefectureNumber": 24,
    "prefecture": "三重県",
    "city": "津市",
    "town": "愛宕町"
  },
  "5140023": {
    "zipcode": "5140023",
    "prefectureCode": "24",
    "prefectureNumber": 24,
    "prefecture": "三重県",
    "city": "津市",
    "town": "北町津"
  },
  "5140024": {
    "zipcode": "5140024",
    "prefectureCode": "24",
    "prefectureNumber": 24,
    "prefecture": "三重県",
    "city": "津市",
    "town": "新立町津"
  },
  "5140025": {
    "zipcode": "5140025",
    "prefectureCode": "24",
    "prefectureNumber": 24,
    "prefecture": "三重県",
    "city": "津市",
    "town": "東町津"
  },
  "5140026": {
    "zipcode": "5140026",
    "prefectureCode": "24",
    "prefectureNumber": 24,
    "prefecture": "三重県",
    "city": "津市",
    "town": "新東町塔世"
  },
  "5140027": {
    "zipcode": "5140027",
    "prefectureCode": "24",
    "prefectureNumber": 24,
    "prefecture": "三重県",
    "city": "津市",
    "town": "大門"
  },
  "5140028": {
    "zipcode": "5140028",
    "prefectureCode": "24",
    "prefectureNumber": 24,
    "prefecture": "三重県",
    "city": "津市",
    "town": "東丸之内"
  },
  "5140031": {
    "zipcode": "5140031",
    "prefectureCode": "24",
    "prefectureNumber": 24,
    "prefecture": "三重県",
    "city": "津市",
    "town": "北丸之内"
  },
  "5140032": {
    "zipcode": "5140032",
    "prefectureCode": "24",
    "prefectureNumber": 24,
    "prefecture": "三重県",
    "city": "津市",
    "town": "中央"
  },
  "5140033": {
    "zipcode": "5140033",
    "prefectureCode": "24",
    "prefectureNumber": 24,
    "prefecture": "三重県",
    "city": "津市",
    "town": "丸之内"
  },
  "5140034": {
    "zipcode": "5140034",
    "prefectureCode": "24",
    "prefectureNumber": 24,
    "prefecture": "三重県",
    "city": "津市",
    "town": "南丸之内"
  },
  "5140035": {
    "zipcode": "5140035",
    "prefectureCode": "24",
    "prefectureNumber": 24,
    "prefecture": "三重県",
    "city": "津市",
    "town": "西丸之内"
  },
  "5140036": {
    "zipcode": "5140036",
    "prefectureCode": "24",
    "prefectureNumber": 24,
    "prefecture": "三重県",
    "city": "津市",
    "town": "丸之内養正町"
  },
  "5140037": {
    "zipcode": "5140037",
    "prefectureCode": "24",
    "prefectureNumber": 24,
    "prefecture": "三重県",
    "city": "津市",
    "town": "東古河町"
  },
  "5140038": {
    "zipcode": "5140038",
    "prefectureCode": "24",
    "prefectureNumber": 24,
    "prefecture": "三重県",
    "city": "津市",
    "town": "西古河町"
  },
  "5140039": {
    "zipcode": "5140039",
    "prefectureCode": "24",
    "prefectureNumber": 24,
    "prefecture": "三重県",
    "city": "津市",
    "town": "押加部町"
  },
  "5140041": {
    "zipcode": "5140041",
    "prefectureCode": "24",
    "prefectureNumber": 24,
    "prefecture": "三重県",
    "city": "津市",
    "town": "八町"
  },
  "5140042": {
    "zipcode": "5140042",
    "prefectureCode": "24",
    "prefectureNumber": 24,
    "prefecture": "三重県",
    "city": "津市",
    "town": "新町"
  },
  "5140043": {
    "zipcode": "5140043",
    "prefectureCode": "24",
    "prefectureNumber": 24,
    "prefecture": "三重県",
    "city": "津市",
    "town": "南新町"
  },
  "5140044": {
    "zipcode": "5140044",
    "prefectureCode": "24",
    "prefectureNumber": 24,
    "prefecture": "三重県",
    "city": "津市",
    "town": "川添町"
  },
  "5140045": {
    "zipcode": "5140045",
    "prefectureCode": "24",
    "prefectureNumber": 24,
    "prefecture": "三重県",
    "city": "津市",
    "town": "美川町"
  },
  "5140046": {
    "zipcode": "5140046",
    "prefectureCode": "24",
    "prefectureNumber": 24,
    "prefecture": "三重県",
    "city": "津市",
    "town": "大園町"
  },
  "5140047": {
    "zipcode": "5140047",
    "prefectureCode": "24",
    "prefectureNumber": 24,
    "prefecture": "三重県",
    "city": "津市",
    "town": "桜田町"
  },
  "5140051": {
    "zipcode": "5140051",
    "prefectureCode": "24",
    "prefectureNumber": 24,
    "prefecture": "三重県",
    "city": "津市",
    "town": "納所町"
  },
  "5140052": {
    "zipcode": "5140052",
    "prefectureCode": "24",
    "prefectureNumber": 24,
    "prefecture": "三重県",
    "city": "津市",
    "town": "神納町"
  },
  "5140053": {
    "zipcode": "5140053",
    "prefectureCode": "24",
    "prefectureNumber": 24,
    "prefecture": "三重県",
    "city": "津市",
    "town": "博多町"
  },
  "5140054": {
    "zipcode": "5140054",
    "prefectureCode": "24",
    "prefectureNumber": 24,
    "prefecture": "三重県",
    "city": "津市",
    "town": "神納"
  },
  "5140055": {
    "zipcode": "5140055",
    "prefectureCode": "24",
    "prefectureNumber": 24,
    "prefecture": "三重県",
    "city": "津市",
    "town": "南河路"
  },
  "5140056": {
    "zipcode": "5140056",
    "prefectureCode": "24",
    "prefectureNumber": 24,
    "prefecture": "三重県",
    "city": "津市",
    "town": "北河路町"
  },
  "5140057": {
    "zipcode": "5140057",
    "prefectureCode": "24",
    "prefectureNumber": 24,
    "prefecture": "三重県",
    "city": "津市",
    "town": "一色町"
  },
  "5140058": {
    "zipcode": "5140058",
    "prefectureCode": "24",
    "prefectureNumber": 24,
    "prefecture": "三重県",
    "city": "津市",
    "town": "安東町"
  },
  "5140061": {
    "zipcode": "5140061",
    "prefectureCode": "24",
    "prefectureNumber": 24,
    "prefecture": "三重県",
    "city": "津市",
    "town": "一身田上津部田"
  },
  "5140062": {
    "zipcode": "5140062",
    "prefectureCode": "24",
    "prefectureNumber": 24,
    "prefecture": "三重県",
    "city": "津市",
    "town": "観音寺町"
  },
  "5140063": {
    "zipcode": "5140063",
    "prefectureCode": "24",
    "prefectureNumber": 24,
    "prefecture": "三重県",
    "city": "津市",
    "town": "渋見町"
  },
  "5140064": {
    "zipcode": "5140064",
    "prefectureCode": "24",
    "prefectureNumber": 24,
    "prefecture": "三重県",
    "city": "津市",
    "town": "長岡町"
  },
  "5140065": {
    "zipcode": "5140065",
    "prefectureCode": "24",
    "prefectureNumber": 24,
    "prefecture": "三重県",
    "city": "津市",
    "town": "河辺町"
  },
  "5140071": {
    "zipcode": "5140071",
    "prefectureCode": "24",
    "prefectureNumber": 24,
    "prefecture": "三重県",
    "city": "津市",
    "town": "分部"
  },
  "5140072": {
    "zipcode": "5140072",
    "prefectureCode": "24",
    "prefectureNumber": 24,
    "prefecture": "三重県",
    "city": "津市",
    "town": "小舟"
  },
  "5140073": {
    "zipcode": "5140073",
    "prefectureCode": "24",
    "prefectureNumber": 24,
    "prefecture": "三重県",
    "city": "津市",
    "town": "殿村"
  },
  "5140074": {
    "zipcode": "5140074",
    "prefectureCode": "24",
    "prefectureNumber": 24,
    "prefecture": "三重県",
    "city": "津市",
    "town": "片田長谷場町"
  },
  "5140075": {
    "zipcode": "5140075",
    "prefectureCode": "24",
    "prefectureNumber": 24,
    "prefecture": "三重県",
    "city": "津市",
    "town": "片田志袋町"
  },
  "5140076": {
    "zipcode": "5140076",
    "prefectureCode": "24",
    "prefectureNumber": 24,
    "prefecture": "三重県",
    "city": "津市",
    "town": "産品"
  },
  "5140077": {
    "zipcode": "5140077",
    "prefectureCode": "24",
    "prefectureNumber": 24,
    "prefecture": "三重県",
    "city": "津市",
    "town": "片田長谷町"
  },
  "5140081": {
    "zipcode": "5140081",
    "prefectureCode": "24",
    "prefectureNumber": 24,
    "prefecture": "三重県",
    "city": "津市",
    "town": "片田田中町"
  },
  "5140082": {
    "zipcode": "5140082",
    "prefectureCode": "24",
    "prefectureNumber": 24,
    "prefecture": "三重県",
    "city": "津市",
    "town": "片田井戸町"
  },
  "5140083": {
    "zipcode": "5140083",
    "prefectureCode": "24",
    "prefectureNumber": 24,
    "prefecture": "三重県",
    "city": "津市",
    "town": "片田新町"
  },
  "5140084": {
    "zipcode": "5140084",
    "prefectureCode": "24",
    "prefectureNumber": 24,
    "prefecture": "三重県",
    "city": "津市",
    "town": "片田町"
  },
  "5140085": {
    "zipcode": "5140085",
    "prefectureCode": "24",
    "prefectureNumber": 24,
    "prefecture": "三重県",
    "city": "津市",
    "town": "片田久保町"
  },
  "5140086": {
    "zipcode": "5140086",
    "prefectureCode": "24",
    "prefectureNumber": 24,
    "prefecture": "三重県",
    "city": "津市",
    "town": "片田薬王寺町"
  },
  "5140101": {
    "zipcode": "5140101",
    "prefectureCode": "24",
    "prefectureNumber": 24,
    "prefecture": "三重県",
    "city": "津市",
    "town": "白塚町"
  },
  "5140102": {
    "zipcode": "5140102",
    "prefectureCode": "24",
    "prefectureNumber": 24,
    "prefecture": "三重県",
    "city": "津市",
    "town": "栗真町屋町"
  },
  "5140103": {
    "zipcode": "5140103",
    "prefectureCode": "24",
    "prefectureNumber": 24,
    "prefecture": "三重県",
    "city": "津市",
    "town": "栗真中山町"
  },
  "5140104": {
    "zipcode": "5140104",
    "prefectureCode": "24",
    "prefectureNumber": 24,
    "prefecture": "三重県",
    "city": "津市",
    "town": "栗真小川町"
  },
  "5140111": {
    "zipcode": "5140111",
    "prefectureCode": "24",
    "prefectureNumber": 24,
    "prefecture": "三重県",
    "city": "津市",
    "town": "一身田平野"
  },
  "5140112": {
    "zipcode": "5140112",
    "prefectureCode": "24",
    "prefectureNumber": 24,
    "prefecture": "三重県",
    "city": "津市",
    "town": "一身田中野"
  },
  "5140113": {
    "zipcode": "5140113",
    "prefectureCode": "24",
    "prefectureNumber": 24,
    "prefecture": "三重県",
    "city": "津市",
    "town": "一身田大古曽"
  },
  "5140114": {
    "zipcode": "5140114",
    "prefectureCode": "24",
    "prefectureNumber": 24,
    "prefecture": "三重県",
    "city": "津市",
    "town": "一身田町"
  },
  "5140115": {
    "zipcode": "5140115",
    "prefectureCode": "24",
    "prefectureNumber": 24,
    "prefecture": "三重県",
    "city": "津市",
    "town": "一身田豊野"
  },
  "5140116": {
    "zipcode": "5140116",
    "prefectureCode": "24",
    "prefectureNumber": 24,
    "prefecture": "三重県",
    "city": "津市",
    "town": "夢が丘"
  },
  "5140121": {
    "zipcode": "5140121",
    "prefectureCode": "24",
    "prefectureNumber": 24,
    "prefecture": "三重県",
    "city": "津市",
    "town": "大里山室町"
  },
  "5140122": {
    "zipcode": "5140122",
    "prefectureCode": "24",
    "prefectureNumber": 24,
    "prefecture": "三重県",
    "city": "津市",
    "town": "大里野田町"
  },
  "5140123": {
    "zipcode": "5140123",
    "prefectureCode": "24",
    "prefectureNumber": 24,
    "prefecture": "三重県",
    "city": "津市",
    "town": "大里小野田町"
  },
  "5140124": {
    "zipcode": "5140124",
    "prefectureCode": "24",
    "prefectureNumber": 24,
    "prefecture": "三重県",
    "city": "津市",
    "town": "大里川北町"
  },
  "5140125": {
    "zipcode": "5140125",
    "prefectureCode": "24",
    "prefectureNumber": 24,
    "prefecture": "三重県",
    "city": "津市",
    "town": "大里窪田町"
  },
  "5140126": {
    "zipcode": "5140126",
    "prefectureCode": "24",
    "prefectureNumber": 24,
    "prefecture": "三重県",
    "city": "津市",
    "town": "大里睦合町"
  },
  "5140131": {
    "zipcode": "5140131",
    "prefectureCode": "24",
    "prefectureNumber": 24,
    "prefecture": "三重県",
    "city": "津市",
    "town": "あのつ台"
  },
  "5140301": {
    "zipcode": "5140301",
    "prefectureCode": "24",
    "prefectureNumber": 24,
    "prefecture": "三重県",
    "city": "津市",
    "town": "雲出鋼管町"
  },
  "5140302": {
    "zipcode": "5140302",
    "prefectureCode": "24",
    "prefectureNumber": 24,
    "prefecture": "三重県",
    "city": "津市",
    "town": "雲出伊倉津町"
  },
  "5140303": {
    "zipcode": "5140303",
    "prefectureCode": "24",
    "prefectureNumber": 24,
    "prefecture": "三重県",
    "city": "津市",
    "town": "雲出長常町"
  },
  "5140304": {
    "zipcode": "5140304",
    "prefectureCode": "24",
    "prefectureNumber": 24,
    "prefecture": "三重県",
    "city": "津市",
    "town": "雲出本郷町"
  },
  "5140305": {
    "zipcode": "5140305",
    "prefectureCode": "24",
    "prefectureNumber": 24,
    "prefecture": "三重県",
    "city": "津市",
    "town": "雲出島貫町"
  },
  "5140311": {
    "zipcode": "5140311",
    "prefectureCode": "24",
    "prefectureNumber": 24,
    "prefecture": "三重県",
    "city": "津市",
    "town": "香良洲町（稲葉）"
  },
  "5140312": {
    "zipcode": "5140312",
    "prefectureCode": "24",
    "prefectureNumber": 24,
    "prefecture": "三重県",
    "city": "津市",
    "town": "香良洲町（小松）"
  },
  "5140313": {
    "zipcode": "5140313",
    "prefectureCode": "24",
    "prefectureNumber": 24,
    "prefecture": "三重県",
    "city": "津市",
    "town": "香良洲町（浜浦）"
  },
  "5140314": {
    "zipcode": "5140314",
    "prefectureCode": "24",
    "prefectureNumber": 24,
    "prefecture": "三重県",
    "city": "津市",
    "town": "香良洲町（高砂）"
  },
  "5140315": {
    "zipcode": "5140315",
    "prefectureCode": "24",
    "prefectureNumber": 24,
    "prefecture": "三重県",
    "city": "津市",
    "town": "香良洲町（その他）"
  },
  "5140321": {
    "zipcode": "5140321",
    "prefectureCode": "24",
    "prefectureNumber": 24,
    "prefecture": "三重県",
    "city": "津市",
    "town": "香良洲町（砂原）"
  },
  "5140323": {
    "zipcode": "5140323",
    "prefectureCode": "24",
    "prefectureNumber": 24,
    "prefecture": "三重県",
    "city": "津市",
    "town": "香良洲町（馬場）"
  },
  "5140324": {
    "zipcode": "5140324",
    "prefectureCode": "24",
    "prefectureNumber": 24,
    "prefecture": "三重県",
    "city": "津市",
    "town": "香良洲町（地家）"
  },
  "5140325": {
    "zipcode": "5140325",
    "prefectureCode": "24",
    "prefectureNumber": 24,
    "prefecture": "三重県",
    "city": "津市",
    "town": "香良洲町（桜町）"
  },
  "5140326": {
    "zipcode": "5140326",
    "prefectureCode": "24",
    "prefectureNumber": 24,
    "prefecture": "三重県",
    "city": "津市",
    "town": "香良洲町（川原）"
  },
  "5140801": {
    "zipcode": "5140801",
    "prefectureCode": "24",
    "prefectureNumber": 24,
    "prefecture": "三重県",
    "city": "津市",
    "town": "船頭町津興"
  },
  "5140802": {
    "zipcode": "5140802",
    "prefectureCode": "24",
    "prefectureNumber": 24,
    "prefecture": "三重県",
    "city": "津市",
    "town": "三重町津興"
  },
  "5140803": {
    "zipcode": "5140803",
    "prefectureCode": "24",
    "prefectureNumber": 24,
    "prefecture": "三重県",
    "city": "津市",
    "town": "柳山津興"
  },
  "5140804": {
    "zipcode": "5140804",
    "prefectureCode": "24",
    "prefectureNumber": 24,
    "prefecture": "三重県",
    "city": "津市",
    "town": "上弁財町津興"
  },
  "5140805": {
    "zipcode": "5140805",
    "prefectureCode": "24",
    "prefectureNumber": 24,
    "prefecture": "三重県",
    "city": "津市",
    "town": "下弁財町津興"
  },
  "5140806": {
    "zipcode": "5140806",
    "prefectureCode": "24",
    "prefectureNumber": 24,
    "prefecture": "三重県",
    "city": "津市",
    "town": "上弁財町"
  },
  "5140811": {
    "zipcode": "5140811",
    "prefectureCode": "24",
    "prefectureNumber": 24,
    "prefecture": "三重県",
    "city": "津市",
    "town": "阿漕町"
  },
  "5140812": {
    "zipcode": "5140812",
    "prefectureCode": "24",
    "prefectureNumber": 24,
    "prefecture": "三重県",
    "city": "津市",
    "town": "津興"
  },
  "5140813": {
    "zipcode": "5140813",
    "prefectureCode": "24",
    "prefectureNumber": 24,
    "prefecture": "三重県",
    "city": "津市",
    "town": "八幡町"
  },
  "5140814": {
    "zipcode": "5140814",
    "prefectureCode": "24",
    "prefectureNumber": 24,
    "prefecture": "三重県",
    "city": "津市",
    "town": "藤枝町"
  },
  "5140815": {
    "zipcode": "5140815",
    "prefectureCode": "24",
    "prefectureNumber": 24,
    "prefecture": "三重県",
    "city": "津市",
    "town": "藤方"
  },
  "5140816": {
    "zipcode": "5140816",
    "prefectureCode": "24",
    "prefectureNumber": 24,
    "prefecture": "三重県",
    "city": "津市",
    "town": "高茶屋小森上野町"
  },
  "5140817": {
    "zipcode": "5140817",
    "prefectureCode": "24",
    "prefectureNumber": 24,
    "prefecture": "三重県",
    "city": "津市",
    "town": "高茶屋小森町"
  },
  "5140818": {
    "zipcode": "5140818",
    "prefectureCode": "24",
    "prefectureNumber": 24,
    "prefecture": "三重県",
    "city": "津市",
    "town": "城山"
  },
  "5140819": {
    "zipcode": "5140819",
    "prefectureCode": "24",
    "prefectureNumber": 24,
    "prefecture": "三重県",
    "city": "津市",
    "town": "高茶屋"
  },
  "5140821": {
    "zipcode": "5140821",
    "prefectureCode": "24",
    "prefectureNumber": 24,
    "prefecture": "三重県",
    "city": "津市",
    "town": "垂水"
  },
  "5140822": {
    "zipcode": "5140822",
    "prefectureCode": "24",
    "prefectureNumber": 24,
    "prefecture": "三重県",
    "city": "津市",
    "town": "南が丘"
  },
  "5140823": {
    "zipcode": "5140823",
    "prefectureCode": "24",
    "prefectureNumber": 24,
    "prefecture": "三重県",
    "city": "津市",
    "town": "半田"
  },
  "5140824": {
    "zipcode": "5140824",
    "prefectureCode": "24",
    "prefectureNumber": 24,
    "prefecture": "三重県",
    "city": "津市",
    "town": "神戸"
  },
  "5140825": {
    "zipcode": "5140825",
    "prefectureCode": "24",
    "prefectureNumber": 24,
    "prefecture": "三重県",
    "city": "津市",
    "town": "緑が丘"
  },
  "5140826": {
    "zipcode": "5140826",
    "prefectureCode": "24",
    "prefectureNumber": 24,
    "prefecture": "三重県",
    "city": "津市",
    "town": "野田"
  },
  "5140831": {
    "zipcode": "5140831",
    "prefectureCode": "24",
    "prefectureNumber": 24,
    "prefecture": "三重県",
    "city": "津市",
    "town": "本町"
  },
  "5140832": {
    "zipcode": "5140832",
    "prefectureCode": "24",
    "prefectureNumber": 24,
    "prefecture": "三重県",
    "city": "津市",
    "town": "南中央"
  },
  "5140833": {
    "zipcode": "5140833",
    "prefectureCode": "24",
    "prefectureNumber": 24,
    "prefecture": "三重県",
    "city": "津市",
    "town": "西阿漕町岩田"
  },
  "5140834": {
    "zipcode": "5140834",
    "prefectureCode": "24",
    "prefectureNumber": 24,
    "prefecture": "三重県",
    "city": "津市",
    "town": "大倉"
  },
  "5140835": {
    "zipcode": "5140835",
    "prefectureCode": "24",
    "prefectureNumber": 24,
    "prefecture": "三重県",
    "city": "津市",
    "town": "幸町"
  },
  "5140836": {
    "zipcode": "5140836",
    "prefectureCode": "24",
    "prefectureNumber": 24,
    "prefecture": "三重県",
    "city": "津市",
    "town": "野崎垣内岩田"
  },
  "5140837": {
    "zipcode": "5140837",
    "prefectureCode": "24",
    "prefectureNumber": 24,
    "prefecture": "三重県",
    "city": "津市",
    "town": "修成町"
  },
  "5140838": {
    "zipcode": "5140838",
    "prefectureCode": "24",
    "prefectureNumber": 24,
    "prefecture": "三重県",
    "city": "津市",
    "town": "岩田"
  },
  "5141101": {
    "zipcode": "5141101",
    "prefectureCode": "24",
    "prefectureNumber": 24,
    "prefecture": "三重県",
    "city": "津市",
    "town": "久居明神町"
  },
  "5141102": {
    "zipcode": "5141102",
    "prefectureCode": "24",
    "prefectureNumber": 24,
    "prefecture": "三重県",
    "city": "津市",
    "town": "久居藤ケ丘町"
  },
  "5141103": {
    "zipcode": "5141103",
    "prefectureCode": "24",
    "prefectureNumber": 24,
    "prefecture": "三重県",
    "city": "津市",
    "town": "久居相川町"
  },
  "5141104": {
    "zipcode": "5141104",
    "prefectureCode": "24",
    "prefectureNumber": 24,
    "prefecture": "三重県",
    "city": "津市",
    "town": "久居持川町"
  },
  "5141105": {
    "zipcode": "5141105",
    "prefectureCode": "24",
    "prefectureNumber": 24,
    "prefecture": "三重県",
    "city": "津市",
    "town": "久居北口町"
  },
  "5141106": {
    "zipcode": "5141106",
    "prefectureCode": "24",
    "prefectureNumber": 24,
    "prefecture": "三重県",
    "city": "津市",
    "town": "久居寺町"
  },
  "5141107": {
    "zipcode": "5141107",
    "prefectureCode": "24",
    "prefectureNumber": 24,
    "prefecture": "三重県",
    "city": "津市",
    "town": "久居中町"
  },
  "5141108": {
    "zipcode": "5141108",
    "prefectureCode": "24",
    "prefectureNumber": 24,
    "prefecture": "三重県",
    "city": "津市",
    "town": "久居射場町"
  },
  "5141109": {
    "zipcode": "5141109",
    "prefectureCode": "24",
    "prefectureNumber": 24,
    "prefecture": "三重県",
    "city": "津市",
    "town": "久居烏木町"
  },
  "5141111": {
    "zipcode": "5141111",
    "prefectureCode": "24",
    "prefectureNumber": 24,
    "prefecture": "三重県",
    "city": "津市",
    "town": "久居桜が丘町"
  },
  "5141112": {
    "zipcode": "5141112",
    "prefectureCode": "24",
    "prefectureNumber": 24,
    "prefecture": "三重県",
    "city": "津市",
    "town": "久居小野辺町"
  },
  "5141113": {
    "zipcode": "5141113",
    "prefectureCode": "24",
    "prefectureNumber": 24,
    "prefecture": "三重県",
    "city": "津市",
    "town": "久居野村町"
  },
  "5141114": {
    "zipcode": "5141114",
    "prefectureCode": "24",
    "prefectureNumber": 24,
    "prefecture": "三重県",
    "city": "津市",
    "town": "久居井戸山町"
  },
  "5141115": {
    "zipcode": "5141115",
    "prefectureCode": "24",
    "prefectureNumber": 24,
    "prefecture": "三重県",
    "city": "津市",
    "town": "木造町"
  },
  "5141116": {
    "zipcode": "5141116",
    "prefectureCode": "24",
    "prefectureNumber": 24,
    "prefecture": "三重県",
    "city": "津市",
    "town": "新家町"
  },
  "5141117": {
    "zipcode": "5141117",
    "prefectureCode": "24",
    "prefectureNumber": 24,
    "prefecture": "三重県",
    "city": "津市",
    "town": "久居野口町"
  },
  "5141118": {
    "zipcode": "5141118",
    "prefectureCode": "24",
    "prefectureNumber": 24,
    "prefecture": "三重県",
    "city": "津市",
    "town": "久居新町"
  },
  "5141121": {
    "zipcode": "5141121",
    "prefectureCode": "24",
    "prefectureNumber": 24,
    "prefecture": "三重県",
    "city": "津市",
    "town": "久居二ノ町"
  },
  "5141122": {
    "zipcode": "5141122",
    "prefectureCode": "24",
    "prefectureNumber": 24,
    "prefecture": "三重県",
    "city": "津市",
    "town": "川方町"
  },
  "5141123": {
    "zipcode": "5141123",
    "prefectureCode": "24",
    "prefectureNumber": 24,
    "prefecture": "三重県",
    "city": "津市",
    "town": "牧町"
  },
  "5141124": {
    "zipcode": "5141124",
    "prefectureCode": "24",
    "prefectureNumber": 24,
    "prefecture": "三重県",
    "city": "津市",
    "town": "須ケ瀬町"
  },
  "5141125": {
    "zipcode": "5141125",
    "prefectureCode": "24",
    "prefectureNumber": 24,
    "prefecture": "三重県",
    "city": "津市",
    "town": "久居元町"
  },
  "5141131": {
    "zipcode": "5141131",
    "prefectureCode": "24",
    "prefectureNumber": 24,
    "prefecture": "三重県",
    "city": "津市",
    "town": "久居西鷹跡町"
  },
  "5141132": {
    "zipcode": "5141132",
    "prefectureCode": "24",
    "prefectureNumber": 24,
    "prefecture": "三重県",
    "city": "津市",
    "town": "久居幸町"
  },
  "5141133": {
    "zipcode": "5141133",
    "prefectureCode": "24",
    "prefectureNumber": 24,
    "prefecture": "三重県",
    "city": "津市",
    "town": "久居万町"
  },
  "5141134": {
    "zipcode": "5141134",
    "prefectureCode": "24",
    "prefectureNumber": 24,
    "prefecture": "三重県",
    "city": "津市",
    "town": "久居旅籠町"
  },
  "5141135": {
    "zipcode": "5141135",
    "prefectureCode": "24",
    "prefectureNumber": 24,
    "prefecture": "三重県",
    "city": "津市",
    "town": "久居本町"
  },
  "5141136": {
    "zipcode": "5141136",
    "prefectureCode": "24",
    "prefectureNumber": 24,
    "prefecture": "三重県",
    "city": "津市",
    "town": "久居東鷹跡町"
  },
  "5141137": {
    "zipcode": "5141137",
    "prefectureCode": "24",
    "prefectureNumber": 24,
    "prefecture": "三重県",
    "city": "津市",
    "town": "久居小戸木町"
  },
  "5141138": {
    "zipcode": "5141138",
    "prefectureCode": "24",
    "prefectureNumber": 24,
    "prefecture": "三重県",
    "city": "津市",
    "town": "戸木町"
  },
  "5141139": {
    "zipcode": "5141139",
    "prefectureCode": "24",
    "prefectureNumber": 24,
    "prefecture": "三重県",
    "city": "津市",
    "town": "青葉台"
  },
  "5141251": {
    "zipcode": "5141251",
    "prefectureCode": "24",
    "prefectureNumber": 24,
    "prefecture": "三重県",
    "city": "津市",
    "town": "榊原町"
  },
  "5141252": {
    "zipcode": "5141252",
    "prefectureCode": "24",
    "prefectureNumber": 24,
    "prefecture": "三重県",
    "city": "津市",
    "town": "稲葉町"
  },
  "5141253": {
    "zipcode": "5141253",
    "prefectureCode": "24",
    "prefectureNumber": 24,
    "prefecture": "三重県",
    "city": "津市",
    "town": "久居一色町"
  },
  "5141254": {
    "zipcode": "5141254",
    "prefectureCode": "24",
    "prefectureNumber": 24,
    "prefecture": "三重県",
    "city": "津市",
    "town": "森町"
  },
  "5141255": {
    "zipcode": "5141255",
    "prefectureCode": "24",
    "prefectureNumber": 24,
    "prefecture": "三重県",
    "city": "津市",
    "town": "庄田町"
  },
  "5141256": {
    "zipcode": "5141256",
    "prefectureCode": "24",
    "prefectureNumber": 24,
    "prefecture": "三重県",
    "city": "津市",
    "town": "中村町"
  },
  "5141257": {
    "zipcode": "5141257",
    "prefectureCode": "24",
    "prefectureNumber": 24,
    "prefecture": "三重県",
    "city": "津市",
    "town": "大鳥町"
  },
  "5141258": {
    "zipcode": "5141258",
    "prefectureCode": "24",
    "prefectureNumber": 24,
    "prefecture": "三重県",
    "city": "津市",
    "town": "久居緑が丘町"
  },
  "5142101": {
    "zipcode": "5142101",
    "prefectureCode": "24",
    "prefectureNumber": 24,
    "prefecture": "三重県",
    "city": "津市",
    "town": "美里町高座原"
  },
  "5142102": {
    "zipcode": "5142102",
    "prefectureCode": "24",
    "prefectureNumber": 24,
    "prefecture": "三重県",
    "city": "津市",
    "town": "美里町船山"
  },
  "5142103": {
    "zipcode": "5142103",
    "prefectureCode": "24",
    "prefectureNumber": 24,
    "prefecture": "三重県",
    "city": "津市",
    "town": "美里町日南田"
  },
  "5142104": {
    "zipcode": "5142104",
    "prefectureCode": "24",
    "prefectureNumber": 24,
    "prefecture": "三重県",
    "city": "津市",
    "town": "美里町家所"
  },
  "5142105": {
    "zipcode": "5142105",
    "prefectureCode": "24",
    "prefectureNumber": 24,
    "prefecture": "三重県",
    "city": "津市",
    "town": "美里町五百野"
  },
  "5142106": {
    "zipcode": "5142106",
    "prefectureCode": "24",
    "prefectureNumber": 24,
    "prefecture": "三重県",
    "city": "津市",
    "town": "美里町足坂"
  },
  "5142107": {
    "zipcode": "5142107",
    "prefectureCode": "24",
    "prefectureNumber": 24,
    "prefecture": "三重県",
    "city": "津市",
    "town": "美里町穴倉"
  },
  "5142111": {
    "zipcode": "5142111",
    "prefectureCode": "24",
    "prefectureNumber": 24,
    "prefecture": "三重県",
    "city": "津市",
    "town": "美里町平木"
  },
  "5142112": {
    "zipcode": "5142112",
    "prefectureCode": "24",
    "prefectureNumber": 24,
    "prefecture": "三重県",
    "city": "津市",
    "town": "美里町北長野"
  },
  "5142113": {
    "zipcode": "5142113",
    "prefectureCode": "24",
    "prefectureNumber": 24,
    "prefecture": "三重県",
    "city": "津市",
    "town": "美里町三郷"
  },
  "5142114": {
    "zipcode": "5142114",
    "prefectureCode": "24",
    "prefectureNumber": 24,
    "prefecture": "三重県",
    "city": "津市",
    "town": "美里町南長野"
  },
  "5142115": {
    "zipcode": "5142115",
    "prefectureCode": "24",
    "prefectureNumber": 24,
    "prefecture": "三重県",
    "city": "津市",
    "town": "美里町桂畑"
  },
  "5142201": {
    "zipcode": "5142201",
    "prefectureCode": "24",
    "prefectureNumber": 24,
    "prefecture": "三重県",
    "city": "津市",
    "town": "芸濃町楠原"
  },
  "5142202": {
    "zipcode": "5142202",
    "prefectureCode": "24",
    "prefectureNumber": 24,
    "prefecture": "三重県",
    "city": "津市",
    "town": "芸濃町林"
  },
  "5142203": {
    "zipcode": "5142203",
    "prefectureCode": "24",
    "prefectureNumber": 24,
    "prefecture": "三重県",
    "city": "津市",
    "town": "芸濃町中縄"
  },
  "5142204": {
    "zipcode": "5142204",
    "prefectureCode": "24",
    "prefectureNumber": 24,
    "prefecture": "三重県",
    "city": "津市",
    "town": "芸濃町雲林院"
  },
  "5142205": {
    "zipcode": "5142205",
    "prefectureCode": "24",
    "prefectureNumber": 24,
    "prefecture": "三重県",
    "city": "津市",
    "town": "芸濃町多門"
  },
  "5142206": {
    "zipcode": "5142206",
    "prefectureCode": "24",
    "prefectureNumber": 24,
    "prefecture": "三重県",
    "city": "津市",
    "town": "芸濃町小野平"
  },
  "5142207": {
    "zipcode": "5142207",
    "prefectureCode": "24",
    "prefectureNumber": 24,
    "prefecture": "三重県",
    "city": "津市",
    "town": "芸濃町河内"
  },
  "5142208": {
    "zipcode": "5142208",
    "prefectureCode": "24",
    "prefectureNumber": 24,
    "prefecture": "三重県",
    "city": "津市",
    "town": "芸濃町忍田"
  },
  "5142211": {
    "zipcode": "5142211",
    "prefectureCode": "24",
    "prefectureNumber": 24,
    "prefecture": "三重県",
    "city": "津市",
    "town": "芸濃町椋本"
  },
  "5142212": {
    "zipcode": "5142212",
    "prefectureCode": "24",
    "prefectureNumber": 24,
    "prefecture": "三重県",
    "city": "津市",
    "town": "芸濃町岡本"
  },
  "5142213": {
    "zipcode": "5142213",
    "prefectureCode": "24",
    "prefectureNumber": 24,
    "prefecture": "三重県",
    "city": "津市",
    "town": "芸濃町北神山"
  },
  "5142214": {
    "zipcode": "5142214",
    "prefectureCode": "24",
    "prefectureNumber": 24,
    "prefecture": "三重県",
    "city": "津市",
    "town": "芸濃町萩野"
  },
  "5142221": {
    "zipcode": "5142221",
    "prefectureCode": "24",
    "prefectureNumber": 24,
    "prefecture": "三重県",
    "city": "津市",
    "town": "高野尾町"
  },
  "5142222": {
    "zipcode": "5142222",
    "prefectureCode": "24",
    "prefectureNumber": 24,
    "prefecture": "三重県",
    "city": "津市",
    "town": "豊が丘"
  },
  "5142301": {
    "zipcode": "5142301",
    "prefectureCode": "24",
    "prefectureNumber": 24,
    "prefecture": "三重県",
    "city": "津市",
    "town": "安濃町荒木"
  },
  "5142302": {
    "zipcode": "5142302",
    "prefectureCode": "24",
    "prefectureNumber": 24,
    "prefecture": "三重県",
    "city": "津市",
    "town": "安濃町安濃"
  },
  "5142303": {
    "zipcode": "5142303",
    "prefectureCode": "24",
    "prefectureNumber": 24,
    "prefecture": "三重県",
    "city": "津市",
    "town": "安濃町内多"
  },
  "5142304": {
    "zipcode": "5142304",
    "prefectureCode": "24",
    "prefectureNumber": 24,
    "prefecture": "三重県",
    "city": "津市",
    "town": "安濃町太田"
  },
  "5142305": {
    "zipcode": "5142305",
    "prefectureCode": "24",
    "prefectureNumber": 24,
    "prefecture": "三重県",
    "city": "津市",
    "town": "安濃町清水"
  },
  "5142306": {
    "zipcode": "5142306",
    "prefectureCode": "24",
    "prefectureNumber": 24,
    "prefecture": "三重県",
    "city": "津市",
    "town": "安濃町曽根"
  },
  "5142307": {
    "zipcode": "5142307",
    "prefectureCode": "24",
    "prefectureNumber": 24,
    "prefecture": "三重県",
    "city": "津市",
    "town": "安濃町浄土寺"
  },
  "5142308": {
    "zipcode": "5142308",
    "prefectureCode": "24",
    "prefectureNumber": 24,
    "prefecture": "三重県",
    "city": "津市",
    "town": "安濃町川西"
  },
  "5142311": {
    "zipcode": "5142311",
    "prefectureCode": "24",
    "prefectureNumber": 24,
    "prefecture": "三重県",
    "city": "津市",
    "town": "安濃町神田"
  },
  "5142312": {
    "zipcode": "5142312",
    "prefectureCode": "24",
    "prefectureNumber": 24,
    "prefecture": "三重県",
    "city": "津市",
    "town": "安濃町連部"
  },
  "5142313": {
    "zipcode": "5142313",
    "prefectureCode": "24",
    "prefectureNumber": 24,
    "prefecture": "三重県",
    "city": "津市",
    "town": "安濃町今徳"
  },
  "5142314": {
    "zipcode": "5142314",
    "prefectureCode": "24",
    "prefectureNumber": 24,
    "prefecture": "三重県",
    "city": "津市",
    "town": "安濃町妙法寺"
  },
  "5142315": {
    "zipcode": "5142315",
    "prefectureCode": "24",
    "prefectureNumber": 24,
    "prefecture": "三重県",
    "city": "津市",
    "town": "安濃町光明寺"
  },
  "5142316": {
    "zipcode": "5142316",
    "prefectureCode": "24",
    "prefectureNumber": 24,
    "prefecture": "三重県",
    "city": "津市",
    "town": "安濃町南神山"
  },
  "5142317": {
    "zipcode": "5142317",
    "prefectureCode": "24",
    "prefectureNumber": 24,
    "prefecture": "三重県",
    "city": "津市",
    "town": "安濃町前野"
  },
  "5142318": {
    "zipcode": "5142318",
    "prefectureCode": "24",
    "prefectureNumber": 24,
    "prefecture": "三重県",
    "city": "津市",
    "town": "安濃町中川"
  },
  "5142321": {
    "zipcode": "5142321",
    "prefectureCode": "24",
    "prefectureNumber": 24,
    "prefecture": "三重県",
    "city": "津市",
    "town": "安濃町野口"
  },
  "5142322": {
    "zipcode": "5142322",
    "prefectureCode": "24",
    "prefectureNumber": 24,
    "prefecture": "三重県",
    "city": "津市",
    "town": "安濃町戸島"
  },
  "5142323": {
    "zipcode": "5142323",
    "prefectureCode": "24",
    "prefectureNumber": 24,
    "prefecture": "三重県",
    "city": "津市",
    "town": "安濃町大塚"
  },
  "5142324": {
    "zipcode": "5142324",
    "prefectureCode": "24",
    "prefectureNumber": 24,
    "prefecture": "三重県",
    "city": "津市",
    "town": "安濃町粟加"
  },
  "5142325": {
    "zipcode": "5142325",
    "prefectureCode": "24",
    "prefectureNumber": 24,
    "prefecture": "三重県",
    "city": "津市",
    "town": "安濃町田端上野"
  },
  "5142326": {
    "zipcode": "5142326",
    "prefectureCode": "24",
    "prefectureNumber": 24,
    "prefecture": "三重県",
    "city": "津市",
    "town": "安濃町東観音寺"
  },
  "5142327": {
    "zipcode": "5142327",
    "prefectureCode": "24",
    "prefectureNumber": 24,
    "prefecture": "三重県",
    "city": "津市",
    "town": "安濃町安部"
  },
  "5142328": {
    "zipcode": "5142328",
    "prefectureCode": "24",
    "prefectureNumber": 24,
    "prefecture": "三重県",
    "city": "津市",
    "town": "安濃町草生"
  }
}
