{
  "5150000": {
    "zipcode": "5150000",
    "prefectureCode": "24",
    "prefectureNumber": 24,
    "prefecture": "三重県",
    "city": "松阪市",
    "town": "以下に掲載がない場合"
  },
  "5150001": {
    "zipcode": "5150001",
    "prefectureCode": "24",
    "prefectureNumber": 24,
    "prefecture": "三重県",
    "city": "松阪市",
    "town": "大口町"
  },
  "5150002": {
    "zipcode": "5150002",
    "prefectureCode": "24",
    "prefectureNumber": 24,
    "prefecture": "三重県",
    "city": "松阪市",
    "town": "郷津町"
  },
  "5150003": {
    "zipcode": "5150003",
    "prefectureCode": "24",
    "prefectureNumber": 24,
    "prefecture": "三重県",
    "city": "松阪市",
    "town": "朝日町一区"
  },
  "5150004": {
    "zipcode": "5150004",
    "prefectureCode": "24",
    "prefectureNumber": 24,
    "prefecture": "三重県",
    "city": "松阪市",
    "town": "朝日町"
  },
  "5150005": {
    "zipcode": "5150005",
    "prefectureCode": "24",
    "prefectureNumber": 24,
    "prefecture": "三重県",
    "city": "松阪市",
    "town": "鎌田町"
  },
  "5150006": {
    "zipcode": "5150006",
    "prefectureCode": "24",
    "prefectureNumber": 24,
    "prefecture": "三重県",
    "city": "松阪市",
    "town": "石津町"
  },
  "5150007": {
    "zipcode": "5150007",
    "prefectureCode": "24",
    "prefectureNumber": 24,
    "prefecture": "三重県",
    "city": "松阪市",
    "town": "荒木町"
  },
  "5150011": {
    "zipcode": "5150011",
    "prefectureCode": "24",
    "prefectureNumber": 24,
    "prefecture": "三重県",
    "city": "松阪市",
    "town": "高町"
  },
  "5150012": {
    "zipcode": "5150012",
    "prefectureCode": "24",
    "prefectureNumber": 24,
    "prefecture": "三重県",
    "city": "松阪市",
    "town": "東町"
  },
  "5150013": {
    "zipcode": "5150013",
    "prefectureCode": "24",
    "prefectureNumber": 24,
    "prefecture": "三重県",
    "city": "松阪市",
    "town": "幸生町"
  },
  "5150014": {
    "zipcode": "5150014",
    "prefectureCode": "24",
    "prefectureNumber": 24,
    "prefecture": "三重県",
    "city": "松阪市",
    "town": "若葉町"
  },
  "5150015": {
    "zipcode": "5150015",
    "prefectureCode": "24",
    "prefectureNumber": 24,
    "prefecture": "三重県",
    "city": "松阪市",
    "town": "宮町"
  },
  "5150016": {
    "zipcode": "5150016",
    "prefectureCode": "24",
    "prefectureNumber": 24,
    "prefecture": "三重県",
    "city": "松阪市",
    "town": "末広町"
  },
  "5150017": {
    "zipcode": "5150017",
    "prefectureCode": "24",
    "prefectureNumber": 24,
    "prefecture": "三重県",
    "city": "松阪市",
    "town": "京町"
  },
  "5150018": {
    "zipcode": "5150018",
    "prefectureCode": "24",
    "prefectureNumber": 24,
    "prefecture": "三重県",
    "city": "松阪市",
    "town": "京町一区"
  },
  "5150019": {
    "zipcode": "5150019",
    "prefectureCode": "24",
    "prefectureNumber": 24,
    "prefecture": "三重県",
    "city": "松阪市",
    "town": "中央町"
  },
  "5150021": {
    "zipcode": "5150021",
    "prefectureCode": "24",
    "prefectureNumber": 24,
    "prefecture": "三重県",
    "city": "松阪市",
    "town": "古井町"
  },
  "5150022": {
    "zipcode": "5150022",
    "prefectureCode": "24",
    "prefectureNumber": 24,
    "prefecture": "三重県",
    "city": "松阪市",
    "town": "新屋敷町"
  },
  "5150023": {
    "zipcode": "5150023",
    "prefectureCode": "24",
    "prefectureNumber": 24,
    "prefecture": "三重県",
    "city": "松阪市",
    "town": "下七見町"
  },
  "5150024": {
    "zipcode": "5150024",
    "prefectureCode": "24",
    "prefectureNumber": 24,
    "prefecture": "三重県",
    "city": "松阪市",
    "town": "大宮田町"
  },
  "5150025": {
    "zipcode": "5150025",
    "prefectureCode": "24",
    "prefectureNumber": 24,
    "prefecture": "三重県",
    "city": "松阪市",
    "town": "和屋町"
  },
  "5150026": {
    "zipcode": "5150026",
    "prefectureCode": "24",
    "prefectureNumber": 24,
    "prefecture": "三重県",
    "city": "松阪市",
    "town": "立田町"
  },
  "5150027": {
    "zipcode": "5150027",
    "prefectureCode": "24",
    "prefectureNumber": 24,
    "prefecture": "三重県",
    "city": "松阪市",
    "town": "朝田町"
  },
  "5150028": {
    "zipcode": "5150028",
    "prefectureCode": "24",
    "prefectureNumber": 24,
    "prefecture": "三重県",
    "city": "松阪市",
    "town": "佐久米町"
  },
  "5150029": {
    "zipcode": "5150029",
    "prefectureCode": "24",
    "prefectureNumber": 24,
    "prefecture": "三重県",
    "city": "松阪市",
    "town": "西野々町"
  },
  "5150031": {
    "zipcode": "5150031",
    "prefectureCode": "24",
    "prefectureNumber": 24,
    "prefecture": "三重県",
    "city": "松阪市",
    "town": "大津町"
  },
  "5150032": {
    "zipcode": "5150032",
    "prefectureCode": "24",
    "prefectureNumber": 24,
    "prefecture": "三重県",
    "city": "松阪市",
    "town": "田原町"
  },
  "5150033": {
    "zipcode": "5150033",
    "prefectureCode": "24",
    "prefectureNumber": 24,
    "prefecture": "三重県",
    "city": "松阪市",
    "town": "垣鼻町"
  },
  "5150034": {
    "zipcode": "5150034",
    "prefectureCode": "24",
    "prefectureNumber": 24,
    "prefecture": "三重県",
    "city": "松阪市",
    "town": "南町"
  },
  "5150035": {
    "zipcode": "5150035",
    "prefectureCode": "24",
    "prefectureNumber": 24,
    "prefecture": "三重県",
    "city": "松阪市",
    "town": "長月町"
  },
  "5150036": {
    "zipcode": "5150036",
    "prefectureCode": "24",
    "prefectureNumber": 24,
    "prefecture": "三重県",
    "city": "松阪市",
    "town": "平生町"
  },
  "5150037": {
    "zipcode": "5150037",
    "prefectureCode": "24",
    "prefectureNumber": 24,
    "prefecture": "三重県",
    "city": "松阪市",
    "town": "愛宕町"
  },
  "5150038": {
    "zipcode": "5150038",
    "prefectureCode": "24",
    "prefectureNumber": 24,
    "prefecture": "三重県",
    "city": "松阪市",
    "town": "挽木町"
  },
  "5150039": {
    "zipcode": "5150039",
    "prefectureCode": "24",
    "prefectureNumber": 24,
    "prefecture": "三重県",
    "city": "松阪市",
    "town": "清生町"
  },
  "5150041": {
    "zipcode": "5150041",
    "prefectureCode": "24",
    "prefectureNumber": 24,
    "prefecture": "三重県",
    "city": "松阪市",
    "town": "上川町"
  },
  "5150042": {
    "zipcode": "5150042",
    "prefectureCode": "24",
    "prefectureNumber": 24,
    "prefecture": "三重県",
    "city": "松阪市",
    "town": "虹が丘町"
  },
  "5150043": {
    "zipcode": "5150043",
    "prefectureCode": "24",
    "prefectureNumber": 24,
    "prefecture": "三重県",
    "city": "松阪市",
    "town": "下村町"
  },
  "5150044": {
    "zipcode": "5150044",
    "prefectureCode": "24",
    "prefectureNumber": 24,
    "prefecture": "三重県",
    "city": "松阪市",
    "town": "久保町"
  },
  "5150045": {
    "zipcode": "5150045",
    "prefectureCode": "24",
    "prefectureNumber": 24,
    "prefecture": "三重県",
    "city": "松阪市",
    "town": "駅部田町"
  },
  "5150046": {
    "zipcode": "5150046",
    "prefectureCode": "24",
    "prefectureNumber": 24,
    "prefecture": "三重県",
    "city": "松阪市",
    "town": "南虹が丘町"
  },
  "5150051": {
    "zipcode": "5150051",
    "prefectureCode": "24",
    "prefectureNumber": 24,
    "prefecture": "三重県",
    "city": "松阪市",
    "town": "光町"
  },
  "5150052": {
    "zipcode": "5150052",
    "prefectureCode": "24",
    "prefectureNumber": 24,
    "prefecture": "三重県",
    "city": "松阪市",
    "town": "山室町"
  },
  "5150053": {
    "zipcode": "5150053",
    "prefectureCode": "24",
    "prefectureNumber": 24,
    "prefecture": "三重県",
    "city": "松阪市",
    "town": "広陽町"
  },
  "5150054": {
    "zipcode": "5150054",
    "prefectureCode": "24",
    "prefectureNumber": 24,
    "prefecture": "三重県",
    "city": "松阪市",
    "town": "立野町"
  },
  "5150055": {
    "zipcode": "5150055",
    "prefectureCode": "24",
    "prefectureNumber": 24,
    "prefecture": "三重県",
    "city": "松阪市",
    "town": "田村町"
  },
  "5150056": {
    "zipcode": "5150056",
    "prefectureCode": "24",
    "prefectureNumber": 24,
    "prefecture": "三重県",
    "city": "松阪市",
    "town": "宝塚町"
  },
  "5150057": {
    "zipcode": "5150057",
    "prefectureCode": "24",
    "prefectureNumber": 24,
    "prefecture": "三重県",
    "city": "松阪市",
    "town": "御殿山町"
  },
  "5150061": {
    "zipcode": "5150061",
    "prefectureCode": "24",
    "prefectureNumber": 24,
    "prefecture": "三重県",
    "city": "松阪市",
    "town": "黒田町"
  },
  "5150062": {
    "zipcode": "5150062",
    "prefectureCode": "24",
    "prefectureNumber": 24,
    "prefecture": "三重県",
    "city": "松阪市",
    "town": "小黒田町"
  },
  "5150063": {
    "zipcode": "5150063",
    "prefectureCode": "24",
    "prefectureNumber": 24,
    "prefecture": "三重県",
    "city": "松阪市",
    "town": "大黒田町"
  },
  "5150064": {
    "zipcode": "5150064",
    "prefectureCode": "24",
    "prefectureNumber": 24,
    "prefecture": "三重県",
    "city": "松阪市",
    "town": "五反田町"
  },
  "5150065": {
    "zipcode": "5150065",
    "prefectureCode": "24",
    "prefectureNumber": 24,
    "prefecture": "三重県",
    "city": "松阪市",
    "town": "五月町"
  },
  "5150066": {
    "zipcode": "5150066",
    "prefectureCode": "24",
    "prefectureNumber": 24,
    "prefecture": "三重県",
    "city": "松阪市",
    "town": "泉町"
  },
  "5150071": {
    "zipcode": "5150071",
    "prefectureCode": "24",
    "prefectureNumber": 24,
    "prefecture": "三重県",
    "city": "松阪市",
    "town": "桜町"
  },
  "5150072": {
    "zipcode": "5150072",
    "prefectureCode": "24",
    "prefectureNumber": 24,
    "prefecture": "三重県",
    "city": "松阪市",
    "town": "内五曲町"
  },
  "5150073": {
    "zipcode": "5150073",
    "prefectureCode": "24",
    "prefectureNumber": 24,
    "prefecture": "三重県",
    "city": "松阪市",
    "town": "殿町"
  },
  "5150074": {
    "zipcode": "5150074",
    "prefectureCode": "24",
    "prefectureNumber": 24,
    "prefecture": "三重県",
    "city": "松阪市",
    "town": "新座町"
  },
  "5150075": {
    "zipcode": "5150075",
    "prefectureCode": "24",
    "prefectureNumber": 24,
    "prefecture": "三重県",
    "city": "松阪市",
    "town": "新町"
  },
  "5150076": {
    "zipcode": "5150076",
    "prefectureCode": "24",
    "prefectureNumber": 24,
    "prefecture": "三重県",
    "city": "松阪市",
    "town": "白粉町"
  },
  "5150077": {
    "zipcode": "5150077",
    "prefectureCode": "24",
    "prefectureNumber": 24,
    "prefecture": "三重県",
    "city": "松阪市",
    "town": "茶与町"
  },
  "5150078": {
    "zipcode": "5150078",
    "prefectureCode": "24",
    "prefectureNumber": 24,
    "prefecture": "三重県",
    "city": "松阪市",
    "town": "春日町"
  },
  "5150081": {
    "zipcode": "5150081",
    "prefectureCode": "24",
    "prefectureNumber": 24,
    "prefecture": "三重県",
    "city": "松阪市",
    "town": "本町"
  },
  "5150082": {
    "zipcode": "5150082",
    "prefectureCode": "24",
    "prefectureNumber": 24,
    "prefecture": "三重県",
    "city": "松阪市",
    "town": "魚町"
  },
  "5150083": {
    "zipcode": "5150083",
    "prefectureCode": "24",
    "prefectureNumber": 24,
    "prefecture": "三重県",
    "city": "松阪市",
    "town": "中町"
  },
  "5150084": {
    "zipcode": "5150084",
    "prefectureCode": "24",
    "prefectureNumber": 24,
    "prefecture": "三重県",
    "city": "松阪市",
    "town": "日野町"
  },
  "5150085": {
    "zipcode": "5150085",
    "prefectureCode": "24",
    "prefectureNumber": 24,
    "prefecture": "三重県",
    "city": "松阪市",
    "town": "湊町"
  },
  "5150086": {
    "zipcode": "5150086",
    "prefectureCode": "24",
    "prefectureNumber": 24,
    "prefecture": "三重県",
    "city": "松阪市",
    "town": "五十鈴町"
  },
  "5150087": {
    "zipcode": "5150087",
    "prefectureCode": "24",
    "prefectureNumber": 24,
    "prefecture": "三重県",
    "city": "松阪市",
    "town": "萌木町"
  },
  "5150088": {
    "zipcode": "5150088",
    "prefectureCode": "24",
    "prefectureNumber": 24,
    "prefecture": "三重県",
    "city": "松阪市",
    "town": "木の郷町"
  },
  "5150101": {
    "zipcode": "5150101",
    "prefectureCode": "24",
    "prefectureNumber": 24,
    "prefecture": "三重県",
    "city": "松阪市",
    "town": "東黒部町"
  },
  "5150102": {
    "zipcode": "5150102",
    "prefectureCode": "24",
    "prefectureNumber": 24,
    "prefecture": "三重県",
    "city": "松阪市",
    "town": "松名瀬町"
  },
  "5150103": {
    "zipcode": "5150103",
    "prefectureCode": "24",
    "prefectureNumber": 24,
    "prefecture": "三重県",
    "city": "松阪市",
    "town": "西黒部町"
  },
  "5150104": {
    "zipcode": "5150104",
    "prefectureCode": "24",
    "prefectureNumber": 24,
    "prefecture": "三重県",
    "city": "松阪市",
    "town": "高須町"
  },
  "5150111": {
    "zipcode": "5150111",
    "prefectureCode": "24",
    "prefectureNumber": 24,
    "prefecture": "三重県",
    "city": "松阪市",
    "town": "柿木原町"
  },
  "5150112": {
    "zipcode": "5150112",
    "prefectureCode": "24",
    "prefectureNumber": 24,
    "prefecture": "三重県",
    "city": "松阪市",
    "town": "土古路町"
  },
  "5150113": {
    "zipcode": "5150113",
    "prefectureCode": "24",
    "prefectureNumber": 24,
    "prefecture": "三重県",
    "city": "松阪市",
    "town": "出間町"
  },
  "5150114": {
    "zipcode": "5150114",
    "prefectureCode": "24",
    "prefectureNumber": 24,
    "prefecture": "三重県",
    "city": "松阪市",
    "town": "大垣内町"
  },
  "5150115": {
    "zipcode": "5150115",
    "prefectureCode": "24",
    "prefectureNumber": 24,
    "prefecture": "三重県",
    "city": "松阪市",
    "town": "蓮花寺町"
  },
  "5150116": {
    "zipcode": "5150116",
    "prefectureCode": "24",
    "prefectureNumber": 24,
    "prefecture": "三重県",
    "city": "松阪市",
    "town": "牛草町"
  },
  "5150117": {
    "zipcode": "5150117",
    "prefectureCode": "24",
    "prefectureNumber": 24,
    "prefecture": "三重県",
    "city": "松阪市",
    "town": "乙部町"
  },
  "5150118": {
    "zipcode": "5150118",
    "prefectureCode": "24",
    "prefectureNumber": 24,
    "prefecture": "三重県",
    "city": "松阪市",
    "town": "垣内田町"
  },
  "5150119": {
    "zipcode": "5150119",
    "prefectureCode": "24",
    "prefectureNumber": 24,
    "prefecture": "三重県",
    "city": "松阪市",
    "town": "神守町"
  },
  "5150121": {
    "zipcode": "5150121",
    "prefectureCode": "24",
    "prefectureNumber": 24,
    "prefecture": "三重県",
    "city": "松阪市",
    "town": "東久保町"
  },
  "5150122": {
    "zipcode": "5150122",
    "prefectureCode": "24",
    "prefectureNumber": 24,
    "prefecture": "三重県",
    "city": "松阪市",
    "town": "川島町"
  },
  "5150123": {
    "zipcode": "5150123",
    "prefectureCode": "24",
    "prefectureNumber": 24,
    "prefecture": "三重県",
    "city": "松阪市",
    "town": "新開町"
  },
  "5150124": {
    "zipcode": "5150124",
    "prefectureCode": "24",
    "prefectureNumber": 24,
    "prefecture": "三重県",
    "city": "松阪市",
    "town": "保津町"
  },
  "5150125": {
    "zipcode": "5150125",
    "prefectureCode": "24",
    "prefectureNumber": 24,
    "prefecture": "三重県",
    "city": "松阪市",
    "town": "腹太町"
  },
  "5150126": {
    "zipcode": "5150126",
    "prefectureCode": "24",
    "prefectureNumber": 24,
    "prefecture": "三重県",
    "city": "松阪市",
    "town": "井口中町"
  },
  "5150127": {
    "zipcode": "5150127",
    "prefectureCode": "24",
    "prefectureNumber": 24,
    "prefecture": "三重県",
    "city": "松阪市",
    "town": "六根町"
  },
  "5150128": {
    "zipcode": "5150128",
    "prefectureCode": "24",
    "prefectureNumber": 24,
    "prefecture": "三重県",
    "city": "松阪市",
    "town": "魚見町"
  },
  "5150201": {
    "zipcode": "5150201",
    "prefectureCode": "24",
    "prefectureNumber": 24,
    "prefecture": "三重県",
    "city": "松阪市",
    "town": "上七見町"
  },
  "5150202": {
    "zipcode": "5150202",
    "prefectureCode": "24",
    "prefectureNumber": 24,
    "prefecture": "三重県",
    "city": "松阪市",
    "town": "菅生町"
  },
  "5150203": {
    "zipcode": "5150203",
    "prefectureCode": "24",
    "prefectureNumber": 24,
    "prefecture": "三重県",
    "city": "松阪市",
    "town": "清水町"
  },
  "5150204": {
    "zipcode": "5150204",
    "prefectureCode": "24",
    "prefectureNumber": 24,
    "prefecture": "三重県",
    "city": "松阪市",
    "town": "櫛田町"
  },
  "5150205": {
    "zipcode": "5150205",
    "prefectureCode": "24",
    "prefectureNumber": 24,
    "prefecture": "三重県",
    "city": "松阪市",
    "town": "豊原町"
  },
  "5150206": {
    "zipcode": "5150206",
    "prefectureCode": "24",
    "prefectureNumber": 24,
    "prefecture": "三重県",
    "city": "松阪市",
    "town": "山下町"
  },
  "5150207": {
    "zipcode": "5150207",
    "prefectureCode": "24",
    "prefectureNumber": 24,
    "prefecture": "三重県",
    "city": "松阪市",
    "town": "安楽町"
  },
  "5150208": {
    "zipcode": "5150208",
    "prefectureCode": "24",
    "prefectureNumber": 24,
    "prefecture": "三重県",
    "city": "松阪市",
    "town": "山添町"
  },
  "5150211": {
    "zipcode": "5150211",
    "prefectureCode": "24",
    "prefectureNumber": 24,
    "prefecture": "三重県",
    "city": "松阪市",
    "town": "高木町"
  },
  "5150212": {
    "zipcode": "5150212",
    "prefectureCode": "24",
    "prefectureNumber": 24,
    "prefecture": "三重県",
    "city": "松阪市",
    "town": "稲木町"
  },
  "5150213": {
    "zipcode": "5150213",
    "prefectureCode": "24",
    "prefectureNumber": 24,
    "prefecture": "三重県",
    "city": "松阪市",
    "town": "伊勢場町"
  },
  "5150214": {
    "zipcode": "5150214",
    "prefectureCode": "24",
    "prefectureNumber": 24,
    "prefecture": "三重県",
    "city": "松阪市",
    "town": "法田町"
  },
  "5150215": {
    "zipcode": "5150215",
    "prefectureCode": "24",
    "prefectureNumber": 24,
    "prefecture": "三重県",
    "city": "松阪市",
    "town": "横地町"
  },
  "5150216": {
    "zipcode": "5150216",
    "prefectureCode": "24",
    "prefectureNumber": 24,
    "prefecture": "三重県",
    "city": "松阪市",
    "town": "目田町"
  },
  "5150217": {
    "zipcode": "5150217",
    "prefectureCode": "24",
    "prefectureNumber": 24,
    "prefecture": "三重県",
    "city": "松阪市",
    "town": "早馬瀬町"
  },
  "5150300": {
    "zipcode": "5150300",
    "prefectureCode": "24",
    "prefectureNumber": 24,
    "prefecture": "三重県",
    "city": "多気郡明和町",
    "town": "以下に掲載がない場合"
  },
  "5150301": {
    "zipcode": "5150301",
    "prefectureCode": "24",
    "prefectureNumber": 24,
    "prefecture": "三重県",
    "city": "多気郡明和町",
    "town": "大堀川新田"
  },
  "5150302": {
    "zipcode": "5150302",
    "prefectureCode": "24",
    "prefectureNumber": 24,
    "prefecture": "三重県",
    "city": "多気郡明和町",
    "town": "大淀"
  },
  "5150303": {
    "zipcode": "5150303",
    "prefectureCode": "24",
    "prefectureNumber": 24,
    "prefecture": "三重県",
    "city": "多気郡明和町",
    "town": "山大淀"
  },
  "5150311": {
    "zipcode": "5150311",
    "prefectureCode": "24",
    "prefectureNumber": 24,
    "prefecture": "三重県",
    "city": "多気郡明和町",
    "town": "平尾"
  },
  "5150312": {
    "zipcode": "5150312",
    "prefectureCode": "24",
    "prefectureNumber": 24,
    "prefecture": "三重県",
    "city": "多気郡明和町",
    "town": "上野"
  },
  "5150313": {
    "zipcode": "5150313",
    "prefectureCode": "24",
    "prefectureNumber": 24,
    "prefecture": "三重県",
    "city": "多気郡明和町",
    "town": "明星"
  },
  "5150314": {
    "zipcode": "5150314",
    "prefectureCode": "24",
    "prefectureNumber": 24,
    "prefecture": "三重県",
    "city": "多気郡明和町",
    "town": "新茶屋"
  },
  "5150315": {
    "zipcode": "5150315",
    "prefectureCode": "24",
    "prefectureNumber": 24,
    "prefecture": "三重県",
    "city": "多気郡明和町",
    "town": "蓑村"
  },
  "5150316": {
    "zipcode": "5150316",
    "prefectureCode": "24",
    "prefectureNumber": 24,
    "prefecture": "三重県",
    "city": "多気郡明和町",
    "town": "有爾中"
  },
  "5150317": {
    "zipcode": "5150317",
    "prefectureCode": "24",
    "prefectureNumber": 24,
    "prefecture": "三重県",
    "city": "多気郡明和町",
    "town": "池村"
  },
  "5150321": {
    "zipcode": "5150321",
    "prefectureCode": "24",
    "prefectureNumber": 24,
    "prefecture": "三重県",
    "city": "多気郡明和町",
    "town": "斎宮"
  },
  "5150322": {
    "zipcode": "5150322",
    "prefectureCode": "24",
    "prefectureNumber": 24,
    "prefecture": "三重県",
    "city": "多気郡明和町",
    "town": "上村"
  },
  "5150323": {
    "zipcode": "5150323",
    "prefectureCode": "24",
    "prefectureNumber": 24,
    "prefecture": "三重県",
    "city": "多気郡明和町",
    "town": "岩内"
  },
  "5150324": {
    "zipcode": "5150324",
    "prefectureCode": "24",
    "prefectureNumber": 24,
    "prefecture": "三重県",
    "city": "多気郡明和町",
    "town": "金剛坂"
  },
  "5150325": {
    "zipcode": "5150325",
    "prefectureCode": "24",
    "prefectureNumber": 24,
    "prefecture": "三重県",
    "city": "多気郡明和町",
    "town": "竹川"
  },
  "5150331": {
    "zipcode": "5150331",
    "prefectureCode": "24",
    "prefectureNumber": 24,
    "prefecture": "三重県",
    "city": "多気郡明和町",
    "town": "佐田"
  },
  "5150332": {
    "zipcode": "5150332",
    "prefectureCode": "24",
    "prefectureNumber": 24,
    "prefecture": "三重県",
    "city": "多気郡明和町",
    "town": "馬之上"
  },
  "5150333": {
    "zipcode": "5150333",
    "prefectureCode": "24",
    "prefectureNumber": 24,
    "prefecture": "三重県",
    "city": "多気郡明和町",
    "town": "坂本"
  },
  "5150334": {
    "zipcode": "5150334",
    "prefectureCode": "24",
    "prefectureNumber": 24,
    "prefecture": "三重県",
    "city": "多気郡明和町",
    "town": "中海"
  },
  "5150341": {
    "zipcode": "5150341",
    "prefectureCode": "24",
    "prefectureNumber": 24,
    "prefecture": "三重県",
    "city": "多気郡明和町",
    "town": "北藤原"
  },
  "5150342": {
    "zipcode": "5150342",
    "prefectureCode": "24",
    "prefectureNumber": 24,
    "prefecture": "三重県",
    "city": "多気郡明和町",
    "town": "南藤原"
  },
  "5150343": {
    "zipcode": "5150343",
    "prefectureCode": "24",
    "prefectureNumber": 24,
    "prefecture": "三重県",
    "city": "多気郡明和町",
    "town": "内座"
  },
  "5150344": {
    "zipcode": "5150344",
    "prefectureCode": "24",
    "prefectureNumber": 24,
    "prefecture": "三重県",
    "city": "多気郡明和町",
    "town": "養川"
  },
  "5150345": {
    "zipcode": "5150345",
    "prefectureCode": "24",
    "prefectureNumber": 24,
    "prefecture": "三重県",
    "city": "多気郡明和町",
    "town": "田屋"
  },
  "5150346": {
    "zipcode": "5150346",
    "prefectureCode": "24",
    "prefectureNumber": 24,
    "prefecture": "三重県",
    "city": "多気郡明和町",
    "town": "前野"
  },
  "5150347": {
    "zipcode": "5150347",
    "prefectureCode": "24",
    "prefectureNumber": 24,
    "prefecture": "三重県",
    "city": "多気郡明和町",
    "town": "志貴"
  },
  "5150348": {
    "zipcode": "5150348",
    "prefectureCode": "24",
    "prefectureNumber": 24,
    "prefecture": "三重県",
    "city": "多気郡明和町",
    "town": "中村"
  },
  "5150349": {
    "zipcode": "5150349",
    "prefectureCode": "24",
    "prefectureNumber": 24,
    "prefecture": "三重県",
    "city": "多気郡明和町",
    "town": "川尻"
  },
  "5150351": {
    "zipcode": "5150351",
    "prefectureCode": "24",
    "prefectureNumber": 24,
    "prefecture": "三重県",
    "city": "多気郡明和町",
    "town": "浜田"
  },
  "5150352": {
    "zipcode": "5150352",
    "prefectureCode": "24",
    "prefectureNumber": 24,
    "prefecture": "三重県",
    "city": "多気郡明和町",
    "town": "八木戸"
  },
  "5150353": {
    "zipcode": "5150353",
    "prefectureCode": "24",
    "prefectureNumber": 24,
    "prefecture": "三重県",
    "city": "多気郡明和町",
    "town": "根倉"
  },
  "5150354": {
    "zipcode": "5150354",
    "prefectureCode": "24",
    "prefectureNumber": 24,
    "prefecture": "三重県",
    "city": "多気郡明和町",
    "town": "行部"
  },
  "5150501": {
    "zipcode": "5150501",
    "prefectureCode": "24",
    "prefectureNumber": 24,
    "prefecture": "三重県",
    "city": "伊勢市",
    "town": "有滝町"
  },
  "5150502": {
    "zipcode": "5150502",
    "prefectureCode": "24",
    "prefectureNumber": 24,
    "prefecture": "三重県",
    "city": "伊勢市",
    "town": "東豊浜町"
  },
  "5150503": {
    "zipcode": "5150503",
    "prefectureCode": "24",
    "prefectureNumber": 24,
    "prefecture": "三重県",
    "city": "伊勢市",
    "town": "樫原町"
  },
  "5150504": {
    "zipcode": "5150504",
    "prefectureCode": "24",
    "prefectureNumber": 24,
    "prefecture": "三重県",
    "city": "伊勢市",
    "town": "磯町"
  },
  "5150505": {
    "zipcode": "5150505",
    "prefectureCode": "24",
    "prefectureNumber": 24,
    "prefecture": "三重県",
    "city": "伊勢市",
    "town": "西豊浜町"
  },
  "5150506": {
    "zipcode": "5150506",
    "prefectureCode": "24",
    "prefectureNumber": 24,
    "prefecture": "三重県",
    "city": "伊勢市",
    "town": "植山町"
  },
  "5150507": {
    "zipcode": "5150507",
    "prefectureCode": "24",
    "prefectureNumber": 24,
    "prefecture": "三重県",
    "city": "伊勢市",
    "town": "村松町"
  },
  "5150508": {
    "zipcode": "5150508",
    "prefectureCode": "24",
    "prefectureNumber": 24,
    "prefecture": "三重県",
    "city": "伊勢市",
    "town": "柏町"
  },
  "5150509": {
    "zipcode": "5150509",
    "prefectureCode": "24",
    "prefectureNumber": 24,
    "prefecture": "三重県",
    "city": "伊勢市",
    "town": "東大淀町"
  },
  "5150511": {
    "zipcode": "5150511",
    "prefectureCode": "24",
    "prefectureNumber": 24,
    "prefecture": "三重県",
    "city": "伊勢市",
    "town": "野村町"
  },
  "5150521": {
    "zipcode": "5150521",
    "prefectureCode": "24",
    "prefectureNumber": 24,
    "prefecture": "三重県",
    "city": "伊勢市",
    "town": "御薗町上條（三軒屋）"
  },
  "5150801": {
    "zipcode": "5150801",
    "prefectureCode": "24",
    "prefectureNumber": 24,
    "prefecture": "三重県",
    "city": "松阪市",
    "town": "新松ケ島町"
  },
  "5150802": {
    "zipcode": "5150802",
    "prefectureCode": "24",
    "prefectureNumber": 24,
    "prefecture": "三重県",
    "city": "松阪市",
    "town": "猟師町"
  },
  "5150803": {
    "zipcode": "5150803",
    "prefectureCode": "24",
    "prefectureNumber": 24,
    "prefecture": "三重県",
    "city": "松阪市",
    "town": "町平尾町"
  },
  "5150804": {
    "zipcode": "5150804",
    "prefectureCode": "24",
    "prefectureNumber": 24,
    "prefecture": "三重県",
    "city": "松阪市",
    "town": "大平尾町"
  },
  "5150811": {
    "zipcode": "5150811",
    "prefectureCode": "24",
    "prefectureNumber": 24,
    "prefecture": "三重県",
    "city": "松阪市",
    "town": "塚本町"
  },
  "5150812": {
    "zipcode": "5150812",
    "prefectureCode": "24",
    "prefectureNumber": 24,
    "prefecture": "三重県",
    "city": "松阪市",
    "town": "船江町"
  },
  "5150813": {
    "zipcode": "5150813",
    "prefectureCode": "24",
    "prefectureNumber": 24,
    "prefecture": "三重県",
    "city": "松阪市",
    "town": "大塚町"
  },
  "5150814": {
    "zipcode": "5150814",
    "prefectureCode": "24",
    "prefectureNumber": 24,
    "prefecture": "三重県",
    "city": "松阪市",
    "town": "久保田町"
  },
  "5150815": {
    "zipcode": "5150815",
    "prefectureCode": "24",
    "prefectureNumber": 24,
    "prefecture": "三重県",
    "city": "松阪市",
    "town": "西町"
  },
  "5150816": {
    "zipcode": "5150816",
    "prefectureCode": "24",
    "prefectureNumber": 24,
    "prefecture": "三重県",
    "city": "松阪市",
    "town": "西之庄町"
  },
  "5150817": {
    "zipcode": "5150817",
    "prefectureCode": "24",
    "prefectureNumber": 24,
    "prefecture": "三重県",
    "city": "松阪市",
    "town": "井村町"
  },
  "5150818": {
    "zipcode": "5150818",
    "prefectureCode": "24",
    "prefectureNumber": 24,
    "prefecture": "三重県",
    "city": "松阪市",
    "town": "川井町"
  },
  "5150821": {
    "zipcode": "5150821",
    "prefectureCode": "24",
    "prefectureNumber": 24,
    "prefecture": "三重県",
    "city": "松阪市",
    "town": "外五曲町"
  },
  "5150822": {
    "zipcode": "5150822",
    "prefectureCode": "24",
    "prefectureNumber": 24,
    "prefecture": "三重県",
    "city": "松阪市",
    "town": "大足町"
  },
  "5150823": {
    "zipcode": "5150823",
    "prefectureCode": "24",
    "prefectureNumber": 24,
    "prefecture": "三重県",
    "city": "松阪市",
    "town": "阿形町"
  },
  "5150824": {
    "zipcode": "5150824",
    "prefectureCode": "24",
    "prefectureNumber": 24,
    "prefecture": "三重県",
    "city": "松阪市",
    "town": "平成町"
  },
  "5150825": {
    "zipcode": "5150825",
    "prefectureCode": "24",
    "prefectureNumber": 24,
    "prefecture": "三重県",
    "city": "松阪市",
    "town": "藤之木町"
  },
  "5150831": {
    "zipcode": "5150831",
    "prefectureCode": "24",
    "prefectureNumber": 24,
    "prefecture": "三重県",
    "city": "松阪市",
    "town": "岡本町"
  },
  "5150832": {
    "zipcode": "5150832",
    "prefectureCode": "24",
    "prefectureNumber": 24,
    "prefecture": "三重県",
    "city": "松阪市",
    "town": "丹生寺町"
  },
  "5150833": {
    "zipcode": "5150833",
    "prefectureCode": "24",
    "prefectureNumber": 24,
    "prefecture": "三重県",
    "city": "松阪市",
    "town": "西野町"
  },
  "5150834": {
    "zipcode": "5150834",
    "prefectureCode": "24",
    "prefectureNumber": 24,
    "prefecture": "三重県",
    "city": "松阪市",
    "town": "岡山町"
  },
  "5150835": {
    "zipcode": "5150835",
    "prefectureCode": "24",
    "prefectureNumber": 24,
    "prefecture": "三重県",
    "city": "松阪市",
    "town": "日丘町"
  },
  "5150841": {
    "zipcode": "5150841",
    "prefectureCode": "24",
    "prefectureNumber": 24,
    "prefecture": "三重県",
    "city": "松阪市",
    "town": "曲町"
  },
  "5150842": {
    "zipcode": "5150842",
    "prefectureCode": "24",
    "prefectureNumber": 24,
    "prefecture": "三重県",
    "city": "松阪市",
    "town": "田牧町"
  },
  "5150843": {
    "zipcode": "5150843",
    "prefectureCode": "24",
    "prefectureNumber": 24,
    "prefecture": "三重県",
    "city": "松阪市",
    "town": "殿村町"
  },
  "5150844": {
    "zipcode": "5150844",
    "prefectureCode": "24",
    "prefectureNumber": 24,
    "prefecture": "三重県",
    "city": "松阪市",
    "town": "八重田町"
  },
  "5150845": {
    "zipcode": "5150845",
    "prefectureCode": "24",
    "prefectureNumber": 24,
    "prefecture": "三重県",
    "city": "松阪市",
    "town": "伊勢寺町"
  },
  "5150846": {
    "zipcode": "5150846",
    "prefectureCode": "24",
    "prefectureNumber": 24,
    "prefecture": "三重県",
    "city": "松阪市",
    "town": "深長町"
  },
  "5150847": {
    "zipcode": "5150847",
    "prefectureCode": "24",
    "prefectureNumber": 24,
    "prefecture": "三重県",
    "city": "松阪市",
    "town": "岩内町"
  },
  "5150848": {
    "zipcode": "5150848",
    "prefectureCode": "24",
    "prefectureNumber": 24,
    "prefecture": "三重県",
    "city": "松阪市",
    "town": "野村町"
  },
  "5151101": {
    "zipcode": "5151101",
    "prefectureCode": "24",
    "prefectureNumber": 24,
    "prefecture": "三重県",
    "city": "松阪市",
    "town": "勢津町"
  },
  "5151102": {
    "zipcode": "5151102",
    "prefectureCode": "24",
    "prefectureNumber": 24,
    "prefecture": "三重県",
    "city": "松阪市",
    "town": "矢津町"
  },
  "5151103": {
    "zipcode": "5151103",
    "prefectureCode": "24",
    "prefectureNumber": 24,
    "prefecture": "三重県",
    "city": "松阪市",
    "town": "笹川町"
  },
  "5151104": {
    "zipcode": "5151104",
    "prefectureCode": "24",
    "prefectureNumber": 24,
    "prefecture": "三重県",
    "city": "松阪市",
    "town": "桂瀬町"
  },
  "5151105": {
    "zipcode": "5151105",
    "prefectureCode": "24",
    "prefectureNumber": 24,
    "prefecture": "三重県",
    "city": "松阪市",
    "town": "大河内町"
  },
  "5151106": {
    "zipcode": "5151106",
    "prefectureCode": "24",
    "prefectureNumber": 24,
    "prefecture": "三重県",
    "city": "松阪市",
    "town": "辻原町"
  },
  "5151107": {
    "zipcode": "5151107",
    "prefectureCode": "24",
    "prefectureNumber": 24,
    "prefecture": "三重県",
    "city": "松阪市",
    "town": "阪内町"
  },
  "5151201": {
    "zipcode": "5151201",
    "prefectureCode": "24",
    "prefectureNumber": 24,
    "prefecture": "三重県",
    "city": "松阪市",
    "town": "広瀬町"
  },
  "5151202": {
    "zipcode": "5151202",
    "prefectureCode": "24",
    "prefectureNumber": 24,
    "prefecture": "三重県",
    "city": "松阪市",
    "town": "茅原町"
  },
  "5151203": {
    "zipcode": "5151203",
    "prefectureCode": "24",
    "prefectureNumber": 24,
    "prefecture": "三重県",
    "city": "松阪市",
    "town": "六呂木町"
  },
  "5151204": {
    "zipcode": "5151204",
    "prefectureCode": "24",
    "prefectureNumber": 24,
    "prefecture": "三重県",
    "city": "松阪市",
    "town": "小片野町"
  },
  "5151205": {
    "zipcode": "5151205",
    "prefectureCode": "24",
    "prefectureNumber": 24,
    "prefecture": "三重県",
    "city": "松阪市",
    "town": "大石町"
  },
  "5151301": {
    "zipcode": "5151301",
    "prefectureCode": "24",
    "prefectureNumber": 24,
    "prefecture": "三重県",
    "city": "松阪市",
    "town": "飯南町深野"
  },
  "5151302": {
    "zipcode": "5151302",
    "prefectureCode": "24",
    "prefectureNumber": 24,
    "prefecture": "三重県",
    "city": "松阪市",
    "town": "飯南町横野"
  },
  "5151303": {
    "zipcode": "5151303",
    "prefectureCode": "24",
    "prefectureNumber": 24,
    "prefecture": "三重県",
    "city": "松阪市",
    "town": "飯南町下仁柿"
  },
  "5151304": {
    "zipcode": "5151304",
    "prefectureCode": "24",
    "prefectureNumber": 24,
    "prefecture": "三重県",
    "city": "松阪市",
    "town": "飯南町上仁柿"
  },
  "5151411": {
    "zipcode": "5151411",
    "prefectureCode": "24",
    "prefectureNumber": 24,
    "prefecture": "三重県",
    "city": "松阪市",
    "town": "飯南町粥見"
  },
  "5151412": {
    "zipcode": "5151412",
    "prefectureCode": "24",
    "prefectureNumber": 24,
    "prefecture": "三重県",
    "city": "松阪市",
    "town": "飯南町向粥見"
  },
  "5151413": {
    "zipcode": "5151413",
    "prefectureCode": "24",
    "prefectureNumber": 24,
    "prefecture": "三重県",
    "city": "松阪市",
    "town": "飯南町有間野"
  },
  "5151501": {
    "zipcode": "5151501",
    "prefectureCode": "24",
    "prefectureNumber": 24,
    "prefecture": "三重県",
    "city": "松阪市",
    "town": "飯高町下滝野"
  },
  "5151502": {
    "zipcode": "5151502",
    "prefectureCode": "24",
    "prefectureNumber": 24,
    "prefecture": "三重県",
    "city": "松阪市",
    "town": "飯高町宮前"
  },
  "5151503": {
    "zipcode": "5151503",
    "prefectureCode": "24",
    "prefectureNumber": 24,
    "prefecture": "三重県",
    "city": "松阪市",
    "town": "飯高町野々口"
  },
  "5151504": {
    "zipcode": "5151504",
    "prefectureCode": "24",
    "prefectureNumber": 24,
    "prefecture": "三重県",
    "city": "松阪市",
    "town": "飯高町作滝"
  },
  "5151505": {
    "zipcode": "5151505",
    "prefectureCode": "24",
    "prefectureNumber": 24,
    "prefecture": "三重県",
    "city": "松阪市",
    "town": "飯高町赤桶"
  },
  "5151506": {
    "zipcode": "5151506",
    "prefectureCode": "24",
    "prefectureNumber": 24,
    "prefecture": "三重県",
    "city": "松阪市",
    "town": "飯高町田引"
  },
  "5151611": {
    "zipcode": "5151611",
    "prefectureCode": "24",
    "prefectureNumber": 24,
    "prefecture": "三重県",
    "city": "松阪市",
    "town": "飯高町七日市"
  },
  "5151612": {
    "zipcode": "5151612",
    "prefectureCode": "24",
    "prefectureNumber": 24,
    "prefecture": "三重県",
    "city": "松阪市",
    "town": "飯高町富永"
  },
  "5151613": {
    "zipcode": "5151613",
    "prefectureCode": "24",
    "prefectureNumber": 24,
    "prefecture": "三重県",
    "city": "松阪市",
    "town": "飯高町粟野"
  },
  "5151614": {
    "zipcode": "5151614",
    "prefectureCode": "24",
    "prefectureNumber": 24,
    "prefecture": "三重県",
    "city": "松阪市",
    "town": "飯高町宮本"
  },
  "5151615": {
    "zipcode": "5151615",
    "prefectureCode": "24",
    "prefectureNumber": 24,
    "prefecture": "三重県",
    "city": "松阪市",
    "town": "飯高町森"
  },
  "5151616": {
    "zipcode": "5151616",
    "prefectureCode": "24",
    "prefectureNumber": 24,
    "prefecture": "三重県",
    "city": "松阪市",
    "town": "飯高町青田"
  },
  "5151617": {
    "zipcode": "5151617",
    "prefectureCode": "24",
    "prefectureNumber": 24,
    "prefecture": "三重県",
    "city": "松阪市",
    "town": "飯高町猿山"
  },
  "5151618": {
    "zipcode": "5151618",
    "prefectureCode": "24",
    "prefectureNumber": 24,
    "prefecture": "三重県",
    "city": "松阪市",
    "town": "飯高町蓮"
  },
  "5151721": {
    "zipcode": "5151721",
    "prefectureCode": "24",
    "prefectureNumber": 24,
    "prefecture": "三重県",
    "city": "松阪市",
    "town": "飯高町月出"
  },
  "5151722": {
    "zipcode": "5151722",
    "prefectureCode": "24",
    "prefectureNumber": 24,
    "prefecture": "三重県",
    "city": "松阪市",
    "town": "飯高町加波"
  },
  "5151723": {
    "zipcode": "5151723",
    "prefectureCode": "24",
    "prefectureNumber": 24,
    "prefecture": "三重県",
    "city": "松阪市",
    "town": "飯高町乙栗子"
  },
  "5151724": {
    "zipcode": "5151724",
    "prefectureCode": "24",
    "prefectureNumber": 24,
    "prefecture": "三重県",
    "city": "松阪市",
    "town": "飯高町桑原"
  },
  "5151725": {
    "zipcode": "5151725",
    "prefectureCode": "24",
    "prefectureNumber": 24,
    "prefecture": "三重県",
    "city": "松阪市",
    "town": "飯高町波瀬"
  },
  "5151726": {
    "zipcode": "5151726",
    "prefectureCode": "24",
    "prefectureNumber": 24,
    "prefecture": "三重県",
    "city": "松阪市",
    "town": "飯高町太良木"
  },
  "5151727": {
    "zipcode": "5151727",
    "prefectureCode": "24",
    "prefectureNumber": 24,
    "prefecture": "三重県",
    "city": "松阪市",
    "town": "飯高町草鹿野"
  },
  "5151731": {
    "zipcode": "5151731",
    "prefectureCode": "24",
    "prefectureNumber": 24,
    "prefecture": "三重県",
    "city": "松阪市",
    "town": "飯高町舟戸"
  },
  "5151732": {
    "zipcode": "5151732",
    "prefectureCode": "24",
    "prefectureNumber": 24,
    "prefecture": "三重県",
    "city": "松阪市",
    "town": "飯高町落方"
  },
  "5151733": {
    "zipcode": "5151733",
    "prefectureCode": "24",
    "prefectureNumber": 24,
    "prefecture": "三重県",
    "city": "松阪市",
    "town": "飯高町栃谷"
  },
  "5151734": {
    "zipcode": "5151734",
    "prefectureCode": "24",
    "prefectureNumber": 24,
    "prefecture": "三重県",
    "city": "松阪市",
    "town": "飯高町木梶"
  },
  "5152101": {
    "zipcode": "5152101",
    "prefectureCode": "24",
    "prefectureNumber": 24,
    "prefecture": "三重県",
    "city": "松阪市",
    "town": "星合町"
  },
  "5152102": {
    "zipcode": "5152102",
    "prefectureCode": "24",
    "prefectureNumber": 24,
    "prefecture": "三重県",
    "city": "松阪市",
    "town": "五主町"
  },
  "5152103": {
    "zipcode": "5152103",
    "prefectureCode": "24",
    "prefectureNumber": 24,
    "prefecture": "三重県",
    "city": "松阪市",
    "town": "笠松町"
  },
  "5152104": {
    "zipcode": "5152104",
    "prefectureCode": "24",
    "prefectureNumber": 24,
    "prefecture": "三重県",
    "city": "松阪市",
    "town": "小舟江町"
  },
  "5152105": {
    "zipcode": "5152105",
    "prefectureCode": "24",
    "prefectureNumber": 24,
    "prefecture": "三重県",
    "city": "松阪市",
    "town": "肥留町"
  },
  "5152106": {
    "zipcode": "5152106",
    "prefectureCode": "24",
    "prefectureNumber": 24,
    "prefecture": "三重県",
    "city": "松阪市",
    "town": "西肥留町"
  },
  "5152107": {
    "zipcode": "5152107",
    "prefectureCode": "24",
    "prefectureNumber": 24,
    "prefecture": "三重県",
    "city": "松阪市",
    "town": "舞出町"
  },
  "5152108": {
    "zipcode": "5152108",
    "prefectureCode": "24",
    "prefectureNumber": 24,
    "prefecture": "三重県",
    "city": "松阪市",
    "town": "甚目町"
  },
  "5152109": {
    "zipcode": "5152109",
    "prefectureCode": "24",
    "prefectureNumber": 24,
    "prefecture": "三重県",
    "city": "松阪市",
    "town": "小野江町"
  },
  "5152111": {
    "zipcode": "5152111",
    "prefectureCode": "24",
    "prefectureNumber": 24,
    "prefecture": "三重県",
    "city": "松阪市",
    "town": "中林町"
  },
  "5152112": {
    "zipcode": "5152112",
    "prefectureCode": "24",
    "prefectureNumber": 24,
    "prefecture": "三重県",
    "city": "松阪市",
    "town": "曽原町"
  },
  "5152113": {
    "zipcode": "5152113",
    "prefectureCode": "24",
    "prefectureNumber": 24,
    "prefecture": "三重県",
    "city": "松阪市",
    "town": "喜多村新田町"
  },
  "5152114": {
    "zipcode": "5152114",
    "prefectureCode": "24",
    "prefectureNumber": 24,
    "prefecture": "三重県",
    "city": "松阪市",
    "town": "小津町"
  },
  "5152115": {
    "zipcode": "5152115",
    "prefectureCode": "24",
    "prefectureNumber": 24,
    "prefecture": "三重県",
    "city": "松阪市",
    "town": "中道町"
  },
  "5152121": {
    "zipcode": "5152121",
    "prefectureCode": "24",
    "prefectureNumber": 24,
    "prefecture": "三重県",
    "city": "松阪市",
    "town": "市場庄町"
  },
  "5152122": {
    "zipcode": "5152122",
    "prefectureCode": "24",
    "prefectureNumber": 24,
    "prefecture": "三重県",
    "city": "松阪市",
    "town": "久米町"
  },
  "5152123": {
    "zipcode": "5152123",
    "prefectureCode": "24",
    "prefectureNumber": 24,
    "prefecture": "三重県",
    "city": "松阪市",
    "town": "上ノ庄町"
  },
  "5152124": {
    "zipcode": "5152124",
    "prefectureCode": "24",
    "prefectureNumber": 24,
    "prefecture": "三重県",
    "city": "松阪市",
    "town": "中ノ庄町"
  },
  "5152131": {
    "zipcode": "5152131",
    "prefectureCode": "24",
    "prefectureNumber": 24,
    "prefecture": "三重県",
    "city": "松阪市",
    "town": "六軒町"
  },
  "5152132": {
    "zipcode": "5152132",
    "prefectureCode": "24",
    "prefectureNumber": 24,
    "prefecture": "三重県",
    "city": "松阪市",
    "town": "松崎浦町"
  },
  "5152133": {
    "zipcode": "5152133",
    "prefectureCode": "24",
    "prefectureNumber": 24,
    "prefecture": "三重県",
    "city": "松阪市",
    "town": "松ケ島町"
  },
  "5152301": {
    "zipcode": "5152301",
    "prefectureCode": "24",
    "prefectureNumber": 24,
    "prefecture": "三重県",
    "city": "松阪市",
    "town": "嬉野島田町"
  },
  "5152302": {
    "zipcode": "5152302",
    "prefectureCode": "24",
    "prefectureNumber": 24,
    "prefecture": "三重県",
    "city": "松阪市",
    "town": "嬉野天花寺町"
  },
  "5152303": {
    "zipcode": "5152303",
    "prefectureCode": "24",
    "prefectureNumber": 24,
    "prefecture": "三重県",
    "city": "松阪市",
    "town": "嬉野宮古町"
  },
  "5152304": {
    "zipcode": "5152304",
    "prefectureCode": "24",
    "prefectureNumber": 24,
    "prefecture": "三重県",
    "city": "松阪市",
    "town": "嬉野平生町"
  },
  "5152305": {
    "zipcode": "5152305",
    "prefectureCode": "24",
    "prefectureNumber": 24,
    "prefecture": "三重県",
    "city": "松阪市",
    "town": "嬉野一志町"
  },
  "5152311": {
    "zipcode": "5152311",
    "prefectureCode": "24",
    "prefectureNumber": 24,
    "prefecture": "三重県",
    "city": "松阪市",
    "town": "嬉野黒田町"
  },
  "5152312": {
    "zipcode": "5152312",
    "prefectureCode": "24",
    "prefectureNumber": 24,
    "prefecture": "三重県",
    "city": "松阪市",
    "town": "嬉野見永町"
  },
  "5152313": {
    "zipcode": "5152313",
    "prefectureCode": "24",
    "prefectureNumber": 24,
    "prefecture": "三重県",
    "city": "松阪市",
    "town": "嬉野川原木造町"
  },
  "5152314": {
    "zipcode": "5152314",
    "prefectureCode": "24",
    "prefectureNumber": 24,
    "prefecture": "三重県",
    "city": "松阪市",
    "town": "嬉野新屋庄町"
  },
  "5152315": {
    "zipcode": "5152315",
    "prefectureCode": "24",
    "prefectureNumber": 24,
    "prefecture": "三重県",
    "city": "松阪市",
    "town": "嬉野小村町"
  },
  "5152316": {
    "zipcode": "5152316",
    "prefectureCode": "24",
    "prefectureNumber": 24,
    "prefecture": "三重県",
    "city": "松阪市",
    "town": "嬉野川北町"
  },
  "5152317": {
    "zipcode": "5152317",
    "prefectureCode": "24",
    "prefectureNumber": 24,
    "prefecture": "三重県",
    "city": "松阪市",
    "town": "嬉野野田町"
  },
  "5152321": {
    "zipcode": "5152321",
    "prefectureCode": "24",
    "prefectureNumber": 24,
    "prefecture": "三重県",
    "city": "松阪市",
    "town": "嬉野中川町"
  },
  "5152322": {
    "zipcode": "5152322",
    "prefectureCode": "24",
    "prefectureNumber": 24,
    "prefecture": "三重県",
    "city": "松阪市",
    "town": "嬉野須賀町"
  },
  "5152323": {
    "zipcode": "5152323",
    "prefectureCode": "24",
    "prefectureNumber": 24,
    "prefecture": "三重県",
    "city": "松阪市",
    "town": "嬉野権現前町"
  },
  "5152324": {
    "zipcode": "5152324",
    "prefectureCode": "24",
    "prefectureNumber": 24,
    "prefecture": "三重県",
    "city": "松阪市",
    "town": "嬉野町"
  },
  "5152325": {
    "zipcode": "5152325",
    "prefectureCode": "24",
    "prefectureNumber": 24,
    "prefecture": "三重県",
    "city": "松阪市",
    "town": "嬉野中川新町"
  },
  "5152331": {
    "zipcode": "5152331",
    "prefectureCode": "24",
    "prefectureNumber": 24,
    "prefecture": "三重県",
    "city": "松阪市",
    "town": "嬉野須賀領町"
  },
  "5152332": {
    "zipcode": "5152332",
    "prefectureCode": "24",
    "prefectureNumber": 24,
    "prefecture": "三重県",
    "city": "松阪市",
    "town": "嬉野津屋城町"
  },
  "5152333": {
    "zipcode": "5152333",
    "prefectureCode": "24",
    "prefectureNumber": 24,
    "prefecture": "三重県",
    "city": "松阪市",
    "town": "嬉野田村町"
  },
  "5152334": {
    "zipcode": "5152334",
    "prefectureCode": "24",
    "prefectureNumber": 24,
    "prefecture": "三重県",
    "city": "松阪市",
    "town": "嬉野黒野町"
  },
  "5152335": {
    "zipcode": "5152335",
    "prefectureCode": "24",
    "prefectureNumber": 24,
    "prefecture": "三重県",
    "city": "松阪市",
    "town": "嬉野算所町"
  },
  "5152341": {
    "zipcode": "5152341",
    "prefectureCode": "24",
    "prefectureNumber": 24,
    "prefecture": "三重県",
    "city": "松阪市",
    "town": "小野町"
  },
  "5152342": {
    "zipcode": "5152342",
    "prefectureCode": "24",
    "prefectureNumber": 24,
    "prefecture": "三重県",
    "city": "松阪市",
    "town": "大阿坂町"
  },
  "5152343": {
    "zipcode": "5152343",
    "prefectureCode": "24",
    "prefectureNumber": 24,
    "prefecture": "三重県",
    "city": "松阪市",
    "town": "小阿坂町"
  },
  "5152344": {
    "zipcode": "5152344",
    "prefectureCode": "24",
    "prefectureNumber": 24,
    "prefecture": "三重県",
    "city": "松阪市",
    "town": "美濃田町"
  },
  "5152351": {
    "zipcode": "5152351",
    "prefectureCode": "24",
    "prefectureNumber": 24,
    "prefecture": "三重県",
    "city": "松阪市",
    "town": "嬉野井之上町"
  },
  "5152352": {
    "zipcode": "5152352",
    "prefectureCode": "24",
    "prefectureNumber": 24,
    "prefecture": "三重県",
    "city": "松阪市",
    "town": "嬉野八田町"
  },
  "5152353": {
    "zipcode": "5152353",
    "prefectureCode": "24",
    "prefectureNumber": 24,
    "prefecture": "三重県",
    "city": "松阪市",
    "town": "嬉野堀之内町"
  },
  "5152354": {
    "zipcode": "5152354",
    "prefectureCode": "24",
    "prefectureNumber": 24,
    "prefecture": "三重県",
    "city": "松阪市",
    "town": "嬉野下之庄町"
  },
  "5152355": {
    "zipcode": "5152355",
    "prefectureCode": "24",
    "prefectureNumber": 24,
    "prefecture": "三重県",
    "city": "松阪市",
    "town": "嬉野薬王寺町"
  },
  "5152356": {
    "zipcode": "5152356",
    "prefectureCode": "24",
    "prefectureNumber": 24,
    "prefecture": "三重県",
    "city": "松阪市",
    "town": "嬉野上野町"
  },
  "5152357": {
    "zipcode": "5152357",
    "prefectureCode": "24",
    "prefectureNumber": 24,
    "prefecture": "三重県",
    "city": "松阪市",
    "town": "嬉野神ノ木町"
  },
  "5152401": {
    "zipcode": "5152401",
    "prefectureCode": "24",
    "prefectureNumber": 24,
    "prefecture": "三重県",
    "city": "松阪市",
    "town": "嬉野釜生田町"
  },
  "5152402": {
    "zipcode": "5152402",
    "prefectureCode": "24",
    "prefectureNumber": 24,
    "prefecture": "三重県",
    "city": "松阪市",
    "town": "嬉野森本町"
  },
  "5152403": {
    "zipcode": "5152403",
    "prefectureCode": "24",
    "prefectureNumber": 24,
    "prefecture": "三重県",
    "city": "松阪市",
    "town": "嬉野岩倉町"
  },
  "5152404": {
    "zipcode": "5152404",
    "prefectureCode": "24",
    "prefectureNumber": 24,
    "prefecture": "三重県",
    "city": "松阪市",
    "town": "嬉野上小川町"
  },
  "5152405": {
    "zipcode": "5152405",
    "prefectureCode": "24",
    "prefectureNumber": 24,
    "prefecture": "三重県",
    "city": "松阪市",
    "town": "嬉野小原町"
  },
  "5152406": {
    "zipcode": "5152406",
    "prefectureCode": "24",
    "prefectureNumber": 24,
    "prefecture": "三重県",
    "city": "松阪市",
    "town": "嬉野合ケ野町"
  },
  "5152407": {
    "zipcode": "5152407",
    "prefectureCode": "24",
    "prefectureNumber": 24,
    "prefecture": "三重県",
    "city": "松阪市",
    "town": "嬉野矢下町"
  },
  "5152408": {
    "zipcode": "5152408",
    "prefectureCode": "24",
    "prefectureNumber": 24,
    "prefecture": "三重県",
    "city": "松阪市",
    "town": "嬉野宮野町"
  },
  "5152409": {
    "zipcode": "5152409",
    "prefectureCode": "24",
    "prefectureNumber": 24,
    "prefecture": "三重県",
    "city": "松阪市",
    "town": "嬉野滝之川町"
  },
  "5152411": {
    "zipcode": "5152411",
    "prefectureCode": "24",
    "prefectureNumber": 24,
    "prefecture": "三重県",
    "city": "松阪市",
    "town": "与原町"
  },
  "5152412": {
    "zipcode": "5152412",
    "prefectureCode": "24",
    "prefectureNumber": 24,
    "prefecture": "三重県",
    "city": "松阪市",
    "town": "飯福田町"
  },
  "5152413": {
    "zipcode": "5152413",
    "prefectureCode": "24",
    "prefectureNumber": 24,
    "prefecture": "三重県",
    "city": "松阪市",
    "town": "後山町"
  },
  "5152414": {
    "zipcode": "5152414",
    "prefectureCode": "24",
    "prefectureNumber": 24,
    "prefecture": "三重県",
    "city": "松阪市",
    "town": "柚原町"
  },
  "5152501": {
    "zipcode": "5152501",
    "prefectureCode": "24",
    "prefectureNumber": 24,
    "prefecture": "三重県",
    "city": "津市",
    "town": "一志町庄村"
  },
  "5152502": {
    "zipcode": "5152502",
    "prefectureCode": "24",
    "prefectureNumber": 24,
    "prefecture": "三重県",
    "city": "津市",
    "town": "一志町其村"
  },
  "5152503": {
    "zipcode": "5152503",
    "prefectureCode": "24",
    "prefectureNumber": 24,
    "prefecture": "三重県",
    "city": "津市",
    "town": "一志町日置"
  },
  "5152504": {
    "zipcode": "5152504",
    "prefectureCode": "24",
    "prefectureNumber": 24,
    "prefecture": "三重県",
    "city": "津市",
    "town": "一志町高野（その他）"
  },
  "5152505": {
    "zipcode": "5152505",
    "prefectureCode": "24",
    "prefectureNumber": 24,
    "prefecture": "三重県",
    "city": "津市",
    "town": "一志町小戸木"
  },
  "5152511": {
    "zipcode": "5152511",
    "prefectureCode": "24",
    "prefectureNumber": 24,
    "prefecture": "三重県",
    "city": "津市",
    "town": "一志町片野"
  },
  "5152512": {
    "zipcode": "5152512",
    "prefectureCode": "24",
    "prefectureNumber": 24,
    "prefecture": "三重県",
    "city": "津市",
    "town": "一志町新沢田"
  },
  "5152513": {
    "zipcode": "5152513",
    "prefectureCode": "24",
    "prefectureNumber": 24,
    "prefecture": "三重県",
    "city": "津市",
    "town": "一志町虹が丘"
  },
  "5152514": {
    "zipcode": "5152514",
    "prefectureCode": "24",
    "prefectureNumber": 24,
    "prefecture": "三重県",
    "city": "津市",
    "town": "一志町小山（その他）"
  },
  "5152515": {
    "zipcode": "5152515",
    "prefectureCode": "24",
    "prefectureNumber": 24,
    "prefecture": "三重県",
    "city": "津市",
    "town": "一志町八太（その他）"
  },
  "5152516": {
    "zipcode": "5152516",
    "prefectureCode": "24",
    "prefectureNumber": 24,
    "prefecture": "三重県",
    "city": "津市",
    "town": "一志町田尻"
  },
  "5152517": {
    "zipcode": "5152517",
    "prefectureCode": "24",
    "prefectureNumber": 24,
    "prefecture": "三重県",
    "city": "津市",
    "town": "一志町みのりケ丘"
  },
  "5152521": {
    "zipcode": "5152521",
    "prefectureCode": "24",
    "prefectureNumber": 24,
    "prefecture": "三重県",
    "city": "津市",
    "town": "一志町井関"
  },
  "5152522": {
    "zipcode": "5152522",
    "prefectureCode": "24",
    "prefectureNumber": 24,
    "prefecture": "三重県",
    "city": "津市",
    "town": "一志町波瀬"
  },
  "5152523": {
    "zipcode": "5152523",
    "prefectureCode": "24",
    "prefectureNumber": 24,
    "prefecture": "三重県",
    "city": "津市",
    "town": "一志町井生"
  },
  "5152524": {
    "zipcode": "5152524",
    "prefectureCode": "24",
    "prefectureNumber": 24,
    "prefecture": "三重県",
    "city": "津市",
    "town": "一志町大仰"
  },
  "5152525": {
    "zipcode": "5152525",
    "prefectureCode": "24",
    "prefectureNumber": 24,
    "prefecture": "三重県",
    "city": "津市",
    "town": "一志町石橋"
  },
  "5152526": {
    "zipcode": "5152526",
    "prefectureCode": "24",
    "prefectureNumber": 24,
    "prefecture": "三重県",
    "city": "津市",
    "town": "一志町其倉"
  },
  "5152601": {
    "zipcode": "5152601",
    "prefectureCode": "24",
    "prefectureNumber": 24,
    "prefecture": "三重県",
    "city": "津市",
    "town": "白山町三ケ野"
  },
  "5152602": {
    "zipcode": "5152602",
    "prefectureCode": "24",
    "prefectureNumber": 24,
    "prefecture": "三重県",
    "city": "津市",
    "town": "白山町二本木"
  },
  "5152603": {
    "zipcode": "5152603",
    "prefectureCode": "24",
    "prefectureNumber": 24,
    "prefecture": "三重県",
    "city": "津市",
    "town": "白山町川口"
  },
  "5152604": {
    "zipcode": "5152604",
    "prefectureCode": "24",
    "prefectureNumber": 24,
    "prefecture": "三重県",
    "city": "津市",
    "town": "白山町岡"
  },
  "5152605": {
    "zipcode": "5152605",
    "prefectureCode": "24",
    "prefectureNumber": 24,
    "prefecture": "三重県",
    "city": "津市",
    "town": "白山台"
  },
  "5152611": {
    "zipcode": "5152611",
    "prefectureCode": "24",
    "prefectureNumber": 24,
    "prefecture": "三重県",
    "city": "津市",
    "town": "白山町南出"
  },
  "5152612": {
    "zipcode": "5152612",
    "prefectureCode": "24",
    "prefectureNumber": 24,
    "prefecture": "三重県",
    "city": "津市",
    "town": "白山町古市"
  },
  "5152613": {
    "zipcode": "5152613",
    "prefectureCode": "24",
    "prefectureNumber": 24,
    "prefecture": "三重県",
    "city": "津市",
    "town": "白山町山田野"
  },
  "5152614": {
    "zipcode": "5152614",
    "prefectureCode": "24",
    "prefectureNumber": 24,
    "prefecture": "三重県",
    "city": "津市",
    "town": "白山町伊勢見"
  },
  "5152615": {
    "zipcode": "5152615",
    "prefectureCode": "24",
    "prefectureNumber": 24,
    "prefecture": "三重県",
    "city": "津市",
    "town": "白山町八対野"
  },
  "5152616": {
    "zipcode": "5152616",
    "prefectureCode": "24",
    "prefectureNumber": 24,
    "prefecture": "三重県",
    "city": "津市",
    "town": "白山町稲垣"
  },
  "5152617": {
    "zipcode": "5152617",
    "prefectureCode": "24",
    "prefectureNumber": 24,
    "prefecture": "三重県",
    "city": "津市",
    "town": "グリンタウン榊原"
  },
  "5152621": {
    "zipcode": "5152621",
    "prefectureCode": "24",
    "prefectureNumber": 24,
    "prefecture": "三重県",
    "city": "津市",
    "town": "白山町佐田"
  },
  "5152622": {
    "zipcode": "5152622",
    "prefectureCode": "24",
    "prefectureNumber": 24,
    "prefecture": "三重県",
    "city": "津市",
    "town": "白山町中ノ村"
  },
  "5152623": {
    "zipcode": "5152623",
    "prefectureCode": "24",
    "prefectureNumber": 24,
    "prefecture": "三重県",
    "city": "津市",
    "town": "白山町上ノ村"
  },
  "5152624": {
    "zipcode": "5152624",
    "prefectureCode": "24",
    "prefectureNumber": 24,
    "prefecture": "三重県",
    "city": "津市",
    "town": "白山町垣内"
  },
  "5153131": {
    "zipcode": "5153131",
    "prefectureCode": "24",
    "prefectureNumber": 24,
    "prefecture": "三重県",
    "city": "津市",
    "town": "白山町藤"
  },
  "5153132": {
    "zipcode": "5153132",
    "prefectureCode": "24",
    "prefectureNumber": 24,
    "prefecture": "三重県",
    "city": "津市",
    "town": "白山町北家城"
  },
  "5153133": {
    "zipcode": "5153133",
    "prefectureCode": "24",
    "prefectureNumber": 24,
    "prefecture": "三重県",
    "city": "津市",
    "town": "白山町南家城"
  },
  "5153134": {
    "zipcode": "5153134",
    "prefectureCode": "24",
    "prefectureNumber": 24,
    "prefecture": "三重県",
    "city": "津市",
    "town": "白山町真見"
  },
  "5153135": {
    "zipcode": "5153135",
    "prefectureCode": "24",
    "prefectureNumber": 24,
    "prefecture": "三重県",
    "city": "津市",
    "town": "白山町二俣"
  },
  "5153136": {
    "zipcode": "5153136",
    "prefectureCode": "24",
    "prefectureNumber": 24,
    "prefecture": "三重県",
    "city": "津市",
    "town": "白山町福田山"
  },
  "5153137": {
    "zipcode": "5153137",
    "prefectureCode": "24",
    "prefectureNumber": 24,
    "prefecture": "三重県",
    "city": "津市",
    "town": "白山町大原"
  },
  "5153138": {
    "zipcode": "5153138",
    "prefectureCode": "24",
    "prefectureNumber": 24,
    "prefecture": "三重県",
    "city": "津市",
    "town": "白山町小杉"
  },
  "5153139": {
    "zipcode": "5153139",
    "prefectureCode": "24",
    "prefectureNumber": 24,
    "prefecture": "三重県",
    "city": "津市",
    "town": "白山町城立"
  },
  "5153201": {
    "zipcode": "5153201",
    "prefectureCode": "24",
    "prefectureNumber": 24,
    "prefecture": "三重県",
    "city": "津市",
    "town": "美杉町竹原"
  },
  "5153202": {
    "zipcode": "5153202",
    "prefectureCode": "24",
    "prefectureNumber": 24,
    "prefecture": "三重県",
    "city": "津市",
    "town": "美杉町八手俣"
  },
  "5153203": {
    "zipcode": "5153203",
    "prefectureCode": "24",
    "prefectureNumber": 24,
    "prefecture": "三重県",
    "city": "津市",
    "town": "美杉町下之川"
  },
  "5153311": {
    "zipcode": "5153311",
    "prefectureCode": "24",
    "prefectureNumber": 24,
    "prefecture": "三重県",
    "city": "津市",
    "town": "美杉町下多気"
  },
  "5153312": {
    "zipcode": "5153312",
    "prefectureCode": "24",
    "prefectureNumber": 24,
    "prefecture": "三重県",
    "city": "津市",
    "town": "美杉町上多気"
  },
  "5153313": {
    "zipcode": "5153313",
    "prefectureCode": "24",
    "prefectureNumber": 24,
    "prefecture": "三重県",
    "city": "津市",
    "town": "美杉町丹生俣"
  },
  "5153421": {
    "zipcode": "5153421",
    "prefectureCode": "24",
    "prefectureNumber": 24,
    "prefecture": "三重県",
    "city": "津市",
    "town": "美杉町八知"
  },
  "5153531": {
    "zipcode": "5153531",
    "prefectureCode": "24",
    "prefectureNumber": 24,
    "prefecture": "三重県",
    "city": "津市",
    "town": "美杉町奥津"
  },
  "5153532": {
    "zipcode": "5153532",
    "prefectureCode": "24",
    "prefectureNumber": 24,
    "prefecture": "三重県",
    "city": "津市",
    "town": "美杉町川上"
  },
  "5153533": {
    "zipcode": "5153533",
    "prefectureCode": "24",
    "prefectureNumber": 24,
    "prefecture": "三重県",
    "city": "津市",
    "town": "美杉町石名原"
  },
  "5153534": {
    "zipcode": "5153534",
    "prefectureCode": "24",
    "prefectureNumber": 24,
    "prefecture": "三重県",
    "city": "津市",
    "town": "美杉町杉平"
  },
  "5153535": {
    "zipcode": "5153535",
    "prefectureCode": "24",
    "prefectureNumber": 24,
    "prefecture": "三重県",
    "city": "津市",
    "town": "美杉町三多気"
  },
  "5153536": {
    "zipcode": "5153536",
    "prefectureCode": "24",
    "prefectureNumber": 24,
    "prefecture": "三重県",
    "city": "津市",
    "town": "美杉町太郎生"
  }
}
