{
  "5160000": {
    "zipcode": "5160000",
    "prefectureCode": "24",
    "prefectureNumber": 24,
    "prefecture": "三重県",
    "city": "伊勢市",
    "town": "以下に掲載がない場合"
  },
  "5160001": {
    "zipcode": "5160001",
    "prefectureCode": "24",
    "prefectureNumber": 24,
    "prefecture": "三重県",
    "city": "伊勢市",
    "town": "大湊町"
  },
  "5160002": {
    "zipcode": "5160002",
    "prefectureCode": "24",
    "prefectureNumber": 24,
    "prefecture": "三重県",
    "city": "伊勢市",
    "town": "馬瀬町"
  },
  "5160003": {
    "zipcode": "5160003",
    "prefectureCode": "24",
    "prefectureNumber": 24,
    "prefecture": "三重県",
    "city": "伊勢市",
    "town": "下野町"
  },
  "5160004": {
    "zipcode": "5160004",
    "prefectureCode": "24",
    "prefectureNumber": 24,
    "prefecture": "三重県",
    "city": "伊勢市",
    "town": "神社港"
  },
  "5160005": {
    "zipcode": "5160005",
    "prefectureCode": "24",
    "prefectureNumber": 24,
    "prefecture": "三重県",
    "city": "伊勢市",
    "town": "竹ケ鼻町"
  },
  "5160006": {
    "zipcode": "5160006",
    "prefectureCode": "24",
    "prefectureNumber": 24,
    "prefecture": "三重県",
    "city": "伊勢市",
    "town": "田尻町"
  },
  "5160007": {
    "zipcode": "5160007",
    "prefectureCode": "24",
    "prefectureNumber": 24,
    "prefecture": "三重県",
    "city": "伊勢市",
    "town": "小木町"
  },
  "5160008": {
    "zipcode": "5160008",
    "prefectureCode": "24",
    "prefectureNumber": 24,
    "prefecture": "三重県",
    "city": "伊勢市",
    "town": "船江"
  },
  "5160009": {
    "zipcode": "5160009",
    "prefectureCode": "24",
    "prefectureNumber": 24,
    "prefecture": "三重県",
    "city": "伊勢市",
    "town": "河崎"
  },
  "5160011": {
    "zipcode": "5160011",
    "prefectureCode": "24",
    "prefectureNumber": 24,
    "prefecture": "三重県",
    "city": "伊勢市",
    "town": "一色町"
  },
  "5160012": {
    "zipcode": "5160012",
    "prefectureCode": "24",
    "prefectureNumber": 24,
    "prefecture": "三重県",
    "city": "伊勢市",
    "town": "通町"
  },
  "5160013": {
    "zipcode": "5160013",
    "prefectureCode": "24",
    "prefectureNumber": 24,
    "prefecture": "三重県",
    "city": "伊勢市",
    "town": "鹿海町"
  },
  "5160014": {
    "zipcode": "5160014",
    "prefectureCode": "24",
    "prefectureNumber": 24,
    "prefecture": "三重県",
    "city": "伊勢市",
    "town": "楠部町"
  },
  "5160015": {
    "zipcode": "5160015",
    "prefectureCode": "24",
    "prefectureNumber": 24,
    "prefecture": "三重県",
    "city": "伊勢市",
    "town": "久世戸町"
  },
  "5160016": {
    "zipcode": "5160016",
    "prefectureCode": "24",
    "prefectureNumber": 24,
    "prefecture": "三重県",
    "city": "伊勢市",
    "town": "神田久志本町"
  },
  "5160017": {
    "zipcode": "5160017",
    "prefectureCode": "24",
    "prefectureNumber": 24,
    "prefecture": "三重県",
    "city": "伊勢市",
    "town": "神久"
  },
  "5160018": {
    "zipcode": "5160018",
    "prefectureCode": "24",
    "prefectureNumber": 24,
    "prefecture": "三重県",
    "city": "伊勢市",
    "town": "黒瀬町"
  },
  "5160021": {
    "zipcode": "5160021",
    "prefectureCode": "24",
    "prefectureNumber": 24,
    "prefecture": "三重県",
    "city": "伊勢市",
    "town": "朝熊町（その他）"
  },
  "5160022": {
    "zipcode": "5160022",
    "prefectureCode": "24",
    "prefectureNumber": 24,
    "prefecture": "三重県",
    "city": "伊勢市",
    "town": "一宇田町"
  },
  "5160023": {
    "zipcode": "5160023",
    "prefectureCode": "24",
    "prefectureNumber": 24,
    "prefecture": "三重県",
    "city": "伊勢市",
    "town": "宇治館町"
  },
  "5160024": {
    "zipcode": "5160024",
    "prefectureCode": "24",
    "prefectureNumber": 24,
    "prefecture": "三重県",
    "city": "伊勢市",
    "town": "宇治今在家町"
  },
  "5160025": {
    "zipcode": "5160025",
    "prefectureCode": "24",
    "prefectureNumber": 24,
    "prefecture": "三重県",
    "city": "伊勢市",
    "town": "宇治中之切町"
  },
  "5160026": {
    "zipcode": "5160026",
    "prefectureCode": "24",
    "prefectureNumber": 24,
    "prefecture": "三重県",
    "city": "伊勢市",
    "town": "宇治浦田"
  },
  "5160027": {
    "zipcode": "5160027",
    "prefectureCode": "24",
    "prefectureNumber": 24,
    "prefecture": "三重県",
    "city": "伊勢市",
    "town": "桜木町"
  },
  "5160028": {
    "zipcode": "5160028",
    "prefectureCode": "24",
    "prefectureNumber": 24,
    "prefecture": "三重県",
    "city": "伊勢市",
    "town": "中村町"
  },
  "5160031": {
    "zipcode": "5160031",
    "prefectureCode": "24",
    "prefectureNumber": 24,
    "prefecture": "三重県",
    "city": "伊勢市",
    "town": "尾上町"
  },
  "5160032": {
    "zipcode": "5160032",
    "prefectureCode": "24",
    "prefectureNumber": 24,
    "prefecture": "三重県",
    "city": "伊勢市",
    "town": "倭町"
  },
  "5160033": {
    "zipcode": "5160033",
    "prefectureCode": "24",
    "prefectureNumber": 24,
    "prefecture": "三重県",
    "city": "伊勢市",
    "town": "古市町"
  },
  "5160034": {
    "zipcode": "5160034",
    "prefectureCode": "24",
    "prefectureNumber": 24,
    "prefecture": "三重県",
    "city": "伊勢市",
    "town": "中之町"
  },
  "5160035": {
    "zipcode": "5160035",
    "prefectureCode": "24",
    "prefectureNumber": 24,
    "prefecture": "三重県",
    "city": "伊勢市",
    "town": "勢田町"
  },
  "5160036": {
    "zipcode": "5160036",
    "prefectureCode": "24",
    "prefectureNumber": 24,
    "prefecture": "三重県",
    "city": "伊勢市",
    "town": "岡本"
  },
  "5160037": {
    "zipcode": "5160037",
    "prefectureCode": "24",
    "prefectureNumber": 24,
    "prefecture": "三重県",
    "city": "伊勢市",
    "town": "岩渕"
  },
  "5160038": {
    "zipcode": "5160038",
    "prefectureCode": "24",
    "prefectureNumber": 24,
    "prefecture": "三重県",
    "city": "伊勢市",
    "town": "岩渕町"
  },
  "5160041": {
    "zipcode": "5160041",
    "prefectureCode": "24",
    "prefectureNumber": 24,
    "prefecture": "三重県",
    "city": "伊勢市",
    "town": "常磐"
  },
  "5160042": {
    "zipcode": "5160042",
    "prefectureCode": "24",
    "prefectureNumber": 24,
    "prefecture": "三重県",
    "city": "伊勢市",
    "town": "豊川町"
  },
  "5160043": {
    "zipcode": "5160043",
    "prefectureCode": "24",
    "prefectureNumber": 24,
    "prefecture": "三重県",
    "city": "伊勢市",
    "town": "藤里町"
  },
  "5160044": {
    "zipcode": "5160044",
    "prefectureCode": "24",
    "prefectureNumber": 24,
    "prefecture": "三重県",
    "city": "伊勢市",
    "town": "前山町"
  },
  "5160045": {
    "zipcode": "5160045",
    "prefectureCode": "24",
    "prefectureNumber": 24,
    "prefecture": "三重県",
    "city": "伊勢市",
    "town": "旭町"
  },
  "5160046": {
    "zipcode": "5160046",
    "prefectureCode": "24",
    "prefectureNumber": 24,
    "prefecture": "三重県",
    "city": "伊勢市",
    "town": "辻久留町"
  },
  "5160047": {
    "zipcode": "5160047",
    "prefectureCode": "24",
    "prefectureNumber": 24,
    "prefecture": "三重県",
    "city": "伊勢市",
    "town": "常磐町"
  },
  "5160051": {
    "zipcode": "5160051",
    "prefectureCode": "24",
    "prefectureNumber": 24,
    "prefecture": "三重県",
    "city": "伊勢市",
    "town": "上地町"
  },
  "5160052": {
    "zipcode": "5160052",
    "prefectureCode": "24",
    "prefectureNumber": 24,
    "prefecture": "三重県",
    "city": "伊勢市",
    "town": "川端町"
  },
  "5160053": {
    "zipcode": "5160053",
    "prefectureCode": "24",
    "prefectureNumber": 24,
    "prefecture": "三重県",
    "city": "伊勢市",
    "town": "中須町"
  },
  "5160054": {
    "zipcode": "5160054",
    "prefectureCode": "24",
    "prefectureNumber": 24,
    "prefecture": "三重県",
    "city": "伊勢市",
    "town": "粟野町"
  },
  "5160061": {
    "zipcode": "5160061",
    "prefectureCode": "24",
    "prefectureNumber": 24,
    "prefecture": "三重県",
    "city": "伊勢市",
    "town": "宮川"
  },
  "5160062": {
    "zipcode": "5160062",
    "prefectureCode": "24",
    "prefectureNumber": 24,
    "prefecture": "三重県",
    "city": "伊勢市",
    "town": "浦口"
  },
  "5160063": {
    "zipcode": "5160063",
    "prefectureCode": "24",
    "prefectureNumber": 24,
    "prefecture": "三重県",
    "city": "伊勢市",
    "town": "浦口町"
  },
  "5160064": {
    "zipcode": "5160064",
    "prefectureCode": "24",
    "prefectureNumber": 24,
    "prefecture": "三重県",
    "city": "伊勢市",
    "town": "二俣"
  },
  "5160065": {
    "zipcode": "5160065",
    "prefectureCode": "24",
    "prefectureNumber": 24,
    "prefecture": "三重県",
    "city": "伊勢市",
    "town": "二俣町"
  },
  "5160066": {
    "zipcode": "5160066",
    "prefectureCode": "24",
    "prefectureNumber": 24,
    "prefecture": "三重県",
    "city": "伊勢市",
    "town": "辻久留"
  },
  "5160067": {
    "zipcode": "5160067",
    "prefectureCode": "24",
    "prefectureNumber": 24,
    "prefecture": "三重県",
    "city": "伊勢市",
    "town": "中島"
  },
  "5160071": {
    "zipcode": "5160071",
    "prefectureCode": "24",
    "prefectureNumber": 24,
    "prefecture": "三重県",
    "city": "伊勢市",
    "town": "一之木"
  },
  "5160072": {
    "zipcode": "5160072",
    "prefectureCode": "24",
    "prefectureNumber": 24,
    "prefecture": "三重県",
    "city": "伊勢市",
    "town": "宮後"
  },
  "5160073": {
    "zipcode": "5160073",
    "prefectureCode": "24",
    "prefectureNumber": 24,
    "prefecture": "三重県",
    "city": "伊勢市",
    "town": "吹上"
  },
  "5160074": {
    "zipcode": "5160074",
    "prefectureCode": "24",
    "prefectureNumber": 24,
    "prefecture": "三重県",
    "city": "伊勢市",
    "town": "本町"
  },
  "5160075": {
    "zipcode": "5160075",
    "prefectureCode": "24",
    "prefectureNumber": 24,
    "prefecture": "三重県",
    "city": "伊勢市",
    "town": "一志町"
  },
  "5160076": {
    "zipcode": "5160076",
    "prefectureCode": "24",
    "prefectureNumber": 24,
    "prefecture": "三重県",
    "city": "伊勢市",
    "town": "八日市場町"
  },
  "5160077": {
    "zipcode": "5160077",
    "prefectureCode": "24",
    "prefectureNumber": 24,
    "prefecture": "三重県",
    "city": "伊勢市",
    "town": "宮町"
  },
  "5160078": {
    "zipcode": "5160078",
    "prefectureCode": "24",
    "prefectureNumber": 24,
    "prefecture": "三重県",
    "city": "伊勢市",
    "town": "曽祢"
  },
  "5160079": {
    "zipcode": "5160079",
    "prefectureCode": "24",
    "prefectureNumber": 24,
    "prefecture": "三重県",
    "city": "伊勢市",
    "town": "大世古"
  },
  "5160100": {
    "zipcode": "5160100",
    "prefectureCode": "24",
    "prefectureNumber": 24,
    "prefecture": "三重県",
    "city": "度会郡南伊勢町",
    "town": "以下に掲載がない場合"
  },
  "5160101": {
    "zipcode": "5160101",
    "prefectureCode": "24",
    "prefectureNumber": 24,
    "prefecture": "三重県",
    "city": "度会郡南伊勢町",
    "town": "五ケ所浦"
  },
  "5160102": {
    "zipcode": "5160102",
    "prefectureCode": "24",
    "prefectureNumber": 24,
    "prefecture": "三重県",
    "city": "度会郡南伊勢町",
    "town": "切原"
  },
  "5160103": {
    "zipcode": "5160103",
    "prefectureCode": "24",
    "prefectureNumber": 24,
    "prefecture": "三重県",
    "city": "度会郡南伊勢町",
    "town": "泉"
  },
  "5160104": {
    "zipcode": "5160104",
    "prefectureCode": "24",
    "prefectureNumber": 24,
    "prefecture": "三重県",
    "city": "度会郡南伊勢町",
    "town": "神津佐"
  },
  "5160105": {
    "zipcode": "5160105",
    "prefectureCode": "24",
    "prefectureNumber": 24,
    "prefecture": "三重県",
    "city": "度会郡南伊勢町",
    "town": "下津浦"
  },
  "5160106": {
    "zipcode": "5160106",
    "prefectureCode": "24",
    "prefectureNumber": 24,
    "prefecture": "三重県",
    "city": "度会郡南伊勢町",
    "town": "木谷"
  },
  "5160107": {
    "zipcode": "5160107",
    "prefectureCode": "24",
    "prefectureNumber": 24,
    "prefecture": "三重県",
    "city": "度会郡南伊勢町",
    "town": "飯満"
  },
  "5160108": {
    "zipcode": "5160108",
    "prefectureCode": "24",
    "prefectureNumber": 24,
    "prefecture": "三重県",
    "city": "度会郡南伊勢町",
    "town": "中津浜浦"
  },
  "5160109": {
    "zipcode": "5160109",
    "prefectureCode": "24",
    "prefectureNumber": 24,
    "prefecture": "三重県",
    "city": "度会郡南伊勢町",
    "town": "船越"
  },
  "5160111": {
    "zipcode": "5160111",
    "prefectureCode": "24",
    "prefectureNumber": 24,
    "prefecture": "三重県",
    "city": "度会郡南伊勢町",
    "town": "内瀬"
  },
  "5160112": {
    "zipcode": "5160112",
    "prefectureCode": "24",
    "prefectureNumber": 24,
    "prefecture": "三重県",
    "city": "度会郡南伊勢町",
    "town": "伊勢路"
  },
  "5160113": {
    "zipcode": "5160113",
    "prefectureCode": "24",
    "prefectureNumber": 24,
    "prefecture": "三重県",
    "city": "度会郡南伊勢町",
    "town": "斎田"
  },
  "5160114": {
    "zipcode": "5160114",
    "prefectureCode": "24",
    "prefectureNumber": 24,
    "prefecture": "三重県",
    "city": "度会郡南伊勢町",
    "town": "始神"
  },
  "5160115": {
    "zipcode": "5160115",
    "prefectureCode": "24",
    "prefectureNumber": 24,
    "prefecture": "三重県",
    "city": "度会郡南伊勢町",
    "town": "押渕"
  },
  "5160116": {
    "zipcode": "5160116",
    "prefectureCode": "24",
    "prefectureNumber": 24,
    "prefecture": "三重県",
    "city": "度会郡南伊勢町",
    "town": "迫間浦"
  },
  "5160117": {
    "zipcode": "5160117",
    "prefectureCode": "24",
    "prefectureNumber": 24,
    "prefecture": "三重県",
    "city": "度会郡南伊勢町",
    "town": "礫浦"
  },
  "5160118": {
    "zipcode": "5160118",
    "prefectureCode": "24",
    "prefectureNumber": 24,
    "prefecture": "三重県",
    "city": "度会郡南伊勢町",
    "town": "相賀浦"
  },
  "5160221": {
    "zipcode": "5160221",
    "prefectureCode": "24",
    "prefectureNumber": 24,
    "prefecture": "三重県",
    "city": "度会郡南伊勢町",
    "town": "宿浦"
  },
  "5160222": {
    "zipcode": "5160222",
    "prefectureCode": "24",
    "prefectureNumber": 24,
    "prefecture": "三重県",
    "city": "度会郡南伊勢町",
    "town": "田曽浦"
  },
  "5160801": {
    "zipcode": "5160801",
    "prefectureCode": "24",
    "prefectureNumber": 24,
    "prefecture": "三重県",
    "city": "伊勢市",
    "town": "御薗町小林"
  },
  "5160802": {
    "zipcode": "5160802",
    "prefectureCode": "24",
    "prefectureNumber": 24,
    "prefecture": "三重県",
    "city": "伊勢市",
    "town": "御薗町新開"
  },
  "5160803": {
    "zipcode": "5160803",
    "prefectureCode": "24",
    "prefectureNumber": 24,
    "prefecture": "三重県",
    "city": "伊勢市",
    "town": "御薗町王中島"
  },
  "5160804": {
    "zipcode": "5160804",
    "prefectureCode": "24",
    "prefectureNumber": 24,
    "prefecture": "三重県",
    "city": "伊勢市",
    "town": "御薗町長屋"
  },
  "5160805": {
    "zipcode": "5160805",
    "prefectureCode": "24",
    "prefectureNumber": 24,
    "prefecture": "三重県",
    "city": "伊勢市",
    "town": "御薗町高向"
  },
  "5160806": {
    "zipcode": "5160806",
    "prefectureCode": "24",
    "prefectureNumber": 24,
    "prefecture": "三重県",
    "city": "伊勢市",
    "town": "御薗町上條（その他）"
  },
  "5161101": {
    "zipcode": "5161101",
    "prefectureCode": "24",
    "prefectureNumber": 24,
    "prefecture": "三重県",
    "city": "伊勢市",
    "town": "大倉町"
  },
  "5161102": {
    "zipcode": "5161102",
    "prefectureCode": "24",
    "prefectureNumber": 24,
    "prefecture": "三重県",
    "city": "伊勢市",
    "town": "佐八町"
  },
  "5161103": {
    "zipcode": "5161103",
    "prefectureCode": "24",
    "prefectureNumber": 24,
    "prefecture": "三重県",
    "city": "伊勢市",
    "town": "津村町"
  },
  "5161104": {
    "zipcode": "5161104",
    "prefectureCode": "24",
    "prefectureNumber": 24,
    "prefecture": "三重県",
    "city": "伊勢市",
    "town": "上野町"
  },
  "5161105": {
    "zipcode": "5161105",
    "prefectureCode": "24",
    "prefectureNumber": 24,
    "prefecture": "三重県",
    "city": "伊勢市",
    "town": "矢持町"
  },
  "5161106": {
    "zipcode": "5161106",
    "prefectureCode": "24",
    "prefectureNumber": 24,
    "prefecture": "三重県",
    "city": "伊勢市",
    "town": "横輪町"
  },
  "5161107": {
    "zipcode": "5161107",
    "prefectureCode": "24",
    "prefectureNumber": 24,
    "prefecture": "三重県",
    "city": "伊勢市",
    "town": "神薗町"
  },
  "5161108": {
    "zipcode": "5161108",
    "prefectureCode": "24",
    "prefectureNumber": 24,
    "prefecture": "三重県",
    "city": "伊勢市",
    "town": "円座町"
  },
  "5161231": {
    "zipcode": "5161231",
    "prefectureCode": "24",
    "prefectureNumber": 24,
    "prefecture": "三重県",
    "city": "度会郡度会町",
    "town": "川口"
  },
  "5161232": {
    "zipcode": "5161232",
    "prefectureCode": "24",
    "prefectureNumber": 24,
    "prefecture": "三重県",
    "city": "度会郡度会町",
    "town": "栗原"
  },
  "5161233": {
    "zipcode": "5161233",
    "prefectureCode": "24",
    "prefectureNumber": 24,
    "prefecture": "三重県",
    "city": "度会郡度会町",
    "town": "日向"
  },
  "5161234": {
    "zipcode": "5161234",
    "prefectureCode": "24",
    "prefectureNumber": 24,
    "prefecture": "三重県",
    "city": "度会郡度会町",
    "town": "火打石"
  },
  "5161235": {
    "zipcode": "5161235",
    "prefectureCode": "24",
    "prefectureNumber": 24,
    "prefecture": "三重県",
    "city": "度会郡度会町",
    "town": "駒ケ野"
  },
  "5161236": {
    "zipcode": "5161236",
    "prefectureCode": "24",
    "prefectureNumber": 24,
    "prefecture": "三重県",
    "city": "度会郡度会町",
    "town": "小川"
  },
  "5161237": {
    "zipcode": "5161237",
    "prefectureCode": "24",
    "prefectureNumber": 24,
    "prefecture": "三重県",
    "city": "度会郡度会町",
    "town": "五ケ町"
  },
  "5161238": {
    "zipcode": "5161238",
    "prefectureCode": "24",
    "prefectureNumber": 24,
    "prefecture": "三重県",
    "city": "度会郡度会町",
    "town": "中之郷"
  },
  "5161241": {
    "zipcode": "5161241",
    "prefectureCode": "24",
    "prefectureNumber": 24,
    "prefecture": "三重県",
    "city": "度会郡度会町",
    "town": "柳"
  },
  "5161242": {
    "zipcode": "5161242",
    "prefectureCode": "24",
    "prefectureNumber": 24,
    "prefecture": "三重県",
    "city": "度会郡度会町",
    "town": "市場"
  },
  "5161243": {
    "zipcode": "5161243",
    "prefectureCode": "24",
    "prefectureNumber": 24,
    "prefecture": "三重県",
    "city": "度会郡度会町",
    "town": "和井野"
  },
  "5161244": {
    "zipcode": "5161244",
    "prefectureCode": "24",
    "prefectureNumber": 24,
    "prefecture": "三重県",
    "city": "度会郡度会町",
    "town": "南中村"
  },
  "5161245": {
    "zipcode": "5161245",
    "prefectureCode": "24",
    "prefectureNumber": 24,
    "prefecture": "三重県",
    "city": "度会郡度会町",
    "town": "川上"
  },
  "5161246": {
    "zipcode": "5161246",
    "prefectureCode": "24",
    "prefectureNumber": 24,
    "prefecture": "三重県",
    "city": "度会郡度会町",
    "town": "脇出"
  },
  "5161247": {
    "zipcode": "5161247",
    "prefectureCode": "24",
    "prefectureNumber": 24,
    "prefecture": "三重県",
    "city": "度会郡度会町",
    "town": "小萩"
  },
  "5161301": {
    "zipcode": "5161301",
    "prefectureCode": "24",
    "prefectureNumber": 24,
    "prefecture": "三重県",
    "city": "度会郡南伊勢町",
    "town": "道方"
  },
  "5161302": {
    "zipcode": "5161302",
    "prefectureCode": "24",
    "prefectureNumber": 24,
    "prefecture": "三重県",
    "city": "度会郡南伊勢町",
    "town": "大江"
  },
  "5161303": {
    "zipcode": "5161303",
    "prefectureCode": "24",
    "prefectureNumber": 24,
    "prefecture": "三重県",
    "city": "度会郡南伊勢町",
    "town": "道行竈"
  },
  "5161304": {
    "zipcode": "5161304",
    "prefectureCode": "24",
    "prefectureNumber": 24,
    "prefecture": "三重県",
    "city": "度会郡南伊勢町",
    "town": "大方竈"
  },
  "5161305": {
    "zipcode": "5161305",
    "prefectureCode": "24",
    "prefectureNumber": 24,
    "prefecture": "三重県",
    "city": "度会郡南伊勢町",
    "town": "阿曽浦"
  },
  "5161306": {
    "zipcode": "5161306",
    "prefectureCode": "24",
    "prefectureNumber": 24,
    "prefecture": "三重県",
    "city": "度会郡南伊勢町",
    "town": "慥柄浦"
  },
  "5161307": {
    "zipcode": "5161307",
    "prefectureCode": "24",
    "prefectureNumber": 24,
    "prefecture": "三重県",
    "city": "度会郡南伊勢町",
    "town": "贄浦"
  },
  "5161308": {
    "zipcode": "5161308",
    "prefectureCode": "24",
    "prefectureNumber": 24,
    "prefecture": "三重県",
    "city": "度会郡南伊勢町",
    "town": "奈屋浦"
  },
  "5161309": {
    "zipcode": "5161309",
    "prefectureCode": "24",
    "prefectureNumber": 24,
    "prefecture": "三重県",
    "city": "度会郡南伊勢町",
    "town": "東宮"
  },
  "5161421": {
    "zipcode": "5161421",
    "prefectureCode": "24",
    "prefectureNumber": 24,
    "prefecture": "三重県",
    "city": "度会郡南伊勢町",
    "town": "河内"
  },
  "5161422": {
    "zipcode": "5161422",
    "prefectureCode": "24",
    "prefectureNumber": 24,
    "prefecture": "三重県",
    "city": "度会郡南伊勢町",
    "town": "神前浦"
  },
  "5161423": {
    "zipcode": "5161423",
    "prefectureCode": "24",
    "prefectureNumber": 24,
    "prefecture": "三重県",
    "city": "度会郡南伊勢町",
    "town": "村山"
  },
  "5161531": {
    "zipcode": "5161531",
    "prefectureCode": "24",
    "prefectureNumber": 24,
    "prefecture": "三重県",
    "city": "度会郡南伊勢町",
    "town": "方座浦"
  },
  "5161532": {
    "zipcode": "5161532",
    "prefectureCode": "24",
    "prefectureNumber": 24,
    "prefecture": "三重県",
    "city": "度会郡南伊勢町",
    "town": "小方竈"
  },
  "5161533": {
    "zipcode": "5161533",
    "prefectureCode": "24",
    "prefectureNumber": 24,
    "prefecture": "三重県",
    "city": "度会郡南伊勢町",
    "town": "栃木竈"
  },
  "5161534": {
    "zipcode": "5161534",
    "prefectureCode": "24",
    "prefectureNumber": 24,
    "prefecture": "三重県",
    "city": "度会郡南伊勢町",
    "town": "古和浦"
  },
  "5161535": {
    "zipcode": "5161535",
    "prefectureCode": "24",
    "prefectureNumber": 24,
    "prefecture": "三重県",
    "city": "度会郡南伊勢町",
    "town": "棚橋竈"
  },
  "5161536": {
    "zipcode": "5161536",
    "prefectureCode": "24",
    "prefectureNumber": 24,
    "prefecture": "三重県",
    "city": "度会郡南伊勢町",
    "town": "新桑竈"
  },
  "5162100": {
    "zipcode": "5162100",
    "prefectureCode": "24",
    "prefectureNumber": 24,
    "prefecture": "三重県",
    "city": "度会郡度会町",
    "town": "以下に掲載がない場合"
  },
  "5162101": {
    "zipcode": "5162101",
    "prefectureCode": "24",
    "prefectureNumber": 24,
    "prefecture": "三重県",
    "city": "度会郡度会町",
    "town": "葛原"
  },
  "5162102": {
    "zipcode": "5162102",
    "prefectureCode": "24",
    "prefectureNumber": 24,
    "prefecture": "三重県",
    "city": "度会郡度会町",
    "town": "大野木"
  },
  "5162103": {
    "zipcode": "5162103",
    "prefectureCode": "24",
    "prefectureNumber": 24,
    "prefecture": "三重県",
    "city": "度会郡度会町",
    "town": "棚橋"
  },
  "5162104": {
    "zipcode": "5162104",
    "prefectureCode": "24",
    "prefectureNumber": 24,
    "prefecture": "三重県",
    "city": "度会郡度会町",
    "town": "牧戸"
  },
  "5162105": {
    "zipcode": "5162105",
    "prefectureCode": "24",
    "prefectureNumber": 24,
    "prefecture": "三重県",
    "city": "度会郡度会町",
    "town": "平生"
  },
  "5162106": {
    "zipcode": "5162106",
    "prefectureCode": "24",
    "prefectureNumber": 24,
    "prefecture": "三重県",
    "city": "度会郡度会町",
    "town": "大久保"
  },
  "5162107": {
    "zipcode": "5162107",
    "prefectureCode": "24",
    "prefectureNumber": 24,
    "prefecture": "三重県",
    "city": "度会郡度会町",
    "town": "立岡"
  },
  "5162108": {
    "zipcode": "5162108",
    "prefectureCode": "24",
    "prefectureNumber": 24,
    "prefecture": "三重県",
    "city": "度会郡度会町",
    "town": "鮠川"
  },
  "5162111": {
    "zipcode": "5162111",
    "prefectureCode": "24",
    "prefectureNumber": 24,
    "prefecture": "三重県",
    "city": "度会郡度会町",
    "town": "下久具"
  },
  "5162112": {
    "zipcode": "5162112",
    "prefectureCode": "24",
    "prefectureNumber": 24,
    "prefecture": "三重県",
    "city": "度会郡度会町",
    "town": "上久具"
  },
  "5162113": {
    "zipcode": "5162113",
    "prefectureCode": "24",
    "prefectureNumber": 24,
    "prefecture": "三重県",
    "city": "度会郡度会町",
    "town": "田間"
  },
  "5162114": {
    "zipcode": "5162114",
    "prefectureCode": "24",
    "prefectureNumber": 24,
    "prefecture": "三重県",
    "city": "度会郡度会町",
    "town": "当津"
  },
  "5162115": {
    "zipcode": "5162115",
    "prefectureCode": "24",
    "prefectureNumber": 24,
    "prefecture": "三重県",
    "city": "度会郡度会町",
    "town": "長原"
  },
  "5162116": {
    "zipcode": "5162116",
    "prefectureCode": "24",
    "prefectureNumber": 24,
    "prefecture": "三重県",
    "city": "度会郡度会町",
    "town": "坂井"
  },
  "5162117": {
    "zipcode": "5162117",
    "prefectureCode": "24",
    "prefectureNumber": 24,
    "prefecture": "三重県",
    "city": "度会郡度会町",
    "town": "麻加江"
  },
  "5162118": {
    "zipcode": "5162118",
    "prefectureCode": "24",
    "prefectureNumber": 24,
    "prefecture": "三重県",
    "city": "度会郡度会町",
    "town": "田口"
  },
  "5162119": {
    "zipcode": "5162119",
    "prefectureCode": "24",
    "prefectureNumber": 24,
    "prefecture": "三重県",
    "city": "度会郡度会町",
    "town": "注連指"
  }
}
