{
  "5190100": {
    "zipcode": "5190100",
    "prefectureCode": "24",
    "prefectureNumber": 24,
    "prefecture": "三重県",
    "city": "亀山市",
    "town": "以下に掲載がない場合"
  },
  "5190101": {
    "zipcode": "5190101",
    "prefectureCode": "24",
    "prefectureNumber": 24,
    "prefecture": "三重県",
    "city": "亀山市",
    "town": "井田川町"
  },
  "5190102": {
    "zipcode": "5190102",
    "prefectureCode": "24",
    "prefectureNumber": 24,
    "prefecture": "三重県",
    "city": "亀山市",
    "town": "和田町"
  },
  "5190103": {
    "zipcode": "5190103",
    "prefectureCode": "24",
    "prefectureNumber": 24,
    "prefecture": "三重県",
    "city": "亀山市",
    "town": "川合町"
  },
  "5190104": {
    "zipcode": "5190104",
    "prefectureCode": "24",
    "prefectureNumber": 24,
    "prefecture": "三重県",
    "city": "亀山市",
    "town": "椿世町"
  },
  "5190105": {
    "zipcode": "5190105",
    "prefectureCode": "24",
    "prefectureNumber": 24,
    "prefecture": "三重県",
    "city": "亀山市",
    "town": "みずほ台"
  },
  "5190106": {
    "zipcode": "5190106",
    "prefectureCode": "24",
    "prefectureNumber": 24,
    "prefecture": "三重県",
    "city": "亀山市",
    "town": "みどり町"
  },
  "5190111": {
    "zipcode": "5190111",
    "prefectureCode": "24",
    "prefectureNumber": 24,
    "prefecture": "三重県",
    "city": "亀山市",
    "town": "栄町"
  },
  "5190112": {
    "zipcode": "5190112",
    "prefectureCode": "24",
    "prefectureNumber": 24,
    "prefecture": "三重県",
    "city": "亀山市",
    "town": "上野町"
  },
  "5190113": {
    "zipcode": "5190113",
    "prefectureCode": "24",
    "prefectureNumber": 24,
    "prefecture": "三重県",
    "city": "亀山市",
    "town": "小下町"
  },
  "5190114": {
    "zipcode": "5190114",
    "prefectureCode": "24",
    "prefectureNumber": 24,
    "prefecture": "三重県",
    "city": "亀山市",
    "town": "南鹿島町"
  },
  "5190115": {
    "zipcode": "5190115",
    "prefectureCode": "24",
    "prefectureNumber": 24,
    "prefecture": "三重県",
    "city": "亀山市",
    "town": "北鹿島町"
  },
  "5190116": {
    "zipcode": "5190116",
    "prefectureCode": "24",
    "prefectureNumber": 24,
    "prefecture": "三重県",
    "city": "亀山市",
    "town": "本町"
  },
  "5190117": {
    "zipcode": "5190117",
    "prefectureCode": "24",
    "prefectureNumber": 24,
    "prefecture": "三重県",
    "city": "亀山市",
    "town": "北山町"
  },
  "5190118": {
    "zipcode": "5190118",
    "prefectureCode": "24",
    "prefectureNumber": 24,
    "prefecture": "三重県",
    "city": "亀山市",
    "town": "北町"
  },
  "5190119": {
    "zipcode": "5190119",
    "prefectureCode": "24",
    "prefectureNumber": 24,
    "prefecture": "三重県",
    "city": "亀山市",
    "town": "高塚町"
  },
  "5190121": {
    "zipcode": "5190121",
    "prefectureCode": "24",
    "prefectureNumber": 24,
    "prefecture": "三重県",
    "city": "亀山市",
    "town": "江ケ室"
  },
  "5190122": {
    "zipcode": "5190122",
    "prefectureCode": "24",
    "prefectureNumber": 24,
    "prefecture": "三重県",
    "city": "亀山市",
    "town": "東台町"
  },
  "5190123": {
    "zipcode": "5190123",
    "prefectureCode": "24",
    "prefectureNumber": 24,
    "prefecture": "三重県",
    "city": "亀山市",
    "town": "渋倉町"
  },
  "5190124": {
    "zipcode": "5190124",
    "prefectureCode": "24",
    "prefectureNumber": 24,
    "prefecture": "三重県",
    "city": "亀山市",
    "town": "東御幸町"
  },
  "5190125": {
    "zipcode": "5190125",
    "prefectureCode": "24",
    "prefectureNumber": 24,
    "prefecture": "三重県",
    "city": "亀山市",
    "town": "東町"
  },
  "5190126": {
    "zipcode": "5190126",
    "prefectureCode": "24",
    "prefectureNumber": 24,
    "prefecture": "三重県",
    "city": "亀山市",
    "town": "東丸町"
  },
  "5190127": {
    "zipcode": "5190127",
    "prefectureCode": "24",
    "prefectureNumber": 24,
    "prefecture": "三重県",
    "city": "亀山市",
    "town": "中屋敷町"
  },
  "5190131": {
    "zipcode": "5190131",
    "prefectureCode": "24",
    "prefectureNumber": 24,
    "prefecture": "三重県",
    "city": "亀山市",
    "town": "井尻町"
  },
  "5190132": {
    "zipcode": "5190132",
    "prefectureCode": "24",
    "prefectureNumber": 24,
    "prefecture": "三重県",
    "city": "亀山市",
    "town": "菅内町"
  },
  "5190133": {
    "zipcode": "5190133",
    "prefectureCode": "24",
    "prefectureNumber": 24,
    "prefecture": "三重県",
    "city": "亀山市",
    "town": "下庄町"
  },
  "5190134": {
    "zipcode": "5190134",
    "prefectureCode": "24",
    "prefectureNumber": 24,
    "prefecture": "三重県",
    "city": "亀山市",
    "town": "中庄町"
  },
  "5190135": {
    "zipcode": "5190135",
    "prefectureCode": "24",
    "prefectureNumber": 24,
    "prefecture": "三重県",
    "city": "亀山市",
    "town": "三寺町"
  },
  "5190136": {
    "zipcode": "5190136",
    "prefectureCode": "24",
    "prefectureNumber": 24,
    "prefecture": "三重県",
    "city": "亀山市",
    "town": "田茂町"
  },
  "5190137": {
    "zipcode": "5190137",
    "prefectureCode": "24",
    "prefectureNumber": 24,
    "prefecture": "三重県",
    "city": "亀山市",
    "town": "阿野田町"
  },
  "5190141": {
    "zipcode": "5190141",
    "prefectureCode": "24",
    "prefectureNumber": 24,
    "prefecture": "三重県",
    "city": "亀山市",
    "town": "海本町"
  },
  "5190142": {
    "zipcode": "5190142",
    "prefectureCode": "24",
    "prefectureNumber": 24,
    "prefecture": "三重県",
    "city": "亀山市",
    "town": "天神"
  },
  "5190143": {
    "zipcode": "5190143",
    "prefectureCode": "24",
    "prefectureNumber": 24,
    "prefecture": "三重県",
    "city": "亀山市",
    "town": "安知本町"
  },
  "5190144": {
    "zipcode": "5190144",
    "prefectureCode": "24",
    "prefectureNumber": 24,
    "prefecture": "三重県",
    "city": "亀山市",
    "town": "楠平尾町"
  },
  "5190145": {
    "zipcode": "5190145",
    "prefectureCode": "24",
    "prefectureNumber": 24,
    "prefecture": "三重県",
    "city": "亀山市",
    "town": "和賀町"
  },
  "5190146": {
    "zipcode": "5190146",
    "prefectureCode": "24",
    "prefectureNumber": 24,
    "prefecture": "三重県",
    "city": "亀山市",
    "town": "野村町"
  },
  "5190147": {
    "zipcode": "5190147",
    "prefectureCode": "24",
    "prefectureNumber": 24,
    "prefecture": "三重県",
    "city": "亀山市",
    "town": "山下町"
  },
  "5190148": {
    "zipcode": "5190148",
    "prefectureCode": "24",
    "prefectureNumber": 24,
    "prefecture": "三重県",
    "city": "亀山市",
    "town": "木下町"
  },
  "5190151": {
    "zipcode": "5190151",
    "prefectureCode": "24",
    "prefectureNumber": 24,
    "prefecture": "三重県",
    "city": "亀山市",
    "town": "若山町"
  },
  "5190152": {
    "zipcode": "5190152",
    "prefectureCode": "24",
    "prefectureNumber": 24,
    "prefecture": "三重県",
    "city": "亀山市",
    "town": "本丸町"
  },
  "5190153": {
    "zipcode": "5190153",
    "prefectureCode": "24",
    "prefectureNumber": 24,
    "prefecture": "三重県",
    "city": "亀山市",
    "town": "西町"
  },
  "5190154": {
    "zipcode": "5190154",
    "prefectureCode": "24",
    "prefectureNumber": 24,
    "prefecture": "三重県",
    "city": "亀山市",
    "town": "南崎町"
  },
  "5190155": {
    "zipcode": "5190155",
    "prefectureCode": "24",
    "prefectureNumber": 24,
    "prefecture": "三重県",
    "city": "亀山市",
    "town": "御幸町"
  },
  "5190156": {
    "zipcode": "5190156",
    "prefectureCode": "24",
    "prefectureNumber": 24,
    "prefecture": "三重県",
    "city": "亀山市",
    "town": "南野町"
  },
  "5190157": {
    "zipcode": "5190157",
    "prefectureCode": "24",
    "prefectureNumber": 24,
    "prefecture": "三重県",
    "city": "亀山市",
    "town": "北野町"
  },
  "5190158": {
    "zipcode": "5190158",
    "prefectureCode": "24",
    "prefectureNumber": 24,
    "prefecture": "三重県",
    "city": "亀山市",
    "town": "市ケ坂町"
  },
  "5190159": {
    "zipcode": "5190159",
    "prefectureCode": "24",
    "prefectureNumber": 24,
    "prefecture": "三重県",
    "city": "亀山市",
    "town": "西丸町"
  },
  "5190161": {
    "zipcode": "5190161",
    "prefectureCode": "24",
    "prefectureNumber": 24,
    "prefecture": "三重県",
    "city": "亀山市",
    "town": "小川町"
  },
  "5190162": {
    "zipcode": "5190162",
    "prefectureCode": "24",
    "prefectureNumber": 24,
    "prefecture": "三重県",
    "city": "亀山市",
    "town": "住山町"
  },
  "5190163": {
    "zipcode": "5190163",
    "prefectureCode": "24",
    "prefectureNumber": 24,
    "prefecture": "三重県",
    "city": "亀山市",
    "town": "亀田町"
  },
  "5190164": {
    "zipcode": "5190164",
    "prefectureCode": "24",
    "prefectureNumber": 24,
    "prefecture": "三重県",
    "city": "亀山市",
    "town": "羽若町"
  },
  "5190165": {
    "zipcode": "5190165",
    "prefectureCode": "24",
    "prefectureNumber": 24,
    "prefecture": "三重県",
    "city": "亀山市",
    "town": "野村"
  },
  "5190166": {
    "zipcode": "5190166",
    "prefectureCode": "24",
    "prefectureNumber": 24,
    "prefecture": "三重県",
    "city": "亀山市",
    "town": "布気町"
  },
  "5190167": {
    "zipcode": "5190167",
    "prefectureCode": "24",
    "prefectureNumber": 24,
    "prefecture": "三重県",
    "city": "亀山市",
    "town": "小野町"
  },
  "5190168": {
    "zipcode": "5190168",
    "prefectureCode": "24",
    "prefectureNumber": 24,
    "prefecture": "三重県",
    "city": "亀山市",
    "town": "太岡寺町"
  },
  "5190169": {
    "zipcode": "5190169",
    "prefectureCode": "24",
    "prefectureNumber": 24,
    "prefecture": "三重県",
    "city": "亀山市",
    "town": "白木町"
  },
  "5190171": {
    "zipcode": "5190171",
    "prefectureCode": "24",
    "prefectureNumber": 24,
    "prefecture": "三重県",
    "city": "亀山市",
    "town": "アイリス町"
  },
  "5190181": {
    "zipcode": "5190181",
    "prefectureCode": "24",
    "prefectureNumber": 24,
    "prefecture": "三重県",
    "city": "亀山市",
    "town": "みずきが丘"
  },
  "5190211": {
    "zipcode": "5190211",
    "prefectureCode": "24",
    "prefectureNumber": 24,
    "prefecture": "三重県",
    "city": "亀山市",
    "town": "川崎町"
  },
  "5190212": {
    "zipcode": "5190212",
    "prefectureCode": "24",
    "prefectureNumber": 24,
    "prefecture": "三重県",
    "city": "亀山市",
    "town": "能褒野町"
  },
  "5190213": {
    "zipcode": "5190213",
    "prefectureCode": "24",
    "prefectureNumber": 24,
    "prefecture": "三重県",
    "city": "亀山市",
    "town": "田村町"
  },
  "5190214": {
    "zipcode": "5190214",
    "prefectureCode": "24",
    "prefectureNumber": 24,
    "prefecture": "三重県",
    "city": "亀山市",
    "town": "長明寺町"
  },
  "5190215": {
    "zipcode": "5190215",
    "prefectureCode": "24",
    "prefectureNumber": 24,
    "prefecture": "三重県",
    "city": "亀山市",
    "town": "太森町"
  },
  "5190221": {
    "zipcode": "5190221",
    "prefectureCode": "24",
    "prefectureNumber": 24,
    "prefecture": "三重県",
    "city": "亀山市",
    "town": "辺法寺町"
  },
  "5190222": {
    "zipcode": "5190222",
    "prefectureCode": "24",
    "prefectureNumber": 24,
    "prefecture": "三重県",
    "city": "亀山市",
    "town": "両尾町"
  },
  "5190223": {
    "zipcode": "5190223",
    "prefectureCode": "24",
    "prefectureNumber": 24,
    "prefecture": "三重県",
    "city": "亀山市",
    "town": "安坂山町"
  },
  "5190271": {
    "zipcode": "5190271",
    "prefectureCode": "24",
    "prefectureNumber": 24,
    "prefecture": "三重県",
    "city": "鈴鹿市",
    "town": "西庄内町"
  },
  "5190272": {
    "zipcode": "5190272",
    "prefectureCode": "24",
    "prefectureNumber": 24,
    "prefecture": "三重県",
    "city": "鈴鹿市",
    "town": "東庄内町"
  },
  "5190311": {
    "zipcode": "5190311",
    "prefectureCode": "24",
    "prefectureNumber": 24,
    "prefecture": "三重県",
    "city": "鈴鹿市",
    "town": "大久保町"
  },
  "5190312": {
    "zipcode": "5190312",
    "prefectureCode": "24",
    "prefectureNumber": 24,
    "prefecture": "三重県",
    "city": "鈴鹿市",
    "town": "椿一宮町"
  },
  "5190313": {
    "zipcode": "5190313",
    "prefectureCode": "24",
    "prefectureNumber": 24,
    "prefecture": "三重県",
    "city": "鈴鹿市",
    "town": "追分町"
  },
  "5190314": {
    "zipcode": "5190314",
    "prefectureCode": "24",
    "prefectureNumber": 24,
    "prefecture": "三重県",
    "city": "鈴鹿市",
    "town": "長澤町"
  },
  "5190315": {
    "zipcode": "5190315",
    "prefectureCode": "24",
    "prefectureNumber": 24,
    "prefecture": "三重県",
    "city": "鈴鹿市",
    "town": "山本町"
  },
  "5190316": {
    "zipcode": "5190316",
    "prefectureCode": "24",
    "prefectureNumber": 24,
    "prefecture": "三重県",
    "city": "鈴鹿市",
    "town": "小岐須町"
  },
  "5190321": {
    "zipcode": "5190321",
    "prefectureCode": "24",
    "prefectureNumber": 24,
    "prefecture": "三重県",
    "city": "鈴鹿市",
    "town": "深溝町"
  },
  "5190322": {
    "zipcode": "5190322",
    "prefectureCode": "24",
    "prefectureNumber": 24,
    "prefecture": "三重県",
    "city": "鈴鹿市",
    "town": "三畑町"
  },
  "5190323": {
    "zipcode": "5190323",
    "prefectureCode": "24",
    "prefectureNumber": 24,
    "prefecture": "三重県",
    "city": "鈴鹿市",
    "town": "伊船町"
  },
  "5190324": {
    "zipcode": "5190324",
    "prefectureCode": "24",
    "prefectureNumber": 24,
    "prefecture": "三重県",
    "city": "鈴鹿市",
    "town": "小社町"
  },
  "5190400": {
    "zipcode": "5190400",
    "prefectureCode": "24",
    "prefectureNumber": 24,
    "prefecture": "三重県",
    "city": "度会郡玉城町",
    "town": "以下に掲載がない場合"
  },
  "5190401": {
    "zipcode": "5190401",
    "prefectureCode": "24",
    "prefectureNumber": 24,
    "prefecture": "三重県",
    "city": "度会郡玉城町",
    "town": "世古"
  },
  "5190402": {
    "zipcode": "5190402",
    "prefectureCode": "24",
    "prefectureNumber": 24,
    "prefecture": "三重県",
    "city": "度会郡玉城町",
    "town": "門前"
  },
  "5190403": {
    "zipcode": "5190403",
    "prefectureCode": "24",
    "prefectureNumber": 24,
    "prefecture": "三重県",
    "city": "度会郡玉城町",
    "town": "井倉"
  },
  "5190404": {
    "zipcode": "5190404",
    "prefectureCode": "24",
    "prefectureNumber": 24,
    "prefecture": "三重県",
    "city": "度会郡玉城町",
    "town": "長更"
  },
  "5190405": {
    "zipcode": "5190405",
    "prefectureCode": "24",
    "prefectureNumber": 24,
    "prefecture": "三重県",
    "city": "度会郡玉城町",
    "town": "日向"
  },
  "5190406": {
    "zipcode": "5190406",
    "prefectureCode": "24",
    "prefectureNumber": 24,
    "prefecture": "三重県",
    "city": "度会郡玉城町",
    "town": "岡村"
  },
  "5190407": {
    "zipcode": "5190407",
    "prefectureCode": "24",
    "prefectureNumber": 24,
    "prefecture": "三重県",
    "city": "度会郡玉城町",
    "town": "玉川"
  },
  "5190408": {
    "zipcode": "5190408",
    "prefectureCode": "24",
    "prefectureNumber": 24,
    "prefecture": "三重県",
    "city": "度会郡玉城町",
    "town": "坂本"
  },
  "5190411": {
    "zipcode": "5190411",
    "prefectureCode": "24",
    "prefectureNumber": 24,
    "prefecture": "三重県",
    "city": "度会郡玉城町",
    "town": "久保"
  },
  "5190412": {
    "zipcode": "5190412",
    "prefectureCode": "24",
    "prefectureNumber": 24,
    "prefecture": "三重県",
    "city": "度会郡玉城町",
    "town": "中楽"
  },
  "5190413": {
    "zipcode": "5190413",
    "prefectureCode": "24",
    "prefectureNumber": 24,
    "prefecture": "三重県",
    "city": "度会郡玉城町",
    "town": "妙法寺"
  },
  "5190414": {
    "zipcode": "5190414",
    "prefectureCode": "24",
    "prefectureNumber": 24,
    "prefecture": "三重県",
    "city": "度会郡玉城町",
    "town": "佐田"
  },
  "5190415": {
    "zipcode": "5190415",
    "prefectureCode": "24",
    "prefectureNumber": 24,
    "prefecture": "三重県",
    "city": "度会郡玉城町",
    "town": "田丸"
  },
  "5190416": {
    "zipcode": "5190416",
    "prefectureCode": "24",
    "prefectureNumber": 24,
    "prefecture": "三重県",
    "city": "度会郡玉城町",
    "town": "下田辺"
  },
  "5190417": {
    "zipcode": "5190417",
    "prefectureCode": "24",
    "prefectureNumber": 24,
    "prefecture": "三重県",
    "city": "度会郡玉城町",
    "town": "上田辺"
  },
  "5190421": {
    "zipcode": "5190421",
    "prefectureCode": "24",
    "prefectureNumber": 24,
    "prefecture": "三重県",
    "city": "度会郡玉城町",
    "town": "冨岡"
  },
  "5190422": {
    "zipcode": "5190422",
    "prefectureCode": "24",
    "prefectureNumber": 24,
    "prefecture": "三重県",
    "city": "度会郡玉城町",
    "town": "小社曽根"
  },
  "5190423": {
    "zipcode": "5190423",
    "prefectureCode": "24",
    "prefectureNumber": 24,
    "prefecture": "三重県",
    "city": "度会郡玉城町",
    "town": "昼田"
  },
  "5190424": {
    "zipcode": "5190424",
    "prefectureCode": "24",
    "prefectureNumber": 24,
    "prefecture": "三重県",
    "city": "度会郡玉城町",
    "town": "山岡"
  },
  "5190425": {
    "zipcode": "5190425",
    "prefectureCode": "24",
    "prefectureNumber": 24,
    "prefecture": "三重県",
    "city": "度会郡玉城町",
    "town": "岩出"
  },
  "5190426": {
    "zipcode": "5190426",
    "prefectureCode": "24",
    "prefectureNumber": 24,
    "prefecture": "三重県",
    "city": "度会郡玉城町",
    "town": "中角"
  },
  "5190427": {
    "zipcode": "5190427",
    "prefectureCode": "24",
    "prefectureNumber": 24,
    "prefecture": "三重県",
    "city": "度会郡玉城町",
    "town": "宮古"
  },
  "5190428": {
    "zipcode": "5190428",
    "prefectureCode": "24",
    "prefectureNumber": 24,
    "prefecture": "三重県",
    "city": "度会郡玉城町",
    "town": "岡出"
  },
  "5190431": {
    "zipcode": "5190431",
    "prefectureCode": "24",
    "prefectureNumber": 24,
    "prefecture": "三重県",
    "city": "度会郡玉城町",
    "town": "蚊野"
  },
  "5190432": {
    "zipcode": "5190432",
    "prefectureCode": "24",
    "prefectureNumber": 24,
    "prefecture": "三重県",
    "city": "度会郡玉城町",
    "town": "野篠"
  },
  "5190433": {
    "zipcode": "5190433",
    "prefectureCode": "24",
    "prefectureNumber": 24,
    "prefecture": "三重県",
    "city": "度会郡玉城町",
    "town": "勝田"
  },
  "5190434": {
    "zipcode": "5190434",
    "prefectureCode": "24",
    "prefectureNumber": 24,
    "prefecture": "三重県",
    "city": "度会郡玉城町",
    "town": "田宮寺"
  },
  "5190435": {
    "zipcode": "5190435",
    "prefectureCode": "24",
    "prefectureNumber": 24,
    "prefecture": "三重県",
    "city": "度会郡玉城町",
    "town": "矢野"
  },
  "5190436": {
    "zipcode": "5190436",
    "prefectureCode": "24",
    "prefectureNumber": 24,
    "prefecture": "三重県",
    "city": "度会郡玉城町",
    "town": "山神"
  },
  "5190437": {
    "zipcode": "5190437",
    "prefectureCode": "24",
    "prefectureNumber": 24,
    "prefecture": "三重県",
    "city": "度会郡玉城町",
    "town": "積良"
  },
  "5190438": {
    "zipcode": "5190438",
    "prefectureCode": "24",
    "prefectureNumber": 24,
    "prefecture": "三重県",
    "city": "度会郡玉城町",
    "town": "原"
  },
  "5190501": {
    "zipcode": "5190501",
    "prefectureCode": "24",
    "prefectureNumber": 24,
    "prefecture": "三重県",
    "city": "伊勢市",
    "town": "小俣町明野"
  },
  "5190502": {
    "zipcode": "5190502",
    "prefectureCode": "24",
    "prefectureNumber": 24,
    "prefecture": "三重県",
    "city": "伊勢市",
    "town": "小俣町相合"
  },
  "5190503": {
    "zipcode": "5190503",
    "prefectureCode": "24",
    "prefectureNumber": 24,
    "prefecture": "三重県",
    "city": "伊勢市",
    "town": "小俣町元町"
  },
  "5190504": {
    "zipcode": "5190504",
    "prefectureCode": "24",
    "prefectureNumber": 24,
    "prefecture": "三重県",
    "city": "伊勢市",
    "town": "小俣町宮前"
  },
  "5190505": {
    "zipcode": "5190505",
    "prefectureCode": "24",
    "prefectureNumber": 24,
    "prefecture": "三重県",
    "city": "伊勢市",
    "town": "小俣町本町"
  },
  "5190506": {
    "zipcode": "5190506",
    "prefectureCode": "24",
    "prefectureNumber": 24,
    "prefecture": "三重県",
    "city": "伊勢市",
    "town": "小俣町湯田"
  },
  "5190507": {
    "zipcode": "5190507",
    "prefectureCode": "24",
    "prefectureNumber": 24,
    "prefecture": "三重県",
    "city": "伊勢市",
    "town": "小俣町新村"
  },
  "5190601": {
    "zipcode": "5190601",
    "prefectureCode": "24",
    "prefectureNumber": 24,
    "prefecture": "三重県",
    "city": "伊勢市",
    "town": "二見町松下"
  },
  "5190602": {
    "zipcode": "5190602",
    "prefectureCode": "24",
    "prefectureNumber": 24,
    "prefecture": "三重県",
    "city": "伊勢市",
    "town": "二見町江"
  },
  "5190603": {
    "zipcode": "5190603",
    "prefectureCode": "24",
    "prefectureNumber": 24,
    "prefecture": "三重県",
    "city": "伊勢市",
    "town": "二見町三津"
  },
  "5190604": {
    "zipcode": "5190604",
    "prefectureCode": "24",
    "prefectureNumber": 24,
    "prefecture": "三重県",
    "city": "伊勢市",
    "town": "二見町山田原"
  },
  "5190605": {
    "zipcode": "5190605",
    "prefectureCode": "24",
    "prefectureNumber": 24,
    "prefecture": "三重県",
    "city": "伊勢市",
    "town": "二見町溝口"
  },
  "5190606": {
    "zipcode": "5190606",
    "prefectureCode": "24",
    "prefectureNumber": 24,
    "prefecture": "三重県",
    "city": "伊勢市",
    "town": "二見町荘"
  },
  "5190607": {
    "zipcode": "5190607",
    "prefectureCode": "24",
    "prefectureNumber": 24,
    "prefecture": "三重県",
    "city": "伊勢市",
    "town": "二見町西"
  },
  "5190608": {
    "zipcode": "5190608",
    "prefectureCode": "24",
    "prefectureNumber": 24,
    "prefecture": "三重県",
    "city": "伊勢市",
    "town": "二見町今一色"
  },
  "5190609": {
    "zipcode": "5190609",
    "prefectureCode": "24",
    "prefectureNumber": 24,
    "prefecture": "三重県",
    "city": "伊勢市",
    "town": "二見町茶屋"
  },
  "5190611": {
    "zipcode": "5190611",
    "prefectureCode": "24",
    "prefectureNumber": 24,
    "prefecture": "三重県",
    "city": "伊勢市",
    "town": "二見町光の街"
  },
  "5191101": {
    "zipcode": "5191101",
    "prefectureCode": "24",
    "prefectureNumber": 24,
    "prefecture": "三重県",
    "city": "亀山市",
    "town": "関町坂下"
  },
  "5191102": {
    "zipcode": "5191102",
    "prefectureCode": "24",
    "prefectureNumber": 24,
    "prefecture": "三重県",
    "city": "亀山市",
    "town": "関町沓掛"
  },
  "5191103": {
    "zipcode": "5191103",
    "prefectureCode": "24",
    "prefectureNumber": 24,
    "prefecture": "三重県",
    "city": "亀山市",
    "town": "関町市瀬"
  },
  "5191104": {
    "zipcode": "5191104",
    "prefectureCode": "24",
    "prefectureNumber": 24,
    "prefecture": "三重県",
    "city": "亀山市",
    "town": "関町白木一色"
  },
  "5191105": {
    "zipcode": "5191105",
    "prefectureCode": "24",
    "prefectureNumber": 24,
    "prefecture": "三重県",
    "city": "亀山市",
    "town": "関町鷲山"
  },
  "5191106": {
    "zipcode": "5191106",
    "prefectureCode": "24",
    "prefectureNumber": 24,
    "prefecture": "三重県",
    "city": "亀山市",
    "town": "関町会下"
  },
  "5191107": {
    "zipcode": "5191107",
    "prefectureCode": "24",
    "prefectureNumber": 24,
    "prefecture": "三重県",
    "city": "亀山市",
    "town": "関町木崎"
  },
  "5191108": {
    "zipcode": "5191108",
    "prefectureCode": "24",
    "prefectureNumber": 24,
    "prefecture": "三重県",
    "city": "亀山市",
    "town": "関町小野"
  },
  "5191111": {
    "zipcode": "5191111",
    "prefectureCode": "24",
    "prefectureNumber": 24,
    "prefecture": "三重県",
    "city": "亀山市",
    "town": "関町新所"
  },
  "5191112": {
    "zipcode": "5191112",
    "prefectureCode": "24",
    "prefectureNumber": 24,
    "prefecture": "三重県",
    "city": "亀山市",
    "town": "関町中町"
  },
  "5191113": {
    "zipcode": "5191113",
    "prefectureCode": "24",
    "prefectureNumber": 24,
    "prefecture": "三重県",
    "city": "亀山市",
    "town": "関町古厩"
  },
  "5191114": {
    "zipcode": "5191114",
    "prefectureCode": "24",
    "prefectureNumber": 24,
    "prefecture": "三重県",
    "city": "亀山市",
    "town": "関町萩原"
  },
  "5191115": {
    "zipcode": "5191115",
    "prefectureCode": "24",
    "prefectureNumber": 24,
    "prefecture": "三重県",
    "city": "亀山市",
    "town": "関町福徳"
  },
  "5191116": {
    "zipcode": "5191116",
    "prefectureCode": "24",
    "prefectureNumber": 24,
    "prefecture": "三重県",
    "city": "亀山市",
    "town": "関町久我"
  },
  "5191117": {
    "zipcode": "5191117",
    "prefectureCode": "24",
    "prefectureNumber": 24,
    "prefecture": "三重県",
    "city": "亀山市",
    "town": "関町泉ケ丘"
  },
  "5191118": {
    "zipcode": "5191118",
    "prefectureCode": "24",
    "prefectureNumber": 24,
    "prefecture": "三重県",
    "city": "亀山市",
    "town": "関町富士ハイツ"
  },
  "5191119": {
    "zipcode": "5191119",
    "prefectureCode": "24",
    "prefectureNumber": 24,
    "prefecture": "三重県",
    "city": "亀山市",
    "town": "関ケ丘"
  },
  "5191121": {
    "zipcode": "5191121",
    "prefectureCode": "24",
    "prefectureNumber": 24,
    "prefecture": "三重県",
    "city": "亀山市",
    "town": "加太梶ケ坂"
  },
  "5191122": {
    "zipcode": "5191122",
    "prefectureCode": "24",
    "prefectureNumber": 24,
    "prefecture": "三重県",
    "city": "亀山市",
    "town": "加太市場"
  },
  "5191123": {
    "zipcode": "5191123",
    "prefectureCode": "24",
    "prefectureNumber": 24,
    "prefecture": "三重県",
    "city": "亀山市",
    "town": "関町金場"
  },
  "5191124": {
    "zipcode": "5191124",
    "prefectureCode": "24",
    "prefectureNumber": 24,
    "prefecture": "三重県",
    "city": "亀山市",
    "town": "関町越川"
  },
  "5191125": {
    "zipcode": "5191125",
    "prefectureCode": "24",
    "prefectureNumber": 24,
    "prefecture": "三重県",
    "city": "亀山市",
    "town": "加太向井"
  },
  "5191126": {
    "zipcode": "5191126",
    "prefectureCode": "24",
    "prefectureNumber": 24,
    "prefecture": "三重県",
    "city": "亀山市",
    "town": "加太神武"
  },
  "5191127": {
    "zipcode": "5191127",
    "prefectureCode": "24",
    "prefectureNumber": 24,
    "prefecture": "三重県",
    "city": "亀山市",
    "town": "加太中在家"
  },
  "5191128": {
    "zipcode": "5191128",
    "prefectureCode": "24",
    "prefectureNumber": 24,
    "prefecture": "三重県",
    "city": "亀山市",
    "town": "加太北在家"
  },
  "5191129": {
    "zipcode": "5191129",
    "prefectureCode": "24",
    "prefectureNumber": 24,
    "prefecture": "三重県",
    "city": "亀山市",
    "town": "加太板屋"
  },
  "5191401": {
    "zipcode": "5191401",
    "prefectureCode": "24",
    "prefectureNumber": 24,
    "prefecture": "三重県",
    "city": "伊賀市",
    "town": "一ツ家"
  },
  "5191402": {
    "zipcode": "5191402",
    "prefectureCode": "24",
    "prefectureNumber": 24,
    "prefecture": "三重県",
    "city": "伊賀市",
    "town": "柘植町"
  },
  "5191403": {
    "zipcode": "5191403",
    "prefectureCode": "24",
    "prefectureNumber": 24,
    "prefecture": "三重県",
    "city": "伊賀市",
    "town": "上村"
  },
  "5191404": {
    "zipcode": "5191404",
    "prefectureCode": "24",
    "prefectureNumber": 24,
    "prefecture": "三重県",
    "city": "伊賀市",
    "town": "中柘植"
  },
  "5191405": {
    "zipcode": "5191405",
    "prefectureCode": "24",
    "prefectureNumber": 24,
    "prefecture": "三重県",
    "city": "伊賀市",
    "town": "野村"
  },
  "5191406": {
    "zipcode": "5191406",
    "prefectureCode": "24",
    "prefectureNumber": 24,
    "prefecture": "三重県",
    "city": "伊賀市",
    "town": "小杉"
  },
  "5191411": {
    "zipcode": "5191411",
    "prefectureCode": "24",
    "prefectureNumber": 24,
    "prefecture": "三重県",
    "city": "伊賀市",
    "town": "楯岡"
  },
  "5191412": {
    "zipcode": "5191412",
    "prefectureCode": "24",
    "prefectureNumber": 24,
    "prefecture": "三重県",
    "city": "伊賀市",
    "town": "下柘植"
  },
  "5191413": {
    "zipcode": "5191413",
    "prefectureCode": "24",
    "prefectureNumber": 24,
    "prefecture": "三重県",
    "city": "伊賀市",
    "town": "愛田"
  },
  "5191414": {
    "zipcode": "5191414",
    "prefectureCode": "24",
    "prefectureNumber": 24,
    "prefecture": "三重県",
    "city": "伊賀市",
    "town": "御代"
  },
  "5191415": {
    "zipcode": "5191415",
    "prefectureCode": "24",
    "prefectureNumber": 24,
    "prefecture": "三重県",
    "city": "伊賀市",
    "town": "柏野"
  },
  "5191416": {
    "zipcode": "5191416",
    "prefectureCode": "24",
    "prefectureNumber": 24,
    "prefecture": "三重県",
    "city": "伊賀市",
    "town": "新堂"
  },
  "5191421": {
    "zipcode": "5191421",
    "prefectureCode": "24",
    "prefectureNumber": 24,
    "prefecture": "三重県",
    "city": "伊賀市",
    "town": "山畑"
  },
  "5191422": {
    "zipcode": "5191422",
    "prefectureCode": "24",
    "prefectureNumber": 24,
    "prefecture": "三重県",
    "city": "伊賀市",
    "town": "希望ケ丘東"
  },
  "5191423": {
    "zipcode": "5191423",
    "prefectureCode": "24",
    "prefectureNumber": 24,
    "prefecture": "三重県",
    "city": "伊賀市",
    "town": "希望ケ丘西"
  },
  "5191424": {
    "zipcode": "5191424",
    "prefectureCode": "24",
    "prefectureNumber": 24,
    "prefecture": "三重県",
    "city": "伊賀市",
    "town": "川東"
  },
  "5191425": {
    "zipcode": "5191425",
    "prefectureCode": "24",
    "prefectureNumber": 24,
    "prefecture": "三重県",
    "city": "伊賀市",
    "town": "川西"
  },
  "5191426": {
    "zipcode": "5191426",
    "prefectureCode": "24",
    "prefectureNumber": 24,
    "prefecture": "三重県",
    "city": "伊賀市",
    "town": "西之澤"
  },
  "5191701": {
    "zipcode": "5191701",
    "prefectureCode": "24",
    "prefectureNumber": 24,
    "prefecture": "三重県",
    "city": "伊賀市",
    "town": "島ケ原（川南）"
  },
  "5191702": {
    "zipcode": "5191702",
    "prefectureCode": "24",
    "prefectureNumber": 24,
    "prefecture": "三重県",
    "city": "伊賀市",
    "town": "島ケ原（不見上）"
  },
  "5191703": {
    "zipcode": "5191703",
    "prefectureCode": "24",
    "prefectureNumber": 24,
    "prefecture": "三重県",
    "city": "伊賀市",
    "town": "島ケ原（山菅）"
  },
  "5191704": {
    "zipcode": "5191704",
    "prefectureCode": "24",
    "prefectureNumber": 24,
    "prefecture": "三重県",
    "city": "伊賀市",
    "town": "島ケ原（町）"
  },
  "5191705": {
    "zipcode": "5191705",
    "prefectureCode": "24",
    "prefectureNumber": 24,
    "prefecture": "三重県",
    "city": "伊賀市",
    "town": "島ケ原（中村）"
  },
  "5191706": {
    "zipcode": "5191706",
    "prefectureCode": "24",
    "prefectureNumber": 24,
    "prefecture": "三重県",
    "city": "伊賀市",
    "town": "島ケ原（奥村）"
  },
  "5191707": {
    "zipcode": "5191707",
    "prefectureCode": "24",
    "prefectureNumber": 24,
    "prefecture": "三重県",
    "city": "伊賀市",
    "town": "島ケ原（大道）"
  },
  "5191708": {
    "zipcode": "5191708",
    "prefectureCode": "24",
    "prefectureNumber": 24,
    "prefecture": "三重県",
    "city": "伊賀市",
    "town": "島ケ原（中矢）"
  },
  "5191711": {
    "zipcode": "5191711",
    "prefectureCode": "24",
    "prefectureNumber": 24,
    "prefecture": "三重県",
    "city": "伊賀市",
    "town": "島ケ原"
  },
  "5192100": {
    "zipcode": "5192100",
    "prefectureCode": "24",
    "prefectureNumber": 24,
    "prefecture": "三重県",
    "city": "多気郡多気町",
    "town": "以下に掲載がない場合"
  },
  "5192141": {
    "zipcode": "5192141",
    "prefectureCode": "24",
    "prefectureNumber": 24,
    "prefecture": "三重県",
    "city": "松阪市",
    "town": "上蛸路町"
  },
  "5192142": {
    "zipcode": "5192142",
    "prefectureCode": "24",
    "prefectureNumber": 24,
    "prefecture": "三重県",
    "city": "松阪市",
    "town": "下蛸路町"
  },
  "5192143": {
    "zipcode": "5192143",
    "prefectureCode": "24",
    "prefectureNumber": 24,
    "prefecture": "三重県",
    "city": "松阪市",
    "town": "中万町"
  },
  "5192144": {
    "zipcode": "5192144",
    "prefectureCode": "24",
    "prefectureNumber": 24,
    "prefecture": "三重県",
    "city": "松阪市",
    "town": "八太町"
  },
  "5192145": {
    "zipcode": "5192145",
    "prefectureCode": "24",
    "prefectureNumber": 24,
    "prefecture": "三重県",
    "city": "松阪市",
    "town": "射和町"
  },
  "5192146": {
    "zipcode": "5192146",
    "prefectureCode": "24",
    "prefectureNumber": 24,
    "prefecture": "三重県",
    "city": "松阪市",
    "town": "阿波曽町"
  },
  "5192147": {
    "zipcode": "5192147",
    "prefectureCode": "24",
    "prefectureNumber": 24,
    "prefecture": "三重県",
    "city": "松阪市",
    "town": "庄町"
  },
  "5192148": {
    "zipcode": "5192148",
    "prefectureCode": "24",
    "prefectureNumber": 24,
    "prefecture": "三重県",
    "city": "松阪市",
    "town": "御麻生薗町"
  },
  "5192151": {
    "zipcode": "5192151",
    "prefectureCode": "24",
    "prefectureNumber": 24,
    "prefecture": "三重県",
    "city": "多気郡多気町",
    "town": "朝長"
  },
  "5192152": {
    "zipcode": "5192152",
    "prefectureCode": "24",
    "prefectureNumber": 24,
    "prefecture": "三重県",
    "city": "多気郡多気町",
    "town": "弟国"
  },
  "5192153": {
    "zipcode": "5192153",
    "prefectureCode": "24",
    "prefectureNumber": 24,
    "prefecture": "三重県",
    "city": "多気郡多気町",
    "town": "河田"
  },
  "5192154": {
    "zipcode": "5192154",
    "prefectureCode": "24",
    "prefectureNumber": 24,
    "prefecture": "三重県",
    "city": "多気郡多気町",
    "town": "多気"
  },
  "5192155": {
    "zipcode": "5192155",
    "prefectureCode": "24",
    "prefectureNumber": 24,
    "prefecture": "三重県",
    "city": "多気郡多気町",
    "town": "東池上"
  },
  "5192156": {
    "zipcode": "5192156",
    "prefectureCode": "24",
    "prefectureNumber": 24,
    "prefecture": "三重県",
    "city": "多気郡多気町",
    "town": "西池上"
  },
  "5192157": {
    "zipcode": "5192157",
    "prefectureCode": "24",
    "prefectureNumber": 24,
    "prefecture": "三重県",
    "city": "多気郡多気町",
    "town": "五佐奈"
  },
  "5192158": {
    "zipcode": "5192158",
    "prefectureCode": "24",
    "prefectureNumber": 24,
    "prefecture": "三重県",
    "city": "多気郡多気町",
    "town": "荒蒔"
  },
  "5192159": {
    "zipcode": "5192159",
    "prefectureCode": "24",
    "prefectureNumber": 24,
    "prefecture": "三重県",
    "city": "多気郡多気町",
    "town": "兄国"
  },
  "5192161": {
    "zipcode": "5192161",
    "prefectureCode": "24",
    "prefectureNumber": 24,
    "prefecture": "三重県",
    "city": "多気郡多気町",
    "town": "土羽"
  },
  "5192162": {
    "zipcode": "5192162",
    "prefectureCode": "24",
    "prefectureNumber": 24,
    "prefecture": "三重県",
    "city": "多気郡多気町",
    "town": "笠木"
  },
  "5192163": {
    "zipcode": "5192163",
    "prefectureCode": "24",
    "prefectureNumber": 24,
    "prefecture": "三重県",
    "city": "多気郡多気町",
    "town": "矢田"
  },
  "5192164": {
    "zipcode": "5192164",
    "prefectureCode": "24",
    "prefectureNumber": 24,
    "prefecture": "三重県",
    "city": "多気郡多気町",
    "town": "森荘"
  },
  "5192165": {
    "zipcode": "5192165",
    "prefectureCode": "24",
    "prefectureNumber": 24,
    "prefecture": "三重県",
    "city": "多気郡多気町",
    "town": "田中"
  },
  "5192166": {
    "zipcode": "5192166",
    "prefectureCode": "24",
    "prefectureNumber": 24,
    "prefecture": "三重県",
    "city": "多気郡多気町",
    "town": "野中"
  },
  "5192167": {
    "zipcode": "5192167",
    "prefectureCode": "24",
    "prefectureNumber": 24,
    "prefecture": "三重県",
    "city": "多気郡多気町",
    "town": "相鹿瀬"
  },
  "5192170": {
    "zipcode": "5192170",
    "prefectureCode": "24",
    "prefectureNumber": 24,
    "prefecture": "三重県",
    "city": "多気郡多気町",
    "town": "ヴィソン"
  },
  "5192171": {
    "zipcode": "5192171",
    "prefectureCode": "24",
    "prefectureNumber": 24,
    "prefecture": "三重県",
    "city": "多気郡多気町",
    "town": "西山"
  },
  "5192172": {
    "zipcode": "5192172",
    "prefectureCode": "24",
    "prefectureNumber": 24,
    "prefecture": "三重県",
    "city": "多気郡多気町",
    "town": "四神田"
  },
  "5192173": {
    "zipcode": "5192173",
    "prefectureCode": "24",
    "prefectureNumber": 24,
    "prefecture": "三重県",
    "city": "多気郡多気町",
    "town": "油夫"
  },
  "5192174": {
    "zipcode": "5192174",
    "prefectureCode": "24",
    "prefectureNumber": 24,
    "prefecture": "三重県",
    "city": "多気郡多気町",
    "town": "五桂"
  },
  "5192175": {
    "zipcode": "5192175",
    "prefectureCode": "24",
    "prefectureNumber": 24,
    "prefecture": "三重県",
    "city": "多気郡多気町",
    "town": "前村"
  },
  "5192176": {
    "zipcode": "5192176",
    "prefectureCode": "24",
    "prefectureNumber": 24,
    "prefecture": "三重県",
    "city": "多気郡多気町",
    "town": "長谷"
  },
  "5192177": {
    "zipcode": "5192177",
    "prefectureCode": "24",
    "prefectureNumber": 24,
    "prefecture": "三重県",
    "city": "多気郡多気町",
    "town": "神坂"
  },
  "5192178": {
    "zipcode": "5192178",
    "prefectureCode": "24",
    "prefectureNumber": 24,
    "prefecture": "三重県",
    "city": "多気郡多気町",
    "town": "平谷"
  },
  "5192179": {
    "zipcode": "5192179",
    "prefectureCode": "24",
    "prefectureNumber": 24,
    "prefecture": "三重県",
    "city": "多気郡多気町",
    "town": "仁田"
  },
  "5192181": {
    "zipcode": "5192181",
    "prefectureCode": "24",
    "prefectureNumber": 24,
    "prefecture": "三重県",
    "city": "多気郡多気町",
    "town": "相可"
  },
  "5192182": {
    "zipcode": "5192182",
    "prefectureCode": "24",
    "prefectureNumber": 24,
    "prefecture": "三重県",
    "city": "多気郡多気町",
    "town": "相可台"
  },
  "5192183": {
    "zipcode": "5192183",
    "prefectureCode": "24",
    "prefectureNumber": 24,
    "prefecture": "三重県",
    "city": "多気郡多気町",
    "town": "四疋田"
  },
  "5192184": {
    "zipcode": "5192184",
    "prefectureCode": "24",
    "prefectureNumber": 24,
    "prefecture": "三重県",
    "city": "多気郡多気町",
    "town": "三疋田"
  },
  "5192185": {
    "zipcode": "5192185",
    "prefectureCode": "24",
    "prefectureNumber": 24,
    "prefecture": "三重県",
    "city": "多気郡多気町",
    "town": "佐伯中"
  },
  "5192186": {
    "zipcode": "5192186",
    "prefectureCode": "24",
    "prefectureNumber": 24,
    "prefecture": "三重県",
    "city": "多気郡多気町",
    "town": "井内林"
  },
  "5192187": {
    "zipcode": "5192187",
    "prefectureCode": "24",
    "prefectureNumber": 24,
    "prefecture": "三重県",
    "city": "多気郡多気町",
    "town": "鍬形"
  },
  "5192188": {
    "zipcode": "5192188",
    "prefectureCode": "24",
    "prefectureNumber": 24,
    "prefecture": "三重県",
    "city": "多気郡多気町",
    "town": "牧"
  },
  "5192189": {
    "zipcode": "5192189",
    "prefectureCode": "24",
    "prefectureNumber": 24,
    "prefecture": "三重県",
    "city": "多気郡多気町",
    "town": "津留"
  },
  "5192201": {
    "zipcode": "5192201",
    "prefectureCode": "24",
    "prefectureNumber": 24,
    "prefecture": "三重県",
    "city": "多気郡多気町",
    "town": "上出江"
  },
  "5192202": {
    "zipcode": "5192202",
    "prefectureCode": "24",
    "prefectureNumber": 24,
    "prefecture": "三重県",
    "city": "多気郡多気町",
    "town": "下出江"
  },
  "5192203": {
    "zipcode": "5192203",
    "prefectureCode": "24",
    "prefectureNumber": 24,
    "prefecture": "三重県",
    "city": "多気郡多気町",
    "town": "片野"
  },
  "5192204": {
    "zipcode": "5192204",
    "prefectureCode": "24",
    "prefectureNumber": 24,
    "prefecture": "三重県",
    "city": "多気郡多気町",
    "town": "波多瀬"
  },
  "5192211": {
    "zipcode": "5192211",
    "prefectureCode": "24",
    "prefectureNumber": 24,
    "prefecture": "三重県",
    "city": "多気郡多気町",
    "town": "丹生"
  },
  "5192212": {
    "zipcode": "5192212",
    "prefectureCode": "24",
    "prefectureNumber": 24,
    "prefecture": "三重県",
    "city": "多気郡多気町",
    "town": "色太"
  },
  "5192213": {
    "zipcode": "5192213",
    "prefectureCode": "24",
    "prefectureNumber": 24,
    "prefecture": "三重県",
    "city": "多気郡多気町",
    "town": "土屋"
  },
  "5192214": {
    "zipcode": "5192214",
    "prefectureCode": "24",
    "prefectureNumber": 24,
    "prefecture": "三重県",
    "city": "多気郡多気町",
    "town": "車川"
  },
  "5192215": {
    "zipcode": "5192215",
    "prefectureCode": "24",
    "prefectureNumber": 24,
    "prefecture": "三重県",
    "city": "多気郡多気町",
    "town": "朝柄"
  },
  "5192216": {
    "zipcode": "5192216",
    "prefectureCode": "24",
    "prefectureNumber": 24,
    "prefecture": "三重県",
    "city": "多気郡多気町",
    "town": "古江"
  },
  "5192400": {
    "zipcode": "5192400",
    "prefectureCode": "24",
    "prefectureNumber": 24,
    "prefecture": "三重県",
    "city": "多気郡大台町",
    "town": "以下に掲載がない場合"
  },
  "5192401": {
    "zipcode": "5192401",
    "prefectureCode": "24",
    "prefectureNumber": 24,
    "prefecture": "三重県",
    "city": "多気郡大台町",
    "town": "長ケ"
  },
  "5192402": {
    "zipcode": "5192402",
    "prefectureCode": "24",
    "prefectureNumber": 24,
    "prefecture": "三重県",
    "city": "多気郡大台町",
    "town": "下三瀬"
  },
  "5192403": {
    "zipcode": "5192403",
    "prefectureCode": "24",
    "prefectureNumber": 24,
    "prefecture": "三重県",
    "city": "多気郡大台町",
    "town": "上三瀬"
  },
  "5192404": {
    "zipcode": "5192404",
    "prefectureCode": "24",
    "prefectureNumber": 24,
    "prefecture": "三重県",
    "city": "多気郡大台町",
    "town": "佐原"
  },
  "5192405": {
    "zipcode": "5192405",
    "prefectureCode": "24",
    "prefectureNumber": 24,
    "prefecture": "三重県",
    "city": "多気郡大台町",
    "town": "弥起井"
  },
  "5192411": {
    "zipcode": "5192411",
    "prefectureCode": "24",
    "prefectureNumber": 24,
    "prefecture": "三重県",
    "city": "多気郡大台町",
    "town": "上菅"
  },
  "5192412": {
    "zipcode": "5192412",
    "prefectureCode": "24",
    "prefectureNumber": 24,
    "prefecture": "三重県",
    "city": "多気郡大台町",
    "town": "滝広"
  },
  "5192413": {
    "zipcode": "5192413",
    "prefectureCode": "24",
    "prefectureNumber": 24,
    "prefecture": "三重県",
    "city": "多気郡大台町",
    "town": "大ケ所"
  },
  "5192421": {
    "zipcode": "5192421",
    "prefectureCode": "24",
    "prefectureNumber": 24,
    "prefecture": "三重県",
    "city": "多気郡大台町",
    "town": "千代"
  },
  "5192422": {
    "zipcode": "5192422",
    "prefectureCode": "24",
    "prefectureNumber": 24,
    "prefecture": "三重県",
    "city": "多気郡大台町",
    "town": "柳原"
  },
  "5192423": {
    "zipcode": "5192423",
    "prefectureCode": "24",
    "prefectureNumber": 24,
    "prefecture": "三重県",
    "city": "多気郡大台町",
    "town": "新田"
  },
  "5192424": {
    "zipcode": "5192424",
    "prefectureCode": "24",
    "prefectureNumber": 24,
    "prefecture": "三重県",
    "city": "多気郡大台町",
    "town": "栃原"
  },
  "5192425": {
    "zipcode": "5192425",
    "prefectureCode": "24",
    "prefectureNumber": 24,
    "prefecture": "三重県",
    "city": "多気郡大台町",
    "town": "神瀬"
  },
  "5192426": {
    "zipcode": "5192426",
    "prefectureCode": "24",
    "prefectureNumber": 24,
    "prefecture": "三重県",
    "city": "多気郡大台町",
    "town": "下楠"
  },
  "5192427": {
    "zipcode": "5192427",
    "prefectureCode": "24",
    "prefectureNumber": 24,
    "prefecture": "三重県",
    "city": "多気郡大台町",
    "town": "上楠"
  },
  "5192428": {
    "zipcode": "5192428",
    "prefectureCode": "24",
    "prefectureNumber": 24,
    "prefecture": "三重県",
    "city": "多気郡大台町",
    "town": "粟生"
  },
  "5192429": {
    "zipcode": "5192429",
    "prefectureCode": "24",
    "prefectureNumber": 24,
    "prefecture": "三重県",
    "city": "多気郡大台町",
    "town": "高奈"
  },
  "5192501": {
    "zipcode": "5192501",
    "prefectureCode": "24",
    "prefectureNumber": 24,
    "prefecture": "三重県",
    "city": "多気郡大台町",
    "town": "下真手"
  },
  "5192502": {
    "zipcode": "5192502",
    "prefectureCode": "24",
    "prefectureNumber": 24,
    "prefecture": "三重県",
    "city": "多気郡大台町",
    "town": "上真手"
  },
  "5192503": {
    "zipcode": "5192503",
    "prefectureCode": "24",
    "prefectureNumber": 24,
    "prefecture": "三重県",
    "city": "多気郡大台町",
    "town": "本田木屋"
  },
  "5192504": {
    "zipcode": "5192504",
    "prefectureCode": "24",
    "prefectureNumber": 24,
    "prefecture": "三重県",
    "city": "多気郡大台町",
    "town": "小切畑"
  },
  "5192505": {
    "zipcode": "5192505",
    "prefectureCode": "24",
    "prefectureNumber": 24,
    "prefecture": "三重県",
    "city": "多気郡大台町",
    "town": "江馬"
  },
  "5192506": {
    "zipcode": "5192506",
    "prefectureCode": "24",
    "prefectureNumber": 24,
    "prefecture": "三重県",
    "city": "多気郡大台町",
    "town": "天ケ瀬"
  },
  "5192507": {
    "zipcode": "5192507",
    "prefectureCode": "24",
    "prefectureNumber": 24,
    "prefecture": "三重県",
    "city": "多気郡大台町",
    "town": "栗谷"
  },
  "5192511": {
    "zipcode": "5192511",
    "prefectureCode": "24",
    "prefectureNumber": 24,
    "prefecture": "三重県",
    "city": "多気郡大台町",
    "town": "菅木屋"
  },
  "5192512": {
    "zipcode": "5192512",
    "prefectureCode": "24",
    "prefectureNumber": 24,
    "prefecture": "三重県",
    "city": "多気郡大台町",
    "town": "清滝"
  },
  "5192513": {
    "zipcode": "5192513",
    "prefectureCode": "24",
    "prefectureNumber": 24,
    "prefecture": "三重県",
    "city": "多気郡大台町",
    "town": "薗"
  },
  "5192514": {
    "zipcode": "5192514",
    "prefectureCode": "24",
    "prefectureNumber": 24,
    "prefecture": "三重県",
    "city": "多気郡大台町",
    "town": "茂原"
  },
  "5192515": {
    "zipcode": "5192515",
    "prefectureCode": "24",
    "prefectureNumber": 24,
    "prefecture": "三重県",
    "city": "多気郡大台町",
    "town": "熊内"
  },
  "5192516": {
    "zipcode": "5192516",
    "prefectureCode": "24",
    "prefectureNumber": 24,
    "prefecture": "三重県",
    "city": "多気郡大台町",
    "town": "唐櫃"
  },
  "5192517": {
    "zipcode": "5192517",
    "prefectureCode": "24",
    "prefectureNumber": 24,
    "prefecture": "三重県",
    "city": "多気郡大台町",
    "town": "南"
  },
  "5192518": {
    "zipcode": "5192518",
    "prefectureCode": "24",
    "prefectureNumber": 24,
    "prefecture": "三重県",
    "city": "多気郡大台町",
    "town": "大井"
  },
  "5192521": {
    "zipcode": "5192521",
    "prefectureCode": "24",
    "prefectureNumber": 24,
    "prefecture": "三重県",
    "city": "多気郡大台町",
    "town": "明豆"
  },
  "5192522": {
    "zipcode": "5192522",
    "prefectureCode": "24",
    "prefectureNumber": 24,
    "prefecture": "三重県",
    "city": "多気郡大台町",
    "town": "御棟"
  },
  "5192523": {
    "zipcode": "5192523",
    "prefectureCode": "24",
    "prefectureNumber": 24,
    "prefecture": "三重県",
    "city": "多気郡大台町",
    "town": "小滝"
  },
  "5192524": {
    "zipcode": "5192524",
    "prefectureCode": "24",
    "prefectureNumber": 24,
    "prefecture": "三重県",
    "city": "多気郡大台町",
    "town": "神滝"
  },
  "5192525": {
    "zipcode": "5192525",
    "prefectureCode": "24",
    "prefectureNumber": 24,
    "prefecture": "三重県",
    "city": "多気郡大台町",
    "town": "滝谷"
  },
  "5192631": {
    "zipcode": "5192631",
    "prefectureCode": "24",
    "prefectureNumber": 24,
    "prefecture": "三重県",
    "city": "多気郡大台町",
    "town": "岩井"
  },
  "5192632": {
    "zipcode": "5192632",
    "prefectureCode": "24",
    "prefectureNumber": 24,
    "prefecture": "三重県",
    "city": "多気郡大台町",
    "town": "桧原"
  },
  "5192633": {
    "zipcode": "5192633",
    "prefectureCode": "24",
    "prefectureNumber": 24,
    "prefecture": "三重県",
    "city": "多気郡大台町",
    "town": "久豆"
  },
  "5192634": {
    "zipcode": "5192634",
    "prefectureCode": "24",
    "prefectureNumber": 24,
    "prefecture": "三重県",
    "city": "多気郡大台町",
    "town": "大杉"
  },
  "5192700": {
    "zipcode": "5192700",
    "prefectureCode": "24",
    "prefectureNumber": 24,
    "prefecture": "三重県",
    "city": "度会郡大紀町",
    "town": "以下に掲載がない場合"
  },
  "5192701": {
    "zipcode": "5192701",
    "prefectureCode": "24",
    "prefectureNumber": 24,
    "prefecture": "三重県",
    "city": "度会郡大紀町",
    "town": "船木"
  },
  "5192702": {
    "zipcode": "5192702",
    "prefectureCode": "24",
    "prefectureNumber": 24,
    "prefecture": "三重県",
    "city": "度会郡大紀町",
    "town": "三瀬川"
  },
  "5192703": {
    "zipcode": "5192703",
    "prefectureCode": "24",
    "prefectureNumber": 24,
    "prefecture": "三重県",
    "city": "度会郡大紀町",
    "town": "滝原"
  },
  "5192704": {
    "zipcode": "5192704",
    "prefectureCode": "24",
    "prefectureNumber": 24,
    "prefecture": "三重県",
    "city": "度会郡大紀町",
    "town": "阿曽"
  },
  "5192731": {
    "zipcode": "5192731",
    "prefectureCode": "24",
    "prefectureNumber": 24,
    "prefecture": "三重県",
    "city": "度会郡大紀町",
    "town": "野原"
  },
  "5192732": {
    "zipcode": "5192732",
    "prefectureCode": "24",
    "prefectureNumber": 24,
    "prefecture": "三重県",
    "city": "度会郡大紀町",
    "town": "野添"
  },
  "5192733": {
    "zipcode": "5192733",
    "prefectureCode": "24",
    "prefectureNumber": 24,
    "prefecture": "三重県",
    "city": "度会郡大紀町",
    "town": "金輪"
  },
  "5192734": {
    "zipcode": "5192734",
    "prefectureCode": "24",
    "prefectureNumber": 24,
    "prefecture": "三重県",
    "city": "度会郡大紀町",
    "town": "永会"
  },
  "5192735": {
    "zipcode": "5192735",
    "prefectureCode": "24",
    "prefectureNumber": 24,
    "prefecture": "三重県",
    "city": "度会郡大紀町",
    "town": "神原"
  },
  "5192736": {
    "zipcode": "5192736",
    "prefectureCode": "24",
    "prefectureNumber": 24,
    "prefecture": "三重県",
    "city": "度会郡大紀町",
    "town": "打見"
  },
  "5192801": {
    "zipcode": "5192801",
    "prefectureCode": "24",
    "prefectureNumber": 24,
    "prefecture": "三重県",
    "city": "度会郡大紀町",
    "town": "柏野"
  },
  "5192802": {
    "zipcode": "5192802",
    "prefectureCode": "24",
    "prefectureNumber": 24,
    "prefecture": "三重県",
    "city": "度会郡大紀町",
    "town": "崎"
  },
  "5192911": {
    "zipcode": "5192911",
    "prefectureCode": "24",
    "prefectureNumber": 24,
    "prefecture": "三重県",
    "city": "度会郡大紀町",
    "town": "錦"
  },
  "5193111": {
    "zipcode": "5193111",
    "prefectureCode": "24",
    "prefectureNumber": 24,
    "prefecture": "三重県",
    "city": "度会郡大紀町",
    "town": "大内山"
  },
  "5193201": {
    "zipcode": "5193201",
    "prefectureCode": "24",
    "prefectureNumber": 24,
    "prefecture": "三重県",
    "city": "北牟婁郡紀北町",
    "town": "十須"
  },
  "5193202": {
    "zipcode": "5193202",
    "prefectureCode": "24",
    "prefectureNumber": 24,
    "prefecture": "三重県",
    "city": "北牟婁郡紀北町",
    "town": "大原"
  },
  "5193203": {
    "zipcode": "5193203",
    "prefectureCode": "24",
    "prefectureNumber": 24,
    "prefecture": "三重県",
    "city": "北牟婁郡紀北町",
    "town": "島原"
  },
  "5193204": {
    "zipcode": "5193204",
    "prefectureCode": "24",
    "prefectureNumber": 24,
    "prefecture": "三重県",
    "city": "北牟婁郡紀北町",
    "town": "東長島"
  },
  "5193205": {
    "zipcode": "5193205",
    "prefectureCode": "24",
    "prefectureNumber": 24,
    "prefecture": "三重県",
    "city": "北牟婁郡紀北町",
    "town": "長島"
  },
  "5193206": {
    "zipcode": "5193206",
    "prefectureCode": "24",
    "prefectureNumber": 24,
    "prefecture": "三重県",
    "city": "北牟婁郡紀北町",
    "town": "海野"
  },
  "5193207": {
    "zipcode": "5193207",
    "prefectureCode": "24",
    "prefectureNumber": 24,
    "prefecture": "三重県",
    "city": "北牟婁郡紀北町",
    "town": "道瀬"
  },
  "5193208": {
    "zipcode": "5193208",
    "prefectureCode": "24",
    "prefectureNumber": 24,
    "prefecture": "三重県",
    "city": "北牟婁郡紀北町",
    "town": "三浦"
  },
  "5193209": {
    "zipcode": "5193209",
    "prefectureCode": "24",
    "prefectureNumber": 24,
    "prefecture": "三重県",
    "city": "北牟婁郡紀北町",
    "town": "古里"
  },
  "5193400": {
    "zipcode": "5193400",
    "prefectureCode": "24",
    "prefectureNumber": 24,
    "prefecture": "三重県",
    "city": "北牟婁郡紀北町",
    "town": "以下に掲載がない場合"
  },
  "5193401": {
    "zipcode": "5193401",
    "prefectureCode": "24",
    "prefectureNumber": 24,
    "prefecture": "三重県",
    "city": "北牟婁郡紀北町",
    "town": "馬瀬"
  },
  "5193402": {
    "zipcode": "5193402",
    "prefectureCode": "24",
    "prefectureNumber": 24,
    "prefecture": "三重県",
    "city": "北牟婁郡紀北町",
    "town": "河内"
  },
  "5193403": {
    "zipcode": "5193403",
    "prefectureCode": "24",
    "prefectureNumber": 24,
    "prefecture": "三重県",
    "city": "北牟婁郡紀北町",
    "town": "上里"
  },
  "5193404": {
    "zipcode": "5193404",
    "prefectureCode": "24",
    "prefectureNumber": 24,
    "prefecture": "三重県",
    "city": "北牟婁郡紀北町",
    "town": "中里"
  },
  "5193405": {
    "zipcode": "5193405",
    "prefectureCode": "24",
    "prefectureNumber": 24,
    "prefecture": "三重県",
    "city": "北牟婁郡紀北町",
    "town": "船津"
  },
  "5193406": {
    "zipcode": "5193406",
    "prefectureCode": "24",
    "prefectureNumber": 24,
    "prefecture": "三重県",
    "city": "北牟婁郡紀北町",
    "town": "相賀"
  },
  "5193407": {
    "zipcode": "5193407",
    "prefectureCode": "24",
    "prefectureNumber": 24,
    "prefecture": "三重県",
    "city": "北牟婁郡紀北町",
    "town": "小山浦"
  },
  "5193408": {
    "zipcode": "5193408",
    "prefectureCode": "24",
    "prefectureNumber": 24,
    "prefecture": "三重県",
    "city": "北牟婁郡紀北町",
    "town": "便ノ山"
  },
  "5193411": {
    "zipcode": "5193411",
    "prefectureCode": "24",
    "prefectureNumber": 24,
    "prefecture": "三重県",
    "city": "北牟婁郡紀北町",
    "town": "白浦"
  },
  "5193412": {
    "zipcode": "5193412",
    "prefectureCode": "24",
    "prefectureNumber": 24,
    "prefecture": "三重県",
    "city": "北牟婁郡紀北町",
    "town": "島勝浦"
  },
  "5193413": {
    "zipcode": "5193413",
    "prefectureCode": "24",
    "prefectureNumber": 24,
    "prefecture": "三重県",
    "city": "北牟婁郡紀北町",
    "town": "引本浦"
  },
  "5193414": {
    "zipcode": "5193414",
    "prefectureCode": "24",
    "prefectureNumber": 24,
    "prefecture": "三重県",
    "city": "北牟婁郡紀北町",
    "town": "小浦"
  },
  "5193415": {
    "zipcode": "5193415",
    "prefectureCode": "24",
    "prefectureNumber": 24,
    "prefecture": "三重県",
    "city": "北牟婁郡紀北町",
    "town": "矢口浦"
  },
  "5193421": {
    "zipcode": "5193421",
    "prefectureCode": "24",
    "prefectureNumber": 24,
    "prefecture": "三重県",
    "city": "尾鷲市",
    "town": "須賀利町"
  },
  "5193600": {
    "zipcode": "5193600",
    "prefectureCode": "24",
    "prefectureNumber": 24,
    "prefecture": "三重県",
    "city": "尾鷲市",
    "town": "以下に掲載がない場合"
  },
  "5193601": {
    "zipcode": "5193601",
    "prefectureCode": "24",
    "prefectureNumber": 24,
    "prefecture": "三重県",
    "city": "尾鷲市",
    "town": "南浦（天満）"
  },
  "5193602": {
    "zipcode": "5193602",
    "prefectureCode": "24",
    "prefectureNumber": 24,
    "prefecture": "三重県",
    "city": "尾鷲市",
    "town": "天満浦"
  },
  "5193604": {
    "zipcode": "5193604",
    "prefectureCode": "24",
    "prefectureNumber": 24,
    "prefecture": "三重県",
    "city": "尾鷲市",
    "town": "港町"
  },
  "5193605": {
    "zipcode": "5193605",
    "prefectureCode": "24",
    "prefectureNumber": 24,
    "prefecture": "三重県",
    "city": "尾鷲市",
    "town": "中井町"
  },
  "5193606": {
    "zipcode": "5193606",
    "prefectureCode": "24",
    "prefectureNumber": 24,
    "prefecture": "三重県",
    "city": "尾鷲市",
    "town": "北浦町"
  },
  "5193609": {
    "zipcode": "5193609",
    "prefectureCode": "24",
    "prefectureNumber": 24,
    "prefecture": "三重県",
    "city": "尾鷲市",
    "town": "北浦東町"
  },
  "5193610": {
    "zipcode": "5193610",
    "prefectureCode": "24",
    "prefectureNumber": 24,
    "prefecture": "三重県",
    "city": "尾鷲市",
    "town": "北浦西町"
  },
  "5193611": {
    "zipcode": "5193611",
    "prefectureCode": "24",
    "prefectureNumber": 24,
    "prefecture": "三重県",
    "city": "尾鷲市",
    "town": "朝日町"
  },
  "5193612": {
    "zipcode": "5193612",
    "prefectureCode": "24",
    "prefectureNumber": 24,
    "prefecture": "三重県",
    "city": "尾鷲市",
    "town": "林町"
  },
  "5193613": {
    "zipcode": "5193613",
    "prefectureCode": "24",
    "prefectureNumber": 24,
    "prefecture": "三重県",
    "city": "尾鷲市",
    "town": "南浦（林）"
  },
  "5193614": {
    "zipcode": "5193614",
    "prefectureCode": "24",
    "prefectureNumber": 24,
    "prefecture": "三重県",
    "city": "尾鷲市",
    "town": "南陽町"
  },
  "5193615": {
    "zipcode": "5193615",
    "prefectureCode": "24",
    "prefectureNumber": 24,
    "prefecture": "三重県",
    "city": "尾鷲市",
    "town": "中央町"
  },
  "5193616": {
    "zipcode": "5193616",
    "prefectureCode": "24",
    "prefectureNumber": 24,
    "prefecture": "三重県",
    "city": "尾鷲市",
    "town": "中村町"
  },
  "5193617": {
    "zipcode": "5193617",
    "prefectureCode": "24",
    "prefectureNumber": 24,
    "prefecture": "三重県",
    "city": "尾鷲市",
    "town": "野地町"
  },
  "5193618": {
    "zipcode": "5193618",
    "prefectureCode": "24",
    "prefectureNumber": 24,
    "prefecture": "三重県",
    "city": "尾鷲市",
    "town": "栄町"
  },
  "5193619": {
    "zipcode": "5193619",
    "prefectureCode": "24",
    "prefectureNumber": 24,
    "prefecture": "三重県",
    "city": "尾鷲市",
    "town": "馬越町"
  },
  "5193620": {
    "zipcode": "5193620",
    "prefectureCode": "24",
    "prefectureNumber": 24,
    "prefecture": "三重県",
    "city": "尾鷲市",
    "town": "座ノ下町"
  },
  "5193621": {
    "zipcode": "5193621",
    "prefectureCode": "24",
    "prefectureNumber": 24,
    "prefecture": "三重県",
    "city": "尾鷲市",
    "town": "行野浦"
  },
  "5193623": {
    "zipcode": "5193623",
    "prefectureCode": "24",
    "prefectureNumber": 24,
    "prefecture": "三重県",
    "city": "尾鷲市",
    "town": "大曽根浦"
  },
  "5193625": {
    "zipcode": "5193625",
    "prefectureCode": "24",
    "prefectureNumber": 24,
    "prefecture": "三重県",
    "city": "尾鷲市",
    "town": "向井"
  },
  "5193626": {
    "zipcode": "5193626",
    "prefectureCode": "24",
    "prefectureNumber": 24,
    "prefecture": "三重県",
    "city": "尾鷲市",
    "town": "国市松泉町"
  },
  "5193634": {
    "zipcode": "5193634",
    "prefectureCode": "24",
    "prefectureNumber": 24,
    "prefecture": "三重県",
    "city": "尾鷲市",
    "town": "南浦（矢浜）"
  },
  "5193637": {
    "zipcode": "5193637",
    "prefectureCode": "24",
    "prefectureNumber": 24,
    "prefecture": "三重県",
    "city": "尾鷲市",
    "town": "光ケ丘"
  },
  "5193638": {
    "zipcode": "5193638",
    "prefectureCode": "24",
    "prefectureNumber": 24,
    "prefecture": "三重県",
    "city": "尾鷲市",
    "town": "新田町"
  },
  "5193639": {
    "zipcode": "5193639",
    "prefectureCode": "24",
    "prefectureNumber": 24,
    "prefecture": "三重県",
    "city": "尾鷲市",
    "town": "中川"
  },
  "5193640": {
    "zipcode": "5193640",
    "prefectureCode": "24",
    "prefectureNumber": 24,
    "prefecture": "三重県",
    "city": "尾鷲市",
    "town": "桂ケ丘"
  },
  "5193642": {
    "zipcode": "5193642",
    "prefectureCode": "24",
    "prefectureNumber": 24,
    "prefecture": "三重県",
    "city": "尾鷲市",
    "town": "大滝町"
  },
  "5193643": {
    "zipcode": "5193643",
    "prefectureCode": "24",
    "prefectureNumber": 24,
    "prefecture": "三重県",
    "city": "尾鷲市",
    "town": "南浦（小原野）"
  },
  "5193646": {
    "zipcode": "5193646",
    "prefectureCode": "24",
    "prefectureNumber": 24,
    "prefecture": "三重県",
    "city": "尾鷲市",
    "town": "泉町"
  },
  "5193647": {
    "zipcode": "5193647",
    "prefectureCode": "24",
    "prefectureNumber": 24,
    "prefecture": "三重県",
    "city": "尾鷲市",
    "town": "小川西町"
  },
  "5193648": {
    "zipcode": "5193648",
    "prefectureCode": "24",
    "prefectureNumber": 24,
    "prefecture": "三重県",
    "city": "尾鷲市",
    "town": "小川東町"
  },
  "5193651": {
    "zipcode": "5193651",
    "prefectureCode": "24",
    "prefectureNumber": 24,
    "prefecture": "三重県",
    "city": "尾鷲市",
    "town": "末広町"
  },
  "5193652": {
    "zipcode": "5193652",
    "prefectureCode": "24",
    "prefectureNumber": 24,
    "prefecture": "三重県",
    "city": "尾鷲市",
    "town": "古戸町"
  },
  "5193653": {
    "zipcode": "5193653",
    "prefectureCode": "24",
    "prefectureNumber": 24,
    "prefecture": "三重県",
    "city": "尾鷲市",
    "town": "上野町"
  },
  "5193656": {
    "zipcode": "5193656",
    "prefectureCode": "24",
    "prefectureNumber": 24,
    "prefecture": "三重県",
    "city": "尾鷲市",
    "town": "南浦（倉ノ谷）"
  },
  "5193658": {
    "zipcode": "5193658",
    "prefectureCode": "24",
    "prefectureNumber": 24,
    "prefecture": "三重県",
    "city": "尾鷲市",
    "town": "倉ノ谷町"
  },
  "5193659": {
    "zipcode": "5193659",
    "prefectureCode": "24",
    "prefectureNumber": 24,
    "prefecture": "三重県",
    "city": "尾鷲市",
    "town": "古戸野町"
  },
  "5193663": {
    "zipcode": "5193663",
    "prefectureCode": "24",
    "prefectureNumber": 24,
    "prefecture": "三重県",
    "city": "尾鷲市",
    "town": "宮ノ上町"
  },
  "5193664": {
    "zipcode": "5193664",
    "prefectureCode": "24",
    "prefectureNumber": 24,
    "prefecture": "三重県",
    "city": "尾鷲市",
    "town": "坂場町"
  },
  "5193666": {
    "zipcode": "5193666",
    "prefectureCode": "24",
    "prefectureNumber": 24,
    "prefecture": "三重県",
    "city": "尾鷲市",
    "town": "中井浦（坂場）"
  },
  "5193667": {
    "zipcode": "5193667",
    "prefectureCode": "24",
    "prefectureNumber": 24,
    "prefecture": "三重県",
    "city": "尾鷲市",
    "town": "南浦（クチスボ）"
  },
  "5193671": {
    "zipcode": "5193671",
    "prefectureCode": "24",
    "prefectureNumber": 24,
    "prefecture": "三重県",
    "city": "尾鷲市",
    "town": "矢浜（丁目）"
  },
  "5193672": {
    "zipcode": "5193672",
    "prefectureCode": "24",
    "prefectureNumber": 24,
    "prefecture": "三重県",
    "city": "尾鷲市",
    "town": "矢浜岡崎町"
  },
  "5193673": {
    "zipcode": "5193673",
    "prefectureCode": "24",
    "prefectureNumber": 24,
    "prefecture": "三重県",
    "city": "尾鷲市",
    "town": "矢浜大道"
  },
  "5193674": {
    "zipcode": "5193674",
    "prefectureCode": "24",
    "prefectureNumber": 24,
    "prefecture": "三重県",
    "city": "尾鷲市",
    "town": "矢浜真砂"
  },
  "5193701": {
    "zipcode": "5193701",
    "prefectureCode": "24",
    "prefectureNumber": 24,
    "prefecture": "三重県",
    "city": "尾鷲市",
    "town": "九鬼町"
  },
  "5193702": {
    "zipcode": "5193702",
    "prefectureCode": "24",
    "prefectureNumber": 24,
    "prefecture": "三重県",
    "city": "尾鷲市",
    "town": "早田町"
  },
  "5193811": {
    "zipcode": "5193811",
    "prefectureCode": "24",
    "prefectureNumber": 24,
    "prefecture": "三重県",
    "city": "尾鷲市",
    "town": "三木里町"
  },
  "5193812": {
    "zipcode": "5193812",
    "prefectureCode": "24",
    "prefectureNumber": 24,
    "prefecture": "三重県",
    "city": "尾鷲市",
    "town": "名柄町"
  },
  "5193813": {
    "zipcode": "5193813",
    "prefectureCode": "24",
    "prefectureNumber": 24,
    "prefecture": "三重県",
    "city": "尾鷲市",
    "town": "小脇町"
  },
  "5193814": {
    "zipcode": "5193814",
    "prefectureCode": "24",
    "prefectureNumber": 24,
    "prefecture": "三重県",
    "city": "尾鷲市",
    "town": "三木浦町"
  },
  "5193921": {
    "zipcode": "5193921",
    "prefectureCode": "24",
    "prefectureNumber": 24,
    "prefecture": "三重県",
    "city": "尾鷲市",
    "town": "賀田町"
  },
  "5193922": {
    "zipcode": "5193922",
    "prefectureCode": "24",
    "prefectureNumber": 24,
    "prefecture": "三重県",
    "city": "尾鷲市",
    "town": "古江町"
  },
  "5193923": {
    "zipcode": "5193923",
    "prefectureCode": "24",
    "prefectureNumber": 24,
    "prefecture": "三重県",
    "city": "尾鷲市",
    "town": "梶賀町"
  },
  "5193924": {
    "zipcode": "5193924",
    "prefectureCode": "24",
    "prefectureNumber": 24,
    "prefecture": "三重県",
    "city": "尾鷲市",
    "town": "曽根町"
  },
  "5194201": {
    "zipcode": "5194201",
    "prefectureCode": "24",
    "prefectureNumber": 24,
    "prefecture": "三重県",
    "city": "熊野市",
    "town": "須野町"
  },
  "5194202": {
    "zipcode": "5194202",
    "prefectureCode": "24",
    "prefectureNumber": 24,
    "prefecture": "三重県",
    "city": "熊野市",
    "town": "甫母町"
  },
  "5194203": {
    "zipcode": "5194203",
    "prefectureCode": "24",
    "prefectureNumber": 24,
    "prefecture": "三重県",
    "city": "熊野市",
    "town": "二木島里町"
  },
  "5194204": {
    "zipcode": "5194204",
    "prefectureCode": "24",
    "prefectureNumber": 24,
    "prefecture": "三重県",
    "city": "熊野市",
    "town": "二木島町"
  },
  "5194205": {
    "zipcode": "5194205",
    "prefectureCode": "24",
    "prefectureNumber": 24,
    "prefecture": "三重県",
    "city": "熊野市",
    "town": "遊木町"
  },
  "5194206": {
    "zipcode": "5194206",
    "prefectureCode": "24",
    "prefectureNumber": 24,
    "prefecture": "三重県",
    "city": "熊野市",
    "town": "新鹿町"
  },
  "5194207": {
    "zipcode": "5194207",
    "prefectureCode": "24",
    "prefectureNumber": 24,
    "prefecture": "三重県",
    "city": "熊野市",
    "town": "波田須町"
  },
  "5194300": {
    "zipcode": "5194300",
    "prefectureCode": "24",
    "prefectureNumber": 24,
    "prefecture": "三重県",
    "city": "熊野市",
    "town": "以下に掲載がない場合"
  },
  "5194321": {
    "zipcode": "5194321",
    "prefectureCode": "24",
    "prefectureNumber": 24,
    "prefecture": "三重県",
    "city": "熊野市",
    "town": "磯崎町"
  },
  "5194322": {
    "zipcode": "5194322",
    "prefectureCode": "24",
    "prefectureNumber": 24,
    "prefecture": "三重県",
    "city": "熊野市",
    "town": "大泊町"
  },
  "5194323": {
    "zipcode": "5194323",
    "prefectureCode": "24",
    "prefectureNumber": 24,
    "prefecture": "三重県",
    "city": "熊野市",
    "town": "木本町"
  },
  "5194324": {
    "zipcode": "5194324",
    "prefectureCode": "24",
    "prefectureNumber": 24,
    "prefecture": "三重県",
    "city": "熊野市",
    "town": "井戸町"
  },
  "5194325": {
    "zipcode": "5194325",
    "prefectureCode": "24",
    "prefectureNumber": 24,
    "prefecture": "三重県",
    "city": "熊野市",
    "town": "有馬町"
  },
  "5194326": {
    "zipcode": "5194326",
    "prefectureCode": "24",
    "prefectureNumber": 24,
    "prefecture": "三重県",
    "city": "熊野市",
    "town": "久生屋町"
  },
  "5194327": {
    "zipcode": "5194327",
    "prefectureCode": "24",
    "prefectureNumber": 24,
    "prefecture": "三重県",
    "city": "熊野市",
    "town": "金山町"
  },
  "5194441": {
    "zipcode": "5194441",
    "prefectureCode": "24",
    "prefectureNumber": 24,
    "prefecture": "三重県",
    "city": "熊野市",
    "town": "神川町花知"
  },
  "5194442": {
    "zipcode": "5194442",
    "prefectureCode": "24",
    "prefectureNumber": 24,
    "prefecture": "三重県",
    "city": "熊野市",
    "town": "神川町神上"
  },
  "5194443": {
    "zipcode": "5194443",
    "prefectureCode": "24",
    "prefectureNumber": 24,
    "prefecture": "三重県",
    "city": "熊野市",
    "town": "神川町柳谷"
  },
  "5194444": {
    "zipcode": "5194444",
    "prefectureCode": "24",
    "prefectureNumber": 24,
    "prefecture": "三重県",
    "city": "熊野市",
    "town": "神川町長原"
  },
  "5194445": {
    "zipcode": "5194445",
    "prefectureCode": "24",
    "prefectureNumber": 24,
    "prefecture": "三重県",
    "city": "熊野市",
    "town": "育生町粉所"
  },
  "5194446": {
    "zipcode": "5194446",
    "prefectureCode": "24",
    "prefectureNumber": 24,
    "prefecture": "三重県",
    "city": "熊野市",
    "town": "育生町赤倉"
  },
  "5194447": {
    "zipcode": "5194447",
    "prefectureCode": "24",
    "prefectureNumber": 24,
    "prefecture": "三重県",
    "city": "熊野市",
    "town": "育生町尾川"
  },
  "5194448": {
    "zipcode": "5194448",
    "prefectureCode": "24",
    "prefectureNumber": 24,
    "prefecture": "三重県",
    "city": "熊野市",
    "town": "育生町大井"
  },
  "5194449": {
    "zipcode": "5194449",
    "prefectureCode": "24",
    "prefectureNumber": 24,
    "prefecture": "三重県",
    "city": "熊野市",
    "town": "育生町長井"
  },
  "5194561": {
    "zipcode": "5194561",
    "prefectureCode": "24",
    "prefectureNumber": 24,
    "prefecture": "三重県",
    "city": "熊野市",
    "town": "飛鳥町大又"
  },
  "5194562": {
    "zipcode": "5194562",
    "prefectureCode": "24",
    "prefectureNumber": 24,
    "prefecture": "三重県",
    "city": "熊野市",
    "town": "飛鳥町小又"
  },
  "5194563": {
    "zipcode": "5194563",
    "prefectureCode": "24",
    "prefectureNumber": 24,
    "prefecture": "三重県",
    "city": "熊野市",
    "town": "飛鳥町小阪"
  },
  "5194564": {
    "zipcode": "5194564",
    "prefectureCode": "24",
    "prefectureNumber": 24,
    "prefecture": "三重県",
    "city": "熊野市",
    "town": "飛鳥町佐渡"
  },
  "5194565": {
    "zipcode": "5194565",
    "prefectureCode": "24",
    "prefectureNumber": 24,
    "prefecture": "三重県",
    "city": "熊野市",
    "town": "飛鳥町野口"
  },
  "5194566": {
    "zipcode": "5194566",
    "prefectureCode": "24",
    "prefectureNumber": 24,
    "prefecture": "三重県",
    "city": "熊野市",
    "town": "飛鳥町神山"
  },
  "5194671": {
    "zipcode": "5194671",
    "prefectureCode": "24",
    "prefectureNumber": 24,
    "prefecture": "三重県",
    "city": "熊野市",
    "town": "五郷町桃崎"
  },
  "5194672": {
    "zipcode": "5194672",
    "prefectureCode": "24",
    "prefectureNumber": 24,
    "prefecture": "三重県",
    "city": "熊野市",
    "town": "五郷町湯谷"
  },
  "5194673": {
    "zipcode": "5194673",
    "prefectureCode": "24",
    "prefectureNumber": 24,
    "prefecture": "三重県",
    "city": "熊野市",
    "town": "五郷町寺谷"
  },
  "5194674": {
    "zipcode": "5194674",
    "prefectureCode": "24",
    "prefectureNumber": 24,
    "prefecture": "三重県",
    "city": "熊野市",
    "town": "五郷町和田"
  },
  "5194675": {
    "zipcode": "5194675",
    "prefectureCode": "24",
    "prefectureNumber": 24,
    "prefecture": "三重県",
    "city": "熊野市",
    "town": "五郷町大井谷"
  },
  "5195200": {
    "zipcode": "5195200",
    "prefectureCode": "24",
    "prefectureNumber": 24,
    "prefecture": "三重県",
    "city": "南牟婁郡御浜町",
    "town": "以下に掲載がない場合"
  },
  "5195201": {
    "zipcode": "5195201",
    "prefectureCode": "24",
    "prefectureNumber": 24,
    "prefecture": "三重県",
    "city": "南牟婁郡御浜町",
    "town": "神木"
  },
  "5195202": {
    "zipcode": "5195202",
    "prefectureCode": "24",
    "prefectureNumber": 24,
    "prefecture": "三重県",
    "city": "南牟婁郡御浜町",
    "town": "志原"
  },
  "5195203": {
    "zipcode": "5195203",
    "prefectureCode": "24",
    "prefectureNumber": 24,
    "prefecture": "三重県",
    "city": "南牟婁郡御浜町",
    "town": "萩内"
  },
  "5195204": {
    "zipcode": "5195204",
    "prefectureCode": "24",
    "prefectureNumber": 24,
    "prefecture": "三重県",
    "city": "南牟婁郡御浜町",
    "town": "山地"
  },
  "5195205": {
    "zipcode": "5195205",
    "prefectureCode": "24",
    "prefectureNumber": 24,
    "prefecture": "三重県",
    "city": "南牟婁郡御浜町",
    "town": "引作"
  },
  "5195206": {
    "zipcode": "5195206",
    "prefectureCode": "24",
    "prefectureNumber": 24,
    "prefecture": "三重県",
    "city": "南牟婁郡御浜町",
    "town": "柿原"
  },
  "5195211": {
    "zipcode": "5195211",
    "prefectureCode": "24",
    "prefectureNumber": 24,
    "prefecture": "三重県",
    "city": "南牟婁郡御浜町",
    "town": "上市木"
  },
  "5195321": {
    "zipcode": "5195321",
    "prefectureCode": "24",
    "prefectureNumber": 24,
    "prefecture": "三重県",
    "city": "南牟婁郡御浜町",
    "town": "阪本"
  },
  "5195322": {
    "zipcode": "5195322",
    "prefectureCode": "24",
    "prefectureNumber": 24,
    "prefecture": "三重県",
    "city": "南牟婁郡御浜町",
    "town": "上野"
  },
  "5195323": {
    "zipcode": "5195323",
    "prefectureCode": "24",
    "prefectureNumber": 24,
    "prefecture": "三重県",
    "city": "南牟婁郡御浜町",
    "town": "西原"
  },
  "5195324": {
    "zipcode": "5195324",
    "prefectureCode": "24",
    "prefectureNumber": 24,
    "prefecture": "三重県",
    "city": "南牟婁郡御浜町",
    "town": "中立"
  },
  "5195325": {
    "zipcode": "5195325",
    "prefectureCode": "24",
    "prefectureNumber": 24,
    "prefecture": "三重県",
    "city": "南牟婁郡御浜町",
    "town": "片川"
  },
  "5195326": {
    "zipcode": "5195326",
    "prefectureCode": "24",
    "prefectureNumber": 24,
    "prefecture": "三重県",
    "city": "南牟婁郡御浜町",
    "town": "栗須"
  },
  "5195327": {
    "zipcode": "5195327",
    "prefectureCode": "24",
    "prefectureNumber": 24,
    "prefecture": "三重県",
    "city": "南牟婁郡御浜町",
    "town": "川瀬"
  },
  "5195401": {
    "zipcode": "5195401",
    "prefectureCode": "24",
    "prefectureNumber": 24,
    "prefecture": "三重県",
    "city": "熊野市",
    "town": "紀和町小森"
  },
  "5195402": {
    "zipcode": "5195402",
    "prefectureCode": "24",
    "prefectureNumber": 24,
    "prefecture": "三重県",
    "city": "熊野市",
    "town": "紀和町平谷"
  },
  "5195403": {
    "zipcode": "5195403",
    "prefectureCode": "24",
    "prefectureNumber": 24,
    "prefecture": "三重県",
    "city": "熊野市",
    "town": "紀和町長尾"
  },
  "5195404": {
    "zipcode": "5195404",
    "prefectureCode": "24",
    "prefectureNumber": 24,
    "prefecture": "三重県",
    "city": "熊野市",
    "town": "紀和町赤木"
  },
  "5195405": {
    "zipcode": "5195405",
    "prefectureCode": "24",
    "prefectureNumber": 24,
    "prefecture": "三重県",
    "city": "熊野市",
    "town": "紀和町丸山"
  },
  "5195406": {
    "zipcode": "5195406",
    "prefectureCode": "24",
    "prefectureNumber": 24,
    "prefecture": "三重県",
    "city": "熊野市",
    "town": "紀和町矢ノ川"
  },
  "5195411": {
    "zipcode": "5195411",
    "prefectureCode": "24",
    "prefectureNumber": 24,
    "prefecture": "三重県",
    "city": "熊野市",
    "town": "紀和町木津呂"
  },
  "5195412": {
    "zipcode": "5195412",
    "prefectureCode": "24",
    "prefectureNumber": 24,
    "prefecture": "三重県",
    "city": "熊野市",
    "town": "紀和町大栗須"
  },
  "5195413": {
    "zipcode": "5195413",
    "prefectureCode": "24",
    "prefectureNumber": 24,
    "prefecture": "三重県",
    "city": "熊野市",
    "town": "紀和町板屋"
  },
  "5195414": {
    "zipcode": "5195414",
    "prefectureCode": "24",
    "prefectureNumber": 24,
    "prefecture": "三重県",
    "city": "熊野市",
    "town": "紀和町小栗須"
  },
  "5195415": {
    "zipcode": "5195415",
    "prefectureCode": "24",
    "prefectureNumber": 24,
    "prefecture": "三重県",
    "city": "熊野市",
    "town": "紀和町大河内"
  },
  "5195416": {
    "zipcode": "5195416",
    "prefectureCode": "24",
    "prefectureNumber": 24,
    "prefecture": "三重県",
    "city": "熊野市",
    "town": "紀和町湯ノ口"
  },
  "5195417": {
    "zipcode": "5195417",
    "prefectureCode": "24",
    "prefectureNumber": 24,
    "prefecture": "三重県",
    "city": "熊野市",
    "town": "紀和町小川口"
  },
  "5195700": {
    "zipcode": "5195700",
    "prefectureCode": "24",
    "prefectureNumber": 24,
    "prefecture": "三重県",
    "city": "南牟婁郡紀宝町",
    "town": "以下に掲載がない場合"
  },
  "5195701": {
    "zipcode": "5195701",
    "prefectureCode": "24",
    "prefectureNumber": 24,
    "prefecture": "三重県",
    "city": "南牟婁郡紀宝町",
    "town": "鵜殿"
  },
  "5195711": {
    "zipcode": "5195711",
    "prefectureCode": "24",
    "prefectureNumber": 24,
    "prefecture": "三重県",
    "city": "南牟婁郡紀宝町",
    "town": "井田"
  },
  "5195712": {
    "zipcode": "5195712",
    "prefectureCode": "24",
    "prefectureNumber": 24,
    "prefecture": "三重県",
    "city": "南牟婁郡紀宝町",
    "town": "神内"
  },
  "5195713": {
    "zipcode": "5195713",
    "prefectureCode": "24",
    "prefectureNumber": 24,
    "prefecture": "三重県",
    "city": "南牟婁郡紀宝町",
    "town": "成川"
  },
  "5195714": {
    "zipcode": "5195714",
    "prefectureCode": "24",
    "prefectureNumber": 24,
    "prefecture": "三重県",
    "city": "南牟婁郡紀宝町",
    "town": "鮒田"
  },
  "5195715": {
    "zipcode": "5195715",
    "prefectureCode": "24",
    "prefectureNumber": 24,
    "prefecture": "三重県",
    "city": "南牟婁郡紀宝町",
    "town": "高岡"
  },
  "5195716": {
    "zipcode": "5195716",
    "prefectureCode": "24",
    "prefectureNumber": 24,
    "prefecture": "三重県",
    "city": "南牟婁郡紀宝町",
    "town": "北桧杖"
  },
  "5195717": {
    "zipcode": "5195717",
    "prefectureCode": "24",
    "prefectureNumber": 24,
    "prefecture": "三重県",
    "city": "南牟婁郡紀宝町",
    "town": "瀬原"
  },
  "5195718": {
    "zipcode": "5195718",
    "prefectureCode": "24",
    "prefectureNumber": 24,
    "prefecture": "三重県",
    "city": "南牟婁郡紀宝町",
    "town": "浅里"
  },
  "5195831": {
    "zipcode": "5195831",
    "prefectureCode": "24",
    "prefectureNumber": 24,
    "prefecture": "三重県",
    "city": "南牟婁郡紀宝町",
    "town": "桐原"
  },
  "5195832": {
    "zipcode": "5195832",
    "prefectureCode": "24",
    "prefectureNumber": 24,
    "prefecture": "三重県",
    "city": "南牟婁郡紀宝町",
    "town": "阪松原"
  },
  "5195833": {
    "zipcode": "5195833",
    "prefectureCode": "24",
    "prefectureNumber": 24,
    "prefecture": "三重県",
    "city": "南牟婁郡紀宝町",
    "town": "平尾井"
  },
  "5195834": {
    "zipcode": "5195834",
    "prefectureCode": "24",
    "prefectureNumber": 24,
    "prefecture": "三重県",
    "city": "南牟婁郡紀宝町",
    "town": "井内"
  },
  "5195835": {
    "zipcode": "5195835",
    "prefectureCode": "24",
    "prefectureNumber": 24,
    "prefecture": "三重県",
    "city": "南牟婁郡紀宝町",
    "town": "大里"
  }
}
