{
  "5220000": {
    "zipcode": "5220000",
    "prefectureCode": "25",
    "prefectureNumber": 25,
    "prefecture": "滋賀県",
    "city": "彦根市",
    "town": "以下に掲載がない場合"
  },
  "5220001": {
    "zipcode": "5220001",
    "prefectureCode": "25",
    "prefectureNumber": 25,
    "prefecture": "滋賀県",
    "city": "彦根市",
    "town": "尾末町"
  },
  "5220002": {
    "zipcode": "5220002",
    "prefectureCode": "25",
    "prefectureNumber": 25,
    "prefecture": "滋賀県",
    "city": "彦根市",
    "town": "松原町"
  },
  "5220003": {
    "zipcode": "5220003",
    "prefectureCode": "25",
    "prefectureNumber": 25,
    "prefecture": "滋賀県",
    "city": "彦根市",
    "town": "宮田町"
  },
  "5220004": {
    "zipcode": "5220004",
    "prefectureCode": "25",
    "prefectureNumber": 25,
    "prefecture": "滋賀県",
    "city": "彦根市",
    "town": "鳥居本町"
  },
  "5220005": {
    "zipcode": "5220005",
    "prefectureCode": "25",
    "prefectureNumber": 25,
    "prefecture": "滋賀県",
    "city": "彦根市",
    "town": "小野町"
  },
  "5220006": {
    "zipcode": "5220006",
    "prefectureCode": "25",
    "prefectureNumber": 25,
    "prefecture": "滋賀県",
    "city": "彦根市",
    "town": "佐和山町"
  },
  "5220007": {
    "zipcode": "5220007",
    "prefectureCode": "25",
    "prefectureNumber": 25,
    "prefecture": "滋賀県",
    "city": "彦根市",
    "town": "古沢町"
  },
  "5220008": {
    "zipcode": "5220008",
    "prefectureCode": "25",
    "prefectureNumber": 25,
    "prefecture": "滋賀県",
    "city": "彦根市",
    "town": "安清東町"
  },
  "5220009": {
    "zipcode": "5220009",
    "prefectureCode": "25",
    "prefectureNumber": 25,
    "prefecture": "滋賀県",
    "city": "彦根市",
    "town": "外町"
  },
  "5220010": {
    "zipcode": "5220010",
    "prefectureCode": "25",
    "prefectureNumber": 25,
    "prefecture": "滋賀県",
    "city": "彦根市",
    "town": "駅東町"
  },
  "5220011": {
    "zipcode": "5220011",
    "prefectureCode": "25",
    "prefectureNumber": 25,
    "prefecture": "滋賀県",
    "city": "彦根市",
    "town": "下矢倉町"
  },
  "5220012": {
    "zipcode": "5220012",
    "prefectureCode": "25",
    "prefectureNumber": 25,
    "prefecture": "滋賀県",
    "city": "彦根市",
    "town": "甲田町"
  },
  "5220013": {
    "zipcode": "5220013",
    "prefectureCode": "25",
    "prefectureNumber": 25,
    "prefecture": "滋賀県",
    "city": "彦根市",
    "town": "中山町"
  },
  "5220014": {
    "zipcode": "5220014",
    "prefectureCode": "25",
    "prefectureNumber": 25,
    "prefecture": "滋賀県",
    "city": "彦根市",
    "town": "善谷町"
  },
  "5220015": {
    "zipcode": "5220015",
    "prefectureCode": "25",
    "prefectureNumber": 25,
    "prefecture": "滋賀県",
    "city": "彦根市",
    "town": "荘厳寺町"
  },
  "5220016": {
    "zipcode": "5220016",
    "prefectureCode": "25",
    "prefectureNumber": 25,
    "prefecture": "滋賀県",
    "city": "彦根市",
    "town": "武奈町"
  },
  "5220017": {
    "zipcode": "5220017",
    "prefectureCode": "25",
    "prefectureNumber": 25,
    "prefecture": "滋賀県",
    "city": "彦根市",
    "town": "男鬼町"
  },
  "5220018": {
    "zipcode": "5220018",
    "prefectureCode": "25",
    "prefectureNumber": 25,
    "prefecture": "滋賀県",
    "city": "彦根市",
    "town": "仏生寺町"
  },
  "5220019": {
    "zipcode": "5220019",
    "prefectureCode": "25",
    "prefectureNumber": 25,
    "prefecture": "滋賀県",
    "city": "彦根市",
    "town": "笹尾町"
  },
  "5220021": {
    "zipcode": "5220021",
    "prefectureCode": "25",
    "prefectureNumber": 25,
    "prefecture": "滋賀県",
    "city": "彦根市",
    "town": "幸町"
  },
  "5220022": {
    "zipcode": "5220022",
    "prefectureCode": "25",
    "prefectureNumber": 25,
    "prefecture": "滋賀県",
    "city": "彦根市",
    "town": "里根町"
  },
  "5220023": {
    "zipcode": "5220023",
    "prefectureCode": "25",
    "prefectureNumber": 25,
    "prefecture": "滋賀県",
    "city": "彦根市",
    "town": "原町"
  },
  "5220024": {
    "zipcode": "5220024",
    "prefectureCode": "25",
    "prefectureNumber": 25,
    "prefecture": "滋賀県",
    "city": "彦根市",
    "town": "正法寺町"
  },
  "5220025": {
    "zipcode": "5220025",
    "prefectureCode": "25",
    "prefectureNumber": 25,
    "prefecture": "滋賀県",
    "city": "彦根市",
    "town": "野田山町"
  },
  "5220026": {
    "zipcode": "5220026",
    "prefectureCode": "25",
    "prefectureNumber": 25,
    "prefecture": "滋賀県",
    "city": "彦根市",
    "town": "大堀町"
  },
  "5220027": {
    "zipcode": "5220027",
    "prefectureCode": "25",
    "prefectureNumber": 25,
    "prefecture": "滋賀県",
    "city": "彦根市",
    "town": "東沼波町"
  },
  "5220029": {
    "zipcode": "5220029",
    "prefectureCode": "25",
    "prefectureNumber": 25,
    "prefecture": "滋賀県",
    "city": "彦根市",
    "town": "地蔵町"
  },
  "5220031": {
    "zipcode": "5220031",
    "prefectureCode": "25",
    "prefectureNumber": 25,
    "prefecture": "滋賀県",
    "city": "彦根市",
    "town": "芹中町"
  },
  "5220032": {
    "zipcode": "5220032",
    "prefectureCode": "25",
    "prefectureNumber": 25,
    "prefecture": "滋賀県",
    "city": "彦根市",
    "town": "芹町"
  },
  "5220033": {
    "zipcode": "5220033",
    "prefectureCode": "25",
    "prefectureNumber": 25,
    "prefecture": "滋賀県",
    "city": "彦根市",
    "town": "芹川町"
  },
  "5220034": {
    "zipcode": "5220034",
    "prefectureCode": "25",
    "prefectureNumber": 25,
    "prefecture": "滋賀県",
    "city": "彦根市",
    "town": "大橋町"
  },
  "5220035": {
    "zipcode": "5220035",
    "prefectureCode": "25",
    "prefectureNumber": 25,
    "prefecture": "滋賀県",
    "city": "彦根市",
    "town": "元岡町"
  },
  "5220036": {
    "zipcode": "5220036",
    "prefectureCode": "25",
    "prefectureNumber": 25,
    "prefecture": "滋賀県",
    "city": "彦根市",
    "town": "沼波町"
  },
  "5220037": {
    "zipcode": "5220037",
    "prefectureCode": "25",
    "prefectureNumber": 25,
    "prefecture": "滋賀県",
    "city": "彦根市",
    "town": "岡町"
  },
  "5220038": {
    "zipcode": "5220038",
    "prefectureCode": "25",
    "prefectureNumber": 25,
    "prefecture": "滋賀県",
    "city": "彦根市",
    "town": "山之脇町"
  },
  "5220039": {
    "zipcode": "5220039",
    "prefectureCode": "25",
    "prefectureNumber": 25,
    "prefecture": "滋賀県",
    "city": "彦根市",
    "town": "和田町"
  },
  "5220041": {
    "zipcode": "5220041",
    "prefectureCode": "25",
    "prefectureNumber": 25,
    "prefecture": "滋賀県",
    "city": "彦根市",
    "town": "平田町"
  },
  "5220042": {
    "zipcode": "5220042",
    "prefectureCode": "25",
    "prefectureNumber": 25,
    "prefecture": "滋賀県",
    "city": "彦根市",
    "town": "戸賀町"
  },
  "5220043": {
    "zipcode": "5220043",
    "prefectureCode": "25",
    "prefectureNumber": 25,
    "prefecture": "滋賀県",
    "city": "彦根市",
    "town": "小泉町"
  },
  "5220044": {
    "zipcode": "5220044",
    "prefectureCode": "25",
    "prefectureNumber": 25,
    "prefecture": "滋賀県",
    "city": "彦根市",
    "town": "竹ケ鼻町"
  },
  "5220045": {
    "zipcode": "5220045",
    "prefectureCode": "25",
    "prefectureNumber": 25,
    "prefecture": "滋賀県",
    "city": "彦根市",
    "town": "宇尾町（その他）"
  },
  "5220046": {
    "zipcode": "5220046",
    "prefectureCode": "25",
    "prefectureNumber": 25,
    "prefecture": "滋賀県",
    "city": "彦根市",
    "town": "甘呂町"
  },
  "5220047": {
    "zipcode": "5220047",
    "prefectureCode": "25",
    "prefectureNumber": 25,
    "prefecture": "滋賀県",
    "city": "彦根市",
    "town": "日夏町"
  },
  "5220051": {
    "zipcode": "5220051",
    "prefectureCode": "25",
    "prefectureNumber": 25,
    "prefecture": "滋賀県",
    "city": "彦根市",
    "town": "中藪町"
  },
  "5220052": {
    "zipcode": "5220052",
    "prefectureCode": "25",
    "prefectureNumber": 25,
    "prefecture": "滋賀県",
    "city": "彦根市",
    "town": "長曽根南町"
  },
  "5220053": {
    "zipcode": "5220053",
    "prefectureCode": "25",
    "prefectureNumber": 25,
    "prefecture": "滋賀県",
    "city": "彦根市",
    "town": "大藪町"
  },
  "5220054": {
    "zipcode": "5220054",
    "prefectureCode": "25",
    "prefectureNumber": 25,
    "prefecture": "滋賀県",
    "city": "彦根市",
    "town": "西今町"
  },
  "5220055": {
    "zipcode": "5220055",
    "prefectureCode": "25",
    "prefectureNumber": 25,
    "prefecture": "滋賀県",
    "city": "彦根市",
    "town": "野瀬町"
  },
  "5220056": {
    "zipcode": "5220056",
    "prefectureCode": "25",
    "prefectureNumber": 25,
    "prefecture": "滋賀県",
    "city": "彦根市",
    "town": "開出今町"
  },
  "5220057": {
    "zipcode": "5220057",
    "prefectureCode": "25",
    "prefectureNumber": 25,
    "prefecture": "滋賀県",
    "city": "彦根市",
    "town": "八坂町"
  },
  "5220058": {
    "zipcode": "5220058",
    "prefectureCode": "25",
    "prefectureNumber": 25,
    "prefecture": "滋賀県",
    "city": "彦根市",
    "town": "須越町"
  },
  "5220059": {
    "zipcode": "5220059",
    "prefectureCode": "25",
    "prefectureNumber": 25,
    "prefecture": "滋賀県",
    "city": "彦根市",
    "town": "三津屋町"
  },
  "5220061": {
    "zipcode": "5220061",
    "prefectureCode": "25",
    "prefectureNumber": 25,
    "prefecture": "滋賀県",
    "city": "彦根市",
    "town": "金亀町"
  },
  "5220062": {
    "zipcode": "5220062",
    "prefectureCode": "25",
    "prefectureNumber": 25,
    "prefecture": "滋賀県",
    "city": "彦根市",
    "town": "立花町"
  },
  "5220063": {
    "zipcode": "5220063",
    "prefectureCode": "25",
    "prefectureNumber": 25,
    "prefecture": "滋賀県",
    "city": "彦根市",
    "town": "中央町"
  },
  "5220064": {
    "zipcode": "5220064",
    "prefectureCode": "25",
    "prefectureNumber": 25,
    "prefecture": "滋賀県",
    "city": "彦根市",
    "town": "本町"
  },
  "5220065": {
    "zipcode": "5220065",
    "prefectureCode": "25",
    "prefectureNumber": 25,
    "prefecture": "滋賀県",
    "city": "彦根市",
    "town": "池州町"
  },
  "5220066": {
    "zipcode": "5220066",
    "prefectureCode": "25",
    "prefectureNumber": 25,
    "prefecture": "滋賀県",
    "city": "彦根市",
    "town": "栄町"
  },
  "5220067": {
    "zipcode": "5220067",
    "prefectureCode": "25",
    "prefectureNumber": 25,
    "prefecture": "滋賀県",
    "city": "彦根市",
    "town": "長曽根町"
  },
  "5220068": {
    "zipcode": "5220068",
    "prefectureCode": "25",
    "prefectureNumber": 25,
    "prefecture": "滋賀県",
    "city": "彦根市",
    "town": "城町"
  },
  "5220069": {
    "zipcode": "5220069",
    "prefectureCode": "25",
    "prefectureNumber": 25,
    "prefecture": "滋賀県",
    "city": "彦根市",
    "town": "馬場"
  },
  "5220071": {
    "zipcode": "5220071",
    "prefectureCode": "25",
    "prefectureNumber": 25,
    "prefecture": "滋賀県",
    "city": "彦根市",
    "town": "元町"
  },
  "5220072": {
    "zipcode": "5220072",
    "prefectureCode": "25",
    "prefectureNumber": 25,
    "prefecture": "滋賀県",
    "city": "彦根市",
    "town": "船町"
  },
  "5220073": {
    "zipcode": "5220073",
    "prefectureCode": "25",
    "prefectureNumber": 25,
    "prefecture": "滋賀県",
    "city": "彦根市",
    "town": "旭町"
  },
  "5220074": {
    "zipcode": "5220074",
    "prefectureCode": "25",
    "prefectureNumber": 25,
    "prefecture": "滋賀県",
    "city": "彦根市",
    "town": "大東町"
  },
  "5220075": {
    "zipcode": "5220075",
    "prefectureCode": "25",
    "prefectureNumber": 25,
    "prefecture": "滋賀県",
    "city": "彦根市",
    "town": "佐和町"
  },
  "5220081": {
    "zipcode": "5220081",
    "prefectureCode": "25",
    "prefectureNumber": 25,
    "prefecture": "滋賀県",
    "city": "彦根市",
    "town": "京町"
  },
  "5220082": {
    "zipcode": "5220082",
    "prefectureCode": "25",
    "prefectureNumber": 25,
    "prefecture": "滋賀県",
    "city": "彦根市",
    "town": "安清町"
  },
  "5220083": {
    "zipcode": "5220083",
    "prefectureCode": "25",
    "prefectureNumber": 25,
    "prefecture": "滋賀県",
    "city": "彦根市",
    "town": "河原"
  },
  "5220084": {
    "zipcode": "5220084",
    "prefectureCode": "25",
    "prefectureNumber": 25,
    "prefecture": "滋賀県",
    "city": "彦根市",
    "town": "橋向町"
  },
  "5220085": {
    "zipcode": "5220085",
    "prefectureCode": "25",
    "prefectureNumber": 25,
    "prefecture": "滋賀県",
    "city": "彦根市",
    "town": "新町"
  },
  "5220086": {
    "zipcode": "5220086",
    "prefectureCode": "25",
    "prefectureNumber": 25,
    "prefecture": "滋賀県",
    "city": "彦根市",
    "town": "後三条町"
  },
  "5220087": {
    "zipcode": "5220087",
    "prefectureCode": "25",
    "prefectureNumber": 25,
    "prefecture": "滋賀県",
    "city": "彦根市",
    "town": "芹橋"
  },
  "5220088": {
    "zipcode": "5220088",
    "prefectureCode": "25",
    "prefectureNumber": 25,
    "prefecture": "滋賀県",
    "city": "彦根市",
    "town": "銀座町"
  },
  "5220089": {
    "zipcode": "5220089",
    "prefectureCode": "25",
    "prefectureNumber": 25,
    "prefecture": "滋賀県",
    "city": "彦根市",
    "town": "錦町"
  },
  "5220200": {
    "zipcode": "5220200",
    "prefectureCode": "25",
    "prefectureNumber": 25,
    "prefecture": "滋賀県",
    "city": "犬上郡甲良町",
    "town": "以下に掲載がない場合"
  },
  "5220201": {
    "zipcode": "5220201",
    "prefectureCode": "25",
    "prefectureNumber": 25,
    "prefecture": "滋賀県",
    "city": "彦根市",
    "town": "高宮町"
  },
  "5220211": {
    "zipcode": "5220211",
    "prefectureCode": "25",
    "prefectureNumber": 25,
    "prefecture": "滋賀県",
    "city": "彦根市",
    "town": "法士町"
  },
  "5220212": {
    "zipcode": "5220212",
    "prefectureCode": "25",
    "prefectureNumber": 25,
    "prefecture": "滋賀県",
    "city": "彦根市",
    "town": "葛籠町"
  },
  "5220213": {
    "zipcode": "5220213",
    "prefectureCode": "25",
    "prefectureNumber": 25,
    "prefecture": "滋賀県",
    "city": "彦根市",
    "town": "西葛籠町"
  },
  "5220214": {
    "zipcode": "5220214",
    "prefectureCode": "25",
    "prefectureNumber": 25,
    "prefecture": "滋賀県",
    "city": "彦根市",
    "town": "出町"
  },
  "5220221": {
    "zipcode": "5220221",
    "prefectureCode": "25",
    "prefectureNumber": 25,
    "prefecture": "滋賀県",
    "city": "彦根市",
    "town": "野口町"
  },
  "5220222": {
    "zipcode": "5220222",
    "prefectureCode": "25",
    "prefectureNumber": 25,
    "prefecture": "滋賀県",
    "city": "彦根市",
    "town": "南川瀬町"
  },
  "5220223": {
    "zipcode": "5220223",
    "prefectureCode": "25",
    "prefectureNumber": 25,
    "prefecture": "滋賀県",
    "city": "彦根市",
    "town": "川瀬馬場町"
  },
  "5220231": {
    "zipcode": "5220231",
    "prefectureCode": "25",
    "prefectureNumber": 25,
    "prefecture": "滋賀県",
    "city": "彦根市",
    "town": "極楽寺町"
  },
  "5220232": {
    "zipcode": "5220232",
    "prefectureCode": "25",
    "prefectureNumber": 25,
    "prefecture": "滋賀県",
    "city": "彦根市",
    "town": "蓮台寺町"
  },
  "5220233": {
    "zipcode": "5220233",
    "prefectureCode": "25",
    "prefectureNumber": 25,
    "prefecture": "滋賀県",
    "city": "彦根市",
    "town": "辻堂町"
  },
  "5220234": {
    "zipcode": "5220234",
    "prefectureCode": "25",
    "prefectureNumber": 25,
    "prefecture": "滋賀県",
    "city": "彦根市",
    "town": "森堂町"
  },
  "5220235": {
    "zipcode": "5220235",
    "prefectureCode": "25",
    "prefectureNumber": 25,
    "prefecture": "滋賀県",
    "city": "彦根市",
    "town": "金剛寺町"
  },
  "5220236": {
    "zipcode": "5220236",
    "prefectureCode": "25",
    "prefectureNumber": 25,
    "prefecture": "滋賀県",
    "city": "彦根市",
    "town": "犬方町"
  },
  "5220237": {
    "zipcode": "5220237",
    "prefectureCode": "25",
    "prefectureNumber": 25,
    "prefecture": "滋賀県",
    "city": "彦根市",
    "town": "堀町"
  },
  "5220238": {
    "zipcode": "5220238",
    "prefectureCode": "25",
    "prefectureNumber": 25,
    "prefecture": "滋賀県",
    "city": "彦根市",
    "town": "広野町"
  },
  "5220239": {
    "zipcode": "5220239",
    "prefectureCode": "25",
    "prefectureNumber": 25,
    "prefecture": "滋賀県",
    "city": "彦根市",
    "town": "宇尾町（８９７番地及び中島５０５〜５１８番地）"
  },
  "5220241": {
    "zipcode": "5220241",
    "prefectureCode": "25",
    "prefectureNumber": 25,
    "prefecture": "滋賀県",
    "city": "犬上郡甲良町",
    "town": "呉竹"
  },
  "5220242": {
    "zipcode": "5220242",
    "prefectureCode": "25",
    "prefectureNumber": 25,
    "prefecture": "滋賀県",
    "city": "犬上郡甲良町",
    "town": "尼子"
  },
  "5220243": {
    "zipcode": "5220243",
    "prefectureCode": "25",
    "prefectureNumber": 25,
    "prefecture": "滋賀県",
    "city": "犬上郡甲良町",
    "town": "小川原"
  },
  "5220244": {
    "zipcode": "5220244",
    "prefectureCode": "25",
    "prefectureNumber": 25,
    "prefecture": "滋賀県",
    "city": "犬上郡甲良町",
    "town": "在士"
  },
  "5220251": {
    "zipcode": "5220251",
    "prefectureCode": "25",
    "prefectureNumber": 25,
    "prefecture": "滋賀県",
    "city": "犬上郡甲良町",
    "town": "北落"
  },
  "5220252": {
    "zipcode": "5220252",
    "prefectureCode": "25",
    "prefectureNumber": 25,
    "prefecture": "滋賀県",
    "city": "犬上郡甲良町",
    "town": "金屋"
  },
  "5220253": {
    "zipcode": "5220253",
    "prefectureCode": "25",
    "prefectureNumber": 25,
    "prefecture": "滋賀県",
    "city": "犬上郡甲良町",
    "town": "正楽寺"
  },
  "5220254": {
    "zipcode": "5220254",
    "prefectureCode": "25",
    "prefectureNumber": 25,
    "prefecture": "滋賀県",
    "city": "犬上郡甲良町",
    "town": "池寺"
  },
  "5220261": {
    "zipcode": "5220261",
    "prefectureCode": "25",
    "prefectureNumber": 25,
    "prefecture": "滋賀県",
    "city": "犬上郡甲良町",
    "town": "長寺"
  },
  "5220262": {
    "zipcode": "5220262",
    "prefectureCode": "25",
    "prefectureNumber": 25,
    "prefecture": "滋賀県",
    "city": "犬上郡甲良町",
    "town": "横関"
  },
  "5220263": {
    "zipcode": "5220263",
    "prefectureCode": "25",
    "prefectureNumber": 25,
    "prefecture": "滋賀県",
    "city": "犬上郡甲良町",
    "town": "法養寺"
  },
  "5220271": {
    "zipcode": "5220271",
    "prefectureCode": "25",
    "prefectureNumber": 25,
    "prefecture": "滋賀県",
    "city": "犬上郡甲良町",
    "town": "下之郷"
  },
  "5220300": {
    "zipcode": "5220300",
    "prefectureCode": "25",
    "prefectureNumber": 25,
    "prefecture": "滋賀県",
    "city": "犬上郡多賀町",
    "town": "以下に掲載がない場合"
  },
  "5220301": {
    "zipcode": "5220301",
    "prefectureCode": "25",
    "prefectureNumber": 25,
    "prefecture": "滋賀県",
    "city": "犬上郡多賀町",
    "town": "河内"
  },
  "5220302": {
    "zipcode": "5220302",
    "prefectureCode": "25",
    "prefectureNumber": 25,
    "prefecture": "滋賀県",
    "city": "犬上郡多賀町",
    "town": "向之倉"
  },
  "5220303": {
    "zipcode": "5220303",
    "prefectureCode": "25",
    "prefectureNumber": 25,
    "prefecture": "滋賀県",
    "city": "犬上郡多賀町",
    "town": "屏風"
  },
  "5220304": {
    "zipcode": "5220304",
    "prefectureCode": "25",
    "prefectureNumber": 25,
    "prefecture": "滋賀県",
    "city": "犬上郡多賀町",
    "town": "後谷"
  },
  "5220305": {
    "zipcode": "5220305",
    "prefectureCode": "25",
    "prefectureNumber": 25,
    "prefecture": "滋賀県",
    "city": "犬上郡多賀町",
    "town": "甲頭倉"
  },
  "5220306": {
    "zipcode": "5220306",
    "prefectureCode": "25",
    "prefectureNumber": 25,
    "prefecture": "滋賀県",
    "city": "犬上郡多賀町",
    "town": "霊仙"
  },
  "5220311": {
    "zipcode": "5220311",
    "prefectureCode": "25",
    "prefectureNumber": 25,
    "prefecture": "滋賀県",
    "city": "犬上郡多賀町",
    "town": "五僧"
  },
  "5220312": {
    "zipcode": "5220312",
    "prefectureCode": "25",
    "prefectureNumber": 25,
    "prefecture": "滋賀県",
    "city": "犬上郡多賀町",
    "town": "保月"
  },
  "5220313": {
    "zipcode": "5220313",
    "prefectureCode": "25",
    "prefectureNumber": 25,
    "prefecture": "滋賀県",
    "city": "犬上郡多賀町",
    "town": "杉"
  },
  "5220314": {
    "zipcode": "5220314",
    "prefectureCode": "25",
    "prefectureNumber": 25,
    "prefecture": "滋賀県",
    "city": "犬上郡多賀町",
    "town": "四手"
  },
  "5220315": {
    "zipcode": "5220315",
    "prefectureCode": "25",
    "prefectureNumber": 25,
    "prefecture": "滋賀県",
    "city": "犬上郡多賀町",
    "town": "大岡"
  },
  "5220316": {
    "zipcode": "5220316",
    "prefectureCode": "25",
    "prefectureNumber": 25,
    "prefecture": "滋賀県",
    "city": "犬上郡多賀町",
    "town": "栗栖"
  },
  "5220317": {
    "zipcode": "5220317",
    "prefectureCode": "25",
    "prefectureNumber": 25,
    "prefecture": "滋賀県",
    "city": "犬上郡多賀町",
    "town": "一円"
  },
  "5220318": {
    "zipcode": "5220318",
    "prefectureCode": "25",
    "prefectureNumber": 25,
    "prefecture": "滋賀県",
    "city": "犬上郡多賀町",
    "town": "水谷"
  },
  "5220319": {
    "zipcode": "5220319",
    "prefectureCode": "25",
    "prefectureNumber": 25,
    "prefecture": "滋賀県",
    "city": "犬上郡多賀町",
    "town": "桃原"
  },
  "5220321": {
    "zipcode": "5220321",
    "prefectureCode": "25",
    "prefectureNumber": 25,
    "prefecture": "滋賀県",
    "city": "犬上郡多賀町",
    "town": "大君ケ畑"
  },
  "5220322": {
    "zipcode": "5220322",
    "prefectureCode": "25",
    "prefectureNumber": 25,
    "prefecture": "滋賀県",
    "city": "犬上郡多賀町",
    "town": "佐目"
  },
  "5220323": {
    "zipcode": "5220323",
    "prefectureCode": "25",
    "prefectureNumber": 25,
    "prefecture": "滋賀県",
    "city": "犬上郡多賀町",
    "town": "一ノ瀬"
  },
  "5220324": {
    "zipcode": "5220324",
    "prefectureCode": "25",
    "prefectureNumber": 25,
    "prefecture": "滋賀県",
    "city": "犬上郡多賀町",
    "town": "川相"
  },
  "5220325": {
    "zipcode": "5220325",
    "prefectureCode": "25",
    "prefectureNumber": 25,
    "prefecture": "滋賀県",
    "city": "犬上郡多賀町",
    "town": "小原"
  },
  "5220326": {
    "zipcode": "5220326",
    "prefectureCode": "25",
    "prefectureNumber": 25,
    "prefecture": "滋賀県",
    "city": "犬上郡多賀町",
    "town": "霜ケ原"
  },
  "5220327": {
    "zipcode": "5220327",
    "prefectureCode": "25",
    "prefectureNumber": 25,
    "prefecture": "滋賀県",
    "city": "犬上郡多賀町",
    "town": "南後谷"
  },
  "5220331": {
    "zipcode": "5220331",
    "prefectureCode": "25",
    "prefectureNumber": 25,
    "prefecture": "滋賀県",
    "city": "犬上郡多賀町",
    "town": "大杉"
  },
  "5220332": {
    "zipcode": "5220332",
    "prefectureCode": "25",
    "prefectureNumber": 25,
    "prefecture": "滋賀県",
    "city": "犬上郡多賀町",
    "town": "樋田"
  },
  "5220333": {
    "zipcode": "5220333",
    "prefectureCode": "25",
    "prefectureNumber": 25,
    "prefecture": "滋賀県",
    "city": "犬上郡多賀町",
    "town": "萱原"
  },
  "5220334": {
    "zipcode": "5220334",
    "prefectureCode": "25",
    "prefectureNumber": 25,
    "prefecture": "滋賀県",
    "city": "犬上郡多賀町",
    "town": "仏ケ後"
  },
  "5220335": {
    "zipcode": "5220335",
    "prefectureCode": "25",
    "prefectureNumber": 25,
    "prefecture": "滋賀県",
    "city": "犬上郡多賀町",
    "town": "藤瀬"
  },
  "5220336": {
    "zipcode": "5220336",
    "prefectureCode": "25",
    "prefectureNumber": 25,
    "prefecture": "滋賀県",
    "city": "犬上郡多賀町",
    "town": "楢崎"
  },
  "5220337": {
    "zipcode": "5220337",
    "prefectureCode": "25",
    "prefectureNumber": 25,
    "prefecture": "滋賀県",
    "city": "犬上郡多賀町",
    "town": "富之尾"
  },
  "5220338": {
    "zipcode": "5220338",
    "prefectureCode": "25",
    "prefectureNumber": 25,
    "prefecture": "滋賀県",
    "city": "犬上郡多賀町",
    "town": "壺"
  },
  "5220341": {
    "zipcode": "5220341",
    "prefectureCode": "25",
    "prefectureNumber": 25,
    "prefecture": "滋賀県",
    "city": "犬上郡多賀町",
    "town": "多賀"
  },
  "5220342": {
    "zipcode": "5220342",
    "prefectureCode": "25",
    "prefectureNumber": 25,
    "prefecture": "滋賀県",
    "city": "犬上郡多賀町",
    "town": "敏満寺"
  },
  "5220343": {
    "zipcode": "5220343",
    "prefectureCode": "25",
    "prefectureNumber": 25,
    "prefecture": "滋賀県",
    "city": "犬上郡多賀町",
    "town": "猿木"
  },
  "5220351": {
    "zipcode": "5220351",
    "prefectureCode": "25",
    "prefectureNumber": 25,
    "prefecture": "滋賀県",
    "city": "犬上郡多賀町",
    "town": "八重練"
  },
  "5220352": {
    "zipcode": "5220352",
    "prefectureCode": "25",
    "prefectureNumber": 25,
    "prefecture": "滋賀県",
    "city": "犬上郡多賀町",
    "town": "久徳"
  },
  "5220353": {
    "zipcode": "5220353",
    "prefectureCode": "25",
    "prefectureNumber": 25,
    "prefecture": "滋賀県",
    "city": "犬上郡多賀町",
    "town": "月之木"
  },
  "5220354": {
    "zipcode": "5220354",
    "prefectureCode": "25",
    "prefectureNumber": 25,
    "prefecture": "滋賀県",
    "city": "犬上郡多賀町",
    "town": "土田"
  },
  "5220355": {
    "zipcode": "5220355",
    "prefectureCode": "25",
    "prefectureNumber": 25,
    "prefecture": "滋賀県",
    "city": "犬上郡多賀町",
    "town": "中川原"
  },
  "5220356": {
    "zipcode": "5220356",
    "prefectureCode": "25",
    "prefectureNumber": 25,
    "prefecture": "滋賀県",
    "city": "犬上郡多賀町",
    "town": "木曽"
  }
}
