{
  "5230000": {
    "zipcode": "5230000",
    "prefectureCode": "25",
    "prefectureNumber": 25,
    "prefecture": "滋賀県",
    "city": "近江八幡市",
    "town": "以下に掲載がない場合"
  },
  "5230001": {
    "zipcode": "5230001",
    "prefectureCode": "25",
    "prefectureNumber": 25,
    "prefecture": "滋賀県",
    "city": "近江八幡市",
    "town": "金剛寺町"
  },
  "5230002": {
    "zipcode": "5230002",
    "prefectureCode": "25",
    "prefectureNumber": 25,
    "prefecture": "滋賀県",
    "city": "近江八幡市",
    "town": "野田町"
  },
  "5230003": {
    "zipcode": "5230003",
    "prefectureCode": "25",
    "prefectureNumber": 25,
    "prefecture": "滋賀県",
    "city": "近江八幡市",
    "town": "御所内町"
  },
  "5230004": {
    "zipcode": "5230004",
    "prefectureCode": "25",
    "prefectureNumber": 25,
    "prefecture": "滋賀県",
    "city": "近江八幡市",
    "town": "西生来町"
  },
  "5230005": {
    "zipcode": "5230005",
    "prefectureCode": "25",
    "prefectureNumber": 25,
    "prefecture": "滋賀県",
    "city": "近江八幡市",
    "town": "末広町"
  },
  "5230011": {
    "zipcode": "5230011",
    "prefectureCode": "25",
    "prefectureNumber": 25,
    "prefecture": "滋賀県",
    "city": "近江八幡市",
    "town": "友定町"
  },
  "5230012": {
    "zipcode": "5230012",
    "prefectureCode": "25",
    "prefectureNumber": 25,
    "prefecture": "滋賀県",
    "city": "近江八幡市",
    "town": "武佐町"
  },
  "5230013": {
    "zipcode": "5230013",
    "prefectureCode": "25",
    "prefectureNumber": 25,
    "prefecture": "滋賀県",
    "city": "近江八幡市",
    "town": "長光寺町"
  },
  "5230014": {
    "zipcode": "5230014",
    "prefectureCode": "25",
    "prefectureNumber": 25,
    "prefecture": "滋賀県",
    "city": "近江八幡市",
    "town": "西宿町"
  },
  "5230015": {
    "zipcode": "5230015",
    "prefectureCode": "25",
    "prefectureNumber": 25,
    "prefecture": "滋賀県",
    "city": "近江八幡市",
    "town": "上田町"
  },
  "5230016": {
    "zipcode": "5230016",
    "prefectureCode": "25",
    "prefectureNumber": 25,
    "prefecture": "滋賀県",
    "city": "近江八幡市",
    "town": "千僧供町"
  },
  "5230021": {
    "zipcode": "5230021",
    "prefectureCode": "25",
    "prefectureNumber": 25,
    "prefecture": "滋賀県",
    "city": "近江八幡市",
    "town": "長福寺町"
  },
  "5230022": {
    "zipcode": "5230022",
    "prefectureCode": "25",
    "prefectureNumber": 25,
    "prefecture": "滋賀県",
    "city": "近江八幡市",
    "town": "馬淵町"
  },
  "5230023": {
    "zipcode": "5230023",
    "prefectureCode": "25",
    "prefectureNumber": 25,
    "prefecture": "滋賀県",
    "city": "近江八幡市",
    "town": "倉橋部町"
  },
  "5230024": {
    "zipcode": "5230024",
    "prefectureCode": "25",
    "prefectureNumber": 25,
    "prefecture": "滋賀県",
    "city": "近江八幡市",
    "town": "浄土寺町"
  },
  "5230025": {
    "zipcode": "5230025",
    "prefectureCode": "25",
    "prefectureNumber": 25,
    "prefecture": "滋賀県",
    "city": "近江八幡市",
    "town": "新巻町"
  },
  "5230026": {
    "zipcode": "5230026",
    "prefectureCode": "25",
    "prefectureNumber": 25,
    "prefecture": "滋賀県",
    "city": "近江八幡市",
    "town": "上畑町"
  },
  "5230027": {
    "zipcode": "5230027",
    "prefectureCode": "25",
    "prefectureNumber": 25,
    "prefecture": "滋賀県",
    "city": "近江八幡市",
    "town": "東川町"
  },
  "5230031": {
    "zipcode": "5230031",
    "prefectureCode": "25",
    "prefectureNumber": 25,
    "prefecture": "滋賀県",
    "city": "近江八幡市",
    "town": "堀上町"
  },
  "5230032": {
    "zipcode": "5230032",
    "prefectureCode": "25",
    "prefectureNumber": 25,
    "prefecture": "滋賀県",
    "city": "近江八幡市",
    "town": "白鳥町"
  },
  "5230033": {
    "zipcode": "5230033",
    "prefectureCode": "25",
    "prefectureNumber": 25,
    "prefecture": "滋賀県",
    "city": "近江八幡市",
    "town": "日吉野町"
  },
  "5230034": {
    "zipcode": "5230034",
    "prefectureCode": "25",
    "prefectureNumber": 25,
    "prefecture": "滋賀県",
    "city": "近江八幡市",
    "town": "若宮町"
  },
  "5230035": {
    "zipcode": "5230035",
    "prefectureCode": "25",
    "prefectureNumber": 25,
    "prefecture": "滋賀県",
    "city": "近江八幡市",
    "town": "東横関町"
  },
  "5230036": {
    "zipcode": "5230036",
    "prefectureCode": "25",
    "prefectureNumber": 25,
    "prefecture": "滋賀県",
    "city": "近江八幡市",
    "town": "竹町"
  },
  "5230037": {
    "zipcode": "5230037",
    "prefectureCode": "25",
    "prefectureNumber": 25,
    "prefecture": "滋賀県",
    "city": "近江八幡市",
    "town": "東町"
  },
  "5230041": {
    "zipcode": "5230041",
    "prefectureCode": "25",
    "prefectureNumber": 25,
    "prefecture": "滋賀県",
    "city": "近江八幡市",
    "town": "中小森町"
  },
  "5230042": {
    "zipcode": "5230042",
    "prefectureCode": "25",
    "prefectureNumber": 25,
    "prefecture": "滋賀県",
    "city": "近江八幡市",
    "town": "大森町"
  },
  "5230043": {
    "zipcode": "5230043",
    "prefectureCode": "25",
    "prefectureNumber": 25,
    "prefecture": "滋賀県",
    "city": "近江八幡市",
    "town": "池田本町"
  },
  "5230044": {
    "zipcode": "5230044",
    "prefectureCode": "25",
    "prefectureNumber": 25,
    "prefecture": "滋賀県",
    "city": "近江八幡市",
    "town": "篠原町"
  },
  "5230045": {
    "zipcode": "5230045",
    "prefectureCode": "25",
    "prefectureNumber": 25,
    "prefecture": "滋賀県",
    "city": "近江八幡市",
    "town": "安養寺町"
  },
  "5230046": {
    "zipcode": "5230046",
    "prefectureCode": "25",
    "prefectureNumber": 25,
    "prefecture": "滋賀県",
    "city": "近江八幡市",
    "town": "上野町"
  },
  "5230047": {
    "zipcode": "5230047",
    "prefectureCode": "25",
    "prefectureNumber": 25,
    "prefecture": "滋賀県",
    "city": "近江八幡市",
    "town": "川原町"
  },
  "5230048": {
    "zipcode": "5230048",
    "prefectureCode": "25",
    "prefectureNumber": 25,
    "prefecture": "滋賀県",
    "city": "近江八幡市",
    "town": "緑町"
  },
  "5230051": {
    "zipcode": "5230051",
    "prefectureCode": "25",
    "prefectureNumber": 25,
    "prefecture": "滋賀県",
    "city": "近江八幡市",
    "town": "八木町"
  },
  "5230052": {
    "zipcode": "5230052",
    "prefectureCode": "25",
    "prefectureNumber": 25,
    "prefecture": "滋賀県",
    "city": "近江八幡市",
    "town": "赤尾町"
  },
  "5230053": {
    "zipcode": "5230053",
    "prefectureCode": "25",
    "prefectureNumber": 25,
    "prefecture": "滋賀県",
    "city": "近江八幡市",
    "town": "益田町"
  },
  "5230054": {
    "zipcode": "5230054",
    "prefectureCode": "25",
    "prefectureNumber": 25,
    "prefecture": "滋賀県",
    "city": "近江八幡市",
    "town": "森尻町"
  },
  "5230055": {
    "zipcode": "5230055",
    "prefectureCode": "25",
    "prefectureNumber": 25,
    "prefecture": "滋賀県",
    "city": "近江八幡市",
    "town": "柳町"
  },
  "5230056": {
    "zipcode": "5230056",
    "prefectureCode": "25",
    "prefectureNumber": 25,
    "prefecture": "滋賀県",
    "city": "近江八幡市",
    "town": "古川町"
  },
  "5230057": {
    "zipcode": "5230057",
    "prefectureCode": "25",
    "prefectureNumber": 25,
    "prefecture": "滋賀県",
    "city": "近江八幡市",
    "town": "田中江町"
  },
  "5230058": {
    "zipcode": "5230058",
    "prefectureCode": "25",
    "prefectureNumber": 25,
    "prefecture": "滋賀県",
    "city": "近江八幡市",
    "town": "加茂町"
  },
  "5230061": {
    "zipcode": "5230061",
    "prefectureCode": "25",
    "prefectureNumber": 25,
    "prefecture": "滋賀県",
    "city": "近江八幡市",
    "town": "江頭町"
  },
  "5230062": {
    "zipcode": "5230062",
    "prefectureCode": "25",
    "prefectureNumber": 25,
    "prefecture": "滋賀県",
    "city": "近江八幡市",
    "town": "丸の内町"
  },
  "5230063": {
    "zipcode": "5230063",
    "prefectureCode": "25",
    "prefectureNumber": 25,
    "prefecture": "滋賀県",
    "city": "近江八幡市",
    "town": "十王町"
  },
  "5230064": {
    "zipcode": "5230064",
    "prefectureCode": "25",
    "prefectureNumber": 25,
    "prefecture": "滋賀県",
    "city": "近江八幡市",
    "town": "小田町"
  },
  "5230071": {
    "zipcode": "5230071",
    "prefectureCode": "25",
    "prefectureNumber": 25,
    "prefecture": "滋賀県",
    "city": "近江八幡市",
    "town": "大房町"
  },
  "5230072": {
    "zipcode": "5230072",
    "prefectureCode": "25",
    "prefectureNumber": 25,
    "prefecture": "滋賀県",
    "city": "近江八幡市",
    "town": "牧町"
  },
  "5230073": {
    "zipcode": "5230073",
    "prefectureCode": "25",
    "prefectureNumber": 25,
    "prefecture": "滋賀県",
    "city": "近江八幡市",
    "town": "元水茎町"
  },
  "5230074": {
    "zipcode": "5230074",
    "prefectureCode": "25",
    "prefectureNumber": 25,
    "prefecture": "滋賀県",
    "city": "近江八幡市",
    "town": "水茎町"
  },
  "5230075": {
    "zipcode": "5230075",
    "prefectureCode": "25",
    "prefectureNumber": 25,
    "prefecture": "滋賀県",
    "city": "近江八幡市",
    "town": "野村町"
  },
  "5230076": {
    "zipcode": "5230076",
    "prefectureCode": "25",
    "prefectureNumber": 25,
    "prefecture": "滋賀県",
    "city": "近江八幡市",
    "town": "佐波江町"
  },
  "5230081": {
    "zipcode": "5230081",
    "prefectureCode": "25",
    "prefectureNumber": 25,
    "prefecture": "滋賀県",
    "city": "近江八幡市",
    "town": "新栄町"
  },
  "5230082": {
    "zipcode": "5230082",
    "prefectureCode": "25",
    "prefectureNumber": 25,
    "prefecture": "滋賀県",
    "city": "近江八幡市",
    "town": "土田町"
  },
  "5230083": {
    "zipcode": "5230083",
    "prefectureCode": "25",
    "prefectureNumber": 25,
    "prefecture": "滋賀県",
    "city": "近江八幡市",
    "town": "小船木町"
  },
  "5230084": {
    "zipcode": "5230084",
    "prefectureCode": "25",
    "prefectureNumber": 25,
    "prefecture": "滋賀県",
    "city": "近江八幡市",
    "town": "船木町"
  },
  "5230085": {
    "zipcode": "5230085",
    "prefectureCode": "25",
    "prefectureNumber": 25,
    "prefecture": "滋賀県",
    "city": "近江八幡市",
    "town": "南津田町"
  },
  "5230086": {
    "zipcode": "5230086",
    "prefectureCode": "25",
    "prefectureNumber": 25,
    "prefecture": "滋賀県",
    "city": "近江八幡市",
    "town": "津田町"
  },
  "5230087": {
    "zipcode": "5230087",
    "prefectureCode": "25",
    "prefectureNumber": 25,
    "prefecture": "滋賀県",
    "city": "近江八幡市",
    "town": "北津田町"
  },
  "5230801": {
    "zipcode": "5230801",
    "prefectureCode": "25",
    "prefectureNumber": 25,
    "prefecture": "滋賀県",
    "city": "近江八幡市",
    "town": "沖島町"
  },
  "5230802": {
    "zipcode": "5230802",
    "prefectureCode": "25",
    "prefectureNumber": 25,
    "prefecture": "滋賀県",
    "city": "近江八幡市",
    "town": "大中町"
  },
  "5230803": {
    "zipcode": "5230803",
    "prefectureCode": "25",
    "prefectureNumber": 25,
    "prefecture": "滋賀県",
    "city": "近江八幡市",
    "town": "白王町"
  },
  "5230804": {
    "zipcode": "5230804",
    "prefectureCode": "25",
    "prefectureNumber": 25,
    "prefecture": "滋賀県",
    "city": "近江八幡市",
    "town": "島町"
  },
  "5230805": {
    "zipcode": "5230805",
    "prefectureCode": "25",
    "prefectureNumber": 25,
    "prefecture": "滋賀県",
    "city": "近江八幡市",
    "town": "円山町"
  },
  "5230806": {
    "zipcode": "5230806",
    "prefectureCode": "25",
    "prefectureNumber": 25,
    "prefecture": "滋賀県",
    "city": "近江八幡市",
    "town": "北之庄町"
  },
  "5230807": {
    "zipcode": "5230807",
    "prefectureCode": "25",
    "prefectureNumber": 25,
    "prefecture": "滋賀県",
    "city": "近江八幡市",
    "town": "中之庄町"
  },
  "5230808": {
    "zipcode": "5230808",
    "prefectureCode": "25",
    "prefectureNumber": 25,
    "prefecture": "滋賀県",
    "city": "近江八幡市",
    "town": "長命寺町"
  },
  "5230811": {
    "zipcode": "5230811",
    "prefectureCode": "25",
    "prefectureNumber": 25,
    "prefecture": "滋賀県",
    "city": "近江八幡市",
    "town": "長田町"
  },
  "5230812": {
    "zipcode": "5230812",
    "prefectureCode": "25",
    "prefectureNumber": 25,
    "prefecture": "滋賀県",
    "city": "近江八幡市",
    "town": "杉森町"
  },
  "5230813": {
    "zipcode": "5230813",
    "prefectureCode": "25",
    "prefectureNumber": 25,
    "prefecture": "滋賀県",
    "city": "近江八幡市",
    "town": "西本郷町"
  },
  "5230814": {
    "zipcode": "5230814",
    "prefectureCode": "25",
    "prefectureNumber": 25,
    "prefecture": "滋賀県",
    "city": "近江八幡市",
    "town": "南本郷町"
  },
  "5230815": {
    "zipcode": "5230815",
    "prefectureCode": "25",
    "prefectureNumber": 25,
    "prefecture": "滋賀県",
    "city": "近江八幡市",
    "town": "若葉町"
  },
  "5230816": {
    "zipcode": "5230816",
    "prefectureCode": "25",
    "prefectureNumber": 25,
    "prefecture": "滋賀県",
    "city": "近江八幡市",
    "town": "西庄町"
  },
  "5230817": {
    "zipcode": "5230817",
    "prefectureCode": "25",
    "prefectureNumber": 25,
    "prefecture": "滋賀県",
    "city": "近江八幡市",
    "town": "浅小井町"
  },
  "5230818": {
    "zipcode": "5230818",
    "prefectureCode": "25",
    "prefectureNumber": 25,
    "prefecture": "滋賀県",
    "city": "近江八幡市",
    "town": "西本郷町東"
  },
  "5230819": {
    "zipcode": "5230819",
    "prefectureCode": "25",
    "prefectureNumber": 25,
    "prefecture": "滋賀県",
    "city": "近江八幡市",
    "town": "西本郷町西"
  },
  "5230821": {
    "zipcode": "5230821",
    "prefectureCode": "25",
    "prefectureNumber": 25,
    "prefecture": "滋賀県",
    "city": "近江八幡市",
    "town": "多賀町"
  },
  "5230822": {
    "zipcode": "5230822",
    "prefectureCode": "25",
    "prefectureNumber": 25,
    "prefecture": "滋賀県",
    "city": "近江八幡市",
    "town": "船町"
  },
  "5230823": {
    "zipcode": "5230823",
    "prefectureCode": "25",
    "prefectureNumber": 25,
    "prefecture": "滋賀県",
    "city": "近江八幡市",
    "town": "生須町"
  },
  "5230824": {
    "zipcode": "5230824",
    "prefectureCode": "25",
    "prefectureNumber": 25,
    "prefecture": "滋賀県",
    "city": "近江八幡市",
    "town": "大工町"
  },
  "5230825": {
    "zipcode": "5230825",
    "prefectureCode": "25",
    "prefectureNumber": 25,
    "prefecture": "滋賀県",
    "city": "近江八幡市",
    "town": "新左衛門町"
  },
  "5230826": {
    "zipcode": "5230826",
    "prefectureCode": "25",
    "prefectureNumber": 25,
    "prefecture": "滋賀県",
    "city": "近江八幡市",
    "town": "薬師町"
  },
  "5230827": {
    "zipcode": "5230827",
    "prefectureCode": "25",
    "prefectureNumber": 25,
    "prefecture": "滋賀県",
    "city": "近江八幡市",
    "town": "鉄炮町"
  },
  "5230828": {
    "zipcode": "5230828",
    "prefectureCode": "25",
    "prefectureNumber": 25,
    "prefecture": "滋賀県",
    "city": "近江八幡市",
    "town": "宮内町"
  },
  "5230831": {
    "zipcode": "5230831",
    "prefectureCode": "25",
    "prefectureNumber": 25,
    "prefecture": "滋賀県",
    "city": "近江八幡市",
    "town": "玉屋町"
  },
  "5230832": {
    "zipcode": "5230832",
    "prefectureCode": "25",
    "prefectureNumber": 25,
    "prefecture": "滋賀県",
    "city": "近江八幡市",
    "town": "江南町"
  },
  "5230833": {
    "zipcode": "5230833",
    "prefectureCode": "25",
    "prefectureNumber": 25,
    "prefecture": "滋賀県",
    "city": "近江八幡市",
    "town": "鍛治屋町"
  },
  "5230834": {
    "zipcode": "5230834",
    "prefectureCode": "25",
    "prefectureNumber": 25,
    "prefecture": "滋賀県",
    "city": "近江八幡市",
    "town": "東畳屋町"
  },
  "5230835": {
    "zipcode": "5230835",
    "prefectureCode": "25",
    "prefectureNumber": 25,
    "prefecture": "滋賀県",
    "city": "近江八幡市",
    "town": "西畳屋町"
  },
  "5230836": {
    "zipcode": "5230836",
    "prefectureCode": "25",
    "prefectureNumber": 25,
    "prefecture": "滋賀県",
    "city": "近江八幡市",
    "town": "間之町"
  },
  "5230837": {
    "zipcode": "5230837",
    "prefectureCode": "25",
    "prefectureNumber": 25,
    "prefecture": "滋賀県",
    "city": "近江八幡市",
    "town": "大杉町"
  },
  "5230841": {
    "zipcode": "5230841",
    "prefectureCode": "25",
    "prefectureNumber": 25,
    "prefecture": "滋賀県",
    "city": "近江八幡市",
    "town": "慈恩寺町元"
  },
  "5230842": {
    "zipcode": "5230842",
    "prefectureCode": "25",
    "prefectureNumber": 25,
    "prefecture": "滋賀県",
    "city": "近江八幡市",
    "town": "慈恩寺町中"
  },
  "5230843": {
    "zipcode": "5230843",
    "prefectureCode": "25",
    "prefectureNumber": 25,
    "prefecture": "滋賀県",
    "city": "近江八幡市",
    "town": "慈恩寺町上"
  },
  "5230844": {
    "zipcode": "5230844",
    "prefectureCode": "25",
    "prefectureNumber": 25,
    "prefecture": "滋賀県",
    "city": "近江八幡市",
    "town": "博労町元"
  },
  "5230845": {
    "zipcode": "5230845",
    "prefectureCode": "25",
    "prefectureNumber": 25,
    "prefecture": "滋賀県",
    "city": "近江八幡市",
    "town": "博労町中"
  },
  "5230846": {
    "zipcode": "5230846",
    "prefectureCode": "25",
    "prefectureNumber": 25,
    "prefecture": "滋賀県",
    "city": "近江八幡市",
    "town": "博労町上"
  },
  "5230847": {
    "zipcode": "5230847",
    "prefectureCode": "25",
    "prefectureNumber": 25,
    "prefecture": "滋賀県",
    "city": "近江八幡市",
    "town": "永原町元"
  },
  "5230848": {
    "zipcode": "5230848",
    "prefectureCode": "25",
    "prefectureNumber": 25,
    "prefecture": "滋賀県",
    "city": "近江八幡市",
    "town": "永原町中"
  },
  "5230849": {
    "zipcode": "5230849",
    "prefectureCode": "25",
    "prefectureNumber": 25,
    "prefecture": "滋賀県",
    "city": "近江八幡市",
    "town": "永原町上"
  },
  "5230851": {
    "zipcode": "5230851",
    "prefectureCode": "25",
    "prefectureNumber": 25,
    "prefecture": "滋賀県",
    "city": "近江八幡市",
    "town": "市井町"
  },
  "5230852": {
    "zipcode": "5230852",
    "prefectureCode": "25",
    "prefectureNumber": 25,
    "prefecture": "滋賀県",
    "city": "近江八幡市",
    "town": "鍵之手町"
  },
  "5230853": {
    "zipcode": "5230853",
    "prefectureCode": "25",
    "prefectureNumber": 25,
    "prefecture": "滋賀県",
    "city": "近江八幡市",
    "town": "縄手町元"
  },
  "5230854": {
    "zipcode": "5230854",
    "prefectureCode": "25",
    "prefectureNumber": 25,
    "prefecture": "滋賀県",
    "city": "近江八幡市",
    "town": "縄手町中"
  },
  "5230855": {
    "zipcode": "5230855",
    "prefectureCode": "25",
    "prefectureNumber": 25,
    "prefecture": "滋賀県",
    "city": "近江八幡市",
    "town": "縄手町末"
  },
  "5230856": {
    "zipcode": "5230856",
    "prefectureCode": "25",
    "prefectureNumber": 25,
    "prefecture": "滋賀県",
    "city": "近江八幡市",
    "town": "音羽町"
  },
  "5230857": {
    "zipcode": "5230857",
    "prefectureCode": "25",
    "prefectureNumber": 25,
    "prefecture": "滋賀県",
    "city": "近江八幡市",
    "town": "八幡町"
  },
  "5230861": {
    "zipcode": "5230861",
    "prefectureCode": "25",
    "prefectureNumber": 25,
    "prefecture": "滋賀県",
    "city": "近江八幡市",
    "town": "仲屋町元"
  },
  "5230862": {
    "zipcode": "5230862",
    "prefectureCode": "25",
    "prefectureNumber": 25,
    "prefecture": "滋賀県",
    "city": "近江八幡市",
    "town": "仲屋町中"
  },
  "5230863": {
    "zipcode": "5230863",
    "prefectureCode": "25",
    "prefectureNumber": 25,
    "prefecture": "滋賀県",
    "city": "近江八幡市",
    "town": "仲屋町上"
  },
  "5230864": {
    "zipcode": "5230864",
    "prefectureCode": "25",
    "prefectureNumber": 25,
    "prefecture": "滋賀県",
    "city": "近江八幡市",
    "town": "為心町元"
  },
  "5230865": {
    "zipcode": "5230865",
    "prefectureCode": "25",
    "prefectureNumber": 25,
    "prefecture": "滋賀県",
    "city": "近江八幡市",
    "town": "為心町中"
  },
  "5230866": {
    "zipcode": "5230866",
    "prefectureCode": "25",
    "prefectureNumber": 25,
    "prefecture": "滋賀県",
    "city": "近江八幡市",
    "town": "為心町上"
  },
  "5230867": {
    "zipcode": "5230867",
    "prefectureCode": "25",
    "prefectureNumber": 25,
    "prefecture": "滋賀県",
    "city": "近江八幡市",
    "town": "魚屋町元"
  },
  "5230868": {
    "zipcode": "5230868",
    "prefectureCode": "25",
    "prefectureNumber": 25,
    "prefecture": "滋賀県",
    "city": "近江八幡市",
    "town": "魚屋町中"
  },
  "5230869": {
    "zipcode": "5230869",
    "prefectureCode": "25",
    "prefectureNumber": 25,
    "prefecture": "滋賀県",
    "city": "近江八幡市",
    "town": "魚屋町上"
  },
  "5230871": {
    "zipcode": "5230871",
    "prefectureCode": "25",
    "prefectureNumber": 25,
    "prefecture": "滋賀県",
    "city": "近江八幡市",
    "town": "新町"
  },
  "5230872": {
    "zipcode": "5230872",
    "prefectureCode": "25",
    "prefectureNumber": 25,
    "prefecture": "滋賀県",
    "city": "近江八幡市",
    "town": "玉木町"
  },
  "5230873": {
    "zipcode": "5230873",
    "prefectureCode": "25",
    "prefectureNumber": 25,
    "prefecture": "滋賀県",
    "city": "近江八幡市",
    "town": "正神町"
  },
  "5230874": {
    "zipcode": "5230874",
    "prefectureCode": "25",
    "prefectureNumber": 25,
    "prefecture": "滋賀県",
    "city": "近江八幡市",
    "town": "小幡町中"
  },
  "5230875": {
    "zipcode": "5230875",
    "prefectureCode": "25",
    "prefectureNumber": 25,
    "prefecture": "滋賀県",
    "city": "近江八幡市",
    "town": "小幡町上"
  },
  "5230876": {
    "zipcode": "5230876",
    "prefectureCode": "25",
    "prefectureNumber": 25,
    "prefecture": "滋賀県",
    "city": "近江八幡市",
    "town": "本町"
  },
  "5230877": {
    "zipcode": "5230877",
    "prefectureCode": "25",
    "prefectureNumber": 25,
    "prefecture": "滋賀県",
    "city": "近江八幡市",
    "town": "池田町"
  },
  "5230881": {
    "zipcode": "5230881",
    "prefectureCode": "25",
    "prefectureNumber": 25,
    "prefecture": "滋賀県",
    "city": "近江八幡市",
    "town": "佐久間町"
  },
  "5230882": {
    "zipcode": "5230882",
    "prefectureCode": "25",
    "prefectureNumber": 25,
    "prefecture": "滋賀県",
    "city": "近江八幡市",
    "town": "元玉屋町"
  },
  "5230883": {
    "zipcode": "5230883",
    "prefectureCode": "25",
    "prefectureNumber": 25,
    "prefecture": "滋賀県",
    "city": "近江八幡市",
    "town": "北元町"
  },
  "5230884": {
    "zipcode": "5230884",
    "prefectureCode": "25",
    "prefectureNumber": 25,
    "prefecture": "滋賀県",
    "city": "近江八幡市",
    "town": "北末町"
  },
  "5230885": {
    "zipcode": "5230885",
    "prefectureCode": "25",
    "prefectureNumber": 25,
    "prefecture": "滋賀県",
    "city": "近江八幡市",
    "town": "板屋町"
  },
  "5230886": {
    "zipcode": "5230886",
    "prefectureCode": "25",
    "prefectureNumber": 25,
    "prefecture": "滋賀県",
    "city": "近江八幡市",
    "town": "西末町"
  },
  "5230887": {
    "zipcode": "5230887",
    "prefectureCode": "25",
    "prefectureNumber": 25,
    "prefecture": "滋賀県",
    "city": "近江八幡市",
    "town": "西元町"
  },
  "5230888": {
    "zipcode": "5230888",
    "prefectureCode": "25",
    "prefectureNumber": 25,
    "prefecture": "滋賀県",
    "city": "近江八幡市",
    "town": "孫平治町"
  },
  "5230889": {
    "zipcode": "5230889",
    "prefectureCode": "25",
    "prefectureNumber": 25,
    "prefecture": "滋賀県",
    "city": "近江八幡市",
    "town": "日杉町"
  },
  "5230891": {
    "zipcode": "5230891",
    "prefectureCode": "25",
    "prefectureNumber": 25,
    "prefecture": "滋賀県",
    "city": "近江八幡市",
    "town": "鷹飼町"
  },
  "5230892": {
    "zipcode": "5230892",
    "prefectureCode": "25",
    "prefectureNumber": 25,
    "prefecture": "滋賀県",
    "city": "近江八幡市",
    "town": "出町"
  },
  "5230893": {
    "zipcode": "5230893",
    "prefectureCode": "25",
    "prefectureNumber": 25,
    "prefecture": "滋賀県",
    "city": "近江八幡市",
    "town": "桜宮町"
  },
  "5230894": {
    "zipcode": "5230894",
    "prefectureCode": "25",
    "prefectureNumber": 25,
    "prefecture": "滋賀県",
    "city": "近江八幡市",
    "town": "中村町"
  },
  "5230895": {
    "zipcode": "5230895",
    "prefectureCode": "25",
    "prefectureNumber": 25,
    "prefecture": "滋賀県",
    "city": "近江八幡市",
    "town": "宇津呂町"
  },
  "5230896": {
    "zipcode": "5230896",
    "prefectureCode": "25",
    "prefectureNumber": 25,
    "prefecture": "滋賀県",
    "city": "近江八幡市",
    "town": "鷹飼町北"
  },
  "5230897": {
    "zipcode": "5230897",
    "prefectureCode": "25",
    "prefectureNumber": 25,
    "prefecture": "滋賀県",
    "city": "近江八幡市",
    "town": "鷹飼町東"
  },
  "5230898": {
    "zipcode": "5230898",
    "prefectureCode": "25",
    "prefectureNumber": 25,
    "prefecture": "滋賀県",
    "city": "近江八幡市",
    "town": "鷹飼町南"
  }
}
