{
  "5240000": {
    "zipcode": "5240000",
    "prefectureCode": "25",
    "prefectureNumber": 25,
    "prefecture": "滋賀県",
    "city": "守山市",
    "town": "以下に掲載がない場合"
  },
  "5240001": {
    "zipcode": "5240001",
    "prefectureCode": "25",
    "prefectureNumber": 25,
    "prefecture": "滋賀県",
    "city": "守山市",
    "town": "川田町"
  },
  "5240002": {
    "zipcode": "5240002",
    "prefectureCode": "25",
    "prefectureNumber": 25,
    "prefecture": "滋賀県",
    "city": "守山市",
    "town": "小島町"
  },
  "5240003": {
    "zipcode": "5240003",
    "prefectureCode": "25",
    "prefectureNumber": 25,
    "prefecture": "滋賀県",
    "city": "守山市",
    "town": "中町"
  },
  "5240004": {
    "zipcode": "5240004",
    "prefectureCode": "25",
    "prefectureNumber": 25,
    "prefecture": "滋賀県",
    "city": "守山市",
    "town": "笠原町"
  },
  "5240011": {
    "zipcode": "5240011",
    "prefectureCode": "25",
    "prefectureNumber": 25,
    "prefecture": "滋賀県",
    "city": "守山市",
    "town": "今市町"
  },
  "5240012": {
    "zipcode": "5240012",
    "prefectureCode": "25",
    "prefectureNumber": 25,
    "prefecture": "滋賀県",
    "city": "守山市",
    "town": "播磨田町"
  },
  "5240013": {
    "zipcode": "5240013",
    "prefectureCode": "25",
    "prefectureNumber": 25,
    "prefecture": "滋賀県",
    "city": "守山市",
    "town": "下之郷町"
  },
  "5240014": {
    "zipcode": "5240014",
    "prefectureCode": "25",
    "prefectureNumber": 25,
    "prefecture": "滋賀県",
    "city": "守山市",
    "town": "石田町"
  },
  "5240015": {
    "zipcode": "5240015",
    "prefectureCode": "25",
    "prefectureNumber": 25,
    "prefecture": "滋賀県",
    "city": "守山市",
    "town": "矢島町"
  },
  "5240016": {
    "zipcode": "5240016",
    "prefectureCode": "25",
    "prefectureNumber": 25,
    "prefecture": "滋賀県",
    "city": "守山市",
    "town": "荒見町"
  },
  "5240021": {
    "zipcode": "5240021",
    "prefectureCode": "25",
    "prefectureNumber": 25,
    "prefecture": "滋賀県",
    "city": "守山市",
    "town": "吉身町"
  },
  "5240022": {
    "zipcode": "5240022",
    "prefectureCode": "25",
    "prefectureNumber": 25,
    "prefecture": "滋賀県",
    "city": "守山市",
    "town": "守山町"
  },
  "5240031": {
    "zipcode": "5240031",
    "prefectureCode": "25",
    "prefectureNumber": 25,
    "prefecture": "滋賀県",
    "city": "守山市",
    "town": "立入町"
  },
  "5240032": {
    "zipcode": "5240032",
    "prefectureCode": "25",
    "prefectureNumber": 25,
    "prefecture": "滋賀県",
    "city": "守山市",
    "town": "岡町"
  },
  "5240033": {
    "zipcode": "5240033",
    "prefectureCode": "25",
    "prefectureNumber": 25,
    "prefecture": "滋賀県",
    "city": "守山市",
    "town": "浮気町"
  },
  "5240034": {
    "zipcode": "5240034",
    "prefectureCode": "25",
    "prefectureNumber": 25,
    "prefecture": "滋賀県",
    "city": "守山市",
    "town": "千代町"
  },
  "5240035": {
    "zipcode": "5240035",
    "prefectureCode": "25",
    "prefectureNumber": 25,
    "prefecture": "滋賀県",
    "city": "守山市",
    "town": "阿村町"
  },
  "5240036": {
    "zipcode": "5240036",
    "prefectureCode": "25",
    "prefectureNumber": 25,
    "prefecture": "滋賀県",
    "city": "守山市",
    "town": "伊勢町"
  },
  "5240037": {
    "zipcode": "5240037",
    "prefectureCode": "25",
    "prefectureNumber": 25,
    "prefecture": "滋賀県",
    "city": "守山市",
    "town": "梅田町"
  },
  "5240041": {
    "zipcode": "5240041",
    "prefectureCode": "25",
    "prefectureNumber": 25,
    "prefecture": "滋賀県",
    "city": "守山市",
    "town": "勝部町"
  },
  "5240042": {
    "zipcode": "5240042",
    "prefectureCode": "25",
    "prefectureNumber": 25,
    "prefecture": "滋賀県",
    "city": "守山市",
    "town": "焔魔堂町"
  },
  "5240043": {
    "zipcode": "5240043",
    "prefectureCode": "25",
    "prefectureNumber": 25,
    "prefecture": "滋賀県",
    "city": "守山市",
    "town": "二町町"
  },
  "5240044": {
    "zipcode": "5240044",
    "prefectureCode": "25",
    "prefectureNumber": 25,
    "prefecture": "滋賀県",
    "city": "守山市",
    "town": "古高町"
  },
  "5240045": {
    "zipcode": "5240045",
    "prefectureCode": "25",
    "prefectureNumber": 25,
    "prefecture": "滋賀県",
    "city": "守山市",
    "town": "金森町"
  },
  "5240046": {
    "zipcode": "5240046",
    "prefectureCode": "25",
    "prefectureNumber": 25,
    "prefecture": "滋賀県",
    "city": "守山市",
    "town": "今宿町"
  },
  "5240051": {
    "zipcode": "5240051",
    "prefectureCode": "25",
    "prefectureNumber": 25,
    "prefecture": "滋賀県",
    "city": "守山市",
    "town": "三宅町"
  },
  "5240052": {
    "zipcode": "5240052",
    "prefectureCode": "25",
    "prefectureNumber": 25,
    "prefecture": "滋賀県",
    "city": "守山市",
    "town": "大門町"
  },
  "5240053": {
    "zipcode": "5240053",
    "prefectureCode": "25",
    "prefectureNumber": 25,
    "prefecture": "滋賀県",
    "city": "守山市",
    "town": "横江町"
  },
  "5240054": {
    "zipcode": "5240054",
    "prefectureCode": "25",
    "prefectureNumber": 25,
    "prefecture": "滋賀県",
    "city": "守山市",
    "town": "大林町"
  },
  "5240055": {
    "zipcode": "5240055",
    "prefectureCode": "25",
    "prefectureNumber": 25,
    "prefecture": "滋賀県",
    "city": "守山市",
    "town": "十二里町"
  },
  "5240061": {
    "zipcode": "5240061",
    "prefectureCode": "25",
    "prefectureNumber": 25,
    "prefecture": "滋賀県",
    "city": "守山市",
    "town": "赤野井町"
  },
  "5240062": {
    "zipcode": "5240062",
    "prefectureCode": "25",
    "prefectureNumber": 25,
    "prefecture": "滋賀県",
    "city": "守山市",
    "town": "杉江町"
  },
  "5240063": {
    "zipcode": "5240063",
    "prefectureCode": "25",
    "prefectureNumber": 25,
    "prefecture": "滋賀県",
    "city": "守山市",
    "town": "欲賀町"
  },
  "5240064": {
    "zipcode": "5240064",
    "prefectureCode": "25",
    "prefectureNumber": 25,
    "prefecture": "滋賀県",
    "city": "守山市",
    "town": "森川原町"
  },
  "5240065": {
    "zipcode": "5240065",
    "prefectureCode": "25",
    "prefectureNumber": 25,
    "prefecture": "滋賀県",
    "city": "守山市",
    "town": "山賀町"
  },
  "5240101": {
    "zipcode": "5240101",
    "prefectureCode": "25",
    "prefectureNumber": 25,
    "prefecture": "滋賀県",
    "city": "守山市",
    "town": "今浜町"
  },
  "5240102": {
    "zipcode": "5240102",
    "prefectureCode": "25",
    "prefectureNumber": 25,
    "prefecture": "滋賀県",
    "city": "守山市",
    "town": "水保町"
  },
  "5240103": {
    "zipcode": "5240103",
    "prefectureCode": "25",
    "prefectureNumber": 25,
    "prefecture": "滋賀県",
    "city": "守山市",
    "town": "洲本町"
  },
  "5240104": {
    "zipcode": "5240104",
    "prefectureCode": "25",
    "prefectureNumber": 25,
    "prefecture": "滋賀県",
    "city": "守山市",
    "town": "木浜町"
  },
  "5240211": {
    "zipcode": "5240211",
    "prefectureCode": "25",
    "prefectureNumber": 25,
    "prefecture": "滋賀県",
    "city": "守山市",
    "town": "小浜町"
  },
  "5240212": {
    "zipcode": "5240212",
    "prefectureCode": "25",
    "prefectureNumber": 25,
    "prefecture": "滋賀県",
    "city": "守山市",
    "town": "服部町"
  },
  "5240213": {
    "zipcode": "5240213",
    "prefectureCode": "25",
    "prefectureNumber": 25,
    "prefecture": "滋賀県",
    "city": "守山市",
    "town": "新庄町"
  },
  "5240214": {
    "zipcode": "5240214",
    "prefectureCode": "25",
    "prefectureNumber": 25,
    "prefecture": "滋賀県",
    "city": "守山市",
    "town": "立田町"
  },
  "5240215": {
    "zipcode": "5240215",
    "prefectureCode": "25",
    "prefectureNumber": 25,
    "prefecture": "滋賀県",
    "city": "守山市",
    "town": "幸津川町"
  },
  "5240216": {
    "zipcode": "5240216",
    "prefectureCode": "25",
    "prefectureNumber": 25,
    "prefecture": "滋賀県",
    "city": "守山市",
    "town": "環境学習都市宣言記念公園"
  }
}
