{
  "5260000": {
    "zipcode": "5260000",
    "prefectureCode": "25",
    "prefectureNumber": 25,
    "prefecture": "滋賀県",
    "city": "長浜市",
    "town": "以下に掲載がない場合"
  },
  "5260001": {
    "zipcode": "5260001",
    "prefectureCode": "25",
    "prefectureNumber": 25,
    "prefecture": "滋賀県",
    "city": "長浜市",
    "town": "国友町"
  },
  "5260002": {
    "zipcode": "5260002",
    "prefectureCode": "25",
    "prefectureNumber": 25,
    "prefecture": "滋賀県",
    "city": "長浜市",
    "town": "保田町"
  },
  "5260003": {
    "zipcode": "5260003",
    "prefectureCode": "25",
    "prefectureNumber": 25,
    "prefecture": "滋賀県",
    "city": "長浜市",
    "town": "泉町"
  },
  "5260004": {
    "zipcode": "5260004",
    "prefectureCode": "25",
    "prefectureNumber": 25,
    "prefecture": "滋賀県",
    "city": "長浜市",
    "town": "小沢町"
  },
  "5260005": {
    "zipcode": "5260005",
    "prefectureCode": "25",
    "prefectureNumber": 25,
    "prefecture": "滋賀県",
    "city": "長浜市",
    "town": "下之郷町"
  },
  "5260011": {
    "zipcode": "5260011",
    "prefectureCode": "25",
    "prefectureNumber": 25,
    "prefecture": "滋賀県",
    "city": "長浜市",
    "town": "新庄馬場町"
  },
  "5260012": {
    "zipcode": "5260012",
    "prefectureCode": "25",
    "prefectureNumber": 25,
    "prefecture": "滋賀県",
    "city": "長浜市",
    "town": "新庄中町"
  },
  "5260013": {
    "zipcode": "5260013",
    "prefectureCode": "25",
    "prefectureNumber": 25,
    "prefecture": "滋賀県",
    "city": "長浜市",
    "town": "新庄寺町"
  },
  "5260014": {
    "zipcode": "5260014",
    "prefectureCode": "25",
    "prefectureNumber": 25,
    "prefecture": "滋賀県",
    "city": "長浜市",
    "town": "口分田町"
  },
  "5260015": {
    "zipcode": "5260015",
    "prefectureCode": "25",
    "prefectureNumber": 25,
    "prefecture": "滋賀県",
    "city": "長浜市",
    "town": "神照町"
  },
  "5260016": {
    "zipcode": "5260016",
    "prefectureCode": "25",
    "prefectureNumber": 25,
    "prefecture": "滋賀県",
    "city": "長浜市",
    "town": "十里町"
  },
  "5260017": {
    "zipcode": "5260017",
    "prefectureCode": "25",
    "prefectureNumber": 25,
    "prefecture": "滋賀県",
    "city": "長浜市",
    "town": "相撲町"
  },
  "5260018": {
    "zipcode": "5260018",
    "prefectureCode": "25",
    "prefectureNumber": 25,
    "prefecture": "滋賀県",
    "city": "長浜市",
    "town": "森町"
  },
  "5260021": {
    "zipcode": "5260021",
    "prefectureCode": "25",
    "prefectureNumber": 25,
    "prefecture": "滋賀県",
    "city": "長浜市",
    "town": "八幡中山町"
  },
  "5260022": {
    "zipcode": "5260022",
    "prefectureCode": "25",
    "prefectureNumber": 25,
    "prefecture": "滋賀県",
    "city": "長浜市",
    "town": "中山町"
  },
  "5260023": {
    "zipcode": "5260023",
    "prefectureCode": "25",
    "prefectureNumber": 25,
    "prefecture": "滋賀県",
    "city": "長浜市",
    "town": "三ツ矢町"
  },
  "5260024": {
    "zipcode": "5260024",
    "prefectureCode": "25",
    "prefectureNumber": 25,
    "prefecture": "滋賀県",
    "city": "長浜市",
    "town": "三ツ矢元町"
  },
  "5260025": {
    "zipcode": "5260025",
    "prefectureCode": "25",
    "prefectureNumber": 25,
    "prefecture": "滋賀県",
    "city": "長浜市",
    "town": "分木町"
  },
  "5260031": {
    "zipcode": "5260031",
    "prefectureCode": "25",
    "prefectureNumber": 25,
    "prefecture": "滋賀県",
    "city": "長浜市",
    "town": "八幡東町"
  },
  "5260032": {
    "zipcode": "5260032",
    "prefectureCode": "25",
    "prefectureNumber": 25,
    "prefecture": "滋賀県",
    "city": "長浜市",
    "town": "南高田町"
  },
  "5260033": {
    "zipcode": "5260033",
    "prefectureCode": "25",
    "prefectureNumber": 25,
    "prefecture": "滋賀県",
    "city": "長浜市",
    "town": "平方町"
  },
  "5260034": {
    "zipcode": "5260034",
    "prefectureCode": "25",
    "prefectureNumber": 25,
    "prefecture": "滋賀県",
    "city": "長浜市",
    "town": "弥高町"
  },
  "5260035": {
    "zipcode": "5260035",
    "prefectureCode": "25",
    "prefectureNumber": 25,
    "prefecture": "滋賀県",
    "city": "長浜市",
    "town": "平方南町"
  },
  "5260036": {
    "zipcode": "5260036",
    "prefectureCode": "25",
    "prefectureNumber": 25,
    "prefecture": "滋賀県",
    "city": "長浜市",
    "town": "地福寺町"
  },
  "5260037": {
    "zipcode": "5260037",
    "prefectureCode": "25",
    "prefectureNumber": 25,
    "prefecture": "滋賀県",
    "city": "長浜市",
    "town": "高田町"
  },
  "5260041": {
    "zipcode": "5260041",
    "prefectureCode": "25",
    "prefectureNumber": 25,
    "prefecture": "滋賀県",
    "city": "長浜市",
    "town": "四ツ塚町"
  },
  "5260042": {
    "zipcode": "5260042",
    "prefectureCode": "25",
    "prefectureNumber": 25,
    "prefecture": "滋賀県",
    "city": "長浜市",
    "town": "勝町"
  },
  "5260043": {
    "zipcode": "5260043",
    "prefectureCode": "25",
    "prefectureNumber": 25,
    "prefecture": "滋賀県",
    "city": "長浜市",
    "town": "大戌亥町"
  },
  "5260044": {
    "zipcode": "5260044",
    "prefectureCode": "25",
    "prefectureNumber": 25,
    "prefecture": "滋賀県",
    "city": "長浜市",
    "town": "下坂中町"
  },
  "5260045": {
    "zipcode": "5260045",
    "prefectureCode": "25",
    "prefectureNumber": 25,
    "prefecture": "滋賀県",
    "city": "長浜市",
    "town": "寺田町"
  },
  "5260046": {
    "zipcode": "5260046",
    "prefectureCode": "25",
    "prefectureNumber": 25,
    "prefecture": "滋賀県",
    "city": "長浜市",
    "town": "高橋町"
  },
  "5260047": {
    "zipcode": "5260047",
    "prefectureCode": "25",
    "prefectureNumber": 25,
    "prefecture": "滋賀県",
    "city": "長浜市",
    "town": "下坂浜町"
  },
  "5260051": {
    "zipcode": "5260051",
    "prefectureCode": "25",
    "prefectureNumber": 25,
    "prefecture": "滋賀県",
    "city": "長浜市",
    "town": "一の宮町"
  },
  "5260052": {
    "zipcode": "5260052",
    "prefectureCode": "25",
    "prefectureNumber": 25,
    "prefecture": "滋賀県",
    "city": "長浜市",
    "town": "神前町"
  },
  "5260053": {
    "zipcode": "5260053",
    "prefectureCode": "25",
    "prefectureNumber": 25,
    "prefecture": "滋賀県",
    "city": "長浜市",
    "town": "宮前町"
  },
  "5260054": {
    "zipcode": "5260054",
    "prefectureCode": "25",
    "prefectureNumber": 25,
    "prefecture": "滋賀県",
    "city": "長浜市",
    "town": "大宮町"
  },
  "5260055": {
    "zipcode": "5260055",
    "prefectureCode": "25",
    "prefectureNumber": 25,
    "prefecture": "滋賀県",
    "city": "長浜市",
    "town": "三和町"
  },
  "5260056": {
    "zipcode": "5260056",
    "prefectureCode": "25",
    "prefectureNumber": 25,
    "prefecture": "滋賀県",
    "city": "長浜市",
    "town": "朝日町"
  },
  "5260057": {
    "zipcode": "5260057",
    "prefectureCode": "25",
    "prefectureNumber": 25,
    "prefecture": "滋賀県",
    "city": "長浜市",
    "town": "北船町"
  },
  "5260058": {
    "zipcode": "5260058",
    "prefectureCode": "25",
    "prefectureNumber": 25,
    "prefecture": "滋賀県",
    "city": "長浜市",
    "town": "南呉服町"
  },
  "5260059": {
    "zipcode": "5260059",
    "prefectureCode": "25",
    "prefectureNumber": 25,
    "prefecture": "滋賀県",
    "city": "長浜市",
    "town": "元浜町"
  },
  "5260061": {
    "zipcode": "5260061",
    "prefectureCode": "25",
    "prefectureNumber": 25,
    "prefecture": "滋賀県",
    "city": "長浜市",
    "town": "祇園町"
  },
  "5260062": {
    "zipcode": "5260062",
    "prefectureCode": "25",
    "prefectureNumber": 25,
    "prefecture": "滋賀県",
    "city": "長浜市",
    "town": "列見町"
  },
  "5260063": {
    "zipcode": "5260063",
    "prefectureCode": "25",
    "prefectureNumber": 25,
    "prefecture": "滋賀県",
    "city": "長浜市",
    "town": "末広町"
  },
  "5260064": {
    "zipcode": "5260064",
    "prefectureCode": "25",
    "prefectureNumber": 25,
    "prefecture": "滋賀県",
    "city": "長浜市",
    "town": "殿町"
  },
  "5260065": {
    "zipcode": "5260065",
    "prefectureCode": "25",
    "prefectureNumber": 25,
    "prefecture": "滋賀県",
    "city": "長浜市",
    "town": "公園町"
  },
  "5260066": {
    "zipcode": "5260066",
    "prefectureCode": "25",
    "prefectureNumber": 25,
    "prefecture": "滋賀県",
    "city": "長浜市",
    "town": "大島町"
  },
  "5260067": {
    "zipcode": "5260067",
    "prefectureCode": "25",
    "prefectureNumber": 25,
    "prefecture": "滋賀県",
    "city": "長浜市",
    "town": "港町"
  },
  "5260068": {
    "zipcode": "5260068",
    "prefectureCode": "25",
    "prefectureNumber": 25,
    "prefecture": "滋賀県",
    "city": "長浜市",
    "town": "鐘紡町"
  },
  "5260101": {
    "zipcode": "5260101",
    "prefectureCode": "25",
    "prefectureNumber": 25,
    "prefecture": "滋賀県",
    "city": "長浜市",
    "town": "錦織町"
  },
  "5260102": {
    "zipcode": "5260102",
    "prefectureCode": "25",
    "prefectureNumber": 25,
    "prefecture": "滋賀県",
    "city": "長浜市",
    "town": "落合町"
  },
  "5260103": {
    "zipcode": "5260103",
    "prefectureCode": "25",
    "prefectureNumber": 25,
    "prefecture": "滋賀県",
    "city": "長浜市",
    "town": "曽根町"
  },
  "5260104": {
    "zipcode": "5260104",
    "prefectureCode": "25",
    "prefectureNumber": 25,
    "prefecture": "滋賀県",
    "city": "長浜市",
    "town": "御館"
  },
  "5260105": {
    "zipcode": "5260105",
    "prefectureCode": "25",
    "prefectureNumber": 25,
    "prefecture": "滋賀県",
    "city": "長浜市",
    "town": "細江町"
  },
  "5260106": {
    "zipcode": "5260106",
    "prefectureCode": "25",
    "prefectureNumber": 25,
    "prefecture": "滋賀県",
    "city": "長浜市",
    "town": "野寺町"
  },
  "5260107": {
    "zipcode": "5260107",
    "prefectureCode": "25",
    "prefectureNumber": 25,
    "prefecture": "滋賀県",
    "city": "長浜市",
    "town": "新居町"
  },
  "5260108": {
    "zipcode": "5260108",
    "prefectureCode": "25",
    "prefectureNumber": 25,
    "prefecture": "滋賀県",
    "city": "長浜市",
    "town": "難波町"
  },
  "5260111": {
    "zipcode": "5260111",
    "prefectureCode": "25",
    "prefectureNumber": 25,
    "prefecture": "滋賀県",
    "city": "長浜市",
    "town": "川道町"
  },
  "5260112": {
    "zipcode": "5260112",
    "prefectureCode": "25",
    "prefectureNumber": 25,
    "prefecture": "滋賀県",
    "city": "長浜市",
    "town": "鶴が島"
  },
  "5260113": {
    "zipcode": "5260113",
    "prefectureCode": "25",
    "prefectureNumber": 25,
    "prefecture": "滋賀県",
    "city": "長浜市",
    "town": "南浜町"
  },
  "5260114": {
    "zipcode": "5260114",
    "prefectureCode": "25",
    "prefectureNumber": 25,
    "prefecture": "滋賀県",
    "city": "長浜市",
    "town": "中浜"
  },
  "5260115": {
    "zipcode": "5260115",
    "prefectureCode": "25",
    "prefectureNumber": 25,
    "prefecture": "滋賀県",
    "city": "長浜市",
    "town": "大浜町"
  },
  "5260116": {
    "zipcode": "5260116",
    "prefectureCode": "25",
    "prefectureNumber": 25,
    "prefecture": "滋賀県",
    "city": "長浜市",
    "town": "八木浜町"
  },
  "5260121": {
    "zipcode": "5260121",
    "prefectureCode": "25",
    "prefectureNumber": 25,
    "prefecture": "滋賀県",
    "city": "長浜市",
    "town": "十九町"
  },
  "5260122": {
    "zipcode": "5260122",
    "prefectureCode": "25",
    "prefectureNumber": 25,
    "prefecture": "滋賀県",
    "city": "長浜市",
    "town": "上八木町"
  },
  "5260123": {
    "zipcode": "5260123",
    "prefectureCode": "25",
    "prefectureNumber": 25,
    "prefecture": "滋賀県",
    "city": "長浜市",
    "town": "下八木町"
  },
  "5260124": {
    "zipcode": "5260124",
    "prefectureCode": "25",
    "prefectureNumber": 25,
    "prefecture": "滋賀県",
    "city": "長浜市",
    "town": "早崎町"
  },
  "5260125": {
    "zipcode": "5260125",
    "prefectureCode": "25",
    "prefectureNumber": 25,
    "prefecture": "滋賀県",
    "city": "長浜市",
    "town": "益田町"
  },
  "5260126": {
    "zipcode": "5260126",
    "prefectureCode": "25",
    "prefectureNumber": 25,
    "prefecture": "滋賀県",
    "city": "長浜市",
    "town": "安養寺町"
  },
  "5260131": {
    "zipcode": "5260131",
    "prefectureCode": "25",
    "prefectureNumber": 25,
    "prefecture": "滋賀県",
    "city": "長浜市",
    "town": "富田町"
  },
  "5260132": {
    "zipcode": "5260132",
    "prefectureCode": "25",
    "prefectureNumber": 25,
    "prefecture": "滋賀県",
    "city": "長浜市",
    "town": "香花寺町"
  },
  "5260133": {
    "zipcode": "5260133",
    "prefectureCode": "25",
    "prefectureNumber": 25,
    "prefecture": "滋賀県",
    "city": "長浜市",
    "town": "稲葉町"
  },
  "5260134": {
    "zipcode": "5260134",
    "prefectureCode": "25",
    "prefectureNumber": 25,
    "prefecture": "滋賀県",
    "city": "長浜市",
    "town": "小観音寺町"
  },
  "5260135": {
    "zipcode": "5260135",
    "prefectureCode": "25",
    "prefectureNumber": 25,
    "prefecture": "滋賀県",
    "city": "長浜市",
    "town": "弓削町"
  },
  "5260201": {
    "zipcode": "5260201",
    "prefectureCode": "25",
    "prefectureNumber": 25,
    "prefecture": "滋賀県",
    "city": "長浜市",
    "town": "高山町"
  },
  "5260202": {
    "zipcode": "5260202",
    "prefectureCode": "25",
    "prefectureNumber": 25,
    "prefecture": "滋賀県",
    "city": "長浜市",
    "town": "草野町"
  },
  "5260203": {
    "zipcode": "5260203",
    "prefectureCode": "25",
    "prefectureNumber": 25,
    "prefecture": "滋賀県",
    "city": "長浜市",
    "town": "野瀬町"
  },
  "5260204": {
    "zipcode": "5260204",
    "prefectureCode": "25",
    "prefectureNumber": 25,
    "prefecture": "滋賀県",
    "city": "長浜市",
    "town": "鍛冶屋町"
  },
  "5260205": {
    "zipcode": "5260205",
    "prefectureCode": "25",
    "prefectureNumber": 25,
    "prefecture": "滋賀県",
    "city": "長浜市",
    "town": "岡谷町"
  },
  "5260206": {
    "zipcode": "5260206",
    "prefectureCode": "25",
    "prefectureNumber": 25,
    "prefecture": "滋賀県",
    "city": "長浜市",
    "town": "郷野町"
  },
  "5260207": {
    "zipcode": "5260207",
    "prefectureCode": "25",
    "prefectureNumber": 25,
    "prefecture": "滋賀県",
    "city": "長浜市",
    "town": "太田町"
  },
  "5260208": {
    "zipcode": "5260208",
    "prefectureCode": "25",
    "prefectureNumber": 25,
    "prefecture": "滋賀県",
    "city": "長浜市",
    "town": "西村町"
  },
  "5260209": {
    "zipcode": "5260209",
    "prefectureCode": "25",
    "prefectureNumber": 25,
    "prefecture": "滋賀県",
    "city": "長浜市",
    "town": "寺師町"
  },
  "5260211": {
    "zipcode": "5260211",
    "prefectureCode": "25",
    "prefectureNumber": 25,
    "prefecture": "滋賀県",
    "city": "長浜市",
    "town": "飯山町"
  },
  "5260212": {
    "zipcode": "5260212",
    "prefectureCode": "25",
    "prefectureNumber": 25,
    "prefecture": "滋賀県",
    "city": "長浜市",
    "town": "徳山町"
  },
  "5260213": {
    "zipcode": "5260213",
    "prefectureCode": "25",
    "prefectureNumber": 25,
    "prefecture": "滋賀県",
    "city": "長浜市",
    "town": "醍醐町"
  },
  "5260214": {
    "zipcode": "5260214",
    "prefectureCode": "25",
    "prefectureNumber": 25,
    "prefecture": "滋賀県",
    "city": "長浜市",
    "town": "北ノ郷町"
  },
  "5260215": {
    "zipcode": "5260215",
    "prefectureCode": "25",
    "prefectureNumber": 25,
    "prefecture": "滋賀県",
    "city": "長浜市",
    "town": "当目町"
  },
  "5260216": {
    "zipcode": "5260216",
    "prefectureCode": "25",
    "prefectureNumber": 25,
    "prefecture": "滋賀県",
    "city": "長浜市",
    "town": "大門町"
  },
  "5260217": {
    "zipcode": "5260217",
    "prefectureCode": "25",
    "prefectureNumber": 25,
    "prefecture": "滋賀県",
    "city": "長浜市",
    "town": "乗倉町"
  },
  "5260221": {
    "zipcode": "5260221",
    "prefectureCode": "25",
    "prefectureNumber": 25,
    "prefecture": "滋賀県",
    "city": "長浜市",
    "town": "小野寺町"
  },
  "5260222": {
    "zipcode": "5260222",
    "prefectureCode": "25",
    "prefectureNumber": 25,
    "prefecture": "滋賀県",
    "city": "長浜市",
    "town": "浅井高原"
  },
  "5260223": {
    "zipcode": "5260223",
    "prefectureCode": "25",
    "prefectureNumber": 25,
    "prefecture": "滋賀県",
    "city": "長浜市",
    "town": "法楽寺町"
  },
  "5260224": {
    "zipcode": "5260224",
    "prefectureCode": "25",
    "prefectureNumber": 25,
    "prefecture": "滋賀県",
    "city": "長浜市",
    "town": "東野町"
  },
  "5260225": {
    "zipcode": "5260225",
    "prefectureCode": "25",
    "prefectureNumber": 25,
    "prefecture": "滋賀県",
    "city": "長浜市",
    "town": "南郷町"
  },
  "5260226": {
    "zipcode": "5260226",
    "prefectureCode": "25",
    "prefectureNumber": 25,
    "prefecture": "滋賀県",
    "city": "長浜市",
    "town": "東主計町"
  },
  "5260227": {
    "zipcode": "5260227",
    "prefectureCode": "25",
    "prefectureNumber": 25,
    "prefecture": "滋賀県",
    "city": "長浜市",
    "town": "西主計町"
  },
  "5260231": {
    "zipcode": "5260231",
    "prefectureCode": "25",
    "prefectureNumber": 25,
    "prefecture": "滋賀県",
    "city": "長浜市",
    "town": "北池町"
  },
  "5260232": {
    "zipcode": "5260232",
    "prefectureCode": "25",
    "prefectureNumber": 25,
    "prefecture": "滋賀県",
    "city": "長浜市",
    "town": "南池町"
  },
  "5260233": {
    "zipcode": "5260233",
    "prefectureCode": "25",
    "prefectureNumber": 25,
    "prefecture": "滋賀県",
    "city": "長浜市",
    "town": "今荘町"
  },
  "5260234": {
    "zipcode": "5260234",
    "prefectureCode": "25",
    "prefectureNumber": 25,
    "prefecture": "滋賀県",
    "city": "長浜市",
    "town": "相撲庭町"
  },
  "5260235": {
    "zipcode": "5260235",
    "prefectureCode": "25",
    "prefectureNumber": 25,
    "prefecture": "滋賀県",
    "city": "長浜市",
    "town": "佐野町"
  },
  "5260236": {
    "zipcode": "5260236",
    "prefectureCode": "25",
    "prefectureNumber": 25,
    "prefecture": "滋賀県",
    "city": "長浜市",
    "town": "野村町"
  },
  "5260241": {
    "zipcode": "5260241",
    "prefectureCode": "25",
    "prefectureNumber": 25,
    "prefecture": "滋賀県",
    "city": "長浜市",
    "town": "新三田"
  },
  "5260242": {
    "zipcode": "5260242",
    "prefectureCode": "25",
    "prefectureNumber": 25,
    "prefecture": "滋賀県",
    "city": "長浜市",
    "town": "三田町"
  },
  "5260243": {
    "zipcode": "5260243",
    "prefectureCode": "25",
    "prefectureNumber": 25,
    "prefecture": "滋賀県",
    "city": "長浜市",
    "town": "大路町"
  },
  "5260244": {
    "zipcode": "5260244",
    "prefectureCode": "25",
    "prefectureNumber": 25,
    "prefecture": "滋賀県",
    "city": "長浜市",
    "town": "内保町"
  },
  "5260245": {
    "zipcode": "5260245",
    "prefectureCode": "25",
    "prefectureNumber": 25,
    "prefecture": "滋賀県",
    "city": "長浜市",
    "town": "湯次町"
  },
  "5260246": {
    "zipcode": "5260246",
    "prefectureCode": "25",
    "prefectureNumber": 25,
    "prefecture": "滋賀県",
    "city": "長浜市",
    "town": "西新三田"
  },
  "5260251": {
    "zipcode": "5260251",
    "prefectureCode": "25",
    "prefectureNumber": 25,
    "prefecture": "滋賀県",
    "city": "長浜市",
    "town": "大依町"
  },
  "5260252": {
    "zipcode": "5260252",
    "prefectureCode": "25",
    "prefectureNumber": 25,
    "prefecture": "滋賀県",
    "city": "長浜市",
    "town": "八島町"
  },
  "5260253": {
    "zipcode": "5260253",
    "prefectureCode": "25",
    "prefectureNumber": 25,
    "prefecture": "滋賀県",
    "city": "長浜市",
    "town": "平塚町"
  },
  "5260254": {
    "zipcode": "5260254",
    "prefectureCode": "25",
    "prefectureNumber": 25,
    "prefecture": "滋賀県",
    "city": "長浜市",
    "town": "尊野町"
  },
  "5260255": {
    "zipcode": "5260255",
    "prefectureCode": "25",
    "prefectureNumber": 25,
    "prefecture": "滋賀県",
    "city": "長浜市",
    "town": "西野町"
  },
  "5260256": {
    "zipcode": "5260256",
    "prefectureCode": "25",
    "prefectureNumber": 25,
    "prefecture": "滋賀県",
    "city": "長浜市",
    "town": "尊勝寺町"
  },
  "5260257": {
    "zipcode": "5260257",
    "prefectureCode": "25",
    "prefectureNumber": 25,
    "prefecture": "滋賀県",
    "city": "長浜市",
    "town": "山ノ前町"
  },
  "5260261": {
    "zipcode": "5260261",
    "prefectureCode": "25",
    "prefectureNumber": 25,
    "prefecture": "滋賀県",
    "city": "長浜市",
    "town": "竜安寺町"
  },
  "5260262": {
    "zipcode": "5260262",
    "prefectureCode": "25",
    "prefectureNumber": 25,
    "prefecture": "滋賀県",
    "city": "長浜市",
    "town": "黒部町"
  },
  "5260263": {
    "zipcode": "5260263",
    "prefectureCode": "25",
    "prefectureNumber": 25,
    "prefecture": "滋賀県",
    "city": "長浜市",
    "town": "小室町"
  },
  "5260264": {
    "zipcode": "5260264",
    "prefectureCode": "25",
    "prefectureNumber": 25,
    "prefecture": "滋賀県",
    "city": "長浜市",
    "town": "上野町"
  },
  "5260265": {
    "zipcode": "5260265",
    "prefectureCode": "25",
    "prefectureNumber": 25,
    "prefecture": "滋賀県",
    "city": "長浜市",
    "town": "木尾町"
  },
  "5260266": {
    "zipcode": "5260266",
    "prefectureCode": "25",
    "prefectureNumber": 25,
    "prefecture": "滋賀県",
    "city": "長浜市",
    "town": "野田町"
  },
  "5260267": {
    "zipcode": "5260267",
    "prefectureCode": "25",
    "prefectureNumber": 25,
    "prefecture": "滋賀県",
    "city": "長浜市",
    "town": "力丸町"
  },
  "5260271": {
    "zipcode": "5260271",
    "prefectureCode": "25",
    "prefectureNumber": 25,
    "prefecture": "滋賀県",
    "city": "長浜市",
    "town": "谷口町"
  },
  "5260272": {
    "zipcode": "5260272",
    "prefectureCode": "25",
    "prefectureNumber": 25,
    "prefecture": "滋賀県",
    "city": "長浜市",
    "town": "北野町"
  },
  "5260273": {
    "zipcode": "5260273",
    "prefectureCode": "25",
    "prefectureNumber": 25,
    "prefecture": "滋賀県",
    "city": "長浜市",
    "town": "高畑町"
  },
  "5260274": {
    "zipcode": "5260274",
    "prefectureCode": "25",
    "prefectureNumber": 25,
    "prefecture": "滋賀県",
    "city": "長浜市",
    "town": "池奥町"
  },
  "5260275": {
    "zipcode": "5260275",
    "prefectureCode": "25",
    "prefectureNumber": 25,
    "prefecture": "滋賀県",
    "city": "長浜市",
    "town": "瓜生町"
  },
  "5260276": {
    "zipcode": "5260276",
    "prefectureCode": "25",
    "prefectureNumber": 25,
    "prefecture": "滋賀県",
    "city": "長浜市",
    "town": "田川町"
  },
  "5260277": {
    "zipcode": "5260277",
    "prefectureCode": "25",
    "prefectureNumber": 25,
    "prefecture": "滋賀県",
    "city": "長浜市",
    "town": "須賀谷町"
  },
  "5260801": {
    "zipcode": "5260801",
    "prefectureCode": "25",
    "prefectureNumber": 25,
    "prefecture": "滋賀県",
    "city": "長浜市",
    "town": "千草町"
  },
  "5260802": {
    "zipcode": "5260802",
    "prefectureCode": "25",
    "prefectureNumber": 25,
    "prefecture": "滋賀県",
    "city": "長浜市",
    "town": "東上坂町"
  },
  "5260803": {
    "zipcode": "5260803",
    "prefectureCode": "25",
    "prefectureNumber": 25,
    "prefecture": "滋賀県",
    "city": "長浜市",
    "town": "西上坂町"
  },
  "5260804": {
    "zipcode": "5260804",
    "prefectureCode": "25",
    "prefectureNumber": 25,
    "prefecture": "滋賀県",
    "city": "長浜市",
    "town": "加納町"
  },
  "5260805": {
    "zipcode": "5260805",
    "prefectureCode": "25",
    "prefectureNumber": 25,
    "prefecture": "滋賀県",
    "city": "長浜市",
    "town": "榎木町"
  },
  "5260806": {
    "zipcode": "5260806",
    "prefectureCode": "25",
    "prefectureNumber": 25,
    "prefecture": "滋賀県",
    "city": "長浜市",
    "town": "今町"
  },
  "5260811": {
    "zipcode": "5260811",
    "prefectureCode": "25",
    "prefectureNumber": 25,
    "prefecture": "滋賀県",
    "city": "長浜市",
    "town": "垣籠町"
  },
  "5260812": {
    "zipcode": "5260812",
    "prefectureCode": "25",
    "prefectureNumber": 25,
    "prefecture": "滋賀県",
    "city": "長浜市",
    "town": "保多町"
  },
  "5260813": {
    "zipcode": "5260813",
    "prefectureCode": "25",
    "prefectureNumber": 25,
    "prefecture": "滋賀県",
    "city": "長浜市",
    "town": "堀部町"
  },
  "5260814": {
    "zipcode": "5260814",
    "prefectureCode": "25",
    "prefectureNumber": 25,
    "prefecture": "滋賀県",
    "city": "長浜市",
    "town": "石田町"
  },
  "5260815": {
    "zipcode": "5260815",
    "prefectureCode": "25",
    "prefectureNumber": 25,
    "prefecture": "滋賀県",
    "city": "長浜市",
    "town": "八条町"
  },
  "5260816": {
    "zipcode": "5260816",
    "prefectureCode": "25",
    "prefectureNumber": 25,
    "prefecture": "滋賀県",
    "city": "長浜市",
    "town": "今川町"
  },
  "5260817": {
    "zipcode": "5260817",
    "prefectureCode": "25",
    "prefectureNumber": 25,
    "prefecture": "滋賀県",
    "city": "長浜市",
    "town": "七条町"
  },
  "5260821": {
    "zipcode": "5260821",
    "prefectureCode": "25",
    "prefectureNumber": 25,
    "prefecture": "滋賀県",
    "city": "長浜市",
    "town": "本庄町"
  },
  "5260822": {
    "zipcode": "5260822",
    "prefectureCode": "25",
    "prefectureNumber": 25,
    "prefecture": "滋賀県",
    "city": "長浜市",
    "town": "鳥羽上町"
  },
  "5260823": {
    "zipcode": "5260823",
    "prefectureCode": "25",
    "prefectureNumber": 25,
    "prefecture": "滋賀県",
    "city": "長浜市",
    "town": "常喜町"
  },
  "5260824": {
    "zipcode": "5260824",
    "prefectureCode": "25",
    "prefectureNumber": 25,
    "prefecture": "滋賀県",
    "city": "長浜市",
    "town": "名越町"
  },
  "5260825": {
    "zipcode": "5260825",
    "prefectureCode": "25",
    "prefectureNumber": 25,
    "prefecture": "滋賀県",
    "city": "長浜市",
    "town": "布勢町"
  },
  "5260826": {
    "zipcode": "5260826",
    "prefectureCode": "25",
    "prefectureNumber": 25,
    "prefecture": "滋賀県",
    "city": "長浜市",
    "town": "小一条町"
  },
  "5260827": {
    "zipcode": "5260827",
    "prefectureCode": "25",
    "prefectureNumber": 25,
    "prefecture": "滋賀県",
    "city": "長浜市",
    "town": "加田今町"
  },
  "5260828": {
    "zipcode": "5260828",
    "prefectureCode": "25",
    "prefectureNumber": 25,
    "prefecture": "滋賀県",
    "city": "長浜市",
    "town": "加田町"
  },
  "5260829": {
    "zipcode": "5260829",
    "prefectureCode": "25",
    "prefectureNumber": 25,
    "prefecture": "滋賀県",
    "city": "長浜市",
    "town": "田村町"
  },
  "5260831": {
    "zipcode": "5260831",
    "prefectureCode": "25",
    "prefectureNumber": 25,
    "prefecture": "滋賀県",
    "city": "長浜市",
    "town": "宮司町"
  },
  "5260832": {
    "zipcode": "5260832",
    "prefectureCode": "25",
    "prefectureNumber": 25,
    "prefecture": "滋賀県",
    "city": "長浜市",
    "town": "大東町"
  },
  "5260833": {
    "zipcode": "5260833",
    "prefectureCode": "25",
    "prefectureNumber": 25,
    "prefecture": "滋賀県",
    "city": "長浜市",
    "town": "永久寺町"
  },
  "5260834": {
    "zipcode": "5260834",
    "prefectureCode": "25",
    "prefectureNumber": 25,
    "prefecture": "滋賀県",
    "city": "長浜市",
    "town": "大辰巳町"
  },
  "5260835": {
    "zipcode": "5260835",
    "prefectureCode": "25",
    "prefectureNumber": 25,
    "prefecture": "滋賀県",
    "city": "長浜市",
    "town": "室町"
  },
  "5260841": {
    "zipcode": "5260841",
    "prefectureCode": "25",
    "prefectureNumber": 25,
    "prefecture": "滋賀県",
    "city": "長浜市",
    "town": "新栄町"
  },
  "5260842": {
    "zipcode": "5260842",
    "prefectureCode": "25",
    "prefectureNumber": 25,
    "prefecture": "滋賀県",
    "city": "長浜市",
    "town": "春近町"
  },
  "5260843": {
    "zipcode": "5260843",
    "prefectureCode": "25",
    "prefectureNumber": 25,
    "prefecture": "滋賀県",
    "city": "長浜市",
    "town": "南小足町"
  },
  "5260844": {
    "zipcode": "5260844",
    "prefectureCode": "25",
    "prefectureNumber": 25,
    "prefecture": "滋賀県",
    "city": "長浜市",
    "town": "南田附町"
  },
  "5260845": {
    "zipcode": "5260845",
    "prefectureCode": "25",
    "prefectureNumber": 25,
    "prefecture": "滋賀県",
    "city": "長浜市",
    "town": "小堀町"
  },
  "5260846": {
    "zipcode": "5260846",
    "prefectureCode": "25",
    "prefectureNumber": 25,
    "prefecture": "滋賀県",
    "city": "長浜市",
    "town": "川崎町"
  },
  "5260847": {
    "zipcode": "5260847",
    "prefectureCode": "25",
    "prefectureNumber": 25,
    "prefecture": "滋賀県",
    "city": "長浜市",
    "town": "山階町"
  }
}
