{
  "5270000": {
    "zipcode": "5270000",
    "prefectureCode": "25",
    "prefectureNumber": 25,
    "prefecture": "滋賀県",
    "city": "東近江市",
    "town": "以下に掲載がない場合"
  },
  "5270001": {
    "zipcode": "5270001",
    "prefectureCode": "25",
    "prefectureNumber": 25,
    "prefecture": "滋賀県",
    "city": "東近江市",
    "town": "建部下野町"
  },
  "5270002": {
    "zipcode": "5270002",
    "prefectureCode": "25",
    "prefectureNumber": 25,
    "prefecture": "滋賀県",
    "city": "東近江市",
    "town": "建部上中町"
  },
  "5270003": {
    "zipcode": "5270003",
    "prefectureCode": "25",
    "prefectureNumber": 25,
    "prefecture": "滋賀県",
    "city": "東近江市",
    "town": "建部北町"
  },
  "5270004": {
    "zipcode": "5270004",
    "prefectureCode": "25",
    "prefectureNumber": 25,
    "prefecture": "滋賀県",
    "city": "東近江市",
    "town": "建部堺町"
  },
  "5270005": {
    "zipcode": "5270005",
    "prefectureCode": "25",
    "prefectureNumber": 25,
    "prefecture": "滋賀県",
    "city": "東近江市",
    "town": "建部南町"
  },
  "5270006": {
    "zipcode": "5270006",
    "prefectureCode": "25",
    "prefectureNumber": 25,
    "prefecture": "滋賀県",
    "city": "東近江市",
    "town": "建部日吉町"
  },
  "5270007": {
    "zipcode": "5270007",
    "prefectureCode": "25",
    "prefectureNumber": 25,
    "prefecture": "滋賀県",
    "city": "東近江市",
    "town": "建部瓦屋寺町"
  },
  "5270011": {
    "zipcode": "5270011",
    "prefectureCode": "25",
    "prefectureNumber": 25,
    "prefecture": "滋賀県",
    "city": "東近江市",
    "town": "八日市浜野町"
  },
  "5270012": {
    "zipcode": "5270012",
    "prefectureCode": "25",
    "prefectureNumber": 25,
    "prefecture": "滋賀県",
    "city": "東近江市",
    "town": "八日市本町"
  },
  "5270013": {
    "zipcode": "5270013",
    "prefectureCode": "25",
    "prefectureNumber": 25,
    "prefecture": "滋賀県",
    "city": "東近江市",
    "town": "東中野町"
  },
  "5270014": {
    "zipcode": "5270014",
    "prefectureCode": "25",
    "prefectureNumber": 25,
    "prefecture": "滋賀県",
    "city": "東近江市",
    "town": "西中野町"
  },
  "5270015": {
    "zipcode": "5270015",
    "prefectureCode": "25",
    "prefectureNumber": 25,
    "prefecture": "滋賀県",
    "city": "東近江市",
    "town": "中野町"
  },
  "5270016": {
    "zipcode": "5270016",
    "prefectureCode": "25",
    "prefectureNumber": 25,
    "prefecture": "滋賀県",
    "city": "東近江市",
    "town": "今崎町"
  },
  "5270017": {
    "zipcode": "5270017",
    "prefectureCode": "25",
    "prefectureNumber": 25,
    "prefecture": "滋賀県",
    "city": "東近江市",
    "town": "昭和町"
  },
  "5270018": {
    "zipcode": "5270018",
    "prefectureCode": "25",
    "prefectureNumber": 25,
    "prefecture": "滋賀県",
    "city": "東近江市",
    "town": "八日市清水"
  },
  "5270019": {
    "zipcode": "5270019",
    "prefectureCode": "25",
    "prefectureNumber": 25,
    "prefecture": "滋賀県",
    "city": "東近江市",
    "town": "八日市松尾町"
  },
  "5270021": {
    "zipcode": "5270021",
    "prefectureCode": "25",
    "prefectureNumber": 25,
    "prefecture": "滋賀県",
    "city": "東近江市",
    "town": "八日市東浜町"
  },
  "5270022": {
    "zipcode": "5270022",
    "prefectureCode": "25",
    "prefectureNumber": 25,
    "prefecture": "滋賀県",
    "city": "東近江市",
    "town": "八日市上之町"
  },
  "5270023": {
    "zipcode": "5270023",
    "prefectureCode": "25",
    "prefectureNumber": 25,
    "prefecture": "滋賀県",
    "city": "東近江市",
    "town": "八日市緑町"
  },
  "5270024": {
    "zipcode": "5270024",
    "prefectureCode": "25",
    "prefectureNumber": 25,
    "prefecture": "滋賀県",
    "city": "東近江市",
    "town": "札の辻"
  },
  "5270025": {
    "zipcode": "5270025",
    "prefectureCode": "25",
    "prefectureNumber": 25,
    "prefecture": "滋賀県",
    "city": "東近江市",
    "town": "八日市東本町"
  },
  "5270026": {
    "zipcode": "5270026",
    "prefectureCode": "25",
    "prefectureNumber": 25,
    "prefecture": "滋賀県",
    "city": "東近江市",
    "town": "八日市野々宮町"
  },
  "5270027": {
    "zipcode": "5270027",
    "prefectureCode": "25",
    "prefectureNumber": 25,
    "prefecture": "滋賀県",
    "city": "東近江市",
    "town": "栄町"
  },
  "5270028": {
    "zipcode": "5270028",
    "prefectureCode": "25",
    "prefectureNumber": 25,
    "prefecture": "滋賀県",
    "city": "東近江市",
    "town": "八日市金屋"
  },
  "5270029": {
    "zipcode": "5270029",
    "prefectureCode": "25",
    "prefectureNumber": 25,
    "prefecture": "滋賀県",
    "city": "東近江市",
    "town": "八日市町"
  },
  "5270031": {
    "zipcode": "5270031",
    "prefectureCode": "25",
    "prefectureNumber": 25,
    "prefecture": "滋賀県",
    "city": "東近江市",
    "town": "幸町"
  },
  "5270032": {
    "zipcode": "5270032",
    "prefectureCode": "25",
    "prefectureNumber": 25,
    "prefecture": "滋賀県",
    "city": "東近江市",
    "town": "春日町"
  },
  "5270033": {
    "zipcode": "5270033",
    "prefectureCode": "25",
    "prefectureNumber": 25,
    "prefecture": "滋賀県",
    "city": "東近江市",
    "town": "東沖野"
  },
  "5270034": {
    "zipcode": "5270034",
    "prefectureCode": "25",
    "prefectureNumber": 25,
    "prefecture": "滋賀県",
    "city": "東近江市",
    "town": "沖野"
  },
  "5270035": {
    "zipcode": "5270035",
    "prefectureCode": "25",
    "prefectureNumber": 25,
    "prefecture": "滋賀県",
    "city": "東近江市",
    "town": "ひばり丘町"
  },
  "5270036": {
    "zipcode": "5270036",
    "prefectureCode": "25",
    "prefectureNumber": 25,
    "prefecture": "滋賀県",
    "city": "東近江市",
    "town": "聖和町"
  },
  "5270037": {
    "zipcode": "5270037",
    "prefectureCode": "25",
    "prefectureNumber": 25,
    "prefecture": "滋賀県",
    "city": "東近江市",
    "town": "東今崎町"
  },
  "5270038": {
    "zipcode": "5270038",
    "prefectureCode": "25",
    "prefectureNumber": 25,
    "prefecture": "滋賀県",
    "city": "東近江市",
    "town": "聖徳町"
  },
  "5270039": {
    "zipcode": "5270039",
    "prefectureCode": "25",
    "prefectureNumber": 25,
    "prefecture": "滋賀県",
    "city": "東近江市",
    "town": "青葉町"
  },
  "5270041": {
    "zipcode": "5270041",
    "prefectureCode": "25",
    "prefectureNumber": 25,
    "prefecture": "滋賀県",
    "city": "東近江市",
    "town": "川合寺町"
  },
  "5270042": {
    "zipcode": "5270042",
    "prefectureCode": "25",
    "prefectureNumber": 25,
    "prefecture": "滋賀県",
    "city": "東近江市",
    "town": "外町"
  },
  "5270043": {
    "zipcode": "5270043",
    "prefectureCode": "25",
    "prefectureNumber": 25,
    "prefecture": "滋賀県",
    "city": "東近江市",
    "town": "神田町"
  },
  "5270044": {
    "zipcode": "5270044",
    "prefectureCode": "25",
    "prefectureNumber": 25,
    "prefecture": "滋賀県",
    "city": "東近江市",
    "town": "五智町"
  },
  "5270045": {
    "zipcode": "5270045",
    "prefectureCode": "25",
    "prefectureNumber": 25,
    "prefecture": "滋賀県",
    "city": "東近江市",
    "town": "中小路町"
  },
  "5270046": {
    "zipcode": "5270046",
    "prefectureCode": "25",
    "prefectureNumber": 25,
    "prefecture": "滋賀県",
    "city": "東近江市",
    "town": "妙法寺町"
  },
  "5270047": {
    "zipcode": "5270047",
    "prefectureCode": "25",
    "prefectureNumber": 25,
    "prefecture": "滋賀県",
    "city": "東近江市",
    "town": "野村町"
  },
  "5270051": {
    "zipcode": "5270051",
    "prefectureCode": "25",
    "prefectureNumber": 25,
    "prefecture": "滋賀県",
    "city": "東近江市",
    "town": "林田町"
  },
  "5270052": {
    "zipcode": "5270052",
    "prefectureCode": "25",
    "prefectureNumber": 25,
    "prefecture": "滋賀県",
    "city": "東近江市",
    "town": "寺町"
  },
  "5270053": {
    "zipcode": "5270053",
    "prefectureCode": "25",
    "prefectureNumber": 25,
    "prefecture": "滋賀県",
    "city": "東近江市",
    "town": "今代町"
  },
  "5270054": {
    "zipcode": "5270054",
    "prefectureCode": "25",
    "prefectureNumber": 25,
    "prefecture": "滋賀県",
    "city": "東近江市",
    "town": "池田町"
  },
  "5270055": {
    "zipcode": "5270055",
    "prefectureCode": "25",
    "prefectureNumber": 25,
    "prefecture": "滋賀県",
    "city": "東近江市",
    "town": "瓜生津町"
  },
  "5270056": {
    "zipcode": "5270056",
    "prefectureCode": "25",
    "prefectureNumber": 25,
    "prefecture": "滋賀県",
    "city": "東近江市",
    "town": "御園町"
  },
  "5270057": {
    "zipcode": "5270057",
    "prefectureCode": "25",
    "prefectureNumber": 25,
    "prefecture": "滋賀県",
    "city": "東近江市",
    "town": "岡田町"
  },
  "5270061": {
    "zipcode": "5270061",
    "prefectureCode": "25",
    "prefectureNumber": 25,
    "prefecture": "滋賀県",
    "city": "東近江市",
    "town": "土器町"
  },
  "5270062": {
    "zipcode": "5270062",
    "prefectureCode": "25",
    "prefectureNumber": 25,
    "prefecture": "滋賀県",
    "city": "東近江市",
    "town": "上大森町"
  },
  "5270063": {
    "zipcode": "5270063",
    "prefectureCode": "25",
    "prefectureNumber": 25,
    "prefecture": "滋賀県",
    "city": "東近江市",
    "town": "大森町"
  },
  "5270064": {
    "zipcode": "5270064",
    "prefectureCode": "25",
    "prefectureNumber": 25,
    "prefecture": "滋賀県",
    "city": "東近江市",
    "town": "尻無町"
  },
  "5270065": {
    "zipcode": "5270065",
    "prefectureCode": "25",
    "prefectureNumber": 25,
    "prefecture": "滋賀県",
    "city": "東近江市",
    "town": "下二俣町"
  },
  "5270066": {
    "zipcode": "5270066",
    "prefectureCode": "25",
    "prefectureNumber": 25,
    "prefecture": "滋賀県",
    "city": "東近江市",
    "town": "柴原南町"
  },
  "5270067": {
    "zipcode": "5270067",
    "prefectureCode": "25",
    "prefectureNumber": 25,
    "prefecture": "滋賀県",
    "city": "東近江市",
    "town": "芝原町"
  },
  "5270071": {
    "zipcode": "5270071",
    "prefectureCode": "25",
    "prefectureNumber": 25,
    "prefecture": "滋賀県",
    "city": "東近江市",
    "town": "今堀町"
  },
  "5270072": {
    "zipcode": "5270072",
    "prefectureCode": "25",
    "prefectureNumber": 25,
    "prefecture": "滋賀県",
    "city": "東近江市",
    "town": "布引台"
  },
  "5270073": {
    "zipcode": "5270073",
    "prefectureCode": "25",
    "prefectureNumber": 25,
    "prefecture": "滋賀県",
    "city": "東近江市",
    "town": "蛇溝町"
  },
  "5270074": {
    "zipcode": "5270074",
    "prefectureCode": "25",
    "prefectureNumber": 25,
    "prefecture": "滋賀県",
    "city": "東近江市",
    "town": "市辺町"
  },
  "5270075": {
    "zipcode": "5270075",
    "prefectureCode": "25",
    "prefectureNumber": 25,
    "prefecture": "滋賀県",
    "city": "東近江市",
    "town": "三津屋町"
  },
  "5270076": {
    "zipcode": "5270076",
    "prefectureCode": "25",
    "prefectureNumber": 25,
    "prefecture": "滋賀県",
    "city": "東近江市",
    "town": "野口町"
  },
  "5270081": {
    "zipcode": "5270081",
    "prefectureCode": "25",
    "prefectureNumber": 25,
    "prefecture": "滋賀県",
    "city": "東近江市",
    "town": "布施町"
  },
  "5270082": {
    "zipcode": "5270082",
    "prefectureCode": "25",
    "prefectureNumber": 25,
    "prefecture": "滋賀県",
    "city": "東近江市",
    "town": "上羽田町"
  },
  "5270083": {
    "zipcode": "5270083",
    "prefectureCode": "25",
    "prefectureNumber": 25,
    "prefecture": "滋賀県",
    "city": "東近江市",
    "town": "柏木町"
  },
  "5270084": {
    "zipcode": "5270084",
    "prefectureCode": "25",
    "prefectureNumber": 25,
    "prefecture": "滋賀県",
    "city": "東近江市",
    "town": "中羽田町"
  },
  "5270085": {
    "zipcode": "5270085",
    "prefectureCode": "25",
    "prefectureNumber": 25,
    "prefecture": "滋賀県",
    "city": "東近江市",
    "town": "下羽田町"
  },
  "5270086": {
    "zipcode": "5270086",
    "prefectureCode": "25",
    "prefectureNumber": 25,
    "prefecture": "滋賀県",
    "city": "東近江市",
    "town": "上平木町"
  },
  "5270087": {
    "zipcode": "5270087",
    "prefectureCode": "25",
    "prefectureNumber": 25,
    "prefecture": "滋賀県",
    "city": "東近江市",
    "town": "平田町"
  },
  "5270091": {
    "zipcode": "5270091",
    "prefectureCode": "25",
    "prefectureNumber": 25,
    "prefecture": "滋賀県",
    "city": "東近江市",
    "town": "小脇町"
  },
  "5270092": {
    "zipcode": "5270092",
    "prefectureCode": "25",
    "prefectureNumber": 25,
    "prefecture": "滋賀県",
    "city": "東近江市",
    "town": "小今町"
  },
  "5270093": {
    "zipcode": "5270093",
    "prefectureCode": "25",
    "prefectureNumber": 25,
    "prefecture": "滋賀県",
    "city": "東近江市",
    "town": "糠塚町"
  },
  "5270101": {
    "zipcode": "5270101",
    "prefectureCode": "25",
    "prefectureNumber": 25,
    "prefecture": "滋賀県",
    "city": "東近江市",
    "town": "祇園町"
  },
  "5270102": {
    "zipcode": "5270102",
    "prefectureCode": "25",
    "prefectureNumber": 25,
    "prefecture": "滋賀県",
    "city": "東近江市",
    "town": "平柳町"
  },
  "5270103": {
    "zipcode": "5270103",
    "prefectureCode": "25",
    "prefectureNumber": 25,
    "prefecture": "滋賀県",
    "city": "東近江市",
    "town": "湯屋町"
  },
  "5270104": {
    "zipcode": "5270104",
    "prefectureCode": "25",
    "prefectureNumber": 25,
    "prefecture": "滋賀県",
    "city": "東近江市",
    "town": "読合堂町"
  },
  "5270105": {
    "zipcode": "5270105",
    "prefectureCode": "25",
    "prefectureNumber": 25,
    "prefecture": "滋賀県",
    "city": "東近江市",
    "town": "中里町"
  },
  "5270106": {
    "zipcode": "5270106",
    "prefectureCode": "25",
    "prefectureNumber": 25,
    "prefecture": "滋賀県",
    "city": "東近江市",
    "town": "僧坊町"
  },
  "5270107": {
    "zipcode": "5270107",
    "prefectureCode": "25",
    "prefectureNumber": 25,
    "prefecture": "滋賀県",
    "city": "東近江市",
    "town": "今在家町"
  },
  "5270108": {
    "zipcode": "5270108",
    "prefectureCode": "25",
    "prefectureNumber": 25,
    "prefecture": "滋賀県",
    "city": "東近江市",
    "town": "小八木町"
  },
  "5270111": {
    "zipcode": "5270111",
    "prefectureCode": "25",
    "prefectureNumber": 25,
    "prefecture": "滋賀県",
    "city": "東近江市",
    "town": "北花沢町"
  },
  "5270112": {
    "zipcode": "5270112",
    "prefectureCode": "25",
    "prefectureNumber": 25,
    "prefecture": "滋賀県",
    "city": "東近江市",
    "town": "南花沢町"
  },
  "5270113": {
    "zipcode": "5270113",
    "prefectureCode": "25",
    "prefectureNumber": 25,
    "prefecture": "滋賀県",
    "city": "東近江市",
    "town": "池庄町"
  },
  "5270114": {
    "zipcode": "5270114",
    "prefectureCode": "25",
    "prefectureNumber": 25,
    "prefecture": "滋賀県",
    "city": "東近江市",
    "town": "大沢町"
  },
  "5270115": {
    "zipcode": "5270115",
    "prefectureCode": "25",
    "prefectureNumber": 25,
    "prefecture": "滋賀県",
    "city": "東近江市",
    "town": "下里町"
  },
  "5270121": {
    "zipcode": "5270121",
    "prefectureCode": "25",
    "prefectureNumber": 25,
    "prefecture": "滋賀県",
    "city": "東近江市",
    "town": "小池町"
  },
  "5270122": {
    "zipcode": "5270122",
    "prefectureCode": "25",
    "prefectureNumber": 25,
    "prefecture": "滋賀県",
    "city": "東近江市",
    "town": "長町"
  },
  "5270123": {
    "zipcode": "5270123",
    "prefectureCode": "25",
    "prefectureNumber": 25,
    "prefecture": "滋賀県",
    "city": "東近江市",
    "town": "中岸本町"
  },
  "5270124": {
    "zipcode": "5270124",
    "prefectureCode": "25",
    "prefectureNumber": 25,
    "prefecture": "滋賀県",
    "city": "東近江市",
    "town": "下岸本町"
  },
  "5270125": {
    "zipcode": "5270125",
    "prefectureCode": "25",
    "prefectureNumber": 25,
    "prefecture": "滋賀県",
    "city": "東近江市",
    "town": "小田苅町"
  },
  "5270126": {
    "zipcode": "5270126",
    "prefectureCode": "25",
    "prefectureNumber": 25,
    "prefecture": "滋賀県",
    "city": "東近江市",
    "town": "大清水町"
  },
  "5270127": {
    "zipcode": "5270127",
    "prefectureCode": "25",
    "prefectureNumber": 25,
    "prefecture": "滋賀県",
    "city": "東近江市",
    "town": "南清水町"
  },
  "5270128": {
    "zipcode": "5270128",
    "prefectureCode": "25",
    "prefectureNumber": 25,
    "prefecture": "滋賀県",
    "city": "東近江市",
    "town": "清水中町"
  },
  "5270129": {
    "zipcode": "5270129",
    "prefectureCode": "25",
    "prefectureNumber": 25,
    "prefecture": "滋賀県",
    "city": "東近江市",
    "town": "北清水町"
  },
  "5270131": {
    "zipcode": "5270131",
    "prefectureCode": "25",
    "prefectureNumber": 25,
    "prefecture": "滋賀県",
    "city": "東近江市",
    "town": "勝堂町"
  },
  "5270132": {
    "zipcode": "5270132",
    "prefectureCode": "25",
    "prefectureNumber": 25,
    "prefecture": "滋賀県",
    "city": "東近江市",
    "town": "下一色町"
  },
  "5270133": {
    "zipcode": "5270133",
    "prefectureCode": "25",
    "prefectureNumber": 25,
    "prefecture": "滋賀県",
    "city": "東近江市",
    "town": "中一色町"
  },
  "5270134": {
    "zipcode": "5270134",
    "prefectureCode": "25",
    "prefectureNumber": 25,
    "prefecture": "滋賀県",
    "city": "東近江市",
    "town": "平松町"
  },
  "5270135": {
    "zipcode": "5270135",
    "prefectureCode": "25",
    "prefectureNumber": 25,
    "prefecture": "滋賀県",
    "city": "東近江市",
    "town": "横溝町"
  },
  "5270136": {
    "zipcode": "5270136",
    "prefectureCode": "25",
    "prefectureNumber": 25,
    "prefecture": "滋賀県",
    "city": "東近江市",
    "town": "南菩提寺町"
  },
  "5270137": {
    "zipcode": "5270137",
    "prefectureCode": "25",
    "prefectureNumber": 25,
    "prefecture": "滋賀県",
    "city": "東近江市",
    "town": "西菩提寺町"
  },
  "5270138": {
    "zipcode": "5270138",
    "prefectureCode": "25",
    "prefectureNumber": 25,
    "prefecture": "滋賀県",
    "city": "東近江市",
    "town": "北菩提寺町"
  },
  "5270141": {
    "zipcode": "5270141",
    "prefectureCode": "25",
    "prefectureNumber": 25,
    "prefecture": "滋賀県",
    "city": "東近江市",
    "town": "百済寺甲町"
  },
  "5270142": {
    "zipcode": "5270142",
    "prefectureCode": "25",
    "prefectureNumber": 25,
    "prefecture": "滋賀県",
    "city": "東近江市",
    "town": "上山町"
  },
  "5270143": {
    "zipcode": "5270143",
    "prefectureCode": "25",
    "prefectureNumber": 25,
    "prefecture": "滋賀県",
    "city": "東近江市",
    "town": "百済寺本町"
  },
  "5270144": {
    "zipcode": "5270144",
    "prefectureCode": "25",
    "prefectureNumber": 25,
    "prefecture": "滋賀県",
    "city": "東近江市",
    "town": "百済寺町"
  },
  "5270145": {
    "zipcode": "5270145",
    "prefectureCode": "25",
    "prefectureNumber": 25,
    "prefecture": "滋賀県",
    "city": "東近江市",
    "town": "北坂町"
  },
  "5270151": {
    "zipcode": "5270151",
    "prefectureCode": "25",
    "prefectureNumber": 25,
    "prefecture": "滋賀県",
    "city": "東近江市",
    "town": "市ケ原町"
  },
  "5270152": {
    "zipcode": "5270152",
    "prefectureCode": "25",
    "prefectureNumber": 25,
    "prefecture": "滋賀県",
    "city": "東近江市",
    "town": "大覚寺町"
  },
  "5270153": {
    "zipcode": "5270153",
    "prefectureCode": "25",
    "prefectureNumber": 25,
    "prefecture": "滋賀県",
    "city": "東近江市",
    "town": "平尾町"
  },
  "5270154": {
    "zipcode": "5270154",
    "prefectureCode": "25",
    "prefectureNumber": 25,
    "prefecture": "滋賀県",
    "city": "東近江市",
    "town": "園町"
  },
  "5270155": {
    "zipcode": "5270155",
    "prefectureCode": "25",
    "prefectureNumber": 25,
    "prefecture": "滋賀県",
    "city": "東近江市",
    "town": "大林町"
  },
  "5270156": {
    "zipcode": "5270156",
    "prefectureCode": "25",
    "prefectureNumber": 25,
    "prefecture": "滋賀県",
    "city": "東近江市",
    "town": "上中野町"
  },
  "5270157": {
    "zipcode": "5270157",
    "prefectureCode": "25",
    "prefectureNumber": 25,
    "prefecture": "滋賀県",
    "city": "東近江市",
    "town": "下中野町"
  },
  "5270161": {
    "zipcode": "5270161",
    "prefectureCode": "25",
    "prefectureNumber": 25,
    "prefecture": "滋賀県",
    "city": "東近江市",
    "town": "中戸町"
  },
  "5270162": {
    "zipcode": "5270162",
    "prefectureCode": "25",
    "prefectureNumber": 25,
    "prefecture": "滋賀県",
    "city": "東近江市",
    "town": "妹町"
  },
  "5270163": {
    "zipcode": "5270163",
    "prefectureCode": "25",
    "prefectureNumber": 25,
    "prefecture": "滋賀県",
    "city": "東近江市",
    "town": "曽根町"
  },
  "5270164": {
    "zipcode": "5270164",
    "prefectureCode": "25",
    "prefectureNumber": 25,
    "prefecture": "滋賀県",
    "city": "東近江市",
    "town": "青山町"
  },
  "5270165": {
    "zipcode": "5270165",
    "prefectureCode": "25",
    "prefectureNumber": 25,
    "prefecture": "滋賀県",
    "city": "東近江市",
    "town": "小倉町"
  },
  "5270166": {
    "zipcode": "5270166",
    "prefectureCode": "25",
    "prefectureNumber": 25,
    "prefecture": "滋賀県",
    "city": "東近江市",
    "town": "愛東外町"
  },
  "5270171": {
    "zipcode": "5270171",
    "prefectureCode": "25",
    "prefectureNumber": 25,
    "prefecture": "滋賀県",
    "city": "東近江市",
    "town": "池之尻町"
  },
  "5270172": {
    "zipcode": "5270172",
    "prefectureCode": "25",
    "prefectureNumber": 25,
    "prefecture": "滋賀県",
    "city": "東近江市",
    "town": "鯰江町"
  },
  "5270173": {
    "zipcode": "5270173",
    "prefectureCode": "25",
    "prefectureNumber": 25,
    "prefecture": "滋賀県",
    "city": "東近江市",
    "town": "上岸本町"
  },
  "5270174": {
    "zipcode": "5270174",
    "prefectureCode": "25",
    "prefectureNumber": 25,
    "prefecture": "滋賀県",
    "city": "東近江市",
    "town": "大萩町"
  },
  "5270175": {
    "zipcode": "5270175",
    "prefectureCode": "25",
    "prefectureNumber": 25,
    "prefecture": "滋賀県",
    "city": "東近江市",
    "town": "梅林町"
  },
  "5270201": {
    "zipcode": "5270201",
    "prefectureCode": "25",
    "prefectureNumber": 25,
    "prefecture": "滋賀県",
    "city": "東近江市",
    "town": "蛭谷町"
  },
  "5270202": {
    "zipcode": "5270202",
    "prefectureCode": "25",
    "prefectureNumber": 25,
    "prefecture": "滋賀県",
    "city": "東近江市",
    "town": "君ケ畑町"
  },
  "5270203": {
    "zipcode": "5270203",
    "prefectureCode": "25",
    "prefectureNumber": 25,
    "prefecture": "滋賀県",
    "city": "東近江市",
    "town": "箕川町"
  },
  "5270204": {
    "zipcode": "5270204",
    "prefectureCode": "25",
    "prefectureNumber": 25,
    "prefecture": "滋賀県",
    "city": "東近江市",
    "town": "政所町"
  },
  "5270205": {
    "zipcode": "5270205",
    "prefectureCode": "25",
    "prefectureNumber": 25,
    "prefecture": "滋賀県",
    "city": "東近江市",
    "town": "黄和田町"
  },
  "5270206": {
    "zipcode": "5270206",
    "prefectureCode": "25",
    "prefectureNumber": 25,
    "prefecture": "滋賀県",
    "city": "東近江市",
    "town": "杠葉尾町"
  },
  "5270207": {
    "zipcode": "5270207",
    "prefectureCode": "25",
    "prefectureNumber": 25,
    "prefecture": "滋賀県",
    "city": "東近江市",
    "town": "蓼畑町"
  },
  "5270208": {
    "zipcode": "5270208",
    "prefectureCode": "25",
    "prefectureNumber": 25,
    "prefecture": "滋賀県",
    "city": "東近江市",
    "town": "萱尾町"
  },
  "5270209": {
    "zipcode": "5270209",
    "prefectureCode": "25",
    "prefectureNumber": 25,
    "prefecture": "滋賀県",
    "city": "東近江市",
    "town": "佐目町"
  },
  "5270211": {
    "zipcode": "5270211",
    "prefectureCode": "25",
    "prefectureNumber": 25,
    "prefecture": "滋賀県",
    "city": "東近江市",
    "town": "永源寺相谷町"
  },
  "5270212": {
    "zipcode": "5270212",
    "prefectureCode": "25",
    "prefectureNumber": 25,
    "prefecture": "滋賀県",
    "city": "東近江市",
    "town": "永源寺高野町"
  },
  "5270213": {
    "zipcode": "5270213",
    "prefectureCode": "25",
    "prefectureNumber": 25,
    "prefecture": "滋賀県",
    "city": "東近江市",
    "town": "和南町"
  },
  "5270214": {
    "zipcode": "5270214",
    "prefectureCode": "25",
    "prefectureNumber": 25,
    "prefecture": "滋賀県",
    "city": "東近江市",
    "town": "甲津畑町"
  },
  "5270215": {
    "zipcode": "5270215",
    "prefectureCode": "25",
    "prefectureNumber": 25,
    "prefecture": "滋賀県",
    "city": "東近江市",
    "town": "九居瀬町"
  },
  "5270216": {
    "zipcode": "5270216",
    "prefectureCode": "25",
    "prefectureNumber": 25,
    "prefecture": "滋賀県",
    "city": "東近江市",
    "town": "茨川町"
  },
  "5270221": {
    "zipcode": "5270221",
    "prefectureCode": "25",
    "prefectureNumber": 25,
    "prefecture": "滋賀県",
    "city": "東近江市",
    "town": "上二俣町"
  },
  "5270222": {
    "zipcode": "5270222",
    "prefectureCode": "25",
    "prefectureNumber": 25,
    "prefecture": "滋賀県",
    "city": "東近江市",
    "town": "池之脇町"
  },
  "5270223": {
    "zipcode": "5270223",
    "prefectureCode": "25",
    "prefectureNumber": 25,
    "prefecture": "滋賀県",
    "city": "東近江市",
    "town": "高木町"
  },
  "5270224": {
    "zipcode": "5270224",
    "prefectureCode": "25",
    "prefectureNumber": 25,
    "prefecture": "滋賀県",
    "city": "東近江市",
    "town": "市原野町"
  },
  "5270225": {
    "zipcode": "5270225",
    "prefectureCode": "25",
    "prefectureNumber": 25,
    "prefecture": "滋賀県",
    "city": "東近江市",
    "town": "新出町"
  },
  "5270226": {
    "zipcode": "5270226",
    "prefectureCode": "25",
    "prefectureNumber": 25,
    "prefecture": "滋賀県",
    "city": "東近江市",
    "town": "一式町"
  },
  "5270227": {
    "zipcode": "5270227",
    "prefectureCode": "25",
    "prefectureNumber": 25,
    "prefecture": "滋賀県",
    "city": "東近江市",
    "town": "石谷町"
  },
  "5270228": {
    "zipcode": "5270228",
    "prefectureCode": "25",
    "prefectureNumber": 25,
    "prefecture": "滋賀県",
    "city": "東近江市",
    "town": "如来町"
  },
  "5270231": {
    "zipcode": "5270231",
    "prefectureCode": "25",
    "prefectureNumber": 25,
    "prefecture": "滋賀県",
    "city": "東近江市",
    "town": "山上町"
  },
  "5270232": {
    "zipcode": "5270232",
    "prefectureCode": "25",
    "prefectureNumber": 25,
    "prefecture": "滋賀県",
    "city": "東近江市",
    "town": "青野町"
  }
}
