{
  "5290101": {
    "zipcode": "5290101",
    "prefectureCode": "25",
    "prefectureNumber": 25,
    "prefecture": "滋賀県",
    "city": "長浜市",
    "town": "唐国町"
  },
  "5290102": {
    "zipcode": "5290102",
    "prefectureCode": "25",
    "prefectureNumber": 25,
    "prefecture": "滋賀県",
    "city": "長浜市",
    "town": "月ヶ瀬町"
  },
  "5290103": {
    "zipcode": "5290103",
    "prefectureCode": "25",
    "prefectureNumber": 25,
    "prefecture": "滋賀県",
    "city": "長浜市",
    "town": "中野町"
  },
  "5290111": {
    "zipcode": "5290111",
    "prefectureCode": "25",
    "prefectureNumber": 25,
    "prefecture": "滋賀県",
    "city": "長浜市",
    "town": "三川町"
  },
  "5290112": {
    "zipcode": "5290112",
    "prefectureCode": "25",
    "prefectureNumber": 25,
    "prefecture": "滋賀県",
    "city": "長浜市",
    "town": "宮部町"
  },
  "5290113": {
    "zipcode": "5290113",
    "prefectureCode": "25",
    "prefectureNumber": 25,
    "prefecture": "滋賀県",
    "city": "長浜市",
    "town": "大井町"
  },
  "5290121": {
    "zipcode": "5290121",
    "prefectureCode": "25",
    "prefectureNumber": 25,
    "prefecture": "滋賀県",
    "city": "長浜市",
    "town": "桜町"
  },
  "5290122": {
    "zipcode": "5290122",
    "prefectureCode": "25",
    "prefectureNumber": 25,
    "prefecture": "滋賀県",
    "city": "長浜市",
    "town": "酢"
  },
  "5290123": {
    "zipcode": "5290123",
    "prefectureCode": "25",
    "prefectureNumber": 25,
    "prefecture": "滋賀県",
    "city": "長浜市",
    "town": "西大井町"
  },
  "5290131": {
    "zipcode": "5290131",
    "prefectureCode": "25",
    "prefectureNumber": 25,
    "prefecture": "滋賀県",
    "city": "長浜市",
    "town": "柿ノ木"
  },
  "5290132": {
    "zipcode": "5290132",
    "prefectureCode": "25",
    "prefectureNumber": 25,
    "prefecture": "滋賀県",
    "city": "長浜市",
    "town": "長田町"
  },
  "5290133": {
    "zipcode": "5290133",
    "prefectureCode": "25",
    "prefectureNumber": 25,
    "prefecture": "滋賀県",
    "city": "長浜市",
    "town": "新旭町"
  },
  "5290141": {
    "zipcode": "5290141",
    "prefectureCode": "25",
    "prefectureNumber": 25,
    "prefecture": "滋賀県",
    "city": "長浜市",
    "town": "五村"
  },
  "5290142": {
    "zipcode": "5290142",
    "prefectureCode": "25",
    "prefectureNumber": 25,
    "prefecture": "滋賀県",
    "city": "長浜市",
    "town": "田町"
  },
  "5290143": {
    "zipcode": "5290143",
    "prefectureCode": "25",
    "prefectureNumber": 25,
    "prefecture": "滋賀県",
    "city": "長浜市",
    "town": "本町"
  },
  "5290144": {
    "zipcode": "5290144",
    "prefectureCode": "25",
    "prefectureNumber": 25,
    "prefecture": "滋賀県",
    "city": "長浜市",
    "town": "大寺町"
  },
  "5290201": {
    "zipcode": "5290201",
    "prefectureCode": "25",
    "prefectureNumber": 25,
    "prefecture": "滋賀県",
    "city": "長浜市",
    "town": "高月町横山"
  },
  "5290202": {
    "zipcode": "5290202",
    "prefectureCode": "25",
    "prefectureNumber": 25,
    "prefecture": "滋賀県",
    "city": "長浜市",
    "town": "高月町東高田"
  },
  "5290203": {
    "zipcode": "5290203",
    "prefectureCode": "25",
    "prefectureNumber": 25,
    "prefecture": "滋賀県",
    "city": "長浜市",
    "town": "高月町磯野"
  },
  "5290204": {
    "zipcode": "5290204",
    "prefectureCode": "25",
    "prefectureNumber": 25,
    "prefecture": "滋賀県",
    "city": "長浜市",
    "town": "高月町布施"
  },
  "5290205": {
    "zipcode": "5290205",
    "prefectureCode": "25",
    "prefectureNumber": 25,
    "prefecture": "滋賀県",
    "city": "長浜市",
    "town": "高月町唐川"
  },
  "5290211": {
    "zipcode": "5290211",
    "prefectureCode": "25",
    "prefectureNumber": 25,
    "prefecture": "滋賀県",
    "city": "長浜市",
    "town": "高月町保延寺"
  },
  "5290212": {
    "zipcode": "5290212",
    "prefectureCode": "25",
    "prefectureNumber": 25,
    "prefecture": "滋賀県",
    "city": "長浜市",
    "town": "高月町井口"
  },
  "5290213": {
    "zipcode": "5290213",
    "prefectureCode": "25",
    "prefectureNumber": 25,
    "prefecture": "滋賀県",
    "city": "長浜市",
    "town": "高月町持寺"
  },
  "5290214": {
    "zipcode": "5290214",
    "prefectureCode": "25",
    "prefectureNumber": 25,
    "prefecture": "滋賀県",
    "city": "長浜市",
    "town": "高月町洞戸"
  },
  "5290215": {
    "zipcode": "5290215",
    "prefectureCode": "25",
    "prefectureNumber": 25,
    "prefecture": "滋賀県",
    "city": "長浜市",
    "town": "高月町尾山"
  },
  "5290221": {
    "zipcode": "5290221",
    "prefectureCode": "25",
    "prefectureNumber": 25,
    "prefecture": "滋賀県",
    "city": "長浜市",
    "town": "高月町高野"
  },
  "5290222": {
    "zipcode": "5290222",
    "prefectureCode": "25",
    "prefectureNumber": 25,
    "prefecture": "滋賀県",
    "city": "長浜市",
    "town": "高月町雨森"
  },
  "5290223": {
    "zipcode": "5290223",
    "prefectureCode": "25",
    "prefectureNumber": 25,
    "prefecture": "滋賀県",
    "city": "長浜市",
    "town": "高月町馬上"
  },
  "5290231": {
    "zipcode": "5290231",
    "prefectureCode": "25",
    "prefectureNumber": 25,
    "prefecture": "滋賀県",
    "city": "長浜市",
    "town": "高月町森本"
  },
  "5290232": {
    "zipcode": "5290232",
    "prefectureCode": "25",
    "prefectureNumber": 25,
    "prefecture": "滋賀県",
    "city": "長浜市",
    "town": "高月町落川"
  },
  "5290233": {
    "zipcode": "5290233",
    "prefectureCode": "25",
    "prefectureNumber": 25,
    "prefecture": "滋賀県",
    "city": "長浜市",
    "town": "高月町渡岸寺"
  },
  "5290234": {
    "zipcode": "5290234",
    "prefectureCode": "25",
    "prefectureNumber": 25,
    "prefecture": "滋賀県",
    "city": "長浜市",
    "town": "高月町柏原"
  },
  "5290241": {
    "zipcode": "5290241",
    "prefectureCode": "25",
    "prefectureNumber": 25,
    "prefecture": "滋賀県",
    "city": "長浜市",
    "town": "高月町高月"
  },
  "5290251": {
    "zipcode": "5290251",
    "prefectureCode": "25",
    "prefectureNumber": 25,
    "prefecture": "滋賀県",
    "city": "長浜市",
    "town": "高月町宇根"
  },
  "5290252": {
    "zipcode": "5290252",
    "prefectureCode": "25",
    "prefectureNumber": 25,
    "prefecture": "滋賀県",
    "city": "長浜市",
    "town": "高月町東阿閉"
  },
  "5290253": {
    "zipcode": "5290253",
    "prefectureCode": "25",
    "prefectureNumber": 25,
    "prefecture": "滋賀県",
    "city": "長浜市",
    "town": "高月町西阿閉"
  },
  "5290261": {
    "zipcode": "5290261",
    "prefectureCode": "25",
    "prefectureNumber": 25,
    "prefecture": "滋賀県",
    "city": "長浜市",
    "town": "高月町東物部"
  },
  "5290262": {
    "zipcode": "5290262",
    "prefectureCode": "25",
    "prefectureNumber": 25,
    "prefecture": "滋賀県",
    "city": "長浜市",
    "town": "高月町西物部"
  },
  "5290263": {
    "zipcode": "5290263",
    "prefectureCode": "25",
    "prefectureNumber": 25,
    "prefecture": "滋賀県",
    "city": "長浜市",
    "town": "高月町東柳野"
  },
  "5290264": {
    "zipcode": "5290264",
    "prefectureCode": "25",
    "prefectureNumber": 25,
    "prefecture": "滋賀県",
    "city": "長浜市",
    "town": "高月町柳野中"
  },
  "5290265": {
    "zipcode": "5290265",
    "prefectureCode": "25",
    "prefectureNumber": 25,
    "prefecture": "滋賀県",
    "city": "長浜市",
    "town": "高月町西柳野"
  },
  "5290271": {
    "zipcode": "5290271",
    "prefectureCode": "25",
    "prefectureNumber": 25,
    "prefecture": "滋賀県",
    "city": "長浜市",
    "town": "高月町熊野"
  },
  "5290272": {
    "zipcode": "5290272",
    "prefectureCode": "25",
    "prefectureNumber": 25,
    "prefecture": "滋賀県",
    "city": "長浜市",
    "town": "高月町片山"
  },
  "5290273": {
    "zipcode": "5290273",
    "prefectureCode": "25",
    "prefectureNumber": 25,
    "prefecture": "滋賀県",
    "city": "長浜市",
    "town": "高月町西野"
  },
  "5290274": {
    "zipcode": "5290274",
    "prefectureCode": "25",
    "prefectureNumber": 25,
    "prefecture": "滋賀県",
    "city": "長浜市",
    "town": "高月町松尾"
  },
  "5290275": {
    "zipcode": "5290275",
    "prefectureCode": "25",
    "prefectureNumber": 25,
    "prefecture": "滋賀県",
    "city": "長浜市",
    "town": "高月町重則"
  },
  "5290301": {
    "zipcode": "5290301",
    "prefectureCode": "25",
    "prefectureNumber": 25,
    "prefecture": "滋賀県",
    "city": "長浜市",
    "town": "小谷上山田町"
  },
  "5290302": {
    "zipcode": "5290302",
    "prefectureCode": "25",
    "prefectureNumber": 25,
    "prefecture": "滋賀県",
    "city": "長浜市",
    "town": "下山田"
  },
  "5290303": {
    "zipcode": "5290303",
    "prefectureCode": "25",
    "prefectureNumber": 25,
    "prefecture": "滋賀県",
    "city": "長浜市",
    "town": "湖北町二俣"
  },
  "5290304": {
    "zipcode": "5290304",
    "prefectureCode": "25",
    "prefectureNumber": 25,
    "prefecture": "滋賀県",
    "city": "長浜市",
    "town": "小谷丁野町"
  },
  "5290311": {
    "zipcode": "5290311",
    "prefectureCode": "25",
    "prefectureNumber": 25,
    "prefecture": "滋賀県",
    "city": "長浜市",
    "town": "小谷美濃山町"
  },
  "5290312": {
    "zipcode": "5290312",
    "prefectureCode": "25",
    "prefectureNumber": 25,
    "prefecture": "滋賀県",
    "city": "長浜市",
    "town": "小谷郡上町"
  },
  "5290313": {
    "zipcode": "5290313",
    "prefectureCode": "25",
    "prefectureNumber": 25,
    "prefecture": "滋賀県",
    "city": "長浜市",
    "town": "湖北町伊部"
  },
  "5290314": {
    "zipcode": "5290314",
    "prefectureCode": "25",
    "prefectureNumber": 25,
    "prefecture": "滋賀県",
    "city": "長浜市",
    "town": "湖北町留目"
  },
  "5290315": {
    "zipcode": "5290315",
    "prefectureCode": "25",
    "prefectureNumber": 25,
    "prefecture": "滋賀県",
    "city": "長浜市",
    "town": "湖北町別所"
  },
  "5290316": {
    "zipcode": "5290316",
    "prefectureCode": "25",
    "prefectureNumber": 25,
    "prefecture": "滋賀県",
    "city": "長浜市",
    "town": "湖北町河毛"
  },
  "5290317": {
    "zipcode": "5290317",
    "prefectureCode": "25",
    "prefectureNumber": 25,
    "prefecture": "滋賀県",
    "city": "長浜市",
    "town": "湖北町山脇"
  },
  "5290321": {
    "zipcode": "5290321",
    "prefectureCode": "25",
    "prefectureNumber": 25,
    "prefecture": "滋賀県",
    "city": "長浜市",
    "town": "湖北町賀"
  },
  "5290322": {
    "zipcode": "5290322",
    "prefectureCode": "25",
    "prefectureNumber": 25,
    "prefecture": "滋賀県",
    "city": "長浜市",
    "town": "湖北町小今"
  },
  "5290331": {
    "zipcode": "5290331",
    "prefectureCode": "25",
    "prefectureNumber": 25,
    "prefecture": "滋賀県",
    "city": "長浜市",
    "town": "湖北町八日市"
  },
  "5290332": {
    "zipcode": "5290332",
    "prefectureCode": "25",
    "prefectureNumber": 25,
    "prefecture": "滋賀県",
    "city": "長浜市",
    "town": "湖北町青名"
  },
  "5290333": {
    "zipcode": "5290333",
    "prefectureCode": "25",
    "prefectureNumber": 25,
    "prefecture": "滋賀県",
    "city": "長浜市",
    "town": "湖北今町"
  },
  "5290334": {
    "zipcode": "5290334",
    "prefectureCode": "25",
    "prefectureNumber": 25,
    "prefecture": "滋賀県",
    "city": "長浜市",
    "town": "湖北町沢"
  },
  "5290335": {
    "zipcode": "5290335",
    "prefectureCode": "25",
    "prefectureNumber": 25,
    "prefecture": "滋賀県",
    "city": "長浜市",
    "town": "湖北町猫口"
  },
  "5290341": {
    "zipcode": "5290341",
    "prefectureCode": "25",
    "prefectureNumber": 25,
    "prefecture": "滋賀県",
    "city": "長浜市",
    "town": "湖北町速水"
  },
  "5290342": {
    "zipcode": "5290342",
    "prefectureCode": "25",
    "prefectureNumber": 25,
    "prefecture": "滋賀県",
    "city": "長浜市",
    "town": "湖北高田町"
  },
  "5290343": {
    "zipcode": "5290343",
    "prefectureCode": "25",
    "prefectureNumber": 25,
    "prefecture": "滋賀県",
    "city": "長浜市",
    "town": "湖北町小倉"
  },
  "5290344": {
    "zipcode": "5290344",
    "prefectureCode": "25",
    "prefectureNumber": 25,
    "prefecture": "滋賀県",
    "city": "長浜市",
    "town": "湖北町馬渡"
  },
  "5290345": {
    "zipcode": "5290345",
    "prefectureCode": "25",
    "prefectureNumber": 25,
    "prefecture": "滋賀県",
    "city": "長浜市",
    "town": "湖北町大安寺"
  },
  "5290346": {
    "zipcode": "5290346",
    "prefectureCode": "25",
    "prefectureNumber": 25,
    "prefecture": "滋賀県",
    "city": "長浜市",
    "town": "湖北町南速水"
  },
  "5290351": {
    "zipcode": "5290351",
    "prefectureCode": "25",
    "prefectureNumber": 25,
    "prefecture": "滋賀県",
    "city": "長浜市",
    "town": "大光寺町"
  },
  "5290352": {
    "zipcode": "5290352",
    "prefectureCode": "25",
    "prefectureNumber": 25,
    "prefecture": "滋賀県",
    "city": "長浜市",
    "town": "湖北町五坪"
  },
  "5290353": {
    "zipcode": "5290353",
    "prefectureCode": "25",
    "prefectureNumber": 25,
    "prefecture": "滋賀県",
    "city": "長浜市",
    "town": "湖北町田中"
  },
  "5290354": {
    "zipcode": "5290354",
    "prefectureCode": "25",
    "prefectureNumber": 25,
    "prefecture": "滋賀県",
    "city": "長浜市",
    "town": "湖北町山本"
  },
  "5290361": {
    "zipcode": "5290361",
    "prefectureCode": "25",
    "prefectureNumber": 25,
    "prefecture": "滋賀県",
    "city": "長浜市",
    "town": "湖北町石川"
  },
  "5290362": {
    "zipcode": "5290362",
    "prefectureCode": "25",
    "prefectureNumber": 25,
    "prefecture": "滋賀県",
    "city": "長浜市",
    "town": "湖北町津里"
  },
  "5290363": {
    "zipcode": "5290363",
    "prefectureCode": "25",
    "prefectureNumber": 25,
    "prefecture": "滋賀県",
    "city": "長浜市",
    "town": "湖北東尾上町"
  },
  "5290364": {
    "zipcode": "5290364",
    "prefectureCode": "25",
    "prefectureNumber": 25,
    "prefecture": "滋賀県",
    "city": "長浜市",
    "town": "湖北町尾上"
  },
  "5290365": {
    "zipcode": "5290365",
    "prefectureCode": "25",
    "prefectureNumber": 25,
    "prefecture": "滋賀県",
    "city": "長浜市",
    "town": "湖北町今西"
  },
  "5290366": {
    "zipcode": "5290366",
    "prefectureCode": "25",
    "prefectureNumber": 25,
    "prefecture": "滋賀県",
    "city": "長浜市",
    "town": "湖北町延勝寺"
  },
  "5290367": {
    "zipcode": "5290367",
    "prefectureCode": "25",
    "prefectureNumber": 25,
    "prefecture": "滋賀県",
    "city": "長浜市",
    "town": "湖北町海老江"
  },
  "5290401": {
    "zipcode": "5290401",
    "prefectureCode": "25",
    "prefectureNumber": 25,
    "prefecture": "滋賀県",
    "city": "長浜市",
    "town": "木之本町金居原"
  },
  "5290402": {
    "zipcode": "5290402",
    "prefectureCode": "25",
    "prefectureNumber": 25,
    "prefecture": "滋賀県",
    "city": "長浜市",
    "town": "木之本町杉野"
  },
  "5290403": {
    "zipcode": "5290403",
    "prefectureCode": "25",
    "prefectureNumber": 25,
    "prefecture": "滋賀県",
    "city": "長浜市",
    "town": "木之本町音羽"
  },
  "5290404": {
    "zipcode": "5290404",
    "prefectureCode": "25",
    "prefectureNumber": 25,
    "prefecture": "滋賀県",
    "city": "長浜市",
    "town": "木之本町杉本"
  },
  "5290411": {
    "zipcode": "5290411",
    "prefectureCode": "25",
    "prefectureNumber": 25,
    "prefecture": "滋賀県",
    "city": "長浜市",
    "town": "木之本町古橋"
  },
  "5290412": {
    "zipcode": "5290412",
    "prefectureCode": "25",
    "prefectureNumber": 25,
    "prefecture": "滋賀県",
    "city": "長浜市",
    "town": "木之本町石道"
  },
  "5290413": {
    "zipcode": "5290413",
    "prefectureCode": "25",
    "prefectureNumber": 25,
    "prefecture": "滋賀県",
    "city": "長浜市",
    "town": "木之本町小山"
  },
  "5290414": {
    "zipcode": "5290414",
    "prefectureCode": "25",
    "prefectureNumber": 25,
    "prefecture": "滋賀県",
    "city": "長浜市",
    "town": "木之本町川合"
  },
  "5290415": {
    "zipcode": "5290415",
    "prefectureCode": "25",
    "prefectureNumber": 25,
    "prefecture": "滋賀県",
    "city": "長浜市",
    "town": "木之本町大見"
  },
  "5290421": {
    "zipcode": "5290421",
    "prefectureCode": "25",
    "prefectureNumber": 25,
    "prefecture": "滋賀県",
    "city": "長浜市",
    "town": "木之本町アットリ"
  },
  "5290422": {
    "zipcode": "5290422",
    "prefectureCode": "25",
    "prefectureNumber": 25,
    "prefecture": "滋賀県",
    "city": "長浜市",
    "town": "木之本町田部"
  },
  "5290423": {
    "zipcode": "5290423",
    "prefectureCode": "25",
    "prefectureNumber": 25,
    "prefecture": "滋賀県",
    "city": "長浜市",
    "town": "木之本町千田"
  },
  "5290424": {
    "zipcode": "5290424",
    "prefectureCode": "25",
    "prefectureNumber": 25,
    "prefecture": "滋賀県",
    "city": "長浜市",
    "town": "木之本町廣瀬"
  },
  "5290425": {
    "zipcode": "5290425",
    "prefectureCode": "25",
    "prefectureNumber": 25,
    "prefecture": "滋賀県",
    "city": "長浜市",
    "town": "木之本町木之本"
  },
  "5290426": {
    "zipcode": "5290426",
    "prefectureCode": "25",
    "prefectureNumber": 25,
    "prefecture": "滋賀県",
    "city": "長浜市",
    "town": "木之本町黒田"
  },
  "5290431": {
    "zipcode": "5290431",
    "prefectureCode": "25",
    "prefectureNumber": 25,
    "prefecture": "滋賀県",
    "city": "長浜市",
    "town": "木之本町大音"
  },
  "5290432": {
    "zipcode": "5290432",
    "prefectureCode": "25",
    "prefectureNumber": 25,
    "prefecture": "滋賀県",
    "city": "長浜市",
    "town": "木之本町田居"
  },
  "5290433": {
    "zipcode": "5290433",
    "prefectureCode": "25",
    "prefectureNumber": 25,
    "prefecture": "滋賀県",
    "city": "長浜市",
    "town": "木之本町西山"
  },
  "5290434": {
    "zipcode": "5290434",
    "prefectureCode": "25",
    "prefectureNumber": 25,
    "prefecture": "滋賀県",
    "city": "長浜市",
    "town": "木之本町北布施"
  },
  "5290435": {
    "zipcode": "5290435",
    "prefectureCode": "25",
    "prefectureNumber": 25,
    "prefecture": "滋賀県",
    "city": "長浜市",
    "town": "木之本町赤尾"
  },
  "5290436": {
    "zipcode": "5290436",
    "prefectureCode": "25",
    "prefectureNumber": 25,
    "prefecture": "滋賀県",
    "city": "長浜市",
    "town": "木之本町山梨子"
  },
  "5290437": {
    "zipcode": "5290437",
    "prefectureCode": "25",
    "prefectureNumber": 25,
    "prefecture": "滋賀県",
    "city": "長浜市",
    "town": "木之本町飯浦（その他）"
  },
  "5290501": {
    "zipcode": "5290501",
    "prefectureCode": "25",
    "prefectureNumber": 25,
    "prefecture": "滋賀県",
    "city": "長浜市",
    "town": "余呉町針川"
  },
  "5290502": {
    "zipcode": "5290502",
    "prefectureCode": "25",
    "prefectureNumber": 25,
    "prefecture": "滋賀県",
    "city": "長浜市",
    "town": "余呉町尾羽梨"
  },
  "5290503": {
    "zipcode": "5290503",
    "prefectureCode": "25",
    "prefectureNumber": 25,
    "prefecture": "滋賀県",
    "city": "長浜市",
    "town": "余呉町奥川並"
  },
  "5290504": {
    "zipcode": "5290504",
    "prefectureCode": "25",
    "prefectureNumber": 25,
    "prefecture": "滋賀県",
    "city": "長浜市",
    "town": "余呉町田戸"
  },
  "5290505": {
    "zipcode": "5290505",
    "prefectureCode": "25",
    "prefectureNumber": 25,
    "prefecture": "滋賀県",
    "city": "長浜市",
    "town": "余呉町小原"
  },
  "5290506": {
    "zipcode": "5290506",
    "prefectureCode": "25",
    "prefectureNumber": 25,
    "prefecture": "滋賀県",
    "city": "長浜市",
    "town": "余呉町鷲見"
  },
  "5290511": {
    "zipcode": "5290511",
    "prefectureCode": "25",
    "prefectureNumber": 25,
    "prefecture": "滋賀県",
    "city": "長浜市",
    "town": "余呉町菅並"
  },
  "5290512": {
    "zipcode": "5290512",
    "prefectureCode": "25",
    "prefectureNumber": 25,
    "prefecture": "滋賀県",
    "city": "長浜市",
    "town": "余呉町上丹生"
  },
  "5290513": {
    "zipcode": "5290513",
    "prefectureCode": "25",
    "prefectureNumber": 25,
    "prefecture": "滋賀県",
    "city": "長浜市",
    "town": "余呉町摺墨"
  },
  "5290514": {
    "zipcode": "5290514",
    "prefectureCode": "25",
    "prefectureNumber": 25,
    "prefecture": "滋賀県",
    "city": "長浜市",
    "town": "余呉町下丹生"
  },
  "5290515": {
    "zipcode": "5290515",
    "prefectureCode": "25",
    "prefectureNumber": 25,
    "prefecture": "滋賀県",
    "city": "長浜市",
    "town": "余呉町中之郷"
  },
  "5290521": {
    "zipcode": "5290521",
    "prefectureCode": "25",
    "prefectureNumber": 25,
    "prefecture": "滋賀県",
    "city": "長浜市",
    "town": "余呉町下余呉"
  },
  "5290522": {
    "zipcode": "5290522",
    "prefectureCode": "25",
    "prefectureNumber": 25,
    "prefecture": "滋賀県",
    "city": "長浜市",
    "town": "余呉町坂口"
  },
  "5290523": {
    "zipcode": "5290523",
    "prefectureCode": "25",
    "prefectureNumber": 25,
    "prefecture": "滋賀県",
    "city": "長浜市",
    "town": "余呉町川並"
  },
  "5290524": {
    "zipcode": "5290524",
    "prefectureCode": "25",
    "prefectureNumber": 25,
    "prefecture": "滋賀県",
    "city": "長浜市",
    "town": "余呉町八戸"
  },
  "5290525": {
    "zipcode": "5290525",
    "prefectureCode": "25",
    "prefectureNumber": 25,
    "prefecture": "滋賀県",
    "city": "長浜市",
    "town": "余呉町文室"
  },
  "5290526": {
    "zipcode": "5290526",
    "prefectureCode": "25",
    "prefectureNumber": 25,
    "prefecture": "滋賀県",
    "city": "長浜市",
    "town": "余呉町国安"
  },
  "5290527": {
    "zipcode": "5290527",
    "prefectureCode": "25",
    "prefectureNumber": 25,
    "prefecture": "滋賀県",
    "city": "長浜市",
    "town": "余呉町東野"
  },
  "5290531": {
    "zipcode": "5290531",
    "prefectureCode": "25",
    "prefectureNumber": 25,
    "prefecture": "滋賀県",
    "city": "長浜市",
    "town": "余呉町中河内"
  },
  "5290532": {
    "zipcode": "5290532",
    "prefectureCode": "25",
    "prefectureNumber": 25,
    "prefecture": "滋賀県",
    "city": "長浜市",
    "town": "余呉町椿坂"
  },
  "5290533": {
    "zipcode": "5290533",
    "prefectureCode": "25",
    "prefectureNumber": 25,
    "prefecture": "滋賀県",
    "city": "長浜市",
    "town": "余呉町柳ケ瀬"
  },
  "5290534": {
    "zipcode": "5290534",
    "prefectureCode": "25",
    "prefectureNumber": 25,
    "prefecture": "滋賀県",
    "city": "長浜市",
    "town": "余呉町小谷"
  },
  "5290535": {
    "zipcode": "5290535",
    "prefectureCode": "25",
    "prefectureNumber": 25,
    "prefecture": "滋賀県",
    "city": "長浜市",
    "town": "余呉町今市"
  },
  "5290536": {
    "zipcode": "5290536",
    "prefectureCode": "25",
    "prefectureNumber": 25,
    "prefecture": "滋賀県",
    "city": "長浜市",
    "town": "余呉町池原"
  },
  "5290537": {
    "zipcode": "5290537",
    "prefectureCode": "25",
    "prefectureNumber": 25,
    "prefecture": "滋賀県",
    "city": "長浜市",
    "town": "余呉町新堂"
  },
  "5290541": {
    "zipcode": "5290541",
    "prefectureCode": "25",
    "prefectureNumber": 25,
    "prefecture": "滋賀県",
    "city": "長浜市",
    "town": "木之本町飯浦（坂尻）"
  },
  "5290701": {
    "zipcode": "5290701",
    "prefectureCode": "25",
    "prefectureNumber": 25,
    "prefecture": "滋賀県",
    "city": "長浜市",
    "town": "西浅井町塩津浜"
  },
  "5290702": {
    "zipcode": "5290702",
    "prefectureCode": "25",
    "prefectureNumber": 25,
    "prefecture": "滋賀県",
    "city": "長浜市",
    "town": "西浅井町祝山"
  },
  "5290703": {
    "zipcode": "5290703",
    "prefectureCode": "25",
    "prefectureNumber": 25,
    "prefecture": "滋賀県",
    "city": "長浜市",
    "town": "西浅井町野坂"
  },
  "5290704": {
    "zipcode": "5290704",
    "prefectureCode": "25",
    "prefectureNumber": 25,
    "prefecture": "滋賀県",
    "city": "長浜市",
    "town": "西浅井町塩津中"
  },
  "5290705": {
    "zipcode": "5290705",
    "prefectureCode": "25",
    "prefectureNumber": 25,
    "prefecture": "滋賀県",
    "city": "長浜市",
    "town": "西浅井町横波"
  },
  "5290706": {
    "zipcode": "5290706",
    "prefectureCode": "25",
    "prefectureNumber": 25,
    "prefecture": "滋賀県",
    "city": "長浜市",
    "town": "西浅井町余"
  },
  "5290707": {
    "zipcode": "5290707",
    "prefectureCode": "25",
    "prefectureNumber": 25,
    "prefecture": "滋賀県",
    "city": "長浜市",
    "town": "西浅井町集福寺"
  },
  "5290708": {
    "zipcode": "5290708",
    "prefectureCode": "25",
    "prefectureNumber": 25,
    "prefecture": "滋賀県",
    "city": "長浜市",
    "town": "西浅井町沓掛"
  },
  "5290711": {
    "zipcode": "5290711",
    "prefectureCode": "25",
    "prefectureNumber": 25,
    "prefecture": "滋賀県",
    "city": "長浜市",
    "town": "西浅井町岩熊"
  },
  "5290712": {
    "zipcode": "5290712",
    "prefectureCode": "25",
    "prefectureNumber": 25,
    "prefecture": "滋賀県",
    "city": "長浜市",
    "town": "西浅井町月出"
  },
  "5290713": {
    "zipcode": "5290713",
    "prefectureCode": "25",
    "prefectureNumber": 25,
    "prefecture": "滋賀県",
    "city": "長浜市",
    "town": "西浅井町八田部"
  },
  "5290714": {
    "zipcode": "5290714",
    "prefectureCode": "25",
    "prefectureNumber": 25,
    "prefecture": "滋賀県",
    "city": "長浜市",
    "town": "西浅井町小山"
  },
  "5290715": {
    "zipcode": "5290715",
    "prefectureCode": "25",
    "prefectureNumber": 25,
    "prefecture": "滋賀県",
    "city": "長浜市",
    "town": "西浅井町山田"
  },
  "5290721": {
    "zipcode": "5290721",
    "prefectureCode": "25",
    "prefectureNumber": 25,
    "prefecture": "滋賀県",
    "city": "長浜市",
    "town": "西浅井町大浦"
  },
  "5290722": {
    "zipcode": "5290722",
    "prefectureCode": "25",
    "prefectureNumber": 25,
    "prefecture": "滋賀県",
    "city": "長浜市",
    "town": "西浅井町庄"
  },
  "5290723": {
    "zipcode": "5290723",
    "prefectureCode": "25",
    "prefectureNumber": 25,
    "prefecture": "滋賀県",
    "city": "長浜市",
    "town": "西浅井町中"
  },
  "5290724": {
    "zipcode": "5290724",
    "prefectureCode": "25",
    "prefectureNumber": 25,
    "prefecture": "滋賀県",
    "city": "長浜市",
    "town": "西浅井町山門"
  },
  "5290725": {
    "zipcode": "5290725",
    "prefectureCode": "25",
    "prefectureNumber": 25,
    "prefecture": "滋賀県",
    "city": "長浜市",
    "town": "西浅井町黒山"
  },
  "5290726": {
    "zipcode": "5290726",
    "prefectureCode": "25",
    "prefectureNumber": 25,
    "prefecture": "滋賀県",
    "city": "長浜市",
    "town": "西浅井町菅浦"
  },
  "5291100": {
    "zipcode": "5291100",
    "prefectureCode": "25",
    "prefectureNumber": 25,
    "prefecture": "滋賀県",
    "city": "犬上郡豊郷町",
    "town": "以下に掲載がない場合"
  },
  "5291151": {
    "zipcode": "5291151",
    "prefectureCode": "25",
    "prefectureNumber": 25,
    "prefecture": "滋賀県",
    "city": "彦根市",
    "town": "楡町"
  },
  "5291152": {
    "zipcode": "5291152",
    "prefectureCode": "25",
    "prefectureNumber": 25,
    "prefecture": "滋賀県",
    "city": "彦根市",
    "town": "安食中町"
  },
  "5291153": {
    "zipcode": "5291153",
    "prefectureCode": "25",
    "prefectureNumber": 25,
    "prefecture": "滋賀県",
    "city": "彦根市",
    "town": "太堂町"
  },
  "5291154": {
    "zipcode": "5291154",
    "prefectureCode": "25",
    "prefectureNumber": 25,
    "prefecture": "滋賀県",
    "city": "彦根市",
    "town": "千尋町"
  },
  "5291155": {
    "zipcode": "5291155",
    "prefectureCode": "25",
    "prefectureNumber": 25,
    "prefecture": "滋賀県",
    "city": "彦根市",
    "town": "賀田山町"
  },
  "5291156": {
    "zipcode": "5291156",
    "prefectureCode": "25",
    "prefectureNumber": 25,
    "prefecture": "滋賀県",
    "city": "彦根市",
    "town": "清崎町"
  },
  "5291161": {
    "zipcode": "5291161",
    "prefectureCode": "25",
    "prefectureNumber": 25,
    "prefecture": "滋賀県",
    "city": "犬上郡豊郷町",
    "town": "四十九院"
  },
  "5291162": {
    "zipcode": "5291162",
    "prefectureCode": "25",
    "prefectureNumber": 25,
    "prefecture": "滋賀県",
    "city": "犬上郡豊郷町",
    "town": "八町"
  },
  "5291163": {
    "zipcode": "5291163",
    "prefectureCode": "25",
    "prefectureNumber": 25,
    "prefecture": "滋賀県",
    "city": "犬上郡豊郷町",
    "town": "雨降野"
  },
  "5291164": {
    "zipcode": "5291164",
    "prefectureCode": "25",
    "prefectureNumber": 25,
    "prefecture": "滋賀県",
    "city": "犬上郡豊郷町",
    "town": "日栄"
  },
  "5291165": {
    "zipcode": "5291165",
    "prefectureCode": "25",
    "prefectureNumber": 25,
    "prefecture": "滋賀県",
    "city": "犬上郡豊郷町",
    "town": "吉田"
  },
  "5291166": {
    "zipcode": "5291166",
    "prefectureCode": "25",
    "prefectureNumber": 25,
    "prefecture": "滋賀県",
    "city": "犬上郡豊郷町",
    "town": "上枝"
  },
  "5291167": {
    "zipcode": "5291167",
    "prefectureCode": "25",
    "prefectureNumber": 25,
    "prefecture": "滋賀県",
    "city": "犬上郡豊郷町",
    "town": "杉"
  },
  "5291168": {
    "zipcode": "5291168",
    "prefectureCode": "25",
    "prefectureNumber": 25,
    "prefecture": "滋賀県",
    "city": "犬上郡豊郷町",
    "town": "八目"
  },
  "5291169": {
    "zipcode": "5291169",
    "prefectureCode": "25",
    "prefectureNumber": 25,
    "prefecture": "滋賀県",
    "city": "犬上郡豊郷町",
    "town": "石畑"
  },
  "5291171": {
    "zipcode": "5291171",
    "prefectureCode": "25",
    "prefectureNumber": 25,
    "prefecture": "滋賀県",
    "city": "犬上郡豊郷町",
    "town": "安食西"
  },
  "5291172": {
    "zipcode": "5291172",
    "prefectureCode": "25",
    "prefectureNumber": 25,
    "prefecture": "滋賀県",
    "city": "犬上郡豊郷町",
    "town": "安食南"
  },
  "5291173": {
    "zipcode": "5291173",
    "prefectureCode": "25",
    "prefectureNumber": 25,
    "prefecture": "滋賀県",
    "city": "犬上郡豊郷町",
    "town": "高野瀬"
  },
  "5291174": {
    "zipcode": "5291174",
    "prefectureCode": "25",
    "prefectureNumber": 25,
    "prefecture": "滋賀県",
    "city": "犬上郡豊郷町",
    "town": "下枝"
  },
  "5291175": {
    "zipcode": "5291175",
    "prefectureCode": "25",
    "prefectureNumber": 25,
    "prefecture": "滋賀県",
    "city": "犬上郡豊郷町",
    "town": "沢"
  },
  "5291176": {
    "zipcode": "5291176",
    "prefectureCode": "25",
    "prefectureNumber": 25,
    "prefecture": "滋賀県",
    "city": "犬上郡豊郷町",
    "town": "大町"
  },
  "5291177": {
    "zipcode": "5291177",
    "prefectureCode": "25",
    "prefectureNumber": 25,
    "prefecture": "滋賀県",
    "city": "犬上郡豊郷町",
    "town": "三ツ池"
  },
  "5291201": {
    "zipcode": "5291201",
    "prefectureCode": "25",
    "prefectureNumber": 25,
    "prefecture": "滋賀県",
    "city": "愛知郡愛荘町",
    "town": "斧磨"
  },
  "5291202": {
    "zipcode": "5291202",
    "prefectureCode": "25",
    "prefectureNumber": 25,
    "prefecture": "滋賀県",
    "city": "愛知郡愛荘町",
    "town": "松尾寺"
  },
  "5291203": {
    "zipcode": "5291203",
    "prefectureCode": "25",
    "prefectureNumber": 25,
    "prefecture": "滋賀県",
    "city": "愛知郡愛荘町",
    "town": "上蚊野"
  },
  "5291204": {
    "zipcode": "5291204",
    "prefectureCode": "25",
    "prefectureNumber": 25,
    "prefecture": "滋賀県",
    "city": "愛知郡愛荘町",
    "town": "蚊野外"
  },
  "5291205": {
    "zipcode": "5291205",
    "prefectureCode": "25",
    "prefectureNumber": 25,
    "prefecture": "滋賀県",
    "city": "愛知郡愛荘町",
    "town": "軽野"
  },
  "5291206": {
    "zipcode": "5291206",
    "prefectureCode": "25",
    "prefectureNumber": 25,
    "prefecture": "滋賀県",
    "city": "愛知郡愛荘町",
    "town": "蚊野"
  },
  "5291207": {
    "zipcode": "5291207",
    "prefectureCode": "25",
    "prefectureNumber": 25,
    "prefecture": "滋賀県",
    "city": "愛知郡愛荘町",
    "town": "岩倉"
  },
  "5291208": {
    "zipcode": "5291208",
    "prefectureCode": "25",
    "prefectureNumber": 25,
    "prefecture": "滋賀県",
    "city": "愛知郡愛荘町",
    "town": "竹原"
  },
  "5291211": {
    "zipcode": "5291211",
    "prefectureCode": "25",
    "prefectureNumber": 25,
    "prefecture": "滋賀県",
    "city": "愛知郡愛荘町",
    "town": "香之庄"
  },
  "5291212": {
    "zipcode": "5291212",
    "prefectureCode": "25",
    "prefectureNumber": 25,
    "prefecture": "滋賀県",
    "city": "愛知郡愛荘町",
    "town": "元持"
  },
  "5291213": {
    "zipcode": "5291213",
    "prefectureCode": "25",
    "prefectureNumber": 25,
    "prefecture": "滋賀県",
    "city": "愛知郡愛荘町",
    "town": "沖"
  },
  "5291214": {
    "zipcode": "5291214",
    "prefectureCode": "25",
    "prefectureNumber": 25,
    "prefecture": "滋賀県",
    "city": "愛知郡愛荘町",
    "town": "宮後"
  },
  "5291221": {
    "zipcode": "5291221",
    "prefectureCode": "25",
    "prefectureNumber": 25,
    "prefecture": "滋賀県",
    "city": "愛知郡愛荘町",
    "town": "下八木"
  },
  "5291222": {
    "zipcode": "5291222",
    "prefectureCode": "25",
    "prefectureNumber": 25,
    "prefecture": "滋賀県",
    "city": "愛知郡愛荘町",
    "town": "北八木"
  },
  "5291223": {
    "zipcode": "5291223",
    "prefectureCode": "25",
    "prefectureNumber": 25,
    "prefecture": "滋賀県",
    "city": "愛知郡愛荘町",
    "town": "島川"
  },
  "5291224": {
    "zipcode": "5291224",
    "prefectureCode": "25",
    "prefectureNumber": 25,
    "prefecture": "滋賀県",
    "city": "愛知郡愛荘町",
    "town": "長塚"
  },
  "5291225": {
    "zipcode": "5291225",
    "prefectureCode": "25",
    "prefectureNumber": 25,
    "prefecture": "滋賀県",
    "city": "愛知郡愛荘町",
    "town": "栗田"
  },
  "5291226": {
    "zipcode": "5291226",
    "prefectureCode": "25",
    "prefectureNumber": 25,
    "prefecture": "滋賀県",
    "city": "愛知郡愛荘町",
    "town": "南野々目"
  },
  "5291227": {
    "zipcode": "5291227",
    "prefectureCode": "25",
    "prefectureNumber": 25,
    "prefecture": "滋賀県",
    "city": "愛知郡愛荘町",
    "town": "野々目"
  },
  "5291228": {
    "zipcode": "5291228",
    "prefectureCode": "25",
    "prefectureNumber": 25,
    "prefecture": "滋賀県",
    "city": "愛知郡愛荘町",
    "town": "矢守"
  },
  "5291231": {
    "zipcode": "5291231",
    "prefectureCode": "25",
    "prefectureNumber": 25,
    "prefecture": "滋賀県",
    "city": "愛知郡愛荘町",
    "town": "円城寺"
  },
  "5291232": {
    "zipcode": "5291232",
    "prefectureCode": "25",
    "prefectureNumber": 25,
    "prefecture": "滋賀県",
    "city": "愛知郡愛荘町",
    "town": "常安寺"
  },
  "5291233": {
    "zipcode": "5291233",
    "prefectureCode": "25",
    "prefectureNumber": 25,
    "prefecture": "滋賀県",
    "city": "愛知郡愛荘町",
    "town": "東出"
  },
  "5291234": {
    "zipcode": "5291234",
    "prefectureCode": "25",
    "prefectureNumber": 25,
    "prefecture": "滋賀県",
    "city": "愛知郡愛荘町",
    "town": "安孫子"
  },
  "5291235": {
    "zipcode": "5291235",
    "prefectureCode": "25",
    "prefectureNumber": 25,
    "prefecture": "滋賀県",
    "city": "愛知郡愛荘町",
    "town": "目加田"
  },
  "5291236": {
    "zipcode": "5291236",
    "prefectureCode": "25",
    "prefectureNumber": 25,
    "prefecture": "滋賀県",
    "city": "愛知郡愛荘町",
    "town": "深草"
  },
  "5291237": {
    "zipcode": "5291237",
    "prefectureCode": "25",
    "prefectureNumber": 25,
    "prefecture": "滋賀県",
    "city": "愛知郡愛荘町",
    "town": "西出"
  },
  "5291300": {
    "zipcode": "5291300",
    "prefectureCode": "25",
    "prefectureNumber": 25,
    "prefecture": "滋賀県",
    "city": "愛知郡愛荘町",
    "town": "以下に掲載がない場合"
  },
  "5291301": {
    "zipcode": "5291301",
    "prefectureCode": "25",
    "prefectureNumber": 25,
    "prefecture": "滋賀県",
    "city": "愛知郡愛荘町",
    "town": "山川原"
  },
  "5291302": {
    "zipcode": "5291302",
    "prefectureCode": "25",
    "prefectureNumber": 25,
    "prefecture": "滋賀県",
    "city": "愛知郡愛荘町",
    "town": "川原"
  },
  "5291303": {
    "zipcode": "5291303",
    "prefectureCode": "25",
    "prefectureNumber": 25,
    "prefecture": "滋賀県",
    "city": "愛知郡愛荘町",
    "town": "長野"
  },
  "5291311": {
    "zipcode": "5291311",
    "prefectureCode": "25",
    "prefectureNumber": 25,
    "prefecture": "滋賀県",
    "city": "愛知郡愛荘町",
    "town": "石橋"
  },
  "5291312": {
    "zipcode": "5291312",
    "prefectureCode": "25",
    "prefectureNumber": 25,
    "prefecture": "滋賀県",
    "city": "愛知郡愛荘町",
    "town": "川久保"
  },
  "5291313": {
    "zipcode": "5291313",
    "prefectureCode": "25",
    "prefectureNumber": 25,
    "prefecture": "滋賀県",
    "city": "愛知郡愛荘町",
    "town": "市"
  },
  "5291314": {
    "zipcode": "5291314",
    "prefectureCode": "25",
    "prefectureNumber": 25,
    "prefecture": "滋賀県",
    "city": "愛知郡愛荘町",
    "town": "中宿"
  },
  "5291315": {
    "zipcode": "5291315",
    "prefectureCode": "25",
    "prefectureNumber": 25,
    "prefecture": "滋賀県",
    "city": "愛知郡愛荘町",
    "town": "沓掛"
  },
  "5291321": {
    "zipcode": "5291321",
    "prefectureCode": "25",
    "prefectureNumber": 25,
    "prefecture": "滋賀県",
    "city": "愛知郡愛荘町",
    "town": "豊満"
  },
  "5291322": {
    "zipcode": "5291322",
    "prefectureCode": "25",
    "prefectureNumber": 25,
    "prefecture": "滋賀県",
    "city": "愛知郡愛荘町",
    "town": "平居"
  },
  "5291323": {
    "zipcode": "5291323",
    "prefectureCode": "25",
    "prefectureNumber": 25,
    "prefecture": "滋賀県",
    "city": "愛知郡愛荘町",
    "town": "畑田"
  },
  "5291324": {
    "zipcode": "5291324",
    "prefectureCode": "25",
    "prefectureNumber": 25,
    "prefecture": "滋賀県",
    "city": "愛知郡愛荘町",
    "town": "苅間"
  },
  "5291325": {
    "zipcode": "5291325",
    "prefectureCode": "25",
    "prefectureNumber": 25,
    "prefecture": "滋賀県",
    "city": "愛知郡愛荘町",
    "town": "東円堂"
  },
  "5291331": {
    "zipcode": "5291331",
    "prefectureCode": "25",
    "prefectureNumber": 25,
    "prefecture": "滋賀県",
    "city": "愛知郡愛荘町",
    "town": "愛知川"
  },
  "5291401": {
    "zipcode": "5291401",
    "prefectureCode": "25",
    "prefectureNumber": 25,
    "prefecture": "滋賀県",
    "city": "東近江市",
    "town": "五個荘石馬寺町"
  },
  "5291402": {
    "zipcode": "5291402",
    "prefectureCode": "25",
    "prefectureNumber": 25,
    "prefecture": "滋賀県",
    "city": "東近江市",
    "town": "五個荘七里町"
  },
  "5291403": {
    "zipcode": "5291403",
    "prefectureCode": "25",
    "prefectureNumber": 25,
    "prefecture": "滋賀県",
    "city": "東近江市",
    "town": "五個荘日吉町"
  },
  "5291404": {
    "zipcode": "5291404",
    "prefectureCode": "25",
    "prefectureNumber": 25,
    "prefecture": "滋賀県",
    "city": "東近江市",
    "town": "宮荘町"
  },
  "5291405": {
    "zipcode": "5291405",
    "prefectureCode": "25",
    "prefectureNumber": 25,
    "prefecture": "滋賀県",
    "city": "東近江市",
    "town": "五個荘金堂町"
  },
  "5291411": {
    "zipcode": "5291411",
    "prefectureCode": "25",
    "prefectureNumber": 25,
    "prefecture": "滋賀県",
    "city": "東近江市",
    "town": "五個荘河曲町"
  },
  "5291412": {
    "zipcode": "5291412",
    "prefectureCode": "25",
    "prefectureNumber": 25,
    "prefecture": "滋賀県",
    "city": "東近江市",
    "town": "五個荘和田町"
  },
  "5291413": {
    "zipcode": "5291413",
    "prefectureCode": "25",
    "prefectureNumber": 25,
    "prefecture": "滋賀県",
    "city": "東近江市",
    "town": "五個荘簗瀬町"
  },
  "5291414": {
    "zipcode": "5291414",
    "prefectureCode": "25",
    "prefectureNumber": 25,
    "prefecture": "滋賀県",
    "city": "東近江市",
    "town": "五個荘中町"
  },
  "5291415": {
    "zipcode": "5291415",
    "prefectureCode": "25",
    "prefectureNumber": 25,
    "prefecture": "滋賀県",
    "city": "東近江市",
    "town": "五個荘五位田町"
  },
  "5291421": {
    "zipcode": "5291421",
    "prefectureCode": "25",
    "prefectureNumber": 25,
    "prefecture": "滋賀県",
    "city": "東近江市",
    "town": "五個荘竜田町"
  },
  "5291422": {
    "zipcode": "5291422",
    "prefectureCode": "25",
    "prefectureNumber": 25,
    "prefecture": "滋賀県",
    "city": "東近江市",
    "town": "五個荘小幡町"
  },
  "5291423": {
    "zipcode": "5291423",
    "prefectureCode": "25",
    "prefectureNumber": 25,
    "prefecture": "滋賀県",
    "city": "東近江市",
    "town": "五個荘奥町"
  },
  "5291424": {
    "zipcode": "5291424",
    "prefectureCode": "25",
    "prefectureNumber": 25,
    "prefecture": "滋賀県",
    "city": "東近江市",
    "town": "五個荘三俣町"
  },
  "5291425": {
    "zipcode": "5291425",
    "prefectureCode": "25",
    "prefectureNumber": 25,
    "prefecture": "滋賀県",
    "city": "東近江市",
    "town": "五個荘石川町"
  },
  "5291431": {
    "zipcode": "5291431",
    "prefectureCode": "25",
    "prefectureNumber": 25,
    "prefecture": "滋賀県",
    "city": "東近江市",
    "town": "五個荘山本町"
  },
  "5291432": {
    "zipcode": "5291432",
    "prefectureCode": "25",
    "prefectureNumber": 25,
    "prefecture": "滋賀県",
    "city": "東近江市",
    "town": "五個荘新堂町"
  },
  "5291433": {
    "zipcode": "5291433",
    "prefectureCode": "25",
    "prefectureNumber": 25,
    "prefecture": "滋賀県",
    "city": "東近江市",
    "town": "五個荘木流町"
  },
  "5291434": {
    "zipcode": "5291434",
    "prefectureCode": "25",
    "prefectureNumber": 25,
    "prefecture": "滋賀県",
    "city": "東近江市",
    "town": "五個荘平阪町"
  },
  "5291435": {
    "zipcode": "5291435",
    "prefectureCode": "25",
    "prefectureNumber": 25,
    "prefecture": "滋賀県",
    "city": "東近江市",
    "town": "五個荘伊野部町"
  },
  "5291441": {
    "zipcode": "5291441",
    "prefectureCode": "25",
    "prefectureNumber": 25,
    "prefecture": "滋賀県",
    "city": "東近江市",
    "town": "五個荘川並町"
  },
  "5291442": {
    "zipcode": "5291442",
    "prefectureCode": "25",
    "prefectureNumber": 25,
    "prefecture": "滋賀県",
    "city": "東近江市",
    "town": "五個荘塚本町"
  },
  "5291443": {
    "zipcode": "5291443",
    "prefectureCode": "25",
    "prefectureNumber": 25,
    "prefecture": "滋賀県",
    "city": "東近江市",
    "town": "五個荘北町屋町"
  },
  "5291444": {
    "zipcode": "5291444",
    "prefectureCode": "25",
    "prefectureNumber": 25,
    "prefecture": "滋賀県",
    "city": "東近江市",
    "town": "五個荘石塚町"
  },
  "5291445": {
    "zipcode": "5291445",
    "prefectureCode": "25",
    "prefectureNumber": 25,
    "prefecture": "滋賀県",
    "city": "東近江市",
    "town": "五個荘清水鼻町"
  },
  "5291501": {
    "zipcode": "5291501",
    "prefectureCode": "25",
    "prefectureNumber": 25,
    "prefecture": "滋賀県",
    "city": "東近江市",
    "town": "石塔町"
  },
  "5291502": {
    "zipcode": "5291502",
    "prefectureCode": "25",
    "prefectureNumber": 25,
    "prefecture": "滋賀県",
    "city": "東近江市",
    "town": "平林町"
  },
  "5291503": {
    "zipcode": "5291503",
    "prefectureCode": "25",
    "prefectureNumber": 25,
    "prefecture": "滋賀県",
    "city": "東近江市",
    "town": "綺田町"
  },
  "5291504": {
    "zipcode": "5291504",
    "prefectureCode": "25",
    "prefectureNumber": 25,
    "prefecture": "滋賀県",
    "city": "東近江市",
    "town": "蒲生寺町"
  },
  "5291511": {
    "zipcode": "5291511",
    "prefectureCode": "25",
    "prefectureNumber": 25,
    "prefecture": "滋賀県",
    "city": "東近江市",
    "town": "桜川東町"
  },
  "5291512": {
    "zipcode": "5291512",
    "prefectureCode": "25",
    "prefectureNumber": 25,
    "prefecture": "滋賀県",
    "city": "東近江市",
    "town": "大塚町"
  },
  "5291513": {
    "zipcode": "5291513",
    "prefectureCode": "25",
    "prefectureNumber": 25,
    "prefecture": "滋賀県",
    "city": "東近江市",
    "town": "田井町"
  },
  "5291514": {
    "zipcode": "5291514",
    "prefectureCode": "25",
    "prefectureNumber": 25,
    "prefecture": "滋賀県",
    "city": "東近江市",
    "town": "蒲生大森町"
  },
  "5291521": {
    "zipcode": "5291521",
    "prefectureCode": "25",
    "prefectureNumber": 25,
    "prefecture": "滋賀県",
    "city": "東近江市",
    "town": "蒲生岡本町"
  },
  "5291522": {
    "zipcode": "5291522",
    "prefectureCode": "25",
    "prefectureNumber": 25,
    "prefecture": "滋賀県",
    "city": "東近江市",
    "town": "鋳物師町"
  },
  "5291523": {
    "zipcode": "5291523",
    "prefectureCode": "25",
    "prefectureNumber": 25,
    "prefecture": "滋賀県",
    "city": "東近江市",
    "town": "上麻生町"
  },
  "5291524": {
    "zipcode": "5291524",
    "prefectureCode": "25",
    "prefectureNumber": 25,
    "prefecture": "滋賀県",
    "city": "東近江市",
    "town": "下麻生町"
  },
  "5291531": {
    "zipcode": "5291531",
    "prefectureCode": "25",
    "prefectureNumber": 25,
    "prefecture": "滋賀県",
    "city": "東近江市",
    "town": "市子川原町"
  },
  "5291532": {
    "zipcode": "5291532",
    "prefectureCode": "25",
    "prefectureNumber": 25,
    "prefecture": "滋賀県",
    "city": "東近江市",
    "town": "市子松井町"
  },
  "5291533": {
    "zipcode": "5291533",
    "prefectureCode": "25",
    "prefectureNumber": 25,
    "prefecture": "滋賀県",
    "city": "東近江市",
    "town": "市子沖町"
  },
  "5291534": {
    "zipcode": "5291534",
    "prefectureCode": "25",
    "prefectureNumber": 25,
    "prefecture": "滋賀県",
    "city": "東近江市",
    "town": "鈴町"
  },
  "5291535": {
    "zipcode": "5291535",
    "prefectureCode": "25",
    "prefectureNumber": 25,
    "prefecture": "滋賀県",
    "city": "東近江市",
    "town": "上南町"
  },
  "5291536": {
    "zipcode": "5291536",
    "prefectureCode": "25",
    "prefectureNumber": 25,
    "prefecture": "滋賀県",
    "city": "東近江市",
    "town": "合戸町"
  },
  "5291537": {
    "zipcode": "5291537",
    "prefectureCode": "25",
    "prefectureNumber": 25,
    "prefecture": "滋賀県",
    "city": "東近江市",
    "town": "市子殿町"
  },
  "5291541": {
    "zipcode": "5291541",
    "prefectureCode": "25",
    "prefectureNumber": 25,
    "prefecture": "滋賀県",
    "city": "東近江市",
    "town": "蒲生堂町"
  },
  "5291551": {
    "zipcode": "5291551",
    "prefectureCode": "25",
    "prefectureNumber": 25,
    "prefecture": "滋賀県",
    "city": "東近江市",
    "town": "宮川町"
  },
  "5291561": {
    "zipcode": "5291561",
    "prefectureCode": "25",
    "prefectureNumber": 25,
    "prefecture": "滋賀県",
    "city": "東近江市",
    "town": "稲垂町"
  },
  "5291562": {
    "zipcode": "5291562",
    "prefectureCode": "25",
    "prefectureNumber": 25,
    "prefecture": "滋賀県",
    "city": "東近江市",
    "town": "木村町"
  },
  "5291563": {
    "zipcode": "5291563",
    "prefectureCode": "25",
    "prefectureNumber": 25,
    "prefecture": "滋賀県",
    "city": "東近江市",
    "town": "横山町"
  },
  "5291564": {
    "zipcode": "5291564",
    "prefectureCode": "25",
    "prefectureNumber": 25,
    "prefecture": "滋賀県",
    "city": "東近江市",
    "town": "宮井町"
  },
  "5291565": {
    "zipcode": "5291565",
    "prefectureCode": "25",
    "prefectureNumber": 25,
    "prefecture": "滋賀県",
    "city": "東近江市",
    "town": "外原町"
  },
  "5291566": {
    "zipcode": "5291566",
    "prefectureCode": "25",
    "prefectureNumber": 25,
    "prefecture": "滋賀県",
    "city": "東近江市",
    "town": "葛巻町"
  },
  "5291571": {
    "zipcode": "5291571",
    "prefectureCode": "25",
    "prefectureNumber": 25,
    "prefecture": "滋賀県",
    "city": "東近江市",
    "town": "川合町"
  },
  "5291572": {
    "zipcode": "5291572",
    "prefectureCode": "25",
    "prefectureNumber": 25,
    "prefecture": "滋賀県",
    "city": "東近江市",
    "town": "桜川西町"
  },
  "5291600": {
    "zipcode": "5291600",
    "prefectureCode": "25",
    "prefectureNumber": 25,
    "prefecture": "滋賀県",
    "city": "蒲生郡日野町",
    "town": "以下に掲載がない場合"
  },
  "5291601": {
    "zipcode": "5291601",
    "prefectureCode": "25",
    "prefectureNumber": 25,
    "prefecture": "滋賀県",
    "city": "蒲生郡日野町",
    "town": "松尾"
  },
  "5291602": {
    "zipcode": "5291602",
    "prefectureCode": "25",
    "prefectureNumber": 25,
    "prefecture": "滋賀県",
    "city": "蒲生郡日野町",
    "town": "河原"
  },
  "5291603": {
    "zipcode": "5291603",
    "prefectureCode": "25",
    "prefectureNumber": 25,
    "prefecture": "滋賀県",
    "city": "蒲生郡日野町",
    "town": "大窪"
  },
  "5291604": {
    "zipcode": "5291604",
    "prefectureCode": "25",
    "prefectureNumber": 25,
    "prefecture": "滋賀県",
    "city": "蒲生郡日野町",
    "town": "村井"
  },
  "5291605": {
    "zipcode": "5291605",
    "prefectureCode": "25",
    "prefectureNumber": 25,
    "prefecture": "滋賀県",
    "city": "蒲生郡日野町",
    "town": "小井口"
  },
  "5291606": {
    "zipcode": "5291606",
    "prefectureCode": "25",
    "prefectureNumber": 25,
    "prefecture": "滋賀県",
    "city": "蒲生郡日野町",
    "town": "寺尻"
  },
  "5291607": {
    "zipcode": "5291607",
    "prefectureCode": "25",
    "prefectureNumber": 25,
    "prefecture": "滋賀県",
    "city": "蒲生郡日野町",
    "town": "木津"
  },
  "5291608": {
    "zipcode": "5291608",
    "prefectureCode": "25",
    "prefectureNumber": 25,
    "prefecture": "滋賀県",
    "city": "蒲生郡日野町",
    "town": "大谷"
  },
  "5291609": {
    "zipcode": "5291609",
    "prefectureCode": "25",
    "prefectureNumber": 25,
    "prefecture": "滋賀県",
    "city": "蒲生郡日野町",
    "town": "中道"
  },
  "5291610": {
    "zipcode": "5291610",
    "prefectureCode": "25",
    "prefectureNumber": 25,
    "prefecture": "滋賀県",
    "city": "蒲生郡日野町",
    "town": "奥之池"
  },
  "5291611": {
    "zipcode": "5291611",
    "prefectureCode": "25",
    "prefectureNumber": 25,
    "prefecture": "滋賀県",
    "city": "蒲生郡日野町",
    "town": "杣"
  },
  "5291612": {
    "zipcode": "5291612",
    "prefectureCode": "25",
    "prefectureNumber": 25,
    "prefecture": "滋賀県",
    "city": "蒲生郡日野町",
    "town": "杉"
  },
  "5291613": {
    "zipcode": "5291613",
    "prefectureCode": "25",
    "prefectureNumber": 25,
    "prefecture": "滋賀県",
    "city": "蒲生郡日野町",
    "town": "川原"
  },
  "5291614": {
    "zipcode": "5291614",
    "prefectureCode": "25",
    "prefectureNumber": 25,
    "prefecture": "滋賀県",
    "city": "蒲生郡日野町",
    "town": "原"
  },
  "5291615": {
    "zipcode": "5291615",
    "prefectureCode": "25",
    "prefectureNumber": 25,
    "prefecture": "滋賀県",
    "city": "蒲生郡日野町",
    "town": "小野"
  },
  "5291616": {
    "zipcode": "5291616",
    "prefectureCode": "25",
    "prefectureNumber": 25,
    "prefecture": "滋賀県",
    "city": "蒲生郡日野町",
    "town": "奥師"
  },
  "5291617": {
    "zipcode": "5291617",
    "prefectureCode": "25",
    "prefectureNumber": 25,
    "prefecture": "滋賀県",
    "city": "蒲生郡日野町",
    "town": "中之郷"
  },
  "5291618": {
    "zipcode": "5291618",
    "prefectureCode": "25",
    "prefectureNumber": 25,
    "prefecture": "滋賀県",
    "city": "蒲生郡日野町",
    "town": "鳥居平"
  },
  "5291619": {
    "zipcode": "5291619",
    "prefectureCode": "25",
    "prefectureNumber": 25,
    "prefecture": "滋賀県",
    "city": "蒲生郡日野町",
    "town": "佐久良"
  },
  "5291621": {
    "zipcode": "5291621",
    "prefectureCode": "25",
    "prefectureNumber": 25,
    "prefecture": "滋賀県",
    "city": "蒲生郡日野町",
    "town": "西明寺"
  },
  "5291622": {
    "zipcode": "5291622",
    "prefectureCode": "25",
    "prefectureNumber": 25,
    "prefecture": "滋賀県",
    "city": "蒲生郡日野町",
    "town": "北畑"
  },
  "5291623": {
    "zipcode": "5291623",
    "prefectureCode": "25",
    "prefectureNumber": 25,
    "prefecture": "滋賀県",
    "city": "蒲生郡日野町",
    "town": "熊野"
  },
  "5291624": {
    "zipcode": "5291624",
    "prefectureCode": "25",
    "prefectureNumber": 25,
    "prefecture": "滋賀県",
    "city": "蒲生郡日野町",
    "town": "平子"
  },
  "5291625": {
    "zipcode": "5291625",
    "prefectureCode": "25",
    "prefectureNumber": 25,
    "prefecture": "滋賀県",
    "city": "蒲生郡日野町",
    "town": "蔵王"
  },
  "5291626": {
    "zipcode": "5291626",
    "prefectureCode": "25",
    "prefectureNumber": 25,
    "prefecture": "滋賀県",
    "city": "蒲生郡日野町",
    "town": "音羽"
  },
  "5291627": {
    "zipcode": "5291627",
    "prefectureCode": "25",
    "prefectureNumber": 25,
    "prefecture": "滋賀県",
    "city": "蒲生郡日野町",
    "town": "仁本木"
  },
  "5291628": {
    "zipcode": "5291628",
    "prefectureCode": "25",
    "prefectureNumber": 25,
    "prefecture": "滋賀県",
    "city": "蒲生郡日野町",
    "town": "西大路"
  },
  "5291631": {
    "zipcode": "5291631",
    "prefectureCode": "25",
    "prefectureNumber": 25,
    "prefecture": "滋賀県",
    "city": "蒲生郡日野町",
    "town": "鎌掛"
  },
  "5291632": {
    "zipcode": "5291632",
    "prefectureCode": "25",
    "prefectureNumber": 25,
    "prefecture": "滋賀県",
    "city": "蒲生郡日野町",
    "town": "上駒月"
  },
  "5291633": {
    "zipcode": "5291633",
    "prefectureCode": "25",
    "prefectureNumber": 25,
    "prefecture": "滋賀県",
    "city": "蒲生郡日野町",
    "town": "下駒月"
  },
  "5291634": {
    "zipcode": "5291634",
    "prefectureCode": "25",
    "prefectureNumber": 25,
    "prefecture": "滋賀県",
    "city": "蒲生郡日野町",
    "town": "深山口"
  },
  "5291635": {
    "zipcode": "5291635",
    "prefectureCode": "25",
    "prefectureNumber": 25,
    "prefecture": "滋賀県",
    "city": "蒲生郡日野町",
    "town": "迫"
  },
  "5291636": {
    "zipcode": "5291636",
    "prefectureCode": "25",
    "prefectureNumber": 25,
    "prefecture": "滋賀県",
    "city": "蒲生郡日野町",
    "town": "清田"
  },
  "5291641": {
    "zipcode": "5291641",
    "prefectureCode": "25",
    "prefectureNumber": 25,
    "prefecture": "滋賀県",
    "city": "蒲生郡日野町",
    "town": "日田"
  },
  "5291642": {
    "zipcode": "5291642",
    "prefectureCode": "25",
    "prefectureNumber": 25,
    "prefecture": "滋賀県",
    "city": "蒲生郡日野町",
    "town": "上野田"
  },
  "5291643": {
    "zipcode": "5291643",
    "prefectureCode": "25",
    "prefectureNumber": 25,
    "prefecture": "滋賀県",
    "city": "蒲生郡日野町",
    "town": "里口"
  },
  "5291644": {
    "zipcode": "5291644",
    "prefectureCode": "25",
    "prefectureNumber": 25,
    "prefecture": "滋賀県",
    "city": "蒲生郡日野町",
    "town": "内池"
  },
  "5291645": {
    "zipcode": "5291645",
    "prefectureCode": "25",
    "prefectureNumber": 25,
    "prefecture": "滋賀県",
    "city": "蒲生郡日野町",
    "town": "十禅師"
  },
  "5291646": {
    "zipcode": "5291646",
    "prefectureCode": "25",
    "prefectureNumber": 25,
    "prefecture": "滋賀県",
    "city": "蒲生郡日野町",
    "town": "猫田"
  },
  "5291647": {
    "zipcode": "5291647",
    "prefectureCode": "25",
    "prefectureNumber": 25,
    "prefecture": "滋賀県",
    "city": "蒲生郡日野町",
    "town": "別所"
  },
  "5291648": {
    "zipcode": "5291648",
    "prefectureCode": "25",
    "prefectureNumber": 25,
    "prefecture": "滋賀県",
    "city": "蒲生郡日野町",
    "town": "いせの"
  },
  "5291651": {
    "zipcode": "5291651",
    "prefectureCode": "25",
    "prefectureNumber": 25,
    "prefecture": "滋賀県",
    "city": "蒲生郡日野町",
    "town": "山本"
  },
  "5291652": {
    "zipcode": "5291652",
    "prefectureCode": "25",
    "prefectureNumber": 25,
    "prefecture": "滋賀県",
    "city": "蒲生郡日野町",
    "town": "小御門"
  },
  "5291653": {
    "zipcode": "5291653",
    "prefectureCode": "25",
    "prefectureNumber": 25,
    "prefecture": "滋賀県",
    "city": "蒲生郡日野町",
    "town": "三十坪"
  },
  "5291654": {
    "zipcode": "5291654",
    "prefectureCode": "25",
    "prefectureNumber": 25,
    "prefecture": "滋賀県",
    "city": "蒲生郡日野町",
    "town": "小谷"
  },
  "5291655": {
    "zipcode": "5291655",
    "prefectureCode": "25",
    "prefectureNumber": 25,
    "prefecture": "滋賀県",
    "city": "蒲生郡日野町",
    "town": "石原"
  },
  "5291656": {
    "zipcode": "5291656",
    "prefectureCode": "25",
    "prefectureNumber": 25,
    "prefecture": "滋賀県",
    "city": "蒲生郡日野町",
    "town": "増田"
  },
  "5291657": {
    "zipcode": "5291657",
    "prefectureCode": "25",
    "prefectureNumber": 25,
    "prefecture": "滋賀県",
    "city": "蒲生郡日野町",
    "town": "豊田"
  },
  "5291658": {
    "zipcode": "5291658",
    "prefectureCode": "25",
    "prefectureNumber": 25,
    "prefecture": "滋賀県",
    "city": "蒲生郡日野町",
    "town": "中山"
  },
  "5291661": {
    "zipcode": "5291661",
    "prefectureCode": "25",
    "prefectureNumber": 25,
    "prefecture": "滋賀県",
    "city": "蒲生郡日野町",
    "town": "安部居"
  },
  "5291662": {
    "zipcode": "5291662",
    "prefectureCode": "25",
    "prefectureNumber": 25,
    "prefecture": "滋賀県",
    "city": "蒲生郡日野町",
    "town": "中在寺"
  },
  "5291663": {
    "zipcode": "5291663",
    "prefectureCode": "25",
    "prefectureNumber": 25,
    "prefecture": "滋賀県",
    "city": "蒲生郡日野町",
    "town": "北脇"
  },
  "5291664": {
    "zipcode": "5291664",
    "prefectureCode": "25",
    "prefectureNumber": 25,
    "prefecture": "滋賀県",
    "city": "蒲生郡日野町",
    "town": "蓮花寺"
  },
  "5291665": {
    "zipcode": "5291665",
    "prefectureCode": "25",
    "prefectureNumber": 25,
    "prefecture": "滋賀県",
    "city": "蒲生郡日野町",
    "town": "野出"
  },
  "5291801": {
    "zipcode": "5291801",
    "prefectureCode": "25",
    "prefectureNumber": 25,
    "prefecture": "滋賀県",
    "city": "甲賀市",
    "town": "信楽町宮町"
  },
  "5291802": {
    "zipcode": "5291802",
    "prefectureCode": "25",
    "prefectureNumber": 25,
    "prefecture": "滋賀県",
    "city": "甲賀市",
    "town": "信楽町黄瀬"
  },
  "5291803": {
    "zipcode": "5291803",
    "prefectureCode": "25",
    "prefectureNumber": 25,
    "prefecture": "滋賀県",
    "city": "甲賀市",
    "town": "信楽町牧"
  },
  "5291804": {
    "zipcode": "5291804",
    "prefectureCode": "25",
    "prefectureNumber": 25,
    "prefecture": "滋賀県",
    "city": "甲賀市",
    "town": "信楽町勅旨"
  },
  "5291811": {
    "zipcode": "5291811",
    "prefectureCode": "25",
    "prefectureNumber": 25,
    "prefecture": "滋賀県",
    "city": "甲賀市",
    "town": "信楽町江田"
  },
  "5291812": {
    "zipcode": "5291812",
    "prefectureCode": "25",
    "prefectureNumber": 25,
    "prefecture": "滋賀県",
    "city": "甲賀市",
    "town": "信楽町神山"
  },
  "5291813": {
    "zipcode": "5291813",
    "prefectureCode": "25",
    "prefectureNumber": 25,
    "prefecture": "滋賀県",
    "city": "甲賀市",
    "town": "信楽町畑"
  },
  "5291814": {
    "zipcode": "5291814",
    "prefectureCode": "25",
    "prefectureNumber": 25,
    "prefecture": "滋賀県",
    "city": "甲賀市",
    "town": "信楽町田代"
  },
  "5291821": {
    "zipcode": "5291821",
    "prefectureCode": "25",
    "prefectureNumber": 25,
    "prefecture": "滋賀県",
    "city": "甲賀市",
    "town": "信楽町多羅尾"
  },
  "5291831": {
    "zipcode": "5291831",
    "prefectureCode": "25",
    "prefectureNumber": 25,
    "prefecture": "滋賀県",
    "city": "甲賀市",
    "town": "信楽町西"
  },
  "5291832": {
    "zipcode": "5291832",
    "prefectureCode": "25",
    "prefectureNumber": 25,
    "prefecture": "滋賀県",
    "city": "甲賀市",
    "town": "信楽町小川出"
  },
  "5291833": {
    "zipcode": "5291833",
    "prefectureCode": "25",
    "prefectureNumber": 25,
    "prefecture": "滋賀県",
    "city": "甲賀市",
    "town": "信楽町小川"
  },
  "5291834": {
    "zipcode": "5291834",
    "prefectureCode": "25",
    "prefectureNumber": 25,
    "prefecture": "滋賀県",
    "city": "甲賀市",
    "town": "信楽町杉山"
  },
  "5291835": {
    "zipcode": "5291835",
    "prefectureCode": "25",
    "prefectureNumber": 25,
    "prefecture": "滋賀県",
    "city": "甲賀市",
    "town": "信楽町中野"
  },
  "5291836": {
    "zipcode": "5291836",
    "prefectureCode": "25",
    "prefectureNumber": 25,
    "prefecture": "滋賀県",
    "city": "甲賀市",
    "town": "信楽町柞原"
  },
  "5291841": {
    "zipcode": "5291841",
    "prefectureCode": "25",
    "prefectureNumber": 25,
    "prefecture": "滋賀県",
    "city": "甲賀市",
    "town": "信楽町上朝宮"
  },
  "5291842": {
    "zipcode": "5291842",
    "prefectureCode": "25",
    "prefectureNumber": 25,
    "prefecture": "滋賀県",
    "city": "甲賀市",
    "town": "信楽町下朝宮"
  },
  "5291843": {
    "zipcode": "5291843",
    "prefectureCode": "25",
    "prefectureNumber": 25,
    "prefecture": "滋賀県",
    "city": "甲賀市",
    "town": "信楽町宮尻"
  },
  "5291851": {
    "zipcode": "5291851",
    "prefectureCode": "25",
    "prefectureNumber": 25,
    "prefecture": "滋賀県",
    "city": "甲賀市",
    "town": "信楽町長野"
  }
}
