{
  "5300000": {
    "zipcode": "5300000",
    "prefectureCode": "27",
    "prefectureNumber": 27,
    "prefecture": "大阪府",
    "city": "大阪市北区",
    "town": "以下に掲載がない場合"
  },
  "5300001": {
    "zipcode": "5300001",
    "prefectureCode": "27",
    "prefectureNumber": 27,
    "prefecture": "大阪府",
    "city": "大阪市北区",
    "town": "梅田"
  },
  "5300002": {
    "zipcode": "5300002",
    "prefectureCode": "27",
    "prefectureNumber": 27,
    "prefecture": "大阪府",
    "city": "大阪市北区",
    "town": "曽根崎新地"
  },
  "5300003": {
    "zipcode": "5300003",
    "prefectureCode": "27",
    "prefectureNumber": 27,
    "prefecture": "大阪府",
    "city": "大阪市北区",
    "town": "堂島"
  },
  "5300004": {
    "zipcode": "5300004",
    "prefectureCode": "27",
    "prefectureNumber": 27,
    "prefecture": "大阪府",
    "city": "大阪市北区",
    "town": "堂島浜"
  },
  "5300005": {
    "zipcode": "5300005",
    "prefectureCode": "27",
    "prefectureNumber": 27,
    "prefecture": "大阪府",
    "city": "大阪市北区",
    "town": "中之島（次のビルを除く）"
  },
  "5300011": {
    "zipcode": "5300011",
    "prefectureCode": "27",
    "prefectureNumber": 27,
    "prefecture": "大阪府",
    "city": "大阪市北区",
    "town": "大深町"
  },
  "5300012": {
    "zipcode": "5300012",
    "prefectureCode": "27",
    "prefectureNumber": 27,
    "prefecture": "大阪府",
    "city": "大阪市北区",
    "town": "芝田"
  },
  "5300013": {
    "zipcode": "5300013",
    "prefectureCode": "27",
    "prefectureNumber": 27,
    "prefecture": "大阪府",
    "city": "大阪市北区",
    "town": "茶屋町"
  },
  "5300014": {
    "zipcode": "5300014",
    "prefectureCode": "27",
    "prefectureNumber": 27,
    "prefecture": "大阪府",
    "city": "大阪市北区",
    "town": "鶴野町"
  },
  "5300015": {
    "zipcode": "5300015",
    "prefectureCode": "27",
    "prefectureNumber": 27,
    "prefecture": "大阪府",
    "city": "大阪市北区",
    "town": "中崎西"
  },
  "5300016": {
    "zipcode": "5300016",
    "prefectureCode": "27",
    "prefectureNumber": 27,
    "prefecture": "大阪府",
    "city": "大阪市北区",
    "town": "中崎"
  },
  "5300017": {
    "zipcode": "5300017",
    "prefectureCode": "27",
    "prefectureNumber": 27,
    "prefecture": "大阪府",
    "city": "大阪市北区",
    "town": "角田町"
  },
  "5300018": {
    "zipcode": "5300018",
    "prefectureCode": "27",
    "prefectureNumber": 27,
    "prefecture": "大阪府",
    "city": "大阪市北区",
    "town": "小松原町"
  },
  "5300021": {
    "zipcode": "5300021",
    "prefectureCode": "27",
    "prefectureNumber": 27,
    "prefecture": "大阪府",
    "city": "大阪市北区",
    "town": "浮田"
  },
  "5300022": {
    "zipcode": "5300022",
    "prefectureCode": "27",
    "prefectureNumber": 27,
    "prefecture": "大阪府",
    "city": "大阪市北区",
    "town": "浪花町"
  },
  "5300023": {
    "zipcode": "5300023",
    "prefectureCode": "27",
    "prefectureNumber": 27,
    "prefecture": "大阪府",
    "city": "大阪市北区",
    "town": "黒崎町"
  },
  "5300024": {
    "zipcode": "5300024",
    "prefectureCode": "27",
    "prefectureNumber": 27,
    "prefecture": "大阪府",
    "city": "大阪市北区",
    "town": "山崎町"
  },
  "5300025": {
    "zipcode": "5300025",
    "prefectureCode": "27",
    "prefectureNumber": 27,
    "prefecture": "大阪府",
    "city": "大阪市北区",
    "town": "扇町"
  },
  "5300026": {
    "zipcode": "5300026",
    "prefectureCode": "27",
    "prefectureNumber": 27,
    "prefecture": "大阪府",
    "city": "大阪市北区",
    "town": "神山町"
  },
  "5300027": {
    "zipcode": "5300027",
    "prefectureCode": "27",
    "prefectureNumber": 27,
    "prefecture": "大阪府",
    "city": "大阪市北区",
    "town": "堂山町"
  },
  "5300028": {
    "zipcode": "5300028",
    "prefectureCode": "27",
    "prefectureNumber": 27,
    "prefecture": "大阪府",
    "city": "大阪市北区",
    "town": "万歳町"
  },
  "5300031": {
    "zipcode": "5300031",
    "prefectureCode": "27",
    "prefectureNumber": 27,
    "prefecture": "大阪府",
    "city": "大阪市北区",
    "town": "菅栄町"
  },
  "5300032": {
    "zipcode": "5300032",
    "prefectureCode": "27",
    "prefectureNumber": 27,
    "prefecture": "大阪府",
    "city": "大阪市北区",
    "town": "樋之口町"
  },
  "5300033": {
    "zipcode": "5300033",
    "prefectureCode": "27",
    "prefectureNumber": 27,
    "prefecture": "大阪府",
    "city": "大阪市北区",
    "town": "池田町"
  },
  "5300034": {
    "zipcode": "5300034",
    "prefectureCode": "27",
    "prefectureNumber": 27,
    "prefecture": "大阪府",
    "city": "大阪市北区",
    "town": "錦町"
  },
  "5300035": {
    "zipcode": "5300035",
    "prefectureCode": "27",
    "prefectureNumber": 27,
    "prefecture": "大阪府",
    "city": "大阪市北区",
    "town": "同心"
  },
  "5300036": {
    "zipcode": "5300036",
    "prefectureCode": "27",
    "prefectureNumber": 27,
    "prefecture": "大阪府",
    "city": "大阪市北区",
    "town": "与力町"
  },
  "5300037": {
    "zipcode": "5300037",
    "prefectureCode": "27",
    "prefectureNumber": 27,
    "prefecture": "大阪府",
    "city": "大阪市北区",
    "town": "松ケ枝町"
  },
  "5300038": {
    "zipcode": "5300038",
    "prefectureCode": "27",
    "prefectureNumber": 27,
    "prefecture": "大阪府",
    "city": "大阪市北区",
    "town": "紅梅町"
  },
  "5300041": {
    "zipcode": "5300041",
    "prefectureCode": "27",
    "prefectureNumber": 27,
    "prefecture": "大阪府",
    "city": "大阪市北区",
    "town": "天神橋（１〜６丁目）"
  },
  "5300042": {
    "zipcode": "5300042",
    "prefectureCode": "27",
    "prefectureNumber": 27,
    "prefecture": "大阪府",
    "city": "大阪市北区",
    "town": "天満橋（次のビルを除く）"
  },
  "5300043": {
    "zipcode": "5300043",
    "prefectureCode": "27",
    "prefectureNumber": 27,
    "prefecture": "大阪府",
    "city": "大阪市北区",
    "town": "天満"
  },
  "5300044": {
    "zipcode": "5300044",
    "prefectureCode": "27",
    "prefectureNumber": 27,
    "prefecture": "大阪府",
    "city": "大阪市北区",
    "town": "東天満"
  },
  "5300045": {
    "zipcode": "5300045",
    "prefectureCode": "27",
    "prefectureNumber": 27,
    "prefecture": "大阪府",
    "city": "大阪市北区",
    "town": "天神西町"
  },
  "5300046": {
    "zipcode": "5300046",
    "prefectureCode": "27",
    "prefectureNumber": 27,
    "prefecture": "大阪府",
    "city": "大阪市北区",
    "town": "菅原町"
  },
  "5300047": {
    "zipcode": "5300047",
    "prefectureCode": "27",
    "prefectureNumber": 27,
    "prefecture": "大阪府",
    "city": "大阪市北区",
    "town": "西天満"
  },
  "5300051": {
    "zipcode": "5300051",
    "prefectureCode": "27",
    "prefectureNumber": 27,
    "prefecture": "大阪府",
    "city": "大阪市北区",
    "town": "太融寺町"
  },
  "5300052": {
    "zipcode": "5300052",
    "prefectureCode": "27",
    "prefectureNumber": 27,
    "prefecture": "大阪府",
    "city": "大阪市北区",
    "town": "南扇町"
  },
  "5300053": {
    "zipcode": "5300053",
    "prefectureCode": "27",
    "prefectureNumber": 27,
    "prefecture": "大阪府",
    "city": "大阪市北区",
    "town": "末広町"
  },
  "5300054": {
    "zipcode": "5300054",
    "prefectureCode": "27",
    "prefectureNumber": 27,
    "prefecture": "大阪府",
    "city": "大阪市北区",
    "town": "南森町"
  },
  "5300055": {
    "zipcode": "5300055",
    "prefectureCode": "27",
    "prefectureNumber": 27,
    "prefecture": "大阪府",
    "city": "大阪市北区",
    "town": "野崎町"
  },
  "5300056": {
    "zipcode": "5300056",
    "prefectureCode": "27",
    "prefectureNumber": 27,
    "prefecture": "大阪府",
    "city": "大阪市北区",
    "town": "兎我野町"
  },
  "5300057": {
    "zipcode": "5300057",
    "prefectureCode": "27",
    "prefectureNumber": 27,
    "prefecture": "大阪府",
    "city": "大阪市北区",
    "town": "曽根崎"
  },
  "5306001": {
    "zipcode": "5306001",
    "prefectureCode": "27",
    "prefectureNumber": 27,
    "prefecture": "大阪府",
    "city": "大阪市北区",
    "town": "天満橋ＯＡＰタワー（１階）"
  },
  "5306002": {
    "zipcode": "5306002",
    "prefectureCode": "27",
    "prefectureNumber": 27,
    "prefecture": "大阪府",
    "city": "大阪市北区",
    "town": "天満橋ＯＡＰタワー（２階）"
  },
  "5306003": {
    "zipcode": "5306003",
    "prefectureCode": "27",
    "prefectureNumber": 27,
    "prefecture": "大阪府",
    "city": "大阪市北区",
    "town": "天満橋ＯＡＰタワー（３階）"
  },
  "5306004": {
    "zipcode": "5306004",
    "prefectureCode": "27",
    "prefectureNumber": 27,
    "prefecture": "大阪府",
    "city": "大阪市北区",
    "town": "天満橋ＯＡＰタワー（４階）"
  },
  "5306005": {
    "zipcode": "5306005",
    "prefectureCode": "27",
    "prefectureNumber": 27,
    "prefecture": "大阪府",
    "city": "大阪市北区",
    "town": "天満橋ＯＡＰタワー（５階）"
  },
  "5306006": {
    "zipcode": "5306006",
    "prefectureCode": "27",
    "prefectureNumber": 27,
    "prefecture": "大阪府",
    "city": "大阪市北区",
    "town": "天満橋ＯＡＰタワー（６階）"
  },
  "5306007": {
    "zipcode": "5306007",
    "prefectureCode": "27",
    "prefectureNumber": 27,
    "prefecture": "大阪府",
    "city": "大阪市北区",
    "town": "天満橋ＯＡＰタワー（７階）"
  },
  "5306008": {
    "zipcode": "5306008",
    "prefectureCode": "27",
    "prefectureNumber": 27,
    "prefecture": "大阪府",
    "city": "大阪市北区",
    "town": "天満橋ＯＡＰタワー（８階）"
  },
  "5306009": {
    "zipcode": "5306009",
    "prefectureCode": "27",
    "prefectureNumber": 27,
    "prefecture": "大阪府",
    "city": "大阪市北区",
    "town": "天満橋ＯＡＰタワー（９階）"
  },
  "5306010": {
    "zipcode": "5306010",
    "prefectureCode": "27",
    "prefectureNumber": 27,
    "prefecture": "大阪府",
    "city": "大阪市北区",
    "town": "天満橋ＯＡＰタワー（１０階）"
  },
  "5306011": {
    "zipcode": "5306011",
    "prefectureCode": "27",
    "prefectureNumber": 27,
    "prefecture": "大阪府",
    "city": "大阪市北区",
    "town": "天満橋ＯＡＰタワー（１１階）"
  },
  "5306012": {
    "zipcode": "5306012",
    "prefectureCode": "27",
    "prefectureNumber": 27,
    "prefecture": "大阪府",
    "city": "大阪市北区",
    "town": "天満橋ＯＡＰタワー（１２階）"
  },
  "5306013": {
    "zipcode": "5306013",
    "prefectureCode": "27",
    "prefectureNumber": 27,
    "prefecture": "大阪府",
    "city": "大阪市北区",
    "town": "天満橋ＯＡＰタワー（１３階）"
  },
  "5306014": {
    "zipcode": "5306014",
    "prefectureCode": "27",
    "prefectureNumber": 27,
    "prefecture": "大阪府",
    "city": "大阪市北区",
    "town": "天満橋ＯＡＰタワー（１４階）"
  },
  "5306015": {
    "zipcode": "5306015",
    "prefectureCode": "27",
    "prefectureNumber": 27,
    "prefecture": "大阪府",
    "city": "大阪市北区",
    "town": "天満橋ＯＡＰタワー（１５階）"
  },
  "5306016": {
    "zipcode": "5306016",
    "prefectureCode": "27",
    "prefectureNumber": 27,
    "prefecture": "大阪府",
    "city": "大阪市北区",
    "town": "天満橋ＯＡＰタワー（１６階）"
  },
  "5306017": {
    "zipcode": "5306017",
    "prefectureCode": "27",
    "prefectureNumber": 27,
    "prefecture": "大阪府",
    "city": "大阪市北区",
    "town": "天満橋ＯＡＰタワー（１７階）"
  },
  "5306018": {
    "zipcode": "5306018",
    "prefectureCode": "27",
    "prefectureNumber": 27,
    "prefecture": "大阪府",
    "city": "大阪市北区",
    "town": "天満橋ＯＡＰタワー（１８階）"
  },
  "5306019": {
    "zipcode": "5306019",
    "prefectureCode": "27",
    "prefectureNumber": 27,
    "prefecture": "大阪府",
    "city": "大阪市北区",
    "town": "天満橋ＯＡＰタワー（１９階）"
  },
  "5306020": {
    "zipcode": "5306020",
    "prefectureCode": "27",
    "prefectureNumber": 27,
    "prefecture": "大阪府",
    "city": "大阪市北区",
    "town": "天満橋ＯＡＰタワー（２０階）"
  },
  "5306021": {
    "zipcode": "5306021",
    "prefectureCode": "27",
    "prefectureNumber": 27,
    "prefecture": "大阪府",
    "city": "大阪市北区",
    "town": "天満橋ＯＡＰタワー（２１階）"
  },
  "5306022": {
    "zipcode": "5306022",
    "prefectureCode": "27",
    "prefectureNumber": 27,
    "prefecture": "大阪府",
    "city": "大阪市北区",
    "town": "天満橋ＯＡＰタワー（２２階）"
  },
  "5306023": {
    "zipcode": "5306023",
    "prefectureCode": "27",
    "prefectureNumber": 27,
    "prefecture": "大阪府",
    "city": "大阪市北区",
    "town": "天満橋ＯＡＰタワー（２３階）"
  },
  "5306024": {
    "zipcode": "5306024",
    "prefectureCode": "27",
    "prefectureNumber": 27,
    "prefecture": "大阪府",
    "city": "大阪市北区",
    "town": "天満橋ＯＡＰタワー（２４階）"
  },
  "5306025": {
    "zipcode": "5306025",
    "prefectureCode": "27",
    "prefectureNumber": 27,
    "prefecture": "大阪府",
    "city": "大阪市北区",
    "town": "天満橋ＯＡＰタワー（２５階）"
  },
  "5306026": {
    "zipcode": "5306026",
    "prefectureCode": "27",
    "prefectureNumber": 27,
    "prefecture": "大阪府",
    "city": "大阪市北区",
    "town": "天満橋ＯＡＰタワー（２６階）"
  },
  "5306027": {
    "zipcode": "5306027",
    "prefectureCode": "27",
    "prefectureNumber": 27,
    "prefecture": "大阪府",
    "city": "大阪市北区",
    "town": "天満橋ＯＡＰタワー（２７階）"
  },
  "5306028": {
    "zipcode": "5306028",
    "prefectureCode": "27",
    "prefectureNumber": 27,
    "prefecture": "大阪府",
    "city": "大阪市北区",
    "town": "天満橋ＯＡＰタワー（２８階）"
  },
  "5306029": {
    "zipcode": "5306029",
    "prefectureCode": "27",
    "prefectureNumber": 27,
    "prefecture": "大阪府",
    "city": "大阪市北区",
    "town": "天満橋ＯＡＰタワー（２９階）"
  },
  "5306030": {
    "zipcode": "5306030",
    "prefectureCode": "27",
    "prefectureNumber": 27,
    "prefecture": "大阪府",
    "city": "大阪市北区",
    "town": "天満橋ＯＡＰタワー（３０階）"
  },
  "5306031": {
    "zipcode": "5306031",
    "prefectureCode": "27",
    "prefectureNumber": 27,
    "prefecture": "大阪府",
    "city": "大阪市北区",
    "town": "天満橋ＯＡＰタワー（３１階）"
  },
  "5306032": {
    "zipcode": "5306032",
    "prefectureCode": "27",
    "prefectureNumber": 27,
    "prefecture": "大阪府",
    "city": "大阪市北区",
    "town": "天満橋ＯＡＰタワー（３２階）"
  },
  "5306033": {
    "zipcode": "5306033",
    "prefectureCode": "27",
    "prefectureNumber": 27,
    "prefecture": "大阪府",
    "city": "大阪市北区",
    "town": "天満橋ＯＡＰタワー（３３階）"
  },
  "5306034": {
    "zipcode": "5306034",
    "prefectureCode": "27",
    "prefectureNumber": 27,
    "prefecture": "大阪府",
    "city": "大阪市北区",
    "town": "天満橋ＯＡＰタワー（３４階）"
  },
  "5306035": {
    "zipcode": "5306035",
    "prefectureCode": "27",
    "prefectureNumber": 27,
    "prefecture": "大阪府",
    "city": "大阪市北区",
    "town": "天満橋ＯＡＰタワー（３５階）"
  },
  "5306036": {
    "zipcode": "5306036",
    "prefectureCode": "27",
    "prefectureNumber": 27,
    "prefecture": "大阪府",
    "city": "大阪市北区",
    "town": "天満橋ＯＡＰタワー（３６階）"
  },
  "5306037": {
    "zipcode": "5306037",
    "prefectureCode": "27",
    "prefectureNumber": 27,
    "prefecture": "大阪府",
    "city": "大阪市北区",
    "town": "天満橋ＯＡＰタワー（３７階）"
  },
  "5306038": {
    "zipcode": "5306038",
    "prefectureCode": "27",
    "prefectureNumber": 27,
    "prefecture": "大阪府",
    "city": "大阪市北区",
    "town": "天満橋ＯＡＰタワー（３８階）"
  },
  "5306039": {
    "zipcode": "5306039",
    "prefectureCode": "27",
    "prefectureNumber": 27,
    "prefecture": "大阪府",
    "city": "大阪市北区",
    "town": "天満橋ＯＡＰタワー（３９階）"
  },
  "5306090": {
    "zipcode": "5306090",
    "prefectureCode": "27",
    "prefectureNumber": 27,
    "prefecture": "大阪府",
    "city": "大阪市北区",
    "town": "天満橋ＯＡＰタワー（地階・階層不明）"
  },
  "5306101": {
    "zipcode": "5306101",
    "prefectureCode": "27",
    "prefectureNumber": 27,
    "prefecture": "大阪府",
    "city": "大阪市北区",
    "town": "中之島中之島ダイビル（１階）"
  },
  "5306102": {
    "zipcode": "5306102",
    "prefectureCode": "27",
    "prefectureNumber": 27,
    "prefecture": "大阪府",
    "city": "大阪市北区",
    "town": "中之島中之島ダイビル（２階）"
  },
  "5306103": {
    "zipcode": "5306103",
    "prefectureCode": "27",
    "prefectureNumber": 27,
    "prefecture": "大阪府",
    "city": "大阪市北区",
    "town": "中之島中之島ダイビル（３階）"
  },
  "5306104": {
    "zipcode": "5306104",
    "prefectureCode": "27",
    "prefectureNumber": 27,
    "prefecture": "大阪府",
    "city": "大阪市北区",
    "town": "中之島中之島ダイビル（４階）"
  },
  "5306105": {
    "zipcode": "5306105",
    "prefectureCode": "27",
    "prefectureNumber": 27,
    "prefecture": "大阪府",
    "city": "大阪市北区",
    "town": "中之島中之島ダイビル（５階）"
  },
  "5306106": {
    "zipcode": "5306106",
    "prefectureCode": "27",
    "prefectureNumber": 27,
    "prefecture": "大阪府",
    "city": "大阪市北区",
    "town": "中之島中之島ダイビル（６階）"
  },
  "5306107": {
    "zipcode": "5306107",
    "prefectureCode": "27",
    "prefectureNumber": 27,
    "prefecture": "大阪府",
    "city": "大阪市北区",
    "town": "中之島中之島ダイビル（７階）"
  },
  "5306108": {
    "zipcode": "5306108",
    "prefectureCode": "27",
    "prefectureNumber": 27,
    "prefecture": "大阪府",
    "city": "大阪市北区",
    "town": "中之島中之島ダイビル（８階）"
  },
  "5306109": {
    "zipcode": "5306109",
    "prefectureCode": "27",
    "prefectureNumber": 27,
    "prefecture": "大阪府",
    "city": "大阪市北区",
    "town": "中之島中之島ダイビル（９階）"
  },
  "5306110": {
    "zipcode": "5306110",
    "prefectureCode": "27",
    "prefectureNumber": 27,
    "prefecture": "大阪府",
    "city": "大阪市北区",
    "town": "中之島中之島ダイビル（１０階）"
  },
  "5306111": {
    "zipcode": "5306111",
    "prefectureCode": "27",
    "prefectureNumber": 27,
    "prefecture": "大阪府",
    "city": "大阪市北区",
    "town": "中之島中之島ダイビル（１１階）"
  },
  "5306112": {
    "zipcode": "5306112",
    "prefectureCode": "27",
    "prefectureNumber": 27,
    "prefecture": "大阪府",
    "city": "大阪市北区",
    "town": "中之島中之島ダイビル（１２階）"
  },
  "5306113": {
    "zipcode": "5306113",
    "prefectureCode": "27",
    "prefectureNumber": 27,
    "prefecture": "大阪府",
    "city": "大阪市北区",
    "town": "中之島中之島ダイビル（１３階）"
  },
  "5306114": {
    "zipcode": "5306114",
    "prefectureCode": "27",
    "prefectureNumber": 27,
    "prefecture": "大阪府",
    "city": "大阪市北区",
    "town": "中之島中之島ダイビル（１４階）"
  },
  "5306115": {
    "zipcode": "5306115",
    "prefectureCode": "27",
    "prefectureNumber": 27,
    "prefecture": "大阪府",
    "city": "大阪市北区",
    "town": "中之島中之島ダイビル（１５階）"
  },
  "5306116": {
    "zipcode": "5306116",
    "prefectureCode": "27",
    "prefectureNumber": 27,
    "prefecture": "大阪府",
    "city": "大阪市北区",
    "town": "中之島中之島ダイビル（１６階）"
  },
  "5306117": {
    "zipcode": "5306117",
    "prefectureCode": "27",
    "prefectureNumber": 27,
    "prefecture": "大阪府",
    "city": "大阪市北区",
    "town": "中之島中之島ダイビル（１７階）"
  },
  "5306118": {
    "zipcode": "5306118",
    "prefectureCode": "27",
    "prefectureNumber": 27,
    "prefecture": "大阪府",
    "city": "大阪市北区",
    "town": "中之島中之島ダイビル（１８階）"
  },
  "5306119": {
    "zipcode": "5306119",
    "prefectureCode": "27",
    "prefectureNumber": 27,
    "prefecture": "大阪府",
    "city": "大阪市北区",
    "town": "中之島中之島ダイビル（１９階）"
  },
  "5306120": {
    "zipcode": "5306120",
    "prefectureCode": "27",
    "prefectureNumber": 27,
    "prefecture": "大阪府",
    "city": "大阪市北区",
    "town": "中之島中之島ダイビル（２０階）"
  },
  "5306121": {
    "zipcode": "5306121",
    "prefectureCode": "27",
    "prefectureNumber": 27,
    "prefecture": "大阪府",
    "city": "大阪市北区",
    "town": "中之島中之島ダイビル（２１階）"
  },
  "5306122": {
    "zipcode": "5306122",
    "prefectureCode": "27",
    "prefectureNumber": 27,
    "prefecture": "大阪府",
    "city": "大阪市北区",
    "town": "中之島中之島ダイビル（２２階）"
  },
  "5306123": {
    "zipcode": "5306123",
    "prefectureCode": "27",
    "prefectureNumber": 27,
    "prefecture": "大阪府",
    "city": "大阪市北区",
    "town": "中之島中之島ダイビル（２３階）"
  },
  "5306124": {
    "zipcode": "5306124",
    "prefectureCode": "27",
    "prefectureNumber": 27,
    "prefecture": "大阪府",
    "city": "大阪市北区",
    "town": "中之島中之島ダイビル（２４階）"
  },
  "5306125": {
    "zipcode": "5306125",
    "prefectureCode": "27",
    "prefectureNumber": 27,
    "prefecture": "大阪府",
    "city": "大阪市北区",
    "town": "中之島中之島ダイビル（２５階）"
  },
  "5306126": {
    "zipcode": "5306126",
    "prefectureCode": "27",
    "prefectureNumber": 27,
    "prefecture": "大阪府",
    "city": "大阪市北区",
    "town": "中之島中之島ダイビル（２６階）"
  },
  "5306127": {
    "zipcode": "5306127",
    "prefectureCode": "27",
    "prefectureNumber": 27,
    "prefecture": "大阪府",
    "city": "大阪市北区",
    "town": "中之島中之島ダイビル（２７階）"
  },
  "5306128": {
    "zipcode": "5306128",
    "prefectureCode": "27",
    "prefectureNumber": 27,
    "prefecture": "大阪府",
    "city": "大阪市北区",
    "town": "中之島中之島ダイビル（２８階）"
  },
  "5306129": {
    "zipcode": "5306129",
    "prefectureCode": "27",
    "prefectureNumber": 27,
    "prefecture": "大阪府",
    "city": "大阪市北区",
    "town": "中之島中之島ダイビル（２９階）"
  },
  "5306130": {
    "zipcode": "5306130",
    "prefectureCode": "27",
    "prefectureNumber": 27,
    "prefecture": "大阪府",
    "city": "大阪市北区",
    "town": "中之島中之島ダイビル（３０階）"
  },
  "5306131": {
    "zipcode": "5306131",
    "prefectureCode": "27",
    "prefectureNumber": 27,
    "prefecture": "大阪府",
    "city": "大阪市北区",
    "town": "中之島中之島ダイビル（３１階）"
  },
  "5306132": {
    "zipcode": "5306132",
    "prefectureCode": "27",
    "prefectureNumber": 27,
    "prefecture": "大阪府",
    "city": "大阪市北区",
    "town": "中之島中之島ダイビル（３２階）"
  },
  "5306133": {
    "zipcode": "5306133",
    "prefectureCode": "27",
    "prefectureNumber": 27,
    "prefecture": "大阪府",
    "city": "大阪市北区",
    "town": "中之島中之島ダイビル（３３階）"
  },
  "5306134": {
    "zipcode": "5306134",
    "prefectureCode": "27",
    "prefectureNumber": 27,
    "prefecture": "大阪府",
    "city": "大阪市北区",
    "town": "中之島中之島ダイビル（３４階）"
  },
  "5306135": {
    "zipcode": "5306135",
    "prefectureCode": "27",
    "prefectureNumber": 27,
    "prefecture": "大阪府",
    "city": "大阪市北区",
    "town": "中之島中之島ダイビル（３５階）"
  },
  "5306190": {
    "zipcode": "5306190",
    "prefectureCode": "27",
    "prefectureNumber": 27,
    "prefecture": "大阪府",
    "city": "大阪市北区",
    "town": "中之島中之島ダイビル（地階・階層不明）"
  }
}
