{
  "5310041": {
    "zipcode": "5310041",
    "prefectureCode": "27",
    "prefectureNumber": 27,
    "prefecture": "大阪府",
    "city": "大阪市北区",
    "town": "天神橋（７、８丁目）"
  },
  "5310061": {
    "zipcode": "5310061",
    "prefectureCode": "27",
    "prefectureNumber": 27,
    "prefecture": "大阪府",
    "city": "大阪市北区",
    "town": "長柄西"
  },
  "5310062": {
    "zipcode": "5310062",
    "prefectureCode": "27",
    "prefectureNumber": 27,
    "prefecture": "大阪府",
    "city": "大阪市北区",
    "town": "長柄中"
  },
  "5310063": {
    "zipcode": "5310063",
    "prefectureCode": "27",
    "prefectureNumber": 27,
    "prefecture": "大阪府",
    "city": "大阪市北区",
    "town": "長柄東"
  },
  "5310064": {
    "zipcode": "5310064",
    "prefectureCode": "27",
    "prefectureNumber": 27,
    "prefecture": "大阪府",
    "city": "大阪市北区",
    "town": "国分寺"
  },
  "5310071": {
    "zipcode": "5310071",
    "prefectureCode": "27",
    "prefectureNumber": 27,
    "prefecture": "大阪府",
    "city": "大阪市北区",
    "town": "中津"
  },
  "5310072": {
    "zipcode": "5310072",
    "prefectureCode": "27",
    "prefectureNumber": 27,
    "prefecture": "大阪府",
    "city": "大阪市北区",
    "town": "豊崎"
  },
  "5310073": {
    "zipcode": "5310073",
    "prefectureCode": "27",
    "prefectureNumber": 27,
    "prefecture": "大阪府",
    "city": "大阪市北区",
    "town": "本庄西"
  },
  "5310074": {
    "zipcode": "5310074",
    "prefectureCode": "27",
    "prefectureNumber": 27,
    "prefecture": "大阪府",
    "city": "大阪市北区",
    "town": "本庄東"
  },
  "5310075": {
    "zipcode": "5310075",
    "prefectureCode": "27",
    "prefectureNumber": 27,
    "prefecture": "大阪府",
    "city": "大阪市北区",
    "town": "大淀南"
  },
  "5310076": {
    "zipcode": "5310076",
    "prefectureCode": "27",
    "prefectureNumber": 27,
    "prefecture": "大阪府",
    "city": "大阪市北区",
    "town": "大淀中（次のビルを除く）"
  },
  "5310077": {
    "zipcode": "5310077",
    "prefectureCode": "27",
    "prefectureNumber": 27,
    "prefecture": "大阪府",
    "city": "大阪市北区",
    "town": "大淀北"
  },
  "5316001": {
    "zipcode": "5316001",
    "prefectureCode": "27",
    "prefectureNumber": 27,
    "prefecture": "大阪府",
    "city": "大阪市北区",
    "town": "大淀中梅田スカイビルタワーイースト（１階）"
  },
  "5316002": {
    "zipcode": "5316002",
    "prefectureCode": "27",
    "prefectureNumber": 27,
    "prefecture": "大阪府",
    "city": "大阪市北区",
    "town": "大淀中梅田スカイビルタワーイースト（２階）"
  },
  "5316003": {
    "zipcode": "5316003",
    "prefectureCode": "27",
    "prefectureNumber": 27,
    "prefecture": "大阪府",
    "city": "大阪市北区",
    "town": "大淀中梅田スカイビルタワーイースト（３階）"
  },
  "5316004": {
    "zipcode": "5316004",
    "prefectureCode": "27",
    "prefectureNumber": 27,
    "prefecture": "大阪府",
    "city": "大阪市北区",
    "town": "大淀中梅田スカイビルタワーイースト（４階）"
  },
  "5316005": {
    "zipcode": "5316005",
    "prefectureCode": "27",
    "prefectureNumber": 27,
    "prefecture": "大阪府",
    "city": "大阪市北区",
    "town": "大淀中梅田スカイビルタワーイースト（５階）"
  },
  "5316006": {
    "zipcode": "5316006",
    "prefectureCode": "27",
    "prefectureNumber": 27,
    "prefecture": "大阪府",
    "city": "大阪市北区",
    "town": "大淀中梅田スカイビルタワーイースト（６階）"
  },
  "5316007": {
    "zipcode": "5316007",
    "prefectureCode": "27",
    "prefectureNumber": 27,
    "prefecture": "大阪府",
    "city": "大阪市北区",
    "town": "大淀中梅田スカイビルタワーイースト（７階）"
  },
  "5316008": {
    "zipcode": "5316008",
    "prefectureCode": "27",
    "prefectureNumber": 27,
    "prefecture": "大阪府",
    "city": "大阪市北区",
    "town": "大淀中梅田スカイビルタワーイースト（８階）"
  },
  "5316009": {
    "zipcode": "5316009",
    "prefectureCode": "27",
    "prefectureNumber": 27,
    "prefecture": "大阪府",
    "city": "大阪市北区",
    "town": "大淀中梅田スカイビルタワーイースト（９階）"
  },
  "5316010": {
    "zipcode": "5316010",
    "prefectureCode": "27",
    "prefectureNumber": 27,
    "prefecture": "大阪府",
    "city": "大阪市北区",
    "town": "大淀中梅田スカイビルタワーイースト（１０階）"
  },
  "5316011": {
    "zipcode": "5316011",
    "prefectureCode": "27",
    "prefectureNumber": 27,
    "prefecture": "大阪府",
    "city": "大阪市北区",
    "town": "大淀中梅田スカイビルタワーイースト（１１階）"
  },
  "5316012": {
    "zipcode": "5316012",
    "prefectureCode": "27",
    "prefectureNumber": 27,
    "prefecture": "大阪府",
    "city": "大阪市北区",
    "town": "大淀中梅田スカイビルタワーイースト（１２階）"
  },
  "5316013": {
    "zipcode": "5316013",
    "prefectureCode": "27",
    "prefectureNumber": 27,
    "prefecture": "大阪府",
    "city": "大阪市北区",
    "town": "大淀中梅田スカイビルタワーイースト（１３階）"
  },
  "5316014": {
    "zipcode": "5316014",
    "prefectureCode": "27",
    "prefectureNumber": 27,
    "prefecture": "大阪府",
    "city": "大阪市北区",
    "town": "大淀中梅田スカイビルタワーイースト（１４階）"
  },
  "5316015": {
    "zipcode": "5316015",
    "prefectureCode": "27",
    "prefectureNumber": 27,
    "prefecture": "大阪府",
    "city": "大阪市北区",
    "town": "大淀中梅田スカイビルタワーイースト（１５階）"
  },
  "5316016": {
    "zipcode": "5316016",
    "prefectureCode": "27",
    "prefectureNumber": 27,
    "prefecture": "大阪府",
    "city": "大阪市北区",
    "town": "大淀中梅田スカイビルタワーイースト（１６階）"
  },
  "5316017": {
    "zipcode": "5316017",
    "prefectureCode": "27",
    "prefectureNumber": 27,
    "prefecture": "大阪府",
    "city": "大阪市北区",
    "town": "大淀中梅田スカイビルタワーイースト（１７階）"
  },
  "5316018": {
    "zipcode": "5316018",
    "prefectureCode": "27",
    "prefectureNumber": 27,
    "prefecture": "大阪府",
    "city": "大阪市北区",
    "town": "大淀中梅田スカイビルタワーイースト（１８階）"
  },
  "5316019": {
    "zipcode": "5316019",
    "prefectureCode": "27",
    "prefectureNumber": 27,
    "prefecture": "大阪府",
    "city": "大阪市北区",
    "town": "大淀中梅田スカイビルタワーイースト（１９階）"
  },
  "5316020": {
    "zipcode": "5316020",
    "prefectureCode": "27",
    "prefectureNumber": 27,
    "prefecture": "大阪府",
    "city": "大阪市北区",
    "town": "大淀中梅田スカイビルタワーイースト（２０階）"
  },
  "5316021": {
    "zipcode": "5316021",
    "prefectureCode": "27",
    "prefectureNumber": 27,
    "prefecture": "大阪府",
    "city": "大阪市北区",
    "town": "大淀中梅田スカイビルタワーイースト（２１階）"
  },
  "5316022": {
    "zipcode": "5316022",
    "prefectureCode": "27",
    "prefectureNumber": 27,
    "prefecture": "大阪府",
    "city": "大阪市北区",
    "town": "大淀中梅田スカイビルタワーイースト（２２階）"
  },
  "5316023": {
    "zipcode": "5316023",
    "prefectureCode": "27",
    "prefectureNumber": 27,
    "prefecture": "大阪府",
    "city": "大阪市北区",
    "town": "大淀中梅田スカイビルタワーイースト（２３階）"
  },
  "5316024": {
    "zipcode": "5316024",
    "prefectureCode": "27",
    "prefectureNumber": 27,
    "prefecture": "大阪府",
    "city": "大阪市北区",
    "town": "大淀中梅田スカイビルタワーイースト（２４階）"
  },
  "5316025": {
    "zipcode": "5316025",
    "prefectureCode": "27",
    "prefectureNumber": 27,
    "prefecture": "大阪府",
    "city": "大阪市北区",
    "town": "大淀中梅田スカイビルタワーイースト（２５階）"
  },
  "5316026": {
    "zipcode": "5316026",
    "prefectureCode": "27",
    "prefectureNumber": 27,
    "prefecture": "大阪府",
    "city": "大阪市北区",
    "town": "大淀中梅田スカイビルタワーイースト（２６階）"
  },
  "5316027": {
    "zipcode": "5316027",
    "prefectureCode": "27",
    "prefectureNumber": 27,
    "prefecture": "大阪府",
    "city": "大阪市北区",
    "town": "大淀中梅田スカイビルタワーイースト（２７階）"
  },
  "5316028": {
    "zipcode": "5316028",
    "prefectureCode": "27",
    "prefectureNumber": 27,
    "prefecture": "大阪府",
    "city": "大阪市北区",
    "town": "大淀中梅田スカイビルタワーイースト（２８階）"
  },
  "5316029": {
    "zipcode": "5316029",
    "prefectureCode": "27",
    "prefectureNumber": 27,
    "prefecture": "大阪府",
    "city": "大阪市北区",
    "town": "大淀中梅田スカイビルタワーイースト（２９階）"
  },
  "5316030": {
    "zipcode": "5316030",
    "prefectureCode": "27",
    "prefectureNumber": 27,
    "prefecture": "大阪府",
    "city": "大阪市北区",
    "town": "大淀中梅田スカイビルタワーイースト（３０階）"
  },
  "5316031": {
    "zipcode": "5316031",
    "prefectureCode": "27",
    "prefectureNumber": 27,
    "prefecture": "大阪府",
    "city": "大阪市北区",
    "town": "大淀中梅田スカイビルタワーイースト（３１階）"
  },
  "5316032": {
    "zipcode": "5316032",
    "prefectureCode": "27",
    "prefectureNumber": 27,
    "prefecture": "大阪府",
    "city": "大阪市北区",
    "town": "大淀中梅田スカイビルタワーイースト（３２階）"
  },
  "5316033": {
    "zipcode": "5316033",
    "prefectureCode": "27",
    "prefectureNumber": 27,
    "prefecture": "大阪府",
    "city": "大阪市北区",
    "town": "大淀中梅田スカイビルタワーイースト（３３階）"
  },
  "5316034": {
    "zipcode": "5316034",
    "prefectureCode": "27",
    "prefectureNumber": 27,
    "prefecture": "大阪府",
    "city": "大阪市北区",
    "town": "大淀中梅田スカイビルタワーイースト（３４階）"
  },
  "5316035": {
    "zipcode": "5316035",
    "prefectureCode": "27",
    "prefectureNumber": 27,
    "prefecture": "大阪府",
    "city": "大阪市北区",
    "town": "大淀中梅田スカイビルタワーイースト（３５階）"
  },
  "5316036": {
    "zipcode": "5316036",
    "prefectureCode": "27",
    "prefectureNumber": 27,
    "prefecture": "大阪府",
    "city": "大阪市北区",
    "town": "大淀中梅田スカイビルタワーイースト（３６階）"
  },
  "5316037": {
    "zipcode": "5316037",
    "prefectureCode": "27",
    "prefectureNumber": 27,
    "prefecture": "大阪府",
    "city": "大阪市北区",
    "town": "大淀中梅田スカイビルタワーイースト（３７階）"
  },
  "5316038": {
    "zipcode": "5316038",
    "prefectureCode": "27",
    "prefectureNumber": 27,
    "prefecture": "大阪府",
    "city": "大阪市北区",
    "town": "大淀中梅田スカイビルタワーイースト（３８階）"
  },
  "5316039": {
    "zipcode": "5316039",
    "prefectureCode": "27",
    "prefectureNumber": 27,
    "prefecture": "大阪府",
    "city": "大阪市北区",
    "town": "大淀中梅田スカイビルタワーイースト（３９階）"
  },
  "5316090": {
    "zipcode": "5316090",
    "prefectureCode": "27",
    "prefectureNumber": 27,
    "prefecture": "大阪府",
    "city": "大阪市北区",
    "town": "大淀中梅田スカイビルタワーイースト（地階・階層不明）"
  },
  "5316101": {
    "zipcode": "5316101",
    "prefectureCode": "27",
    "prefectureNumber": 27,
    "prefecture": "大阪府",
    "city": "大阪市北区",
    "town": "大淀中梅田スカイビルタワーウエスト（１階）"
  },
  "5316102": {
    "zipcode": "5316102",
    "prefectureCode": "27",
    "prefectureNumber": 27,
    "prefecture": "大阪府",
    "city": "大阪市北区",
    "town": "大淀中梅田スカイビルタワーウエスト（２階）"
  },
  "5316103": {
    "zipcode": "5316103",
    "prefectureCode": "27",
    "prefectureNumber": 27,
    "prefecture": "大阪府",
    "city": "大阪市北区",
    "town": "大淀中梅田スカイビルタワーウエスト（３階）"
  },
  "5316104": {
    "zipcode": "5316104",
    "prefectureCode": "27",
    "prefectureNumber": 27,
    "prefecture": "大阪府",
    "city": "大阪市北区",
    "town": "大淀中梅田スカイビルタワーウエスト（４階）"
  },
  "5316105": {
    "zipcode": "5316105",
    "prefectureCode": "27",
    "prefectureNumber": 27,
    "prefecture": "大阪府",
    "city": "大阪市北区",
    "town": "大淀中梅田スカイビルタワーウエスト（５階）"
  },
  "5316106": {
    "zipcode": "5316106",
    "prefectureCode": "27",
    "prefectureNumber": 27,
    "prefecture": "大阪府",
    "city": "大阪市北区",
    "town": "大淀中梅田スカイビルタワーウエスト（６階）"
  },
  "5316107": {
    "zipcode": "5316107",
    "prefectureCode": "27",
    "prefectureNumber": 27,
    "prefecture": "大阪府",
    "city": "大阪市北区",
    "town": "大淀中梅田スカイビルタワーウエスト（７階）"
  },
  "5316108": {
    "zipcode": "5316108",
    "prefectureCode": "27",
    "prefectureNumber": 27,
    "prefecture": "大阪府",
    "city": "大阪市北区",
    "town": "大淀中梅田スカイビルタワーウエスト（８階）"
  },
  "5316109": {
    "zipcode": "5316109",
    "prefectureCode": "27",
    "prefectureNumber": 27,
    "prefecture": "大阪府",
    "city": "大阪市北区",
    "town": "大淀中梅田スカイビルタワーウエスト（９階）"
  },
  "5316110": {
    "zipcode": "5316110",
    "prefectureCode": "27",
    "prefectureNumber": 27,
    "prefecture": "大阪府",
    "city": "大阪市北区",
    "town": "大淀中梅田スカイビルタワーウエスト（１０階）"
  },
  "5316111": {
    "zipcode": "5316111",
    "prefectureCode": "27",
    "prefectureNumber": 27,
    "prefecture": "大阪府",
    "city": "大阪市北区",
    "town": "大淀中梅田スカイビルタワーウエスト（１１階）"
  },
  "5316112": {
    "zipcode": "5316112",
    "prefectureCode": "27",
    "prefectureNumber": 27,
    "prefecture": "大阪府",
    "city": "大阪市北区",
    "town": "大淀中梅田スカイビルタワーウエスト（１２階）"
  },
  "5316113": {
    "zipcode": "5316113",
    "prefectureCode": "27",
    "prefectureNumber": 27,
    "prefecture": "大阪府",
    "city": "大阪市北区",
    "town": "大淀中梅田スカイビルタワーウエスト（１３階）"
  },
  "5316114": {
    "zipcode": "5316114",
    "prefectureCode": "27",
    "prefectureNumber": 27,
    "prefecture": "大阪府",
    "city": "大阪市北区",
    "town": "大淀中梅田スカイビルタワーウエスト（１４階）"
  },
  "5316115": {
    "zipcode": "5316115",
    "prefectureCode": "27",
    "prefectureNumber": 27,
    "prefecture": "大阪府",
    "city": "大阪市北区",
    "town": "大淀中梅田スカイビルタワーウエスト（１５階）"
  },
  "5316116": {
    "zipcode": "5316116",
    "prefectureCode": "27",
    "prefectureNumber": 27,
    "prefecture": "大阪府",
    "city": "大阪市北区",
    "town": "大淀中梅田スカイビルタワーウエスト（１６階）"
  },
  "5316117": {
    "zipcode": "5316117",
    "prefectureCode": "27",
    "prefectureNumber": 27,
    "prefecture": "大阪府",
    "city": "大阪市北区",
    "town": "大淀中梅田スカイビルタワーウエスト（１７階）"
  },
  "5316118": {
    "zipcode": "5316118",
    "prefectureCode": "27",
    "prefectureNumber": 27,
    "prefecture": "大阪府",
    "city": "大阪市北区",
    "town": "大淀中梅田スカイビルタワーウエスト（１８階）"
  },
  "5316119": {
    "zipcode": "5316119",
    "prefectureCode": "27",
    "prefectureNumber": 27,
    "prefecture": "大阪府",
    "city": "大阪市北区",
    "town": "大淀中梅田スカイビルタワーウエスト（１９階）"
  },
  "5316120": {
    "zipcode": "5316120",
    "prefectureCode": "27",
    "prefectureNumber": 27,
    "prefecture": "大阪府",
    "city": "大阪市北区",
    "town": "大淀中梅田スカイビルタワーウエスト（２０階）"
  },
  "5316121": {
    "zipcode": "5316121",
    "prefectureCode": "27",
    "prefectureNumber": 27,
    "prefecture": "大阪府",
    "city": "大阪市北区",
    "town": "大淀中梅田スカイビルタワーウエスト（２１階）"
  },
  "5316122": {
    "zipcode": "5316122",
    "prefectureCode": "27",
    "prefectureNumber": 27,
    "prefecture": "大阪府",
    "city": "大阪市北区",
    "town": "大淀中梅田スカイビルタワーウエスト（２２階）"
  },
  "5316123": {
    "zipcode": "5316123",
    "prefectureCode": "27",
    "prefectureNumber": 27,
    "prefecture": "大阪府",
    "city": "大阪市北区",
    "town": "大淀中梅田スカイビルタワーウエスト（２３階）"
  },
  "5316124": {
    "zipcode": "5316124",
    "prefectureCode": "27",
    "prefectureNumber": 27,
    "prefecture": "大阪府",
    "city": "大阪市北区",
    "town": "大淀中梅田スカイビルタワーウエスト（２４階）"
  },
  "5316125": {
    "zipcode": "5316125",
    "prefectureCode": "27",
    "prefectureNumber": 27,
    "prefecture": "大阪府",
    "city": "大阪市北区",
    "town": "大淀中梅田スカイビルタワーウエスト（２５階）"
  },
  "5316126": {
    "zipcode": "5316126",
    "prefectureCode": "27",
    "prefectureNumber": 27,
    "prefecture": "大阪府",
    "city": "大阪市北区",
    "town": "大淀中梅田スカイビルタワーウエスト（２６階）"
  },
  "5316127": {
    "zipcode": "5316127",
    "prefectureCode": "27",
    "prefectureNumber": 27,
    "prefecture": "大阪府",
    "city": "大阪市北区",
    "town": "大淀中梅田スカイビルタワーウエスト（２７階）"
  },
  "5316128": {
    "zipcode": "5316128",
    "prefectureCode": "27",
    "prefectureNumber": 27,
    "prefecture": "大阪府",
    "city": "大阪市北区",
    "town": "大淀中梅田スカイビルタワーウエスト（２８階）"
  },
  "5316129": {
    "zipcode": "5316129",
    "prefectureCode": "27",
    "prefectureNumber": 27,
    "prefecture": "大阪府",
    "city": "大阪市北区",
    "town": "大淀中梅田スカイビルタワーウエスト（２９階）"
  },
  "5316130": {
    "zipcode": "5316130",
    "prefectureCode": "27",
    "prefectureNumber": 27,
    "prefecture": "大阪府",
    "city": "大阪市北区",
    "town": "大淀中梅田スカイビルタワーウエスト（３０階）"
  },
  "5316131": {
    "zipcode": "5316131",
    "prefectureCode": "27",
    "prefectureNumber": 27,
    "prefecture": "大阪府",
    "city": "大阪市北区",
    "town": "大淀中梅田スカイビルタワーウエスト（３１階）"
  },
  "5316132": {
    "zipcode": "5316132",
    "prefectureCode": "27",
    "prefectureNumber": 27,
    "prefecture": "大阪府",
    "city": "大阪市北区",
    "town": "大淀中梅田スカイビルタワーウエスト（３２階）"
  },
  "5316133": {
    "zipcode": "5316133",
    "prefectureCode": "27",
    "prefectureNumber": 27,
    "prefecture": "大阪府",
    "city": "大阪市北区",
    "town": "大淀中梅田スカイビルタワーウエスト（３３階）"
  },
  "5316134": {
    "zipcode": "5316134",
    "prefectureCode": "27",
    "prefectureNumber": 27,
    "prefecture": "大阪府",
    "city": "大阪市北区",
    "town": "大淀中梅田スカイビルタワーウエスト（３４階）"
  },
  "5316135": {
    "zipcode": "5316135",
    "prefectureCode": "27",
    "prefectureNumber": 27,
    "prefecture": "大阪府",
    "city": "大阪市北区",
    "town": "大淀中梅田スカイビルタワーウエスト（３５階）"
  },
  "5316136": {
    "zipcode": "5316136",
    "prefectureCode": "27",
    "prefectureNumber": 27,
    "prefecture": "大阪府",
    "city": "大阪市北区",
    "town": "大淀中梅田スカイビルタワーウエスト（３６階）"
  },
  "5316137": {
    "zipcode": "5316137",
    "prefectureCode": "27",
    "prefectureNumber": 27,
    "prefecture": "大阪府",
    "city": "大阪市北区",
    "town": "大淀中梅田スカイビルタワーウエスト（３７階）"
  },
  "5316138": {
    "zipcode": "5316138",
    "prefectureCode": "27",
    "prefectureNumber": 27,
    "prefecture": "大阪府",
    "city": "大阪市北区",
    "town": "大淀中梅田スカイビルタワーウエスト（３８階）"
  },
  "5316139": {
    "zipcode": "5316139",
    "prefectureCode": "27",
    "prefectureNumber": 27,
    "prefecture": "大阪府",
    "city": "大阪市北区",
    "town": "大淀中梅田スカイビルタワーウエスト（３９階）"
  },
  "5316190": {
    "zipcode": "5316190",
    "prefectureCode": "27",
    "prefectureNumber": 27,
    "prefecture": "大阪府",
    "city": "大阪市北区",
    "town": "大淀中梅田スカイビルタワーウエスト（地階・階層不明）"
  }
}
