{
  "5340000": {
    "zipcode": "5340000",
    "prefectureCode": "27",
    "prefectureNumber": 27,
    "prefecture": "大阪府",
    "city": "大阪市都島区",
    "town": "以下に掲載がない場合"
  },
  "5340001": {
    "zipcode": "5340001",
    "prefectureCode": "27",
    "prefectureNumber": 27,
    "prefecture": "大阪府",
    "city": "大阪市都島区",
    "town": "毛馬町"
  },
  "5340002": {
    "zipcode": "5340002",
    "prefectureCode": "27",
    "prefectureNumber": 27,
    "prefecture": "大阪府",
    "city": "大阪市都島区",
    "town": "大東町"
  },
  "5340011": {
    "zipcode": "5340011",
    "prefectureCode": "27",
    "prefectureNumber": 27,
    "prefecture": "大阪府",
    "city": "大阪市都島区",
    "town": "高倉町"
  },
  "5340012": {
    "zipcode": "5340012",
    "prefectureCode": "27",
    "prefectureNumber": 27,
    "prefecture": "大阪府",
    "city": "大阪市都島区",
    "town": "御幸町"
  },
  "5340013": {
    "zipcode": "5340013",
    "prefectureCode": "27",
    "prefectureNumber": 27,
    "prefecture": "大阪府",
    "city": "大阪市都島区",
    "town": "内代町"
  },
  "5340014": {
    "zipcode": "5340014",
    "prefectureCode": "27",
    "prefectureNumber": 27,
    "prefecture": "大阪府",
    "city": "大阪市都島区",
    "town": "都島北通"
  },
  "5340015": {
    "zipcode": "5340015",
    "prefectureCode": "27",
    "prefectureNumber": 27,
    "prefecture": "大阪府",
    "city": "大阪市都島区",
    "town": "善源寺町"
  },
  "5340016": {
    "zipcode": "5340016",
    "prefectureCode": "27",
    "prefectureNumber": 27,
    "prefecture": "大阪府",
    "city": "大阪市都島区",
    "town": "友渕町"
  },
  "5340021": {
    "zipcode": "5340021",
    "prefectureCode": "27",
    "prefectureNumber": 27,
    "prefecture": "大阪府",
    "city": "大阪市都島区",
    "town": "都島本通"
  },
  "5340022": {
    "zipcode": "5340022",
    "prefectureCode": "27",
    "prefectureNumber": 27,
    "prefecture": "大阪府",
    "city": "大阪市都島区",
    "town": "都島中通"
  },
  "5340023": {
    "zipcode": "5340023",
    "prefectureCode": "27",
    "prefectureNumber": 27,
    "prefecture": "大阪府",
    "city": "大阪市都島区",
    "town": "都島南通"
  },
  "5340024": {
    "zipcode": "5340024",
    "prefectureCode": "27",
    "prefectureNumber": 27,
    "prefecture": "大阪府",
    "city": "大阪市都島区",
    "town": "東野田町"
  },
  "5340025": {
    "zipcode": "5340025",
    "prefectureCode": "27",
    "prefectureNumber": 27,
    "prefecture": "大阪府",
    "city": "大阪市都島区",
    "town": "片町"
  },
  "5340026": {
    "zipcode": "5340026",
    "prefectureCode": "27",
    "prefectureNumber": 27,
    "prefecture": "大阪府",
    "city": "大阪市都島区",
    "town": "網島町"
  },
  "5340027": {
    "zipcode": "5340027",
    "prefectureCode": "27",
    "prefectureNumber": 27,
    "prefecture": "大阪府",
    "city": "大阪市都島区",
    "town": "中野町"
  }
}
