{
  "5350000": {
    "zipcode": "5350000",
    "prefectureCode": "27",
    "prefectureNumber": 27,
    "prefecture": "大阪府",
    "city": "大阪市旭区",
    "town": "以下に掲載がない場合"
  },
  "5350001": {
    "zipcode": "5350001",
    "prefectureCode": "27",
    "prefectureNumber": 27,
    "prefecture": "大阪府",
    "city": "大阪市旭区",
    "town": "太子橋"
  },
  "5350002": {
    "zipcode": "5350002",
    "prefectureCode": "27",
    "prefectureNumber": 27,
    "prefecture": "大阪府",
    "city": "大阪市旭区",
    "town": "大宮"
  },
  "5350003": {
    "zipcode": "5350003",
    "prefectureCode": "27",
    "prefectureNumber": 27,
    "prefecture": "大阪府",
    "city": "大阪市旭区",
    "town": "中宮"
  },
  "5350004": {
    "zipcode": "5350004",
    "prefectureCode": "27",
    "prefectureNumber": 27,
    "prefecture": "大阪府",
    "city": "大阪市旭区",
    "town": "生江"
  },
  "5350005": {
    "zipcode": "5350005",
    "prefectureCode": "27",
    "prefectureNumber": 27,
    "prefecture": "大阪府",
    "city": "大阪市旭区",
    "town": "赤川"
  },
  "5350011": {
    "zipcode": "5350011",
    "prefectureCode": "27",
    "prefectureNumber": 27,
    "prefecture": "大阪府",
    "city": "大阪市旭区",
    "town": "今市"
  },
  "5350012": {
    "zipcode": "5350012",
    "prefectureCode": "27",
    "prefectureNumber": 27,
    "prefecture": "大阪府",
    "city": "大阪市旭区",
    "town": "千林"
  },
  "5350013": {
    "zipcode": "5350013",
    "prefectureCode": "27",
    "prefectureNumber": 27,
    "prefecture": "大阪府",
    "city": "大阪市旭区",
    "town": "森小路"
  },
  "5350021": {
    "zipcode": "5350021",
    "prefectureCode": "27",
    "prefectureNumber": 27,
    "prefecture": "大阪府",
    "city": "大阪市旭区",
    "town": "清水"
  },
  "5350022": {
    "zipcode": "5350022",
    "prefectureCode": "27",
    "prefectureNumber": 27,
    "prefecture": "大阪府",
    "city": "大阪市旭区",
    "town": "新森"
  },
  "5350031": {
    "zipcode": "5350031",
    "prefectureCode": "27",
    "prefectureNumber": 27,
    "prefecture": "大阪府",
    "city": "大阪市旭区",
    "town": "高殿"
  }
}
