{
  "5360000": {
    "zipcode": "5360000",
    "prefectureCode": "27",
    "prefectureNumber": 27,
    "prefecture": "大阪府",
    "city": "大阪市城東区",
    "town": "以下に掲載がない場合"
  },
  "5360001": {
    "zipcode": "5360001",
    "prefectureCode": "27",
    "prefectureNumber": 27,
    "prefecture": "大阪府",
    "city": "大阪市城東区",
    "town": "古市"
  },
  "5360002": {
    "zipcode": "5360002",
    "prefectureCode": "27",
    "prefectureNumber": 27,
    "prefecture": "大阪府",
    "city": "大阪市城東区",
    "town": "今福東"
  },
  "5360003": {
    "zipcode": "5360003",
    "prefectureCode": "27",
    "prefectureNumber": 27,
    "prefecture": "大阪府",
    "city": "大阪市城東区",
    "town": "今福南"
  },
  "5360004": {
    "zipcode": "5360004",
    "prefectureCode": "27",
    "prefectureNumber": 27,
    "prefecture": "大阪府",
    "city": "大阪市城東区",
    "town": "今福西"
  },
  "5360005": {
    "zipcode": "5360005",
    "prefectureCode": "27",
    "prefectureNumber": 27,
    "prefecture": "大阪府",
    "city": "大阪市城東区",
    "town": "中央"
  },
  "5360006": {
    "zipcode": "5360006",
    "prefectureCode": "27",
    "prefectureNumber": 27,
    "prefecture": "大阪府",
    "city": "大阪市城東区",
    "town": "野江"
  },
  "5360007": {
    "zipcode": "5360007",
    "prefectureCode": "27",
    "prefectureNumber": 27,
    "prefecture": "大阪府",
    "city": "大阪市城東区",
    "town": "成育"
  },
  "5360008": {
    "zipcode": "5360008",
    "prefectureCode": "27",
    "prefectureNumber": 27,
    "prefecture": "大阪府",
    "city": "大阪市城東区",
    "town": "関目"
  },
  "5360011": {
    "zipcode": "5360011",
    "prefectureCode": "27",
    "prefectureNumber": 27,
    "prefecture": "大阪府",
    "city": "大阪市城東区",
    "town": "放出西"
  },
  "5360012": {
    "zipcode": "5360012",
    "prefectureCode": "27",
    "prefectureNumber": 27,
    "prefecture": "大阪府",
    "city": "大阪市城東区",
    "town": "天王田"
  },
  "5360013": {
    "zipcode": "5360013",
    "prefectureCode": "27",
    "prefectureNumber": 27,
    "prefecture": "大阪府",
    "city": "大阪市城東区",
    "town": "鴫野東"
  },
  "5360014": {
    "zipcode": "5360014",
    "prefectureCode": "27",
    "prefectureNumber": 27,
    "prefecture": "大阪府",
    "city": "大阪市城東区",
    "town": "鴫野西"
  },
  "5360015": {
    "zipcode": "5360015",
    "prefectureCode": "27",
    "prefectureNumber": 27,
    "prefecture": "大阪府",
    "city": "大阪市城東区",
    "town": "新喜多"
  },
  "5360016": {
    "zipcode": "5360016",
    "prefectureCode": "27",
    "prefectureNumber": 27,
    "prefecture": "大阪府",
    "city": "大阪市城東区",
    "town": "蒲生"
  },
  "5360017": {
    "zipcode": "5360017",
    "prefectureCode": "27",
    "prefectureNumber": 27,
    "prefecture": "大阪府",
    "city": "大阪市城東区",
    "town": "新喜多東"
  },
  "5360021": {
    "zipcode": "5360021",
    "prefectureCode": "27",
    "prefectureNumber": 27,
    "prefecture": "大阪府",
    "city": "大阪市城東区",
    "town": "諏訪"
  },
  "5360022": {
    "zipcode": "5360022",
    "prefectureCode": "27",
    "prefectureNumber": 27,
    "prefecture": "大阪府",
    "city": "大阪市城東区",
    "town": "永田"
  },
  "5360023": {
    "zipcode": "5360023",
    "prefectureCode": "27",
    "prefectureNumber": 27,
    "prefecture": "大阪府",
    "city": "大阪市城東区",
    "town": "東中浜"
  },
  "5360024": {
    "zipcode": "5360024",
    "prefectureCode": "27",
    "prefectureNumber": 27,
    "prefecture": "大阪府",
    "city": "大阪市城東区",
    "town": "中浜"
  },
  "5360025": {
    "zipcode": "5360025",
    "prefectureCode": "27",
    "prefectureNumber": 27,
    "prefecture": "大阪府",
    "city": "大阪市城東区",
    "town": "森之宮"
  }
}
