{
  "5370000": {
    "zipcode": "5370000",
    "prefectureCode": "27",
    "prefectureNumber": 27,
    "prefecture": "大阪府",
    "city": "大阪市東成区",
    "town": "以下に掲載がない場合"
  },
  "5370001": {
    "zipcode": "5370001",
    "prefectureCode": "27",
    "prefectureNumber": 27,
    "prefecture": "大阪府",
    "city": "大阪市東成区",
    "town": "深江北"
  },
  "5370002": {
    "zipcode": "5370002",
    "prefectureCode": "27",
    "prefectureNumber": 27,
    "prefecture": "大阪府",
    "city": "大阪市東成区",
    "town": "深江南"
  },
  "5370003": {
    "zipcode": "5370003",
    "prefectureCode": "27",
    "prefectureNumber": 27,
    "prefecture": "大阪府",
    "city": "大阪市東成区",
    "town": "神路"
  },
  "5370011": {
    "zipcode": "5370011",
    "prefectureCode": "27",
    "prefectureNumber": 27,
    "prefecture": "大阪府",
    "city": "大阪市東成区",
    "town": "東今里"
  },
  "5370012": {
    "zipcode": "5370012",
    "prefectureCode": "27",
    "prefectureNumber": 27,
    "prefecture": "大阪府",
    "city": "大阪市東成区",
    "town": "大今里"
  },
  "5370013": {
    "zipcode": "5370013",
    "prefectureCode": "27",
    "prefectureNumber": 27,
    "prefecture": "大阪府",
    "city": "大阪市東成区",
    "town": "大今里南"
  },
  "5370014": {
    "zipcode": "5370014",
    "prefectureCode": "27",
    "prefectureNumber": 27,
    "prefecture": "大阪府",
    "city": "大阪市東成区",
    "town": "大今里西"
  },
  "5370021": {
    "zipcode": "5370021",
    "prefectureCode": "27",
    "prefectureNumber": 27,
    "prefecture": "大阪府",
    "city": "大阪市東成区",
    "town": "東中本"
  },
  "5370022": {
    "zipcode": "5370022",
    "prefectureCode": "27",
    "prefectureNumber": 27,
    "prefecture": "大阪府",
    "city": "大阪市東成区",
    "town": "中本"
  },
  "5370023": {
    "zipcode": "5370023",
    "prefectureCode": "27",
    "prefectureNumber": 27,
    "prefecture": "大阪府",
    "city": "大阪市東成区",
    "town": "玉津"
  },
  "5370024": {
    "zipcode": "5370024",
    "prefectureCode": "27",
    "prefectureNumber": 27,
    "prefecture": "大阪府",
    "city": "大阪市東成区",
    "town": "東小橋"
  },
  "5370025": {
    "zipcode": "5370025",
    "prefectureCode": "27",
    "prefectureNumber": 27,
    "prefecture": "大阪府",
    "city": "大阪市東成区",
    "town": "中道"
  }
}
