{
  "5380000": {
    "zipcode": "5380000",
    "prefectureCode": "27",
    "prefectureNumber": 27,
    "prefecture": "大阪府",
    "city": "大阪市鶴見区",
    "town": "以下に掲載がない場合"
  },
  "5380031": {
    "zipcode": "5380031",
    "prefectureCode": "27",
    "prefectureNumber": 27,
    "prefecture": "大阪府",
    "city": "大阪市鶴見区",
    "town": "茨田大宮"
  },
  "5380032": {
    "zipcode": "5380032",
    "prefectureCode": "27",
    "prefectureNumber": 27,
    "prefecture": "大阪府",
    "city": "大阪市鶴見区",
    "town": "安田"
  },
  "5380033": {
    "zipcode": "5380033",
    "prefectureCode": "27",
    "prefectureNumber": 27,
    "prefecture": "大阪府",
    "city": "大阪市鶴見区",
    "town": "中茶屋"
  },
  "5380034": {
    "zipcode": "5380034",
    "prefectureCode": "27",
    "prefectureNumber": 27,
    "prefecture": "大阪府",
    "city": "大阪市鶴見区",
    "town": "徳庵"
  },
  "5380035": {
    "zipcode": "5380035",
    "prefectureCode": "27",
    "prefectureNumber": 27,
    "prefecture": "大阪府",
    "city": "大阪市鶴見区",
    "town": "浜"
  },
  "5380036": {
    "zipcode": "5380036",
    "prefectureCode": "27",
    "prefectureNumber": 27,
    "prefecture": "大阪府",
    "city": "大阪市鶴見区",
    "town": "緑地公園"
  },
  "5380037": {
    "zipcode": "5380037",
    "prefectureCode": "27",
    "prefectureNumber": 27,
    "prefecture": "大阪府",
    "city": "大阪市鶴見区",
    "town": "焼野"
  },
  "5380041": {
    "zipcode": "5380041",
    "prefectureCode": "27",
    "prefectureNumber": 27,
    "prefecture": "大阪府",
    "city": "大阪市鶴見区",
    "town": "今津北"
  },
  "5380042": {
    "zipcode": "5380042",
    "prefectureCode": "27",
    "prefectureNumber": 27,
    "prefecture": "大阪府",
    "city": "大阪市鶴見区",
    "town": "今津中"
  },
  "5380043": {
    "zipcode": "5380043",
    "prefectureCode": "27",
    "prefectureNumber": 27,
    "prefecture": "大阪府",
    "city": "大阪市鶴見区",
    "town": "今津南"
  },
  "5380044": {
    "zipcode": "5380044",
    "prefectureCode": "27",
    "prefectureNumber": 27,
    "prefecture": "大阪府",
    "city": "大阪市鶴見区",
    "town": "放出東"
  },
  "5380051": {
    "zipcode": "5380051",
    "prefectureCode": "27",
    "prefectureNumber": 27,
    "prefecture": "大阪府",
    "city": "大阪市鶴見区",
    "town": "諸口"
  },
  "5380052": {
    "zipcode": "5380052",
    "prefectureCode": "27",
    "prefectureNumber": 27,
    "prefecture": "大阪府",
    "city": "大阪市鶴見区",
    "town": "横堤"
  },
  "5380053": {
    "zipcode": "5380053",
    "prefectureCode": "27",
    "prefectureNumber": 27,
    "prefecture": "大阪府",
    "city": "大阪市鶴見区",
    "town": "鶴見"
  },
  "5380054": {
    "zipcode": "5380054",
    "prefectureCode": "27",
    "prefectureNumber": 27,
    "prefecture": "大阪府",
    "city": "大阪市鶴見区",
    "town": "緑"
  }
}
