{
  "5410041": {
    "zipcode": "5410041",
    "prefectureCode": "27",
    "prefectureNumber": 27,
    "prefecture": "大阪府",
    "city": "大阪市中央区",
    "town": "北浜"
  },
  "5410042": {
    "zipcode": "5410042",
    "prefectureCode": "27",
    "prefectureNumber": 27,
    "prefecture": "大阪府",
    "city": "大阪市中央区",
    "town": "今橋"
  },
  "5410043": {
    "zipcode": "5410043",
    "prefectureCode": "27",
    "prefectureNumber": 27,
    "prefecture": "大阪府",
    "city": "大阪市中央区",
    "town": "高麗橋"
  },
  "5410044": {
    "zipcode": "5410044",
    "prefectureCode": "27",
    "prefectureNumber": 27,
    "prefecture": "大阪府",
    "city": "大阪市中央区",
    "town": "伏見町"
  },
  "5410045": {
    "zipcode": "5410045",
    "prefectureCode": "27",
    "prefectureNumber": 27,
    "prefecture": "大阪府",
    "city": "大阪市中央区",
    "town": "道修町"
  },
  "5410046": {
    "zipcode": "5410046",
    "prefectureCode": "27",
    "prefectureNumber": 27,
    "prefecture": "大阪府",
    "city": "大阪市中央区",
    "town": "平野町"
  },
  "5410047": {
    "zipcode": "5410047",
    "prefectureCode": "27",
    "prefectureNumber": 27,
    "prefecture": "大阪府",
    "city": "大阪市中央区",
    "town": "淡路町"
  },
  "5410048": {
    "zipcode": "5410048",
    "prefectureCode": "27",
    "prefectureNumber": 27,
    "prefecture": "大阪府",
    "city": "大阪市中央区",
    "town": "瓦町"
  },
  "5410051": {
    "zipcode": "5410051",
    "prefectureCode": "27",
    "prefectureNumber": 27,
    "prefecture": "大阪府",
    "city": "大阪市中央区",
    "town": "備後町"
  },
  "5410052": {
    "zipcode": "5410052",
    "prefectureCode": "27",
    "prefectureNumber": 27,
    "prefecture": "大阪府",
    "city": "大阪市中央区",
    "town": "安土町"
  },
  "5410053": {
    "zipcode": "5410053",
    "prefectureCode": "27",
    "prefectureNumber": 27,
    "prefecture": "大阪府",
    "city": "大阪市中央区",
    "town": "本町"
  },
  "5410054": {
    "zipcode": "5410054",
    "prefectureCode": "27",
    "prefectureNumber": 27,
    "prefecture": "大阪府",
    "city": "大阪市中央区",
    "town": "南本町"
  },
  "5410055": {
    "zipcode": "5410055",
    "prefectureCode": "27",
    "prefectureNumber": 27,
    "prefecture": "大阪府",
    "city": "大阪市中央区",
    "town": "船場中央"
  },
  "5410056": {
    "zipcode": "5410056",
    "prefectureCode": "27",
    "prefectureNumber": 27,
    "prefecture": "大阪府",
    "city": "大阪市中央区",
    "town": "久太郎町"
  },
  "5410057": {
    "zipcode": "5410057",
    "prefectureCode": "27",
    "prefectureNumber": 27,
    "prefecture": "大阪府",
    "city": "大阪市中央区",
    "town": "北久宝寺町"
  },
  "5410058": {
    "zipcode": "5410058",
    "prefectureCode": "27",
    "prefectureNumber": 27,
    "prefecture": "大阪府",
    "city": "大阪市中央区",
    "town": "南久宝寺町"
  },
  "5410059": {
    "zipcode": "5410059",
    "prefectureCode": "27",
    "prefectureNumber": 27,
    "prefecture": "大阪府",
    "city": "大阪市中央区",
    "town": "博労町"
  }
}
