{
  "5420012": {
    "zipcode": "5420012",
    "prefectureCode": "27",
    "prefectureNumber": 27,
    "prefecture": "大阪府",
    "city": "大阪市中央区",
    "town": "谷町（６〜９丁目）"
  },
  "5420061": {
    "zipcode": "5420061",
    "prefectureCode": "27",
    "prefectureNumber": 27,
    "prefecture": "大阪府",
    "city": "大阪市中央区",
    "town": "安堂寺町"
  },
  "5420062": {
    "zipcode": "5420062",
    "prefectureCode": "27",
    "prefectureNumber": 27,
    "prefecture": "大阪府",
    "city": "大阪市中央区",
    "town": "上本町西"
  },
  "5420063": {
    "zipcode": "5420063",
    "prefectureCode": "27",
    "prefectureNumber": 27,
    "prefecture": "大阪府",
    "city": "大阪市中央区",
    "town": "東平"
  },
  "5420064": {
    "zipcode": "5420064",
    "prefectureCode": "27",
    "prefectureNumber": 27,
    "prefecture": "大阪府",
    "city": "大阪市中央区",
    "town": "上汐"
  },
  "5420065": {
    "zipcode": "5420065",
    "prefectureCode": "27",
    "prefectureNumber": 27,
    "prefecture": "大阪府",
    "city": "大阪市中央区",
    "town": "中寺"
  },
  "5420066": {
    "zipcode": "5420066",
    "prefectureCode": "27",
    "prefectureNumber": 27,
    "prefecture": "大阪府",
    "city": "大阪市中央区",
    "town": "瓦屋町"
  },
  "5420067": {
    "zipcode": "5420067",
    "prefectureCode": "27",
    "prefectureNumber": 27,
    "prefecture": "大阪府",
    "city": "大阪市中央区",
    "town": "松屋町"
  },
  "5420071": {
    "zipcode": "5420071",
    "prefectureCode": "27",
    "prefectureNumber": 27,
    "prefecture": "大阪府",
    "city": "大阪市中央区",
    "town": "道頓堀（その他）"
  },
  "5420072": {
    "zipcode": "5420072",
    "prefectureCode": "27",
    "prefectureNumber": 27,
    "prefecture": "大阪府",
    "city": "大阪市中央区",
    "town": "高津"
  },
  "5420073": {
    "zipcode": "5420073",
    "prefectureCode": "27",
    "prefectureNumber": 27,
    "prefecture": "大阪府",
    "city": "大阪市中央区",
    "town": "日本橋"
  },
  "5420074": {
    "zipcode": "5420074",
    "prefectureCode": "27",
    "prefectureNumber": 27,
    "prefecture": "大阪府",
    "city": "大阪市中央区",
    "town": "千日前"
  },
  "5420075": {
    "zipcode": "5420075",
    "prefectureCode": "27",
    "prefectureNumber": 27,
    "prefecture": "大阪府",
    "city": "大阪市中央区",
    "town": "難波千日前"
  },
  "5420076": {
    "zipcode": "5420076",
    "prefectureCode": "27",
    "prefectureNumber": 27,
    "prefecture": "大阪府",
    "city": "大阪市中央区",
    "town": "難波"
  },
  "5420077": {
    "zipcode": "5420077",
    "prefectureCode": "27",
    "prefectureNumber": 27,
    "prefecture": "大阪府",
    "city": "大阪市中央区",
    "town": "道頓堀（１丁目東）"
  },
  "5420081": {
    "zipcode": "5420081",
    "prefectureCode": "27",
    "prefectureNumber": 27,
    "prefecture": "大阪府",
    "city": "大阪市中央区",
    "town": "南船場"
  },
  "5420082": {
    "zipcode": "5420082",
    "prefectureCode": "27",
    "prefectureNumber": 27,
    "prefecture": "大阪府",
    "city": "大阪市中央区",
    "town": "島之内"
  },
  "5420083": {
    "zipcode": "5420083",
    "prefectureCode": "27",
    "prefectureNumber": 27,
    "prefecture": "大阪府",
    "city": "大阪市中央区",
    "town": "東心斎橋"
  },
  "5420084": {
    "zipcode": "5420084",
    "prefectureCode": "27",
    "prefectureNumber": 27,
    "prefecture": "大阪府",
    "city": "大阪市中央区",
    "town": "宗右衛門町"
  },
  "5420085": {
    "zipcode": "5420085",
    "prefectureCode": "27",
    "prefectureNumber": 27,
    "prefecture": "大阪府",
    "city": "大阪市中央区",
    "town": "心斎橋筋"
  },
  "5420086": {
    "zipcode": "5420086",
    "prefectureCode": "27",
    "prefectureNumber": 27,
    "prefecture": "大阪府",
    "city": "大阪市中央区",
    "town": "西心斎橋"
  }
}
