{
  "5430000": {
    "zipcode": "5430000",
    "prefectureCode": "27",
    "prefectureNumber": 27,
    "prefecture": "大阪府",
    "city": "大阪市天王寺区",
    "town": "以下に掲載がない場合"
  },
  "5430001": {
    "zipcode": "5430001",
    "prefectureCode": "27",
    "prefectureNumber": 27,
    "prefecture": "大阪府",
    "city": "大阪市天王寺区",
    "town": "上本町"
  },
  "5430002": {
    "zipcode": "5430002",
    "prefectureCode": "27",
    "prefectureNumber": 27,
    "prefecture": "大阪府",
    "city": "大阪市天王寺区",
    "town": "上汐"
  },
  "5430011": {
    "zipcode": "5430011",
    "prefectureCode": "27",
    "prefectureNumber": 27,
    "prefecture": "大阪府",
    "city": "大阪市天王寺区",
    "town": "清水谷町"
  },
  "5430012": {
    "zipcode": "5430012",
    "prefectureCode": "27",
    "prefectureNumber": 27,
    "prefecture": "大阪府",
    "city": "大阪市天王寺区",
    "town": "空堀町"
  },
  "5430013": {
    "zipcode": "5430013",
    "prefectureCode": "27",
    "prefectureNumber": 27,
    "prefecture": "大阪府",
    "city": "大阪市天王寺区",
    "town": "玉造本町"
  },
  "5430014": {
    "zipcode": "5430014",
    "prefectureCode": "27",
    "prefectureNumber": 27,
    "prefecture": "大阪府",
    "city": "大阪市天王寺区",
    "town": "玉造元町"
  },
  "5430015": {
    "zipcode": "5430015",
    "prefectureCode": "27",
    "prefectureNumber": 27,
    "prefecture": "大阪府",
    "city": "大阪市天王寺区",
    "town": "真田山町"
  },
  "5430016": {
    "zipcode": "5430016",
    "prefectureCode": "27",
    "prefectureNumber": 27,
    "prefecture": "大阪府",
    "city": "大阪市天王寺区",
    "town": "餌差町"
  },
  "5430017": {
    "zipcode": "5430017",
    "prefectureCode": "27",
    "prefectureNumber": 27,
    "prefecture": "大阪府",
    "city": "大阪市天王寺区",
    "town": "城南寺町"
  },
  "5430018": {
    "zipcode": "5430018",
    "prefectureCode": "27",
    "prefectureNumber": 27,
    "prefecture": "大阪府",
    "city": "大阪市天王寺区",
    "town": "空清町"
  },
  "5430021": {
    "zipcode": "5430021",
    "prefectureCode": "27",
    "prefectureNumber": 27,
    "prefecture": "大阪府",
    "city": "大阪市天王寺区",
    "town": "東高津町"
  },
  "5430022": {
    "zipcode": "5430022",
    "prefectureCode": "27",
    "prefectureNumber": 27,
    "prefecture": "大阪府",
    "city": "大阪市天王寺区",
    "town": "味原本町"
  },
  "5430023": {
    "zipcode": "5430023",
    "prefectureCode": "27",
    "prefectureNumber": 27,
    "prefecture": "大阪府",
    "city": "大阪市天王寺区",
    "town": "味原町"
  },
  "5430024": {
    "zipcode": "5430024",
    "prefectureCode": "27",
    "prefectureNumber": 27,
    "prefecture": "大阪府",
    "city": "大阪市天王寺区",
    "town": "舟橋町"
  },
  "5430025": {
    "zipcode": "5430025",
    "prefectureCode": "27",
    "prefectureNumber": 27,
    "prefecture": "大阪府",
    "city": "大阪市天王寺区",
    "town": "下味原町"
  },
  "5430026": {
    "zipcode": "5430026",
    "prefectureCode": "27",
    "prefectureNumber": 27,
    "prefecture": "大阪府",
    "city": "大阪市天王寺区",
    "town": "東上町"
  },
  "5430027": {
    "zipcode": "5430027",
    "prefectureCode": "27",
    "prefectureNumber": 27,
    "prefecture": "大阪府",
    "city": "大阪市天王寺区",
    "town": "筆ケ崎町"
  },
  "5430028": {
    "zipcode": "5430028",
    "prefectureCode": "27",
    "prefectureNumber": 27,
    "prefecture": "大阪府",
    "city": "大阪市天王寺区",
    "town": "小橋町"
  },
  "5430031": {
    "zipcode": "5430031",
    "prefectureCode": "27",
    "prefectureNumber": 27,
    "prefecture": "大阪府",
    "city": "大阪市天王寺区",
    "town": "石ケ辻町"
  },
  "5430032": {
    "zipcode": "5430032",
    "prefectureCode": "27",
    "prefectureNumber": 27,
    "prefecture": "大阪府",
    "city": "大阪市天王寺区",
    "town": "細工谷"
  },
  "5430033": {
    "zipcode": "5430033",
    "prefectureCode": "27",
    "prefectureNumber": 27,
    "prefecture": "大阪府",
    "city": "大阪市天王寺区",
    "town": "堂ケ芝"
  },
  "5430034": {
    "zipcode": "5430034",
    "prefectureCode": "27",
    "prefectureNumber": 27,
    "prefecture": "大阪府",
    "city": "大阪市天王寺区",
    "town": "松ケ鼻町"
  },
  "5430035": {
    "zipcode": "5430035",
    "prefectureCode": "27",
    "prefectureNumber": 27,
    "prefecture": "大阪府",
    "city": "大阪市天王寺区",
    "town": "北山町"
  },
  "5430036": {
    "zipcode": "5430036",
    "prefectureCode": "27",
    "prefectureNumber": 27,
    "prefecture": "大阪府",
    "city": "大阪市天王寺区",
    "town": "小宮町"
  },
  "5430037": {
    "zipcode": "5430037",
    "prefectureCode": "27",
    "prefectureNumber": 27,
    "prefecture": "大阪府",
    "city": "大阪市天王寺区",
    "town": "上之宮町"
  },
  "5430041": {
    "zipcode": "5430041",
    "prefectureCode": "27",
    "prefectureNumber": 27,
    "prefecture": "大阪府",
    "city": "大阪市天王寺区",
    "town": "真法院町"
  },
  "5430042": {
    "zipcode": "5430042",
    "prefectureCode": "27",
    "prefectureNumber": 27,
    "prefecture": "大阪府",
    "city": "大阪市天王寺区",
    "town": "烏ケ辻"
  },
  "5430043": {
    "zipcode": "5430043",
    "prefectureCode": "27",
    "prefectureNumber": 27,
    "prefecture": "大阪府",
    "city": "大阪市天王寺区",
    "town": "勝山"
  },
  "5430044": {
    "zipcode": "5430044",
    "prefectureCode": "27",
    "prefectureNumber": 27,
    "prefecture": "大阪府",
    "city": "大阪市天王寺区",
    "town": "国分町"
  },
  "5430045": {
    "zipcode": "5430045",
    "prefectureCode": "27",
    "prefectureNumber": 27,
    "prefecture": "大阪府",
    "city": "大阪市天王寺区",
    "town": "寺田町"
  },
  "5430051": {
    "zipcode": "5430051",
    "prefectureCode": "27",
    "prefectureNumber": 27,
    "prefecture": "大阪府",
    "city": "大阪市天王寺区",
    "town": "四天王寺"
  },
  "5430052": {
    "zipcode": "5430052",
    "prefectureCode": "27",
    "prefectureNumber": 27,
    "prefecture": "大阪府",
    "city": "大阪市天王寺区",
    "town": "大道"
  },
  "5430053": {
    "zipcode": "5430053",
    "prefectureCode": "27",
    "prefectureNumber": 27,
    "prefecture": "大阪府",
    "city": "大阪市天王寺区",
    "town": "北河堀町"
  },
  "5430054": {
    "zipcode": "5430054",
    "prefectureCode": "27",
    "prefectureNumber": 27,
    "prefecture": "大阪府",
    "city": "大阪市天王寺区",
    "town": "南河堀町"
  },
  "5430055": {
    "zipcode": "5430055",
    "prefectureCode": "27",
    "prefectureNumber": 27,
    "prefecture": "大阪府",
    "city": "大阪市天王寺区",
    "town": "悲田院町"
  },
  "5430056": {
    "zipcode": "5430056",
    "prefectureCode": "27",
    "prefectureNumber": 27,
    "prefecture": "大阪府",
    "city": "大阪市天王寺区",
    "town": "堀越町"
  },
  "5430061": {
    "zipcode": "5430061",
    "prefectureCode": "27",
    "prefectureNumber": 27,
    "prefecture": "大阪府",
    "city": "大阪市天王寺区",
    "town": "伶人町"
  },
  "5430062": {
    "zipcode": "5430062",
    "prefectureCode": "27",
    "prefectureNumber": 27,
    "prefecture": "大阪府",
    "city": "大阪市天王寺区",
    "town": "逢阪"
  },
  "5430063": {
    "zipcode": "5430063",
    "prefectureCode": "27",
    "prefectureNumber": 27,
    "prefecture": "大阪府",
    "city": "大阪市天王寺区",
    "town": "茶臼山町"
  },
  "5430071": {
    "zipcode": "5430071",
    "prefectureCode": "27",
    "prefectureNumber": 27,
    "prefecture": "大阪府",
    "city": "大阪市天王寺区",
    "town": "生玉町"
  },
  "5430072": {
    "zipcode": "5430072",
    "prefectureCode": "27",
    "prefectureNumber": 27,
    "prefecture": "大阪府",
    "city": "大阪市天王寺区",
    "town": "生玉前町"
  },
  "5430073": {
    "zipcode": "5430073",
    "prefectureCode": "27",
    "prefectureNumber": 27,
    "prefecture": "大阪府",
    "city": "大阪市天王寺区",
    "town": "生玉寺町"
  },
  "5430074": {
    "zipcode": "5430074",
    "prefectureCode": "27",
    "prefectureNumber": 27,
    "prefecture": "大阪府",
    "city": "大阪市天王寺区",
    "town": "六万体町"
  },
  "5430075": {
    "zipcode": "5430075",
    "prefectureCode": "27",
    "prefectureNumber": 27,
    "prefecture": "大阪府",
    "city": "大阪市天王寺区",
    "town": "夕陽丘町"
  },
  "5430076": {
    "zipcode": "5430076",
    "prefectureCode": "27",
    "prefectureNumber": 27,
    "prefecture": "大阪府",
    "city": "大阪市天王寺区",
    "town": "下寺町"
  }
}
