{
  "5440000": {
    "zipcode": "5440000",
    "prefectureCode": "27",
    "prefectureNumber": 27,
    "prefecture": "大阪府",
    "city": "大阪市生野区",
    "town": "以下に掲載がない場合"
  },
  "5440001": {
    "zipcode": "5440001",
    "prefectureCode": "27",
    "prefectureNumber": 27,
    "prefecture": "大阪府",
    "city": "大阪市生野区",
    "town": "新今里"
  },
  "5440002": {
    "zipcode": "5440002",
    "prefectureCode": "27",
    "prefectureNumber": 27,
    "prefecture": "大阪府",
    "city": "大阪市生野区",
    "town": "小路"
  },
  "5440003": {
    "zipcode": "5440003",
    "prefectureCode": "27",
    "prefectureNumber": 27,
    "prefecture": "大阪府",
    "city": "大阪市生野区",
    "town": "小路東"
  },
  "5440004": {
    "zipcode": "5440004",
    "prefectureCode": "27",
    "prefectureNumber": 27,
    "prefecture": "大阪府",
    "city": "大阪市生野区",
    "town": "巽北"
  },
  "5440005": {
    "zipcode": "5440005",
    "prefectureCode": "27",
    "prefectureNumber": 27,
    "prefecture": "大阪府",
    "city": "大阪市生野区",
    "town": "中川"
  },
  "5440006": {
    "zipcode": "5440006",
    "prefectureCode": "27",
    "prefectureNumber": 27,
    "prefecture": "大阪府",
    "city": "大阪市生野区",
    "town": "中川東"
  },
  "5440011": {
    "zipcode": "5440011",
    "prefectureCode": "27",
    "prefectureNumber": 27,
    "prefecture": "大阪府",
    "city": "大阪市生野区",
    "town": "田島"
  },
  "5440012": {
    "zipcode": "5440012",
    "prefectureCode": "27",
    "prefectureNumber": 27,
    "prefecture": "大阪府",
    "city": "大阪市生野区",
    "town": "巽西"
  },
  "5440013": {
    "zipcode": "5440013",
    "prefectureCode": "27",
    "prefectureNumber": 27,
    "prefecture": "大阪府",
    "city": "大阪市生野区",
    "town": "巽中"
  },
  "5440014": {
    "zipcode": "5440014",
    "prefectureCode": "27",
    "prefectureNumber": 27,
    "prefecture": "大阪府",
    "city": "大阪市生野区",
    "town": "巽東"
  },
  "5440015": {
    "zipcode": "5440015",
    "prefectureCode": "27",
    "prefectureNumber": 27,
    "prefecture": "大阪府",
    "city": "大阪市生野区",
    "town": "巽南"
  },
  "5440021": {
    "zipcode": "5440021",
    "prefectureCode": "27",
    "prefectureNumber": 27,
    "prefecture": "大阪府",
    "city": "大阪市生野区",
    "town": "勝山南"
  },
  "5440022": {
    "zipcode": "5440022",
    "prefectureCode": "27",
    "prefectureNumber": 27,
    "prefecture": "大阪府",
    "city": "大阪市生野区",
    "town": "舎利寺"
  },
  "5440023": {
    "zipcode": "5440023",
    "prefectureCode": "27",
    "prefectureNumber": 27,
    "prefecture": "大阪府",
    "city": "大阪市生野区",
    "town": "林寺"
  },
  "5440024": {
    "zipcode": "5440024",
    "prefectureCode": "27",
    "prefectureNumber": 27,
    "prefecture": "大阪府",
    "city": "大阪市生野区",
    "town": "生野西"
  },
  "5440025": {
    "zipcode": "5440025",
    "prefectureCode": "27",
    "prefectureNumber": 27,
    "prefecture": "大阪府",
    "city": "大阪市生野区",
    "town": "生野東"
  },
  "5440031": {
    "zipcode": "5440031",
    "prefectureCode": "27",
    "prefectureNumber": 27,
    "prefecture": "大阪府",
    "city": "大阪市生野区",
    "town": "鶴橋"
  },
  "5440032": {
    "zipcode": "5440032",
    "prefectureCode": "27",
    "prefectureNumber": 27,
    "prefecture": "大阪府",
    "city": "大阪市生野区",
    "town": "中川西"
  },
  "5440033": {
    "zipcode": "5440033",
    "prefectureCode": "27",
    "prefectureNumber": 27,
    "prefecture": "大阪府",
    "city": "大阪市生野区",
    "town": "勝山北"
  },
  "5440034": {
    "zipcode": "5440034",
    "prefectureCode": "27",
    "prefectureNumber": 27,
    "prefecture": "大阪府",
    "city": "大阪市生野区",
    "town": "桃谷"
  }
}
