{
  "5450000": {
    "zipcode": "5450000",
    "prefectureCode": "27",
    "prefectureNumber": 27,
    "prefecture": "大阪府",
    "city": "大阪市阿倍野区",
    "town": "以下に掲載がない場合"
  },
  "5450001": {
    "zipcode": "5450001",
    "prefectureCode": "27",
    "prefectureNumber": 27,
    "prefecture": "大阪府",
    "city": "大阪市阿倍野区",
    "town": "天王寺町北"
  },
  "5450002": {
    "zipcode": "5450002",
    "prefectureCode": "27",
    "prefectureNumber": 27,
    "prefecture": "大阪府",
    "city": "大阪市阿倍野区",
    "town": "天王寺町南"
  },
  "5450003": {
    "zipcode": "5450003",
    "prefectureCode": "27",
    "prefectureNumber": 27,
    "prefecture": "大阪府",
    "city": "大阪市阿倍野区",
    "town": "美章園"
  },
  "5450004": {
    "zipcode": "5450004",
    "prefectureCode": "27",
    "prefectureNumber": 27,
    "prefecture": "大阪府",
    "city": "大阪市阿倍野区",
    "town": "文の里"
  },
  "5450005": {
    "zipcode": "5450005",
    "prefectureCode": "27",
    "prefectureNumber": 27,
    "prefecture": "大阪府",
    "city": "大阪市阿倍野区",
    "town": "三明町"
  },
  "5450011": {
    "zipcode": "5450011",
    "prefectureCode": "27",
    "prefectureNumber": 27,
    "prefecture": "大阪府",
    "city": "大阪市阿倍野区",
    "town": "昭和町"
  },
  "5450012": {
    "zipcode": "5450012",
    "prefectureCode": "27",
    "prefectureNumber": 27,
    "prefecture": "大阪府",
    "city": "大阪市阿倍野区",
    "town": "桃ケ池町"
  },
  "5450013": {
    "zipcode": "5450013",
    "prefectureCode": "27",
    "prefectureNumber": 27,
    "prefecture": "大阪府",
    "city": "大阪市阿倍野区",
    "town": "長池町"
  },
  "5450014": {
    "zipcode": "5450014",
    "prefectureCode": "27",
    "prefectureNumber": 27,
    "prefecture": "大阪府",
    "city": "大阪市阿倍野区",
    "town": "西田辺町"
  },
  "5450021": {
    "zipcode": "5450021",
    "prefectureCode": "27",
    "prefectureNumber": 27,
    "prefecture": "大阪府",
    "city": "大阪市阿倍野区",
    "town": "阪南町"
  },
  "5450022": {
    "zipcode": "5450022",
    "prefectureCode": "27",
    "prefectureNumber": 27,
    "prefecture": "大阪府",
    "city": "大阪市阿倍野区",
    "town": "播磨町"
  },
  "5450023": {
    "zipcode": "5450023",
    "prefectureCode": "27",
    "prefectureNumber": 27,
    "prefecture": "大阪府",
    "city": "大阪市阿倍野区",
    "town": "王子町"
  },
  "5450031": {
    "zipcode": "5450031",
    "prefectureCode": "27",
    "prefectureNumber": 27,
    "prefecture": "大阪府",
    "city": "大阪市阿倍野区",
    "town": "橋本町"
  },
  "5450032": {
    "zipcode": "5450032",
    "prefectureCode": "27",
    "prefectureNumber": 27,
    "prefecture": "大阪府",
    "city": "大阪市阿倍野区",
    "town": "晴明通"
  },
  "5450033": {
    "zipcode": "5450033",
    "prefectureCode": "27",
    "prefectureNumber": 27,
    "prefecture": "大阪府",
    "city": "大阪市阿倍野区",
    "town": "相生通"
  },
  "5450034": {
    "zipcode": "5450034",
    "prefectureCode": "27",
    "prefectureNumber": 27,
    "prefecture": "大阪府",
    "city": "大阪市阿倍野区",
    "town": "阿倍野元町"
  },
  "5450035": {
    "zipcode": "5450035",
    "prefectureCode": "27",
    "prefectureNumber": 27,
    "prefecture": "大阪府",
    "city": "大阪市阿倍野区",
    "town": "北畠"
  },
  "5450036": {
    "zipcode": "5450036",
    "prefectureCode": "27",
    "prefectureNumber": 27,
    "prefecture": "大阪府",
    "city": "大阪市阿倍野区",
    "town": "万代"
  },
  "5450037": {
    "zipcode": "5450037",
    "prefectureCode": "27",
    "prefectureNumber": 27,
    "prefecture": "大阪府",
    "city": "大阪市阿倍野区",
    "town": "帝塚山"
  },
  "5450041": {
    "zipcode": "5450041",
    "prefectureCode": "27",
    "prefectureNumber": 27,
    "prefecture": "大阪府",
    "city": "大阪市阿倍野区",
    "town": "共立通"
  },
  "5450042": {
    "zipcode": "5450042",
    "prefectureCode": "27",
    "prefectureNumber": 27,
    "prefecture": "大阪府",
    "city": "大阪市阿倍野区",
    "town": "丸山通"
  },
  "5450043": {
    "zipcode": "5450043",
    "prefectureCode": "27",
    "prefectureNumber": 27,
    "prefecture": "大阪府",
    "city": "大阪市阿倍野区",
    "town": "松虫通"
  },
  "5450051": {
    "zipcode": "5450051",
    "prefectureCode": "27",
    "prefectureNumber": 27,
    "prefecture": "大阪府",
    "city": "大阪市阿倍野区",
    "town": "旭町"
  },
  "5450052": {
    "zipcode": "5450052",
    "prefectureCode": "27",
    "prefectureNumber": 27,
    "prefecture": "大阪府",
    "city": "大阪市阿倍野区",
    "town": "阿倍野筋（次のビルを除く）"
  },
  "5450053": {
    "zipcode": "5450053",
    "prefectureCode": "27",
    "prefectureNumber": 27,
    "prefecture": "大阪府",
    "city": "大阪市阿倍野区",
    "town": "松崎町"
  },
  "5456001": {
    "zipcode": "5456001",
    "prefectureCode": "27",
    "prefectureNumber": 27,
    "prefecture": "大阪府",
    "city": "大阪市阿倍野区",
    "town": "阿倍野筋あべのハルカス（１階）"
  },
  "5456002": {
    "zipcode": "5456002",
    "prefectureCode": "27",
    "prefectureNumber": 27,
    "prefecture": "大阪府",
    "city": "大阪市阿倍野区",
    "town": "阿倍野筋あべのハルカス（２階）"
  },
  "5456003": {
    "zipcode": "5456003",
    "prefectureCode": "27",
    "prefectureNumber": 27,
    "prefecture": "大阪府",
    "city": "大阪市阿倍野区",
    "town": "阿倍野筋あべのハルカス（３階）"
  },
  "5456004": {
    "zipcode": "5456004",
    "prefectureCode": "27",
    "prefectureNumber": 27,
    "prefecture": "大阪府",
    "city": "大阪市阿倍野区",
    "town": "阿倍野筋あべのハルカス（４階）"
  },
  "5456005": {
    "zipcode": "5456005",
    "prefectureCode": "27",
    "prefectureNumber": 27,
    "prefecture": "大阪府",
    "city": "大阪市阿倍野区",
    "town": "阿倍野筋あべのハルカス（５階）"
  },
  "5456006": {
    "zipcode": "5456006",
    "prefectureCode": "27",
    "prefectureNumber": 27,
    "prefecture": "大阪府",
    "city": "大阪市阿倍野区",
    "town": "阿倍野筋あべのハルカス（６階）"
  },
  "5456007": {
    "zipcode": "5456007",
    "prefectureCode": "27",
    "prefectureNumber": 27,
    "prefecture": "大阪府",
    "city": "大阪市阿倍野区",
    "town": "阿倍野筋あべのハルカス（７階）"
  },
  "5456008": {
    "zipcode": "5456008",
    "prefectureCode": "27",
    "prefectureNumber": 27,
    "prefecture": "大阪府",
    "city": "大阪市阿倍野区",
    "town": "阿倍野筋あべのハルカス（８階）"
  },
  "5456009": {
    "zipcode": "5456009",
    "prefectureCode": "27",
    "prefectureNumber": 27,
    "prefecture": "大阪府",
    "city": "大阪市阿倍野区",
    "town": "阿倍野筋あべのハルカス（９階）"
  },
  "5456010": {
    "zipcode": "5456010",
    "prefectureCode": "27",
    "prefectureNumber": 27,
    "prefecture": "大阪府",
    "city": "大阪市阿倍野区",
    "town": "阿倍野筋あべのハルカス（１０階）"
  },
  "5456011": {
    "zipcode": "5456011",
    "prefectureCode": "27",
    "prefectureNumber": 27,
    "prefecture": "大阪府",
    "city": "大阪市阿倍野区",
    "town": "阿倍野筋あべのハルカス（１１階）"
  },
  "5456012": {
    "zipcode": "5456012",
    "prefectureCode": "27",
    "prefectureNumber": 27,
    "prefecture": "大阪府",
    "city": "大阪市阿倍野区",
    "town": "阿倍野筋あべのハルカス（１２階）"
  },
  "5456013": {
    "zipcode": "5456013",
    "prefectureCode": "27",
    "prefectureNumber": 27,
    "prefecture": "大阪府",
    "city": "大阪市阿倍野区",
    "town": "阿倍野筋あべのハルカス（１３階）"
  },
  "5456014": {
    "zipcode": "5456014",
    "prefectureCode": "27",
    "prefectureNumber": 27,
    "prefecture": "大阪府",
    "city": "大阪市阿倍野区",
    "town": "阿倍野筋あべのハルカス（１４階）"
  },
  "5456015": {
    "zipcode": "5456015",
    "prefectureCode": "27",
    "prefectureNumber": 27,
    "prefecture": "大阪府",
    "city": "大阪市阿倍野区",
    "town": "阿倍野筋あべのハルカス（１５階）"
  },
  "5456016": {
    "zipcode": "5456016",
    "prefectureCode": "27",
    "prefectureNumber": 27,
    "prefecture": "大阪府",
    "city": "大阪市阿倍野区",
    "town": "阿倍野筋あべのハルカス（１６階）"
  },
  "5456017": {
    "zipcode": "5456017",
    "prefectureCode": "27",
    "prefectureNumber": 27,
    "prefecture": "大阪府",
    "city": "大阪市阿倍野区",
    "town": "阿倍野筋あべのハルカス（１７階）"
  },
  "5456018": {
    "zipcode": "5456018",
    "prefectureCode": "27",
    "prefectureNumber": 27,
    "prefecture": "大阪府",
    "city": "大阪市阿倍野区",
    "town": "阿倍野筋あべのハルカス（１８階）"
  },
  "5456019": {
    "zipcode": "5456019",
    "prefectureCode": "27",
    "prefectureNumber": 27,
    "prefecture": "大阪府",
    "city": "大阪市阿倍野区",
    "town": "阿倍野筋あべのハルカス（１９階）"
  },
  "5456020": {
    "zipcode": "5456020",
    "prefectureCode": "27",
    "prefectureNumber": 27,
    "prefecture": "大阪府",
    "city": "大阪市阿倍野区",
    "town": "阿倍野筋あべのハルカス（２０階）"
  },
  "5456021": {
    "zipcode": "5456021",
    "prefectureCode": "27",
    "prefectureNumber": 27,
    "prefecture": "大阪府",
    "city": "大阪市阿倍野区",
    "town": "阿倍野筋あべのハルカス（２１階）"
  },
  "5456022": {
    "zipcode": "5456022",
    "prefectureCode": "27",
    "prefectureNumber": 27,
    "prefecture": "大阪府",
    "city": "大阪市阿倍野区",
    "town": "阿倍野筋あべのハルカス（２２階）"
  },
  "5456023": {
    "zipcode": "5456023",
    "prefectureCode": "27",
    "prefectureNumber": 27,
    "prefecture": "大阪府",
    "city": "大阪市阿倍野区",
    "town": "阿倍野筋あべのハルカス（２３階）"
  },
  "5456024": {
    "zipcode": "5456024",
    "prefectureCode": "27",
    "prefectureNumber": 27,
    "prefecture": "大阪府",
    "city": "大阪市阿倍野区",
    "town": "阿倍野筋あべのハルカス（２４階）"
  },
  "5456025": {
    "zipcode": "5456025",
    "prefectureCode": "27",
    "prefectureNumber": 27,
    "prefecture": "大阪府",
    "city": "大阪市阿倍野区",
    "town": "阿倍野筋あべのハルカス（２５階）"
  },
  "5456026": {
    "zipcode": "5456026",
    "prefectureCode": "27",
    "prefectureNumber": 27,
    "prefecture": "大阪府",
    "city": "大阪市阿倍野区",
    "town": "阿倍野筋あべのハルカス（２６階）"
  },
  "5456027": {
    "zipcode": "5456027",
    "prefectureCode": "27",
    "prefectureNumber": 27,
    "prefecture": "大阪府",
    "city": "大阪市阿倍野区",
    "town": "阿倍野筋あべのハルカス（２７階）"
  },
  "5456028": {
    "zipcode": "5456028",
    "prefectureCode": "27",
    "prefectureNumber": 27,
    "prefecture": "大阪府",
    "city": "大阪市阿倍野区",
    "town": "阿倍野筋あべのハルカス（２８階）"
  },
  "5456029": {
    "zipcode": "5456029",
    "prefectureCode": "27",
    "prefectureNumber": 27,
    "prefecture": "大阪府",
    "city": "大阪市阿倍野区",
    "town": "阿倍野筋あべのハルカス（２９階）"
  },
  "5456030": {
    "zipcode": "5456030",
    "prefectureCode": "27",
    "prefectureNumber": 27,
    "prefecture": "大阪府",
    "city": "大阪市阿倍野区",
    "town": "阿倍野筋あべのハルカス（３０階）"
  },
  "5456031": {
    "zipcode": "5456031",
    "prefectureCode": "27",
    "prefectureNumber": 27,
    "prefecture": "大阪府",
    "city": "大阪市阿倍野区",
    "town": "阿倍野筋あべのハルカス（３１階）"
  },
  "5456032": {
    "zipcode": "5456032",
    "prefectureCode": "27",
    "prefectureNumber": 27,
    "prefecture": "大阪府",
    "city": "大阪市阿倍野区",
    "town": "阿倍野筋あべのハルカス（３２階）"
  },
  "5456033": {
    "zipcode": "5456033",
    "prefectureCode": "27",
    "prefectureNumber": 27,
    "prefecture": "大阪府",
    "city": "大阪市阿倍野区",
    "town": "阿倍野筋あべのハルカス（３３階）"
  },
  "5456034": {
    "zipcode": "5456034",
    "prefectureCode": "27",
    "prefectureNumber": 27,
    "prefecture": "大阪府",
    "city": "大阪市阿倍野区",
    "town": "阿倍野筋あべのハルカス（３４階）"
  },
  "5456035": {
    "zipcode": "5456035",
    "prefectureCode": "27",
    "prefectureNumber": 27,
    "prefecture": "大阪府",
    "city": "大阪市阿倍野区",
    "town": "阿倍野筋あべのハルカス（３５階）"
  },
  "5456036": {
    "zipcode": "5456036",
    "prefectureCode": "27",
    "prefectureNumber": 27,
    "prefecture": "大阪府",
    "city": "大阪市阿倍野区",
    "town": "阿倍野筋あべのハルカス（３６階）"
  },
  "5456037": {
    "zipcode": "5456037",
    "prefectureCode": "27",
    "prefectureNumber": 27,
    "prefecture": "大阪府",
    "city": "大阪市阿倍野区",
    "town": "阿倍野筋あべのハルカス（３７階）"
  },
  "5456038": {
    "zipcode": "5456038",
    "prefectureCode": "27",
    "prefectureNumber": 27,
    "prefecture": "大阪府",
    "city": "大阪市阿倍野区",
    "town": "阿倍野筋あべのハルカス（３８階）"
  },
  "5456039": {
    "zipcode": "5456039",
    "prefectureCode": "27",
    "prefectureNumber": 27,
    "prefecture": "大阪府",
    "city": "大阪市阿倍野区",
    "town": "阿倍野筋あべのハルカス（３９階）"
  },
  "5456040": {
    "zipcode": "5456040",
    "prefectureCode": "27",
    "prefectureNumber": 27,
    "prefecture": "大阪府",
    "city": "大阪市阿倍野区",
    "town": "阿倍野筋あべのハルカス（４０階）"
  },
  "5456041": {
    "zipcode": "5456041",
    "prefectureCode": "27",
    "prefectureNumber": 27,
    "prefecture": "大阪府",
    "city": "大阪市阿倍野区",
    "town": "阿倍野筋あべのハルカス（４１階）"
  },
  "5456042": {
    "zipcode": "5456042",
    "prefectureCode": "27",
    "prefectureNumber": 27,
    "prefecture": "大阪府",
    "city": "大阪市阿倍野区",
    "town": "阿倍野筋あべのハルカス（４２階）"
  },
  "5456043": {
    "zipcode": "5456043",
    "prefectureCode": "27",
    "prefectureNumber": 27,
    "prefecture": "大阪府",
    "city": "大阪市阿倍野区",
    "town": "阿倍野筋あべのハルカス（４３階）"
  },
  "5456044": {
    "zipcode": "5456044",
    "prefectureCode": "27",
    "prefectureNumber": 27,
    "prefecture": "大阪府",
    "city": "大阪市阿倍野区",
    "town": "阿倍野筋あべのハルカス（４４階）"
  },
  "5456045": {
    "zipcode": "5456045",
    "prefectureCode": "27",
    "prefectureNumber": 27,
    "prefecture": "大阪府",
    "city": "大阪市阿倍野区",
    "town": "阿倍野筋あべのハルカス（４５階）"
  },
  "5456046": {
    "zipcode": "5456046",
    "prefectureCode": "27",
    "prefectureNumber": 27,
    "prefecture": "大阪府",
    "city": "大阪市阿倍野区",
    "town": "阿倍野筋あべのハルカス（４６階）"
  },
  "5456047": {
    "zipcode": "5456047",
    "prefectureCode": "27",
    "prefectureNumber": 27,
    "prefecture": "大阪府",
    "city": "大阪市阿倍野区",
    "town": "阿倍野筋あべのハルカス（４７階）"
  },
  "5456048": {
    "zipcode": "5456048",
    "prefectureCode": "27",
    "prefectureNumber": 27,
    "prefecture": "大阪府",
    "city": "大阪市阿倍野区",
    "town": "阿倍野筋あべのハルカス（４８階）"
  },
  "5456049": {
    "zipcode": "5456049",
    "prefectureCode": "27",
    "prefectureNumber": 27,
    "prefecture": "大阪府",
    "city": "大阪市阿倍野区",
    "town": "阿倍野筋あべのハルカス（４９階）"
  },
  "5456050": {
    "zipcode": "5456050",
    "prefectureCode": "27",
    "prefectureNumber": 27,
    "prefecture": "大阪府",
    "city": "大阪市阿倍野区",
    "town": "阿倍野筋あべのハルカス（５０階）"
  },
  "5456051": {
    "zipcode": "5456051",
    "prefectureCode": "27",
    "prefectureNumber": 27,
    "prefecture": "大阪府",
    "city": "大阪市阿倍野区",
    "town": "阿倍野筋あべのハルカス（５１階）"
  },
  "5456052": {
    "zipcode": "5456052",
    "prefectureCode": "27",
    "prefectureNumber": 27,
    "prefecture": "大阪府",
    "city": "大阪市阿倍野区",
    "town": "阿倍野筋あべのハルカス（５２階）"
  },
  "5456053": {
    "zipcode": "5456053",
    "prefectureCode": "27",
    "prefectureNumber": 27,
    "prefecture": "大阪府",
    "city": "大阪市阿倍野区",
    "town": "阿倍野筋あべのハルカス（５３階）"
  },
  "5456054": {
    "zipcode": "5456054",
    "prefectureCode": "27",
    "prefectureNumber": 27,
    "prefecture": "大阪府",
    "city": "大阪市阿倍野区",
    "town": "阿倍野筋あべのハルカス（５４階）"
  },
  "5456055": {
    "zipcode": "5456055",
    "prefectureCode": "27",
    "prefectureNumber": 27,
    "prefecture": "大阪府",
    "city": "大阪市阿倍野区",
    "town": "阿倍野筋あべのハルカス（５５階）"
  },
  "5456056": {
    "zipcode": "5456056",
    "prefectureCode": "27",
    "prefectureNumber": 27,
    "prefecture": "大阪府",
    "city": "大阪市阿倍野区",
    "town": "阿倍野筋あべのハルカス（５６階）"
  },
  "5456057": {
    "zipcode": "5456057",
    "prefectureCode": "27",
    "prefectureNumber": 27,
    "prefecture": "大阪府",
    "city": "大阪市阿倍野区",
    "town": "阿倍野筋あべのハルカス（５７階）"
  },
  "5456058": {
    "zipcode": "5456058",
    "prefectureCode": "27",
    "prefectureNumber": 27,
    "prefecture": "大阪府",
    "city": "大阪市阿倍野区",
    "town": "阿倍野筋あべのハルカス（５８階）"
  },
  "5456059": {
    "zipcode": "5456059",
    "prefectureCode": "27",
    "prefectureNumber": 27,
    "prefecture": "大阪府",
    "city": "大阪市阿倍野区",
    "town": "阿倍野筋あべのハルカス（５９階）"
  },
  "5456060": {
    "zipcode": "5456060",
    "prefectureCode": "27",
    "prefectureNumber": 27,
    "prefecture": "大阪府",
    "city": "大阪市阿倍野区",
    "town": "阿倍野筋あべのハルカス（６０階）"
  },
  "5456090": {
    "zipcode": "5456090",
    "prefectureCode": "27",
    "prefectureNumber": 27,
    "prefecture": "大阪府",
    "city": "大阪市阿倍野区",
    "town": "阿倍野筋あべのハルカス（地階・階層不明）"
  }
}
