{
  "5460000": {
    "zipcode": "5460000",
    "prefectureCode": "27",
    "prefectureNumber": 27,
    "prefecture": "大阪府",
    "city": "大阪市東住吉区",
    "town": "以下に掲載がない場合"
  },
  "5460001": {
    "zipcode": "5460001",
    "prefectureCode": "27",
    "prefectureNumber": 27,
    "prefecture": "大阪府",
    "city": "大阪市東住吉区",
    "town": "今林"
  },
  "5460002": {
    "zipcode": "5460002",
    "prefectureCode": "27",
    "prefectureNumber": 27,
    "prefecture": "大阪府",
    "city": "大阪市東住吉区",
    "town": "杭全"
  },
  "5460003": {
    "zipcode": "5460003",
    "prefectureCode": "27",
    "prefectureNumber": 27,
    "prefecture": "大阪府",
    "city": "大阪市東住吉区",
    "town": "今川"
  },
  "5460011": {
    "zipcode": "5460011",
    "prefectureCode": "27",
    "prefectureNumber": 27,
    "prefecture": "大阪府",
    "city": "大阪市東住吉区",
    "town": "針中野"
  },
  "5460012": {
    "zipcode": "5460012",
    "prefectureCode": "27",
    "prefectureNumber": 27,
    "prefecture": "大阪府",
    "city": "大阪市東住吉区",
    "town": "中野"
  },
  "5460013": {
    "zipcode": "5460013",
    "prefectureCode": "27",
    "prefectureNumber": 27,
    "prefecture": "大阪府",
    "city": "大阪市東住吉区",
    "town": "湯里"
  },
  "5460014": {
    "zipcode": "5460014",
    "prefectureCode": "27",
    "prefectureNumber": 27,
    "prefecture": "大阪府",
    "city": "大阪市東住吉区",
    "town": "鷹合"
  },
  "5460021": {
    "zipcode": "5460021",
    "prefectureCode": "27",
    "prefectureNumber": 27,
    "prefecture": "大阪府",
    "city": "大阪市東住吉区",
    "town": "照ケ丘矢田"
  },
  "5460022": {
    "zipcode": "5460022",
    "prefectureCode": "27",
    "prefectureNumber": 27,
    "prefecture": "大阪府",
    "city": "大阪市東住吉区",
    "town": "住道矢田"
  },
  "5460023": {
    "zipcode": "5460023",
    "prefectureCode": "27",
    "prefectureNumber": 27,
    "prefecture": "大阪府",
    "city": "大阪市東住吉区",
    "town": "矢田"
  },
  "5460024": {
    "zipcode": "5460024",
    "prefectureCode": "27",
    "prefectureNumber": 27,
    "prefecture": "大阪府",
    "city": "大阪市東住吉区",
    "town": "公園南矢田"
  },
  "5460031": {
    "zipcode": "5460031",
    "prefectureCode": "27",
    "prefectureNumber": 27,
    "prefecture": "大阪府",
    "city": "大阪市東住吉区",
    "town": "田辺"
  },
  "5460032": {
    "zipcode": "5460032",
    "prefectureCode": "27",
    "prefectureNumber": 27,
    "prefecture": "大阪府",
    "city": "大阪市東住吉区",
    "town": "東田辺"
  },
  "5460033": {
    "zipcode": "5460033",
    "prefectureCode": "27",
    "prefectureNumber": 27,
    "prefecture": "大阪府",
    "city": "大阪市東住吉区",
    "town": "南田辺"
  },
  "5460034": {
    "zipcode": "5460034",
    "prefectureCode": "27",
    "prefectureNumber": 27,
    "prefecture": "大阪府",
    "city": "大阪市東住吉区",
    "town": "長居公園"
  },
  "5460035": {
    "zipcode": "5460035",
    "prefectureCode": "27",
    "prefectureNumber": 27,
    "prefecture": "大阪府",
    "city": "大阪市東住吉区",
    "town": "山坂"
  },
  "5460041": {
    "zipcode": "5460041",
    "prefectureCode": "27",
    "prefectureNumber": 27,
    "prefecture": "大阪府",
    "city": "大阪市東住吉区",
    "town": "桑津"
  },
  "5460042": {
    "zipcode": "5460042",
    "prefectureCode": "27",
    "prefectureNumber": 27,
    "prefecture": "大阪府",
    "city": "大阪市東住吉区",
    "town": "西今川"
  },
  "5460043": {
    "zipcode": "5460043",
    "prefectureCode": "27",
    "prefectureNumber": 27,
    "prefecture": "大阪府",
    "city": "大阪市東住吉区",
    "town": "駒川"
  },
  "5460044": {
    "zipcode": "5460044",
    "prefectureCode": "27",
    "prefectureNumber": 27,
    "prefecture": "大阪府",
    "city": "大阪市東住吉区",
    "town": "北田辺"
  }
}
