{
  "5470000": {
    "zipcode": "5470000",
    "prefectureCode": "27",
    "prefectureNumber": 27,
    "prefecture": "大阪府",
    "city": "大阪市平野区",
    "town": "以下に掲載がない場合"
  },
  "5470001": {
    "zipcode": "5470001",
    "prefectureCode": "27",
    "prefectureNumber": 27,
    "prefecture": "大阪府",
    "city": "大阪市平野区",
    "town": "加美北"
  },
  "5470002": {
    "zipcode": "5470002",
    "prefectureCode": "27",
    "prefectureNumber": 27,
    "prefecture": "大阪府",
    "city": "大阪市平野区",
    "town": "加美東"
  },
  "5470003": {
    "zipcode": "5470003",
    "prefectureCode": "27",
    "prefectureNumber": 27,
    "prefecture": "大阪府",
    "city": "大阪市平野区",
    "town": "加美南"
  },
  "5470004": {
    "zipcode": "5470004",
    "prefectureCode": "27",
    "prefectureNumber": 27,
    "prefecture": "大阪府",
    "city": "大阪市平野区",
    "town": "加美鞍作"
  },
  "5470005": {
    "zipcode": "5470005",
    "prefectureCode": "27",
    "prefectureNumber": 27,
    "prefecture": "大阪府",
    "city": "大阪市平野区",
    "town": "加美西"
  },
  "5470006": {
    "zipcode": "5470006",
    "prefectureCode": "27",
    "prefectureNumber": 27,
    "prefecture": "大阪府",
    "city": "大阪市平野区",
    "town": "加美正覚寺"
  },
  "5470011": {
    "zipcode": "5470011",
    "prefectureCode": "27",
    "prefectureNumber": 27,
    "prefecture": "大阪府",
    "city": "大阪市平野区",
    "town": "長吉出戸"
  },
  "5470012": {
    "zipcode": "5470012",
    "prefectureCode": "27",
    "prefectureNumber": 27,
    "prefecture": "大阪府",
    "city": "大阪市平野区",
    "town": "長吉六反"
  },
  "5470013": {
    "zipcode": "5470013",
    "prefectureCode": "27",
    "prefectureNumber": 27,
    "prefecture": "大阪府",
    "city": "大阪市平野区",
    "town": "長吉長原東"
  },
  "5470014": {
    "zipcode": "5470014",
    "prefectureCode": "27",
    "prefectureNumber": 27,
    "prefecture": "大阪府",
    "city": "大阪市平野区",
    "town": "長吉川辺"
  },
  "5470015": {
    "zipcode": "5470015",
    "prefectureCode": "27",
    "prefectureNumber": 27,
    "prefecture": "大阪府",
    "city": "大阪市平野区",
    "town": "長吉長原西"
  },
  "5470016": {
    "zipcode": "5470016",
    "prefectureCode": "27",
    "prefectureNumber": 27,
    "prefecture": "大阪府",
    "city": "大阪市平野区",
    "town": "長吉長原"
  },
  "5470021": {
    "zipcode": "5470021",
    "prefectureCode": "27",
    "prefectureNumber": 27,
    "prefecture": "大阪府",
    "city": "大阪市平野区",
    "town": "喜連東"
  },
  "5470022": {
    "zipcode": "5470022",
    "prefectureCode": "27",
    "prefectureNumber": 27,
    "prefecture": "大阪府",
    "city": "大阪市平野区",
    "town": "瓜破東"
  },
  "5470023": {
    "zipcode": "5470023",
    "prefectureCode": "27",
    "prefectureNumber": 27,
    "prefecture": "大阪府",
    "city": "大阪市平野区",
    "town": "瓜破南"
  },
  "5470024": {
    "zipcode": "5470024",
    "prefectureCode": "27",
    "prefectureNumber": 27,
    "prefecture": "大阪府",
    "city": "大阪市平野区",
    "town": "瓜破"
  },
  "5470025": {
    "zipcode": "5470025",
    "prefectureCode": "27",
    "prefectureNumber": 27,
    "prefecture": "大阪府",
    "city": "大阪市平野区",
    "town": "瓜破西"
  },
  "5470026": {
    "zipcode": "5470026",
    "prefectureCode": "27",
    "prefectureNumber": 27,
    "prefecture": "大阪府",
    "city": "大阪市平野区",
    "town": "喜連西"
  },
  "5470027": {
    "zipcode": "5470027",
    "prefectureCode": "27",
    "prefectureNumber": 27,
    "prefecture": "大阪府",
    "city": "大阪市平野区",
    "town": "喜連"
  },
  "5470031": {
    "zipcode": "5470031",
    "prefectureCode": "27",
    "prefectureNumber": 27,
    "prefecture": "大阪府",
    "city": "大阪市平野区",
    "town": "平野南"
  },
  "5470032": {
    "zipcode": "5470032",
    "prefectureCode": "27",
    "prefectureNumber": 27,
    "prefecture": "大阪府",
    "city": "大阪市平野区",
    "town": "流町"
  },
  "5470033": {
    "zipcode": "5470033",
    "prefectureCode": "27",
    "prefectureNumber": 27,
    "prefecture": "大阪府",
    "city": "大阪市平野区",
    "town": "平野西"
  },
  "5470034": {
    "zipcode": "5470034",
    "prefectureCode": "27",
    "prefectureNumber": 27,
    "prefecture": "大阪府",
    "city": "大阪市平野区",
    "town": "背戸口"
  },
  "5470035": {
    "zipcode": "5470035",
    "prefectureCode": "27",
    "prefectureNumber": 27,
    "prefecture": "大阪府",
    "city": "大阪市平野区",
    "town": "西脇"
  },
  "5470041": {
    "zipcode": "5470041",
    "prefectureCode": "27",
    "prefectureNumber": 27,
    "prefecture": "大阪府",
    "city": "大阪市平野区",
    "town": "平野北"
  },
  "5470042": {
    "zipcode": "5470042",
    "prefectureCode": "27",
    "prefectureNumber": 27,
    "prefecture": "大阪府",
    "city": "大阪市平野区",
    "town": "平野市町"
  },
  "5470043": {
    "zipcode": "5470043",
    "prefectureCode": "27",
    "prefectureNumber": 27,
    "prefecture": "大阪府",
    "city": "大阪市平野区",
    "town": "平野東"
  },
  "5470044": {
    "zipcode": "5470044",
    "prefectureCode": "27",
    "prefectureNumber": 27,
    "prefecture": "大阪府",
    "city": "大阪市平野区",
    "town": "平野本町"
  },
  "5470045": {
    "zipcode": "5470045",
    "prefectureCode": "27",
    "prefectureNumber": 27,
    "prefecture": "大阪府",
    "city": "大阪市平野区",
    "town": "平野上町"
  },
  "5470046": {
    "zipcode": "5470046",
    "prefectureCode": "27",
    "prefectureNumber": 27,
    "prefecture": "大阪府",
    "city": "大阪市平野区",
    "town": "平野宮町"
  },
  "5470047": {
    "zipcode": "5470047",
    "prefectureCode": "27",
    "prefectureNumber": 27,
    "prefecture": "大阪府",
    "city": "大阪市平野区",
    "town": "平野元町"
  },
  "5470048": {
    "zipcode": "5470048",
    "prefectureCode": "27",
    "prefectureNumber": 27,
    "prefecture": "大阪府",
    "city": "大阪市平野区",
    "town": "平野馬場"
  }
}
