{
  "5500000": {
    "zipcode": "5500000",
    "prefectureCode": "27",
    "prefectureNumber": 27,
    "prefecture": "大阪府",
    "city": "大阪市西区",
    "town": "以下に掲載がない場合"
  },
  "5500001": {
    "zipcode": "5500001",
    "prefectureCode": "27",
    "prefectureNumber": 27,
    "prefecture": "大阪府",
    "city": "大阪市西区",
    "town": "土佐堀"
  },
  "5500002": {
    "zipcode": "5500002",
    "prefectureCode": "27",
    "prefectureNumber": 27,
    "prefecture": "大阪府",
    "city": "大阪市西区",
    "town": "江戸堀"
  },
  "5500003": {
    "zipcode": "5500003",
    "prefectureCode": "27",
    "prefectureNumber": 27,
    "prefecture": "大阪府",
    "city": "大阪市西区",
    "town": "京町堀"
  },
  "5500004": {
    "zipcode": "5500004",
    "prefectureCode": "27",
    "prefectureNumber": 27,
    "prefecture": "大阪府",
    "city": "大阪市西区",
    "town": "靱本町"
  },
  "5500005": {
    "zipcode": "5500005",
    "prefectureCode": "27",
    "prefectureNumber": 27,
    "prefecture": "大阪府",
    "city": "大阪市西区",
    "town": "西本町"
  },
  "5500006": {
    "zipcode": "5500006",
    "prefectureCode": "27",
    "prefectureNumber": 27,
    "prefecture": "大阪府",
    "city": "大阪市西区",
    "town": "江之子島"
  },
  "5500011": {
    "zipcode": "5500011",
    "prefectureCode": "27",
    "prefectureNumber": 27,
    "prefecture": "大阪府",
    "city": "大阪市西区",
    "town": "阿波座"
  },
  "5500012": {
    "zipcode": "5500012",
    "prefectureCode": "27",
    "prefectureNumber": 27,
    "prefecture": "大阪府",
    "city": "大阪市西区",
    "town": "立売堀"
  },
  "5500013": {
    "zipcode": "5500013",
    "prefectureCode": "27",
    "prefectureNumber": 27,
    "prefecture": "大阪府",
    "city": "大阪市西区",
    "town": "新町"
  },
  "5500014": {
    "zipcode": "5500014",
    "prefectureCode": "27",
    "prefectureNumber": 27,
    "prefecture": "大阪府",
    "city": "大阪市西区",
    "town": "北堀江"
  },
  "5500015": {
    "zipcode": "5500015",
    "prefectureCode": "27",
    "prefectureNumber": 27,
    "prefecture": "大阪府",
    "city": "大阪市西区",
    "town": "南堀江"
  },
  "5500021": {
    "zipcode": "5500021",
    "prefectureCode": "27",
    "prefectureNumber": 27,
    "prefecture": "大阪府",
    "city": "大阪市西区",
    "town": "川口"
  },
  "5500022": {
    "zipcode": "5500022",
    "prefectureCode": "27",
    "prefectureNumber": 27,
    "prefecture": "大阪府",
    "city": "大阪市西区",
    "town": "本田"
  },
  "5500023": {
    "zipcode": "5500023",
    "prefectureCode": "27",
    "prefectureNumber": 27,
    "prefecture": "大阪府",
    "city": "大阪市西区",
    "town": "千代崎"
  },
  "5500024": {
    "zipcode": "5500024",
    "prefectureCode": "27",
    "prefectureNumber": 27,
    "prefecture": "大阪府",
    "city": "大阪市西区",
    "town": "境川"
  },
  "5500025": {
    "zipcode": "5500025",
    "prefectureCode": "27",
    "prefectureNumber": 27,
    "prefecture": "大阪府",
    "city": "大阪市西区",
    "town": "九条南"
  },
  "5500026": {
    "zipcode": "5500026",
    "prefectureCode": "27",
    "prefectureNumber": 27,
    "prefecture": "大阪府",
    "city": "大阪市西区",
    "town": "安治川"
  },
  "5500027": {
    "zipcode": "5500027",
    "prefectureCode": "27",
    "prefectureNumber": 27,
    "prefecture": "大阪府",
    "city": "大阪市西区",
    "town": "九条"
  }
}
