{
  "5510000": {
    "zipcode": "5510000",
    "prefectureCode": "27",
    "prefectureNumber": 27,
    "prefecture": "大阪府",
    "city": "大阪市大正区",
    "town": "以下に掲載がない場合"
  },
  "5510001": {
    "zipcode": "5510001",
    "prefectureCode": "27",
    "prefectureNumber": 27,
    "prefecture": "大阪府",
    "city": "大阪市大正区",
    "town": "三軒家西"
  },
  "5510002": {
    "zipcode": "5510002",
    "prefectureCode": "27",
    "prefectureNumber": 27,
    "prefecture": "大阪府",
    "city": "大阪市大正区",
    "town": "三軒家東"
  },
  "5510003": {
    "zipcode": "5510003",
    "prefectureCode": "27",
    "prefectureNumber": 27,
    "prefecture": "大阪府",
    "city": "大阪市大正区",
    "town": "千島"
  },
  "5510011": {
    "zipcode": "5510011",
    "prefectureCode": "27",
    "prefectureNumber": 27,
    "prefecture": "大阪府",
    "city": "大阪市大正区",
    "town": "小林東"
  },
  "5510012": {
    "zipcode": "5510012",
    "prefectureCode": "27",
    "prefectureNumber": 27,
    "prefecture": "大阪府",
    "city": "大阪市大正区",
    "town": "平尾"
  },
  "5510013": {
    "zipcode": "5510013",
    "prefectureCode": "27",
    "prefectureNumber": 27,
    "prefecture": "大阪府",
    "city": "大阪市大正区",
    "town": "小林西"
  },
  "5510021": {
    "zipcode": "5510021",
    "prefectureCode": "27",
    "prefectureNumber": 27,
    "prefecture": "大阪府",
    "city": "大阪市大正区",
    "town": "南恩加島"
  },
  "5510022": {
    "zipcode": "5510022",
    "prefectureCode": "27",
    "prefectureNumber": 27,
    "prefecture": "大阪府",
    "city": "大阪市大正区",
    "town": "船町"
  },
  "5510023": {
    "zipcode": "5510023",
    "prefectureCode": "27",
    "prefectureNumber": 27,
    "prefecture": "大阪府",
    "city": "大阪市大正区",
    "town": "鶴町"
  },
  "5510031": {
    "zipcode": "5510031",
    "prefectureCode": "27",
    "prefectureNumber": 27,
    "prefecture": "大阪府",
    "city": "大阪市大正区",
    "town": "泉尾"
  },
  "5510032": {
    "zipcode": "5510032",
    "prefectureCode": "27",
    "prefectureNumber": 27,
    "prefecture": "大阪府",
    "city": "大阪市大正区",
    "town": "北村"
  },
  "5510033": {
    "zipcode": "5510033",
    "prefectureCode": "27",
    "prefectureNumber": 27,
    "prefecture": "大阪府",
    "city": "大阪市大正区",
    "town": "北恩加島"
  }
}
