{
  "5520000": {
    "zipcode": "5520000",
    "prefectureCode": "27",
    "prefectureNumber": 27,
    "prefecture": "大阪府",
    "city": "大阪市港区",
    "town": "以下に掲載がない場合"
  },
  "5520001": {
    "zipcode": "5520001",
    "prefectureCode": "27",
    "prefectureNumber": 27,
    "prefecture": "大阪府",
    "city": "大阪市港区",
    "town": "波除"
  },
  "5520002": {
    "zipcode": "5520002",
    "prefectureCode": "27",
    "prefectureNumber": 27,
    "prefecture": "大阪府",
    "city": "大阪市港区",
    "town": "市岡元町"
  },
  "5520003": {
    "zipcode": "5520003",
    "prefectureCode": "27",
    "prefectureNumber": 27,
    "prefecture": "大阪府",
    "city": "大阪市港区",
    "town": "磯路"
  },
  "5520004": {
    "zipcode": "5520004",
    "prefectureCode": "27",
    "prefectureNumber": 27,
    "prefecture": "大阪府",
    "city": "大阪市港区",
    "town": "夕凪"
  },
  "5520005": {
    "zipcode": "5520005",
    "prefectureCode": "27",
    "prefectureNumber": 27,
    "prefecture": "大阪府",
    "city": "大阪市港区",
    "town": "田中"
  },
  "5520006": {
    "zipcode": "5520006",
    "prefectureCode": "27",
    "prefectureNumber": 27,
    "prefecture": "大阪府",
    "city": "大阪市港区",
    "town": "石田"
  },
  "5520007": {
    "zipcode": "5520007",
    "prefectureCode": "27",
    "prefectureNumber": 27,
    "prefecture": "大阪府",
    "city": "大阪市港区",
    "town": "弁天"
  },
  "5520011": {
    "zipcode": "5520011",
    "prefectureCode": "27",
    "prefectureNumber": 27,
    "prefecture": "大阪府",
    "city": "大阪市港区",
    "town": "南市岡"
  },
  "5520012": {
    "zipcode": "5520012",
    "prefectureCode": "27",
    "prefectureNumber": 27,
    "prefecture": "大阪府",
    "city": "大阪市港区",
    "town": "市岡"
  },
  "5520013": {
    "zipcode": "5520013",
    "prefectureCode": "27",
    "prefectureNumber": 27,
    "prefecture": "大阪府",
    "city": "大阪市港区",
    "town": "福崎"
  },
  "5520014": {
    "zipcode": "5520014",
    "prefectureCode": "27",
    "prefectureNumber": 27,
    "prefecture": "大阪府",
    "city": "大阪市港区",
    "town": "八幡屋"
  },
  "5520015": {
    "zipcode": "5520015",
    "prefectureCode": "27",
    "prefectureNumber": 27,
    "prefecture": "大阪府",
    "city": "大阪市港区",
    "town": "池島"
  },
  "5520016": {
    "zipcode": "5520016",
    "prefectureCode": "27",
    "prefectureNumber": 27,
    "prefecture": "大阪府",
    "city": "大阪市港区",
    "town": "三先"
  },
  "5520021": {
    "zipcode": "5520021",
    "prefectureCode": "27",
    "prefectureNumber": 27,
    "prefecture": "大阪府",
    "city": "大阪市港区",
    "town": "築港"
  },
  "5520022": {
    "zipcode": "5520022",
    "prefectureCode": "27",
    "prefectureNumber": 27,
    "prefecture": "大阪府",
    "city": "大阪市港区",
    "town": "海岸通"
  },
  "5520023": {
    "zipcode": "5520023",
    "prefectureCode": "27",
    "prefectureNumber": 27,
    "prefecture": "大阪府",
    "city": "大阪市港区",
    "town": "港晴"
  }
}
