{
  "5530000": {
    "zipcode": "5530000",
    "prefectureCode": "27",
    "prefectureNumber": 27,
    "prefecture": "大阪府",
    "city": "大阪市福島区",
    "town": "以下に掲載がない場合"
  },
  "5530001": {
    "zipcode": "5530001",
    "prefectureCode": "27",
    "prefectureNumber": 27,
    "prefecture": "大阪府",
    "city": "大阪市福島区",
    "town": "海老江"
  },
  "5530002": {
    "zipcode": "5530002",
    "prefectureCode": "27",
    "prefectureNumber": 27,
    "prefecture": "大阪府",
    "city": "大阪市福島区",
    "town": "鷺洲"
  },
  "5530003": {
    "zipcode": "5530003",
    "prefectureCode": "27",
    "prefectureNumber": 27,
    "prefecture": "大阪府",
    "city": "大阪市福島区",
    "town": "福島"
  },
  "5530004": {
    "zipcode": "5530004",
    "prefectureCode": "27",
    "prefectureNumber": 27,
    "prefecture": "大阪府",
    "city": "大阪市福島区",
    "town": "玉川"
  },
  "5530005": {
    "zipcode": "5530005",
    "prefectureCode": "27",
    "prefectureNumber": 27,
    "prefecture": "大阪府",
    "city": "大阪市福島区",
    "town": "野田"
  },
  "5530006": {
    "zipcode": "5530006",
    "prefectureCode": "27",
    "prefectureNumber": 27,
    "prefecture": "大阪府",
    "city": "大阪市福島区",
    "town": "吉野"
  },
  "5530007": {
    "zipcode": "5530007",
    "prefectureCode": "27",
    "prefectureNumber": 27,
    "prefecture": "大阪府",
    "city": "大阪市福島区",
    "town": "大開"
  }
}
