{
  "5540000": {
    "zipcode": "5540000",
    "prefectureCode": "27",
    "prefectureNumber": 27,
    "prefecture": "大阪府",
    "city": "大阪市此花区",
    "town": "以下に掲載がない場合"
  },
  "5540001": {
    "zipcode": "5540001",
    "prefectureCode": "27",
    "prefectureNumber": 27,
    "prefecture": "大阪府",
    "city": "大阪市此花区",
    "town": "高見"
  },
  "5540002": {
    "zipcode": "5540002",
    "prefectureCode": "27",
    "prefectureNumber": 27,
    "prefecture": "大阪府",
    "city": "大阪市此花区",
    "town": "伝法"
  },
  "5540011": {
    "zipcode": "5540011",
    "prefectureCode": "27",
    "prefectureNumber": 27,
    "prefecture": "大阪府",
    "city": "大阪市此花区",
    "town": "朝日"
  },
  "5540012": {
    "zipcode": "5540012",
    "prefectureCode": "27",
    "prefectureNumber": 27,
    "prefecture": "大阪府",
    "city": "大阪市此花区",
    "town": "西九条"
  },
  "5540013": {
    "zipcode": "5540013",
    "prefectureCode": "27",
    "prefectureNumber": 27,
    "prefecture": "大阪府",
    "city": "大阪市此花区",
    "town": "梅香"
  },
  "5540014": {
    "zipcode": "5540014",
    "prefectureCode": "27",
    "prefectureNumber": 27,
    "prefecture": "大阪府",
    "city": "大阪市此花区",
    "town": "四貫島"
  },
  "5540021": {
    "zipcode": "5540021",
    "prefectureCode": "27",
    "prefectureNumber": 27,
    "prefecture": "大阪府",
    "city": "大阪市此花区",
    "town": "春日出北"
  },
  "5540022": {
    "zipcode": "5540022",
    "prefectureCode": "27",
    "prefectureNumber": 27,
    "prefecture": "大阪府",
    "city": "大阪市此花区",
    "town": "春日出中"
  },
  "5540023": {
    "zipcode": "5540023",
    "prefectureCode": "27",
    "prefectureNumber": 27,
    "prefecture": "大阪府",
    "city": "大阪市此花区",
    "town": "春日出南"
  },
  "5540024": {
    "zipcode": "5540024",
    "prefectureCode": "27",
    "prefectureNumber": 27,
    "prefecture": "大阪府",
    "city": "大阪市此花区",
    "town": "島屋"
  },
  "5540031": {
    "zipcode": "5540031",
    "prefectureCode": "27",
    "prefectureNumber": 27,
    "prefecture": "大阪府",
    "city": "大阪市此花区",
    "town": "桜島"
  },
  "5540032": {
    "zipcode": "5540032",
    "prefectureCode": "27",
    "prefectureNumber": 27,
    "prefecture": "大阪府",
    "city": "大阪市此花区",
    "town": "梅町"
  },
  "5540033": {
    "zipcode": "5540033",
    "prefectureCode": "27",
    "prefectureNumber": 27,
    "prefecture": "大阪府",
    "city": "大阪市此花区",
    "town": "北港"
  },
  "5540041": {
    "zipcode": "5540041",
    "prefectureCode": "27",
    "prefectureNumber": 27,
    "prefecture": "大阪府",
    "city": "大阪市此花区",
    "town": "北港白津"
  },
  "5540042": {
    "zipcode": "5540042",
    "prefectureCode": "27",
    "prefectureNumber": 27,
    "prefecture": "大阪府",
    "city": "大阪市此花区",
    "town": "北港緑地"
  },
  "5540043": {
    "zipcode": "5540043",
    "prefectureCode": "27",
    "prefectureNumber": 27,
    "prefecture": "大阪府",
    "city": "大阪市此花区",
    "town": "夢洲東"
  },
  "5540044": {
    "zipcode": "5540044",
    "prefectureCode": "27",
    "prefectureNumber": 27,
    "prefecture": "大阪府",
    "city": "大阪市此花区",
    "town": "夢洲中"
  },
  "5540051": {
    "zipcode": "5540051",
    "prefectureCode": "27",
    "prefectureNumber": 27,
    "prefecture": "大阪府",
    "city": "大阪市此花区",
    "town": "酉島"
  },
  "5540052": {
    "zipcode": "5540052",
    "prefectureCode": "27",
    "prefectureNumber": 27,
    "prefecture": "大阪府",
    "city": "大阪市此花区",
    "town": "常吉"
  }
}
