{
  "5550000": {
    "zipcode": "5550000",
    "prefectureCode": "27",
    "prefectureNumber": 27,
    "prefecture": "大阪府",
    "city": "大阪市西淀川区",
    "town": "以下に掲載がない場合"
  },
  "5550001": {
    "zipcode": "5550001",
    "prefectureCode": "27",
    "prefectureNumber": 27,
    "prefecture": "大阪府",
    "city": "大阪市西淀川区",
    "town": "佃"
  },
  "5550011": {
    "zipcode": "5550011",
    "prefectureCode": "27",
    "prefectureNumber": 27,
    "prefecture": "大阪府",
    "city": "大阪市西淀川区",
    "town": "竹島"
  },
  "5550012": {
    "zipcode": "5550012",
    "prefectureCode": "27",
    "prefectureNumber": 27,
    "prefecture": "大阪府",
    "city": "大阪市西淀川区",
    "town": "御幣島"
  },
  "5550013": {
    "zipcode": "5550013",
    "prefectureCode": "27",
    "prefectureNumber": 27,
    "prefecture": "大阪府",
    "city": "大阪市西淀川区",
    "town": "千舟"
  },
  "5550021": {
    "zipcode": "5550021",
    "prefectureCode": "27",
    "prefectureNumber": 27,
    "prefecture": "大阪府",
    "city": "大阪市西淀川区",
    "town": "歌島"
  },
  "5550022": {
    "zipcode": "5550022",
    "prefectureCode": "27",
    "prefectureNumber": 27,
    "prefecture": "大阪府",
    "city": "大阪市西淀川区",
    "town": "柏里"
  },
  "5550023": {
    "zipcode": "5550023",
    "prefectureCode": "27",
    "prefectureNumber": 27,
    "prefecture": "大阪府",
    "city": "大阪市西淀川区",
    "town": "花川"
  },
  "5550024": {
    "zipcode": "5550024",
    "prefectureCode": "27",
    "prefectureNumber": 27,
    "prefecture": "大阪府",
    "city": "大阪市西淀川区",
    "town": "野里"
  },
  "5550025": {
    "zipcode": "5550025",
    "prefectureCode": "27",
    "prefectureNumber": 27,
    "prefecture": "大阪府",
    "city": "大阪市西淀川区",
    "town": "姫里"
  },
  "5550031": {
    "zipcode": "5550031",
    "prefectureCode": "27",
    "prefectureNumber": 27,
    "prefecture": "大阪府",
    "city": "大阪市西淀川区",
    "town": "出来島"
  },
  "5550032": {
    "zipcode": "5550032",
    "prefectureCode": "27",
    "prefectureNumber": 27,
    "prefecture": "大阪府",
    "city": "大阪市西淀川区",
    "town": "大和田"
  },
  "5550033": {
    "zipcode": "5550033",
    "prefectureCode": "27",
    "prefectureNumber": 27,
    "prefecture": "大阪府",
    "city": "大阪市西淀川区",
    "town": "姫島"
  },
  "5550034": {
    "zipcode": "5550034",
    "prefectureCode": "27",
    "prefectureNumber": 27,
    "prefecture": "大阪府",
    "city": "大阪市西淀川区",
    "town": "福町"
  },
  "5550041": {
    "zipcode": "5550041",
    "prefectureCode": "27",
    "prefectureNumber": 27,
    "prefecture": "大阪府",
    "city": "大阪市西淀川区",
    "town": "中島"
  },
  "5550042": {
    "zipcode": "5550042",
    "prefectureCode": "27",
    "prefectureNumber": 27,
    "prefecture": "大阪府",
    "city": "大阪市西淀川区",
    "town": "西島"
  },
  "5550043": {
    "zipcode": "5550043",
    "prefectureCode": "27",
    "prefectureNumber": 27,
    "prefecture": "大阪府",
    "city": "大阪市西淀川区",
    "town": "大野"
  },
  "5550044": {
    "zipcode": "5550044",
    "prefectureCode": "27",
    "prefectureNumber": 27,
    "prefecture": "大阪府",
    "city": "大阪市西淀川区",
    "town": "百島"
  }
}
