{
  "5560000": {
    "zipcode": "5560000",
    "prefectureCode": "27",
    "prefectureNumber": 27,
    "prefecture": "大阪府",
    "city": "大阪市浪速区",
    "town": "以下に掲載がない場合"
  },
  "5560001": {
    "zipcode": "5560001",
    "prefectureCode": "27",
    "prefectureNumber": 27,
    "prefecture": "大阪府",
    "city": "大阪市浪速区",
    "town": "下寺"
  },
  "5560002": {
    "zipcode": "5560002",
    "prefectureCode": "27",
    "prefectureNumber": 27,
    "prefecture": "大阪府",
    "city": "大阪市浪速区",
    "town": "恵美須東"
  },
  "5560003": {
    "zipcode": "5560003",
    "prefectureCode": "27",
    "prefectureNumber": 27,
    "prefecture": "大阪府",
    "city": "大阪市浪速区",
    "town": "恵美須西"
  },
  "5560004": {
    "zipcode": "5560004",
    "prefectureCode": "27",
    "prefectureNumber": 27,
    "prefecture": "大阪府",
    "city": "大阪市浪速区",
    "town": "日本橋西"
  },
  "5560005": {
    "zipcode": "5560005",
    "prefectureCode": "27",
    "prefectureNumber": 27,
    "prefecture": "大阪府",
    "city": "大阪市浪速区",
    "town": "日本橋"
  },
  "5560006": {
    "zipcode": "5560006",
    "prefectureCode": "27",
    "prefectureNumber": 27,
    "prefecture": "大阪府",
    "city": "大阪市浪速区",
    "town": "日本橋東"
  },
  "5560011": {
    "zipcode": "5560011",
    "prefectureCode": "27",
    "prefectureNumber": 27,
    "prefecture": "大阪府",
    "city": "大阪市浪速区",
    "town": "難波中"
  },
  "5560012": {
    "zipcode": "5560012",
    "prefectureCode": "27",
    "prefectureNumber": 27,
    "prefecture": "大阪府",
    "city": "大阪市浪速区",
    "town": "敷津東"
  },
  "5560013": {
    "zipcode": "5560013",
    "prefectureCode": "27",
    "prefectureNumber": 27,
    "prefecture": "大阪府",
    "city": "大阪市浪速区",
    "town": "戎本町"
  },
  "5560014": {
    "zipcode": "5560014",
    "prefectureCode": "27",
    "prefectureNumber": 27,
    "prefecture": "大阪府",
    "city": "大阪市浪速区",
    "town": "大国"
  },
  "5560015": {
    "zipcode": "5560015",
    "prefectureCode": "27",
    "prefectureNumber": 27,
    "prefecture": "大阪府",
    "city": "大阪市浪速区",
    "town": "敷津西"
  },
  "5560016": {
    "zipcode": "5560016",
    "prefectureCode": "27",
    "prefectureNumber": 27,
    "prefecture": "大阪府",
    "city": "大阪市浪速区",
    "town": "元町"
  },
  "5560017": {
    "zipcode": "5560017",
    "prefectureCode": "27",
    "prefectureNumber": 27,
    "prefecture": "大阪府",
    "city": "大阪市浪速区",
    "town": "湊町"
  },
  "5560020": {
    "zipcode": "5560020",
    "prefectureCode": "27",
    "prefectureNumber": 27,
    "prefecture": "大阪府",
    "city": "大阪市浪速区",
    "town": "立葉"
  },
  "5560021": {
    "zipcode": "5560021",
    "prefectureCode": "27",
    "prefectureNumber": 27,
    "prefecture": "大阪府",
    "city": "大阪市浪速区",
    "town": "幸町"
  },
  "5560022": {
    "zipcode": "5560022",
    "prefectureCode": "27",
    "prefectureNumber": 27,
    "prefecture": "大阪府",
    "city": "大阪市浪速区",
    "town": "桜川"
  },
  "5560023": {
    "zipcode": "5560023",
    "prefectureCode": "27",
    "prefectureNumber": 27,
    "prefecture": "大阪府",
    "city": "大阪市浪速区",
    "town": "稲荷"
  },
  "5560024": {
    "zipcode": "5560024",
    "prefectureCode": "27",
    "prefectureNumber": 27,
    "prefecture": "大阪府",
    "city": "大阪市浪速区",
    "town": "塩草"
  },
  "5560025": {
    "zipcode": "5560025",
    "prefectureCode": "27",
    "prefectureNumber": 27,
    "prefecture": "大阪府",
    "city": "大阪市浪速区",
    "town": "浪速東"
  },
  "5560026": {
    "zipcode": "5560026",
    "prefectureCode": "27",
    "prefectureNumber": 27,
    "prefecture": "大阪府",
    "city": "大阪市浪速区",
    "town": "浪速西"
  },
  "5560027": {
    "zipcode": "5560027",
    "prefectureCode": "27",
    "prefectureNumber": 27,
    "prefecture": "大阪府",
    "city": "大阪市浪速区",
    "town": "木津川"
  },
  "5560028": {
    "zipcode": "5560028",
    "prefectureCode": "27",
    "prefectureNumber": 27,
    "prefecture": "大阪府",
    "city": "大阪市浪速区",
    "town": "久保吉"
  },
  "5560029": {
    "zipcode": "5560029",
    "prefectureCode": "27",
    "prefectureNumber": 27,
    "prefecture": "大阪府",
    "city": "大阪市浪速区",
    "town": "芦原"
  }
}
