{
  "5570000": {
    "zipcode": "5570000",
    "prefectureCode": "27",
    "prefectureNumber": 27,
    "prefecture": "大阪府",
    "city": "大阪市西成区",
    "town": "以下に掲載がない場合"
  },
  "5570001": {
    "zipcode": "5570001",
    "prefectureCode": "27",
    "prefectureNumber": 27,
    "prefecture": "大阪府",
    "city": "大阪市西成区",
    "town": "山王"
  },
  "5570002": {
    "zipcode": "5570002",
    "prefectureCode": "27",
    "prefectureNumber": 27,
    "prefecture": "大阪府",
    "city": "大阪市西成区",
    "town": "太子"
  },
  "5570003": {
    "zipcode": "5570003",
    "prefectureCode": "27",
    "prefectureNumber": 27,
    "prefecture": "大阪府",
    "city": "大阪市西成区",
    "town": "天下茶屋北"
  },
  "5570004": {
    "zipcode": "5570004",
    "prefectureCode": "27",
    "prefectureNumber": 27,
    "prefecture": "大阪府",
    "city": "大阪市西成区",
    "town": "萩之茶屋"
  },
  "5570011": {
    "zipcode": "5570011",
    "prefectureCode": "27",
    "prefectureNumber": 27,
    "prefecture": "大阪府",
    "city": "大阪市西成区",
    "town": "天下茶屋東"
  },
  "5570012": {
    "zipcode": "5570012",
    "prefectureCode": "27",
    "prefectureNumber": 27,
    "prefecture": "大阪府",
    "city": "大阪市西成区",
    "town": "聖天下"
  },
  "5570013": {
    "zipcode": "5570013",
    "prefectureCode": "27",
    "prefectureNumber": 27,
    "prefecture": "大阪府",
    "city": "大阪市西成区",
    "town": "天神ノ森"
  },
  "5570014": {
    "zipcode": "5570014",
    "prefectureCode": "27",
    "prefectureNumber": 27,
    "prefecture": "大阪府",
    "city": "大阪市西成区",
    "town": "天下茶屋"
  },
  "5570015": {
    "zipcode": "5570015",
    "prefectureCode": "27",
    "prefectureNumber": 27,
    "prefecture": "大阪府",
    "city": "大阪市西成区",
    "town": "花園南"
  },
  "5570016": {
    "zipcode": "5570016",
    "prefectureCode": "27",
    "prefectureNumber": 27,
    "prefecture": "大阪府",
    "city": "大阪市西成区",
    "town": "花園北"
  },
  "5570021": {
    "zipcode": "5570021",
    "prefectureCode": "27",
    "prefectureNumber": 27,
    "prefecture": "大阪府",
    "city": "大阪市西成区",
    "town": "北開"
  },
  "5570022": {
    "zipcode": "5570022",
    "prefectureCode": "27",
    "prefectureNumber": 27,
    "prefecture": "大阪府",
    "city": "大阪市西成区",
    "town": "中開"
  },
  "5570023": {
    "zipcode": "5570023",
    "prefectureCode": "27",
    "prefectureNumber": 27,
    "prefecture": "大阪府",
    "city": "大阪市西成区",
    "town": "南開"
  },
  "5570024": {
    "zipcode": "5570024",
    "prefectureCode": "27",
    "prefectureNumber": 27,
    "prefecture": "大阪府",
    "city": "大阪市西成区",
    "town": "出城"
  },
  "5570025": {
    "zipcode": "5570025",
    "prefectureCode": "27",
    "prefectureNumber": 27,
    "prefecture": "大阪府",
    "city": "大阪市西成区",
    "town": "長橋"
  },
  "5570031": {
    "zipcode": "5570031",
    "prefectureCode": "27",
    "prefectureNumber": 27,
    "prefecture": "大阪府",
    "city": "大阪市西成区",
    "town": "鶴見橋"
  },
  "5570032": {
    "zipcode": "5570032",
    "prefectureCode": "27",
    "prefectureNumber": 27,
    "prefecture": "大阪府",
    "city": "大阪市西成区",
    "town": "旭"
  },
  "5570033": {
    "zipcode": "5570033",
    "prefectureCode": "27",
    "prefectureNumber": 27,
    "prefecture": "大阪府",
    "city": "大阪市西成区",
    "town": "梅南"
  },
  "5570034": {
    "zipcode": "5570034",
    "prefectureCode": "27",
    "prefectureNumber": 27,
    "prefecture": "大阪府",
    "city": "大阪市西成区",
    "town": "松"
  },
  "5570041": {
    "zipcode": "5570041",
    "prefectureCode": "27",
    "prefectureNumber": 27,
    "prefecture": "大阪府",
    "city": "大阪市西成区",
    "town": "岸里"
  },
  "5570042": {
    "zipcode": "5570042",
    "prefectureCode": "27",
    "prefectureNumber": 27,
    "prefecture": "大阪府",
    "city": "大阪市西成区",
    "town": "岸里東"
  },
  "5570043": {
    "zipcode": "5570043",
    "prefectureCode": "27",
    "prefectureNumber": 27,
    "prefecture": "大阪府",
    "city": "大阪市西成区",
    "town": "玉出東"
  },
  "5570044": {
    "zipcode": "5570044",
    "prefectureCode": "27",
    "prefectureNumber": 27,
    "prefecture": "大阪府",
    "city": "大阪市西成区",
    "town": "玉出中"
  },
  "5570045": {
    "zipcode": "5570045",
    "prefectureCode": "27",
    "prefectureNumber": 27,
    "prefecture": "大阪府",
    "city": "大阪市西成区",
    "town": "玉出西"
  },
  "5570051": {
    "zipcode": "5570051",
    "prefectureCode": "27",
    "prefectureNumber": 27,
    "prefecture": "大阪府",
    "city": "大阪市西成区",
    "town": "橘"
  },
  "5570052": {
    "zipcode": "5570052",
    "prefectureCode": "27",
    "prefectureNumber": 27,
    "prefecture": "大阪府",
    "city": "大阪市西成区",
    "town": "潮路"
  },
  "5570053": {
    "zipcode": "5570053",
    "prefectureCode": "27",
    "prefectureNumber": 27,
    "prefecture": "大阪府",
    "city": "大阪市西成区",
    "town": "千本北"
  },
  "5570054": {
    "zipcode": "5570054",
    "prefectureCode": "27",
    "prefectureNumber": 27,
    "prefecture": "大阪府",
    "city": "大阪市西成区",
    "town": "千本中"
  },
  "5570055": {
    "zipcode": "5570055",
    "prefectureCode": "27",
    "prefectureNumber": 27,
    "prefecture": "大阪府",
    "city": "大阪市西成区",
    "town": "千本南"
  },
  "5570061": {
    "zipcode": "5570061",
    "prefectureCode": "27",
    "prefectureNumber": 27,
    "prefecture": "大阪府",
    "city": "大阪市西成区",
    "town": "北津守"
  },
  "5570062": {
    "zipcode": "5570062",
    "prefectureCode": "27",
    "prefectureNumber": 27,
    "prefecture": "大阪府",
    "city": "大阪市西成区",
    "town": "津守"
  },
  "5570063": {
    "zipcode": "5570063",
    "prefectureCode": "27",
    "prefectureNumber": 27,
    "prefecture": "大阪府",
    "city": "大阪市西成区",
    "town": "南津守"
  }
}
