{
  "5590000": {
    "zipcode": "5590000",
    "prefectureCode": "27",
    "prefectureNumber": 27,
    "prefecture": "大阪府",
    "city": "大阪市住之江区",
    "town": "以下に掲載がない場合"
  },
  "5590001": {
    "zipcode": "5590001",
    "prefectureCode": "27",
    "prefectureNumber": 27,
    "prefecture": "大阪府",
    "city": "大阪市住之江区",
    "town": "粉浜"
  },
  "5590002": {
    "zipcode": "5590002",
    "prefectureCode": "27",
    "prefectureNumber": 27,
    "prefecture": "大阪府",
    "city": "大阪市住之江区",
    "town": "浜口東"
  },
  "5590003": {
    "zipcode": "5590003",
    "prefectureCode": "27",
    "prefectureNumber": 27,
    "prefecture": "大阪府",
    "city": "大阪市住之江区",
    "town": "安立"
  },
  "5590004": {
    "zipcode": "5590004",
    "prefectureCode": "27",
    "prefectureNumber": 27,
    "prefecture": "大阪府",
    "city": "大阪市住之江区",
    "town": "住之江"
  },
  "5590005": {
    "zipcode": "5590005",
    "prefectureCode": "27",
    "prefectureNumber": 27,
    "prefecture": "大阪府",
    "city": "大阪市住之江区",
    "town": "西住之江"
  },
  "5590006": {
    "zipcode": "5590006",
    "prefectureCode": "27",
    "prefectureNumber": 27,
    "prefecture": "大阪府",
    "city": "大阪市住之江区",
    "town": "浜口西"
  },
  "5590007": {
    "zipcode": "5590007",
    "prefectureCode": "27",
    "prefectureNumber": 27,
    "prefecture": "大阪府",
    "city": "大阪市住之江区",
    "town": "粉浜西"
  },
  "5590011": {
    "zipcode": "5590011",
    "prefectureCode": "27",
    "prefectureNumber": 27,
    "prefecture": "大阪府",
    "city": "大阪市住之江区",
    "town": "北加賀屋"
  },
  "5590012": {
    "zipcode": "5590012",
    "prefectureCode": "27",
    "prefectureNumber": 27,
    "prefecture": "大阪府",
    "city": "大阪市住之江区",
    "town": "東加賀屋"
  },
  "5590013": {
    "zipcode": "5590013",
    "prefectureCode": "27",
    "prefectureNumber": 27,
    "prefecture": "大阪府",
    "city": "大阪市住之江区",
    "town": "御崎"
  },
  "5590014": {
    "zipcode": "5590014",
    "prefectureCode": "27",
    "prefectureNumber": 27,
    "prefecture": "大阪府",
    "city": "大阪市住之江区",
    "town": "北島"
  },
  "5590015": {
    "zipcode": "5590015",
    "prefectureCode": "27",
    "prefectureNumber": 27,
    "prefecture": "大阪府",
    "city": "大阪市住之江区",
    "town": "南加賀屋"
  },
  "5590016": {
    "zipcode": "5590016",
    "prefectureCode": "27",
    "prefectureNumber": 27,
    "prefecture": "大阪府",
    "city": "大阪市住之江区",
    "town": "西加賀屋"
  },
  "5590017": {
    "zipcode": "5590017",
    "prefectureCode": "27",
    "prefectureNumber": 27,
    "prefecture": "大阪府",
    "city": "大阪市住之江区",
    "town": "中加賀屋"
  },
  "5590021": {
    "zipcode": "5590021",
    "prefectureCode": "27",
    "prefectureNumber": 27,
    "prefecture": "大阪府",
    "city": "大阪市住之江区",
    "town": "柴谷"
  },
  "5590022": {
    "zipcode": "5590022",
    "prefectureCode": "27",
    "prefectureNumber": 27,
    "prefecture": "大阪府",
    "city": "大阪市住之江区",
    "town": "緑木"
  },
  "5590023": {
    "zipcode": "5590023",
    "prefectureCode": "27",
    "prefectureNumber": 27,
    "prefecture": "大阪府",
    "city": "大阪市住之江区",
    "town": "泉"
  },
  "5590024": {
    "zipcode": "5590024",
    "prefectureCode": "27",
    "prefectureNumber": 27,
    "prefecture": "大阪府",
    "city": "大阪市住之江区",
    "town": "新北島"
  },
  "5590025": {
    "zipcode": "5590025",
    "prefectureCode": "27",
    "prefectureNumber": 27,
    "prefecture": "大阪府",
    "city": "大阪市住之江区",
    "town": "平林南"
  },
  "5590026": {
    "zipcode": "5590026",
    "prefectureCode": "27",
    "prefectureNumber": 27,
    "prefecture": "大阪府",
    "city": "大阪市住之江区",
    "town": "平林北"
  },
  "5590031": {
    "zipcode": "5590031",
    "prefectureCode": "27",
    "prefectureNumber": 27,
    "prefecture": "大阪府",
    "city": "大阪市住之江区",
    "town": "南港東"
  },
  "5590032": {
    "zipcode": "5590032",
    "prefectureCode": "27",
    "prefectureNumber": 27,
    "prefecture": "大阪府",
    "city": "大阪市住之江区",
    "town": "南港南"
  },
  "5590033": {
    "zipcode": "5590033",
    "prefectureCode": "27",
    "prefectureNumber": 27,
    "prefecture": "大阪府",
    "city": "大阪市住之江区",
    "town": "南港中"
  },
  "5590034": {
    "zipcode": "5590034",
    "prefectureCode": "27",
    "prefectureNumber": 27,
    "prefecture": "大阪府",
    "city": "大阪市住之江区",
    "town": "南港北"
  }
}
