{
  "5600000": {
    "zipcode": "5600000",
    "prefectureCode": "27",
    "prefectureNumber": 27,
    "prefecture": "大阪府",
    "city": "豊中市",
    "town": "以下に掲載がない場合"
  },
  "5600001": {
    "zipcode": "5600001",
    "prefectureCode": "27",
    "prefectureNumber": 27,
    "prefecture": "大阪府",
    "city": "豊中市",
    "town": "北緑丘"
  },
  "5600002": {
    "zipcode": "5600002",
    "prefectureCode": "27",
    "prefectureNumber": 27,
    "prefecture": "大阪府",
    "city": "豊中市",
    "town": "緑丘"
  },
  "5600003": {
    "zipcode": "5600003",
    "prefectureCode": "27",
    "prefectureNumber": 27,
    "prefecture": "大阪府",
    "city": "豊中市",
    "town": "東豊中町"
  },
  "5600004": {
    "zipcode": "5600004",
    "prefectureCode": "27",
    "prefectureNumber": 27,
    "prefecture": "大阪府",
    "city": "豊中市",
    "town": "少路"
  },
  "5600005": {
    "zipcode": "5600005",
    "prefectureCode": "27",
    "prefectureNumber": 27,
    "prefecture": "大阪府",
    "city": "豊中市",
    "town": "西緑丘"
  },
  "5600011": {
    "zipcode": "5600011",
    "prefectureCode": "27",
    "prefectureNumber": 27,
    "prefecture": "大阪府",
    "city": "豊中市",
    "town": "上野西"
  },
  "5600012": {
    "zipcode": "5600012",
    "prefectureCode": "27",
    "prefectureNumber": 27,
    "prefecture": "大阪府",
    "city": "豊中市",
    "town": "上野坂"
  },
  "5600013": {
    "zipcode": "5600013",
    "prefectureCode": "27",
    "prefectureNumber": 27,
    "prefecture": "大阪府",
    "city": "豊中市",
    "town": "上野東"
  },
  "5600014": {
    "zipcode": "5600014",
    "prefectureCode": "27",
    "prefectureNumber": 27,
    "prefecture": "大阪府",
    "city": "豊中市",
    "town": "熊野町"
  },
  "5600015": {
    "zipcode": "5600015",
    "prefectureCode": "27",
    "prefectureNumber": 27,
    "prefecture": "大阪府",
    "city": "豊中市",
    "town": "赤阪"
  },
  "5600016": {
    "zipcode": "5600016",
    "prefectureCode": "27",
    "prefectureNumber": 27,
    "prefecture": "大阪府",
    "city": "豊中市",
    "town": "栗ケ丘町"
  },
  "5600021": {
    "zipcode": "5600021",
    "prefectureCode": "27",
    "prefectureNumber": 27,
    "prefecture": "大阪府",
    "city": "豊中市",
    "town": "本町"
  },
  "5600022": {
    "zipcode": "5600022",
    "prefectureCode": "27",
    "prefectureNumber": 27,
    "prefecture": "大阪府",
    "city": "豊中市",
    "town": "北桜塚"
  },
  "5600023": {
    "zipcode": "5600023",
    "prefectureCode": "27",
    "prefectureNumber": 27,
    "prefecture": "大阪府",
    "city": "豊中市",
    "town": "岡上の町"
  },
  "5600024": {
    "zipcode": "5600024",
    "prefectureCode": "27",
    "prefectureNumber": 27,
    "prefecture": "大阪府",
    "city": "豊中市",
    "town": "末広町"
  },
  "5600025": {
    "zipcode": "5600025",
    "prefectureCode": "27",
    "prefectureNumber": 27,
    "prefecture": "大阪府",
    "city": "豊中市",
    "town": "立花町"
  },
  "5600026": {
    "zipcode": "5600026",
    "prefectureCode": "27",
    "prefectureNumber": 27,
    "prefecture": "大阪府",
    "city": "豊中市",
    "town": "玉井町"
  },
  "5600031": {
    "zipcode": "5600031",
    "prefectureCode": "27",
    "prefectureNumber": 27,
    "prefecture": "大阪府",
    "city": "豊中市",
    "town": "螢池北町"
  },
  "5600032": {
    "zipcode": "5600032",
    "prefectureCode": "27",
    "prefectureNumber": 27,
    "prefecture": "大阪府",
    "city": "豊中市",
    "town": "螢池東町"
  },
  "5600033": {
    "zipcode": "5600033",
    "prefectureCode": "27",
    "prefectureNumber": 27,
    "prefecture": "大阪府",
    "city": "豊中市",
    "town": "螢池中町"
  },
  "5600034": {
    "zipcode": "5600034",
    "prefectureCode": "27",
    "prefectureNumber": 27,
    "prefecture": "大阪府",
    "city": "豊中市",
    "town": "螢池南町"
  },
  "5600035": {
    "zipcode": "5600035",
    "prefectureCode": "27",
    "prefectureNumber": 27,
    "prefecture": "大阪府",
    "city": "豊中市",
    "town": "箕輪"
  },
  "5600036": {
    "zipcode": "5600036",
    "prefectureCode": "27",
    "prefectureNumber": 27,
    "prefecture": "大阪府",
    "city": "豊中市",
    "town": "螢池西町"
  },
  "5600041": {
    "zipcode": "5600041",
    "prefectureCode": "27",
    "prefectureNumber": 27,
    "prefecture": "大阪府",
    "city": "豊中市",
    "town": "清風荘"
  },
  "5600042": {
    "zipcode": "5600042",
    "prefectureCode": "27",
    "prefectureNumber": 27,
    "prefecture": "大阪府",
    "city": "豊中市",
    "town": "石橋麻田町"
  },
  "5600043": {
    "zipcode": "5600043",
    "prefectureCode": "27",
    "prefectureNumber": 27,
    "prefecture": "大阪府",
    "city": "豊中市",
    "town": "待兼山町"
  },
  "5600044": {
    "zipcode": "5600044",
    "prefectureCode": "27",
    "prefectureNumber": 27,
    "prefecture": "大阪府",
    "city": "豊中市",
    "town": "刀根山元町"
  },
  "5600045": {
    "zipcode": "5600045",
    "prefectureCode": "27",
    "prefectureNumber": 27,
    "prefecture": "大阪府",
    "city": "豊中市",
    "town": "刀根山"
  },
  "5600046": {
    "zipcode": "5600046",
    "prefectureCode": "27",
    "prefectureNumber": 27,
    "prefecture": "大阪府",
    "city": "豊中市",
    "town": "千里園"
  },
  "5600051": {
    "zipcode": "5600051",
    "prefectureCode": "27",
    "prefectureNumber": 27,
    "prefecture": "大阪府",
    "city": "豊中市",
    "town": "永楽荘"
  },
  "5600052": {
    "zipcode": "5600052",
    "prefectureCode": "27",
    "prefectureNumber": 27,
    "prefecture": "大阪府",
    "city": "豊中市",
    "town": "春日町"
  },
  "5600053": {
    "zipcode": "5600053",
    "prefectureCode": "27",
    "prefectureNumber": 27,
    "prefecture": "大阪府",
    "city": "豊中市",
    "town": "向丘"
  },
  "5600054": {
    "zipcode": "5600054",
    "prefectureCode": "27",
    "prefectureNumber": 27,
    "prefecture": "大阪府",
    "city": "豊中市",
    "town": "桜の町"
  },
  "5600055": {
    "zipcode": "5600055",
    "prefectureCode": "27",
    "prefectureNumber": 27,
    "prefecture": "大阪府",
    "city": "豊中市",
    "town": "柴原町"
  },
  "5600056": {
    "zipcode": "5600056",
    "prefectureCode": "27",
    "prefectureNumber": 27,
    "prefecture": "大阪府",
    "city": "豊中市",
    "town": "宮山町"
  },
  "5600081": {
    "zipcode": "5600081",
    "prefectureCode": "27",
    "prefectureNumber": 27,
    "prefecture": "大阪府",
    "city": "豊中市",
    "town": "新千里北町"
  },
  "5600082": {
    "zipcode": "5600082",
    "prefectureCode": "27",
    "prefectureNumber": 27,
    "prefecture": "大阪府",
    "city": "豊中市",
    "town": "新千里東町"
  },
  "5600083": {
    "zipcode": "5600083",
    "prefectureCode": "27",
    "prefectureNumber": 27,
    "prefecture": "大阪府",
    "city": "豊中市",
    "town": "新千里西町"
  },
  "5600084": {
    "zipcode": "5600084",
    "prefectureCode": "27",
    "prefectureNumber": 27,
    "prefecture": "大阪府",
    "city": "豊中市",
    "town": "新千里南町"
  },
  "5600085": {
    "zipcode": "5600085",
    "prefectureCode": "27",
    "prefectureNumber": 27,
    "prefecture": "大阪府",
    "city": "豊中市",
    "town": "上新田"
  }
}
