{
  "5620000": {
    "zipcode": "5620000",
    "prefectureCode": "27",
    "prefectureNumber": 27,
    "prefecture": "大阪府",
    "city": "箕面市",
    "town": "以下に掲載がない場合"
  },
  "5620001": {
    "zipcode": "5620001",
    "prefectureCode": "27",
    "prefectureNumber": 27,
    "prefecture": "大阪府",
    "city": "箕面市",
    "town": "箕面"
  },
  "5620002": {
    "zipcode": "5620002",
    "prefectureCode": "27",
    "prefectureNumber": 27,
    "prefecture": "大阪府",
    "city": "箕面市",
    "town": "箕面公園"
  },
  "5620003": {
    "zipcode": "5620003",
    "prefectureCode": "27",
    "prefectureNumber": 27,
    "prefecture": "大阪府",
    "city": "箕面市",
    "town": "西小路"
  },
  "5620004": {
    "zipcode": "5620004",
    "prefectureCode": "27",
    "prefectureNumber": 27,
    "prefecture": "大阪府",
    "city": "箕面市",
    "town": "牧落"
  },
  "5620005": {
    "zipcode": "5620005",
    "prefectureCode": "27",
    "prefectureNumber": 27,
    "prefecture": "大阪府",
    "city": "箕面市",
    "town": "新稲"
  },
  "5620006": {
    "zipcode": "5620006",
    "prefectureCode": "27",
    "prefectureNumber": 27,
    "prefecture": "大阪府",
    "city": "箕面市",
    "town": "温泉町"
  },
  "5620011": {
    "zipcode": "5620011",
    "prefectureCode": "27",
    "prefectureNumber": 27,
    "prefecture": "大阪府",
    "city": "箕面市",
    "town": "如意谷"
  },
  "5620012": {
    "zipcode": "5620012",
    "prefectureCode": "27",
    "prefectureNumber": 27,
    "prefecture": "大阪府",
    "city": "箕面市",
    "town": "白島"
  },
  "5620013": {
    "zipcode": "5620013",
    "prefectureCode": "27",
    "prefectureNumber": 27,
    "prefecture": "大阪府",
    "city": "箕面市",
    "town": "坊島"
  },
  "5620014": {
    "zipcode": "5620014",
    "prefectureCode": "27",
    "prefectureNumber": 27,
    "prefecture": "大阪府",
    "city": "箕面市",
    "town": "萱野"
  },
  "5620015": {
    "zipcode": "5620015",
    "prefectureCode": "27",
    "prefectureNumber": 27,
    "prefecture": "大阪府",
    "city": "箕面市",
    "town": "稲"
  },
  "5620021": {
    "zipcode": "5620021",
    "prefectureCode": "27",
    "prefectureNumber": 27,
    "prefecture": "大阪府",
    "city": "箕面市",
    "town": "粟生間谷"
  },
  "5620022": {
    "zipcode": "5620022",
    "prefectureCode": "27",
    "prefectureNumber": 27,
    "prefecture": "大阪府",
    "city": "箕面市",
    "town": "粟生間谷東"
  },
  "5620023": {
    "zipcode": "5620023",
    "prefectureCode": "27",
    "prefectureNumber": 27,
    "prefecture": "大阪府",
    "city": "箕面市",
    "town": "粟生間谷西"
  },
  "5620024": {
    "zipcode": "5620024",
    "prefectureCode": "27",
    "prefectureNumber": 27,
    "prefecture": "大阪府",
    "city": "箕面市",
    "town": "粟生新家"
  },
  "5620025": {
    "zipcode": "5620025",
    "prefectureCode": "27",
    "prefectureNumber": 27,
    "prefecture": "大阪府",
    "city": "箕面市",
    "town": "粟生外院"
  },
  "5620026": {
    "zipcode": "5620026",
    "prefectureCode": "27",
    "prefectureNumber": 27,
    "prefecture": "大阪府",
    "city": "箕面市",
    "town": "外院"
  },
  "5620027": {
    "zipcode": "5620027",
    "prefectureCode": "27",
    "prefectureNumber": 27,
    "prefecture": "大阪府",
    "city": "箕面市",
    "town": "石丸"
  },
  "5620028": {
    "zipcode": "5620028",
    "prefectureCode": "27",
    "prefectureNumber": 27,
    "prefecture": "大阪府",
    "city": "箕面市",
    "town": "彩都粟生南"
  },
  "5620029": {
    "zipcode": "5620029",
    "prefectureCode": "27",
    "prefectureNumber": 27,
    "prefecture": "大阪府",
    "city": "箕面市",
    "town": "彩都粟生北"
  },
  "5620031": {
    "zipcode": "5620031",
    "prefectureCode": "27",
    "prefectureNumber": 27,
    "prefecture": "大阪府",
    "city": "箕面市",
    "town": "小野原東"
  },
  "5620032": {
    "zipcode": "5620032",
    "prefectureCode": "27",
    "prefectureNumber": 27,
    "prefecture": "大阪府",
    "city": "箕面市",
    "town": "小野原西"
  },
  "5620033": {
    "zipcode": "5620033",
    "prefectureCode": "27",
    "prefectureNumber": 27,
    "prefecture": "大阪府",
    "city": "箕面市",
    "town": "今宮"
  },
  "5620034": {
    "zipcode": "5620034",
    "prefectureCode": "27",
    "prefectureNumber": 27,
    "prefecture": "大阪府",
    "city": "箕面市",
    "town": "西宿"
  },
  "5620035": {
    "zipcode": "5620035",
    "prefectureCode": "27",
    "prefectureNumber": 27,
    "prefecture": "大阪府",
    "city": "箕面市",
    "town": "船場東"
  },
  "5620036": {
    "zipcode": "5620036",
    "prefectureCode": "27",
    "prefectureNumber": 27,
    "prefecture": "大阪府",
    "city": "箕面市",
    "town": "船場西"
  },
  "5620041": {
    "zipcode": "5620041",
    "prefectureCode": "27",
    "prefectureNumber": 27,
    "prefecture": "大阪府",
    "city": "箕面市",
    "town": "桜"
  },
  "5620042": {
    "zipcode": "5620042",
    "prefectureCode": "27",
    "prefectureNumber": 27,
    "prefecture": "大阪府",
    "city": "箕面市",
    "town": "百楽荘"
  },
  "5620043": {
    "zipcode": "5620043",
    "prefectureCode": "27",
    "prefectureNumber": 27,
    "prefecture": "大阪府",
    "city": "箕面市",
    "town": "桜井"
  },
  "5620044": {
    "zipcode": "5620044",
    "prefectureCode": "27",
    "prefectureNumber": 27,
    "prefecture": "大阪府",
    "city": "箕面市",
    "town": "半町"
  },
  "5620045": {
    "zipcode": "5620045",
    "prefectureCode": "27",
    "prefectureNumber": 27,
    "prefecture": "大阪府",
    "city": "箕面市",
    "town": "瀬川"
  },
  "5620046": {
    "zipcode": "5620046",
    "prefectureCode": "27",
    "prefectureNumber": 27,
    "prefecture": "大阪府",
    "city": "箕面市",
    "town": "桜ケ丘"
  }
}
