{
  "5630000": {
    "zipcode": "5630000",
    "prefectureCode": "27",
    "prefectureNumber": 27,
    "prefecture": "大阪府",
    "city": "池田市",
    "town": "以下に掲載がない場合"
  },
  "5630011": {
    "zipcode": "5630011",
    "prefectureCode": "27",
    "prefectureNumber": 27,
    "prefecture": "大阪府",
    "city": "池田市",
    "town": "伏尾町"
  },
  "5630012": {
    "zipcode": "5630012",
    "prefectureCode": "27",
    "prefectureNumber": 27,
    "prefecture": "大阪府",
    "city": "池田市",
    "town": "東山町"
  },
  "5630013": {
    "zipcode": "5630013",
    "prefectureCode": "27",
    "prefectureNumber": 27,
    "prefecture": "大阪府",
    "city": "池田市",
    "town": "中川原町"
  },
  "5630014": {
    "zipcode": "5630014",
    "prefectureCode": "27",
    "prefectureNumber": 27,
    "prefecture": "大阪府",
    "city": "池田市",
    "town": "木部町"
  },
  "5630015": {
    "zipcode": "5630015",
    "prefectureCode": "27",
    "prefectureNumber": 27,
    "prefecture": "大阪府",
    "city": "池田市",
    "town": "古江町"
  },
  "5630016": {
    "zipcode": "5630016",
    "prefectureCode": "27",
    "prefectureNumber": 27,
    "prefecture": "大阪府",
    "city": "池田市",
    "town": "吉田町"
  },
  "5630017": {
    "zipcode": "5630017",
    "prefectureCode": "27",
    "prefectureNumber": 27,
    "prefecture": "大阪府",
    "city": "池田市",
    "town": "伏尾台"
  },
  "5630021": {
    "zipcode": "5630021",
    "prefectureCode": "27",
    "prefectureNumber": 27,
    "prefecture": "大阪府",
    "city": "池田市",
    "town": "畑"
  },
  "5630022": {
    "zipcode": "5630022",
    "prefectureCode": "27",
    "prefectureNumber": 27,
    "prefecture": "大阪府",
    "city": "池田市",
    "town": "旭丘"
  },
  "5630023": {
    "zipcode": "5630023",
    "prefectureCode": "27",
    "prefectureNumber": 27,
    "prefecture": "大阪府",
    "city": "池田市",
    "town": "井口堂"
  },
  "5630024": {
    "zipcode": "5630024",
    "prefectureCode": "27",
    "prefectureNumber": 27,
    "prefecture": "大阪府",
    "city": "池田市",
    "town": "鉢塚"
  },
  "5630025": {
    "zipcode": "5630025",
    "prefectureCode": "27",
    "prefectureNumber": 27,
    "prefecture": "大阪府",
    "city": "池田市",
    "town": "城南"
  },
  "5630026": {
    "zipcode": "5630026",
    "prefectureCode": "27",
    "prefectureNumber": 27,
    "prefecture": "大阪府",
    "city": "池田市",
    "town": "緑丘"
  },
  "5630027": {
    "zipcode": "5630027",
    "prefectureCode": "27",
    "prefectureNumber": 27,
    "prefecture": "大阪府",
    "city": "池田市",
    "town": "上池田"
  },
  "5630028": {
    "zipcode": "5630028",
    "prefectureCode": "27",
    "prefectureNumber": 27,
    "prefecture": "大阪府",
    "city": "池田市",
    "town": "渋谷"
  },
  "5630029": {
    "zipcode": "5630029",
    "prefectureCode": "27",
    "prefectureNumber": 27,
    "prefecture": "大阪府",
    "city": "池田市",
    "town": "五月丘"
  },
  "5630031": {
    "zipcode": "5630031",
    "prefectureCode": "27",
    "prefectureNumber": 27,
    "prefecture": "大阪府",
    "city": "池田市",
    "town": "天神"
  },
  "5630032": {
    "zipcode": "5630032",
    "prefectureCode": "27",
    "prefectureNumber": 27,
    "prefecture": "大阪府",
    "city": "池田市",
    "town": "石橋"
  },
  "5630033": {
    "zipcode": "5630033",
    "prefectureCode": "27",
    "prefectureNumber": 27,
    "prefecture": "大阪府",
    "city": "池田市",
    "town": "住吉"
  },
  "5630034": {
    "zipcode": "5630034",
    "prefectureCode": "27",
    "prefectureNumber": 27,
    "prefecture": "大阪府",
    "city": "池田市",
    "town": "空港"
  },
  "5630035": {
    "zipcode": "5630035",
    "prefectureCode": "27",
    "prefectureNumber": 27,
    "prefecture": "大阪府",
    "city": "池田市",
    "town": "豊島南"
  },
  "5630036": {
    "zipcode": "5630036",
    "prefectureCode": "27",
    "prefectureNumber": 27,
    "prefecture": "大阪府",
    "city": "池田市",
    "town": "豊島北"
  },
  "5630037": {
    "zipcode": "5630037",
    "prefectureCode": "27",
    "prefectureNumber": 27,
    "prefecture": "大阪府",
    "city": "池田市",
    "town": "八王寺"
  },
  "5630038": {
    "zipcode": "5630038",
    "prefectureCode": "27",
    "prefectureNumber": 27,
    "prefecture": "大阪府",
    "city": "池田市",
    "town": "荘園"
  },
  "5630041": {
    "zipcode": "5630041",
    "prefectureCode": "27",
    "prefectureNumber": 27,
    "prefecture": "大阪府",
    "city": "池田市",
    "town": "満寿美町"
  },
  "5630042": {
    "zipcode": "5630042",
    "prefectureCode": "27",
    "prefectureNumber": 27,
    "prefecture": "大阪府",
    "city": "池田市",
    "town": "宇保町"
  },
  "5630043": {
    "zipcode": "5630043",
    "prefectureCode": "27",
    "prefectureNumber": 27,
    "prefecture": "大阪府",
    "city": "池田市",
    "town": "神田"
  },
  "5630044": {
    "zipcode": "5630044",
    "prefectureCode": "27",
    "prefectureNumber": 27,
    "prefecture": "大阪府",
    "city": "池田市",
    "town": "ダイハツ町"
  },
  "5630045": {
    "zipcode": "5630045",
    "prefectureCode": "27",
    "prefectureNumber": 27,
    "prefecture": "大阪府",
    "city": "池田市",
    "town": "桃園"
  },
  "5630046": {
    "zipcode": "5630046",
    "prefectureCode": "27",
    "prefectureNumber": 27,
    "prefecture": "大阪府",
    "city": "池田市",
    "town": "姫室町"
  },
  "5630047": {
    "zipcode": "5630047",
    "prefectureCode": "27",
    "prefectureNumber": 27,
    "prefecture": "大阪府",
    "city": "池田市",
    "town": "室町"
  },
  "5630048": {
    "zipcode": "5630048",
    "prefectureCode": "27",
    "prefectureNumber": 27,
    "prefecture": "大阪府",
    "city": "池田市",
    "town": "呉服町"
  },
  "5630050": {
    "zipcode": "5630050",
    "prefectureCode": "27",
    "prefectureNumber": 27,
    "prefecture": "大阪府",
    "city": "池田市",
    "town": "新町"
  },
  "5630051": {
    "zipcode": "5630051",
    "prefectureCode": "27",
    "prefectureNumber": 27,
    "prefecture": "大阪府",
    "city": "池田市",
    "town": "綾羽"
  },
  "5630052": {
    "zipcode": "5630052",
    "prefectureCode": "27",
    "prefectureNumber": 27,
    "prefecture": "大阪府",
    "city": "池田市",
    "town": "城山町"
  },
  "5630053": {
    "zipcode": "5630053",
    "prefectureCode": "27",
    "prefectureNumber": 27,
    "prefecture": "大阪府",
    "city": "池田市",
    "town": "建石町"
  },
  "5630054": {
    "zipcode": "5630054",
    "prefectureCode": "27",
    "prefectureNumber": 27,
    "prefecture": "大阪府",
    "city": "池田市",
    "town": "大和町"
  },
  "5630055": {
    "zipcode": "5630055",
    "prefectureCode": "27",
    "prefectureNumber": 27,
    "prefecture": "大阪府",
    "city": "池田市",
    "town": "菅原町"
  },
  "5630056": {
    "zipcode": "5630056",
    "prefectureCode": "27",
    "prefectureNumber": 27,
    "prefecture": "大阪府",
    "city": "池田市",
    "town": "栄町"
  },
  "5630057": {
    "zipcode": "5630057",
    "prefectureCode": "27",
    "prefectureNumber": 27,
    "prefecture": "大阪府",
    "city": "池田市",
    "town": "槻木町"
  },
  "5630058": {
    "zipcode": "5630058",
    "prefectureCode": "27",
    "prefectureNumber": 27,
    "prefecture": "大阪府",
    "city": "池田市",
    "town": "栄本町"
  },
  "5630059": {
    "zipcode": "5630059",
    "prefectureCode": "27",
    "prefectureNumber": 27,
    "prefecture": "大阪府",
    "city": "池田市",
    "town": "西本町"
  },
  "5630100": {
    "zipcode": "5630100",
    "prefectureCode": "27",
    "prefectureNumber": 27,
    "prefecture": "大阪府",
    "city": "豊能郡豊能町",
    "town": "以下に掲載がない場合"
  },
  "5630101": {
    "zipcode": "5630101",
    "prefectureCode": "27",
    "prefectureNumber": 27,
    "prefecture": "大阪府",
    "city": "豊能郡豊能町",
    "town": "吉川"
  },
  "5630102": {
    "zipcode": "5630102",
    "prefectureCode": "27",
    "prefectureNumber": 27,
    "prefecture": "大阪府",
    "city": "豊能郡豊能町",
    "town": "ときわ台"
  },
  "5630103": {
    "zipcode": "5630103",
    "prefectureCode": "27",
    "prefectureNumber": 27,
    "prefecture": "大阪府",
    "city": "豊能郡豊能町",
    "town": "東ときわ台"
  },
  "5630104": {
    "zipcode": "5630104",
    "prefectureCode": "27",
    "prefectureNumber": 27,
    "prefecture": "大阪府",
    "city": "豊能郡豊能町",
    "town": "光風台"
  },
  "5630105": {
    "zipcode": "5630105",
    "prefectureCode": "27",
    "prefectureNumber": 27,
    "prefecture": "大阪府",
    "city": "豊能郡豊能町",
    "town": "新光風台"
  },
  "5630111": {
    "zipcode": "5630111",
    "prefectureCode": "27",
    "prefectureNumber": 27,
    "prefecture": "大阪府",
    "city": "豊能郡能勢町",
    "town": "吉野"
  },
  "5630112": {
    "zipcode": "5630112",
    "prefectureCode": "27",
    "prefectureNumber": 27,
    "prefecture": "大阪府",
    "city": "豊能郡能勢町",
    "town": "杉原"
  },
  "5630113": {
    "zipcode": "5630113",
    "prefectureCode": "27",
    "prefectureNumber": 27,
    "prefecture": "大阪府",
    "city": "豊能郡能勢町",
    "town": "倉垣"
  },
  "5630114": {
    "zipcode": "5630114",
    "prefectureCode": "27",
    "prefectureNumber": 27,
    "prefecture": "大阪府",
    "city": "豊能郡能勢町",
    "town": "山内"
  },
  "5630121": {
    "zipcode": "5630121",
    "prefectureCode": "27",
    "prefectureNumber": 27,
    "prefecture": "大阪府",
    "city": "豊能郡能勢町",
    "town": "地黄"
  },
  "5630122": {
    "zipcode": "5630122",
    "prefectureCode": "27",
    "prefectureNumber": 27,
    "prefecture": "大阪府",
    "city": "豊能郡能勢町",
    "town": "上田尻"
  },
  "5630123": {
    "zipcode": "5630123",
    "prefectureCode": "27",
    "prefectureNumber": 27,
    "prefecture": "大阪府",
    "city": "豊能郡能勢町",
    "town": "下田尻"
  },
  "5630131": {
    "zipcode": "5630131",
    "prefectureCode": "27",
    "prefectureNumber": 27,
    "prefecture": "大阪府",
    "city": "豊能郡能勢町",
    "town": "野間大原"
  },
  "5630132": {
    "zipcode": "5630132",
    "prefectureCode": "27",
    "prefectureNumber": 27,
    "prefecture": "大阪府",
    "city": "豊能郡能勢町",
    "town": "野間中"
  },
  "5630133": {
    "zipcode": "5630133",
    "prefectureCode": "27",
    "prefectureNumber": 27,
    "prefecture": "大阪府",
    "city": "豊能郡能勢町",
    "town": "野間稲地"
  },
  "5630134": {
    "zipcode": "5630134",
    "prefectureCode": "27",
    "prefectureNumber": 27,
    "prefecture": "大阪府",
    "city": "豊能郡能勢町",
    "town": "野間出野"
  },
  "5630135": {
    "zipcode": "5630135",
    "prefectureCode": "27",
    "prefectureNumber": 27,
    "prefecture": "大阪府",
    "city": "豊能郡能勢町",
    "town": "野間西山"
  },
  "5630211": {
    "zipcode": "5630211",
    "prefectureCode": "27",
    "prefectureNumber": 27,
    "prefecture": "大阪府",
    "city": "豊能郡豊能町",
    "town": "牧"
  },
  "5630212": {
    "zipcode": "5630212",
    "prefectureCode": "27",
    "prefectureNumber": 27,
    "prefecture": "大阪府",
    "city": "豊能郡豊能町",
    "town": "寺田"
  },
  "5630213": {
    "zipcode": "5630213",
    "prefectureCode": "27",
    "prefectureNumber": 27,
    "prefecture": "大阪府",
    "city": "豊能郡豊能町",
    "town": "切畑"
  },
  "5630214": {
    "zipcode": "5630214",
    "prefectureCode": "27",
    "prefectureNumber": 27,
    "prefecture": "大阪府",
    "city": "豊能郡豊能町",
    "town": "希望ケ丘"
  },
  "5630215": {
    "zipcode": "5630215",
    "prefectureCode": "27",
    "prefectureNumber": 27,
    "prefecture": "大阪府",
    "city": "豊能郡豊能町",
    "town": "木代"
  },
  "5630216": {
    "zipcode": "5630216",
    "prefectureCode": "27",
    "prefectureNumber": 27,
    "prefecture": "大阪府",
    "city": "豊能郡豊能町",
    "town": "高山"
  },
  "5630217": {
    "zipcode": "5630217",
    "prefectureCode": "27",
    "prefectureNumber": 27,
    "prefecture": "大阪府",
    "city": "豊能郡豊能町",
    "town": "川尻"
  },
  "5630218": {
    "zipcode": "5630218",
    "prefectureCode": "27",
    "prefectureNumber": 27,
    "prefecture": "大阪府",
    "city": "豊能郡豊能町",
    "town": "野間口"
  },
  "5630219": {
    "zipcode": "5630219",
    "prefectureCode": "27",
    "prefectureNumber": 27,
    "prefecture": "大阪府",
    "city": "豊能郡豊能町",
    "town": "余野"
  },
  "5630251": {
    "zipcode": "5630251",
    "prefectureCode": "27",
    "prefectureNumber": 27,
    "prefecture": "大阪府",
    "city": "箕面市",
    "town": "上止々呂美"
  },
  "5630252": {
    "zipcode": "5630252",
    "prefectureCode": "27",
    "prefectureNumber": 27,
    "prefecture": "大阪府",
    "city": "箕面市",
    "town": "下止々呂美"
  },
  "5630255": {
    "zipcode": "5630255",
    "prefectureCode": "27",
    "prefectureNumber": 27,
    "prefecture": "大阪府",
    "city": "箕面市",
    "town": "森町西"
  },
  "5630256": {
    "zipcode": "5630256",
    "prefectureCode": "27",
    "prefectureNumber": 27,
    "prefecture": "大阪府",
    "city": "箕面市",
    "town": "森町北"
  },
  "5630257": {
    "zipcode": "5630257",
    "prefectureCode": "27",
    "prefectureNumber": 27,
    "prefecture": "大阪府",
    "city": "箕面市",
    "town": "森町中"
  },
  "5630258": {
    "zipcode": "5630258",
    "prefectureCode": "27",
    "prefectureNumber": 27,
    "prefecture": "大阪府",
    "city": "箕面市",
    "town": "森町南"
  },
  "5630300": {
    "zipcode": "5630300",
    "prefectureCode": "27",
    "prefectureNumber": 27,
    "prefecture": "大阪府",
    "city": "豊能郡能勢町",
    "town": "以下に掲載がない場合"
  },
  "5630341": {
    "zipcode": "5630341",
    "prefectureCode": "27",
    "prefectureNumber": 27,
    "prefecture": "大阪府",
    "city": "豊能郡能勢町",
    "town": "宿野"
  },
  "5630351": {
    "zipcode": "5630351",
    "prefectureCode": "27",
    "prefectureNumber": 27,
    "prefecture": "大阪府",
    "city": "豊能郡能勢町",
    "town": "栗栖"
  },
  "5630352": {
    "zipcode": "5630352",
    "prefectureCode": "27",
    "prefectureNumber": 27,
    "prefecture": "大阪府",
    "city": "豊能郡能勢町",
    "town": "大里"
  },
  "5630353": {
    "zipcode": "5630353",
    "prefectureCode": "27",
    "prefectureNumber": 27,
    "prefecture": "大阪府",
    "city": "豊能郡能勢町",
    "town": "柏原"
  },
  "5630354": {
    "zipcode": "5630354",
    "prefectureCode": "27",
    "prefectureNumber": 27,
    "prefecture": "大阪府",
    "city": "豊能郡能勢町",
    "town": "片山"
  },
  "5630355": {
    "zipcode": "5630355",
    "prefectureCode": "27",
    "prefectureNumber": 27,
    "prefecture": "大阪府",
    "city": "豊能郡能勢町",
    "town": "下田"
  },
  "5630356": {
    "zipcode": "5630356",
    "prefectureCode": "27",
    "prefectureNumber": 27,
    "prefecture": "大阪府",
    "city": "豊能郡能勢町",
    "town": "平通"
  },
  "5630361": {
    "zipcode": "5630361",
    "prefectureCode": "27",
    "prefectureNumber": 27,
    "prefecture": "大阪府",
    "city": "豊能郡能勢町",
    "town": "今西"
  },
  "5630362": {
    "zipcode": "5630362",
    "prefectureCode": "27",
    "prefectureNumber": 27,
    "prefecture": "大阪府",
    "city": "豊能郡能勢町",
    "town": "森上"
  },
  "5630363": {
    "zipcode": "5630363",
    "prefectureCode": "27",
    "prefectureNumber": 27,
    "prefecture": "大阪府",
    "city": "豊能郡能勢町",
    "town": "稲地"
  },
  "5630364": {
    "zipcode": "5630364",
    "prefectureCode": "27",
    "prefectureNumber": 27,
    "prefecture": "大阪府",
    "city": "豊能郡能勢町",
    "town": "平野"
  },
  "5630365": {
    "zipcode": "5630365",
    "prefectureCode": "27",
    "prefectureNumber": 27,
    "prefecture": "大阪府",
    "city": "豊能郡能勢町",
    "town": "上杉"
  },
  "5630366": {
    "zipcode": "5630366",
    "prefectureCode": "27",
    "prefectureNumber": 27,
    "prefecture": "大阪府",
    "city": "豊能郡能勢町",
    "town": "垂水"
  },
  "5630367": {
    "zipcode": "5630367",
    "prefectureCode": "27",
    "prefectureNumber": 27,
    "prefecture": "大阪府",
    "city": "豊能郡能勢町",
    "town": "神山"
  },
  "5630368": {
    "zipcode": "5630368",
    "prefectureCode": "27",
    "prefectureNumber": 27,
    "prefecture": "大阪府",
    "city": "豊能郡能勢町",
    "town": "長谷"
  },
  "5630371": {
    "zipcode": "5630371",
    "prefectureCode": "27",
    "prefectureNumber": 27,
    "prefecture": "大阪府",
    "city": "豊能郡能勢町",
    "town": "天王"
  },
  "5630372": {
    "zipcode": "5630372",
    "prefectureCode": "27",
    "prefectureNumber": 27,
    "prefecture": "大阪府",
    "city": "豊能郡能勢町",
    "town": "山辺"
  },
  "5630373": {
    "zipcode": "5630373",
    "prefectureCode": "27",
    "prefectureNumber": 27,
    "prefecture": "大阪府",
    "city": "豊能郡能勢町",
    "town": "山田"
  },
  "5630801": {
    "zipcode": "5630801",
    "prefectureCode": "28",
    "prefectureNumber": 28,
    "prefecture": "兵庫県",
    "city": "伊丹市",
    "town": "小阪田（食田）"
  }
}
