{
  "5640000": {
    "zipcode": "5640000",
    "prefectureCode": "27",
    "prefectureNumber": 27,
    "prefecture": "大阪府",
    "city": "吹田市",
    "town": "以下に掲載がない場合"
  },
  "5640001": {
    "zipcode": "5640001",
    "prefectureCode": "27",
    "prefectureNumber": 27,
    "prefecture": "大阪府",
    "city": "吹田市",
    "town": "岸部北"
  },
  "5640002": {
    "zipcode": "5640002",
    "prefectureCode": "27",
    "prefectureNumber": 27,
    "prefecture": "大阪府",
    "city": "吹田市",
    "town": "岸部中"
  },
  "5640003": {
    "zipcode": "5640003",
    "prefectureCode": "27",
    "prefectureNumber": 27,
    "prefecture": "大阪府",
    "city": "吹田市",
    "town": "天道町"
  },
  "5640004": {
    "zipcode": "5640004",
    "prefectureCode": "27",
    "prefectureNumber": 27,
    "prefecture": "大阪府",
    "city": "吹田市",
    "town": "原町"
  },
  "5640011": {
    "zipcode": "5640011",
    "prefectureCode": "27",
    "prefectureNumber": 27,
    "prefecture": "大阪府",
    "city": "吹田市",
    "town": "岸部南"
  },
  "5640012": {
    "zipcode": "5640012",
    "prefectureCode": "27",
    "prefectureNumber": 27,
    "prefecture": "大阪府",
    "city": "吹田市",
    "town": "南正雀"
  },
  "5640013": {
    "zipcode": "5640013",
    "prefectureCode": "27",
    "prefectureNumber": 27,
    "prefecture": "大阪府",
    "city": "吹田市",
    "town": "川園町"
  },
  "5640014": {
    "zipcode": "5640014",
    "prefectureCode": "27",
    "prefectureNumber": 27,
    "prefecture": "大阪府",
    "city": "吹田市",
    "town": "吹東町"
  },
  "5640015": {
    "zipcode": "5640015",
    "prefectureCode": "27",
    "prefectureNumber": 27,
    "prefecture": "大阪府",
    "city": "吹田市",
    "town": "幸町"
  },
  "5640016": {
    "zipcode": "5640016",
    "prefectureCode": "27",
    "prefectureNumber": 27,
    "prefecture": "大阪府",
    "city": "吹田市",
    "town": "平松町"
  },
  "5640017": {
    "zipcode": "5640017",
    "prefectureCode": "27",
    "prefectureNumber": 27,
    "prefecture": "大阪府",
    "city": "吹田市",
    "town": "芝田町"
  },
  "5640018": {
    "zipcode": "5640018",
    "prefectureCode": "27",
    "prefectureNumber": 27,
    "prefecture": "大阪府",
    "city": "吹田市",
    "town": "岸部新町"
  },
  "5640021": {
    "zipcode": "5640021",
    "prefectureCode": "27",
    "prefectureNumber": 27,
    "prefecture": "大阪府",
    "city": "吹田市",
    "town": "目俵町"
  },
  "5640022": {
    "zipcode": "5640022",
    "prefectureCode": "27",
    "prefectureNumber": 27,
    "prefecture": "大阪府",
    "city": "吹田市",
    "town": "末広町"
  },
  "5640023": {
    "zipcode": "5640023",
    "prefectureCode": "27",
    "prefectureNumber": 27,
    "prefecture": "大阪府",
    "city": "吹田市",
    "town": "日の出町"
  },
  "5640024": {
    "zipcode": "5640024",
    "prefectureCode": "27",
    "prefectureNumber": 27,
    "prefecture": "大阪府",
    "city": "吹田市",
    "town": "高城町"
  },
  "5640025": {
    "zipcode": "5640025",
    "prefectureCode": "27",
    "prefectureNumber": 27,
    "prefecture": "大阪府",
    "city": "吹田市",
    "town": "南高浜町"
  },
  "5640026": {
    "zipcode": "5640026",
    "prefectureCode": "27",
    "prefectureNumber": 27,
    "prefecture": "大阪府",
    "city": "吹田市",
    "town": "高浜町"
  },
  "5640027": {
    "zipcode": "5640027",
    "prefectureCode": "27",
    "prefectureNumber": 27,
    "prefecture": "大阪府",
    "city": "吹田市",
    "town": "朝日町"
  },
  "5640028": {
    "zipcode": "5640028",
    "prefectureCode": "27",
    "prefectureNumber": 27,
    "prefecture": "大阪府",
    "city": "吹田市",
    "town": "昭和町"
  },
  "5640031": {
    "zipcode": "5640031",
    "prefectureCode": "27",
    "prefectureNumber": 27,
    "prefecture": "大阪府",
    "city": "吹田市",
    "town": "元町"
  },
  "5640032": {
    "zipcode": "5640032",
    "prefectureCode": "27",
    "prefectureNumber": 27,
    "prefecture": "大阪府",
    "city": "吹田市",
    "town": "内本町"
  },
  "5640033": {
    "zipcode": "5640033",
    "prefectureCode": "27",
    "prefectureNumber": 27,
    "prefecture": "大阪府",
    "city": "吹田市",
    "town": "東御旅町"
  },
  "5640034": {
    "zipcode": "5640034",
    "prefectureCode": "27",
    "prefectureNumber": 27,
    "prefecture": "大阪府",
    "city": "吹田市",
    "town": "西御旅町"
  },
  "5640035": {
    "zipcode": "5640035",
    "prefectureCode": "27",
    "prefectureNumber": 27,
    "prefecture": "大阪府",
    "city": "吹田市",
    "town": "中の島町"
  },
  "5640036": {
    "zipcode": "5640036",
    "prefectureCode": "27",
    "prefectureNumber": 27,
    "prefecture": "大阪府",
    "city": "吹田市",
    "town": "寿町"
  },
  "5640037": {
    "zipcode": "5640037",
    "prefectureCode": "27",
    "prefectureNumber": 27,
    "prefecture": "大阪府",
    "city": "吹田市",
    "town": "川岸町"
  },
  "5640038": {
    "zipcode": "5640038",
    "prefectureCode": "27",
    "prefectureNumber": 27,
    "prefecture": "大阪府",
    "city": "吹田市",
    "town": "南清和園町"
  },
  "5640039": {
    "zipcode": "5640039",
    "prefectureCode": "27",
    "prefectureNumber": 27,
    "prefecture": "大阪府",
    "city": "吹田市",
    "town": "清和園町"
  },
  "5640041": {
    "zipcode": "5640041",
    "prefectureCode": "27",
    "prefectureNumber": 27,
    "prefecture": "大阪府",
    "city": "吹田市",
    "town": "泉町"
  },
  "5640042": {
    "zipcode": "5640042",
    "prefectureCode": "27",
    "prefectureNumber": 27,
    "prefecture": "大阪府",
    "city": "吹田市",
    "town": "穂波町"
  },
  "5640043": {
    "zipcode": "5640043",
    "prefectureCode": "27",
    "prefectureNumber": 27,
    "prefecture": "大阪府",
    "city": "吹田市",
    "town": "南吹田"
  },
  "5640044": {
    "zipcode": "5640044",
    "prefectureCode": "27",
    "prefectureNumber": 27,
    "prefecture": "大阪府",
    "city": "吹田市",
    "town": "南金田"
  },
  "5640045": {
    "zipcode": "5640045",
    "prefectureCode": "27",
    "prefectureNumber": 27,
    "prefecture": "大阪府",
    "city": "吹田市",
    "town": "金田町"
  },
  "5640051": {
    "zipcode": "5640051",
    "prefectureCode": "27",
    "prefectureNumber": 27,
    "prefecture": "大阪府",
    "city": "吹田市",
    "town": "豊津町"
  },
  "5640052": {
    "zipcode": "5640052",
    "prefectureCode": "27",
    "prefectureNumber": 27,
    "prefecture": "大阪府",
    "city": "吹田市",
    "town": "広芝町"
  },
  "5640053": {
    "zipcode": "5640053",
    "prefectureCode": "27",
    "prefectureNumber": 27,
    "prefecture": "大阪府",
    "city": "吹田市",
    "town": "江の木町"
  },
  "5640054": {
    "zipcode": "5640054",
    "prefectureCode": "27",
    "prefectureNumber": 27,
    "prefecture": "大阪府",
    "city": "吹田市",
    "town": "芳野町"
  },
  "5640061": {
    "zipcode": "5640061",
    "prefectureCode": "27",
    "prefectureNumber": 27,
    "prefecture": "大阪府",
    "city": "吹田市",
    "town": "円山町"
  },
  "5640062": {
    "zipcode": "5640062",
    "prefectureCode": "27",
    "prefectureNumber": 27,
    "prefecture": "大阪府",
    "city": "吹田市",
    "town": "垂水町"
  },
  "5640063": {
    "zipcode": "5640063",
    "prefectureCode": "27",
    "prefectureNumber": 27,
    "prefecture": "大阪府",
    "city": "吹田市",
    "town": "江坂町"
  },
  "5640071": {
    "zipcode": "5640071",
    "prefectureCode": "27",
    "prefectureNumber": 27,
    "prefecture": "大阪府",
    "city": "吹田市",
    "town": "西の庄町"
  },
  "5640072": {
    "zipcode": "5640072",
    "prefectureCode": "27",
    "prefectureNumber": 27,
    "prefecture": "大阪府",
    "city": "吹田市",
    "town": "出口町"
  },
  "5640073": {
    "zipcode": "5640073",
    "prefectureCode": "27",
    "prefectureNumber": 27,
    "prefecture": "大阪府",
    "city": "吹田市",
    "town": "山手町"
  },
  "5640081": {
    "zipcode": "5640081",
    "prefectureCode": "27",
    "prefectureNumber": 27,
    "prefecture": "大阪府",
    "city": "吹田市",
    "town": "藤が丘町"
  },
  "5640082": {
    "zipcode": "5640082",
    "prefectureCode": "27",
    "prefectureNumber": 27,
    "prefecture": "大阪府",
    "city": "吹田市",
    "town": "片山町"
  },
  "5640083": {
    "zipcode": "5640083",
    "prefectureCode": "27",
    "prefectureNumber": 27,
    "prefecture": "大阪府",
    "city": "吹田市",
    "town": "朝日が丘町"
  }
}
