{
  "5650801": {
    "zipcode": "5650801",
    "prefectureCode": "27",
    "prefectureNumber": 27,
    "prefecture": "大阪府",
    "city": "吹田市",
    "town": "青葉丘北"
  },
  "5650802": {
    "zipcode": "5650802",
    "prefectureCode": "27",
    "prefectureNumber": 27,
    "prefecture": "大阪府",
    "city": "吹田市",
    "town": "青葉丘南"
  },
  "5650803": {
    "zipcode": "5650803",
    "prefectureCode": "27",
    "prefectureNumber": 27,
    "prefecture": "大阪府",
    "city": "吹田市",
    "town": "新芦屋下"
  },
  "5650804": {
    "zipcode": "5650804",
    "prefectureCode": "27",
    "prefectureNumber": 27,
    "prefecture": "大阪府",
    "city": "吹田市",
    "town": "新芦屋上"
  },
  "5650805": {
    "zipcode": "5650805",
    "prefectureCode": "27",
    "prefectureNumber": 27,
    "prefecture": "大阪府",
    "city": "吹田市",
    "town": "清水"
  },
  "5650806": {
    "zipcode": "5650806",
    "prefectureCode": "27",
    "prefectureNumber": 27,
    "prefecture": "大阪府",
    "city": "吹田市",
    "town": "樫切山"
  },
  "5650811": {
    "zipcode": "5650811",
    "prefectureCode": "27",
    "prefectureNumber": 27,
    "prefecture": "大阪府",
    "city": "吹田市",
    "town": "千里丘上"
  },
  "5650812": {
    "zipcode": "5650812",
    "prefectureCode": "27",
    "prefectureNumber": 27,
    "prefecture": "大阪府",
    "city": "吹田市",
    "town": "千里丘中"
  },
  "5650813": {
    "zipcode": "5650813",
    "prefectureCode": "27",
    "prefectureNumber": 27,
    "prefecture": "大阪府",
    "city": "吹田市",
    "town": "千里丘下"
  },
  "5650814": {
    "zipcode": "5650814",
    "prefectureCode": "27",
    "prefectureNumber": 27,
    "prefecture": "大阪府",
    "city": "吹田市",
    "town": "千里丘西"
  },
  "5650815": {
    "zipcode": "5650815",
    "prefectureCode": "27",
    "prefectureNumber": 27,
    "prefecture": "大阪府",
    "city": "吹田市",
    "town": "千里丘北"
  },
  "5650816": {
    "zipcode": "5650816",
    "prefectureCode": "27",
    "prefectureNumber": 27,
    "prefecture": "大阪府",
    "city": "吹田市",
    "town": "長野東"
  },
  "5650817": {
    "zipcode": "5650817",
    "prefectureCode": "27",
    "prefectureNumber": 27,
    "prefecture": "大阪府",
    "city": "吹田市",
    "town": "長野西"
  },
  "5650818": {
    "zipcode": "5650818",
    "prefectureCode": "27",
    "prefectureNumber": 27,
    "prefecture": "大阪府",
    "city": "吹田市",
    "town": "尺谷"
  },
  "5650821": {
    "zipcode": "5650821",
    "prefectureCode": "27",
    "prefectureNumber": 27,
    "prefecture": "大阪府",
    "city": "吹田市",
    "town": "山田東"
  },
  "5650822": {
    "zipcode": "5650822",
    "prefectureCode": "27",
    "prefectureNumber": 27,
    "prefecture": "大阪府",
    "city": "吹田市",
    "town": "山田市場"
  },
  "5650823": {
    "zipcode": "5650823",
    "prefectureCode": "27",
    "prefectureNumber": 27,
    "prefecture": "大阪府",
    "city": "吹田市",
    "town": "山田南"
  },
  "5650824": {
    "zipcode": "5650824",
    "prefectureCode": "27",
    "prefectureNumber": 27,
    "prefecture": "大阪府",
    "city": "吹田市",
    "town": "山田西"
  },
  "5650825": {
    "zipcode": "5650825",
    "prefectureCode": "27",
    "prefectureNumber": 27,
    "prefecture": "大阪府",
    "city": "吹田市",
    "town": "山田北"
  },
  "5650826": {
    "zipcode": "5650826",
    "prefectureCode": "27",
    "prefectureNumber": 27,
    "prefecture": "大阪府",
    "city": "吹田市",
    "town": "千里万博公園"
  },
  "5650831": {
    "zipcode": "5650831",
    "prefectureCode": "27",
    "prefectureNumber": 27,
    "prefecture": "大阪府",
    "city": "吹田市",
    "town": "五月が丘東"
  },
  "5650832": {
    "zipcode": "5650832",
    "prefectureCode": "27",
    "prefectureNumber": 27,
    "prefecture": "大阪府",
    "city": "吹田市",
    "town": "五月が丘南"
  },
  "5650833": {
    "zipcode": "5650833",
    "prefectureCode": "27",
    "prefectureNumber": 27,
    "prefecture": "大阪府",
    "city": "吹田市",
    "town": "五月が丘西"
  },
  "5650834": {
    "zipcode": "5650834",
    "prefectureCode": "27",
    "prefectureNumber": 27,
    "prefecture": "大阪府",
    "city": "吹田市",
    "town": "五月が丘北"
  },
  "5650835": {
    "zipcode": "5650835",
    "prefectureCode": "27",
    "prefectureNumber": 27,
    "prefecture": "大阪府",
    "city": "吹田市",
    "town": "竹谷町"
  },
  "5650836": {
    "zipcode": "5650836",
    "prefectureCode": "27",
    "prefectureNumber": 27,
    "prefecture": "大阪府",
    "city": "吹田市",
    "town": "佐井寺"
  },
  "5650837": {
    "zipcode": "5650837",
    "prefectureCode": "27",
    "prefectureNumber": 27,
    "prefecture": "大阪府",
    "city": "吹田市",
    "town": "佐井寺南が丘"
  },
  "5650841": {
    "zipcode": "5650841",
    "prefectureCode": "27",
    "prefectureNumber": 27,
    "prefecture": "大阪府",
    "city": "吹田市",
    "town": "上山手町"
  },
  "5650842": {
    "zipcode": "5650842",
    "prefectureCode": "27",
    "prefectureNumber": 27,
    "prefecture": "大阪府",
    "city": "吹田市",
    "town": "千里山東"
  },
  "5650843": {
    "zipcode": "5650843",
    "prefectureCode": "27",
    "prefectureNumber": 27,
    "prefecture": "大阪府",
    "city": "吹田市",
    "town": "千里山松が丘"
  },
  "5650844": {
    "zipcode": "5650844",
    "prefectureCode": "27",
    "prefectureNumber": 27,
    "prefecture": "大阪府",
    "city": "吹田市",
    "town": "千里山霧が丘"
  },
  "5650845": {
    "zipcode": "5650845",
    "prefectureCode": "27",
    "prefectureNumber": 27,
    "prefecture": "大阪府",
    "city": "吹田市",
    "town": "千里山星が丘"
  },
  "5650846": {
    "zipcode": "5650846",
    "prefectureCode": "27",
    "prefectureNumber": 27,
    "prefecture": "大阪府",
    "city": "吹田市",
    "town": "千里山虹が丘"
  },
  "5650847": {
    "zipcode": "5650847",
    "prefectureCode": "27",
    "prefectureNumber": 27,
    "prefecture": "大阪府",
    "city": "吹田市",
    "town": "千里山月が丘"
  },
  "5650848": {
    "zipcode": "5650848",
    "prefectureCode": "27",
    "prefectureNumber": 27,
    "prefecture": "大阪府",
    "city": "吹田市",
    "town": "千里山高塚"
  },
  "5650851": {
    "zipcode": "5650851",
    "prefectureCode": "27",
    "prefectureNumber": 27,
    "prefecture": "大阪府",
    "city": "吹田市",
    "town": "千里山西"
  },
  "5650852": {
    "zipcode": "5650852",
    "prefectureCode": "27",
    "prefectureNumber": 27,
    "prefecture": "大阪府",
    "city": "吹田市",
    "town": "千里山竹園"
  },
  "5650853": {
    "zipcode": "5650853",
    "prefectureCode": "27",
    "prefectureNumber": 27,
    "prefecture": "大阪府",
    "city": "吹田市",
    "town": "春日"
  },
  "5650854": {
    "zipcode": "5650854",
    "prefectureCode": "27",
    "prefectureNumber": 27,
    "prefecture": "大阪府",
    "city": "吹田市",
    "town": "桃山台"
  },
  "5650855": {
    "zipcode": "5650855",
    "prefectureCode": "27",
    "prefectureNumber": 27,
    "prefecture": "大阪府",
    "city": "吹田市",
    "town": "佐竹台"
  },
  "5650861": {
    "zipcode": "5650861",
    "prefectureCode": "27",
    "prefectureNumber": 27,
    "prefecture": "大阪府",
    "city": "吹田市",
    "town": "高野台"
  },
  "5650862": {
    "zipcode": "5650862",
    "prefectureCode": "27",
    "prefectureNumber": 27,
    "prefecture": "大阪府",
    "city": "吹田市",
    "town": "津雲台"
  },
  "5650863": {
    "zipcode": "5650863",
    "prefectureCode": "27",
    "prefectureNumber": 27,
    "prefecture": "大阪府",
    "city": "吹田市",
    "town": "竹見台"
  },
  "5650871": {
    "zipcode": "5650871",
    "prefectureCode": "27",
    "prefectureNumber": 27,
    "prefecture": "大阪府",
    "city": "吹田市",
    "town": "山田丘"
  },
  "5650872": {
    "zipcode": "5650872",
    "prefectureCode": "27",
    "prefectureNumber": 27,
    "prefecture": "大阪府",
    "city": "吹田市",
    "town": "上山田"
  },
  "5650873": {
    "zipcode": "5650873",
    "prefectureCode": "27",
    "prefectureNumber": 27,
    "prefecture": "大阪府",
    "city": "吹田市",
    "town": "藤白台"
  },
  "5650874": {
    "zipcode": "5650874",
    "prefectureCode": "27",
    "prefectureNumber": 27,
    "prefecture": "大阪府",
    "city": "吹田市",
    "town": "古江台"
  },
  "5650875": {
    "zipcode": "5650875",
    "prefectureCode": "27",
    "prefectureNumber": 27,
    "prefecture": "大阪府",
    "city": "吹田市",
    "town": "青山台"
  }
}
