{
  "5660000": {
    "zipcode": "5660000",
    "prefectureCode": "27",
    "prefectureNumber": 27,
    "prefecture": "大阪府",
    "city": "摂津市",
    "town": "以下に掲載がない場合"
  },
  "5660001": {
    "zipcode": "5660001",
    "prefectureCode": "27",
    "prefectureNumber": 27,
    "prefecture": "大阪府",
    "city": "摂津市",
    "town": "千里丘"
  },
  "5660002": {
    "zipcode": "5660002",
    "prefectureCode": "27",
    "prefectureNumber": 27,
    "prefecture": "大阪府",
    "city": "摂津市",
    "town": "千里丘新町"
  },
  "5660011": {
    "zipcode": "5660011",
    "prefectureCode": "27",
    "prefectureNumber": 27,
    "prefecture": "大阪府",
    "city": "摂津市",
    "town": "千里丘東"
  },
  "5660012": {
    "zipcode": "5660012",
    "prefectureCode": "27",
    "prefectureNumber": 27,
    "prefecture": "大阪府",
    "city": "摂津市",
    "town": "庄屋"
  },
  "5660013": {
    "zipcode": "5660013",
    "prefectureCode": "27",
    "prefectureNumber": 27,
    "prefecture": "大阪府",
    "city": "摂津市",
    "town": "阪急正雀"
  },
  "5660021": {
    "zipcode": "5660021",
    "prefectureCode": "27",
    "prefectureNumber": 27,
    "prefecture": "大阪府",
    "city": "摂津市",
    "town": "南千里丘"
  },
  "5660022": {
    "zipcode": "5660022",
    "prefectureCode": "27",
    "prefectureNumber": 27,
    "prefecture": "大阪府",
    "city": "摂津市",
    "town": "三島"
  },
  "5660023": {
    "zipcode": "5660023",
    "prefectureCode": "27",
    "prefectureNumber": 27,
    "prefecture": "大阪府",
    "city": "摂津市",
    "town": "正雀"
  },
  "5660024": {
    "zipcode": "5660024",
    "prefectureCode": "27",
    "prefectureNumber": 27,
    "prefecture": "大阪府",
    "city": "摂津市",
    "town": "正雀本町"
  },
  "5660025": {
    "zipcode": "5660025",
    "prefectureCode": "27",
    "prefectureNumber": 27,
    "prefecture": "大阪府",
    "city": "摂津市",
    "town": "東正雀"
  },
  "5660031": {
    "zipcode": "5660031",
    "prefectureCode": "27",
    "prefectureNumber": 27,
    "prefecture": "大阪府",
    "city": "摂津市",
    "town": "昭和園"
  },
  "5660032": {
    "zipcode": "5660032",
    "prefectureCode": "27",
    "prefectureNumber": 27,
    "prefecture": "大阪府",
    "city": "摂津市",
    "town": "桜町"
  },
  "5660033": {
    "zipcode": "5660033",
    "prefectureCode": "27",
    "prefectureNumber": 27,
    "prefecture": "大阪府",
    "city": "摂津市",
    "town": "学園町"
  },
  "5660034": {
    "zipcode": "5660034",
    "prefectureCode": "27",
    "prefectureNumber": 27,
    "prefecture": "大阪府",
    "city": "摂津市",
    "town": "香露園"
  },
  "5660035": {
    "zipcode": "5660035",
    "prefectureCode": "27",
    "prefectureNumber": 27,
    "prefecture": "大阪府",
    "city": "摂津市",
    "town": "鶴野"
  },
  "5660041": {
    "zipcode": "5660041",
    "prefectureCode": "27",
    "prefectureNumber": 27,
    "prefecture": "大阪府",
    "city": "摂津市",
    "town": "北別府町"
  },
  "5660042": {
    "zipcode": "5660042",
    "prefectureCode": "27",
    "prefectureNumber": 27,
    "prefecture": "大阪府",
    "city": "摂津市",
    "town": "東別府"
  },
  "5660043": {
    "zipcode": "5660043",
    "prefectureCode": "27",
    "prefectureNumber": 27,
    "prefecture": "大阪府",
    "city": "摂津市",
    "town": "一津屋"
  },
  "5660044": {
    "zipcode": "5660044",
    "prefectureCode": "27",
    "prefectureNumber": 27,
    "prefecture": "大阪府",
    "city": "摂津市",
    "town": "西一津屋"
  },
  "5660045": {
    "zipcode": "5660045",
    "prefectureCode": "27",
    "prefectureNumber": 27,
    "prefecture": "大阪府",
    "city": "摂津市",
    "town": "南別府町"
  },
  "5660046": {
    "zipcode": "5660046",
    "prefectureCode": "27",
    "prefectureNumber": 27,
    "prefecture": "大阪府",
    "city": "摂津市",
    "town": "別府"
  },
  "5660047": {
    "zipcode": "5660047",
    "prefectureCode": "27",
    "prefectureNumber": 27,
    "prefecture": "大阪府",
    "city": "摂津市",
    "town": "浜町"
  },
  "5660051": {
    "zipcode": "5660051",
    "prefectureCode": "27",
    "prefectureNumber": 27,
    "prefecture": "大阪府",
    "city": "摂津市",
    "town": "安威川南町"
  },
  "5660052": {
    "zipcode": "5660052",
    "prefectureCode": "27",
    "prefectureNumber": 27,
    "prefecture": "大阪府",
    "city": "摂津市",
    "town": "鳥飼本町"
  },
  "5660053": {
    "zipcode": "5660053",
    "prefectureCode": "27",
    "prefectureNumber": 27,
    "prefecture": "大阪府",
    "city": "摂津市",
    "town": "鳥飼野々"
  },
  "5660054": {
    "zipcode": "5660054",
    "prefectureCode": "27",
    "prefectureNumber": 27,
    "prefecture": "大阪府",
    "city": "摂津市",
    "town": "鳥飼八防"
  },
  "5660055": {
    "zipcode": "5660055",
    "prefectureCode": "27",
    "prefectureNumber": 27,
    "prefecture": "大阪府",
    "city": "摂津市",
    "town": "新在家"
  },
  "5660061": {
    "zipcode": "5660061",
    "prefectureCode": "27",
    "prefectureNumber": 27,
    "prefecture": "大阪府",
    "city": "摂津市",
    "town": "鳥飼八町"
  },
  "5660062": {
    "zipcode": "5660062",
    "prefectureCode": "27",
    "prefectureNumber": 27,
    "prefecture": "大阪府",
    "city": "摂津市",
    "town": "鳥飼上"
  },
  "5660063": {
    "zipcode": "5660063",
    "prefectureCode": "27",
    "prefectureNumber": 27,
    "prefecture": "大阪府",
    "city": "摂津市",
    "town": "鳥飼銘木町"
  },
  "5660064": {
    "zipcode": "5660064",
    "prefectureCode": "27",
    "prefectureNumber": 27,
    "prefecture": "大阪府",
    "city": "摂津市",
    "town": "鳥飼中"
  },
  "5660065": {
    "zipcode": "5660065",
    "prefectureCode": "27",
    "prefectureNumber": 27,
    "prefecture": "大阪府",
    "city": "摂津市",
    "town": "鳥飼新町"
  },
  "5660071": {
    "zipcode": "5660071",
    "prefectureCode": "27",
    "prefectureNumber": 27,
    "prefecture": "大阪府",
    "city": "摂津市",
    "town": "鳥飼下"
  },
  "5660072": {
    "zipcode": "5660072",
    "prefectureCode": "27",
    "prefectureNumber": 27,
    "prefecture": "大阪府",
    "city": "摂津市",
    "town": "鳥飼西"
  },
  "5660073": {
    "zipcode": "5660073",
    "prefectureCode": "27",
    "prefectureNumber": 27,
    "prefecture": "大阪府",
    "city": "摂津市",
    "town": "鳥飼和道"
  },
  "5660074": {
    "zipcode": "5660074",
    "prefectureCode": "27",
    "prefectureNumber": 27,
    "prefecture": "大阪府",
    "city": "摂津市",
    "town": "東一津屋"
  }
}
