{
  "5710000": {
    "zipcode": "5710000",
    "prefectureCode": "27",
    "prefectureNumber": 27,
    "prefecture": "大阪府",
    "city": "門真市",
    "town": "以下に掲載がない場合"
  },
  "5710001": {
    "zipcode": "5710001",
    "prefectureCode": "27",
    "prefectureNumber": 27,
    "prefecture": "大阪府",
    "city": "門真市",
    "town": "巣本町"
  },
  "5710002": {
    "zipcode": "5710002",
    "prefectureCode": "27",
    "prefectureNumber": 27,
    "prefecture": "大阪府",
    "city": "門真市",
    "town": "岸和田"
  },
  "5710005": {
    "zipcode": "5710005",
    "prefectureCode": "27",
    "prefectureNumber": 27,
    "prefecture": "大阪府",
    "city": "門真市",
    "town": "南野口町"
  },
  "5710007": {
    "zipcode": "5710007",
    "prefectureCode": "27",
    "prefectureNumber": 27,
    "prefecture": "大阪府",
    "city": "門真市",
    "town": "北岸和田"
  },
  "5710008": {
    "zipcode": "5710008",
    "prefectureCode": "27",
    "prefectureNumber": 27,
    "prefecture": "大阪府",
    "city": "門真市",
    "town": "東江端町"
  },
  "5710009": {
    "zipcode": "5710009",
    "prefectureCode": "27",
    "prefectureNumber": 27,
    "prefecture": "大阪府",
    "city": "門真市",
    "town": "下馬伏町"
  },
  "5710011": {
    "zipcode": "5710011",
    "prefectureCode": "27",
    "prefectureNumber": 27,
    "prefecture": "大阪府",
    "city": "門真市",
    "town": "脇田町"
  },
  "5710012": {
    "zipcode": "5710012",
    "prefectureCode": "27",
    "prefectureNumber": 27,
    "prefecture": "大阪府",
    "city": "門真市",
    "town": "江端町"
  },
  "5710013": {
    "zipcode": "5710013",
    "prefectureCode": "27",
    "prefectureNumber": 27,
    "prefecture": "大阪府",
    "city": "門真市",
    "town": "千石東町"
  },
  "5710014": {
    "zipcode": "5710014",
    "prefectureCode": "27",
    "prefectureNumber": 27,
    "prefecture": "大阪府",
    "city": "門真市",
    "town": "千石西町"
  },
  "5710015": {
    "zipcode": "5710015",
    "prefectureCode": "27",
    "prefectureNumber": 27,
    "prefecture": "大阪府",
    "city": "門真市",
    "town": "三ツ島"
  },
  "5710016": {
    "zipcode": "5710016",
    "prefectureCode": "27",
    "prefectureNumber": 27,
    "prefecture": "大阪府",
    "city": "門真市",
    "town": "島頭"
  },
  "5710017": {
    "zipcode": "5710017",
    "prefectureCode": "27",
    "prefectureNumber": 27,
    "prefecture": "大阪府",
    "city": "門真市",
    "town": "四宮"
  },
  "5710018": {
    "zipcode": "5710018",
    "prefectureCode": "27",
    "prefectureNumber": 27,
    "prefecture": "大阪府",
    "city": "門真市",
    "town": "北島東町"
  },
  "5710021": {
    "zipcode": "5710021",
    "prefectureCode": "27",
    "prefectureNumber": 27,
    "prefecture": "大阪府",
    "city": "門真市",
    "town": "舟田町"
  },
  "5710022": {
    "zipcode": "5710022",
    "prefectureCode": "27",
    "prefectureNumber": 27,
    "prefecture": "大阪府",
    "city": "門真市",
    "town": "沖町"
  },
  "5710023": {
    "zipcode": "5710023",
    "prefectureCode": "27",
    "prefectureNumber": 27,
    "prefecture": "大阪府",
    "city": "門真市",
    "town": "横地"
  },
  "5710024": {
    "zipcode": "5710024",
    "prefectureCode": "27",
    "prefectureNumber": 27,
    "prefecture": "大阪府",
    "city": "門真市",
    "town": "野口"
  },
  "5710025": {
    "zipcode": "5710025",
    "prefectureCode": "27",
    "prefectureNumber": 27,
    "prefecture": "大阪府",
    "city": "門真市",
    "town": "北島"
  },
  "5710026": {
    "zipcode": "5710026",
    "prefectureCode": "27",
    "prefectureNumber": 27,
    "prefecture": "大阪府",
    "city": "門真市",
    "town": "北島町"
  },
  "5710027": {
    "zipcode": "5710027",
    "prefectureCode": "27",
    "prefectureNumber": 27,
    "prefecture": "大阪府",
    "city": "門真市",
    "town": "五月田町"
  },
  "5710028": {
    "zipcode": "5710028",
    "prefectureCode": "27",
    "prefectureNumber": 27,
    "prefecture": "大阪府",
    "city": "門真市",
    "town": "打越"
  },
  "5710029": {
    "zipcode": "5710029",
    "prefectureCode": "27",
    "prefectureNumber": 27,
    "prefecture": "大阪府",
    "city": "門真市",
    "town": "打越町"
  },
  "5710030": {
    "zipcode": "5710030",
    "prefectureCode": "27",
    "prefectureNumber": 27,
    "prefecture": "大阪府",
    "city": "門真市",
    "town": "末広町"
  },
  "5710031": {
    "zipcode": "5710031",
    "prefectureCode": "27",
    "prefectureNumber": 27,
    "prefecture": "大阪府",
    "city": "門真市",
    "town": "古川町"
  },
  "5710032": {
    "zipcode": "5710032",
    "prefectureCode": "27",
    "prefectureNumber": 27,
    "prefecture": "大阪府",
    "city": "門真市",
    "town": "寿町"
  },
  "5710033": {
    "zipcode": "5710033",
    "prefectureCode": "27",
    "prefectureNumber": 27,
    "prefecture": "大阪府",
    "city": "門真市",
    "town": "一番町"
  },
  "5710034": {
    "zipcode": "5710034",
    "prefectureCode": "27",
    "prefectureNumber": 27,
    "prefecture": "大阪府",
    "city": "門真市",
    "town": "東田町"
  },
  "5710035": {
    "zipcode": "5710035",
    "prefectureCode": "27",
    "prefectureNumber": 27,
    "prefecture": "大阪府",
    "city": "門真市",
    "town": "桑才町"
  },
  "5710037": {
    "zipcode": "5710037",
    "prefectureCode": "27",
    "prefectureNumber": 27,
    "prefecture": "大阪府",
    "city": "門真市",
    "town": "ひえ島町"
  },
  "5710038": {
    "zipcode": "5710038",
    "prefectureCode": "27",
    "prefectureNumber": 27,
    "prefecture": "大阪府",
    "city": "門真市",
    "town": "柳田町"
  },
  "5710039": {
    "zipcode": "5710039",
    "prefectureCode": "27",
    "prefectureNumber": 27,
    "prefecture": "大阪府",
    "city": "門真市",
    "town": "速見町"
  },
  "5710041": {
    "zipcode": "5710041",
    "prefectureCode": "27",
    "prefectureNumber": 27,
    "prefecture": "大阪府",
    "city": "門真市",
    "town": "柳町"
  },
  "5710042": {
    "zipcode": "5710042",
    "prefectureCode": "27",
    "prefectureNumber": 27,
    "prefecture": "大阪府",
    "city": "門真市",
    "town": "深田町"
  },
  "5710043": {
    "zipcode": "5710043",
    "prefectureCode": "27",
    "prefectureNumber": 27,
    "prefecture": "大阪府",
    "city": "門真市",
    "town": "桑才新町"
  },
  "5710044": {
    "zipcode": "5710044",
    "prefectureCode": "27",
    "prefectureNumber": 27,
    "prefecture": "大阪府",
    "city": "門真市",
    "town": "松生町"
  },
  "5710045": {
    "zipcode": "5710045",
    "prefectureCode": "27",
    "prefectureNumber": 27,
    "prefecture": "大阪府",
    "city": "門真市",
    "town": "殿島町"
  },
  "5710046": {
    "zipcode": "5710046",
    "prefectureCode": "27",
    "prefectureNumber": 27,
    "prefecture": "大阪府",
    "city": "門真市",
    "town": "本町"
  },
  "5710047": {
    "zipcode": "5710047",
    "prefectureCode": "27",
    "prefectureNumber": 27,
    "prefecture": "大阪府",
    "city": "門真市",
    "town": "栄町"
  },
  "5710048": {
    "zipcode": "5710048",
    "prefectureCode": "27",
    "prefectureNumber": 27,
    "prefecture": "大阪府",
    "city": "門真市",
    "town": "新橋町"
  },
  "5710050": {
    "zipcode": "5710050",
    "prefectureCode": "27",
    "prefectureNumber": 27,
    "prefecture": "大阪府",
    "city": "門真市",
    "town": "門真"
  },
  "5710051": {
    "zipcode": "5710051",
    "prefectureCode": "27",
    "prefectureNumber": 27,
    "prefecture": "大阪府",
    "city": "門真市",
    "town": "向島町"
  },
  "5710052": {
    "zipcode": "5710052",
    "prefectureCode": "27",
    "prefectureNumber": 27,
    "prefecture": "大阪府",
    "city": "門真市",
    "town": "月出町"
  },
  "5710053": {
    "zipcode": "5710053",
    "prefectureCode": "27",
    "prefectureNumber": 27,
    "prefecture": "大阪府",
    "city": "門真市",
    "town": "泉町"
  },
  "5710054": {
    "zipcode": "5710054",
    "prefectureCode": "27",
    "prefectureNumber": 27,
    "prefecture": "大阪府",
    "city": "門真市",
    "town": "浜町"
  },
  "5710055": {
    "zipcode": "5710055",
    "prefectureCode": "27",
    "prefectureNumber": 27,
    "prefecture": "大阪府",
    "city": "門真市",
    "town": "中町"
  },
  "5710056": {
    "zipcode": "5710056",
    "prefectureCode": "27",
    "prefectureNumber": 27,
    "prefecture": "大阪府",
    "city": "門真市",
    "town": "松葉町"
  },
  "5710057": {
    "zipcode": "5710057",
    "prefectureCode": "27",
    "prefectureNumber": 27,
    "prefecture": "大阪府",
    "city": "門真市",
    "town": "元町"
  },
  "5710058": {
    "zipcode": "5710058",
    "prefectureCode": "27",
    "prefectureNumber": 27,
    "prefecture": "大阪府",
    "city": "門真市",
    "town": "小路町"
  },
  "5710059": {
    "zipcode": "5710059",
    "prefectureCode": "27",
    "prefectureNumber": 27,
    "prefecture": "大阪府",
    "city": "門真市",
    "town": "堂山町"
  },
  "5710061": {
    "zipcode": "5710061",
    "prefectureCode": "27",
    "prefectureNumber": 27,
    "prefecture": "大阪府",
    "city": "門真市",
    "town": "朝日町"
  },
  "5710062": {
    "zipcode": "5710062",
    "prefectureCode": "27",
    "prefectureNumber": 27,
    "prefecture": "大阪府",
    "city": "門真市",
    "town": "宮野町"
  },
  "5710063": {
    "zipcode": "5710063",
    "prefectureCode": "27",
    "prefectureNumber": 27,
    "prefecture": "大阪府",
    "city": "門真市",
    "town": "常称寺町"
  },
  "5710064": {
    "zipcode": "5710064",
    "prefectureCode": "27",
    "prefectureNumber": 27,
    "prefecture": "大阪府",
    "city": "門真市",
    "town": "御堂町"
  },
  "5710065": {
    "zipcode": "5710065",
    "prefectureCode": "27",
    "prefectureNumber": 27,
    "prefecture": "大阪府",
    "city": "門真市",
    "town": "垣内町"
  },
  "5710066": {
    "zipcode": "5710066",
    "prefectureCode": "27",
    "prefectureNumber": 27,
    "prefecture": "大阪府",
    "city": "門真市",
    "town": "幸福町"
  },
  "5710067": {
    "zipcode": "5710067",
    "prefectureCode": "27",
    "prefectureNumber": 27,
    "prefecture": "大阪府",
    "city": "門真市",
    "town": "石原町"
  },
  "5710068": {
    "zipcode": "5710068",
    "prefectureCode": "27",
    "prefectureNumber": 27,
    "prefecture": "大阪府",
    "city": "門真市",
    "town": "大倉町"
  },
  "5710070": {
    "zipcode": "5710070",
    "prefectureCode": "27",
    "prefectureNumber": 27,
    "prefecture": "大阪府",
    "city": "門真市",
    "town": "上野口町"
  },
  "5710071": {
    "zipcode": "5710071",
    "prefectureCode": "27",
    "prefectureNumber": 27,
    "prefecture": "大阪府",
    "city": "門真市",
    "town": "上島町"
  },
  "5710072": {
    "zipcode": "5710072",
    "prefectureCode": "27",
    "prefectureNumber": 27,
    "prefecture": "大阪府",
    "city": "門真市",
    "town": "城垣町"
  },
  "5710073": {
    "zipcode": "5710073",
    "prefectureCode": "27",
    "prefectureNumber": 27,
    "prefecture": "大阪府",
    "city": "門真市",
    "town": "北巣本町"
  },
  "5710074": {
    "zipcode": "5710074",
    "prefectureCode": "27",
    "prefectureNumber": 27,
    "prefecture": "大阪府",
    "city": "門真市",
    "town": "宮前町"
  },
  "5710075": {
    "zipcode": "5710075",
    "prefectureCode": "27",
    "prefectureNumber": 27,
    "prefecture": "大阪府",
    "city": "門真市",
    "town": "下島町"
  },
  "5710076": {
    "zipcode": "5710076",
    "prefectureCode": "27",
    "prefectureNumber": 27,
    "prefecture": "大阪府",
    "city": "門真市",
    "town": "大池町"
  },
  "5710077": {
    "zipcode": "5710077",
    "prefectureCode": "27",
    "prefectureNumber": 27,
    "prefecture": "大阪府",
    "city": "門真市",
    "town": "大橋町"
  },
  "5710078": {
    "zipcode": "5710078",
    "prefectureCode": "27",
    "prefectureNumber": 27,
    "prefecture": "大阪府",
    "city": "門真市",
    "town": "常盤町"
  },
  "5710079": {
    "zipcode": "5710079",
    "prefectureCode": "27",
    "prefectureNumber": 27,
    "prefecture": "大阪府",
    "city": "門真市",
    "town": "野里町"
  }
}
