{
  "5720000": {
    "zipcode": "5720000",
    "prefectureCode": "27",
    "prefectureNumber": 27,
    "prefecture": "大阪府",
    "city": "寝屋川市",
    "town": "以下に掲載がない場合"
  },
  "5720001": {
    "zipcode": "5720001",
    "prefectureCode": "27",
    "prefectureNumber": 27,
    "prefecture": "大阪府",
    "city": "寝屋川市",
    "town": "成田東町"
  },
  "5720002": {
    "zipcode": "5720002",
    "prefectureCode": "27",
    "prefectureNumber": 27,
    "prefecture": "大阪府",
    "city": "寝屋川市",
    "town": "成田東が丘"
  },
  "5720003": {
    "zipcode": "5720003",
    "prefectureCode": "27",
    "prefectureNumber": 27,
    "prefecture": "大阪府",
    "city": "寝屋川市",
    "town": "成田南町"
  },
  "5720004": {
    "zipcode": "5720004",
    "prefectureCode": "27",
    "prefectureNumber": 27,
    "prefecture": "大阪府",
    "city": "寝屋川市",
    "town": "成田町"
  },
  "5720005": {
    "zipcode": "5720005",
    "prefectureCode": "27",
    "prefectureNumber": 27,
    "prefecture": "大阪府",
    "city": "寝屋川市",
    "town": "成田西町"
  },
  "5720006": {
    "zipcode": "5720006",
    "prefectureCode": "27",
    "prefectureNumber": 27,
    "prefecture": "大阪府",
    "city": "寝屋川市",
    "town": "美井元町"
  },
  "5720007": {
    "zipcode": "5720007",
    "prefectureCode": "27",
    "prefectureNumber": 27,
    "prefecture": "大阪府",
    "city": "寝屋川市",
    "town": "美井町"
  },
  "5720008": {
    "zipcode": "5720008",
    "prefectureCode": "27",
    "prefectureNumber": 27,
    "prefecture": "大阪府",
    "city": "寝屋川市",
    "town": "菅相塚町"
  },
  "5720009": {
    "zipcode": "5720009",
    "prefectureCode": "27",
    "prefectureNumber": 27,
    "prefecture": "大阪府",
    "city": "寝屋川市",
    "town": "末広町"
  },
  "5720011": {
    "zipcode": "5720011",
    "prefectureCode": "27",
    "prefectureNumber": 27,
    "prefecture": "大阪府",
    "city": "寝屋川市",
    "town": "明徳"
  },
  "5720012": {
    "zipcode": "5720012",
    "prefectureCode": "27",
    "prefectureNumber": 27,
    "prefecture": "大阪府",
    "city": "寝屋川市",
    "town": "池の瀬町"
  },
  "5720013": {
    "zipcode": "5720013",
    "prefectureCode": "27",
    "prefectureNumber": 27,
    "prefecture": "大阪府",
    "city": "寝屋川市",
    "town": "三井が丘"
  },
  "5720014": {
    "zipcode": "5720014",
    "prefectureCode": "27",
    "prefectureNumber": 27,
    "prefecture": "大阪府",
    "city": "寝屋川市",
    "town": "八幡台"
  },
  "5720015": {
    "zipcode": "5720015",
    "prefectureCode": "27",
    "prefectureNumber": 27,
    "prefecture": "大阪府",
    "city": "寝屋川市",
    "town": "川勝町"
  },
  "5720016": {
    "zipcode": "5720016",
    "prefectureCode": "27",
    "prefectureNumber": 27,
    "prefecture": "大阪府",
    "city": "寝屋川市",
    "town": "国松町"
  },
  "5720017": {
    "zipcode": "5720017",
    "prefectureCode": "27",
    "prefectureNumber": 27,
    "prefecture": "大阪府",
    "city": "寝屋川市",
    "town": "幸町"
  },
  "5720018": {
    "zipcode": "5720018",
    "prefectureCode": "27",
    "prefectureNumber": 27,
    "prefecture": "大阪府",
    "city": "寝屋川市",
    "town": "境橋町"
  },
  "5720019": {
    "zipcode": "5720019",
    "prefectureCode": "27",
    "prefectureNumber": 27,
    "prefecture": "大阪府",
    "city": "寝屋川市",
    "town": "三井南町"
  },
  "5720020": {
    "zipcode": "5720020",
    "prefectureCode": "27",
    "prefectureNumber": 27,
    "prefecture": "大阪府",
    "city": "寝屋川市",
    "town": "田井西町"
  },
  "5720021": {
    "zipcode": "5720021",
    "prefectureCode": "27",
    "prefectureNumber": 27,
    "prefecture": "大阪府",
    "city": "寝屋川市",
    "town": "田井町"
  },
  "5720022": {
    "zipcode": "5720022",
    "prefectureCode": "27",
    "prefectureNumber": 27,
    "prefecture": "大阪府",
    "city": "寝屋川市",
    "town": "緑町"
  },
  "5720023": {
    "zipcode": "5720023",
    "prefectureCode": "27",
    "prefectureNumber": 27,
    "prefecture": "大阪府",
    "city": "寝屋川市",
    "town": "音羽町"
  },
  "5720024": {
    "zipcode": "5720024",
    "prefectureCode": "27",
    "prefectureNumber": 27,
    "prefecture": "大阪府",
    "city": "寝屋川市",
    "town": "石津南町"
  },
  "5720025": {
    "zipcode": "5720025",
    "prefectureCode": "27",
    "prefectureNumber": 27,
    "prefecture": "大阪府",
    "city": "寝屋川市",
    "town": "石津元町"
  },
  "5720026": {
    "zipcode": "5720026",
    "prefectureCode": "27",
    "prefectureNumber": 27,
    "prefecture": "大阪府",
    "city": "寝屋川市",
    "town": "石津中町"
  },
  "5720027": {
    "zipcode": "5720027",
    "prefectureCode": "27",
    "prefectureNumber": 27,
    "prefecture": "大阪府",
    "city": "寝屋川市",
    "town": "石津東町"
  },
  "5720028": {
    "zipcode": "5720028",
    "prefectureCode": "27",
    "prefectureNumber": 27,
    "prefecture": "大阪府",
    "city": "寝屋川市",
    "town": "日新町"
  },
  "5720029": {
    "zipcode": "5720029",
    "prefectureCode": "27",
    "prefectureNumber": 27,
    "prefecture": "大阪府",
    "city": "寝屋川市",
    "town": "寿町"
  },
  "5720030": {
    "zipcode": "5720030",
    "prefectureCode": "27",
    "prefectureNumber": 27,
    "prefecture": "大阪府",
    "city": "寝屋川市",
    "town": "池田本町"
  },
  "5720031": {
    "zipcode": "5720031",
    "prefectureCode": "27",
    "prefectureNumber": 27,
    "prefecture": "大阪府",
    "city": "寝屋川市",
    "town": "若葉町"
  },
  "5720032": {
    "zipcode": "5720032",
    "prefectureCode": "27",
    "prefectureNumber": 27,
    "prefecture": "大阪府",
    "city": "寝屋川市",
    "town": "北大利町"
  },
  "5720033": {
    "zipcode": "5720033",
    "prefectureCode": "27",
    "prefectureNumber": 27,
    "prefecture": "大阪府",
    "city": "寝屋川市",
    "town": "池田東町"
  },
  "5720034": {
    "zipcode": "5720034",
    "prefectureCode": "27",
    "prefectureNumber": 27,
    "prefecture": "大阪府",
    "city": "寝屋川市",
    "town": "池田南町"
  },
  "5720035": {
    "zipcode": "5720035",
    "prefectureCode": "27",
    "prefectureNumber": 27,
    "prefecture": "大阪府",
    "city": "寝屋川市",
    "town": "池田旭町"
  },
  "5720036": {
    "zipcode": "5720036",
    "prefectureCode": "27",
    "prefectureNumber": 27,
    "prefecture": "大阪府",
    "city": "寝屋川市",
    "town": "池田西町"
  },
  "5720037": {
    "zipcode": "5720037",
    "prefectureCode": "27",
    "prefectureNumber": 27,
    "prefecture": "大阪府",
    "city": "寝屋川市",
    "town": "葛原新町"
  },
  "5720038": {
    "zipcode": "5720038",
    "prefectureCode": "27",
    "prefectureNumber": 27,
    "prefecture": "大阪府",
    "city": "寝屋川市",
    "town": "池田新町"
  },
  "5720039": {
    "zipcode": "5720039",
    "prefectureCode": "27",
    "prefectureNumber": 27,
    "prefecture": "大阪府",
    "city": "寝屋川市",
    "town": "池田"
  },
  "5720041": {
    "zipcode": "5720041",
    "prefectureCode": "27",
    "prefectureNumber": 27,
    "prefecture": "大阪府",
    "city": "寝屋川市",
    "town": "桜木町"
  },
  "5720042": {
    "zipcode": "5720042",
    "prefectureCode": "27",
    "prefectureNumber": 27,
    "prefecture": "大阪府",
    "city": "寝屋川市",
    "town": "東大利町"
  },
  "5720043": {
    "zipcode": "5720043",
    "prefectureCode": "27",
    "prefectureNumber": 27,
    "prefecture": "大阪府",
    "city": "寝屋川市",
    "town": "錦町"
  },
  "5720044": {
    "zipcode": "5720044",
    "prefectureCode": "27",
    "prefectureNumber": 27,
    "prefecture": "大阪府",
    "city": "寝屋川市",
    "town": "清水町"
  },
  "5720045": {
    "zipcode": "5720045",
    "prefectureCode": "27",
    "prefectureNumber": 27,
    "prefecture": "大阪府",
    "city": "寝屋川市",
    "town": "東神田町"
  },
  "5720046": {
    "zipcode": "5720046",
    "prefectureCode": "27",
    "prefectureNumber": 27,
    "prefecture": "大阪府",
    "city": "寝屋川市",
    "town": "成美町"
  },
  "5720047": {
    "zipcode": "5720047",
    "prefectureCode": "27",
    "prefectureNumber": 27,
    "prefecture": "大阪府",
    "city": "寝屋川市",
    "town": "大利元町"
  },
  "5720048": {
    "zipcode": "5720048",
    "prefectureCode": "27",
    "prefectureNumber": 27,
    "prefecture": "大阪府",
    "city": "寝屋川市",
    "town": "大利町"
  },
  "5720050": {
    "zipcode": "5720050",
    "prefectureCode": "27",
    "prefectureNumber": 27,
    "prefecture": "大阪府",
    "city": "寝屋川市",
    "town": "黒原城内町"
  },
  "5720051": {
    "zipcode": "5720051",
    "prefectureCode": "27",
    "prefectureNumber": 27,
    "prefecture": "大阪府",
    "city": "寝屋川市",
    "town": "高柳"
  },
  "5720052": {
    "zipcode": "5720052",
    "prefectureCode": "27",
    "prefectureNumber": 27,
    "prefecture": "大阪府",
    "city": "寝屋川市",
    "town": "上神田"
  },
  "5720053": {
    "zipcode": "5720053",
    "prefectureCode": "27",
    "prefectureNumber": 27,
    "prefecture": "大阪府",
    "city": "寝屋川市",
    "town": "中神田町"
  },
  "5720054": {
    "zipcode": "5720054",
    "prefectureCode": "27",
    "prefectureNumber": 27,
    "prefecture": "大阪府",
    "city": "寝屋川市",
    "town": "下神田町"
  },
  "5720055": {
    "zipcode": "5720055",
    "prefectureCode": "27",
    "prefectureNumber": 27,
    "prefecture": "大阪府",
    "city": "寝屋川市",
    "town": "御幸東町"
  },
  "5720056": {
    "zipcode": "5720056",
    "prefectureCode": "27",
    "prefectureNumber": 27,
    "prefecture": "大阪府",
    "city": "寝屋川市",
    "town": "御幸西町"
  },
  "5720057": {
    "zipcode": "5720057",
    "prefectureCode": "27",
    "prefectureNumber": 27,
    "prefecture": "大阪府",
    "city": "寝屋川市",
    "town": "黒原旭町"
  },
  "5720058": {
    "zipcode": "5720058",
    "prefectureCode": "27",
    "prefectureNumber": 27,
    "prefecture": "大阪府",
    "city": "寝屋川市",
    "town": "黒原橘町"
  },
  "5720059": {
    "zipcode": "5720059",
    "prefectureCode": "27",
    "prefectureNumber": 27,
    "prefecture": "大阪府",
    "city": "寝屋川市",
    "town": "黒原新町"
  },
  "5720061": {
    "zipcode": "5720061",
    "prefectureCode": "27",
    "prefectureNumber": 27,
    "prefecture": "大阪府",
    "city": "寝屋川市",
    "town": "長栄寺町"
  },
  "5720062": {
    "zipcode": "5720062",
    "prefectureCode": "27",
    "prefectureNumber": 27,
    "prefecture": "大阪府",
    "city": "寝屋川市",
    "town": "高柳栄町"
  },
  "5720063": {
    "zipcode": "5720063",
    "prefectureCode": "27",
    "prefectureNumber": 27,
    "prefecture": "大阪府",
    "city": "寝屋川市",
    "town": "春日町"
  },
  "5720064": {
    "zipcode": "5720064",
    "prefectureCode": "27",
    "prefectureNumber": 27,
    "prefecture": "大阪府",
    "city": "寝屋川市",
    "town": "対馬江東町"
  },
  "5720065": {
    "zipcode": "5720065",
    "prefectureCode": "27",
    "prefectureNumber": 27,
    "prefecture": "大阪府",
    "city": "寝屋川市",
    "town": "対馬江西町"
  },
  "5720066": {
    "zipcode": "5720066",
    "prefectureCode": "27",
    "prefectureNumber": 27,
    "prefecture": "大阪府",
    "city": "寝屋川市",
    "town": "仁和寺町"
  },
  "5720067": {
    "zipcode": "5720067",
    "prefectureCode": "27",
    "prefectureNumber": 27,
    "prefecture": "大阪府",
    "city": "寝屋川市",
    "town": "宝町"
  },
  "5720071": {
    "zipcode": "5720071",
    "prefectureCode": "27",
    "prefectureNumber": 27,
    "prefecture": "大阪府",
    "city": "寝屋川市",
    "town": "豊里町"
  },
  "5720072": {
    "zipcode": "5720072",
    "prefectureCode": "27",
    "prefectureNumber": 27,
    "prefecture": "大阪府",
    "city": "寝屋川市",
    "town": "太間東町"
  },
  "5720073": {
    "zipcode": "5720073",
    "prefectureCode": "27",
    "prefectureNumber": 27,
    "prefecture": "大阪府",
    "city": "寝屋川市",
    "town": "池田北町"
  },
  "5720074": {
    "zipcode": "5720074",
    "prefectureCode": "27",
    "prefectureNumber": 27,
    "prefecture": "大阪府",
    "city": "寝屋川市",
    "town": "池田中町"
  },
  "5720075": {
    "zipcode": "5720075",
    "prefectureCode": "27",
    "prefectureNumber": 27,
    "prefecture": "大阪府",
    "city": "寝屋川市",
    "town": "葛原"
  },
  "5720076": {
    "zipcode": "5720076",
    "prefectureCode": "27",
    "prefectureNumber": 27,
    "prefecture": "大阪府",
    "city": "寝屋川市",
    "town": "仁和寺本町"
  },
  "5720077": {
    "zipcode": "5720077",
    "prefectureCode": "27",
    "prefectureNumber": 27,
    "prefecture": "大阪府",
    "city": "寝屋川市",
    "town": "点野"
  },
  "5720078": {
    "zipcode": "5720078",
    "prefectureCode": "27",
    "prefectureNumber": 27,
    "prefecture": "大阪府",
    "city": "寝屋川市",
    "town": "太間町"
  },
  "5720080": {
    "zipcode": "5720080",
    "prefectureCode": "27",
    "prefectureNumber": 27,
    "prefecture": "大阪府",
    "city": "寝屋川市",
    "town": "香里北之町"
  },
  "5720081": {
    "zipcode": "5720081",
    "prefectureCode": "27",
    "prefectureNumber": 27,
    "prefecture": "大阪府",
    "city": "寝屋川市",
    "town": "東香里園町"
  },
  "5720082": {
    "zipcode": "5720082",
    "prefectureCode": "27",
    "prefectureNumber": 27,
    "prefecture": "大阪府",
    "city": "寝屋川市",
    "town": "香里本通町"
  },
  "5720083": {
    "zipcode": "5720083",
    "prefectureCode": "27",
    "prefectureNumber": 27,
    "prefecture": "大阪府",
    "city": "寝屋川市",
    "town": "郡元町"
  },
  "5720084": {
    "zipcode": "5720084",
    "prefectureCode": "27",
    "prefectureNumber": 27,
    "prefecture": "大阪府",
    "city": "寝屋川市",
    "town": "香里南之町"
  },
  "5720085": {
    "zipcode": "5720085",
    "prefectureCode": "27",
    "prefectureNumber": 27,
    "prefecture": "大阪府",
    "city": "寝屋川市",
    "town": "香里新町"
  },
  "5720086": {
    "zipcode": "5720086",
    "prefectureCode": "27",
    "prefectureNumber": 27,
    "prefecture": "大阪府",
    "city": "寝屋川市",
    "town": "松屋町"
  },
  "5720087": {
    "zipcode": "5720087",
    "prefectureCode": "27",
    "prefectureNumber": 27,
    "prefecture": "大阪府",
    "city": "寝屋川市",
    "town": "木屋町"
  },
  "5720088": {
    "zipcode": "5720088",
    "prefectureCode": "27",
    "prefectureNumber": 27,
    "prefecture": "大阪府",
    "city": "寝屋川市",
    "town": "木屋元町"
  },
  "5720089": {
    "zipcode": "5720089",
    "prefectureCode": "27",
    "prefectureNumber": 27,
    "prefecture": "大阪府",
    "city": "寝屋川市",
    "town": "香里西之町"
  },
  "5720801": {
    "zipcode": "5720801",
    "prefectureCode": "27",
    "prefectureNumber": 27,
    "prefecture": "大阪府",
    "city": "寝屋川市",
    "town": "寝屋"
  },
  "5720803": {
    "zipcode": "5720803",
    "prefectureCode": "27",
    "prefectureNumber": 27,
    "prefecture": "大阪府",
    "city": "寝屋川市",
    "town": "梅が丘"
  },
  "5720806": {
    "zipcode": "5720806",
    "prefectureCode": "27",
    "prefectureNumber": 27,
    "prefecture": "大阪府",
    "city": "寝屋川市",
    "town": "高宮"
  },
  "5720810": {
    "zipcode": "5720810",
    "prefectureCode": "27",
    "prefectureNumber": 27,
    "prefecture": "大阪府",
    "city": "寝屋川市",
    "town": "堀溝北町"
  },
  "5720811": {
    "zipcode": "5720811",
    "prefectureCode": "27",
    "prefectureNumber": 27,
    "prefecture": "大阪府",
    "city": "寝屋川市",
    "town": "楠根南町"
  },
  "5720812": {
    "zipcode": "5720812",
    "prefectureCode": "27",
    "prefectureNumber": 27,
    "prefecture": "大阪府",
    "city": "寝屋川市",
    "town": "新家"
  },
  "5720813": {
    "zipcode": "5720813",
    "prefectureCode": "27",
    "prefectureNumber": 27,
    "prefecture": "大阪府",
    "city": "寝屋川市",
    "town": "讃良東町"
  },
  "5720814": {
    "zipcode": "5720814",
    "prefectureCode": "27",
    "prefectureNumber": 27,
    "prefecture": "大阪府",
    "city": "寝屋川市",
    "town": "堀溝"
  },
  "5720815": {
    "zipcode": "5720815",
    "prefectureCode": "27",
    "prefectureNumber": 27,
    "prefecture": "大阪府",
    "city": "寝屋川市",
    "town": "河北東町"
  },
  "5720816": {
    "zipcode": "5720816",
    "prefectureCode": "27",
    "prefectureNumber": 27,
    "prefecture": "大阪府",
    "city": "寝屋川市",
    "town": "河北中町"
  },
  "5720817": {
    "zipcode": "5720817",
    "prefectureCode": "27",
    "prefectureNumber": 27,
    "prefecture": "大阪府",
    "city": "寝屋川市",
    "town": "河北西町"
  },
  "5720818": {
    "zipcode": "5720818",
    "prefectureCode": "27",
    "prefectureNumber": 27,
    "prefecture": "大阪府",
    "city": "寝屋川市",
    "town": "讃良西町"
  },
  "5720819": {
    "zipcode": "5720819",
    "prefectureCode": "27",
    "prefectureNumber": 27,
    "prefecture": "大阪府",
    "city": "寝屋川市",
    "town": "大成町"
  },
  "5720820": {
    "zipcode": "5720820",
    "prefectureCode": "27",
    "prefectureNumber": 27,
    "prefecture": "大阪府",
    "city": "寝屋川市",
    "town": "中木田町"
  },
  "5720821": {
    "zipcode": "5720821",
    "prefectureCode": "27",
    "prefectureNumber": 27,
    "prefecture": "大阪府",
    "city": "寝屋川市",
    "town": "出雲町"
  },
  "5720822": {
    "zipcode": "5720822",
    "prefectureCode": "27",
    "prefectureNumber": 27,
    "prefecture": "大阪府",
    "city": "寝屋川市",
    "town": "木田元宮"
  },
  "5720823": {
    "zipcode": "5720823",
    "prefectureCode": "27",
    "prefectureNumber": 27,
    "prefecture": "大阪府",
    "city": "寝屋川市",
    "town": "下木田町"
  },
  "5720824": {
    "zipcode": "5720824",
    "prefectureCode": "27",
    "prefectureNumber": 27,
    "prefecture": "大阪府",
    "city": "寝屋川市",
    "town": "萱島東"
  },
  "5720825": {
    "zipcode": "5720825",
    "prefectureCode": "27",
    "prefectureNumber": 27,
    "prefecture": "大阪府",
    "city": "寝屋川市",
    "town": "萱島南町"
  },
  "5720826": {
    "zipcode": "5720826",
    "prefectureCode": "27",
    "prefectureNumber": 27,
    "prefecture": "大阪府",
    "city": "寝屋川市",
    "town": "南水苑町"
  },
  "5720827": {
    "zipcode": "5720827",
    "prefectureCode": "27",
    "prefectureNumber": 27,
    "prefecture": "大阪府",
    "city": "寝屋川市",
    "town": "萱島本町"
  },
  "5720828": {
    "zipcode": "5720828",
    "prefectureCode": "27",
    "prefectureNumber": 27,
    "prefecture": "大阪府",
    "city": "寝屋川市",
    "town": "萱島桜園町"
  },
  "5720829": {
    "zipcode": "5720829",
    "prefectureCode": "27",
    "prefectureNumber": 27,
    "prefecture": "大阪府",
    "city": "寝屋川市",
    "town": "萱島信和町"
  },
  "5720831": {
    "zipcode": "5720831",
    "prefectureCode": "27",
    "prefectureNumber": 27,
    "prefecture": "大阪府",
    "city": "寝屋川市",
    "town": "豊野町"
  },
  "5720832": {
    "zipcode": "5720832",
    "prefectureCode": "27",
    "prefectureNumber": 27,
    "prefecture": "大阪府",
    "city": "寝屋川市",
    "town": "本町"
  },
  "5720833": {
    "zipcode": "5720833",
    "prefectureCode": "27",
    "prefectureNumber": 27,
    "prefecture": "大阪府",
    "city": "寝屋川市",
    "town": "初町"
  },
  "5720834": {
    "zipcode": "5720834",
    "prefectureCode": "27",
    "prefectureNumber": 27,
    "prefecture": "大阪府",
    "city": "寝屋川市",
    "town": "昭栄町"
  },
  "5720835": {
    "zipcode": "5720835",
    "prefectureCode": "27",
    "prefectureNumber": 27,
    "prefecture": "大阪府",
    "city": "寝屋川市",
    "town": "日之出町"
  },
  "5720836": {
    "zipcode": "5720836",
    "prefectureCode": "27",
    "prefectureNumber": 27,
    "prefecture": "大阪府",
    "city": "寝屋川市",
    "town": "木田町"
  },
  "5720837": {
    "zipcode": "5720837",
    "prefectureCode": "27",
    "prefectureNumber": 27,
    "prefecture": "大阪府",
    "city": "寝屋川市",
    "town": "早子町"
  },
  "5720838": {
    "zipcode": "5720838",
    "prefectureCode": "27",
    "prefectureNumber": 27,
    "prefecture": "大阪府",
    "city": "寝屋川市",
    "town": "八坂町"
  },
  "5720839": {
    "zipcode": "5720839",
    "prefectureCode": "27",
    "prefectureNumber": 27,
    "prefecture": "大阪府",
    "city": "寝屋川市",
    "town": "平池町"
  },
  "5720840": {
    "zipcode": "5720840",
    "prefectureCode": "27",
    "prefectureNumber": 27,
    "prefecture": "大阪府",
    "city": "寝屋川市",
    "town": "太秦桜が丘"
  },
  "5720841": {
    "zipcode": "5720841",
    "prefectureCode": "27",
    "prefectureNumber": 27,
    "prefecture": "大阪府",
    "city": "寝屋川市",
    "town": "太秦東が丘"
  },
  "5720842": {
    "zipcode": "5720842",
    "prefectureCode": "27",
    "prefectureNumber": 27,
    "prefecture": "大阪府",
    "city": "寝屋川市",
    "town": "太秦高塚町"
  },
  "5720843": {
    "zipcode": "5720843",
    "prefectureCode": "27",
    "prefectureNumber": 27,
    "prefecture": "大阪府",
    "city": "寝屋川市",
    "town": "太秦中町"
  },
  "5720844": {
    "zipcode": "5720844",
    "prefectureCode": "27",
    "prefectureNumber": 27,
    "prefecture": "大阪府",
    "city": "寝屋川市",
    "town": "太秦緑が丘"
  },
  "5720845": {
    "zipcode": "5720845",
    "prefectureCode": "27",
    "prefectureNumber": 27,
    "prefecture": "大阪府",
    "city": "寝屋川市",
    "town": "楠根北町"
  },
  "5720846": {
    "zipcode": "5720846",
    "prefectureCode": "27",
    "prefectureNumber": 27,
    "prefecture": "大阪府",
    "city": "寝屋川市",
    "town": "高宮栄町"
  },
  "5720847": {
    "zipcode": "5720847",
    "prefectureCode": "27",
    "prefectureNumber": 27,
    "prefecture": "大阪府",
    "city": "寝屋川市",
    "town": "高宮新町"
  },
  "5720848": {
    "zipcode": "5720848",
    "prefectureCode": "27",
    "prefectureNumber": 27,
    "prefecture": "大阪府",
    "city": "寝屋川市",
    "town": "秦町"
  },
  "5720849": {
    "zipcode": "5720849",
    "prefectureCode": "27",
    "prefectureNumber": 27,
    "prefecture": "大阪府",
    "city": "寝屋川市",
    "town": "太秦元町"
  },
  "5720850": {
    "zipcode": "5720850",
    "prefectureCode": "27",
    "prefectureNumber": 27,
    "prefecture": "大阪府",
    "city": "寝屋川市",
    "town": "打上高塚町"
  },
  "5720851": {
    "zipcode": "5720851",
    "prefectureCode": "27",
    "prefectureNumber": 27,
    "prefecture": "大阪府",
    "city": "寝屋川市",
    "town": "寝屋北町"
  },
  "5720852": {
    "zipcode": "5720852",
    "prefectureCode": "27",
    "prefectureNumber": 27,
    "prefecture": "大阪府",
    "city": "寝屋川市",
    "town": "寝屋新町"
  },
  "5720853": {
    "zipcode": "5720853",
    "prefectureCode": "27",
    "prefectureNumber": 27,
    "prefecture": "大阪府",
    "city": "寝屋川市",
    "town": "大谷町"
  },
  "5720854": {
    "zipcode": "5720854",
    "prefectureCode": "27",
    "prefectureNumber": 27,
    "prefecture": "大阪府",
    "city": "寝屋川市",
    "town": "寝屋川公園"
  },
  "5720855": {
    "zipcode": "5720855",
    "prefectureCode": "27",
    "prefectureNumber": 27,
    "prefecture": "大阪府",
    "city": "寝屋川市",
    "town": "寝屋南"
  },
  "5720856": {
    "zipcode": "5720856",
    "prefectureCode": "27",
    "prefectureNumber": 27,
    "prefecture": "大阪府",
    "city": "寝屋川市",
    "town": "宇谷町"
  },
  "5720857": {
    "zipcode": "5720857",
    "prefectureCode": "27",
    "prefectureNumber": 27,
    "prefecture": "大阪府",
    "city": "寝屋川市",
    "town": "打上中町"
  },
  "5720858": {
    "zipcode": "5720858",
    "prefectureCode": "27",
    "prefectureNumber": 27,
    "prefecture": "大阪府",
    "city": "寝屋川市",
    "town": "打上元町"
  },
  "5720859": {
    "zipcode": "5720859",
    "prefectureCode": "27",
    "prefectureNumber": 27,
    "prefecture": "大阪府",
    "city": "寝屋川市",
    "town": "打上新町"
  },
  "5720861": {
    "zipcode": "5720861",
    "prefectureCode": "27",
    "prefectureNumber": 27,
    "prefecture": "大阪府",
    "city": "寝屋川市",
    "town": "打上南町"
  },
  "5720862": {
    "zipcode": "5720862",
    "prefectureCode": "27",
    "prefectureNumber": 27,
    "prefecture": "大阪府",
    "city": "寝屋川市",
    "town": "打上宮前町"
  },
  "5720863": {
    "zipcode": "5720863",
    "prefectureCode": "27",
    "prefectureNumber": 27,
    "prefecture": "大阪府",
    "city": "寝屋川市",
    "town": "明和"
  },
  "5720864": {
    "zipcode": "5720864",
    "prefectureCode": "27",
    "prefectureNumber": 27,
    "prefecture": "大阪府",
    "city": "寝屋川市",
    "town": "高倉"
  },
  "5720865": {
    "zipcode": "5720865",
    "prefectureCode": "27",
    "prefectureNumber": 27,
    "prefecture": "大阪府",
    "city": "寝屋川市",
    "town": "小路北町"
  },
  "5720866": {
    "zipcode": "5720866",
    "prefectureCode": "27",
    "prefectureNumber": 27,
    "prefecture": "大阪府",
    "city": "寝屋川市",
    "town": "小路南町"
  },
  "5720867": {
    "zipcode": "5720867",
    "prefectureCode": "27",
    "prefectureNumber": 27,
    "prefecture": "大阪府",
    "city": "寝屋川市",
    "town": "高宮あさひ丘"
  }
}
