{
  "5730000": {
    "zipcode": "5730000",
    "prefectureCode": "27",
    "prefectureNumber": 27,
    "prefecture": "大阪府",
    "city": "枚方市",
    "town": "以下に掲載がない場合"
  },
  "5730001": {
    "zipcode": "5730001",
    "prefectureCode": "27",
    "prefectureNumber": 27,
    "prefecture": "大阪府",
    "city": "枚方市",
    "town": "田口山"
  },
  "5730002": {
    "zipcode": "5730002",
    "prefectureCode": "27",
    "prefectureNumber": 27,
    "prefecture": "大阪府",
    "city": "枚方市",
    "town": "出屋敷元町"
  },
  "5730003": {
    "zipcode": "5730003",
    "prefectureCode": "27",
    "prefectureNumber": 27,
    "prefecture": "大阪府",
    "city": "枚方市",
    "town": "出屋敷西町"
  },
  "5730004": {
    "zipcode": "5730004",
    "prefectureCode": "27",
    "prefectureNumber": 27,
    "prefecture": "大阪府",
    "city": "枚方市",
    "town": "中宮大池"
  },
  "5730005": {
    "zipcode": "5730005",
    "prefectureCode": "27",
    "prefectureNumber": 27,
    "prefecture": "大阪府",
    "city": "枚方市",
    "town": "池之宮"
  },
  "5730006": {
    "zipcode": "5730006",
    "prefectureCode": "27",
    "prefectureNumber": 27,
    "prefecture": "大阪府",
    "city": "枚方市",
    "town": "堂山東町"
  },
  "5730007": {
    "zipcode": "5730007",
    "prefectureCode": "27",
    "prefectureNumber": 27,
    "prefecture": "大阪府",
    "city": "枚方市",
    "town": "堂山"
  },
  "5730011": {
    "zipcode": "5730011",
    "prefectureCode": "27",
    "prefectureNumber": 27,
    "prefecture": "大阪府",
    "city": "枚方市",
    "town": "中宮山戸町"
  },
  "5730012": {
    "zipcode": "5730012",
    "prefectureCode": "27",
    "prefectureNumber": 27,
    "prefecture": "大阪府",
    "city": "枚方市",
    "town": "松丘町"
  },
  "5730013": {
    "zipcode": "5730013",
    "prefectureCode": "27",
    "prefectureNumber": 27,
    "prefecture": "大阪府",
    "city": "枚方市",
    "town": "星丘"
  },
  "5730014": {
    "zipcode": "5730014",
    "prefectureCode": "27",
    "prefectureNumber": 27,
    "prefecture": "大阪府",
    "city": "枚方市",
    "town": "村野高見台"
  },
  "5730015": {
    "zipcode": "5730015",
    "prefectureCode": "27",
    "prefectureNumber": 27,
    "prefecture": "大阪府",
    "city": "枚方市",
    "town": "村野東町"
  },
  "5730016": {
    "zipcode": "5730016",
    "prefectureCode": "27",
    "prefectureNumber": 27,
    "prefecture": "大阪府",
    "city": "枚方市",
    "town": "村野本町"
  },
  "5730017": {
    "zipcode": "5730017",
    "prefectureCode": "27",
    "prefectureNumber": 27,
    "prefecture": "大阪府",
    "city": "枚方市",
    "town": "印田町"
  },
  "5730018": {
    "zipcode": "5730018",
    "prefectureCode": "27",
    "prefectureNumber": 27,
    "prefecture": "大阪府",
    "city": "枚方市",
    "town": "桜丘町"
  },
  "5730021": {
    "zipcode": "5730021",
    "prefectureCode": "27",
    "prefectureNumber": 27,
    "prefecture": "大阪府",
    "city": "枚方市",
    "town": "中宮西之町"
  },
  "5730022": {
    "zipcode": "5730022",
    "prefectureCode": "27",
    "prefectureNumber": 27,
    "prefecture": "大阪府",
    "city": "枚方市",
    "town": "宮之阪"
  },
  "5730023": {
    "zipcode": "5730023",
    "prefectureCode": "27",
    "prefectureNumber": 27,
    "prefecture": "大阪府",
    "city": "枚方市",
    "town": "東田宮"
  },
  "5730024": {
    "zipcode": "5730024",
    "prefectureCode": "27",
    "prefectureNumber": 27,
    "prefecture": "大阪府",
    "city": "枚方市",
    "town": "田宮本町"
  },
  "5730025": {
    "zipcode": "5730025",
    "prefectureCode": "27",
    "prefectureNumber": 27,
    "prefecture": "大阪府",
    "city": "枚方市",
    "town": "西田宮町"
  },
  "5730026": {
    "zipcode": "5730026",
    "prefectureCode": "27",
    "prefectureNumber": 27,
    "prefecture": "大阪府",
    "city": "枚方市",
    "town": "朝日丘町"
  },
  "5730027": {
    "zipcode": "5730027",
    "prefectureCode": "27",
    "prefectureNumber": 27,
    "prefecture": "大阪府",
    "city": "枚方市",
    "town": "大垣内町"
  },
  "5730028": {
    "zipcode": "5730028",
    "prefectureCode": "27",
    "prefectureNumber": 27,
    "prefecture": "大阪府",
    "city": "枚方市",
    "town": "川原町"
  },
  "5730031": {
    "zipcode": "5730031",
    "prefectureCode": "27",
    "prefectureNumber": 27,
    "prefecture": "大阪府",
    "city": "枚方市",
    "town": "岡本町"
  },
  "5730032": {
    "zipcode": "5730032",
    "prefectureCode": "27",
    "prefectureNumber": 27,
    "prefecture": "大阪府",
    "city": "枚方市",
    "town": "岡東町"
  },
  "5730033": {
    "zipcode": "5730033",
    "prefectureCode": "27",
    "prefectureNumber": 27,
    "prefecture": "大阪府",
    "city": "枚方市",
    "town": "岡南町"
  },
  "5730034": {
    "zipcode": "5730034",
    "prefectureCode": "27",
    "prefectureNumber": 27,
    "prefecture": "大阪府",
    "city": "枚方市",
    "town": "岡山手町"
  },
  "5730035": {
    "zipcode": "5730035",
    "prefectureCode": "27",
    "prefectureNumber": 27,
    "prefecture": "大阪府",
    "city": "枚方市",
    "town": "高塚町"
  },
  "5730036": {
    "zipcode": "5730036",
    "prefectureCode": "27",
    "prefectureNumber": 27,
    "prefecture": "大阪府",
    "city": "枚方市",
    "town": "伊加賀北町"
  },
  "5730037": {
    "zipcode": "5730037",
    "prefectureCode": "27",
    "prefectureNumber": 27,
    "prefecture": "大阪府",
    "city": "枚方市",
    "town": "枚方上之町"
  },
  "5730041": {
    "zipcode": "5730041",
    "prefectureCode": "27",
    "prefectureNumber": 27,
    "prefecture": "大阪府",
    "city": "枚方市",
    "town": "山之上東町"
  },
  "5730042": {
    "zipcode": "5730042",
    "prefectureCode": "27",
    "prefectureNumber": 27,
    "prefecture": "大阪府",
    "city": "枚方市",
    "town": "村野西町"
  },
  "5730043": {
    "zipcode": "5730043",
    "prefectureCode": "27",
    "prefectureNumber": 27,
    "prefecture": "大阪府",
    "city": "枚方市",
    "town": "村野南町"
  },
  "5730044": {
    "zipcode": "5730044",
    "prefectureCode": "27",
    "prefectureNumber": 27,
    "prefecture": "大阪府",
    "city": "枚方市",
    "town": "東藤田町"
  },
  "5730045": {
    "zipcode": "5730045",
    "prefectureCode": "27",
    "prefectureNumber": 27,
    "prefecture": "大阪府",
    "city": "枚方市",
    "town": "藤田町"
  },
  "5730046": {
    "zipcode": "5730046",
    "prefectureCode": "27",
    "prefectureNumber": 27,
    "prefecture": "大阪府",
    "city": "枚方市",
    "town": "宮之下町"
  },
  "5730047": {
    "zipcode": "5730047",
    "prefectureCode": "27",
    "prefectureNumber": 27,
    "prefecture": "大阪府",
    "city": "枚方市",
    "town": "山之上"
  },
  "5730048": {
    "zipcode": "5730048",
    "prefectureCode": "27",
    "prefectureNumber": 27,
    "prefecture": "大阪府",
    "city": "枚方市",
    "town": "山之上西町"
  },
  "5730049": {
    "zipcode": "5730049",
    "prefectureCode": "27",
    "prefectureNumber": 27,
    "prefecture": "大阪府",
    "city": "枚方市",
    "town": "山之上北町"
  },
  "5730051": {
    "zipcode": "5730051",
    "prefectureCode": "27",
    "prefectureNumber": 27,
    "prefecture": "大阪府",
    "city": "枚方市",
    "town": "三矢町"
  },
  "5730052": {
    "zipcode": "5730052",
    "prefectureCode": "27",
    "prefectureNumber": 27,
    "prefecture": "大阪府",
    "city": "枚方市",
    "town": "枚方元町"
  },
  "5730053": {
    "zipcode": "5730053",
    "prefectureCode": "27",
    "prefectureNumber": 27,
    "prefecture": "大阪府",
    "city": "枚方市",
    "town": "伊加賀南町"
  },
  "5730054": {
    "zipcode": "5730054",
    "prefectureCode": "27",
    "prefectureNumber": 27,
    "prefecture": "大阪府",
    "city": "枚方市",
    "town": "枚方公園町"
  },
  "5730055": {
    "zipcode": "5730055",
    "prefectureCode": "27",
    "prefectureNumber": 27,
    "prefecture": "大阪府",
    "city": "枚方市",
    "town": "伊加賀本町"
  },
  "5730056": {
    "zipcode": "5730056",
    "prefectureCode": "27",
    "prefectureNumber": 27,
    "prefecture": "大阪府",
    "city": "枚方市",
    "town": "桜町"
  },
  "5730057": {
    "zipcode": "5730057",
    "prefectureCode": "27",
    "prefectureNumber": 27,
    "prefecture": "大阪府",
    "city": "枚方市",
    "town": "堤町"
  },
  "5730058": {
    "zipcode": "5730058",
    "prefectureCode": "27",
    "prefectureNumber": 27,
    "prefecture": "大阪府",
    "city": "枚方市",
    "town": "伊加賀東町"
  },
  "5730061": {
    "zipcode": "5730061",
    "prefectureCode": "27",
    "prefectureNumber": 27,
    "prefecture": "大阪府",
    "city": "枚方市",
    "town": "伊加賀寿町"
  },
  "5730062": {
    "zipcode": "5730062",
    "prefectureCode": "27",
    "prefectureNumber": 27,
    "prefecture": "大阪府",
    "city": "枚方市",
    "town": "伊加賀栄町"
  },
  "5730063": {
    "zipcode": "5730063",
    "prefectureCode": "27",
    "prefectureNumber": 27,
    "prefecture": "大阪府",
    "city": "枚方市",
    "town": "走谷"
  },
  "5730064": {
    "zipcode": "5730064",
    "prefectureCode": "27",
    "prefectureNumber": 27,
    "prefecture": "大阪府",
    "city": "枚方市",
    "town": "北中振"
  },
  "5730065": {
    "zipcode": "5730065",
    "prefectureCode": "27",
    "prefectureNumber": 27,
    "prefecture": "大阪府",
    "city": "枚方市",
    "town": "出口"
  },
  "5730066": {
    "zipcode": "5730066",
    "prefectureCode": "27",
    "prefectureNumber": 27,
    "prefecture": "大阪府",
    "city": "枚方市",
    "town": "伊加賀西町"
  },
  "5730067": {
    "zipcode": "5730067",
    "prefectureCode": "27",
    "prefectureNumber": 27,
    "prefecture": "大阪府",
    "city": "枚方市",
    "town": "伊加賀緑町"
  },
  "5730071": {
    "zipcode": "5730071",
    "prefectureCode": "27",
    "prefectureNumber": 27,
    "prefecture": "大阪府",
    "city": "枚方市",
    "town": "茄子作"
  },
  "5730072": {
    "zipcode": "5730072",
    "prefectureCode": "27",
    "prefectureNumber": 27,
    "prefecture": "大阪府",
    "city": "枚方市",
    "town": "茄子作南町"
  },
  "5730073": {
    "zipcode": "5730073",
    "prefectureCode": "27",
    "prefectureNumber": 27,
    "prefecture": "大阪府",
    "city": "枚方市",
    "town": "高田"
  },
  "5730074": {
    "zipcode": "5730074",
    "prefectureCode": "27",
    "prefectureNumber": 27,
    "prefecture": "大阪府",
    "city": "枚方市",
    "town": "東香里南町"
  },
  "5730075": {
    "zipcode": "5730075",
    "prefectureCode": "27",
    "prefectureNumber": 27,
    "prefecture": "大阪府",
    "city": "枚方市",
    "town": "東香里"
  },
  "5730076": {
    "zipcode": "5730076",
    "prefectureCode": "27",
    "prefectureNumber": 27,
    "prefecture": "大阪府",
    "city": "枚方市",
    "town": "東香里元町"
  },
  "5730077": {
    "zipcode": "5730077",
    "prefectureCode": "27",
    "prefectureNumber": 27,
    "prefecture": "大阪府",
    "city": "枚方市",
    "town": "東香里新町"
  },
  "5730081": {
    "zipcode": "5730081",
    "prefectureCode": "27",
    "prefectureNumber": 27,
    "prefecture": "大阪府",
    "city": "枚方市",
    "town": "釈尊寺町"
  },
  "5730082": {
    "zipcode": "5730082",
    "prefectureCode": "27",
    "prefectureNumber": 27,
    "prefecture": "大阪府",
    "city": "枚方市",
    "town": "茄子作東町"
  },
  "5730083": {
    "zipcode": "5730083",
    "prefectureCode": "27",
    "prefectureNumber": 27,
    "prefecture": "大阪府",
    "city": "枚方市",
    "town": "茄子作北町"
  },
  "5730084": {
    "zipcode": "5730084",
    "prefectureCode": "27",
    "prefectureNumber": 27,
    "prefecture": "大阪府",
    "city": "枚方市",
    "town": "香里ケ丘"
  },
  "5730085": {
    "zipcode": "5730085",
    "prefectureCode": "27",
    "prefectureNumber": 27,
    "prefecture": "大阪府",
    "city": "枚方市",
    "town": "香里園東之町"
  },
  "5730086": {
    "zipcode": "5730086",
    "prefectureCode": "27",
    "prefectureNumber": 27,
    "prefecture": "大阪府",
    "city": "枚方市",
    "town": "香里園町"
  },
  "5730087": {
    "zipcode": "5730087",
    "prefectureCode": "27",
    "prefectureNumber": 27,
    "prefecture": "大阪府",
    "city": "枚方市",
    "town": "香里園山之手町"
  },
  "5730088": {
    "zipcode": "5730088",
    "prefectureCode": "27",
    "prefectureNumber": 27,
    "prefecture": "大阪府",
    "city": "枚方市",
    "town": "香里園桜木町"
  },
  "5730091": {
    "zipcode": "5730091",
    "prefectureCode": "27",
    "prefectureNumber": 27,
    "prefecture": "大阪府",
    "city": "枚方市",
    "town": "菊丘町"
  },
  "5730092": {
    "zipcode": "5730092",
    "prefectureCode": "27",
    "prefectureNumber": 27,
    "prefecture": "大阪府",
    "city": "枚方市",
    "town": "菊丘南町"
  },
  "5730093": {
    "zipcode": "5730093",
    "prefectureCode": "27",
    "prefectureNumber": 27,
    "prefecture": "大阪府",
    "city": "枚方市",
    "town": "東中振"
  },
  "5730094": {
    "zipcode": "5730094",
    "prefectureCode": "27",
    "prefectureNumber": 27,
    "prefecture": "大阪府",
    "city": "枚方市",
    "town": "南中振"
  },
  "5730095": {
    "zipcode": "5730095",
    "prefectureCode": "27",
    "prefectureNumber": 27,
    "prefecture": "大阪府",
    "city": "枚方市",
    "town": "翠香園町"
  },
  "5730101": {
    "zipcode": "5730101",
    "prefectureCode": "27",
    "prefectureNumber": 27,
    "prefecture": "大阪府",
    "city": "枚方市",
    "town": "長尾峠町"
  },
  "5730102": {
    "zipcode": "5730102",
    "prefectureCode": "27",
    "prefectureNumber": 27,
    "prefecture": "大阪府",
    "city": "枚方市",
    "town": "長尾家具町"
  },
  "5730103": {
    "zipcode": "5730103",
    "prefectureCode": "27",
    "prefectureNumber": 27,
    "prefecture": "大阪府",
    "city": "枚方市",
    "town": "長尾荒阪"
  },
  "5730104": {
    "zipcode": "5730104",
    "prefectureCode": "27",
    "prefectureNumber": 27,
    "prefecture": "大阪府",
    "city": "枚方市",
    "town": "長尾播磨谷"
  },
  "5730105": {
    "zipcode": "5730105",
    "prefectureCode": "27",
    "prefectureNumber": 27,
    "prefecture": "大阪府",
    "city": "枚方市",
    "town": "長尾東町"
  },
  "5730106": {
    "zipcode": "5730106",
    "prefectureCode": "27",
    "prefectureNumber": 27,
    "prefecture": "大阪府",
    "city": "枚方市",
    "town": "長尾台"
  },
  "5730107": {
    "zipcode": "5730107",
    "prefectureCode": "27",
    "prefectureNumber": 27,
    "prefecture": "大阪府",
    "city": "枚方市",
    "town": "長尾宮前"
  },
  "5730111": {
    "zipcode": "5730111",
    "prefectureCode": "27",
    "prefectureNumber": 27,
    "prefecture": "大阪府",
    "city": "枚方市",
    "town": "杉北町"
  },
  "5730112": {
    "zipcode": "5730112",
    "prefectureCode": "27",
    "prefectureNumber": 27,
    "prefecture": "大阪府",
    "city": "枚方市",
    "town": "尊延寺"
  },
  "5730113": {
    "zipcode": "5730113",
    "prefectureCode": "27",
    "prefectureNumber": 27,
    "prefecture": "大阪府",
    "city": "枚方市",
    "town": "宗谷"
  },
  "5730114": {
    "zipcode": "5730114",
    "prefectureCode": "27",
    "prefectureNumber": 27,
    "prefecture": "大阪府",
    "city": "枚方市",
    "town": "穂谷"
  },
  "5730115": {
    "zipcode": "5730115",
    "prefectureCode": "27",
    "prefectureNumber": 27,
    "prefecture": "大阪府",
    "city": "枚方市",
    "town": "氷室台"
  },
  "5730116": {
    "zipcode": "5730116",
    "prefectureCode": "27",
    "prefectureNumber": 27,
    "prefecture": "大阪府",
    "city": "枚方市",
    "town": "杉責谷"
  },
  "5730117": {
    "zipcode": "5730117",
    "prefectureCode": "27",
    "prefectureNumber": 27,
    "prefecture": "大阪府",
    "city": "枚方市",
    "town": "杉"
  },
  "5730118": {
    "zipcode": "5730118",
    "prefectureCode": "27",
    "prefectureNumber": 27,
    "prefecture": "大阪府",
    "city": "枚方市",
    "town": "杉山手"
  },
  "5730121": {
    "zipcode": "5730121",
    "prefectureCode": "27",
    "prefectureNumber": 27,
    "prefecture": "大阪府",
    "city": "枚方市",
    "town": "津田北町"
  },
  "5730122": {
    "zipcode": "5730122",
    "prefectureCode": "27",
    "prefectureNumber": 27,
    "prefecture": "大阪府",
    "city": "枚方市",
    "town": "津田東町"
  },
  "5730123": {
    "zipcode": "5730123",
    "prefectureCode": "27",
    "prefectureNumber": 27,
    "prefecture": "大阪府",
    "city": "枚方市",
    "town": "津田"
  },
  "5730124": {
    "zipcode": "5730124",
    "prefectureCode": "27",
    "prefectureNumber": 27,
    "prefecture": "大阪府",
    "city": "枚方市",
    "town": "津田南町"
  },
  "5730125": {
    "zipcode": "5730125",
    "prefectureCode": "27",
    "prefectureNumber": 27,
    "prefecture": "大阪府",
    "city": "枚方市",
    "town": "津田駅前"
  },
  "5730126": {
    "zipcode": "5730126",
    "prefectureCode": "27",
    "prefectureNumber": 27,
    "prefecture": "大阪府",
    "city": "枚方市",
    "town": "津田西町"
  },
  "5730127": {
    "zipcode": "5730127",
    "prefectureCode": "27",
    "prefectureNumber": 27,
    "prefecture": "大阪府",
    "city": "枚方市",
    "town": "津田元町"
  },
  "5730128": {
    "zipcode": "5730128",
    "prefectureCode": "27",
    "prefectureNumber": 27,
    "prefecture": "大阪府",
    "city": "枚方市",
    "town": "津田山手"
  },
  "5730131": {
    "zipcode": "5730131",
    "prefectureCode": "27",
    "prefectureNumber": 27,
    "prefecture": "大阪府",
    "city": "枚方市",
    "town": "春日野"
  },
  "5730132": {
    "zipcode": "5730132",
    "prefectureCode": "27",
    "prefectureNumber": 27,
    "prefecture": "大阪府",
    "city": "枚方市",
    "town": "野村元町"
  },
  "5730133": {
    "zipcode": "5730133",
    "prefectureCode": "27",
    "prefectureNumber": 27,
    "prefecture": "大阪府",
    "city": "枚方市",
    "town": "野村南町"
  },
  "5730134": {
    "zipcode": "5730134",
    "prefectureCode": "27",
    "prefectureNumber": 27,
    "prefecture": "大阪府",
    "city": "枚方市",
    "town": "春日東町"
  },
  "5730135": {
    "zipcode": "5730135",
    "prefectureCode": "27",
    "prefectureNumber": 27,
    "prefecture": "大阪府",
    "city": "枚方市",
    "town": "春日元町"
  },
  "5730136": {
    "zipcode": "5730136",
    "prefectureCode": "27",
    "prefectureNumber": 27,
    "prefecture": "大阪府",
    "city": "枚方市",
    "town": "春日西町"
  },
  "5730137": {
    "zipcode": "5730137",
    "prefectureCode": "27",
    "prefectureNumber": 27,
    "prefecture": "大阪府",
    "city": "枚方市",
    "town": "春日北町"
  },
  "5730141": {
    "zipcode": "5730141",
    "prefectureCode": "27",
    "prefectureNumber": 27,
    "prefecture": "大阪府",
    "city": "枚方市",
    "town": "大峰北町"
  },
  "5730142": {
    "zipcode": "5730142",
    "prefectureCode": "27",
    "prefectureNumber": 27,
    "prefecture": "大阪府",
    "city": "枚方市",
    "town": "大峰東町"
  },
  "5730143": {
    "zipcode": "5730143",
    "prefectureCode": "27",
    "prefectureNumber": 27,
    "prefecture": "大阪府",
    "city": "枚方市",
    "town": "野村北町"
  },
  "5730144": {
    "zipcode": "5730144",
    "prefectureCode": "27",
    "prefectureNumber": 27,
    "prefecture": "大阪府",
    "city": "枚方市",
    "town": "野村中町"
  },
  "5730145": {
    "zipcode": "5730145",
    "prefectureCode": "27",
    "prefectureNumber": 27,
    "prefecture": "大阪府",
    "city": "枚方市",
    "town": "大峰南町"
  },
  "5730146": {
    "zipcode": "5730146",
    "prefectureCode": "27",
    "prefectureNumber": 27,
    "prefecture": "大阪府",
    "city": "枚方市",
    "town": "大峰元町"
  },
  "5730151": {
    "zipcode": "5730151",
    "prefectureCode": "27",
    "prefectureNumber": 27,
    "prefecture": "大阪府",
    "city": "枚方市",
    "town": "藤阪北町"
  },
  "5730152": {
    "zipcode": "5730152",
    "prefectureCode": "27",
    "prefectureNumber": 27,
    "prefecture": "大阪府",
    "city": "枚方市",
    "town": "藤阪中町"
  },
  "5730153": {
    "zipcode": "5730153",
    "prefectureCode": "27",
    "prefectureNumber": 27,
    "prefecture": "大阪府",
    "city": "枚方市",
    "town": "藤阪東町"
  },
  "5730154": {
    "zipcode": "5730154",
    "prefectureCode": "27",
    "prefectureNumber": 27,
    "prefecture": "大阪府",
    "city": "枚方市",
    "town": "王仁公園"
  },
  "5730155": {
    "zipcode": "5730155",
    "prefectureCode": "27",
    "prefectureNumber": 27,
    "prefecture": "大阪府",
    "city": "枚方市",
    "town": "藤阪天神町"
  },
  "5730156": {
    "zipcode": "5730156",
    "prefectureCode": "27",
    "prefectureNumber": 27,
    "prefecture": "大阪府",
    "city": "枚方市",
    "town": "藤阪南町"
  },
  "5730157": {
    "zipcode": "5730157",
    "prefectureCode": "27",
    "prefectureNumber": 27,
    "prefecture": "大阪府",
    "city": "枚方市",
    "town": "藤阪元町"
  },
  "5730158": {
    "zipcode": "5730158",
    "prefectureCode": "27",
    "prefectureNumber": 27,
    "prefecture": "大阪府",
    "city": "枚方市",
    "town": "藤阪西町"
  },
  "5730161": {
    "zipcode": "5730161",
    "prefectureCode": "27",
    "prefectureNumber": 27,
    "prefecture": "大阪府",
    "city": "枚方市",
    "town": "長尾北町"
  },
  "5730162": {
    "zipcode": "5730162",
    "prefectureCode": "27",
    "prefectureNumber": 27,
    "prefecture": "大阪府",
    "city": "枚方市",
    "town": "長尾西町"
  },
  "5730163": {
    "zipcode": "5730163",
    "prefectureCode": "27",
    "prefectureNumber": 27,
    "prefecture": "大阪府",
    "city": "枚方市",
    "town": "長尾元町"
  },
  "5730164": {
    "zipcode": "5730164",
    "prefectureCode": "27",
    "prefectureNumber": 27,
    "prefecture": "大阪府",
    "city": "枚方市",
    "town": "長尾谷町"
  },
  "5730165": {
    "zipcode": "5730165",
    "prefectureCode": "27",
    "prefectureNumber": 27,
    "prefecture": "大阪府",
    "city": "枚方市",
    "town": "山田池東町"
  },
  "5730166": {
    "zipcode": "5730166",
    "prefectureCode": "27",
    "prefectureNumber": 27,
    "prefecture": "大阪府",
    "city": "枚方市",
    "town": "山田池北町"
  },
  "5730167": {
    "zipcode": "5730167",
    "prefectureCode": "27",
    "prefectureNumber": 27,
    "prefecture": "大阪府",
    "city": "枚方市",
    "town": "山田池公園"
  },
  "5730168": {
    "zipcode": "5730168",
    "prefectureCode": "27",
    "prefectureNumber": 27,
    "prefecture": "大阪府",
    "city": "枚方市",
    "town": "山田池南町"
  },
  "5730171": {
    "zipcode": "5730171",
    "prefectureCode": "27",
    "prefectureNumber": 27,
    "prefecture": "大阪府",
    "city": "枚方市",
    "town": "北山"
  },
  "5731101": {
    "zipcode": "5731101",
    "prefectureCode": "27",
    "prefectureNumber": 27,
    "prefecture": "大阪府",
    "city": "枚方市",
    "town": "楠葉中之芝"
  },
  "5731102": {
    "zipcode": "5731102",
    "prefectureCode": "27",
    "prefectureNumber": 27,
    "prefecture": "大阪府",
    "city": "枚方市",
    "town": "北楠葉町"
  },
  "5731103": {
    "zipcode": "5731103",
    "prefectureCode": "27",
    "prefectureNumber": 27,
    "prefecture": "大阪府",
    "city": "枚方市",
    "town": "楠葉野田"
  },
  "5731104": {
    "zipcode": "5731104",
    "prefectureCode": "27",
    "prefectureNumber": 27,
    "prefecture": "大阪府",
    "city": "枚方市",
    "town": "楠葉丘"
  },
  "5731105": {
    "zipcode": "5731105",
    "prefectureCode": "27",
    "prefectureNumber": 27,
    "prefecture": "大阪府",
    "city": "枚方市",
    "town": "南楠葉"
  },
  "5731106": {
    "zipcode": "5731106",
    "prefectureCode": "27",
    "prefectureNumber": 27,
    "prefecture": "大阪府",
    "city": "枚方市",
    "town": "町楠葉"
  },
  "5731107": {
    "zipcode": "5731107",
    "prefectureCode": "27",
    "prefectureNumber": 27,
    "prefecture": "大阪府",
    "city": "枚方市",
    "town": "楠葉中町"
  },
  "5731111": {
    "zipcode": "5731111",
    "prefectureCode": "27",
    "prefectureNumber": 27,
    "prefecture": "大阪府",
    "city": "枚方市",
    "town": "楠葉朝日"
  },
  "5731112": {
    "zipcode": "5731112",
    "prefectureCode": "27",
    "prefectureNumber": 27,
    "prefecture": "大阪府",
    "city": "枚方市",
    "town": "楠葉美咲"
  },
  "5731113": {
    "zipcode": "5731113",
    "prefectureCode": "27",
    "prefectureNumber": 27,
    "prefecture": "大阪府",
    "city": "枚方市",
    "town": "楠葉面取町"
  },
  "5731114": {
    "zipcode": "5731114",
    "prefectureCode": "27",
    "prefectureNumber": 27,
    "prefecture": "大阪府",
    "city": "枚方市",
    "town": "東山"
  },
  "5731115": {
    "zipcode": "5731115",
    "prefectureCode": "27",
    "prefectureNumber": 27,
    "prefecture": "大阪府",
    "city": "枚方市",
    "town": "東船橋"
  },
  "5731116": {
    "zipcode": "5731116",
    "prefectureCode": "27",
    "prefectureNumber": 27,
    "prefecture": "大阪府",
    "city": "枚方市",
    "town": "船橋本町"
  },
  "5731117": {
    "zipcode": "5731117",
    "prefectureCode": "27",
    "prefectureNumber": 27,
    "prefecture": "大阪府",
    "city": "枚方市",
    "town": "北船橋町"
  },
  "5731118": {
    "zipcode": "5731118",
    "prefectureCode": "27",
    "prefectureNumber": 27,
    "prefecture": "大阪府",
    "city": "枚方市",
    "town": "楠葉並木"
  },
  "5731121": {
    "zipcode": "5731121",
    "prefectureCode": "27",
    "prefectureNumber": 27,
    "prefecture": "大阪府",
    "city": "枚方市",
    "town": "楠葉花園町"
  },
  "5731122": {
    "zipcode": "5731122",
    "prefectureCode": "27",
    "prefectureNumber": 27,
    "prefecture": "大阪府",
    "city": "枚方市",
    "town": "西船橋"
  },
  "5731123": {
    "zipcode": "5731123",
    "prefectureCode": "27",
    "prefectureNumber": 27,
    "prefecture": "大阪府",
    "city": "枚方市",
    "town": "南船橋"
  },
  "5731124": {
    "zipcode": "5731124",
    "prefectureCode": "27",
    "prefectureNumber": 27,
    "prefecture": "大阪府",
    "city": "枚方市",
    "town": "養父東町"
  },
  "5731125": {
    "zipcode": "5731125",
    "prefectureCode": "27",
    "prefectureNumber": 27,
    "prefecture": "大阪府",
    "city": "枚方市",
    "town": "養父元町"
  },
  "5731126": {
    "zipcode": "5731126",
    "prefectureCode": "27",
    "prefectureNumber": 27,
    "prefecture": "大阪府",
    "city": "枚方市",
    "town": "上島東町"
  },
  "5731127": {
    "zipcode": "5731127",
    "prefectureCode": "27",
    "prefectureNumber": 27,
    "prefecture": "大阪府",
    "city": "枚方市",
    "town": "上島町"
  },
  "5731128": {
    "zipcode": "5731128",
    "prefectureCode": "27",
    "prefectureNumber": 27,
    "prefecture": "大阪府",
    "city": "枚方市",
    "town": "樋之上町"
  },
  "5731131": {
    "zipcode": "5731131",
    "prefectureCode": "27",
    "prefectureNumber": 27,
    "prefecture": "大阪府",
    "city": "枚方市",
    "town": "高野道"
  },
  "5731132": {
    "zipcode": "5731132",
    "prefectureCode": "27",
    "prefectureNumber": 27,
    "prefecture": "大阪府",
    "city": "枚方市",
    "town": "招提田近"
  },
  "5731133": {
    "zipcode": "5731133",
    "prefectureCode": "27",
    "prefectureNumber": 27,
    "prefecture": "大阪府",
    "city": "枚方市",
    "town": "招提元町"
  },
  "5731134": {
    "zipcode": "5731134",
    "prefectureCode": "27",
    "prefectureNumber": 27,
    "prefecture": "大阪府",
    "city": "枚方市",
    "town": "養父丘"
  },
  "5731135": {
    "zipcode": "5731135",
    "prefectureCode": "27",
    "prefectureNumber": 27,
    "prefecture": "大阪府",
    "city": "枚方市",
    "town": "招提平野町"
  },
  "5731136": {
    "zipcode": "5731136",
    "prefectureCode": "27",
    "prefectureNumber": 27,
    "prefecture": "大阪府",
    "city": "枚方市",
    "town": "宇山東町"
  },
  "5731137": {
    "zipcode": "5731137",
    "prefectureCode": "27",
    "prefectureNumber": 27,
    "prefecture": "大阪府",
    "city": "枚方市",
    "town": "西招提町"
  },
  "5731138": {
    "zipcode": "5731138",
    "prefectureCode": "27",
    "prefectureNumber": 27,
    "prefecture": "大阪府",
    "city": "枚方市",
    "town": "招提北町"
  },
  "5731141": {
    "zipcode": "5731141",
    "prefectureCode": "27",
    "prefectureNumber": 27,
    "prefecture": "大阪府",
    "city": "枚方市",
    "town": "養父西町"
  },
  "5731142": {
    "zipcode": "5731142",
    "prefectureCode": "27",
    "prefectureNumber": 27,
    "prefecture": "大阪府",
    "city": "枚方市",
    "town": "牧野下島町"
  },
  "5731143": {
    "zipcode": "5731143",
    "prefectureCode": "27",
    "prefectureNumber": 27,
    "prefecture": "大阪府",
    "city": "枚方市",
    "town": "宇山町"
  },
  "5731144": {
    "zipcode": "5731144",
    "prefectureCode": "27",
    "prefectureNumber": 27,
    "prefecture": "大阪府",
    "city": "枚方市",
    "town": "牧野本町"
  },
  "5731145": {
    "zipcode": "5731145",
    "prefectureCode": "27",
    "prefectureNumber": 27,
    "prefecture": "大阪府",
    "city": "枚方市",
    "town": "黄金野"
  },
  "5731146": {
    "zipcode": "5731146",
    "prefectureCode": "27",
    "prefectureNumber": 27,
    "prefecture": "大阪府",
    "city": "枚方市",
    "town": "牧野阪"
  },
  "5731147": {
    "zipcode": "5731147",
    "prefectureCode": "27",
    "prefectureNumber": 27,
    "prefecture": "大阪府",
    "city": "枚方市",
    "town": "渚内野"
  },
  "5731148": {
    "zipcode": "5731148",
    "prefectureCode": "27",
    "prefectureNumber": 27,
    "prefecture": "大阪府",
    "city": "枚方市",
    "town": "西牧野"
  },
  "5731149": {
    "zipcode": "5731149",
    "prefectureCode": "27",
    "prefectureNumber": 27,
    "prefecture": "大阪府",
    "city": "枚方市",
    "town": "牧野北町"
  },
  "5731151": {
    "zipcode": "5731151",
    "prefectureCode": "27",
    "prefectureNumber": 27,
    "prefecture": "大阪府",
    "city": "枚方市",
    "town": "東牧野町"
  },
  "5731152": {
    "zipcode": "5731152",
    "prefectureCode": "27",
    "prefectureNumber": 27,
    "prefecture": "大阪府",
    "city": "枚方市",
    "town": "招提中町"
  },
  "5731153": {
    "zipcode": "5731153",
    "prefectureCode": "27",
    "prefectureNumber": 27,
    "prefecture": "大阪府",
    "city": "枚方市",
    "town": "招提大谷"
  },
  "5731154": {
    "zipcode": "5731154",
    "prefectureCode": "27",
    "prefectureNumber": 27,
    "prefecture": "大阪府",
    "city": "枚方市",
    "town": "招提東町"
  },
  "5731155": {
    "zipcode": "5731155",
    "prefectureCode": "27",
    "prefectureNumber": 27,
    "prefecture": "大阪府",
    "city": "枚方市",
    "town": "招提南町"
  },
  "5731156": {
    "zipcode": "5731156",
    "prefectureCode": "27",
    "prefectureNumber": 27,
    "prefecture": "大阪府",
    "city": "枚方市",
    "town": "片鉾東町"
  },
  "5731157": {
    "zipcode": "5731157",
    "prefectureCode": "27",
    "prefectureNumber": 27,
    "prefecture": "大阪府",
    "city": "枚方市",
    "town": "片鉾本町"
  },
  "5731158": {
    "zipcode": "5731158",
    "prefectureCode": "27",
    "prefectureNumber": 27,
    "prefecture": "大阪府",
    "city": "枚方市",
    "town": "北片鉾町"
  },
  "5731159": {
    "zipcode": "5731159",
    "prefectureCode": "27",
    "prefectureNumber": 27,
    "prefecture": "大阪府",
    "city": "枚方市",
    "town": "車塚"
  },
  "5731161": {
    "zipcode": "5731161",
    "prefectureCode": "27",
    "prefectureNumber": 27,
    "prefecture": "大阪府",
    "city": "枚方市",
    "town": "交北"
  },
  "5731162": {
    "zipcode": "5731162",
    "prefectureCode": "27",
    "prefectureNumber": 27,
    "prefecture": "大阪府",
    "city": "枚方市",
    "town": "田口"
  },
  "5731163": {
    "zipcode": "5731163",
    "prefectureCode": "27",
    "prefectureNumber": 27,
    "prefecture": "大阪府",
    "city": "枚方市",
    "town": "甲斐田新町"
  },
  "5731164": {
    "zipcode": "5731164",
    "prefectureCode": "27",
    "prefectureNumber": 27,
    "prefecture": "大阪府",
    "city": "枚方市",
    "town": "須山町"
  },
  "5731165": {
    "zipcode": "5731165",
    "prefectureCode": "27",
    "prefectureNumber": 27,
    "prefecture": "大阪府",
    "city": "枚方市",
    "town": "都丘町"
  },
  "5731166": {
    "zipcode": "5731166",
    "prefectureCode": "27",
    "prefectureNumber": 27,
    "prefecture": "大阪府",
    "city": "枚方市",
    "town": "新之栄町"
  },
  "5731167": {
    "zipcode": "5731167",
    "prefectureCode": "27",
    "prefectureNumber": 27,
    "prefecture": "大阪府",
    "city": "枚方市",
    "town": "甲斐田町"
  },
  "5731168": {
    "zipcode": "5731168",
    "prefectureCode": "27",
    "prefectureNumber": 27,
    "prefecture": "大阪府",
    "city": "枚方市",
    "town": "甲斐田東町"
  },
  "5731171": {
    "zipcode": "5731171",
    "prefectureCode": "27",
    "prefectureNumber": 27,
    "prefecture": "大阪府",
    "city": "枚方市",
    "town": "三栗"
  },
  "5731172": {
    "zipcode": "5731172",
    "prefectureCode": "27",
    "prefectureNumber": 27,
    "prefecture": "大阪府",
    "city": "枚方市",
    "town": "渚栄町"
  },
  "5731173": {
    "zipcode": "5731173",
    "prefectureCode": "27",
    "prefectureNumber": 27,
    "prefecture": "大阪府",
    "city": "枚方市",
    "town": "小倉町"
  },
  "5731174": {
    "zipcode": "5731174",
    "prefectureCode": "27",
    "prefectureNumber": 27,
    "prefecture": "大阪府",
    "city": "枚方市",
    "town": "小倉東町"
  },
  "5731175": {
    "zipcode": "5731175",
    "prefectureCode": "27",
    "prefectureNumber": 27,
    "prefecture": "大阪府",
    "city": "枚方市",
    "town": "上野"
  },
  "5731176": {
    "zipcode": "5731176",
    "prefectureCode": "27",
    "prefectureNumber": 27,
    "prefecture": "大阪府",
    "city": "枚方市",
    "town": "渚東町"
  },
  "5731177": {
    "zipcode": "5731177",
    "prefectureCode": "27",
    "prefectureNumber": 27,
    "prefecture": "大阪府",
    "city": "枚方市",
    "town": "渚元町"
  },
  "5731178": {
    "zipcode": "5731178",
    "prefectureCode": "27",
    "prefectureNumber": 27,
    "prefecture": "大阪府",
    "city": "枚方市",
    "town": "渚西"
  },
  "5731181": {
    "zipcode": "5731181",
    "prefectureCode": "27",
    "prefectureNumber": 27,
    "prefecture": "大阪府",
    "city": "枚方市",
    "town": "渚本町"
  },
  "5731182": {
    "zipcode": "5731182",
    "prefectureCode": "27",
    "prefectureNumber": 27,
    "prefecture": "大阪府",
    "city": "枚方市",
    "town": "御殿山町"
  },
  "5731183": {
    "zipcode": "5731183",
    "prefectureCode": "27",
    "prefectureNumber": 27,
    "prefecture": "大阪府",
    "city": "枚方市",
    "town": "渚南町"
  },
  "5731184": {
    "zipcode": "5731184",
    "prefectureCode": "27",
    "prefectureNumber": 27,
    "prefecture": "大阪府",
    "city": "枚方市",
    "town": "磯島茶屋町"
  },
  "5731185": {
    "zipcode": "5731185",
    "prefectureCode": "27",
    "prefectureNumber": 27,
    "prefecture": "大阪府",
    "city": "枚方市",
    "town": "天之川町"
  },
  "5731186": {
    "zipcode": "5731186",
    "prefectureCode": "27",
    "prefectureNumber": 27,
    "prefecture": "大阪府",
    "city": "枚方市",
    "town": "磯島南町"
  },
  "5731187": {
    "zipcode": "5731187",
    "prefectureCode": "27",
    "prefectureNumber": 27,
    "prefecture": "大阪府",
    "city": "枚方市",
    "town": "磯島元町"
  },
  "5731188": {
    "zipcode": "5731188",
    "prefectureCode": "27",
    "prefectureNumber": 27,
    "prefecture": "大阪府",
    "city": "枚方市",
    "town": "磯島北町"
  },
  "5731191": {
    "zipcode": "5731191",
    "prefectureCode": "27",
    "prefectureNumber": 27,
    "prefecture": "大阪府",
    "city": "枚方市",
    "town": "新町"
  },
  "5731192": {
    "zipcode": "5731192",
    "prefectureCode": "27",
    "prefectureNumber": 27,
    "prefecture": "大阪府",
    "city": "枚方市",
    "town": "西禁野"
  },
  "5731193": {
    "zipcode": "5731193",
    "prefectureCode": "27",
    "prefectureNumber": 27,
    "prefecture": "大阪府",
    "city": "枚方市",
    "town": "御殿山南町"
  },
  "5731194": {
    "zipcode": "5731194",
    "prefectureCode": "27",
    "prefectureNumber": 27,
    "prefecture": "大阪府",
    "city": "枚方市",
    "town": "中宮北町"
  },
  "5731195": {
    "zipcode": "5731195",
    "prefectureCode": "27",
    "prefectureNumber": 27,
    "prefecture": "大阪府",
    "city": "枚方市",
    "town": "中宮東之町"
  },
  "5731196": {
    "zipcode": "5731196",
    "prefectureCode": "27",
    "prefectureNumber": 27,
    "prefecture": "大阪府",
    "city": "枚方市",
    "town": "中宮本町"
  },
  "5731197": {
    "zipcode": "5731197",
    "prefectureCode": "27",
    "prefectureNumber": 27,
    "prefecture": "大阪府",
    "city": "枚方市",
    "town": "禁野本町"
  }
}
