{
  "5750000": {
    "zipcode": "5750000",
    "prefectureCode": "27",
    "prefectureNumber": 27,
    "prefecture": "大阪府",
    "city": "四條畷市",
    "town": "以下に掲載がない場合"
  },
  "5750001": {
    "zipcode": "5750001",
    "prefectureCode": "27",
    "prefectureNumber": 27,
    "prefecture": "大阪府",
    "city": "四條畷市",
    "town": "砂"
  },
  "5750002": {
    "zipcode": "5750002",
    "prefectureCode": "27",
    "prefectureNumber": 27,
    "prefecture": "大阪府",
    "city": "四條畷市",
    "town": "岡山（丁目）"
  },
  "5750003": {
    "zipcode": "5750003",
    "prefectureCode": "27",
    "prefectureNumber": 27,
    "prefecture": "大阪府",
    "city": "四條畷市",
    "town": "岡山東"
  },
  "5750004": {
    "zipcode": "5750004",
    "prefectureCode": "27",
    "prefectureNumber": 27,
    "prefecture": "大阪府",
    "city": "四條畷市",
    "town": "岡山（番地）"
  },
  "5750011": {
    "zipcode": "5750011",
    "prefectureCode": "27",
    "prefectureNumber": 27,
    "prefecture": "大阪府",
    "city": "四條畷市",
    "town": "逢阪"
  },
  "5750012": {
    "zipcode": "5750012",
    "prefectureCode": "27",
    "prefectureNumber": 27,
    "prefecture": "大阪府",
    "city": "四條畷市",
    "town": "下田原"
  },
  "5750013": {
    "zipcode": "5750013",
    "prefectureCode": "27",
    "prefectureNumber": 27,
    "prefecture": "大阪府",
    "city": "四條畷市",
    "town": "田原台"
  },
  "5750014": {
    "zipcode": "5750014",
    "prefectureCode": "27",
    "prefectureNumber": 27,
    "prefecture": "大阪府",
    "city": "四條畷市",
    "town": "上田原"
  },
  "5750015": {
    "zipcode": "5750015",
    "prefectureCode": "27",
    "prefectureNumber": 27,
    "prefecture": "大阪府",
    "city": "四條畷市",
    "town": "さつきケ丘"
  },
  "5750016": {
    "zipcode": "5750016",
    "prefectureCode": "27",
    "prefectureNumber": 27,
    "prefecture": "大阪府",
    "city": "四條畷市",
    "town": "緑風台"
  },
  "5750021": {
    "zipcode": "5750021",
    "prefectureCode": "27",
    "prefectureNumber": 27,
    "prefecture": "大阪府",
    "city": "四條畷市",
    "town": "南野（丁目）"
  },
  "5750022": {
    "zipcode": "5750022",
    "prefectureCode": "27",
    "prefectureNumber": 27,
    "prefecture": "大阪府",
    "city": "四條畷市",
    "town": "南野（番地）"
  },
  "5750023": {
    "zipcode": "5750023",
    "prefectureCode": "27",
    "prefectureNumber": 27,
    "prefecture": "大阪府",
    "city": "四條畷市",
    "town": "楠公"
  },
  "5750024": {
    "zipcode": "5750024",
    "prefectureCode": "27",
    "prefectureNumber": 27,
    "prefecture": "大阪府",
    "city": "四條畷市",
    "town": "塚脇町"
  },
  "5750032": {
    "zipcode": "5750032",
    "prefectureCode": "27",
    "prefectureNumber": 27,
    "prefecture": "大阪府",
    "city": "四條畷市",
    "town": "米崎町"
  },
  "5750033": {
    "zipcode": "5750033",
    "prefectureCode": "27",
    "prefectureNumber": 27,
    "prefecture": "大阪府",
    "city": "四條畷市",
    "town": "美田町"
  },
  "5750034": {
    "zipcode": "5750034",
    "prefectureCode": "27",
    "prefectureNumber": 27,
    "prefecture": "大阪府",
    "city": "四條畷市",
    "town": "江瀬美町"
  },
  "5750035": {
    "zipcode": "5750035",
    "prefectureCode": "27",
    "prefectureNumber": 27,
    "prefecture": "大阪府",
    "city": "四條畷市",
    "town": "雁屋北町"
  },
  "5750036": {
    "zipcode": "5750036",
    "prefectureCode": "27",
    "prefectureNumber": 27,
    "prefecture": "大阪府",
    "city": "四條畷市",
    "town": "雁屋南町"
  },
  "5750041": {
    "zipcode": "5750041",
    "prefectureCode": "27",
    "prefectureNumber": 27,
    "prefecture": "大阪府",
    "city": "四條畷市",
    "town": "蔀屋新町"
  },
  "5750042": {
    "zipcode": "5750042",
    "prefectureCode": "27",
    "prefectureNumber": 27,
    "prefecture": "大阪府",
    "city": "四條畷市",
    "town": "蔀屋本町"
  },
  "5750043": {
    "zipcode": "5750043",
    "prefectureCode": "27",
    "prefectureNumber": 27,
    "prefecture": "大阪府",
    "city": "四條畷市",
    "town": "北出町"
  },
  "5750044": {
    "zipcode": "5750044",
    "prefectureCode": "27",
    "prefectureNumber": 27,
    "prefecture": "大阪府",
    "city": "四條畷市",
    "town": "二丁通町"
  },
  "5750045": {
    "zipcode": "5750045",
    "prefectureCode": "27",
    "prefectureNumber": 27,
    "prefecture": "大阪府",
    "city": "四條畷市",
    "town": "雁屋西町"
  },
  "5750051": {
    "zipcode": "5750051",
    "prefectureCode": "27",
    "prefectureNumber": 27,
    "prefecture": "大阪府",
    "city": "四條畷市",
    "town": "中野本町"
  },
  "5750052": {
    "zipcode": "5750052",
    "prefectureCode": "27",
    "prefectureNumber": 27,
    "prefecture": "大阪府",
    "city": "四條畷市",
    "town": "中野（丁目）"
  },
  "5750053": {
    "zipcode": "5750053",
    "prefectureCode": "27",
    "prefectureNumber": 27,
    "prefecture": "大阪府",
    "city": "四條畷市",
    "town": "中野（番地）"
  },
  "5750054": {
    "zipcode": "5750054",
    "prefectureCode": "27",
    "prefectureNumber": 27,
    "prefecture": "大阪府",
    "city": "四條畷市",
    "town": "中野新町"
  },
  "5750055": {
    "zipcode": "5750055",
    "prefectureCode": "27",
    "prefectureNumber": 27,
    "prefecture": "大阪府",
    "city": "四條畷市",
    "town": "西中野"
  },
  "5750061": {
    "zipcode": "5750061",
    "prefectureCode": "27",
    "prefectureNumber": 27,
    "prefecture": "大阪府",
    "city": "四條畷市",
    "town": "清滝中町"
  },
  "5750062": {
    "zipcode": "5750062",
    "prefectureCode": "27",
    "prefectureNumber": 27,
    "prefecture": "大阪府",
    "city": "四條畷市",
    "town": "清滝新町"
  },
  "5750063": {
    "zipcode": "5750063",
    "prefectureCode": "27",
    "prefectureNumber": 27,
    "prefecture": "大阪府",
    "city": "四條畷市",
    "town": "清瀧"
  }
}
