{
  "5780901": {
    "zipcode": "5780901",
    "prefectureCode": "27",
    "prefectureNumber": 27,
    "prefecture": "大阪府",
    "city": "東大阪市",
    "town": "加納"
  },
  "5780902": {
    "zipcode": "5780902",
    "prefectureCode": "27",
    "prefectureNumber": 27,
    "prefecture": "大阪府",
    "city": "東大阪市",
    "town": "川中"
  },
  "5780903": {
    "zipcode": "5780903",
    "prefectureCode": "27",
    "prefectureNumber": 27,
    "prefecture": "大阪府",
    "city": "東大阪市",
    "town": "今米"
  },
  "5780904": {
    "zipcode": "5780904",
    "prefectureCode": "27",
    "prefectureNumber": 27,
    "prefecture": "大阪府",
    "city": "東大阪市",
    "town": "吉原"
  },
  "5780905": {
    "zipcode": "5780905",
    "prefectureCode": "27",
    "prefectureNumber": 27,
    "prefecture": "大阪府",
    "city": "東大阪市",
    "town": "川田"
  },
  "5780911": {
    "zipcode": "5780911",
    "prefectureCode": "27",
    "prefectureNumber": 27,
    "prefecture": "大阪府",
    "city": "東大阪市",
    "town": "中新開"
  },
  "5780912": {
    "zipcode": "5780912",
    "prefectureCode": "27",
    "prefectureNumber": 27,
    "prefecture": "大阪府",
    "city": "東大阪市",
    "town": "角田"
  },
  "5780913": {
    "zipcode": "5780913",
    "prefectureCode": "27",
    "prefectureNumber": 27,
    "prefecture": "大阪府",
    "city": "東大阪市",
    "town": "中野"
  },
  "5780914": {
    "zipcode": "5780914",
    "prefectureCode": "27",
    "prefectureNumber": 27,
    "prefecture": "大阪府",
    "city": "東大阪市",
    "town": "箕輪"
  },
  "5780915": {
    "zipcode": "5780915",
    "prefectureCode": "27",
    "prefectureNumber": 27,
    "prefecture": "大阪府",
    "city": "東大阪市",
    "town": "古箕輪"
  },
  "5780921": {
    "zipcode": "5780921",
    "prefectureCode": "27",
    "prefectureNumber": 27,
    "prefecture": "大阪府",
    "city": "東大阪市",
    "town": "水走"
  },
  "5780922": {
    "zipcode": "5780922",
    "prefectureCode": "27",
    "prefectureNumber": 27,
    "prefecture": "大阪府",
    "city": "東大阪市",
    "town": "松原"
  },
  "5780923": {
    "zipcode": "5780923",
    "prefectureCode": "27",
    "prefectureNumber": 27,
    "prefecture": "大阪府",
    "city": "東大阪市",
    "town": "松原南"
  },
  "5780924": {
    "zipcode": "5780924",
    "prefectureCode": "27",
    "prefectureNumber": 27,
    "prefecture": "大阪府",
    "city": "東大阪市",
    "town": "吉田"
  },
  "5780925": {
    "zipcode": "5780925",
    "prefectureCode": "27",
    "prefectureNumber": 27,
    "prefecture": "大阪府",
    "city": "東大阪市",
    "town": "稲葉"
  },
  "5780931": {
    "zipcode": "5780931",
    "prefectureCode": "27",
    "prefectureNumber": 27,
    "prefecture": "大阪府",
    "city": "東大阪市",
    "town": "花園東町"
  },
  "5780932": {
    "zipcode": "5780932",
    "prefectureCode": "27",
    "prefectureNumber": 27,
    "prefecture": "大阪府",
    "city": "東大阪市",
    "town": "玉串町東"
  },
  "5780933": {
    "zipcode": "5780933",
    "prefectureCode": "27",
    "prefectureNumber": 27,
    "prefecture": "大阪府",
    "city": "東大阪市",
    "town": "玉串元町"
  },
  "5780934": {
    "zipcode": "5780934",
    "prefectureCode": "27",
    "prefectureNumber": 27,
    "prefecture": "大阪府",
    "city": "東大阪市",
    "town": "玉串町西"
  },
  "5780935": {
    "zipcode": "5780935",
    "prefectureCode": "27",
    "prefectureNumber": 27,
    "prefecture": "大阪府",
    "city": "東大阪市",
    "town": "若江東町"
  },
  "5780936": {
    "zipcode": "5780936",
    "prefectureCode": "27",
    "prefectureNumber": 27,
    "prefecture": "大阪府",
    "city": "東大阪市",
    "town": "花園西町"
  },
  "5780937": {
    "zipcode": "5780937",
    "prefectureCode": "27",
    "prefectureNumber": 27,
    "prefecture": "大阪府",
    "city": "東大阪市",
    "town": "花園本町"
  },
  "5780941": {
    "zipcode": "5780941",
    "prefectureCode": "27",
    "prefectureNumber": 27,
    "prefecture": "大阪府",
    "city": "東大阪市",
    "town": "岩田町"
  },
  "5780942": {
    "zipcode": "5780942",
    "prefectureCode": "27",
    "prefectureNumber": 27,
    "prefecture": "大阪府",
    "city": "東大阪市",
    "town": "若江本町"
  },
  "5780943": {
    "zipcode": "5780943",
    "prefectureCode": "27",
    "prefectureNumber": 27,
    "prefecture": "大阪府",
    "city": "東大阪市",
    "town": "若江南町"
  },
  "5780944": {
    "zipcode": "5780944",
    "prefectureCode": "27",
    "prefectureNumber": 27,
    "prefecture": "大阪府",
    "city": "東大阪市",
    "town": "若江西新町"
  },
  "5780945": {
    "zipcode": "5780945",
    "prefectureCode": "27",
    "prefectureNumber": 27,
    "prefecture": "大阪府",
    "city": "東大阪市",
    "town": "若江北町"
  },
  "5780946": {
    "zipcode": "5780946",
    "prefectureCode": "27",
    "prefectureNumber": 27,
    "prefecture": "大阪府",
    "city": "東大阪市",
    "town": "瓜生堂"
  },
  "5780947": {
    "zipcode": "5780947",
    "prefectureCode": "27",
    "prefectureNumber": 27,
    "prefecture": "大阪府",
    "city": "東大阪市",
    "town": "西岩田"
  },
  "5780948": {
    "zipcode": "5780948",
    "prefectureCode": "27",
    "prefectureNumber": 27,
    "prefecture": "大阪府",
    "city": "東大阪市",
    "town": "菱屋東"
  },
  "5780951": {
    "zipcode": "5780951",
    "prefectureCode": "27",
    "prefectureNumber": 27,
    "prefecture": "大阪府",
    "city": "東大阪市",
    "town": "新庄東"
  },
  "5780952": {
    "zipcode": "5780952",
    "prefectureCode": "27",
    "prefectureNumber": 27,
    "prefecture": "大阪府",
    "city": "東大阪市",
    "town": "本庄東"
  },
  "5780953": {
    "zipcode": "5780953",
    "prefectureCode": "27",
    "prefectureNumber": 27,
    "prefecture": "大阪府",
    "city": "東大阪市",
    "town": "本庄"
  },
  "5780954": {
    "zipcode": "5780954",
    "prefectureCode": "27",
    "prefectureNumber": 27,
    "prefecture": "大阪府",
    "city": "東大阪市",
    "town": "横枕"
  },
  "5780955": {
    "zipcode": "5780955",
    "prefectureCode": "27",
    "prefectureNumber": 27,
    "prefecture": "大阪府",
    "city": "東大阪市",
    "town": "横枕南"
  },
  "5780956": {
    "zipcode": "5780956",
    "prefectureCode": "27",
    "prefectureNumber": 27,
    "prefecture": "大阪府",
    "city": "東大阪市",
    "town": "横枕西"
  },
  "5780957": {
    "zipcode": "5780957",
    "prefectureCode": "27",
    "prefectureNumber": 27,
    "prefecture": "大阪府",
    "city": "東大阪市",
    "town": "本庄中"
  },
  "5780958": {
    "zipcode": "5780958",
    "prefectureCode": "27",
    "prefectureNumber": 27,
    "prefecture": "大阪府",
    "city": "東大阪市",
    "town": "新庄南"
  },
  "5780961": {
    "zipcode": "5780961",
    "prefectureCode": "27",
    "prefectureNumber": 27,
    "prefecture": "大阪府",
    "city": "東大阪市",
    "town": "南鴻池町"
  },
  "5780963": {
    "zipcode": "5780963",
    "prefectureCode": "27",
    "prefectureNumber": 27,
    "prefecture": "大阪府",
    "city": "東大阪市",
    "town": "新庄"
  },
  "5780964": {
    "zipcode": "5780964",
    "prefectureCode": "27",
    "prefectureNumber": 27,
    "prefecture": "大阪府",
    "city": "東大阪市",
    "town": "新庄西"
  },
  "5780965": {
    "zipcode": "5780965",
    "prefectureCode": "27",
    "prefectureNumber": 27,
    "prefecture": "大阪府",
    "city": "東大阪市",
    "town": "本庄西"
  },
  "5780966": {
    "zipcode": "5780966",
    "prefectureCode": "27",
    "prefectureNumber": 27,
    "prefecture": "大阪府",
    "city": "東大阪市",
    "town": "三島"
  },
  "5780967": {
    "zipcode": "5780967",
    "prefectureCode": "27",
    "prefectureNumber": 27,
    "prefecture": "大阪府",
    "city": "東大阪市",
    "town": "新鴻池町"
  },
  "5780971": {
    "zipcode": "5780971",
    "prefectureCode": "27",
    "prefectureNumber": 27,
    "prefecture": "大阪府",
    "city": "東大阪市",
    "town": "鴻池本町"
  },
  "5780972": {
    "zipcode": "5780972",
    "prefectureCode": "27",
    "prefectureNumber": 27,
    "prefecture": "大阪府",
    "city": "東大阪市",
    "town": "鴻池町"
  },
  "5780973": {
    "zipcode": "5780973",
    "prefectureCode": "27",
    "prefectureNumber": 27,
    "prefecture": "大阪府",
    "city": "東大阪市",
    "town": "東鴻池町"
  },
  "5780974": {
    "zipcode": "5780974",
    "prefectureCode": "27",
    "prefectureNumber": 27,
    "prefecture": "大阪府",
    "city": "東大阪市",
    "town": "鴻池元町"
  },
  "5780975": {
    "zipcode": "5780975",
    "prefectureCode": "27",
    "prefectureNumber": 27,
    "prefecture": "大阪府",
    "city": "東大阪市",
    "town": "中鴻池町"
  },
  "5780976": {
    "zipcode": "5780976",
    "prefectureCode": "27",
    "prefectureNumber": 27,
    "prefecture": "大阪府",
    "city": "東大阪市",
    "town": "西鴻池町"
  },
  "5780977": {
    "zipcode": "5780977",
    "prefectureCode": "27",
    "prefectureNumber": 27,
    "prefecture": "大阪府",
    "city": "東大阪市",
    "town": "鴻池徳庵町"
  },
  "5780978": {
    "zipcode": "5780978",
    "prefectureCode": "27",
    "prefectureNumber": 27,
    "prefecture": "大阪府",
    "city": "東大阪市",
    "town": "北鴻池町"
  },
  "5780981": {
    "zipcode": "5780981",
    "prefectureCode": "27",
    "prefectureNumber": 27,
    "prefecture": "大阪府",
    "city": "東大阪市",
    "town": "島之内"
  },
  "5780982": {
    "zipcode": "5780982",
    "prefectureCode": "27",
    "prefectureNumber": 27,
    "prefecture": "大阪府",
    "city": "東大阪市",
    "town": "吉田本町"
  },
  "5780983": {
    "zipcode": "5780983",
    "prefectureCode": "27",
    "prefectureNumber": 27,
    "prefecture": "大阪府",
    "city": "東大阪市",
    "town": "吉田下島"
  },
  "5780984": {
    "zipcode": "5780984",
    "prefectureCode": "27",
    "prefectureNumber": 27,
    "prefecture": "大阪府",
    "city": "東大阪市",
    "town": "菱江"
  },
  "5780985": {
    "zipcode": "5780985",
    "prefectureCode": "27",
    "prefectureNumber": 27,
    "prefecture": "大阪府",
    "city": "東大阪市",
    "town": "中野南"
  }
}
