{
  "5798001": {
    "zipcode": "5798001",
    "prefectureCode": "27",
    "prefectureNumber": 27,
    "prefecture": "大阪府",
    "city": "東大阪市",
    "town": "善根寺町"
  },
  "5798002": {
    "zipcode": "5798002",
    "prefectureCode": "27",
    "prefectureNumber": 27,
    "prefecture": "大阪府",
    "city": "東大阪市",
    "town": "池之端町"
  },
  "5798003": {
    "zipcode": "5798003",
    "prefectureCode": "27",
    "prefectureNumber": 27,
    "prefecture": "大阪府",
    "city": "東大阪市",
    "town": "日下町"
  },
  "5798004": {
    "zipcode": "5798004",
    "prefectureCode": "27",
    "prefectureNumber": 27,
    "prefecture": "大阪府",
    "city": "東大阪市",
    "town": "布市町"
  },
  "5798005": {
    "zipcode": "5798005",
    "prefectureCode": "27",
    "prefectureNumber": 27,
    "prefecture": "大阪府",
    "city": "東大阪市",
    "town": "元町"
  },
  "5798011": {
    "zipcode": "5798011",
    "prefectureCode": "27",
    "prefectureNumber": 27,
    "prefecture": "大阪府",
    "city": "東大阪市",
    "town": "東石切町"
  },
  "5798012": {
    "zipcode": "5798012",
    "prefectureCode": "27",
    "prefectureNumber": 27,
    "prefecture": "大阪府",
    "city": "東大阪市",
    "town": "上石切町（その他）"
  },
  "5798013": {
    "zipcode": "5798013",
    "prefectureCode": "27",
    "prefectureNumber": 27,
    "prefecture": "大阪府",
    "city": "東大阪市",
    "town": "西石切町"
  },
  "5798014": {
    "zipcode": "5798014",
    "prefectureCode": "27",
    "prefectureNumber": 27,
    "prefecture": "大阪府",
    "city": "東大阪市",
    "town": "中石切町"
  },
  "5798015": {
    "zipcode": "5798015",
    "prefectureCode": "27",
    "prefectureNumber": 27,
    "prefecture": "大阪府",
    "city": "東大阪市",
    "town": "北石切町"
  },
  "5798021": {
    "zipcode": "5798021",
    "prefectureCode": "27",
    "prefectureNumber": 27,
    "prefecture": "大阪府",
    "city": "東大阪市",
    "town": "額田町"
  },
  "5798022": {
    "zipcode": "5798022",
    "prefectureCode": "27",
    "prefectureNumber": 27,
    "prefecture": "大阪府",
    "city": "東大阪市",
    "town": "山手町"
  },
  "5798023": {
    "zipcode": "5798023",
    "prefectureCode": "27",
    "prefectureNumber": 27,
    "prefecture": "大阪府",
    "city": "東大阪市",
    "town": "立花町"
  },
  "5798024": {
    "zipcode": "5798024",
    "prefectureCode": "27",
    "prefectureNumber": 27,
    "prefecture": "大阪府",
    "city": "東大阪市",
    "town": "南荘町"
  },
  "5798025": {
    "zipcode": "5798025",
    "prefectureCode": "27",
    "prefectureNumber": 27,
    "prefecture": "大阪府",
    "city": "東大阪市",
    "town": "宝町"
  },
  "5798026": {
    "zipcode": "5798026",
    "prefectureCode": "27",
    "prefectureNumber": 27,
    "prefecture": "大阪府",
    "city": "東大阪市",
    "town": "弥生町"
  },
  "5798027": {
    "zipcode": "5798027",
    "prefectureCode": "27",
    "prefectureNumber": 27,
    "prefecture": "大阪府",
    "city": "東大阪市",
    "town": "東山町"
  },
  "5798031": {
    "zipcode": "5798031",
    "prefectureCode": "27",
    "prefectureNumber": 27,
    "prefecture": "大阪府",
    "city": "東大阪市",
    "town": "豊浦町"
  },
  "5798032": {
    "zipcode": "5798032",
    "prefectureCode": "27",
    "prefectureNumber": 27,
    "prefecture": "大阪府",
    "city": "東大阪市",
    "town": "東豊浦町"
  },
  "5798033": {
    "zipcode": "5798033",
    "prefectureCode": "27",
    "prefectureNumber": 27,
    "prefecture": "大阪府",
    "city": "東大阪市",
    "town": "出雲井町"
  },
  "5798034": {
    "zipcode": "5798034",
    "prefectureCode": "27",
    "prefectureNumber": 27,
    "prefecture": "大阪府",
    "city": "東大阪市",
    "town": "出雲井本町"
  },
  "5798035": {
    "zipcode": "5798035",
    "prefectureCode": "27",
    "prefectureNumber": 27,
    "prefecture": "大阪府",
    "city": "東大阪市",
    "town": "鳥居町"
  },
  "5798036": {
    "zipcode": "5798036",
    "prefectureCode": "27",
    "prefectureNumber": 27,
    "prefecture": "大阪府",
    "city": "東大阪市",
    "town": "鷹殿町"
  },
  "5798037": {
    "zipcode": "5798037",
    "prefectureCode": "27",
    "prefectureNumber": 27,
    "prefecture": "大阪府",
    "city": "東大阪市",
    "town": "新町"
  },
  "5798038": {
    "zipcode": "5798038",
    "prefectureCode": "27",
    "prefectureNumber": 27,
    "prefecture": "大阪府",
    "city": "東大阪市",
    "town": "箱殿町"
  },
  "5798041": {
    "zipcode": "5798041",
    "prefectureCode": "27",
    "prefectureNumber": 27,
    "prefecture": "大阪府",
    "city": "東大阪市",
    "town": "喜里川町"
  },
  "5798042": {
    "zipcode": "5798042",
    "prefectureCode": "27",
    "prefectureNumber": 27,
    "prefecture": "大阪府",
    "city": "東大阪市",
    "town": "五条町"
  },
  "5798043": {
    "zipcode": "5798043",
    "prefectureCode": "27",
    "prefectureNumber": 27,
    "prefecture": "大阪府",
    "city": "東大阪市",
    "town": "客坊町"
  },
  "5798044": {
    "zipcode": "5798044",
    "prefectureCode": "27",
    "prefectureNumber": 27,
    "prefecture": "大阪府",
    "city": "東大阪市",
    "town": "河内町"
  },
  "5798045": {
    "zipcode": "5798045",
    "prefectureCode": "27",
    "prefectureNumber": 27,
    "prefecture": "大阪府",
    "city": "東大阪市",
    "town": "本町"
  },
  "5798046": {
    "zipcode": "5798046",
    "prefectureCode": "27",
    "prefectureNumber": 27,
    "prefecture": "大阪府",
    "city": "東大阪市",
    "town": "昭和町"
  },
  "5798047": {
    "zipcode": "5798047",
    "prefectureCode": "27",
    "prefectureNumber": 27,
    "prefecture": "大阪府",
    "city": "東大阪市",
    "town": "桜町"
  },
  "5798048": {
    "zipcode": "5798048",
    "prefectureCode": "27",
    "prefectureNumber": 27,
    "prefecture": "大阪府",
    "city": "東大阪市",
    "town": "旭町"
  },
  "5798051": {
    "zipcode": "5798051",
    "prefectureCode": "27",
    "prefectureNumber": 27,
    "prefecture": "大阪府",
    "city": "東大阪市",
    "town": "瓢箪山町"
  },
  "5798052": {
    "zipcode": "5798052",
    "prefectureCode": "27",
    "prefectureNumber": 27,
    "prefecture": "大阪府",
    "city": "東大阪市",
    "town": "上四条町"
  },
  "5798053": {
    "zipcode": "5798053",
    "prefectureCode": "27",
    "prefectureNumber": 27,
    "prefecture": "大阪府",
    "city": "東大阪市",
    "town": "四条町"
  },
  "5798054": {
    "zipcode": "5798054",
    "prefectureCode": "27",
    "prefectureNumber": 27,
    "prefecture": "大阪府",
    "city": "東大阪市",
    "town": "南四条町"
  },
  "5798055": {
    "zipcode": "5798055",
    "prefectureCode": "27",
    "prefectureNumber": 27,
    "prefecture": "大阪府",
    "city": "東大阪市",
    "town": "末広町"
  },
  "5798056": {
    "zipcode": "5798056",
    "prefectureCode": "27",
    "prefectureNumber": 27,
    "prefecture": "大阪府",
    "city": "東大阪市",
    "town": "若草町"
  },
  "5798057": {
    "zipcode": "5798057",
    "prefectureCode": "27",
    "prefectureNumber": 27,
    "prefecture": "大阪府",
    "city": "東大阪市",
    "town": "御幸町"
  },
  "5798058": {
    "zipcode": "5798058",
    "prefectureCode": "27",
    "prefectureNumber": 27,
    "prefecture": "大阪府",
    "city": "東大阪市",
    "town": "神田町"
  },
  "5798061": {
    "zipcode": "5798061",
    "prefectureCode": "27",
    "prefectureNumber": 27,
    "prefecture": "大阪府",
    "city": "東大阪市",
    "town": "六万寺町"
  },
  "5798062": {
    "zipcode": "5798062",
    "prefectureCode": "27",
    "prefectureNumber": 27,
    "prefecture": "大阪府",
    "city": "東大阪市",
    "town": "上六万寺町"
  },
  "5798063": {
    "zipcode": "5798063",
    "prefectureCode": "27",
    "prefectureNumber": 27,
    "prefecture": "大阪府",
    "city": "東大阪市",
    "town": "横小路町"
  },
  "5798064": {
    "zipcode": "5798064",
    "prefectureCode": "27",
    "prefectureNumber": 27,
    "prefecture": "大阪府",
    "city": "東大阪市",
    "town": "池島町"
  },
  "5798065": {
    "zipcode": "5798065",
    "prefectureCode": "27",
    "prefectureNumber": 27,
    "prefecture": "大阪府",
    "city": "東大阪市",
    "town": "新池島町"
  },
  "5798066": {
    "zipcode": "5798066",
    "prefectureCode": "27",
    "prefectureNumber": 27,
    "prefecture": "大阪府",
    "city": "東大阪市",
    "town": "下六万寺町"
  }
}
