{
  "5800000": {
    "zipcode": "5800000",
    "prefectureCode": "27",
    "prefectureNumber": 27,
    "prefecture": "大阪府",
    "city": "松原市",
    "town": "以下に掲載がない場合"
  },
  "5800001": {
    "zipcode": "5800001",
    "prefectureCode": "27",
    "prefectureNumber": 27,
    "prefecture": "大阪府",
    "city": "松原市",
    "town": "若林"
  },
  "5800002": {
    "zipcode": "5800002",
    "prefectureCode": "27",
    "prefectureNumber": 27,
    "prefecture": "大阪府",
    "city": "松原市",
    "town": "小川"
  },
  "5800003": {
    "zipcode": "5800003",
    "prefectureCode": "27",
    "prefectureNumber": 27,
    "prefecture": "大阪府",
    "city": "松原市",
    "town": "一津屋"
  },
  "5800004": {
    "zipcode": "5800004",
    "prefectureCode": "27",
    "prefectureNumber": 27,
    "prefecture": "大阪府",
    "city": "松原市",
    "town": "西野々"
  },
  "5800005": {
    "zipcode": "5800005",
    "prefectureCode": "27",
    "prefectureNumber": 27,
    "prefecture": "大阪府",
    "city": "松原市",
    "town": "別所"
  },
  "5800006": {
    "zipcode": "5800006",
    "prefectureCode": "27",
    "prefectureNumber": 27,
    "prefecture": "大阪府",
    "city": "松原市",
    "town": "大堀"
  },
  "5800011": {
    "zipcode": "5800011",
    "prefectureCode": "27",
    "prefectureNumber": 27,
    "prefecture": "大阪府",
    "city": "松原市",
    "town": "西大塚"
  },
  "5800012": {
    "zipcode": "5800012",
    "prefectureCode": "27",
    "prefectureNumber": 27,
    "prefecture": "大阪府",
    "city": "松原市",
    "town": "立部"
  },
  "5800013": {
    "zipcode": "5800013",
    "prefectureCode": "27",
    "prefectureNumber": 27,
    "prefecture": "大阪府",
    "city": "松原市",
    "town": "丹南"
  },
  "5800014": {
    "zipcode": "5800014",
    "prefectureCode": "27",
    "prefectureNumber": 27,
    "prefecture": "大阪府",
    "city": "松原市",
    "town": "岡"
  },
  "5800015": {
    "zipcode": "5800015",
    "prefectureCode": "27",
    "prefectureNumber": 27,
    "prefecture": "大阪府",
    "city": "松原市",
    "town": "新堂"
  },
  "5800016": {
    "zipcode": "5800016",
    "prefectureCode": "27",
    "prefectureNumber": 27,
    "prefecture": "大阪府",
    "city": "松原市",
    "town": "上田"
  },
  "5800017": {
    "zipcode": "5800017",
    "prefectureCode": "27",
    "prefectureNumber": 27,
    "prefecture": "大阪府",
    "city": "松原市",
    "town": "柴垣"
  },
  "5800021": {
    "zipcode": "5800021",
    "prefectureCode": "27",
    "prefectureNumber": 27,
    "prefecture": "大阪府",
    "city": "松原市",
    "town": "高見の里"
  },
  "5800022": {
    "zipcode": "5800022",
    "prefectureCode": "27",
    "prefectureNumber": 27,
    "prefecture": "大阪府",
    "city": "松原市",
    "town": "河合"
  },
  "5800023": {
    "zipcode": "5800023",
    "prefectureCode": "27",
    "prefectureNumber": 27,
    "prefecture": "大阪府",
    "city": "松原市",
    "town": "南新町"
  },
  "5800024": {
    "zipcode": "5800024",
    "prefectureCode": "27",
    "prefectureNumber": 27,
    "prefecture": "大阪府",
    "city": "松原市",
    "town": "東新町"
  },
  "5800025": {
    "zipcode": "5800025",
    "prefectureCode": "27",
    "prefectureNumber": 27,
    "prefecture": "大阪府",
    "city": "松原市",
    "town": "北新町"
  },
  "5800026": {
    "zipcode": "5800026",
    "prefectureCode": "27",
    "prefectureNumber": 27,
    "prefecture": "大阪府",
    "city": "松原市",
    "town": "天美我堂"
  },
  "5800031": {
    "zipcode": "5800031",
    "prefectureCode": "27",
    "prefectureNumber": 27,
    "prefecture": "大阪府",
    "city": "松原市",
    "town": "天美北"
  },
  "5800032": {
    "zipcode": "5800032",
    "prefectureCode": "27",
    "prefectureNumber": 27,
    "prefecture": "大阪府",
    "city": "松原市",
    "town": "天美東"
  },
  "5800033": {
    "zipcode": "5800033",
    "prefectureCode": "27",
    "prefectureNumber": 27,
    "prefecture": "大阪府",
    "city": "松原市",
    "town": "天美南"
  },
  "5800034": {
    "zipcode": "5800034",
    "prefectureCode": "27",
    "prefectureNumber": 27,
    "prefecture": "大阪府",
    "city": "松原市",
    "town": "天美西"
  },
  "5800041": {
    "zipcode": "5800041",
    "prefectureCode": "27",
    "prefectureNumber": 27,
    "prefecture": "大阪府",
    "city": "松原市",
    "town": "三宅東"
  },
  "5800042": {
    "zipcode": "5800042",
    "prefectureCode": "27",
    "prefectureNumber": 27,
    "prefecture": "大阪府",
    "city": "松原市",
    "town": "松ケ丘"
  },
  "5800043": {
    "zipcode": "5800043",
    "prefectureCode": "27",
    "prefectureNumber": 27,
    "prefecture": "大阪府",
    "city": "松原市",
    "town": "阿保"
  },
  "5800044": {
    "zipcode": "5800044",
    "prefectureCode": "27",
    "prefectureNumber": 27,
    "prefecture": "大阪府",
    "city": "松原市",
    "town": "田井城"
  },
  "5800045": {
    "zipcode": "5800045",
    "prefectureCode": "27",
    "prefectureNumber": 27,
    "prefecture": "大阪府",
    "city": "松原市",
    "town": "三宅西"
  },
  "5800046": {
    "zipcode": "5800046",
    "prefectureCode": "27",
    "prefectureNumber": 27,
    "prefecture": "大阪府",
    "city": "松原市",
    "town": "三宅中"
  }
}
