{
  "5810000": {
    "zipcode": "5810000",
    "prefectureCode": "27",
    "prefectureNumber": 27,
    "prefecture": "大阪府",
    "city": "八尾市",
    "town": "以下に掲載がない場合"
  },
  "5810001": {
    "zipcode": "5810001",
    "prefectureCode": "27",
    "prefectureNumber": 27,
    "prefecture": "大阪府",
    "city": "八尾市",
    "town": "末広町"
  },
  "5810002": {
    "zipcode": "5810002",
    "prefectureCode": "27",
    "prefectureNumber": 27,
    "prefecture": "大阪府",
    "city": "八尾市",
    "town": "東久宝寺"
  },
  "5810003": {
    "zipcode": "5810003",
    "prefectureCode": "27",
    "prefectureNumber": 27,
    "prefecture": "大阪府",
    "city": "八尾市",
    "town": "本町"
  },
  "5810004": {
    "zipcode": "5810004",
    "prefectureCode": "27",
    "prefectureNumber": 27,
    "prefecture": "大阪府",
    "city": "八尾市",
    "town": "東本町"
  },
  "5810005": {
    "zipcode": "5810005",
    "prefectureCode": "27",
    "prefectureNumber": 27,
    "prefecture": "大阪府",
    "city": "八尾市",
    "town": "荘内町"
  },
  "5810006": {
    "zipcode": "5810006",
    "prefectureCode": "27",
    "prefectureNumber": 27,
    "prefecture": "大阪府",
    "city": "八尾市",
    "town": "清水町"
  },
  "5810007": {
    "zipcode": "5810007",
    "prefectureCode": "27",
    "prefectureNumber": 27,
    "prefecture": "大阪府",
    "city": "八尾市",
    "town": "光南町"
  },
  "5810010": {
    "zipcode": "5810010",
    "prefectureCode": "27",
    "prefectureNumber": 27,
    "prefecture": "大阪府",
    "city": "八尾市",
    "town": "都塚北"
  },
  "5810011": {
    "zipcode": "5810011",
    "prefectureCode": "27",
    "prefectureNumber": 27,
    "prefecture": "大阪府",
    "city": "八尾市",
    "town": "若草町"
  },
  "5810012": {
    "zipcode": "5810012",
    "prefectureCode": "27",
    "prefectureNumber": 27,
    "prefecture": "大阪府",
    "city": "八尾市",
    "town": "小阪合町"
  },
  "5810013": {
    "zipcode": "5810013",
    "prefectureCode": "27",
    "prefectureNumber": 27,
    "prefecture": "大阪府",
    "city": "八尾市",
    "town": "山本町南"
  },
  "5810014": {
    "zipcode": "5810014",
    "prefectureCode": "27",
    "prefectureNumber": 27,
    "prefecture": "大阪府",
    "city": "八尾市",
    "town": "中田"
  },
  "5810015": {
    "zipcode": "5810015",
    "prefectureCode": "27",
    "prefectureNumber": 27,
    "prefecture": "大阪府",
    "city": "八尾市",
    "town": "刑部"
  },
  "5810016": {
    "zipcode": "5810016",
    "prefectureCode": "27",
    "prefectureNumber": 27,
    "prefecture": "大阪府",
    "city": "八尾市",
    "town": "八尾木北"
  },
  "5810017": {
    "zipcode": "5810017",
    "prefectureCode": "27",
    "prefectureNumber": 27,
    "prefecture": "大阪府",
    "city": "八尾市",
    "town": "高美町"
  },
  "5810018": {
    "zipcode": "5810018",
    "prefectureCode": "27",
    "prefectureNumber": 27,
    "prefecture": "大阪府",
    "city": "八尾市",
    "town": "青山町"
  },
  "5810019": {
    "zipcode": "5810019",
    "prefectureCode": "27",
    "prefectureNumber": 27,
    "prefecture": "大阪府",
    "city": "八尾市",
    "town": "南小阪合町"
  },
  "5810020": {
    "zipcode": "5810020",
    "prefectureCode": "27",
    "prefectureNumber": 27,
    "prefecture": "大阪府",
    "city": "八尾市",
    "town": "曙川東"
  },
  "5810021": {
    "zipcode": "5810021",
    "prefectureCode": "27",
    "prefectureNumber": 27,
    "prefecture": "大阪府",
    "city": "八尾市",
    "town": "山本高安町"
  },
  "5810022": {
    "zipcode": "5810022",
    "prefectureCode": "27",
    "prefectureNumber": 27,
    "prefecture": "大阪府",
    "city": "八尾市",
    "town": "柏村町"
  },
  "5810023": {
    "zipcode": "5810023",
    "prefectureCode": "27",
    "prefectureNumber": 27,
    "prefecture": "大阪府",
    "city": "八尾市",
    "town": "都塚"
  },
  "5810024": {
    "zipcode": "5810024",
    "prefectureCode": "27",
    "prefectureNumber": 27,
    "prefecture": "大阪府",
    "city": "八尾市",
    "town": "二俣"
  },
  "5810025": {
    "zipcode": "5810025",
    "prefectureCode": "27",
    "prefectureNumber": 27,
    "prefecture": "大阪府",
    "city": "八尾市",
    "town": "天王寺屋"
  },
  "5810026": {
    "zipcode": "5810026",
    "prefectureCode": "27",
    "prefectureNumber": 27,
    "prefecture": "大阪府",
    "city": "八尾市",
    "town": "曙町"
  },
  "5810027": {
    "zipcode": "5810027",
    "prefectureCode": "27",
    "prefectureNumber": 27,
    "prefecture": "大阪府",
    "city": "八尾市",
    "town": "八尾木（大字）"
  },
  "5810028": {
    "zipcode": "5810028",
    "prefectureCode": "27",
    "prefectureNumber": 27,
    "prefecture": "大阪府",
    "city": "八尾市",
    "town": "八尾木東"
  },
  "5810029": {
    "zipcode": "5810029",
    "prefectureCode": "27",
    "prefectureNumber": 27,
    "prefecture": "大阪府",
    "city": "八尾市",
    "town": "東弓削"
  },
  "5810030": {
    "zipcode": "5810030",
    "prefectureCode": "27",
    "prefectureNumber": 27,
    "prefecture": "大阪府",
    "city": "八尾市",
    "town": "都塚南"
  },
  "5810031": {
    "zipcode": "5810031",
    "prefectureCode": "27",
    "prefectureNumber": 27,
    "prefecture": "大阪府",
    "city": "八尾市",
    "town": "志紀町"
  },
  "5810032": {
    "zipcode": "5810032",
    "prefectureCode": "27",
    "prefectureNumber": 27,
    "prefecture": "大阪府",
    "city": "八尾市",
    "town": "弓削町"
  },
  "5810033": {
    "zipcode": "5810033",
    "prefectureCode": "27",
    "prefectureNumber": 27,
    "prefecture": "大阪府",
    "city": "八尾市",
    "town": "志紀町南"
  },
  "5810034": {
    "zipcode": "5810034",
    "prefectureCode": "27",
    "prefectureNumber": 27,
    "prefecture": "大阪府",
    "city": "八尾市",
    "town": "弓削町南"
  },
  "5810035": {
    "zipcode": "5810035",
    "prefectureCode": "27",
    "prefectureNumber": 27,
    "prefecture": "大阪府",
    "city": "八尾市",
    "town": "西弓削"
  },
  "5810036": {
    "zipcode": "5810036",
    "prefectureCode": "27",
    "prefectureNumber": 27,
    "prefecture": "大阪府",
    "city": "八尾市",
    "town": "沼"
  },
  "5810037": {
    "zipcode": "5810037",
    "prefectureCode": "27",
    "prefectureNumber": 27,
    "prefecture": "大阪府",
    "city": "八尾市",
    "town": "太田"
  },
  "5810038": {
    "zipcode": "5810038",
    "prefectureCode": "27",
    "prefectureNumber": 27,
    "prefecture": "大阪府",
    "city": "八尾市",
    "town": "若林町"
  },
  "5810039": {
    "zipcode": "5810039",
    "prefectureCode": "27",
    "prefectureNumber": 27,
    "prefecture": "大阪府",
    "city": "八尾市",
    "town": "太田新町"
  },
  "5810041": {
    "zipcode": "5810041",
    "prefectureCode": "27",
    "prefectureNumber": 27,
    "prefecture": "大阪府",
    "city": "八尾市",
    "town": "北木の本"
  },
  "5810042": {
    "zipcode": "5810042",
    "prefectureCode": "27",
    "prefectureNumber": 27,
    "prefecture": "大阪府",
    "city": "八尾市",
    "town": "南木の本"
  },
  "5810043": {
    "zipcode": "5810043",
    "prefectureCode": "27",
    "prefectureNumber": 27,
    "prefecture": "大阪府",
    "city": "八尾市",
    "town": "空港"
  },
  "5810044": {
    "zipcode": "5810044",
    "prefectureCode": "27",
    "prefectureNumber": 27,
    "prefecture": "大阪府",
    "city": "八尾市",
    "town": "木の本"
  },
  "5810045": {
    "zipcode": "5810045",
    "prefectureCode": "27",
    "prefectureNumber": 27,
    "prefecture": "大阪府",
    "city": "八尾市",
    "town": "西木の本"
  },
  "5810051": {
    "zipcode": "5810051",
    "prefectureCode": "27",
    "prefectureNumber": 27,
    "prefecture": "大阪府",
    "city": "八尾市",
    "town": "竹渕西"
  },
  "5810052": {
    "zipcode": "5810052",
    "prefectureCode": "27",
    "prefectureNumber": 27,
    "prefecture": "大阪府",
    "city": "八尾市",
    "town": "竹渕"
  },
  "5810053": {
    "zipcode": "5810053",
    "prefectureCode": "27",
    "prefectureNumber": 27,
    "prefecture": "大阪府",
    "city": "八尾市",
    "town": "竹渕東"
  },
  "5810054": {
    "zipcode": "5810054",
    "prefectureCode": "27",
    "prefectureNumber": 27,
    "prefecture": "大阪府",
    "city": "八尾市",
    "town": "南亀井町"
  },
  "5810055": {
    "zipcode": "5810055",
    "prefectureCode": "27",
    "prefectureNumber": 27,
    "prefecture": "大阪府",
    "city": "八尾市",
    "town": "跡部南の町"
  },
  "5810056": {
    "zipcode": "5810056",
    "prefectureCode": "27",
    "prefectureNumber": 27,
    "prefecture": "大阪府",
    "city": "八尾市",
    "town": "南太子堂"
  },
  "5810061": {
    "zipcode": "5810061",
    "prefectureCode": "27",
    "prefectureNumber": 27,
    "prefecture": "大阪府",
    "city": "八尾市",
    "town": "春日町"
  },
  "5810062": {
    "zipcode": "5810062",
    "prefectureCode": "27",
    "prefectureNumber": 27,
    "prefecture": "大阪府",
    "city": "八尾市",
    "town": "東太子"
  },
  "5810063": {
    "zipcode": "5810063",
    "prefectureCode": "27",
    "prefectureNumber": 27,
    "prefecture": "大阪府",
    "city": "八尾市",
    "town": "太子堂"
  },
  "5810064": {
    "zipcode": "5810064",
    "prefectureCode": "27",
    "prefectureNumber": 27,
    "prefecture": "大阪府",
    "city": "八尾市",
    "town": "跡部本町"
  },
  "5810065": {
    "zipcode": "5810065",
    "prefectureCode": "27",
    "prefectureNumber": 27,
    "prefecture": "大阪府",
    "city": "八尾市",
    "town": "亀井町"
  },
  "5810066": {
    "zipcode": "5810066",
    "prefectureCode": "27",
    "prefectureNumber": 27,
    "prefecture": "大阪府",
    "city": "八尾市",
    "town": "北亀井町"
  },
  "5810067": {
    "zipcode": "5810067",
    "prefectureCode": "27",
    "prefectureNumber": 27,
    "prefecture": "大阪府",
    "city": "八尾市",
    "town": "神武町"
  },
  "5810068": {
    "zipcode": "5810068",
    "prefectureCode": "27",
    "prefectureNumber": 27,
    "prefecture": "大阪府",
    "city": "八尾市",
    "town": "跡部北の町"
  },
  "5810069": {
    "zipcode": "5810069",
    "prefectureCode": "27",
    "prefectureNumber": 27,
    "prefecture": "大阪府",
    "city": "八尾市",
    "town": "龍華町"
  },
  "5810071": {
    "zipcode": "5810071",
    "prefectureCode": "27",
    "prefectureNumber": 27,
    "prefecture": "大阪府",
    "city": "八尾市",
    "town": "北久宝寺"
  },
  "5810072": {
    "zipcode": "5810072",
    "prefectureCode": "27",
    "prefectureNumber": 27,
    "prefecture": "大阪府",
    "city": "八尾市",
    "town": "久宝寺"
  },
  "5810073": {
    "zipcode": "5810073",
    "prefectureCode": "27",
    "prefectureNumber": 27,
    "prefecture": "大阪府",
    "city": "八尾市",
    "town": "高町"
  },
  "5810074": {
    "zipcode": "5810074",
    "prefectureCode": "27",
    "prefectureNumber": 27,
    "prefecture": "大阪府",
    "city": "八尾市",
    "town": "栄町"
  },
  "5810075": {
    "zipcode": "5810075",
    "prefectureCode": "27",
    "prefectureNumber": 27,
    "prefecture": "大阪府",
    "city": "八尾市",
    "town": "渋川町"
  },
  "5810076": {
    "zipcode": "5810076",
    "prefectureCode": "27",
    "prefectureNumber": 27,
    "prefecture": "大阪府",
    "city": "八尾市",
    "town": "南久宝寺"
  },
  "5810077": {
    "zipcode": "5810077",
    "prefectureCode": "27",
    "prefectureNumber": 27,
    "prefecture": "大阪府",
    "city": "八尾市",
    "town": "西久宝寺"
  },
  "5810081": {
    "zipcode": "5810081",
    "prefectureCode": "27",
    "prefectureNumber": 27,
    "prefecture": "大阪府",
    "city": "八尾市",
    "town": "南本町"
  },
  "5810082": {
    "zipcode": "5810082",
    "prefectureCode": "27",
    "prefectureNumber": 27,
    "prefecture": "大阪府",
    "city": "八尾市",
    "town": "相生町"
  },
  "5810083": {
    "zipcode": "5810083",
    "prefectureCode": "27",
    "prefectureNumber": 27,
    "prefecture": "大阪府",
    "city": "八尾市",
    "town": "永畑町"
  },
  "5810084": {
    "zipcode": "5810084",
    "prefectureCode": "27",
    "prefectureNumber": 27,
    "prefecture": "大阪府",
    "city": "八尾市",
    "town": "植松町"
  },
  "5810085": {
    "zipcode": "5810085",
    "prefectureCode": "27",
    "prefectureNumber": 27,
    "prefecture": "大阪府",
    "city": "八尾市",
    "town": "安中町"
  },
  "5810086": {
    "zipcode": "5810086",
    "prefectureCode": "27",
    "prefectureNumber": 27,
    "prefecture": "大阪府",
    "city": "八尾市",
    "town": "陽光園"
  },
  "5810087": {
    "zipcode": "5810087",
    "prefectureCode": "27",
    "prefectureNumber": 27,
    "prefecture": "大阪府",
    "city": "八尾市",
    "town": "明美町"
  },
  "5810088": {
    "zipcode": "5810088",
    "prefectureCode": "27",
    "prefectureNumber": 27,
    "prefecture": "大阪府",
    "city": "八尾市",
    "town": "松山町"
  },
  "5810091": {
    "zipcode": "5810091",
    "prefectureCode": "27",
    "prefectureNumber": 27,
    "prefecture": "大阪府",
    "city": "八尾市",
    "town": "南植松町"
  },
  "5810092": {
    "zipcode": "5810092",
    "prefectureCode": "27",
    "prefectureNumber": 27,
    "prefecture": "大阪府",
    "city": "八尾市",
    "town": "老原"
  },
  "5810093": {
    "zipcode": "5810093",
    "prefectureCode": "27",
    "prefectureNumber": 27,
    "prefecture": "大阪府",
    "city": "八尾市",
    "town": "東老原"
  },
  "5810094": {
    "zipcode": "5810094",
    "prefectureCode": "27",
    "prefectureNumber": 27,
    "prefecture": "大阪府",
    "city": "八尾市",
    "town": "志紀町西"
  },
  "5810095": {
    "zipcode": "5810095",
    "prefectureCode": "27",
    "prefectureNumber": 27,
    "prefecture": "大阪府",
    "city": "八尾市",
    "town": "田井中"
  },
  "5810801": {
    "zipcode": "5810801",
    "prefectureCode": "27",
    "prefectureNumber": 27,
    "prefecture": "大阪府",
    "city": "八尾市",
    "town": "山城町"
  },
  "5810802": {
    "zipcode": "5810802",
    "prefectureCode": "27",
    "prefectureNumber": 27,
    "prefecture": "大阪府",
    "city": "八尾市",
    "town": "北本町"
  },
  "5810803": {
    "zipcode": "5810803",
    "prefectureCode": "27",
    "prefectureNumber": 27,
    "prefecture": "大阪府",
    "city": "八尾市",
    "town": "光町"
  },
  "5810811": {
    "zipcode": "5810811",
    "prefectureCode": "27",
    "prefectureNumber": 27,
    "prefecture": "大阪府",
    "city": "八尾市",
    "town": "新家町"
  },
  "5810812": {
    "zipcode": "5810812",
    "prefectureCode": "27",
    "prefectureNumber": 27,
    "prefecture": "大阪府",
    "city": "八尾市",
    "town": "山賀町"
  },
  "5810813": {
    "zipcode": "5810813",
    "prefectureCode": "27",
    "prefectureNumber": 27,
    "prefecture": "大阪府",
    "city": "八尾市",
    "town": "泉町"
  },
  "5810814": {
    "zipcode": "5810814",
    "prefectureCode": "27",
    "prefectureNumber": 27,
    "prefecture": "大阪府",
    "city": "八尾市",
    "town": "楠根町"
  },
  "5810815": {
    "zipcode": "5810815",
    "prefectureCode": "27",
    "prefectureNumber": 27,
    "prefecture": "大阪府",
    "city": "八尾市",
    "town": "宮町"
  },
  "5810816": {
    "zipcode": "5810816",
    "prefectureCode": "27",
    "prefectureNumber": 27,
    "prefecture": "大阪府",
    "city": "八尾市",
    "town": "佐堂町"
  },
  "5810817": {
    "zipcode": "5810817",
    "prefectureCode": "27",
    "prefectureNumber": 27,
    "prefecture": "大阪府",
    "city": "八尾市",
    "town": "久宝園"
  },
  "5810818": {
    "zipcode": "5810818",
    "prefectureCode": "27",
    "prefectureNumber": 27,
    "prefecture": "大阪府",
    "city": "八尾市",
    "town": "美園町"
  },
  "5810821": {
    "zipcode": "5810821",
    "prefectureCode": "27",
    "prefectureNumber": 27,
    "prefecture": "大阪府",
    "city": "八尾市",
    "town": "幸町"
  },
  "5810822": {
    "zipcode": "5810822",
    "prefectureCode": "27",
    "prefectureNumber": 27,
    "prefecture": "大阪府",
    "city": "八尾市",
    "town": "高砂町"
  },
  "5810823": {
    "zipcode": "5810823",
    "prefectureCode": "27",
    "prefectureNumber": 27,
    "prefecture": "大阪府",
    "city": "八尾市",
    "town": "桂町"
  },
  "5810831": {
    "zipcode": "5810831",
    "prefectureCode": "27",
    "prefectureNumber": 27,
    "prefecture": "大阪府",
    "city": "八尾市",
    "town": "山本町北"
  },
  "5810832": {
    "zipcode": "5810832",
    "prefectureCode": "27",
    "prefectureNumber": 27,
    "prefecture": "大阪府",
    "city": "八尾市",
    "town": "堤町"
  },
  "5810833": {
    "zipcode": "5810833",
    "prefectureCode": "27",
    "prefectureNumber": 27,
    "prefecture": "大阪府",
    "city": "八尾市",
    "town": "旭ケ丘"
  },
  "5810834": {
    "zipcode": "5810834",
    "prefectureCode": "27",
    "prefectureNumber": 27,
    "prefecture": "大阪府",
    "city": "八尾市",
    "town": "萱振町"
  },
  "5810835": {
    "zipcode": "5810835",
    "prefectureCode": "27",
    "prefectureNumber": 27,
    "prefecture": "大阪府",
    "city": "八尾市",
    "town": "小畑町"
  },
  "5810836": {
    "zipcode": "5810836",
    "prefectureCode": "27",
    "prefectureNumber": 27,
    "prefecture": "大阪府",
    "city": "八尾市",
    "town": "長池町"
  },
  "5810837": {
    "zipcode": "5810837",
    "prefectureCode": "27",
    "prefectureNumber": 27,
    "prefecture": "大阪府",
    "city": "八尾市",
    "town": "緑ケ丘"
  },
  "5810841": {
    "zipcode": "5810841",
    "prefectureCode": "27",
    "prefectureNumber": 27,
    "prefecture": "大阪府",
    "city": "八尾市",
    "town": "福万寺町北"
  },
  "5810842": {
    "zipcode": "5810842",
    "prefectureCode": "27",
    "prefectureNumber": 27,
    "prefecture": "大阪府",
    "city": "八尾市",
    "town": "福万寺町"
  },
  "5810843": {
    "zipcode": "5810843",
    "prefectureCode": "27",
    "prefectureNumber": 27,
    "prefecture": "大阪府",
    "city": "八尾市",
    "town": "福万寺町南"
  },
  "5810844": {
    "zipcode": "5810844",
    "prefectureCode": "27",
    "prefectureNumber": 27,
    "prefecture": "大阪府",
    "city": "八尾市",
    "town": "福栄町"
  },
  "5810845": {
    "zipcode": "5810845",
    "prefectureCode": "27",
    "prefectureNumber": 27,
    "prefecture": "大阪府",
    "city": "八尾市",
    "town": "上之島町北"
  },
  "5810846": {
    "zipcode": "5810846",
    "prefectureCode": "27",
    "prefectureNumber": 27,
    "prefecture": "大阪府",
    "city": "八尾市",
    "town": "上之島町南"
  },
  "5810847": {
    "zipcode": "5810847",
    "prefectureCode": "27",
    "prefectureNumber": 27,
    "prefecture": "大阪府",
    "city": "八尾市",
    "town": "東山本町"
  },
  "5810851": {
    "zipcode": "5810851",
    "prefectureCode": "27",
    "prefectureNumber": 27,
    "prefecture": "大阪府",
    "city": "八尾市",
    "town": "上尾町"
  },
  "5810852": {
    "zipcode": "5810852",
    "prefectureCode": "27",
    "prefectureNumber": 27,
    "prefecture": "大阪府",
    "city": "八尾市",
    "town": "西高安町"
  },
  "5810853": {
    "zipcode": "5810853",
    "prefectureCode": "27",
    "prefectureNumber": 27,
    "prefecture": "大阪府",
    "city": "八尾市",
    "town": "楽音寺"
  },
  "5810854": {
    "zipcode": "5810854",
    "prefectureCode": "27",
    "prefectureNumber": 27,
    "prefecture": "大阪府",
    "city": "八尾市",
    "town": "大竹"
  },
  "5810855": {
    "zipcode": "5810855",
    "prefectureCode": "27",
    "prefectureNumber": 27,
    "prefecture": "大阪府",
    "city": "八尾市",
    "town": "神立"
  },
  "5810856": {
    "zipcode": "5810856",
    "prefectureCode": "27",
    "prefectureNumber": 27,
    "prefecture": "大阪府",
    "city": "八尾市",
    "town": "水越"
  },
  "5810861": {
    "zipcode": "5810861",
    "prefectureCode": "27",
    "prefectureNumber": 27,
    "prefecture": "大阪府",
    "city": "八尾市",
    "town": "東町"
  },
  "5810862": {
    "zipcode": "5810862",
    "prefectureCode": "27",
    "prefectureNumber": 27,
    "prefecture": "大阪府",
    "city": "八尾市",
    "town": "千塚"
  },
  "5810863": {
    "zipcode": "5810863",
    "prefectureCode": "27",
    "prefectureNumber": 27,
    "prefecture": "大阪府",
    "city": "八尾市",
    "town": "大窪"
  },
  "5810864": {
    "zipcode": "5810864",
    "prefectureCode": "27",
    "prefectureNumber": 27,
    "prefecture": "大阪府",
    "city": "八尾市",
    "town": "山畑"
  },
  "5810865": {
    "zipcode": "5810865",
    "prefectureCode": "27",
    "prefectureNumber": 27,
    "prefecture": "大阪府",
    "city": "八尾市",
    "town": "服部川"
  },
  "5810866": {
    "zipcode": "5810866",
    "prefectureCode": "27",
    "prefectureNumber": 27,
    "prefecture": "大阪府",
    "city": "八尾市",
    "town": "東山本新町"
  },
  "5810867": {
    "zipcode": "5810867",
    "prefectureCode": "27",
    "prefectureNumber": 27,
    "prefecture": "大阪府",
    "city": "八尾市",
    "town": "山本町"
  },
  "5810868": {
    "zipcode": "5810868",
    "prefectureCode": "27",
    "prefectureNumber": 27,
    "prefecture": "大阪府",
    "city": "八尾市",
    "town": "西山本町"
  },
  "5810869": {
    "zipcode": "5810869",
    "prefectureCode": "27",
    "prefectureNumber": 27,
    "prefecture": "大阪府",
    "city": "八尾市",
    "town": "桜ケ丘"
  },
  "5810871": {
    "zipcode": "5810871",
    "prefectureCode": "27",
    "prefectureNumber": 27,
    "prefecture": "大阪府",
    "city": "八尾市",
    "town": "高安町北"
  },
  "5810872": {
    "zipcode": "5810872",
    "prefectureCode": "27",
    "prefectureNumber": 27,
    "prefecture": "大阪府",
    "city": "八尾市",
    "town": "郡川"
  },
  "5810873": {
    "zipcode": "5810873",
    "prefectureCode": "27",
    "prefectureNumber": 27,
    "prefecture": "大阪府",
    "city": "八尾市",
    "town": "黒谷"
  },
  "5810874": {
    "zipcode": "5810874",
    "prefectureCode": "27",
    "prefectureNumber": 27,
    "prefecture": "大阪府",
    "city": "八尾市",
    "town": "教興寺"
  },
  "5810875": {
    "zipcode": "5810875",
    "prefectureCode": "27",
    "prefectureNumber": 27,
    "prefecture": "大阪府",
    "city": "八尾市",
    "town": "高安町南"
  },
  "5810881": {
    "zipcode": "5810881",
    "prefectureCode": "27",
    "prefectureNumber": 27,
    "prefecture": "大阪府",
    "city": "八尾市",
    "town": "垣内"
  },
  "5810882": {
    "zipcode": "5810882",
    "prefectureCode": "27",
    "prefectureNumber": 27,
    "prefecture": "大阪府",
    "city": "八尾市",
    "town": "恩智北町"
  },
  "5810883": {
    "zipcode": "5810883",
    "prefectureCode": "27",
    "prefectureNumber": 27,
    "prefecture": "大阪府",
    "city": "八尾市",
    "town": "恩智中町"
  },
  "5810884": {
    "zipcode": "5810884",
    "prefectureCode": "27",
    "prefectureNumber": 27,
    "prefecture": "大阪府",
    "city": "八尾市",
    "town": "恩智南町"
  },
  "5810885": {
    "zipcode": "5810885",
    "prefectureCode": "27",
    "prefectureNumber": 27,
    "prefecture": "大阪府",
    "city": "八尾市",
    "town": "神宮寺"
  }
}
