{
  "5820000": {
    "zipcode": "5820000",
    "prefectureCode": "27",
    "prefectureNumber": 27,
    "prefecture": "大阪府",
    "city": "柏原市",
    "town": "以下に掲載がない場合"
  },
  "5820001": {
    "zipcode": "5820001",
    "prefectureCode": "27",
    "prefectureNumber": 27,
    "prefecture": "大阪府",
    "city": "柏原市",
    "town": "本郷"
  },
  "5820002": {
    "zipcode": "5820002",
    "prefectureCode": "27",
    "prefectureNumber": 27,
    "prefecture": "大阪府",
    "city": "柏原市",
    "town": "今町"
  },
  "5820003": {
    "zipcode": "5820003",
    "prefectureCode": "27",
    "prefectureNumber": 27,
    "prefecture": "大阪府",
    "city": "柏原市",
    "town": "堂島町"
  },
  "5820004": {
    "zipcode": "5820004",
    "prefectureCode": "27",
    "prefectureNumber": 27,
    "prefecture": "大阪府",
    "city": "柏原市",
    "town": "河原町"
  },
  "5820005": {
    "zipcode": "5820005",
    "prefectureCode": "27",
    "prefectureNumber": 27,
    "prefecture": "大阪府",
    "city": "柏原市",
    "town": "法善寺"
  },
  "5820006": {
    "zipcode": "5820006",
    "prefectureCode": "27",
    "prefectureNumber": 27,
    "prefecture": "大阪府",
    "city": "柏原市",
    "town": "清州"
  },
  "5820007": {
    "zipcode": "5820007",
    "prefectureCode": "27",
    "prefectureNumber": 27,
    "prefecture": "大阪府",
    "city": "柏原市",
    "town": "上市"
  },
  "5820008": {
    "zipcode": "5820008",
    "prefectureCode": "27",
    "prefectureNumber": 27,
    "prefecture": "大阪府",
    "city": "柏原市",
    "town": "古町"
  },
  "5820009": {
    "zipcode": "5820009",
    "prefectureCode": "27",
    "prefectureNumber": 27,
    "prefecture": "大阪府",
    "city": "柏原市",
    "town": "大正"
  },
  "5820010": {
    "zipcode": "5820010",
    "prefectureCode": "27",
    "prefectureNumber": 27,
    "prefecture": "大阪府",
    "city": "柏原市",
    "town": "山ノ井町"
  },
  "5820011": {
    "zipcode": "5820011",
    "prefectureCode": "27",
    "prefectureNumber": 27,
    "prefecture": "大阪府",
    "city": "柏原市",
    "town": "本堂"
  },
  "5820012": {
    "zipcode": "5820012",
    "prefectureCode": "27",
    "prefectureNumber": 27,
    "prefecture": "大阪府",
    "city": "柏原市",
    "town": "雁多尾畑"
  },
  "5820013": {
    "zipcode": "5820013",
    "prefectureCode": "27",
    "prefectureNumber": 27,
    "prefecture": "大阪府",
    "city": "柏原市",
    "town": "峠"
  },
  "5820014": {
    "zipcode": "5820014",
    "prefectureCode": "27",
    "prefectureNumber": 27,
    "prefecture": "大阪府",
    "city": "柏原市",
    "town": "青谷"
  },
  "5820015": {
    "zipcode": "5820015",
    "prefectureCode": "27",
    "prefectureNumber": 27,
    "prefecture": "大阪府",
    "city": "柏原市",
    "town": "高井田"
  },
  "5820016": {
    "zipcode": "5820016",
    "prefectureCode": "27",
    "prefectureNumber": 27,
    "prefecture": "大阪府",
    "city": "柏原市",
    "town": "安堂町"
  },
  "5820017": {
    "zipcode": "5820017",
    "prefectureCode": "27",
    "prefectureNumber": 27,
    "prefecture": "大阪府",
    "city": "柏原市",
    "town": "太平寺"
  },
  "5820018": {
    "zipcode": "5820018",
    "prefectureCode": "27",
    "prefectureNumber": 27,
    "prefecture": "大阪府",
    "city": "柏原市",
    "town": "大県"
  },
  "5820019": {
    "zipcode": "5820019",
    "prefectureCode": "27",
    "prefectureNumber": 27,
    "prefecture": "大阪府",
    "city": "柏原市",
    "town": "平野"
  },
  "5820020": {
    "zipcode": "5820020",
    "prefectureCode": "27",
    "prefectureNumber": 27,
    "prefecture": "大阪府",
    "city": "柏原市",
    "town": "片山町"
  },
  "5820021": {
    "zipcode": "5820021",
    "prefectureCode": "27",
    "prefectureNumber": 27,
    "prefecture": "大阪府",
    "city": "柏原市",
    "town": "国分本町"
  },
  "5820022": {
    "zipcode": "5820022",
    "prefectureCode": "27",
    "prefectureNumber": 27,
    "prefecture": "大阪府",
    "city": "柏原市",
    "town": "国分市場"
  },
  "5820023": {
    "zipcode": "5820023",
    "prefectureCode": "27",
    "prefectureNumber": 27,
    "prefecture": "大阪府",
    "city": "柏原市",
    "town": "国分東条町"
  },
  "5820024": {
    "zipcode": "5820024",
    "prefectureCode": "27",
    "prefectureNumber": 27,
    "prefecture": "大阪府",
    "city": "柏原市",
    "town": "田辺"
  },
  "5820025": {
    "zipcode": "5820025",
    "prefectureCode": "27",
    "prefectureNumber": 27,
    "prefecture": "大阪府",
    "city": "柏原市",
    "town": "国分西"
  },
  "5820026": {
    "zipcode": "5820026",
    "prefectureCode": "27",
    "prefectureNumber": 27,
    "prefecture": "大阪府",
    "city": "柏原市",
    "town": "旭ケ丘"
  },
  "5820027": {
    "zipcode": "5820027",
    "prefectureCode": "27",
    "prefectureNumber": 27,
    "prefecture": "大阪府",
    "city": "柏原市",
    "town": "円明町"
  },
  "5820028": {
    "zipcode": "5820028",
    "prefectureCode": "27",
    "prefectureNumber": 27,
    "prefecture": "大阪府",
    "city": "柏原市",
    "town": "玉手町"
  },
  "5820029": {
    "zipcode": "5820029",
    "prefectureCode": "27",
    "prefectureNumber": 27,
    "prefecture": "大阪府",
    "city": "柏原市",
    "town": "石川町"
  }
}
