{
  "5830000": {
    "zipcode": "5830000",
    "prefectureCode": "27",
    "prefectureNumber": 27,
    "prefecture": "大阪府",
    "city": "南河内郡太子町",
    "town": "以下に掲載がない場合"
  },
  "5830001": {
    "zipcode": "5830001",
    "prefectureCode": "27",
    "prefectureNumber": 27,
    "prefecture": "大阪府",
    "city": "藤井寺市",
    "town": "川北"
  },
  "5830002": {
    "zipcode": "5830002",
    "prefectureCode": "27",
    "prefectureNumber": 27,
    "prefecture": "大阪府",
    "city": "藤井寺市",
    "town": "北條町"
  },
  "5830003": {
    "zipcode": "5830003",
    "prefectureCode": "27",
    "prefectureNumber": 27,
    "prefecture": "大阪府",
    "city": "藤井寺市",
    "town": "船橋町"
  },
  "5830004": {
    "zipcode": "5830004",
    "prefectureCode": "27",
    "prefectureNumber": 27,
    "prefecture": "大阪府",
    "city": "藤井寺市",
    "town": "梅が園町"
  },
  "5830005": {
    "zipcode": "5830005",
    "prefectureCode": "27",
    "prefectureNumber": 27,
    "prefecture": "大阪府",
    "city": "藤井寺市",
    "town": "惣社"
  },
  "5830006": {
    "zipcode": "5830006",
    "prefectureCode": "27",
    "prefectureNumber": 27,
    "prefecture": "大阪府",
    "city": "藤井寺市",
    "town": "国府"
  },
  "5830007": {
    "zipcode": "5830007",
    "prefectureCode": "27",
    "prefectureNumber": 27,
    "prefecture": "大阪府",
    "city": "藤井寺市",
    "town": "林"
  },
  "5830008": {
    "zipcode": "5830008",
    "prefectureCode": "27",
    "prefectureNumber": 27,
    "prefecture": "大阪府",
    "city": "藤井寺市",
    "town": "大井"
  },
  "5830009": {
    "zipcode": "5830009",
    "prefectureCode": "27",
    "prefectureNumber": 27,
    "prefecture": "大阪府",
    "city": "藤井寺市",
    "town": "西大井"
  },
  "5830011": {
    "zipcode": "5830011",
    "prefectureCode": "27",
    "prefectureNumber": 27,
    "prefecture": "大阪府",
    "city": "藤井寺市",
    "town": "沢田"
  },
  "5830012": {
    "zipcode": "5830012",
    "prefectureCode": "27",
    "prefectureNumber": 27,
    "prefecture": "大阪府",
    "city": "藤井寺市",
    "town": "道明寺"
  },
  "5830013": {
    "zipcode": "5830013",
    "prefectureCode": "27",
    "prefectureNumber": 27,
    "prefecture": "大阪府",
    "city": "藤井寺市",
    "town": "古室"
  },
  "5830014": {
    "zipcode": "5830014",
    "prefectureCode": "27",
    "prefectureNumber": 27,
    "prefecture": "大阪府",
    "city": "藤井寺市",
    "town": "野中"
  },
  "5830015": {
    "zipcode": "5830015",
    "prefectureCode": "27",
    "prefectureNumber": 27,
    "prefecture": "大阪府",
    "city": "藤井寺市",
    "town": "青山"
  },
  "5830016": {
    "zipcode": "5830016",
    "prefectureCode": "27",
    "prefectureNumber": 27,
    "prefecture": "大阪府",
    "city": "藤井寺市",
    "town": "陵南町"
  },
  "5830017": {
    "zipcode": "5830017",
    "prefectureCode": "27",
    "prefectureNumber": 27,
    "prefecture": "大阪府",
    "city": "藤井寺市",
    "town": "藤ケ丘"
  },
  "5830018": {
    "zipcode": "5830018",
    "prefectureCode": "27",
    "prefectureNumber": 27,
    "prefecture": "大阪府",
    "city": "藤井寺市",
    "town": "西古室"
  },
  "5830021": {
    "zipcode": "5830021",
    "prefectureCode": "27",
    "prefectureNumber": 27,
    "prefecture": "大阪府",
    "city": "藤井寺市",
    "town": "御舟町"
  },
  "5830022": {
    "zipcode": "5830022",
    "prefectureCode": "27",
    "prefectureNumber": 27,
    "prefecture": "大阪府",
    "city": "藤井寺市",
    "town": "東藤井寺町"
  },
  "5830023": {
    "zipcode": "5830023",
    "prefectureCode": "27",
    "prefectureNumber": 27,
    "prefecture": "大阪府",
    "city": "藤井寺市",
    "town": "さくら町"
  },
  "5830024": {
    "zipcode": "5830024",
    "prefectureCode": "27",
    "prefectureNumber": 27,
    "prefecture": "大阪府",
    "city": "藤井寺市",
    "town": "藤井寺"
  },
  "5830025": {
    "zipcode": "5830025",
    "prefectureCode": "27",
    "prefectureNumber": 27,
    "prefecture": "大阪府",
    "city": "藤井寺市",
    "town": "春日丘新町"
  },
  "5830026": {
    "zipcode": "5830026",
    "prefectureCode": "27",
    "prefectureNumber": 27,
    "prefecture": "大阪府",
    "city": "藤井寺市",
    "town": "春日丘"
  },
  "5830027": {
    "zipcode": "5830027",
    "prefectureCode": "27",
    "prefectureNumber": 27,
    "prefecture": "大阪府",
    "city": "藤井寺市",
    "town": "岡"
  },
  "5830031": {
    "zipcode": "5830031",
    "prefectureCode": "27",
    "prefectureNumber": 27,
    "prefecture": "大阪府",
    "city": "藤井寺市",
    "town": "小山新町"
  },
  "5830032": {
    "zipcode": "5830032",
    "prefectureCode": "27",
    "prefectureNumber": 27,
    "prefecture": "大阪府",
    "city": "藤井寺市",
    "town": "小山藤美町"
  },
  "5830033": {
    "zipcode": "5830033",
    "prefectureCode": "27",
    "prefectureNumber": 27,
    "prefecture": "大阪府",
    "city": "藤井寺市",
    "town": "小山"
  },
  "5830034": {
    "zipcode": "5830034",
    "prefectureCode": "27",
    "prefectureNumber": 27,
    "prefecture": "大阪府",
    "city": "藤井寺市",
    "town": "小山藤の里町"
  },
  "5830035": {
    "zipcode": "5830035",
    "prefectureCode": "27",
    "prefectureNumber": 27,
    "prefecture": "大阪府",
    "city": "藤井寺市",
    "town": "北岡"
  },
  "5830036": {
    "zipcode": "5830036",
    "prefectureCode": "27",
    "prefectureNumber": 27,
    "prefecture": "大阪府",
    "city": "藤井寺市",
    "town": "恵美坂"
  },
  "5830037": {
    "zipcode": "5830037",
    "prefectureCode": "27",
    "prefectureNumber": 27,
    "prefecture": "大阪府",
    "city": "藤井寺市",
    "town": "津堂"
  },
  "5830841": {
    "zipcode": "5830841",
    "prefectureCode": "27",
    "prefectureNumber": 27,
    "prefecture": "大阪府",
    "city": "羽曳野市",
    "town": "駒ケ谷"
  },
  "5830842": {
    "zipcode": "5830842",
    "prefectureCode": "27",
    "prefectureNumber": 27,
    "prefecture": "大阪府",
    "city": "羽曳野市",
    "town": "飛鳥"
  },
  "5830843": {
    "zipcode": "5830843",
    "prefectureCode": "27",
    "prefectureNumber": 27,
    "prefecture": "大阪府",
    "city": "羽曳野市",
    "town": "通法寺"
  },
  "5830844": {
    "zipcode": "5830844",
    "prefectureCode": "27",
    "prefectureNumber": 27,
    "prefecture": "大阪府",
    "city": "羽曳野市",
    "town": "壺井"
  },
  "5830845": {
    "zipcode": "5830845",
    "prefectureCode": "27",
    "prefectureNumber": 27,
    "prefecture": "大阪府",
    "city": "羽曳野市",
    "town": "広瀬"
  },
  "5830846": {
    "zipcode": "5830846",
    "prefectureCode": "27",
    "prefectureNumber": 27,
    "prefecture": "大阪府",
    "city": "羽曳野市",
    "town": "東阪田"
  },
  "5830847": {
    "zipcode": "5830847",
    "prefectureCode": "27",
    "prefectureNumber": 27,
    "prefecture": "大阪府",
    "city": "羽曳野市",
    "town": "大黒"
  },
  "5830848": {
    "zipcode": "5830848",
    "prefectureCode": "27",
    "prefectureNumber": 27,
    "prefecture": "大阪府",
    "city": "羽曳野市",
    "town": "川向"
  },
  "5830851": {
    "zipcode": "5830851",
    "prefectureCode": "27",
    "prefectureNumber": 27,
    "prefecture": "大阪府",
    "city": "羽曳野市",
    "town": "碓井"
  },
  "5830852": {
    "zipcode": "5830852",
    "prefectureCode": "27",
    "prefectureNumber": 27,
    "prefecture": "大阪府",
    "city": "羽曳野市",
    "town": "古市"
  },
  "5830853": {
    "zipcode": "5830853",
    "prefectureCode": "27",
    "prefectureNumber": 27,
    "prefecture": "大阪府",
    "city": "羽曳野市",
    "town": "栄町"
  },
  "5830854": {
    "zipcode": "5830854",
    "prefectureCode": "27",
    "prefectureNumber": 27,
    "prefecture": "大阪府",
    "city": "羽曳野市",
    "town": "軽里"
  },
  "5830855": {
    "zipcode": "5830855",
    "prefectureCode": "27",
    "prefectureNumber": 27,
    "prefecture": "大阪府",
    "city": "羽曳野市",
    "town": "翠鳥園"
  },
  "5830856": {
    "zipcode": "5830856",
    "prefectureCode": "27",
    "prefectureNumber": 27,
    "prefecture": "大阪府",
    "city": "羽曳野市",
    "town": "白鳥"
  },
  "5830857": {
    "zipcode": "5830857",
    "prefectureCode": "27",
    "prefectureNumber": 27,
    "prefecture": "大阪府",
    "city": "羽曳野市",
    "town": "誉田"
  },
  "5830858": {
    "zipcode": "5830858",
    "prefectureCode": "27",
    "prefectureNumber": 27,
    "prefecture": "大阪府",
    "city": "羽曳野市",
    "town": "南古市"
  },
  "5830861": {
    "zipcode": "5830861",
    "prefectureCode": "27",
    "prefectureNumber": 27,
    "prefecture": "大阪府",
    "city": "羽曳野市",
    "town": "西浦"
  },
  "5830862": {
    "zipcode": "5830862",
    "prefectureCode": "27",
    "prefectureNumber": 27,
    "prefecture": "大阪府",
    "city": "羽曳野市",
    "town": "尺度"
  },
  "5830863": {
    "zipcode": "5830863",
    "prefectureCode": "27",
    "prefectureNumber": 27,
    "prefecture": "大阪府",
    "city": "羽曳野市",
    "town": "蔵之内"
  },
  "5830864": {
    "zipcode": "5830864",
    "prefectureCode": "27",
    "prefectureNumber": 27,
    "prefecture": "大阪府",
    "city": "羽曳野市",
    "town": "羽曳が丘"
  },
  "5830865": {
    "zipcode": "5830865",
    "prefectureCode": "27",
    "prefectureNumber": 27,
    "prefecture": "大阪府",
    "city": "羽曳野市",
    "town": "羽曳が丘西"
  },
  "5830866": {
    "zipcode": "5830866",
    "prefectureCode": "27",
    "prefectureNumber": 27,
    "prefecture": "大阪府",
    "city": "羽曳野市",
    "town": "埴生野"
  },
  "5830867": {
    "zipcode": "5830867",
    "prefectureCode": "27",
    "prefectureNumber": 27,
    "prefecture": "大阪府",
    "city": "羽曳野市",
    "town": "河原城"
  },
  "5830868": {
    "zipcode": "5830868",
    "prefectureCode": "27",
    "prefectureNumber": 27,
    "prefecture": "大阪府",
    "city": "羽曳野市",
    "town": "学園前"
  },
  "5830871": {
    "zipcode": "5830871",
    "prefectureCode": "27",
    "prefectureNumber": 27,
    "prefecture": "大阪府",
    "city": "羽曳野市",
    "town": "野々上"
  },
  "5830872": {
    "zipcode": "5830872",
    "prefectureCode": "27",
    "prefectureNumber": 27,
    "prefecture": "大阪府",
    "city": "羽曳野市",
    "town": "はびきの"
  },
  "5830873": {
    "zipcode": "5830873",
    "prefectureCode": "27",
    "prefectureNumber": 27,
    "prefecture": "大阪府",
    "city": "羽曳野市",
    "town": "桃山台"
  },
  "5830874": {
    "zipcode": "5830874",
    "prefectureCode": "27",
    "prefectureNumber": 27,
    "prefecture": "大阪府",
    "city": "羽曳野市",
    "town": "郡戸"
  },
  "5830875": {
    "zipcode": "5830875",
    "prefectureCode": "27",
    "prefectureNumber": 27,
    "prefecture": "大阪府",
    "city": "羽曳野市",
    "town": "樫山"
  },
  "5830876": {
    "zipcode": "5830876",
    "prefectureCode": "27",
    "prefectureNumber": 27,
    "prefecture": "大阪府",
    "city": "羽曳野市",
    "town": "伊賀"
  },
  "5830881": {
    "zipcode": "5830881",
    "prefectureCode": "27",
    "prefectureNumber": 27,
    "prefecture": "大阪府",
    "city": "羽曳野市",
    "town": "島泉"
  },
  "5830882": {
    "zipcode": "5830882",
    "prefectureCode": "27",
    "prefectureNumber": 27,
    "prefecture": "大阪府",
    "city": "羽曳野市",
    "town": "高鷲"
  },
  "5830883": {
    "zipcode": "5830883",
    "prefectureCode": "27",
    "prefectureNumber": 27,
    "prefecture": "大阪府",
    "city": "羽曳野市",
    "town": "向野"
  },
  "5830884": {
    "zipcode": "5830884",
    "prefectureCode": "27",
    "prefectureNumber": 27,
    "prefecture": "大阪府",
    "city": "羽曳野市",
    "town": "野"
  },
  "5830885": {
    "zipcode": "5830885",
    "prefectureCode": "27",
    "prefectureNumber": 27,
    "prefecture": "大阪府",
    "city": "羽曳野市",
    "town": "南恵我之荘"
  },
  "5830886": {
    "zipcode": "5830886",
    "prefectureCode": "27",
    "prefectureNumber": 27,
    "prefecture": "大阪府",
    "city": "羽曳野市",
    "town": "恵我之荘"
  },
  "5830991": {
    "zipcode": "5830991",
    "prefectureCode": "27",
    "prefectureNumber": 27,
    "prefecture": "大阪府",
    "city": "南河内郡太子町",
    "town": "春日"
  },
  "5830992": {
    "zipcode": "5830992",
    "prefectureCode": "27",
    "prefectureNumber": 27,
    "prefecture": "大阪府",
    "city": "南河内郡太子町",
    "town": "山田"
  },
  "5830993": {
    "zipcode": "5830993",
    "prefectureCode": "27",
    "prefectureNumber": 27,
    "prefecture": "大阪府",
    "city": "南河内郡太子町",
    "town": "畑"
  },
  "5830994": {
    "zipcode": "5830994",
    "prefectureCode": "27",
    "prefectureNumber": 27,
    "prefecture": "大阪府",
    "city": "南河内郡太子町",
    "town": "葉室"
  },
  "5830995": {
    "zipcode": "5830995",
    "prefectureCode": "27",
    "prefectureNumber": 27,
    "prefecture": "大阪府",
    "city": "南河内郡太子町",
    "town": "太子"
  },
  "5830996": {
    "zipcode": "5830996",
    "prefectureCode": "27",
    "prefectureNumber": 27,
    "prefecture": "大阪府",
    "city": "南河内郡太子町",
    "town": "聖和台"
  }
}
