{
  "5850000": {
    "zipcode": "5850000",
    "prefectureCode": "27",
    "prefectureNumber": 27,
    "prefecture": "大阪府",
    "city": "南河内郡千早赤阪村",
    "town": "以下に掲載がない場合"
  },
  "5850001": {
    "zipcode": "5850001",
    "prefectureCode": "27",
    "prefectureNumber": 27,
    "prefecture": "大阪府",
    "city": "南河内郡河南町",
    "town": "東山"
  },
  "5850002": {
    "zipcode": "5850002",
    "prefectureCode": "27",
    "prefectureNumber": 27,
    "prefecture": "大阪府",
    "city": "南河内郡河南町",
    "town": "一須賀"
  },
  "5850003": {
    "zipcode": "5850003",
    "prefectureCode": "27",
    "prefectureNumber": 27,
    "prefecture": "大阪府",
    "city": "南河内郡河南町",
    "town": "大ケ塚"
  },
  "5850004": {
    "zipcode": "5850004",
    "prefectureCode": "27",
    "prefectureNumber": 27,
    "prefecture": "大阪府",
    "city": "南河内郡河南町",
    "town": "山城"
  },
  "5850005": {
    "zipcode": "5850005",
    "prefectureCode": "27",
    "prefectureNumber": 27,
    "prefecture": "大阪府",
    "city": "南河内郡河南町",
    "town": "大宝"
  },
  "5850006": {
    "zipcode": "5850006",
    "prefectureCode": "27",
    "prefectureNumber": 27,
    "prefecture": "大阪府",
    "city": "南河内郡河南町",
    "town": "葉室"
  },
  "5850011": {
    "zipcode": "5850011",
    "prefectureCode": "27",
    "prefectureNumber": 27,
    "prefecture": "大阪府",
    "city": "南河内郡河南町",
    "town": "寺田"
  },
  "5850012": {
    "zipcode": "5850012",
    "prefectureCode": "27",
    "prefectureNumber": 27,
    "prefecture": "大阪府",
    "city": "南河内郡河南町",
    "town": "加納"
  },
  "5850013": {
    "zipcode": "5850013",
    "prefectureCode": "27",
    "prefectureNumber": 27,
    "prefecture": "大阪府",
    "city": "南河内郡河南町",
    "town": "平石"
  },
  "5850014": {
    "zipcode": "5850014",
    "prefectureCode": "27",
    "prefectureNumber": 27,
    "prefecture": "大阪府",
    "city": "南河内郡河南町",
    "town": "白木"
  },
  "5850021": {
    "zipcode": "5850021",
    "prefectureCode": "27",
    "prefectureNumber": 27,
    "prefecture": "大阪府",
    "city": "南河内郡河南町",
    "town": "持尾"
  },
  "5850022": {
    "zipcode": "5850022",
    "prefectureCode": "27",
    "prefectureNumber": 27,
    "prefecture": "大阪府",
    "city": "南河内郡河南町",
    "town": "弘川"
  },
  "5850023": {
    "zipcode": "5850023",
    "prefectureCode": "27",
    "prefectureNumber": 27,
    "prefecture": "大阪府",
    "city": "南河内郡河南町",
    "town": "下河内"
  },
  "5850024": {
    "zipcode": "5850024",
    "prefectureCode": "27",
    "prefectureNumber": 27,
    "prefecture": "大阪府",
    "city": "南河内郡河南町",
    "town": "上河内"
  },
  "5850025": {
    "zipcode": "5850025",
    "prefectureCode": "27",
    "prefectureNumber": 27,
    "prefecture": "大阪府",
    "city": "南河内郡河南町",
    "town": "さくら坂"
  },
  "5850026": {
    "zipcode": "5850026",
    "prefectureCode": "27",
    "prefectureNumber": 27,
    "prefecture": "大阪府",
    "city": "南河内郡河南町",
    "town": "鈴美台"
  },
  "5850027": {
    "zipcode": "5850027",
    "prefectureCode": "27",
    "prefectureNumber": 27,
    "prefecture": "大阪府",
    "city": "南河内郡河南町",
    "town": "さくら坂南"
  },
  "5850031": {
    "zipcode": "5850031",
    "prefectureCode": "27",
    "prefectureNumber": 27,
    "prefecture": "大阪府",
    "city": "南河内郡河南町",
    "town": "中"
  },
  "5850032": {
    "zipcode": "5850032",
    "prefectureCode": "27",
    "prefectureNumber": 27,
    "prefecture": "大阪府",
    "city": "南河内郡河南町",
    "town": "馬谷"
  },
  "5850033": {
    "zipcode": "5850033",
    "prefectureCode": "27",
    "prefectureNumber": 27,
    "prefecture": "大阪府",
    "city": "南河内郡河南町",
    "town": "芹生谷"
  },
  "5850034": {
    "zipcode": "5850034",
    "prefectureCode": "27",
    "prefectureNumber": 27,
    "prefecture": "大阪府",
    "city": "南河内郡河南町",
    "town": "神山"
  },
  "5850035": {
    "zipcode": "5850035",
    "prefectureCode": "27",
    "prefectureNumber": 27,
    "prefecture": "大阪府",
    "city": "南河内郡河南町",
    "town": "寛弘寺"
  },
  "5850041": {
    "zipcode": "5850041",
    "prefectureCode": "27",
    "prefectureNumber": 27,
    "prefecture": "大阪府",
    "city": "南河内郡千早赤阪村",
    "town": "水分"
  },
  "5850042": {
    "zipcode": "5850042",
    "prefectureCode": "27",
    "prefectureNumber": 27,
    "prefecture": "大阪府",
    "city": "南河内郡千早赤阪村",
    "town": "二河原辺"
  },
  "5850043": {
    "zipcode": "5850043",
    "prefectureCode": "27",
    "prefectureNumber": 27,
    "prefecture": "大阪府",
    "city": "南河内郡千早赤阪村",
    "town": "桐山"
  },
  "5850044": {
    "zipcode": "5850044",
    "prefectureCode": "27",
    "prefectureNumber": 27,
    "prefecture": "大阪府",
    "city": "南河内郡千早赤阪村",
    "town": "森屋"
  },
  "5850045": {
    "zipcode": "5850045",
    "prefectureCode": "27",
    "prefectureNumber": 27,
    "prefecture": "大阪府",
    "city": "南河内郡千早赤阪村",
    "town": "川野辺"
  },
  "5850051": {
    "zipcode": "5850051",
    "prefectureCode": "27",
    "prefectureNumber": 27,
    "prefecture": "大阪府",
    "city": "南河内郡千早赤阪村",
    "town": "千早"
  },
  "5850052": {
    "zipcode": "5850052",
    "prefectureCode": "27",
    "prefectureNumber": 27,
    "prefecture": "大阪府",
    "city": "南河内郡千早赤阪村",
    "town": "中津原"
  },
  "5850053": {
    "zipcode": "5850053",
    "prefectureCode": "27",
    "prefectureNumber": 27,
    "prefecture": "大阪府",
    "city": "南河内郡千早赤阪村",
    "town": "小吹"
  },
  "5850054": {
    "zipcode": "5850054",
    "prefectureCode": "27",
    "prefectureNumber": 27,
    "prefecture": "大阪府",
    "city": "南河内郡千早赤阪村",
    "town": "吉年"
  },
  "5850055": {
    "zipcode": "5850055",
    "prefectureCode": "27",
    "prefectureNumber": 27,
    "prefecture": "大阪府",
    "city": "南河内郡千早赤阪村",
    "town": "東阪"
  }
}
