{
  "5860000": {
    "zipcode": "5860000",
    "prefectureCode": "27",
    "prefectureNumber": 27,
    "prefecture": "大阪府",
    "city": "河内長野市",
    "town": "以下に掲載がない場合"
  },
  "5860001": {
    "zipcode": "5860001",
    "prefectureCode": "27",
    "prefectureNumber": 27,
    "prefecture": "大阪府",
    "city": "河内長野市",
    "town": "木戸町"
  },
  "5860002": {
    "zipcode": "5860002",
    "prefectureCode": "27",
    "prefectureNumber": 27,
    "prefecture": "大阪府",
    "city": "河内長野市",
    "town": "市町"
  },
  "5860003": {
    "zipcode": "5860003",
    "prefectureCode": "27",
    "prefectureNumber": 27,
    "prefecture": "大阪府",
    "city": "河内長野市",
    "town": "楠町東"
  },
  "5860004": {
    "zipcode": "5860004",
    "prefectureCode": "27",
    "prefectureNumber": 27,
    "prefecture": "大阪府",
    "city": "河内長野市",
    "town": "楠町西"
  },
  "5860005": {
    "zipcode": "5860005",
    "prefectureCode": "27",
    "prefectureNumber": 27,
    "prefecture": "大阪府",
    "city": "河内長野市",
    "town": "松ケ丘西町"
  },
  "5860006": {
    "zipcode": "5860006",
    "prefectureCode": "27",
    "prefectureNumber": 27,
    "prefecture": "大阪府",
    "city": "河内長野市",
    "town": "松ケ丘中町"
  },
  "5860007": {
    "zipcode": "5860007",
    "prefectureCode": "27",
    "prefectureNumber": 27,
    "prefecture": "大阪府",
    "city": "河内長野市",
    "town": "松ケ丘東町"
  },
  "5860008": {
    "zipcode": "5860008",
    "prefectureCode": "27",
    "prefectureNumber": 27,
    "prefecture": "大阪府",
    "city": "河内長野市",
    "town": "木戸東町"
  },
  "5860009": {
    "zipcode": "5860009",
    "prefectureCode": "27",
    "prefectureNumber": 27,
    "prefecture": "大阪府",
    "city": "河内長野市",
    "town": "木戸西町"
  },
  "5860011": {
    "zipcode": "5860011",
    "prefectureCode": "27",
    "prefectureNumber": 27,
    "prefecture": "大阪府",
    "city": "河内長野市",
    "town": "汐の宮町"
  },
  "5860012": {
    "zipcode": "5860012",
    "prefectureCode": "27",
    "prefectureNumber": 27,
    "prefecture": "大阪府",
    "city": "河内長野市",
    "town": "菊水町"
  },
  "5860013": {
    "zipcode": "5860013",
    "prefectureCode": "27",
    "prefectureNumber": 27,
    "prefecture": "大阪府",
    "city": "河内長野市",
    "town": "向野町"
  },
  "5860014": {
    "zipcode": "5860014",
    "prefectureCode": "27",
    "prefectureNumber": 27,
    "prefecture": "大阪府",
    "city": "河内長野市",
    "town": "長野町"
  },
  "5860015": {
    "zipcode": "5860015",
    "prefectureCode": "27",
    "prefectureNumber": 27,
    "prefecture": "大阪府",
    "city": "河内長野市",
    "town": "本町"
  },
  "5860016": {
    "zipcode": "5860016",
    "prefectureCode": "27",
    "prefectureNumber": 27,
    "prefecture": "大阪府",
    "city": "河内長野市",
    "town": "西代町"
  },
  "5860017": {
    "zipcode": "5860017",
    "prefectureCode": "27",
    "prefectureNumber": 27,
    "prefecture": "大阪府",
    "city": "河内長野市",
    "town": "古野町"
  },
  "5860018": {
    "zipcode": "5860018",
    "prefectureCode": "27",
    "prefectureNumber": 27,
    "prefecture": "大阪府",
    "city": "河内長野市",
    "town": "千代田南町"
  },
  "5860021": {
    "zipcode": "5860021",
    "prefectureCode": "27",
    "prefectureNumber": 27,
    "prefecture": "大阪府",
    "city": "河内長野市",
    "town": "原町"
  },
  "5860022": {
    "zipcode": "5860022",
    "prefectureCode": "27",
    "prefectureNumber": 27,
    "prefecture": "大阪府",
    "city": "河内長野市",
    "town": "本多町"
  },
  "5860023": {
    "zipcode": "5860023",
    "prefectureCode": "27",
    "prefectureNumber": 27,
    "prefecture": "大阪府",
    "city": "河内長野市",
    "town": "野作町"
  },
  "5860024": {
    "zipcode": "5860024",
    "prefectureCode": "27",
    "prefectureNumber": 27,
    "prefecture": "大阪府",
    "city": "河内長野市",
    "town": "西之山町"
  },
  "5860025": {
    "zipcode": "5860025",
    "prefectureCode": "27",
    "prefectureNumber": 27,
    "prefecture": "大阪府",
    "city": "河内長野市",
    "town": "昭栄町"
  },
  "5860026": {
    "zipcode": "5860026",
    "prefectureCode": "27",
    "prefectureNumber": 27,
    "prefecture": "大阪府",
    "city": "河内長野市",
    "town": "寿町"
  },
  "5860027": {
    "zipcode": "5860027",
    "prefectureCode": "27",
    "prefectureNumber": 27,
    "prefecture": "大阪府",
    "city": "河内長野市",
    "town": "千代田台町"
  },
  "5860031": {
    "zipcode": "5860031",
    "prefectureCode": "27",
    "prefectureNumber": 27,
    "prefecture": "大阪府",
    "city": "河内長野市",
    "town": "錦町"
  },
  "5860032": {
    "zipcode": "5860032",
    "prefectureCode": "27",
    "prefectureNumber": 27,
    "prefecture": "大阪府",
    "city": "河内長野市",
    "town": "栄町"
  },
  "5860033": {
    "zipcode": "5860033",
    "prefectureCode": "27",
    "prefectureNumber": 27,
    "prefecture": "大阪府",
    "city": "河内長野市",
    "town": "喜多町"
  },
  "5860034": {
    "zipcode": "5860034",
    "prefectureCode": "27",
    "prefectureNumber": 27,
    "prefecture": "大阪府",
    "city": "河内長野市",
    "town": "上田町"
  },
  "5860035": {
    "zipcode": "5860035",
    "prefectureCode": "27",
    "prefectureNumber": 27,
    "prefecture": "大阪府",
    "city": "河内長野市",
    "town": "小塩町"
  },
  "5860036": {
    "zipcode": "5860036",
    "prefectureCode": "27",
    "prefectureNumber": 27,
    "prefecture": "大阪府",
    "city": "河内長野市",
    "town": "高向"
  },
  "5860037": {
    "zipcode": "5860037",
    "prefectureCode": "27",
    "prefectureNumber": 27,
    "prefecture": "大阪府",
    "city": "河内長野市",
    "town": "上原町"
  },
  "5860038": {
    "zipcode": "5860038",
    "prefectureCode": "27",
    "prefectureNumber": 27,
    "prefecture": "大阪府",
    "city": "河内長野市",
    "town": "上原西町"
  },
  "5860039": {
    "zipcode": "5860039",
    "prefectureCode": "27",
    "prefectureNumber": 27,
    "prefecture": "大阪府",
    "city": "河内長野市",
    "town": "楠ケ丘"
  },
  "5860041": {
    "zipcode": "5860041",
    "prefectureCode": "27",
    "prefectureNumber": 27,
    "prefecture": "大阪府",
    "city": "河内長野市",
    "town": "大師町"
  },
  "5860042": {
    "zipcode": "5860042",
    "prefectureCode": "27",
    "prefectureNumber": 27,
    "prefecture": "大阪府",
    "city": "河内長野市",
    "town": "日東町"
  },
  "5860043": {
    "zipcode": "5860043",
    "prefectureCode": "27",
    "prefectureNumber": 27,
    "prefecture": "大阪府",
    "city": "河内長野市",
    "town": "清見台"
  },
  "5860044": {
    "zipcode": "5860044",
    "prefectureCode": "27",
    "prefectureNumber": 27,
    "prefecture": "大阪府",
    "city": "河内長野市",
    "town": "美加の台"
  },
  "5860045": {
    "zipcode": "5860045",
    "prefectureCode": "27",
    "prefectureNumber": 27,
    "prefecture": "大阪府",
    "city": "河内長野市",
    "town": "東片添町"
  },
  "5860046": {
    "zipcode": "5860046",
    "prefectureCode": "27",
    "prefectureNumber": 27,
    "prefecture": "大阪府",
    "city": "河内長野市",
    "town": "中片添町"
  },
  "5860047": {
    "zipcode": "5860047",
    "prefectureCode": "27",
    "prefectureNumber": 27,
    "prefecture": "大阪府",
    "city": "河内長野市",
    "town": "西片添町"
  },
  "5860048": {
    "zipcode": "5860048",
    "prefectureCode": "27",
    "prefectureNumber": 27,
    "prefecture": "大阪府",
    "city": "河内長野市",
    "town": "三日市町"
  },
  "5860051": {
    "zipcode": "5860051",
    "prefectureCode": "27",
    "prefectureNumber": 27,
    "prefecture": "大阪府",
    "city": "河内長野市",
    "town": "末広町"
  },
  "5860052": {
    "zipcode": "5860052",
    "prefectureCode": "27",
    "prefectureNumber": 27,
    "prefecture": "大阪府",
    "city": "河内長野市",
    "town": "河合寺"
  },
  "5860053": {
    "zipcode": "5860053",
    "prefectureCode": "27",
    "prefectureNumber": 27,
    "prefecture": "大阪府",
    "city": "河内長野市",
    "town": "寺元"
  },
  "5860054": {
    "zipcode": "5860054",
    "prefectureCode": "27",
    "prefectureNumber": 27,
    "prefecture": "大阪府",
    "city": "河内長野市",
    "town": "神ガ丘"
  },
  "5860055": {
    "zipcode": "5860055",
    "prefectureCode": "27",
    "prefectureNumber": 27,
    "prefecture": "大阪府",
    "city": "河内長野市",
    "town": "鳩原"
  },
  "5860056": {
    "zipcode": "5860056",
    "prefectureCode": "27",
    "prefectureNumber": 27,
    "prefecture": "大阪府",
    "city": "河内長野市",
    "town": "太井"
  },
  "5860057": {
    "zipcode": "5860057",
    "prefectureCode": "27",
    "prefectureNumber": 27,
    "prefecture": "大阪府",
    "city": "河内長野市",
    "town": "小深"
  },
  "5860058": {
    "zipcode": "5860058",
    "prefectureCode": "27",
    "prefectureNumber": 27,
    "prefecture": "大阪府",
    "city": "河内長野市",
    "town": "石見川"
  },
  "5860061": {
    "zipcode": "5860061",
    "prefectureCode": "27",
    "prefectureNumber": 27,
    "prefecture": "大阪府",
    "city": "河内長野市",
    "town": "岩瀬"
  },
  "5860062": {
    "zipcode": "5860062",
    "prefectureCode": "27",
    "prefectureNumber": 27,
    "prefecture": "大阪府",
    "city": "河内長野市",
    "town": "天見"
  },
  "5860063": {
    "zipcode": "5860063",
    "prefectureCode": "27",
    "prefectureNumber": 27,
    "prefecture": "大阪府",
    "city": "河内長野市",
    "town": "流谷"
  },
  "5860064": {
    "zipcode": "5860064",
    "prefectureCode": "27",
    "prefectureNumber": 27,
    "prefecture": "大阪府",
    "city": "河内長野市",
    "town": "唐久谷"
  },
  "5860065": {
    "zipcode": "5860065",
    "prefectureCode": "27",
    "prefectureNumber": 27,
    "prefecture": "大阪府",
    "city": "河内長野市",
    "town": "南ケ丘"
  },
  "5860066": {
    "zipcode": "5860066",
    "prefectureCode": "27",
    "prefectureNumber": 27,
    "prefecture": "大阪府",
    "city": "河内長野市",
    "town": "清水"
  },
  "5860067": {
    "zipcode": "5860067",
    "prefectureCode": "27",
    "prefectureNumber": 27,
    "prefecture": "大阪府",
    "city": "河内長野市",
    "town": "南青葉台"
  },
  "5860068": {
    "zipcode": "5860068",
    "prefectureCode": "27",
    "prefectureNumber": 27,
    "prefecture": "大阪府",
    "city": "河内長野市",
    "town": "北青葉台"
  },
  "5860069": {
    "zipcode": "5860069",
    "prefectureCode": "27",
    "prefectureNumber": 27,
    "prefecture": "大阪府",
    "city": "河内長野市",
    "town": "石仏"
  },
  "5860071": {
    "zipcode": "5860071",
    "prefectureCode": "27",
    "prefectureNumber": 27,
    "prefecture": "大阪府",
    "city": "河内長野市",
    "town": "加賀田"
  },
  "5860072": {
    "zipcode": "5860072",
    "prefectureCode": "27",
    "prefectureNumber": 27,
    "prefecture": "大阪府",
    "city": "河内長野市",
    "town": "滝畑"
  },
  "5860073": {
    "zipcode": "5860073",
    "prefectureCode": "27",
    "prefectureNumber": 27,
    "prefecture": "大阪府",
    "city": "河内長野市",
    "town": "大矢船西町"
  },
  "5860074": {
    "zipcode": "5860074",
    "prefectureCode": "27",
    "prefectureNumber": 27,
    "prefecture": "大阪府",
    "city": "河内長野市",
    "town": "大矢船南町"
  },
  "5860075": {
    "zipcode": "5860075",
    "prefectureCode": "27",
    "prefectureNumber": 27,
    "prefecture": "大阪府",
    "city": "河内長野市",
    "town": "大矢船中町"
  },
  "5860076": {
    "zipcode": "5860076",
    "prefectureCode": "27",
    "prefectureNumber": 27,
    "prefecture": "大阪府",
    "city": "河内長野市",
    "town": "大矢船北町"
  },
  "5860077": {
    "zipcode": "5860077",
    "prefectureCode": "27",
    "prefectureNumber": 27,
    "prefecture": "大阪府",
    "city": "河内長野市",
    "town": "南花台"
  },
  "5860081": {
    "zipcode": "5860081",
    "prefectureCode": "27",
    "prefectureNumber": 27,
    "prefecture": "大阪府",
    "city": "河内長野市",
    "town": "緑ケ丘北町"
  },
  "5860082": {
    "zipcode": "5860082",
    "prefectureCode": "27",
    "prefectureNumber": 27,
    "prefecture": "大阪府",
    "city": "河内長野市",
    "town": "緑ケ丘中町"
  },
  "5860083": {
    "zipcode": "5860083",
    "prefectureCode": "27",
    "prefectureNumber": 27,
    "prefecture": "大阪府",
    "city": "河内長野市",
    "town": "緑ケ丘南町"
  },
  "5860084": {
    "zipcode": "5860084",
    "prefectureCode": "27",
    "prefectureNumber": 27,
    "prefecture": "大阪府",
    "city": "河内長野市",
    "town": "旭ケ丘"
  },
  "5860085": {
    "zipcode": "5860085",
    "prefectureCode": "27",
    "prefectureNumber": 27,
    "prefecture": "大阪府",
    "city": "河内長野市",
    "town": "日野"
  },
  "5860086": {
    "zipcode": "5860086",
    "prefectureCode": "27",
    "prefectureNumber": 27,
    "prefecture": "大阪府",
    "city": "河内長野市",
    "town": "天野町"
  },
  "5860087": {
    "zipcode": "5860087",
    "prefectureCode": "27",
    "prefectureNumber": 27,
    "prefecture": "大阪府",
    "city": "河内長野市",
    "town": "下里町"
  },
  "5860091": {
    "zipcode": "5860091",
    "prefectureCode": "27",
    "prefectureNumber": 27,
    "prefecture": "大阪府",
    "city": "河内長野市",
    "town": "北貴望ケ丘"
  },
  "5860092": {
    "zipcode": "5860092",
    "prefectureCode": "27",
    "prefectureNumber": 27,
    "prefecture": "大阪府",
    "city": "河内長野市",
    "town": "南貴望ケ丘"
  },
  "5860093": {
    "zipcode": "5860093",
    "prefectureCode": "27",
    "prefectureNumber": 27,
    "prefecture": "大阪府",
    "city": "河内長野市",
    "town": "荘園町"
  },
  "5860094": {
    "zipcode": "5860094",
    "prefectureCode": "27",
    "prefectureNumber": 27,
    "prefecture": "大阪府",
    "city": "河内長野市",
    "town": "小山田町"
  },
  "5860095": {
    "zipcode": "5860095",
    "prefectureCode": "27",
    "prefectureNumber": 27,
    "prefecture": "大阪府",
    "city": "河内長野市",
    "town": "あかしあ台"
  },
  "5860096": {
    "zipcode": "5860096",
    "prefectureCode": "27",
    "prefectureNumber": 27,
    "prefecture": "大阪府",
    "city": "河内長野市",
    "town": "自由ケ丘"
  },
  "5860097": {
    "zipcode": "5860097",
    "prefectureCode": "27",
    "prefectureNumber": 27,
    "prefecture": "大阪府",
    "city": "河内長野市",
    "town": "桐ケ丘"
  }
}
