{
  "5870000": {
    "zipcode": "5870000",
    "prefectureCode": "27",
    "prefectureNumber": 27,
    "prefecture": "大阪府",
    "city": "堺市美原区",
    "town": "以下に掲載がない場合"
  },
  "5870001": {
    "zipcode": "5870001",
    "prefectureCode": "27",
    "prefectureNumber": 27,
    "prefecture": "大阪府",
    "city": "堺市美原区",
    "town": "大保"
  },
  "5870002": {
    "zipcode": "5870002",
    "prefectureCode": "27",
    "prefectureNumber": 27,
    "prefecture": "大阪府",
    "city": "堺市美原区",
    "town": "黒山"
  },
  "5870003": {
    "zipcode": "5870003",
    "prefectureCode": "27",
    "prefectureNumber": 27,
    "prefecture": "大阪府",
    "city": "堺市美原区",
    "town": "阿弥"
  },
  "5870011": {
    "zipcode": "5870011",
    "prefectureCode": "27",
    "prefectureNumber": 27,
    "prefecture": "大阪府",
    "city": "堺市美原区",
    "town": "丹上"
  },
  "5870012": {
    "zipcode": "5870012",
    "prefectureCode": "27",
    "prefectureNumber": 27,
    "prefecture": "大阪府",
    "city": "堺市美原区",
    "town": "多治井"
  },
  "5870013": {
    "zipcode": "5870013",
    "prefectureCode": "27",
    "prefectureNumber": 27,
    "prefecture": "大阪府",
    "city": "堺市美原区",
    "town": "真福寺"
  },
  "5870014": {
    "zipcode": "5870014",
    "prefectureCode": "27",
    "prefectureNumber": 27,
    "prefecture": "大阪府",
    "city": "堺市美原区",
    "town": "丹南"
  },
  "5870021": {
    "zipcode": "5870021",
    "prefectureCode": "27",
    "prefectureNumber": 27,
    "prefecture": "大阪府",
    "city": "堺市美原区",
    "town": "小平尾"
  },
  "5870022": {
    "zipcode": "5870022",
    "prefectureCode": "27",
    "prefectureNumber": 27,
    "prefecture": "大阪府",
    "city": "堺市美原区",
    "town": "平尾"
  },
  "5870031": {
    "zipcode": "5870031",
    "prefectureCode": "27",
    "prefectureNumber": 27,
    "prefecture": "大阪府",
    "city": "堺市美原区",
    "town": "さつき野西"
  },
  "5870032": {
    "zipcode": "5870032",
    "prefectureCode": "27",
    "prefectureNumber": 27,
    "prefecture": "大阪府",
    "city": "堺市美原区",
    "town": "さつき野東"
  },
  "5870041": {
    "zipcode": "5870041",
    "prefectureCode": "27",
    "prefectureNumber": 27,
    "prefecture": "大阪府",
    "city": "堺市美原区",
    "town": "菅生"
  },
  "5870042": {
    "zipcode": "5870042",
    "prefectureCode": "27",
    "prefectureNumber": 27,
    "prefecture": "大阪府",
    "city": "堺市美原区",
    "town": "木材通"
  },
  "5870043": {
    "zipcode": "5870043",
    "prefectureCode": "27",
    "prefectureNumber": 27,
    "prefecture": "大阪府",
    "city": "堺市美原区",
    "town": "青南台"
  },
  "5870051": {
    "zipcode": "5870051",
    "prefectureCode": "27",
    "prefectureNumber": 27,
    "prefecture": "大阪府",
    "city": "堺市美原区",
    "town": "北余部"
  },
  "5870052": {
    "zipcode": "5870052",
    "prefectureCode": "27",
    "prefectureNumber": 27,
    "prefecture": "大阪府",
    "city": "堺市美原区",
    "town": "南余部"
  },
  "5870053": {
    "zipcode": "5870053",
    "prefectureCode": "27",
    "prefectureNumber": 27,
    "prefecture": "大阪府",
    "city": "堺市美原区",
    "town": "北余部西"
  },
  "5870054": {
    "zipcode": "5870054",
    "prefectureCode": "27",
    "prefectureNumber": 27,
    "prefecture": "大阪府",
    "city": "堺市美原区",
    "town": "南余部西"
  },
  "5870061": {
    "zipcode": "5870061",
    "prefectureCode": "27",
    "prefectureNumber": 27,
    "prefecture": "大阪府",
    "city": "堺市美原区",
    "town": "今井"
  },
  "5870062": {
    "zipcode": "5870062",
    "prefectureCode": "27",
    "prefectureNumber": 27,
    "prefecture": "大阪府",
    "city": "堺市美原区",
    "town": "太井"
  },
  "5870063": {
    "zipcode": "5870063",
    "prefectureCode": "27",
    "prefectureNumber": 27,
    "prefecture": "大阪府",
    "city": "堺市美原区",
    "town": "大饗"
  },
  "5870064": {
    "zipcode": "5870064",
    "prefectureCode": "27",
    "prefectureNumber": 27,
    "prefecture": "大阪府",
    "city": "堺市美原区",
    "town": "菩提"
  },
  "5870065": {
    "zipcode": "5870065",
    "prefectureCode": "27",
    "prefectureNumber": 27,
    "prefecture": "大阪府",
    "city": "堺市美原区",
    "town": "小寺"
  },
  "5870066": {
    "zipcode": "5870066",
    "prefectureCode": "27",
    "prefectureNumber": 27,
    "prefecture": "大阪府",
    "city": "堺市美原区",
    "town": "石原"
  }
}
