{
  "5890000": {
    "zipcode": "5890000",
    "prefectureCode": "27",
    "prefectureNumber": 27,
    "prefecture": "大阪府",
    "city": "大阪狭山市",
    "town": "以下に掲載がない場合"
  },
  "5890001": {
    "zipcode": "5890001",
    "prefectureCode": "27",
    "prefectureNumber": 27,
    "prefecture": "大阪府",
    "city": "大阪狭山市",
    "town": "東野西"
  },
  "5890002": {
    "zipcode": "5890002",
    "prefectureCode": "27",
    "prefectureNumber": 27,
    "prefecture": "大阪府",
    "city": "大阪狭山市",
    "town": "東野中"
  },
  "5890003": {
    "zipcode": "5890003",
    "prefectureCode": "27",
    "prefectureNumber": 27,
    "prefecture": "大阪府",
    "city": "大阪狭山市",
    "town": "東野東"
  },
  "5890004": {
    "zipcode": "5890004",
    "prefectureCode": "27",
    "prefectureNumber": 27,
    "prefecture": "大阪府",
    "city": "大阪狭山市",
    "town": "東池尻"
  },
  "5890005": {
    "zipcode": "5890005",
    "prefectureCode": "27",
    "prefectureNumber": 27,
    "prefecture": "大阪府",
    "city": "大阪狭山市",
    "town": "狭山"
  },
  "5890006": {
    "zipcode": "5890006",
    "prefectureCode": "27",
    "prefectureNumber": 27,
    "prefecture": "大阪府",
    "city": "大阪狭山市",
    "town": "金剛"
  },
  "5890007": {
    "zipcode": "5890007",
    "prefectureCode": "27",
    "prefectureNumber": 27,
    "prefecture": "大阪府",
    "city": "大阪狭山市",
    "town": "池尻中"
  },
  "5890008": {
    "zipcode": "5890008",
    "prefectureCode": "27",
    "prefectureNumber": 27,
    "prefecture": "大阪府",
    "city": "大阪狭山市",
    "town": "池尻自由丘"
  },
  "5890009": {
    "zipcode": "5890009",
    "prefectureCode": "27",
    "prefectureNumber": 27,
    "prefecture": "大阪府",
    "city": "大阪狭山市",
    "town": "池尻北"
  },
  "5890011": {
    "zipcode": "5890011",
    "prefectureCode": "27",
    "prefectureNumber": 27,
    "prefecture": "大阪府",
    "city": "大阪狭山市",
    "town": "半田"
  },
  "5890012": {
    "zipcode": "5890012",
    "prefectureCode": "27",
    "prefectureNumber": 27,
    "prefecture": "大阪府",
    "city": "大阪狭山市",
    "town": "東茱萸木"
  },
  "5890013": {
    "zipcode": "5890013",
    "prefectureCode": "27",
    "prefectureNumber": 27,
    "prefecture": "大阪府",
    "city": "大阪狭山市",
    "town": "茱萸木"
  },
  "5890014": {
    "zipcode": "5890014",
    "prefectureCode": "27",
    "prefectureNumber": 27,
    "prefecture": "大阪府",
    "city": "大阪狭山市",
    "town": "大野東"
  },
  "5890015": {
    "zipcode": "5890015",
    "prefectureCode": "27",
    "prefectureNumber": 27,
    "prefecture": "大阪府",
    "city": "大阪狭山市",
    "town": "大野中"
  },
  "5890016": {
    "zipcode": "5890016",
    "prefectureCode": "27",
    "prefectureNumber": 27,
    "prefecture": "大阪府",
    "city": "大阪狭山市",
    "town": "大野西"
  },
  "5890021": {
    "zipcode": "5890021",
    "prefectureCode": "27",
    "prefectureNumber": 27,
    "prefecture": "大阪府",
    "city": "大阪狭山市",
    "town": "今熊"
  },
  "5890022": {
    "zipcode": "5890022",
    "prefectureCode": "27",
    "prefectureNumber": 27,
    "prefecture": "大阪府",
    "city": "大阪狭山市",
    "town": "西山台"
  },
  "5890023": {
    "zipcode": "5890023",
    "prefectureCode": "27",
    "prefectureNumber": 27,
    "prefecture": "大阪府",
    "city": "大阪狭山市",
    "town": "大野台"
  },
  "5890031": {
    "zipcode": "5890031",
    "prefectureCode": "27",
    "prefectureNumber": 27,
    "prefecture": "大阪府",
    "city": "大阪狭山市",
    "town": "池之原"
  },
  "5890032": {
    "zipcode": "5890032",
    "prefectureCode": "27",
    "prefectureNumber": 27,
    "prefecture": "大阪府",
    "city": "大阪狭山市",
    "town": "岩室"
  },
  "5890033": {
    "zipcode": "5890033",
    "prefectureCode": "27",
    "prefectureNumber": 27,
    "prefecture": "大阪府",
    "city": "大阪狭山市",
    "town": "山本南"
  },
  "5890034": {
    "zipcode": "5890034",
    "prefectureCode": "27",
    "prefectureNumber": 27,
    "prefecture": "大阪府",
    "city": "大阪狭山市",
    "town": "山本中"
  },
  "5890035": {
    "zipcode": "5890035",
    "prefectureCode": "27",
    "prefectureNumber": 27,
    "prefecture": "大阪府",
    "city": "大阪狭山市",
    "town": "山本北"
  },
  "5890036": {
    "zipcode": "5890036",
    "prefectureCode": "27",
    "prefectureNumber": 27,
    "prefecture": "大阪府",
    "city": "大阪狭山市",
    "town": "山本東"
  }
}
