{
  "5910000": {
    "zipcode": "5910000",
    "prefectureCode": "27",
    "prefectureNumber": 27,
    "prefecture": "大阪府",
    "city": "堺市北区",
    "town": "以下に掲載がない場合"
  },
  "5918001": {
    "zipcode": "5918001",
    "prefectureCode": "27",
    "prefectureNumber": 27,
    "prefecture": "大阪府",
    "city": "堺市北区",
    "town": "常磐町"
  },
  "5918002": {
    "zipcode": "5918002",
    "prefectureCode": "27",
    "prefectureNumber": 27,
    "prefecture": "大阪府",
    "city": "堺市北区",
    "town": "北花田町"
  },
  "5918003": {
    "zipcode": "5918003",
    "prefectureCode": "27",
    "prefectureNumber": 27,
    "prefecture": "大阪府",
    "city": "堺市北区",
    "town": "船堂町"
  },
  "5918004": {
    "zipcode": "5918004",
    "prefectureCode": "27",
    "prefectureNumber": 27,
    "prefecture": "大阪府",
    "city": "堺市北区",
    "town": "蔵前町"
  },
  "5918005": {
    "zipcode": "5918005",
    "prefectureCode": "27",
    "prefectureNumber": 27,
    "prefecture": "大阪府",
    "city": "堺市北区",
    "town": "新堀町"
  },
  "5918006": {
    "zipcode": "5918006",
    "prefectureCode": "27",
    "prefectureNumber": 27,
    "prefecture": "大阪府",
    "city": "堺市北区",
    "town": "宮本町"
  },
  "5918007": {
    "zipcode": "5918007",
    "prefectureCode": "27",
    "prefectureNumber": 27,
    "prefecture": "大阪府",
    "city": "堺市北区",
    "town": "奥本町"
  },
  "5918008": {
    "zipcode": "5918008",
    "prefectureCode": "27",
    "prefectureNumber": 27,
    "prefecture": "大阪府",
    "city": "堺市北区",
    "town": "東浅香山町"
  },
  "5918011": {
    "zipcode": "5918011",
    "prefectureCode": "27",
    "prefectureNumber": 27,
    "prefecture": "大阪府",
    "city": "堺市北区",
    "town": "南花田町"
  },
  "5918012": {
    "zipcode": "5918012",
    "prefectureCode": "27",
    "prefectureNumber": 27,
    "prefecture": "大阪府",
    "city": "堺市北区",
    "town": "中村町"
  },
  "5918013": {
    "zipcode": "5918013",
    "prefectureCode": "27",
    "prefectureNumber": 27,
    "prefecture": "大阪府",
    "city": "堺市北区",
    "town": "野遠町"
  },
  "5918014": {
    "zipcode": "5918014",
    "prefectureCode": "27",
    "prefectureNumber": 27,
    "prefecture": "大阪府",
    "city": "堺市北区",
    "town": "八下北"
  },
  "5918021": {
    "zipcode": "5918021",
    "prefectureCode": "27",
    "prefectureNumber": 27,
    "prefecture": "大阪府",
    "city": "堺市北区",
    "town": "新金岡町"
  },
  "5918022": {
    "zipcode": "5918022",
    "prefectureCode": "27",
    "prefectureNumber": 27,
    "prefecture": "大阪府",
    "city": "堺市北区",
    "town": "金岡町"
  },
  "5918023": {
    "zipcode": "5918023",
    "prefectureCode": "27",
    "prefectureNumber": 27,
    "prefecture": "大阪府",
    "city": "堺市北区",
    "town": "中百舌鳥町"
  },
  "5918024": {
    "zipcode": "5918024",
    "prefectureCode": "27",
    "prefectureNumber": 27,
    "prefecture": "大阪府",
    "city": "堺市北区",
    "town": "黒土町"
  },
  "5918025": {
    "zipcode": "5918025",
    "prefectureCode": "27",
    "prefectureNumber": 27,
    "prefecture": "大阪府",
    "city": "堺市北区",
    "town": "長曽根町"
  },
  "5918031": {
    "zipcode": "5918031",
    "prefectureCode": "27",
    "prefectureNumber": 27,
    "prefecture": "大阪府",
    "city": "堺市北区",
    "town": "百舌鳥梅北町"
  },
  "5918032": {
    "zipcode": "5918032",
    "prefectureCode": "27",
    "prefectureNumber": 27,
    "prefecture": "大阪府",
    "city": "堺市北区",
    "town": "百舌鳥梅町"
  },
  "5918033": {
    "zipcode": "5918033",
    "prefectureCode": "27",
    "prefectureNumber": 27,
    "prefecture": "大阪府",
    "city": "堺市北区",
    "town": "百舌鳥西之町"
  },
  "5918034": {
    "zipcode": "5918034",
    "prefectureCode": "27",
    "prefectureNumber": 27,
    "prefecture": "大阪府",
    "city": "堺市北区",
    "town": "百舌鳥陵南町"
  },
  "5918035": {
    "zipcode": "5918035",
    "prefectureCode": "27",
    "prefectureNumber": 27,
    "prefecture": "大阪府",
    "city": "堺市北区",
    "town": "東上野芝町（２丁）"
  },
  "5918036": {
    "zipcode": "5918036",
    "prefectureCode": "27",
    "prefectureNumber": 27,
    "prefecture": "大阪府",
    "city": "堺市北区",
    "town": "百舌鳥本町"
  },
  "5918037": {
    "zipcode": "5918037",
    "prefectureCode": "27",
    "prefectureNumber": 27,
    "prefecture": "大阪府",
    "city": "堺市北区",
    "town": "百舌鳥赤畑町"
  },
  "5918041": {
    "zipcode": "5918041",
    "prefectureCode": "27",
    "prefectureNumber": 27,
    "prefecture": "大阪府",
    "city": "堺市北区",
    "town": "東雲東町"
  },
  "5918042": {
    "zipcode": "5918042",
    "prefectureCode": "27",
    "prefectureNumber": 27,
    "prefecture": "大阪府",
    "city": "堺市北区",
    "town": "大豆塚町"
  },
  "5918043": {
    "zipcode": "5918043",
    "prefectureCode": "27",
    "prefectureNumber": 27,
    "prefecture": "大阪府",
    "city": "堺市北区",
    "town": "北長尾町"
  },
  "5918044": {
    "zipcode": "5918044",
    "prefectureCode": "27",
    "prefectureNumber": 27,
    "prefecture": "大阪府",
    "city": "堺市北区",
    "town": "中長尾町"
  },
  "5918045": {
    "zipcode": "5918045",
    "prefectureCode": "27",
    "prefectureNumber": 27,
    "prefecture": "大阪府",
    "city": "堺市北区",
    "town": "南長尾町"
  },
  "5918046": {
    "zipcode": "5918046",
    "prefectureCode": "27",
    "prefectureNumber": 27,
    "prefecture": "大阪府",
    "city": "堺市北区",
    "town": "東三国ケ丘町"
  }
}
