{
  "5920000": {
    "zipcode": "5920000",
    "prefectureCode": "27",
    "prefectureNumber": 27,
    "prefecture": "大阪府",
    "city": "高石市",
    "town": "以下に掲載がない場合"
  },
  "5920001": {
    "zipcode": "5920001",
    "prefectureCode": "27",
    "prefectureNumber": 27,
    "prefecture": "大阪府",
    "city": "高石市",
    "town": "高砂"
  },
  "5920002": {
    "zipcode": "5920002",
    "prefectureCode": "27",
    "prefectureNumber": 27,
    "prefecture": "大阪府",
    "city": "高石市",
    "town": "羽衣公園丁"
  },
  "5920003": {
    "zipcode": "5920003",
    "prefectureCode": "27",
    "prefectureNumber": 27,
    "prefecture": "大阪府",
    "city": "高石市",
    "town": "東羽衣"
  },
  "5920004": {
    "zipcode": "5920004",
    "prefectureCode": "27",
    "prefectureNumber": 27,
    "prefecture": "大阪府",
    "city": "高石市",
    "town": "高師浜"
  },
  "5920005": {
    "zipcode": "5920005",
    "prefectureCode": "27",
    "prefectureNumber": 27,
    "prefecture": "大阪府",
    "city": "高石市",
    "town": "千代田"
  },
  "5920006": {
    "zipcode": "5920006",
    "prefectureCode": "27",
    "prefectureNumber": 27,
    "prefecture": "大阪府",
    "city": "高石市",
    "town": "高師浜丁"
  },
  "5920011": {
    "zipcode": "5920011",
    "prefectureCode": "27",
    "prefectureNumber": 27,
    "prefecture": "大阪府",
    "city": "高石市",
    "town": "加茂"
  },
  "5920012": {
    "zipcode": "5920012",
    "prefectureCode": "27",
    "prefectureNumber": 27,
    "prefecture": "大阪府",
    "city": "高石市",
    "town": "西取石"
  },
  "5920013": {
    "zipcode": "5920013",
    "prefectureCode": "27",
    "prefectureNumber": 27,
    "prefecture": "大阪府",
    "city": "高石市",
    "town": "取石"
  },
  "5920014": {
    "zipcode": "5920014",
    "prefectureCode": "27",
    "prefectureNumber": 27,
    "prefecture": "大阪府",
    "city": "高石市",
    "town": "綾園"
  },
  "5928331": {
    "zipcode": "5928331",
    "prefectureCode": "27",
    "prefectureNumber": 27,
    "prefecture": "大阪府",
    "city": "堺市西区",
    "town": "築港新町"
  },
  "5928332": {
    "zipcode": "5928332",
    "prefectureCode": "27",
    "prefectureNumber": 27,
    "prefecture": "大阪府",
    "city": "堺市西区",
    "town": "石津西町"
  },
  "5928333": {
    "zipcode": "5928333",
    "prefectureCode": "27",
    "prefectureNumber": 27,
    "prefecture": "大阪府",
    "city": "堺市西区",
    "town": "浜寺石津町西"
  },
  "5928334": {
    "zipcode": "5928334",
    "prefectureCode": "27",
    "prefectureNumber": 27,
    "prefecture": "大阪府",
    "city": "堺市西区",
    "town": "浜寺石津町中"
  },
  "5928335": {
    "zipcode": "5928335",
    "prefectureCode": "27",
    "prefectureNumber": 27,
    "prefecture": "大阪府",
    "city": "堺市西区",
    "town": "浜寺石津町東"
  },
  "5928341": {
    "zipcode": "5928341",
    "prefectureCode": "27",
    "prefectureNumber": 27,
    "prefecture": "大阪府",
    "city": "堺市西区",
    "town": "浜寺船尾町東"
  },
  "5928342": {
    "zipcode": "5928342",
    "prefectureCode": "27",
    "prefectureNumber": 27,
    "prefecture": "大阪府",
    "city": "堺市西区",
    "town": "浜寺船尾町西"
  },
  "5928343": {
    "zipcode": "5928343",
    "prefectureCode": "27",
    "prefectureNumber": 27,
    "prefecture": "大阪府",
    "city": "堺市西区",
    "town": "浜寺元町"
  },
  "5928344": {
    "zipcode": "5928344",
    "prefectureCode": "27",
    "prefectureNumber": 27,
    "prefecture": "大阪府",
    "city": "堺市西区",
    "town": "浜寺南町"
  },
  "5928345": {
    "zipcode": "5928345",
    "prefectureCode": "27",
    "prefectureNumber": 27,
    "prefecture": "大阪府",
    "city": "堺市西区",
    "town": "浜寺昭和町"
  },
  "5928346": {
    "zipcode": "5928346",
    "prefectureCode": "27",
    "prefectureNumber": 27,
    "prefecture": "大阪府",
    "city": "堺市西区",
    "town": "浜寺公園町"
  },
  "5928347": {
    "zipcode": "5928347",
    "prefectureCode": "27",
    "prefectureNumber": 27,
    "prefecture": "大阪府",
    "city": "堺市西区",
    "town": "浜寺諏訪森町西"
  },
  "5928348": {
    "zipcode": "5928348",
    "prefectureCode": "27",
    "prefectureNumber": 27,
    "prefecture": "大阪府",
    "city": "堺市西区",
    "town": "浜寺諏訪森町中"
  },
  "5928349": {
    "zipcode": "5928349",
    "prefectureCode": "27",
    "prefectureNumber": 27,
    "prefecture": "大阪府",
    "city": "堺市西区",
    "town": "浜寺諏訪森町東"
  },
  "5928351": {
    "zipcode": "5928351",
    "prefectureCode": "27",
    "prefectureNumber": 27,
    "prefecture": "大阪府",
    "city": "堺市西区",
    "town": "築港浜寺町"
  },
  "5928352": {
    "zipcode": "5928352",
    "prefectureCode": "27",
    "prefectureNumber": 27,
    "prefecture": "大阪府",
    "city": "堺市西区",
    "town": "築港浜寺西町"
  }
}
