{
  "5930000": {
    "zipcode": "5930000",
    "prefectureCode": "27",
    "prefectureNumber": 27,
    "prefecture": "大阪府",
    "city": "堺市西区",
    "town": "以下に掲載がない場合"
  },
  "5938301": {
    "zipcode": "5938301",
    "prefectureCode": "27",
    "prefectureNumber": 27,
    "prefecture": "大阪府",
    "city": "堺市西区",
    "town": "上野芝町"
  },
  "5938302": {
    "zipcode": "5938302",
    "prefectureCode": "27",
    "prefectureNumber": 27,
    "prefecture": "大阪府",
    "city": "堺市西区",
    "town": "北条町"
  },
  "5938303": {
    "zipcode": "5938303",
    "prefectureCode": "27",
    "prefectureNumber": 27,
    "prefecture": "大阪府",
    "city": "堺市西区",
    "town": "上野芝向ヶ丘町"
  },
  "5938304": {
    "zipcode": "5938304",
    "prefectureCode": "27",
    "prefectureNumber": 27,
    "prefecture": "大阪府",
    "city": "堺市西区",
    "town": "家原寺町"
  },
  "5938305": {
    "zipcode": "5938305",
    "prefectureCode": "27",
    "prefectureNumber": 27,
    "prefecture": "大阪府",
    "city": "堺市西区",
    "town": "堀上緑町"
  },
  "5938306": {
    "zipcode": "5938306",
    "prefectureCode": "27",
    "prefectureNumber": 27,
    "prefecture": "大阪府",
    "city": "堺市西区",
    "town": "八田寺町（４０−１〜４０−３番地）"
  },
  "5938307": {
    "zipcode": "5938307",
    "prefectureCode": "27",
    "prefectureNumber": 27,
    "prefecture": "大阪府",
    "city": "堺市西区",
    "town": "平岡町"
  },
  "5938308": {
    "zipcode": "5938308",
    "prefectureCode": "27",
    "prefectureNumber": 27,
    "prefecture": "大阪府",
    "city": "堺市西区",
    "town": "神野町"
  },
  "5938311": {
    "zipcode": "5938311",
    "prefectureCode": "27",
    "prefectureNumber": 27,
    "prefecture": "大阪府",
    "city": "堺市西区",
    "town": "上"
  },
  "5938312": {
    "zipcode": "5938312",
    "prefectureCode": "27",
    "prefectureNumber": 27,
    "prefecture": "大阪府",
    "city": "堺市西区",
    "town": "草部"
  },
  "5938313": {
    "zipcode": "5938313",
    "prefectureCode": "27",
    "prefectureNumber": 27,
    "prefecture": "大阪府",
    "city": "堺市西区",
    "town": "小代（２９２−１番地）"
  },
  "5938314": {
    "zipcode": "5938314",
    "prefectureCode": "27",
    "prefectureNumber": 27,
    "prefecture": "大阪府",
    "city": "堺市西区",
    "town": "太平寺（その他）"
  },
  "5938315": {
    "zipcode": "5938315",
    "prefectureCode": "27",
    "prefectureNumber": 27,
    "prefecture": "大阪府",
    "city": "堺市西区",
    "town": "菱木"
  },
  "5938316": {
    "zipcode": "5938316",
    "prefectureCode": "27",
    "prefectureNumber": 27,
    "prefecture": "大阪府",
    "city": "堺市西区",
    "town": "山田"
  },
  "5938317": {
    "zipcode": "5938317",
    "prefectureCode": "27",
    "prefectureNumber": 27,
    "prefecture": "大阪府",
    "city": "堺市西区",
    "town": "原田"
  },
  "5938321": {
    "zipcode": "5938321",
    "prefectureCode": "27",
    "prefectureNumber": 27,
    "prefecture": "大阪府",
    "city": "堺市西区",
    "town": "宮下町"
  },
  "5938322": {
    "zipcode": "5938322",
    "prefectureCode": "27",
    "prefectureNumber": 27,
    "prefecture": "大阪府",
    "city": "堺市西区",
    "town": "津久野町"
  },
  "5938323": {
    "zipcode": "5938323",
    "prefectureCode": "27",
    "prefectureNumber": 27,
    "prefecture": "大阪府",
    "city": "堺市西区",
    "town": "鶴田町"
  },
  "5938324": {
    "zipcode": "5938324",
    "prefectureCode": "27",
    "prefectureNumber": 27,
    "prefecture": "大阪府",
    "city": "堺市西区",
    "town": "鳳東町"
  },
  "5938325": {
    "zipcode": "5938325",
    "prefectureCode": "27",
    "prefectureNumber": 27,
    "prefecture": "大阪府",
    "city": "堺市西区",
    "town": "鳳南町"
  },
  "5938326": {
    "zipcode": "5938326",
    "prefectureCode": "27",
    "prefectureNumber": 27,
    "prefecture": "大阪府",
    "city": "堺市西区",
    "town": "鳳西町"
  },
  "5938327": {
    "zipcode": "5938327",
    "prefectureCode": "27",
    "prefectureNumber": 27,
    "prefecture": "大阪府",
    "city": "堺市西区",
    "town": "鳳中町"
  },
  "5938328": {
    "zipcode": "5938328",
    "prefectureCode": "27",
    "prefectureNumber": 27,
    "prefecture": "大阪府",
    "city": "堺市西区",
    "town": "鳳北町"
  },
  "5938329": {
    "zipcode": "5938329",
    "prefectureCode": "27",
    "prefectureNumber": 27,
    "prefecture": "大阪府",
    "city": "堺市西区",
    "town": "下田町"
  }
}
