{
  "5980000": {
    "zipcode": "5980000",
    "prefectureCode": "27",
    "prefectureNumber": 27,
    "prefecture": "大阪府",
    "city": "泉南郡田尻町",
    "town": "以下に掲載がない場合"
  },
  "5980001": {
    "zipcode": "5980001",
    "prefectureCode": "27",
    "prefectureNumber": 27,
    "prefecture": "大阪府",
    "city": "泉佐野市",
    "town": "上瓦屋"
  },
  "5980002": {
    "zipcode": "5980002",
    "prefectureCode": "27",
    "prefectureNumber": 27,
    "prefecture": "大阪府",
    "city": "泉佐野市",
    "town": "中庄"
  },
  "5980003": {
    "zipcode": "5980003",
    "prefectureCode": "27",
    "prefectureNumber": 27,
    "prefecture": "大阪府",
    "city": "泉佐野市",
    "town": "俵屋"
  },
  "5980004": {
    "zipcode": "5980004",
    "prefectureCode": "27",
    "prefectureNumber": 27,
    "prefecture": "大阪府",
    "city": "泉佐野市",
    "town": "市場南"
  },
  "5980005": {
    "zipcode": "5980005",
    "prefectureCode": "27",
    "prefectureNumber": 27,
    "prefecture": "大阪府",
    "city": "泉佐野市",
    "town": "市場東"
  },
  "5980006": {
    "zipcode": "5980006",
    "prefectureCode": "27",
    "prefectureNumber": 27,
    "prefecture": "大阪府",
    "city": "泉佐野市",
    "town": "市場西"
  },
  "5980007": {
    "zipcode": "5980007",
    "prefectureCode": "27",
    "prefectureNumber": 27,
    "prefecture": "大阪府",
    "city": "泉佐野市",
    "town": "上町"
  },
  "5980008": {
    "zipcode": "5980008",
    "prefectureCode": "27",
    "prefectureNumber": 27,
    "prefecture": "大阪府",
    "city": "泉佐野市",
    "town": "松風台"
  },
  "5980011": {
    "zipcode": "5980011",
    "prefectureCode": "27",
    "prefectureNumber": 27,
    "prefecture": "大阪府",
    "city": "泉佐野市",
    "town": "高松北"
  },
  "5980012": {
    "zipcode": "5980012",
    "prefectureCode": "27",
    "prefectureNumber": 27,
    "prefecture": "大阪府",
    "city": "泉佐野市",
    "town": "高松東"
  },
  "5980013": {
    "zipcode": "5980013",
    "prefectureCode": "27",
    "prefectureNumber": 27,
    "prefecture": "大阪府",
    "city": "泉佐野市",
    "town": "中町"
  },
  "5980014": {
    "zipcode": "5980014",
    "prefectureCode": "27",
    "prefectureNumber": 27,
    "prefecture": "大阪府",
    "city": "泉佐野市",
    "town": "葵町"
  },
  "5980015": {
    "zipcode": "5980015",
    "prefectureCode": "27",
    "prefectureNumber": 27,
    "prefecture": "大阪府",
    "city": "泉佐野市",
    "town": "高松南"
  },
  "5980016": {
    "zipcode": "5980016",
    "prefectureCode": "27",
    "prefectureNumber": 27,
    "prefecture": "大阪府",
    "city": "泉佐野市",
    "town": "高松西"
  },
  "5980021": {
    "zipcode": "5980021",
    "prefectureCode": "27",
    "prefectureNumber": 27,
    "prefecture": "大阪府",
    "city": "泉佐野市",
    "town": "日根野"
  },
  "5980022": {
    "zipcode": "5980022",
    "prefectureCode": "27",
    "prefectureNumber": 27,
    "prefecture": "大阪府",
    "city": "泉佐野市",
    "town": "土丸"
  },
  "5980023": {
    "zipcode": "5980023",
    "prefectureCode": "27",
    "prefectureNumber": 27,
    "prefecture": "大阪府",
    "city": "泉佐野市",
    "town": "大木"
  },
  "5980024": {
    "zipcode": "5980024",
    "prefectureCode": "27",
    "prefectureNumber": 27,
    "prefecture": "大阪府",
    "city": "泉佐野市",
    "town": "上之郷"
  },
  "5980031": {
    "zipcode": "5980031",
    "prefectureCode": "27",
    "prefectureNumber": 27,
    "prefecture": "大阪府",
    "city": "泉佐野市",
    "town": "東羽倉崎町"
  },
  "5980032": {
    "zipcode": "5980032",
    "prefectureCode": "27",
    "prefectureNumber": 27,
    "prefecture": "大阪府",
    "city": "泉佐野市",
    "town": "新安松"
  },
  "5980033": {
    "zipcode": "5980033",
    "prefectureCode": "27",
    "prefectureNumber": 27,
    "prefecture": "大阪府",
    "city": "泉佐野市",
    "town": "南中安松"
  },
  "5980034": {
    "zipcode": "5980034",
    "prefectureCode": "27",
    "prefectureNumber": 27,
    "prefecture": "大阪府",
    "city": "泉佐野市",
    "town": "長滝"
  },
  "5980035": {
    "zipcode": "5980035",
    "prefectureCode": "27",
    "prefectureNumber": 27,
    "prefecture": "大阪府",
    "city": "泉佐野市",
    "town": "南中樫井"
  },
  "5980036": {
    "zipcode": "5980036",
    "prefectureCode": "27",
    "prefectureNumber": 27,
    "prefecture": "大阪府",
    "city": "泉佐野市",
    "town": "南中岡本"
  },
  "5980037": {
    "zipcode": "5980037",
    "prefectureCode": "27",
    "prefectureNumber": 27,
    "prefecture": "大阪府",
    "city": "泉佐野市",
    "town": "羽倉崎上町"
  },
  "5980041": {
    "zipcode": "5980041",
    "prefectureCode": "27",
    "prefectureNumber": 27,
    "prefecture": "大阪府",
    "city": "泉佐野市",
    "town": "野出町"
  },
  "5980042": {
    "zipcode": "5980042",
    "prefectureCode": "27",
    "prefectureNumber": 27,
    "prefecture": "大阪府",
    "city": "泉佐野市",
    "town": "西本町"
  },
  "5980043": {
    "zipcode": "5980043",
    "prefectureCode": "27",
    "prefectureNumber": 27,
    "prefecture": "大阪府",
    "city": "泉佐野市",
    "town": "大西"
  },
  "5980044": {
    "zipcode": "5980044",
    "prefectureCode": "27",
    "prefectureNumber": 27,
    "prefecture": "大阪府",
    "city": "泉佐野市",
    "town": "笠松"
  },
  "5980045": {
    "zipcode": "5980045",
    "prefectureCode": "27",
    "prefectureNumber": 27,
    "prefecture": "大阪府",
    "city": "泉佐野市",
    "town": "松原"
  },
  "5980046": {
    "zipcode": "5980046",
    "prefectureCode": "27",
    "prefectureNumber": 27,
    "prefecture": "大阪府",
    "city": "泉佐野市",
    "town": "羽倉崎"
  },
  "5980047": {
    "zipcode": "5980047",
    "prefectureCode": "27",
    "prefectureNumber": 27,
    "prefecture": "大阪府",
    "city": "泉佐野市",
    "town": "りんくう往来南"
  },
  "5980048": {
    "zipcode": "5980048",
    "prefectureCode": "27",
    "prefectureNumber": 27,
    "prefecture": "大阪府",
    "city": "泉佐野市",
    "town": "りんくう往来北"
  },
  "5980051": {
    "zipcode": "5980051",
    "prefectureCode": "27",
    "prefectureNumber": 27,
    "prefecture": "大阪府",
    "city": "泉佐野市",
    "town": "新町"
  },
  "5980052": {
    "zipcode": "5980052",
    "prefectureCode": "27",
    "prefectureNumber": 27,
    "prefecture": "大阪府",
    "city": "泉佐野市",
    "town": "旭町"
  },
  "5980053": {
    "zipcode": "5980053",
    "prefectureCode": "27",
    "prefectureNumber": 27,
    "prefecture": "大阪府",
    "city": "泉佐野市",
    "town": "大宮町"
  },
  "5980054": {
    "zipcode": "5980054",
    "prefectureCode": "27",
    "prefectureNumber": 27,
    "prefecture": "大阪府",
    "city": "泉佐野市",
    "town": "栄町"
  },
  "5980055": {
    "zipcode": "5980055",
    "prefectureCode": "27",
    "prefectureNumber": 27,
    "prefecture": "大阪府",
    "city": "泉佐野市",
    "town": "若宮町"
  },
  "5980056": {
    "zipcode": "5980056",
    "prefectureCode": "27",
    "prefectureNumber": 27,
    "prefecture": "大阪府",
    "city": "泉佐野市",
    "town": "元町"
  },
  "5980057": {
    "zipcode": "5980057",
    "prefectureCode": "27",
    "prefectureNumber": 27,
    "prefecture": "大阪府",
    "city": "泉佐野市",
    "town": "本町"
  },
  "5980058": {
    "zipcode": "5980058",
    "prefectureCode": "27",
    "prefectureNumber": 27,
    "prefecture": "大阪府",
    "city": "泉佐野市",
    "town": "春日町"
  },
  "5980061": {
    "zipcode": "5980061",
    "prefectureCode": "27",
    "prefectureNumber": 27,
    "prefecture": "大阪府",
    "city": "泉佐野市",
    "town": "住吉町"
  },
  "5980062": {
    "zipcode": "5980062",
    "prefectureCode": "27",
    "prefectureNumber": 27,
    "prefecture": "大阪府",
    "city": "泉佐野市",
    "town": "下瓦屋"
  },
  "5980063": {
    "zipcode": "5980063",
    "prefectureCode": "27",
    "prefectureNumber": 27,
    "prefecture": "大阪府",
    "city": "泉佐野市",
    "town": "湊"
  },
  "5980064": {
    "zipcode": "5980064",
    "prefectureCode": "27",
    "prefectureNumber": 27,
    "prefecture": "大阪府",
    "city": "泉佐野市",
    "town": "新浜町"
  },
  "5980071": {
    "zipcode": "5980071",
    "prefectureCode": "27",
    "prefectureNumber": 27,
    "prefecture": "大阪府",
    "city": "泉佐野市",
    "town": "鶴原"
  },
  "5980072": {
    "zipcode": "5980072",
    "prefectureCode": "27",
    "prefectureNumber": 27,
    "prefecture": "大阪府",
    "city": "泉佐野市",
    "town": "泉ケ丘"
  },
  "5980073": {
    "zipcode": "5980073",
    "prefectureCode": "27",
    "prefectureNumber": 27,
    "prefecture": "大阪府",
    "city": "泉佐野市",
    "town": "南泉ケ丘"
  },
  "5980074": {
    "zipcode": "5980074",
    "prefectureCode": "27",
    "prefectureNumber": 27,
    "prefecture": "大阪府",
    "city": "泉佐野市",
    "town": "東佐野台"
  },
  "5980075": {
    "zipcode": "5980075",
    "prefectureCode": "27",
    "prefectureNumber": 27,
    "prefecture": "大阪府",
    "city": "泉佐野市",
    "town": "佐野台"
  },
  "5980076": {
    "zipcode": "5980076",
    "prefectureCode": "27",
    "prefectureNumber": 27,
    "prefecture": "大阪府",
    "city": "泉佐野市",
    "town": "貝田町"
  },
  "5980091": {
    "zipcode": "5980091",
    "prefectureCode": "27",
    "prefectureNumber": 27,
    "prefecture": "大阪府",
    "city": "泉南郡田尻町",
    "town": "嘉祥寺"
  },
  "5980092": {
    "zipcode": "5980092",
    "prefectureCode": "27",
    "prefectureNumber": 27,
    "prefecture": "大阪府",
    "city": "泉南郡田尻町",
    "town": "吉見"
  },
  "5980093": {
    "zipcode": "5980093",
    "prefectureCode": "27",
    "prefectureNumber": 27,
    "prefecture": "大阪府",
    "city": "泉南郡田尻町",
    "town": "りんくうポート北"
  },
  "5980094": {
    "zipcode": "5980094",
    "prefectureCode": "27",
    "prefectureNumber": 27,
    "prefecture": "大阪府",
    "city": "泉南郡田尻町",
    "town": "りんくうポート南"
  }
}
