{
  "6020000": {
    "zipcode": "6020000",
    "prefectureCode": "26",
    "prefectureNumber": 26,
    "prefecture": "京都府",
    "city": "京都市上京区",
    "town": "以下に掲載がない場合"
  },
  "6020001": {
    "zipcode": "6020001",
    "prefectureCode": "26",
    "prefectureNumber": 26,
    "prefecture": "京都府",
    "city": "京都市上京区",
    "town": "竹園町"
  },
  "6020002": {
    "zipcode": "6020002",
    "prefectureCode": "26",
    "prefectureNumber": 26,
    "prefecture": "京都府",
    "city": "京都市上京区",
    "town": "継孝院町"
  },
  "6020003": {
    "zipcode": "6020003",
    "prefectureCode": "26",
    "prefectureNumber": 26,
    "prefecture": "京都府",
    "city": "京都市上京区",
    "town": "大心院町"
  },
  "6020004": {
    "zipcode": "6020004",
    "prefectureCode": "26",
    "prefectureNumber": 26,
    "prefecture": "京都府",
    "city": "京都市上京区",
    "town": "道正町"
  },
  "6020005": {
    "zipcode": "6020005",
    "prefectureCode": "26",
    "prefectureNumber": 26,
    "prefecture": "京都府",
    "city": "京都市上京区",
    "town": "妙顕寺前町"
  },
  "6020006": {
    "zipcode": "6020006",
    "prefectureCode": "26",
    "prefectureNumber": 26,
    "prefecture": "京都府",
    "city": "京都市上京区",
    "town": "禅昌院町"
  },
  "6020007": {
    "zipcode": "6020007",
    "prefectureCode": "26",
    "prefectureNumber": 26,
    "prefecture": "京都府",
    "city": "京都市上京区",
    "town": "下清蔵口町"
  },
  "6020008": {
    "zipcode": "6020008",
    "prefectureCode": "26",
    "prefectureNumber": 26,
    "prefecture": "京都府",
    "city": "京都市上京区",
    "town": "岩栖院町"
  },
  "6020011": {
    "zipcode": "6020011",
    "prefectureCode": "26",
    "prefectureNumber": 26,
    "prefecture": "京都府",
    "city": "京都市上京区",
    "town": "森之木町"
  },
  "6020012": {
    "zipcode": "6020012",
    "prefectureCode": "26",
    "prefectureNumber": 26,
    "prefecture": "京都府",
    "city": "京都市上京区",
    "town": "内構町"
  },
  "6020013": {
    "zipcode": "6020013",
    "prefectureCode": "26",
    "prefectureNumber": 26,
    "prefecture": "京都府",
    "city": "京都市上京区",
    "town": "上柳原町"
  },
  "6020014": {
    "zipcode": "6020014",
    "prefectureCode": "26",
    "prefectureNumber": 26,
    "prefecture": "京都府",
    "city": "京都市上京区",
    "town": "下柳原北半町"
  },
  "6020015": {
    "zipcode": "6020015",
    "prefectureCode": "26",
    "prefectureNumber": 26,
    "prefecture": "京都府",
    "city": "京都市上京区",
    "town": "下柳原南半町"
  },
  "6020016": {
    "zipcode": "6020016",
    "prefectureCode": "26",
    "prefectureNumber": 26,
    "prefecture": "京都府",
    "city": "京都市上京区",
    "town": "畠中町"
  },
  "6020017": {
    "zipcode": "6020017",
    "prefectureCode": "26",
    "prefectureNumber": 26,
    "prefecture": "京都府",
    "city": "京都市上京区",
    "town": "上木下町"
  },
  "6020018": {
    "zipcode": "6020018",
    "prefectureCode": "26",
    "prefectureNumber": 26,
    "prefecture": "京都府",
    "city": "京都市上京区",
    "town": "玄蕃町"
  },
  "6020019": {
    "zipcode": "6020019",
    "prefectureCode": "26",
    "prefectureNumber": 26,
    "prefecture": "京都府",
    "city": "京都市上京区",
    "town": "下木下町"
  },
  "6020021": {
    "zipcode": "6020021",
    "prefectureCode": "26",
    "prefectureNumber": 26,
    "prefecture": "京都府",
    "city": "京都市上京区",
    "town": "柳図子町"
  },
  "6020022": {
    "zipcode": "6020022",
    "prefectureCode": "26",
    "prefectureNumber": 26,
    "prefecture": "京都府",
    "city": "京都市上京区",
    "town": "上立売東町"
  },
  "6020023": {
    "zipcode": "6020023",
    "prefectureCode": "26",
    "prefectureNumber": 26,
    "prefecture": "京都府",
    "city": "京都市上京区",
    "town": "御所八幡町"
  },
  "6020024": {
    "zipcode": "6020024",
    "prefectureCode": "26",
    "prefectureNumber": 26,
    "prefecture": "京都府",
    "city": "京都市上京区",
    "town": "上立売町"
  },
  "6020025": {
    "zipcode": "6020025",
    "prefectureCode": "26",
    "prefectureNumber": 26,
    "prefecture": "京都府",
    "city": "京都市上京区",
    "town": "裏風呂町"
  },
  "6020026": {
    "zipcode": "6020026",
    "prefectureCode": "26",
    "prefectureNumber": 26,
    "prefecture": "京都府",
    "city": "京都市上京区",
    "town": "古木町"
  },
  "6020027": {
    "zipcode": "6020027",
    "prefectureCode": "26",
    "prefectureNumber": 26,
    "prefecture": "京都府",
    "city": "京都市上京区",
    "town": "木下突抜町"
  },
  "6020028": {
    "zipcode": "6020028",
    "prefectureCode": "26",
    "prefectureNumber": 26,
    "prefecture": "京都府",
    "city": "京都市上京区",
    "town": "納屋町"
  },
  "6020029": {
    "zipcode": "6020029",
    "prefectureCode": "26",
    "prefectureNumber": 26,
    "prefecture": "京都府",
    "city": "京都市上京区",
    "town": "室町頭町"
  },
  "6020031": {
    "zipcode": "6020031",
    "prefectureCode": "26",
    "prefectureNumber": 26,
    "prefecture": "京都府",
    "city": "京都市上京区",
    "town": "裏築地町"
  },
  "6020032": {
    "zipcode": "6020032",
    "prefectureCode": "26",
    "prefectureNumber": 26,
    "prefecture": "京都府",
    "city": "京都市上京区",
    "town": "岡松町"
  },
  "6020033": {
    "zipcode": "6020033",
    "prefectureCode": "26",
    "prefectureNumber": 26,
    "prefecture": "京都府",
    "city": "京都市上京区",
    "town": "今出川町（烏丸通今出川上る、烏丸通今出川下る、今出川通烏丸西入、今出川通室町東入）"
  },
  "6020034": {
    "zipcode": "6020034",
    "prefectureCode": "26",
    "prefectureNumber": 26,
    "prefecture": "京都府",
    "city": "京都市上京区",
    "town": "築山南半町"
  },
  "6020035": {
    "zipcode": "6020035",
    "prefectureCode": "26",
    "prefectureNumber": 26,
    "prefecture": "京都府",
    "city": "京都市上京区",
    "town": "畠山町"
  },
  "6020036": {
    "zipcode": "6020036",
    "prefectureCode": "26",
    "prefectureNumber": 26,
    "prefecture": "京都府",
    "city": "京都市上京区",
    "town": "蒔鳥屋町"
  },
  "6020037": {
    "zipcode": "6020037",
    "prefectureCode": "26",
    "prefectureNumber": 26,
    "prefecture": "京都府",
    "city": "京都市上京区",
    "town": "瓢箪図子町"
  },
  "6020038": {
    "zipcode": "6020038",
    "prefectureCode": "26",
    "prefectureNumber": 26,
    "prefecture": "京都府",
    "city": "京都市上京区",
    "town": "築山北半町"
  },
  "6020041": {
    "zipcode": "6020041",
    "prefectureCode": "26",
    "prefectureNumber": 26,
    "prefecture": "京都府",
    "city": "京都市上京区",
    "town": "中御霊図子町"
  },
  "6020042": {
    "zipcode": "6020042",
    "prefectureCode": "26",
    "prefectureNumber": 26,
    "prefecture": "京都府",
    "city": "京都市上京区",
    "town": "元新在家町"
  },
  "6020043": {
    "zipcode": "6020043",
    "prefectureCode": "26",
    "prefectureNumber": 26,
    "prefecture": "京都府",
    "city": "京都市上京区",
    "town": "元本満寺町"
  },
  "6020044": {
    "zipcode": "6020044",
    "prefectureCode": "26",
    "prefectureNumber": 26,
    "prefecture": "京都府",
    "city": "京都市上京区",
    "town": "北兼康町"
  },
  "6020045": {
    "zipcode": "6020045",
    "prefectureCode": "26",
    "prefectureNumber": 26,
    "prefecture": "京都府",
    "city": "京都市上京区",
    "town": "近衛殿北口町"
  },
  "6020046": {
    "zipcode": "6020046",
    "prefectureCode": "26",
    "prefectureNumber": 26,
    "prefecture": "京都府",
    "city": "京都市上京区",
    "town": "西大路町（上立売通小川東入、上立売通新町西入、上立売通新町東入、上立売通新町東入上る、新町通上立売上る）"
  },
  "6020047": {
    "zipcode": "6020047",
    "prefectureCode": "26",
    "prefectureNumber": 26,
    "prefecture": "京都府",
    "city": "京都市上京区",
    "town": "近衛殿表町"
  },
  "6020051": {
    "zipcode": "6020051",
    "prefectureCode": "26",
    "prefectureNumber": 26,
    "prefecture": "京都府",
    "city": "京都市上京区",
    "town": "御三軒町"
  },
  "6020052": {
    "zipcode": "6020052",
    "prefectureCode": "26",
    "prefectureNumber": 26,
    "prefecture": "京都府",
    "city": "京都市上京区",
    "town": "上小川町"
  },
  "6020053": {
    "zipcode": "6020053",
    "prefectureCode": "26",
    "prefectureNumber": 26,
    "prefecture": "京都府",
    "city": "京都市上京区",
    "town": "中小川町"
  },
  "6020054": {
    "zipcode": "6020054",
    "prefectureCode": "26",
    "prefectureNumber": 26,
    "prefecture": "京都府",
    "city": "京都市上京区",
    "town": "飛鳥井町"
  },
  "6020055": {
    "zipcode": "6020055",
    "prefectureCode": "26",
    "prefectureNumber": 26,
    "prefecture": "京都府",
    "city": "京都市上京区",
    "town": "南舟橋町"
  },
  "6020056": {
    "zipcode": "6020056",
    "prefectureCode": "26",
    "prefectureNumber": 26,
    "prefecture": "京都府",
    "city": "京都市上京区",
    "town": "北舟橋町"
  },
  "6020057": {
    "zipcode": "6020057",
    "prefectureCode": "26",
    "prefectureNumber": 26,
    "prefecture": "京都府",
    "city": "京都市上京区",
    "town": "堀之上町"
  },
  "6020058": {
    "zipcode": "6020058",
    "prefectureCode": "26",
    "prefectureNumber": 26,
    "prefecture": "京都府",
    "city": "京都市上京区",
    "town": "水落町"
  },
  "6020059": {
    "zipcode": "6020059",
    "prefectureCode": "26",
    "prefectureNumber": 26,
    "prefecture": "京都府",
    "city": "京都市上京区",
    "town": "実相院町"
  },
  "6020061": {
    "zipcode": "6020061",
    "prefectureCode": "26",
    "prefectureNumber": 26,
    "prefecture": "京都府",
    "city": "京都市上京区",
    "town": "本法寺前町"
  },
  "6020062": {
    "zipcode": "6020062",
    "prefectureCode": "26",
    "prefectureNumber": 26,
    "prefecture": "京都府",
    "city": "京都市上京区",
    "town": "宝鏡院東町"
  },
  "6020063": {
    "zipcode": "6020063",
    "prefectureCode": "26",
    "prefectureNumber": 26,
    "prefecture": "京都府",
    "city": "京都市上京区",
    "town": "内藤町"
  },
  "6020064": {
    "zipcode": "6020064",
    "prefectureCode": "26",
    "prefectureNumber": 26,
    "prefecture": "京都府",
    "city": "京都市上京区",
    "town": "安楽小路町"
  },
  "6020065": {
    "zipcode": "6020065",
    "prefectureCode": "26",
    "prefectureNumber": 26,
    "prefecture": "京都府",
    "city": "京都市上京区",
    "town": "挽木町"
  },
  "6020066": {
    "zipcode": "6020066",
    "prefectureCode": "26",
    "prefectureNumber": 26,
    "prefecture": "京都府",
    "city": "京都市上京区",
    "town": "射場町"
  },
  "6020067": {
    "zipcode": "6020067",
    "prefectureCode": "26",
    "prefectureNumber": 26,
    "prefecture": "京都府",
    "city": "京都市上京区",
    "town": "竹屋町"
  },
  "6020071": {
    "zipcode": "6020071",
    "prefectureCode": "26",
    "prefectureNumber": 26,
    "prefecture": "京都府",
    "city": "京都市上京区",
    "town": "扇町（堀川通寺之内上る、堀川通上御霊前上る、上御霊前通堀川東入）"
  },
  "6020072": {
    "zipcode": "6020072",
    "prefectureCode": "26",
    "prefectureNumber": 26,
    "prefecture": "京都府",
    "city": "京都市上京区",
    "town": "百々町"
  },
  "6020073": {
    "zipcode": "6020073",
    "prefectureCode": "26",
    "prefectureNumber": 26,
    "prefecture": "京都府",
    "city": "京都市上京区",
    "town": "寺之内竪町"
  },
  "6020074": {
    "zipcode": "6020074",
    "prefectureCode": "26",
    "prefectureNumber": 26,
    "prefecture": "京都府",
    "city": "京都市上京区",
    "town": "下天神町"
  },
  "6020081": {
    "zipcode": "6020081",
    "prefectureCode": "26",
    "prefectureNumber": 26,
    "prefecture": "京都府",
    "city": "京都市上京区",
    "town": "瑞光院前町"
  },
  "6020082": {
    "zipcode": "6020082",
    "prefectureCode": "26",
    "prefectureNumber": 26,
    "prefecture": "京都府",
    "city": "京都市上京区",
    "town": "上天神町"
  },
  "6020083": {
    "zipcode": "6020083",
    "prefectureCode": "26",
    "prefectureNumber": 26,
    "prefecture": "京都府",
    "city": "京都市上京区",
    "town": "新ン町"
  },
  "6020084": {
    "zipcode": "6020084",
    "prefectureCode": "26",
    "prefectureNumber": 26,
    "prefecture": "京都府",
    "city": "京都市上京区",
    "town": "若宮横町"
  },
  "6020085": {
    "zipcode": "6020085",
    "prefectureCode": "26",
    "prefectureNumber": 26,
    "prefecture": "京都府",
    "city": "京都市上京区",
    "town": "若宮竪町"
  },
  "6020086": {
    "zipcode": "6020086",
    "prefectureCode": "26",
    "prefectureNumber": 26,
    "prefecture": "京都府",
    "city": "京都市上京区",
    "town": "東若宮町"
  },
  "6020087": {
    "zipcode": "6020087",
    "prefectureCode": "26",
    "prefectureNumber": 26,
    "prefecture": "京都府",
    "city": "京都市上京区",
    "town": "天神北町"
  },
  "6020091": {
    "zipcode": "6020091",
    "prefectureCode": "26",
    "prefectureNumber": 26,
    "prefecture": "京都府",
    "city": "京都市上京区",
    "town": "筋違橋町"
  },
  "6020092": {
    "zipcode": "6020092",
    "prefectureCode": "26",
    "prefectureNumber": 26,
    "prefecture": "京都府",
    "city": "京都市上京区",
    "town": "北仲之町"
  },
  "6020093": {
    "zipcode": "6020093",
    "prefectureCode": "26",
    "prefectureNumber": 26,
    "prefecture": "京都府",
    "city": "京都市上京区",
    "town": "仲之町（大宮通上御霊前上る、大宮通上御霊前下る、大宮通蘆山寺上る、大宮通寺之内上る、大宮通寺之内上る２丁目、上御霊前通大宮西入、上御霊前通大宮東入、蘆山寺通大宮西入）"
  },
  "6020094": {
    "zipcode": "6020094",
    "prefectureCode": "26",
    "prefectureNumber": 26,
    "prefecture": "京都府",
    "city": "京都市上京区",
    "town": "社横町"
  },
  "6020095": {
    "zipcode": "6020095",
    "prefectureCode": "26",
    "prefectureNumber": 26,
    "prefecture": "京都府",
    "city": "京都市上京区",
    "town": "社突抜町"
  },
  "6020096": {
    "zipcode": "6020096",
    "prefectureCode": "26",
    "prefectureNumber": 26,
    "prefecture": "京都府",
    "city": "京都市上京区",
    "town": "西若宮南半町"
  },
  "6020097": {
    "zipcode": "6020097",
    "prefectureCode": "26",
    "prefectureNumber": 26,
    "prefecture": "京都府",
    "city": "京都市上京区",
    "town": "西若宮北半町"
  },
  "6020098": {
    "zipcode": "6020098",
    "prefectureCode": "26",
    "prefectureNumber": 26,
    "prefecture": "京都府",
    "city": "京都市上京区",
    "town": "竪社北半町"
  },
  "6020099": {
    "zipcode": "6020099",
    "prefectureCode": "26",
    "prefectureNumber": 26,
    "prefecture": "京都府",
    "city": "京都市上京区",
    "town": "竪社南半町"
  },
  "6020801": {
    "zipcode": "6020801",
    "prefectureCode": "26",
    "prefectureNumber": 26,
    "prefecture": "京都府",
    "city": "京都市上京区",
    "town": "高徳寺町"
  },
  "6020802": {
    "zipcode": "6020802",
    "prefectureCode": "26",
    "prefectureNumber": 26,
    "prefecture": "京都府",
    "city": "京都市上京区",
    "town": "鶴山町"
  },
  "6020803": {
    "zipcode": "6020803",
    "prefectureCode": "26",
    "prefectureNumber": 26,
    "prefecture": "京都府",
    "city": "京都市上京区",
    "town": "阿弥陀寺前町"
  },
  "6020804": {
    "zipcode": "6020804",
    "prefectureCode": "26",
    "prefectureNumber": 26,
    "prefecture": "京都府",
    "city": "京都市上京区",
    "town": "上片原町"
  },
  "6020805": {
    "zipcode": "6020805",
    "prefectureCode": "26",
    "prefectureNumber": 26,
    "prefecture": "京都府",
    "city": "京都市上京区",
    "town": "桜木町"
  },
  "6020806": {
    "zipcode": "6020806",
    "prefectureCode": "26",
    "prefectureNumber": 26,
    "prefecture": "京都府",
    "city": "京都市上京区",
    "town": "藪之下町"
  },
  "6020807": {
    "zipcode": "6020807",
    "prefectureCode": "26",
    "prefectureNumber": 26,
    "prefecture": "京都府",
    "city": "京都市上京区",
    "town": "不動前町"
  },
  "6020808": {
    "zipcode": "6020808",
    "prefectureCode": "26",
    "prefectureNumber": 26,
    "prefecture": "京都府",
    "city": "京都市上京区",
    "town": "歓喜寺前町"
  },
  "6020811": {
    "zipcode": "6020811",
    "prefectureCode": "26",
    "prefectureNumber": 26,
    "prefecture": "京都府",
    "city": "京都市上京区",
    "town": "十念寺前町"
  },
  "6020812": {
    "zipcode": "6020812",
    "prefectureCode": "26",
    "prefectureNumber": 26,
    "prefecture": "京都府",
    "city": "京都市上京区",
    "town": "本満寺前町"
  },
  "6020813": {
    "zipcode": "6020813",
    "prefectureCode": "26",
    "prefectureNumber": 26,
    "prefecture": "京都府",
    "city": "京都市上京区",
    "town": "上神輿町"
  },
  "6020814": {
    "zipcode": "6020814",
    "prefectureCode": "26",
    "prefectureNumber": 26,
    "prefecture": "京都府",
    "city": "京都市上京区",
    "town": "幸神町"
  },
  "6020815": {
    "zipcode": "6020815",
    "prefectureCode": "26",
    "prefectureNumber": 26,
    "prefecture": "京都府",
    "city": "京都市上京区",
    "town": "上塔之段町"
  },
  "6020816": {
    "zipcode": "6020816",
    "prefectureCode": "26",
    "prefectureNumber": 26,
    "prefecture": "京都府",
    "city": "京都市上京区",
    "town": "毘沙門町（上立売通寺町西入、上立売通寺町西入上る、上立売通寺町西入下る、上立売通寺町西入４筋目下る、寺町通今出川上る１筋目西入、寺町通今出川上る２丁目、寺町通今出川上る２丁目西入、寺町通今出川上る３丁目、寺町通今出川上る３丁目西入、寺町通今出川上る４丁目、寺町通今出川上る４丁目西入、寺町通今出川西入、寺町通今出川２丁目上る西入、塔之段寺町通今出川上る）"
  },
  "6020817": {
    "zipcode": "6020817",
    "prefectureCode": "26",
    "prefectureNumber": 26,
    "prefecture": "京都府",
    "city": "京都市上京区",
    "town": "毘沙門横町"
  },
  "6020818": {
    "zipcode": "6020818",
    "prefectureCode": "26",
    "prefectureNumber": 26,
    "prefecture": "京都府",
    "city": "京都市上京区",
    "town": "北横町"
  },
  "6020819": {
    "zipcode": "6020819",
    "prefectureCode": "26",
    "prefectureNumber": 26,
    "prefecture": "京都府",
    "city": "京都市上京区",
    "town": "松之木町"
  },
  "6020821": {
    "zipcode": "6020821",
    "prefectureCode": "26",
    "prefectureNumber": 26,
    "prefecture": "京都府",
    "city": "京都市上京区",
    "town": "後藤町"
  },
  "6020822": {
    "zipcode": "6020822",
    "prefectureCode": "26",
    "prefectureNumber": 26,
    "prefecture": "京都府",
    "city": "京都市上京区",
    "town": "青龍町"
  },
  "6020823": {
    "zipcode": "6020823",
    "prefectureCode": "26",
    "prefectureNumber": 26,
    "prefecture": "京都府",
    "city": "京都市上京区",
    "town": "三芳町"
  },
  "6020824": {
    "zipcode": "6020824",
    "prefectureCode": "26",
    "prefectureNumber": 26,
    "prefecture": "京都府",
    "city": "京都市上京区",
    "town": "一真町"
  },
  "6020825": {
    "zipcode": "6020825",
    "prefectureCode": "26",
    "prefectureNumber": 26,
    "prefecture": "京都府",
    "city": "京都市上京区",
    "town": "表町"
  },
  "6020826": {
    "zipcode": "6020826",
    "prefectureCode": "26",
    "prefectureNumber": 26,
    "prefecture": "京都府",
    "city": "京都市上京区",
    "town": "三栄町"
  },
  "6020827": {
    "zipcode": "6020827",
    "prefectureCode": "26",
    "prefectureNumber": 26,
    "prefecture": "京都府",
    "city": "京都市上京区",
    "town": "相生町"
  },
  "6020828": {
    "zipcode": "6020828",
    "prefectureCode": "26",
    "prefectureNumber": 26,
    "prefecture": "京都府",
    "city": "京都市上京区",
    "town": "二神町"
  },
  "6020831": {
    "zipcode": "6020831",
    "prefectureCode": "26",
    "prefectureNumber": 26,
    "prefecture": "京都府",
    "city": "京都市上京区",
    "town": "立本寺前町"
  },
  "6020832": {
    "zipcode": "6020832",
    "prefectureCode": "26",
    "prefectureNumber": 26,
    "prefecture": "京都府",
    "city": "京都市上京区",
    "town": "大原口町"
  },
  "6020833": {
    "zipcode": "6020833",
    "prefectureCode": "26",
    "prefectureNumber": 26,
    "prefecture": "京都府",
    "city": "京都市上京区",
    "town": "真如堂突抜町"
  },
  "6020834": {
    "zipcode": "6020834",
    "prefectureCode": "26",
    "prefectureNumber": 26,
    "prefecture": "京都府",
    "city": "京都市上京区",
    "town": "大原口突抜町"
  },
  "6020835": {
    "zipcode": "6020835",
    "prefectureCode": "26",
    "prefectureNumber": 26,
    "prefecture": "京都府",
    "city": "京都市上京区",
    "town": "革堂内町"
  },
  "6020836": {
    "zipcode": "6020836",
    "prefectureCode": "26",
    "prefectureNumber": 26,
    "prefecture": "京都府",
    "city": "京都市上京区",
    "town": "常盤井殿町"
  },
  "6020837": {
    "zipcode": "6020837",
    "prefectureCode": "26",
    "prefectureNumber": 26,
    "prefecture": "京都府",
    "city": "京都市上京区",
    "town": "下塔之段町"
  },
  "6020838": {
    "zipcode": "6020838",
    "prefectureCode": "26",
    "prefectureNumber": 26,
    "prefecture": "京都府",
    "city": "京都市上京区",
    "town": "柳風呂町"
  },
  "6020839": {
    "zipcode": "6020839",
    "prefectureCode": "26",
    "prefectureNumber": 26,
    "prefecture": "京都府",
    "city": "京都市上京区",
    "town": "下御輿町"
  },
  "6020841": {
    "zipcode": "6020841",
    "prefectureCode": "26",
    "prefectureNumber": 26,
    "prefecture": "京都府",
    "city": "京都市上京区",
    "town": "梶井町"
  },
  "6020842": {
    "zipcode": "6020842",
    "prefectureCode": "26",
    "prefectureNumber": 26,
    "prefecture": "京都府",
    "city": "京都市上京区",
    "town": "栄町（石薬師通河原西入、河原町通石薬師上る、河原町通石薬師下る、河原町通今出川下る、河原町通今出川２筋目下る西、河原町通今出川下る２丁目、河原町通今出川下る２筋目西、河原町通今出川下る３丁目）"
  },
  "6020843": {
    "zipcode": "6020843",
    "prefectureCode": "26",
    "prefectureNumber": 26,
    "prefecture": "京都府",
    "city": "京都市上京区",
    "town": "新夷町"
  },
  "6020844": {
    "zipcode": "6020844",
    "prefectureCode": "26",
    "prefectureNumber": 26,
    "prefecture": "京都府",
    "city": "京都市上京区",
    "town": "染殿町"
  },
  "6020845": {
    "zipcode": "6020845",
    "prefectureCode": "26",
    "prefectureNumber": 26,
    "prefecture": "京都府",
    "city": "京都市上京区",
    "town": "真如堂前町"
  },
  "6020846": {
    "zipcode": "6020846",
    "prefectureCode": "26",
    "prefectureNumber": 26,
    "prefecture": "京都府",
    "city": "京都市上京区",
    "town": "米屋町（今出川通寺町東入、今出川通寺町東入下る、今出川通河原町西入上る、河原町通今出川下る西入、寺町通今出川下る、寺町通今出川下る東入、中筋通今出川下る）"
  },
  "6020847": {
    "zipcode": "6020847",
    "prefectureCode": "26",
    "prefectureNumber": 26,
    "prefecture": "京都府",
    "city": "京都市上京区",
    "town": "大宮町（今出川通河原町西入、今出川通寺町東入、今出川通寺町東入下る、河原町通今出川下る、河原町通今出川下る西入、寺町通今出川下る東入、中筋通石薬師上る）"
  },
  "6020848": {
    "zipcode": "6020848",
    "prefectureCode": "26",
    "prefectureNumber": 26,
    "prefecture": "京都府",
    "city": "京都市上京区",
    "town": "扇町（寺町通今出川下る、寺町通石薬師上る、寺町通石薬師下る、寺町通広小路上る、石薬師通寺町東入）"
  },
  "6020849": {
    "zipcode": "6020849",
    "prefectureCode": "26",
    "prefectureNumber": 26,
    "prefecture": "京都府",
    "city": "京都市上京区",
    "town": "大猪熊町（中筋通石薬師上る、石薬師通河原町西入、石薬師通寺町東入、石薬師通中筋西入、石薬師通中筋東入）"
  },
  "6020851": {
    "zipcode": "6020851",
    "prefectureCode": "26",
    "prefectureNumber": 26,
    "prefecture": "京都府",
    "city": "京都市上京区",
    "town": "九軒町"
  },
  "6020852": {
    "zipcode": "6020852",
    "prefectureCode": "26",
    "prefectureNumber": 26,
    "prefecture": "京都府",
    "city": "京都市上京区",
    "town": "北之辺町"
  },
  "6020853": {
    "zipcode": "6020853",
    "prefectureCode": "26",
    "prefectureNumber": 26,
    "prefecture": "京都府",
    "city": "京都市上京区",
    "town": "宮垣町"
  },
  "6020854": {
    "zipcode": "6020854",
    "prefectureCode": "26",
    "prefectureNumber": 26,
    "prefecture": "京都府",
    "city": "京都市上京区",
    "town": "亀屋町（河原町通荒神口東入、荒神口通河原町東入）"
  },
  "6020855": {
    "zipcode": "6020855",
    "prefectureCode": "26",
    "prefectureNumber": 26,
    "prefecture": "京都府",
    "city": "京都市上京区",
    "town": "上生洲町"
  },
  "6020856": {
    "zipcode": "6020856",
    "prefectureCode": "26",
    "prefectureNumber": 26,
    "prefecture": "京都府",
    "city": "京都市上京区",
    "town": "荒神町（河原町通荒神口上る、荒神口通河原町西入、荒神口通河原町東入、荒神口通寺町東入、寺町通荒神口上る）"
  },
  "6020857": {
    "zipcode": "6020857",
    "prefectureCode": "26",
    "prefectureNumber": 26,
    "prefecture": "京都府",
    "city": "京都市上京区",
    "town": "中御霊町"
  },
  "6020858": {
    "zipcode": "6020858",
    "prefectureCode": "26",
    "prefectureNumber": 26,
    "prefecture": "京都府",
    "city": "京都市上京区",
    "town": "東桜町"
  },
  "6020861": {
    "zipcode": "6020861",
    "prefectureCode": "26",
    "prefectureNumber": 26,
    "prefecture": "京都府",
    "city": "京都市上京区",
    "town": "新烏丸頭町"
  },
  "6020862": {
    "zipcode": "6020862",
    "prefectureCode": "26",
    "prefectureNumber": 26,
    "prefecture": "京都府",
    "city": "京都市上京区",
    "town": "出水町"
  },
  "6020863": {
    "zipcode": "6020863",
    "prefectureCode": "26",
    "prefectureNumber": 26,
    "prefecture": "京都府",
    "city": "京都市上京区",
    "town": "上之町"
  },
  "6020864": {
    "zipcode": "6020864",
    "prefectureCode": "26",
    "prefectureNumber": 26,
    "prefecture": "京都府",
    "city": "京都市上京区",
    "town": "中之町（東三本木通丸太町上る）"
  },
  "6020865": {
    "zipcode": "6020865",
    "prefectureCode": "26",
    "prefectureNumber": 26,
    "prefecture": "京都府",
    "city": "京都市上京区",
    "town": "南町"
  },
  "6020866": {
    "zipcode": "6020866",
    "prefectureCode": "26",
    "prefectureNumber": 26,
    "prefecture": "京都府",
    "city": "京都市上京区",
    "town": "真町"
  },
  "6020867": {
    "zipcode": "6020867",
    "prefectureCode": "26",
    "prefectureNumber": 26,
    "prefecture": "京都府",
    "city": "京都市上京区",
    "town": "松蔭町"
  },
  "6020868": {
    "zipcode": "6020868",
    "prefectureCode": "26",
    "prefectureNumber": 26,
    "prefecture": "京都府",
    "city": "京都市上京区",
    "town": "袋町"
  },
  "6020871": {
    "zipcode": "6020871",
    "prefectureCode": "26",
    "prefectureNumber": 26,
    "prefecture": "京都府",
    "city": "京都市上京区",
    "town": "俵屋町"
  },
  "6020872": {
    "zipcode": "6020872",
    "prefectureCode": "26",
    "prefectureNumber": 26,
    "prefecture": "京都府",
    "city": "京都市上京区",
    "town": "駒之町"
  },
  "6020873": {
    "zipcode": "6020873",
    "prefectureCode": "26",
    "prefectureNumber": 26,
    "prefecture": "京都府",
    "city": "京都市上京区",
    "town": "伊勢屋町"
  },
  "6020874": {
    "zipcode": "6020874",
    "prefectureCode": "26",
    "prefectureNumber": 26,
    "prefecture": "京都府",
    "city": "京都市上京区",
    "town": "東土御門町"
  },
  "6020875": {
    "zipcode": "6020875",
    "prefectureCode": "26",
    "prefectureNumber": 26,
    "prefecture": "京都府",
    "city": "京都市上京区",
    "town": "信富町"
  },
  "6020876": {
    "zipcode": "6020876",
    "prefectureCode": "26",
    "prefectureNumber": 26,
    "prefecture": "京都府",
    "city": "京都市上京区",
    "town": "錦砂町"
  },
  "6020877": {
    "zipcode": "6020877",
    "prefectureCode": "26",
    "prefectureNumber": 26,
    "prefecture": "京都府",
    "city": "京都市上京区",
    "town": "桝屋町（河原町通丸太町上る）"
  },
  "6020878": {
    "zipcode": "6020878",
    "prefectureCode": "26",
    "prefectureNumber": 26,
    "prefecture": "京都府",
    "city": "京都市上京区",
    "town": "高島町"
  },
  "6020881": {
    "zipcode": "6020881",
    "prefectureCode": "26",
    "prefectureNumber": 26,
    "prefecture": "京都府",
    "city": "京都市上京区",
    "town": "京都御苑"
  },
  "6020891": {
    "zipcode": "6020891",
    "prefectureCode": "26",
    "prefectureNumber": 26,
    "prefecture": "京都府",
    "city": "京都市上京区",
    "town": "上御霊馬場町"
  },
  "6020892": {
    "zipcode": "6020892",
    "prefectureCode": "26",
    "prefectureNumber": 26,
    "prefecture": "京都府",
    "city": "京都市上京区",
    "town": "新北小路町"
  },
  "6020893": {
    "zipcode": "6020893",
    "prefectureCode": "26",
    "prefectureNumber": 26,
    "prefecture": "京都府",
    "city": "京都市上京区",
    "town": "玄武町"
  },
  "6020894": {
    "zipcode": "6020894",
    "prefectureCode": "26",
    "prefectureNumber": 26,
    "prefecture": "京都府",
    "city": "京都市上京区",
    "town": "上御霊中町"
  },
  "6020895": {
    "zipcode": "6020895",
    "prefectureCode": "26",
    "prefectureNumber": 26,
    "prefecture": "京都府",
    "city": "京都市上京区",
    "town": "上御霊前町"
  },
  "6020896": {
    "zipcode": "6020896",
    "prefectureCode": "26",
    "prefectureNumber": 26,
    "prefecture": "京都府",
    "city": "京都市上京区",
    "town": "上御霊竪町"
  },
  "6020897": {
    "zipcode": "6020897",
    "prefectureCode": "26",
    "prefectureNumber": 26,
    "prefecture": "京都府",
    "city": "京都市上京区",
    "town": "新御霊口町"
  },
  "6020898": {
    "zipcode": "6020898",
    "prefectureCode": "26",
    "prefectureNumber": 26,
    "prefecture": "京都府",
    "city": "京都市上京区",
    "town": "相国寺門前町"
  },
  "6020901": {
    "zipcode": "6020901",
    "prefectureCode": "26",
    "prefectureNumber": 26,
    "prefecture": "京都府",
    "city": "京都市上京区",
    "town": "北小路室町"
  },
  "6020902": {
    "zipcode": "6020902",
    "prefectureCode": "26",
    "prefectureNumber": 26,
    "prefecture": "京都府",
    "city": "京都市上京区",
    "town": "梅屋町"
  },
  "6020903": {
    "zipcode": "6020903",
    "prefectureCode": "26",
    "prefectureNumber": 26,
    "prefecture": "京都府",
    "city": "京都市上京区",
    "town": "観三橘町"
  },
  "6020904": {
    "zipcode": "6020904",
    "prefectureCode": "26",
    "prefectureNumber": 26,
    "prefecture": "京都府",
    "city": "京都市上京区",
    "town": "小島町"
  },
  "6020905": {
    "zipcode": "6020905",
    "prefectureCode": "26",
    "prefectureNumber": 26,
    "prefecture": "京都府",
    "city": "京都市上京区",
    "town": "一松町"
  },
  "6020906": {
    "zipcode": "6020906",
    "prefectureCode": "26",
    "prefectureNumber": 26,
    "prefecture": "京都府",
    "city": "京都市上京区",
    "town": "今図子町"
  },
  "6020907": {
    "zipcode": "6020907",
    "prefectureCode": "26",
    "prefectureNumber": 26,
    "prefecture": "京都府",
    "city": "京都市上京区",
    "town": "福長町"
  },
  "6020911": {
    "zipcode": "6020911",
    "prefectureCode": "26",
    "prefectureNumber": 26,
    "prefecture": "京都府",
    "city": "京都市上京区",
    "town": "広橋殿町"
  },
  "6020912": {
    "zipcode": "6020912",
    "prefectureCode": "26",
    "prefectureNumber": 26,
    "prefecture": "京都府",
    "city": "京都市上京区",
    "town": "龍前町"
  },
  "6020913": {
    "zipcode": "6020913",
    "prefectureCode": "26",
    "prefectureNumber": 26,
    "prefecture": "京都府",
    "city": "京都市上京区",
    "town": "東町（中立売通烏丸西入、中立売通室町東入）"
  },
  "6020914": {
    "zipcode": "6020914",
    "prefectureCode": "26",
    "prefectureNumber": 26,
    "prefecture": "京都府",
    "city": "京都市上京区",
    "town": "花立町"
  },
  "6020915": {
    "zipcode": "6020915",
    "prefectureCode": "26",
    "prefectureNumber": 26,
    "prefecture": "京都府",
    "city": "京都市上京区",
    "town": "三丁町"
  },
  "6020916": {
    "zipcode": "6020916",
    "prefectureCode": "26",
    "prefectureNumber": 26,
    "prefecture": "京都府",
    "city": "京都市上京区",
    "town": "西日野殿町"
  },
  "6020917": {
    "zipcode": "6020917",
    "prefectureCode": "26",
    "prefectureNumber": 26,
    "prefecture": "京都府",
    "city": "京都市上京区",
    "town": "東日野殿町"
  },
  "6020918": {
    "zipcode": "6020918",
    "prefectureCode": "26",
    "prefectureNumber": 26,
    "prefecture": "京都府",
    "city": "京都市上京区",
    "town": "薬屋町"
  },
  "6020921": {
    "zipcode": "6020921",
    "prefectureCode": "26",
    "prefectureNumber": 26,
    "prefecture": "京都府",
    "city": "京都市上京区",
    "town": "正親町"
  },
  "6020922": {
    "zipcode": "6020922",
    "prefectureCode": "26",
    "prefectureNumber": 26,
    "prefecture": "京都府",
    "city": "京都市上京区",
    "town": "讃州寺町"
  },
  "6020923": {
    "zipcode": "6020923",
    "prefectureCode": "26",
    "prefectureNumber": 26,
    "prefecture": "京都府",
    "city": "京都市上京区",
    "town": "油橋詰町"
  },
  "6020924": {
    "zipcode": "6020924",
    "prefectureCode": "26",
    "prefectureNumber": 26,
    "prefecture": "京都府",
    "city": "京都市上京区",
    "town": "小川町"
  },
  "6020925": {
    "zipcode": "6020925",
    "prefectureCode": "26",
    "prefectureNumber": 26,
    "prefecture": "京都府",
    "city": "京都市上京区",
    "town": "西之口町"
  },
  "6020926": {
    "zipcode": "6020926",
    "prefectureCode": "26",
    "prefectureNumber": 26,
    "prefecture": "京都府",
    "city": "京都市上京区",
    "town": "元真如堂町"
  },
  "6020931": {
    "zipcode": "6020931",
    "prefectureCode": "26",
    "prefectureNumber": 26,
    "prefecture": "京都府",
    "city": "京都市上京区",
    "town": "堀出シ町"
  },
  "6020932": {
    "zipcode": "6020932",
    "prefectureCode": "26",
    "prefectureNumber": 26,
    "prefecture": "京都府",
    "city": "京都市上京区",
    "town": "徳大寺殿町"
  },
  "6020933": {
    "zipcode": "6020933",
    "prefectureCode": "26",
    "prefectureNumber": 26,
    "prefecture": "京都府",
    "city": "京都市上京区",
    "town": "武者小路町"
  },
  "6020934": {
    "zipcode": "6020934",
    "prefectureCode": "26",
    "prefectureNumber": 26,
    "prefecture": "京都府",
    "city": "京都市上京区",
    "town": "一条殿町"
  },
  "6020935": {
    "zipcode": "6020935",
    "prefectureCode": "26",
    "prefectureNumber": 26,
    "prefecture": "京都府",
    "city": "京都市上京区",
    "town": "大峰図子町"
  },
  "6020936": {
    "zipcode": "6020936",
    "prefectureCode": "26",
    "prefectureNumber": 26,
    "prefecture": "京都府",
    "city": "京都市上京区",
    "town": "西無車小路町"
  },
  "6020937": {
    "zipcode": "6020937",
    "prefectureCode": "26",
    "prefectureNumber": 26,
    "prefecture": "京都府",
    "city": "京都市上京区",
    "town": "常盤井図子町"
  },
  "6020938": {
    "zipcode": "6020938",
    "prefectureCode": "26",
    "prefectureNumber": 26,
    "prefecture": "京都府",
    "city": "京都市上京区",
    "town": "元図子町"
  },
  "6020939": {
    "zipcode": "6020939",
    "prefectureCode": "26",
    "prefectureNumber": 26,
    "prefecture": "京都府",
    "city": "京都市上京区",
    "town": "弁財天町"
  },
  "6020941": {
    "zipcode": "6020941",
    "prefectureCode": "26",
    "prefectureNumber": 26,
    "prefecture": "京都府",
    "city": "京都市上京区",
    "town": "南兼康町"
  },
  "6020942": {
    "zipcode": "6020942",
    "prefectureCode": "26",
    "prefectureNumber": 26,
    "prefecture": "京都府",
    "city": "京都市上京区",
    "town": "靭屋町"
  },
  "6020943": {
    "zipcode": "6020943",
    "prefectureCode": "26",
    "prefectureNumber": 26,
    "prefecture": "京都府",
    "city": "京都市上京区",
    "town": "革堂町（小川通一条上る、小川通武者小路下る、武者小路通小川東入）"
  },
  "6020944": {
    "zipcode": "6020944",
    "prefectureCode": "26",
    "prefectureNumber": 26,
    "prefecture": "京都府",
    "city": "京都市上京区",
    "town": "一条横町"
  },
  "6020945": {
    "zipcode": "6020945",
    "prefectureCode": "26",
    "prefectureNumber": 26,
    "prefecture": "京都府",
    "city": "京都市上京区",
    "town": "革堂仲之町"
  },
  "6020946": {
    "zipcode": "6020946",
    "prefectureCode": "26",
    "prefectureNumber": 26,
    "prefecture": "京都府",
    "city": "京都市上京区",
    "town": "戒光寺町"
  },
  "6020947": {
    "zipcode": "6020947",
    "prefectureCode": "26",
    "prefectureNumber": 26,
    "prefecture": "京都府",
    "city": "京都市上京区",
    "town": "東町（元誓願寺通小川西入）"
  },
  "6020948": {
    "zipcode": "6020948",
    "prefectureCode": "26",
    "prefectureNumber": 26,
    "prefecture": "京都府",
    "city": "京都市上京区",
    "town": "針屋町"
  },
  "6020951": {
    "zipcode": "6020951",
    "prefectureCode": "26",
    "prefectureNumber": 26,
    "prefecture": "京都府",
    "city": "京都市上京区",
    "town": "東今町"
  },
  "6020952": {
    "zipcode": "6020952",
    "prefectureCode": "26",
    "prefectureNumber": 26,
    "prefecture": "京都府",
    "city": "京都市上京区",
    "town": "頭町（油小路通元誓願寺下る、元誓願寺通油小路西入）"
  },
  "6020953": {
    "zipcode": "6020953",
    "prefectureCode": "26",
    "prefectureNumber": 26,
    "prefecture": "京都府",
    "city": "京都市上京区",
    "town": "元百万遍町"
  },
  "6020954": {
    "zipcode": "6020954",
    "prefectureCode": "26",
    "prefectureNumber": 26,
    "prefecture": "京都府",
    "city": "京都市上京区",
    "town": "西川端町"
  },
  "6020955": {
    "zipcode": "6020955",
    "prefectureCode": "26",
    "prefectureNumber": 26,
    "prefecture": "京都府",
    "city": "京都市上京区",
    "town": "竪富田町"
  },
  "6020956": {
    "zipcode": "6020956",
    "prefectureCode": "26",
    "prefectureNumber": 26,
    "prefecture": "京都府",
    "city": "京都市上京区",
    "town": "西町（東堀川通元誓願寺下る、元誓願寺通油小路西入、元誓願寺通東堀川東入）"
  },
  "6020957": {
    "zipcode": "6020957",
    "prefectureCode": "26",
    "prefectureNumber": 26,
    "prefecture": "京都府",
    "city": "京都市上京区",
    "town": "西今町"
  },
  "6020958": {
    "zipcode": "6020958",
    "prefectureCode": "26",
    "prefectureNumber": 26,
    "prefecture": "京都府",
    "city": "京都市上京区",
    "town": "仲之町（油小路通今出川下る、油小路通元誓願寺上る、元誓願寺通油小路西入、元誓願寺通油小路東入、元誓願寺通堀川東入）"
  },
  "6020959": {
    "zipcode": "6020959",
    "prefectureCode": "26",
    "prefectureNumber": 26,
    "prefecture": "京都府",
    "city": "京都市上京区",
    "town": "革堂西町"
  },
  "6028001": {
    "zipcode": "6028001",
    "prefectureCode": "26",
    "prefectureNumber": 26,
    "prefecture": "京都府",
    "city": "京都市上京区",
    "town": "元浄花院町"
  },
  "6028002": {
    "zipcode": "6028002",
    "prefectureCode": "26",
    "prefectureNumber": 26,
    "prefecture": "京都府",
    "city": "京都市上京区",
    "town": "鷹司町（下長者町通烏丸西入）"
  },
  "6028003": {
    "zipcode": "6028003",
    "prefectureCode": "26",
    "prefectureNumber": 26,
    "prefecture": "京都府",
    "city": "京都市上京区",
    "town": "清和院町"
  },
  "6028004": {
    "zipcode": "6028004",
    "prefectureCode": "26",
    "prefectureNumber": 26,
    "prefecture": "京都府",
    "city": "京都市上京区",
    "town": "西鷹司町"
  },
  "6028005": {
    "zipcode": "6028005",
    "prefectureCode": "26",
    "prefectureNumber": 26,
    "prefecture": "京都府",
    "city": "京都市上京区",
    "town": "元頂妙寺町"
  },
  "6028006": {
    "zipcode": "6028006",
    "prefectureCode": "26",
    "prefectureNumber": 26,
    "prefecture": "京都府",
    "city": "京都市上京区",
    "town": "元土御門町"
  },
  "6028007": {
    "zipcode": "6028007",
    "prefectureCode": "26",
    "prefectureNumber": 26,
    "prefecture": "京都府",
    "city": "京都市上京区",
    "town": "東長者町"
  },
  "6028011": {
    "zipcode": "6028011",
    "prefectureCode": "26",
    "prefectureNumber": 26,
    "prefecture": "京都府",
    "city": "京都市上京区",
    "town": "桜鶴円町"
  },
  "6028012": {
    "zipcode": "6028012",
    "prefectureCode": "26",
    "prefectureNumber": 26,
    "prefecture": "京都府",
    "city": "京都市上京区",
    "town": "中出水町"
  },
  "6028013": {
    "zipcode": "6028013",
    "prefectureCode": "26",
    "prefectureNumber": 26,
    "prefecture": "京都府",
    "city": "京都市上京区",
    "town": "五町目町"
  },
  "6028014": {
    "zipcode": "6028014",
    "prefectureCode": "26",
    "prefectureNumber": 26,
    "prefecture": "京都府",
    "city": "京都市上京区",
    "town": "勘解由小路町"
  },
  "6028015": {
    "zipcode": "6028015",
    "prefectureCode": "26",
    "prefectureNumber": 26,
    "prefecture": "京都府",
    "city": "京都市上京区",
    "town": "常泉院町"
  },
  "6028016": {
    "zipcode": "6028016",
    "prefectureCode": "26",
    "prefectureNumber": 26,
    "prefecture": "京都府",
    "city": "京都市上京区",
    "town": "両御霊町"
  },
  "6028017": {
    "zipcode": "6028017",
    "prefectureCode": "26",
    "prefectureNumber": 26,
    "prefecture": "京都府",
    "city": "京都市上京区",
    "town": "西出水町"
  },
  "6028018": {
    "zipcode": "6028018",
    "prefectureCode": "26",
    "prefectureNumber": 26,
    "prefecture": "京都府",
    "city": "京都市上京区",
    "town": "御霊町"
  },
  "6028019": {
    "zipcode": "6028019",
    "prefectureCode": "26",
    "prefectureNumber": 26,
    "prefecture": "京都府",
    "city": "京都市上京区",
    "town": "近衛町（下長者町通室町西入、下長者町通室町東入、出水通烏丸西入、出水通室町東入、室町通下長者町下る、室町通出水上る、室町通出水上る東入）"
  },
  "6028021": {
    "zipcode": "6028021",
    "prefectureCode": "26",
    "prefectureNumber": 26,
    "prefecture": "京都府",
    "city": "京都市上京区",
    "town": "堀松町"
  },
  "6028022": {
    "zipcode": "6028022",
    "prefectureCode": "26",
    "prefectureNumber": 26,
    "prefecture": "京都府",
    "city": "京都市上京区",
    "town": "養安町"
  },
  "6028023": {
    "zipcode": "6028023",
    "prefectureCode": "26",
    "prefectureNumber": 26,
    "prefecture": "京都府",
    "city": "京都市上京区",
    "town": "春日町"
  },
  "6028024": {
    "zipcode": "6028024",
    "prefectureCode": "26",
    "prefectureNumber": 26,
    "prefecture": "京都府",
    "city": "京都市上京区",
    "town": "大門町"
  },
  "6028025": {
    "zipcode": "6028025",
    "prefectureCode": "26",
    "prefectureNumber": 26,
    "prefecture": "京都府",
    "city": "京都市上京区",
    "town": "今薬屋町"
  },
  "6028026": {
    "zipcode": "6028026",
    "prefectureCode": "26",
    "prefectureNumber": 26,
    "prefecture": "京都府",
    "city": "京都市上京区",
    "town": "春帯町"
  },
  "6028027": {
    "zipcode": "6028027",
    "prefectureCode": "26",
    "prefectureNumber": 26,
    "prefecture": "京都府",
    "city": "京都市上京区",
    "town": "東立売町"
  },
  "6028028": {
    "zipcode": "6028028",
    "prefectureCode": "26",
    "prefectureNumber": 26,
    "prefecture": "京都府",
    "city": "京都市上京区",
    "town": "門跡町"
  },
  "6028029": {
    "zipcode": "6028029",
    "prefectureCode": "26",
    "prefectureNumber": 26,
    "prefecture": "京都府",
    "city": "京都市上京区",
    "town": "武衛陣町"
  },
  "6028031": {
    "zipcode": "6028031",
    "prefectureCode": "26",
    "prefectureNumber": 26,
    "prefecture": "京都府",
    "city": "京都市上京区",
    "town": "東裏辻町"
  },
  "6028032": {
    "zipcode": "6028032",
    "prefectureCode": "26",
    "prefectureNumber": 26,
    "prefecture": "京都府",
    "city": "京都市上京区",
    "town": "夷川町"
  },
  "6028033": {
    "zipcode": "6028033",
    "prefectureCode": "26",
    "prefectureNumber": 26,
    "prefecture": "京都府",
    "city": "京都市上京区",
    "town": "上鍛冶町"
  },
  "6028034": {
    "zipcode": "6028034",
    "prefectureCode": "26",
    "prefectureNumber": 26,
    "prefecture": "京都府",
    "city": "京都市上京区",
    "town": "米屋町（油小路椹木町下る、油小路通丸太町上る、椹木町通油小路西入、椹木町通油小路東入、丸太町通油小路西入、丸太町通油小路東入）"
  },
  "6028035": {
    "zipcode": "6028035",
    "prefectureCode": "26",
    "prefectureNumber": 26,
    "prefecture": "京都府",
    "city": "京都市上京区",
    "town": "六町目"
  },
  "6028036": {
    "zipcode": "6028036",
    "prefectureCode": "26",
    "prefectureNumber": 26,
    "prefecture": "京都府",
    "city": "京都市上京区",
    "town": "西山崎町"
  },
  "6028037": {
    "zipcode": "6028037",
    "prefectureCode": "26",
    "prefectureNumber": 26,
    "prefecture": "京都府",
    "city": "京都市上京区",
    "town": "八幡町"
  },
  "6028038": {
    "zipcode": "6028038",
    "prefectureCode": "26",
    "prefectureNumber": 26,
    "prefecture": "京都府",
    "city": "京都市上京区",
    "town": "東魚屋町"
  },
  "6028041": {
    "zipcode": "6028041",
    "prefectureCode": "26",
    "prefectureNumber": 26,
    "prefecture": "京都府",
    "city": "京都市上京区",
    "town": "藪之内町"
  },
  "6028042": {
    "zipcode": "6028042",
    "prefectureCode": "26",
    "prefectureNumber": 26,
    "prefecture": "京都府",
    "city": "京都市上京区",
    "town": "西裏辻町"
  },
  "6028043": {
    "zipcode": "6028043",
    "prefectureCode": "26",
    "prefectureNumber": 26,
    "prefecture": "京都府",
    "city": "京都市上京区",
    "town": "五町目"
  },
  "6028044": {
    "zipcode": "6028044",
    "prefectureCode": "26",
    "prefectureNumber": 26,
    "prefecture": "京都府",
    "city": "京都市上京区",
    "town": "東橋詰町（下立売通堀川東入）"
  },
  "6028045": {
    "zipcode": "6028045",
    "prefectureCode": "26",
    "prefectureNumber": 26,
    "prefecture": "京都府",
    "city": "京都市上京区",
    "town": "四町目（出水通油小路西入、出水通堀川東入、出水通堀川東入下る、出水通東堀川東入、下立売通堀川東入、下立売通堀川東入上る、下立売通堀川東入下る、東堀川通下立売上る、東堀川通出水下る）"
  },
  "6028046": {
    "zipcode": "6028046",
    "prefectureCode": "26",
    "prefectureNumber": 26,
    "prefecture": "京都府",
    "city": "京都市上京区",
    "town": "近衛町（油小路通下立売上る、油小路通出水下る、出水通油小路西入、出水通油小路東入）"
  },
  "6028047": {
    "zipcode": "6028047",
    "prefectureCode": "26",
    "prefectureNumber": 26,
    "prefecture": "京都府",
    "city": "京都市上京区",
    "town": "勘兵衛町"
  },
  "6028048": {
    "zipcode": "6028048",
    "prefectureCode": "26",
    "prefectureNumber": 26,
    "prefecture": "京都府",
    "city": "京都市上京区",
    "town": "西大路町（油小路通下立売上る、小川通下立売上る、小川通下立売下る、下立売通油小路東入、下立売通小川西入、下立売通小川東入）"
  },
  "6028051": {
    "zipcode": "6028051",
    "prefectureCode": "26",
    "prefectureNumber": 26,
    "prefecture": "京都府",
    "city": "京都市上京区",
    "town": "中橋詰町"
  },
  "6028052": {
    "zipcode": "6028052",
    "prefectureCode": "26",
    "prefectureNumber": 26,
    "prefecture": "京都府",
    "city": "京都市上京区",
    "town": "鷹司町（下長者町通小川東入）"
  },
  "6028053": {
    "zipcode": "6028053",
    "prefectureCode": "26",
    "prefectureNumber": 26,
    "prefecture": "京都府",
    "city": "京都市上京区",
    "town": "茶屋町"
  },
  "6028054": {
    "zipcode": "6028054",
    "prefectureCode": "26",
    "prefectureNumber": 26,
    "prefecture": "京都府",
    "city": "京都市上京区",
    "town": "丁子風呂町"
  },
  "6028055": {
    "zipcode": "6028055",
    "prefectureCode": "26",
    "prefectureNumber": 26,
    "prefecture": "京都府",
    "city": "京都市上京区",
    "town": "大黒屋町"
  },
  "6028056": {
    "zipcode": "6028056",
    "prefectureCode": "26",
    "prefectureNumber": 26,
    "prefecture": "京都府",
    "city": "京都市上京区",
    "town": "三町目（出水通東堀川東入、出水通堀川東入、東堀川通下長者町下る、東堀川通出水上る）"
  },
  "6028057": {
    "zipcode": "6028057",
    "prefectureCode": "26",
    "prefectureNumber": 26,
    "prefecture": "京都府",
    "city": "京都市上京区",
    "town": "紹巴町"
  },
  "6028058": {
    "zipcode": "6028058",
    "prefectureCode": "26",
    "prefectureNumber": 26,
    "prefecture": "京都府",
    "city": "京都市上京区",
    "town": "二町目（上長者町通東堀川東入、東堀川通上長者町下る、東堀川通下長者町上る、東堀川通上長者町上る）"
  },
  "6028061": {
    "zipcode": "6028061",
    "prefectureCode": "26",
    "prefectureNumber": 26,
    "prefecture": "京都府",
    "city": "京都市上京区",
    "town": "甲斐守町"
  },
  "6028062": {
    "zipcode": "6028062",
    "prefectureCode": "26",
    "prefectureNumber": 26,
    "prefecture": "京都府",
    "city": "京都市上京区",
    "town": "亀屋町（油小路通上長者町下る、油小路通下長者町上る、油小路通中長者町上る、油小路通中長者町下る、上長者町通油小路西入、上長者町通油小路東入）"
  },
  "6028063": {
    "zipcode": "6028063",
    "prefectureCode": "26",
    "prefectureNumber": 26,
    "prefecture": "京都府",
    "city": "京都市上京区",
    "town": "橋本町"
  },
  "6028064": {
    "zipcode": "6028064",
    "prefectureCode": "26",
    "prefectureNumber": 26,
    "prefecture": "京都府",
    "city": "京都市上京区",
    "town": "一町目（上長者町通堀川東入、東堀川通上長者町上る、東堀川通中立売通下る）"
  },
  "6028065": {
    "zipcode": "6028065",
    "prefectureCode": "26",
    "prefectureNumber": 26,
    "prefecture": "京都府",
    "city": "京都市上京区",
    "town": "突抜町（上長者町通堀川東入上る、中立売通堀川東入下る、油小路堀川の間中立売下る）"
  },
  "6028066": {
    "zipcode": "6028066",
    "prefectureCode": "26",
    "prefectureNumber": 26,
    "prefecture": "京都府",
    "city": "京都市上京区",
    "town": "東橋詰町（中立売通堀川東入）"
  },
  "6028067": {
    "zipcode": "6028067",
    "prefectureCode": "26",
    "prefectureNumber": 26,
    "prefecture": "京都府",
    "city": "京都市上京区",
    "town": "主計町"
  },
  "6028068": {
    "zipcode": "6028068",
    "prefectureCode": "26",
    "prefectureNumber": 26,
    "prefecture": "京都府",
    "city": "京都市上京区",
    "town": "松之下町"
  },
  "6028071": {
    "zipcode": "6028071",
    "prefectureCode": "26",
    "prefectureNumber": 26,
    "prefecture": "京都府",
    "city": "京都市上京区",
    "town": "仕丁町"
  },
  "6028072": {
    "zipcode": "6028072",
    "prefectureCode": "26",
    "prefectureNumber": 26,
    "prefecture": "京都府",
    "city": "京都市上京区",
    "town": "仲之町（新町通下長者町上る、新町通中長者町下る、中長者町通新町西入、中長者町通西洞院東入、中長者町通西洞院西入、西洞院通中長者町上る、西洞院通上長者町下る）"
  },
  "6028073": {
    "zipcode": "6028073",
    "prefectureCode": "26",
    "prefectureNumber": 26,
    "prefecture": "京都府",
    "city": "京都市上京区",
    "town": "頭町（上長者町通西洞院西入、西洞院通上長者町下る、西洞院通下長者町上る、西洞院通中長者町上る、西洞院通中長者町下る）"
  },
  "6028074": {
    "zipcode": "6028074",
    "prefectureCode": "26",
    "prefectureNumber": 26,
    "prefecture": "京都府",
    "city": "京都市上京区",
    "town": "有春町"
  },
  "6028075": {
    "zipcode": "6028075",
    "prefectureCode": "26",
    "prefectureNumber": 26,
    "prefecture": "京都府",
    "city": "京都市上京区",
    "town": "下小川町"
  },
  "6028076": {
    "zipcode": "6028076",
    "prefectureCode": "26",
    "prefectureNumber": 26,
    "prefecture": "京都府",
    "city": "京都市上京区",
    "town": "菊屋町（西洞院通上長者町上る、西洞院通中立売下る、上長者町通西洞院西入、上長者町通西洞院東入）"
  },
  "6028077": {
    "zipcode": "6028077",
    "prefectureCode": "26",
    "prefectureNumber": 26,
    "prefecture": "京都府",
    "city": "京都市上京区",
    "town": "土御門町"
  },
  "6028101": {
    "zipcode": "6028101",
    "prefectureCode": "26",
    "prefectureNumber": 26,
    "prefecture": "京都府",
    "city": "京都市上京区",
    "town": "東辰巳町"
  },
  "6028102": {
    "zipcode": "6028102",
    "prefectureCode": "26",
    "prefectureNumber": 26,
    "prefecture": "京都府",
    "city": "京都市上京区",
    "town": "東天秤町"
  },
  "6028103": {
    "zipcode": "6028103",
    "prefectureCode": "26",
    "prefectureNumber": 26,
    "prefecture": "京都府",
    "city": "京都市上京区",
    "town": "一町目（松屋町通出水下る、松屋町通下立売上る）"
  },
  "6028104": {
    "zipcode": "6028104",
    "prefectureCode": "26",
    "prefectureNumber": 26,
    "prefecture": "京都府",
    "city": "京都市上京区",
    "town": "浮田町"
  },
  "6028105": {
    "zipcode": "6028105",
    "prefectureCode": "26",
    "prefectureNumber": 26,
    "prefecture": "京都府",
    "city": "京都市上京区",
    "town": "天秤町"
  },
  "6028106": {
    "zipcode": "6028106",
    "prefectureCode": "26",
    "prefectureNumber": 26,
    "prefecture": "京都府",
    "city": "京都市上京区",
    "town": "秤口町"
  },
  "6028107": {
    "zipcode": "6028107",
    "prefectureCode": "26",
    "prefectureNumber": 26,
    "prefecture": "京都府",
    "city": "京都市上京区",
    "town": "西辰巳町"
  },
  "6028108": {
    "zipcode": "6028108",
    "prefectureCode": "26",
    "prefectureNumber": 26,
    "prefecture": "京都府",
    "city": "京都市上京区",
    "town": "南清水町"
  },
  "6028109": {
    "zipcode": "6028109",
    "prefectureCode": "26",
    "prefectureNumber": 26,
    "prefecture": "京都府",
    "city": "京都市上京区",
    "town": "西天秤町"
  },
  "6028111": {
    "zipcode": "6028111",
    "prefectureCode": "26",
    "prefectureNumber": 26,
    "prefecture": "京都府",
    "city": "京都市上京区",
    "town": "桝屋町（西堀川通下長者町下る、西堀川通出水上る）"
  },
  "6028112": {
    "zipcode": "6028112",
    "prefectureCode": "26",
    "prefectureNumber": 26,
    "prefecture": "京都府",
    "city": "京都市上京区",
    "town": "四町目（西堀川通下立売上る、西堀川通出水下る）"
  },
  "6028113": {
    "zipcode": "6028113",
    "prefectureCode": "26",
    "prefectureNumber": 26,
    "prefecture": "京都府",
    "city": "京都市上京区",
    "town": "元福大明神町"
  },
  "6028114": {
    "zipcode": "6028114",
    "prefectureCode": "26",
    "prefectureNumber": 26,
    "prefecture": "京都府",
    "city": "京都市上京区",
    "town": "荒神町（猪熊通下立売上る、猪熊通出水下る、猪熊通椹木町上る、出水通猪熊西入、出水通猪熊東入、出水通葭屋町西入）"
  },
  "6028115": {
    "zipcode": "6028115",
    "prefectureCode": "26",
    "prefectureNumber": 26,
    "prefecture": "京都府",
    "city": "京都市上京区",
    "town": "北蟹屋町"
  },
  "6028116": {
    "zipcode": "6028116",
    "prefectureCode": "26",
    "prefectureNumber": 26,
    "prefecture": "京都府",
    "city": "京都市上京区",
    "town": "清元町"
  },
  "6028117": {
    "zipcode": "6028117",
    "prefectureCode": "26",
    "prefectureNumber": 26,
    "prefecture": "京都府",
    "city": "京都市上京区",
    "town": "吉野町"
  },
  "6028118": {
    "zipcode": "6028118",
    "prefectureCode": "26",
    "prefectureNumber": 26,
    "prefecture": "京都府",
    "city": "京都市上京区",
    "town": "蛭子町（猪熊通出水上る、猪熊通下長者町下る、下長者町通猪熊西入、下長者町通猪熊東入、出水通猪熊西入、出水通猪熊東入）"
  },
  "6028119": {
    "zipcode": "6028119",
    "prefectureCode": "26",
    "prefectureNumber": 26,
    "prefecture": "京都府",
    "city": "京都市上京区",
    "town": "亀屋町（葭屋町通下長者町下る、葭屋町通出水上る、下長者町通堀川西入、下長者町通葭屋町東入、下長者町通葭屋町西入、出水通葭屋町西入、出水通葭屋町東入、出水通堀川西入）"
  },
  "6028121": {
    "zipcode": "6028121",
    "prefectureCode": "26",
    "prefectureNumber": 26,
    "prefecture": "京都府",
    "city": "京都市上京区",
    "town": "家永町"
  },
  "6028122": {
    "zipcode": "6028122",
    "prefectureCode": "26",
    "prefectureNumber": 26,
    "prefecture": "京都府",
    "city": "京都市上京区",
    "town": "南蟹屋町"
  },
  "6028123": {
    "zipcode": "6028123",
    "prefectureCode": "26",
    "prefectureNumber": 26,
    "prefecture": "京都府",
    "city": "京都市上京区",
    "town": "橋西二町目"
  },
  "6028124": {
    "zipcode": "6028124",
    "prefectureCode": "26",
    "prefectureNumber": 26,
    "prefecture": "京都府",
    "city": "京都市上京区",
    "town": "森中町"
  },
  "6028125": {
    "zipcode": "6028125",
    "prefectureCode": "26",
    "prefectureNumber": 26,
    "prefecture": "京都府",
    "city": "京都市上京区",
    "town": "菱屋町（大宮通椹木町上る、大宮通下立売下る、椹木町通大宮西入、椹木町通大宮東入）"
  },
  "6028126": {
    "zipcode": "6028126",
    "prefectureCode": "26",
    "prefectureNumber": 26,
    "prefecture": "京都府",
    "city": "京都市上京区",
    "town": "中書町"
  },
  "6028127": {
    "zipcode": "6028127",
    "prefectureCode": "26",
    "prefectureNumber": 26,
    "prefecture": "京都府",
    "city": "京都市上京区",
    "town": "櫛笥町"
  },
  "6028128": {
    "zipcode": "6028128",
    "prefectureCode": "26",
    "prefectureNumber": 26,
    "prefecture": "京都府",
    "city": "京都市上京区",
    "town": "二町目（松屋町通椹木町上る、松屋町通下立売下る）"
  },
  "6028131": {
    "zipcode": "6028131",
    "prefectureCode": "26",
    "prefectureNumber": 26,
    "prefecture": "京都府",
    "city": "京都市上京区",
    "town": "長尾町"
  },
  "6028132": {
    "zipcode": "6028132",
    "prefectureCode": "26",
    "prefectureNumber": 26,
    "prefecture": "京都府",
    "city": "京都市上京区",
    "town": "講堂町"
  },
  "6028133": {
    "zipcode": "6028133",
    "prefectureCode": "26",
    "prefectureNumber": 26,
    "prefecture": "京都府",
    "city": "京都市上京区",
    "town": "小伝馬町"
  },
  "6028134": {
    "zipcode": "6028134",
    "prefectureCode": "26",
    "prefectureNumber": 26,
    "prefecture": "京都府",
    "city": "京都市上京区",
    "town": "一町目（大宮通椹木町下る、大宮通丸太町上る、椹木町通大宮西入、丸太町通大宮東入）"
  },
  "6028135": {
    "zipcode": "6028135",
    "prefectureCode": "26",
    "prefectureNumber": 26,
    "prefecture": "京都府",
    "city": "京都市上京区",
    "town": "三町目（松屋町通椹木町下る、松屋町通丸太町上る）"
  },
  "6028136": {
    "zipcode": "6028136",
    "prefectureCode": "26",
    "prefectureNumber": 26,
    "prefecture": "京都府",
    "city": "京都市上京区",
    "town": "中御門横町"
  },
  "6028137": {
    "zipcode": "6028137",
    "prefectureCode": "26",
    "prefectureNumber": 26,
    "prefecture": "京都府",
    "city": "京都市上京区",
    "town": "大黒町（猪熊通椹木町上る、猪熊通下立売下る、椹木町通猪熊西入）"
  },
  "6028138": {
    "zipcode": "6028138",
    "prefectureCode": "26",
    "prefectureNumber": 26,
    "prefecture": "京都府",
    "city": "京都市上京区",
    "town": "西橋詰町"
  },
  "6028139": {
    "zipcode": "6028139",
    "prefectureCode": "26",
    "prefectureNumber": 26,
    "prefecture": "京都府",
    "city": "京都市上京区",
    "town": "丸屋町"
  },
  "6028141": {
    "zipcode": "6028141",
    "prefectureCode": "26",
    "prefectureNumber": 26,
    "prefecture": "京都府",
    "city": "京都市上京区",
    "town": "上堀川町"
  },
  "6028142": {
    "zipcode": "6028142",
    "prefectureCode": "26",
    "prefectureNumber": 26,
    "prefecture": "京都府",
    "city": "京都市上京区",
    "town": "下堀川町"
  },
  "6028143": {
    "zipcode": "6028143",
    "prefectureCode": "26",
    "prefectureNumber": 26,
    "prefecture": "京都府",
    "city": "京都市上京区",
    "town": "中之町（猪熊通竹屋町上る、猪熊通丸太町下る、西堀川通丸太町下る）"
  },
  "6028144": {
    "zipcode": "6028144",
    "prefectureCode": "26",
    "prefectureNumber": 26,
    "prefecture": "京都府",
    "city": "京都市上京区",
    "town": "藁屋町"
  },
  "6028145": {
    "zipcode": "6028145",
    "prefectureCode": "26",
    "prefectureNumber": 26,
    "prefecture": "京都府",
    "city": "京都市上京区",
    "town": "左馬松町"
  },
  "6028146": {
    "zipcode": "6028146",
    "prefectureCode": "26",
    "prefectureNumber": 26,
    "prefecture": "京都府",
    "city": "京都市上京区",
    "town": "木屋之町"
  },
  "6028147": {
    "zipcode": "6028147",
    "prefectureCode": "26",
    "prefectureNumber": 26,
    "prefecture": "京都府",
    "city": "京都市上京区",
    "town": "直家町"
  },
  "6028148": {
    "zipcode": "6028148",
    "prefectureCode": "26",
    "prefectureNumber": 26,
    "prefecture": "京都府",
    "city": "京都市上京区",
    "town": "西丸太町"
  },
  "6028151": {
    "zipcode": "6028151",
    "prefectureCode": "26",
    "prefectureNumber": 26,
    "prefecture": "京都府",
    "city": "京都市上京区",
    "town": "西院町"
  },
  "6028152": {
    "zipcode": "6028152",
    "prefectureCode": "26",
    "prefectureNumber": 26,
    "prefecture": "京都府",
    "city": "京都市上京区",
    "town": "北伊勢屋町"
  },
  "6028153": {
    "zipcode": "6028153",
    "prefectureCode": "26",
    "prefectureNumber": 26,
    "prefecture": "京都府",
    "city": "京都市上京区",
    "town": "南伊勢屋町"
  },
  "6028154": {
    "zipcode": "6028154",
    "prefectureCode": "26",
    "prefectureNumber": 26,
    "prefecture": "京都府",
    "city": "京都市上京区",
    "town": "四町目（竹屋町通日暮西入、日暮通竹屋町上る、日暮通丸太町下る、日暮通丸太町下る西入）"
  },
  "6028155": {
    "zipcode": "6028155",
    "prefectureCode": "26",
    "prefectureNumber": 26,
    "prefecture": "京都府",
    "city": "京都市上京区",
    "town": "主税町"
  },
  "6028156": {
    "zipcode": "6028156",
    "prefectureCode": "26",
    "prefectureNumber": 26,
    "prefecture": "京都府",
    "city": "京都市上京区",
    "town": "聚楽町"
  },
  "6028157": {
    "zipcode": "6028157",
    "prefectureCode": "26",
    "prefectureNumber": 26,
    "prefecture": "京都府",
    "city": "京都市上京区",
    "town": "小山町"
  },
  "6028158": {
    "zipcode": "6028158",
    "prefectureCode": "26",
    "prefectureNumber": 26,
    "prefecture": "京都府",
    "city": "京都市上京区",
    "town": "中務町"
  },
  "6028161": {
    "zipcode": "6028161",
    "prefectureCode": "26",
    "prefectureNumber": 26,
    "prefecture": "京都府",
    "city": "京都市上京区",
    "town": "新御幸町"
  },
  "6028162": {
    "zipcode": "6028162",
    "prefectureCode": "26",
    "prefectureNumber": 26,
    "prefecture": "京都府",
    "city": "京都市上京区",
    "town": "東神明町"
  },
  "6028163": {
    "zipcode": "6028163",
    "prefectureCode": "26",
    "prefectureNumber": 26,
    "prefecture": "京都府",
    "city": "京都市上京区",
    "town": "田中町"
  },
  "6028164": {
    "zipcode": "6028164",
    "prefectureCode": "26",
    "prefectureNumber": 26,
    "prefecture": "京都府",
    "city": "京都市上京区",
    "town": "十四軒町"
  },
  "6028165": {
    "zipcode": "6028165",
    "prefectureCode": "26",
    "prefectureNumber": 26,
    "prefecture": "京都府",
    "city": "京都市上京区",
    "town": "尼ケ崎横町"
  },
  "6028166": {
    "zipcode": "6028166",
    "prefectureCode": "26",
    "prefectureNumber": 26,
    "prefecture": "京都府",
    "city": "京都市上京区",
    "town": "福島町"
  },
  "6028167": {
    "zipcode": "6028167",
    "prefectureCode": "26",
    "prefectureNumber": 26,
    "prefecture": "京都府",
    "city": "京都市上京区",
    "town": "二本松町"
  },
  "6028168": {
    "zipcode": "6028168",
    "prefectureCode": "26",
    "prefectureNumber": 26,
    "prefecture": "京都府",
    "city": "京都市上京区",
    "town": "弁天町"
  },
  "6028169": {
    "zipcode": "6028169",
    "prefectureCode": "26",
    "prefectureNumber": 26,
    "prefecture": "京都府",
    "city": "京都市上京区",
    "town": "西神明町"
  },
  "6028171": {
    "zipcode": "6028171",
    "prefectureCode": "26",
    "prefectureNumber": 26,
    "prefecture": "京都府",
    "city": "京都市上京区",
    "town": "山本町"
  },
  "6028172": {
    "zipcode": "6028172",
    "prefectureCode": "26",
    "prefectureNumber": 26,
    "prefecture": "京都府",
    "city": "京都市上京区",
    "town": "天秤丸町"
  },
  "6028173": {
    "zipcode": "6028173",
    "prefectureCode": "26",
    "prefectureNumber": 26,
    "prefecture": "京都府",
    "city": "京都市上京区",
    "town": "金馬場町"
  },
  "6028174": {
    "zipcode": "6028174",
    "prefectureCode": "26",
    "prefectureNumber": 26,
    "prefecture": "京都府",
    "city": "京都市上京区",
    "town": "分銅町"
  },
  "6028175": {
    "zipcode": "6028175",
    "prefectureCode": "26",
    "prefectureNumber": 26,
    "prefecture": "京都府",
    "city": "京都市上京区",
    "town": "中村町"
  },
  "6028176": {
    "zipcode": "6028176",
    "prefectureCode": "26",
    "prefectureNumber": 26,
    "prefecture": "京都府",
    "city": "京都市上京区",
    "town": "下丸屋町"
  },
  "6028177": {
    "zipcode": "6028177",
    "prefectureCode": "26",
    "prefectureNumber": 26,
    "prefecture": "京都府",
    "city": "京都市上京区",
    "town": "田村備前町"
  },
  "6028178": {
    "zipcode": "6028178",
    "prefectureCode": "26",
    "prefectureNumber": 26,
    "prefecture": "京都府",
    "city": "京都市上京区",
    "town": "白銀町"
  },
  "6028179": {
    "zipcode": "6028179",
    "prefectureCode": "26",
    "prefectureNumber": 26,
    "prefecture": "京都府",
    "city": "京都市上京区",
    "town": "坤高町"
  },
  "6028201": {
    "zipcode": "6028201",
    "prefectureCode": "26",
    "prefectureNumber": 26,
    "prefecture": "京都府",
    "city": "京都市上京区",
    "town": "桝屋町（笹屋町通大宮西入、笹屋町通智恵光院東入）"
  },
  "6028202": {
    "zipcode": "6028202",
    "prefectureCode": "26",
    "prefectureNumber": 26,
    "prefecture": "京都府",
    "city": "京都市上京区",
    "town": "栄町（大宮通一条上る西入、大宮通中立売下る、智恵光院通一条上る東入）"
  },
  "6028203": {
    "zipcode": "6028203",
    "prefectureCode": "26",
    "prefectureNumber": 26,
    "prefecture": "京都府",
    "city": "京都市上京区",
    "town": "鏡石町"
  },
  "6028204": {
    "zipcode": "6028204",
    "prefectureCode": "26",
    "prefectureNumber": 26,
    "prefecture": "京都府",
    "city": "京都市上京区",
    "town": "下鏡石町"
  },
  "6028205": {
    "zipcode": "6028205",
    "prefectureCode": "26",
    "prefectureNumber": 26,
    "prefecture": "京都府",
    "city": "京都市上京区",
    "town": "新白水丸町"
  },
  "6028206": {
    "zipcode": "6028206",
    "prefectureCode": "26",
    "prefectureNumber": 26,
    "prefecture": "京都府",
    "city": "京都市上京区",
    "town": "南新在家町"
  },
  "6028207": {
    "zipcode": "6028207",
    "prefectureCode": "26",
    "prefectureNumber": 26,
    "prefecture": "京都府",
    "city": "京都市上京区",
    "town": "北新在家町"
  },
  "6028208": {
    "zipcode": "6028208",
    "prefectureCode": "26",
    "prefectureNumber": 26,
    "prefecture": "京都府",
    "city": "京都市上京区",
    "town": "智恵光院前之町"
  },
  "6028209": {
    "zipcode": "6028209",
    "prefectureCode": "26",
    "prefectureNumber": 26,
    "prefecture": "京都府",
    "city": "京都市上京区",
    "town": "橘町"
  },
  "6028211": {
    "zipcode": "6028211",
    "prefectureCode": "26",
    "prefectureNumber": 26,
    "prefecture": "京都府",
    "city": "京都市上京区",
    "town": "村雲町"
  },
  "6028212": {
    "zipcode": "6028212",
    "prefectureCode": "26",
    "prefectureNumber": 26,
    "prefecture": "京都府",
    "city": "京都市上京区",
    "town": "橋詰町"
  },
  "6028213": {
    "zipcode": "6028213",
    "prefectureCode": "26",
    "prefectureNumber": 26,
    "prefecture": "京都府",
    "city": "京都市上京区",
    "town": "徳屋町"
  },
  "6028214": {
    "zipcode": "6028214",
    "prefectureCode": "26",
    "prefectureNumber": 26,
    "prefecture": "京都府",
    "city": "京都市上京区",
    "town": "北之御門町"
  },
  "6028215": {
    "zipcode": "6028215",
    "prefectureCode": "26",
    "prefectureNumber": 26,
    "prefecture": "京都府",
    "city": "京都市上京区",
    "town": "寺今町"
  },
  "6028216": {
    "zipcode": "6028216",
    "prefectureCode": "26",
    "prefectureNumber": 26,
    "prefecture": "京都府",
    "city": "京都市上京区",
    "town": "竪門前町"
  },
  "6028217": {
    "zipcode": "6028217",
    "prefectureCode": "26",
    "prefectureNumber": 26,
    "prefecture": "京都府",
    "city": "京都市上京区",
    "town": "南門前町"
  },
  "6028218": {
    "zipcode": "6028218",
    "prefectureCode": "26",
    "prefectureNumber": 26,
    "prefecture": "京都府",
    "city": "京都市上京区",
    "town": "富小路町"
  },
  "6028221": {
    "zipcode": "6028221",
    "prefectureCode": "26",
    "prefectureNumber": 26,
    "prefecture": "京都府",
    "city": "京都市上京区",
    "town": "堀川上之町"
  },
  "6028222": {
    "zipcode": "6028222",
    "prefectureCode": "26",
    "prefectureNumber": 26,
    "prefecture": "京都府",
    "city": "京都市上京区",
    "town": "晴明町"
  },
  "6028223": {
    "zipcode": "6028223",
    "prefectureCode": "26",
    "prefectureNumber": 26,
    "prefecture": "京都府",
    "city": "京都市上京区",
    "town": "横神明町"
  },
  "6028224": {
    "zipcode": "6028224",
    "prefectureCode": "26",
    "prefectureNumber": 26,
    "prefecture": "京都府",
    "city": "京都市上京区",
    "town": "弾正町"
  },
  "6028225": {
    "zipcode": "6028225",
    "prefectureCode": "26",
    "prefectureNumber": 26,
    "prefecture": "京都府",
    "city": "京都市上京区",
    "town": "下石橋町"
  },
  "6028226": {
    "zipcode": "6028226",
    "prefectureCode": "26",
    "prefectureNumber": 26,
    "prefecture": "京都府",
    "city": "京都市上京区",
    "town": "石薬師町"
  },
  "6028227": {
    "zipcode": "6028227",
    "prefectureCode": "26",
    "prefectureNumber": 26,
    "prefecture": "京都府",
    "city": "京都市上京区",
    "town": "毘沙門町（大宮通一条上る東入、黒門通一条上る、黒門通元誓願寺下る、黒門通元誓願寺下る西入、黒門通一条上る西入）"
  },
  "6028228": {
    "zipcode": "6028228",
    "prefectureCode": "26",
    "prefectureNumber": 26,
    "prefecture": "京都府",
    "city": "京都市上京区",
    "town": "竪神明町"
  },
  "6028231": {
    "zipcode": "6028231",
    "prefectureCode": "26",
    "prefectureNumber": 26,
    "prefecture": "京都府",
    "city": "京都市上京区",
    "town": "如水町"
  },
  "6028232": {
    "zipcode": "6028232",
    "prefectureCode": "26",
    "prefectureNumber": 26,
    "prefecture": "京都府",
    "city": "京都市上京区",
    "town": "堀川下之町"
  },
  "6028233": {
    "zipcode": "6028233",
    "prefectureCode": "26",
    "prefectureNumber": 26,
    "prefecture": "京都府",
    "city": "京都市上京区",
    "town": "福大明神町"
  },
  "6028234": {
    "zipcode": "6028234",
    "prefectureCode": "26",
    "prefectureNumber": 26,
    "prefecture": "京都府",
    "city": "京都市上京区",
    "town": "小寺町"
  },
  "6028235": {
    "zipcode": "6028235",
    "prefectureCode": "26",
    "prefectureNumber": 26,
    "prefecture": "京都府",
    "city": "京都市上京区",
    "town": "飛弾殿町"
  },
  "6028236": {
    "zipcode": "6028236",
    "prefectureCode": "26",
    "prefectureNumber": 26,
    "prefecture": "京都府",
    "city": "京都市上京区",
    "town": "庇町"
  },
  "6028237": {
    "zipcode": "6028237",
    "prefectureCode": "26",
    "prefectureNumber": 26,
    "prefecture": "京都府",
    "city": "京都市上京区",
    "town": "梨木町"
  },
  "6028238": {
    "zipcode": "6028238",
    "prefectureCode": "26",
    "prefectureNumber": 26,
    "prefecture": "京都府",
    "city": "京都市上京区",
    "town": "糸屋町"
  },
  "6028239": {
    "zipcode": "6028239",
    "prefectureCode": "26",
    "prefectureNumber": 26,
    "prefecture": "京都府",
    "city": "京都市上京区",
    "town": "下石橋南半町"
  },
  "6028241": {
    "zipcode": "6028241",
    "prefectureCode": "26",
    "prefectureNumber": 26,
    "prefecture": "京都府",
    "city": "京都市上京区",
    "town": "役人町"
  },
  "6028242": {
    "zipcode": "6028242",
    "prefectureCode": "26",
    "prefectureNumber": 26,
    "prefecture": "京都府",
    "city": "京都市上京区",
    "town": "皀莢町"
  },
  "6028243": {
    "zipcode": "6028243",
    "prefectureCode": "26",
    "prefectureNumber": 26,
    "prefecture": "京都府",
    "city": "京都市上京区",
    "town": "奈良物町"
  },
  "6028244": {
    "zipcode": "6028244",
    "prefectureCode": "26",
    "prefectureNumber": 26,
    "prefecture": "京都府",
    "city": "京都市上京区",
    "town": "菊屋町（葭屋町通上長者町下る、葭屋町通下長者町上る、上長者町通葭屋町西入、上長者町通葭屋町東入、下長者町通葭屋町西入、下長者町通葭屋町東入、下長者町通堀川西入）"
  },
  "6028245": {
    "zipcode": "6028245",
    "prefectureCode": "26",
    "prefectureNumber": 26,
    "prefecture": "京都府",
    "city": "京都市上京区",
    "town": "猪熊"
  },
  "6028246": {
    "zipcode": "6028246",
    "prefectureCode": "26",
    "prefectureNumber": 26,
    "prefecture": "京都府",
    "city": "京都市上京区",
    "town": "杉本町"
  },
  "6028247": {
    "zipcode": "6028247",
    "prefectureCode": "26",
    "prefectureNumber": 26,
    "prefecture": "京都府",
    "city": "京都市上京区",
    "town": "北俵町"
  },
  "6028248": {
    "zipcode": "6028248",
    "prefectureCode": "26",
    "prefectureNumber": 26,
    "prefecture": "京都府",
    "city": "京都市上京区",
    "town": "南俵町"
  },
  "6028251": {
    "zipcode": "6028251",
    "prefectureCode": "26",
    "prefectureNumber": 26,
    "prefecture": "京都府",
    "city": "京都市上京区",
    "town": "榎町"
  },
  "6028252": {
    "zipcode": "6028252",
    "prefectureCode": "26",
    "prefectureNumber": 26,
    "prefecture": "京都府",
    "city": "京都市上京区",
    "town": "北小大門町"
  },
  "6028253": {
    "zipcode": "6028253",
    "prefectureCode": "26",
    "prefectureNumber": 26,
    "prefecture": "京都府",
    "city": "京都市上京区",
    "town": "南小大門町"
  },
  "6028254": {
    "zipcode": "6028254",
    "prefectureCode": "26",
    "prefectureNumber": 26,
    "prefecture": "京都府",
    "city": "京都市上京区",
    "town": "藤五郎町"
  },
  "6028255": {
    "zipcode": "6028255",
    "prefectureCode": "26",
    "prefectureNumber": 26,
    "prefecture": "京都府",
    "city": "京都市上京区",
    "town": "東堀町"
  },
  "6028256": {
    "zipcode": "6028256",
    "prefectureCode": "26",
    "prefectureNumber": 26,
    "prefecture": "京都府",
    "city": "京都市上京区",
    "town": "神明町（上長者町通松屋町東入、松屋町通上長者町上る、松屋町通中立売下る）"
  },
  "6028257": {
    "zipcode": "6028257",
    "prefectureCode": "26",
    "prefectureNumber": 26,
    "prefecture": "京都府",
    "city": "京都市上京区",
    "town": "新元町"
  },
  "6028258": {
    "zipcode": "6028258",
    "prefectureCode": "26",
    "prefectureNumber": 26,
    "prefecture": "京都府",
    "city": "京都市上京区",
    "town": "和水町"
  },
  "6028259": {
    "zipcode": "6028259",
    "prefectureCode": "26",
    "prefectureNumber": 26,
    "prefecture": "京都府",
    "city": "京都市上京区",
    "town": "常陸町"
  },
  "6028261": {
    "zipcode": "6028261",
    "prefectureCode": "26",
    "prefectureNumber": 26,
    "prefecture": "京都府",
    "city": "京都市上京区",
    "town": "多門町"
  },
  "6028262": {
    "zipcode": "6028262",
    "prefectureCode": "26",
    "prefectureNumber": 26,
    "prefecture": "京都府",
    "city": "京都市上京区",
    "town": "須浜池町"
  },
  "6028263": {
    "zipcode": "6028263",
    "prefectureCode": "26",
    "prefectureNumber": 26,
    "prefecture": "京都府",
    "city": "京都市上京区",
    "town": "須浜東町"
  },
  "6028264": {
    "zipcode": "6028264",
    "prefectureCode": "26",
    "prefectureNumber": 26,
    "prefecture": "京都府",
    "city": "京都市上京区",
    "town": "須浜町"
  },
  "6028265": {
    "zipcode": "6028265",
    "prefectureCode": "26",
    "prefectureNumber": 26,
    "prefecture": "京都府",
    "city": "京都市上京区",
    "town": "下山里町"
  },
  "6028266": {
    "zipcode": "6028266",
    "prefectureCode": "26",
    "prefectureNumber": 26,
    "prefecture": "京都府",
    "city": "京都市上京区",
    "town": "菱丸町"
  },
  "6028267": {
    "zipcode": "6028267",
    "prefectureCode": "26",
    "prefectureNumber": 26,
    "prefecture": "京都府",
    "city": "京都市上京区",
    "town": "高台院竪町"
  },
  "6028268": {
    "zipcode": "6028268",
    "prefectureCode": "26",
    "prefectureNumber": 26,
    "prefecture": "京都府",
    "city": "京都市上京区",
    "town": "山里町"
  },
  "6028271": {
    "zipcode": "6028271",
    "prefectureCode": "26",
    "prefectureNumber": 26,
    "prefecture": "京都府",
    "city": "京都市上京区",
    "town": "高台院町"
  },
  "6028272": {
    "zipcode": "6028272",
    "prefectureCode": "26",
    "prefectureNumber": 26,
    "prefecture": "京都府",
    "city": "京都市上京区",
    "town": "亀木町"
  },
  "6028273": {
    "zipcode": "6028273",
    "prefectureCode": "26",
    "prefectureNumber": 26,
    "prefecture": "京都府",
    "city": "京都市上京区",
    "town": "長谷町"
  },
  "6028274": {
    "zipcode": "6028274",
    "prefectureCode": "26",
    "prefectureNumber": 26,
    "prefecture": "京都府",
    "city": "京都市上京区",
    "town": "山王町"
  },
  "6028275": {
    "zipcode": "6028275",
    "prefectureCode": "26",
    "prefectureNumber": 26,
    "prefecture": "京都府",
    "city": "京都市上京区",
    "town": "革堂前之町"
  },
  "6028276": {
    "zipcode": "6028276",
    "prefectureCode": "26",
    "prefectureNumber": 26,
    "prefecture": "京都府",
    "city": "京都市上京区",
    "town": "百万遍町"
  },
  "6028277": {
    "zipcode": "6028277",
    "prefectureCode": "26",
    "prefectureNumber": 26,
    "prefecture": "京都府",
    "city": "京都市上京区",
    "town": "信濃町"
  },
  "6028278": {
    "zipcode": "6028278",
    "prefectureCode": "26",
    "prefectureNumber": 26,
    "prefecture": "京都府",
    "city": "京都市上京区",
    "town": "愛染寺町"
  },
  "6028279": {
    "zipcode": "6028279",
    "prefectureCode": "26",
    "prefectureNumber": 26,
    "prefecture": "京都府",
    "city": "京都市上京区",
    "town": "新柳馬場頭町"
  },
  "6028281": {
    "zipcode": "6028281",
    "prefectureCode": "26",
    "prefectureNumber": 26,
    "prefecture": "京都府",
    "city": "京都市上京区",
    "town": "加賀屋町"
  },
  "6028282": {
    "zipcode": "6028282",
    "prefectureCode": "26",
    "prefectureNumber": 26,
    "prefecture": "京都府",
    "city": "京都市上京区",
    "town": "西富仲町"
  },
  "6028283": {
    "zipcode": "6028283",
    "prefectureCode": "26",
    "prefectureNumber": 26,
    "prefecture": "京都府",
    "city": "京都市上京区",
    "town": "仲御霊町"
  },
  "6028284": {
    "zipcode": "6028284",
    "prefectureCode": "26",
    "prefectureNumber": 26,
    "prefecture": "京都府",
    "city": "京都市上京区",
    "town": "亀屋町（千本通中立売上る、千本通中立売下る、中立売通千本西入）"
  },
  "6028285": {
    "zipcode": "6028285",
    "prefectureCode": "26",
    "prefectureNumber": 26,
    "prefecture": "京都府",
    "city": "京都市上京区",
    "town": "西中筋町"
  },
  "6028286": {
    "zipcode": "6028286",
    "prefectureCode": "26",
    "prefectureNumber": 26,
    "prefecture": "京都府",
    "city": "京都市上京区",
    "town": "玉屋町（千本通中立売上る、中立売通千本東入）"
  },
  "6028287": {
    "zipcode": "6028287",
    "prefectureCode": "26",
    "prefectureNumber": 26,
    "prefecture": "京都府",
    "city": "京都市上京区",
    "town": "丹波屋町"
  },
  "6028288": {
    "zipcode": "6028288",
    "prefectureCode": "26",
    "prefectureNumber": 26,
    "prefecture": "京都府",
    "city": "京都市上京区",
    "town": "田丸町"
  },
  "6028291": {
    "zipcode": "6028291",
    "prefectureCode": "26",
    "prefectureNumber": 26,
    "prefecture": "京都府",
    "city": "京都市上京区",
    "town": "福本町"
  },
  "6028292": {
    "zipcode": "6028292",
    "prefectureCode": "26",
    "prefectureNumber": 26,
    "prefecture": "京都府",
    "city": "京都市上京区",
    "town": "今新在家町"
  },
  "6028293": {
    "zipcode": "6028293",
    "prefectureCode": "26",
    "prefectureNumber": 26,
    "prefecture": "京都府",
    "city": "京都市上京区",
    "town": "新桝屋町"
  },
  "6028294": {
    "zipcode": "6028294",
    "prefectureCode": "26",
    "prefectureNumber": 26,
    "prefecture": "京都府",
    "city": "京都市上京区",
    "town": "東西俵屋町"
  },
  "6028295": {
    "zipcode": "6028295",
    "prefectureCode": "26",
    "prefectureNumber": 26,
    "prefecture": "京都府",
    "city": "京都市上京区",
    "town": "東石橋町"
  },
  "6028296": {
    "zipcode": "6028296",
    "prefectureCode": "26",
    "prefectureNumber": 26,
    "prefecture": "京都府",
    "city": "京都市上京区",
    "town": "北伊勢殿構町"
  },
  "6028297": {
    "zipcode": "6028297",
    "prefectureCode": "26",
    "prefectureNumber": 26,
    "prefecture": "京都府",
    "city": "京都市上京区",
    "town": "伊勢殿構町"
  },
  "6028298": {
    "zipcode": "6028298",
    "prefectureCode": "26",
    "prefectureNumber": 26,
    "prefecture": "京都府",
    "city": "京都市上京区",
    "town": "泰童町"
  },
  "6028299": {
    "zipcode": "6028299",
    "prefectureCode": "26",
    "prefectureNumber": 26,
    "prefecture": "京都府",
    "city": "京都市上京区",
    "town": "革堂之内町"
  },
  "6028301": {
    "zipcode": "6028301",
    "prefectureCode": "26",
    "prefectureNumber": 26,
    "prefecture": "京都府",
    "city": "京都市上京区",
    "town": "西芦山寺町"
  },
  "6028302": {
    "zipcode": "6028302",
    "prefectureCode": "26",
    "prefectureNumber": 26,
    "prefecture": "京都府",
    "city": "京都市上京区",
    "town": "井田町"
  },
  "6028303": {
    "zipcode": "6028303",
    "prefectureCode": "26",
    "prefectureNumber": 26,
    "prefecture": "京都府",
    "city": "京都市上京区",
    "town": "姥ケ寺之前町"
  },
  "6028304": {
    "zipcode": "6028304",
    "prefectureCode": "26",
    "prefectureNumber": 26,
    "prefecture": "京都府",
    "city": "京都市上京区",
    "town": "作庵町"
  },
  "6028305": {
    "zipcode": "6028305",
    "prefectureCode": "26",
    "prefectureNumber": 26,
    "prefecture": "京都府",
    "city": "京都市上京区",
    "town": "花車町"
  },
  "6028306": {
    "zipcode": "6028306",
    "prefectureCode": "26",
    "prefectureNumber": 26,
    "prefecture": "京都府",
    "city": "京都市上京区",
    "town": "西五辻北町"
  },
  "6028307": {
    "zipcode": "6028307",
    "prefectureCode": "26",
    "prefectureNumber": 26,
    "prefecture": "京都府",
    "city": "京都市上京区",
    "town": "閻魔前町"
  },
  "6028308": {
    "zipcode": "6028308",
    "prefectureCode": "26",
    "prefectureNumber": 26,
    "prefecture": "京都府",
    "city": "京都市上京区",
    "town": "北玄蕃町"
  },
  "6028311": {
    "zipcode": "6028311",
    "prefectureCode": "26",
    "prefectureNumber": 26,
    "prefecture": "京都府",
    "city": "京都市上京区",
    "town": "柏清盛町"
  },
  "6028312": {
    "zipcode": "6028312",
    "prefectureCode": "26",
    "prefectureNumber": 26,
    "prefecture": "京都府",
    "city": "京都市上京区",
    "town": "末広町"
  },
  "6028313": {
    "zipcode": "6028313",
    "prefectureCode": "26",
    "prefectureNumber": 26,
    "prefecture": "京都府",
    "city": "京都市上京区",
    "town": "風呂屋町"
  },
  "6028314": {
    "zipcode": "6028314",
    "prefectureCode": "26",
    "prefectureNumber": 26,
    "prefecture": "京都府",
    "city": "京都市上京区",
    "town": "佐竹町"
  },
  "6028315": {
    "zipcode": "6028315",
    "prefectureCode": "26",
    "prefectureNumber": 26,
    "prefecture": "京都府",
    "city": "京都市上京区",
    "town": "突抜町（今出川通七本松東入、今出川通七本松東入上る、五辻通七本松東入下る、五辻通六軒町西入下る）"
  },
  "6028316": {
    "zipcode": "6028316",
    "prefectureCode": "26",
    "prefectureNumber": 26,
    "prefecture": "京都府",
    "city": "京都市上京区",
    "town": "片原町"
  },
  "6028317": {
    "zipcode": "6028317",
    "prefectureCode": "26",
    "prefectureNumber": 26,
    "prefecture": "京都府",
    "city": "京都市上京区",
    "town": "東柳町"
  },
  "6028318": {
    "zipcode": "6028318",
    "prefectureCode": "26",
    "prefectureNumber": 26,
    "prefecture": "京都府",
    "city": "京都市上京区",
    "town": "老松町"
  },
  "6028319": {
    "zipcode": "6028319",
    "prefectureCode": "26",
    "prefectureNumber": 26,
    "prefecture": "京都府",
    "city": "京都市上京区",
    "town": "溝前町"
  },
  "6028321": {
    "zipcode": "6028321",
    "prefectureCode": "26",
    "prefectureNumber": 26,
    "prefecture": "京都府",
    "city": "京都市上京区",
    "town": "南上善寺町"
  },
  "6028322": {
    "zipcode": "6028322",
    "prefectureCode": "26",
    "prefectureNumber": 26,
    "prefecture": "京都府",
    "city": "京都市上京区",
    "town": "玉屋町（元誓願寺通千本西入、元誓願寺通六軒町東入、六軒町通元誓願寺上る、六軒町通元誓願寺下る、葭屋町通元誓願寺下る）"
  },
  "6028323": {
    "zipcode": "6028323",
    "prefectureCode": "26",
    "prefectureNumber": 26,
    "prefecture": "京都府",
    "city": "京都市上京区",
    "town": "大文字町"
  },
  "6028324": {
    "zipcode": "6028324",
    "prefectureCode": "26",
    "prefectureNumber": 26,
    "prefecture": "京都府",
    "city": "京都市上京区",
    "town": "元観音町"
  },
  "6028325": {
    "zipcode": "6028325",
    "prefectureCode": "26",
    "prefectureNumber": 26,
    "prefecture": "京都府",
    "city": "京都市上京区",
    "town": "毘沙門町（今出川通七本松西入、今出川通七本松西入上る、七本松通今出川上る、七本松通今出川下る、七本松通元誓願寺上る、七本松通五辻下る）"
  },
  "6028326": {
    "zipcode": "6028326",
    "prefectureCode": "26",
    "prefectureNumber": 26,
    "prefecture": "京都府",
    "city": "京都市上京区",
    "town": "西上善寺町"
  },
  "6028327": {
    "zipcode": "6028327",
    "prefectureCode": "26",
    "prefectureNumber": 26,
    "prefecture": "京都府",
    "city": "京都市上京区",
    "town": "南佐竹町"
  },
  "6028331": {
    "zipcode": "6028331",
    "prefectureCode": "26",
    "prefectureNumber": 26,
    "prefecture": "京都府",
    "city": "京都市上京区",
    "town": "若松町"
  },
  "6028332": {
    "zipcode": "6028332",
    "prefectureCode": "26",
    "prefectureNumber": 26,
    "prefecture": "京都府",
    "city": "京都市上京区",
    "town": "烏丸町"
  },
  "6028333": {
    "zipcode": "6028333",
    "prefectureCode": "26",
    "prefectureNumber": 26,
    "prefecture": "京都府",
    "city": "京都市上京区",
    "town": "三条殿町"
  },
  "6028334": {
    "zipcode": "6028334",
    "prefectureCode": "26",
    "prefectureNumber": 26,
    "prefecture": "京都府",
    "city": "京都市上京区",
    "town": "西今出川町"
  },
  "6028335": {
    "zipcode": "6028335",
    "prefectureCode": "26",
    "prefectureNumber": 26,
    "prefecture": "京都府",
    "city": "京都市上京区",
    "town": "一観音町"
  },
  "6028336": {
    "zipcode": "6028336",
    "prefectureCode": "26",
    "prefectureNumber": 26,
    "prefecture": "京都府",
    "city": "京都市上京区",
    "town": "滝ケ鼻町"
  },
  "6028337": {
    "zipcode": "6028337",
    "prefectureCode": "26",
    "prefectureNumber": 26,
    "prefecture": "京都府",
    "city": "京都市上京区",
    "town": "新建町"
  },
  "6028338": {
    "zipcode": "6028338",
    "prefectureCode": "26",
    "prefectureNumber": 26,
    "prefecture": "京都府",
    "city": "京都市上京区",
    "town": "松永町"
  },
  "6028341": {
    "zipcode": "6028341",
    "prefectureCode": "26",
    "prefectureNumber": 26,
    "prefecture": "京都府",
    "city": "京都市上京区",
    "town": "三軒町"
  },
  "6028342": {
    "zipcode": "6028342",
    "prefectureCode": "26",
    "prefectureNumber": 26,
    "prefecture": "京都府",
    "city": "京都市上京区",
    "town": "五番町"
  },
  "6028343": {
    "zipcode": "6028343",
    "prefectureCode": "26",
    "prefectureNumber": 26,
    "prefecture": "京都府",
    "city": "京都市上京区",
    "town": "利生町"
  },
  "6028344": {
    "zipcode": "6028344",
    "prefectureCode": "26",
    "prefectureNumber": 26,
    "prefecture": "京都府",
    "city": "京都市上京区",
    "town": "二番町"
  },
  "6028345": {
    "zipcode": "6028345",
    "prefectureCode": "26",
    "prefectureNumber": 26,
    "prefecture": "京都府",
    "city": "京都市上京区",
    "town": "一番町"
  },
  "6028346": {
    "zipcode": "6028346",
    "prefectureCode": "26",
    "prefectureNumber": 26,
    "prefecture": "京都府",
    "city": "京都市上京区",
    "town": "東町（一条通下ノ森西入、一条通下ノ森東入、一条通七本松西入、中立売通七本松西入）"
  },
  "6028347": {
    "zipcode": "6028347",
    "prefectureCode": "26",
    "prefectureNumber": 26,
    "prefecture": "京都府",
    "city": "京都市上京区",
    "town": "四番町"
  },
  "6028348": {
    "zipcode": "6028348",
    "prefectureCode": "26",
    "prefectureNumber": 26,
    "prefecture": "京都府",
    "city": "京都市上京区",
    "town": "白竹町"
  },
  "6028351": {
    "zipcode": "6028351",
    "prefectureCode": "26",
    "prefectureNumber": 26,
    "prefecture": "京都府",
    "city": "京都市上京区",
    "town": "六番町"
  },
  "6028352": {
    "zipcode": "6028352",
    "prefectureCode": "26",
    "prefectureNumber": 26,
    "prefecture": "京都府",
    "city": "京都市上京区",
    "town": "稲葉町"
  },
  "6028353": {
    "zipcode": "6028353",
    "prefectureCode": "26",
    "prefectureNumber": 26,
    "prefecture": "京都府",
    "city": "京都市上京区",
    "town": "長門町"
  },
  "6028354": {
    "zipcode": "6028354",
    "prefectureCode": "26",
    "prefectureNumber": 26,
    "prefecture": "京都府",
    "city": "京都市上京区",
    "town": "西東町"
  },
  "6028355": {
    "zipcode": "6028355",
    "prefectureCode": "26",
    "prefectureNumber": 26,
    "prefecture": "京都府",
    "city": "京都市上京区",
    "town": "天満屋町"
  },
  "6028356": {
    "zipcode": "6028356",
    "prefectureCode": "26",
    "prefectureNumber": 26,
    "prefecture": "京都府",
    "city": "京都市上京区",
    "town": "三助町"
  },
  "6028357": {
    "zipcode": "6028357",
    "prefectureCode": "26",
    "prefectureNumber": 26,
    "prefecture": "京都府",
    "city": "京都市上京区",
    "town": "鳳瑞町"
  },
  "6028358": {
    "zipcode": "6028358",
    "prefectureCode": "26",
    "prefectureNumber": 26,
    "prefecture": "京都府",
    "city": "京都市上京区",
    "town": "三番町"
  },
  "6028359": {
    "zipcode": "6028359",
    "prefectureCode": "26",
    "prefectureNumber": 26,
    "prefecture": "京都府",
    "city": "京都市上京区",
    "town": "七番町"
  },
  "6028361": {
    "zipcode": "6028361",
    "prefectureCode": "26",
    "prefectureNumber": 26,
    "prefecture": "京都府",
    "city": "京都市上京区",
    "town": "西上之町"
  },
  "6028362": {
    "zipcode": "6028362",
    "prefectureCode": "26",
    "prefectureNumber": 26,
    "prefecture": "京都府",
    "city": "京都市上京区",
    "town": "仲之町（御前通上の下立売上る、御前通上の下立売上る東入、御前通上の下立売上る２丁目、御前通下立売上る、御前通下立売上る２丁目、御前通下立売上る２丁目西入、御前通下立売上る東入、下ノ森通下立売上る、下ノ森通下立売上る西入、上の下立売通御前西入上る）"
  },
  "6028363": {
    "zipcode": "6028363",
    "prefectureCode": "26",
    "prefectureNumber": 26,
    "prefecture": "京都府",
    "city": "京都市上京区",
    "town": "大宮町（上の下立売通御前西入、上の下立売通御前西入上る、上の下立売通天神道東入、下立売通御前西入、下立売通御前西入上る）"
  },
  "6028364": {
    "zipcode": "6028364",
    "prefectureCode": "26",
    "prefectureNumber": 26,
    "prefecture": "京都府",
    "city": "京都市上京区",
    "town": "突抜町（下立売通御前西入、下立売通御前西入下る、下立売通天神道東入、下の下立売通御前西入）"
  },
  "6028365": {
    "zipcode": "6028365",
    "prefectureCode": "26",
    "prefectureNumber": 26,
    "prefecture": "京都府",
    "city": "京都市上京区",
    "town": "下之町"
  },
  "6028366": {
    "zipcode": "6028366",
    "prefectureCode": "26",
    "prefectureNumber": 26,
    "prefecture": "京都府",
    "city": "京都市上京区",
    "town": "行衛町"
  },
  "6028367": {
    "zipcode": "6028367",
    "prefectureCode": "26",
    "prefectureNumber": 26,
    "prefecture": "京都府",
    "city": "京都市上京区",
    "town": "堀川町"
  },
  "6028368": {
    "zipcode": "6028368",
    "prefectureCode": "26",
    "prefectureNumber": 26,
    "prefecture": "京都府",
    "city": "京都市上京区",
    "town": "北町（上の下立売通天神道西入上る、上の下立売通御前西入、上の下立売通御前西入上る、上の下立売通御前西入２丁目、上の下立売通御前西入２筋目、下長者町通御前西入、天神道上の下立売上る、天神道仁和寺街道下る、天神道下立売上る、天神道妙心寺道上る、天神道妙心寺道上る西入、仁和寺街道天神道西入下る、仁和寺街道天神道東入下る、御前通上の下立売上る、御前通上の下立売上る西入、御前通下立売上る、御前通下長者町上る西入、御前通仁和寺街道下る西入、御前通妙心寺道上る西入、御前通西裏上の下立売上る、御前通西裏下立売上る）"
  },
  "6028369": {
    "zipcode": "6028369",
    "prefectureCode": "26",
    "prefectureNumber": 26,
    "prefecture": "京都府",
    "city": "京都市上京区",
    "town": "川瀬町"
  },
  "6028371": {
    "zipcode": "6028371",
    "prefectureCode": "26",
    "prefectureNumber": 26,
    "prefecture": "京都府",
    "city": "京都市上京区",
    "town": "西町（一条通御前東入）"
  },
  "6028372": {
    "zipcode": "6028372",
    "prefectureCode": "26",
    "prefectureNumber": 26,
    "prefecture": "京都府",
    "city": "京都市上京区",
    "town": "下竪町"
  },
  "6028373": {
    "zipcode": "6028373",
    "prefectureCode": "26",
    "prefectureNumber": 26,
    "prefecture": "京都府",
    "city": "京都市上京区",
    "town": "下横町"
  },
  "6028374": {
    "zipcode": "6028374",
    "prefectureCode": "26",
    "prefectureNumber": 26,
    "prefecture": "京都府",
    "city": "京都市上京区",
    "town": "西町（一条通御前西入、一条通紙屋川東入、一条通天神道西入、一条通御前３丁目西入、一条通御前西入上る、一条通御前西入上る西入、一条通御前西入２丁目、一条通御前西入２丁目上る、一条通御前西入２丁目下る、一条通御前西入２筋目下る、一条通御前西入３丁目、一条通御前西入３丁目上る、一条通御前西入３丁目下る、一条通御前西入３筋目、一条通御前西入下る、一条通御前西入下る３丁目、一条通紙屋川東入上る、一条通紙屋川東入下る、天神道一条上る、天神道一条下る、天神道仁和寺街道上る）"
  },
  "6028375": {
    "zipcode": "6028375",
    "prefectureCode": "26",
    "prefectureNumber": 26,
    "prefecture": "京都府",
    "city": "京都市上京区",
    "town": "大上之町"
  },
  "6028376": {
    "zipcode": "6028376",
    "prefectureCode": "26",
    "prefectureNumber": 26,
    "prefecture": "京都府",
    "city": "京都市上京区",
    "town": "大東町"
  },
  "6028377": {
    "zipcode": "6028377",
    "prefectureCode": "26",
    "prefectureNumber": 26,
    "prefecture": "京都府",
    "city": "京都市上京区",
    "town": "東竪町"
  },
  "6028381": {
    "zipcode": "6028381",
    "prefectureCode": "26",
    "prefectureNumber": 26,
    "prefecture": "京都府",
    "city": "京都市上京区",
    "town": "真盛町"
  },
  "6028382": {
    "zipcode": "6028382",
    "prefectureCode": "26",
    "prefectureNumber": 26,
    "prefecture": "京都府",
    "city": "京都市上京区",
    "town": "末之口町"
  },
  "6028383": {
    "zipcode": "6028383",
    "prefectureCode": "26",
    "prefectureNumber": 26,
    "prefecture": "京都府",
    "city": "京都市上京区",
    "town": "西今小路町"
  },
  "6028384": {
    "zipcode": "6028384",
    "prefectureCode": "26",
    "prefectureNumber": 26,
    "prefecture": "京都府",
    "city": "京都市上京区",
    "town": "紙屋川町"
  },
  "6028385": {
    "zipcode": "6028385",
    "prefectureCode": "26",
    "prefectureNumber": 26,
    "prefecture": "京都府",
    "city": "京都市上京区",
    "town": "観音寺門前町"
  },
  "6028386": {
    "zipcode": "6028386",
    "prefectureCode": "26",
    "prefectureNumber": 26,
    "prefecture": "京都府",
    "city": "京都市上京区",
    "town": "馬喰町"
  },
  "6028387": {
    "zipcode": "6028387",
    "prefectureCode": "26",
    "prefectureNumber": 26,
    "prefecture": "京都府",
    "city": "京都市上京区",
    "town": "東今小路町"
  },
  "6028391": {
    "zipcode": "6028391",
    "prefectureCode": "26",
    "prefectureNumber": 26,
    "prefecture": "京都府",
    "city": "京都市上京区",
    "town": "神明町（御前通寺之内下る、御前通今出川上る、御前通今出川上る２丁目、御前通今出川上る３丁目、寺之内通御前西入）"
  },
  "6028392": {
    "zipcode": "6028392",
    "prefectureCode": "26",
    "prefectureNumber": 26,
    "prefecture": "京都府",
    "city": "京都市上京区",
    "town": "北町（御前通五辻上る、御前通今出川上る、御前通今出川上る１丁目、御前通今出川上る２丁目、御前通今出川上る２丁目西入、御前通今出川上る２筋目、御前通今出川上る西入、御前通今出川上る東入、御前通今出川２丁目上る、御前通寺之内下る）"
  },
  "6028393": {
    "zipcode": "6028393",
    "prefectureCode": "26",
    "prefectureNumber": 26,
    "prefecture": "京都府",
    "city": "京都市上京区",
    "town": "鳥居前町"
  },
  "6028394": {
    "zipcode": "6028394",
    "prefectureCode": "26",
    "prefectureNumber": 26,
    "prefecture": "京都府",
    "city": "京都市上京区",
    "town": "西柳町"
  },
  "6028395": {
    "zipcode": "6028395",
    "prefectureCode": "26",
    "prefectureNumber": 26,
    "prefecture": "京都府",
    "city": "京都市上京区",
    "town": "社家長屋町"
  },
  "6028401": {
    "zipcode": "6028401",
    "prefectureCode": "26",
    "prefectureNumber": 26,
    "prefecture": "京都府",
    "city": "京都市上京区",
    "town": "薬師前町"
  },
  "6028402": {
    "zipcode": "6028402",
    "prefectureCode": "26",
    "prefectureNumber": 26,
    "prefecture": "京都府",
    "city": "京都市上京区",
    "town": "田畑町"
  },
  "6028403": {
    "zipcode": "6028403",
    "prefectureCode": "26",
    "prefectureNumber": 26,
    "prefecture": "京都府",
    "city": "京都市上京区",
    "town": "中社町"
  },
  "6028404": {
    "zipcode": "6028404",
    "prefectureCode": "26",
    "prefectureNumber": 26,
    "prefecture": "京都府",
    "city": "京都市上京区",
    "town": "西千本町"
  },
  "6028405": {
    "zipcode": "6028405",
    "prefectureCode": "26",
    "prefectureNumber": 26,
    "prefecture": "京都府",
    "city": "京都市上京区",
    "town": "大猪熊町（寺之内通大宮西入、寺之内通智恵光院西入、寺之内通智恵光院東入、寺之内通大宮東入、智恵光院通寺之内下る）"
  },
  "6028406": {
    "zipcode": "6028406",
    "prefectureCode": "26",
    "prefectureNumber": 26,
    "prefecture": "京都府",
    "city": "京都市上京区",
    "town": "花開院町"
  },
  "6028407": {
    "zipcode": "6028407",
    "prefectureCode": "26",
    "prefectureNumber": 26,
    "prefecture": "京都府",
    "city": "京都市上京区",
    "town": "伊佐町"
  },
  "6028408": {
    "zipcode": "6028408",
    "prefectureCode": "26",
    "prefectureNumber": 26,
    "prefecture": "京都府",
    "city": "京都市上京区",
    "town": "古美濃部町"
  },
  "6028409": {
    "zipcode": "6028409",
    "prefectureCode": "26",
    "prefectureNumber": 26,
    "prefecture": "京都府",
    "city": "京都市上京区",
    "town": "新美濃部町"
  },
  "6028411": {
    "zipcode": "6028411",
    "prefectureCode": "26",
    "prefectureNumber": 26,
    "prefecture": "京都府",
    "city": "京都市上京区",
    "town": "東西町"
  },
  "6028412": {
    "zipcode": "6028412",
    "prefectureCode": "26",
    "prefectureNumber": 26,
    "prefecture": "京都府",
    "city": "京都市上京区",
    "town": "芝之町"
  },
  "6028413": {
    "zipcode": "6028413",
    "prefectureCode": "26",
    "prefectureNumber": 26,
    "prefecture": "京都府",
    "city": "京都市上京区",
    "town": "大北小路東町"
  },
  "6028414": {
    "zipcode": "6028414",
    "prefectureCode": "26",
    "prefectureNumber": 26,
    "prefecture": "京都府",
    "city": "京都市上京区",
    "town": "西北小路町（猪熊通上立売上る、猪熊通寺之内下る、大宮通寺之内下る東入、大宮通寺之内半丁下る東入、大宮通寺之内下る東入１丁目、寺之内通大宮東入下る、寺之内通大宮東入１丁目下る）"
  },
  "6028415": {
    "zipcode": "6028415",
    "prefectureCode": "26",
    "prefectureNumber": 26,
    "prefecture": "京都府",
    "city": "京都市上京区",
    "town": "前之町"
  },
  "6028416": {
    "zipcode": "6028416",
    "prefectureCode": "26",
    "prefectureNumber": 26,
    "prefecture": "京都府",
    "city": "京都市上京区",
    "town": "東千本町"
  },
  "6028417": {
    "zipcode": "6028417",
    "prefectureCode": "26",
    "prefectureNumber": 26,
    "prefecture": "京都府",
    "city": "京都市上京区",
    "town": "東社町"
  },
  "6028418": {
    "zipcode": "6028418",
    "prefectureCode": "26",
    "prefectureNumber": 26,
    "prefecture": "京都府",
    "city": "京都市上京区",
    "town": "妙蓮寺前町"
  },
  "6028421": {
    "zipcode": "6028421",
    "prefectureCode": "26",
    "prefectureNumber": 26,
    "prefecture": "京都府",
    "city": "京都市上京区",
    "town": "芝薬師町"
  },
  "6028422": {
    "zipcode": "6028422",
    "prefectureCode": "26",
    "prefectureNumber": 26,
    "prefecture": "京都府",
    "city": "京都市上京区",
    "town": "山名町"
  },
  "6028423": {
    "zipcode": "6028423",
    "prefectureCode": "26",
    "prefectureNumber": 26,
    "prefecture": "京都府",
    "city": "京都市上京区",
    "town": "藤木町"
  },
  "6028424": {
    "zipcode": "6028424",
    "prefectureCode": "26",
    "prefectureNumber": 26,
    "prefecture": "京都府",
    "city": "京都市上京区",
    "town": "阿弥陀寺町"
  },
  "6028425": {
    "zipcode": "6028425",
    "prefectureCode": "26",
    "prefectureNumber": 26,
    "prefecture": "京都府",
    "city": "京都市上京区",
    "town": "樋之口町"
  },
  "6028426": {
    "zipcode": "6028426",
    "prefectureCode": "26",
    "prefectureNumber": 26,
    "prefecture": "京都府",
    "city": "京都市上京区",
    "town": "曼陀羅町"
  },
  "6028427": {
    "zipcode": "6028427",
    "prefectureCode": "26",
    "prefectureNumber": 26,
    "prefecture": "京都府",
    "city": "京都市上京区",
    "town": "土田町"
  },
  "6028428": {
    "zipcode": "6028428",
    "prefectureCode": "26",
    "prefectureNumber": 26,
    "prefecture": "京都府",
    "city": "京都市上京区",
    "town": "幸在町"
  },
  "6028431": {
    "zipcode": "6028431",
    "prefectureCode": "26",
    "prefectureNumber": 26,
    "prefecture": "京都府",
    "city": "京都市上京区",
    "town": "東石屋町"
  },
  "6028432": {
    "zipcode": "6028432",
    "prefectureCode": "26",
    "prefectureNumber": 26,
    "prefecture": "京都府",
    "city": "京都市上京区",
    "town": "北猪熊町"
  },
  "6028433": {
    "zipcode": "6028433",
    "prefectureCode": "26",
    "prefectureNumber": 26,
    "prefecture": "京都府",
    "city": "京都市上京区",
    "town": "橋之上町"
  },
  "6028434": {
    "zipcode": "6028434",
    "prefectureCode": "26",
    "prefectureNumber": 26,
    "prefecture": "京都府",
    "city": "京都市上京区",
    "town": "西船橋町"
  },
  "6028435": {
    "zipcode": "6028435",
    "prefectureCode": "26",
    "prefectureNumber": 26,
    "prefecture": "京都府",
    "city": "京都市上京区",
    "town": "元伊佐町"
  },
  "6028436": {
    "zipcode": "6028436",
    "prefectureCode": "26",
    "prefectureNumber": 26,
    "prefecture": "京都府",
    "city": "京都市上京区",
    "town": "慈眼庵町"
  },
  "6028437": {
    "zipcode": "6028437",
    "prefectureCode": "26",
    "prefectureNumber": 26,
    "prefecture": "京都府",
    "city": "京都市上京区",
    "town": "西石屋町"
  },
  "6028438": {
    "zipcode": "6028438",
    "prefectureCode": "26",
    "prefectureNumber": 26,
    "prefecture": "京都府",
    "city": "京都市上京区",
    "town": "芝大宮町"
  },
  "6028439": {
    "zipcode": "6028439",
    "prefectureCode": "26",
    "prefectureNumber": 26,
    "prefecture": "京都府",
    "city": "京都市上京区",
    "town": "硯屋町"
  },
  "6028441": {
    "zipcode": "6028441",
    "prefectureCode": "26",
    "prefectureNumber": 26,
    "prefecture": "京都府",
    "city": "京都市上京区",
    "town": "観世町"
  },
  "6028442": {
    "zipcode": "6028442",
    "prefectureCode": "26",
    "prefectureNumber": 26,
    "prefecture": "京都府",
    "city": "京都市上京区",
    "town": "薬師町"
  },
  "6028443": {
    "zipcode": "6028443",
    "prefectureCode": "26",
    "prefectureNumber": 26,
    "prefecture": "京都府",
    "city": "京都市上京区",
    "town": "元妙蓮寺町"
  },
  "6028444": {
    "zipcode": "6028444",
    "prefectureCode": "26",
    "prefectureNumber": 26,
    "prefecture": "京都府",
    "city": "京都市上京区",
    "town": "西北小路町（今出川通浄福寺東入、今出川通智恵光院西入、今出川通智恵光院東入、智恵光院通今出川上る、智恵光院通今出川下る、五辻通浄福寺東入）"
  },
  "6028445": {
    "zipcode": "6028445",
    "prefectureCode": "26",
    "prefectureNumber": 26,
    "prefecture": "京都府",
    "city": "京都市上京区",
    "town": "桜井町"
  },
  "6028446": {
    "zipcode": "6028446",
    "prefectureCode": "26",
    "prefectureNumber": 26,
    "prefecture": "京都府",
    "city": "京都市上京区",
    "town": "五辻町"
  },
  "6028447": {
    "zipcode": "6028447",
    "prefectureCode": "26",
    "prefectureNumber": 26,
    "prefecture": "京都府",
    "city": "京都市上京区",
    "town": "紋屋町"
  },
  "6028448": {
    "zipcode": "6028448",
    "prefectureCode": "26",
    "prefectureNumber": 26,
    "prefecture": "京都府",
    "city": "京都市上京区",
    "town": "元北小路町"
  },
  "6028449": {
    "zipcode": "6028449",
    "prefectureCode": "26",
    "prefectureNumber": 26,
    "prefecture": "京都府",
    "city": "京都市上京区",
    "town": "横大宮町"
  },
  "6028451": {
    "zipcode": "6028451",
    "prefectureCode": "26",
    "prefectureNumber": 26,
    "prefecture": "京都府",
    "city": "京都市上京区",
    "town": "菱屋町（中筋通浄福寺東入、中筋通智恵光院西入）"
  },
  "6028452": {
    "zipcode": "6028452",
    "prefectureCode": "26",
    "prefectureNumber": 26,
    "prefecture": "京都府",
    "city": "京都市上京区",
    "town": "元中之町"
  },
  "6028453": {
    "zipcode": "6028453",
    "prefectureCode": "26",
    "prefectureNumber": 26,
    "prefecture": "京都府",
    "city": "京都市上京区",
    "town": "笹屋"
  },
  "6028454": {
    "zipcode": "6028454",
    "prefectureCode": "26",
    "prefectureNumber": 26,
    "prefecture": "京都府",
    "city": "京都市上京区",
    "town": "今出川町（元誓願寺通浄福寺西入、元誓願寺通浄福寺東入、浄福寺通元誓願寺上る、浄福寺通元誓願寺下る）"
  },
  "6028455": {
    "zipcode": "6028455",
    "prefectureCode": "26",
    "prefectureNumber": 26,
    "prefecture": "京都府",
    "city": "京都市上京区",
    "town": "泰童片原町"
  },
  "6028461": {
    "zipcode": "6028461",
    "prefectureCode": "26",
    "prefectureNumber": 26,
    "prefecture": "京都府",
    "city": "京都市上京区",
    "town": "北小路中之町"
  },
  "6028462": {
    "zipcode": "6028462",
    "prefectureCode": "26",
    "prefectureNumber": 26,
    "prefecture": "京都府",
    "city": "京都市上京区",
    "town": "竪亀屋町"
  },
  "6028463": {
    "zipcode": "6028463",
    "prefectureCode": "26",
    "prefectureNumber": 26,
    "prefecture": "京都府",
    "city": "京都市上京区",
    "town": "革堂町（元誓願寺通浄福寺西入）"
  },
  "6028464": {
    "zipcode": "6028464",
    "prefectureCode": "26",
    "prefectureNumber": 26,
    "prefecture": "京都府",
    "city": "京都市上京区",
    "town": "元四丁目"
  },
  "6028465": {
    "zipcode": "6028465",
    "prefectureCode": "26",
    "prefectureNumber": 26,
    "prefecture": "京都府",
    "city": "京都市上京区",
    "town": "松屋町"
  },
  "6028466": {
    "zipcode": "6028466",
    "prefectureCode": "26",
    "prefectureNumber": 26,
    "prefecture": "京都府",
    "city": "京都市上京区",
    "town": "南辻町"
  },
  "6028467": {
    "zipcode": "6028467",
    "prefectureCode": "26",
    "prefectureNumber": 26,
    "prefecture": "京都府",
    "city": "京都市上京区",
    "town": "西亀屋町"
  },
  "6028468": {
    "zipcode": "6028468",
    "prefectureCode": "26",
    "prefectureNumber": 26,
    "prefecture": "京都府",
    "city": "京都市上京区",
    "town": "東上善寺町"
  },
  "6028469": {
    "zipcode": "6028469",
    "prefectureCode": "26",
    "prefectureNumber": 26,
    "prefecture": "京都府",
    "city": "京都市上京区",
    "town": "中宮町"
  },
  "6028471": {
    "zipcode": "6028471",
    "prefectureCode": "26",
    "prefectureNumber": 26,
    "prefecture": "京都府",
    "city": "京都市上京区",
    "town": "一色町"
  },
  "6028472": {
    "zipcode": "6028472",
    "prefectureCode": "26",
    "prefectureNumber": 26,
    "prefecture": "京都府",
    "city": "京都市上京区",
    "town": "有馬町"
  },
  "6028473": {
    "zipcode": "6028473",
    "prefectureCode": "26",
    "prefectureNumber": 26,
    "prefecture": "京都府",
    "city": "京都市上京区",
    "town": "般舟院前町"
  },
  "6028474": {
    "zipcode": "6028474",
    "prefectureCode": "26",
    "prefectureNumber": 26,
    "prefecture": "京都府",
    "city": "京都市上京区",
    "town": "上善寺町"
  },
  "6028475": {
    "zipcode": "6028475",
    "prefectureCode": "26",
    "prefectureNumber": 26,
    "prefecture": "京都府",
    "city": "京都市上京区",
    "town": "牡丹鉾町"
  },
  "6028476": {
    "zipcode": "6028476",
    "prefectureCode": "26",
    "prefectureNumber": 26,
    "prefecture": "京都府",
    "city": "京都市上京区",
    "town": "桐木町"
  },
  "6028477": {
    "zipcode": "6028477",
    "prefectureCode": "26",
    "prefectureNumber": 26,
    "prefecture": "京都府",
    "city": "京都市上京区",
    "town": "姥ケ榎木町"
  },
  "6028478": {
    "zipcode": "6028478",
    "prefectureCode": "26",
    "prefectureNumber": 26,
    "prefecture": "京都府",
    "city": "京都市上京区",
    "town": "西五辻東町"
  },
  "6028481": {
    "zipcode": "6028481",
    "prefectureCode": "26",
    "prefectureNumber": 26,
    "prefecture": "京都府",
    "city": "京都市上京区",
    "town": "聖天町"
  },
  "6028482": {
    "zipcode": "6028482",
    "prefectureCode": "26",
    "prefectureNumber": 26,
    "prefecture": "京都府",
    "city": "京都市上京区",
    "town": "大黒町（上立売通浄福寺西入、上立売通浄福寺東入、浄福寺通上立売上る、浄福寺通寺之内下る）"
  },
  "6028483": {
    "zipcode": "6028483",
    "prefectureCode": "26",
    "prefectureNumber": 26,
    "prefecture": "京都府",
    "city": "京都市上京区",
    "town": "杉若町"
  },
  "6028484": {
    "zipcode": "6028484",
    "prefectureCode": "26",
    "prefectureNumber": 26,
    "prefecture": "京都府",
    "city": "京都市上京区",
    "town": "蛭子町（上立売通浄福寺西入、浄福寺通上立売下る）"
  },
  "6028485": {
    "zipcode": "6028485",
    "prefectureCode": "26",
    "prefectureNumber": 26,
    "prefecture": "京都府",
    "city": "京都市上京区",
    "town": "姥ケ東西町"
  },
  "6028486": {
    "zipcode": "6028486",
    "prefectureCode": "26",
    "prefectureNumber": 26,
    "prefecture": "京都府",
    "city": "京都市上京区",
    "town": "姥ケ西町"
  },
  "6028487": {
    "zipcode": "6028487",
    "prefectureCode": "26",
    "prefectureNumber": 26,
    "prefecture": "京都府",
    "city": "京都市上京区",
    "town": "姥ケ北町"
  },
  "6028488": {
    "zipcode": "6028488",
    "prefectureCode": "26",
    "prefectureNumber": 26,
    "prefecture": "京都府",
    "city": "京都市上京区",
    "town": "真倉町"
  },
  "6028491": {
    "zipcode": "6028491",
    "prefectureCode": "26",
    "prefectureNumber": 26,
    "prefecture": "京都府",
    "city": "京都市上京区",
    "town": "西社町"
  },
  "6028492": {
    "zipcode": "6028492",
    "prefectureCode": "26",
    "prefectureNumber": 26,
    "prefecture": "京都府",
    "city": "京都市上京区",
    "town": "歓喜町"
  },
  "6028493": {
    "zipcode": "6028493",
    "prefectureCode": "26",
    "prefectureNumber": 26,
    "prefecture": "京都府",
    "city": "京都市上京区",
    "town": "中猪熊町"
  },
  "6028494": {
    "zipcode": "6028494",
    "prefectureCode": "26",
    "prefectureNumber": 26,
    "prefecture": "京都府",
    "city": "京都市上京区",
    "town": "新猪熊東町"
  },
  "6028495": {
    "zipcode": "6028495",
    "prefectureCode": "26",
    "prefectureNumber": 26,
    "prefecture": "京都府",
    "city": "京都市上京区",
    "town": "新猪熊町"
  },
  "6028496": {
    "zipcode": "6028496",
    "prefectureCode": "26",
    "prefectureNumber": 26,
    "prefecture": "京都府",
    "city": "京都市上京区",
    "town": "木瓜原町"
  },
  "6028497": {
    "zipcode": "6028497",
    "prefectureCode": "26",
    "prefectureNumber": 26,
    "prefecture": "京都府",
    "city": "京都市上京区",
    "town": "戌亥町"
  },
  "6028498": {
    "zipcode": "6028498",
    "prefectureCode": "26",
    "prefectureNumber": 26,
    "prefecture": "京都府",
    "city": "京都市上京区",
    "town": "西熊町"
  }
}
