{
  "6060000": {
    "zipcode": "6060000",
    "prefectureCode": "26",
    "prefectureNumber": 26,
    "prefecture": "京都府",
    "city": "京都市左京区",
    "town": "以下に掲載がない場合"
  },
  "6060001": {
    "zipcode": "6060001",
    "prefectureCode": "26",
    "prefectureNumber": 26,
    "prefecture": "京都府",
    "city": "京都市左京区",
    "town": "岩倉大鷺町"
  },
  "6060002": {
    "zipcode": "6060002",
    "prefectureCode": "26",
    "prefectureNumber": 26,
    "prefecture": "京都府",
    "city": "京都市左京区",
    "town": "岩倉中大鷺町"
  },
  "6060003": {
    "zipcode": "6060003",
    "prefectureCode": "26",
    "prefectureNumber": 26,
    "prefecture": "京都府",
    "city": "京都市左京区",
    "town": "岩倉南大鷺町"
  },
  "6060004": {
    "zipcode": "6060004",
    "prefectureCode": "26",
    "prefectureNumber": 26,
    "prefecture": "京都府",
    "city": "京都市左京区",
    "town": "岩倉北池田町"
  },
  "6060005": {
    "zipcode": "6060005",
    "prefectureCode": "26",
    "prefectureNumber": 26,
    "prefecture": "京都府",
    "city": "京都市左京区",
    "town": "岩倉南池田町"
  },
  "6060006": {
    "zipcode": "6060006",
    "prefectureCode": "26",
    "prefectureNumber": 26,
    "prefecture": "京都府",
    "city": "京都市左京区",
    "town": "岩倉西五田町"
  },
  "6060007": {
    "zipcode": "6060007",
    "prefectureCode": "26",
    "prefectureNumber": 26,
    "prefecture": "京都府",
    "city": "京都市左京区",
    "town": "岩倉東五田町"
  },
  "6060008": {
    "zipcode": "6060008",
    "prefectureCode": "26",
    "prefectureNumber": 26,
    "prefecture": "京都府",
    "city": "京都市左京区",
    "town": "岩倉三笠町"
  },
  "6060009": {
    "zipcode": "6060009",
    "prefectureCode": "26",
    "prefectureNumber": 26,
    "prefecture": "京都府",
    "city": "京都市左京区",
    "town": "岩倉北桑原町"
  },
  "6060010": {
    "zipcode": "6060010",
    "prefectureCode": "26",
    "prefectureNumber": 26,
    "prefecture": "京都府",
    "city": "京都市左京区",
    "town": "岩倉北四ノ坪町"
  },
  "6060011": {
    "zipcode": "6060011",
    "prefectureCode": "26",
    "prefectureNumber": 26,
    "prefecture": "京都府",
    "city": "京都市左京区",
    "town": "岩倉西宮田町"
  },
  "6060012": {
    "zipcode": "6060012",
    "prefectureCode": "26",
    "prefectureNumber": 26,
    "prefecture": "京都府",
    "city": "京都市左京区",
    "town": "岩倉東宮田町"
  },
  "6060013": {
    "zipcode": "6060013",
    "prefectureCode": "26",
    "prefectureNumber": 26,
    "prefecture": "京都府",
    "city": "京都市左京区",
    "town": "岩倉下在地町"
  },
  "6060014": {
    "zipcode": "6060014",
    "prefectureCode": "26",
    "prefectureNumber": 26,
    "prefecture": "京都府",
    "city": "京都市左京区",
    "town": "岩倉西河原町"
  },
  "6060015": {
    "zipcode": "6060015",
    "prefectureCode": "26",
    "prefectureNumber": 26,
    "prefecture": "京都府",
    "city": "京都市左京区",
    "town": "岩倉幡枝町"
  },
  "6060016": {
    "zipcode": "6060016",
    "prefectureCode": "26",
    "prefectureNumber": 26,
    "prefecture": "京都府",
    "city": "京都市左京区",
    "town": "岩倉木野町（その他）"
  },
  "6060017": {
    "zipcode": "6060017",
    "prefectureCode": "26",
    "prefectureNumber": 26,
    "prefecture": "京都府",
    "city": "京都市左京区",
    "town": "岩倉上蔵町（その他）"
  },
  "6060018": {
    "zipcode": "6060018",
    "prefectureCode": "26",
    "prefectureNumber": 26,
    "prefecture": "京都府",
    "city": "京都市左京区",
    "town": "岩倉中河原町"
  },
  "6060019": {
    "zipcode": "6060019",
    "prefectureCode": "26",
    "prefectureNumber": 26,
    "prefecture": "京都府",
    "city": "京都市左京区",
    "town": "岩倉南河原町"
  },
  "6060021": {
    "zipcode": "6060021",
    "prefectureCode": "26",
    "prefectureNumber": 26,
    "prefecture": "京都府",
    "city": "京都市左京区",
    "town": "岩倉忠在地町"
  },
  "6060022": {
    "zipcode": "6060022",
    "prefectureCode": "26",
    "prefectureNumber": 26,
    "prefecture": "京都府",
    "city": "京都市左京区",
    "town": "岩倉三宅町"
  },
  "6060023": {
    "zipcode": "6060023",
    "prefectureCode": "26",
    "prefectureNumber": 26,
    "prefecture": "京都府",
    "city": "京都市左京区",
    "town": "岩倉南三宅町"
  },
  "6060024": {
    "zipcode": "6060024",
    "prefectureCode": "26",
    "prefectureNumber": 26,
    "prefecture": "京都府",
    "city": "京都市左京区",
    "town": "岩倉花園町"
  },
  "6060025": {
    "zipcode": "6060025",
    "prefectureCode": "26",
    "prefectureNumber": 26,
    "prefecture": "京都府",
    "city": "京都市左京区",
    "town": "岩倉中町"
  },
  "6060026": {
    "zipcode": "6060026",
    "prefectureCode": "26",
    "prefectureNumber": 26,
    "prefecture": "京都府",
    "city": "京都市左京区",
    "town": "岩倉長谷町"
  },
  "6060027": {
    "zipcode": "6060027",
    "prefectureCode": "26",
    "prefectureNumber": 26,
    "prefecture": "京都府",
    "city": "京都市左京区",
    "town": "岩倉中在地町"
  },
  "6060028": {
    "zipcode": "6060028",
    "prefectureCode": "26",
    "prefectureNumber": 26,
    "prefecture": "京都府",
    "city": "京都市左京区",
    "town": "岩倉南木野町"
  },
  "6060029": {
    "zipcode": "6060029",
    "prefectureCode": "26",
    "prefectureNumber": 26,
    "prefecture": "京都府",
    "city": "京都市左京区",
    "town": "岩倉北平岡町"
  },
  "6060031": {
    "zipcode": "6060031",
    "prefectureCode": "26",
    "prefectureNumber": 26,
    "prefecture": "京都府",
    "city": "京都市左京区",
    "town": "岩倉南桑原町"
  },
  "6060032": {
    "zipcode": "6060032",
    "prefectureCode": "26",
    "prefectureNumber": 26,
    "prefecture": "京都府",
    "city": "京都市左京区",
    "town": "岩倉南平岡町"
  },
  "6060033": {
    "zipcode": "6060033",
    "prefectureCode": "26",
    "prefectureNumber": 26,
    "prefecture": "京都府",
    "city": "京都市左京区",
    "town": "岩倉南四ノ坪町"
  },
  "6060034": {
    "zipcode": "6060034",
    "prefectureCode": "26",
    "prefectureNumber": 26,
    "prefecture": "京都府",
    "city": "京都市左京区",
    "town": "岩倉村松町"
  },
  "6060035": {
    "zipcode": "6060035",
    "prefectureCode": "26",
    "prefectureNumber": 26,
    "prefecture": "京都府",
    "city": "京都市左京区",
    "town": "上高野三宅町"
  },
  "6060036": {
    "zipcode": "6060036",
    "prefectureCode": "26",
    "prefectureNumber": 26,
    "prefecture": "京都府",
    "city": "京都市左京区",
    "town": "上高野北田町"
  },
  "6060037": {
    "zipcode": "6060037",
    "prefectureCode": "26",
    "prefectureNumber": 26,
    "prefecture": "京都府",
    "city": "京都市左京区",
    "town": "上高野流田町"
  },
  "6060041": {
    "zipcode": "6060041",
    "prefectureCode": "26",
    "prefectureNumber": 26,
    "prefecture": "京都府",
    "city": "京都市左京区",
    "town": "上高野石田町"
  },
  "6060042": {
    "zipcode": "6060042",
    "prefectureCode": "26",
    "prefectureNumber": 26,
    "prefecture": "京都府",
    "city": "京都市左京区",
    "town": "上高野鷺町"
  },
  "6060043": {
    "zipcode": "6060043",
    "prefectureCode": "26",
    "prefectureNumber": 26,
    "prefecture": "京都府",
    "city": "京都市左京区",
    "town": "上高野古川町"
  },
  "6060044": {
    "zipcode": "6060044",
    "prefectureCode": "26",
    "prefectureNumber": 26,
    "prefecture": "京都府",
    "city": "京都市左京区",
    "town": "上高野仲町"
  },
  "6060045": {
    "zipcode": "6060045",
    "prefectureCode": "26",
    "prefectureNumber": 26,
    "prefecture": "京都府",
    "city": "京都市左京区",
    "town": "上高野深田町"
  },
  "6060046": {
    "zipcode": "6060046",
    "prefectureCode": "26",
    "prefectureNumber": 26,
    "prefecture": "京都府",
    "city": "京都市左京区",
    "town": "上高野諸木町"
  },
  "6060047": {
    "zipcode": "6060047",
    "prefectureCode": "26",
    "prefectureNumber": 26,
    "prefecture": "京都府",
    "city": "京都市左京区",
    "town": "上高野薩田町"
  },
  "6060048": {
    "zipcode": "6060048",
    "prefectureCode": "26",
    "prefectureNumber": 26,
    "prefecture": "京都府",
    "city": "京都市左京区",
    "town": "上高野大湯手町"
  },
  "6060051": {
    "zipcode": "6060051",
    "prefectureCode": "26",
    "prefectureNumber": 26,
    "prefecture": "京都府",
    "city": "京都市左京区",
    "town": "上高野野上町"
  },
  "6060052": {
    "zipcode": "6060052",
    "prefectureCode": "26",
    "prefectureNumber": 26,
    "prefecture": "京都府",
    "city": "京都市左京区",
    "town": "上高野鳥脇町"
  },
  "6060053": {
    "zipcode": "6060053",
    "prefectureCode": "26",
    "prefectureNumber": 26,
    "prefecture": "京都府",
    "city": "京都市左京区",
    "town": "上高野車地町"
  },
  "6060054": {
    "zipcode": "6060054",
    "prefectureCode": "26",
    "prefectureNumber": 26,
    "prefecture": "京都府",
    "city": "京都市左京区",
    "town": "上高野三反田町"
  },
  "6060055": {
    "zipcode": "6060055",
    "prefectureCode": "26",
    "prefectureNumber": 26,
    "prefecture": "京都府",
    "city": "京都市左京区",
    "town": "上高野尾保地町"
  },
  "6060056": {
    "zipcode": "6060056",
    "prefectureCode": "26",
    "prefectureNumber": 26,
    "prefecture": "京都府",
    "city": "京都市左京区",
    "town": "上高野市川町"
  },
  "6060057": {
    "zipcode": "6060057",
    "prefectureCode": "26",
    "prefectureNumber": 26,
    "prefecture": "京都府",
    "city": "京都市左京区",
    "town": "上高野池ノ内町"
  },
  "6060058": {
    "zipcode": "6060058",
    "prefectureCode": "26",
    "prefectureNumber": 26,
    "prefecture": "京都府",
    "city": "京都市左京区",
    "town": "上高野小野町"
  },
  "6060059": {
    "zipcode": "6060059",
    "prefectureCode": "26",
    "prefectureNumber": 26,
    "prefecture": "京都府",
    "city": "京都市左京区",
    "town": "上高野北川原町"
  },
  "6060061": {
    "zipcode": "6060061",
    "prefectureCode": "26",
    "prefectureNumber": 26,
    "prefecture": "京都府",
    "city": "京都市左京区",
    "town": "上高野川原町"
  },
  "6060062": {
    "zipcode": "6060062",
    "prefectureCode": "26",
    "prefectureNumber": 26,
    "prefecture": "京都府",
    "city": "京都市左京区",
    "town": "上高野大橋町"
  },
  "6060063": {
    "zipcode": "6060063",
    "prefectureCode": "26",
    "prefectureNumber": 26,
    "prefecture": "京都府",
    "city": "京都市左京区",
    "town": "上高野大明神町"
  },
  "6060064": {
    "zipcode": "6060064",
    "prefectureCode": "26",
    "prefectureNumber": 26,
    "prefecture": "京都府",
    "city": "京都市左京区",
    "town": "上高野西明寺山"
  },
  "6060065": {
    "zipcode": "6060065",
    "prefectureCode": "26",
    "prefectureNumber": 26,
    "prefecture": "京都府",
    "city": "京都市左京区",
    "town": "上高野八幡町"
  },
  "6060066": {
    "zipcode": "6060066",
    "prefectureCode": "26",
    "prefectureNumber": 26,
    "prefecture": "京都府",
    "city": "京都市左京区",
    "town": "上高野水車町"
  },
  "6060067": {
    "zipcode": "6060067",
    "prefectureCode": "26",
    "prefectureNumber": 26,
    "prefecture": "京都府",
    "city": "京都市左京区",
    "town": "上高野東山（その他）"
  },
  "6060068": {
    "zipcode": "6060068",
    "prefectureCode": "26",
    "prefectureNumber": 26,
    "prefecture": "京都府",
    "city": "京都市左京区",
    "town": "八瀬野瀬町（２７７の２、２７９の１、３〜５、２８１の２〜９、１１〜１８、２０〜２２、２４〜２６、３２、２８７、３００番地）"
  },
  "6060071": {
    "zipcode": "6060071",
    "prefectureCode": "26",
    "prefectureNumber": 26,
    "prefecture": "京都府",
    "city": "京都市左京区",
    "town": "上高野防山"
  },
  "6060072": {
    "zipcode": "6060072",
    "prefectureCode": "26",
    "prefectureNumber": 26,
    "prefecture": "京都府",
    "city": "京都市左京区",
    "town": "上高野掃部林町"
  },
  "6060073": {
    "zipcode": "6060073",
    "prefectureCode": "26",
    "prefectureNumber": 26,
    "prefecture": "京都府",
    "city": "京都市左京区",
    "town": "上高野釜土町"
  },
  "6060074": {
    "zipcode": "6060074",
    "prefectureCode": "26",
    "prefectureNumber": 26,
    "prefecture": "京都府",
    "city": "京都市左京区",
    "town": "上高野下東野町"
  },
  "6060075": {
    "zipcode": "6060075",
    "prefectureCode": "26",
    "prefectureNumber": 26,
    "prefecture": "京都府",
    "city": "京都市左京区",
    "town": "上高野奥東野町"
  },
  "6060076": {
    "zipcode": "6060076",
    "prefectureCode": "26",
    "prefectureNumber": 26,
    "prefecture": "京都府",
    "city": "京都市左京区",
    "town": "上高野口小森町"
  },
  "6060077": {
    "zipcode": "6060077",
    "prefectureCode": "26",
    "prefectureNumber": 26,
    "prefecture": "京都府",
    "city": "京都市左京区",
    "town": "上高野奥小森町"
  },
  "6060078": {
    "zipcode": "6060078",
    "prefectureCode": "26",
    "prefectureNumber": 26,
    "prefecture": "京都府",
    "city": "京都市左京区",
    "town": "上高野東田町"
  },
  "6060081": {
    "zipcode": "6060081",
    "prefectureCode": "26",
    "prefectureNumber": 26,
    "prefecture": "京都府",
    "city": "京都市左京区",
    "town": "上高野畑町"
  },
  "6060082": {
    "zipcode": "6060082",
    "prefectureCode": "26",
    "prefectureNumber": 26,
    "prefecture": "京都府",
    "city": "京都市左京区",
    "town": "上高野畑ケ田町"
  },
  "6060083": {
    "zipcode": "6060083",
    "prefectureCode": "26",
    "prefectureNumber": 26,
    "prefecture": "京都府",
    "city": "京都市左京区",
    "town": "上高野松田町"
  },
  "6060084": {
    "zipcode": "6060084",
    "prefectureCode": "26",
    "prefectureNumber": 26,
    "prefecture": "京都府",
    "city": "京都市左京区",
    "town": "上高野鐘突町"
  },
  "6060085": {
    "zipcode": "6060085",
    "prefectureCode": "26",
    "prefectureNumber": 26,
    "prefecture": "京都府",
    "city": "京都市左京区",
    "town": "上高野隣好町"
  },
  "6060086": {
    "zipcode": "6060086",
    "prefectureCode": "26",
    "prefectureNumber": 26,
    "prefecture": "京都府",
    "city": "京都市左京区",
    "town": "上高野木ノ下町"
  },
  "6060087": {
    "zipcode": "6060087",
    "prefectureCode": "26",
    "prefectureNumber": 26,
    "prefecture": "京都府",
    "city": "京都市左京区",
    "town": "上高野稲荷町"
  },
  "6060088": {
    "zipcode": "6060088",
    "prefectureCode": "26",
    "prefectureNumber": 26,
    "prefecture": "京都府",
    "city": "京都市左京区",
    "town": "上高野植ノ町"
  },
  "6060089": {
    "zipcode": "6060089",
    "prefectureCode": "26",
    "prefectureNumber": 26,
    "prefecture": "京都府",
    "city": "京都市左京区",
    "town": "上高野上畑町"
  },
  "6060091": {
    "zipcode": "6060091",
    "prefectureCode": "26",
    "prefectureNumber": 26,
    "prefecture": "京都府",
    "city": "京都市左京区",
    "town": "上高野大塚町"
  },
  "6060092": {
    "zipcode": "6060092",
    "prefectureCode": "26",
    "prefectureNumber": 26,
    "prefecture": "京都府",
    "city": "京都市左京区",
    "town": "上高野下荒蒔町"
  },
  "6060093": {
    "zipcode": "6060093",
    "prefectureCode": "26",
    "prefectureNumber": 26,
    "prefecture": "京都府",
    "city": "京都市左京区",
    "town": "上高野上荒蒔町"
  },
  "6060094": {
    "zipcode": "6060094",
    "prefectureCode": "26",
    "prefectureNumber": 26,
    "prefecture": "京都府",
    "city": "京都市左京区",
    "town": "上高野東氷室町"
  },
  "6060095": {
    "zipcode": "6060095",
    "prefectureCode": "26",
    "prefectureNumber": 26,
    "prefecture": "京都府",
    "city": "京都市左京区",
    "town": "上高野西氷室町"
  },
  "6060096": {
    "zipcode": "6060096",
    "prefectureCode": "26",
    "prefectureNumber": 26,
    "prefecture": "京都府",
    "city": "京都市左京区",
    "town": "上高野山ノ橋町"
  },
  "6060097": {
    "zipcode": "6060097",
    "prefectureCode": "26",
    "prefectureNumber": 26,
    "prefecture": "京都府",
    "city": "京都市左京区",
    "town": "上高野前田町"
  },
  "6060098": {
    "zipcode": "6060098",
    "prefectureCode": "26",
    "prefectureNumber": 26,
    "prefecture": "京都府",
    "city": "京都市左京区",
    "town": "上高野沢渕町"
  },
  "6060801": {
    "zipcode": "6060801",
    "prefectureCode": "26",
    "prefectureNumber": 26,
    "prefecture": "京都府",
    "city": "京都市左京区",
    "town": "下鴨宮河町"
  },
  "6060802": {
    "zipcode": "6060802",
    "prefectureCode": "26",
    "prefectureNumber": 26,
    "prefecture": "京都府",
    "city": "京都市左京区",
    "town": "下鴨宮崎町"
  },
  "6060803": {
    "zipcode": "6060803",
    "prefectureCode": "26",
    "prefectureNumber": 26,
    "prefecture": "京都府",
    "city": "京都市左京区",
    "town": "下鴨下川原町"
  },
  "6060804": {
    "zipcode": "6060804",
    "prefectureCode": "26",
    "prefectureNumber": 26,
    "prefecture": "京都府",
    "city": "京都市左京区",
    "town": "下鴨松原町"
  },
  "6060805": {
    "zipcode": "6060805",
    "prefectureCode": "26",
    "prefectureNumber": 26,
    "prefecture": "京都府",
    "city": "京都市左京区",
    "town": "下鴨森本町"
  },
  "6060806": {
    "zipcode": "6060806",
    "prefectureCode": "26",
    "prefectureNumber": 26,
    "prefecture": "京都府",
    "city": "京都市左京区",
    "town": "下鴨蓼倉町"
  },
  "6060807": {
    "zipcode": "6060807",
    "prefectureCode": "26",
    "prefectureNumber": 26,
    "prefecture": "京都府",
    "city": "京都市左京区",
    "town": "下鴨泉川町"
  },
  "6060811": {
    "zipcode": "6060811",
    "prefectureCode": "26",
    "prefectureNumber": 26,
    "prefecture": "京都府",
    "city": "京都市左京区",
    "town": "下鴨中川原町"
  },
  "6060812": {
    "zipcode": "6060812",
    "prefectureCode": "26",
    "prefectureNumber": 26,
    "prefecture": "京都府",
    "city": "京都市左京区",
    "town": "下鴨上川原町"
  },
  "6060813": {
    "zipcode": "6060813",
    "prefectureCode": "26",
    "prefectureNumber": 26,
    "prefecture": "京都府",
    "city": "京都市左京区",
    "town": "下鴨貴船町"
  },
  "6060814": {
    "zipcode": "6060814",
    "prefectureCode": "26",
    "prefectureNumber": 26,
    "prefecture": "京都府",
    "city": "京都市左京区",
    "town": "下鴨芝本町"
  },
  "6060815": {
    "zipcode": "6060815",
    "prefectureCode": "26",
    "prefectureNumber": 26,
    "prefecture": "京都府",
    "city": "京都市左京区",
    "town": "下鴨膳部町"
  },
  "6060816": {
    "zipcode": "6060816",
    "prefectureCode": "26",
    "prefectureNumber": 26,
    "prefecture": "京都府",
    "city": "京都市左京区",
    "town": "下鴨松ノ木町"
  },
  "6060817": {
    "zipcode": "6060817",
    "prefectureCode": "26",
    "prefectureNumber": 26,
    "prefecture": "京都府",
    "city": "京都市左京区",
    "town": "下鴨西林町"
  },
  "6060821": {
    "zipcode": "6060821",
    "prefectureCode": "26",
    "prefectureNumber": 26,
    "prefecture": "京都府",
    "city": "京都市左京区",
    "town": "賀茂今井町"
  },
  "6060822": {
    "zipcode": "6060822",
    "prefectureCode": "26",
    "prefectureNumber": 26,
    "prefecture": "京都府",
    "city": "京都市左京区",
    "town": "賀茂半木町"
  },
  "6060823": {
    "zipcode": "6060823",
    "prefectureCode": "26",
    "prefectureNumber": 26,
    "prefecture": "京都府",
    "city": "京都市左京区",
    "town": "下鴨半木町"
  },
  "6060824": {
    "zipcode": "6060824",
    "prefectureCode": "26",
    "prefectureNumber": 26,
    "prefecture": "京都府",
    "city": "京都市左京区",
    "town": "下鴨東半木町"
  },
  "6060825": {
    "zipcode": "6060825",
    "prefectureCode": "26",
    "prefectureNumber": 26,
    "prefecture": "京都府",
    "city": "京都市左京区",
    "town": "下鴨西梅ノ木町"
  },
  "6060826": {
    "zipcode": "6060826",
    "prefectureCode": "26",
    "prefectureNumber": 26,
    "prefecture": "京都府",
    "city": "京都市左京区",
    "town": "下鴨西本町"
  },
  "6060827": {
    "zipcode": "6060827",
    "prefectureCode": "26",
    "prefectureNumber": 26,
    "prefecture": "京都府",
    "city": "京都市左京区",
    "town": "下鴨西半木町"
  },
  "6060831": {
    "zipcode": "6060831",
    "prefectureCode": "26",
    "prefectureNumber": 26,
    "prefecture": "京都府",
    "city": "京都市左京区",
    "town": "下鴨北園町"
  },
  "6060832": {
    "zipcode": "6060832",
    "prefectureCode": "26",
    "prefectureNumber": 26,
    "prefecture": "京都府",
    "city": "京都市左京区",
    "town": "下鴨萩ケ垣内町"
  },
  "6060833": {
    "zipcode": "6060833",
    "prefectureCode": "26",
    "prefectureNumber": 26,
    "prefecture": "京都府",
    "city": "京都市左京区",
    "town": "下鴨前萩町"
  },
  "6060834": {
    "zipcode": "6060834",
    "prefectureCode": "26",
    "prefectureNumber": 26,
    "prefecture": "京都府",
    "city": "京都市左京区",
    "town": "下鴨狗子田町"
  },
  "6060835": {
    "zipcode": "6060835",
    "prefectureCode": "26",
    "prefectureNumber": 26,
    "prefecture": "京都府",
    "city": "京都市左京区",
    "town": "下鴨神殿町"
  },
  "6060836": {
    "zipcode": "6060836",
    "prefectureCode": "26",
    "prefectureNumber": 26,
    "prefecture": "京都府",
    "city": "京都市左京区",
    "town": "下鴨梁田町"
  },
  "6060837": {
    "zipcode": "6060837",
    "prefectureCode": "26",
    "prefectureNumber": 26,
    "prefecture": "京都府",
    "city": "京都市左京区",
    "town": "下鴨夜光町"
  },
  "6060841": {
    "zipcode": "6060841",
    "prefectureCode": "26",
    "prefectureNumber": 26,
    "prefecture": "京都府",
    "city": "京都市左京区",
    "town": "下鴨南芝町"
  },
  "6060842": {
    "zipcode": "6060842",
    "prefectureCode": "26",
    "prefectureNumber": 26,
    "prefecture": "京都府",
    "city": "京都市左京区",
    "town": "下鴨北芝町"
  },
  "6060843": {
    "zipcode": "6060843",
    "prefectureCode": "26",
    "prefectureNumber": 26,
    "prefecture": "京都府",
    "city": "京都市左京区",
    "town": "下鴨水口町"
  },
  "6060844": {
    "zipcode": "6060844",
    "prefectureCode": "26",
    "prefectureNumber": 26,
    "prefecture": "京都府",
    "city": "京都市左京区",
    "town": "下鴨北茶ノ木町"
  },
  "6060845": {
    "zipcode": "6060845",
    "prefectureCode": "26",
    "prefectureNumber": 26,
    "prefecture": "京都府",
    "city": "京都市左京区",
    "town": "下鴨南茶ノ木町"
  },
  "6060846": {
    "zipcode": "6060846",
    "prefectureCode": "26",
    "prefectureNumber": 26,
    "prefecture": "京都府",
    "city": "京都市左京区",
    "town": "下鴨北野々神町"
  },
  "6060847": {
    "zipcode": "6060847",
    "prefectureCode": "26",
    "prefectureNumber": 26,
    "prefecture": "京都府",
    "city": "京都市左京区",
    "town": "下鴨南野々神町"
  },
  "6060851": {
    "zipcode": "6060851",
    "prefectureCode": "26",
    "prefectureNumber": 26,
    "prefecture": "京都府",
    "city": "京都市左京区",
    "town": "下鴨梅ノ木町"
  },
  "6060852": {
    "zipcode": "6060852",
    "prefectureCode": "26",
    "prefectureNumber": 26,
    "prefecture": "京都府",
    "city": "京都市左京区",
    "town": "下鴨東梅ノ木町"
  },
  "6060853": {
    "zipcode": "6060853",
    "prefectureCode": "26",
    "prefectureNumber": 26,
    "prefecture": "京都府",
    "city": "京都市左京区",
    "town": "下鴨岸本町"
  },
  "6060854": {
    "zipcode": "6060854",
    "prefectureCode": "26",
    "prefectureNumber": 26,
    "prefecture": "京都府",
    "city": "京都市左京区",
    "town": "下鴨東岸本町"
  },
  "6060855": {
    "zipcode": "6060855",
    "prefectureCode": "26",
    "prefectureNumber": 26,
    "prefecture": "京都府",
    "city": "京都市左京区",
    "town": "下鴨東塚本町"
  },
  "6060856": {
    "zipcode": "6060856",
    "prefectureCode": "26",
    "prefectureNumber": 26,
    "prefecture": "京都府",
    "city": "京都市左京区",
    "town": "下鴨塚本町"
  },
  "6060861": {
    "zipcode": "6060861",
    "prefectureCode": "26",
    "prefectureNumber": 26,
    "prefecture": "京都府",
    "city": "京都市左京区",
    "town": "下鴨西高木町"
  },
  "6060862": {
    "zipcode": "6060862",
    "prefectureCode": "26",
    "prefectureNumber": 26,
    "prefecture": "京都府",
    "city": "京都市左京区",
    "town": "下鴨本町"
  },
  "6060863": {
    "zipcode": "6060863",
    "prefectureCode": "26",
    "prefectureNumber": 26,
    "prefecture": "京都府",
    "city": "京都市左京区",
    "town": "下鴨東本町"
  },
  "6060864": {
    "zipcode": "6060864",
    "prefectureCode": "26",
    "prefectureNumber": 26,
    "prefecture": "京都府",
    "city": "京都市左京区",
    "town": "下鴨高木町"
  },
  "6060865": {
    "zipcode": "6060865",
    "prefectureCode": "26",
    "prefectureNumber": 26,
    "prefecture": "京都府",
    "city": "京都市左京区",
    "town": "下鴨東高木町"
  },
  "6060866": {
    "zipcode": "6060866",
    "prefectureCode": "26",
    "prefectureNumber": 26,
    "prefecture": "京都府",
    "city": "京都市左京区",
    "town": "下鴨東森ケ前町"
  },
  "6060867": {
    "zipcode": "6060867",
    "prefectureCode": "26",
    "prefectureNumber": 26,
    "prefecture": "京都府",
    "city": "京都市左京区",
    "town": "下鴨森ケ前町"
  },
  "6060901": {
    "zipcode": "6060901",
    "prefectureCode": "26",
    "prefectureNumber": 26,
    "prefecture": "京都府",
    "city": "京都市左京区",
    "town": "松ケ崎東桜木町"
  },
  "6060902": {
    "zipcode": "6060902",
    "prefectureCode": "26",
    "prefectureNumber": 26,
    "prefecture": "京都府",
    "city": "京都市左京区",
    "town": "松ケ崎桜木町"
  },
  "6060903": {
    "zipcode": "6060903",
    "prefectureCode": "26",
    "prefectureNumber": 26,
    "prefecture": "京都府",
    "city": "京都市左京区",
    "town": "松ケ崎西桜木町"
  },
  "6060904": {
    "zipcode": "6060904",
    "prefectureCode": "26",
    "prefectureNumber": 26,
    "prefecture": "京都府",
    "city": "京都市左京区",
    "town": "松ケ崎柳井田町"
  },
  "6060905": {
    "zipcode": "6060905",
    "prefectureCode": "26",
    "prefectureNumber": 26,
    "prefecture": "京都府",
    "city": "京都市左京区",
    "town": "松ケ崎杉ケ海道町"
  },
  "6060906": {
    "zipcode": "6060906",
    "prefectureCode": "26",
    "prefectureNumber": 26,
    "prefecture": "京都府",
    "city": "京都市左京区",
    "town": "松ケ崎中海道町"
  },
  "6060907": {
    "zipcode": "6060907",
    "prefectureCode": "26",
    "prefectureNumber": 26,
    "prefecture": "京都府",
    "city": "京都市左京区",
    "town": "松ケ崎村ケ内町"
  },
  "6060911": {
    "zipcode": "6060911",
    "prefectureCode": "26",
    "prefectureNumber": 26,
    "prefecture": "京都府",
    "city": "京都市左京区",
    "town": "松ケ崎泉川町"
  },
  "6060912": {
    "zipcode": "6060912",
    "prefectureCode": "26",
    "prefectureNumber": 26,
    "prefecture": "京都府",
    "city": "京都市左京区",
    "town": "松ケ崎呼返町"
  },
  "6060913": {
    "zipcode": "6060913",
    "prefectureCode": "26",
    "prefectureNumber": 26,
    "prefecture": "京都府",
    "city": "京都市左京区",
    "town": "松ケ崎芝本町"
  },
  "6060914": {
    "zipcode": "6060914",
    "prefectureCode": "26",
    "prefectureNumber": 26,
    "prefecture": "京都府",
    "city": "京都市左京区",
    "town": "松ケ崎今海道町"
  },
  "6060915": {
    "zipcode": "6060915",
    "prefectureCode": "26",
    "prefectureNumber": 26,
    "prefecture": "京都府",
    "city": "京都市左京区",
    "town": "松ケ崎六ノ坪町"
  },
  "6060916": {
    "zipcode": "6060916",
    "prefectureCode": "26",
    "prefectureNumber": 26,
    "prefecture": "京都府",
    "city": "京都市左京区",
    "town": "松ケ崎三反長町"
  },
  "6060917": {
    "zipcode": "6060917",
    "prefectureCode": "26",
    "prefectureNumber": 26,
    "prefecture": "京都府",
    "city": "京都市左京区",
    "town": "松ケ崎堂ノ上町"
  },
  "6060921": {
    "zipcode": "6060921",
    "prefectureCode": "26",
    "prefectureNumber": 26,
    "prefecture": "京都府",
    "city": "京都市左京区",
    "town": "松ケ崎平田町"
  },
  "6060922": {
    "zipcode": "6060922",
    "prefectureCode": "26",
    "prefectureNumber": 26,
    "prefecture": "京都府",
    "city": "京都市左京区",
    "town": "松ケ崎南池ノ内町"
  },
  "6060923": {
    "zipcode": "6060923",
    "prefectureCode": "26",
    "prefectureNumber": 26,
    "prefecture": "京都府",
    "city": "京都市左京区",
    "town": "松ケ崎総作町"
  },
  "6060924": {
    "zipcode": "6060924",
    "prefectureCode": "26",
    "prefectureNumber": 26,
    "prefecture": "京都府",
    "city": "京都市左京区",
    "town": "松ケ崎東池ノ内町"
  },
  "6060925": {
    "zipcode": "6060925",
    "prefectureCode": "26",
    "prefectureNumber": 26,
    "prefecture": "京都府",
    "city": "京都市左京区",
    "town": "松ケ崎林山"
  },
  "6060926": {
    "zipcode": "6060926",
    "prefectureCode": "26",
    "prefectureNumber": 26,
    "prefecture": "京都府",
    "city": "京都市左京区",
    "town": "松ケ崎中町"
  },
  "6060927": {
    "zipcode": "6060927",
    "prefectureCode": "26",
    "prefectureNumber": 26,
    "prefecture": "京都府",
    "city": "京都市左京区",
    "town": "松ケ崎西町"
  },
  "6060931": {
    "zipcode": "6060931",
    "prefectureCode": "26",
    "prefectureNumber": 26,
    "prefecture": "京都府",
    "city": "京都市左京区",
    "town": "松ケ崎井出ケ海道町"
  },
  "6060932": {
    "zipcode": "6060932",
    "prefectureCode": "26",
    "prefectureNumber": 26,
    "prefecture": "京都府",
    "city": "京都市左京区",
    "town": "松ケ崎西池ノ内町"
  },
  "6060933": {
    "zipcode": "6060933",
    "prefectureCode": "26",
    "prefectureNumber": 26,
    "prefecture": "京都府",
    "city": "京都市左京区",
    "town": "松ケ崎西山"
  },
  "6060934": {
    "zipcode": "6060934",
    "prefectureCode": "26",
    "prefectureNumber": 26,
    "prefecture": "京都府",
    "city": "京都市左京区",
    "town": "松ケ崎狐坂"
  },
  "6060935": {
    "zipcode": "6060935",
    "prefectureCode": "26",
    "prefectureNumber": 26,
    "prefecture": "京都府",
    "city": "京都市左京区",
    "town": "松ケ崎高山"
  },
  "6060936": {
    "zipcode": "6060936",
    "prefectureCode": "26",
    "prefectureNumber": 26,
    "prefecture": "京都府",
    "city": "京都市左京区",
    "town": "松ケ崎榎実ケ芝"
  },
  "6060937": {
    "zipcode": "6060937",
    "prefectureCode": "26",
    "prefectureNumber": 26,
    "prefecture": "京都府",
    "city": "京都市左京区",
    "town": "松ケ崎北裏町"
  },
  "6060938": {
    "zipcode": "6060938",
    "prefectureCode": "26",
    "prefectureNumber": 26,
    "prefecture": "京都府",
    "city": "京都市左京区",
    "town": "松ケ崎木燈籠町"
  },
  "6060941": {
    "zipcode": "6060941",
    "prefectureCode": "26",
    "prefectureNumber": 26,
    "prefecture": "京都府",
    "city": "京都市左京区",
    "town": "松ケ崎河原田町"
  },
  "6060942": {
    "zipcode": "6060942",
    "prefectureCode": "26",
    "prefectureNumber": 26,
    "prefecture": "京都府",
    "city": "京都市左京区",
    "town": "松ケ崎樋ノ上町"
  },
  "6060943": {
    "zipcode": "6060943",
    "prefectureCode": "26",
    "prefectureNumber": 26,
    "prefecture": "京都府",
    "city": "京都市左京区",
    "town": "松ケ崎東町"
  },
  "6060944": {
    "zipcode": "6060944",
    "prefectureCode": "26",
    "prefectureNumber": 26,
    "prefecture": "京都府",
    "city": "京都市左京区",
    "town": "松ケ崎御所ノ内町"
  },
  "6060945": {
    "zipcode": "6060945",
    "prefectureCode": "26",
    "prefectureNumber": 26,
    "prefecture": "京都府",
    "city": "京都市左京区",
    "town": "松ケ崎堀町"
  },
  "6060946": {
    "zipcode": "6060946",
    "prefectureCode": "26",
    "prefectureNumber": 26,
    "prefecture": "京都府",
    "city": "京都市左京区",
    "town": "松ケ崎東山"
  },
  "6060947": {
    "zipcode": "6060947",
    "prefectureCode": "26",
    "prefectureNumber": 26,
    "prefecture": "京都府",
    "city": "京都市左京区",
    "town": "松ケ崎井出ケ鼻町"
  },
  "6060951": {
    "zipcode": "6060951",
    "prefectureCode": "26",
    "prefectureNumber": 26,
    "prefecture": "京都府",
    "city": "京都市左京区",
    "town": "松ケ崎橋上町"
  },
  "6060952": {
    "zipcode": "6060952",
    "prefectureCode": "26",
    "prefectureNumber": 26,
    "prefecture": "京都府",
    "city": "京都市左京区",
    "town": "松ケ崎木ノ本町"
  },
  "6060953": {
    "zipcode": "6060953",
    "prefectureCode": "26",
    "prefectureNumber": 26,
    "prefecture": "京都府",
    "city": "京都市左京区",
    "town": "松ケ崎海尻町"
  },
  "6060954": {
    "zipcode": "6060954",
    "prefectureCode": "26",
    "prefectureNumber": 26,
    "prefecture": "京都府",
    "city": "京都市左京区",
    "town": "松ケ崎壱町田町"
  },
  "6060955": {
    "zipcode": "6060955",
    "prefectureCode": "26",
    "prefectureNumber": 26,
    "prefecture": "京都府",
    "city": "京都市左京区",
    "town": "松ケ崎雲路町"
  },
  "6060956": {
    "zipcode": "6060956",
    "prefectureCode": "26",
    "prefectureNumber": 26,
    "prefecture": "京都府",
    "city": "京都市左京区",
    "town": "松ケ崎鞍馬田町"
  },
  "6060957": {
    "zipcode": "6060957",
    "prefectureCode": "26",
    "prefectureNumber": 26,
    "prefecture": "京都府",
    "city": "京都市左京区",
    "town": "松ケ崎小脇町"
  },
  "6060961": {
    "zipcode": "6060961",
    "prefectureCode": "26",
    "prefectureNumber": 26,
    "prefecture": "京都府",
    "city": "京都市左京区",
    "town": "松ケ崎久土町"
  },
  "6060962": {
    "zipcode": "6060962",
    "prefectureCode": "26",
    "prefectureNumber": 26,
    "prefecture": "京都府",
    "city": "京都市左京区",
    "town": "松ケ崎御所海道町"
  },
  "6060963": {
    "zipcode": "6060963",
    "prefectureCode": "26",
    "prefectureNumber": 26,
    "prefecture": "京都府",
    "city": "京都市左京区",
    "town": "松ケ崎糺田町"
  },
  "6060964": {
    "zipcode": "6060964",
    "prefectureCode": "26",
    "prefectureNumber": 26,
    "prefecture": "京都府",
    "city": "京都市左京区",
    "town": "松ケ崎修理式町"
  },
  "6060965": {
    "zipcode": "6060965",
    "prefectureCode": "26",
    "prefectureNumber": 26,
    "prefecture": "京都府",
    "city": "京都市左京区",
    "town": "松ケ崎横縄手町"
  },
  "6060966": {
    "zipcode": "6060966",
    "prefectureCode": "26",
    "prefectureNumber": 26,
    "prefecture": "京都府",
    "city": "京都市左京区",
    "town": "松ケ崎正田町"
  },
  "6060967": {
    "zipcode": "6060967",
    "prefectureCode": "26",
    "prefectureNumber": 26,
    "prefecture": "京都府",
    "city": "京都市左京区",
    "town": "松ケ崎小竹薮町"
  },
  "6068001": {
    "zipcode": "6068001",
    "prefectureCode": "26",
    "prefectureNumber": 26,
    "prefecture": "京都府",
    "city": "京都市左京区",
    "town": "山端柳ケ坪町"
  },
  "6068002": {
    "zipcode": "6068002",
    "prefectureCode": "26",
    "prefectureNumber": 26,
    "prefecture": "京都府",
    "city": "京都市左京区",
    "town": "山端大城田町"
  },
  "6068003": {
    "zipcode": "6068003",
    "prefectureCode": "26",
    "prefectureNumber": 26,
    "prefecture": "京都府",
    "city": "京都市左京区",
    "town": "山端川原町"
  },
  "6068004": {
    "zipcode": "6068004",
    "prefectureCode": "26",
    "prefectureNumber": 26,
    "prefecture": "京都府",
    "city": "京都市左京区",
    "town": "山端川端町"
  },
  "6068005": {
    "zipcode": "6068005",
    "prefectureCode": "26",
    "prefectureNumber": 26,
    "prefecture": "京都府",
    "city": "京都市左京区",
    "town": "山端川岸町"
  },
  "6068006": {
    "zipcode": "6068006",
    "prefectureCode": "26",
    "prefectureNumber": 26,
    "prefecture": "京都府",
    "city": "京都市左京区",
    "town": "山端橋ノ本町"
  },
  "6068007": {
    "zipcode": "6068007",
    "prefectureCode": "26",
    "prefectureNumber": 26,
    "prefecture": "京都府",
    "city": "京都市左京区",
    "town": "山端壱町田町"
  },
  "6068011": {
    "zipcode": "6068011",
    "prefectureCode": "26",
    "prefectureNumber": 26,
    "prefecture": "京都府",
    "city": "京都市左京区",
    "town": "山端森本町"
  },
  "6068012": {
    "zipcode": "6068012",
    "prefectureCode": "26",
    "prefectureNumber": 26,
    "prefecture": "京都府",
    "city": "京都市左京区",
    "town": "山端滝ケ鼻町"
  },
  "6068013": {
    "zipcode": "6068013",
    "prefectureCode": "26",
    "prefectureNumber": 26,
    "prefecture": "京都府",
    "city": "京都市左京区",
    "town": "山端大君町"
  },
  "6068014": {
    "zipcode": "6068014",
    "prefectureCode": "26",
    "prefectureNumber": 26,
    "prefecture": "京都府",
    "city": "京都市左京区",
    "town": "山端大塚町"
  },
  "6068021": {
    "zipcode": "6068021",
    "prefectureCode": "26",
    "prefectureNumber": 26,
    "prefecture": "京都府",
    "city": "京都市左京区",
    "town": "修学院沖殿町"
  },
  "6068022": {
    "zipcode": "6068022",
    "prefectureCode": "26",
    "prefectureNumber": 26,
    "prefecture": "京都府",
    "city": "京都市左京区",
    "town": "修学院高部町"
  },
  "6068023": {
    "zipcode": "6068023",
    "prefectureCode": "26",
    "prefectureNumber": 26,
    "prefecture": "京都府",
    "city": "京都市左京区",
    "town": "修学院水上田町"
  },
  "6068024": {
    "zipcode": "6068024",
    "prefectureCode": "26",
    "prefectureNumber": 26,
    "prefecture": "京都府",
    "city": "京都市左京区",
    "town": "修学院千万田町"
  },
  "6068025": {
    "zipcode": "6068025",
    "prefectureCode": "26",
    "prefectureNumber": 26,
    "prefecture": "京都府",
    "city": "京都市左京区",
    "town": "修学院山ノ鼻町"
  },
  "6068026": {
    "zipcode": "6068026",
    "prefectureCode": "26",
    "prefectureNumber": 26,
    "prefecture": "京都府",
    "city": "京都市左京区",
    "town": "修学院川尻町"
  },
  "6068027": {
    "zipcode": "6068027",
    "prefectureCode": "26",
    "prefectureNumber": 26,
    "prefecture": "京都府",
    "city": "京都市左京区",
    "town": "修学院水川原町"
  },
  "6068031": {
    "zipcode": "6068031",
    "prefectureCode": "26",
    "prefectureNumber": 26,
    "prefecture": "京都府",
    "city": "京都市左京区",
    "town": "修学院西沮沢町"
  },
  "6068032": {
    "zipcode": "6068032",
    "prefectureCode": "26",
    "prefectureNumber": 26,
    "prefecture": "京都府",
    "city": "京都市左京区",
    "town": "修学院北沮沢町"
  },
  "6068033": {
    "zipcode": "6068033",
    "prefectureCode": "26",
    "prefectureNumber": 26,
    "prefecture": "京都府",
    "city": "京都市左京区",
    "town": "修学院山添町"
  },
  "6068034": {
    "zipcode": "6068034",
    "prefectureCode": "26",
    "prefectureNumber": 26,
    "prefecture": "京都府",
    "city": "京都市左京区",
    "town": "修学院桧峠町"
  },
  "6068035": {
    "zipcode": "6068035",
    "prefectureCode": "26",
    "prefectureNumber": 26,
    "prefecture": "京都府",
    "city": "京都市左京区",
    "town": "修学院守禅庵"
  },
  "6068036": {
    "zipcode": "6068036",
    "prefectureCode": "26",
    "prefectureNumber": 26,
    "prefecture": "京都府",
    "city": "京都市左京区",
    "town": "修学院開根坊町"
  },
  "6068037": {
    "zipcode": "6068037",
    "prefectureCode": "26",
    "prefectureNumber": 26,
    "prefecture": "京都府",
    "city": "京都市左京区",
    "town": "修学院大道町"
  },
  "6068041": {
    "zipcode": "6068041",
    "prefectureCode": "26",
    "prefectureNumber": 26,
    "prefecture": "京都府",
    "city": "京都市左京区",
    "town": "修学院仏者町"
  },
  "6068042": {
    "zipcode": "6068042",
    "prefectureCode": "26",
    "prefectureNumber": 26,
    "prefecture": "京都府",
    "city": "京都市左京区",
    "town": "修学院泉殿町"
  },
  "6068043": {
    "zipcode": "6068043",
    "prefectureCode": "26",
    "prefectureNumber": 26,
    "prefecture": "京都府",
    "city": "京都市左京区",
    "town": "修学院貝原町"
  },
  "6068044": {
    "zipcode": "6068044",
    "prefectureCode": "26",
    "prefectureNumber": 26,
    "prefecture": "京都府",
    "city": "京都市左京区",
    "town": "修学院馬場脇町"
  },
  "6068045": {
    "zipcode": "6068045",
    "prefectureCode": "26",
    "prefectureNumber": 26,
    "prefecture": "京都府",
    "city": "京都市左京区",
    "town": "修学院安養坊"
  },
  "6068046": {
    "zipcode": "6068046",
    "prefectureCode": "26",
    "prefectureNumber": 26,
    "prefecture": "京都府",
    "city": "京都市左京区",
    "town": "修学院室町"
  },
  "6068047": {
    "zipcode": "6068047",
    "prefectureCode": "26",
    "prefectureNumber": 26,
    "prefecture": "京都府",
    "city": "京都市左京区",
    "town": "修学院烏丸町"
  },
  "6068051": {
    "zipcode": "6068051",
    "prefectureCode": "26",
    "prefectureNumber": 26,
    "prefecture": "京都府",
    "city": "京都市左京区",
    "town": "修学院中新開"
  },
  "6068052": {
    "zipcode": "6068052",
    "prefectureCode": "26",
    "prefectureNumber": 26,
    "prefecture": "京都府",
    "city": "京都市左京区",
    "town": "修学院薮添"
  },
  "6068053": {
    "zipcode": "6068053",
    "prefectureCode": "26",
    "prefectureNumber": 26,
    "prefecture": "京都府",
    "city": "京都市左京区",
    "town": "修学院宮ノ前"
  },
  "6068054": {
    "zipcode": "6068054",
    "prefectureCode": "26",
    "prefectureNumber": 26,
    "prefecture": "京都府",
    "city": "京都市左京区",
    "town": "修学院山神町"
  },
  "6068055": {
    "zipcode": "6068055",
    "prefectureCode": "26",
    "prefectureNumber": 26,
    "prefecture": "京都府",
    "city": "京都市左京区",
    "town": "修学院高岸町"
  },
  "6068056": {
    "zipcode": "6068056",
    "prefectureCode": "26",
    "prefectureNumber": 26,
    "prefecture": "京都府",
    "city": "京都市左京区",
    "town": "修学院松本町"
  },
  "6068057": {
    "zipcode": "6068057",
    "prefectureCode": "26",
    "prefectureNumber": 26,
    "prefecture": "京都府",
    "city": "京都市左京区",
    "town": "修学院林ノ脇"
  },
  "6068061": {
    "zipcode": "6068061",
    "prefectureCode": "26",
    "prefectureNumber": 26,
    "prefecture": "京都府",
    "city": "京都市左京区",
    "town": "修学院宮ノ脇町"
  },
  "6068062": {
    "zipcode": "6068062",
    "prefectureCode": "26",
    "prefectureNumber": 26,
    "prefecture": "京都府",
    "city": "京都市左京区",
    "town": "修学院南代"
  },
  "6068063": {
    "zipcode": "6068063",
    "prefectureCode": "26",
    "prefectureNumber": 26,
    "prefecture": "京都府",
    "city": "京都市左京区",
    "town": "修学院後安堂"
  },
  "6068064": {
    "zipcode": "6068064",
    "prefectureCode": "26",
    "prefectureNumber": 26,
    "prefecture": "京都府",
    "city": "京都市左京区",
    "town": "修学院辻ノ田町"
  },
  "6068065": {
    "zipcode": "6068065",
    "prefectureCode": "26",
    "prefectureNumber": 26,
    "prefecture": "京都府",
    "city": "京都市左京区",
    "town": "修学院月輪寺町"
  },
  "6068071": {
    "zipcode": "6068071",
    "prefectureCode": "26",
    "prefectureNumber": 26,
    "prefecture": "京都府",
    "city": "京都市左京区",
    "town": "修学院狭間町"
  },
  "6068072": {
    "zipcode": "6068072",
    "prefectureCode": "26",
    "prefectureNumber": 26,
    "prefecture": "京都府",
    "city": "京都市左京区",
    "town": "修学院登リ内町"
  },
  "6068073": {
    "zipcode": "6068073",
    "prefectureCode": "26",
    "prefectureNumber": 26,
    "prefecture": "京都府",
    "city": "京都市左京区",
    "town": "修学院茶屋ノ前町"
  },
  "6068074": {
    "zipcode": "6068074",
    "prefectureCode": "26",
    "prefectureNumber": 26,
    "prefecture": "京都府",
    "city": "京都市左京区",
    "town": "修学院石掛町"
  },
  "6068075": {
    "zipcode": "6068075",
    "prefectureCode": "26",
    "prefectureNumber": 26,
    "prefecture": "京都府",
    "city": "京都市左京区",
    "town": "修学院坪江町"
  },
  "6068081": {
    "zipcode": "6068081",
    "prefectureCode": "26",
    "prefectureNumber": 26,
    "prefecture": "京都府",
    "city": "京都市左京区",
    "town": "修学院大林町"
  },
  "6068082": {
    "zipcode": "6068082",
    "prefectureCode": "26",
    "prefectureNumber": 26,
    "prefecture": "京都府",
    "city": "京都市左京区",
    "town": "修学院鹿ノ下町"
  },
  "6068083": {
    "zipcode": "6068083",
    "prefectureCode": "26",
    "prefectureNumber": 26,
    "prefecture": "京都府",
    "city": "京都市左京区",
    "town": "修学院犬塚町"
  },
  "6068084": {
    "zipcode": "6068084",
    "prefectureCode": "26",
    "prefectureNumber": 26,
    "prefecture": "京都府",
    "city": "京都市左京区",
    "town": "修学院薬師堂町"
  },
  "6068085": {
    "zipcode": "6068085",
    "prefectureCode": "26",
    "prefectureNumber": 26,
    "prefecture": "京都府",
    "city": "京都市左京区",
    "town": "修学院中林町"
  },
  "6068086": {
    "zipcode": "6068086",
    "prefectureCode": "26",
    "prefectureNumber": 26,
    "prefecture": "京都府",
    "city": "京都市左京区",
    "town": "修学院十権寺町"
  },
  "6068101": {
    "zipcode": "6068101",
    "prefectureCode": "26",
    "prefectureNumber": 26,
    "prefecture": "京都府",
    "city": "京都市左京区",
    "town": "高野蓼原町"
  },
  "6068102": {
    "zipcode": "6068102",
    "prefectureCode": "26",
    "prefectureNumber": 26,
    "prefecture": "京都府",
    "city": "京都市左京区",
    "town": "高野清水町"
  },
  "6068103": {
    "zipcode": "6068103",
    "prefectureCode": "26",
    "prefectureNumber": 26,
    "prefecture": "京都府",
    "city": "京都市左京区",
    "town": "高野西開町"
  },
  "6068104": {
    "zipcode": "6068104",
    "prefectureCode": "26",
    "prefectureNumber": 26,
    "prefecture": "京都府",
    "city": "京都市左京区",
    "town": "高野竹屋町"
  },
  "6068105": {
    "zipcode": "6068105",
    "prefectureCode": "26",
    "prefectureNumber": 26,
    "prefecture": "京都府",
    "city": "京都市左京区",
    "town": "高野上竹屋町"
  },
  "6068106": {
    "zipcode": "6068106",
    "prefectureCode": "26",
    "prefectureNumber": 26,
    "prefecture": "京都府",
    "city": "京都市左京区",
    "town": "高野玉岡町"
  },
  "6068107": {
    "zipcode": "6068107",
    "prefectureCode": "26",
    "prefectureNumber": 26,
    "prefecture": "京都府",
    "city": "京都市左京区",
    "town": "高野東開町"
  },
  "6068111": {
    "zipcode": "6068111",
    "prefectureCode": "26",
    "prefectureNumber": 26,
    "prefecture": "京都府",
    "city": "京都市左京区",
    "town": "高野泉町"
  },
  "6068112": {
    "zipcode": "6068112",
    "prefectureCode": "26",
    "prefectureNumber": 26,
    "prefecture": "京都府",
    "city": "京都市左京区",
    "town": "一乗寺西杉ノ宮町"
  },
  "6068113": {
    "zipcode": "6068113",
    "prefectureCode": "26",
    "prefectureNumber": 26,
    "prefecture": "京都府",
    "city": "京都市左京区",
    "town": "一乗寺東杉ノ宮町"
  },
  "6068114": {
    "zipcode": "6068114",
    "prefectureCode": "26",
    "prefectureNumber": 26,
    "prefecture": "京都府",
    "city": "京都市左京区",
    "town": "一乗寺北大丸町"
  },
  "6068115": {
    "zipcode": "6068115",
    "prefectureCode": "26",
    "prefectureNumber": 26,
    "prefecture": "京都府",
    "city": "京都市左京区",
    "town": "一乗寺里ノ西町"
  },
  "6068116": {
    "zipcode": "6068116",
    "prefectureCode": "26",
    "prefectureNumber": 26,
    "prefecture": "京都府",
    "city": "京都市左京区",
    "town": "一乗寺宮ノ東町"
  },
  "6068117": {
    "zipcode": "6068117",
    "prefectureCode": "26",
    "prefectureNumber": 26,
    "prefecture": "京都府",
    "city": "京都市左京区",
    "town": "一乗寺里ノ前町"
  },
  "6068121": {
    "zipcode": "6068121",
    "prefectureCode": "26",
    "prefectureNumber": 26,
    "prefecture": "京都府",
    "city": "京都市左京区",
    "town": "一乗寺青城町"
  },
  "6068122": {
    "zipcode": "6068122",
    "prefectureCode": "26",
    "prefectureNumber": 26,
    "prefecture": "京都府",
    "city": "京都市左京区",
    "town": "一乗寺東閉川原町"
  },
  "6068123": {
    "zipcode": "6068123",
    "prefectureCode": "26",
    "prefectureNumber": 26,
    "prefecture": "京都府",
    "city": "京都市左京区",
    "town": "一乗寺西閉川原町"
  },
  "6068124": {
    "zipcode": "6068124",
    "prefectureCode": "26",
    "prefectureNumber": 26,
    "prefecture": "京都府",
    "city": "京都市左京区",
    "town": "一乗寺松田町"
  },
  "6068125": {
    "zipcode": "6068125",
    "prefectureCode": "26",
    "prefectureNumber": 26,
    "prefecture": "京都府",
    "city": "京都市左京区",
    "town": "一乗寺清水町"
  },
  "6068126": {
    "zipcode": "6068126",
    "prefectureCode": "26",
    "prefectureNumber": 26,
    "prefecture": "京都府",
    "city": "京都市左京区",
    "town": "一乗寺向畑町"
  },
  "6068127": {
    "zipcode": "6068127",
    "prefectureCode": "26",
    "prefectureNumber": 26,
    "prefecture": "京都府",
    "city": "京都市左京区",
    "town": "一乗寺西浦畑町"
  },
  "6068131": {
    "zipcode": "6068131",
    "prefectureCode": "26",
    "prefectureNumber": 26,
    "prefecture": "京都府",
    "city": "京都市左京区",
    "town": "一乗寺稲荷町"
  },
  "6068132": {
    "zipcode": "6068132",
    "prefectureCode": "26",
    "prefectureNumber": 26,
    "prefecture": "京都府",
    "city": "京都市左京区",
    "town": "一乗寺馬場町"
  },
  "6068133": {
    "zipcode": "6068133",
    "prefectureCode": "26",
    "prefectureNumber": 26,
    "prefecture": "京都府",
    "city": "京都市左京区",
    "town": "一乗寺月輪寺町"
  },
  "6068134": {
    "zipcode": "6068134",
    "prefectureCode": "26",
    "prefectureNumber": 26,
    "prefecture": "京都府",
    "city": "京都市左京区",
    "town": "一乗寺竹ノ内町"
  },
  "6068135": {
    "zipcode": "6068135",
    "prefectureCode": "26",
    "prefectureNumber": 26,
    "prefecture": "京都府",
    "city": "京都市左京区",
    "town": "一乗寺水掛町"
  },
  "6068136": {
    "zipcode": "6068136",
    "prefectureCode": "26",
    "prefectureNumber": 26,
    "prefecture": "京都府",
    "city": "京都市左京区",
    "town": "一乗寺東浦町"
  },
  "6068141": {
    "zipcode": "6068141",
    "prefectureCode": "26",
    "prefectureNumber": 26,
    "prefecture": "京都府",
    "city": "京都市左京区",
    "town": "一乗寺釈迦堂町"
  },
  "6068142": {
    "zipcode": "6068142",
    "prefectureCode": "26",
    "prefectureNumber": 26,
    "prefecture": "京都府",
    "city": "京都市左京区",
    "town": "一乗寺燈籠本町"
  },
  "6068143": {
    "zipcode": "6068143",
    "prefectureCode": "26",
    "prefectureNumber": 26,
    "prefecture": "京都府",
    "city": "京都市左京区",
    "town": "一乗寺堀ノ内町"
  },
  "6068144": {
    "zipcode": "6068144",
    "prefectureCode": "26",
    "prefectureNumber": 26,
    "prefecture": "京都府",
    "city": "京都市左京区",
    "town": "一乗寺堂ノ前町"
  },
  "6068145": {
    "zipcode": "6068145",
    "prefectureCode": "26",
    "prefectureNumber": 26,
    "prefecture": "京都府",
    "city": "京都市左京区",
    "town": "一乗寺葉山町"
  },
  "6068146": {
    "zipcode": "6068146",
    "prefectureCode": "26",
    "prefectureNumber": 26,
    "prefecture": "京都府",
    "city": "京都市左京区",
    "town": "一乗寺病ダレ"
  },
  "6068147": {
    "zipcode": "6068147",
    "prefectureCode": "26",
    "prefectureNumber": 26,
    "prefecture": "京都府",
    "city": "京都市左京区",
    "town": "一乗寺小谷町"
  },
  "6068151": {
    "zipcode": "6068151",
    "prefectureCode": "26",
    "prefectureNumber": 26,
    "prefecture": "京都府",
    "city": "京都市左京区",
    "town": "一乗寺花ノ木町"
  },
  "6068152": {
    "zipcode": "6068152",
    "prefectureCode": "26",
    "prefectureNumber": 26,
    "prefecture": "京都府",
    "city": "京都市左京区",
    "town": "一乗寺下リ松町"
  },
  "6068153": {
    "zipcode": "6068153",
    "prefectureCode": "26",
    "prefectureNumber": 26,
    "prefecture": "京都府",
    "city": "京都市左京区",
    "town": "一乗寺谷田町"
  },
  "6068154": {
    "zipcode": "6068154",
    "prefectureCode": "26",
    "prefectureNumber": 26,
    "prefecture": "京都府",
    "city": "京都市左京区",
    "town": "一乗寺門口町"
  },
  "6068155": {
    "zipcode": "6068155",
    "prefectureCode": "26",
    "prefectureNumber": 26,
    "prefecture": "京都府",
    "city": "京都市左京区",
    "town": "一乗寺薬師堂町"
  },
  "6068156": {
    "zipcode": "6068156",
    "prefectureCode": "26",
    "prefectureNumber": 26,
    "prefecture": "京都府",
    "city": "京都市左京区",
    "town": "一乗寺松原町"
  },
  "6068157": {
    "zipcode": "6068157",
    "prefectureCode": "26",
    "prefectureNumber": 26,
    "prefecture": "京都府",
    "city": "京都市左京区",
    "town": "一乗寺才形町"
  },
  "6068158": {
    "zipcode": "6068158",
    "prefectureCode": "26",
    "prefectureNumber": 26,
    "prefecture": "京都府",
    "city": "京都市左京区",
    "town": "一乗寺大谷"
  },
  "6068161": {
    "zipcode": "6068161",
    "prefectureCode": "26",
    "prefectureNumber": 26,
    "prefecture": "京都府",
    "city": "京都市左京区",
    "town": "一乗寺木ノ本町"
  },
  "6068162": {
    "zipcode": "6068162",
    "prefectureCode": "26",
    "prefectureNumber": 26,
    "prefecture": "京都府",
    "city": "京都市左京区",
    "town": "一乗寺御祭田町"
  },
  "6068163": {
    "zipcode": "6068163",
    "prefectureCode": "26",
    "prefectureNumber": 26,
    "prefecture": "京都府",
    "city": "京都市左京区",
    "town": "一乗寺中ノ田町"
  },
  "6068164": {
    "zipcode": "6068164",
    "prefectureCode": "26",
    "prefectureNumber": 26,
    "prefecture": "京都府",
    "city": "京都市左京区",
    "town": "一乗寺出口町"
  },
  "6068165": {
    "zipcode": "6068165",
    "prefectureCode": "26",
    "prefectureNumber": 26,
    "prefecture": "京都府",
    "city": "京都市左京区",
    "town": "一乗寺野田町"
  },
  "6068166": {
    "zipcode": "6068166",
    "prefectureCode": "26",
    "prefectureNumber": 26,
    "prefecture": "京都府",
    "city": "京都市左京区",
    "town": "一乗寺庵野町"
  },
  "6068167": {
    "zipcode": "6068167",
    "prefectureCode": "26",
    "prefectureNumber": 26,
    "prefecture": "京都府",
    "city": "京都市左京区",
    "town": "一乗寺樋ノ口町"
  },
  "6068171": {
    "zipcode": "6068171",
    "prefectureCode": "26",
    "prefectureNumber": 26,
    "prefecture": "京都府",
    "city": "京都市左京区",
    "town": "一乗寺西水干町"
  },
  "6068172": {
    "zipcode": "6068172",
    "prefectureCode": "26",
    "prefectureNumber": 26,
    "prefecture": "京都府",
    "city": "京都市左京区",
    "town": "一乗寺河原田町"
  },
  "6068173": {
    "zipcode": "6068173",
    "prefectureCode": "26",
    "prefectureNumber": 26,
    "prefecture": "京都府",
    "city": "京都市左京区",
    "town": "一乗寺梅ノ木町"
  },
  "6068174": {
    "zipcode": "6068174",
    "prefectureCode": "26",
    "prefectureNumber": 26,
    "prefecture": "京都府",
    "city": "京都市左京区",
    "town": "一乗寺染殿町"
  },
  "6068175": {
    "zipcode": "6068175",
    "prefectureCode": "26",
    "prefectureNumber": 26,
    "prefecture": "京都府",
    "city": "京都市左京区",
    "town": "一乗寺築田町"
  },
  "6068176": {
    "zipcode": "6068176",
    "prefectureCode": "26",
    "prefectureNumber": 26,
    "prefecture": "京都府",
    "city": "京都市左京区",
    "town": "一乗寺塚本町"
  },
  "6068177": {
    "zipcode": "6068177",
    "prefectureCode": "26",
    "prefectureNumber": 26,
    "prefecture": "京都府",
    "city": "京都市左京区",
    "town": "一乗寺東水干町"
  },
  "6068181": {
    "zipcode": "6068181",
    "prefectureCode": "26",
    "prefectureNumber": 26,
    "prefecture": "京都府",
    "city": "京都市左京区",
    "town": "一乗寺地蔵本町"
  },
  "6068182": {
    "zipcode": "6068182",
    "prefectureCode": "26",
    "prefectureNumber": 26,
    "prefecture": "京都府",
    "city": "京都市左京区",
    "town": "一乗寺赤ノ宮町"
  },
  "6068183": {
    "zipcode": "6068183",
    "prefectureCode": "26",
    "prefectureNumber": 26,
    "prefecture": "京都府",
    "city": "京都市左京区",
    "town": "一乗寺大新開町"
  },
  "6068184": {
    "zipcode": "6068184",
    "prefectureCode": "26",
    "prefectureNumber": 26,
    "prefecture": "京都府",
    "city": "京都市左京区",
    "town": "一乗寺払殿町"
  },
  "6068185": {
    "zipcode": "6068185",
    "prefectureCode": "26",
    "prefectureNumber": 26,
    "prefecture": "京都府",
    "city": "京都市左京区",
    "town": "一乗寺高槻町"
  },
  "6068186": {
    "zipcode": "6068186",
    "prefectureCode": "26",
    "prefectureNumber": 26,
    "prefecture": "京都府",
    "city": "京都市左京区",
    "town": "一乗寺南大丸町"
  },
  "6068187": {
    "zipcode": "6068187",
    "prefectureCode": "26",
    "prefectureNumber": 26,
    "prefecture": "京都府",
    "city": "京都市左京区",
    "town": "一乗寺大原田町"
  },
  "6068201": {
    "zipcode": "6068201",
    "prefectureCode": "26",
    "prefectureNumber": 26,
    "prefecture": "京都府",
    "city": "京都市左京区",
    "town": "田中玄京町"
  },
  "6068202": {
    "zipcode": "6068202",
    "prefectureCode": "26",
    "prefectureNumber": 26,
    "prefecture": "京都府",
    "city": "京都市左京区",
    "town": "田中大堰町"
  },
  "6068203": {
    "zipcode": "6068203",
    "prefectureCode": "26",
    "prefectureNumber": 26,
    "prefecture": "京都府",
    "city": "京都市左京区",
    "town": "田中関田町"
  },
  "6068204": {
    "zipcode": "6068204",
    "prefectureCode": "26",
    "prefectureNumber": 26,
    "prefecture": "京都府",
    "city": "京都市左京区",
    "town": "田中下柳町"
  },
  "6068205": {
    "zipcode": "6068205",
    "prefectureCode": "26",
    "prefectureNumber": 26,
    "prefecture": "京都府",
    "city": "京都市左京区",
    "town": "田中上柳町"
  },
  "6068206": {
    "zipcode": "6068206",
    "prefectureCode": "26",
    "prefectureNumber": 26,
    "prefecture": "京都府",
    "city": "京都市左京区",
    "town": "田中馬場町"
  },
  "6068211": {
    "zipcode": "6068211",
    "prefectureCode": "26",
    "prefectureNumber": 26,
    "prefecture": "京都府",
    "city": "京都市左京区",
    "town": "田中西大久保町"
  },
  "6068212": {
    "zipcode": "6068212",
    "prefectureCode": "26",
    "prefectureNumber": 26,
    "prefecture": "京都府",
    "city": "京都市左京区",
    "town": "田中里ノ内町"
  },
  "6068213": {
    "zipcode": "6068213",
    "prefectureCode": "26",
    "prefectureNumber": 26,
    "prefecture": "京都府",
    "city": "京都市左京区",
    "town": "田中野神町"
  },
  "6068214": {
    "zipcode": "6068214",
    "prefectureCode": "26",
    "prefectureNumber": 26,
    "prefecture": "京都府",
    "city": "京都市左京区",
    "town": "田中南大久保町"
  },
  "6068215": {
    "zipcode": "6068215",
    "prefectureCode": "26",
    "prefectureNumber": 26,
    "prefecture": "京都府",
    "city": "京都市左京区",
    "town": "田中上玄京町"
  },
  "6068216": {
    "zipcode": "6068216",
    "prefectureCode": "26",
    "prefectureNumber": 26,
    "prefecture": "京都府",
    "city": "京都市左京区",
    "town": "田中南西浦町"
  },
  "6068217": {
    "zipcode": "6068217",
    "prefectureCode": "26",
    "prefectureNumber": 26,
    "prefecture": "京都府",
    "city": "京都市左京区",
    "town": "田中西浦町"
  },
  "6068221": {
    "zipcode": "6068221",
    "prefectureCode": "26",
    "prefectureNumber": 26,
    "prefecture": "京都府",
    "city": "京都市左京区",
    "town": "田中西樋ノ口町"
  },
  "6068222": {
    "zipcode": "6068222",
    "prefectureCode": "26",
    "prefectureNumber": 26,
    "prefecture": "京都府",
    "city": "京都市左京区",
    "town": "田中樋ノ口町"
  },
  "6068223": {
    "zipcode": "6068223",
    "prefectureCode": "26",
    "prefectureNumber": 26,
    "prefecture": "京都府",
    "city": "京都市左京区",
    "town": "田中東樋ノ口町"
  },
  "6068224": {
    "zipcode": "6068224",
    "prefectureCode": "26",
    "prefectureNumber": 26,
    "prefecture": "京都府",
    "city": "京都市左京区",
    "town": "北白川追分町"
  },
  "6068225": {
    "zipcode": "6068225",
    "prefectureCode": "26",
    "prefectureNumber": 26,
    "prefecture": "京都府",
    "city": "京都市左京区",
    "town": "田中門前町"
  },
  "6068226": {
    "zipcode": "6068226",
    "prefectureCode": "26",
    "prefectureNumber": 26,
    "prefecture": "京都府",
    "city": "京都市左京区",
    "town": "田中飛鳥井町"
  },
  "6068227": {
    "zipcode": "6068227",
    "prefectureCode": "26",
    "prefectureNumber": 26,
    "prefecture": "京都府",
    "city": "京都市左京区",
    "town": "田中里ノ前町"
  },
  "6068231": {
    "zipcode": "6068231",
    "prefectureCode": "26",
    "prefectureNumber": 26,
    "prefecture": "京都府",
    "city": "京都市左京区",
    "town": "田中上古川町"
  },
  "6068232": {
    "zipcode": "6068232",
    "prefectureCode": "26",
    "prefectureNumber": 26,
    "prefecture": "京都府",
    "city": "京都市左京区",
    "town": "田中古川町"
  },
  "6068233": {
    "zipcode": "6068233",
    "prefectureCode": "26",
    "prefectureNumber": 26,
    "prefecture": "京都府",
    "city": "京都市左京区",
    "town": "田中北春菜町"
  },
  "6068234": {
    "zipcode": "6068234",
    "prefectureCode": "26",
    "prefectureNumber": 26,
    "prefecture": "京都府",
    "city": "京都市左京区",
    "town": "田中春菜町"
  },
  "6068235": {
    "zipcode": "6068235",
    "prefectureCode": "26",
    "prefectureNumber": 26,
    "prefecture": "京都府",
    "city": "京都市左京区",
    "town": "田中西春菜町"
  },
  "6068236": {
    "zipcode": "6068236",
    "prefectureCode": "26",
    "prefectureNumber": 26,
    "prefecture": "京都府",
    "city": "京都市左京区",
    "town": "田中大久保町"
  },
  "6068237": {
    "zipcode": "6068237",
    "prefectureCode": "26",
    "prefectureNumber": 26,
    "prefecture": "京都府",
    "city": "京都市左京区",
    "town": "田中上大久保町"
  },
  "6068241": {
    "zipcode": "6068241",
    "prefectureCode": "26",
    "prefectureNumber": 26,
    "prefecture": "京都府",
    "city": "京都市左京区",
    "town": "田中西高原町"
  },
  "6068242": {
    "zipcode": "6068242",
    "prefectureCode": "26",
    "prefectureNumber": 26,
    "prefecture": "京都府",
    "city": "京都市左京区",
    "town": "田中高原町"
  },
  "6068243": {
    "zipcode": "6068243",
    "prefectureCode": "26",
    "prefectureNumber": 26,
    "prefecture": "京都府",
    "city": "京都市左京区",
    "town": "田中東高原町"
  },
  "6068244": {
    "zipcode": "6068244",
    "prefectureCode": "26",
    "prefectureNumber": 26,
    "prefecture": "京都府",
    "city": "京都市左京区",
    "town": "北白川東平井町"
  },
  "6068245": {
    "zipcode": "6068245",
    "prefectureCode": "26",
    "prefectureNumber": 26,
    "prefecture": "京都府",
    "city": "京都市左京区",
    "town": "北白川平井町"
  },
  "6068246": {
    "zipcode": "6068246",
    "prefectureCode": "26",
    "prefectureNumber": 26,
    "prefecture": "京都府",
    "city": "京都市左京区",
    "town": "北白川西平井町"
  },
  "6068247": {
    "zipcode": "6068247",
    "prefectureCode": "26",
    "prefectureNumber": 26,
    "prefecture": "京都府",
    "city": "京都市左京区",
    "town": "田中東春菜町"
  },
  "6068251": {
    "zipcode": "6068251",
    "prefectureCode": "26",
    "prefectureNumber": 26,
    "prefecture": "京都府",
    "city": "京都市左京区",
    "town": "北白川東伊織町"
  },
  "6068252": {
    "zipcode": "6068252",
    "prefectureCode": "26",
    "prefectureNumber": 26,
    "prefecture": "京都府",
    "city": "京都市左京区",
    "town": "北白川上終町"
  },
  "6068253": {
    "zipcode": "6068253",
    "prefectureCode": "26",
    "prefectureNumber": 26,
    "prefecture": "京都府",
    "city": "京都市左京区",
    "town": "北白川瀬ノ内町"
  },
  "6068254": {
    "zipcode": "6068254",
    "prefectureCode": "26",
    "prefectureNumber": 26,
    "prefecture": "京都府",
    "city": "京都市左京区",
    "town": "北白川東瀬ノ内町"
  },
  "6068255": {
    "zipcode": "6068255",
    "prefectureCode": "26",
    "prefectureNumber": 26,
    "prefecture": "京都府",
    "city": "京都市左京区",
    "town": "北白川西瀬ノ内町"
  },
  "6068256": {
    "zipcode": "6068256",
    "prefectureCode": "26",
    "prefectureNumber": 26,
    "prefecture": "京都府",
    "city": "京都市左京区",
    "town": "北白川伊織町"
  },
  "6068257": {
    "zipcode": "6068257",
    "prefectureCode": "26",
    "prefectureNumber": 26,
    "prefecture": "京都府",
    "city": "京都市左京区",
    "town": "北白川西伊織町"
  },
  "6068261": {
    "zipcode": "6068261",
    "prefectureCode": "26",
    "prefectureNumber": 26,
    "prefecture": "京都府",
    "city": "京都市左京区",
    "town": "北白川西蔦町"
  },
  "6068262": {
    "zipcode": "6068262",
    "prefectureCode": "26",
    "prefectureNumber": 26,
    "prefecture": "京都府",
    "city": "京都市左京区",
    "town": "北白川蔦町"
  },
  "6068263": {
    "zipcode": "6068263",
    "prefectureCode": "26",
    "prefectureNumber": 26,
    "prefecture": "京都府",
    "city": "京都市左京区",
    "town": "北白川東蔦町"
  },
  "6068264": {
    "zipcode": "6068264",
    "prefectureCode": "26",
    "prefectureNumber": 26,
    "prefecture": "京都府",
    "city": "京都市左京区",
    "town": "北白川小倉町"
  },
  "6068265": {
    "zipcode": "6068265",
    "prefectureCode": "26",
    "prefectureNumber": 26,
    "prefecture": "京都府",
    "city": "京都市左京区",
    "town": "北白川東小倉町"
  },
  "6068266": {
    "zipcode": "6068266",
    "prefectureCode": "26",
    "prefectureNumber": 26,
    "prefecture": "京都府",
    "city": "京都市左京区",
    "town": "北白川久保田町"
  },
  "6068267": {
    "zipcode": "6068267",
    "prefectureCode": "26",
    "prefectureNumber": 26,
    "prefecture": "京都府",
    "city": "京都市左京区",
    "town": "北白川西町"
  },
  "6068271": {
    "zipcode": "6068271",
    "prefectureCode": "26",
    "prefectureNumber": 26,
    "prefecture": "京都府",
    "city": "京都市左京区",
    "town": "北白川瓜生山町"
  },
  "6068272": {
    "zipcode": "6068272",
    "prefectureCode": "26",
    "prefectureNumber": 26,
    "prefecture": "京都府",
    "city": "京都市左京区",
    "town": "北白川山田町"
  },
  "6068273": {
    "zipcode": "6068273",
    "prefectureCode": "26",
    "prefectureNumber": 26,
    "prefecture": "京都府",
    "city": "京都市左京区",
    "town": "北白川山ノ元町"
  },
  "6068274": {
    "zipcode": "6068274",
    "prefectureCode": "26",
    "prefectureNumber": 26,
    "prefecture": "京都府",
    "city": "京都市左京区",
    "town": "北白川大堂町"
  },
  "6068275": {
    "zipcode": "6068275",
    "prefectureCode": "26",
    "prefectureNumber": 26,
    "prefecture": "京都府",
    "city": "京都市左京区",
    "town": "北白川上別当町"
  },
  "6068276": {
    "zipcode": "6068276",
    "prefectureCode": "26",
    "prefectureNumber": 26,
    "prefecture": "京都府",
    "city": "京都市左京区",
    "town": "北白川別当町"
  },
  "6068277": {
    "zipcode": "6068277",
    "prefectureCode": "26",
    "prefectureNumber": 26,
    "prefecture": "京都府",
    "city": "京都市左京区",
    "town": "北白川堂ノ前町"
  },
  "6068281": {
    "zipcode": "6068281",
    "prefectureCode": "26",
    "prefectureNumber": 26,
    "prefecture": "京都府",
    "city": "京都市左京区",
    "town": "北白川丸山町"
  },
  "6068282": {
    "zipcode": "6068282",
    "prefectureCode": "26",
    "prefectureNumber": 26,
    "prefecture": "京都府",
    "city": "京都市左京区",
    "town": "北白川外山町"
  },
  "6068283": {
    "zipcode": "6068283",
    "prefectureCode": "26",
    "prefectureNumber": 26,
    "prefecture": "京都府",
    "city": "京都市左京区",
    "town": "北白川仕伏町"
  },
  "6068284": {
    "zipcode": "6068284",
    "prefectureCode": "26",
    "prefectureNumber": 26,
    "prefecture": "京都府",
    "city": "京都市左京区",
    "town": "北白川下池田町"
  },
  "6068285": {
    "zipcode": "6068285",
    "prefectureCode": "26",
    "prefectureNumber": 26,
    "prefecture": "京都府",
    "city": "京都市左京区",
    "town": "北白川東久保田町"
  },
  "6068286": {
    "zipcode": "6068286",
    "prefectureCode": "26",
    "prefectureNumber": 26,
    "prefecture": "京都府",
    "city": "京都市左京区",
    "town": "北白川下別当町"
  },
  "6068287": {
    "zipcode": "6068287",
    "prefectureCode": "26",
    "prefectureNumber": 26,
    "prefecture": "京都府",
    "city": "京都市左京区",
    "town": "北白川上池田町"
  },
  "6068291": {
    "zipcode": "6068291",
    "prefectureCode": "26",
    "prefectureNumber": 26,
    "prefecture": "京都府",
    "city": "京都市左京区",
    "town": "北白川岩坂町"
  },
  "6068292": {
    "zipcode": "6068292",
    "prefectureCode": "26",
    "prefectureNumber": 26,
    "prefecture": "京都府",
    "city": "京都市左京区",
    "town": "北白川重石町"
  },
  "6068293": {
    "zipcode": "6068293",
    "prefectureCode": "26",
    "prefectureNumber": 26,
    "prefecture": "京都府",
    "city": "京都市左京区",
    "town": "北白川琵琶町"
  },
  "6068294": {
    "zipcode": "6068294",
    "prefectureCode": "26",
    "prefectureNumber": 26,
    "prefecture": "京都府",
    "city": "京都市左京区",
    "town": "北白川地蔵谷町"
  },
  "6068295": {
    "zipcode": "6068295",
    "prefectureCode": "26",
    "prefectureNumber": 26,
    "prefecture": "京都府",
    "city": "京都市左京区",
    "town": "北白川清沢口町"
  },
  "6068301": {
    "zipcode": "6068301",
    "prefectureCode": "26",
    "prefectureNumber": 26,
    "prefecture": "京都府",
    "city": "京都市左京区",
    "town": "吉田泉殿町"
  },
  "6068302": {
    "zipcode": "6068302",
    "prefectureCode": "26",
    "prefectureNumber": 26,
    "prefecture": "京都府",
    "city": "京都市左京区",
    "town": "吉田牛ノ宮町"
  },
  "6068303": {
    "zipcode": "6068303",
    "prefectureCode": "26",
    "prefectureNumber": 26,
    "prefecture": "京都府",
    "city": "京都市左京区",
    "town": "吉田橘町"
  },
  "6068304": {
    "zipcode": "6068304",
    "prefectureCode": "26",
    "prefectureNumber": 26,
    "prefecture": "京都府",
    "city": "京都市左京区",
    "town": "吉田下阿達町"
  },
  "6068305": {
    "zipcode": "6068305",
    "prefectureCode": "26",
    "prefectureNumber": 26,
    "prefecture": "京都府",
    "city": "京都市左京区",
    "town": "吉田河原町"
  },
  "6068306": {
    "zipcode": "6068306",
    "prefectureCode": "26",
    "prefectureNumber": 26,
    "prefecture": "京都府",
    "city": "京都市左京区",
    "town": "吉田中阿達町"
  },
  "6068307": {
    "zipcode": "6068307",
    "prefectureCode": "26",
    "prefectureNumber": 26,
    "prefecture": "京都府",
    "city": "京都市左京区",
    "town": "吉田上阿達町"
  },
  "6068311": {
    "zipcode": "6068311",
    "prefectureCode": "26",
    "prefectureNumber": 26,
    "prefecture": "京都府",
    "city": "京都市左京区",
    "town": "吉田神楽岡町"
  },
  "6068312": {
    "zipcode": "6068312",
    "prefectureCode": "26",
    "prefectureNumber": 26,
    "prefecture": "京都府",
    "city": "京都市左京区",
    "town": "吉田上大路町"
  },
  "6068313": {
    "zipcode": "6068313",
    "prefectureCode": "26",
    "prefectureNumber": 26,
    "prefecture": "京都府",
    "city": "京都市左京区",
    "town": "吉田中大路町"
  },
  "6068314": {
    "zipcode": "6068314",
    "prefectureCode": "26",
    "prefectureNumber": 26,
    "prefecture": "京都府",
    "city": "京都市左京区",
    "town": "吉田下大路町"
  },
  "6068315": {
    "zipcode": "6068315",
    "prefectureCode": "26",
    "prefectureNumber": 26,
    "prefecture": "京都府",
    "city": "京都市左京区",
    "town": "吉田近衛町"
  },
  "6068316": {
    "zipcode": "6068316",
    "prefectureCode": "26",
    "prefectureNumber": 26,
    "prefecture": "京都府",
    "city": "京都市左京区",
    "town": "吉田二本松町"
  },
  "6068317": {
    "zipcode": "6068317",
    "prefectureCode": "26",
    "prefectureNumber": 26,
    "prefecture": "京都府",
    "city": "京都市左京区",
    "town": "吉田本町"
  },
  "6068321": {
    "zipcode": "6068321",
    "prefectureCode": "26",
    "prefectureNumber": 26,
    "prefecture": "京都府",
    "city": "京都市左京区",
    "town": "岡崎東福ノ川町"
  },
  "6068322": {
    "zipcode": "6068322",
    "prefectureCode": "26",
    "prefectureNumber": 26,
    "prefecture": "京都府",
    "city": "京都市左京区",
    "town": "岡崎入江町"
  },
  "6068323": {
    "zipcode": "6068323",
    "prefectureCode": "26",
    "prefectureNumber": 26,
    "prefecture": "京都府",
    "city": "京都市左京区",
    "town": "聖護院円頓美町"
  },
  "6068324": {
    "zipcode": "6068324",
    "prefectureCode": "26",
    "prefectureNumber": 26,
    "prefecture": "京都府",
    "city": "京都市左京区",
    "town": "聖護院中町"
  },
  "6068325": {
    "zipcode": "6068325",
    "prefectureCode": "26",
    "prefectureNumber": 26,
    "prefecture": "京都府",
    "city": "京都市左京区",
    "town": "聖護院東町"
  },
  "6068326": {
    "zipcode": "6068326",
    "prefectureCode": "26",
    "prefectureNumber": 26,
    "prefecture": "京都府",
    "city": "京都市左京区",
    "town": "岡崎西福ノ川町"
  },
  "6068331": {
    "zipcode": "6068331",
    "prefectureCode": "26",
    "prefectureNumber": 26,
    "prefecture": "京都府",
    "city": "京都市左京区",
    "town": "黒谷町"
  },
  "6068332": {
    "zipcode": "6068332",
    "prefectureCode": "26",
    "prefectureNumber": 26,
    "prefecture": "京都府",
    "city": "京都市左京区",
    "town": "岡崎東天王町"
  },
  "6068333": {
    "zipcode": "6068333",
    "prefectureCode": "26",
    "prefectureNumber": 26,
    "prefecture": "京都府",
    "city": "京都市左京区",
    "town": "岡崎法勝寺町"
  },
  "6068334": {
    "zipcode": "6068334",
    "prefectureCode": "26",
    "prefectureNumber": 26,
    "prefecture": "京都府",
    "city": "京都市左京区",
    "town": "岡崎南御所町"
  },
  "6068335": {
    "zipcode": "6068335",
    "prefectureCode": "26",
    "prefectureNumber": 26,
    "prefecture": "京都府",
    "city": "京都市左京区",
    "town": "岡崎天王町"
  },
  "6068336": {
    "zipcode": "6068336",
    "prefectureCode": "26",
    "prefectureNumber": 26,
    "prefecture": "京都府",
    "city": "京都市左京区",
    "town": "岡崎北御所町"
  },
  "6068341": {
    "zipcode": "6068341",
    "prefectureCode": "26",
    "prefectureNumber": 26,
    "prefecture": "京都府",
    "city": "京都市左京区",
    "town": "岡崎西天王町"
  },
  "6068342": {
    "zipcode": "6068342",
    "prefectureCode": "26",
    "prefectureNumber": 26,
    "prefecture": "京都府",
    "city": "京都市左京区",
    "town": "岡崎最勝寺町"
  },
  "6068343": {
    "zipcode": "6068343",
    "prefectureCode": "26",
    "prefectureNumber": 26,
    "prefecture": "京都府",
    "city": "京都市左京区",
    "town": "岡崎成勝寺町"
  },
  "6068344": {
    "zipcode": "6068344",
    "prefectureCode": "26",
    "prefectureNumber": 26,
    "prefecture": "京都府",
    "city": "京都市左京区",
    "town": "岡崎円勝寺町"
  },
  "6068345": {
    "zipcode": "6068345",
    "prefectureCode": "26",
    "prefectureNumber": 26,
    "prefecture": "京都府",
    "city": "京都市左京区",
    "town": "東門前町"
  },
  "6068346": {
    "zipcode": "6068346",
    "prefectureCode": "26",
    "prefectureNumber": 26,
    "prefecture": "京都府",
    "city": "京都市左京区",
    "town": "南門前町"
  },
  "6068351": {
    "zipcode": "6068351",
    "prefectureCode": "26",
    "prefectureNumber": 26,
    "prefecture": "京都府",
    "city": "京都市左京区",
    "town": "岡崎徳成町"
  },
  "6068352": {
    "zipcode": "6068352",
    "prefectureCode": "26",
    "prefectureNumber": 26,
    "prefecture": "京都府",
    "city": "京都市左京区",
    "town": "北門前町"
  },
  "6068353": {
    "zipcode": "6068353",
    "prefectureCode": "26",
    "prefectureNumber": 26,
    "prefecture": "京都府",
    "city": "京都市左京区",
    "town": "正往寺町"
  },
  "6068354": {
    "zipcode": "6068354",
    "prefectureCode": "26",
    "prefectureNumber": 26,
    "prefecture": "京都府",
    "city": "京都市左京区",
    "town": "頭町"
  },
  "6068355": {
    "zipcode": "6068355",
    "prefectureCode": "26",
    "prefectureNumber": 26,
    "prefecture": "京都府",
    "city": "京都市左京区",
    "town": "新東洞院町"
  },
  "6068356": {
    "zipcode": "6068356",
    "prefectureCode": "26",
    "prefectureNumber": 26,
    "prefecture": "京都府",
    "city": "京都市左京区",
    "town": "石原町"
  },
  "6068357": {
    "zipcode": "6068357",
    "prefectureCode": "26",
    "prefectureNumber": 26,
    "prefecture": "京都府",
    "city": "京都市左京区",
    "town": "聖護院蓮華蔵町"
  },
  "6068361": {
    "zipcode": "6068361",
    "prefectureCode": "26",
    "prefectureNumber": 26,
    "prefecture": "京都府",
    "city": "京都市左京区",
    "town": "福本町"
  },
  "6068362": {
    "zipcode": "6068362",
    "prefectureCode": "26",
    "prefectureNumber": 26,
    "prefecture": "京都府",
    "city": "京都市左京区",
    "town": "法皇寺町"
  },
  "6068363": {
    "zipcode": "6068363",
    "prefectureCode": "26",
    "prefectureNumber": 26,
    "prefecture": "京都府",
    "city": "京都市左京区",
    "town": "和国町"
  },
  "6068364": {
    "zipcode": "6068364",
    "prefectureCode": "26",
    "prefectureNumber": 26,
    "prefecture": "京都府",
    "city": "京都市左京区",
    "town": "菊鉾町"
  },
  "6068365": {
    "zipcode": "6068365",
    "prefectureCode": "26",
    "prefectureNumber": 26,
    "prefecture": "京都府",
    "city": "京都市左京区",
    "town": "讃州寺町"
  },
  "6068366": {
    "zipcode": "6068366",
    "prefectureCode": "26",
    "prefectureNumber": 26,
    "prefecture": "京都府",
    "city": "京都市左京区",
    "town": "超勝寺門前町"
  },
  "6068371": {
    "zipcode": "6068371",
    "prefectureCode": "26",
    "prefectureNumber": 26,
    "prefecture": "京都府",
    "city": "京都市左京区",
    "town": "秋築町"
  },
  "6068372": {
    "zipcode": "6068372",
    "prefectureCode": "26",
    "prefectureNumber": 26,
    "prefecture": "京都府",
    "city": "京都市左京区",
    "town": "吉永町"
  },
  "6068373": {
    "zipcode": "6068373",
    "prefectureCode": "26",
    "prefectureNumber": 26,
    "prefecture": "京都府",
    "city": "京都市左京区",
    "town": "杉本町"
  },
  "6068374": {
    "zipcode": "6068374",
    "prefectureCode": "26",
    "prefectureNumber": 26,
    "prefecture": "京都府",
    "city": "京都市左京区",
    "town": "難波町"
  },
  "6068375": {
    "zipcode": "6068375",
    "prefectureCode": "26",
    "prefectureNumber": 26,
    "prefecture": "京都府",
    "city": "京都市左京区",
    "town": "新車屋町"
  },
  "6068376": {
    "zipcode": "6068376",
    "prefectureCode": "26",
    "prefectureNumber": 26,
    "prefecture": "京都府",
    "city": "京都市左京区",
    "town": "大菊町"
  },
  "6068381": {
    "zipcode": "6068381",
    "prefectureCode": "26",
    "prefectureNumber": 26,
    "prefecture": "京都府",
    "city": "京都市左京区",
    "town": "中川町"
  },
  "6068382": {
    "zipcode": "6068382",
    "prefectureCode": "26",
    "prefectureNumber": 26,
    "prefecture": "京都府",
    "city": "京都市左京区",
    "town": "大文字町"
  },
  "6068383": {
    "zipcode": "6068383",
    "prefectureCode": "26",
    "prefectureNumber": 26,
    "prefecture": "京都府",
    "city": "京都市左京区",
    "town": "新先斗町"
  },
  "6068384": {
    "zipcode": "6068384",
    "prefectureCode": "26",
    "prefectureNumber": 26,
    "prefecture": "京都府",
    "city": "京都市左京区",
    "town": "新生洲町"
  },
  "6068385": {
    "zipcode": "6068385",
    "prefectureCode": "26",
    "prefectureNumber": 26,
    "prefecture": "京都府",
    "city": "京都市左京区",
    "town": "孫橋町"
  },
  "6068386": {
    "zipcode": "6068386",
    "prefectureCode": "26",
    "prefectureNumber": 26,
    "prefecture": "京都府",
    "city": "京都市左京区",
    "town": "新丸太町"
  },
  "6068387": {
    "zipcode": "6068387",
    "prefectureCode": "26",
    "prefectureNumber": 26,
    "prefecture": "京都府",
    "city": "京都市左京区",
    "town": "法林寺門前町"
  },
  "6068391": {
    "zipcode": "6068391",
    "prefectureCode": "26",
    "prefectureNumber": 26,
    "prefecture": "京都府",
    "city": "京都市左京区",
    "town": "聖護院西町"
  },
  "6068392": {
    "zipcode": "6068392",
    "prefectureCode": "26",
    "prefectureNumber": 26,
    "prefecture": "京都府",
    "city": "京都市左京区",
    "town": "聖護院山王町"
  },
  "6068393": {
    "zipcode": "6068393",
    "prefectureCode": "26",
    "prefectureNumber": 26,
    "prefecture": "京都府",
    "city": "京都市左京区",
    "town": "東竹屋町"
  },
  "6068394": {
    "zipcode": "6068394",
    "prefectureCode": "26",
    "prefectureNumber": 26,
    "prefecture": "京都府",
    "city": "京都市左京区",
    "town": "聖護院東寺領町"
  },
  "6068395": {
    "zipcode": "6068395",
    "prefectureCode": "26",
    "prefectureNumber": 26,
    "prefecture": "京都府",
    "city": "京都市左京区",
    "town": "東丸太町"
  },
  "6068396": {
    "zipcode": "6068396",
    "prefectureCode": "26",
    "prefectureNumber": 26,
    "prefecture": "京都府",
    "city": "京都市左京区",
    "town": "下堤町"
  },
  "6068397": {
    "zipcode": "6068397",
    "prefectureCode": "26",
    "prefectureNumber": 26,
    "prefecture": "京都府",
    "city": "京都市左京区",
    "town": "聖護院川原町"
  },
  "6068401": {
    "zipcode": "6068401",
    "prefectureCode": "26",
    "prefectureNumber": 26,
    "prefecture": "京都府",
    "city": "京都市左京区",
    "town": "浄土寺小山町"
  },
  "6068402": {
    "zipcode": "6068402",
    "prefectureCode": "26",
    "prefectureNumber": 26,
    "prefecture": "京都府",
    "city": "京都市左京区",
    "town": "銀閣寺町"
  },
  "6068403": {
    "zipcode": "6068403",
    "prefectureCode": "26",
    "prefectureNumber": 26,
    "prefecture": "京都府",
    "city": "京都市左京区",
    "town": "浄土寺南田町"
  },
  "6068404": {
    "zipcode": "6068404",
    "prefectureCode": "26",
    "prefectureNumber": 26,
    "prefecture": "京都府",
    "city": "京都市左京区",
    "town": "浄土寺下南田町"
  },
  "6068405": {
    "zipcode": "6068405",
    "prefectureCode": "26",
    "prefectureNumber": 26,
    "prefecture": "京都府",
    "city": "京都市左京区",
    "town": "浄土寺上南田町"
  },
  "6068406": {
    "zipcode": "6068406",
    "prefectureCode": "26",
    "prefectureNumber": 26,
    "prefecture": "京都府",
    "city": "京都市左京区",
    "town": "浄土寺石橋町"
  },
  "6068407": {
    "zipcode": "6068407",
    "prefectureCode": "26",
    "prefectureNumber": 26,
    "prefecture": "京都府",
    "city": "京都市左京区",
    "town": "銀閣寺前町"
  },
  "6068411": {
    "zipcode": "6068411",
    "prefectureCode": "26",
    "prefectureNumber": 26,
    "prefecture": "京都府",
    "city": "京都市左京区",
    "town": "浄土寺東田町"
  },
  "6068412": {
    "zipcode": "6068412",
    "prefectureCode": "26",
    "prefectureNumber": 26,
    "prefecture": "京都府",
    "city": "京都市左京区",
    "town": "浄土寺馬場町"
  },
  "6068413": {
    "zipcode": "6068413",
    "prefectureCode": "26",
    "prefectureNumber": 26,
    "prefecture": "京都府",
    "city": "京都市左京区",
    "town": "浄土寺下馬場町"
  },
  "6068414": {
    "zipcode": "6068414",
    "prefectureCode": "26",
    "prefectureNumber": 26,
    "prefecture": "京都府",
    "city": "京都市左京区",
    "town": "浄土寺真如町"
  },
  "6068415": {
    "zipcode": "6068415",
    "prefectureCode": "26",
    "prefectureNumber": 26,
    "prefecture": "京都府",
    "city": "京都市左京区",
    "town": "岡崎真如堂前町"
  },
  "6068416": {
    "zipcode": "6068416",
    "prefectureCode": "26",
    "prefectureNumber": 26,
    "prefecture": "京都府",
    "city": "京都市左京区",
    "town": "浄土寺上馬場町"
  },
  "6068417": {
    "zipcode": "6068417",
    "prefectureCode": "26",
    "prefectureNumber": 26,
    "prefecture": "京都府",
    "city": "京都市左京区",
    "town": "浄土寺西田町"
  },
  "6068421": {
    "zipcode": "6068421",
    "prefectureCode": "26",
    "prefectureNumber": 26,
    "prefecture": "京都府",
    "city": "京都市左京区",
    "town": "鹿ケ谷法然院町"
  },
  "6068422": {
    "zipcode": "6068422",
    "prefectureCode": "26",
    "prefectureNumber": 26,
    "prefecture": "京都府",
    "city": "京都市左京区",
    "town": "鹿ケ谷御所ノ段町"
  },
  "6068423": {
    "zipcode": "6068423",
    "prefectureCode": "26",
    "prefectureNumber": 26,
    "prefecture": "京都府",
    "city": "京都市左京区",
    "town": "鹿ケ谷桜谷町"
  },
  "6068424": {
    "zipcode": "6068424",
    "prefectureCode": "26",
    "prefectureNumber": 26,
    "prefecture": "京都府",
    "city": "京都市左京区",
    "town": "鹿ケ谷宮ノ前町"
  },
  "6068425": {
    "zipcode": "6068425",
    "prefectureCode": "26",
    "prefectureNumber": 26,
    "prefecture": "京都府",
    "city": "京都市左京区",
    "town": "鹿ケ谷西寺ノ前町"
  },
  "6068426": {
    "zipcode": "6068426",
    "prefectureCode": "26",
    "prefectureNumber": 26,
    "prefecture": "京都府",
    "city": "京都市左京区",
    "town": "鹿ケ谷寺ノ前町"
  },
  "6068427": {
    "zipcode": "6068427",
    "prefectureCode": "26",
    "prefectureNumber": 26,
    "prefecture": "京都府",
    "city": "京都市左京区",
    "town": "鹿ケ谷法然院西町"
  },
  "6068428": {
    "zipcode": "6068428",
    "prefectureCode": "26",
    "prefectureNumber": 26,
    "prefecture": "京都府",
    "city": "京都市左京区",
    "town": "鹿ケ谷栗木谷町"
  },
  "6068431": {
    "zipcode": "6068431",
    "prefectureCode": "26",
    "prefectureNumber": 26,
    "prefecture": "京都府",
    "city": "京都市左京区",
    "town": "鹿ケ谷下宮ノ前町"
  },
  "6068432": {
    "zipcode": "6068432",
    "prefectureCode": "26",
    "prefectureNumber": 26,
    "prefecture": "京都府",
    "city": "京都市左京区",
    "town": "鹿ケ谷高岸町"
  },
  "6068433": {
    "zipcode": "6068433",
    "prefectureCode": "26",
    "prefectureNumber": 26,
    "prefecture": "京都府",
    "city": "京都市左京区",
    "town": "永観堂西町"
  },
  "6068434": {
    "zipcode": "6068434",
    "prefectureCode": "26",
    "prefectureNumber": 26,
    "prefecture": "京都府",
    "city": "京都市左京区",
    "town": "南禅寺下河原町"
  },
  "6068435": {
    "zipcode": "6068435",
    "prefectureCode": "26",
    "prefectureNumber": 26,
    "prefecture": "京都府",
    "city": "京都市左京区",
    "town": "南禅寺福地町"
  },
  "6068436": {
    "zipcode": "6068436",
    "prefectureCode": "26",
    "prefectureNumber": 26,
    "prefecture": "京都府",
    "city": "京都市左京区",
    "town": "粟田口鳥居町"
  },
  "6068437": {
    "zipcode": "6068437",
    "prefectureCode": "26",
    "prefectureNumber": 26,
    "prefecture": "京都府",
    "city": "京都市左京区",
    "town": "南禅寺草川町"
  },
  "6068441": {
    "zipcode": "6068441",
    "prefectureCode": "26",
    "prefectureNumber": 26,
    "prefecture": "京都府",
    "city": "京都市左京区",
    "town": "鹿ケ谷徳善谷町"
  },
  "6068442": {
    "zipcode": "6068442",
    "prefectureCode": "26",
    "prefectureNumber": 26,
    "prefecture": "京都府",
    "city": "京都市左京区",
    "town": "鹿ケ谷大黒谷町"
  },
  "6068443": {
    "zipcode": "6068443",
    "prefectureCode": "26",
    "prefectureNumber": 26,
    "prefecture": "京都府",
    "city": "京都市左京区",
    "town": "粟田口山下町"
  },
  "6068444": {
    "zipcode": "6068444",
    "prefectureCode": "26",
    "prefectureNumber": 26,
    "prefecture": "京都府",
    "city": "京都市左京区",
    "town": "若王子町"
  },
  "6068445": {
    "zipcode": "6068445",
    "prefectureCode": "26",
    "prefectureNumber": 26,
    "prefecture": "京都府",
    "city": "京都市左京区",
    "town": "永観堂町"
  },
  "6068446": {
    "zipcode": "6068446",
    "prefectureCode": "26",
    "prefectureNumber": 26,
    "prefecture": "京都府",
    "city": "京都市左京区",
    "town": "南禅寺北ノ坊町"
  },
  "6068447": {
    "zipcode": "6068447",
    "prefectureCode": "26",
    "prefectureNumber": 26,
    "prefecture": "京都府",
    "city": "京都市左京区",
    "town": "鹿ケ谷上宮ノ前町"
  },
  "6068451": {
    "zipcode": "6068451",
    "prefectureCode": "26",
    "prefectureNumber": 26,
    "prefecture": "京都府",
    "city": "京都市左京区",
    "town": "北白川中山町"
  },
  "6068452": {
    "zipcode": "6068452",
    "prefectureCode": "26",
    "prefectureNumber": 26,
    "prefecture": "京都府",
    "city": "京都市左京区",
    "town": "粟田口如意ケ嶽町"
  },
  "6068453": {
    "zipcode": "6068453",
    "prefectureCode": "26",
    "prefectureNumber": 26,
    "prefecture": "京都府",
    "city": "京都市左京区",
    "town": "北白川南ケ原町"
  },
  "6068454": {
    "zipcode": "6068454",
    "prefectureCode": "26",
    "prefectureNumber": 26,
    "prefecture": "京都府",
    "city": "京都市左京区",
    "town": "北白川向ケ谷町"
  },
  "6068455": {
    "zipcode": "6068455",
    "prefectureCode": "26",
    "prefectureNumber": 26,
    "prefecture": "京都府",
    "city": "京都市左京区",
    "town": "北白川小亀谷町"
  }
}
