{
  "6070000": {
    "zipcode": "6070000",
    "prefectureCode": "26",
    "prefectureNumber": 26,
    "prefecture": "京都府",
    "city": "京都市山科区",
    "town": "以下に掲載がない場合"
  },
  "6078001": {
    "zipcode": "6078001",
    "prefectureCode": "26",
    "prefectureNumber": 26,
    "prefecture": "京都府",
    "city": "京都市山科区",
    "town": "安朱毘沙門堂町"
  },
  "6078002": {
    "zipcode": "6078002",
    "prefectureCode": "26",
    "prefectureNumber": 26,
    "prefecture": "京都府",
    "city": "京都市山科区",
    "town": "安朱東谷"
  },
  "6078003": {
    "zipcode": "6078003",
    "prefectureCode": "26",
    "prefectureNumber": 26,
    "prefecture": "京都府",
    "city": "京都市山科区",
    "town": "安朱稲荷山町"
  },
  "6078004": {
    "zipcode": "6078004",
    "prefectureCode": "26",
    "prefectureNumber": 26,
    "prefecture": "京都府",
    "city": "京都市山科区",
    "town": "安朱屋敷町"
  },
  "6078005": {
    "zipcode": "6078005",
    "prefectureCode": "26",
    "prefectureNumber": 26,
    "prefecture": "京都府",
    "city": "京都市山科区",
    "town": "安朱堂ノ後町"
  },
  "6078006": {
    "zipcode": "6078006",
    "prefectureCode": "26",
    "prefectureNumber": 26,
    "prefecture": "京都府",
    "city": "京都市山科区",
    "town": "安朱馬場ノ東町"
  },
  "6078007": {
    "zipcode": "6078007",
    "prefectureCode": "26",
    "prefectureNumber": 26,
    "prefecture": "京都府",
    "city": "京都市山科区",
    "town": "安朱馬場ノ西町"
  },
  "6078008": {
    "zipcode": "6078008",
    "prefectureCode": "26",
    "prefectureNumber": 26,
    "prefecture": "京都府",
    "city": "京都市山科区",
    "town": "安朱東海道町"
  },
  "6078009": {
    "zipcode": "6078009",
    "prefectureCode": "26",
    "prefectureNumber": 26,
    "prefecture": "京都府",
    "city": "京都市山科区",
    "town": "安朱北屋敷町"
  },
  "6078011": {
    "zipcode": "6078011",
    "prefectureCode": "26",
    "prefectureNumber": 26,
    "prefecture": "京都府",
    "city": "京都市山科区",
    "town": "安朱南屋敷町"
  },
  "6078012": {
    "zipcode": "6078012",
    "prefectureCode": "26",
    "prefectureNumber": 26,
    "prefecture": "京都府",
    "city": "京都市山科区",
    "town": "安朱桟敷町"
  },
  "6078013": {
    "zipcode": "6078013",
    "prefectureCode": "26",
    "prefectureNumber": 26,
    "prefecture": "京都府",
    "city": "京都市山科区",
    "town": "安朱中小路町"
  },
  "6078014": {
    "zipcode": "6078014",
    "prefectureCode": "26",
    "prefectureNumber": 26,
    "prefecture": "京都府",
    "city": "京都市山科区",
    "town": "安朱山田"
  },
  "6078015": {
    "zipcode": "6078015",
    "prefectureCode": "26",
    "prefectureNumber": 26,
    "prefecture": "京都府",
    "city": "京都市山科区",
    "town": "安朱山川町"
  },
  "6078016": {
    "zipcode": "6078016",
    "prefectureCode": "26",
    "prefectureNumber": 26,
    "prefecture": "京都府",
    "city": "京都市山科区",
    "town": "安朱中溝町"
  },
  "6078017": {
    "zipcode": "6078017",
    "prefectureCode": "26",
    "prefectureNumber": 26,
    "prefecture": "京都府",
    "city": "京都市山科区",
    "town": "安朱川向町"
  },
  "6078018": {
    "zipcode": "6078018",
    "prefectureCode": "26",
    "prefectureNumber": 26,
    "prefecture": "京都府",
    "city": "京都市山科区",
    "town": "安朱奥ノ田"
  },
  "6078021": {
    "zipcode": "6078021",
    "prefectureCode": "26",
    "prefectureNumber": 26,
    "prefecture": "京都府",
    "city": "京都市山科区",
    "town": "四ノ宮行者谷"
  },
  "6078022": {
    "zipcode": "6078022",
    "prefectureCode": "26",
    "prefectureNumber": 26,
    "prefecture": "京都府",
    "city": "京都市山科区",
    "town": "四ノ宮小金塚"
  },
  "6078023": {
    "zipcode": "6078023",
    "prefectureCode": "26",
    "prefectureNumber": 26,
    "prefecture": "京都府",
    "city": "京都市山科区",
    "town": "四ノ宮新開畑"
  },
  "6078024": {
    "zipcode": "6078024",
    "prefectureCode": "26",
    "prefectureNumber": 26,
    "prefecture": "京都府",
    "city": "京都市山科区",
    "town": "四ノ宮熊ケ谷"
  },
  "6078025": {
    "zipcode": "6078025",
    "prefectureCode": "26",
    "prefectureNumber": 26,
    "prefecture": "京都府",
    "city": "京都市山科区",
    "town": "四ノ宮柳山町"
  },
  "6078026": {
    "zipcode": "6078026",
    "prefectureCode": "26",
    "prefectureNumber": 26,
    "prefecture": "京都府",
    "city": "京都市山科区",
    "town": "四ノ宮山田町"
  },
  "6078027": {
    "zipcode": "6078027",
    "prefectureCode": "26",
    "prefectureNumber": 26,
    "prefecture": "京都府",
    "city": "京都市山科区",
    "town": "四ノ宮川原町"
  },
  "6078028": {
    "zipcode": "6078028",
    "prefectureCode": "26",
    "prefectureNumber": 26,
    "prefecture": "京都府",
    "city": "京都市山科区",
    "town": "四ノ宮岩久保町"
  },
  "6078029": {
    "zipcode": "6078029",
    "prefectureCode": "26",
    "prefectureNumber": 26,
    "prefecture": "京都府",
    "city": "京都市山科区",
    "town": "四ノ宮大将軍町"
  },
  "6078031": {
    "zipcode": "6078031",
    "prefectureCode": "26",
    "prefectureNumber": 26,
    "prefecture": "京都府",
    "city": "京都市山科区",
    "town": "四ノ宮鎌手町"
  },
  "6078032": {
    "zipcode": "6078032",
    "prefectureCode": "26",
    "prefectureNumber": 26,
    "prefecture": "京都府",
    "city": "京都市山科区",
    "town": "四ノ宮奈良野町"
  },
  "6078033": {
    "zipcode": "6078033",
    "prefectureCode": "26",
    "prefectureNumber": 26,
    "prefecture": "京都府",
    "city": "京都市山科区",
    "town": "四ノ宮芝畑町"
  },
  "6078034": {
    "zipcode": "6078034",
    "prefectureCode": "26",
    "prefectureNumber": 26,
    "prefecture": "京都府",
    "city": "京都市山科区",
    "town": "四ノ宮泓"
  },
  "6078035": {
    "zipcode": "6078035",
    "prefectureCode": "26",
    "prefectureNumber": 26,
    "prefecture": "京都府",
    "city": "京都市山科区",
    "town": "四ノ宮神田町"
  },
  "6078041": {
    "zipcode": "6078041",
    "prefectureCode": "26",
    "prefectureNumber": 26,
    "prefecture": "京都府",
    "city": "京都市山科区",
    "town": "四ノ宮垣ノ内町"
  },
  "6078042": {
    "zipcode": "6078042",
    "prefectureCode": "26",
    "prefectureNumber": 26,
    "prefecture": "京都府",
    "city": "京都市山科区",
    "town": "四ノ宮南河原町"
  },
  "6078043": {
    "zipcode": "6078043",
    "prefectureCode": "26",
    "prefectureNumber": 26,
    "prefecture": "京都府",
    "city": "京都市山科区",
    "town": "四ノ宮中在寺町"
  },
  "6078044": {
    "zipcode": "6078044",
    "prefectureCode": "26",
    "prefectureNumber": 26,
    "prefecture": "京都府",
    "city": "京都市山科区",
    "town": "四ノ宮泉水町"
  },
  "6078045": {
    "zipcode": "6078045",
    "prefectureCode": "26",
    "prefectureNumber": 26,
    "prefecture": "京都府",
    "city": "京都市山科区",
    "town": "四ノ宮堂ノ後町"
  },
  "6078051": {
    "zipcode": "6078051",
    "prefectureCode": "26",
    "prefectureNumber": 26,
    "prefecture": "京都府",
    "city": "京都市山科区",
    "town": "髭茶屋桃燈町"
  },
  "6078052": {
    "zipcode": "6078052",
    "prefectureCode": "26",
    "prefectureNumber": 26,
    "prefecture": "京都府",
    "city": "京都市山科区",
    "town": "髭茶屋屋敷町"
  },
  "6078061": {
    "zipcode": "6078061",
    "prefectureCode": "26",
    "prefectureNumber": 26,
    "prefecture": "京都府",
    "city": "京都市山科区",
    "town": "音羽草田町"
  },
  "6078062": {
    "zipcode": "6078062",
    "prefectureCode": "26",
    "prefectureNumber": 26,
    "prefecture": "京都府",
    "city": "京都市山科区",
    "town": "音羽珍事町"
  },
  "6078063": {
    "zipcode": "6078063",
    "prefectureCode": "26",
    "prefectureNumber": 26,
    "prefecture": "京都府",
    "city": "京都市山科区",
    "town": "音羽平林町"
  },
  "6078064": {
    "zipcode": "6078064",
    "prefectureCode": "26",
    "prefectureNumber": 26,
    "prefecture": "京都府",
    "city": "京都市山科区",
    "town": "音羽八ノ坪"
  },
  "6078065": {
    "zipcode": "6078065",
    "prefectureCode": "26",
    "prefectureNumber": 26,
    "prefecture": "京都府",
    "city": "京都市山科区",
    "town": "音羽山等地"
  },
  "6078066": {
    "zipcode": "6078066",
    "prefectureCode": "26",
    "prefectureNumber": 26,
    "prefecture": "京都府",
    "city": "京都市山科区",
    "town": "音羽森廻り町"
  },
  "6078067": {
    "zipcode": "6078067",
    "prefectureCode": "26",
    "prefectureNumber": 26,
    "prefecture": "京都府",
    "city": "京都市山科区",
    "town": "音羽前田町"
  },
  "6078068": {
    "zipcode": "6078068",
    "prefectureCode": "26",
    "prefectureNumber": 26,
    "prefecture": "京都府",
    "city": "京都市山科区",
    "town": "音羽稲芝"
  },
  "6078069": {
    "zipcode": "6078069",
    "prefectureCode": "26",
    "prefectureNumber": 26,
    "prefecture": "京都府",
    "city": "京都市山科区",
    "town": "音羽中芝町"
  },
  "6078071": {
    "zipcode": "6078071",
    "prefectureCode": "26",
    "prefectureNumber": 26,
    "prefecture": "京都府",
    "city": "京都市山科区",
    "town": "音羽千本町"
  },
  "6078072": {
    "zipcode": "6078072",
    "prefectureCode": "26",
    "prefectureNumber": 26,
    "prefecture": "京都府",
    "city": "京都市山科区",
    "town": "音羽伊勢宿町"
  },
  "6078073": {
    "zipcode": "6078073",
    "prefectureCode": "26",
    "prefectureNumber": 26,
    "prefecture": "京都府",
    "city": "京都市山科区",
    "town": "音羽西林"
  },
  "6078074": {
    "zipcode": "6078074",
    "prefectureCode": "26",
    "prefectureNumber": 26,
    "prefecture": "京都府",
    "city": "京都市山科区",
    "town": "音羽乙出町"
  },
  "6078075": {
    "zipcode": "6078075",
    "prefectureCode": "26",
    "prefectureNumber": 26,
    "prefecture": "京都府",
    "city": "京都市山科区",
    "town": "音羽野田町"
  },
  "6078076": {
    "zipcode": "6078076",
    "prefectureCode": "26",
    "prefectureNumber": 26,
    "prefecture": "京都府",
    "city": "京都市山科区",
    "town": "音羽役出町"
  },
  "6078077": {
    "zipcode": "6078077",
    "prefectureCode": "26",
    "prefectureNumber": 26,
    "prefecture": "京都府",
    "city": "京都市山科区",
    "town": "音羽沢町"
  },
  "6078078": {
    "zipcode": "6078078",
    "prefectureCode": "26",
    "prefectureNumber": 26,
    "prefecture": "京都府",
    "city": "京都市山科区",
    "town": "音羽初田町"
  },
  "6078079": {
    "zipcode": "6078079",
    "prefectureCode": "26",
    "prefectureNumber": 26,
    "prefecture": "京都府",
    "city": "京都市山科区",
    "town": "音羽前出町"
  },
  "6078080": {
    "zipcode": "6078080",
    "prefectureCode": "26",
    "prefectureNumber": 26,
    "prefecture": "京都府",
    "city": "京都市山科区",
    "town": "竹鼻竹ノ街道町"
  },
  "6078081": {
    "zipcode": "6078081",
    "prefectureCode": "26",
    "prefectureNumber": 26,
    "prefecture": "京都府",
    "city": "京都市山科区",
    "town": "竹鼻外田町"
  },
  "6078082": {
    "zipcode": "6078082",
    "prefectureCode": "26",
    "prefectureNumber": 26,
    "prefecture": "京都府",
    "city": "京都市山科区",
    "town": "竹鼻扇町"
  },
  "6078083": {
    "zipcode": "6078083",
    "prefectureCode": "26",
    "prefectureNumber": 26,
    "prefecture": "京都府",
    "city": "京都市山科区",
    "town": "竹鼻木ノ本町"
  },
  "6078084": {
    "zipcode": "6078084",
    "prefectureCode": "26",
    "prefectureNumber": 26,
    "prefecture": "京都府",
    "city": "京都市山科区",
    "town": "竹鼻立原町"
  },
  "6078085": {
    "zipcode": "6078085",
    "prefectureCode": "26",
    "prefectureNumber": 26,
    "prefecture": "京都府",
    "city": "京都市山科区",
    "town": "竹鼻堂ノ前町"
  },
  "6078086": {
    "zipcode": "6078086",
    "prefectureCode": "26",
    "prefectureNumber": 26,
    "prefecture": "京都府",
    "city": "京都市山科区",
    "town": "竹鼻四丁野町"
  },
  "6078087": {
    "zipcode": "6078087",
    "prefectureCode": "26",
    "prefectureNumber": 26,
    "prefecture": "京都府",
    "city": "京都市山科区",
    "town": "竹鼻サイカシ町"
  },
  "6078088": {
    "zipcode": "6078088",
    "prefectureCode": "26",
    "prefectureNumber": 26,
    "prefecture": "京都府",
    "city": "京都市山科区",
    "town": "竹鼻地蔵寺南町"
  },
  "6078089": {
    "zipcode": "6078089",
    "prefectureCode": "26",
    "prefectureNumber": 26,
    "prefecture": "京都府",
    "city": "京都市山科区",
    "town": "竹鼻西ノ口町"
  },
  "6078091": {
    "zipcode": "6078091",
    "prefectureCode": "26",
    "prefectureNumber": 26,
    "prefecture": "京都府",
    "city": "京都市山科区",
    "town": "八軒屋敷町"
  },
  "6078101": {
    "zipcode": "6078101",
    "prefectureCode": "26",
    "prefectureNumber": 26,
    "prefecture": "京都府",
    "city": "京都市山科区",
    "town": "小山神無森町"
  },
  "6078102": {
    "zipcode": "6078102",
    "prefectureCode": "26",
    "prefectureNumber": 26,
    "prefecture": "京都府",
    "city": "京都市山科区",
    "town": "小山下ノ池"
  },
  "6078103": {
    "zipcode": "6078103",
    "prefectureCode": "26",
    "prefectureNumber": 26,
    "prefecture": "京都府",
    "city": "京都市山科区",
    "town": "小山一石畑"
  },
  "6078104": {
    "zipcode": "6078104",
    "prefectureCode": "26",
    "prefectureNumber": 26,
    "prefecture": "京都府",
    "city": "京都市山科区",
    "town": "小山谷田町"
  },
  "6078105": {
    "zipcode": "6078105",
    "prefectureCode": "26",
    "prefectureNumber": 26,
    "prefecture": "京都府",
    "city": "京都市山科区",
    "town": "小山松原畑町"
  },
  "6078106": {
    "zipcode": "6078106",
    "prefectureCode": "26",
    "prefectureNumber": 26,
    "prefecture": "京都府",
    "city": "京都市山科区",
    "town": "小山御坊ノ内町"
  },
  "6078107": {
    "zipcode": "6078107",
    "prefectureCode": "26",
    "prefectureNumber": 26,
    "prefecture": "京都府",
    "city": "京都市山科区",
    "town": "小山小川町"
  },
  "6078108": {
    "zipcode": "6078108",
    "prefectureCode": "26",
    "prefectureNumber": 26,
    "prefecture": "京都府",
    "city": "京都市山科区",
    "town": "小山中島町"
  },
  "6078109": {
    "zipcode": "6078109",
    "prefectureCode": "26",
    "prefectureNumber": 26,
    "prefecture": "京都府",
    "city": "京都市山科区",
    "town": "小山西御所町"
  },
  "6078111": {
    "zipcode": "6078111",
    "prefectureCode": "26",
    "prefectureNumber": 26,
    "prefecture": "京都府",
    "city": "京都市山科区",
    "town": "小山南溝町"
  },
  "6078112": {
    "zipcode": "6078112",
    "prefectureCode": "26",
    "prefectureNumber": 26,
    "prefecture": "京都府",
    "city": "京都市山科区",
    "town": "小山中ノ川町"
  },
  "6078113": {
    "zipcode": "6078113",
    "prefectureCode": "26",
    "prefectureNumber": 26,
    "prefecture": "京都府",
    "city": "京都市山科区",
    "town": "小山北溝町"
  },
  "6078114": {
    "zipcode": "6078114",
    "prefectureCode": "26",
    "prefectureNumber": 26,
    "prefecture": "京都府",
    "city": "京都市山科区",
    "town": "小山姫子町"
  },
  "6078115": {
    "zipcode": "6078115",
    "prefectureCode": "26",
    "prefectureNumber": 26,
    "prefecture": "京都府",
    "city": "京都市山科区",
    "town": "小山北林町"
  },
  "6078116": {
    "zipcode": "6078116",
    "prefectureCode": "26",
    "prefectureNumber": 26,
    "prefecture": "京都府",
    "city": "京都市山科区",
    "town": "小山鎮守町"
  },
  "6078121": {
    "zipcode": "6078121",
    "prefectureCode": "26",
    "prefectureNumber": 26,
    "prefecture": "京都府",
    "city": "京都市山科区",
    "town": "大塚向畑町"
  },
  "6078122": {
    "zipcode": "6078122",
    "prefectureCode": "26",
    "prefectureNumber": 26,
    "prefecture": "京都府",
    "city": "京都市山科区",
    "town": "大塚高岩"
  },
  "6078123": {
    "zipcode": "6078123",
    "prefectureCode": "26",
    "prefectureNumber": 26,
    "prefecture": "京都府",
    "city": "京都市山科区",
    "town": "大塚大岩"
  },
  "6078124": {
    "zipcode": "6078124",
    "prefectureCode": "26",
    "prefectureNumber": 26,
    "prefecture": "京都府",
    "city": "京都市山科区",
    "town": "大塚檀ノ浦"
  },
  "6078125": {
    "zipcode": "6078125",
    "prefectureCode": "26",
    "prefectureNumber": 26,
    "prefecture": "京都府",
    "city": "京都市山科区",
    "town": "大塚西浦町"
  },
  "6078126": {
    "zipcode": "6078126",
    "prefectureCode": "26",
    "prefectureNumber": 26,
    "prefecture": "京都府",
    "city": "京都市山科区",
    "town": "大塚元屋敷町"
  },
  "6078131": {
    "zipcode": "6078131",
    "prefectureCode": "26",
    "prefectureNumber": 26,
    "prefecture": "京都府",
    "city": "京都市山科区",
    "town": "大塚南溝町"
  },
  "6078132": {
    "zipcode": "6078132",
    "prefectureCode": "26",
    "prefectureNumber": 26,
    "prefecture": "京都府",
    "city": "京都市山科区",
    "town": "大塚森町"
  },
  "6078133": {
    "zipcode": "6078133",
    "prefectureCode": "26",
    "prefectureNumber": 26,
    "prefecture": "京都府",
    "city": "京都市山科区",
    "town": "大塚中溝"
  },
  "6078134": {
    "zipcode": "6078134",
    "prefectureCode": "26",
    "prefectureNumber": 26,
    "prefecture": "京都府",
    "city": "京都市山科区",
    "town": "大塚北溝町"
  },
  "6078135": {
    "zipcode": "6078135",
    "prefectureCode": "26",
    "prefectureNumber": 26,
    "prefecture": "京都府",
    "city": "京都市山科区",
    "town": "大塚野溝町"
  },
  "6078136": {
    "zipcode": "6078136",
    "prefectureCode": "26",
    "prefectureNumber": 26,
    "prefecture": "京都府",
    "city": "京都市山科区",
    "town": "大塚丹田"
  },
  "6078141": {
    "zipcode": "6078141",
    "prefectureCode": "26",
    "prefectureNumber": 26,
    "prefecture": "京都府",
    "city": "京都市山科区",
    "town": "東野北井ノ上町"
  },
  "6078142": {
    "zipcode": "6078142",
    "prefectureCode": "26",
    "prefectureNumber": 26,
    "prefecture": "京都府",
    "city": "京都市山科区",
    "town": "東野中井ノ上町"
  },
  "6078143": {
    "zipcode": "6078143",
    "prefectureCode": "26",
    "prefectureNumber": 26,
    "prefecture": "京都府",
    "city": "京都市山科区",
    "town": "東野南井ノ上町"
  },
  "6078144": {
    "zipcode": "6078144",
    "prefectureCode": "26",
    "prefectureNumber": 26,
    "prefecture": "京都府",
    "city": "京都市山科区",
    "town": "東野井ノ上町"
  },
  "6078145": {
    "zipcode": "6078145",
    "prefectureCode": "26",
    "prefectureNumber": 26,
    "prefecture": "京都府",
    "city": "京都市山科区",
    "town": "東野八反畑町"
  },
  "6078146": {
    "zipcode": "6078146",
    "prefectureCode": "26",
    "prefectureNumber": 26,
    "prefecture": "京都府",
    "city": "京都市山科区",
    "town": "東野舞台町"
  },
  "6078147": {
    "zipcode": "6078147",
    "prefectureCode": "26",
    "prefectureNumber": 26,
    "prefecture": "京都府",
    "city": "京都市山科区",
    "town": "東野森野町"
  },
  "6078151": {
    "zipcode": "6078151",
    "prefectureCode": "26",
    "prefectureNumber": 26,
    "prefecture": "京都府",
    "city": "京都市山科区",
    "town": "東野竹田"
  },
  "6078152": {
    "zipcode": "6078152",
    "prefectureCode": "26",
    "prefectureNumber": 26,
    "prefecture": "京都府",
    "city": "京都市山科区",
    "town": "東野八代"
  },
  "6078153": {
    "zipcode": "6078153",
    "prefectureCode": "26",
    "prefectureNumber": 26,
    "prefecture": "京都府",
    "city": "京都市山科区",
    "town": "東野百拍子町"
  },
  "6078154": {
    "zipcode": "6078154",
    "prefectureCode": "26",
    "prefectureNumber": 26,
    "prefecture": "京都府",
    "city": "京都市山科区",
    "town": "東野門口町"
  },
  "6078155": {
    "zipcode": "6078155",
    "prefectureCode": "26",
    "prefectureNumber": 26,
    "prefecture": "京都府",
    "city": "京都市山科区",
    "town": "東野狐藪町"
  },
  "6078156": {
    "zipcode": "6078156",
    "prefectureCode": "26",
    "prefectureNumber": 26,
    "prefecture": "京都府",
    "city": "京都市山科区",
    "town": "東野片下リ町"
  },
  "6078160": {
    "zipcode": "6078160",
    "prefectureCode": "26",
    "prefectureNumber": 26,
    "prefecture": "京都府",
    "city": "京都市山科区",
    "town": "椥辻東浦町"
  },
  "6078161": {
    "zipcode": "6078161",
    "prefectureCode": "26",
    "prefectureNumber": 26,
    "prefecture": "京都府",
    "city": "京都市山科区",
    "town": "椥辻中在家町"
  },
  "6078162": {
    "zipcode": "6078162",
    "prefectureCode": "26",
    "prefectureNumber": 26,
    "prefecture": "京都府",
    "city": "京都市山科区",
    "town": "椥辻草海道町"
  },
  "6078163": {
    "zipcode": "6078163",
    "prefectureCode": "26",
    "prefectureNumber": 26,
    "prefecture": "京都府",
    "city": "京都市山科区",
    "town": "椥辻東潰"
  },
  "6078164": {
    "zipcode": "6078164",
    "prefectureCode": "26",
    "prefectureNumber": 26,
    "prefecture": "京都府",
    "city": "京都市山科区",
    "town": "椥辻西潰"
  },
  "6078165": {
    "zipcode": "6078165",
    "prefectureCode": "26",
    "prefectureNumber": 26,
    "prefecture": "京都府",
    "city": "京都市山科区",
    "town": "椥辻平田町"
  },
  "6078166": {
    "zipcode": "6078166",
    "prefectureCode": "26",
    "prefectureNumber": 26,
    "prefecture": "京都府",
    "city": "京都市山科区",
    "town": "椥辻番所ケ口町"
  },
  "6078167": {
    "zipcode": "6078167",
    "prefectureCode": "26",
    "prefectureNumber": 26,
    "prefecture": "京都府",
    "city": "京都市山科区",
    "town": "椥辻封シ川町"
  },
  "6078168": {
    "zipcode": "6078168",
    "prefectureCode": "26",
    "prefectureNumber": 26,
    "prefecture": "京都府",
    "city": "京都市山科区",
    "town": "椥辻池尻町"
  },
  "6078169": {
    "zipcode": "6078169",
    "prefectureCode": "26",
    "prefectureNumber": 26,
    "prefecture": "京都府",
    "city": "京都市山科区",
    "town": "椥辻西浦町"
  },
  "6078170": {
    "zipcode": "6078170",
    "prefectureCode": "26",
    "prefectureNumber": 26,
    "prefecture": "京都府",
    "city": "京都市山科区",
    "town": "大宅向山"
  },
  "6078171": {
    "zipcode": "6078171",
    "prefectureCode": "26",
    "prefectureNumber": 26,
    "prefecture": "京都府",
    "city": "京都市山科区",
    "town": "大宅御所山"
  },
  "6078172": {
    "zipcode": "6078172",
    "prefectureCode": "26",
    "prefectureNumber": 26,
    "prefecture": "京都府",
    "city": "京都市山科区",
    "town": "大宅岩屋殿"
  },
  "6078173": {
    "zipcode": "6078173",
    "prefectureCode": "26",
    "prefectureNumber": 26,
    "prefecture": "京都府",
    "city": "京都市山科区",
    "town": "大宅奥山田"
  },
  "6078174": {
    "zipcode": "6078174",
    "prefectureCode": "26",
    "prefectureNumber": 26,
    "prefecture": "京都府",
    "city": "京都市山科区",
    "town": "大宅鳥井脇町"
  },
  "6078175": {
    "zipcode": "6078175",
    "prefectureCode": "26",
    "prefectureNumber": 26,
    "prefecture": "京都府",
    "city": "京都市山科区",
    "town": "大宅山田"
  },
  "6078176": {
    "zipcode": "6078176",
    "prefectureCode": "26",
    "prefectureNumber": 26,
    "prefecture": "京都府",
    "city": "京都市山科区",
    "town": "大宅中小路町"
  },
  "6078177": {
    "zipcode": "6078177",
    "prefectureCode": "26",
    "prefectureNumber": 26,
    "prefecture": "京都府",
    "city": "京都市山科区",
    "town": "大宅古海道町"
  },
  "6078178": {
    "zipcode": "6078178",
    "prefectureCode": "26",
    "prefectureNumber": 26,
    "prefecture": "京都府",
    "city": "京都市山科区",
    "town": "大宅五反畑町"
  },
  "6078179": {
    "zipcode": "6078179",
    "prefectureCode": "26",
    "prefectureNumber": 26,
    "prefecture": "京都府",
    "city": "京都市山科区",
    "town": "大宅御所田町"
  },
  "6078181": {
    "zipcode": "6078181",
    "prefectureCode": "26",
    "prefectureNumber": 26,
    "prefecture": "京都府",
    "city": "京都市山科区",
    "town": "大宅打明町"
  },
  "6078182": {
    "zipcode": "6078182",
    "prefectureCode": "26",
    "prefectureNumber": 26,
    "prefecture": "京都府",
    "city": "京都市山科区",
    "town": "大宅坂ノ辻町"
  },
  "6078183": {
    "zipcode": "6078183",
    "prefectureCode": "26",
    "prefectureNumber": 26,
    "prefecture": "京都府",
    "city": "京都市山科区",
    "town": "大宅辻脇町"
  },
  "6078184": {
    "zipcode": "6078184",
    "prefectureCode": "26",
    "prefectureNumber": 26,
    "prefecture": "京都府",
    "city": "京都市山科区",
    "town": "大宅甲ノ辻町"
  },
  "6078185": {
    "zipcode": "6078185",
    "prefectureCode": "26",
    "prefectureNumber": 26,
    "prefecture": "京都府",
    "city": "京都市山科区",
    "town": "大宅神納町"
  },
  "6078186": {
    "zipcode": "6078186",
    "prefectureCode": "26",
    "prefectureNumber": 26,
    "prefecture": "京都府",
    "city": "京都市山科区",
    "town": "大宅早稲ノ内町"
  },
  "6078187": {
    "zipcode": "6078187",
    "prefectureCode": "26",
    "prefectureNumber": 26,
    "prefecture": "京都府",
    "city": "京都市山科区",
    "town": "大宅石郡町"
  },
  "6078188": {
    "zipcode": "6078188",
    "prefectureCode": "26",
    "prefectureNumber": 26,
    "prefecture": "京都府",
    "city": "京都市山科区",
    "town": "大宅関生町"
  },
  "6078189": {
    "zipcode": "6078189",
    "prefectureCode": "26",
    "prefectureNumber": 26,
    "prefecture": "京都府",
    "city": "京都市山科区",
    "town": "大宅細田町"
  },
  "6078191": {
    "zipcode": "6078191",
    "prefectureCode": "26",
    "prefectureNumber": 26,
    "prefecture": "京都府",
    "city": "京都市山科区",
    "town": "大宅烏田町"
  },
  "6078192": {
    "zipcode": "6078192",
    "prefectureCode": "26",
    "prefectureNumber": 26,
    "prefecture": "京都府",
    "city": "京都市山科区",
    "town": "大宅御供田町"
  },
  "6078193": {
    "zipcode": "6078193",
    "prefectureCode": "26",
    "prefectureNumber": 26,
    "prefecture": "京都府",
    "city": "京都市山科区",
    "town": "大宅沢町"
  },
  "6078194": {
    "zipcode": "6078194",
    "prefectureCode": "26",
    "prefectureNumber": 26,
    "prefecture": "京都府",
    "city": "京都市山科区",
    "town": "大宅桟敷"
  },
  "6078201": {
    "zipcode": "6078201",
    "prefectureCode": "26",
    "prefectureNumber": 26,
    "prefecture": "京都府",
    "city": "京都市山科区",
    "town": "栗栖野狐塚"
  },
  "6078202": {
    "zipcode": "6078202",
    "prefectureCode": "26",
    "prefectureNumber": 26,
    "prefecture": "京都府",
    "city": "京都市山科区",
    "town": "栗栖野中臣町"
  },
  "6078203": {
    "zipcode": "6078203",
    "prefectureCode": "26",
    "prefectureNumber": 26,
    "prefecture": "京都府",
    "city": "京都市山科区",
    "town": "栗栖野打越町"
  },
  "6078204": {
    "zipcode": "6078204",
    "prefectureCode": "26",
    "prefectureNumber": 26,
    "prefecture": "京都府",
    "city": "京都市山科区",
    "town": "栗栖野華ノ木町"
  },
  "6078211": {
    "zipcode": "6078211",
    "prefectureCode": "26",
    "prefectureNumber": 26,
    "prefecture": "京都府",
    "city": "京都市山科区",
    "town": "勧修寺東栗栖野町"
  },
  "6078212": {
    "zipcode": "6078212",
    "prefectureCode": "26",
    "prefectureNumber": 26,
    "prefecture": "京都府",
    "city": "京都市山科区",
    "town": "勧修寺西栗栖野町"
  },
  "6078213": {
    "zipcode": "6078213",
    "prefectureCode": "26",
    "prefectureNumber": 26,
    "prefecture": "京都府",
    "city": "京都市山科区",
    "town": "勧修寺東金ケ崎町"
  },
  "6078214": {
    "zipcode": "6078214",
    "prefectureCode": "26",
    "prefectureNumber": 26,
    "prefecture": "京都府",
    "city": "京都市山科区",
    "town": "勧修寺平田町"
  },
  "6078215": {
    "zipcode": "6078215",
    "prefectureCode": "26",
    "prefectureNumber": 26,
    "prefecture": "京都府",
    "city": "京都市山科区",
    "town": "勧修寺縄手町"
  },
  "6078216": {
    "zipcode": "6078216",
    "prefectureCode": "26",
    "prefectureNumber": 26,
    "prefecture": "京都府",
    "city": "京都市山科区",
    "town": "勧修寺東出町"
  },
  "6078217": {
    "zipcode": "6078217",
    "prefectureCode": "26",
    "prefectureNumber": 26,
    "prefecture": "京都府",
    "city": "京都市山科区",
    "town": "勧修寺閑林寺"
  },
  "6078218": {
    "zipcode": "6078218",
    "prefectureCode": "26",
    "prefectureNumber": 26,
    "prefecture": "京都府",
    "city": "京都市山科区",
    "town": "勧修寺御所内町"
  },
  "6078219": {
    "zipcode": "6078219",
    "prefectureCode": "26",
    "prefectureNumber": 26,
    "prefecture": "京都府",
    "city": "京都市山科区",
    "town": "勧修寺風呂尻町"
  },
  "6078221": {
    "zipcode": "6078221",
    "prefectureCode": "26",
    "prefectureNumber": 26,
    "prefecture": "京都府",
    "city": "京都市山科区",
    "town": "勧修寺西金ケ崎"
  },
  "6078222": {
    "zipcode": "6078222",
    "prefectureCode": "26",
    "prefectureNumber": 26,
    "prefecture": "京都府",
    "city": "京都市山科区",
    "town": "勧修寺東堂田町"
  },
  "6078223": {
    "zipcode": "6078223",
    "prefectureCode": "26",
    "prefectureNumber": 26,
    "prefecture": "京都府",
    "city": "京都市山科区",
    "town": "勧修寺瀬戸河原町"
  },
  "6078224": {
    "zipcode": "6078224",
    "prefectureCode": "26",
    "prefectureNumber": 26,
    "prefecture": "京都府",
    "city": "京都市山科区",
    "town": "勧修寺東北出町"
  },
  "6078225": {
    "zipcode": "6078225",
    "prefectureCode": "26",
    "prefectureNumber": 26,
    "prefecture": "京都府",
    "city": "京都市山科区",
    "town": "勧修寺西北出町"
  },
  "6078226": {
    "zipcode": "6078226",
    "prefectureCode": "26",
    "prefectureNumber": 26,
    "prefecture": "京都府",
    "city": "京都市山科区",
    "town": "勧修寺仁王堂町"
  },
  "6078227": {
    "zipcode": "6078227",
    "prefectureCode": "26",
    "prefectureNumber": 26,
    "prefecture": "京都府",
    "city": "京都市山科区",
    "town": "勧修寺下ノ茶屋町"
  },
  "6078228": {
    "zipcode": "6078228",
    "prefectureCode": "26",
    "prefectureNumber": 26,
    "prefecture": "京都府",
    "city": "京都市山科区",
    "town": "勧修寺本堂山町"
  },
  "6078229": {
    "zipcode": "6078229",
    "prefectureCode": "26",
    "prefectureNumber": 26,
    "prefecture": "京都府",
    "city": "京都市山科区",
    "town": "勧修寺泉玉町"
  },
  "6078231": {
    "zipcode": "6078231",
    "prefectureCode": "26",
    "prefectureNumber": 26,
    "prefecture": "京都府",
    "city": "京都市山科区",
    "town": "勧修寺堂田"
  },
  "6078232": {
    "zipcode": "6078232",
    "prefectureCode": "26",
    "prefectureNumber": 26,
    "prefecture": "京都府",
    "city": "京都市山科区",
    "town": "勧修寺福岡町"
  },
  "6078233": {
    "zipcode": "6078233",
    "prefectureCode": "26",
    "prefectureNumber": 26,
    "prefecture": "京都府",
    "city": "京都市山科区",
    "town": "勧修寺南谷町"
  },
  "6078234": {
    "zipcode": "6078234",
    "prefectureCode": "26",
    "prefectureNumber": 26,
    "prefecture": "京都府",
    "city": "京都市山科区",
    "town": "勧修寺南大日町"
  },
  "6078235": {
    "zipcode": "6078235",
    "prefectureCode": "26",
    "prefectureNumber": 26,
    "prefecture": "京都府",
    "city": "京都市山科区",
    "town": "勧修寺南大日"
  },
  "6078236": {
    "zipcode": "6078236",
    "prefectureCode": "26",
    "prefectureNumber": 26,
    "prefecture": "京都府",
    "city": "京都市山科区",
    "town": "勧修寺小松原町"
  },
  "6078237": {
    "zipcode": "6078237",
    "prefectureCode": "26",
    "prefectureNumber": 26,
    "prefecture": "京都府",
    "city": "京都市山科区",
    "town": "勧修寺北大日町"
  },
  "6078238": {
    "zipcode": "6078238",
    "prefectureCode": "26",
    "prefectureNumber": 26,
    "prefecture": "京都府",
    "city": "京都市山科区",
    "town": "勧修寺北大日"
  },
  "6078239": {
    "zipcode": "6078239",
    "prefectureCode": "26",
    "prefectureNumber": 26,
    "prefecture": "京都府",
    "city": "京都市山科区",
    "town": "勧修寺丸山町"
  },
  "6078241": {
    "zipcode": "6078241",
    "prefectureCode": "26",
    "prefectureNumber": 26,
    "prefecture": "京都府",
    "city": "京都市山科区",
    "town": "勧修寺冷尻"
  },
  "6078242": {
    "zipcode": "6078242",
    "prefectureCode": "26",
    "prefectureNumber": 26,
    "prefecture": "京都府",
    "city": "京都市山科区",
    "town": "勧修寺柴山"
  },
  "6078251": {
    "zipcode": "6078251",
    "prefectureCode": "26",
    "prefectureNumber": 26,
    "prefecture": "京都府",
    "city": "京都市山科区",
    "town": "小野蚊ケ瀬町"
  },
  "6078252": {
    "zipcode": "6078252",
    "prefectureCode": "26",
    "prefectureNumber": 26,
    "prefecture": "京都府",
    "city": "京都市山科区",
    "town": "小野河原町"
  },
  "6078253": {
    "zipcode": "6078253",
    "prefectureCode": "26",
    "prefectureNumber": 26,
    "prefecture": "京都府",
    "city": "京都市山科区",
    "town": "小野弓田町"
  },
  "6078254": {
    "zipcode": "6078254",
    "prefectureCode": "26",
    "prefectureNumber": 26,
    "prefecture": "京都府",
    "city": "京都市山科区",
    "town": "小野高芝町"
  },
  "6078255": {
    "zipcode": "6078255",
    "prefectureCode": "26",
    "prefectureNumber": 26,
    "prefecture": "京都府",
    "city": "京都市山科区",
    "town": "小野御所ノ内町"
  },
  "6078256": {
    "zipcode": "6078256",
    "prefectureCode": "26",
    "prefectureNumber": 26,
    "prefecture": "京都府",
    "city": "京都市山科区",
    "town": "小野荘司町"
  },
  "6078257": {
    "zipcode": "6078257",
    "prefectureCode": "26",
    "prefectureNumber": 26,
    "prefecture": "京都府",
    "city": "京都市山科区",
    "town": "小野御霊町"
  },
  "6078258": {
    "zipcode": "6078258",
    "prefectureCode": "26",
    "prefectureNumber": 26,
    "prefecture": "京都府",
    "city": "京都市山科区",
    "town": "小野西浦"
  },
  "6078259": {
    "zipcode": "6078259",
    "prefectureCode": "26",
    "prefectureNumber": 26,
    "prefecture": "京都府",
    "city": "京都市山科区",
    "town": "小野葛篭尻町"
  },
  "6078261": {
    "zipcode": "6078261",
    "prefectureCode": "26",
    "prefectureNumber": 26,
    "prefecture": "京都府",
    "city": "京都市山科区",
    "town": "小野鐘付田町"
  },
  "6078301": {
    "zipcode": "6078301",
    "prefectureCode": "26",
    "prefectureNumber": 26,
    "prefecture": "京都府",
    "city": "京都市山科区",
    "town": "西野山百々町"
  },
  "6078302": {
    "zipcode": "6078302",
    "prefectureCode": "26",
    "prefectureNumber": 26,
    "prefecture": "京都府",
    "city": "京都市山科区",
    "town": "西野山欠ノ上町"
  },
  "6078303": {
    "zipcode": "6078303",
    "prefectureCode": "26",
    "prefectureNumber": 26,
    "prefecture": "京都府",
    "city": "京都市山科区",
    "town": "西野山中畑町"
  },
  "6078304": {
    "zipcode": "6078304",
    "prefectureCode": "26",
    "prefectureNumber": 26,
    "prefecture": "京都府",
    "city": "京都市山科区",
    "town": "西野山南畑町"
  },
  "6078305": {
    "zipcode": "6078305",
    "prefectureCode": "26",
    "prefectureNumber": 26,
    "prefecture": "京都府",
    "city": "京都市山科区",
    "town": "西野山中臣町"
  },
  "6078306": {
    "zipcode": "6078306",
    "prefectureCode": "26",
    "prefectureNumber": 26,
    "prefecture": "京都府",
    "city": "京都市山科区",
    "town": "西野山中鳥井町"
  },
  "6078307": {
    "zipcode": "6078307",
    "prefectureCode": "26",
    "prefectureNumber": 26,
    "prefecture": "京都府",
    "city": "京都市山科区",
    "town": "西野山射庭ノ上町"
  },
  "6078308": {
    "zipcode": "6078308",
    "prefectureCode": "26",
    "prefectureNumber": 26,
    "prefecture": "京都府",
    "city": "京都市山科区",
    "town": "西野山桜ノ馬場町"
  },
  "6078309": {
    "zipcode": "6078309",
    "prefectureCode": "26",
    "prefectureNumber": 26,
    "prefecture": "京都府",
    "city": "京都市山科区",
    "town": "西野山岩ケ谷町"
  },
  "6078311": {
    "zipcode": "6078311",
    "prefectureCode": "26",
    "prefectureNumber": 26,
    "prefecture": "京都府",
    "city": "京都市山科区",
    "town": "西野山山田"
  },
  "6078321": {
    "zipcode": "6078321",
    "prefectureCode": "26",
    "prefectureNumber": 26,
    "prefecture": "京都府",
    "city": "京都市山科区",
    "town": "川田岩ケ谷"
  },
  "6078322": {
    "zipcode": "6078322",
    "prefectureCode": "26",
    "prefectureNumber": 26,
    "prefecture": "京都府",
    "city": "京都市山科区",
    "town": "川田清水焼団地町"
  },
  "6078323": {
    "zipcode": "6078323",
    "prefectureCode": "26",
    "prefectureNumber": 26,
    "prefecture": "京都府",
    "city": "京都市山科区",
    "town": "川田岡ノ西"
  },
  "6078324": {
    "zipcode": "6078324",
    "prefectureCode": "26",
    "prefectureNumber": 26,
    "prefecture": "京都府",
    "city": "京都市山科区",
    "town": "川田百々"
  },
  "6078325": {
    "zipcode": "6078325",
    "prefectureCode": "26",
    "prefectureNumber": 26,
    "prefecture": "京都府",
    "city": "京都市山科区",
    "town": "川田土仏"
  },
  "6078326": {
    "zipcode": "6078326",
    "prefectureCode": "26",
    "prefectureNumber": 26,
    "prefecture": "京都府",
    "city": "京都市山科区",
    "town": "川田御出町"
  },
  "6078327": {
    "zipcode": "6078327",
    "prefectureCode": "26",
    "prefectureNumber": 26,
    "prefecture": "京都府",
    "city": "京都市山科区",
    "town": "川田山田"
  },
  "6078328": {
    "zipcode": "6078328",
    "prefectureCode": "26",
    "prefectureNumber": 26,
    "prefecture": "京都府",
    "city": "京都市山科区",
    "town": "川田南山"
  },
  "6078329": {
    "zipcode": "6078329",
    "prefectureCode": "26",
    "prefectureNumber": 26,
    "prefecture": "京都府",
    "city": "京都市山科区",
    "town": "川田梅ケ谷町"
  },
  "6078331": {
    "zipcode": "6078331",
    "prefectureCode": "26",
    "prefectureNumber": 26,
    "prefecture": "京都府",
    "city": "京都市山科区",
    "town": "川田御輿塚町"
  },
  "6078332": {
    "zipcode": "6078332",
    "prefectureCode": "26",
    "prefectureNumber": 26,
    "prefecture": "京都府",
    "city": "京都市山科区",
    "town": "川田西浦町"
  },
  "6078333": {
    "zipcode": "6078333",
    "prefectureCode": "26",
    "prefectureNumber": 26,
    "prefecture": "京都府",
    "city": "京都市山科区",
    "town": "川田前畑町"
  },
  "6078334": {
    "zipcode": "6078334",
    "prefectureCode": "26",
    "prefectureNumber": 26,
    "prefecture": "京都府",
    "city": "京都市山科区",
    "town": "川田欠ノ上"
  },
  "6078335": {
    "zipcode": "6078335",
    "prefectureCode": "26",
    "prefectureNumber": 26,
    "prefecture": "京都府",
    "city": "京都市山科区",
    "town": "川田南畑町"
  },
  "6078336": {
    "zipcode": "6078336",
    "prefectureCode": "26",
    "prefectureNumber": 26,
    "prefecture": "京都府",
    "city": "京都市山科区",
    "town": "川田中畑町"
  },
  "6078337": {
    "zipcode": "6078337",
    "prefectureCode": "26",
    "prefectureNumber": 26,
    "prefecture": "京都府",
    "city": "京都市山科区",
    "town": "川田菱尾田"
  },
  "6078341": {
    "zipcode": "6078341",
    "prefectureCode": "26",
    "prefectureNumber": 26,
    "prefecture": "京都府",
    "city": "京都市山科区",
    "town": "西野今屋敷町"
  },
  "6078342": {
    "zipcode": "6078342",
    "prefectureCode": "26",
    "prefectureNumber": 26,
    "prefecture": "京都府",
    "city": "京都市山科区",
    "town": "西野様子見町"
  },
  "6078343": {
    "zipcode": "6078343",
    "prefectureCode": "26",
    "prefectureNumber": 26,
    "prefecture": "京都府",
    "city": "京都市山科区",
    "town": "西野阿芸沢町"
  },
  "6078344": {
    "zipcode": "6078344",
    "prefectureCode": "26",
    "prefectureNumber": 26,
    "prefecture": "京都府",
    "city": "京都市山科区",
    "town": "西野大手先町"
  },
  "6078345": {
    "zipcode": "6078345",
    "prefectureCode": "26",
    "prefectureNumber": 26,
    "prefecture": "京都府",
    "city": "京都市山科区",
    "town": "西野離宮町"
  },
  "6078346": {
    "zipcode": "6078346",
    "prefectureCode": "26",
    "prefectureNumber": 26,
    "prefecture": "京都府",
    "city": "京都市山科区",
    "town": "西野山階町"
  },
  "6078347": {
    "zipcode": "6078347",
    "prefectureCode": "26",
    "prefectureNumber": 26,
    "prefecture": "京都府",
    "city": "京都市山科区",
    "town": "西野左義長町"
  },
  "6078348": {
    "zipcode": "6078348",
    "prefectureCode": "26",
    "prefectureNumber": 26,
    "prefecture": "京都府",
    "city": "京都市山科区",
    "town": "西野広見町"
  },
  "6078351": {
    "zipcode": "6078351",
    "prefectureCode": "26",
    "prefectureNumber": 26,
    "prefecture": "京都府",
    "city": "京都市山科区",
    "town": "西野八幡田町"
  },
  "6078352": {
    "zipcode": "6078352",
    "prefectureCode": "26",
    "prefectureNumber": 26,
    "prefecture": "京都府",
    "city": "京都市山科区",
    "town": "西野岸ノ下町"
  },
  "6078353": {
    "zipcode": "6078353",
    "prefectureCode": "26",
    "prefectureNumber": 26,
    "prefecture": "京都府",
    "city": "京都市山科区",
    "town": "西野野色町"
  },
  "6078354": {
    "zipcode": "6078354",
    "prefectureCode": "26",
    "prefectureNumber": 26,
    "prefecture": "京都府",
    "city": "京都市山科区",
    "town": "西野小柳町"
  },
  "6078355": {
    "zipcode": "6078355",
    "prefectureCode": "26",
    "prefectureNumber": 26,
    "prefecture": "京都府",
    "city": "京都市山科区",
    "town": "西野大鳥井町"
  },
  "6078356": {
    "zipcode": "6078356",
    "prefectureCode": "26",
    "prefectureNumber": 26,
    "prefecture": "京都府",
    "city": "京都市山科区",
    "town": "西野後藤"
  },
  "6078357": {
    "zipcode": "6078357",
    "prefectureCode": "26",
    "prefectureNumber": 26,
    "prefecture": "京都府",
    "city": "京都市山科区",
    "town": "西野櫃川町"
  },
  "6078358": {
    "zipcode": "6078358",
    "prefectureCode": "26",
    "prefectureNumber": 26,
    "prefecture": "京都府",
    "city": "京都市山科区",
    "town": "西野楳本町"
  },
  "6078401": {
    "zipcode": "6078401",
    "prefectureCode": "26",
    "prefectureNumber": 26,
    "prefecture": "京都府",
    "city": "京都市山科区",
    "town": "御陵沢ノ川町"
  },
  "6078402": {
    "zipcode": "6078402",
    "prefectureCode": "26",
    "prefectureNumber": 26,
    "prefecture": "京都府",
    "city": "京都市山科区",
    "town": "御陵黒岩"
  },
  "6078403": {
    "zipcode": "6078403",
    "prefectureCode": "26",
    "prefectureNumber": 26,
    "prefecture": "京都府",
    "city": "京都市山科区",
    "town": "御陵大岩"
  },
  "6078404": {
    "zipcode": "6078404",
    "prefectureCode": "26",
    "prefectureNumber": 26,
    "prefecture": "京都府",
    "city": "京都市山科区",
    "town": "御陵大谷町"
  },
  "6078405": {
    "zipcode": "6078405",
    "prefectureCode": "26",
    "prefectureNumber": 26,
    "prefecture": "京都府",
    "city": "京都市山科区",
    "town": "御陵田山町"
  },
  "6078406": {
    "zipcode": "6078406",
    "prefectureCode": "26",
    "prefectureNumber": 26,
    "prefecture": "京都府",
    "city": "京都市山科区",
    "town": "御陵平林町"
  },
  "6078407": {
    "zipcode": "6078407",
    "prefectureCode": "26",
    "prefectureNumber": 26,
    "prefecture": "京都府",
    "city": "京都市山科区",
    "town": "御陵安祥寺町"
  },
  "6078408": {
    "zipcode": "6078408",
    "prefectureCode": "26",
    "prefectureNumber": 26,
    "prefecture": "京都府",
    "city": "京都市山科区",
    "town": "御陵鳥ノ向町"
  },
  "6078409": {
    "zipcode": "6078409",
    "prefectureCode": "26",
    "prefectureNumber": 26,
    "prefecture": "京都府",
    "city": "京都市山科区",
    "town": "御陵天徳町"
  },
  "6078411": {
    "zipcode": "6078411",
    "prefectureCode": "26",
    "prefectureNumber": 26,
    "prefecture": "京都府",
    "city": "京都市山科区",
    "town": "御陵大津畑町"
  },
  "6078412": {
    "zipcode": "6078412",
    "prefectureCode": "26",
    "prefectureNumber": 26,
    "prefecture": "京都府",
    "city": "京都市山科区",
    "town": "御陵四丁野町"
  },
  "6078413": {
    "zipcode": "6078413",
    "prefectureCode": "26",
    "prefectureNumber": 26,
    "prefecture": "京都府",
    "city": "京都市山科区",
    "town": "御陵三蔵町"
  },
  "6078414": {
    "zipcode": "6078414",
    "prefectureCode": "26",
    "prefectureNumber": 26,
    "prefecture": "京都府",
    "city": "京都市山科区",
    "town": "御陵中内町"
  },
  "6078415": {
    "zipcode": "6078415",
    "prefectureCode": "26",
    "prefectureNumber": 26,
    "prefecture": "京都府",
    "city": "京都市山科区",
    "town": "御陵中筋町"
  },
  "6078416": {
    "zipcode": "6078416",
    "prefectureCode": "26",
    "prefectureNumber": 26,
    "prefecture": "京都府",
    "city": "京都市山科区",
    "town": "御陵進藤町"
  },
  "6078417": {
    "zipcode": "6078417",
    "prefectureCode": "26",
    "prefectureNumber": 26,
    "prefecture": "京都府",
    "city": "京都市山科区",
    "town": "御陵別所町"
  },
  "6078418": {
    "zipcode": "6078418",
    "prefectureCode": "26",
    "prefectureNumber": 26,
    "prefecture": "京都府",
    "city": "京都市山科区",
    "town": "御陵牛尾町"
  },
  "6078419": {
    "zipcode": "6078419",
    "prefectureCode": "26",
    "prefectureNumber": 26,
    "prefecture": "京都府",
    "city": "京都市山科区",
    "town": "御陵檀ノ後"
  },
  "6078421": {
    "zipcode": "6078421",
    "prefectureCode": "26",
    "prefectureNumber": 26,
    "prefecture": "京都府",
    "city": "京都市山科区",
    "town": "御陵岡ノ西町"
  },
  "6078422": {
    "zipcode": "6078422",
    "prefectureCode": "26",
    "prefectureNumber": 26,
    "prefecture": "京都府",
    "city": "京都市山科区",
    "town": "御陵封ジ山町"
  },
  "6078423": {
    "zipcode": "6078423",
    "prefectureCode": "26",
    "prefectureNumber": 26,
    "prefecture": "京都府",
    "city": "京都市山科区",
    "town": "御陵山ノ谷"
  },
  "6078424": {
    "zipcode": "6078424",
    "prefectureCode": "26",
    "prefectureNumber": 26,
    "prefecture": "京都府",
    "city": "京都市山科区",
    "town": "御陵原西町"
  },
  "6078425": {
    "zipcode": "6078425",
    "prefectureCode": "26",
    "prefectureNumber": 26,
    "prefecture": "京都府",
    "city": "京都市山科区",
    "town": "御陵上御廟野町"
  },
  "6078426": {
    "zipcode": "6078426",
    "prefectureCode": "26",
    "prefectureNumber": 26,
    "prefecture": "京都府",
    "city": "京都市山科区",
    "town": "御陵下御廟野町"
  },
  "6078427": {
    "zipcode": "6078427",
    "prefectureCode": "26",
    "prefectureNumber": 26,
    "prefecture": "京都府",
    "city": "京都市山科区",
    "town": "御陵久保町"
  },
  "6078428": {
    "zipcode": "6078428",
    "prefectureCode": "26",
    "prefectureNumber": 26,
    "prefecture": "京都府",
    "city": "京都市山科区",
    "town": "御陵血洗町"
  },
  "6078429": {
    "zipcode": "6078429",
    "prefectureCode": "26",
    "prefectureNumber": 26,
    "prefecture": "京都府",
    "city": "京都市山科区",
    "town": "御陵荒巻町"
  },
  "6078431": {
    "zipcode": "6078431",
    "prefectureCode": "26",
    "prefectureNumber": 26,
    "prefecture": "京都府",
    "city": "京都市山科区",
    "town": "御陵岡町"
  },
  "6078432": {
    "zipcode": "6078432",
    "prefectureCode": "26",
    "prefectureNumber": 26,
    "prefecture": "京都府",
    "city": "京都市山科区",
    "town": "御陵鴨戸町"
  },
  "6078433": {
    "zipcode": "6078433",
    "prefectureCode": "26",
    "prefectureNumber": 26,
    "prefecture": "京都府",
    "city": "京都市山科区",
    "town": "御陵池堤町"
  },
  "6078441": {
    "zipcode": "6078441",
    "prefectureCode": "26",
    "prefectureNumber": 26,
    "prefecture": "京都府",
    "city": "京都市山科区",
    "town": "上野御所ノ内町"
  },
  "6078442": {
    "zipcode": "6078442",
    "prefectureCode": "26",
    "prefectureNumber": 26,
    "prefecture": "京都府",
    "city": "京都市山科区",
    "town": "上野山田"
  },
  "6078443": {
    "zipcode": "6078443",
    "prefectureCode": "26",
    "prefectureNumber": 26,
    "prefecture": "京都府",
    "city": "京都市山科区",
    "town": "上野寺井町"
  },
  "6078451": {
    "zipcode": "6078451",
    "prefectureCode": "26",
    "prefectureNumber": 26,
    "prefecture": "京都府",
    "city": "京都市山科区",
    "town": "厨子奥若林町"
  },
  "6078452": {
    "zipcode": "6078452",
    "prefectureCode": "26",
    "prefectureNumber": 26,
    "prefecture": "京都府",
    "city": "京都市山科区",
    "town": "厨子奥矢倉町"
  },
  "6078453": {
    "zipcode": "6078453",
    "prefectureCode": "26",
    "prefectureNumber": 26,
    "prefecture": "京都府",
    "city": "京都市山科区",
    "town": "厨子奥尾上町"
  },
  "6078454": {
    "zipcode": "6078454",
    "prefectureCode": "26",
    "prefectureNumber": 26,
    "prefecture": "京都府",
    "city": "京都市山科区",
    "town": "厨子奥苗代元町"
  },
  "6078455": {
    "zipcode": "6078455",
    "prefectureCode": "26",
    "prefectureNumber": 26,
    "prefecture": "京都府",
    "city": "京都市山科区",
    "town": "厨子奥長通"
  },
  "6078456": {
    "zipcode": "6078456",
    "prefectureCode": "26",
    "prefectureNumber": 26,
    "prefecture": "京都府",
    "city": "京都市山科区",
    "town": "厨子奥花鳥町"
  },
  "6078461": {
    "zipcode": "6078461",
    "prefectureCode": "26",
    "prefectureNumber": 26,
    "prefecture": "京都府",
    "city": "京都市山科区",
    "town": "上花山旭山町"
  },
  "6078462": {
    "zipcode": "6078462",
    "prefectureCode": "26",
    "prefectureNumber": 26,
    "prefecture": "京都府",
    "city": "京都市山科区",
    "town": "上花山花ノ岡町"
  },
  "6078463": {
    "zipcode": "6078463",
    "prefectureCode": "26",
    "prefectureNumber": 26,
    "prefecture": "京都府",
    "city": "京都市山科区",
    "town": "上花山講田町"
  },
  "6078464": {
    "zipcode": "6078464",
    "prefectureCode": "26",
    "prefectureNumber": 26,
    "prefecture": "京都府",
    "city": "京都市山科区",
    "town": "上花山久保町"
  },
  "6078465": {
    "zipcode": "6078465",
    "prefectureCode": "26",
    "prefectureNumber": 26,
    "prefecture": "京都府",
    "city": "京都市山科区",
    "town": "上花山坂尻"
  },
  "6078466": {
    "zipcode": "6078466",
    "prefectureCode": "26",
    "prefectureNumber": 26,
    "prefecture": "京都府",
    "city": "京都市山科区",
    "town": "上花山桜谷"
  },
  "6078471": {
    "zipcode": "6078471",
    "prefectureCode": "26",
    "prefectureNumber": 26,
    "prefecture": "京都府",
    "city": "京都市山科区",
    "town": "北花山大峰町"
  },
  "6078472": {
    "zipcode": "6078472",
    "prefectureCode": "26",
    "prefectureNumber": 26,
    "prefecture": "京都府",
    "city": "京都市山科区",
    "town": "北花山山田町"
  },
  "6078473": {
    "zipcode": "6078473",
    "prefectureCode": "26",
    "prefectureNumber": 26,
    "prefecture": "京都府",
    "city": "京都市山科区",
    "town": "北花山六反田町"
  },
  "6078474": {
    "zipcode": "6078474",
    "prefectureCode": "26",
    "prefectureNumber": 26,
    "prefecture": "京都府",
    "city": "京都市山科区",
    "town": "北花山寺内町"
  },
  "6078475": {
    "zipcode": "6078475",
    "prefectureCode": "26",
    "prefectureNumber": 26,
    "prefecture": "京都府",
    "city": "京都市山科区",
    "town": "北花山横田町"
  },
  "6078476": {
    "zipcode": "6078476",
    "prefectureCode": "26",
    "prefectureNumber": 26,
    "prefecture": "京都府",
    "city": "京都市山科区",
    "town": "北花山河原町"
  },
  "6078481": {
    "zipcode": "6078481",
    "prefectureCode": "26",
    "prefectureNumber": 26,
    "prefecture": "京都府",
    "city": "京都市山科区",
    "town": "北花山中道町"
  },
  "6078482": {
    "zipcode": "6078482",
    "prefectureCode": "26",
    "prefectureNumber": 26,
    "prefecture": "京都府",
    "city": "京都市山科区",
    "town": "北花山大林町"
  },
  "6078483": {
    "zipcode": "6078483",
    "prefectureCode": "26",
    "prefectureNumber": 26,
    "prefecture": "京都府",
    "city": "京都市山科区",
    "town": "北花山市田町"
  },
  "6078484": {
    "zipcode": "6078484",
    "prefectureCode": "26",
    "prefectureNumber": 26,
    "prefecture": "京都府",
    "city": "京都市山科区",
    "town": "北花山西ノ野町"
  },
  "6078485": {
    "zipcode": "6078485",
    "prefectureCode": "26",
    "prefectureNumber": 26,
    "prefecture": "京都府",
    "city": "京都市山科区",
    "town": "北花山上稚児ケ池"
  },
  "6078491": {
    "zipcode": "6078491",
    "prefectureCode": "26",
    "prefectureNumber": 26,
    "prefecture": "京都府",
    "city": "京都市山科区",
    "town": "日ノ岡一切経谷町"
  },
  "6078492": {
    "zipcode": "6078492",
    "prefectureCode": "26",
    "prefectureNumber": 26,
    "prefecture": "京都府",
    "city": "京都市山科区",
    "town": "日ノ岡夷谷町"
  },
  "6078493": {
    "zipcode": "6078493",
    "prefectureCode": "26",
    "prefectureNumber": 26,
    "prefecture": "京都府",
    "city": "京都市山科区",
    "town": "日ノ岡朝田町"
  },
  "6078494": {
    "zipcode": "6078494",
    "prefectureCode": "26",
    "prefectureNumber": 26,
    "prefecture": "京都府",
    "city": "京都市山科区",
    "town": "日ノ岡堤谷町"
  },
  "6078495": {
    "zipcode": "6078495",
    "prefectureCode": "26",
    "prefectureNumber": 26,
    "prefecture": "京都府",
    "city": "京都市山科区",
    "town": "日ノ岡鴨土町"
  },
  "6078496": {
    "zipcode": "6078496",
    "prefectureCode": "26",
    "prefectureNumber": 26,
    "prefecture": "京都府",
    "city": "京都市山科区",
    "town": "日ノ岡坂脇町"
  },
  "6078497": {
    "zipcode": "6078497",
    "prefectureCode": "26",
    "prefectureNumber": 26,
    "prefecture": "京都府",
    "city": "京都市山科区",
    "town": "日ノ岡ホッパラ町"
  },
  "6078498": {
    "zipcode": "6078498",
    "prefectureCode": "26",
    "prefectureNumber": 26,
    "prefecture": "京都府",
    "city": "京都市山科区",
    "town": "日ノ岡石塚町"
  }
}
