{
  "6100000": {
    "zipcode": "6100000",
    "prefectureCode": "26",
    "prefectureNumber": 26,
    "prefecture": "京都府",
    "city": "京都市西京区",
    "town": "以下に掲載がない場合"
  },
  "6100100": {
    "zipcode": "6100100",
    "prefectureCode": "26",
    "prefectureNumber": 26,
    "prefecture": "京都府",
    "city": "城陽市",
    "town": "以下に掲載がない場合"
  },
  "6100101": {
    "zipcode": "6100101",
    "prefectureCode": "26",
    "prefectureNumber": 26,
    "prefecture": "京都府",
    "city": "城陽市",
    "town": "平川"
  },
  "6100102": {
    "zipcode": "6100102",
    "prefectureCode": "26",
    "prefectureNumber": 26,
    "prefecture": "京都府",
    "city": "城陽市",
    "town": "久世"
  },
  "6100103": {
    "zipcode": "6100103",
    "prefectureCode": "26",
    "prefectureNumber": 26,
    "prefecture": "京都府",
    "city": "城陽市",
    "town": "上津屋"
  },
  "6100111": {
    "zipcode": "6100111",
    "prefectureCode": "26",
    "prefectureNumber": 26,
    "prefecture": "京都府",
    "city": "城陽市",
    "town": "富野"
  },
  "6100112": {
    "zipcode": "6100112",
    "prefectureCode": "26",
    "prefectureNumber": 26,
    "prefecture": "京都府",
    "city": "城陽市",
    "town": "長池"
  },
  "6100113": {
    "zipcode": "6100113",
    "prefectureCode": "26",
    "prefectureNumber": 26,
    "prefecture": "京都府",
    "city": "城陽市",
    "town": "中"
  },
  "6100114": {
    "zipcode": "6100114",
    "prefectureCode": "26",
    "prefectureNumber": 26,
    "prefecture": "京都府",
    "city": "城陽市",
    "town": "市辺"
  },
  "6100115": {
    "zipcode": "6100115",
    "prefectureCode": "26",
    "prefectureNumber": 26,
    "prefecture": "京都府",
    "city": "城陽市",
    "town": "観音堂"
  },
  "6100116": {
    "zipcode": "6100116",
    "prefectureCode": "26",
    "prefectureNumber": 26,
    "prefecture": "京都府",
    "city": "城陽市",
    "town": "奈島"
  },
  "6100117": {
    "zipcode": "6100117",
    "prefectureCode": "26",
    "prefectureNumber": 26,
    "prefecture": "京都府",
    "city": "城陽市",
    "town": "枇杷庄"
  },
  "6100118": {
    "zipcode": "6100118",
    "prefectureCode": "26",
    "prefectureNumber": 26,
    "prefecture": "京都府",
    "city": "城陽市",
    "town": "水主"
  },
  "6100119": {
    "zipcode": "6100119",
    "prefectureCode": "26",
    "prefectureNumber": 26,
    "prefecture": "京都府",
    "city": "城陽市",
    "town": "令涼つむぎ"
  },
  "6100121": {
    "zipcode": "6100121",
    "prefectureCode": "26",
    "prefectureNumber": 26,
    "prefecture": "京都府",
    "city": "城陽市",
    "town": "寺田"
  },
  "6100200": {
    "zipcode": "6100200",
    "prefectureCode": "26",
    "prefectureNumber": 26,
    "prefecture": "京都府",
    "city": "綴喜郡宇治田原町",
    "town": "以下に掲載がない場合"
  },
  "6100201": {
    "zipcode": "6100201",
    "prefectureCode": "26",
    "prefectureNumber": 26,
    "prefecture": "京都府",
    "city": "綴喜郡宇治田原町",
    "town": "禅定寺"
  },
  "6100202": {
    "zipcode": "6100202",
    "prefectureCode": "26",
    "prefectureNumber": 26,
    "prefecture": "京都府",
    "city": "綴喜郡宇治田原町",
    "town": "緑苑坂"
  },
  "6100211": {
    "zipcode": "6100211",
    "prefectureCode": "26",
    "prefectureNumber": 26,
    "prefecture": "京都府",
    "city": "綴喜郡宇治田原町",
    "town": "奥山田"
  },
  "6100221": {
    "zipcode": "6100221",
    "prefectureCode": "26",
    "prefectureNumber": 26,
    "prefecture": "京都府",
    "city": "綴喜郡宇治田原町",
    "town": "湯屋谷"
  },
  "6100231": {
    "zipcode": "6100231",
    "prefectureCode": "26",
    "prefectureNumber": 26,
    "prefecture": "京都府",
    "city": "綴喜郡宇治田原町",
    "town": "立川"
  },
  "6100241": {
    "zipcode": "6100241",
    "prefectureCode": "26",
    "prefectureNumber": 26,
    "prefecture": "京都府",
    "city": "綴喜郡宇治田原町",
    "town": "南"
  },
  "6100251": {
    "zipcode": "6100251",
    "prefectureCode": "26",
    "prefectureNumber": 26,
    "prefecture": "京都府",
    "city": "綴喜郡宇治田原町",
    "town": "高尾"
  },
  "6100252": {
    "zipcode": "6100252",
    "prefectureCode": "26",
    "prefectureNumber": 26,
    "prefecture": "京都府",
    "city": "綴喜郡宇治田原町",
    "town": "荒木"
  },
  "6100253": {
    "zipcode": "6100253",
    "prefectureCode": "26",
    "prefectureNumber": 26,
    "prefecture": "京都府",
    "city": "綴喜郡宇治田原町",
    "town": "贄田"
  },
  "6100254": {
    "zipcode": "6100254",
    "prefectureCode": "26",
    "prefectureNumber": 26,
    "prefecture": "京都府",
    "city": "綴喜郡宇治田原町",
    "town": "銘城台"
  },
  "6100255": {
    "zipcode": "6100255",
    "prefectureCode": "26",
    "prefectureNumber": 26,
    "prefecture": "京都府",
    "city": "綴喜郡宇治田原町",
    "town": "郷之口"
  },
  "6100261": {
    "zipcode": "6100261",
    "prefectureCode": "26",
    "prefectureNumber": 26,
    "prefecture": "京都府",
    "city": "綴喜郡宇治田原町",
    "town": "岩山"
  },
  "6100300": {
    "zipcode": "6100300",
    "prefectureCode": "26",
    "prefectureNumber": 26,
    "prefecture": "京都府",
    "city": "綴喜郡井手町",
    "town": "以下に掲載がない場合"
  },
  "6100301": {
    "zipcode": "6100301",
    "prefectureCode": "26",
    "prefectureNumber": 26,
    "prefecture": "京都府",
    "city": "綴喜郡井手町",
    "town": "多賀"
  },
  "6100302": {
    "zipcode": "6100302",
    "prefectureCode": "26",
    "prefectureNumber": 26,
    "prefecture": "京都府",
    "city": "綴喜郡井手町",
    "town": "井手"
  },
  "6100303": {
    "zipcode": "6100303",
    "prefectureCode": "26",
    "prefectureNumber": 26,
    "prefecture": "京都府",
    "city": "綴喜郡井手町",
    "town": "田村新田"
  },
  "6100311": {
    "zipcode": "6100311",
    "prefectureCode": "26",
    "prefectureNumber": 26,
    "prefecture": "京都府",
    "city": "京田辺市",
    "town": "草内"
  },
  "6100312": {
    "zipcode": "6100312",
    "prefectureCode": "26",
    "prefectureNumber": 26,
    "prefecture": "京都府",
    "city": "京田辺市",
    "town": "飯岡"
  },
  "6100313": {
    "zipcode": "6100313",
    "prefectureCode": "26",
    "prefectureNumber": 26,
    "prefecture": "京都府",
    "city": "京田辺市",
    "town": "三山木"
  },
  "6100314": {
    "zipcode": "6100314",
    "prefectureCode": "26",
    "prefectureNumber": 26,
    "prefecture": "京都府",
    "city": "京田辺市",
    "town": "宮津"
  },
  "6100315": {
    "zipcode": "6100315",
    "prefectureCode": "26",
    "prefectureNumber": 26,
    "prefecture": "京都府",
    "city": "京田辺市",
    "town": "同志社山手"
  },
  "6100321": {
    "zipcode": "6100321",
    "prefectureCode": "26",
    "prefectureNumber": 26,
    "prefecture": "京都府",
    "city": "京田辺市",
    "town": "多々羅"
  },
  "6100322": {
    "zipcode": "6100322",
    "prefectureCode": "26",
    "prefectureNumber": 26,
    "prefecture": "京都府",
    "city": "京田辺市",
    "town": "普賢寺"
  },
  "6100323": {
    "zipcode": "6100323",
    "prefectureCode": "26",
    "prefectureNumber": 26,
    "prefecture": "京都府",
    "city": "京田辺市",
    "town": "水取"
  },
  "6100324": {
    "zipcode": "6100324",
    "prefectureCode": "26",
    "prefectureNumber": 26,
    "prefecture": "京都府",
    "city": "京田辺市",
    "town": "打田"
  },
  "6100325": {
    "zipcode": "6100325",
    "prefectureCode": "26",
    "prefectureNumber": 26,
    "prefecture": "京都府",
    "city": "京田辺市",
    "town": "高船"
  },
  "6100326": {
    "zipcode": "6100326",
    "prefectureCode": "26",
    "prefectureNumber": 26,
    "prefecture": "京都府",
    "city": "京田辺市",
    "town": "天王"
  },
  "6100331": {
    "zipcode": "6100331",
    "prefectureCode": "26",
    "prefectureNumber": 26,
    "prefecture": "京都府",
    "city": "京田辺市",
    "town": "田辺"
  },
  "6100332": {
    "zipcode": "6100332",
    "prefectureCode": "26",
    "prefectureNumber": 26,
    "prefecture": "京都府",
    "city": "京田辺市",
    "town": "興戸"
  },
  "6100333": {
    "zipcode": "6100333",
    "prefectureCode": "26",
    "prefectureNumber": 26,
    "prefecture": "京都府",
    "city": "京田辺市",
    "town": "甘南備台"
  },
  "6100334": {
    "zipcode": "6100334",
    "prefectureCode": "26",
    "prefectureNumber": 26,
    "prefecture": "京都府",
    "city": "京田辺市",
    "town": "田辺中央"
  },
  "6100341": {
    "zipcode": "6100341",
    "prefectureCode": "26",
    "prefectureNumber": 26,
    "prefecture": "京都府",
    "city": "京田辺市",
    "town": "薪"
  },
  "6100342": {
    "zipcode": "6100342",
    "prefectureCode": "26",
    "prefectureNumber": 26,
    "prefecture": "京都府",
    "city": "京田辺市",
    "town": "松井"
  },
  "6100343": {
    "zipcode": "6100343",
    "prefectureCode": "26",
    "prefectureNumber": 26,
    "prefecture": "京都府",
    "city": "京田辺市",
    "town": "大住"
  },
  "6100351": {
    "zipcode": "6100351",
    "prefectureCode": "26",
    "prefectureNumber": 26,
    "prefecture": "京都府",
    "city": "京田辺市",
    "town": "大住ケ丘"
  },
  "6100352": {
    "zipcode": "6100352",
    "prefectureCode": "26",
    "prefectureNumber": 26,
    "prefecture": "京都府",
    "city": "京田辺市",
    "town": "花住坂"
  },
  "6100353": {
    "zipcode": "6100353",
    "prefectureCode": "26",
    "prefectureNumber": 26,
    "prefecture": "京都府",
    "city": "京田辺市",
    "town": "松井ケ丘"
  },
  "6100354": {
    "zipcode": "6100354",
    "prefectureCode": "26",
    "prefectureNumber": 26,
    "prefecture": "京都府",
    "city": "京田辺市",
    "town": "山手南"
  },
  "6100355": {
    "zipcode": "6100355",
    "prefectureCode": "26",
    "prefectureNumber": 26,
    "prefecture": "京都府",
    "city": "京田辺市",
    "town": "山手西"
  },
  "6100356": {
    "zipcode": "6100356",
    "prefectureCode": "26",
    "prefectureNumber": 26,
    "prefecture": "京都府",
    "city": "京田辺市",
    "town": "山手中央"
  },
  "6100357": {
    "zipcode": "6100357",
    "prefectureCode": "26",
    "prefectureNumber": 26,
    "prefecture": "京都府",
    "city": "京田辺市",
    "town": "山手東"
  },
  "6100361": {
    "zipcode": "6100361",
    "prefectureCode": "26",
    "prefectureNumber": 26,
    "prefecture": "京都府",
    "city": "京田辺市",
    "town": "河原"
  },
  "6100362": {
    "zipcode": "6100362",
    "prefectureCode": "26",
    "prefectureNumber": 26,
    "prefecture": "京都府",
    "city": "京田辺市",
    "town": "東"
  },
  "6101101": {
    "zipcode": "6101101",
    "prefectureCode": "26",
    "prefectureNumber": 26,
    "prefecture": "京都府",
    "city": "京都市西京区",
    "town": "大枝北沓掛町"
  },
  "6101102": {
    "zipcode": "6101102",
    "prefectureCode": "26",
    "prefectureNumber": 26,
    "prefecture": "京都府",
    "city": "京都市西京区",
    "town": "御陵大枝山町"
  },
  "6101103": {
    "zipcode": "6101103",
    "prefectureCode": "26",
    "prefectureNumber": 26,
    "prefecture": "京都府",
    "city": "京都市西京区",
    "town": "御陵峰ケ堂町"
  },
  "6101104": {
    "zipcode": "6101104",
    "prefectureCode": "26",
    "prefectureNumber": 26,
    "prefecture": "京都府",
    "city": "京都市西京区",
    "town": "大枝中山町"
  },
  "6101105": {
    "zipcode": "6101105",
    "prefectureCode": "26",
    "prefectureNumber": 26,
    "prefecture": "京都府",
    "city": "京都市西京区",
    "town": "大枝塚原町"
  },
  "6101106": {
    "zipcode": "6101106",
    "prefectureCode": "26",
    "prefectureNumber": 26,
    "prefecture": "京都府",
    "city": "京都市西京区",
    "town": "大枝沓掛町"
  },
  "6101107": {
    "zipcode": "6101107",
    "prefectureCode": "26",
    "prefectureNumber": 26,
    "prefecture": "京都府",
    "city": "京都市西京区",
    "town": "御陵北大枝山町"
  },
  "6101111": {
    "zipcode": "6101111",
    "prefectureCode": "26",
    "prefectureNumber": 26,
    "prefecture": "京都府",
    "city": "京都市西京区",
    "town": "大枝東長町"
  },
  "6101112": {
    "zipcode": "6101112",
    "prefectureCode": "26",
    "prefectureNumber": 26,
    "prefecture": "京都府",
    "city": "京都市西京区",
    "town": "大枝北福西町"
  },
  "6101113": {
    "zipcode": "6101113",
    "prefectureCode": "26",
    "prefectureNumber": 26,
    "prefecture": "京都府",
    "city": "京都市西京区",
    "town": "大枝南福西町"
  },
  "6101121": {
    "zipcode": "6101121",
    "prefectureCode": "26",
    "prefectureNumber": 26,
    "prefecture": "京都府",
    "city": "京都市西京区",
    "town": "大原野上里北ノ町"
  },
  "6101122": {
    "zipcode": "6101122",
    "prefectureCode": "26",
    "prefectureNumber": 26,
    "prefecture": "京都府",
    "city": "京都市西京区",
    "town": "大原野東野町"
  },
  "6101123": {
    "zipcode": "6101123",
    "prefectureCode": "26",
    "prefectureNumber": 26,
    "prefecture": "京都府",
    "city": "京都市西京区",
    "town": "大原野上里南ノ町"
  },
  "6101124": {
    "zipcode": "6101124",
    "prefectureCode": "26",
    "prefectureNumber": 26,
    "prefecture": "京都府",
    "city": "京都市西京区",
    "town": "大原野上里紅葉町"
  },
  "6101125": {
    "zipcode": "6101125",
    "prefectureCode": "26",
    "prefectureNumber": 26,
    "prefecture": "京都府",
    "city": "京都市西京区",
    "town": "大原野上里勝山町"
  },
  "6101126": {
    "zipcode": "6101126",
    "prefectureCode": "26",
    "prefectureNumber": 26,
    "prefecture": "京都府",
    "city": "京都市西京区",
    "town": "大原野上里男鹿町"
  },
  "6101127": {
    "zipcode": "6101127",
    "prefectureCode": "26",
    "prefectureNumber": 26,
    "prefecture": "京都府",
    "city": "京都市西京区",
    "town": "大原野上里鳥見町"
  },
  "6101128": {
    "zipcode": "6101128",
    "prefectureCode": "26",
    "prefectureNumber": 26,
    "prefecture": "京都府",
    "city": "京都市西京区",
    "town": "大原野石見町"
  },
  "6101131": {
    "zipcode": "6101131",
    "prefectureCode": "26",
    "prefectureNumber": 26,
    "prefecture": "京都府",
    "city": "京都市西京区",
    "town": "大原野上羽町"
  },
  "6101132": {
    "zipcode": "6101132",
    "prefectureCode": "26",
    "prefectureNumber": 26,
    "prefecture": "京都府",
    "city": "京都市西京区",
    "town": "大原野灰方町"
  },
  "6101133": {
    "zipcode": "6101133",
    "prefectureCode": "26",
    "prefectureNumber": 26,
    "prefecture": "京都府",
    "city": "京都市西京区",
    "town": "大原野小塩町"
  },
  "6101134": {
    "zipcode": "6101134",
    "prefectureCode": "26",
    "prefectureNumber": 26,
    "prefecture": "京都府",
    "city": "京都市西京区",
    "town": "大原野石作町"
  },
  "6101135": {
    "zipcode": "6101135",
    "prefectureCode": "26",
    "prefectureNumber": 26,
    "prefecture": "京都府",
    "city": "京都市西京区",
    "town": "大原野出灰町"
  },
  "6101136": {
    "zipcode": "6101136",
    "prefectureCode": "26",
    "prefectureNumber": 26,
    "prefecture": "京都府",
    "city": "京都市西京区",
    "town": "大原野外畑町"
  },
  "6101141": {
    "zipcode": "6101141",
    "prefectureCode": "26",
    "prefectureNumber": 26,
    "prefecture": "京都府",
    "city": "京都市西京区",
    "town": "大枝西新林町"
  },
  "6101142": {
    "zipcode": "6101142",
    "prefectureCode": "26",
    "prefectureNumber": 26,
    "prefecture": "京都府",
    "city": "京都市西京区",
    "town": "大枝東新林町"
  },
  "6101143": {
    "zipcode": "6101143",
    "prefectureCode": "26",
    "prefectureNumber": 26,
    "prefecture": "京都府",
    "city": "京都市西京区",
    "town": "大原野東境谷町"
  },
  "6101144": {
    "zipcode": "6101144",
    "prefectureCode": "26",
    "prefectureNumber": 26,
    "prefecture": "京都府",
    "city": "京都市西京区",
    "town": "大原野東竹の里町"
  },
  "6101145": {
    "zipcode": "6101145",
    "prefectureCode": "26",
    "prefectureNumber": 26,
    "prefecture": "京都府",
    "city": "京都市西京区",
    "town": "大原野西竹の里町"
  },
  "6101146": {
    "zipcode": "6101146",
    "prefectureCode": "26",
    "prefectureNumber": 26,
    "prefecture": "京都府",
    "city": "京都市西京区",
    "town": "大原野西境谷町"
  },
  "6101151": {
    "zipcode": "6101151",
    "prefectureCode": "26",
    "prefectureNumber": 26,
    "prefecture": "京都府",
    "city": "京都市西京区",
    "town": "大枝西長町"
  },
  "6101152": {
    "zipcode": "6101152",
    "prefectureCode": "26",
    "prefectureNumber": 26,
    "prefecture": "京都府",
    "city": "京都市西京区",
    "town": "大原野北春日町"
  },
  "6101153": {
    "zipcode": "6101153",
    "prefectureCode": "26",
    "prefectureNumber": 26,
    "prefecture": "京都府",
    "city": "京都市西京区",
    "town": "大原野南春日町"
  }
}
