{
  "6120000": {
    "zipcode": "6120000",
    "prefectureCode": "26",
    "prefectureNumber": 26,
    "prefecture": "京都府",
    "city": "京都市伏見区",
    "town": "以下に掲載がない場合"
  },
  "6120001": {
    "zipcode": "6120001",
    "prefectureCode": "26",
    "prefectureNumber": 26,
    "prefecture": "京都府",
    "city": "京都市伏見区",
    "town": "深草下高松町"
  },
  "6120002": {
    "zipcode": "6120002",
    "prefectureCode": "26",
    "prefectureNumber": 26,
    "prefecture": "京都府",
    "city": "京都市伏見区",
    "town": "深草中川原町"
  },
  "6120003": {
    "zipcode": "6120003",
    "prefectureCode": "26",
    "prefectureNumber": 26,
    "prefecture": "京都府",
    "city": "京都市伏見区",
    "town": "深草藤田坪町"
  },
  "6120004": {
    "zipcode": "6120004",
    "prefectureCode": "26",
    "prefectureNumber": 26,
    "prefecture": "京都府",
    "city": "京都市伏見区",
    "town": "深草相深町"
  },
  "6120005": {
    "zipcode": "6120005",
    "prefectureCode": "26",
    "prefectureNumber": 26,
    "prefecture": "京都府",
    "city": "京都市伏見区",
    "town": "深草森吉町"
  },
  "6120006": {
    "zipcode": "6120006",
    "prefectureCode": "26",
    "prefectureNumber": 26,
    "prefecture": "京都府",
    "city": "京都市伏見区",
    "town": "深草上横縄町"
  },
  "6120007": {
    "zipcode": "6120007",
    "prefectureCode": "26",
    "prefectureNumber": 26,
    "prefecture": "京都府",
    "city": "京都市伏見区",
    "town": "深草下横縄町"
  },
  "6120008": {
    "zipcode": "6120008",
    "prefectureCode": "26",
    "prefectureNumber": 26,
    "prefecture": "京都府",
    "city": "京都市伏見区",
    "town": "深草六反田町"
  },
  "6120009": {
    "zipcode": "6120009",
    "prefectureCode": "26",
    "prefectureNumber": 26,
    "prefecture": "京都府",
    "city": "京都市伏見区",
    "town": "深草西川原町"
  },
  "6120011": {
    "zipcode": "6120011",
    "prefectureCode": "26",
    "prefectureNumber": 26,
    "prefecture": "京都府",
    "city": "京都市伏見区",
    "town": "深草鈴塚町"
  },
  "6120012": {
    "zipcode": "6120012",
    "prefectureCode": "26",
    "prefectureNumber": 26,
    "prefecture": "京都府",
    "city": "京都市伏見区",
    "town": "深草一ノ坪町"
  },
  "6120013": {
    "zipcode": "6120013",
    "prefectureCode": "26",
    "prefectureNumber": 26,
    "prefecture": "京都府",
    "city": "京都市伏見区",
    "town": "深草祓川町"
  },
  "6120014": {
    "zipcode": "6120014",
    "prefectureCode": "26",
    "prefectureNumber": 26,
    "prefecture": "京都府",
    "city": "京都市伏見区",
    "town": "深草稲荷鳥居前町"
  },
  "6120015": {
    "zipcode": "6120015",
    "prefectureCode": "26",
    "prefectureNumber": 26,
    "prefecture": "京都府",
    "city": "京都市伏見区",
    "town": "深草ススハキ町"
  },
  "6120016": {
    "zipcode": "6120016",
    "prefectureCode": "26",
    "prefectureNumber": 26,
    "prefecture": "京都府",
    "city": "京都市伏見区",
    "town": "深草ケナサ町"
  },
  "6120017": {
    "zipcode": "6120017",
    "prefectureCode": "26",
    "prefectureNumber": 26,
    "prefecture": "京都府",
    "city": "京都市伏見区",
    "town": "深草今在家町"
  },
  "6120018": {
    "zipcode": "6120018",
    "prefectureCode": "26",
    "prefectureNumber": 26,
    "prefecture": "京都府",
    "city": "京都市伏見区",
    "town": "深草フケノ内町"
  },
  "6120019": {
    "zipcode": "6120019",
    "prefectureCode": "26",
    "prefectureNumber": 26,
    "prefecture": "京都府",
    "city": "京都市伏見区",
    "town": "深草平田町"
  },
  "6120021": {
    "zipcode": "6120021",
    "prefectureCode": "26",
    "prefectureNumber": 26,
    "prefecture": "京都府",
    "city": "京都市伏見区",
    "town": "深草塚本町"
  },
  "6120022": {
    "zipcode": "6120022",
    "prefectureCode": "26",
    "prefectureNumber": 26,
    "prefecture": "京都府",
    "city": "京都市伏見区",
    "town": "深草綿森町"
  },
  "6120023": {
    "zipcode": "6120023",
    "prefectureCode": "26",
    "prefectureNumber": 26,
    "prefecture": "京都府",
    "city": "京都市伏見区",
    "town": "深草町通町"
  },
  "6120024": {
    "zipcode": "6120024",
    "prefectureCode": "26",
    "prefectureNumber": 26,
    "prefecture": "京都府",
    "city": "京都市伏見区",
    "town": "深草野田町"
  },
  "6120025": {
    "zipcode": "6120025",
    "prefectureCode": "26",
    "prefectureNumber": 26,
    "prefecture": "京都府",
    "city": "京都市伏見区",
    "town": "深草キトロ町"
  },
  "6120026": {
    "zipcode": "6120026",
    "prefectureCode": "26",
    "prefectureNumber": 26,
    "prefecture": "京都府",
    "city": "京都市伏見区",
    "town": "深草堀田町"
  },
  "6120027": {
    "zipcode": "6120027",
    "prefectureCode": "26",
    "prefectureNumber": 26,
    "prefecture": "京都府",
    "city": "京都市伏見区",
    "town": "深草極楽町"
  },
  "6120028": {
    "zipcode": "6120028",
    "prefectureCode": "26",
    "prefectureNumber": 26,
    "prefecture": "京都府",
    "city": "京都市伏見区",
    "town": "深草飯食町"
  },
  "6120029": {
    "zipcode": "6120029",
    "prefectureCode": "26",
    "prefectureNumber": 26,
    "prefecture": "京都府",
    "city": "京都市伏見区",
    "town": "深草西浦町"
  },
  "6120031": {
    "zipcode": "6120031",
    "prefectureCode": "26",
    "prefectureNumber": 26,
    "prefecture": "京都府",
    "city": "京都市伏見区",
    "town": "深草池ノ内町"
  },
  "6120032": {
    "zipcode": "6120032",
    "prefectureCode": "26",
    "prefectureNumber": 26,
    "prefecture": "京都府",
    "city": "京都市伏見区",
    "town": "深草西飯食町"
  },
  "6120033": {
    "zipcode": "6120033",
    "prefectureCode": "26",
    "prefectureNumber": 26,
    "prefecture": "京都府",
    "city": "京都市伏見区",
    "town": "深草寺内町"
  },
  "6120034": {
    "zipcode": "6120034",
    "prefectureCode": "26",
    "prefectureNumber": 26,
    "prefecture": "京都府",
    "city": "京都市伏見区",
    "town": "深草七瀬川町"
  },
  "6120035": {
    "zipcode": "6120035",
    "prefectureCode": "26",
    "prefectureNumber": 26,
    "prefecture": "京都府",
    "city": "京都市伏見区",
    "town": "深草北蓮池町"
  },
  "6120036": {
    "zipcode": "6120036",
    "prefectureCode": "26",
    "prefectureNumber": 26,
    "prefecture": "京都府",
    "city": "京都市伏見区",
    "town": "深草南蓮池町"
  },
  "6120037": {
    "zipcode": "6120037",
    "prefectureCode": "26",
    "prefectureNumber": 26,
    "prefecture": "京都府",
    "city": "京都市伏見区",
    "town": "深草関屋敷町"
  },
  "6120038": {
    "zipcode": "6120038",
    "prefectureCode": "26",
    "prefectureNumber": 26,
    "prefecture": "京都府",
    "city": "京都市伏見区",
    "town": "深草仙石屋敷町"
  },
  "6120041": {
    "zipcode": "6120041",
    "prefectureCode": "26",
    "prefectureNumber": 26,
    "prefecture": "京都府",
    "city": "京都市伏見区",
    "town": "深草北鍵屋町"
  },
  "6120042": {
    "zipcode": "6120042",
    "prefectureCode": "26",
    "prefectureNumber": 26,
    "prefecture": "京都府",
    "city": "京都市伏見区",
    "town": "深草芳永町"
  },
  "6120043": {
    "zipcode": "6120043",
    "prefectureCode": "26",
    "prefectureNumber": 26,
    "prefecture": "京都府",
    "city": "京都市伏見区",
    "town": "深草芳本町"
  },
  "6120044": {
    "zipcode": "6120044",
    "prefectureCode": "26",
    "prefectureNumber": 26,
    "prefecture": "京都府",
    "city": "京都市伏見区",
    "town": "深草北新町"
  },
  "6120045": {
    "zipcode": "6120045",
    "prefectureCode": "26",
    "prefectureNumber": 26,
    "prefecture": "京都府",
    "city": "京都市伏見区",
    "town": "深草石橋町"
  },
  "6120046": {
    "zipcode": "6120046",
    "prefectureCode": "26",
    "prefectureNumber": 26,
    "prefecture": "京都府",
    "city": "京都市伏見区",
    "town": "深草大亀谷八島町"
  },
  "6120047": {
    "zipcode": "6120047",
    "prefectureCode": "26",
    "prefectureNumber": 26,
    "prefecture": "京都府",
    "city": "京都市伏見区",
    "town": "深草大亀谷内膳町"
  },
  "6120048": {
    "zipcode": "6120048",
    "prefectureCode": "26",
    "prefectureNumber": 26,
    "prefecture": "京都府",
    "city": "京都市伏見区",
    "town": "深草大亀谷金森出雲町"
  },
  "6120049": {
    "zipcode": "6120049",
    "prefectureCode": "26",
    "prefectureNumber": 26,
    "prefecture": "京都府",
    "city": "京都市伏見区",
    "town": "深草中ノ島町"
  },
  "6120051": {
    "zipcode": "6120051",
    "prefectureCode": "26",
    "prefectureNumber": 26,
    "prefecture": "京都府",
    "city": "京都市伏見区",
    "town": "墨染町"
  },
  "6120052": {
    "zipcode": "6120052",
    "prefectureCode": "26",
    "prefectureNumber": 26,
    "prefecture": "京都府",
    "city": "京都市伏見区",
    "town": "深草墨染町"
  },
  "6120053": {
    "zipcode": "6120053",
    "prefectureCode": "26",
    "prefectureNumber": 26,
    "prefecture": "京都府",
    "city": "京都市伏見区",
    "town": "桃山町丹下"
  },
  "6120054": {
    "zipcode": "6120054",
    "prefectureCode": "26",
    "prefectureNumber": 26,
    "prefecture": "京都府",
    "city": "京都市伏見区",
    "town": "桃山最上町"
  },
  "6120055": {
    "zipcode": "6120055",
    "prefectureCode": "26",
    "prefectureNumber": 26,
    "prefecture": "京都府",
    "city": "京都市伏見区",
    "town": "桃山水野左近東町"
  },
  "6120056": {
    "zipcode": "6120056",
    "prefectureCode": "26",
    "prefectureNumber": 26,
    "prefecture": "京都府",
    "city": "京都市伏見区",
    "town": "桃山長岡越中北町"
  },
  "6120057": {
    "zipcode": "6120057",
    "prefectureCode": "26",
    "prefectureNumber": 26,
    "prefecture": "京都府",
    "city": "京都市伏見区",
    "town": "桃山長岡越中東町"
  },
  "6120058": {
    "zipcode": "6120058",
    "prefectureCode": "26",
    "prefectureNumber": 26,
    "prefecture": "京都府",
    "city": "京都市伏見区",
    "town": "桃山長岡越中南町"
  },
  "6120059": {
    "zipcode": "6120059",
    "prefectureCode": "26",
    "prefectureNumber": 26,
    "prefecture": "京都府",
    "city": "京都市伏見区",
    "town": "桃山水野左近西町"
  },
  "6120061": {
    "zipcode": "6120061",
    "prefectureCode": "26",
    "prefectureNumber": 26,
    "prefecture": "京都府",
    "city": "京都市伏見区",
    "town": "桃山福島太夫北町"
  },
  "6120062": {
    "zipcode": "6120062",
    "prefectureCode": "26",
    "prefectureNumber": 26,
    "prefecture": "京都府",
    "city": "京都市伏見区",
    "town": "桃山福島太夫南町"
  },
  "6120063": {
    "zipcode": "6120063",
    "prefectureCode": "26",
    "prefectureNumber": 26,
    "prefecture": "京都府",
    "city": "京都市伏見区",
    "town": "桃山毛利長門東町"
  },
  "6120064": {
    "zipcode": "6120064",
    "prefectureCode": "26",
    "prefectureNumber": 26,
    "prefecture": "京都府",
    "city": "京都市伏見区",
    "town": "桃山毛利長門西町"
  },
  "6120065": {
    "zipcode": "6120065",
    "prefectureCode": "26",
    "prefectureNumber": 26,
    "prefecture": "京都府",
    "city": "京都市伏見区",
    "town": "桃山羽柴長吉東町"
  },
  "6120066": {
    "zipcode": "6120066",
    "prefectureCode": "26",
    "prefectureNumber": 26,
    "prefecture": "京都府",
    "city": "京都市伏見区",
    "town": "桃山羽柴長吉中町"
  },
  "6120067": {
    "zipcode": "6120067",
    "prefectureCode": "26",
    "prefectureNumber": 26,
    "prefecture": "京都府",
    "city": "京都市伏見区",
    "town": "桃山羽柴長吉西町"
  },
  "6120068": {
    "zipcode": "6120068",
    "prefectureCode": "26",
    "prefectureNumber": 26,
    "prefecture": "京都府",
    "city": "京都市伏見区",
    "town": "桃山福島太夫西町"
  },
  "6120071": {
    "zipcode": "6120071",
    "prefectureCode": "26",
    "prefectureNumber": 26,
    "prefecture": "京都府",
    "city": "京都市伏見区",
    "town": "桃山井伊掃部東町"
  },
  "6120072": {
    "zipcode": "6120072",
    "prefectureCode": "26",
    "prefectureNumber": 26,
    "prefecture": "京都府",
    "city": "京都市伏見区",
    "town": "桃山筒井伊賀東町"
  },
  "6120073": {
    "zipcode": "6120073",
    "prefectureCode": "26",
    "prefectureNumber": 26,
    "prefecture": "京都府",
    "city": "京都市伏見区",
    "town": "桃山筒井伊賀西町"
  },
  "6120074": {
    "zipcode": "6120074",
    "prefectureCode": "26",
    "prefectureNumber": 26,
    "prefecture": "京都府",
    "city": "京都市伏見区",
    "town": "桃山井伊掃部西町"
  },
  "6120081": {
    "zipcode": "6120081",
    "prefectureCode": "26",
    "prefectureNumber": 26,
    "prefecture": "京都府",
    "city": "京都市伏見区",
    "town": "深草大島屋敷町"
  },
  "6120082": {
    "zipcode": "6120082",
    "prefectureCode": "26",
    "prefectureNumber": 26,
    "prefecture": "京都府",
    "city": "京都市伏見区",
    "town": "深草山村町"
  },
  "6120083": {
    "zipcode": "6120083",
    "prefectureCode": "26",
    "prefectureNumber": 26,
    "prefecture": "京都府",
    "city": "京都市伏見区",
    "town": "西桝屋町"
  },
  "6120084": {
    "zipcode": "6120084",
    "prefectureCode": "26",
    "prefectureNumber": 26,
    "prefecture": "京都府",
    "city": "京都市伏見区",
    "town": "鑓屋町"
  },
  "6120085": {
    "zipcode": "6120085",
    "prefectureCode": "26",
    "prefectureNumber": 26,
    "prefecture": "京都府",
    "city": "京都市伏見区",
    "town": "撞木町"
  },
  "6120086": {
    "zipcode": "6120086",
    "prefectureCode": "26",
    "prefectureNumber": 26,
    "prefecture": "京都府",
    "city": "京都市伏見区",
    "town": "桃山町真斉"
  },
  "6120087": {
    "zipcode": "6120087",
    "prefectureCode": "26",
    "prefectureNumber": 26,
    "prefecture": "京都府",
    "city": "京都市伏見区",
    "town": "深草紺屋町"
  },
  "6120088": {
    "zipcode": "6120088",
    "prefectureCode": "26",
    "prefectureNumber": 26,
    "prefecture": "京都府",
    "city": "京都市伏見区",
    "town": "深草出羽屋敷町"
  },
  "6120089": {
    "zipcode": "6120089",
    "prefectureCode": "26",
    "prefectureNumber": 26,
    "prefecture": "京都府",
    "city": "京都市伏見区",
    "town": "深草佐野屋敷町"
  },
  "6120801": {
    "zipcode": "6120801",
    "prefectureCode": "26",
    "prefectureNumber": 26,
    "prefecture": "京都府",
    "city": "京都市伏見区",
    "town": "深草正覚町"
  },
  "6120802": {
    "zipcode": "6120802",
    "prefectureCode": "26",
    "prefectureNumber": 26,
    "prefecture": "京都府",
    "city": "京都市伏見区",
    "town": "深草南明町"
  },
  "6120803": {
    "zipcode": "6120803",
    "prefectureCode": "26",
    "prefectureNumber": 26,
    "prefecture": "京都府",
    "city": "京都市伏見区",
    "town": "深草車阪町"
  },
  "6120804": {
    "zipcode": "6120804",
    "prefectureCode": "26",
    "prefectureNumber": 26,
    "prefecture": "京都府",
    "city": "京都市伏見区",
    "town": "稲荷山官有地"
  },
  "6120805": {
    "zipcode": "6120805",
    "prefectureCode": "26",
    "prefectureNumber": 26,
    "prefecture": "京都府",
    "city": "京都市伏見区",
    "town": "深草開土口町"
  },
  "6120806": {
    "zipcode": "6120806",
    "prefectureCode": "26",
    "prefectureNumber": 26,
    "prefecture": "京都府",
    "city": "京都市伏見区",
    "town": "深草開土町"
  },
  "6120807": {
    "zipcode": "6120807",
    "prefectureCode": "26",
    "prefectureNumber": 26,
    "prefecture": "京都府",
    "city": "京都市伏見区",
    "town": "深草稲荷中之町"
  },
  "6120808": {
    "zipcode": "6120808",
    "prefectureCode": "26",
    "prefectureNumber": 26,
    "prefecture": "京都府",
    "city": "京都市伏見区",
    "town": "深草稲荷榎木橋町"
  },
  "6120809": {
    "zipcode": "6120809",
    "prefectureCode": "26",
    "prefectureNumber": 26,
    "prefecture": "京都府",
    "city": "京都市伏見区",
    "town": "深草願成町"
  },
  "6120811": {
    "zipcode": "6120811",
    "prefectureCode": "26",
    "prefectureNumber": 26,
    "prefecture": "京都府",
    "city": "京都市伏見区",
    "town": "深草笹山町"
  },
  "6120812": {
    "zipcode": "6120812",
    "prefectureCode": "26",
    "prefectureNumber": 26,
    "prefecture": "京都府",
    "city": "京都市伏見区",
    "town": "深草坊山町"
  },
  "6120813": {
    "zipcode": "6120813",
    "prefectureCode": "26",
    "prefectureNumber": 26,
    "prefecture": "京都府",
    "city": "京都市伏見区",
    "town": "深草極楽寺山町"
  },
  "6120814": {
    "zipcode": "6120814",
    "prefectureCode": "26",
    "prefectureNumber": 26,
    "prefecture": "京都府",
    "city": "京都市伏見区",
    "town": "深草砥粉山町"
  },
  "6120815": {
    "zipcode": "6120815",
    "prefectureCode": "26",
    "prefectureNumber": 26,
    "prefecture": "京都府",
    "city": "京都市伏見区",
    "town": "深草飯食山町"
  },
  "6120816": {
    "zipcode": "6120816",
    "prefectureCode": "26",
    "prefectureNumber": 26,
    "prefecture": "京都府",
    "city": "京都市伏見区",
    "town": "深草馬谷町"
  },
  "6120817": {
    "zipcode": "6120817",
    "prefectureCode": "26",
    "prefectureNumber": 26,
    "prefecture": "京都府",
    "city": "京都市伏見区",
    "town": "深草向ケ原町"
  },
  "6120818": {
    "zipcode": "6120818",
    "prefectureCode": "26",
    "prefectureNumber": 26,
    "prefecture": "京都府",
    "city": "京都市伏見区",
    "town": "深草中ノ郷山町"
  },
  "6120819": {
    "zipcode": "6120819",
    "prefectureCode": "26",
    "prefectureNumber": 26,
    "prefecture": "京都府",
    "city": "京都市伏見区",
    "town": "深草僧坊山町"
  },
  "6120821": {
    "zipcode": "6120821",
    "prefectureCode": "26",
    "prefectureNumber": 26,
    "prefecture": "京都府",
    "city": "京都市伏見区",
    "town": "深草東瓦町"
  },
  "6120822": {
    "zipcode": "6120822",
    "prefectureCode": "26",
    "prefectureNumber": 26,
    "prefecture": "京都府",
    "city": "京都市伏見区",
    "town": "深草鞍ケ谷"
  },
  "6120823": {
    "zipcode": "6120823",
    "prefectureCode": "26",
    "prefectureNumber": 26,
    "prefecture": "京都府",
    "city": "京都市伏見区",
    "town": "深草東軸町"
  },
  "6120824": {
    "zipcode": "6120824",
    "prefectureCode": "26",
    "prefectureNumber": 26,
    "prefecture": "京都府",
    "city": "京都市伏見区",
    "town": "深草霧ケ谷町"
  },
  "6120825": {
    "zipcode": "6120825",
    "prefectureCode": "26",
    "prefectureNumber": 26,
    "prefecture": "京都府",
    "city": "京都市伏見区",
    "town": "深草鐙ケ谷町"
  },
  "6120826": {
    "zipcode": "6120826",
    "prefectureCode": "26",
    "prefectureNumber": 26,
    "prefecture": "京都府",
    "city": "京都市伏見区",
    "town": "深草兜山町"
  },
  "6120827": {
    "zipcode": "6120827",
    "prefectureCode": "26",
    "prefectureNumber": 26,
    "prefecture": "京都府",
    "city": "京都市伏見区",
    "town": "深草宮谷町"
  },
  "6120828": {
    "zipcode": "6120828",
    "prefectureCode": "26",
    "prefectureNumber": 26,
    "prefecture": "京都府",
    "city": "京都市伏見区",
    "town": "深草砂子谷町"
  },
  "6120829": {
    "zipcode": "6120829",
    "prefectureCode": "26",
    "prefectureNumber": 26,
    "prefecture": "京都府",
    "city": "京都市伏見区",
    "town": "深草谷口町"
  },
  "6120831": {
    "zipcode": "6120831",
    "prefectureCode": "26",
    "prefectureNumber": 26,
    "prefecture": "京都府",
    "city": "京都市伏見区",
    "town": "桃山町古城山"
  },
  "6120832": {
    "zipcode": "6120832",
    "prefectureCode": "26",
    "prefectureNumber": 26,
    "prefecture": "京都府",
    "city": "京都市伏見区",
    "town": "深草大亀谷東安信町"
  },
  "6120833": {
    "zipcode": "6120833",
    "prefectureCode": "26",
    "prefectureNumber": 26,
    "prefecture": "京都府",
    "city": "京都市伏見区",
    "town": "深草大亀谷岩山町"
  },
  "6120834": {
    "zipcode": "6120834",
    "prefectureCode": "26",
    "prefectureNumber": 26,
    "prefecture": "京都府",
    "city": "京都市伏見区",
    "town": "桃山町安芸山"
  },
  "6120835": {
    "zipcode": "6120835",
    "prefectureCode": "26",
    "prefectureNumber": 26,
    "prefecture": "京都府",
    "city": "京都市伏見区",
    "town": "桃山紅雪町"
  },
  "6120836": {
    "zipcode": "6120836",
    "prefectureCode": "26",
    "prefectureNumber": 26,
    "prefecture": "京都府",
    "city": "京都市伏見区",
    "town": "深草大亀谷安信町"
  },
  "6120837": {
    "zipcode": "6120837",
    "prefectureCode": "26",
    "prefectureNumber": 26,
    "prefecture": "京都府",
    "city": "京都市伏見区",
    "town": "深草稲荷山町"
  },
  "6120838": {
    "zipcode": "6120838",
    "prefectureCode": "26",
    "prefectureNumber": 26,
    "prefecture": "京都府",
    "city": "京都市伏見区",
    "town": "深草神明講谷町"
  },
  "6120839": {
    "zipcode": "6120839",
    "prefectureCode": "26",
    "prefectureNumber": 26,
    "prefecture": "京都府",
    "city": "京都市伏見区",
    "town": "深草本寺山町"
  },
  "6120841": {
    "zipcode": "6120841",
    "prefectureCode": "26",
    "prefectureNumber": 26,
    "prefecture": "京都府",
    "city": "京都市伏見区",
    "town": "深草大亀谷東久宝寺町"
  },
  "6120842": {
    "zipcode": "6120842",
    "prefectureCode": "26",
    "prefectureNumber": 26,
    "prefecture": "京都府",
    "city": "京都市伏見区",
    "town": "深草大亀谷大谷町"
  },
  "6120843": {
    "zipcode": "6120843",
    "prefectureCode": "26",
    "prefectureNumber": 26,
    "prefecture": "京都府",
    "city": "京都市伏見区",
    "town": "深草大亀谷古御香町"
  },
  "6120844": {
    "zipcode": "6120844",
    "prefectureCode": "26",
    "prefectureNumber": 26,
    "prefecture": "京都府",
    "city": "京都市伏見区",
    "town": "深草大亀谷東古御香町"
  },
  "6120845": {
    "zipcode": "6120845",
    "prefectureCode": "26",
    "prefectureNumber": 26,
    "prefecture": "京都府",
    "city": "京都市伏見区",
    "town": "深草大亀谷敦賀町"
  },
  "6120846": {
    "zipcode": "6120846",
    "prefectureCode": "26",
    "prefectureNumber": 26,
    "prefecture": "京都府",
    "city": "京都市伏見区",
    "town": "深草大亀谷万帖敷町"
  },
  "6120847": {
    "zipcode": "6120847",
    "prefectureCode": "26",
    "prefectureNumber": 26,
    "prefecture": "京都府",
    "city": "京都市伏見区",
    "town": "深草大亀谷大山町"
  },
  "6120848": {
    "zipcode": "6120848",
    "prefectureCode": "26",
    "prefectureNumber": 26,
    "prefecture": "京都府",
    "city": "京都市伏見区",
    "town": "深草大亀谷東寺町"
  },
  "6120849": {
    "zipcode": "6120849",
    "prefectureCode": "26",
    "prefectureNumber": 26,
    "prefecture": "京都府",
    "city": "京都市伏見区",
    "town": "深草大亀谷西寺町"
  },
  "6120851": {
    "zipcode": "6120851",
    "prefectureCode": "26",
    "prefectureNumber": 26,
    "prefecture": "京都府",
    "city": "京都市伏見区",
    "town": "深草大亀谷六躰町"
  },
  "6120852": {
    "zipcode": "6120852",
    "prefectureCode": "26",
    "prefectureNumber": 26,
    "prefecture": "京都府",
    "city": "京都市伏見区",
    "town": "深草大亀谷五郎太町"
  },
  "6120853": {
    "zipcode": "6120853",
    "prefectureCode": "26",
    "prefectureNumber": 26,
    "prefecture": "京都府",
    "city": "京都市伏見区",
    "town": "桃山町大蔵"
  },
  "6120854": {
    "zipcode": "6120854",
    "prefectureCode": "26",
    "prefectureNumber": 26,
    "prefecture": "京都府",
    "city": "京都市伏見区",
    "town": "桃山町島津"
  },
  "6120855": {
    "zipcode": "6120855",
    "prefectureCode": "26",
    "prefectureNumber": 26,
    "prefecture": "京都府",
    "city": "京都市伏見区",
    "town": "桃山町永井久太郎"
  },
  "6120856": {
    "zipcode": "6120856",
    "prefectureCode": "26",
    "prefectureNumber": 26,
    "prefecture": "京都府",
    "city": "京都市伏見区",
    "town": "桃山町正宗"
  },
  "6120861": {
    "zipcode": "6120861",
    "prefectureCode": "26",
    "prefectureNumber": 26,
    "prefecture": "京都府",
    "city": "京都市伏見区",
    "town": "深草向畑町"
  },
  "6120862": {
    "zipcode": "6120862",
    "prefectureCode": "26",
    "prefectureNumber": 26,
    "prefecture": "京都府",
    "city": "京都市伏見区",
    "town": "深草大亀谷西久宝寺町"
  },
  "6120863": {
    "zipcode": "6120863",
    "prefectureCode": "26",
    "prefectureNumber": 26,
    "prefecture": "京都府",
    "city": "京都市伏見区",
    "town": "深草藤森町"
  },
  "6120864": {
    "zipcode": "6120864",
    "prefectureCode": "26",
    "prefectureNumber": 26,
    "prefecture": "京都府",
    "city": "京都市伏見区",
    "town": "深草鳥居崎町"
  },
  "6120865": {
    "zipcode": "6120865",
    "prefectureCode": "26",
    "prefectureNumber": 26,
    "prefecture": "京都府",
    "city": "京都市伏見区",
    "town": "深草藤森玄蕃町"
  },
  "6120866": {
    "zipcode": "6120866",
    "prefectureCode": "26",
    "prefectureNumber": 26,
    "prefecture": "京都府",
    "city": "京都市伏見区",
    "town": "深草十九軒町"
  },
  "6120867": {
    "zipcode": "6120867",
    "prefectureCode": "26",
    "prefectureNumber": 26,
    "prefecture": "京都府",
    "city": "京都市伏見区",
    "town": "深草直違橋片町"
  },
  "6120868": {
    "zipcode": "6120868",
    "prefectureCode": "26",
    "prefectureNumber": 26,
    "prefecture": "京都府",
    "city": "京都市伏見区",
    "town": "深草直違橋南"
  },
  "6120869": {
    "zipcode": "6120869",
    "prefectureCode": "26",
    "prefectureNumber": 26,
    "prefecture": "京都府",
    "city": "京都市伏見区",
    "town": "深草直違橋北"
  },
  "6120871": {
    "zipcode": "6120871",
    "prefectureCode": "26",
    "prefectureNumber": 26,
    "prefecture": "京都府",
    "city": "京都市伏見区",
    "town": "深草坊町"
  },
  "6120872": {
    "zipcode": "6120872",
    "prefectureCode": "26",
    "prefectureNumber": 26,
    "prefecture": "京都府",
    "city": "京都市伏見区",
    "town": "深草真宗院山町"
  },
  "6120873": {
    "zipcode": "6120873",
    "prefectureCode": "26",
    "prefectureNumber": 26,
    "prefecture": "京都府",
    "city": "京都市伏見区",
    "town": "深草瓦町"
  },
  "6120874": {
    "zipcode": "6120874",
    "prefectureCode": "26",
    "prefectureNumber": 26,
    "prefecture": "京都府",
    "city": "京都市伏見区",
    "town": "深草東伊達町"
  },
  "6120875": {
    "zipcode": "6120875",
    "prefectureCode": "26",
    "prefectureNumber": 26,
    "prefecture": "京都府",
    "city": "京都市伏見区",
    "town": "深草枯木町"
  },
  "6120876": {
    "zipcode": "6120876",
    "prefectureCode": "26",
    "prefectureNumber": 26,
    "prefecture": "京都府",
    "city": "京都市伏見区",
    "town": "深草西伊達町"
  },
  "6120877": {
    "zipcode": "6120877",
    "prefectureCode": "26",
    "prefectureNumber": 26,
    "prefecture": "京都府",
    "city": "京都市伏見区",
    "town": "深草僧坊町"
  },
  "6120878": {
    "zipcode": "6120878",
    "prefectureCode": "26",
    "prefectureNumber": 26,
    "prefecture": "京都府",
    "city": "京都市伏見区",
    "town": "深草田谷町"
  },
  "6120879": {
    "zipcode": "6120879",
    "prefectureCode": "26",
    "prefectureNumber": 26,
    "prefecture": "京都府",
    "city": "京都市伏見区",
    "town": "深草西出町"
  },
  "6120881": {
    "zipcode": "6120881",
    "prefectureCode": "26",
    "prefectureNumber": 26,
    "prefecture": "京都府",
    "city": "京都市伏見区",
    "town": "深草稲荷御前町"
  },
  "6120882": {
    "zipcode": "6120882",
    "prefectureCode": "26",
    "prefectureNumber": 26,
    "prefecture": "京都府",
    "city": "京都市伏見区",
    "town": "深草薮之内町"
  },
  "6120883": {
    "zipcode": "6120883",
    "prefectureCode": "26",
    "prefectureNumber": 26,
    "prefecture": "京都府",
    "city": "京都市伏見区",
    "town": "深草石峰寺山町"
  },
  "6120884": {
    "zipcode": "6120884",
    "prefectureCode": "26",
    "prefectureNumber": 26,
    "prefecture": "京都府",
    "city": "京都市伏見区",
    "town": "深草西出山町"
  },
  "6120885": {
    "zipcode": "6120885",
    "prefectureCode": "26",
    "prefectureNumber": 26,
    "prefecture": "京都府",
    "city": "京都市伏見区",
    "town": "深草宝塔寺山町"
  },
  "6120886": {
    "zipcode": "6120886",
    "prefectureCode": "26",
    "prefectureNumber": 26,
    "prefecture": "京都府",
    "city": "京都市伏見区",
    "town": "深草極楽寺町"
  },
  "6120887": {
    "zipcode": "6120887",
    "prefectureCode": "26",
    "prefectureNumber": 26,
    "prefecture": "京都府",
    "city": "京都市伏見区",
    "town": "深草野手町"
  },
  "6120888": {
    "zipcode": "6120888",
    "prefectureCode": "26",
    "prefectureNumber": 26,
    "prefecture": "京都府",
    "city": "京都市伏見区",
    "town": "深草大門町"
  },
  "6120889": {
    "zipcode": "6120889",
    "prefectureCode": "26",
    "prefectureNumber": 26,
    "prefecture": "京都府",
    "city": "京都市伏見区",
    "town": "深草直違橋"
  },
  "6128001": {
    "zipcode": "6128001",
    "prefectureCode": "26",
    "prefectureNumber": 26,
    "prefecture": "京都府",
    "city": "京都市伏見区",
    "town": "桃山町日向"
  },
  "6128002": {
    "zipcode": "6128002",
    "prefectureCode": "26",
    "prefectureNumber": 26,
    "prefecture": "京都府",
    "city": "京都市伏見区",
    "town": "桃山町山ノ下"
  },
  "6128003": {
    "zipcode": "6128003",
    "prefectureCode": "26",
    "prefectureNumber": 26,
    "prefecture": "京都府",
    "city": "京都市伏見区",
    "town": "桃山町西尾"
  },
  "6128004": {
    "zipcode": "6128004",
    "prefectureCode": "26",
    "prefectureNumber": 26,
    "prefecture": "京都府",
    "city": "京都市伏見区",
    "town": "桃山町町並"
  },
  "6128005": {
    "zipcode": "6128005",
    "prefectureCode": "26",
    "prefectureNumber": 26,
    "prefecture": "京都府",
    "city": "京都市伏見区",
    "town": "桃山町中島町"
  },
  "6128006": {
    "zipcode": "6128006",
    "prefectureCode": "26",
    "prefectureNumber": 26,
    "prefecture": "京都府",
    "city": "京都市伏見区",
    "town": "桃山町大島"
  },
  "6128007": {
    "zipcode": "6128007",
    "prefectureCode": "26",
    "prefectureNumber": 26,
    "prefecture": "京都府",
    "city": "京都市伏見区",
    "town": "桃山町因幡"
  },
  "6128008": {
    "zipcode": "6128008",
    "prefectureCode": "26",
    "prefectureNumber": 26,
    "prefecture": "京都府",
    "city": "京都市伏見区",
    "town": "桃山町東町"
  },
  "6128009": {
    "zipcode": "6128009",
    "prefectureCode": "26",
    "prefectureNumber": 26,
    "prefecture": "京都府",
    "city": "京都市伏見区",
    "town": "桃山町見附町"
  },
  "6128011": {
    "zipcode": "6128011",
    "prefectureCode": "26",
    "prefectureNumber": 26,
    "prefecture": "京都府",
    "city": "京都市伏見区",
    "town": "桃山町伊庭"
  },
  "6128012": {
    "zipcode": "6128012",
    "prefectureCode": "26",
    "prefectureNumber": 26,
    "prefecture": "京都府",
    "city": "京都市伏見区",
    "town": "桃山町遠山"
  },
  "6128013": {
    "zipcode": "6128013",
    "prefectureCode": "26",
    "prefectureNumber": 26,
    "prefecture": "京都府",
    "city": "京都市伏見区",
    "town": "桃山町西町"
  },
  "6128014": {
    "zipcode": "6128014",
    "prefectureCode": "26",
    "prefectureNumber": 26,
    "prefecture": "京都府",
    "city": "京都市伏見区",
    "town": "桃山町大津町"
  },
  "6128015": {
    "zipcode": "6128015",
    "prefectureCode": "26",
    "prefectureNumber": 26,
    "prefecture": "京都府",
    "city": "京都市伏見区",
    "town": "桃山町和泉"
  },
  "6128016": {
    "zipcode": "6128016",
    "prefectureCode": "26",
    "prefectureNumber": 26,
    "prefecture": "京都府",
    "city": "京都市伏見区",
    "town": "桃山町養斉"
  },
  "6128017": {
    "zipcode": "6128017",
    "prefectureCode": "26",
    "prefectureNumber": 26,
    "prefecture": "京都府",
    "city": "京都市伏見区",
    "town": "桃山南大島町"
  },
  "6128018": {
    "zipcode": "6128018",
    "prefectureCode": "26",
    "prefectureNumber": 26,
    "prefecture": "京都府",
    "city": "京都市伏見区",
    "town": "桃山町丹後"
  },
  "6128019": {
    "zipcode": "6128019",
    "prefectureCode": "26",
    "prefectureNumber": 26,
    "prefecture": "京都府",
    "city": "京都市伏見区",
    "town": "桃山町新町"
  },
  "6128021": {
    "zipcode": "6128021",
    "prefectureCode": "26",
    "prefectureNumber": 26,
    "prefecture": "京都府",
    "city": "京都市伏見区",
    "town": "桃山町下野"
  },
  "6128022": {
    "zipcode": "6128022",
    "prefectureCode": "26",
    "prefectureNumber": 26,
    "prefecture": "京都府",
    "city": "京都市伏見区",
    "town": "桃山町駿河"
  },
  "6128023": {
    "zipcode": "6128023",
    "prefectureCode": "26",
    "prefectureNumber": 26,
    "prefecture": "京都府",
    "city": "京都市伏見区",
    "town": "桃山町美濃"
  },
  "6128024": {
    "zipcode": "6128024",
    "prefectureCode": "26",
    "prefectureNumber": 26,
    "prefecture": "京都府",
    "city": "京都市伏見区",
    "town": "桃山町根来"
  },
  "6128025": {
    "zipcode": "6128025",
    "prefectureCode": "26",
    "prefectureNumber": 26,
    "prefecture": "京都府",
    "city": "京都市伏見区",
    "town": "桃山与五郎町"
  },
  "6128026": {
    "zipcode": "6128026",
    "prefectureCode": "26",
    "prefectureNumber": 26,
    "prefecture": "京都府",
    "city": "京都市伏見区",
    "town": "桃山町伊賀"
  },
  "6128027": {
    "zipcode": "6128027",
    "prefectureCode": "26",
    "prefectureNumber": 26,
    "prefecture": "京都府",
    "city": "京都市伏見区",
    "town": "桃山町本多上野"
  },
  "6128028": {
    "zipcode": "6128028",
    "prefectureCode": "26",
    "prefectureNumber": 26,
    "prefecture": "京都府",
    "city": "京都市伏見区",
    "town": "桃山町板倉周防"
  },
  "6128029": {
    "zipcode": "6128029",
    "prefectureCode": "26",
    "prefectureNumber": 26,
    "prefecture": "京都府",
    "city": "京都市伏見区",
    "town": "桃山町三河"
  },
  "6128031": {
    "zipcode": "6128031",
    "prefectureCode": "26",
    "prefectureNumber": 26,
    "prefecture": "京都府",
    "city": "京都市伏見区",
    "town": "桃山町松平筑前"
  },
  "6128032": {
    "zipcode": "6128032",
    "prefectureCode": "26",
    "prefectureNumber": 26,
    "prefecture": "京都府",
    "city": "京都市伏見区",
    "town": "桃山筑前台町"
  },
  "6128033": {
    "zipcode": "6128033",
    "prefectureCode": "26",
    "prefectureNumber": 26,
    "prefecture": "京都府",
    "city": "京都市伏見区",
    "town": "桃山町松平武蔵"
  },
  "6128034": {
    "zipcode": "6128034",
    "prefectureCode": "26",
    "prefectureNumber": 26,
    "prefecture": "京都府",
    "city": "京都市伏見区",
    "town": "桃山町泰長老"
  },
  "6128035": {
    "zipcode": "6128035",
    "prefectureCode": "26",
    "prefectureNumber": 26,
    "prefecture": "京都府",
    "city": "京都市伏見区",
    "town": "常盤町"
  },
  "6128036": {
    "zipcode": "6128036",
    "prefectureCode": "26",
    "prefectureNumber": 26,
    "prefecture": "京都府",
    "city": "京都市伏見区",
    "town": "桃山町立売"
  },
  "6128037": {
    "zipcode": "6128037",
    "prefectureCode": "26",
    "prefectureNumber": 26,
    "prefecture": "京都府",
    "city": "京都市伏見区",
    "town": "桃山町鍋島"
  },
  "6128038": {
    "zipcode": "6128038",
    "prefectureCode": "26",
    "prefectureNumber": 26,
    "prefecture": "京都府",
    "city": "京都市伏見区",
    "town": "鍋島町"
  },
  "6128039": {
    "zipcode": "6128039",
    "prefectureCode": "26",
    "prefectureNumber": 26,
    "prefecture": "京都府",
    "city": "京都市伏見区",
    "town": "御香宮門前町"
  },
  "6128041": {
    "zipcode": "6128041",
    "prefectureCode": "26",
    "prefectureNumber": 26,
    "prefecture": "京都府",
    "city": "京都市伏見区",
    "town": "魚屋町"
  },
  "6128042": {
    "zipcode": "6128042",
    "prefectureCode": "26",
    "prefectureNumber": 26,
    "prefecture": "京都府",
    "city": "京都市伏見区",
    "town": "柿木浜町"
  },
  "6128043": {
    "zipcode": "6128043",
    "prefectureCode": "26",
    "prefectureNumber": 26,
    "prefecture": "京都府",
    "city": "京都市伏見区",
    "town": "本材木町"
  },
  "6128044": {
    "zipcode": "6128044",
    "prefectureCode": "26",
    "prefectureNumber": 26,
    "prefecture": "京都府",
    "city": "京都市伏見区",
    "town": "丹後町"
  },
  "6128045": {
    "zipcode": "6128045",
    "prefectureCode": "26",
    "prefectureNumber": 26,
    "prefecture": "京都府",
    "city": "京都市伏見区",
    "town": "南浜町"
  },
  "6128046": {
    "zipcode": "6128046",
    "prefectureCode": "26",
    "prefectureNumber": 26,
    "prefecture": "京都府",
    "city": "京都市伏見区",
    "town": "塩屋町"
  },
  "6128047": {
    "zipcode": "6128047",
    "prefectureCode": "26",
    "prefectureNumber": 26,
    "prefecture": "京都府",
    "city": "京都市伏見区",
    "town": "上油掛町"
  },
  "6128048": {
    "zipcode": "6128048",
    "prefectureCode": "26",
    "prefectureNumber": 26,
    "prefecture": "京都府",
    "city": "京都市伏見区",
    "town": "大阪町"
  },
  "6128051": {
    "zipcode": "6128051",
    "prefectureCode": "26",
    "prefectureNumber": 26,
    "prefecture": "京都府",
    "city": "京都市伏見区",
    "town": "今町"
  },
  "6128052": {
    "zipcode": "6128052",
    "prefectureCode": "26",
    "prefectureNumber": 26,
    "prefecture": "京都府",
    "city": "京都市伏見区",
    "town": "瀬戸物町"
  },
  "6128053": {
    "zipcode": "6128053",
    "prefectureCode": "26",
    "prefectureNumber": 26,
    "prefecture": "京都府",
    "city": "京都市伏見区",
    "town": "東大手町"
  },
  "6128054": {
    "zipcode": "6128054",
    "prefectureCode": "26",
    "prefectureNumber": 26,
    "prefecture": "京都府",
    "city": "京都市伏見区",
    "town": "御堂前町"
  },
  "6128055": {
    "zipcode": "6128055",
    "prefectureCode": "26",
    "prefectureNumber": 26,
    "prefecture": "京都府",
    "city": "京都市伏見区",
    "town": "伯耆町"
  },
  "6128056": {
    "zipcode": "6128056",
    "prefectureCode": "26",
    "prefectureNumber": 26,
    "prefecture": "京都府",
    "city": "京都市伏見区",
    "town": "中油掛町"
  },
  "6128057": {
    "zipcode": "6128057",
    "prefectureCode": "26",
    "prefectureNumber": 26,
    "prefecture": "京都府",
    "city": "京都市伏見区",
    "town": "平野町"
  },
  "6128058": {
    "zipcode": "6128058",
    "prefectureCode": "26",
    "prefectureNumber": 26,
    "prefecture": "京都府",
    "city": "京都市伏見区",
    "town": "風呂屋町"
  },
  "6128059": {
    "zipcode": "6128059",
    "prefectureCode": "26",
    "prefectureNumber": 26,
    "prefecture": "京都府",
    "city": "京都市伏見区",
    "town": "南部町"
  },
  "6128061": {
    "zipcode": "6128061",
    "prefectureCode": "26",
    "prefectureNumber": 26,
    "prefecture": "京都府",
    "city": "京都市伏見区",
    "town": "竹中町"
  },
  "6128062": {
    "zipcode": "6128062",
    "prefectureCode": "26",
    "prefectureNumber": 26,
    "prefecture": "京都府",
    "city": "京都市伏見区",
    "town": "鷹匠町"
  },
  "6128063": {
    "zipcode": "6128063",
    "prefectureCode": "26",
    "prefectureNumber": 26,
    "prefecture": "京都府",
    "city": "京都市伏見区",
    "town": "東組町"
  },
  "6128064": {
    "zipcode": "6128064",
    "prefectureCode": "26",
    "prefectureNumber": 26,
    "prefecture": "京都府",
    "city": "京都市伏見区",
    "town": "紺屋町"
  },
  "6128065": {
    "zipcode": "6128065",
    "prefectureCode": "26",
    "prefectureNumber": 26,
    "prefecture": "京都府",
    "city": "京都市伏見区",
    "town": "御駕籠町"
  },
  "6128066": {
    "zipcode": "6128066",
    "prefectureCode": "26",
    "prefectureNumber": 26,
    "prefecture": "京都府",
    "city": "京都市伏見区",
    "town": "東堺町"
  },
  "6128067": {
    "zipcode": "6128067",
    "prefectureCode": "26",
    "prefectureNumber": 26,
    "prefecture": "京都府",
    "city": "京都市伏見区",
    "town": "城通町"
  },
  "6128071": {
    "zipcode": "6128071",
    "prefectureCode": "26",
    "prefectureNumber": 26,
    "prefecture": "京都府",
    "city": "京都市伏見区",
    "town": "鍛冶屋町"
  },
  "6128072": {
    "zipcode": "6128072",
    "prefectureCode": "26",
    "prefectureNumber": 26,
    "prefecture": "京都府",
    "city": "京都市伏見区",
    "town": "丹波橋町"
  },
  "6128073": {
    "zipcode": "6128073",
    "prefectureCode": "26",
    "prefectureNumber": 26,
    "prefecture": "京都府",
    "city": "京都市伏見区",
    "town": "下板橋町"
  },
  "6128074": {
    "zipcode": "6128074",
    "prefectureCode": "26",
    "prefectureNumber": 26,
    "prefecture": "京都府",
    "city": "京都市伏見区",
    "town": "指物町"
  },
  "6128075": {
    "zipcode": "6128075",
    "prefectureCode": "26",
    "prefectureNumber": 26,
    "prefecture": "京都府",
    "city": "京都市伏見区",
    "town": "桝形町"
  },
  "6128076": {
    "zipcode": "6128076",
    "prefectureCode": "26",
    "prefectureNumber": 26,
    "prefecture": "京都府",
    "city": "京都市伏見区",
    "town": "南尼崎町"
  },
  "6128077": {
    "zipcode": "6128077",
    "prefectureCode": "26",
    "prefectureNumber": 26,
    "prefecture": "京都府",
    "city": "京都市伏見区",
    "town": "北尼崎町"
  },
  "6128078": {
    "zipcode": "6128078",
    "prefectureCode": "26",
    "prefectureNumber": 26,
    "prefecture": "京都府",
    "city": "京都市伏見区",
    "town": "大宮町"
  },
  "6128081": {
    "zipcode": "6128081",
    "prefectureCode": "26",
    "prefectureNumber": 26,
    "prefecture": "京都府",
    "city": "京都市伏見区",
    "town": "新町"
  },
  "6128082": {
    "zipcode": "6128082",
    "prefectureCode": "26",
    "prefectureNumber": 26,
    "prefecture": "京都府",
    "city": "京都市伏見区",
    "town": "両替町"
  },
  "6128083": {
    "zipcode": "6128083",
    "prefectureCode": "26",
    "prefectureNumber": 26,
    "prefecture": "京都府",
    "city": "京都市伏見区",
    "town": "京町"
  },
  "6128084": {
    "zipcode": "6128084",
    "prefectureCode": "26",
    "prefectureNumber": 26,
    "prefecture": "京都府",
    "city": "京都市伏見区",
    "town": "京町８丁目横町"
  },
  "6128085": {
    "zipcode": "6128085",
    "prefectureCode": "26",
    "prefectureNumber": 26,
    "prefecture": "京都府",
    "city": "京都市伏見区",
    "town": "京町南"
  },
  "6128086": {
    "zipcode": "6128086",
    "prefectureCode": "26",
    "prefectureNumber": 26,
    "prefecture": "京都府",
    "city": "京都市伏見区",
    "town": "京町北"
  },
  "6128087": {
    "zipcode": "6128087",
    "prefectureCode": "26",
    "prefectureNumber": 26,
    "prefecture": "京都府",
    "city": "京都市伏見区",
    "town": "京町大黒町"
  },
  "6128088": {
    "zipcode": "6128088",
    "prefectureCode": "26",
    "prefectureNumber": 26,
    "prefecture": "京都府",
    "city": "京都市伏見区",
    "town": "桃山町金森出雲"
  },
  "6128089": {
    "zipcode": "6128089",
    "prefectureCode": "26",
    "prefectureNumber": 26,
    "prefecture": "京都府",
    "city": "京都市伏見区",
    "town": "銀座町"
  },
  "6128101": {
    "zipcode": "6128101",
    "prefectureCode": "26",
    "prefectureNumber": 26,
    "prefecture": "京都府",
    "city": "京都市伏見区",
    "town": "観音寺町"
  },
  "6128102": {
    "zipcode": "6128102",
    "prefectureCode": "26",
    "prefectureNumber": 26,
    "prefecture": "京都府",
    "city": "京都市伏見区",
    "town": "道阿弥町"
  },
  "6128103": {
    "zipcode": "6128103",
    "prefectureCode": "26",
    "prefectureNumber": 26,
    "prefecture": "京都府",
    "city": "京都市伏見区",
    "town": "片桐町"
  },
  "6128104": {
    "zipcode": "6128104",
    "prefectureCode": "26",
    "prefectureNumber": 26,
    "prefecture": "京都府",
    "city": "京都市伏見区",
    "town": "西奉行町"
  },
  "6128105": {
    "zipcode": "6128105",
    "prefectureCode": "26",
    "prefectureNumber": 26,
    "prefecture": "京都府",
    "city": "京都市伏見区",
    "town": "東奉行町"
  },
  "6128106": {
    "zipcode": "6128106",
    "prefectureCode": "26",
    "prefectureNumber": 26,
    "prefecture": "京都府",
    "city": "京都市伏見区",
    "town": "豊後橋町"
  },
  "6128107": {
    "zipcode": "6128107",
    "prefectureCode": "26",
    "prefectureNumber": 26,
    "prefecture": "京都府",
    "city": "京都市伏見区",
    "town": "桃陵町"
  },
  "6128108": {
    "zipcode": "6128108",
    "prefectureCode": "26",
    "prefectureNumber": 26,
    "prefecture": "京都府",
    "city": "京都市伏見区",
    "town": "奉行前町"
  },
  "6128109": {
    "zipcode": "6128109",
    "prefectureCode": "26",
    "prefectureNumber": 26,
    "prefecture": "京都府",
    "city": "京都市伏見区",
    "town": "讃岐町"
  },
  "6128111": {
    "zipcode": "6128111",
    "prefectureCode": "26",
    "prefectureNumber": 26,
    "prefecture": "京都府",
    "city": "京都市伏見区",
    "town": "向島橋詰町"
  },
  "6128112": {
    "zipcode": "6128112",
    "prefectureCode": "26",
    "prefectureNumber": 26,
    "prefecture": "京都府",
    "city": "京都市伏見区",
    "town": "向島本丸町"
  },
  "6128113": {
    "zipcode": "6128113",
    "prefectureCode": "26",
    "prefectureNumber": 26,
    "prefecture": "京都府",
    "city": "京都市伏見区",
    "town": "向島中島町"
  },
  "6128114": {
    "zipcode": "6128114",
    "prefectureCode": "26",
    "prefectureNumber": 26,
    "prefecture": "京都府",
    "city": "京都市伏見区",
    "town": "向島下之町"
  },
  "6128115": {
    "zipcode": "6128115",
    "prefectureCode": "26",
    "prefectureNumber": 26,
    "prefecture": "京都府",
    "city": "京都市伏見区",
    "town": "向島中之町"
  },
  "6128116": {
    "zipcode": "6128116",
    "prefectureCode": "26",
    "prefectureNumber": 26,
    "prefecture": "京都府",
    "city": "京都市伏見区",
    "town": "向島西堤町"
  },
  "6128121": {
    "zipcode": "6128121",
    "prefectureCode": "26",
    "prefectureNumber": 26,
    "prefecture": "京都府",
    "city": "京都市伏見区",
    "town": "向島善阿弥町"
  },
  "6128122": {
    "zipcode": "6128122",
    "prefectureCode": "26",
    "prefectureNumber": 26,
    "prefecture": "京都府",
    "city": "京都市伏見区",
    "town": "向島庚申町"
  },
  "6128123": {
    "zipcode": "6128123",
    "prefectureCode": "26",
    "prefectureNumber": 26,
    "prefecture": "京都府",
    "city": "京都市伏見区",
    "town": "向島立河原町"
  },
  "6128124": {
    "zipcode": "6128124",
    "prefectureCode": "26",
    "prefectureNumber": 26,
    "prefecture": "京都府",
    "city": "京都市伏見区",
    "town": "向島吹田河原町"
  },
  "6128125": {
    "zipcode": "6128125",
    "prefectureCode": "26",
    "prefectureNumber": 26,
    "prefecture": "京都府",
    "city": "京都市伏見区",
    "town": "向島東泉寺町"
  },
  "6128131": {
    "zipcode": "6128131",
    "prefectureCode": "26",
    "prefectureNumber": 26,
    "prefecture": "京都府",
    "city": "京都市伏見区",
    "town": "向島丸町"
  },
  "6128132": {
    "zipcode": "6128132",
    "prefectureCode": "26",
    "prefectureNumber": 26,
    "prefecture": "京都府",
    "city": "京都市伏見区",
    "town": "向島藤ノ木町"
  },
  "6128133": {
    "zipcode": "6128133",
    "prefectureCode": "26",
    "prefectureNumber": 26,
    "prefecture": "京都府",
    "city": "京都市伏見区",
    "town": "向島鷹場町"
  },
  "6128134": {
    "zipcode": "6128134",
    "prefectureCode": "26",
    "prefectureNumber": 26,
    "prefecture": "京都府",
    "city": "京都市伏見区",
    "town": "向島清水町"
  },
  "6128135": {
    "zipcode": "6128135",
    "prefectureCode": "26",
    "prefectureNumber": 26,
    "prefecture": "京都府",
    "city": "京都市伏見区",
    "town": "向島渡シ場町"
  },
  "6128136": {
    "zipcode": "6128136",
    "prefectureCode": "26",
    "prefectureNumber": 26,
    "prefecture": "京都府",
    "city": "京都市伏見区",
    "town": "向島四ツ谷池"
  },
  "6128141": {
    "zipcode": "6128141",
    "prefectureCode": "26",
    "prefectureNumber": 26,
    "prefecture": "京都府",
    "city": "京都市伏見区",
    "town": "向島二ノ丸町"
  },
  "6128151": {
    "zipcode": "6128151",
    "prefectureCode": "26",
    "prefectureNumber": 26,
    "prefecture": "京都府",
    "city": "京都市伏見区",
    "town": "向島上林町"
  },
  "6128152": {
    "zipcode": "6128152",
    "prefectureCode": "26",
    "prefectureNumber": 26,
    "prefecture": "京都府",
    "city": "京都市伏見区",
    "town": "向島新上林"
  },
  "6128153": {
    "zipcode": "6128153",
    "prefectureCode": "26",
    "prefectureNumber": 26,
    "prefecture": "京都府",
    "city": "京都市伏見区",
    "town": "向島二本柳"
  },
  "6128154": {
    "zipcode": "6128154",
    "prefectureCode": "26",
    "prefectureNumber": 26,
    "prefecture": "京都府",
    "city": "京都市伏見区",
    "town": "向島津田町"
  },
  "6128155": {
    "zipcode": "6128155",
    "prefectureCode": "26",
    "prefectureNumber": 26,
    "prefecture": "京都府",
    "city": "京都市伏見区",
    "town": "向島東定請"
  },
  "6128156": {
    "zipcode": "6128156",
    "prefectureCode": "26",
    "prefectureNumber": 26,
    "prefecture": "京都府",
    "city": "京都市伏見区",
    "town": "向島西定請"
  },
  "6128157": {
    "zipcode": "6128157",
    "prefectureCode": "26",
    "prefectureNumber": 26,
    "prefecture": "京都府",
    "city": "京都市伏見区",
    "town": "向島大黒"
  },
  "6128158": {
    "zipcode": "6128158",
    "prefectureCode": "26",
    "prefectureNumber": 26,
    "prefecture": "京都府",
    "city": "京都市伏見区",
    "town": "向島上五反田"
  },
  "6128201": {
    "zipcode": "6128201",
    "prefectureCode": "26",
    "prefectureNumber": 26,
    "prefecture": "京都府",
    "city": "京都市伏見区",
    "town": "恵美酒町"
  },
  "6128202": {
    "zipcode": "6128202",
    "prefectureCode": "26",
    "prefectureNumber": 26,
    "prefecture": "京都府",
    "city": "京都市伏見区",
    "town": "過書町"
  },
  "6128203": {
    "zipcode": "6128203",
    "prefectureCode": "26",
    "prefectureNumber": 26,
    "prefecture": "京都府",
    "city": "京都市伏見区",
    "town": "阿波橋町"
  },
  "6128204": {
    "zipcode": "6128204",
    "prefectureCode": "26",
    "prefectureNumber": 26,
    "prefecture": "京都府",
    "city": "京都市伏見区",
    "town": "八幡町"
  },
  "6128205": {
    "zipcode": "6128205",
    "prefectureCode": "26",
    "prefectureNumber": 26,
    "prefecture": "京都府",
    "city": "京都市伏見区",
    "town": "横大路三栖大黒町"
  },
  "6128206": {
    "zipcode": "6128206",
    "prefectureCode": "26",
    "prefectureNumber": 26,
    "prefecture": "京都府",
    "city": "京都市伏見区",
    "town": "下鳥羽六反長町"
  },
  "6128207": {
    "zipcode": "6128207",
    "prefectureCode": "26",
    "prefectureNumber": 26,
    "prefecture": "京都府",
    "city": "京都市伏見区",
    "town": "横大路三栖山城屋敷町"
  },
  "6128208": {
    "zipcode": "6128208",
    "prefectureCode": "26",
    "prefectureNumber": 26,
    "prefecture": "京都府",
    "city": "京都市伏見区",
    "town": "下鳥羽但馬町"
  },
  "6128209": {
    "zipcode": "6128209",
    "prefectureCode": "26",
    "prefectureNumber": 26,
    "prefecture": "京都府",
    "city": "京都市伏見区",
    "town": "下鳥羽南六反長町"
  },
  "6128211": {
    "zipcode": "6128211",
    "prefectureCode": "26",
    "prefectureNumber": 26,
    "prefecture": "京都府",
    "city": "京都市伏見区",
    "town": "東柳町"
  },
  "6128212": {
    "zipcode": "6128212",
    "prefectureCode": "26",
    "prefectureNumber": 26,
    "prefecture": "京都府",
    "city": "京都市伏見区",
    "town": "西柳町"
  },
  "6128213": {
    "zipcode": "6128213",
    "prefectureCode": "26",
    "prefectureNumber": 26,
    "prefecture": "京都府",
    "city": "京都市伏見区",
    "town": "東浜南町"
  },
  "6128214": {
    "zipcode": "6128214",
    "prefectureCode": "26",
    "prefectureNumber": 26,
    "prefecture": "京都府",
    "city": "京都市伏見区",
    "town": "西浜町"
  },
  "6128215": {
    "zipcode": "6128215",
    "prefectureCode": "26",
    "prefectureNumber": 26,
    "prefecture": "京都府",
    "city": "京都市伏見区",
    "town": "新中町"
  },
  "6128216": {
    "zipcode": "6128216",
    "prefectureCode": "26",
    "prefectureNumber": 26,
    "prefecture": "京都府",
    "city": "京都市伏見区",
    "town": "下中町"
  },
  "6128217": {
    "zipcode": "6128217",
    "prefectureCode": "26",
    "prefectureNumber": 26,
    "prefecture": "京都府",
    "city": "京都市伏見区",
    "town": "上中町"
  },
  "6128218": {
    "zipcode": "6128218",
    "prefectureCode": "26",
    "prefectureNumber": 26,
    "prefecture": "京都府",
    "city": "京都市伏見区",
    "town": "北浜町"
  },
  "6128219": {
    "zipcode": "6128219",
    "prefectureCode": "26",
    "prefectureNumber": 26,
    "prefecture": "京都府",
    "city": "京都市伏見区",
    "town": "表町"
  },
  "6128221": {
    "zipcode": "6128221",
    "prefectureCode": "26",
    "prefectureNumber": 26,
    "prefecture": "京都府",
    "city": "京都市伏見区",
    "town": "弾正町"
  },
  "6128222": {
    "zipcode": "6128222",
    "prefectureCode": "26",
    "prefectureNumber": 26,
    "prefecture": "京都府",
    "city": "京都市伏見区",
    "town": "平戸町"
  },
  "6128223": {
    "zipcode": "6128223",
    "prefectureCode": "26",
    "prefectureNumber": 26,
    "prefecture": "京都府",
    "city": "京都市伏見区",
    "town": "桃山町弾正島"
  },
  "6128224": {
    "zipcode": "6128224",
    "prefectureCode": "26",
    "prefectureNumber": 26,
    "prefecture": "京都府",
    "city": "京都市伏見区",
    "town": "葭島矢倉町"
  },
  "6128225": {
    "zipcode": "6128225",
    "prefectureCode": "26",
    "prefectureNumber": 26,
    "prefecture": "京都府",
    "city": "京都市伏見区",
    "town": "葭島金井戸町"
  },
  "6128226": {
    "zipcode": "6128226",
    "prefectureCode": "26",
    "prefectureNumber": 26,
    "prefecture": "京都府",
    "city": "京都市伏見区",
    "town": "桃山町金井戸島"
  },
  "6128227": {
    "zipcode": "6128227",
    "prefectureCode": "26",
    "prefectureNumber": 26,
    "prefecture": "京都府",
    "city": "京都市伏見区",
    "town": "三栖向町"
  },
  "6128228": {
    "zipcode": "6128228",
    "prefectureCode": "26",
    "prefectureNumber": 26,
    "prefecture": "京都府",
    "city": "京都市伏見区",
    "town": "南新地"
  },
  "6128231": {
    "zipcode": "6128231",
    "prefectureCode": "26",
    "prefectureNumber": 26,
    "prefecture": "京都府",
    "city": "京都市伏見区",
    "town": "杉本町"
  },
  "6128232": {
    "zipcode": "6128232",
    "prefectureCode": "26",
    "prefectureNumber": 26,
    "prefecture": "京都府",
    "city": "京都市伏見区",
    "town": "三栖半町"
  },
  "6128233": {
    "zipcode": "6128233",
    "prefectureCode": "26",
    "prefectureNumber": 26,
    "prefecture": "京都府",
    "city": "京都市伏見区",
    "town": "三栖町"
  },
  "6128234": {
    "zipcode": "6128234",
    "prefectureCode": "26",
    "prefectureNumber": 26,
    "prefecture": "京都府",
    "city": "京都市伏見区",
    "town": "横大路三栖木下屋敷町"
  },
  "6128235": {
    "zipcode": "6128235",
    "prefectureCode": "26",
    "prefectureNumber": 26,
    "prefecture": "京都府",
    "city": "京都市伏見区",
    "town": "横大路下三栖東ノ口"
  },
  "6128236": {
    "zipcode": "6128236",
    "prefectureCode": "26",
    "prefectureNumber": 26,
    "prefecture": "京都府",
    "city": "京都市伏見区",
    "town": "横大路下三栖里ノ内"
  },
  "6128237": {
    "zipcode": "6128237",
    "prefectureCode": "26",
    "prefectureNumber": 26,
    "prefecture": "京都府",
    "city": "京都市伏見区",
    "town": "横大路三栖池田屋敷町"
  },
  "6128238": {
    "zipcode": "6128238",
    "prefectureCode": "26",
    "prefectureNumber": 26,
    "prefecture": "京都府",
    "city": "京都市伏見区",
    "town": "横大路下三栖山殿"
  },
  "6128239": {
    "zipcode": "6128239",
    "prefectureCode": "26",
    "prefectureNumber": 26,
    "prefecture": "京都府",
    "city": "京都市伏見区",
    "town": "横大路三栖泥町跡町"
  },
  "6128241": {
    "zipcode": "6128241",
    "prefectureCode": "26",
    "prefectureNumber": 26,
    "prefecture": "京都府",
    "city": "京都市伏見区",
    "town": "横大路下三栖辻堂町"
  },
  "6128242": {
    "zipcode": "6128242",
    "prefectureCode": "26",
    "prefectureNumber": 26,
    "prefecture": "京都府",
    "city": "京都市伏見区",
    "town": "横大路下三栖梶原町"
  },
  "6128243": {
    "zipcode": "6128243",
    "prefectureCode": "26",
    "prefectureNumber": 26,
    "prefecture": "京都府",
    "city": "京都市伏見区",
    "town": "横大路下三栖城ノ前町"
  },
  "6128244": {
    "zipcode": "6128244",
    "prefectureCode": "26",
    "prefectureNumber": 26,
    "prefecture": "京都府",
    "city": "京都市伏見区",
    "town": "横大路千両松町"
  },
  "6128245": {
    "zipcode": "6128245",
    "prefectureCode": "26",
    "prefectureNumber": 26,
    "prefecture": "京都府",
    "city": "京都市伏見区",
    "town": "横大路下三栖宮ノ後"
  },
  "6128246": {
    "zipcode": "6128246",
    "prefectureCode": "26",
    "prefectureNumber": 26,
    "prefecture": "京都府",
    "city": "京都市伏見区",
    "town": "横大路芝生"
  },
  "6128247": {
    "zipcode": "6128247",
    "prefectureCode": "26",
    "prefectureNumber": 26,
    "prefecture": "京都府",
    "city": "京都市伏見区",
    "town": "横大路下三栖南郷"
  },
  "6128248": {
    "zipcode": "6128248",
    "prefectureCode": "26",
    "prefectureNumber": 26,
    "prefecture": "京都府",
    "city": "京都市伏見区",
    "town": "下鳥羽上三栖町"
  },
  "6128249": {
    "zipcode": "6128249",
    "prefectureCode": "26",
    "prefectureNumber": 26,
    "prefecture": "京都府",
    "city": "京都市伏見区",
    "town": "横大路沼"
  },
  "6128251": {
    "zipcode": "6128251",
    "prefectureCode": "26",
    "prefectureNumber": 26,
    "prefecture": "京都府",
    "city": "京都市伏見区",
    "town": "横大路菅本"
  },
  "6128252": {
    "zipcode": "6128252",
    "prefectureCode": "26",
    "prefectureNumber": 26,
    "prefecture": "京都府",
    "city": "京都市伏見区",
    "town": "横大路一本木"
  },
  "6128253": {
    "zipcode": "6128253",
    "prefectureCode": "26",
    "prefectureNumber": 26,
    "prefecture": "京都府",
    "city": "京都市伏見区",
    "town": "横大路八反田"
  },
  "6128254": {
    "zipcode": "6128254",
    "prefectureCode": "26",
    "prefectureNumber": 26,
    "prefecture": "京都府",
    "city": "京都市伏見区",
    "town": "横大路北ノ口町"
  },
  "6128255": {
    "zipcode": "6128255",
    "prefectureCode": "26",
    "prefectureNumber": 26,
    "prefecture": "京都府",
    "city": "京都市伏見区",
    "town": "横大路六反畑"
  },
  "6128256": {
    "zipcode": "6128256",
    "prefectureCode": "26",
    "prefectureNumber": 26,
    "prefecture": "京都府",
    "city": "京都市伏見区",
    "town": "横大路前川町"
  },
  "6128257": {
    "zipcode": "6128257",
    "prefectureCode": "26",
    "prefectureNumber": 26,
    "prefecture": "京都府",
    "city": "京都市伏見区",
    "town": "横大路富ノ森町"
  },
  "6128261": {
    "zipcode": "6128261",
    "prefectureCode": "26",
    "prefectureNumber": 26,
    "prefecture": "京都府",
    "city": "京都市伏見区",
    "town": "横大路西海道"
  },
  "6128262": {
    "zipcode": "6128262",
    "prefectureCode": "26",
    "prefectureNumber": 26,
    "prefecture": "京都府",
    "city": "京都市伏見区",
    "town": "横大路神宮寺"
  },
  "6128263": {
    "zipcode": "6128263",
    "prefectureCode": "26",
    "prefectureNumber": 26,
    "prefecture": "京都府",
    "city": "京都市伏見区",
    "town": "横大路下ノ坪"
  },
  "6128264": {
    "zipcode": "6128264",
    "prefectureCode": "26",
    "prefectureNumber": 26,
    "prefecture": "京都府",
    "city": "京都市伏見区",
    "town": "横大路松林"
  },
  "6128265": {
    "zipcode": "6128265",
    "prefectureCode": "26",
    "prefectureNumber": 26,
    "prefecture": "京都府",
    "city": "京都市伏見区",
    "town": "葭島渡場島町"
  },
  "6128266": {
    "zipcode": "6128266",
    "prefectureCode": "26",
    "prefectureNumber": 26,
    "prefecture": "京都府",
    "city": "京都市伏見区",
    "town": "向島又兵衛"
  },
  "6128267": {
    "zipcode": "6128267",
    "prefectureCode": "26",
    "prefectureNumber": 26,
    "prefecture": "京都府",
    "city": "京都市伏見区",
    "town": "納所下野"
  },
  "6128268": {
    "zipcode": "6128268",
    "prefectureCode": "26",
    "prefectureNumber": 26,
    "prefecture": "京都府",
    "city": "京都市伏見区",
    "town": "納所大野"
  },
  "6128271": {
    "zipcode": "6128271",
    "prefectureCode": "26",
    "prefectureNumber": 26,
    "prefecture": "京都府",
    "city": "京都市伏見区",
    "town": "納所岸ノ下"
  },
  "6128272": {
    "zipcode": "6128272",
    "prefectureCode": "26",
    "prefectureNumber": 26,
    "prefecture": "京都府",
    "city": "京都市伏見区",
    "town": "納所中河原"
  },
  "6128273": {
    "zipcode": "6128273",
    "prefectureCode": "26",
    "prefectureNumber": 26,
    "prefecture": "京都府",
    "city": "京都市伏見区",
    "town": "納所和泉屋"
  },
  "6128274": {
    "zipcode": "6128274",
    "prefectureCode": "26",
    "prefectureNumber": 26,
    "prefecture": "京都府",
    "city": "京都市伏見区",
    "town": "納所星柳"
  },
  "6128275": {
    "zipcode": "6128275",
    "prefectureCode": "26",
    "prefectureNumber": 26,
    "prefecture": "京都府",
    "city": "京都市伏見区",
    "town": "納所町"
  },
  "6128276": {
    "zipcode": "6128276",
    "prefectureCode": "26",
    "prefectureNumber": 26,
    "prefecture": "京都府",
    "city": "京都市伏見区",
    "town": "納所薬師堂"
  },
  "6128277": {
    "zipcode": "6128277",
    "prefectureCode": "26",
    "prefectureNumber": 26,
    "prefecture": "京都府",
    "city": "京都市伏見区",
    "town": "納所妙徳寺"
  },
  "6128278": {
    "zipcode": "6128278",
    "prefectureCode": "26",
    "prefectureNumber": 26,
    "prefecture": "京都府",
    "city": "京都市伏見区",
    "town": "納所南城堀"
  },
  "6128279": {
    "zipcode": "6128279",
    "prefectureCode": "26",
    "prefectureNumber": 26,
    "prefecture": "京都府",
    "city": "京都市伏見区",
    "town": "納所北城堀"
  },
  "6128281": {
    "zipcode": "6128281",
    "prefectureCode": "26",
    "prefectureNumber": 26,
    "prefecture": "京都府",
    "city": "京都市伏見区",
    "town": "横大路上ノ浜町"
  },
  "6128282": {
    "zipcode": "6128282",
    "prefectureCode": "26",
    "prefectureNumber": 26,
    "prefecture": "京都府",
    "city": "京都市伏見区",
    "town": "横大路畑中町"
  },
  "6128283": {
    "zipcode": "6128283",
    "prefectureCode": "26",
    "prefectureNumber": 26,
    "prefecture": "京都府",
    "city": "京都市伏見区",
    "town": "横大路向ヒ"
  },
  "6128284": {
    "zipcode": "6128284",
    "prefectureCode": "26",
    "prefectureNumber": 26,
    "prefecture": "京都府",
    "city": "京都市伏見区",
    "town": "横大路畔ノ内"
  },
  "6128285": {
    "zipcode": "6128285",
    "prefectureCode": "26",
    "prefectureNumber": 26,
    "prefecture": "京都府",
    "city": "京都市伏見区",
    "town": "横大路龍ケ池"
  },
  "6128286": {
    "zipcode": "6128286",
    "prefectureCode": "26",
    "prefectureNumber": 26,
    "prefecture": "京都府",
    "city": "京都市伏見区",
    "town": "横大路長畑町"
  },
  "6128287": {
    "zipcode": "6128287",
    "prefectureCode": "26",
    "prefectureNumber": 26,
    "prefecture": "京都府",
    "city": "京都市伏見区",
    "town": "横大路中ノ島町"
  },
  "6128291": {
    "zipcode": "6128291",
    "prefectureCode": "26",
    "prefectureNumber": 26,
    "prefecture": "京都府",
    "city": "京都市伏見区",
    "town": "横大路天王後"
  },
  "6128292": {
    "zipcode": "6128292",
    "prefectureCode": "26",
    "prefectureNumber": 26,
    "prefecture": "京都府",
    "city": "京都市伏見区",
    "town": "横大路朱雀"
  },
  "6128293": {
    "zipcode": "6128293",
    "prefectureCode": "26",
    "prefectureNumber": 26,
    "prefecture": "京都府",
    "city": "京都市伏見区",
    "town": "横大路橋本"
  },
  "6128294": {
    "zipcode": "6128294",
    "prefectureCode": "26",
    "prefectureNumber": 26,
    "prefecture": "京都府",
    "city": "京都市伏見区",
    "town": "横大路天王前"
  },
  "6128295": {
    "zipcode": "6128295",
    "prefectureCode": "26",
    "prefectureNumber": 26,
    "prefecture": "京都府",
    "city": "京都市伏見区",
    "town": "横大路鍬ノ本"
  },
  "6128296": {
    "zipcode": "6128296",
    "prefectureCode": "26",
    "prefectureNumber": 26,
    "prefecture": "京都府",
    "city": "京都市伏見区",
    "town": "横大路柿ノ本町"
  },
  "6128297": {
    "zipcode": "6128297",
    "prefectureCode": "26",
    "prefectureNumber": 26,
    "prefecture": "京都府",
    "city": "京都市伏見区",
    "town": "横大路貴船"
  },
  "6128301": {
    "zipcode": "6128301",
    "prefectureCode": "26",
    "prefectureNumber": 26,
    "prefecture": "京都府",
    "city": "京都市伏見区",
    "town": "加賀屋町"
  },
  "6128302": {
    "zipcode": "6128302",
    "prefectureCode": "26",
    "prefectureNumber": 26,
    "prefecture": "京都府",
    "city": "京都市伏見区",
    "town": "雁金町"
  },
  "6128303": {
    "zipcode": "6128303",
    "prefectureCode": "26",
    "prefectureNumber": 26,
    "prefecture": "京都府",
    "city": "京都市伏見区",
    "town": "菱屋町"
  },
  "6128304": {
    "zipcode": "6128304",
    "prefectureCode": "26",
    "prefectureNumber": 26,
    "prefecture": "京都府",
    "city": "京都市伏見区",
    "town": "榎町"
  },
  "6128305": {
    "zipcode": "6128305",
    "prefectureCode": "26",
    "prefectureNumber": 26,
    "prefecture": "京都府",
    "city": "京都市伏見区",
    "town": "上神泉苑町"
  },
  "6128306": {
    "zipcode": "6128306",
    "prefectureCode": "26",
    "prefectureNumber": 26,
    "prefecture": "京都府",
    "city": "京都市伏見区",
    "town": "下神泉苑町"
  },
  "6128307": {
    "zipcode": "6128307",
    "prefectureCode": "26",
    "prefectureNumber": 26,
    "prefecture": "京都府",
    "city": "京都市伏見区",
    "town": "景勝町"
  },
  "6128308": {
    "zipcode": "6128308",
    "prefectureCode": "26",
    "prefectureNumber": 26,
    "prefecture": "京都府",
    "city": "京都市伏見区",
    "town": "鳥羽町"
  },
  "6128311": {
    "zipcode": "6128311",
    "prefectureCode": "26",
    "prefectureNumber": 26,
    "prefecture": "京都府",
    "city": "京都市伏見区",
    "town": "奈良屋町"
  },
  "6128312": {
    "zipcode": "6128312",
    "prefectureCode": "26",
    "prefectureNumber": 26,
    "prefecture": "京都府",
    "city": "京都市伏見区",
    "town": "津知橋町"
  },
  "6128313": {
    "zipcode": "6128313",
    "prefectureCode": "26",
    "prefectureNumber": 26,
    "prefecture": "京都府",
    "city": "京都市伏見区",
    "town": "西鍵屋町"
  },
  "6128314": {
    "zipcode": "6128314",
    "prefectureCode": "26",
    "prefectureNumber": 26,
    "prefecture": "京都府",
    "city": "京都市伏見区",
    "town": "住吉町"
  },
  "6128315": {
    "zipcode": "6128315",
    "prefectureCode": "26",
    "prefectureNumber": 26,
    "prefecture": "京都府",
    "city": "京都市伏見区",
    "town": "中之町"
  },
  "6128316": {
    "zipcode": "6128316",
    "prefectureCode": "26",
    "prefectureNumber": 26,
    "prefecture": "京都府",
    "city": "京都市伏見区",
    "town": "上板橋町"
  },
  "6128317": {
    "zipcode": "6128317",
    "prefectureCode": "26",
    "prefectureNumber": 26,
    "prefecture": "京都府",
    "city": "京都市伏見区",
    "town": "堀詰町"
  },
  "6128318": {
    "zipcode": "6128318",
    "prefectureCode": "26",
    "prefectureNumber": 26,
    "prefecture": "京都府",
    "city": "京都市伏見区",
    "town": "紙子屋町"
  },
  "6128319": {
    "zipcode": "6128319",
    "prefectureCode": "26",
    "prefectureNumber": 26,
    "prefecture": "京都府",
    "city": "京都市伏見区",
    "town": "石屋町"
  },
  "6128321": {
    "zipcode": "6128321",
    "prefectureCode": "26",
    "prefectureNumber": 26,
    "prefecture": "京都府",
    "city": "京都市伏見区",
    "town": "越前町"
  },
  "6128322": {
    "zipcode": "6128322",
    "prefectureCode": "26",
    "prefectureNumber": 26,
    "prefecture": "京都府",
    "city": "京都市伏見区",
    "town": "桝屋町"
  },
  "6128323": {
    "zipcode": "6128323",
    "prefectureCode": "26",
    "prefectureNumber": 26,
    "prefecture": "京都府",
    "city": "京都市伏見区",
    "town": "大和町"
  },
  "6128324": {
    "zipcode": "6128324",
    "prefectureCode": "26",
    "prefectureNumber": 26,
    "prefecture": "京都府",
    "city": "京都市伏見区",
    "town": "小豆屋町"
  },
  "6128325": {
    "zipcode": "6128325",
    "prefectureCode": "26",
    "prefectureNumber": 26,
    "prefecture": "京都府",
    "city": "京都市伏見区",
    "town": "清水町"
  },
  "6128326": {
    "zipcode": "6128326",
    "prefectureCode": "26",
    "prefectureNumber": 26,
    "prefecture": "京都府",
    "city": "京都市伏見区",
    "town": "東朱雀町"
  },
  "6128327": {
    "zipcode": "6128327",
    "prefectureCode": "26",
    "prefectureNumber": 26,
    "prefecture": "京都府",
    "city": "京都市伏見区",
    "town": "西朱雀町"
  },
  "6128328": {
    "zipcode": "6128328",
    "prefectureCode": "26",
    "prefectureNumber": 26,
    "prefecture": "京都府",
    "city": "京都市伏見区",
    "town": "等安町"
  },
  "6128329": {
    "zipcode": "6128329",
    "prefectureCode": "26",
    "prefectureNumber": 26,
    "prefecture": "京都府",
    "city": "京都市伏見区",
    "town": "黒茶屋町"
  },
  "6128331": {
    "zipcode": "6128331",
    "prefectureCode": "26",
    "prefectureNumber": 26,
    "prefecture": "京都府",
    "city": "京都市伏見区",
    "town": "菊屋町"
  },
  "6128332": {
    "zipcode": "6128332",
    "prefectureCode": "26",
    "prefectureNumber": 26,
    "prefecture": "京都府",
    "city": "京都市伏見区",
    "town": "樽屋町"
  },
  "6128333": {
    "zipcode": "6128333",
    "prefectureCode": "26",
    "prefectureNumber": 26,
    "prefecture": "京都府",
    "city": "京都市伏見区",
    "town": "白銀町"
  },
  "6128334": {
    "zipcode": "6128334",
    "prefectureCode": "26",
    "prefectureNumber": 26,
    "prefecture": "京都府",
    "city": "京都市伏見区",
    "town": "東大文字町"
  },
  "6128335": {
    "zipcode": "6128335",
    "prefectureCode": "26",
    "prefectureNumber": 26,
    "prefecture": "京都府",
    "city": "京都市伏見区",
    "town": "海老屋町"
  },
  "6128336": {
    "zipcode": "6128336",
    "prefectureCode": "26",
    "prefectureNumber": 26,
    "prefecture": "京都府",
    "city": "京都市伏見区",
    "town": "東大黒町"
  },
  "6128337": {
    "zipcode": "6128337",
    "prefectureCode": "26",
    "prefectureNumber": 26,
    "prefecture": "京都府",
    "city": "京都市伏見区",
    "town": "西大黒町"
  },
  "6128338": {
    "zipcode": "6128338",
    "prefectureCode": "26",
    "prefectureNumber": 26,
    "prefecture": "京都府",
    "city": "京都市伏見区",
    "town": "舞台町"
  },
  "6128341": {
    "zipcode": "6128341",
    "prefectureCode": "26",
    "prefectureNumber": 26,
    "prefecture": "京都府",
    "city": "京都市伏見区",
    "town": "聚楽町（丁目）"
  },
  "6128342": {
    "zipcode": "6128342",
    "prefectureCode": "26",
    "prefectureNumber": 26,
    "prefecture": "京都府",
    "city": "京都市伏見区",
    "town": "久米町"
  },
  "6128343": {
    "zipcode": "6128343",
    "prefectureCode": "26",
    "prefectureNumber": 26,
    "prefecture": "京都府",
    "city": "京都市伏見区",
    "town": "聚楽町（番地）"
  },
  "6128344": {
    "zipcode": "6128344",
    "prefectureCode": "26",
    "prefectureNumber": 26,
    "prefecture": "京都府",
    "city": "京都市伏見区",
    "town": "大津町"
  },
  "6128345": {
    "zipcode": "6128345",
    "prefectureCode": "26",
    "prefectureNumber": 26,
    "prefecture": "京都府",
    "city": "京都市伏見区",
    "town": "西堺町"
  },
  "6128346": {
    "zipcode": "6128346",
    "prefectureCode": "26",
    "prefectureNumber": 26,
    "prefecture": "京都府",
    "city": "京都市伏見区",
    "town": "松屋町"
  },
  "6128347": {
    "zipcode": "6128347",
    "prefectureCode": "26",
    "prefectureNumber": 26,
    "prefecture": "京都府",
    "city": "京都市伏見区",
    "town": "成町"
  },
  "6128351": {
    "zipcode": "6128351",
    "prefectureCode": "26",
    "prefectureNumber": 26,
    "prefecture": "京都府",
    "city": "京都市伏見区",
    "town": "土橋町"
  },
  "6128352": {
    "zipcode": "6128352",
    "prefectureCode": "26",
    "prefectureNumber": 26,
    "prefecture": "京都府",
    "city": "京都市伏見区",
    "town": "肥後町"
  },
  "6128353": {
    "zipcode": "6128353",
    "prefectureCode": "26",
    "prefectureNumber": 26,
    "prefecture": "京都府",
    "city": "京都市伏見区",
    "town": "東町"
  },
  "6128354": {
    "zipcode": "6128354",
    "prefectureCode": "26",
    "prefectureNumber": 26,
    "prefecture": "京都府",
    "city": "京都市伏見区",
    "town": "西町"
  },
  "6128355": {
    "zipcode": "6128355",
    "prefectureCode": "26",
    "prefectureNumber": 26,
    "prefecture": "京都府",
    "city": "京都市伏見区",
    "town": "東菱屋町"
  },
  "6128356": {
    "zipcode": "6128356",
    "prefectureCode": "26",
    "prefectureNumber": 26,
    "prefecture": "京都府",
    "city": "京都市伏見区",
    "town": "革屋町"
  },
  "6128357": {
    "zipcode": "6128357",
    "prefectureCode": "26",
    "prefectureNumber": 26,
    "prefecture": "京都府",
    "city": "京都市伏見区",
    "town": "帯屋町"
  },
  "6128358": {
    "zipcode": "6128358",
    "prefectureCode": "26",
    "prefectureNumber": 26,
    "prefecture": "京都府",
    "city": "京都市伏見区",
    "town": "西尼崎町"
  },
  "6128359": {
    "zipcode": "6128359",
    "prefectureCode": "26",
    "prefectureNumber": 26,
    "prefecture": "京都府",
    "city": "京都市伏見区",
    "town": "問屋町"
  },
  "6128361": {
    "zipcode": "6128361",
    "prefectureCode": "26",
    "prefectureNumber": 26,
    "prefecture": "京都府",
    "city": "京都市伏見区",
    "town": "片原町"
  },
  "6128362": {
    "zipcode": "6128362",
    "prefectureCode": "26",
    "prefectureNumber": 26,
    "prefecture": "京都府",
    "city": "京都市伏見区",
    "town": "西大手町"
  },
  "6128363": {
    "zipcode": "6128363",
    "prefectureCode": "26",
    "prefectureNumber": 26,
    "prefecture": "京都府",
    "city": "京都市伏見区",
    "town": "納屋町"
  },
  "6128364": {
    "zipcode": "6128364",
    "prefectureCode": "26",
    "prefectureNumber": 26,
    "prefecture": "京都府",
    "city": "京都市伏見区",
    "town": "下油掛町"
  },
  "6128365": {
    "zipcode": "6128365",
    "prefectureCode": "26",
    "prefectureNumber": 26,
    "prefecture": "京都府",
    "city": "京都市伏見区",
    "town": "車町"
  },
  "6128366": {
    "zipcode": "6128366",
    "prefectureCode": "26",
    "prefectureNumber": 26,
    "prefecture": "京都府",
    "city": "京都市伏見区",
    "town": "京橋町"
  },
  "6128367": {
    "zipcode": "6128367",
    "prefectureCode": "26",
    "prefectureNumber": 26,
    "prefecture": "京都府",
    "city": "京都市伏見区",
    "town": "山崎町"
  },
  "6128368": {
    "zipcode": "6128368",
    "prefectureCode": "26",
    "prefectureNumber": 26,
    "prefecture": "京都府",
    "city": "京都市伏見区",
    "town": "周防町"
  },
  "6128369": {
    "zipcode": "6128369",
    "prefectureCode": "26",
    "prefectureNumber": 26,
    "prefecture": "京都府",
    "city": "京都市伏見区",
    "town": "村上町"
  },
  "6128371": {
    "zipcode": "6128371",
    "prefectureCode": "26",
    "prefectureNumber": 26,
    "prefecture": "京都府",
    "city": "京都市伏見区",
    "town": "竹田松林町"
  },
  "6128372": {
    "zipcode": "6128372",
    "prefectureCode": "26",
    "prefectureNumber": 26,
    "prefecture": "京都府",
    "city": "京都市伏見区",
    "town": "北端町"
  },
  "6128373": {
    "zipcode": "6128373",
    "prefectureCode": "26",
    "prefectureNumber": 26,
    "prefecture": "京都府",
    "city": "京都市伏見区",
    "town": "毛利町"
  },
  "6128374": {
    "zipcode": "6128374",
    "prefectureCode": "26",
    "prefectureNumber": 26,
    "prefecture": "京都府",
    "city": "京都市伏見区",
    "town": "治部町"
  },
  "6128375": {
    "zipcode": "6128375",
    "prefectureCode": "26",
    "prefectureNumber": 26,
    "prefecture": "京都府",
    "city": "京都市伏見区",
    "town": "川東町"
  },
  "6128376": {
    "zipcode": "6128376",
    "prefectureCode": "26",
    "prefectureNumber": 26,
    "prefecture": "京都府",
    "city": "京都市伏見区",
    "town": "西大文字町"
  },
  "6128377": {
    "zipcode": "6128377",
    "prefectureCode": "26",
    "prefectureNumber": 26,
    "prefecture": "京都府",
    "city": "京都市伏見区",
    "town": "島津町"
  },
  "6128379": {
    "zipcode": "6128379",
    "prefectureCode": "26",
    "prefectureNumber": 26,
    "prefecture": "京都府",
    "city": "京都市伏見区",
    "town": "南寝小屋町"
  },
  "6128381": {
    "zipcode": "6128381",
    "prefectureCode": "26",
    "prefectureNumber": 26,
    "prefecture": "京都府",
    "city": "京都市伏見区",
    "town": "下鳥羽葭田町"
  },
  "6128384": {
    "zipcode": "6128384",
    "prefectureCode": "26",
    "prefectureNumber": 26,
    "prefecture": "京都府",
    "city": "京都市伏見区",
    "town": "下鳥羽浄春ケ前町"
  },
  "6128385": {
    "zipcode": "6128385",
    "prefectureCode": "26",
    "prefectureNumber": 26,
    "prefecture": "京都府",
    "city": "京都市伏見区",
    "town": "下鳥羽小柳町"
  },
  "6128386": {
    "zipcode": "6128386",
    "prefectureCode": "26",
    "prefectureNumber": 26,
    "prefecture": "京都府",
    "city": "京都市伏見区",
    "town": "下鳥羽澱女町"
  },
  "6128387": {
    "zipcode": "6128387",
    "prefectureCode": "26",
    "prefectureNumber": 26,
    "prefecture": "京都府",
    "city": "京都市伏見区",
    "town": "下鳥羽平塚町"
  },
  "6128388": {
    "zipcode": "6128388",
    "prefectureCode": "26",
    "prefectureNumber": 26,
    "prefecture": "京都府",
    "city": "京都市伏見区",
    "town": "北寝小屋町"
  },
  "6128391": {
    "zipcode": "6128391",
    "prefectureCode": "26",
    "prefectureNumber": 26,
    "prefecture": "京都府",
    "city": "京都市伏見区",
    "town": "下鳥羽芹川町"
  },
  "6128392": {
    "zipcode": "6128392",
    "prefectureCode": "26",
    "prefectureNumber": 26,
    "prefecture": "京都府",
    "city": "京都市伏見区",
    "town": "下鳥羽北ノ口町"
  },
  "6128393": {
    "zipcode": "6128393",
    "prefectureCode": "26",
    "prefectureNumber": 26,
    "prefecture": "京都府",
    "city": "京都市伏見区",
    "town": "下鳥羽渡瀬町"
  },
  "6128394": {
    "zipcode": "6128394",
    "prefectureCode": "26",
    "prefectureNumber": 26,
    "prefecture": "京都府",
    "city": "京都市伏見区",
    "town": "下鳥羽西芹川町"
  },
  "6128395": {
    "zipcode": "6128395",
    "prefectureCode": "26",
    "prefectureNumber": 26,
    "prefecture": "京都府",
    "city": "京都市伏見区",
    "town": "下鳥羽東芹川町"
  },
  "6128401": {
    "zipcode": "6128401",
    "prefectureCode": "26",
    "prefectureNumber": 26,
    "prefecture": "京都府",
    "city": "京都市伏見区",
    "town": "深草下川原町"
  },
  "6128402": {
    "zipcode": "6128402",
    "prefectureCode": "26",
    "prefectureNumber": 26,
    "prefecture": "京都府",
    "city": "京都市伏見区",
    "town": "深草川久保町"
  },
  "6128403": {
    "zipcode": "6128403",
    "prefectureCode": "26",
    "prefectureNumber": 26,
    "prefecture": "京都府",
    "city": "京都市伏見区",
    "town": "深草ヲカヤ町"
  },
  "6128404": {
    "zipcode": "6128404",
    "prefectureCode": "26",
    "prefectureNumber": 26,
    "prefecture": "京都府",
    "city": "京都市伏見区",
    "town": "深草向川原町"
  },
  "6128405": {
    "zipcode": "6128405",
    "prefectureCode": "26",
    "prefectureNumber": 26,
    "prefecture": "京都府",
    "city": "京都市伏見区",
    "town": "深草勧進橋町"
  },
  "6128411": {
    "zipcode": "6128411",
    "prefectureCode": "26",
    "prefectureNumber": 26,
    "prefecture": "京都府",
    "city": "京都市伏見区",
    "town": "竹田久保町"
  },
  "6128412": {
    "zipcode": "6128412",
    "prefectureCode": "26",
    "prefectureNumber": 26,
    "prefecture": "京都府",
    "city": "京都市伏見区",
    "town": "竹田中川原町"
  },
  "6128413": {
    "zipcode": "6128413",
    "prefectureCode": "26",
    "prefectureNumber": 26,
    "prefecture": "京都府",
    "city": "京都市伏見区",
    "town": "竹田三ツ杭町"
  },
  "6128414": {
    "zipcode": "6128414",
    "prefectureCode": "26",
    "prefectureNumber": 26,
    "prefecture": "京都府",
    "city": "京都市伏見区",
    "town": "竹田段川原町"
  },
  "6128415": {
    "zipcode": "6128415",
    "prefectureCode": "26",
    "prefectureNumber": 26,
    "prefecture": "京都府",
    "city": "京都市伏見区",
    "town": "竹田中島町"
  },
  "6128416": {
    "zipcode": "6128416",
    "prefectureCode": "26",
    "prefectureNumber": 26,
    "prefecture": "京都府",
    "city": "京都市伏見区",
    "town": "竹田流池町"
  },
  "6128417": {
    "zipcode": "6128417",
    "prefectureCode": "26",
    "prefectureNumber": 26,
    "prefecture": "京都府",
    "city": "京都市伏見区",
    "town": "竹田向代町川町"
  },
  "6128418": {
    "zipcode": "6128418",
    "prefectureCode": "26",
    "prefectureNumber": 26,
    "prefecture": "京都府",
    "city": "京都市伏見区",
    "town": "竹田向代町"
  },
  "6128419": {
    "zipcode": "6128419",
    "prefectureCode": "26",
    "prefectureNumber": 26,
    "prefecture": "京都府",
    "city": "京都市伏見区",
    "town": "竹田北三ツ杭町"
  },
  "6128421": {
    "zipcode": "6128421",
    "prefectureCode": "26",
    "prefectureNumber": 26,
    "prefecture": "京都府",
    "city": "京都市伏見区",
    "town": "竹田桶ノ井町"
  },
  "6128422": {
    "zipcode": "6128422",
    "prefectureCode": "26",
    "prefectureNumber": 26,
    "prefecture": "京都府",
    "city": "京都市伏見区",
    "town": "竹田七瀬川町"
  },
  "6128423": {
    "zipcode": "6128423",
    "prefectureCode": "26",
    "prefectureNumber": 26,
    "prefecture": "京都府",
    "city": "京都市伏見区",
    "town": "竹田内畑町"
  },
  "6128425": {
    "zipcode": "6128425",
    "prefectureCode": "26",
    "prefectureNumber": 26,
    "prefecture": "京都府",
    "city": "京都市伏見区",
    "town": "竹田田中殿町"
  },
  "6128426": {
    "zipcode": "6128426",
    "prefectureCode": "26",
    "prefectureNumber": 26,
    "prefecture": "京都府",
    "city": "京都市伏見区",
    "town": "竹田青池町"
  },
  "6128427": {
    "zipcode": "6128427",
    "prefectureCode": "26",
    "prefectureNumber": 26,
    "prefecture": "京都府",
    "city": "京都市伏見区",
    "town": "竹田真幡木町"
  },
  "6128428": {
    "zipcode": "6128428",
    "prefectureCode": "26",
    "prefectureNumber": 26,
    "prefecture": "京都府",
    "city": "京都市伏見区",
    "town": "竹田西桶ノ井町"
  },
  "6128429": {
    "zipcode": "6128429",
    "prefectureCode": "26",
    "prefectureNumber": 26,
    "prefecture": "京都府",
    "city": "京都市伏見区",
    "town": "竹田西段川原町"
  },
  "6128431": {
    "zipcode": "6128431",
    "prefectureCode": "26",
    "prefectureNumber": 26,
    "prefecture": "京都府",
    "city": "京都市伏見区",
    "town": "深草越後屋敷町"
  },
  "6128432": {
    "zipcode": "6128432",
    "prefectureCode": "26",
    "prefectureNumber": 26,
    "prefecture": "京都府",
    "city": "京都市伏見区",
    "town": "深草柴田屋敷町"
  },
  "6128433": {
    "zipcode": "6128433",
    "prefectureCode": "26",
    "prefectureNumber": 26,
    "prefecture": "京都府",
    "city": "京都市伏見区",
    "town": "深草善導寺町"
  },
  "6128434": {
    "zipcode": "6128434",
    "prefectureCode": "26",
    "prefectureNumber": 26,
    "prefecture": "京都府",
    "city": "京都市伏見区",
    "town": "深草加賀屋敷町"
  },
  "6128435": {
    "zipcode": "6128435",
    "prefectureCode": "26",
    "prefectureNumber": 26,
    "prefecture": "京都府",
    "city": "京都市伏見区",
    "town": "深草泓ノ壺町"
  },
  "6128436": {
    "zipcode": "6128436",
    "prefectureCode": "26",
    "prefectureNumber": 26,
    "prefecture": "京都府",
    "city": "京都市伏見区",
    "town": "深草新門丈町"
  },
  "6128437": {
    "zipcode": "6128437",
    "prefectureCode": "26",
    "prefectureNumber": 26,
    "prefecture": "京都府",
    "city": "京都市伏見区",
    "town": "深草小久保町"
  },
  "6128438": {
    "zipcode": "6128438",
    "prefectureCode": "26",
    "prefectureNumber": 26,
    "prefecture": "京都府",
    "city": "京都市伏見区",
    "town": "深草フチ町"
  },
  "6128439": {
    "zipcode": "6128439",
    "prefectureCode": "26",
    "prefectureNumber": 26,
    "prefecture": "京都府",
    "city": "京都市伏見区",
    "town": "深草五反田町"
  },
  "6128441": {
    "zipcode": "6128441",
    "prefectureCode": "26",
    "prefectureNumber": 26,
    "prefecture": "京都府",
    "city": "京都市伏見区",
    "town": "竹田醍醐田町"
  },
  "6128442": {
    "zipcode": "6128442",
    "prefectureCode": "26",
    "prefectureNumber": 26,
    "prefecture": "京都府",
    "city": "京都市伏見区",
    "town": "竹田狩賀町"
  },
  "6128443": {
    "zipcode": "6128443",
    "prefectureCode": "26",
    "prefectureNumber": 26,
    "prefecture": "京都府",
    "city": "京都市伏見区",
    "town": "竹田藁屋町"
  },
  "6128444": {
    "zipcode": "6128444",
    "prefectureCode": "26",
    "prefectureNumber": 26,
    "prefecture": "京都府",
    "city": "京都市伏見区",
    "town": "竹田田中宮町"
  },
  "6128445": {
    "zipcode": "6128445",
    "prefectureCode": "26",
    "prefectureNumber": 26,
    "prefecture": "京都府",
    "city": "京都市伏見区",
    "town": "竹田浄菩提院町"
  },
  "6128446": {
    "zipcode": "6128446",
    "prefectureCode": "26",
    "prefectureNumber": 26,
    "prefecture": "京都府",
    "city": "京都市伏見区",
    "town": "竹田中内畑町"
  },
  "6128447": {
    "zipcode": "6128447",
    "prefectureCode": "26",
    "prefectureNumber": 26,
    "prefecture": "京都府",
    "city": "京都市伏見区",
    "town": "竹田西内畑町"
  },
  "6128448": {
    "zipcode": "6128448",
    "prefectureCode": "26",
    "prefectureNumber": 26,
    "prefecture": "京都府",
    "city": "京都市伏見区",
    "town": "竹田東小屋ノ内町"
  },
  "6128449": {
    "zipcode": "6128449",
    "prefectureCode": "26",
    "prefectureNumber": 26,
    "prefecture": "京都府",
    "city": "京都市伏見区",
    "town": "竹田西小屋ノ内町"
  },
  "6128450": {
    "zipcode": "6128450",
    "prefectureCode": "26",
    "prefectureNumber": 26,
    "prefecture": "京都府",
    "city": "京都市伏見区",
    "town": "竹田鳥羽殿町"
  },
  "6128451": {
    "zipcode": "6128451",
    "prefectureCode": "26",
    "prefectureNumber": 26,
    "prefecture": "京都府",
    "city": "京都市伏見区",
    "town": "中島北ノ口町"
  },
  "6128452": {
    "zipcode": "6128452",
    "prefectureCode": "26",
    "prefectureNumber": 26,
    "prefecture": "京都府",
    "city": "京都市伏見区",
    "town": "中島堀端町"
  },
  "6128454": {
    "zipcode": "6128454",
    "prefectureCode": "26",
    "prefectureNumber": 26,
    "prefecture": "京都府",
    "city": "京都市伏見区",
    "town": "竹田泓ノ川町"
  },
  "6128455": {
    "zipcode": "6128455",
    "prefectureCode": "26",
    "prefectureNumber": 26,
    "prefecture": "京都府",
    "city": "京都市伏見区",
    "town": "中島外山町"
  },
  "6128456": {
    "zipcode": "6128456",
    "prefectureCode": "26",
    "prefectureNumber": 26,
    "prefecture": "京都府",
    "city": "京都市伏見区",
    "town": "中島中道町"
  },
  "6128457": {
    "zipcode": "6128457",
    "prefectureCode": "26",
    "prefectureNumber": 26,
    "prefecture": "京都府",
    "city": "京都市伏見区",
    "town": "中島宮ノ前町"
  },
  "6128459": {
    "zipcode": "6128459",
    "prefectureCode": "26",
    "prefectureNumber": 26,
    "prefecture": "京都府",
    "city": "京都市伏見区",
    "town": "中島鳥羽離宮町"
  },
  "6128461": {
    "zipcode": "6128461",
    "prefectureCode": "26",
    "prefectureNumber": 26,
    "prefecture": "京都府",
    "city": "京都市伏見区",
    "town": "中島流作町"
  },
  "6128462": {
    "zipcode": "6128462",
    "prefectureCode": "26",
    "prefectureNumber": 26,
    "prefecture": "京都府",
    "city": "京都市伏見区",
    "town": "中島秋ノ山町"
  },
  "6128463": {
    "zipcode": "6128463",
    "prefectureCode": "26",
    "prefectureNumber": 26,
    "prefecture": "京都府",
    "city": "京都市伏見区",
    "town": "中島御所ノ内町"
  },
  "6128464": {
    "zipcode": "6128464",
    "prefectureCode": "26",
    "prefectureNumber": 26,
    "prefecture": "京都府",
    "city": "京都市伏見区",
    "town": "中島前山町"
  },
  "6128465": {
    "zipcode": "6128465",
    "prefectureCode": "26",
    "prefectureNumber": 26,
    "prefecture": "京都府",
    "city": "京都市伏見区",
    "town": "中島樋ノ上町"
  },
  "6128466": {
    "zipcode": "6128466",
    "prefectureCode": "26",
    "prefectureNumber": 26,
    "prefecture": "京都府",
    "city": "京都市伏見区",
    "town": "下鳥羽城ノ越町"
  },
  "6128467": {
    "zipcode": "6128467",
    "prefectureCode": "26",
    "prefectureNumber": 26,
    "prefecture": "京都府",
    "city": "京都市伏見区",
    "town": "下鳥羽前田町"
  },
  "6128468": {
    "zipcode": "6128468",
    "prefectureCode": "26",
    "prefectureNumber": 26,
    "prefecture": "京都府",
    "city": "京都市伏見区",
    "town": "下鳥羽上向島町"
  },
  "6128469": {
    "zipcode": "6128469",
    "prefectureCode": "26",
    "prefectureNumber": 26,
    "prefecture": "京都府",
    "city": "京都市伏見区",
    "town": "中島河原田町"
  },
  "6128471": {
    "zipcode": "6128471",
    "prefectureCode": "26",
    "prefectureNumber": 26,
    "prefecture": "京都府",
    "city": "京都市伏見区",
    "town": "下鳥羽長田町"
  },
  "6128473": {
    "zipcode": "6128473",
    "prefectureCode": "26",
    "prefectureNumber": 26,
    "prefecture": "京都府",
    "city": "京都市伏見区",
    "town": "下鳥羽広長町"
  },
  "6128476": {
    "zipcode": "6128476",
    "prefectureCode": "26",
    "prefectureNumber": 26,
    "prefecture": "京都府",
    "city": "京都市伏見区",
    "town": "下鳥羽北三町"
  },
  "6128477": {
    "zipcode": "6128477",
    "prefectureCode": "26",
    "prefectureNumber": 26,
    "prefecture": "京都府",
    "city": "京都市伏見区",
    "town": "下鳥羽中三町"
  },
  "6128478": {
    "zipcode": "6128478",
    "prefectureCode": "26",
    "prefectureNumber": 26,
    "prefecture": "京都府",
    "city": "京都市伏見区",
    "town": "下鳥羽南三町"
  },
  "6128481": {
    "zipcode": "6128481",
    "prefectureCode": "26",
    "prefectureNumber": 26,
    "prefecture": "京都府",
    "city": "京都市伏見区",
    "town": "横大路東裏町"
  },
  "6128482": {
    "zipcode": "6128482",
    "prefectureCode": "26",
    "prefectureNumber": 26,
    "prefecture": "京都府",
    "city": "京都市伏見区",
    "town": "横大路中ノ庄町"
  },
  "6128483": {
    "zipcode": "6128483",
    "prefectureCode": "26",
    "prefectureNumber": 26,
    "prefecture": "京都府",
    "city": "京都市伏見区",
    "town": "横大路草津町"
  },
  "6128484": {
    "zipcode": "6128484",
    "prefectureCode": "26",
    "prefectureNumber": 26,
    "prefecture": "京都府",
    "city": "京都市伏見区",
    "town": "羽束師鴨川町"
  },
  "6128485": {
    "zipcode": "6128485",
    "prefectureCode": "26",
    "prefectureNumber": 26,
    "prefecture": "京都府",
    "city": "京都市伏見区",
    "town": "羽束師志水町"
  },
  "6128486": {
    "zipcode": "6128486",
    "prefectureCode": "26",
    "prefectureNumber": 26,
    "prefecture": "京都府",
    "city": "京都市伏見区",
    "town": "羽束師古川町"
  },
  "6128487": {
    "zipcode": "6128487",
    "prefectureCode": "26",
    "prefectureNumber": 26,
    "prefecture": "京都府",
    "city": "京都市伏見区",
    "town": "羽束師菱川町"
  },
  "6128488": {
    "zipcode": "6128488",
    "prefectureCode": "26",
    "prefectureNumber": 26,
    "prefecture": "京都府",
    "city": "京都市伏見区",
    "town": "下鳥羽東柳長町"
  },
  "6128489": {
    "zipcode": "6128489",
    "prefectureCode": "26",
    "prefectureNumber": 26,
    "prefecture": "京都府",
    "city": "京都市伏見区",
    "town": "下鳥羽西柳長町"
  },
  "6128490": {
    "zipcode": "6128490",
    "prefectureCode": "26",
    "prefectureNumber": 26,
    "prefecture": "京都府",
    "city": "京都市伏見区",
    "town": "下鳥羽南柳長町"
  },
  "6128491": {
    "zipcode": "6128491",
    "prefectureCode": "26",
    "prefectureNumber": 26,
    "prefecture": "京都府",
    "city": "京都市伏見区",
    "town": "久我石原町"
  },
  "6128492": {
    "zipcode": "6128492",
    "prefectureCode": "26",
    "prefectureNumber": 26,
    "prefecture": "京都府",
    "city": "京都市伏見区",
    "town": "久我本町"
  },
  "6128493": {
    "zipcode": "6128493",
    "prefectureCode": "26",
    "prefectureNumber": 26,
    "prefecture": "京都府",
    "city": "京都市伏見区",
    "town": "久我御旅町"
  },
  "6128494": {
    "zipcode": "6128494",
    "prefectureCode": "26",
    "prefectureNumber": 26,
    "prefecture": "京都府",
    "city": "京都市伏見区",
    "town": "久我東町"
  },
  "6128495": {
    "zipcode": "6128495",
    "prefectureCode": "26",
    "prefectureNumber": 26,
    "prefecture": "京都府",
    "city": "京都市伏見区",
    "town": "久我森の宮町"
  },
  "6128496": {
    "zipcode": "6128496",
    "prefectureCode": "26",
    "prefectureNumber": 26,
    "prefecture": "京都府",
    "city": "京都市伏見区",
    "town": "久我西出町"
  },
  "6128497": {
    "zipcode": "6128497",
    "prefectureCode": "26",
    "prefectureNumber": 26,
    "prefecture": "京都府",
    "city": "京都市伏見区",
    "town": "下鳥羽北円面田町"
  },
  "6128498": {
    "zipcode": "6128498",
    "prefectureCode": "26",
    "prefectureNumber": 26,
    "prefecture": "京都府",
    "city": "京都市伏見区",
    "town": "下鳥羽中円面田町"
  },
  "6128499": {
    "zipcode": "6128499",
    "prefectureCode": "26",
    "prefectureNumber": 26,
    "prefecture": "京都府",
    "city": "京都市伏見区",
    "town": "下鳥羽南円面田町"
  }
}
