{
  "6150001": {
    "zipcode": "6150001",
    "prefectureCode": "26",
    "prefectureNumber": 26,
    "prefecture": "京都府",
    "city": "京都市右京区",
    "town": "西院上今田町"
  },
  "6150002": {
    "zipcode": "6150002",
    "prefectureCode": "26",
    "prefectureNumber": 26,
    "prefecture": "京都府",
    "city": "京都市右京区",
    "town": "西院東今田町"
  },
  "6150003": {
    "zipcode": "6150003",
    "prefectureCode": "26",
    "prefectureNumber": 26,
    "prefecture": "京都府",
    "city": "京都市右京区",
    "town": "西院西今田町"
  },
  "6150004": {
    "zipcode": "6150004",
    "prefectureCode": "26",
    "prefectureNumber": 26,
    "prefecture": "京都府",
    "city": "京都市右京区",
    "town": "西院下花田町"
  },
  "6150005": {
    "zipcode": "6150005",
    "prefectureCode": "26",
    "prefectureNumber": 26,
    "prefecture": "京都府",
    "city": "京都市右京区",
    "town": "西院春栄町"
  },
  "6150006": {
    "zipcode": "6150006",
    "prefectureCode": "26",
    "prefectureNumber": 26,
    "prefecture": "京都府",
    "city": "京都市右京区",
    "town": "西院金槌町"
  },
  "6150007": {
    "zipcode": "6150007",
    "prefectureCode": "26",
    "prefectureNumber": 26,
    "prefecture": "京都府",
    "city": "京都市右京区",
    "town": "西院上花田町"
  },
  "6150011": {
    "zipcode": "6150011",
    "prefectureCode": "26",
    "prefectureNumber": 26,
    "prefecture": "京都府",
    "city": "京都市右京区",
    "town": "西院東淳和院町"
  },
  "6150012": {
    "zipcode": "6150012",
    "prefectureCode": "26",
    "prefectureNumber": 26,
    "prefecture": "京都府",
    "city": "京都市右京区",
    "town": "西院高山寺町"
  },
  "6150013": {
    "zipcode": "6150013",
    "prefectureCode": "26",
    "prefectureNumber": 26,
    "prefecture": "京都府",
    "city": "京都市右京区",
    "town": "西院松井町"
  },
  "6150014": {
    "zipcode": "6150014",
    "prefectureCode": "26",
    "prefectureNumber": 26,
    "prefecture": "京都府",
    "city": "京都市右京区",
    "town": "西院巽町"
  },
  "6150015": {
    "zipcode": "6150015",
    "prefectureCode": "26",
    "prefectureNumber": 26,
    "prefecture": "京都府",
    "city": "京都市右京区",
    "town": "西院春日町"
  },
  "6150016": {
    "zipcode": "6150016",
    "prefectureCode": "26",
    "prefectureNumber": 26,
    "prefecture": "京都府",
    "city": "京都市右京区",
    "town": "西院西淳和院町"
  },
  "6150021": {
    "zipcode": "6150021",
    "prefectureCode": "26",
    "prefectureNumber": 26,
    "prefecture": "京都府",
    "city": "京都市右京区",
    "town": "西院三蔵町"
  },
  "6150022": {
    "zipcode": "6150022",
    "prefectureCode": "26",
    "prefectureNumber": 26,
    "prefecture": "京都府",
    "city": "京都市右京区",
    "town": "西院平町"
  },
  "6150023": {
    "zipcode": "6150023",
    "prefectureCode": "26",
    "prefectureNumber": 26,
    "prefecture": "京都府",
    "city": "京都市右京区",
    "town": "西院西平町"
  },
  "6150024": {
    "zipcode": "6150024",
    "prefectureCode": "26",
    "prefectureNumber": 26,
    "prefecture": "京都府",
    "city": "京都市右京区",
    "town": "西院矢掛町"
  },
  "6150025": {
    "zipcode": "6150025",
    "prefectureCode": "26",
    "prefectureNumber": 26,
    "prefecture": "京都府",
    "city": "京都市右京区",
    "town": "西院西矢掛町"
  },
  "6150026": {
    "zipcode": "6150026",
    "prefectureCode": "26",
    "prefectureNumber": 26,
    "prefecture": "京都府",
    "city": "京都市右京区",
    "town": "西院北矢掛町"
  },
  "6150027": {
    "zipcode": "6150027",
    "prefectureCode": "26",
    "prefectureNumber": 26,
    "prefecture": "京都府",
    "city": "京都市右京区",
    "town": "西院西三蔵町"
  },
  "6150031": {
    "zipcode": "6150031",
    "prefectureCode": "26",
    "prefectureNumber": 26,
    "prefecture": "京都府",
    "city": "京都市右京区",
    "town": "西院高田町"
  },
  "6150032": {
    "zipcode": "6150032",
    "prefectureCode": "26",
    "prefectureNumber": 26,
    "prefecture": "京都府",
    "city": "京都市右京区",
    "town": "西院西高田町"
  },
  "6150033": {
    "zipcode": "6150033",
    "prefectureCode": "26",
    "prefectureNumber": 26,
    "prefecture": "京都府",
    "city": "京都市右京区",
    "town": "西院寿町"
  },
  "6150034": {
    "zipcode": "6150034",
    "prefectureCode": "26",
    "prefectureNumber": 26,
    "prefecture": "京都府",
    "city": "京都市右京区",
    "town": "西院西寿町"
  },
  "6150035": {
    "zipcode": "6150035",
    "prefectureCode": "26",
    "prefectureNumber": 26,
    "prefecture": "京都府",
    "city": "京都市右京区",
    "town": "西院追分町"
  },
  "6150036": {
    "zipcode": "6150036",
    "prefectureCode": "26",
    "prefectureNumber": 26,
    "prefecture": "京都府",
    "city": "京都市右京区",
    "town": "西院太田町"
  },
  "6150037": {
    "zipcode": "6150037",
    "prefectureCode": "26",
    "prefectureNumber": 26,
    "prefecture": "京都府",
    "city": "京都市右京区",
    "town": "西院南井御料町"
  },
  "6150041": {
    "zipcode": "6150041",
    "prefectureCode": "26",
    "prefectureNumber": 26,
    "prefecture": "京都府",
    "city": "京都市右京区",
    "town": "西院南高田町"
  },
  "6150042": {
    "zipcode": "6150042",
    "prefectureCode": "26",
    "prefectureNumber": 26,
    "prefecture": "京都府",
    "city": "京都市右京区",
    "town": "西院東中水町"
  },
  "6150043": {
    "zipcode": "6150043",
    "prefectureCode": "26",
    "prefectureNumber": 26,
    "prefecture": "京都府",
    "city": "京都市右京区",
    "town": "西院中水町"
  },
  "6150044": {
    "zipcode": "6150044",
    "prefectureCode": "26",
    "prefectureNumber": 26,
    "prefecture": "京都府",
    "city": "京都市右京区",
    "town": "西院西中水町"
  },
  "6150045": {
    "zipcode": "6150045",
    "prefectureCode": "26",
    "prefectureNumber": 26,
    "prefecture": "京都府",
    "city": "京都市右京区",
    "town": "西院溝崎町"
  },
  "6150046": {
    "zipcode": "6150046",
    "prefectureCode": "26",
    "prefectureNumber": 26,
    "prefecture": "京都府",
    "city": "京都市右京区",
    "town": "西院西溝崎町"
  },
  "6150047": {
    "zipcode": "6150047",
    "prefectureCode": "26",
    "prefectureNumber": 26,
    "prefecture": "京都府",
    "city": "京都市右京区",
    "town": "西院六反田町"
  },
  "6150048": {
    "zipcode": "6150048",
    "prefectureCode": "26",
    "prefectureNumber": 26,
    "prefecture": "京都府",
    "city": "京都市右京区",
    "town": "西院南寿町"
  },
  "6150051": {
    "zipcode": "6150051",
    "prefectureCode": "26",
    "prefectureNumber": 26,
    "prefecture": "京都府",
    "city": "京都市右京区",
    "town": "西院安塚町"
  },
  "6150052": {
    "zipcode": "6150052",
    "prefectureCode": "26",
    "prefectureNumber": 26,
    "prefecture": "京都府",
    "city": "京都市右京区",
    "town": "西院清水町"
  },
  "6150053": {
    "zipcode": "6150053",
    "prefectureCode": "26",
    "prefectureNumber": 26,
    "prefecture": "京都府",
    "city": "京都市右京区",
    "town": "西院久保田町"
  },
  "6150054": {
    "zipcode": "6150054",
    "prefectureCode": "26",
    "prefectureNumber": 26,
    "prefecture": "京都府",
    "city": "京都市右京区",
    "town": "西院月双町"
  },
  "6150055": {
    "zipcode": "6150055",
    "prefectureCode": "26",
    "prefectureNumber": 26,
    "prefecture": "京都府",
    "city": "京都市右京区",
    "town": "西院西田町"
  },
  "6150056": {
    "zipcode": "6150056",
    "prefectureCode": "26",
    "prefectureNumber": 26,
    "prefecture": "京都府",
    "city": "京都市右京区",
    "town": "西院西貝川町"
  },
  "6150057": {
    "zipcode": "6150057",
    "prefectureCode": "26",
    "prefectureNumber": 26,
    "prefecture": "京都府",
    "city": "京都市右京区",
    "town": "西院東貝川町"
  },
  "6150058": {
    "zipcode": "6150058",
    "prefectureCode": "26",
    "prefectureNumber": 26,
    "prefecture": "京都府",
    "city": "京都市右京区",
    "town": "西院笠目町"
  },
  "6150061": {
    "zipcode": "6150061",
    "prefectureCode": "26",
    "prefectureNumber": 26,
    "prefecture": "京都府",
    "city": "京都市右京区",
    "town": "西院乾町"
  },
  "6150062": {
    "zipcode": "6150062",
    "prefectureCode": "26",
    "prefectureNumber": 26,
    "prefecture": "京都府",
    "city": "京都市右京区",
    "town": "西院坤町"
  },
  "6150063": {
    "zipcode": "6150063",
    "prefectureCode": "26",
    "prefectureNumber": 26,
    "prefecture": "京都府",
    "city": "京都市右京区",
    "town": "西院北井御料町"
  },
  "6150064": {
    "zipcode": "6150064",
    "prefectureCode": "26",
    "prefectureNumber": 26,
    "prefecture": "京都府",
    "city": "京都市右京区",
    "town": "西院久田町"
  },
  "6150065": {
    "zipcode": "6150065",
    "prefectureCode": "26",
    "prefectureNumber": 26,
    "prefecture": "京都府",
    "city": "京都市右京区",
    "town": "西院日照町"
  },
  "6150066": {
    "zipcode": "6150066",
    "prefectureCode": "26",
    "prefectureNumber": 26,
    "prefecture": "京都府",
    "city": "京都市右京区",
    "town": "西院四条畑町"
  },
  "6150067": {
    "zipcode": "6150067",
    "prefectureCode": "26",
    "prefectureNumber": 26,
    "prefecture": "京都府",
    "city": "京都市右京区",
    "town": "西院小米町"
  },
  "6150071": {
    "zipcode": "6150071",
    "prefectureCode": "26",
    "prefectureNumber": 26,
    "prefecture": "京都府",
    "city": "京都市右京区",
    "town": "山ノ内西裏町"
  },
  "6150072": {
    "zipcode": "6150072",
    "prefectureCode": "26",
    "prefectureNumber": 26,
    "prefecture": "京都府",
    "city": "京都市右京区",
    "town": "山ノ内池尻町"
  },
  "6150073": {
    "zipcode": "6150073",
    "prefectureCode": "26",
    "prefectureNumber": 26,
    "prefecture": "京都府",
    "city": "京都市右京区",
    "town": "山ノ内荒木町"
  },
  "6150074": {
    "zipcode": "6150074",
    "prefectureCode": "26",
    "prefectureNumber": 26,
    "prefecture": "京都府",
    "city": "京都市右京区",
    "town": "山ノ内苗町"
  },
  "6150081": {
    "zipcode": "6150081",
    "prefectureCode": "26",
    "prefectureNumber": 26,
    "prefecture": "京都府",
    "city": "京都市右京区",
    "town": "山ノ内養老町"
  },
  "6150082": {
    "zipcode": "6150082",
    "prefectureCode": "26",
    "prefectureNumber": 26,
    "prefecture": "京都府",
    "city": "京都市右京区",
    "town": "山ノ内赤山町"
  },
  "6150083": {
    "zipcode": "6150083",
    "prefectureCode": "26",
    "prefectureNumber": 26,
    "prefecture": "京都府",
    "city": "京都市右京区",
    "town": "山ノ内瀬戸畑町"
  },
  "6150084": {
    "zipcode": "6150084",
    "prefectureCode": "26",
    "prefectureNumber": 26,
    "prefecture": "京都府",
    "city": "京都市右京区",
    "town": "山ノ内山ノ下町"
  },
  "6150085": {
    "zipcode": "6150085",
    "prefectureCode": "26",
    "prefectureNumber": 26,
    "prefecture": "京都府",
    "city": "京都市右京区",
    "town": "山ノ内中畑町"
  },
  "6150091": {
    "zipcode": "6150091",
    "prefectureCode": "26",
    "prefectureNumber": 26,
    "prefecture": "京都府",
    "city": "京都市右京区",
    "town": "山ノ内御堂殿町"
  },
  "6150092": {
    "zipcode": "6150092",
    "prefectureCode": "26",
    "prefectureNumber": 26,
    "prefecture": "京都府",
    "city": "京都市右京区",
    "town": "山ノ内宮脇町"
  },
  "6150093": {
    "zipcode": "6150093",
    "prefectureCode": "26",
    "prefectureNumber": 26,
    "prefecture": "京都府",
    "city": "京都市右京区",
    "town": "山ノ内宮前町"
  },
  "6150094": {
    "zipcode": "6150094",
    "prefectureCode": "26",
    "prefectureNumber": 26,
    "prefecture": "京都府",
    "city": "京都市右京区",
    "town": "山ノ内北ノ口町"
  },
  "6150095": {
    "zipcode": "6150095",
    "prefectureCode": "26",
    "prefectureNumber": 26,
    "prefecture": "京都府",
    "city": "京都市右京区",
    "town": "山ノ内西八反田町"
  },
  "6150096": {
    "zipcode": "6150096",
    "prefectureCode": "26",
    "prefectureNumber": 26,
    "prefecture": "京都府",
    "city": "京都市右京区",
    "town": "山ノ内五反田町"
  },
  "6150097": {
    "zipcode": "6150097",
    "prefectureCode": "26",
    "prefectureNumber": 26,
    "prefecture": "京都府",
    "city": "京都市右京区",
    "town": "山ノ内大町"
  },
  "6150801": {
    "zipcode": "6150801",
    "prefectureCode": "26",
    "prefectureNumber": 26,
    "prefecture": "京都府",
    "city": "京都市右京区",
    "town": "西京極豆田町"
  },
  "6150802": {
    "zipcode": "6150802",
    "prefectureCode": "26",
    "prefectureNumber": 26,
    "prefecture": "京都府",
    "city": "京都市右京区",
    "town": "西京極北庄境町"
  },
  "6150803": {
    "zipcode": "6150803",
    "prefectureCode": "26",
    "prefectureNumber": 26,
    "prefecture": "京都府",
    "city": "京都市右京区",
    "town": "西京極南庄境町"
  },
  "6150804": {
    "zipcode": "6150804",
    "prefectureCode": "26",
    "prefectureNumber": 26,
    "prefecture": "京都府",
    "city": "京都市右京区",
    "town": "西京極町ノ坪町"
  },
  "6150805": {
    "zipcode": "6150805",
    "prefectureCode": "26",
    "prefectureNumber": 26,
    "prefecture": "京都府",
    "city": "京都市右京区",
    "town": "西京極東池田町"
  },
  "6150806": {
    "zipcode": "6150806",
    "prefectureCode": "26",
    "prefectureNumber": 26,
    "prefecture": "京都府",
    "city": "京都市右京区",
    "town": "西京極畔勝町"
  },
  "6150807": {
    "zipcode": "6150807",
    "prefectureCode": "26",
    "prefectureNumber": 26,
    "prefecture": "京都府",
    "city": "京都市右京区",
    "town": "西京極東大丸町"
  },
  "6150811": {
    "zipcode": "6150811",
    "prefectureCode": "26",
    "prefectureNumber": 26,
    "prefecture": "京都府",
    "city": "京都市右京区",
    "town": "西京極中溝町"
  },
  "6150812": {
    "zipcode": "6150812",
    "prefectureCode": "26",
    "prefectureNumber": 26,
    "prefecture": "京都府",
    "city": "京都市右京区",
    "town": "西京極大門町"
  },
  "6150813": {
    "zipcode": "6150813",
    "prefectureCode": "26",
    "prefectureNumber": 26,
    "prefecture": "京都府",
    "city": "京都市右京区",
    "town": "西京極佃田町"
  },
  "6150814": {
    "zipcode": "6150814",
    "prefectureCode": "26",
    "prefectureNumber": 26,
    "prefecture": "京都府",
    "city": "京都市右京区",
    "town": "西京極下沢町"
  },
  "6150815": {
    "zipcode": "6150815",
    "prefectureCode": "26",
    "prefectureNumber": 26,
    "prefecture": "京都府",
    "city": "京都市右京区",
    "town": "西京極中沢町"
  },
  "6150816": {
    "zipcode": "6150816",
    "prefectureCode": "26",
    "prefectureNumber": 26,
    "prefecture": "京都府",
    "city": "京都市右京区",
    "town": "西京極東町"
  },
  "6150817": {
    "zipcode": "6150817",
    "prefectureCode": "26",
    "prefectureNumber": 26,
    "prefecture": "京都府",
    "city": "京都市右京区",
    "town": "西京極宮ノ東町"
  },
  "6150818": {
    "zipcode": "6150818",
    "prefectureCode": "26",
    "prefectureNumber": 26,
    "prefecture": "京都府",
    "city": "京都市右京区",
    "town": "西京極三反田町"
  },
  "6150821": {
    "zipcode": "6150821",
    "prefectureCode": "26",
    "prefectureNumber": 26,
    "prefecture": "京都府",
    "city": "京都市右京区",
    "town": "西京極北裏町"
  },
  "6150822": {
    "zipcode": "6150822",
    "prefectureCode": "26",
    "prefectureNumber": 26,
    "prefecture": "京都府",
    "city": "京都市右京区",
    "town": "西京極中町"
  },
  "6150823": {
    "zipcode": "6150823",
    "prefectureCode": "26",
    "prefectureNumber": 26,
    "prefecture": "京都府",
    "city": "京都市右京区",
    "town": "西京極前田町"
  },
  "6150824": {
    "zipcode": "6150824",
    "prefectureCode": "26",
    "prefectureNumber": 26,
    "prefecture": "京都府",
    "city": "京都市右京区",
    "town": "西京極畑田町"
  },
  "6150825": {
    "zipcode": "6150825",
    "prefectureCode": "26",
    "prefectureNumber": 26,
    "prefecture": "京都府",
    "city": "京都市右京区",
    "town": "西京極東向河原町"
  },
  "6150826": {
    "zipcode": "6150826",
    "prefectureCode": "26",
    "prefectureNumber": 26,
    "prefecture": "京都府",
    "city": "京都市右京区",
    "town": "西京極芝ノ下町"
  },
  "6150827": {
    "zipcode": "6150827",
    "prefectureCode": "26",
    "prefectureNumber": 26,
    "prefecture": "京都府",
    "city": "京都市右京区",
    "town": "西京極南方町"
  },
  "6150831": {
    "zipcode": "6150831",
    "prefectureCode": "26",
    "prefectureNumber": 26,
    "prefecture": "京都府",
    "city": "京都市右京区",
    "town": "西京極長町"
  },
  "6150832": {
    "zipcode": "6150832",
    "prefectureCode": "26",
    "prefectureNumber": 26,
    "prefecture": "京都府",
    "city": "京都市右京区",
    "town": "西京極走上リ町"
  },
  "6150833": {
    "zipcode": "6150833",
    "prefectureCode": "26",
    "prefectureNumber": 26,
    "prefecture": "京都府",
    "city": "京都市右京区",
    "town": "西京極橋詰町"
  },
  "6150834": {
    "zipcode": "6150834",
    "prefectureCode": "26",
    "prefectureNumber": 26,
    "prefecture": "京都府",
    "city": "京都市右京区",
    "town": "西京極殿田町"
  },
  "6150835": {
    "zipcode": "6150835",
    "prefectureCode": "26",
    "prefectureNumber": 26,
    "prefecture": "京都府",
    "city": "京都市右京区",
    "town": "西京極堤下町"
  },
  "6150836": {
    "zipcode": "6150836",
    "prefectureCode": "26",
    "prefectureNumber": 26,
    "prefecture": "京都府",
    "city": "京都市右京区",
    "town": "西京極河原町裏町"
  },
  "6150837": {
    "zipcode": "6150837",
    "prefectureCode": "26",
    "prefectureNumber": 26,
    "prefecture": "京都府",
    "city": "京都市右京区",
    "town": "西京極西向河原町"
  },
  "6150838": {
    "zipcode": "6150838",
    "prefectureCode": "26",
    "prefectureNumber": 26,
    "prefecture": "京都府",
    "city": "京都市右京区",
    "town": "西京極薮ノ下町"
  },
  "6150841": {
    "zipcode": "6150841",
    "prefectureCode": "26",
    "prefectureNumber": 26,
    "prefecture": "京都府",
    "city": "京都市右京区",
    "town": "西京極火打畑町"
  },
  "6150842": {
    "zipcode": "6150842",
    "prefectureCode": "26",
    "prefectureNumber": 26,
    "prefecture": "京都府",
    "city": "京都市右京区",
    "town": "西京極薮開町"
  },
  "6150843": {
    "zipcode": "6150843",
    "prefectureCode": "26",
    "prefectureNumber": 26,
    "prefecture": "京都府",
    "city": "京都市右京区",
    "town": "西京極河原町"
  },
  "6150844": {
    "zipcode": "6150844",
    "prefectureCode": "26",
    "prefectureNumber": 26,
    "prefecture": "京都府",
    "city": "京都市右京区",
    "town": "西京極東側町"
  },
  "6150845": {
    "zipcode": "6150845",
    "prefectureCode": "26",
    "prefectureNumber": 26,
    "prefecture": "京都府",
    "city": "京都市右京区",
    "town": "西京極末広町"
  },
  "6150846": {
    "zipcode": "6150846",
    "prefectureCode": "26",
    "prefectureNumber": 26,
    "prefecture": "京都府",
    "city": "京都市右京区",
    "town": "西京極徳大寺団子田町"
  },
  "6150851": {
    "zipcode": "6150851",
    "prefectureCode": "26",
    "prefectureNumber": 26,
    "prefecture": "京都府",
    "city": "京都市右京区",
    "town": "西京極西池田町"
  },
  "6150852": {
    "zipcode": "6150852",
    "prefectureCode": "26",
    "prefectureNumber": 26,
    "prefecture": "京都府",
    "city": "京都市右京区",
    "town": "西京極西川町"
  },
  "6150853": {
    "zipcode": "6150853",
    "prefectureCode": "26",
    "prefectureNumber": 26,
    "prefecture": "京都府",
    "city": "京都市右京区",
    "town": "西京極郡醍醐田町"
  },
  "6150854": {
    "zipcode": "6150854",
    "prefectureCode": "26",
    "prefectureNumber": 26,
    "prefecture": "京都府",
    "city": "京都市右京区",
    "town": "西京極堤外町"
  },
  "6150855": {
    "zipcode": "6150855",
    "prefectureCode": "26",
    "prefectureNumber": 26,
    "prefecture": "京都府",
    "city": "京都市右京区",
    "town": "西京極西団子田町"
  },
  "6150856": {
    "zipcode": "6150856",
    "prefectureCode": "26",
    "prefectureNumber": 26,
    "prefecture": "京都府",
    "city": "京都市右京区",
    "town": "西京極古浜町"
  },
  "6150857": {
    "zipcode": "6150857",
    "prefectureCode": "26",
    "prefectureNumber": 26,
    "prefecture": "京都府",
    "city": "京都市右京区",
    "town": "西京極郡猪馬場町"
  },
  "6150858": {
    "zipcode": "6150858",
    "prefectureCode": "26",
    "prefectureNumber": 26,
    "prefecture": "京都府",
    "city": "京都市右京区",
    "town": "西京極郡沢町"
  },
  "6150861": {
    "zipcode": "6150861",
    "prefectureCode": "26",
    "prefectureNumber": 26,
    "prefecture": "京都府",
    "city": "京都市右京区",
    "town": "西京極野田町"
  },
  "6150862": {
    "zipcode": "6150862",
    "prefectureCode": "26",
    "prefectureNumber": 26,
    "prefecture": "京都府",
    "city": "京都市右京区",
    "town": "西京極西大丸町"
  },
  "6150863": {
    "zipcode": "6150863",
    "prefectureCode": "26",
    "prefectureNumber": 26,
    "prefecture": "京都府",
    "city": "京都市右京区",
    "town": "西京極堤町"
  },
  "6150864": {
    "zipcode": "6150864",
    "prefectureCode": "26",
    "prefectureNumber": 26,
    "prefecture": "京都府",
    "city": "京都市右京区",
    "town": "西京極新明町"
  },
  "6150871": {
    "zipcode": "6150871",
    "prefectureCode": "26",
    "prefectureNumber": 26,
    "prefecture": "京都府",
    "city": "京都市右京区",
    "town": "西京極東衣手町"
  },
  "6150872": {
    "zipcode": "6150872",
    "prefectureCode": "26",
    "prefectureNumber": 26,
    "prefecture": "京都府",
    "city": "京都市右京区",
    "town": "西京極南衣手町"
  },
  "6150873": {
    "zipcode": "6150873",
    "prefectureCode": "26",
    "prefectureNumber": 26,
    "prefecture": "京都府",
    "city": "京都市右京区",
    "town": "西京極浜ノ本町"
  },
  "6150874": {
    "zipcode": "6150874",
    "prefectureCode": "26",
    "prefectureNumber": 26,
    "prefecture": "京都府",
    "city": "京都市右京区",
    "town": "西京極新田町"
  },
  "6150875": {
    "zipcode": "6150875",
    "prefectureCode": "26",
    "prefectureNumber": 26,
    "prefecture": "京都府",
    "city": "京都市右京区",
    "town": "西京極徳大寺西団子田町"
  },
  "6150876": {
    "zipcode": "6150876",
    "prefectureCode": "26",
    "prefectureNumber": 26,
    "prefecture": "京都府",
    "city": "京都市右京区",
    "town": "西京極郡附洲町"
  },
  "6150877": {
    "zipcode": "6150877",
    "prefectureCode": "26",
    "prefectureNumber": 26,
    "prefecture": "京都府",
    "city": "京都市右京区",
    "town": "西京極西衣手町"
  },
  "6150878": {
    "zipcode": "6150878",
    "prefectureCode": "26",
    "prefectureNumber": 26,
    "prefecture": "京都府",
    "city": "京都市右京区",
    "town": "西京極北衣手町"
  },
  "6150881": {
    "zipcode": "6150881",
    "prefectureCode": "26",
    "prefectureNumber": 26,
    "prefecture": "京都府",
    "city": "京都市右京区",
    "town": "西京極北大入町"
  },
  "6150882": {
    "zipcode": "6150882",
    "prefectureCode": "26",
    "prefectureNumber": 26,
    "prefecture": "京都府",
    "city": "京都市右京区",
    "town": "西京極葛野町"
  },
  "6150883": {
    "zipcode": "6150883",
    "prefectureCode": "26",
    "prefectureNumber": 26,
    "prefecture": "京都府",
    "city": "京都市右京区",
    "town": "西京極南大入町"
  },
  "6150884": {
    "zipcode": "6150884",
    "prefectureCode": "26",
    "prefectureNumber": 26,
    "prefecture": "京都府",
    "city": "京都市右京区",
    "town": "西京極郡町"
  },
  "6150885": {
    "zipcode": "6150885",
    "prefectureCode": "26",
    "prefectureNumber": 26,
    "prefecture": "京都府",
    "city": "京都市右京区",
    "town": "西京極午塚町"
  },
  "6150901": {
    "zipcode": "6150901",
    "prefectureCode": "26",
    "prefectureNumber": 26,
    "prefecture": "京都府",
    "city": "京都市右京区",
    "town": "梅津南広町"
  },
  "6150902": {
    "zipcode": "6150902",
    "prefectureCode": "26",
    "prefectureNumber": 26,
    "prefecture": "京都府",
    "city": "京都市右京区",
    "town": "梅津神田町"
  },
  "6150903": {
    "zipcode": "6150903",
    "prefectureCode": "26",
    "prefectureNumber": 26,
    "prefecture": "京都府",
    "city": "京都市右京区",
    "town": "梅津堤下町"
  },
  "6150904": {
    "zipcode": "6150904",
    "prefectureCode": "26",
    "prefectureNumber": 26,
    "prefecture": "京都府",
    "city": "京都市右京区",
    "town": "梅津堤上町"
  },
  "6150905": {
    "zipcode": "6150905",
    "prefectureCode": "26",
    "prefectureNumber": 26,
    "prefecture": "京都府",
    "city": "京都市右京区",
    "town": "梅津石灘町"
  },
  "6150906": {
    "zipcode": "6150906",
    "prefectureCode": "26",
    "prefectureNumber": 26,
    "prefecture": "京都府",
    "city": "京都市右京区",
    "town": "梅津高畝町"
  },
  "6150907": {
    "zipcode": "6150907",
    "prefectureCode": "26",
    "prefectureNumber": 26,
    "prefecture": "京都府",
    "city": "京都市右京区",
    "town": "梅津段町"
  },
  "6150911": {
    "zipcode": "6150911",
    "prefectureCode": "26",
    "prefectureNumber": 26,
    "prefecture": "京都府",
    "city": "京都市右京区",
    "town": "梅津北町"
  },
  "6150912": {
    "zipcode": "6150912",
    "prefectureCode": "26",
    "prefectureNumber": 26,
    "prefecture": "京都府",
    "city": "京都市右京区",
    "town": "梅津構口町"
  },
  "6150913": {
    "zipcode": "6150913",
    "prefectureCode": "26",
    "prefectureNumber": 26,
    "prefecture": "京都府",
    "city": "京都市右京区",
    "town": "梅津南上田町"
  },
  "6150914": {
    "zipcode": "6150914",
    "prefectureCode": "26",
    "prefectureNumber": 26,
    "prefecture": "京都府",
    "city": "京都市右京区",
    "town": "梅津東構口町"
  },
  "6150915": {
    "zipcode": "6150915",
    "prefectureCode": "26",
    "prefectureNumber": 26,
    "prefecture": "京都府",
    "city": "京都市右京区",
    "town": "梅津南町"
  },
  "6150916": {
    "zipcode": "6150916",
    "prefectureCode": "26",
    "prefectureNumber": 26,
    "prefecture": "京都府",
    "city": "京都市右京区",
    "town": "梅津中村町"
  },
  "6150917": {
    "zipcode": "6150917",
    "prefectureCode": "26",
    "prefectureNumber": 26,
    "prefecture": "京都府",
    "city": "京都市右京区",
    "town": "梅津西浦町"
  },
  "6150921": {
    "zipcode": "6150921",
    "prefectureCode": "26",
    "prefectureNumber": 26,
    "prefecture": "京都府",
    "city": "京都市右京区",
    "town": "梅津フケノ川町"
  },
  "6150922": {
    "zipcode": "6150922",
    "prefectureCode": "26",
    "prefectureNumber": 26,
    "prefecture": "京都府",
    "city": "京都市右京区",
    "town": "梅津前田町"
  },
  "6150923": {
    "zipcode": "6150923",
    "prefectureCode": "26",
    "prefectureNumber": 26,
    "prefecture": "京都府",
    "city": "京都市右京区",
    "town": "梅津中倉町"
  },
  "6150924": {
    "zipcode": "6150924",
    "prefectureCode": "26",
    "prefectureNumber": 26,
    "prefecture": "京都府",
    "city": "京都市右京区",
    "town": "梅津尻溝町"
  },
  "6150925": {
    "zipcode": "6150925",
    "prefectureCode": "26",
    "prefectureNumber": 26,
    "prefecture": "京都府",
    "city": "京都市右京区",
    "town": "梅津大縄場町"
  },
  "6150926": {
    "zipcode": "6150926",
    "prefectureCode": "26",
    "prefectureNumber": 26,
    "prefecture": "京都府",
    "city": "京都市右京区",
    "town": "梅津罧原町"
  },
  "6150931": {
    "zipcode": "6150931",
    "prefectureCode": "26",
    "prefectureNumber": 26,
    "prefecture": "京都府",
    "city": "京都市右京区",
    "town": "梅津開キ町"
  },
  "6150932": {
    "zipcode": "6150932",
    "prefectureCode": "26",
    "prefectureNumber": 26,
    "prefecture": "京都府",
    "city": "京都市右京区",
    "town": "梅津上田町"
  },
  "6150933": {
    "zipcode": "6150933",
    "prefectureCode": "26",
    "prefectureNumber": 26,
    "prefecture": "京都府",
    "city": "京都市右京区",
    "town": "梅津後藤町"
  },
  "6150934": {
    "zipcode": "6150934",
    "prefectureCode": "26",
    "prefectureNumber": 26,
    "prefecture": "京都府",
    "city": "京都市右京区",
    "town": "梅津北浦町"
  },
  "6150935": {
    "zipcode": "6150935",
    "prefectureCode": "26",
    "prefectureNumber": 26,
    "prefecture": "京都府",
    "city": "京都市右京区",
    "town": "梅津徳丸町"
  },
  "6150936": {
    "zipcode": "6150936",
    "prefectureCode": "26",
    "prefectureNumber": 26,
    "prefecture": "京都府",
    "city": "京都市右京区",
    "town": "梅津林口町"
  },
  "6150937": {
    "zipcode": "6150937",
    "prefectureCode": "26",
    "prefectureNumber": 26,
    "prefecture": "京都府",
    "city": "京都市右京区",
    "town": "梅津北川町"
  },
  "6150938": {
    "zipcode": "6150938",
    "prefectureCode": "26",
    "prefectureNumber": 26,
    "prefecture": "京都府",
    "city": "京都市右京区",
    "town": "梅津坂本町"
  },
  "6158001": {
    "zipcode": "6158001",
    "prefectureCode": "26",
    "prefectureNumber": 26,
    "prefecture": "京都府",
    "city": "京都市西京区",
    "town": "桂上野北町"
  },
  "6158002": {
    "zipcode": "6158002",
    "prefectureCode": "26",
    "prefectureNumber": 26,
    "prefecture": "京都府",
    "city": "京都市西京区",
    "town": "桂上野中町"
  },
  "6158003": {
    "zipcode": "6158003",
    "prefectureCode": "26",
    "prefectureNumber": 26,
    "prefecture": "京都府",
    "city": "京都市西京区",
    "town": "桂上野東町"
  },
  "6158004": {
    "zipcode": "6158004",
    "prefectureCode": "26",
    "prefectureNumber": 26,
    "prefecture": "京都府",
    "city": "京都市西京区",
    "town": "桂畑ケ田町"
  },
  "6158005": {
    "zipcode": "6158005",
    "prefectureCode": "26",
    "prefectureNumber": 26,
    "prefecture": "京都府",
    "city": "京都市西京区",
    "town": "桂上野南町"
  },
  "6158006": {
    "zipcode": "6158006",
    "prefectureCode": "26",
    "prefectureNumber": 26,
    "prefecture": "京都府",
    "city": "京都市西京区",
    "town": "桂上野西町"
  },
  "6158007": {
    "zipcode": "6158007",
    "prefectureCode": "26",
    "prefectureNumber": 26,
    "prefecture": "京都府",
    "city": "京都市西京区",
    "town": "桂上野今井町"
  },
  "6158008": {
    "zipcode": "6158008",
    "prefectureCode": "26",
    "prefectureNumber": 26,
    "prefecture": "京都府",
    "city": "京都市西京区",
    "town": "桂上野川原町"
  },
  "6158011": {
    "zipcode": "6158011",
    "prefectureCode": "26",
    "prefectureNumber": 26,
    "prefecture": "京都府",
    "city": "京都市西京区",
    "town": "桂大縄町"
  },
  "6158012": {
    "zipcode": "6158012",
    "prefectureCode": "26",
    "prefectureNumber": 26,
    "prefecture": "京都府",
    "city": "京都市西京区",
    "town": "桂後水町"
  },
  "6158013": {
    "zipcode": "6158013",
    "prefectureCode": "26",
    "prefectureNumber": 26,
    "prefecture": "京都府",
    "city": "京都市西京区",
    "town": "桂清水町"
  },
  "6158014": {
    "zipcode": "6158014",
    "prefectureCode": "26",
    "prefectureNumber": 26,
    "prefecture": "京都府",
    "city": "京都市西京区",
    "town": "桂御園"
  },
  "6158015": {
    "zipcode": "6158015",
    "prefectureCode": "26",
    "prefectureNumber": 26,
    "prefecture": "京都府",
    "city": "京都市西京区",
    "town": "徳大寺清水町"
  },
  "6158016": {
    "zipcode": "6158016",
    "prefectureCode": "26",
    "prefectureNumber": 26,
    "prefecture": "京都府",
    "city": "京都市西京区",
    "town": "桂久方町"
  },
  "6158017": {
    "zipcode": "6158017",
    "prefectureCode": "26",
    "prefectureNumber": 26,
    "prefecture": "京都府",
    "city": "京都市西京区",
    "town": "桂河田町"
  },
  "6158018": {
    "zipcode": "6158018",
    "prefectureCode": "26",
    "prefectureNumber": 26,
    "prefecture": "京都府",
    "city": "京都市西京区",
    "town": "桂徳大寺町"
  },
  "6158021": {
    "zipcode": "6158021",
    "prefectureCode": "26",
    "prefectureNumber": 26,
    "prefecture": "京都府",
    "city": "京都市西京区",
    "town": "桂浅原町"
  },
  "6158022": {
    "zipcode": "6158022",
    "prefectureCode": "26",
    "prefectureNumber": 26,
    "prefecture": "京都府",
    "city": "京都市西京区",
    "town": "桂北滝川町"
  },
  "6158023": {
    "zipcode": "6158023",
    "prefectureCode": "26",
    "prefectureNumber": 26,
    "prefecture": "京都府",
    "city": "京都市西京区",
    "town": "桂南滝川町"
  },
  "6158024": {
    "zipcode": "6158024",
    "prefectureCode": "26",
    "prefectureNumber": 26,
    "prefecture": "京都府",
    "city": "京都市西京区",
    "town": "桂西滝川町"
  },
  "6158025": {
    "zipcode": "6158025",
    "prefectureCode": "26",
    "prefectureNumber": 26,
    "prefecture": "京都府",
    "city": "京都市西京区",
    "town": "桂稲荷山町"
  },
  "6158026": {
    "zipcode": "6158026",
    "prefectureCode": "26",
    "prefectureNumber": 26,
    "prefecture": "京都府",
    "city": "京都市西京区",
    "town": "桂市ノ前町"
  },
  "6158027": {
    "zipcode": "6158027",
    "prefectureCode": "26",
    "prefectureNumber": 26,
    "prefecture": "京都府",
    "city": "京都市西京区",
    "town": "桂朝日町"
  },
  "6158031": {
    "zipcode": "6158031",
    "prefectureCode": "26",
    "prefectureNumber": 26,
    "prefecture": "京都府",
    "city": "京都市西京区",
    "town": "牛ケ瀬林ノ本町"
  },
  "6158032": {
    "zipcode": "6158032",
    "prefectureCode": "26",
    "prefectureNumber": 26,
    "prefecture": "京都府",
    "city": "京都市西京区",
    "town": "牛ケ瀬奥ノ防町"
  },
  "6158033": {
    "zipcode": "6158033",
    "prefectureCode": "26",
    "prefectureNumber": 26,
    "prefecture": "京都府",
    "city": "京都市西京区",
    "town": "下津林東大般若町"
  },
  "6158034": {
    "zipcode": "6158034",
    "prefectureCode": "26",
    "prefectureNumber": 26,
    "prefecture": "京都府",
    "city": "京都市西京区",
    "town": "下津林東芝ノ宮町"
  },
  "6158035": {
    "zipcode": "6158035",
    "prefectureCode": "26",
    "prefectureNumber": 26,
    "prefecture": "京都府",
    "city": "京都市西京区",
    "town": "下津林芝ノ宮町"
  },
  "6158036": {
    "zipcode": "6158036",
    "prefectureCode": "26",
    "prefectureNumber": 26,
    "prefecture": "京都府",
    "city": "京都市西京区",
    "town": "下津林南大般若町"
  },
  "6158037": {
    "zipcode": "6158037",
    "prefectureCode": "26",
    "prefectureNumber": 26,
    "prefecture": "京都府",
    "city": "京都市西京区",
    "town": "下津林大般若町"
  },
  "6158041": {
    "zipcode": "6158041",
    "prefectureCode": "26",
    "prefectureNumber": 26,
    "prefecture": "京都府",
    "city": "京都市西京区",
    "town": "牛ケ瀬青柳町"
  },
  "6158042": {
    "zipcode": "6158042",
    "prefectureCode": "26",
    "prefectureNumber": 26,
    "prefecture": "京都府",
    "city": "京都市西京区",
    "town": "牛ケ瀬川原口町"
  },
  "6158043": {
    "zipcode": "6158043",
    "prefectureCode": "26",
    "prefectureNumber": 26,
    "prefecture": "京都府",
    "city": "京都市西京区",
    "town": "牛ケ瀬新田泓町"
  },
  "6158044": {
    "zipcode": "6158044",
    "prefectureCode": "26",
    "prefectureNumber": 26,
    "prefecture": "京都府",
    "city": "京都市西京区",
    "town": "牛ケ瀬山柿町"
  },
  "6158045": {
    "zipcode": "6158045",
    "prefectureCode": "26",
    "prefectureNumber": 26,
    "prefecture": "京都府",
    "city": "京都市西京区",
    "town": "牛ケ瀬南ノ口町"
  },
  "6158046": {
    "zipcode": "6158046",
    "prefectureCode": "26",
    "prefectureNumber": 26,
    "prefecture": "京都府",
    "city": "京都市西京区",
    "town": "牛ケ瀬弥生町"
  },
  "6158051": {
    "zipcode": "6158051",
    "prefectureCode": "26",
    "prefectureNumber": 26,
    "prefecture": "京都府",
    "city": "京都市西京区",
    "town": "牛ケ瀬西柿町"
  },
  "6158052": {
    "zipcode": "6158052",
    "prefectureCode": "26",
    "prefectureNumber": 26,
    "prefecture": "京都府",
    "city": "京都市西京区",
    "town": "牛ケ瀬堂田町"
  },
  "6158053": {
    "zipcode": "6158053",
    "prefectureCode": "26",
    "prefectureNumber": 26,
    "prefecture": "京都府",
    "city": "京都市西京区",
    "town": "下津林中島町"
  },
  "6158054": {
    "zipcode": "6158054",
    "prefectureCode": "26",
    "prefectureNumber": 26,
    "prefecture": "京都府",
    "city": "京都市西京区",
    "town": "下津林南中島町"
  },
  "6158055": {
    "zipcode": "6158055",
    "prefectureCode": "26",
    "prefectureNumber": 26,
    "prefecture": "京都府",
    "city": "京都市西京区",
    "town": "下津林佃"
  },
  "6158056": {
    "zipcode": "6158056",
    "prefectureCode": "26",
    "prefectureNumber": 26,
    "prefecture": "京都府",
    "city": "京都市西京区",
    "town": "下津林番条"
  },
  "6158057": {
    "zipcode": "6158057",
    "prefectureCode": "26",
    "prefectureNumber": 26,
    "prefecture": "京都府",
    "city": "京都市西京区",
    "town": "下津林番条町"
  },
  "6158061": {
    "zipcode": "6158061",
    "prefectureCode": "26",
    "prefectureNumber": 26,
    "prefecture": "京都府",
    "city": "京都市西京区",
    "town": "下津林北浦町"
  },
  "6158062": {
    "zipcode": "6158062",
    "prefectureCode": "26",
    "prefectureNumber": 26,
    "prefecture": "京都府",
    "city": "京都市西京区",
    "town": "下津林前泓町"
  },
  "6158063": {
    "zipcode": "6158063",
    "prefectureCode": "26",
    "prefectureNumber": 26,
    "prefecture": "京都府",
    "city": "京都市西京区",
    "town": "下津林六反田"
  },
  "6158064": {
    "zipcode": "6158064",
    "prefectureCode": "26",
    "prefectureNumber": 26,
    "prefecture": "京都府",
    "city": "京都市西京区",
    "town": "下津林水掛町"
  },
  "6158065": {
    "zipcode": "6158065",
    "prefectureCode": "26",
    "prefectureNumber": 26,
    "prefecture": "京都府",
    "city": "京都市西京区",
    "town": "下津林楠町"
  },
  "6158071": {
    "zipcode": "6158071",
    "prefectureCode": "26",
    "prefectureNumber": 26,
    "prefecture": "京都府",
    "city": "京都市西京区",
    "town": "桂春日町"
  },
  "6158072": {
    "zipcode": "6158072",
    "prefectureCode": "26",
    "prefectureNumber": 26,
    "prefecture": "京都府",
    "city": "京都市西京区",
    "town": "桂木ノ下町"
  },
  "6158073": {
    "zipcode": "6158073",
    "prefectureCode": "26",
    "prefectureNumber": 26,
    "prefecture": "京都府",
    "city": "京都市西京区",
    "town": "桂野里町"
  },
  "6158074": {
    "zipcode": "6158074",
    "prefectureCode": "26",
    "prefectureNumber": 26,
    "prefecture": "京都府",
    "city": "京都市西京区",
    "town": "桂南巽町"
  },
  "6158075": {
    "zipcode": "6158075",
    "prefectureCode": "26",
    "prefectureNumber": 26,
    "prefecture": "京都府",
    "city": "京都市西京区",
    "town": "桂巽町"
  },
  "6158076": {
    "zipcode": "6158076",
    "prefectureCode": "26",
    "prefectureNumber": 26,
    "prefecture": "京都府",
    "city": "京都市西京区",
    "town": "桂下豆田町"
  },
  "6158077": {
    "zipcode": "6158077",
    "prefectureCode": "26",
    "prefectureNumber": 26,
    "prefecture": "京都府",
    "city": "京都市西京区",
    "town": "桂芝ノ下町"
  },
  "6158081": {
    "zipcode": "6158081",
    "prefectureCode": "26",
    "prefectureNumber": 26,
    "prefecture": "京都府",
    "city": "京都市西京区",
    "town": "桂池尻町"
  },
  "6158082": {
    "zipcode": "6158082",
    "prefectureCode": "26",
    "prefectureNumber": 26,
    "prefecture": "京都府",
    "city": "京都市西京区",
    "town": "桂上豆田町"
  },
  "6158083": {
    "zipcode": "6158083",
    "prefectureCode": "26",
    "prefectureNumber": 26,
    "prefecture": "京都府",
    "city": "京都市西京区",
    "town": "桂艮町"
  },
  "6158084": {
    "zipcode": "6158084",
    "prefectureCode": "26",
    "prefectureNumber": 26,
    "prefecture": "京都府",
    "city": "京都市西京区",
    "town": "桂坤町"
  },
  "6158085": {
    "zipcode": "6158085",
    "prefectureCode": "26",
    "prefectureNumber": 26,
    "prefecture": "京都府",
    "city": "京都市西京区",
    "town": "桂千代原町"
  },
  "6158086": {
    "zipcode": "6158086",
    "prefectureCode": "26",
    "prefectureNumber": 26,
    "prefecture": "京都府",
    "city": "京都市西京区",
    "town": "桂乾町"
  },
  "6158087": {
    "zipcode": "6158087",
    "prefectureCode": "26",
    "prefectureNumber": 26,
    "prefecture": "京都府",
    "city": "京都市西京区",
    "town": "桂御所町"
  },
  "6158101": {
    "zipcode": "6158101",
    "prefectureCode": "26",
    "prefectureNumber": 26,
    "prefecture": "京都府",
    "city": "京都市西京区",
    "town": "川島東代町"
  },
  "6158102": {
    "zipcode": "6158102",
    "prefectureCode": "26",
    "prefectureNumber": 26,
    "prefecture": "京都府",
    "city": "京都市西京区",
    "town": "川島松ノ木本町"
  },
  "6158103": {
    "zipcode": "6158103",
    "prefectureCode": "26",
    "prefectureNumber": 26,
    "prefecture": "京都府",
    "city": "京都市西京区",
    "town": "川島六ノ坪町"
  },
  "6158104": {
    "zipcode": "6158104",
    "prefectureCode": "26",
    "prefectureNumber": 26,
    "prefecture": "京都府",
    "city": "京都市西京区",
    "town": "川島五反長町"
  },
  "6158105": {
    "zipcode": "6158105",
    "prefectureCode": "26",
    "prefectureNumber": 26,
    "prefecture": "京都府",
    "city": "京都市西京区",
    "town": "川島莚田町"
  },
  "6158106": {
    "zipcode": "6158106",
    "prefectureCode": "26",
    "prefectureNumber": 26,
    "prefecture": "京都府",
    "city": "京都市西京区",
    "town": "川島滑樋町"
  },
  "6158107": {
    "zipcode": "6158107",
    "prefectureCode": "26",
    "prefectureNumber": 26,
    "prefecture": "京都府",
    "city": "京都市西京区",
    "town": "川島北裏町"
  },
  "6158111": {
    "zipcode": "6158111",
    "prefectureCode": "26",
    "prefectureNumber": 26,
    "prefecture": "京都府",
    "city": "京都市西京区",
    "town": "川島松園町"
  },
  "6158112": {
    "zipcode": "6158112",
    "prefectureCode": "26",
    "prefectureNumber": 26,
    "prefecture": "京都府",
    "city": "京都市西京区",
    "town": "川島竹園町"
  },
  "6158113": {
    "zipcode": "6158113",
    "prefectureCode": "26",
    "prefectureNumber": 26,
    "prefecture": "京都府",
    "city": "京都市西京区",
    "town": "川島梅園町"
  },
  "6158114": {
    "zipcode": "6158114",
    "prefectureCode": "26",
    "prefectureNumber": 26,
    "prefecture": "京都府",
    "city": "京都市西京区",
    "town": "川島桜園町"
  },
  "6158115": {
    "zipcode": "6158115",
    "prefectureCode": "26",
    "prefectureNumber": 26,
    "prefecture": "京都府",
    "city": "京都市西京区",
    "town": "川島流田町"
  },
  "6158116": {
    "zipcode": "6158116",
    "prefectureCode": "26",
    "prefectureNumber": 26,
    "prefecture": "京都府",
    "city": "京都市西京区",
    "town": "樫原甲水"
  },
  "6158117": {
    "zipcode": "6158117",
    "prefectureCode": "26",
    "prefectureNumber": 26,
    "prefecture": "京都府",
    "city": "京都市西京区",
    "town": "樫原六反田"
  },
  "6158118": {
    "zipcode": "6158118",
    "prefectureCode": "26",
    "prefectureNumber": 26,
    "prefecture": "京都府",
    "city": "京都市西京区",
    "town": "川島三重町"
  },
  "6158121": {
    "zipcode": "6158121",
    "prefectureCode": "26",
    "prefectureNumber": 26,
    "prefecture": "京都府",
    "city": "京都市西京区",
    "town": "川島野田町"
  },
  "6158122": {
    "zipcode": "6158122",
    "prefectureCode": "26",
    "prefectureNumber": 26,
    "prefecture": "京都府",
    "city": "京都市西京区",
    "town": "樫原八反田"
  },
  "6158123": {
    "zipcode": "6158123",
    "prefectureCode": "26",
    "prefectureNumber": 26,
    "prefecture": "京都府",
    "city": "京都市西京区",
    "town": "樫原山路"
  },
  "6158124": {
    "zipcode": "6158124",
    "prefectureCode": "26",
    "prefectureNumber": 26,
    "prefecture": "京都府",
    "city": "京都市西京区",
    "town": "樫原三宅町"
  },
  "6158125": {
    "zipcode": "6158125",
    "prefectureCode": "26",
    "prefectureNumber": 26,
    "prefecture": "京都府",
    "city": "京都市西京区",
    "town": "川島調子町"
  },
  "6158131": {
    "zipcode": "6158131",
    "prefectureCode": "26",
    "prefectureNumber": 26,
    "prefecture": "京都府",
    "city": "京都市西京区",
    "town": "樫原五反田"
  },
  "6158132": {
    "zipcode": "6158132",
    "prefectureCode": "26",
    "prefectureNumber": 26,
    "prefecture": "京都府",
    "city": "京都市西京区",
    "town": "樫原庭井"
  },
  "6158133": {
    "zipcode": "6158133",
    "prefectureCode": "26",
    "prefectureNumber": 26,
    "prefecture": "京都府",
    "city": "京都市西京区",
    "town": "樫原井戸"
  },
  "6158134": {
    "zipcode": "6158134",
    "prefectureCode": "26",
    "prefectureNumber": 26,
    "prefecture": "京都府",
    "city": "京都市西京区",
    "town": "樫原比恵田町"
  },
  "6158135": {
    "zipcode": "6158135",
    "prefectureCode": "26",
    "prefectureNumber": 26,
    "prefecture": "京都府",
    "city": "京都市西京区",
    "town": "樫原江ノ本町"
  },
  "6158136": {
    "zipcode": "6158136",
    "prefectureCode": "26",
    "prefectureNumber": 26,
    "prefecture": "京都府",
    "city": "京都市西京区",
    "town": "樫原口戸"
  },
  "6158141": {
    "zipcode": "6158141",
    "prefectureCode": "26",
    "prefectureNumber": 26,
    "prefecture": "京都府",
    "city": "京都市西京区",
    "town": "樫原平田町"
  },
  "6158142": {
    "zipcode": "6158142",
    "prefectureCode": "26",
    "prefectureNumber": 26,
    "prefecture": "京都府",
    "city": "京都市西京区",
    "town": "樫原畔ノ海道"
  },
  "6158143": {
    "zipcode": "6158143",
    "prefectureCode": "26",
    "prefectureNumber": 26,
    "prefecture": "京都府",
    "city": "京都市西京区",
    "town": "樫原里ノ垣外町"
  },
  "6158144": {
    "zipcode": "6158144",
    "prefectureCode": "26",
    "prefectureNumber": 26,
    "prefecture": "京都府",
    "city": "京都市西京区",
    "town": "樫原釘貫"
  },
  "6158145": {
    "zipcode": "6158145",
    "prefectureCode": "26",
    "prefectureNumber": 26,
    "prefecture": "京都府",
    "city": "京都市西京区",
    "town": "樫原角田町"
  },
  "6158146": {
    "zipcode": "6158146",
    "prefectureCode": "26",
    "prefectureNumber": 26,
    "prefecture": "京都府",
    "city": "京都市西京区",
    "town": "樫原田中町"
  },
  "6158147": {
    "zipcode": "6158147",
    "prefectureCode": "26",
    "prefectureNumber": 26,
    "prefecture": "京都府",
    "city": "京都市西京区",
    "town": "樫原塚ノ本町"
  },
  "6158151": {
    "zipcode": "6158151",
    "prefectureCode": "26",
    "prefectureNumber": 26,
    "prefecture": "京都府",
    "city": "京都市西京区",
    "town": "樫原杉原町"
  },
  "6158152": {
    "zipcode": "6158152",
    "prefectureCode": "26",
    "prefectureNumber": 26,
    "prefecture": "京都府",
    "city": "京都市西京区",
    "town": "樫原内垣外町"
  },
  "6158153": {
    "zipcode": "6158153",
    "prefectureCode": "26",
    "prefectureNumber": 26,
    "prefecture": "京都府",
    "city": "京都市西京区",
    "town": "樫原前田町"
  },
  "6158154": {
    "zipcode": "6158154",
    "prefectureCode": "26",
    "prefectureNumber": 26,
    "prefecture": "京都府",
    "city": "京都市西京区",
    "town": "樫原岡南ノ庄"
  },
  "6158155": {
    "zipcode": "6158155",
    "prefectureCode": "26",
    "prefectureNumber": 26,
    "prefecture": "京都府",
    "city": "京都市西京区",
    "town": "樫原大亀谷"
  },
  "6158156": {
    "zipcode": "6158156",
    "prefectureCode": "26",
    "prefectureNumber": 26,
    "prefecture": "京都府",
    "city": "京都市西京区",
    "town": "樫原百々ケ池"
  },
  "6158157": {
    "zipcode": "6158157",
    "prefectureCode": "26",
    "prefectureNumber": 26,
    "prefecture": "京都府",
    "city": "京都市西京区",
    "town": "樫原芋峠"
  },
  "6158158": {
    "zipcode": "6158158",
    "prefectureCode": "26",
    "prefectureNumber": 26,
    "prefecture": "京都府",
    "city": "京都市西京区",
    "town": "樫原秤谷町"
  },
  "6158161": {
    "zipcode": "6158161",
    "prefectureCode": "26",
    "prefectureNumber": 26,
    "prefecture": "京都府",
    "city": "京都市西京区",
    "town": "樫原蛸田町"
  },
  "6158162": {
    "zipcode": "6158162",
    "prefectureCode": "26",
    "prefectureNumber": 26,
    "prefecture": "京都府",
    "city": "京都市西京区",
    "town": "樫原上ノ町"
  },
  "6158163": {
    "zipcode": "6158163",
    "prefectureCode": "26",
    "prefectureNumber": 26,
    "prefecture": "京都府",
    "city": "京都市西京区",
    "town": "樫原山ノ上町"
  },
  "6158164": {
    "zipcode": "6158164",
    "prefectureCode": "26",
    "prefectureNumber": 26,
    "prefecture": "京都府",
    "city": "京都市西京区",
    "town": "樫原鴫谷"
  },
  "6158165": {
    "zipcode": "6158165",
    "prefectureCode": "26",
    "prefectureNumber": 26,
    "prefecture": "京都府",
    "city": "京都市西京区",
    "town": "樫原盆山"
  },
  "6158171": {
    "zipcode": "6158171",
    "prefectureCode": "26",
    "prefectureNumber": 26,
    "prefecture": "京都府",
    "city": "京都市西京区",
    "town": "樫原久保町"
  },
  "6158172": {
    "zipcode": "6158172",
    "prefectureCode": "26",
    "prefectureNumber": 26,
    "prefecture": "京都府",
    "city": "京都市西京区",
    "town": "樫原宇治井西町"
  },
  "6158173": {
    "zipcode": "6158173",
    "prefectureCode": "26",
    "prefectureNumber": 26,
    "prefecture": "京都府",
    "city": "京都市西京区",
    "town": "樫原下池田町"
  },
  "6158174": {
    "zipcode": "6158174",
    "prefectureCode": "26",
    "prefectureNumber": 26,
    "prefecture": "京都府",
    "city": "京都市西京区",
    "town": "樫原中垣外"
  },
  "6158175": {
    "zipcode": "6158175",
    "prefectureCode": "26",
    "prefectureNumber": 26,
    "prefecture": "京都府",
    "city": "京都市西京区",
    "town": "樫原硲町"
  },
  "6158176": {
    "zipcode": "6158176",
    "prefectureCode": "26",
    "prefectureNumber": 26,
    "prefecture": "京都府",
    "city": "京都市西京区",
    "town": "樫原上池田町"
  },
  "6158177": {
    "zipcode": "6158177",
    "prefectureCode": "26",
    "prefectureNumber": 26,
    "prefecture": "京都府",
    "city": "京都市西京区",
    "town": "樫原下ノ町"
  },
  "6158178": {
    "zipcode": "6158178",
    "prefectureCode": "26",
    "prefectureNumber": 26,
    "prefecture": "京都府",
    "city": "京都市西京区",
    "town": "樫原池ノ上町"
  },
  "6158181": {
    "zipcode": "6158181",
    "prefectureCode": "26",
    "prefectureNumber": 26,
    "prefecture": "京都府",
    "city": "京都市西京区",
    "town": "樫原石畑町"
  },
  "6158182": {
    "zipcode": "6158182",
    "prefectureCode": "26",
    "prefectureNumber": 26,
    "prefecture": "京都府",
    "city": "京都市西京区",
    "town": "樫原茶ノ木本町"
  },
  "6158183": {
    "zipcode": "6158183",
    "prefectureCode": "26",
    "prefectureNumber": 26,
    "prefecture": "京都府",
    "city": "京都市西京区",
    "town": "樫原分田"
  },
  "6158184": {
    "zipcode": "6158184",
    "prefectureCode": "26",
    "prefectureNumber": 26,
    "prefecture": "京都府",
    "city": "京都市西京区",
    "town": "樫原水築町"
  },
  "6158185": {
    "zipcode": "6158185",
    "prefectureCode": "26",
    "prefectureNumber": 26,
    "prefecture": "京都府",
    "city": "京都市西京区",
    "town": "樫原宇治井町"
  },
  "6158186": {
    "zipcode": "6158186",
    "prefectureCode": "26",
    "prefectureNumber": 26,
    "prefecture": "京都府",
    "city": "京都市西京区",
    "town": "樫原佃"
  },
  "6158191": {
    "zipcode": "6158191",
    "prefectureCode": "26",
    "prefectureNumber": 26,
    "prefecture": "京都府",
    "city": "京都市西京区",
    "town": "川島有栖川町"
  },
  "6158192": {
    "zipcode": "6158192",
    "prefectureCode": "26",
    "prefectureNumber": 26,
    "prefecture": "京都府",
    "city": "京都市西京区",
    "town": "川島寺田町"
  },
  "6158193": {
    "zipcode": "6158193",
    "prefectureCode": "26",
    "prefectureNumber": 26,
    "prefecture": "京都府",
    "city": "京都市西京区",
    "town": "川島玉頭町"
  },
  "6158194": {
    "zipcode": "6158194",
    "prefectureCode": "26",
    "prefectureNumber": 26,
    "prefecture": "京都府",
    "city": "京都市西京区",
    "town": "川島粟田町"
  },
  "6158195": {
    "zipcode": "6158195",
    "prefectureCode": "26",
    "prefectureNumber": 26,
    "prefecture": "京都府",
    "city": "京都市西京区",
    "town": "川島権田町"
  },
  "6158196": {
    "zipcode": "6158196",
    "prefectureCode": "26",
    "prefectureNumber": 26,
    "prefecture": "京都府",
    "city": "京都市西京区",
    "town": "川島尻堀町"
  },
  "6158201": {
    "zipcode": "6158201",
    "prefectureCode": "26",
    "prefectureNumber": 26,
    "prefecture": "京都府",
    "city": "京都市西京区",
    "town": "上桂今井町"
  },
  "6158202": {
    "zipcode": "6158202",
    "prefectureCode": "26",
    "prefectureNumber": 26,
    "prefecture": "京都府",
    "city": "京都市西京区",
    "town": "松室吾田神町"
  },
  "6158203": {
    "zipcode": "6158203",
    "prefectureCode": "26",
    "prefectureNumber": 26,
    "prefecture": "京都府",
    "city": "京都市西京区",
    "town": "松室荒堀町"
  },
  "6158204": {
    "zipcode": "6158204",
    "prefectureCode": "26",
    "prefectureNumber": 26,
    "prefecture": "京都府",
    "city": "京都市西京区",
    "town": "松室北河原町"
  },
  "6158205": {
    "zipcode": "6158205",
    "prefectureCode": "26",
    "prefectureNumber": 26,
    "prefecture": "京都府",
    "city": "京都市西京区",
    "town": "松室中溝町"
  },
  "6158206": {
    "zipcode": "6158206",
    "prefectureCode": "26",
    "prefectureNumber": 26,
    "prefecture": "京都府",
    "city": "京都市西京区",
    "town": "松室追上ゲ町"
  },
  "6158207": {
    "zipcode": "6158207",
    "prefectureCode": "26",
    "prefectureNumber": 26,
    "prefecture": "京都府",
    "city": "京都市西京区",
    "town": "松室河原町"
  },
  "6158208": {
    "zipcode": "6158208",
    "prefectureCode": "26",
    "prefectureNumber": 26,
    "prefecture": "京都府",
    "city": "京都市西京区",
    "town": "上桂樋ノ口町"
  },
  "6158211": {
    "zipcode": "6158211",
    "prefectureCode": "26",
    "prefectureNumber": 26,
    "prefecture": "京都府",
    "city": "京都市西京区",
    "town": "上桂前川町"
  },
  "6158212": {
    "zipcode": "6158212",
    "prefectureCode": "26",
    "prefectureNumber": 26,
    "prefecture": "京都府",
    "city": "京都市西京区",
    "town": "上桂北ノ口町"
  },
  "6158213": {
    "zipcode": "6158213",
    "prefectureCode": "26",
    "prefectureNumber": 26,
    "prefecture": "京都府",
    "city": "京都市西京区",
    "town": "上桂北村町"
  },
  "6158214": {
    "zipcode": "6158214",
    "prefectureCode": "26",
    "prefectureNumber": 26,
    "prefecture": "京都府",
    "city": "京都市西京区",
    "town": "上桂東居町"
  },
  "6158215": {
    "zipcode": "6158215",
    "prefectureCode": "26",
    "prefectureNumber": 26,
    "prefecture": "京都府",
    "city": "京都市西京区",
    "town": "上桂大野町"
  },
  "6158216": {
    "zipcode": "6158216",
    "prefectureCode": "26",
    "prefectureNumber": 26,
    "prefecture": "京都府",
    "city": "京都市西京区",
    "town": "松尾鈴川町"
  },
  "6158217": {
    "zipcode": "6158217",
    "prefectureCode": "26",
    "prefectureNumber": 26,
    "prefecture": "京都府",
    "city": "京都市西京区",
    "town": "松尾東ノ口町"
  },
  "6158221": {
    "zipcode": "6158221",
    "prefectureCode": "26",
    "prefectureNumber": 26,
    "prefecture": "京都府",
    "city": "京都市西京区",
    "town": "上桂東ノ口町"
  },
  "6158222": {
    "zipcode": "6158222",
    "prefectureCode": "26",
    "prefectureNumber": 26,
    "prefecture": "京都府",
    "city": "京都市西京区",
    "town": "上桂御正町"
  },
  "6158223": {
    "zipcode": "6158223",
    "prefectureCode": "26",
    "prefectureNumber": 26,
    "prefecture": "京都府",
    "city": "京都市西京区",
    "town": "上桂前田町"
  },
  "6158224": {
    "zipcode": "6158224",
    "prefectureCode": "26",
    "prefectureNumber": 26,
    "prefecture": "京都府",
    "city": "京都市西京区",
    "town": "上桂三ノ宮町"
  },
  "6158225": {
    "zipcode": "6158225",
    "prefectureCode": "26",
    "prefectureNumber": 26,
    "prefecture": "京都府",
    "city": "京都市西京区",
    "town": "上桂森下町"
  },
  "6158226": {
    "zipcode": "6158226",
    "prefectureCode": "26",
    "prefectureNumber": 26,
    "prefecture": "京都府",
    "city": "京都市西京区",
    "town": "上桂森上町"
  },
  "6158227": {
    "zipcode": "6158227",
    "prefectureCode": "26",
    "prefectureNumber": 26,
    "prefecture": "京都府",
    "city": "京都市西京区",
    "town": "上桂宮ノ後町"
  },
  "6158228": {
    "zipcode": "6158228",
    "prefectureCode": "26",
    "prefectureNumber": 26,
    "prefecture": "京都府",
    "city": "京都市西京区",
    "town": "上桂西居町"
  },
  "6158231": {
    "zipcode": "6158231",
    "prefectureCode": "26",
    "prefectureNumber": 26,
    "prefecture": "京都府",
    "city": "京都市西京区",
    "town": "御陵溝浦町"
  },
  "6158232": {
    "zipcode": "6158232",
    "prefectureCode": "26",
    "prefectureNumber": 26,
    "prefecture": "京都府",
    "city": "京都市西京区",
    "town": "御陵南荒木町"
  },
  "6158233": {
    "zipcode": "6158233",
    "prefectureCode": "26",
    "prefectureNumber": 26,
    "prefecture": "京都府",
    "city": "京都市西京区",
    "town": "御陵荒木町"
  },
  "6158234": {
    "zipcode": "6158234",
    "prefectureCode": "26",
    "prefectureNumber": 26,
    "prefecture": "京都府",
    "city": "京都市西京区",
    "town": "御陵塚ノ越町"
  },
  "6158235": {
    "zipcode": "6158235",
    "prefectureCode": "26",
    "prefectureNumber": 26,
    "prefecture": "京都府",
    "city": "京都市西京区",
    "town": "御陵内町"
  },
  "6158236": {
    "zipcode": "6158236",
    "prefectureCode": "26",
    "prefectureNumber": 26,
    "prefecture": "京都府",
    "city": "京都市西京区",
    "town": "山田大吉見町"
  },
  "6158237": {
    "zipcode": "6158237",
    "prefectureCode": "26",
    "prefectureNumber": 26,
    "prefecture": "京都府",
    "city": "京都市西京区",
    "town": "山田中吉見町"
  },
  "6158238": {
    "zipcode": "6158238",
    "prefectureCode": "26",
    "prefectureNumber": 26,
    "prefecture": "京都府",
    "city": "京都市西京区",
    "town": "山田車塚町"
  },
  "6158241": {
    "zipcode": "6158241",
    "prefectureCode": "26",
    "prefectureNumber": 26,
    "prefecture": "京都府",
    "city": "京都市西京区",
    "town": "御陵谷町"
  },
  "6158242": {
    "zipcode": "6158242",
    "prefectureCode": "26",
    "prefectureNumber": 26,
    "prefecture": "京都府",
    "city": "京都市西京区",
    "town": "御陵鴫谷"
  },
  "6158243": {
    "zipcode": "6158243",
    "prefectureCode": "26",
    "prefectureNumber": 26,
    "prefecture": "京都府",
    "city": "京都市西京区",
    "town": "御陵御茶屋山"
  },
  "6158244": {
    "zipcode": "6158244",
    "prefectureCode": "26",
    "prefectureNumber": 26,
    "prefecture": "京都府",
    "city": "京都市西京区",
    "town": "御陵池ノ谷"
  },
  "6158245": {
    "zipcode": "6158245",
    "prefectureCode": "26",
    "prefectureNumber": 26,
    "prefecture": "京都府",
    "city": "京都市西京区",
    "town": "御陵大原"
  },
  "6158246": {
    "zipcode": "6158246",
    "prefectureCode": "26",
    "prefectureNumber": 26,
    "prefecture": "京都府",
    "city": "京都市西京区",
    "town": "京都大学桂"
  },
  "6158251": {
    "zipcode": "6158251",
    "prefectureCode": "26",
    "prefectureNumber": 26,
    "prefecture": "京都府",
    "city": "京都市西京区",
    "town": "山田猫塚町"
  },
  "6158252": {
    "zipcode": "6158252",
    "prefectureCode": "26",
    "prefectureNumber": 26,
    "prefecture": "京都府",
    "city": "京都市西京区",
    "town": "御陵北山下町"
  },
  "6158253": {
    "zipcode": "6158253",
    "prefectureCode": "26",
    "prefectureNumber": 26,
    "prefecture": "京都府",
    "city": "京都市西京区",
    "town": "御陵北山町"
  },
  "6158254": {
    "zipcode": "6158254",
    "prefectureCode": "26",
    "prefectureNumber": 26,
    "prefecture": "京都府",
    "city": "京都市西京区",
    "town": "御陵細谷"
  },
  "6158255": {
    "zipcode": "6158255",
    "prefectureCode": "26",
    "prefectureNumber": 26,
    "prefecture": "京都府",
    "city": "京都市西京区",
    "town": "山田箱塚町"
  },
  "6158256": {
    "zipcode": "6158256",
    "prefectureCode": "26",
    "prefectureNumber": 26,
    "prefecture": "京都府",
    "city": "京都市西京区",
    "town": "山田平尾町"
  },
  "6158261": {
    "zipcode": "6158261",
    "prefectureCode": "26",
    "prefectureNumber": 26,
    "prefecture": "京都府",
    "city": "京都市西京区",
    "town": "山田庄田町"
  },
  "6158262": {
    "zipcode": "6158262",
    "prefectureCode": "26",
    "prefectureNumber": 26,
    "prefecture": "京都府",
    "city": "京都市西京区",
    "town": "山田四ノ坪町"
  },
  "6158263": {
    "zipcode": "6158263",
    "prefectureCode": "26",
    "prefectureNumber": 26,
    "prefecture": "京都府",
    "city": "京都市西京区",
    "town": "山田久田町"
  },
  "6158264": {
    "zipcode": "6158264",
    "prefectureCode": "26",
    "prefectureNumber": 26,
    "prefecture": "京都府",
    "city": "京都市西京区",
    "town": "山田六ノ坪町"
  },
  "6158265": {
    "zipcode": "6158265",
    "prefectureCode": "26",
    "prefectureNumber": 26,
    "prefecture": "京都府",
    "city": "京都市西京区",
    "town": "山田御道路町"
  },
  "6158266": {
    "zipcode": "6158266",
    "prefectureCode": "26",
    "prefectureNumber": 26,
    "prefecture": "京都府",
    "city": "京都市西京区",
    "town": "山田南山田町"
  },
  "6158267": {
    "zipcode": "6158267",
    "prefectureCode": "26",
    "prefectureNumber": 26,
    "prefecture": "京都府",
    "city": "京都市西京区",
    "town": "山田北山田町"
  },
  "6158271": {
    "zipcode": "6158271",
    "prefectureCode": "26",
    "prefectureNumber": 26,
    "prefecture": "京都府",
    "city": "京都市西京区",
    "town": "山田弦馳町"
  },
  "6158272": {
    "zipcode": "6158272",
    "prefectureCode": "26",
    "prefectureNumber": 26,
    "prefecture": "京都府",
    "city": "京都市西京区",
    "town": "山田畑田町"
  },
  "6158273": {
    "zipcode": "6158273",
    "prefectureCode": "26",
    "prefectureNumber": 26,
    "prefecture": "京都府",
    "city": "京都市西京区",
    "town": "山田出口町"
  },
  "6158274": {
    "zipcode": "6158274",
    "prefectureCode": "26",
    "prefectureNumber": 26,
    "prefecture": "京都府",
    "city": "京都市西京区",
    "town": "山田上ノ町"
  },
  "6158275": {
    "zipcode": "6158275",
    "prefectureCode": "26",
    "prefectureNumber": 26,
    "prefecture": "京都府",
    "city": "京都市西京区",
    "town": "山田南町"
  },
  "6158276": {
    "zipcode": "6158276",
    "prefectureCode": "26",
    "prefectureNumber": 26,
    "prefecture": "京都府",
    "city": "京都市西京区",
    "town": "山田開キ町"
  },
  "6158277": {
    "zipcode": "6158277",
    "prefectureCode": "26",
    "prefectureNumber": 26,
    "prefecture": "京都府",
    "city": "京都市西京区",
    "town": "山田葉室町"
  },
  "6158281": {
    "zipcode": "6158281",
    "prefectureCode": "26",
    "prefectureNumber": 26,
    "prefecture": "京都府",
    "city": "京都市西京区",
    "town": "松尾木ノ曽町"
  },
  "6158282": {
    "zipcode": "6158282",
    "prefectureCode": "26",
    "prefectureNumber": 26,
    "prefecture": "京都府",
    "city": "京都市西京区",
    "town": "松尾大利町"
  },
  "6158283": {
    "zipcode": "6158283",
    "prefectureCode": "26",
    "prefectureNumber": 26,
    "prefecture": "京都府",
    "city": "京都市西京区",
    "town": "松尾井戸町"
  },
  "6158284": {
    "zipcode": "6158284",
    "prefectureCode": "26",
    "prefectureNumber": 26,
    "prefecture": "京都府",
    "city": "京都市西京区",
    "town": "松尾上ノ山町"
  },
  "6158285": {
    "zipcode": "6158285",
    "prefectureCode": "26",
    "prefectureNumber": 26,
    "prefecture": "京都府",
    "city": "京都市西京区",
    "town": "山田北ノ町"
  },
  "6158286": {
    "zipcode": "6158286",
    "prefectureCode": "26",
    "prefectureNumber": 26,
    "prefecture": "京都府",
    "city": "京都市西京区",
    "town": "松尾神ケ谷町"
  },
  "6158287": {
    "zipcode": "6158287",
    "prefectureCode": "26",
    "prefectureNumber": 26,
    "prefecture": "京都府",
    "city": "京都市西京区",
    "town": "松尾万石町"
  },
  "6158291": {
    "zipcode": "6158291",
    "prefectureCode": "26",
    "prefectureNumber": 26,
    "prefecture": "京都府",
    "city": "京都市西京区",
    "town": "松室扇田町"
  },
  "6158292": {
    "zipcode": "6158292",
    "prefectureCode": "26",
    "prefectureNumber": 26,
    "prefecture": "京都府",
    "city": "京都市西京区",
    "town": "松室田中町"
  },
  "6158293": {
    "zipcode": "6158293",
    "prefectureCode": "26",
    "prefectureNumber": 26,
    "prefecture": "京都府",
    "city": "京都市西京区",
    "town": "松室庄田町"
  },
  "6158294": {
    "zipcode": "6158294",
    "prefectureCode": "26",
    "prefectureNumber": 26,
    "prefecture": "京都府",
    "city": "京都市西京区",
    "town": "松室地家町"
  },
  "6158295": {
    "zipcode": "6158295",
    "prefectureCode": "26",
    "prefectureNumber": 26,
    "prefecture": "京都府",
    "city": "京都市西京区",
    "town": "松室地家山"
  },
  "6158296": {
    "zipcode": "6158296",
    "prefectureCode": "26",
    "prefectureNumber": 26,
    "prefecture": "京都府",
    "city": "京都市西京区",
    "town": "松室山添町"
  },
  "6158301": {
    "zipcode": "6158301",
    "prefectureCode": "26",
    "prefectureNumber": 26,
    "prefecture": "京都府",
    "city": "京都市西京区",
    "town": "桂徳大寺北町"
  },
  "6158302": {
    "zipcode": "6158302",
    "prefectureCode": "26",
    "prefectureNumber": 26,
    "prefecture": "京都府",
    "city": "京都市西京区",
    "town": "桂徳大寺南町"
  },
  "6158303": {
    "zipcode": "6158303",
    "prefectureCode": "26",
    "prefectureNumber": 26,
    "prefecture": "京都府",
    "city": "京都市西京区",
    "town": "桂徳大寺東町"
  }
}
