{
  "6160000": {
    "zipcode": "6160000",
    "prefectureCode": "26",
    "prefectureNumber": 26,
    "prefecture": "京都府",
    "city": "京都市右京区",
    "town": "以下に掲載がない場合"
  },
  "6160001": {
    "zipcode": "6160001",
    "prefectureCode": "26",
    "prefectureNumber": 26,
    "prefecture": "京都府",
    "city": "京都市西京区",
    "town": "嵐山上河原町"
  },
  "6160002": {
    "zipcode": "6160002",
    "prefectureCode": "26",
    "prefectureNumber": 26,
    "prefecture": "京都府",
    "city": "京都市西京区",
    "town": "嵐山東一川町"
  },
  "6160003": {
    "zipcode": "6160003",
    "prefectureCode": "26",
    "prefectureNumber": 26,
    "prefecture": "京都府",
    "city": "京都市西京区",
    "town": "嵐山西一川町"
  },
  "6160004": {
    "zipcode": "6160004",
    "prefectureCode": "26",
    "prefectureNumber": 26,
    "prefecture": "京都府",
    "city": "京都市西京区",
    "town": "嵐山中尾下町"
  },
  "6160005": {
    "zipcode": "6160005",
    "prefectureCode": "26",
    "prefectureNumber": 26,
    "prefecture": "京都府",
    "city": "京都市西京区",
    "town": "嵐山山田町"
  },
  "6160006": {
    "zipcode": "6160006",
    "prefectureCode": "26",
    "prefectureNumber": 26,
    "prefecture": "京都府",
    "city": "京都市西京区",
    "town": "嵐山虚空蔵山町"
  },
  "6160007": {
    "zipcode": "6160007",
    "prefectureCode": "26",
    "prefectureNumber": 26,
    "prefecture": "京都府",
    "city": "京都市西京区",
    "town": "嵐山元録山町"
  },
  "6160011": {
    "zipcode": "6160011",
    "prefectureCode": "26",
    "prefectureNumber": 26,
    "prefecture": "京都府",
    "city": "京都市西京区",
    "town": "嵐山樋ノ上町"
  },
  "6160012": {
    "zipcode": "6160012",
    "prefectureCode": "26",
    "prefectureNumber": 26,
    "prefecture": "京都府",
    "city": "京都市西京区",
    "town": "嵐山東海道町"
  },
  "6160013": {
    "zipcode": "6160013",
    "prefectureCode": "26",
    "prefectureNumber": 26,
    "prefecture": "京都府",
    "city": "京都市西京区",
    "town": "嵐山風呂ノ橋町"
  },
  "6160014": {
    "zipcode": "6160014",
    "prefectureCode": "26",
    "prefectureNumber": 26,
    "prefecture": "京都府",
    "city": "京都市西京区",
    "town": "嵐山谷ケ辻子町"
  },
  "6160015": {
    "zipcode": "6160015",
    "prefectureCode": "26",
    "prefectureNumber": 26,
    "prefecture": "京都府",
    "city": "京都市西京区",
    "town": "嵐山山ノ下町"
  },
  "6160016": {
    "zipcode": "6160016",
    "prefectureCode": "26",
    "prefectureNumber": 26,
    "prefecture": "京都府",
    "city": "京都市西京区",
    "town": "嵐山上海道町"
  },
  "6160017": {
    "zipcode": "6160017",
    "prefectureCode": "26",
    "prefectureNumber": 26,
    "prefecture": "京都府",
    "city": "京都市西京区",
    "town": "嵐山茶尻町"
  },
  "6160021": {
    "zipcode": "6160021",
    "prefectureCode": "26",
    "prefectureNumber": 26,
    "prefecture": "京都府",
    "city": "京都市西京区",
    "town": "嵐山森ノ前町"
  },
  "6160022": {
    "zipcode": "6160022",
    "prefectureCode": "26",
    "prefectureNumber": 26,
    "prefecture": "京都府",
    "city": "京都市西京区",
    "town": "嵐山朝月町"
  },
  "6160023": {
    "zipcode": "6160023",
    "prefectureCode": "26",
    "prefectureNumber": 26,
    "prefecture": "京都府",
    "city": "京都市西京区",
    "town": "嵐山宮ノ前町"
  },
  "6160024": {
    "zipcode": "6160024",
    "prefectureCode": "26",
    "prefectureNumber": 26,
    "prefecture": "京都府",
    "city": "京都市西京区",
    "town": "嵐山宮町"
  },
  "6160025": {
    "zipcode": "6160025",
    "prefectureCode": "26",
    "prefectureNumber": 26,
    "prefecture": "京都府",
    "city": "京都市西京区",
    "town": "嵐山宮ノ北町"
  },
  "6160026": {
    "zipcode": "6160026",
    "prefectureCode": "26",
    "prefectureNumber": 26,
    "prefecture": "京都府",
    "city": "京都市西京区",
    "town": "嵐山薬師下町"
  },
  "6160027": {
    "zipcode": "6160027",
    "prefectureCode": "26",
    "prefectureNumber": 26,
    "prefecture": "京都府",
    "city": "京都市西京区",
    "town": "嵐山内田町"
  },
  "6168001": {
    "zipcode": "6168001",
    "prefectureCode": "26",
    "prefectureNumber": 26,
    "prefecture": "京都府",
    "city": "京都市右京区",
    "town": "龍安寺御陵ノ下町"
  },
  "6168002": {
    "zipcode": "6168002",
    "prefectureCode": "26",
    "prefectureNumber": 26,
    "prefecture": "京都府",
    "city": "京都市右京区",
    "town": "龍安寺衣笠下町"
  },
  "6168003": {
    "zipcode": "6168003",
    "prefectureCode": "26",
    "prefectureNumber": 26,
    "prefecture": "京都府",
    "city": "京都市右京区",
    "town": "龍安寺池ノ下町"
  },
  "6168004": {
    "zipcode": "6168004",
    "prefectureCode": "26",
    "prefectureNumber": 26,
    "prefecture": "京都府",
    "city": "京都市右京区",
    "town": "龍安寺玉津芝町"
  },
  "6168005": {
    "zipcode": "6168005",
    "prefectureCode": "26",
    "prefectureNumber": 26,
    "prefecture": "京都府",
    "city": "京都市右京区",
    "town": "龍安寺塔ノ下町"
  },
  "6168006": {
    "zipcode": "6168006",
    "prefectureCode": "26",
    "prefectureNumber": 26,
    "prefecture": "京都府",
    "city": "京都市右京区",
    "town": "龍安寺住吉町"
  },
  "6168007": {
    "zipcode": "6168007",
    "prefectureCode": "26",
    "prefectureNumber": 26,
    "prefecture": "京都府",
    "city": "京都市右京区",
    "town": "龍安寺山田町"
  },
  "6168011": {
    "zipcode": "6168011",
    "prefectureCode": "26",
    "prefectureNumber": 26,
    "prefecture": "京都府",
    "city": "京都市右京区",
    "town": "龍安寺斎宮町"
  },
  "6168012": {
    "zipcode": "6168012",
    "prefectureCode": "26",
    "prefectureNumber": 26,
    "prefecture": "京都府",
    "city": "京都市右京区",
    "town": "谷口垣ノ内町"
  },
  "6168013": {
    "zipcode": "6168013",
    "prefectureCode": "26",
    "prefectureNumber": 26,
    "prefecture": "京都府",
    "city": "京都市右京区",
    "town": "谷口唐田ノ内町"
  },
  "6168014": {
    "zipcode": "6168014",
    "prefectureCode": "26",
    "prefectureNumber": 26,
    "prefecture": "京都府",
    "city": "京都市右京区",
    "town": "谷口梅津間町"
  },
  "6168015": {
    "zipcode": "6168015",
    "prefectureCode": "26",
    "prefectureNumber": 26,
    "prefecture": "京都府",
    "city": "京都市右京区",
    "town": "谷口園町"
  },
  "6168016": {
    "zipcode": "6168016",
    "prefectureCode": "26",
    "prefectureNumber": 26,
    "prefecture": "京都府",
    "city": "京都市右京区",
    "town": "龍安寺西ノ川町"
  },
  "6168017": {
    "zipcode": "6168017",
    "prefectureCode": "26",
    "prefectureNumber": 26,
    "prefecture": "京都府",
    "city": "京都市右京区",
    "town": "龍安寺五反田町"
  },
  "6168021": {
    "zipcode": "6168021",
    "prefectureCode": "26",
    "prefectureNumber": 26,
    "prefecture": "京都府",
    "city": "京都市右京区",
    "town": "花園天授ケ岡町"
  },
  "6168022": {
    "zipcode": "6168022",
    "prefectureCode": "26",
    "prefectureNumber": 26,
    "prefecture": "京都府",
    "city": "京都市右京区",
    "town": "谷口円成寺町"
  },
  "6168023": {
    "zipcode": "6168023",
    "prefectureCode": "26",
    "prefectureNumber": 26,
    "prefecture": "京都府",
    "city": "京都市右京区",
    "town": "花園大薮町"
  },
  "6168024": {
    "zipcode": "6168024",
    "prefectureCode": "26",
    "prefectureNumber": 26,
    "prefecture": "京都府",
    "city": "京都市右京区",
    "town": "花園一条田町"
  },
  "6168025": {
    "zipcode": "6168025",
    "prefectureCode": "26",
    "prefectureNumber": 26,
    "prefecture": "京都府",
    "city": "京都市右京区",
    "town": "花園土堂町"
  },
  "6168026": {
    "zipcode": "6168026",
    "prefectureCode": "26",
    "prefectureNumber": 26,
    "prefecture": "京都府",
    "city": "京都市右京区",
    "town": "花園岡ノ本町"
  },
  "6168027": {
    "zipcode": "6168027",
    "prefectureCode": "26",
    "prefectureNumber": 26,
    "prefecture": "京都府",
    "city": "京都市右京区",
    "town": "花園円成寺町"
  },
  "6168031": {
    "zipcode": "6168031",
    "prefectureCode": "26",
    "prefectureNumber": 26,
    "prefecture": "京都府",
    "city": "京都市右京区",
    "town": "花園鷹司町"
  },
  "6168032": {
    "zipcode": "6168032",
    "prefectureCode": "26",
    "prefectureNumber": 26,
    "prefecture": "京都府",
    "city": "京都市右京区",
    "town": "花園馬代町"
  },
  "6168033": {
    "zipcode": "6168033",
    "prefectureCode": "26",
    "prefectureNumber": 26,
    "prefecture": "京都府",
    "city": "京都市右京区",
    "town": "花園艮北町"
  },
  "6168034": {
    "zipcode": "6168034",
    "prefectureCode": "26",
    "prefectureNumber": 26,
    "prefecture": "京都府",
    "city": "京都市右京区",
    "town": "花園木辻北町"
  },
  "6168035": {
    "zipcode": "6168035",
    "prefectureCode": "26",
    "prefectureNumber": 26,
    "prefecture": "京都府",
    "city": "京都市右京区",
    "town": "花園妙心寺町"
  },
  "6168036": {
    "zipcode": "6168036",
    "prefectureCode": "26",
    "prefectureNumber": 26,
    "prefecture": "京都府",
    "city": "京都市右京区",
    "town": "花園寺ノ中町"
  },
  "6168037": {
    "zipcode": "6168037",
    "prefectureCode": "26",
    "prefectureNumber": 26,
    "prefecture": "京都府",
    "city": "京都市右京区",
    "town": "花園猪ノ毛町"
  },
  "6168041": {
    "zipcode": "6168041",
    "prefectureCode": "26",
    "prefectureNumber": 26,
    "prefecture": "京都府",
    "city": "京都市右京区",
    "town": "花園寺ノ前町"
  },
  "6168042": {
    "zipcode": "6168042",
    "prefectureCode": "26",
    "prefectureNumber": 26,
    "prefecture": "京都府",
    "city": "京都市右京区",
    "town": "花園伊町"
  },
  "6168043": {
    "zipcode": "6168043",
    "prefectureCode": "26",
    "prefectureNumber": 26,
    "prefecture": "京都府",
    "city": "京都市右京区",
    "town": "花園寺ノ内町"
  },
  "6168044": {
    "zipcode": "6168044",
    "prefectureCode": "26",
    "prefectureNumber": 26,
    "prefecture": "京都府",
    "city": "京都市右京区",
    "town": "花園扇野町"
  },
  "6168045": {
    "zipcode": "6168045",
    "prefectureCode": "26",
    "prefectureNumber": 26,
    "prefecture": "京都府",
    "city": "京都市右京区",
    "town": "花園内畑町"
  },
  "6168046": {
    "zipcode": "6168046",
    "prefectureCode": "26",
    "prefectureNumber": 26,
    "prefecture": "京都府",
    "city": "京都市右京区",
    "town": "花園段ノ岡町"
  },
  "6168047": {
    "zipcode": "6168047",
    "prefectureCode": "26",
    "prefectureNumber": 26,
    "prefecture": "京都府",
    "city": "京都市右京区",
    "town": "花園宮ノ上町"
  },
  "6168051": {
    "zipcode": "6168051",
    "prefectureCode": "26",
    "prefectureNumber": 26,
    "prefecture": "京都府",
    "city": "京都市右京区",
    "town": "花園巽南町"
  },
  "6168052": {
    "zipcode": "6168052",
    "prefectureCode": "26",
    "prefectureNumber": 26,
    "prefecture": "京都府",
    "city": "京都市右京区",
    "town": "花園薮ノ下町"
  },
  "6168053": {
    "zipcode": "6168053",
    "prefectureCode": "26",
    "prefectureNumber": 26,
    "prefecture": "京都府",
    "city": "京都市右京区",
    "town": "花園八ツ口町"
  },
  "6168054": {
    "zipcode": "6168054",
    "prefectureCode": "26",
    "prefectureNumber": 26,
    "prefecture": "京都府",
    "city": "京都市右京区",
    "town": "花園中御門町"
  },
  "6168055": {
    "zipcode": "6168055",
    "prefectureCode": "26",
    "prefectureNumber": 26,
    "prefecture": "京都府",
    "city": "京都市右京区",
    "town": "花園車道町"
  },
  "6168056": {
    "zipcode": "6168056",
    "prefectureCode": "26",
    "prefectureNumber": 26,
    "prefecture": "京都府",
    "city": "京都市右京区",
    "town": "花園坤南町"
  },
  "6168057": {
    "zipcode": "6168057",
    "prefectureCode": "26",
    "prefectureNumber": 26,
    "prefecture": "京都府",
    "city": "京都市右京区",
    "town": "花園木辻南町"
  },
  "6168061": {
    "zipcode": "6168061",
    "prefectureCode": "26",
    "prefectureNumber": 26,
    "prefecture": "京都府",
    "city": "京都市右京区",
    "town": "花園春日町"
  },
  "6168062": {
    "zipcode": "6168062",
    "prefectureCode": "26",
    "prefectureNumber": 26,
    "prefecture": "京都府",
    "city": "京都市右京区",
    "town": "太秦安井春日町"
  },
  "6168063": {
    "zipcode": "6168063",
    "prefectureCode": "26",
    "prefectureNumber": 26,
    "prefecture": "京都府",
    "city": "京都市右京区",
    "town": "太秦安井東裏町"
  },
  "6168064": {
    "zipcode": "6168064",
    "prefectureCode": "26",
    "prefectureNumber": 26,
    "prefecture": "京都府",
    "city": "京都市右京区",
    "town": "太秦安井北御所町"
  },
  "6168065": {
    "zipcode": "6168065",
    "prefectureCode": "26",
    "prefectureNumber": 26,
    "prefecture": "京都府",
    "city": "京都市右京区",
    "town": "太秦安井西裏町"
  },
  "6168066": {
    "zipcode": "6168066",
    "prefectureCode": "26",
    "prefectureNumber": 26,
    "prefecture": "京都府",
    "city": "京都市右京区",
    "town": "太秦安井車道町"
  },
  "6168067": {
    "zipcode": "6168067",
    "prefectureCode": "26",
    "prefectureNumber": 26,
    "prefecture": "京都府",
    "city": "京都市右京区",
    "town": "太秦安井小山町"
  },
  "6168071": {
    "zipcode": "6168071",
    "prefectureCode": "26",
    "prefectureNumber": 26,
    "prefecture": "京都府",
    "city": "京都市右京区",
    "town": "太秦安井藤ノ木町"
  },
  "6168072": {
    "zipcode": "6168072",
    "prefectureCode": "26",
    "prefectureNumber": 26,
    "prefecture": "京都府",
    "city": "京都市右京区",
    "town": "太秦安井辰巳町"
  },
  "6168073": {
    "zipcode": "6168073",
    "prefectureCode": "26",
    "prefectureNumber": 26,
    "prefecture": "京都府",
    "city": "京都市右京区",
    "town": "太秦安井水戸田町"
  },
  "6168074": {
    "zipcode": "6168074",
    "prefectureCode": "26",
    "prefectureNumber": 26,
    "prefecture": "京都府",
    "city": "京都市右京区",
    "town": "太秦安井二条裏町"
  },
  "6168075": {
    "zipcode": "6168075",
    "prefectureCode": "26",
    "prefectureNumber": 26,
    "prefecture": "京都府",
    "city": "京都市右京区",
    "town": "太秦安井柳通町"
  },
  "6168076": {
    "zipcode": "6168076",
    "prefectureCode": "26",
    "prefectureNumber": 26,
    "prefecture": "京都府",
    "city": "京都市右京区",
    "town": "太秦安井辻ノ内町"
  },
  "6168077": {
    "zipcode": "6168077",
    "prefectureCode": "26",
    "prefectureNumber": 26,
    "prefecture": "京都府",
    "city": "京都市右京区",
    "town": "太秦安井馬塚町"
  },
  "6168081": {
    "zipcode": "6168081",
    "prefectureCode": "26",
    "prefectureNumber": 26,
    "prefecture": "京都府",
    "city": "京都市右京区",
    "town": "太秦安井池田町"
  },
  "6168082": {
    "zipcode": "6168082",
    "prefectureCode": "26",
    "prefectureNumber": 26,
    "prefecture": "京都府",
    "city": "京都市右京区",
    "town": "太秦安井奥畑町"
  },
  "6168083": {
    "zipcode": "6168083",
    "prefectureCode": "26",
    "prefectureNumber": 26,
    "prefecture": "京都府",
    "city": "京都市右京区",
    "town": "太秦安井西沢町"
  },
  "6168084": {
    "zipcode": "6168084",
    "prefectureCode": "26",
    "prefectureNumber": 26,
    "prefecture": "京都府",
    "city": "京都市右京区",
    "town": "太秦安井一町田町"
  },
  "6168085": {
    "zipcode": "6168085",
    "prefectureCode": "26",
    "prefectureNumber": 26,
    "prefecture": "京都府",
    "city": "京都市右京区",
    "town": "太秦安井松本町"
  },
  "6168091": {
    "zipcode": "6168091",
    "prefectureCode": "26",
    "prefectureNumber": 26,
    "prefecture": "京都府",
    "city": "京都市右京区",
    "town": "御室住吉山町"
  },
  "6168092": {
    "zipcode": "6168092",
    "prefectureCode": "26",
    "prefectureNumber": 26,
    "prefecture": "京都府",
    "city": "京都市右京区",
    "town": "御室大内"
  },
  "6168093": {
    "zipcode": "6168093",
    "prefectureCode": "26",
    "prefectureNumber": 26,
    "prefecture": "京都府",
    "city": "京都市右京区",
    "town": "御室竪町"
  },
  "6168094": {
    "zipcode": "6168094",
    "prefectureCode": "26",
    "prefectureNumber": 26,
    "prefecture": "京都府",
    "city": "京都市右京区",
    "town": "御室小松野町"
  },
  "6168095": {
    "zipcode": "6168095",
    "prefectureCode": "26",
    "prefectureNumber": 26,
    "prefecture": "京都府",
    "city": "京都市右京区",
    "town": "御室芝橋町"
  },
  "6168096": {
    "zipcode": "6168096",
    "prefectureCode": "26",
    "prefectureNumber": 26,
    "prefecture": "京都府",
    "city": "京都市右京区",
    "town": "御室岡ノ裾町"
  },
  "6168097": {
    "zipcode": "6168097",
    "prefectureCode": "26",
    "prefectureNumber": 26,
    "prefecture": "京都府",
    "city": "京都市右京区",
    "town": "御室双岡町"
  },
  "6168101": {
    "zipcode": "6168101",
    "prefectureCode": "26",
    "prefectureNumber": 26,
    "prefecture": "京都府",
    "city": "京都市右京区",
    "town": "太秦和泉式部町"
  },
  "6168102": {
    "zipcode": "6168102",
    "prefectureCode": "26",
    "prefectureNumber": 26,
    "prefecture": "京都府",
    "city": "京都市右京区",
    "town": "太秦森ケ東町"
  },
  "6168103": {
    "zipcode": "6168103",
    "prefectureCode": "26",
    "prefectureNumber": 26,
    "prefecture": "京都府",
    "city": "京都市右京区",
    "town": "太秦上刑部町"
  },
  "6168104": {
    "zipcode": "6168104",
    "prefectureCode": "26",
    "prefectureNumber": 26,
    "prefecture": "京都府",
    "city": "京都市右京区",
    "town": "太秦下刑部町"
  },
  "6168105": {
    "zipcode": "6168105",
    "prefectureCode": "26",
    "prefectureNumber": 26,
    "prefecture": "京都府",
    "city": "京都市右京区",
    "town": "太秦森ケ前町"
  },
  "6168106": {
    "zipcode": "6168106",
    "prefectureCode": "26",
    "prefectureNumber": 26,
    "prefecture": "京都府",
    "city": "京都市右京区",
    "town": "太秦森ケ西町"
  },
  "6168107": {
    "zipcode": "6168107",
    "prefectureCode": "26",
    "prefectureNumber": 26,
    "prefecture": "京都府",
    "city": "京都市右京区",
    "town": "太秦一ノ井町"
  },
  "6168111": {
    "zipcode": "6168111",
    "prefectureCode": "26",
    "prefectureNumber": 26,
    "prefecture": "京都府",
    "city": "京都市右京区",
    "town": "太秦下角田町"
  },
  "6168112": {
    "zipcode": "6168112",
    "prefectureCode": "26",
    "prefectureNumber": 26,
    "prefecture": "京都府",
    "city": "京都市右京区",
    "town": "太秦木ノ下町"
  },
  "6168113": {
    "zipcode": "6168113",
    "prefectureCode": "26",
    "prefectureNumber": 26,
    "prefecture": "京都府",
    "city": "京都市右京区",
    "town": "太秦野元町"
  },
  "6168114": {
    "zipcode": "6168114",
    "prefectureCode": "26",
    "prefectureNumber": 26,
    "prefecture": "京都府",
    "city": "京都市右京区",
    "town": "太秦巽町"
  },
  "6168115": {
    "zipcode": "6168115",
    "prefectureCode": "26",
    "prefectureNumber": 26,
    "prefecture": "京都府",
    "city": "京都市右京区",
    "town": "太秦東唐渡町"
  },
  "6168116": {
    "zipcode": "6168116",
    "prefectureCode": "26",
    "prefectureNumber": 26,
    "prefecture": "京都府",
    "city": "京都市右京区",
    "town": "太秦松本町"
  },
  "6168117": {
    "zipcode": "6168117",
    "prefectureCode": "26",
    "prefectureNumber": 26,
    "prefecture": "京都府",
    "city": "京都市右京区",
    "town": "太秦門田町"
  },
  "6168121": {
    "zipcode": "6168121",
    "prefectureCode": "26",
    "prefectureNumber": 26,
    "prefecture": "京都府",
    "city": "京都市右京区",
    "town": "太秦垣内町"
  },
  "6168122": {
    "zipcode": "6168122",
    "prefectureCode": "26",
    "prefectureNumber": 26,
    "prefecture": "京都府",
    "city": "京都市右京区",
    "town": "太秦井戸ケ尻町"
  },
  "6168123": {
    "zipcode": "6168123",
    "prefectureCode": "26",
    "prefectureNumber": 26,
    "prefecture": "京都府",
    "city": "京都市右京区",
    "town": "太秦海正寺町"
  },
  "6168124": {
    "zipcode": "6168124",
    "prefectureCode": "26",
    "prefectureNumber": 26,
    "prefecture": "京都府",
    "city": "京都市右京区",
    "town": "太秦辻ケ本町"
  },
  "6168125": {
    "zipcode": "6168125",
    "prefectureCode": "26",
    "prefectureNumber": 26,
    "prefecture": "京都府",
    "city": "京都市右京区",
    "town": "太秦組石町"
  },
  "6168126": {
    "zipcode": "6168126",
    "prefectureCode": "26",
    "prefectureNumber": 26,
    "prefecture": "京都府",
    "city": "京都市右京区",
    "town": "太秦椙ケ本町"
  },
  "6168127": {
    "zipcode": "6168127",
    "prefectureCode": "26",
    "prefectureNumber": 26,
    "prefecture": "京都府",
    "city": "京都市右京区",
    "town": "太秦奥殿町"
  },
  "6168131": {
    "zipcode": "6168131",
    "prefectureCode": "26",
    "prefectureNumber": 26,
    "prefecture": "京都府",
    "city": "京都市右京区",
    "town": "太秦藤ケ森町"
  },
  "6168132": {
    "zipcode": "6168132",
    "prefectureCode": "26",
    "prefectureNumber": 26,
    "prefecture": "京都府",
    "city": "京都市右京区",
    "town": "太秦滝ケ花町"
  },
  "6168133": {
    "zipcode": "6168133",
    "prefectureCode": "26",
    "prefectureNumber": 26,
    "prefecture": "京都府",
    "city": "京都市右京区",
    "town": "太秦中堤町"
  },
  "6168134": {
    "zipcode": "6168134",
    "prefectureCode": "26",
    "prefectureNumber": 26,
    "prefecture": "京都府",
    "city": "京都市右京区",
    "town": "太秦唐渡町"
  },
  "6168135": {
    "zipcode": "6168135",
    "prefectureCode": "26",
    "prefectureNumber": 26,
    "prefecture": "京都府",
    "city": "京都市右京区",
    "town": "太秦小手角町"
  },
  "6168136": {
    "zipcode": "6168136",
    "prefectureCode": "26",
    "prefectureNumber": 26,
    "prefecture": "京都府",
    "city": "京都市右京区",
    "town": "太秦荒木町"
  },
  "6168137": {
    "zipcode": "6168137",
    "prefectureCode": "26",
    "prefectureNumber": 26,
    "prefecture": "京都府",
    "city": "京都市右京区",
    "town": "太秦朱雀町"
  },
  "6168141": {
    "zipcode": "6168141",
    "prefectureCode": "26",
    "prefectureNumber": 26,
    "prefecture": "京都府",
    "city": "京都市右京区",
    "town": "太秦棚森町"
  },
  "6168142": {
    "zipcode": "6168142",
    "prefectureCode": "26",
    "prefectureNumber": 26,
    "prefecture": "京都府",
    "city": "京都市右京区",
    "town": "太秦樋ノ内町"
  },
  "6168143": {
    "zipcode": "6168143",
    "prefectureCode": "26",
    "prefectureNumber": 26,
    "prefecture": "京都府",
    "city": "京都市右京区",
    "town": "太秦川所町"
  },
  "6168144": {
    "zipcode": "6168144",
    "prefectureCode": "26",
    "prefectureNumber": 26,
    "prefecture": "京都府",
    "city": "京都市右京区",
    "town": "太秦百合ケ本町"
  },
  "6168145": {
    "zipcode": "6168145",
    "prefectureCode": "26",
    "prefectureNumber": 26,
    "prefecture": "京都府",
    "city": "京都市右京区",
    "town": "太秦八反田町"
  },
  "6168146": {
    "zipcode": "6168146",
    "prefectureCode": "26",
    "prefectureNumber": 26,
    "prefecture": "京都府",
    "city": "京都市右京区",
    "town": "太秦前ノ田町"
  },
  "6168147": {
    "zipcode": "6168147",
    "prefectureCode": "26",
    "prefectureNumber": 26,
    "prefecture": "京都府",
    "city": "京都市右京区",
    "town": "太秦土本町"
  },
  "6168151": {
    "zipcode": "6168151",
    "prefectureCode": "26",
    "prefectureNumber": 26,
    "prefecture": "京都府",
    "city": "京都市右京区",
    "town": "太秦帷子ケ辻町"
  },
  "6168152": {
    "zipcode": "6168152",
    "prefectureCode": "26",
    "prefectureNumber": 26,
    "prefecture": "京都府",
    "city": "京都市右京区",
    "town": "太秦堀ケ内町"
  },
  "6168153": {
    "zipcode": "6168153",
    "prefectureCode": "26",
    "prefectureNumber": 26,
    "prefecture": "京都府",
    "city": "京都市右京区",
    "town": "太秦面影町"
  },
  "6168154": {
    "zipcode": "6168154",
    "prefectureCode": "26",
    "prefectureNumber": 26,
    "prefecture": "京都府",
    "city": "京都市右京区",
    "town": "太秦皆正寺町"
  },
  "6168155": {
    "zipcode": "6168155",
    "prefectureCode": "26",
    "prefectureNumber": 26,
    "prefecture": "京都府",
    "city": "京都市右京区",
    "town": "太秦袴田町"
  },
  "6168156": {
    "zipcode": "6168156",
    "prefectureCode": "26",
    "prefectureNumber": 26,
    "prefecture": "京都府",
    "city": "京都市右京区",
    "town": "太秦西野町"
  },
  "6168157": {
    "zipcode": "6168157",
    "prefectureCode": "26",
    "prefectureNumber": 26,
    "prefecture": "京都府",
    "city": "京都市右京区",
    "town": "太秦御所ノ内町"
  },
  "6168161": {
    "zipcode": "6168161",
    "prefectureCode": "26",
    "prefectureNumber": 26,
    "prefecture": "京都府",
    "city": "京都市右京区",
    "town": "太秦東蜂岡町"
  },
  "6168162": {
    "zipcode": "6168162",
    "prefectureCode": "26",
    "prefectureNumber": 26,
    "prefecture": "京都府",
    "city": "京都市右京区",
    "town": "太秦蜂岡町"
  },
  "6168163": {
    "zipcode": "6168163",
    "prefectureCode": "26",
    "prefectureNumber": 26,
    "prefecture": "京都府",
    "city": "京都市右京区",
    "town": "太秦西蜂岡町"
  },
  "6168164": {
    "zipcode": "6168164",
    "prefectureCode": "26",
    "prefectureNumber": 26,
    "prefecture": "京都府",
    "city": "京都市右京区",
    "town": "太秦桂木町"
  },
  "6168165": {
    "zipcode": "6168165",
    "prefectureCode": "26",
    "prefectureNumber": 26,
    "prefecture": "京都府",
    "city": "京都市右京区",
    "town": "太秦桂ケ原町"
  },
  "6168166": {
    "zipcode": "6168166",
    "prefectureCode": "26",
    "prefectureNumber": 26,
    "prefecture": "京都府",
    "city": "京都市右京区",
    "town": "太秦石垣町"
  },
  "6168167": {
    "zipcode": "6168167",
    "prefectureCode": "26",
    "prefectureNumber": 26,
    "prefecture": "京都府",
    "city": "京都市右京区",
    "town": "太秦多薮町"
  },
  "6168171": {
    "zipcode": "6168171",
    "prefectureCode": "26",
    "prefectureNumber": 26,
    "prefecture": "京都府",
    "city": "京都市右京区",
    "town": "太秦青木ケ原町"
  },
  "6168172": {
    "zipcode": "6168172",
    "prefectureCode": "26",
    "prefectureNumber": 26,
    "prefecture": "京都府",
    "city": "京都市右京区",
    "town": "太秦青木元町"
  },
  "6168173": {
    "zipcode": "6168173",
    "prefectureCode": "26",
    "prefectureNumber": 26,
    "prefecture": "京都府",
    "city": "京都市右京区",
    "town": "太秦上ノ段町"
  },
  "6168174": {
    "zipcode": "6168174",
    "prefectureCode": "26",
    "prefectureNumber": 26,
    "prefecture": "京都府",
    "city": "京都市右京区",
    "town": "太秦垂箕山町"
  },
  "6168175": {
    "zipcode": "6168175",
    "prefectureCode": "26",
    "prefectureNumber": 26,
    "prefecture": "京都府",
    "city": "京都市右京区",
    "town": "太秦一町芝町"
  },
  "6168176": {
    "zipcode": "6168176",
    "prefectureCode": "26",
    "prefectureNumber": 26,
    "prefecture": "京都府",
    "city": "京都市右京区",
    "town": "太秦乾町"
  },
  "6168177": {
    "zipcode": "6168177",
    "prefectureCode": "26",
    "prefectureNumber": 26,
    "prefecture": "京都府",
    "city": "京都市右京区",
    "town": "太秦馬塚町"
  },
  "6168181": {
    "zipcode": "6168181",
    "prefectureCode": "26",
    "prefectureNumber": 26,
    "prefecture": "京都府",
    "city": "京都市右京区",
    "town": "太秦京ノ道町"
  },
  "6168182": {
    "zipcode": "6168182",
    "prefectureCode": "26",
    "prefectureNumber": 26,
    "prefecture": "京都府",
    "city": "京都市右京区",
    "town": "太秦北路町"
  },
  "6168183": {
    "zipcode": "6168183",
    "prefectureCode": "26",
    "prefectureNumber": 26,
    "prefecture": "京都府",
    "city": "京都市右京区",
    "town": "太秦宮ノ前町"
  },
  "6168184": {
    "zipcode": "6168184",
    "prefectureCode": "26",
    "prefectureNumber": 26,
    "prefecture": "京都府",
    "city": "京都市右京区",
    "town": "太秦中筋町"
  },
  "6168185": {
    "zipcode": "6168185",
    "prefectureCode": "26",
    "prefectureNumber": 26,
    "prefecture": "京都府",
    "city": "京都市右京区",
    "town": "太秦開日町"
  },
  "6168186": {
    "zipcode": "6168186",
    "prefectureCode": "26",
    "prefectureNumber": 26,
    "prefecture": "京都府",
    "city": "京都市右京区",
    "town": "太秦堀池町"
  },
  "6168187": {
    "zipcode": "6168187",
    "prefectureCode": "26",
    "prefectureNumber": 26,
    "prefecture": "京都府",
    "city": "京都市右京区",
    "town": "太秦御領田町"
  },
  "6168191": {
    "zipcode": "6168191",
    "prefectureCode": "26",
    "prefectureNumber": 26,
    "prefecture": "京都府",
    "city": "京都市右京区",
    "town": "太秦中山町"
  },
  "6168192": {
    "zipcode": "6168192",
    "prefectureCode": "26",
    "prefectureNumber": 26,
    "prefecture": "京都府",
    "city": "京都市右京区",
    "town": "太秦三尾町"
  },
  "6168193": {
    "zipcode": "6168193",
    "prefectureCode": "26",
    "prefectureNumber": 26,
    "prefecture": "京都府",
    "city": "京都市右京区",
    "town": "山越巽町"
  },
  "6168194": {
    "zipcode": "6168194",
    "prefectureCode": "26",
    "prefectureNumber": 26,
    "prefecture": "京都府",
    "city": "京都市右京区",
    "town": "山越東町"
  },
  "6168195": {
    "zipcode": "6168195",
    "prefectureCode": "26",
    "prefectureNumber": 26,
    "prefecture": "京都府",
    "city": "京都市右京区",
    "town": "山越中町"
  },
  "6168196": {
    "zipcode": "6168196",
    "prefectureCode": "26",
    "prefectureNumber": 26,
    "prefecture": "京都府",
    "city": "京都市右京区",
    "town": "山越西町"
  },
  "6168197": {
    "zipcode": "6168197",
    "prefectureCode": "26",
    "prefectureNumber": 26,
    "prefecture": "京都府",
    "city": "京都市右京区",
    "town": "山越乾町"
  },
  "6168201": {
    "zipcode": "6168201",
    "prefectureCode": "26",
    "prefectureNumber": 26,
    "prefecture": "京都府",
    "city": "京都市右京区",
    "town": "宇多野北ノ院町"
  },
  "6168202": {
    "zipcode": "6168202",
    "prefectureCode": "26",
    "prefectureNumber": 26,
    "prefecture": "京都府",
    "city": "京都市右京区",
    "town": "宇多野馬場町"
  },
  "6168203": {
    "zipcode": "6168203",
    "prefectureCode": "26",
    "prefectureNumber": 26,
    "prefecture": "京都府",
    "city": "京都市右京区",
    "town": "宇多野柴橋町"
  },
  "6168204": {
    "zipcode": "6168204",
    "prefectureCode": "26",
    "prefectureNumber": 26,
    "prefecture": "京都府",
    "city": "京都市右京区",
    "town": "宇多野御池町"
  },
  "6168205": {
    "zipcode": "6168205",
    "prefectureCode": "26",
    "prefectureNumber": 26,
    "prefecture": "京都府",
    "city": "京都市右京区",
    "town": "宇多野御屋敷町"
  },
  "6168206": {
    "zipcode": "6168206",
    "prefectureCode": "26",
    "prefectureNumber": 26,
    "prefecture": "京都府",
    "city": "京都市右京区",
    "town": "宇多野法安寺町"
  },
  "6168207": {
    "zipcode": "6168207",
    "prefectureCode": "26",
    "prefectureNumber": 26,
    "prefecture": "京都府",
    "city": "京都市右京区",
    "town": "宇多野長尾町"
  },
  "6168208": {
    "zipcode": "6168208",
    "prefectureCode": "26",
    "prefectureNumber": 26,
    "prefecture": "京都府",
    "city": "京都市右京区",
    "town": "宇多野福王子町"
  },
  "6168209": {
    "zipcode": "6168209",
    "prefectureCode": "26",
    "prefectureNumber": 26,
    "prefecture": "京都府",
    "city": "京都市右京区",
    "town": "宇多野芝町"
  },
  "6168211": {
    "zipcode": "6168211",
    "prefectureCode": "26",
    "prefectureNumber": 26,
    "prefecture": "京都府",
    "city": "京都市右京区",
    "town": "常盤御池町"
  },
  "6168212": {
    "zipcode": "6168212",
    "prefectureCode": "26",
    "prefectureNumber": 26,
    "prefecture": "京都府",
    "city": "京都市右京区",
    "town": "常盤山下町"
  },
  "6168213": {
    "zipcode": "6168213",
    "prefectureCode": "26",
    "prefectureNumber": 26,
    "prefecture": "京都府",
    "city": "京都市右京区",
    "town": "常盤音戸町"
  },
  "6168214": {
    "zipcode": "6168214",
    "prefectureCode": "26",
    "prefectureNumber": 26,
    "prefecture": "京都府",
    "city": "京都市右京区",
    "town": "常盤古御所町"
  },
  "6168215": {
    "zipcode": "6168215",
    "prefectureCode": "26",
    "prefectureNumber": 26,
    "prefecture": "京都府",
    "city": "京都市右京区",
    "town": "常盤森町"
  },
  "6168216": {
    "zipcode": "6168216",
    "prefectureCode": "26",
    "prefectureNumber": 26,
    "prefecture": "京都府",
    "city": "京都市右京区",
    "town": "常盤一ノ井町"
  },
  "6168217": {
    "zipcode": "6168217",
    "prefectureCode": "26",
    "prefectureNumber": 26,
    "prefecture": "京都府",
    "city": "京都市右京区",
    "town": "常盤東ノ町"
  },
  "6168218": {
    "zipcode": "6168218",
    "prefectureCode": "26",
    "prefectureNumber": 26,
    "prefecture": "京都府",
    "city": "京都市右京区",
    "town": "常盤出口町"
  },
  "6168219": {
    "zipcode": "6168219",
    "prefectureCode": "26",
    "prefectureNumber": 26,
    "prefecture": "京都府",
    "city": "京都市右京区",
    "town": "常盤神田町"
  },
  "6168221": {
    "zipcode": "6168221",
    "prefectureCode": "26",
    "prefectureNumber": 26,
    "prefecture": "京都府",
    "city": "京都市右京区",
    "town": "常盤村ノ内町"
  },
  "6168222": {
    "zipcode": "6168222",
    "prefectureCode": "26",
    "prefectureNumber": 26,
    "prefecture": "京都府",
    "city": "京都市右京区",
    "town": "常盤仲之町"
  },
  "6168223": {
    "zipcode": "6168223",
    "prefectureCode": "26",
    "prefectureNumber": 26,
    "prefecture": "京都府",
    "city": "京都市右京区",
    "town": "常盤西町"
  },
  "6168224": {
    "zipcode": "6168224",
    "prefectureCode": "26",
    "prefectureNumber": 26,
    "prefecture": "京都府",
    "city": "京都市右京区",
    "town": "常盤窪町"
  },
  "6168225": {
    "zipcode": "6168225",
    "prefectureCode": "26",
    "prefectureNumber": 26,
    "prefecture": "京都府",
    "city": "京都市右京区",
    "town": "常盤馬塚町"
  },
  "6168226": {
    "zipcode": "6168226",
    "prefectureCode": "26",
    "prefectureNumber": 26,
    "prefecture": "京都府",
    "city": "京都市右京区",
    "town": "常盤段ノ上町"
  },
  "6168227": {
    "zipcode": "6168227",
    "prefectureCode": "26",
    "prefectureNumber": 26,
    "prefecture": "京都府",
    "city": "京都市右京区",
    "town": "常盤草木町"
  },
  "6168228": {
    "zipcode": "6168228",
    "prefectureCode": "26",
    "prefectureNumber": 26,
    "prefecture": "京都府",
    "city": "京都市右京区",
    "town": "常盤下田町"
  },
  "6168229": {
    "zipcode": "6168229",
    "prefectureCode": "26",
    "prefectureNumber": 26,
    "prefecture": "京都府",
    "city": "京都市右京区",
    "town": "常盤北裏町"
  },
  "6168231": {
    "zipcode": "6168231",
    "prefectureCode": "26",
    "prefectureNumber": 26,
    "prefecture": "京都府",
    "city": "京都市右京区",
    "town": "常盤柏ノ木町"
  },
  "6168232": {
    "zipcode": "6168232",
    "prefectureCode": "26",
    "prefectureNumber": 26,
    "prefecture": "京都府",
    "city": "京都市右京区",
    "town": "鳴滝蓮花寺町"
  },
  "6168233": {
    "zipcode": "6168233",
    "prefectureCode": "26",
    "prefectureNumber": 26,
    "prefecture": "京都府",
    "city": "京都市右京区",
    "town": "鳴滝中道町"
  },
  "6168234": {
    "zipcode": "6168234",
    "prefectureCode": "26",
    "prefectureNumber": 26,
    "prefecture": "京都府",
    "city": "京都市右京区",
    "town": "鳴滝嵯峨園町"
  },
  "6168235": {
    "zipcode": "6168235",
    "prefectureCode": "26",
    "prefectureNumber": 26,
    "prefecture": "京都府",
    "city": "京都市右京区",
    "town": "鳴滝西嵯峨園町"
  },
  "6168236": {
    "zipcode": "6168236",
    "prefectureCode": "26",
    "prefectureNumber": 26,
    "prefecture": "京都府",
    "city": "京都市右京区",
    "town": "鳴滝春木町"
  },
  "6168237": {
    "zipcode": "6168237",
    "prefectureCode": "26",
    "prefectureNumber": 26,
    "prefecture": "京都府",
    "city": "京都市右京区",
    "town": "鳴滝瑞穂町"
  },
  "6168238": {
    "zipcode": "6168238",
    "prefectureCode": "26",
    "prefectureNumber": 26,
    "prefecture": "京都府",
    "city": "京都市右京区",
    "town": "鳴滝桐ケ淵町"
  },
  "6168241": {
    "zipcode": "6168241",
    "prefectureCode": "26",
    "prefectureNumber": 26,
    "prefecture": "京都府",
    "city": "京都市右京区",
    "town": "鳴滝泉殿町"
  },
  "6168242": {
    "zipcode": "6168242",
    "prefectureCode": "26",
    "prefectureNumber": 26,
    "prefecture": "京都府",
    "city": "京都市右京区",
    "town": "鳴滝本町"
  },
  "6168243": {
    "zipcode": "6168243",
    "prefectureCode": "26",
    "prefectureNumber": 26,
    "prefecture": "京都府",
    "city": "京都市右京区",
    "town": "鳴滝安井殿町"
  },
  "6168244": {
    "zipcode": "6168244",
    "prefectureCode": "26",
    "prefectureNumber": 26,
    "prefecture": "京都府",
    "city": "京都市右京区",
    "town": "鳴滝藤ノ木町"
  },
  "6168245": {
    "zipcode": "6168245",
    "prefectureCode": "26",
    "prefectureNumber": 26,
    "prefecture": "京都府",
    "city": "京都市右京区",
    "town": "音戸山山ノ茶屋町"
  },
  "6168246": {
    "zipcode": "6168246",
    "prefectureCode": "26",
    "prefectureNumber": 26,
    "prefecture": "京都府",
    "city": "京都市右京区",
    "town": "鳴滝川西町"
  },
  "6168247": {
    "zipcode": "6168247",
    "prefectureCode": "26",
    "prefectureNumber": 26,
    "prefecture": "京都府",
    "city": "京都市右京区",
    "town": "鳴滝蓮池町"
  },
  "6168251": {
    "zipcode": "6168251",
    "prefectureCode": "26",
    "prefectureNumber": 26,
    "prefecture": "京都府",
    "city": "京都市右京区",
    "town": "鳴滝宇多野谷"
  },
  "6168252": {
    "zipcode": "6168252",
    "prefectureCode": "26",
    "prefectureNumber": 26,
    "prefecture": "京都府",
    "city": "京都市右京区",
    "town": "宇多野上ノ谷町"
  },
  "6168253": {
    "zipcode": "6168253",
    "prefectureCode": "26",
    "prefectureNumber": 26,
    "prefecture": "京都府",
    "city": "京都市右京区",
    "town": "鳴滝泉谷町"
  },
  "6168254": {
    "zipcode": "6168254",
    "prefectureCode": "26",
    "prefectureNumber": 26,
    "prefecture": "京都府",
    "city": "京都市右京区",
    "town": "鳴滝宅間町"
  },
  "6168255": {
    "zipcode": "6168255",
    "prefectureCode": "26",
    "prefectureNumber": 26,
    "prefecture": "京都府",
    "city": "京都市右京区",
    "town": "鳴滝音戸山町"
  },
  "6168256": {
    "zipcode": "6168256",
    "prefectureCode": "26",
    "prefectureNumber": 26,
    "prefecture": "京都府",
    "city": "京都市右京区",
    "town": "鳴滝松本町"
  },
  "6168257": {
    "zipcode": "6168257",
    "prefectureCode": "26",
    "prefectureNumber": 26,
    "prefecture": "京都府",
    "city": "京都市右京区",
    "town": "鳴滝白砂"
  },
  "6168258": {
    "zipcode": "6168258",
    "prefectureCode": "26",
    "prefectureNumber": 26,
    "prefecture": "京都府",
    "city": "京都市右京区",
    "town": "鳴滝般若寺町"
  },
  "6168261": {
    "zipcode": "6168261",
    "prefectureCode": "26",
    "prefectureNumber": 26,
    "prefecture": "京都府",
    "city": "京都市右京区",
    "town": "梅ケ畑高鼻町"
  },
  "6168262": {
    "zipcode": "6168262",
    "prefectureCode": "26",
    "prefectureNumber": 26,
    "prefecture": "京都府",
    "city": "京都市右京区",
    "town": "梅ケ畑向ノ地町"
  },
  "6168263": {
    "zipcode": "6168263",
    "prefectureCode": "26",
    "prefectureNumber": 26,
    "prefecture": "京都府",
    "city": "京都市右京区",
    "town": "梅ケ畑畑ノ下町"
  },
  "6168264": {
    "zipcode": "6168264",
    "prefectureCode": "26",
    "prefectureNumber": 26,
    "prefecture": "京都府",
    "city": "京都市右京区",
    "town": "梅ケ畑薮ノ下町"
  },
  "6168265": {
    "zipcode": "6168265",
    "prefectureCode": "26",
    "prefectureNumber": 26,
    "prefecture": "京都府",
    "city": "京都市右京区",
    "town": "梅ケ畑畑町"
  },
  "6168266": {
    "zipcode": "6168266",
    "prefectureCode": "26",
    "prefectureNumber": 26,
    "prefecture": "京都府",
    "city": "京都市右京区",
    "town": "梅ケ畑中田町"
  },
  "6168267": {
    "zipcode": "6168267",
    "prefectureCode": "26",
    "prefectureNumber": 26,
    "prefecture": "京都府",
    "city": "京都市右京区",
    "town": "梅ケ畑山崎町"
  },
  "6168268": {
    "zipcode": "6168268",
    "prefectureCode": "26",
    "prefectureNumber": 26,
    "prefecture": "京都府",
    "city": "京都市右京区",
    "town": "梅ケ畑古田町"
  },
  "6168271": {
    "zipcode": "6168271",
    "prefectureCode": "26",
    "prefectureNumber": 26,
    "prefecture": "京都府",
    "city": "京都市右京区",
    "town": "梅ケ畑宮ノ口町"
  },
  "6168272": {
    "zipcode": "6168272",
    "prefectureCode": "26",
    "prefectureNumber": 26,
    "prefecture": "京都府",
    "city": "京都市右京区",
    "town": "梅ケ畑猪ノ尻町"
  },
  "6168273": {
    "zipcode": "6168273",
    "prefectureCode": "26",
    "prefectureNumber": 26,
    "prefecture": "京都府",
    "city": "京都市右京区",
    "town": "梅ケ畑中縄手町"
  },
  "6168274": {
    "zipcode": "6168274",
    "prefectureCode": "26",
    "prefectureNumber": 26,
    "prefecture": "京都府",
    "city": "京都市右京区",
    "town": "梅ケ畑上ノ町"
  },
  "6168275": {
    "zipcode": "6168275",
    "prefectureCode": "26",
    "prefectureNumber": 26,
    "prefecture": "京都府",
    "city": "京都市右京区",
    "town": "梅ケ畑篝町"
  },
  "6168276": {
    "zipcode": "6168276",
    "prefectureCode": "26",
    "prefectureNumber": 26,
    "prefecture": "京都府",
    "city": "京都市右京区",
    "town": "梅ケ畑清水町"
  },
  "6168277": {
    "zipcode": "6168277",
    "prefectureCode": "26",
    "prefectureNumber": 26,
    "prefecture": "京都府",
    "city": "京都市右京区",
    "town": "梅ケ畑広芝町"
  },
  "6168278": {
    "zipcode": "6168278",
    "prefectureCode": "26",
    "prefectureNumber": 26,
    "prefecture": "京都府",
    "city": "京都市右京区",
    "town": "梅ケ畑菖蒲谷"
  },
  "6168281": {
    "zipcode": "6168281",
    "prefectureCode": "26",
    "prefectureNumber": 26,
    "prefecture": "京都府",
    "city": "京都市右京区",
    "town": "梅ケ畑久保谷町"
  },
  "6168282": {
    "zipcode": "6168282",
    "prefectureCode": "26",
    "prefectureNumber": 26,
    "prefecture": "京都府",
    "city": "京都市右京区",
    "town": "梅ケ畑上砥町"
  },
  "6168283": {
    "zipcode": "6168283",
    "prefectureCode": "26",
    "prefectureNumber": 26,
    "prefecture": "京都府",
    "city": "京都市右京区",
    "town": "梅ケ畑奥殿町"
  },
  "6168284": {
    "zipcode": "6168284",
    "prefectureCode": "26",
    "prefectureNumber": 26,
    "prefecture": "京都府",
    "city": "京都市右京区",
    "town": "梅ケ畑御経坂町"
  },
  "6168285": {
    "zipcode": "6168285",
    "prefectureCode": "26",
    "prefectureNumber": 26,
    "prefecture": "京都府",
    "city": "京都市右京区",
    "town": "梅ケ畑檜社町"
  },
  "6168286": {
    "zipcode": "6168286",
    "prefectureCode": "26",
    "prefectureNumber": 26,
    "prefecture": "京都府",
    "city": "京都市右京区",
    "town": "梅ケ畑御所ノ口町"
  },
  "6168287": {
    "zipcode": "6168287",
    "prefectureCode": "26",
    "prefectureNumber": 26,
    "prefecture": "京都府",
    "city": "京都市右京区",
    "town": "梅ケ畑中嶋町"
  },
  "6168288": {
    "zipcode": "6168288",
    "prefectureCode": "26",
    "prefectureNumber": 26,
    "prefecture": "京都府",
    "city": "京都市右京区",
    "town": "梅ケ畑笹江辺町"
  },
  "6168289": {
    "zipcode": "6168289",
    "prefectureCode": "26",
    "prefectureNumber": 26,
    "prefecture": "京都府",
    "city": "京都市右京区",
    "town": "梅ケ畑西ノ畑町"
  },
  "6168291": {
    "zipcode": "6168291",
    "prefectureCode": "26",
    "prefectureNumber": 26,
    "prefecture": "京都府",
    "city": "京都市右京区",
    "town": "梅ケ畑槇尾町"
  },
  "6168292": {
    "zipcode": "6168292",
    "prefectureCode": "26",
    "prefectureNumber": 26,
    "prefecture": "京都府",
    "city": "京都市右京区",
    "town": "梅ケ畑高雄町"
  },
  "6168293": {
    "zipcode": "6168293",
    "prefectureCode": "26",
    "prefectureNumber": 26,
    "prefecture": "京都府",
    "city": "京都市右京区",
    "town": "梅ケ畑殿畑町"
  },
  "6168294": {
    "zipcode": "6168294",
    "prefectureCode": "26",
    "prefectureNumber": 26,
    "prefecture": "京都府",
    "city": "京都市右京区",
    "town": "梅ケ畑引地町"
  },
  "6168295": {
    "zipcode": "6168295",
    "prefectureCode": "26",
    "prefectureNumber": 26,
    "prefecture": "京都府",
    "city": "京都市右京区",
    "town": "梅ケ畑栂尾町"
  },
  "6168296": {
    "zipcode": "6168296",
    "prefectureCode": "26",
    "prefectureNumber": 26,
    "prefecture": "京都府",
    "city": "京都市右京区",
    "town": "梅ケ畑川西町"
  },
  "6168297": {
    "zipcode": "6168297",
    "prefectureCode": "26",
    "prefectureNumber": 26,
    "prefecture": "京都府",
    "city": "京都市右京区",
    "town": "梅ケ畑亀石町"
  },
  "6168301": {
    "zipcode": "6168301",
    "prefectureCode": "26",
    "prefectureNumber": 26,
    "prefecture": "京都府",
    "city": "京都市右京区",
    "town": "嵯峨広沢町"
  },
  "6168302": {
    "zipcode": "6168302",
    "prefectureCode": "26",
    "prefectureNumber": 26,
    "prefecture": "京都府",
    "city": "京都市右京区",
    "town": "嵯峨広沢北下馬野町"
  },
  "6168303": {
    "zipcode": "6168303",
    "prefectureCode": "26",
    "prefectureNumber": 26,
    "prefecture": "京都府",
    "city": "京都市右京区",
    "town": "嵯峨広沢南下馬野町"
  },
  "6168304": {
    "zipcode": "6168304",
    "prefectureCode": "26",
    "prefectureNumber": 26,
    "prefecture": "京都府",
    "city": "京都市右京区",
    "town": "嵯峨広沢南野町"
  },
  "6168305": {
    "zipcode": "6168305",
    "prefectureCode": "26",
    "prefectureNumber": 26,
    "prefecture": "京都府",
    "city": "京都市右京区",
    "town": "嵯峨広沢御所ノ内町"
  },
  "6168306": {
    "zipcode": "6168306",
    "prefectureCode": "26",
    "prefectureNumber": 26,
    "prefecture": "京都府",
    "city": "京都市右京区",
    "town": "嵯峨広沢西裏町"
  },
  "6168307": {
    "zipcode": "6168307",
    "prefectureCode": "26",
    "prefectureNumber": 26,
    "prefecture": "京都府",
    "city": "京都市右京区",
    "town": "嵯峨広沢池下町"
  },
  "6168311": {
    "zipcode": "6168311",
    "prefectureCode": "26",
    "prefectureNumber": 26,
    "prefecture": "京都府",
    "city": "京都市右京区",
    "town": "嵯峨野嵯峨ノ段町"
  },
  "6168312": {
    "zipcode": "6168312",
    "prefectureCode": "26",
    "prefectureNumber": 26,
    "prefecture": "京都府",
    "city": "京都市右京区",
    "town": "嵯峨野清水町"
  },
  "6168313": {
    "zipcode": "6168313",
    "prefectureCode": "26",
    "prefectureNumber": 26,
    "prefecture": "京都府",
    "city": "京都市右京区",
    "town": "嵯峨野開町"
  },
  "6168314": {
    "zipcode": "6168314",
    "prefectureCode": "26",
    "prefectureNumber": 26,
    "prefecture": "京都府",
    "city": "京都市右京区",
    "town": "嵯峨野秋街道町"
  },
  "6168315": {
    "zipcode": "6168315",
    "prefectureCode": "26",
    "prefectureNumber": 26,
    "prefecture": "京都府",
    "city": "京都市右京区",
    "town": "嵯峨野宮ノ元町"
  },
  "6168316": {
    "zipcode": "6168316",
    "prefectureCode": "26",
    "prefectureNumber": 26,
    "prefecture": "京都府",
    "city": "京都市右京区",
    "town": "嵯峨野有栖川町"
  },
  "6168317": {
    "zipcode": "6168317",
    "prefectureCode": "26",
    "prefectureNumber": 26,
    "prefecture": "京都府",
    "city": "京都市右京区",
    "town": "嵯峨野神ノ木町"
  },
  "6168321": {
    "zipcode": "6168321",
    "prefectureCode": "26",
    "prefectureNumber": 26,
    "prefecture": "京都府",
    "city": "京都市右京区",
    "town": "嵯峨野千代ノ道町"
  },
  "6168322": {
    "zipcode": "6168322",
    "prefectureCode": "26",
    "prefectureNumber": 26,
    "prefecture": "京都府",
    "city": "京都市右京区",
    "town": "嵯峨野芝野町"
  },
  "6168323": {
    "zipcode": "6168323",
    "prefectureCode": "26",
    "prefectureNumber": 26,
    "prefecture": "京都府",
    "city": "京都市右京区",
    "town": "嵯峨野投渕町"
  },
  "6168324": {
    "zipcode": "6168324",
    "prefectureCode": "26",
    "prefectureNumber": 26,
    "prefecture": "京都府",
    "city": "京都市右京区",
    "town": "嵯峨野南浦町"
  },
  "6168325": {
    "zipcode": "6168325",
    "prefectureCode": "26",
    "prefectureNumber": 26,
    "prefecture": "京都府",
    "city": "京都市右京区",
    "town": "嵯峨野高田町"
  },
  "6168326": {
    "zipcode": "6168326",
    "prefectureCode": "26",
    "prefectureNumber": 26,
    "prefecture": "京都府",
    "city": "京都市右京区",
    "town": "嵯峨野東田町"
  },
  "6168327": {
    "zipcode": "6168327",
    "prefectureCode": "26",
    "prefectureNumber": 26,
    "prefecture": "京都府",
    "city": "京都市右京区",
    "town": "嵯峨野六反田町"
  },
  "6168331": {
    "zipcode": "6168331",
    "prefectureCode": "26",
    "prefectureNumber": 26,
    "prefecture": "京都府",
    "city": "京都市右京区",
    "town": "嵯峨野内田町"
  },
  "6168332": {
    "zipcode": "6168332",
    "prefectureCode": "26",
    "prefectureNumber": 26,
    "prefecture": "京都府",
    "city": "京都市右京区",
    "town": "嵯峨野北野町"
  },
  "6168333": {
    "zipcode": "6168333",
    "prefectureCode": "26",
    "prefectureNumber": 26,
    "prefecture": "京都府",
    "city": "京都市右京区",
    "town": "嵯峨野西ノ藤町"
  },
  "6168334": {
    "zipcode": "6168334",
    "prefectureCode": "26",
    "prefectureNumber": 26,
    "prefecture": "京都府",
    "city": "京都市右京区",
    "town": "嵯峨罧原町"
  },
  "6168335": {
    "zipcode": "6168335",
    "prefectureCode": "26",
    "prefectureNumber": 26,
    "prefecture": "京都府",
    "city": "京都市右京区",
    "town": "嵯峨石ケ坪町"
  },
  "6168336": {
    "zipcode": "6168336",
    "prefectureCode": "26",
    "prefectureNumber": 26,
    "prefecture": "京都府",
    "city": "京都市右京区",
    "town": "嵯峨蜻蛉尻町"
  },
  "6168337": {
    "zipcode": "6168337",
    "prefectureCode": "26",
    "prefectureNumber": 26,
    "prefecture": "京都府",
    "city": "京都市右京区",
    "town": "嵯峨明星町"
  },
  "6168341": {
    "zipcode": "6168341",
    "prefectureCode": "26",
    "prefectureNumber": 26,
    "prefecture": "京都府",
    "city": "京都市右京区",
    "town": "嵯峨甲塚町"
  },
  "6168342": {
    "zipcode": "6168342",
    "prefectureCode": "26",
    "prefectureNumber": 26,
    "prefecture": "京都府",
    "city": "京都市右京区",
    "town": "嵯峨苅分町"
  },
  "6168343": {
    "zipcode": "6168343",
    "prefectureCode": "26",
    "prefectureNumber": 26,
    "prefecture": "京都府",
    "city": "京都市右京区",
    "town": "嵯峨朝日町"
  },
  "6168344": {
    "zipcode": "6168344",
    "prefectureCode": "26",
    "prefectureNumber": 26,
    "prefecture": "京都府",
    "city": "京都市右京区",
    "town": "嵯峨梅ノ木町"
  },
  "6168345": {
    "zipcode": "6168345",
    "prefectureCode": "26",
    "prefectureNumber": 26,
    "prefecture": "京都府",
    "city": "京都市右京区",
    "town": "嵯峨折戸町"
  },
  "6168346": {
    "zipcode": "6168346",
    "prefectureCode": "26",
    "prefectureNumber": 26,
    "prefecture": "京都府",
    "city": "京都市右京区",
    "town": "嵯峨天龍寺油掛町"
  },
  "6168347": {
    "zipcode": "6168347",
    "prefectureCode": "26",
    "prefectureNumber": 26,
    "prefecture": "京都府",
    "city": "京都市右京区",
    "town": "嵯峨中又町"
  },
  "6168351": {
    "zipcode": "6168351",
    "prefectureCode": "26",
    "prefectureNumber": 26,
    "prefecture": "京都府",
    "city": "京都市右京区",
    "town": "嵯峨釣殿町"
  },
  "6168352": {
    "zipcode": "6168352",
    "prefectureCode": "26",
    "prefectureNumber": 26,
    "prefecture": "京都府",
    "city": "京都市右京区",
    "town": "嵯峨大沢落久保町"
  },
  "6168353": {
    "zipcode": "6168353",
    "prefectureCode": "26",
    "prefectureNumber": 26,
    "prefecture": "京都府",
    "city": "京都市右京区",
    "town": "嵯峨大沢柳井手町"
  },
  "6168354": {
    "zipcode": "6168354",
    "prefectureCode": "26",
    "prefectureNumber": 26,
    "prefecture": "京都府",
    "city": "京都市右京区",
    "town": "嵯峨一本木町"
  },
  "6168355": {
    "zipcode": "6168355",
    "prefectureCode": "26",
    "prefectureNumber": 26,
    "prefecture": "京都府",
    "city": "京都市右京区",
    "town": "嵯峨新宮町"
  },
  "6168356": {
    "zipcode": "6168356",
    "prefectureCode": "26",
    "prefectureNumber": 26,
    "prefecture": "京都府",
    "city": "京都市右京区",
    "town": "嵯峨天龍寺中島町"
  },
  "6168357": {
    "zipcode": "6168357",
    "prefectureCode": "26",
    "prefectureNumber": 26,
    "prefecture": "京都府",
    "city": "京都市右京区",
    "town": "嵯峨天龍寺椎野町"
  },
  "6168361": {
    "zipcode": "6168361",
    "prefectureCode": "26",
    "prefectureNumber": 26,
    "prefecture": "京都府",
    "city": "京都市右京区",
    "town": "嵯峨中通町"
  },
  "6168362": {
    "zipcode": "6168362",
    "prefectureCode": "26",
    "prefectureNumber": 26,
    "prefecture": "京都府",
    "city": "京都市右京区",
    "town": "嵯峨五島町"
  },
  "6168363": {
    "zipcode": "6168363",
    "prefectureCode": "26",
    "prefectureNumber": 26,
    "prefecture": "京都府",
    "city": "京都市右京区",
    "town": "嵯峨柳田町"
  },
  "6168364": {
    "zipcode": "6168364",
    "prefectureCode": "26",
    "prefectureNumber": 26,
    "prefecture": "京都府",
    "city": "京都市右京区",
    "town": "嵯峨中山町"
  },
  "6168365": {
    "zipcode": "6168365",
    "prefectureCode": "26",
    "prefectureNumber": 26,
    "prefecture": "京都府",
    "city": "京都市右京区",
    "town": "嵯峨伊勢ノ上町"
  },
  "6168366": {
    "zipcode": "6168366",
    "prefectureCode": "26",
    "prefectureNumber": 26,
    "prefecture": "京都府",
    "city": "京都市右京区",
    "town": "嵯峨天龍寺今堀町"
  },
  "6168367": {
    "zipcode": "6168367",
    "prefectureCode": "26",
    "prefectureNumber": 26,
    "prefecture": "京都府",
    "city": "京都市右京区",
    "town": "嵯峨北堀町"
  },
  "6168371": {
    "zipcode": "6168371",
    "prefectureCode": "26",
    "prefectureNumber": 26,
    "prefecture": "京都府",
    "city": "京都市右京区",
    "town": "嵯峨天龍寺若宮町"
  },
  "6168372": {
    "zipcode": "6168372",
    "prefectureCode": "26",
    "prefectureNumber": 26,
    "prefecture": "京都府",
    "city": "京都市右京区",
    "town": "嵯峨天龍寺広道町"
  },
  "6168373": {
    "zipcode": "6168373",
    "prefectureCode": "26",
    "prefectureNumber": 26,
    "prefecture": "京都府",
    "city": "京都市右京区",
    "town": "嵯峨天龍寺車道町"
  },
  "6168374": {
    "zipcode": "6168374",
    "prefectureCode": "26",
    "prefectureNumber": 26,
    "prefecture": "京都府",
    "city": "京都市右京区",
    "town": "嵯峨天龍寺北造路町"
  },
  "6168375": {
    "zipcode": "6168375",
    "prefectureCode": "26",
    "prefectureNumber": 26,
    "prefecture": "京都府",
    "city": "京都市右京区",
    "town": "嵯峨天龍寺立石町"
  },
  "6168376": {
    "zipcode": "6168376",
    "prefectureCode": "26",
    "prefectureNumber": 26,
    "prefecture": "京都府",
    "city": "京都市右京区",
    "town": "嵯峨天龍寺瀬戸川町"
  },
  "6168381": {
    "zipcode": "6168381",
    "prefectureCode": "26",
    "prefectureNumber": 26,
    "prefecture": "京都府",
    "city": "京都市右京区",
    "town": "嵯峨天龍寺龍門町"
  },
  "6168382": {
    "zipcode": "6168382",
    "prefectureCode": "26",
    "prefectureNumber": 26,
    "prefecture": "京都府",
    "city": "京都市右京区",
    "town": "嵯峨天龍寺角倉町"
  },
  "6168383": {
    "zipcode": "6168383",
    "prefectureCode": "26",
    "prefectureNumber": 26,
    "prefecture": "京都府",
    "city": "京都市右京区",
    "town": "嵯峨中之島町"
  },
  "6168384": {
    "zipcode": "6168384",
    "prefectureCode": "26",
    "prefectureNumber": 26,
    "prefecture": "京都府",
    "city": "京都市右京区",
    "town": "嵯峨天龍寺造路町"
  },
  "6168385": {
    "zipcode": "6168385",
    "prefectureCode": "26",
    "prefectureNumber": 26,
    "prefecture": "京都府",
    "city": "京都市右京区",
    "town": "嵯峨天龍寺芒ノ馬場町"
  },
  "6168386": {
    "zipcode": "6168386",
    "prefectureCode": "26",
    "prefectureNumber": 26,
    "prefecture": "京都府",
    "city": "京都市右京区",
    "town": "嵯峨亀ノ尾町"
  },
  "6168387": {
    "zipcode": "6168387",
    "prefectureCode": "26",
    "prefectureNumber": 26,
    "prefecture": "京都府",
    "city": "京都市右京区",
    "town": "嵯峨亀山町"
  },
  "6168391": {
    "zipcode": "6168391",
    "prefectureCode": "26",
    "prefectureNumber": 26,
    "prefecture": "京都府",
    "city": "京都市右京区",
    "town": "嵯峨小倉山緋明神町"
  },
  "6168392": {
    "zipcode": "6168392",
    "prefectureCode": "26",
    "prefectureNumber": 26,
    "prefecture": "京都府",
    "city": "京都市右京区",
    "town": "嵯峨小倉山堂ノ前町"
  },
  "6168393": {
    "zipcode": "6168393",
    "prefectureCode": "26",
    "prefectureNumber": 26,
    "prefecture": "京都府",
    "city": "京都市右京区",
    "town": "嵯峨野々宮町"
  },
  "6168394": {
    "zipcode": "6168394",
    "prefectureCode": "26",
    "prefectureNumber": 26,
    "prefecture": "京都府",
    "city": "京都市右京区",
    "town": "嵯峨小倉山田渕山町"
  },
  "6168395": {
    "zipcode": "6168395",
    "prefectureCode": "26",
    "prefectureNumber": 26,
    "prefecture": "京都府",
    "city": "京都市右京区",
    "town": "嵯峨小倉山町"
  },
  "6168396": {
    "zipcode": "6168396",
    "prefectureCode": "26",
    "prefectureNumber": 26,
    "prefecture": "京都府",
    "city": "京都市右京区",
    "town": "嵯峨小倉山山本町"
  },
  "6168397": {
    "zipcode": "6168397",
    "prefectureCode": "26",
    "prefectureNumber": 26,
    "prefecture": "京都府",
    "city": "京都市右京区",
    "town": "嵯峨小倉山小倉町"
  },
  "6168401": {
    "zipcode": "6168401",
    "prefectureCode": "26",
    "prefectureNumber": 26,
    "prefecture": "京都府",
    "city": "京都市右京区",
    "town": "北嵯峨長刀坂町"
  },
  "6168402": {
    "zipcode": "6168402",
    "prefectureCode": "26",
    "prefectureNumber": 26,
    "prefecture": "京都府",
    "city": "京都市右京区",
    "town": "北嵯峨六代芝町"
  },
  "6168403": {
    "zipcode": "6168403",
    "prefectureCode": "26",
    "prefectureNumber": 26,
    "prefecture": "京都府",
    "city": "京都市右京区",
    "town": "北嵯峨洞ノ内町"
  },
  "6168404": {
    "zipcode": "6168404",
    "prefectureCode": "26",
    "prefectureNumber": 26,
    "prefecture": "京都府",
    "city": "京都市右京区",
    "town": "北嵯峨八丈町"
  },
  "6168405": {
    "zipcode": "6168405",
    "prefectureCode": "26",
    "prefectureNumber": 26,
    "prefecture": "京都府",
    "city": "京都市右京区",
    "town": "北嵯峨名古曽町"
  },
  "6168406": {
    "zipcode": "6168406",
    "prefectureCode": "26",
    "prefectureNumber": 26,
    "prefecture": "京都府",
    "city": "京都市右京区",
    "town": "北嵯峨山王町"
  },
  "6168407": {
    "zipcode": "6168407",
    "prefectureCode": "26",
    "prefectureNumber": 26,
    "prefecture": "京都府",
    "city": "京都市右京区",
    "town": "北嵯峨赤坂町"
  },
  "6168411": {
    "zipcode": "6168411",
    "prefectureCode": "26",
    "prefectureNumber": 26,
    "prefecture": "京都府",
    "city": "京都市右京区",
    "town": "嵯峨大沢町"
  },
  "6168412": {
    "zipcode": "6168412",
    "prefectureCode": "26",
    "prefectureNumber": 26,
    "prefecture": "京都府",
    "city": "京都市右京区",
    "town": "嵯峨大覚寺門前登り町"
  },
  "6168413": {
    "zipcode": "6168413",
    "prefectureCode": "26",
    "prefectureNumber": 26,
    "prefecture": "京都府",
    "city": "京都市右京区",
    "town": "嵯峨大覚寺門前堂ノ前町"
  },
  "6168414": {
    "zipcode": "6168414",
    "prefectureCode": "26",
    "prefectureNumber": 26,
    "prefecture": "京都府",
    "city": "京都市右京区",
    "town": "嵯峨大覚寺門前八軒町"
  },
  "6168415": {
    "zipcode": "6168415",
    "prefectureCode": "26",
    "prefectureNumber": 26,
    "prefecture": "京都府",
    "city": "京都市右京区",
    "town": "嵯峨大覚寺門前宮ノ下町"
  },
  "6168416": {
    "zipcode": "6168416",
    "prefectureCode": "26",
    "prefectureNumber": 26,
    "prefecture": "京都府",
    "city": "京都市右京区",
    "town": "嵯峨大覚寺門前井頭町"
  },
  "6168417": {
    "zipcode": "6168417",
    "prefectureCode": "26",
    "prefectureNumber": 26,
    "prefecture": "京都府",
    "city": "京都市右京区",
    "town": "嵯峨大覚寺門前六道町"
  },
  "6168421": {
    "zipcode": "6168421",
    "prefectureCode": "26",
    "prefectureNumber": 26,
    "prefecture": "京都府",
    "city": "京都市右京区",
    "town": "嵯峨釈迦堂門前瀬戸川町"
  },
  "6168422": {
    "zipcode": "6168422",
    "prefectureCode": "26",
    "prefectureNumber": 26,
    "prefecture": "京都府",
    "city": "京都市右京区",
    "town": "嵯峨釈迦堂大門町"
  },
  "6168423": {
    "zipcode": "6168423",
    "prefectureCode": "26",
    "prefectureNumber": 26,
    "prefecture": "京都府",
    "city": "京都市右京区",
    "town": "嵯峨釈迦堂門前裏柳町"
  },
  "6168424": {
    "zipcode": "6168424",
    "prefectureCode": "26",
    "prefectureNumber": 26,
    "prefecture": "京都府",
    "city": "京都市右京区",
    "town": "嵯峨釈迦堂門前南中院町"
  },
  "6168425": {
    "zipcode": "6168425",
    "prefectureCode": "26",
    "prefectureNumber": 26,
    "prefecture": "京都府",
    "city": "京都市右京区",
    "town": "嵯峨二尊院門前長神町"
  },
  "6168426": {
    "zipcode": "6168426",
    "prefectureCode": "26",
    "prefectureNumber": 26,
    "prefecture": "京都府",
    "city": "京都市右京区",
    "town": "嵯峨二尊院門前往生院町"
  },
  "6168427": {
    "zipcode": "6168427",
    "prefectureCode": "26",
    "prefectureNumber": 26,
    "prefecture": "京都府",
    "city": "京都市右京区",
    "town": "嵯峨二尊院門前善光寺山町"
  },
  "6168428": {
    "zipcode": "6168428",
    "prefectureCode": "26",
    "prefectureNumber": 26,
    "prefecture": "京都府",
    "city": "京都市右京区",
    "town": "嵯峨二尊院門前北中院町"
  },
  "6168431": {
    "zipcode": "6168431",
    "prefectureCode": "26",
    "prefectureNumber": 26,
    "prefecture": "京都府",
    "city": "京都市右京区",
    "town": "嵯峨鳥居本一華表町"
  },
  "6168432": {
    "zipcode": "6168432",
    "prefectureCode": "26",
    "prefectureNumber": 26,
    "prefecture": "京都府",
    "city": "京都市右京区",
    "town": "嵯峨鳥居本北代町"
  },
  "6168433": {
    "zipcode": "6168433",
    "prefectureCode": "26",
    "prefectureNumber": 26,
    "prefecture": "京都府",
    "city": "京都市右京区",
    "town": "嵯峨鳥居本中筋町"
  },
  "6168434": {
    "zipcode": "6168434",
    "prefectureCode": "26",
    "prefectureNumber": 26,
    "prefecture": "京都府",
    "city": "京都市右京区",
    "town": "嵯峨鳥居本仏餉田町"
  },
  "6168435": {
    "zipcode": "6168435",
    "prefectureCode": "26",
    "prefectureNumber": 26,
    "prefecture": "京都府",
    "city": "京都市右京区",
    "town": "嵯峨鳥居本小坂町"
  },
  "6168436": {
    "zipcode": "6168436",
    "prefectureCode": "26",
    "prefectureNumber": 26,
    "prefecture": "京都府",
    "city": "京都市右京区",
    "town": "嵯峨鳥居本化野町"
  },
  "6168437": {
    "zipcode": "6168437",
    "prefectureCode": "26",
    "prefectureNumber": 26,
    "prefecture": "京都府",
    "city": "京都市右京区",
    "town": "嵯峨鳥居本仙翁町"
  },
  "6168438": {
    "zipcode": "6168438",
    "prefectureCode": "26",
    "prefectureNumber": 26,
    "prefecture": "京都府",
    "city": "京都市右京区",
    "town": "嵯峨鳥居本六反町"
  },
  "6168439": {
    "zipcode": "6168439",
    "prefectureCode": "26",
    "prefectureNumber": 26,
    "prefecture": "京都府",
    "city": "京都市右京区",
    "town": "嵯峨鳥居本深谷町"
  },
  "6168441": {
    "zipcode": "6168441",
    "prefectureCode": "26",
    "prefectureNumber": 26,
    "prefecture": "京都府",
    "city": "京都市右京区",
    "town": "北嵯峨北ノ段町"
  },
  "6168442": {
    "zipcode": "6168442",
    "prefectureCode": "26",
    "prefectureNumber": 26,
    "prefecture": "京都府",
    "city": "京都市右京区",
    "town": "北嵯峨気比社町"
  },
  "6168443": {
    "zipcode": "6168443",
    "prefectureCode": "26",
    "prefectureNumber": 26,
    "prefecture": "京都府",
    "city": "京都市右京区",
    "town": "嵯峨観空寺明水町"
  },
  "6168444": {
    "zipcode": "6168444",
    "prefectureCode": "26",
    "prefectureNumber": 26,
    "prefecture": "京都府",
    "city": "京都市右京区",
    "town": "嵯峨観空寺久保殿町"
  },
  "6168445": {
    "zipcode": "6168445",
    "prefectureCode": "26",
    "prefectureNumber": 26,
    "prefecture": "京都府",
    "city": "京都市右京区",
    "town": "嵯峨観空寺岡崎町"
  },
  "6168446": {
    "zipcode": "6168446",
    "prefectureCode": "26",
    "prefectureNumber": 26,
    "prefecture": "京都府",
    "city": "京都市右京区",
    "town": "嵯峨観空寺谷町"
  },
  "6168447": {
    "zipcode": "6168447",
    "prefectureCode": "26",
    "prefectureNumber": 26,
    "prefecture": "京都府",
    "city": "京都市右京区",
    "town": "嵯峨釈迦堂藤ノ木町"
  },
  "6168451": {
    "zipcode": "6168451",
    "prefectureCode": "26",
    "prefectureNumber": 26,
    "prefecture": "京都府",
    "city": "京都市右京区",
    "town": "嵯峨清滝一華表町"
  },
  "6168452": {
    "zipcode": "6168452",
    "prefectureCode": "26",
    "prefectureNumber": 26,
    "prefecture": "京都府",
    "city": "京都市右京区",
    "town": "嵯峨清滝町"
  },
  "6168453": {
    "zipcode": "6168453",
    "prefectureCode": "26",
    "prefectureNumber": 26,
    "prefecture": "京都府",
    "city": "京都市右京区",
    "town": "嵯峨清滝大谷町"
  },
  "6168454": {
    "zipcode": "6168454",
    "prefectureCode": "26",
    "prefectureNumber": 26,
    "prefecture": "京都府",
    "city": "京都市右京区",
    "town": "嵯峨清滝深谷町"
  },
  "6168455": {
    "zipcode": "6168455",
    "prefectureCode": "26",
    "prefectureNumber": 26,
    "prefecture": "京都府",
    "city": "京都市右京区",
    "town": "嵯峨清滝田鶴原町"
  },
  "6168456": {
    "zipcode": "6168456",
    "prefectureCode": "26",
    "prefectureNumber": 26,
    "prefecture": "京都府",
    "city": "京都市右京区",
    "town": "嵯峨清滝月ノ輪町"
  },
  "6168457": {
    "zipcode": "6168457",
    "prefectureCode": "26",
    "prefectureNumber": 26,
    "prefecture": "京都府",
    "city": "京都市右京区",
    "town": "嵯峨清滝空也滝町"
  },
  "6168458": {
    "zipcode": "6168458",
    "prefectureCode": "26",
    "prefectureNumber": 26,
    "prefecture": "京都府",
    "city": "京都市右京区",
    "town": "嵯峨愛宕町"
  },
  "6168461": {
    "zipcode": "6168461",
    "prefectureCode": "26",
    "prefectureNumber": 26,
    "prefecture": "京都府",
    "city": "京都市右京区",
    "town": "嵯峨水尾鳩ケ巣"
  },
  "6168462": {
    "zipcode": "6168462",
    "prefectureCode": "26",
    "prefectureNumber": 26,
    "prefecture": "京都府",
    "city": "京都市右京区",
    "town": "嵯峨水尾岡ノ窪町"
  },
  "6168463": {
    "zipcode": "6168463",
    "prefectureCode": "26",
    "prefectureNumber": 26,
    "prefecture": "京都府",
    "city": "京都市右京区",
    "town": "嵯峨水尾竹ノ尻町"
  },
  "6168464": {
    "zipcode": "6168464",
    "prefectureCode": "26",
    "prefectureNumber": 26,
    "prefecture": "京都府",
    "city": "京都市右京区",
    "town": "嵯峨水尾武蔵嶋町"
  },
  "6168465": {
    "zipcode": "6168465",
    "prefectureCode": "26",
    "prefectureNumber": 26,
    "prefecture": "京都府",
    "city": "京都市右京区",
    "town": "嵯峨水尾宮ノ脇町"
  },
  "6168466": {
    "zipcode": "6168466",
    "prefectureCode": "26",
    "prefectureNumber": 26,
    "prefecture": "京都府",
    "city": "京都市右京区",
    "town": "嵯峨水尾清和"
  },
  "6168467": {
    "zipcode": "6168467",
    "prefectureCode": "26",
    "prefectureNumber": 26,
    "prefecture": "京都府",
    "city": "京都市右京区",
    "town": "嵯峨水尾大岩"
  },
  "6168468": {
    "zipcode": "6168468",
    "prefectureCode": "26",
    "prefectureNumber": 26,
    "prefecture": "京都府",
    "city": "京都市右京区",
    "town": "嵯峨水尾北垣内町"
  },
  "6168471": {
    "zipcode": "6168471",
    "prefectureCode": "26",
    "prefectureNumber": 26,
    "prefecture": "京都府",
    "city": "京都市右京区",
    "town": "嵯峨樒原稲荷元町"
  },
  "6168472": {
    "zipcode": "6168472",
    "prefectureCode": "26",
    "prefectureNumber": 26,
    "prefecture": "京都府",
    "city": "京都市右京区",
    "town": "嵯峨樒原高見町"
  },
  "6168473": {
    "zipcode": "6168473",
    "prefectureCode": "26",
    "prefectureNumber": 26,
    "prefecture": "京都府",
    "city": "京都市右京区",
    "town": "嵯峨樒原若宮下町"
  },
  "6168474": {
    "zipcode": "6168474",
    "prefectureCode": "26",
    "prefectureNumber": 26,
    "prefecture": "京都府",
    "city": "京都市右京区",
    "town": "嵯峨樒原清水町"
  },
  "6168475": {
    "zipcode": "6168475",
    "prefectureCode": "26",
    "prefectureNumber": 26,
    "prefecture": "京都府",
    "city": "京都市右京区",
    "town": "嵯峨樒原宮ノ上町"
  },
  "6168481": {
    "zipcode": "6168481",
    "prefectureCode": "26",
    "prefectureNumber": 26,
    "prefecture": "京都府",
    "city": "京都市右京区",
    "town": "嵯峨越畑桃原"
  },
  "6168482": {
    "zipcode": "6168482",
    "prefectureCode": "26",
    "prefectureNumber": 26,
    "prefecture": "京都府",
    "city": "京都市右京区",
    "town": "嵯峨越畑正権条"
  },
  "6168483": {
    "zipcode": "6168483",
    "prefectureCode": "26",
    "prefectureNumber": 26,
    "prefecture": "京都府",
    "city": "京都市右京区",
    "town": "嵯峨越畑鍋浦"
  },
  "6168484": {
    "zipcode": "6168484",
    "prefectureCode": "26",
    "prefectureNumber": 26,
    "prefecture": "京都府",
    "city": "京都市右京区",
    "town": "嵯峨越畑筋違"
  },
  "6168485": {
    "zipcode": "6168485",
    "prefectureCode": "26",
    "prefectureNumber": 26,
    "prefecture": "京都府",
    "city": "京都市右京区",
    "town": "嵯峨越畑兵庫前町"
  },
  "6168486": {
    "zipcode": "6168486",
    "prefectureCode": "26",
    "prefectureNumber": 26,
    "prefecture": "京都府",
    "city": "京都市右京区",
    "town": "嵯峨越畑南ノ町"
  },
  "6168487": {
    "zipcode": "6168487",
    "prefectureCode": "26",
    "prefectureNumber": 26,
    "prefecture": "京都府",
    "city": "京都市右京区",
    "town": "嵯峨越畑中ノ町"
  },
  "6168491": {
    "zipcode": "6168491",
    "prefectureCode": "26",
    "prefectureNumber": 26,
    "prefecture": "京都府",
    "city": "京都市右京区",
    "town": "嵯峨越畑北ノ町"
  },
  "6168492": {
    "zipcode": "6168492",
    "prefectureCode": "26",
    "prefectureNumber": 26,
    "prefecture": "京都府",
    "city": "京都市右京区",
    "town": "嵯峨越畑天慶"
  },
  "6168493": {
    "zipcode": "6168493",
    "prefectureCode": "26",
    "prefectureNumber": 26,
    "prefecture": "京都府",
    "city": "京都市右京区",
    "town": "嵯峨越畑桃原垣内"
  },
  "6168494": {
    "zipcode": "6168494",
    "prefectureCode": "26",
    "prefectureNumber": 26,
    "prefecture": "京都府",
    "city": "京都市右京区",
    "town": "嵯峨越畑尻谷"
  }
}
