{
  "6180000": {
    "zipcode": "6180000",
    "prefectureCode": "27",
    "prefectureNumber": 27,
    "prefecture": "大阪府",
    "city": "三島郡島本町",
    "town": "以下に掲載がない場合"
  },
  "6180001": {
    "zipcode": "6180001",
    "prefectureCode": "27",
    "prefectureNumber": 27,
    "prefecture": "大阪府",
    "city": "三島郡島本町",
    "town": "山崎"
  },
  "6180002": {
    "zipcode": "6180002",
    "prefectureCode": "27",
    "prefectureNumber": 27,
    "prefecture": "大阪府",
    "city": "三島郡島本町",
    "town": "東大寺"
  },
  "6180003": {
    "zipcode": "6180003",
    "prefectureCode": "27",
    "prefectureNumber": 27,
    "prefecture": "大阪府",
    "city": "三島郡島本町",
    "town": "尺代"
  },
  "6180004": {
    "zipcode": "6180004",
    "prefectureCode": "27",
    "prefectureNumber": 27,
    "prefecture": "大阪府",
    "city": "三島郡島本町",
    "town": "大沢"
  },
  "6180011": {
    "zipcode": "6180011",
    "prefectureCode": "27",
    "prefectureNumber": 27,
    "prefecture": "大阪府",
    "city": "三島郡島本町",
    "town": "広瀬"
  },
  "6180012": {
    "zipcode": "6180012",
    "prefectureCode": "27",
    "prefectureNumber": 27,
    "prefecture": "大阪府",
    "city": "三島郡島本町",
    "town": "高浜"
  },
  "6180013": {
    "zipcode": "6180013",
    "prefectureCode": "27",
    "prefectureNumber": 27,
    "prefecture": "大阪府",
    "city": "三島郡島本町",
    "town": "江川"
  },
  "6180014": {
    "zipcode": "6180014",
    "prefectureCode": "27",
    "prefectureNumber": 27,
    "prefecture": "大阪府",
    "city": "三島郡島本町",
    "town": "水無瀬"
  },
  "6180015": {
    "zipcode": "6180015",
    "prefectureCode": "27",
    "prefectureNumber": 27,
    "prefecture": "大阪府",
    "city": "三島郡島本町",
    "town": "青葉"
  },
  "6180021": {
    "zipcode": "6180021",
    "prefectureCode": "27",
    "prefectureNumber": 27,
    "prefecture": "大阪府",
    "city": "三島郡島本町",
    "town": "百山"
  },
  "6180022": {
    "zipcode": "6180022",
    "prefectureCode": "27",
    "prefectureNumber": 27,
    "prefecture": "大阪府",
    "city": "三島郡島本町",
    "town": "桜井"
  },
  "6180023": {
    "zipcode": "6180023",
    "prefectureCode": "27",
    "prefectureNumber": 27,
    "prefecture": "大阪府",
    "city": "三島郡島本町",
    "town": "桜井台"
  },
  "6180024": {
    "zipcode": "6180024",
    "prefectureCode": "27",
    "prefectureNumber": 27,
    "prefecture": "大阪府",
    "city": "三島郡島本町",
    "town": "若山台"
  },
  "6180071": {
    "zipcode": "6180071",
    "prefectureCode": "26",
    "prefectureNumber": 26,
    "prefecture": "京都府",
    "city": "乙訓郡大山崎町",
    "town": "大山崎"
  },
  "6180081": {
    "zipcode": "6180081",
    "prefectureCode": "26",
    "prefectureNumber": 26,
    "prefecture": "京都府",
    "city": "乙訓郡大山崎町",
    "town": "下植野"
  },
  "6180091": {
    "zipcode": "6180091",
    "prefectureCode": "26",
    "prefectureNumber": 26,
    "prefecture": "京都府",
    "city": "乙訓郡大山崎町",
    "town": "円明寺"
  }
}
