{
  "6190200": {
    "zipcode": "6190200",
    "prefectureCode": "26",
    "prefectureNumber": 26,
    "prefecture": "京都府",
    "city": "相楽郡精華町",
    "town": "以下に掲載がない場合"
  },
  "6190201": {
    "zipcode": "6190201",
    "prefectureCode": "26",
    "prefectureNumber": 26,
    "prefecture": "京都府",
    "city": "木津川市",
    "town": "山城町綺田"
  },
  "6190202": {
    "zipcode": "6190202",
    "prefectureCode": "26",
    "prefectureNumber": 26,
    "prefecture": "京都府",
    "city": "木津川市",
    "town": "山城町平尾"
  },
  "6190203": {
    "zipcode": "6190203",
    "prefectureCode": "26",
    "prefectureNumber": 26,
    "prefecture": "京都府",
    "city": "木津川市",
    "town": "山城町神童子"
  },
  "6190204": {
    "zipcode": "6190204",
    "prefectureCode": "26",
    "prefectureNumber": 26,
    "prefecture": "京都府",
    "city": "木津川市",
    "town": "山城町上狛"
  },
  "6190205": {
    "zipcode": "6190205",
    "prefectureCode": "26",
    "prefectureNumber": 26,
    "prefecture": "京都府",
    "city": "木津川市",
    "town": "山城町椿井"
  },
  "6190206": {
    "zipcode": "6190206",
    "prefectureCode": "26",
    "prefectureNumber": 26,
    "prefecture": "京都府",
    "city": "木津川市",
    "town": "山城町北河原"
  },
  "6190211": {
    "zipcode": "6190211",
    "prefectureCode": "26",
    "prefectureNumber": 26,
    "prefecture": "京都府",
    "city": "木津川市",
    "town": "鹿背山"
  },
  "6190212": {
    "zipcode": "6190212",
    "prefectureCode": "26",
    "prefectureNumber": 26,
    "prefecture": "京都府",
    "city": "木津川市",
    "town": "梅谷"
  },
  "6190213": {
    "zipcode": "6190213",
    "prefectureCode": "26",
    "prefectureNumber": 26,
    "prefecture": "京都府",
    "city": "木津川市",
    "town": "市坂"
  },
  "6190214": {
    "zipcode": "6190214",
    "prefectureCode": "26",
    "prefectureNumber": 26,
    "prefecture": "京都府",
    "city": "木津川市",
    "town": "木津駅前"
  },
  "6190215": {
    "zipcode": "6190215",
    "prefectureCode": "26",
    "prefectureNumber": 26,
    "prefecture": "京都府",
    "city": "木津川市",
    "town": "梅美台"
  },
  "6190216": {
    "zipcode": "6190216",
    "prefectureCode": "26",
    "prefectureNumber": 26,
    "prefecture": "京都府",
    "city": "木津川市",
    "town": "州見台"
  },
  "6190217": {
    "zipcode": "6190217",
    "prefectureCode": "26",
    "prefectureNumber": 26,
    "prefecture": "京都府",
    "city": "木津川市",
    "town": "木津町"
  },
  "6190218": {
    "zipcode": "6190218",
    "prefectureCode": "26",
    "prefectureNumber": 26,
    "prefecture": "京都府",
    "city": "木津川市",
    "town": "城山台"
  },
  "6190221": {
    "zipcode": "6190221",
    "prefectureCode": "26",
    "prefectureNumber": 26,
    "prefecture": "京都府",
    "city": "木津川市",
    "town": "吐師"
  },
  "6190222": {
    "zipcode": "6190222",
    "prefectureCode": "26",
    "prefectureNumber": 26,
    "prefecture": "京都府",
    "city": "木津川市",
    "town": "相楽"
  },
  "6190223": {
    "zipcode": "6190223",
    "prefectureCode": "26",
    "prefectureNumber": 26,
    "prefecture": "京都府",
    "city": "木津川市",
    "town": "相楽台"
  },
  "6190224": {
    "zipcode": "6190224",
    "prefectureCode": "26",
    "prefectureNumber": 26,
    "prefecture": "京都府",
    "city": "木津川市",
    "town": "兜台"
  },
  "6190225": {
    "zipcode": "6190225",
    "prefectureCode": "26",
    "prefectureNumber": 26,
    "prefecture": "京都府",
    "city": "木津川市",
    "town": "木津川台"
  },
  "6190231": {
    "zipcode": "6190231",
    "prefectureCode": "26",
    "prefectureNumber": 26,
    "prefecture": "京都府",
    "city": "相楽郡精華町",
    "town": "山田"
  },
  "6190232": {
    "zipcode": "6190232",
    "prefectureCode": "26",
    "prefectureNumber": 26,
    "prefecture": "京都府",
    "city": "相楽郡精華町",
    "town": "桜が丘"
  },
  "6190233": {
    "zipcode": "6190233",
    "prefectureCode": "26",
    "prefectureNumber": 26,
    "prefecture": "京都府",
    "city": "相楽郡精華町",
    "town": "乾谷"
  },
  "6190234": {
    "zipcode": "6190234",
    "prefectureCode": "26",
    "prefectureNumber": 26,
    "prefecture": "京都府",
    "city": "相楽郡精華町",
    "town": "柘榴"
  },
  "6190235": {
    "zipcode": "6190235",
    "prefectureCode": "26",
    "prefectureNumber": 26,
    "prefecture": "京都府",
    "city": "相楽郡精華町",
    "town": "東畑"
  },
  "6190236": {
    "zipcode": "6190236",
    "prefectureCode": "26",
    "prefectureNumber": 26,
    "prefecture": "京都府",
    "city": "相楽郡精華町",
    "town": "植田"
  },
  "6190237": {
    "zipcode": "6190237",
    "prefectureCode": "26",
    "prefectureNumber": 26,
    "prefecture": "京都府",
    "city": "相楽郡精華町",
    "town": "光台"
  },
  "6190238": {
    "zipcode": "6190238",
    "prefectureCode": "26",
    "prefectureNumber": 26,
    "prefecture": "京都府",
    "city": "相楽郡精華町",
    "town": "精華台"
  },
  "6190240": {
    "zipcode": "6190240",
    "prefectureCode": "26",
    "prefectureNumber": 26,
    "prefecture": "京都府",
    "city": "相楽郡精華町",
    "town": "祝園西"
  },
  "6190241": {
    "zipcode": "6190241",
    "prefectureCode": "26",
    "prefectureNumber": 26,
    "prefecture": "京都府",
    "city": "相楽郡精華町",
    "town": "祝園"
  },
  "6190242": {
    "zipcode": "6190242",
    "prefectureCode": "26",
    "prefectureNumber": 26,
    "prefecture": "京都府",
    "city": "相楽郡精華町",
    "town": "菅井"
  },
  "6190243": {
    "zipcode": "6190243",
    "prefectureCode": "26",
    "prefectureNumber": 26,
    "prefecture": "京都府",
    "city": "相楽郡精華町",
    "town": "南稲八妻"
  },
  "6190244": {
    "zipcode": "6190244",
    "prefectureCode": "26",
    "prefectureNumber": 26,
    "prefecture": "京都府",
    "city": "相楽郡精華町",
    "town": "北稲八間"
  },
  "6190245": {
    "zipcode": "6190245",
    "prefectureCode": "26",
    "prefectureNumber": 26,
    "prefecture": "京都府",
    "city": "相楽郡精華町",
    "town": "下狛"
  },
  "6190246": {
    "zipcode": "6190246",
    "prefectureCode": "26",
    "prefectureNumber": 26,
    "prefecture": "京都府",
    "city": "相楽郡精華町",
    "town": "菱田"
  },
  "6190247": {
    "zipcode": "6190247",
    "prefectureCode": "26",
    "prefectureNumber": 26,
    "prefecture": "京都府",
    "city": "相楽郡精華町",
    "town": "狛田"
  },
  "6191101": {
    "zipcode": "6191101",
    "prefectureCode": "26",
    "prefectureNumber": 26,
    "prefecture": "京都府",
    "city": "木津川市",
    "town": "加茂町銭司"
  },
  "6191102": {
    "zipcode": "6191102",
    "prefectureCode": "26",
    "prefectureNumber": 26,
    "prefecture": "京都府",
    "city": "木津川市",
    "town": "加茂町井平尾"
  },
  "6191103": {
    "zipcode": "6191103",
    "prefectureCode": "26",
    "prefectureNumber": 26,
    "prefecture": "京都府",
    "city": "木津川市",
    "town": "加茂町岡崎"
  },
  "6191104": {
    "zipcode": "6191104",
    "prefectureCode": "26",
    "prefectureNumber": 26,
    "prefecture": "京都府",
    "city": "木津川市",
    "town": "加茂町河原"
  },
  "6191105": {
    "zipcode": "6191105",
    "prefectureCode": "26",
    "prefectureNumber": 26,
    "prefecture": "京都府",
    "city": "木津川市",
    "town": "加茂町西"
  },
  "6191106": {
    "zipcode": "6191106",
    "prefectureCode": "26",
    "prefectureNumber": 26,
    "prefecture": "京都府",
    "city": "木津川市",
    "town": "加茂町例幣"
  },
  "6191107": {
    "zipcode": "6191107",
    "prefectureCode": "26",
    "prefectureNumber": 26,
    "prefecture": "京都府",
    "city": "木津川市",
    "town": "加茂町奥畑"
  },
  "6191111": {
    "zipcode": "6191111",
    "prefectureCode": "26",
    "prefectureNumber": 26,
    "prefecture": "京都府",
    "city": "木津川市",
    "town": "加茂町山田"
  },
  "6191112": {
    "zipcode": "6191112",
    "prefectureCode": "26",
    "prefectureNumber": 26,
    "prefecture": "京都府",
    "city": "木津川市",
    "town": "加茂町兎並"
  },
  "6191113": {
    "zipcode": "6191113",
    "prefectureCode": "26",
    "prefectureNumber": 26,
    "prefecture": "京都府",
    "city": "木津川市",
    "town": "加茂町北"
  },
  "6191121": {
    "zipcode": "6191121",
    "prefectureCode": "26",
    "prefectureNumber": 26,
    "prefecture": "京都府",
    "city": "木津川市",
    "town": "加茂町北下手"
  },
  "6191122": {
    "zipcode": "6191122",
    "prefectureCode": "26",
    "prefectureNumber": 26,
    "prefecture": "京都府",
    "city": "木津川市",
    "town": "加茂町南下手"
  },
  "6191123": {
    "zipcode": "6191123",
    "prefectureCode": "26",
    "prefectureNumber": 26,
    "prefecture": "京都府",
    "city": "木津川市",
    "town": "加茂町森"
  },
  "6191124": {
    "zipcode": "6191124",
    "prefectureCode": "26",
    "prefectureNumber": 26,
    "prefecture": "京都府",
    "city": "木津川市",
    "town": "加茂町勝風"
  },
  "6191125": {
    "zipcode": "6191125",
    "prefectureCode": "26",
    "prefectureNumber": 26,
    "prefecture": "京都府",
    "city": "木津川市",
    "town": "加茂町高去"
  },
  "6191126": {
    "zipcode": "6191126",
    "prefectureCode": "26",
    "prefectureNumber": 26,
    "prefecture": "京都府",
    "city": "木津川市",
    "town": "加茂町尻枝"
  },
  "6191127": {
    "zipcode": "6191127",
    "prefectureCode": "26",
    "prefectureNumber": 26,
    "prefecture": "京都府",
    "city": "木津川市",
    "town": "南加茂台"
  },
  "6191131": {
    "zipcode": "6191131",
    "prefectureCode": "26",
    "prefectureNumber": 26,
    "prefecture": "京都府",
    "city": "木津川市",
    "town": "加茂町辻"
  },
  "6191132": {
    "zipcode": "6191132",
    "prefectureCode": "26",
    "prefectureNumber": 26,
    "prefecture": "京都府",
    "city": "木津川市",
    "town": "加茂町大畑"
  },
  "6191133": {
    "zipcode": "6191133",
    "prefectureCode": "26",
    "prefectureNumber": 26,
    "prefecture": "京都府",
    "city": "木津川市",
    "town": "加茂町岩船"
  },
  "6191134": {
    "zipcode": "6191134",
    "prefectureCode": "26",
    "prefectureNumber": 26,
    "prefecture": "京都府",
    "city": "木津川市",
    "town": "加茂町東小下"
  },
  "6191135": {
    "zipcode": "6191135",
    "prefectureCode": "26",
    "prefectureNumber": 26,
    "prefecture": "京都府",
    "city": "木津川市",
    "town": "加茂町西小"
  },
  "6191136": {
    "zipcode": "6191136",
    "prefectureCode": "26",
    "prefectureNumber": 26,
    "prefecture": "京都府",
    "city": "木津川市",
    "town": "加茂町南大門"
  },
  "6191141": {
    "zipcode": "6191141",
    "prefectureCode": "26",
    "prefectureNumber": 26,
    "prefecture": "京都府",
    "city": "木津川市",
    "town": "加茂町法花寺野"
  },
  "6191142": {
    "zipcode": "6191142",
    "prefectureCode": "26",
    "prefectureNumber": 26,
    "prefecture": "京都府",
    "city": "木津川市",
    "town": "加茂町大野"
  },
  "6191143": {
    "zipcode": "6191143",
    "prefectureCode": "26",
    "prefectureNumber": 26,
    "prefecture": "京都府",
    "city": "木津川市",
    "town": "加茂町観音寺"
  },
  "6191144": {
    "zipcode": "6191144",
    "prefectureCode": "26",
    "prefectureNumber": 26,
    "prefecture": "京都府",
    "city": "木津川市",
    "town": "加茂町高田"
  },
  "6191151": {
    "zipcode": "6191151",
    "prefectureCode": "26",
    "prefectureNumber": 26,
    "prefecture": "京都府",
    "city": "木津川市",
    "town": "加茂町美浪"
  },
  "6191152": {
    "zipcode": "6191152",
    "prefectureCode": "26",
    "prefectureNumber": 26,
    "prefecture": "京都府",
    "city": "木津川市",
    "town": "加茂町里"
  },
  "6191153": {
    "zipcode": "6191153",
    "prefectureCode": "26",
    "prefectureNumber": 26,
    "prefecture": "京都府",
    "city": "木津川市",
    "town": "加茂町駅西"
  },
  "6191154": {
    "zipcode": "6191154",
    "prefectureCode": "26",
    "prefectureNumber": 26,
    "prefecture": "京都府",
    "city": "木津川市",
    "town": "加茂町駅東"
  },
  "6191200": {
    "zipcode": "6191200",
    "prefectureCode": "26",
    "prefectureNumber": 26,
    "prefecture": "京都府",
    "city": "相楽郡和束町",
    "town": "以下に掲載がない場合"
  },
  "6191201": {
    "zipcode": "6191201",
    "prefectureCode": "26",
    "prefectureNumber": 26,
    "prefecture": "京都府",
    "city": "相楽郡和束町",
    "town": "園"
  },
  "6191202": {
    "zipcode": "6191202",
    "prefectureCode": "26",
    "prefectureNumber": 26,
    "prefecture": "京都府",
    "city": "相楽郡和束町",
    "town": "原山"
  },
  "6191203": {
    "zipcode": "6191203",
    "prefectureCode": "26",
    "prefectureNumber": 26,
    "prefecture": "京都府",
    "city": "相楽郡和束町",
    "town": "湯船"
  },
  "6191204": {
    "zipcode": "6191204",
    "prefectureCode": "26",
    "prefectureNumber": 26,
    "prefecture": "京都府",
    "city": "相楽郡和束町",
    "town": "門前"
  },
  "6191205": {
    "zipcode": "6191205",
    "prefectureCode": "26",
    "prefectureNumber": 26,
    "prefecture": "京都府",
    "city": "相楽郡和束町",
    "town": "中"
  },
  "6191211": {
    "zipcode": "6191211",
    "prefectureCode": "26",
    "prefectureNumber": 26,
    "prefecture": "京都府",
    "city": "相楽郡和束町",
    "town": "別所"
  },
  "6191212": {
    "zipcode": "6191212",
    "prefectureCode": "26",
    "prefectureNumber": 26,
    "prefecture": "京都府",
    "city": "相楽郡和束町",
    "town": "釜塚"
  },
  "6191213": {
    "zipcode": "6191213",
    "prefectureCode": "26",
    "prefectureNumber": 26,
    "prefecture": "京都府",
    "city": "相楽郡和束町",
    "town": "南"
  },
  "6191221": {
    "zipcode": "6191221",
    "prefectureCode": "26",
    "prefectureNumber": 26,
    "prefecture": "京都府",
    "city": "相楽郡和束町",
    "town": "石寺"
  },
  "6191222": {
    "zipcode": "6191222",
    "prefectureCode": "26",
    "prefectureNumber": 26,
    "prefecture": "京都府",
    "city": "相楽郡和束町",
    "town": "白栖"
  },
  "6191223": {
    "zipcode": "6191223",
    "prefectureCode": "26",
    "prefectureNumber": 26,
    "prefecture": "京都府",
    "city": "相楽郡和束町",
    "town": "杣田"
  },
  "6191224": {
    "zipcode": "6191224",
    "prefectureCode": "26",
    "prefectureNumber": 26,
    "prefecture": "京都府",
    "city": "相楽郡和束町",
    "town": "木屋"
  },
  "6191225": {
    "zipcode": "6191225",
    "prefectureCode": "26",
    "prefectureNumber": 26,
    "prefecture": "京都府",
    "city": "相楽郡和束町",
    "town": "撰原"
  },
  "6191226": {
    "zipcode": "6191226",
    "prefectureCode": "26",
    "prefectureNumber": 26,
    "prefecture": "京都府",
    "city": "相楽郡和束町",
    "town": "下島"
  },
  "6191300": {
    "zipcode": "6191300",
    "prefectureCode": "26",
    "prefectureNumber": 26,
    "prefecture": "京都府",
    "city": "相楽郡笠置町",
    "town": "以下に掲載がない場合"
  },
  "6191301": {
    "zipcode": "6191301",
    "prefectureCode": "26",
    "prefectureNumber": 26,
    "prefecture": "京都府",
    "city": "相楽郡笠置町",
    "town": "有市"
  },
  "6191302": {
    "zipcode": "6191302",
    "prefectureCode": "26",
    "prefectureNumber": 26,
    "prefecture": "京都府",
    "city": "相楽郡笠置町",
    "town": "飛鳥路"
  },
  "6191303": {
    "zipcode": "6191303",
    "prefectureCode": "26",
    "prefectureNumber": 26,
    "prefecture": "京都府",
    "city": "相楽郡笠置町",
    "town": "笠置"
  },
  "6191304": {
    "zipcode": "6191304",
    "prefectureCode": "26",
    "prefectureNumber": 26,
    "prefecture": "京都府",
    "city": "相楽郡笠置町",
    "town": "切山"
  },
  "6191400": {
    "zipcode": "6191400",
    "prefectureCode": "26",
    "prefectureNumber": 26,
    "prefecture": "京都府",
    "city": "相楽郡南山城村",
    "town": "以下に掲載がない場合"
  },
  "6191401": {
    "zipcode": "6191401",
    "prefectureCode": "26",
    "prefectureNumber": 26,
    "prefecture": "京都府",
    "city": "相楽郡南山城村",
    "town": "童仙房"
  },
  "6191402": {
    "zipcode": "6191402",
    "prefectureCode": "26",
    "prefectureNumber": 26,
    "prefecture": "京都府",
    "city": "相楽郡南山城村",
    "town": "野殿"
  },
  "6191411": {
    "zipcode": "6191411",
    "prefectureCode": "26",
    "prefectureNumber": 26,
    "prefecture": "京都府",
    "city": "相楽郡南山城村",
    "town": "北大河原"
  },
  "6191412": {
    "zipcode": "6191412",
    "prefectureCode": "26",
    "prefectureNumber": 26,
    "prefecture": "京都府",
    "city": "相楽郡南山城村",
    "town": "南大河原"
  },
  "6191421": {
    "zipcode": "6191421",
    "prefectureCode": "26",
    "prefectureNumber": 26,
    "prefecture": "京都府",
    "city": "相楽郡南山城村",
    "town": "田山"
  },
  "6191422": {
    "zipcode": "6191422",
    "prefectureCode": "26",
    "prefectureNumber": 26,
    "prefecture": "京都府",
    "city": "相楽郡南山城村",
    "town": "高尾"
  }
}
