{
  "6200000": {
    "zipcode": "6200000",
    "prefectureCode": "26",
    "prefectureNumber": 26,
    "prefecture": "京都府",
    "city": "福知山市",
    "town": "以下に掲載がない場合"
  },
  "6200001": {
    "zipcode": "6200001",
    "prefectureCode": "26",
    "prefectureNumber": 26,
    "prefecture": "京都府",
    "city": "福知山市",
    "town": "山野口"
  },
  "6200002": {
    "zipcode": "6200002",
    "prefectureCode": "26",
    "prefectureNumber": 26,
    "prefecture": "京都府",
    "city": "福知山市",
    "town": "報恩寺"
  },
  "6200003": {
    "zipcode": "6200003",
    "prefectureCode": "26",
    "prefectureNumber": 26,
    "prefecture": "京都府",
    "city": "福知山市",
    "town": "私市"
  },
  "6200004": {
    "zipcode": "6200004",
    "prefectureCode": "26",
    "prefectureNumber": 26,
    "prefecture": "京都府",
    "city": "福知山市",
    "town": "川北"
  },
  "6200005": {
    "zipcode": "6200005",
    "prefectureCode": "26",
    "prefectureNumber": 26,
    "prefecture": "京都府",
    "city": "福知山市",
    "town": "印内"
  },
  "6200011": {
    "zipcode": "6200011",
    "prefectureCode": "26",
    "prefectureNumber": 26,
    "prefecture": "京都府",
    "city": "福知山市",
    "town": "筈巻"
  },
  "6200012": {
    "zipcode": "6200012",
    "prefectureCode": "26",
    "prefectureNumber": 26,
    "prefecture": "京都府",
    "city": "福知山市",
    "town": "安井"
  },
  "6200013": {
    "zipcode": "6200013",
    "prefectureCode": "26",
    "prefectureNumber": 26,
    "prefecture": "京都府",
    "city": "福知山市",
    "town": "池部"
  },
  "6200014": {
    "zipcode": "6200014",
    "prefectureCode": "26",
    "prefectureNumber": 26,
    "prefecture": "京都府",
    "city": "福知山市",
    "town": "中"
  },
  "6200015": {
    "zipcode": "6200015",
    "prefectureCode": "26",
    "prefectureNumber": 26,
    "prefecture": "京都府",
    "city": "福知山市",
    "town": "下猪崎"
  },
  "6200016": {
    "zipcode": "6200016",
    "prefectureCode": "26",
    "prefectureNumber": 26,
    "prefecture": "京都府",
    "city": "福知山市",
    "town": "城山"
  },
  "6200017": {
    "zipcode": "6200017",
    "prefectureCode": "26",
    "prefectureNumber": 26,
    "prefecture": "京都府",
    "city": "福知山市",
    "town": "猪崎"
  },
  "6200021": {
    "zipcode": "6200021",
    "prefectureCode": "26",
    "prefectureNumber": 26,
    "prefecture": "京都府",
    "city": "福知山市",
    "town": "寺"
  },
  "6200022": {
    "zipcode": "6200022",
    "prefectureCode": "26",
    "prefectureNumber": 26,
    "prefecture": "京都府",
    "city": "福知山市",
    "town": "下柳"
  },
  "6200023": {
    "zipcode": "6200023",
    "prefectureCode": "26",
    "prefectureNumber": 26,
    "prefecture": "京都府",
    "city": "福知山市",
    "town": "菱屋"
  },
  "6200024": {
    "zipcode": "6200024",
    "prefectureCode": "26",
    "prefectureNumber": 26,
    "prefecture": "京都府",
    "city": "福知山市",
    "town": "東長町"
  },
  "6200025": {
    "zipcode": "6200025",
    "prefectureCode": "26",
    "prefectureNumber": 26,
    "prefecture": "京都府",
    "city": "福知山市",
    "town": "西長町"
  },
  "6200026": {
    "zipcode": "6200026",
    "prefectureCode": "26",
    "prefectureNumber": 26,
    "prefecture": "京都府",
    "city": "福知山市",
    "town": "呉服"
  },
  "6200027": {
    "zipcode": "6200027",
    "prefectureCode": "26",
    "prefectureNumber": 26,
    "prefecture": "京都府",
    "city": "福知山市",
    "town": "京"
  },
  "6200028": {
    "zipcode": "6200028",
    "prefectureCode": "26",
    "prefectureNumber": 26,
    "prefecture": "京都府",
    "city": "福知山市",
    "town": "上新"
  },
  "6200029": {
    "zipcode": "6200029",
    "prefectureCode": "26",
    "prefectureNumber": 26,
    "prefecture": "京都府",
    "city": "福知山市",
    "town": "下新"
  },
  "6200031": {
    "zipcode": "6200031",
    "prefectureCode": "26",
    "prefectureNumber": 26,
    "prefecture": "京都府",
    "city": "福知山市",
    "town": "鋳物師"
  },
  "6200032": {
    "zipcode": "6200032",
    "prefectureCode": "26",
    "prefectureNumber": 26,
    "prefecture": "京都府",
    "city": "福知山市",
    "town": "下紺屋"
  },
  "6200033": {
    "zipcode": "6200033",
    "prefectureCode": "26",
    "prefectureNumber": 26,
    "prefecture": "京都府",
    "city": "福知山市",
    "town": "上紺屋"
  },
  "6200034": {
    "zipcode": "6200034",
    "prefectureCode": "26",
    "prefectureNumber": 26,
    "prefecture": "京都府",
    "city": "福知山市",
    "town": "鍛冶"
  },
  "6200035": {
    "zipcode": "6200035",
    "prefectureCode": "26",
    "prefectureNumber": 26,
    "prefecture": "京都府",
    "city": "福知山市",
    "town": "内記"
  },
  "6200036": {
    "zipcode": "6200036",
    "prefectureCode": "26",
    "prefectureNumber": 26,
    "prefecture": "京都府",
    "city": "福知山市",
    "town": "中ノ町"
  },
  "6200037": {
    "zipcode": "6200037",
    "prefectureCode": "26",
    "prefectureNumber": 26,
    "prefecture": "京都府",
    "city": "福知山市",
    "town": "東中ノ町"
  },
  "6200038": {
    "zipcode": "6200038",
    "prefectureCode": "26",
    "prefectureNumber": 26,
    "prefecture": "京都府",
    "city": "福知山市",
    "town": "西中ノ町"
  },
  "6200039": {
    "zipcode": "6200039",
    "prefectureCode": "26",
    "prefectureNumber": 26,
    "prefecture": "京都府",
    "city": "福知山市",
    "town": "西町"
  },
  "6200041": {
    "zipcode": "6200041",
    "prefectureCode": "26",
    "prefectureNumber": 26,
    "prefecture": "京都府",
    "city": "福知山市",
    "town": "北本町一区"
  },
  "6200042": {
    "zipcode": "6200042",
    "prefectureCode": "26",
    "prefectureNumber": 26,
    "prefecture": "京都府",
    "city": "福知山市",
    "town": "北本町二区"
  },
  "6200043": {
    "zipcode": "6200043",
    "prefectureCode": "26",
    "prefectureNumber": 26,
    "prefecture": "京都府",
    "city": "福知山市",
    "town": "北栄町"
  },
  "6200044": {
    "zipcode": "6200044",
    "prefectureCode": "26",
    "prefectureNumber": 26,
    "prefecture": "京都府",
    "city": "福知山市",
    "town": "南栄町"
  },
  "6200045": {
    "zipcode": "6200045",
    "prefectureCode": "26",
    "prefectureNumber": 26,
    "prefecture": "京都府",
    "city": "福知山市",
    "town": "駅前町"
  },
  "6200046": {
    "zipcode": "6200046",
    "prefectureCode": "26",
    "prefectureNumber": 26,
    "prefecture": "京都府",
    "city": "福知山市",
    "town": "南本町"
  },
  "6200047": {
    "zipcode": "6200047",
    "prefectureCode": "26",
    "prefectureNumber": 26,
    "prefecture": "京都府",
    "city": "福知山市",
    "town": "東本町"
  },
  "6200051": {
    "zipcode": "6200051",
    "prefectureCode": "26",
    "prefectureNumber": 26,
    "prefecture": "京都府",
    "city": "福知山市",
    "town": "昭和新町"
  },
  "6200052": {
    "zipcode": "6200052",
    "prefectureCode": "26",
    "prefectureNumber": 26,
    "prefecture": "京都府",
    "city": "福知山市",
    "town": "昭和町"
  },
  "6200053": {
    "zipcode": "6200053",
    "prefectureCode": "26",
    "prefectureNumber": 26,
    "prefecture": "京都府",
    "city": "福知山市",
    "town": "西本町"
  },
  "6200054": {
    "zipcode": "6200054",
    "prefectureCode": "26",
    "prefectureNumber": 26,
    "prefecture": "京都府",
    "city": "福知山市",
    "town": "末広町"
  },
  "6200055": {
    "zipcode": "6200055",
    "prefectureCode": "26",
    "prefectureNumber": 26,
    "prefecture": "京都府",
    "city": "福知山市",
    "town": "篠尾新町"
  },
  "6200056": {
    "zipcode": "6200056",
    "prefectureCode": "26",
    "prefectureNumber": 26,
    "prefecture": "京都府",
    "city": "福知山市",
    "town": "厚中町"
  },
  "6200057": {
    "zipcode": "6200057",
    "prefectureCode": "26",
    "prefectureNumber": 26,
    "prefecture": "京都府",
    "city": "福知山市",
    "town": "問屋町"
  },
  "6200058": {
    "zipcode": "6200058",
    "prefectureCode": "26",
    "prefectureNumber": 26,
    "prefecture": "京都府",
    "city": "福知山市",
    "town": "厚"
  },
  "6200059": {
    "zipcode": "6200059",
    "prefectureCode": "26",
    "prefectureNumber": 26,
    "prefecture": "京都府",
    "city": "福知山市",
    "town": "厚東町"
  },
  "6200061": {
    "zipcode": "6200061",
    "prefectureCode": "26",
    "prefectureNumber": 26,
    "prefecture": "京都府",
    "city": "福知山市",
    "town": "荒河東町"
  },
  "6200062": {
    "zipcode": "6200062",
    "prefectureCode": "26",
    "prefectureNumber": 26,
    "prefecture": "京都府",
    "city": "福知山市",
    "town": "和久市町"
  },
  "6200063": {
    "zipcode": "6200063",
    "prefectureCode": "26",
    "prefectureNumber": 26,
    "prefecture": "京都府",
    "city": "福知山市",
    "town": "荒河新町"
  },
  "6200064": {
    "zipcode": "6200064",
    "prefectureCode": "26",
    "prefectureNumber": 26,
    "prefecture": "京都府",
    "city": "福知山市",
    "town": "岩井東町"
  },
  "6200065": {
    "zipcode": "6200065",
    "prefectureCode": "26",
    "prefectureNumber": 26,
    "prefecture": "京都府",
    "city": "福知山市",
    "town": "上荒河"
  },
  "6200066": {
    "zipcode": "6200066",
    "prefectureCode": "26",
    "prefectureNumber": 26,
    "prefecture": "京都府",
    "city": "福知山市",
    "town": "下荒河"
  },
  "6200067": {
    "zipcode": "6200067",
    "prefectureCode": "26",
    "prefectureNumber": 26,
    "prefecture": "京都府",
    "city": "福知山市",
    "town": "荒河ヒルズ"
  },
  "6200071": {
    "zipcode": "6200071",
    "prefectureCode": "26",
    "prefectureNumber": 26,
    "prefecture": "京都府",
    "city": "福知山市",
    "town": "一尾"
  },
  "6200072": {
    "zipcode": "6200072",
    "prefectureCode": "26",
    "prefectureNumber": 26,
    "prefecture": "京都府",
    "city": "福知山市",
    "town": "下天津"
  },
  "6200073": {
    "zipcode": "6200073",
    "prefectureCode": "26",
    "prefectureNumber": 26,
    "prefecture": "京都府",
    "city": "福知山市",
    "town": "勅使"
  },
  "6200074": {
    "zipcode": "6200074",
    "prefectureCode": "26",
    "prefectureNumber": 26,
    "prefecture": "京都府",
    "city": "福知山市",
    "town": "石本"
  },
  "6200075": {
    "zipcode": "6200075",
    "prefectureCode": "26",
    "prefectureNumber": 26,
    "prefecture": "京都府",
    "city": "福知山市",
    "town": "波江"
  },
  "6200076": {
    "zipcode": "6200076",
    "prefectureCode": "26",
    "prefectureNumber": 26,
    "prefecture": "京都府",
    "city": "福知山市",
    "town": "漆端"
  },
  "6200077": {
    "zipcode": "6200077",
    "prefectureCode": "26",
    "prefectureNumber": 26,
    "prefecture": "京都府",
    "city": "福知山市",
    "town": "大呂"
  },
  "6200078": {
    "zipcode": "6200078",
    "prefectureCode": "26",
    "prefectureNumber": 26,
    "prefecture": "京都府",
    "city": "福知山市",
    "town": "瘤木"
  },
  "6200201": {
    "zipcode": "6200201",
    "prefectureCode": "26",
    "prefectureNumber": 26,
    "prefecture": "京都府",
    "city": "福知山市",
    "town": "天座"
  },
  "6200211": {
    "zipcode": "6200211",
    "prefectureCode": "26",
    "prefectureNumber": 26,
    "prefecture": "京都府",
    "city": "福知山市",
    "town": "下野条"
  },
  "6200212": {
    "zipcode": "6200212",
    "prefectureCode": "26",
    "prefectureNumber": 26,
    "prefecture": "京都府",
    "city": "福知山市",
    "town": "行積"
  },
  "6200213": {
    "zipcode": "6200213",
    "prefectureCode": "26",
    "prefectureNumber": 26,
    "prefecture": "京都府",
    "city": "福知山市",
    "town": "長尾"
  },
  "6200214": {
    "zipcode": "6200214",
    "prefectureCode": "26",
    "prefectureNumber": 26,
    "prefecture": "京都府",
    "city": "福知山市",
    "town": "上野条"
  },
  "6200221": {
    "zipcode": "6200221",
    "prefectureCode": "26",
    "prefectureNumber": 26,
    "prefecture": "京都府",
    "city": "福知山市",
    "town": "雲原"
  },
  "6200301": {
    "zipcode": "6200301",
    "prefectureCode": "26",
    "prefectureNumber": 26,
    "prefecture": "京都府",
    "city": "福知山市",
    "town": "大江町河守"
  },
  "6200302": {
    "zipcode": "6200302",
    "prefectureCode": "26",
    "prefectureNumber": 26,
    "prefecture": "京都府",
    "city": "福知山市",
    "town": "大江町関"
  },
  "6200303": {
    "zipcode": "6200303",
    "prefectureCode": "26",
    "prefectureNumber": 26,
    "prefecture": "京都府",
    "city": "福知山市",
    "town": "大江町金屋"
  },
  "6200304": {
    "zipcode": "6200304",
    "prefectureCode": "26",
    "prefectureNumber": 26,
    "prefecture": "京都府",
    "city": "福知山市",
    "town": "大江町上野"
  },
  "6200305": {
    "zipcode": "6200305",
    "prefectureCode": "26",
    "prefectureNumber": 26,
    "prefecture": "京都府",
    "city": "福知山市",
    "town": "大江町波美"
  },
  "6200311": {
    "zipcode": "6200311",
    "prefectureCode": "26",
    "prefectureNumber": 26,
    "prefecture": "京都府",
    "city": "福知山市",
    "town": "大江町蓼原"
  },
  "6200312": {
    "zipcode": "6200312",
    "prefectureCode": "26",
    "prefectureNumber": 26,
    "prefecture": "京都府",
    "city": "福知山市",
    "town": "大江町公庄"
  },
  "6200313": {
    "zipcode": "6200313",
    "prefectureCode": "26",
    "prefectureNumber": 26,
    "prefecture": "京都府",
    "city": "福知山市",
    "town": "大江町日藤"
  },
  "6200314": {
    "zipcode": "6200314",
    "prefectureCode": "26",
    "prefectureNumber": 26,
    "prefecture": "京都府",
    "city": "福知山市",
    "town": "大江町小原田"
  },
  "6200321": {
    "zipcode": "6200321",
    "prefectureCode": "26",
    "prefectureNumber": 26,
    "prefecture": "京都府",
    "city": "福知山市",
    "town": "大江町仏性寺"
  },
  "6200322": {
    "zipcode": "6200322",
    "prefectureCode": "26",
    "prefectureNumber": 26,
    "prefecture": "京都府",
    "city": "福知山市",
    "town": "大江町毛原"
  },
  "6200323": {
    "zipcode": "6200323",
    "prefectureCode": "26",
    "prefectureNumber": 26,
    "prefecture": "京都府",
    "city": "福知山市",
    "town": "大江町内宮"
  },
  "6200324": {
    "zipcode": "6200324",
    "prefectureCode": "26",
    "prefectureNumber": 26,
    "prefecture": "京都府",
    "city": "福知山市",
    "town": "大江町二俣"
  },
  "6200325": {
    "zipcode": "6200325",
    "prefectureCode": "26",
    "prefectureNumber": 26,
    "prefecture": "京都府",
    "city": "福知山市",
    "town": "大江町天田内"
  },
  "6200326": {
    "zipcode": "6200326",
    "prefectureCode": "26",
    "prefectureNumber": 26,
    "prefecture": "京都府",
    "city": "福知山市",
    "town": "大江町橋谷"
  },
  "6200327": {
    "zipcode": "6200327",
    "prefectureCode": "26",
    "prefectureNumber": 26,
    "prefecture": "京都府",
    "city": "福知山市",
    "town": "大江町北原"
  },
  "6200331": {
    "zipcode": "6200331",
    "prefectureCode": "26",
    "prefectureNumber": 26,
    "prefecture": "京都府",
    "city": "福知山市",
    "town": "大江町三河"
  },
  "6200332": {
    "zipcode": "6200332",
    "prefectureCode": "26",
    "prefectureNumber": 26,
    "prefecture": "京都府",
    "city": "福知山市",
    "town": "大江町高津江"
  },
  "6200333": {
    "zipcode": "6200333",
    "prefectureCode": "26",
    "prefectureNumber": 26,
    "prefecture": "京都府",
    "city": "福知山市",
    "town": "大江町二箇"
  },
  "6200334": {
    "zipcode": "6200334",
    "prefectureCode": "26",
    "prefectureNumber": 26,
    "prefecture": "京都府",
    "city": "福知山市",
    "town": "大江町市原谷"
  },
  "6200341": {
    "zipcode": "6200341",
    "prefectureCode": "26",
    "prefectureNumber": 26,
    "prefecture": "京都府",
    "city": "福知山市",
    "town": "大江町北有路"
  },
  "6200342": {
    "zipcode": "6200342",
    "prefectureCode": "26",
    "prefectureNumber": 26,
    "prefecture": "京都府",
    "city": "福知山市",
    "town": "大江町南有路"
  },
  "6200351": {
    "zipcode": "6200351",
    "prefectureCode": "26",
    "prefectureNumber": 26,
    "prefecture": "京都府",
    "city": "福知山市",
    "town": "大江町千原"
  },
  "6200352": {
    "zipcode": "6200352",
    "prefectureCode": "26",
    "prefectureNumber": 26,
    "prefecture": "京都府",
    "city": "福知山市",
    "town": "大江町南山"
  },
  "6200353": {
    "zipcode": "6200353",
    "prefectureCode": "26",
    "prefectureNumber": 26,
    "prefecture": "京都府",
    "city": "福知山市",
    "town": "大江町夏間"
  },
  "6200354": {
    "zipcode": "6200354",
    "prefectureCode": "26",
    "prefectureNumber": 26,
    "prefecture": "京都府",
    "city": "福知山市",
    "town": "大江町在田"
  },
  "6200355": {
    "zipcode": "6200355",
    "prefectureCode": "26",
    "prefectureNumber": 26,
    "prefecture": "京都府",
    "city": "福知山市",
    "town": "大江町常津"
  },
  "6200356": {
    "zipcode": "6200356",
    "prefectureCode": "26",
    "prefectureNumber": 26,
    "prefecture": "京都府",
    "city": "福知山市",
    "town": "大江町尾藤"
  },
  "6200801": {
    "zipcode": "6200801",
    "prefectureCode": "26",
    "prefectureNumber": 26,
    "prefecture": "京都府",
    "city": "福知山市",
    "town": "戸田"
  },
  "6200802": {
    "zipcode": "6200802",
    "prefectureCode": "26",
    "prefectureNumber": 26,
    "prefecture": "京都府",
    "city": "福知山市",
    "town": "興"
  },
  "6200803": {
    "zipcode": "6200803",
    "prefectureCode": "26",
    "prefectureNumber": 26,
    "prefecture": "京都府",
    "city": "福知山市",
    "town": "観音寺"
  },
  "6200804": {
    "zipcode": "6200804",
    "prefectureCode": "26",
    "prefectureNumber": 26,
    "prefecture": "京都府",
    "city": "福知山市",
    "town": "石原"
  },
  "6200805": {
    "zipcode": "6200805",
    "prefectureCode": "26",
    "prefectureNumber": 26,
    "prefecture": "京都府",
    "city": "福知山市",
    "town": "南土野町"
  },
  "6200806": {
    "zipcode": "6200806",
    "prefectureCode": "26",
    "prefectureNumber": 26,
    "prefecture": "京都府",
    "city": "福知山市",
    "town": "聖佳町"
  },
  "6200807": {
    "zipcode": "6200807",
    "prefectureCode": "26",
    "prefectureNumber": 26,
    "prefecture": "京都府",
    "city": "福知山市",
    "town": "東野町"
  },
  "6200808": {
    "zipcode": "6200808",
    "prefectureCode": "26",
    "prefectureNumber": 26,
    "prefecture": "京都府",
    "city": "福知山市",
    "town": "土"
  },
  "6200811": {
    "zipcode": "6200811",
    "prefectureCode": "26",
    "prefectureNumber": 26,
    "prefecture": "京都府",
    "city": "福知山市",
    "town": "北平野町"
  },
  "6200812": {
    "zipcode": "6200812",
    "prefectureCode": "26",
    "prefectureNumber": 26,
    "prefecture": "京都府",
    "city": "福知山市",
    "town": "東平野町"
  },
  "6200813": {
    "zipcode": "6200813",
    "prefectureCode": "26",
    "prefectureNumber": 26,
    "prefecture": "京都府",
    "city": "福知山市",
    "town": "南平野町"
  },
  "6200814": {
    "zipcode": "6200814",
    "prefectureCode": "26",
    "prefectureNumber": 26,
    "prefecture": "京都府",
    "city": "福知山市",
    "town": "西平野町"
  },
  "6200815": {
    "zipcode": "6200815",
    "prefectureCode": "26",
    "prefectureNumber": 26,
    "prefecture": "京都府",
    "city": "福知山市",
    "town": "長山町"
  },
  "6200816": {
    "zipcode": "6200816",
    "prefectureCode": "26",
    "prefectureNumber": 26,
    "prefecture": "京都府",
    "city": "福知山市",
    "town": "大池坂町"
  },
  "6200817": {
    "zipcode": "6200817",
    "prefectureCode": "26",
    "prefectureNumber": 26,
    "prefecture": "京都府",
    "city": "福知山市",
    "town": "中坂町"
  },
  "6200821": {
    "zipcode": "6200821",
    "prefectureCode": "26",
    "prefectureNumber": 26,
    "prefecture": "京都府",
    "city": "福知山市",
    "town": "三俣"
  },
  "6200822": {
    "zipcode": "6200822",
    "prefectureCode": "26",
    "prefectureNumber": 26,
    "prefecture": "京都府",
    "city": "福知山市",
    "town": "萩原"
  },
  "6200823": {
    "zipcode": "6200823",
    "prefectureCode": "26",
    "prefectureNumber": 26,
    "prefecture": "京都府",
    "city": "福知山市",
    "town": "生野"
  },
  "6200824": {
    "zipcode": "6200824",
    "prefectureCode": "26",
    "prefectureNumber": 26,
    "prefecture": "京都府",
    "city": "福知山市",
    "town": "堀越"
  },
  "6200825": {
    "zipcode": "6200825",
    "prefectureCode": "26",
    "prefectureNumber": 26,
    "prefecture": "京都府",
    "city": "福知山市",
    "town": "上野"
  },
  "6200826": {
    "zipcode": "6200826",
    "prefectureCode": "26",
    "prefectureNumber": 26,
    "prefecture": "京都府",
    "city": "福知山市",
    "town": "正後寺"
  },
  "6200827": {
    "zipcode": "6200827",
    "prefectureCode": "26",
    "prefectureNumber": 26,
    "prefecture": "京都府",
    "city": "福知山市",
    "town": "坂室"
  },
  "6200828": {
    "zipcode": "6200828",
    "prefectureCode": "26",
    "prefectureNumber": 26,
    "prefecture": "京都府",
    "city": "福知山市",
    "town": "正坂"
  },
  "6200831": {
    "zipcode": "6200831",
    "prefectureCode": "26",
    "prefectureNumber": 26,
    "prefecture": "京都府",
    "city": "福知山市",
    "town": "岩崎"
  },
  "6200832": {
    "zipcode": "6200832",
    "prefectureCode": "26",
    "prefectureNumber": 26,
    "prefecture": "京都府",
    "city": "福知山市",
    "town": "池田"
  },
  "6200833": {
    "zipcode": "6200833",
    "prefectureCode": "26",
    "prefectureNumber": 26,
    "prefecture": "京都府",
    "city": "福知山市",
    "town": "宮"
  },
  "6200834": {
    "zipcode": "6200834",
    "prefectureCode": "26",
    "prefectureNumber": 26,
    "prefecture": "京都府",
    "city": "福知山市",
    "town": "中地"
  },
  "6200835": {
    "zipcode": "6200835",
    "prefectureCode": "26",
    "prefectureNumber": 26,
    "prefecture": "京都府",
    "city": "福知山市",
    "town": "後正寺"
  },
  "6200836": {
    "zipcode": "6200836",
    "prefectureCode": "26",
    "prefectureNumber": 26,
    "prefecture": "京都府",
    "city": "福知山市",
    "town": "大内"
  },
  "6200837": {
    "zipcode": "6200837",
    "prefectureCode": "26",
    "prefectureNumber": 26,
    "prefecture": "京都府",
    "city": "福知山市",
    "town": "田野"
  },
  "6200838": {
    "zipcode": "6200838",
    "prefectureCode": "26",
    "prefectureNumber": 26,
    "prefecture": "京都府",
    "city": "福知山市",
    "town": "笹場"
  },
  "6200839": {
    "zipcode": "6200839",
    "prefectureCode": "26",
    "prefectureNumber": 26,
    "prefecture": "京都府",
    "city": "福知山市",
    "town": "下地"
  },
  "6200841": {
    "zipcode": "6200841",
    "prefectureCode": "26",
    "prefectureNumber": 26,
    "prefecture": "京都府",
    "city": "福知山市",
    "town": "駒場新町"
  },
  "6200842": {
    "zipcode": "6200842",
    "prefectureCode": "26",
    "prefectureNumber": 26,
    "prefecture": "京都府",
    "city": "福知山市",
    "town": "長田北"
  },
  "6200843": {
    "zipcode": "6200843",
    "prefectureCode": "26",
    "prefectureNumber": 26,
    "prefecture": "京都府",
    "city": "福知山市",
    "town": "長田南"
  },
  "6200844": {
    "zipcode": "6200844",
    "prefectureCode": "26",
    "prefectureNumber": 26,
    "prefecture": "京都府",
    "city": "福知山市",
    "town": "多保市"
  },
  "6200845": {
    "zipcode": "6200845",
    "prefectureCode": "26",
    "prefectureNumber": 26,
    "prefecture": "京都府",
    "city": "福知山市",
    "town": "上松"
  },
  "6200846": {
    "zipcode": "6200846",
    "prefectureCode": "26",
    "prefectureNumber": 26,
    "prefecture": "京都府",
    "city": "福知山市",
    "town": "長田段"
  },
  "6200847": {
    "zipcode": "6200847",
    "prefectureCode": "26",
    "prefectureNumber": 26,
    "prefecture": "京都府",
    "city": "福知山市",
    "town": "岩間"
  },
  "6200848": {
    "zipcode": "6200848",
    "prefectureCode": "26",
    "prefectureNumber": 26,
    "prefecture": "京都府",
    "city": "福知山市",
    "town": "市の谷"
  },
  "6200849": {
    "zipcode": "6200849",
    "prefectureCode": "26",
    "prefectureNumber": 26,
    "prefecture": "京都府",
    "city": "福知山市",
    "town": "砂子町"
  },
  "6200851": {
    "zipcode": "6200851",
    "prefectureCode": "26",
    "prefectureNumber": 26,
    "prefecture": "京都府",
    "city": "福知山市",
    "town": "大野下"
  },
  "6200852": {
    "zipcode": "6200852",
    "prefectureCode": "26",
    "prefectureNumber": 26,
    "prefecture": "京都府",
    "city": "福知山市",
    "town": "大野上"
  },
  "6200853": {
    "zipcode": "6200853",
    "prefectureCode": "26",
    "prefectureNumber": 26,
    "prefecture": "京都府",
    "city": "福知山市",
    "town": "長田野町"
  },
  "6200854": {
    "zipcode": "6200854",
    "prefectureCode": "26",
    "prefectureNumber": 26,
    "prefecture": "京都府",
    "city": "福知山市",
    "town": "高畑"
  },
  "6200855": {
    "zipcode": "6200855",
    "prefectureCode": "26",
    "prefectureNumber": 26,
    "prefecture": "京都府",
    "city": "福知山市",
    "town": "土師（新町）"
  },
  "6200856": {
    "zipcode": "6200856",
    "prefectureCode": "26",
    "prefectureNumber": 26,
    "prefecture": "京都府",
    "city": "福知山市",
    "town": "土師（宮町）"
  },
  "6200857": {
    "zipcode": "6200857",
    "prefectureCode": "26",
    "prefectureNumber": 26,
    "prefecture": "京都府",
    "city": "福知山市",
    "town": "土師"
  },
  "6200858": {
    "zipcode": "6200858",
    "prefectureCode": "26",
    "prefectureNumber": 26,
    "prefecture": "京都府",
    "city": "福知山市",
    "town": "大野"
  },
  "6200859": {
    "zipcode": "6200859",
    "prefectureCode": "26",
    "prefectureNumber": 26,
    "prefecture": "京都府",
    "city": "福知山市",
    "town": "桔梗が丘"
  },
  "6200861": {
    "zipcode": "6200861",
    "prefectureCode": "26",
    "prefectureNumber": 26,
    "prefecture": "京都府",
    "city": "福知山市",
    "town": "秋津が丘"
  },
  "6200862": {
    "zipcode": "6200862",
    "prefectureCode": "26",
    "prefectureNumber": 26,
    "prefecture": "京都府",
    "city": "福知山市",
    "town": "東佳屋野町"
  },
  "6200863": {
    "zipcode": "6200863",
    "prefectureCode": "26",
    "prefectureNumber": 26,
    "prefecture": "京都府",
    "city": "福知山市",
    "town": "小松ケ丘"
  },
  "6200864": {
    "zipcode": "6200864",
    "prefectureCode": "26",
    "prefectureNumber": 26,
    "prefecture": "京都府",
    "city": "福知山市",
    "town": "南佳屋野町"
  },
  "6200865": {
    "zipcode": "6200865",
    "prefectureCode": "26",
    "prefectureNumber": 26,
    "prefecture": "京都府",
    "city": "福知山市",
    "town": "西佳屋野町"
  },
  "6200866": {
    "zipcode": "6200866",
    "prefectureCode": "26",
    "prefectureNumber": 26,
    "prefecture": "京都府",
    "city": "福知山市",
    "town": "前田新町"
  },
  "6200867": {
    "zipcode": "6200867",
    "prefectureCode": "26",
    "prefectureNumber": 26,
    "prefecture": "京都府",
    "city": "福知山市",
    "town": "前田"
  },
  "6200871": {
    "zipcode": "6200871",
    "prefectureCode": "26",
    "prefectureNumber": 26,
    "prefecture": "京都府",
    "city": "福知山市",
    "town": "岡ノ二町"
  },
  "6200872": {
    "zipcode": "6200872",
    "prefectureCode": "26",
    "prefectureNumber": 26,
    "prefecture": "京都府",
    "city": "福知山市",
    "town": "岡ノ一町"
  },
  "6200873": {
    "zipcode": "6200873",
    "prefectureCode": "26",
    "prefectureNumber": 26,
    "prefecture": "京都府",
    "city": "福知山市",
    "town": "岡ノ三町"
  },
  "6200874": {
    "zipcode": "6200874",
    "prefectureCode": "26",
    "prefectureNumber": 26,
    "prefecture": "京都府",
    "city": "福知山市",
    "town": "堀口"
  },
  "6200875": {
    "zipcode": "6200875",
    "prefectureCode": "26",
    "prefectureNumber": 26,
    "prefecture": "京都府",
    "city": "福知山市",
    "town": "蛇ケ端"
  },
  "6200876": {
    "zipcode": "6200876",
    "prefectureCode": "26",
    "prefectureNumber": 26,
    "prefecture": "京都府",
    "city": "福知山市",
    "town": "水内"
  },
  "6200877": {
    "zipcode": "6200877",
    "prefectureCode": "26",
    "prefectureNumber": 26,
    "prefecture": "京都府",
    "city": "福知山市",
    "town": "森垣"
  },
  "6200878": {
    "zipcode": "6200878",
    "prefectureCode": "26",
    "prefectureNumber": 26,
    "prefecture": "京都府",
    "city": "福知山市",
    "town": "日吉ケ丘"
  },
  "6200879": {
    "zipcode": "6200879",
    "prefectureCode": "26",
    "prefectureNumber": 26,
    "prefecture": "京都府",
    "city": "福知山市",
    "town": "荒木"
  },
  "6200881": {
    "zipcode": "6200881",
    "prefectureCode": "26",
    "prefectureNumber": 26,
    "prefecture": "京都府",
    "city": "福知山市",
    "town": "内田町"
  },
  "6200882": {
    "zipcode": "6200882",
    "prefectureCode": "26",
    "prefectureNumber": 26,
    "prefecture": "京都府",
    "city": "福知山市",
    "town": "東堀"
  },
  "6200883": {
    "zipcode": "6200883",
    "prefectureCode": "26",
    "prefectureNumber": 26,
    "prefecture": "京都府",
    "city": "福知山市",
    "town": "本堀"
  },
  "6200884": {
    "zipcode": "6200884",
    "prefectureCode": "26",
    "prefectureNumber": 26,
    "prefecture": "京都府",
    "city": "福知山市",
    "town": "南本堀"
  },
  "6200885": {
    "zipcode": "6200885",
    "prefectureCode": "26",
    "prefectureNumber": 26,
    "prefecture": "京都府",
    "city": "福知山市",
    "town": "南小谷ケ丘"
  },
  "6200886": {
    "zipcode": "6200886",
    "prefectureCode": "26",
    "prefectureNumber": 26,
    "prefecture": "京都府",
    "city": "福知山市",
    "town": "西小谷ケ丘"
  },
  "6200887": {
    "zipcode": "6200887",
    "prefectureCode": "26",
    "prefectureNumber": 26,
    "prefecture": "京都府",
    "city": "福知山市",
    "town": "東小谷ケ丘"
  },
  "6200888": {
    "zipcode": "6200888",
    "prefectureCode": "26",
    "prefectureNumber": 26,
    "prefecture": "京都府",
    "city": "福知山市",
    "town": "野家"
  },
  "6200891": {
    "zipcode": "6200891",
    "prefectureCode": "26",
    "prefectureNumber": 26,
    "prefecture": "京都府",
    "city": "福知山市",
    "town": "岡ノ上町"
  },
  "6200892": {
    "zipcode": "6200892",
    "prefectureCode": "26",
    "prefectureNumber": 26,
    "prefecture": "京都府",
    "city": "福知山市",
    "town": "東岡町"
  },
  "6200893": {
    "zipcode": "6200893",
    "prefectureCode": "26",
    "prefectureNumber": 26,
    "prefecture": "京都府",
    "city": "福知山市",
    "town": "北小谷ケ丘"
  },
  "6200894": {
    "zipcode": "6200894",
    "prefectureCode": "26",
    "prefectureNumber": 26,
    "prefecture": "京都府",
    "city": "福知山市",
    "town": "丸田ケ丘"
  },
  "6200895": {
    "zipcode": "6200895",
    "prefectureCode": "26",
    "prefectureNumber": 26,
    "prefecture": "京都府",
    "city": "福知山市",
    "town": "緑ケ丘町"
  },
  "6200901": {
    "zipcode": "6200901",
    "prefectureCode": "26",
    "prefectureNumber": 26,
    "prefecture": "京都府",
    "city": "福知山市",
    "town": "上佐々木"
  },
  "6200902": {
    "zipcode": "6200902",
    "prefectureCode": "26",
    "prefectureNumber": 26,
    "prefecture": "京都府",
    "city": "福知山市",
    "town": "喜多"
  },
  "6200903": {
    "zipcode": "6200903",
    "prefectureCode": "26",
    "prefectureNumber": 26,
    "prefecture": "京都府",
    "city": "福知山市",
    "town": "日尾"
  },
  "6200904": {
    "zipcode": "6200904",
    "prefectureCode": "26",
    "prefectureNumber": 26,
    "prefecture": "京都府",
    "city": "福知山市",
    "town": "常願寺"
  },
  "6200905": {
    "zipcode": "6200905",
    "prefectureCode": "26",
    "prefectureNumber": 26,
    "prefecture": "京都府",
    "city": "福知山市",
    "town": "田和"
  },
  "6200906": {
    "zipcode": "6200906",
    "prefectureCode": "26",
    "prefectureNumber": 26,
    "prefecture": "京都府",
    "city": "福知山市",
    "town": "新宮"
  },
  "6200907": {
    "zipcode": "6200907",
    "prefectureCode": "26",
    "prefectureNumber": 26,
    "prefecture": "京都府",
    "city": "福知山市",
    "town": "一ノ宮"
  },
  "6200908": {
    "zipcode": "6200908",
    "prefectureCode": "26",
    "prefectureNumber": 26,
    "prefecture": "京都府",
    "city": "福知山市",
    "town": "下佐々木"
  },
  "6200909": {
    "zipcode": "6200909",
    "prefectureCode": "26",
    "prefectureNumber": 26,
    "prefecture": "京都府",
    "city": "福知山市",
    "town": "中佐々木"
  },
  "6200911": {
    "zipcode": "6200911",
    "prefectureCode": "26",
    "prefectureNumber": 26,
    "prefecture": "京都府",
    "city": "福知山市",
    "town": "上大内"
  },
  "6200912": {
    "zipcode": "6200912",
    "prefectureCode": "26",
    "prefectureNumber": 26,
    "prefecture": "京都府",
    "city": "福知山市",
    "town": "下大内"
  },
  "6200913": {
    "zipcode": "6200913",
    "prefectureCode": "26",
    "prefectureNumber": 26,
    "prefecture": "京都府",
    "city": "福知山市",
    "town": "牧"
  },
  "6200914": {
    "zipcode": "6200914",
    "prefectureCode": "26",
    "prefectureNumber": 26,
    "prefecture": "京都府",
    "city": "福知山市",
    "town": "立原"
  },
  "6200915": {
    "zipcode": "6200915",
    "prefectureCode": "26",
    "prefectureNumber": 26,
    "prefecture": "京都府",
    "city": "福知山市",
    "town": "十二"
  },
  "6200916": {
    "zipcode": "6200916",
    "prefectureCode": "26",
    "prefectureNumber": 26,
    "prefecture": "京都府",
    "city": "福知山市",
    "town": "六十内"
  },
  "6200917": {
    "zipcode": "6200917",
    "prefectureCode": "26",
    "prefectureNumber": 26,
    "prefecture": "京都府",
    "city": "福知山市",
    "town": "野花"
  },
  "6200918": {
    "zipcode": "6200918",
    "prefectureCode": "26",
    "prefectureNumber": 26,
    "prefecture": "京都府",
    "city": "福知山市",
    "town": "夷"
  },
  "6200920": {
    "zipcode": "6200920",
    "prefectureCode": "26",
    "prefectureNumber": 26,
    "prefecture": "京都府",
    "city": "福知山市",
    "town": "岩井新町"
  },
  "6200921": {
    "zipcode": "6200921",
    "prefectureCode": "26",
    "prefectureNumber": 26,
    "prefecture": "京都府",
    "city": "福知山市",
    "town": "かしの木台"
  },
  "6200922": {
    "zipcode": "6200922",
    "prefectureCode": "26",
    "prefectureNumber": 26,
    "prefecture": "京都府",
    "city": "福知山市",
    "town": "岩井"
  },
  "6200923": {
    "zipcode": "6200923",
    "prefectureCode": "26",
    "prefectureNumber": 26,
    "prefecture": "京都府",
    "city": "福知山市",
    "town": "本庄"
  },
  "6200924": {
    "zipcode": "6200924",
    "prefectureCode": "26",
    "prefectureNumber": 26,
    "prefecture": "京都府",
    "city": "福知山市",
    "town": "下篠尾"
  },
  "6200925": {
    "zipcode": "6200925",
    "prefectureCode": "26",
    "prefectureNumber": 26,
    "prefecture": "京都府",
    "city": "福知山市",
    "town": "篠尾（上篠尾）"
  },
  "6200926": {
    "zipcode": "6200926",
    "prefectureCode": "26",
    "prefectureNumber": 26,
    "prefecture": "京都府",
    "city": "福知山市",
    "town": "新庄"
  },
  "6200927": {
    "zipcode": "6200927",
    "prefectureCode": "26",
    "prefectureNumber": 26,
    "prefecture": "京都府",
    "city": "福知山市",
    "town": "和久寺"
  },
  "6200928": {
    "zipcode": "6200928",
    "prefectureCode": "26",
    "prefectureNumber": 26,
    "prefecture": "京都府",
    "city": "福知山市",
    "town": "奥野部"
  },
  "6200931": {
    "zipcode": "6200931",
    "prefectureCode": "26",
    "prefectureNumber": 26,
    "prefecture": "京都府",
    "city": "福知山市",
    "town": "篠尾（北羽合）"
  },
  "6200932": {
    "zipcode": "6200932",
    "prefectureCode": "26",
    "prefectureNumber": 26,
    "prefecture": "京都府",
    "city": "福知山市",
    "town": "西羽合"
  },
  "6200933": {
    "zipcode": "6200933",
    "prefectureCode": "26",
    "prefectureNumber": 26,
    "prefecture": "京都府",
    "city": "福知山市",
    "town": "東羽合"
  },
  "6200934": {
    "zipcode": "6200934",
    "prefectureCode": "26",
    "prefectureNumber": 26,
    "prefecture": "京都府",
    "city": "福知山市",
    "town": "南羽合"
  },
  "6200935": {
    "zipcode": "6200935",
    "prefectureCode": "26",
    "prefectureNumber": 26,
    "prefecture": "京都府",
    "city": "福知山市",
    "town": "向野"
  },
  "6200936": {
    "zipcode": "6200936",
    "prefectureCode": "26",
    "prefectureNumber": 26,
    "prefecture": "京都府",
    "city": "福知山市",
    "town": "正明寺"
  },
  "6200937": {
    "zipcode": "6200937",
    "prefectureCode": "26",
    "prefectureNumber": 26,
    "prefecture": "京都府",
    "city": "福知山市",
    "town": "室"
  },
  "6200938": {
    "zipcode": "6200938",
    "prefectureCode": "26",
    "prefectureNumber": 26,
    "prefecture": "京都府",
    "city": "福知山市",
    "town": "小野脇"
  },
  "6200939": {
    "zipcode": "6200939",
    "prefectureCode": "26",
    "prefectureNumber": 26,
    "prefecture": "京都府",
    "city": "福知山市",
    "town": "市寺"
  },
  "6200940": {
    "zipcode": "6200940",
    "prefectureCode": "26",
    "prefectureNumber": 26,
    "prefecture": "京都府",
    "city": "福知山市",
    "town": "駅南町"
  },
  "6200943": {
    "zipcode": "6200943",
    "prefectureCode": "26",
    "prefectureNumber": 26,
    "prefecture": "京都府",
    "city": "福知山市",
    "town": "北岡町"
  },
  "6200944": {
    "zipcode": "6200944",
    "prefectureCode": "26",
    "prefectureNumber": 26,
    "prefecture": "京都府",
    "city": "福知山市",
    "town": "南岡町"
  },
  "6200945": {
    "zipcode": "6200945",
    "prefectureCode": "26",
    "prefectureNumber": 26,
    "prefecture": "京都府",
    "city": "福知山市",
    "town": "広峯町"
  },
  "6200946": {
    "zipcode": "6200946",
    "prefectureCode": "26",
    "prefectureNumber": 26,
    "prefecture": "京都府",
    "city": "福知山市",
    "town": "南天田町"
  },
  "6200947": {
    "zipcode": "6200947",
    "prefectureCode": "26",
    "prefectureNumber": 26,
    "prefecture": "京都府",
    "city": "福知山市",
    "town": "旭が丘"
  },
  "6200948": {
    "zipcode": "6200948",
    "prefectureCode": "26",
    "prefectureNumber": 26,
    "prefecture": "京都府",
    "city": "福知山市",
    "town": "夕陽が丘"
  },
  "6200949": {
    "zipcode": "6200949",
    "prefectureCode": "26",
    "prefectureNumber": 26,
    "prefecture": "京都府",
    "city": "福知山市",
    "town": "つつじケ丘"
  },
  "6200951": {
    "zipcode": "6200951",
    "prefectureCode": "26",
    "prefectureNumber": 26,
    "prefecture": "京都府",
    "city": "福知山市",
    "town": "十三丘"
  },
  "6200952": {
    "zipcode": "6200952",
    "prefectureCode": "26",
    "prefectureNumber": 26,
    "prefecture": "京都府",
    "city": "福知山市",
    "town": "大門"
  },
  "6200953": {
    "zipcode": "6200953",
    "prefectureCode": "26",
    "prefectureNumber": 26,
    "prefecture": "京都府",
    "city": "福知山市",
    "town": "今安"
  },
  "6200954": {
    "zipcode": "6200954",
    "prefectureCode": "26",
    "prefectureNumber": 26,
    "prefecture": "京都府",
    "city": "福知山市",
    "town": "半田"
  },
  "6200955": {
    "zipcode": "6200955",
    "prefectureCode": "26",
    "prefectureNumber": 26,
    "prefecture": "京都府",
    "city": "福知山市",
    "town": "拝師"
  },
  "6200956": {
    "zipcode": "6200956",
    "prefectureCode": "26",
    "prefectureNumber": 26,
    "prefecture": "京都府",
    "city": "福知山市",
    "town": "額塚"
  },
  "6200957": {
    "zipcode": "6200957",
    "prefectureCode": "26",
    "prefectureNumber": 26,
    "prefecture": "京都府",
    "city": "福知山市",
    "town": "山崎"
  },
  "6200958": {
    "zipcode": "6200958",
    "prefectureCode": "26",
    "prefectureNumber": 26,
    "prefecture": "京都府",
    "city": "福知山市",
    "town": "さつきケ丘"
  },
  "6200961": {
    "zipcode": "6200961",
    "prefectureCode": "26",
    "prefectureNumber": 26,
    "prefecture": "京都府",
    "city": "福知山市",
    "town": "石場"
  },
  "6200962": {
    "zipcode": "6200962",
    "prefectureCode": "26",
    "prefectureNumber": 26,
    "prefecture": "京都府",
    "city": "福知山市",
    "town": "口榎原"
  },
  "6200963": {
    "zipcode": "6200963",
    "prefectureCode": "26",
    "prefectureNumber": 26,
    "prefecture": "京都府",
    "city": "福知山市",
    "town": "奥榎原"
  },
  "6200964": {
    "zipcode": "6200964",
    "prefectureCode": "26",
    "prefectureNumber": 26,
    "prefecture": "京都府",
    "city": "福知山市",
    "town": "甘栗"
  },
  "6200965": {
    "zipcode": "6200965",
    "prefectureCode": "26",
    "prefectureNumber": 26,
    "prefecture": "京都府",
    "city": "福知山市",
    "town": "樽水"
  },
  "6200966": {
    "zipcode": "6200966",
    "prefectureCode": "26",
    "prefectureNumber": 26,
    "prefecture": "京都府",
    "city": "福知山市",
    "town": "辻"
  },
  "6200967": {
    "zipcode": "6200967",
    "prefectureCode": "26",
    "prefectureNumber": 26,
    "prefecture": "京都府",
    "city": "福知山市",
    "town": "畑中"
  },
  "6200968": {
    "zipcode": "6200968",
    "prefectureCode": "26",
    "prefectureNumber": 26,
    "prefecture": "京都府",
    "city": "福知山市",
    "town": "北山"
  },
  "6200969": {
    "zipcode": "6200969",
    "prefectureCode": "26",
    "prefectureNumber": 26,
    "prefecture": "京都府",
    "city": "福知山市",
    "town": "茅ノ台"
  },
  "6200971": {
    "zipcode": "6200971",
    "prefectureCode": "26",
    "prefectureNumber": 26,
    "prefecture": "京都府",
    "city": "福知山市",
    "town": "下戸"
  },
  "6200972": {
    "zipcode": "6200972",
    "prefectureCode": "26",
    "prefectureNumber": 26,
    "prefecture": "京都府",
    "city": "福知山市",
    "town": "小牧"
  },
  "6200973": {
    "zipcode": "6200973",
    "prefectureCode": "26",
    "prefectureNumber": 26,
    "prefecture": "京都府",
    "city": "福知山市",
    "town": "談"
  },
  "6200974": {
    "zipcode": "6200974",
    "prefectureCode": "26",
    "prefectureNumber": 26,
    "prefecture": "京都府",
    "city": "福知山市",
    "town": "法用"
  },
  "6200981": {
    "zipcode": "6200981",
    "prefectureCode": "26",
    "prefectureNumber": 26,
    "prefecture": "京都府",
    "city": "福知山市",
    "town": "小田"
  },
  "6200982": {
    "zipcode": "6200982",
    "prefectureCode": "26",
    "prefectureNumber": 26,
    "prefecture": "京都府",
    "city": "福知山市",
    "town": "下小田"
  },
  "6200983": {
    "zipcode": "6200983",
    "prefectureCode": "26",
    "prefectureNumber": 26,
    "prefecture": "京都府",
    "city": "福知山市",
    "town": "野笹"
  },
  "6200984": {
    "zipcode": "6200984",
    "prefectureCode": "26",
    "prefectureNumber": 26,
    "prefecture": "京都府",
    "city": "福知山市",
    "town": "猪野々"
  },
  "6200985": {
    "zipcode": "6200985",
    "prefectureCode": "26",
    "prefectureNumber": 26,
    "prefecture": "京都府",
    "city": "福知山市",
    "town": "梅谷"
  },
  "6200986": {
    "zipcode": "6200986",
    "prefectureCode": "26",
    "prefectureNumber": 26,
    "prefecture": "京都府",
    "city": "福知山市",
    "town": "宮垣"
  },
  "6200987": {
    "zipcode": "6200987",
    "prefectureCode": "26",
    "prefectureNumber": 26,
    "prefecture": "京都府",
    "city": "福知山市",
    "town": "鴨野町"
  },
  "6200988": {
    "zipcode": "6200988",
    "prefectureCode": "26",
    "prefectureNumber": 26,
    "prefecture": "京都府",
    "city": "福知山市",
    "town": "大見長祖"
  },
  "6200989": {
    "zipcode": "6200989",
    "prefectureCode": "26",
    "prefectureNumber": 26,
    "prefecture": "京都府",
    "city": "福知山市",
    "town": "住所大山"
  },
  "6201301": {
    "zipcode": "6201301",
    "prefectureCode": "26",
    "prefectureNumber": 26,
    "prefecture": "京都府",
    "city": "福知山市",
    "town": "三和町大原"
  },
  "6201302": {
    "zipcode": "6201302",
    "prefectureCode": "26",
    "prefectureNumber": 26,
    "prefecture": "京都府",
    "city": "福知山市",
    "town": "三和町台頭"
  },
  "6201311": {
    "zipcode": "6201311",
    "prefectureCode": "26",
    "prefectureNumber": 26,
    "prefecture": "京都府",
    "city": "福知山市",
    "town": "三和町上川合"
  },
  "6201312": {
    "zipcode": "6201312",
    "prefectureCode": "26",
    "prefectureNumber": 26,
    "prefecture": "京都府",
    "city": "福知山市",
    "town": "三和町岼"
  },
  "6201313": {
    "zipcode": "6201313",
    "prefectureCode": "26",
    "prefectureNumber": 26,
    "prefecture": "京都府",
    "city": "福知山市",
    "town": "三和町下川合"
  },
  "6201314": {
    "zipcode": "6201314",
    "prefectureCode": "26",
    "prefectureNumber": 26,
    "prefecture": "京都府",
    "city": "福知山市",
    "town": "三和町加用"
  },
  "6201421": {
    "zipcode": "6201421",
    "prefectureCode": "26",
    "prefectureNumber": 26,
    "prefecture": "京都府",
    "city": "福知山市",
    "town": "三和町大身"
  },
  "6201422": {
    "zipcode": "6201422",
    "prefectureCode": "26",
    "prefectureNumber": 26,
    "prefecture": "京都府",
    "city": "福知山市",
    "town": "三和町菟原中"
  },
  "6201423": {
    "zipcode": "6201423",
    "prefectureCode": "26",
    "prefectureNumber": 26,
    "prefecture": "京都府",
    "city": "福知山市",
    "town": "三和町高杉"
  },
  "6201424": {
    "zipcode": "6201424",
    "prefectureCode": "26",
    "prefectureNumber": 26,
    "prefecture": "京都府",
    "city": "福知山市",
    "town": "三和町友渕"
  },
  "6201425": {
    "zipcode": "6201425",
    "prefectureCode": "26",
    "prefectureNumber": 26,
    "prefecture": "京都府",
    "city": "福知山市",
    "town": "三和町菟原下"
  },
  "6201431": {
    "zipcode": "6201431",
    "prefectureCode": "26",
    "prefectureNumber": 26,
    "prefecture": "京都府",
    "city": "福知山市",
    "town": "三和町辻"
  },
  "6201432": {
    "zipcode": "6201432",
    "prefectureCode": "26",
    "prefectureNumber": 26,
    "prefecture": "京都府",
    "city": "福知山市",
    "town": "三和町中出"
  },
  "6201433": {
    "zipcode": "6201433",
    "prefectureCode": "26",
    "prefectureNumber": 26,
    "prefecture": "京都府",
    "city": "福知山市",
    "town": "三和町田ノ谷"
  },
  "6201434": {
    "zipcode": "6201434",
    "prefectureCode": "26",
    "prefectureNumber": 26,
    "prefecture": "京都府",
    "city": "福知山市",
    "town": "三和町西松"
  },
  "6201435": {
    "zipcode": "6201435",
    "prefectureCode": "26",
    "prefectureNumber": 26,
    "prefecture": "京都府",
    "city": "福知山市",
    "town": "三和町草山"
  },
  "6201441": {
    "zipcode": "6201441",
    "prefectureCode": "26",
    "prefectureNumber": 26,
    "prefecture": "京都府",
    "city": "福知山市",
    "town": "三和町梅原"
  },
  "6201442": {
    "zipcode": "6201442",
    "prefectureCode": "26",
    "prefectureNumber": 26,
    "prefecture": "京都府",
    "city": "福知山市",
    "town": "三和町千束"
  },
  "6201443": {
    "zipcode": "6201443",
    "prefectureCode": "26",
    "prefectureNumber": 26,
    "prefecture": "京都府",
    "city": "福知山市",
    "town": "三和町寺尾"
  },
  "6201444": {
    "zipcode": "6201444",
    "prefectureCode": "26",
    "prefectureNumber": 26,
    "prefecture": "京都府",
    "city": "福知山市",
    "town": "三和町芦渕"
  },
  "6201445": {
    "zipcode": "6201445",
    "prefectureCode": "26",
    "prefectureNumber": 26,
    "prefecture": "京都府",
    "city": "福知山市",
    "town": "三和町みわ"
  }
}
