{
  "6210000": {
    "zipcode": "6210000",
    "prefectureCode": "26",
    "prefectureNumber": 26,
    "prefecture": "京都府",
    "city": "亀岡市",
    "town": "以下に掲載がない場合"
  },
  "6210001": {
    "zipcode": "6210001",
    "prefectureCode": "26",
    "prefectureNumber": 26,
    "prefecture": "京都府",
    "city": "亀岡市",
    "town": "旭町"
  },
  "6210002": {
    "zipcode": "6210002",
    "prefectureCode": "26",
    "prefectureNumber": 26,
    "prefecture": "京都府",
    "city": "亀岡市",
    "town": "千歳町千歳"
  },
  "6210003": {
    "zipcode": "6210003",
    "prefectureCode": "26",
    "prefectureNumber": 26,
    "prefecture": "京都府",
    "city": "亀岡市",
    "town": "千歳町国分"
  },
  "6210004": {
    "zipcode": "6210004",
    "prefectureCode": "26",
    "prefectureNumber": 26,
    "prefecture": "京都府",
    "city": "亀岡市",
    "town": "千歳町毘沙門"
  },
  "6210005": {
    "zipcode": "6210005",
    "prefectureCode": "26",
    "prefectureNumber": 26,
    "prefecture": "京都府",
    "city": "亀岡市",
    "town": "保津町"
  },
  "6210006": {
    "zipcode": "6210006",
    "prefectureCode": "26",
    "prefectureNumber": 26,
    "prefecture": "京都府",
    "city": "亀岡市",
    "town": "河原林町勝林島"
  },
  "6210007": {
    "zipcode": "6210007",
    "prefectureCode": "26",
    "prefectureNumber": 26,
    "prefecture": "京都府",
    "city": "亀岡市",
    "town": "河原林町河原尻"
  },
  "6210008": {
    "zipcode": "6210008",
    "prefectureCode": "26",
    "prefectureNumber": 26,
    "prefecture": "京都府",
    "city": "亀岡市",
    "town": "馬路町"
  },
  "6210011": {
    "zipcode": "6210011",
    "prefectureCode": "26",
    "prefectureNumber": 26,
    "prefecture": "京都府",
    "city": "亀岡市",
    "town": "大井町土田"
  },
  "6210012": {
    "zipcode": "6210012",
    "prefectureCode": "26",
    "prefectureNumber": 26,
    "prefecture": "京都府",
    "city": "亀岡市",
    "town": "大井町かすみケ丘"
  },
  "6210013": {
    "zipcode": "6210013",
    "prefectureCode": "26",
    "prefectureNumber": 26,
    "prefecture": "京都府",
    "city": "亀岡市",
    "town": "大井町並河"
  },
  "6210014": {
    "zipcode": "6210014",
    "prefectureCode": "26",
    "prefectureNumber": 26,
    "prefecture": "京都府",
    "city": "亀岡市",
    "town": "吉川町穴川"
  },
  "6210015": {
    "zipcode": "6210015",
    "prefectureCode": "26",
    "prefectureNumber": 26,
    "prefecture": "京都府",
    "city": "亀岡市",
    "town": "吉川町吉田"
  },
  "6210016": {
    "zipcode": "6210016",
    "prefectureCode": "26",
    "prefectureNumber": 26,
    "prefecture": "京都府",
    "city": "亀岡市",
    "town": "大井町南金岐"
  },
  "6210017": {
    "zipcode": "6210017",
    "prefectureCode": "26",
    "prefectureNumber": 26,
    "prefecture": "京都府",
    "city": "亀岡市",
    "town": "大井町北金岐"
  },
  "6210018": {
    "zipcode": "6210018",
    "prefectureCode": "26",
    "prefectureNumber": 26,
    "prefecture": "京都府",
    "city": "亀岡市",
    "town": "大井町小金岐"
  },
  "6210021": {
    "zipcode": "6210021",
    "prefectureCode": "26",
    "prefectureNumber": 26,
    "prefecture": "京都府",
    "city": "亀岡市",
    "town": "曽我部町重利"
  },
  "6210022": {
    "zipcode": "6210022",
    "prefectureCode": "26",
    "prefectureNumber": 26,
    "prefecture": "京都府",
    "city": "亀岡市",
    "town": "曽我部町南条"
  },
  "6210023": {
    "zipcode": "6210023",
    "prefectureCode": "26",
    "prefectureNumber": 26,
    "prefecture": "京都府",
    "city": "亀岡市",
    "town": "曽我部町寺"
  },
  "6210024": {
    "zipcode": "6210024",
    "prefectureCode": "26",
    "prefectureNumber": 26,
    "prefecture": "京都府",
    "city": "亀岡市",
    "town": "曽我部町春日部"
  },
  "6210025": {
    "zipcode": "6210025",
    "prefectureCode": "26",
    "prefectureNumber": 26,
    "prefecture": "京都府",
    "city": "亀岡市",
    "town": "曽我部町中"
  },
  "6210026": {
    "zipcode": "6210026",
    "prefectureCode": "26",
    "prefectureNumber": 26,
    "prefecture": "京都府",
    "city": "亀岡市",
    "town": "曽我部町法貴"
  },
  "6210027": {
    "zipcode": "6210027",
    "prefectureCode": "26",
    "prefectureNumber": 26,
    "prefecture": "京都府",
    "city": "亀岡市",
    "town": "曽我部町犬飼"
  },
  "6210028": {
    "zipcode": "6210028",
    "prefectureCode": "26",
    "prefectureNumber": 26,
    "prefecture": "京都府",
    "city": "亀岡市",
    "town": "曽我部町西条"
  },
  "6210029": {
    "zipcode": "6210029",
    "prefectureCode": "26",
    "prefectureNumber": 26,
    "prefecture": "京都府",
    "city": "亀岡市",
    "town": "曽我部町穴太"
  },
  "6210031": {
    "zipcode": "6210031",
    "prefectureCode": "26",
    "prefectureNumber": 26,
    "prefecture": "京都府",
    "city": "亀岡市",
    "town": "ひえ田野町太田"
  },
  "6210032": {
    "zipcode": "6210032",
    "prefectureCode": "26",
    "prefectureNumber": 26,
    "prefecture": "京都府",
    "city": "亀岡市",
    "town": "ひえ田野町天川"
  },
  "6210033": {
    "zipcode": "6210033",
    "prefectureCode": "26",
    "prefectureNumber": 26,
    "prefecture": "京都府",
    "city": "亀岡市",
    "town": "ひえ田野町佐伯"
  },
  "6210034": {
    "zipcode": "6210034",
    "prefectureCode": "26",
    "prefectureNumber": 26,
    "prefecture": "京都府",
    "city": "亀岡市",
    "town": "ひえ田野町芦ノ山"
  },
  "6210035": {
    "zipcode": "6210035",
    "prefectureCode": "26",
    "prefectureNumber": 26,
    "prefecture": "京都府",
    "city": "亀岡市",
    "town": "ひえ田野町奥条"
  },
  "6210036": {
    "zipcode": "6210036",
    "prefectureCode": "26",
    "prefectureNumber": 26,
    "prefecture": "京都府",
    "city": "亀岡市",
    "town": "ひえ田野町柿花"
  },
  "6210037": {
    "zipcode": "6210037",
    "prefectureCode": "26",
    "prefectureNumber": 26,
    "prefecture": "京都府",
    "city": "亀岡市",
    "town": "ひえ田野町鹿谷"
  },
  "6210041": {
    "zipcode": "6210041",
    "prefectureCode": "26",
    "prefectureNumber": 26,
    "prefecture": "京都府",
    "city": "亀岡市",
    "town": "千代川町小川"
  },
  "6210042": {
    "zipcode": "6210042",
    "prefectureCode": "26",
    "prefectureNumber": 26,
    "prefecture": "京都府",
    "city": "亀岡市",
    "town": "千代川町高野林"
  },
  "6210043": {
    "zipcode": "6210043",
    "prefectureCode": "26",
    "prefectureNumber": 26,
    "prefecture": "京都府",
    "city": "亀岡市",
    "town": "千代川町小林"
  },
  "6210044": {
    "zipcode": "6210044",
    "prefectureCode": "26",
    "prefectureNumber": 26,
    "prefecture": "京都府",
    "city": "亀岡市",
    "town": "千代川町日吉台"
  },
  "6210045": {
    "zipcode": "6210045",
    "prefectureCode": "26",
    "prefectureNumber": 26,
    "prefecture": "京都府",
    "city": "亀岡市",
    "town": "千代川町湯井"
  },
  "6210046": {
    "zipcode": "6210046",
    "prefectureCode": "26",
    "prefectureNumber": 26,
    "prefecture": "京都府",
    "city": "亀岡市",
    "town": "千代川町北ノ庄"
  },
  "6210047": {
    "zipcode": "6210047",
    "prefectureCode": "26",
    "prefectureNumber": 26,
    "prefecture": "京都府",
    "city": "亀岡市",
    "town": "千代川町明晴"
  },
  "6210051": {
    "zipcode": "6210051",
    "prefectureCode": "26",
    "prefectureNumber": 26,
    "prefecture": "京都府",
    "city": "亀岡市",
    "town": "千代川町今津"
  },
  "6210052": {
    "zipcode": "6210052",
    "prefectureCode": "26",
    "prefectureNumber": 26,
    "prefecture": "京都府",
    "city": "亀岡市",
    "town": "千代川町千原"
  },
  "6210053": {
    "zipcode": "6210053",
    "prefectureCode": "26",
    "prefectureNumber": 26,
    "prefecture": "京都府",
    "city": "亀岡市",
    "town": "千代川町拝田"
  },
  "6210054": {
    "zipcode": "6210054",
    "prefectureCode": "26",
    "prefectureNumber": 26,
    "prefecture": "京都府",
    "city": "亀岡市",
    "town": "千代川町川関"
  },
  "6210101": {
    "zipcode": "6210101",
    "prefectureCode": "26",
    "prefectureNumber": 26,
    "prefecture": "京都府",
    "city": "亀岡市",
    "town": "東別院町小泉"
  },
  "6210102": {
    "zipcode": "6210102",
    "prefectureCode": "26",
    "prefectureNumber": 26,
    "prefecture": "京都府",
    "city": "亀岡市",
    "town": "東別院町神原"
  },
  "6210103": {
    "zipcode": "6210103",
    "prefectureCode": "26",
    "prefectureNumber": 26,
    "prefecture": "京都府",
    "city": "亀岡市",
    "town": "東別院町東掛"
  },
  "6210104": {
    "zipcode": "6210104",
    "prefectureCode": "26",
    "prefectureNumber": 26,
    "prefecture": "京都府",
    "city": "亀岡市",
    "town": "東別院町大野"
  },
  "6210111": {
    "zipcode": "6210111",
    "prefectureCode": "26",
    "prefectureNumber": 26,
    "prefecture": "京都府",
    "city": "亀岡市",
    "town": "東別院町南掛"
  },
  "6210112": {
    "zipcode": "6210112",
    "prefectureCode": "26",
    "prefectureNumber": 26,
    "prefecture": "京都府",
    "city": "亀岡市",
    "town": "東別院町湯谷"
  },
  "6210113": {
    "zipcode": "6210113",
    "prefectureCode": "26",
    "prefectureNumber": 26,
    "prefecture": "京都府",
    "city": "亀岡市",
    "town": "東別院町倉谷"
  },
  "6210114": {
    "zipcode": "6210114",
    "prefectureCode": "26",
    "prefectureNumber": 26,
    "prefecture": "京都府",
    "city": "亀岡市",
    "town": "東別院町鎌倉"
  },
  "6210115": {
    "zipcode": "6210115",
    "prefectureCode": "26",
    "prefectureNumber": 26,
    "prefecture": "京都府",
    "city": "亀岡市",
    "town": "東別院町栢原"
  },
  "6210121": {
    "zipcode": "6210121",
    "prefectureCode": "26",
    "prefectureNumber": 26,
    "prefecture": "京都府",
    "city": "亀岡市",
    "town": "西別院町大槻並"
  },
  "6210122": {
    "zipcode": "6210122",
    "prefectureCode": "26",
    "prefectureNumber": 26,
    "prefecture": "京都府",
    "city": "亀岡市",
    "town": "西別院町万願寺"
  },
  "6210123": {
    "zipcode": "6210123",
    "prefectureCode": "26",
    "prefectureNumber": 26,
    "prefecture": "京都府",
    "city": "亀岡市",
    "town": "西別院町寺田"
  },
  "6210124": {
    "zipcode": "6210124",
    "prefectureCode": "26",
    "prefectureNumber": 26,
    "prefecture": "京都府",
    "city": "亀岡市",
    "town": "西別院町柚原"
  },
  "6210125": {
    "zipcode": "6210125",
    "prefectureCode": "26",
    "prefectureNumber": 26,
    "prefecture": "京都府",
    "city": "亀岡市",
    "town": "西別院町笑路"
  },
  "6210126": {
    "zipcode": "6210126",
    "prefectureCode": "26",
    "prefectureNumber": 26,
    "prefecture": "京都府",
    "city": "亀岡市",
    "town": "西別院町犬甘野"
  },
  "6210127": {
    "zipcode": "6210127",
    "prefectureCode": "26",
    "prefectureNumber": 26,
    "prefecture": "京都府",
    "city": "亀岡市",
    "town": "西別院町神地"
  },
  "6210231": {
    "zipcode": "6210231",
    "prefectureCode": "26",
    "prefectureNumber": 26,
    "prefecture": "京都府",
    "city": "亀岡市",
    "town": "東本梅町大内"
  },
  "6210232": {
    "zipcode": "6210232",
    "prefectureCode": "26",
    "prefectureNumber": 26,
    "prefecture": "京都府",
    "city": "亀岡市",
    "town": "東本梅町松熊"
  },
  "6210233": {
    "zipcode": "6210233",
    "prefectureCode": "26",
    "prefectureNumber": 26,
    "prefecture": "京都府",
    "city": "亀岡市",
    "town": "東本梅町中野"
  },
  "6210234": {
    "zipcode": "6210234",
    "prefectureCode": "26",
    "prefectureNumber": 26,
    "prefecture": "京都府",
    "city": "亀岡市",
    "town": "東本梅町赤熊"
  },
  "6210235": {
    "zipcode": "6210235",
    "prefectureCode": "26",
    "prefectureNumber": 26,
    "prefecture": "京都府",
    "city": "亀岡市",
    "town": "東本梅町東大谷"
  },
  "6210241": {
    "zipcode": "6210241",
    "prefectureCode": "26",
    "prefectureNumber": 26,
    "prefecture": "京都府",
    "city": "亀岡市",
    "town": "宮前町猪倉"
  },
  "6210242": {
    "zipcode": "6210242",
    "prefectureCode": "26",
    "prefectureNumber": 26,
    "prefecture": "京都府",
    "city": "亀岡市",
    "town": "宮前町神前"
  },
  "6210243": {
    "zipcode": "6210243",
    "prefectureCode": "26",
    "prefectureNumber": 26,
    "prefecture": "京都府",
    "city": "亀岡市",
    "town": "宮前町宮川"
  },
  "6210251": {
    "zipcode": "6210251",
    "prefectureCode": "26",
    "prefectureNumber": 26,
    "prefecture": "京都府",
    "city": "亀岡市",
    "town": "本梅町平松"
  },
  "6210252": {
    "zipcode": "6210252",
    "prefectureCode": "26",
    "prefectureNumber": 26,
    "prefecture": "京都府",
    "city": "亀岡市",
    "town": "本梅町中野"
  },
  "6210253": {
    "zipcode": "6210253",
    "prefectureCode": "26",
    "prefectureNumber": 26,
    "prefecture": "京都府",
    "city": "亀岡市",
    "town": "本梅町井手"
  },
  "6210254": {
    "zipcode": "6210254",
    "prefectureCode": "26",
    "prefectureNumber": 26,
    "prefecture": "京都府",
    "city": "亀岡市",
    "town": "本梅町東加舎"
  },
  "6210255": {
    "zipcode": "6210255",
    "prefectureCode": "26",
    "prefectureNumber": 26,
    "prefecture": "京都府",
    "city": "亀岡市",
    "town": "本梅町西加舎"
  },
  "6210261": {
    "zipcode": "6210261",
    "prefectureCode": "26",
    "prefectureNumber": 26,
    "prefecture": "京都府",
    "city": "亀岡市",
    "town": "畑野町千ケ畑"
  },
  "6210262": {
    "zipcode": "6210262",
    "prefectureCode": "26",
    "prefectureNumber": 26,
    "prefecture": "京都府",
    "city": "亀岡市",
    "town": "畑野町広野"
  },
  "6210263": {
    "zipcode": "6210263",
    "prefectureCode": "26",
    "prefectureNumber": 26,
    "prefecture": "京都府",
    "city": "亀岡市",
    "town": "畑野町土ケ畑"
  },
  "6210801": {
    "zipcode": "6210801",
    "prefectureCode": "26",
    "prefectureNumber": 26,
    "prefecture": "京都府",
    "city": "亀岡市",
    "town": "宇津根町"
  },
  "6210802": {
    "zipcode": "6210802",
    "prefectureCode": "26",
    "prefectureNumber": 26,
    "prefecture": "京都府",
    "city": "亀岡市",
    "town": "北河原町"
  },
  "6210803": {
    "zipcode": "6210803",
    "prefectureCode": "26",
    "prefectureNumber": 26,
    "prefecture": "京都府",
    "city": "亀岡市",
    "town": "河原町"
  },
  "6210804": {
    "zipcode": "6210804",
    "prefectureCode": "26",
    "prefectureNumber": 26,
    "prefecture": "京都府",
    "city": "亀岡市",
    "town": "追分町"
  },
  "6210805": {
    "zipcode": "6210805",
    "prefectureCode": "26",
    "prefectureNumber": 26,
    "prefecture": "京都府",
    "city": "亀岡市",
    "town": "安町"
  },
  "6210806": {
    "zipcode": "6210806",
    "prefectureCode": "26",
    "prefectureNumber": 26,
    "prefecture": "京都府",
    "city": "亀岡市",
    "town": "余部町"
  },
  "6210807": {
    "zipcode": "6210807",
    "prefectureCode": "26",
    "prefectureNumber": 26,
    "prefecture": "京都府",
    "city": "亀岡市",
    "town": "亀岡駅北"
  },
  "6210811": {
    "zipcode": "6210811",
    "prefectureCode": "26",
    "prefectureNumber": 26,
    "prefecture": "京都府",
    "city": "亀岡市",
    "town": "北古世町"
  },
  "6210812": {
    "zipcode": "6210812",
    "prefectureCode": "26",
    "prefectureNumber": 26,
    "prefecture": "京都府",
    "city": "亀岡市",
    "town": "横町"
  },
  "6210813": {
    "zipcode": "6210813",
    "prefectureCode": "26",
    "prefectureNumber": 26,
    "prefecture": "京都府",
    "city": "亀岡市",
    "town": "突抜町"
  },
  "6210814": {
    "zipcode": "6210814",
    "prefectureCode": "26",
    "prefectureNumber": 26,
    "prefecture": "京都府",
    "city": "亀岡市",
    "town": "三宅町"
  },
  "6210815": {
    "zipcode": "6210815",
    "prefectureCode": "26",
    "prefectureNumber": 26,
    "prefecture": "京都府",
    "city": "亀岡市",
    "town": "古世町"
  },
  "6210816": {
    "zipcode": "6210816",
    "prefectureCode": "26",
    "prefectureNumber": 26,
    "prefecture": "京都府",
    "city": "亀岡市",
    "town": "東竪町"
  },
  "6210817": {
    "zipcode": "6210817",
    "prefectureCode": "26",
    "prefectureNumber": 26,
    "prefecture": "京都府",
    "city": "亀岡市",
    "town": "西竪町"
  },
  "6210818": {
    "zipcode": "6210818",
    "prefectureCode": "26",
    "prefectureNumber": 26,
    "prefecture": "京都府",
    "city": "亀岡市",
    "town": "京町"
  },
  "6210819": {
    "zipcode": "6210819",
    "prefectureCode": "26",
    "prefectureNumber": 26,
    "prefecture": "京都府",
    "city": "亀岡市",
    "town": "呉服町"
  },
  "6210821": {
    "zipcode": "6210821",
    "prefectureCode": "26",
    "prefectureNumber": 26,
    "prefecture": "京都府",
    "city": "亀岡市",
    "town": "篠町柏原"
  },
  "6210822": {
    "zipcode": "6210822",
    "prefectureCode": "26",
    "prefectureNumber": 26,
    "prefecture": "京都府",
    "city": "亀岡市",
    "town": "篠町野条"
  },
  "6210823": {
    "zipcode": "6210823",
    "prefectureCode": "26",
    "prefectureNumber": 26,
    "prefecture": "京都府",
    "city": "亀岡市",
    "town": "篠町馬堀"
  },
  "6210824": {
    "zipcode": "6210824",
    "prefectureCode": "26",
    "prefectureNumber": 26,
    "prefecture": "京都府",
    "city": "亀岡市",
    "town": "篠町見晴"
  },
  "6210825": {
    "zipcode": "6210825",
    "prefectureCode": "26",
    "prefectureNumber": 26,
    "prefecture": "京都府",
    "city": "亀岡市",
    "town": "篠町山本"
  },
  "6210826": {
    "zipcode": "6210826",
    "prefectureCode": "26",
    "prefectureNumber": 26,
    "prefecture": "京都府",
    "city": "亀岡市",
    "town": "篠町篠"
  },
  "6210827": {
    "zipcode": "6210827",
    "prefectureCode": "26",
    "prefectureNumber": 26,
    "prefecture": "京都府",
    "city": "亀岡市",
    "town": "篠町王子"
  },
  "6210828": {
    "zipcode": "6210828",
    "prefectureCode": "26",
    "prefectureNumber": 26,
    "prefecture": "京都府",
    "city": "亀岡市",
    "town": "篠町馬堀駅前"
  },
  "6210829": {
    "zipcode": "6210829",
    "prefectureCode": "26",
    "prefectureNumber": 26,
    "prefecture": "京都府",
    "city": "亀岡市",
    "town": "篠町夕日ケ丘"
  },
  "6210831": {
    "zipcode": "6210831",
    "prefectureCode": "26",
    "prefectureNumber": 26,
    "prefecture": "京都府",
    "city": "亀岡市",
    "town": "篠町森"
  },
  "6210832": {
    "zipcode": "6210832",
    "prefectureCode": "26",
    "prefectureNumber": 26,
    "prefecture": "京都府",
    "city": "亀岡市",
    "town": "東つつじケ丘都台"
  },
  "6210833": {
    "zipcode": "6210833",
    "prefectureCode": "26",
    "prefectureNumber": 26,
    "prefecture": "京都府",
    "city": "亀岡市",
    "town": "東つつじケ丘曙台"
  },
  "6210834": {
    "zipcode": "6210834",
    "prefectureCode": "26",
    "prefectureNumber": 26,
    "prefecture": "京都府",
    "city": "亀岡市",
    "town": "篠町広田"
  },
  "6210835": {
    "zipcode": "6210835",
    "prefectureCode": "26",
    "prefectureNumber": 26,
    "prefecture": "京都府",
    "city": "亀岡市",
    "town": "篠町浄法寺"
  },
  "6210841": {
    "zipcode": "6210841",
    "prefectureCode": "26",
    "prefectureNumber": 26,
    "prefecture": "京都府",
    "city": "亀岡市",
    "town": "西つつじケ丘五月台"
  },
  "6210842": {
    "zipcode": "6210842",
    "prefectureCode": "26",
    "prefectureNumber": 26,
    "prefecture": "京都府",
    "city": "亀岡市",
    "town": "西つつじケ丘雲仙台"
  },
  "6210843": {
    "zipcode": "6210843",
    "prefectureCode": "26",
    "prefectureNumber": 26,
    "prefecture": "京都府",
    "city": "亀岡市",
    "town": "西つつじケ丘大山台"
  },
  "6210844": {
    "zipcode": "6210844",
    "prefectureCode": "26",
    "prefectureNumber": 26,
    "prefecture": "京都府",
    "city": "亀岡市",
    "town": "西つつじケ丘霧島台"
  },
  "6210845": {
    "zipcode": "6210845",
    "prefectureCode": "26",
    "prefectureNumber": 26,
    "prefecture": "京都府",
    "city": "亀岡市",
    "town": "西つつじケ丘美山台"
  },
  "6210846": {
    "zipcode": "6210846",
    "prefectureCode": "26",
    "prefectureNumber": 26,
    "prefecture": "京都府",
    "city": "亀岡市",
    "town": "南つつじケ丘大葉台"
  },
  "6210847": {
    "zipcode": "6210847",
    "prefectureCode": "26",
    "prefectureNumber": 26,
    "prefecture": "京都府",
    "city": "亀岡市",
    "town": "南つつじケ丘桜台"
  },
  "6210851": {
    "zipcode": "6210851",
    "prefectureCode": "26",
    "prefectureNumber": 26,
    "prefecture": "京都府",
    "city": "亀岡市",
    "town": "荒塚町"
  },
  "6210852": {
    "zipcode": "6210852",
    "prefectureCode": "26",
    "prefectureNumber": 26,
    "prefecture": "京都府",
    "city": "亀岡市",
    "town": "紺屋町"
  },
  "6210853": {
    "zipcode": "6210853",
    "prefectureCode": "26",
    "prefectureNumber": 26,
    "prefecture": "京都府",
    "city": "亀岡市",
    "town": "矢田町"
  },
  "6210854": {
    "zipcode": "6210854",
    "prefectureCode": "26",
    "prefectureNumber": 26,
    "prefecture": "京都府",
    "city": "亀岡市",
    "town": "下矢田町"
  },
  "6210855": {
    "zipcode": "6210855",
    "prefectureCode": "26",
    "prefectureNumber": 26,
    "prefecture": "京都府",
    "city": "亀岡市",
    "town": "中矢田町"
  },
  "6210856": {
    "zipcode": "6210856",
    "prefectureCode": "26",
    "prefectureNumber": 26,
    "prefecture": "京都府",
    "city": "亀岡市",
    "town": "上矢田町"
  },
  "6210861": {
    "zipcode": "6210861",
    "prefectureCode": "26",
    "prefectureNumber": 26,
    "prefecture": "京都府",
    "city": "亀岡市",
    "town": "北町"
  },
  "6210862": {
    "zipcode": "6210862",
    "prefectureCode": "26",
    "prefectureNumber": 26,
    "prefecture": "京都府",
    "city": "亀岡市",
    "town": "西町"
  },
  "6210863": {
    "zipcode": "6210863",
    "prefectureCode": "26",
    "prefectureNumber": 26,
    "prefecture": "京都府",
    "city": "亀岡市",
    "town": "南郷町"
  },
  "6210864": {
    "zipcode": "6210864",
    "prefectureCode": "26",
    "prefectureNumber": 26,
    "prefecture": "京都府",
    "city": "亀岡市",
    "town": "内丸町"
  },
  "6210865": {
    "zipcode": "6210865",
    "prefectureCode": "26",
    "prefectureNumber": 26,
    "prefecture": "京都府",
    "city": "亀岡市",
    "town": "新町"
  },
  "6210866": {
    "zipcode": "6210866",
    "prefectureCode": "26",
    "prefectureNumber": 26,
    "prefecture": "京都府",
    "city": "亀岡市",
    "town": "旅籠町"
  },
  "6210867": {
    "zipcode": "6210867",
    "prefectureCode": "26",
    "prefectureNumber": 26,
    "prefecture": "京都府",
    "city": "亀岡市",
    "town": "塩屋町"
  },
  "6210868": {
    "zipcode": "6210868",
    "prefectureCode": "26",
    "prefectureNumber": 26,
    "prefecture": "京都府",
    "city": "亀岡市",
    "town": "柳町"
  },
  "6210869": {
    "zipcode": "6210869",
    "prefectureCode": "26",
    "prefectureNumber": 26,
    "prefecture": "京都府",
    "city": "亀岡市",
    "town": "本町"
  }
}
