{
  "6220000": {
    "zipcode": "6220000",
    "prefectureCode": "26",
    "prefectureNumber": 26,
    "prefecture": "京都府",
    "city": "南丹市",
    "town": "以下に掲載がない場合"
  },
  "6220001": {
    "zipcode": "6220001",
    "prefectureCode": "26",
    "prefectureNumber": 26,
    "prefecture": "京都府",
    "city": "南丹市",
    "town": "園部町宮町"
  },
  "6220002": {
    "zipcode": "6220002",
    "prefectureCode": "26",
    "prefectureNumber": 26,
    "prefecture": "京都府",
    "city": "南丹市",
    "town": "園部町美園町"
  },
  "6220003": {
    "zipcode": "6220003",
    "prefectureCode": "26",
    "prefectureNumber": 26,
    "prefecture": "京都府",
    "city": "南丹市",
    "town": "園部町新町"
  },
  "6220004": {
    "zipcode": "6220004",
    "prefectureCode": "26",
    "prefectureNumber": 26,
    "prefecture": "京都府",
    "city": "南丹市",
    "town": "園部町小桜町"
  },
  "6220011": {
    "zipcode": "6220011",
    "prefectureCode": "26",
    "prefectureNumber": 26,
    "prefecture": "京都府",
    "city": "南丹市",
    "town": "園部町上木崎町"
  },
  "6220012": {
    "zipcode": "6220012",
    "prefectureCode": "26",
    "prefectureNumber": 26,
    "prefecture": "京都府",
    "city": "南丹市",
    "town": "園部町内林町"
  },
  "6220013": {
    "zipcode": "6220013",
    "prefectureCode": "26",
    "prefectureNumber": 26,
    "prefecture": "京都府",
    "city": "南丹市",
    "town": "園部町本町"
  },
  "6220014": {
    "zipcode": "6220014",
    "prefectureCode": "26",
    "prefectureNumber": 26,
    "prefecture": "京都府",
    "city": "南丹市",
    "town": "園部町上本町"
  },
  "6220015": {
    "zipcode": "6220015",
    "prefectureCode": "26",
    "prefectureNumber": 26,
    "prefecture": "京都府",
    "city": "南丹市",
    "town": "園部町木崎町"
  },
  "6220016": {
    "zipcode": "6220016",
    "prefectureCode": "26",
    "prefectureNumber": 26,
    "prefecture": "京都府",
    "city": "南丹市",
    "town": "園部町河原町"
  },
  "6220017": {
    "zipcode": "6220017",
    "prefectureCode": "26",
    "prefectureNumber": 26,
    "prefecture": "京都府",
    "city": "南丹市",
    "town": "園部町若松町"
  },
  "6220021": {
    "zipcode": "6220021",
    "prefectureCode": "26",
    "prefectureNumber": 26,
    "prefecture": "京都府",
    "city": "南丹市",
    "town": "園部町瓜生野"
  },
  "6220022": {
    "zipcode": "6220022",
    "prefectureCode": "26",
    "prefectureNumber": 26,
    "prefecture": "京都府",
    "city": "南丹市",
    "town": "園部町熊崎"
  },
  "6220023": {
    "zipcode": "6220023",
    "prefectureCode": "26",
    "prefectureNumber": 26,
    "prefecture": "京都府",
    "city": "南丹市",
    "town": "園部町新堂"
  },
  "6220024": {
    "zipcode": "6220024",
    "prefectureCode": "26",
    "prefectureNumber": 26,
    "prefecture": "京都府",
    "city": "南丹市",
    "town": "園部町千妻"
  },
  "6220025": {
    "zipcode": "6220025",
    "prefectureCode": "26",
    "prefectureNumber": 26,
    "prefecture": "京都府",
    "city": "南丹市",
    "town": "園部町曽我谷"
  },
  "6220031": {
    "zipcode": "6220031",
    "prefectureCode": "26",
    "prefectureNumber": 26,
    "prefecture": "京都府",
    "city": "南丹市",
    "town": "園部町船岡"
  },
  "6220032": {
    "zipcode": "6220032",
    "prefectureCode": "26",
    "prefectureNumber": 26,
    "prefecture": "京都府",
    "city": "南丹市",
    "town": "園部町高屋"
  },
  "6220033": {
    "zipcode": "6220033",
    "prefectureCode": "26",
    "prefectureNumber": 26,
    "prefecture": "京都府",
    "city": "南丹市",
    "town": "園部町大戸"
  },
  "6220034": {
    "zipcode": "6220034",
    "prefectureCode": "26",
    "prefectureNumber": 26,
    "prefecture": "京都府",
    "city": "南丹市",
    "town": "園部町熊原"
  },
  "6220035": {
    "zipcode": "6220035",
    "prefectureCode": "26",
    "prefectureNumber": 26,
    "prefecture": "京都府",
    "city": "南丹市",
    "town": "園部町佐切"
  },
  "6220036": {
    "zipcode": "6220036",
    "prefectureCode": "26",
    "prefectureNumber": 26,
    "prefecture": "京都府",
    "city": "南丹市",
    "town": "園部町越方"
  },
  "6220041": {
    "zipcode": "6220041",
    "prefectureCode": "26",
    "prefectureNumber": 26,
    "prefecture": "京都府",
    "city": "南丹市",
    "town": "園部町小山東町"
  },
  "6220042": {
    "zipcode": "6220042",
    "prefectureCode": "26",
    "prefectureNumber": 26,
    "prefecture": "京都府",
    "city": "南丹市",
    "town": "園部町栄町"
  },
  "6220043": {
    "zipcode": "6220043",
    "prefectureCode": "26",
    "prefectureNumber": 26,
    "prefecture": "京都府",
    "city": "南丹市",
    "town": "園部町小山西町"
  },
  "6220044": {
    "zipcode": "6220044",
    "prefectureCode": "26",
    "prefectureNumber": 26,
    "prefecture": "京都府",
    "city": "南丹市",
    "town": "園部町城南町"
  },
  "6220045": {
    "zipcode": "6220045",
    "prefectureCode": "26",
    "prefectureNumber": 26,
    "prefecture": "京都府",
    "city": "南丹市",
    "town": "園部町半田"
  },
  "6220046": {
    "zipcode": "6220046",
    "prefectureCode": "26",
    "prefectureNumber": 26,
    "prefecture": "京都府",
    "city": "南丹市",
    "town": "園部町口人"
  },
  "6220047": {
    "zipcode": "6220047",
    "prefectureCode": "26",
    "prefectureNumber": 26,
    "prefecture": "京都府",
    "city": "南丹市",
    "town": "園部町口司"
  },
  "6220051": {
    "zipcode": "6220051",
    "prefectureCode": "26",
    "prefectureNumber": 26,
    "prefecture": "京都府",
    "city": "南丹市",
    "town": "園部町横田"
  },
  "6220052": {
    "zipcode": "6220052",
    "prefectureCode": "26",
    "prefectureNumber": 26,
    "prefecture": "京都府",
    "city": "南丹市",
    "town": "園部町黒田"
  },
  "6220053": {
    "zipcode": "6220053",
    "prefectureCode": "26",
    "prefectureNumber": 26,
    "prefecture": "京都府",
    "city": "南丹市",
    "town": "園部町船阪"
  },
  "6220054": {
    "zipcode": "6220054",
    "prefectureCode": "26",
    "prefectureNumber": 26,
    "prefecture": "京都府",
    "city": "南丹市",
    "town": "園部町大西"
  },
  "6220055": {
    "zipcode": "6220055",
    "prefectureCode": "26",
    "prefectureNumber": 26,
    "prefecture": "京都府",
    "city": "南丹市",
    "town": "園部町宍人"
  },
  "6220056": {
    "zipcode": "6220056",
    "prefectureCode": "26",
    "prefectureNumber": 26,
    "prefecture": "京都府",
    "city": "南丹市",
    "town": "園部町埴生"
  },
  "6220057": {
    "zipcode": "6220057",
    "prefectureCode": "26",
    "prefectureNumber": 26,
    "prefecture": "京都府",
    "city": "南丹市",
    "town": "園部町殿谷"
  },
  "6220058": {
    "zipcode": "6220058",
    "prefectureCode": "26",
    "prefectureNumber": 26,
    "prefecture": "京都府",
    "city": "南丹市",
    "town": "園部町若森"
  },
  "6220059": {
    "zipcode": "6220059",
    "prefectureCode": "26",
    "prefectureNumber": 26,
    "prefecture": "京都府",
    "city": "南丹市",
    "town": "園部町南大谷"
  },
  "6220061": {
    "zipcode": "6220061",
    "prefectureCode": "26",
    "prefectureNumber": 26,
    "prefecture": "京都府",
    "city": "南丹市",
    "town": "園部町仁江"
  },
  "6220062": {
    "zipcode": "6220062",
    "prefectureCode": "26",
    "prefectureNumber": 26,
    "prefecture": "京都府",
    "city": "南丹市",
    "town": "園部町竹井"
  },
  "6220063": {
    "zipcode": "6220063",
    "prefectureCode": "26",
    "prefectureNumber": 26,
    "prefecture": "京都府",
    "city": "南丹市",
    "town": "園部町天引"
  },
  "6220064": {
    "zipcode": "6220064",
    "prefectureCode": "26",
    "prefectureNumber": 26,
    "prefecture": "京都府",
    "city": "南丹市",
    "town": "園部町法京"
  },
  "6220065": {
    "zipcode": "6220065",
    "prefectureCode": "26",
    "prefectureNumber": 26,
    "prefecture": "京都府",
    "city": "南丹市",
    "town": "園部町大河内"
  },
  "6220066": {
    "zipcode": "6220066",
    "prefectureCode": "26",
    "prefectureNumber": 26,
    "prefecture": "京都府",
    "city": "南丹市",
    "town": "園部町南八田"
  },
  "6220200": {
    "zipcode": "6220200",
    "prefectureCode": "26",
    "prefectureNumber": 26,
    "prefecture": "京都府",
    "city": "船井郡京丹波町",
    "town": "以下に掲載がない場合"
  },
  "6220201": {
    "zipcode": "6220201",
    "prefectureCode": "26",
    "prefectureNumber": 26,
    "prefecture": "京都府",
    "city": "船井郡京丹波町",
    "town": "下山"
  },
  "6220202": {
    "zipcode": "6220202",
    "prefectureCode": "26",
    "prefectureNumber": 26,
    "prefecture": "京都府",
    "city": "船井郡京丹波町",
    "town": "実勢"
  },
  "6220203": {
    "zipcode": "6220203",
    "prefectureCode": "26",
    "prefectureNumber": 26,
    "prefecture": "京都府",
    "city": "船井郡京丹波町",
    "town": "富田"
  },
  "6220211": {
    "zipcode": "6220211",
    "prefectureCode": "26",
    "prefectureNumber": 26,
    "prefecture": "京都府",
    "city": "船井郡京丹波町",
    "town": "上野"
  },
  "6220212": {
    "zipcode": "6220212",
    "prefectureCode": "26",
    "prefectureNumber": 26,
    "prefecture": "京都府",
    "city": "船井郡京丹波町",
    "town": "市森"
  },
  "6220213": {
    "zipcode": "6220213",
    "prefectureCode": "26",
    "prefectureNumber": 26,
    "prefecture": "京都府",
    "city": "船井郡京丹波町",
    "town": "須知"
  },
  "6220214": {
    "zipcode": "6220214",
    "prefectureCode": "26",
    "prefectureNumber": 26,
    "prefecture": "京都府",
    "city": "船井郡京丹波町",
    "town": "蒲生"
  },
  "6220221": {
    "zipcode": "6220221",
    "prefectureCode": "26",
    "prefectureNumber": 26,
    "prefecture": "京都府",
    "city": "船井郡京丹波町",
    "town": "水戸"
  },
  "6220222": {
    "zipcode": "6220222",
    "prefectureCode": "26",
    "prefectureNumber": 26,
    "prefecture": "京都府",
    "city": "船井郡京丹波町",
    "town": "新水戸"
  },
  "6220223": {
    "zipcode": "6220223",
    "prefectureCode": "26",
    "prefectureNumber": 26,
    "prefecture": "京都府",
    "city": "船井郡京丹波町",
    "town": "口八田"
  },
  "6220224": {
    "zipcode": "6220224",
    "prefectureCode": "26",
    "prefectureNumber": 26,
    "prefecture": "京都府",
    "city": "船井郡京丹波町",
    "town": "高岡"
  },
  "6220231": {
    "zipcode": "6220231",
    "prefectureCode": "26",
    "prefectureNumber": 26,
    "prefecture": "京都府",
    "city": "船井郡京丹波町",
    "town": "豊田"
  },
  "6220232": {
    "zipcode": "6220232",
    "prefectureCode": "26",
    "prefectureNumber": 26,
    "prefecture": "京都府",
    "city": "船井郡京丹波町",
    "town": "曽根"
  },
  "6220233": {
    "zipcode": "6220233",
    "prefectureCode": "26",
    "prefectureNumber": 26,
    "prefecture": "京都府",
    "city": "船井郡京丹波町",
    "town": "森"
  },
  "6220234": {
    "zipcode": "6220234",
    "prefectureCode": "26",
    "prefectureNumber": 26,
    "prefecture": "京都府",
    "city": "船井郡京丹波町",
    "town": "塩田谷"
  },
  "6220235": {
    "zipcode": "6220235",
    "prefectureCode": "26",
    "prefectureNumber": 26,
    "prefecture": "京都府",
    "city": "船井郡京丹波町",
    "town": "安井"
  },
  "6220236": {
    "zipcode": "6220236",
    "prefectureCode": "26",
    "prefectureNumber": 26,
    "prefecture": "京都府",
    "city": "船井郡京丹波町",
    "town": "院内"
  },
  "6220301": {
    "zipcode": "6220301",
    "prefectureCode": "26",
    "prefectureNumber": 26,
    "prefecture": "京都府",
    "city": "船井郡京丹波町",
    "town": "粟野"
  },
  "6220302": {
    "zipcode": "6220302",
    "prefectureCode": "26",
    "prefectureNumber": 26,
    "prefecture": "京都府",
    "city": "船井郡京丹波町",
    "town": "妙楽寺"
  },
  "6220303": {
    "zipcode": "6220303",
    "prefectureCode": "26",
    "prefectureNumber": 26,
    "prefecture": "京都府",
    "city": "船井郡京丹波町",
    "town": "三ノ宮"
  },
  "6220304": {
    "zipcode": "6220304",
    "prefectureCode": "26",
    "prefectureNumber": 26,
    "prefecture": "京都府",
    "city": "船井郡京丹波町",
    "town": "猪鼻"
  },
  "6220311": {
    "zipcode": "6220311",
    "prefectureCode": "26",
    "prefectureNumber": 26,
    "prefecture": "京都府",
    "city": "船井郡京丹波町",
    "town": "和田"
  },
  "6220312": {
    "zipcode": "6220312",
    "prefectureCode": "26",
    "prefectureNumber": 26,
    "prefecture": "京都府",
    "city": "船井郡京丹波町",
    "town": "井脇"
  },
  "6220313": {
    "zipcode": "6220313",
    "prefectureCode": "26",
    "prefectureNumber": 26,
    "prefecture": "京都府",
    "city": "船井郡京丹波町",
    "town": "保井谷"
  },
  "6220314": {
    "zipcode": "6220314",
    "prefectureCode": "26",
    "prefectureNumber": 26,
    "prefecture": "京都府",
    "city": "船井郡京丹波町",
    "town": "水呑"
  },
  "6220315": {
    "zipcode": "6220315",
    "prefectureCode": "26",
    "prefectureNumber": 26,
    "prefecture": "京都府",
    "city": "船井郡京丹波町",
    "town": "質志"
  },
  "6220316": {
    "zipcode": "6220316",
    "prefectureCode": "26",
    "prefectureNumber": 26,
    "prefecture": "京都府",
    "city": "船井郡京丹波町",
    "town": "戸津川"
  },
  "6220321": {
    "zipcode": "6220321",
    "prefectureCode": "26",
    "prefectureNumber": 26,
    "prefecture": "京都府",
    "city": "船井郡京丹波町",
    "town": "橋爪"
  },
  "6220322": {
    "zipcode": "6220322",
    "prefectureCode": "26",
    "prefectureNumber": 26,
    "prefecture": "京都府",
    "city": "船井郡京丹波町",
    "town": "大朴"
  },
  "6220323": {
    "zipcode": "6220323",
    "prefectureCode": "26",
    "prefectureNumber": 26,
    "prefecture": "京都府",
    "city": "船井郡京丹波町",
    "town": "井尻"
  },
  "6220324": {
    "zipcode": "6220324",
    "prefectureCode": "26",
    "prefectureNumber": 26,
    "prefecture": "京都府",
    "city": "船井郡京丹波町",
    "town": "八田"
  },
  "6220325": {
    "zipcode": "6220325",
    "prefectureCode": "26",
    "prefectureNumber": 26,
    "prefecture": "京都府",
    "city": "船井郡京丹波町",
    "town": "小野"
  },
  "6220331": {
    "zipcode": "6220331",
    "prefectureCode": "26",
    "prefectureNumber": 26,
    "prefecture": "京都府",
    "city": "船井郡京丹波町",
    "town": "中台"
  },
  "6220332": {
    "zipcode": "6220332",
    "prefectureCode": "26",
    "prefectureNumber": 26,
    "prefecture": "京都府",
    "city": "船井郡京丹波町",
    "town": "質美"
  },
  "6220441": {
    "zipcode": "6220441",
    "prefectureCode": "26",
    "prefectureNumber": 26,
    "prefecture": "京都府",
    "city": "船井郡京丹波町",
    "town": "坂井"
  },
  "6220442": {
    "zipcode": "6220442",
    "prefectureCode": "26",
    "prefectureNumber": 26,
    "prefecture": "京都府",
    "city": "船井郡京丹波町",
    "town": "鎌谷下"
  },
  "6220443": {
    "zipcode": "6220443",
    "prefectureCode": "26",
    "prefectureNumber": 26,
    "prefecture": "京都府",
    "city": "船井郡京丹波町",
    "town": "東又"
  },
  "6220444": {
    "zipcode": "6220444",
    "prefectureCode": "26",
    "prefectureNumber": 26,
    "prefecture": "京都府",
    "city": "船井郡京丹波町",
    "town": "鎌谷中"
  },
  "6220445": {
    "zipcode": "6220445",
    "prefectureCode": "26",
    "prefectureNumber": 26,
    "prefecture": "京都府",
    "city": "船井郡京丹波町",
    "town": "鎌谷奥"
  },
  "6220451": {
    "zipcode": "6220451",
    "prefectureCode": "26",
    "prefectureNumber": 26,
    "prefecture": "京都府",
    "city": "船井郡京丹波町",
    "town": "下大久保"
  },
  "6220452": {
    "zipcode": "6220452",
    "prefectureCode": "26",
    "prefectureNumber": 26,
    "prefecture": "京都府",
    "city": "船井郡京丹波町",
    "town": "上大久保"
  },
  "6220453": {
    "zipcode": "6220453",
    "prefectureCode": "26",
    "prefectureNumber": 26,
    "prefecture": "京都府",
    "city": "船井郡京丹波町",
    "town": "水原"
  }
}
