{
  "6230000": {
    "zipcode": "6230000",
    "prefectureCode": "26",
    "prefectureNumber": 26,
    "prefecture": "京都府",
    "city": "綾部市",
    "town": "以下に掲載がない場合"
  },
  "6230001": {
    "zipcode": "6230001",
    "prefectureCode": "26",
    "prefectureNumber": 26,
    "prefecture": "京都府",
    "city": "綾部市",
    "town": "小呂町"
  },
  "6230002": {
    "zipcode": "6230002",
    "prefectureCode": "26",
    "prefectureNumber": 26,
    "prefecture": "京都府",
    "city": "綾部市",
    "town": "高倉町"
  },
  "6230003": {
    "zipcode": "6230003",
    "prefectureCode": "26",
    "prefectureNumber": 26,
    "prefecture": "京都府",
    "city": "綾部市",
    "town": "城山町"
  },
  "6230004": {
    "zipcode": "6230004",
    "prefectureCode": "26",
    "prefectureNumber": 26,
    "prefecture": "京都府",
    "city": "綾部市",
    "town": "多田町"
  },
  "6230005": {
    "zipcode": "6230005",
    "prefectureCode": "26",
    "prefectureNumber": 26,
    "prefecture": "京都府",
    "city": "綾部市",
    "town": "里町"
  },
  "6230006": {
    "zipcode": "6230006",
    "prefectureCode": "26",
    "prefectureNumber": 26,
    "prefecture": "京都府",
    "city": "綾部市",
    "town": "有岡町"
  },
  "6230007": {
    "zipcode": "6230007",
    "prefectureCode": "26",
    "prefectureNumber": 26,
    "prefecture": "京都府",
    "city": "綾部市",
    "town": "星原町"
  },
  "6230008": {
    "zipcode": "6230008",
    "prefectureCode": "26",
    "prefectureNumber": 26,
    "prefecture": "京都府",
    "city": "綾部市",
    "town": "桜が丘"
  },
  "6230011": {
    "zipcode": "6230011",
    "prefectureCode": "26",
    "prefectureNumber": 26,
    "prefecture": "京都府",
    "city": "綾部市",
    "town": "青野町"
  },
  "6230012": {
    "zipcode": "6230012",
    "prefectureCode": "26",
    "prefectureNumber": 26,
    "prefecture": "京都府",
    "city": "綾部市",
    "town": "川糸町"
  },
  "6230013": {
    "zipcode": "6230013",
    "prefectureCode": "26",
    "prefectureNumber": 26,
    "prefecture": "京都府",
    "city": "綾部市",
    "town": "綾中町"
  },
  "6230014": {
    "zipcode": "6230014",
    "prefectureCode": "26",
    "prefectureNumber": 26,
    "prefecture": "京都府",
    "city": "綾部市",
    "town": "若竹町"
  },
  "6230015": {
    "zipcode": "6230015",
    "prefectureCode": "26",
    "prefectureNumber": 26,
    "prefecture": "京都府",
    "city": "綾部市",
    "town": "若松町"
  },
  "6230016": {
    "zipcode": "6230016",
    "prefectureCode": "26",
    "prefectureNumber": 26,
    "prefecture": "京都府",
    "city": "綾部市",
    "town": "西町"
  },
  "6230021": {
    "zipcode": "6230021",
    "prefectureCode": "26",
    "prefectureNumber": 26,
    "prefecture": "京都府",
    "city": "綾部市",
    "town": "本町"
  },
  "6230022": {
    "zipcode": "6230022",
    "prefectureCode": "26",
    "prefectureNumber": 26,
    "prefecture": "京都府",
    "city": "綾部市",
    "town": "新宮町"
  },
  "6230023": {
    "zipcode": "6230023",
    "prefectureCode": "26",
    "prefectureNumber": 26,
    "prefecture": "京都府",
    "city": "綾部市",
    "town": "新町"
  },
  "6230024": {
    "zipcode": "6230024",
    "prefectureCode": "26",
    "prefectureNumber": 26,
    "prefecture": "京都府",
    "city": "綾部市",
    "town": "田町"
  },
  "6230025": {
    "zipcode": "6230025",
    "prefectureCode": "26",
    "prefectureNumber": 26,
    "prefecture": "京都府",
    "city": "綾部市",
    "town": "月見町"
  },
  "6230026": {
    "zipcode": "6230026",
    "prefectureCode": "26",
    "prefectureNumber": 26,
    "prefecture": "京都府",
    "city": "綾部市",
    "town": "神宮寺町"
  },
  "6230031": {
    "zipcode": "6230031",
    "prefectureCode": "26",
    "prefectureNumber": 26,
    "prefecture": "京都府",
    "city": "綾部市",
    "town": "味方町"
  },
  "6230032": {
    "zipcode": "6230032",
    "prefectureCode": "26",
    "prefectureNumber": 26,
    "prefecture": "京都府",
    "city": "綾部市",
    "town": "野田町"
  },
  "6230033": {
    "zipcode": "6230033",
    "prefectureCode": "26",
    "prefectureNumber": 26,
    "prefecture": "京都府",
    "city": "綾部市",
    "town": "寺町"
  },
  "6230034": {
    "zipcode": "6230034",
    "prefectureCode": "26",
    "prefectureNumber": 26,
    "prefecture": "京都府",
    "city": "綾部市",
    "town": "田野町"
  },
  "6230035": {
    "zipcode": "6230035",
    "prefectureCode": "26",
    "prefectureNumber": 26,
    "prefecture": "京都府",
    "city": "綾部市",
    "town": "上野町"
  },
  "6230036": {
    "zipcode": "6230036",
    "prefectureCode": "26",
    "prefectureNumber": 26,
    "prefecture": "京都府",
    "city": "綾部市",
    "town": "本宮町"
  },
  "6230037": {
    "zipcode": "6230037",
    "prefectureCode": "26",
    "prefectureNumber": 26,
    "prefecture": "京都府",
    "city": "綾部市",
    "town": "並松町"
  },
  "6230041": {
    "zipcode": "6230041",
    "prefectureCode": "26",
    "prefectureNumber": 26,
    "prefecture": "京都府",
    "city": "綾部市",
    "town": "延町"
  },
  "6230042": {
    "zipcode": "6230042",
    "prefectureCode": "26",
    "prefectureNumber": 26,
    "prefecture": "京都府",
    "city": "綾部市",
    "town": "岡町"
  },
  "6230043": {
    "zipcode": "6230043",
    "prefectureCode": "26",
    "prefectureNumber": 26,
    "prefecture": "京都府",
    "city": "綾部市",
    "town": "上延町"
  },
  "6230044": {
    "zipcode": "6230044",
    "prefectureCode": "26",
    "prefectureNumber": 26,
    "prefecture": "京都府",
    "city": "綾部市",
    "town": "安場町"
  },
  "6230045": {
    "zipcode": "6230045",
    "prefectureCode": "26",
    "prefectureNumber": 26,
    "prefecture": "京都府",
    "city": "綾部市",
    "town": "高津町"
  },
  "6230046": {
    "zipcode": "6230046",
    "prefectureCode": "26",
    "prefectureNumber": 26,
    "prefecture": "京都府",
    "city": "綾部市",
    "town": "大島町"
  },
  "6230051": {
    "zipcode": "6230051",
    "prefectureCode": "26",
    "prefectureNumber": 26,
    "prefecture": "京都府",
    "city": "綾部市",
    "town": "井倉新町"
  },
  "6230052": {
    "zipcode": "6230052",
    "prefectureCode": "26",
    "prefectureNumber": 26,
    "prefecture": "京都府",
    "city": "綾部市",
    "town": "幸通"
  },
  "6230053": {
    "zipcode": "6230053",
    "prefectureCode": "26",
    "prefectureNumber": 26,
    "prefecture": "京都府",
    "city": "綾部市",
    "town": "宮代町"
  },
  "6230054": {
    "zipcode": "6230054",
    "prefectureCode": "26",
    "prefectureNumber": 26,
    "prefecture": "京都府",
    "city": "綾部市",
    "town": "井倉町"
  },
  "6230061": {
    "zipcode": "6230061",
    "prefectureCode": "26",
    "prefectureNumber": 26,
    "prefecture": "京都府",
    "city": "綾部市",
    "town": "天神町"
  },
  "6230062": {
    "zipcode": "6230062",
    "prefectureCode": "26",
    "prefectureNumber": 26,
    "prefecture": "京都府",
    "city": "綾部市",
    "town": "相生町"
  },
  "6230063": {
    "zipcode": "6230063",
    "prefectureCode": "26",
    "prefectureNumber": 26,
    "prefecture": "京都府",
    "city": "綾部市",
    "town": "広小路"
  },
  "6230064": {
    "zipcode": "6230064",
    "prefectureCode": "26",
    "prefectureNumber": 26,
    "prefecture": "京都府",
    "city": "綾部市",
    "town": "中ノ町"
  },
  "6230065": {
    "zipcode": "6230065",
    "prefectureCode": "26",
    "prefectureNumber": 26,
    "prefecture": "京都府",
    "city": "綾部市",
    "town": "西新町"
  },
  "6230066": {
    "zipcode": "6230066",
    "prefectureCode": "26",
    "prefectureNumber": 26,
    "prefecture": "京都府",
    "city": "綾部市",
    "town": "駅前通"
  },
  "6230101": {
    "zipcode": "6230101",
    "prefectureCode": "26",
    "prefectureNumber": 26,
    "prefecture": "京都府",
    "city": "綾部市",
    "town": "於与岐町"
  },
  "6230102": {
    "zipcode": "6230102",
    "prefectureCode": "26",
    "prefectureNumber": 26,
    "prefecture": "京都府",
    "city": "綾部市",
    "town": "上杉町"
  },
  "6230103": {
    "zipcode": "6230103",
    "prefectureCode": "26",
    "prefectureNumber": 26,
    "prefecture": "京都府",
    "city": "綾部市",
    "town": "梅迫町"
  },
  "6230104": {
    "zipcode": "6230104",
    "prefectureCode": "26",
    "prefectureNumber": 26,
    "prefecture": "京都府",
    "city": "綾部市",
    "town": "安国寺町"
  },
  "6230105": {
    "zipcode": "6230105",
    "prefectureCode": "26",
    "prefectureNumber": 26,
    "prefecture": "京都府",
    "city": "綾部市",
    "town": "中山町"
  },
  "6230106": {
    "zipcode": "6230106",
    "prefectureCode": "26",
    "prefectureNumber": 26,
    "prefecture": "京都府",
    "city": "綾部市",
    "town": "高槻町"
  },
  "6230107": {
    "zipcode": "6230107",
    "prefectureCode": "26",
    "prefectureNumber": 26,
    "prefecture": "京都府",
    "city": "綾部市",
    "town": "八代町"
  },
  "6230108": {
    "zipcode": "6230108",
    "prefectureCode": "26",
    "prefectureNumber": 26,
    "prefecture": "京都府",
    "city": "綾部市",
    "town": "黒谷町"
  },
  "6230111": {
    "zipcode": "6230111",
    "prefectureCode": "26",
    "prefectureNumber": 26,
    "prefecture": "京都府",
    "city": "綾部市",
    "town": "七百石町"
  },
  "6230112": {
    "zipcode": "6230112",
    "prefectureCode": "26",
    "prefectureNumber": 26,
    "prefecture": "京都府",
    "city": "綾部市",
    "town": "上八田町"
  },
  "6230113": {
    "zipcode": "6230113",
    "prefectureCode": "26",
    "prefectureNumber": 26,
    "prefecture": "京都府",
    "city": "綾部市",
    "town": "中筋町"
  },
  "6230114": {
    "zipcode": "6230114",
    "prefectureCode": "26",
    "prefectureNumber": 26,
    "prefecture": "京都府",
    "city": "綾部市",
    "town": "岡安町"
  },
  "6230115": {
    "zipcode": "6230115",
    "prefectureCode": "26",
    "prefectureNumber": 26,
    "prefecture": "京都府",
    "city": "綾部市",
    "town": "渕垣町"
  },
  "6230116": {
    "zipcode": "6230116",
    "prefectureCode": "26",
    "prefectureNumber": 26,
    "prefecture": "京都府",
    "city": "綾部市",
    "town": "下八田町"
  },
  "6230117": {
    "zipcode": "6230117",
    "prefectureCode": "26",
    "prefectureNumber": 26,
    "prefecture": "京都府",
    "city": "綾部市",
    "town": "とよさか町"
  },
  "6230221": {
    "zipcode": "6230221",
    "prefectureCode": "26",
    "prefectureNumber": 26,
    "prefecture": "京都府",
    "city": "綾部市",
    "town": "位田町"
  },
  "6230222": {
    "zipcode": "6230222",
    "prefectureCode": "26",
    "prefectureNumber": 26,
    "prefecture": "京都府",
    "city": "綾部市",
    "town": "栗町"
  },
  "6230223": {
    "zipcode": "6230223",
    "prefectureCode": "26",
    "prefectureNumber": 26,
    "prefecture": "京都府",
    "city": "綾部市",
    "town": "豊里町"
  },
  "6230224": {
    "zipcode": "6230224",
    "prefectureCode": "26",
    "prefectureNumber": 26,
    "prefecture": "京都府",
    "city": "綾部市",
    "town": "石原町"
  },
  "6230225": {
    "zipcode": "6230225",
    "prefectureCode": "26",
    "prefectureNumber": 26,
    "prefecture": "京都府",
    "city": "綾部市",
    "town": "小貝町"
  },
  "6230226": {
    "zipcode": "6230226",
    "prefectureCode": "26",
    "prefectureNumber": 26,
    "prefecture": "京都府",
    "city": "綾部市",
    "town": "私市町"
  },
  "6230231": {
    "zipcode": "6230231",
    "prefectureCode": "26",
    "prefectureNumber": 26,
    "prefecture": "京都府",
    "city": "綾部市",
    "town": "大畠町"
  },
  "6230232": {
    "zipcode": "6230232",
    "prefectureCode": "26",
    "prefectureNumber": 26,
    "prefecture": "京都府",
    "city": "綾部市",
    "town": "舘町"
  },
  "6230233": {
    "zipcode": "6230233",
    "prefectureCode": "26",
    "prefectureNumber": 26,
    "prefecture": "京都府",
    "city": "綾部市",
    "town": "今田町"
  },
  "6230234": {
    "zipcode": "6230234",
    "prefectureCode": "26",
    "prefectureNumber": 26,
    "prefecture": "京都府",
    "city": "綾部市",
    "town": "小西町"
  },
  "6230235": {
    "zipcode": "6230235",
    "prefectureCode": "26",
    "prefectureNumber": 26,
    "prefecture": "京都府",
    "city": "綾部市",
    "town": "鍛治屋町"
  },
  "6230236": {
    "zipcode": "6230236",
    "prefectureCode": "26",
    "prefectureNumber": 26,
    "prefecture": "京都府",
    "city": "綾部市",
    "town": "小畑町"
  },
  "6230341": {
    "zipcode": "6230341",
    "prefectureCode": "26",
    "prefectureNumber": 26,
    "prefecture": "京都府",
    "city": "綾部市",
    "town": "内久井町"
  },
  "6230342": {
    "zipcode": "6230342",
    "prefectureCode": "26",
    "prefectureNumber": 26,
    "prefecture": "京都府",
    "city": "綾部市",
    "town": "金河内町"
  },
  "6230343": {
    "zipcode": "6230343",
    "prefectureCode": "26",
    "prefectureNumber": 26,
    "prefecture": "京都府",
    "city": "綾部市",
    "town": "志賀郷町"
  },
  "6230344": {
    "zipcode": "6230344",
    "prefectureCode": "26",
    "prefectureNumber": 26,
    "prefecture": "京都府",
    "city": "綾部市",
    "town": "西方町"
  },
  "6230345": {
    "zipcode": "6230345",
    "prefectureCode": "26",
    "prefectureNumber": 26,
    "prefecture": "京都府",
    "city": "綾部市",
    "town": "仁和町"
  },
  "6230346": {
    "zipcode": "6230346",
    "prefectureCode": "26",
    "prefectureNumber": 26,
    "prefecture": "京都府",
    "city": "綾部市",
    "town": "坊口町"
  },
  "6230351": {
    "zipcode": "6230351",
    "prefectureCode": "26",
    "prefectureNumber": 26,
    "prefecture": "京都府",
    "city": "綾部市",
    "town": "篠田町"
  },
  "6230352": {
    "zipcode": "6230352",
    "prefectureCode": "26",
    "prefectureNumber": 26,
    "prefecture": "京都府",
    "city": "綾部市",
    "town": "向田町"
  },
  "6230353": {
    "zipcode": "6230353",
    "prefectureCode": "26",
    "prefectureNumber": 26,
    "prefecture": "京都府",
    "city": "綾部市",
    "town": "別所町"
  },
  "6230361": {
    "zipcode": "6230361",
    "prefectureCode": "26",
    "prefectureNumber": 26,
    "prefecture": "京都府",
    "city": "綾部市",
    "town": "白道路町"
  },
  "6230362": {
    "zipcode": "6230362",
    "prefectureCode": "26",
    "prefectureNumber": 26,
    "prefecture": "京都府",
    "city": "綾部市",
    "town": "物部町"
  },
  "6230363": {
    "zipcode": "6230363",
    "prefectureCode": "26",
    "prefectureNumber": 26,
    "prefecture": "京都府",
    "city": "綾部市",
    "town": "新庄町"
  },
  "6230364": {
    "zipcode": "6230364",
    "prefectureCode": "26",
    "prefectureNumber": 26,
    "prefecture": "京都府",
    "city": "綾部市",
    "town": "西坂町"
  },
  "6231121": {
    "zipcode": "6231121",
    "prefectureCode": "26",
    "prefectureNumber": 26,
    "prefecture": "京都府",
    "city": "綾部市",
    "town": "睦合町"
  },
  "6231122": {
    "zipcode": "6231122",
    "prefectureCode": "26",
    "prefectureNumber": 26,
    "prefecture": "京都府",
    "city": "綾部市",
    "town": "八津合町"
  },
  "6231123": {
    "zipcode": "6231123",
    "prefectureCode": "26",
    "prefectureNumber": 26,
    "prefecture": "京都府",
    "city": "綾部市",
    "town": "五津合町"
  },
  "6231124": {
    "zipcode": "6231124",
    "prefectureCode": "26",
    "prefectureNumber": 26,
    "prefecture": "京都府",
    "city": "綾部市",
    "town": "五泉町"
  },
  "6231131": {
    "zipcode": "6231131",
    "prefectureCode": "26",
    "prefectureNumber": 26,
    "prefecture": "京都府",
    "city": "綾部市",
    "town": "睦寄町"
  },
  "6231132": {
    "zipcode": "6231132",
    "prefectureCode": "26",
    "prefectureNumber": 26,
    "prefecture": "京都府",
    "city": "綾部市",
    "town": "故屋岡町"
  },
  "6231133": {
    "zipcode": "6231133",
    "prefectureCode": "26",
    "prefectureNumber": 26,
    "prefecture": "京都府",
    "city": "綾部市",
    "town": "光野町"
  },
  "6231134": {
    "zipcode": "6231134",
    "prefectureCode": "26",
    "prefectureNumber": 26,
    "prefecture": "京都府",
    "city": "綾部市",
    "town": "老富町"
  }
}
