{
  "6260000": {
    "zipcode": "6260000",
    "prefectureCode": "26",
    "prefectureNumber": 26,
    "prefecture": "京都府",
    "city": "宮津市",
    "town": "以下に掲載がない場合"
  },
  "6260001": {
    "zipcode": "6260001",
    "prefectureCode": "26",
    "prefectureNumber": 26,
    "prefecture": "京都府",
    "city": "宮津市",
    "town": "文珠"
  },
  "6260002": {
    "zipcode": "6260002",
    "prefectureCode": "26",
    "prefectureNumber": 26,
    "prefecture": "京都府",
    "city": "宮津市",
    "town": "杉末"
  },
  "6260003": {
    "zipcode": "6260003",
    "prefectureCode": "26",
    "prefectureNumber": 26,
    "prefecture": "京都府",
    "city": "宮津市",
    "town": "漁師"
  },
  "6260004": {
    "zipcode": "6260004",
    "prefectureCode": "26",
    "prefectureNumber": 26,
    "prefecture": "京都府",
    "city": "宮津市",
    "town": "川向"
  },
  "6260005": {
    "zipcode": "6260005",
    "prefectureCode": "26",
    "prefectureNumber": 26,
    "prefecture": "京都府",
    "city": "宮津市",
    "town": "宮町"
  },
  "6260006": {
    "zipcode": "6260006",
    "prefectureCode": "26",
    "prefectureNumber": 26,
    "prefecture": "京都府",
    "city": "宮津市",
    "town": "蛭子"
  },
  "6260007": {
    "zipcode": "6260007",
    "prefectureCode": "26",
    "prefectureNumber": 26,
    "prefecture": "京都府",
    "city": "宮津市",
    "town": "池ノ谷"
  },
  "6260008": {
    "zipcode": "6260008",
    "prefectureCode": "26",
    "prefectureNumber": 26,
    "prefecture": "京都府",
    "city": "宮津市",
    "town": "万年"
  },
  "6260011": {
    "zipcode": "6260011",
    "prefectureCode": "26",
    "prefectureNumber": 26,
    "prefecture": "京都府",
    "city": "宮津市",
    "town": "白柏"
  },
  "6260012": {
    "zipcode": "6260012",
    "prefectureCode": "26",
    "prefectureNumber": 26,
    "prefecture": "京都府",
    "city": "宮津市",
    "town": "浜町"
  },
  "6260013": {
    "zipcode": "6260013",
    "prefectureCode": "26",
    "prefectureNumber": 26,
    "prefecture": "京都府",
    "city": "宮津市",
    "town": "住吉"
  },
  "6260014": {
    "zipcode": "6260014",
    "prefectureCode": "26",
    "prefectureNumber": 26,
    "prefecture": "京都府",
    "city": "宮津市",
    "town": "河原"
  },
  "6260015": {
    "zipcode": "6260015",
    "prefectureCode": "26",
    "prefectureNumber": 26,
    "prefecture": "京都府",
    "city": "宮津市",
    "town": "魚屋"
  },
  "6260016": {
    "zipcode": "6260016",
    "prefectureCode": "26",
    "prefectureNumber": 26,
    "prefecture": "京都府",
    "city": "宮津市",
    "town": "新浜"
  },
  "6260017": {
    "zipcode": "6260017",
    "prefectureCode": "26",
    "prefectureNumber": 26,
    "prefecture": "京都府",
    "city": "宮津市",
    "town": "島崎"
  },
  "6260018": {
    "zipcode": "6260018",
    "prefectureCode": "26",
    "prefectureNumber": 26,
    "prefecture": "京都府",
    "city": "宮津市",
    "town": "本町"
  },
  "6260019": {
    "zipcode": "6260019",
    "prefectureCode": "26",
    "prefectureNumber": 26,
    "prefecture": "京都府",
    "city": "宮津市",
    "town": "万年新地"
  },
  "6260020": {
    "zipcode": "6260020",
    "prefectureCode": "26",
    "prefectureNumber": 26,
    "prefecture": "京都府",
    "city": "宮津市",
    "town": "猟師"
  },
  "6260021": {
    "zipcode": "6260021",
    "prefectureCode": "26",
    "prefectureNumber": 26,
    "prefecture": "京都府",
    "city": "宮津市",
    "town": "小川"
  },
  "6260022": {
    "zipcode": "6260022",
    "prefectureCode": "26",
    "prefectureNumber": 26,
    "prefecture": "京都府",
    "city": "宮津市",
    "town": "万町"
  },
  "6260023": {
    "zipcode": "6260023",
    "prefectureCode": "26",
    "prefectureNumber": 26,
    "prefecture": "京都府",
    "city": "宮津市",
    "town": "宮本"
  },
  "6260024": {
    "zipcode": "6260024",
    "prefectureCode": "26",
    "prefectureNumber": 26,
    "prefecture": "京都府",
    "city": "宮津市",
    "town": "柳縄手"
  },
  "6260025": {
    "zipcode": "6260025",
    "prefectureCode": "26",
    "prefectureNumber": 26,
    "prefecture": "京都府",
    "city": "宮津市",
    "town": "木ノ部"
  },
  "6260026": {
    "zipcode": "6260026",
    "prefectureCode": "26",
    "prefectureNumber": 26,
    "prefecture": "京都府",
    "city": "宮津市",
    "town": "京口町"
  },
  "6260027": {
    "zipcode": "6260027",
    "prefectureCode": "26",
    "prefectureNumber": 26,
    "prefecture": "京都府",
    "city": "宮津市",
    "town": "京街道"
  },
  "6260028": {
    "zipcode": "6260028",
    "prefectureCode": "26",
    "prefectureNumber": 26,
    "prefecture": "京都府",
    "city": "宮津市",
    "town": "大久保"
  },
  "6260029": {
    "zipcode": "6260029",
    "prefectureCode": "26",
    "prefectureNumber": 26,
    "prefecture": "京都府",
    "city": "宮津市",
    "town": "金屋谷"
  },
  "6260031": {
    "zipcode": "6260031",
    "prefectureCode": "26",
    "prefectureNumber": 26,
    "prefecture": "京都府",
    "city": "宮津市",
    "town": "京口"
  },
  "6260032": {
    "zipcode": "6260032",
    "prefectureCode": "26",
    "prefectureNumber": 26,
    "prefecture": "京都府",
    "city": "宮津市",
    "town": "松原"
  },
  "6260033": {
    "zipcode": "6260033",
    "prefectureCode": "26",
    "prefectureNumber": 26,
    "prefecture": "京都府",
    "city": "宮津市",
    "town": "宮村"
  },
  "6260034": {
    "zipcode": "6260034",
    "prefectureCode": "26",
    "prefectureNumber": 26,
    "prefecture": "京都府",
    "city": "宮津市",
    "town": "滝馬"
  },
  "6260035": {
    "zipcode": "6260035",
    "prefectureCode": "26",
    "prefectureNumber": 26,
    "prefecture": "京都府",
    "city": "宮津市",
    "town": "喜多"
  },
  "6260036": {
    "zipcode": "6260036",
    "prefectureCode": "26",
    "prefectureNumber": 26,
    "prefecture": "京都府",
    "city": "宮津市",
    "town": "今福"
  },
  "6260037": {
    "zipcode": "6260037",
    "prefectureCode": "26",
    "prefectureNumber": 26,
    "prefecture": "京都府",
    "city": "宮津市",
    "town": "小田"
  },
  "6260041": {
    "zipcode": "6260041",
    "prefectureCode": "26",
    "prefectureNumber": 26,
    "prefecture": "京都府",
    "city": "宮津市",
    "town": "鶴賀"
  },
  "6260042": {
    "zipcode": "6260042",
    "prefectureCode": "26",
    "prefectureNumber": 26,
    "prefecture": "京都府",
    "city": "宮津市",
    "town": "安智"
  },
  "6260043": {
    "zipcode": "6260043",
    "prefectureCode": "26",
    "prefectureNumber": 26,
    "prefecture": "京都府",
    "city": "宮津市",
    "town": "惣"
  },
  "6260044": {
    "zipcode": "6260044",
    "prefectureCode": "26",
    "prefectureNumber": 26,
    "prefecture": "京都府",
    "city": "宮津市",
    "town": "吉原"
  },
  "6260045": {
    "zipcode": "6260045",
    "prefectureCode": "26",
    "prefectureNumber": 26,
    "prefecture": "京都府",
    "city": "宮津市",
    "town": "馬場先"
  },
  "6260046": {
    "zipcode": "6260046",
    "prefectureCode": "26",
    "prefectureNumber": 26,
    "prefecture": "京都府",
    "city": "宮津市",
    "town": "中ノ丁"
  },
  "6260047": {
    "zipcode": "6260047",
    "prefectureCode": "26",
    "prefectureNumber": 26,
    "prefecture": "京都府",
    "city": "宮津市",
    "town": "外側"
  },
  "6260051": {
    "zipcode": "6260051",
    "prefectureCode": "26",
    "prefectureNumber": 26,
    "prefecture": "京都府",
    "city": "宮津市",
    "town": "島陰"
  },
  "6260052": {
    "zipcode": "6260052",
    "prefectureCode": "26",
    "prefectureNumber": 26,
    "prefecture": "京都府",
    "city": "宮津市",
    "town": "小田宿野"
  },
  "6260053": {
    "zipcode": "6260053",
    "prefectureCode": "26",
    "prefectureNumber": 26,
    "prefecture": "京都府",
    "city": "宮津市",
    "town": "中津"
  },
  "6260054": {
    "zipcode": "6260054",
    "prefectureCode": "26",
    "prefectureNumber": 26,
    "prefecture": "京都府",
    "city": "宮津市",
    "town": "銀丘"
  },
  "6260055": {
    "zipcode": "6260055",
    "prefectureCode": "26",
    "prefectureNumber": 26,
    "prefecture": "京都府",
    "city": "宮津市",
    "town": "鏡ケ浦"
  },
  "6260061": {
    "zipcode": "6260061",
    "prefectureCode": "26",
    "prefectureNumber": 26,
    "prefecture": "京都府",
    "city": "宮津市",
    "town": "波路"
  },
  "6260062": {
    "zipcode": "6260062",
    "prefectureCode": "26",
    "prefectureNumber": 26,
    "prefecture": "京都府",
    "city": "宮津市",
    "town": "山中"
  },
  "6260063": {
    "zipcode": "6260063",
    "prefectureCode": "26",
    "prefectureNumber": 26,
    "prefecture": "京都府",
    "city": "宮津市",
    "town": "皆原"
  },
  "6260064": {
    "zipcode": "6260064",
    "prefectureCode": "26",
    "prefectureNumber": 26,
    "prefecture": "京都府",
    "city": "宮津市",
    "town": "波路町"
  },
  "6260065": {
    "zipcode": "6260065",
    "prefectureCode": "26",
    "prefectureNumber": 26,
    "prefecture": "京都府",
    "city": "宮津市",
    "town": "獅子崎"
  },
  "6260066": {
    "zipcode": "6260066",
    "prefectureCode": "26",
    "prefectureNumber": 26,
    "prefecture": "京都府",
    "city": "宮津市",
    "town": "獅子"
  },
  "6260067": {
    "zipcode": "6260067",
    "prefectureCode": "26",
    "prefectureNumber": 26,
    "prefecture": "京都府",
    "city": "宮津市",
    "town": "矢原"
  },
  "6260068": {
    "zipcode": "6260068",
    "prefectureCode": "26",
    "prefectureNumber": 26,
    "prefecture": "京都府",
    "city": "宮津市",
    "town": "田井"
  },
  "6260071": {
    "zipcode": "6260071",
    "prefectureCode": "26",
    "prefectureNumber": 26,
    "prefecture": "京都府",
    "city": "宮津市",
    "town": "由良"
  },
  "6260072": {
    "zipcode": "6260072",
    "prefectureCode": "26",
    "prefectureNumber": 26,
    "prefecture": "京都府",
    "city": "宮津市",
    "town": "石浦"
  },
  "6260073": {
    "zipcode": "6260073",
    "prefectureCode": "26",
    "prefectureNumber": 26,
    "prefecture": "京都府",
    "city": "宮津市",
    "town": "新宮"
  },
  "6260074": {
    "zipcode": "6260074",
    "prefectureCode": "26",
    "prefectureNumber": 26,
    "prefecture": "京都府",
    "city": "宮津市",
    "town": "上司"
  },
  "6260075": {
    "zipcode": "6260075",
    "prefectureCode": "26",
    "prefectureNumber": 26,
    "prefecture": "京都府",
    "city": "宮津市",
    "town": "小寺"
  },
  "6260076": {
    "zipcode": "6260076",
    "prefectureCode": "26",
    "prefectureNumber": 26,
    "prefecture": "京都府",
    "city": "宮津市",
    "town": "中村"
  },
  "6260077": {
    "zipcode": "6260077",
    "prefectureCode": "26",
    "prefectureNumber": 26,
    "prefecture": "京都府",
    "city": "宮津市",
    "town": "脇"
  },
  "6260201": {
    "zipcode": "6260201",
    "prefectureCode": "26",
    "prefectureNumber": 26,
    "prefecture": "京都府",
    "city": "宮津市",
    "town": "田原"
  },
  "6260202": {
    "zipcode": "6260202",
    "prefectureCode": "26",
    "prefectureNumber": 26,
    "prefecture": "京都府",
    "city": "宮津市",
    "town": "大島"
  },
  "6260203": {
    "zipcode": "6260203",
    "prefectureCode": "26",
    "prefectureNumber": 26,
    "prefecture": "京都府",
    "city": "宮津市",
    "town": "岩ケ鼻"
  },
  "6260204": {
    "zipcode": "6260204",
    "prefectureCode": "26",
    "prefectureNumber": 26,
    "prefecture": "京都府",
    "city": "宮津市",
    "town": "長江"
  },
  "6260205": {
    "zipcode": "6260205",
    "prefectureCode": "26",
    "prefectureNumber": 26,
    "prefecture": "京都府",
    "city": "宮津市",
    "town": "外垣"
  },
  "6260206": {
    "zipcode": "6260206",
    "prefectureCode": "26",
    "prefectureNumber": 26,
    "prefecture": "京都府",
    "city": "宮津市",
    "town": "日ケ谷"
  },
  "6260211": {
    "zipcode": "6260211",
    "prefectureCode": "26",
    "prefectureNumber": 26,
    "prefecture": "京都府",
    "city": "宮津市",
    "town": "里波見"
  },
  "6260212": {
    "zipcode": "6260212",
    "prefectureCode": "26",
    "prefectureNumber": 26,
    "prefecture": "京都府",
    "city": "宮津市",
    "town": "中波見"
  },
  "6260213": {
    "zipcode": "6260213",
    "prefectureCode": "26",
    "prefectureNumber": 26,
    "prefecture": "京都府",
    "city": "宮津市",
    "town": "奥波見"
  },
  "6260221": {
    "zipcode": "6260221",
    "prefectureCode": "26",
    "prefectureNumber": 26,
    "prefecture": "京都府",
    "city": "宮津市",
    "town": "木子"
  },
  "6260222": {
    "zipcode": "6260222",
    "prefectureCode": "26",
    "prefectureNumber": 26,
    "prefecture": "京都府",
    "city": "宮津市",
    "town": "東野"
  },
  "6260223": {
    "zipcode": "6260223",
    "prefectureCode": "26",
    "prefectureNumber": 26,
    "prefecture": "京都府",
    "city": "宮津市",
    "town": "松尾"
  },
  "6260224": {
    "zipcode": "6260224",
    "prefectureCode": "26",
    "prefectureNumber": 26,
    "prefecture": "京都府",
    "city": "宮津市",
    "town": "下世屋"
  },
  "6260225": {
    "zipcode": "6260225",
    "prefectureCode": "26",
    "prefectureNumber": 26,
    "prefecture": "京都府",
    "city": "宮津市",
    "town": "日置"
  },
  "6260226": {
    "zipcode": "6260226",
    "prefectureCode": "26",
    "prefectureNumber": 26,
    "prefecture": "京都府",
    "city": "宮津市",
    "town": "畑"
  },
  "6260227": {
    "zipcode": "6260227",
    "prefectureCode": "26",
    "prefectureNumber": 26,
    "prefecture": "京都府",
    "city": "宮津市",
    "town": "上世屋"
  },
  "6260400": {
    "zipcode": "6260400",
    "prefectureCode": "26",
    "prefectureNumber": 26,
    "prefecture": "京都府",
    "city": "与謝郡伊根町",
    "town": "以下に掲載がない場合"
  },
  "6260401": {
    "zipcode": "6260401",
    "prefectureCode": "26",
    "prefectureNumber": 26,
    "prefecture": "京都府",
    "city": "与謝郡伊根町",
    "town": "蒲入"
  },
  "6260402": {
    "zipcode": "6260402",
    "prefectureCode": "26",
    "prefectureNumber": 26,
    "prefecture": "京都府",
    "city": "与謝郡伊根町",
    "town": "長延"
  },
  "6260403": {
    "zipcode": "6260403",
    "prefectureCode": "26",
    "prefectureNumber": 26,
    "prefecture": "京都府",
    "city": "与謝郡伊根町",
    "town": "本庄浜"
  },
  "6260404": {
    "zipcode": "6260404",
    "prefectureCode": "26",
    "prefectureNumber": 26,
    "prefecture": "京都府",
    "city": "与謝郡伊根町",
    "town": "本庄宇治"
  },
  "6260405": {
    "zipcode": "6260405",
    "prefectureCode": "26",
    "prefectureNumber": 26,
    "prefecture": "京都府",
    "city": "与謝郡伊根町",
    "town": "本庄上"
  },
  "6260411": {
    "zipcode": "6260411",
    "prefectureCode": "26",
    "prefectureNumber": 26,
    "prefecture": "京都府",
    "city": "与謝郡伊根町",
    "town": "野室"
  },
  "6260412": {
    "zipcode": "6260412",
    "prefectureCode": "26",
    "prefectureNumber": 26,
    "prefecture": "京都府",
    "city": "与謝郡伊根町",
    "town": "津母"
  },
  "6260413": {
    "zipcode": "6260413",
    "prefectureCode": "26",
    "prefectureNumber": 26,
    "prefecture": "京都府",
    "city": "与謝郡伊根町",
    "town": "泊"
  },
  "6260414": {
    "zipcode": "6260414",
    "prefectureCode": "26",
    "prefectureNumber": 26,
    "prefecture": "京都府",
    "city": "与謝郡伊根町",
    "town": "六万部"
  },
  "6260415": {
    "zipcode": "6260415",
    "prefectureCode": "26",
    "prefectureNumber": 26,
    "prefecture": "京都府",
    "city": "与謝郡伊根町",
    "town": "井室"
  },
  "6260416": {
    "zipcode": "6260416",
    "prefectureCode": "26",
    "prefectureNumber": 26,
    "prefecture": "京都府",
    "city": "与謝郡伊根町",
    "town": "畑谷"
  },
  "6260417": {
    "zipcode": "6260417",
    "prefectureCode": "26",
    "prefectureNumber": 26,
    "prefecture": "京都府",
    "city": "与謝郡伊根町",
    "town": "峠"
  },
  "6260421": {
    "zipcode": "6260421",
    "prefectureCode": "26",
    "prefectureNumber": 26,
    "prefecture": "京都府",
    "city": "与謝郡伊根町",
    "town": "新井"
  },
  "6260422": {
    "zipcode": "6260422",
    "prefectureCode": "26",
    "prefectureNumber": 26,
    "prefecture": "京都府",
    "city": "与謝郡伊根町",
    "town": "大原"
  },
  "6260423": {
    "zipcode": "6260423",
    "prefectureCode": "26",
    "prefectureNumber": 26,
    "prefecture": "京都府",
    "city": "与謝郡伊根町",
    "town": "平田"
  },
  "6260424": {
    "zipcode": "6260424",
    "prefectureCode": "26",
    "prefectureNumber": 26,
    "prefecture": "京都府",
    "city": "与謝郡伊根町",
    "town": "亀島"
  },
  "6260425": {
    "zipcode": "6260425",
    "prefectureCode": "26",
    "prefectureNumber": 26,
    "prefecture": "京都府",
    "city": "与謝郡伊根町",
    "town": "日出"
  },
  "6260431": {
    "zipcode": "6260431",
    "prefectureCode": "26",
    "prefectureNumber": 26,
    "prefecture": "京都府",
    "city": "与謝郡伊根町",
    "town": "菅野"
  },
  "6260432": {
    "zipcode": "6260432",
    "prefectureCode": "26",
    "prefectureNumber": 26,
    "prefecture": "京都府",
    "city": "与謝郡伊根町",
    "town": "本坂"
  },
  "6260433": {
    "zipcode": "6260433",
    "prefectureCode": "26",
    "prefectureNumber": 26,
    "prefecture": "京都府",
    "city": "与謝郡伊根町",
    "town": "野村"
  }
}
