{
  "6270000": {
    "zipcode": "6270000",
    "prefectureCode": "26",
    "prefectureNumber": 26,
    "prefecture": "京都府",
    "city": "京丹後市",
    "town": "以下に掲載がない場合"
  },
  "6270001": {
    "zipcode": "6270001",
    "prefectureCode": "26",
    "prefectureNumber": 26,
    "prefecture": "京都府",
    "city": "京丹後市",
    "town": "峰山町橋木"
  },
  "6270002": {
    "zipcode": "6270002",
    "prefectureCode": "26",
    "prefectureNumber": 26,
    "prefecture": "京都府",
    "city": "京丹後市",
    "town": "峰山町矢田"
  },
  "6270003": {
    "zipcode": "6270003",
    "prefectureCode": "26",
    "prefectureNumber": 26,
    "prefecture": "京都府",
    "city": "京丹後市",
    "town": "峰山町内記"
  },
  "6270004": {
    "zipcode": "6270004",
    "prefectureCode": "26",
    "prefectureNumber": 26,
    "prefecture": "京都府",
    "city": "京丹後市",
    "town": "峰山町荒山"
  },
  "6270005": {
    "zipcode": "6270005",
    "prefectureCode": "26",
    "prefectureNumber": 26,
    "prefecture": "京都府",
    "city": "京丹後市",
    "town": "峰山町新町"
  },
  "6270006": {
    "zipcode": "6270006",
    "prefectureCode": "26",
    "prefectureNumber": 26,
    "prefecture": "京都府",
    "city": "京丹後市",
    "town": "峰山町赤坂"
  },
  "6270007": {
    "zipcode": "6270007",
    "prefectureCode": "26",
    "prefectureNumber": 26,
    "prefecture": "京都府",
    "city": "京丹後市",
    "town": "峰山町石丸"
  },
  "6270011": {
    "zipcode": "6270011",
    "prefectureCode": "26",
    "prefectureNumber": 26,
    "prefecture": "京都府",
    "city": "京丹後市",
    "town": "峰山町丹波"
  },
  "6270012": {
    "zipcode": "6270012",
    "prefectureCode": "26",
    "prefectureNumber": 26,
    "prefecture": "京都府",
    "city": "京丹後市",
    "town": "峰山町杉谷"
  },
  "6270013": {
    "zipcode": "6270013",
    "prefectureCode": "26",
    "prefectureNumber": 26,
    "prefecture": "京都府",
    "city": "京丹後市",
    "town": "峰山町不断"
  },
  "6270014": {
    "zipcode": "6270014",
    "prefectureCode": "26",
    "prefectureNumber": 26,
    "prefecture": "京都府",
    "city": "京丹後市",
    "town": "峰山町四軒"
  },
  "6270021": {
    "zipcode": "6270021",
    "prefectureCode": "26",
    "prefectureNumber": 26,
    "prefecture": "京都府",
    "city": "京丹後市",
    "town": "峰山町吉原"
  },
  "6270022": {
    "zipcode": "6270022",
    "prefectureCode": "26",
    "prefectureNumber": 26,
    "prefecture": "京都府",
    "city": "京丹後市",
    "town": "峰山町上"
  },
  "6270023": {
    "zipcode": "6270023",
    "prefectureCode": "26",
    "prefectureNumber": 26,
    "prefecture": "京都府",
    "city": "京丹後市",
    "town": "峰山町織元"
  },
  "6270024": {
    "zipcode": "6270024",
    "prefectureCode": "26",
    "prefectureNumber": 26,
    "prefecture": "京都府",
    "city": "京丹後市",
    "town": "峰山町室"
  },
  "6270025": {
    "zipcode": "6270025",
    "prefectureCode": "26",
    "prefectureNumber": 26,
    "prefecture": "京都府",
    "city": "京丹後市",
    "town": "峰山町堺"
  },
  "6270026": {
    "zipcode": "6270026",
    "prefectureCode": "26",
    "prefectureNumber": 26,
    "prefecture": "京都府",
    "city": "京丹後市",
    "town": "峰山町古殿"
  },
  "6270027": {
    "zipcode": "6270027",
    "prefectureCode": "26",
    "prefectureNumber": 26,
    "prefecture": "京都府",
    "city": "京丹後市",
    "town": "峰山町安"
  },
  "6270031": {
    "zipcode": "6270031",
    "prefectureCode": "26",
    "prefectureNumber": 26,
    "prefecture": "京都府",
    "city": "京丹後市",
    "town": "峰山町呉服"
  },
  "6270032": {
    "zipcode": "6270032",
    "prefectureCode": "26",
    "prefectureNumber": 26,
    "prefecture": "京都府",
    "city": "京丹後市",
    "town": "峰山町浪花"
  },
  "6270033": {
    "zipcode": "6270033",
    "prefectureCode": "26",
    "prefectureNumber": 26,
    "prefecture": "京都府",
    "city": "京丹後市",
    "town": "峰山町白銀"
  },
  "6270034": {
    "zipcode": "6270034",
    "prefectureCode": "26",
    "prefectureNumber": 26,
    "prefecture": "京都府",
    "city": "京丹後市",
    "town": "峰山町泉"
  },
  "6270035": {
    "zipcode": "6270035",
    "prefectureCode": "26",
    "prefectureNumber": 26,
    "prefecture": "京都府",
    "city": "京丹後市",
    "town": "峰山町光明寺"
  },
  "6270036": {
    "zipcode": "6270036",
    "prefectureCode": "26",
    "prefectureNumber": 26,
    "prefecture": "京都府",
    "city": "京丹後市",
    "town": "峰山町御旅"
  },
  "6270037": {
    "zipcode": "6270037",
    "prefectureCode": "26",
    "prefectureNumber": 26,
    "prefecture": "京都府",
    "city": "京丹後市",
    "town": "峰山町千歳"
  },
  "6270038": {
    "zipcode": "6270038",
    "prefectureCode": "26",
    "prefectureNumber": 26,
    "prefecture": "京都府",
    "city": "京丹後市",
    "town": "峰山町富貴屋"
  },
  "6270041": {
    "zipcode": "6270041",
    "prefectureCode": "26",
    "prefectureNumber": 26,
    "prefecture": "京都府",
    "city": "京丹後市",
    "town": "峰山町菅"
  },
  "6270042": {
    "zipcode": "6270042",
    "prefectureCode": "26",
    "prefectureNumber": 26,
    "prefecture": "京都府",
    "city": "京丹後市",
    "town": "峰山町長岡"
  },
  "6270043": {
    "zipcode": "6270043",
    "prefectureCode": "26",
    "prefectureNumber": 26,
    "prefecture": "京都府",
    "city": "京丹後市",
    "town": "峰山町新治"
  },
  "6270044": {
    "zipcode": "6270044",
    "prefectureCode": "26",
    "prefectureNumber": 26,
    "prefecture": "京都府",
    "city": "京丹後市",
    "town": "峰山町小西"
  },
  "6270045": {
    "zipcode": "6270045",
    "prefectureCode": "26",
    "prefectureNumber": 26,
    "prefecture": "京都府",
    "city": "京丹後市",
    "town": "峰山町西山"
  },
  "6270051": {
    "zipcode": "6270051",
    "prefectureCode": "26",
    "prefectureNumber": 26,
    "prefecture": "京都府",
    "city": "京丹後市",
    "town": "峰山町二箇"
  },
  "6270052": {
    "zipcode": "6270052",
    "prefectureCode": "26",
    "prefectureNumber": 26,
    "prefecture": "京都府",
    "city": "京丹後市",
    "town": "峰山町五箇"
  },
  "6270053": {
    "zipcode": "6270053",
    "prefectureCode": "26",
    "prefectureNumber": 26,
    "prefecture": "京都府",
    "city": "京丹後市",
    "town": "峰山町鱒留"
  },
  "6270054": {
    "zipcode": "6270054",
    "prefectureCode": "26",
    "prefectureNumber": 26,
    "prefecture": "京都府",
    "city": "京丹後市",
    "town": "峰山町久次"
  },
  "6270101": {
    "zipcode": "6270101",
    "prefectureCode": "26",
    "prefectureNumber": 26,
    "prefecture": "京都府",
    "city": "京丹後市",
    "town": "弥栄町野中"
  },
  "6270102": {
    "zipcode": "6270102",
    "prefectureCode": "26",
    "prefectureNumber": 26,
    "prefecture": "京都府",
    "city": "京丹後市",
    "town": "弥栄町須川"
  },
  "6270111": {
    "zipcode": "6270111",
    "prefectureCode": "26",
    "prefectureNumber": 26,
    "prefecture": "京都府",
    "city": "京丹後市",
    "town": "弥栄町溝谷"
  },
  "6270112": {
    "zipcode": "6270112",
    "prefectureCode": "26",
    "prefectureNumber": 26,
    "prefecture": "京都府",
    "city": "京丹後市",
    "town": "弥栄町等楽寺"
  },
  "6270121": {
    "zipcode": "6270121",
    "prefectureCode": "26",
    "prefectureNumber": 26,
    "prefecture": "京都府",
    "city": "京丹後市",
    "town": "弥栄町堤"
  },
  "6270122": {
    "zipcode": "6270122",
    "prefectureCode": "26",
    "prefectureNumber": 26,
    "prefecture": "京都府",
    "city": "京丹後市",
    "town": "弥栄町芋野"
  },
  "6270123": {
    "zipcode": "6270123",
    "prefectureCode": "26",
    "prefectureNumber": 26,
    "prefecture": "京都府",
    "city": "京丹後市",
    "town": "弥栄町吉沢"
  },
  "6270131": {
    "zipcode": "6270131",
    "prefectureCode": "26",
    "prefectureNumber": 26,
    "prefecture": "京都府",
    "city": "京丹後市",
    "town": "弥栄町和田野"
  },
  "6270132": {
    "zipcode": "6270132",
    "prefectureCode": "26",
    "prefectureNumber": 26,
    "prefecture": "京都府",
    "city": "京丹後市",
    "town": "弥栄町木橋"
  },
  "6270133": {
    "zipcode": "6270133",
    "prefectureCode": "26",
    "prefectureNumber": 26,
    "prefecture": "京都府",
    "city": "京丹後市",
    "town": "弥栄町鳥取"
  },
  "6270141": {
    "zipcode": "6270141",
    "prefectureCode": "26",
    "prefectureNumber": 26,
    "prefecture": "京都府",
    "city": "京丹後市",
    "town": "弥栄町小田"
  },
  "6270142": {
    "zipcode": "6270142",
    "prefectureCode": "26",
    "prefectureNumber": 26,
    "prefecture": "京都府",
    "city": "京丹後市",
    "town": "弥栄町黒部"
  },
  "6270143": {
    "zipcode": "6270143",
    "prefectureCode": "26",
    "prefectureNumber": 26,
    "prefecture": "京都府",
    "city": "京丹後市",
    "town": "弥栄町船木"
  },
  "6270144": {
    "zipcode": "6270144",
    "prefectureCode": "26",
    "prefectureNumber": 26,
    "prefecture": "京都府",
    "city": "京丹後市",
    "town": "弥栄町井辺"
  },
  "6270145": {
    "zipcode": "6270145",
    "prefectureCode": "26",
    "prefectureNumber": 26,
    "prefecture": "京都府",
    "city": "京丹後市",
    "town": "弥栄町国久"
  },
  "6270201": {
    "zipcode": "6270201",
    "prefectureCode": "26",
    "prefectureNumber": 26,
    "prefecture": "京都府",
    "city": "京丹後市",
    "town": "丹後町間人"
  },
  "6270202": {
    "zipcode": "6270202",
    "prefectureCode": "26",
    "prefectureNumber": 26,
    "prefecture": "京都府",
    "city": "京丹後市",
    "town": "丹後町砂方"
  },
  "6270211": {
    "zipcode": "6270211",
    "prefectureCode": "26",
    "prefectureNumber": 26,
    "prefecture": "京都府",
    "city": "京丹後市",
    "town": "丹後町大山"
  },
  "6270212": {
    "zipcode": "6270212",
    "prefectureCode": "26",
    "prefectureNumber": 26,
    "prefecture": "京都府",
    "city": "京丹後市",
    "town": "丹後町三宅"
  },
  "6270213": {
    "zipcode": "6270213",
    "prefectureCode": "26",
    "prefectureNumber": 26,
    "prefecture": "京都府",
    "city": "京丹後市",
    "town": "丹後町吉永"
  },
  "6270214": {
    "zipcode": "6270214",
    "prefectureCode": "26",
    "prefectureNumber": 26,
    "prefecture": "京都府",
    "city": "京丹後市",
    "town": "丹後町是安"
  },
  "6270215": {
    "zipcode": "6270215",
    "prefectureCode": "26",
    "prefectureNumber": 26,
    "prefecture": "京都府",
    "city": "京丹後市",
    "town": "丹後町成願寺"
  },
  "6270216": {
    "zipcode": "6270216",
    "prefectureCode": "26",
    "prefectureNumber": 26,
    "prefecture": "京都府",
    "city": "京丹後市",
    "town": "丹後町徳光"
  },
  "6270221": {
    "zipcode": "6270221",
    "prefectureCode": "26",
    "prefectureNumber": 26,
    "prefecture": "京都府",
    "city": "京丹後市",
    "town": "丹後町竹野"
  },
  "6270222": {
    "zipcode": "6270222",
    "prefectureCode": "26",
    "prefectureNumber": 26,
    "prefecture": "京都府",
    "city": "京丹後市",
    "town": "丹後町筆石"
  },
  "6270223": {
    "zipcode": "6270223",
    "prefectureCode": "26",
    "prefectureNumber": 26,
    "prefecture": "京都府",
    "city": "京丹後市",
    "town": "丹後町矢畑"
  },
  "6270224": {
    "zipcode": "6270224",
    "prefectureCode": "26",
    "prefectureNumber": 26,
    "prefecture": "京都府",
    "city": "京丹後市",
    "town": "丹後町岩木"
  },
  "6270225": {
    "zipcode": "6270225",
    "prefectureCode": "26",
    "prefectureNumber": 26,
    "prefecture": "京都府",
    "city": "京丹後市",
    "town": "丹後町願興寺"
  },
  "6270226": {
    "zipcode": "6270226",
    "prefectureCode": "26",
    "prefectureNumber": 26,
    "prefecture": "京都府",
    "city": "京丹後市",
    "town": "丹後町牧ノ谷"
  },
  "6270227": {
    "zipcode": "6270227",
    "prefectureCode": "26",
    "prefectureNumber": 26,
    "prefecture": "京都府",
    "city": "京丹後市",
    "town": "丹後町家ノ谷"
  },
  "6270228": {
    "zipcode": "6270228",
    "prefectureCode": "26",
    "prefectureNumber": 26,
    "prefecture": "京都府",
    "city": "京丹後市",
    "town": "丹後町宮"
  },
  "6270231": {
    "zipcode": "6270231",
    "prefectureCode": "26",
    "prefectureNumber": 26,
    "prefecture": "京都府",
    "city": "京丹後市",
    "town": "丹後町乗原"
  },
  "6270232": {
    "zipcode": "6270232",
    "prefectureCode": "26",
    "prefectureNumber": 26,
    "prefecture": "京都府",
    "city": "京丹後市",
    "town": "丹後町此代"
  },
  "6270233": {
    "zipcode": "6270233",
    "prefectureCode": "26",
    "prefectureNumber": 26,
    "prefecture": "京都府",
    "city": "京丹後市",
    "town": "丹後町平"
  },
  "6270234": {
    "zipcode": "6270234",
    "prefectureCode": "26",
    "prefectureNumber": 26,
    "prefecture": "京都府",
    "city": "京丹後市",
    "town": "丹後町中野"
  },
  "6270235": {
    "zipcode": "6270235",
    "prefectureCode": "26",
    "prefectureNumber": 26,
    "prefecture": "京都府",
    "city": "京丹後市",
    "town": "丹後町井上"
  },
  "6270236": {
    "zipcode": "6270236",
    "prefectureCode": "26",
    "prefectureNumber": 26,
    "prefecture": "京都府",
    "city": "京丹後市",
    "town": "丹後町畑"
  },
  "6270237": {
    "zipcode": "6270237",
    "prefectureCode": "26",
    "prefectureNumber": 26,
    "prefecture": "京都府",
    "city": "京丹後市",
    "town": "丹後町井谷"
  },
  "6270238": {
    "zipcode": "6270238",
    "prefectureCode": "26",
    "prefectureNumber": 26,
    "prefecture": "京都府",
    "city": "京丹後市",
    "town": "丹後町鞍内"
  },
  "6270239": {
    "zipcode": "6270239",
    "prefectureCode": "26",
    "prefectureNumber": 26,
    "prefecture": "京都府",
    "city": "京丹後市",
    "town": "丹後町遠下"
  },
  "6270241": {
    "zipcode": "6270241",
    "prefectureCode": "26",
    "prefectureNumber": 26,
    "prefecture": "京都府",
    "city": "京丹後市",
    "town": "丹後町上野"
  },
  "6270242": {
    "zipcode": "6270242",
    "prefectureCode": "26",
    "prefectureNumber": 26,
    "prefecture": "京都府",
    "city": "京丹後市",
    "town": "丹後町久僧"
  },
  "6270243": {
    "zipcode": "6270243",
    "prefectureCode": "26",
    "prefectureNumber": 26,
    "prefecture": "京都府",
    "city": "京丹後市",
    "town": "丹後町中浜"
  },
  "6270244": {
    "zipcode": "6270244",
    "prefectureCode": "26",
    "prefectureNumber": 26,
    "prefecture": "京都府",
    "city": "京丹後市",
    "town": "丹後町尾和"
  },
  "6270245": {
    "zipcode": "6270245",
    "prefectureCode": "26",
    "prefectureNumber": 26,
    "prefecture": "京都府",
    "city": "京丹後市",
    "town": "丹後町袖志"
  },
  "6270246": {
    "zipcode": "6270246",
    "prefectureCode": "26",
    "prefectureNumber": 26,
    "prefecture": "京都府",
    "city": "京丹後市",
    "town": "丹後町谷内"
  },
  "6270247": {
    "zipcode": "6270247",
    "prefectureCode": "26",
    "prefectureNumber": 26,
    "prefecture": "京都府",
    "city": "京丹後市",
    "town": "丹後町上山"
  },
  "6270248": {
    "zipcode": "6270248",
    "prefectureCode": "26",
    "prefectureNumber": 26,
    "prefecture": "京都府",
    "city": "京丹後市",
    "town": "丹後町碇"
  },
  "6270249": {
    "zipcode": "6270249",
    "prefectureCode": "26",
    "prefectureNumber": 26,
    "prefecture": "京都府",
    "city": "京丹後市",
    "town": "丹後町三山"
  }
}
