{
  "6290101": {
    "zipcode": "6290101",
    "prefectureCode": "26",
    "prefectureNumber": 26,
    "prefecture": "京都府",
    "city": "南丹市",
    "town": "八木町船枝"
  },
  "6290102": {
    "zipcode": "6290102",
    "prefectureCode": "26",
    "prefectureNumber": 26,
    "prefecture": "京都府",
    "city": "南丹市",
    "town": "八木町室橋"
  },
  "6290103": {
    "zipcode": "6290103",
    "prefectureCode": "26",
    "prefectureNumber": 26,
    "prefecture": "京都府",
    "city": "南丹市",
    "town": "八木町諸畑"
  },
  "6290104": {
    "zipcode": "6290104",
    "prefectureCode": "26",
    "prefectureNumber": 26,
    "prefecture": "京都府",
    "city": "南丹市",
    "town": "八木町日置"
  },
  "6290111": {
    "zipcode": "6290111",
    "prefectureCode": "26",
    "prefectureNumber": 26,
    "prefecture": "京都府",
    "city": "南丹市",
    "town": "八木町野条"
  },
  "6290112": {
    "zipcode": "6290112",
    "prefectureCode": "26",
    "prefectureNumber": 26,
    "prefecture": "京都府",
    "city": "南丹市",
    "town": "八木町池上"
  },
  "6290113": {
    "zipcode": "6290113",
    "prefectureCode": "26",
    "prefectureNumber": 26,
    "prefecture": "京都府",
    "city": "南丹市",
    "town": "八木町刑部"
  },
  "6290114": {
    "zipcode": "6290114",
    "prefectureCode": "26",
    "prefectureNumber": 26,
    "prefecture": "京都府",
    "city": "南丹市",
    "town": "八木町北廣瀬"
  },
  "6290115": {
    "zipcode": "6290115",
    "prefectureCode": "26",
    "prefectureNumber": 26,
    "prefecture": "京都府",
    "city": "南丹市",
    "town": "八木町山室"
  },
  "6290121": {
    "zipcode": "6290121",
    "prefectureCode": "26",
    "prefectureNumber": 26,
    "prefecture": "京都府",
    "city": "南丹市",
    "town": "八木町氷所"
  },
  "6290122": {
    "zipcode": "6290122",
    "prefectureCode": "26",
    "prefectureNumber": 26,
    "prefecture": "京都府",
    "city": "南丹市",
    "town": "八木町青戸"
  },
  "6290131": {
    "zipcode": "6290131",
    "prefectureCode": "26",
    "prefectureNumber": 26,
    "prefecture": "京都府",
    "city": "南丹市",
    "town": "八木町北屋賀"
  },
  "6290132": {
    "zipcode": "6290132",
    "prefectureCode": "26",
    "prefectureNumber": 26,
    "prefecture": "京都府",
    "city": "南丹市",
    "town": "八木町屋賀"
  },
  "6290133": {
    "zipcode": "6290133",
    "prefectureCode": "26",
    "prefectureNumber": 26,
    "prefecture": "京都府",
    "city": "南丹市",
    "town": "八木町観音寺"
  },
  "6290134": {
    "zipcode": "6290134",
    "prefectureCode": "26",
    "prefectureNumber": 26,
    "prefecture": "京都府",
    "city": "南丹市",
    "town": "八木町西田"
  },
  "6290141": {
    "zipcode": "6290141",
    "prefectureCode": "26",
    "prefectureNumber": 26,
    "prefecture": "京都府",
    "city": "南丹市",
    "town": "八木町八木"
  },
  "6290151": {
    "zipcode": "6290151",
    "prefectureCode": "26",
    "prefectureNumber": 26,
    "prefecture": "京都府",
    "city": "南丹市",
    "town": "八木町南廣瀬"
  },
  "6290152": {
    "zipcode": "6290152",
    "prefectureCode": "26",
    "prefectureNumber": 26,
    "prefecture": "京都府",
    "city": "南丹市",
    "town": "八木町大藪"
  },
  "6290153": {
    "zipcode": "6290153",
    "prefectureCode": "26",
    "prefectureNumber": 26,
    "prefecture": "京都府",
    "city": "南丹市",
    "town": "八木町八木嶋"
  },
  "6290154": {
    "zipcode": "6290154",
    "prefectureCode": "26",
    "prefectureNumber": 26,
    "prefecture": "京都府",
    "city": "南丹市",
    "town": "八木町柴山"
  },
  "6290161": {
    "zipcode": "6290161",
    "prefectureCode": "26",
    "prefectureNumber": 26,
    "prefecture": "京都府",
    "city": "南丹市",
    "town": "八木町美里"
  },
  "6290162": {
    "zipcode": "6290162",
    "prefectureCode": "26",
    "prefectureNumber": 26,
    "prefecture": "京都府",
    "city": "南丹市",
    "town": "八木町鳥羽"
  },
  "6290163": {
    "zipcode": "6290163",
    "prefectureCode": "26",
    "prefectureNumber": 26,
    "prefecture": "京都府",
    "city": "南丹市",
    "town": "八木町玉ノ井"
  },
  "6290164": {
    "zipcode": "6290164",
    "prefectureCode": "26",
    "prefectureNumber": 26,
    "prefecture": "京都府",
    "city": "南丹市",
    "town": "八木町池ノ内"
  },
  "6290165": {
    "zipcode": "6290165",
    "prefectureCode": "26",
    "prefectureNumber": 26,
    "prefecture": "京都府",
    "city": "南丹市",
    "town": "八木町木原"
  },
  "6290166": {
    "zipcode": "6290166",
    "prefectureCode": "26",
    "prefectureNumber": 26,
    "prefecture": "京都府",
    "city": "南丹市",
    "town": "八木町室河原"
  },
  "6290271": {
    "zipcode": "6290271",
    "prefectureCode": "26",
    "prefectureNumber": 26,
    "prefecture": "京都府",
    "city": "南丹市",
    "town": "八木町神吉"
  },
  "6290301": {
    "zipcode": "6290301",
    "prefectureCode": "26",
    "prefectureNumber": 26,
    "prefecture": "京都府",
    "city": "南丹市",
    "town": "日吉町保野田"
  },
  "6290302": {
    "zipcode": "6290302",
    "prefectureCode": "26",
    "prefectureNumber": 26,
    "prefecture": "京都府",
    "city": "南丹市",
    "town": "日吉町志和賀"
  },
  "6290311": {
    "zipcode": "6290311",
    "prefectureCode": "26",
    "prefectureNumber": 26,
    "prefecture": "京都府",
    "city": "南丹市",
    "town": "日吉町胡麻"
  },
  "6290312": {
    "zipcode": "6290312",
    "prefectureCode": "26",
    "prefectureNumber": 26,
    "prefecture": "京都府",
    "city": "南丹市",
    "town": "日吉町上胡麻"
  },
  "6290313": {
    "zipcode": "6290313",
    "prefectureCode": "26",
    "prefectureNumber": 26,
    "prefecture": "京都府",
    "city": "南丹市",
    "town": "日吉町畑郷"
  },
  "6290321": {
    "zipcode": "6290321",
    "prefectureCode": "26",
    "prefectureNumber": 26,
    "prefecture": "京都府",
    "city": "南丹市",
    "town": "日吉町佐々江"
  },
  "6290322": {
    "zipcode": "6290322",
    "prefectureCode": "26",
    "prefectureNumber": 26,
    "prefecture": "京都府",
    "city": "南丹市",
    "town": "日吉町四ツ谷"
  },
  "6290323": {
    "zipcode": "6290323",
    "prefectureCode": "26",
    "prefectureNumber": 26,
    "prefecture": "京都府",
    "city": "南丹市",
    "town": "日吉町田原"
  },
  "6290331": {
    "zipcode": "6290331",
    "prefectureCode": "26",
    "prefectureNumber": 26,
    "prefecture": "京都府",
    "city": "南丹市",
    "town": "日吉町生畑"
  },
  "6290332": {
    "zipcode": "6290332",
    "prefectureCode": "26",
    "prefectureNumber": 26,
    "prefecture": "京都府",
    "city": "南丹市",
    "town": "日吉町木住"
  },
  "6290333": {
    "zipcode": "6290333",
    "prefectureCode": "26",
    "prefectureNumber": 26,
    "prefecture": "京都府",
    "city": "南丹市",
    "town": "日吉町中世木"
  },
  "6290334": {
    "zipcode": "6290334",
    "prefectureCode": "26",
    "prefectureNumber": 26,
    "prefecture": "京都府",
    "city": "南丹市",
    "town": "日吉町天若"
  },
  "6290335": {
    "zipcode": "6290335",
    "prefectureCode": "26",
    "prefectureNumber": 26,
    "prefecture": "京都府",
    "city": "南丹市",
    "town": "日吉町中"
  },
  "6290341": {
    "zipcode": "6290341",
    "prefectureCode": "26",
    "prefectureNumber": 26,
    "prefecture": "京都府",
    "city": "南丹市",
    "town": "日吉町殿田"
  },
  "6291101": {
    "zipcode": "6291101",
    "prefectureCode": "26",
    "prefectureNumber": 26,
    "prefecture": "京都府",
    "city": "船井郡京丹波町",
    "town": "仏主"
  },
  "6291102": {
    "zipcode": "6291102",
    "prefectureCode": "26",
    "prefectureNumber": 26,
    "prefecture": "京都府",
    "city": "船井郡京丹波町",
    "town": "上乙見"
  },
  "6291103": {
    "zipcode": "6291103",
    "prefectureCode": "26",
    "prefectureNumber": 26,
    "prefecture": "京都府",
    "city": "船井郡京丹波町",
    "town": "下乙見"
  },
  "6291104": {
    "zipcode": "6291104",
    "prefectureCode": "26",
    "prefectureNumber": 26,
    "prefecture": "京都府",
    "city": "船井郡京丹波町",
    "town": "篠原"
  },
  "6291105": {
    "zipcode": "6291105",
    "prefectureCode": "26",
    "prefectureNumber": 26,
    "prefecture": "京都府",
    "city": "船井郡京丹波町",
    "town": "下粟野"
  },
  "6291106": {
    "zipcode": "6291106",
    "prefectureCode": "26",
    "prefectureNumber": 26,
    "prefecture": "京都府",
    "city": "船井郡京丹波町",
    "town": "細谷"
  },
  "6291107": {
    "zipcode": "6291107",
    "prefectureCode": "26",
    "prefectureNumber": 26,
    "prefecture": "京都府",
    "city": "船井郡京丹波町",
    "town": "西河内"
  },
  "6291108": {
    "zipcode": "6291108",
    "prefectureCode": "26",
    "prefectureNumber": 26,
    "prefecture": "京都府",
    "city": "船井郡京丹波町",
    "town": "上粟野"
  },
  "6291111": {
    "zipcode": "6291111",
    "prefectureCode": "26",
    "prefectureNumber": 26,
    "prefecture": "京都府",
    "city": "船井郡京丹波町",
    "town": "大迫"
  },
  "6291112": {
    "zipcode": "6291112",
    "prefectureCode": "26",
    "prefectureNumber": 26,
    "prefecture": "京都府",
    "city": "船井郡京丹波町",
    "town": "塩谷"
  },
  "6291113": {
    "zipcode": "6291113",
    "prefectureCode": "26",
    "prefectureNumber": 26,
    "prefecture": "京都府",
    "city": "船井郡京丹波町",
    "town": "長瀬"
  },
  "6291114": {
    "zipcode": "6291114",
    "prefectureCode": "26",
    "prefectureNumber": 26,
    "prefecture": "京都府",
    "city": "船井郡京丹波町",
    "town": "升谷"
  },
  "6291115": {
    "zipcode": "6291115",
    "prefectureCode": "26",
    "prefectureNumber": 26,
    "prefecture": "京都府",
    "city": "船井郡京丹波町",
    "town": "中山"
  },
  "6291116": {
    "zipcode": "6291116",
    "prefectureCode": "26",
    "prefectureNumber": 26,
    "prefecture": "京都府",
    "city": "船井郡京丹波町",
    "town": "市場"
  },
  "6291117": {
    "zipcode": "6291117",
    "prefectureCode": "26",
    "prefectureNumber": 26,
    "prefecture": "京都府",
    "city": "船井郡京丹波町",
    "town": "大倉"
  },
  "6291121": {
    "zipcode": "6291121",
    "prefectureCode": "26",
    "prefectureNumber": 26,
    "prefecture": "京都府",
    "city": "船井郡京丹波町",
    "town": "本庄"
  },
  "6291122": {
    "zipcode": "6291122",
    "prefectureCode": "26",
    "prefectureNumber": 26,
    "prefecture": "京都府",
    "city": "船井郡京丹波町",
    "town": "小畑"
  },
  "6291131": {
    "zipcode": "6291131",
    "prefectureCode": "26",
    "prefectureNumber": 26,
    "prefecture": "京都府",
    "city": "船井郡京丹波町",
    "town": "坂原"
  },
  "6291132": {
    "zipcode": "6291132",
    "prefectureCode": "26",
    "prefectureNumber": 26,
    "prefecture": "京都府",
    "city": "船井郡京丹波町",
    "town": "中"
  },
  "6291133": {
    "zipcode": "6291133",
    "prefectureCode": "26",
    "prefectureNumber": 26,
    "prefecture": "京都府",
    "city": "船井郡京丹波町",
    "town": "角"
  },
  "6291134": {
    "zipcode": "6291134",
    "prefectureCode": "26",
    "prefectureNumber": 26,
    "prefecture": "京都府",
    "city": "船井郡京丹波町",
    "town": "広瀬"
  },
  "6291135": {
    "zipcode": "6291135",
    "prefectureCode": "26",
    "prefectureNumber": 26,
    "prefecture": "京都府",
    "city": "船井郡京丹波町",
    "town": "才原"
  },
  "6291141": {
    "zipcode": "6291141",
    "prefectureCode": "26",
    "prefectureNumber": 26,
    "prefecture": "京都府",
    "city": "船井郡京丹波町",
    "town": "安栖里"
  },
  "6291142": {
    "zipcode": "6291142",
    "prefectureCode": "26",
    "prefectureNumber": 26,
    "prefecture": "京都府",
    "city": "船井郡京丹波町",
    "town": "稲次"
  },
  "6291143": {
    "zipcode": "6291143",
    "prefectureCode": "26",
    "prefectureNumber": 26,
    "prefecture": "京都府",
    "city": "船井郡京丹波町",
    "town": "出野"
  },
  "6291144": {
    "zipcode": "6291144",
    "prefectureCode": "26",
    "prefectureNumber": 26,
    "prefecture": "京都府",
    "city": "船井郡京丹波町",
    "town": "広野"
  },
  "6291145": {
    "zipcode": "6291145",
    "prefectureCode": "26",
    "prefectureNumber": 26,
    "prefecture": "京都府",
    "city": "船井郡京丹波町",
    "town": "大簾"
  },
  "6291241": {
    "zipcode": "6291241",
    "prefectureCode": "26",
    "prefectureNumber": 26,
    "prefecture": "京都府",
    "city": "綾部市",
    "town": "井根町"
  },
  "6291242": {
    "zipcode": "6291242",
    "prefectureCode": "26",
    "prefectureNumber": 26,
    "prefecture": "京都府",
    "city": "綾部市",
    "town": "十倉名畑町"
  },
  "6291243": {
    "zipcode": "6291243",
    "prefectureCode": "26",
    "prefectureNumber": 26,
    "prefecture": "京都府",
    "city": "綾部市",
    "town": "十倉向町"
  },
  "6291244": {
    "zipcode": "6291244",
    "prefectureCode": "26",
    "prefectureNumber": 26,
    "prefecture": "京都府",
    "city": "綾部市",
    "town": "十倉中町"
  },
  "6291245": {
    "zipcode": "6291245",
    "prefectureCode": "26",
    "prefectureNumber": 26,
    "prefecture": "京都府",
    "city": "綾部市",
    "town": "十倉志茂町"
  },
  "6291251": {
    "zipcode": "6291251",
    "prefectureCode": "26",
    "prefectureNumber": 26,
    "prefecture": "京都府",
    "city": "綾部市",
    "town": "忠町"
  },
  "6291252": {
    "zipcode": "6291252",
    "prefectureCode": "26",
    "prefectureNumber": 26,
    "prefecture": "京都府",
    "city": "綾部市",
    "town": "佃町"
  },
  "6291253": {
    "zipcode": "6291253",
    "prefectureCode": "26",
    "prefectureNumber": 26,
    "prefecture": "京都府",
    "city": "綾部市",
    "town": "武吉町"
  },
  "6291254": {
    "zipcode": "6291254",
    "prefectureCode": "26",
    "prefectureNumber": 26,
    "prefecture": "京都府",
    "city": "綾部市",
    "town": "釜輪町"
  },
  "6291255": {
    "zipcode": "6291255",
    "prefectureCode": "26",
    "prefectureNumber": 26,
    "prefecture": "京都府",
    "city": "綾部市",
    "town": "戸奈瀬町"
  },
  "6291256": {
    "zipcode": "6291256",
    "prefectureCode": "26",
    "prefectureNumber": 26,
    "prefecture": "京都府",
    "city": "綾部市",
    "town": "広瀬町"
  },
  "6291257": {
    "zipcode": "6291257",
    "prefectureCode": "26",
    "prefectureNumber": 26,
    "prefecture": "京都府",
    "city": "綾部市",
    "town": "橋上町"
  },
  "6291261": {
    "zipcode": "6291261",
    "prefectureCode": "26",
    "prefectureNumber": 26,
    "prefecture": "京都府",
    "city": "綾部市",
    "town": "旭町"
  },
  "6291262": {
    "zipcode": "6291262",
    "prefectureCode": "26",
    "prefectureNumber": 26,
    "prefecture": "京都府",
    "city": "綾部市",
    "town": "東山町"
  },
  "6291263": {
    "zipcode": "6291263",
    "prefectureCode": "26",
    "prefectureNumber": 26,
    "prefecture": "京都府",
    "city": "綾部市",
    "town": "鷹栖町"
  },
  "6291264": {
    "zipcode": "6291264",
    "prefectureCode": "26",
    "prefectureNumber": 26,
    "prefecture": "京都府",
    "city": "綾部市",
    "town": "西原町"
  },
  "6291271": {
    "zipcode": "6291271",
    "prefectureCode": "26",
    "prefectureNumber": 26,
    "prefecture": "京都府",
    "city": "綾部市",
    "town": "上原町"
  },
  "6291272": {
    "zipcode": "6291272",
    "prefectureCode": "26",
    "prefectureNumber": 26,
    "prefecture": "京都府",
    "city": "綾部市",
    "town": "下替地町"
  },
  "6291273": {
    "zipcode": "6291273",
    "prefectureCode": "26",
    "prefectureNumber": 26,
    "prefecture": "京都府",
    "city": "綾部市",
    "town": "下原町"
  },
  "6291274": {
    "zipcode": "6291274",
    "prefectureCode": "26",
    "prefectureNumber": 26,
    "prefecture": "京都府",
    "city": "綾部市",
    "town": "和木町"
  },
  "6291301": {
    "zipcode": "6291301",
    "prefectureCode": "26",
    "prefectureNumber": 26,
    "prefecture": "京都府",
    "city": "福知山市",
    "town": "夜久野町畑"
  },
  "6291302": {
    "zipcode": "6291302",
    "prefectureCode": "26",
    "prefectureNumber": 26,
    "prefecture": "京都府",
    "city": "福知山市",
    "town": "夜久野町今西中"
  },
  "6291303": {
    "zipcode": "6291303",
    "prefectureCode": "26",
    "prefectureNumber": 26,
    "prefecture": "京都府",
    "city": "福知山市",
    "town": "夜久野町井田"
  },
  "6291304": {
    "zipcode": "6291304",
    "prefectureCode": "26",
    "prefectureNumber": 26,
    "prefecture": "京都府",
    "city": "福知山市",
    "town": "夜久野町額田"
  },
  "6291305": {
    "zipcode": "6291305",
    "prefectureCode": "26",
    "prefectureNumber": 26,
    "prefecture": "京都府",
    "city": "福知山市",
    "town": "夜久野町千原"
  },
  "6291311": {
    "zipcode": "6291311",
    "prefectureCode": "26",
    "prefectureNumber": 26,
    "prefecture": "京都府",
    "city": "福知山市",
    "town": "夜久野町日置"
  },
  "6291312": {
    "zipcode": "6291312",
    "prefectureCode": "26",
    "prefectureNumber": 26,
    "prefecture": "京都府",
    "city": "福知山市",
    "town": "夜久野町末"
  },
  "6291313": {
    "zipcode": "6291313",
    "prefectureCode": "26",
    "prefectureNumber": 26,
    "prefecture": "京都府",
    "city": "福知山市",
    "town": "夜久野町高内"
  },
  "6291314": {
    "zipcode": "6291314",
    "prefectureCode": "26",
    "prefectureNumber": 26,
    "prefecture": "京都府",
    "city": "福知山市",
    "town": "夜久野町小倉"
  },
  "6291315": {
    "zipcode": "6291315",
    "prefectureCode": "26",
    "prefectureNumber": 26,
    "prefecture": "京都府",
    "city": "福知山市",
    "town": "夜久野町大油子"
  },
  "6291321": {
    "zipcode": "6291321",
    "prefectureCode": "26",
    "prefectureNumber": 26,
    "prefecture": "京都府",
    "city": "福知山市",
    "town": "夜久野町直見"
  },
  "6291322": {
    "zipcode": "6291322",
    "prefectureCode": "26",
    "prefectureNumber": 26,
    "prefecture": "京都府",
    "city": "福知山市",
    "town": "夜久野町平野"
  },
  "6291323": {
    "zipcode": "6291323",
    "prefectureCode": "26",
    "prefectureNumber": 26,
    "prefecture": "京都府",
    "city": "福知山市",
    "town": "夜久野町板生"
  },
  "6292200": {
    "zipcode": "6292200",
    "prefectureCode": "26",
    "prefectureNumber": 26,
    "prefecture": "京都府",
    "city": "与謝郡与謝野町",
    "town": "以下に掲載がない場合"
  },
  "6292231": {
    "zipcode": "6292231",
    "prefectureCode": "26",
    "prefectureNumber": 26,
    "prefecture": "京都府",
    "city": "宮津市",
    "town": "小松"
  },
  "6292232": {
    "zipcode": "6292232",
    "prefectureCode": "26",
    "prefectureNumber": 26,
    "prefecture": "京都府",
    "city": "宮津市",
    "town": "中野"
  },
  "6292233": {
    "zipcode": "6292233",
    "prefectureCode": "26",
    "prefectureNumber": 26,
    "prefecture": "京都府",
    "city": "宮津市",
    "town": "溝尻"
  },
  "6292234": {
    "zipcode": "6292234",
    "prefectureCode": "26",
    "prefectureNumber": 26,
    "prefecture": "京都府",
    "city": "宮津市",
    "town": "国分"
  },
  "6292241": {
    "zipcode": "6292241",
    "prefectureCode": "26",
    "prefectureNumber": 26,
    "prefecture": "京都府",
    "city": "宮津市",
    "town": "成相寺"
  },
  "6292242": {
    "zipcode": "6292242",
    "prefectureCode": "26",
    "prefectureNumber": 26,
    "prefecture": "京都府",
    "city": "宮津市",
    "town": "大垣"
  },
  "6292243": {
    "zipcode": "6292243",
    "prefectureCode": "26",
    "prefectureNumber": 26,
    "prefecture": "京都府",
    "city": "宮津市",
    "town": "難波野"
  },
  "6292244": {
    "zipcode": "6292244",
    "prefectureCode": "26",
    "prefectureNumber": 26,
    "prefecture": "京都府",
    "city": "宮津市",
    "town": "江尻"
  },
  "6292251": {
    "zipcode": "6292251",
    "prefectureCode": "26",
    "prefectureNumber": 26,
    "prefecture": "京都府",
    "city": "宮津市",
    "town": "須津"
  },
  "6292261": {
    "zipcode": "6292261",
    "prefectureCode": "26",
    "prefectureNumber": 26,
    "prefecture": "京都府",
    "city": "与謝郡与謝野町",
    "town": "男山"
  },
  "6292262": {
    "zipcode": "6292262",
    "prefectureCode": "26",
    "prefectureNumber": 26,
    "prefecture": "京都府",
    "city": "与謝郡与謝野町",
    "town": "岩滝"
  },
  "6292263": {
    "zipcode": "6292263",
    "prefectureCode": "26",
    "prefectureNumber": 26,
    "prefecture": "京都府",
    "city": "与謝郡与謝野町",
    "town": "弓木"
  },
  "6292301": {
    "zipcode": "6292301",
    "prefectureCode": "26",
    "prefectureNumber": 26,
    "prefecture": "京都府",
    "city": "与謝郡与謝野町",
    "town": "上山田"
  },
  "6292302": {
    "zipcode": "6292302",
    "prefectureCode": "26",
    "prefectureNumber": 26,
    "prefecture": "京都府",
    "city": "与謝郡与謝野町",
    "town": "下山田"
  },
  "6292303": {
    "zipcode": "6292303",
    "prefectureCode": "26",
    "prefectureNumber": 26,
    "prefecture": "京都府",
    "city": "与謝郡与謝野町",
    "town": "石川"
  },
  "6292311": {
    "zipcode": "6292311",
    "prefectureCode": "26",
    "prefectureNumber": 26,
    "prefecture": "京都府",
    "city": "与謝郡与謝野町",
    "town": "幾地"
  },
  "6292312": {
    "zipcode": "6292312",
    "prefectureCode": "26",
    "prefectureNumber": 26,
    "prefecture": "京都府",
    "city": "与謝郡与謝野町",
    "town": "四辻"
  },
  "6292313": {
    "zipcode": "6292313",
    "prefectureCode": "26",
    "prefectureNumber": 26,
    "prefecture": "京都府",
    "city": "与謝郡与謝野町",
    "town": "三河内"
  },
  "6292314": {
    "zipcode": "6292314",
    "prefectureCode": "26",
    "prefectureNumber": 26,
    "prefecture": "京都府",
    "city": "与謝郡与謝野町",
    "town": "岩屋"
  },
  "6292401": {
    "zipcode": "6292401",
    "prefectureCode": "26",
    "prefectureNumber": 26,
    "prefecture": "京都府",
    "city": "与謝郡与謝野町",
    "town": "加悦奥"
  },
  "6292402": {
    "zipcode": "6292402",
    "prefectureCode": "26",
    "prefectureNumber": 26,
    "prefecture": "京都府",
    "city": "与謝郡与謝野町",
    "town": "算所"
  },
  "6292403": {
    "zipcode": "6292403",
    "prefectureCode": "26",
    "prefectureNumber": 26,
    "prefecture": "京都府",
    "city": "与謝郡与謝野町",
    "town": "加悦"
  },
  "6292404": {
    "zipcode": "6292404",
    "prefectureCode": "26",
    "prefectureNumber": 26,
    "prefecture": "京都府",
    "city": "与謝郡与謝野町",
    "town": "後野"
  },
  "6292411": {
    "zipcode": "6292411",
    "prefectureCode": "26",
    "prefectureNumber": 26,
    "prefecture": "京都府",
    "city": "与謝郡与謝野町",
    "town": "明石"
  },
  "6292412": {
    "zipcode": "6292412",
    "prefectureCode": "26",
    "prefectureNumber": 26,
    "prefecture": "京都府",
    "city": "与謝郡与謝野町",
    "town": "香河"
  },
  "6292413": {
    "zipcode": "6292413",
    "prefectureCode": "26",
    "prefectureNumber": 26,
    "prefecture": "京都府",
    "city": "与謝郡与謝野町",
    "town": "温江"
  },
  "6292421": {
    "zipcode": "6292421",
    "prefectureCode": "26",
    "prefectureNumber": 26,
    "prefecture": "京都府",
    "city": "与謝郡与謝野町",
    "town": "金屋"
  },
  "6292422": {
    "zipcode": "6292422",
    "prefectureCode": "26",
    "prefectureNumber": 26,
    "prefecture": "京都府",
    "city": "与謝郡与謝野町",
    "town": "滝"
  },
  "6292423": {
    "zipcode": "6292423",
    "prefectureCode": "26",
    "prefectureNumber": 26,
    "prefecture": "京都府",
    "city": "与謝郡与謝野町",
    "town": "与謝"
  },
  "6292501": {
    "zipcode": "6292501",
    "prefectureCode": "26",
    "prefectureNumber": 26,
    "prefecture": "京都府",
    "city": "京丹後市",
    "town": "大宮町口大野"
  },
  "6292502": {
    "zipcode": "6292502",
    "prefectureCode": "26",
    "prefectureNumber": 26,
    "prefecture": "京都府",
    "city": "京丹後市",
    "town": "大宮町河辺"
  },
  "6292503": {
    "zipcode": "6292503",
    "prefectureCode": "26",
    "prefectureNumber": 26,
    "prefecture": "京都府",
    "city": "京丹後市",
    "town": "大宮町周枳"
  },
  "6292504": {
    "zipcode": "6292504",
    "prefectureCode": "26",
    "prefectureNumber": 26,
    "prefecture": "京都府",
    "city": "京丹後市",
    "town": "大宮町善王寺"
  },
  "6292511": {
    "zipcode": "6292511",
    "prefectureCode": "26",
    "prefectureNumber": 26,
    "prefecture": "京都府",
    "city": "京丹後市",
    "town": "大宮町久住"
  },
  "6292512": {
    "zipcode": "6292512",
    "prefectureCode": "26",
    "prefectureNumber": 26,
    "prefecture": "京都府",
    "city": "京丹後市",
    "town": "大宮町五十河"
  },
  "6292513": {
    "zipcode": "6292513",
    "prefectureCode": "26",
    "prefectureNumber": 26,
    "prefecture": "京都府",
    "city": "京丹後市",
    "town": "大宮町延利"
  },
  "6292514": {
    "zipcode": "6292514",
    "prefectureCode": "26",
    "prefectureNumber": 26,
    "prefecture": "京都府",
    "city": "京丹後市",
    "town": "大宮町明田"
  },
  "6292515": {
    "zipcode": "6292515",
    "prefectureCode": "26",
    "prefectureNumber": 26,
    "prefecture": "京都府",
    "city": "京丹後市",
    "town": "大宮町新宮"
  },
  "6292521": {
    "zipcode": "6292521",
    "prefectureCode": "26",
    "prefectureNumber": 26,
    "prefecture": "京都府",
    "city": "京丹後市",
    "town": "大宮町森本"
  },
  "6292522": {
    "zipcode": "6292522",
    "prefectureCode": "26",
    "prefectureNumber": 26,
    "prefecture": "京都府",
    "city": "京丹後市",
    "town": "大宮町三重"
  },
  "6292523": {
    "zipcode": "6292523",
    "prefectureCode": "26",
    "prefectureNumber": 26,
    "prefecture": "京都府",
    "city": "京丹後市",
    "town": "大宮町三坂"
  },
  "6292531": {
    "zipcode": "6292531",
    "prefectureCode": "26",
    "prefectureNumber": 26,
    "prefecture": "京都府",
    "city": "京丹後市",
    "town": "大宮町奥大野"
  },
  "6292532": {
    "zipcode": "6292532",
    "prefectureCode": "26",
    "prefectureNumber": 26,
    "prefecture": "京都府",
    "city": "京丹後市",
    "town": "大宮町谷内"
  },
  "6292533": {
    "zipcode": "6292533",
    "prefectureCode": "26",
    "prefectureNumber": 26,
    "prefecture": "京都府",
    "city": "京丹後市",
    "town": "大宮町上常吉"
  },
  "6292534": {
    "zipcode": "6292534",
    "prefectureCode": "26",
    "prefectureNumber": 26,
    "prefecture": "京都府",
    "city": "京丹後市",
    "town": "大宮町下常吉"
  },
  "6293101": {
    "zipcode": "6293101",
    "prefectureCode": "26",
    "prefectureNumber": 26,
    "prefecture": "京都府",
    "city": "京丹後市",
    "town": "網野町網野"
  },
  "6293102": {
    "zipcode": "6293102",
    "prefectureCode": "26",
    "prefectureNumber": 26,
    "prefecture": "京都府",
    "city": "京丹後市",
    "town": "網野町下岡"
  },
  "6293103": {
    "zipcode": "6293103",
    "prefectureCode": "26",
    "prefectureNumber": 26,
    "prefecture": "京都府",
    "city": "京丹後市",
    "town": "網野町磯"
  },
  "6293104": {
    "zipcode": "6293104",
    "prefectureCode": "26",
    "prefectureNumber": 26,
    "prefecture": "京都府",
    "city": "京丹後市",
    "town": "網野町浅茂川"
  },
  "6293111": {
    "zipcode": "6293111",
    "prefectureCode": "26",
    "prefectureNumber": 26,
    "prefecture": "京都府",
    "city": "京丹後市",
    "town": "網野町三津"
  },
  "6293112": {
    "zipcode": "6293112",
    "prefectureCode": "26",
    "prefectureNumber": 26,
    "prefecture": "京都府",
    "city": "京丹後市",
    "town": "網野町掛津"
  },
  "6293113": {
    "zipcode": "6293113",
    "prefectureCode": "26",
    "prefectureNumber": 26,
    "prefecture": "京都府",
    "city": "京丹後市",
    "town": "網野町小浜"
  },
  "6293121": {
    "zipcode": "6293121",
    "prefectureCode": "26",
    "prefectureNumber": 26,
    "prefecture": "京都府",
    "city": "京丹後市",
    "town": "網野町島津"
  },
  "6293122": {
    "zipcode": "6293122",
    "prefectureCode": "26",
    "prefectureNumber": 26,
    "prefecture": "京都府",
    "city": "京丹後市",
    "town": "網野町仲禅寺"
  },
  "6293131": {
    "zipcode": "6293131",
    "prefectureCode": "26",
    "prefectureNumber": 26,
    "prefecture": "京都府",
    "city": "京丹後市",
    "town": "網野町高橋"
  },
  "6293132": {
    "zipcode": "6293132",
    "prefectureCode": "26",
    "prefectureNumber": 26,
    "prefecture": "京都府",
    "city": "京丹後市",
    "town": "網野町公庄"
  },
  "6293133": {
    "zipcode": "6293133",
    "prefectureCode": "26",
    "prefectureNumber": 26,
    "prefecture": "京都府",
    "city": "京丹後市",
    "town": "網野町郷"
  },
  "6293134": {
    "zipcode": "6293134",
    "prefectureCode": "26",
    "prefectureNumber": 26,
    "prefecture": "京都府",
    "city": "京丹後市",
    "town": "網野町生野内"
  },
  "6293135": {
    "zipcode": "6293135",
    "prefectureCode": "26",
    "prefectureNumber": 26,
    "prefecture": "京都府",
    "city": "京丹後市",
    "town": "網野町切畑"
  },
  "6293136": {
    "zipcode": "6293136",
    "prefectureCode": "26",
    "prefectureNumber": 26,
    "prefecture": "京都府",
    "city": "京丹後市",
    "town": "網野町新庄"
  },
  "6293241": {
    "zipcode": "6293241",
    "prefectureCode": "26",
    "prefectureNumber": 26,
    "prefecture": "京都府",
    "city": "京丹後市",
    "town": "網野町木津"
  },
  "6293242": {
    "zipcode": "6293242",
    "prefectureCode": "26",
    "prefectureNumber": 26,
    "prefecture": "京都府",
    "city": "京丹後市",
    "town": "網野町日和田"
  },
  "6293243": {
    "zipcode": "6293243",
    "prefectureCode": "26",
    "prefectureNumber": 26,
    "prefecture": "京都府",
    "city": "京丹後市",
    "town": "網野町溝野"
  },
  "6293244": {
    "zipcode": "6293244",
    "prefectureCode": "26",
    "prefectureNumber": 26,
    "prefecture": "京都府",
    "city": "京丹後市",
    "town": "網野町俵野"
  },
  "6293245": {
    "zipcode": "6293245",
    "prefectureCode": "26",
    "prefectureNumber": 26,
    "prefecture": "京都府",
    "city": "京丹後市",
    "town": "網野町浜詰"
  },
  "6293246": {
    "zipcode": "6293246",
    "prefectureCode": "26",
    "prefectureNumber": 26,
    "prefecture": "京都府",
    "city": "京丹後市",
    "town": "網野町塩江"
  },
  "6293401": {
    "zipcode": "6293401",
    "prefectureCode": "26",
    "prefectureNumber": 26,
    "prefecture": "京都府",
    "city": "京丹後市",
    "town": "久美浜町十楽"
  },
  "6293402": {
    "zipcode": "6293402",
    "prefectureCode": "26",
    "prefectureNumber": 26,
    "prefecture": "京都府",
    "city": "京丹後市",
    "town": "久美浜町仲町"
  },
  "6293403": {
    "zipcode": "6293403",
    "prefectureCode": "26",
    "prefectureNumber": 26,
    "prefecture": "京都府",
    "city": "京丹後市",
    "town": "久美浜町向町"
  },
  "6293404": {
    "zipcode": "6293404",
    "prefectureCode": "26",
    "prefectureNumber": 26,
    "prefecture": "京都府",
    "city": "京丹後市",
    "town": "久美浜町土居"
  },
  "6293405": {
    "zipcode": "6293405",
    "prefectureCode": "26",
    "prefectureNumber": 26,
    "prefecture": "京都府",
    "city": "京丹後市",
    "town": "久美浜町栄町"
  },
  "6293406": {
    "zipcode": "6293406",
    "prefectureCode": "26",
    "prefectureNumber": 26,
    "prefecture": "京都府",
    "city": "京丹後市",
    "town": "久美浜町東本町"
  },
  "6293407": {
    "zipcode": "6293407",
    "prefectureCode": "26",
    "prefectureNumber": 26,
    "prefecture": "京都府",
    "city": "京丹後市",
    "town": "久美浜町新橋"
  },
  "6293408": {
    "zipcode": "6293408",
    "prefectureCode": "26",
    "prefectureNumber": 26,
    "prefecture": "京都府",
    "city": "京丹後市",
    "town": "久美浜町新町"
  },
  "6293409": {
    "zipcode": "6293409",
    "prefectureCode": "26",
    "prefectureNumber": 26,
    "prefecture": "京都府",
    "city": "京丹後市",
    "town": "久美浜町西本町"
  },
  "6293410": {
    "zipcode": "6293410",
    "prefectureCode": "26",
    "prefectureNumber": 26,
    "prefecture": "京都府",
    "city": "京丹後市",
    "town": "久美浜町"
  },
  "6293411": {
    "zipcode": "6293411",
    "prefectureCode": "26",
    "prefectureNumber": 26,
    "prefecture": "京都府",
    "city": "京丹後市",
    "town": "久美浜町栃谷"
  },
  "6293412": {
    "zipcode": "6293412",
    "prefectureCode": "26",
    "prefectureNumber": 26,
    "prefecture": "京都府",
    "city": "京丹後市",
    "town": "久美浜町三谷"
  },
  "6293413": {
    "zipcode": "6293413",
    "prefectureCode": "26",
    "prefectureNumber": 26,
    "prefecture": "京都府",
    "city": "京丹後市",
    "town": "久美浜町口馬地"
  },
  "6293414": {
    "zipcode": "6293414",
    "prefectureCode": "26",
    "prefectureNumber": 26,
    "prefecture": "京都府",
    "city": "京丹後市",
    "town": "久美浜町奥馬地"
  },
  "6293415": {
    "zipcode": "6293415",
    "prefectureCode": "26",
    "prefectureNumber": 26,
    "prefecture": "京都府",
    "city": "京丹後市",
    "town": "久美浜町河梨"
  },
  "6293416": {
    "zipcode": "6293416",
    "prefectureCode": "26",
    "prefectureNumber": 26,
    "prefecture": "京都府",
    "city": "京丹後市",
    "town": "久美浜町神谷"
  },
  "6293421": {
    "zipcode": "6293421",
    "prefectureCode": "26",
    "prefectureNumber": 26,
    "prefecture": "京都府",
    "city": "京丹後市",
    "town": "久美浜町葛野"
  },
  "6293422": {
    "zipcode": "6293422",
    "prefectureCode": "26",
    "prefectureNumber": 26,
    "prefecture": "京都府",
    "city": "京丹後市",
    "town": "久美浜町湊宮"
  },
  "6293423": {
    "zipcode": "6293423",
    "prefectureCode": "26",
    "prefectureNumber": 26,
    "prefecture": "京都府",
    "city": "京丹後市",
    "town": "久美浜町大向"
  },
  "6293424": {
    "zipcode": "6293424",
    "prefectureCode": "26",
    "prefectureNumber": 26,
    "prefecture": "京都府",
    "city": "京丹後市",
    "town": "久美浜町蒲井"
  },
  "6293431": {
    "zipcode": "6293431",
    "prefectureCode": "26",
    "prefectureNumber": 26,
    "prefecture": "京都府",
    "city": "京丹後市",
    "town": "久美浜町鹿野"
  },
  "6293432": {
    "zipcode": "6293432",
    "prefectureCode": "26",
    "prefectureNumber": 26,
    "prefecture": "京都府",
    "city": "京丹後市",
    "town": "久美浜町平田"
  },
  "6293433": {
    "zipcode": "6293433",
    "prefectureCode": "26",
    "prefectureNumber": 26,
    "prefecture": "京都府",
    "city": "京丹後市",
    "town": "久美浜町三分"
  },
  "6293434": {
    "zipcode": "6293434",
    "prefectureCode": "26",
    "prefectureNumber": 26,
    "prefecture": "京都府",
    "city": "京丹後市",
    "town": "久美浜町三原"
  },
  "6293435": {
    "zipcode": "6293435",
    "prefectureCode": "26",
    "prefectureNumber": 26,
    "prefecture": "京都府",
    "city": "京丹後市",
    "town": "久美浜町壱分"
  },
  "6293436": {
    "zipcode": "6293436",
    "prefectureCode": "26",
    "prefectureNumber": 26,
    "prefecture": "京都府",
    "city": "京丹後市",
    "town": "久美浜町大井"
  },
  "6293437": {
    "zipcode": "6293437",
    "prefectureCode": "26",
    "prefectureNumber": 26,
    "prefecture": "京都府",
    "city": "京丹後市",
    "town": "久美浜町関"
  },
  "6293438": {
    "zipcode": "6293438",
    "prefectureCode": "26",
    "prefectureNumber": 26,
    "prefecture": "京都府",
    "city": "京丹後市",
    "town": "久美浜町長柄"
  },
  "6293441": {
    "zipcode": "6293441",
    "prefectureCode": "26",
    "prefectureNumber": 26,
    "prefecture": "京都府",
    "city": "京丹後市",
    "town": "久美浜町神崎"
  },
  "6293442": {
    "zipcode": "6293442",
    "prefectureCode": "26",
    "prefectureNumber": 26,
    "prefecture": "京都府",
    "city": "京丹後市",
    "town": "久美浜町甲山"
  },
  "6293443": {
    "zipcode": "6293443",
    "prefectureCode": "26",
    "prefectureNumber": 26,
    "prefecture": "京都府",
    "city": "京丹後市",
    "town": "久美浜町海士"
  },
  "6293444": {
    "zipcode": "6293444",
    "prefectureCode": "26",
    "prefectureNumber": 26,
    "prefecture": "京都府",
    "city": "京丹後市",
    "town": "久美浜町橋爪"
  },
  "6293445": {
    "zipcode": "6293445",
    "prefectureCode": "26",
    "prefectureNumber": 26,
    "prefecture": "京都府",
    "city": "京丹後市",
    "town": "久美浜町島"
  },
  "6293446": {
    "zipcode": "6293446",
    "prefectureCode": "26",
    "prefectureNumber": 26,
    "prefecture": "京都府",
    "city": "京丹後市",
    "town": "久美浜町品田"
  },
  "6293447": {
    "zipcode": "6293447",
    "prefectureCode": "26",
    "prefectureNumber": 26,
    "prefecture": "京都府",
    "city": "京丹後市",
    "town": "久美浜町友重"
  },
  "6293448": {
    "zipcode": "6293448",
    "prefectureCode": "26",
    "prefectureNumber": 26,
    "prefecture": "京都府",
    "city": "京丹後市",
    "town": "久美浜町坂井"
  },
  "6293449": {
    "zipcode": "6293449",
    "prefectureCode": "26",
    "prefectureNumber": 26,
    "prefecture": "京都府",
    "city": "京丹後市",
    "town": "久美浜町油池"
  },
  "6293551": {
    "zipcode": "6293551",
    "prefectureCode": "26",
    "prefectureNumber": 26,
    "prefecture": "京都府",
    "city": "京丹後市",
    "town": "久美浜町永留"
  },
  "6293552": {
    "zipcode": "6293552",
    "prefectureCode": "26",
    "prefectureNumber": 26,
    "prefecture": "京都府",
    "city": "京丹後市",
    "town": "久美浜町女布"
  },
  "6293553": {
    "zipcode": "6293553",
    "prefectureCode": "26",
    "prefectureNumber": 26,
    "prefecture": "京都府",
    "city": "京丹後市",
    "town": "久美浜町長野"
  },
  "6293554": {
    "zipcode": "6293554",
    "prefectureCode": "26",
    "prefectureNumber": 26,
    "prefecture": "京都府",
    "city": "京丹後市",
    "town": "久美浜町坂谷"
  },
  "6293555": {
    "zipcode": "6293555",
    "prefectureCode": "26",
    "prefectureNumber": 26,
    "prefecture": "京都府",
    "city": "京丹後市",
    "town": "久美浜町円頓寺"
  },
  "6293556": {
    "zipcode": "6293556",
    "prefectureCode": "26",
    "prefectureNumber": 26,
    "prefecture": "京都府",
    "city": "京丹後市",
    "town": "久美浜町郷"
  },
  "6293557": {
    "zipcode": "6293557",
    "prefectureCode": "26",
    "prefectureNumber": 26,
    "prefecture": "京都府",
    "city": "京丹後市",
    "town": "久美浜町竹藤"
  },
  "6293558": {
    "zipcode": "6293558",
    "prefectureCode": "26",
    "prefectureNumber": 26,
    "prefecture": "京都府",
    "city": "京丹後市",
    "town": "久美浜町丸山"
  },
  "6293559": {
    "zipcode": "6293559",
    "prefectureCode": "26",
    "prefectureNumber": 26,
    "prefecture": "京都府",
    "city": "京丹後市",
    "town": "久美浜町谷"
  },
  "6293561": {
    "zipcode": "6293561",
    "prefectureCode": "26",
    "prefectureNumber": 26,
    "prefecture": "京都府",
    "city": "京丹後市",
    "town": "久美浜町野中"
  },
  "6293562": {
    "zipcode": "6293562",
    "prefectureCode": "26",
    "prefectureNumber": 26,
    "prefecture": "京都府",
    "city": "京丹後市",
    "town": "久美浜町佐野"
  },
  "6293563": {
    "zipcode": "6293563",
    "prefectureCode": "26",
    "prefectureNumber": 26,
    "prefecture": "京都府",
    "city": "京丹後市",
    "town": "久美浜町二俣"
  },
  "6293564": {
    "zipcode": "6293564",
    "prefectureCode": "26",
    "prefectureNumber": 26,
    "prefecture": "京都府",
    "city": "京丹後市",
    "town": "久美浜町尉ケ畑"
  },
  "6293565": {
    "zipcode": "6293565",
    "prefectureCode": "26",
    "prefectureNumber": 26,
    "prefecture": "京都府",
    "city": "京丹後市",
    "town": "久美浜町小桑"
  },
  "6293566": {
    "zipcode": "6293566",
    "prefectureCode": "26",
    "prefectureNumber": 26,
    "prefecture": "京都府",
    "city": "京丹後市",
    "town": "久美浜町安養寺"
  },
  "6293570": {
    "zipcode": "6293570",
    "prefectureCode": "26",
    "prefectureNumber": 26,
    "prefecture": "京都府",
    "city": "京丹後市",
    "town": "久美浜町新庄"
  },
  "6293571": {
    "zipcode": "6293571",
    "prefectureCode": "26",
    "prefectureNumber": 26,
    "prefecture": "京都府",
    "city": "京丹後市",
    "town": "久美浜町芦原"
  },
  "6293572": {
    "zipcode": "6293572",
    "prefectureCode": "26",
    "prefectureNumber": 26,
    "prefecture": "京都府",
    "city": "京丹後市",
    "town": "久美浜町新谷"
  },
  "6293573": {
    "zipcode": "6293573",
    "prefectureCode": "26",
    "prefectureNumber": 26,
    "prefecture": "京都府",
    "city": "京丹後市",
    "town": "久美浜町出角"
  },
  "6293574": {
    "zipcode": "6293574",
    "prefectureCode": "26",
    "prefectureNumber": 26,
    "prefecture": "京都府",
    "city": "京丹後市",
    "town": "久美浜町市場"
  },
  "6293575": {
    "zipcode": "6293575",
    "prefectureCode": "26",
    "prefectureNumber": 26,
    "prefecture": "京都府",
    "city": "京丹後市",
    "town": "久美浜町金谷"
  },
  "6293576": {
    "zipcode": "6293576",
    "prefectureCode": "26",
    "prefectureNumber": 26,
    "prefecture": "京都府",
    "city": "京丹後市",
    "town": "久美浜町市野々"
  },
  "6293577": {
    "zipcode": "6293577",
    "prefectureCode": "26",
    "prefectureNumber": 26,
    "prefecture": "京都府",
    "city": "京丹後市",
    "town": "久美浜町布袋野"
  },
  "6293578": {
    "zipcode": "6293578",
    "prefectureCode": "26",
    "prefectureNumber": 26,
    "prefecture": "京都府",
    "city": "京丹後市",
    "town": "久美浜町畑"
  },
  "6293579": {
    "zipcode": "6293579",
    "prefectureCode": "26",
    "prefectureNumber": 26,
    "prefecture": "京都府",
    "city": "京丹後市",
    "town": "久美浜町須田"
  }
}
