{
  "6330000": {
    "zipcode": "6330000",
    "prefectureCode": "29",
    "prefectureNumber": 29,
    "prefecture": "奈良県",
    "city": "桜井市",
    "town": "以下に掲載がない場合"
  },
  "6330001": {
    "zipcode": "6330001",
    "prefectureCode": "29",
    "prefectureNumber": 29,
    "prefecture": "奈良県",
    "city": "桜井市",
    "town": "三輪"
  },
  "6330002": {
    "zipcode": "6330002",
    "prefectureCode": "29",
    "prefectureNumber": 29,
    "prefecture": "奈良県",
    "city": "桜井市",
    "town": "金屋"
  },
  "6330003": {
    "zipcode": "6330003",
    "prefectureCode": "29",
    "prefectureNumber": 29,
    "prefecture": "奈良県",
    "city": "桜井市",
    "town": "朝倉台東"
  },
  "6330004": {
    "zipcode": "6330004",
    "prefectureCode": "29",
    "prefectureNumber": 29,
    "prefecture": "奈良県",
    "city": "桜井市",
    "town": "朝倉台西"
  },
  "6330005": {
    "zipcode": "6330005",
    "prefectureCode": "29",
    "prefectureNumber": 29,
    "prefecture": "奈良県",
    "city": "桜井市",
    "town": "忍阪"
  },
  "6330006": {
    "zipcode": "6330006",
    "prefectureCode": "29",
    "prefectureNumber": 29,
    "prefecture": "奈良県",
    "city": "桜井市",
    "town": "赤尾"
  },
  "6330007": {
    "zipcode": "6330007",
    "prefectureCode": "29",
    "prefectureNumber": 29,
    "prefecture": "奈良県",
    "city": "桜井市",
    "town": "外山"
  },
  "6330011": {
    "zipcode": "6330011",
    "prefectureCode": "29",
    "prefectureNumber": 29,
    "prefecture": "奈良県",
    "city": "桜井市",
    "town": "黒崎"
  },
  "6330012": {
    "zipcode": "6330012",
    "prefectureCode": "29",
    "prefectureNumber": 29,
    "prefecture": "奈良県",
    "city": "桜井市",
    "town": "狛"
  },
  "6330013": {
    "zipcode": "6330013",
    "prefectureCode": "29",
    "prefectureNumber": 29,
    "prefecture": "奈良県",
    "city": "桜井市",
    "town": "岩坂"
  },
  "6330014": {
    "zipcode": "6330014",
    "prefectureCode": "29",
    "prefectureNumber": 29,
    "prefecture": "奈良県",
    "city": "桜井市",
    "town": "粟原"
  },
  "6330015": {
    "zipcode": "6330015",
    "prefectureCode": "29",
    "prefectureNumber": 29,
    "prefecture": "奈良県",
    "city": "桜井市",
    "town": "下り尾"
  },
  "6330016": {
    "zipcode": "6330016",
    "prefectureCode": "29",
    "prefectureNumber": 29,
    "prefecture": "奈良県",
    "city": "桜井市",
    "town": "竜谷"
  },
  "6330017": {
    "zipcode": "6330017",
    "prefectureCode": "29",
    "prefectureNumber": 29,
    "prefecture": "奈良県",
    "city": "桜井市",
    "town": "慈恩寺"
  },
  "6330018": {
    "zipcode": "6330018",
    "prefectureCode": "29",
    "prefectureNumber": 29,
    "prefecture": "奈良県",
    "city": "桜井市",
    "town": "脇本"
  },
  "6330021": {
    "zipcode": "6330021",
    "prefectureCode": "29",
    "prefectureNumber": 29,
    "prefecture": "奈良県",
    "city": "桜井市",
    "town": "倉橋"
  },
  "6330022": {
    "zipcode": "6330022",
    "prefectureCode": "29",
    "prefectureNumber": 29,
    "prefecture": "奈良県",
    "city": "桜井市",
    "town": "北音羽"
  },
  "6330023": {
    "zipcode": "6330023",
    "prefectureCode": "29",
    "prefectureNumber": 29,
    "prefecture": "奈良県",
    "city": "桜井市",
    "town": "南音羽"
  },
  "6330024": {
    "zipcode": "6330024",
    "prefectureCode": "29",
    "prefectureNumber": 29,
    "prefecture": "奈良県",
    "city": "桜井市",
    "town": "針道"
  },
  "6330025": {
    "zipcode": "6330025",
    "prefectureCode": "29",
    "prefectureNumber": 29,
    "prefecture": "奈良県",
    "city": "桜井市",
    "town": "八井内"
  },
  "6330026": {
    "zipcode": "6330026",
    "prefectureCode": "29",
    "prefectureNumber": 29,
    "prefecture": "奈良県",
    "city": "桜井市",
    "town": "飯盛塚"
  },
  "6330027": {
    "zipcode": "6330027",
    "prefectureCode": "29",
    "prefectureNumber": 29,
    "prefecture": "奈良県",
    "city": "桜井市",
    "town": "鹿路"
  },
  "6330028": {
    "zipcode": "6330028",
    "prefectureCode": "29",
    "prefectureNumber": 29,
    "prefecture": "奈良県",
    "city": "桜井市",
    "town": "百市"
  },
  "6330031": {
    "zipcode": "6330031",
    "prefectureCode": "29",
    "prefectureNumber": 29,
    "prefecture": "奈良県",
    "city": "桜井市",
    "town": "下居"
  },
  "6330032": {
    "zipcode": "6330032",
    "prefectureCode": "29",
    "prefectureNumber": 29,
    "prefecture": "奈良県",
    "city": "桜井市",
    "town": "多武峰"
  },
  "6330033": {
    "zipcode": "6330033",
    "prefectureCode": "29",
    "prefectureNumber": 29,
    "prefecture": "奈良県",
    "city": "桜井市",
    "town": "西口"
  },
  "6330034": {
    "zipcode": "6330034",
    "prefectureCode": "29",
    "prefectureNumber": 29,
    "prefecture": "奈良県",
    "city": "桜井市",
    "town": "北山"
  },
  "6330035": {
    "zipcode": "6330035",
    "prefectureCode": "29",
    "prefectureNumber": 29,
    "prefecture": "奈良県",
    "city": "桜井市",
    "town": "今井谷"
  },
  "6330036": {
    "zipcode": "6330036",
    "prefectureCode": "29",
    "prefectureNumber": 29,
    "prefecture": "奈良県",
    "city": "桜井市",
    "town": "横柿"
  },
  "6330041": {
    "zipcode": "6330041",
    "prefectureCode": "29",
    "prefectureNumber": 29,
    "prefecture": "奈良県",
    "city": "桜井市",
    "town": "上之宮"
  },
  "6330042": {
    "zipcode": "6330042",
    "prefectureCode": "29",
    "prefectureNumber": 29,
    "prefecture": "奈良県",
    "city": "桜井市",
    "town": "下"
  },
  "6330043": {
    "zipcode": "6330043",
    "prefectureCode": "29",
    "prefectureNumber": 29,
    "prefecture": "奈良県",
    "city": "桜井市",
    "town": "高田"
  },
  "6330044": {
    "zipcode": "6330044",
    "prefectureCode": "29",
    "prefectureNumber": 29,
    "prefecture": "奈良県",
    "city": "桜井市",
    "town": "高家"
  },
  "6330045": {
    "zipcode": "6330045",
    "prefectureCode": "29",
    "prefectureNumber": 29,
    "prefecture": "奈良県",
    "city": "桜井市",
    "town": "山田"
  },
  "6330046": {
    "zipcode": "6330046",
    "prefectureCode": "29",
    "prefectureNumber": 29,
    "prefecture": "奈良県",
    "city": "桜井市",
    "town": "池之内"
  },
  "6330047": {
    "zipcode": "6330047",
    "prefectureCode": "29",
    "prefectureNumber": 29,
    "prefecture": "奈良県",
    "city": "桜井市",
    "town": "橋本"
  },
  "6330048": {
    "zipcode": "6330048",
    "prefectureCode": "29",
    "prefectureNumber": 29,
    "prefecture": "奈良県",
    "city": "桜井市",
    "town": "生田"
  },
  "6330051": {
    "zipcode": "6330051",
    "prefectureCode": "29",
    "prefectureNumber": 29,
    "prefecture": "奈良県",
    "city": "桜井市",
    "town": "河西"
  },
  "6330052": {
    "zipcode": "6330052",
    "prefectureCode": "29",
    "prefectureNumber": 29,
    "prefecture": "奈良県",
    "city": "桜井市",
    "town": "浅古"
  },
  "6330053": {
    "zipcode": "6330053",
    "prefectureCode": "29",
    "prefectureNumber": 29,
    "prefecture": "奈良県",
    "city": "桜井市",
    "town": "谷"
  },
  "6330054": {
    "zipcode": "6330054",
    "prefectureCode": "29",
    "prefectureNumber": 29,
    "prefecture": "奈良県",
    "city": "桜井市",
    "town": "阿部"
  },
  "6330055": {
    "zipcode": "6330055",
    "prefectureCode": "29",
    "prefectureNumber": 29,
    "prefecture": "奈良県",
    "city": "桜井市",
    "town": "安倍木材団地"
  },
  "6330061": {
    "zipcode": "6330061",
    "prefectureCode": "29",
    "prefectureNumber": 29,
    "prefecture": "奈良県",
    "city": "桜井市",
    "town": "上之庄"
  },
  "6330062": {
    "zipcode": "6330062",
    "prefectureCode": "29",
    "prefectureNumber": 29,
    "prefecture": "奈良県",
    "city": "桜井市",
    "town": "粟殿"
  },
  "6330063": {
    "zipcode": "6330063",
    "prefectureCode": "29",
    "prefectureNumber": 29,
    "prefecture": "奈良県",
    "city": "桜井市",
    "town": "川合"
  },
  "6330064": {
    "zipcode": "6330064",
    "prefectureCode": "29",
    "prefectureNumber": 29,
    "prefecture": "奈良県",
    "city": "桜井市",
    "town": "戒重"
  },
  "6330065": {
    "zipcode": "6330065",
    "prefectureCode": "29",
    "prefectureNumber": 29,
    "prefecture": "奈良県",
    "city": "桜井市",
    "town": "吉備"
  },
  "6330066": {
    "zipcode": "6330066",
    "prefectureCode": "29",
    "prefectureNumber": 29,
    "prefecture": "奈良県",
    "city": "桜井市",
    "town": "西之宮"
  },
  "6330067": {
    "zipcode": "6330067",
    "prefectureCode": "29",
    "prefectureNumber": 29,
    "prefecture": "奈良県",
    "city": "桜井市",
    "town": "大福"
  },
  "6330068": {
    "zipcode": "6330068",
    "prefectureCode": "29",
    "prefectureNumber": 29,
    "prefecture": "奈良県",
    "city": "桜井市",
    "town": "東新堂"
  },
  "6330071": {
    "zipcode": "6330071",
    "prefectureCode": "29",
    "prefectureNumber": 29,
    "prefecture": "奈良県",
    "city": "桜井市",
    "town": "穴師"
  },
  "6330072": {
    "zipcode": "6330072",
    "prefectureCode": "29",
    "prefectureNumber": 29,
    "prefecture": "奈良県",
    "city": "桜井市",
    "town": "箸中"
  },
  "6330073": {
    "zipcode": "6330073",
    "prefectureCode": "29",
    "prefectureNumber": 29,
    "prefecture": "奈良県",
    "city": "桜井市",
    "town": "茅原"
  },
  "6330074": {
    "zipcode": "6330074",
    "prefectureCode": "29",
    "prefectureNumber": 29,
    "prefecture": "奈良県",
    "city": "桜井市",
    "town": "芝"
  },
  "6330075": {
    "zipcode": "6330075",
    "prefectureCode": "29",
    "prefectureNumber": 29,
    "prefecture": "奈良県",
    "city": "桜井市",
    "town": "新屋敷"
  },
  "6330076": {
    "zipcode": "6330076",
    "prefectureCode": "29",
    "prefectureNumber": 29,
    "prefecture": "奈良県",
    "city": "桜井市",
    "town": "大泉"
  },
  "6330077": {
    "zipcode": "6330077",
    "prefectureCode": "29",
    "prefectureNumber": 29,
    "prefecture": "奈良県",
    "city": "桜井市",
    "town": "大西"
  },
  "6330078": {
    "zipcode": "6330078",
    "prefectureCode": "29",
    "prefectureNumber": 29,
    "prefecture": "奈良県",
    "city": "桜井市",
    "town": "豊前"
  },
  "6330079": {
    "zipcode": "6330079",
    "prefectureCode": "29",
    "prefectureNumber": 29,
    "prefecture": "奈良県",
    "city": "桜井市",
    "town": "豊田"
  },
  "6330081": {
    "zipcode": "6330081",
    "prefectureCode": "29",
    "prefectureNumber": 29,
    "prefecture": "奈良県",
    "city": "桜井市",
    "town": "草川"
  },
  "6330082": {
    "zipcode": "6330082",
    "prefectureCode": "29",
    "prefectureNumber": 29,
    "prefecture": "奈良県",
    "city": "桜井市",
    "town": "巻野内"
  },
  "6330083": {
    "zipcode": "6330083",
    "prefectureCode": "29",
    "prefectureNumber": 29,
    "prefecture": "奈良県",
    "city": "桜井市",
    "town": "辻"
  },
  "6330084": {
    "zipcode": "6330084",
    "prefectureCode": "29",
    "prefectureNumber": 29,
    "prefecture": "奈良県",
    "city": "桜井市",
    "town": "太田"
  },
  "6330085": {
    "zipcode": "6330085",
    "prefectureCode": "29",
    "prefectureNumber": 29,
    "prefecture": "奈良県",
    "city": "桜井市",
    "town": "東田"
  },
  "6330086": {
    "zipcode": "6330086",
    "prefectureCode": "29",
    "prefectureNumber": 29,
    "prefecture": "奈良県",
    "city": "桜井市",
    "town": "江包"
  },
  "6330087": {
    "zipcode": "6330087",
    "prefectureCode": "29",
    "prefectureNumber": 29,
    "prefecture": "奈良県",
    "city": "桜井市",
    "town": "大豆越"
  },
  "6330091": {
    "zipcode": "6330091",
    "prefectureCode": "29",
    "prefectureNumber": 29,
    "prefecture": "奈良県",
    "city": "桜井市",
    "town": "桜井"
  },
  "6330101": {
    "zipcode": "6330101",
    "prefectureCode": "29",
    "prefectureNumber": 29,
    "prefecture": "奈良県",
    "city": "桜井市",
    "town": "小夫"
  },
  "6330102": {
    "zipcode": "6330102",
    "prefectureCode": "29",
    "prefectureNumber": 29,
    "prefecture": "奈良県",
    "city": "桜井市",
    "town": "三谷"
  },
  "6330103": {
    "zipcode": "6330103",
    "prefectureCode": "29",
    "prefectureNumber": 29,
    "prefecture": "奈良県",
    "city": "桜井市",
    "town": "小夫嵩方"
  },
  "6330104": {
    "zipcode": "6330104",
    "prefectureCode": "29",
    "prefectureNumber": 29,
    "prefecture": "奈良県",
    "city": "桜井市",
    "town": "芹井"
  },
  "6330105": {
    "zipcode": "6330105",
    "prefectureCode": "29",
    "prefectureNumber": 29,
    "prefecture": "奈良県",
    "city": "桜井市",
    "town": "白木"
  },
  "6330106": {
    "zipcode": "6330106",
    "prefectureCode": "29",
    "prefectureNumber": 29,
    "prefecture": "奈良県",
    "city": "桜井市",
    "town": "萱森"
  },
  "6330107": {
    "zipcode": "6330107",
    "prefectureCode": "29",
    "prefectureNumber": 29,
    "prefecture": "奈良県",
    "city": "桜井市",
    "town": "中谷"
  },
  "6330108": {
    "zipcode": "6330108",
    "prefectureCode": "29",
    "prefectureNumber": 29,
    "prefecture": "奈良県",
    "city": "桜井市",
    "town": "滝倉"
  },
  "6330111": {
    "zipcode": "6330111",
    "prefectureCode": "29",
    "prefectureNumber": 29,
    "prefecture": "奈良県",
    "city": "桜井市",
    "town": "吉隠"
  },
  "6330112": {
    "zipcode": "6330112",
    "prefectureCode": "29",
    "prefectureNumber": 29,
    "prefecture": "奈良県",
    "city": "桜井市",
    "town": "初瀬"
  },
  "6330121": {
    "zipcode": "6330121",
    "prefectureCode": "29",
    "prefectureNumber": 29,
    "prefecture": "奈良県",
    "city": "桜井市",
    "town": "白河"
  },
  "6330122": {
    "zipcode": "6330122",
    "prefectureCode": "29",
    "prefectureNumber": 29,
    "prefecture": "奈良県",
    "city": "桜井市",
    "town": "出雲"
  },
  "6330131": {
    "zipcode": "6330131",
    "prefectureCode": "29",
    "prefectureNumber": 29,
    "prefecture": "奈良県",
    "city": "桜井市",
    "town": "修理枝"
  },
  "6330132": {
    "zipcode": "6330132",
    "prefectureCode": "29",
    "prefectureNumber": 29,
    "prefecture": "奈良県",
    "city": "桜井市",
    "town": "和田"
  },
  "6330133": {
    "zipcode": "6330133",
    "prefectureCode": "29",
    "prefectureNumber": 29,
    "prefecture": "奈良県",
    "city": "桜井市",
    "town": "笠"
  },
  "6330200": {
    "zipcode": "6330200",
    "prefectureCode": "29",
    "prefectureNumber": 29,
    "prefecture": "奈良県",
    "city": "宇陀市",
    "town": "以下に掲載がない場合"
  },
  "6330201": {
    "zipcode": "6330201",
    "prefectureCode": "29",
    "prefectureNumber": 29,
    "prefecture": "奈良県",
    "city": "宇陀市",
    "town": "榛原戒場"
  },
  "6330202": {
    "zipcode": "6330202",
    "prefectureCode": "29",
    "prefectureNumber": 29,
    "prefecture": "奈良県",
    "city": "宇陀市",
    "town": "榛原山辺三"
  },
  "6330203": {
    "zipcode": "6330203",
    "prefectureCode": "29",
    "prefectureNumber": 29,
    "prefecture": "奈良県",
    "city": "宇陀市",
    "town": "榛原長峯"
  },
  "6330204": {
    "zipcode": "6330204",
    "prefectureCode": "29",
    "prefectureNumber": 29,
    "prefecture": "奈良県",
    "city": "宇陀市",
    "town": "榛原福地"
  },
  "6330205": {
    "zipcode": "6330205",
    "prefectureCode": "29",
    "prefectureNumber": 29,
    "prefecture": "奈良県",
    "city": "宇陀市",
    "town": "榛原天満台東"
  },
  "6330206": {
    "zipcode": "6330206",
    "prefectureCode": "29",
    "prefectureNumber": 29,
    "prefecture": "奈良県",
    "city": "宇陀市",
    "town": "榛原天満台西"
  },
  "6330207": {
    "zipcode": "6330207",
    "prefectureCode": "29",
    "prefectureNumber": 29,
    "prefecture": "奈良県",
    "city": "宇陀市",
    "town": "榛原赤瀬"
  },
  "6330208": {
    "zipcode": "6330208",
    "prefectureCode": "29",
    "prefectureNumber": 29,
    "prefecture": "奈良県",
    "city": "宇陀市",
    "town": "榛原額井"
  },
  "6330211": {
    "zipcode": "6330211",
    "prefectureCode": "29",
    "prefectureNumber": 29,
    "prefecture": "奈良県",
    "city": "宇陀市",
    "town": "榛原荷阪"
  },
  "6330212": {
    "zipcode": "6330212",
    "prefectureCode": "29",
    "prefectureNumber": 29,
    "prefecture": "奈良県",
    "city": "宇陀市",
    "town": "榛原高井"
  },
  "6330213": {
    "zipcode": "6330213",
    "prefectureCode": "29",
    "prefectureNumber": 29,
    "prefecture": "奈良県",
    "city": "宇陀市",
    "town": "榛原赤埴"
  },
  "6330214": {
    "zipcode": "6330214",
    "prefectureCode": "29",
    "prefectureNumber": 29,
    "prefecture": "奈良県",
    "city": "宇陀市",
    "town": "榛原諸木野"
  },
  "6330215": {
    "zipcode": "6330215",
    "prefectureCode": "29",
    "prefectureNumber": 29,
    "prefecture": "奈良県",
    "city": "宇陀市",
    "town": "榛原内牧"
  },
  "6330216": {
    "zipcode": "6330216",
    "prefectureCode": "29",
    "prefectureNumber": 29,
    "prefecture": "奈良県",
    "city": "宇陀市",
    "town": "榛原八滝"
  },
  "6330217": {
    "zipcode": "6330217",
    "prefectureCode": "29",
    "prefectureNumber": 29,
    "prefecture": "奈良県",
    "city": "宇陀市",
    "town": "榛原自明"
  },
  "6330218": {
    "zipcode": "6330218",
    "prefectureCode": "29",
    "prefectureNumber": 29,
    "prefecture": "奈良県",
    "city": "宇陀市",
    "town": "榛原檜牧"
  },
  "6330221": {
    "zipcode": "6330221",
    "prefectureCode": "29",
    "prefectureNumber": 29,
    "prefecture": "奈良県",
    "city": "宇陀市",
    "town": "榛原萩乃里"
  },
  "6330222": {
    "zipcode": "6330222",
    "prefectureCode": "29",
    "prefectureNumber": 29,
    "prefecture": "奈良県",
    "city": "宇陀市",
    "town": "榛原上井足"
  },
  "6330223": {
    "zipcode": "6330223",
    "prefectureCode": "29",
    "prefectureNumber": 29,
    "prefecture": "奈良県",
    "city": "宇陀市",
    "town": "榛原石田"
  },
  "6330224": {
    "zipcode": "6330224",
    "prefectureCode": "29",
    "prefectureNumber": 29,
    "prefecture": "奈良県",
    "city": "宇陀市",
    "town": "榛原山路"
  },
  "6330225": {
    "zipcode": "6330225",
    "prefectureCode": "29",
    "prefectureNumber": 29,
    "prefecture": "奈良県",
    "city": "宇陀市",
    "town": "榛原大貝"
  },
  "6330226": {
    "zipcode": "6330226",
    "prefectureCode": "29",
    "prefectureNumber": 29,
    "prefecture": "奈良県",
    "city": "宇陀市",
    "town": "榛原澤"
  },
  "6330227": {
    "zipcode": "6330227",
    "prefectureCode": "29",
    "prefectureNumber": 29,
    "prefecture": "奈良県",
    "city": "宇陀市",
    "town": "榛原三宮寺"
  },
  "6330228": {
    "zipcode": "6330228",
    "prefectureCode": "29",
    "prefectureNumber": 29,
    "prefecture": "奈良県",
    "city": "宇陀市",
    "town": "榛原栗谷"
  },
  "6330231": {
    "zipcode": "6330231",
    "prefectureCode": "29",
    "prefectureNumber": 29,
    "prefecture": "奈良県",
    "city": "宇陀市",
    "town": "榛原足立"
  },
  "6330232": {
    "zipcode": "6330232",
    "prefectureCode": "29",
    "prefectureNumber": 29,
    "prefecture": "奈良県",
    "city": "宇陀市",
    "town": "榛原池上"
  },
  "6330233": {
    "zipcode": "6330233",
    "prefectureCode": "29",
    "prefectureNumber": 29,
    "prefecture": "奈良県",
    "city": "宇陀市",
    "town": "榛原福西"
  },
  "6330234": {
    "zipcode": "6330234",
    "prefectureCode": "29",
    "prefectureNumber": 29,
    "prefecture": "奈良県",
    "city": "宇陀市",
    "town": "榛原高塚"
  },
  "6330235": {
    "zipcode": "6330235",
    "prefectureCode": "29",
    "prefectureNumber": 29,
    "prefecture": "奈良県",
    "city": "宇陀市",
    "town": "榛原比布"
  },
  "6330236": {
    "zipcode": "6330236",
    "prefectureCode": "29",
    "prefectureNumber": 29,
    "prefecture": "奈良県",
    "city": "宇陀市",
    "town": "榛原母里"
  },
  "6330241": {
    "zipcode": "6330241",
    "prefectureCode": "29",
    "prefectureNumber": 29,
    "prefecture": "奈良県",
    "city": "宇陀市",
    "town": "榛原下井足"
  },
  "6330242": {
    "zipcode": "6330242",
    "prefectureCode": "29",
    "prefectureNumber": 29,
    "prefecture": "奈良県",
    "city": "宇陀市",
    "town": "榛原篠楽"
  },
  "6330243": {
    "zipcode": "6330243",
    "prefectureCode": "29",
    "prefectureNumber": 29,
    "prefecture": "奈良県",
    "city": "宇陀市",
    "town": "榛原雨師"
  },
  "6330244": {
    "zipcode": "6330244",
    "prefectureCode": "29",
    "prefectureNumber": 29,
    "prefecture": "奈良県",
    "city": "宇陀市",
    "town": "榛原安田"
  },
  "6330245": {
    "zipcode": "6330245",
    "prefectureCode": "29",
    "prefectureNumber": 29,
    "prefecture": "奈良県",
    "city": "宇陀市",
    "town": "榛原笠間"
  },
  "6330246": {
    "zipcode": "6330246",
    "prefectureCode": "29",
    "prefectureNumber": 29,
    "prefecture": "奈良県",
    "city": "宇陀市",
    "town": "榛原柳"
  },
  "6330251": {
    "zipcode": "6330251",
    "prefectureCode": "29",
    "prefectureNumber": 29,
    "prefecture": "奈良県",
    "city": "宇陀市",
    "town": "榛原ひのき坂"
  },
  "6330252": {
    "zipcode": "6330252",
    "prefectureCode": "29",
    "prefectureNumber": 29,
    "prefecture": "奈良県",
    "city": "宇陀市",
    "town": "榛原桜が丘"
  },
  "6330253": {
    "zipcode": "6330253",
    "prefectureCode": "29",
    "prefectureNumber": 29,
    "prefecture": "奈良県",
    "city": "宇陀市",
    "town": "榛原萩原"
  },
  "6330254": {
    "zipcode": "6330254",
    "prefectureCode": "29",
    "prefectureNumber": 29,
    "prefecture": "奈良県",
    "city": "宇陀市",
    "town": "榛原高萩台"
  },
  "6330255": {
    "zipcode": "6330255",
    "prefectureCode": "29",
    "prefectureNumber": 29,
    "prefecture": "奈良県",
    "city": "宇陀市",
    "town": "榛原角柄"
  },
  "6330256": {
    "zipcode": "6330256",
    "prefectureCode": "29",
    "prefectureNumber": 29,
    "prefecture": "奈良県",
    "city": "宇陀市",
    "town": "榛原あかね台"
  },
  "6330257": {
    "zipcode": "6330257",
    "prefectureCode": "29",
    "prefectureNumber": 29,
    "prefecture": "奈良県",
    "city": "宇陀市",
    "town": "榛原榛見が丘"
  },
  "6330311": {
    "zipcode": "6330311",
    "prefectureCode": "29",
    "prefectureNumber": 29,
    "prefecture": "奈良県",
    "city": "宇陀市",
    "town": "室生龍口"
  },
  "6330312": {
    "zipcode": "6330312",
    "prefectureCode": "29",
    "prefectureNumber": 29,
    "prefecture": "奈良県",
    "city": "宇陀市",
    "town": "室生西谷"
  },
  "6330313": {
    "zipcode": "6330313",
    "prefectureCode": "29",
    "prefectureNumber": 29,
    "prefecture": "奈良県",
    "city": "宇陀市",
    "town": "室生瀧谷"
  },
  "6330314": {
    "zipcode": "6330314",
    "prefectureCode": "29",
    "prefectureNumber": 29,
    "prefecture": "奈良県",
    "city": "宇陀市",
    "town": "室生砥取"
  },
  "6330315": {
    "zipcode": "6330315",
    "prefectureCode": "29",
    "prefectureNumber": 29,
    "prefecture": "奈良県",
    "city": "宇陀市",
    "town": "室生大野"
  },
  "6330316": {
    "zipcode": "6330316",
    "prefectureCode": "29",
    "prefectureNumber": 29,
    "prefecture": "奈良県",
    "city": "宇陀市",
    "town": "室生向渕"
  },
  "6330317": {
    "zipcode": "6330317",
    "prefectureCode": "29",
    "prefectureNumber": 29,
    "prefecture": "奈良県",
    "city": "宇陀市",
    "town": "室生三本松"
  },
  "6330421": {
    "zipcode": "6330421",
    "prefectureCode": "29",
    "prefectureNumber": 29,
    "prefecture": "奈良県",
    "city": "宇陀市",
    "town": "室生"
  },
  "6330422": {
    "zipcode": "6330422",
    "prefectureCode": "29",
    "prefectureNumber": 29,
    "prefecture": "奈良県",
    "city": "宇陀市",
    "town": "室生下田口"
  },
  "6330423": {
    "zipcode": "6330423",
    "prefectureCode": "29",
    "prefectureNumber": 29,
    "prefecture": "奈良県",
    "city": "宇陀市",
    "town": "室生田口元角川"
  },
  "6330424": {
    "zipcode": "6330424",
    "prefectureCode": "29",
    "prefectureNumber": 29,
    "prefecture": "奈良県",
    "city": "宇陀市",
    "town": "室生田口元上田口"
  },
  "6330425": {
    "zipcode": "6330425",
    "prefectureCode": "29",
    "prefectureNumber": 29,
    "prefecture": "奈良県",
    "city": "宇陀市",
    "town": "室生黒岩"
  },
  "6331200": {
    "zipcode": "6331200",
    "prefectureCode": "29",
    "prefectureNumber": 29,
    "prefecture": "奈良県",
    "city": "宇陀郡曽爾村",
    "town": "以下に掲載がない場合"
  },
  "6331201": {
    "zipcode": "6331201",
    "prefectureCode": "29",
    "prefectureNumber": 29,
    "prefecture": "奈良県",
    "city": "宇陀郡曽爾村",
    "town": "伊賀見"
  },
  "6331202": {
    "zipcode": "6331202",
    "prefectureCode": "29",
    "prefectureNumber": 29,
    "prefecture": "奈良県",
    "city": "宇陀郡曽爾村",
    "town": "太良路"
  },
  "6331203": {
    "zipcode": "6331203",
    "prefectureCode": "29",
    "prefectureNumber": 29,
    "prefecture": "奈良県",
    "city": "宇陀郡曽爾村",
    "town": "葛"
  },
  "6331211": {
    "zipcode": "6331211",
    "prefectureCode": "29",
    "prefectureNumber": 29,
    "prefecture": "奈良県",
    "city": "宇陀郡曽爾村",
    "town": "塩井"
  },
  "6331212": {
    "zipcode": "6331212",
    "prefectureCode": "29",
    "prefectureNumber": 29,
    "prefecture": "奈良県",
    "city": "宇陀郡曽爾村",
    "town": "今井"
  },
  "6331213": {
    "zipcode": "6331213",
    "prefectureCode": "29",
    "prefectureNumber": 29,
    "prefecture": "奈良県",
    "city": "宇陀郡曽爾村",
    "town": "小長尾"
  },
  "6331214": {
    "zipcode": "6331214",
    "prefectureCode": "29",
    "prefectureNumber": 29,
    "prefecture": "奈良県",
    "city": "宇陀郡曽爾村",
    "town": "長野"
  },
  "6331215": {
    "zipcode": "6331215",
    "prefectureCode": "29",
    "prefectureNumber": 29,
    "prefecture": "奈良県",
    "city": "宇陀郡曽爾村",
    "town": "掛"
  },
  "6331216": {
    "zipcode": "6331216",
    "prefectureCode": "29",
    "prefectureNumber": 29,
    "prefecture": "奈良県",
    "city": "宇陀郡曽爾村",
    "town": "山粕"
  },
  "6331300": {
    "zipcode": "6331300",
    "prefectureCode": "29",
    "prefectureNumber": 29,
    "prefecture": "奈良県",
    "city": "宇陀郡御杖村",
    "town": "以下に掲載がない場合"
  },
  "6331301": {
    "zipcode": "6331301",
    "prefectureCode": "29",
    "prefectureNumber": 29,
    "prefecture": "奈良県",
    "city": "宇陀郡御杖村",
    "town": "神末"
  },
  "6331302": {
    "zipcode": "6331302",
    "prefectureCode": "29",
    "prefectureNumber": 29,
    "prefecture": "奈良県",
    "city": "宇陀郡御杖村",
    "town": "菅野"
  },
  "6331303": {
    "zipcode": "6331303",
    "prefectureCode": "29",
    "prefectureNumber": 29,
    "prefecture": "奈良県",
    "city": "宇陀郡御杖村",
    "town": "土屋原"
  },
  "6331304": {
    "zipcode": "6331304",
    "prefectureCode": "29",
    "prefectureNumber": 29,
    "prefecture": "奈良県",
    "city": "宇陀郡御杖村",
    "town": "桃俣"
  },
  "6332101": {
    "zipcode": "6332101",
    "prefectureCode": "29",
    "prefectureNumber": 29,
    "prefecture": "奈良県",
    "city": "宇陀市",
    "town": "大宇陀五津"
  },
  "6332102": {
    "zipcode": "6332102",
    "prefectureCode": "29",
    "prefectureNumber": 29,
    "prefecture": "奈良県",
    "city": "宇陀市",
    "town": "大宇陀平尾"
  },
  "6332103": {
    "zipcode": "6332103",
    "prefectureCode": "29",
    "prefectureNumber": 29,
    "prefecture": "奈良県",
    "city": "宇陀市",
    "town": "大宇陀野依"
  },
  "6332104": {
    "zipcode": "6332104",
    "prefectureCode": "29",
    "prefectureNumber": 29,
    "prefecture": "奈良県",
    "city": "宇陀市",
    "town": "大宇陀口今井"
  },
  "6332105": {
    "zipcode": "6332105",
    "prefectureCode": "29",
    "prefectureNumber": 29,
    "prefecture": "奈良県",
    "city": "宇陀市",
    "town": "大宇陀麻生田"
  },
  "6332106": {
    "zipcode": "6332106",
    "prefectureCode": "29",
    "prefectureNumber": 29,
    "prefecture": "奈良県",
    "city": "宇陀市",
    "town": "大宇陀馬取柿"
  },
  "6332107": {
    "zipcode": "6332107",
    "prefectureCode": "29",
    "prefectureNumber": 29,
    "prefecture": "奈良県",
    "city": "宇陀市",
    "town": "大宇陀嬉河原"
  },
  "6332108": {
    "zipcode": "6332108",
    "prefectureCode": "29",
    "prefectureNumber": 29,
    "prefecture": "奈良県",
    "city": "宇陀市",
    "town": "大宇陀半阪"
  },
  "6332111": {
    "zipcode": "6332111",
    "prefectureCode": "29",
    "prefectureNumber": 29,
    "prefecture": "奈良県",
    "city": "宇陀市",
    "town": "大宇陀内原"
  },
  "6332112": {
    "zipcode": "6332112",
    "prefectureCode": "29",
    "prefectureNumber": 29,
    "prefecture": "奈良県",
    "city": "宇陀市",
    "town": "大宇陀小附"
  },
  "6332113": {
    "zipcode": "6332113",
    "prefectureCode": "29",
    "prefectureNumber": 29,
    "prefecture": "奈良県",
    "city": "宇陀市",
    "town": "大宇陀下竹"
  },
  "6332114": {
    "zipcode": "6332114",
    "prefectureCode": "29",
    "prefectureNumber": 29,
    "prefecture": "奈良県",
    "city": "宇陀市",
    "town": "大宇陀春日"
  },
  "6332115": {
    "zipcode": "6332115",
    "prefectureCode": "29",
    "prefectureNumber": 29,
    "prefecture": "奈良県",
    "city": "宇陀市",
    "town": "大宇陀西山"
  },
  "6332116": {
    "zipcode": "6332116",
    "prefectureCode": "29",
    "prefectureNumber": 29,
    "prefecture": "奈良県",
    "city": "宇陀市",
    "town": "大宇陀岩室"
  },
  "6332117": {
    "zipcode": "6332117",
    "prefectureCode": "29",
    "prefectureNumber": 29,
    "prefecture": "奈良県",
    "city": "宇陀市",
    "town": "大宇陀芝生"
  },
  "6332121": {
    "zipcode": "6332121",
    "prefectureCode": "29",
    "prefectureNumber": 29,
    "prefecture": "奈良県",
    "city": "宇陀市",
    "town": "大宇陀塚脇"
  },
  "6332122": {
    "zipcode": "6332122",
    "prefectureCode": "29",
    "prefectureNumber": 29,
    "prefecture": "奈良県",
    "city": "宇陀市",
    "town": "大宇陀調子"
  },
  "6332123": {
    "zipcode": "6332123",
    "prefectureCode": "29",
    "prefectureNumber": 29,
    "prefecture": "奈良県",
    "city": "宇陀市",
    "town": "大宇陀藤井"
  },
  "6332124": {
    "zipcode": "6332124",
    "prefectureCode": "29",
    "prefectureNumber": 29,
    "prefecture": "奈良県",
    "city": "宇陀市",
    "town": "大宇陀才ケ辻"
  },
  "6332125": {
    "zipcode": "6332125",
    "prefectureCode": "29",
    "prefectureNumber": 29,
    "prefecture": "奈良県",
    "city": "宇陀市",
    "town": "大宇陀守道"
  },
  "6332126": {
    "zipcode": "6332126",
    "prefectureCode": "29",
    "prefectureNumber": 29,
    "prefecture": "奈良県",
    "city": "宇陀市",
    "town": "大宇陀岩清水"
  },
  "6332131": {
    "zipcode": "6332131",
    "prefectureCode": "29",
    "prefectureNumber": 29,
    "prefecture": "奈良県",
    "city": "宇陀市",
    "town": "大宇陀和田"
  },
  "6332132": {
    "zipcode": "6332132",
    "prefectureCode": "29",
    "prefectureNumber": 29,
    "prefecture": "奈良県",
    "city": "宇陀市",
    "town": "大宇陀下品"
  },
  "6332133": {
    "zipcode": "6332133",
    "prefectureCode": "29",
    "prefectureNumber": 29,
    "prefecture": "奈良県",
    "city": "宇陀市",
    "town": "大宇陀上品"
  },
  "6332134": {
    "zipcode": "6332134",
    "prefectureCode": "29",
    "prefectureNumber": 29,
    "prefecture": "奈良県",
    "city": "宇陀市",
    "town": "大宇陀小和田"
  },
  "6332135": {
    "zipcode": "6332135",
    "prefectureCode": "29",
    "prefectureNumber": 29,
    "prefecture": "奈良県",
    "city": "宇陀市",
    "town": "大宇陀東平尾"
  },
  "6332136": {
    "zipcode": "6332136",
    "prefectureCode": "29",
    "prefectureNumber": 29,
    "prefecture": "奈良県",
    "city": "宇陀市",
    "town": "大宇陀大熊"
  },
  "6332137": {
    "zipcode": "6332137",
    "prefectureCode": "29",
    "prefectureNumber": 29,
    "prefecture": "奈良県",
    "city": "宇陀市",
    "town": "大宇陀下片岡"
  },
  "6332138": {
    "zipcode": "6332138",
    "prefectureCode": "29",
    "prefectureNumber": 29,
    "prefecture": "奈良県",
    "city": "宇陀市",
    "town": "大宇陀白鳥居"
  },
  "6332139": {
    "zipcode": "6332139",
    "prefectureCode": "29",
    "prefectureNumber": 29,
    "prefecture": "奈良県",
    "city": "宇陀市",
    "town": "大宇陀山口"
  },
  "6332141": {
    "zipcode": "6332141",
    "prefectureCode": "29",
    "prefectureNumber": 29,
    "prefecture": "奈良県",
    "city": "宇陀市",
    "town": "大宇陀上片岡"
  },
  "6332142": {
    "zipcode": "6332142",
    "prefectureCode": "29",
    "prefectureNumber": 29,
    "prefecture": "奈良県",
    "city": "宇陀市",
    "town": "大宇陀田原"
  },
  "6332143": {
    "zipcode": "6332143",
    "prefectureCode": "29",
    "prefectureNumber": 29,
    "prefecture": "奈良県",
    "city": "宇陀市",
    "town": "大宇陀牧"
  },
  "6332144": {
    "zipcode": "6332144",
    "prefectureCode": "29",
    "prefectureNumber": 29,
    "prefecture": "奈良県",
    "city": "宇陀市",
    "town": "大宇陀栗野"
  },
  "6332151": {
    "zipcode": "6332151",
    "prefectureCode": "29",
    "prefectureNumber": 29,
    "prefecture": "奈良県",
    "city": "宇陀市",
    "town": "大宇陀大東"
  },
  "6332152": {
    "zipcode": "6332152",
    "prefectureCode": "29",
    "prefectureNumber": 29,
    "prefecture": "奈良県",
    "city": "宇陀市",
    "town": "大宇陀関戸"
  },
  "6332153": {
    "zipcode": "6332153",
    "prefectureCode": "29",
    "prefectureNumber": 29,
    "prefecture": "奈良県",
    "city": "宇陀市",
    "town": "大宇陀下宮奥"
  },
  "6332154": {
    "zipcode": "6332154",
    "prefectureCode": "29",
    "prefectureNumber": 29,
    "prefecture": "奈良県",
    "city": "宇陀市",
    "town": "大宇陀宮奥"
  },
  "6332155": {
    "zipcode": "6332155",
    "prefectureCode": "29",
    "prefectureNumber": 29,
    "prefecture": "奈良県",
    "city": "宇陀市",
    "town": "大宇陀黒木"
  },
  "6332156": {
    "zipcode": "6332156",
    "prefectureCode": "29",
    "prefectureNumber": 29,
    "prefecture": "奈良県",
    "city": "宇陀市",
    "town": "大宇陀本郷"
  },
  "6332161": {
    "zipcode": "6332161",
    "prefectureCode": "29",
    "prefectureNumber": 29,
    "prefecture": "奈良県",
    "city": "宇陀市",
    "town": "大宇陀上新"
  },
  "6332162": {
    "zipcode": "6332162",
    "prefectureCode": "29",
    "prefectureNumber": 29,
    "prefecture": "奈良県",
    "city": "宇陀市",
    "town": "大宇陀出新"
  },
  "6332163": {
    "zipcode": "6332163",
    "prefectureCode": "29",
    "prefectureNumber": 29,
    "prefecture": "奈良県",
    "city": "宇陀市",
    "town": "大宇陀万六"
  },
  "6332164": {
    "zipcode": "6332164",
    "prefectureCode": "29",
    "prefectureNumber": 29,
    "prefecture": "奈良県",
    "city": "宇陀市",
    "town": "大宇陀拾生"
  },
  "6332165": {
    "zipcode": "6332165",
    "prefectureCode": "29",
    "prefectureNumber": 29,
    "prefecture": "奈良県",
    "city": "宇陀市",
    "town": "大宇陀中庄"
  },
  "6332166": {
    "zipcode": "6332166",
    "prefectureCode": "29",
    "prefectureNumber": 29,
    "prefecture": "奈良県",
    "city": "宇陀市",
    "town": "大宇陀迫間"
  },
  "6332170": {
    "zipcode": "6332170",
    "prefectureCode": "29",
    "prefectureNumber": 29,
    "prefecture": "奈良県",
    "city": "宇陀市",
    "town": "大宇陀下茶"
  },
  "6332171": {
    "zipcode": "6332171",
    "prefectureCode": "29",
    "prefectureNumber": 29,
    "prefecture": "奈良県",
    "city": "宇陀市",
    "town": "大宇陀上茶"
  },
  "6332172": {
    "zipcode": "6332172",
    "prefectureCode": "29",
    "prefectureNumber": 29,
    "prefecture": "奈良県",
    "city": "宇陀市",
    "town": "大宇陀上本"
  },
  "6332173": {
    "zipcode": "6332173",
    "prefectureCode": "29",
    "prefectureNumber": 29,
    "prefecture": "奈良県",
    "city": "宇陀市",
    "town": "大宇陀上中"
  },
  "6332174": {
    "zipcode": "6332174",
    "prefectureCode": "29",
    "prefectureNumber": 29,
    "prefecture": "奈良県",
    "city": "宇陀市",
    "town": "大宇陀上"
  },
  "6332175": {
    "zipcode": "6332175",
    "prefectureCode": "29",
    "prefectureNumber": 29,
    "prefecture": "奈良県",
    "city": "宇陀市",
    "town": "大宇陀中新"
  },
  "6332176": {
    "zipcode": "6332176",
    "prefectureCode": "29",
    "prefectureNumber": 29,
    "prefecture": "奈良県",
    "city": "宇陀市",
    "town": "大宇陀小出口"
  },
  "6332177": {
    "zipcode": "6332177",
    "prefectureCode": "29",
    "prefectureNumber": 29,
    "prefecture": "奈良県",
    "city": "宇陀市",
    "town": "大宇陀下出口"
  },
  "6332178": {
    "zipcode": "6332178",
    "prefectureCode": "29",
    "prefectureNumber": 29,
    "prefecture": "奈良県",
    "city": "宇陀市",
    "town": "大宇陀下中"
  },
  "6332179": {
    "zipcode": "6332179",
    "prefectureCode": "29",
    "prefectureNumber": 29,
    "prefecture": "奈良県",
    "city": "宇陀市",
    "town": "大宇陀下本"
  },
  "6332201": {
    "zipcode": "6332201",
    "prefectureCode": "29",
    "prefectureNumber": 29,
    "prefecture": "奈良県",
    "city": "宇陀市",
    "town": "菟田野平井"
  },
  "6332202": {
    "zipcode": "6332202",
    "prefectureCode": "29",
    "prefectureNumber": 29,
    "prefecture": "奈良県",
    "city": "宇陀市",
    "town": "菟田野大神"
  },
  "6332203": {
    "zipcode": "6332203",
    "prefectureCode": "29",
    "prefectureNumber": 29,
    "prefecture": "奈良県",
    "city": "宇陀市",
    "town": "菟田野見田"
  },
  "6332204": {
    "zipcode": "6332204",
    "prefectureCode": "29",
    "prefectureNumber": 29,
    "prefecture": "奈良県",
    "city": "宇陀市",
    "town": "菟田野大澤"
  },
  "6332205": {
    "zipcode": "6332205",
    "prefectureCode": "29",
    "prefectureNumber": 29,
    "prefecture": "奈良県",
    "city": "宇陀市",
    "town": "菟田野別所"
  },
  "6332211": {
    "zipcode": "6332211",
    "prefectureCode": "29",
    "prefectureNumber": 29,
    "prefecture": "奈良県",
    "city": "宇陀市",
    "town": "菟田野入谷"
  },
  "6332212": {
    "zipcode": "6332212",
    "prefectureCode": "29",
    "prefectureNumber": 29,
    "prefecture": "奈良県",
    "city": "宇陀市",
    "town": "菟田野下芳野"
  },
  "6332213": {
    "zipcode": "6332213",
    "prefectureCode": "29",
    "prefectureNumber": 29,
    "prefecture": "奈良県",
    "city": "宇陀市",
    "town": "菟田野上芳野"
  },
  "6332214": {
    "zipcode": "6332214",
    "prefectureCode": "29",
    "prefectureNumber": 29,
    "prefecture": "奈良県",
    "city": "宇陀市",
    "town": "菟田野岩端"
  },
  "6332215": {
    "zipcode": "6332215",
    "prefectureCode": "29",
    "prefectureNumber": 29,
    "prefecture": "奈良県",
    "city": "宇陀市",
    "town": "菟田野東郷"
  },
  "6332221": {
    "zipcode": "6332221",
    "prefectureCode": "29",
    "prefectureNumber": 29,
    "prefecture": "奈良県",
    "city": "宇陀市",
    "town": "菟田野松井"
  },
  "6332222": {
    "zipcode": "6332222",
    "prefectureCode": "29",
    "prefectureNumber": 29,
    "prefecture": "奈良県",
    "city": "宇陀市",
    "town": "菟田野駒帰"
  },
  "6332223": {
    "zipcode": "6332223",
    "prefectureCode": "29",
    "prefectureNumber": 29,
    "prefecture": "奈良県",
    "city": "宇陀市",
    "town": "菟田野宇賀志"
  },
  "6332224": {
    "zipcode": "6332224",
    "prefectureCode": "29",
    "prefectureNumber": 29,
    "prefecture": "奈良県",
    "city": "宇陀市",
    "town": "菟田野佐倉"
  },
  "6332225": {
    "zipcode": "6332225",
    "prefectureCode": "29",
    "prefectureNumber": 29,
    "prefecture": "奈良県",
    "city": "宇陀市",
    "town": "菟田野稲戸"
  },
  "6332226": {
    "zipcode": "6332226",
    "prefectureCode": "29",
    "prefectureNumber": 29,
    "prefecture": "奈良県",
    "city": "宇陀市",
    "town": "菟田野古市場"
  },
  "6332227": {
    "zipcode": "6332227",
    "prefectureCode": "29",
    "prefectureNumber": 29,
    "prefecture": "奈良県",
    "city": "宇陀市",
    "town": "菟田野岩崎"
  },
  "6332301": {
    "zipcode": "6332301",
    "prefectureCode": "29",
    "prefectureNumber": 29,
    "prefecture": "奈良県",
    "city": "吉野郡東吉野村",
    "town": "滝野"
  },
  "6332302": {
    "zipcode": "6332302",
    "prefectureCode": "29",
    "prefectureNumber": 29,
    "prefecture": "奈良県",
    "city": "吉野郡東吉野村",
    "town": "谷尻"
  },
  "6332303": {
    "zipcode": "6332303",
    "prefectureCode": "29",
    "prefectureNumber": 29,
    "prefecture": "奈良県",
    "city": "吉野郡東吉野村",
    "town": "平野"
  },
  "6332304": {
    "zipcode": "6332304",
    "prefectureCode": "29",
    "prefectureNumber": 29,
    "prefecture": "奈良県",
    "city": "吉野郡東吉野村",
    "town": "杉谷"
  },
  "6332311": {
    "zipcode": "6332311",
    "prefectureCode": "29",
    "prefectureNumber": 29,
    "prefecture": "奈良県",
    "city": "吉野郡東吉野村",
    "town": "木津"
  },
  "6332312": {
    "zipcode": "6332312",
    "prefectureCode": "29",
    "prefectureNumber": 29,
    "prefecture": "奈良県",
    "city": "吉野郡東吉野村",
    "town": "伊豆尾"
  },
  "6332313": {
    "zipcode": "6332313",
    "prefectureCode": "29",
    "prefectureNumber": 29,
    "prefecture": "奈良県",
    "city": "吉野郡東吉野村",
    "town": "日裏"
  },
  "6332314": {
    "zipcode": "6332314",
    "prefectureCode": "29",
    "prefectureNumber": 29,
    "prefecture": "奈良県",
    "city": "吉野郡東吉野村",
    "town": "萩原"
  },
  "6332400": {
    "zipcode": "6332400",
    "prefectureCode": "29",
    "prefectureNumber": 29,
    "prefecture": "奈良県",
    "city": "吉野郡東吉野村",
    "town": "以下に掲載がない場合"
  },
  "6332421": {
    "zipcode": "6332421",
    "prefectureCode": "29",
    "prefectureNumber": 29,
    "prefecture": "奈良県",
    "city": "吉野郡東吉野村",
    "town": "小川"
  },
  "6332422": {
    "zipcode": "6332422",
    "prefectureCode": "29",
    "prefectureNumber": 29,
    "prefecture": "奈良県",
    "city": "吉野郡東吉野村",
    "town": "鷲家"
  },
  "6332423": {
    "zipcode": "6332423",
    "prefectureCode": "29",
    "prefectureNumber": 29,
    "prefecture": "奈良県",
    "city": "吉野郡東吉野村",
    "town": "小栗栖"
  },
  "6332424": {
    "zipcode": "6332424",
    "prefectureCode": "29",
    "prefectureNumber": 29,
    "prefecture": "奈良県",
    "city": "吉野郡東吉野村",
    "town": "中黒"
  },
  "6332431": {
    "zipcode": "6332431",
    "prefectureCode": "29",
    "prefectureNumber": 29,
    "prefecture": "奈良県",
    "city": "吉野郡東吉野村",
    "town": "小"
  },
  "6332432": {
    "zipcode": "6332432",
    "prefectureCode": "29",
    "prefectureNumber": 29,
    "prefecture": "奈良県",
    "city": "吉野郡東吉野村",
    "town": "木津川"
  },
  "6332433": {
    "zipcode": "6332433",
    "prefectureCode": "29",
    "prefectureNumber": 29,
    "prefecture": "奈良県",
    "city": "吉野郡東吉野村",
    "town": "三尾"
  },
  "6332441": {
    "zipcode": "6332441",
    "prefectureCode": "29",
    "prefectureNumber": 29,
    "prefecture": "奈良県",
    "city": "吉野郡東吉野村",
    "town": "狭戸"
  },
  "6332442": {
    "zipcode": "6332442",
    "prefectureCode": "29",
    "prefectureNumber": 29,
    "prefecture": "奈良県",
    "city": "吉野郡東吉野村",
    "town": "大豆生"
  },
  "6332443": {
    "zipcode": "6332443",
    "prefectureCode": "29",
    "prefectureNumber": 29,
    "prefecture": "奈良県",
    "city": "吉野郡東吉野村",
    "town": "麦谷"
  },
  "6332444": {
    "zipcode": "6332444",
    "prefectureCode": "29",
    "prefectureNumber": 29,
    "prefecture": "奈良県",
    "city": "吉野郡東吉野村",
    "town": "大又"
  }
}
