{
  "6340000": {
    "zipcode": "6340000",
    "prefectureCode": "29",
    "prefectureNumber": 29,
    "prefecture": "奈良県",
    "city": "橿原市",
    "town": "以下に掲載がない場合"
  },
  "6340001": {
    "zipcode": "6340001",
    "prefectureCode": "29",
    "prefectureNumber": 29,
    "prefecture": "奈良県",
    "city": "橿原市",
    "town": "太田市町"
  },
  "6340002": {
    "zipcode": "6340002",
    "prefectureCode": "29",
    "prefectureNumber": 29,
    "prefecture": "奈良県",
    "city": "橿原市",
    "town": "東竹田町"
  },
  "6340003": {
    "zipcode": "6340003",
    "prefectureCode": "29",
    "prefectureNumber": 29,
    "prefecture": "奈良県",
    "city": "橿原市",
    "town": "常盤町"
  },
  "6340004": {
    "zipcode": "6340004",
    "prefectureCode": "29",
    "prefectureNumber": 29,
    "prefecture": "奈良県",
    "city": "橿原市",
    "town": "木原町"
  },
  "6340005": {
    "zipcode": "6340005",
    "prefectureCode": "29",
    "prefectureNumber": 29,
    "prefecture": "奈良県",
    "city": "橿原市",
    "town": "北八木町"
  },
  "6340006": {
    "zipcode": "6340006",
    "prefectureCode": "29",
    "prefectureNumber": 29,
    "prefecture": "奈良県",
    "city": "橿原市",
    "town": "新賀町"
  },
  "6340007": {
    "zipcode": "6340007",
    "prefectureCode": "29",
    "prefectureNumber": 29,
    "prefecture": "奈良県",
    "city": "橿原市",
    "town": "葛本町"
  },
  "6340008": {
    "zipcode": "6340008",
    "prefectureCode": "29",
    "prefectureNumber": 29,
    "prefecture": "奈良県",
    "city": "橿原市",
    "town": "十市町"
  },
  "6340009": {
    "zipcode": "6340009",
    "prefectureCode": "29",
    "prefectureNumber": 29,
    "prefecture": "奈良県",
    "city": "橿原市",
    "town": "中町"
  },
  "6340011": {
    "zipcode": "6340011",
    "prefectureCode": "29",
    "prefectureNumber": 29,
    "prefecture": "奈良県",
    "city": "橿原市",
    "town": "出垣内町"
  },
  "6340012": {
    "zipcode": "6340012",
    "prefectureCode": "29",
    "prefectureNumber": 29,
    "prefecture": "奈良県",
    "city": "橿原市",
    "town": "膳夫町"
  },
  "6340013": {
    "zipcode": "6340013",
    "prefectureCode": "29",
    "prefectureNumber": 29,
    "prefecture": "奈良県",
    "city": "橿原市",
    "town": "出合町"
  },
  "6340014": {
    "zipcode": "6340014",
    "prefectureCode": "29",
    "prefectureNumber": 29,
    "prefecture": "奈良県",
    "city": "橿原市",
    "town": "石原田町"
  },
  "6340021": {
    "zipcode": "6340021",
    "prefectureCode": "29",
    "prefectureNumber": 29,
    "prefecture": "奈良県",
    "city": "橿原市",
    "town": "東池尻町"
  },
  "6340022": {
    "zipcode": "6340022",
    "prefectureCode": "29",
    "prefectureNumber": 29,
    "prefecture": "奈良県",
    "city": "橿原市",
    "town": "南浦町"
  },
  "6340023": {
    "zipcode": "6340023",
    "prefectureCode": "29",
    "prefectureNumber": 29,
    "prefecture": "奈良県",
    "city": "橿原市",
    "town": "戒外町"
  },
  "6340024": {
    "zipcode": "6340024",
    "prefectureCode": "29",
    "prefectureNumber": 29,
    "prefecture": "奈良県",
    "city": "橿原市",
    "town": "南山町"
  },
  "6340025": {
    "zipcode": "6340025",
    "prefectureCode": "29",
    "prefectureNumber": 29,
    "prefecture": "奈良県",
    "city": "橿原市",
    "town": "木之本町"
  },
  "6340026": {
    "zipcode": "6340026",
    "prefectureCode": "29",
    "prefectureNumber": 29,
    "prefecture": "奈良県",
    "city": "橿原市",
    "town": "別所町"
  },
  "6340027": {
    "zipcode": "6340027",
    "prefectureCode": "29",
    "prefectureNumber": 29,
    "prefecture": "奈良県",
    "city": "橿原市",
    "town": "高殿町"
  },
  "6340028": {
    "zipcode": "6340028",
    "prefectureCode": "29",
    "prefectureNumber": 29,
    "prefecture": "奈良県",
    "city": "橿原市",
    "town": "法花寺町"
  },
  "6340029": {
    "zipcode": "6340029",
    "prefectureCode": "29",
    "prefectureNumber": 29,
    "prefecture": "奈良県",
    "city": "橿原市",
    "town": "下八釣町"
  },
  "6340031": {
    "zipcode": "6340031",
    "prefectureCode": "29",
    "prefectureNumber": 29,
    "prefecture": "奈良県",
    "city": "橿原市",
    "town": "上飛騨町"
  },
  "6340032": {
    "zipcode": "6340032",
    "prefectureCode": "29",
    "prefectureNumber": 29,
    "prefecture": "奈良県",
    "city": "橿原市",
    "town": "田中町"
  },
  "6340033": {
    "zipcode": "6340033",
    "prefectureCode": "29",
    "prefectureNumber": 29,
    "prefecture": "奈良県",
    "city": "橿原市",
    "town": "城殿町"
  },
  "6340034": {
    "zipcode": "6340034",
    "prefectureCode": "29",
    "prefectureNumber": 29,
    "prefecture": "奈良県",
    "city": "橿原市",
    "town": "飛騨町"
  },
  "6340041": {
    "zipcode": "6340041",
    "prefectureCode": "29",
    "prefectureNumber": 29,
    "prefecture": "奈良県",
    "city": "橿原市",
    "town": "和田町"
  },
  "6340042": {
    "zipcode": "6340042",
    "prefectureCode": "29",
    "prefectureNumber": 29,
    "prefecture": "奈良県",
    "city": "橿原市",
    "town": "菖蒲町"
  },
  "6340043": {
    "zipcode": "6340043",
    "prefectureCode": "29",
    "prefectureNumber": 29,
    "prefecture": "奈良県",
    "city": "橿原市",
    "town": "五条野町"
  },
  "6340044": {
    "zipcode": "6340044",
    "prefectureCode": "29",
    "prefectureNumber": 29,
    "prefecture": "奈良県",
    "city": "橿原市",
    "town": "大軽町"
  },
  "6340045": {
    "zipcode": "6340045",
    "prefectureCode": "29",
    "prefectureNumber": 29,
    "prefecture": "奈良県",
    "city": "橿原市",
    "town": "石川町"
  },
  "6340046": {
    "zipcode": "6340046",
    "prefectureCode": "29",
    "prefectureNumber": 29,
    "prefecture": "奈良県",
    "city": "橿原市",
    "town": "栄和町"
  },
  "6340051": {
    "zipcode": "6340051",
    "prefectureCode": "29",
    "prefectureNumber": 29,
    "prefecture": "奈良県",
    "city": "橿原市",
    "town": "白橿町"
  },
  "6340052": {
    "zipcode": "6340052",
    "prefectureCode": "29",
    "prefectureNumber": 29,
    "prefecture": "奈良県",
    "city": "橿原市",
    "town": "南妙法寺町"
  },
  "6340061": {
    "zipcode": "6340061",
    "prefectureCode": "29",
    "prefectureNumber": 29,
    "prefecture": "奈良県",
    "city": "橿原市",
    "town": "大久保町"
  },
  "6340062": {
    "zipcode": "6340062",
    "prefectureCode": "29",
    "prefectureNumber": 29,
    "prefecture": "奈良県",
    "city": "橿原市",
    "town": "御坊町"
  },
  "6340063": {
    "zipcode": "6340063",
    "prefectureCode": "29",
    "prefectureNumber": 29,
    "prefecture": "奈良県",
    "city": "橿原市",
    "town": "久米町"
  },
  "6340064": {
    "zipcode": "6340064",
    "prefectureCode": "29",
    "prefectureNumber": 29,
    "prefecture": "奈良県",
    "city": "橿原市",
    "town": "見瀬町"
  },
  "6340065": {
    "zipcode": "6340065",
    "prefectureCode": "29",
    "prefectureNumber": 29,
    "prefecture": "奈良県",
    "city": "橿原市",
    "town": "畝傍町"
  },
  "6340071": {
    "zipcode": "6340071",
    "prefectureCode": "29",
    "prefectureNumber": 29,
    "prefecture": "奈良県",
    "city": "橿原市",
    "town": "山之坊町"
  },
  "6340072": {
    "zipcode": "6340072",
    "prefectureCode": "29",
    "prefectureNumber": 29,
    "prefecture": "奈良県",
    "city": "橿原市",
    "town": "醍醐町"
  },
  "6340073": {
    "zipcode": "6340073",
    "prefectureCode": "29",
    "prefectureNumber": 29,
    "prefecture": "奈良県",
    "city": "橿原市",
    "town": "縄手町"
  },
  "6340074": {
    "zipcode": "6340074",
    "prefectureCode": "29",
    "prefectureNumber": 29,
    "prefecture": "奈良県",
    "city": "橿原市",
    "town": "四分町"
  },
  "6340075": {
    "zipcode": "6340075",
    "prefectureCode": "29",
    "prefectureNumber": 29,
    "prefecture": "奈良県",
    "city": "橿原市",
    "town": "小房町"
  },
  "6340076": {
    "zipcode": "6340076",
    "prefectureCode": "29",
    "prefectureNumber": 29,
    "prefecture": "奈良県",
    "city": "橿原市",
    "town": "兵部町"
  },
  "6340077": {
    "zipcode": "6340077",
    "prefectureCode": "29",
    "prefectureNumber": 29,
    "prefecture": "奈良県",
    "city": "橿原市",
    "town": "南八木町"
  },
  "6340078": {
    "zipcode": "6340078",
    "prefectureCode": "29",
    "prefectureNumber": 29,
    "prefecture": "奈良県",
    "city": "橿原市",
    "town": "八木町"
  },
  "6340100": {
    "zipcode": "6340100",
    "prefectureCode": "29",
    "prefectureNumber": 29,
    "prefecture": "奈良県",
    "city": "高市郡明日香村",
    "town": "以下に掲載がない場合"
  },
  "6340101": {
    "zipcode": "6340101",
    "prefectureCode": "29",
    "prefectureNumber": 29,
    "prefecture": "奈良県",
    "city": "高市郡明日香村",
    "town": "小山"
  },
  "6340102": {
    "zipcode": "6340102",
    "prefectureCode": "29",
    "prefectureNumber": 29,
    "prefecture": "奈良県",
    "city": "高市郡明日香村",
    "town": "奥山"
  },
  "6340103": {
    "zipcode": "6340103",
    "prefectureCode": "29",
    "prefectureNumber": 29,
    "prefecture": "奈良県",
    "city": "高市郡明日香村",
    "town": "飛鳥"
  },
  "6340104": {
    "zipcode": "6340104",
    "prefectureCode": "29",
    "prefectureNumber": 29,
    "prefecture": "奈良県",
    "city": "高市郡明日香村",
    "town": "八釣"
  },
  "6340105": {
    "zipcode": "6340105",
    "prefectureCode": "29",
    "prefectureNumber": 29,
    "prefecture": "奈良県",
    "city": "高市郡明日香村",
    "town": "東山"
  },
  "6340106": {
    "zipcode": "6340106",
    "prefectureCode": "29",
    "prefectureNumber": 29,
    "prefecture": "奈良県",
    "city": "高市郡明日香村",
    "town": "小原"
  },
  "6340107": {
    "zipcode": "6340107",
    "prefectureCode": "29",
    "prefectureNumber": 29,
    "prefecture": "奈良県",
    "city": "高市郡明日香村",
    "town": "豊浦"
  },
  "6340108": {
    "zipcode": "6340108",
    "prefectureCode": "29",
    "prefectureNumber": 29,
    "prefecture": "奈良県",
    "city": "高市郡明日香村",
    "town": "雷"
  },
  "6340111": {
    "zipcode": "6340111",
    "prefectureCode": "29",
    "prefectureNumber": 29,
    "prefecture": "奈良県",
    "city": "高市郡明日香村",
    "town": "岡"
  },
  "6340112": {
    "zipcode": "6340112",
    "prefectureCode": "29",
    "prefectureNumber": 29,
    "prefecture": "奈良県",
    "city": "高市郡明日香村",
    "town": "島庄"
  },
  "6340113": {
    "zipcode": "6340113",
    "prefectureCode": "29",
    "prefectureNumber": 29,
    "prefecture": "奈良県",
    "city": "高市郡明日香村",
    "town": "上居"
  },
  "6340114": {
    "zipcode": "6340114",
    "prefectureCode": "29",
    "prefectureNumber": 29,
    "prefecture": "奈良県",
    "city": "高市郡明日香村",
    "town": "細川"
  },
  "6340115": {
    "zipcode": "6340115",
    "prefectureCode": "29",
    "prefectureNumber": 29,
    "prefecture": "奈良県",
    "city": "高市郡明日香村",
    "town": "上"
  },
  "6340116": {
    "zipcode": "6340116",
    "prefectureCode": "29",
    "prefectureNumber": 29,
    "prefecture": "奈良県",
    "city": "高市郡明日香村",
    "town": "尾曽"
  },
  "6340117": {
    "zipcode": "6340117",
    "prefectureCode": "29",
    "prefectureNumber": 29,
    "prefecture": "奈良県",
    "city": "高市郡明日香村",
    "town": "冬野"
  },
  "6340118": {
    "zipcode": "6340118",
    "prefectureCode": "29",
    "prefectureNumber": 29,
    "prefecture": "奈良県",
    "city": "高市郡明日香村",
    "town": "畑"
  },
  "6340121": {
    "zipcode": "6340121",
    "prefectureCode": "29",
    "prefectureNumber": 29,
    "prefecture": "奈良県",
    "city": "高市郡明日香村",
    "town": "祝戸"
  },
  "6340122": {
    "zipcode": "6340122",
    "prefectureCode": "29",
    "prefectureNumber": 29,
    "prefecture": "奈良県",
    "city": "高市郡明日香村",
    "town": "阪田"
  },
  "6340123": {
    "zipcode": "6340123",
    "prefectureCode": "29",
    "prefectureNumber": 29,
    "prefecture": "奈良県",
    "city": "高市郡明日香村",
    "town": "稲渕"
  },
  "6340124": {
    "zipcode": "6340124",
    "prefectureCode": "29",
    "prefectureNumber": 29,
    "prefecture": "奈良県",
    "city": "高市郡明日香村",
    "town": "栢森"
  },
  "6340125": {
    "zipcode": "6340125",
    "prefectureCode": "29",
    "prefectureNumber": 29,
    "prefecture": "奈良県",
    "city": "高市郡明日香村",
    "town": "入谷"
  },
  "6340131": {
    "zipcode": "6340131",
    "prefectureCode": "29",
    "prefectureNumber": 29,
    "prefecture": "奈良県",
    "city": "高市郡明日香村",
    "town": "御園"
  },
  "6340132": {
    "zipcode": "6340132",
    "prefectureCode": "29",
    "prefectureNumber": 29,
    "prefecture": "奈良県",
    "city": "高市郡明日香村",
    "town": "栗原"
  },
  "6340133": {
    "zipcode": "6340133",
    "prefectureCode": "29",
    "prefectureNumber": 29,
    "prefecture": "奈良県",
    "city": "高市郡明日香村",
    "town": "大根田"
  },
  "6340134": {
    "zipcode": "6340134",
    "prefectureCode": "29",
    "prefectureNumber": 29,
    "prefecture": "奈良県",
    "city": "高市郡明日香村",
    "town": "阿部山"
  },
  "6340135": {
    "zipcode": "6340135",
    "prefectureCode": "29",
    "prefectureNumber": 29,
    "prefecture": "奈良県",
    "city": "高市郡明日香村",
    "town": "檜前"
  },
  "6340136": {
    "zipcode": "6340136",
    "prefectureCode": "29",
    "prefectureNumber": 29,
    "prefecture": "奈良県",
    "city": "高市郡明日香村",
    "town": "地ノ窪"
  },
  "6340137": {
    "zipcode": "6340137",
    "prefectureCode": "29",
    "prefectureNumber": 29,
    "prefecture": "奈良県",
    "city": "高市郡明日香村",
    "town": "真弓"
  },
  "6340138": {
    "zipcode": "6340138",
    "prefectureCode": "29",
    "prefectureNumber": 29,
    "prefecture": "奈良県",
    "city": "高市郡明日香村",
    "town": "越"
  },
  "6340141": {
    "zipcode": "6340141",
    "prefectureCode": "29",
    "prefectureNumber": 29,
    "prefecture": "奈良県",
    "city": "高市郡明日香村",
    "town": "川原"
  },
  "6340142": {
    "zipcode": "6340142",
    "prefectureCode": "29",
    "prefectureNumber": 29,
    "prefecture": "奈良県",
    "city": "高市郡明日香村",
    "town": "橘"
  },
  "6340143": {
    "zipcode": "6340143",
    "prefectureCode": "29",
    "prefectureNumber": 29,
    "prefecture": "奈良県",
    "city": "高市郡明日香村",
    "town": "立部"
  },
  "6340144": {
    "zipcode": "6340144",
    "prefectureCode": "29",
    "prefectureNumber": 29,
    "prefecture": "奈良県",
    "city": "高市郡明日香村",
    "town": "平田"
  },
  "6340145": {
    "zipcode": "6340145",
    "prefectureCode": "29",
    "prefectureNumber": 29,
    "prefecture": "奈良県",
    "city": "高市郡明日香村",
    "town": "野口"
  },
  "6340801": {
    "zipcode": "6340801",
    "prefectureCode": "29",
    "prefectureNumber": 29,
    "prefecture": "奈良県",
    "city": "橿原市",
    "town": "西新堂町"
  },
  "6340802": {
    "zipcode": "6340802",
    "prefectureCode": "29",
    "prefectureNumber": 29,
    "prefecture": "奈良県",
    "city": "橿原市",
    "town": "新口町"
  },
  "6340803": {
    "zipcode": "6340803",
    "prefectureCode": "29",
    "prefectureNumber": 29,
    "prefecture": "奈良県",
    "city": "橿原市",
    "town": "上品寺町"
  },
  "6340804": {
    "zipcode": "6340804",
    "prefectureCode": "29",
    "prefectureNumber": 29,
    "prefecture": "奈良県",
    "city": "橿原市",
    "town": "内膳町"
  },
  "6340805": {
    "zipcode": "6340805",
    "prefectureCode": "29",
    "prefectureNumber": 29,
    "prefecture": "奈良県",
    "city": "橿原市",
    "town": "地黄町"
  },
  "6340811": {
    "zipcode": "6340811",
    "prefectureCode": "29",
    "prefectureNumber": 29,
    "prefecture": "奈良県",
    "city": "橿原市",
    "town": "小綱町"
  },
  "6340812": {
    "zipcode": "6340812",
    "prefectureCode": "29",
    "prefectureNumber": 29,
    "prefecture": "奈良県",
    "city": "橿原市",
    "town": "今井町"
  },
  "6340813": {
    "zipcode": "6340813",
    "prefectureCode": "29",
    "prefectureNumber": 29,
    "prefecture": "奈良県",
    "city": "橿原市",
    "town": "四条町"
  },
  "6340814": {
    "zipcode": "6340814",
    "prefectureCode": "29",
    "prefectureNumber": 29,
    "prefecture": "奈良県",
    "city": "橿原市",
    "town": "山本町"
  },
  "6340815": {
    "zipcode": "6340815",
    "prefectureCode": "29",
    "prefectureNumber": 29,
    "prefecture": "奈良県",
    "city": "橿原市",
    "town": "大谷町"
  },
  "6340816": {
    "zipcode": "6340816",
    "prefectureCode": "29",
    "prefectureNumber": 29,
    "prefecture": "奈良県",
    "city": "橿原市",
    "town": "慈明寺町"
  },
  "6340817": {
    "zipcode": "6340817",
    "prefectureCode": "29",
    "prefectureNumber": 29,
    "prefecture": "奈良県",
    "city": "橿原市",
    "town": "寺田町"
  },
  "6340821": {
    "zipcode": "6340821",
    "prefectureCode": "29",
    "prefectureNumber": 29,
    "prefecture": "奈良県",
    "city": "橿原市",
    "town": "西池尻町"
  },
  "6340822": {
    "zipcode": "6340822",
    "prefectureCode": "29",
    "prefectureNumber": 29,
    "prefecture": "奈良県",
    "city": "橿原市",
    "town": "鳥屋町"
  },
  "6340823": {
    "zipcode": "6340823",
    "prefectureCode": "29",
    "prefectureNumber": 29,
    "prefecture": "奈良県",
    "city": "橿原市",
    "town": "北越智町"
  },
  "6340824": {
    "zipcode": "6340824",
    "prefectureCode": "29",
    "prefectureNumber": 29,
    "prefecture": "奈良県",
    "city": "橿原市",
    "town": "一町"
  },
  "6340825": {
    "zipcode": "6340825",
    "prefectureCode": "29",
    "prefectureNumber": 29,
    "prefecture": "奈良県",
    "city": "橿原市",
    "town": "観音寺町"
  },
  "6340826": {
    "zipcode": "6340826",
    "prefectureCode": "29",
    "prefectureNumber": 29,
    "prefecture": "奈良県",
    "city": "橿原市",
    "town": "川西町"
  },
  "6340827": {
    "zipcode": "6340827",
    "prefectureCode": "29",
    "prefectureNumber": 29,
    "prefecture": "奈良県",
    "city": "橿原市",
    "town": "光陽町"
  },
  "6340828": {
    "zipcode": "6340828",
    "prefectureCode": "29",
    "prefectureNumber": 29,
    "prefecture": "奈良県",
    "city": "橿原市",
    "town": "古川町"
  },
  "6340829": {
    "zipcode": "6340829",
    "prefectureCode": "29",
    "prefectureNumber": 29,
    "prefecture": "奈良県",
    "city": "橿原市",
    "town": "吉田町"
  },
  "6340831": {
    "zipcode": "6340831",
    "prefectureCode": "29",
    "prefectureNumber": 29,
    "prefecture": "奈良県",
    "city": "橿原市",
    "town": "曽我町"
  },
  "6340832": {
    "zipcode": "6340832",
    "prefectureCode": "29",
    "prefectureNumber": 29,
    "prefecture": "奈良県",
    "city": "橿原市",
    "town": "五井町"
  },
  "6340833": {
    "zipcode": "6340833",
    "prefectureCode": "29",
    "prefectureNumber": 29,
    "prefecture": "奈良県",
    "city": "橿原市",
    "town": "忌部町"
  },
  "6340834": {
    "zipcode": "6340834",
    "prefectureCode": "29",
    "prefectureNumber": 29,
    "prefecture": "奈良県",
    "city": "橿原市",
    "town": "雲梯町"
  },
  "6340835": {
    "zipcode": "6340835",
    "prefectureCode": "29",
    "prefectureNumber": 29,
    "prefecture": "奈良県",
    "city": "橿原市",
    "town": "東坊城町"
  },
  "6340836": {
    "zipcode": "6340836",
    "prefectureCode": "29",
    "prefectureNumber": 29,
    "prefecture": "奈良県",
    "city": "橿原市",
    "town": "新堂町"
  },
  "6340837": {
    "zipcode": "6340837",
    "prefectureCode": "29",
    "prefectureNumber": 29,
    "prefecture": "奈良県",
    "city": "橿原市",
    "town": "曲川町"
  },
  "6340841": {
    "zipcode": "6340841",
    "prefectureCode": "29",
    "prefectureNumber": 29,
    "prefecture": "奈良県",
    "city": "橿原市",
    "town": "大垣町"
  },
  "6340842": {
    "zipcode": "6340842",
    "prefectureCode": "29",
    "prefectureNumber": 29,
    "prefecture": "奈良県",
    "city": "橿原市",
    "town": "豊田町"
  },
  "6340843": {
    "zipcode": "6340843",
    "prefectureCode": "29",
    "prefectureNumber": 29,
    "prefecture": "奈良県",
    "city": "橿原市",
    "town": "北妙法寺町"
  },
  "6340844": {
    "zipcode": "6340844",
    "prefectureCode": "29",
    "prefectureNumber": 29,
    "prefecture": "奈良県",
    "city": "橿原市",
    "town": "土橋町"
  },
  "6340845": {
    "zipcode": "6340845",
    "prefectureCode": "29",
    "prefectureNumber": 29,
    "prefecture": "奈良県",
    "city": "橿原市",
    "town": "中曽司町"
  },
  "6340846": {
    "zipcode": "6340846",
    "prefectureCode": "29",
    "prefectureNumber": 29,
    "prefecture": "奈良県",
    "city": "橿原市",
    "town": "小槻町"
  },
  "6340847": {
    "zipcode": "6340847",
    "prefectureCode": "29",
    "prefectureNumber": 29,
    "prefecture": "奈良県",
    "city": "橿原市",
    "town": "飯高町"
  }
}
