{
  "6360000": {
    "zipcode": "6360000",
    "prefectureCode": "29",
    "prefectureNumber": 29,
    "prefecture": "奈良県",
    "city": "北葛城郡河合町",
    "town": "以下に掲載がない場合"
  },
  "6360001": {
    "zipcode": "6360001",
    "prefectureCode": "29",
    "prefectureNumber": 29,
    "prefecture": "奈良県",
    "city": "北葛城郡王寺町",
    "town": "舟戸"
  },
  "6360002": {
    "zipcode": "6360002",
    "prefectureCode": "29",
    "prefectureNumber": 29,
    "prefecture": "奈良県",
    "city": "北葛城郡王寺町",
    "town": "王寺"
  },
  "6360003": {
    "zipcode": "6360003",
    "prefectureCode": "29",
    "prefectureNumber": 29,
    "prefecture": "奈良県",
    "city": "北葛城郡王寺町",
    "town": "久度"
  },
  "6360011": {
    "zipcode": "6360011",
    "prefectureCode": "29",
    "prefectureNumber": 29,
    "prefecture": "奈良県",
    "city": "北葛城郡王寺町",
    "town": "葛下"
  },
  "6360012": {
    "zipcode": "6360012",
    "prefectureCode": "29",
    "prefectureNumber": 29,
    "prefecture": "奈良県",
    "city": "北葛城郡王寺町",
    "town": "本町"
  },
  "6360013": {
    "zipcode": "6360013",
    "prefectureCode": "29",
    "prefectureNumber": 29,
    "prefecture": "奈良県",
    "city": "北葛城郡王寺町",
    "town": "元町"
  },
  "6360014": {
    "zipcode": "6360014",
    "prefectureCode": "29",
    "prefectureNumber": 29,
    "prefecture": "奈良県",
    "city": "北葛城郡王寺町",
    "town": "藤井"
  },
  "6360015": {
    "zipcode": "6360015",
    "prefectureCode": "29",
    "prefectureNumber": 29,
    "prefecture": "奈良県",
    "city": "北葛城郡王寺町",
    "town": "南元町"
  },
  "6360021": {
    "zipcode": "6360021",
    "prefectureCode": "29",
    "prefectureNumber": 29,
    "prefecture": "奈良県",
    "city": "北葛城郡王寺町",
    "town": "畠田"
  },
  "6360022": {
    "zipcode": "6360022",
    "prefectureCode": "29",
    "prefectureNumber": 29,
    "prefecture": "奈良県",
    "city": "北葛城郡王寺町",
    "town": "明神"
  },
  "6360023": {
    "zipcode": "6360023",
    "prefectureCode": "29",
    "prefectureNumber": 29,
    "prefecture": "奈良県",
    "city": "北葛城郡王寺町",
    "town": "太子"
  },
  "6360051": {
    "zipcode": "6360051",
    "prefectureCode": "29",
    "prefectureNumber": 29,
    "prefecture": "奈良県",
    "city": "北葛城郡河合町",
    "town": "川合"
  },
  "6360052": {
    "zipcode": "6360052",
    "prefectureCode": "29",
    "prefectureNumber": 29,
    "prefecture": "奈良県",
    "city": "北葛城郡河合町",
    "town": "長楽"
  },
  "6360053": {
    "zipcode": "6360053",
    "prefectureCode": "29",
    "prefectureNumber": 29,
    "prefecture": "奈良県",
    "city": "北葛城郡河合町",
    "town": "池部"
  },
  "6360054": {
    "zipcode": "6360054",
    "prefectureCode": "29",
    "prefectureNumber": 29,
    "prefecture": "奈良県",
    "city": "北葛城郡河合町",
    "town": "穴闇"
  },
  "6360055": {
    "zipcode": "6360055",
    "prefectureCode": "29",
    "prefectureNumber": 29,
    "prefecture": "奈良県",
    "city": "北葛城郡河合町",
    "town": "西穴闇"
  },
  "6360056": {
    "zipcode": "6360056",
    "prefectureCode": "29",
    "prefectureNumber": 29,
    "prefecture": "奈良県",
    "city": "北葛城郡河合町",
    "town": "西山台"
  },
  "6360057": {
    "zipcode": "6360057",
    "prefectureCode": "29",
    "prefectureNumber": 29,
    "prefecture": "奈良県",
    "city": "北葛城郡河合町",
    "town": "彩りの杜"
  },
  "6360061": {
    "zipcode": "6360061",
    "prefectureCode": "29",
    "prefectureNumber": 29,
    "prefecture": "奈良県",
    "city": "北葛城郡河合町",
    "town": "山坊"
  },
  "6360062": {
    "zipcode": "6360062",
    "prefectureCode": "29",
    "prefectureNumber": 29,
    "prefecture": "奈良県",
    "city": "北葛城郡河合町",
    "town": "佐味田"
  },
  "6360063": {
    "zipcode": "6360063",
    "prefectureCode": "29",
    "prefectureNumber": 29,
    "prefecture": "奈良県",
    "city": "北葛城郡河合町",
    "town": "久美ケ丘"
  },
  "6360071": {
    "zipcode": "6360071",
    "prefectureCode": "29",
    "prefectureNumber": 29,
    "prefecture": "奈良県",
    "city": "北葛城郡河合町",
    "town": "高塚台"
  },
  "6360072": {
    "zipcode": "6360072",
    "prefectureCode": "29",
    "prefectureNumber": 29,
    "prefecture": "奈良県",
    "city": "北葛城郡河合町",
    "town": "中山台"
  },
  "6360073": {
    "zipcode": "6360073",
    "prefectureCode": "29",
    "prefectureNumber": 29,
    "prefecture": "奈良県",
    "city": "北葛城郡河合町",
    "town": "広瀬台"
  },
  "6360081": {
    "zipcode": "6360081",
    "prefectureCode": "29",
    "prefectureNumber": 29,
    "prefecture": "奈良県",
    "city": "北葛城郡河合町",
    "town": "星和台"
  },
  "6360082": {
    "zipcode": "6360082",
    "prefectureCode": "29",
    "prefectureNumber": 29,
    "prefecture": "奈良県",
    "city": "北葛城郡河合町",
    "town": "薬井"
  },
  "6360091": {
    "zipcode": "6360091",
    "prefectureCode": "29",
    "prefectureNumber": 29,
    "prefecture": "奈良県",
    "city": "北葛城郡河合町",
    "town": "泉台"
  },
  "6360092": {
    "zipcode": "6360092",
    "prefectureCode": "29",
    "prefectureNumber": 29,
    "prefecture": "奈良県",
    "city": "北葛城郡河合町",
    "town": "城内"
  },
  "6360093": {
    "zipcode": "6360093",
    "prefectureCode": "29",
    "prefectureNumber": 29,
    "prefecture": "奈良県",
    "city": "北葛城郡河合町",
    "town": "大輪田"
  },
  "6360100": {
    "zipcode": "6360100",
    "prefectureCode": "29",
    "prefectureNumber": 29,
    "prefecture": "奈良県",
    "city": "生駒郡斑鳩町",
    "town": "以下に掲載がない場合"
  },
  "6360101": {
    "zipcode": "6360101",
    "prefectureCode": "29",
    "prefectureNumber": 29,
    "prefecture": "奈良県",
    "city": "生駒郡斑鳩町",
    "town": "三井"
  },
  "6360102": {
    "zipcode": "6360102",
    "prefectureCode": "29",
    "prefectureNumber": 29,
    "prefecture": "奈良県",
    "city": "生駒郡斑鳩町",
    "town": "岡本"
  },
  "6360103": {
    "zipcode": "6360103",
    "prefectureCode": "29",
    "prefectureNumber": 29,
    "prefecture": "奈良県",
    "city": "生駒郡斑鳩町",
    "town": "幸前"
  },
  "6360104": {
    "zipcode": "6360104",
    "prefectureCode": "29",
    "prefectureNumber": 29,
    "prefecture": "奈良県",
    "city": "生駒郡斑鳩町",
    "town": "高安"
  },
  "6360105": {
    "zipcode": "6360105",
    "prefectureCode": "29",
    "prefectureNumber": 29,
    "prefecture": "奈良県",
    "city": "生駒郡斑鳩町",
    "town": "東福寺"
  },
  "6360106": {
    "zipcode": "6360106",
    "prefectureCode": "29",
    "prefectureNumber": 29,
    "prefecture": "奈良県",
    "city": "生駒郡斑鳩町",
    "town": "高安西"
  },
  "6360111": {
    "zipcode": "6360111",
    "prefectureCode": "29",
    "prefectureNumber": 29,
    "prefecture": "奈良県",
    "city": "生駒郡斑鳩町",
    "town": "法隆寺北"
  },
  "6360112": {
    "zipcode": "6360112",
    "prefectureCode": "29",
    "prefectureNumber": 29,
    "prefecture": "奈良県",
    "city": "生駒郡斑鳩町",
    "town": "法隆寺東"
  },
  "6360113": {
    "zipcode": "6360113",
    "prefectureCode": "29",
    "prefectureNumber": 29,
    "prefecture": "奈良県",
    "city": "生駒郡斑鳩町",
    "town": "法隆寺南"
  },
  "6360114": {
    "zipcode": "6360114",
    "prefectureCode": "29",
    "prefectureNumber": 29,
    "prefecture": "奈良県",
    "city": "生駒郡斑鳩町",
    "town": "法隆寺西"
  },
  "6360115": {
    "zipcode": "6360115",
    "prefectureCode": "29",
    "prefectureNumber": 29,
    "prefecture": "奈良県",
    "city": "生駒郡斑鳩町",
    "town": "法隆寺山内"
  },
  "6360116": {
    "zipcode": "6360116",
    "prefectureCode": "29",
    "prefectureNumber": 29,
    "prefecture": "奈良県",
    "city": "生駒郡斑鳩町",
    "town": "法隆寺"
  },
  "6360121": {
    "zipcode": "6360121",
    "prefectureCode": "29",
    "prefectureNumber": 29,
    "prefecture": "奈良県",
    "city": "生駒郡斑鳩町",
    "town": "興留東"
  },
  "6360122": {
    "zipcode": "6360122",
    "prefectureCode": "29",
    "prefectureNumber": 29,
    "prefecture": "奈良県",
    "city": "生駒郡斑鳩町",
    "town": "阿波"
  },
  "6360123": {
    "zipcode": "6360123",
    "prefectureCode": "29",
    "prefectureNumber": 29,
    "prefecture": "奈良県",
    "city": "生駒郡斑鳩町",
    "town": "興留"
  },
  "6360124": {
    "zipcode": "6360124",
    "prefectureCode": "29",
    "prefectureNumber": 29,
    "prefecture": "奈良県",
    "city": "生駒郡斑鳩町",
    "town": "五百井"
  },
  "6360131": {
    "zipcode": "6360131",
    "prefectureCode": "29",
    "prefectureNumber": 29,
    "prefecture": "奈良県",
    "city": "生駒郡斑鳩町",
    "town": "服部"
  },
  "6360132": {
    "zipcode": "6360132",
    "prefectureCode": "29",
    "prefectureNumber": 29,
    "prefecture": "奈良県",
    "city": "生駒郡斑鳩町",
    "town": "目安"
  },
  "6360133": {
    "zipcode": "6360133",
    "prefectureCode": "29",
    "prefectureNumber": 29,
    "prefecture": "奈良県",
    "city": "生駒郡斑鳩町",
    "town": "目安北"
  },
  "6360141": {
    "zipcode": "6360141",
    "prefectureCode": "29",
    "prefectureNumber": 29,
    "prefecture": "奈良県",
    "city": "生駒郡斑鳩町",
    "town": "稲葉車瀬"
  },
  "6360142": {
    "zipcode": "6360142",
    "prefectureCode": "29",
    "prefectureNumber": 29,
    "prefecture": "奈良県",
    "city": "生駒郡斑鳩町",
    "town": "小吉田"
  },
  "6360143": {
    "zipcode": "6360143",
    "prefectureCode": "29",
    "prefectureNumber": 29,
    "prefecture": "奈良県",
    "city": "生駒郡斑鳩町",
    "town": "神南"
  },
  "6360144": {
    "zipcode": "6360144",
    "prefectureCode": "29",
    "prefectureNumber": 29,
    "prefecture": "奈良県",
    "city": "生駒郡斑鳩町",
    "town": "稲葉西"
  },
  "6360151": {
    "zipcode": "6360151",
    "prefectureCode": "29",
    "prefectureNumber": 29,
    "prefecture": "奈良県",
    "city": "生駒郡斑鳩町",
    "town": "龍田北"
  },
  "6360152": {
    "zipcode": "6360152",
    "prefectureCode": "29",
    "prefectureNumber": 29,
    "prefecture": "奈良県",
    "city": "生駒郡斑鳩町",
    "town": "龍田"
  },
  "6360153": {
    "zipcode": "6360153",
    "prefectureCode": "29",
    "prefectureNumber": 29,
    "prefecture": "奈良県",
    "city": "生駒郡斑鳩町",
    "town": "龍田南"
  },
  "6360154": {
    "zipcode": "6360154",
    "prefectureCode": "29",
    "prefectureNumber": 29,
    "prefecture": "奈良県",
    "city": "生駒郡斑鳩町",
    "town": "龍田西"
  },
  "6360201": {
    "zipcode": "6360201",
    "prefectureCode": "29",
    "prefectureNumber": 29,
    "prefecture": "奈良県",
    "city": "磯城郡川西町",
    "town": "下永"
  },
  "6360202": {
    "zipcode": "6360202",
    "prefectureCode": "29",
    "prefectureNumber": 29,
    "prefecture": "奈良県",
    "city": "磯城郡川西町",
    "town": "結崎"
  },
  "6360203": {
    "zipcode": "6360203",
    "prefectureCode": "29",
    "prefectureNumber": 29,
    "prefecture": "奈良県",
    "city": "磯城郡川西町",
    "town": "梅戸"
  },
  "6360204": {
    "zipcode": "6360204",
    "prefectureCode": "29",
    "prefectureNumber": 29,
    "prefecture": "奈良県",
    "city": "磯城郡川西町",
    "town": "唐院"
  },
  "6360205": {
    "zipcode": "6360205",
    "prefectureCode": "29",
    "prefectureNumber": 29,
    "prefecture": "奈良県",
    "city": "磯城郡川西町",
    "town": "保田"
  },
  "6360206": {
    "zipcode": "6360206",
    "prefectureCode": "29",
    "prefectureNumber": 29,
    "prefecture": "奈良県",
    "city": "磯城郡川西町",
    "town": "吐田"
  },
  "6360211": {
    "zipcode": "6360211",
    "prefectureCode": "29",
    "prefectureNumber": 29,
    "prefecture": "奈良県",
    "city": "磯城郡三宅町",
    "town": "三河"
  },
  "6360212": {
    "zipcode": "6360212",
    "prefectureCode": "29",
    "prefectureNumber": 29,
    "prefecture": "奈良県",
    "city": "磯城郡三宅町",
    "town": "石見"
  },
  "6360213": {
    "zipcode": "6360213",
    "prefectureCode": "29",
    "prefectureNumber": 29,
    "prefecture": "奈良県",
    "city": "磯城郡三宅町",
    "town": "伴堂"
  },
  "6360214": {
    "zipcode": "6360214",
    "prefectureCode": "29",
    "prefectureNumber": 29,
    "prefecture": "奈良県",
    "city": "磯城郡三宅町",
    "town": "但馬"
  },
  "6360215": {
    "zipcode": "6360215",
    "prefectureCode": "29",
    "prefectureNumber": 29,
    "prefecture": "奈良県",
    "city": "磯城郡三宅町",
    "town": "上但馬"
  },
  "6360216": {
    "zipcode": "6360216",
    "prefectureCode": "29",
    "prefectureNumber": 29,
    "prefecture": "奈良県",
    "city": "磯城郡三宅町",
    "town": "小柳"
  },
  "6360217": {
    "zipcode": "6360217",
    "prefectureCode": "29",
    "prefectureNumber": 29,
    "prefecture": "奈良県",
    "city": "磯城郡三宅町",
    "town": "屏風"
  },
  "6360221": {
    "zipcode": "6360221",
    "prefectureCode": "29",
    "prefectureNumber": 29,
    "prefecture": "奈良県",
    "city": "磯城郡田原本町",
    "town": "八田"
  },
  "6360222": {
    "zipcode": "6360222",
    "prefectureCode": "29",
    "prefectureNumber": 29,
    "prefecture": "奈良県",
    "city": "磯城郡田原本町",
    "town": "法貴寺"
  },
  "6360223": {
    "zipcode": "6360223",
    "prefectureCode": "29",
    "prefectureNumber": 29,
    "prefecture": "奈良県",
    "city": "磯城郡田原本町",
    "town": "鍵"
  },
  "6360224": {
    "zipcode": "6360224",
    "prefectureCode": "29",
    "prefectureNumber": 29,
    "prefecture": "奈良県",
    "city": "磯城郡田原本町",
    "town": "今里"
  },
  "6360225": {
    "zipcode": "6360225",
    "prefectureCode": "29",
    "prefectureNumber": 29,
    "prefecture": "奈良県",
    "city": "磯城郡田原本町",
    "town": "西代"
  },
  "6360226": {
    "zipcode": "6360226",
    "prefectureCode": "29",
    "prefectureNumber": 29,
    "prefecture": "奈良県",
    "city": "磯城郡田原本町",
    "town": "唐古"
  },
  "6360231": {
    "zipcode": "6360231",
    "prefectureCode": "29",
    "prefectureNumber": 29,
    "prefecture": "奈良県",
    "city": "磯城郡田原本町",
    "town": "為川北方"
  },
  "6360232": {
    "zipcode": "6360232",
    "prefectureCode": "29",
    "prefectureNumber": 29,
    "prefecture": "奈良県",
    "city": "磯城郡田原本町",
    "town": "金沢"
  },
  "6360233": {
    "zipcode": "6360233",
    "prefectureCode": "29",
    "prefectureNumber": 29,
    "prefecture": "奈良県",
    "city": "磯城郡田原本町",
    "town": "為川南方"
  },
  "6360234": {
    "zipcode": "6360234",
    "prefectureCode": "29",
    "prefectureNumber": 29,
    "prefecture": "奈良県",
    "city": "磯城郡田原本町",
    "town": "蔵堂"
  },
  "6360235": {
    "zipcode": "6360235",
    "prefectureCode": "29",
    "prefectureNumber": 29,
    "prefecture": "奈良県",
    "city": "磯城郡田原本町",
    "town": "東井上"
  },
  "6360236": {
    "zipcode": "6360236",
    "prefectureCode": "29",
    "prefectureNumber": 29,
    "prefecture": "奈良県",
    "city": "磯城郡田原本町",
    "town": "西井上"
  },
  "6360237": {
    "zipcode": "6360237",
    "prefectureCode": "29",
    "prefectureNumber": 29,
    "prefecture": "奈良県",
    "city": "磯城郡田原本町",
    "town": "小阪"
  },
  "6360241": {
    "zipcode": "6360241",
    "prefectureCode": "29",
    "prefectureNumber": 29,
    "prefecture": "奈良県",
    "city": "磯城郡田原本町",
    "town": "平田"
  },
  "6360242": {
    "zipcode": "6360242",
    "prefectureCode": "29",
    "prefectureNumber": 29,
    "prefecture": "奈良県",
    "city": "磯城郡田原本町",
    "town": "大木"
  },
  "6360243": {
    "zipcode": "6360243",
    "prefectureCode": "29",
    "prefectureNumber": 29,
    "prefecture": "奈良県",
    "city": "磯城郡田原本町",
    "town": "伊与戸"
  },
  "6360244": {
    "zipcode": "6360244",
    "prefectureCode": "29",
    "prefectureNumber": 29,
    "prefecture": "奈良県",
    "city": "磯城郡田原本町",
    "town": "笠形"
  },
  "6360245": {
    "zipcode": "6360245",
    "prefectureCode": "29",
    "prefectureNumber": 29,
    "prefecture": "奈良県",
    "city": "磯城郡田原本町",
    "town": "味間"
  },
  "6360246": {
    "zipcode": "6360246",
    "prefectureCode": "29",
    "prefectureNumber": 29,
    "prefecture": "奈良県",
    "city": "磯城郡田原本町",
    "town": "千代"
  },
  "6360247": {
    "zipcode": "6360247",
    "prefectureCode": "29",
    "prefectureNumber": 29,
    "prefecture": "奈良県",
    "city": "磯城郡田原本町",
    "town": "阪手"
  },
  "6360248": {
    "zipcode": "6360248",
    "prefectureCode": "29",
    "prefectureNumber": 29,
    "prefecture": "奈良県",
    "city": "磯城郡田原本町",
    "town": "大安寺"
  },
  "6360300": {
    "zipcode": "6360300",
    "prefectureCode": "29",
    "prefectureNumber": 29,
    "prefecture": "奈良県",
    "city": "磯城郡田原本町",
    "town": "以下に掲載がない場合"
  },
  "6360301": {
    "zipcode": "6360301",
    "prefectureCode": "29",
    "prefectureNumber": 29,
    "prefecture": "奈良県",
    "city": "磯城郡田原本町",
    "town": "黒田"
  },
  "6360302": {
    "zipcode": "6360302",
    "prefectureCode": "29",
    "prefectureNumber": 29,
    "prefecture": "奈良県",
    "city": "磯城郡田原本町",
    "town": "宮古"
  },
  "6360303": {
    "zipcode": "6360303",
    "prefectureCode": "29",
    "prefectureNumber": 29,
    "prefecture": "奈良県",
    "city": "磯城郡田原本町",
    "town": "保津"
  },
  "6360304": {
    "zipcode": "6360304",
    "prefectureCode": "29",
    "prefectureNumber": 29,
    "prefecture": "奈良県",
    "city": "磯城郡田原本町",
    "town": "十六面"
  },
  "6360305": {
    "zipcode": "6360305",
    "prefectureCode": "29",
    "prefectureNumber": 29,
    "prefecture": "奈良県",
    "city": "磯城郡田原本町",
    "town": "平野"
  },
  "6360306": {
    "zipcode": "6360306",
    "prefectureCode": "29",
    "prefectureNumber": 29,
    "prefecture": "奈良県",
    "city": "磯城郡田原本町",
    "town": "西竹田"
  },
  "6360307": {
    "zipcode": "6360307",
    "prefectureCode": "29",
    "prefectureNumber": 29,
    "prefecture": "奈良県",
    "city": "磯城郡田原本町",
    "town": "富本"
  },
  "6360311": {
    "zipcode": "6360311",
    "prefectureCode": "29",
    "prefectureNumber": 29,
    "prefecture": "奈良県",
    "city": "磯城郡田原本町",
    "town": "八尾"
  },
  "6360312": {
    "zipcode": "6360312",
    "prefectureCode": "29",
    "prefectureNumber": 29,
    "prefecture": "奈良県",
    "city": "磯城郡田原本町",
    "town": "新町"
  },
  "6360313": {
    "zipcode": "6360313",
    "prefectureCode": "29",
    "prefectureNumber": 29,
    "prefecture": "奈良県",
    "city": "磯城郡田原本町",
    "town": "旭町"
  },
  "6360314": {
    "zipcode": "6360314",
    "prefectureCode": "29",
    "prefectureNumber": 29,
    "prefecture": "奈良県",
    "city": "磯城郡田原本町",
    "town": "戎通"
  },
  "6360315": {
    "zipcode": "6360315",
    "prefectureCode": "29",
    "prefectureNumber": 29,
    "prefecture": "奈良県",
    "city": "磯城郡田原本町",
    "town": "幸町"
  },
  "6360316": {
    "zipcode": "6360316",
    "prefectureCode": "29",
    "prefectureNumber": 29,
    "prefecture": "奈良県",
    "city": "磯城郡田原本町",
    "town": "室町"
  },
  "6360317": {
    "zipcode": "6360317",
    "prefectureCode": "29",
    "prefectureNumber": 29,
    "prefecture": "奈良県",
    "city": "磯城郡田原本町",
    "town": "殿町"
  },
  "6360321": {
    "zipcode": "6360321",
    "prefectureCode": "29",
    "prefectureNumber": 29,
    "prefecture": "奈良県",
    "city": "磯城郡田原本町",
    "town": "八幡町"
  },
  "6360322": {
    "zipcode": "6360322",
    "prefectureCode": "29",
    "prefectureNumber": 29,
    "prefecture": "奈良県",
    "city": "磯城郡田原本町",
    "town": "郭内"
  },
  "6360323": {
    "zipcode": "6360323",
    "prefectureCode": "29",
    "prefectureNumber": 29,
    "prefecture": "奈良県",
    "city": "磯城郡田原本町",
    "town": "根太口"
  },
  "6360324": {
    "zipcode": "6360324",
    "prefectureCode": "29",
    "prefectureNumber": 29,
    "prefecture": "奈良県",
    "city": "磯城郡田原本町",
    "town": "三輪町"
  },
  "6360325": {
    "zipcode": "6360325",
    "prefectureCode": "29",
    "prefectureNumber": 29,
    "prefecture": "奈良県",
    "city": "磯城郡田原本町",
    "town": "南町"
  },
  "6360326": {
    "zipcode": "6360326",
    "prefectureCode": "29",
    "prefectureNumber": 29,
    "prefecture": "奈良県",
    "city": "磯城郡田原本町",
    "town": "新地"
  },
  "6360327": {
    "zipcode": "6360327",
    "prefectureCode": "29",
    "prefectureNumber": 29,
    "prefecture": "奈良県",
    "city": "磯城郡田原本町",
    "town": "堺町"
  },
  "6360328": {
    "zipcode": "6360328",
    "prefectureCode": "29",
    "prefectureNumber": 29,
    "prefecture": "奈良県",
    "city": "磯城郡田原本町",
    "town": "材木町"
  },
  "6360329": {
    "zipcode": "6360329",
    "prefectureCode": "29",
    "prefectureNumber": 29,
    "prefecture": "奈良県",
    "city": "磯城郡田原本町",
    "town": "味間町"
  },
  "6360331": {
    "zipcode": "6360331",
    "prefectureCode": "29",
    "prefectureNumber": 29,
    "prefecture": "奈良県",
    "city": "磯城郡田原本町",
    "town": "魚町"
  },
  "6360332": {
    "zipcode": "6360332",
    "prefectureCode": "29",
    "prefectureNumber": 29,
    "prefecture": "奈良県",
    "city": "磯城郡田原本町",
    "town": "市町"
  },
  "6360333": {
    "zipcode": "6360333",
    "prefectureCode": "29",
    "prefectureNumber": 29,
    "prefecture": "奈良県",
    "city": "磯城郡田原本町",
    "town": "祗園町"
  },
  "6360334": {
    "zipcode": "6360334",
    "prefectureCode": "29",
    "prefectureNumber": 29,
    "prefecture": "奈良県",
    "city": "磯城郡田原本町",
    "town": "本町"
  },
  "6360335": {
    "zipcode": "6360335",
    "prefectureCode": "29",
    "prefectureNumber": 29,
    "prefecture": "奈良県",
    "city": "磯城郡田原本町",
    "town": "大門東"
  },
  "6360336": {
    "zipcode": "6360336",
    "prefectureCode": "29",
    "prefectureNumber": 29,
    "prefecture": "奈良県",
    "city": "磯城郡田原本町",
    "town": "大門中"
  },
  "6360337": {
    "zipcode": "6360337",
    "prefectureCode": "29",
    "prefectureNumber": 29,
    "prefecture": "奈良県",
    "city": "磯城郡田原本町",
    "town": "大門西"
  },
  "6360338": {
    "zipcode": "6360338",
    "prefectureCode": "29",
    "prefectureNumber": 29,
    "prefecture": "奈良県",
    "city": "磯城郡田原本町",
    "town": "茶町"
  },
  "6360339": {
    "zipcode": "6360339",
    "prefectureCode": "29",
    "prefectureNumber": 29,
    "prefecture": "奈良県",
    "city": "磯城郡田原本町",
    "town": "小室"
  },
  "6360341": {
    "zipcode": "6360341",
    "prefectureCode": "29",
    "prefectureNumber": 29,
    "prefecture": "奈良県",
    "city": "磯城郡田原本町",
    "town": "薬王寺"
  },
  "6360342": {
    "zipcode": "6360342",
    "prefectureCode": "29",
    "prefectureNumber": 29,
    "prefecture": "奈良県",
    "city": "磯城郡田原本町",
    "town": "三笠"
  },
  "6360343": {
    "zipcode": "6360343",
    "prefectureCode": "29",
    "prefectureNumber": 29,
    "prefecture": "奈良県",
    "city": "磯城郡田原本町",
    "town": "秦庄"
  },
  "6360344": {
    "zipcode": "6360344",
    "prefectureCode": "29",
    "prefectureNumber": 29,
    "prefecture": "奈良県",
    "city": "磯城郡田原本町",
    "town": "宮森"
  },
  "6360345": {
    "zipcode": "6360345",
    "prefectureCode": "29",
    "prefectureNumber": 29,
    "prefecture": "奈良県",
    "city": "磯城郡田原本町",
    "town": "多"
  },
  "6360346": {
    "zipcode": "6360346",
    "prefectureCode": "29",
    "prefectureNumber": 29,
    "prefecture": "奈良県",
    "city": "磯城郡田原本町",
    "town": "矢部"
  },
  "6360347": {
    "zipcode": "6360347",
    "prefectureCode": "29",
    "prefectureNumber": 29,
    "prefecture": "奈良県",
    "city": "磯城郡田原本町",
    "town": "新木"
  },
  "6360351": {
    "zipcode": "6360351",
    "prefectureCode": "29",
    "prefectureNumber": 29,
    "prefecture": "奈良県",
    "city": "磯城郡田原本町",
    "town": "松本"
  },
  "6360352": {
    "zipcode": "6360352",
    "prefectureCode": "29",
    "prefectureNumber": 29,
    "prefecture": "奈良県",
    "city": "磯城郡田原本町",
    "town": "金剛寺"
  },
  "6360353": {
    "zipcode": "6360353",
    "prefectureCode": "29",
    "prefectureNumber": 29,
    "prefecture": "奈良県",
    "city": "磯城郡田原本町",
    "town": "大網"
  },
  "6360354": {
    "zipcode": "6360354",
    "prefectureCode": "29",
    "prefectureNumber": 29,
    "prefecture": "奈良県",
    "city": "磯城郡田原本町",
    "town": "満田"
  },
  "6360355": {
    "zipcode": "6360355",
    "prefectureCode": "29",
    "prefectureNumber": 29,
    "prefecture": "奈良県",
    "city": "磯城郡田原本町",
    "town": "佐味"
  },
  "6360801": {
    "zipcode": "6360801",
    "prefectureCode": "29",
    "prefectureNumber": 29,
    "prefecture": "奈良県",
    "city": "生駒郡三郷町",
    "town": "夕陽ケ丘"
  },
  "6360802": {
    "zipcode": "6360802",
    "prefectureCode": "29",
    "prefectureNumber": 29,
    "prefecture": "奈良県",
    "city": "生駒郡三郷町",
    "town": "三室"
  },
  "6360803": {
    "zipcode": "6360803",
    "prefectureCode": "29",
    "prefectureNumber": 29,
    "prefecture": "奈良県",
    "city": "生駒郡三郷町",
    "town": "東信貴ケ丘"
  },
  "6360804": {
    "zipcode": "6360804",
    "prefectureCode": "29",
    "prefectureNumber": 29,
    "prefecture": "奈良県",
    "city": "生駒郡三郷町",
    "town": "美松ケ丘西"
  },
  "6360805": {
    "zipcode": "6360805",
    "prefectureCode": "29",
    "prefectureNumber": 29,
    "prefecture": "奈良県",
    "city": "生駒郡三郷町",
    "town": "美松ケ丘東"
  },
  "6360811": {
    "zipcode": "6360811",
    "prefectureCode": "29",
    "prefectureNumber": 29,
    "prefecture": "奈良県",
    "city": "生駒郡三郷町",
    "town": "勢野東"
  },
  "6360812": {
    "zipcode": "6360812",
    "prefectureCode": "29",
    "prefectureNumber": 29,
    "prefecture": "奈良県",
    "city": "生駒郡三郷町",
    "town": "勢野西"
  },
  "6360813": {
    "zipcode": "6360813",
    "prefectureCode": "29",
    "prefectureNumber": 29,
    "prefecture": "奈良県",
    "city": "生駒郡三郷町",
    "town": "信貴ケ丘"
  },
  "6360814": {
    "zipcode": "6360814",
    "prefectureCode": "29",
    "prefectureNumber": 29,
    "prefecture": "奈良県",
    "city": "生駒郡三郷町",
    "town": "勢野"
  },
  "6360815": {
    "zipcode": "6360815",
    "prefectureCode": "29",
    "prefectureNumber": 29,
    "prefecture": "奈良県",
    "city": "生駒郡三郷町",
    "town": "勢野北"
  },
  "6360821": {
    "zipcode": "6360821",
    "prefectureCode": "29",
    "prefectureNumber": 29,
    "prefecture": "奈良県",
    "city": "生駒郡三郷町",
    "town": "立野北"
  },
  "6360822": {
    "zipcode": "6360822",
    "prefectureCode": "29",
    "prefectureNumber": 29,
    "prefecture": "奈良県",
    "city": "生駒郡三郷町",
    "town": "立野南"
  },
  "6360823": {
    "zipcode": "6360823",
    "prefectureCode": "29",
    "prefectureNumber": 29,
    "prefecture": "奈良県",
    "city": "生駒郡三郷町",
    "town": "立野"
  },
  "6360824": {
    "zipcode": "6360824",
    "prefectureCode": "29",
    "prefectureNumber": 29,
    "prefecture": "奈良県",
    "city": "生駒郡三郷町",
    "town": "城山台"
  },
  "6360831": {
    "zipcode": "6360831",
    "prefectureCode": "29",
    "prefectureNumber": 29,
    "prefecture": "奈良県",
    "city": "生駒郡三郷町",
    "town": "信貴山東"
  },
  "6360832": {
    "zipcode": "6360832",
    "prefectureCode": "29",
    "prefectureNumber": 29,
    "prefecture": "奈良県",
    "city": "生駒郡三郷町",
    "town": "信貴山西"
  },
  "6360833": {
    "zipcode": "6360833",
    "prefectureCode": "29",
    "prefectureNumber": 29,
    "prefecture": "奈良県",
    "city": "生駒郡三郷町",
    "town": "信貴南畑"
  },
  "6360834": {
    "zipcode": "6360834",
    "prefectureCode": "29",
    "prefectureNumber": 29,
    "prefecture": "奈良県",
    "city": "生駒郡三郷町",
    "town": "南畑"
  },
  "6360901": {
    "zipcode": "6360901",
    "prefectureCode": "29",
    "prefectureNumber": 29,
    "prefecture": "奈良県",
    "city": "生駒郡平群町",
    "town": "椣原"
  },
  "6360902": {
    "zipcode": "6360902",
    "prefectureCode": "29",
    "prefectureNumber": 29,
    "prefecture": "奈良県",
    "city": "生駒郡平群町",
    "town": "白石畑"
  },
  "6360903": {
    "zipcode": "6360903",
    "prefectureCode": "29",
    "prefectureNumber": 29,
    "prefecture": "奈良県",
    "city": "生駒郡平群町",
    "town": "平等寺"
  },
  "6360904": {
    "zipcode": "6360904",
    "prefectureCode": "29",
    "prefectureNumber": 29,
    "prefecture": "奈良県",
    "city": "生駒郡平群町",
    "town": "三里"
  },
  "6360905": {
    "zipcode": "6360905",
    "prefectureCode": "29",
    "prefectureNumber": 29,
    "prefecture": "奈良県",
    "city": "生駒郡平群町",
    "town": "上庄"
  },
  "6360906": {
    "zipcode": "6360906",
    "prefectureCode": "29",
    "prefectureNumber": 29,
    "prefecture": "奈良県",
    "city": "生駒郡平群町",
    "town": "菊美台"
  },
  "6360911": {
    "zipcode": "6360911",
    "prefectureCode": "29",
    "prefectureNumber": 29,
    "prefecture": "奈良県",
    "city": "生駒郡平群町",
    "town": "椿井"
  },
  "6360912": {
    "zipcode": "6360912",
    "prefectureCode": "29",
    "prefectureNumber": 29,
    "prefecture": "奈良県",
    "city": "生駒郡平群町",
    "town": "竜田川"
  },
  "6360913": {
    "zipcode": "6360913",
    "prefectureCode": "29",
    "prefectureNumber": 29,
    "prefecture": "奈良県",
    "city": "生駒郡平群町",
    "town": "北信貴ケ丘"
  },
  "6360914": {
    "zipcode": "6360914",
    "prefectureCode": "29",
    "prefectureNumber": 29,
    "prefecture": "奈良県",
    "city": "生駒郡平群町",
    "town": "西宮"
  },
  "6360915": {
    "zipcode": "6360915",
    "prefectureCode": "29",
    "prefectureNumber": 29,
    "prefecture": "奈良県",
    "city": "生駒郡平群町",
    "town": "春日丘"
  },
  "6360916": {
    "zipcode": "6360916",
    "prefectureCode": "29",
    "prefectureNumber": 29,
    "prefecture": "奈良県",
    "city": "生駒郡平群町",
    "town": "若井"
  },
  "6360921": {
    "zipcode": "6360921",
    "prefectureCode": "29",
    "prefectureNumber": 29,
    "prefecture": "奈良県",
    "city": "生駒郡平群町",
    "town": "椹原"
  },
  "6360922": {
    "zipcode": "6360922",
    "prefectureCode": "29",
    "prefectureNumber": 29,
    "prefecture": "奈良県",
    "city": "生駒郡平群町",
    "town": "信貴畑"
  },
  "6360923": {
    "zipcode": "6360923",
    "prefectureCode": "29",
    "prefectureNumber": 29,
    "prefecture": "奈良県",
    "city": "生駒郡平群町",
    "town": "信貴山"
  },
  "6360924": {
    "zipcode": "6360924",
    "prefectureCode": "29",
    "prefectureNumber": 29,
    "prefecture": "奈良県",
    "city": "生駒郡平群町",
    "town": "久安寺"
  },
  "6360925": {
    "zipcode": "6360925",
    "prefectureCode": "29",
    "prefectureNumber": 29,
    "prefecture": "奈良県",
    "city": "生駒郡平群町",
    "town": "越木塚"
  },
  "6360931": {
    "zipcode": "6360931",
    "prefectureCode": "29",
    "prefectureNumber": 29,
    "prefecture": "奈良県",
    "city": "生駒郡平群町",
    "town": "梨本"
  },
  "6360932": {
    "zipcode": "6360932",
    "prefectureCode": "29",
    "prefectureNumber": 29,
    "prefecture": "奈良県",
    "city": "生駒郡平群町",
    "town": "吉新"
  },
  "6360933": {
    "zipcode": "6360933",
    "prefectureCode": "29",
    "prefectureNumber": 29,
    "prefecture": "奈良県",
    "city": "生駒郡平群町",
    "town": "下垣内"
  },
  "6360934": {
    "zipcode": "6360934",
    "prefectureCode": "29",
    "prefectureNumber": 29,
    "prefecture": "奈良県",
    "city": "生駒郡平群町",
    "town": "初香台"
  },
  "6360935": {
    "zipcode": "6360935",
    "prefectureCode": "29",
    "prefectureNumber": 29,
    "prefecture": "奈良県",
    "city": "生駒郡平群町",
    "town": "光ケ丘"
  },
  "6360936": {
    "zipcode": "6360936",
    "prefectureCode": "29",
    "prefectureNumber": 29,
    "prefecture": "奈良県",
    "city": "生駒郡平群町",
    "town": "福貴"
  },
  "6360937": {
    "zipcode": "6360937",
    "prefectureCode": "29",
    "prefectureNumber": 29,
    "prefecture": "奈良県",
    "city": "生駒郡平群町",
    "town": "福貴畑"
  },
  "6360938": {
    "zipcode": "6360938",
    "prefectureCode": "29",
    "prefectureNumber": 29,
    "prefecture": "奈良県",
    "city": "生駒郡平群町",
    "town": "若葉台"
  },
  "6360941": {
    "zipcode": "6360941",
    "prefectureCode": "29",
    "prefectureNumber": 29,
    "prefecture": "奈良県",
    "city": "生駒郡平群町",
    "town": "緑ケ丘"
  },
  "6360942": {
    "zipcode": "6360942",
    "prefectureCode": "29",
    "prefectureNumber": 29,
    "prefecture": "奈良県",
    "city": "生駒郡平群町",
    "town": "西向"
  },
  "6360943": {
    "zipcode": "6360943",
    "prefectureCode": "29",
    "prefectureNumber": 29,
    "prefecture": "奈良県",
    "city": "生駒郡平群町",
    "town": "椿台"
  },
  "6360944": {
    "zipcode": "6360944",
    "prefectureCode": "29",
    "prefectureNumber": 29,
    "prefecture": "奈良県",
    "city": "生駒郡平群町",
    "town": "櫟原"
  },
  "6360945": {
    "zipcode": "6360945",
    "prefectureCode": "29",
    "prefectureNumber": 29,
    "prefecture": "奈良県",
    "city": "生駒郡平群町",
    "town": "鳴川"
  }
}
