{
  "6370000": {
    "zipcode": "6370000",
    "prefectureCode": "29",
    "prefectureNumber": 29,
    "prefecture": "奈良県",
    "city": "五條市",
    "town": "以下に掲載がない場合"
  },
  "6370001": {
    "zipcode": "6370001",
    "prefectureCode": "29",
    "prefectureNumber": 29,
    "prefecture": "奈良県",
    "city": "五條市",
    "town": "西河内町"
  },
  "6370002": {
    "zipcode": "6370002",
    "prefectureCode": "29",
    "prefectureNumber": 29,
    "prefecture": "奈良県",
    "city": "五條市",
    "town": "三在町"
  },
  "6370003": {
    "zipcode": "6370003",
    "prefectureCode": "29",
    "prefectureNumber": 29,
    "prefecture": "奈良県",
    "city": "五條市",
    "town": "宇野町"
  },
  "6370004": {
    "zipcode": "6370004",
    "prefectureCode": "29",
    "prefectureNumber": 29,
    "prefecture": "奈良県",
    "city": "五條市",
    "town": "今井町"
  },
  "6370005": {
    "zipcode": "6370005",
    "prefectureCode": "29",
    "prefectureNumber": 29,
    "prefecture": "奈良県",
    "city": "五條市",
    "town": "須恵"
  },
  "6370006": {
    "zipcode": "6370006",
    "prefectureCode": "29",
    "prefectureNumber": 29,
    "prefecture": "奈良県",
    "city": "五條市",
    "town": "岡口"
  },
  "6370011": {
    "zipcode": "6370011",
    "prefectureCode": "29",
    "prefectureNumber": 29,
    "prefecture": "奈良県",
    "city": "五條市",
    "town": "出屋敷町"
  },
  "6370012": {
    "zipcode": "6370012",
    "prefectureCode": "29",
    "prefectureNumber": 29,
    "prefecture": "奈良県",
    "city": "五條市",
    "town": "小山町"
  },
  "6370013": {
    "zipcode": "6370013",
    "prefectureCode": "29",
    "prefectureNumber": 29,
    "prefecture": "奈良県",
    "city": "五條市",
    "town": "居伝町"
  },
  "6370014": {
    "zipcode": "6370014",
    "prefectureCode": "29",
    "prefectureNumber": 29,
    "prefecture": "奈良県",
    "city": "五條市",
    "town": "住川町"
  },
  "6370015": {
    "zipcode": "6370015",
    "prefectureCode": "29",
    "prefectureNumber": 29,
    "prefecture": "奈良県",
    "city": "五條市",
    "town": "大野新田町"
  },
  "6370016": {
    "zipcode": "6370016",
    "prefectureCode": "29",
    "prefectureNumber": 29,
    "prefecture": "奈良県",
    "city": "五條市",
    "town": "近内町"
  },
  "6370017": {
    "zipcode": "6370017",
    "prefectureCode": "29",
    "prefectureNumber": 29,
    "prefecture": "奈良県",
    "city": "五條市",
    "town": "西久留野町"
  },
  "6370018": {
    "zipcode": "6370018",
    "prefectureCode": "29",
    "prefectureNumber": 29,
    "prefecture": "奈良県",
    "city": "五條市",
    "town": "久留野町"
  },
  "6370019": {
    "zipcode": "6370019",
    "prefectureCode": "29",
    "prefectureNumber": 29,
    "prefecture": "奈良県",
    "city": "五條市",
    "town": "小和町"
  },
  "6370020": {
    "zipcode": "6370020",
    "prefectureCode": "29",
    "prefectureNumber": 29,
    "prefecture": "奈良県",
    "city": "五條市",
    "town": "西阿田町"
  },
  "6370021": {
    "zipcode": "6370021",
    "prefectureCode": "29",
    "prefectureNumber": 29,
    "prefecture": "奈良県",
    "city": "五條市",
    "town": "東阿田町"
  },
  "6370022": {
    "zipcode": "6370022",
    "prefectureCode": "29",
    "prefectureNumber": 29,
    "prefecture": "奈良県",
    "city": "五條市",
    "town": "八田町"
  },
  "6370023": {
    "zipcode": "6370023",
    "prefectureCode": "29",
    "prefectureNumber": 29,
    "prefecture": "奈良県",
    "city": "五條市",
    "town": "南阿田町"
  },
  "6370024": {
    "zipcode": "6370024",
    "prefectureCode": "29",
    "prefectureNumber": 29,
    "prefecture": "奈良県",
    "city": "五條市",
    "town": "滝町"
  },
  "6370025": {
    "zipcode": "6370025",
    "prefectureCode": "29",
    "prefectureNumber": 29,
    "prefecture": "奈良県",
    "city": "五條市",
    "town": "車谷町"
  },
  "6370026": {
    "zipcode": "6370026",
    "prefectureCode": "29",
    "prefectureNumber": 29,
    "prefecture": "奈良県",
    "city": "五條市",
    "town": "湯谷市塚町"
  },
  "6370027": {
    "zipcode": "6370027",
    "prefectureCode": "29",
    "prefectureNumber": 29,
    "prefecture": "奈良県",
    "city": "五條市",
    "town": "島野町"
  },
  "6370028": {
    "zipcode": "6370028",
    "prefectureCode": "29",
    "prefectureNumber": 29,
    "prefecture": "奈良県",
    "city": "五條市",
    "town": "原町"
  },
  "6370029": {
    "zipcode": "6370029",
    "prefectureCode": "29",
    "prefectureNumber": 29,
    "prefecture": "奈良県",
    "city": "五條市",
    "town": "山田町"
  },
  "6370031": {
    "zipcode": "6370031",
    "prefectureCode": "29",
    "prefectureNumber": 29,
    "prefecture": "奈良県",
    "city": "五條市",
    "town": "小島町"
  },
  "6370032": {
    "zipcode": "6370032",
    "prefectureCode": "29",
    "prefectureNumber": 29,
    "prefecture": "奈良県",
    "city": "五條市",
    "town": "六倉町"
  },
  "6370033": {
    "zipcode": "6370033",
    "prefectureCode": "29",
    "prefectureNumber": 29,
    "prefecture": "奈良県",
    "city": "五條市",
    "town": "牧町"
  },
  "6370034": {
    "zipcode": "6370034",
    "prefectureCode": "29",
    "prefectureNumber": 29,
    "prefecture": "奈良県",
    "city": "五條市",
    "town": "野原町"
  },
  "6370035": {
    "zipcode": "6370035",
    "prefectureCode": "29",
    "prefectureNumber": 29,
    "prefecture": "奈良県",
    "city": "五條市",
    "town": "霊安寺町"
  },
  "6370036": {
    "zipcode": "6370036",
    "prefectureCode": "29",
    "prefectureNumber": 29,
    "prefecture": "奈良県",
    "city": "五條市",
    "town": "野原西"
  },
  "6370037": {
    "zipcode": "6370037",
    "prefectureCode": "29",
    "prefectureNumber": 29,
    "prefecture": "奈良県",
    "city": "五條市",
    "town": "野原中"
  },
  "6370038": {
    "zipcode": "6370038",
    "prefectureCode": "29",
    "prefectureNumber": 29,
    "prefecture": "奈良県",
    "city": "五條市",
    "town": "野原東"
  },
  "6370041": {
    "zipcode": "6370041",
    "prefectureCode": "29",
    "prefectureNumber": 29,
    "prefecture": "奈良県",
    "city": "五條市",
    "town": "本町"
  },
  "6370042": {
    "zipcode": "6370042",
    "prefectureCode": "29",
    "prefectureNumber": 29,
    "prefecture": "奈良県",
    "city": "五條市",
    "town": "五條"
  },
  "6370043": {
    "zipcode": "6370043",
    "prefectureCode": "29",
    "prefectureNumber": 29,
    "prefecture": "奈良県",
    "city": "五條市",
    "town": "新町"
  },
  "6370051": {
    "zipcode": "6370051",
    "prefectureCode": "29",
    "prefectureNumber": 29,
    "prefecture": "奈良県",
    "city": "五條市",
    "town": "御山町"
  },
  "6370052": {
    "zipcode": "6370052",
    "prefectureCode": "29",
    "prefectureNumber": 29,
    "prefecture": "奈良県",
    "city": "五條市",
    "town": "丹原町"
  },
  "6370053": {
    "zipcode": "6370053",
    "prefectureCode": "29",
    "prefectureNumber": 29,
    "prefecture": "奈良県",
    "city": "五條市",
    "town": "生子町"
  },
  "6370054": {
    "zipcode": "6370054",
    "prefectureCode": "29",
    "prefectureNumber": 29,
    "prefecture": "奈良県",
    "city": "五條市",
    "town": "樫辻町"
  },
  "6370060": {
    "zipcode": "6370060",
    "prefectureCode": "29",
    "prefectureNumber": 29,
    "prefecture": "奈良県",
    "city": "五條市",
    "town": "大津町"
  },
  "6370061": {
    "zipcode": "6370061",
    "prefectureCode": "29",
    "prefectureNumber": 29,
    "prefecture": "奈良県",
    "city": "五條市",
    "town": "中町"
  },
  "6370062": {
    "zipcode": "6370062",
    "prefectureCode": "29",
    "prefectureNumber": 29,
    "prefecture": "奈良県",
    "city": "五條市",
    "town": "黒駒町"
  },
  "6370063": {
    "zipcode": "6370063",
    "prefectureCode": "29",
    "prefectureNumber": 29,
    "prefecture": "奈良県",
    "city": "五條市",
    "town": "大野町"
  },
  "6370064": {
    "zipcode": "6370064",
    "prefectureCode": "29",
    "prefectureNumber": 29,
    "prefecture": "奈良県",
    "city": "五條市",
    "town": "山陰町"
  },
  "6370065": {
    "zipcode": "6370065",
    "prefectureCode": "29",
    "prefectureNumber": 29,
    "prefecture": "奈良県",
    "city": "五條市",
    "town": "阪合部新田町"
  },
  "6370066": {
    "zipcode": "6370066",
    "prefectureCode": "29",
    "prefectureNumber": 29,
    "prefecture": "奈良県",
    "city": "五條市",
    "town": "大深町"
  },
  "6370067": {
    "zipcode": "6370067",
    "prefectureCode": "29",
    "prefectureNumber": 29,
    "prefecture": "奈良県",
    "city": "五條市",
    "town": "田殿町"
  },
  "6370068": {
    "zipcode": "6370068",
    "prefectureCode": "29",
    "prefectureNumber": 29,
    "prefecture": "奈良県",
    "city": "五條市",
    "town": "火打町"
  },
  "6370069": {
    "zipcode": "6370069",
    "prefectureCode": "29",
    "prefectureNumber": 29,
    "prefecture": "奈良県",
    "city": "五條市",
    "town": "表野町"
  },
  "6370071": {
    "zipcode": "6370071",
    "prefectureCode": "29",
    "prefectureNumber": 29,
    "prefecture": "奈良県",
    "city": "五條市",
    "town": "二見"
  },
  "6370072": {
    "zipcode": "6370072",
    "prefectureCode": "29",
    "prefectureNumber": 29,
    "prefecture": "奈良県",
    "city": "五條市",
    "town": "犬飼町"
  },
  "6370073": {
    "zipcode": "6370073",
    "prefectureCode": "29",
    "prefectureNumber": 29,
    "prefecture": "奈良県",
    "city": "五條市",
    "town": "上野町"
  },
  "6370074": {
    "zipcode": "6370074",
    "prefectureCode": "29",
    "prefectureNumber": 29,
    "prefecture": "奈良県",
    "city": "五條市",
    "town": "相谷町"
  },
  "6370075": {
    "zipcode": "6370075",
    "prefectureCode": "29",
    "prefectureNumber": 29,
    "prefecture": "奈良県",
    "city": "五條市",
    "town": "畑田町"
  },
  "6370076": {
    "zipcode": "6370076",
    "prefectureCode": "29",
    "prefectureNumber": 29,
    "prefecture": "奈良県",
    "city": "五條市",
    "town": "木ノ原町"
  },
  "6370077": {
    "zipcode": "6370077",
    "prefectureCode": "29",
    "prefectureNumber": 29,
    "prefecture": "奈良県",
    "city": "五條市",
    "town": "大沢町"
  },
  "6370078": {
    "zipcode": "6370078",
    "prefectureCode": "29",
    "prefectureNumber": 29,
    "prefecture": "奈良県",
    "city": "五條市",
    "town": "なつみ台"
  },
  "6370081": {
    "zipcode": "6370081",
    "prefectureCode": "29",
    "prefectureNumber": 29,
    "prefecture": "奈良県",
    "city": "五條市",
    "town": "上之町"
  },
  "6370082": {
    "zipcode": "6370082",
    "prefectureCode": "29",
    "prefectureNumber": 29,
    "prefecture": "奈良県",
    "city": "五條市",
    "town": "中之町"
  },
  "6370083": {
    "zipcode": "6370083",
    "prefectureCode": "29",
    "prefectureNumber": 29,
    "prefecture": "奈良県",
    "city": "五條市",
    "town": "下之町"
  },
  "6370084": {
    "zipcode": "6370084",
    "prefectureCode": "29",
    "prefectureNumber": 29,
    "prefecture": "奈良県",
    "city": "五條市",
    "town": "釜窪町"
  },
  "6370091": {
    "zipcode": "6370091",
    "prefectureCode": "29",
    "prefectureNumber": 29,
    "prefecture": "奈良県",
    "city": "五條市",
    "town": "北山町"
  },
  "6370092": {
    "zipcode": "6370092",
    "prefectureCode": "29",
    "prefectureNumber": 29,
    "prefecture": "奈良県",
    "city": "五條市",
    "town": "岡町"
  },
  "6370093": {
    "zipcode": "6370093",
    "prefectureCode": "29",
    "prefectureNumber": 29,
    "prefecture": "奈良県",
    "city": "五條市",
    "town": "田園"
  },
  "6370101": {
    "zipcode": "6370101",
    "prefectureCode": "29",
    "prefectureNumber": 29,
    "prefecture": "奈良県",
    "city": "五條市",
    "town": "西吉野町大日川"
  },
  "6370102": {
    "zipcode": "6370102",
    "prefectureCode": "29",
    "prefectureNumber": 29,
    "prefecture": "奈良県",
    "city": "五條市",
    "town": "西吉野町黒淵"
  },
  "6370103": {
    "zipcode": "6370103",
    "prefectureCode": "29",
    "prefectureNumber": 29,
    "prefecture": "奈良県",
    "city": "五條市",
    "town": "西吉野町向加名生"
  },
  "6370104": {
    "zipcode": "6370104",
    "prefectureCode": "29",
    "prefectureNumber": 29,
    "prefecture": "奈良県",
    "city": "五條市",
    "town": "西吉野町屋那瀬"
  },
  "6370105": {
    "zipcode": "6370105",
    "prefectureCode": "29",
    "prefectureNumber": 29,
    "prefecture": "奈良県",
    "city": "五條市",
    "town": "西吉野町湯塩"
  },
  "6370111": {
    "zipcode": "6370111",
    "prefectureCode": "29",
    "prefectureNumber": 29,
    "prefecture": "奈良県",
    "city": "五條市",
    "town": "西吉野町江出"
  },
  "6370112": {
    "zipcode": "6370112",
    "prefectureCode": "29",
    "prefectureNumber": 29,
    "prefecture": "奈良県",
    "city": "五條市",
    "town": "西吉野町老野"
  },
  "6370113": {
    "zipcode": "6370113",
    "prefectureCode": "29",
    "prefectureNumber": 29,
    "prefecture": "奈良県",
    "city": "五條市",
    "town": "西吉野町神野"
  },
  "6370114": {
    "zipcode": "6370114",
    "prefectureCode": "29",
    "prefectureNumber": 29,
    "prefecture": "奈良県",
    "city": "五條市",
    "town": "西吉野町滝"
  },
  "6370115": {
    "zipcode": "6370115",
    "prefectureCode": "29",
    "prefectureNumber": 29,
    "prefecture": "奈良県",
    "city": "五條市",
    "town": "西吉野町北曽木"
  },
  "6370116": {
    "zipcode": "6370116",
    "prefectureCode": "29",
    "prefectureNumber": 29,
    "prefecture": "奈良県",
    "city": "五條市",
    "town": "西吉野町和田"
  },
  "6370117": {
    "zipcode": "6370117",
    "prefectureCode": "29",
    "prefectureNumber": 29,
    "prefecture": "奈良県",
    "city": "五條市",
    "town": "西吉野町賀名生"
  },
  "6370221": {
    "zipcode": "6370221",
    "prefectureCode": "29",
    "prefectureNumber": 29,
    "prefecture": "奈良県",
    "city": "五條市",
    "town": "西吉野町永谷"
  },
  "6370222": {
    "zipcode": "6370222",
    "prefectureCode": "29",
    "prefectureNumber": 29,
    "prefecture": "奈良県",
    "city": "五條市",
    "town": "西吉野町立川渡"
  },
  "6370223": {
    "zipcode": "6370223",
    "prefectureCode": "29",
    "prefectureNumber": 29,
    "prefecture": "奈良県",
    "city": "五條市",
    "town": "西吉野町本谷"
  },
  "6370224": {
    "zipcode": "6370224",
    "prefectureCode": "29",
    "prefectureNumber": 29,
    "prefecture": "奈良県",
    "city": "五條市",
    "town": "西吉野町茄子原"
  },
  "6370225": {
    "zipcode": "6370225",
    "prefectureCode": "29",
    "prefectureNumber": 29,
    "prefecture": "奈良県",
    "city": "五條市",
    "town": "西吉野町川股"
  },
  "6370226": {
    "zipcode": "6370226",
    "prefectureCode": "29",
    "prefectureNumber": 29,
    "prefecture": "奈良県",
    "city": "五條市",
    "town": "西吉野町西日裏"
  },
  "6370227": {
    "zipcode": "6370227",
    "prefectureCode": "29",
    "prefectureNumber": 29,
    "prefecture": "奈良県",
    "city": "五條市",
    "town": "西吉野町勢井"
  },
  "6370230": {
    "zipcode": "6370230",
    "prefectureCode": "29",
    "prefectureNumber": 29,
    "prefecture": "奈良県",
    "city": "五條市",
    "town": "西吉野町城戸"
  },
  "6370231": {
    "zipcode": "6370231",
    "prefectureCode": "29",
    "prefectureNumber": 29,
    "prefecture": "奈良県",
    "city": "五條市",
    "town": "西吉野町川岸"
  },
  "6370232": {
    "zipcode": "6370232",
    "prefectureCode": "29",
    "prefectureNumber": 29,
    "prefecture": "奈良県",
    "city": "五條市",
    "town": "西吉野町津越"
  },
  "6370233": {
    "zipcode": "6370233",
    "prefectureCode": "29",
    "prefectureNumber": 29,
    "prefecture": "奈良県",
    "city": "五條市",
    "town": "西吉野町桧川迫"
  },
  "6370234": {
    "zipcode": "6370234",
    "prefectureCode": "29",
    "prefectureNumber": 29,
    "prefecture": "奈良県",
    "city": "五條市",
    "town": "西吉野町大峯"
  },
  "6370235": {
    "zipcode": "6370235",
    "prefectureCode": "29",
    "prefectureNumber": 29,
    "prefecture": "奈良県",
    "city": "五條市",
    "town": "西吉野町平雄"
  },
  "6370236": {
    "zipcode": "6370236",
    "prefectureCode": "29",
    "prefectureNumber": 29,
    "prefecture": "奈良県",
    "city": "五條市",
    "town": "西吉野町阪巻"
  },
  "6370237": {
    "zipcode": "6370237",
    "prefectureCode": "29",
    "prefectureNumber": 29,
    "prefecture": "奈良県",
    "city": "五條市",
    "town": "西吉野町宗川野"
  },
  "6370238": {
    "zipcode": "6370238",
    "prefectureCode": "29",
    "prefectureNumber": 29,
    "prefecture": "奈良県",
    "city": "五條市",
    "town": "西吉野町西野"
  },
  "6370239": {
    "zipcode": "6370239",
    "prefectureCode": "29",
    "prefectureNumber": 29,
    "prefecture": "奈良県",
    "city": "五條市",
    "town": "西吉野町陰地"
  },
  "6370401": {
    "zipcode": "6370401",
    "prefectureCode": "29",
    "prefectureNumber": 29,
    "prefecture": "奈良県",
    "city": "五條市",
    "town": "大塔町篠原"
  },
  "6370402": {
    "zipcode": "6370402",
    "prefectureCode": "29",
    "prefectureNumber": 29,
    "prefecture": "奈良県",
    "city": "五條市",
    "town": "大塔町惣谷"
  },
  "6370403": {
    "zipcode": "6370403",
    "prefectureCode": "29",
    "prefectureNumber": 29,
    "prefecture": "奈良県",
    "city": "五條市",
    "town": "大塔町中井傍示"
  },
  "6370404": {
    "zipcode": "6370404",
    "prefectureCode": "29",
    "prefectureNumber": 29,
    "prefecture": "奈良県",
    "city": "五條市",
    "town": "大塔町中峯"
  },
  "6370405": {
    "zipcode": "6370405",
    "prefectureCode": "29",
    "prefectureNumber": 29,
    "prefecture": "奈良県",
    "city": "五條市",
    "town": "大塔町宇井"
  },
  "6370406": {
    "zipcode": "6370406",
    "prefectureCode": "29",
    "prefectureNumber": 29,
    "prefecture": "奈良県",
    "city": "五條市",
    "town": "大塔町清水"
  },
  "6370407": {
    "zipcode": "6370407",
    "prefectureCode": "29",
    "prefectureNumber": 29,
    "prefecture": "奈良県",
    "city": "五條市",
    "town": "大塔町閉君"
  },
  "6370408": {
    "zipcode": "6370408",
    "prefectureCode": "29",
    "prefectureNumber": 29,
    "prefecture": "奈良県",
    "city": "五條市",
    "town": "大塔町辻堂"
  },
  "6370409": {
    "zipcode": "6370409",
    "prefectureCode": "29",
    "prefectureNumber": 29,
    "prefecture": "奈良県",
    "city": "五條市",
    "town": "大塔町殿野"
  },
  "6370411": {
    "zipcode": "6370411",
    "prefectureCode": "29",
    "prefectureNumber": 29,
    "prefecture": "奈良県",
    "city": "五條市",
    "town": "大塔町堂平"
  },
  "6370412": {
    "zipcode": "6370412",
    "prefectureCode": "29",
    "prefectureNumber": 29,
    "prefecture": "奈良県",
    "city": "五條市",
    "town": "大塔町飛養曽"
  },
  "6370413": {
    "zipcode": "6370413",
    "prefectureCode": "29",
    "prefectureNumber": 29,
    "prefecture": "奈良県",
    "city": "五條市",
    "town": "大塔町引土"
  },
  "6370414": {
    "zipcode": "6370414",
    "prefectureCode": "29",
    "prefectureNumber": 29,
    "prefecture": "奈良県",
    "city": "五條市",
    "town": "大塔町猿谷"
  },
  "6370415": {
    "zipcode": "6370415",
    "prefectureCode": "29",
    "prefectureNumber": 29,
    "prefecture": "奈良県",
    "city": "五條市",
    "town": "大塔町中原"
  },
  "6370416": {
    "zipcode": "6370416",
    "prefectureCode": "29",
    "prefectureNumber": 29,
    "prefecture": "奈良県",
    "city": "五條市",
    "town": "大塔町小代"
  },
  "6370417": {
    "zipcode": "6370417",
    "prefectureCode": "29",
    "prefectureNumber": 29,
    "prefecture": "奈良県",
    "city": "五條市",
    "town": "大塔町阪本"
  },
  "6370419": {
    "zipcode": "6370419",
    "prefectureCode": "29",
    "prefectureNumber": 29,
    "prefecture": "奈良県",
    "city": "五條市",
    "town": "大塔町簾"
  },
  "6370421": {
    "zipcode": "6370421",
    "prefectureCode": "29",
    "prefectureNumber": 29,
    "prefecture": "奈良県",
    "city": "吉野郡野迫川村",
    "town": "今井"
  },
  "6370422": {
    "zipcode": "6370422",
    "prefectureCode": "29",
    "prefectureNumber": 29,
    "prefecture": "奈良県",
    "city": "吉野郡野迫川村",
    "town": "平川"
  },
  "6370423": {
    "zipcode": "6370423",
    "prefectureCode": "29",
    "prefectureNumber": 29,
    "prefecture": "奈良県",
    "city": "吉野郡野迫川村",
    "town": "柞原"
  },
  "6370424": {
    "zipcode": "6370424",
    "prefectureCode": "29",
    "prefectureNumber": 29,
    "prefecture": "奈良県",
    "city": "吉野郡野迫川村",
    "town": "中"
  },
  "6370425": {
    "zipcode": "6370425",
    "prefectureCode": "29",
    "prefectureNumber": 29,
    "prefecture": "奈良県",
    "city": "吉野郡野迫川村",
    "town": "上"
  },
  "6371101": {
    "zipcode": "6371101",
    "prefectureCode": "29",
    "prefectureNumber": 29,
    "prefecture": "奈良県",
    "city": "吉野郡十津川村",
    "town": "沼田原"
  },
  "6371102": {
    "zipcode": "6371102",
    "prefectureCode": "29",
    "prefectureNumber": 29,
    "prefecture": "奈良県",
    "city": "吉野郡十津川村",
    "town": "旭"
  },
  "6371103": {
    "zipcode": "6371103",
    "prefectureCode": "29",
    "prefectureNumber": 29,
    "prefecture": "奈良県",
    "city": "吉野郡十津川村",
    "town": "上野地"
  },
  "6371104": {
    "zipcode": "6371104",
    "prefectureCode": "29",
    "prefectureNumber": 29,
    "prefecture": "奈良県",
    "city": "吉野郡十津川村",
    "town": "高津"
  },
  "6371105": {
    "zipcode": "6371105",
    "prefectureCode": "29",
    "prefectureNumber": 29,
    "prefecture": "奈良県",
    "city": "吉野郡十津川村",
    "town": "林"
  },
  "6371106": {
    "zipcode": "6371106",
    "prefectureCode": "29",
    "prefectureNumber": 29,
    "prefecture": "奈良県",
    "city": "吉野郡十津川村",
    "town": "谷瀬"
  },
  "6371107": {
    "zipcode": "6371107",
    "prefectureCode": "29",
    "prefectureNumber": 29,
    "prefecture": "奈良県",
    "city": "吉野郡十津川村",
    "town": "宇宮原"
  },
  "6371108": {
    "zipcode": "6371108",
    "prefectureCode": "29",
    "prefectureNumber": 29,
    "prefecture": "奈良県",
    "city": "吉野郡十津川村",
    "town": "長殿"
  },
  "6371211": {
    "zipcode": "6371211",
    "prefectureCode": "29",
    "prefectureNumber": 29,
    "prefecture": "奈良県",
    "city": "吉野郡十津川村",
    "town": "滝川"
  },
  "6371212": {
    "zipcode": "6371212",
    "prefectureCode": "29",
    "prefectureNumber": 29,
    "prefecture": "奈良県",
    "city": "吉野郡十津川村",
    "town": "内原"
  },
  "6371213": {
    "zipcode": "6371213",
    "prefectureCode": "29",
    "prefectureNumber": 29,
    "prefecture": "奈良県",
    "city": "吉野郡十津川村",
    "town": "野尻"
  },
  "6371214": {
    "zipcode": "6371214",
    "prefectureCode": "29",
    "prefectureNumber": 29,
    "prefecture": "奈良県",
    "city": "吉野郡十津川村",
    "town": "山崎"
  },
  "6371215": {
    "zipcode": "6371215",
    "prefectureCode": "29",
    "prefectureNumber": 29,
    "prefecture": "奈良県",
    "city": "吉野郡十津川村",
    "town": "池穴"
  },
  "6371216": {
    "zipcode": "6371216",
    "prefectureCode": "29",
    "prefectureNumber": 29,
    "prefecture": "奈良県",
    "city": "吉野郡十津川村",
    "town": "川津"
  },
  "6371217": {
    "zipcode": "6371217",
    "prefectureCode": "29",
    "prefectureNumber": 29,
    "prefecture": "奈良県",
    "city": "吉野郡十津川村",
    "town": "風屋"
  },
  "6371221": {
    "zipcode": "6371221",
    "prefectureCode": "29",
    "prefectureNumber": 29,
    "prefecture": "奈良県",
    "city": "吉野郡十津川村",
    "town": "内野"
  },
  "6371222": {
    "zipcode": "6371222",
    "prefectureCode": "29",
    "prefectureNumber": 29,
    "prefecture": "奈良県",
    "city": "吉野郡十津川村",
    "town": "山天"
  },
  "6371223": {
    "zipcode": "6371223",
    "prefectureCode": "29",
    "prefectureNumber": 29,
    "prefecture": "奈良県",
    "city": "吉野郡十津川村",
    "town": "三浦"
  },
  "6371224": {
    "zipcode": "6371224",
    "prefectureCode": "29",
    "prefectureNumber": 29,
    "prefecture": "奈良県",
    "city": "吉野郡十津川村",
    "town": "五百瀬"
  },
  "6371225": {
    "zipcode": "6371225",
    "prefectureCode": "29",
    "prefectureNumber": 29,
    "prefecture": "奈良県",
    "city": "吉野郡十津川村",
    "town": "杉清"
  },
  "6371331": {
    "zipcode": "6371331",
    "prefectureCode": "29",
    "prefectureNumber": 29,
    "prefecture": "奈良県",
    "city": "吉野郡十津川村",
    "town": "大野"
  },
  "6371332": {
    "zipcode": "6371332",
    "prefectureCode": "29",
    "prefectureNumber": 29,
    "prefecture": "奈良県",
    "city": "吉野郡十津川村",
    "town": "武蔵"
  },
  "6371333": {
    "zipcode": "6371333",
    "prefectureCode": "29",
    "prefectureNumber": 29,
    "prefecture": "奈良県",
    "city": "吉野郡十津川村",
    "town": "小原"
  },
  "6371334": {
    "zipcode": "6371334",
    "prefectureCode": "29",
    "prefectureNumber": 29,
    "prefecture": "奈良県",
    "city": "吉野郡十津川村",
    "town": "小森"
  },
  "6371335": {
    "zipcode": "6371335",
    "prefectureCode": "29",
    "prefectureNumber": 29,
    "prefecture": "奈良県",
    "city": "吉野郡十津川村",
    "town": "湯之原"
  },
  "6371336": {
    "zipcode": "6371336",
    "prefectureCode": "29",
    "prefectureNumber": 29,
    "prefecture": "奈良県",
    "city": "吉野郡十津川村",
    "town": "小井"
  },
  "6371441": {
    "zipcode": "6371441",
    "prefectureCode": "29",
    "prefectureNumber": 29,
    "prefecture": "奈良県",
    "city": "吉野郡十津川村",
    "town": "小川"
  },
  "6371442": {
    "zipcode": "6371442",
    "prefectureCode": "29",
    "prefectureNumber": 29,
    "prefecture": "奈良県",
    "city": "吉野郡十津川村",
    "town": "高滝"
  },
  "6371443": {
    "zipcode": "6371443",
    "prefectureCode": "29",
    "prefectureNumber": 29,
    "prefecture": "奈良県",
    "city": "吉野郡十津川村",
    "town": "折立"
  },
  "6371444": {
    "zipcode": "6371444",
    "prefectureCode": "29",
    "prefectureNumber": 29,
    "prefecture": "奈良県",
    "city": "吉野郡十津川村",
    "town": "山手谷"
  },
  "6371445": {
    "zipcode": "6371445",
    "prefectureCode": "29",
    "prefectureNumber": 29,
    "prefecture": "奈良県",
    "city": "吉野郡十津川村",
    "town": "込之上"
  },
  "6371446": {
    "zipcode": "6371446",
    "prefectureCode": "29",
    "prefectureNumber": 29,
    "prefecture": "奈良県",
    "city": "吉野郡十津川村",
    "town": "樫原"
  },
  "6371500": {
    "zipcode": "6371500",
    "prefectureCode": "29",
    "prefectureNumber": 29,
    "prefecture": "奈良県",
    "city": "吉野郡十津川村",
    "town": "以下に掲載がない場合"
  },
  "6371551": {
    "zipcode": "6371551",
    "prefectureCode": "29",
    "prefectureNumber": 29,
    "prefecture": "奈良県",
    "city": "吉野郡十津川村",
    "town": "那知合"
  },
  "6371552": {
    "zipcode": "6371552",
    "prefectureCode": "29",
    "prefectureNumber": 29,
    "prefecture": "奈良県",
    "city": "吉野郡十津川村",
    "town": "谷垣内"
  },
  "6371553": {
    "zipcode": "6371553",
    "prefectureCode": "29",
    "prefectureNumber": 29,
    "prefecture": "奈良県",
    "city": "吉野郡十津川村",
    "town": "山手"
  },
  "6371554": {
    "zipcode": "6371554",
    "prefectureCode": "29",
    "prefectureNumber": 29,
    "prefecture": "奈良県",
    "city": "吉野郡十津川村",
    "town": "平谷"
  },
  "6371555": {
    "zipcode": "6371555",
    "prefectureCode": "29",
    "prefectureNumber": 29,
    "prefecture": "奈良県",
    "city": "吉野郡十津川村",
    "town": "猿飼"
  },
  "6371556": {
    "zipcode": "6371556",
    "prefectureCode": "29",
    "prefectureNumber": 29,
    "prefecture": "奈良県",
    "city": "吉野郡十津川村",
    "town": "桑畑"
  },
  "6371557": {
    "zipcode": "6371557",
    "prefectureCode": "29",
    "prefectureNumber": 29,
    "prefecture": "奈良県",
    "city": "吉野郡十津川村",
    "town": "七色"
  },
  "6371558": {
    "zipcode": "6371558",
    "prefectureCode": "29",
    "prefectureNumber": 29,
    "prefecture": "奈良県",
    "city": "吉野郡十津川村",
    "town": "出谷"
  },
  "6371559": {
    "zipcode": "6371559",
    "prefectureCode": "29",
    "prefectureNumber": 29,
    "prefecture": "奈良県",
    "city": "吉野郡十津川村",
    "town": "上湯川"
  },
  "6371661": {
    "zipcode": "6371661",
    "prefectureCode": "29",
    "prefectureNumber": 29,
    "prefecture": "奈良県",
    "city": "吉野郡十津川村",
    "town": "重里"
  },
  "6371662": {
    "zipcode": "6371662",
    "prefectureCode": "29",
    "prefectureNumber": 29,
    "prefecture": "奈良県",
    "city": "吉野郡十津川村",
    "town": "永井"
  },
  "6371663": {
    "zipcode": "6371663",
    "prefectureCode": "29",
    "prefectureNumber": 29,
    "prefecture": "奈良県",
    "city": "吉野郡十津川村",
    "town": "玉垣内"
  },
  "6371664": {
    "zipcode": "6371664",
    "prefectureCode": "29",
    "prefectureNumber": 29,
    "prefecture": "奈良県",
    "city": "吉野郡十津川村",
    "town": "今西"
  },
  "6371665": {
    "zipcode": "6371665",
    "prefectureCode": "29",
    "prefectureNumber": 29,
    "prefecture": "奈良県",
    "city": "吉野郡十津川村",
    "town": "西中"
  },
  "6371666": {
    "zipcode": "6371666",
    "prefectureCode": "29",
    "prefectureNumber": 29,
    "prefecture": "奈良県",
    "city": "吉野郡十津川村",
    "town": "小山手"
  },
  "6371667": {
    "zipcode": "6371667",
    "prefectureCode": "29",
    "prefectureNumber": 29,
    "prefecture": "奈良県",
    "city": "吉野郡十津川村",
    "town": "小坪瀬"
  },
  "6371668": {
    "zipcode": "6371668",
    "prefectureCode": "29",
    "prefectureNumber": 29,
    "prefecture": "奈良県",
    "city": "吉野郡十津川村",
    "town": "迫西川"
  }
}
