{
  "6380000": {
    "zipcode": "6380000",
    "prefectureCode": "29",
    "prefectureNumber": 29,
    "prefecture": "奈良県",
    "city": "吉野郡下市町",
    "town": "以下に掲載がない場合"
  },
  "6380001": {
    "zipcode": "6380001",
    "prefectureCode": "29",
    "prefectureNumber": 29,
    "prefecture": "奈良県",
    "city": "吉野郡下市町",
    "town": "阿知賀"
  },
  "6380002": {
    "zipcode": "6380002",
    "prefectureCode": "29",
    "prefectureNumber": 29,
    "prefecture": "奈良県",
    "city": "吉野郡下市町",
    "town": "小路"
  },
  "6380003": {
    "zipcode": "6380003",
    "prefectureCode": "29",
    "prefectureNumber": 29,
    "prefecture": "奈良県",
    "city": "吉野郡下市町",
    "town": "善城"
  },
  "6380011": {
    "zipcode": "6380011",
    "prefectureCode": "29",
    "prefectureNumber": 29,
    "prefecture": "奈良県",
    "city": "吉野郡下市町",
    "town": "よ邑"
  },
  "6380012": {
    "zipcode": "6380012",
    "prefectureCode": "29",
    "prefectureNumber": 29,
    "prefecture": "奈良県",
    "city": "吉野郡下市町",
    "town": "岩森"
  },
  "6380013": {
    "zipcode": "6380013",
    "prefectureCode": "29",
    "prefectureNumber": 29,
    "prefecture": "奈良県",
    "city": "吉野郡下市町",
    "town": "立石"
  },
  "6380014": {
    "zipcode": "6380014",
    "prefectureCode": "29",
    "prefectureNumber": 29,
    "prefecture": "奈良県",
    "city": "吉野郡下市町",
    "town": "才谷"
  },
  "6380015": {
    "zipcode": "6380015",
    "prefectureCode": "29",
    "prefectureNumber": 29,
    "prefecture": "奈良県",
    "city": "吉野郡下市町",
    "town": "広橋"
  },
  "6380021": {
    "zipcode": "6380021",
    "prefectureCode": "29",
    "prefectureNumber": 29,
    "prefecture": "奈良県",
    "city": "吉野郡下市町",
    "town": "長谷"
  },
  "6380022": {
    "zipcode": "6380022",
    "prefectureCode": "29",
    "prefectureNumber": 29,
    "prefecture": "奈良県",
    "city": "吉野郡下市町",
    "town": "丹生"
  },
  "6380023": {
    "zipcode": "6380023",
    "prefectureCode": "29",
    "prefectureNumber": 29,
    "prefecture": "奈良県",
    "city": "吉野郡下市町",
    "town": "黒木"
  },
  "6380024": {
    "zipcode": "6380024",
    "prefectureCode": "29",
    "prefectureNumber": 29,
    "prefecture": "奈良県",
    "city": "吉野郡下市町",
    "town": "貝原"
  },
  "6380025": {
    "zipcode": "6380025",
    "prefectureCode": "29",
    "prefectureNumber": 29,
    "prefecture": "奈良県",
    "city": "吉野郡下市町",
    "town": "谷"
  },
  "6380026": {
    "zipcode": "6380026",
    "prefectureCode": "29",
    "prefectureNumber": 29,
    "prefecture": "奈良県",
    "city": "吉野郡下市町",
    "town": "西山"
  },
  "6380031": {
    "zipcode": "6380031",
    "prefectureCode": "29",
    "prefectureNumber": 29,
    "prefecture": "奈良県",
    "city": "吉野郡下市町",
    "town": "栃本"
  },
  "6380032": {
    "zipcode": "6380032",
    "prefectureCode": "29",
    "prefectureNumber": 29,
    "prefecture": "奈良県",
    "city": "吉野郡下市町",
    "town": "原谷"
  },
  "6380033": {
    "zipcode": "6380033",
    "prefectureCode": "29",
    "prefectureNumber": 29,
    "prefecture": "奈良県",
    "city": "吉野郡下市町",
    "town": "梨子堂"
  },
  "6380034": {
    "zipcode": "6380034",
    "prefectureCode": "29",
    "prefectureNumber": 29,
    "prefecture": "奈良県",
    "city": "吉野郡下市町",
    "town": "平原"
  },
  "6380035": {
    "zipcode": "6380035",
    "prefectureCode": "29",
    "prefectureNumber": 29,
    "prefecture": "奈良県",
    "city": "吉野郡下市町",
    "town": "栃原"
  },
  "6380041": {
    "zipcode": "6380041",
    "prefectureCode": "29",
    "prefectureNumber": 29,
    "prefecture": "奈良県",
    "city": "吉野郡下市町",
    "town": "下市"
  },
  "6380042": {
    "zipcode": "6380042",
    "prefectureCode": "29",
    "prefectureNumber": 29,
    "prefecture": "奈良県",
    "city": "吉野郡下市町",
    "town": "栄町"
  },
  "6380043": {
    "zipcode": "6380043",
    "prefectureCode": "29",
    "prefectureNumber": 29,
    "prefecture": "奈良県",
    "city": "吉野郡下市町",
    "town": "大峯"
  },
  "6380044": {
    "zipcode": "6380044",
    "prefectureCode": "29",
    "prefectureNumber": 29,
    "prefecture": "奈良県",
    "city": "吉野郡下市町",
    "town": "田中"
  },
  "6380045": {
    "zipcode": "6380045",
    "prefectureCode": "29",
    "prefectureNumber": 29,
    "prefecture": "奈良県",
    "city": "吉野郡下市町",
    "town": "新住"
  },
  "6380200": {
    "zipcode": "6380200",
    "prefectureCode": "29",
    "prefectureNumber": 29,
    "prefecture": "奈良県",
    "city": "吉野郡黒滝村",
    "town": "以下に掲載がない場合"
  },
  "6380201": {
    "zipcode": "6380201",
    "prefectureCode": "29",
    "prefectureNumber": 29,
    "prefecture": "奈良県",
    "city": "吉野郡黒滝村",
    "town": "槇尾"
  },
  "6380202": {
    "zipcode": "6380202",
    "prefectureCode": "29",
    "prefectureNumber": 29,
    "prefecture": "奈良県",
    "city": "吉野郡黒滝村",
    "town": "脇川"
  },
  "6380203": {
    "zipcode": "6380203",
    "prefectureCode": "29",
    "prefectureNumber": 29,
    "prefecture": "奈良県",
    "city": "吉野郡黒滝村",
    "town": "鳥住"
  },
  "6380211": {
    "zipcode": "6380211",
    "prefectureCode": "29",
    "prefectureNumber": 29,
    "prefecture": "奈良県",
    "city": "吉野郡黒滝村",
    "town": "赤滝"
  },
  "6380221": {
    "zipcode": "6380221",
    "prefectureCode": "29",
    "prefectureNumber": 29,
    "prefecture": "奈良県",
    "city": "吉野郡黒滝村",
    "town": "中戸"
  },
  "6380231": {
    "zipcode": "6380231",
    "prefectureCode": "29",
    "prefectureNumber": 29,
    "prefecture": "奈良県",
    "city": "吉野郡黒滝村",
    "town": "笠木"
  },
  "6380232": {
    "zipcode": "6380232",
    "prefectureCode": "29",
    "prefectureNumber": 29,
    "prefecture": "奈良県",
    "city": "吉野郡黒滝村",
    "town": "桂原"
  },
  "6380233": {
    "zipcode": "6380233",
    "prefectureCode": "29",
    "prefectureNumber": 29,
    "prefecture": "奈良県",
    "city": "吉野郡黒滝村",
    "town": "長瀬"
  },
  "6380241": {
    "zipcode": "6380241",
    "prefectureCode": "29",
    "prefectureNumber": 29,
    "prefecture": "奈良県",
    "city": "吉野郡黒滝村",
    "town": "粟飯谷"
  },
  "6380242": {
    "zipcode": "6380242",
    "prefectureCode": "29",
    "prefectureNumber": 29,
    "prefecture": "奈良県",
    "city": "吉野郡黒滝村",
    "town": "御吉野"
  },
  "6380243": {
    "zipcode": "6380243",
    "prefectureCode": "29",
    "prefectureNumber": 29,
    "prefecture": "奈良県",
    "city": "吉野郡黒滝村",
    "town": "堂原"
  },
  "6380251": {
    "zipcode": "6380251",
    "prefectureCode": "29",
    "prefectureNumber": 29,
    "prefecture": "奈良県",
    "city": "吉野郡黒滝村",
    "town": "寺戸"
  },
  "6380300": {
    "zipcode": "6380300",
    "prefectureCode": "29",
    "prefectureNumber": 29,
    "prefecture": "奈良県",
    "city": "吉野郡天川村",
    "town": "以下に掲載がない場合"
  },
  "6380301": {
    "zipcode": "6380301",
    "prefectureCode": "29",
    "prefectureNumber": 29,
    "prefecture": "奈良県",
    "city": "吉野郡天川村",
    "town": "川合"
  },
  "6380302": {
    "zipcode": "6380302",
    "prefectureCode": "29",
    "prefectureNumber": 29,
    "prefecture": "奈良県",
    "city": "吉野郡天川村",
    "town": "中越"
  },
  "6380303": {
    "zipcode": "6380303",
    "prefectureCode": "29",
    "prefectureNumber": 29,
    "prefecture": "奈良県",
    "city": "吉野郡天川村",
    "town": "北角"
  },
  "6380304": {
    "zipcode": "6380304",
    "prefectureCode": "29",
    "prefectureNumber": 29,
    "prefecture": "奈良県",
    "city": "吉野郡天川村",
    "town": "南角"
  },
  "6380305": {
    "zipcode": "6380305",
    "prefectureCode": "29",
    "prefectureNumber": 29,
    "prefecture": "奈良県",
    "city": "吉野郡天川村",
    "town": "沢谷"
  },
  "6380311": {
    "zipcode": "6380311",
    "prefectureCode": "29",
    "prefectureNumber": 29,
    "prefecture": "奈良県",
    "city": "吉野郡天川村",
    "town": "沖金"
  },
  "6380312": {
    "zipcode": "6380312",
    "prefectureCode": "29",
    "prefectureNumber": 29,
    "prefecture": "奈良県",
    "city": "吉野郡天川村",
    "town": "中谷"
  },
  "6380313": {
    "zipcode": "6380313",
    "prefectureCode": "29",
    "prefectureNumber": 29,
    "prefecture": "奈良県",
    "city": "吉野郡天川村",
    "town": "北小原"
  },
  "6380314": {
    "zipcode": "6380314",
    "prefectureCode": "29",
    "prefectureNumber": 29,
    "prefecture": "奈良県",
    "city": "吉野郡天川村",
    "town": "五色"
  },
  "6380315": {
    "zipcode": "6380315",
    "prefectureCode": "29",
    "prefectureNumber": 29,
    "prefecture": "奈良県",
    "city": "吉野郡天川村",
    "town": "沢原"
  },
  "6380321": {
    "zipcode": "6380321",
    "prefectureCode": "29",
    "prefectureNumber": 29,
    "prefecture": "奈良県",
    "city": "吉野郡天川村",
    "town": "坪内"
  },
  "6380322": {
    "zipcode": "6380322",
    "prefectureCode": "29",
    "prefectureNumber": 29,
    "prefecture": "奈良県",
    "city": "吉野郡天川村",
    "town": "南日裏"
  },
  "6380431": {
    "zipcode": "6380431",
    "prefectureCode": "29",
    "prefectureNumber": 29,
    "prefecture": "奈良県",
    "city": "吉野郡天川村",
    "town": "洞川"
  },
  "6380541": {
    "zipcode": "6380541",
    "prefectureCode": "29",
    "prefectureNumber": 29,
    "prefecture": "奈良県",
    "city": "吉野郡天川村",
    "town": "九尾"
  },
  "6380542": {
    "zipcode": "6380542",
    "prefectureCode": "29",
    "prefectureNumber": 29,
    "prefecture": "奈良県",
    "city": "吉野郡天川村",
    "town": "栃尾"
  },
  "6380543": {
    "zipcode": "6380543",
    "prefectureCode": "29",
    "prefectureNumber": 29,
    "prefecture": "奈良県",
    "city": "吉野郡天川村",
    "town": "和田"
  },
  "6380551": {
    "zipcode": "6380551",
    "prefectureCode": "29",
    "prefectureNumber": 29,
    "prefecture": "奈良県",
    "city": "吉野郡天川村",
    "town": "籠山"
  },
  "6380552": {
    "zipcode": "6380552",
    "prefectureCode": "29",
    "prefectureNumber": 29,
    "prefecture": "奈良県",
    "city": "吉野郡天川村",
    "town": "庵住"
  },
  "6380553": {
    "zipcode": "6380553",
    "prefectureCode": "29",
    "prefectureNumber": 29,
    "prefecture": "奈良県",
    "city": "吉野郡天川村",
    "town": "山西"
  },
  "6380561": {
    "zipcode": "6380561",
    "prefectureCode": "29",
    "prefectureNumber": 29,
    "prefecture": "奈良県",
    "city": "吉野郡天川村",
    "town": "広瀬"
  },
  "6380562": {
    "zipcode": "6380562",
    "prefectureCode": "29",
    "prefectureNumber": 29,
    "prefecture": "奈良県",
    "city": "吉野郡天川村",
    "town": "滝尾"
  },
  "6380563": {
    "zipcode": "6380563",
    "prefectureCode": "29",
    "prefectureNumber": 29,
    "prefecture": "奈良県",
    "city": "吉野郡天川村",
    "town": "塩野"
  },
  "6380564": {
    "zipcode": "6380564",
    "prefectureCode": "29",
    "prefectureNumber": 29,
    "prefecture": "奈良県",
    "city": "吉野郡天川村",
    "town": "塩谷"
  },
  "6380641": {
    "zipcode": "6380641",
    "prefectureCode": "29",
    "prefectureNumber": 29,
    "prefecture": "奈良県",
    "city": "五條市",
    "town": "西吉野町百谷"
  },
  "6380642": {
    "zipcode": "6380642",
    "prefectureCode": "29",
    "prefectureNumber": 29,
    "prefecture": "奈良県",
    "city": "五條市",
    "town": "西吉野町平沼田"
  },
  "6380643": {
    "zipcode": "6380643",
    "prefectureCode": "29",
    "prefectureNumber": 29,
    "prefecture": "奈良県",
    "city": "五條市",
    "town": "西吉野町赤松"
  },
  "6380644": {
    "zipcode": "6380644",
    "prefectureCode": "29",
    "prefectureNumber": 29,
    "prefecture": "奈良県",
    "city": "五條市",
    "town": "西吉野町湯川"
  },
  "6380651": {
    "zipcode": "6380651",
    "prefectureCode": "29",
    "prefectureNumber": 29,
    "prefecture": "奈良県",
    "city": "五條市",
    "town": "西吉野町唐戸"
  },
  "6380652": {
    "zipcode": "6380652",
    "prefectureCode": "29",
    "prefectureNumber": 29,
    "prefecture": "奈良県",
    "city": "五條市",
    "town": "西吉野町尼ケ生"
  },
  "6380653": {
    "zipcode": "6380653",
    "prefectureCode": "29",
    "prefectureNumber": 29,
    "prefecture": "奈良県",
    "city": "五條市",
    "town": "西吉野町十日市"
  },
  "6380654": {
    "zipcode": "6380654",
    "prefectureCode": "29",
    "prefectureNumber": 29,
    "prefecture": "奈良県",
    "city": "五條市",
    "town": "西吉野町南山"
  },
  "6380655": {
    "zipcode": "6380655",
    "prefectureCode": "29",
    "prefectureNumber": 29,
    "prefecture": "奈良県",
    "city": "五條市",
    "town": "西吉野町小古田"
  },
  "6380656": {
    "zipcode": "6380656",
    "prefectureCode": "29",
    "prefectureNumber": 29,
    "prefecture": "奈良県",
    "city": "五條市",
    "town": "西吉野町鹿場"
  },
  "6380657": {
    "zipcode": "6380657",
    "prefectureCode": "29",
    "prefectureNumber": 29,
    "prefecture": "奈良県",
    "city": "五條市",
    "town": "西吉野町八ツ川"
  },
  "6380661": {
    "zipcode": "6380661",
    "prefectureCode": "29",
    "prefectureNumber": 29,
    "prefecture": "奈良県",
    "city": "五條市",
    "town": "西吉野町西新子"
  },
  "6380662": {
    "zipcode": "6380662",
    "prefectureCode": "29",
    "prefectureNumber": 29,
    "prefecture": "奈良県",
    "city": "五條市",
    "town": "西吉野町夜中"
  },
  "6380663": {
    "zipcode": "6380663",
    "prefectureCode": "29",
    "prefectureNumber": 29,
    "prefecture": "奈良県",
    "city": "五條市",
    "town": "西吉野町奥谷"
  },
  "6380801": {
    "zipcode": "6380801",
    "prefectureCode": "29",
    "prefectureNumber": 29,
    "prefecture": "奈良県",
    "city": "吉野郡大淀町",
    "town": "芦原"
  },
  "6380802": {
    "zipcode": "6380802",
    "prefectureCode": "29",
    "prefectureNumber": 29,
    "prefecture": "奈良県",
    "city": "吉野郡大淀町",
    "town": "畑屋"
  },
  "6380803": {
    "zipcode": "6380803",
    "prefectureCode": "29",
    "prefectureNumber": 29,
    "prefecture": "奈良県",
    "city": "吉野郡大淀町",
    "town": "越部"
  },
  "6380811": {
    "zipcode": "6380811",
    "prefectureCode": "29",
    "prefectureNumber": 29,
    "prefecture": "奈良県",
    "city": "吉野郡大淀町",
    "town": "土田"
  },
  "6380812": {
    "zipcode": "6380812",
    "prefectureCode": "29",
    "prefectureNumber": 29,
    "prefecture": "奈良県",
    "city": "吉野郡大淀町",
    "town": "桧垣本"
  },
  "6380821": {
    "zipcode": "6380821",
    "prefectureCode": "29",
    "prefectureNumber": 29,
    "prefecture": "奈良県",
    "city": "吉野郡大淀町",
    "town": "下渕"
  },
  "6380831": {
    "zipcode": "6380831",
    "prefectureCode": "29",
    "prefectureNumber": 29,
    "prefecture": "奈良県",
    "city": "吉野郡大淀町",
    "town": "佐名伝"
  },
  "6380832": {
    "zipcode": "6380832",
    "prefectureCode": "29",
    "prefectureNumber": 29,
    "prefecture": "奈良県",
    "city": "吉野郡大淀町",
    "town": "薬水"
  },
  "6380833": {
    "zipcode": "6380833",
    "prefectureCode": "29",
    "prefectureNumber": 29,
    "prefecture": "奈良県",
    "city": "吉野郡大淀町",
    "town": "福神"
  },
  "6380841": {
    "zipcode": "6380841",
    "prefectureCode": "29",
    "prefectureNumber": 29,
    "prefecture": "奈良県",
    "city": "吉野郡大淀町",
    "town": "今木"
  },
  "6380842": {
    "zipcode": "6380842",
    "prefectureCode": "29",
    "prefectureNumber": 29,
    "prefecture": "奈良県",
    "city": "吉野郡大淀町",
    "town": "大岩"
  },
  "6380843": {
    "zipcode": "6380843",
    "prefectureCode": "29",
    "prefectureNumber": 29,
    "prefecture": "奈良県",
    "city": "吉野郡大淀町",
    "town": "鉾立"
  },
  "6380851": {
    "zipcode": "6380851",
    "prefectureCode": "29",
    "prefectureNumber": 29,
    "prefecture": "奈良県",
    "city": "吉野郡大淀町",
    "town": "岩壺"
  },
  "6380852": {
    "zipcode": "6380852",
    "prefectureCode": "29",
    "prefectureNumber": 29,
    "prefecture": "奈良県",
    "city": "吉野郡大淀町",
    "town": "持尾"
  },
  "6380853": {
    "zipcode": "6380853",
    "prefectureCode": "29",
    "prefectureNumber": 29,
    "prefecture": "奈良県",
    "city": "吉野郡大淀町",
    "town": "矢走"
  }
}
