{
  "6390200": {
    "zipcode": "6390200",
    "prefectureCode": "29",
    "prefectureNumber": 29,
    "prefecture": "奈良県",
    "city": "北葛城郡上牧町",
    "town": "以下に掲載がない場合"
  },
  "6390201": {
    "zipcode": "6390201",
    "prefectureCode": "29",
    "prefectureNumber": 29,
    "prefecture": "奈良県",
    "city": "北葛城郡上牧町",
    "town": "片岡台"
  },
  "6390202": {
    "zipcode": "6390202",
    "prefectureCode": "29",
    "prefectureNumber": 29,
    "prefecture": "奈良県",
    "city": "北葛城郡上牧町",
    "town": "桜ケ丘"
  },
  "6390203": {
    "zipcode": "6390203",
    "prefectureCode": "29",
    "prefectureNumber": 29,
    "prefecture": "奈良県",
    "city": "北葛城郡上牧町",
    "town": "友が丘"
  },
  "6390204": {
    "zipcode": "6390204",
    "prefectureCode": "29",
    "prefectureNumber": 29,
    "prefecture": "奈良県",
    "city": "北葛城郡上牧町",
    "town": "緑ケ丘"
  },
  "6390205": {
    "zipcode": "6390205",
    "prefectureCode": "29",
    "prefectureNumber": 29,
    "prefecture": "奈良県",
    "city": "北葛城郡上牧町",
    "town": "下牧"
  },
  "6390206": {
    "zipcode": "6390206",
    "prefectureCode": "29",
    "prefectureNumber": 29,
    "prefecture": "奈良県",
    "city": "北葛城郡上牧町",
    "town": "ゆりが丘"
  },
  "6390211": {
    "zipcode": "6390211",
    "prefectureCode": "29",
    "prefectureNumber": 29,
    "prefecture": "奈良県",
    "city": "北葛城郡上牧町",
    "town": "滝川台"
  },
  "6390212": {
    "zipcode": "6390212",
    "prefectureCode": "29",
    "prefectureNumber": 29,
    "prefecture": "奈良県",
    "city": "北葛城郡上牧町",
    "town": "服部台"
  },
  "6390213": {
    "zipcode": "6390213",
    "prefectureCode": "29",
    "prefectureNumber": 29,
    "prefecture": "奈良県",
    "city": "北葛城郡上牧町",
    "town": "米山台"
  },
  "6390214": {
    "zipcode": "6390214",
    "prefectureCode": "29",
    "prefectureNumber": 29,
    "prefecture": "奈良県",
    "city": "北葛城郡上牧町",
    "town": "上牧"
  },
  "6390215": {
    "zipcode": "6390215",
    "prefectureCode": "29",
    "prefectureNumber": 29,
    "prefecture": "奈良県",
    "city": "北葛城郡上牧町",
    "town": "葛城台"
  },
  "6390216": {
    "zipcode": "6390216",
    "prefectureCode": "29",
    "prefectureNumber": 29,
    "prefecture": "奈良県",
    "city": "北葛城郡上牧町",
    "town": "松里園"
  },
  "6390217": {
    "zipcode": "6390217",
    "prefectureCode": "29",
    "prefectureNumber": 29,
    "prefecture": "奈良県",
    "city": "北葛城郡上牧町",
    "town": "中筋出作"
  },
  "6390218": {
    "zipcode": "6390218",
    "prefectureCode": "29",
    "prefectureNumber": 29,
    "prefecture": "奈良県",
    "city": "北葛城郡上牧町",
    "town": "ささゆり台"
  },
  "6390221": {
    "zipcode": "6390221",
    "prefectureCode": "29",
    "prefectureNumber": 29,
    "prefecture": "奈良県",
    "city": "香芝市",
    "town": "五ケ所"
  },
  "6390222": {
    "zipcode": "6390222",
    "prefectureCode": "29",
    "prefectureNumber": 29,
    "prefecture": "奈良県",
    "city": "香芝市",
    "town": "西真美"
  },
  "6390223": {
    "zipcode": "6390223",
    "prefectureCode": "29",
    "prefectureNumber": 29,
    "prefecture": "奈良県",
    "city": "香芝市",
    "town": "真美ケ丘"
  },
  "6390224": {
    "zipcode": "6390224",
    "prefectureCode": "29",
    "prefectureNumber": 29,
    "prefecture": "奈良県",
    "city": "香芝市",
    "town": "別所"
  },
  "6390225": {
    "zipcode": "6390225",
    "prefectureCode": "29",
    "prefectureNumber": 29,
    "prefecture": "奈良県",
    "city": "香芝市",
    "town": "瓦口"
  },
  "6390226": {
    "zipcode": "6390226",
    "prefectureCode": "29",
    "prefectureNumber": 29,
    "prefecture": "奈良県",
    "city": "香芝市",
    "town": "五位堂"
  },
  "6390227": {
    "zipcode": "6390227",
    "prefectureCode": "29",
    "prefectureNumber": 29,
    "prefecture": "奈良県",
    "city": "香芝市",
    "town": "鎌田"
  },
  "6390231": {
    "zipcode": "6390231",
    "prefectureCode": "29",
    "prefectureNumber": 29,
    "prefecture": "奈良県",
    "city": "香芝市",
    "town": "下田西"
  },
  "6390232": {
    "zipcode": "6390232",
    "prefectureCode": "29",
    "prefectureNumber": 29,
    "prefecture": "奈良県",
    "city": "香芝市",
    "town": "下田東"
  },
  "6390233": {
    "zipcode": "6390233",
    "prefectureCode": "29",
    "prefectureNumber": 29,
    "prefecture": "奈良県",
    "city": "香芝市",
    "town": "下田"
  },
  "6390234": {
    "zipcode": "6390234",
    "prefectureCode": "29",
    "prefectureNumber": 29,
    "prefecture": "奈良県",
    "city": "香芝市",
    "town": "狐井"
  },
  "6390235": {
    "zipcode": "6390235",
    "prefectureCode": "29",
    "prefectureNumber": 29,
    "prefecture": "奈良県",
    "city": "香芝市",
    "town": "良福寺"
  },
  "6390236": {
    "zipcode": "6390236",
    "prefectureCode": "29",
    "prefectureNumber": 29,
    "prefecture": "奈良県",
    "city": "香芝市",
    "town": "磯壁"
  },
  "6390237": {
    "zipcode": "6390237",
    "prefectureCode": "29",
    "prefectureNumber": 29,
    "prefecture": "奈良県",
    "city": "香芝市",
    "town": "すみれ野"
  },
  "6390241": {
    "zipcode": "6390241",
    "prefectureCode": "29",
    "prefectureNumber": 29,
    "prefecture": "奈良県",
    "city": "香芝市",
    "town": "高"
  },
  "6390242": {
    "zipcode": "6390242",
    "prefectureCode": "29",
    "prefectureNumber": 29,
    "prefecture": "奈良県",
    "city": "香芝市",
    "town": "北今市"
  },
  "6390243": {
    "zipcode": "6390243",
    "prefectureCode": "29",
    "prefectureNumber": 29,
    "prefecture": "奈良県",
    "city": "香芝市",
    "town": "藤山"
  },
  "6390244": {
    "zipcode": "6390244",
    "prefectureCode": "29",
    "prefectureNumber": 29,
    "prefecture": "奈良県",
    "city": "香芝市",
    "town": "本町"
  },
  "6390245": {
    "zipcode": "6390245",
    "prefectureCode": "29",
    "prefectureNumber": 29,
    "prefecture": "奈良県",
    "city": "香芝市",
    "town": "畑"
  },
  "6390251": {
    "zipcode": "6390251",
    "prefectureCode": "29",
    "prefectureNumber": 29,
    "prefecture": "奈良県",
    "city": "香芝市",
    "town": "逢坂"
  },
  "6390252": {
    "zipcode": "6390252",
    "prefectureCode": "29",
    "prefectureNumber": 29,
    "prefecture": "奈良県",
    "city": "香芝市",
    "town": "穴虫"
  },
  "6390253": {
    "zipcode": "6390253",
    "prefectureCode": "29",
    "prefectureNumber": 29,
    "prefecture": "奈良県",
    "city": "香芝市",
    "town": "田尻"
  },
  "6390254": {
    "zipcode": "6390254",
    "prefectureCode": "29",
    "prefectureNumber": 29,
    "prefecture": "奈良県",
    "city": "香芝市",
    "town": "関屋北"
  },
  "6390255": {
    "zipcode": "6390255",
    "prefectureCode": "29",
    "prefectureNumber": 29,
    "prefecture": "奈良県",
    "city": "香芝市",
    "town": "関屋"
  },
  "6390256": {
    "zipcode": "6390256",
    "prefectureCode": "29",
    "prefectureNumber": 29,
    "prefecture": "奈良県",
    "city": "香芝市",
    "town": "高山台"
  },
  "6390261": {
    "zipcode": "6390261",
    "prefectureCode": "29",
    "prefectureNumber": 29,
    "prefecture": "奈良県",
    "city": "香芝市",
    "town": "尼寺"
  },
  "6390262": {
    "zipcode": "6390262",
    "prefectureCode": "29",
    "prefectureNumber": 29,
    "prefecture": "奈良県",
    "city": "香芝市",
    "town": "白鳳台"
  },
  "6390263": {
    "zipcode": "6390263",
    "prefectureCode": "29",
    "prefectureNumber": 29,
    "prefecture": "奈良県",
    "city": "香芝市",
    "town": "平野"
  },
  "6390264": {
    "zipcode": "6390264",
    "prefectureCode": "29",
    "prefectureNumber": 29,
    "prefecture": "奈良県",
    "city": "香芝市",
    "town": "今泉"
  },
  "6390265": {
    "zipcode": "6390265",
    "prefectureCode": "29",
    "prefectureNumber": 29,
    "prefecture": "奈良県",
    "city": "香芝市",
    "town": "上中"
  },
  "6390266": {
    "zipcode": "6390266",
    "prefectureCode": "29",
    "prefectureNumber": 29,
    "prefecture": "奈良県",
    "city": "香芝市",
    "town": "旭ケ丘"
  },
  "6390271": {
    "zipcode": "6390271",
    "prefectureCode": "29",
    "prefectureNumber": 29,
    "prefecture": "奈良県",
    "city": "葛城市",
    "town": "加守"
  },
  "6390272": {
    "zipcode": "6390272",
    "prefectureCode": "29",
    "prefectureNumber": 29,
    "prefecture": "奈良県",
    "city": "葛城市",
    "town": "新在家"
  },
  "6390273": {
    "zipcode": "6390273",
    "prefectureCode": "29",
    "prefectureNumber": 29,
    "prefecture": "奈良県",
    "city": "葛城市",
    "town": "染野"
  },
  "6390274": {
    "zipcode": "6390274",
    "prefectureCode": "29",
    "prefectureNumber": 29,
    "prefecture": "奈良県",
    "city": "葛城市",
    "town": "今在家"
  },
  "6390275": {
    "zipcode": "6390275",
    "prefectureCode": "29",
    "prefectureNumber": 29,
    "prefecture": "奈良県",
    "city": "葛城市",
    "town": "勝根"
  },
  "6390276": {
    "zipcode": "6390276",
    "prefectureCode": "29",
    "prefectureNumber": 29,
    "prefecture": "奈良県",
    "city": "葛城市",
    "town": "當麻"
  },
  "6391001": {
    "zipcode": "6391001",
    "prefectureCode": "29",
    "prefectureNumber": 29,
    "prefecture": "奈良県",
    "city": "大和郡山市",
    "town": "九条町"
  },
  "6391002": {
    "zipcode": "6391002",
    "prefectureCode": "29",
    "prefectureNumber": 29,
    "prefecture": "奈良県",
    "city": "大和郡山市",
    "town": "九条平野町"
  },
  "6391003": {
    "zipcode": "6391003",
    "prefectureCode": "29",
    "prefectureNumber": 29,
    "prefecture": "奈良県",
    "city": "大和郡山市",
    "town": "代官町"
  },
  "6391004": {
    "zipcode": "6391004",
    "prefectureCode": "29",
    "prefectureNumber": 29,
    "prefecture": "奈良県",
    "city": "大和郡山市",
    "town": "城北町"
  },
  "6391005": {
    "zipcode": "6391005",
    "prefectureCode": "29",
    "prefectureNumber": 29,
    "prefecture": "奈良県",
    "city": "大和郡山市",
    "town": "植槻町"
  },
  "6391006": {
    "zipcode": "6391006",
    "prefectureCode": "29",
    "prefectureNumber": 29,
    "prefecture": "奈良県",
    "city": "大和郡山市",
    "town": "天理町"
  },
  "6391007": {
    "zipcode": "6391007",
    "prefectureCode": "29",
    "prefectureNumber": 29,
    "prefecture": "奈良県",
    "city": "大和郡山市",
    "town": "南郡山町"
  },
  "6391008": {
    "zipcode": "6391008",
    "prefectureCode": "29",
    "prefectureNumber": 29,
    "prefecture": "奈良県",
    "city": "大和郡山市",
    "town": "城の台町"
  },
  "6391011": {
    "zipcode": "6391011",
    "prefectureCode": "29",
    "prefectureNumber": 29,
    "prefecture": "奈良県",
    "city": "大和郡山市",
    "town": "城内町"
  },
  "6391012": {
    "zipcode": "6391012",
    "prefectureCode": "29",
    "prefectureNumber": 29,
    "prefecture": "奈良県",
    "city": "大和郡山市",
    "town": "城見町"
  },
  "6391013": {
    "zipcode": "6391013",
    "prefectureCode": "29",
    "prefectureNumber": 29,
    "prefecture": "奈良県",
    "city": "大和郡山市",
    "town": "朝日町"
  },
  "6391014": {
    "zipcode": "6391014",
    "prefectureCode": "29",
    "prefectureNumber": 29,
    "prefecture": "奈良県",
    "city": "大和郡山市",
    "town": "西岡町"
  },
  "6391015": {
    "zipcode": "6391015",
    "prefectureCode": "29",
    "prefectureNumber": 29,
    "prefecture": "奈良県",
    "city": "大和郡山市",
    "town": "箕山町"
  },
  "6391016": {
    "zipcode": "6391016",
    "prefectureCode": "29",
    "prefectureNumber": 29,
    "prefecture": "奈良県",
    "city": "大和郡山市",
    "town": "城南町"
  },
  "6391017": {
    "zipcode": "6391017",
    "prefectureCode": "29",
    "prefectureNumber": 29,
    "prefecture": "奈良県",
    "city": "大和郡山市",
    "town": "藤原町"
  },
  "6391018": {
    "zipcode": "6391018",
    "prefectureCode": "29",
    "prefectureNumber": 29,
    "prefecture": "奈良県",
    "city": "大和郡山市",
    "town": "冠山町"
  },
  "6391019": {
    "zipcode": "6391019",
    "prefectureCode": "29",
    "prefectureNumber": 29,
    "prefecture": "奈良県",
    "city": "大和郡山市",
    "town": "永慶寺町"
  },
  "6391021": {
    "zipcode": "6391021",
    "prefectureCode": "29",
    "prefectureNumber": 29,
    "prefecture": "奈良県",
    "city": "大和郡山市",
    "town": "新木町"
  },
  "6391022": {
    "zipcode": "6391022",
    "prefectureCode": "29",
    "prefectureNumber": 29,
    "prefecture": "奈良県",
    "city": "大和郡山市",
    "town": "豊浦町"
  },
  "6391023": {
    "zipcode": "6391023",
    "prefectureCode": "29",
    "prefectureNumber": 29,
    "prefecture": "奈良県",
    "city": "大和郡山市",
    "town": "小南町"
  },
  "6391024": {
    "zipcode": "6391024",
    "prefectureCode": "29",
    "prefectureNumber": 29,
    "prefecture": "奈良県",
    "city": "大和郡山市",
    "town": "南井町"
  },
  "6391025": {
    "zipcode": "6391025",
    "prefectureCode": "29",
    "prefectureNumber": 29,
    "prefecture": "奈良県",
    "city": "大和郡山市",
    "town": "北西町"
  },
  "6391026": {
    "zipcode": "6391026",
    "prefectureCode": "29",
    "prefectureNumber": 29,
    "prefecture": "奈良県",
    "city": "大和郡山市",
    "town": "小林町"
  },
  "6391027": {
    "zipcode": "6391027",
    "prefectureCode": "29",
    "prefectureNumber": 29,
    "prefecture": "奈良県",
    "city": "大和郡山市",
    "town": "池之内町"
  },
  "6391028": {
    "zipcode": "6391028",
    "prefectureCode": "29",
    "prefectureNumber": 29,
    "prefecture": "奈良県",
    "city": "大和郡山市",
    "town": "田中町"
  },
  "6391031": {
    "zipcode": "6391031",
    "prefectureCode": "29",
    "prefectureNumber": 29,
    "prefecture": "奈良県",
    "city": "大和郡山市",
    "town": "今国府町"
  },
  "6391032": {
    "zipcode": "6391032",
    "prefectureCode": "29",
    "prefectureNumber": 29,
    "prefecture": "奈良県",
    "city": "大和郡山市",
    "town": "池沢町"
  },
  "6391033": {
    "zipcode": "6391033",
    "prefectureCode": "29",
    "prefectureNumber": 29,
    "prefecture": "奈良県",
    "city": "大和郡山市",
    "town": "昭和町"
  },
  "6391034": {
    "zipcode": "6391034",
    "prefectureCode": "29",
    "prefectureNumber": 29,
    "prefecture": "奈良県",
    "city": "大和郡山市",
    "town": "柏木町"
  },
  "6391035": {
    "zipcode": "6391035",
    "prefectureCode": "29",
    "prefectureNumber": 29,
    "prefecture": "奈良県",
    "city": "大和郡山市",
    "town": "額田部南町"
  },
  "6391036": {
    "zipcode": "6391036",
    "prefectureCode": "29",
    "prefectureNumber": 29,
    "prefecture": "奈良県",
    "city": "大和郡山市",
    "town": "額田部寺町"
  },
  "6391037": {
    "zipcode": "6391037",
    "prefectureCode": "29",
    "prefectureNumber": 29,
    "prefecture": "奈良県",
    "city": "大和郡山市",
    "town": "額田部北町"
  },
  "6391038": {
    "zipcode": "6391038",
    "prefectureCode": "29",
    "prefectureNumber": 29,
    "prefecture": "奈良県",
    "city": "大和郡山市",
    "town": "西町"
  },
  "6391039": {
    "zipcode": "6391039",
    "prefectureCode": "29",
    "prefectureNumber": 29,
    "prefecture": "奈良県",
    "city": "大和郡山市",
    "town": "椎木町"
  },
  "6391041": {
    "zipcode": "6391041",
    "prefectureCode": "29",
    "prefectureNumber": 29,
    "prefecture": "奈良県",
    "city": "大和郡山市",
    "town": "満願寺町"
  },
  "6391042": {
    "zipcode": "6391042",
    "prefectureCode": "29",
    "prefectureNumber": 29,
    "prefecture": "奈良県",
    "city": "大和郡山市",
    "town": "小泉町"
  },
  "6391043": {
    "zipcode": "6391043",
    "prefectureCode": "29",
    "prefectureNumber": 29,
    "prefecture": "奈良県",
    "city": "大和郡山市",
    "town": "西田中町"
  },
  "6391044": {
    "zipcode": "6391044",
    "prefectureCode": "29",
    "prefectureNumber": 29,
    "prefecture": "奈良県",
    "city": "大和郡山市",
    "town": "小泉町東"
  },
  "6391045": {
    "zipcode": "6391045",
    "prefectureCode": "29",
    "prefectureNumber": 29,
    "prefecture": "奈良県",
    "city": "大和郡山市",
    "town": "小林町西"
  },
  "6391051": {
    "zipcode": "6391051",
    "prefectureCode": "29",
    "prefectureNumber": 29,
    "prefecture": "奈良県",
    "city": "大和郡山市",
    "town": "城町"
  },
  "6391052": {
    "zipcode": "6391052",
    "prefectureCode": "29",
    "prefectureNumber": 29,
    "prefecture": "奈良県",
    "city": "大和郡山市",
    "town": "外川町"
  },
  "6391053": {
    "zipcode": "6391053",
    "prefectureCode": "29",
    "prefectureNumber": 29,
    "prefecture": "奈良県",
    "city": "大和郡山市",
    "town": "千日町"
  },
  "6391054": {
    "zipcode": "6391054",
    "prefectureCode": "29",
    "prefectureNumber": 29,
    "prefecture": "奈良県",
    "city": "大和郡山市",
    "town": "新町"
  },
  "6391055": {
    "zipcode": "6391055",
    "prefectureCode": "29",
    "prefectureNumber": 29,
    "prefecture": "奈良県",
    "city": "大和郡山市",
    "town": "矢田山町"
  },
  "6391056": {
    "zipcode": "6391056",
    "prefectureCode": "29",
    "prefectureNumber": 29,
    "prefecture": "奈良県",
    "city": "大和郡山市",
    "town": "泉原町"
  },
  "6391057": {
    "zipcode": "6391057",
    "prefectureCode": "29",
    "prefectureNumber": 29,
    "prefecture": "奈良県",
    "city": "大和郡山市",
    "town": "山田町"
  },
  "6391058": {
    "zipcode": "6391058",
    "prefectureCode": "29",
    "prefectureNumber": 29,
    "prefecture": "奈良県",
    "city": "大和郡山市",
    "town": "矢田町"
  },
  "6391061": {
    "zipcode": "6391061",
    "prefectureCode": "29",
    "prefectureNumber": 29,
    "prefecture": "奈良県",
    "city": "生駒郡安堵町",
    "town": "東安堵"
  },
  "6391062": {
    "zipcode": "6391062",
    "prefectureCode": "29",
    "prefectureNumber": 29,
    "prefecture": "奈良県",
    "city": "生駒郡安堵町",
    "town": "岡崎"
  },
  "6391063": {
    "zipcode": "6391063",
    "prefectureCode": "29",
    "prefectureNumber": 29,
    "prefecture": "奈良県",
    "city": "生駒郡安堵町",
    "town": "かしの木台"
  },
  "6391064": {
    "zipcode": "6391064",
    "prefectureCode": "29",
    "prefectureNumber": 29,
    "prefecture": "奈良県",
    "city": "生駒郡安堵町",
    "town": "窪田"
  },
  "6391065": {
    "zipcode": "6391065",
    "prefectureCode": "29",
    "prefectureNumber": 29,
    "prefecture": "奈良県",
    "city": "生駒郡安堵町",
    "town": "笠目"
  },
  "6391066": {
    "zipcode": "6391066",
    "prefectureCode": "29",
    "prefectureNumber": 29,
    "prefecture": "奈良県",
    "city": "生駒郡安堵町",
    "town": "西安堵"
  },
  "6391100": {
    "zipcode": "6391100",
    "prefectureCode": "29",
    "prefectureNumber": 29,
    "prefecture": "奈良県",
    "city": "生駒郡安堵町",
    "town": "以下に掲載がない場合"
  },
  "6391101": {
    "zipcode": "6391101",
    "prefectureCode": "29",
    "prefectureNumber": 29,
    "prefecture": "奈良県",
    "city": "大和郡山市",
    "town": "下三橋町"
  },
  "6391102": {
    "zipcode": "6391102",
    "prefectureCode": "29",
    "prefectureNumber": 29,
    "prefecture": "奈良県",
    "city": "大和郡山市",
    "town": "上三橋町"
  },
  "6391103": {
    "zipcode": "6391103",
    "prefectureCode": "29",
    "prefectureNumber": 29,
    "prefecture": "奈良県",
    "city": "大和郡山市",
    "town": "美濃庄町"
  },
  "6391104": {
    "zipcode": "6391104",
    "prefectureCode": "29",
    "prefectureNumber": 29,
    "prefecture": "奈良県",
    "city": "大和郡山市",
    "town": "井戸野町"
  },
  "6391105": {
    "zipcode": "6391105",
    "prefectureCode": "29",
    "prefectureNumber": 29,
    "prefecture": "奈良県",
    "city": "大和郡山市",
    "town": "番匠田中町"
  },
  "6391106": {
    "zipcode": "6391106",
    "prefectureCode": "29",
    "prefectureNumber": 29,
    "prefecture": "奈良県",
    "city": "大和郡山市",
    "town": "大江町"
  },
  "6391107": {
    "zipcode": "6391107",
    "prefectureCode": "29",
    "prefectureNumber": 29,
    "prefecture": "奈良県",
    "city": "大和郡山市",
    "town": "若槻町"
  },
  "6391108": {
    "zipcode": "6391108",
    "prefectureCode": "29",
    "prefectureNumber": 29,
    "prefecture": "奈良県",
    "city": "大和郡山市",
    "town": "稗田町"
  },
  "6391111": {
    "zipcode": "6391111",
    "prefectureCode": "29",
    "prefectureNumber": 29,
    "prefecture": "奈良県",
    "city": "大和郡山市",
    "town": "石川町"
  },
  "6391112": {
    "zipcode": "6391112",
    "prefectureCode": "29",
    "prefectureNumber": 29,
    "prefecture": "奈良県",
    "city": "大和郡山市",
    "town": "白土町"
  },
  "6391113": {
    "zipcode": "6391113",
    "prefectureCode": "29",
    "prefectureNumber": 29,
    "prefecture": "奈良県",
    "city": "大和郡山市",
    "town": "櫟枝町"
  },
  "6391114": {
    "zipcode": "6391114",
    "prefectureCode": "29",
    "prefectureNumber": 29,
    "prefecture": "奈良県",
    "city": "大和郡山市",
    "town": "新庄町"
  },
  "6391115": {
    "zipcode": "6391115",
    "prefectureCode": "29",
    "prefectureNumber": 29,
    "prefecture": "奈良県",
    "city": "大和郡山市",
    "town": "横田町"
  },
  "6391116": {
    "zipcode": "6391116",
    "prefectureCode": "29",
    "prefectureNumber": 29,
    "prefecture": "奈良県",
    "city": "大和郡山市",
    "town": "伊豆七条町"
  },
  "6391117": {
    "zipcode": "6391117",
    "prefectureCode": "29",
    "prefectureNumber": 29,
    "prefecture": "奈良県",
    "city": "大和郡山市",
    "town": "番条町"
  },
  "6391118": {
    "zipcode": "6391118",
    "prefectureCode": "29",
    "prefectureNumber": 29,
    "prefecture": "奈良県",
    "city": "大和郡山市",
    "town": "中城町"
  },
  "6391119": {
    "zipcode": "6391119",
    "prefectureCode": "29",
    "prefectureNumber": 29,
    "prefecture": "奈良県",
    "city": "大和郡山市",
    "town": "発志院町"
  },
  "6391121": {
    "zipcode": "6391121",
    "prefectureCode": "29",
    "prefectureNumber": 29,
    "prefecture": "奈良県",
    "city": "大和郡山市",
    "town": "杉町"
  },
  "6391122": {
    "zipcode": "6391122",
    "prefectureCode": "29",
    "prefectureNumber": 29,
    "prefecture": "奈良県",
    "city": "大和郡山市",
    "town": "丹後庄町"
  },
  "6391123": {
    "zipcode": "6391123",
    "prefectureCode": "29",
    "prefectureNumber": 29,
    "prefecture": "奈良県",
    "city": "大和郡山市",
    "town": "筒井町"
  },
  "6391124": {
    "zipcode": "6391124",
    "prefectureCode": "29",
    "prefectureNumber": 29,
    "prefecture": "奈良県",
    "city": "大和郡山市",
    "town": "馬司町"
  },
  "6391125": {
    "zipcode": "6391125",
    "prefectureCode": "29",
    "prefectureNumber": 29,
    "prefecture": "奈良県",
    "city": "大和郡山市",
    "town": "八条町"
  },
  "6391126": {
    "zipcode": "6391126",
    "prefectureCode": "29",
    "prefectureNumber": 29,
    "prefecture": "奈良県",
    "city": "大和郡山市",
    "town": "宮堂町"
  },
  "6391127": {
    "zipcode": "6391127",
    "prefectureCode": "29",
    "prefectureNumber": 29,
    "prefecture": "奈良県",
    "city": "大和郡山市",
    "town": "長安寺町"
  },
  "6391131": {
    "zipcode": "6391131",
    "prefectureCode": "29",
    "prefectureNumber": 29,
    "prefecture": "奈良県",
    "city": "大和郡山市",
    "town": "野垣内町"
  },
  "6391132": {
    "zipcode": "6391132",
    "prefectureCode": "29",
    "prefectureNumber": 29,
    "prefecture": "奈良県",
    "city": "大和郡山市",
    "town": "高田町"
  },
  "6391133": {
    "zipcode": "6391133",
    "prefectureCode": "29",
    "prefectureNumber": 29,
    "prefecture": "奈良県",
    "city": "大和郡山市",
    "town": "高田口町"
  },
  "6391134": {
    "zipcode": "6391134",
    "prefectureCode": "29",
    "prefectureNumber": 29,
    "prefecture": "奈良県",
    "city": "大和郡山市",
    "town": "柳町"
  },
  "6391135": {
    "zipcode": "6391135",
    "prefectureCode": "29",
    "prefectureNumber": 29,
    "prefecture": "奈良県",
    "city": "大和郡山市",
    "town": "天井町"
  },
  "6391136": {
    "zipcode": "6391136",
    "prefectureCode": "29",
    "prefectureNumber": 29,
    "prefecture": "奈良県",
    "city": "大和郡山市",
    "town": "本庄町"
  },
  "6391137": {
    "zipcode": "6391137",
    "prefectureCode": "29",
    "prefectureNumber": 29,
    "prefecture": "奈良県",
    "city": "大和郡山市",
    "town": "東岡町"
  },
  "6391138": {
    "zipcode": "6391138",
    "prefectureCode": "29",
    "prefectureNumber": 29,
    "prefecture": "奈良県",
    "city": "大和郡山市",
    "town": "大宮町"
  },
  "6391141": {
    "zipcode": "6391141",
    "prefectureCode": "29",
    "prefectureNumber": 29,
    "prefecture": "奈良県",
    "city": "大和郡山市",
    "town": "材木町"
  },
  "6391142": {
    "zipcode": "6391142",
    "prefectureCode": "29",
    "prefectureNumber": 29,
    "prefecture": "奈良県",
    "city": "大和郡山市",
    "town": "矢田町通"
  },
  "6391143": {
    "zipcode": "6391143",
    "prefectureCode": "29",
    "prefectureNumber": 29,
    "prefecture": "奈良県",
    "city": "大和郡山市",
    "town": "新紺屋町"
  },
  "6391144": {
    "zipcode": "6391144",
    "prefectureCode": "29",
    "prefectureNumber": 29,
    "prefecture": "奈良県",
    "city": "大和郡山市",
    "town": "洞泉寺町"
  },
  "6391145": {
    "zipcode": "6391145",
    "prefectureCode": "29",
    "prefectureNumber": 29,
    "prefecture": "奈良県",
    "city": "大和郡山市",
    "town": "南大工町"
  },
  "6391146": {
    "zipcode": "6391146",
    "prefectureCode": "29",
    "prefectureNumber": 29,
    "prefecture": "奈良県",
    "city": "大和郡山市",
    "town": "北大工町"
  },
  "6391147": {
    "zipcode": "6391147",
    "prefectureCode": "29",
    "prefectureNumber": 29,
    "prefecture": "奈良県",
    "city": "大和郡山市",
    "town": "車町"
  },
  "6391148": {
    "zipcode": "6391148",
    "prefectureCode": "29",
    "prefectureNumber": 29,
    "prefecture": "奈良県",
    "city": "大和郡山市",
    "town": "紺屋町"
  },
  "6391149": {
    "zipcode": "6391149",
    "prefectureCode": "29",
    "prefectureNumber": 29,
    "prefecture": "奈良県",
    "city": "大和郡山市",
    "town": "豆腐町"
  },
  "6391150": {
    "zipcode": "6391150",
    "prefectureCode": "29",
    "prefectureNumber": 29,
    "prefecture": "奈良県",
    "city": "大和郡山市",
    "town": "雑穀町"
  },
  "6391151": {
    "zipcode": "6391151",
    "prefectureCode": "29",
    "prefectureNumber": 29,
    "prefecture": "奈良県",
    "city": "大和郡山市",
    "town": "本町"
  },
  "6391152": {
    "zipcode": "6391152",
    "prefectureCode": "29",
    "prefectureNumber": 29,
    "prefecture": "奈良県",
    "city": "大和郡山市",
    "town": "茶町"
  },
  "6391153": {
    "zipcode": "6391153",
    "prefectureCode": "29",
    "prefectureNumber": 29,
    "prefecture": "奈良県",
    "city": "大和郡山市",
    "town": "西野垣内町"
  },
  "6391154": {
    "zipcode": "6391154",
    "prefectureCode": "29",
    "prefectureNumber": 29,
    "prefecture": "奈良県",
    "city": "大和郡山市",
    "town": "綿町"
  },
  "6391155": {
    "zipcode": "6391155",
    "prefectureCode": "29",
    "prefectureNumber": 29,
    "prefecture": "奈良県",
    "city": "大和郡山市",
    "town": "今井町"
  },
  "6391156": {
    "zipcode": "6391156",
    "prefectureCode": "29",
    "prefectureNumber": 29,
    "prefecture": "奈良県",
    "city": "大和郡山市",
    "town": "堺町"
  },
  "6391157": {
    "zipcode": "6391157",
    "prefectureCode": "29",
    "prefectureNumber": 29,
    "prefecture": "奈良県",
    "city": "大和郡山市",
    "town": "新中町"
  },
  "6391158": {
    "zipcode": "6391158",
    "prefectureCode": "29",
    "prefectureNumber": 29,
    "prefecture": "奈良県",
    "city": "大和郡山市",
    "town": "藺町"
  },
  "6391159": {
    "zipcode": "6391159",
    "prefectureCode": "29",
    "prefectureNumber": 29,
    "prefecture": "奈良県",
    "city": "大和郡山市",
    "town": "奈良町"
  },
  "6391160": {
    "zipcode": "6391160",
    "prefectureCode": "29",
    "prefectureNumber": 29,
    "prefecture": "奈良県",
    "city": "大和郡山市",
    "town": "北郡山町"
  },
  "6391161": {
    "zipcode": "6391161",
    "prefectureCode": "29",
    "prefectureNumber": 29,
    "prefecture": "奈良県",
    "city": "大和郡山市",
    "town": "観音寺町"
  },
  "6391162": {
    "zipcode": "6391162",
    "prefectureCode": "29",
    "prefectureNumber": 29,
    "prefecture": "奈良県",
    "city": "大和郡山市",
    "town": "東奈良口町"
  },
  "6391163": {
    "zipcode": "6391163",
    "prefectureCode": "29",
    "prefectureNumber": 29,
    "prefecture": "奈良県",
    "city": "大和郡山市",
    "town": "西奈良口町"
  },
  "6391164": {
    "zipcode": "6391164",
    "prefectureCode": "29",
    "prefectureNumber": 29,
    "prefecture": "奈良県",
    "city": "大和郡山市",
    "town": "西観音寺町"
  },
  "6391165": {
    "zipcode": "6391165",
    "prefectureCode": "29",
    "prefectureNumber": 29,
    "prefecture": "奈良県",
    "city": "大和郡山市",
    "town": "北鍛冶町"
  },
  "6391166": {
    "zipcode": "6391166",
    "prefectureCode": "29",
    "prefectureNumber": 29,
    "prefecture": "奈良県",
    "city": "大和郡山市",
    "town": "中鍛冶町"
  },
  "6391167": {
    "zipcode": "6391167",
    "prefectureCode": "29",
    "prefectureNumber": 29,
    "prefecture": "奈良県",
    "city": "大和郡山市",
    "town": "南鍛冶町"
  },
  "6391168": {
    "zipcode": "6391168",
    "prefectureCode": "29",
    "prefectureNumber": 29,
    "prefecture": "奈良県",
    "city": "大和郡山市",
    "town": "魚町"
  },
  "6391169": {
    "zipcode": "6391169",
    "prefectureCode": "29",
    "prefectureNumber": 29,
    "prefecture": "奈良県",
    "city": "大和郡山市",
    "town": "塩町"
  },
  "6392100": {
    "zipcode": "6392100",
    "prefectureCode": "29",
    "prefectureNumber": 29,
    "prefecture": "奈良県",
    "city": "葛城市",
    "town": "以下に掲載がない場合"
  },
  "6392101": {
    "zipcode": "6392101",
    "prefectureCode": "29",
    "prefectureNumber": 29,
    "prefecture": "奈良県",
    "city": "葛城市",
    "town": "疋田"
  },
  "6392102": {
    "zipcode": "6392102",
    "prefectureCode": "29",
    "prefectureNumber": 29,
    "prefecture": "奈良県",
    "city": "葛城市",
    "town": "東室"
  },
  "6392103": {
    "zipcode": "6392103",
    "prefectureCode": "29",
    "prefectureNumber": 29,
    "prefecture": "奈良県",
    "city": "葛城市",
    "town": "西室"
  },
  "6392111": {
    "zipcode": "6392111",
    "prefectureCode": "29",
    "prefectureNumber": 29,
    "prefecture": "奈良県",
    "city": "葛城市",
    "town": "柿本"
  },
  "6392112": {
    "zipcode": "6392112",
    "prefectureCode": "29",
    "prefectureNumber": 29,
    "prefecture": "奈良県",
    "city": "葛城市",
    "town": "笛堂"
  },
  "6392113": {
    "zipcode": "6392113",
    "prefectureCode": "29",
    "prefectureNumber": 29,
    "prefecture": "奈良県",
    "city": "葛城市",
    "town": "北花内"
  },
  "6392121": {
    "zipcode": "6392121",
    "prefectureCode": "29",
    "prefectureNumber": 29,
    "prefecture": "奈良県",
    "city": "葛城市",
    "town": "新村"
  },
  "6392122": {
    "zipcode": "6392122",
    "prefectureCode": "29",
    "prefectureNumber": 29,
    "prefecture": "奈良県",
    "city": "葛城市",
    "town": "薑"
  },
  "6392123": {
    "zipcode": "6392123",
    "prefectureCode": "29",
    "prefectureNumber": 29,
    "prefecture": "奈良県",
    "city": "葛城市",
    "town": "南新町"
  },
  "6392124": {
    "zipcode": "6392124",
    "prefectureCode": "29",
    "prefectureNumber": 29,
    "prefecture": "奈良県",
    "city": "葛城市",
    "town": "脇田"
  },
  "6392125": {
    "zipcode": "6392125",
    "prefectureCode": "29",
    "prefectureNumber": 29,
    "prefecture": "奈良県",
    "city": "葛城市",
    "town": "西辻"
  },
  "6392126": {
    "zipcode": "6392126",
    "prefectureCode": "29",
    "prefectureNumber": 29,
    "prefecture": "奈良県",
    "city": "葛城市",
    "town": "南花内"
  },
  "6392127": {
    "zipcode": "6392127",
    "prefectureCode": "29",
    "prefectureNumber": 29,
    "prefecture": "奈良県",
    "city": "葛城市",
    "town": "新町"
  },
  "6392131": {
    "zipcode": "6392131",
    "prefectureCode": "29",
    "prefectureNumber": 29,
    "prefecture": "奈良県",
    "city": "葛城市",
    "town": "林堂"
  },
  "6392132": {
    "zipcode": "6392132",
    "prefectureCode": "29",
    "prefectureNumber": 29,
    "prefecture": "奈良県",
    "city": "葛城市",
    "town": "笛吹"
  },
  "6392133": {
    "zipcode": "6392133",
    "prefectureCode": "29",
    "prefectureNumber": 29,
    "prefecture": "奈良県",
    "city": "葛城市",
    "town": "梅室"
  },
  "6392134": {
    "zipcode": "6392134",
    "prefectureCode": "29",
    "prefectureNumber": 29,
    "prefecture": "奈良県",
    "city": "葛城市",
    "town": "山口"
  },
  "6392135": {
    "zipcode": "6392135",
    "prefectureCode": "29",
    "prefectureNumber": 29,
    "prefecture": "奈良県",
    "city": "葛城市",
    "town": "寺口"
  },
  "6392136": {
    "zipcode": "6392136",
    "prefectureCode": "29",
    "prefectureNumber": 29,
    "prefecture": "奈良県",
    "city": "葛城市",
    "town": "平岡"
  },
  "6392137": {
    "zipcode": "6392137",
    "prefectureCode": "29",
    "prefectureNumber": 29,
    "prefecture": "奈良県",
    "city": "葛城市",
    "town": "南藤井"
  },
  "6392138": {
    "zipcode": "6392138",
    "prefectureCode": "29",
    "prefectureNumber": 29,
    "prefecture": "奈良県",
    "city": "葛城市",
    "town": "山田"
  },
  "6392141": {
    "zipcode": "6392141",
    "prefectureCode": "29",
    "prefectureNumber": 29,
    "prefecture": "奈良県",
    "city": "葛城市",
    "town": "弁之庄"
  },
  "6392142": {
    "zipcode": "6392142",
    "prefectureCode": "29",
    "prefectureNumber": 29,
    "prefecture": "奈良県",
    "city": "葛城市",
    "town": "北道穂"
  },
  "6392143": {
    "zipcode": "6392143",
    "prefectureCode": "29",
    "prefectureNumber": 29,
    "prefecture": "奈良県",
    "city": "葛城市",
    "town": "南道穂"
  },
  "6392144": {
    "zipcode": "6392144",
    "prefectureCode": "29",
    "prefectureNumber": 29,
    "prefecture": "奈良県",
    "city": "葛城市",
    "town": "葛木"
  },
  "6392145": {
    "zipcode": "6392145",
    "prefectureCode": "29",
    "prefectureNumber": 29,
    "prefecture": "奈良県",
    "city": "葛城市",
    "town": "大屋"
  },
  "6392146": {
    "zipcode": "6392146",
    "prefectureCode": "29",
    "prefectureNumber": 29,
    "prefecture": "奈良県",
    "city": "葛城市",
    "town": "中戸"
  },
  "6392147": {
    "zipcode": "6392147",
    "prefectureCode": "29",
    "prefectureNumber": 29,
    "prefecture": "奈良県",
    "city": "葛城市",
    "town": "新庄"
  },
  "6392151": {
    "zipcode": "6392151",
    "prefectureCode": "29",
    "prefectureNumber": 29,
    "prefecture": "奈良県",
    "city": "葛城市",
    "town": "南今市"
  },
  "6392152": {
    "zipcode": "6392152",
    "prefectureCode": "29",
    "prefectureNumber": 29,
    "prefecture": "奈良県",
    "city": "葛城市",
    "town": "大畑"
  },
  "6392153": {
    "zipcode": "6392153",
    "prefectureCode": "29",
    "prefectureNumber": 29,
    "prefecture": "奈良県",
    "city": "葛城市",
    "town": "太田"
  },
  "6392154": {
    "zipcode": "6392154",
    "prefectureCode": "29",
    "prefectureNumber": 29,
    "prefecture": "奈良県",
    "city": "葛城市",
    "town": "兵家"
  },
  "6392155": {
    "zipcode": "6392155",
    "prefectureCode": "29",
    "prefectureNumber": 29,
    "prefecture": "奈良県",
    "city": "葛城市",
    "town": "竹内"
  },
  "6392161": {
    "zipcode": "6392161",
    "prefectureCode": "29",
    "prefectureNumber": 29,
    "prefecture": "奈良県",
    "city": "葛城市",
    "town": "木戸"
  },
  "6392162": {
    "zipcode": "6392162",
    "prefectureCode": "29",
    "prefectureNumber": 29,
    "prefecture": "奈良県",
    "city": "葛城市",
    "town": "尺土"
  },
  "6392163": {
    "zipcode": "6392163",
    "prefectureCode": "29",
    "prefectureNumber": 29,
    "prefecture": "奈良県",
    "city": "葛城市",
    "town": "八川"
  },
  "6392164": {
    "zipcode": "6392164",
    "prefectureCode": "29",
    "prefectureNumber": 29,
    "prefecture": "奈良県",
    "city": "葛城市",
    "town": "長尾"
  },
  "6392200": {
    "zipcode": "6392200",
    "prefectureCode": "29",
    "prefectureNumber": 29,
    "prefecture": "奈良県",
    "city": "御所市",
    "town": "以下に掲載がない場合"
  },
  "6392201": {
    "zipcode": "6392201",
    "prefectureCode": "29",
    "prefectureNumber": 29,
    "prefecture": "奈良県",
    "city": "御所市",
    "town": "柳原"
  },
  "6392202": {
    "zipcode": "6392202",
    "prefectureCode": "29",
    "prefectureNumber": 29,
    "prefecture": "奈良県",
    "city": "御所市",
    "town": "出屋敷"
  },
  "6392203": {
    "zipcode": "6392203",
    "prefectureCode": "29",
    "prefectureNumber": 29,
    "prefecture": "奈良県",
    "city": "御所市",
    "town": "北十三"
  },
  "6392204": {
    "zipcode": "6392204",
    "prefectureCode": "29",
    "prefectureNumber": 29,
    "prefecture": "奈良県",
    "city": "御所市",
    "town": "南十三"
  },
  "6392205": {
    "zipcode": "6392205",
    "prefectureCode": "29",
    "prefectureNumber": 29,
    "prefecture": "奈良県",
    "city": "御所市",
    "town": "東辻"
  },
  "6392206": {
    "zipcode": "6392206",
    "prefectureCode": "29",
    "prefectureNumber": 29,
    "prefecture": "奈良県",
    "city": "御所市",
    "town": "竹田"
  },
  "6392207": {
    "zipcode": "6392207",
    "prefectureCode": "29",
    "prefectureNumber": 29,
    "prefecture": "奈良県",
    "city": "御所市",
    "town": "今城"
  },
  "6392211": {
    "zipcode": "6392211",
    "prefectureCode": "29",
    "prefectureNumber": 29,
    "prefecture": "奈良県",
    "city": "御所市",
    "town": "ＪＲ御所駅前通り"
  },
  "6392212": {
    "zipcode": "6392212",
    "prefectureCode": "29",
    "prefectureNumber": 29,
    "prefecture": "奈良県",
    "city": "御所市",
    "town": "中央通り"
  },
  "6392213": {
    "zipcode": "6392213",
    "prefectureCode": "29",
    "prefectureNumber": 29,
    "prefecture": "奈良県",
    "city": "御所市",
    "town": "神宮町"
  },
  "6392214": {
    "zipcode": "6392214",
    "prefectureCode": "29",
    "prefectureNumber": 29,
    "prefecture": "奈良県",
    "city": "御所市",
    "town": "御堂魚棚町"
  },
  "6392215": {
    "zipcode": "6392215",
    "prefectureCode": "29",
    "prefectureNumber": 29,
    "prefecture": "奈良県",
    "city": "御所市",
    "town": "西町"
  },
  "6392216": {
    "zipcode": "6392216",
    "prefectureCode": "29",
    "prefectureNumber": 29,
    "prefecture": "奈良県",
    "city": "御所市",
    "town": "御国通り"
  },
  "6392217": {
    "zipcode": "6392217",
    "prefectureCode": "29",
    "prefectureNumber": 29,
    "prefecture": "奈良県",
    "city": "御所市",
    "town": "新地町"
  },
  "6392221": {
    "zipcode": "6392221",
    "prefectureCode": "29",
    "prefectureNumber": 29,
    "prefecture": "奈良県",
    "city": "御所市",
    "town": "栄町"
  },
  "6392222": {
    "zipcode": "6392222",
    "prefectureCode": "29",
    "prefectureNumber": 29,
    "prefecture": "奈良県",
    "city": "御所市",
    "town": "六軒町"
  },
  "6392223": {
    "zipcode": "6392223",
    "prefectureCode": "29",
    "prefectureNumber": 29,
    "prefecture": "奈良県",
    "city": "御所市",
    "town": "本町"
  },
  "6392224": {
    "zipcode": "6392224",
    "prefectureCode": "29",
    "prefectureNumber": 29,
    "prefecture": "奈良県",
    "city": "御所市",
    "town": "西柏町"
  },
  "6392225": {
    "zipcode": "6392225",
    "prefectureCode": "29",
    "prefectureNumber": 29,
    "prefecture": "奈良県",
    "city": "御所市",
    "town": "中本町"
  },
  "6392226": {
    "zipcode": "6392226",
    "prefectureCode": "29",
    "prefectureNumber": 29,
    "prefecture": "奈良県",
    "city": "御所市",
    "town": "南中町"
  },
  "6392227": {
    "zipcode": "6392227",
    "prefectureCode": "29",
    "prefectureNumber": 29,
    "prefecture": "奈良県",
    "city": "御所市",
    "town": "東久保町"
  },
  "6392228": {
    "zipcode": "6392228",
    "prefectureCode": "29",
    "prefectureNumber": 29,
    "prefecture": "奈良県",
    "city": "御所市",
    "town": "西久保本町"
  },
  "6392229": {
    "zipcode": "6392229",
    "prefectureCode": "29",
    "prefectureNumber": 29,
    "prefecture": "奈良県",
    "city": "御所市",
    "town": "鴨口町"
  },
  "6392231": {
    "zipcode": "6392231",
    "prefectureCode": "29",
    "prefectureNumber": 29,
    "prefecture": "奈良県",
    "city": "御所市",
    "town": "柿ケ坪町"
  },
  "6392232": {
    "zipcode": "6392232",
    "prefectureCode": "29",
    "prefectureNumber": 29,
    "prefecture": "奈良県",
    "city": "御所市",
    "town": "御門町"
  },
  "6392233": {
    "zipcode": "6392233",
    "prefectureCode": "29",
    "prefectureNumber": 29,
    "prefecture": "奈良県",
    "city": "御所市",
    "town": "都町"
  },
  "6392234": {
    "zipcode": "6392234",
    "prefectureCode": "29",
    "prefectureNumber": 29,
    "prefecture": "奈良県",
    "city": "御所市",
    "town": "柳町"
  },
  "6392235": {
    "zipcode": "6392235",
    "prefectureCode": "29",
    "prefectureNumber": 29,
    "prefecture": "奈良県",
    "city": "御所市",
    "town": "寺内町"
  },
  "6392236": {
    "zipcode": "6392236",
    "prefectureCode": "29",
    "prefectureNumber": 29,
    "prefecture": "奈良県",
    "city": "御所市",
    "town": "代官町"
  },
  "6392237": {
    "zipcode": "6392237",
    "prefectureCode": "29",
    "prefectureNumber": 29,
    "prefecture": "奈良県",
    "city": "御所市",
    "town": "豊年橋通り"
  },
  "6392238": {
    "zipcode": "6392238",
    "prefectureCode": "29",
    "prefectureNumber": 29,
    "prefecture": "奈良県",
    "city": "御所市",
    "town": "大橋通り"
  },
  "6392239": {
    "zipcode": "6392239",
    "prefectureCode": "29",
    "prefectureNumber": 29,
    "prefecture": "奈良県",
    "city": "御所市",
    "town": "旭町"
  },
  "6392241": {
    "zipcode": "6392241",
    "prefectureCode": "29",
    "prefectureNumber": 29,
    "prefecture": "奈良県",
    "city": "御所市",
    "town": "茅原"
  },
  "6392242": {
    "zipcode": "6392242",
    "prefectureCode": "29",
    "prefectureNumber": 29,
    "prefecture": "奈良県",
    "city": "御所市",
    "town": "本馬"
  },
  "6392243": {
    "zipcode": "6392243",
    "prefectureCode": "29",
    "prefectureNumber": 29,
    "prefecture": "奈良県",
    "city": "御所市",
    "town": "東寺田"
  },
  "6392244": {
    "zipcode": "6392244",
    "prefectureCode": "29",
    "prefectureNumber": 29,
    "prefecture": "奈良県",
    "city": "御所市",
    "town": "柏原"
  },
  "6392245": {
    "zipcode": "6392245",
    "prefectureCode": "29",
    "prefectureNumber": 29,
    "prefecture": "奈良県",
    "city": "御所市",
    "town": "今住"
  },
  "6392246": {
    "zipcode": "6392246",
    "prefectureCode": "29",
    "prefectureNumber": 29,
    "prefecture": "奈良県",
    "city": "御所市",
    "town": "原谷"
  },
  "6392247": {
    "zipcode": "6392247",
    "prefectureCode": "29",
    "prefectureNumber": 29,
    "prefecture": "奈良県",
    "city": "御所市",
    "town": "玉手"
  },
  "6392248": {
    "zipcode": "6392248",
    "prefectureCode": "29",
    "prefectureNumber": 29,
    "prefecture": "奈良県",
    "city": "御所市",
    "town": "緑町"
  },
  "6392251": {
    "zipcode": "6392251",
    "prefectureCode": "29",
    "prefectureNumber": 29,
    "prefecture": "奈良県",
    "city": "御所市",
    "town": "戸毛"
  },
  "6392252": {
    "zipcode": "6392252",
    "prefectureCode": "29",
    "prefectureNumber": 29,
    "prefecture": "奈良県",
    "city": "御所市",
    "town": "樋野"
  },
  "6392253": {
    "zipcode": "6392253",
    "prefectureCode": "29",
    "prefectureNumber": 29,
    "prefecture": "奈良県",
    "city": "御所市",
    "town": "奉膳"
  },
  "6392254": {
    "zipcode": "6392254",
    "prefectureCode": "29",
    "prefectureNumber": 29,
    "prefecture": "奈良県",
    "city": "御所市",
    "town": "古瀬"
  },
  "6392255": {
    "zipcode": "6392255",
    "prefectureCode": "29",
    "prefectureNumber": 29,
    "prefecture": "奈良県",
    "city": "御所市",
    "town": "朝町"
  },
  "6392256": {
    "zipcode": "6392256",
    "prefectureCode": "29",
    "prefectureNumber": 29,
    "prefecture": "奈良県",
    "city": "御所市",
    "town": "栗阪"
  },
  "6392257": {
    "zipcode": "6392257",
    "prefectureCode": "29",
    "prefectureNumber": 29,
    "prefecture": "奈良県",
    "city": "御所市",
    "town": "小殿"
  },
  "6392258": {
    "zipcode": "6392258",
    "prefectureCode": "29",
    "prefectureNumber": 29,
    "prefecture": "奈良県",
    "city": "御所市",
    "town": "稲宿"
  },
  "6392261": {
    "zipcode": "6392261",
    "prefectureCode": "29",
    "prefectureNumber": 29,
    "prefecture": "奈良県",
    "city": "御所市",
    "town": "城山台"
  },
  "6392262": {
    "zipcode": "6392262",
    "prefectureCode": "29",
    "prefectureNumber": 29,
    "prefecture": "奈良県",
    "city": "御所市",
    "town": "持田"
  },
  "6392263": {
    "zipcode": "6392263",
    "prefectureCode": "29",
    "prefectureNumber": 29,
    "prefecture": "奈良県",
    "city": "御所市",
    "town": "鳥井戸"
  },
  "6392264": {
    "zipcode": "6392264",
    "prefectureCode": "29",
    "prefectureNumber": 29,
    "prefecture": "奈良県",
    "city": "御所市",
    "town": "五百家"
  },
  "6392265": {
    "zipcode": "6392265",
    "prefectureCode": "29",
    "prefectureNumber": 29,
    "prefecture": "奈良県",
    "city": "御所市",
    "town": "新田"
  },
  "6392266": {
    "zipcode": "6392266",
    "prefectureCode": "29",
    "prefectureNumber": 29,
    "prefecture": "奈良県",
    "city": "御所市",
    "town": "重阪"
  },
  "6392267": {
    "zipcode": "6392267",
    "prefectureCode": "29",
    "prefectureNumber": 29,
    "prefecture": "奈良県",
    "city": "御所市",
    "town": "内谷"
  },
  "6392268": {
    "zipcode": "6392268",
    "prefectureCode": "29",
    "prefectureNumber": 29,
    "prefecture": "奈良県",
    "city": "御所市",
    "town": "船路"
  },
  "6392271": {
    "zipcode": "6392271",
    "prefectureCode": "29",
    "prefectureNumber": 29,
    "prefecture": "奈良県",
    "city": "御所市",
    "town": "宮前町"
  },
  "6392272": {
    "zipcode": "6392272",
    "prefectureCode": "29",
    "prefectureNumber": 29,
    "prefecture": "奈良県",
    "city": "御所市",
    "town": "蛇穴"
  },
  "6392273": {
    "zipcode": "6392273",
    "prefectureCode": "29",
    "prefectureNumber": 29,
    "prefecture": "奈良県",
    "city": "御所市",
    "town": "池之内"
  },
  "6392274": {
    "zipcode": "6392274",
    "prefectureCode": "29",
    "prefectureNumber": 29,
    "prefecture": "奈良県",
    "city": "御所市",
    "town": "冨田"
  },
  "6392275": {
    "zipcode": "6392275",
    "prefectureCode": "29",
    "prefectureNumber": 29,
    "prefecture": "奈良県",
    "city": "御所市",
    "town": "出走"
  },
  "6392276": {
    "zipcode": "6392276",
    "prefectureCode": "29",
    "prefectureNumber": 29,
    "prefecture": "奈良県",
    "city": "御所市",
    "town": "條"
  },
  "6392277": {
    "zipcode": "6392277",
    "prefectureCode": "29",
    "prefectureNumber": 29,
    "prefecture": "奈良県",
    "city": "御所市",
    "town": "室"
  },
  "6392278": {
    "zipcode": "6392278",
    "prefectureCode": "29",
    "prefectureNumber": 29,
    "prefecture": "奈良県",
    "city": "御所市",
    "town": "緑ケ丘"
  },
  "6392279": {
    "zipcode": "6392279",
    "prefectureCode": "29",
    "prefectureNumber": 29,
    "prefecture": "奈良県",
    "city": "御所市",
    "town": "今出"
  },
  "6392301": {
    "zipcode": "6392301",
    "prefectureCode": "29",
    "prefectureNumber": 29,
    "prefecture": "奈良県",
    "city": "御所市",
    "town": "元町"
  },
  "6392302": {
    "zipcode": "6392302",
    "prefectureCode": "29",
    "prefectureNumber": 29,
    "prefecture": "奈良県",
    "city": "御所市",
    "town": "東松本"
  },
  "6392303": {
    "zipcode": "6392303",
    "prefectureCode": "29",
    "prefectureNumber": 29,
    "prefecture": "奈良県",
    "city": "御所市",
    "town": "末広町"
  },
  "6392304": {
    "zipcode": "6392304",
    "prefectureCode": "29",
    "prefectureNumber": 29,
    "prefecture": "奈良県",
    "city": "御所市",
    "town": "大広町"
  },
  "6392305": {
    "zipcode": "6392305",
    "prefectureCode": "29",
    "prefectureNumber": 29,
    "prefecture": "奈良県",
    "city": "御所市",
    "town": "柳田町"
  },
  "6392306": {
    "zipcode": "6392306",
    "prefectureCode": "29",
    "prefectureNumber": 29,
    "prefecture": "奈良県",
    "city": "御所市",
    "town": "三室"
  },
  "6392311": {
    "zipcode": "6392311",
    "prefectureCode": "29",
    "prefectureNumber": 29,
    "prefecture": "奈良県",
    "city": "御所市",
    "town": "小林"
  },
  "6392312": {
    "zipcode": "6392312",
    "prefectureCode": "29",
    "prefectureNumber": 29,
    "prefecture": "奈良県",
    "city": "御所市",
    "town": "櫛羅"
  },
  "6392313": {
    "zipcode": "6392313",
    "prefectureCode": "29",
    "prefectureNumber": 29,
    "prefecture": "奈良県",
    "city": "御所市",
    "town": "楢原"
  },
  "6392314": {
    "zipcode": "6392314",
    "prefectureCode": "29",
    "prefectureNumber": 29,
    "prefecture": "奈良県",
    "city": "御所市",
    "town": "幸町"
  },
  "6392315": {
    "zipcode": "6392315",
    "prefectureCode": "29",
    "prefectureNumber": 29,
    "prefecture": "奈良県",
    "city": "御所市",
    "town": "宮戸"
  },
  "6392316": {
    "zipcode": "6392316",
    "prefectureCode": "29",
    "prefectureNumber": 29,
    "prefecture": "奈良県",
    "city": "御所市",
    "town": "西寺田"
  },
  "6392317": {
    "zipcode": "6392317",
    "prefectureCode": "29",
    "prefectureNumber": 29,
    "prefecture": "奈良県",
    "city": "御所市",
    "town": "豊田"
  },
  "6392318": {
    "zipcode": "6392318",
    "prefectureCode": "29",
    "prefectureNumber": 29,
    "prefecture": "奈良県",
    "city": "御所市",
    "town": "森脇"
  },
  "6392321": {
    "zipcode": "6392321",
    "prefectureCode": "29",
    "prefectureNumber": 29,
    "prefecture": "奈良県",
    "city": "御所市",
    "town": "名柄"
  },
  "6392322": {
    "zipcode": "6392322",
    "prefectureCode": "29",
    "prefectureNumber": 29,
    "prefecture": "奈良県",
    "city": "御所市",
    "town": "東名柄"
  },
  "6392323": {
    "zipcode": "6392323",
    "prefectureCode": "29",
    "prefectureNumber": 29,
    "prefecture": "奈良県",
    "city": "御所市",
    "town": "多田"
  },
  "6392324": {
    "zipcode": "6392324",
    "prefectureCode": "29",
    "prefectureNumber": 29,
    "prefecture": "奈良県",
    "city": "御所市",
    "town": "下茶屋"
  },
  "6392325": {
    "zipcode": "6392325",
    "prefectureCode": "29",
    "prefectureNumber": 29,
    "prefecture": "奈良県",
    "city": "御所市",
    "town": "佐田"
  },
  "6392326": {
    "zipcode": "6392326",
    "prefectureCode": "29",
    "prefectureNumber": 29,
    "prefecture": "奈良県",
    "city": "御所市",
    "town": "井戸"
  },
  "6392327": {
    "zipcode": "6392327",
    "prefectureCode": "29",
    "prefectureNumber": 29,
    "prefecture": "奈良県",
    "city": "御所市",
    "town": "増"
  },
  "6392328": {
    "zipcode": "6392328",
    "prefectureCode": "29",
    "prefectureNumber": 29,
    "prefecture": "奈良県",
    "city": "御所市",
    "town": "関屋"
  },
  "6392331": {
    "zipcode": "6392331",
    "prefectureCode": "29",
    "prefectureNumber": 29,
    "prefecture": "奈良県",
    "city": "御所市",
    "town": "南郷"
  },
  "6392332": {
    "zipcode": "6392332",
    "prefectureCode": "29",
    "prefectureNumber": 29,
    "prefecture": "奈良県",
    "city": "御所市",
    "town": "西持田"
  },
  "6392333": {
    "zipcode": "6392333",
    "prefectureCode": "29",
    "prefectureNumber": 29,
    "prefecture": "奈良県",
    "city": "御所市",
    "town": "林"
  },
  "6392334": {
    "zipcode": "6392334",
    "prefectureCode": "29",
    "prefectureNumber": 29,
    "prefecture": "奈良県",
    "city": "御所市",
    "town": "北窪"
  },
  "6392335": {
    "zipcode": "6392335",
    "prefectureCode": "29",
    "prefectureNumber": 29,
    "prefecture": "奈良県",
    "city": "御所市",
    "town": "西北窪"
  },
  "6392336": {
    "zipcode": "6392336",
    "prefectureCode": "29",
    "prefectureNumber": 29,
    "prefecture": "奈良県",
    "city": "御所市",
    "town": "高天"
  },
  "6392337": {
    "zipcode": "6392337",
    "prefectureCode": "29",
    "prefectureNumber": 29,
    "prefecture": "奈良県",
    "city": "御所市",
    "town": "極楽寺"
  },
  "6392341": {
    "zipcode": "6392341",
    "prefectureCode": "29",
    "prefectureNumber": 29,
    "prefecture": "奈良県",
    "city": "御所市",
    "town": "朝妻"
  },
  "6392342": {
    "zipcode": "6392342",
    "prefectureCode": "29",
    "prefectureNumber": 29,
    "prefecture": "奈良県",
    "city": "御所市",
    "town": "僧堂"
  },
  "6392343": {
    "zipcode": "6392343",
    "prefectureCode": "29",
    "prefectureNumber": 29,
    "prefecture": "奈良県",
    "city": "御所市",
    "town": "鴨神"
  },
  "6392344": {
    "zipcode": "6392344",
    "prefectureCode": "29",
    "prefectureNumber": 29,
    "prefecture": "奈良県",
    "city": "御所市",
    "town": "東佐味"
  },
  "6392345": {
    "zipcode": "6392345",
    "prefectureCode": "29",
    "prefectureNumber": 29,
    "prefecture": "奈良県",
    "city": "御所市",
    "town": "西佐味"
  },
  "6392346": {
    "zipcode": "6392346",
    "prefectureCode": "29",
    "prefectureNumber": 29,
    "prefecture": "奈良県",
    "city": "御所市",
    "town": "伏見"
  },
  "6393100": {
    "zipcode": "6393100",
    "prefectureCode": "29",
    "prefectureNumber": 29,
    "prefecture": "奈良県",
    "city": "吉野郡吉野町",
    "town": "以下に掲載がない場合"
  },
  "6393101": {
    "zipcode": "6393101",
    "prefectureCode": "29",
    "prefectureNumber": 29,
    "prefecture": "奈良県",
    "city": "吉野郡吉野町",
    "town": "山口"
  },
  "6393102": {
    "zipcode": "6393102",
    "prefectureCode": "29",
    "prefectureNumber": 29,
    "prefecture": "奈良県",
    "city": "吉野郡吉野町",
    "town": "津風呂"
  },
  "6393103": {
    "zipcode": "6393103",
    "prefectureCode": "29",
    "prefectureNumber": 29,
    "prefecture": "奈良県",
    "city": "吉野郡吉野町",
    "town": "平尾"
  },
  "6393104": {
    "zipcode": "6393104",
    "prefectureCode": "29",
    "prefectureNumber": 29,
    "prefecture": "奈良県",
    "city": "吉野郡吉野町",
    "town": "峰寺"
  },
  "6393105": {
    "zipcode": "6393105",
    "prefectureCode": "29",
    "prefectureNumber": 29,
    "prefecture": "奈良県",
    "city": "吉野郡吉野町",
    "town": "千股"
  },
  "6393106": {
    "zipcode": "6393106",
    "prefectureCode": "29",
    "prefectureNumber": 29,
    "prefecture": "奈良県",
    "city": "吉野郡吉野町",
    "town": "滝畑"
  },
  "6393107": {
    "zipcode": "6393107",
    "prefectureCode": "29",
    "prefectureNumber": 29,
    "prefecture": "奈良県",
    "city": "吉野郡吉野町",
    "town": "佐々羅"
  },
  "6393108": {
    "zipcode": "6393108",
    "prefectureCode": "29",
    "prefectureNumber": 29,
    "prefecture": "奈良県",
    "city": "吉野郡吉野町",
    "town": "三津"
  },
  "6393111": {
    "zipcode": "6393111",
    "prefectureCode": "29",
    "prefectureNumber": 29,
    "prefecture": "奈良県",
    "city": "吉野郡吉野町",
    "town": "上市"
  },
  "6393112": {
    "zipcode": "6393112",
    "prefectureCode": "29",
    "prefectureNumber": 29,
    "prefecture": "奈良県",
    "city": "吉野郡吉野町",
    "town": "立野"
  },
  "6393113": {
    "zipcode": "6393113",
    "prefectureCode": "29",
    "prefectureNumber": 29,
    "prefecture": "奈良県",
    "city": "吉野郡吉野町",
    "town": "飯貝"
  },
  "6393114": {
    "zipcode": "6393114",
    "prefectureCode": "29",
    "prefectureNumber": 29,
    "prefecture": "奈良県",
    "city": "吉野郡吉野町",
    "town": "丹治"
  },
  "6393115": {
    "zipcode": "6393115",
    "prefectureCode": "29",
    "prefectureNumber": 29,
    "prefecture": "奈良県",
    "city": "吉野郡吉野町",
    "town": "吉野山"
  },
  "6393116": {
    "zipcode": "6393116",
    "prefectureCode": "29",
    "prefectureNumber": 29,
    "prefecture": "奈良県",
    "city": "吉野郡吉野町",
    "town": "六田"
  },
  "6393117": {
    "zipcode": "6393117",
    "prefectureCode": "29",
    "prefectureNumber": 29,
    "prefecture": "奈良県",
    "city": "吉野郡吉野町",
    "town": "左曽"
  },
  "6393118": {
    "zipcode": "6393118",
    "prefectureCode": "29",
    "prefectureNumber": 29,
    "prefecture": "奈良県",
    "city": "吉野郡吉野町",
    "town": "橋屋"
  },
  "6393121": {
    "zipcode": "6393121",
    "prefectureCode": "29",
    "prefectureNumber": 29,
    "prefecture": "奈良県",
    "city": "吉野郡大淀町",
    "town": "西増"
  },
  "6393122": {
    "zipcode": "6393122",
    "prefectureCode": "29",
    "prefectureNumber": 29,
    "prefecture": "奈良県",
    "city": "吉野郡大淀町",
    "town": "中増"
  },
  "6393123": {
    "zipcode": "6393123",
    "prefectureCode": "29",
    "prefectureNumber": 29,
    "prefecture": "奈良県",
    "city": "吉野郡大淀町",
    "town": "増口"
  },
  "6393124": {
    "zipcode": "6393124",
    "prefectureCode": "29",
    "prefectureNumber": 29,
    "prefecture": "奈良県",
    "city": "吉野郡大淀町",
    "town": "北六田"
  },
  "6393125": {
    "zipcode": "6393125",
    "prefectureCode": "29",
    "prefectureNumber": 29,
    "prefecture": "奈良県",
    "city": "吉野郡大淀町",
    "town": "北野"
  },
  "6393126": {
    "zipcode": "6393126",
    "prefectureCode": "29",
    "prefectureNumber": 29,
    "prefecture": "奈良県",
    "city": "吉野郡大淀町",
    "town": "新野"
  },
  "6393127": {
    "zipcode": "6393127",
    "prefectureCode": "29",
    "prefectureNumber": 29,
    "prefecture": "奈良県",
    "city": "吉野郡大淀町",
    "town": "馬佐"
  },
  "6393128": {
    "zipcode": "6393128",
    "prefectureCode": "29",
    "prefectureNumber": 29,
    "prefecture": "奈良県",
    "city": "吉野郡大淀町",
    "town": "比曽"
  },
  "6393321": {
    "zipcode": "6393321",
    "prefectureCode": "29",
    "prefectureNumber": 29,
    "prefecture": "奈良県",
    "city": "吉野郡吉野町",
    "town": "三茶屋"
  },
  "6393322": {
    "zipcode": "6393322",
    "prefectureCode": "29",
    "prefectureNumber": 29,
    "prefecture": "奈良県",
    "city": "吉野郡吉野町",
    "town": "小名"
  },
  "6393323": {
    "zipcode": "6393323",
    "prefectureCode": "29",
    "prefectureNumber": 29,
    "prefecture": "奈良県",
    "city": "吉野郡吉野町",
    "town": "色生"
  },
  "6393324": {
    "zipcode": "6393324",
    "prefectureCode": "29",
    "prefectureNumber": 29,
    "prefecture": "奈良県",
    "city": "吉野郡吉野町",
    "town": "香束"
  },
  "6393325": {
    "zipcode": "6393325",
    "prefectureCode": "29",
    "prefectureNumber": 29,
    "prefecture": "奈良県",
    "city": "吉野郡吉野町",
    "town": "柳"
  },
  "6393431": {
    "zipcode": "6393431",
    "prefectureCode": "29",
    "prefectureNumber": 29,
    "prefecture": "奈良県",
    "city": "吉野郡吉野町",
    "town": "入野"
  },
  "6393432": {
    "zipcode": "6393432",
    "prefectureCode": "29",
    "prefectureNumber": 29,
    "prefecture": "奈良県",
    "city": "吉野郡吉野町",
    "town": "窪垣内"
  },
  "6393433": {
    "zipcode": "6393433",
    "prefectureCode": "29",
    "prefectureNumber": 29,
    "prefecture": "奈良県",
    "city": "吉野郡吉野町",
    "town": "新子"
  },
  "6393434": {
    "zipcode": "6393434",
    "prefectureCode": "29",
    "prefectureNumber": 29,
    "prefecture": "奈良県",
    "city": "吉野郡吉野町",
    "town": "国栖"
  },
  "6393435": {
    "zipcode": "6393435",
    "prefectureCode": "29",
    "prefectureNumber": 29,
    "prefecture": "奈良県",
    "city": "吉野郡吉野町",
    "town": "南国栖"
  },
  "6393436": {
    "zipcode": "6393436",
    "prefectureCode": "29",
    "prefectureNumber": 29,
    "prefecture": "奈良県",
    "city": "吉野郡吉野町",
    "town": "樫尾"
  },
  "6393437": {
    "zipcode": "6393437",
    "prefectureCode": "29",
    "prefectureNumber": 29,
    "prefecture": "奈良県",
    "city": "吉野郡吉野町",
    "town": "南大野"
  },
  "6393441": {
    "zipcode": "6393441",
    "prefectureCode": "29",
    "prefectureNumber": 29,
    "prefecture": "奈良県",
    "city": "吉野郡吉野町",
    "town": "矢治"
  },
  "6393442": {
    "zipcode": "6393442",
    "prefectureCode": "29",
    "prefectureNumber": 29,
    "prefecture": "奈良県",
    "city": "吉野郡吉野町",
    "town": "喜佐谷"
  },
  "6393443": {
    "zipcode": "6393443",
    "prefectureCode": "29",
    "prefectureNumber": 29,
    "prefecture": "奈良県",
    "city": "吉野郡吉野町",
    "town": "宮滝"
  },
  "6393444": {
    "zipcode": "6393444",
    "prefectureCode": "29",
    "prefectureNumber": 29,
    "prefecture": "奈良県",
    "city": "吉野郡吉野町",
    "town": "御園"
  },
  "6393445": {
    "zipcode": "6393445",
    "prefectureCode": "29",
    "prefectureNumber": 29,
    "prefecture": "奈良県",
    "city": "吉野郡吉野町",
    "town": "楢井"
  },
  "6393446": {
    "zipcode": "6393446",
    "prefectureCode": "29",
    "prefectureNumber": 29,
    "prefecture": "奈良県",
    "city": "吉野郡吉野町",
    "town": "菜摘"
  },
  "6393500": {
    "zipcode": "6393500",
    "prefectureCode": "29",
    "prefectureNumber": 29,
    "prefecture": "奈良県",
    "city": "吉野郡川上村",
    "town": "以下に掲載がない場合"
  },
  "6393541": {
    "zipcode": "6393541",
    "prefectureCode": "29",
    "prefectureNumber": 29,
    "prefecture": "奈良県",
    "city": "吉野郡川上村",
    "town": "東川"
  },
  "6393542": {
    "zipcode": "6393542",
    "prefectureCode": "29",
    "prefectureNumber": 29,
    "prefecture": "奈良県",
    "city": "吉野郡川上村",
    "town": "西河"
  },
  "6393543": {
    "zipcode": "6393543",
    "prefectureCode": "29",
    "prefectureNumber": 29,
    "prefecture": "奈良県",
    "city": "吉野郡川上村",
    "town": "大滝"
  },
  "6393551": {
    "zipcode": "6393551",
    "prefectureCode": "29",
    "prefectureNumber": 29,
    "prefecture": "奈良県",
    "city": "吉野郡川上村",
    "town": "寺尾"
  },
  "6393552": {
    "zipcode": "6393552",
    "prefectureCode": "29",
    "prefectureNumber": 29,
    "prefecture": "奈良県",
    "city": "吉野郡川上村",
    "town": "北塩谷"
  },
  "6393553": {
    "zipcode": "6393553",
    "prefectureCode": "29",
    "prefectureNumber": 29,
    "prefecture": "奈良県",
    "city": "吉野郡川上村",
    "town": "迫"
  },
  "6393554": {
    "zipcode": "6393554",
    "prefectureCode": "29",
    "prefectureNumber": 29,
    "prefecture": "奈良県",
    "city": "吉野郡川上村",
    "town": "高原"
  },
  "6393555": {
    "zipcode": "6393555",
    "prefectureCode": "29",
    "prefectureNumber": 29,
    "prefecture": "奈良県",
    "city": "吉野郡川上村",
    "town": "白屋"
  },
  "6393556": {
    "zipcode": "6393556",
    "prefectureCode": "29",
    "prefectureNumber": 29,
    "prefecture": "奈良県",
    "city": "吉野郡川上村",
    "town": "高原土場"
  },
  "6393557": {
    "zipcode": "6393557",
    "prefectureCode": "29",
    "prefectureNumber": 29,
    "prefecture": "奈良県",
    "city": "吉野郡川上村",
    "town": "人知"
  },
  "6393558": {
    "zipcode": "6393558",
    "prefectureCode": "29",
    "prefectureNumber": 29,
    "prefecture": "奈良県",
    "city": "吉野郡川上村",
    "town": "井戸（その他）"
  },
  "6393601": {
    "zipcode": "6393601",
    "prefectureCode": "29",
    "prefectureNumber": 29,
    "prefecture": "奈良県",
    "city": "吉野郡川上村",
    "town": "柏木"
  },
  "6393602": {
    "zipcode": "6393602",
    "prefectureCode": "29",
    "prefectureNumber": 29,
    "prefecture": "奈良県",
    "city": "吉野郡川上村",
    "town": "上多古"
  },
  "6393603": {
    "zipcode": "6393603",
    "prefectureCode": "29",
    "prefectureNumber": 29,
    "prefecture": "奈良県",
    "city": "吉野郡川上村",
    "town": "北和田"
  },
  "6393604": {
    "zipcode": "6393604",
    "prefectureCode": "29",
    "prefectureNumber": 29,
    "prefecture": "奈良県",
    "city": "吉野郡川上村",
    "town": "上谷"
  },
  "6393611": {
    "zipcode": "6393611",
    "prefectureCode": "29",
    "prefectureNumber": 29,
    "prefecture": "奈良県",
    "city": "吉野郡川上村",
    "town": "入之波"
  },
  "6393612": {
    "zipcode": "6393612",
    "prefectureCode": "29",
    "prefectureNumber": 29,
    "prefecture": "奈良県",
    "city": "吉野郡川上村",
    "town": "大迫"
  },
  "6393613": {
    "zipcode": "6393613",
    "prefectureCode": "29",
    "prefectureNumber": 29,
    "prefecture": "奈良県",
    "city": "吉野郡川上村",
    "town": "伯母谷"
  },
  "6393621": {
    "zipcode": "6393621",
    "prefectureCode": "29",
    "prefectureNumber": 29,
    "prefecture": "奈良県",
    "city": "吉野郡川上村",
    "town": "下多古"
  },
  "6393622": {
    "zipcode": "6393622",
    "prefectureCode": "29",
    "prefectureNumber": 29,
    "prefecture": "奈良県",
    "city": "吉野郡川上村",
    "town": "武木"
  },
  "6393623": {
    "zipcode": "6393623",
    "prefectureCode": "29",
    "prefectureNumber": 29,
    "prefecture": "奈良県",
    "city": "吉野郡川上村",
    "town": "井光"
  },
  "6393631": {
    "zipcode": "6393631",
    "prefectureCode": "29",
    "prefectureNumber": 29,
    "prefecture": "奈良県",
    "city": "吉野郡川上村",
    "town": "白川渡"
  },
  "6393632": {
    "zipcode": "6393632",
    "prefectureCode": "29",
    "prefectureNumber": 29,
    "prefecture": "奈良県",
    "city": "吉野郡川上村",
    "town": "枌尾"
  },
  "6393633": {
    "zipcode": "6393633",
    "prefectureCode": "29",
    "prefectureNumber": 29,
    "prefecture": "奈良県",
    "city": "吉野郡川上村",
    "town": "中奥"
  },
  "6393634": {
    "zipcode": "6393634",
    "prefectureCode": "29",
    "prefectureNumber": 29,
    "prefecture": "奈良県",
    "city": "吉野郡川上村",
    "town": "瀬戸"
  },
  "6393635": {
    "zipcode": "6393635",
    "prefectureCode": "29",
    "prefectureNumber": 29,
    "prefecture": "奈良県",
    "city": "吉野郡川上村",
    "town": "神之谷"
  },
  "6393700": {
    "zipcode": "6393700",
    "prefectureCode": "29",
    "prefectureNumber": 29,
    "prefecture": "奈良県",
    "city": "吉野郡上北山村",
    "town": "以下に掲載がない場合"
  },
  "6393701": {
    "zipcode": "6393701",
    "prefectureCode": "29",
    "prefectureNumber": 29,
    "prefecture": "奈良県",
    "city": "吉野郡上北山村",
    "town": "河合"
  },
  "6393702": {
    "zipcode": "6393702",
    "prefectureCode": "29",
    "prefectureNumber": 29,
    "prefecture": "奈良県",
    "city": "吉野郡上北山村",
    "town": "小橡"
  },
  "6393703": {
    "zipcode": "6393703",
    "prefectureCode": "29",
    "prefectureNumber": 29,
    "prefecture": "奈良県",
    "city": "吉野郡上北山村",
    "town": "白川"
  },
  "6393704": {
    "zipcode": "6393704",
    "prefectureCode": "29",
    "prefectureNumber": 29,
    "prefecture": "奈良県",
    "city": "吉野郡上北山村",
    "town": "西原"
  },
  "6393705": {
    "zipcode": "6393705",
    "prefectureCode": "29",
    "prefectureNumber": 29,
    "prefecture": "奈良県",
    "city": "吉野郡上北山村",
    "town": "東ノ川"
  },
  "6393800": {
    "zipcode": "6393800",
    "prefectureCode": "29",
    "prefectureNumber": 29,
    "prefecture": "奈良県",
    "city": "吉野郡下北山村",
    "town": "以下に掲載がない場合"
  },
  "6393801": {
    "zipcode": "6393801",
    "prefectureCode": "29",
    "prefectureNumber": 29,
    "prefecture": "奈良県",
    "city": "吉野郡下北山村",
    "town": "佐田"
  },
  "6393802": {
    "zipcode": "6393802",
    "prefectureCode": "29",
    "prefectureNumber": 29,
    "prefecture": "奈良県",
    "city": "吉野郡下北山村",
    "town": "浦向"
  },
  "6393803": {
    "zipcode": "6393803",
    "prefectureCode": "29",
    "prefectureNumber": 29,
    "prefecture": "奈良県",
    "city": "吉野郡下北山村",
    "town": "寺垣内"
  },
  "6393804": {
    "zipcode": "6393804",
    "prefectureCode": "29",
    "prefectureNumber": 29,
    "prefecture": "奈良県",
    "city": "吉野郡下北山村",
    "town": "池峰"
  },
  "6393805": {
    "zipcode": "6393805",
    "prefectureCode": "29",
    "prefectureNumber": 29,
    "prefecture": "奈良県",
    "city": "吉野郡下北山村",
    "town": "上池原"
  },
  "6393806": {
    "zipcode": "6393806",
    "prefectureCode": "29",
    "prefectureNumber": 29,
    "prefecture": "奈良県",
    "city": "吉野郡下北山村",
    "town": "下池原"
  },
  "6393807": {
    "zipcode": "6393807",
    "prefectureCode": "29",
    "prefectureNumber": 29,
    "prefecture": "奈良県",
    "city": "吉野郡下北山村",
    "town": "下桑原"
  },
  "6393808": {
    "zipcode": "6393808",
    "prefectureCode": "29",
    "prefectureNumber": 29,
    "prefecture": "奈良県",
    "city": "吉野郡下北山村",
    "town": "上桑原"
  },
  "6393809": {
    "zipcode": "6393809",
    "prefectureCode": "29",
    "prefectureNumber": 29,
    "prefecture": "奈良県",
    "city": "吉野郡下北山村",
    "town": "前鬼"
  }
}
