{
  "6400000": {
    "zipcode": "6400000",
    "prefectureCode": "30",
    "prefectureNumber": 30,
    "prefecture": "和歌山県",
    "city": "和歌山市",
    "town": "以下に掲載がない場合"
  },
  "6400101": {
    "zipcode": "6400101",
    "prefectureCode": "30",
    "prefectureNumber": 30,
    "prefecture": "和歌山県",
    "city": "和歌山市",
    "town": "大川"
  },
  "6400102": {
    "zipcode": "6400102",
    "prefectureCode": "30",
    "prefectureNumber": 30,
    "prefecture": "和歌山県",
    "city": "和歌山市",
    "town": "深山"
  },
  "6400103": {
    "zipcode": "6400103",
    "prefectureCode": "30",
    "prefectureNumber": 30,
    "prefecture": "和歌山県",
    "city": "和歌山市",
    "town": "加太"
  },
  "6400111": {
    "zipcode": "6400111",
    "prefectureCode": "30",
    "prefectureNumber": 30,
    "prefecture": "和歌山県",
    "city": "和歌山市",
    "town": "日野"
  },
  "6400112": {
    "zipcode": "6400112",
    "prefectureCode": "30",
    "prefectureNumber": 30,
    "prefecture": "和歌山県",
    "city": "和歌山市",
    "town": "西庄"
  },
  "6400113": {
    "zipcode": "6400113",
    "prefectureCode": "30",
    "prefectureNumber": 30,
    "prefecture": "和歌山県",
    "city": "和歌山市",
    "town": "本脇"
  },
  "6400114": {
    "zipcode": "6400114",
    "prefectureCode": "30",
    "prefectureNumber": 30,
    "prefecture": "和歌山県",
    "city": "和歌山市",
    "town": "磯の浦"
  },
  "6400115": {
    "zipcode": "6400115",
    "prefectureCode": "30",
    "prefectureNumber": 30,
    "prefecture": "和歌山県",
    "city": "和歌山市",
    "town": "つつじが丘"
  },
  "6400301": {
    "zipcode": "6400301",
    "prefectureCode": "30",
    "prefectureNumber": 30,
    "prefecture": "和歌山県",
    "city": "和歌山市",
    "town": "木枕"
  },
  "6400302": {
    "zipcode": "6400302",
    "prefectureCode": "30",
    "prefectureNumber": 30,
    "prefecture": "和歌山県",
    "city": "和歌山市",
    "town": "永山"
  },
  "6400303": {
    "zipcode": "6400303",
    "prefectureCode": "30",
    "prefectureNumber": 30,
    "prefecture": "和歌山県",
    "city": "和歌山市",
    "town": "山東中"
  },
  "6400304": {
    "zipcode": "6400304",
    "prefectureCode": "30",
    "prefectureNumber": 30,
    "prefecture": "和歌山県",
    "city": "和歌山市",
    "town": "平尾"
  },
  "6400305": {
    "zipcode": "6400305",
    "prefectureCode": "30",
    "prefectureNumber": 30,
    "prefecture": "和歌山県",
    "city": "和歌山市",
    "town": "明王寺"
  },
  "6400306": {
    "zipcode": "6400306",
    "prefectureCode": "30",
    "prefectureNumber": 30,
    "prefecture": "和歌山県",
    "city": "和歌山市",
    "town": "塩ノ谷"
  },
  "6400307": {
    "zipcode": "6400307",
    "prefectureCode": "30",
    "prefectureNumber": 30,
    "prefecture": "和歌山県",
    "city": "和歌山市",
    "town": "矢田"
  },
  "6400311": {
    "zipcode": "6400311",
    "prefectureCode": "30",
    "prefectureNumber": 30,
    "prefecture": "和歌山県",
    "city": "和歌山市",
    "town": "黒岩"
  },
  "6400312": {
    "zipcode": "6400312",
    "prefectureCode": "30",
    "prefectureNumber": 30,
    "prefecture": "和歌山県",
    "city": "和歌山市",
    "town": "黒谷"
  },
  "6400313": {
    "zipcode": "6400313",
    "prefectureCode": "30",
    "prefectureNumber": 30,
    "prefecture": "和歌山県",
    "city": "和歌山市",
    "town": "境原"
  },
  "6400314": {
    "zipcode": "6400314",
    "prefectureCode": "30",
    "prefectureNumber": 30,
    "prefecture": "和歌山県",
    "city": "和歌山市",
    "town": "頭陀寺"
  },
  "6400315": {
    "zipcode": "6400315",
    "prefectureCode": "30",
    "prefectureNumber": 30,
    "prefecture": "和歌山県",
    "city": "和歌山市",
    "town": "南畑"
  },
  "6400316": {
    "zipcode": "6400316",
    "prefectureCode": "30",
    "prefectureNumber": 30,
    "prefecture": "和歌山県",
    "city": "和歌山市",
    "town": "大河内"
  },
  "6400321": {
    "zipcode": "6400321",
    "prefectureCode": "30",
    "prefectureNumber": 30,
    "prefecture": "和歌山県",
    "city": "和歌山市",
    "town": "薬勝寺"
  },
  "6400322": {
    "zipcode": "6400322",
    "prefectureCode": "30",
    "prefectureNumber": 30,
    "prefecture": "和歌山県",
    "city": "和歌山市",
    "town": "仁井辺"
  },
  "6400323": {
    "zipcode": "6400323",
    "prefectureCode": "30",
    "prefectureNumber": 30,
    "prefecture": "和歌山県",
    "city": "和歌山市",
    "town": "小瀬田"
  },
  "6400324": {
    "zipcode": "6400324",
    "prefectureCode": "30",
    "prefectureNumber": 30,
    "prefecture": "和歌山県",
    "city": "和歌山市",
    "town": "本渡"
  },
  "6400331": {
    "zipcode": "6400331",
    "prefectureCode": "30",
    "prefectureNumber": 30,
    "prefecture": "和歌山県",
    "city": "和歌山市",
    "town": "吉原"
  },
  "6400332": {
    "zipcode": "6400332",
    "prefectureCode": "30",
    "prefectureNumber": 30,
    "prefecture": "和歌山県",
    "city": "和歌山市",
    "town": "冬野"
  },
  "6400333": {
    "zipcode": "6400333",
    "prefectureCode": "30",
    "prefectureNumber": 30,
    "prefecture": "和歌山県",
    "city": "和歌山市",
    "town": "広原"
  },
  "6400341": {
    "zipcode": "6400341",
    "prefectureCode": "30",
    "prefectureNumber": 30,
    "prefecture": "和歌山県",
    "city": "和歌山市",
    "town": "相坂"
  },
  "6400342": {
    "zipcode": "6400342",
    "prefectureCode": "30",
    "prefectureNumber": 30,
    "prefecture": "和歌山県",
    "city": "和歌山市",
    "town": "松原"
  },
  "6400343": {
    "zipcode": "6400343",
    "prefectureCode": "30",
    "prefectureNumber": 30,
    "prefecture": "和歌山県",
    "city": "和歌山市",
    "town": "江南"
  },
  "6400344": {
    "zipcode": "6400344",
    "prefectureCode": "30",
    "prefectureNumber": 30,
    "prefecture": "和歌山県",
    "city": "和歌山市",
    "town": "朝日"
  },
  "6400345": {
    "zipcode": "6400345",
    "prefectureCode": "30",
    "prefectureNumber": 30,
    "prefecture": "和歌山県",
    "city": "和歌山市",
    "town": "桑山"
  },
  "6400351": {
    "zipcode": "6400351",
    "prefectureCode": "30",
    "prefectureNumber": 30,
    "prefecture": "和歌山県",
    "city": "和歌山市",
    "town": "吉礼"
  },
  "6400352": {
    "zipcode": "6400352",
    "prefectureCode": "30",
    "prefectureNumber": 30,
    "prefecture": "和歌山県",
    "city": "和歌山市",
    "town": "井戸"
  },
  "6400353": {
    "zipcode": "6400353",
    "prefectureCode": "30",
    "prefectureNumber": 30,
    "prefecture": "和歌山県",
    "city": "和歌山市",
    "town": "馬場"
  },
  "6400361": {
    "zipcode": "6400361",
    "prefectureCode": "30",
    "prefectureNumber": 30,
    "prefecture": "和歌山県",
    "city": "和歌山市",
    "town": "伊太祈曽"
  },
  "6400362": {
    "zipcode": "6400362",
    "prefectureCode": "30",
    "prefectureNumber": 30,
    "prefecture": "和歌山県",
    "city": "和歌山市",
    "town": "奥須佐"
  },
  "6400363": {
    "zipcode": "6400363",
    "prefectureCode": "30",
    "prefectureNumber": 30,
    "prefecture": "和歌山県",
    "city": "和歌山市",
    "town": "吉里"
  },
  "6400364": {
    "zipcode": "6400364",
    "prefectureCode": "30",
    "prefectureNumber": 30,
    "prefecture": "和歌山県",
    "city": "和歌山市",
    "town": "口須佐"
  },
  "6400401": {
    "zipcode": "6400401",
    "prefectureCode": "30",
    "prefectureNumber": 30,
    "prefecture": "和歌山県",
    "city": "紀の川市",
    "town": "貴志川町丸栖"
  },
  "6400402": {
    "zipcode": "6400402",
    "prefectureCode": "30",
    "prefectureNumber": 30,
    "prefecture": "和歌山県",
    "city": "紀の川市",
    "town": "貴志川町北山"
  },
  "6400403": {
    "zipcode": "6400403",
    "prefectureCode": "30",
    "prefectureNumber": 30,
    "prefecture": "和歌山県",
    "city": "紀の川市",
    "town": "貴志川町尼寺"
  },
  "6400404": {
    "zipcode": "6400404",
    "prefectureCode": "30",
    "prefectureNumber": 30,
    "prefecture": "和歌山県",
    "city": "紀の川市",
    "town": "貴志川町鳥居"
  },
  "6400405": {
    "zipcode": "6400405",
    "prefectureCode": "30",
    "prefectureNumber": 30,
    "prefecture": "和歌山県",
    "city": "紀の川市",
    "town": "貴志川町岸宮"
  },
  "6400406": {
    "zipcode": "6400406",
    "prefectureCode": "30",
    "prefectureNumber": 30,
    "prefecture": "和歌山県",
    "city": "紀の川市",
    "town": "貴志川町西山"
  },
  "6400411": {
    "zipcode": "6400411",
    "prefectureCode": "30",
    "prefectureNumber": 30,
    "prefecture": "和歌山県",
    "city": "紀の川市",
    "town": "貴志川町前田"
  },
  "6400412": {
    "zipcode": "6400412",
    "prefectureCode": "30",
    "prefectureNumber": 30,
    "prefecture": "和歌山県",
    "city": "紀の川市",
    "town": "貴志川町上野山"
  },
  "6400413": {
    "zipcode": "6400413",
    "prefectureCode": "30",
    "prefectureNumber": 30,
    "prefecture": "和歌山県",
    "city": "紀の川市",
    "town": "貴志川町神戸"
  },
  "6400414": {
    "zipcode": "6400414",
    "prefectureCode": "30",
    "prefectureNumber": 30,
    "prefecture": "和歌山県",
    "city": "紀の川市",
    "town": "貴志川町国主"
  },
  "6400415": {
    "zipcode": "6400415",
    "prefectureCode": "30",
    "prefectureNumber": 30,
    "prefecture": "和歌山県",
    "city": "紀の川市",
    "town": "貴志川町長原"
  },
  "6400416": {
    "zipcode": "6400416",
    "prefectureCode": "30",
    "prefectureNumber": 30,
    "prefecture": "和歌山県",
    "city": "紀の川市",
    "town": "貴志川町長山"
  },
  "6400421": {
    "zipcode": "6400421",
    "prefectureCode": "30",
    "prefectureNumber": 30,
    "prefecture": "和歌山県",
    "city": "紀の川市",
    "town": "貴志川町北"
  },
  "6400422": {
    "zipcode": "6400422",
    "prefectureCode": "30",
    "prefectureNumber": 30,
    "prefecture": "和歌山県",
    "city": "紀の川市",
    "town": "貴志川町岸小野"
  },
  "6400423": {
    "zipcode": "6400423",
    "prefectureCode": "30",
    "prefectureNumber": 30,
    "prefecture": "和歌山県",
    "city": "紀の川市",
    "town": "貴志川町高尾"
  },
  "6400424": {
    "zipcode": "6400424",
    "prefectureCode": "30",
    "prefectureNumber": 30,
    "prefecture": "和歌山県",
    "city": "紀の川市",
    "town": "貴志川町井ノ口"
  },
  "6400441": {
    "zipcode": "6400441",
    "prefectureCode": "30",
    "prefectureNumber": 30,
    "prefecture": "和歌山県",
    "city": "海南市",
    "town": "七山"
  },
  "6400442": {
    "zipcode": "6400442",
    "prefectureCode": "30",
    "prefectureNumber": 30,
    "prefecture": "和歌山県",
    "city": "海南市",
    "town": "原野"
  },
  "6400443": {
    "zipcode": "6400443",
    "prefectureCode": "30",
    "prefectureNumber": 30,
    "prefecture": "和歌山県",
    "city": "海南市",
    "town": "下津野"
  },
  "6400451": {
    "zipcode": "6400451",
    "prefectureCode": "30",
    "prefectureNumber": 30,
    "prefecture": "和歌山県",
    "city": "海南市",
    "town": "高津"
  },
  "6400452": {
    "zipcode": "6400452",
    "prefectureCode": "30",
    "prefectureNumber": 30,
    "prefecture": "和歌山県",
    "city": "海南市",
    "town": "孟子"
  },
  "6400453": {
    "zipcode": "6400453",
    "prefectureCode": "30",
    "prefectureNumber": 30,
    "prefecture": "和歌山県",
    "city": "海南市",
    "town": "野尻"
  },
  "6400454": {
    "zipcode": "6400454",
    "prefectureCode": "30",
    "prefectureNumber": 30,
    "prefecture": "和歌山県",
    "city": "海南市",
    "town": "別院"
  },
  "6401100": {
    "zipcode": "6401100",
    "prefectureCode": "30",
    "prefectureNumber": 30,
    "prefecture": "和歌山県",
    "city": "海草郡紀美野町",
    "town": "以下に掲載がない場合"
  },
  "6401101": {
    "zipcode": "6401101",
    "prefectureCode": "30",
    "prefectureNumber": 30,
    "prefecture": "和歌山県",
    "city": "海草郡紀美野町",
    "town": "長谷"
  },
  "6401102": {
    "zipcode": "6401102",
    "prefectureCode": "30",
    "prefectureNumber": 30,
    "prefecture": "和歌山県",
    "city": "海草郡紀美野町",
    "town": "柴目"
  },
  "6401103": {
    "zipcode": "6401103",
    "prefectureCode": "30",
    "prefectureNumber": 30,
    "prefecture": "和歌山県",
    "city": "海草郡紀美野町",
    "town": "吉野"
  },
  "6401111": {
    "zipcode": "6401111",
    "prefectureCode": "30",
    "prefectureNumber": 30,
    "prefecture": "和歌山県",
    "city": "海草郡紀美野町",
    "town": "福井"
  },
  "6401112": {
    "zipcode": "6401112",
    "prefectureCode": "30",
    "prefectureNumber": 30,
    "prefecture": "和歌山県",
    "city": "海草郡紀美野町",
    "town": "坂本"
  },
  "6401113": {
    "zipcode": "6401113",
    "prefectureCode": "30",
    "prefectureNumber": 30,
    "prefecture": "和歌山県",
    "city": "海草郡紀美野町",
    "town": "梅本"
  },
  "6401114": {
    "zipcode": "6401114",
    "prefectureCode": "30",
    "prefectureNumber": 30,
    "prefecture": "和歌山県",
    "city": "海草郡紀美野町",
    "town": "中田"
  },
  "6401115": {
    "zipcode": "6401115",
    "prefectureCode": "30",
    "prefectureNumber": 30,
    "prefecture": "和歌山県",
    "city": "海草郡紀美野町",
    "town": "奥佐々"
  },
  "6401121": {
    "zipcode": "6401121",
    "prefectureCode": "30",
    "prefectureNumber": 30,
    "prefecture": "和歌山県",
    "city": "海草郡紀美野町",
    "town": "下佐々"
  },
  "6401131": {
    "zipcode": "6401131",
    "prefectureCode": "30",
    "prefectureNumber": 30,
    "prefecture": "和歌山県",
    "city": "海草郡紀美野町",
    "town": "動木"
  },
  "6401141": {
    "zipcode": "6401141",
    "prefectureCode": "30",
    "prefectureNumber": 30,
    "prefecture": "和歌山県",
    "city": "海草郡紀美野町",
    "town": "小畑"
  },
  "6401161": {
    "zipcode": "6401161",
    "prefectureCode": "30",
    "prefectureNumber": 30,
    "prefecture": "和歌山県",
    "city": "海南市",
    "town": "野上新"
  },
  "6401162": {
    "zipcode": "6401162",
    "prefectureCode": "30",
    "prefectureNumber": 30,
    "prefecture": "和歌山県",
    "city": "海南市",
    "town": "上谷"
  },
  "6401163": {
    "zipcode": "6401163",
    "prefectureCode": "30",
    "prefectureNumber": 30,
    "prefecture": "和歌山県",
    "city": "海南市",
    "town": "赤沼"
  },
  "6401164": {
    "zipcode": "6401164",
    "prefectureCode": "30",
    "prefectureNumber": 30,
    "prefecture": "和歌山県",
    "city": "海南市",
    "town": "海老谷"
  },
  "6401165": {
    "zipcode": "6401165",
    "prefectureCode": "30",
    "prefectureNumber": 30,
    "prefecture": "和歌山県",
    "city": "海南市",
    "town": "ひや水"
  },
  "6401166": {
    "zipcode": "6401166",
    "prefectureCode": "30",
    "prefectureNumber": 30,
    "prefecture": "和歌山県",
    "city": "海南市",
    "town": "次ケ谷"
  },
  "6401167": {
    "zipcode": "6401167",
    "prefectureCode": "30",
    "prefectureNumber": 30,
    "prefecture": "和歌山県",
    "city": "海南市",
    "town": "九品寺"
  },
  "6401171": {
    "zipcode": "6401171",
    "prefectureCode": "30",
    "prefectureNumber": 30,
    "prefecture": "和歌山県",
    "city": "海南市",
    "town": "野上中"
  },
  "6401172": {
    "zipcode": "6401172",
    "prefectureCode": "30",
    "prefectureNumber": 30,
    "prefecture": "和歌山県",
    "city": "海南市",
    "town": "溝ノ口"
  },
  "6401173": {
    "zipcode": "6401173",
    "prefectureCode": "30",
    "prefectureNumber": 30,
    "prefecture": "和歌山県",
    "city": "海南市",
    "town": "椋木"
  },
  "6401174": {
    "zipcode": "6401174",
    "prefectureCode": "30",
    "prefectureNumber": 30,
    "prefecture": "和歌山県",
    "city": "海南市",
    "town": "木津"
  },
  "6401175": {
    "zipcode": "6401175",
    "prefectureCode": "30",
    "prefectureNumber": 30,
    "prefecture": "和歌山県",
    "city": "海南市",
    "town": "沖野々"
  },
  "6401201": {
    "zipcode": "6401201",
    "prefectureCode": "30",
    "prefectureNumber": 30,
    "prefecture": "和歌山県",
    "city": "海草郡紀美野町",
    "town": "北野"
  },
  "6401202": {
    "zipcode": "6401202",
    "prefectureCode": "30",
    "prefectureNumber": 30,
    "prefecture": "和歌山県",
    "city": "海草郡紀美野町",
    "town": "初生谷"
  },
  "6401203": {
    "zipcode": "6401203",
    "prefectureCode": "30",
    "prefectureNumber": 30,
    "prefecture": "和歌山県",
    "city": "海草郡紀美野町",
    "town": "花野原"
  },
  "6401204": {
    "zipcode": "6401204",
    "prefectureCode": "30",
    "prefectureNumber": 30,
    "prefecture": "和歌山県",
    "city": "海草郡紀美野町",
    "town": "蓑津呂"
  },
  "6401205": {
    "zipcode": "6401205",
    "prefectureCode": "30",
    "prefectureNumber": 30,
    "prefecture": "和歌山県",
    "city": "海草郡紀美野町",
    "town": "真国宮"
  },
  "6401206": {
    "zipcode": "6401206",
    "prefectureCode": "30",
    "prefectureNumber": 30,
    "prefecture": "和歌山県",
    "city": "海草郡紀美野町",
    "town": "蓑垣内"
  },
  "6401207": {
    "zipcode": "6401207",
    "prefectureCode": "30",
    "prefectureNumber": 30,
    "prefecture": "和歌山県",
    "city": "海草郡紀美野町",
    "town": "井堰"
  },
  "6401211": {
    "zipcode": "6401211",
    "prefectureCode": "30",
    "prefectureNumber": 30,
    "prefecture": "和歌山県",
    "city": "海草郡紀美野町",
    "town": "桂瀬"
  },
  "6401212": {
    "zipcode": "6401212",
    "prefectureCode": "30",
    "prefectureNumber": 30,
    "prefecture": "和歌山県",
    "city": "海草郡紀美野町",
    "town": "高畑"
  },
  "6401213": {
    "zipcode": "6401213",
    "prefectureCode": "30",
    "prefectureNumber": 30,
    "prefecture": "和歌山県",
    "city": "海草郡紀美野町",
    "town": "赤木"
  },
  "6401214": {
    "zipcode": "6401214",
    "prefectureCode": "30",
    "prefectureNumber": 30,
    "prefecture": "和歌山県",
    "city": "海草郡紀美野町",
    "town": "明添"
  },
  "6401215": {
    "zipcode": "6401215",
    "prefectureCode": "30",
    "prefectureNumber": 30,
    "prefecture": "和歌山県",
    "city": "海草郡紀美野町",
    "town": "鎌滝"
  },
  "6401221": {
    "zipcode": "6401221",
    "prefectureCode": "30",
    "prefectureNumber": 30,
    "prefecture": "和歌山県",
    "city": "海草郡紀美野町",
    "town": "三尾川"
  },
  "6401222": {
    "zipcode": "6401222",
    "prefectureCode": "30",
    "prefectureNumber": 30,
    "prefecture": "和歌山県",
    "city": "海草郡紀美野町",
    "town": "大角"
  },
  "6401223": {
    "zipcode": "6401223",
    "prefectureCode": "30",
    "prefectureNumber": 30,
    "prefecture": "和歌山県",
    "city": "海草郡紀美野町",
    "town": "津川"
  },
  "6401231": {
    "zipcode": "6401231",
    "prefectureCode": "30",
    "prefectureNumber": 30,
    "prefecture": "和歌山県",
    "city": "海草郡紀美野町",
    "town": "上ケ井"
  },
  "6401232": {
    "zipcode": "6401232",
    "prefectureCode": "30",
    "prefectureNumber": 30,
    "prefecture": "和歌山県",
    "city": "海草郡紀美野町",
    "town": "箕六"
  },
  "6401233": {
    "zipcode": "6401233",
    "prefectureCode": "30",
    "prefectureNumber": 30,
    "prefecture": "和歌山県",
    "city": "海草郡紀美野町",
    "town": "南畑"
  },
  "6401234": {
    "zipcode": "6401234",
    "prefectureCode": "30",
    "prefectureNumber": 30,
    "prefecture": "和歌山県",
    "city": "海草郡紀美野町",
    "town": "安井"
  },
  "6401235": {
    "zipcode": "6401235",
    "prefectureCode": "30",
    "prefectureNumber": 30,
    "prefecture": "和歌山県",
    "city": "海草郡紀美野町",
    "town": "野中"
  },
  "6401241": {
    "zipcode": "6401241",
    "prefectureCode": "30",
    "prefectureNumber": 30,
    "prefecture": "和歌山県",
    "city": "海草郡紀美野町",
    "town": "永谷"
  },
  "6401242": {
    "zipcode": "6401242",
    "prefectureCode": "30",
    "prefectureNumber": 30,
    "prefecture": "和歌山県",
    "city": "海草郡紀美野町",
    "town": "樋下"
  },
  "6401243": {
    "zipcode": "6401243",
    "prefectureCode": "30",
    "prefectureNumber": 30,
    "prefecture": "和歌山県",
    "city": "海草郡紀美野町",
    "town": "神野市場"
  },
  "6401244": {
    "zipcode": "6401244",
    "prefectureCode": "30",
    "prefectureNumber": 30,
    "prefecture": "和歌山県",
    "city": "海草郡紀美野町",
    "town": "福田"
  },
  "6401251": {
    "zipcode": "6401251",
    "prefectureCode": "30",
    "prefectureNumber": 30,
    "prefecture": "和歌山県",
    "city": "海草郡紀美野町",
    "town": "国木原"
  },
  "6401252": {
    "zipcode": "6401252",
    "prefectureCode": "30",
    "prefectureNumber": 30,
    "prefecture": "和歌山県",
    "city": "海草郡紀美野町",
    "town": "西野"
  },
  "6401253": {
    "zipcode": "6401253",
    "prefectureCode": "30",
    "prefectureNumber": 30,
    "prefecture": "和歌山県",
    "city": "海草郡紀美野町",
    "town": "東野"
  },
  "6401254": {
    "zipcode": "6401254",
    "prefectureCode": "30",
    "prefectureNumber": 30,
    "prefecture": "和歌山県",
    "city": "海草郡紀美野町",
    "town": "松瀬"
  },
  "6401255": {
    "zipcode": "6401255",
    "prefectureCode": "30",
    "prefectureNumber": 30,
    "prefecture": "和歌山県",
    "city": "海草郡紀美野町",
    "town": "釜滝"
  },
  "6401331": {
    "zipcode": "6401331",
    "prefectureCode": "30",
    "prefectureNumber": 30,
    "prefecture": "和歌山県",
    "city": "紀の川市",
    "town": "桃山町峯"
  },
  "6401332": {
    "zipcode": "6401332",
    "prefectureCode": "30",
    "prefectureNumber": 30,
    "prefecture": "和歌山県",
    "city": "紀の川市",
    "town": "桃山町中畑"
  },
  "6401333": {
    "zipcode": "6401333",
    "prefectureCode": "30",
    "prefectureNumber": 30,
    "prefecture": "和歌山県",
    "city": "紀の川市",
    "town": "桃山町垣内"
  },
  "6401351": {
    "zipcode": "6401351",
    "prefectureCode": "30",
    "prefectureNumber": 30,
    "prefecture": "和歌山県",
    "city": "海草郡紀美野町",
    "town": "勝谷"
  },
  "6401352": {
    "zipcode": "6401352",
    "prefectureCode": "30",
    "prefectureNumber": 30,
    "prefecture": "和歌山県",
    "city": "海草郡紀美野町",
    "town": "谷"
  },
  "6401353": {
    "zipcode": "6401353",
    "prefectureCode": "30",
    "prefectureNumber": 30,
    "prefecture": "和歌山県",
    "city": "海草郡紀美野町",
    "town": "円明寺"
  },
  "6401354": {
    "zipcode": "6401354",
    "prefectureCode": "30",
    "prefectureNumber": 30,
    "prefecture": "和歌山県",
    "city": "海草郡紀美野町",
    "town": "四郷"
  },
  "6401361": {
    "zipcode": "6401361",
    "prefectureCode": "30",
    "prefectureNumber": 30,
    "prefecture": "和歌山県",
    "city": "海草郡紀美野町",
    "town": "中"
  },
  "6401362": {
    "zipcode": "6401362",
    "prefectureCode": "30",
    "prefectureNumber": 30,
    "prefecture": "和歌山県",
    "city": "海草郡紀美野町",
    "town": "滝ノ川"
  },
  "6401363": {
    "zipcode": "6401363",
    "prefectureCode": "30",
    "prefectureNumber": 30,
    "prefecture": "和歌山県",
    "city": "海草郡紀美野町",
    "town": "田"
  },
  "6401364": {
    "zipcode": "6401364",
    "prefectureCode": "30",
    "prefectureNumber": 30,
    "prefecture": "和歌山県",
    "city": "海草郡紀美野町",
    "town": "菅沢"
  },
  "6401365": {
    "zipcode": "6401365",
    "prefectureCode": "30",
    "prefectureNumber": 30,
    "prefecture": "和歌山県",
    "city": "海草郡紀美野町",
    "town": "今西"
  },
  "6401366": {
    "zipcode": "6401366",
    "prefectureCode": "30",
    "prefectureNumber": 30,
    "prefecture": "和歌山県",
    "city": "海草郡紀美野町",
    "town": "松ケ峯"
  },
  "6401471": {
    "zipcode": "6401471",
    "prefectureCode": "30",
    "prefectureNumber": 30,
    "prefecture": "和歌山県",
    "city": "海草郡紀美野町",
    "town": "長谷宮"
  },
  "6401472": {
    "zipcode": "6401472",
    "prefectureCode": "30",
    "prefectureNumber": 30,
    "prefecture": "和歌山県",
    "city": "海草郡紀美野町",
    "town": "毛原上"
  },
  "6401473": {
    "zipcode": "6401473",
    "prefectureCode": "30",
    "prefectureNumber": 30,
    "prefecture": "和歌山県",
    "city": "海草郡紀美野町",
    "town": "毛原宮"
  },
  "6401474": {
    "zipcode": "6401474",
    "prefectureCode": "30",
    "prefectureNumber": 30,
    "prefecture": "和歌山県",
    "city": "海草郡紀美野町",
    "town": "毛原中"
  },
  "6401475": {
    "zipcode": "6401475",
    "prefectureCode": "30",
    "prefectureNumber": 30,
    "prefecture": "和歌山県",
    "city": "海草郡紀美野町",
    "town": "小西"
  },
  "6401476": {
    "zipcode": "6401476",
    "prefectureCode": "30",
    "prefectureNumber": 30,
    "prefecture": "和歌山県",
    "city": "海草郡紀美野町",
    "town": "毛原下"
  },
  "6401481": {
    "zipcode": "6401481",
    "prefectureCode": "30",
    "prefectureNumber": 30,
    "prefecture": "和歌山県",
    "city": "伊都郡かつらぎ町",
    "town": "新城"
  },
  "6408001": {
    "zipcode": "6408001",
    "prefectureCode": "30",
    "prefectureNumber": 30,
    "prefecture": "和歌山県",
    "city": "和歌山市",
    "town": "北新七軒丁"
  },
  "6408002": {
    "zipcode": "6408002",
    "prefectureCode": "30",
    "prefectureNumber": 30,
    "prefecture": "和歌山県",
    "city": "和歌山市",
    "town": "北新"
  },
  "6408003": {
    "zipcode": "6408003",
    "prefectureCode": "30",
    "prefectureNumber": 30,
    "prefecture": "和歌山県",
    "city": "和歌山市",
    "town": "北新博労町"
  },
  "6408004": {
    "zipcode": "6408004",
    "prefectureCode": "30",
    "prefectureNumber": 30,
    "prefecture": "和歌山県",
    "city": "和歌山市",
    "town": "東旅籠町"
  },
  "6408005": {
    "zipcode": "6408005",
    "prefectureCode": "30",
    "prefectureNumber": 30,
    "prefecture": "和歌山県",
    "city": "和歌山市",
    "town": "元寺町南ノ丁"
  },
  "6408006": {
    "zipcode": "6408006",
    "prefectureCode": "30",
    "prefectureNumber": 30,
    "prefecture": "和歌山県",
    "city": "和歌山市",
    "town": "元寺町東ノ丁"
  },
  "6408007": {
    "zipcode": "6408007",
    "prefectureCode": "30",
    "prefectureNumber": 30,
    "prefecture": "和歌山県",
    "city": "和歌山市",
    "town": "元寺町西ノ丁"
  },
  "6408008": {
    "zipcode": "6408008",
    "prefectureCode": "30",
    "prefectureNumber": 30,
    "prefecture": "和歌山県",
    "city": "和歌山市",
    "town": "元寺町北ノ丁"
  },
  "6408009": {
    "zipcode": "6408009",
    "prefectureCode": "30",
    "prefectureNumber": 30,
    "prefecture": "和歌山県",
    "city": "和歌山市",
    "town": "鍋屋町"
  },
  "6408011": {
    "zipcode": "6408011",
    "prefectureCode": "30",
    "prefectureNumber": 30,
    "prefecture": "和歌山県",
    "city": "和歌山市",
    "town": "北新元金屋丁"
  },
  "6408012": {
    "zipcode": "6408012",
    "prefectureCode": "30",
    "prefectureNumber": 30,
    "prefecture": "和歌山県",
    "city": "和歌山市",
    "town": "北新金屋丁"
  },
  "6408013": {
    "zipcode": "6408013",
    "prefectureCode": "30",
    "prefectureNumber": 30,
    "prefecture": "和歌山県",
    "city": "和歌山市",
    "town": "東仲間町"
  },
  "6408014": {
    "zipcode": "6408014",
    "prefectureCode": "30",
    "prefectureNumber": 30,
    "prefecture": "和歌山県",
    "city": "和歌山市",
    "town": "西仲間町"
  },
  "6408015": {
    "zipcode": "6408015",
    "prefectureCode": "30",
    "prefectureNumber": 30,
    "prefecture": "和歌山県",
    "city": "和歌山市",
    "town": "北新桶屋町"
  },
  "6408016": {
    "zipcode": "6408016",
    "prefectureCode": "30",
    "prefectureNumber": 30,
    "prefecture": "和歌山県",
    "city": "和歌山市",
    "town": "北新中ノ丁"
  },
  "6408017": {
    "zipcode": "6408017",
    "prefectureCode": "30",
    "prefectureNumber": 30,
    "prefecture": "和歌山県",
    "city": "和歌山市",
    "town": "北新戎ノ丁"
  },
  "6408020": {
    "zipcode": "6408020",
    "prefectureCode": "30",
    "prefectureNumber": 30,
    "prefecture": "和歌山県",
    "city": "和歌山市",
    "town": "北桶屋町"
  },
  "6408021": {
    "zipcode": "6408021",
    "prefectureCode": "30",
    "prefectureNumber": 30,
    "prefecture": "和歌山県",
    "city": "和歌山市",
    "town": "西旅籠町"
  },
  "6408022": {
    "zipcode": "6408022",
    "prefectureCode": "30",
    "prefectureNumber": 30,
    "prefecture": "和歌山県",
    "city": "和歌山市",
    "town": "住吉町"
  },
  "6408023": {
    "zipcode": "6408023",
    "prefectureCode": "30",
    "prefectureNumber": 30,
    "prefecture": "和歌山県",
    "city": "和歌山市",
    "town": "中ノ店北ノ丁"
  },
  "6408024": {
    "zipcode": "6408024",
    "prefectureCode": "30",
    "prefectureNumber": 30,
    "prefecture": "和歌山県",
    "city": "和歌山市",
    "town": "元寺町"
  },
  "6408025": {
    "zipcode": "6408025",
    "prefectureCode": "30",
    "prefectureNumber": 30,
    "prefecture": "和歌山県",
    "city": "和歌山市",
    "town": "中ノ店中ノ丁"
  },
  "6408026": {
    "zipcode": "6408026",
    "prefectureCode": "30",
    "prefectureNumber": 30,
    "prefecture": "和歌山県",
    "city": "和歌山市",
    "town": "中ノ店南ノ丁"
  },
  "6408027": {
    "zipcode": "6408027",
    "prefectureCode": "30",
    "prefectureNumber": 30,
    "prefecture": "和歌山県",
    "city": "和歌山市",
    "town": "米屋町"
  },
  "6408028": {
    "zipcode": "6408028",
    "prefectureCode": "30",
    "prefectureNumber": 30,
    "prefecture": "和歌山県",
    "city": "和歌山市",
    "town": "匠町"
  },
  "6408029": {
    "zipcode": "6408029",
    "prefectureCode": "30",
    "prefectureNumber": 30,
    "prefecture": "和歌山県",
    "city": "和歌山市",
    "town": "南桶屋町"
  },
  "6408031": {
    "zipcode": "6408031",
    "prefectureCode": "30",
    "prefectureNumber": 30,
    "prefecture": "和歌山県",
    "city": "和歌山市",
    "town": "北大工町"
  },
  "6408032": {
    "zipcode": "6408032",
    "prefectureCode": "30",
    "prefectureNumber": 30,
    "prefecture": "和歌山県",
    "city": "和歌山市",
    "town": "南大工町"
  },
  "6408033": {
    "zipcode": "6408033",
    "prefectureCode": "30",
    "prefectureNumber": 30,
    "prefecture": "和歌山県",
    "city": "和歌山市",
    "town": "本町"
  },
  "6408034": {
    "zipcode": "6408034",
    "prefectureCode": "30",
    "prefectureNumber": 30,
    "prefecture": "和歌山県",
    "city": "和歌山市",
    "town": "駿河町"
  },
  "6408035": {
    "zipcode": "6408035",
    "prefectureCode": "30",
    "prefectureNumber": 30,
    "prefecture": "和歌山県",
    "city": "和歌山市",
    "town": "万町"
  },
  "6408036": {
    "zipcode": "6408036",
    "prefectureCode": "30",
    "prefectureNumber": 30,
    "prefecture": "和歌山県",
    "city": "和歌山市",
    "town": "東鍛冶屋町"
  },
  "6408037": {
    "zipcode": "6408037",
    "prefectureCode": "30",
    "prefectureNumber": 30,
    "prefecture": "和歌山県",
    "city": "和歌山市",
    "town": "西大工町"
  },
  "6408038": {
    "zipcode": "6408038",
    "prefectureCode": "30",
    "prefectureNumber": 30,
    "prefecture": "和歌山県",
    "city": "和歌山市",
    "town": "北町"
  },
  "6408039": {
    "zipcode": "6408039",
    "prefectureCode": "30",
    "prefectureNumber": 30,
    "prefecture": "和歌山県",
    "city": "和歌山市",
    "town": "宇治袋町"
  },
  "6408041": {
    "zipcode": "6408041",
    "prefectureCode": "30",
    "prefectureNumber": 30,
    "prefecture": "和歌山県",
    "city": "和歌山市",
    "town": "専光寺門前丁"
  },
  "6408042": {
    "zipcode": "6408042",
    "prefectureCode": "30",
    "prefectureNumber": 30,
    "prefecture": "和歌山県",
    "city": "和歌山市",
    "town": "西ノ店"
  },
  "6408043": {
    "zipcode": "6408043",
    "prefectureCode": "30",
    "prefectureNumber": 30,
    "prefecture": "和歌山県",
    "city": "和歌山市",
    "town": "福町"
  },
  "6408044": {
    "zipcode": "6408044",
    "prefectureCode": "30",
    "prefectureNumber": 30,
    "prefecture": "和歌山県",
    "city": "和歌山市",
    "town": "板屋町"
  },
  "6408045": {
    "zipcode": "6408045",
    "prefectureCode": "30",
    "prefectureNumber": 30,
    "prefecture": "和歌山県",
    "city": "和歌山市",
    "town": "卜半町"
  },
  "6408046": {
    "zipcode": "6408046",
    "prefectureCode": "30",
    "prefectureNumber": 30,
    "prefecture": "和歌山県",
    "city": "和歌山市",
    "town": "西鍛冶屋町"
  },
  "6408047": {
    "zipcode": "6408047",
    "prefectureCode": "30",
    "prefectureNumber": 30,
    "prefecture": "和歌山県",
    "city": "和歌山市",
    "town": "鷺ノ森南ノ丁"
  },
  "6408051": {
    "zipcode": "6408051",
    "prefectureCode": "30",
    "prefectureNumber": 30,
    "prefecture": "和歌山県",
    "city": "和歌山市",
    "town": "鷺ノ森東ノ丁"
  },
  "6408052": {
    "zipcode": "6408052",
    "prefectureCode": "30",
    "prefectureNumber": 30,
    "prefecture": "和歌山県",
    "city": "和歌山市",
    "town": "鷺ノ森堂前丁"
  },
  "6408053": {
    "zipcode": "6408053",
    "prefectureCode": "30",
    "prefectureNumber": 30,
    "prefecture": "和歌山県",
    "city": "和歌山市",
    "town": "鷺ノ森"
  },
  "6408054": {
    "zipcode": "6408054",
    "prefectureCode": "30",
    "prefectureNumber": 30,
    "prefecture": "和歌山県",
    "city": "和歌山市",
    "town": "鷺ノ森片町"
  },
  "6408055": {
    "zipcode": "6408055",
    "prefectureCode": "30",
    "prefectureNumber": 30,
    "prefecture": "和歌山県",
    "city": "和歌山市",
    "town": "九家ノ丁"
  },
  "6408056": {
    "zipcode": "6408056",
    "prefectureCode": "30",
    "prefectureNumber": 30,
    "prefecture": "和歌山県",
    "city": "和歌山市",
    "town": "鷺ノ森西ノ丁"
  },
  "6408057": {
    "zipcode": "6408057",
    "prefectureCode": "30",
    "prefectureNumber": 30,
    "prefecture": "和歌山県",
    "city": "和歌山市",
    "town": "鷺ノ森新道"
  },
  "6408058": {
    "zipcode": "6408058",
    "prefectureCode": "30",
    "prefectureNumber": 30,
    "prefecture": "和歌山県",
    "city": "和歌山市",
    "town": "鷺ノ森中ノ丁"
  },
  "6408059": {
    "zipcode": "6408059",
    "prefectureCode": "30",
    "prefectureNumber": 30,
    "prefecture": "和歌山県",
    "city": "和歌山市",
    "town": "鷺ノ森明神丁"
  },
  "6408060": {
    "zipcode": "6408060",
    "prefectureCode": "30",
    "prefectureNumber": 30,
    "prefecture": "和歌山県",
    "city": "和歌山市",
    "town": "四筋目"
  },
  "6408061": {
    "zipcode": "6408061",
    "prefectureCode": "30",
    "prefectureNumber": 30,
    "prefecture": "和歌山県",
    "city": "和歌山市",
    "town": "畳屋町"
  },
  "6408062": {
    "zipcode": "6408062",
    "prefectureCode": "30",
    "prefectureNumber": 30,
    "prefecture": "和歌山県",
    "city": "和歌山市",
    "town": "北釘貫丁"
  },
  "6408063": {
    "zipcode": "6408063",
    "prefectureCode": "30",
    "prefectureNumber": 30,
    "prefecture": "和歌山県",
    "city": "和歌山市",
    "town": "西釘貫丁"
  },
  "6408064": {
    "zipcode": "6408064",
    "prefectureCode": "30",
    "prefectureNumber": 30,
    "prefecture": "和歌山県",
    "city": "和歌山市",
    "town": "東釘貫丁"
  },
  "6408065": {
    "zipcode": "6408065",
    "prefectureCode": "30",
    "prefectureNumber": 30,
    "prefecture": "和歌山県",
    "city": "和歌山市",
    "town": "山吹丁"
  },
  "6408066": {
    "zipcode": "6408066",
    "prefectureCode": "30",
    "prefectureNumber": 30,
    "prefecture": "和歌山県",
    "city": "和歌山市",
    "town": "東布経丁"
  },
  "6408067": {
    "zipcode": "6408067",
    "prefectureCode": "30",
    "prefectureNumber": 30,
    "prefecture": "和歌山県",
    "city": "和歌山市",
    "town": "一筋目"
  },
  "6408068": {
    "zipcode": "6408068",
    "prefectureCode": "30",
    "prefectureNumber": 30,
    "prefecture": "和歌山県",
    "city": "和歌山市",
    "town": "二筋目"
  },
  "6408069": {
    "zipcode": "6408069",
    "prefectureCode": "30",
    "prefectureNumber": 30,
    "prefecture": "和歌山県",
    "city": "和歌山市",
    "town": "三筋目"
  },
  "6408071": {
    "zipcode": "6408071",
    "prefectureCode": "30",
    "prefectureNumber": 30,
    "prefecture": "和歌山県",
    "city": "和歌山市",
    "town": "宇治薮下"
  },
  "6408072": {
    "zipcode": "6408072",
    "prefectureCode": "30",
    "prefectureNumber": 30,
    "prefecture": "和歌山県",
    "city": "和歌山市",
    "town": "宇治家裏"
  },
  "6408073": {
    "zipcode": "6408073",
    "prefectureCode": "30",
    "prefectureNumber": 30,
    "prefecture": "和歌山県",
    "city": "和歌山市",
    "town": "嘉家作丁"
  },
  "6408074": {
    "zipcode": "6408074",
    "prefectureCode": "30",
    "prefectureNumber": 30,
    "prefecture": "和歌山県",
    "city": "和歌山市",
    "town": "新魚町"
  },
  "6408075": {
    "zipcode": "6408075",
    "prefectureCode": "30",
    "prefectureNumber": 30,
    "prefecture": "和歌山県",
    "city": "和歌山市",
    "town": "源蔵馬場"
  },
  "6408076": {
    "zipcode": "6408076",
    "prefectureCode": "30",
    "prefectureNumber": 30,
    "prefecture": "和歌山県",
    "city": "和歌山市",
    "town": "五筋目"
  },
  "6408077": {
    "zipcode": "6408077",
    "prefectureCode": "30",
    "prefectureNumber": 30,
    "prefecture": "和歌山県",
    "city": "和歌山市",
    "town": "六筋目"
  },
  "6408078": {
    "zipcode": "6408078",
    "prefectureCode": "30",
    "prefectureNumber": 30,
    "prefecture": "和歌山県",
    "city": "和歌山市",
    "town": "宇治鉄砲場"
  },
  "6408101": {
    "zipcode": "6408101",
    "prefectureCode": "30",
    "prefectureNumber": 30,
    "prefecture": "和歌山県",
    "city": "和歌山市",
    "town": "新雑賀町"
  },
  "6408102": {
    "zipcode": "6408102",
    "prefectureCode": "30",
    "prefectureNumber": 30,
    "prefecture": "和歌山県",
    "city": "和歌山市",
    "town": "南雑賀町"
  },
  "6408103": {
    "zipcode": "6408103",
    "prefectureCode": "30",
    "prefectureNumber": 30,
    "prefecture": "和歌山県",
    "city": "和歌山市",
    "town": "北休賀町"
  },
  "6408104": {
    "zipcode": "6408104",
    "prefectureCode": "30",
    "prefectureNumber": 30,
    "prefecture": "和歌山県",
    "city": "和歌山市",
    "town": "南休賀町"
  },
  "6408105": {
    "zipcode": "6408105",
    "prefectureCode": "30",
    "prefectureNumber": 30,
    "prefecture": "和歌山県",
    "city": "和歌山市",
    "town": "三木町南ノ丁"
  },
  "6408106": {
    "zipcode": "6408106",
    "prefectureCode": "30",
    "prefectureNumber": 30,
    "prefecture": "和歌山県",
    "city": "和歌山市",
    "town": "三木町中ノ丁"
  },
  "6408107": {
    "zipcode": "6408107",
    "prefectureCode": "30",
    "prefectureNumber": 30,
    "prefecture": "和歌山県",
    "city": "和歌山市",
    "town": "三木町堀詰"
  },
  "6408108": {
    "zipcode": "6408108",
    "prefectureCode": "30",
    "prefectureNumber": 30,
    "prefecture": "和歌山県",
    "city": "和歌山市",
    "town": "雑賀町"
  },
  "6408111": {
    "zipcode": "6408111",
    "prefectureCode": "30",
    "prefectureNumber": 30,
    "prefecture": "和歌山県",
    "city": "和歌山市",
    "town": "新通"
  },
  "6408112": {
    "zipcode": "6408112",
    "prefectureCode": "30",
    "prefectureNumber": 30,
    "prefecture": "和歌山県",
    "city": "和歌山市",
    "town": "南材木丁"
  },
  "6408113": {
    "zipcode": "6408113",
    "prefectureCode": "30",
    "prefectureNumber": 30,
    "prefecture": "和歌山県",
    "city": "和歌山市",
    "town": "広瀬通丁"
  },
  "6408114": {
    "zipcode": "6408114",
    "prefectureCode": "30",
    "prefectureNumber": 30,
    "prefecture": "和歌山県",
    "city": "和歌山市",
    "town": "船場町"
  },
  "6408115": {
    "zipcode": "6408115",
    "prefectureCode": "30",
    "prefectureNumber": 30,
    "prefecture": "和歌山県",
    "city": "和歌山市",
    "town": "東紺屋町"
  },
  "6408116": {
    "zipcode": "6408116",
    "prefectureCode": "30",
    "prefectureNumber": 30,
    "prefecture": "和歌山県",
    "city": "和歌山市",
    "town": "西紺屋町"
  },
  "6408117": {
    "zipcode": "6408117",
    "prefectureCode": "30",
    "prefectureNumber": 30,
    "prefecture": "和歌山県",
    "city": "和歌山市",
    "town": "南細工町"
  },
  "6408118": {
    "zipcode": "6408118",
    "prefectureCode": "30",
    "prefectureNumber": 30,
    "prefecture": "和歌山県",
    "city": "和歌山市",
    "town": "北細工町"
  },
  "6408119": {
    "zipcode": "6408119",
    "prefectureCode": "30",
    "prefectureNumber": 30,
    "prefecture": "和歌山県",
    "city": "和歌山市",
    "town": "和歌町"
  },
  "6408121": {
    "zipcode": "6408121",
    "prefectureCode": "30",
    "prefectureNumber": 30,
    "prefecture": "和歌山県",
    "city": "和歌山市",
    "town": "雑賀道"
  },
  "6408122": {
    "zipcode": "6408122",
    "prefectureCode": "30",
    "prefectureNumber": 30,
    "prefecture": "和歌山県",
    "city": "和歌山市",
    "town": "汐見町"
  },
  "6408123": {
    "zipcode": "6408123",
    "prefectureCode": "30",
    "prefectureNumber": 30,
    "prefecture": "和歌山県",
    "city": "和歌山市",
    "town": "三沢町"
  },
  "6408124": {
    "zipcode": "6408124",
    "prefectureCode": "30",
    "prefectureNumber": 30,
    "prefecture": "和歌山県",
    "city": "和歌山市",
    "town": "雄松町"
  },
  "6408125": {
    "zipcode": "6408125",
    "prefectureCode": "30",
    "prefectureNumber": 30,
    "prefecture": "和歌山県",
    "city": "和歌山市",
    "town": "島崎町"
  },
  "6408126": {
    "zipcode": "6408126",
    "prefectureCode": "30",
    "prefectureNumber": 30,
    "prefecture": "和歌山県",
    "city": "和歌山市",
    "town": "南片原"
  },
  "6408127": {
    "zipcode": "6408127",
    "prefectureCode": "30",
    "prefectureNumber": 30,
    "prefecture": "和歌山県",
    "city": "和歌山市",
    "town": "元町奉行丁"
  },
  "6408128": {
    "zipcode": "6408128",
    "prefectureCode": "30",
    "prefectureNumber": 30,
    "prefecture": "和歌山県",
    "city": "和歌山市",
    "town": "広瀬中ノ丁"
  },
  "6408131": {
    "zipcode": "6408131",
    "prefectureCode": "30",
    "prefectureNumber": 30,
    "prefecture": "和歌山県",
    "city": "和歌山市",
    "town": "弁財天丁"
  },
  "6408132": {
    "zipcode": "6408132",
    "prefectureCode": "30",
    "prefectureNumber": 30,
    "prefecture": "和歌山県",
    "city": "和歌山市",
    "town": "山蔭丁"
  },
  "6408133": {
    "zipcode": "6408133",
    "prefectureCode": "30",
    "prefectureNumber": 30,
    "prefecture": "和歌山県",
    "city": "和歌山市",
    "town": "谷町"
  },
  "6408134": {
    "zipcode": "6408134",
    "prefectureCode": "30",
    "prefectureNumber": 30,
    "prefecture": "和歌山県",
    "city": "和歌山市",
    "town": "芦辺丁"
  },
  "6408135": {
    "zipcode": "6408135",
    "prefectureCode": "30",
    "prefectureNumber": 30,
    "prefecture": "和歌山県",
    "city": "和歌山市",
    "town": "鷹匠町"
  },
  "6408136": {
    "zipcode": "6408136",
    "prefectureCode": "30",
    "prefectureNumber": 30,
    "prefecture": "和歌山県",
    "city": "和歌山市",
    "town": "堀止東"
  },
  "6408137": {
    "zipcode": "6408137",
    "prefectureCode": "30",
    "prefectureNumber": 30,
    "prefecture": "和歌山県",
    "city": "和歌山市",
    "town": "吹上"
  },
  "6408138": {
    "zipcode": "6408138",
    "prefectureCode": "30",
    "prefectureNumber": 30,
    "prefecture": "和歌山県",
    "city": "和歌山市",
    "town": "薮ノ丁"
  },
  "6408139": {
    "zipcode": "6408139",
    "prefectureCode": "30",
    "prefectureNumber": 30,
    "prefecture": "和歌山県",
    "city": "和歌山市",
    "town": "片岡町"
  },
  "6408141": {
    "zipcode": "6408141",
    "prefectureCode": "30",
    "prefectureNumber": 30,
    "prefecture": "和歌山県",
    "city": "和歌山市",
    "town": "五番丁"
  },
  "6408142": {
    "zipcode": "6408142",
    "prefectureCode": "30",
    "prefectureNumber": 30,
    "prefecture": "和歌山県",
    "city": "和歌山市",
    "town": "三番丁"
  },
  "6408143": {
    "zipcode": "6408143",
    "prefectureCode": "30",
    "prefectureNumber": 30,
    "prefecture": "和歌山県",
    "city": "和歌山市",
    "town": "二番丁"
  },
  "6408144": {
    "zipcode": "6408144",
    "prefectureCode": "30",
    "prefectureNumber": 30,
    "prefecture": "和歌山県",
    "city": "和歌山市",
    "town": "四番丁"
  },
  "6408145": {
    "zipcode": "6408145",
    "prefectureCode": "30",
    "prefectureNumber": 30,
    "prefecture": "和歌山県",
    "city": "和歌山市",
    "town": "岡山丁"
  },
  "6408146": {
    "zipcode": "6408146",
    "prefectureCode": "30",
    "prefectureNumber": 30,
    "prefecture": "和歌山県",
    "city": "和歌山市",
    "town": "一番丁"
  },
  "6408150": {
    "zipcode": "6408150",
    "prefectureCode": "30",
    "prefectureNumber": 30,
    "prefecture": "和歌山県",
    "city": "和歌山市",
    "town": "十三番丁"
  },
  "6408151": {
    "zipcode": "6408151",
    "prefectureCode": "30",
    "prefectureNumber": 30,
    "prefecture": "和歌山県",
    "city": "和歌山市",
    "town": "屋形町"
  },
  "6408152": {
    "zipcode": "6408152",
    "prefectureCode": "30",
    "prefectureNumber": 30,
    "prefecture": "和歌山県",
    "city": "和歌山市",
    "town": "十番丁"
  },
  "6408153": {
    "zipcode": "6408153",
    "prefectureCode": "30",
    "prefectureNumber": 30,
    "prefecture": "和歌山県",
    "city": "和歌山市",
    "town": "三木町台所町"
  },
  "6408154": {
    "zipcode": "6408154",
    "prefectureCode": "30",
    "prefectureNumber": 30,
    "prefecture": "和歌山県",
    "city": "和歌山市",
    "town": "六番丁"
  },
  "6408155": {
    "zipcode": "6408155",
    "prefectureCode": "30",
    "prefectureNumber": 30,
    "prefecture": "和歌山県",
    "city": "和歌山市",
    "town": "九番丁"
  },
  "6408156": {
    "zipcode": "6408156",
    "prefectureCode": "30",
    "prefectureNumber": 30,
    "prefecture": "和歌山県",
    "city": "和歌山市",
    "town": "七番丁"
  },
  "6408157": {
    "zipcode": "6408157",
    "prefectureCode": "30",
    "prefectureNumber": 30,
    "prefecture": "和歌山県",
    "city": "和歌山市",
    "town": "八番丁"
  },
  "6408158": {
    "zipcode": "6408158",
    "prefectureCode": "30",
    "prefectureNumber": 30,
    "prefecture": "和歌山県",
    "city": "和歌山市",
    "town": "十二番丁"
  },
  "6408159": {
    "zipcode": "6408159",
    "prefectureCode": "30",
    "prefectureNumber": 30,
    "prefecture": "和歌山県",
    "city": "和歌山市",
    "town": "十一番丁"
  },
  "6408201": {
    "zipcode": "6408201",
    "prefectureCode": "30",
    "prefectureNumber": 30,
    "prefecture": "和歌山県",
    "city": "和歌山市",
    "town": "石橋丁"
  },
  "6408202": {
    "zipcode": "6408202",
    "prefectureCode": "30",
    "prefectureNumber": 30,
    "prefecture": "和歌山県",
    "city": "和歌山市",
    "town": "屏風丁"
  },
  "6408203": {
    "zipcode": "6408203",
    "prefectureCode": "30",
    "prefectureNumber": 30,
    "prefecture": "和歌山県",
    "city": "和歌山市",
    "town": "東蔵前丁"
  },
  "6408204": {
    "zipcode": "6408204",
    "prefectureCode": "30",
    "prefectureNumber": 30,
    "prefecture": "和歌山県",
    "city": "和歌山市",
    "town": "伝法橋南ノ丁"
  },
  "6408205": {
    "zipcode": "6408205",
    "prefectureCode": "30",
    "prefectureNumber": 30,
    "prefecture": "和歌山県",
    "city": "和歌山市",
    "town": "西蔵前丁"
  },
  "6408206": {
    "zipcode": "6408206",
    "prefectureCode": "30",
    "prefectureNumber": 30,
    "prefecture": "和歌山県",
    "city": "和歌山市",
    "town": "徳田木丁"
  },
  "6408211": {
    "zipcode": "6408211",
    "prefectureCode": "30",
    "prefectureNumber": 30,
    "prefecture": "和歌山県",
    "city": "和歌山市",
    "town": "西布経丁"
  },
  "6408212": {
    "zipcode": "6408212",
    "prefectureCode": "30",
    "prefectureNumber": 30,
    "prefecture": "和歌山県",
    "city": "和歌山市",
    "town": "杉ノ馬場"
  },
  "6408213": {
    "zipcode": "6408213",
    "prefectureCode": "30",
    "prefectureNumber": 30,
    "prefecture": "和歌山県",
    "city": "和歌山市",
    "town": "舟大工町"
  },
  "6408214": {
    "zipcode": "6408214",
    "prefectureCode": "30",
    "prefectureNumber": 30,
    "prefecture": "和歌山県",
    "city": "和歌山市",
    "town": "寄合町"
  },
  "6408215": {
    "zipcode": "6408215",
    "prefectureCode": "30",
    "prefectureNumber": 30,
    "prefecture": "和歌山県",
    "city": "和歌山市",
    "town": "橋丁"
  },
  "6408216": {
    "zipcode": "6408216",
    "prefectureCode": "30",
    "prefectureNumber": 30,
    "prefecture": "和歌山県",
    "city": "和歌山市",
    "town": "元博労町"
  },
  "6408220": {
    "zipcode": "6408220",
    "prefectureCode": "30",
    "prefectureNumber": 30,
    "prefecture": "和歌山県",
    "city": "和歌山市",
    "town": "下町"
  },
  "6408221": {
    "zipcode": "6408221",
    "prefectureCode": "30",
    "prefectureNumber": 30,
    "prefecture": "和歌山県",
    "city": "和歌山市",
    "town": "湊紺屋町"
  },
  "6408222": {
    "zipcode": "6408222",
    "prefectureCode": "30",
    "prefectureNumber": 30,
    "prefecture": "和歌山県",
    "city": "和歌山市",
    "town": "湊本町"
  },
  "6408223": {
    "zipcode": "6408223",
    "prefectureCode": "30",
    "prefectureNumber": 30,
    "prefecture": "和歌山県",
    "city": "和歌山市",
    "town": "湊北町"
  },
  "6408224": {
    "zipcode": "6408224",
    "prefectureCode": "30",
    "prefectureNumber": 30,
    "prefecture": "和歌山県",
    "city": "和歌山市",
    "town": "小野町"
  },
  "6408225": {
    "zipcode": "6408225",
    "prefectureCode": "30",
    "prefectureNumber": 30,
    "prefecture": "和歌山県",
    "city": "和歌山市",
    "town": "久保丁"
  },
  "6408226": {
    "zipcode": "6408226",
    "prefectureCode": "30",
    "prefectureNumber": 30,
    "prefecture": "和歌山県",
    "city": "和歌山市",
    "town": "小人町"
  },
  "6408227": {
    "zipcode": "6408227",
    "prefectureCode": "30",
    "prefectureNumber": 30,
    "prefecture": "和歌山県",
    "city": "和歌山市",
    "town": "西汀丁"
  },
  "6408228": {
    "zipcode": "6408228",
    "prefectureCode": "30",
    "prefectureNumber": 30,
    "prefecture": "和歌山県",
    "city": "和歌山市",
    "town": "小人町南ノ丁"
  },
  "6408229": {
    "zipcode": "6408229",
    "prefectureCode": "30",
    "prefectureNumber": 30,
    "prefecture": "和歌山県",
    "city": "和歌山市",
    "town": "道場町"
  },
  "6408230": {
    "zipcode": "6408230",
    "prefectureCode": "30",
    "prefectureNumber": 30,
    "prefecture": "和歌山県",
    "city": "和歌山市",
    "town": "男野芝丁"
  },
  "6408231": {
    "zipcode": "6408231",
    "prefectureCode": "30",
    "prefectureNumber": 30,
    "prefecture": "和歌山県",
    "city": "和歌山市",
    "town": "北汀丁"
  },
  "6408232": {
    "zipcode": "6408232",
    "prefectureCode": "30",
    "prefectureNumber": 30,
    "prefecture": "和歌山県",
    "city": "和歌山市",
    "town": "南汀丁"
  },
  "6408233": {
    "zipcode": "6408233",
    "prefectureCode": "30",
    "prefectureNumber": 30,
    "prefecture": "和歌山県",
    "city": "和歌山市",
    "town": "北坂ノ上丁"
  },
  "6408234": {
    "zipcode": "6408234",
    "prefectureCode": "30",
    "prefectureNumber": 30,
    "prefecture": "和歌山県",
    "city": "和歌山市",
    "town": "西坂ノ上丁"
  },
  "6408235": {
    "zipcode": "6408235",
    "prefectureCode": "30",
    "prefectureNumber": 30,
    "prefecture": "和歌山県",
    "city": "和歌山市",
    "town": "東長町"
  },
  "6408236": {
    "zipcode": "6408236",
    "prefectureCode": "30",
    "prefectureNumber": 30,
    "prefecture": "和歌山県",
    "city": "和歌山市",
    "town": "七曲り"
  },
  "6408237": {
    "zipcode": "6408237",
    "prefectureCode": "30",
    "prefectureNumber": 30,
    "prefecture": "和歌山県",
    "city": "和歌山市",
    "town": "材木丁"
  },
  "6408238": {
    "zipcode": "6408238",
    "prefectureCode": "30",
    "prefectureNumber": 30,
    "prefecture": "和歌山県",
    "city": "和歌山市",
    "town": "網屋町"
  },
  "6408239": {
    "zipcode": "6408239",
    "prefectureCode": "30",
    "prefectureNumber": 30,
    "prefecture": "和歌山県",
    "city": "和歌山市",
    "town": "上町"
  },
  "6408241": {
    "zipcode": "6408241",
    "prefectureCode": "30",
    "prefectureNumber": 30,
    "prefecture": "和歌山県",
    "city": "和歌山市",
    "town": "雑賀屋町東ノ丁"
  },
  "6408242": {
    "zipcode": "6408242",
    "prefectureCode": "30",
    "prefectureNumber": 30,
    "prefecture": "和歌山県",
    "city": "和歌山市",
    "town": "上野町"
  },
  "6408243": {
    "zipcode": "6408243",
    "prefectureCode": "30",
    "prefectureNumber": 30,
    "prefecture": "和歌山県",
    "city": "和歌山市",
    "town": "徒町"
  },
  "6408244": {
    "zipcode": "6408244",
    "prefectureCode": "30",
    "prefectureNumber": 30,
    "prefecture": "和歌山県",
    "city": "和歌山市",
    "town": "久右衛門丁"
  },
  "6408245": {
    "zipcode": "6408245",
    "prefectureCode": "30",
    "prefectureNumber": 30,
    "prefecture": "和歌山県",
    "city": "和歌山市",
    "town": "有田屋町南ノ丁"
  },
  "6408246": {
    "zipcode": "6408246",
    "prefectureCode": "30",
    "prefectureNumber": 30,
    "prefecture": "和歌山県",
    "city": "和歌山市",
    "town": "有田屋町西ノ丁"
  },
  "6408247": {
    "zipcode": "6408247",
    "prefectureCode": "30",
    "prefectureNumber": 30,
    "prefecture": "和歌山県",
    "city": "和歌山市",
    "town": "東坂ノ上丁"
  },
  "6408248": {
    "zipcode": "6408248",
    "prefectureCode": "30",
    "prefectureNumber": 30,
    "prefecture": "和歌山県",
    "city": "和歌山市",
    "town": "有田屋町"
  },
  "6408249": {
    "zipcode": "6408249",
    "prefectureCode": "30",
    "prefectureNumber": 30,
    "prefecture": "和歌山県",
    "city": "和歌山市",
    "town": "雑賀屋町"
  },
  "6408251": {
    "zipcode": "6408251",
    "prefectureCode": "30",
    "prefectureNumber": 30,
    "prefecture": "和歌山県",
    "city": "和歌山市",
    "town": "南中間町"
  },
  "6408252": {
    "zipcode": "6408252",
    "prefectureCode": "30",
    "prefectureNumber": 30,
    "prefecture": "和歌山県",
    "city": "和歌山市",
    "town": "北田辺丁"
  },
  "6408253": {
    "zipcode": "6408253",
    "prefectureCode": "30",
    "prefectureNumber": 30,
    "prefecture": "和歌山県",
    "city": "和歌山市",
    "town": "北相生丁"
  },
  "6408254": {
    "zipcode": "6408254",
    "prefectureCode": "30",
    "prefectureNumber": 30,
    "prefecture": "和歌山県",
    "city": "和歌山市",
    "town": "南田辺丁"
  },
  "6408255": {
    "zipcode": "6408255",
    "prefectureCode": "30",
    "prefectureNumber": 30,
    "prefecture": "和歌山県",
    "city": "和歌山市",
    "town": "舟津町"
  },
  "6408256": {
    "zipcode": "6408256",
    "prefectureCode": "30",
    "prefectureNumber": 30,
    "prefecture": "和歌山県",
    "city": "和歌山市",
    "town": "土佐町"
  },
  "6408261": {
    "zipcode": "6408261",
    "prefectureCode": "30",
    "prefectureNumber": 30,
    "prefecture": "和歌山県",
    "city": "和歌山市",
    "town": "真砂丁"
  },
  "6408262": {
    "zipcode": "6408262",
    "prefectureCode": "30",
    "prefectureNumber": 30,
    "prefecture": "和歌山県",
    "city": "和歌山市",
    "town": "湊通丁北"
  },
  "6408263": {
    "zipcode": "6408263",
    "prefectureCode": "30",
    "prefectureNumber": 30,
    "prefecture": "和歌山県",
    "city": "和歌山市",
    "town": "茶屋ノ丁"
  },
  "6408264": {
    "zipcode": "6408264",
    "prefectureCode": "30",
    "prefectureNumber": 30,
    "prefecture": "和歌山県",
    "city": "和歌山市",
    "town": "湊桶屋町"
  },
  "6408265": {
    "zipcode": "6408265",
    "prefectureCode": "30",
    "prefectureNumber": 30,
    "prefecture": "和歌山県",
    "city": "和歌山市",
    "town": "小松原"
  },
  "6408266": {
    "zipcode": "6408266",
    "prefectureCode": "30",
    "prefectureNumber": 30,
    "prefecture": "和歌山県",
    "city": "和歌山市",
    "town": "東長町中ノ丁"
  },
  "6408267": {
    "zipcode": "6408267",
    "prefectureCode": "30",
    "prefectureNumber": 30,
    "prefecture": "和歌山県",
    "city": "和歌山市",
    "town": "芝ノ丁"
  },
  "6408268": {
    "zipcode": "6408268",
    "prefectureCode": "30",
    "prefectureNumber": 30,
    "prefecture": "和歌山県",
    "city": "和歌山市",
    "town": "広道"
  },
  "6408269": {
    "zipcode": "6408269",
    "prefectureCode": "30",
    "prefectureNumber": 30,
    "prefecture": "和歌山県",
    "city": "和歌山市",
    "town": "小松原通"
  },
  "6408271": {
    "zipcode": "6408271",
    "prefectureCode": "30",
    "prefectureNumber": 30,
    "prefecture": "和歌山県",
    "city": "和歌山市",
    "town": "尾崎丁"
  },
  "6408272": {
    "zipcode": "6408272",
    "prefectureCode": "30",
    "prefectureNumber": 30,
    "prefecture": "和歌山県",
    "city": "和歌山市",
    "town": "砂山南"
  },
  "6408273": {
    "zipcode": "6408273",
    "prefectureCode": "30",
    "prefectureNumber": 30,
    "prefecture": "和歌山県",
    "city": "和歌山市",
    "town": "葵町"
  },
  "6408274": {
    "zipcode": "6408274",
    "prefectureCode": "30",
    "prefectureNumber": 30,
    "prefecture": "和歌山県",
    "city": "和歌山市",
    "town": "金龍寺丁"
  },
  "6408275": {
    "zipcode": "6408275",
    "prefectureCode": "30",
    "prefectureNumber": 30,
    "prefecture": "和歌山県",
    "city": "和歌山市",
    "town": "南相生丁"
  },
  "6408276": {
    "zipcode": "6408276",
    "prefectureCode": "30",
    "prefectureNumber": 30,
    "prefecture": "和歌山県",
    "city": "和歌山市",
    "town": "作事丁"
  },
  "6408281": {
    "zipcode": "6408281",
    "prefectureCode": "30",
    "prefectureNumber": 30,
    "prefecture": "和歌山県",
    "city": "和歌山市",
    "town": "湊通丁南"
  },
  "6408282": {
    "zipcode": "6408282",
    "prefectureCode": "30",
    "prefectureNumber": 30,
    "prefecture": "和歌山県",
    "city": "和歌山市",
    "town": "出口甲賀丁"
  },
  "6408283": {
    "zipcode": "6408283",
    "prefectureCode": "30",
    "prefectureNumber": 30,
    "prefecture": "和歌山県",
    "city": "和歌山市",
    "town": "出口中ノ丁"
  },
  "6408284": {
    "zipcode": "6408284",
    "prefectureCode": "30",
    "prefectureNumber": 30,
    "prefecture": "和歌山県",
    "city": "和歌山市",
    "town": "出口端ノ丁"
  },
  "6408285": {
    "zipcode": "6408285",
    "prefectureCode": "30",
    "prefectureNumber": 30,
    "prefecture": "和歌山県",
    "city": "和歌山市",
    "town": "出口新端ノ丁"
  },
  "6408286": {
    "zipcode": "6408286",
    "prefectureCode": "30",
    "prefectureNumber": 30,
    "prefecture": "和歌山県",
    "city": "和歌山市",
    "town": "湊御殿"
  },
  "6408287": {
    "zipcode": "6408287",
    "prefectureCode": "30",
    "prefectureNumber": 30,
    "prefecture": "和歌山県",
    "city": "和歌山市",
    "town": "築港"
  },
  "6408288": {
    "zipcode": "6408288",
    "prefectureCode": "30",
    "prefectureNumber": 30,
    "prefecture": "和歌山県",
    "city": "和歌山市",
    "town": "加納町"
  },
  "6408290": {
    "zipcode": "6408290",
    "prefectureCode": "30",
    "prefectureNumber": 30,
    "prefecture": "和歌山県",
    "city": "和歌山市",
    "town": "西長町"
  },
  "6408291": {
    "zipcode": "6408291",
    "prefectureCode": "30",
    "prefectureNumber": 30,
    "prefecture": "和歌山県",
    "city": "和歌山市",
    "town": "北甚五兵衛丁"
  },
  "6408292": {
    "zipcode": "6408292",
    "prefectureCode": "30",
    "prefectureNumber": 30,
    "prefecture": "和歌山県",
    "city": "和歌山市",
    "town": "南甚五兵衛丁"
  },
  "6408293": {
    "zipcode": "6408293",
    "prefectureCode": "30",
    "prefectureNumber": 30,
    "prefecture": "和歌山県",
    "city": "和歌山市",
    "town": "駕町"
  },
  "6408294": {
    "zipcode": "6408294",
    "prefectureCode": "30",
    "prefectureNumber": 30,
    "prefecture": "和歌山県",
    "city": "和歌山市",
    "town": "北中間町"
  },
  "6408295": {
    "zipcode": "6408295",
    "prefectureCode": "30",
    "prefectureNumber": 30,
    "prefecture": "和歌山県",
    "city": "和歌山市",
    "town": "南牛町"
  },
  "6408296": {
    "zipcode": "6408296",
    "prefectureCode": "30",
    "prefectureNumber": 30,
    "prefecture": "和歌山県",
    "city": "和歌山市",
    "town": "北土佐丁"
  },
  "6408297": {
    "zipcode": "6408297",
    "prefectureCode": "30",
    "prefectureNumber": 30,
    "prefecture": "和歌山県",
    "city": "和歌山市",
    "town": "西河岸町"
  },
  "6408298": {
    "zipcode": "6408298",
    "prefectureCode": "30",
    "prefectureNumber": 30,
    "prefecture": "和歌山県",
    "city": "和歌山市",
    "town": "植松丁"
  },
  "6408299": {
    "zipcode": "6408299",
    "prefectureCode": "30",
    "prefectureNumber": 30,
    "prefecture": "和歌山県",
    "city": "和歌山市",
    "town": "北牛町"
  },
  "6408301": {
    "zipcode": "6408301",
    "prefectureCode": "30",
    "prefectureNumber": 30,
    "prefecture": "和歌山県",
    "city": "和歌山市",
    "town": "岩橋"
  },
  "6408302": {
    "zipcode": "6408302",
    "prefectureCode": "30",
    "prefectureNumber": 30,
    "prefecture": "和歌山県",
    "city": "和歌山市",
    "town": "井辺"
  },
  "6408303": {
    "zipcode": "6408303",
    "prefectureCode": "30",
    "prefectureNumber": 30,
    "prefecture": "和歌山県",
    "city": "和歌山市",
    "town": "鳴神"
  },
  "6408304": {
    "zipcode": "6408304",
    "prefectureCode": "30",
    "prefectureNumber": 30,
    "prefecture": "和歌山県",
    "city": "和歌山市",
    "town": "松島"
  },
  "6408305": {
    "zipcode": "6408305",
    "prefectureCode": "30",
    "prefectureNumber": 30,
    "prefecture": "和歌山県",
    "city": "和歌山市",
    "town": "栗栖"
  },
  "6408306": {
    "zipcode": "6408306",
    "prefectureCode": "30",
    "prefectureNumber": 30,
    "prefecture": "和歌山県",
    "city": "和歌山市",
    "town": "出島"
  },
  "6408311": {
    "zipcode": "6408311",
    "prefectureCode": "30",
    "prefectureNumber": 30,
    "prefecture": "和歌山県",
    "city": "和歌山市",
    "town": "寺内"
  },
  "6408312": {
    "zipcode": "6408312",
    "prefectureCode": "30",
    "prefectureNumber": 30,
    "prefecture": "和歌山県",
    "city": "和歌山市",
    "town": "森小手穂"
  },
  "6408313": {
    "zipcode": "6408313",
    "prefectureCode": "30",
    "prefectureNumber": 30,
    "prefecture": "和歌山県",
    "city": "和歌山市",
    "town": "西"
  },
  "6408314": {
    "zipcode": "6408314",
    "prefectureCode": "30",
    "prefectureNumber": 30,
    "prefecture": "和歌山県",
    "city": "和歌山市",
    "town": "神前"
  },
  "6408315": {
    "zipcode": "6408315",
    "prefectureCode": "30",
    "prefectureNumber": 30,
    "prefecture": "和歌山県",
    "city": "和歌山市",
    "town": "津秦"
  },
  "6408316": {
    "zipcode": "6408316",
    "prefectureCode": "30",
    "prefectureNumber": 30,
    "prefecture": "和歌山県",
    "city": "和歌山市",
    "town": "有家"
  },
  "6408317": {
    "zipcode": "6408317",
    "prefectureCode": "30",
    "prefectureNumber": 30,
    "prefecture": "和歌山県",
    "city": "和歌山市",
    "town": "北出島"
  },
  "6408318": {
    "zipcode": "6408318",
    "prefectureCode": "30",
    "prefectureNumber": 30,
    "prefecture": "和歌山県",
    "city": "和歌山市",
    "town": "南出島"
  },
  "6408319": {
    "zipcode": "6408319",
    "prefectureCode": "30",
    "prefectureNumber": 30,
    "prefecture": "和歌山県",
    "city": "和歌山市",
    "town": "手平"
  },
  "6408320": {
    "zipcode": "6408320",
    "prefectureCode": "30",
    "prefectureNumber": 30,
    "prefecture": "和歌山県",
    "city": "和歌山市",
    "town": "手平出島"
  },
  "6408321": {
    "zipcode": "6408321",
    "prefectureCode": "30",
    "prefectureNumber": 30,
    "prefecture": "和歌山県",
    "city": "和歌山市",
    "town": "出水"
  },
  "6408322": {
    "zipcode": "6408322",
    "prefectureCode": "30",
    "prefectureNumber": 30,
    "prefecture": "和歌山県",
    "city": "和歌山市",
    "town": "秋月"
  },
  "6408323": {
    "zipcode": "6408323",
    "prefectureCode": "30",
    "prefectureNumber": 30,
    "prefecture": "和歌山県",
    "city": "和歌山市",
    "town": "太田"
  },
  "6408324": {
    "zipcode": "6408324",
    "prefectureCode": "30",
    "prefectureNumber": 30,
    "prefecture": "和歌山県",
    "city": "和歌山市",
    "town": "吹屋町"
  },
  "6408325": {
    "zipcode": "6408325",
    "prefectureCode": "30",
    "prefectureNumber": 30,
    "prefecture": "和歌山県",
    "city": "和歌山市",
    "town": "新生町"
  },
  "6408326": {
    "zipcode": "6408326",
    "prefectureCode": "30",
    "prefectureNumber": 30,
    "prefecture": "和歌山県",
    "city": "和歌山市",
    "town": "新留丁"
  },
  "6408327": {
    "zipcode": "6408327",
    "prefectureCode": "30",
    "prefectureNumber": 30,
    "prefecture": "和歌山県",
    "city": "和歌山市",
    "town": "橋向丁"
  },
  "6408328": {
    "zipcode": "6408328",
    "prefectureCode": "30",
    "prefectureNumber": 30,
    "prefecture": "和歌山県",
    "city": "和歌山市",
    "town": "木広町"
  },
  "6408329": {
    "zipcode": "6408329",
    "prefectureCode": "30",
    "prefectureNumber": 30,
    "prefecture": "和歌山県",
    "city": "和歌山市",
    "town": "田中町"
  },
  "6408331": {
    "zipcode": "6408331",
    "prefectureCode": "30",
    "prefectureNumber": 30,
    "prefecture": "和歌山県",
    "city": "和歌山市",
    "town": "美園町"
  },
  "6408332": {
    "zipcode": "6408332",
    "prefectureCode": "30",
    "prefectureNumber": 30,
    "prefecture": "和歌山県",
    "city": "和歌山市",
    "town": "楠右衛門小路"
  },
  "6408333": {
    "zipcode": "6408333",
    "prefectureCode": "30",
    "prefectureNumber": 30,
    "prefecture": "和歌山県",
    "city": "和歌山市",
    "town": "蔵小路"
  },
  "6408334": {
    "zipcode": "6408334",
    "prefectureCode": "30",
    "prefectureNumber": 30,
    "prefecture": "和歌山県",
    "city": "和歌山市",
    "town": "茶屋町"
  },
  "6408335": {
    "zipcode": "6408335",
    "prefectureCode": "30",
    "prefectureNumber": 30,
    "prefecture": "和歌山県",
    "city": "和歌山市",
    "town": "餌差町"
  },
  "6408336": {
    "zipcode": "6408336",
    "prefectureCode": "30",
    "prefectureNumber": 30,
    "prefecture": "和歌山県",
    "city": "和歌山市",
    "town": "柳丁"
  },
  "6408337": {
    "zipcode": "6408337",
    "prefectureCode": "30",
    "prefectureNumber": 30,
    "prefecture": "和歌山県",
    "city": "和歌山市",
    "town": "毛革屋丁"
  },
  "6408341": {
    "zipcode": "6408341",
    "prefectureCode": "30",
    "prefectureNumber": 30,
    "prefecture": "和歌山県",
    "city": "和歌山市",
    "town": "黒田"
  },
  "6408342": {
    "zipcode": "6408342",
    "prefectureCode": "30",
    "prefectureNumber": 30,
    "prefecture": "和歌山県",
    "city": "和歌山市",
    "town": "友田町"
  },
  "6408343": {
    "zipcode": "6408343",
    "prefectureCode": "30",
    "prefectureNumber": 30,
    "prefecture": "和歌山県",
    "city": "和歌山市",
    "town": "吉田"
  },
  "6408344": {
    "zipcode": "6408344",
    "prefectureCode": "30",
    "prefectureNumber": 30,
    "prefecture": "和歌山県",
    "city": "和歌山市",
    "town": "納定"
  },
  "6408345": {
    "zipcode": "6408345",
    "prefectureCode": "30",
    "prefectureNumber": 30,
    "prefecture": "和歌山県",
    "city": "和歌山市",
    "town": "新在家"
  },
  "6408350": {
    "zipcode": "6408350",
    "prefectureCode": "30",
    "prefectureNumber": 30,
    "prefecture": "和歌山県",
    "city": "和歌山市",
    "town": "北ノ新地分銅丁"
  },
  "6408351": {
    "zipcode": "6408351",
    "prefectureCode": "30",
    "prefectureNumber": 30,
    "prefecture": "和歌山県",
    "city": "和歌山市",
    "town": "新内"
  },
  "6408352": {
    "zipcode": "6408352",
    "prefectureCode": "30",
    "prefectureNumber": 30,
    "prefecture": "和歌山県",
    "city": "和歌山市",
    "town": "北ノ新地裏田町"
  },
  "6408353": {
    "zipcode": "6408353",
    "prefectureCode": "30",
    "prefectureNumber": 30,
    "prefecture": "和歌山県",
    "city": "和歌山市",
    "town": "北ノ新地榎丁"
  },
  "6408354": {
    "zipcode": "6408354",
    "prefectureCode": "30",
    "prefectureNumber": 30,
    "prefecture": "和歌山県",
    "city": "和歌山市",
    "town": "北ノ新地東ノ丁"
  },
  "6408355": {
    "zipcode": "6408355",
    "prefectureCode": "30",
    "prefectureNumber": 30,
    "prefecture": "和歌山県",
    "city": "和歌山市",
    "town": "北ノ新地"
  },
  "6408356": {
    "zipcode": "6408356",
    "prefectureCode": "30",
    "prefectureNumber": 30,
    "prefecture": "和歌山県",
    "city": "和歌山市",
    "town": "北ノ新地上六軒丁"
  },
  "6408357": {
    "zipcode": "6408357",
    "prefectureCode": "30",
    "prefectureNumber": 30,
    "prefecture": "和歌山県",
    "city": "和歌山市",
    "town": "北ノ新地中六軒丁"
  },
  "6408358": {
    "zipcode": "6408358",
    "prefectureCode": "30",
    "prefectureNumber": 30,
    "prefecture": "和歌山県",
    "city": "和歌山市",
    "town": "北ノ新地下六軒丁"
  },
  "6408359": {
    "zipcode": "6408359",
    "prefectureCode": "30",
    "prefectureNumber": 30,
    "prefecture": "和歌山県",
    "city": "和歌山市",
    "town": "北ノ新地田町"
  },
  "6408361": {
    "zipcode": "6408361",
    "prefectureCode": "30",
    "prefectureNumber": 30,
    "prefecture": "和歌山県",
    "city": "和歌山市",
    "town": "岡円福院東ノ丁"
  },
  "6408362": {
    "zipcode": "6408362",
    "prefectureCode": "30",
    "prefectureNumber": 30,
    "prefecture": "和歌山県",
    "city": "和歌山市",
    "town": "岡織屋小路"
  },
  "6408363": {
    "zipcode": "6408363",
    "prefectureCode": "30",
    "prefectureNumber": 30,
    "prefecture": "和歌山県",
    "city": "和歌山市",
    "town": "岡南ノ丁"
  },
  "6408364": {
    "zipcode": "6408364",
    "prefectureCode": "30",
    "prefectureNumber": 30,
    "prefecture": "和歌山県",
    "city": "和歌山市",
    "town": "岡円福院西ノ丁"
  },
  "6408365": {
    "zipcode": "6408365",
    "prefectureCode": "30",
    "prefectureNumber": 30,
    "prefecture": "和歌山県",
    "city": "和歌山市",
    "town": "岡北ノ丁"
  },
  "6408371": {
    "zipcode": "6408371",
    "prefectureCode": "30",
    "prefectureNumber": 30,
    "prefecture": "和歌山県",
    "city": "和歌山市",
    "town": "新八百屋丁"
  },
  "6408372": {
    "zipcode": "6408372",
    "prefectureCode": "30",
    "prefectureNumber": 30,
    "prefecture": "和歌山県",
    "city": "和歌山市",
    "town": "新大工町"
  },
  "6408373": {
    "zipcode": "6408373",
    "prefectureCode": "30",
    "prefectureNumber": 30,
    "prefecture": "和歌山県",
    "city": "和歌山市",
    "town": "木挽丁"
  },
  "6408374": {
    "zipcode": "6408374",
    "prefectureCode": "30",
    "prefectureNumber": 30,
    "prefecture": "和歌山県",
    "city": "和歌山市",
    "town": "数寄屋丁"
  },
  "6408375": {
    "zipcode": "6408375",
    "prefectureCode": "30",
    "prefectureNumber": 30,
    "prefecture": "和歌山県",
    "city": "和歌山市",
    "town": "坊主丁"
  },
  "6408376": {
    "zipcode": "6408376",
    "prefectureCode": "30",
    "prefectureNumber": 30,
    "prefecture": "和歌山県",
    "city": "和歌山市",
    "town": "新中通"
  },
  "6408377": {
    "zipcode": "6408377",
    "prefectureCode": "30",
    "prefectureNumber": 30,
    "prefecture": "和歌山県",
    "city": "和歌山市",
    "town": "新堺丁"
  },
  "6408378": {
    "zipcode": "6408378",
    "prefectureCode": "30",
    "prefectureNumber": 30,
    "prefecture": "和歌山県",
    "city": "和歌山市",
    "town": "鈴丸丁"
  },
  "6408381": {
    "zipcode": "6408381",
    "prefectureCode": "30",
    "prefectureNumber": 30,
    "prefecture": "和歌山県",
    "city": "和歌山市",
    "town": "畑屋敷東ノ丁"
  },
  "6408382": {
    "zipcode": "6408382",
    "prefectureCode": "30",
    "prefectureNumber": 30,
    "prefecture": "和歌山県",
    "city": "和歌山市",
    "town": "畑屋敷榎丁"
  },
  "6408383": {
    "zipcode": "6408383",
    "prefectureCode": "30",
    "prefectureNumber": 30,
    "prefecture": "和歌山県",
    "city": "和歌山市",
    "town": "畑屋敷円福院東ノ丁"
  },
  "6408384": {
    "zipcode": "6408384",
    "prefectureCode": "30",
    "prefectureNumber": 30,
    "prefecture": "和歌山県",
    "city": "和歌山市",
    "town": "畑屋敷葛屋丁"
  },
  "6408385": {
    "zipcode": "6408385",
    "prefectureCode": "30",
    "prefectureNumber": 30,
    "prefecture": "和歌山県",
    "city": "和歌山市",
    "town": "畑屋敷円福院西ノ丁"
  },
  "6408386": {
    "zipcode": "6408386",
    "prefectureCode": "30",
    "prefectureNumber": 30,
    "prefecture": "和歌山県",
    "city": "和歌山市",
    "town": "畑屋敷雁木丁"
  },
  "6408387": {
    "zipcode": "6408387",
    "prefectureCode": "30",
    "prefectureNumber": 30,
    "prefecture": "和歌山県",
    "city": "和歌山市",
    "town": "畑屋敷袋町"
  },
  "6408390": {
    "zipcode": "6408390",
    "prefectureCode": "30",
    "prefectureNumber": 30,
    "prefecture": "和歌山県",
    "city": "和歌山市",
    "town": "有本"
  },
  "6408391": {
    "zipcode": "6408391",
    "prefectureCode": "30",
    "prefectureNumber": 30,
    "prefecture": "和歌山県",
    "city": "和歌山市",
    "town": "加納"
  },
  "6408392": {
    "zipcode": "6408392",
    "prefectureCode": "30",
    "prefectureNumber": 30,
    "prefecture": "和歌山県",
    "city": "和歌山市",
    "town": "中之島"
  },
  "6408393": {
    "zipcode": "6408393",
    "prefectureCode": "30",
    "prefectureNumber": 30,
    "prefecture": "和歌山県",
    "city": "和歌山市",
    "town": "畑屋敷端ノ丁"
  },
  "6408394": {
    "zipcode": "6408394",
    "prefectureCode": "30",
    "prefectureNumber": 30,
    "prefecture": "和歌山県",
    "city": "和歌山市",
    "town": "畑屋敷千体仏丁"
  },
  "6408395": {
    "zipcode": "6408395",
    "prefectureCode": "30",
    "prefectureNumber": 30,
    "prefecture": "和歌山県",
    "city": "和歌山市",
    "town": "畑屋敷中ノ丁"
  },
  "6408396": {
    "zipcode": "6408396",
    "prefectureCode": "30",
    "prefectureNumber": 30,
    "prefecture": "和歌山県",
    "city": "和歌山市",
    "town": "畑屋敷西ノ丁"
  },
  "6408397": {
    "zipcode": "6408397",
    "prefectureCode": "30",
    "prefectureNumber": 30,
    "prefecture": "和歌山県",
    "city": "和歌山市",
    "town": "畑屋敷新道丁"
  },
  "6408398": {
    "zipcode": "6408398",
    "prefectureCode": "30",
    "prefectureNumber": 30,
    "prefecture": "和歌山県",
    "city": "和歌山市",
    "town": "畑屋敷松ケ枝丁"
  },
  "6408399": {
    "zipcode": "6408399",
    "prefectureCode": "30",
    "prefectureNumber": 30,
    "prefecture": "和歌山県",
    "city": "和歌山市",
    "town": "畑屋敷兵庫ノ丁"
  },
  "6408401": {
    "zipcode": "6408401",
    "prefectureCode": "30",
    "prefectureNumber": 30,
    "prefecture": "和歌山県",
    "city": "和歌山市",
    "town": "福島"
  },
  "6408402": {
    "zipcode": "6408402",
    "prefectureCode": "30",
    "prefectureNumber": 30,
    "prefecture": "和歌山県",
    "city": "和歌山市",
    "town": "野崎"
  },
  "6408403": {
    "zipcode": "6408403",
    "prefectureCode": "30",
    "prefectureNumber": 30,
    "prefecture": "和歌山県",
    "city": "和歌山市",
    "town": "北島"
  },
  "6408404": {
    "zipcode": "6408404",
    "prefectureCode": "30",
    "prefectureNumber": 30,
    "prefecture": "和歌山県",
    "city": "和歌山市",
    "town": "湊"
  },
  "6408411": {
    "zipcode": "6408411",
    "prefectureCode": "30",
    "prefectureNumber": 30,
    "prefecture": "和歌山県",
    "city": "和歌山市",
    "town": "梶取"
  },
  "6408412": {
    "zipcode": "6408412",
    "prefectureCode": "30",
    "prefectureNumber": 30,
    "prefecture": "和歌山県",
    "city": "和歌山市",
    "town": "狐島"
  },
  "6408413": {
    "zipcode": "6408413",
    "prefectureCode": "30",
    "prefectureNumber": 30,
    "prefecture": "和歌山県",
    "city": "和歌山市",
    "town": "島橋東ノ丁"
  },
  "6408414": {
    "zipcode": "6408414",
    "prefectureCode": "30",
    "prefectureNumber": 30,
    "prefecture": "和歌山県",
    "city": "和歌山市",
    "town": "島橋西ノ丁"
  },
  "6408415": {
    "zipcode": "6408415",
    "prefectureCode": "30",
    "prefectureNumber": 30,
    "prefecture": "和歌山県",
    "city": "和歌山市",
    "town": "島橋南ノ丁"
  },
  "6408416": {
    "zipcode": "6408416",
    "prefectureCode": "30",
    "prefectureNumber": 30,
    "prefecture": "和歌山県",
    "city": "和歌山市",
    "town": "島橋北ノ丁"
  },
  "6408421": {
    "zipcode": "6408421",
    "prefectureCode": "30",
    "prefectureNumber": 30,
    "prefecture": "和歌山県",
    "city": "和歌山市",
    "town": "松江"
  },
  "6408422": {
    "zipcode": "6408422",
    "prefectureCode": "30",
    "prefectureNumber": 30,
    "prefecture": "和歌山県",
    "city": "和歌山市",
    "town": "松江東"
  },
  "6408423": {
    "zipcode": "6408423",
    "prefectureCode": "30",
    "prefectureNumber": 30,
    "prefecture": "和歌山県",
    "city": "和歌山市",
    "town": "松江中"
  },
  "6408424": {
    "zipcode": "6408424",
    "prefectureCode": "30",
    "prefectureNumber": 30,
    "prefecture": "和歌山県",
    "city": "和歌山市",
    "town": "松江西"
  },
  "6408425": {
    "zipcode": "6408425",
    "prefectureCode": "30",
    "prefectureNumber": 30,
    "prefecture": "和歌山県",
    "city": "和歌山市",
    "town": "松江北"
  },
  "6408431": {
    "zipcode": "6408431",
    "prefectureCode": "30",
    "prefectureNumber": 30,
    "prefecture": "和歌山県",
    "city": "和歌山市",
    "town": "向"
  },
  "6408432": {
    "zipcode": "6408432",
    "prefectureCode": "30",
    "prefectureNumber": 30,
    "prefecture": "和歌山県",
    "city": "和歌山市",
    "town": "土入"
  },
  "6408433": {
    "zipcode": "6408433",
    "prefectureCode": "30",
    "prefectureNumber": 30,
    "prefecture": "和歌山県",
    "city": "和歌山市",
    "town": "中野"
  },
  "6408434": {
    "zipcode": "6408434",
    "prefectureCode": "30",
    "prefectureNumber": 30,
    "prefecture": "和歌山県",
    "city": "和歌山市",
    "town": "榎原"
  },
  "6408435": {
    "zipcode": "6408435",
    "prefectureCode": "30",
    "prefectureNumber": 30,
    "prefecture": "和歌山県",
    "city": "和歌山市",
    "town": "古屋"
  },
  "6408441": {
    "zipcode": "6408441",
    "prefectureCode": "30",
    "prefectureNumber": 30,
    "prefecture": "和歌山県",
    "city": "和歌山市",
    "town": "栄谷"
  },
  "6408442": {
    "zipcode": "6408442",
    "prefectureCode": "30",
    "prefectureNumber": 30,
    "prefecture": "和歌山県",
    "city": "和歌山市",
    "town": "平井"
  },
  "6408443": {
    "zipcode": "6408443",
    "prefectureCode": "30",
    "prefectureNumber": 30,
    "prefecture": "和歌山県",
    "city": "和歌山市",
    "town": "延時"
  },
  "6408444": {
    "zipcode": "6408444",
    "prefectureCode": "30",
    "prefectureNumber": 30,
    "prefecture": "和歌山県",
    "city": "和歌山市",
    "town": "次郎丸"
  },
  "6408451": {
    "zipcode": "6408451",
    "prefectureCode": "30",
    "prefectureNumber": 30,
    "prefecture": "和歌山県",
    "city": "和歌山市",
    "town": "中"
  },
  "6408452": {
    "zipcode": "6408452",
    "prefectureCode": "30",
    "prefectureNumber": 30,
    "prefecture": "和歌山県",
    "city": "和歌山市",
    "town": "梅原"
  },
  "6408453": {
    "zipcode": "6408453",
    "prefectureCode": "30",
    "prefectureNumber": 30,
    "prefecture": "和歌山県",
    "city": "和歌山市",
    "town": "木ノ本"
  },
  "6408454": {
    "zipcode": "6408454",
    "prefectureCode": "30",
    "prefectureNumber": 30,
    "prefecture": "和歌山県",
    "city": "和歌山市",
    "town": "ふじと台"
  },
  "6408461": {
    "zipcode": "6408461",
    "prefectureCode": "30",
    "prefectureNumber": 30,
    "prefecture": "和歌山県",
    "city": "和歌山市",
    "town": "船所"
  },
  "6408462": {
    "zipcode": "6408462",
    "prefectureCode": "30",
    "prefectureNumber": 30,
    "prefecture": "和歌山県",
    "city": "和歌山市",
    "town": "粟"
  },
  "6408463": {
    "zipcode": "6408463",
    "prefectureCode": "30",
    "prefectureNumber": 30,
    "prefecture": "和歌山県",
    "city": "和歌山市",
    "town": "楠見中"
  },
  "6408464": {
    "zipcode": "6408464",
    "prefectureCode": "30",
    "prefectureNumber": 30,
    "prefecture": "和歌山県",
    "city": "和歌山市",
    "town": "市小路"
  },
  "6408471": {
    "zipcode": "6408471",
    "prefectureCode": "30",
    "prefectureNumber": 30,
    "prefecture": "和歌山県",
    "city": "和歌山市",
    "town": "善明寺"
  },
  "6408472": {
    "zipcode": "6408472",
    "prefectureCode": "30",
    "prefectureNumber": 30,
    "prefecture": "和歌山県",
    "city": "和歌山市",
    "town": "大谷"
  },
  "6408481": {
    "zipcode": "6408481",
    "prefectureCode": "30",
    "prefectureNumber": 30,
    "prefecture": "和歌山県",
    "city": "和歌山市",
    "town": "直川"
  },
  "6408482": {
    "zipcode": "6408482",
    "prefectureCode": "30",
    "prefectureNumber": 30,
    "prefecture": "和歌山県",
    "city": "和歌山市",
    "town": "六十谷"
  },
  "6408483": {
    "zipcode": "6408483",
    "prefectureCode": "30",
    "prefectureNumber": 30,
    "prefecture": "和歌山県",
    "city": "和歌山市",
    "town": "園部"
  }
}
