{
  "6410001": {
    "zipcode": "6410001",
    "prefectureCode": "30",
    "prefectureNumber": 30,
    "prefecture": "和歌山県",
    "city": "和歌山市",
    "town": "杭ノ瀬"
  },
  "6410002": {
    "zipcode": "6410002",
    "prefectureCode": "30",
    "prefectureNumber": 30,
    "prefecture": "和歌山県",
    "city": "和歌山市",
    "town": "新中島"
  },
  "6410003": {
    "zipcode": "6410003",
    "prefectureCode": "30",
    "prefectureNumber": 30,
    "prefecture": "和歌山県",
    "city": "和歌山市",
    "town": "坂田"
  },
  "6410004": {
    "zipcode": "6410004",
    "prefectureCode": "30",
    "prefectureNumber": 30,
    "prefecture": "和歌山県",
    "city": "和歌山市",
    "town": "和田"
  },
  "6410005": {
    "zipcode": "6410005",
    "prefectureCode": "30",
    "prefectureNumber": 30,
    "prefecture": "和歌山県",
    "city": "和歌山市",
    "town": "田尻"
  },
  "6410006": {
    "zipcode": "6410006",
    "prefectureCode": "30",
    "prefectureNumber": 30,
    "prefecture": "和歌山県",
    "city": "和歌山市",
    "town": "中島"
  },
  "6410007": {
    "zipcode": "6410007",
    "prefectureCode": "30",
    "prefectureNumber": 30,
    "prefecture": "和歌山県",
    "city": "和歌山市",
    "town": "小雑賀"
  },
  "6410008": {
    "zipcode": "6410008",
    "prefectureCode": "30",
    "prefectureNumber": 30,
    "prefecture": "和歌山県",
    "city": "和歌山市",
    "town": "北中島"
  },
  "6410011": {
    "zipcode": "6410011",
    "prefectureCode": "30",
    "prefectureNumber": 30,
    "prefecture": "和歌山県",
    "city": "和歌山市",
    "town": "三葛"
  },
  "6410012": {
    "zipcode": "6410012",
    "prefectureCode": "30",
    "prefectureNumber": 30,
    "prefecture": "和歌山県",
    "city": "和歌山市",
    "town": "紀三井寺"
  },
  "6410013": {
    "zipcode": "6410013",
    "prefectureCode": "30",
    "prefectureNumber": 30,
    "prefecture": "和歌山県",
    "city": "和歌山市",
    "town": "内原"
  },
  "6410014": {
    "zipcode": "6410014",
    "prefectureCode": "30",
    "prefectureNumber": 30,
    "prefecture": "和歌山県",
    "city": "和歌山市",
    "town": "毛見"
  },
  "6410015": {
    "zipcode": "6410015",
    "prefectureCode": "30",
    "prefectureNumber": 30,
    "prefecture": "和歌山県",
    "city": "和歌山市",
    "town": "布引"
  },
  "6410021": {
    "zipcode": "6410021",
    "prefectureCode": "30",
    "prefectureNumber": 30,
    "prefecture": "和歌山県",
    "city": "和歌山市",
    "town": "和歌浦東"
  },
  "6410022": {
    "zipcode": "6410022",
    "prefectureCode": "30",
    "prefectureNumber": 30,
    "prefecture": "和歌山県",
    "city": "和歌山市",
    "town": "和歌浦南"
  },
  "6410023": {
    "zipcode": "6410023",
    "prefectureCode": "30",
    "prefectureNumber": 30,
    "prefecture": "和歌山県",
    "city": "和歌山市",
    "town": "新和歌浦"
  },
  "6410024": {
    "zipcode": "6410024",
    "prefectureCode": "30",
    "prefectureNumber": 30,
    "prefecture": "和歌山県",
    "city": "和歌山市",
    "town": "和歌浦西"
  },
  "6410025": {
    "zipcode": "6410025",
    "prefectureCode": "30",
    "prefectureNumber": 30,
    "prefecture": "和歌山県",
    "city": "和歌山市",
    "town": "和歌浦中"
  },
  "6410031": {
    "zipcode": "6410031",
    "prefectureCode": "30",
    "prefectureNumber": 30,
    "prefecture": "和歌山県",
    "city": "和歌山市",
    "town": "西小二里"
  },
  "6410032": {
    "zipcode": "6410032",
    "prefectureCode": "30",
    "prefectureNumber": 30,
    "prefecture": "和歌山県",
    "city": "和歌山市",
    "town": "東小二里町"
  },
  "6410033": {
    "zipcode": "6410033",
    "prefectureCode": "30",
    "prefectureNumber": 30,
    "prefecture": "和歌山県",
    "city": "和歌山市",
    "town": "松ケ丘"
  },
  "6410034": {
    "zipcode": "6410034",
    "prefectureCode": "30",
    "prefectureNumber": 30,
    "prefecture": "和歌山県",
    "city": "和歌山市",
    "town": "新高町"
  },
  "6410035": {
    "zipcode": "6410035",
    "prefectureCode": "30",
    "prefectureNumber": 30,
    "prefecture": "和歌山県",
    "city": "和歌山市",
    "town": "関戸"
  },
  "6410036": {
    "zipcode": "6410036",
    "prefectureCode": "30",
    "prefectureNumber": 30,
    "prefecture": "和歌山県",
    "city": "和歌山市",
    "town": "西浜"
  },
  "6410041": {
    "zipcode": "6410041",
    "prefectureCode": "30",
    "prefectureNumber": 30,
    "prefecture": "和歌山県",
    "city": "和歌山市",
    "town": "堀止南ノ丁"
  },
  "6410042": {
    "zipcode": "6410042",
    "prefectureCode": "30",
    "prefectureNumber": 30,
    "prefecture": "和歌山県",
    "city": "和歌山市",
    "town": "新堀東"
  },
  "6410043": {
    "zipcode": "6410043",
    "prefectureCode": "30",
    "prefectureNumber": 30,
    "prefecture": "和歌山県",
    "city": "和歌山市",
    "town": "宇須"
  },
  "6410044": {
    "zipcode": "6410044",
    "prefectureCode": "30",
    "prefectureNumber": 30,
    "prefecture": "和歌山県",
    "city": "和歌山市",
    "town": "今福"
  },
  "6410045": {
    "zipcode": "6410045",
    "prefectureCode": "30",
    "prefectureNumber": 30,
    "prefecture": "和歌山県",
    "city": "和歌山市",
    "town": "堀止西"
  },
  "6410051": {
    "zipcode": "6410051",
    "prefectureCode": "30",
    "prefectureNumber": 30,
    "prefecture": "和歌山県",
    "city": "和歌山市",
    "town": "西高松"
  },
  "6410052": {
    "zipcode": "6410052",
    "prefectureCode": "30",
    "prefectureNumber": 30,
    "prefecture": "和歌山県",
    "city": "和歌山市",
    "town": "東高松"
  },
  "6410053": {
    "zipcode": "6410053",
    "prefectureCode": "30",
    "prefectureNumber": 30,
    "prefecture": "和歌山県",
    "city": "和歌山市",
    "town": "打越町"
  },
  "6410054": {
    "zipcode": "6410054",
    "prefectureCode": "30",
    "prefectureNumber": 30,
    "prefecture": "和歌山県",
    "city": "和歌山市",
    "town": "塩屋"
  },
  "6410055": {
    "zipcode": "6410055",
    "prefectureCode": "30",
    "prefectureNumber": 30,
    "prefecture": "和歌山県",
    "city": "和歌山市",
    "town": "和歌川町"
  },
  "6410056": {
    "zipcode": "6410056",
    "prefectureCode": "30",
    "prefectureNumber": 30,
    "prefecture": "和歌山県",
    "city": "和歌山市",
    "town": "秋葉町"
  },
  "6410061": {
    "zipcode": "6410061",
    "prefectureCode": "30",
    "prefectureNumber": 30,
    "prefecture": "和歌山県",
    "city": "和歌山市",
    "town": "田野"
  },
  "6410062": {
    "zipcode": "6410062",
    "prefectureCode": "30",
    "prefectureNumber": 30,
    "prefecture": "和歌山県",
    "city": "和歌山市",
    "town": "雑賀崎"
  }
}
