{
  "6420000": {
    "zipcode": "6420000",
    "prefectureCode": "30",
    "prefectureNumber": 30,
    "prefecture": "和歌山県",
    "city": "海南市",
    "town": "以下に掲載がない場合"
  },
  "6420001": {
    "zipcode": "6420001",
    "prefectureCode": "30",
    "prefectureNumber": 30,
    "prefecture": "和歌山県",
    "city": "海南市",
    "town": "船尾"
  },
  "6420002": {
    "zipcode": "6420002",
    "prefectureCode": "30",
    "prefectureNumber": 30,
    "prefecture": "和歌山県",
    "city": "海南市",
    "town": "日方"
  },
  "6420003": {
    "zipcode": "6420003",
    "prefectureCode": "30",
    "prefectureNumber": 30,
    "prefecture": "和歌山県",
    "city": "海南市",
    "town": "山崎町"
  },
  "6420004": {
    "zipcode": "6420004",
    "prefectureCode": "30",
    "prefectureNumber": 30,
    "prefecture": "和歌山県",
    "city": "海南市",
    "town": "馬場町"
  },
  "6420011": {
    "zipcode": "6420011",
    "prefectureCode": "30",
    "prefectureNumber": 30,
    "prefecture": "和歌山県",
    "city": "海南市",
    "town": "黒江"
  },
  "6420012": {
    "zipcode": "6420012",
    "prefectureCode": "30",
    "prefectureNumber": 30,
    "prefecture": "和歌山県",
    "city": "海南市",
    "town": "岡田"
  },
  "6420013": {
    "zipcode": "6420013",
    "prefectureCode": "30",
    "prefectureNumber": 30,
    "prefecture": "和歌山県",
    "city": "海南市",
    "town": "多田"
  },
  "6420014": {
    "zipcode": "6420014",
    "prefectureCode": "30",
    "prefectureNumber": 30,
    "prefecture": "和歌山県",
    "city": "海南市",
    "town": "小野田"
  },
  "6420015": {
    "zipcode": "6420015",
    "prefectureCode": "30",
    "prefectureNumber": 30,
    "prefecture": "和歌山県",
    "city": "海南市",
    "town": "且来"
  },
  "6420016": {
    "zipcode": "6420016",
    "prefectureCode": "30",
    "prefectureNumber": 30,
    "prefecture": "和歌山県",
    "city": "海南市",
    "town": "北赤坂"
  },
  "6420017": {
    "zipcode": "6420017",
    "prefectureCode": "30",
    "prefectureNumber": 30,
    "prefecture": "和歌山県",
    "city": "海南市",
    "town": "南赤坂"
  },
  "6420018": {
    "zipcode": "6420018",
    "prefectureCode": "30",
    "prefectureNumber": 30,
    "prefecture": "和歌山県",
    "city": "海南市",
    "town": "重根東"
  },
  "6420019": {
    "zipcode": "6420019",
    "prefectureCode": "30",
    "prefectureNumber": 30,
    "prefecture": "和歌山県",
    "city": "海南市",
    "town": "重根西"
  },
  "6420021": {
    "zipcode": "6420021",
    "prefectureCode": "30",
    "prefectureNumber": 30,
    "prefecture": "和歌山県",
    "city": "海南市",
    "town": "井田"
  },
  "6420022": {
    "zipcode": "6420022",
    "prefectureCode": "30",
    "prefectureNumber": 30,
    "prefecture": "和歌山県",
    "city": "海南市",
    "town": "大野中"
  },
  "6420023": {
    "zipcode": "6420023",
    "prefectureCode": "30",
    "prefectureNumber": 30,
    "prefecture": "和歌山県",
    "city": "海南市",
    "town": "重根"
  },
  "6420024": {
    "zipcode": "6420024",
    "prefectureCode": "30",
    "prefectureNumber": 30,
    "prefecture": "和歌山県",
    "city": "海南市",
    "town": "阪井"
  },
  "6420025": {
    "zipcode": "6420025",
    "prefectureCode": "30",
    "prefectureNumber": 30,
    "prefecture": "和歌山県",
    "city": "海南市",
    "town": "東畑"
  },
  "6420026": {
    "zipcode": "6420026",
    "prefectureCode": "30",
    "prefectureNumber": 30,
    "prefecture": "和歌山県",
    "city": "海南市",
    "town": "別所"
  },
  "6420027": {
    "zipcode": "6420027",
    "prefectureCode": "30",
    "prefectureNumber": 30,
    "prefecture": "和歌山県",
    "city": "海南市",
    "town": "扱沢"
  },
  "6420028": {
    "zipcode": "6420028",
    "prefectureCode": "30",
    "prefectureNumber": 30,
    "prefecture": "和歌山県",
    "city": "海南市",
    "town": "幡川"
  },
  "6420029": {
    "zipcode": "6420029",
    "prefectureCode": "30",
    "prefectureNumber": 30,
    "prefecture": "和歌山県",
    "city": "海南市",
    "town": "山田"
  },
  "6420031": {
    "zipcode": "6420031",
    "prefectureCode": "30",
    "prefectureNumber": 30,
    "prefecture": "和歌山県",
    "city": "海南市",
    "town": "築地"
  },
  "6420032": {
    "zipcode": "6420032",
    "prefectureCode": "30",
    "prefectureNumber": 30,
    "prefecture": "和歌山県",
    "city": "海南市",
    "town": "名高"
  },
  "6420033": {
    "zipcode": "6420033",
    "prefectureCode": "30",
    "prefectureNumber": 30,
    "prefecture": "和歌山県",
    "city": "海南市",
    "town": "鳥居"
  },
  "6420034": {
    "zipcode": "6420034",
    "prefectureCode": "30",
    "prefectureNumber": 30,
    "prefecture": "和歌山県",
    "city": "海南市",
    "town": "藤白"
  },
  "6420035": {
    "zipcode": "6420035",
    "prefectureCode": "30",
    "prefectureNumber": 30,
    "prefecture": "和歌山県",
    "city": "海南市",
    "town": "冷水"
  }
}
