{
  "6450000": {
    "zipcode": "6450000",
    "prefectureCode": "30",
    "prefectureNumber": 30,
    "prefecture": "和歌山県",
    "city": "日高郡みなべ町",
    "town": "以下に掲載がない場合"
  },
  "6450001": {
    "zipcode": "6450001",
    "prefectureCode": "30",
    "prefectureNumber": 30,
    "prefecture": "和歌山県",
    "city": "日高郡みなべ町",
    "town": "東吉田"
  },
  "6450002": {
    "zipcode": "6450002",
    "prefectureCode": "30",
    "prefectureNumber": 30,
    "prefecture": "和歌山県",
    "city": "日高郡みなべ町",
    "town": "芝"
  },
  "6450003": {
    "zipcode": "6450003",
    "prefectureCode": "30",
    "prefectureNumber": 30,
    "prefecture": "和歌山県",
    "city": "日高郡みなべ町",
    "town": "堺"
  },
  "6450004": {
    "zipcode": "6450004",
    "prefectureCode": "30",
    "prefectureNumber": 30,
    "prefecture": "和歌山県",
    "city": "日高郡みなべ町",
    "town": "埴田"
  },
  "6450005": {
    "zipcode": "6450005",
    "prefectureCode": "30",
    "prefectureNumber": 30,
    "prefecture": "和歌山県",
    "city": "日高郡みなべ町",
    "town": "南道"
  },
  "6450006": {
    "zipcode": "6450006",
    "prefectureCode": "30",
    "prefectureNumber": 30,
    "prefecture": "和歌山県",
    "city": "日高郡みなべ町",
    "town": "北道"
  },
  "6450011": {
    "zipcode": "6450011",
    "prefectureCode": "30",
    "prefectureNumber": 30,
    "prefecture": "和歌山県",
    "city": "日高郡みなべ町",
    "town": "気佐藤"
  },
  "6450012": {
    "zipcode": "6450012",
    "prefectureCode": "30",
    "prefectureNumber": 30,
    "prefecture": "和歌山県",
    "city": "日高郡みなべ町",
    "town": "山内"
  },
  "6450013": {
    "zipcode": "6450013",
    "prefectureCode": "30",
    "prefectureNumber": 30,
    "prefecture": "和歌山県",
    "city": "日高郡みなべ町",
    "town": "東岩代"
  },
  "6450014": {
    "zipcode": "6450014",
    "prefectureCode": "30",
    "prefectureNumber": 30,
    "prefecture": "和歌山県",
    "city": "日高郡みなべ町",
    "town": "西岩代"
  },
  "6450021": {
    "zipcode": "6450021",
    "prefectureCode": "30",
    "prefectureNumber": 30,
    "prefecture": "和歌山県",
    "city": "日高郡みなべ町",
    "town": "東本庄"
  },
  "6450022": {
    "zipcode": "6450022",
    "prefectureCode": "30",
    "prefectureNumber": 30,
    "prefecture": "和歌山県",
    "city": "日高郡みなべ町",
    "town": "晩稲"
  },
  "6450023": {
    "zipcode": "6450023",
    "prefectureCode": "30",
    "prefectureNumber": 30,
    "prefecture": "和歌山県",
    "city": "日高郡みなべ町",
    "town": "熊岡"
  },
  "6450024": {
    "zipcode": "6450024",
    "prefectureCode": "30",
    "prefectureNumber": 30,
    "prefecture": "和歌山県",
    "city": "日高郡みなべ町",
    "town": "徳蔵"
  },
  "6450025": {
    "zipcode": "6450025",
    "prefectureCode": "30",
    "prefectureNumber": 30,
    "prefecture": "和歌山県",
    "city": "日高郡みなべ町",
    "town": "筋"
  },
  "6450026": {
    "zipcode": "6450026",
    "prefectureCode": "30",
    "prefectureNumber": 30,
    "prefecture": "和歌山県",
    "city": "日高郡みなべ町",
    "town": "谷口"
  },
  "6450027": {
    "zipcode": "6450027",
    "prefectureCode": "30",
    "prefectureNumber": 30,
    "prefecture": "和歌山県",
    "city": "日高郡みなべ町",
    "town": "西本庄"
  },
  "6450028": {
    "zipcode": "6450028",
    "prefectureCode": "30",
    "prefectureNumber": 30,
    "prefecture": "和歌山県",
    "city": "日高郡みなべ町",
    "town": "熊瀬川"
  },
  "6450201": {
    "zipcode": "6450201",
    "prefectureCode": "30",
    "prefectureNumber": 30,
    "prefecture": "和歌山県",
    "city": "日高郡みなべ町",
    "town": "清川"
  },
  "6450202": {
    "zipcode": "6450202",
    "prefectureCode": "30",
    "prefectureNumber": 30,
    "prefecture": "和歌山県",
    "city": "日高郡みなべ町",
    "town": "東神野川"
  },
  "6450203": {
    "zipcode": "6450203",
    "prefectureCode": "30",
    "prefectureNumber": 30,
    "prefecture": "和歌山県",
    "city": "日高郡みなべ町",
    "town": "島之瀬"
  },
  "6450204": {
    "zipcode": "6450204",
    "prefectureCode": "30",
    "prefectureNumber": 30,
    "prefecture": "和歌山県",
    "city": "日高郡みなべ町",
    "town": "広野"
  },
  "6450205": {
    "zipcode": "6450205",
    "prefectureCode": "30",
    "prefectureNumber": 30,
    "prefecture": "和歌山県",
    "city": "日高郡みなべ町",
    "town": "滝"
  },
  "6450206": {
    "zipcode": "6450206",
    "prefectureCode": "30",
    "prefectureNumber": 30,
    "prefecture": "和歌山県",
    "city": "日高郡みなべ町",
    "town": "土井"
  },
  "6450207": {
    "zipcode": "6450207",
    "prefectureCode": "30",
    "prefectureNumber": 30,
    "prefecture": "和歌山県",
    "city": "日高郡みなべ町",
    "town": "高野"
  },
  "6450208": {
    "zipcode": "6450208",
    "prefectureCode": "30",
    "prefectureNumber": 30,
    "prefecture": "和歌山県",
    "city": "日高郡みなべ町",
    "town": "市井川"
  },
  "6450301": {
    "zipcode": "6450301",
    "prefectureCode": "30",
    "prefectureNumber": 30,
    "prefecture": "和歌山県",
    "city": "田辺市",
    "town": "龍神村福井"
  },
  "6450302": {
    "zipcode": "6450302",
    "prefectureCode": "30",
    "prefectureNumber": 30,
    "prefecture": "和歌山県",
    "city": "田辺市",
    "town": "龍神村甲斐ノ川"
  },
  "6450303": {
    "zipcode": "6450303",
    "prefectureCode": "30",
    "prefectureNumber": 30,
    "prefecture": "和歌山県",
    "city": "田辺市",
    "town": "龍神村小家"
  },
  "6450411": {
    "zipcode": "6450411",
    "prefectureCode": "30",
    "prefectureNumber": 30,
    "prefecture": "和歌山県",
    "city": "田辺市",
    "town": "龍神村宮代"
  },
  "6450412": {
    "zipcode": "6450412",
    "prefectureCode": "30",
    "prefectureNumber": 30,
    "prefecture": "和歌山県",
    "city": "田辺市",
    "town": "龍神村丹生ノ川"
  },
  "6450413": {
    "zipcode": "6450413",
    "prefectureCode": "30",
    "prefectureNumber": 30,
    "prefecture": "和歌山県",
    "city": "田辺市",
    "town": "龍神村殿原"
  },
  "6450414": {
    "zipcode": "6450414",
    "prefectureCode": "30",
    "prefectureNumber": 30,
    "prefecture": "和歌山県",
    "city": "田辺市",
    "town": "龍神村東"
  },
  "6450415": {
    "zipcode": "6450415",
    "prefectureCode": "30",
    "prefectureNumber": 30,
    "prefecture": "和歌山県",
    "city": "田辺市",
    "town": "龍神村西"
  },
  "6450416": {
    "zipcode": "6450416",
    "prefectureCode": "30",
    "prefectureNumber": 30,
    "prefecture": "和歌山県",
    "city": "田辺市",
    "town": "龍神村安井"
  },
  "6450417": {
    "zipcode": "6450417",
    "prefectureCode": "30",
    "prefectureNumber": 30,
    "prefecture": "和歌山県",
    "city": "田辺市",
    "town": "龍神村柳瀬"
  },
  "6450521": {
    "zipcode": "6450521",
    "prefectureCode": "30",
    "prefectureNumber": 30,
    "prefecture": "和歌山県",
    "city": "田辺市",
    "town": "龍神村小又川"
  },
  "6450522": {
    "zipcode": "6450522",
    "prefectureCode": "30",
    "prefectureNumber": 30,
    "prefecture": "和歌山県",
    "city": "田辺市",
    "town": "龍神村三ツ又"
  },
  "6450523": {
    "zipcode": "6450523",
    "prefectureCode": "30",
    "prefectureNumber": 30,
    "prefecture": "和歌山県",
    "city": "田辺市",
    "town": "龍神村広井原"
  },
  "6450524": {
    "zipcode": "6450524",
    "prefectureCode": "30",
    "prefectureNumber": 30,
    "prefecture": "和歌山県",
    "city": "田辺市",
    "town": "龍神村湯ノ又"
  },
  "6450525": {
    "zipcode": "6450525",
    "prefectureCode": "30",
    "prefectureNumber": 30,
    "prefecture": "和歌山県",
    "city": "田辺市",
    "town": "龍神村龍神"
  },
  "6450551": {
    "zipcode": "6450551",
    "prefectureCode": "30",
    "prefectureNumber": 30,
    "prefecture": "和歌山県",
    "city": "日高郡日高川町",
    "town": "寒川（小川）"
  }
}
