{
  "6490101": {
    "zipcode": "6490101",
    "prefectureCode": "30",
    "prefectureNumber": 30,
    "prefecture": "和歌山県",
    "city": "海南市",
    "town": "下津町下津"
  },
  "6490111": {
    "zipcode": "6490111",
    "prefectureCode": "30",
    "prefectureNumber": 30,
    "prefecture": "和歌山県",
    "city": "海南市",
    "town": "下津町方"
  },
  "6490112": {
    "zipcode": "6490112",
    "prefectureCode": "30",
    "prefectureNumber": 30,
    "prefecture": "和歌山県",
    "city": "海南市",
    "town": "下津町大崎"
  },
  "6490121": {
    "zipcode": "6490121",
    "prefectureCode": "30",
    "prefectureNumber": 30,
    "prefecture": "和歌山県",
    "city": "海南市",
    "town": "下津町丸田"
  },
  "6490122": {
    "zipcode": "6490122",
    "prefectureCode": "30",
    "prefectureNumber": 30,
    "prefecture": "和歌山県",
    "city": "海南市",
    "town": "下津町黒田"
  },
  "6490123": {
    "zipcode": "6490123",
    "prefectureCode": "30",
    "prefectureNumber": 30,
    "prefecture": "和歌山県",
    "city": "海南市",
    "town": "下津町丁"
  },
  "6490131": {
    "zipcode": "6490131",
    "prefectureCode": "30",
    "prefectureNumber": 30,
    "prefecture": "和歌山県",
    "city": "海南市",
    "town": "下津町塩津"
  },
  "6490132": {
    "zipcode": "6490132",
    "prefectureCode": "30",
    "prefectureNumber": 30,
    "prefecture": "和歌山県",
    "city": "海南市",
    "town": "下津町梅田"
  },
  "6490133": {
    "zipcode": "6490133",
    "prefectureCode": "30",
    "prefectureNumber": 30,
    "prefecture": "和歌山県",
    "city": "海南市",
    "town": "下津町下"
  },
  "6490141": {
    "zipcode": "6490141",
    "prefectureCode": "30",
    "prefectureNumber": 30,
    "prefecture": "和歌山県",
    "city": "海南市",
    "town": "下津町小南"
  },
  "6490142": {
    "zipcode": "6490142",
    "prefectureCode": "30",
    "prefectureNumber": 30,
    "prefecture": "和歌山県",
    "city": "海南市",
    "town": "下津町中"
  },
  "6490143": {
    "zipcode": "6490143",
    "prefectureCode": "30",
    "prefectureNumber": 30,
    "prefecture": "和歌山県",
    "city": "海南市",
    "town": "下津町小松原"
  },
  "6490144": {
    "zipcode": "6490144",
    "prefectureCode": "30",
    "prefectureNumber": 30,
    "prefecture": "和歌山県",
    "city": "海南市",
    "town": "下津町橘本"
  },
  "6490145": {
    "zipcode": "6490145",
    "prefectureCode": "30",
    "prefectureNumber": 30,
    "prefecture": "和歌山県",
    "city": "海南市",
    "town": "下津町市坪"
  },
  "6490146": {
    "zipcode": "6490146",
    "prefectureCode": "30",
    "prefectureNumber": 30,
    "prefecture": "和歌山県",
    "city": "海南市",
    "town": "下津町沓掛"
  },
  "6490147": {
    "zipcode": "6490147",
    "prefectureCode": "30",
    "prefectureNumber": 30,
    "prefecture": "和歌山県",
    "city": "海南市",
    "town": "下津町青枝"
  },
  "6490151": {
    "zipcode": "6490151",
    "prefectureCode": "30",
    "prefectureNumber": 30,
    "prefecture": "和歌山県",
    "city": "海南市",
    "town": "下津町曽根田"
  },
  "6490152": {
    "zipcode": "6490152",
    "prefectureCode": "30",
    "prefectureNumber": 30,
    "prefecture": "和歌山県",
    "city": "海南市",
    "town": "下津町引尾"
  },
  "6490153": {
    "zipcode": "6490153",
    "prefectureCode": "30",
    "prefectureNumber": 30,
    "prefecture": "和歌山県",
    "city": "海南市",
    "town": "下津町興"
  },
  "6490154": {
    "zipcode": "6490154",
    "prefectureCode": "30",
    "prefectureNumber": 30,
    "prefecture": "和歌山県",
    "city": "海南市",
    "town": "下津町笠畑"
  },
  "6490155": {
    "zipcode": "6490155",
    "prefectureCode": "30",
    "prefectureNumber": 30,
    "prefecture": "和歌山県",
    "city": "海南市",
    "town": "下津町大窪"
  },
  "6490156": {
    "zipcode": "6490156",
    "prefectureCode": "30",
    "prefectureNumber": 30,
    "prefecture": "和歌山県",
    "city": "海南市",
    "town": "下津町百垣内"
  },
  "6490161": {
    "zipcode": "6490161",
    "prefectureCode": "30",
    "prefectureNumber": 30,
    "prefecture": "和歌山県",
    "city": "海南市",
    "town": "下津町小畑"
  },
  "6490162": {
    "zipcode": "6490162",
    "prefectureCode": "30",
    "prefectureNumber": 30,
    "prefecture": "和歌山県",
    "city": "海南市",
    "town": "下津町小原"
  },
  "6490163": {
    "zipcode": "6490163",
    "prefectureCode": "30",
    "prefectureNumber": 30,
    "prefecture": "和歌山県",
    "city": "海南市",
    "town": "下津町鰈川"
  },
  "6490164": {
    "zipcode": "6490164",
    "prefectureCode": "30",
    "prefectureNumber": 30,
    "prefecture": "和歌山県",
    "city": "海南市",
    "town": "下津町上"
  },
  "6490300": {
    "zipcode": "6490300",
    "prefectureCode": "30",
    "prefectureNumber": 30,
    "prefecture": "和歌山県",
    "city": "有田市",
    "town": "以下に掲載がない場合"
  },
  "6490301": {
    "zipcode": "6490301",
    "prefectureCode": "30",
    "prefectureNumber": 30,
    "prefecture": "和歌山県",
    "city": "有田市",
    "town": "下中島"
  },
  "6490302": {
    "zipcode": "6490302",
    "prefectureCode": "30",
    "prefectureNumber": 30,
    "prefecture": "和歌山県",
    "city": "有田市",
    "town": "山田原"
  },
  "6490303": {
    "zipcode": "6490303",
    "prefectureCode": "30",
    "prefectureNumber": 30,
    "prefecture": "和歌山県",
    "city": "有田市",
    "town": "新堂"
  },
  "6490304": {
    "zipcode": "6490304",
    "prefectureCode": "30",
    "prefectureNumber": 30,
    "prefecture": "和歌山県",
    "city": "有田市",
    "town": "箕島"
  },
  "6490305": {
    "zipcode": "6490305",
    "prefectureCode": "30",
    "prefectureNumber": 30,
    "prefecture": "和歌山県",
    "city": "有田市",
    "town": "港町"
  },
  "6490306": {
    "zipcode": "6490306",
    "prefectureCode": "30",
    "prefectureNumber": 30,
    "prefecture": "和歌山県",
    "city": "有田市",
    "town": "初島町浜"
  },
  "6490307": {
    "zipcode": "6490307",
    "prefectureCode": "30",
    "prefectureNumber": 30,
    "prefecture": "和歌山県",
    "city": "有田市",
    "town": "初島町里"
  },
  "6490311": {
    "zipcode": "6490311",
    "prefectureCode": "30",
    "prefectureNumber": 30,
    "prefecture": "和歌山県",
    "city": "有田市",
    "town": "辻堂"
  },
  "6490312": {
    "zipcode": "6490312",
    "prefectureCode": "30",
    "prefectureNumber": 30,
    "prefecture": "和歌山県",
    "city": "有田市",
    "town": "星尾"
  },
  "6490313": {
    "zipcode": "6490313",
    "prefectureCode": "30",
    "prefectureNumber": 30,
    "prefecture": "和歌山県",
    "city": "有田市",
    "town": "千田"
  },
  "6490314": {
    "zipcode": "6490314",
    "prefectureCode": "30",
    "prefectureNumber": 30,
    "prefecture": "和歌山県",
    "city": "有田市",
    "town": "野"
  },
  "6490315": {
    "zipcode": "6490315",
    "prefectureCode": "30",
    "prefectureNumber": 30,
    "prefecture": "和歌山県",
    "city": "有田市",
    "town": "山地"
  },
  "6490316": {
    "zipcode": "6490316",
    "prefectureCode": "30",
    "prefectureNumber": 30,
    "prefecture": "和歌山県",
    "city": "有田市",
    "town": "宮崎町"
  },
  "6490317": {
    "zipcode": "6490317",
    "prefectureCode": "30",
    "prefectureNumber": 30,
    "prefecture": "和歌山県",
    "city": "有田市",
    "town": "古江見"
  },
  "6490421": {
    "zipcode": "6490421",
    "prefectureCode": "30",
    "prefectureNumber": 30,
    "prefecture": "和歌山県",
    "city": "有田市",
    "town": "糸我町中番"
  },
  "6490422": {
    "zipcode": "6490422",
    "prefectureCode": "30",
    "prefectureNumber": 30,
    "prefecture": "和歌山県",
    "city": "有田市",
    "town": "糸我町西"
  },
  "6490431": {
    "zipcode": "6490431",
    "prefectureCode": "30",
    "prefectureNumber": 30,
    "prefecture": "和歌山県",
    "city": "有田市",
    "town": "宮原町畑"
  },
  "6490432": {
    "zipcode": "6490432",
    "prefectureCode": "30",
    "prefectureNumber": 30,
    "prefecture": "和歌山県",
    "city": "有田市",
    "town": "宮原町東"
  },
  "6490433": {
    "zipcode": "6490433",
    "prefectureCode": "30",
    "prefectureNumber": 30,
    "prefecture": "和歌山県",
    "city": "有田市",
    "town": "宮原町須谷"
  },
  "6490434": {
    "zipcode": "6490434",
    "prefectureCode": "30",
    "prefectureNumber": 30,
    "prefecture": "和歌山県",
    "city": "有田市",
    "town": "宮原町新町"
  },
  "6490435": {
    "zipcode": "6490435",
    "prefectureCode": "30",
    "prefectureNumber": 30,
    "prefecture": "和歌山県",
    "city": "有田市",
    "town": "宮原町滝川原"
  },
  "6490436": {
    "zipcode": "6490436",
    "prefectureCode": "30",
    "prefectureNumber": 30,
    "prefecture": "和歌山県",
    "city": "有田市",
    "town": "宮原町道"
  },
  "6490437": {
    "zipcode": "6490437",
    "prefectureCode": "30",
    "prefectureNumber": 30,
    "prefecture": "和歌山県",
    "city": "有田市",
    "town": "宮原町滝"
  },
  "6491100": {
    "zipcode": "6491100",
    "prefectureCode": "30",
    "prefectureNumber": 30,
    "prefecture": "和歌山県",
    "city": "日高郡由良町",
    "town": "以下に掲載がない場合"
  },
  "6491101": {
    "zipcode": "6491101",
    "prefectureCode": "30",
    "prefectureNumber": 30,
    "prefecture": "和歌山県",
    "city": "日高郡由良町",
    "town": "畑"
  },
  "6491102": {
    "zipcode": "6491102",
    "prefectureCode": "30",
    "prefectureNumber": 30,
    "prefecture": "和歌山県",
    "city": "日高郡由良町",
    "town": "中"
  },
  "6491103": {
    "zipcode": "6491103",
    "prefectureCode": "30",
    "prefectureNumber": 30,
    "prefecture": "和歌山県",
    "city": "日高郡由良町",
    "town": "門前"
  },
  "6491104": {
    "zipcode": "6491104",
    "prefectureCode": "30",
    "prefectureNumber": 30,
    "prefecture": "和歌山県",
    "city": "日高郡由良町",
    "town": "江ノ駒"
  },
  "6491111": {
    "zipcode": "6491111",
    "prefectureCode": "30",
    "prefectureNumber": 30,
    "prefecture": "和歌山県",
    "city": "日高郡由良町",
    "town": "里"
  },
  "6491112": {
    "zipcode": "6491112",
    "prefectureCode": "30",
    "prefectureNumber": 30,
    "prefecture": "和歌山県",
    "city": "日高郡由良町",
    "town": "網代"
  },
  "6491113": {
    "zipcode": "6491113",
    "prefectureCode": "30",
    "prefectureNumber": 30,
    "prefecture": "和歌山県",
    "city": "日高郡由良町",
    "town": "阿戸"
  },
  "6491121": {
    "zipcode": "6491121",
    "prefectureCode": "30",
    "prefectureNumber": 30,
    "prefecture": "和歌山県",
    "city": "日高郡由良町",
    "town": "吹井"
  },
  "6491122": {
    "zipcode": "6491122",
    "prefectureCode": "30",
    "prefectureNumber": 30,
    "prefecture": "和歌山県",
    "city": "日高郡由良町",
    "town": "神谷"
  },
  "6491123": {
    "zipcode": "6491123",
    "prefectureCode": "30",
    "prefectureNumber": 30,
    "prefecture": "和歌山県",
    "city": "日高郡由良町",
    "town": "大引"
  },
  "6491131": {
    "zipcode": "6491131",
    "prefectureCode": "30",
    "prefectureNumber": 30,
    "prefecture": "和歌山県",
    "city": "日高郡由良町",
    "town": "小引"
  },
  "6491132": {
    "zipcode": "6491132",
    "prefectureCode": "30",
    "prefectureNumber": 30,
    "prefecture": "和歌山県",
    "city": "日高郡由良町",
    "town": "衣奈"
  },
  "6491133": {
    "zipcode": "6491133",
    "prefectureCode": "30",
    "prefectureNumber": 30,
    "prefecture": "和歌山県",
    "city": "日高郡由良町",
    "town": "三尾川"
  },
  "6491134": {
    "zipcode": "6491134",
    "prefectureCode": "30",
    "prefectureNumber": 30,
    "prefecture": "和歌山県",
    "city": "日高郡由良町",
    "town": "戸津井"
  },
  "6491200": {
    "zipcode": "6491200",
    "prefectureCode": "30",
    "prefectureNumber": 30,
    "prefecture": "和歌山県",
    "city": "日高郡日高町",
    "town": "以下に掲載がない場合"
  },
  "6491201": {
    "zipcode": "6491201",
    "prefectureCode": "30",
    "prefectureNumber": 30,
    "prefecture": "和歌山県",
    "city": "日高郡日高町",
    "town": "原谷"
  },
  "6491202": {
    "zipcode": "6491202",
    "prefectureCode": "30",
    "prefectureNumber": 30,
    "prefecture": "和歌山県",
    "city": "日高郡日高町",
    "town": "萩原"
  },
  "6491203": {
    "zipcode": "6491203",
    "prefectureCode": "30",
    "prefectureNumber": 30,
    "prefecture": "和歌山県",
    "city": "日高郡日高町",
    "town": "池田"
  },
  "6491211": {
    "zipcode": "6491211",
    "prefectureCode": "30",
    "prefectureNumber": 30,
    "prefecture": "和歌山県",
    "city": "日高郡日高町",
    "town": "荊木"
  },
  "6491212": {
    "zipcode": "6491212",
    "prefectureCode": "30",
    "prefectureNumber": 30,
    "prefecture": "和歌山県",
    "city": "日高郡日高町",
    "town": "小中"
  },
  "6491213": {
    "zipcode": "6491213",
    "prefectureCode": "30",
    "prefectureNumber": 30,
    "prefecture": "和歌山県",
    "city": "日高郡日高町",
    "town": "高家"
  },
  "6491221": {
    "zipcode": "6491221",
    "prefectureCode": "30",
    "prefectureNumber": 30,
    "prefecture": "和歌山県",
    "city": "日高郡日高町",
    "town": "志賀"
  },
  "6491222": {
    "zipcode": "6491222",
    "prefectureCode": "30",
    "prefectureNumber": 30,
    "prefecture": "和歌山県",
    "city": "日高郡日高町",
    "town": "小池"
  },
  "6491223": {
    "zipcode": "6491223",
    "prefectureCode": "30",
    "prefectureNumber": 30,
    "prefecture": "和歌山県",
    "city": "日高郡日高町",
    "town": "小浦"
  },
  "6491224": {
    "zipcode": "6491224",
    "prefectureCode": "30",
    "prefectureNumber": 30,
    "prefecture": "和歌山県",
    "city": "日高郡日高町",
    "town": "津久野"
  },
  "6491225": {
    "zipcode": "6491225",
    "prefectureCode": "30",
    "prefectureNumber": 30,
    "prefecture": "和歌山県",
    "city": "日高郡日高町",
    "town": "方杭"
  },
  "6491231": {
    "zipcode": "6491231",
    "prefectureCode": "30",
    "prefectureNumber": 30,
    "prefecture": "和歌山県",
    "city": "日高郡日高町",
    "town": "小坂"
  },
  "6491232": {
    "zipcode": "6491232",
    "prefectureCode": "30",
    "prefectureNumber": 30,
    "prefecture": "和歌山県",
    "city": "日高郡日高町",
    "town": "阿尾"
  },
  "6491233": {
    "zipcode": "6491233",
    "prefectureCode": "30",
    "prefectureNumber": 30,
    "prefecture": "和歌山県",
    "city": "日高郡日高町",
    "town": "産湯"
  },
  "6491234": {
    "zipcode": "6491234",
    "prefectureCode": "30",
    "prefectureNumber": 30,
    "prefecture": "和歌山県",
    "city": "日高郡日高町",
    "town": "比井"
  },
  "6491300": {
    "zipcode": "6491300",
    "prefectureCode": "30",
    "prefectureNumber": 30,
    "prefecture": "和歌山県",
    "city": "日高郡日高川町",
    "town": "以下に掲載がない場合"
  },
  "6491311": {
    "zipcode": "6491311",
    "prefectureCode": "30",
    "prefectureNumber": 30,
    "prefecture": "和歌山県",
    "city": "日高郡日高川町",
    "town": "平川"
  },
  "6491312": {
    "zipcode": "6491312",
    "prefectureCode": "30",
    "prefectureNumber": 30,
    "prefecture": "和歌山県",
    "city": "日高郡日高川町",
    "town": "三百瀬"
  },
  "6491313": {
    "zipcode": "6491313",
    "prefectureCode": "30",
    "prefectureNumber": 30,
    "prefecture": "和歌山県",
    "city": "日高郡日高川町",
    "town": "伊藤川"
  },
  "6491314": {
    "zipcode": "6491314",
    "prefectureCode": "30",
    "prefectureNumber": 30,
    "prefecture": "和歌山県",
    "city": "日高郡日高川町",
    "town": "早藤"
  },
  "6491315": {
    "zipcode": "6491315",
    "prefectureCode": "30",
    "prefectureNumber": 30,
    "prefecture": "和歌山県",
    "city": "日高郡日高川町",
    "town": "玄子"
  },
  "6491316": {
    "zipcode": "6491316",
    "prefectureCode": "30",
    "prefectureNumber": 30,
    "prefecture": "和歌山県",
    "city": "日高郡日高川町",
    "town": "蛇尾"
  },
  "6491321": {
    "zipcode": "6491321",
    "prefectureCode": "30",
    "prefectureNumber": 30,
    "prefecture": "和歌山県",
    "city": "日高郡日高川町",
    "town": "入野"
  },
  "6491322": {
    "zipcode": "6491322",
    "prefectureCode": "30",
    "prefectureNumber": 30,
    "prefecture": "和歌山県",
    "city": "日高郡日高川町",
    "town": "若野"
  },
  "6491323": {
    "zipcode": "6491323",
    "prefectureCode": "30",
    "prefectureNumber": 30,
    "prefecture": "和歌山県",
    "city": "日高郡日高川町",
    "town": "小熊"
  },
  "6491324": {
    "zipcode": "6491324",
    "prefectureCode": "30",
    "prefectureNumber": 30,
    "prefecture": "和歌山県",
    "city": "日高郡日高川町",
    "town": "土生"
  },
  "6491325": {
    "zipcode": "6491325",
    "prefectureCode": "30",
    "prefectureNumber": 30,
    "prefecture": "和歌山県",
    "city": "日高郡日高川町",
    "town": "中津川"
  },
  "6491331": {
    "zipcode": "6491331",
    "prefectureCode": "30",
    "prefectureNumber": 30,
    "prefecture": "和歌山県",
    "city": "日高郡日高川町",
    "town": "鐘巻"
  },
  "6491332": {
    "zipcode": "6491332",
    "prefectureCode": "30",
    "prefectureNumber": 30,
    "prefecture": "和歌山県",
    "city": "日高郡日高川町",
    "town": "千津川"
  },
  "6491341": {
    "zipcode": "6491341",
    "prefectureCode": "30",
    "prefectureNumber": 30,
    "prefecture": "和歌山県",
    "city": "御坊市",
    "town": "藤田町藤井"
  },
  "6491342": {
    "zipcode": "6491342",
    "prefectureCode": "30",
    "prefectureNumber": 30,
    "prefecture": "和歌山県",
    "city": "御坊市",
    "town": "藤田町吉田"
  },
  "6491441": {
    "zipcode": "6491441",
    "prefectureCode": "30",
    "prefectureNumber": 30,
    "prefecture": "和歌山県",
    "city": "日高郡日高川町",
    "town": "山野"
  },
  "6491442": {
    "zipcode": "6491442",
    "prefectureCode": "30",
    "prefectureNumber": 30,
    "prefecture": "和歌山県",
    "city": "日高郡日高川町",
    "town": "江川"
  },
  "6491443": {
    "zipcode": "6491443",
    "prefectureCode": "30",
    "prefectureNumber": 30,
    "prefecture": "和歌山県",
    "city": "日高郡日高川町",
    "town": "和佐"
  },
  "6491444": {
    "zipcode": "6491444",
    "prefectureCode": "30",
    "prefectureNumber": 30,
    "prefecture": "和歌山県",
    "city": "日高郡日高川町",
    "town": "松瀬"
  },
  "6491500": {
    "zipcode": "6491500",
    "prefectureCode": "30",
    "prefectureNumber": 30,
    "prefecture": "和歌山県",
    "city": "日高郡印南町",
    "town": "以下に掲載がない場合"
  },
  "6491521": {
    "zipcode": "6491521",
    "prefectureCode": "30",
    "prefectureNumber": 30,
    "prefecture": "和歌山県",
    "city": "日高郡印南町",
    "town": "美里"
  },
  "6491522": {
    "zipcode": "6491522",
    "prefectureCode": "30",
    "prefectureNumber": 30,
    "prefecture": "和歌山県",
    "city": "日高郡印南町",
    "town": "古井"
  },
  "6491523": {
    "zipcode": "6491523",
    "prefectureCode": "30",
    "prefectureNumber": 30,
    "prefecture": "和歌山県",
    "city": "日高郡印南町",
    "town": "樮川"
  },
  "6491524": {
    "zipcode": "6491524",
    "prefectureCode": "30",
    "prefectureNumber": 30,
    "prefecture": "和歌山県",
    "city": "日高郡印南町",
    "town": "羽六"
  },
  "6491525": {
    "zipcode": "6491525",
    "prefectureCode": "30",
    "prefectureNumber": 30,
    "prefecture": "和歌山県",
    "city": "日高郡印南町",
    "town": "古屋"
  },
  "6491526": {
    "zipcode": "6491526",
    "prefectureCode": "30",
    "prefectureNumber": 30,
    "prefecture": "和歌山県",
    "city": "日高郡印南町",
    "town": "宮ノ前"
  },
  "6491527": {
    "zipcode": "6491527",
    "prefectureCode": "30",
    "prefectureNumber": 30,
    "prefecture": "和歌山県",
    "city": "日高郡印南町",
    "town": "島田"
  },
  "6491528": {
    "zipcode": "6491528",
    "prefectureCode": "30",
    "prefectureNumber": 30,
    "prefecture": "和歌山県",
    "city": "日高郡印南町",
    "town": "西ノ地"
  },
  "6491531": {
    "zipcode": "6491531",
    "prefectureCode": "30",
    "prefectureNumber": 30,
    "prefecture": "和歌山県",
    "city": "日高郡印南町",
    "town": "立石"
  },
  "6491532": {
    "zipcode": "6491532",
    "prefectureCode": "30",
    "prefectureNumber": 30,
    "prefecture": "和歌山県",
    "city": "日高郡印南町",
    "town": "印南原"
  },
  "6491533": {
    "zipcode": "6491533",
    "prefectureCode": "30",
    "prefectureNumber": 30,
    "prefecture": "和歌山県",
    "city": "日高郡印南町",
    "town": "山口"
  },
  "6491534": {
    "zipcode": "6491534",
    "prefectureCode": "30",
    "prefectureNumber": 30,
    "prefecture": "和歌山県",
    "city": "日高郡印南町",
    "town": "印南"
  },
  "6491535": {
    "zipcode": "6491535",
    "prefectureCode": "30",
    "prefectureNumber": 30,
    "prefecture": "和歌山県",
    "city": "日高郡印南町",
    "town": "津井"
  },
  "6491536": {
    "zipcode": "6491536",
    "prefectureCode": "30",
    "prefectureNumber": 30,
    "prefecture": "和歌山県",
    "city": "日高郡印南町",
    "town": "南谷"
  },
  "6491537": {
    "zipcode": "6491537",
    "prefectureCode": "30",
    "prefectureNumber": 30,
    "prefecture": "和歌山県",
    "city": "日高郡印南町",
    "town": "明神川"
  },
  "6492100": {
    "zipcode": "6492100",
    "prefectureCode": "30",
    "prefectureNumber": 30,
    "prefecture": "和歌山県",
    "city": "西牟婁郡上富田町",
    "town": "以下に掲載がない場合"
  },
  "6492101": {
    "zipcode": "6492101",
    "prefectureCode": "30",
    "prefectureNumber": 30,
    "prefecture": "和歌山県",
    "city": "西牟婁郡上富田町",
    "town": "岡"
  },
  "6492102": {
    "zipcode": "6492102",
    "prefectureCode": "30",
    "prefectureNumber": 30,
    "prefecture": "和歌山県",
    "city": "西牟婁郡上富田町",
    "town": "岩田"
  },
  "6492103": {
    "zipcode": "6492103",
    "prefectureCode": "30",
    "prefectureNumber": 30,
    "prefecture": "和歌山県",
    "city": "西牟婁郡上富田町",
    "town": "生馬"
  },
  "6492104": {
    "zipcode": "6492104",
    "prefectureCode": "30",
    "prefectureNumber": 30,
    "prefecture": "和歌山県",
    "city": "西牟婁郡上富田町",
    "town": "岩崎"
  },
  "6492105": {
    "zipcode": "6492105",
    "prefectureCode": "30",
    "prefectureNumber": 30,
    "prefecture": "和歌山県",
    "city": "西牟婁郡上富田町",
    "town": "朝来"
  },
  "6492106": {
    "zipcode": "6492106",
    "prefectureCode": "30",
    "prefectureNumber": 30,
    "prefecture": "和歌山県",
    "city": "西牟婁郡上富田町",
    "town": "南紀の台"
  },
  "6492107": {
    "zipcode": "6492107",
    "prefectureCode": "30",
    "prefectureNumber": 30,
    "prefecture": "和歌山県",
    "city": "西牟婁郡上富田町",
    "town": "市ノ瀬"
  },
  "6492108": {
    "zipcode": "6492108",
    "prefectureCode": "30",
    "prefectureNumber": 30,
    "prefecture": "和歌山県",
    "city": "西牟婁郡上富田町",
    "town": "下鮎川"
  },
  "6492200": {
    "zipcode": "6492200",
    "prefectureCode": "30",
    "prefectureNumber": 30,
    "prefecture": "和歌山県",
    "city": "西牟婁郡白浜町",
    "town": "以下に掲載がない場合"
  },
  "6492201": {
    "zipcode": "6492201",
    "prefectureCode": "30",
    "prefectureNumber": 30,
    "prefecture": "和歌山県",
    "city": "西牟婁郡白浜町",
    "town": "堅田"
  },
  "6492211": {
    "zipcode": "6492211",
    "prefectureCode": "30",
    "prefectureNumber": 30,
    "prefecture": "和歌山県",
    "city": "西牟婁郡白浜町",
    "town": "白浜町の次に番地がくる場合"
  },
  "6492321": {
    "zipcode": "6492321",
    "prefectureCode": "30",
    "prefectureNumber": 30,
    "prefecture": "和歌山県",
    "city": "西牟婁郡白浜町",
    "town": "保呂"
  },
  "6492322": {
    "zipcode": "6492322",
    "prefectureCode": "30",
    "prefectureNumber": 30,
    "prefecture": "和歌山県",
    "city": "西牟婁郡白浜町",
    "town": "内ノ川"
  },
  "6492323": {
    "zipcode": "6492323",
    "prefectureCode": "30",
    "prefectureNumber": 30,
    "prefecture": "和歌山県",
    "city": "西牟婁郡白浜町",
    "town": "庄川"
  },
  "6492324": {
    "zipcode": "6492324",
    "prefectureCode": "30",
    "prefectureNumber": 30,
    "prefecture": "和歌山県",
    "city": "西牟婁郡白浜町",
    "town": "十九渕"
  },
  "6492325": {
    "zipcode": "6492325",
    "prefectureCode": "30",
    "prefectureNumber": 30,
    "prefecture": "和歌山県",
    "city": "西牟婁郡白浜町",
    "town": "富田"
  },
  "6492326": {
    "zipcode": "6492326",
    "prefectureCode": "30",
    "prefectureNumber": 30,
    "prefecture": "和歌山県",
    "city": "西牟婁郡白浜町",
    "town": "椿"
  },
  "6492331": {
    "zipcode": "6492331",
    "prefectureCode": "30",
    "prefectureNumber": 30,
    "prefecture": "和歌山県",
    "city": "西牟婁郡白浜町",
    "town": "平"
  },
  "6492332": {
    "zipcode": "6492332",
    "prefectureCode": "30",
    "prefectureNumber": 30,
    "prefecture": "和歌山県",
    "city": "西牟婁郡白浜町",
    "town": "栄"
  },
  "6492333": {
    "zipcode": "6492333",
    "prefectureCode": "30",
    "prefectureNumber": 30,
    "prefecture": "和歌山県",
    "city": "西牟婁郡白浜町",
    "town": "中"
  },
  "6492334": {
    "zipcode": "6492334",
    "prefectureCode": "30",
    "prefectureNumber": 30,
    "prefecture": "和歌山県",
    "city": "西牟婁郡白浜町",
    "town": "才野"
  },
  "6492511": {
    "zipcode": "6492511",
    "prefectureCode": "30",
    "prefectureNumber": 30,
    "prefecture": "和歌山県",
    "city": "西牟婁郡白浜町",
    "town": "日置"
  },
  "6492521": {
    "zipcode": "6492521",
    "prefectureCode": "30",
    "prefectureNumber": 30,
    "prefecture": "和歌山県",
    "city": "西牟婁郡白浜町",
    "town": "大古"
  },
  "6492522": {
    "zipcode": "6492522",
    "prefectureCode": "30",
    "prefectureNumber": 30,
    "prefecture": "和歌山県",
    "city": "西牟婁郡白浜町",
    "town": "矢田"
  },
  "6492523": {
    "zipcode": "6492523",
    "prefectureCode": "30",
    "prefectureNumber": 30,
    "prefecture": "和歌山県",
    "city": "西牟婁郡白浜町",
    "town": "田野井"
  },
  "6492524": {
    "zipcode": "6492524",
    "prefectureCode": "30",
    "prefectureNumber": 30,
    "prefecture": "和歌山県",
    "city": "西牟婁郡白浜町",
    "town": "安宅"
  },
  "6492525": {
    "zipcode": "6492525",
    "prefectureCode": "30",
    "prefectureNumber": 30,
    "prefecture": "和歌山県",
    "city": "西牟婁郡白浜町",
    "town": "塩野"
  },
  "6492531": {
    "zipcode": "6492531",
    "prefectureCode": "30",
    "prefectureNumber": 30,
    "prefecture": "和歌山県",
    "city": "西牟婁郡白浜町",
    "town": "口ケ谷"
  },
  "6492532": {
    "zipcode": "6492532",
    "prefectureCode": "30",
    "prefectureNumber": 30,
    "prefecture": "和歌山県",
    "city": "西牟婁郡白浜町",
    "town": "安居"
  },
  "6492533": {
    "zipcode": "6492533",
    "prefectureCode": "30",
    "prefectureNumber": 30,
    "prefecture": "和歌山県",
    "city": "西牟婁郡白浜町",
    "town": "中嶋"
  },
  "6492534": {
    "zipcode": "6492534",
    "prefectureCode": "30",
    "prefectureNumber": 30,
    "prefecture": "和歌山県",
    "city": "西牟婁郡白浜町",
    "town": "寺山"
  },
  "6492535": {
    "zipcode": "6492535",
    "prefectureCode": "30",
    "prefectureNumber": 30,
    "prefecture": "和歌山県",
    "city": "西牟婁郡白浜町",
    "town": "向平"
  },
  "6492536": {
    "zipcode": "6492536",
    "prefectureCode": "30",
    "prefectureNumber": 30,
    "prefecture": "和歌山県",
    "city": "西牟婁郡白浜町",
    "town": "久木"
  },
  "6492537": {
    "zipcode": "6492537",
    "prefectureCode": "30",
    "prefectureNumber": 30,
    "prefecture": "和歌山県",
    "city": "西牟婁郡白浜町",
    "town": "宇津木"
  },
  "6492538": {
    "zipcode": "6492538",
    "prefectureCode": "30",
    "prefectureNumber": 30,
    "prefecture": "和歌山県",
    "city": "西牟婁郡白浜町",
    "town": "小川"
  },
  "6492539": {
    "zipcode": "6492539",
    "prefectureCode": "30",
    "prefectureNumber": 30,
    "prefecture": "和歌山県",
    "city": "西牟婁郡白浜町",
    "town": "城"
  },
  "6492600": {
    "zipcode": "6492600",
    "prefectureCode": "30",
    "prefectureNumber": 30,
    "prefecture": "和歌山県",
    "city": "西牟婁郡すさみ町",
    "town": "以下に掲載がない場合"
  },
  "6492601": {
    "zipcode": "6492601",
    "prefectureCode": "30",
    "prefectureNumber": 30,
    "prefecture": "和歌山県",
    "city": "西牟婁郡すさみ町",
    "town": "小附"
  },
  "6492602": {
    "zipcode": "6492602",
    "prefectureCode": "30",
    "prefectureNumber": 30,
    "prefecture": "和歌山県",
    "city": "西牟婁郡すさみ町",
    "town": "大附"
  },
  "6492603": {
    "zipcode": "6492603",
    "prefectureCode": "30",
    "prefectureNumber": 30,
    "prefecture": "和歌山県",
    "city": "西牟婁郡すさみ町",
    "town": "小河内"
  },
  "6492604": {
    "zipcode": "6492604",
    "prefectureCode": "30",
    "prefectureNumber": 30,
    "prefecture": "和歌山県",
    "city": "西牟婁郡すさみ町",
    "town": "矢野口"
  },
  "6492611": {
    "zipcode": "6492611",
    "prefectureCode": "30",
    "prefectureNumber": 30,
    "prefecture": "和歌山県",
    "city": "西牟婁郡すさみ町",
    "town": "和深川"
  },
  "6492612": {
    "zipcode": "6492612",
    "prefectureCode": "30",
    "prefectureNumber": 30,
    "prefecture": "和歌山県",
    "city": "西牟婁郡すさみ町",
    "town": "口和深"
  },
  "6492621": {
    "zipcode": "6492621",
    "prefectureCode": "30",
    "prefectureNumber": 30,
    "prefecture": "和歌山県",
    "city": "西牟婁郡すさみ町",
    "town": "周参見"
  },
  "6492631": {
    "zipcode": "6492631",
    "prefectureCode": "30",
    "prefectureNumber": 30,
    "prefecture": "和歌山県",
    "city": "西牟婁郡すさみ町",
    "town": "太間川"
  },
  "6493141": {
    "zipcode": "6493141",
    "prefectureCode": "30",
    "prefectureNumber": 30,
    "prefecture": "和歌山県",
    "city": "西牟婁郡すさみ町",
    "town": "見老津"
  },
  "6493142": {
    "zipcode": "6493142",
    "prefectureCode": "30",
    "prefectureNumber": 30,
    "prefecture": "和歌山県",
    "city": "西牟婁郡すさみ町",
    "town": "江住"
  },
  "6493143": {
    "zipcode": "6493143",
    "prefectureCode": "30",
    "prefectureNumber": 30,
    "prefecture": "和歌山県",
    "city": "西牟婁郡すさみ町",
    "town": "里野"
  },
  "6493151": {
    "zipcode": "6493151",
    "prefectureCode": "30",
    "prefectureNumber": 30,
    "prefecture": "和歌山県",
    "city": "西牟婁郡すさみ町",
    "town": "大鎌"
  },
  "6493152": {
    "zipcode": "6493152",
    "prefectureCode": "30",
    "prefectureNumber": 30,
    "prefecture": "和歌山県",
    "city": "西牟婁郡すさみ町",
    "town": "防己"
  },
  "6493153": {
    "zipcode": "6493153",
    "prefectureCode": "30",
    "prefectureNumber": 30,
    "prefecture": "和歌山県",
    "city": "西牟婁郡すさみ町",
    "town": "大谷"
  },
  "6493161": {
    "zipcode": "6493161",
    "prefectureCode": "30",
    "prefectureNumber": 30,
    "prefecture": "和歌山県",
    "city": "西牟婁郡すさみ町",
    "town": "佐本中"
  },
  "6493162": {
    "zipcode": "6493162",
    "prefectureCode": "30",
    "prefectureNumber": 30,
    "prefecture": "和歌山県",
    "city": "西牟婁郡すさみ町",
    "town": "佐本追川"
  },
  "6493163": {
    "zipcode": "6493163",
    "prefectureCode": "30",
    "prefectureNumber": 30,
    "prefecture": "和歌山県",
    "city": "西牟婁郡すさみ町",
    "town": "佐本西栗垣内"
  },
  "6493164": {
    "zipcode": "6493164",
    "prefectureCode": "30",
    "prefectureNumber": 30,
    "prefecture": "和歌山県",
    "city": "西牟婁郡すさみ町",
    "town": "佐本東栗垣内"
  },
  "6493165": {
    "zipcode": "6493165",
    "prefectureCode": "30",
    "prefectureNumber": 30,
    "prefecture": "和歌山県",
    "city": "西牟婁郡すさみ町",
    "town": "佐本中野"
  },
  "6493166": {
    "zipcode": "6493166",
    "prefectureCode": "30",
    "prefectureNumber": 30,
    "prefecture": "和歌山県",
    "city": "西牟婁郡すさみ町",
    "town": "佐本西野川"
  },
  "6493167": {
    "zipcode": "6493167",
    "prefectureCode": "30",
    "prefectureNumber": 30,
    "prefecture": "和歌山県",
    "city": "西牟婁郡すさみ町",
    "town": "佐本平野"
  },
  "6493168": {
    "zipcode": "6493168",
    "prefectureCode": "30",
    "prefectureNumber": 30,
    "prefecture": "和歌山県",
    "city": "西牟婁郡すさみ町",
    "town": "佐本根倉"
  },
  "6493169": {
    "zipcode": "6493169",
    "prefectureCode": "30",
    "prefectureNumber": 30,
    "prefecture": "和歌山県",
    "city": "西牟婁郡すさみ町",
    "town": "佐本深谷"
  },
  "6493500": {
    "zipcode": "6493500",
    "prefectureCode": "30",
    "prefectureNumber": 30,
    "prefecture": "和歌山県",
    "city": "東牟婁郡串本町",
    "town": "以下に掲載がない場合"
  },
  "6493501": {
    "zipcode": "6493501",
    "prefectureCode": "30",
    "prefectureNumber": 30,
    "prefecture": "和歌山県",
    "city": "東牟婁郡串本町",
    "town": "出雲"
  },
  "6493502": {
    "zipcode": "6493502",
    "prefectureCode": "30",
    "prefectureNumber": 30,
    "prefecture": "和歌山県",
    "city": "東牟婁郡串本町",
    "town": "潮岬"
  },
  "6493503": {
    "zipcode": "6493503",
    "prefectureCode": "30",
    "prefectureNumber": 30,
    "prefecture": "和歌山県",
    "city": "東牟婁郡串本町",
    "town": "串本"
  },
  "6493510": {
    "zipcode": "6493510",
    "prefectureCode": "30",
    "prefectureNumber": 30,
    "prefecture": "和歌山県",
    "city": "東牟婁郡串本町",
    "town": "サンゴ台"
  },
  "6493511": {
    "zipcode": "6493511",
    "prefectureCode": "30",
    "prefectureNumber": 30,
    "prefecture": "和歌山県",
    "city": "東牟婁郡串本町",
    "town": "鬮野川"
  },
  "6493512": {
    "zipcode": "6493512",
    "prefectureCode": "30",
    "prefectureNumber": 30,
    "prefecture": "和歌山県",
    "city": "東牟婁郡串本町",
    "town": "二色"
  },
  "6493513": {
    "zipcode": "6493513",
    "prefectureCode": "30",
    "prefectureNumber": 30,
    "prefecture": "和歌山県",
    "city": "東牟婁郡串本町",
    "town": "高富"
  },
  "6493514": {
    "zipcode": "6493514",
    "prefectureCode": "30",
    "prefectureNumber": 30,
    "prefecture": "和歌山県",
    "city": "東牟婁郡串本町",
    "town": "有田"
  },
  "6493515": {
    "zipcode": "6493515",
    "prefectureCode": "30",
    "prefectureNumber": 30,
    "prefecture": "和歌山県",
    "city": "東牟婁郡串本町",
    "town": "田並"
  },
  "6493516": {
    "zipcode": "6493516",
    "prefectureCode": "30",
    "prefectureNumber": 30,
    "prefecture": "和歌山県",
    "city": "東牟婁郡串本町",
    "town": "田並上"
  },
  "6493517": {
    "zipcode": "6493517",
    "prefectureCode": "30",
    "prefectureNumber": 30,
    "prefecture": "和歌山県",
    "city": "東牟婁郡串本町",
    "town": "吐生"
  },
  "6493518": {
    "zipcode": "6493518",
    "prefectureCode": "30",
    "prefectureNumber": 30,
    "prefecture": "和歌山県",
    "city": "東牟婁郡串本町",
    "town": "有田上"
  },
  "6493521": {
    "zipcode": "6493521",
    "prefectureCode": "30",
    "prefectureNumber": 30,
    "prefecture": "和歌山県",
    "city": "東牟婁郡串本町",
    "town": "江田"
  },
  "6493522": {
    "zipcode": "6493522",
    "prefectureCode": "30",
    "prefectureNumber": 30,
    "prefecture": "和歌山県",
    "city": "東牟婁郡串本町",
    "town": "田子"
  },
  "6493523": {
    "zipcode": "6493523",
    "prefectureCode": "30",
    "prefectureNumber": 30,
    "prefecture": "和歌山県",
    "city": "東牟婁郡串本町",
    "town": "和深"
  },
  "6493524": {
    "zipcode": "6493524",
    "prefectureCode": "30",
    "prefectureNumber": 30,
    "prefecture": "和歌山県",
    "city": "東牟婁郡串本町",
    "town": "里川"
  },
  "6493631": {
    "zipcode": "6493631",
    "prefectureCode": "30",
    "prefectureNumber": 30,
    "prefecture": "和歌山県",
    "city": "東牟婁郡串本町",
    "town": "樫野"
  },
  "6493632": {
    "zipcode": "6493632",
    "prefectureCode": "30",
    "prefectureNumber": 30,
    "prefecture": "和歌山県",
    "city": "東牟婁郡串本町",
    "town": "須江"
  },
  "6493633": {
    "zipcode": "6493633",
    "prefectureCode": "30",
    "prefectureNumber": 30,
    "prefecture": "和歌山県",
    "city": "東牟婁郡串本町",
    "town": "大島"
  },
  "6494100": {
    "zipcode": "6494100",
    "prefectureCode": "30",
    "prefectureNumber": 30,
    "prefecture": "和歌山県",
    "city": "東牟婁郡古座川町",
    "town": "以下に掲載がない場合"
  },
  "6494101": {
    "zipcode": "6494101",
    "prefectureCode": "30",
    "prefectureNumber": 30,
    "prefecture": "和歌山県",
    "city": "東牟婁郡古座川町",
    "town": "樫山"
  },
  "6494102": {
    "zipcode": "6494102",
    "prefectureCode": "30",
    "prefectureNumber": 30,
    "prefecture": "和歌山県",
    "city": "東牟婁郡古座川町",
    "town": "楠"
  },
  "6494103": {
    "zipcode": "6494103",
    "prefectureCode": "30",
    "prefectureNumber": 30,
    "prefecture": "和歌山県",
    "city": "東牟婁郡古座川町",
    "town": "池野山"
  },
  "6494104": {
    "zipcode": "6494104",
    "prefectureCode": "30",
    "prefectureNumber": 30,
    "prefecture": "和歌山県",
    "city": "東牟婁郡古座川町",
    "town": "高池"
  },
  "6494105": {
    "zipcode": "6494105",
    "prefectureCode": "30",
    "prefectureNumber": 30,
    "prefecture": "和歌山県",
    "city": "東牟婁郡古座川町",
    "town": "宇津木"
  },
  "6494106": {
    "zipcode": "6494106",
    "prefectureCode": "30",
    "prefectureNumber": 30,
    "prefecture": "和歌山県",
    "city": "東牟婁郡古座川町",
    "town": "月野瀬"
  },
  "6494111": {
    "zipcode": "6494111",
    "prefectureCode": "30",
    "prefectureNumber": 30,
    "prefecture": "和歌山県",
    "city": "東牟婁郡串本町",
    "town": "上田原"
  },
  "6494112": {
    "zipcode": "6494112",
    "prefectureCode": "30",
    "prefectureNumber": 30,
    "prefecture": "和歌山県",
    "city": "東牟婁郡串本町",
    "town": "田原"
  },
  "6494113": {
    "zipcode": "6494113",
    "prefectureCode": "30",
    "prefectureNumber": 30,
    "prefecture": "和歌山県",
    "city": "東牟婁郡串本町",
    "town": "津荷"
  },
  "6494114": {
    "zipcode": "6494114",
    "prefectureCode": "30",
    "prefectureNumber": 30,
    "prefecture": "和歌山県",
    "city": "東牟婁郡串本町",
    "town": "上野山"
  },
  "6494115": {
    "zipcode": "6494115",
    "prefectureCode": "30",
    "prefectureNumber": 30,
    "prefecture": "和歌山県",
    "city": "東牟婁郡串本町",
    "town": "古座"
  },
  "6494116": {
    "zipcode": "6494116",
    "prefectureCode": "30",
    "prefectureNumber": 30,
    "prefecture": "和歌山県",
    "city": "東牟婁郡串本町",
    "town": "中湊"
  },
  "6494117": {
    "zipcode": "6494117",
    "prefectureCode": "30",
    "prefectureNumber": 30,
    "prefecture": "和歌山県",
    "city": "東牟婁郡串本町",
    "town": "佐部"
  },
  "6494121": {
    "zipcode": "6494121",
    "prefectureCode": "30",
    "prefectureNumber": 30,
    "prefecture": "和歌山県",
    "city": "東牟婁郡串本町",
    "town": "古田"
  },
  "6494122": {
    "zipcode": "6494122",
    "prefectureCode": "30",
    "prefectureNumber": 30,
    "prefecture": "和歌山県",
    "city": "東牟婁郡串本町",
    "town": "西向"
  },
  "6494123": {
    "zipcode": "6494123",
    "prefectureCode": "30",
    "prefectureNumber": 30,
    "prefecture": "和歌山県",
    "city": "東牟婁郡串本町",
    "town": "神野川"
  },
  "6494124": {
    "zipcode": "6494124",
    "prefectureCode": "30",
    "prefectureNumber": 30,
    "prefecture": "和歌山県",
    "city": "東牟婁郡串本町",
    "town": "伊串"
  },
  "6494125": {
    "zipcode": "6494125",
    "prefectureCode": "30",
    "prefectureNumber": 30,
    "prefecture": "和歌山県",
    "city": "東牟婁郡串本町",
    "town": "姫"
  },
  "6494126": {
    "zipcode": "6494126",
    "prefectureCode": "30",
    "prefectureNumber": 30,
    "prefecture": "和歌山県",
    "city": "東牟婁郡串本町",
    "town": "姫川"
  },
  "6494211": {
    "zipcode": "6494211",
    "prefectureCode": "30",
    "prefectureNumber": 30,
    "prefecture": "和歌山県",
    "city": "東牟婁郡古座川町",
    "town": "小森川"
  },
  "6494212": {
    "zipcode": "6494212",
    "prefectureCode": "30",
    "prefectureNumber": 30,
    "prefecture": "和歌山県",
    "city": "東牟婁郡古座川町",
    "town": "田川"
  },
  "6494213": {
    "zipcode": "6494213",
    "prefectureCode": "30",
    "prefectureNumber": 30,
    "prefecture": "和歌山県",
    "city": "東牟婁郡古座川町",
    "town": "西赤木"
  },
  "6494214": {
    "zipcode": "6494214",
    "prefectureCode": "30",
    "prefectureNumber": 30,
    "prefecture": "和歌山県",
    "city": "東牟婁郡古座川町",
    "town": "宇筒井"
  },
  "6494215": {
    "zipcode": "6494215",
    "prefectureCode": "30",
    "prefectureNumber": 30,
    "prefecture": "和歌山県",
    "city": "東牟婁郡古座川町",
    "town": "大桑"
  },
  "6494216": {
    "zipcode": "6494216",
    "prefectureCode": "30",
    "prefectureNumber": 30,
    "prefecture": "和歌山県",
    "city": "東牟婁郡古座川町",
    "town": "小川"
  },
  "6494217": {
    "zipcode": "6494217",
    "prefectureCode": "30",
    "prefectureNumber": 30,
    "prefecture": "和歌山県",
    "city": "東牟婁郡古座川町",
    "town": "山手"
  },
  "6494221": {
    "zipcode": "6494221",
    "prefectureCode": "30",
    "prefectureNumber": 30,
    "prefecture": "和歌山県",
    "city": "東牟婁郡古座川町",
    "town": "中崎"
  },
  "6494222": {
    "zipcode": "6494222",
    "prefectureCode": "30",
    "prefectureNumber": 30,
    "prefecture": "和歌山県",
    "city": "東牟婁郡古座川町",
    "town": "直見"
  },
  "6494223": {
    "zipcode": "6494223",
    "prefectureCode": "30",
    "prefectureNumber": 30,
    "prefecture": "和歌山県",
    "city": "東牟婁郡古座川町",
    "town": "川口"
  },
  "6494224": {
    "zipcode": "6494224",
    "prefectureCode": "30",
    "prefectureNumber": 30,
    "prefecture": "和歌山県",
    "city": "東牟婁郡古座川町",
    "town": "高瀬"
  },
  "6494225": {
    "zipcode": "6494225",
    "prefectureCode": "30",
    "prefectureNumber": 30,
    "prefecture": "和歌山県",
    "city": "東牟婁郡古座川町",
    "town": "潤野"
  },
  "6494226": {
    "zipcode": "6494226",
    "prefectureCode": "30",
    "prefectureNumber": 30,
    "prefecture": "和歌山県",
    "city": "東牟婁郡古座川町",
    "town": "明神"
  },
  "6494227": {
    "zipcode": "6494227",
    "prefectureCode": "30",
    "prefectureNumber": 30,
    "prefecture": "和歌山県",
    "city": "東牟婁郡古座川町",
    "town": "大柳"
  },
  "6494231": {
    "zipcode": "6494231",
    "prefectureCode": "30",
    "prefectureNumber": 30,
    "prefecture": "和歌山県",
    "city": "東牟婁郡古座川町",
    "town": "鶴川"
  },
  "6494232": {
    "zipcode": "6494232",
    "prefectureCode": "30",
    "prefectureNumber": 30,
    "prefecture": "和歌山県",
    "city": "東牟婁郡古座川町",
    "town": "一雨"
  },
  "6494233": {
    "zipcode": "6494233",
    "prefectureCode": "30",
    "prefectureNumber": 30,
    "prefecture": "和歌山県",
    "city": "東牟婁郡古座川町",
    "town": "立合"
  },
  "6494234": {
    "zipcode": "6494234",
    "prefectureCode": "30",
    "prefectureNumber": 30,
    "prefecture": "和歌山県",
    "city": "東牟婁郡古座川町",
    "town": "峰"
  },
  "6494235": {
    "zipcode": "6494235",
    "prefectureCode": "30",
    "prefectureNumber": 30,
    "prefecture": "和歌山県",
    "city": "東牟婁郡古座川町",
    "town": "相瀬"
  },
  "6494236": {
    "zipcode": "6494236",
    "prefectureCode": "30",
    "prefectureNumber": 30,
    "prefecture": "和歌山県",
    "city": "東牟婁郡古座川町",
    "town": "立合川"
  },
  "6494441": {
    "zipcode": "6494441",
    "prefectureCode": "30",
    "prefectureNumber": 30,
    "prefecture": "和歌山県",
    "city": "東牟婁郡古座川町",
    "town": "添野川"
  },
  "6494442": {
    "zipcode": "6494442",
    "prefectureCode": "30",
    "prefectureNumber": 30,
    "prefecture": "和歌山県",
    "city": "東牟婁郡古座川町",
    "town": "佐田"
  },
  "6494443": {
    "zipcode": "6494443",
    "prefectureCode": "30",
    "prefectureNumber": 30,
    "prefecture": "和歌山県",
    "city": "東牟婁郡古座川町",
    "town": "真砂"
  },
  "6494444": {
    "zipcode": "6494444",
    "prefectureCode": "30",
    "prefectureNumber": 30,
    "prefecture": "和歌山県",
    "city": "東牟婁郡古座川町",
    "town": "長追"
  },
  "6494451": {
    "zipcode": "6494451",
    "prefectureCode": "30",
    "prefectureNumber": 30,
    "prefecture": "和歌山県",
    "city": "東牟婁郡古座川町",
    "town": "大川"
  },
  "6494452": {
    "zipcode": "6494452",
    "prefectureCode": "30",
    "prefectureNumber": 30,
    "prefecture": "和歌山県",
    "city": "東牟婁郡古座川町",
    "town": "蔵土"
  },
  "6494453": {
    "zipcode": "6494453",
    "prefectureCode": "30",
    "prefectureNumber": 30,
    "prefecture": "和歌山県",
    "city": "東牟婁郡古座川町",
    "town": "洞尾"
  },
  "6494454": {
    "zipcode": "6494454",
    "prefectureCode": "30",
    "prefectureNumber": 30,
    "prefecture": "和歌山県",
    "city": "東牟婁郡古座川町",
    "town": "南平"
  },
  "6494455": {
    "zipcode": "6494455",
    "prefectureCode": "30",
    "prefectureNumber": 30,
    "prefecture": "和歌山県",
    "city": "東牟婁郡古座川町",
    "town": "三尾川"
  },
  "6494561": {
    "zipcode": "6494561",
    "prefectureCode": "30",
    "prefectureNumber": 30,
    "prefecture": "和歌山県",
    "city": "東牟婁郡古座川町",
    "town": "西川"
  },
  "6494562": {
    "zipcode": "6494562",
    "prefectureCode": "30",
    "prefectureNumber": 30,
    "prefecture": "和歌山県",
    "city": "東牟婁郡古座川町",
    "town": "下露"
  },
  "6494563": {
    "zipcode": "6494563",
    "prefectureCode": "30",
    "prefectureNumber": 30,
    "prefecture": "和歌山県",
    "city": "東牟婁郡古座川町",
    "town": "平井"
  },
  "6494564": {
    "zipcode": "6494564",
    "prefectureCode": "30",
    "prefectureNumber": 30,
    "prefecture": "和歌山県",
    "city": "東牟婁郡古座川町",
    "town": "松根"
  },
  "6494565": {
    "zipcode": "6494565",
    "prefectureCode": "30",
    "prefectureNumber": 30,
    "prefecture": "和歌山県",
    "city": "東牟婁郡古座川町",
    "town": "成川"
  },
  "6495100": {
    "zipcode": "6495100",
    "prefectureCode": "30",
    "prefectureNumber": 30,
    "prefecture": "和歌山県",
    "city": "東牟婁郡太地町",
    "town": "以下に掲載がない場合"
  },
  "6495131": {
    "zipcode": "6495131",
    "prefectureCode": "30",
    "prefectureNumber": 30,
    "prefecture": "和歌山県",
    "city": "東牟婁郡那智勝浦町",
    "town": "西中野川"
  },
  "6495132": {
    "zipcode": "6495132",
    "prefectureCode": "30",
    "prefectureNumber": 30,
    "prefecture": "和歌山県",
    "city": "東牟婁郡那智勝浦町",
    "town": "中ノ川"
  },
  "6495133": {
    "zipcode": "6495133",
    "prefectureCode": "30",
    "prefectureNumber": 30,
    "prefecture": "和歌山県",
    "city": "東牟婁郡那智勝浦町",
    "town": "井鹿"
  },
  "6495134": {
    "zipcode": "6495134",
    "prefectureCode": "30",
    "prefectureNumber": 30,
    "prefecture": "和歌山県",
    "city": "東牟婁郡那智勝浦町",
    "town": "南大居"
  },
  "6495135": {
    "zipcode": "6495135",
    "prefectureCode": "30",
    "prefectureNumber": 30,
    "prefecture": "和歌山県",
    "city": "東牟婁郡那智勝浦町",
    "town": "高遠井"
  },
  "6495136": {
    "zipcode": "6495136",
    "prefectureCode": "30",
    "prefectureNumber": 30,
    "prefecture": "和歌山県",
    "city": "東牟婁郡那智勝浦町",
    "town": "長井"
  },
  "6495137": {
    "zipcode": "6495137",
    "prefectureCode": "30",
    "prefectureNumber": 30,
    "prefecture": "和歌山県",
    "city": "東牟婁郡那智勝浦町",
    "town": "小匠"
  },
  "6495141": {
    "zipcode": "6495141",
    "prefectureCode": "30",
    "prefectureNumber": 30,
    "prefecture": "和歌山県",
    "city": "東牟婁郡那智勝浦町",
    "town": "市屋（その他）"
  },
  "6495142": {
    "zipcode": "6495142",
    "prefectureCode": "30",
    "prefectureNumber": 30,
    "prefecture": "和歌山県",
    "city": "東牟婁郡那智勝浦町",
    "town": "下里"
  },
  "6495143": {
    "zipcode": "6495143",
    "prefectureCode": "30",
    "prefectureNumber": 30,
    "prefecture": "和歌山県",
    "city": "東牟婁郡那智勝浦町",
    "town": "八尺鏡野"
  },
  "6495144": {
    "zipcode": "6495144",
    "prefectureCode": "30",
    "prefectureNumber": 30,
    "prefecture": "和歌山県",
    "city": "東牟婁郡那智勝浦町",
    "town": "粉白"
  },
  "6495145": {
    "zipcode": "6495145",
    "prefectureCode": "30",
    "prefectureNumber": 30,
    "prefecture": "和歌山県",
    "city": "東牟婁郡那智勝浦町",
    "town": "浦神"
  },
  "6495146": {
    "zipcode": "6495146",
    "prefectureCode": "30",
    "prefectureNumber": 30,
    "prefecture": "和歌山県",
    "city": "東牟婁郡那智勝浦町",
    "town": "中里"
  },
  "6495147": {
    "zipcode": "6495147",
    "prefectureCode": "30",
    "prefectureNumber": 30,
    "prefecture": "和歌山県",
    "city": "東牟婁郡那智勝浦町",
    "town": "庄"
  },
  "6495148": {
    "zipcode": "6495148",
    "prefectureCode": "30",
    "prefectureNumber": 30,
    "prefecture": "和歌山県",
    "city": "東牟婁郡那智勝浦町",
    "town": "下和田"
  },
  "6495171": {
    "zipcode": "6495171",
    "prefectureCode": "30",
    "prefectureNumber": 30,
    "prefecture": "和歌山県",
    "city": "東牟婁郡太地町",
    "town": "太地（その他）"
  },
  "6495172": {
    "zipcode": "6495172",
    "prefectureCode": "30",
    "prefectureNumber": 30,
    "prefecture": "和歌山県",
    "city": "東牟婁郡太地町",
    "town": "森浦"
  },
  "6495300": {
    "zipcode": "6495300",
    "prefectureCode": "30",
    "prefectureNumber": 30,
    "prefecture": "和歌山県",
    "city": "東牟婁郡那智勝浦町",
    "town": "以下に掲載がない場合"
  },
  "6495301": {
    "zipcode": "6495301",
    "prefectureCode": "30",
    "prefectureNumber": 30,
    "prefecture": "和歌山県",
    "city": "東牟婁郡那智勝浦町",
    "town": "那智山"
  },
  "6495302": {
    "zipcode": "6495302",
    "prefectureCode": "30",
    "prefectureNumber": 30,
    "prefecture": "和歌山県",
    "city": "東牟婁郡那智勝浦町",
    "town": "市野々"
  },
  "6495303": {
    "zipcode": "6495303",
    "prefectureCode": "30",
    "prefectureNumber": 30,
    "prefecture": "和歌山県",
    "city": "東牟婁郡那智勝浦町",
    "town": "井関"
  },
  "6495304": {
    "zipcode": "6495304",
    "prefectureCode": "30",
    "prefectureNumber": 30,
    "prefecture": "和歌山県",
    "city": "東牟婁郡那智勝浦町",
    "town": "川関"
  },
  "6495311": {
    "zipcode": "6495311",
    "prefectureCode": "30",
    "prefectureNumber": 30,
    "prefecture": "和歌山県",
    "city": "東牟婁郡那智勝浦町",
    "town": "高津気"
  },
  "6495312": {
    "zipcode": "6495312",
    "prefectureCode": "30",
    "prefectureNumber": 30,
    "prefecture": "和歌山県",
    "city": "東牟婁郡那智勝浦町",
    "town": "宇久井"
  },
  "6495313": {
    "zipcode": "6495313",
    "prefectureCode": "30",
    "prefectureNumber": 30,
    "prefecture": "和歌山県",
    "city": "東牟婁郡那智勝浦町",
    "town": "狗子ノ川"
  },
  "6495314": {
    "zipcode": "6495314",
    "prefectureCode": "30",
    "prefectureNumber": 30,
    "prefecture": "和歌山県",
    "city": "東牟婁郡那智勝浦町",
    "town": "浜ノ宮"
  },
  "6495331": {
    "zipcode": "6495331",
    "prefectureCode": "30",
    "prefectureNumber": 30,
    "prefecture": "和歌山県",
    "city": "東牟婁郡那智勝浦町",
    "town": "天満"
  },
  "6495332": {
    "zipcode": "6495332",
    "prefectureCode": "30",
    "prefectureNumber": 30,
    "prefecture": "和歌山県",
    "city": "東牟婁郡那智勝浦町",
    "town": "朝日"
  },
  "6495333": {
    "zipcode": "6495333",
    "prefectureCode": "30",
    "prefectureNumber": 30,
    "prefecture": "和歌山県",
    "city": "東牟婁郡那智勝浦町",
    "town": "北浜"
  },
  "6495334": {
    "zipcode": "6495334",
    "prefectureCode": "30",
    "prefectureNumber": 30,
    "prefecture": "和歌山県",
    "city": "東牟婁郡那智勝浦町",
    "town": "勝浦"
  },
  "6495335": {
    "zipcode": "6495335",
    "prefectureCode": "30",
    "prefectureNumber": 30,
    "prefecture": "和歌山県",
    "city": "東牟婁郡那智勝浦町",
    "town": "築地"
  },
  "6495336": {
    "zipcode": "6495336",
    "prefectureCode": "30",
    "prefectureNumber": 30,
    "prefecture": "和歌山県",
    "city": "東牟婁郡那智勝浦町",
    "town": "湯川"
  },
  "6495337": {
    "zipcode": "6495337",
    "prefectureCode": "30",
    "prefectureNumber": 30,
    "prefecture": "和歌山県",
    "city": "東牟婁郡那智勝浦町",
    "town": "橋ノ川"
  },
  "6495338": {
    "zipcode": "6495338",
    "prefectureCode": "30",
    "prefectureNumber": 30,
    "prefecture": "和歌山県",
    "city": "東牟婁郡那智勝浦町",
    "town": "二河"
  },
  "6495339": {
    "zipcode": "6495339",
    "prefectureCode": "30",
    "prefectureNumber": 30,
    "prefecture": "和歌山県",
    "city": "東牟婁郡那智勝浦町",
    "town": "市屋（大浦、１０５４−９）"
  },
  "6495371": {
    "zipcode": "6495371",
    "prefectureCode": "30",
    "prefectureNumber": 30,
    "prefecture": "和歌山県",
    "city": "東牟婁郡太地町",
    "town": "太地（３７７２〜３９０４番地）"
  },
  "6495451": {
    "zipcode": "6495451",
    "prefectureCode": "30",
    "prefectureNumber": 30,
    "prefecture": "和歌山県",
    "city": "東牟婁郡那智勝浦町",
    "town": "口色川"
  },
  "6495452": {
    "zipcode": "6495452",
    "prefectureCode": "30",
    "prefectureNumber": 30,
    "prefecture": "和歌山県",
    "city": "東牟婁郡那智勝浦町",
    "town": "小阪"
  },
  "6495453": {
    "zipcode": "6495453",
    "prefectureCode": "30",
    "prefectureNumber": 30,
    "prefecture": "和歌山県",
    "city": "東牟婁郡那智勝浦町",
    "town": "南平野"
  },
  "6495454": {
    "zipcode": "6495454",
    "prefectureCode": "30",
    "prefectureNumber": 30,
    "prefecture": "和歌山県",
    "city": "東牟婁郡那智勝浦町",
    "town": "熊瀬川"
  },
  "6495461": {
    "zipcode": "6495461",
    "prefectureCode": "30",
    "prefectureNumber": 30,
    "prefecture": "和歌山県",
    "city": "東牟婁郡那智勝浦町",
    "town": "大野"
  },
  "6495462": {
    "zipcode": "6495462",
    "prefectureCode": "30",
    "prefectureNumber": 30,
    "prefecture": "和歌山県",
    "city": "東牟婁郡那智勝浦町",
    "town": "田垣内"
  },
  "6495463": {
    "zipcode": "6495463",
    "prefectureCode": "30",
    "prefectureNumber": 30,
    "prefecture": "和歌山県",
    "city": "東牟婁郡那智勝浦町",
    "town": "高野"
  },
  "6495464": {
    "zipcode": "6495464",
    "prefectureCode": "30",
    "prefectureNumber": 30,
    "prefecture": "和歌山県",
    "city": "東牟婁郡那智勝浦町",
    "town": "直柱"
  },
  "6495465": {
    "zipcode": "6495465",
    "prefectureCode": "30",
    "prefectureNumber": 30,
    "prefecture": "和歌山県",
    "city": "東牟婁郡那智勝浦町",
    "town": "坂足"
  },
  "6495466": {
    "zipcode": "6495466",
    "prefectureCode": "30",
    "prefectureNumber": 30,
    "prefecture": "和歌山県",
    "city": "東牟婁郡那智勝浦町",
    "town": "樫原"
  },
  "6496101": {
    "zipcode": "6496101",
    "prefectureCode": "30",
    "prefectureNumber": 30,
    "prefecture": "和歌山県",
    "city": "紀の川市",
    "town": "桃山町善田"
  },
  "6496102": {
    "zipcode": "6496102",
    "prefectureCode": "30",
    "prefectureNumber": 30,
    "prefecture": "和歌山県",
    "city": "紀の川市",
    "town": "桃山町黒川"
  },
  "6496103": {
    "zipcode": "6496103",
    "prefectureCode": "30",
    "prefectureNumber": 30,
    "prefecture": "和歌山県",
    "city": "紀の川市",
    "town": "桃山町野田原"
  },
  "6496104": {
    "zipcode": "6496104",
    "prefectureCode": "30",
    "prefectureNumber": 30,
    "prefecture": "和歌山県",
    "city": "紀の川市",
    "town": "桃山町脇谷"
  },
  "6496105": {
    "zipcode": "6496105",
    "prefectureCode": "30",
    "prefectureNumber": 30,
    "prefecture": "和歌山県",
    "city": "紀の川市",
    "town": "桃山町大原"
  },
  "6496111": {
    "zipcode": "6496111",
    "prefectureCode": "30",
    "prefectureNumber": 30,
    "prefecture": "和歌山県",
    "city": "紀の川市",
    "town": "桃山町最上"
  },
  "6496112": {
    "zipcode": "6496112",
    "prefectureCode": "30",
    "prefectureNumber": 30,
    "prefecture": "和歌山県",
    "city": "紀の川市",
    "town": "桃山町調月"
  },
  "6496121": {
    "zipcode": "6496121",
    "prefectureCode": "30",
    "prefectureNumber": 30,
    "prefecture": "和歌山県",
    "city": "紀の川市",
    "town": "桃山町段新田"
  },
  "6496122": {
    "zipcode": "6496122",
    "prefectureCode": "30",
    "prefectureNumber": 30,
    "prefecture": "和歌山県",
    "city": "紀の川市",
    "town": "桃山町元"
  },
  "6496123": {
    "zipcode": "6496123",
    "prefectureCode": "30",
    "prefectureNumber": 30,
    "prefecture": "和歌山県",
    "city": "紀の川市",
    "town": "桃山町神田"
  },
  "6496124": {
    "zipcode": "6496124",
    "prefectureCode": "30",
    "prefectureNumber": 30,
    "prefecture": "和歌山県",
    "city": "紀の川市",
    "town": "桃山町市場"
  },
  "6496125": {
    "zipcode": "6496125",
    "prefectureCode": "30",
    "prefectureNumber": 30,
    "prefecture": "和歌山県",
    "city": "紀の川市",
    "town": "桃山町段"
  },
  "6496161": {
    "zipcode": "6496161",
    "prefectureCode": "30",
    "prefectureNumber": 30,
    "prefecture": "和歌山県",
    "city": "紀の川市",
    "town": "高野"
  },
  "6496162": {
    "zipcode": "6496162",
    "prefectureCode": "30",
    "prefectureNumber": 30,
    "prefecture": "和歌山県",
    "city": "紀の川市",
    "town": "竹房（４５１番地以上）"
  },
  "6496200": {
    "zipcode": "6496200",
    "prefectureCode": "30",
    "prefectureNumber": 30,
    "prefecture": "和歌山県",
    "city": "岩出市",
    "town": "以下に掲載がない場合"
  },
  "6496201": {
    "zipcode": "6496201",
    "prefectureCode": "30",
    "prefectureNumber": 30,
    "prefecture": "和歌山県",
    "city": "岩出市",
    "town": "押川"
  },
  "6496202": {
    "zipcode": "6496202",
    "prefectureCode": "30",
    "prefectureNumber": 30,
    "prefecture": "和歌山県",
    "city": "岩出市",
    "town": "根来"
  },
  "6496203": {
    "zipcode": "6496203",
    "prefectureCode": "30",
    "prefectureNumber": 30,
    "prefecture": "和歌山県",
    "city": "岩出市",
    "town": "桜台"
  },
  "6496204": {
    "zipcode": "6496204",
    "prefectureCode": "30",
    "prefectureNumber": 30,
    "prefecture": "和歌山県",
    "city": "岩出市",
    "town": "今中"
  },
  "6496205": {
    "zipcode": "6496205",
    "prefectureCode": "30",
    "prefectureNumber": 30,
    "prefecture": "和歌山県",
    "city": "岩出市",
    "town": "森"
  },
  "6496206": {
    "zipcode": "6496206",
    "prefectureCode": "30",
    "prefectureNumber": 30,
    "prefecture": "和歌山県",
    "city": "岩出市",
    "town": "堀口"
  },
  "6496207": {
    "zipcode": "6496207",
    "prefectureCode": "30",
    "prefectureNumber": 30,
    "prefecture": "和歌山県",
    "city": "岩出市",
    "town": "尼ケ辻"
  },
  "6496208": {
    "zipcode": "6496208",
    "prefectureCode": "30",
    "prefectureNumber": 30,
    "prefecture": "和歌山県",
    "city": "岩出市",
    "town": "今畑"
  },
  "6496211": {
    "zipcode": "6496211",
    "prefectureCode": "30",
    "prefectureNumber": 30,
    "prefecture": "和歌山県",
    "city": "岩出市",
    "town": "東坂本"
  },
  "6496212": {
    "zipcode": "6496212",
    "prefectureCode": "30",
    "prefectureNumber": 30,
    "prefecture": "和歌山県",
    "city": "岩出市",
    "town": "新田広芝"
  },
  "6496213": {
    "zipcode": "6496213",
    "prefectureCode": "30",
    "prefectureNumber": 30,
    "prefecture": "和歌山県",
    "city": "岩出市",
    "town": "西国分"
  },
  "6496214": {
    "zipcode": "6496214",
    "prefectureCode": "30",
    "prefectureNumber": 30,
    "prefecture": "和歌山県",
    "city": "岩出市",
    "town": "水栖"
  },
  "6496215": {
    "zipcode": "6496215",
    "prefectureCode": "30",
    "prefectureNumber": 30,
    "prefecture": "和歌山県",
    "city": "岩出市",
    "town": "中迫"
  },
  "6496216": {
    "zipcode": "6496216",
    "prefectureCode": "30",
    "prefectureNumber": 30,
    "prefecture": "和歌山県",
    "city": "岩出市",
    "town": "野上野"
  },
  "6496217": {
    "zipcode": "6496217",
    "prefectureCode": "30",
    "prefectureNumber": 30,
    "prefecture": "和歌山県",
    "city": "岩出市",
    "town": "山田"
  },
  "6496218": {
    "zipcode": "6496218",
    "prefectureCode": "30",
    "prefectureNumber": 30,
    "prefecture": "和歌山県",
    "city": "岩出市",
    "town": "南大池"
  },
  "6496219": {
    "zipcode": "6496219",
    "prefectureCode": "30",
    "prefectureNumber": 30,
    "prefecture": "和歌山県",
    "city": "岩出市",
    "town": "北大池"
  },
  "6496221": {
    "zipcode": "6496221",
    "prefectureCode": "30",
    "prefectureNumber": 30,
    "prefecture": "和歌山県",
    "city": "岩出市",
    "town": "溝川"
  },
  "6496222": {
    "zipcode": "6496222",
    "prefectureCode": "30",
    "prefectureNumber": 30,
    "prefecture": "和歌山県",
    "city": "岩出市",
    "town": "岡田"
  },
  "6496223": {
    "zipcode": "6496223",
    "prefectureCode": "30",
    "prefectureNumber": 30,
    "prefecture": "和歌山県",
    "city": "岩出市",
    "town": "高塚"
  },
  "6496224": {
    "zipcode": "6496224",
    "prefectureCode": "30",
    "prefectureNumber": 30,
    "prefecture": "和歌山県",
    "city": "岩出市",
    "town": "山崎"
  },
  "6496225": {
    "zipcode": "6496225",
    "prefectureCode": "30",
    "prefectureNumber": 30,
    "prefecture": "和歌山県",
    "city": "岩出市",
    "town": "船戸"
  },
  "6496226": {
    "zipcode": "6496226",
    "prefectureCode": "30",
    "prefectureNumber": 30,
    "prefecture": "和歌山県",
    "city": "岩出市",
    "town": "宮"
  },
  "6496227": {
    "zipcode": "6496227",
    "prefectureCode": "30",
    "prefectureNumber": 30,
    "prefecture": "和歌山県",
    "city": "岩出市",
    "town": "清水"
  },
  "6496228": {
    "zipcode": "6496228",
    "prefectureCode": "30",
    "prefectureNumber": 30,
    "prefecture": "和歌山県",
    "city": "岩出市",
    "town": "大町"
  },
  "6496231": {
    "zipcode": "6496231",
    "prefectureCode": "30",
    "prefectureNumber": 30,
    "prefecture": "和歌山県",
    "city": "岩出市",
    "town": "川尻"
  },
  "6496232": {
    "zipcode": "6496232",
    "prefectureCode": "30",
    "prefectureNumber": 30,
    "prefecture": "和歌山県",
    "city": "岩出市",
    "town": "荊本"
  },
  "6496233": {
    "zipcode": "6496233",
    "prefectureCode": "30",
    "prefectureNumber": 30,
    "prefecture": "和歌山県",
    "city": "岩出市",
    "town": "備前"
  },
  "6496234": {
    "zipcode": "6496234",
    "prefectureCode": "30",
    "prefectureNumber": 30,
    "prefecture": "和歌山県",
    "city": "岩出市",
    "town": "高瀬"
  },
  "6496235": {
    "zipcode": "6496235",
    "prefectureCode": "30",
    "prefectureNumber": 30,
    "prefecture": "和歌山県",
    "city": "岩出市",
    "town": "西野"
  },
  "6496236": {
    "zipcode": "6496236",
    "prefectureCode": "30",
    "prefectureNumber": 30,
    "prefecture": "和歌山県",
    "city": "岩出市",
    "town": "曽屋"
  },
  "6496241": {
    "zipcode": "6496241",
    "prefectureCode": "30",
    "prefectureNumber": 30,
    "prefecture": "和歌山県",
    "city": "岩出市",
    "town": "波分"
  },
  "6496242": {
    "zipcode": "6496242",
    "prefectureCode": "30",
    "prefectureNumber": 30,
    "prefecture": "和歌山県",
    "city": "岩出市",
    "town": "赤垣内"
  },
  "6496243": {
    "zipcode": "6496243",
    "prefectureCode": "30",
    "prefectureNumber": 30,
    "prefecture": "和歌山県",
    "city": "岩出市",
    "town": "金屋"
  },
  "6496244": {
    "zipcode": "6496244",
    "prefectureCode": "30",
    "prefectureNumber": 30,
    "prefecture": "和歌山県",
    "city": "岩出市",
    "town": "畑毛"
  },
  "6496245": {
    "zipcode": "6496245",
    "prefectureCode": "30",
    "prefectureNumber": 30,
    "prefecture": "和歌山県",
    "city": "岩出市",
    "town": "中島"
  },
  "6496246": {
    "zipcode": "6496246",
    "prefectureCode": "30",
    "prefectureNumber": 30,
    "prefecture": "和歌山県",
    "city": "岩出市",
    "town": "吉田"
  },
  "6496248": {
    "zipcode": "6496248",
    "prefectureCode": "30",
    "prefectureNumber": 30,
    "prefecture": "和歌山県",
    "city": "岩出市",
    "town": "湯窪"
  },
  "6496251": {
    "zipcode": "6496251",
    "prefectureCode": "30",
    "prefectureNumber": 30,
    "prefecture": "和歌山県",
    "city": "岩出市",
    "town": "境谷"
  },
  "6496252": {
    "zipcode": "6496252",
    "prefectureCode": "30",
    "prefectureNumber": 30,
    "prefecture": "和歌山県",
    "city": "岩出市",
    "town": "安上"
  },
  "6496253": {
    "zipcode": "6496253",
    "prefectureCode": "30",
    "prefectureNumber": 30,
    "prefecture": "和歌山県",
    "city": "岩出市",
    "town": "紀泉台"
  },
  "6496254": {
    "zipcode": "6496254",
    "prefectureCode": "30",
    "prefectureNumber": 30,
    "prefecture": "和歌山県",
    "city": "岩出市",
    "town": "原"
  },
  "6496255": {
    "zipcode": "6496255",
    "prefectureCode": "30",
    "prefectureNumber": 30,
    "prefecture": "和歌山県",
    "city": "岩出市",
    "town": "西安上"
  },
  "6496256": {
    "zipcode": "6496256",
    "prefectureCode": "30",
    "prefectureNumber": 30,
    "prefecture": "和歌山県",
    "city": "岩出市",
    "town": "金池"
  },
  "6496257": {
    "zipcode": "6496257",
    "prefectureCode": "30",
    "prefectureNumber": 30,
    "prefecture": "和歌山県",
    "city": "岩出市",
    "town": "相谷"
  },
  "6496258": {
    "zipcode": "6496258",
    "prefectureCode": "30",
    "prefectureNumber": 30,
    "prefecture": "和歌山県",
    "city": "岩出市",
    "town": "山"
  },
  "6496261": {
    "zipcode": "6496261",
    "prefectureCode": "30",
    "prefectureNumber": 30,
    "prefecture": "和歌山県",
    "city": "和歌山市",
    "town": "小倉"
  },
  "6496262": {
    "zipcode": "6496262",
    "prefectureCode": "30",
    "prefectureNumber": 30,
    "prefecture": "和歌山県",
    "city": "和歌山市",
    "town": "上三毛"
  },
  "6496263": {
    "zipcode": "6496263",
    "prefectureCode": "30",
    "prefectureNumber": 30,
    "prefecture": "和歌山県",
    "city": "和歌山市",
    "town": "下三毛"
  },
  "6496264": {
    "zipcode": "6496264",
    "prefectureCode": "30",
    "prefectureNumber": 30,
    "prefecture": "和歌山県",
    "city": "和歌山市",
    "town": "新庄"
  },
  "6496271": {
    "zipcode": "6496271",
    "prefectureCode": "30",
    "prefectureNumber": 30,
    "prefecture": "和歌山県",
    "city": "和歌山市",
    "town": "満屋"
  },
  "6496272": {
    "zipcode": "6496272",
    "prefectureCode": "30",
    "prefectureNumber": 30,
    "prefecture": "和歌山県",
    "city": "和歌山市",
    "town": "大垣内"
  },
  "6496273": {
    "zipcode": "6496273",
    "prefectureCode": "30",
    "prefectureNumber": 30,
    "prefecture": "和歌山県",
    "city": "和歌山市",
    "town": "東田中"
  },
  "6496274": {
    "zipcode": "6496274",
    "prefectureCode": "30",
    "prefectureNumber": 30,
    "prefecture": "和歌山県",
    "city": "和歌山市",
    "town": "金谷"
  },
  "6496275": {
    "zipcode": "6496275",
    "prefectureCode": "30",
    "prefectureNumber": 30,
    "prefecture": "和歌山県",
    "city": "和歌山市",
    "town": "吐前"
  },
  "6496301": {
    "zipcode": "6496301",
    "prefectureCode": "30",
    "prefectureNumber": 30,
    "prefecture": "和歌山県",
    "city": "和歌山市",
    "town": "滝畑"
  },
  "6496302": {
    "zipcode": "6496302",
    "prefectureCode": "30",
    "prefectureNumber": 30,
    "prefecture": "和歌山県",
    "city": "和歌山市",
    "town": "湯屋谷"
  },
  "6496303": {
    "zipcode": "6496303",
    "prefectureCode": "30",
    "prefectureNumber": 30,
    "prefecture": "和歌山県",
    "city": "和歌山市",
    "town": "平岡"
  },
  "6496304": {
    "zipcode": "6496304",
    "prefectureCode": "30",
    "prefectureNumber": 30,
    "prefecture": "和歌山県",
    "city": "和歌山市",
    "town": "中筋日延"
  },
  "6496305": {
    "zipcode": "6496305",
    "prefectureCode": "30",
    "prefectureNumber": 30,
    "prefecture": "和歌山県",
    "city": "和歌山市",
    "town": "谷"
  },
  "6496306": {
    "zipcode": "6496306",
    "prefectureCode": "30",
    "prefectureNumber": 30,
    "prefecture": "和歌山県",
    "city": "和歌山市",
    "town": "上黒谷"
  },
  "6496307": {
    "zipcode": "6496307",
    "prefectureCode": "30",
    "prefectureNumber": 30,
    "prefecture": "和歌山県",
    "city": "和歌山市",
    "town": "北別所"
  },
  "6496308": {
    "zipcode": "6496308",
    "prefectureCode": "30",
    "prefectureNumber": 30,
    "prefecture": "和歌山県",
    "city": "和歌山市",
    "town": "落合"
  },
  "6496311": {
    "zipcode": "6496311",
    "prefectureCode": "30",
    "prefectureNumber": 30,
    "prefecture": "和歌山県",
    "city": "和歌山市",
    "town": "里"
  },
  "6496312": {
    "zipcode": "6496312",
    "prefectureCode": "30",
    "prefectureNumber": 30,
    "prefecture": "和歌山県",
    "city": "和歌山市",
    "town": "川辺"
  },
  "6496313": {
    "zipcode": "6496313",
    "prefectureCode": "30",
    "prefectureNumber": 30,
    "prefecture": "和歌山県",
    "city": "和歌山市",
    "town": "楠本"
  },
  "6496314": {
    "zipcode": "6496314",
    "prefectureCode": "30",
    "prefectureNumber": 30,
    "prefecture": "和歌山県",
    "city": "和歌山市",
    "town": "島"
  },
  "6496315": {
    "zipcode": "6496315",
    "prefectureCode": "30",
    "prefectureNumber": 30,
    "prefecture": "和歌山県",
    "city": "和歌山市",
    "town": "神波"
  },
  "6496316": {
    "zipcode": "6496316",
    "prefectureCode": "30",
    "prefectureNumber": 30,
    "prefecture": "和歌山県",
    "city": "和歌山市",
    "town": "上野"
  },
  "6496317": {
    "zipcode": "6496317",
    "prefectureCode": "30",
    "prefectureNumber": 30,
    "prefecture": "和歌山県",
    "city": "和歌山市",
    "town": "山口西"
  },
  "6496318": {
    "zipcode": "6496318",
    "prefectureCode": "30",
    "prefectureNumber": 30,
    "prefecture": "和歌山県",
    "city": "和歌山市",
    "town": "藤田"
  },
  "6496321": {
    "zipcode": "6496321",
    "prefectureCode": "30",
    "prefectureNumber": 30,
    "prefecture": "和歌山県",
    "city": "和歌山市",
    "town": "布施屋"
  },
  "6496322": {
    "zipcode": "6496322",
    "prefectureCode": "30",
    "prefectureNumber": 30,
    "prefecture": "和歌山県",
    "city": "和歌山市",
    "town": "和佐関戸"
  },
  "6496323": {
    "zipcode": "6496323",
    "prefectureCode": "30",
    "prefectureNumber": 30,
    "prefecture": "和歌山県",
    "city": "和歌山市",
    "town": "井ノ口"
  },
  "6496324": {
    "zipcode": "6496324",
    "prefectureCode": "30",
    "prefectureNumber": 30,
    "prefecture": "和歌山県",
    "city": "和歌山市",
    "town": "祢宜"
  },
  "6496325": {
    "zipcode": "6496325",
    "prefectureCode": "30",
    "prefectureNumber": 30,
    "prefecture": "和歌山県",
    "city": "和歌山市",
    "town": "下和佐"
  },
  "6496326": {
    "zipcode": "6496326",
    "prefectureCode": "30",
    "prefectureNumber": 30,
    "prefecture": "和歌山県",
    "city": "和歌山市",
    "town": "和佐中"
  },
  "6496331": {
    "zipcode": "6496331",
    "prefectureCode": "30",
    "prefectureNumber": 30,
    "prefecture": "和歌山県",
    "city": "和歌山市",
    "town": "北野"
  },
  "6496332": {
    "zipcode": "6496332",
    "prefectureCode": "30",
    "prefectureNumber": 30,
    "prefecture": "和歌山県",
    "city": "和歌山市",
    "town": "宇田森"
  },
  "6496333": {
    "zipcode": "6496333",
    "prefectureCode": "30",
    "prefectureNumber": 30,
    "prefecture": "和歌山県",
    "city": "和歌山市",
    "town": "永穂"
  },
  "6496334": {
    "zipcode": "6496334",
    "prefectureCode": "30",
    "prefectureNumber": 30,
    "prefecture": "和歌山県",
    "city": "和歌山市",
    "town": "北"
  },
  "6496335": {
    "zipcode": "6496335",
    "prefectureCode": "30",
    "prefectureNumber": 30,
    "prefecture": "和歌山県",
    "city": "和歌山市",
    "town": "西田井"
  },
  "6496336": {
    "zipcode": "6496336",
    "prefectureCode": "30",
    "prefectureNumber": 30,
    "prefecture": "和歌山県",
    "city": "和歌山市",
    "town": "小豆島"
  },
  "6496337": {
    "zipcode": "6496337",
    "prefectureCode": "30",
    "prefectureNumber": 30,
    "prefecture": "和歌山県",
    "city": "和歌山市",
    "town": "田屋"
  },
  "6496338": {
    "zipcode": "6496338",
    "prefectureCode": "30",
    "prefectureNumber": 30,
    "prefecture": "和歌山県",
    "city": "和歌山市",
    "town": "府中"
  },
  "6496339": {
    "zipcode": "6496339",
    "prefectureCode": "30",
    "prefectureNumber": 30,
    "prefecture": "和歌山県",
    "city": "和歌山市",
    "town": "弘西"
  },
  "6496400": {
    "zipcode": "6496400",
    "prefectureCode": "30",
    "prefectureNumber": 30,
    "prefecture": "和歌山県",
    "city": "紀の川市",
    "town": "以下に掲載がない場合"
  },
  "6496401": {
    "zipcode": "6496401",
    "prefectureCode": "30",
    "prefectureNumber": 30,
    "prefecture": "和歌山県",
    "city": "紀の川市",
    "town": "重行"
  },
  "6496402": {
    "zipcode": "6496402",
    "prefectureCode": "30",
    "prefectureNumber": 30,
    "prefecture": "和歌山県",
    "city": "紀の川市",
    "town": "北勢田"
  },
  "6496403": {
    "zipcode": "6496403",
    "prefectureCode": "30",
    "prefectureNumber": 30,
    "prefecture": "和歌山県",
    "city": "紀の川市",
    "town": "南勢田"
  },
  "6496404": {
    "zipcode": "6496404",
    "prefectureCode": "30",
    "prefectureNumber": 30,
    "prefecture": "和歌山県",
    "city": "紀の川市",
    "town": "赤尾"
  },
  "6496405": {
    "zipcode": "6496405",
    "prefectureCode": "30",
    "prefectureNumber": 30,
    "prefecture": "和歌山県",
    "city": "紀の川市",
    "town": "東大井"
  },
  "6496406": {
    "zipcode": "6496406",
    "prefectureCode": "30",
    "prefectureNumber": 30,
    "prefecture": "和歌山県",
    "city": "紀の川市",
    "town": "北大井"
  },
  "6496407": {
    "zipcode": "6496407",
    "prefectureCode": "30",
    "prefectureNumber": 30,
    "prefecture": "和歌山県",
    "city": "紀の川市",
    "town": "池田新"
  },
  "6496411": {
    "zipcode": "6496411",
    "prefectureCode": "30",
    "prefectureNumber": 30,
    "prefecture": "和歌山県",
    "city": "紀の川市",
    "town": "広野"
  },
  "6496412": {
    "zipcode": "6496412",
    "prefectureCode": "30",
    "prefectureNumber": 30,
    "prefecture": "和歌山県",
    "city": "紀の川市",
    "town": "黒土"
  },
  "6496413": {
    "zipcode": "6496413",
    "prefectureCode": "30",
    "prefectureNumber": 30,
    "prefecture": "和歌山県",
    "city": "紀の川市",
    "town": "竹房（４５０番地以下）"
  },
  "6496414": {
    "zipcode": "6496414",
    "prefectureCode": "30",
    "prefectureNumber": 30,
    "prefecture": "和歌山県",
    "city": "紀の川市",
    "town": "打田"
  },
  "6496415": {
    "zipcode": "6496415",
    "prefectureCode": "30",
    "prefectureNumber": 30,
    "prefecture": "和歌山県",
    "city": "紀の川市",
    "town": "窪"
  },
  "6496416": {
    "zipcode": "6496416",
    "prefectureCode": "30",
    "prefectureNumber": 30,
    "prefecture": "和歌山県",
    "city": "紀の川市",
    "town": "上野"
  },
  "6496417": {
    "zipcode": "6496417",
    "prefectureCode": "30",
    "prefectureNumber": 30,
    "prefecture": "和歌山県",
    "city": "紀の川市",
    "town": "西大井"
  },
  "6496418": {
    "zipcode": "6496418",
    "prefectureCode": "30",
    "prefectureNumber": 30,
    "prefecture": "和歌山県",
    "city": "紀の川市",
    "town": "久留壁"
  },
  "6496421": {
    "zipcode": "6496421",
    "prefectureCode": "30",
    "prefectureNumber": 30,
    "prefecture": "和歌山県",
    "city": "紀の川市",
    "town": "田中馬場"
  },
  "6496422": {
    "zipcode": "6496422",
    "prefectureCode": "30",
    "prefectureNumber": 30,
    "prefecture": "和歌山県",
    "city": "紀の川市",
    "town": "花野"
  },
  "6496423": {
    "zipcode": "6496423",
    "prefectureCode": "30",
    "prefectureNumber": 30,
    "prefecture": "和歌山県",
    "city": "紀の川市",
    "town": "尾崎"
  },
  "6496424": {
    "zipcode": "6496424",
    "prefectureCode": "30",
    "prefectureNumber": 30,
    "prefecture": "和歌山県",
    "city": "紀の川市",
    "town": "畑野上"
  },
  "6496425": {
    "zipcode": "6496425",
    "prefectureCode": "30",
    "prefectureNumber": 30,
    "prefecture": "和歌山県",
    "city": "紀の川市",
    "town": "中井阪"
  },
  "6496426": {
    "zipcode": "6496426",
    "prefectureCode": "30",
    "prefectureNumber": 30,
    "prefecture": "和歌山県",
    "city": "紀の川市",
    "town": "下井阪"
  },
  "6496427": {
    "zipcode": "6496427",
    "prefectureCode": "30",
    "prefectureNumber": 30,
    "prefecture": "和歌山県",
    "city": "紀の川市",
    "town": "西井阪"
  },
  "6496428": {
    "zipcode": "6496428",
    "prefectureCode": "30",
    "prefectureNumber": 30,
    "prefecture": "和歌山県",
    "city": "紀の川市",
    "town": "東国分"
  },
  "6496431": {
    "zipcode": "6496431",
    "prefectureCode": "30",
    "prefectureNumber": 30,
    "prefecture": "和歌山県",
    "city": "紀の川市",
    "town": "南中"
  },
  "6496432": {
    "zipcode": "6496432",
    "prefectureCode": "30",
    "prefectureNumber": 30,
    "prefecture": "和歌山県",
    "city": "紀の川市",
    "town": "古和田"
  },
  "6496433": {
    "zipcode": "6496433",
    "prefectureCode": "30",
    "prefectureNumber": 30,
    "prefecture": "和歌山県",
    "city": "紀の川市",
    "town": "西三谷"
  },
  "6496434": {
    "zipcode": "6496434",
    "prefectureCode": "30",
    "prefectureNumber": 30,
    "prefecture": "和歌山県",
    "city": "紀の川市",
    "town": "中三谷"
  },
  "6496435": {
    "zipcode": "6496435",
    "prefectureCode": "30",
    "prefectureNumber": 30,
    "prefecture": "和歌山県",
    "city": "紀の川市",
    "town": "東三谷"
  },
  "6496441": {
    "zipcode": "6496441",
    "prefectureCode": "30",
    "prefectureNumber": 30,
    "prefecture": "和歌山県",
    "city": "紀の川市",
    "town": "東山田"
  },
  "6496442": {
    "zipcode": "6496442",
    "prefectureCode": "30",
    "prefectureNumber": 30,
    "prefecture": "和歌山県",
    "city": "紀の川市",
    "town": "神領"
  },
  "6496443": {
    "zipcode": "6496443",
    "prefectureCode": "30",
    "prefectureNumber": 30,
    "prefecture": "和歌山県",
    "city": "紀の川市",
    "town": "北中"
  },
  "6496444": {
    "zipcode": "6496444",
    "prefectureCode": "30",
    "prefectureNumber": 30,
    "prefecture": "和歌山県",
    "city": "紀の川市",
    "town": "登尾"
  },
  "6496445": {
    "zipcode": "6496445",
    "prefectureCode": "30",
    "prefectureNumber": 30,
    "prefecture": "和歌山県",
    "city": "紀の川市",
    "town": "豊田"
  },
  "6496446": {
    "zipcode": "6496446",
    "prefectureCode": "30",
    "prefectureNumber": 30,
    "prefecture": "和歌山県",
    "city": "紀の川市",
    "town": "枇杷谷"
  },
  "6496447": {
    "zipcode": "6496447",
    "prefectureCode": "30",
    "prefectureNumber": 30,
    "prefecture": "和歌山県",
    "city": "紀の川市",
    "town": "西山田"
  },
  "6496451": {
    "zipcode": "6496451",
    "prefectureCode": "30",
    "prefectureNumber": 30,
    "prefecture": "和歌山県",
    "city": "紀の川市",
    "town": "神通"
  },
  "6496452": {
    "zipcode": "6496452",
    "prefectureCode": "30",
    "prefectureNumber": 30,
    "prefecture": "和歌山県",
    "city": "紀の川市",
    "town": "中畑"
  },
  "6496501": {
    "zipcode": "6496501",
    "prefectureCode": "30",
    "prefectureNumber": 30,
    "prefecture": "和歌山県",
    "city": "紀の川市",
    "town": "北志野"
  },
  "6496502": {
    "zipcode": "6496502",
    "prefectureCode": "30",
    "prefectureNumber": 30,
    "prefecture": "和歌山県",
    "city": "紀の川市",
    "town": "北長田"
  },
  "6496503": {
    "zipcode": "6496503",
    "prefectureCode": "30",
    "prefectureNumber": 30,
    "prefecture": "和歌山県",
    "city": "紀の川市",
    "town": "長田中"
  },
  "6496504": {
    "zipcode": "6496504",
    "prefectureCode": "30",
    "prefectureNumber": 30,
    "prefecture": "和歌山県",
    "city": "紀の川市",
    "town": "南志野"
  },
  "6496511": {
    "zipcode": "6496511",
    "prefectureCode": "30",
    "prefectureNumber": 30,
    "prefecture": "和歌山県",
    "city": "紀の川市",
    "town": "猪垣"
  },
  "6496512": {
    "zipcode": "6496512",
    "prefectureCode": "30",
    "prefectureNumber": 30,
    "prefecture": "和歌山県",
    "city": "紀の川市",
    "town": "東毛"
  },
  "6496513": {
    "zipcode": "6496513",
    "prefectureCode": "30",
    "prefectureNumber": 30,
    "prefecture": "和歌山県",
    "city": "紀の川市",
    "town": "中津川"
  },
  "6496514": {
    "zipcode": "6496514",
    "prefectureCode": "30",
    "prefectureNumber": 30,
    "prefecture": "和歌山県",
    "city": "紀の川市",
    "town": "藤井"
  },
  "6496521": {
    "zipcode": "6496521",
    "prefectureCode": "30",
    "prefectureNumber": 30,
    "prefecture": "和歌山県",
    "city": "紀の川市",
    "town": "馬宿"
  },
  "6496522": {
    "zipcode": "6496522",
    "prefectureCode": "30",
    "prefectureNumber": 30,
    "prefecture": "和歌山県",
    "city": "紀の川市",
    "town": "上丹生谷"
  },
  "6496523": {
    "zipcode": "6496523",
    "prefectureCode": "30",
    "prefectureNumber": 30,
    "prefecture": "和歌山県",
    "city": "紀の川市",
    "town": "下丹生谷"
  },
  "6496524": {
    "zipcode": "6496524",
    "prefectureCode": "30",
    "prefectureNumber": 30,
    "prefecture": "和歌山県",
    "city": "紀の川市",
    "town": "西川原"
  },
  "6496525": {
    "zipcode": "6496525",
    "prefectureCode": "30",
    "prefectureNumber": 30,
    "prefecture": "和歌山県",
    "city": "紀の川市",
    "town": "野上"
  },
  "6496526": {
    "zipcode": "6496526",
    "prefectureCode": "30",
    "prefectureNumber": 30,
    "prefecture": "和歌山県",
    "city": "紀の川市",
    "town": "東川原"
  },
  "6496531": {
    "zipcode": "6496531",
    "prefectureCode": "30",
    "prefectureNumber": 30,
    "prefecture": "和歌山県",
    "city": "紀の川市",
    "town": "粉河"
  },
  "6496532": {
    "zipcode": "6496532",
    "prefectureCode": "30",
    "prefectureNumber": 30,
    "prefecture": "和歌山県",
    "city": "紀の川市",
    "town": "中山"
  },
  "6496541": {
    "zipcode": "6496541",
    "prefectureCode": "30",
    "prefectureNumber": 30,
    "prefecture": "和歌山県",
    "city": "紀の川市",
    "town": "井田"
  },
  "6496542": {
    "zipcode": "6496542",
    "prefectureCode": "30",
    "prefectureNumber": 30,
    "prefecture": "和歌山県",
    "city": "紀の川市",
    "town": "東野"
  },
  "6496551": {
    "zipcode": "6496551",
    "prefectureCode": "30",
    "prefectureNumber": 30,
    "prefecture": "和歌山県",
    "city": "紀の川市",
    "town": "上田井"
  },
  "6496552": {
    "zipcode": "6496552",
    "prefectureCode": "30",
    "prefectureNumber": 30,
    "prefecture": "和歌山県",
    "city": "紀の川市",
    "town": "嶋"
  },
  "6496553": {
    "zipcode": "6496553",
    "prefectureCode": "30",
    "prefectureNumber": 30,
    "prefecture": "和歌山県",
    "city": "紀の川市",
    "town": "深田"
  },
  "6496554": {
    "zipcode": "6496554",
    "prefectureCode": "30",
    "prefectureNumber": 30,
    "prefecture": "和歌山県",
    "city": "紀の川市",
    "town": "別所"
  },
  "6496555": {
    "zipcode": "6496555",
    "prefectureCode": "30",
    "prefectureNumber": 30,
    "prefecture": "和歌山県",
    "city": "紀の川市",
    "town": "松井"
  },
  "6496561": {
    "zipcode": "6496561",
    "prefectureCode": "30",
    "prefectureNumber": 30,
    "prefecture": "和歌山県",
    "city": "紀の川市",
    "town": "荒見"
  },
  "6496562": {
    "zipcode": "6496562",
    "prefectureCode": "30",
    "prefectureNumber": 30,
    "prefecture": "和歌山県",
    "city": "紀の川市",
    "town": "遠方"
  },
  "6496563": {
    "zipcode": "6496563",
    "prefectureCode": "30",
    "prefectureNumber": 30,
    "prefecture": "和歌山県",
    "city": "紀の川市",
    "town": "風市"
  },
  "6496564": {
    "zipcode": "6496564",
    "prefectureCode": "30",
    "prefectureNumber": 30,
    "prefecture": "和歌山県",
    "city": "紀の川市",
    "town": "勝神"
  },
  "6496565": {
    "zipcode": "6496565",
    "prefectureCode": "30",
    "prefectureNumber": 30,
    "prefecture": "和歌山県",
    "city": "紀の川市",
    "town": "杉原"
  },
  "6496571": {
    "zipcode": "6496571",
    "prefectureCode": "30",
    "prefectureNumber": 30,
    "prefecture": "和歌山県",
    "city": "紀の川市",
    "town": "上鞆渕"
  },
  "6496572": {
    "zipcode": "6496572",
    "prefectureCode": "30",
    "prefectureNumber": 30,
    "prefecture": "和歌山県",
    "city": "紀の川市",
    "town": "下鞆渕"
  },
  "6496573": {
    "zipcode": "6496573",
    "prefectureCode": "30",
    "prefectureNumber": 30,
    "prefecture": "和歌山県",
    "city": "紀の川市",
    "town": "中鞆渕"
  },
  "6496601": {
    "zipcode": "6496601",
    "prefectureCode": "30",
    "prefectureNumber": 30,
    "prefecture": "和歌山県",
    "city": "紀の川市",
    "town": "名手上"
  },
  "6496602": {
    "zipcode": "6496602",
    "prefectureCode": "30",
    "prefectureNumber": 30,
    "prefecture": "和歌山県",
    "city": "紀の川市",
    "town": "平野"
  },
  "6496603": {
    "zipcode": "6496603",
    "prefectureCode": "30",
    "prefectureNumber": 30,
    "prefecture": "和歌山県",
    "city": "紀の川市",
    "town": "名手下"
  },
  "6496604": {
    "zipcode": "6496604",
    "prefectureCode": "30",
    "prefectureNumber": 30,
    "prefecture": "和歌山県",
    "city": "紀の川市",
    "town": "西野山"
  },
  "6496605": {
    "zipcode": "6496605",
    "prefectureCode": "30",
    "prefectureNumber": 30,
    "prefecture": "和歌山県",
    "city": "紀の川市",
    "town": "江川中"
  },
  "6496606": {
    "zipcode": "6496606",
    "prefectureCode": "30",
    "prefectureNumber": 30,
    "prefecture": "和歌山県",
    "city": "紀の川市",
    "town": "切畑"
  },
  "6496611": {
    "zipcode": "6496611",
    "prefectureCode": "30",
    "prefectureNumber": 30,
    "prefecture": "和歌山県",
    "city": "紀の川市",
    "town": "穴伏"
  },
  "6496612": {
    "zipcode": "6496612",
    "prefectureCode": "30",
    "prefectureNumber": 30,
    "prefecture": "和歌山県",
    "city": "紀の川市",
    "town": "北涌"
  },
  "6496613": {
    "zipcode": "6496613",
    "prefectureCode": "30",
    "prefectureNumber": 30,
    "prefecture": "和歌山県",
    "city": "紀の川市",
    "town": "横谷"
  },
  "6496614": {
    "zipcode": "6496614",
    "prefectureCode": "30",
    "prefectureNumber": 30,
    "prefecture": "和歌山県",
    "city": "紀の川市",
    "town": "赤沼田"
  },
  "6496615": {
    "zipcode": "6496615",
    "prefectureCode": "30",
    "prefectureNumber": 30,
    "prefecture": "和歌山県",
    "city": "紀の川市",
    "town": "麻生津中"
  },
  "6496616": {
    "zipcode": "6496616",
    "prefectureCode": "30",
    "prefectureNumber": 30,
    "prefecture": "和歌山県",
    "city": "紀の川市",
    "town": "西脇"
  },
  "6496621": {
    "zipcode": "6496621",
    "prefectureCode": "30",
    "prefectureNumber": 30,
    "prefecture": "和歌山県",
    "city": "紀の川市",
    "town": "名手西野"
  },
  "6496622": {
    "zipcode": "6496622",
    "prefectureCode": "30",
    "prefectureNumber": 30,
    "prefecture": "和歌山県",
    "city": "紀の川市",
    "town": "後田"
  },
  "6496623": {
    "zipcode": "6496623",
    "prefectureCode": "30",
    "prefectureNumber": 30,
    "prefecture": "和歌山県",
    "city": "紀の川市",
    "town": "藤崎"
  },
  "6496624": {
    "zipcode": "6496624",
    "prefectureCode": "30",
    "prefectureNumber": 30,
    "prefecture": "和歌山県",
    "city": "紀の川市",
    "town": "王子"
  },
  "6496631": {
    "zipcode": "6496631",
    "prefectureCode": "30",
    "prefectureNumber": 30,
    "prefecture": "和歌山県",
    "city": "紀の川市",
    "town": "名手市場"
  },
  "6497100": {
    "zipcode": "6497100",
    "prefectureCode": "30",
    "prefectureNumber": 30,
    "prefecture": "和歌山県",
    "city": "伊都郡かつらぎ町",
    "town": "以下に掲載がない場合"
  },
  "6497101": {
    "zipcode": "6497101",
    "prefectureCode": "30",
    "prefectureNumber": 30,
    "prefecture": "和歌山県",
    "city": "伊都郡かつらぎ町",
    "town": "東谷"
  },
  "6497102": {
    "zipcode": "6497102",
    "prefectureCode": "30",
    "prefectureNumber": 30,
    "prefecture": "和歌山県",
    "city": "伊都郡かつらぎ町",
    "town": "滝"
  },
  "6497103": {
    "zipcode": "6497103",
    "prefectureCode": "30",
    "prefectureNumber": 30,
    "prefecture": "和歌山県",
    "city": "伊都郡かつらぎ町",
    "town": "広口"
  },
  "6497104": {
    "zipcode": "6497104",
    "prefectureCode": "30",
    "prefectureNumber": 30,
    "prefecture": "和歌山県",
    "city": "伊都郡かつらぎ町",
    "town": "平"
  },
  "6497111": {
    "zipcode": "6497111",
    "prefectureCode": "30",
    "prefectureNumber": 30,
    "prefecture": "和歌山県",
    "city": "伊都郡かつらぎ町",
    "town": "大畑"
  },
  "6497112": {
    "zipcode": "6497112",
    "prefectureCode": "30",
    "prefectureNumber": 30,
    "prefecture": "和歌山県",
    "city": "伊都郡かつらぎ町",
    "town": "中飯降"
  },
  "6497113": {
    "zipcode": "6497113",
    "prefectureCode": "30",
    "prefectureNumber": 30,
    "prefecture": "和歌山県",
    "city": "伊都郡かつらぎ町",
    "town": "妙寺"
  },
  "6497114": {
    "zipcode": "6497114",
    "prefectureCode": "30",
    "prefectureNumber": 30,
    "prefecture": "和歌山県",
    "city": "伊都郡かつらぎ町",
    "town": "西飯降"
  },
  "6497115": {
    "zipcode": "6497115",
    "prefectureCode": "30",
    "prefectureNumber": 30,
    "prefecture": "和歌山県",
    "city": "伊都郡かつらぎ町",
    "town": "短野"
  },
  "6497121": {
    "zipcode": "6497121",
    "prefectureCode": "30",
    "prefectureNumber": 30,
    "prefecture": "和歌山県",
    "city": "伊都郡かつらぎ町",
    "town": "丁ノ町"
  },
  "6497122": {
    "zipcode": "6497122",
    "prefectureCode": "30",
    "prefectureNumber": 30,
    "prefecture": "和歌山県",
    "city": "伊都郡かつらぎ町",
    "town": "新田"
  },
  "6497123": {
    "zipcode": "6497123",
    "prefectureCode": "30",
    "prefectureNumber": 30,
    "prefecture": "和歌山県",
    "city": "伊都郡かつらぎ町",
    "town": "柏木"
  },
  "6497131": {
    "zipcode": "6497131",
    "prefectureCode": "30",
    "prefectureNumber": 30,
    "prefecture": "和歌山県",
    "city": "伊都郡かつらぎ町",
    "town": "山崎"
  },
  "6497132": {
    "zipcode": "6497132",
    "prefectureCode": "30",
    "prefectureNumber": 30,
    "prefecture": "和歌山県",
    "city": "伊都郡かつらぎ町",
    "town": "教良寺"
  },
  "6497133": {
    "zipcode": "6497133",
    "prefectureCode": "30",
    "prefectureNumber": 30,
    "prefecture": "和歌山県",
    "city": "伊都郡かつらぎ町",
    "town": "三谷"
  },
  "6497134": {
    "zipcode": "6497134",
    "prefectureCode": "30",
    "prefectureNumber": 30,
    "prefecture": "和歌山県",
    "city": "伊都郡かつらぎ町",
    "town": "宮本"
  },
  "6497135": {
    "zipcode": "6497135",
    "prefectureCode": "30",
    "prefectureNumber": 30,
    "prefecture": "和歌山県",
    "city": "伊都郡かつらぎ町",
    "town": "平沼田"
  },
  "6497136": {
    "zipcode": "6497136",
    "prefectureCode": "30",
    "prefectureNumber": 30,
    "prefecture": "和歌山県",
    "city": "伊都郡かつらぎ町",
    "town": "寺尾"
  },
  "6497137": {
    "zipcode": "6497137",
    "prefectureCode": "30",
    "prefectureNumber": 30,
    "prefecture": "和歌山県",
    "city": "伊都郡かつらぎ町",
    "town": "兄井"
  },
  "6497141": {
    "zipcode": "6497141",
    "prefectureCode": "30",
    "prefectureNumber": 30,
    "prefecture": "和歌山県",
    "city": "伊都郡かつらぎ町",
    "town": "上天野"
  },
  "6497142": {
    "zipcode": "6497142",
    "prefectureCode": "30",
    "prefectureNumber": 30,
    "prefecture": "和歌山県",
    "city": "伊都郡かつらぎ町",
    "town": "下天野"
  },
  "6497143": {
    "zipcode": "6497143",
    "prefectureCode": "30",
    "prefectureNumber": 30,
    "prefecture": "和歌山県",
    "city": "伊都郡かつらぎ町",
    "town": "神田"
  },
  "6497144": {
    "zipcode": "6497144",
    "prefectureCode": "30",
    "prefectureNumber": 30,
    "prefecture": "和歌山県",
    "city": "伊都郡かつらぎ町",
    "town": "志賀"
  },
  "6497145": {
    "zipcode": "6497145",
    "prefectureCode": "30",
    "prefectureNumber": 30,
    "prefecture": "和歌山県",
    "city": "伊都郡かつらぎ町",
    "town": "日高"
  },
  "6497146": {
    "zipcode": "6497146",
    "prefectureCode": "30",
    "prefectureNumber": 30,
    "prefecture": "和歌山県",
    "city": "伊都郡かつらぎ町",
    "town": "星山"
  },
  "6497151": {
    "zipcode": "6497151",
    "prefectureCode": "30",
    "prefectureNumber": 30,
    "prefecture": "和歌山県",
    "city": "伊都郡かつらぎ町",
    "town": "東渋田"
  },
  "6497152": {
    "zipcode": "6497152",
    "prefectureCode": "30",
    "prefectureNumber": 30,
    "prefecture": "和歌山県",
    "city": "伊都郡かつらぎ町",
    "town": "星川"
  },
  "6497153": {
    "zipcode": "6497153",
    "prefectureCode": "30",
    "prefectureNumber": 30,
    "prefecture": "和歌山県",
    "city": "伊都郡かつらぎ町",
    "town": "御所"
  },
  "6497154": {
    "zipcode": "6497154",
    "prefectureCode": "30",
    "prefectureNumber": 30,
    "prefecture": "和歌山県",
    "city": "伊都郡かつらぎ町",
    "town": "西渋田"
  },
  "6497155": {
    "zipcode": "6497155",
    "prefectureCode": "30",
    "prefectureNumber": 30,
    "prefecture": "和歌山県",
    "city": "伊都郡かつらぎ町",
    "town": "島"
  },
  "6497161": {
    "zipcode": "6497161",
    "prefectureCode": "30",
    "prefectureNumber": 30,
    "prefecture": "和歌山県",
    "city": "伊都郡かつらぎ町",
    "town": "笠田東"
  },
  "6497162": {
    "zipcode": "6497162",
    "prefectureCode": "30",
    "prefectureNumber": 30,
    "prefecture": "和歌山県",
    "city": "伊都郡かつらぎ町",
    "town": "笠田中"
  },
  "6497163": {
    "zipcode": "6497163",
    "prefectureCode": "30",
    "prefectureNumber": 30,
    "prefecture": "和歌山県",
    "city": "伊都郡かつらぎ町",
    "town": "萩原"
  },
  "6497164": {
    "zipcode": "6497164",
    "prefectureCode": "30",
    "prefectureNumber": 30,
    "prefecture": "和歌山県",
    "city": "伊都郡かつらぎ町",
    "town": "窪"
  },
  "6497165": {
    "zipcode": "6497165",
    "prefectureCode": "30",
    "prefectureNumber": 30,
    "prefecture": "和歌山県",
    "city": "伊都郡かつらぎ町",
    "town": "背ノ山"
  },
  "6497166": {
    "zipcode": "6497166",
    "prefectureCode": "30",
    "prefectureNumber": 30,
    "prefecture": "和歌山県",
    "city": "伊都郡かつらぎ町",
    "town": "高田"
  },
  "6497167": {
    "zipcode": "6497167",
    "prefectureCode": "30",
    "prefectureNumber": 30,
    "prefecture": "和歌山県",
    "city": "伊都郡かつらぎ町",
    "town": "移"
  },
  "6497171": {
    "zipcode": "6497171",
    "prefectureCode": "30",
    "prefectureNumber": 30,
    "prefecture": "和歌山県",
    "city": "伊都郡かつらぎ町",
    "town": "大薮"
  },
  "6497172": {
    "zipcode": "6497172",
    "prefectureCode": "30",
    "prefectureNumber": 30,
    "prefecture": "和歌山県",
    "city": "伊都郡かつらぎ町",
    "town": "蛭子"
  },
  "6497173": {
    "zipcode": "6497173",
    "prefectureCode": "30",
    "prefectureNumber": 30,
    "prefecture": "和歌山県",
    "city": "伊都郡かつらぎ町",
    "town": "大谷"
  },
  "6497174": {
    "zipcode": "6497174",
    "prefectureCode": "30",
    "prefectureNumber": 30,
    "prefecture": "和歌山県",
    "city": "伊都郡かつらぎ町",
    "town": "佐野"
  },
  "6497175": {
    "zipcode": "6497175",
    "prefectureCode": "30",
    "prefectureNumber": 30,
    "prefecture": "和歌山県",
    "city": "伊都郡かつらぎ町",
    "town": "広浦"
  },
  "6497201": {
    "zipcode": "6497201",
    "prefectureCode": "30",
    "prefectureNumber": 30,
    "prefecture": "和歌山県",
    "city": "橋本市",
    "town": "高野口町応其"
  },
  "6497202": {
    "zipcode": "6497202",
    "prefectureCode": "30",
    "prefectureNumber": 30,
    "prefecture": "和歌山県",
    "city": "橋本市",
    "town": "高野口町伏原"
  },
  "6497203": {
    "zipcode": "6497203",
    "prefectureCode": "30",
    "prefectureNumber": 30,
    "prefecture": "和歌山県",
    "city": "橋本市",
    "town": "高野口町名古曽"
  },
  "6497204": {
    "zipcode": "6497204",
    "prefectureCode": "30",
    "prefectureNumber": 30,
    "prefecture": "和歌山県",
    "city": "橋本市",
    "town": "高野口町小田"
  },
  "6497205": {
    "zipcode": "6497205",
    "prefectureCode": "30",
    "prefectureNumber": 30,
    "prefecture": "和歌山県",
    "city": "橋本市",
    "town": "高野口町名倉"
  },
  "6497206": {
    "zipcode": "6497206",
    "prefectureCode": "30",
    "prefectureNumber": 30,
    "prefecture": "和歌山県",
    "city": "橋本市",
    "town": "高野口町向島"
  },
  "6497207": {
    "zipcode": "6497207",
    "prefectureCode": "30",
    "prefectureNumber": 30,
    "prefecture": "和歌山県",
    "city": "橋本市",
    "town": "高野口町大野"
  },
  "6497211": {
    "zipcode": "6497211",
    "prefectureCode": "30",
    "prefectureNumber": 30,
    "prefecture": "和歌山県",
    "city": "橋本市",
    "town": "高野口町下中"
  },
  "6497212": {
    "zipcode": "6497212",
    "prefectureCode": "30",
    "prefectureNumber": 30,
    "prefecture": "和歌山県",
    "city": "橋本市",
    "town": "高野口町上中"
  },
  "6497213": {
    "zipcode": "6497213",
    "prefectureCode": "30",
    "prefectureNumber": 30,
    "prefecture": "和歌山県",
    "city": "橋本市",
    "town": "高野口町嵯峨谷"
  },
  "6497214": {
    "zipcode": "6497214",
    "prefectureCode": "30",
    "prefectureNumber": 30,
    "prefecture": "和歌山県",
    "city": "橋本市",
    "town": "高野口町竹尾"
  },
  "6497215": {
    "zipcode": "6497215",
    "prefectureCode": "30",
    "prefectureNumber": 30,
    "prefecture": "和歌山県",
    "city": "橋本市",
    "town": "高野口町九重"
  },
  "6497216": {
    "zipcode": "6497216",
    "prefectureCode": "30",
    "prefectureNumber": 30,
    "prefecture": "和歌山県",
    "city": "橋本市",
    "town": "高野口町田原"
  }
}
