{
  "6500000": {
    "zipcode": "6500000",
    "prefectureCode": "28",
    "prefectureNumber": 28,
    "prefecture": "兵庫県",
    "city": "神戸市西区",
    "town": "以下に掲載がない場合"
  },
  "6500001": {
    "zipcode": "6500001",
    "prefectureCode": "28",
    "prefectureNumber": 28,
    "prefecture": "兵庫県",
    "city": "神戸市中央区",
    "town": "加納町"
  },
  "6500002": {
    "zipcode": "6500002",
    "prefectureCode": "28",
    "prefectureNumber": 28,
    "prefecture": "兵庫県",
    "city": "神戸市中央区",
    "town": "北野町"
  },
  "6500003": {
    "zipcode": "6500003",
    "prefectureCode": "28",
    "prefectureNumber": 28,
    "prefecture": "兵庫県",
    "city": "神戸市中央区",
    "town": "山本通"
  },
  "6500004": {
    "zipcode": "6500004",
    "prefectureCode": "28",
    "prefectureNumber": 28,
    "prefecture": "兵庫県",
    "city": "神戸市中央区",
    "town": "中山手通"
  },
  "6500005": {
    "zipcode": "6500005",
    "prefectureCode": "28",
    "prefectureNumber": 28,
    "prefecture": "兵庫県",
    "city": "神戸市中央区",
    "town": "再度筋町"
  },
  "6500006": {
    "zipcode": "6500006",
    "prefectureCode": "28",
    "prefectureNumber": 28,
    "prefecture": "兵庫県",
    "city": "神戸市中央区",
    "town": "諏訪山町"
  },
  "6500007": {
    "zipcode": "6500007",
    "prefectureCode": "28",
    "prefectureNumber": 28,
    "prefecture": "兵庫県",
    "city": "神戸市中央区",
    "town": "神戸港地方"
  },
  "6500011": {
    "zipcode": "6500011",
    "prefectureCode": "28",
    "prefectureNumber": 28,
    "prefecture": "兵庫県",
    "city": "神戸市中央区",
    "town": "下山手通"
  },
  "6500012": {
    "zipcode": "6500012",
    "prefectureCode": "28",
    "prefectureNumber": 28,
    "prefecture": "兵庫県",
    "city": "神戸市中央区",
    "town": "北長狭通"
  },
  "6500013": {
    "zipcode": "6500013",
    "prefectureCode": "28",
    "prefectureNumber": 28,
    "prefecture": "兵庫県",
    "city": "神戸市中央区",
    "town": "花隈町"
  },
  "6500014": {
    "zipcode": "6500014",
    "prefectureCode": "28",
    "prefectureNumber": 28,
    "prefecture": "兵庫県",
    "city": "神戸市中央区",
    "town": "元町高架通"
  },
  "6500015": {
    "zipcode": "6500015",
    "prefectureCode": "28",
    "prefectureNumber": 28,
    "prefecture": "兵庫県",
    "city": "神戸市中央区",
    "town": "多聞通"
  },
  "6500016": {
    "zipcode": "6500016",
    "prefectureCode": "28",
    "prefectureNumber": 28,
    "prefecture": "兵庫県",
    "city": "神戸市中央区",
    "town": "橘通"
  },
  "6500017": {
    "zipcode": "6500017",
    "prefectureCode": "28",
    "prefectureNumber": 28,
    "prefecture": "兵庫県",
    "city": "神戸市中央区",
    "town": "楠町"
  },
  "6500021": {
    "zipcode": "6500021",
    "prefectureCode": "28",
    "prefectureNumber": 28,
    "prefecture": "兵庫県",
    "city": "神戸市中央区",
    "town": "三宮町"
  },
  "6500022": {
    "zipcode": "6500022",
    "prefectureCode": "28",
    "prefectureNumber": 28,
    "prefecture": "兵庫県",
    "city": "神戸市中央区",
    "town": "元町通"
  },
  "6500023": {
    "zipcode": "6500023",
    "prefectureCode": "28",
    "prefectureNumber": 28,
    "prefecture": "兵庫県",
    "city": "神戸市中央区",
    "town": "栄町通"
  },
  "6500024": {
    "zipcode": "6500024",
    "prefectureCode": "28",
    "prefectureNumber": 28,
    "prefecture": "兵庫県",
    "city": "神戸市中央区",
    "town": "海岸通"
  },
  "6500025": {
    "zipcode": "6500025",
    "prefectureCode": "28",
    "prefectureNumber": 28,
    "prefecture": "兵庫県",
    "city": "神戸市中央区",
    "town": "相生町"
  },
  "6500026": {
    "zipcode": "6500026",
    "prefectureCode": "28",
    "prefectureNumber": 28,
    "prefecture": "兵庫県",
    "city": "神戸市中央区",
    "town": "古湊通"
  },
  "6500027": {
    "zipcode": "6500027",
    "prefectureCode": "28",
    "prefectureNumber": 28,
    "prefecture": "兵庫県",
    "city": "神戸市中央区",
    "town": "中町通"
  },
  "6500031": {
    "zipcode": "6500031",
    "prefectureCode": "28",
    "prefectureNumber": 28,
    "prefecture": "兵庫県",
    "city": "神戸市中央区",
    "town": "東町"
  },
  "6500032": {
    "zipcode": "6500032",
    "prefectureCode": "28",
    "prefectureNumber": 28,
    "prefecture": "兵庫県",
    "city": "神戸市中央区",
    "town": "伊藤町"
  },
  "6500033": {
    "zipcode": "6500033",
    "prefectureCode": "28",
    "prefectureNumber": 28,
    "prefecture": "兵庫県",
    "city": "神戸市中央区",
    "town": "江戸町"
  },
  "6500034": {
    "zipcode": "6500034",
    "prefectureCode": "28",
    "prefectureNumber": 28,
    "prefecture": "兵庫県",
    "city": "神戸市中央区",
    "town": "京町"
  },
  "6500035": {
    "zipcode": "6500035",
    "prefectureCode": "28",
    "prefectureNumber": 28,
    "prefecture": "兵庫県",
    "city": "神戸市中央区",
    "town": "浪花町"
  },
  "6500036": {
    "zipcode": "6500036",
    "prefectureCode": "28",
    "prefectureNumber": 28,
    "prefecture": "兵庫県",
    "city": "神戸市中央区",
    "town": "播磨町"
  },
  "6500037": {
    "zipcode": "6500037",
    "prefectureCode": "28",
    "prefectureNumber": 28,
    "prefecture": "兵庫県",
    "city": "神戸市中央区",
    "town": "明石町"
  },
  "6500038": {
    "zipcode": "6500038",
    "prefectureCode": "28",
    "prefectureNumber": 28,
    "prefecture": "兵庫県",
    "city": "神戸市中央区",
    "town": "西町"
  },
  "6500039": {
    "zipcode": "6500039",
    "prefectureCode": "28",
    "prefectureNumber": 28,
    "prefecture": "兵庫県",
    "city": "神戸市中央区",
    "town": "前町"
  },
  "6500041": {
    "zipcode": "6500041",
    "prefectureCode": "28",
    "prefectureNumber": 28,
    "prefecture": "兵庫県",
    "city": "神戸市中央区",
    "town": "新港町"
  },
  "6500042": {
    "zipcode": "6500042",
    "prefectureCode": "28",
    "prefectureNumber": 28,
    "prefecture": "兵庫県",
    "city": "神戸市中央区",
    "town": "波止場町"
  },
  "6500043": {
    "zipcode": "6500043",
    "prefectureCode": "28",
    "prefectureNumber": 28,
    "prefecture": "兵庫県",
    "city": "神戸市中央区",
    "town": "弁天町"
  },
  "6500044": {
    "zipcode": "6500044",
    "prefectureCode": "28",
    "prefectureNumber": 28,
    "prefecture": "兵庫県",
    "city": "神戸市中央区",
    "town": "東川崎町"
  },
  "6500045": {
    "zipcode": "6500045",
    "prefectureCode": "28",
    "prefectureNumber": 28,
    "prefecture": "兵庫県",
    "city": "神戸市中央区",
    "town": "港島"
  },
  "6500046": {
    "zipcode": "6500046",
    "prefectureCode": "28",
    "prefectureNumber": 28,
    "prefecture": "兵庫県",
    "city": "神戸市中央区",
    "town": "港島中町"
  },
  "6500047": {
    "zipcode": "6500047",
    "prefectureCode": "28",
    "prefectureNumber": 28,
    "prefecture": "兵庫県",
    "city": "神戸市中央区",
    "town": "港島南町"
  },
  "6500048": {
    "zipcode": "6500048",
    "prefectureCode": "28",
    "prefectureNumber": 28,
    "prefecture": "兵庫県",
    "city": "神戸市中央区",
    "town": "神戸空港"
  }
}
