{
  "6510051": {
    "zipcode": "6510051",
    "prefectureCode": "28",
    "prefectureNumber": 28,
    "prefecture": "兵庫県",
    "city": "神戸市中央区",
    "town": "神仙寺通"
  },
  "6510052": {
    "zipcode": "6510052",
    "prefectureCode": "28",
    "prefectureNumber": 28,
    "prefecture": "兵庫県",
    "city": "神戸市中央区",
    "town": "中島通"
  },
  "6510053": {
    "zipcode": "6510053",
    "prefectureCode": "28",
    "prefectureNumber": 28,
    "prefecture": "兵庫県",
    "city": "神戸市中央区",
    "town": "籠池通"
  },
  "6510054": {
    "zipcode": "6510054",
    "prefectureCode": "28",
    "prefectureNumber": 28,
    "prefecture": "兵庫県",
    "city": "神戸市中央区",
    "town": "野崎通"
  },
  "6510055": {
    "zipcode": "6510055",
    "prefectureCode": "28",
    "prefectureNumber": 28,
    "prefecture": "兵庫県",
    "city": "神戸市中央区",
    "town": "熊内橋通"
  },
  "6510056": {
    "zipcode": "6510056",
    "prefectureCode": "28",
    "prefectureNumber": 28,
    "prefecture": "兵庫県",
    "city": "神戸市中央区",
    "town": "熊内町"
  },
  "6510057": {
    "zipcode": "6510057",
    "prefectureCode": "28",
    "prefectureNumber": 28,
    "prefecture": "兵庫県",
    "city": "神戸市中央区",
    "town": "中尾町"
  },
  "6510058": {
    "zipcode": "6510058",
    "prefectureCode": "28",
    "prefectureNumber": 28,
    "prefecture": "兵庫県",
    "city": "神戸市中央区",
    "town": "葺合町"
  },
  "6510061": {
    "zipcode": "6510061",
    "prefectureCode": "28",
    "prefectureNumber": 28,
    "prefecture": "兵庫県",
    "city": "神戸市中央区",
    "town": "上筒井通"
  },
  "6510062": {
    "zipcode": "6510062",
    "prefectureCode": "28",
    "prefectureNumber": 28,
    "prefecture": "兵庫県",
    "city": "神戸市中央区",
    "town": "坂口通"
  },
  "6510063": {
    "zipcode": "6510063",
    "prefectureCode": "28",
    "prefectureNumber": 28,
    "prefecture": "兵庫県",
    "city": "神戸市中央区",
    "town": "宮本通"
  },
  "6510064": {
    "zipcode": "6510064",
    "prefectureCode": "28",
    "prefectureNumber": 28,
    "prefecture": "兵庫県",
    "city": "神戸市中央区",
    "town": "大日通"
  },
  "6510065": {
    "zipcode": "6510065",
    "prefectureCode": "28",
    "prefectureNumber": 28,
    "prefecture": "兵庫県",
    "city": "神戸市中央区",
    "town": "割塚通"
  },
  "6510066": {
    "zipcode": "6510066",
    "prefectureCode": "28",
    "prefectureNumber": 28,
    "prefecture": "兵庫県",
    "city": "神戸市中央区",
    "town": "国香通"
  },
  "6510067": {
    "zipcode": "6510067",
    "prefectureCode": "28",
    "prefectureNumber": 28,
    "prefecture": "兵庫県",
    "city": "神戸市中央区",
    "town": "神若通"
  },
  "6510068": {
    "zipcode": "6510068",
    "prefectureCode": "28",
    "prefectureNumber": 28,
    "prefecture": "兵庫県",
    "city": "神戸市中央区",
    "town": "旗塚通"
  },
  "6510071": {
    "zipcode": "6510071",
    "prefectureCode": "28",
    "prefectureNumber": 28,
    "prefecture": "兵庫県",
    "city": "神戸市中央区",
    "town": "筒井町"
  },
  "6510072": {
    "zipcode": "6510072",
    "prefectureCode": "28",
    "prefectureNumber": 28,
    "prefecture": "兵庫県",
    "city": "神戸市中央区",
    "town": "脇浜町"
  },
  "6510073": {
    "zipcode": "6510073",
    "prefectureCode": "28",
    "prefectureNumber": 28,
    "prefecture": "兵庫県",
    "city": "神戸市中央区",
    "town": "脇浜海岸通"
  },
  "6510074": {
    "zipcode": "6510074",
    "prefectureCode": "28",
    "prefectureNumber": 28,
    "prefecture": "兵庫県",
    "city": "神戸市中央区",
    "town": "南本町通"
  },
  "6510075": {
    "zipcode": "6510075",
    "prefectureCode": "28",
    "prefectureNumber": 28,
    "prefecture": "兵庫県",
    "city": "神戸市中央区",
    "town": "北本町通"
  },
  "6510076": {
    "zipcode": "6510076",
    "prefectureCode": "28",
    "prefectureNumber": 28,
    "prefecture": "兵庫県",
    "city": "神戸市中央区",
    "town": "吾妻通"
  },
  "6510077": {
    "zipcode": "6510077",
    "prefectureCode": "28",
    "prefectureNumber": 28,
    "prefecture": "兵庫県",
    "city": "神戸市中央区",
    "town": "日暮通"
  },
  "6510078": {
    "zipcode": "6510078",
    "prefectureCode": "28",
    "prefectureNumber": 28,
    "prefecture": "兵庫県",
    "city": "神戸市中央区",
    "town": "八雲通"
  },
  "6510079": {
    "zipcode": "6510079",
    "prefectureCode": "28",
    "prefectureNumber": 28,
    "prefecture": "兵庫県",
    "city": "神戸市中央区",
    "town": "東雲通"
  },
  "6510081": {
    "zipcode": "6510081",
    "prefectureCode": "28",
    "prefectureNumber": 28,
    "prefecture": "兵庫県",
    "city": "神戸市中央区",
    "town": "真砂通"
  },
  "6510082": {
    "zipcode": "6510082",
    "prefectureCode": "28",
    "prefectureNumber": 28,
    "prefecture": "兵庫県",
    "city": "神戸市中央区",
    "town": "小野浜町"
  },
  "6510083": {
    "zipcode": "6510083",
    "prefectureCode": "28",
    "prefectureNumber": 28,
    "prefecture": "兵庫県",
    "city": "神戸市中央区",
    "town": "浜辺通"
  },
  "6510084": {
    "zipcode": "6510084",
    "prefectureCode": "28",
    "prefectureNumber": 28,
    "prefecture": "兵庫県",
    "city": "神戸市中央区",
    "town": "磯辺通"
  },
  "6510085": {
    "zipcode": "6510085",
    "prefectureCode": "28",
    "prefectureNumber": 28,
    "prefecture": "兵庫県",
    "city": "神戸市中央区",
    "town": "八幡通"
  },
  "6510086": {
    "zipcode": "6510086",
    "prefectureCode": "28",
    "prefectureNumber": 28,
    "prefecture": "兵庫県",
    "city": "神戸市中央区",
    "town": "磯上通"
  },
  "6510087": {
    "zipcode": "6510087",
    "prefectureCode": "28",
    "prefectureNumber": 28,
    "prefecture": "兵庫県",
    "city": "神戸市中央区",
    "town": "御幸通"
  },
  "6510088": {
    "zipcode": "6510088",
    "prefectureCode": "28",
    "prefectureNumber": 28,
    "prefecture": "兵庫県",
    "city": "神戸市中央区",
    "town": "小野柄通"
  },
  "6510091": {
    "zipcode": "6510091",
    "prefectureCode": "28",
    "prefectureNumber": 28,
    "prefecture": "兵庫県",
    "city": "神戸市中央区",
    "town": "若菜通"
  },
  "6510092": {
    "zipcode": "6510092",
    "prefectureCode": "28",
    "prefectureNumber": 28,
    "prefecture": "兵庫県",
    "city": "神戸市中央区",
    "town": "生田町"
  },
  "6510093": {
    "zipcode": "6510093",
    "prefectureCode": "28",
    "prefectureNumber": 28,
    "prefecture": "兵庫県",
    "city": "神戸市中央区",
    "town": "二宮町"
  },
  "6510094": {
    "zipcode": "6510094",
    "prefectureCode": "28",
    "prefectureNumber": 28,
    "prefecture": "兵庫県",
    "city": "神戸市中央区",
    "town": "琴ノ緒町"
  },
  "6510095": {
    "zipcode": "6510095",
    "prefectureCode": "28",
    "prefectureNumber": 28,
    "prefecture": "兵庫県",
    "city": "神戸市中央区",
    "town": "旭通"
  },
  "6510096": {
    "zipcode": "6510096",
    "prefectureCode": "28",
    "prefectureNumber": 28,
    "prefecture": "兵庫県",
    "city": "神戸市中央区",
    "town": "雲井通"
  },
  "6510097": {
    "zipcode": "6510097",
    "prefectureCode": "28",
    "prefectureNumber": 28,
    "prefecture": "兵庫県",
    "city": "神戸市中央区",
    "town": "布引町"
  },
  "6511100": {
    "zipcode": "6511100",
    "prefectureCode": "28",
    "prefectureNumber": 28,
    "prefecture": "兵庫県",
    "city": "神戸市北区",
    "town": "以下に掲載がない場合"
  },
  "6511101": {
    "zipcode": "6511101",
    "prefectureCode": "28",
    "prefectureNumber": 28,
    "prefecture": "兵庫県",
    "city": "神戸市北区",
    "town": "山田町小部"
  },
  "6511102": {
    "zipcode": "6511102",
    "prefectureCode": "28",
    "prefectureNumber": 28,
    "prefecture": "兵庫県",
    "city": "神戸市北区",
    "town": "山田町下谷上（大上谷、修法ケ原、中一里山「９番地の４、１２番地を除く」、長尾山、再度公園）"
  },
  "6511103": {
    "zipcode": "6511103",
    "prefectureCode": "28",
    "prefectureNumber": 28,
    "prefecture": "兵庫県",
    "city": "神戸市北区",
    "town": "中里町"
  },
  "6511104": {
    "zipcode": "6511104",
    "prefectureCode": "28",
    "prefectureNumber": 28,
    "prefecture": "兵庫県",
    "city": "神戸市北区",
    "town": "山田町藍那"
  },
  "6511105": {
    "zipcode": "6511105",
    "prefectureCode": "28",
    "prefectureNumber": 28,
    "prefecture": "兵庫県",
    "city": "神戸市北区",
    "town": "山田町小河"
  },
  "6511106": {
    "zipcode": "6511106",
    "prefectureCode": "28",
    "prefectureNumber": 28,
    "prefecture": "兵庫県",
    "city": "神戸市北区",
    "town": "しあわせの村"
  },
  "6511111": {
    "zipcode": "6511111",
    "prefectureCode": "28",
    "prefectureNumber": 28,
    "prefecture": "兵庫県",
    "city": "神戸市北区",
    "town": "鈴蘭台北町"
  },
  "6511112": {
    "zipcode": "6511112",
    "prefectureCode": "28",
    "prefectureNumber": 28,
    "prefecture": "兵庫県",
    "city": "神戸市北区",
    "town": "鈴蘭台東町"
  },
  "6511113": {
    "zipcode": "6511113",
    "prefectureCode": "28",
    "prefectureNumber": 28,
    "prefecture": "兵庫県",
    "city": "神戸市北区",
    "town": "鈴蘭台南町"
  },
  "6511114": {
    "zipcode": "6511114",
    "prefectureCode": "28",
    "prefectureNumber": 28,
    "prefecture": "兵庫県",
    "city": "神戸市北区",
    "town": "鈴蘭台西町"
  },
  "6511121": {
    "zipcode": "6511121",
    "prefectureCode": "28",
    "prefectureNumber": 28,
    "prefecture": "兵庫県",
    "city": "神戸市北区",
    "town": "星和台"
  },
  "6511122": {
    "zipcode": "6511122",
    "prefectureCode": "28",
    "prefectureNumber": 28,
    "prefecture": "兵庫県",
    "city": "神戸市北区",
    "town": "君影町"
  },
  "6511123": {
    "zipcode": "6511123",
    "prefectureCode": "28",
    "prefectureNumber": 28,
    "prefecture": "兵庫県",
    "city": "神戸市北区",
    "town": "ひよどり台"
  },
  "6511124": {
    "zipcode": "6511124",
    "prefectureCode": "28",
    "prefectureNumber": 28,
    "prefecture": "兵庫県",
    "city": "神戸市北区",
    "town": "ひよどり北町"
  },
  "6511125": {
    "zipcode": "6511125",
    "prefectureCode": "28",
    "prefectureNumber": 28,
    "prefecture": "兵庫県",
    "city": "神戸市北区",
    "town": "ひよどり台南町"
  },
  "6511131": {
    "zipcode": "6511131",
    "prefectureCode": "28",
    "prefectureNumber": 28,
    "prefecture": "兵庫県",
    "city": "神戸市北区",
    "town": "北五葉"
  },
  "6511132": {
    "zipcode": "6511132",
    "prefectureCode": "28",
    "prefectureNumber": 28,
    "prefecture": "兵庫県",
    "city": "神戸市北区",
    "town": "南五葉"
  },
  "6511133": {
    "zipcode": "6511133",
    "prefectureCode": "28",
    "prefectureNumber": 28,
    "prefecture": "兵庫県",
    "city": "神戸市北区",
    "town": "鳴子"
  },
  "6511141": {
    "zipcode": "6511141",
    "prefectureCode": "28",
    "prefectureNumber": 28,
    "prefecture": "兵庫県",
    "city": "神戸市北区",
    "town": "泉台"
  },
  "6511142": {
    "zipcode": "6511142",
    "prefectureCode": "28",
    "prefectureNumber": 28,
    "prefecture": "兵庫県",
    "city": "神戸市北区",
    "town": "甲栄台"
  },
  "6511143": {
    "zipcode": "6511143",
    "prefectureCode": "28",
    "prefectureNumber": 28,
    "prefecture": "兵庫県",
    "city": "神戸市北区",
    "town": "若葉台"
  },
  "6511144": {
    "zipcode": "6511144",
    "prefectureCode": "28",
    "prefectureNumber": 28,
    "prefecture": "兵庫県",
    "city": "神戸市北区",
    "town": "大脇台"
  },
  "6511145": {
    "zipcode": "6511145",
    "prefectureCode": "28",
    "prefectureNumber": 28,
    "prefecture": "兵庫県",
    "city": "神戸市北区",
    "town": "惣山町"
  },
  "6511146": {
    "zipcode": "6511146",
    "prefectureCode": "28",
    "prefectureNumber": 28,
    "prefecture": "兵庫県",
    "city": "神戸市北区",
    "town": "杉尾台"
  },
  "6511147": {
    "zipcode": "6511147",
    "prefectureCode": "28",
    "prefectureNumber": 28,
    "prefecture": "兵庫県",
    "city": "神戸市北区",
    "town": "松宮台"
  },
  "6511201": {
    "zipcode": "6511201",
    "prefectureCode": "28",
    "prefectureNumber": 28,
    "prefecture": "兵庫県",
    "city": "神戸市北区",
    "town": "西大池"
  },
  "6511202": {
    "zipcode": "6511202",
    "prefectureCode": "28",
    "prefectureNumber": 28,
    "prefecture": "兵庫県",
    "city": "神戸市北区",
    "town": "花山中尾台"
  },
  "6511203": {
    "zipcode": "6511203",
    "prefectureCode": "28",
    "prefectureNumber": 28,
    "prefecture": "兵庫県",
    "city": "神戸市北区",
    "town": "幸陽町"
  },
  "6511204": {
    "zipcode": "6511204",
    "prefectureCode": "28",
    "prefectureNumber": 28,
    "prefecture": "兵庫県",
    "city": "神戸市北区",
    "town": "花山東町"
  },
  "6511205": {
    "zipcode": "6511205",
    "prefectureCode": "28",
    "prefectureNumber": 28,
    "prefecture": "兵庫県",
    "city": "神戸市北区",
    "town": "花山台"
  },
  "6511206": {
    "zipcode": "6511206",
    "prefectureCode": "28",
    "prefectureNumber": 28,
    "prefecture": "兵庫県",
    "city": "神戸市北区",
    "town": "大池見山台"
  },
  "6511211": {
    "zipcode": "6511211",
    "prefectureCode": "28",
    "prefectureNumber": 28,
    "prefecture": "兵庫県",
    "city": "神戸市北区",
    "town": "小倉台"
  },
  "6511212": {
    "zipcode": "6511212",
    "prefectureCode": "28",
    "prefectureNumber": 28,
    "prefecture": "兵庫県",
    "city": "神戸市北区",
    "town": "筑紫が丘"
  },
  "6511213": {
    "zipcode": "6511213",
    "prefectureCode": "28",
    "prefectureNumber": 28,
    "prefecture": "兵庫県",
    "city": "神戸市北区",
    "town": "広陵町"
  },
  "6511214": {
    "zipcode": "6511214",
    "prefectureCode": "28",
    "prefectureNumber": 28,
    "prefecture": "兵庫県",
    "city": "神戸市北区",
    "town": "桜森町"
  },
  "6511221": {
    "zipcode": "6511221",
    "prefectureCode": "28",
    "prefectureNumber": 28,
    "prefecture": "兵庫県",
    "city": "神戸市北区",
    "town": "緑町"
  },
  "6511222": {
    "zipcode": "6511222",
    "prefectureCode": "28",
    "prefectureNumber": 28,
    "prefecture": "兵庫県",
    "city": "神戸市北区",
    "town": "大原"
  },
  "6511223": {
    "zipcode": "6511223",
    "prefectureCode": "28",
    "prefectureNumber": 28,
    "prefecture": "兵庫県",
    "city": "神戸市北区",
    "town": "桂木"
  },
  "6511224": {
    "zipcode": "6511224",
    "prefectureCode": "28",
    "prefectureNumber": 28,
    "prefecture": "兵庫県",
    "city": "神戸市北区",
    "town": "山の街"
  },
  "6511231": {
    "zipcode": "6511231",
    "prefectureCode": "28",
    "prefectureNumber": 28,
    "prefecture": "兵庫県",
    "city": "神戸市北区",
    "town": "青葉台"
  },
  "6511232": {
    "zipcode": "6511232",
    "prefectureCode": "28",
    "prefectureNumber": 28,
    "prefecture": "兵庫県",
    "city": "神戸市北区",
    "town": "松が枝町"
  },
  "6511233": {
    "zipcode": "6511233",
    "prefectureCode": "28",
    "prefectureNumber": 28,
    "prefecture": "兵庫県",
    "city": "神戸市北区",
    "town": "日の峰"
  },
  "6511241": {
    "zipcode": "6511241",
    "prefectureCode": "28",
    "prefectureNumber": 28,
    "prefecture": "兵庫県",
    "city": "神戸市北区",
    "town": "山田町大池"
  },
  "6511242": {
    "zipcode": "6511242",
    "prefectureCode": "28",
    "prefectureNumber": 28,
    "prefecture": "兵庫県",
    "city": "神戸市北区",
    "town": "山田町上谷上"
  },
  "6511243": {
    "zipcode": "6511243",
    "prefectureCode": "28",
    "prefectureNumber": 28,
    "prefecture": "兵庫県",
    "city": "神戸市北区",
    "town": "山田町下谷上（その他）"
  },
  "6511244": {
    "zipcode": "6511244",
    "prefectureCode": "28",
    "prefectureNumber": 28,
    "prefecture": "兵庫県",
    "city": "神戸市北区",
    "town": "谷上南町"
  },
  "6511245": {
    "zipcode": "6511245",
    "prefectureCode": "28",
    "prefectureNumber": 28,
    "prefecture": "兵庫県",
    "city": "神戸市北区",
    "town": "谷上東町"
  },
  "6511246": {
    "zipcode": "6511246",
    "prefectureCode": "28",
    "prefectureNumber": 28,
    "prefecture": "兵庫県",
    "city": "神戸市北区",
    "town": "谷上西町"
  },
  "6511251": {
    "zipcode": "6511251",
    "prefectureCode": "28",
    "prefectureNumber": 28,
    "prefecture": "兵庫県",
    "city": "神戸市北区",
    "town": "山田町与左衛門新田"
  },
  "6511252": {
    "zipcode": "6511252",
    "prefectureCode": "28",
    "prefectureNumber": 28,
    "prefecture": "兵庫県",
    "city": "神戸市北区",
    "town": "山田町原野"
  },
  "6511253": {
    "zipcode": "6511253",
    "prefectureCode": "28",
    "prefectureNumber": 28,
    "prefecture": "兵庫県",
    "city": "神戸市北区",
    "town": "山田町中"
  },
  "6511254": {
    "zipcode": "6511254",
    "prefectureCode": "28",
    "prefectureNumber": 28,
    "prefecture": "兵庫県",
    "city": "神戸市北区",
    "town": "山田町福地"
  },
  "6511255": {
    "zipcode": "6511255",
    "prefectureCode": "28",
    "prefectureNumber": 28,
    "prefecture": "兵庫県",
    "city": "神戸市北区",
    "town": "柏尾台"
  },
  "6511261": {
    "zipcode": "6511261",
    "prefectureCode": "28",
    "prefectureNumber": 28,
    "prefecture": "兵庫県",
    "city": "神戸市北区",
    "town": "山田町坂本"
  },
  "6511262": {
    "zipcode": "6511262",
    "prefectureCode": "28",
    "prefectureNumber": 28,
    "prefecture": "兵庫県",
    "city": "神戸市北区",
    "town": "山田町東下"
  },
  "6511263": {
    "zipcode": "6511263",
    "prefectureCode": "28",
    "prefectureNumber": 28,
    "prefecture": "兵庫県",
    "city": "神戸市北区",
    "town": "山田町西下"
  },
  "6511264": {
    "zipcode": "6511264",
    "prefectureCode": "28",
    "prefectureNumber": 28,
    "prefecture": "兵庫県",
    "city": "神戸市北区",
    "town": "山田町衝原"
  },
  "6511301": {
    "zipcode": "6511301",
    "prefectureCode": "28",
    "prefectureNumber": 28,
    "prefecture": "兵庫県",
    "city": "神戸市北区",
    "town": "藤原台北町"
  },
  "6511302": {
    "zipcode": "6511302",
    "prefectureCode": "28",
    "prefectureNumber": 28,
    "prefecture": "兵庫県",
    "city": "神戸市北区",
    "town": "藤原台中町"
  },
  "6511303": {
    "zipcode": "6511303",
    "prefectureCode": "28",
    "prefectureNumber": 28,
    "prefecture": "兵庫県",
    "city": "神戸市北区",
    "town": "藤原台南町"
  },
  "6511304": {
    "zipcode": "6511304",
    "prefectureCode": "28",
    "prefectureNumber": 28,
    "prefecture": "兵庫県",
    "city": "神戸市北区",
    "town": "京地"
  },
  "6511305": {
    "zipcode": "6511305",
    "prefectureCode": "28",
    "prefectureNumber": 28,
    "prefecture": "兵庫県",
    "city": "神戸市北区",
    "town": "西山"
  },
  "6511306": {
    "zipcode": "6511306",
    "prefectureCode": "28",
    "prefectureNumber": 28,
    "prefecture": "兵庫県",
    "city": "神戸市北区",
    "town": "菖蒲が丘"
  },
  "6511311": {
    "zipcode": "6511311",
    "prefectureCode": "28",
    "prefectureNumber": 28,
    "prefecture": "兵庫県",
    "city": "神戸市北区",
    "town": "有野町二郎"
  },
  "6511312": {
    "zipcode": "6511312",
    "prefectureCode": "28",
    "prefectureNumber": 28,
    "prefecture": "兵庫県",
    "city": "神戸市北区",
    "town": "有野町有野"
  },
  "6511313": {
    "zipcode": "6511313",
    "prefectureCode": "28",
    "prefectureNumber": 28,
    "prefecture": "兵庫県",
    "city": "神戸市北区",
    "town": "有野中町"
  },
  "6511321": {
    "zipcode": "6511321",
    "prefectureCode": "28",
    "prefectureNumber": 28,
    "prefecture": "兵庫県",
    "city": "神戸市北区",
    "town": "有野台"
  },
  "6511322": {
    "zipcode": "6511322",
    "prefectureCode": "28",
    "prefectureNumber": 28,
    "prefecture": "兵庫県",
    "city": "神戸市北区",
    "town": "東有野台"
  },
  "6511331": {
    "zipcode": "6511331",
    "prefectureCode": "28",
    "prefectureNumber": 28,
    "prefecture": "兵庫県",
    "city": "神戸市北区",
    "town": "有野町唐櫃"
  },
  "6511332": {
    "zipcode": "6511332",
    "prefectureCode": "28",
    "prefectureNumber": 28,
    "prefecture": "兵庫県",
    "city": "神戸市北区",
    "town": "唐櫃台"
  },
  "6511333": {
    "zipcode": "6511333",
    "prefectureCode": "28",
    "prefectureNumber": 28,
    "prefecture": "兵庫県",
    "city": "神戸市北区",
    "town": "東大池"
  },
  "6511334": {
    "zipcode": "6511334",
    "prefectureCode": "28",
    "prefectureNumber": 28,
    "prefecture": "兵庫県",
    "city": "神戸市北区",
    "town": "唐櫃六甲台"
  },
  "6511341": {
    "zipcode": "6511341",
    "prefectureCode": "28",
    "prefectureNumber": 28,
    "prefecture": "兵庫県",
    "city": "神戸市北区",
    "town": "八多町深谷"
  },
  "6511342": {
    "zipcode": "6511342",
    "prefectureCode": "28",
    "prefectureNumber": 28,
    "prefecture": "兵庫県",
    "city": "神戸市北区",
    "town": "八多町柳谷"
  },
  "6511343": {
    "zipcode": "6511343",
    "prefectureCode": "28",
    "prefectureNumber": 28,
    "prefecture": "兵庫県",
    "city": "神戸市北区",
    "town": "八多町附物"
  },
  "6511344": {
    "zipcode": "6511344",
    "prefectureCode": "28",
    "prefectureNumber": 28,
    "prefecture": "兵庫県",
    "city": "神戸市北区",
    "town": "八多町屏風"
  },
  "6511345": {
    "zipcode": "6511345",
    "prefectureCode": "28",
    "prefectureNumber": 28,
    "prefecture": "兵庫県",
    "city": "神戸市北区",
    "town": "八多町西畑"
  },
  "6511351": {
    "zipcode": "6511351",
    "prefectureCode": "28",
    "prefectureNumber": 28,
    "prefecture": "兵庫県",
    "city": "神戸市北区",
    "town": "八多町中"
  },
  "6511352": {
    "zipcode": "6511352",
    "prefectureCode": "28",
    "prefectureNumber": 28,
    "prefecture": "兵庫県",
    "city": "神戸市北区",
    "town": "八多町下小名田"
  },
  "6511353": {
    "zipcode": "6511353",
    "prefectureCode": "28",
    "prefectureNumber": 28,
    "prefecture": "兵庫県",
    "city": "神戸市北区",
    "town": "八多町吉尾"
  },
  "6511354": {
    "zipcode": "6511354",
    "prefectureCode": "28",
    "prefectureNumber": 28,
    "prefecture": "兵庫県",
    "city": "神戸市北区",
    "town": "八多町上小名田"
  },
  "6511401": {
    "zipcode": "6511401",
    "prefectureCode": "28",
    "prefectureNumber": 28,
    "prefecture": "兵庫県",
    "city": "神戸市北区",
    "town": "有馬町"
  },
  "6511411": {
    "zipcode": "6511411",
    "prefectureCode": "28",
    "prefectureNumber": 28,
    "prefecture": "兵庫県",
    "city": "西宮市",
    "town": "山口町名来"
  },
  "6511412": {
    "zipcode": "6511412",
    "prefectureCode": "28",
    "prefectureNumber": 28,
    "prefecture": "兵庫県",
    "city": "西宮市",
    "town": "山口町下山口"
  },
  "6511413": {
    "zipcode": "6511413",
    "prefectureCode": "28",
    "prefectureNumber": 28,
    "prefecture": "兵庫県",
    "city": "西宮市",
    "town": "北六甲台"
  },
  "6511421": {
    "zipcode": "6511421",
    "prefectureCode": "28",
    "prefectureNumber": 28,
    "prefecture": "兵庫県",
    "city": "西宮市",
    "town": "山口町上山口"
  },
  "6511422": {
    "zipcode": "6511422",
    "prefectureCode": "28",
    "prefectureNumber": 28,
    "prefecture": "兵庫県",
    "city": "西宮市",
    "town": "山口町金仙寺"
  },
  "6511423": {
    "zipcode": "6511423",
    "prefectureCode": "28",
    "prefectureNumber": 28,
    "prefecture": "兵庫県",
    "city": "西宮市",
    "town": "山口町船坂"
  },
  "6511424": {
    "zipcode": "6511424",
    "prefectureCode": "28",
    "prefectureNumber": 28,
    "prefecture": "兵庫県",
    "city": "西宮市",
    "town": "山口町香花園"
  },
  "6511431": {
    "zipcode": "6511431",
    "prefectureCode": "28",
    "prefectureNumber": 28,
    "prefecture": "兵庫県",
    "city": "西宮市",
    "town": "山口町阪神流通センター"
  },
  "6511432": {
    "zipcode": "6511432",
    "prefectureCode": "28",
    "prefectureNumber": 28,
    "prefecture": "兵庫県",
    "city": "西宮市",
    "town": "すみれ台"
  },
  "6511433": {
    "zipcode": "6511433",
    "prefectureCode": "28",
    "prefectureNumber": 28,
    "prefecture": "兵庫県",
    "city": "西宮市",
    "town": "山口町中野"
  },
  "6511501": {
    "zipcode": "6511501",
    "prefectureCode": "28",
    "prefectureNumber": 28,
    "prefecture": "兵庫県",
    "city": "神戸市北区",
    "town": "道場町道場"
  },
  "6511502": {
    "zipcode": "6511502",
    "prefectureCode": "28",
    "prefectureNumber": 28,
    "prefecture": "兵庫県",
    "city": "神戸市北区",
    "town": "道場町塩田"
  },
  "6511503": {
    "zipcode": "6511503",
    "prefectureCode": "28",
    "prefectureNumber": 28,
    "prefecture": "兵庫県",
    "city": "神戸市北区",
    "town": "道場町生野（その他）"
  },
  "6511504": {
    "zipcode": "6511504",
    "prefectureCode": "28",
    "prefectureNumber": 28,
    "prefecture": "兵庫県",
    "city": "神戸市北区",
    "town": "道場町平田"
  },
  "6511505": {
    "zipcode": "6511505",
    "prefectureCode": "28",
    "prefectureNumber": 28,
    "prefecture": "兵庫県",
    "city": "神戸市北区",
    "town": "道場町日下部"
  },
  "6511511": {
    "zipcode": "6511511",
    "prefectureCode": "28",
    "prefectureNumber": 28,
    "prefecture": "兵庫県",
    "city": "神戸市北区",
    "town": "長尾町宅原"
  },
  "6511512": {
    "zipcode": "6511512",
    "prefectureCode": "28",
    "prefectureNumber": 28,
    "prefecture": "兵庫県",
    "city": "神戸市北区",
    "town": "長尾町上津"
  },
  "6511513": {
    "zipcode": "6511513",
    "prefectureCode": "28",
    "prefectureNumber": 28,
    "prefecture": "兵庫県",
    "city": "神戸市北区",
    "town": "鹿の子台北町"
  },
  "6511514": {
    "zipcode": "6511514",
    "prefectureCode": "28",
    "prefectureNumber": 28,
    "prefecture": "兵庫県",
    "city": "神戸市北区",
    "town": "鹿の子台南町"
  },
  "6511515": {
    "zipcode": "6511515",
    "prefectureCode": "28",
    "prefectureNumber": 28,
    "prefecture": "兵庫県",
    "city": "神戸市北区",
    "town": "上津台"
  },
  "6511516": {
    "zipcode": "6511516",
    "prefectureCode": "28",
    "prefectureNumber": 28,
    "prefecture": "兵庫県",
    "city": "神戸市北区",
    "town": "赤松台"
  },
  "6511521": {
    "zipcode": "6511521",
    "prefectureCode": "28",
    "prefectureNumber": 28,
    "prefecture": "兵庫県",
    "city": "神戸市北区",
    "town": "大沢町市原"
  },
  "6511522": {
    "zipcode": "6511522",
    "prefectureCode": "28",
    "prefectureNumber": 28,
    "prefecture": "兵庫県",
    "city": "神戸市北区",
    "town": "大沢町上大沢"
  },
  "6511523": {
    "zipcode": "6511523",
    "prefectureCode": "28",
    "prefectureNumber": 28,
    "prefecture": "兵庫県",
    "city": "神戸市北区",
    "town": "大沢町神付"
  },
  "6511524": {
    "zipcode": "6511524",
    "prefectureCode": "28",
    "prefectureNumber": 28,
    "prefecture": "兵庫県",
    "city": "神戸市北区",
    "town": "大沢町中大沢"
  },
  "6511525": {
    "zipcode": "6511525",
    "prefectureCode": "28",
    "prefectureNumber": 28,
    "prefecture": "兵庫県",
    "city": "神戸市北区",
    "town": "大沢町日西原"
  },
  "6511526": {
    "zipcode": "6511526",
    "prefectureCode": "28",
    "prefectureNumber": 28,
    "prefecture": "兵庫県",
    "city": "神戸市北区",
    "town": "大沢町簾"
  },
  "6511601": {
    "zipcode": "6511601",
    "prefectureCode": "28",
    "prefectureNumber": 28,
    "prefecture": "兵庫県",
    "city": "神戸市北区",
    "town": "淡河町北僧尾"
  },
  "6511602": {
    "zipcode": "6511602",
    "prefectureCode": "28",
    "prefectureNumber": 28,
    "prefecture": "兵庫県",
    "city": "神戸市北区",
    "town": "淡河町南僧尾"
  },
  "6511603": {
    "zipcode": "6511603",
    "prefectureCode": "28",
    "prefectureNumber": 28,
    "prefecture": "兵庫県",
    "city": "神戸市北区",
    "town": "淡河町淡河"
  },
  "6511604": {
    "zipcode": "6511604",
    "prefectureCode": "28",
    "prefectureNumber": 28,
    "prefecture": "兵庫県",
    "city": "神戸市北区",
    "town": "淡河町勝雄"
  },
  "6511611": {
    "zipcode": "6511611",
    "prefectureCode": "28",
    "prefectureNumber": 28,
    "prefecture": "兵庫県",
    "city": "神戸市北区",
    "town": "淡河町中山"
  },
  "6511612": {
    "zipcode": "6511612",
    "prefectureCode": "28",
    "prefectureNumber": 28,
    "prefecture": "兵庫県",
    "city": "神戸市北区",
    "town": "淡河町東畑"
  },
  "6511613": {
    "zipcode": "6511613",
    "prefectureCode": "28",
    "prefectureNumber": 28,
    "prefecture": "兵庫県",
    "city": "神戸市北区",
    "town": "淡河町行原"
  },
  "6511614": {
    "zipcode": "6511614",
    "prefectureCode": "28",
    "prefectureNumber": 28,
    "prefecture": "兵庫県",
    "city": "神戸市北区",
    "town": "淡河町木津"
  },
  "6511615": {
    "zipcode": "6511615",
    "prefectureCode": "28",
    "prefectureNumber": 28,
    "prefecture": "兵庫県",
    "city": "神戸市北区",
    "town": "淡河町萩原"
  },
  "6511616": {
    "zipcode": "6511616",
    "prefectureCode": "28",
    "prefectureNumber": 28,
    "prefecture": "兵庫県",
    "city": "神戸市北区",
    "town": "淡河町北畑"
  },
  "6511621": {
    "zipcode": "6511621",
    "prefectureCode": "28",
    "prefectureNumber": 28,
    "prefecture": "兵庫県",
    "city": "神戸市北区",
    "town": "淡河町神影"
  },
  "6511622": {
    "zipcode": "6511622",
    "prefectureCode": "28",
    "prefectureNumber": 28,
    "prefecture": "兵庫県",
    "city": "神戸市北区",
    "town": "淡河町神田"
  },
  "6511623": {
    "zipcode": "6511623",
    "prefectureCode": "28",
    "prefectureNumber": 28,
    "prefecture": "兵庫県",
    "city": "神戸市北区",
    "town": "淡河町野瀬"
  },
  "6512101": {
    "zipcode": "6512101",
    "prefectureCode": "28",
    "prefectureNumber": 28,
    "prefecture": "兵庫県",
    "city": "神戸市西区",
    "town": "伊川谷町布施畑"
  },
  "6512102": {
    "zipcode": "6512102",
    "prefectureCode": "28",
    "prefectureNumber": 28,
    "prefecture": "兵庫県",
    "city": "神戸市西区",
    "town": "学園東町"
  },
  "6512103": {
    "zipcode": "6512103",
    "prefectureCode": "28",
    "prefectureNumber": 28,
    "prefecture": "兵庫県",
    "city": "神戸市西区",
    "town": "学園西町"
  },
  "6512104": {
    "zipcode": "6512104",
    "prefectureCode": "28",
    "prefectureNumber": 28,
    "prefecture": "兵庫県",
    "city": "神戸市西区",
    "town": "伊川谷町長坂"
  },
  "6512105": {
    "zipcode": "6512105",
    "prefectureCode": "28",
    "prefectureNumber": 28,
    "prefecture": "兵庫県",
    "city": "神戸市西区",
    "town": "伊川谷町上脇"
  },
  "6512106": {
    "zipcode": "6512106",
    "prefectureCode": "28",
    "prefectureNumber": 28,
    "prefecture": "兵庫県",
    "city": "神戸市西区",
    "town": "伊川谷町井吹"
  },
  "6512107": {
    "zipcode": "6512107",
    "prefectureCode": "28",
    "prefectureNumber": 28,
    "prefecture": "兵庫県",
    "city": "神戸市西区",
    "town": "伊川谷町小寺"
  },
  "6512108": {
    "zipcode": "6512108",
    "prefectureCode": "28",
    "prefectureNumber": 28,
    "prefecture": "兵庫県",
    "city": "神戸市西区",
    "town": "伊川谷町前開"
  },
  "6512109": {
    "zipcode": "6512109",
    "prefectureCode": "28",
    "prefectureNumber": 28,
    "prefecture": "兵庫県",
    "city": "神戸市西区",
    "town": "前開南町"
  },
  "6512111": {
    "zipcode": "6512111",
    "prefectureCode": "28",
    "prefectureNumber": 28,
    "prefecture": "兵庫県",
    "city": "神戸市西区",
    "town": "池上"
  },
  "6512112": {
    "zipcode": "6512112",
    "prefectureCode": "28",
    "prefectureNumber": 28,
    "prefecture": "兵庫県",
    "city": "神戸市西区",
    "town": "大津和"
  },
  "6512113": {
    "zipcode": "6512113",
    "prefectureCode": "28",
    "prefectureNumber": 28,
    "prefecture": "兵庫県",
    "city": "神戸市西区",
    "town": "伊川谷町有瀬"
  },
  "6512114": {
    "zipcode": "6512114",
    "prefectureCode": "28",
    "prefectureNumber": 28,
    "prefecture": "兵庫県",
    "city": "神戸市西区",
    "town": "今寺"
  },
  "6512115": {
    "zipcode": "6512115",
    "prefectureCode": "28",
    "prefectureNumber": 28,
    "prefecture": "兵庫県",
    "city": "神戸市西区",
    "town": "伊川谷町別府"
  },
  "6512116": {
    "zipcode": "6512116",
    "prefectureCode": "28",
    "prefectureNumber": 28,
    "prefecture": "兵庫県",
    "city": "神戸市西区",
    "town": "南別府"
  },
  "6512117": {
    "zipcode": "6512117",
    "prefectureCode": "28",
    "prefectureNumber": 28,
    "prefecture": "兵庫県",
    "city": "神戸市西区",
    "town": "北別府"
  },
  "6512120": {
    "zipcode": "6512120",
    "prefectureCode": "28",
    "prefectureNumber": 28,
    "prefecture": "兵庫県",
    "city": "神戸市西区",
    "town": "和井取"
  },
  "6512121": {
    "zipcode": "6512121",
    "prefectureCode": "28",
    "prefectureNumber": 28,
    "prefecture": "兵庫県",
    "city": "神戸市西区",
    "town": "水谷"
  },
  "6512122": {
    "zipcode": "6512122",
    "prefectureCode": "28",
    "prefectureNumber": 28,
    "prefecture": "兵庫県",
    "city": "神戸市西区",
    "town": "玉津町高津橋"
  },
  "6512123": {
    "zipcode": "6512123",
    "prefectureCode": "28",
    "prefectureNumber": 28,
    "prefecture": "兵庫県",
    "city": "神戸市西区",
    "town": "天王山"
  },
  "6512124": {
    "zipcode": "6512124",
    "prefectureCode": "28",
    "prefectureNumber": 28,
    "prefecture": "兵庫県",
    "city": "神戸市西区",
    "town": "伊川谷町潤和"
  },
  "6512125": {
    "zipcode": "6512125",
    "prefectureCode": "28",
    "prefectureNumber": 28,
    "prefecture": "兵庫県",
    "city": "神戸市西区",
    "town": "玉津町新方"
  },
  "6512126": {
    "zipcode": "6512126",
    "prefectureCode": "28",
    "prefectureNumber": 28,
    "prefecture": "兵庫県",
    "city": "神戸市西区",
    "town": "玉津町上池"
  },
  "6512127": {
    "zipcode": "6512127",
    "prefectureCode": "28",
    "prefectureNumber": 28,
    "prefecture": "兵庫県",
    "city": "神戸市西区",
    "town": "玉津町西河原"
  },
  "6512128": {
    "zipcode": "6512128",
    "prefectureCode": "28",
    "prefectureNumber": 28,
    "prefecture": "兵庫県",
    "city": "神戸市西区",
    "town": "玉津町今津"
  },
  "6512129": {
    "zipcode": "6512129",
    "prefectureCode": "28",
    "prefectureNumber": 28,
    "prefecture": "兵庫県",
    "city": "神戸市西区",
    "town": "白水"
  },
  "6512131": {
    "zipcode": "6512131",
    "prefectureCode": "28",
    "prefectureNumber": 28,
    "prefecture": "兵庫県",
    "city": "神戸市西区",
    "town": "持子"
  },
  "6512132": {
    "zipcode": "6512132",
    "prefectureCode": "28",
    "prefectureNumber": 28,
    "prefecture": "兵庫県",
    "city": "神戸市西区",
    "town": "森友"
  },
  "6512133": {
    "zipcode": "6512133",
    "prefectureCode": "28",
    "prefectureNumber": 28,
    "prefecture": "兵庫県",
    "city": "神戸市西区",
    "town": "枝吉"
  },
  "6512134": {
    "zipcode": "6512134",
    "prefectureCode": "28",
    "prefectureNumber": 28,
    "prefecture": "兵庫県",
    "city": "神戸市西区",
    "town": "曙町"
  },
  "6512135": {
    "zipcode": "6512135",
    "prefectureCode": "28",
    "prefectureNumber": 28,
    "prefecture": "兵庫県",
    "city": "神戸市西区",
    "town": "王塚台"
  },
  "6512136": {
    "zipcode": "6512136",
    "prefectureCode": "28",
    "prefectureNumber": 28,
    "prefecture": "兵庫県",
    "city": "神戸市西区",
    "town": "中野"
  },
  "6512137": {
    "zipcode": "6512137",
    "prefectureCode": "28",
    "prefectureNumber": 28,
    "prefecture": "兵庫県",
    "city": "神戸市西区",
    "town": "玉津町出合"
  },
  "6512138": {
    "zipcode": "6512138",
    "prefectureCode": "28",
    "prefectureNumber": 28,
    "prefecture": "兵庫県",
    "city": "神戸市西区",
    "town": "玉津町吉田"
  },
  "6512141": {
    "zipcode": "6512141",
    "prefectureCode": "28",
    "prefectureNumber": 28,
    "prefecture": "兵庫県",
    "city": "神戸市西区",
    "town": "天が岡"
  },
  "6512142": {
    "zipcode": "6512142",
    "prefectureCode": "28",
    "prefectureNumber": 28,
    "prefecture": "兵庫県",
    "city": "神戸市西区",
    "town": "二ツ屋"
  },
  "6512143": {
    "zipcode": "6512143",
    "prefectureCode": "28",
    "prefectureNumber": 28,
    "prefecture": "兵庫県",
    "city": "神戸市西区",
    "town": "丸塚"
  },
  "6512144": {
    "zipcode": "6512144",
    "prefectureCode": "28",
    "prefectureNumber": 28,
    "prefecture": "兵庫県",
    "city": "神戸市西区",
    "town": "玉津町小山"
  },
  "6512145": {
    "zipcode": "6512145",
    "prefectureCode": "28",
    "prefectureNumber": 28,
    "prefecture": "兵庫県",
    "city": "神戸市西区",
    "town": "玉津町居住"
  },
  "6512146": {
    "zipcode": "6512146",
    "prefectureCode": "28",
    "prefectureNumber": 28,
    "prefecture": "兵庫県",
    "city": "神戸市西区",
    "town": "宮下"
  },
  "6512147": {
    "zipcode": "6512147",
    "prefectureCode": "28",
    "prefectureNumber": 28,
    "prefecture": "兵庫県",
    "city": "神戸市西区",
    "town": "玉津町田中"
  },
  "6512148": {
    "zipcode": "6512148",
    "prefectureCode": "28",
    "prefectureNumber": 28,
    "prefecture": "兵庫県",
    "city": "神戸市西区",
    "town": "長畑町"
  },
  "6512201": {
    "zipcode": "6512201",
    "prefectureCode": "28",
    "prefectureNumber": 28,
    "prefecture": "兵庫県",
    "city": "神戸市西区",
    "town": "高雄台"
  },
  "6512202": {
    "zipcode": "6512202",
    "prefectureCode": "28",
    "prefectureNumber": 28,
    "prefecture": "兵庫県",
    "city": "神戸市西区",
    "town": "押部谷町西盛"
  },
  "6512203": {
    "zipcode": "6512203",
    "prefectureCode": "28",
    "prefectureNumber": 28,
    "prefecture": "兵庫県",
    "city": "神戸市西区",
    "town": "押部谷町近江"
  },
  "6512204": {
    "zipcode": "6512204",
    "prefectureCode": "28",
    "prefectureNumber": 28,
    "prefecture": "兵庫県",
    "city": "神戸市西区",
    "town": "押部谷町高和"
  },
  "6512205": {
    "zipcode": "6512205",
    "prefectureCode": "28",
    "prefectureNumber": 28,
    "prefecture": "兵庫県",
    "city": "神戸市西区",
    "town": "押部谷町養田"
  },
  "6512206": {
    "zipcode": "6512206",
    "prefectureCode": "28",
    "prefectureNumber": 28,
    "prefecture": "兵庫県",
    "city": "神戸市西区",
    "town": "押部谷町和田"
  },
  "6512207": {
    "zipcode": "6512207",
    "prefectureCode": "28",
    "prefectureNumber": 28,
    "prefecture": "兵庫県",
    "city": "神戸市西区",
    "town": "押部谷町細田"
  },
  "6512211": {
    "zipcode": "6512211",
    "prefectureCode": "28",
    "prefectureNumber": 28,
    "prefecture": "兵庫県",
    "city": "神戸市西区",
    "town": "押部谷町栄"
  },
  "6512212": {
    "zipcode": "6512212",
    "prefectureCode": "28",
    "prefectureNumber": 28,
    "prefecture": "兵庫県",
    "city": "神戸市西区",
    "town": "押部谷町押部"
  },
  "6512213": {
    "zipcode": "6512213",
    "prefectureCode": "28",
    "prefectureNumber": 28,
    "prefecture": "兵庫県",
    "city": "神戸市西区",
    "town": "押部谷町福住"
  },
  "6512214": {
    "zipcode": "6512214",
    "prefectureCode": "28",
    "prefectureNumber": 28,
    "prefecture": "兵庫県",
    "city": "神戸市西区",
    "town": "富士見が丘"
  },
  "6512215": {
    "zipcode": "6512215",
    "prefectureCode": "28",
    "prefectureNumber": 28,
    "prefecture": "兵庫県",
    "city": "神戸市西区",
    "town": "北山台"
  },
  "6512216": {
    "zipcode": "6512216",
    "prefectureCode": "28",
    "prefectureNumber": 28,
    "prefecture": "兵庫県",
    "city": "神戸市西区",
    "town": "美穂が丘"
  },
  "6512217": {
    "zipcode": "6512217",
    "prefectureCode": "28",
    "prefectureNumber": 28,
    "prefecture": "兵庫県",
    "city": "神戸市西区",
    "town": "月が丘"
  },
  "6512221": {
    "zipcode": "6512221",
    "prefectureCode": "28",
    "prefectureNumber": 28,
    "prefecture": "兵庫県",
    "city": "神戸市西区",
    "town": "押部谷町木幡"
  },
  "6512222": {
    "zipcode": "6512222",
    "prefectureCode": "28",
    "prefectureNumber": 28,
    "prefecture": "兵庫県",
    "city": "神戸市西区",
    "town": "押部谷町木津"
  },
  "6512223": {
    "zipcode": "6512223",
    "prefectureCode": "28",
    "prefectureNumber": 28,
    "prefecture": "兵庫県",
    "city": "神戸市西区",
    "town": "押部谷町木見"
  },
  "6512224": {
    "zipcode": "6512224",
    "prefectureCode": "28",
    "prefectureNumber": 28,
    "prefecture": "兵庫県",
    "city": "神戸市西区",
    "town": "秋葉台"
  },
  "6512225": {
    "zipcode": "6512225",
    "prefectureCode": "28",
    "prefectureNumber": 28,
    "prefecture": "兵庫県",
    "city": "神戸市西区",
    "town": "桜が丘東町"
  },
  "6512226": {
    "zipcode": "6512226",
    "prefectureCode": "28",
    "prefectureNumber": 28,
    "prefecture": "兵庫県",
    "city": "神戸市西区",
    "town": "桜が丘中町"
  },
  "6512227": {
    "zipcode": "6512227",
    "prefectureCode": "28",
    "prefectureNumber": 28,
    "prefecture": "兵庫県",
    "city": "神戸市西区",
    "town": "桜が丘西町"
  },
  "6512228": {
    "zipcode": "6512228",
    "prefectureCode": "28",
    "prefectureNumber": 28,
    "prefecture": "兵庫県",
    "city": "神戸市西区",
    "town": "見津が丘"
  },
  "6512231": {
    "zipcode": "6512231",
    "prefectureCode": "28",
    "prefectureNumber": 28,
    "prefecture": "兵庫県",
    "city": "神戸市西区",
    "town": "櫨谷町寺谷"
  },
  "6512232": {
    "zipcode": "6512232",
    "prefectureCode": "28",
    "prefectureNumber": 28,
    "prefecture": "兵庫県",
    "city": "神戸市西区",
    "town": "櫨谷町友清"
  },
  "6512233": {
    "zipcode": "6512233",
    "prefectureCode": "28",
    "prefectureNumber": 28,
    "prefecture": "兵庫県",
    "city": "神戸市西区",
    "town": "櫨谷町福谷"
  },
  "6512234": {
    "zipcode": "6512234",
    "prefectureCode": "28",
    "prefectureNumber": 28,
    "prefecture": "兵庫県",
    "city": "神戸市西区",
    "town": "櫨谷町池谷"
  },
  "6512235": {
    "zipcode": "6512235",
    "prefectureCode": "28",
    "prefectureNumber": 28,
    "prefecture": "兵庫県",
    "city": "神戸市西区",
    "town": "櫨谷町長谷"
  },
  "6512236": {
    "zipcode": "6512236",
    "prefectureCode": "28",
    "prefectureNumber": 28,
    "prefecture": "兵庫県",
    "city": "神戸市西区",
    "town": "櫨谷町栃木"
  },
  "6512237": {
    "zipcode": "6512237",
    "prefectureCode": "28",
    "prefectureNumber": 28,
    "prefecture": "兵庫県",
    "city": "神戸市西区",
    "town": "櫨谷町谷口"
  },
  "6512238": {
    "zipcode": "6512238",
    "prefectureCode": "28",
    "prefectureNumber": 28,
    "prefecture": "兵庫県",
    "city": "神戸市西区",
    "town": "櫨谷町菅野"
  },
  "6512239": {
    "zipcode": "6512239",
    "prefectureCode": "28",
    "prefectureNumber": 28,
    "prefecture": "兵庫県",
    "city": "神戸市西区",
    "town": "櫨谷町松本"
  },
  "6512241": {
    "zipcode": "6512241",
    "prefectureCode": "28",
    "prefectureNumber": 28,
    "prefecture": "兵庫県",
    "city": "神戸市西区",
    "town": "室谷"
  },
  "6512242": {
    "zipcode": "6512242",
    "prefectureCode": "28",
    "prefectureNumber": 28,
    "prefecture": "兵庫県",
    "city": "神戸市西区",
    "town": "井吹台東町"
  },
  "6512243": {
    "zipcode": "6512243",
    "prefectureCode": "28",
    "prefectureNumber": 28,
    "prefecture": "兵庫県",
    "city": "神戸市西区",
    "town": "井吹台西町"
  },
  "6512244": {
    "zipcode": "6512244",
    "prefectureCode": "28",
    "prefectureNumber": 28,
    "prefecture": "兵庫県",
    "city": "神戸市西区",
    "town": "井吹台北町"
  },
  "6512251": {
    "zipcode": "6512251",
    "prefectureCode": "28",
    "prefectureNumber": 28,
    "prefecture": "兵庫県",
    "city": "神戸市西区",
    "town": "平野町下村"
  },
  "6512252": {
    "zipcode": "6512252",
    "prefectureCode": "28",
    "prefectureNumber": 28,
    "prefecture": "兵庫県",
    "city": "神戸市西区",
    "town": "平野町福中"
  },
  "6512253": {
    "zipcode": "6512253",
    "prefectureCode": "28",
    "prefectureNumber": 28,
    "prefecture": "兵庫県",
    "city": "神戸市西区",
    "town": "平野町向井"
  },
  "6512254": {
    "zipcode": "6512254",
    "prefectureCode": "28",
    "prefectureNumber": 28,
    "prefecture": "兵庫県",
    "city": "神戸市西区",
    "town": "平野町芝崎"
  },
  "6512255": {
    "zipcode": "6512255",
    "prefectureCode": "28",
    "prefectureNumber": 28,
    "prefecture": "兵庫県",
    "city": "神戸市西区",
    "town": "平野町慶明"
  },
  "6512256": {
    "zipcode": "6512256",
    "prefectureCode": "28",
    "prefectureNumber": 28,
    "prefecture": "兵庫県",
    "city": "神戸市西区",
    "town": "平野町大野"
  },
  "6512257": {
    "zipcode": "6512257",
    "prefectureCode": "28",
    "prefectureNumber": 28,
    "prefecture": "兵庫県",
    "city": "神戸市西区",
    "town": "平野町中津"
  },
  "6512261": {
    "zipcode": "6512261",
    "prefectureCode": "28",
    "prefectureNumber": 28,
    "prefecture": "兵庫県",
    "city": "神戸市西区",
    "town": "平野町堅田"
  },
  "6512262": {
    "zipcode": "6512262",
    "prefectureCode": "28",
    "prefectureNumber": 28,
    "prefecture": "兵庫県",
    "city": "神戸市西区",
    "town": "平野町繁田"
  },
  "6512263": {
    "zipcode": "6512263",
    "prefectureCode": "28",
    "prefectureNumber": 28,
    "prefecture": "兵庫県",
    "city": "神戸市西区",
    "town": "平野町常本"
  },
  "6512264": {
    "zipcode": "6512264",
    "prefectureCode": "28",
    "prefectureNumber": 28,
    "prefecture": "兵庫県",
    "city": "神戸市西区",
    "town": "平野町大畑"
  },
  "6512265": {
    "zipcode": "6512265",
    "prefectureCode": "28",
    "prefectureNumber": 28,
    "prefecture": "兵庫県",
    "city": "神戸市西区",
    "town": "平野町宮前"
  },
  "6512266": {
    "zipcode": "6512266",
    "prefectureCode": "28",
    "prefectureNumber": 28,
    "prefecture": "兵庫県",
    "city": "神戸市西区",
    "town": "平野町印路"
  },
  "6512267": {
    "zipcode": "6512267",
    "prefectureCode": "28",
    "prefectureNumber": 28,
    "prefecture": "兵庫県",
    "city": "神戸市西区",
    "town": "平野町西戸田"
  },
  "6512268": {
    "zipcode": "6512268",
    "prefectureCode": "28",
    "prefectureNumber": 28,
    "prefecture": "兵庫県",
    "city": "神戸市西区",
    "town": "平野町黒田"
  },
  "6512271": {
    "zipcode": "6512271",
    "prefectureCode": "28",
    "prefectureNumber": 28,
    "prefecture": "兵庫県",
    "city": "神戸市西区",
    "town": "高塚台"
  },
  "6512272": {
    "zipcode": "6512272",
    "prefectureCode": "28",
    "prefectureNumber": 28,
    "prefecture": "兵庫県",
    "city": "神戸市西区",
    "town": "狩場台"
  },
  "6512273": {
    "zipcode": "6512273",
    "prefectureCode": "28",
    "prefectureNumber": 28,
    "prefecture": "兵庫県",
    "city": "神戸市西区",
    "town": "糀台"
  },
  "6512274": {
    "zipcode": "6512274",
    "prefectureCode": "28",
    "prefectureNumber": 28,
    "prefecture": "兵庫県",
    "city": "神戸市西区",
    "town": "竹の台"
  },
  "6512275": {
    "zipcode": "6512275",
    "prefectureCode": "28",
    "prefectureNumber": 28,
    "prefecture": "兵庫県",
    "city": "神戸市西区",
    "town": "樫野台"
  },
  "6512276": {
    "zipcode": "6512276",
    "prefectureCode": "28",
    "prefectureNumber": 28,
    "prefecture": "兵庫県",
    "city": "神戸市西区",
    "town": "春日台"
  },
  "6512277": {
    "zipcode": "6512277",
    "prefectureCode": "28",
    "prefectureNumber": 28,
    "prefecture": "兵庫県",
    "city": "神戸市西区",
    "town": "美賀多台"
  },
  "6512301": {
    "zipcode": "6512301",
    "prefectureCode": "28",
    "prefectureNumber": 28,
    "prefecture": "兵庫県",
    "city": "神戸市西区",
    "town": "神出町勝成"
  },
  "6512302": {
    "zipcode": "6512302",
    "prefectureCode": "28",
    "prefectureNumber": 28,
    "prefecture": "兵庫県",
    "city": "神戸市西区",
    "town": "神出町古神"
  },
  "6512303": {
    "zipcode": "6512303",
    "prefectureCode": "28",
    "prefectureNumber": 28,
    "prefecture": "兵庫県",
    "city": "神戸市西区",
    "town": "神出町五百蔵"
  },
  "6512304": {
    "zipcode": "6512304",
    "prefectureCode": "28",
    "prefectureNumber": 28,
    "prefecture": "兵庫県",
    "city": "神戸市西区",
    "town": "神出町小束野"
  },
  "6512311": {
    "zipcode": "6512311",
    "prefectureCode": "28",
    "prefectureNumber": 28,
    "prefecture": "兵庫県",
    "city": "神戸市西区",
    "town": "神出町東"
  },
  "6512312": {
    "zipcode": "6512312",
    "prefectureCode": "28",
    "prefectureNumber": 28,
    "prefecture": "兵庫県",
    "city": "神戸市西区",
    "town": "神出町南"
  },
  "6512313": {
    "zipcode": "6512313",
    "prefectureCode": "28",
    "prefectureNumber": 28,
    "prefecture": "兵庫県",
    "city": "神戸市西区",
    "town": "神出町田井"
  },
  "6512321": {
    "zipcode": "6512321",
    "prefectureCode": "28",
    "prefectureNumber": 28,
    "prefecture": "兵庫県",
    "city": "神戸市西区",
    "town": "神出町宝勢"
  },
  "6512331": {
    "zipcode": "6512331",
    "prefectureCode": "28",
    "prefectureNumber": 28,
    "prefecture": "兵庫県",
    "city": "神戸市西区",
    "town": "神出町広谷"
  },
  "6512332": {
    "zipcode": "6512332",
    "prefectureCode": "28",
    "prefectureNumber": 28,
    "prefecture": "兵庫県",
    "city": "神戸市西区",
    "town": "神出町北"
  },
  "6512333": {
    "zipcode": "6512333",
    "prefectureCode": "28",
    "prefectureNumber": 28,
    "prefecture": "兵庫県",
    "city": "神戸市西区",
    "town": "神出町池田"
  },
  "6512334": {
    "zipcode": "6512334",
    "prefectureCode": "28",
    "prefectureNumber": 28,
    "prefecture": "兵庫県",
    "city": "神戸市西区",
    "town": "神出町紫合"
  },
  "6512401": {
    "zipcode": "6512401",
    "prefectureCode": "28",
    "prefectureNumber": 28,
    "prefecture": "兵庫県",
    "city": "神戸市西区",
    "town": "岩岡町岩岡"
  },
  "6512402": {
    "zipcode": "6512402",
    "prefectureCode": "28",
    "prefectureNumber": 28,
    "prefecture": "兵庫県",
    "city": "神戸市西区",
    "town": "岩岡町印路"
  },
  "6512403": {
    "zipcode": "6512403",
    "prefectureCode": "28",
    "prefectureNumber": 28,
    "prefecture": "兵庫県",
    "city": "神戸市西区",
    "town": "岩岡町西脇"
  },
  "6512404": {
    "zipcode": "6512404",
    "prefectureCode": "28",
    "prefectureNumber": 28,
    "prefecture": "兵庫県",
    "city": "神戸市西区",
    "town": "岩岡町古郷"
  },
  "6512405": {
    "zipcode": "6512405",
    "prefectureCode": "28",
    "prefectureNumber": 28,
    "prefecture": "兵庫県",
    "city": "神戸市西区",
    "town": "岩岡町野中"
  },
  "6512411": {
    "zipcode": "6512411",
    "prefectureCode": "28",
    "prefectureNumber": 28,
    "prefecture": "兵庫県",
    "city": "神戸市西区",
    "town": "上新地"
  },
  "6512412": {
    "zipcode": "6512412",
    "prefectureCode": "28",
    "prefectureNumber": 28,
    "prefecture": "兵庫県",
    "city": "神戸市西区",
    "town": "竜が岡"
  },
  "6512413": {
    "zipcode": "6512413",
    "prefectureCode": "28",
    "prefectureNumber": 28,
    "prefecture": "兵庫県",
    "city": "神戸市西区",
    "town": "福吉台"
  },
  "6512414": {
    "zipcode": "6512414",
    "prefectureCode": "28",
    "prefectureNumber": 28,
    "prefecture": "兵庫県",
    "city": "神戸市西区",
    "town": "大沢"
  }
}
