{
  "6520000": {
    "zipcode": "6520000",
    "prefectureCode": "28",
    "prefectureNumber": 28,
    "prefecture": "兵庫県",
    "city": "神戸市兵庫区",
    "town": "以下に掲載がない場合"
  },
  "6520001": {
    "zipcode": "6520001",
    "prefectureCode": "28",
    "prefectureNumber": 28,
    "prefecture": "兵庫県",
    "city": "神戸市兵庫区",
    "town": "烏原町"
  },
  "6520002": {
    "zipcode": "6520002",
    "prefectureCode": "28",
    "prefectureNumber": 28,
    "prefecture": "兵庫県",
    "city": "神戸市兵庫区",
    "town": "平野町"
  },
  "6520003": {
    "zipcode": "6520003",
    "prefectureCode": "28",
    "prefectureNumber": 28,
    "prefecture": "兵庫県",
    "city": "神戸市兵庫区",
    "town": "梅元町"
  },
  "6520004": {
    "zipcode": "6520004",
    "prefectureCode": "28",
    "prefectureNumber": 28,
    "prefecture": "兵庫県",
    "city": "神戸市兵庫区",
    "town": "楠谷町"
  },
  "6520005": {
    "zipcode": "6520005",
    "prefectureCode": "28",
    "prefectureNumber": 28,
    "prefecture": "兵庫県",
    "city": "神戸市兵庫区",
    "town": "矢部町"
  },
  "6520006": {
    "zipcode": "6520006",
    "prefectureCode": "28",
    "prefectureNumber": 28,
    "prefecture": "兵庫県",
    "city": "神戸市兵庫区",
    "town": "神田町"
  },
  "6520007": {
    "zipcode": "6520007",
    "prefectureCode": "28",
    "prefectureNumber": 28,
    "prefecture": "兵庫県",
    "city": "神戸市兵庫区",
    "town": "五宮町"
  },
  "6520008": {
    "zipcode": "6520008",
    "prefectureCode": "28",
    "prefectureNumber": 28,
    "prefecture": "兵庫県",
    "city": "神戸市兵庫区",
    "town": "上祇園町"
  },
  "6520011": {
    "zipcode": "6520011",
    "prefectureCode": "28",
    "prefectureNumber": 28,
    "prefecture": "兵庫県",
    "city": "神戸市兵庫区",
    "town": "山王町"
  },
  "6520012": {
    "zipcode": "6520012",
    "prefectureCode": "28",
    "prefectureNumber": 28,
    "prefecture": "兵庫県",
    "city": "神戸市兵庫区",
    "town": "湊山町"
  },
  "6520013": {
    "zipcode": "6520013",
    "prefectureCode": "28",
    "prefectureNumber": 28,
    "prefecture": "兵庫県",
    "city": "神戸市兵庫区",
    "town": "上三条町"
  },
  "6520014": {
    "zipcode": "6520014",
    "prefectureCode": "28",
    "prefectureNumber": 28,
    "prefecture": "兵庫県",
    "city": "神戸市兵庫区",
    "town": "下三条町"
  },
  "6520015": {
    "zipcode": "6520015",
    "prefectureCode": "28",
    "prefectureNumber": 28,
    "prefecture": "兵庫県",
    "city": "神戸市兵庫区",
    "town": "下祇園町"
  },
  "6520016": {
    "zipcode": "6520016",
    "prefectureCode": "28",
    "prefectureNumber": 28,
    "prefecture": "兵庫県",
    "city": "神戸市兵庫区",
    "town": "馬場町"
  },
  "6520021": {
    "zipcode": "6520021",
    "prefectureCode": "28",
    "prefectureNumber": 28,
    "prefecture": "兵庫県",
    "city": "神戸市兵庫区",
    "town": "天王町"
  },
  "6520022": {
    "zipcode": "6520022",
    "prefectureCode": "28",
    "prefectureNumber": 28,
    "prefecture": "兵庫県",
    "city": "神戸市兵庫区",
    "town": "千鳥町"
  },
  "6520023": {
    "zipcode": "6520023",
    "prefectureCode": "28",
    "prefectureNumber": 28,
    "prefecture": "兵庫県",
    "city": "神戸市兵庫区",
    "town": "都由乃町"
  },
  "6520031": {
    "zipcode": "6520031",
    "prefectureCode": "28",
    "prefectureNumber": 28,
    "prefecture": "兵庫県",
    "city": "神戸市兵庫区",
    "town": "雪御所町"
  },
  "6520032": {
    "zipcode": "6520032",
    "prefectureCode": "28",
    "prefectureNumber": 28,
    "prefecture": "兵庫県",
    "city": "神戸市兵庫区",
    "town": "荒田町"
  },
  "6520033": {
    "zipcode": "6520033",
    "prefectureCode": "28",
    "prefectureNumber": 28,
    "prefecture": "兵庫県",
    "city": "神戸市兵庫区",
    "town": "西上橘通"
  },
  "6520034": {
    "zipcode": "6520034",
    "prefectureCode": "28",
    "prefectureNumber": 28,
    "prefecture": "兵庫県",
    "city": "神戸市兵庫区",
    "town": "西橘通"
  },
  "6520035": {
    "zipcode": "6520035",
    "prefectureCode": "28",
    "prefectureNumber": 28,
    "prefecture": "兵庫県",
    "city": "神戸市兵庫区",
    "town": "西多聞通"
  },
  "6520036": {
    "zipcode": "6520036",
    "prefectureCode": "28",
    "prefectureNumber": 28,
    "prefecture": "兵庫県",
    "city": "神戸市兵庫区",
    "town": "福原町"
  },
  "6520041": {
    "zipcode": "6520041",
    "prefectureCode": "28",
    "prefectureNumber": 28,
    "prefecture": "兵庫県",
    "city": "神戸市兵庫区",
    "town": "湊川町"
  },
  "6520042": {
    "zipcode": "6520042",
    "prefectureCode": "28",
    "prefectureNumber": 28,
    "prefecture": "兵庫県",
    "city": "神戸市兵庫区",
    "town": "東山町"
  },
  "6520043": {
    "zipcode": "6520043",
    "prefectureCode": "28",
    "prefectureNumber": 28,
    "prefecture": "兵庫県",
    "city": "神戸市兵庫区",
    "town": "会下山町"
  },
  "6520044": {
    "zipcode": "6520044",
    "prefectureCode": "28",
    "prefectureNumber": 28,
    "prefecture": "兵庫県",
    "city": "神戸市兵庫区",
    "town": "大井通"
  },
  "6520045": {
    "zipcode": "6520045",
    "prefectureCode": "28",
    "prefectureNumber": 28,
    "prefecture": "兵庫県",
    "city": "神戸市兵庫区",
    "town": "松本通"
  },
  "6520046": {
    "zipcode": "6520046",
    "prefectureCode": "28",
    "prefectureNumber": 28,
    "prefecture": "兵庫県",
    "city": "神戸市兵庫区",
    "town": "上沢通"
  },
  "6520047": {
    "zipcode": "6520047",
    "prefectureCode": "28",
    "prefectureNumber": 28,
    "prefecture": "兵庫県",
    "city": "神戸市兵庫区",
    "town": "下沢通"
  },
  "6520051": {
    "zipcode": "6520051",
    "prefectureCode": "28",
    "prefectureNumber": 28,
    "prefecture": "兵庫県",
    "city": "神戸市兵庫区",
    "town": "里山町"
  },
  "6520052": {
    "zipcode": "6520052",
    "prefectureCode": "28",
    "prefectureNumber": 28,
    "prefecture": "兵庫県",
    "city": "神戸市兵庫区",
    "town": "鵯越筋"
  },
  "6520053": {
    "zipcode": "6520053",
    "prefectureCode": "28",
    "prefectureNumber": 28,
    "prefecture": "兵庫県",
    "city": "神戸市兵庫区",
    "town": "北山町"
  },
  "6520054": {
    "zipcode": "6520054",
    "prefectureCode": "28",
    "prefectureNumber": 28,
    "prefecture": "兵庫県",
    "city": "神戸市兵庫区",
    "town": "氷室町"
  },
  "6520055": {
    "zipcode": "6520055",
    "prefectureCode": "28",
    "prefectureNumber": 28,
    "prefecture": "兵庫県",
    "city": "神戸市兵庫区",
    "town": "小山町"
  },
  "6520056": {
    "zipcode": "6520056",
    "prefectureCode": "28",
    "prefectureNumber": 28,
    "prefecture": "兵庫県",
    "city": "神戸市兵庫区",
    "town": "滝山町"
  },
  "6520057": {
    "zipcode": "6520057",
    "prefectureCode": "28",
    "prefectureNumber": 28,
    "prefecture": "兵庫県",
    "city": "神戸市兵庫区",
    "town": "鵯越町"
  },
  "6520058": {
    "zipcode": "6520058",
    "prefectureCode": "28",
    "prefectureNumber": 28,
    "prefecture": "兵庫県",
    "city": "神戸市兵庫区",
    "town": "菊水町"
  },
  "6520061": {
    "zipcode": "6520061",
    "prefectureCode": "28",
    "prefectureNumber": 28,
    "prefecture": "兵庫県",
    "city": "神戸市兵庫区",
    "town": "石井町"
  },
  "6520062": {
    "zipcode": "6520062",
    "prefectureCode": "28",
    "prefectureNumber": 28,
    "prefecture": "兵庫県",
    "city": "神戸市兵庫区",
    "town": "大同町"
  },
  "6520063": {
    "zipcode": "6520063",
    "prefectureCode": "28",
    "prefectureNumber": 28,
    "prefecture": "兵庫県",
    "city": "神戸市兵庫区",
    "town": "夢野町"
  },
  "6520064": {
    "zipcode": "6520064",
    "prefectureCode": "28",
    "prefectureNumber": 28,
    "prefecture": "兵庫県",
    "city": "神戸市兵庫区",
    "town": "熊野町"
  },
  "6520065": {
    "zipcode": "6520065",
    "prefectureCode": "28",
    "prefectureNumber": 28,
    "prefecture": "兵庫県",
    "city": "神戸市兵庫区",
    "town": "清水町"
  },
  "6520071": {
    "zipcode": "6520071",
    "prefectureCode": "28",
    "prefectureNumber": 28,
    "prefecture": "兵庫県",
    "city": "神戸市北区",
    "town": "山田町下谷上（菊水山、高座川向、中一里山「９番地の４、１２番地」、念仏堂、ひよどり越）"
  },
  "6520801": {
    "zipcode": "6520801",
    "prefectureCode": "28",
    "prefectureNumber": 28,
    "prefecture": "兵庫県",
    "city": "神戸市兵庫区",
    "town": "中道通"
  },
  "6520802": {
    "zipcode": "6520802",
    "prefectureCode": "28",
    "prefectureNumber": 28,
    "prefecture": "兵庫県",
    "city": "神戸市兵庫区",
    "town": "水木通"
  },
  "6520803": {
    "zipcode": "6520803",
    "prefectureCode": "28",
    "prefectureNumber": 28,
    "prefecture": "兵庫県",
    "city": "神戸市兵庫区",
    "town": "大開通"
  },
  "6520804": {
    "zipcode": "6520804",
    "prefectureCode": "28",
    "prefectureNumber": 28,
    "prefecture": "兵庫県",
    "city": "神戸市兵庫区",
    "town": "塚本通"
  },
  "6520805": {
    "zipcode": "6520805",
    "prefectureCode": "28",
    "prefectureNumber": 28,
    "prefecture": "兵庫県",
    "city": "神戸市兵庫区",
    "town": "羽坂通"
  },
  "6520806": {
    "zipcode": "6520806",
    "prefectureCode": "28",
    "prefectureNumber": 28,
    "prefecture": "兵庫県",
    "city": "神戸市兵庫区",
    "town": "西柳原町"
  },
  "6520807": {
    "zipcode": "6520807",
    "prefectureCode": "28",
    "prefectureNumber": 28,
    "prefecture": "兵庫県",
    "city": "神戸市兵庫区",
    "town": "浜崎通"
  },
  "6520811": {
    "zipcode": "6520811",
    "prefectureCode": "28",
    "prefectureNumber": 28,
    "prefecture": "兵庫県",
    "city": "神戸市兵庫区",
    "town": "新開地"
  },
  "6520812": {
    "zipcode": "6520812",
    "prefectureCode": "28",
    "prefectureNumber": 28,
    "prefecture": "兵庫県",
    "city": "神戸市兵庫区",
    "town": "湊町"
  },
  "6520813": {
    "zipcode": "6520813",
    "prefectureCode": "28",
    "prefectureNumber": 28,
    "prefecture": "兵庫県",
    "city": "神戸市兵庫区",
    "town": "兵庫町"
  },
  "6520814": {
    "zipcode": "6520814",
    "prefectureCode": "28",
    "prefectureNumber": 28,
    "prefecture": "兵庫県",
    "city": "神戸市兵庫区",
    "town": "門口町"
  },
  "6520815": {
    "zipcode": "6520815",
    "prefectureCode": "28",
    "prefectureNumber": 28,
    "prefecture": "兵庫県",
    "city": "神戸市兵庫区",
    "town": "三川口町"
  },
  "6520816": {
    "zipcode": "6520816",
    "prefectureCode": "28",
    "prefectureNumber": 28,
    "prefecture": "兵庫県",
    "city": "神戸市兵庫区",
    "town": "永沢町"
  },
  "6520821": {
    "zipcode": "6520821",
    "prefectureCode": "28",
    "prefectureNumber": 28,
    "prefecture": "兵庫県",
    "city": "神戸市兵庫区",
    "town": "佐比江町"
  },
  "6520822": {
    "zipcode": "6520822",
    "prefectureCode": "28",
    "prefectureNumber": 28,
    "prefecture": "兵庫県",
    "city": "神戸市兵庫区",
    "town": "西出町"
  },
  "6520823": {
    "zipcode": "6520823",
    "prefectureCode": "28",
    "prefectureNumber": 28,
    "prefecture": "兵庫県",
    "city": "神戸市兵庫区",
    "town": "東出町"
  },
  "6520831": {
    "zipcode": "6520831",
    "prefectureCode": "28",
    "prefectureNumber": 28,
    "prefecture": "兵庫県",
    "city": "神戸市兵庫区",
    "town": "七宮町"
  },
  "6520832": {
    "zipcode": "6520832",
    "prefectureCode": "28",
    "prefectureNumber": 28,
    "prefecture": "兵庫県",
    "city": "神戸市兵庫区",
    "town": "鍛冶屋町"
  },
  "6520833": {
    "zipcode": "6520833",
    "prefectureCode": "28",
    "prefectureNumber": 28,
    "prefecture": "兵庫県",
    "city": "神戸市兵庫区",
    "town": "島上町"
  },
  "6520834": {
    "zipcode": "6520834",
    "prefectureCode": "28",
    "prefectureNumber": 28,
    "prefecture": "兵庫県",
    "city": "神戸市兵庫区",
    "town": "本町"
  },
  "6520835": {
    "zipcode": "6520835",
    "prefectureCode": "28",
    "prefectureNumber": 28,
    "prefecture": "兵庫県",
    "city": "神戸市兵庫区",
    "town": "西仲町"
  },
  "6520836": {
    "zipcode": "6520836",
    "prefectureCode": "28",
    "prefectureNumber": 28,
    "prefecture": "兵庫県",
    "city": "神戸市兵庫区",
    "town": "神明町"
  },
  "6520837": {
    "zipcode": "6520837",
    "prefectureCode": "28",
    "prefectureNumber": 28,
    "prefecture": "兵庫県",
    "city": "神戸市兵庫区",
    "town": "北逆瀬川町"
  },
  "6520841": {
    "zipcode": "6520841",
    "prefectureCode": "28",
    "prefectureNumber": 28,
    "prefecture": "兵庫県",
    "city": "神戸市兵庫区",
    "town": "南仲町"
  },
  "6520842": {
    "zipcode": "6520842",
    "prefectureCode": "28",
    "prefectureNumber": 28,
    "prefecture": "兵庫県",
    "city": "神戸市兵庫区",
    "town": "磯之町"
  },
  "6520843": {
    "zipcode": "6520843",
    "prefectureCode": "28",
    "prefectureNumber": 28,
    "prefecture": "兵庫県",
    "city": "神戸市兵庫区",
    "town": "船大工町"
  },
  "6520844": {
    "zipcode": "6520844",
    "prefectureCode": "28",
    "prefectureNumber": 28,
    "prefecture": "兵庫県",
    "city": "神戸市兵庫区",
    "town": "中之島"
  },
  "6520845": {
    "zipcode": "6520845",
    "prefectureCode": "28",
    "prefectureNumber": 28,
    "prefecture": "兵庫県",
    "city": "神戸市兵庫区",
    "town": "築地町"
  },
  "6520846": {
    "zipcode": "6520846",
    "prefectureCode": "28",
    "prefectureNumber": 28,
    "prefecture": "兵庫県",
    "city": "神戸市兵庫区",
    "town": "出在家町"
  },
  "6520847": {
    "zipcode": "6520847",
    "prefectureCode": "28",
    "prefectureNumber": 28,
    "prefecture": "兵庫県",
    "city": "神戸市兵庫区",
    "town": "切戸町"
  },
  "6520851": {
    "zipcode": "6520851",
    "prefectureCode": "28",
    "prefectureNumber": 28,
    "prefecture": "兵庫県",
    "city": "神戸市兵庫区",
    "town": "材木町"
  },
  "6520852": {
    "zipcode": "6520852",
    "prefectureCode": "28",
    "prefectureNumber": 28,
    "prefecture": "兵庫県",
    "city": "神戸市兵庫区",
    "town": "御崎本町"
  },
  "6520853": {
    "zipcode": "6520853",
    "prefectureCode": "28",
    "prefectureNumber": 28,
    "prefecture": "兵庫県",
    "city": "神戸市兵庫区",
    "town": "今出在家町"
  },
  "6520854": {
    "zipcode": "6520854",
    "prefectureCode": "28",
    "prefectureNumber": 28,
    "prefecture": "兵庫県",
    "city": "神戸市兵庫区",
    "town": "和田崎町"
  },
  "6520855": {
    "zipcode": "6520855",
    "prefectureCode": "28",
    "prefectureNumber": 28,
    "prefecture": "兵庫県",
    "city": "神戸市兵庫区",
    "town": "御崎町"
  },
  "6520861": {
    "zipcode": "6520861",
    "prefectureCode": "28",
    "prefectureNumber": 28,
    "prefecture": "兵庫県",
    "city": "神戸市兵庫区",
    "town": "三石通"
  },
  "6520862": {
    "zipcode": "6520862",
    "prefectureCode": "28",
    "prefectureNumber": 28,
    "prefecture": "兵庫県",
    "city": "神戸市兵庫区",
    "town": "上庄通"
  },
  "6520863": {
    "zipcode": "6520863",
    "prefectureCode": "28",
    "prefectureNumber": 28,
    "prefecture": "兵庫県",
    "city": "神戸市兵庫区",
    "town": "和田宮通"
  },
  "6520864": {
    "zipcode": "6520864",
    "prefectureCode": "28",
    "prefectureNumber": 28,
    "prefecture": "兵庫県",
    "city": "神戸市兵庫区",
    "town": "笠松通"
  },
  "6520865": {
    "zipcode": "6520865",
    "prefectureCode": "28",
    "prefectureNumber": 28,
    "prefecture": "兵庫県",
    "city": "神戸市兵庫区",
    "town": "小松通"
  },
  "6520866": {
    "zipcode": "6520866",
    "prefectureCode": "28",
    "prefectureNumber": 28,
    "prefecture": "兵庫県",
    "city": "神戸市兵庫区",
    "town": "遠矢浜町"
  },
  "6520871": {
    "zipcode": "6520871",
    "prefectureCode": "28",
    "prefectureNumber": 28,
    "prefecture": "兵庫県",
    "city": "神戸市兵庫区",
    "town": "浜山通"
  },
  "6520872": {
    "zipcode": "6520872",
    "prefectureCode": "28",
    "prefectureNumber": 28,
    "prefecture": "兵庫県",
    "city": "神戸市兵庫区",
    "town": "吉田町"
  },
  "6520873": {
    "zipcode": "6520873",
    "prefectureCode": "28",
    "prefectureNumber": 28,
    "prefecture": "兵庫県",
    "city": "神戸市兵庫区",
    "town": "金平町"
  },
  "6520874": {
    "zipcode": "6520874",
    "prefectureCode": "28",
    "prefectureNumber": 28,
    "prefecture": "兵庫県",
    "city": "神戸市兵庫区",
    "town": "高松町"
  },
  "6520875": {
    "zipcode": "6520875",
    "prefectureCode": "28",
    "prefectureNumber": 28,
    "prefecture": "兵庫県",
    "city": "神戸市兵庫区",
    "town": "浜中町"
  },
  "6520881": {
    "zipcode": "6520881",
    "prefectureCode": "28",
    "prefectureNumber": 28,
    "prefecture": "兵庫県",
    "city": "神戸市兵庫区",
    "town": "松原通"
  },
  "6520882": {
    "zipcode": "6520882",
    "prefectureCode": "28",
    "prefectureNumber": 28,
    "prefecture": "兵庫県",
    "city": "神戸市兵庫区",
    "town": "芦原通"
  },
  "6520883": {
    "zipcode": "6520883",
    "prefectureCode": "28",
    "prefectureNumber": 28,
    "prefecture": "兵庫県",
    "city": "神戸市兵庫区",
    "town": "明和通"
  },
  "6520884": {
    "zipcode": "6520884",
    "prefectureCode": "28",
    "prefectureNumber": 28,
    "prefecture": "兵庫県",
    "city": "神戸市兵庫区",
    "town": "和田山通"
  },
  "6520885": {
    "zipcode": "6520885",
    "prefectureCode": "28",
    "prefectureNumber": 28,
    "prefecture": "兵庫県",
    "city": "神戸市兵庫区",
    "town": "御所通"
  },
  "6520891": {
    "zipcode": "6520891",
    "prefectureCode": "28",
    "prefectureNumber": 28,
    "prefecture": "兵庫県",
    "city": "神戸市兵庫区",
    "town": "西宮内町"
  },
  "6520892": {
    "zipcode": "6520892",
    "prefectureCode": "28",
    "prefectureNumber": 28,
    "prefecture": "兵庫県",
    "city": "神戸市兵庫区",
    "town": "東柳原町"
  },
  "6520893": {
    "zipcode": "6520893",
    "prefectureCode": "28",
    "prefectureNumber": 28,
    "prefecture": "兵庫県",
    "city": "神戸市兵庫区",
    "town": "南逆瀬川町"
  },
  "6520894": {
    "zipcode": "6520894",
    "prefectureCode": "28",
    "prefectureNumber": 28,
    "prefecture": "兵庫県",
    "city": "神戸市兵庫区",
    "town": "入江通"
  },
  "6520895": {
    "zipcode": "6520895",
    "prefectureCode": "28",
    "prefectureNumber": 28,
    "prefecture": "兵庫県",
    "city": "神戸市兵庫区",
    "town": "小河通"
  },
  "6520896": {
    "zipcode": "6520896",
    "prefectureCode": "28",
    "prefectureNumber": 28,
    "prefecture": "兵庫県",
    "city": "神戸市兵庫区",
    "town": "須佐野通"
  },
  "6520897": {
    "zipcode": "6520897",
    "prefectureCode": "28",
    "prefectureNumber": 28,
    "prefecture": "兵庫県",
    "city": "神戸市兵庫区",
    "town": "駅南通"
  },
  "6520898": {
    "zipcode": "6520898",
    "prefectureCode": "28",
    "prefectureNumber": 28,
    "prefecture": "兵庫県",
    "city": "神戸市兵庫区",
    "town": "駅前通"
  }
}
