{
  "6530000": {
    "zipcode": "6530000",
    "prefectureCode": "28",
    "prefectureNumber": 28,
    "prefecture": "兵庫県",
    "city": "神戸市長田区",
    "town": "以下に掲載がない場合"
  },
  "6530001": {
    "zipcode": "6530001",
    "prefectureCode": "28",
    "prefectureNumber": 28,
    "prefecture": "兵庫県",
    "city": "神戸市長田区",
    "town": "七番町"
  },
  "6530002": {
    "zipcode": "6530002",
    "prefectureCode": "28",
    "prefectureNumber": 28,
    "prefecture": "兵庫県",
    "city": "神戸市長田区",
    "town": "六番町"
  },
  "6530003": {
    "zipcode": "6530003",
    "prefectureCode": "28",
    "prefectureNumber": 28,
    "prefecture": "兵庫県",
    "city": "神戸市長田区",
    "town": "五番町"
  },
  "6530004": {
    "zipcode": "6530004",
    "prefectureCode": "28",
    "prefectureNumber": 28,
    "prefecture": "兵庫県",
    "city": "神戸市長田区",
    "town": "四番町"
  },
  "6530011": {
    "zipcode": "6530011",
    "prefectureCode": "28",
    "prefectureNumber": 28,
    "prefecture": "兵庫県",
    "city": "神戸市長田区",
    "town": "三番町"
  },
  "6530012": {
    "zipcode": "6530012",
    "prefectureCode": "28",
    "prefectureNumber": 28,
    "prefecture": "兵庫県",
    "city": "神戸市長田区",
    "town": "二番町"
  },
  "6530013": {
    "zipcode": "6530013",
    "prefectureCode": "28",
    "prefectureNumber": 28,
    "prefecture": "兵庫県",
    "city": "神戸市長田区",
    "town": "一番町"
  },
  "6530014": {
    "zipcode": "6530014",
    "prefectureCode": "28",
    "prefectureNumber": 28,
    "prefecture": "兵庫県",
    "city": "神戸市長田区",
    "town": "御蔵通"
  },
  "6530015": {
    "zipcode": "6530015",
    "prefectureCode": "28",
    "prefectureNumber": 28,
    "prefecture": "兵庫県",
    "city": "神戸市長田区",
    "town": "菅原通"
  },
  "6530016": {
    "zipcode": "6530016",
    "prefectureCode": "28",
    "prefectureNumber": 28,
    "prefecture": "兵庫県",
    "city": "神戸市長田区",
    "town": "北町"
  },
  "6530021": {
    "zipcode": "6530021",
    "prefectureCode": "28",
    "prefectureNumber": 28,
    "prefecture": "兵庫県",
    "city": "神戸市長田区",
    "town": "梅ケ香町"
  },
  "6530022": {
    "zipcode": "6530022",
    "prefectureCode": "28",
    "prefectureNumber": 28,
    "prefecture": "兵庫県",
    "city": "神戸市長田区",
    "town": "東尻池町"
  },
  "6530023": {
    "zipcode": "6530023",
    "prefectureCode": "28",
    "prefectureNumber": 28,
    "prefecture": "兵庫県",
    "city": "神戸市長田区",
    "town": "東尻池新町"
  },
  "6530024": {
    "zipcode": "6530024",
    "prefectureCode": "28",
    "prefectureNumber": 28,
    "prefecture": "兵庫県",
    "city": "神戸市長田区",
    "town": "浜添通"
  },
  "6530025": {
    "zipcode": "6530025",
    "prefectureCode": "28",
    "prefectureNumber": 28,
    "prefecture": "兵庫県",
    "city": "神戸市長田区",
    "town": "真野町"
  },
  "6530031": {
    "zipcode": "6530031",
    "prefectureCode": "28",
    "prefectureNumber": 28,
    "prefecture": "兵庫県",
    "city": "神戸市長田区",
    "town": "西尻池町"
  },
  "6530032": {
    "zipcode": "6530032",
    "prefectureCode": "28",
    "prefectureNumber": 28,
    "prefecture": "兵庫県",
    "city": "神戸市長田区",
    "town": "苅藻通"
  },
  "6530033": {
    "zipcode": "6530033",
    "prefectureCode": "28",
    "prefectureNumber": 28,
    "prefecture": "兵庫県",
    "city": "神戸市長田区",
    "town": "苅藻島町"
  },
  "6530034": {
    "zipcode": "6530034",
    "prefectureCode": "28",
    "prefectureNumber": 28,
    "prefecture": "兵庫県",
    "city": "神戸市長田区",
    "town": "駒栄町"
  },
  "6530035": {
    "zipcode": "6530035",
    "prefectureCode": "28",
    "prefectureNumber": 28,
    "prefecture": "兵庫県",
    "city": "神戸市長田区",
    "town": "庄田町"
  },
  "6530036": {
    "zipcode": "6530036",
    "prefectureCode": "28",
    "prefectureNumber": 28,
    "prefecture": "兵庫県",
    "city": "神戸市長田区",
    "town": "腕塚町"
  },
  "6530037": {
    "zipcode": "6530037",
    "prefectureCode": "28",
    "prefectureNumber": 28,
    "prefecture": "兵庫県",
    "city": "神戸市長田区",
    "town": "大橋町"
  },
  "6530038": {
    "zipcode": "6530038",
    "prefectureCode": "28",
    "prefectureNumber": 28,
    "prefecture": "兵庫県",
    "city": "神戸市長田区",
    "town": "若松町"
  },
  "6530039": {
    "zipcode": "6530039",
    "prefectureCode": "28",
    "prefectureNumber": 28,
    "prefecture": "兵庫県",
    "city": "神戸市長田区",
    "town": "日吉町"
  },
  "6530041": {
    "zipcode": "6530041",
    "prefectureCode": "28",
    "prefectureNumber": 28,
    "prefecture": "兵庫県",
    "city": "神戸市長田区",
    "town": "久保町"
  },
  "6530042": {
    "zipcode": "6530042",
    "prefectureCode": "28",
    "prefectureNumber": 28,
    "prefecture": "兵庫県",
    "city": "神戸市長田区",
    "town": "二葉町"
  },
  "6530043": {
    "zipcode": "6530043",
    "prefectureCode": "28",
    "prefectureNumber": 28,
    "prefecture": "兵庫県",
    "city": "神戸市長田区",
    "town": "駒ケ林町"
  },
  "6530044": {
    "zipcode": "6530044",
    "prefectureCode": "28",
    "prefectureNumber": 28,
    "prefecture": "兵庫県",
    "city": "神戸市長田区",
    "town": "南駒栄町"
  },
  "6530045": {
    "zipcode": "6530045",
    "prefectureCode": "28",
    "prefectureNumber": 28,
    "prefecture": "兵庫県",
    "city": "神戸市長田区",
    "town": "駒ケ林南町"
  },
  "6530051": {
    "zipcode": "6530051",
    "prefectureCode": "28",
    "prefectureNumber": 28,
    "prefecture": "兵庫県",
    "city": "神戸市長田区",
    "town": "野田町"
  },
  "6530052": {
    "zipcode": "6530052",
    "prefectureCode": "28",
    "prefectureNumber": 28,
    "prefecture": "兵庫県",
    "city": "神戸市長田区",
    "town": "海運町"
  },
  "6530053": {
    "zipcode": "6530053",
    "prefectureCode": "28",
    "prefectureNumber": 28,
    "prefecture": "兵庫県",
    "city": "神戸市長田区",
    "town": "本庄町"
  },
  "6530054": {
    "zipcode": "6530054",
    "prefectureCode": "28",
    "prefectureNumber": 28,
    "prefecture": "兵庫県",
    "city": "神戸市長田区",
    "town": "長楽町"
  },
  "6530055": {
    "zipcode": "6530055",
    "prefectureCode": "28",
    "prefectureNumber": 28,
    "prefecture": "兵庫県",
    "city": "神戸市長田区",
    "town": "浪松町"
  },
  "6530801": {
    "zipcode": "6530801",
    "prefectureCode": "28",
    "prefectureNumber": 28,
    "prefecture": "兵庫県",
    "city": "神戸市長田区",
    "town": "房王寺町"
  },
  "6530802": {
    "zipcode": "6530802",
    "prefectureCode": "28",
    "prefectureNumber": 28,
    "prefecture": "兵庫県",
    "city": "神戸市長田区",
    "town": "重池町"
  },
  "6530803": {
    "zipcode": "6530803",
    "prefectureCode": "28",
    "prefectureNumber": 28,
    "prefecture": "兵庫県",
    "city": "神戸市長田区",
    "town": "前原町"
  },
  "6530804": {
    "zipcode": "6530804",
    "prefectureCode": "28",
    "prefectureNumber": 28,
    "prefecture": "兵庫県",
    "city": "神戸市長田区",
    "town": "寺池町"
  },
  "6530805": {
    "zipcode": "6530805",
    "prefectureCode": "28",
    "prefectureNumber": 28,
    "prefecture": "兵庫県",
    "city": "神戸市長田区",
    "town": "片山町"
  },
  "6530806": {
    "zipcode": "6530806",
    "prefectureCode": "28",
    "prefectureNumber": 28,
    "prefecture": "兵庫県",
    "city": "神戸市長田区",
    "town": "大丸町"
  },
  "6530811": {
    "zipcode": "6530811",
    "prefectureCode": "28",
    "prefectureNumber": 28,
    "prefecture": "兵庫県",
    "city": "神戸市長田区",
    "town": "大塚町"
  },
  "6530812": {
    "zipcode": "6530812",
    "prefectureCode": "28",
    "prefectureNumber": 28,
    "prefecture": "兵庫県",
    "city": "神戸市長田区",
    "town": "長田町"
  },
  "6530813": {
    "zipcode": "6530813",
    "prefectureCode": "28",
    "prefectureNumber": 28,
    "prefecture": "兵庫県",
    "city": "神戸市長田区",
    "town": "宮川町"
  },
  "6530814": {
    "zipcode": "6530814",
    "prefectureCode": "28",
    "prefectureNumber": 28,
    "prefecture": "兵庫県",
    "city": "神戸市長田区",
    "town": "池田広町"
  },
  "6530821": {
    "zipcode": "6530821",
    "prefectureCode": "28",
    "prefectureNumber": 28,
    "prefecture": "兵庫県",
    "city": "神戸市長田区",
    "town": "池田谷町"
  },
  "6530822": {
    "zipcode": "6530822",
    "prefectureCode": "28",
    "prefectureNumber": 28,
    "prefecture": "兵庫県",
    "city": "神戸市長田区",
    "town": "池田寺町"
  },
  "6530823": {
    "zipcode": "6530823",
    "prefectureCode": "28",
    "prefectureNumber": 28,
    "prefecture": "兵庫県",
    "city": "神戸市長田区",
    "town": "池田経町"
  },
  "6530824": {
    "zipcode": "6530824",
    "prefectureCode": "28",
    "prefectureNumber": 28,
    "prefecture": "兵庫県",
    "city": "神戸市長田区",
    "town": "池田上町"
  },
  "6530825": {
    "zipcode": "6530825",
    "prefectureCode": "28",
    "prefectureNumber": 28,
    "prefecture": "兵庫県",
    "city": "神戸市長田区",
    "town": "池田新町"
  },
  "6530826": {
    "zipcode": "6530826",
    "prefectureCode": "28",
    "prefectureNumber": 28,
    "prefecture": "兵庫県",
    "city": "神戸市長田区",
    "town": "池田塩町"
  },
  "6530827": {
    "zipcode": "6530827",
    "prefectureCode": "28",
    "prefectureNumber": 28,
    "prefecture": "兵庫県",
    "city": "神戸市長田区",
    "town": "上池田"
  },
  "6530831": {
    "zipcode": "6530831",
    "prefectureCode": "28",
    "prefectureNumber": 28,
    "prefecture": "兵庫県",
    "city": "神戸市長田区",
    "town": "蓮宮通"
  },
  "6530832": {
    "zipcode": "6530832",
    "prefectureCode": "28",
    "prefectureNumber": 28,
    "prefecture": "兵庫県",
    "city": "神戸市長田区",
    "town": "御船通"
  },
  "6530833": {
    "zipcode": "6530833",
    "prefectureCode": "28",
    "prefectureNumber": 28,
    "prefecture": "兵庫県",
    "city": "神戸市長田区",
    "town": "大道通"
  },
  "6530834": {
    "zipcode": "6530834",
    "prefectureCode": "28",
    "prefectureNumber": 28,
    "prefecture": "兵庫県",
    "city": "神戸市長田区",
    "town": "川西通"
  },
  "6530835": {
    "zipcode": "6530835",
    "prefectureCode": "28",
    "prefectureNumber": 28,
    "prefecture": "兵庫県",
    "city": "神戸市長田区",
    "town": "細田町"
  },
  "6530836": {
    "zipcode": "6530836",
    "prefectureCode": "28",
    "prefectureNumber": 28,
    "prefecture": "兵庫県",
    "city": "神戸市長田区",
    "town": "神楽町"
  },
  "6530837": {
    "zipcode": "6530837",
    "prefectureCode": "28",
    "prefectureNumber": 28,
    "prefecture": "兵庫県",
    "city": "神戸市長田区",
    "town": "蓮池町"
  },
  "6530838": {
    "zipcode": "6530838",
    "prefectureCode": "28",
    "prefectureNumber": 28,
    "prefecture": "兵庫県",
    "city": "神戸市長田区",
    "town": "大谷町"
  },
  "6530841": {
    "zipcode": "6530841",
    "prefectureCode": "28",
    "prefectureNumber": 28,
    "prefecture": "兵庫県",
    "city": "神戸市長田区",
    "town": "松野通"
  },
  "6530842": {
    "zipcode": "6530842",
    "prefectureCode": "28",
    "prefectureNumber": 28,
    "prefecture": "兵庫県",
    "city": "神戸市長田区",
    "town": "水笠通"
  },
  "6530843": {
    "zipcode": "6530843",
    "prefectureCode": "28",
    "prefectureNumber": 28,
    "prefecture": "兵庫県",
    "city": "神戸市長田区",
    "town": "御屋敷通"
  },
  "6530844": {
    "zipcode": "6530844",
    "prefectureCode": "28",
    "prefectureNumber": 28,
    "prefecture": "兵庫県",
    "city": "神戸市長田区",
    "town": "西代通"
  },
  "6530845": {
    "zipcode": "6530845",
    "prefectureCode": "28",
    "prefectureNumber": 28,
    "prefecture": "兵庫県",
    "city": "神戸市長田区",
    "town": "戸崎通"
  },
  "6530851": {
    "zipcode": "6530851",
    "prefectureCode": "28",
    "prefectureNumber": 28,
    "prefecture": "兵庫県",
    "city": "神戸市長田区",
    "town": "五位ノ池町"
  },
  "6530852": {
    "zipcode": "6530852",
    "prefectureCode": "28",
    "prefectureNumber": 28,
    "prefecture": "兵庫県",
    "city": "神戸市長田区",
    "town": "山下町"
  },
  "6530853": {
    "zipcode": "6530853",
    "prefectureCode": "28",
    "prefectureNumber": 28,
    "prefecture": "兵庫県",
    "city": "神戸市長田区",
    "town": "庄山町"
  },
  "6530854": {
    "zipcode": "6530854",
    "prefectureCode": "28",
    "prefectureNumber": 28,
    "prefecture": "兵庫県",
    "city": "神戸市長田区",
    "town": "平和台町"
  },
  "6530855": {
    "zipcode": "6530855",
    "prefectureCode": "28",
    "prefectureNumber": 28,
    "prefecture": "兵庫県",
    "city": "神戸市長田区",
    "town": "長尾町"
  },
  "6530856": {
    "zipcode": "6530856",
    "prefectureCode": "28",
    "prefectureNumber": 28,
    "prefecture": "兵庫県",
    "city": "神戸市長田区",
    "town": "高取山町"
  },
  "6530861": {
    "zipcode": "6530861",
    "prefectureCode": "28",
    "prefectureNumber": 28,
    "prefecture": "兵庫県",
    "city": "神戸市長田区",
    "town": "林山町"
  },
  "6530862": {
    "zipcode": "6530862",
    "prefectureCode": "28",
    "prefectureNumber": 28,
    "prefecture": "兵庫県",
    "city": "神戸市長田区",
    "town": "西山町"
  },
  "6530863": {
    "zipcode": "6530863",
    "prefectureCode": "28",
    "prefectureNumber": 28,
    "prefecture": "兵庫県",
    "city": "神戸市長田区",
    "town": "宮丘町"
  },
  "6530864": {
    "zipcode": "6530864",
    "prefectureCode": "28",
    "prefectureNumber": 28,
    "prefecture": "兵庫県",
    "city": "神戸市長田区",
    "town": "池田惣町"
  },
  "6530865": {
    "zipcode": "6530865",
    "prefectureCode": "28",
    "prefectureNumber": 28,
    "prefecture": "兵庫県",
    "city": "神戸市長田区",
    "town": "池田宮町"
  },
  "6530866": {
    "zipcode": "6530866",
    "prefectureCode": "28",
    "prefectureNumber": 28,
    "prefecture": "兵庫県",
    "city": "神戸市長田区",
    "town": "長者町"
  },
  "6530867": {
    "zipcode": "6530867",
    "prefectureCode": "28",
    "prefectureNumber": 28,
    "prefecture": "兵庫県",
    "city": "神戸市長田区",
    "town": "高東町"
  },
  "6530871": {
    "zipcode": "6530871",
    "prefectureCode": "28",
    "prefectureNumber": 28,
    "prefecture": "兵庫県",
    "city": "神戸市長田区",
    "town": "鶯町"
  },
  "6530872": {
    "zipcode": "6530872",
    "prefectureCode": "28",
    "prefectureNumber": 28,
    "prefecture": "兵庫県",
    "city": "神戸市長田区",
    "town": "大日丘町"
  },
  "6530873": {
    "zipcode": "6530873",
    "prefectureCode": "28",
    "prefectureNumber": 28,
    "prefecture": "兵庫県",
    "city": "神戸市長田区",
    "town": "萩乃町"
  },
  "6530874": {
    "zipcode": "6530874",
    "prefectureCode": "28",
    "prefectureNumber": 28,
    "prefecture": "兵庫県",
    "city": "神戸市長田区",
    "town": "西丸山町"
  },
  "6530875": {
    "zipcode": "6530875",
    "prefectureCode": "28",
    "prefectureNumber": 28,
    "prefecture": "兵庫県",
    "city": "神戸市長田区",
    "town": "丸山町"
  },
  "6530876": {
    "zipcode": "6530876",
    "prefectureCode": "28",
    "prefectureNumber": 28,
    "prefecture": "兵庫県",
    "city": "神戸市長田区",
    "town": "花山町"
  },
  "6530877": {
    "zipcode": "6530877",
    "prefectureCode": "28",
    "prefectureNumber": 28,
    "prefecture": "兵庫県",
    "city": "神戸市長田区",
    "town": "鹿松町"
  },
  "6530878": {
    "zipcode": "6530878",
    "prefectureCode": "28",
    "prefectureNumber": 28,
    "prefecture": "兵庫県",
    "city": "神戸市長田区",
    "town": "一里山町"
  },
  "6530879": {
    "zipcode": "6530879",
    "prefectureCode": "28",
    "prefectureNumber": 28,
    "prefecture": "兵庫県",
    "city": "神戸市長田区",
    "town": "雲雀ケ丘"
  },
  "6530881": {
    "zipcode": "6530881",
    "prefectureCode": "28",
    "prefectureNumber": 28,
    "prefecture": "兵庫県",
    "city": "神戸市長田区",
    "town": "滝谷町"
  },
  "6530882": {
    "zipcode": "6530882",
    "prefectureCode": "28",
    "prefectureNumber": 28,
    "prefecture": "兵庫県",
    "city": "神戸市長田区",
    "town": "長田天神町"
  },
  "6530883": {
    "zipcode": "6530883",
    "prefectureCode": "28",
    "prefectureNumber": 28,
    "prefecture": "兵庫県",
    "city": "神戸市長田区",
    "town": "名倉町"
  },
  "6530884": {
    "zipcode": "6530884",
    "prefectureCode": "28",
    "prefectureNumber": 28,
    "prefecture": "兵庫県",
    "city": "神戸市長田区",
    "town": "明泉寺町"
  },
  "6530885": {
    "zipcode": "6530885",
    "prefectureCode": "28",
    "prefectureNumber": 28,
    "prefecture": "兵庫県",
    "city": "神戸市長田区",
    "town": "堀切町"
  },
  "6530886": {
    "zipcode": "6530886",
    "prefectureCode": "28",
    "prefectureNumber": 28,
    "prefecture": "兵庫県",
    "city": "神戸市長田区",
    "town": "東丸山町"
  },
  "6530887": {
    "zipcode": "6530887",
    "prefectureCode": "28",
    "prefectureNumber": 28,
    "prefecture": "兵庫県",
    "city": "神戸市長田区",
    "town": "檜川町"
  },
  "6530888": {
    "zipcode": "6530888",
    "prefectureCode": "28",
    "prefectureNumber": 28,
    "prefecture": "兵庫県",
    "city": "神戸市長田区",
    "town": "源平町"
  }
}
