{
  "6540000": {
    "zipcode": "6540000",
    "prefectureCode": "28",
    "prefectureNumber": 28,
    "prefecture": "兵庫県",
    "city": "神戸市須磨区",
    "town": "以下に掲載がない場合"
  },
  "6540001": {
    "zipcode": "6540001",
    "prefectureCode": "28",
    "prefectureNumber": 28,
    "prefecture": "兵庫県",
    "city": "神戸市須磨区",
    "town": "禅昌寺町"
  },
  "6540002": {
    "zipcode": "6540002",
    "prefectureCode": "28",
    "prefectureNumber": 28,
    "prefecture": "兵庫県",
    "city": "神戸市須磨区",
    "town": "明神町"
  },
  "6540003": {
    "zipcode": "6540003",
    "prefectureCode": "28",
    "prefectureNumber": 28,
    "prefecture": "兵庫県",
    "city": "神戸市須磨区",
    "town": "神撫町"
  },
  "6540004": {
    "zipcode": "6540004",
    "prefectureCode": "28",
    "prefectureNumber": 28,
    "prefecture": "兵庫県",
    "city": "神戸市須磨区",
    "town": "永楽町"
  },
  "6540005": {
    "zipcode": "6540005",
    "prefectureCode": "28",
    "prefectureNumber": 28,
    "prefecture": "兵庫県",
    "city": "神戸市須磨区",
    "town": "川上町"
  },
  "6540006": {
    "zipcode": "6540006",
    "prefectureCode": "28",
    "prefectureNumber": 28,
    "prefecture": "兵庫県",
    "city": "神戸市須磨区",
    "town": "養老町"
  },
  "6540007": {
    "zipcode": "6540007",
    "prefectureCode": "28",
    "prefectureNumber": 28,
    "prefecture": "兵庫県",
    "city": "神戸市須磨区",
    "town": "宝田町"
  },
  "6540008": {
    "zipcode": "6540008",
    "prefectureCode": "28",
    "prefectureNumber": 28,
    "prefecture": "兵庫県",
    "city": "神戸市須磨区",
    "town": "菊池町"
  },
  "6540009": {
    "zipcode": "6540009",
    "prefectureCode": "28",
    "prefectureNumber": 28,
    "prefecture": "兵庫県",
    "city": "神戸市須磨区",
    "town": "板宿町"
  },
  "6540011": {
    "zipcode": "6540011",
    "prefectureCode": "28",
    "prefectureNumber": 28,
    "prefecture": "兵庫県",
    "city": "神戸市須磨区",
    "town": "前池町"
  },
  "6540012": {
    "zipcode": "6540012",
    "prefectureCode": "28",
    "prefectureNumber": 28,
    "prefecture": "兵庫県",
    "city": "神戸市須磨区",
    "town": "飛松町"
  },
  "6540013": {
    "zipcode": "6540013",
    "prefectureCode": "28",
    "prefectureNumber": 28,
    "prefecture": "兵庫県",
    "city": "神戸市須磨区",
    "town": "大手町"
  },
  "6540014": {
    "zipcode": "6540014",
    "prefectureCode": "28",
    "prefectureNumber": 28,
    "prefecture": "兵庫県",
    "city": "神戸市須磨区",
    "town": "若木町"
  },
  "6540015": {
    "zipcode": "6540015",
    "prefectureCode": "28",
    "prefectureNumber": 28,
    "prefecture": "兵庫県",
    "city": "神戸市須磨区",
    "town": "奥山畑町"
  },
  "6540016": {
    "zipcode": "6540016",
    "prefectureCode": "28",
    "prefectureNumber": 28,
    "prefecture": "兵庫県",
    "city": "神戸市須磨区",
    "town": "上細沢町"
  },
  "6540017": {
    "zipcode": "6540017",
    "prefectureCode": "28",
    "prefectureNumber": 28,
    "prefecture": "兵庫県",
    "city": "神戸市須磨区",
    "town": "大手"
  },
  "6540018": {
    "zipcode": "6540018",
    "prefectureCode": "28",
    "prefectureNumber": 28,
    "prefecture": "兵庫県",
    "city": "神戸市須磨区",
    "town": "東須磨"
  },
  "6540021": {
    "zipcode": "6540021",
    "prefectureCode": "28",
    "prefectureNumber": 28,
    "prefecture": "兵庫県",
    "city": "神戸市須磨区",
    "town": "平田町"
  },
  "6540022": {
    "zipcode": "6540022",
    "prefectureCode": "28",
    "prefectureNumber": 28,
    "prefecture": "兵庫県",
    "city": "神戸市須磨区",
    "town": "大黒町"
  },
  "6540023": {
    "zipcode": "6540023",
    "prefectureCode": "28",
    "prefectureNumber": 28,
    "prefecture": "兵庫県",
    "city": "神戸市須磨区",
    "town": "戎町"
  },
  "6540024": {
    "zipcode": "6540024",
    "prefectureCode": "28",
    "prefectureNumber": 28,
    "prefecture": "兵庫県",
    "city": "神戸市須磨区",
    "town": "大田町"
  },
  "6540025": {
    "zipcode": "6540025",
    "prefectureCode": "28",
    "prefectureNumber": 28,
    "prefecture": "兵庫県",
    "city": "神戸市須磨区",
    "town": "寺田町"
  },
  "6540026": {
    "zipcode": "6540026",
    "prefectureCode": "28",
    "prefectureNumber": 28,
    "prefecture": "兵庫県",
    "city": "神戸市須磨区",
    "town": "大池町"
  },
  "6540027": {
    "zipcode": "6540027",
    "prefectureCode": "28",
    "prefectureNumber": 28,
    "prefecture": "兵庫県",
    "city": "神戸市須磨区",
    "town": "千歳町"
  },
  "6540028": {
    "zipcode": "6540028",
    "prefectureCode": "28",
    "prefectureNumber": 28,
    "prefecture": "兵庫県",
    "city": "神戸市須磨区",
    "town": "常盤町"
  },
  "6540031": {
    "zipcode": "6540031",
    "prefectureCode": "28",
    "prefectureNumber": 28,
    "prefecture": "兵庫県",
    "city": "神戸市須磨区",
    "town": "権現町"
  },
  "6540032": {
    "zipcode": "6540032",
    "prefectureCode": "28",
    "prefectureNumber": 28,
    "prefecture": "兵庫県",
    "city": "神戸市須磨区",
    "town": "堀池町"
  },
  "6540033": {
    "zipcode": "6540033",
    "prefectureCode": "28",
    "prefectureNumber": 28,
    "prefecture": "兵庫県",
    "city": "神戸市須磨区",
    "town": "東町"
  },
  "6540034": {
    "zipcode": "6540034",
    "prefectureCode": "28",
    "prefectureNumber": 28,
    "prefecture": "兵庫県",
    "city": "神戸市須磨区",
    "town": "戸政町"
  },
  "6540035": {
    "zipcode": "6540035",
    "prefectureCode": "28",
    "prefectureNumber": 28,
    "prefecture": "兵庫県",
    "city": "神戸市須磨区",
    "town": "中島町"
  },
  "6540036": {
    "zipcode": "6540036",
    "prefectureCode": "28",
    "prefectureNumber": 28,
    "prefecture": "兵庫県",
    "city": "神戸市須磨区",
    "town": "南町"
  },
  "6540037": {
    "zipcode": "6540037",
    "prefectureCode": "28",
    "prefectureNumber": 28,
    "prefecture": "兵庫県",
    "city": "神戸市須磨区",
    "town": "行平町"
  },
  "6540038": {
    "zipcode": "6540038",
    "prefectureCode": "28",
    "prefectureNumber": 28,
    "prefecture": "兵庫県",
    "city": "神戸市須磨区",
    "town": "青葉町"
  },
  "6540039": {
    "zipcode": "6540039",
    "prefectureCode": "28",
    "prefectureNumber": 28,
    "prefecture": "兵庫県",
    "city": "神戸市須磨区",
    "town": "鷹取町"
  },
  "6540041": {
    "zipcode": "6540041",
    "prefectureCode": "28",
    "prefectureNumber": 28,
    "prefecture": "兵庫県",
    "city": "神戸市須磨区",
    "town": "古川町"
  },
  "6540042": {
    "zipcode": "6540042",
    "prefectureCode": "28",
    "prefectureNumber": 28,
    "prefecture": "兵庫県",
    "city": "神戸市須磨区",
    "town": "小寺町"
  },
  "6540043": {
    "zipcode": "6540043",
    "prefectureCode": "28",
    "prefectureNumber": 28,
    "prefecture": "兵庫県",
    "city": "神戸市須磨区",
    "town": "外浜町"
  },
  "6540044": {
    "zipcode": "6540044",
    "prefectureCode": "28",
    "prefectureNumber": 28,
    "prefecture": "兵庫県",
    "city": "神戸市須磨区",
    "town": "稲葉町"
  },
  "6540045": {
    "zipcode": "6540045",
    "prefectureCode": "28",
    "prefectureNumber": 28,
    "prefecture": "兵庫県",
    "city": "神戸市須磨区",
    "town": "松風町"
  },
  "6540046": {
    "zipcode": "6540046",
    "prefectureCode": "28",
    "prefectureNumber": 28,
    "prefecture": "兵庫県",
    "city": "神戸市須磨区",
    "town": "村雨町"
  },
  "6540047": {
    "zipcode": "6540047",
    "prefectureCode": "28",
    "prefectureNumber": 28,
    "prefecture": "兵庫県",
    "city": "神戸市須磨区",
    "town": "磯馴町"
  },
  "6540048": {
    "zipcode": "6540048",
    "prefectureCode": "28",
    "prefectureNumber": 28,
    "prefecture": "兵庫県",
    "city": "神戸市須磨区",
    "town": "衣掛町"
  },
  "6540049": {
    "zipcode": "6540049",
    "prefectureCode": "28",
    "prefectureNumber": 28,
    "prefecture": "兵庫県",
    "city": "神戸市須磨区",
    "town": "若宮町"
  },
  "6540051": {
    "zipcode": "6540051",
    "prefectureCode": "28",
    "prefectureNumber": 28,
    "prefecture": "兵庫県",
    "city": "神戸市須磨区",
    "town": "月見山本町"
  },
  "6540052": {
    "zipcode": "6540052",
    "prefectureCode": "28",
    "prefectureNumber": 28,
    "prefecture": "兵庫県",
    "city": "神戸市須磨区",
    "town": "行幸町"
  },
  "6540053": {
    "zipcode": "6540053",
    "prefectureCode": "28",
    "prefectureNumber": 28,
    "prefecture": "兵庫県",
    "city": "神戸市須磨区",
    "town": "天神町"
  },
  "6540054": {
    "zipcode": "6540054",
    "prefectureCode": "28",
    "prefectureNumber": 28,
    "prefecture": "兵庫県",
    "city": "神戸市須磨区",
    "town": "須磨本町"
  },
  "6540055": {
    "zipcode": "6540055",
    "prefectureCode": "28",
    "prefectureNumber": 28,
    "prefecture": "兵庫県",
    "city": "神戸市須磨区",
    "town": "須磨浦通"
  },
  "6540061": {
    "zipcode": "6540061",
    "prefectureCode": "28",
    "prefectureNumber": 28,
    "prefecture": "兵庫県",
    "city": "神戸市須磨区",
    "town": "高尾台"
  },
  "6540062": {
    "zipcode": "6540062",
    "prefectureCode": "28",
    "prefectureNumber": 28,
    "prefecture": "兵庫県",
    "city": "神戸市須磨区",
    "town": "水野町"
  },
  "6540063": {
    "zipcode": "6540063",
    "prefectureCode": "28",
    "prefectureNumber": 28,
    "prefecture": "兵庫県",
    "city": "神戸市須磨区",
    "town": "月見山町"
  },
  "6540064": {
    "zipcode": "6540064",
    "prefectureCode": "28",
    "prefectureNumber": 28,
    "prefecture": "兵庫県",
    "city": "神戸市須磨区",
    "town": "北町"
  },
  "6540065": {
    "zipcode": "6540065",
    "prefectureCode": "28",
    "prefectureNumber": 28,
    "prefecture": "兵庫県",
    "city": "神戸市須磨区",
    "town": "離宮前町"
  },
  "6540066": {
    "zipcode": "6540066",
    "prefectureCode": "28",
    "prefectureNumber": 28,
    "prefecture": "兵庫県",
    "city": "神戸市須磨区",
    "town": "桜木町"
  },
  "6540067": {
    "zipcode": "6540067",
    "prefectureCode": "28",
    "prefectureNumber": 28,
    "prefecture": "兵庫県",
    "city": "神戸市須磨区",
    "town": "離宮西町"
  },
  "6540068": {
    "zipcode": "6540068",
    "prefectureCode": "28",
    "prefectureNumber": 28,
    "prefecture": "兵庫県",
    "city": "神戸市須磨区",
    "town": "西須磨"
  },
  "6540071": {
    "zipcode": "6540071",
    "prefectureCode": "28",
    "prefectureNumber": 28,
    "prefecture": "兵庫県",
    "city": "神戸市須磨区",
    "town": "須磨寺町"
  },
  "6540072": {
    "zipcode": "6540072",
    "prefectureCode": "28",
    "prefectureNumber": 28,
    "prefecture": "兵庫県",
    "city": "神戸市須磨区",
    "town": "千守町"
  },
  "6540073": {
    "zipcode": "6540073",
    "prefectureCode": "28",
    "prefectureNumber": 28,
    "prefecture": "兵庫県",
    "city": "神戸市須磨区",
    "town": "関守町"
  },
  "6540074": {
    "zipcode": "6540074",
    "prefectureCode": "28",
    "prefectureNumber": 28,
    "prefecture": "兵庫県",
    "city": "神戸市須磨区",
    "town": "高倉町"
  },
  "6540075": {
    "zipcode": "6540075",
    "prefectureCode": "28",
    "prefectureNumber": 28,
    "prefecture": "兵庫県",
    "city": "神戸市須磨区",
    "town": "潮見台町"
  },
  "6540076": {
    "zipcode": "6540076",
    "prefectureCode": "28",
    "prefectureNumber": 28,
    "prefecture": "兵庫県",
    "city": "神戸市須磨区",
    "town": "一ノ谷町"
  },
  "6540081": {
    "zipcode": "6540081",
    "prefectureCode": "28",
    "prefectureNumber": 28,
    "prefecture": "兵庫県",
    "city": "神戸市須磨区",
    "town": "高倉台"
  },
  "6540101": {
    "zipcode": "6540101",
    "prefectureCode": "28",
    "prefectureNumber": 28,
    "prefecture": "兵庫県",
    "city": "神戸市須磨区",
    "town": "白川"
  },
  "6540102": {
    "zipcode": "6540102",
    "prefectureCode": "28",
    "prefectureNumber": 28,
    "prefecture": "兵庫県",
    "city": "神戸市須磨区",
    "town": "東白川台"
  },
  "6540103": {
    "zipcode": "6540103",
    "prefectureCode": "28",
    "prefectureNumber": 28,
    "prefecture": "兵庫県",
    "city": "神戸市須磨区",
    "town": "白川台"
  },
  "6540111": {
    "zipcode": "6540111",
    "prefectureCode": "28",
    "prefectureNumber": 28,
    "prefecture": "兵庫県",
    "city": "神戸市須磨区",
    "town": "車"
  },
  "6540112": {
    "zipcode": "6540112",
    "prefectureCode": "28",
    "prefectureNumber": 28,
    "prefecture": "兵庫県",
    "city": "神戸市須磨区",
    "town": "若草町"
  },
  "6540113": {
    "zipcode": "6540113",
    "prefectureCode": "28",
    "prefectureNumber": 28,
    "prefecture": "兵庫県",
    "city": "神戸市須磨区",
    "town": "緑が丘"
  },
  "6540114": {
    "zipcode": "6540114",
    "prefectureCode": "28",
    "prefectureNumber": 28,
    "prefecture": "兵庫県",
    "city": "神戸市須磨区",
    "town": "桜の杜"
  },
  "6540121": {
    "zipcode": "6540121",
    "prefectureCode": "28",
    "prefectureNumber": 28,
    "prefecture": "兵庫県",
    "city": "神戸市須磨区",
    "town": "妙法寺"
  },
  "6540122": {
    "zipcode": "6540122",
    "prefectureCode": "28",
    "prefectureNumber": 28,
    "prefecture": "兵庫県",
    "city": "神戸市須磨区",
    "town": "道正台"
  },
  "6540123": {
    "zipcode": "6540123",
    "prefectureCode": "28",
    "prefectureNumber": 28,
    "prefecture": "兵庫県",
    "city": "神戸市須磨区",
    "town": "清水台"
  },
  "6540131": {
    "zipcode": "6540131",
    "prefectureCode": "28",
    "prefectureNumber": 28,
    "prefecture": "兵庫県",
    "city": "神戸市須磨区",
    "town": "横尾"
  },
  "6540132": {
    "zipcode": "6540132",
    "prefectureCode": "28",
    "prefectureNumber": 28,
    "prefecture": "兵庫県",
    "city": "神戸市須磨区",
    "town": "多井畑南町"
  },
  "6540133": {
    "zipcode": "6540133",
    "prefectureCode": "28",
    "prefectureNumber": 28,
    "prefecture": "兵庫県",
    "city": "神戸市須磨区",
    "town": "多井畑"
  },
  "6540134": {
    "zipcode": "6540134",
    "prefectureCode": "28",
    "prefectureNumber": 28,
    "prefecture": "兵庫県",
    "city": "神戸市須磨区",
    "town": "多井畑東町"
  },
  "6540141": {
    "zipcode": "6540141",
    "prefectureCode": "28",
    "prefectureNumber": 28,
    "prefecture": "兵庫県",
    "city": "神戸市須磨区",
    "town": "竜が台"
  },
  "6540142": {
    "zipcode": "6540142",
    "prefectureCode": "28",
    "prefectureNumber": 28,
    "prefecture": "兵庫県",
    "city": "神戸市須磨区",
    "town": "友が丘"
  },
  "6540143": {
    "zipcode": "6540143",
    "prefectureCode": "28",
    "prefectureNumber": 28,
    "prefecture": "兵庫県",
    "city": "神戸市須磨区",
    "town": "菅の台"
  },
  "6540151": {
    "zipcode": "6540151",
    "prefectureCode": "28",
    "prefectureNumber": 28,
    "prefecture": "兵庫県",
    "city": "神戸市須磨区",
    "town": "北落合"
  },
  "6540152": {
    "zipcode": "6540152",
    "prefectureCode": "28",
    "prefectureNumber": 28,
    "prefecture": "兵庫県",
    "city": "神戸市須磨区",
    "town": "東落合"
  },
  "6540153": {
    "zipcode": "6540153",
    "prefectureCode": "28",
    "prefectureNumber": 28,
    "prefecture": "兵庫県",
    "city": "神戸市須磨区",
    "town": "南落合"
  },
  "6540154": {
    "zipcode": "6540154",
    "prefectureCode": "28",
    "prefectureNumber": 28,
    "prefecture": "兵庫県",
    "city": "神戸市須磨区",
    "town": "中落合"
  },
  "6540155": {
    "zipcode": "6540155",
    "prefectureCode": "28",
    "prefectureNumber": 28,
    "prefecture": "兵庫県",
    "city": "神戸市須磨区",
    "town": "西落合"
  },
  "6540161": {
    "zipcode": "6540161",
    "prefectureCode": "28",
    "prefectureNumber": 28,
    "prefecture": "兵庫県",
    "city": "神戸市須磨区",
    "town": "弥栄台"
  },
  "6540162": {
    "zipcode": "6540162",
    "prefectureCode": "28",
    "prefectureNumber": 28,
    "prefecture": "兵庫県",
    "city": "神戸市須磨区",
    "town": "神の谷"
  },
  "6540163": {
    "zipcode": "6540163",
    "prefectureCode": "28",
    "prefectureNumber": 28,
    "prefecture": "兵庫県",
    "city": "神戸市須磨区",
    "town": "緑台"
  }
}
