{
  "6560000": {
    "zipcode": "6560000",
    "prefectureCode": "28",
    "prefectureNumber": 28,
    "prefecture": "兵庫県",
    "city": "洲本市",
    "town": "以下に掲載がない場合"
  },
  "6560001": {
    "zipcode": "6560001",
    "prefectureCode": "28",
    "prefectureNumber": 28,
    "prefecture": "兵庫県",
    "city": "洲本市",
    "town": "中川原町厚浜"
  },
  "6560002": {
    "zipcode": "6560002",
    "prefectureCode": "28",
    "prefectureNumber": 28,
    "prefecture": "兵庫県",
    "city": "洲本市",
    "town": "中川原町中川原"
  },
  "6560003": {
    "zipcode": "6560003",
    "prefectureCode": "28",
    "prefectureNumber": 28,
    "prefecture": "兵庫県",
    "city": "洲本市",
    "town": "中川原町三木田"
  },
  "6560004": {
    "zipcode": "6560004",
    "prefectureCode": "28",
    "prefectureNumber": 28,
    "prefecture": "兵庫県",
    "city": "洲本市",
    "town": "中川原町安坂"
  },
  "6560005": {
    "zipcode": "6560005",
    "prefectureCode": "28",
    "prefectureNumber": 28,
    "prefecture": "兵庫県",
    "city": "洲本市",
    "town": "中川原町市原"
  },
  "6560006": {
    "zipcode": "6560006",
    "prefectureCode": "28",
    "prefectureNumber": 28,
    "prefecture": "兵庫県",
    "city": "洲本市",
    "town": "中川原町二ツ石"
  },
  "6560011": {
    "zipcode": "6560011",
    "prefectureCode": "28",
    "prefectureNumber": 28,
    "prefecture": "兵庫県",
    "city": "洲本市",
    "town": "炬口"
  },
  "6560012": {
    "zipcode": "6560012",
    "prefectureCode": "28",
    "prefectureNumber": 28,
    "prefecture": "兵庫県",
    "city": "洲本市",
    "town": "宇山"
  },
  "6560013": {
    "zipcode": "6560013",
    "prefectureCode": "28",
    "prefectureNumber": 28,
    "prefecture": "兵庫県",
    "city": "洲本市",
    "town": "下加茂"
  },
  "6560014": {
    "zipcode": "6560014",
    "prefectureCode": "28",
    "prefectureNumber": 28,
    "prefecture": "兵庫県",
    "city": "洲本市",
    "town": "桑間"
  },
  "6560015": {
    "zipcode": "6560015",
    "prefectureCode": "28",
    "prefectureNumber": 28,
    "prefecture": "兵庫県",
    "city": "洲本市",
    "town": "上加茂"
  },
  "6560016": {
    "zipcode": "6560016",
    "prefectureCode": "28",
    "prefectureNumber": 28,
    "prefecture": "兵庫県",
    "city": "洲本市",
    "town": "下内膳"
  },
  "6560017": {
    "zipcode": "6560017",
    "prefectureCode": "28",
    "prefectureNumber": 28,
    "prefecture": "兵庫県",
    "city": "洲本市",
    "town": "上内膳"
  },
  "6560018": {
    "zipcode": "6560018",
    "prefectureCode": "28",
    "prefectureNumber": 28,
    "prefecture": "兵庫県",
    "city": "洲本市",
    "town": "奥畑"
  },
  "6560021": {
    "zipcode": "6560021",
    "prefectureCode": "28",
    "prefectureNumber": 28,
    "prefecture": "兵庫県",
    "city": "洲本市",
    "town": "塩屋"
  },
  "6560022": {
    "zipcode": "6560022",
    "prefectureCode": "28",
    "prefectureNumber": 28,
    "prefecture": "兵庫県",
    "city": "洲本市",
    "town": "海岸通"
  },
  "6560023": {
    "zipcode": "6560023",
    "prefectureCode": "28",
    "prefectureNumber": 28,
    "prefecture": "兵庫県",
    "city": "洲本市",
    "town": "小路谷"
  },
  "6560024": {
    "zipcode": "6560024",
    "prefectureCode": "28",
    "prefectureNumber": 28,
    "prefecture": "兵庫県",
    "city": "洲本市",
    "town": "山手"
  },
  "6560025": {
    "zipcode": "6560025",
    "prefectureCode": "28",
    "prefectureNumber": 28,
    "prefecture": "兵庫県",
    "city": "洲本市",
    "town": "本町"
  },
  "6560026": {
    "zipcode": "6560026",
    "prefectureCode": "28",
    "prefectureNumber": 28,
    "prefecture": "兵庫県",
    "city": "洲本市",
    "town": "栄町"
  },
  "6560027": {
    "zipcode": "6560027",
    "prefectureCode": "28",
    "prefectureNumber": 28,
    "prefecture": "兵庫県",
    "city": "洲本市",
    "town": "港"
  },
  "6560031": {
    "zipcode": "6560031",
    "prefectureCode": "28",
    "prefectureNumber": 28,
    "prefecture": "兵庫県",
    "city": "洲本市",
    "town": "千草"
  },
  "6560041": {
    "zipcode": "6560041",
    "prefectureCode": "28",
    "prefectureNumber": 28,
    "prefecture": "兵庫県",
    "city": "洲本市",
    "town": "新村"
  },
  "6560042": {
    "zipcode": "6560042",
    "prefectureCode": "28",
    "prefectureNumber": 28,
    "prefecture": "兵庫県",
    "city": "洲本市",
    "town": "池内"
  },
  "6560043": {
    "zipcode": "6560043",
    "prefectureCode": "28",
    "prefectureNumber": 28,
    "prefecture": "兵庫県",
    "city": "洲本市",
    "town": "池田"
  },
  "6560044": {
    "zipcode": "6560044",
    "prefectureCode": "28",
    "prefectureNumber": 28,
    "prefecture": "兵庫県",
    "city": "洲本市",
    "town": "前平"
  },
  "6560045": {
    "zipcode": "6560045",
    "prefectureCode": "28",
    "prefectureNumber": 28,
    "prefecture": "兵庫県",
    "city": "洲本市",
    "town": "木戸"
  },
  "6560046": {
    "zipcode": "6560046",
    "prefectureCode": "28",
    "prefectureNumber": 28,
    "prefecture": "兵庫県",
    "city": "洲本市",
    "town": "金屋"
  },
  "6560051": {
    "zipcode": "6560051",
    "prefectureCode": "28",
    "prefectureNumber": 28,
    "prefecture": "兵庫県",
    "city": "洲本市",
    "town": "物部"
  },
  "6560052": {
    "zipcode": "6560052",
    "prefectureCode": "28",
    "prefectureNumber": 28,
    "prefecture": "兵庫県",
    "city": "洲本市",
    "town": "津田"
  },
  "6560053": {
    "zipcode": "6560053",
    "prefectureCode": "28",
    "prefectureNumber": 28,
    "prefecture": "兵庫県",
    "city": "洲本市",
    "town": "上物部"
  },
  "6560054": {
    "zipcode": "6560054",
    "prefectureCode": "28",
    "prefectureNumber": 28,
    "prefecture": "兵庫県",
    "city": "洲本市",
    "town": "宇原"
  },
  "6560055": {
    "zipcode": "6560055",
    "prefectureCode": "28",
    "prefectureNumber": 28,
    "prefecture": "兵庫県",
    "city": "洲本市",
    "town": "大野"
  },
  "6560101": {
    "zipcode": "6560101",
    "prefectureCode": "28",
    "prefectureNumber": 28,
    "prefecture": "兵庫県",
    "city": "洲本市",
    "town": "納"
  },
  "6560111": {
    "zipcode": "6560111",
    "prefectureCode": "28",
    "prefectureNumber": 28,
    "prefecture": "兵庫県",
    "city": "洲本市",
    "town": "鮎屋"
  },
  "6560121": {
    "zipcode": "6560121",
    "prefectureCode": "28",
    "prefectureNumber": 28,
    "prefecture": "兵庫県",
    "city": "南あわじ市",
    "town": "山添"
  },
  "6560122": {
    "zipcode": "6560122",
    "prefectureCode": "28",
    "prefectureNumber": 28,
    "prefecture": "兵庫県",
    "city": "南あわじ市",
    "town": "広田広田"
  },
  "6560131": {
    "zipcode": "6560131",
    "prefectureCode": "28",
    "prefectureNumber": 28,
    "prefecture": "兵庫県",
    "city": "南あわじ市",
    "town": "広田中筋"
  },
  "6560141": {
    "zipcode": "6560141",
    "prefectureCode": "28",
    "prefectureNumber": 28,
    "prefecture": "兵庫県",
    "city": "南あわじ市",
    "town": "中条広田"
  },
  "6560142": {
    "zipcode": "6560142",
    "prefectureCode": "28",
    "prefectureNumber": 28,
    "prefecture": "兵庫県",
    "city": "南あわじ市",
    "town": "中条徳原"
  },
  "6560143": {
    "zipcode": "6560143",
    "prefectureCode": "28",
    "prefectureNumber": 28,
    "prefecture": "兵庫県",
    "city": "南あわじ市",
    "town": "中条中筋"
  },
  "6560151": {
    "zipcode": "6560151",
    "prefectureCode": "28",
    "prefectureNumber": 28,
    "prefecture": "兵庫県",
    "city": "南あわじ市",
    "town": "倭文安住寺"
  },
  "6560152": {
    "zipcode": "6560152",
    "prefectureCode": "28",
    "prefectureNumber": 28,
    "prefecture": "兵庫県",
    "city": "南あわじ市",
    "town": "倭文長田"
  },
  "6560153": {
    "zipcode": "6560153",
    "prefectureCode": "28",
    "prefectureNumber": 28,
    "prefecture": "兵庫県",
    "city": "南あわじ市",
    "town": "倭文庄田"
  },
  "6560154": {
    "zipcode": "6560154",
    "prefectureCode": "28",
    "prefectureNumber": 28,
    "prefecture": "兵庫県",
    "city": "南あわじ市",
    "town": "倭文神道"
  },
  "6560161": {
    "zipcode": "6560161",
    "prefectureCode": "28",
    "prefectureNumber": 28,
    "prefecture": "兵庫県",
    "city": "南あわじ市",
    "town": "倭文土井"
  },
  "6560301": {
    "zipcode": "6560301",
    "prefectureCode": "28",
    "prefectureNumber": 28,
    "prefecture": "兵庫県",
    "city": "南あわじ市",
    "town": "松帆北方"
  },
  "6560302": {
    "zipcode": "6560302",
    "prefectureCode": "28",
    "prefectureNumber": 28,
    "prefecture": "兵庫県",
    "city": "南あわじ市",
    "town": "松帆塩浜"
  },
  "6560303": {
    "zipcode": "6560303",
    "prefectureCode": "28",
    "prefectureNumber": 28,
    "prefecture": "兵庫県",
    "city": "南あわじ市",
    "town": "松帆江尻"
  },
  "6560304": {
    "zipcode": "6560304",
    "prefectureCode": "28",
    "prefectureNumber": 28,
    "prefecture": "兵庫県",
    "city": "南あわじ市",
    "town": "松帆古津路"
  },
  "6560305": {
    "zipcode": "6560305",
    "prefectureCode": "28",
    "prefectureNumber": 28,
    "prefecture": "兵庫県",
    "city": "南あわじ市",
    "town": "松帆北浜"
  },
  "6560306": {
    "zipcode": "6560306",
    "prefectureCode": "28",
    "prefectureNumber": 28,
    "prefecture": "兵庫県",
    "city": "南あわじ市",
    "town": "松帆慶野"
  },
  "6560307": {
    "zipcode": "6560307",
    "prefectureCode": "28",
    "prefectureNumber": 28,
    "prefecture": "兵庫県",
    "city": "南あわじ市",
    "town": "松帆檪田"
  },
  "6560308": {
    "zipcode": "6560308",
    "prefectureCode": "28",
    "prefectureNumber": 28,
    "prefecture": "兵庫県",
    "city": "南あわじ市",
    "town": "松帆宝明寺"
  },
  "6560311": {
    "zipcode": "6560311",
    "prefectureCode": "28",
    "prefectureNumber": 28,
    "prefecture": "兵庫県",
    "city": "南あわじ市",
    "town": "松帆戒旦寺"
  },
  "6560312": {
    "zipcode": "6560312",
    "prefectureCode": "28",
    "prefectureNumber": 28,
    "prefecture": "兵庫県",
    "city": "南あわじ市",
    "town": "松帆脇田"
  },
  "6560313": {
    "zipcode": "6560313",
    "prefectureCode": "28",
    "prefectureNumber": 28,
    "prefecture": "兵庫県",
    "city": "南あわじ市",
    "town": "松帆志知川"
  },
  "6560314": {
    "zipcode": "6560314",
    "prefectureCode": "28",
    "prefectureNumber": 28,
    "prefecture": "兵庫県",
    "city": "南あわじ市",
    "town": "松帆西路"
  },
  "6560315": {
    "zipcode": "6560315",
    "prefectureCode": "28",
    "prefectureNumber": 28,
    "prefecture": "兵庫県",
    "city": "南あわじ市",
    "town": "松帆高屋"
  },
  "6560321": {
    "zipcode": "6560321",
    "prefectureCode": "28",
    "prefectureNumber": 28,
    "prefecture": "兵庫県",
    "city": "南あわじ市",
    "town": "志知"
  },
  "6560322": {
    "zipcode": "6560322",
    "prefectureCode": "28",
    "prefectureNumber": 28,
    "prefecture": "兵庫県",
    "city": "南あわじ市",
    "town": "志知鈩"
  },
  "6560323": {
    "zipcode": "6560323",
    "prefectureCode": "28",
    "prefectureNumber": 28,
    "prefecture": "兵庫県",
    "city": "南あわじ市",
    "town": "志知飯山寺"
  },
  "6560324": {
    "zipcode": "6560324",
    "prefectureCode": "28",
    "prefectureNumber": 28,
    "prefecture": "兵庫県",
    "city": "南あわじ市",
    "town": "志知口"
  },
  "6560325": {
    "zipcode": "6560325",
    "prefectureCode": "28",
    "prefectureNumber": 28,
    "prefecture": "兵庫県",
    "city": "南あわじ市",
    "town": "志知奥"
  },
  "6560326": {
    "zipcode": "6560326",
    "prefectureCode": "28",
    "prefectureNumber": 28,
    "prefecture": "兵庫県",
    "city": "南あわじ市",
    "town": "志知南"
  },
  "6560327": {
    "zipcode": "6560327",
    "prefectureCode": "28",
    "prefectureNumber": 28,
    "prefecture": "兵庫県",
    "city": "南あわじ市",
    "town": "志知北"
  },
  "6560328": {
    "zipcode": "6560328",
    "prefectureCode": "28",
    "prefectureNumber": 28,
    "prefecture": "兵庫県",
    "city": "南あわじ市",
    "town": "桜花の郷"
  },
  "6560331": {
    "zipcode": "6560331",
    "prefectureCode": "28",
    "prefectureNumber": 28,
    "prefecture": "兵庫県",
    "city": "南あわじ市",
    "town": "湊里"
  },
  "6560332": {
    "zipcode": "6560332",
    "prefectureCode": "28",
    "prefectureNumber": 28,
    "prefecture": "兵庫県",
    "city": "南あわじ市",
    "town": "湊"
  },
  "6560341": {
    "zipcode": "6560341",
    "prefectureCode": "28",
    "prefectureNumber": 28,
    "prefecture": "兵庫県",
    "city": "南あわじ市",
    "town": "津井"
  },
  "6560400": {
    "zipcode": "6560400",
    "prefectureCode": "28",
    "prefectureNumber": 28,
    "prefecture": "兵庫県",
    "city": "南あわじ市",
    "town": "以下に掲載がない場合"
  },
  "6560411": {
    "zipcode": "6560411",
    "prefectureCode": "28",
    "prefectureNumber": 28,
    "prefecture": "兵庫県",
    "city": "南あわじ市",
    "town": "倭文高"
  },
  "6560412": {
    "zipcode": "6560412",
    "prefectureCode": "28",
    "prefectureNumber": 28,
    "prefecture": "兵庫県",
    "city": "南あわじ市",
    "town": "倭文委文"
  },
  "6560413": {
    "zipcode": "6560413",
    "prefectureCode": "28",
    "prefectureNumber": 28,
    "prefecture": "兵庫県",
    "city": "南あわじ市",
    "town": "倭文流"
  },
  "6560421": {
    "zipcode": "6560421",
    "prefectureCode": "28",
    "prefectureNumber": 28,
    "prefecture": "兵庫県",
    "city": "南あわじ市",
    "town": "榎列山所"
  },
  "6560422": {
    "zipcode": "6560422",
    "prefectureCode": "28",
    "prefectureNumber": 28,
    "prefecture": "兵庫県",
    "city": "南あわじ市",
    "town": "榎列上幡多"
  },
  "6560423": {
    "zipcode": "6560423",
    "prefectureCode": "28",
    "prefectureNumber": 28,
    "prefecture": "兵庫県",
    "city": "南あわじ市",
    "town": "榎列下幡多"
  },
  "6560424": {
    "zipcode": "6560424",
    "prefectureCode": "28",
    "prefectureNumber": 28,
    "prefecture": "兵庫県",
    "city": "南あわじ市",
    "town": "榎列西川"
  },
  "6560425": {
    "zipcode": "6560425",
    "prefectureCode": "28",
    "prefectureNumber": 28,
    "prefecture": "兵庫県",
    "city": "南あわじ市",
    "town": "榎列小榎列"
  },
  "6560426": {
    "zipcode": "6560426",
    "prefectureCode": "28",
    "prefectureNumber": 28,
    "prefecture": "兵庫県",
    "city": "南あわじ市",
    "town": "榎列大榎列"
  },
  "6560427": {
    "zipcode": "6560427",
    "prefectureCode": "28",
    "prefectureNumber": 28,
    "prefecture": "兵庫県",
    "city": "南あわじ市",
    "town": "榎列松田"
  },
  "6560428": {
    "zipcode": "6560428",
    "prefectureCode": "28",
    "prefectureNumber": 28,
    "prefecture": "兵庫県",
    "city": "南あわじ市",
    "town": "榎列掃守"
  },
  "6560431": {
    "zipcode": "6560431",
    "prefectureCode": "28",
    "prefectureNumber": 28,
    "prefecture": "兵庫県",
    "city": "南あわじ市",
    "town": "八木野原"
  },
  "6560432": {
    "zipcode": "6560432",
    "prefectureCode": "28",
    "prefectureNumber": 28,
    "prefecture": "兵庫県",
    "city": "南あわじ市",
    "town": "八木徳野"
  },
  "6560433": {
    "zipcode": "6560433",
    "prefectureCode": "28",
    "prefectureNumber": 28,
    "prefecture": "兵庫県",
    "city": "南あわじ市",
    "town": "八木鳥井"
  },
  "6560434": {
    "zipcode": "6560434",
    "prefectureCode": "28",
    "prefectureNumber": 28,
    "prefecture": "兵庫県",
    "city": "南あわじ市",
    "town": "八木国分"
  },
  "6560435": {
    "zipcode": "6560435",
    "prefectureCode": "28",
    "prefectureNumber": 28,
    "prefecture": "兵庫県",
    "city": "南あわじ市",
    "town": "八木立石"
  },
  "6560436": {
    "zipcode": "6560436",
    "prefectureCode": "28",
    "prefectureNumber": 28,
    "prefecture": "兵庫県",
    "city": "南あわじ市",
    "town": "八木新庄"
  },
  "6560441": {
    "zipcode": "6560441",
    "prefectureCode": "28",
    "prefectureNumber": 28,
    "prefecture": "兵庫県",
    "city": "南あわじ市",
    "town": "八木入田"
  },
  "6560442": {
    "zipcode": "6560442",
    "prefectureCode": "28",
    "prefectureNumber": 28,
    "prefecture": "兵庫県",
    "city": "南あわじ市",
    "town": "八木養宜中"
  },
  "6560443": {
    "zipcode": "6560443",
    "prefectureCode": "28",
    "prefectureNumber": 28,
    "prefecture": "兵庫県",
    "city": "南あわじ市",
    "town": "八木養宜上"
  },
  "6560444": {
    "zipcode": "6560444",
    "prefectureCode": "28",
    "prefectureNumber": 28,
    "prefecture": "兵庫県",
    "city": "南あわじ市",
    "town": "八木大久保"
  },
  "6560445": {
    "zipcode": "6560445",
    "prefectureCode": "28",
    "prefectureNumber": 28,
    "prefecture": "兵庫県",
    "city": "南あわじ市",
    "town": "八木馬回"
  },
  "6560446": {
    "zipcode": "6560446",
    "prefectureCode": "28",
    "prefectureNumber": 28,
    "prefecture": "兵庫県",
    "city": "南あわじ市",
    "town": "八木寺内"
  },
  "6560451": {
    "zipcode": "6560451",
    "prefectureCode": "28",
    "prefectureNumber": 28,
    "prefecture": "兵庫県",
    "city": "南あわじ市",
    "town": "神代社家"
  },
  "6560452": {
    "zipcode": "6560452",
    "prefectureCode": "28",
    "prefectureNumber": 28,
    "prefecture": "兵庫県",
    "city": "南あわじ市",
    "town": "神代浦壁"
  },
  "6560453": {
    "zipcode": "6560453",
    "prefectureCode": "28",
    "prefectureNumber": 28,
    "prefecture": "兵庫県",
    "city": "南あわじ市",
    "town": "神代黒道"
  },
  "6560454": {
    "zipcode": "6560454",
    "prefectureCode": "28",
    "prefectureNumber": 28,
    "prefecture": "兵庫県",
    "city": "南あわじ市",
    "town": "神代喜来"
  },
  "6560455": {
    "zipcode": "6560455",
    "prefectureCode": "28",
    "prefectureNumber": 28,
    "prefecture": "兵庫県",
    "city": "南あわじ市",
    "town": "神代國衙"
  },
  "6560456": {
    "zipcode": "6560456",
    "prefectureCode": "28",
    "prefectureNumber": 28,
    "prefecture": "兵庫県",
    "city": "南あわじ市",
    "town": "神代地頭方"
  },
  "6560457": {
    "zipcode": "6560457",
    "prefectureCode": "28",
    "prefectureNumber": 28,
    "prefecture": "兵庫県",
    "city": "南あわじ市",
    "town": "神代富田"
  },
  "6560461": {
    "zipcode": "6560461",
    "prefectureCode": "28",
    "prefectureNumber": 28,
    "prefecture": "兵庫県",
    "city": "南あわじ市",
    "town": "市円行寺"
  },
  "6560462": {
    "zipcode": "6560462",
    "prefectureCode": "28",
    "prefectureNumber": 28,
    "prefecture": "兵庫県",
    "city": "南あわじ市",
    "town": "市青木"
  },
  "6560471": {
    "zipcode": "6560471",
    "prefectureCode": "28",
    "prefectureNumber": 28,
    "prefecture": "兵庫県",
    "city": "南あわじ市",
    "town": "市十一ケ所"
  },
  "6560472": {
    "zipcode": "6560472",
    "prefectureCode": "28",
    "prefectureNumber": 28,
    "prefecture": "兵庫県",
    "city": "南あわじ市",
    "town": "市善光寺"
  },
  "6560473": {
    "zipcode": "6560473",
    "prefectureCode": "28",
    "prefectureNumber": 28,
    "prefecture": "兵庫県",
    "city": "南あわじ市",
    "town": "市小井"
  },
  "6560474": {
    "zipcode": "6560474",
    "prefectureCode": "28",
    "prefectureNumber": 28,
    "prefecture": "兵庫県",
    "city": "南あわじ市",
    "town": "市市"
  },
  "6560475": {
    "zipcode": "6560475",
    "prefectureCode": "28",
    "prefectureNumber": 28,
    "prefecture": "兵庫県",
    "city": "南あわじ市",
    "town": "市三條"
  },
  "6560476": {
    "zipcode": "6560476",
    "prefectureCode": "28",
    "prefectureNumber": 28,
    "prefecture": "兵庫県",
    "city": "南あわじ市",
    "town": "市新"
  },
  "6560477": {
    "zipcode": "6560477",
    "prefectureCode": "28",
    "prefectureNumber": 28,
    "prefecture": "兵庫県",
    "city": "南あわじ市",
    "town": "市徳長"
  },
  "6560478": {
    "zipcode": "6560478",
    "prefectureCode": "28",
    "prefectureNumber": 28,
    "prefecture": "兵庫県",
    "city": "南あわじ市",
    "town": "市福永"
  },
  "6560481": {
    "zipcode": "6560481",
    "prefectureCode": "28",
    "prefectureNumber": 28,
    "prefecture": "兵庫県",
    "city": "南あわじ市",
    "town": "志知松本"
  },
  "6560482": {
    "zipcode": "6560482",
    "prefectureCode": "28",
    "prefectureNumber": 28,
    "prefecture": "兵庫県",
    "city": "南あわじ市",
    "town": "志知難波"
  },
  "6560483": {
    "zipcode": "6560483",
    "prefectureCode": "28",
    "prefectureNumber": 28,
    "prefecture": "兵庫県",
    "city": "南あわじ市",
    "town": "志知中島"
  },
  "6560484": {
    "zipcode": "6560484",
    "prefectureCode": "28",
    "prefectureNumber": 28,
    "prefecture": "兵庫県",
    "city": "南あわじ市",
    "town": "志知佐礼尾"
  },
  "6560501": {
    "zipcode": "6560501",
    "prefectureCode": "28",
    "prefectureNumber": 28,
    "prefecture": "兵庫県",
    "city": "南あわじ市",
    "town": "福良甲"
  },
  "6560502": {
    "zipcode": "6560502",
    "prefectureCode": "28",
    "prefectureNumber": 28,
    "prefecture": "兵庫県",
    "city": "南あわじ市",
    "town": "福良乙"
  },
  "6560503": {
    "zipcode": "6560503",
    "prefectureCode": "28",
    "prefectureNumber": 28,
    "prefecture": "兵庫県",
    "city": "南あわじ市",
    "town": "福良丙"
  },
  "6560511": {
    "zipcode": "6560511",
    "prefectureCode": "28",
    "prefectureNumber": 28,
    "prefecture": "兵庫県",
    "city": "南あわじ市",
    "town": "賀集八幡"
  },
  "6560512": {
    "zipcode": "6560512",
    "prefectureCode": "28",
    "prefectureNumber": 28,
    "prefecture": "兵庫県",
    "city": "南あわじ市",
    "town": "賀集立川瀬"
  },
  "6560513": {
    "zipcode": "6560513",
    "prefectureCode": "28",
    "prefectureNumber": 28,
    "prefecture": "兵庫県",
    "city": "南あわじ市",
    "town": "賀集野田"
  },
  "6560514": {
    "zipcode": "6560514",
    "prefectureCode": "28",
    "prefectureNumber": 28,
    "prefecture": "兵庫県",
    "city": "南あわじ市",
    "town": "賀集（賀集）"
  },
  "6560515": {
    "zipcode": "6560515",
    "prefectureCode": "28",
    "prefectureNumber": 28,
    "prefecture": "兵庫県",
    "city": "南あわじ市",
    "town": "賀集鍛治屋"
  },
  "6560516": {
    "zipcode": "6560516",
    "prefectureCode": "28",
    "prefectureNumber": 28,
    "prefecture": "兵庫県",
    "city": "南あわじ市",
    "town": "賀集福井"
  },
  "6560517": {
    "zipcode": "6560517",
    "prefectureCode": "28",
    "prefectureNumber": 28,
    "prefecture": "兵庫県",
    "city": "南あわじ市",
    "town": "賀集長原"
  },
  "6560518": {
    "zipcode": "6560518",
    "prefectureCode": "28",
    "prefectureNumber": 28,
    "prefecture": "兵庫県",
    "city": "南あわじ市",
    "town": "賀集牛内"
  },
  "6560521": {
    "zipcode": "6560521",
    "prefectureCode": "28",
    "prefectureNumber": 28,
    "prefecture": "兵庫県",
    "city": "南あわじ市",
    "town": "潮美台"
  },
  "6560531": {
    "zipcode": "6560531",
    "prefectureCode": "28",
    "prefectureNumber": 28,
    "prefecture": "兵庫県",
    "city": "南あわじ市",
    "town": "北阿万伊賀野"
  },
  "6560532": {
    "zipcode": "6560532",
    "prefectureCode": "28",
    "prefectureNumber": 28,
    "prefecture": "兵庫県",
    "city": "南あわじ市",
    "town": "北阿万稲田南"
  },
  "6560533": {
    "zipcode": "6560533",
    "prefectureCode": "28",
    "prefectureNumber": 28,
    "prefecture": "兵庫県",
    "city": "南あわじ市",
    "town": "北阿万新田（北、中）"
  },
  "6560534": {
    "zipcode": "6560534",
    "prefectureCode": "28",
    "prefectureNumber": 28,
    "prefecture": "兵庫県",
    "city": "南あわじ市",
    "town": "北阿万筒井"
  },
  "6560541": {
    "zipcode": "6560541",
    "prefectureCode": "28",
    "prefectureNumber": 28,
    "prefecture": "兵庫県",
    "city": "南あわじ市",
    "town": "阿万上町"
  },
  "6560542": {
    "zipcode": "6560542",
    "prefectureCode": "28",
    "prefectureNumber": 28,
    "prefecture": "兵庫県",
    "city": "南あわじ市",
    "town": "阿万吹上町"
  },
  "6560543": {
    "zipcode": "6560543",
    "prefectureCode": "28",
    "prefectureNumber": 28,
    "prefecture": "兵庫県",
    "city": "南あわじ市",
    "town": "阿万塩屋町"
  },
  "6560544": {
    "zipcode": "6560544",
    "prefectureCode": "28",
    "prefectureNumber": 28,
    "prefecture": "兵庫県",
    "city": "南あわじ市",
    "town": "阿万下町"
  },
  "6560545": {
    "zipcode": "6560545",
    "prefectureCode": "28",
    "prefectureNumber": 28,
    "prefecture": "兵庫県",
    "city": "南あわじ市",
    "town": "阿万西町"
  },
  "6560546": {
    "zipcode": "6560546",
    "prefectureCode": "28",
    "prefectureNumber": 28,
    "prefecture": "兵庫県",
    "city": "南あわじ市",
    "town": "阿万東町"
  },
  "6560551": {
    "zipcode": "6560551",
    "prefectureCode": "28",
    "prefectureNumber": 28,
    "prefecture": "兵庫県",
    "city": "南あわじ市",
    "town": "灘"
  },
  "6560651": {
    "zipcode": "6560651",
    "prefectureCode": "28",
    "prefectureNumber": 28,
    "prefecture": "兵庫県",
    "city": "南あわじ市",
    "town": "伊加利"
  },
  "6560661": {
    "zipcode": "6560661",
    "prefectureCode": "28",
    "prefectureNumber": 28,
    "prefecture": "兵庫県",
    "city": "南あわじ市",
    "town": "阿那賀"
  },
  "6560662": {
    "zipcode": "6560662",
    "prefectureCode": "28",
    "prefectureNumber": 28,
    "prefecture": "兵庫県",
    "city": "南あわじ市",
    "town": "阿那賀志知川"
  },
  "6560663": {
    "zipcode": "6560663",
    "prefectureCode": "28",
    "prefectureNumber": 28,
    "prefecture": "兵庫県",
    "city": "南あわじ市",
    "town": "阿那賀西路"
  },
  "6560961": {
    "zipcode": "6560961",
    "prefectureCode": "28",
    "prefectureNumber": 28,
    "prefecture": "兵庫県",
    "city": "南あわじ市",
    "town": "沼島"
  },
  "6561301": {
    "zipcode": "6561301",
    "prefectureCode": "28",
    "prefectureNumber": 28,
    "prefecture": "兵庫県",
    "city": "洲本市",
    "town": "五色町都志"
  },
  "6561302": {
    "zipcode": "6561302",
    "prefectureCode": "28",
    "prefectureNumber": 28,
    "prefecture": "兵庫県",
    "city": "洲本市",
    "town": "五色町都志米山"
  },
  "6561303": {
    "zipcode": "6561303",
    "prefectureCode": "28",
    "prefectureNumber": 28,
    "prefecture": "兵庫県",
    "city": "洲本市",
    "town": "五色町都志大宮"
  },
  "6561304": {
    "zipcode": "6561304",
    "prefectureCode": "28",
    "prefectureNumber": 28,
    "prefecture": "兵庫県",
    "city": "洲本市",
    "town": "五色町都志万歳"
  },
  "6561311": {
    "zipcode": "6561311",
    "prefectureCode": "28",
    "prefectureNumber": 28,
    "prefecture": "兵庫県",
    "city": "洲本市",
    "town": "五色町鮎原葛尾"
  },
  "6561312": {
    "zipcode": "6561312",
    "prefectureCode": "28",
    "prefectureNumber": 28,
    "prefecture": "兵庫県",
    "city": "洲本市",
    "town": "五色町鮎原吉田"
  },
  "6561313": {
    "zipcode": "6561313",
    "prefectureCode": "28",
    "prefectureNumber": 28,
    "prefecture": "兵庫県",
    "city": "洲本市",
    "town": "五色町鮎原西"
  },
  "6561314": {
    "zipcode": "6561314",
    "prefectureCode": "28",
    "prefectureNumber": 28,
    "prefecture": "兵庫県",
    "city": "洲本市",
    "town": "五色町鮎原鮎の郷"
  },
  "6561315": {
    "zipcode": "6561315",
    "prefectureCode": "28",
    "prefectureNumber": 28,
    "prefecture": "兵庫県",
    "city": "洲本市",
    "town": "五色町鮎原宇谷"
  },
  "6561316": {
    "zipcode": "6561316",
    "prefectureCode": "28",
    "prefectureNumber": 28,
    "prefecture": "兵庫県",
    "city": "洲本市",
    "town": "五色町鮎原栢野"
  },
  "6561317": {
    "zipcode": "6561317",
    "prefectureCode": "28",
    "prefectureNumber": 28,
    "prefecture": "兵庫県",
    "city": "洲本市",
    "town": "五色町鮎原小山田"
  },
  "6561318": {
    "zipcode": "6561318",
    "prefectureCode": "28",
    "prefectureNumber": 28,
    "prefecture": "兵庫県",
    "city": "洲本市",
    "town": "五色町鮎原神陽"
  },
  "6561321": {
    "zipcode": "6561321",
    "prefectureCode": "28",
    "prefectureNumber": 28,
    "prefecture": "兵庫県",
    "city": "洲本市",
    "town": "五色町鮎原中邑"
  },
  "6561322": {
    "zipcode": "6561322",
    "prefectureCode": "28",
    "prefectureNumber": 28,
    "prefecture": "兵庫県",
    "city": "洲本市",
    "town": "五色町鮎原上"
  },
  "6561323": {
    "zipcode": "6561323",
    "prefectureCode": "28",
    "prefectureNumber": 28,
    "prefecture": "兵庫県",
    "city": "洲本市",
    "town": "五色町鮎原塔下"
  },
  "6561324": {
    "zipcode": "6561324",
    "prefectureCode": "28",
    "prefectureNumber": 28,
    "prefecture": "兵庫県",
    "city": "洲本市",
    "town": "五色町鮎原三野畑"
  },
  "6561325": {
    "zipcode": "6561325",
    "prefectureCode": "28",
    "prefectureNumber": 28,
    "prefecture": "兵庫県",
    "city": "洲本市",
    "town": "五色町鮎原南谷"
  },
  "6561326": {
    "zipcode": "6561326",
    "prefectureCode": "28",
    "prefectureNumber": 28,
    "prefecture": "兵庫県",
    "city": "洲本市",
    "town": "五色町鮎原下"
  },
  "6561327": {
    "zipcode": "6561327",
    "prefectureCode": "28",
    "prefectureNumber": 28,
    "prefecture": "兵庫県",
    "city": "洲本市",
    "town": "五色町鮎原田処"
  },
  "6561331": {
    "zipcode": "6561331",
    "prefectureCode": "28",
    "prefectureNumber": 28,
    "prefecture": "兵庫県",
    "city": "洲本市",
    "town": "五色町都志大日"
  },
  "6561332": {
    "zipcode": "6561332",
    "prefectureCode": "28",
    "prefectureNumber": 28,
    "prefecture": "兵庫県",
    "city": "洲本市",
    "town": "五色町広石北"
  },
  "6561333": {
    "zipcode": "6561333",
    "prefectureCode": "28",
    "prefectureNumber": 28,
    "prefecture": "兵庫県",
    "city": "洲本市",
    "town": "五色町広石上"
  },
  "6561334": {
    "zipcode": "6561334",
    "prefectureCode": "28",
    "prefectureNumber": 28,
    "prefecture": "兵庫県",
    "city": "洲本市",
    "town": "五色町広石中"
  },
  "6561335": {
    "zipcode": "6561335",
    "prefectureCode": "28",
    "prefectureNumber": 28,
    "prefecture": "兵庫県",
    "city": "洲本市",
    "town": "五色町広石下"
  },
  "6561336": {
    "zipcode": "6561336",
    "prefectureCode": "28",
    "prefectureNumber": 28,
    "prefecture": "兵庫県",
    "city": "洲本市",
    "town": "五色町上堺"
  },
  "6561337": {
    "zipcode": "6561337",
    "prefectureCode": "28",
    "prefectureNumber": 28,
    "prefecture": "兵庫県",
    "city": "洲本市",
    "town": "五色町下堺"
  },
  "6561341": {
    "zipcode": "6561341",
    "prefectureCode": "28",
    "prefectureNumber": 28,
    "prefecture": "兵庫県",
    "city": "洲本市",
    "town": "五色町都志角川"
  },
  "6561342": {
    "zipcode": "6561342",
    "prefectureCode": "28",
    "prefectureNumber": 28,
    "prefecture": "兵庫県",
    "city": "洲本市",
    "town": "五色町鳥飼上"
  },
  "6561343": {
    "zipcode": "6561343",
    "prefectureCode": "28",
    "prefectureNumber": 28,
    "prefecture": "兵庫県",
    "city": "洲本市",
    "town": "五色町鳥飼中"
  },
  "6561344": {
    "zipcode": "6561344",
    "prefectureCode": "28",
    "prefectureNumber": 28,
    "prefecture": "兵庫県",
    "city": "洲本市",
    "town": "五色町鳥飼浦"
  },
  "6561501": {
    "zipcode": "6561501",
    "prefectureCode": "28",
    "prefectureNumber": 28,
    "prefecture": "兵庫県",
    "city": "淡路市",
    "town": "尾崎"
  },
  "6561502": {
    "zipcode": "6561502",
    "prefectureCode": "28",
    "prefectureNumber": 28,
    "prefecture": "兵庫県",
    "city": "淡路市",
    "town": "新村"
  },
  "6561503": {
    "zipcode": "6561503",
    "prefectureCode": "28",
    "prefectureNumber": 28,
    "prefecture": "兵庫県",
    "city": "淡路市",
    "town": "遠田"
  },
  "6561511": {
    "zipcode": "6561511",
    "prefectureCode": "28",
    "prefectureNumber": 28,
    "prefecture": "兵庫県",
    "city": "淡路市",
    "town": "郡家"
  },
  "6561512": {
    "zipcode": "6561512",
    "prefectureCode": "28",
    "prefectureNumber": 28,
    "prefecture": "兵庫県",
    "city": "淡路市",
    "town": "北山"
  },
  "6561521": {
    "zipcode": "6561521",
    "prefectureCode": "28",
    "prefectureNumber": 28,
    "prefecture": "兵庫県",
    "city": "淡路市",
    "town": "多賀"
  },
  "6561522": {
    "zipcode": "6561522",
    "prefectureCode": "28",
    "prefectureNumber": 28,
    "prefecture": "兵庫県",
    "city": "淡路市",
    "town": "下河合"
  },
  "6561523": {
    "zipcode": "6561523",
    "prefectureCode": "28",
    "prefectureNumber": 28,
    "prefecture": "兵庫県",
    "city": "淡路市",
    "town": "上河合"
  },
  "6561524": {
    "zipcode": "6561524",
    "prefectureCode": "28",
    "prefectureNumber": 28,
    "prefecture": "兵庫県",
    "city": "淡路市",
    "town": "竹谷"
  },
  "6561525": {
    "zipcode": "6561525",
    "prefectureCode": "28",
    "prefectureNumber": 28,
    "prefecture": "兵庫県",
    "city": "淡路市",
    "town": "井手"
  },
  "6561526": {
    "zipcode": "6561526",
    "prefectureCode": "28",
    "prefectureNumber": 28,
    "prefecture": "兵庫県",
    "city": "淡路市",
    "town": "中村"
  },
  "6561531": {
    "zipcode": "6561531",
    "prefectureCode": "28",
    "prefectureNumber": 28,
    "prefecture": "兵庫県",
    "city": "淡路市",
    "town": "江井"
  },
  "6561541": {
    "zipcode": "6561541",
    "prefectureCode": "28",
    "prefectureNumber": 28,
    "prefecture": "兵庫県",
    "city": "淡路市",
    "town": "柳沢"
  },
  "6561551": {
    "zipcode": "6561551",
    "prefectureCode": "28",
    "prefectureNumber": 28,
    "prefecture": "兵庫県",
    "city": "淡路市",
    "town": "高山"
  },
  "6561552": {
    "zipcode": "6561552",
    "prefectureCode": "28",
    "prefectureNumber": 28,
    "prefecture": "兵庫県",
    "city": "淡路市",
    "town": "入野"
  },
  "6561553": {
    "zipcode": "6561553",
    "prefectureCode": "28",
    "prefectureNumber": 28,
    "prefecture": "兵庫県",
    "city": "淡路市",
    "town": "山田"
  },
  "6561554": {
    "zipcode": "6561554",
    "prefectureCode": "28",
    "prefectureNumber": 28,
    "prefecture": "兵庫県",
    "city": "淡路市",
    "town": "深草"
  },
  "6561555": {
    "zipcode": "6561555",
    "prefectureCode": "28",
    "prefectureNumber": 28,
    "prefecture": "兵庫県",
    "city": "淡路市",
    "town": "南"
  },
  "6561556": {
    "zipcode": "6561556",
    "prefectureCode": "28",
    "prefectureNumber": 28,
    "prefecture": "兵庫県",
    "city": "淡路市",
    "town": "草香"
  },
  "6561557": {
    "zipcode": "6561557",
    "prefectureCode": "28",
    "prefectureNumber": 28,
    "prefecture": "兵庫県",
    "city": "淡路市",
    "town": "明神"
  },
  "6561558": {
    "zipcode": "6561558",
    "prefectureCode": "28",
    "prefectureNumber": 28,
    "prefecture": "兵庫県",
    "city": "淡路市",
    "town": "草香北"
  },
  "6561601": {
    "zipcode": "6561601",
    "prefectureCode": "28",
    "prefectureNumber": 28,
    "prefecture": "兵庫県",
    "city": "淡路市",
    "town": "黒谷"
  },
  "6561602": {
    "zipcode": "6561602",
    "prefectureCode": "28",
    "prefectureNumber": 28,
    "prefecture": "兵庫県",
    "city": "淡路市",
    "town": "育波"
  },
  "6561603": {
    "zipcode": "6561603",
    "prefectureCode": "28",
    "prefectureNumber": 28,
    "prefecture": "兵庫県",
    "city": "淡路市",
    "town": "生田大坪"
  },
  "6561604": {
    "zipcode": "6561604",
    "prefectureCode": "28",
    "prefectureNumber": 28,
    "prefecture": "兵庫県",
    "city": "淡路市",
    "town": "生田畑"
  },
  "6561605": {
    "zipcode": "6561605",
    "prefectureCode": "28",
    "prefectureNumber": 28,
    "prefecture": "兵庫県",
    "city": "淡路市",
    "town": "生田田尻"
  },
  "6561606": {
    "zipcode": "6561606",
    "prefectureCode": "28",
    "prefectureNumber": 28,
    "prefecture": "兵庫県",
    "city": "淡路市",
    "town": "室津"
  },
  "6561711": {
    "zipcode": "6561711",
    "prefectureCode": "28",
    "prefectureNumber": 28,
    "prefecture": "兵庫県",
    "city": "淡路市",
    "town": "富島"
  },
  "6561712": {
    "zipcode": "6561712",
    "prefectureCode": "28",
    "prefectureNumber": 28,
    "prefecture": "兵庫県",
    "city": "淡路市",
    "town": "石田"
  },
  "6561721": {
    "zipcode": "6561721",
    "prefectureCode": "28",
    "prefectureNumber": 28,
    "prefecture": "兵庫県",
    "city": "淡路市",
    "town": "野島蟇浦"
  },
  "6561722": {
    "zipcode": "6561722",
    "prefectureCode": "28",
    "prefectureNumber": 28,
    "prefecture": "兵庫県",
    "city": "淡路市",
    "town": "野島轟木"
  },
  "6561723": {
    "zipcode": "6561723",
    "prefectureCode": "28",
    "prefectureNumber": 28,
    "prefecture": "兵庫県",
    "city": "淡路市",
    "town": "野島大川"
  },
  "6561724": {
    "zipcode": "6561724",
    "prefectureCode": "28",
    "prefectureNumber": 28,
    "prefecture": "兵庫県",
    "city": "淡路市",
    "town": "野島平林"
  },
  "6561725": {
    "zipcode": "6561725",
    "prefectureCode": "28",
    "prefectureNumber": 28,
    "prefecture": "兵庫県",
    "city": "淡路市",
    "town": "野島江崎（その他）"
  },
  "6561726": {
    "zipcode": "6561726",
    "prefectureCode": "28",
    "prefectureNumber": 28,
    "prefecture": "兵庫県",
    "city": "淡路市",
    "town": "野島常盤"
  },
  "6561727": {
    "zipcode": "6561727",
    "prefectureCode": "28",
    "prefectureNumber": 28,
    "prefecture": "兵庫県",
    "city": "淡路市",
    "town": "野島貴船"
  },
  "6561731": {
    "zipcode": "6561731",
    "prefectureCode": "28",
    "prefectureNumber": 28,
    "prefecture": "兵庫県",
    "city": "淡路市",
    "town": "仁井"
  },
  "6561732": {
    "zipcode": "6561732",
    "prefectureCode": "28",
    "prefectureNumber": 28,
    "prefecture": "兵庫県",
    "city": "淡路市",
    "town": "小田"
  },
  "6561733": {
    "zipcode": "6561733",
    "prefectureCode": "28",
    "prefectureNumber": 28,
    "prefecture": "兵庫県",
    "city": "淡路市",
    "town": "長畠"
  },
  "6561734": {
    "zipcode": "6561734",
    "prefectureCode": "28",
    "prefectureNumber": 28,
    "prefecture": "兵庫県",
    "city": "淡路市",
    "town": "舟木"
  },
  "6561735": {
    "zipcode": "6561735",
    "prefectureCode": "28",
    "prefectureNumber": 28,
    "prefecture": "兵庫県",
    "city": "淡路市",
    "town": "久野々"
  },
  "6561736": {
    "zipcode": "6561736",
    "prefectureCode": "28",
    "prefectureNumber": 28,
    "prefecture": "兵庫県",
    "city": "淡路市",
    "town": "小倉"
  },
  "6561741": {
    "zipcode": "6561741",
    "prefectureCode": "28",
    "prefectureNumber": 28,
    "prefecture": "兵庫県",
    "city": "淡路市",
    "town": "浅野南"
  },
  "6561742": {
    "zipcode": "6561742",
    "prefectureCode": "28",
    "prefectureNumber": 28,
    "prefecture": "兵庫県",
    "city": "淡路市",
    "town": "浅野神田"
  },
  "6561743": {
    "zipcode": "6561743",
    "prefectureCode": "28",
    "prefectureNumber": 28,
    "prefecture": "兵庫県",
    "city": "淡路市",
    "town": "斗ノ内"
  },
  "6562100": {
    "zipcode": "6562100",
    "prefectureCode": "28",
    "prefectureNumber": 28,
    "prefecture": "兵庫県",
    "city": "淡路市",
    "town": "以下に掲載がない場合"
  },
  "6562121": {
    "zipcode": "6562121",
    "prefectureCode": "28",
    "prefectureNumber": 28,
    "prefecture": "兵庫県",
    "city": "洲本市",
    "town": "安乎町平安浦"
  },
  "6562122": {
    "zipcode": "6562122",
    "prefectureCode": "28",
    "prefectureNumber": 28,
    "prefecture": "兵庫県",
    "city": "洲本市",
    "town": "安乎町中田"
  },
  "6562123": {
    "zipcode": "6562123",
    "prefectureCode": "28",
    "prefectureNumber": 28,
    "prefecture": "兵庫県",
    "city": "洲本市",
    "town": "安乎町古宮"
  },
  "6562124": {
    "zipcode": "6562124",
    "prefectureCode": "28",
    "prefectureNumber": 28,
    "prefecture": "兵庫県",
    "city": "洲本市",
    "town": "安乎町北谷"
  },
  "6562125": {
    "zipcode": "6562125",
    "prefectureCode": "28",
    "prefectureNumber": 28,
    "prefecture": "兵庫県",
    "city": "洲本市",
    "town": "安乎町山田原"
  },
  "6562126": {
    "zipcode": "6562126",
    "prefectureCode": "28",
    "prefectureNumber": 28,
    "prefecture": "兵庫県",
    "city": "洲本市",
    "town": "安乎町宮野原"
  },
  "6562131": {
    "zipcode": "6562131",
    "prefectureCode": "28",
    "prefectureNumber": 28,
    "prefecture": "兵庫県",
    "city": "淡路市",
    "town": "志筑"
  },
  "6562132": {
    "zipcode": "6562132",
    "prefectureCode": "28",
    "prefectureNumber": 28,
    "prefecture": "兵庫県",
    "city": "淡路市",
    "town": "志筑新島"
  },
  "6562133": {
    "zipcode": "6562133",
    "prefectureCode": "28",
    "prefectureNumber": 28,
    "prefecture": "兵庫県",
    "city": "淡路市",
    "town": "志筑新浜"
  },
  "6562141": {
    "zipcode": "6562141",
    "prefectureCode": "28",
    "prefectureNumber": 28,
    "prefecture": "兵庫県",
    "city": "淡路市",
    "town": "塩尾"
  },
  "6562142": {
    "zipcode": "6562142",
    "prefectureCode": "28",
    "prefectureNumber": 28,
    "prefecture": "兵庫県",
    "city": "淡路市",
    "town": "塩田新島"
  },
  "6562143": {
    "zipcode": "6562143",
    "prefectureCode": "28",
    "prefectureNumber": 28,
    "prefecture": "兵庫県",
    "city": "淡路市",
    "town": "里"
  },
  "6562144": {
    "zipcode": "6562144",
    "prefectureCode": "28",
    "prefectureNumber": 28,
    "prefecture": "兵庫県",
    "city": "淡路市",
    "town": "下司"
  },
  "6562151": {
    "zipcode": "6562151",
    "prefectureCode": "28",
    "prefectureNumber": 28,
    "prefecture": "兵庫県",
    "city": "淡路市",
    "town": "大町畑"
  },
  "6562152": {
    "zipcode": "6562152",
    "prefectureCode": "28",
    "prefectureNumber": 28,
    "prefecture": "兵庫県",
    "city": "淡路市",
    "town": "木曽上"
  },
  "6562153": {
    "zipcode": "6562153",
    "prefectureCode": "28",
    "prefectureNumber": 28,
    "prefecture": "兵庫県",
    "city": "淡路市",
    "town": "木曽上畑"
  },
  "6562154": {
    "zipcode": "6562154",
    "prefectureCode": "28",
    "prefectureNumber": 28,
    "prefecture": "兵庫県",
    "city": "淡路市",
    "town": "木曽下"
  },
  "6562155": {
    "zipcode": "6562155",
    "prefectureCode": "28",
    "prefectureNumber": 28,
    "prefecture": "兵庫県",
    "city": "淡路市",
    "town": "大町上"
  },
  "6562156": {
    "zipcode": "6562156",
    "prefectureCode": "28",
    "prefectureNumber": 28,
    "prefecture": "兵庫県",
    "city": "淡路市",
    "town": "大町下"
  },
  "6562161": {
    "zipcode": "6562161",
    "prefectureCode": "28",
    "prefectureNumber": 28,
    "prefecture": "兵庫県",
    "city": "淡路市",
    "town": "池ノ内"
  },
  "6562162": {
    "zipcode": "6562162",
    "prefectureCode": "28",
    "prefectureNumber": 28,
    "prefecture": "兵庫県",
    "city": "淡路市",
    "town": "王子"
  },
  "6562163": {
    "zipcode": "6562163",
    "prefectureCode": "28",
    "prefectureNumber": 28,
    "prefecture": "兵庫県",
    "city": "淡路市",
    "town": "中田"
  },
  "6562211": {
    "zipcode": "6562211",
    "prefectureCode": "28",
    "prefectureNumber": 28,
    "prefecture": "兵庫県",
    "city": "淡路市",
    "town": "興隆寺"
  },
  "6562212": {
    "zipcode": "6562212",
    "prefectureCode": "28",
    "prefectureNumber": 28,
    "prefecture": "兵庫県",
    "city": "淡路市",
    "town": "佐野"
  },
  "6562213": {
    "zipcode": "6562213",
    "prefectureCode": "28",
    "prefectureNumber": 28,
    "prefecture": "兵庫県",
    "city": "淡路市",
    "town": "佐野新島"
  },
  "6562214": {
    "zipcode": "6562214",
    "prefectureCode": "28",
    "prefectureNumber": 28,
    "prefecture": "兵庫県",
    "city": "淡路市",
    "town": "津名の郷"
  },
  "6562221": {
    "zipcode": "6562221",
    "prefectureCode": "28",
    "prefectureNumber": 28,
    "prefecture": "兵庫県",
    "city": "淡路市",
    "town": "長沢"
  },
  "6562222": {
    "zipcode": "6562222",
    "prefectureCode": "28",
    "prefectureNumber": 28,
    "prefecture": "兵庫県",
    "city": "淡路市",
    "town": "野田尾"
  },
  "6562223": {
    "zipcode": "6562223",
    "prefectureCode": "28",
    "prefectureNumber": 28,
    "prefecture": "兵庫県",
    "city": "淡路市",
    "town": "生穂"
  },
  "6562224": {
    "zipcode": "6562224",
    "prefectureCode": "28",
    "prefectureNumber": 28,
    "prefecture": "兵庫県",
    "city": "淡路市",
    "town": "大谷"
  },
  "6562225": {
    "zipcode": "6562225",
    "prefectureCode": "28",
    "prefectureNumber": 28,
    "prefecture": "兵庫県",
    "city": "淡路市",
    "town": "生穂新島"
  },
  "6562301": {
    "zipcode": "6562301",
    "prefectureCode": "28",
    "prefectureNumber": 28,
    "prefecture": "兵庫県",
    "city": "淡路市",
    "town": "楠本"
  },
  "6562302": {
    "zipcode": "6562302",
    "prefectureCode": "28",
    "prefectureNumber": 28,
    "prefecture": "兵庫県",
    "city": "淡路市",
    "town": "大磯"
  },
  "6562303": {
    "zipcode": "6562303",
    "prefectureCode": "28",
    "prefectureNumber": 28,
    "prefecture": "兵庫県",
    "city": "淡路市",
    "town": "小磯"
  },
  "6562304": {
    "zipcode": "6562304",
    "prefectureCode": "28",
    "prefectureNumber": 28,
    "prefecture": "兵庫県",
    "city": "淡路市",
    "town": "浜"
  },
  "6562305": {
    "zipcode": "6562305",
    "prefectureCode": "28",
    "prefectureNumber": 28,
    "prefecture": "兵庫県",
    "city": "淡路市",
    "town": "浦"
  },
  "6562306": {
    "zipcode": "6562306",
    "prefectureCode": "28",
    "prefectureNumber": 28,
    "prefecture": "兵庫県",
    "city": "淡路市",
    "town": "夢舞台"
  },
  "6562307": {
    "zipcode": "6562307",
    "prefectureCode": "28",
    "prefectureNumber": 28,
    "prefecture": "兵庫県",
    "city": "淡路市",
    "town": "南鵜崎"
  },
  "6562311": {
    "zipcode": "6562311",
    "prefectureCode": "28",
    "prefectureNumber": 28,
    "prefecture": "兵庫県",
    "city": "淡路市",
    "town": "久留麻"
  },
  "6562321": {
    "zipcode": "6562321",
    "prefectureCode": "28",
    "prefectureNumber": 28,
    "prefecture": "兵庫県",
    "city": "淡路市",
    "town": "中持"
  },
  "6562322": {
    "zipcode": "6562322",
    "prefectureCode": "28",
    "prefectureNumber": 28,
    "prefecture": "兵庫県",
    "city": "淡路市",
    "town": "白山"
  },
  "6562323": {
    "zipcode": "6562323",
    "prefectureCode": "28",
    "prefectureNumber": 28,
    "prefecture": "兵庫県",
    "city": "淡路市",
    "town": "河内"
  },
  "6562331": {
    "zipcode": "6562331",
    "prefectureCode": "28",
    "prefectureNumber": 28,
    "prefecture": "兵庫県",
    "city": "淡路市",
    "town": "仮屋"
  },
  "6562332": {
    "zipcode": "6562332",
    "prefectureCode": "28",
    "prefectureNumber": 28,
    "prefecture": "兵庫県",
    "city": "淡路市",
    "town": "谷"
  },
  "6562333": {
    "zipcode": "6562333",
    "prefectureCode": "28",
    "prefectureNumber": 28,
    "prefecture": "兵庫県",
    "city": "淡路市",
    "town": "下田"
  },
  "6562334": {
    "zipcode": "6562334",
    "prefectureCode": "28",
    "prefectureNumber": 28,
    "prefecture": "兵庫県",
    "city": "淡路市",
    "town": "釜口"
  },
  "6562401": {
    "zipcode": "6562401",
    "prefectureCode": "28",
    "prefectureNumber": 28,
    "prefecture": "兵庫県",
    "city": "淡路市",
    "town": "岩屋"
  },
  "6562451": {
    "zipcode": "6562451",
    "prefectureCode": "28",
    "prefectureNumber": 28,
    "prefecture": "兵庫県",
    "city": "淡路市",
    "town": "野島江崎（１３、１４番地、１０番地の２、５）"
  },
  "6562531": {
    "zipcode": "6562531",
    "prefectureCode": "28",
    "prefectureNumber": 28,
    "prefecture": "兵庫県",
    "city": "洲本市",
    "town": "相川組"
  },
  "6562532": {
    "zipcode": "6562532",
    "prefectureCode": "28",
    "prefectureNumber": 28,
    "prefecture": "兵庫県",
    "city": "洲本市",
    "town": "中津川組"
  },
  "6562533": {
    "zipcode": "6562533",
    "prefectureCode": "28",
    "prefectureNumber": 28,
    "prefecture": "兵庫県",
    "city": "洲本市",
    "town": "畑田組"
  },
  "6562541": {
    "zipcode": "6562541",
    "prefectureCode": "28",
    "prefectureNumber": 28,
    "prefecture": "兵庫県",
    "city": "洲本市",
    "town": "由良"
  },
  "6562542": {
    "zipcode": "6562542",
    "prefectureCode": "28",
    "prefectureNumber": 28,
    "prefecture": "兵庫県",
    "city": "洲本市",
    "town": "由良町内田"
  },
  "6562543": {
    "zipcode": "6562543",
    "prefectureCode": "28",
    "prefectureNumber": 28,
    "prefecture": "兵庫県",
    "city": "洲本市",
    "town": "由良町由良"
  }
}
