{
  "6570000": {
    "zipcode": "6570000",
    "prefectureCode": "28",
    "prefectureNumber": 28,
    "prefecture": "兵庫県",
    "city": "神戸市灘区",
    "town": "以下に掲載がない場合"
  },
  "6570001": {
    "zipcode": "6570001",
    "prefectureCode": "28",
    "prefectureNumber": 28,
    "prefecture": "兵庫県",
    "city": "神戸市灘区",
    "town": "高羽"
  },
  "6570002": {
    "zipcode": "6570002",
    "prefectureCode": "28",
    "prefectureNumber": 28,
    "prefecture": "兵庫県",
    "city": "神戸市灘区",
    "town": "篠原（その他）"
  },
  "6570011": {
    "zipcode": "6570011",
    "prefectureCode": "28",
    "prefectureNumber": 28,
    "prefecture": "兵庫県",
    "city": "神戸市灘区",
    "town": "鶴甲"
  },
  "6570012": {
    "zipcode": "6570012",
    "prefectureCode": "28",
    "prefectureNumber": 28,
    "prefecture": "兵庫県",
    "city": "神戸市灘区",
    "town": "一王山町"
  },
  "6570013": {
    "zipcode": "6570013",
    "prefectureCode": "28",
    "prefectureNumber": 28,
    "prefecture": "兵庫県",
    "city": "神戸市灘区",
    "town": "六甲台町"
  },
  "6570014": {
    "zipcode": "6570014",
    "prefectureCode": "28",
    "prefectureNumber": 28,
    "prefecture": "兵庫県",
    "city": "神戸市灘区",
    "town": "大土平町"
  },
  "6570015": {
    "zipcode": "6570015",
    "prefectureCode": "28",
    "prefectureNumber": 28,
    "prefecture": "兵庫県",
    "city": "神戸市灘区",
    "town": "篠原伯母野山町"
  },
  "6570016": {
    "zipcode": "6570016",
    "prefectureCode": "28",
    "prefectureNumber": 28,
    "prefecture": "兵庫県",
    "city": "神戸市灘区",
    "town": "篠原台"
  },
  "6570017": {
    "zipcode": "6570017",
    "prefectureCode": "28",
    "prefectureNumber": 28,
    "prefecture": "兵庫県",
    "city": "神戸市灘区",
    "town": "大月台"
  },
  "6570018": {
    "zipcode": "6570018",
    "prefectureCode": "28",
    "prefectureNumber": 28,
    "prefecture": "兵庫県",
    "city": "神戸市灘区",
    "town": "水車新田"
  },
  "6570021": {
    "zipcode": "6570021",
    "prefectureCode": "28",
    "prefectureNumber": 28,
    "prefecture": "兵庫県",
    "city": "神戸市灘区",
    "town": "桜ケ丘町"
  },
  "6570022": {
    "zipcode": "6570022",
    "prefectureCode": "28",
    "prefectureNumber": 28,
    "prefecture": "兵庫県",
    "city": "神戸市灘区",
    "town": "土山町"
  },
  "6570023": {
    "zipcode": "6570023",
    "prefectureCode": "28",
    "prefectureNumber": 28,
    "prefecture": "兵庫県",
    "city": "神戸市灘区",
    "town": "高羽町"
  },
  "6570024": {
    "zipcode": "6570024",
    "prefectureCode": "28",
    "prefectureNumber": 28,
    "prefecture": "兵庫県",
    "city": "神戸市灘区",
    "town": "楠丘町"
  },
  "6570025": {
    "zipcode": "6570025",
    "prefectureCode": "28",
    "prefectureNumber": 28,
    "prefecture": "兵庫県",
    "city": "神戸市灘区",
    "town": "高徳町"
  },
  "6570026": {
    "zipcode": "6570026",
    "prefectureCode": "28",
    "prefectureNumber": 28,
    "prefecture": "兵庫県",
    "city": "神戸市灘区",
    "town": "弓木町"
  },
  "6570027": {
    "zipcode": "6570027",
    "prefectureCode": "28",
    "prefectureNumber": 28,
    "prefecture": "兵庫県",
    "city": "神戸市灘区",
    "town": "永手町"
  },
  "6570028": {
    "zipcode": "6570028",
    "prefectureCode": "28",
    "prefectureNumber": 28,
    "prefecture": "兵庫県",
    "city": "神戸市灘区",
    "town": "森後町"
  },
  "6570029": {
    "zipcode": "6570029",
    "prefectureCode": "28",
    "prefectureNumber": 28,
    "prefecture": "兵庫県",
    "city": "神戸市灘区",
    "town": "日尾町"
  },
  "6570031": {
    "zipcode": "6570031",
    "prefectureCode": "28",
    "prefectureNumber": 28,
    "prefecture": "兵庫県",
    "city": "神戸市灘区",
    "town": "大和町"
  },
  "6570032": {
    "zipcode": "6570032",
    "prefectureCode": "28",
    "prefectureNumber": 28,
    "prefecture": "兵庫県",
    "city": "神戸市灘区",
    "town": "中郷町"
  },
  "6570033": {
    "zipcode": "6570033",
    "prefectureCode": "28",
    "prefectureNumber": 28,
    "prefecture": "兵庫県",
    "city": "神戸市灘区",
    "town": "徳井町"
  },
  "6570034": {
    "zipcode": "6570034",
    "prefectureCode": "28",
    "prefectureNumber": 28,
    "prefecture": "兵庫県",
    "city": "神戸市灘区",
    "town": "記田町"
  },
  "6570035": {
    "zipcode": "6570035",
    "prefectureCode": "28",
    "prefectureNumber": 28,
    "prefecture": "兵庫県",
    "city": "神戸市灘区",
    "town": "友田町"
  },
  "6570036": {
    "zipcode": "6570036",
    "prefectureCode": "28",
    "prefectureNumber": 28,
    "prefecture": "兵庫県",
    "city": "神戸市灘区",
    "town": "桜口町"
  },
  "6570037": {
    "zipcode": "6570037",
    "prefectureCode": "28",
    "prefectureNumber": 28,
    "prefecture": "兵庫県",
    "city": "神戸市灘区",
    "town": "備後町"
  },
  "6570038": {
    "zipcode": "6570038",
    "prefectureCode": "28",
    "prefectureNumber": 28,
    "prefecture": "兵庫県",
    "city": "神戸市灘区",
    "town": "深田町"
  },
  "6570041": {
    "zipcode": "6570041",
    "prefectureCode": "28",
    "prefectureNumber": 28,
    "prefecture": "兵庫県",
    "city": "神戸市灘区",
    "town": "琵琶町"
  },
  "6570042": {
    "zipcode": "6570042",
    "prefectureCode": "28",
    "prefectureNumber": 28,
    "prefecture": "兵庫県",
    "city": "神戸市灘区",
    "town": "烏帽子町"
  },
  "6570043": {
    "zipcode": "6570043",
    "prefectureCode": "28",
    "prefectureNumber": 28,
    "prefecture": "兵庫県",
    "city": "神戸市灘区",
    "town": "大石東町"
  },
  "6570044": {
    "zipcode": "6570044",
    "prefectureCode": "28",
    "prefectureNumber": 28,
    "prefecture": "兵庫県",
    "city": "神戸市灘区",
    "town": "鹿ノ下通"
  },
  "6570045": {
    "zipcode": "6570045",
    "prefectureCode": "28",
    "prefectureNumber": 28,
    "prefecture": "兵庫県",
    "city": "神戸市灘区",
    "town": "下河原通"
  },
  "6570051": {
    "zipcode": "6570051",
    "prefectureCode": "28",
    "prefectureNumber": 28,
    "prefecture": "兵庫県",
    "city": "神戸市灘区",
    "town": "八幡町"
  },
  "6570052": {
    "zipcode": "6570052",
    "prefectureCode": "28",
    "prefectureNumber": 28,
    "prefecture": "兵庫県",
    "city": "神戸市灘区",
    "town": "神前町"
  },
  "6570053": {
    "zipcode": "6570053",
    "prefectureCode": "28",
    "prefectureNumber": 28,
    "prefecture": "兵庫県",
    "city": "神戸市灘区",
    "town": "六甲町"
  },
  "6570054": {
    "zipcode": "6570054",
    "prefectureCode": "28",
    "prefectureNumber": 28,
    "prefecture": "兵庫県",
    "city": "神戸市灘区",
    "town": "稗原町"
  },
  "6570055": {
    "zipcode": "6570055",
    "prefectureCode": "28",
    "prefectureNumber": 28,
    "prefecture": "兵庫県",
    "city": "神戸市灘区",
    "town": "上河原通"
  },
  "6570056": {
    "zipcode": "6570056",
    "prefectureCode": "28",
    "prefectureNumber": 28,
    "prefecture": "兵庫県",
    "city": "神戸市灘区",
    "town": "千旦通"
  },
  "6570057": {
    "zipcode": "6570057",
    "prefectureCode": "28",
    "prefectureNumber": 28,
    "prefecture": "兵庫県",
    "city": "神戸市灘区",
    "town": "神ノ木通"
  },
  "6570058": {
    "zipcode": "6570058",
    "prefectureCode": "28",
    "prefectureNumber": 28,
    "prefecture": "兵庫県",
    "city": "神戸市灘区",
    "town": "将軍通"
  },
  "6570059": {
    "zipcode": "6570059",
    "prefectureCode": "28",
    "prefectureNumber": 28,
    "prefecture": "兵庫県",
    "city": "神戸市灘区",
    "town": "篠原南町"
  },
  "6570061": {
    "zipcode": "6570061",
    "prefectureCode": "28",
    "prefectureNumber": 28,
    "prefecture": "兵庫県",
    "city": "神戸市灘区",
    "town": "赤松町"
  },
  "6570062": {
    "zipcode": "6570062",
    "prefectureCode": "28",
    "prefectureNumber": 28,
    "prefecture": "兵庫県",
    "city": "神戸市灘区",
    "town": "寺口町"
  },
  "6570063": {
    "zipcode": "6570063",
    "prefectureCode": "28",
    "prefectureNumber": 28,
    "prefecture": "兵庫県",
    "city": "神戸市灘区",
    "town": "曾和町"
  },
  "6570064": {
    "zipcode": "6570064",
    "prefectureCode": "28",
    "prefectureNumber": 28,
    "prefecture": "兵庫県",
    "city": "神戸市灘区",
    "town": "山田町"
  },
  "6570065": {
    "zipcode": "6570065",
    "prefectureCode": "28",
    "prefectureNumber": 28,
    "prefecture": "兵庫県",
    "city": "神戸市灘区",
    "town": "宮山町"
  },
  "6570066": {
    "zipcode": "6570066",
    "prefectureCode": "28",
    "prefectureNumber": 28,
    "prefecture": "兵庫県",
    "city": "神戸市灘区",
    "town": "篠原中町"
  },
  "6570067": {
    "zipcode": "6570067",
    "prefectureCode": "28",
    "prefectureNumber": 28,
    "prefecture": "兵庫県",
    "city": "神戸市灘区",
    "town": "篠原本町"
  },
  "6570068": {
    "zipcode": "6570068",
    "prefectureCode": "28",
    "prefectureNumber": 28,
    "prefecture": "兵庫県",
    "city": "神戸市灘区",
    "town": "篠原北町"
  },
  "6570101": {
    "zipcode": "6570101",
    "prefectureCode": "28",
    "prefectureNumber": 28,
    "prefecture": "兵庫県",
    "city": "神戸市灘区",
    "town": "六甲山町"
  },
  "6570102": {
    "zipcode": "6570102",
    "prefectureCode": "28",
    "prefectureNumber": 28,
    "prefecture": "兵庫県",
    "city": "神戸市灘区",
    "town": "畑原（ノタ山）"
  },
  "6570103": {
    "zipcode": "6570103",
    "prefectureCode": "28",
    "prefectureNumber": 28,
    "prefecture": "兵庫県",
    "city": "神戸市灘区",
    "town": "上野（小ヤバ三ノ休原）"
  },
  "6570104": {
    "zipcode": "6570104",
    "prefectureCode": "28",
    "prefectureNumber": 28,
    "prefecture": "兵庫県",
    "city": "神戸市灘区",
    "town": "摩耶山"
  },
  "6570105": {
    "zipcode": "6570105",
    "prefectureCode": "28",
    "prefectureNumber": 28,
    "prefecture": "兵庫県",
    "city": "神戸市灘区",
    "town": "摩耶山町"
  },
  "6570111": {
    "zipcode": "6570111",
    "prefectureCode": "28",
    "prefectureNumber": 28,
    "prefecture": "兵庫県",
    "city": "神戸市東灘区",
    "town": "本山町森（７４８−１番地）"
  },
  "6570801": {
    "zipcode": "6570801",
    "prefectureCode": "28",
    "prefectureNumber": 28,
    "prefecture": "兵庫県",
    "city": "神戸市灘区",
    "town": "五毛"
  },
  "6570802": {
    "zipcode": "6570802",
    "prefectureCode": "28",
    "prefectureNumber": 28,
    "prefecture": "兵庫県",
    "city": "神戸市灘区",
    "town": "原田"
  },
  "6570803": {
    "zipcode": "6570803",
    "prefectureCode": "28",
    "prefectureNumber": 28,
    "prefecture": "兵庫県",
    "city": "神戸市灘区",
    "town": "岩屋"
  },
  "6570804": {
    "zipcode": "6570804",
    "prefectureCode": "28",
    "prefectureNumber": 28,
    "prefecture": "兵庫県",
    "city": "神戸市灘区",
    "town": "城の下通"
  },
  "6570805": {
    "zipcode": "6570805",
    "prefectureCode": "28",
    "prefectureNumber": 28,
    "prefecture": "兵庫県",
    "city": "神戸市灘区",
    "town": "青谷町"
  },
  "6570811": {
    "zipcode": "6570811",
    "prefectureCode": "28",
    "prefectureNumber": 28,
    "prefecture": "兵庫県",
    "city": "神戸市灘区",
    "town": "長峰台"
  },
  "6570812": {
    "zipcode": "6570812",
    "prefectureCode": "28",
    "prefectureNumber": 28,
    "prefecture": "兵庫県",
    "city": "神戸市灘区",
    "town": "箕岡通"
  },
  "6570813": {
    "zipcode": "6570813",
    "prefectureCode": "28",
    "prefectureNumber": 28,
    "prefecture": "兵庫県",
    "city": "神戸市灘区",
    "town": "高尾通"
  },
  "6570814": {
    "zipcode": "6570814",
    "prefectureCode": "28",
    "prefectureNumber": 28,
    "prefecture": "兵庫県",
    "city": "神戸市灘区",
    "town": "五毛通"
  },
  "6570815": {
    "zipcode": "6570815",
    "prefectureCode": "28",
    "prefectureNumber": 28,
    "prefecture": "兵庫県",
    "city": "神戸市灘区",
    "town": "薬師通"
  },
  "6570816": {
    "zipcode": "6570816",
    "prefectureCode": "28",
    "prefectureNumber": 28,
    "prefecture": "兵庫県",
    "city": "神戸市灘区",
    "town": "国玉通"
  },
  "6570817": {
    "zipcode": "6570817",
    "prefectureCode": "28",
    "prefectureNumber": 28,
    "prefecture": "兵庫県",
    "city": "神戸市灘区",
    "town": "上野通"
  },
  "6570821": {
    "zipcode": "6570821",
    "prefectureCode": "28",
    "prefectureNumber": 28,
    "prefecture": "兵庫県",
    "city": "神戸市灘区",
    "town": "赤坂通"
  },
  "6570822": {
    "zipcode": "6570822",
    "prefectureCode": "28",
    "prefectureNumber": 28,
    "prefecture": "兵庫県",
    "city": "神戸市灘区",
    "town": "畑原通"
  },
  "6570823": {
    "zipcode": "6570823",
    "prefectureCode": "28",
    "prefectureNumber": 28,
    "prefecture": "兵庫県",
    "city": "神戸市灘区",
    "town": "天城通"
  },
  "6570824": {
    "zipcode": "6570824",
    "prefectureCode": "28",
    "prefectureNumber": 28,
    "prefecture": "兵庫県",
    "city": "神戸市灘区",
    "town": "福住通"
  },
  "6570825": {
    "zipcode": "6570825",
    "prefectureCode": "28",
    "prefectureNumber": 28,
    "prefecture": "兵庫県",
    "city": "神戸市灘区",
    "town": "中原通"
  },
  "6570826": {
    "zipcode": "6570826",
    "prefectureCode": "28",
    "prefectureNumber": 28,
    "prefecture": "兵庫県",
    "city": "神戸市灘区",
    "town": "倉石通"
  },
  "6570831": {
    "zipcode": "6570831",
    "prefectureCode": "28",
    "prefectureNumber": 28,
    "prefecture": "兵庫県",
    "city": "神戸市灘区",
    "town": "水道筋"
  },
  "6570832": {
    "zipcode": "6570832",
    "prefectureCode": "28",
    "prefectureNumber": 28,
    "prefecture": "兵庫県",
    "city": "神戸市灘区",
    "town": "岸地通"
  },
  "6570833": {
    "zipcode": "6570833",
    "prefectureCode": "28",
    "prefectureNumber": 28,
    "prefecture": "兵庫県",
    "city": "神戸市灘区",
    "town": "大内通"
  },
  "6570834": {
    "zipcode": "6570834",
    "prefectureCode": "28",
    "prefectureNumber": 28,
    "prefecture": "兵庫県",
    "city": "神戸市灘区",
    "town": "泉通"
  },
  "6570835": {
    "zipcode": "6570835",
    "prefectureCode": "28",
    "prefectureNumber": 28,
    "prefecture": "兵庫県",
    "city": "神戸市灘区",
    "town": "灘北通"
  },
  "6570836": {
    "zipcode": "6570836",
    "prefectureCode": "28",
    "prefectureNumber": 28,
    "prefecture": "兵庫県",
    "city": "神戸市灘区",
    "town": "城内通"
  },
  "6570837": {
    "zipcode": "6570837",
    "prefectureCode": "28",
    "prefectureNumber": 28,
    "prefecture": "兵庫県",
    "city": "神戸市灘区",
    "town": "原田通"
  },
  "6570838": {
    "zipcode": "6570838",
    "prefectureCode": "28",
    "prefectureNumber": 28,
    "prefecture": "兵庫県",
    "city": "神戸市灘区",
    "town": "王子町"
  },
  "6570841": {
    "zipcode": "6570841",
    "prefectureCode": "28",
    "prefectureNumber": 28,
    "prefecture": "兵庫県",
    "city": "神戸市灘区",
    "town": "灘南通"
  },
  "6570842": {
    "zipcode": "6570842",
    "prefectureCode": "28",
    "prefectureNumber": 28,
    "prefecture": "兵庫県",
    "city": "神戸市灘区",
    "town": "船寺通"
  },
  "6570843": {
    "zipcode": "6570843",
    "prefectureCode": "28",
    "prefectureNumber": 28,
    "prefecture": "兵庫県",
    "city": "神戸市灘区",
    "town": "大石北町"
  },
  "6570844": {
    "zipcode": "6570844",
    "prefectureCode": "28",
    "prefectureNumber": 28,
    "prefecture": "兵庫県",
    "city": "神戸市灘区",
    "town": "都通"
  },
  "6570845": {
    "zipcode": "6570845",
    "prefectureCode": "28",
    "prefectureNumber": 28,
    "prefecture": "兵庫県",
    "city": "神戸市灘区",
    "town": "岩屋中町"
  },
  "6570846": {
    "zipcode": "6570846",
    "prefectureCode": "28",
    "prefectureNumber": 28,
    "prefecture": "兵庫県",
    "city": "神戸市灘区",
    "town": "岩屋北町"
  },
  "6570851": {
    "zipcode": "6570851",
    "prefectureCode": "28",
    "prefectureNumber": 28,
    "prefecture": "兵庫県",
    "city": "神戸市灘区",
    "town": "味泥町"
  },
  "6570852": {
    "zipcode": "6570852",
    "prefectureCode": "28",
    "prefectureNumber": 28,
    "prefecture": "兵庫県",
    "city": "神戸市灘区",
    "town": "大石南町"
  },
  "6570853": {
    "zipcode": "6570853",
    "prefectureCode": "28",
    "prefectureNumber": 28,
    "prefecture": "兵庫県",
    "city": "神戸市灘区",
    "town": "灘浜町"
  },
  "6570854": {
    "zipcode": "6570854",
    "prefectureCode": "28",
    "prefectureNumber": 28,
    "prefecture": "兵庫県",
    "city": "神戸市灘区",
    "town": "摩耶埠頭"
  },
  "6570855": {
    "zipcode": "6570855",
    "prefectureCode": "28",
    "prefectureNumber": 28,
    "prefecture": "兵庫県",
    "city": "神戸市灘区",
    "town": "摩耶海岸通"
  },
  "6570856": {
    "zipcode": "6570856",
    "prefectureCode": "28",
    "prefectureNumber": 28,
    "prefecture": "兵庫県",
    "city": "神戸市灘区",
    "town": "岩屋南町"
  },
  "6570861": {
    "zipcode": "6570861",
    "prefectureCode": "28",
    "prefectureNumber": 28,
    "prefecture": "兵庫県",
    "city": "神戸市灘区",
    "town": "新在家北町"
  },
  "6570862": {
    "zipcode": "6570862",
    "prefectureCode": "28",
    "prefectureNumber": 28,
    "prefecture": "兵庫県",
    "city": "神戸市灘区",
    "town": "浜田町"
  },
  "6570863": {
    "zipcode": "6570863",
    "prefectureCode": "28",
    "prefectureNumber": 28,
    "prefecture": "兵庫県",
    "city": "神戸市灘区",
    "town": "灘浜東町"
  },
  "6570864": {
    "zipcode": "6570864",
    "prefectureCode": "28",
    "prefectureNumber": 28,
    "prefecture": "兵庫県",
    "city": "神戸市灘区",
    "town": "新在家南町"
  }
}
