{
  "6580000": {
    "zipcode": "6580000",
    "prefectureCode": "28",
    "prefectureNumber": 28,
    "prefecture": "兵庫県",
    "city": "神戸市東灘区",
    "town": "以下に掲載がない場合"
  },
  "6580001": {
    "zipcode": "6580001",
    "prefectureCode": "28",
    "prefectureNumber": 28,
    "prefecture": "兵庫県",
    "city": "神戸市東灘区",
    "town": "森北町"
  },
  "6580002": {
    "zipcode": "6580002",
    "prefectureCode": "28",
    "prefectureNumber": 28,
    "prefecture": "兵庫県",
    "city": "神戸市東灘区",
    "town": "甲南台"
  },
  "6580003": {
    "zipcode": "6580003",
    "prefectureCode": "28",
    "prefectureNumber": 28,
    "prefecture": "兵庫県",
    "city": "神戸市東灘区",
    "town": "本山北町"
  },
  "6580004": {
    "zipcode": "6580004",
    "prefectureCode": "28",
    "prefectureNumber": 28,
    "prefecture": "兵庫県",
    "city": "神戸市東灘区",
    "town": "本山町田辺"
  },
  "6580005": {
    "zipcode": "6580005",
    "prefectureCode": "28",
    "prefectureNumber": 28,
    "prefecture": "兵庫県",
    "city": "神戸市東灘区",
    "town": "本山町北畑"
  },
  "6580011": {
    "zipcode": "6580011",
    "prefectureCode": "28",
    "prefectureNumber": 28,
    "prefecture": "兵庫県",
    "city": "神戸市東灘区",
    "town": "森南町"
  },
  "6580012": {
    "zipcode": "6580012",
    "prefectureCode": "28",
    "prefectureNumber": 28,
    "prefecture": "兵庫県",
    "city": "神戸市東灘区",
    "town": "本庄町"
  },
  "6580013": {
    "zipcode": "6580013",
    "prefectureCode": "28",
    "prefectureNumber": 28,
    "prefecture": "兵庫県",
    "city": "神戸市東灘区",
    "town": "深江北町"
  },
  "6580014": {
    "zipcode": "6580014",
    "prefectureCode": "28",
    "prefectureNumber": 28,
    "prefecture": "兵庫県",
    "city": "神戸市東灘区",
    "town": "北青木"
  },
  "6580015": {
    "zipcode": "6580015",
    "prefectureCode": "28",
    "prefectureNumber": 28,
    "prefecture": "兵庫県",
    "city": "神戸市東灘区",
    "town": "本山南町"
  },
  "6580016": {
    "zipcode": "6580016",
    "prefectureCode": "28",
    "prefectureNumber": 28,
    "prefecture": "兵庫県",
    "city": "神戸市東灘区",
    "town": "本山中町"
  },
  "6580021": {
    "zipcode": "6580021",
    "prefectureCode": "28",
    "prefectureNumber": 28,
    "prefecture": "兵庫県",
    "city": "神戸市東灘区",
    "town": "深江本町"
  },
  "6580022": {
    "zipcode": "6580022",
    "prefectureCode": "28",
    "prefectureNumber": 28,
    "prefecture": "兵庫県",
    "city": "神戸市東灘区",
    "town": "深江南町"
  },
  "6580023": {
    "zipcode": "6580023",
    "prefectureCode": "28",
    "prefectureNumber": 28,
    "prefecture": "兵庫県",
    "city": "神戸市東灘区",
    "town": "深江浜町"
  },
  "6580024": {
    "zipcode": "6580024",
    "prefectureCode": "28",
    "prefectureNumber": 28,
    "prefecture": "兵庫県",
    "city": "神戸市東灘区",
    "town": "魚崎浜町"
  },
  "6580025": {
    "zipcode": "6580025",
    "prefectureCode": "28",
    "prefectureNumber": 28,
    "prefecture": "兵庫県",
    "city": "神戸市東灘区",
    "town": "魚崎南町"
  },
  "6580026": {
    "zipcode": "6580026",
    "prefectureCode": "28",
    "prefectureNumber": 28,
    "prefecture": "兵庫県",
    "city": "神戸市東灘区",
    "town": "魚崎西町"
  },
  "6580027": {
    "zipcode": "6580027",
    "prefectureCode": "28",
    "prefectureNumber": 28,
    "prefecture": "兵庫県",
    "city": "神戸市東灘区",
    "town": "青木"
  },
  "6580031": {
    "zipcode": "6580031",
    "prefectureCode": "28",
    "prefectureNumber": 28,
    "prefecture": "兵庫県",
    "city": "神戸市東灘区",
    "town": "向洋町東"
  },
  "6580032": {
    "zipcode": "6580032",
    "prefectureCode": "28",
    "prefectureNumber": 28,
    "prefecture": "兵庫県",
    "city": "神戸市東灘区",
    "town": "向洋町中"
  },
  "6580033": {
    "zipcode": "6580033",
    "prefectureCode": "28",
    "prefectureNumber": 28,
    "prefecture": "兵庫県",
    "city": "神戸市東灘区",
    "town": "向洋町西"
  },
  "6580041": {
    "zipcode": "6580041",
    "prefectureCode": "28",
    "prefectureNumber": 28,
    "prefecture": "兵庫県",
    "city": "神戸市東灘区",
    "town": "住吉南町"
  },
  "6580042": {
    "zipcode": "6580042",
    "prefectureCode": "28",
    "prefectureNumber": 28,
    "prefecture": "兵庫県",
    "city": "神戸市東灘区",
    "town": "住吉浜町"
  },
  "6580043": {
    "zipcode": "6580043",
    "prefectureCode": "28",
    "prefectureNumber": 28,
    "prefecture": "兵庫県",
    "city": "神戸市東灘区",
    "town": "御影浜町"
  },
  "6580044": {
    "zipcode": "6580044",
    "prefectureCode": "28",
    "prefectureNumber": 28,
    "prefecture": "兵庫県",
    "city": "神戸市東灘区",
    "town": "御影塚町"
  },
  "6580045": {
    "zipcode": "6580045",
    "prefectureCode": "28",
    "prefectureNumber": 28,
    "prefecture": "兵庫県",
    "city": "神戸市東灘区",
    "town": "御影石町"
  },
  "6580046": {
    "zipcode": "6580046",
    "prefectureCode": "28",
    "prefectureNumber": 28,
    "prefecture": "兵庫県",
    "city": "神戸市東灘区",
    "town": "御影本町"
  },
  "6580047": {
    "zipcode": "6580047",
    "prefectureCode": "28",
    "prefectureNumber": 28,
    "prefecture": "兵庫県",
    "city": "神戸市東灘区",
    "town": "御影"
  },
  "6580048": {
    "zipcode": "6580048",
    "prefectureCode": "28",
    "prefectureNumber": 28,
    "prefecture": "兵庫県",
    "city": "神戸市東灘区",
    "town": "御影郡家"
  },
  "6580051": {
    "zipcode": "6580051",
    "prefectureCode": "28",
    "prefectureNumber": 28,
    "prefecture": "兵庫県",
    "city": "神戸市東灘区",
    "town": "住吉本町"
  },
  "6580052": {
    "zipcode": "6580052",
    "prefectureCode": "28",
    "prefectureNumber": 28,
    "prefecture": "兵庫県",
    "city": "神戸市東灘区",
    "town": "住吉東町"
  },
  "6580053": {
    "zipcode": "6580053",
    "prefectureCode": "28",
    "prefectureNumber": 28,
    "prefecture": "兵庫県",
    "city": "神戸市東灘区",
    "town": "住吉宮町"
  },
  "6580054": {
    "zipcode": "6580054",
    "prefectureCode": "28",
    "prefectureNumber": 28,
    "prefecture": "兵庫県",
    "city": "神戸市東灘区",
    "town": "御影中町"
  },
  "6580061": {
    "zipcode": "6580061",
    "prefectureCode": "28",
    "prefectureNumber": 28,
    "prefecture": "兵庫県",
    "city": "神戸市東灘区",
    "town": "本山町田中"
  },
  "6580062": {
    "zipcode": "6580062",
    "prefectureCode": "28",
    "prefectureNumber": 28,
    "prefecture": "兵庫県",
    "city": "神戸市東灘区",
    "town": "住吉台"
  },
  "6580063": {
    "zipcode": "6580063",
    "prefectureCode": "28",
    "prefectureNumber": 28,
    "prefecture": "兵庫県",
    "city": "神戸市東灘区",
    "town": "住吉山手"
  },
  "6580064": {
    "zipcode": "6580064",
    "prefectureCode": "28",
    "prefectureNumber": 28,
    "prefecture": "兵庫県",
    "city": "神戸市東灘区",
    "town": "鴨子ケ原"
  },
  "6580065": {
    "zipcode": "6580065",
    "prefectureCode": "28",
    "prefectureNumber": 28,
    "prefecture": "兵庫県",
    "city": "神戸市東灘区",
    "town": "御影山手"
  },
  "6580066": {
    "zipcode": "6580066",
    "prefectureCode": "28",
    "prefectureNumber": 28,
    "prefecture": "兵庫県",
    "city": "神戸市東灘区",
    "town": "渦森台"
  },
  "6580071": {
    "zipcode": "6580071",
    "prefectureCode": "28",
    "prefectureNumber": 28,
    "prefecture": "兵庫県",
    "city": "神戸市東灘区",
    "town": "本山町岡本"
  },
  "6580072": {
    "zipcode": "6580072",
    "prefectureCode": "28",
    "prefectureNumber": 28,
    "prefecture": "兵庫県",
    "city": "神戸市東灘区",
    "town": "岡本"
  },
  "6580073": {
    "zipcode": "6580073",
    "prefectureCode": "28",
    "prefectureNumber": 28,
    "prefecture": "兵庫県",
    "city": "神戸市東灘区",
    "town": "西岡本"
  },
  "6580081": {
    "zipcode": "6580081",
    "prefectureCode": "28",
    "prefectureNumber": 28,
    "prefecture": "兵庫県",
    "city": "神戸市東灘区",
    "town": "田中町"
  },
  "6580082": {
    "zipcode": "6580082",
    "prefectureCode": "28",
    "prefectureNumber": 28,
    "prefecture": "兵庫県",
    "city": "神戸市東灘区",
    "town": "魚崎北町"
  },
  "6580083": {
    "zipcode": "6580083",
    "prefectureCode": "28",
    "prefectureNumber": 28,
    "prefecture": "兵庫県",
    "city": "神戸市東灘区",
    "town": "魚崎中町"
  },
  "6580084": {
    "zipcode": "6580084",
    "prefectureCode": "28",
    "prefectureNumber": 28,
    "prefecture": "兵庫県",
    "city": "神戸市東灘区",
    "town": "甲南町"
  }
}
