{
  "6590000": {
    "zipcode": "6590000",
    "prefectureCode": "28",
    "prefectureNumber": 28,
    "prefecture": "兵庫県",
    "city": "芦屋市",
    "town": "以下に掲載がない場合"
  },
  "6590001": {
    "zipcode": "6590001",
    "prefectureCode": "28",
    "prefectureNumber": 28,
    "prefecture": "兵庫県",
    "city": "芦屋市",
    "town": "剣谷"
  },
  "6590002": {
    "zipcode": "6590002",
    "prefectureCode": "28",
    "prefectureNumber": 28,
    "prefecture": "兵庫県",
    "city": "芦屋市",
    "town": "奥山"
  },
  "6590003": {
    "zipcode": "6590003",
    "prefectureCode": "28",
    "prefectureNumber": 28,
    "prefecture": "兵庫県",
    "city": "芦屋市",
    "town": "奥池町"
  },
  "6590004": {
    "zipcode": "6590004",
    "prefectureCode": "28",
    "prefectureNumber": 28,
    "prefecture": "兵庫県",
    "city": "芦屋市",
    "town": "奥池南町"
  },
  "6590011": {
    "zipcode": "6590011",
    "prefectureCode": "28",
    "prefectureNumber": 28,
    "prefecture": "兵庫県",
    "city": "芦屋市",
    "town": "六麓荘町"
  },
  "6590012": {
    "zipcode": "6590012",
    "prefectureCode": "28",
    "prefectureNumber": 28,
    "prefecture": "兵庫県",
    "city": "芦屋市",
    "town": "朝日ケ丘町"
  },
  "6590013": {
    "zipcode": "6590013",
    "prefectureCode": "28",
    "prefectureNumber": 28,
    "prefecture": "兵庫県",
    "city": "芦屋市",
    "town": "岩園町"
  },
  "6590014": {
    "zipcode": "6590014",
    "prefectureCode": "28",
    "prefectureNumber": 28,
    "prefecture": "兵庫県",
    "city": "芦屋市",
    "town": "翠ケ丘町"
  },
  "6590015": {
    "zipcode": "6590015",
    "prefectureCode": "28",
    "prefectureNumber": 28,
    "prefecture": "兵庫県",
    "city": "芦屋市",
    "town": "楠町"
  },
  "6590016": {
    "zipcode": "6590016",
    "prefectureCode": "28",
    "prefectureNumber": 28,
    "prefecture": "兵庫県",
    "city": "芦屋市",
    "town": "親王塚町"
  },
  "6590021": {
    "zipcode": "6590021",
    "prefectureCode": "28",
    "prefectureNumber": 28,
    "prefecture": "兵庫県",
    "city": "芦屋市",
    "town": "春日町"
  },
  "6590022": {
    "zipcode": "6590022",
    "prefectureCode": "28",
    "prefectureNumber": 28,
    "prefecture": "兵庫県",
    "city": "芦屋市",
    "town": "打出町"
  },
  "6590023": {
    "zipcode": "6590023",
    "prefectureCode": "28",
    "prefectureNumber": 28,
    "prefecture": "兵庫県",
    "city": "芦屋市",
    "town": "大東町"
  },
  "6590024": {
    "zipcode": "6590024",
    "prefectureCode": "28",
    "prefectureNumber": 28,
    "prefecture": "兵庫県",
    "city": "芦屋市",
    "town": "南宮町"
  },
  "6590025": {
    "zipcode": "6590025",
    "prefectureCode": "28",
    "prefectureNumber": 28,
    "prefecture": "兵庫県",
    "city": "芦屋市",
    "town": "浜町"
  },
  "6590026": {
    "zipcode": "6590026",
    "prefectureCode": "28",
    "prefectureNumber": 28,
    "prefecture": "兵庫県",
    "city": "芦屋市",
    "town": "西蔵町"
  },
  "6590027": {
    "zipcode": "6590027",
    "prefectureCode": "28",
    "prefectureNumber": 28,
    "prefecture": "兵庫県",
    "city": "芦屋市",
    "town": "若宮町"
  },
  "6590028": {
    "zipcode": "6590028",
    "prefectureCode": "28",
    "prefectureNumber": 28,
    "prefecture": "兵庫県",
    "city": "芦屋市",
    "town": "打出小槌町"
  },
  "6590031": {
    "zipcode": "6590031",
    "prefectureCode": "28",
    "prefectureNumber": 28,
    "prefecture": "兵庫県",
    "city": "芦屋市",
    "town": "新浜町"
  },
  "6590032": {
    "zipcode": "6590032",
    "prefectureCode": "28",
    "prefectureNumber": 28,
    "prefecture": "兵庫県",
    "city": "芦屋市",
    "town": "浜風町"
  },
  "6590033": {
    "zipcode": "6590033",
    "prefectureCode": "28",
    "prefectureNumber": 28,
    "prefecture": "兵庫県",
    "city": "芦屋市",
    "town": "高浜町"
  },
  "6590034": {
    "zipcode": "6590034",
    "prefectureCode": "28",
    "prefectureNumber": 28,
    "prefecture": "兵庫県",
    "city": "芦屋市",
    "town": "陽光町"
  },
  "6590035": {
    "zipcode": "6590035",
    "prefectureCode": "28",
    "prefectureNumber": 28,
    "prefecture": "兵庫県",
    "city": "芦屋市",
    "town": "海洋町"
  },
  "6590036": {
    "zipcode": "6590036",
    "prefectureCode": "28",
    "prefectureNumber": 28,
    "prefecture": "兵庫県",
    "city": "芦屋市",
    "town": "涼風町"
  },
  "6590037": {
    "zipcode": "6590037",
    "prefectureCode": "28",
    "prefectureNumber": 28,
    "prefecture": "兵庫県",
    "city": "芦屋市",
    "town": "南浜町"
  },
  "6590041": {
    "zipcode": "6590041",
    "prefectureCode": "28",
    "prefectureNumber": 28,
    "prefecture": "兵庫県",
    "city": "芦屋市",
    "town": "若葉町"
  },
  "6590042": {
    "zipcode": "6590042",
    "prefectureCode": "28",
    "prefectureNumber": 28,
    "prefecture": "兵庫県",
    "city": "芦屋市",
    "town": "緑町"
  },
  "6590043": {
    "zipcode": "6590043",
    "prefectureCode": "28",
    "prefectureNumber": 28,
    "prefecture": "兵庫県",
    "city": "芦屋市",
    "town": "潮見町"
  },
  "6590051": {
    "zipcode": "6590051",
    "prefectureCode": "28",
    "prefectureNumber": 28,
    "prefecture": "兵庫県",
    "city": "芦屋市",
    "town": "呉川町"
  },
  "6590052": {
    "zipcode": "6590052",
    "prefectureCode": "28",
    "prefectureNumber": 28,
    "prefecture": "兵庫県",
    "city": "芦屋市",
    "town": "伊勢町"
  },
  "6590053": {
    "zipcode": "6590053",
    "prefectureCode": "28",
    "prefectureNumber": 28,
    "prefecture": "兵庫県",
    "city": "芦屋市",
    "town": "松浜町"
  },
  "6590054": {
    "zipcode": "6590054",
    "prefectureCode": "28",
    "prefectureNumber": 28,
    "prefecture": "兵庫県",
    "city": "芦屋市",
    "town": "浜芦屋町"
  },
  "6590055": {
    "zipcode": "6590055",
    "prefectureCode": "28",
    "prefectureNumber": 28,
    "prefecture": "兵庫県",
    "city": "芦屋市",
    "town": "竹園町"
  },
  "6590061": {
    "zipcode": "6590061",
    "prefectureCode": "28",
    "prefectureNumber": 28,
    "prefecture": "兵庫県",
    "city": "芦屋市",
    "town": "上宮川町"
  },
  "6590062": {
    "zipcode": "6590062",
    "prefectureCode": "28",
    "prefectureNumber": 28,
    "prefecture": "兵庫県",
    "city": "芦屋市",
    "town": "宮塚町"
  },
  "6590063": {
    "zipcode": "6590063",
    "prefectureCode": "28",
    "prefectureNumber": 28,
    "prefecture": "兵庫県",
    "city": "芦屋市",
    "town": "宮川町"
  },
  "6590064": {
    "zipcode": "6590064",
    "prefectureCode": "28",
    "prefectureNumber": 28,
    "prefecture": "兵庫県",
    "city": "芦屋市",
    "town": "精道町"
  },
  "6590065": {
    "zipcode": "6590065",
    "prefectureCode": "28",
    "prefectureNumber": 28,
    "prefecture": "兵庫県",
    "city": "芦屋市",
    "town": "公光町"
  },
  "6590066": {
    "zipcode": "6590066",
    "prefectureCode": "28",
    "prefectureNumber": 28,
    "prefecture": "兵庫県",
    "city": "芦屋市",
    "town": "大桝町"
  },
  "6590067": {
    "zipcode": "6590067",
    "prefectureCode": "28",
    "prefectureNumber": 28,
    "prefecture": "兵庫県",
    "city": "芦屋市",
    "town": "茶屋之町"
  },
  "6590068": {
    "zipcode": "6590068",
    "prefectureCode": "28",
    "prefectureNumber": 28,
    "prefecture": "兵庫県",
    "city": "芦屋市",
    "town": "業平町"
  },
  "6590071": {
    "zipcode": "6590071",
    "prefectureCode": "28",
    "prefectureNumber": 28,
    "prefecture": "兵庫県",
    "city": "芦屋市",
    "town": "前田町"
  },
  "6590072": {
    "zipcode": "6590072",
    "prefectureCode": "28",
    "prefectureNumber": 28,
    "prefecture": "兵庫県",
    "city": "芦屋市",
    "town": "川西町"
  },
  "6590073": {
    "zipcode": "6590073",
    "prefectureCode": "28",
    "prefectureNumber": 28,
    "prefecture": "兵庫県",
    "city": "芦屋市",
    "town": "平田北町"
  },
  "6590074": {
    "zipcode": "6590074",
    "prefectureCode": "28",
    "prefectureNumber": 28,
    "prefecture": "兵庫県",
    "city": "芦屋市",
    "town": "平田町"
  },
  "6590075": {
    "zipcode": "6590075",
    "prefectureCode": "28",
    "prefectureNumber": 28,
    "prefecture": "兵庫県",
    "city": "芦屋市",
    "town": "津知町"
  },
  "6590076": {
    "zipcode": "6590076",
    "prefectureCode": "28",
    "prefectureNumber": 28,
    "prefecture": "兵庫県",
    "city": "芦屋市",
    "town": "清水町"
  },
  "6590081": {
    "zipcode": "6590081",
    "prefectureCode": "28",
    "prefectureNumber": 28,
    "prefecture": "兵庫県",
    "city": "芦屋市",
    "town": "城山"
  },
  "6590082": {
    "zipcode": "6590082",
    "prefectureCode": "28",
    "prefectureNumber": 28,
    "prefecture": "兵庫県",
    "city": "芦屋市",
    "town": "山芦屋町"
  },
  "6590083": {
    "zipcode": "6590083",
    "prefectureCode": "28",
    "prefectureNumber": 28,
    "prefecture": "兵庫県",
    "city": "芦屋市",
    "town": "西山町"
  },
  "6590084": {
    "zipcode": "6590084",
    "prefectureCode": "28",
    "prefectureNumber": 28,
    "prefecture": "兵庫県",
    "city": "芦屋市",
    "town": "月若町"
  },
  "6590085": {
    "zipcode": "6590085",
    "prefectureCode": "28",
    "prefectureNumber": 28,
    "prefecture": "兵庫県",
    "city": "芦屋市",
    "town": "西芦屋町"
  },
  "6590086": {
    "zipcode": "6590086",
    "prefectureCode": "28",
    "prefectureNumber": 28,
    "prefecture": "兵庫県",
    "city": "芦屋市",
    "town": "三条南町"
  },
  "6590087": {
    "zipcode": "6590087",
    "prefectureCode": "28",
    "prefectureNumber": 28,
    "prefecture": "兵庫県",
    "city": "芦屋市",
    "town": "三条町"
  },
  "6590091": {
    "zipcode": "6590091",
    "prefectureCode": "28",
    "prefectureNumber": 28,
    "prefecture": "兵庫県",
    "city": "芦屋市",
    "town": "東山町"
  },
  "6590092": {
    "zipcode": "6590092",
    "prefectureCode": "28",
    "prefectureNumber": 28,
    "prefecture": "兵庫県",
    "city": "芦屋市",
    "town": "大原町"
  },
  "6590093": {
    "zipcode": "6590093",
    "prefectureCode": "28",
    "prefectureNumber": 28,
    "prefecture": "兵庫県",
    "city": "芦屋市",
    "town": "船戸町"
  },
  "6590094": {
    "zipcode": "6590094",
    "prefectureCode": "28",
    "prefectureNumber": 28,
    "prefecture": "兵庫県",
    "city": "芦屋市",
    "town": "松ノ内町"
  },
  "6590095": {
    "zipcode": "6590095",
    "prefectureCode": "28",
    "prefectureNumber": 28,
    "prefecture": "兵庫県",
    "city": "芦屋市",
    "town": "東芦屋町"
  },
  "6590096": {
    "zipcode": "6590096",
    "prefectureCode": "28",
    "prefectureNumber": 28,
    "prefecture": "兵庫県",
    "city": "芦屋市",
    "town": "山手町"
  }
}
