{
  "6620000": {
    "zipcode": "6620000",
    "prefectureCode": "28",
    "prefectureNumber": 28,
    "prefecture": "兵庫県",
    "city": "西宮市",
    "town": "以下に掲載がない場合"
  },
  "6620001": {
    "zipcode": "6620001",
    "prefectureCode": "28",
    "prefectureNumber": 28,
    "prefecture": "兵庫県",
    "city": "西宮市",
    "town": "甲山町"
  },
  "6620002": {
    "zipcode": "6620002",
    "prefectureCode": "28",
    "prefectureNumber": 28,
    "prefecture": "兵庫県",
    "city": "西宮市",
    "town": "鷲林寺南町"
  },
  "6620003": {
    "zipcode": "6620003",
    "prefectureCode": "28",
    "prefectureNumber": 28,
    "prefecture": "兵庫県",
    "city": "西宮市",
    "town": "鷲林寺町"
  },
  "6620004": {
    "zipcode": "6620004",
    "prefectureCode": "28",
    "prefectureNumber": 28,
    "prefecture": "兵庫県",
    "city": "西宮市",
    "town": "鷲林寺"
  },
  "6620005": {
    "zipcode": "6620005",
    "prefectureCode": "28",
    "prefectureNumber": 28,
    "prefecture": "兵庫県",
    "city": "西宮市",
    "town": "湯元町"
  },
  "6620006": {
    "zipcode": "6620006",
    "prefectureCode": "28",
    "prefectureNumber": 28,
    "prefecture": "兵庫県",
    "city": "西宮市",
    "town": "越水社家郷山"
  },
  "6620011": {
    "zipcode": "6620011",
    "prefectureCode": "28",
    "prefectureNumber": 28,
    "prefecture": "兵庫県",
    "city": "西宮市",
    "town": "甲陽園目神山町"
  },
  "6620012": {
    "zipcode": "6620012",
    "prefectureCode": "28",
    "prefectureNumber": 28,
    "prefecture": "兵庫県",
    "city": "西宮市",
    "town": "甲陽園東山町"
  },
  "6620013": {
    "zipcode": "6620013",
    "prefectureCode": "28",
    "prefectureNumber": 28,
    "prefecture": "兵庫県",
    "city": "西宮市",
    "town": "新甲陽町"
  },
  "6620014": {
    "zipcode": "6620014",
    "prefectureCode": "28",
    "prefectureNumber": 28,
    "prefecture": "兵庫県",
    "city": "西宮市",
    "town": "甲陽園日之出町"
  },
  "6620015": {
    "zipcode": "6620015",
    "prefectureCode": "28",
    "prefectureNumber": 28,
    "prefecture": "兵庫県",
    "city": "西宮市",
    "town": "甲陽園本庄町"
  },
  "6620016": {
    "zipcode": "6620016",
    "prefectureCode": "28",
    "prefectureNumber": 28,
    "prefecture": "兵庫県",
    "city": "西宮市",
    "town": "甲陽園若江町"
  },
  "6620017": {
    "zipcode": "6620017",
    "prefectureCode": "28",
    "prefectureNumber": 28,
    "prefecture": "兵庫県",
    "city": "西宮市",
    "town": "甲陽園西山町"
  },
  "6620018": {
    "zipcode": "6620018",
    "prefectureCode": "28",
    "prefectureNumber": 28,
    "prefecture": "兵庫県",
    "city": "西宮市",
    "town": "甲陽園山王町"
  },
  "6620021": {
    "zipcode": "6620021",
    "prefectureCode": "28",
    "prefectureNumber": 28,
    "prefecture": "兵庫県",
    "city": "西宮市",
    "town": "神原"
  },
  "6620022": {
    "zipcode": "6620022",
    "prefectureCode": "28",
    "prefectureNumber": 28,
    "prefecture": "兵庫県",
    "city": "西宮市",
    "town": "奥畑"
  },
  "6620023": {
    "zipcode": "6620023",
    "prefectureCode": "28",
    "prefectureNumber": 28,
    "prefecture": "兵庫県",
    "city": "西宮市",
    "town": "城山"
  },
  "6620024": {
    "zipcode": "6620024",
    "prefectureCode": "28",
    "prefectureNumber": 28,
    "prefecture": "兵庫県",
    "city": "西宮市",
    "town": "名次町"
  },
  "6620025": {
    "zipcode": "6620025",
    "prefectureCode": "28",
    "prefectureNumber": 28,
    "prefecture": "兵庫県",
    "city": "西宮市",
    "town": "北名次町"
  },
  "6620026": {
    "zipcode": "6620026",
    "prefectureCode": "28",
    "prefectureNumber": 28,
    "prefecture": "兵庫県",
    "city": "西宮市",
    "town": "獅子ケ口町"
  },
  "6620027": {
    "zipcode": "6620027",
    "prefectureCode": "28",
    "prefectureNumber": 28,
    "prefecture": "兵庫県",
    "city": "西宮市",
    "town": "神園町"
  },
  "6620031": {
    "zipcode": "6620031",
    "prefectureCode": "28",
    "prefectureNumber": 28,
    "prefecture": "兵庫県",
    "city": "西宮市",
    "town": "満池谷町"
  },
  "6620032": {
    "zipcode": "6620032",
    "prefectureCode": "28",
    "prefectureNumber": 28,
    "prefecture": "兵庫県",
    "city": "西宮市",
    "town": "桜谷町"
  },
  "6620033": {
    "zipcode": "6620033",
    "prefectureCode": "28",
    "prefectureNumber": 28,
    "prefecture": "兵庫県",
    "city": "西宮市",
    "town": "清水町"
  },
  "6620034": {
    "zipcode": "6620034",
    "prefectureCode": "28",
    "prefectureNumber": 28,
    "prefecture": "兵庫県",
    "city": "西宮市",
    "town": "西田町"
  },
  "6620035": {
    "zipcode": "6620035",
    "prefectureCode": "28",
    "prefectureNumber": 28,
    "prefecture": "兵庫県",
    "city": "西宮市",
    "town": "若松町"
  },
  "6620036": {
    "zipcode": "6620036",
    "prefectureCode": "28",
    "prefectureNumber": 28,
    "prefecture": "兵庫県",
    "city": "西宮市",
    "town": "大井手町"
  },
  "6620037": {
    "zipcode": "6620037",
    "prefectureCode": "28",
    "prefectureNumber": 28,
    "prefecture": "兵庫県",
    "city": "西宮市",
    "town": "結善町"
  },
  "6620038": {
    "zipcode": "6620038",
    "prefectureCode": "28",
    "prefectureNumber": 28,
    "prefecture": "兵庫県",
    "city": "西宮市",
    "town": "南郷町"
  },
  "6620041": {
    "zipcode": "6620041",
    "prefectureCode": "28",
    "prefectureNumber": 28,
    "prefecture": "兵庫県",
    "city": "西宮市",
    "town": "末広町"
  },
  "6620042": {
    "zipcode": "6620042",
    "prefectureCode": "28",
    "prefectureNumber": 28,
    "prefecture": "兵庫県",
    "city": "西宮市",
    "town": "分銅町"
  },
  "6620043": {
    "zipcode": "6620043",
    "prefectureCode": "28",
    "prefectureNumber": 28,
    "prefecture": "兵庫県",
    "city": "西宮市",
    "town": "常磐町"
  },
  "6620044": {
    "zipcode": "6620044",
    "prefectureCode": "28",
    "prefectureNumber": 28,
    "prefecture": "兵庫県",
    "city": "西宮市",
    "town": "平松町"
  },
  "6620045": {
    "zipcode": "6620045",
    "prefectureCode": "28",
    "prefectureNumber": 28,
    "prefecture": "兵庫県",
    "city": "西宮市",
    "town": "安井町"
  },
  "6620046": {
    "zipcode": "6620046",
    "prefectureCode": "28",
    "prefectureNumber": 28,
    "prefecture": "兵庫県",
    "city": "西宮市",
    "town": "千歳町"
  },
  "6620047": {
    "zipcode": "6620047",
    "prefectureCode": "28",
    "prefectureNumber": 28,
    "prefecture": "兵庫県",
    "city": "西宮市",
    "town": "寿町"
  },
  "6620051": {
    "zipcode": "6620051",
    "prefectureCode": "28",
    "prefectureNumber": 28,
    "prefecture": "兵庫県",
    "city": "西宮市",
    "town": "羽衣町"
  },
  "6620052": {
    "zipcode": "6620052",
    "prefectureCode": "28",
    "prefectureNumber": 28,
    "prefecture": "兵庫県",
    "city": "西宮市",
    "town": "霞町"
  },
  "6620053": {
    "zipcode": "6620053",
    "prefectureCode": "28",
    "prefectureNumber": 28,
    "prefecture": "兵庫県",
    "city": "西宮市",
    "town": "松園町"
  },
  "6620054": {
    "zipcode": "6620054",
    "prefectureCode": "28",
    "prefectureNumber": 28,
    "prefecture": "兵庫県",
    "city": "西宮市",
    "town": "大谷町"
  },
  "6620061": {
    "zipcode": "6620061",
    "prefectureCode": "28",
    "prefectureNumber": 28,
    "prefecture": "兵庫県",
    "city": "西宮市",
    "town": "松ケ丘町"
  },
  "6620062": {
    "zipcode": "6620062",
    "prefectureCode": "28",
    "prefectureNumber": 28,
    "prefecture": "兵庫県",
    "city": "西宮市",
    "town": "木津山町"
  },
  "6620063": {
    "zipcode": "6620063",
    "prefectureCode": "28",
    "prefectureNumber": 28,
    "prefecture": "兵庫県",
    "city": "西宮市",
    "town": "相生町"
  },
  "6620064": {
    "zipcode": "6620064",
    "prefectureCode": "28",
    "prefectureNumber": 28,
    "prefecture": "兵庫県",
    "city": "西宮市",
    "town": "雲井町"
  },
  "6620065": {
    "zipcode": "6620065",
    "prefectureCode": "28",
    "prefectureNumber": 28,
    "prefecture": "兵庫県",
    "city": "西宮市",
    "town": "殿山町"
  },
  "6620066": {
    "zipcode": "6620066",
    "prefectureCode": "28",
    "prefectureNumber": 28,
    "prefecture": "兵庫県",
    "city": "西宮市",
    "town": "高塚町"
  },
  "6620067": {
    "zipcode": "6620067",
    "prefectureCode": "28",
    "prefectureNumber": 28,
    "prefecture": "兵庫県",
    "city": "西宮市",
    "town": "深谷町"
  },
  "6620071": {
    "zipcode": "6620071",
    "prefectureCode": "28",
    "prefectureNumber": 28,
    "prefecture": "兵庫県",
    "city": "西宮市",
    "town": "桜町"
  },
  "6620072": {
    "zipcode": "6620072",
    "prefectureCode": "28",
    "prefectureNumber": 28,
    "prefecture": "兵庫県",
    "city": "西宮市",
    "town": "豊楽町"
  },
  "6620073": {
    "zipcode": "6620073",
    "prefectureCode": "28",
    "prefectureNumber": 28,
    "prefecture": "兵庫県",
    "city": "西宮市",
    "town": "松風町"
  },
  "6620074": {
    "zipcode": "6620074",
    "prefectureCode": "28",
    "prefectureNumber": 28,
    "prefecture": "兵庫県",
    "city": "西宮市",
    "town": "石刎町"
  },
  "6620075": {
    "zipcode": "6620075",
    "prefectureCode": "28",
    "prefectureNumber": 28,
    "prefecture": "兵庫県",
    "city": "西宮市",
    "town": "南越木岩町"
  },
  "6620076": {
    "zipcode": "6620076",
    "prefectureCode": "28",
    "prefectureNumber": 28,
    "prefecture": "兵庫県",
    "city": "西宮市",
    "town": "松生町"
  },
  "6620077": {
    "zipcode": "6620077",
    "prefectureCode": "28",
    "prefectureNumber": 28,
    "prefecture": "兵庫県",
    "city": "西宮市",
    "town": "久出ケ谷町"
  },
  "6620078": {
    "zipcode": "6620078",
    "prefectureCode": "28",
    "prefectureNumber": 28,
    "prefecture": "兵庫県",
    "city": "西宮市",
    "town": "菊谷町"
  },
  "6620081": {
    "zipcode": "6620081",
    "prefectureCode": "28",
    "prefectureNumber": 28,
    "prefecture": "兵庫県",
    "city": "西宮市",
    "town": "苦楽園三番町"
  },
  "6620082": {
    "zipcode": "6620082",
    "prefectureCode": "28",
    "prefectureNumber": 28,
    "prefecture": "兵庫県",
    "city": "西宮市",
    "town": "苦楽園二番町"
  },
  "6620083": {
    "zipcode": "6620083",
    "prefectureCode": "28",
    "prefectureNumber": 28,
    "prefecture": "兵庫県",
    "city": "西宮市",
    "town": "苦楽園一番町"
  },
  "6620084": {
    "zipcode": "6620084",
    "prefectureCode": "28",
    "prefectureNumber": 28,
    "prefecture": "兵庫県",
    "city": "西宮市",
    "town": "樋之池町"
  },
  "6620085": {
    "zipcode": "6620085",
    "prefectureCode": "28",
    "prefectureNumber": 28,
    "prefecture": "兵庫県",
    "city": "西宮市",
    "town": "老松町"
  },
  "6620086": {
    "zipcode": "6620086",
    "prefectureCode": "28",
    "prefectureNumber": 28,
    "prefecture": "兵庫県",
    "city": "西宮市",
    "town": "苦楽園六番町"
  },
  "6620087": {
    "zipcode": "6620087",
    "prefectureCode": "28",
    "prefectureNumber": 28,
    "prefecture": "兵庫県",
    "city": "西宮市",
    "town": "苦楽園五番町"
  },
  "6620088": {
    "zipcode": "6620088",
    "prefectureCode": "28",
    "prefectureNumber": 28,
    "prefecture": "兵庫県",
    "city": "西宮市",
    "town": "苦楽園四番町"
  },
  "6620091": {
    "zipcode": "6620091",
    "prefectureCode": "28",
    "prefectureNumber": 28,
    "prefecture": "兵庫県",
    "city": "西宮市",
    "town": "北山町"
  },
  "6620092": {
    "zipcode": "6620092",
    "prefectureCode": "28",
    "prefectureNumber": 28,
    "prefecture": "兵庫県",
    "city": "西宮市",
    "town": "甑岩町"
  },
  "6620093": {
    "zipcode": "6620093",
    "prefectureCode": "28",
    "prefectureNumber": 28,
    "prefecture": "兵庫県",
    "city": "西宮市",
    "town": "西平町"
  },
  "6620094": {
    "zipcode": "6620094",
    "prefectureCode": "28",
    "prefectureNumber": 28,
    "prefecture": "兵庫県",
    "city": "西宮市",
    "town": "毘沙門町"
  },
  "6620095": {
    "zipcode": "6620095",
    "prefectureCode": "28",
    "prefectureNumber": 28,
    "prefecture": "兵庫県",
    "city": "西宮市",
    "town": "美作町"
  },
  "6620096": {
    "zipcode": "6620096",
    "prefectureCode": "28",
    "prefectureNumber": 28,
    "prefecture": "兵庫県",
    "city": "西宮市",
    "town": "角石町"
  },
  "6620097": {
    "zipcode": "6620097",
    "prefectureCode": "28",
    "prefectureNumber": 28,
    "prefecture": "兵庫県",
    "city": "西宮市",
    "town": "柏堂町"
  },
  "6620098": {
    "zipcode": "6620098",
    "prefectureCode": "28",
    "prefectureNumber": 28,
    "prefecture": "兵庫県",
    "city": "西宮市",
    "town": "柏堂西町"
  },
  "6620099": {
    "zipcode": "6620099",
    "prefectureCode": "28",
    "prefectureNumber": 28,
    "prefecture": "兵庫県",
    "city": "西宮市",
    "town": "剣谷町"
  },
  "6620811": {
    "zipcode": "6620811",
    "prefectureCode": "28",
    "prefectureNumber": 28,
    "prefecture": "兵庫県",
    "city": "西宮市",
    "town": "仁川町"
  },
  "6620812": {
    "zipcode": "6620812",
    "prefectureCode": "28",
    "prefectureNumber": 28,
    "prefecture": "兵庫県",
    "city": "西宮市",
    "town": "甲東園"
  },
  "6620813": {
    "zipcode": "6620813",
    "prefectureCode": "28",
    "prefectureNumber": 28,
    "prefecture": "兵庫県",
    "city": "西宮市",
    "town": "上甲東園"
  },
  "6620814": {
    "zipcode": "6620814",
    "prefectureCode": "28",
    "prefectureNumber": 28,
    "prefecture": "兵庫県",
    "city": "西宮市",
    "town": "仁川五ケ山町"
  },
  "6620815": {
    "zipcode": "6620815",
    "prefectureCode": "28",
    "prefectureNumber": 28,
    "prefecture": "兵庫県",
    "city": "西宮市",
    "town": "仁川百合野町"
  },
  "6620822": {
    "zipcode": "6620822",
    "prefectureCode": "28",
    "prefectureNumber": 28,
    "prefecture": "兵庫県",
    "city": "西宮市",
    "town": "松籟荘"
  },
  "6620823": {
    "zipcode": "6620823",
    "prefectureCode": "28",
    "prefectureNumber": 28,
    "prefecture": "兵庫県",
    "city": "西宮市",
    "town": "神呪町"
  },
  "6620824": {
    "zipcode": "6620824",
    "prefectureCode": "28",
    "prefectureNumber": 28,
    "prefecture": "兵庫県",
    "city": "西宮市",
    "town": "門戸東町"
  },
  "6620825": {
    "zipcode": "6620825",
    "prefectureCode": "28",
    "prefectureNumber": 28,
    "prefecture": "兵庫県",
    "city": "西宮市",
    "town": "門戸荘"
  },
  "6620826": {
    "zipcode": "6620826",
    "prefectureCode": "28",
    "prefectureNumber": 28,
    "prefecture": "兵庫県",
    "city": "西宮市",
    "town": "門戸岡田町"
  },
  "6620827": {
    "zipcode": "6620827",
    "prefectureCode": "28",
    "prefectureNumber": 28,
    "prefecture": "兵庫県",
    "city": "西宮市",
    "town": "岡田山"
  },
  "6620828": {
    "zipcode": "6620828",
    "prefectureCode": "28",
    "prefectureNumber": 28,
    "prefecture": "兵庫県",
    "city": "西宮市",
    "town": "門戸西町"
  },
  "6620831": {
    "zipcode": "6620831",
    "prefectureCode": "28",
    "prefectureNumber": 28,
    "prefecture": "兵庫県",
    "city": "西宮市",
    "town": "丸橋町"
  },
  "6620832": {
    "zipcode": "6620832",
    "prefectureCode": "28",
    "prefectureNumber": 28,
    "prefecture": "兵庫県",
    "city": "西宮市",
    "town": "甲風園"
  },
  "6620833": {
    "zipcode": "6620833",
    "prefectureCode": "28",
    "prefectureNumber": 28,
    "prefecture": "兵庫県",
    "city": "西宮市",
    "town": "北昭和町"
  },
  "6620834": {
    "zipcode": "6620834",
    "prefectureCode": "28",
    "prefectureNumber": 28,
    "prefecture": "兵庫県",
    "city": "西宮市",
    "town": "南昭和町"
  },
  "6620835": {
    "zipcode": "6620835",
    "prefectureCode": "28",
    "prefectureNumber": 28,
    "prefecture": "兵庫県",
    "city": "西宮市",
    "town": "平木町"
  },
  "6620836": {
    "zipcode": "6620836",
    "prefectureCode": "28",
    "prefectureNumber": 28,
    "prefecture": "兵庫県",
    "city": "西宮市",
    "town": "大畑町"
  },
  "6620837": {
    "zipcode": "6620837",
    "prefectureCode": "28",
    "prefectureNumber": 28,
    "prefecture": "兵庫県",
    "city": "西宮市",
    "town": "広田町"
  },
  "6620838": {
    "zipcode": "6620838",
    "prefectureCode": "28",
    "prefectureNumber": 28,
    "prefecture": "兵庫県",
    "city": "西宮市",
    "town": "能登町"
  },
  "6620841": {
    "zipcode": "6620841",
    "prefectureCode": "28",
    "prefectureNumber": 28,
    "prefecture": "兵庫県",
    "city": "西宮市",
    "town": "両度町"
  },
  "6620842": {
    "zipcode": "6620842",
    "prefectureCode": "28",
    "prefectureNumber": 28,
    "prefecture": "兵庫県",
    "city": "西宮市",
    "town": "芦原町"
  },
  "6620843": {
    "zipcode": "6620843",
    "prefectureCode": "28",
    "prefectureNumber": 28,
    "prefecture": "兵庫県",
    "city": "西宮市",
    "town": "神祇官町"
  },
  "6620844": {
    "zipcode": "6620844",
    "prefectureCode": "28",
    "prefectureNumber": 28,
    "prefecture": "兵庫県",
    "city": "西宮市",
    "town": "西福町"
  },
  "6620845": {
    "zipcode": "6620845",
    "prefectureCode": "28",
    "prefectureNumber": 28,
    "prefecture": "兵庫県",
    "city": "西宮市",
    "town": "神明町"
  },
  "6620846": {
    "zipcode": "6620846",
    "prefectureCode": "28",
    "prefectureNumber": 28,
    "prefecture": "兵庫県",
    "city": "西宮市",
    "town": "森下町"
  },
  "6620851": {
    "zipcode": "6620851",
    "prefectureCode": "28",
    "prefectureNumber": 28,
    "prefecture": "兵庫県",
    "city": "西宮市",
    "town": "中須佐町"
  },
  "6620852": {
    "zipcode": "6620852",
    "prefectureCode": "28",
    "prefectureNumber": 28,
    "prefecture": "兵庫県",
    "city": "西宮市",
    "town": "中殿町"
  },
  "6620853": {
    "zipcode": "6620853",
    "prefectureCode": "28",
    "prefectureNumber": 28,
    "prefecture": "兵庫県",
    "city": "西宮市",
    "town": "津田町"
  },
  "6620854": {
    "zipcode": "6620854",
    "prefectureCode": "28",
    "prefectureNumber": 28,
    "prefecture": "兵庫県",
    "city": "西宮市",
    "town": "櫨塚町"
  },
  "6620855": {
    "zipcode": "6620855",
    "prefectureCode": "28",
    "prefectureNumber": 28,
    "prefecture": "兵庫県",
    "city": "西宮市",
    "town": "江上町"
  },
  "6620856": {
    "zipcode": "6620856",
    "prefectureCode": "28",
    "prefectureNumber": 28,
    "prefecture": "兵庫県",
    "city": "西宮市",
    "town": "城ケ堀町"
  },
  "6620857": {
    "zipcode": "6620857",
    "prefectureCode": "28",
    "prefectureNumber": 28,
    "prefecture": "兵庫県",
    "city": "西宮市",
    "town": "中前田町"
  },
  "6620861": {
    "zipcode": "6620861",
    "prefectureCode": "28",
    "prefectureNumber": 28,
    "prefecture": "兵庫県",
    "city": "西宮市",
    "town": "河原町"
  },
  "6620862": {
    "zipcode": "6620862",
    "prefectureCode": "28",
    "prefectureNumber": 28,
    "prefecture": "兵庫県",
    "city": "西宮市",
    "town": "青木町"
  },
  "6620863": {
    "zipcode": "6620863",
    "prefectureCode": "28",
    "prefectureNumber": 28,
    "prefecture": "兵庫県",
    "city": "西宮市",
    "town": "室川町"
  },
  "6620864": {
    "zipcode": "6620864",
    "prefectureCode": "28",
    "prefectureNumber": 28,
    "prefecture": "兵庫県",
    "city": "西宮市",
    "town": "越水町"
  },
  "6620865": {
    "zipcode": "6620865",
    "prefectureCode": "28",
    "prefectureNumber": 28,
    "prefecture": "兵庫県",
    "city": "西宮市",
    "town": "神垣町"
  },
  "6620866": {
    "zipcode": "6620866",
    "prefectureCode": "28",
    "prefectureNumber": 28,
    "prefecture": "兵庫県",
    "city": "西宮市",
    "town": "柳本町"
  },
  "6620867": {
    "zipcode": "6620867",
    "prefectureCode": "28",
    "prefectureNumber": 28,
    "prefecture": "兵庫県",
    "city": "西宮市",
    "town": "大社町"
  },
  "6620868": {
    "zipcode": "6620868",
    "prefectureCode": "28",
    "prefectureNumber": 28,
    "prefecture": "兵庫県",
    "city": "西宮市",
    "town": "中屋町"
  },
  "6620871": {
    "zipcode": "6620871",
    "prefectureCode": "28",
    "prefectureNumber": 28,
    "prefecture": "兵庫県",
    "city": "西宮市",
    "town": "愛宕山"
  },
  "6620872": {
    "zipcode": "6620872",
    "prefectureCode": "28",
    "prefectureNumber": 28,
    "prefecture": "兵庫県",
    "city": "西宮市",
    "town": "高座町"
  },
  "6620873": {
    "zipcode": "6620873",
    "prefectureCode": "28",
    "prefectureNumber": 28,
    "prefecture": "兵庫県",
    "city": "西宮市",
    "town": "一ケ谷町"
  },
  "6620874": {
    "zipcode": "6620874",
    "prefectureCode": "28",
    "prefectureNumber": 28,
    "prefecture": "兵庫県",
    "city": "西宮市",
    "town": "六軒町"
  },
  "6620875": {
    "zipcode": "6620875",
    "prefectureCode": "28",
    "prefectureNumber": 28,
    "prefecture": "兵庫県",
    "city": "西宮市",
    "town": "五月ケ丘"
  },
  "6620881": {
    "zipcode": "6620881",
    "prefectureCode": "28",
    "prefectureNumber": 28,
    "prefecture": "兵庫県",
    "city": "西宮市",
    "town": "上ケ原七番町"
  },
  "6620882": {
    "zipcode": "6620882",
    "prefectureCode": "28",
    "prefectureNumber": 28,
    "prefecture": "兵庫県",
    "city": "西宮市",
    "town": "上ケ原八番町"
  },
  "6620883": {
    "zipcode": "6620883",
    "prefectureCode": "28",
    "prefectureNumber": 28,
    "prefecture": "兵庫県",
    "city": "西宮市",
    "town": "上ケ原九番町"
  },
  "6620884": {
    "zipcode": "6620884",
    "prefectureCode": "28",
    "prefectureNumber": 28,
    "prefecture": "兵庫県",
    "city": "西宮市",
    "town": "上ケ原十番町"
  },
  "6620885": {
    "zipcode": "6620885",
    "prefectureCode": "28",
    "prefectureNumber": 28,
    "prefecture": "兵庫県",
    "city": "西宮市",
    "town": "上ケ原山手町"
  },
  "6620886": {
    "zipcode": "6620886",
    "prefectureCode": "28",
    "prefectureNumber": 28,
    "prefecture": "兵庫県",
    "city": "西宮市",
    "town": "上ケ原山田町"
  },
  "6620891": {
    "zipcode": "6620891",
    "prefectureCode": "28",
    "prefectureNumber": 28,
    "prefecture": "兵庫県",
    "city": "西宮市",
    "town": "上ケ原一番町"
  },
  "6620892": {
    "zipcode": "6620892",
    "prefectureCode": "28",
    "prefectureNumber": 28,
    "prefecture": "兵庫県",
    "city": "西宮市",
    "town": "上ケ原二番町"
  },
  "6620893": {
    "zipcode": "6620893",
    "prefectureCode": "28",
    "prefectureNumber": 28,
    "prefecture": "兵庫県",
    "city": "西宮市",
    "town": "上ケ原三番町"
  },
  "6620894": {
    "zipcode": "6620894",
    "prefectureCode": "28",
    "prefectureNumber": 28,
    "prefecture": "兵庫県",
    "city": "西宮市",
    "town": "上ケ原四番町"
  },
  "6620895": {
    "zipcode": "6620895",
    "prefectureCode": "28",
    "prefectureNumber": 28,
    "prefecture": "兵庫県",
    "city": "西宮市",
    "town": "上ケ原五番町"
  },
  "6620896": {
    "zipcode": "6620896",
    "prefectureCode": "28",
    "prefectureNumber": 28,
    "prefecture": "兵庫県",
    "city": "西宮市",
    "town": "上ケ原六番町"
  },
  "6620911": {
    "zipcode": "6620911",
    "prefectureCode": "28",
    "prefectureNumber": 28,
    "prefecture": "兵庫県",
    "city": "西宮市",
    "town": "池田町"
  },
  "6620912": {
    "zipcode": "6620912",
    "prefectureCode": "28",
    "prefectureNumber": 28,
    "prefecture": "兵庫県",
    "city": "西宮市",
    "town": "松原町"
  },
  "6620913": {
    "zipcode": "6620913",
    "prefectureCode": "28",
    "prefectureNumber": 28,
    "prefecture": "兵庫県",
    "city": "西宮市",
    "town": "染殿町"
  },
  "6620914": {
    "zipcode": "6620914",
    "prefectureCode": "28",
    "prefectureNumber": 28,
    "prefecture": "兵庫県",
    "city": "西宮市",
    "town": "本町"
  },
  "6620915": {
    "zipcode": "6620915",
    "prefectureCode": "28",
    "prefectureNumber": 28,
    "prefecture": "兵庫県",
    "city": "西宮市",
    "town": "馬場町"
  },
  "6620916": {
    "zipcode": "6620916",
    "prefectureCode": "28",
    "prefectureNumber": 28,
    "prefecture": "兵庫県",
    "city": "西宮市",
    "town": "戸田町"
  },
  "6620917": {
    "zipcode": "6620917",
    "prefectureCode": "28",
    "prefectureNumber": 28,
    "prefecture": "兵庫県",
    "city": "西宮市",
    "town": "与古道町"
  },
  "6620918": {
    "zipcode": "6620918",
    "prefectureCode": "28",
    "prefectureNumber": 28,
    "prefecture": "兵庫県",
    "city": "西宮市",
    "town": "六湛寺町"
  },
  "6620921": {
    "zipcode": "6620921",
    "prefectureCode": "28",
    "prefectureNumber": 28,
    "prefecture": "兵庫県",
    "city": "西宮市",
    "town": "用海町"
  },
  "6620922": {
    "zipcode": "6620922",
    "prefectureCode": "28",
    "prefectureNumber": 28,
    "prefecture": "兵庫県",
    "city": "西宮市",
    "town": "東町"
  },
  "6620923": {
    "zipcode": "6620923",
    "prefectureCode": "28",
    "prefectureNumber": 28,
    "prefecture": "兵庫県",
    "city": "西宮市",
    "town": "浜松原町"
  },
  "6620924": {
    "zipcode": "6620924",
    "prefectureCode": "28",
    "prefectureNumber": 28,
    "prefecture": "兵庫県",
    "city": "西宮市",
    "town": "東浜町"
  },
  "6620925": {
    "zipcode": "6620925",
    "prefectureCode": "28",
    "prefectureNumber": 28,
    "prefecture": "兵庫県",
    "city": "西宮市",
    "town": "朝凪町"
  },
  "6620926": {
    "zipcode": "6620926",
    "prefectureCode": "28",
    "prefectureNumber": 28,
    "prefecture": "兵庫県",
    "city": "西宮市",
    "town": "鞍掛町"
  },
  "6620927": {
    "zipcode": "6620927",
    "prefectureCode": "28",
    "prefectureNumber": 28,
    "prefecture": "兵庫県",
    "city": "西宮市",
    "town": "久保町"
  },
  "6620928": {
    "zipcode": "6620928",
    "prefectureCode": "28",
    "prefectureNumber": 28,
    "prefecture": "兵庫県",
    "city": "西宮市",
    "town": "石在町"
  },
  "6620931": {
    "zipcode": "6620931",
    "prefectureCode": "28",
    "prefectureNumber": 28,
    "prefecture": "兵庫県",
    "city": "西宮市",
    "town": "前浜町"
  },
  "6620932": {
    "zipcode": "6620932",
    "prefectureCode": "28",
    "prefectureNumber": 28,
    "prefecture": "兵庫県",
    "city": "西宮市",
    "town": "泉町"
  },
  "6620933": {
    "zipcode": "6620933",
    "prefectureCode": "28",
    "prefectureNumber": 28,
    "prefecture": "兵庫県",
    "city": "西宮市",
    "town": "西波止町"
  },
  "6620934": {
    "zipcode": "6620934",
    "prefectureCode": "28",
    "prefectureNumber": 28,
    "prefecture": "兵庫県",
    "city": "西宮市",
    "town": "西宮浜"
  },
  "6620941": {
    "zipcode": "6620941",
    "prefectureCode": "28",
    "prefectureNumber": 28,
    "prefecture": "兵庫県",
    "city": "西宮市",
    "town": "浜脇町"
  },
  "6620942": {
    "zipcode": "6620942",
    "prefectureCode": "28",
    "prefectureNumber": 28,
    "prefecture": "兵庫県",
    "city": "西宮市",
    "town": "浜町"
  },
  "6620943": {
    "zipcode": "6620943",
    "prefectureCode": "28",
    "prefectureNumber": 28,
    "prefecture": "兵庫県",
    "city": "西宮市",
    "town": "建石町"
  },
  "6620944": {
    "zipcode": "6620944",
    "prefectureCode": "28",
    "prefectureNumber": 28,
    "prefecture": "兵庫県",
    "city": "西宮市",
    "town": "川添町"
  },
  "6620945": {
    "zipcode": "6620945",
    "prefectureCode": "28",
    "prefectureNumber": 28,
    "prefecture": "兵庫県",
    "city": "西宮市",
    "town": "川東町"
  },
  "6620946": {
    "zipcode": "6620946",
    "prefectureCode": "28",
    "prefectureNumber": 28,
    "prefecture": "兵庫県",
    "city": "西宮市",
    "town": "荒戎町"
  },
  "6620947": {
    "zipcode": "6620947",
    "prefectureCode": "28",
    "prefectureNumber": 28,
    "prefecture": "兵庫県",
    "city": "西宮市",
    "town": "宮前町"
  },
  "6620951": {
    "zipcode": "6620951",
    "prefectureCode": "28",
    "prefectureNumber": 28,
    "prefecture": "兵庫県",
    "city": "西宮市",
    "town": "川西町"
  },
  "6620952": {
    "zipcode": "6620952",
    "prefectureCode": "28",
    "prefectureNumber": 28,
    "prefecture": "兵庫県",
    "city": "西宮市",
    "town": "中浜町"
  },
  "6620953": {
    "zipcode": "6620953",
    "prefectureCode": "28",
    "prefectureNumber": 28,
    "prefecture": "兵庫県",
    "city": "西宮市",
    "town": "堀切町"
  },
  "6620954": {
    "zipcode": "6620954",
    "prefectureCode": "28",
    "prefectureNumber": 28,
    "prefecture": "兵庫県",
    "city": "西宮市",
    "town": "上葭原町"
  },
  "6620955": {
    "zipcode": "6620955",
    "prefectureCode": "28",
    "prefectureNumber": 28,
    "prefecture": "兵庫県",
    "city": "西宮市",
    "town": "中葭原町"
  },
  "6620956": {
    "zipcode": "6620956",
    "prefectureCode": "28",
    "prefectureNumber": 28,
    "prefecture": "兵庫県",
    "city": "西宮市",
    "town": "下葭原町"
  },
  "6620957": {
    "zipcode": "6620957",
    "prefectureCode": "28",
    "prefectureNumber": 28,
    "prefecture": "兵庫県",
    "city": "西宮市",
    "town": "大浜町"
  },
  "6620961": {
    "zipcode": "6620961",
    "prefectureCode": "28",
    "prefectureNumber": 28,
    "prefecture": "兵庫県",
    "city": "西宮市",
    "town": "御茶家所町"
  },
  "6620962": {
    "zipcode": "6620962",
    "prefectureCode": "28",
    "prefectureNumber": 28,
    "prefecture": "兵庫県",
    "city": "西宮市",
    "town": "松下町"
  },
  "6620963": {
    "zipcode": "6620963",
    "prefectureCode": "28",
    "prefectureNumber": 28,
    "prefecture": "兵庫県",
    "city": "西宮市",
    "town": "屋敷町"
  },
  "6620964": {
    "zipcode": "6620964",
    "prefectureCode": "28",
    "prefectureNumber": 28,
    "prefecture": "兵庫県",
    "city": "西宮市",
    "town": "弓場町"
  },
  "6620965": {
    "zipcode": "6620965",
    "prefectureCode": "28",
    "prefectureNumber": 28,
    "prefecture": "兵庫県",
    "city": "西宮市",
    "town": "郷免町"
  },
  "6620971": {
    "zipcode": "6620971",
    "prefectureCode": "28",
    "prefectureNumber": 28,
    "prefecture": "兵庫県",
    "city": "西宮市",
    "town": "和上町"
  },
  "6620972": {
    "zipcode": "6620972",
    "prefectureCode": "28",
    "prefectureNumber": 28,
    "prefecture": "兵庫県",
    "city": "西宮市",
    "town": "今在家町"
  },
  "6620973": {
    "zipcode": "6620973",
    "prefectureCode": "28",
    "prefectureNumber": 28,
    "prefecture": "兵庫県",
    "city": "西宮市",
    "town": "田中町"
  },
  "6620974": {
    "zipcode": "6620974",
    "prefectureCode": "28",
    "prefectureNumber": 28,
    "prefecture": "兵庫県",
    "city": "西宮市",
    "town": "社家町"
  },
  "6620975": {
    "zipcode": "6620975",
    "prefectureCode": "28",
    "prefectureNumber": 28,
    "prefecture": "兵庫県",
    "city": "西宮市",
    "town": "市庭町"
  },
  "6620976": {
    "zipcode": "6620976",
    "prefectureCode": "28",
    "prefectureNumber": 28,
    "prefecture": "兵庫県",
    "city": "西宮市",
    "town": "宮西町"
  },
  "6620977": {
    "zipcode": "6620977",
    "prefectureCode": "28",
    "prefectureNumber": 28,
    "prefecture": "兵庫県",
    "city": "西宮市",
    "town": "神楽町"
  },
  "6620978": {
    "zipcode": "6620978",
    "prefectureCode": "28",
    "prefectureNumber": 28,
    "prefecture": "兵庫県",
    "city": "西宮市",
    "town": "産所町"
  }
}
