{
  "6640000": {
    "zipcode": "6640000",
    "prefectureCode": "28",
    "prefectureNumber": 28,
    "prefecture": "兵庫県",
    "city": "伊丹市",
    "town": "以下に掲載がない場合"
  },
  "6640001": {
    "zipcode": "6640001",
    "prefectureCode": "28",
    "prefectureNumber": 28,
    "prefecture": "兵庫県",
    "city": "伊丹市",
    "town": "荒牧"
  },
  "6640002": {
    "zipcode": "6640002",
    "prefectureCode": "28",
    "prefectureNumber": 28,
    "prefecture": "兵庫県",
    "city": "伊丹市",
    "town": "荻野"
  },
  "6640003": {
    "zipcode": "6640003",
    "prefectureCode": "28",
    "prefectureNumber": 28,
    "prefecture": "兵庫県",
    "city": "伊丹市",
    "town": "大野"
  },
  "6640004": {
    "zipcode": "6640004",
    "prefectureCode": "28",
    "prefectureNumber": 28,
    "prefecture": "兵庫県",
    "city": "伊丹市",
    "town": "東野"
  },
  "6640005": {
    "zipcode": "6640005",
    "prefectureCode": "28",
    "prefectureNumber": 28,
    "prefecture": "兵庫県",
    "city": "伊丹市",
    "town": "瑞原"
  },
  "6640006": {
    "zipcode": "6640006",
    "prefectureCode": "28",
    "prefectureNumber": 28,
    "prefecture": "兵庫県",
    "city": "伊丹市",
    "town": "鴻池"
  },
  "6640007": {
    "zipcode": "6640007",
    "prefectureCode": "28",
    "prefectureNumber": 28,
    "prefecture": "兵庫県",
    "city": "伊丹市",
    "town": "北野"
  },
  "6640008": {
    "zipcode": "6640008",
    "prefectureCode": "28",
    "prefectureNumber": 28,
    "prefecture": "兵庫県",
    "city": "伊丹市",
    "town": "荒牧南"
  },
  "6640011": {
    "zipcode": "6640011",
    "prefectureCode": "28",
    "prefectureNumber": 28,
    "prefecture": "兵庫県",
    "city": "伊丹市",
    "town": "鋳物師"
  },
  "6640012": {
    "zipcode": "6640012",
    "prefectureCode": "28",
    "prefectureNumber": 28,
    "prefecture": "兵庫県",
    "city": "伊丹市",
    "town": "緑ケ丘"
  },
  "6640013": {
    "zipcode": "6640013",
    "prefectureCode": "28",
    "prefectureNumber": 28,
    "prefecture": "兵庫県",
    "city": "伊丹市",
    "town": "瑞穂町"
  },
  "6640014": {
    "zipcode": "6640014",
    "prefectureCode": "28",
    "prefectureNumber": 28,
    "prefecture": "兵庫県",
    "city": "伊丹市",
    "town": "広畑"
  },
  "6640015": {
    "zipcode": "6640015",
    "prefectureCode": "28",
    "prefectureNumber": 28,
    "prefecture": "兵庫県",
    "city": "伊丹市",
    "town": "昆陽池"
  },
  "6640016": {
    "zipcode": "6640016",
    "prefectureCode": "28",
    "prefectureNumber": 28,
    "prefecture": "兵庫県",
    "city": "伊丹市",
    "town": "昆陽北"
  },
  "6640017": {
    "zipcode": "6640017",
    "prefectureCode": "28",
    "prefectureNumber": 28,
    "prefecture": "兵庫県",
    "city": "伊丹市",
    "town": "瑞ケ丘"
  },
  "6640020": {
    "zipcode": "6640020",
    "prefectureCode": "28",
    "prefectureNumber": 28,
    "prefecture": "兵庫県",
    "city": "伊丹市",
    "town": "寺本東"
  },
  "6640022": {
    "zipcode": "6640022",
    "prefectureCode": "28",
    "prefectureNumber": 28,
    "prefecture": "兵庫県",
    "city": "伊丹市",
    "town": "中野東"
  },
  "6640023": {
    "zipcode": "6640023",
    "prefectureCode": "28",
    "prefectureNumber": 28,
    "prefecture": "兵庫県",
    "city": "伊丹市",
    "town": "中野西"
  },
  "6640024": {
    "zipcode": "6640024",
    "prefectureCode": "28",
    "prefectureNumber": 28,
    "prefecture": "兵庫県",
    "city": "伊丹市",
    "town": "松ケ丘"
  },
  "6640025": {
    "zipcode": "6640025",
    "prefectureCode": "28",
    "prefectureNumber": 28,
    "prefecture": "兵庫県",
    "city": "伊丹市",
    "town": "奥畑"
  },
  "6640026": {
    "zipcode": "6640026",
    "prefectureCode": "28",
    "prefectureNumber": 28,
    "prefecture": "兵庫県",
    "city": "伊丹市",
    "town": "寺本"
  },
  "6640027": {
    "zipcode": "6640027",
    "prefectureCode": "28",
    "prefectureNumber": 28,
    "prefecture": "兵庫県",
    "city": "伊丹市",
    "town": "池尻"
  },
  "6640028": {
    "zipcode": "6640028",
    "prefectureCode": "28",
    "prefectureNumber": 28,
    "prefecture": "兵庫県",
    "city": "伊丹市",
    "town": "西野"
  },
  "6640029": {
    "zipcode": "6640029",
    "prefectureCode": "28",
    "prefectureNumber": 28,
    "prefecture": "兵庫県",
    "city": "伊丹市",
    "town": "中野北"
  },
  "6640031": {
    "zipcode": "6640031",
    "prefectureCode": "28",
    "prefectureNumber": 28,
    "prefecture": "兵庫県",
    "city": "伊丹市",
    "town": "荻野西"
  },
  "6640831": {
    "zipcode": "6640831",
    "prefectureCode": "28",
    "prefectureNumber": 28,
    "prefecture": "兵庫県",
    "city": "伊丹市",
    "town": "北伊丹"
  },
  "6640832": {
    "zipcode": "6640832",
    "prefectureCode": "28",
    "prefectureNumber": 28,
    "prefecture": "兵庫県",
    "city": "伊丹市",
    "town": "下河原"
  },
  "6640833": {
    "zipcode": "6640833",
    "prefectureCode": "28",
    "prefectureNumber": 28,
    "prefecture": "兵庫県",
    "city": "伊丹市",
    "town": "小阪田（都賀元）"
  },
  "6640834": {
    "zipcode": "6640834",
    "prefectureCode": "28",
    "prefectureNumber": 28,
    "prefecture": "兵庫県",
    "city": "伊丹市",
    "town": "西桑津"
  },
  "6640835": {
    "zipcode": "6640835",
    "prefectureCode": "28",
    "prefectureNumber": 28,
    "prefecture": "兵庫県",
    "city": "伊丹市",
    "town": "東桑津"
  },
  "6640836": {
    "zipcode": "6640836",
    "prefectureCode": "28",
    "prefectureNumber": 28,
    "prefecture": "兵庫県",
    "city": "伊丹市",
    "town": "北本町"
  },
  "6640837": {
    "zipcode": "6640837",
    "prefectureCode": "28",
    "prefectureNumber": 28,
    "prefecture": "兵庫県",
    "city": "伊丹市",
    "town": "北河原"
  },
  "6640838": {
    "zipcode": "6640838",
    "prefectureCode": "28",
    "prefectureNumber": 28,
    "prefecture": "兵庫県",
    "city": "伊丹市",
    "town": "中村"
  },
  "6640839": {
    "zipcode": "6640839",
    "prefectureCode": "28",
    "prefectureNumber": 28,
    "prefecture": "兵庫県",
    "city": "伊丹市",
    "town": "桑津"
  },
  "6640842": {
    "zipcode": "6640842",
    "prefectureCode": "28",
    "prefectureNumber": 28,
    "prefecture": "兵庫県",
    "city": "伊丹市",
    "town": "森本"
  },
  "6640843": {
    "zipcode": "6640843",
    "prefectureCode": "28",
    "prefectureNumber": 28,
    "prefecture": "兵庫県",
    "city": "伊丹市",
    "town": "岩屋"
  },
  "6640844": {
    "zipcode": "6640844",
    "prefectureCode": "28",
    "prefectureNumber": 28,
    "prefecture": "兵庫県",
    "city": "伊丹市",
    "town": "口酒井"
  },
  "6640845": {
    "zipcode": "6640845",
    "prefectureCode": "28",
    "prefectureNumber": 28,
    "prefecture": "兵庫県",
    "city": "伊丹市",
    "town": "東有岡"
  },
  "6640846": {
    "zipcode": "6640846",
    "prefectureCode": "28",
    "prefectureNumber": 28,
    "prefecture": "兵庫県",
    "city": "伊丹市",
    "town": "伊丹"
  },
  "6640847": {
    "zipcode": "6640847",
    "prefectureCode": "28",
    "prefectureNumber": 28,
    "prefecture": "兵庫県",
    "city": "伊丹市",
    "town": "藤ノ木"
  },
  "6640851": {
    "zipcode": "6640851",
    "prefectureCode": "28",
    "prefectureNumber": 28,
    "prefecture": "兵庫県",
    "city": "伊丹市",
    "town": "中央"
  },
  "6640852": {
    "zipcode": "6640852",
    "prefectureCode": "28",
    "prefectureNumber": 28,
    "prefecture": "兵庫県",
    "city": "伊丹市",
    "town": "南本町"
  },
  "6640853": {
    "zipcode": "6640853",
    "prefectureCode": "28",
    "prefectureNumber": 28,
    "prefecture": "兵庫県",
    "city": "伊丹市",
    "town": "平松"
  },
  "6640854": {
    "zipcode": "6640854",
    "prefectureCode": "28",
    "prefectureNumber": 28,
    "prefecture": "兵庫県",
    "city": "伊丹市",
    "town": "南町"
  },
  "6640855": {
    "zipcode": "6640855",
    "prefectureCode": "28",
    "prefectureNumber": 28,
    "prefecture": "兵庫県",
    "city": "伊丹市",
    "town": "御願塚"
  },
  "6640856": {
    "zipcode": "6640856",
    "prefectureCode": "28",
    "prefectureNumber": 28,
    "prefecture": "兵庫県",
    "city": "伊丹市",
    "town": "梅ノ木"
  },
  "6640857": {
    "zipcode": "6640857",
    "prefectureCode": "28",
    "prefectureNumber": 28,
    "prefecture": "兵庫県",
    "city": "伊丹市",
    "town": "行基町"
  },
  "6640858": {
    "zipcode": "6640858",
    "prefectureCode": "28",
    "prefectureNumber": 28,
    "prefecture": "兵庫県",
    "city": "伊丹市",
    "town": "西台"
  },
  "6640861": {
    "zipcode": "6640861",
    "prefectureCode": "28",
    "prefectureNumber": 28,
    "prefecture": "兵庫県",
    "city": "伊丹市",
    "town": "稲野町"
  },
  "6640862": {
    "zipcode": "6640862",
    "prefectureCode": "28",
    "prefectureNumber": 28,
    "prefecture": "兵庫県",
    "city": "伊丹市",
    "town": "若菱町"
  },
  "6640863": {
    "zipcode": "6640863",
    "prefectureCode": "28",
    "prefectureNumber": 28,
    "prefecture": "兵庫県",
    "city": "伊丹市",
    "town": "柏木町"
  },
  "6640864": {
    "zipcode": "6640864",
    "prefectureCode": "28",
    "prefectureNumber": 28,
    "prefecture": "兵庫県",
    "city": "伊丹市",
    "town": "安堂寺町"
  },
  "6640865": {
    "zipcode": "6640865",
    "prefectureCode": "28",
    "prefectureNumber": 28,
    "prefecture": "兵庫県",
    "city": "伊丹市",
    "town": "南野"
  },
  "6640871": {
    "zipcode": "6640871",
    "prefectureCode": "28",
    "prefectureNumber": 28,
    "prefecture": "兵庫県",
    "city": "伊丹市",
    "town": "堀池"
  },
  "6640872": {
    "zipcode": "6640872",
    "prefectureCode": "28",
    "prefectureNumber": 28,
    "prefecture": "兵庫県",
    "city": "伊丹市",
    "town": "車塚"
  },
  "6640873": {
    "zipcode": "6640873",
    "prefectureCode": "28",
    "prefectureNumber": 28,
    "prefecture": "兵庫県",
    "city": "伊丹市",
    "town": "野間"
  },
  "6640874": {
    "zipcode": "6640874",
    "prefectureCode": "28",
    "prefectureNumber": 28,
    "prefecture": "兵庫県",
    "city": "伊丹市",
    "town": "山田"
  },
  "6640875": {
    "zipcode": "6640875",
    "prefectureCode": "28",
    "prefectureNumber": 28,
    "prefecture": "兵庫県",
    "city": "伊丹市",
    "town": "野間北"
  },
  "6640881": {
    "zipcode": "6640881",
    "prefectureCode": "28",
    "prefectureNumber": 28,
    "prefecture": "兵庫県",
    "city": "伊丹市",
    "town": "昆陽"
  },
  "6640882": {
    "zipcode": "6640882",
    "prefectureCode": "28",
    "prefectureNumber": 28,
    "prefecture": "兵庫県",
    "city": "伊丹市",
    "town": "鈴原町"
  },
  "6640883": {
    "zipcode": "6640883",
    "prefectureCode": "28",
    "prefectureNumber": 28,
    "prefecture": "兵庫県",
    "city": "伊丹市",
    "town": "南鈴原"
  },
  "6640884": {
    "zipcode": "6640884",
    "prefectureCode": "28",
    "prefectureNumber": 28,
    "prefecture": "兵庫県",
    "city": "伊丹市",
    "town": "美鈴町"
  },
  "6640885": {
    "zipcode": "6640885",
    "prefectureCode": "28",
    "prefectureNumber": 28,
    "prefecture": "兵庫県",
    "city": "伊丹市",
    "town": "昆陽泉町"
  },
  "6640886": {
    "zipcode": "6640886",
    "prefectureCode": "28",
    "prefectureNumber": 28,
    "prefecture": "兵庫県",
    "city": "伊丹市",
    "town": "昆陽東"
  },
  "6640887": {
    "zipcode": "6640887",
    "prefectureCode": "28",
    "prefectureNumber": 28,
    "prefecture": "兵庫県",
    "city": "伊丹市",
    "town": "南野北"
  },
  "6640888": {
    "zipcode": "6640888",
    "prefectureCode": "28",
    "prefectureNumber": 28,
    "prefecture": "兵庫県",
    "city": "伊丹市",
    "town": "昆陽南"
  },
  "6640891": {
    "zipcode": "6640891",
    "prefectureCode": "28",
    "prefectureNumber": 28,
    "prefecture": "兵庫県",
    "city": "伊丹市",
    "town": "北園"
  },
  "6640892": {
    "zipcode": "6640892",
    "prefectureCode": "28",
    "prefectureNumber": 28,
    "prefecture": "兵庫県",
    "city": "伊丹市",
    "town": "高台"
  },
  "6640893": {
    "zipcode": "6640893",
    "prefectureCode": "28",
    "prefectureNumber": 28,
    "prefecture": "兵庫県",
    "city": "伊丹市",
    "town": "春日丘"
  },
  "6640894": {
    "zipcode": "6640894",
    "prefectureCode": "28",
    "prefectureNumber": 28,
    "prefecture": "兵庫県",
    "city": "伊丹市",
    "town": "清水"
  },
  "6640895": {
    "zipcode": "6640895",
    "prefectureCode": "28",
    "prefectureNumber": 28,
    "prefecture": "兵庫県",
    "city": "伊丹市",
    "town": "宮ノ前"
  },
  "6640896": {
    "zipcode": "6640896",
    "prefectureCode": "28",
    "prefectureNumber": 28,
    "prefecture": "兵庫県",
    "city": "伊丹市",
    "town": "船原"
  },
  "6640897": {
    "zipcode": "6640897",
    "prefectureCode": "28",
    "prefectureNumber": 28,
    "prefecture": "兵庫県",
    "city": "伊丹市",
    "town": "桜ケ丘"
  },
  "6640898": {
    "zipcode": "6640898",
    "prefectureCode": "28",
    "prefectureNumber": 28,
    "prefecture": "兵庫県",
    "city": "伊丹市",
    "town": "千僧"
  },
  "6640899": {
    "zipcode": "6640899",
    "prefectureCode": "28",
    "prefectureNumber": 28,
    "prefecture": "兵庫県",
    "city": "伊丹市",
    "town": "大鹿"
  }
}
