{
  "6670000": {
    "zipcode": "6670000",
    "prefectureCode": "28",
    "prefectureNumber": 28,
    "prefecture": "兵庫県",
    "city": "養父市",
    "town": "以下に掲載がない場合"
  },
  "6670001": {
    "zipcode": "6670001",
    "prefectureCode": "28",
    "prefectureNumber": 28,
    "prefecture": "兵庫県",
    "city": "養父市",
    "town": "八鹿町青山"
  },
  "6670002": {
    "zipcode": "6670002",
    "prefectureCode": "28",
    "prefectureNumber": 28,
    "prefecture": "兵庫県",
    "city": "養父市",
    "town": "八鹿町三谷"
  },
  "6670003": {
    "zipcode": "6670003",
    "prefectureCode": "28",
    "prefectureNumber": 28,
    "prefecture": "兵庫県",
    "city": "養父市",
    "town": "八鹿町宿南"
  },
  "6670004": {
    "zipcode": "6670004",
    "prefectureCode": "28",
    "prefectureNumber": 28,
    "prefecture": "兵庫県",
    "city": "養父市",
    "town": "八鹿町上小田"
  },
  "6670005": {
    "zipcode": "6670005",
    "prefectureCode": "28",
    "prefectureNumber": 28,
    "prefecture": "兵庫県",
    "city": "養父市",
    "town": "八鹿町下小田"
  },
  "6670011": {
    "zipcode": "6670011",
    "prefectureCode": "28",
    "prefectureNumber": 28,
    "prefecture": "兵庫県",
    "city": "養父市",
    "town": "八鹿町浅間"
  },
  "6670012": {
    "zipcode": "6670012",
    "prefectureCode": "28",
    "prefectureNumber": 28,
    "prefecture": "兵庫県",
    "city": "養父市",
    "town": "八鹿町伊佐"
  },
  "6670013": {
    "zipcode": "6670013",
    "prefectureCode": "28",
    "prefectureNumber": 28,
    "prefecture": "兵庫県",
    "city": "養父市",
    "town": "八鹿町坂本"
  },
  "6670014": {
    "zipcode": "6670014",
    "prefectureCode": "28",
    "prefectureNumber": 28,
    "prefecture": "兵庫県",
    "city": "養父市",
    "town": "八鹿町岩崎"
  },
  "6670015": {
    "zipcode": "6670015",
    "prefectureCode": "28",
    "prefectureNumber": 28,
    "prefecture": "兵庫県",
    "city": "養父市",
    "town": "八鹿町大江"
  },
  "6670016": {
    "zipcode": "6670016",
    "prefectureCode": "28",
    "prefectureNumber": 28,
    "prefecture": "兵庫県",
    "city": "養父市",
    "town": "八鹿町舞狂"
  },
  "6670021": {
    "zipcode": "6670021",
    "prefectureCode": "28",
    "prefectureNumber": 28,
    "prefecture": "兵庫県",
    "city": "養父市",
    "town": "八鹿町八鹿"
  },
  "6670022": {
    "zipcode": "6670022",
    "prefectureCode": "28",
    "prefectureNumber": 28,
    "prefecture": "兵庫県",
    "city": "養父市",
    "town": "八鹿町下網場"
  },
  "6670023": {
    "zipcode": "6670023",
    "prefectureCode": "28",
    "prefectureNumber": 28,
    "prefecture": "兵庫県",
    "city": "養父市",
    "town": "八鹿町上網場"
  },
  "6670024": {
    "zipcode": "6670024",
    "prefectureCode": "28",
    "prefectureNumber": 28,
    "prefecture": "兵庫県",
    "city": "養父市",
    "town": "八鹿町朝倉"
  },
  "6670031": {
    "zipcode": "6670031",
    "prefectureCode": "28",
    "prefectureNumber": 28,
    "prefecture": "兵庫県",
    "city": "養父市",
    "town": "八鹿町九鹿"
  },
  "6670032": {
    "zipcode": "6670032",
    "prefectureCode": "28",
    "prefectureNumber": 28,
    "prefecture": "兵庫県",
    "city": "養父市",
    "town": "八鹿町小山"
  },
  "6670041": {
    "zipcode": "6670041",
    "prefectureCode": "28",
    "prefectureNumber": 28,
    "prefecture": "兵庫県",
    "city": "養父市",
    "town": "八鹿町八木"
  },
  "6670042": {
    "zipcode": "6670042",
    "prefectureCode": "28",
    "prefectureNumber": 28,
    "prefecture": "兵庫県",
    "city": "養父市",
    "town": "八鹿町今滝寺"
  },
  "6670043": {
    "zipcode": "6670043",
    "prefectureCode": "28",
    "prefectureNumber": 28,
    "prefecture": "兵庫県",
    "city": "養父市",
    "town": "八鹿町高柳"
  },
  "6670044": {
    "zipcode": "6670044",
    "prefectureCode": "28",
    "prefectureNumber": 28,
    "prefecture": "兵庫県",
    "city": "養父市",
    "town": "八鹿町国木"
  },
  "6670045": {
    "zipcode": "6670045",
    "prefectureCode": "28",
    "prefectureNumber": 28,
    "prefecture": "兵庫県",
    "city": "養父市",
    "town": "八鹿町米里"
  },
  "6670051": {
    "zipcode": "6670051",
    "prefectureCode": "28",
    "prefectureNumber": 28,
    "prefecture": "兵庫県",
    "city": "養父市",
    "town": "八鹿町石原"
  },
  "6670052": {
    "zipcode": "6670052",
    "prefectureCode": "28",
    "prefectureNumber": 28,
    "prefecture": "兵庫県",
    "city": "養父市",
    "town": "八鹿町日畑"
  },
  "6670053": {
    "zipcode": "6670053",
    "prefectureCode": "28",
    "prefectureNumber": 28,
    "prefecture": "兵庫県",
    "city": "養父市",
    "town": "八鹿町小佐"
  },
  "6670101": {
    "zipcode": "6670101",
    "prefectureCode": "28",
    "prefectureNumber": 28,
    "prefecture": "兵庫県",
    "city": "養父市",
    "town": "広谷"
  },
  "6670102": {
    "zipcode": "6670102",
    "prefectureCode": "28",
    "prefectureNumber": 28,
    "prefecture": "兵庫県",
    "city": "養父市",
    "town": "十二所"
  },
  "6670103": {
    "zipcode": "6670103",
    "prefectureCode": "28",
    "prefectureNumber": 28,
    "prefecture": "兵庫県",
    "city": "養父市",
    "town": "浅野"
  },
  "6670104": {
    "zipcode": "6670104",
    "prefectureCode": "28",
    "prefectureNumber": 28,
    "prefecture": "兵庫県",
    "city": "養父市",
    "town": "伊豆"
  },
  "6670105": {
    "zipcode": "6670105",
    "prefectureCode": "28",
    "prefectureNumber": 28,
    "prefecture": "兵庫県",
    "city": "養父市",
    "town": "左近山"
  },
  "6670106": {
    "zipcode": "6670106",
    "prefectureCode": "28",
    "prefectureNumber": 28,
    "prefecture": "兵庫県",
    "city": "養父市",
    "town": "玉見"
  },
  "6670107": {
    "zipcode": "6670107",
    "prefectureCode": "28",
    "prefectureNumber": 28,
    "prefecture": "兵庫県",
    "city": "養父市",
    "town": "新津"
  },
  "6670111": {
    "zipcode": "6670111",
    "prefectureCode": "28",
    "prefectureNumber": 28,
    "prefecture": "兵庫県",
    "city": "養父市",
    "town": "大薮"
  },
  "6670112": {
    "zipcode": "6670112",
    "prefectureCode": "28",
    "prefectureNumber": 28,
    "prefecture": "兵庫県",
    "city": "養父市",
    "town": "養父市場"
  },
  "6670113": {
    "zipcode": "6670113",
    "prefectureCode": "28",
    "prefectureNumber": 28,
    "prefecture": "兵庫県",
    "city": "養父市",
    "town": "薮崎"
  },
  "6670114": {
    "zipcode": "6670114",
    "prefectureCode": "28",
    "prefectureNumber": 28,
    "prefecture": "兵庫県",
    "city": "養父市",
    "town": "小城"
  },
  "6670115": {
    "zipcode": "6670115",
    "prefectureCode": "28",
    "prefectureNumber": 28,
    "prefecture": "兵庫県",
    "city": "養父市",
    "town": "上箇"
  },
  "6670121": {
    "zipcode": "6670121",
    "prefectureCode": "28",
    "prefectureNumber": 28,
    "prefecture": "兵庫県",
    "city": "養父市",
    "town": "奥米地"
  },
  "6670122": {
    "zipcode": "6670122",
    "prefectureCode": "28",
    "prefectureNumber": 28,
    "prefecture": "兵庫県",
    "city": "養父市",
    "town": "中米地"
  },
  "6670123": {
    "zipcode": "6670123",
    "prefectureCode": "28",
    "prefectureNumber": 28,
    "prefecture": "兵庫県",
    "city": "養父市",
    "town": "鉄屋米地"
  },
  "6670124": {
    "zipcode": "6670124",
    "prefectureCode": "28",
    "prefectureNumber": 28,
    "prefecture": "兵庫県",
    "city": "養父市",
    "town": "口米地"
  },
  "6670125": {
    "zipcode": "6670125",
    "prefectureCode": "28",
    "prefectureNumber": 28,
    "prefecture": "兵庫県",
    "city": "養父市",
    "town": "大塚"
  },
  "6670126": {
    "zipcode": "6670126",
    "prefectureCode": "28",
    "prefectureNumber": 28,
    "prefecture": "兵庫県",
    "city": "養父市",
    "town": "堀畑"
  },
  "6670131": {
    "zipcode": "6670131",
    "prefectureCode": "28",
    "prefectureNumber": 28,
    "prefecture": "兵庫県",
    "city": "養父市",
    "town": "上野"
  },
  "6670132": {
    "zipcode": "6670132",
    "prefectureCode": "28",
    "prefectureNumber": 28,
    "prefecture": "兵庫県",
    "city": "養父市",
    "town": "稲津"
  },
  "6670133": {
    "zipcode": "6670133",
    "prefectureCode": "28",
    "prefectureNumber": 28,
    "prefecture": "兵庫県",
    "city": "養父市",
    "town": "畑"
  },
  "6670134": {
    "zipcode": "6670134",
    "prefectureCode": "28",
    "prefectureNumber": 28,
    "prefecture": "兵庫県",
    "city": "養父市",
    "town": "大坪"
  },
  "6670135": {
    "zipcode": "6670135",
    "prefectureCode": "28",
    "prefectureNumber": 28,
    "prefecture": "兵庫県",
    "city": "養父市",
    "town": "船谷"
  },
  "6670136": {
    "zipcode": "6670136",
    "prefectureCode": "28",
    "prefectureNumber": 28,
    "prefecture": "兵庫県",
    "city": "養父市",
    "town": "三谷"
  },
  "6670141": {
    "zipcode": "6670141",
    "prefectureCode": "28",
    "prefectureNumber": 28,
    "prefecture": "兵庫県",
    "city": "養父市",
    "town": "森"
  },
  "6670142": {
    "zipcode": "6670142",
    "prefectureCode": "28",
    "prefectureNumber": 28,
    "prefecture": "兵庫県",
    "city": "養父市",
    "town": "建屋"
  },
  "6670143": {
    "zipcode": "6670143",
    "prefectureCode": "28",
    "prefectureNumber": 28,
    "prefecture": "兵庫県",
    "city": "養父市",
    "town": "能座"
  },
  "6670144": {
    "zipcode": "6670144",
    "prefectureCode": "28",
    "prefectureNumber": 28,
    "prefecture": "兵庫県",
    "city": "養父市",
    "town": "餅耕地"
  },
  "6670145": {
    "zipcode": "6670145",
    "prefectureCode": "28",
    "prefectureNumber": 28,
    "prefecture": "兵庫県",
    "city": "養父市",
    "town": "長野"
  },
  "6670301": {
    "zipcode": "6670301",
    "prefectureCode": "28",
    "prefectureNumber": 28,
    "prefecture": "兵庫県",
    "city": "養父市",
    "town": "大屋町上山"
  },
  "6670302": {
    "zipcode": "6670302",
    "prefectureCode": "28",
    "prefectureNumber": 28,
    "prefecture": "兵庫県",
    "city": "養父市",
    "town": "大屋町樽見"
  },
  "6670303": {
    "zipcode": "6670303",
    "prefectureCode": "28",
    "prefectureNumber": 28,
    "prefecture": "兵庫県",
    "city": "養父市",
    "town": "大屋町おうみ"
  },
  "6670304": {
    "zipcode": "6670304",
    "prefectureCode": "28",
    "prefectureNumber": 28,
    "prefecture": "兵庫県",
    "city": "養父市",
    "town": "大屋町由良"
  },
  "6670305": {
    "zipcode": "6670305",
    "prefectureCode": "28",
    "prefectureNumber": 28,
    "prefecture": "兵庫県",
    "city": "養父市",
    "town": "大屋町夏梅"
  },
  "6670306": {
    "zipcode": "6670306",
    "prefectureCode": "28",
    "prefectureNumber": 28,
    "prefecture": "兵庫県",
    "city": "養父市",
    "town": "大屋町宮垣"
  },
  "6670311": {
    "zipcode": "6670311",
    "prefectureCode": "28",
    "prefectureNumber": 28,
    "prefecture": "兵庫県",
    "city": "養父市",
    "town": "大屋町大屋市場"
  },
  "6670312": {
    "zipcode": "6670312",
    "prefectureCode": "28",
    "prefectureNumber": 28,
    "prefecture": "兵庫県",
    "city": "養父市",
    "town": "大屋町山路"
  },
  "6670313": {
    "zipcode": "6670313",
    "prefectureCode": "28",
    "prefectureNumber": 28,
    "prefecture": "兵庫県",
    "city": "養父市",
    "town": "大屋町笠谷"
  },
  "6670314": {
    "zipcode": "6670314",
    "prefectureCode": "28",
    "prefectureNumber": 28,
    "prefecture": "兵庫県",
    "city": "養父市",
    "town": "大屋町大杉"
  },
  "6670315": {
    "zipcode": "6670315",
    "prefectureCode": "28",
    "prefectureNumber": 28,
    "prefecture": "兵庫県",
    "city": "養父市",
    "town": "大屋町加保"
  },
  "6670321": {
    "zipcode": "6670321",
    "prefectureCode": "28",
    "prefectureNumber": 28,
    "prefecture": "兵庫県",
    "city": "養父市",
    "town": "大屋町蔵垣"
  },
  "6670322": {
    "zipcode": "6670322",
    "prefectureCode": "28",
    "prefectureNumber": 28,
    "prefecture": "兵庫県",
    "city": "養父市",
    "town": "大屋町筏"
  },
  "6670323": {
    "zipcode": "6670323",
    "prefectureCode": "28",
    "prefectureNumber": 28,
    "prefecture": "兵庫県",
    "city": "養父市",
    "town": "大屋町若杉"
  },
  "6670324": {
    "zipcode": "6670324",
    "prefectureCode": "28",
    "prefectureNumber": 28,
    "prefecture": "兵庫県",
    "city": "養父市",
    "town": "大屋町横行"
  },
  "6670325": {
    "zipcode": "6670325",
    "prefectureCode": "28",
    "prefectureNumber": 28,
    "prefecture": "兵庫県",
    "city": "養父市",
    "town": "大屋町中間"
  },
  "6670431": {
    "zipcode": "6670431",
    "prefectureCode": "28",
    "prefectureNumber": 28,
    "prefecture": "兵庫県",
    "city": "養父市",
    "town": "大屋町糸原"
  },
  "6670432": {
    "zipcode": "6670432",
    "prefectureCode": "28",
    "prefectureNumber": 28,
    "prefecture": "兵庫県",
    "city": "養父市",
    "town": "大屋町宮本"
  },
  "6670433": {
    "zipcode": "6670433",
    "prefectureCode": "28",
    "prefectureNumber": 28,
    "prefecture": "兵庫県",
    "city": "養父市",
    "town": "大屋町門野"
  },
  "6670434": {
    "zipcode": "6670434",
    "prefectureCode": "28",
    "prefectureNumber": 28,
    "prefecture": "兵庫県",
    "city": "養父市",
    "town": "大屋町須西"
  },
  "6670435": {
    "zipcode": "6670435",
    "prefectureCode": "28",
    "prefectureNumber": 28,
    "prefecture": "兵庫県",
    "city": "養父市",
    "town": "大屋町和田"
  },
  "6670436": {
    "zipcode": "6670436",
    "prefectureCode": "28",
    "prefectureNumber": 28,
    "prefecture": "兵庫県",
    "city": "養父市",
    "town": "大屋町明延"
  },
  "6671101": {
    "zipcode": "6671101",
    "prefectureCode": "28",
    "prefectureNumber": 28,
    "prefecture": "兵庫県",
    "city": "養父市",
    "town": "三宅"
  },
  "6671102": {
    "zipcode": "6671102",
    "prefectureCode": "28",
    "prefectureNumber": 28,
    "prefecture": "兵庫県",
    "city": "養父市",
    "town": "大谷"
  },
  "6671103": {
    "zipcode": "6671103",
    "prefectureCode": "28",
    "prefectureNumber": 28,
    "prefecture": "兵庫県",
    "city": "養父市",
    "town": "万久里"
  },
  "6671104": {
    "zipcode": "6671104",
    "prefectureCode": "28",
    "prefectureNumber": 28,
    "prefecture": "兵庫県",
    "city": "養父市",
    "town": "尾崎"
  },
  "6671105": {
    "zipcode": "6671105",
    "prefectureCode": "28",
    "prefectureNumber": 28,
    "prefecture": "兵庫県",
    "city": "養父市",
    "town": "関宮"
  },
  "6671111": {
    "zipcode": "6671111",
    "prefectureCode": "28",
    "prefectureNumber": 28,
    "prefecture": "兵庫県",
    "city": "養父市",
    "town": "吉井"
  },
  "6671112": {
    "zipcode": "6671112",
    "prefectureCode": "28",
    "prefectureNumber": 28,
    "prefecture": "兵庫県",
    "city": "養父市",
    "town": "出合"
  },
  "6671113": {
    "zipcode": "6671113",
    "prefectureCode": "28",
    "prefectureNumber": 28,
    "prefecture": "兵庫県",
    "city": "養父市",
    "town": "川原場"
  },
  "6671114": {
    "zipcode": "6671114",
    "prefectureCode": "28",
    "prefectureNumber": 28,
    "prefecture": "兵庫県",
    "city": "養父市",
    "town": "小路頃"
  },
  "6671115": {
    "zipcode": "6671115",
    "prefectureCode": "28",
    "prefectureNumber": 28,
    "prefecture": "兵庫県",
    "city": "養父市",
    "town": "葛畑"
  },
  "6671116": {
    "zipcode": "6671116",
    "prefectureCode": "28",
    "prefectureNumber": 28,
    "prefecture": "兵庫県",
    "city": "養父市",
    "town": "中瀬"
  },
  "6671117": {
    "zipcode": "6671117",
    "prefectureCode": "28",
    "prefectureNumber": 28,
    "prefecture": "兵庫県",
    "city": "養父市",
    "town": "轟"
  },
  "6671118": {
    "zipcode": "6671118",
    "prefectureCode": "28",
    "prefectureNumber": 28,
    "prefecture": "兵庫県",
    "city": "養父市",
    "town": "安井"
  },
  "6671119": {
    "zipcode": "6671119",
    "prefectureCode": "28",
    "prefectureNumber": 28,
    "prefecture": "兵庫県",
    "city": "養父市",
    "town": "鵜縄"
  },
  "6671121": {
    "zipcode": "6671121",
    "prefectureCode": "28",
    "prefectureNumber": 28,
    "prefecture": "兵庫県",
    "city": "養父市",
    "town": "外野"
  },
  "6671122": {
    "zipcode": "6671122",
    "prefectureCode": "28",
    "prefectureNumber": 28,
    "prefecture": "兵庫県",
    "city": "養父市",
    "town": "草出"
  },
  "6671123": {
    "zipcode": "6671123",
    "prefectureCode": "28",
    "prefectureNumber": 28,
    "prefecture": "兵庫県",
    "city": "養父市",
    "town": "梨ケ原"
  },
  "6671124": {
    "zipcode": "6671124",
    "prefectureCode": "28",
    "prefectureNumber": 28,
    "prefecture": "兵庫県",
    "city": "養父市",
    "town": "丹戸"
  },
  "6671125": {
    "zipcode": "6671125",
    "prefectureCode": "28",
    "prefectureNumber": 28,
    "prefecture": "兵庫県",
    "city": "養父市",
    "town": "奈良尾"
  },
  "6671126": {
    "zipcode": "6671126",
    "prefectureCode": "28",
    "prefectureNumber": 28,
    "prefecture": "兵庫県",
    "city": "養父市",
    "town": "福定"
  },
  "6671127": {
    "zipcode": "6671127",
    "prefectureCode": "28",
    "prefectureNumber": 28,
    "prefecture": "兵庫県",
    "city": "養父市",
    "town": "大久保"
  },
  "6671128": {
    "zipcode": "6671128",
    "prefectureCode": "28",
    "prefectureNumber": 28,
    "prefecture": "兵庫県",
    "city": "養父市",
    "town": "別宮"
  },
  "6671301": {
    "zipcode": "6671301",
    "prefectureCode": "28",
    "prefectureNumber": 28,
    "prefecture": "兵庫県",
    "city": "美方郡香美町",
    "town": "村岡区境"
  },
  "6671302": {
    "zipcode": "6671302",
    "prefectureCode": "28",
    "prefectureNumber": 28,
    "prefecture": "兵庫県",
    "city": "美方郡香美町",
    "town": "村岡区山田"
  },
  "6671303": {
    "zipcode": "6671303",
    "prefectureCode": "28",
    "prefectureNumber": 28,
    "prefecture": "兵庫県",
    "city": "美方郡香美町",
    "town": "村岡区小城"
  },
  "6671304": {
    "zipcode": "6671304",
    "prefectureCode": "28",
    "prefectureNumber": 28,
    "prefecture": "兵庫県",
    "city": "美方郡香美町",
    "town": "村岡区和佐父"
  },
  "6671311": {
    "zipcode": "6671311",
    "prefectureCode": "28",
    "prefectureNumber": 28,
    "prefecture": "兵庫県",
    "city": "美方郡香美町",
    "town": "村岡区村岡"
  },
  "6671312": {
    "zipcode": "6671312",
    "prefectureCode": "28",
    "prefectureNumber": 28,
    "prefecture": "兵庫県",
    "city": "美方郡香美町",
    "town": "村岡区相田"
  },
  "6671313": {
    "zipcode": "6671313",
    "prefectureCode": "28",
    "prefectureNumber": 28,
    "prefecture": "兵庫県",
    "city": "美方郡香美町",
    "town": "村岡区神坂"
  },
  "6671314": {
    "zipcode": "6671314",
    "prefectureCode": "28",
    "prefectureNumber": 28,
    "prefecture": "兵庫県",
    "city": "美方郡香美町",
    "town": "村岡区萩山"
  },
  "6671315": {
    "zipcode": "6671315",
    "prefectureCode": "28",
    "prefectureNumber": 28,
    "prefecture": "兵庫県",
    "city": "美方郡香美町",
    "town": "村岡区板仕野"
  },
  "6671316": {
    "zipcode": "6671316",
    "prefectureCode": "28",
    "prefectureNumber": 28,
    "prefecture": "兵庫県",
    "city": "美方郡香美町",
    "town": "村岡区鹿田"
  },
  "6671317": {
    "zipcode": "6671317",
    "prefectureCode": "28",
    "prefectureNumber": 28,
    "prefecture": "兵庫県",
    "city": "美方郡香美町",
    "town": "村岡区用野"
  },
  "6671321": {
    "zipcode": "6671321",
    "prefectureCode": "28",
    "prefectureNumber": 28,
    "prefecture": "兵庫県",
    "city": "美方郡香美町",
    "town": "村岡区大糠"
  },
  "6671322": {
    "zipcode": "6671322",
    "prefectureCode": "28",
    "prefectureNumber": 28,
    "prefecture": "兵庫県",
    "city": "美方郡香美町",
    "town": "村岡区寺河内"
  },
  "6671323": {
    "zipcode": "6671323",
    "prefectureCode": "28",
    "prefectureNumber": 28,
    "prefecture": "兵庫県",
    "city": "美方郡香美町",
    "town": "村岡区耀山"
  },
  "6671324": {
    "zipcode": "6671324",
    "prefectureCode": "28",
    "prefectureNumber": 28,
    "prefecture": "兵庫県",
    "city": "美方郡香美町",
    "town": "村岡区市原"
  },
  "6671325": {
    "zipcode": "6671325",
    "prefectureCode": "28",
    "prefectureNumber": 28,
    "prefecture": "兵庫県",
    "city": "美方郡香美町",
    "town": "村岡区高井"
  },
  "6671326": {
    "zipcode": "6671326",
    "prefectureCode": "28",
    "prefectureNumber": 28,
    "prefecture": "兵庫県",
    "city": "美方郡香美町",
    "town": "村岡区光陽"
  },
  "6671331": {
    "zipcode": "6671331",
    "prefectureCode": "28",
    "prefectureNumber": 28,
    "prefecture": "兵庫県",
    "city": "美方郡香美町",
    "town": "村岡区作山"
  },
  "6671332": {
    "zipcode": "6671332",
    "prefectureCode": "28",
    "prefectureNumber": 28,
    "prefecture": "兵庫県",
    "city": "美方郡香美町",
    "town": "村岡区八井谷"
  },
  "6671333": {
    "zipcode": "6671333",
    "prefectureCode": "28",
    "prefectureNumber": 28,
    "prefecture": "兵庫県",
    "city": "美方郡香美町",
    "town": "村岡区大野"
  },
  "6671334": {
    "zipcode": "6671334",
    "prefectureCode": "28",
    "prefectureNumber": 28,
    "prefecture": "兵庫県",
    "city": "美方郡香美町",
    "town": "村岡区福岡"
  },
  "6671335": {
    "zipcode": "6671335",
    "prefectureCode": "28",
    "prefectureNumber": 28,
    "prefecture": "兵庫県",
    "city": "美方郡香美町",
    "town": "村岡区黒田"
  },
  "6671336": {
    "zipcode": "6671336",
    "prefectureCode": "28",
    "prefectureNumber": 28,
    "prefecture": "兵庫県",
    "city": "美方郡香美町",
    "town": "村岡区宿"
  },
  "6671337": {
    "zipcode": "6671337",
    "prefectureCode": "28",
    "prefectureNumber": 28,
    "prefecture": "兵庫県",
    "city": "美方郡香美町",
    "town": "村岡区日影"
  },
  "6671341": {
    "zipcode": "6671341",
    "prefectureCode": "28",
    "prefectureNumber": 28,
    "prefecture": "兵庫県",
    "city": "美方郡香美町",
    "town": "村岡区森脇"
  },
  "6671342": {
    "zipcode": "6671342",
    "prefectureCode": "28",
    "prefectureNumber": 28,
    "prefecture": "兵庫県",
    "city": "美方郡香美町",
    "town": "村岡区口大谷"
  },
  "6671343": {
    "zipcode": "6671343",
    "prefectureCode": "28",
    "prefectureNumber": 28,
    "prefecture": "兵庫県",
    "city": "美方郡香美町",
    "town": "村岡区中大谷"
  },
  "6671344": {
    "zipcode": "6671344",
    "prefectureCode": "28",
    "prefectureNumber": 28,
    "prefecture": "兵庫県",
    "city": "美方郡香美町",
    "town": "村岡区大笹"
  },
  "6671345": {
    "zipcode": "6671345",
    "prefectureCode": "28",
    "prefectureNumber": 28,
    "prefecture": "兵庫県",
    "city": "美方郡香美町",
    "town": "村岡区高坂"
  },
  "6671346": {
    "zipcode": "6671346",
    "prefectureCode": "28",
    "prefectureNumber": 28,
    "prefecture": "兵庫県",
    "city": "美方郡香美町",
    "town": "村岡区池ケ平"
  },
  "6671347": {
    "zipcode": "6671347",
    "prefectureCode": "28",
    "prefectureNumber": 28,
    "prefecture": "兵庫県",
    "city": "美方郡香美町",
    "town": "村岡区和池"
  },
  "6671351": {
    "zipcode": "6671351",
    "prefectureCode": "28",
    "prefectureNumber": 28,
    "prefecture": "兵庫県",
    "city": "美方郡香美町",
    "town": "村岡区丸味"
  },
  "6671352": {
    "zipcode": "6671352",
    "prefectureCode": "28",
    "prefectureNumber": 28,
    "prefecture": "兵庫県",
    "city": "美方郡香美町",
    "town": "村岡区長板"
  },
  "6671353": {
    "zipcode": "6671353",
    "prefectureCode": "28",
    "prefectureNumber": 28,
    "prefecture": "兵庫県",
    "city": "美方郡香美町",
    "town": "村岡区熊波"
  },
  "6671354": {
    "zipcode": "6671354",
    "prefectureCode": "28",
    "prefectureNumber": 28,
    "prefecture": "兵庫県",
    "city": "美方郡香美町",
    "town": "村岡区柤岡"
  },
  "6671361": {
    "zipcode": "6671361",
    "prefectureCode": "28",
    "prefectureNumber": 28,
    "prefecture": "兵庫県",
    "city": "美方郡香美町",
    "town": "村岡区長瀬"
  },
  "6671362": {
    "zipcode": "6671362",
    "prefectureCode": "28",
    "prefectureNumber": 28,
    "prefecture": "兵庫県",
    "city": "美方郡香美町",
    "town": "村岡区原"
  },
  "6671363": {
    "zipcode": "6671363",
    "prefectureCode": "28",
    "prefectureNumber": 28,
    "prefecture": "兵庫県",
    "city": "美方郡香美町",
    "town": "村岡区味取"
  },
  "6671364": {
    "zipcode": "6671364",
    "prefectureCode": "28",
    "prefectureNumber": 28,
    "prefecture": "兵庫県",
    "city": "美方郡香美町",
    "town": "村岡区長須"
  },
  "6671365": {
    "zipcode": "6671365",
    "prefectureCode": "28",
    "prefectureNumber": 28,
    "prefecture": "兵庫県",
    "city": "美方郡香美町",
    "town": "村岡区高津"
  },
  "6671366": {
    "zipcode": "6671366",
    "prefectureCode": "28",
    "prefectureNumber": 28,
    "prefecture": "兵庫県",
    "city": "美方郡香美町",
    "town": "村岡区川会"
  },
  "6671367": {
    "zipcode": "6671367",
    "prefectureCode": "28",
    "prefectureNumber": 28,
    "prefecture": "兵庫県",
    "city": "美方郡香美町",
    "town": "村岡区和田"
  },
  "6671368": {
    "zipcode": "6671368",
    "prefectureCode": "28",
    "prefectureNumber": 28,
    "prefecture": "兵庫県",
    "city": "美方郡香美町",
    "town": "村岡区入江"
  },
  "6671501": {
    "zipcode": "6671501",
    "prefectureCode": "28",
    "prefectureNumber": 28,
    "prefecture": "兵庫県",
    "city": "美方郡香美町",
    "town": "小代区久須部"
  },
  "6671502": {
    "zipcode": "6671502",
    "prefectureCode": "28",
    "prefectureNumber": 28,
    "prefecture": "兵庫県",
    "city": "美方郡香美町",
    "town": "小代区城山"
  },
  "6671503": {
    "zipcode": "6671503",
    "prefectureCode": "28",
    "prefectureNumber": 28,
    "prefecture": "兵庫県",
    "city": "美方郡香美町",
    "town": "小代区大谷"
  },
  "6671511": {
    "zipcode": "6671511",
    "prefectureCode": "28",
    "prefectureNumber": 28,
    "prefecture": "兵庫県",
    "city": "美方郡香美町",
    "town": "小代区神水"
  },
  "6671512": {
    "zipcode": "6671512",
    "prefectureCode": "28",
    "prefectureNumber": 28,
    "prefecture": "兵庫県",
    "city": "美方郡香美町",
    "town": "小代区石寺"
  },
  "6671513": {
    "zipcode": "6671513",
    "prefectureCode": "28",
    "prefectureNumber": 28,
    "prefecture": "兵庫県",
    "city": "美方郡香美町",
    "town": "小代区広井"
  },
  "6671514": {
    "zipcode": "6671514",
    "prefectureCode": "28",
    "prefectureNumber": 28,
    "prefecture": "兵庫県",
    "city": "美方郡香美町",
    "town": "小代区神場"
  },
  "6671515": {
    "zipcode": "6671515",
    "prefectureCode": "28",
    "prefectureNumber": 28,
    "prefecture": "兵庫県",
    "city": "美方郡香美町",
    "town": "小代区水間"
  },
  "6671521": {
    "zipcode": "6671521",
    "prefectureCode": "28",
    "prefectureNumber": 28,
    "prefecture": "兵庫県",
    "city": "美方郡香美町",
    "town": "小代区野間谷"
  },
  "6671522": {
    "zipcode": "6671522",
    "prefectureCode": "28",
    "prefectureNumber": 28,
    "prefecture": "兵庫県",
    "city": "美方郡香美町",
    "town": "小代区実山"
  },
  "6671523": {
    "zipcode": "6671523",
    "prefectureCode": "28",
    "prefectureNumber": 28,
    "prefecture": "兵庫県",
    "city": "美方郡香美町",
    "town": "小代区平野"
  },
  "6671531": {
    "zipcode": "6671531",
    "prefectureCode": "28",
    "prefectureNumber": 28,
    "prefecture": "兵庫県",
    "city": "美方郡香美町",
    "town": "小代区茅野"
  },
  "6671532": {
    "zipcode": "6671532",
    "prefectureCode": "28",
    "prefectureNumber": 28,
    "prefecture": "兵庫県",
    "city": "美方郡香美町",
    "town": "小代区新屋"
  },
  "6671533": {
    "zipcode": "6671533",
    "prefectureCode": "28",
    "prefectureNumber": 28,
    "prefecture": "兵庫県",
    "city": "美方郡香美町",
    "town": "小代区秋岡"
  },
  "6671541": {
    "zipcode": "6671541",
    "prefectureCode": "28",
    "prefectureNumber": 28,
    "prefecture": "兵庫県",
    "city": "美方郡香美町",
    "town": "小代区佐坊"
  },
  "6671542": {
    "zipcode": "6671542",
    "prefectureCode": "28",
    "prefectureNumber": 28,
    "prefecture": "兵庫県",
    "city": "美方郡香美町",
    "town": "小代区鍛治屋"
  },
  "6671543": {
    "zipcode": "6671543",
    "prefectureCode": "28",
    "prefectureNumber": 28,
    "prefecture": "兵庫県",
    "city": "美方郡香美町",
    "town": "小代区忠宮"
  },
  "6671544": {
    "zipcode": "6671544",
    "prefectureCode": "28",
    "prefectureNumber": 28,
    "prefecture": "兵庫県",
    "city": "美方郡香美町",
    "town": "小代区貫田"
  },
  "6671545": {
    "zipcode": "6671545",
    "prefectureCode": "28",
    "prefectureNumber": 28,
    "prefecture": "兵庫県",
    "city": "美方郡香美町",
    "town": "小代区東垣"
  }
}
