{
  "6680000": {
    "zipcode": "6680000",
    "prefectureCode": "28",
    "prefectureNumber": 28,
    "prefecture": "兵庫県",
    "city": "豊岡市",
    "town": "以下に掲載がない場合"
  },
  "6680001": {
    "zipcode": "6680001",
    "prefectureCode": "28",
    "prefectureNumber": 28,
    "prefecture": "兵庫県",
    "city": "豊岡市",
    "town": "伊賀谷"
  },
  "6680002": {
    "zipcode": "6680002",
    "prefectureCode": "28",
    "prefectureNumber": 28,
    "prefecture": "兵庫県",
    "city": "豊岡市",
    "town": "岩熊"
  },
  "6680003": {
    "zipcode": "6680003",
    "prefectureCode": "28",
    "prefectureNumber": 28,
    "prefecture": "兵庫県",
    "city": "豊岡市",
    "town": "江野"
  },
  "6680004": {
    "zipcode": "6680004",
    "prefectureCode": "28",
    "prefectureNumber": 28,
    "prefecture": "兵庫県",
    "city": "豊岡市",
    "town": "新堂"
  },
  "6680005": {
    "zipcode": "6680005",
    "prefectureCode": "28",
    "prefectureNumber": 28,
    "prefecture": "兵庫県",
    "city": "豊岡市",
    "town": "滝"
  },
  "6680006": {
    "zipcode": "6680006",
    "prefectureCode": "28",
    "prefectureNumber": 28,
    "prefecture": "兵庫県",
    "city": "豊岡市",
    "town": "森津"
  },
  "6680011": {
    "zipcode": "6680011",
    "prefectureCode": "28",
    "prefectureNumber": 28,
    "prefecture": "兵庫県",
    "city": "豊岡市",
    "town": "上陰"
  },
  "6680012": {
    "zipcode": "6680012",
    "prefectureCode": "28",
    "prefectureNumber": 28,
    "prefecture": "兵庫県",
    "city": "豊岡市",
    "town": "下陰"
  },
  "6680013": {
    "zipcode": "6680013",
    "prefectureCode": "28",
    "prefectureNumber": 28,
    "prefecture": "兵庫県",
    "city": "豊岡市",
    "town": "中陰"
  },
  "6680014": {
    "zipcode": "6680014",
    "prefectureCode": "28",
    "prefectureNumber": 28,
    "prefecture": "兵庫県",
    "city": "豊岡市",
    "town": "野田"
  },
  "6680015": {
    "zipcode": "6680015",
    "prefectureCode": "28",
    "prefectureNumber": 28,
    "prefecture": "兵庫県",
    "city": "豊岡市",
    "town": "一日市"
  },
  "6680016": {
    "zipcode": "6680016",
    "prefectureCode": "28",
    "prefectureNumber": 28,
    "prefecture": "兵庫県",
    "city": "豊岡市",
    "town": "宮島"
  },
  "6680021": {
    "zipcode": "6680021",
    "prefectureCode": "28",
    "prefectureNumber": 28,
    "prefecture": "兵庫県",
    "city": "豊岡市",
    "town": "泉町"
  },
  "6680022": {
    "zipcode": "6680022",
    "prefectureCode": "28",
    "prefectureNumber": 28,
    "prefecture": "兵庫県",
    "city": "豊岡市",
    "town": "小田井町"
  },
  "6680023": {
    "zipcode": "6680023",
    "prefectureCode": "28",
    "prefectureNumber": 28,
    "prefecture": "兵庫県",
    "city": "豊岡市",
    "town": "加広町"
  },
  "6680024": {
    "zipcode": "6680024",
    "prefectureCode": "28",
    "prefectureNumber": 28,
    "prefecture": "兵庫県",
    "city": "豊岡市",
    "town": "寿町"
  },
  "6680025": {
    "zipcode": "6680025",
    "prefectureCode": "28",
    "prefectureNumber": 28,
    "prefecture": "兵庫県",
    "city": "豊岡市",
    "town": "幸町"
  },
  "6680026": {
    "zipcode": "6680026",
    "prefectureCode": "28",
    "prefectureNumber": 28,
    "prefecture": "兵庫県",
    "city": "豊岡市",
    "town": "元町"
  },
  "6680027": {
    "zipcode": "6680027",
    "prefectureCode": "28",
    "prefectureNumber": 28,
    "prefecture": "兵庫県",
    "city": "豊岡市",
    "town": "若松町"
  },
  "6680031": {
    "zipcode": "6680031",
    "prefectureCode": "28",
    "prefectureNumber": 28,
    "prefecture": "兵庫県",
    "city": "豊岡市",
    "town": "大手町"
  },
  "6680032": {
    "zipcode": "6680032",
    "prefectureCode": "28",
    "prefectureNumber": 28,
    "prefecture": "兵庫県",
    "city": "豊岡市",
    "town": "千代田町"
  },
  "6680033": {
    "zipcode": "6680033",
    "prefectureCode": "28",
    "prefectureNumber": 28,
    "prefecture": "兵庫県",
    "city": "豊岡市",
    "town": "中央町"
  },
  "6680041": {
    "zipcode": "6680041",
    "prefectureCode": "28",
    "prefectureNumber": 28,
    "prefecture": "兵庫県",
    "city": "豊岡市",
    "town": "大磯町"
  },
  "6680042": {
    "zipcode": "6680042",
    "prefectureCode": "28",
    "prefectureNumber": 28,
    "prefecture": "兵庫県",
    "city": "豊岡市",
    "town": "京町"
  },
  "6680043": {
    "zipcode": "6680043",
    "prefectureCode": "28",
    "prefectureNumber": 28,
    "prefecture": "兵庫県",
    "city": "豊岡市",
    "town": "桜町"
  },
  "6680044": {
    "zipcode": "6680044",
    "prefectureCode": "28",
    "prefectureNumber": 28,
    "prefecture": "兵庫県",
    "city": "豊岡市",
    "town": "山王町"
  },
  "6680045": {
    "zipcode": "6680045",
    "prefectureCode": "28",
    "prefectureNumber": 28,
    "prefecture": "兵庫県",
    "city": "豊岡市",
    "town": "城南町"
  },
  "6680046": {
    "zipcode": "6680046",
    "prefectureCode": "28",
    "prefectureNumber": 28,
    "prefecture": "兵庫県",
    "city": "豊岡市",
    "town": "立野町"
  },
  "6680047": {
    "zipcode": "6680047",
    "prefectureCode": "28",
    "prefectureNumber": 28,
    "prefecture": "兵庫県",
    "city": "豊岡市",
    "town": "三坂町"
  },
  "6680051": {
    "zipcode": "6680051",
    "prefectureCode": "28",
    "prefectureNumber": 28,
    "prefecture": "兵庫県",
    "city": "豊岡市",
    "town": "九日市上町"
  },
  "6680052": {
    "zipcode": "6680052",
    "prefectureCode": "28",
    "prefectureNumber": 28,
    "prefecture": "兵庫県",
    "city": "豊岡市",
    "town": "九日市下町"
  },
  "6680053": {
    "zipcode": "6680053",
    "prefectureCode": "28",
    "prefectureNumber": 28,
    "prefecture": "兵庫県",
    "city": "豊岡市",
    "town": "九日市中町"
  },
  "6680054": {
    "zipcode": "6680054",
    "prefectureCode": "28",
    "prefectureNumber": 28,
    "prefecture": "兵庫県",
    "city": "豊岡市",
    "town": "塩津町"
  },
  "6680055": {
    "zipcode": "6680055",
    "prefectureCode": "28",
    "prefectureNumber": 28,
    "prefecture": "兵庫県",
    "city": "豊岡市",
    "town": "昭和町"
  },
  "6680056": {
    "zipcode": "6680056",
    "prefectureCode": "28",
    "prefectureNumber": 28,
    "prefecture": "兵庫県",
    "city": "豊岡市",
    "town": "妙楽寺"
  },
  "6680057": {
    "zipcode": "6680057",
    "prefectureCode": "28",
    "prefectureNumber": 28,
    "prefecture": "兵庫県",
    "city": "豊岡市",
    "town": "弥栄町"
  },
  "6680061": {
    "zipcode": "6680061",
    "prefectureCode": "28",
    "prefectureNumber": 28,
    "prefecture": "兵庫県",
    "city": "豊岡市",
    "town": "上佐野"
  },
  "6680062": {
    "zipcode": "6680062",
    "prefectureCode": "28",
    "prefectureNumber": 28,
    "prefecture": "兵庫県",
    "city": "豊岡市",
    "town": "佐野"
  },
  "6680063": {
    "zipcode": "6680063",
    "prefectureCode": "28",
    "prefectureNumber": 28,
    "prefecture": "兵庫県",
    "city": "豊岡市",
    "town": "正法寺"
  },
  "6680064": {
    "zipcode": "6680064",
    "prefectureCode": "28",
    "prefectureNumber": 28,
    "prefecture": "兵庫県",
    "city": "豊岡市",
    "town": "高屋"
  },
  "6680065": {
    "zipcode": "6680065",
    "prefectureCode": "28",
    "prefectureNumber": 28,
    "prefecture": "兵庫県",
    "city": "豊岡市",
    "town": "戸牧"
  },
  "6680071": {
    "zipcode": "6680071",
    "prefectureCode": "28",
    "prefectureNumber": 28,
    "prefecture": "兵庫県",
    "city": "豊岡市",
    "town": "内町"
  },
  "6680072": {
    "zipcode": "6680072",
    "prefectureCode": "28",
    "prefectureNumber": 28,
    "prefecture": "兵庫県",
    "city": "豊岡市",
    "town": "大谷"
  },
  "6680073": {
    "zipcode": "6680073",
    "prefectureCode": "28",
    "prefectureNumber": 28,
    "prefecture": "兵庫県",
    "city": "豊岡市",
    "town": "辻"
  },
  "6680074": {
    "zipcode": "6680074",
    "prefectureCode": "28",
    "prefectureNumber": 28,
    "prefecture": "兵庫県",
    "city": "豊岡市",
    "town": "野垣"
  },
  "6680075": {
    "zipcode": "6680075",
    "prefectureCode": "28",
    "prefectureNumber": 28,
    "prefecture": "兵庫県",
    "city": "豊岡市",
    "town": "福成寺"
  },
  "6680076": {
    "zipcode": "6680076",
    "prefectureCode": "28",
    "prefectureNumber": 28,
    "prefecture": "兵庫県",
    "city": "豊岡市",
    "town": "船谷"
  },
  "6680077": {
    "zipcode": "6680077",
    "prefectureCode": "28",
    "prefectureNumber": 28,
    "prefecture": "兵庫県",
    "city": "豊岡市",
    "town": "目坂"
  },
  "6680078": {
    "zipcode": "6680078",
    "prefectureCode": "28",
    "prefectureNumber": 28,
    "prefecture": "兵庫県",
    "city": "豊岡市",
    "town": "吉井"
  },
  "6680081": {
    "zipcode": "6680081",
    "prefectureCode": "28",
    "prefectureNumber": 28,
    "prefecture": "兵庫県",
    "city": "豊岡市",
    "town": "岩井"
  },
  "6680082": {
    "zipcode": "6680082",
    "prefectureCode": "28",
    "prefectureNumber": 28,
    "prefecture": "兵庫県",
    "city": "豊岡市",
    "town": "庄"
  },
  "6680083": {
    "zipcode": "6680083",
    "prefectureCode": "28",
    "prefectureNumber": 28,
    "prefecture": "兵庫県",
    "city": "豊岡市",
    "town": "栃江"
  },
  "6680084": {
    "zipcode": "6680084",
    "prefectureCode": "28",
    "prefectureNumber": 28,
    "prefecture": "兵庫県",
    "city": "豊岡市",
    "town": "福田"
  },
  "6680085": {
    "zipcode": "6680085",
    "prefectureCode": "28",
    "prefectureNumber": 28,
    "prefecture": "兵庫県",
    "city": "豊岡市",
    "town": "宮井"
  },
  "6680201": {
    "zipcode": "6680201",
    "prefectureCode": "28",
    "prefectureNumber": 28,
    "prefecture": "兵庫県",
    "city": "豊岡市",
    "town": "出石町奥小野"
  },
  "6680202": {
    "zipcode": "6680202",
    "prefectureCode": "28",
    "prefectureNumber": 28,
    "prefecture": "兵庫県",
    "city": "豊岡市",
    "town": "出石町口小野"
  },
  "6680203": {
    "zipcode": "6680203",
    "prefectureCode": "28",
    "prefectureNumber": 28,
    "prefecture": "兵庫県",
    "city": "豊岡市",
    "town": "出石町袴狭"
  },
  "6680204": {
    "zipcode": "6680204",
    "prefectureCode": "28",
    "prefectureNumber": 28,
    "prefecture": "兵庫県",
    "city": "豊岡市",
    "town": "出石町宮内"
  },
  "6680205": {
    "zipcode": "6680205",
    "prefectureCode": "28",
    "prefectureNumber": 28,
    "prefecture": "兵庫県",
    "city": "豊岡市",
    "town": "出石町嶋"
  },
  "6680206": {
    "zipcode": "6680206",
    "prefectureCode": "28",
    "prefectureNumber": 28,
    "prefecture": "兵庫県",
    "city": "豊岡市",
    "town": "出石町福居"
  },
  "6680207": {
    "zipcode": "6680207",
    "prefectureCode": "28",
    "prefectureNumber": 28,
    "prefecture": "兵庫県",
    "city": "豊岡市",
    "town": "出石町伊豆"
  },
  "6680208": {
    "zipcode": "6680208",
    "prefectureCode": "28",
    "prefectureNumber": 28,
    "prefecture": "兵庫県",
    "city": "豊岡市",
    "town": "出石町安良"
  },
  "6680209": {
    "zipcode": "6680209",
    "prefectureCode": "28",
    "prefectureNumber": 28,
    "prefecture": "兵庫県",
    "city": "豊岡市",
    "town": "出石町田多地"
  },
  "6680211": {
    "zipcode": "6680211",
    "prefectureCode": "28",
    "prefectureNumber": 28,
    "prefecture": "兵庫県",
    "city": "豊岡市",
    "town": "出石町下谷"
  },
  "6680212": {
    "zipcode": "6680212",
    "prefectureCode": "28",
    "prefectureNumber": 28,
    "prefecture": "兵庫県",
    "city": "豊岡市",
    "town": "出石町谷山"
  },
  "6680213": {
    "zipcode": "6680213",
    "prefectureCode": "28",
    "prefectureNumber": 28,
    "prefecture": "兵庫県",
    "city": "豊岡市",
    "town": "出石町伊木"
  },
  "6680214": {
    "zipcode": "6680214",
    "prefectureCode": "28",
    "prefectureNumber": 28,
    "prefecture": "兵庫県",
    "city": "豊岡市",
    "town": "出石町内町"
  },
  "6680215": {
    "zipcode": "6680215",
    "prefectureCode": "28",
    "prefectureNumber": 28,
    "prefecture": "兵庫県",
    "city": "豊岡市",
    "town": "出石町魚屋"
  },
  "6680216": {
    "zipcode": "6680216",
    "prefectureCode": "28",
    "prefectureNumber": 28,
    "prefecture": "兵庫県",
    "city": "豊岡市",
    "town": "出石町材木"
  },
  "6680217": {
    "zipcode": "6680217",
    "prefectureCode": "28",
    "prefectureNumber": 28,
    "prefecture": "兵庫県",
    "city": "豊岡市",
    "town": "出石町東條"
  },
  "6680218": {
    "zipcode": "6680218",
    "prefectureCode": "28",
    "prefectureNumber": 28,
    "prefecture": "兵庫県",
    "city": "豊岡市",
    "town": "出石町入佐"
  },
  "6680221": {
    "zipcode": "6680221",
    "prefectureCode": "28",
    "prefectureNumber": 28,
    "prefecture": "兵庫県",
    "city": "豊岡市",
    "town": "出石町町分"
  },
  "6680222": {
    "zipcode": "6680222",
    "prefectureCode": "28",
    "prefectureNumber": 28,
    "prefecture": "兵庫県",
    "city": "豊岡市",
    "town": "出石町寺町"
  },
  "6680223": {
    "zipcode": "6680223",
    "prefectureCode": "28",
    "prefectureNumber": 28,
    "prefecture": "兵庫県",
    "city": "豊岡市",
    "town": "出石町鉄砲"
  },
  "6680224": {
    "zipcode": "6680224",
    "prefectureCode": "28",
    "prefectureNumber": 28,
    "prefecture": "兵庫県",
    "city": "豊岡市",
    "town": "出石町本町"
  },
  "6680225": {
    "zipcode": "6680225",
    "prefectureCode": "28",
    "prefectureNumber": 28,
    "prefecture": "兵庫県",
    "city": "豊岡市",
    "town": "出石町八木"
  },
  "6680231": {
    "zipcode": "6680231",
    "prefectureCode": "28",
    "prefectureNumber": 28,
    "prefecture": "兵庫県",
    "city": "豊岡市",
    "town": "出石町川原"
  },
  "6680232": {
    "zipcode": "6680232",
    "prefectureCode": "28",
    "prefectureNumber": 28,
    "prefecture": "兵庫県",
    "city": "豊岡市",
    "town": "出石町宵田"
  },
  "6680233": {
    "zipcode": "6680233",
    "prefectureCode": "28",
    "prefectureNumber": 28,
    "prefecture": "兵庫県",
    "city": "豊岡市",
    "town": "出石町田結庄"
  },
  "6680234": {
    "zipcode": "6680234",
    "prefectureCode": "28",
    "prefectureNumber": 28,
    "prefecture": "兵庫県",
    "city": "豊岡市",
    "town": "出石町柳"
  },
  "6680235": {
    "zipcode": "6680235",
    "prefectureCode": "28",
    "prefectureNumber": 28,
    "prefecture": "兵庫県",
    "city": "豊岡市",
    "town": "出石町鍛冶屋"
  },
  "6680236": {
    "zipcode": "6680236",
    "prefectureCode": "28",
    "prefectureNumber": 28,
    "prefecture": "兵庫県",
    "city": "豊岡市",
    "town": "出石町松枝"
  },
  "6680237": {
    "zipcode": "6680237",
    "prefectureCode": "28",
    "prefectureNumber": 28,
    "prefecture": "兵庫県",
    "city": "豊岡市",
    "town": "出石町馬場"
  },
  "6680238": {
    "zipcode": "6680238",
    "prefectureCode": "28",
    "prefectureNumber": 28,
    "prefecture": "兵庫県",
    "city": "豊岡市",
    "town": "出石町弘原"
  },
  "6680241": {
    "zipcode": "6680241",
    "prefectureCode": "28",
    "prefectureNumber": 28,
    "prefecture": "兵庫県",
    "city": "豊岡市",
    "town": "出石町寺坂"
  },
  "6680242": {
    "zipcode": "6680242",
    "prefectureCode": "28",
    "prefectureNumber": 28,
    "prefecture": "兵庫県",
    "city": "豊岡市",
    "town": "出石町桐野"
  },
  "6680243": {
    "zipcode": "6680243",
    "prefectureCode": "28",
    "prefectureNumber": 28,
    "prefecture": "兵庫県",
    "city": "豊岡市",
    "town": "出石町中野"
  },
  "6680244": {
    "zipcode": "6680244",
    "prefectureCode": "28",
    "prefectureNumber": 28,
    "prefecture": "兵庫県",
    "city": "豊岡市",
    "town": "出石町上野"
  },
  "6680245": {
    "zipcode": "6680245",
    "prefectureCode": "28",
    "prefectureNumber": 28,
    "prefecture": "兵庫県",
    "city": "豊岡市",
    "town": "出石町百合"
  },
  "6680246": {
    "zipcode": "6680246",
    "prefectureCode": "28",
    "prefectureNumber": 28,
    "prefecture": "兵庫県",
    "city": "豊岡市",
    "town": "出石町日野辺"
  },
  "6680251": {
    "zipcode": "6680251",
    "prefectureCode": "28",
    "prefectureNumber": 28,
    "prefecture": "兵庫県",
    "city": "豊岡市",
    "town": "出石町奥山"
  },
  "6680252": {
    "zipcode": "6680252",
    "prefectureCode": "28",
    "prefectureNumber": 28,
    "prefecture": "兵庫県",
    "city": "豊岡市",
    "town": "出石町和屋"
  },
  "6680253": {
    "zipcode": "6680253",
    "prefectureCode": "28",
    "prefectureNumber": 28,
    "prefecture": "兵庫県",
    "city": "豊岡市",
    "town": "出石町榎見"
  },
  "6680254": {
    "zipcode": "6680254",
    "prefectureCode": "28",
    "prefectureNumber": 28,
    "prefecture": "兵庫県",
    "city": "豊岡市",
    "town": "出石町中村"
  },
  "6680255": {
    "zipcode": "6680255",
    "prefectureCode": "28",
    "prefectureNumber": 28,
    "prefecture": "兵庫県",
    "city": "豊岡市",
    "town": "出石町上村"
  },
  "6680256": {
    "zipcode": "6680256",
    "prefectureCode": "28",
    "prefectureNumber": 28,
    "prefecture": "兵庫県",
    "city": "豊岡市",
    "town": "出石町小人"
  },
  "6680257": {
    "zipcode": "6680257",
    "prefectureCode": "28",
    "prefectureNumber": 28,
    "prefecture": "兵庫県",
    "city": "豊岡市",
    "town": "出石町坪口"
  },
  "6680261": {
    "zipcode": "6680261",
    "prefectureCode": "28",
    "prefectureNumber": 28,
    "prefecture": "兵庫県",
    "city": "豊岡市",
    "town": "出石町荒木"
  },
  "6680262": {
    "zipcode": "6680262",
    "prefectureCode": "28",
    "prefectureNumber": 28,
    "prefecture": "兵庫県",
    "city": "豊岡市",
    "town": "出石町細見"
  },
  "6680263": {
    "zipcode": "6680263",
    "prefectureCode": "28",
    "prefectureNumber": 28,
    "prefecture": "兵庫県",
    "city": "豊岡市",
    "town": "出石町福住"
  },
  "6680264": {
    "zipcode": "6680264",
    "prefectureCode": "28",
    "prefectureNumber": 28,
    "prefecture": "兵庫県",
    "city": "豊岡市",
    "town": "出石町暮坂"
  },
  "6680265": {
    "zipcode": "6680265",
    "prefectureCode": "28",
    "prefectureNumber": 28,
    "prefecture": "兵庫県",
    "city": "豊岡市",
    "town": "出石町福見"
  },
  "6680266": {
    "zipcode": "6680266",
    "prefectureCode": "28",
    "prefectureNumber": 28,
    "prefecture": "兵庫県",
    "city": "豊岡市",
    "town": "出石町平田"
  },
  "6680271": {
    "zipcode": "6680271",
    "prefectureCode": "28",
    "prefectureNumber": 28,
    "prefecture": "兵庫県",
    "city": "豊岡市",
    "town": "出石町大谷"
  },
  "6680272": {
    "zipcode": "6680272",
    "prefectureCode": "28",
    "prefectureNumber": 28,
    "prefecture": "兵庫県",
    "city": "豊岡市",
    "town": "出石町鳥居"
  },
  "6680273": {
    "zipcode": "6680273",
    "prefectureCode": "28",
    "prefectureNumber": 28,
    "prefecture": "兵庫県",
    "city": "豊岡市",
    "town": "出石町坪井"
  },
  "6680274": {
    "zipcode": "6680274",
    "prefectureCode": "28",
    "prefectureNumber": 28,
    "prefecture": "兵庫県",
    "city": "豊岡市",
    "town": "出石町水上"
  },
  "6680275": {
    "zipcode": "6680275",
    "prefectureCode": "28",
    "prefectureNumber": 28,
    "prefecture": "兵庫県",
    "city": "豊岡市",
    "town": "出石町長砂"
  },
  "6680276": {
    "zipcode": "6680276",
    "prefectureCode": "28",
    "prefectureNumber": 28,
    "prefecture": "兵庫県",
    "city": "豊岡市",
    "town": "出石町森井"
  },
  "6680277": {
    "zipcode": "6680277",
    "prefectureCode": "28",
    "prefectureNumber": 28,
    "prefecture": "兵庫県",
    "city": "豊岡市",
    "town": "出石町丸中"
  },
  "6680278": {
    "zipcode": "6680278",
    "prefectureCode": "28",
    "prefectureNumber": 28,
    "prefecture": "兵庫県",
    "city": "豊岡市",
    "town": "出石町三木"
  },
  "6680279": {
    "zipcode": "6680279",
    "prefectureCode": "28",
    "prefectureNumber": 28,
    "prefecture": "兵庫県",
    "city": "豊岡市",
    "town": "出石町片間"
  },
  "6680301": {
    "zipcode": "6680301",
    "prefectureCode": "28",
    "prefectureNumber": 28,
    "prefecture": "兵庫県",
    "city": "豊岡市",
    "town": "但東町奥矢根"
  },
  "6680302": {
    "zipcode": "6680302",
    "prefectureCode": "28",
    "prefectureNumber": 28,
    "prefecture": "兵庫県",
    "city": "豊岡市",
    "town": "但東町矢根"
  },
  "6680303": {
    "zipcode": "6680303",
    "prefectureCode": "28",
    "prefectureNumber": 28,
    "prefecture": "兵庫県",
    "city": "豊岡市",
    "town": "但東町畑"
  },
  "6680304": {
    "zipcode": "6680304",
    "prefectureCode": "28",
    "prefectureNumber": 28,
    "prefecture": "兵庫県",
    "city": "豊岡市",
    "town": "但東町水石"
  },
  "6680311": {
    "zipcode": "6680311",
    "prefectureCode": "28",
    "prefectureNumber": 28,
    "prefecture": "兵庫県",
    "city": "豊岡市",
    "town": "但東町出合"
  },
  "6680312": {
    "zipcode": "6680312",
    "prefectureCode": "28",
    "prefectureNumber": 28,
    "prefecture": "兵庫県",
    "city": "豊岡市",
    "town": "但東町南尾"
  },
  "6680313": {
    "zipcode": "6680313",
    "prefectureCode": "28",
    "prefectureNumber": 28,
    "prefecture": "兵庫県",
    "city": "豊岡市",
    "town": "但東町出合市場"
  },
  "6680314": {
    "zipcode": "6680314",
    "prefectureCode": "28",
    "prefectureNumber": 28,
    "prefecture": "兵庫県",
    "city": "豊岡市",
    "town": "但東町日殿"
  },
  "6680315": {
    "zipcode": "6680315",
    "prefectureCode": "28",
    "prefectureNumber": 28,
    "prefecture": "兵庫県",
    "city": "豊岡市",
    "town": "但東町河本"
  },
  "6680316": {
    "zipcode": "6680316",
    "prefectureCode": "28",
    "prefectureNumber": 28,
    "prefecture": "兵庫県",
    "city": "豊岡市",
    "town": "但東町天谷"
  },
  "6680317": {
    "zipcode": "6680317",
    "prefectureCode": "28",
    "prefectureNumber": 28,
    "prefecture": "兵庫県",
    "city": "豊岡市",
    "town": "但東町西谷"
  },
  "6680321": {
    "zipcode": "6680321",
    "prefectureCode": "28",
    "prefectureNumber": 28,
    "prefecture": "兵庫県",
    "city": "豊岡市",
    "town": "但東町唐川"
  },
  "6680322": {
    "zipcode": "6680322",
    "prefectureCode": "28",
    "prefectureNumber": 28,
    "prefecture": "兵庫県",
    "city": "豊岡市",
    "town": "但東町三原"
  },
  "6680323": {
    "zipcode": "6680323",
    "prefectureCode": "28",
    "prefectureNumber": 28,
    "prefecture": "兵庫県",
    "city": "豊岡市",
    "town": "但東町小谷"
  },
  "6680324": {
    "zipcode": "6680324",
    "prefectureCode": "28",
    "prefectureNumber": 28,
    "prefecture": "兵庫県",
    "city": "豊岡市",
    "town": "但東町相田"
  },
  "6680325": {
    "zipcode": "6680325",
    "prefectureCode": "28",
    "prefectureNumber": 28,
    "prefecture": "兵庫県",
    "city": "豊岡市",
    "town": "但東町佐々木"
  },
  "6680331": {
    "zipcode": "6680331",
    "prefectureCode": "28",
    "prefectureNumber": 28,
    "prefecture": "兵庫県",
    "city": "豊岡市",
    "town": "但東町木村"
  },
  "6680332": {
    "zipcode": "6680332",
    "prefectureCode": "28",
    "prefectureNumber": 28,
    "prefecture": "兵庫県",
    "city": "豊岡市",
    "town": "但東町西野々"
  },
  "6680333": {
    "zipcode": "6680333",
    "prefectureCode": "28",
    "prefectureNumber": 28,
    "prefecture": "兵庫県",
    "city": "豊岡市",
    "town": "但東町高龍寺"
  },
  "6680334": {
    "zipcode": "6680334",
    "prefectureCode": "28",
    "prefectureNumber": 28,
    "prefecture": "兵庫県",
    "city": "豊岡市",
    "town": "但東町坂野"
  },
  "6680335": {
    "zipcode": "6680335",
    "prefectureCode": "28",
    "prefectureNumber": 28,
    "prefecture": "兵庫県",
    "city": "豊岡市",
    "town": "但東町太田"
  },
  "6680336": {
    "zipcode": "6680336",
    "prefectureCode": "28",
    "prefectureNumber": 28,
    "prefecture": "兵庫県",
    "city": "豊岡市",
    "town": "但東町日向"
  },
  "6680337": {
    "zipcode": "6680337",
    "prefectureCode": "28",
    "prefectureNumber": 28,
    "prefecture": "兵庫県",
    "city": "豊岡市",
    "town": "但東町東里"
  },
  "6680341": {
    "zipcode": "6680341",
    "prefectureCode": "28",
    "prefectureNumber": 28,
    "prefecture": "兵庫県",
    "city": "豊岡市",
    "town": "但東町口藤"
  },
  "6680342": {
    "zipcode": "6680342",
    "prefectureCode": "28",
    "prefectureNumber": 28,
    "prefecture": "兵庫県",
    "city": "豊岡市",
    "town": "但東町中藤"
  },
  "6680343": {
    "zipcode": "6680343",
    "prefectureCode": "28",
    "prefectureNumber": 28,
    "prefecture": "兵庫県",
    "city": "豊岡市",
    "town": "但東町奥藤"
  },
  "6680344": {
    "zipcode": "6680344",
    "prefectureCode": "28",
    "prefectureNumber": 28,
    "prefecture": "兵庫県",
    "city": "豊岡市",
    "town": "但東町虫生"
  },
  "6680345": {
    "zipcode": "6680345",
    "prefectureCode": "28",
    "prefectureNumber": 28,
    "prefecture": "兵庫県",
    "city": "豊岡市",
    "town": "但東町中山"
  },
  "6680351": {
    "zipcode": "6680351",
    "prefectureCode": "28",
    "prefectureNumber": 28,
    "prefecture": "兵庫県",
    "city": "豊岡市",
    "town": "但東町畑山"
  },
  "6680352": {
    "zipcode": "6680352",
    "prefectureCode": "28",
    "prefectureNumber": 28,
    "prefecture": "兵庫県",
    "city": "豊岡市",
    "town": "但東町赤花"
  },
  "6680353": {
    "zipcode": "6680353",
    "prefectureCode": "28",
    "prefectureNumber": 28,
    "prefecture": "兵庫県",
    "city": "豊岡市",
    "town": "但東町奥赤"
  },
  "6680354": {
    "zipcode": "6680354",
    "prefectureCode": "28",
    "prefectureNumber": 28,
    "prefecture": "兵庫県",
    "city": "豊岡市",
    "town": "但東町坂津"
  },
  "6680361": {
    "zipcode": "6680361",
    "prefectureCode": "28",
    "prefectureNumber": 28,
    "prefecture": "兵庫県",
    "city": "豊岡市",
    "town": "但東町正法寺"
  },
  "6680362": {
    "zipcode": "6680362",
    "prefectureCode": "28",
    "prefectureNumber": 28,
    "prefecture": "兵庫県",
    "city": "豊岡市",
    "town": "但東町平田"
  },
  "6680363": {
    "zipcode": "6680363",
    "prefectureCode": "28",
    "prefectureNumber": 28,
    "prefecture": "兵庫県",
    "city": "豊岡市",
    "town": "但東町栗尾"
  },
  "6680364": {
    "zipcode": "6680364",
    "prefectureCode": "28",
    "prefectureNumber": 28,
    "prefecture": "兵庫県",
    "city": "豊岡市",
    "town": "但東町佐田"
  },
  "6680371": {
    "zipcode": "6680371",
    "prefectureCode": "28",
    "prefectureNumber": 28,
    "prefecture": "兵庫県",
    "city": "豊岡市",
    "town": "但東町薬王寺"
  },
  "6680372": {
    "zipcode": "6680372",
    "prefectureCode": "28",
    "prefectureNumber": 28,
    "prefecture": "兵庫県",
    "city": "豊岡市",
    "town": "但東町大河内"
  },
  "6680373": {
    "zipcode": "6680373",
    "prefectureCode": "28",
    "prefectureNumber": 28,
    "prefecture": "兵庫県",
    "city": "豊岡市",
    "town": "但東町久畑"
  },
  "6680374": {
    "zipcode": "6680374",
    "prefectureCode": "28",
    "prefectureNumber": 28,
    "prefecture": "兵庫県",
    "city": "豊岡市",
    "town": "但東町後"
  },
  "6680375": {
    "zipcode": "6680375",
    "prefectureCode": "28",
    "prefectureNumber": 28,
    "prefecture": "兵庫県",
    "city": "豊岡市",
    "town": "但東町東中"
  },
  "6680376": {
    "zipcode": "6680376",
    "prefectureCode": "28",
    "prefectureNumber": 28,
    "prefecture": "兵庫県",
    "city": "豊岡市",
    "town": "但東町小坂"
  },
  "6680801": {
    "zipcode": "6680801",
    "prefectureCode": "28",
    "prefectureNumber": 28,
    "prefecture": "兵庫県",
    "city": "豊岡市",
    "town": "赤石"
  },
  "6680802": {
    "zipcode": "6680802",
    "prefectureCode": "28",
    "prefectureNumber": 28,
    "prefecture": "兵庫県",
    "city": "豊岡市",
    "town": "金剛寺"
  },
  "6680803": {
    "zipcode": "6680803",
    "prefectureCode": "28",
    "prefectureNumber": 28,
    "prefecture": "兵庫県",
    "city": "豊岡市",
    "town": "下鶴井"
  },
  "6680804": {
    "zipcode": "6680804",
    "prefectureCode": "28",
    "prefectureNumber": 28,
    "prefecture": "兵庫県",
    "city": "豊岡市",
    "town": "野上"
  },
  "6680805": {
    "zipcode": "6680805",
    "prefectureCode": "28",
    "prefectureNumber": 28,
    "prefecture": "兵庫県",
    "city": "豊岡市",
    "town": "船町"
  },
  "6680806": {
    "zipcode": "6680806",
    "prefectureCode": "28",
    "prefectureNumber": 28,
    "prefecture": "兵庫県",
    "city": "豊岡市",
    "town": "森"
  },
  "6680807": {
    "zipcode": "6680807",
    "prefectureCode": "28",
    "prefectureNumber": 28,
    "prefecture": "兵庫県",
    "city": "豊岡市",
    "town": "山本"
  },
  "6680811": {
    "zipcode": "6680811",
    "prefectureCode": "28",
    "prefectureNumber": 28,
    "prefecture": "兵庫県",
    "city": "豊岡市",
    "town": "鎌田"
  },
  "6680812": {
    "zipcode": "6680812",
    "prefectureCode": "28",
    "prefectureNumber": 28,
    "prefecture": "兵庫県",
    "city": "豊岡市",
    "town": "栄町"
  },
  "6680813": {
    "zipcode": "6680813",
    "prefectureCode": "28",
    "prefectureNumber": 28,
    "prefecture": "兵庫県",
    "city": "豊岡市",
    "town": "下宮"
  },
  "6680814": {
    "zipcode": "6680814",
    "prefectureCode": "28",
    "prefectureNumber": 28,
    "prefecture": "兵庫県",
    "city": "豊岡市",
    "town": "祥雲寺"
  },
  "6680815": {
    "zipcode": "6680815",
    "prefectureCode": "28",
    "prefectureNumber": 28,
    "prefecture": "兵庫県",
    "city": "豊岡市",
    "town": "日撫"
  },
  "6680816": {
    "zipcode": "6680816",
    "prefectureCode": "28",
    "prefectureNumber": 28,
    "prefecture": "兵庫県",
    "city": "豊岡市",
    "town": "法花寺"
  },
  "6680817": {
    "zipcode": "6680817",
    "prefectureCode": "28",
    "prefectureNumber": 28,
    "prefecture": "兵庫県",
    "city": "豊岡市",
    "town": "六地蔵"
  },
  "6680821": {
    "zipcode": "6680821",
    "prefectureCode": "28",
    "prefectureNumber": 28,
    "prefecture": "兵庫県",
    "city": "豊岡市",
    "town": "市場"
  },
  "6680822": {
    "zipcode": "6680822",
    "prefectureCode": "28",
    "prefectureNumber": 28,
    "prefecture": "兵庫県",
    "city": "豊岡市",
    "town": "奥野"
  },
  "6680823": {
    "zipcode": "6680823",
    "prefectureCode": "28",
    "prefectureNumber": 28,
    "prefecture": "兵庫県",
    "city": "豊岡市",
    "town": "三宅"
  },
  "6680824": {
    "zipcode": "6680824",
    "prefectureCode": "28",
    "prefectureNumber": 28,
    "prefecture": "兵庫県",
    "city": "豊岡市",
    "town": "森尾"
  },
  "6680831": {
    "zipcode": "6680831",
    "prefectureCode": "28",
    "prefectureNumber": 28,
    "prefecture": "兵庫県",
    "city": "豊岡市",
    "town": "神美台"
  },
  "6680832": {
    "zipcode": "6680832",
    "prefectureCode": "28",
    "prefectureNumber": 28,
    "prefecture": "兵庫県",
    "city": "豊岡市",
    "town": "倉見"
  },
  "6680833": {
    "zipcode": "6680833",
    "prefectureCode": "28",
    "prefectureNumber": 28,
    "prefecture": "兵庫県",
    "city": "豊岡市",
    "town": "立石"
  },
  "6680834": {
    "zipcode": "6680834",
    "prefectureCode": "28",
    "prefectureNumber": 28,
    "prefecture": "兵庫県",
    "city": "豊岡市",
    "town": "長谷"
  },
  "6680841": {
    "zipcode": "6680841",
    "prefectureCode": "28",
    "prefectureNumber": 28,
    "prefecture": "兵庫県",
    "city": "豊岡市",
    "town": "加陽"
  },
  "6680842": {
    "zipcode": "6680842",
    "prefectureCode": "28",
    "prefectureNumber": 28,
    "prefecture": "兵庫県",
    "city": "豊岡市",
    "town": "中郷"
  },
  "6680843": {
    "zipcode": "6680843",
    "prefectureCode": "28",
    "prefectureNumber": 28,
    "prefecture": "兵庫県",
    "city": "豊岡市",
    "town": "引野"
  },
  "6680844": {
    "zipcode": "6680844",
    "prefectureCode": "28",
    "prefectureNumber": 28,
    "prefecture": "兵庫県",
    "city": "豊岡市",
    "town": "土渕"
  },
  "6680851": {
    "zipcode": "6680851",
    "prefectureCode": "28",
    "prefectureNumber": 28,
    "prefecture": "兵庫県",
    "city": "豊岡市",
    "town": "今森"
  },
  "6680852": {
    "zipcode": "6680852",
    "prefectureCode": "28",
    "prefectureNumber": 28,
    "prefecture": "兵庫県",
    "city": "豊岡市",
    "town": "江本"
  },
  "6680853": {
    "zipcode": "6680853",
    "prefectureCode": "28",
    "prefectureNumber": 28,
    "prefecture": "兵庫県",
    "city": "豊岡市",
    "town": "清冷寺"
  },
  "6680854": {
    "zipcode": "6680854",
    "prefectureCode": "28",
    "prefectureNumber": 28,
    "prefecture": "兵庫県",
    "city": "豊岡市",
    "town": "八社宮"
  },
  "6680855": {
    "zipcode": "6680855",
    "prefectureCode": "28",
    "prefectureNumber": 28,
    "prefecture": "兵庫県",
    "city": "豊岡市",
    "town": "伏"
  },
  "6680861": {
    "zipcode": "6680861",
    "prefectureCode": "28",
    "prefectureNumber": 28,
    "prefecture": "兵庫県",
    "city": "豊岡市",
    "town": "大篠岡"
  },
  "6680862": {
    "zipcode": "6680862",
    "prefectureCode": "28",
    "prefectureNumber": 28,
    "prefecture": "兵庫県",
    "city": "豊岡市",
    "town": "香住"
  },
  "6680863": {
    "zipcode": "6680863",
    "prefectureCode": "28",
    "prefectureNumber": 28,
    "prefecture": "兵庫県",
    "city": "豊岡市",
    "town": "上鉢山"
  },
  "6680864": {
    "zipcode": "6680864",
    "prefectureCode": "28",
    "prefectureNumber": 28,
    "prefecture": "兵庫県",
    "city": "豊岡市",
    "town": "木内"
  },
  "6680865": {
    "zipcode": "6680865",
    "prefectureCode": "28",
    "prefectureNumber": 28,
    "prefecture": "兵庫県",
    "city": "豊岡市",
    "town": "下鉢山"
  },
  "6680866": {
    "zipcode": "6680866",
    "prefectureCode": "28",
    "prefectureNumber": 28,
    "prefecture": "兵庫県",
    "city": "豊岡市",
    "town": "駄坂"
  },
  "6680871": {
    "zipcode": "6680871",
    "prefectureCode": "28",
    "prefectureNumber": 28,
    "prefecture": "兵庫県",
    "city": "豊岡市",
    "town": "梶原"
  },
  "6680872": {
    "zipcode": "6680872",
    "prefectureCode": "28",
    "prefectureNumber": 28,
    "prefecture": "兵庫県",
    "city": "豊岡市",
    "town": "河谷"
  },
  "6680873": {
    "zipcode": "6680873",
    "prefectureCode": "28",
    "prefectureNumber": 28,
    "prefecture": "兵庫県",
    "city": "豊岡市",
    "town": "庄境"
  },
  "6680874": {
    "zipcode": "6680874",
    "prefectureCode": "28",
    "prefectureNumber": 28,
    "prefecture": "兵庫県",
    "city": "豊岡市",
    "town": "中谷"
  },
  "6680875": {
    "zipcode": "6680875",
    "prefectureCode": "28",
    "prefectureNumber": 28,
    "prefecture": "兵庫県",
    "city": "豊岡市",
    "town": "百合地"
  }
}
