{
  "6691101": {
    "zipcode": "6691101",
    "prefectureCode": "28",
    "prefectureNumber": 28,
    "prefecture": "兵庫県",
    "city": "西宮市",
    "town": "塩瀬町生瀬"
  },
  "6691102": {
    "zipcode": "6691102",
    "prefectureCode": "28",
    "prefectureNumber": 28,
    "prefecture": "兵庫県",
    "city": "西宮市",
    "town": "生瀬町"
  },
  "6691103": {
    "zipcode": "6691103",
    "prefectureCode": "28",
    "prefectureNumber": 28,
    "prefecture": "兵庫県",
    "city": "西宮市",
    "town": "生瀬東町"
  },
  "6691104": {
    "zipcode": "6691104",
    "prefectureCode": "28",
    "prefectureNumber": 28,
    "prefecture": "兵庫県",
    "city": "西宮市",
    "town": "生瀬武庫川町"
  },
  "6691111": {
    "zipcode": "6691111",
    "prefectureCode": "28",
    "prefectureNumber": 28,
    "prefecture": "兵庫県",
    "city": "西宮市",
    "town": "生瀬高台"
  },
  "6691112": {
    "zipcode": "6691112",
    "prefectureCode": "28",
    "prefectureNumber": 28,
    "prefecture": "兵庫県",
    "city": "西宮市",
    "town": "宝生ケ丘"
  },
  "6691121": {
    "zipcode": "6691121",
    "prefectureCode": "28",
    "prefectureNumber": 28,
    "prefecture": "兵庫県",
    "city": "西宮市",
    "town": "花の峯"
  },
  "6691122": {
    "zipcode": "6691122",
    "prefectureCode": "28",
    "prefectureNumber": 28,
    "prefecture": "兵庫県",
    "city": "西宮市",
    "town": "青葉台"
  },
  "6691131": {
    "zipcode": "6691131",
    "prefectureCode": "28",
    "prefectureNumber": 28,
    "prefecture": "兵庫県",
    "city": "西宮市",
    "town": "清瀬台"
  },
  "6691132": {
    "zipcode": "6691132",
    "prefectureCode": "28",
    "prefectureNumber": 28,
    "prefecture": "兵庫県",
    "city": "西宮市",
    "town": "名塩南台"
  },
  "6691133": {
    "zipcode": "6691133",
    "prefectureCode": "28",
    "prefectureNumber": 28,
    "prefecture": "兵庫県",
    "city": "西宮市",
    "town": "東山台"
  },
  "6691134": {
    "zipcode": "6691134",
    "prefectureCode": "28",
    "prefectureNumber": 28,
    "prefecture": "兵庫県",
    "city": "西宮市",
    "town": "名塩新町"
  },
  "6691135": {
    "zipcode": "6691135",
    "prefectureCode": "28",
    "prefectureNumber": 28,
    "prefecture": "兵庫県",
    "city": "西宮市",
    "town": "国見台"
  },
  "6691136": {
    "zipcode": "6691136",
    "prefectureCode": "28",
    "prefectureNumber": 28,
    "prefecture": "兵庫県",
    "city": "西宮市",
    "town": "名塩木之元"
  },
  "6691141": {
    "zipcode": "6691141",
    "prefectureCode": "28",
    "prefectureNumber": 28,
    "prefecture": "兵庫県",
    "city": "西宮市",
    "town": "塩瀬町名塩（その他）"
  },
  "6691142": {
    "zipcode": "6691142",
    "prefectureCode": "28",
    "prefectureNumber": 28,
    "prefecture": "兵庫県",
    "city": "西宮市",
    "town": "名塩山荘"
  },
  "6691143": {
    "zipcode": "6691143",
    "prefectureCode": "28",
    "prefectureNumber": 28,
    "prefecture": "兵庫県",
    "city": "西宮市",
    "town": "名塩ガーデン"
  },
  "6691144": {
    "zipcode": "6691144",
    "prefectureCode": "28",
    "prefectureNumber": 28,
    "prefecture": "兵庫県",
    "city": "西宮市",
    "town": "名塩茶園町"
  },
  "6691145": {
    "zipcode": "6691145",
    "prefectureCode": "28",
    "prefectureNumber": 28,
    "prefecture": "兵庫県",
    "city": "西宮市",
    "town": "名塩平成台"
  },
  "6691146": {
    "zipcode": "6691146",
    "prefectureCode": "28",
    "prefectureNumber": 28,
    "prefecture": "兵庫県",
    "city": "西宮市",
    "town": "名塩さくら台"
  },
  "6691147": {
    "zipcode": "6691147",
    "prefectureCode": "28",
    "prefectureNumber": 28,
    "prefecture": "兵庫県",
    "city": "西宮市",
    "town": "名塩"
  },
  "6691148": {
    "zipcode": "6691148",
    "prefectureCode": "28",
    "prefectureNumber": 28,
    "prefecture": "兵庫県",
    "city": "西宮市",
    "town": "名塩東久保"
  },
  "6691149": {
    "zipcode": "6691149",
    "prefectureCode": "28",
    "prefectureNumber": 28,
    "prefecture": "兵庫県",
    "city": "西宮市",
    "town": "名塩赤坂"
  },
  "6691161": {
    "zipcode": "6691161",
    "prefectureCode": "28",
    "prefectureNumber": 28,
    "prefecture": "兵庫県",
    "city": "神戸市北区",
    "town": "道場町生野（１１７２番地）"
  },
  "6691162": {
    "zipcode": "6691162",
    "prefectureCode": "28",
    "prefectureNumber": 28,
    "prefecture": "兵庫県",
    "city": "西宮市",
    "town": "名塩美山"
  },
  "6691201": {
    "zipcode": "6691201",
    "prefectureCode": "28",
    "prefectureNumber": 28,
    "prefecture": "兵庫県",
    "city": "宝塚市",
    "town": "香合新田"
  },
  "6691202": {
    "zipcode": "6691202",
    "prefectureCode": "28",
    "prefectureNumber": 28,
    "prefecture": "兵庫県",
    "city": "宝塚市",
    "town": "上佐曽利"
  },
  "6691203": {
    "zipcode": "6691203",
    "prefectureCode": "28",
    "prefectureNumber": 28,
    "prefecture": "兵庫県",
    "city": "宝塚市",
    "town": "下佐曽利"
  },
  "6691204": {
    "zipcode": "6691204",
    "prefectureCode": "28",
    "prefectureNumber": 28,
    "prefecture": "兵庫県",
    "city": "宝塚市",
    "town": "長谷"
  },
  "6691205": {
    "zipcode": "6691205",
    "prefectureCode": "28",
    "prefectureNumber": 28,
    "prefecture": "兵庫県",
    "city": "宝塚市",
    "town": "芝辻新田"
  },
  "6691211": {
    "zipcode": "6691211",
    "prefectureCode": "28",
    "prefectureNumber": 28,
    "prefecture": "兵庫県",
    "city": "宝塚市",
    "town": "大原野"
  },
  "6691221": {
    "zipcode": "6691221",
    "prefectureCode": "28",
    "prefectureNumber": 28,
    "prefecture": "兵庫県",
    "city": "宝塚市",
    "town": "波豆"
  },
  "6691222": {
    "zipcode": "6691222",
    "prefectureCode": "28",
    "prefectureNumber": 28,
    "prefecture": "兵庫県",
    "city": "宝塚市",
    "town": "境野"
  },
  "6691231": {
    "zipcode": "6691231",
    "prefectureCode": "28",
    "prefectureNumber": 28,
    "prefecture": "兵庫県",
    "city": "宝塚市",
    "town": "玉瀬"
  },
  "6691241": {
    "zipcode": "6691241",
    "prefectureCode": "28",
    "prefectureNumber": 28,
    "prefecture": "兵庫県",
    "city": "宝塚市",
    "town": "切畑（その他）"
  },
  "6691251": {
    "zipcode": "6691251",
    "prefectureCode": "28",
    "prefectureNumber": 28,
    "prefecture": "兵庫県",
    "city": "西宮市",
    "town": "塩瀬町名塩（４２０５−１、５２０５、５３１３−２０、５３１３−３３、５３１３−３５番地）"
  },
  "6691300": {
    "zipcode": "6691300",
    "prefectureCode": "28",
    "prefectureNumber": 28,
    "prefecture": "兵庫県",
    "city": "三田市",
    "town": "以下に掲載がない場合"
  },
  "6691301": {
    "zipcode": "6691301",
    "prefectureCode": "28",
    "prefectureNumber": 28,
    "prefecture": "兵庫県",
    "city": "三田市",
    "town": "上青野"
  },
  "6691302": {
    "zipcode": "6691302",
    "prefectureCode": "28",
    "prefectureNumber": 28,
    "prefecture": "兵庫県",
    "city": "三田市",
    "town": "下青野"
  },
  "6691303": {
    "zipcode": "6691303",
    "prefectureCode": "28",
    "prefectureNumber": 28,
    "prefecture": "兵庫県",
    "city": "三田市",
    "town": "末"
  },
  "6691304": {
    "zipcode": "6691304",
    "prefectureCode": "28",
    "prefectureNumber": 28,
    "prefecture": "兵庫県",
    "city": "三田市",
    "town": "北浦"
  },
  "6691311": {
    "zipcode": "6691311",
    "prefectureCode": "28",
    "prefectureNumber": 28,
    "prefecture": "兵庫県",
    "city": "三田市",
    "town": "加茂"
  },
  "6691312": {
    "zipcode": "6691312",
    "prefectureCode": "28",
    "prefectureNumber": 28,
    "prefecture": "兵庫県",
    "city": "三田市",
    "town": "東野上"
  },
  "6691313": {
    "zipcode": "6691313",
    "prefectureCode": "28",
    "prefectureNumber": 28,
    "prefecture": "兵庫県",
    "city": "三田市",
    "town": "福島"
  },
  "6691314": {
    "zipcode": "6691314",
    "prefectureCode": "28",
    "prefectureNumber": 28,
    "prefecture": "兵庫県",
    "city": "三田市",
    "town": "西野上"
  },
  "6691315": {
    "zipcode": "6691315",
    "prefectureCode": "28",
    "prefectureNumber": 28,
    "prefecture": "兵庫県",
    "city": "三田市",
    "town": "下井沢"
  },
  "6691316": {
    "zipcode": "6691316",
    "prefectureCode": "28",
    "prefectureNumber": 28,
    "prefecture": "兵庫県",
    "city": "三田市",
    "town": "上井沢"
  },
  "6691317": {
    "zipcode": "6691317",
    "prefectureCode": "28",
    "prefectureNumber": 28,
    "prefecture": "兵庫県",
    "city": "三田市",
    "town": "宮脇"
  },
  "6691321": {
    "zipcode": "6691321",
    "prefectureCode": "28",
    "prefectureNumber": 28,
    "prefecture": "兵庫県",
    "city": "三田市",
    "town": "けやき台"
  },
  "6691322": {
    "zipcode": "6691322",
    "prefectureCode": "28",
    "prefectureNumber": 28,
    "prefecture": "兵庫県",
    "city": "三田市",
    "town": "すずかけ台"
  },
  "6691323": {
    "zipcode": "6691323",
    "prefectureCode": "28",
    "prefectureNumber": 28,
    "prefecture": "兵庫県",
    "city": "三田市",
    "town": "あかしあ台"
  },
  "6691324": {
    "zipcode": "6691324",
    "prefectureCode": "28",
    "prefectureNumber": 28,
    "prefecture": "兵庫県",
    "city": "三田市",
    "town": "ゆりのき台"
  },
  "6691325": {
    "zipcode": "6691325",
    "prefectureCode": "28",
    "prefectureNumber": 28,
    "prefecture": "兵庫県",
    "city": "三田市",
    "town": "さくら坂"
  },
  "6691330": {
    "zipcode": "6691330",
    "prefectureCode": "28",
    "prefectureNumber": 28,
    "prefecture": "兵庫県",
    "city": "三田市",
    "town": "学園上ケ原"
  },
  "6691331": {
    "zipcode": "6691331",
    "prefectureCode": "28",
    "prefectureNumber": 28,
    "prefecture": "兵庫県",
    "city": "三田市",
    "town": "広野"
  },
  "6691332": {
    "zipcode": "6691332",
    "prefectureCode": "28",
    "prefectureNumber": 28,
    "prefecture": "兵庫県",
    "city": "三田市",
    "town": "広沢"
  },
  "6691333": {
    "zipcode": "6691333",
    "prefectureCode": "28",
    "prefectureNumber": 28,
    "prefecture": "兵庫県",
    "city": "三田市",
    "town": "下内神"
  },
  "6691334": {
    "zipcode": "6691334",
    "prefectureCode": "28",
    "prefectureNumber": 28,
    "prefecture": "兵庫県",
    "city": "三田市",
    "town": "中内神"
  },
  "6691335": {
    "zipcode": "6691335",
    "prefectureCode": "28",
    "prefectureNumber": 28,
    "prefecture": "兵庫県",
    "city": "三田市",
    "town": "沢谷"
  },
  "6691336": {
    "zipcode": "6691336",
    "prefectureCode": "28",
    "prefectureNumber": 28,
    "prefecture": "兵庫県",
    "city": "三田市",
    "town": "馬渡"
  },
  "6691337": {
    "zipcode": "6691337",
    "prefectureCode": "28",
    "prefectureNumber": 28,
    "prefecture": "兵庫県",
    "city": "三田市",
    "town": "学園"
  },
  "6691338": {
    "zipcode": "6691338",
    "prefectureCode": "28",
    "prefectureNumber": 28,
    "prefecture": "兵庫県",
    "city": "三田市",
    "town": "上内神"
  },
  "6691339": {
    "zipcode": "6691339",
    "prefectureCode": "28",
    "prefectureNumber": 28,
    "prefecture": "兵庫県",
    "city": "三田市",
    "town": "テクノパーク"
  },
  "6691341": {
    "zipcode": "6691341",
    "prefectureCode": "28",
    "prefectureNumber": 28,
    "prefecture": "兵庫県",
    "city": "三田市",
    "town": "西相野"
  },
  "6691342": {
    "zipcode": "6691342",
    "prefectureCode": "28",
    "prefectureNumber": 28,
    "prefecture": "兵庫県",
    "city": "三田市",
    "town": "四ツ辻"
  },
  "6691343": {
    "zipcode": "6691343",
    "prefectureCode": "28",
    "prefectureNumber": 28,
    "prefecture": "兵庫県",
    "city": "三田市",
    "town": "洞"
  },
  "6691344": {
    "zipcode": "6691344",
    "prefectureCode": "28",
    "prefectureNumber": 28,
    "prefecture": "兵庫県",
    "city": "三田市",
    "town": "溝口"
  },
  "6691345": {
    "zipcode": "6691345",
    "prefectureCode": "28",
    "prefectureNumber": 28,
    "prefecture": "兵庫県",
    "city": "三田市",
    "town": "下相野"
  },
  "6691346": {
    "zipcode": "6691346",
    "prefectureCode": "28",
    "prefectureNumber": 28,
    "prefecture": "兵庫県",
    "city": "三田市",
    "town": "上相野"
  },
  "6691347": {
    "zipcode": "6691347",
    "prefectureCode": "28",
    "prefectureNumber": 28,
    "prefecture": "兵庫県",
    "city": "三田市",
    "town": "つつじが丘南"
  },
  "6691348": {
    "zipcode": "6691348",
    "prefectureCode": "28",
    "prefectureNumber": 28,
    "prefecture": "兵庫県",
    "city": "三田市",
    "town": "つつじが丘北"
  },
  "6691349": {
    "zipcode": "6691349",
    "prefectureCode": "28",
    "prefectureNumber": 28,
    "prefecture": "兵庫県",
    "city": "三田市",
    "town": "大川瀬"
  },
  "6691351": {
    "zipcode": "6691351",
    "prefectureCode": "28",
    "prefectureNumber": 28,
    "prefecture": "兵庫県",
    "city": "三田市",
    "town": "上本庄"
  },
  "6691352": {
    "zipcode": "6691352",
    "prefectureCode": "28",
    "prefectureNumber": 28,
    "prefecture": "兵庫県",
    "city": "三田市",
    "town": "須磨田"
  },
  "6691353": {
    "zipcode": "6691353",
    "prefectureCode": "28",
    "prefectureNumber": 28,
    "prefecture": "兵庫県",
    "city": "三田市",
    "town": "東山"
  },
  "6691354": {
    "zipcode": "6691354",
    "prefectureCode": "28",
    "prefectureNumber": 28,
    "prefecture": "兵庫県",
    "city": "三田市",
    "town": "大畑"
  },
  "6691355": {
    "zipcode": "6691355",
    "prefectureCode": "28",
    "prefectureNumber": 28,
    "prefecture": "兵庫県",
    "city": "三田市",
    "town": "長坂"
  },
  "6691356": {
    "zipcode": "6691356",
    "prefectureCode": "28",
    "prefectureNumber": 28,
    "prefecture": "兵庫県",
    "city": "三田市",
    "town": "井ノ草"
  },
  "6691357": {
    "zipcode": "6691357",
    "prefectureCode": "28",
    "prefectureNumber": 28,
    "prefecture": "兵庫県",
    "city": "三田市",
    "town": "東本庄"
  },
  "6691358": {
    "zipcode": "6691358",
    "prefectureCode": "28",
    "prefectureNumber": 28,
    "prefecture": "兵庫県",
    "city": "三田市",
    "town": "藍本"
  },
  "6691401": {
    "zipcode": "6691401",
    "prefectureCode": "28",
    "prefectureNumber": 28,
    "prefecture": "兵庫県",
    "city": "三田市",
    "town": "小柿"
  },
  "6691402": {
    "zipcode": "6691402",
    "prefectureCode": "28",
    "prefectureNumber": 28,
    "prefecture": "兵庫県",
    "city": "三田市",
    "town": "末吉"
  },
  "6691403": {
    "zipcode": "6691403",
    "prefectureCode": "28",
    "prefectureNumber": 28,
    "prefecture": "兵庫県",
    "city": "三田市",
    "town": "川原"
  },
  "6691404": {
    "zipcode": "6691404",
    "prefectureCode": "28",
    "prefectureNumber": 28,
    "prefecture": "兵庫県",
    "city": "三田市",
    "town": "十倉"
  },
  "6691405": {
    "zipcode": "6691405",
    "prefectureCode": "28",
    "prefectureNumber": 28,
    "prefecture": "兵庫県",
    "city": "三田市",
    "town": "酒井"
  },
  "6691406": {
    "zipcode": "6691406",
    "prefectureCode": "28",
    "prefectureNumber": 28,
    "prefecture": "兵庫県",
    "city": "三田市",
    "town": "田中"
  },
  "6691407": {
    "zipcode": "6691407",
    "prefectureCode": "28",
    "prefectureNumber": 28,
    "prefecture": "兵庫県",
    "city": "三田市",
    "town": "布木"
  },
  "6691411": {
    "zipcode": "6691411",
    "prefectureCode": "28",
    "prefectureNumber": 28,
    "prefecture": "兵庫県",
    "city": "三田市",
    "town": "波豆川"
  },
  "6691412": {
    "zipcode": "6691412",
    "prefectureCode": "28",
    "prefectureNumber": 28,
    "prefecture": "兵庫県",
    "city": "三田市",
    "town": "木器"
  },
  "6691413": {
    "zipcode": "6691413",
    "prefectureCode": "28",
    "prefectureNumber": 28,
    "prefecture": "兵庫県",
    "city": "三田市",
    "town": "下槻瀬"
  },
  "6691414": {
    "zipcode": "6691414",
    "prefectureCode": "28",
    "prefectureNumber": 28,
    "prefecture": "兵庫県",
    "city": "三田市",
    "town": "市之瀬"
  },
  "6691415": {
    "zipcode": "6691415",
    "prefectureCode": "28",
    "prefectureNumber": 28,
    "prefecture": "兵庫県",
    "city": "三田市",
    "town": "上槻瀬"
  },
  "6691416": {
    "zipcode": "6691416",
    "prefectureCode": "28",
    "prefectureNumber": 28,
    "prefecture": "兵庫県",
    "city": "三田市",
    "town": "下里"
  },
  "6691417": {
    "zipcode": "6691417",
    "prefectureCode": "28",
    "prefectureNumber": 28,
    "prefecture": "兵庫県",
    "city": "三田市",
    "town": "鈴鹿"
  },
  "6691501": {
    "zipcode": "6691501",
    "prefectureCode": "28",
    "prefectureNumber": 28,
    "prefecture": "兵庫県",
    "city": "三田市",
    "town": "母子"
  },
  "6691502": {
    "zipcode": "6691502",
    "prefectureCode": "28",
    "prefectureNumber": 28,
    "prefecture": "兵庫県",
    "city": "三田市",
    "town": "永沢寺"
  },
  "6691503": {
    "zipcode": "6691503",
    "prefectureCode": "28",
    "prefectureNumber": 28,
    "prefecture": "兵庫県",
    "city": "三田市",
    "town": "乙原"
  },
  "6691504": {
    "zipcode": "6691504",
    "prefectureCode": "28",
    "prefectureNumber": 28,
    "prefecture": "兵庫県",
    "city": "三田市",
    "town": "小野"
  },
  "6691505": {
    "zipcode": "6691505",
    "prefectureCode": "28",
    "prefectureNumber": 28,
    "prefecture": "兵庫県",
    "city": "三田市",
    "town": "尼寺"
  },
  "6691506": {
    "zipcode": "6691506",
    "prefectureCode": "28",
    "prefectureNumber": 28,
    "prefecture": "兵庫県",
    "city": "三田市",
    "town": "志手原"
  },
  "6691507": {
    "zipcode": "6691507",
    "prefectureCode": "28",
    "prefectureNumber": 28,
    "prefecture": "兵庫県",
    "city": "三田市",
    "town": "香下"
  },
  "6691511": {
    "zipcode": "6691511",
    "prefectureCode": "28",
    "prefectureNumber": 28,
    "prefecture": "兵庫県",
    "city": "三田市",
    "town": "山田"
  },
  "6691512": {
    "zipcode": "6691512",
    "prefectureCode": "28",
    "prefectureNumber": 28,
    "prefecture": "兵庫県",
    "city": "三田市",
    "town": "高次"
  },
  "6691513": {
    "zipcode": "6691513",
    "prefectureCode": "28",
    "prefectureNumber": 28,
    "prefecture": "兵庫県",
    "city": "三田市",
    "town": "三輪"
  },
  "6691514": {
    "zipcode": "6691514",
    "prefectureCode": "28",
    "prefectureNumber": 28,
    "prefecture": "兵庫県",
    "city": "三田市",
    "town": "川除"
  },
  "6691515": {
    "zipcode": "6691515",
    "prefectureCode": "28",
    "prefectureNumber": 28,
    "prefecture": "兵庫県",
    "city": "三田市",
    "town": "大原"
  },
  "6691516": {
    "zipcode": "6691516",
    "prefectureCode": "28",
    "prefectureNumber": 28,
    "prefecture": "兵庫県",
    "city": "三田市",
    "town": "友が丘"
  },
  "6691517": {
    "zipcode": "6691517",
    "prefectureCode": "28",
    "prefectureNumber": 28,
    "prefecture": "兵庫県",
    "city": "三田市",
    "town": "成谷"
  },
  "6691521": {
    "zipcode": "6691521",
    "prefectureCode": "28",
    "prefectureNumber": 28,
    "prefecture": "兵庫県",
    "city": "三田市",
    "town": "桑原"
  },
  "6691522": {
    "zipcode": "6691522",
    "prefectureCode": "28",
    "prefectureNumber": 28,
    "prefecture": "兵庫県",
    "city": "三田市",
    "town": "下田中"
  },
  "6691523": {
    "zipcode": "6691523",
    "prefectureCode": "28",
    "prefectureNumber": 28,
    "prefecture": "兵庫県",
    "city": "三田市",
    "town": "寺村町"
  },
  "6691524": {
    "zipcode": "6691524",
    "prefectureCode": "28",
    "prefectureNumber": 28,
    "prefecture": "兵庫県",
    "city": "三田市",
    "town": "八景町"
  },
  "6691525": {
    "zipcode": "6691525",
    "prefectureCode": "28",
    "prefectureNumber": 28,
    "prefecture": "兵庫県",
    "city": "三田市",
    "town": "対中町"
  },
  "6691526": {
    "zipcode": "6691526",
    "prefectureCode": "28",
    "prefectureNumber": 28,
    "prefecture": "兵庫県",
    "city": "三田市",
    "town": "相生町"
  },
  "6691527": {
    "zipcode": "6691527",
    "prefectureCode": "28",
    "prefectureNumber": 28,
    "prefecture": "兵庫県",
    "city": "三田市",
    "town": "中町"
  },
  "6691528": {
    "zipcode": "6691528",
    "prefectureCode": "28",
    "prefectureNumber": 28,
    "prefecture": "兵庫県",
    "city": "三田市",
    "town": "駅前町"
  },
  "6691529": {
    "zipcode": "6691529",
    "prefectureCode": "28",
    "prefectureNumber": 28,
    "prefecture": "兵庫県",
    "city": "三田市",
    "town": "中央町"
  },
  "6691531": {
    "zipcode": "6691531",
    "prefectureCode": "28",
    "prefectureNumber": 28,
    "prefecture": "兵庫県",
    "city": "三田市",
    "town": "天神"
  },
  "6691532": {
    "zipcode": "6691532",
    "prefectureCode": "28",
    "prefectureNumber": 28,
    "prefecture": "兵庫県",
    "city": "三田市",
    "town": "屋敷町"
  },
  "6691533": {
    "zipcode": "6691533",
    "prefectureCode": "28",
    "prefectureNumber": 28,
    "prefecture": "兵庫県",
    "city": "三田市",
    "town": "三田町"
  },
  "6691534": {
    "zipcode": "6691534",
    "prefectureCode": "28",
    "prefectureNumber": 28,
    "prefecture": "兵庫県",
    "city": "三田市",
    "town": "横山町"
  },
  "6691535": {
    "zipcode": "6691535",
    "prefectureCode": "28",
    "prefectureNumber": 28,
    "prefecture": "兵庫県",
    "city": "三田市",
    "town": "南が丘"
  },
  "6691536": {
    "zipcode": "6691536",
    "prefectureCode": "28",
    "prefectureNumber": 28,
    "prefecture": "兵庫県",
    "city": "三田市",
    "town": "三田市の次に番地がくる場合"
  },
  "6691537": {
    "zipcode": "6691537",
    "prefectureCode": "28",
    "prefectureNumber": 28,
    "prefecture": "兵庫県",
    "city": "三田市",
    "town": "西山"
  },
  "6691541": {
    "zipcode": "6691541",
    "prefectureCode": "28",
    "prefectureNumber": 28,
    "prefecture": "兵庫県",
    "city": "三田市",
    "town": "貴志"
  },
  "6691542": {
    "zipcode": "6691542",
    "prefectureCode": "28",
    "prefectureNumber": 28,
    "prefecture": "兵庫県",
    "city": "三田市",
    "town": "上深田"
  },
  "6691543": {
    "zipcode": "6691543",
    "prefectureCode": "28",
    "prefectureNumber": 28,
    "prefecture": "兵庫県",
    "city": "三田市",
    "town": "下深田"
  },
  "6691544": {
    "zipcode": "6691544",
    "prefectureCode": "28",
    "prefectureNumber": 28,
    "prefecture": "兵庫県",
    "city": "三田市",
    "town": "武庫が丘"
  },
  "6691545": {
    "zipcode": "6691545",
    "prefectureCode": "28",
    "prefectureNumber": 28,
    "prefecture": "兵庫県",
    "city": "三田市",
    "town": "狭間が丘"
  },
  "6691546": {
    "zipcode": "6691546",
    "prefectureCode": "28",
    "prefectureNumber": 28,
    "prefecture": "兵庫県",
    "city": "三田市",
    "town": "弥生が丘"
  },
  "6691547": {
    "zipcode": "6691547",
    "prefectureCode": "28",
    "prefectureNumber": 28,
    "prefecture": "兵庫県",
    "city": "三田市",
    "town": "富士が丘"
  },
  "6691548": {
    "zipcode": "6691548",
    "prefectureCode": "28",
    "prefectureNumber": 28,
    "prefecture": "兵庫県",
    "city": "三田市",
    "town": "池尻"
  },
  "6692101": {
    "zipcode": "6692101",
    "prefectureCode": "28",
    "prefectureNumber": 28,
    "prefecture": "兵庫県",
    "city": "丹波篠山市",
    "town": "初田"
  },
  "6692102": {
    "zipcode": "6692102",
    "prefectureCode": "28",
    "prefectureNumber": 28,
    "prefecture": "兵庫県",
    "city": "丹波篠山市",
    "town": "南矢代"
  },
  "6692103": {
    "zipcode": "6692103",
    "prefectureCode": "28",
    "prefectureNumber": 28,
    "prefecture": "兵庫県",
    "city": "丹波篠山市",
    "town": "波賀野"
  },
  "6692104": {
    "zipcode": "6692104",
    "prefectureCode": "28",
    "prefectureNumber": 28,
    "prefecture": "兵庫県",
    "city": "丹波篠山市",
    "town": "矢代新"
  },
  "6692105": {
    "zipcode": "6692105",
    "prefectureCode": "28",
    "prefectureNumber": 28,
    "prefecture": "兵庫県",
    "city": "丹波篠山市",
    "town": "犬飼"
  },
  "6692106": {
    "zipcode": "6692106",
    "prefectureCode": "28",
    "prefectureNumber": 28,
    "prefecture": "兵庫県",
    "city": "丹波篠山市",
    "town": "牛ケ瀬"
  },
  "6692111": {
    "zipcode": "6692111",
    "prefectureCode": "28",
    "prefectureNumber": 28,
    "prefecture": "兵庫県",
    "city": "丹波篠山市",
    "town": "当野"
  },
  "6692112": {
    "zipcode": "6692112",
    "prefectureCode": "28",
    "prefectureNumber": 28,
    "prefecture": "兵庫県",
    "city": "丹波篠山市",
    "town": "古森"
  },
  "6692113": {
    "zipcode": "6692113",
    "prefectureCode": "28",
    "prefectureNumber": 28,
    "prefecture": "兵庫県",
    "city": "丹波篠山市",
    "town": "草野"
  },
  "6692114": {
    "zipcode": "6692114",
    "prefectureCode": "28",
    "prefectureNumber": 28,
    "prefecture": "兵庫県",
    "city": "丹波篠山市",
    "town": "油井"
  },
  "6692121": {
    "zipcode": "6692121",
    "prefectureCode": "28",
    "prefectureNumber": 28,
    "prefecture": "兵庫県",
    "city": "丹波篠山市",
    "town": "見内"
  },
  "6692122": {
    "zipcode": "6692122",
    "prefectureCode": "28",
    "prefectureNumber": 28,
    "prefecture": "兵庫県",
    "city": "丹波篠山市",
    "town": "波賀野新田"
  },
  "6692123": {
    "zipcode": "6692123",
    "prefectureCode": "28",
    "prefectureNumber": 28,
    "prefecture": "兵庫県",
    "city": "丹波篠山市",
    "town": "古市"
  },
  "6692124": {
    "zipcode": "6692124",
    "prefectureCode": "28",
    "prefectureNumber": 28,
    "prefecture": "兵庫県",
    "city": "丹波篠山市",
    "town": "不来坂"
  },
  "6692125": {
    "zipcode": "6692125",
    "prefectureCode": "28",
    "prefectureNumber": 28,
    "prefecture": "兵庫県",
    "city": "丹波篠山市",
    "town": "住山"
  },
  "6692131": {
    "zipcode": "6692131",
    "prefectureCode": "28",
    "prefectureNumber": 28,
    "prefecture": "兵庫県",
    "city": "丹波篠山市",
    "town": "今田町辰巳"
  },
  "6692132": {
    "zipcode": "6692132",
    "prefectureCode": "28",
    "prefectureNumber": 28,
    "prefecture": "兵庫県",
    "city": "丹波篠山市",
    "town": "今田町上小野原"
  },
  "6692133": {
    "zipcode": "6692133",
    "prefectureCode": "28",
    "prefectureNumber": 28,
    "prefecture": "兵庫県",
    "city": "丹波篠山市",
    "town": "今田町下小野原"
  },
  "6692134": {
    "zipcode": "6692134",
    "prefectureCode": "28",
    "prefectureNumber": 28,
    "prefecture": "兵庫県",
    "city": "丹波篠山市",
    "town": "今田町休場"
  },
  "6692135": {
    "zipcode": "6692135",
    "prefectureCode": "28",
    "prefectureNumber": 28,
    "prefecture": "兵庫県",
    "city": "丹波篠山市",
    "town": "今田町上立杭"
  },
  "6692141": {
    "zipcode": "6692141",
    "prefectureCode": "28",
    "prefectureNumber": 28,
    "prefecture": "兵庫県",
    "city": "丹波篠山市",
    "town": "今田町下立杭"
  },
  "6692142": {
    "zipcode": "6692142",
    "prefectureCode": "28",
    "prefectureNumber": 28,
    "prefecture": "兵庫県",
    "city": "丹波篠山市",
    "town": "今田町東庄"
  },
  "6692143": {
    "zipcode": "6692143",
    "prefectureCode": "28",
    "prefectureNumber": 28,
    "prefecture": "兵庫県",
    "city": "丹波篠山市",
    "town": "今田町釜屋"
  },
  "6692144": {
    "zipcode": "6692144",
    "prefectureCode": "28",
    "prefectureNumber": 28,
    "prefecture": "兵庫県",
    "city": "丹波篠山市",
    "town": "今田町間新田"
  },
  "6692145": {
    "zipcode": "6692145",
    "prefectureCode": "28",
    "prefectureNumber": 28,
    "prefecture": "兵庫県",
    "city": "丹波篠山市",
    "town": "今田町木津"
  },
  "6692151": {
    "zipcode": "6692151",
    "prefectureCode": "28",
    "prefectureNumber": 28,
    "prefecture": "兵庫県",
    "city": "丹波篠山市",
    "town": "今田町今田"
  },
  "6692152": {
    "zipcode": "6692152",
    "prefectureCode": "28",
    "prefectureNumber": 28,
    "prefecture": "兵庫県",
    "city": "丹波篠山市",
    "town": "今田町荻野分"
  },
  "6692153": {
    "zipcode": "6692153",
    "prefectureCode": "28",
    "prefectureNumber": 28,
    "prefecture": "兵庫県",
    "city": "丹波篠山市",
    "town": "今田町今田新田"
  },
  "6692154": {
    "zipcode": "6692154",
    "prefectureCode": "28",
    "prefectureNumber": 28,
    "prefecture": "兵庫県",
    "city": "丹波篠山市",
    "town": "今田町市原"
  },
  "6692155": {
    "zipcode": "6692155",
    "prefectureCode": "28",
    "prefectureNumber": 28,
    "prefecture": "兵庫県",
    "city": "丹波篠山市",
    "town": "今田町芦原新田"
  },
  "6692156": {
    "zipcode": "6692156",
    "prefectureCode": "28",
    "prefectureNumber": 28,
    "prefecture": "兵庫県",
    "city": "丹波篠山市",
    "town": "今田町佐曽良新田"
  },
  "6692161": {
    "zipcode": "6692161",
    "prefectureCode": "28",
    "prefectureNumber": 28,
    "prefecture": "兵庫県",
    "city": "丹波篠山市",
    "town": "今田町四斗谷"
  },
  "6692162": {
    "zipcode": "6692162",
    "prefectureCode": "28",
    "prefectureNumber": 28,
    "prefecture": "兵庫県",
    "city": "丹波篠山市",
    "town": "今田町黒石"
  },
  "6692163": {
    "zipcode": "6692163",
    "prefectureCode": "28",
    "prefectureNumber": 28,
    "prefecture": "兵庫県",
    "city": "丹波篠山市",
    "town": "今田町本荘"
  },
  "6692201": {
    "zipcode": "6692201",
    "prefectureCode": "28",
    "prefectureNumber": 28,
    "prefecture": "兵庫県",
    "city": "丹波篠山市",
    "town": "東古佐"
  },
  "6692202": {
    "zipcode": "6692202",
    "prefectureCode": "28",
    "prefectureNumber": 28,
    "prefecture": "兵庫県",
    "city": "丹波篠山市",
    "town": "東吹"
  },
  "6692203": {
    "zipcode": "6692203",
    "prefectureCode": "28",
    "prefectureNumber": 28,
    "prefecture": "兵庫県",
    "city": "丹波篠山市",
    "town": "吹新"
  },
  "6692204": {
    "zipcode": "6692204",
    "prefectureCode": "28",
    "prefectureNumber": 28,
    "prefecture": "兵庫県",
    "city": "丹波篠山市",
    "town": "杉"
  },
  "6692205": {
    "zipcode": "6692205",
    "prefectureCode": "28",
    "prefectureNumber": 28,
    "prefecture": "兵庫県",
    "city": "丹波篠山市",
    "town": "網掛"
  },
  "6692206": {
    "zipcode": "6692206",
    "prefectureCode": "28",
    "prefectureNumber": 28,
    "prefecture": "兵庫県",
    "city": "丹波篠山市",
    "town": "西吹"
  },
  "6692211": {
    "zipcode": "6692211",
    "prefectureCode": "28",
    "prefectureNumber": 28,
    "prefecture": "兵庫県",
    "city": "丹波篠山市",
    "town": "大沢新"
  },
  "6692212": {
    "zipcode": "6692212",
    "prefectureCode": "28",
    "prefectureNumber": 28,
    "prefecture": "兵庫県",
    "city": "丹波篠山市",
    "town": "大沢"
  },
  "6692213": {
    "zipcode": "6692213",
    "prefectureCode": "28",
    "prefectureNumber": 28,
    "prefecture": "兵庫県",
    "city": "丹波篠山市",
    "town": "中野"
  },
  "6692214": {
    "zipcode": "6692214",
    "prefectureCode": "28",
    "prefectureNumber": 28,
    "prefecture": "兵庫県",
    "city": "丹波篠山市",
    "town": "味間新"
  },
  "6692221": {
    "zipcode": "6692221",
    "prefectureCode": "28",
    "prefectureNumber": 28,
    "prefecture": "兵庫県",
    "city": "丹波篠山市",
    "town": "西古佐"
  },
  "6692222": {
    "zipcode": "6692222",
    "prefectureCode": "28",
    "prefectureNumber": 28,
    "prefecture": "兵庫県",
    "city": "丹波篠山市",
    "town": "味間南"
  },
  "6692223": {
    "zipcode": "6692223",
    "prefectureCode": "28",
    "prefectureNumber": 28,
    "prefecture": "兵庫県",
    "city": "丹波篠山市",
    "town": "味間奥"
  },
  "6692224": {
    "zipcode": "6692224",
    "prefectureCode": "28",
    "prefectureNumber": 28,
    "prefecture": "兵庫県",
    "city": "丹波篠山市",
    "town": "味間北"
  },
  "6692231": {
    "zipcode": "6692231",
    "prefectureCode": "28",
    "prefectureNumber": 28,
    "prefecture": "兵庫県",
    "city": "丹波篠山市",
    "town": "住吉台"
  },
  "6692300": {
    "zipcode": "6692300",
    "prefectureCode": "28",
    "prefectureNumber": 28,
    "prefecture": "兵庫県",
    "city": "丹波篠山市",
    "town": "以下に掲載がない場合"
  },
  "6692301": {
    "zipcode": "6692301",
    "prefectureCode": "28",
    "prefectureNumber": 28,
    "prefecture": "兵庫県",
    "city": "丹波篠山市",
    "town": "火打岩"
  },
  "6692302": {
    "zipcode": "6692302",
    "prefectureCode": "28",
    "prefectureNumber": 28,
    "prefecture": "兵庫県",
    "city": "丹波篠山市",
    "town": "奥畑"
  },
  "6692303": {
    "zipcode": "6692303",
    "prefectureCode": "28",
    "prefectureNumber": 28,
    "prefecture": "兵庫県",
    "city": "丹波篠山市",
    "town": "瀬利"
  },
  "6692304": {
    "zipcode": "6692304",
    "prefectureCode": "28",
    "prefectureNumber": 28,
    "prefecture": "兵庫県",
    "city": "丹波篠山市",
    "town": "今谷"
  },
  "6692305": {
    "zipcode": "6692305",
    "prefectureCode": "28",
    "prefectureNumber": 28,
    "prefecture": "兵庫県",
    "city": "丹波篠山市",
    "town": "畑宮"
  },
  "6692306": {
    "zipcode": "6692306",
    "prefectureCode": "28",
    "prefectureNumber": 28,
    "prefecture": "兵庫県",
    "city": "丹波篠山市",
    "town": "大上"
  },
  "6692307": {
    "zipcode": "6692307",
    "prefectureCode": "28",
    "prefectureNumber": 28,
    "prefecture": "兵庫県",
    "city": "丹波篠山市",
    "town": "般若寺"
  },
  "6692308": {
    "zipcode": "6692308",
    "prefectureCode": "28",
    "prefectureNumber": 28,
    "prefecture": "兵庫県",
    "city": "丹波篠山市",
    "town": "和田"
  },
  "6692309": {
    "zipcode": "6692309",
    "prefectureCode": "28",
    "prefectureNumber": 28,
    "prefecture": "兵庫県",
    "city": "丹波篠山市",
    "town": "大渕"
  },
  "6692311": {
    "zipcode": "6692311",
    "prefectureCode": "28",
    "prefectureNumber": 28,
    "prefecture": "兵庫県",
    "city": "丹波篠山市",
    "town": "新荘"
  },
  "6692312": {
    "zipcode": "6692312",
    "prefectureCode": "28",
    "prefectureNumber": 28,
    "prefecture": "兵庫県",
    "city": "丹波篠山市",
    "town": "菅"
  },
  "6692313": {
    "zipcode": "6692313",
    "prefectureCode": "28",
    "prefectureNumber": 28,
    "prefecture": "兵庫県",
    "city": "丹波篠山市",
    "town": "野間"
  },
  "6692314": {
    "zipcode": "6692314",
    "prefectureCode": "28",
    "prefectureNumber": 28,
    "prefecture": "兵庫県",
    "city": "丹波篠山市",
    "town": "東沢田"
  },
  "6692315": {
    "zipcode": "6692315",
    "prefectureCode": "28",
    "prefectureNumber": 28,
    "prefecture": "兵庫県",
    "city": "丹波篠山市",
    "town": "筋山"
  },
  "6692316": {
    "zipcode": "6692316",
    "prefectureCode": "28",
    "prefectureNumber": 28,
    "prefecture": "兵庫県",
    "city": "丹波篠山市",
    "town": "前沢田"
  },
  "6692317": {
    "zipcode": "6692317",
    "prefectureCode": "28",
    "prefectureNumber": 28,
    "prefecture": "兵庫県",
    "city": "丹波篠山市",
    "town": "北沢田"
  },
  "6692318": {
    "zipcode": "6692318",
    "prefectureCode": "28",
    "prefectureNumber": 28,
    "prefecture": "兵庫県",
    "city": "丹波篠山市",
    "town": "大熊"
  },
  "6692321": {
    "zipcode": "6692321",
    "prefectureCode": "28",
    "prefectureNumber": 28,
    "prefecture": "兵庫県",
    "city": "丹波篠山市",
    "town": "黒岡"
  },
  "6692322": {
    "zipcode": "6692322",
    "prefectureCode": "28",
    "prefectureNumber": 28,
    "prefecture": "兵庫県",
    "city": "丹波篠山市",
    "town": "呉服町"
  },
  "6692323": {
    "zipcode": "6692323",
    "prefectureCode": "28",
    "prefectureNumber": 28,
    "prefecture": "兵庫県",
    "city": "丹波篠山市",
    "town": "立町"
  },
  "6692324": {
    "zipcode": "6692324",
    "prefectureCode": "28",
    "prefectureNumber": 28,
    "prefecture": "兵庫県",
    "city": "丹波篠山市",
    "town": "東新町"
  },
  "6692325": {
    "zipcode": "6692325",
    "prefectureCode": "28",
    "prefectureNumber": 28,
    "prefecture": "兵庫県",
    "city": "丹波篠山市",
    "town": "河原町"
  },
  "6692326": {
    "zipcode": "6692326",
    "prefectureCode": "28",
    "prefectureNumber": 28,
    "prefecture": "兵庫県",
    "city": "丹波篠山市",
    "town": "小川町"
  },
  "6692331": {
    "zipcode": "6692331",
    "prefectureCode": "28",
    "prefectureNumber": 28,
    "prefecture": "兵庫県",
    "city": "丹波篠山市",
    "town": "二階町"
  },
  "6692332": {
    "zipcode": "6692332",
    "prefectureCode": "28",
    "prefectureNumber": 28,
    "prefecture": "兵庫県",
    "city": "丹波篠山市",
    "town": "北新町"
  },
  "6692333": {
    "zipcode": "6692333",
    "prefectureCode": "28",
    "prefectureNumber": 28,
    "prefecture": "兵庫県",
    "city": "丹波篠山市",
    "town": "南新町"
  },
  "6692334": {
    "zipcode": "6692334",
    "prefectureCode": "28",
    "prefectureNumber": 28,
    "prefecture": "兵庫県",
    "city": "丹波篠山市",
    "town": "西新町"
  },
  "6692335": {
    "zipcode": "6692335",
    "prefectureCode": "28",
    "prefectureNumber": 28,
    "prefecture": "兵庫県",
    "city": "丹波篠山市",
    "town": "乾新町"
  },
  "6692336": {
    "zipcode": "6692336",
    "prefectureCode": "28",
    "prefectureNumber": 28,
    "prefecture": "兵庫県",
    "city": "丹波篠山市",
    "town": "魚屋町"
  },
  "6692337": {
    "zipcode": "6692337",
    "prefectureCode": "28",
    "prefectureNumber": 28,
    "prefecture": "兵庫県",
    "city": "丹波篠山市",
    "town": "山内町"
  },
  "6692341": {
    "zipcode": "6692341",
    "prefectureCode": "28",
    "prefectureNumber": 28,
    "prefecture": "兵庫県",
    "city": "丹波篠山市",
    "town": "郡家"
  },
  "6692342": {
    "zipcode": "6692342",
    "prefectureCode": "28",
    "prefectureNumber": 28,
    "prefecture": "兵庫県",
    "city": "丹波篠山市",
    "town": "西町"
  },
  "6692343": {
    "zipcode": "6692343",
    "prefectureCode": "28",
    "prefectureNumber": 28,
    "prefecture": "兵庫県",
    "city": "丹波篠山市",
    "town": "風深"
  },
  "6692344": {
    "zipcode": "6692344",
    "prefectureCode": "28",
    "prefectureNumber": 28,
    "prefecture": "兵庫県",
    "city": "丹波篠山市",
    "town": "吹上"
  },
  "6692345": {
    "zipcode": "6692345",
    "prefectureCode": "28",
    "prefectureNumber": 28,
    "prefecture": "兵庫県",
    "city": "丹波篠山市",
    "town": "東岡屋"
  },
  "6692346": {
    "zipcode": "6692346",
    "prefectureCode": "28",
    "prefectureNumber": 28,
    "prefecture": "兵庫県",
    "city": "丹波篠山市",
    "town": "西岡屋"
  },
  "6692351": {
    "zipcode": "6692351",
    "prefectureCode": "28",
    "prefectureNumber": 28,
    "prefecture": "兵庫県",
    "city": "丹波篠山市",
    "town": "東浜谷"
  },
  "6692352": {
    "zipcode": "6692352",
    "prefectureCode": "28",
    "prefectureNumber": 28,
    "prefecture": "兵庫県",
    "city": "丹波篠山市",
    "town": "西浜谷"
  },
  "6692353": {
    "zipcode": "6692353",
    "prefectureCode": "28",
    "prefectureNumber": 28,
    "prefecture": "兵庫県",
    "city": "丹波篠山市",
    "town": "野尻"
  },
  "6692354": {
    "zipcode": "6692354",
    "prefectureCode": "28",
    "prefectureNumber": 28,
    "prefecture": "兵庫県",
    "city": "丹波篠山市",
    "town": "有居"
  },
  "6692355": {
    "zipcode": "6692355",
    "prefectureCode": "28",
    "prefectureNumber": 28,
    "prefecture": "兵庫県",
    "city": "丹波篠山市",
    "town": "大野"
  },
  "6692356": {
    "zipcode": "6692356",
    "prefectureCode": "28",
    "prefectureNumber": 28,
    "prefecture": "兵庫県",
    "city": "丹波篠山市",
    "town": "矢代"
  },
  "6692357": {
    "zipcode": "6692357",
    "prefectureCode": "28",
    "prefectureNumber": 28,
    "prefecture": "兵庫県",
    "city": "丹波篠山市",
    "town": "今福"
  },
  "6692361": {
    "zipcode": "6692361",
    "prefectureCode": "28",
    "prefectureNumber": 28,
    "prefecture": "兵庫県",
    "city": "丹波篠山市",
    "town": "丸山"
  },
  "6692362": {
    "zipcode": "6692362",
    "prefectureCode": "28",
    "prefectureNumber": 28,
    "prefecture": "兵庫県",
    "city": "丹波篠山市",
    "town": "知足"
  },
  "6692363": {
    "zipcode": "6692363",
    "prefectureCode": "28",
    "prefectureNumber": 28,
    "prefecture": "兵庫県",
    "city": "丹波篠山市",
    "town": "大谷"
  },
  "6692364": {
    "zipcode": "6692364",
    "prefectureCode": "28",
    "prefectureNumber": 28,
    "prefecture": "兵庫県",
    "city": "丹波篠山市",
    "town": "鷲尾"
  },
  "6692365": {
    "zipcode": "6692365",
    "prefectureCode": "28",
    "prefectureNumber": 28,
    "prefecture": "兵庫県",
    "city": "丹波篠山市",
    "town": "佐倉"
  },
  "6692366": {
    "zipcode": "6692366",
    "prefectureCode": "28",
    "prefectureNumber": 28,
    "prefecture": "兵庫県",
    "city": "丹波篠山市",
    "town": "寺内"
  },
  "6692367": {
    "zipcode": "6692367",
    "prefectureCode": "28",
    "prefectureNumber": 28,
    "prefecture": "兵庫県",
    "city": "丹波篠山市",
    "town": "熊谷"
  },
  "6692368": {
    "zipcode": "6692368",
    "prefectureCode": "28",
    "prefectureNumber": 28,
    "prefecture": "兵庫県",
    "city": "丹波篠山市",
    "town": "藤岡口"
  },
  "6692369": {
    "zipcode": "6692369",
    "prefectureCode": "28",
    "prefectureNumber": 28,
    "prefecture": "兵庫県",
    "city": "丹波篠山市",
    "town": "藤岡奥"
  },
  "6692401": {
    "zipcode": "6692401",
    "prefectureCode": "28",
    "prefectureNumber": 28,
    "prefecture": "兵庫県",
    "city": "丹波篠山市",
    "town": "奥県守"
  },
  "6692402": {
    "zipcode": "6692402",
    "prefectureCode": "28",
    "prefectureNumber": 28,
    "prefecture": "兵庫県",
    "city": "丹波篠山市",
    "town": "県守"
  },
  "6692403": {
    "zipcode": "6692403",
    "prefectureCode": "28",
    "prefectureNumber": 28,
    "prefecture": "兵庫県",
    "city": "丹波篠山市",
    "town": "東本荘"
  },
  "6692404": {
    "zipcode": "6692404",
    "prefectureCode": "28",
    "prefectureNumber": 28,
    "prefecture": "兵庫県",
    "city": "丹波篠山市",
    "town": "西本荘"
  },
  "6692405": {
    "zipcode": "6692405",
    "prefectureCode": "28",
    "prefectureNumber": 28,
    "prefecture": "兵庫県",
    "city": "丹波篠山市",
    "town": "佐貫谷"
  },
  "6692406": {
    "zipcode": "6692406",
    "prefectureCode": "28",
    "prefectureNumber": 28,
    "prefecture": "兵庫県",
    "city": "丹波篠山市",
    "town": "泉"
  },
  "6692407": {
    "zipcode": "6692407",
    "prefectureCode": "28",
    "prefectureNumber": 28,
    "prefecture": "兵庫県",
    "city": "丹波篠山市",
    "town": "倉谷"
  },
  "6692408": {
    "zipcode": "6692408",
    "prefectureCode": "28",
    "prefectureNumber": 28,
    "prefecture": "兵庫県",
    "city": "丹波篠山市",
    "town": "春日江"
  },
  "6692411": {
    "zipcode": "6692411",
    "prefectureCode": "28",
    "prefectureNumber": 28,
    "prefecture": "兵庫県",
    "city": "丹波篠山市",
    "town": "辻"
  },
  "6692412": {
    "zipcode": "6692412",
    "prefectureCode": "28",
    "prefectureNumber": 28,
    "prefecture": "兵庫県",
    "city": "丹波篠山市",
    "town": "小中"
  },
  "6692413": {
    "zipcode": "6692413",
    "prefectureCode": "28",
    "prefectureNumber": 28,
    "prefecture": "兵庫県",
    "city": "丹波篠山市",
    "town": "畑市"
  },
  "6692414": {
    "zipcode": "6692414",
    "prefectureCode": "28",
    "prefectureNumber": 28,
    "prefecture": "兵庫県",
    "city": "丹波篠山市",
    "town": "宮ノ前"
  },
  "6692415": {
    "zipcode": "6692415",
    "prefectureCode": "28",
    "prefectureNumber": 28,
    "prefecture": "兵庫県",
    "city": "丹波篠山市",
    "town": "上宿"
  },
  "6692416": {
    "zipcode": "6692416",
    "prefectureCode": "28",
    "prefectureNumber": 28,
    "prefecture": "兵庫県",
    "city": "丹波篠山市",
    "town": "井ノ上"
  },
  "6692417": {
    "zipcode": "6692417",
    "prefectureCode": "28",
    "prefectureNumber": 28,
    "prefecture": "兵庫県",
    "city": "丹波篠山市",
    "town": "北島"
  },
  "6692418": {
    "zipcode": "6692418",
    "prefectureCode": "28",
    "prefectureNumber": 28,
    "prefecture": "兵庫県",
    "city": "丹波篠山市",
    "town": "畑井"
  },
  "6692421": {
    "zipcode": "6692421",
    "prefectureCode": "28",
    "prefectureNumber": 28,
    "prefecture": "兵庫県",
    "city": "丹波篠山市",
    "town": "後川新田"
  },
  "6692422": {
    "zipcode": "6692422",
    "prefectureCode": "28",
    "prefectureNumber": 28,
    "prefecture": "兵庫県",
    "city": "丹波篠山市",
    "town": "後川上"
  },
  "6692423": {
    "zipcode": "6692423",
    "prefectureCode": "28",
    "prefectureNumber": 28,
    "prefecture": "兵庫県",
    "city": "丹波篠山市",
    "town": "後川中"
  },
  "6692424": {
    "zipcode": "6692424",
    "prefectureCode": "28",
    "prefectureNumber": 28,
    "prefecture": "兵庫県",
    "city": "丹波篠山市",
    "town": "後川下"
  },
  "6692425": {
    "zipcode": "6692425",
    "prefectureCode": "28",
    "prefectureNumber": 28,
    "prefecture": "兵庫県",
    "city": "丹波篠山市",
    "town": "後川奥"
  },
  "6692431": {
    "zipcode": "6692431",
    "prefectureCode": "28",
    "prefectureNumber": 28,
    "prefecture": "兵庫県",
    "city": "丹波篠山市",
    "town": "八上下"
  },
  "6692432": {
    "zipcode": "6692432",
    "prefectureCode": "28",
    "prefectureNumber": 28,
    "prefecture": "兵庫県",
    "city": "丹波篠山市",
    "town": "八上内"
  },
  "6692433": {
    "zipcode": "6692433",
    "prefectureCode": "28",
    "prefectureNumber": 28,
    "prefecture": "兵庫県",
    "city": "丹波篠山市",
    "town": "西八上"
  },
  "6692434": {
    "zipcode": "6692434",
    "prefectureCode": "28",
    "prefectureNumber": 28,
    "prefecture": "兵庫県",
    "city": "丹波篠山市",
    "town": "殿町"
  },
  "6692435": {
    "zipcode": "6692435",
    "prefectureCode": "28",
    "prefectureNumber": 28,
    "prefecture": "兵庫県",
    "city": "丹波篠山市",
    "town": "小多田"
  },
  "6692436": {
    "zipcode": "6692436",
    "prefectureCode": "28",
    "prefectureNumber": 28,
    "prefecture": "兵庫県",
    "city": "丹波篠山市",
    "town": "池上"
  },
  "6692437": {
    "zipcode": "6692437",
    "prefectureCode": "28",
    "prefectureNumber": 28,
    "prefecture": "兵庫県",
    "city": "丹波篠山市",
    "town": "糯ケ坪"
  },
  "6692438": {
    "zipcode": "6692438",
    "prefectureCode": "28",
    "prefectureNumber": 28,
    "prefecture": "兵庫県",
    "city": "丹波篠山市",
    "town": "京町"
  },
  "6692439": {
    "zipcode": "6692439",
    "prefectureCode": "28",
    "prefectureNumber": 28,
    "prefecture": "兵庫県",
    "city": "丹波篠山市",
    "town": "渋谷"
  },
  "6692441": {
    "zipcode": "6692441",
    "prefectureCode": "28",
    "prefectureNumber": 28,
    "prefecture": "兵庫県",
    "city": "丹波篠山市",
    "town": "日置"
  },
  "6692442": {
    "zipcode": "6692442",
    "prefectureCode": "28",
    "prefectureNumber": 28,
    "prefecture": "兵庫県",
    "city": "丹波篠山市",
    "town": "曽地口"
  },
  "6692443": {
    "zipcode": "6692443",
    "prefectureCode": "28",
    "prefectureNumber": 28,
    "prefecture": "兵庫県",
    "city": "丹波篠山市",
    "town": "曽地中"
  },
  "6692444": {
    "zipcode": "6692444",
    "prefectureCode": "28",
    "prefectureNumber": 28,
    "prefecture": "兵庫県",
    "city": "丹波篠山市",
    "town": "曽地奥"
  },
  "6692445": {
    "zipcode": "6692445",
    "prefectureCode": "28",
    "prefectureNumber": 28,
    "prefecture": "兵庫県",
    "city": "丹波篠山市",
    "town": "野々垣"
  },
  "6692446": {
    "zipcode": "6692446",
    "prefectureCode": "28",
    "prefectureNumber": 28,
    "prefecture": "兵庫県",
    "city": "丹波篠山市",
    "town": "八上上"
  },
  "6692447": {
    "zipcode": "6692447",
    "prefectureCode": "28",
    "prefectureNumber": 28,
    "prefecture": "兵庫県",
    "city": "丹波篠山市",
    "town": "西荘"
  },
  "6692451": {
    "zipcode": "6692451",
    "prefectureCode": "28",
    "prefectureNumber": 28,
    "prefecture": "兵庫県",
    "city": "丹波篠山市",
    "town": "北"
  },
  "6692452": {
    "zipcode": "6692452",
    "prefectureCode": "28",
    "prefectureNumber": 28,
    "prefecture": "兵庫県",
    "city": "丹波篠山市",
    "town": "野中"
  },
  "6692453": {
    "zipcode": "6692453",
    "prefectureCode": "28",
    "prefectureNumber": 28,
    "prefecture": "兵庫県",
    "city": "丹波篠山市",
    "town": "谷山"
  },
  "6692454": {
    "zipcode": "6692454",
    "prefectureCode": "28",
    "prefectureNumber": 28,
    "prefecture": "兵庫県",
    "city": "丹波篠山市",
    "town": "岩崎"
  },
  "6692455": {
    "zipcode": "6692455",
    "prefectureCode": "28",
    "prefectureNumber": 28,
    "prefecture": "兵庫県",
    "city": "丹波篠山市",
    "town": "宇土"
  },
  "6692461": {
    "zipcode": "6692461",
    "prefectureCode": "28",
    "prefectureNumber": 28,
    "prefecture": "兵庫県",
    "city": "丹波篠山市",
    "town": "小枕"
  },
  "6692462": {
    "zipcode": "6692462",
    "prefectureCode": "28",
    "prefectureNumber": 28,
    "prefecture": "兵庫県",
    "city": "丹波篠山市",
    "town": "真南条上"
  },
  "6692463": {
    "zipcode": "6692463",
    "prefectureCode": "28",
    "prefectureNumber": 28,
    "prefecture": "兵庫県",
    "city": "丹波篠山市",
    "town": "真南条中"
  },
  "6692464": {
    "zipcode": "6692464",
    "prefectureCode": "28",
    "prefectureNumber": 28,
    "prefecture": "兵庫県",
    "city": "丹波篠山市",
    "town": "真南条下"
  },
  "6692465": {
    "zipcode": "6692465",
    "prefectureCode": "28",
    "prefectureNumber": 28,
    "prefecture": "兵庫県",
    "city": "丹波篠山市",
    "town": "栗栖野"
  },
  "6692501": {
    "zipcode": "6692501",
    "prefectureCode": "28",
    "prefectureNumber": 28,
    "prefecture": "兵庫県",
    "city": "丹波篠山市",
    "town": "奥原山"
  },
  "6692502": {
    "zipcode": "6692502",
    "prefectureCode": "28",
    "prefectureNumber": 28,
    "prefecture": "兵庫県",
    "city": "丹波篠山市",
    "town": "中原山"
  },
  "6692503": {
    "zipcode": "6692503",
    "prefectureCode": "28",
    "prefectureNumber": 28,
    "prefecture": "兵庫県",
    "city": "丹波篠山市",
    "town": "下原山"
  },
  "6692504": {
    "zipcode": "6692504",
    "prefectureCode": "28",
    "prefectureNumber": 28,
    "prefecture": "兵庫県",
    "city": "丹波篠山市",
    "town": "西野々"
  },
  "6692505": {
    "zipcode": "6692505",
    "prefectureCode": "28",
    "prefectureNumber": 28,
    "prefecture": "兵庫県",
    "city": "丹波篠山市",
    "town": "安口"
  },
  "6692511": {
    "zipcode": "6692511",
    "prefectureCode": "28",
    "prefectureNumber": 28,
    "prefecture": "兵庫県",
    "city": "丹波篠山市",
    "town": "本明谷"
  },
  "6692512": {
    "zipcode": "6692512",
    "prefectureCode": "28",
    "prefectureNumber": 28,
    "prefecture": "兵庫県",
    "city": "丹波篠山市",
    "town": "川原"
  },
  "6692513": {
    "zipcode": "6692513",
    "prefectureCode": "28",
    "prefectureNumber": 28,
    "prefecture": "兵庫県",
    "city": "丹波篠山市",
    "town": "福住"
  },
  "6692521": {
    "zipcode": "6692521",
    "prefectureCode": "28",
    "prefectureNumber": 28,
    "prefecture": "兵庫県",
    "city": "丹波篠山市",
    "town": "二之坪"
  },
  "6692522": {
    "zipcode": "6692522",
    "prefectureCode": "28",
    "prefectureNumber": 28,
    "prefecture": "兵庫県",
    "city": "丹波篠山市",
    "town": "小野奥谷"
  },
  "6692523": {
    "zipcode": "6692523",
    "prefectureCode": "28",
    "prefectureNumber": 28,
    "prefecture": "兵庫県",
    "city": "丹波篠山市",
    "town": "小野新"
  },
  "6692524": {
    "zipcode": "6692524",
    "prefectureCode": "28",
    "prefectureNumber": 28,
    "prefecture": "兵庫県",
    "city": "丹波篠山市",
    "town": "箱谷"
  },
  "6692525": {
    "zipcode": "6692525",
    "prefectureCode": "28",
    "prefectureNumber": 28,
    "prefecture": "兵庫県",
    "city": "丹波篠山市",
    "town": "栃梨"
  },
  "6692526": {
    "zipcode": "6692526",
    "prefectureCode": "28",
    "prefectureNumber": 28,
    "prefecture": "兵庫県",
    "city": "丹波篠山市",
    "town": "向井"
  },
  "6692527": {
    "zipcode": "6692527",
    "prefectureCode": "28",
    "prefectureNumber": 28,
    "prefecture": "兵庫県",
    "city": "丹波篠山市",
    "town": "松ケ鼻"
  },
  "6692531": {
    "zipcode": "6692531",
    "prefectureCode": "28",
    "prefectureNumber": 28,
    "prefecture": "兵庫県",
    "city": "丹波篠山市",
    "town": "垂水"
  },
  "6692532": {
    "zipcode": "6692532",
    "prefectureCode": "28",
    "prefectureNumber": 28,
    "prefecture": "兵庫県",
    "city": "丹波篠山市",
    "town": "小立"
  },
  "6692533": {
    "zipcode": "6692533",
    "prefectureCode": "28",
    "prefectureNumber": 28,
    "prefecture": "兵庫県",
    "city": "丹波篠山市",
    "town": "山田"
  },
  "6692534": {
    "zipcode": "6692534",
    "prefectureCode": "28",
    "prefectureNumber": 28,
    "prefecture": "兵庫県",
    "city": "丹波篠山市",
    "town": "上筱見"
  },
  "6692535": {
    "zipcode": "6692535",
    "prefectureCode": "28",
    "prefectureNumber": 28,
    "prefecture": "兵庫県",
    "city": "丹波篠山市",
    "town": "下筱見"
  },
  "6692541": {
    "zipcode": "6692541",
    "prefectureCode": "28",
    "prefectureNumber": 28,
    "prefecture": "兵庫県",
    "city": "丹波篠山市",
    "town": "井串"
  },
  "6692542": {
    "zipcode": "6692542",
    "prefectureCode": "28",
    "prefectureNumber": 28,
    "prefecture": "兵庫県",
    "city": "丹波篠山市",
    "town": "細工所"
  },
  "6692543": {
    "zipcode": "6692543",
    "prefectureCode": "28",
    "prefectureNumber": 28,
    "prefecture": "兵庫県",
    "city": "丹波篠山市",
    "town": "塩岡"
  },
  "6692544": {
    "zipcode": "6692544",
    "prefectureCode": "28",
    "prefectureNumber": 28,
    "prefecture": "兵庫県",
    "city": "丹波篠山市",
    "town": "草ノ上"
  },
  "6692545": {
    "zipcode": "6692545",
    "prefectureCode": "28",
    "prefectureNumber": 28,
    "prefecture": "兵庫県",
    "city": "丹波篠山市",
    "town": "小田中"
  },
  "6692551": {
    "zipcode": "6692551",
    "prefectureCode": "28",
    "prefectureNumber": 28,
    "prefecture": "兵庫県",
    "city": "丹波篠山市",
    "town": "安田"
  },
  "6692552": {
    "zipcode": "6692552",
    "prefectureCode": "28",
    "prefectureNumber": 28,
    "prefecture": "兵庫県",
    "city": "丹波篠山市",
    "town": "藤之木"
  },
  "6692553": {
    "zipcode": "6692553",
    "prefectureCode": "28",
    "prefectureNumber": 28,
    "prefecture": "兵庫県",
    "city": "丹波篠山市",
    "town": "幡路"
  },
  "6692554": {
    "zipcode": "6692554",
    "prefectureCode": "28",
    "prefectureNumber": 28,
    "prefecture": "兵庫県",
    "city": "丹波篠山市",
    "town": "貝田"
  },
  "6692601": {
    "zipcode": "6692601",
    "prefectureCode": "28",
    "prefectureNumber": 28,
    "prefecture": "兵庫県",
    "city": "丹波篠山市",
    "town": "中"
  },
  "6692602": {
    "zipcode": "6692602",
    "prefectureCode": "28",
    "prefectureNumber": 28,
    "prefecture": "兵庫県",
    "city": "丹波篠山市",
    "town": "三熊"
  },
  "6692603": {
    "zipcode": "6692603",
    "prefectureCode": "28",
    "prefectureNumber": 28,
    "prefecture": "兵庫県",
    "city": "丹波篠山市",
    "town": "福井"
  },
  "6692604": {
    "zipcode": "6692604",
    "prefectureCode": "28",
    "prefectureNumber": 28,
    "prefecture": "兵庫県",
    "city": "丹波篠山市",
    "town": "小原"
  },
  "6692605": {
    "zipcode": "6692605",
    "prefectureCode": "28",
    "prefectureNumber": 28,
    "prefecture": "兵庫県",
    "city": "丹波篠山市",
    "town": "藤坂"
  },
  "6692611": {
    "zipcode": "6692611",
    "prefectureCode": "28",
    "prefectureNumber": 28,
    "prefecture": "兵庫県",
    "city": "丹波篠山市",
    "town": "大藤"
  },
  "6692612": {
    "zipcode": "6692612",
    "prefectureCode": "28",
    "prefectureNumber": 28,
    "prefecture": "兵庫県",
    "city": "丹波篠山市",
    "town": "立金"
  },
  "6692613": {
    "zipcode": "6692613",
    "prefectureCode": "28",
    "prefectureNumber": 28,
    "prefecture": "兵庫県",
    "city": "丹波篠山市",
    "town": "市野々"
  },
  "6692614": {
    "zipcode": "6692614",
    "prefectureCode": "28",
    "prefectureNumber": 28,
    "prefecture": "兵庫県",
    "city": "丹波篠山市",
    "town": "小倉"
  },
  "6692615": {
    "zipcode": "6692615",
    "prefectureCode": "28",
    "prefectureNumber": 28,
    "prefecture": "兵庫県",
    "city": "丹波篠山市",
    "town": "宮代"
  },
  "6692616": {
    "zipcode": "6692616",
    "prefectureCode": "28",
    "prefectureNumber": 28,
    "prefecture": "兵庫県",
    "city": "丹波篠山市",
    "town": "奥山"
  },
  "6692701": {
    "zipcode": "6692701",
    "prefectureCode": "28",
    "prefectureNumber": 28,
    "prefecture": "兵庫県",
    "city": "丹波篠山市",
    "town": "川阪"
  },
  "6692702": {
    "zipcode": "6692702",
    "prefectureCode": "28",
    "prefectureNumber": 28,
    "prefecture": "兵庫県",
    "city": "丹波篠山市",
    "town": "本郷"
  },
  "6692703": {
    "zipcode": "6692703",
    "prefectureCode": "28",
    "prefectureNumber": 28,
    "prefecture": "兵庫県",
    "city": "丹波篠山市",
    "town": "桑原"
  },
  "6692704": {
    "zipcode": "6692704",
    "prefectureCode": "28",
    "prefectureNumber": 28,
    "prefecture": "兵庫県",
    "city": "丹波篠山市",
    "town": "遠方"
  },
  "6692711": {
    "zipcode": "6692711",
    "prefectureCode": "28",
    "prefectureNumber": 28,
    "prefecture": "兵庫県",
    "city": "丹波篠山市",
    "town": "栗柄"
  },
  "6692712": {
    "zipcode": "6692712",
    "prefectureCode": "28",
    "prefectureNumber": 28,
    "prefecture": "兵庫県",
    "city": "丹波篠山市",
    "town": "坂本"
  },
  "6692713": {
    "zipcode": "6692713",
    "prefectureCode": "28",
    "prefectureNumber": 28,
    "prefecture": "兵庫県",
    "city": "丹波篠山市",
    "town": "倉本"
  },
  "6692714": {
    "zipcode": "6692714",
    "prefectureCode": "28",
    "prefectureNumber": 28,
    "prefecture": "兵庫県",
    "city": "丹波篠山市",
    "town": "垣屋"
  },
  "6692715": {
    "zipcode": "6692715",
    "prefectureCode": "28",
    "prefectureNumber": 28,
    "prefecture": "兵庫県",
    "city": "丹波篠山市",
    "town": "打坂"
  },
  "6692716": {
    "zipcode": "6692716",
    "prefectureCode": "28",
    "prefectureNumber": 28,
    "prefecture": "兵庫県",
    "city": "丹波篠山市",
    "town": "乗竹"
  },
  "6692717": {
    "zipcode": "6692717",
    "prefectureCode": "28",
    "prefectureNumber": 28,
    "prefecture": "兵庫県",
    "city": "丹波篠山市",
    "town": "高坂"
  },
  "6692718": {
    "zipcode": "6692718",
    "prefectureCode": "28",
    "prefectureNumber": 28,
    "prefecture": "兵庫県",
    "city": "丹波篠山市",
    "town": "市山"
  },
  "6692721": {
    "zipcode": "6692721",
    "prefectureCode": "28",
    "prefectureNumber": 28,
    "prefecture": "兵庫県",
    "city": "丹波篠山市",
    "town": "西谷"
  },
  "6692722": {
    "zipcode": "6692722",
    "prefectureCode": "28",
    "prefectureNumber": 28,
    "prefecture": "兵庫県",
    "city": "丹波篠山市",
    "town": "河内台"
  },
  "6692723": {
    "zipcode": "6692723",
    "prefectureCode": "28",
    "prefectureNumber": 28,
    "prefecture": "兵庫県",
    "city": "丹波篠山市",
    "town": "口阪本"
  },
  "6692724": {
    "zipcode": "6692724",
    "prefectureCode": "28",
    "prefectureNumber": 28,
    "prefecture": "兵庫県",
    "city": "丹波篠山市",
    "town": "川北"
  },
  "6692725": {
    "zipcode": "6692725",
    "prefectureCode": "28",
    "prefectureNumber": 28,
    "prefecture": "兵庫県",
    "city": "丹波篠山市",
    "town": "川北新田"
  },
  "6692726": {
    "zipcode": "6692726",
    "prefectureCode": "28",
    "prefectureNumber": 28,
    "prefecture": "兵庫県",
    "city": "丹波篠山市",
    "town": "黒田"
  },
  "6692727": {
    "zipcode": "6692727",
    "prefectureCode": "28",
    "prefectureNumber": 28,
    "prefecture": "兵庫県",
    "city": "丹波篠山市",
    "town": "高屋"
  },
  "6692728": {
    "zipcode": "6692728",
    "prefectureCode": "28",
    "prefectureNumber": 28,
    "prefecture": "兵庫県",
    "city": "丹波篠山市",
    "town": "西阪本"
  },
  "6692731": {
    "zipcode": "6692731",
    "prefectureCode": "28",
    "prefectureNumber": 28,
    "prefecture": "兵庫県",
    "city": "丹波篠山市",
    "town": "小坂"
  },
  "6692732": {
    "zipcode": "6692732",
    "prefectureCode": "28",
    "prefectureNumber": 28,
    "prefecture": "兵庫県",
    "city": "丹波篠山市",
    "town": "上板井"
  },
  "6692733": {
    "zipcode": "6692733",
    "prefectureCode": "28",
    "prefectureNumber": 28,
    "prefecture": "兵庫県",
    "city": "丹波篠山市",
    "town": "下板井"
  },
  "6692734": {
    "zipcode": "6692734",
    "prefectureCode": "28",
    "prefectureNumber": 28,
    "prefecture": "兵庫県",
    "city": "丹波篠山市",
    "town": "宮田"
  },
  "6692735": {
    "zipcode": "6692735",
    "prefectureCode": "28",
    "prefectureNumber": 28,
    "prefecture": "兵庫県",
    "city": "丹波篠山市",
    "town": "川西"
  },
  "6692736": {
    "zipcode": "6692736",
    "prefectureCode": "28",
    "prefectureNumber": 28,
    "prefecture": "兵庫県",
    "city": "丹波篠山市",
    "town": "西木之部"
  },
  "6692737": {
    "zipcode": "6692737",
    "prefectureCode": "28",
    "prefectureNumber": 28,
    "prefecture": "兵庫県",
    "city": "丹波篠山市",
    "town": "東木之部"
  },
  "6692801": {
    "zipcode": "6692801",
    "prefectureCode": "28",
    "prefectureNumber": 28,
    "prefecture": "兵庫県",
    "city": "丹波篠山市",
    "town": "追入"
  },
  "6692802": {
    "zipcode": "6692802",
    "prefectureCode": "28",
    "prefectureNumber": 28,
    "prefecture": "兵庫県",
    "city": "丹波篠山市",
    "town": "大山宮"
  },
  "6692803": {
    "zipcode": "6692803",
    "prefectureCode": "28",
    "prefectureNumber": 28,
    "prefecture": "兵庫県",
    "city": "丹波篠山市",
    "town": "大山上"
  },
  "6692804": {
    "zipcode": "6692804",
    "prefectureCode": "28",
    "prefectureNumber": 28,
    "prefecture": "兵庫県",
    "city": "丹波篠山市",
    "town": "荒子新田"
  },
  "6692805": {
    "zipcode": "6692805",
    "prefectureCode": "28",
    "prefectureNumber": 28,
    "prefecture": "兵庫県",
    "city": "丹波篠山市",
    "town": "園田分"
  },
  "6692811": {
    "zipcode": "6692811",
    "prefectureCode": "28",
    "prefectureNumber": 28,
    "prefecture": "兵庫県",
    "city": "丹波篠山市",
    "town": "石住"
  },
  "6692812": {
    "zipcode": "6692812",
    "prefectureCode": "28",
    "prefectureNumber": 28,
    "prefecture": "兵庫県",
    "city": "丹波篠山市",
    "town": "高倉"
  },
  "6692813": {
    "zipcode": "6692813",
    "prefectureCode": "28",
    "prefectureNumber": 28,
    "prefecture": "兵庫県",
    "city": "丹波篠山市",
    "town": "一印谷"
  },
  "6692814": {
    "zipcode": "6692814",
    "prefectureCode": "28",
    "prefectureNumber": 28,
    "prefecture": "兵庫県",
    "city": "丹波篠山市",
    "town": "長安寺"
  },
  "6692815": {
    "zipcode": "6692815",
    "prefectureCode": "28",
    "prefectureNumber": 28,
    "prefecture": "兵庫県",
    "city": "丹波篠山市",
    "town": "町ノ田"
  },
  "6692821": {
    "zipcode": "6692821",
    "prefectureCode": "28",
    "prefectureNumber": 28,
    "prefecture": "兵庫県",
    "city": "丹波篠山市",
    "town": "東河地"
  },
  "6692822": {
    "zipcode": "6692822",
    "prefectureCode": "28",
    "prefectureNumber": 28,
    "prefecture": "兵庫県",
    "city": "丹波篠山市",
    "town": "明野"
  },
  "6692823": {
    "zipcode": "6692823",
    "prefectureCode": "28",
    "prefectureNumber": 28,
    "prefecture": "兵庫県",
    "city": "丹波篠山市",
    "town": "大山下"
  },
  "6692824": {
    "zipcode": "6692824",
    "prefectureCode": "28",
    "prefectureNumber": 28,
    "prefecture": "兵庫県",
    "city": "丹波篠山市",
    "town": "北野"
  },
  "6692825": {
    "zipcode": "6692825",
    "prefectureCode": "28",
    "prefectureNumber": 28,
    "prefecture": "兵庫県",
    "city": "丹波篠山市",
    "town": "北野新田"
  },
  "6692826": {
    "zipcode": "6692826",
    "prefectureCode": "28",
    "prefectureNumber": 28,
    "prefecture": "兵庫県",
    "city": "丹波篠山市",
    "town": "徳永"
  },
  "6692827": {
    "zipcode": "6692827",
    "prefectureCode": "28",
    "prefectureNumber": 28,
    "prefecture": "兵庫県",
    "city": "丹波篠山市",
    "town": "大山新"
  },
  "6693101": {
    "zipcode": "6693101",
    "prefectureCode": "28",
    "prefectureNumber": 28,
    "prefecture": "兵庫県",
    "city": "丹波市",
    "town": "山南町上滝"
  },
  "6693102": {
    "zipcode": "6693102",
    "prefectureCode": "28",
    "prefectureNumber": 28,
    "prefecture": "兵庫県",
    "city": "丹波市",
    "town": "山南町下滝"
  },
  "6693103": {
    "zipcode": "6693103",
    "prefectureCode": "28",
    "prefectureNumber": 28,
    "prefecture": "兵庫県",
    "city": "丹波市",
    "town": "山南町篠場"
  },
  "6693104": {
    "zipcode": "6693104",
    "prefectureCode": "28",
    "prefectureNumber": 28,
    "prefecture": "兵庫県",
    "city": "丹波市",
    "town": "山南町畑内"
  },
  "6693105": {
    "zipcode": "6693105",
    "prefectureCode": "28",
    "prefectureNumber": 28,
    "prefecture": "兵庫県",
    "city": "丹波市",
    "town": "山南町北太田"
  },
  "6693111": {
    "zipcode": "6693111",
    "prefectureCode": "28",
    "prefectureNumber": 28,
    "prefecture": "兵庫県",
    "city": "丹波市",
    "town": "山南町阿草"
  },
  "6693112": {
    "zipcode": "6693112",
    "prefectureCode": "28",
    "prefectureNumber": 28,
    "prefecture": "兵庫県",
    "city": "丹波市",
    "town": "山南町青田"
  },
  "6693113": {
    "zipcode": "6693113",
    "prefectureCode": "28",
    "prefectureNumber": 28,
    "prefecture": "兵庫県",
    "city": "丹波市",
    "town": "山南町太田"
  },
  "6693121": {
    "zipcode": "6693121",
    "prefectureCode": "28",
    "prefectureNumber": 28,
    "prefecture": "兵庫県",
    "city": "丹波市",
    "town": "山南町奥野々"
  },
  "6693122": {
    "zipcode": "6693122",
    "prefectureCode": "28",
    "prefectureNumber": 28,
    "prefecture": "兵庫県",
    "city": "丹波市",
    "town": "山南町玉巻"
  },
  "6693123": {
    "zipcode": "6693123",
    "prefectureCode": "28",
    "prefectureNumber": 28,
    "prefecture": "兵庫県",
    "city": "丹波市",
    "town": "山南町大河"
  },
  "6693124": {
    "zipcode": "6693124",
    "prefectureCode": "28",
    "prefectureNumber": 28,
    "prefecture": "兵庫県",
    "city": "丹波市",
    "town": "山南町大谷"
  },
  "6693125": {
    "zipcode": "6693125",
    "prefectureCode": "28",
    "prefectureNumber": 28,
    "prefecture": "兵庫県",
    "city": "丹波市",
    "town": "山南町池谷"
  },
  "6693126": {
    "zipcode": "6693126",
    "prefectureCode": "28",
    "prefectureNumber": 28,
    "prefecture": "兵庫県",
    "city": "丹波市",
    "town": "山南町長野"
  },
  "6693127": {
    "zipcode": "6693127",
    "prefectureCode": "28",
    "prefectureNumber": 28,
    "prefecture": "兵庫県",
    "city": "丹波市",
    "town": "山南町岡本"
  },
  "6693128": {
    "zipcode": "6693128",
    "prefectureCode": "28",
    "prefectureNumber": 28,
    "prefecture": "兵庫県",
    "city": "丹波市",
    "town": "山南町金屋"
  },
  "6693131": {
    "zipcode": "6693131",
    "prefectureCode": "28",
    "prefectureNumber": 28,
    "prefecture": "兵庫県",
    "city": "丹波市",
    "town": "山南町谷川"
  },
  "6693132": {
    "zipcode": "6693132",
    "prefectureCode": "28",
    "prefectureNumber": 28,
    "prefecture": "兵庫県",
    "city": "丹波市",
    "town": "山南町山崎"
  },
  "6693141": {
    "zipcode": "6693141",
    "prefectureCode": "28",
    "prefectureNumber": 28,
    "prefecture": "兵庫県",
    "city": "丹波市",
    "town": "山南町岩屋"
  },
  "6693142": {
    "zipcode": "6693142",
    "prefectureCode": "28",
    "prefectureNumber": 28,
    "prefecture": "兵庫県",
    "city": "丹波市",
    "town": "山南町村森"
  },
  "6693143": {
    "zipcode": "6693143",
    "prefectureCode": "28",
    "prefectureNumber": 28,
    "prefecture": "兵庫県",
    "city": "丹波市",
    "town": "山南町井原"
  },
  "6693144": {
    "zipcode": "6693144",
    "prefectureCode": "28",
    "prefectureNumber": 28,
    "prefecture": "兵庫県",
    "city": "丹波市",
    "town": "山南町奥"
  },
  "6693145": {
    "zipcode": "6693145",
    "prefectureCode": "28",
    "prefectureNumber": 28,
    "prefecture": "兵庫県",
    "city": "丹波市",
    "town": "山南町野坂"
  },
  "6693146": {
    "zipcode": "6693146",
    "prefectureCode": "28",
    "prefectureNumber": 28,
    "prefecture": "兵庫県",
    "city": "丹波市",
    "town": "山南町南中"
  },
  "6693147": {
    "zipcode": "6693147",
    "prefectureCode": "28",
    "prefectureNumber": 28,
    "prefecture": "兵庫県",
    "city": "丹波市",
    "town": "山南町子茂田"
  },
  "6693148": {
    "zipcode": "6693148",
    "prefectureCode": "28",
    "prefectureNumber": 28,
    "prefecture": "兵庫県",
    "city": "丹波市",
    "town": "山南町きらら通"
  },
  "6693151": {
    "zipcode": "6693151",
    "prefectureCode": "28",
    "prefectureNumber": 28,
    "prefecture": "兵庫県",
    "city": "丹波市",
    "town": "山南町草部"
  },
  "6693152": {
    "zipcode": "6693152",
    "prefectureCode": "28",
    "prefectureNumber": 28,
    "prefecture": "兵庫県",
    "city": "丹波市",
    "town": "山南町北和田"
  },
  "6693153": {
    "zipcode": "6693153",
    "prefectureCode": "28",
    "prefectureNumber": 28,
    "prefecture": "兵庫県",
    "city": "丹波市",
    "town": "山南町前川"
  },
  "6693154": {
    "zipcode": "6693154",
    "prefectureCode": "28",
    "prefectureNumber": 28,
    "prefecture": "兵庫県",
    "city": "丹波市",
    "town": "山南町梶"
  },
  "6693155": {
    "zipcode": "6693155",
    "prefectureCode": "28",
    "prefectureNumber": 28,
    "prefecture": "兵庫県",
    "city": "丹波市",
    "town": "山南町小新屋"
  },
  "6693156": {
    "zipcode": "6693156",
    "prefectureCode": "28",
    "prefectureNumber": 28,
    "prefecture": "兵庫県",
    "city": "丹波市",
    "town": "山南町金倉"
  },
  "6693157": {
    "zipcode": "6693157",
    "prefectureCode": "28",
    "prefectureNumber": 28,
    "prefecture": "兵庫県",
    "city": "丹波市",
    "town": "山南町和田"
  },
  "6693158": {
    "zipcode": "6693158",
    "prefectureCode": "28",
    "prefectureNumber": 28,
    "prefecture": "兵庫県",
    "city": "丹波市",
    "town": "山南町応地"
  },
  "6693159": {
    "zipcode": "6693159",
    "prefectureCode": "28",
    "prefectureNumber": 28,
    "prefecture": "兵庫県",
    "city": "丹波市",
    "town": "山南町美和"
  },
  "6693161": {
    "zipcode": "6693161",
    "prefectureCode": "28",
    "prefectureNumber": 28,
    "prefecture": "兵庫県",
    "city": "丹波市",
    "town": "山南町五ケ野"
  },
  "6693162": {
    "zipcode": "6693162",
    "prefectureCode": "28",
    "prefectureNumber": 28,
    "prefecture": "兵庫県",
    "city": "丹波市",
    "town": "山南町坂尻"
  },
  "6693163": {
    "zipcode": "6693163",
    "prefectureCode": "28",
    "prefectureNumber": 28,
    "prefecture": "兵庫県",
    "city": "丹波市",
    "town": "山南町山本"
  },
  "6693164": {
    "zipcode": "6693164",
    "prefectureCode": "28",
    "prefectureNumber": 28,
    "prefecture": "兵庫県",
    "city": "丹波市",
    "town": "山南町若林"
  },
  "6693165": {
    "zipcode": "6693165",
    "prefectureCode": "28",
    "prefectureNumber": 28,
    "prefecture": "兵庫県",
    "city": "丹波市",
    "town": "山南町富田"
  },
  "6693166": {
    "zipcode": "6693166",
    "prefectureCode": "28",
    "prefectureNumber": 28,
    "prefecture": "兵庫県",
    "city": "丹波市",
    "town": "山南町小野尻"
  },
  "6693167": {
    "zipcode": "6693167",
    "prefectureCode": "28",
    "prefectureNumber": 28,
    "prefecture": "兵庫県",
    "city": "丹波市",
    "town": "山南町小畑"
  },
  "6693168": {
    "zipcode": "6693168",
    "prefectureCode": "28",
    "prefectureNumber": 28,
    "prefecture": "兵庫県",
    "city": "丹波市",
    "town": "山南町西谷"
  },
  "6693300": {
    "zipcode": "6693300",
    "prefectureCode": "28",
    "prefectureNumber": 28,
    "prefecture": "兵庫県",
    "city": "丹波市",
    "town": "以下に掲載がない場合"
  },
  "6693301": {
    "zipcode": "6693301",
    "prefectureCode": "28",
    "prefectureNumber": 28,
    "prefecture": "兵庫県",
    "city": "丹波市",
    "town": "柏原町南多田"
  },
  "6693302": {
    "zipcode": "6693302",
    "prefectureCode": "28",
    "prefectureNumber": 28,
    "prefecture": "兵庫県",
    "city": "丹波市",
    "town": "柏原町東奥"
  },
  "6693303": {
    "zipcode": "6693303",
    "prefectureCode": "28",
    "prefectureNumber": 28,
    "prefecture": "兵庫県",
    "city": "丹波市",
    "town": "柏原町見長"
  },
  "6693304": {
    "zipcode": "6693304",
    "prefectureCode": "28",
    "prefectureNumber": 28,
    "prefecture": "兵庫県",
    "city": "丹波市",
    "town": "柏原町上小倉"
  },
  "6693305": {
    "zipcode": "6693305",
    "prefectureCode": "28",
    "prefectureNumber": 28,
    "prefecture": "兵庫県",
    "city": "丹波市",
    "town": "柏原町下小倉"
  },
  "6693306": {
    "zipcode": "6693306",
    "prefectureCode": "28",
    "prefectureNumber": 28,
    "prefecture": "兵庫県",
    "city": "丹波市",
    "town": "柏原町北中"
  },
  "6693307": {
    "zipcode": "6693307",
    "prefectureCode": "28",
    "prefectureNumber": 28,
    "prefecture": "兵庫県",
    "city": "丹波市",
    "town": "柏原町石戸"
  },
  "6693308": {
    "zipcode": "6693308",
    "prefectureCode": "28",
    "prefectureNumber": 28,
    "prefecture": "兵庫県",
    "city": "丹波市",
    "town": "柏原町小南"
  },
  "6693309": {
    "zipcode": "6693309",
    "prefectureCode": "28",
    "prefectureNumber": 28,
    "prefecture": "兵庫県",
    "city": "丹波市",
    "town": "柏原町柏原"
  },
  "6693311": {
    "zipcode": "6693311",
    "prefectureCode": "28",
    "prefectureNumber": 28,
    "prefecture": "兵庫県",
    "city": "丹波市",
    "town": "柏原町母坪"
  },
  "6693312": {
    "zipcode": "6693312",
    "prefectureCode": "28",
    "prefectureNumber": 28,
    "prefecture": "兵庫県",
    "city": "丹波市",
    "town": "柏原町田路"
  },
  "6693313": {
    "zipcode": "6693313",
    "prefectureCode": "28",
    "prefectureNumber": 28,
    "prefecture": "兵庫県",
    "city": "丹波市",
    "town": "柏原町北山"
  },
  "6693314": {
    "zipcode": "6693314",
    "prefectureCode": "28",
    "prefectureNumber": 28,
    "prefecture": "兵庫県",
    "city": "丹波市",
    "town": "柏原町挙田"
  },
  "6693315": {
    "zipcode": "6693315",
    "prefectureCode": "28",
    "prefectureNumber": 28,
    "prefecture": "兵庫県",
    "city": "丹波市",
    "town": "柏原町大新屋"
  },
  "6693316": {
    "zipcode": "6693316",
    "prefectureCode": "28",
    "prefectureNumber": 28,
    "prefecture": "兵庫県",
    "city": "丹波市",
    "town": "柏原町鴨野"
  },
  "6693401": {
    "zipcode": "6693401",
    "prefectureCode": "28",
    "prefectureNumber": 28,
    "prefecture": "兵庫県",
    "city": "丹波市",
    "town": "春日町山田"
  },
  "6693402": {
    "zipcode": "6693402",
    "prefectureCode": "28",
    "prefectureNumber": 28,
    "prefecture": "兵庫県",
    "city": "丹波市",
    "town": "春日町新才"
  },
  "6693403": {
    "zipcode": "6693403",
    "prefectureCode": "28",
    "prefectureNumber": 28,
    "prefecture": "兵庫県",
    "city": "丹波市",
    "town": "春日町長王"
  },
  "6693404": {
    "zipcode": "6693404",
    "prefectureCode": "28",
    "prefectureNumber": 28,
    "prefecture": "兵庫県",
    "city": "丹波市",
    "town": "春日町牛河内"
  },
  "6693411": {
    "zipcode": "6693411",
    "prefectureCode": "28",
    "prefectureNumber": 28,
    "prefecture": "兵庫県",
    "city": "丹波市",
    "town": "春日町朝日"
  },
  "6693412": {
    "zipcode": "6693412",
    "prefectureCode": "28",
    "prefectureNumber": 28,
    "prefecture": "兵庫県",
    "city": "丹波市",
    "town": "春日町園部"
  },
  "6693413": {
    "zipcode": "6693413",
    "prefectureCode": "28",
    "prefectureNumber": 28,
    "prefecture": "兵庫県",
    "city": "丹波市",
    "town": "春日町石才"
  },
  "6693414": {
    "zipcode": "6693414",
    "prefectureCode": "28",
    "prefectureNumber": 28,
    "prefecture": "兵庫県",
    "city": "丹波市",
    "town": "春日町歌道谷"
  },
  "6693415": {
    "zipcode": "6693415",
    "prefectureCode": "28",
    "prefectureNumber": 28,
    "prefecture": "兵庫県",
    "city": "丹波市",
    "town": "春日町坂"
  },
  "6693416": {
    "zipcode": "6693416",
    "prefectureCode": "28",
    "prefectureNumber": 28,
    "prefecture": "兵庫県",
    "city": "丹波市",
    "town": "春日町野山"
  },
  "6693461": {
    "zipcode": "6693461",
    "prefectureCode": "28",
    "prefectureNumber": 28,
    "prefecture": "兵庫県",
    "city": "丹波市",
    "town": "氷上町市辺"
  },
  "6693462": {
    "zipcode": "6693462",
    "prefectureCode": "28",
    "prefectureNumber": 28,
    "prefecture": "兵庫県",
    "city": "丹波市",
    "town": "氷上町大崎"
  },
  "6693463": {
    "zipcode": "6693463",
    "prefectureCode": "28",
    "prefectureNumber": 28,
    "prefecture": "兵庫県",
    "city": "丹波市",
    "town": "氷上町北野"
  },
  "6693464": {
    "zipcode": "6693464",
    "prefectureCode": "28",
    "prefectureNumber": 28,
    "prefecture": "兵庫県",
    "city": "丹波市",
    "town": "氷上町石生"
  },
  "6693465": {
    "zipcode": "6693465",
    "prefectureCode": "28",
    "prefectureNumber": 28,
    "prefecture": "兵庫県",
    "city": "丹波市",
    "town": "氷上町横田"
  },
  "6693466": {
    "zipcode": "6693466",
    "prefectureCode": "28",
    "prefectureNumber": 28,
    "prefecture": "兵庫県",
    "city": "丹波市",
    "town": "氷上町稲継"
  },
  "6693467": {
    "zipcode": "6693467",
    "prefectureCode": "28",
    "prefectureNumber": 28,
    "prefecture": "兵庫県",
    "city": "丹波市",
    "town": "氷上町本郷"
  },
  "6693571": {
    "zipcode": "6693571",
    "prefectureCode": "28",
    "prefectureNumber": 28,
    "prefecture": "兵庫県",
    "city": "丹波市",
    "town": "氷上町新郷"
  },
  "6693572": {
    "zipcode": "6693572",
    "prefectureCode": "28",
    "prefectureNumber": 28,
    "prefecture": "兵庫県",
    "city": "丹波市",
    "town": "氷上町谷村"
  },
  "6693573": {
    "zipcode": "6693573",
    "prefectureCode": "28",
    "prefectureNumber": 28,
    "prefecture": "兵庫県",
    "city": "丹波市",
    "town": "氷上町油利"
  },
  "6693574": {
    "zipcode": "6693574",
    "prefectureCode": "28",
    "prefectureNumber": 28,
    "prefecture": "兵庫県",
    "city": "丹波市",
    "town": "氷上町朝阪"
  },
  "6693575": {
    "zipcode": "6693575",
    "prefectureCode": "28",
    "prefectureNumber": 28,
    "prefecture": "兵庫県",
    "city": "丹波市",
    "town": "氷上町小野"
  },
  "6693581": {
    "zipcode": "6693581",
    "prefectureCode": "28",
    "prefectureNumber": 28,
    "prefecture": "兵庫県",
    "city": "丹波市",
    "town": "氷上町稲畑"
  },
  "6693582": {
    "zipcode": "6693582",
    "prefectureCode": "28",
    "prefectureNumber": 28,
    "prefecture": "兵庫県",
    "city": "丹波市",
    "town": "氷上町佐野"
  },
  "6693583": {
    "zipcode": "6693583",
    "prefectureCode": "28",
    "prefectureNumber": 28,
    "prefecture": "兵庫県",
    "city": "丹波市",
    "town": "氷上町福田"
  },
  "6693601": {
    "zipcode": "6693601",
    "prefectureCode": "28",
    "prefectureNumber": 28,
    "prefecture": "兵庫県",
    "city": "丹波市",
    "town": "氷上町成松"
  },
  "6693602": {
    "zipcode": "6693602",
    "prefectureCode": "28",
    "prefectureNumber": 28,
    "prefecture": "兵庫県",
    "city": "丹波市",
    "town": "氷上町常楽"
  },
  "6693603": {
    "zipcode": "6693603",
    "prefectureCode": "28",
    "prefectureNumber": 28,
    "prefecture": "兵庫県",
    "city": "丹波市",
    "town": "氷上町西中"
  },
  "6693604": {
    "zipcode": "6693604",
    "prefectureCode": "28",
    "prefectureNumber": 28,
    "prefecture": "兵庫県",
    "city": "丹波市",
    "town": "氷上町犬岡"
  },
  "6693605": {
    "zipcode": "6693605",
    "prefectureCode": "28",
    "prefectureNumber": 28,
    "prefecture": "兵庫県",
    "city": "丹波市",
    "town": "氷上町黒田"
  },
  "6693606": {
    "zipcode": "6693606",
    "prefectureCode": "28",
    "prefectureNumber": 28,
    "prefecture": "兵庫県",
    "city": "丹波市",
    "town": "氷上町上成松"
  },
  "6693611": {
    "zipcode": "6693611",
    "prefectureCode": "28",
    "prefectureNumber": 28,
    "prefecture": "兵庫県",
    "city": "丹波市",
    "town": "氷上町柿柴"
  },
  "6693612": {
    "zipcode": "6693612",
    "prefectureCode": "28",
    "prefectureNumber": 28,
    "prefecture": "兵庫県",
    "city": "丹波市",
    "town": "氷上町長野"
  },
  "6693613": {
    "zipcode": "6693613",
    "prefectureCode": "28",
    "prefectureNumber": 28,
    "prefecture": "兵庫県",
    "city": "丹波市",
    "town": "氷上町上新庄"
  },
  "6693614": {
    "zipcode": "6693614",
    "prefectureCode": "28",
    "prefectureNumber": 28,
    "prefecture": "兵庫県",
    "city": "丹波市",
    "town": "氷上町下新庄"
  },
  "6693621": {
    "zipcode": "6693621",
    "prefectureCode": "28",
    "prefectureNumber": 28,
    "prefecture": "兵庫県",
    "city": "丹波市",
    "town": "氷上町大谷"
  },
  "6693622": {
    "zipcode": "6693622",
    "prefectureCode": "28",
    "prefectureNumber": 28,
    "prefecture": "兵庫県",
    "city": "丹波市",
    "town": "氷上町三原"
  },
  "6693623": {
    "zipcode": "6693623",
    "prefectureCode": "28",
    "prefectureNumber": 28,
    "prefecture": "兵庫県",
    "city": "丹波市",
    "town": "氷上町中野"
  },
  "6693624": {
    "zipcode": "6693624",
    "prefectureCode": "28",
    "prefectureNumber": 28,
    "prefecture": "兵庫県",
    "city": "丹波市",
    "town": "氷上町三方"
  },
  "6693625": {
    "zipcode": "6693625",
    "prefectureCode": "28",
    "prefectureNumber": 28,
    "prefecture": "兵庫県",
    "city": "丹波市",
    "town": "氷上町中"
  },
  "6693626": {
    "zipcode": "6693626",
    "prefectureCode": "28",
    "prefectureNumber": 28,
    "prefecture": "兵庫県",
    "city": "丹波市",
    "town": "氷上町清住"
  },
  "6693631": {
    "zipcode": "6693631",
    "prefectureCode": "28",
    "prefectureNumber": 28,
    "prefecture": "兵庫県",
    "city": "丹波市",
    "town": "氷上町賀茂"
  },
  "6693632": {
    "zipcode": "6693632",
    "prefectureCode": "28",
    "prefectureNumber": 28,
    "prefecture": "兵庫県",
    "city": "丹波市",
    "town": "氷上町井中"
  },
  "6693633": {
    "zipcode": "6693633",
    "prefectureCode": "28",
    "prefectureNumber": 28,
    "prefecture": "兵庫県",
    "city": "丹波市",
    "town": "氷上町御油"
  },
  "6693634": {
    "zipcode": "6693634",
    "prefectureCode": "28",
    "prefectureNumber": 28,
    "prefecture": "兵庫県",
    "city": "丹波市",
    "town": "氷上町沼"
  },
  "6693641": {
    "zipcode": "6693641",
    "prefectureCode": "28",
    "prefectureNumber": 28,
    "prefecture": "兵庫県",
    "city": "丹波市",
    "town": "氷上町絹山"
  },
  "6693642": {
    "zipcode": "6693642",
    "prefectureCode": "28",
    "prefectureNumber": 28,
    "prefecture": "兵庫県",
    "city": "丹波市",
    "town": "氷上町香良"
  },
  "6693643": {
    "zipcode": "6693643",
    "prefectureCode": "28",
    "prefectureNumber": 28,
    "prefecture": "兵庫県",
    "city": "丹波市",
    "town": "氷上町伊佐口"
  },
  "6693644": {
    "zipcode": "6693644",
    "prefectureCode": "28",
    "prefectureNumber": 28,
    "prefecture": "兵庫県",
    "city": "丹波市",
    "town": "氷上町日比宇"
  },
  "6693645": {
    "zipcode": "6693645",
    "prefectureCode": "28",
    "prefectureNumber": 28,
    "prefecture": "兵庫県",
    "city": "丹波市",
    "town": "氷上町鴨内"
  },
  "6693646": {
    "zipcode": "6693646",
    "prefectureCode": "28",
    "prefectureNumber": 28,
    "prefecture": "兵庫県",
    "city": "丹波市",
    "town": "氷上町小谷"
  },
  "6693651": {
    "zipcode": "6693651",
    "prefectureCode": "28",
    "prefectureNumber": 28,
    "prefecture": "兵庫県",
    "city": "丹波市",
    "town": "氷上町氷上"
  },
  "6693652": {
    "zipcode": "6693652",
    "prefectureCode": "28",
    "prefectureNumber": 28,
    "prefecture": "兵庫県",
    "city": "丹波市",
    "town": "氷上町桟敷"
  },
  "6693653": {
    "zipcode": "6693653",
    "prefectureCode": "28",
    "prefectureNumber": 28,
    "prefecture": "兵庫県",
    "city": "丹波市",
    "town": "氷上町北油良"
  },
  "6693654": {
    "zipcode": "6693654",
    "prefectureCode": "28",
    "prefectureNumber": 28,
    "prefecture": "兵庫県",
    "city": "丹波市",
    "town": "氷上町南油良"
  },
  "6693801": {
    "zipcode": "6693801",
    "prefectureCode": "28",
    "prefectureNumber": 28,
    "prefecture": "兵庫県",
    "city": "丹波市",
    "town": "青垣町東芦田"
  },
  "6693802": {
    "zipcode": "6693802",
    "prefectureCode": "28",
    "prefectureNumber": 28,
    "prefecture": "兵庫県",
    "city": "丹波市",
    "town": "青垣町栗住野"
  },
  "6693803": {
    "zipcode": "6693803",
    "prefectureCode": "28",
    "prefectureNumber": 28,
    "prefecture": "兵庫県",
    "city": "丹波市",
    "town": "青垣町西芦田"
  },
  "6693804": {
    "zipcode": "6693804",
    "prefectureCode": "28",
    "prefectureNumber": 28,
    "prefecture": "兵庫県",
    "city": "丹波市",
    "town": "青垣町田井縄"
  },
  "6693811": {
    "zipcode": "6693811",
    "prefectureCode": "28",
    "prefectureNumber": 28,
    "prefecture": "兵庫県",
    "city": "丹波市",
    "town": "青垣町佐治"
  },
  "6693812": {
    "zipcode": "6693812",
    "prefectureCode": "28",
    "prefectureNumber": 28,
    "prefecture": "兵庫県",
    "city": "丹波市",
    "town": "青垣町小倉"
  },
  "6693821": {
    "zipcode": "6693821",
    "prefectureCode": "28",
    "prefectureNumber": 28,
    "prefecture": "兵庫県",
    "city": "丹波市",
    "town": "青垣町桧倉"
  },
  "6693822": {
    "zipcode": "6693822",
    "prefectureCode": "28",
    "prefectureNumber": 28,
    "prefecture": "兵庫県",
    "city": "丹波市",
    "town": "青垣町大名草"
  },
  "6693823": {
    "zipcode": "6693823",
    "prefectureCode": "28",
    "prefectureNumber": 28,
    "prefecture": "兵庫県",
    "city": "丹波市",
    "town": "青垣町大稗"
  },
  "6693824": {
    "zipcode": "6693824",
    "prefectureCode": "28",
    "prefectureNumber": 28,
    "prefecture": "兵庫県",
    "city": "丹波市",
    "town": "青垣町小稗"
  },
  "6693825": {
    "zipcode": "6693825",
    "prefectureCode": "28",
    "prefectureNumber": 28,
    "prefecture": "兵庫県",
    "city": "丹波市",
    "town": "青垣町惣持"
  },
  "6693826": {
    "zipcode": "6693826",
    "prefectureCode": "28",
    "prefectureNumber": 28,
    "prefecture": "兵庫県",
    "city": "丹波市",
    "town": "青垣町文室"
  },
  "6693827": {
    "zipcode": "6693827",
    "prefectureCode": "28",
    "prefectureNumber": 28,
    "prefecture": "兵庫県",
    "city": "丹波市",
    "town": "青垣町稲土"
  },
  "6693831": {
    "zipcode": "6693831",
    "prefectureCode": "28",
    "prefectureNumber": 28,
    "prefecture": "兵庫県",
    "city": "丹波市",
    "town": "青垣町市原"
  },
  "6693832": {
    "zipcode": "6693832",
    "prefectureCode": "28",
    "prefectureNumber": 28,
    "prefecture": "兵庫県",
    "city": "丹波市",
    "town": "青垣町遠阪"
  },
  "6693833": {
    "zipcode": "6693833",
    "prefectureCode": "28",
    "prefectureNumber": 28,
    "prefecture": "兵庫県",
    "city": "丹波市",
    "town": "青垣町山垣"
  },
  "6693834": {
    "zipcode": "6693834",
    "prefectureCode": "28",
    "prefectureNumber": 28,
    "prefecture": "兵庫県",
    "city": "丹波市",
    "town": "青垣町中佐治"
  },
  "6693841": {
    "zipcode": "6693841",
    "prefectureCode": "28",
    "prefectureNumber": 28,
    "prefecture": "兵庫県",
    "city": "丹波市",
    "town": "青垣町口塩久"
  },
  "6693842": {
    "zipcode": "6693842",
    "prefectureCode": "28",
    "prefectureNumber": 28,
    "prefecture": "兵庫県",
    "city": "丹波市",
    "town": "青垣町沢野"
  },
  "6693843": {
    "zipcode": "6693843",
    "prefectureCode": "28",
    "prefectureNumber": 28,
    "prefecture": "兵庫県",
    "city": "丹波市",
    "town": "青垣町奥塩久"
  },
  "6694121": {
    "zipcode": "6694121",
    "prefectureCode": "28",
    "prefectureNumber": 28,
    "prefecture": "兵庫県",
    "city": "丹波市",
    "town": "春日町池尾"
  },
  "6694122": {
    "zipcode": "6694122",
    "prefectureCode": "28",
    "prefectureNumber": 28,
    "prefecture": "兵庫県",
    "city": "丹波市",
    "town": "春日町小多利"
  },
  "6694123": {
    "zipcode": "6694123",
    "prefectureCode": "28",
    "prefectureNumber": 28,
    "prefecture": "兵庫県",
    "city": "丹波市",
    "town": "春日町多利"
  },
  "6694124": {
    "zipcode": "6694124",
    "prefectureCode": "28",
    "prefectureNumber": 28,
    "prefecture": "兵庫県",
    "city": "丹波市",
    "town": "春日町野上野"
  },
  "6694125": {
    "zipcode": "6694125",
    "prefectureCode": "28",
    "prefectureNumber": 28,
    "prefecture": "兵庫県",
    "city": "丹波市",
    "town": "春日町多田"
  },
  "6694131": {
    "zipcode": "6694131",
    "prefectureCode": "28",
    "prefectureNumber": 28,
    "prefecture": "兵庫県",
    "city": "丹波市",
    "town": "春日町七日市"
  },
  "6694132": {
    "zipcode": "6694132",
    "prefectureCode": "28",
    "prefectureNumber": 28,
    "prefecture": "兵庫県",
    "city": "丹波市",
    "town": "春日町野村"
  },
  "6694133": {
    "zipcode": "6694133",
    "prefectureCode": "28",
    "prefectureNumber": 28,
    "prefecture": "兵庫県",
    "city": "丹波市",
    "town": "春日町平松"
  },
  "6694134": {
    "zipcode": "6694134",
    "prefectureCode": "28",
    "prefectureNumber": 28,
    "prefecture": "兵庫県",
    "city": "丹波市",
    "town": "春日町古河"
  },
  "6694135": {
    "zipcode": "6694135",
    "prefectureCode": "28",
    "prefectureNumber": 28,
    "prefecture": "兵庫県",
    "city": "丹波市",
    "town": "春日町稲塚"
  },
  "6694141": {
    "zipcode": "6694141",
    "prefectureCode": "28",
    "prefectureNumber": 28,
    "prefecture": "兵庫県",
    "city": "丹波市",
    "town": "春日町黒井"
  },
  "6694251": {
    "zipcode": "6694251",
    "prefectureCode": "28",
    "prefectureNumber": 28,
    "prefecture": "兵庫県",
    "city": "丹波市",
    "town": "春日町上三井庄"
  },
  "6694252": {
    "zipcode": "6694252",
    "prefectureCode": "28",
    "prefectureNumber": 28,
    "prefecture": "兵庫県",
    "city": "丹波市",
    "town": "春日町下三井庄"
  },
  "6694253": {
    "zipcode": "6694253",
    "prefectureCode": "28",
    "prefectureNumber": 28,
    "prefecture": "兵庫県",
    "city": "丹波市",
    "town": "春日町鹿場"
  },
  "6694261": {
    "zipcode": "6694261",
    "prefectureCode": "28",
    "prefectureNumber": 28,
    "prefecture": "兵庫県",
    "city": "丹波市",
    "town": "春日町野瀬"
  },
  "6694262": {
    "zipcode": "6694262",
    "prefectureCode": "28",
    "prefectureNumber": 28,
    "prefecture": "兵庫県",
    "city": "丹波市",
    "town": "春日町栢野"
  },
  "6694263": {
    "zipcode": "6694263",
    "prefectureCode": "28",
    "prefectureNumber": 28,
    "prefecture": "兵庫県",
    "city": "丹波市",
    "town": "春日町広瀬"
  },
  "6694264": {
    "zipcode": "6694264",
    "prefectureCode": "28",
    "prefectureNumber": 28,
    "prefecture": "兵庫県",
    "city": "丹波市",
    "town": "春日町松森"
  },
  "6694265": {
    "zipcode": "6694265",
    "prefectureCode": "28",
    "prefectureNumber": 28,
    "prefecture": "兵庫県",
    "city": "丹波市",
    "town": "春日町中山"
  },
  "6694271": {
    "zipcode": "6694271",
    "prefectureCode": "28",
    "prefectureNumber": 28,
    "prefecture": "兵庫県",
    "city": "丹波市",
    "town": "春日町柚津"
  },
  "6694272": {
    "zipcode": "6694272",
    "prefectureCode": "28",
    "prefectureNumber": 28,
    "prefecture": "兵庫県",
    "city": "丹波市",
    "town": "春日町東中"
  },
  "6694273": {
    "zipcode": "6694273",
    "prefectureCode": "28",
    "prefectureNumber": 28,
    "prefecture": "兵庫県",
    "city": "丹波市",
    "town": "春日町国領"
  },
  "6694274": {
    "zipcode": "6694274",
    "prefectureCode": "28",
    "prefectureNumber": 28,
    "prefecture": "兵庫県",
    "city": "丹波市",
    "town": "春日町棚原"
  },
  "6694301": {
    "zipcode": "6694301",
    "prefectureCode": "28",
    "prefectureNumber": 28,
    "prefecture": "兵庫県",
    "city": "丹波市",
    "town": "市島町下竹田"
  },
  "6694302": {
    "zipcode": "6694302",
    "prefectureCode": "28",
    "prefectureNumber": 28,
    "prefecture": "兵庫県",
    "city": "丹波市",
    "town": "市島町中竹田"
  },
  "6694311": {
    "zipcode": "6694311",
    "prefectureCode": "28",
    "prefectureNumber": 28,
    "prefecture": "兵庫県",
    "city": "丹波市",
    "town": "市島町戸平"
  },
  "6694312": {
    "zipcode": "6694312",
    "prefectureCode": "28",
    "prefectureNumber": 28,
    "prefecture": "兵庫県",
    "city": "丹波市",
    "town": "市島町北奥"
  },
  "6694313": {
    "zipcode": "6694313",
    "prefectureCode": "28",
    "prefectureNumber": 28,
    "prefecture": "兵庫県",
    "city": "丹波市",
    "town": "市島町多利"
  },
  "6694314": {
    "zipcode": "6694314",
    "prefectureCode": "28",
    "prefectureNumber": 28,
    "prefecture": "兵庫県",
    "city": "丹波市",
    "town": "市島町南"
  },
  "6694315": {
    "zipcode": "6694315",
    "prefectureCode": "28",
    "prefectureNumber": 28,
    "prefecture": "兵庫県",
    "city": "丹波市",
    "town": "市島町喜多"
  },
  "6694316": {
    "zipcode": "6694316",
    "prefectureCode": "28",
    "prefectureNumber": 28,
    "prefecture": "兵庫県",
    "city": "丹波市",
    "town": "市島町岩戸"
  },
  "6694317": {
    "zipcode": "6694317",
    "prefectureCode": "28",
    "prefectureNumber": 28,
    "prefecture": "兵庫県",
    "city": "丹波市",
    "town": "市島町上牧"
  },
  "6694321": {
    "zipcode": "6694321",
    "prefectureCode": "28",
    "prefectureNumber": 28,
    "prefecture": "兵庫県",
    "city": "丹波市",
    "town": "市島町上垣"
  },
  "6694322": {
    "zipcode": "6694322",
    "prefectureCode": "28",
    "prefectureNumber": 28,
    "prefecture": "兵庫県",
    "city": "丹波市",
    "town": "市島町上田"
  },
  "6694323": {
    "zipcode": "6694323",
    "prefectureCode": "28",
    "prefectureNumber": 28,
    "prefecture": "兵庫県",
    "city": "丹波市",
    "town": "市島町梶原"
  },
  "6694324": {
    "zipcode": "6694324",
    "prefectureCode": "28",
    "prefectureNumber": 28,
    "prefecture": "兵庫県",
    "city": "丹波市",
    "town": "市島町市島"
  },
  "6694325": {
    "zipcode": "6694325",
    "prefectureCode": "28",
    "prefectureNumber": 28,
    "prefecture": "兵庫県",
    "city": "丹波市",
    "town": "市島町北岡本"
  },
  "6694331": {
    "zipcode": "6694331",
    "prefectureCode": "28",
    "prefectureNumber": 28,
    "prefecture": "兵庫県",
    "city": "丹波市",
    "town": "市島町東勅使"
  },
  "6694332": {
    "zipcode": "6694332",
    "prefectureCode": "28",
    "prefectureNumber": 28,
    "prefecture": "兵庫県",
    "city": "丹波市",
    "town": "市島町勅使"
  },
  "6694333": {
    "zipcode": "6694333",
    "prefectureCode": "28",
    "prefectureNumber": 28,
    "prefecture": "兵庫県",
    "city": "丹波市",
    "town": "市島町戸坂"
  },
  "6694334": {
    "zipcode": "6694334",
    "prefectureCode": "28",
    "prefectureNumber": 28,
    "prefecture": "兵庫県",
    "city": "丹波市",
    "town": "市島町白毫寺"
  },
  "6694335": {
    "zipcode": "6694335",
    "prefectureCode": "28",
    "prefectureNumber": 28,
    "prefecture": "兵庫県",
    "city": "丹波市",
    "town": "市島町与戸"
  },
  "6694336": {
    "zipcode": "6694336",
    "prefectureCode": "28",
    "prefectureNumber": 28,
    "prefecture": "兵庫県",
    "city": "丹波市",
    "town": "市島町乙河内"
  },
  "6694337": {
    "zipcode": "6694337",
    "prefectureCode": "28",
    "prefectureNumber": 28,
    "prefecture": "兵庫県",
    "city": "丹波市",
    "town": "市島町酒梨"
  },
  "6694341": {
    "zipcode": "6694341",
    "prefectureCode": "28",
    "prefectureNumber": 28,
    "prefecture": "兵庫県",
    "city": "丹波市",
    "town": "市島町上竹田"
  },
  "6694342": {
    "zipcode": "6694342",
    "prefectureCode": "28",
    "prefectureNumber": 28,
    "prefecture": "兵庫県",
    "city": "丹波市",
    "town": "市島町矢代"
  },
  "6694343": {
    "zipcode": "6694343",
    "prefectureCode": "28",
    "prefectureNumber": 28,
    "prefecture": "兵庫県",
    "city": "丹波市",
    "town": "市島町下鴨阪"
  },
  "6694344": {
    "zipcode": "6694344",
    "prefectureCode": "28",
    "prefectureNumber": 28,
    "prefecture": "兵庫県",
    "city": "丹波市",
    "town": "市島町上鴨阪"
  },
  "6694345": {
    "zipcode": "6694345",
    "prefectureCode": "28",
    "prefectureNumber": 28,
    "prefecture": "兵庫県",
    "city": "丹波市",
    "town": "市島町徳尾"
  },
  "6695101": {
    "zipcode": "6695101",
    "prefectureCode": "28",
    "prefectureNumber": 28,
    "prefecture": "兵庫県",
    "city": "朝来市",
    "town": "山東町滝田"
  },
  "6695102": {
    "zipcode": "6695102",
    "prefectureCode": "28",
    "prefectureNumber": 28,
    "prefecture": "兵庫県",
    "city": "朝来市",
    "town": "山東町大垣"
  },
  "6695103": {
    "zipcode": "6695103",
    "prefectureCode": "28",
    "prefectureNumber": 28,
    "prefecture": "兵庫県",
    "city": "朝来市",
    "town": "山東町矢名瀬町"
  },
  "6695104": {
    "zipcode": "6695104",
    "prefectureCode": "28",
    "prefectureNumber": 28,
    "prefecture": "兵庫県",
    "city": "朝来市",
    "town": "山東町末歳"
  },
  "6695111": {
    "zipcode": "6695111",
    "prefectureCode": "28",
    "prefectureNumber": 28,
    "prefecture": "兵庫県",
    "city": "朝来市",
    "town": "山東町新堂"
  },
  "6695112": {
    "zipcode": "6695112",
    "prefectureCode": "28",
    "prefectureNumber": 28,
    "prefecture": "兵庫県",
    "city": "朝来市",
    "town": "山東町大内"
  },
  "6695113": {
    "zipcode": "6695113",
    "prefectureCode": "28",
    "prefectureNumber": 28,
    "prefecture": "兵庫県",
    "city": "朝来市",
    "town": "山東町塩田"
  },
  "6695114": {
    "zipcode": "6695114",
    "prefectureCode": "28",
    "prefectureNumber": 28,
    "prefecture": "兵庫県",
    "city": "朝来市",
    "town": "山東町野間"
  },
  "6695115": {
    "zipcode": "6695115",
    "prefectureCode": "28",
    "prefectureNumber": 28,
    "prefecture": "兵庫県",
    "city": "朝来市",
    "town": "山東町金浦"
  },
  "6695121": {
    "zipcode": "6695121",
    "prefectureCode": "28",
    "prefectureNumber": 28,
    "prefecture": "兵庫県",
    "city": "朝来市",
    "town": "山東町和賀"
  },
  "6695122": {
    "zipcode": "6695122",
    "prefectureCode": "28",
    "prefectureNumber": 28,
    "prefecture": "兵庫県",
    "city": "朝来市",
    "town": "山東町早田"
  },
  "6695123": {
    "zipcode": "6695123",
    "prefectureCode": "28",
    "prefectureNumber": 28,
    "prefecture": "兵庫県",
    "city": "朝来市",
    "town": "山東町一品"
  },
  "6695124": {
    "zipcode": "6695124",
    "prefectureCode": "28",
    "prefectureNumber": 28,
    "prefecture": "兵庫県",
    "city": "朝来市",
    "town": "山東町柴"
  },
  "6695125": {
    "zipcode": "6695125",
    "prefectureCode": "28",
    "prefectureNumber": 28,
    "prefecture": "兵庫県",
    "city": "朝来市",
    "town": "山東町粟鹿"
  },
  "6695131": {
    "zipcode": "6695131",
    "prefectureCode": "28",
    "prefectureNumber": 28,
    "prefecture": "兵庫県",
    "city": "朝来市",
    "town": "山東町柊木"
  },
  "6695132": {
    "zipcode": "6695132",
    "prefectureCode": "28",
    "prefectureNumber": 28,
    "prefecture": "兵庫県",
    "city": "朝来市",
    "town": "山東町溝黒"
  },
  "6695133": {
    "zipcode": "6695133",
    "prefectureCode": "28",
    "prefectureNumber": 28,
    "prefecture": "兵庫県",
    "city": "朝来市",
    "town": "山東町喜多垣"
  },
  "6695134": {
    "zipcode": "6695134",
    "prefectureCode": "28",
    "prefectureNumber": 28,
    "prefecture": "兵庫県",
    "city": "朝来市",
    "town": "山東町迫間"
  },
  "6695135": {
    "zipcode": "6695135",
    "prefectureCode": "28",
    "prefectureNumber": 28,
    "prefecture": "兵庫県",
    "city": "朝来市",
    "town": "山東町森"
  },
  "6695136": {
    "zipcode": "6695136",
    "prefectureCode": "28",
    "prefectureNumber": 28,
    "prefecture": "兵庫県",
    "city": "朝来市",
    "town": "山東町与布土"
  },
  "6695141": {
    "zipcode": "6695141",
    "prefectureCode": "28",
    "prefectureNumber": 28,
    "prefecture": "兵庫県",
    "city": "朝来市",
    "town": "山東町三保"
  },
  "6695142": {
    "zipcode": "6695142",
    "prefectureCode": "28",
    "prefectureNumber": 28,
    "prefecture": "兵庫県",
    "city": "朝来市",
    "town": "山東町越田"
  },
  "6695143": {
    "zipcode": "6695143",
    "prefectureCode": "28",
    "prefectureNumber": 28,
    "prefecture": "兵庫県",
    "city": "朝来市",
    "town": "山東町柿坪"
  },
  "6695151": {
    "zipcode": "6695151",
    "prefectureCode": "28",
    "prefectureNumber": 28,
    "prefecture": "兵庫県",
    "city": "朝来市",
    "town": "山東町小谷"
  },
  "6695152": {
    "zipcode": "6695152",
    "prefectureCode": "28",
    "prefectureNumber": 28,
    "prefecture": "兵庫県",
    "city": "朝来市",
    "town": "山東町楽音寺"
  },
  "6695153": {
    "zipcode": "6695153",
    "prefectureCode": "28",
    "prefectureNumber": 28,
    "prefecture": "兵庫県",
    "city": "朝来市",
    "town": "山東町大月"
  },
  "6695200": {
    "zipcode": "6695200",
    "prefectureCode": "28",
    "prefectureNumber": 28,
    "prefecture": "兵庫県",
    "city": "朝来市",
    "town": "以下に掲載がない場合"
  },
  "6695201": {
    "zipcode": "6695201",
    "prefectureCode": "28",
    "prefectureNumber": 28,
    "prefecture": "兵庫県",
    "city": "朝来市",
    "town": "和田山町和田山"
  },
  "6695202": {
    "zipcode": "6695202",
    "prefectureCode": "28",
    "prefectureNumber": 28,
    "prefecture": "兵庫県",
    "city": "朝来市",
    "town": "和田山町東谷"
  },
  "6695203": {
    "zipcode": "6695203",
    "prefectureCode": "28",
    "prefectureNumber": 28,
    "prefecture": "兵庫県",
    "city": "朝来市",
    "town": "和田山町寺谷"
  },
  "6695204": {
    "zipcode": "6695204",
    "prefectureCode": "28",
    "prefectureNumber": 28,
    "prefecture": "兵庫県",
    "city": "朝来市",
    "town": "和田山町駅北"
  },
  "6695211": {
    "zipcode": "6695211",
    "prefectureCode": "28",
    "prefectureNumber": 28,
    "prefecture": "兵庫県",
    "city": "朝来市",
    "town": "和田山町平野"
  },
  "6695212": {
    "zipcode": "6695212",
    "prefectureCode": "28",
    "prefectureNumber": 28,
    "prefecture": "兵庫県",
    "city": "朝来市",
    "town": "和田山町柳原"
  },
  "6695213": {
    "zipcode": "6695213",
    "prefectureCode": "28",
    "prefectureNumber": 28,
    "prefecture": "兵庫県",
    "city": "朝来市",
    "town": "和田山町玉置"
  },
  "6695214": {
    "zipcode": "6695214",
    "prefectureCode": "28",
    "prefectureNumber": 28,
    "prefecture": "兵庫県",
    "city": "朝来市",
    "town": "和田山町桑原"
  },
  "6695215": {
    "zipcode": "6695215",
    "prefectureCode": "28",
    "prefectureNumber": 28,
    "prefecture": "兵庫県",
    "city": "朝来市",
    "town": "和田山町枚田岡"
  },
  "6695216": {
    "zipcode": "6695216",
    "prefectureCode": "28",
    "prefectureNumber": 28,
    "prefecture": "兵庫県",
    "city": "朝来市",
    "town": "和田山町弥生が丘"
  },
  "6695220": {
    "zipcode": "6695220",
    "prefectureCode": "28",
    "prefectureNumber": 28,
    "prefecture": "兵庫県",
    "city": "朝来市",
    "town": "和田山町白井"
  },
  "6695221": {
    "zipcode": "6695221",
    "prefectureCode": "28",
    "prefectureNumber": 28,
    "prefecture": "兵庫県",
    "city": "朝来市",
    "town": "和田山町秋葉台"
  },
  "6695222": {
    "zipcode": "6695222",
    "prefectureCode": "28",
    "prefectureNumber": 28,
    "prefecture": "兵庫県",
    "city": "朝来市",
    "town": "和田山町万葉台"
  },
  "6695223": {
    "zipcode": "6695223",
    "prefectureCode": "28",
    "prefectureNumber": 28,
    "prefecture": "兵庫県",
    "city": "朝来市",
    "town": "和田山町室尾"
  },
  "6695224": {
    "zipcode": "6695224",
    "prefectureCode": "28",
    "prefectureNumber": 28,
    "prefecture": "兵庫県",
    "city": "朝来市",
    "town": "和田山町岡田"
  },
  "6695225": {
    "zipcode": "6695225",
    "prefectureCode": "28",
    "prefectureNumber": 28,
    "prefecture": "兵庫県",
    "city": "朝来市",
    "town": "和田山町野村"
  },
  "6695226": {
    "zipcode": "6695226",
    "prefectureCode": "28",
    "prefectureNumber": 28,
    "prefecture": "兵庫県",
    "city": "朝来市",
    "town": "和田山町中"
  },
  "6695227": {
    "zipcode": "6695227",
    "prefectureCode": "28",
    "prefectureNumber": 28,
    "prefecture": "兵庫県",
    "city": "朝来市",
    "town": "和田山町東和田"
  },
  "6695228": {
    "zipcode": "6695228",
    "prefectureCode": "28",
    "prefectureNumber": 28,
    "prefecture": "兵庫県",
    "city": "朝来市",
    "town": "和田山町久田和"
  },
  "6695229": {
    "zipcode": "6695229",
    "prefectureCode": "28",
    "prefectureNumber": 28,
    "prefecture": "兵庫県",
    "city": "朝来市",
    "town": "和田山町宮"
  },
  "6695231": {
    "zipcode": "6695231",
    "prefectureCode": "28",
    "prefectureNumber": 28,
    "prefecture": "兵庫県",
    "city": "朝来市",
    "town": "和田山町林垣"
  },
  "6695232": {
    "zipcode": "6695232",
    "prefectureCode": "28",
    "prefectureNumber": 28,
    "prefecture": "兵庫県",
    "city": "朝来市",
    "town": "和田山町寺内"
  },
  "6695233": {
    "zipcode": "6695233",
    "prefectureCode": "28",
    "prefectureNumber": 28,
    "prefecture": "兵庫県",
    "city": "朝来市",
    "town": "和田山町高生田"
  },
  "6695234": {
    "zipcode": "6695234",
    "prefectureCode": "28",
    "prefectureNumber": 28,
    "prefecture": "兵庫県",
    "city": "朝来市",
    "town": "和田山町市場"
  },
  "6695235": {
    "zipcode": "6695235",
    "prefectureCode": "28",
    "prefectureNumber": 28,
    "prefecture": "兵庫県",
    "city": "朝来市",
    "town": "和田山町和田"
  },
  "6695236": {
    "zipcode": "6695236",
    "prefectureCode": "28",
    "prefectureNumber": 28,
    "prefecture": "兵庫県",
    "city": "朝来市",
    "town": "和田山町内海"
  },
  "6695237": {
    "zipcode": "6695237",
    "prefectureCode": "28",
    "prefectureNumber": 28,
    "prefecture": "兵庫県",
    "city": "朝来市",
    "town": "和田山町竹ノ内"
  },
  "6695238": {
    "zipcode": "6695238",
    "prefectureCode": "28",
    "prefectureNumber": 28,
    "prefecture": "兵庫県",
    "city": "朝来市",
    "town": "和田山町朝日"
  },
  "6695241": {
    "zipcode": "6695241",
    "prefectureCode": "28",
    "prefectureNumber": 28,
    "prefecture": "兵庫県",
    "city": "朝来市",
    "town": "和田山町土田"
  },
  "6695242": {
    "zipcode": "6695242",
    "prefectureCode": "28",
    "prefectureNumber": 28,
    "prefecture": "兵庫県",
    "city": "朝来市",
    "town": "和田山町宮田"
  },
  "6695243": {
    "zipcode": "6695243",
    "prefectureCode": "28",
    "prefectureNumber": 28,
    "prefecture": "兵庫県",
    "city": "朝来市",
    "town": "和田山町高田"
  },
  "6695244": {
    "zipcode": "6695244",
    "prefectureCode": "28",
    "prefectureNumber": 28,
    "prefecture": "兵庫県",
    "city": "朝来市",
    "town": "和田山町宮内"
  },
  "6695245": {
    "zipcode": "6695245",
    "prefectureCode": "28",
    "prefectureNumber": 28,
    "prefecture": "兵庫県",
    "city": "朝来市",
    "town": "和田山町法道寺"
  },
  "6695246": {
    "zipcode": "6695246",
    "prefectureCode": "28",
    "prefectureNumber": 28,
    "prefecture": "兵庫県",
    "city": "朝来市",
    "town": "和田山町岡"
  },
  "6695251": {
    "zipcode": "6695251",
    "prefectureCode": "28",
    "prefectureNumber": 28,
    "prefecture": "兵庫県",
    "city": "朝来市",
    "town": "和田山町栄町"
  },
  "6695252": {
    "zipcode": "6695252",
    "prefectureCode": "28",
    "prefectureNumber": 28,
    "prefecture": "兵庫県",
    "city": "朝来市",
    "town": "和田山町竹田"
  },
  "6695253": {
    "zipcode": "6695253",
    "prefectureCode": "28",
    "prefectureNumber": 28,
    "prefecture": "兵庫県",
    "city": "朝来市",
    "town": "和田山町久世田"
  },
  "6695254": {
    "zipcode": "6695254",
    "prefectureCode": "28",
    "prefectureNumber": 28,
    "prefecture": "兵庫県",
    "city": "朝来市",
    "town": "和田山町安井"
  },
  "6695255": {
    "zipcode": "6695255",
    "prefectureCode": "28",
    "prefectureNumber": 28,
    "prefecture": "兵庫県",
    "city": "朝来市",
    "town": "和田山町殿"
  },
  "6695256": {
    "zipcode": "6695256",
    "prefectureCode": "28",
    "prefectureNumber": 28,
    "prefecture": "兵庫県",
    "city": "朝来市",
    "town": "和田山町三波"
  },
  "6695257": {
    "zipcode": "6695257",
    "prefectureCode": "28",
    "prefectureNumber": 28,
    "prefecture": "兵庫県",
    "city": "朝来市",
    "town": "和田山町藤和"
  },
  "6695258": {
    "zipcode": "6695258",
    "prefectureCode": "28",
    "prefectureNumber": 28,
    "prefecture": "兵庫県",
    "city": "朝来市",
    "town": "和田山町城南台"
  },
  "6695261": {
    "zipcode": "6695261",
    "prefectureCode": "28",
    "prefectureNumber": 28,
    "prefecture": "兵庫県",
    "city": "朝来市",
    "town": "和田山町枚田"
  },
  "6695262": {
    "zipcode": "6695262",
    "prefectureCode": "28",
    "prefectureNumber": 28,
    "prefecture": "兵庫県",
    "city": "朝来市",
    "town": "和田山町市御堂"
  },
  "6695263": {
    "zipcode": "6695263",
    "prefectureCode": "28",
    "prefectureNumber": 28,
    "prefecture": "兵庫県",
    "city": "朝来市",
    "town": "和田山町久留引"
  },
  "6695264": {
    "zipcode": "6695264",
    "prefectureCode": "28",
    "prefectureNumber": 28,
    "prefecture": "兵庫県",
    "city": "朝来市",
    "town": "和田山町加都"
  },
  "6695265": {
    "zipcode": "6695265",
    "prefectureCode": "28",
    "prefectureNumber": 28,
    "prefecture": "兵庫県",
    "city": "朝来市",
    "town": "和田山町筒江"
  },
  "6695266": {
    "zipcode": "6695266",
    "prefectureCode": "28",
    "prefectureNumber": 28,
    "prefecture": "兵庫県",
    "city": "朝来市",
    "town": "和田山町比治"
  },
  "6695267": {
    "zipcode": "6695267",
    "prefectureCode": "28",
    "prefectureNumber": 28,
    "prefecture": "兵庫県",
    "city": "朝来市",
    "town": "和田山町法興寺"
  },
  "6695268": {
    "zipcode": "6695268",
    "prefectureCode": "28",
    "prefectureNumber": 28,
    "prefecture": "兵庫県",
    "city": "朝来市",
    "town": "和田山町立ノ原"
  },
  "6695301": {
    "zipcode": "6695301",
    "prefectureCode": "28",
    "prefectureNumber": 28,
    "prefecture": "兵庫県",
    "city": "豊岡市",
    "town": "日高町江原"
  },
  "6695302": {
    "zipcode": "6695302",
    "prefectureCode": "28",
    "prefectureNumber": 28,
    "prefecture": "兵庫県",
    "city": "豊岡市",
    "town": "日高町岩中"
  },
  "6695303": {
    "zipcode": "6695303",
    "prefectureCode": "28",
    "prefectureNumber": 28,
    "prefecture": "兵庫県",
    "city": "豊岡市",
    "town": "日高町東構"
  },
  "6695304": {
    "zipcode": "6695304",
    "prefectureCode": "28",
    "prefectureNumber": 28,
    "prefecture": "兵庫県",
    "city": "豊岡市",
    "town": "日高町宵田"
  },
  "6695305": {
    "zipcode": "6695305",
    "prefectureCode": "28",
    "prefectureNumber": 28,
    "prefecture": "兵庫県",
    "city": "豊岡市",
    "town": "日高町祢布"
  },
  "6695306": {
    "zipcode": "6695306",
    "prefectureCode": "28",
    "prefectureNumber": 28,
    "prefecture": "兵庫県",
    "city": "豊岡市",
    "town": "日高町水上"
  },
  "6695307": {
    "zipcode": "6695307",
    "prefectureCode": "28",
    "prefectureNumber": 28,
    "prefecture": "兵庫県",
    "city": "豊岡市",
    "town": "日高町松岡"
  },
  "6695311": {
    "zipcode": "6695311",
    "prefectureCode": "28",
    "prefectureNumber": 28,
    "prefecture": "兵庫県",
    "city": "豊岡市",
    "town": "日高町日置"
  },
  "6695312": {
    "zipcode": "6695312",
    "prefectureCode": "28",
    "prefectureNumber": 28,
    "prefecture": "兵庫県",
    "city": "豊岡市",
    "town": "日高町日高"
  },
  "6695313": {
    "zipcode": "6695313",
    "prefectureCode": "28",
    "prefectureNumber": 28,
    "prefecture": "兵庫県",
    "city": "豊岡市",
    "town": "日高町鶴岡"
  },
  "6695314": {
    "zipcode": "6695314",
    "prefectureCode": "28",
    "prefectureNumber": 28,
    "prefecture": "兵庫県",
    "city": "豊岡市",
    "town": "日高町赤崎"
  },
  "6695315": {
    "zipcode": "6695315",
    "prefectureCode": "28",
    "prefectureNumber": 28,
    "prefecture": "兵庫県",
    "city": "豊岡市",
    "town": "日高町浅倉"
  },
  "6695321": {
    "zipcode": "6695321",
    "prefectureCode": "28",
    "prefectureNumber": 28,
    "prefecture": "兵庫県",
    "city": "豊岡市",
    "town": "日高町土居"
  },
  "6695322": {
    "zipcode": "6695322",
    "prefectureCode": "28",
    "prefectureNumber": 28,
    "prefecture": "兵庫県",
    "city": "豊岡市",
    "town": "日高町府市場"
  },
  "6695323": {
    "zipcode": "6695323",
    "prefectureCode": "28",
    "prefectureNumber": 28,
    "prefecture": "兵庫県",
    "city": "豊岡市",
    "town": "日高町府中新"
  },
  "6695324": {
    "zipcode": "6695324",
    "prefectureCode": "28",
    "prefectureNumber": 28,
    "prefecture": "兵庫県",
    "city": "豊岡市",
    "town": "日高町上郷"
  },
  "6695325": {
    "zipcode": "6695325",
    "prefectureCode": "28",
    "prefectureNumber": 28,
    "prefecture": "兵庫県",
    "city": "豊岡市",
    "town": "日高町堀"
  },
  "6695326": {
    "zipcode": "6695326",
    "prefectureCode": "28",
    "prefectureNumber": 28,
    "prefecture": "兵庫県",
    "city": "豊岡市",
    "town": "日高町池上"
  },
  "6695327": {
    "zipcode": "6695327",
    "prefectureCode": "28",
    "prefectureNumber": 28,
    "prefecture": "兵庫県",
    "city": "豊岡市",
    "town": "日高町野々庄"
  },
  "6695328": {
    "zipcode": "6695328",
    "prefectureCode": "28",
    "prefectureNumber": 28,
    "prefecture": "兵庫県",
    "city": "豊岡市",
    "town": "日高町東芝"
  },
  "6695331": {
    "zipcode": "6695331",
    "prefectureCode": "28",
    "prefectureNumber": 28,
    "prefecture": "兵庫県",
    "city": "豊岡市",
    "town": "日高町上石"
  },
  "6695332": {
    "zipcode": "6695332",
    "prefectureCode": "28",
    "prefectureNumber": 28,
    "prefecture": "兵庫県",
    "city": "豊岡市",
    "town": "日高町竹貫"
  },
  "6695333": {
    "zipcode": "6695333",
    "prefectureCode": "28",
    "prefectureNumber": 28,
    "prefecture": "兵庫県",
    "city": "豊岡市",
    "town": "日高町藤井"
  },
  "6695334": {
    "zipcode": "6695334",
    "prefectureCode": "28",
    "prefectureNumber": 28,
    "prefecture": "兵庫県",
    "city": "豊岡市",
    "town": "日高町山本"
  },
  "6695335": {
    "zipcode": "6695335",
    "prefectureCode": "28",
    "prefectureNumber": 28,
    "prefecture": "兵庫県",
    "city": "豊岡市",
    "town": "日高町奈佐路"
  },
  "6695336": {
    "zipcode": "6695336",
    "prefectureCode": "28",
    "prefectureNumber": 28,
    "prefecture": "兵庫県",
    "city": "豊岡市",
    "town": "日高町谷"
  },
  "6695337": {
    "zipcode": "6695337",
    "prefectureCode": "28",
    "prefectureNumber": 28,
    "prefecture": "兵庫県",
    "city": "豊岡市",
    "town": "日高町中"
  },
  "6695338": {
    "zipcode": "6695338",
    "prefectureCode": "28",
    "prefectureNumber": 28,
    "prefecture": "兵庫県",
    "city": "豊岡市",
    "town": "日高町猪爪"
  },
  "6695339": {
    "zipcode": "6695339",
    "prefectureCode": "28",
    "prefectureNumber": 28,
    "prefecture": "兵庫県",
    "city": "豊岡市",
    "town": "日高町八代"
  },
  "6695341": {
    "zipcode": "6695341",
    "prefectureCode": "28",
    "prefectureNumber": 28,
    "prefecture": "兵庫県",
    "city": "豊岡市",
    "town": "日高町国分寺"
  },
  "6695342": {
    "zipcode": "6695342",
    "prefectureCode": "28",
    "prefectureNumber": 28,
    "prefecture": "兵庫県",
    "city": "豊岡市",
    "town": "日高町久斗"
  },
  "6695343": {
    "zipcode": "6695343",
    "prefectureCode": "28",
    "prefectureNumber": 28,
    "prefecture": "兵庫県",
    "city": "豊岡市",
    "town": "日高町道場"
  },
  "6695344": {
    "zipcode": "6695344",
    "prefectureCode": "28",
    "prefectureNumber": 28,
    "prefecture": "兵庫県",
    "city": "豊岡市",
    "town": "日高町夏栗"
  },
  "6695345": {
    "zipcode": "6695345",
    "prefectureCode": "28",
    "prefectureNumber": 28,
    "prefecture": "兵庫県",
    "city": "豊岡市",
    "town": "日高町久田谷"
  },
  "6695346": {
    "zipcode": "6695346",
    "prefectureCode": "28",
    "prefectureNumber": 28,
    "prefecture": "兵庫県",
    "city": "豊岡市",
    "town": "日高町伊府"
  },
  "6695351": {
    "zipcode": "6695351",
    "prefectureCode": "28",
    "prefectureNumber": 28,
    "prefecture": "兵庫県",
    "city": "豊岡市",
    "town": "日高町佐田"
  },
  "6695352": {
    "zipcode": "6695352",
    "prefectureCode": "28",
    "prefectureNumber": 28,
    "prefecture": "兵庫県",
    "city": "豊岡市",
    "town": "日高町知見"
  },
  "6695353": {
    "zipcode": "6695353",
    "prefectureCode": "28",
    "prefectureNumber": 28,
    "prefecture": "兵庫県",
    "city": "豊岡市",
    "town": "日高町森山"
  },
  "6695354": {
    "zipcode": "6695354",
    "prefectureCode": "28",
    "prefectureNumber": 28,
    "prefecture": "兵庫県",
    "city": "豊岡市",
    "town": "日高町観音寺"
  },
  "6695355": {
    "zipcode": "6695355",
    "prefectureCode": "28",
    "prefectureNumber": 28,
    "prefecture": "兵庫県",
    "city": "豊岡市",
    "town": "日高町篠垣"
  },
  "6695356": {
    "zipcode": "6695356",
    "prefectureCode": "28",
    "prefectureNumber": 28,
    "prefecture": "兵庫県",
    "city": "豊岡市",
    "town": "日高町荒川"
  },
  "6695357": {
    "zipcode": "6695357",
    "prefectureCode": "28",
    "prefectureNumber": 28,
    "prefecture": "兵庫県",
    "city": "豊岡市",
    "town": "日高町田ノ口"
  },
  "6695358": {
    "zipcode": "6695358",
    "prefectureCode": "28",
    "prefectureNumber": 28,
    "prefecture": "兵庫県",
    "city": "豊岡市",
    "town": "日高町広井"
  },
  "6695359": {
    "zipcode": "6695359",
    "prefectureCode": "28",
    "prefectureNumber": 28,
    "prefecture": "兵庫県",
    "city": "豊岡市",
    "town": "日高町羽尻"
  },
  "6695361": {
    "zipcode": "6695361",
    "prefectureCode": "28",
    "prefectureNumber": 28,
    "prefecture": "兵庫県",
    "city": "豊岡市",
    "town": "日高町栗山"
  },
  "6695362": {
    "zipcode": "6695362",
    "prefectureCode": "28",
    "prefectureNumber": 28,
    "prefecture": "兵庫県",
    "city": "豊岡市",
    "town": "日高町芝"
  },
  "6695363": {
    "zipcode": "6695363",
    "prefectureCode": "28",
    "prefectureNumber": 28,
    "prefecture": "兵庫県",
    "city": "豊岡市",
    "town": "日高町野"
  },
  "6695364": {
    "zipcode": "6695364",
    "prefectureCode": "28",
    "prefectureNumber": 28,
    "prefecture": "兵庫県",
    "city": "豊岡市",
    "town": "日高町庄境"
  },
  "6695365": {
    "zipcode": "6695365",
    "prefectureCode": "28",
    "prefectureNumber": 28,
    "prefecture": "兵庫県",
    "city": "豊岡市",
    "town": "日高町十戸"
  },
  "6695366": {
    "zipcode": "6695366",
    "prefectureCode": "28",
    "prefectureNumber": 28,
    "prefecture": "兵庫県",
    "city": "豊岡市",
    "town": "日高町頃垣"
  },
  "6695367": {
    "zipcode": "6695367",
    "prefectureCode": "28",
    "prefectureNumber": 28,
    "prefecture": "兵庫県",
    "city": "豊岡市",
    "town": "日高町石井"
  },
  "6695368": {
    "zipcode": "6695368",
    "prefectureCode": "28",
    "prefectureNumber": 28,
    "prefecture": "兵庫県",
    "city": "豊岡市",
    "town": "日高町山宮"
  },
  "6695369": {
    "zipcode": "6695369",
    "prefectureCode": "28",
    "prefectureNumber": 28,
    "prefecture": "兵庫県",
    "city": "豊岡市",
    "town": "日高町栃本"
  },
  "6695371": {
    "zipcode": "6695371",
    "prefectureCode": "28",
    "prefectureNumber": 28,
    "prefecture": "兵庫県",
    "city": "豊岡市",
    "town": "日高町太田"
  },
  "6695372": {
    "zipcode": "6695372",
    "prefectureCode": "28",
    "prefectureNumber": 28,
    "prefecture": "兵庫県",
    "city": "豊岡市",
    "town": "日高町栗栖野"
  },
  "6695373": {
    "zipcode": "6695373",
    "prefectureCode": "28",
    "prefectureNumber": 28,
    "prefecture": "兵庫県",
    "city": "豊岡市",
    "town": "日高町東河内"
  },
  "6695374": {
    "zipcode": "6695374",
    "prefectureCode": "28",
    "prefectureNumber": 28,
    "prefecture": "兵庫県",
    "city": "豊岡市",
    "town": "日高町水口"
  },
  "6695375": {
    "zipcode": "6695375",
    "prefectureCode": "28",
    "prefectureNumber": 28,
    "prefecture": "兵庫県",
    "city": "豊岡市",
    "town": "日高町稲葉"
  },
  "6695376": {
    "zipcode": "6695376",
    "prefectureCode": "28",
    "prefectureNumber": 28,
    "prefecture": "兵庫県",
    "city": "豊岡市",
    "town": "日高町万劫"
  },
  "6695377": {
    "zipcode": "6695377",
    "prefectureCode": "28",
    "prefectureNumber": 28,
    "prefecture": "兵庫県",
    "city": "豊岡市",
    "town": "日高町山田"
  },
  "6695378": {
    "zipcode": "6695378",
    "prefectureCode": "28",
    "prefectureNumber": 28,
    "prefecture": "兵庫県",
    "city": "豊岡市",
    "town": "日高町万場"
  },
  "6695379": {
    "zipcode": "6695379",
    "prefectureCode": "28",
    "prefectureNumber": 28,
    "prefecture": "兵庫県",
    "city": "豊岡市",
    "town": "日高町名色"
  },
  "6696101": {
    "zipcode": "6696101",
    "prefectureCode": "28",
    "prefectureNumber": 28,
    "prefecture": "兵庫県",
    "city": "豊岡市",
    "town": "城崎町湯島"
  },
  "6696102": {
    "zipcode": "6696102",
    "prefectureCode": "28",
    "prefectureNumber": 28,
    "prefecture": "兵庫県",
    "city": "豊岡市",
    "town": "城崎町桃島"
  },
  "6696103": {
    "zipcode": "6696103",
    "prefectureCode": "28",
    "prefectureNumber": 28,
    "prefecture": "兵庫県",
    "city": "豊岡市",
    "town": "城崎町今津"
  },
  "6696111": {
    "zipcode": "6696111",
    "prefectureCode": "28",
    "prefectureNumber": 28,
    "prefecture": "兵庫県",
    "city": "豊岡市",
    "town": "城崎町楽々浦"
  },
  "6696112": {
    "zipcode": "6696112",
    "prefectureCode": "28",
    "prefectureNumber": 28,
    "prefecture": "兵庫県",
    "city": "豊岡市",
    "town": "城崎町飯谷"
  },
  "6696113": {
    "zipcode": "6696113",
    "prefectureCode": "28",
    "prefectureNumber": 28,
    "prefecture": "兵庫県",
    "city": "豊岡市",
    "town": "城崎町結"
  },
  "6696114": {
    "zipcode": "6696114",
    "prefectureCode": "28",
    "prefectureNumber": 28,
    "prefecture": "兵庫県",
    "city": "豊岡市",
    "town": "城崎町戸島"
  },
  "6696115": {
    "zipcode": "6696115",
    "prefectureCode": "28",
    "prefectureNumber": 28,
    "prefecture": "兵庫県",
    "city": "豊岡市",
    "town": "城崎町来日"
  },
  "6696116": {
    "zipcode": "6696116",
    "prefectureCode": "28",
    "prefectureNumber": 28,
    "prefecture": "兵庫県",
    "city": "豊岡市",
    "town": "城崎町上山"
  },
  "6696121": {
    "zipcode": "6696121",
    "prefectureCode": "28",
    "prefectureNumber": 28,
    "prefecture": "兵庫県",
    "city": "豊岡市",
    "town": "津居山"
  },
  "6696122": {
    "zipcode": "6696122",
    "prefectureCode": "28",
    "prefectureNumber": 28,
    "prefecture": "兵庫県",
    "city": "豊岡市",
    "town": "瀬戸"
  },
  "6696123": {
    "zipcode": "6696123",
    "prefectureCode": "28",
    "prefectureNumber": 28,
    "prefecture": "兵庫県",
    "city": "豊岡市",
    "town": "小島"
  },
  "6696124": {
    "zipcode": "6696124",
    "prefectureCode": "28",
    "prefectureNumber": 28,
    "prefecture": "兵庫県",
    "city": "豊岡市",
    "town": "気比"
  },
  "6696125": {
    "zipcode": "6696125",
    "prefectureCode": "28",
    "prefectureNumber": 28,
    "prefecture": "兵庫県",
    "city": "豊岡市",
    "town": "田結"
  },
  "6696126": {
    "zipcode": "6696126",
    "prefectureCode": "28",
    "prefectureNumber": 28,
    "prefecture": "兵庫県",
    "city": "豊岡市",
    "town": "三原"
  },
  "6696127": {
    "zipcode": "6696127",
    "prefectureCode": "28",
    "prefectureNumber": 28,
    "prefecture": "兵庫県",
    "city": "豊岡市",
    "town": "畑上"
  },
  "6696201": {
    "zipcode": "6696201",
    "prefectureCode": "28",
    "prefectureNumber": 28,
    "prefecture": "兵庫県",
    "city": "豊岡市",
    "town": "竹野町竹野"
  },
  "6696202": {
    "zipcode": "6696202",
    "prefectureCode": "28",
    "prefectureNumber": 28,
    "prefecture": "兵庫県",
    "city": "豊岡市",
    "town": "竹野町宇日"
  },
  "6696203": {
    "zipcode": "6696203",
    "prefectureCode": "28",
    "prefectureNumber": 28,
    "prefecture": "兵庫県",
    "city": "豊岡市",
    "town": "竹野町田久日"
  },
  "6696211": {
    "zipcode": "6696211",
    "prefectureCode": "28",
    "prefectureNumber": 28,
    "prefecture": "兵庫県",
    "city": "豊岡市",
    "town": "竹野町和田"
  },
  "6696212": {
    "zipcode": "6696212",
    "prefectureCode": "28",
    "prefectureNumber": 28,
    "prefecture": "兵庫県",
    "city": "豊岡市",
    "town": "竹野町松本"
  },
  "6696213": {
    "zipcode": "6696213",
    "prefectureCode": "28",
    "prefectureNumber": 28,
    "prefecture": "兵庫県",
    "city": "豊岡市",
    "town": "竹野町羽入"
  },
  "6696214": {
    "zipcode": "6696214",
    "prefectureCode": "28",
    "prefectureNumber": 28,
    "prefecture": "兵庫県",
    "city": "豊岡市",
    "town": "竹野町阿金谷"
  },
  "6696215": {
    "zipcode": "6696215",
    "prefectureCode": "28",
    "prefectureNumber": 28,
    "prefecture": "兵庫県",
    "city": "豊岡市",
    "town": "竹野町草飼"
  },
  "6696216": {
    "zipcode": "6696216",
    "prefectureCode": "28",
    "prefectureNumber": 28,
    "prefecture": "兵庫県",
    "city": "豊岡市",
    "town": "竹野町切浜"
  },
  "6696217": {
    "zipcode": "6696217",
    "prefectureCode": "28",
    "prefectureNumber": 28,
    "prefecture": "兵庫県",
    "city": "豊岡市",
    "town": "竹野町浜須井"
  },
  "6696218": {
    "zipcode": "6696218",
    "prefectureCode": "28",
    "prefectureNumber": 28,
    "prefecture": "兵庫県",
    "city": "豊岡市",
    "town": "竹野町奥須井"
  },
  "6696221": {
    "zipcode": "6696221",
    "prefectureCode": "28",
    "prefectureNumber": 28,
    "prefecture": "兵庫県",
    "city": "豊岡市",
    "town": "竹野町須谷"
  },
  "6696222": {
    "zipcode": "6696222",
    "prefectureCode": "28",
    "prefectureNumber": 28,
    "prefecture": "兵庫県",
    "city": "豊岡市",
    "town": "竹野町小丸"
  },
  "6696223": {
    "zipcode": "6696223",
    "prefectureCode": "28",
    "prefectureNumber": 28,
    "prefecture": "兵庫県",
    "city": "豊岡市",
    "town": "竹野町芦谷"
  },
  "6696224": {
    "zipcode": "6696224",
    "prefectureCode": "28",
    "prefectureNumber": 28,
    "prefecture": "兵庫県",
    "city": "豊岡市",
    "town": "竹野町鬼神谷"
  },
  "6696225": {
    "zipcode": "6696225",
    "prefectureCode": "28",
    "prefectureNumber": 28,
    "prefecture": "兵庫県",
    "city": "豊岡市",
    "town": "竹野町轟"
  },
  "6696226": {
    "zipcode": "6696226",
    "prefectureCode": "28",
    "prefectureNumber": 28,
    "prefecture": "兵庫県",
    "city": "豊岡市",
    "town": "竹野町下塚"
  },
  "6696227": {
    "zipcode": "6696227",
    "prefectureCode": "28",
    "prefectureNumber": 28,
    "prefecture": "兵庫県",
    "city": "豊岡市",
    "town": "竹野町林"
  },
  "6696228": {
    "zipcode": "6696228",
    "prefectureCode": "28",
    "prefectureNumber": 28,
    "prefecture": "兵庫県",
    "city": "豊岡市",
    "town": "竹野町東大谷"
  },
  "6696229": {
    "zipcode": "6696229",
    "prefectureCode": "28",
    "prefectureNumber": 28,
    "prefecture": "兵庫県",
    "city": "豊岡市",
    "town": "竹野町金原"
  },
  "6696331": {
    "zipcode": "6696331",
    "prefectureCode": "28",
    "prefectureNumber": 28,
    "prefecture": "兵庫県",
    "city": "豊岡市",
    "town": "竹野町坊岡"
  },
  "6696332": {
    "zipcode": "6696332",
    "prefectureCode": "28",
    "prefectureNumber": 28,
    "prefecture": "兵庫県",
    "city": "豊岡市",
    "town": "竹野町森本"
  },
  "6696333": {
    "zipcode": "6696333",
    "prefectureCode": "28",
    "prefectureNumber": 28,
    "prefecture": "兵庫県",
    "city": "豊岡市",
    "town": "竹野町御又"
  },
  "6696334": {
    "zipcode": "6696334",
    "prefectureCode": "28",
    "prefectureNumber": 28,
    "prefecture": "兵庫県",
    "city": "豊岡市",
    "town": "竹野町河内"
  },
  "6696335": {
    "zipcode": "6696335",
    "prefectureCode": "28",
    "prefectureNumber": 28,
    "prefecture": "兵庫県",
    "city": "豊岡市",
    "town": "竹野町門谷"
  },
  "6696341": {
    "zipcode": "6696341",
    "prefectureCode": "28",
    "prefectureNumber": 28,
    "prefecture": "兵庫県",
    "city": "豊岡市",
    "town": "竹野町小城"
  },
  "6696342": {
    "zipcode": "6696342",
    "prefectureCode": "28",
    "prefectureNumber": 28,
    "prefecture": "兵庫県",
    "city": "豊岡市",
    "town": "竹野町二連原"
  },
  "6696343": {
    "zipcode": "6696343",
    "prefectureCode": "28",
    "prefectureNumber": 28,
    "prefecture": "兵庫県",
    "city": "豊岡市",
    "town": "竹野町段"
  },
  "6696344": {
    "zipcode": "6696344",
    "prefectureCode": "28",
    "prefectureNumber": 28,
    "prefecture": "兵庫県",
    "city": "豊岡市",
    "town": "竹野町椒"
  },
  "6696351": {
    "zipcode": "6696351",
    "prefectureCode": "28",
    "prefectureNumber": 28,
    "prefecture": "兵庫県",
    "city": "豊岡市",
    "town": "竹野町須野谷"
  },
  "6696352": {
    "zipcode": "6696352",
    "prefectureCode": "28",
    "prefectureNumber": 28,
    "prefecture": "兵庫県",
    "city": "豊岡市",
    "town": "竹野町大森"
  },
  "6696353": {
    "zipcode": "6696353",
    "prefectureCode": "28",
    "prefectureNumber": 28,
    "prefecture": "兵庫県",
    "city": "豊岡市",
    "town": "竹野町桑野本"
  },
  "6696354": {
    "zipcode": "6696354",
    "prefectureCode": "28",
    "prefectureNumber": 28,
    "prefecture": "兵庫県",
    "city": "豊岡市",
    "town": "竹野町川南谷"
  },
  "6696355": {
    "zipcode": "6696355",
    "prefectureCode": "28",
    "prefectureNumber": 28,
    "prefecture": "兵庫県",
    "city": "豊岡市",
    "town": "竹野町三原"
  },
  "6696401": {
    "zipcode": "6696401",
    "prefectureCode": "28",
    "prefectureNumber": 28,
    "prefecture": "兵庫県",
    "city": "美方郡香美町",
    "town": "香住区無南垣"
  },
  "6696402": {
    "zipcode": "6696402",
    "prefectureCode": "28",
    "prefectureNumber": 28,
    "prefecture": "兵庫県",
    "city": "美方郡香美町",
    "town": "香住区訓谷"
  },
  "6696403": {
    "zipcode": "6696403",
    "prefectureCode": "28",
    "prefectureNumber": 28,
    "prefecture": "兵庫県",
    "city": "美方郡香美町",
    "town": "香住区安木"
  },
  "6696404": {
    "zipcode": "6696404",
    "prefectureCode": "28",
    "prefectureNumber": 28,
    "prefecture": "兵庫県",
    "city": "美方郡香美町",
    "town": "香住区相谷"
  },
  "6696411": {
    "zipcode": "6696411",
    "prefectureCode": "28",
    "prefectureNumber": 28,
    "prefecture": "兵庫県",
    "city": "美方郡香美町",
    "town": "香住区九斗"
  },
  "6696412": {
    "zipcode": "6696412",
    "prefectureCode": "28",
    "prefectureNumber": 28,
    "prefecture": "兵庫県",
    "city": "美方郡香美町",
    "town": "香住区米地"
  },
  "6696413": {
    "zipcode": "6696413",
    "prefectureCode": "28",
    "prefectureNumber": 28,
    "prefecture": "兵庫県",
    "city": "美方郡香美町",
    "town": "香住区下岡"
  },
  "6696414": {
    "zipcode": "6696414",
    "prefectureCode": "28",
    "prefectureNumber": 28,
    "prefecture": "兵庫県",
    "city": "美方郡香美町",
    "town": "香住区上岡"
  },
  "6696415": {
    "zipcode": "6696415",
    "prefectureCode": "28",
    "prefectureNumber": 28,
    "prefecture": "兵庫県",
    "city": "美方郡香美町",
    "town": "香住区西下岡"
  },
  "6696416": {
    "zipcode": "6696416",
    "prefectureCode": "28",
    "prefectureNumber": 28,
    "prefecture": "兵庫県",
    "city": "美方郡香美町",
    "town": "香住区丹生地"
  },
  "6696421": {
    "zipcode": "6696421",
    "prefectureCode": "28",
    "prefectureNumber": 28,
    "prefecture": "兵庫県",
    "city": "美方郡香美町",
    "town": "香住区本見塚"
  },
  "6696422": {
    "zipcode": "6696422",
    "prefectureCode": "28",
    "prefectureNumber": 28,
    "prefecture": "兵庫県",
    "city": "美方郡香美町",
    "town": "香住区土生"
  },
  "6696423": {
    "zipcode": "6696423",
    "prefectureCode": "28",
    "prefectureNumber": 28,
    "prefecture": "兵庫県",
    "city": "美方郡香美町",
    "town": "香住区畑"
  },
  "6696424": {
    "zipcode": "6696424",
    "prefectureCode": "28",
    "prefectureNumber": 28,
    "prefecture": "兵庫県",
    "city": "美方郡香美町",
    "town": "香住区隼人"
  },
  "6696425": {
    "zipcode": "6696425",
    "prefectureCode": "28",
    "prefectureNumber": 28,
    "prefecture": "兵庫県",
    "city": "美方郡香美町",
    "town": "香住区大梶"
  },
  "6696426": {
    "zipcode": "6696426",
    "prefectureCode": "28",
    "prefectureNumber": 28,
    "prefecture": "兵庫県",
    "city": "美方郡香美町",
    "town": "香住区三川"
  },
  "6696431": {
    "zipcode": "6696431",
    "prefectureCode": "28",
    "prefectureNumber": 28,
    "prefecture": "兵庫県",
    "city": "美方郡香美町",
    "town": "香住区浦上"
  },
  "6696432": {
    "zipcode": "6696432",
    "prefectureCode": "28",
    "prefectureNumber": 28,
    "prefecture": "兵庫県",
    "city": "美方郡香美町",
    "town": "香住区上計"
  },
  "6696433": {
    "zipcode": "6696433",
    "prefectureCode": "28",
    "prefectureNumber": 28,
    "prefecture": "兵庫県",
    "city": "美方郡香美町",
    "town": "香住区沖浦"
  },
  "6696500": {
    "zipcode": "6696500",
    "prefectureCode": "28",
    "prefectureNumber": 28,
    "prefecture": "兵庫県",
    "city": "美方郡香美町",
    "town": "以下に掲載がない場合"
  },
  "6696541": {
    "zipcode": "6696541",
    "prefectureCode": "28",
    "prefectureNumber": 28,
    "prefecture": "兵庫県",
    "city": "美方郡香美町",
    "town": "香住区境"
  },
  "6696542": {
    "zipcode": "6696542",
    "prefectureCode": "28",
    "prefectureNumber": 28,
    "prefecture": "兵庫県",
    "city": "美方郡香美町",
    "town": "香住区一日市"
  },
  "6696543": {
    "zipcode": "6696543",
    "prefectureCode": "28",
    "prefectureNumber": 28,
    "prefecture": "兵庫県",
    "city": "美方郡香美町",
    "town": "香住区若松"
  },
  "6696544": {
    "zipcode": "6696544",
    "prefectureCode": "28",
    "prefectureNumber": 28,
    "prefecture": "兵庫県",
    "city": "美方郡香美町",
    "town": "香住区香住"
  },
  "6696545": {
    "zipcode": "6696545",
    "prefectureCode": "28",
    "prefectureNumber": 28,
    "prefecture": "兵庫県",
    "city": "美方郡香美町",
    "town": "香住区森"
  },
  "6696546": {
    "zipcode": "6696546",
    "prefectureCode": "28",
    "prefectureNumber": 28,
    "prefecture": "兵庫県",
    "city": "美方郡香美町",
    "town": "香住区七日市"
  },
  "6696547": {
    "zipcode": "6696547",
    "prefectureCode": "28",
    "prefectureNumber": 28,
    "prefecture": "兵庫県",
    "city": "美方郡香美町",
    "town": "香住区山手"
  },
  "6696551": {
    "zipcode": "6696551",
    "prefectureCode": "28",
    "prefectureNumber": 28,
    "prefecture": "兵庫県",
    "city": "美方郡香美町",
    "town": "香住区守柄"
  },
  "6696552": {
    "zipcode": "6696552",
    "prefectureCode": "28",
    "prefectureNumber": 28,
    "prefecture": "兵庫県",
    "city": "美方郡香美町",
    "town": "香住区加鹿野"
  },
  "6696553": {
    "zipcode": "6696553",
    "prefectureCode": "28",
    "prefectureNumber": 28,
    "prefecture": "兵庫県",
    "city": "美方郡香美町",
    "town": "香住区三谷"
  },
  "6696554": {
    "zipcode": "6696554",
    "prefectureCode": "28",
    "prefectureNumber": 28,
    "prefecture": "兵庫県",
    "city": "美方郡香美町",
    "town": "香住区大谷"
  },
  "6696555": {
    "zipcode": "6696555",
    "prefectureCode": "28",
    "prefectureNumber": 28,
    "prefecture": "兵庫県",
    "city": "美方郡香美町",
    "town": "香住区大野"
  },
  "6696556": {
    "zipcode": "6696556",
    "prefectureCode": "28",
    "prefectureNumber": 28,
    "prefecture": "兵庫県",
    "city": "美方郡香美町",
    "town": "香住区中野"
  },
  "6696557": {
    "zipcode": "6696557",
    "prefectureCode": "28",
    "prefectureNumber": 28,
    "prefecture": "兵庫県",
    "city": "美方郡香美町",
    "town": "香住区藤"
  },
  "6696558": {
    "zipcode": "6696558",
    "prefectureCode": "28",
    "prefectureNumber": 28,
    "prefecture": "兵庫県",
    "city": "美方郡香美町",
    "town": "香住区八原"
  },
  "6696559": {
    "zipcode": "6696559",
    "prefectureCode": "28",
    "prefectureNumber": 28,
    "prefecture": "兵庫県",
    "city": "美方郡香美町",
    "town": "香住区小原"
  },
  "6696561": {
    "zipcode": "6696561",
    "prefectureCode": "28",
    "prefectureNumber": 28,
    "prefecture": "兵庫県",
    "city": "美方郡香美町",
    "town": "香住区間室"
  },
  "6696562": {
    "zipcode": "6696562",
    "prefectureCode": "28",
    "prefectureNumber": 28,
    "prefecture": "兵庫県",
    "city": "美方郡香美町",
    "town": "香住区油良"
  },
  "6696563": {
    "zipcode": "6696563",
    "prefectureCode": "28",
    "prefectureNumber": 28,
    "prefecture": "兵庫県",
    "city": "美方郡香美町",
    "town": "香住区矢田"
  },
  "6696564": {
    "zipcode": "6696564",
    "prefectureCode": "28",
    "prefectureNumber": 28,
    "prefecture": "兵庫県",
    "city": "美方郡香美町",
    "town": "香住区下浜"
  },
  "6696671": {
    "zipcode": "6696671",
    "prefectureCode": "28",
    "prefectureNumber": 28,
    "prefecture": "兵庫県",
    "city": "美方郡香美町",
    "town": "香住区余部"
  },
  "6696672": {
    "zipcode": "6696672",
    "prefectureCode": "28",
    "prefectureNumber": 28,
    "prefecture": "兵庫県",
    "city": "美方郡香美町",
    "town": "香住区鎧"
  },
  "6696700": {
    "zipcode": "6696700",
    "prefectureCode": "28",
    "prefectureNumber": 28,
    "prefecture": "兵庫県",
    "city": "美方郡新温泉町",
    "town": "以下に掲載がない場合"
  },
  "6696701": {
    "zipcode": "6696701",
    "prefectureCode": "28",
    "prefectureNumber": 28,
    "prefecture": "兵庫県",
    "city": "美方郡新温泉町",
    "town": "芦屋"
  },
  "6696702": {
    "zipcode": "6696702",
    "prefectureCode": "28",
    "prefectureNumber": 28,
    "prefecture": "兵庫県",
    "city": "美方郡新温泉町",
    "town": "浜坂"
  },
  "6696711": {
    "zipcode": "6696711",
    "prefectureCode": "28",
    "prefectureNumber": 28,
    "prefecture": "兵庫県",
    "city": "美方郡新温泉町",
    "town": "清富"
  },
  "6696712": {
    "zipcode": "6696712",
    "prefectureCode": "28",
    "prefectureNumber": 28,
    "prefecture": "兵庫県",
    "city": "美方郡新温泉町",
    "town": "指杭"
  },
  "6696713": {
    "zipcode": "6696713",
    "prefectureCode": "28",
    "prefectureNumber": 28,
    "prefecture": "兵庫県",
    "city": "美方郡新温泉町",
    "town": "田井"
  },
  "6696714": {
    "zipcode": "6696714",
    "prefectureCode": "28",
    "prefectureNumber": 28,
    "prefecture": "兵庫県",
    "city": "美方郡新温泉町",
    "town": "赤崎"
  },
  "6696715": {
    "zipcode": "6696715",
    "prefectureCode": "28",
    "prefectureNumber": 28,
    "prefecture": "兵庫県",
    "city": "美方郡新温泉町",
    "town": "三尾"
  },
  "6696716": {
    "zipcode": "6696716",
    "prefectureCode": "28",
    "prefectureNumber": 28,
    "prefecture": "兵庫県",
    "city": "美方郡新温泉町",
    "town": "和田"
  },
  "6696721": {
    "zipcode": "6696721",
    "prefectureCode": "28",
    "prefectureNumber": 28,
    "prefecture": "兵庫県",
    "city": "美方郡新温泉町",
    "town": "久谷"
  },
  "6696722": {
    "zipcode": "6696722",
    "prefectureCode": "28",
    "prefectureNumber": 28,
    "prefecture": "兵庫県",
    "city": "美方郡新温泉町",
    "town": "高末"
  },
  "6696723": {
    "zipcode": "6696723",
    "prefectureCode": "28",
    "prefectureNumber": 28,
    "prefecture": "兵庫県",
    "city": "美方郡新温泉町",
    "town": "正法庵"
  },
  "6696724": {
    "zipcode": "6696724",
    "prefectureCode": "28",
    "prefectureNumber": 28,
    "prefecture": "兵庫県",
    "city": "美方郡新温泉町",
    "town": "辺地"
  },
  "6696725": {
    "zipcode": "6696725",
    "prefectureCode": "28",
    "prefectureNumber": 28,
    "prefecture": "兵庫県",
    "city": "美方郡新温泉町",
    "town": "藤尾"
  },
  "6696726": {
    "zipcode": "6696726",
    "prefectureCode": "28",
    "prefectureNumber": 28,
    "prefecture": "兵庫県",
    "city": "美方郡新温泉町",
    "town": "境"
  },
  "6696727": {
    "zipcode": "6696727",
    "prefectureCode": "28",
    "prefectureNumber": 28,
    "prefecture": "兵庫県",
    "city": "美方郡新温泉町",
    "town": "久斗山"
  },
  "6696728": {
    "zipcode": "6696728",
    "prefectureCode": "28",
    "prefectureNumber": 28,
    "prefecture": "兵庫県",
    "city": "美方郡新温泉町",
    "town": "対田"
  },
  "6696731": {
    "zipcode": "6696731",
    "prefectureCode": "28",
    "prefectureNumber": 28,
    "prefecture": "兵庫県",
    "city": "美方郡新温泉町",
    "town": "二日市"
  },
  "6696732": {
    "zipcode": "6696732",
    "prefectureCode": "28",
    "prefectureNumber": 28,
    "prefecture": "兵庫県",
    "city": "美方郡新温泉町",
    "town": "福富"
  },
  "6696741": {
    "zipcode": "6696741",
    "prefectureCode": "28",
    "prefectureNumber": 28,
    "prefecture": "兵庫県",
    "city": "美方郡新温泉町",
    "town": "七釜"
  },
  "6696742": {
    "zipcode": "6696742",
    "prefectureCode": "28",
    "prefectureNumber": 28,
    "prefecture": "兵庫県",
    "city": "美方郡新温泉町",
    "town": "新市"
  },
  "6696743": {
    "zipcode": "6696743",
    "prefectureCode": "28",
    "prefectureNumber": 28,
    "prefecture": "兵庫県",
    "city": "美方郡新温泉町",
    "town": "古市"
  },
  "6696744": {
    "zipcode": "6696744",
    "prefectureCode": "28",
    "prefectureNumber": 28,
    "prefecture": "兵庫県",
    "city": "美方郡新温泉町",
    "town": "用土"
  },
  "6696745": {
    "zipcode": "6696745",
    "prefectureCode": "28",
    "prefectureNumber": 28,
    "prefecture": "兵庫県",
    "city": "美方郡新温泉町",
    "town": "栃谷"
  },
  "6696746": {
    "zipcode": "6696746",
    "prefectureCode": "28",
    "prefectureNumber": 28,
    "prefecture": "兵庫県",
    "city": "美方郡新温泉町",
    "town": "戸田"
  },
  "6696747": {
    "zipcode": "6696747",
    "prefectureCode": "28",
    "prefectureNumber": 28,
    "prefecture": "兵庫県",
    "city": "美方郡新温泉町",
    "town": "三谷"
  },
  "6696751": {
    "zipcode": "6696751",
    "prefectureCode": "28",
    "prefectureNumber": 28,
    "prefecture": "兵庫県",
    "city": "美方郡新温泉町",
    "town": "居組"
  },
  "6696752": {
    "zipcode": "6696752",
    "prefectureCode": "28",
    "prefectureNumber": 28,
    "prefecture": "兵庫県",
    "city": "美方郡新温泉町",
    "town": "釜屋"
  },
  "6696753": {
    "zipcode": "6696753",
    "prefectureCode": "28",
    "prefectureNumber": 28,
    "prefecture": "兵庫県",
    "city": "美方郡新温泉町",
    "town": "諸寄"
  },
  "6696761": {
    "zipcode": "6696761",
    "prefectureCode": "28",
    "prefectureNumber": 28,
    "prefecture": "兵庫県",
    "city": "美方郡新温泉町",
    "town": "竹田（後山、細見谷）"
  },
  "6696801": {
    "zipcode": "6696801",
    "prefectureCode": "28",
    "prefectureNumber": 28,
    "prefecture": "兵庫県",
    "city": "美方郡新温泉町",
    "town": "井土"
  },
  "6696802": {
    "zipcode": "6696802",
    "prefectureCode": "28",
    "prefectureNumber": 28,
    "prefecture": "兵庫県",
    "city": "美方郡新温泉町",
    "town": "金屋"
  },
  "6696803": {
    "zipcode": "6696803",
    "prefectureCode": "28",
    "prefectureNumber": 28,
    "prefecture": "兵庫県",
    "city": "美方郡新温泉町",
    "town": "今岡"
  },
  "6696804": {
    "zipcode": "6696804",
    "prefectureCode": "28",
    "prefectureNumber": 28,
    "prefecture": "兵庫県",
    "city": "美方郡新温泉町",
    "town": "熊谷"
  },
  "6696805": {
    "zipcode": "6696805",
    "prefectureCode": "28",
    "prefectureNumber": 28,
    "prefecture": "兵庫県",
    "city": "美方郡新温泉町",
    "town": "伊角"
  },
  "6696806": {
    "zipcode": "6696806",
    "prefectureCode": "28",
    "prefectureNumber": 28,
    "prefecture": "兵庫県",
    "city": "美方郡新温泉町",
    "town": "桧尾"
  },
  "6696807": {
    "zipcode": "6696807",
    "prefectureCode": "28",
    "prefectureNumber": 28,
    "prefecture": "兵庫県",
    "city": "美方郡新温泉町",
    "town": "春来"
  },
  "6696808": {
    "zipcode": "6696808",
    "prefectureCode": "28",
    "prefectureNumber": 28,
    "prefecture": "兵庫県",
    "city": "美方郡新温泉町",
    "town": "歌長"
  },
  "6696811": {
    "zipcode": "6696811",
    "prefectureCode": "28",
    "prefectureNumber": 28,
    "prefecture": "兵庫県",
    "city": "美方郡新温泉町",
    "town": "多子"
  },
  "6696812": {
    "zipcode": "6696812",
    "prefectureCode": "28",
    "prefectureNumber": 28,
    "prefecture": "兵庫県",
    "city": "美方郡新温泉町",
    "town": "切畑"
  },
  "6696813": {
    "zipcode": "6696813",
    "prefectureCode": "28",
    "prefectureNumber": 28,
    "prefecture": "兵庫県",
    "city": "美方郡新温泉町",
    "town": "丹土"
  },
  "6696814": {
    "zipcode": "6696814",
    "prefectureCode": "28",
    "prefectureNumber": 28,
    "prefecture": "兵庫県",
    "city": "美方郡新温泉町",
    "town": "中辻"
  },
  "6696815": {
    "zipcode": "6696815",
    "prefectureCode": "28",
    "prefectureNumber": 28,
    "prefecture": "兵庫県",
    "city": "美方郡新温泉町",
    "town": "桐岡"
  },
  "6696821": {
    "zipcode": "6696821",
    "prefectureCode": "28",
    "prefectureNumber": 28,
    "prefecture": "兵庫県",
    "city": "美方郡新温泉町",
    "town": "湯"
  },
  "6696822": {
    "zipcode": "6696822",
    "prefectureCode": "28",
    "prefectureNumber": 28,
    "prefecture": "兵庫県",
    "city": "美方郡新温泉町",
    "town": "細田"
  },
  "6696831": {
    "zipcode": "6696831",
    "prefectureCode": "28",
    "prefectureNumber": 28,
    "prefecture": "兵庫県",
    "city": "美方郡新温泉町",
    "town": "竹田（その他）"
  },
  "6696832": {
    "zipcode": "6696832",
    "prefectureCode": "28",
    "prefectureNumber": 28,
    "prefecture": "兵庫県",
    "city": "美方郡新温泉町",
    "town": "飯野"
  },
  "6696833": {
    "zipcode": "6696833",
    "prefectureCode": "28",
    "prefectureNumber": 28,
    "prefecture": "兵庫県",
    "city": "美方郡新温泉町",
    "town": "塩山"
  },
  "6696941": {
    "zipcode": "6696941",
    "prefectureCode": "28",
    "prefectureNumber": 28,
    "prefecture": "兵庫県",
    "city": "美方郡新温泉町",
    "town": "千原"
  },
  "6696942": {
    "zipcode": "6696942",
    "prefectureCode": "28",
    "prefectureNumber": 28,
    "prefecture": "兵庫県",
    "city": "美方郡新温泉町",
    "town": "鐘尾"
  },
  "6696943": {
    "zipcode": "6696943",
    "prefectureCode": "28",
    "prefectureNumber": 28,
    "prefecture": "兵庫県",
    "city": "美方郡新温泉町",
    "town": "千谷"
  },
  "6696944": {
    "zipcode": "6696944",
    "prefectureCode": "28",
    "prefectureNumber": 28,
    "prefecture": "兵庫県",
    "city": "美方郡新温泉町",
    "town": "宮脇"
  },
  "6696945": {
    "zipcode": "6696945",
    "prefectureCode": "28",
    "prefectureNumber": 28,
    "prefecture": "兵庫県",
    "city": "美方郡新温泉町",
    "town": "内山"
  },
  "6696946": {
    "zipcode": "6696946",
    "prefectureCode": "28",
    "prefectureNumber": 28,
    "prefecture": "兵庫県",
    "city": "美方郡新温泉町",
    "town": "越坂"
  },
  "6696951": {
    "zipcode": "6696951",
    "prefectureCode": "28",
    "prefectureNumber": 28,
    "prefecture": "兵庫県",
    "city": "美方郡新温泉町",
    "town": "前"
  },
  "6696952": {
    "zipcode": "6696952",
    "prefectureCode": "28",
    "prefectureNumber": 28,
    "prefecture": "兵庫県",
    "city": "美方郡新温泉町",
    "town": "海上"
  },
  "6696953": {
    "zipcode": "6696953",
    "prefectureCode": "28",
    "prefectureNumber": 28,
    "prefecture": "兵庫県",
    "city": "美方郡新温泉町",
    "town": "石橋"
  },
  "6696954": {
    "zipcode": "6696954",
    "prefectureCode": "28",
    "prefectureNumber": 28,
    "prefecture": "兵庫県",
    "city": "美方郡新温泉町",
    "town": "岸田"
  }
}
