{
  "6700000": {
    "zipcode": "6700000",
    "prefectureCode": "28",
    "prefectureNumber": 28,
    "prefecture": "兵庫県",
    "city": "姫路市",
    "town": "以下に掲載がない場合"
  },
  "6700001": {
    "zipcode": "6700001",
    "prefectureCode": "28",
    "prefectureNumber": 28,
    "prefecture": "兵庫県",
    "city": "姫路市",
    "town": "河間町"
  },
  "6700002": {
    "zipcode": "6700002",
    "prefectureCode": "28",
    "prefectureNumber": 28,
    "prefecture": "兵庫県",
    "city": "姫路市",
    "town": "鍛冶町"
  },
  "6700003": {
    "zipcode": "6700003",
    "prefectureCode": "28",
    "prefectureNumber": 28,
    "prefecture": "兵庫県",
    "city": "姫路市",
    "town": "米屋町"
  },
  "6700004": {
    "zipcode": "6700004",
    "prefectureCode": "28",
    "prefectureNumber": 28,
    "prefecture": "兵庫県",
    "city": "姫路市",
    "town": "福本町"
  },
  "6700005": {
    "zipcode": "6700005",
    "prefectureCode": "28",
    "prefectureNumber": 28,
    "prefecture": "兵庫県",
    "city": "姫路市",
    "town": "金屋町"
  },
  "6700006": {
    "zipcode": "6700006",
    "prefectureCode": "28",
    "prefectureNumber": 28,
    "prefecture": "兵庫県",
    "city": "姫路市",
    "town": "八木町"
  },
  "6700007": {
    "zipcode": "6700007",
    "prefectureCode": "28",
    "prefectureNumber": 28,
    "prefecture": "兵庫県",
    "city": "姫路市",
    "town": "生野町"
  },
  "6700008": {
    "zipcode": "6700008",
    "prefectureCode": "28",
    "prefectureNumber": 28,
    "prefecture": "兵庫県",
    "city": "姫路市",
    "town": "橋之町"
  },
  "6700009": {
    "zipcode": "6700009",
    "prefectureCode": "28",
    "prefectureNumber": 28,
    "prefecture": "兵庫県",
    "city": "姫路市",
    "town": "鍵町"
  },
  "6700011": {
    "zipcode": "6700011",
    "prefectureCode": "28",
    "prefectureNumber": 28,
    "prefecture": "兵庫県",
    "city": "姫路市",
    "town": "坊主町"
  },
  "6700012": {
    "zipcode": "6700012",
    "prefectureCode": "28",
    "prefectureNumber": 28,
    "prefecture": "兵庫県",
    "city": "姫路市",
    "town": "本町"
  },
  "6700013": {
    "zipcode": "6700013",
    "prefectureCode": "28",
    "prefectureNumber": 28,
    "prefecture": "兵庫県",
    "city": "姫路市",
    "town": "竹田町"
  },
  "6700014": {
    "zipcode": "6700014",
    "prefectureCode": "28",
    "prefectureNumber": 28,
    "prefecture": "兵庫県",
    "city": "姫路市",
    "town": "堺町"
  },
  "6700015": {
    "zipcode": "6700015",
    "prefectureCode": "28",
    "prefectureNumber": 28,
    "prefecture": "兵庫県",
    "city": "姫路市",
    "town": "総社本町"
  },
  "6700016": {
    "zipcode": "6700016",
    "prefectureCode": "28",
    "prefectureNumber": 28,
    "prefecture": "兵庫県",
    "city": "姫路市",
    "town": "坂元町"
  },
  "6700017": {
    "zipcode": "6700017",
    "prefectureCode": "28",
    "prefectureNumber": 28,
    "prefecture": "兵庫県",
    "city": "姫路市",
    "town": "福中町"
  },
  "6700021": {
    "zipcode": "6700021",
    "prefectureCode": "28",
    "prefectureNumber": 28,
    "prefecture": "兵庫県",
    "city": "姫路市",
    "town": "山野井町"
  },
  "6700022": {
    "zipcode": "6700022",
    "prefectureCode": "28",
    "prefectureNumber": 28,
    "prefecture": "兵庫県",
    "city": "姫路市",
    "town": "小利木町"
  },
  "6700023": {
    "zipcode": "6700023",
    "prefectureCode": "28",
    "prefectureNumber": 28,
    "prefecture": "兵庫県",
    "city": "姫路市",
    "town": "柳町"
  },
  "6700024": {
    "zipcode": "6700024",
    "prefectureCode": "28",
    "prefectureNumber": 28,
    "prefecture": "兵庫県",
    "city": "姫路市",
    "town": "鷹匠町"
  },
  "6700025": {
    "zipcode": "6700025",
    "prefectureCode": "28",
    "prefectureNumber": 28,
    "prefecture": "兵庫県",
    "city": "姫路市",
    "town": "材木町"
  },
  "6700026": {
    "zipcode": "6700026",
    "prefectureCode": "28",
    "prefectureNumber": 28,
    "prefecture": "兵庫県",
    "city": "姫路市",
    "town": "岡町"
  },
  "6700027": {
    "zipcode": "6700027",
    "prefectureCode": "28",
    "prefectureNumber": 28,
    "prefecture": "兵庫県",
    "city": "姫路市",
    "town": "景福寺前"
  },
  "6700028": {
    "zipcode": "6700028",
    "prefectureCode": "28",
    "prefectureNumber": 28,
    "prefecture": "兵庫県",
    "city": "姫路市",
    "town": "岩端町"
  },
  "6700029": {
    "zipcode": "6700029",
    "prefectureCode": "28",
    "prefectureNumber": 28,
    "prefecture": "兵庫県",
    "city": "姫路市",
    "town": "嵐山町"
  },
  "6700031": {
    "zipcode": "6700031",
    "prefectureCode": "28",
    "prefectureNumber": 28,
    "prefecture": "兵庫県",
    "city": "姫路市",
    "town": "吉田町"
  },
  "6700032": {
    "zipcode": "6700032",
    "prefectureCode": "28",
    "prefectureNumber": 28,
    "prefecture": "兵庫県",
    "city": "姫路市",
    "town": "龍野町"
  },
  "6700033": {
    "zipcode": "6700033",
    "prefectureCode": "28",
    "prefectureNumber": 28,
    "prefecture": "兵庫県",
    "city": "姫路市",
    "town": "西新町"
  },
  "6700034": {
    "zipcode": "6700034",
    "prefectureCode": "28",
    "prefectureNumber": 28,
    "prefecture": "兵庫県",
    "city": "姫路市",
    "town": "船丘町"
  },
  "6700035": {
    "zipcode": "6700035",
    "prefectureCode": "28",
    "prefectureNumber": 28,
    "prefecture": "兵庫県",
    "city": "姫路市",
    "town": "琴岡町"
  },
  "6700036": {
    "zipcode": "6700036",
    "prefectureCode": "28",
    "prefectureNumber": 28,
    "prefecture": "兵庫県",
    "city": "姫路市",
    "town": "山畑新田"
  },
  "6700037": {
    "zipcode": "6700037",
    "prefectureCode": "28",
    "prefectureNumber": 28,
    "prefecture": "兵庫県",
    "city": "姫路市",
    "town": "柿山伏"
  },
  "6700038": {
    "zipcode": "6700038",
    "prefectureCode": "28",
    "prefectureNumber": 28,
    "prefecture": "兵庫県",
    "city": "姫路市",
    "town": "農人町"
  },
  "6700041": {
    "zipcode": "6700041",
    "prefectureCode": "28",
    "prefectureNumber": 28,
    "prefecture": "兵庫県",
    "city": "姫路市",
    "town": "上片町"
  },
  "6700042": {
    "zipcode": "6700042",
    "prefectureCode": "28",
    "prefectureNumber": 28,
    "prefecture": "兵庫県",
    "city": "姫路市",
    "town": "米田町"
  },
  "6700043": {
    "zipcode": "6700043",
    "prefectureCode": "28",
    "prefectureNumber": 28,
    "prefecture": "兵庫県",
    "city": "姫路市",
    "town": "小姓町"
  },
  "6700044": {
    "zipcode": "6700044",
    "prefectureCode": "28",
    "prefectureNumber": 28,
    "prefecture": "兵庫県",
    "city": "姫路市",
    "town": "地内町"
  },
  "6700045": {
    "zipcode": "6700045",
    "prefectureCode": "28",
    "prefectureNumber": 28,
    "prefecture": "兵庫県",
    "city": "姫路市",
    "town": "片田町"
  },
  "6700046": {
    "zipcode": "6700046",
    "prefectureCode": "28",
    "prefectureNumber": 28,
    "prefecture": "兵庫県",
    "city": "姫路市",
    "town": "東雲町"
  },
  "6700047": {
    "zipcode": "6700047",
    "prefectureCode": "28",
    "prefectureNumber": 28,
    "prefecture": "兵庫県",
    "city": "姫路市",
    "town": "花影町"
  },
  "6700048": {
    "zipcode": "6700048",
    "prefectureCode": "28",
    "prefectureNumber": 28,
    "prefecture": "兵庫県",
    "city": "姫路市",
    "town": "船橋町"
  },
  "6700049": {
    "zipcode": "6700049",
    "prefectureCode": "28",
    "prefectureNumber": 28,
    "prefecture": "兵庫県",
    "city": "姫路市",
    "town": "元町"
  },
  "6700051": {
    "zipcode": "6700051",
    "prefectureCode": "28",
    "prefectureNumber": 28,
    "prefecture": "兵庫県",
    "city": "姫路市",
    "town": "名古山町"
  },
  "6700052": {
    "zipcode": "6700052",
    "prefectureCode": "28",
    "prefectureNumber": 28,
    "prefecture": "兵庫県",
    "city": "姫路市",
    "town": "今宿"
  },
  "6700053": {
    "zipcode": "6700053",
    "prefectureCode": "28",
    "prefectureNumber": 28,
    "prefecture": "兵庫県",
    "city": "姫路市",
    "town": "南車崎"
  },
  "6700054": {
    "zipcode": "6700054",
    "prefectureCode": "28",
    "prefectureNumber": 28,
    "prefecture": "兵庫県",
    "city": "姫路市",
    "town": "南今宿"
  },
  "6700055": {
    "zipcode": "6700055",
    "prefectureCode": "28",
    "prefectureNumber": 28,
    "prefecture": "兵庫県",
    "city": "姫路市",
    "town": "神子岡前"
  },
  "6700056": {
    "zipcode": "6700056",
    "prefectureCode": "28",
    "prefectureNumber": 28,
    "prefecture": "兵庫県",
    "city": "姫路市",
    "town": "東今宿"
  },
  "6700057": {
    "zipcode": "6700057",
    "prefectureCode": "28",
    "prefectureNumber": 28,
    "prefecture": "兵庫県",
    "city": "姫路市",
    "town": "北今宿"
  },
  "6700058": {
    "zipcode": "6700058",
    "prefectureCode": "28",
    "prefectureNumber": 28,
    "prefecture": "兵庫県",
    "city": "姫路市",
    "town": "車崎"
  },
  "6700061": {
    "zipcode": "6700061",
    "prefectureCode": "28",
    "prefectureNumber": 28,
    "prefecture": "兵庫県",
    "city": "姫路市",
    "town": "西今宿"
  },
  "6700062": {
    "zipcode": "6700062",
    "prefectureCode": "28",
    "prefectureNumber": 28,
    "prefecture": "兵庫県",
    "city": "姫路市",
    "town": "高岡新町"
  },
  "6700063": {
    "zipcode": "6700063",
    "prefectureCode": "28",
    "prefectureNumber": 28,
    "prefecture": "兵庫県",
    "city": "姫路市",
    "town": "下手野"
  },
  "6700064": {
    "zipcode": "6700064",
    "prefectureCode": "28",
    "prefectureNumber": 28,
    "prefecture": "兵庫県",
    "city": "姫路市",
    "town": "東夢前台"
  },
  "6700065": {
    "zipcode": "6700065",
    "prefectureCode": "28",
    "prefectureNumber": 28,
    "prefecture": "兵庫県",
    "city": "姫路市",
    "town": "上手野"
  },
  "6700066": {
    "zipcode": "6700066",
    "prefectureCode": "28",
    "prefectureNumber": 28,
    "prefecture": "兵庫県",
    "city": "姫路市",
    "town": "藤ケ台"
  },
  "6700071": {
    "zipcode": "6700071",
    "prefectureCode": "28",
    "prefectureNumber": 28,
    "prefecture": "兵庫県",
    "city": "姫路市",
    "town": "御立北"
  },
  "6700072": {
    "zipcode": "6700072",
    "prefectureCode": "28",
    "prefectureNumber": 28,
    "prefecture": "兵庫県",
    "city": "姫路市",
    "town": "御立東"
  },
  "6700073": {
    "zipcode": "6700073",
    "prefectureCode": "28",
    "prefectureNumber": 28,
    "prefecture": "兵庫県",
    "city": "姫路市",
    "town": "御立中"
  },
  "6700074": {
    "zipcode": "6700074",
    "prefectureCode": "28",
    "prefectureNumber": 28,
    "prefecture": "兵庫県",
    "city": "姫路市",
    "town": "御立西"
  },
  "6700075": {
    "zipcode": "6700075",
    "prefectureCode": "28",
    "prefectureNumber": 28,
    "prefecture": "兵庫県",
    "city": "姫路市",
    "town": "北夢前台（その他）"
  },
  "6700081": {
    "zipcode": "6700081",
    "prefectureCode": "28",
    "prefectureNumber": 28,
    "prefecture": "兵庫県",
    "city": "姫路市",
    "town": "田寺東"
  },
  "6700082": {
    "zipcode": "6700082",
    "prefectureCode": "28",
    "prefectureNumber": 28,
    "prefecture": "兵庫県",
    "city": "姫路市",
    "town": "田寺山手町"
  },
  "6700083": {
    "zipcode": "6700083",
    "prefectureCode": "28",
    "prefectureNumber": 28,
    "prefecture": "兵庫県",
    "city": "姫路市",
    "town": "辻井"
  },
  "6700084": {
    "zipcode": "6700084",
    "prefectureCode": "28",
    "prefectureNumber": 28,
    "prefecture": "兵庫県",
    "city": "姫路市",
    "town": "東辻井"
  },
  "6700085": {
    "zipcode": "6700085",
    "prefectureCode": "28",
    "prefectureNumber": 28,
    "prefecture": "兵庫県",
    "city": "姫路市",
    "town": "山吹"
  },
  "6700086": {
    "zipcode": "6700086",
    "prefectureCode": "28",
    "prefectureNumber": 28,
    "prefecture": "兵庫県",
    "city": "姫路市",
    "town": "田寺"
  },
  "6700091": {
    "zipcode": "6700091",
    "prefectureCode": "28",
    "prefectureNumber": 28,
    "prefecture": "兵庫県",
    "city": "姫路市",
    "town": "北新在家"
  },
  "6700092": {
    "zipcode": "6700092",
    "prefectureCode": "28",
    "prefectureNumber": 28,
    "prefecture": "兵庫県",
    "city": "姫路市",
    "town": "新在家本町"
  },
  "6700093": {
    "zipcode": "6700093",
    "prefectureCode": "28",
    "prefectureNumber": 28,
    "prefecture": "兵庫県",
    "city": "姫路市",
    "town": "南新在家"
  },
  "6700094": {
    "zipcode": "6700094",
    "prefectureCode": "28",
    "prefectureNumber": 28,
    "prefecture": "兵庫県",
    "city": "姫路市",
    "town": "新在家中の町"
  },
  "6700095": {
    "zipcode": "6700095",
    "prefectureCode": "28",
    "prefectureNumber": 28,
    "prefecture": "兵庫県",
    "city": "姫路市",
    "town": "新在家"
  },
  "6700096": {
    "zipcode": "6700096",
    "prefectureCode": "28",
    "prefectureNumber": 28,
    "prefecture": "兵庫県",
    "city": "姫路市",
    "town": "西新在家"
  },
  "6700801": {
    "zipcode": "6700801",
    "prefectureCode": "28",
    "prefectureNumber": 28,
    "prefecture": "兵庫県",
    "city": "姫路市",
    "town": "仁豊野"
  },
  "6700802": {
    "zipcode": "6700802",
    "prefectureCode": "28",
    "prefectureNumber": 28,
    "prefecture": "兵庫県",
    "city": "姫路市",
    "town": "砥堀"
  },
  "6700803": {
    "zipcode": "6700803",
    "prefectureCode": "28",
    "prefectureNumber": 28,
    "prefecture": "兵庫県",
    "city": "姫路市",
    "town": "城見台"
  },
  "6700804": {
    "zipcode": "6700804",
    "prefectureCode": "28",
    "prefectureNumber": 28,
    "prefecture": "兵庫県",
    "city": "姫路市",
    "town": "保城"
  },
  "6700805": {
    "zipcode": "6700805",
    "prefectureCode": "28",
    "prefectureNumber": 28,
    "prefecture": "兵庫県",
    "city": "姫路市",
    "town": "西中島"
  },
  "6700806": {
    "zipcode": "6700806",
    "prefectureCode": "28",
    "prefectureNumber": 28,
    "prefecture": "兵庫県",
    "city": "姫路市",
    "town": "増位新町"
  },
  "6700807": {
    "zipcode": "6700807",
    "prefectureCode": "28",
    "prefectureNumber": 28,
    "prefecture": "兵庫県",
    "city": "姫路市",
    "town": "増位本町"
  },
  "6700808": {
    "zipcode": "6700808",
    "prefectureCode": "28",
    "prefectureNumber": 28,
    "prefecture": "兵庫県",
    "city": "姫路市",
    "town": "白国"
  },
  "6700811": {
    "zipcode": "6700811",
    "prefectureCode": "28",
    "prefectureNumber": 28,
    "prefecture": "兵庫県",
    "city": "姫路市",
    "town": "野里"
  },
  "6700812": {
    "zipcode": "6700812",
    "prefectureCode": "28",
    "prefectureNumber": 28,
    "prefecture": "兵庫県",
    "city": "姫路市",
    "town": "睦町"
  },
  "6700813": {
    "zipcode": "6700813",
    "prefectureCode": "28",
    "prefectureNumber": 28,
    "prefecture": "兵庫県",
    "city": "姫路市",
    "town": "野里慶雲寺前町"
  },
  "6700814": {
    "zipcode": "6700814",
    "prefectureCode": "28",
    "prefectureNumber": 28,
    "prefecture": "兵庫県",
    "city": "姫路市",
    "town": "野里上野町"
  },
  "6700815": {
    "zipcode": "6700815",
    "prefectureCode": "28",
    "prefectureNumber": 28,
    "prefecture": "兵庫県",
    "city": "姫路市",
    "town": "野里大和町"
  },
  "6700816": {
    "zipcode": "6700816",
    "prefectureCode": "28",
    "prefectureNumber": 28,
    "prefecture": "兵庫県",
    "city": "姫路市",
    "town": "威徳寺町"
  },
  "6700817": {
    "zipcode": "6700817",
    "prefectureCode": "28",
    "prefectureNumber": 28,
    "prefecture": "兵庫県",
    "city": "姫路市",
    "town": "梅ケ枝町"
  },
  "6700821": {
    "zipcode": "6700821",
    "prefectureCode": "28",
    "prefectureNumber": 28,
    "prefecture": "兵庫県",
    "city": "姫路市",
    "town": "東郷町"
  },
  "6700822": {
    "zipcode": "6700822",
    "prefectureCode": "28",
    "prefectureNumber": 28,
    "prefecture": "兵庫県",
    "city": "姫路市",
    "town": "市川台"
  },
  "6700823": {
    "zipcode": "6700823",
    "prefectureCode": "28",
    "prefectureNumber": 28,
    "prefecture": "兵庫県",
    "city": "姫路市",
    "town": "宮上町"
  },
  "6700824": {
    "zipcode": "6700824",
    "prefectureCode": "28",
    "prefectureNumber": 28,
    "prefecture": "兵庫県",
    "city": "姫路市",
    "town": "京町"
  },
  "6700825": {
    "zipcode": "6700825",
    "prefectureCode": "28",
    "prefectureNumber": 28,
    "prefecture": "兵庫県",
    "city": "姫路市",
    "town": "市川橋通"
  },
  "6700826": {
    "zipcode": "6700826",
    "prefectureCode": "28",
    "prefectureNumber": 28,
    "prefecture": "兵庫県",
    "city": "姫路市",
    "town": "楠町"
  },
  "6700827": {
    "zipcode": "6700827",
    "prefectureCode": "28",
    "prefectureNumber": 28,
    "prefecture": "兵庫県",
    "city": "姫路市",
    "town": "丸尾町"
  },
  "6700831": {
    "zipcode": "6700831",
    "prefectureCode": "28",
    "prefectureNumber": 28,
    "prefecture": "兵庫県",
    "city": "姫路市",
    "town": "城見町"
  },
  "6700832": {
    "zipcode": "6700832",
    "prefectureCode": "28",
    "prefectureNumber": 28,
    "prefecture": "兵庫県",
    "city": "姫路市",
    "town": "双葉町"
  },
  "6700833": {
    "zipcode": "6700833",
    "prefectureCode": "28",
    "prefectureNumber": 28,
    "prefecture": "兵庫県",
    "city": "姫路市",
    "town": "大善町"
  },
  "6700834": {
    "zipcode": "6700834",
    "prefectureCode": "28",
    "prefectureNumber": 28,
    "prefecture": "兵庫県",
    "city": "姫路市",
    "town": "神和町"
  },
  "6700835": {
    "zipcode": "6700835",
    "prefectureCode": "28",
    "prefectureNumber": 28,
    "prefecture": "兵庫県",
    "city": "姫路市",
    "town": "幸町"
  },
  "6700836": {
    "zipcode": "6700836",
    "prefectureCode": "28",
    "prefectureNumber": 28,
    "prefecture": "兵庫県",
    "city": "姫路市",
    "town": "神屋町"
  },
  "6700837": {
    "zipcode": "6700837",
    "prefectureCode": "28",
    "prefectureNumber": 28,
    "prefecture": "兵庫県",
    "city": "姫路市",
    "town": "宮西町"
  },
  "6700841": {
    "zipcode": "6700841",
    "prefectureCode": "28",
    "prefectureNumber": 28,
    "prefecture": "兵庫県",
    "city": "姫路市",
    "town": "城東町"
  },
  "6700842": {
    "zipcode": "6700842",
    "prefectureCode": "28",
    "prefectureNumber": 28,
    "prefecture": "兵庫県",
    "city": "姫路市",
    "town": "城東町毘沙門"
  },
  "6700843": {
    "zipcode": "6700843",
    "prefectureCode": "28",
    "prefectureNumber": 28,
    "prefecture": "兵庫県",
    "city": "姫路市",
    "town": "城東町清水"
  },
  "6700844": {
    "zipcode": "6700844",
    "prefectureCode": "28",
    "prefectureNumber": 28,
    "prefecture": "兵庫県",
    "city": "姫路市",
    "town": "城東町野田"
  },
  "6700845": {
    "zipcode": "6700845",
    "prefectureCode": "28",
    "prefectureNumber": 28,
    "prefecture": "兵庫県",
    "city": "姫路市",
    "town": "城東町京口台"
  },
  "6700846": {
    "zipcode": "6700846",
    "prefectureCode": "28",
    "prefectureNumber": 28,
    "prefecture": "兵庫県",
    "city": "姫路市",
    "town": "天神町"
  },
  "6700847": {
    "zipcode": "6700847",
    "prefectureCode": "28",
    "prefectureNumber": 28,
    "prefecture": "兵庫県",
    "city": "姫路市",
    "town": "城東町中河原"
  },
  "6700848": {
    "zipcode": "6700848",
    "prefectureCode": "28",
    "prefectureNumber": 28,
    "prefecture": "兵庫県",
    "city": "姫路市",
    "town": "城東町竹之門"
  },
  "6700849": {
    "zipcode": "6700849",
    "prefectureCode": "28",
    "prefectureNumber": 28,
    "prefecture": "兵庫県",
    "city": "姫路市",
    "town": "城東町五軒屋"
  },
  "6700851": {
    "zipcode": "6700851",
    "prefectureCode": "28",
    "prefectureNumber": 28,
    "prefecture": "兵庫県",
    "city": "姫路市",
    "town": "京口町"
  },
  "6700852": {
    "zipcode": "6700852",
    "prefectureCode": "28",
    "prefectureNumber": 28,
    "prefecture": "兵庫県",
    "city": "姫路市",
    "town": "国府寺町"
  },
  "6700853": {
    "zipcode": "6700853",
    "prefectureCode": "28",
    "prefectureNumber": 28,
    "prefecture": "兵庫県",
    "city": "姫路市",
    "town": "大黒壱丁町"
  },
  "6700854": {
    "zipcode": "6700854",
    "prefectureCode": "28",
    "prefectureNumber": 28,
    "prefecture": "兵庫県",
    "city": "姫路市",
    "town": "五軒邸"
  },
  "6700855": {
    "zipcode": "6700855",
    "prefectureCode": "28",
    "prefectureNumber": 28,
    "prefecture": "兵庫県",
    "city": "姫路市",
    "town": "福居町"
  },
  "6700856": {
    "zipcode": "6700856",
    "prefectureCode": "28",
    "prefectureNumber": 28,
    "prefecture": "兵庫県",
    "city": "姫路市",
    "town": "同心町"
  },
  "6700857": {
    "zipcode": "6700857",
    "prefectureCode": "28",
    "prefectureNumber": 28,
    "prefecture": "兵庫県",
    "city": "姫路市",
    "town": "五郎右衛門邸"
  },
  "6700861": {
    "zipcode": "6700861",
    "prefectureCode": "28",
    "prefectureNumber": 28,
    "prefecture": "兵庫県",
    "city": "姫路市",
    "town": "野里東町"
  },
  "6700862": {
    "zipcode": "6700862",
    "prefectureCode": "28",
    "prefectureNumber": 28,
    "prefecture": "兵庫県",
    "city": "姫路市",
    "town": "野里新町"
  },
  "6700863": {
    "zipcode": "6700863",
    "prefectureCode": "28",
    "prefectureNumber": 28,
    "prefecture": "兵庫県",
    "city": "姫路市",
    "town": "野里東同心町"
  },
  "6700864": {
    "zipcode": "6700864",
    "prefectureCode": "28",
    "prefectureNumber": 28,
    "prefecture": "兵庫県",
    "city": "姫路市",
    "town": "野里中町"
  },
  "6700865": {
    "zipcode": "6700865",
    "prefectureCode": "28",
    "prefectureNumber": 28,
    "prefecture": "兵庫県",
    "city": "姫路市",
    "town": "野里月丘町"
  },
  "6700866": {
    "zipcode": "6700866",
    "prefectureCode": "28",
    "prefectureNumber": 28,
    "prefecture": "兵庫県",
    "city": "姫路市",
    "town": "野里堀留町"
  },
  "6700867": {
    "zipcode": "6700867",
    "prefectureCode": "28",
    "prefectureNumber": 28,
    "prefecture": "兵庫県",
    "city": "姫路市",
    "town": "野里寺町"
  },
  "6700868": {
    "zipcode": "6700868",
    "prefectureCode": "28",
    "prefectureNumber": 28,
    "prefecture": "兵庫県",
    "city": "姫路市",
    "town": "大野町"
  },
  "6700871": {
    "zipcode": "6700871",
    "prefectureCode": "28",
    "prefectureNumber": 28,
    "prefecture": "兵庫県",
    "city": "姫路市",
    "town": "伊伝居"
  },
  "6700872": {
    "zipcode": "6700872",
    "prefectureCode": "28",
    "prefectureNumber": 28,
    "prefecture": "兵庫県",
    "city": "姫路市",
    "town": "八代"
  },
  "6700873": {
    "zipcode": "6700873",
    "prefectureCode": "28",
    "prefectureNumber": 28,
    "prefecture": "兵庫県",
    "city": "姫路市",
    "town": "八代東光寺町"
  },
  "6700874": {
    "zipcode": "6700874",
    "prefectureCode": "28",
    "prefectureNumber": 28,
    "prefecture": "兵庫県",
    "city": "姫路市",
    "town": "八代本町"
  },
  "6700875": {
    "zipcode": "6700875",
    "prefectureCode": "28",
    "prefectureNumber": 28,
    "prefecture": "兵庫県",
    "city": "姫路市",
    "town": "南八代町"
  },
  "6700876": {
    "zipcode": "6700876",
    "prefectureCode": "28",
    "prefectureNumber": 28,
    "prefecture": "兵庫県",
    "city": "姫路市",
    "town": "西八代町"
  },
  "6700877": {
    "zipcode": "6700877",
    "prefectureCode": "28",
    "prefectureNumber": 28,
    "prefecture": "兵庫県",
    "city": "姫路市",
    "town": "北八代"
  },
  "6700881": {
    "zipcode": "6700881",
    "prefectureCode": "28",
    "prefectureNumber": 28,
    "prefecture": "兵庫県",
    "city": "姫路市",
    "town": "峰南町"
  },
  "6700882": {
    "zipcode": "6700882",
    "prefectureCode": "28",
    "prefectureNumber": 28,
    "prefecture": "兵庫県",
    "city": "姫路市",
    "town": "広峰"
  },
  "6700883": {
    "zipcode": "6700883",
    "prefectureCode": "28",
    "prefectureNumber": 28,
    "prefecture": "兵庫県",
    "city": "姫路市",
    "town": "城北新町"
  },
  "6700884": {
    "zipcode": "6700884",
    "prefectureCode": "28",
    "prefectureNumber": 28,
    "prefecture": "兵庫県",
    "city": "姫路市",
    "town": "城北本町"
  },
  "6700885": {
    "zipcode": "6700885",
    "prefectureCode": "28",
    "prefectureNumber": 28,
    "prefecture": "兵庫県",
    "city": "姫路市",
    "town": "八代宮前町"
  },
  "6700886": {
    "zipcode": "6700886",
    "prefectureCode": "28",
    "prefectureNumber": 28,
    "prefecture": "兵庫県",
    "city": "姫路市",
    "town": "八代緑ケ丘町"
  },
  "6700887": {
    "zipcode": "6700887",
    "prefectureCode": "28",
    "prefectureNumber": 28,
    "prefecture": "兵庫県",
    "city": "姫路市",
    "town": "北平野南の町"
  },
  "6700891": {
    "zipcode": "6700891",
    "prefectureCode": "28",
    "prefectureNumber": 28,
    "prefecture": "兵庫県",
    "city": "姫路市",
    "town": "広嶺山"
  },
  "6700892": {
    "zipcode": "6700892",
    "prefectureCode": "28",
    "prefectureNumber": 28,
    "prefecture": "兵庫県",
    "city": "姫路市",
    "town": "北平野奥垣内"
  },
  "6700893": {
    "zipcode": "6700893",
    "prefectureCode": "28",
    "prefectureNumber": 28,
    "prefecture": "兵庫県",
    "city": "姫路市",
    "town": "北平野"
  },
  "6700894": {
    "zipcode": "6700894",
    "prefectureCode": "28",
    "prefectureNumber": 28,
    "prefecture": "兵庫県",
    "city": "姫路市",
    "town": "梅ケ谷町"
  },
  "6700895": {
    "zipcode": "6700895",
    "prefectureCode": "28",
    "prefectureNumber": 28,
    "prefecture": "兵庫県",
    "city": "姫路市",
    "town": "北平野台町"
  },
  "6700896": {
    "zipcode": "6700896",
    "prefectureCode": "28",
    "prefectureNumber": 28,
    "prefecture": "兵庫県",
    "city": "姫路市",
    "town": "上大野"
  },
  "6700897": {
    "zipcode": "6700897",
    "prefectureCode": "28",
    "prefectureNumber": 28,
    "prefecture": "兵庫県",
    "city": "姫路市",
    "town": "西大寿台"
  },
  "6700898": {
    "zipcode": "6700898",
    "prefectureCode": "28",
    "prefectureNumber": 28,
    "prefecture": "兵庫県",
    "city": "姫路市",
    "town": "大寿台"
  },
  "6700901": {
    "zipcode": "6700901",
    "prefectureCode": "28",
    "prefectureNumber": 28,
    "prefecture": "兵庫県",
    "city": "姫路市",
    "town": "西二階町"
  },
  "6700902": {
    "zipcode": "6700902",
    "prefectureCode": "28",
    "prefectureNumber": 28,
    "prefecture": "兵庫県",
    "city": "姫路市",
    "town": "白銀町"
  },
  "6700903": {
    "zipcode": "6700903",
    "prefectureCode": "28",
    "prefectureNumber": 28,
    "prefecture": "兵庫県",
    "city": "姫路市",
    "town": "立町"
  },
  "6700904": {
    "zipcode": "6700904",
    "prefectureCode": "28",
    "prefectureNumber": 28,
    "prefecture": "兵庫県",
    "city": "姫路市",
    "town": "塩町"
  },
  "6700905": {
    "zipcode": "6700905",
    "prefectureCode": "28",
    "prefectureNumber": 28,
    "prefecture": "兵庫県",
    "city": "姫路市",
    "town": "魚町"
  },
  "6700906": {
    "zipcode": "6700906",
    "prefectureCode": "28",
    "prefectureNumber": 28,
    "prefecture": "兵庫県",
    "city": "姫路市",
    "town": "博労町"
  },
  "6700911": {
    "zipcode": "6700911",
    "prefectureCode": "28",
    "prefectureNumber": 28,
    "prefecture": "兵庫県",
    "city": "姫路市",
    "town": "十二所前町"
  },
  "6700912": {
    "zipcode": "6700912",
    "prefectureCode": "28",
    "prefectureNumber": 28,
    "prefecture": "兵庫県",
    "city": "姫路市",
    "town": "南町"
  },
  "6700913": {
    "zipcode": "6700913",
    "prefectureCode": "28",
    "prefectureNumber": 28,
    "prefecture": "兵庫県",
    "city": "姫路市",
    "town": "西駅前町"
  },
  "6700914": {
    "zipcode": "6700914",
    "prefectureCode": "28",
    "prefectureNumber": 28,
    "prefecture": "兵庫県",
    "city": "姫路市",
    "town": "豆腐町"
  },
  "6700915": {
    "zipcode": "6700915",
    "prefectureCode": "28",
    "prefectureNumber": 28,
    "prefecture": "兵庫県",
    "city": "姫路市",
    "town": "高尾町"
  },
  "6700916": {
    "zipcode": "6700916",
    "prefectureCode": "28",
    "prefectureNumber": 28,
    "prefecture": "兵庫県",
    "city": "姫路市",
    "town": "久保町"
  },
  "6700917": {
    "zipcode": "6700917",
    "prefectureCode": "28",
    "prefectureNumber": 28,
    "prefecture": "兵庫県",
    "city": "姫路市",
    "town": "忍町"
  },
  "6700921": {
    "zipcode": "6700921",
    "prefectureCode": "28",
    "prefectureNumber": 28,
    "prefecture": "兵庫県",
    "city": "姫路市",
    "town": "綿町"
  },
  "6700922": {
    "zipcode": "6700922",
    "prefectureCode": "28",
    "prefectureNumber": 28,
    "prefecture": "兵庫県",
    "city": "姫路市",
    "town": "二階町"
  },
  "6700923": {
    "zipcode": "6700923",
    "prefectureCode": "28",
    "prefectureNumber": 28,
    "prefecture": "兵庫県",
    "city": "姫路市",
    "town": "呉服町"
  },
  "6700924": {
    "zipcode": "6700924",
    "prefectureCode": "28",
    "prefectureNumber": 28,
    "prefecture": "兵庫県",
    "city": "姫路市",
    "town": "紺屋町"
  },
  "6700925": {
    "zipcode": "6700925",
    "prefectureCode": "28",
    "prefectureNumber": 28,
    "prefecture": "兵庫県",
    "city": "姫路市",
    "town": "亀井町"
  },
  "6700926": {
    "zipcode": "6700926",
    "prefectureCode": "28",
    "prefectureNumber": 28,
    "prefecture": "兵庫県",
    "city": "姫路市",
    "town": "東駅前町"
  },
  "6700927": {
    "zipcode": "6700927",
    "prefectureCode": "28",
    "prefectureNumber": 28,
    "prefecture": "兵庫県",
    "city": "姫路市",
    "town": "駅前町"
  },
  "6700931": {
    "zipcode": "6700931",
    "prefectureCode": "28",
    "prefectureNumber": 28,
    "prefecture": "兵庫県",
    "city": "姫路市",
    "town": "坂田町"
  },
  "6700932": {
    "zipcode": "6700932",
    "prefectureCode": "28",
    "prefectureNumber": 28,
    "prefecture": "兵庫県",
    "city": "姫路市",
    "town": "下寺町"
  },
  "6700933": {
    "zipcode": "6700933",
    "prefectureCode": "28",
    "prefectureNumber": 28,
    "prefecture": "兵庫県",
    "city": "姫路市",
    "town": "平野町"
  },
  "6700934": {
    "zipcode": "6700934",
    "prefectureCode": "28",
    "prefectureNumber": 28,
    "prefecture": "兵庫県",
    "city": "姫路市",
    "town": "朝日町"
  },
  "6700935": {
    "zipcode": "6700935",
    "prefectureCode": "28",
    "prefectureNumber": 28,
    "prefecture": "兵庫県",
    "city": "姫路市",
    "town": "北条口"
  },
  "6700936": {
    "zipcode": "6700936",
    "prefectureCode": "28",
    "prefectureNumber": 28,
    "prefecture": "兵庫県",
    "city": "姫路市",
    "town": "古二階町"
  },
  "6700937": {
    "zipcode": "6700937",
    "prefectureCode": "28",
    "prefectureNumber": 28,
    "prefecture": "兵庫県",
    "city": "姫路市",
    "town": "元塩町"
  },
  "6700940": {
    "zipcode": "6700940",
    "prefectureCode": "28",
    "prefectureNumber": 28,
    "prefecture": "兵庫県",
    "city": "姫路市",
    "town": "三左衛門堀西の町"
  },
  "6700941": {
    "zipcode": "6700941",
    "prefectureCode": "28",
    "prefectureNumber": 28,
    "prefecture": "兵庫県",
    "city": "姫路市",
    "town": "若菜町"
  },
  "6700942": {
    "zipcode": "6700942",
    "prefectureCode": "28",
    "prefectureNumber": 28,
    "prefecture": "兵庫県",
    "city": "姫路市",
    "town": "日出町"
  },
  "6700943": {
    "zipcode": "6700943",
    "prefectureCode": "28",
    "prefectureNumber": 28,
    "prefecture": "兵庫県",
    "city": "姫路市",
    "town": "市之郷町"
  },
  "6700944": {
    "zipcode": "6700944",
    "prefectureCode": "28",
    "prefectureNumber": 28,
    "prefecture": "兵庫県",
    "city": "姫路市",
    "town": "阿保"
  },
  "6700945": {
    "zipcode": "6700945",
    "prefectureCode": "28",
    "prefectureNumber": 28,
    "prefecture": "兵庫県",
    "city": "姫路市",
    "town": "北条梅原町"
  },
  "6700946": {
    "zipcode": "6700946",
    "prefectureCode": "28",
    "prefectureNumber": 28,
    "prefecture": "兵庫県",
    "city": "姫路市",
    "town": "北条永良町"
  },
  "6700947": {
    "zipcode": "6700947",
    "prefectureCode": "28",
    "prefectureNumber": 28,
    "prefecture": "兵庫県",
    "city": "姫路市",
    "town": "北条"
  },
  "6700948": {
    "zipcode": "6700948",
    "prefectureCode": "28",
    "prefectureNumber": 28,
    "prefecture": "兵庫県",
    "city": "姫路市",
    "town": "北条宮の町"
  },
  "6700949": {
    "zipcode": "6700949",
    "prefectureCode": "28",
    "prefectureNumber": 28,
    "prefecture": "兵庫県",
    "city": "姫路市",
    "town": "三左衛門堀東の町"
  },
  "6700951": {
    "zipcode": "6700951",
    "prefectureCode": "28",
    "prefectureNumber": 28,
    "prefecture": "兵庫県",
    "city": "姫路市",
    "town": "庄田"
  },
  "6700952": {
    "zipcode": "6700952",
    "prefectureCode": "28",
    "prefectureNumber": 28,
    "prefecture": "兵庫県",
    "city": "姫路市",
    "town": "南条"
  },
  "6700953": {
    "zipcode": "6700953",
    "prefectureCode": "28",
    "prefectureNumber": 28,
    "prefecture": "兵庫県",
    "city": "姫路市",
    "town": "三条町（１丁目）"
  },
  "6700954": {
    "zipcode": "6700954",
    "prefectureCode": "28",
    "prefectureNumber": 28,
    "prefecture": "兵庫県",
    "city": "姫路市",
    "town": "栗山町"
  },
  "6700955": {
    "zipcode": "6700955",
    "prefectureCode": "28",
    "prefectureNumber": 28,
    "prefecture": "兵庫県",
    "city": "姫路市",
    "town": "安田"
  },
  "6700961": {
    "zipcode": "6700961",
    "prefectureCode": "28",
    "prefectureNumber": 28,
    "prefecture": "兵庫県",
    "city": "姫路市",
    "town": "南畝町"
  },
  "6700962": {
    "zipcode": "6700962",
    "prefectureCode": "28",
    "prefectureNumber": 28,
    "prefecture": "兵庫県",
    "city": "姫路市",
    "town": "南駅前町"
  },
  "6700964": {
    "zipcode": "6700964",
    "prefectureCode": "28",
    "prefectureNumber": 28,
    "prefecture": "兵庫県",
    "city": "姫路市",
    "town": "豊沢町"
  },
  "6700965": {
    "zipcode": "6700965",
    "prefectureCode": "28",
    "prefectureNumber": 28,
    "prefecture": "兵庫県",
    "city": "姫路市",
    "town": "東延末"
  },
  "6700966": {
    "zipcode": "6700966",
    "prefectureCode": "28",
    "prefectureNumber": 28,
    "prefecture": "兵庫県",
    "city": "姫路市",
    "town": "延末"
  },
  "6700971": {
    "zipcode": "6700971",
    "prefectureCode": "28",
    "prefectureNumber": 28,
    "prefecture": "兵庫県",
    "city": "姫路市",
    "town": "西延末"
  },
  "6700972": {
    "zipcode": "6700972",
    "prefectureCode": "28",
    "prefectureNumber": 28,
    "prefecture": "兵庫県",
    "city": "姫路市",
    "town": "手柄"
  },
  "6700973": {
    "zipcode": "6700973",
    "prefectureCode": "28",
    "prefectureNumber": 28,
    "prefecture": "兵庫県",
    "city": "姫路市",
    "town": "亀山"
  },
  "6700974": {
    "zipcode": "6700974",
    "prefectureCode": "28",
    "prefectureNumber": 28,
    "prefecture": "兵庫県",
    "city": "姫路市",
    "town": "飯田"
  },
  "6700975": {
    "zipcode": "6700975",
    "prefectureCode": "28",
    "prefectureNumber": 28,
    "prefecture": "兵庫県",
    "city": "姫路市",
    "town": "中地南町"
  },
  "6700976": {
    "zipcode": "6700976",
    "prefectureCode": "28",
    "prefectureNumber": 28,
    "prefecture": "兵庫県",
    "city": "姫路市",
    "town": "中地"
  },
  "6700981": {
    "zipcode": "6700981",
    "prefectureCode": "28",
    "prefectureNumber": 28,
    "prefecture": "兵庫県",
    "city": "姫路市",
    "town": "西庄"
  },
  "6700982": {
    "zipcode": "6700982",
    "prefectureCode": "28",
    "prefectureNumber": 28,
    "prefecture": "兵庫県",
    "city": "姫路市",
    "town": "岡田"
  },
  "6700983": {
    "zipcode": "6700983",
    "prefectureCode": "28",
    "prefectureNumber": 28,
    "prefecture": "兵庫県",
    "city": "姫路市",
    "town": "井ノ口"
  },
  "6700984": {
    "zipcode": "6700984",
    "prefectureCode": "28",
    "prefectureNumber": 28,
    "prefecture": "兵庫県",
    "city": "姫路市",
    "town": "町坪"
  },
  "6700985": {
    "zipcode": "6700985",
    "prefectureCode": "28",
    "prefectureNumber": 28,
    "prefecture": "兵庫県",
    "city": "姫路市",
    "town": "玉手"
  },
  "6700986": {
    "zipcode": "6700986",
    "prefectureCode": "28",
    "prefectureNumber": 28,
    "prefecture": "兵庫県",
    "city": "姫路市",
    "town": "苫編"
  },
  "6700987": {
    "zipcode": "6700987",
    "prefectureCode": "28",
    "prefectureNumber": 28,
    "prefecture": "兵庫県",
    "city": "姫路市",
    "town": "苫編南"
  },
  "6700989": {
    "zipcode": "6700989",
    "prefectureCode": "28",
    "prefectureNumber": 28,
    "prefecture": "兵庫県",
    "city": "姫路市",
    "town": "町坪南町"
  },
  "6700991": {
    "zipcode": "6700991",
    "prefectureCode": "28",
    "prefectureNumber": 28,
    "prefecture": "兵庫県",
    "city": "姫路市",
    "town": "神田町"
  },
  "6700992": {
    "zipcode": "6700992",
    "prefectureCode": "28",
    "prefectureNumber": 28,
    "prefecture": "兵庫県",
    "city": "姫路市",
    "town": "福沢町"
  },
  "6700993": {
    "zipcode": "6700993",
    "prefectureCode": "28",
    "prefectureNumber": 28,
    "prefecture": "兵庫県",
    "city": "姫路市",
    "town": "千代田町"
  },
  "6700994": {
    "zipcode": "6700994",
    "prefectureCode": "28",
    "prefectureNumber": 28,
    "prefecture": "兵庫県",
    "city": "姫路市",
    "town": "定元町"
  },
  "6700995": {
    "zipcode": "6700995",
    "prefectureCode": "28",
    "prefectureNumber": 28,
    "prefecture": "兵庫県",
    "city": "姫路市",
    "town": "土山東の町"
  },
  "6700996": {
    "zipcode": "6700996",
    "prefectureCode": "28",
    "prefectureNumber": 28,
    "prefecture": "兵庫県",
    "city": "姫路市",
    "town": "土山"
  }
}
