{
  "6710101": {
    "zipcode": "6710101",
    "prefectureCode": "28",
    "prefectureNumber": 28,
    "prefecture": "兵庫県",
    "city": "姫路市",
    "town": "大塩町"
  },
  "6710102": {
    "zipcode": "6710102",
    "prefectureCode": "28",
    "prefectureNumber": 28,
    "prefecture": "兵庫県",
    "city": "姫路市",
    "town": "大塩町汐咲"
  },
  "6710103": {
    "zipcode": "6710103",
    "prefectureCode": "28",
    "prefectureNumber": 28,
    "prefecture": "兵庫県",
    "city": "姫路市",
    "town": "大塩町宮前"
  },
  "6710111": {
    "zipcode": "6710111",
    "prefectureCode": "28",
    "prefectureNumber": 28,
    "prefecture": "兵庫県",
    "city": "姫路市",
    "town": "的形町的形"
  },
  "6710112": {
    "zipcode": "6710112",
    "prefectureCode": "28",
    "prefectureNumber": 28,
    "prefecture": "兵庫県",
    "city": "姫路市",
    "town": "的形町福泊"
  },
  "6710121": {
    "zipcode": "6710121",
    "prefectureCode": "28",
    "prefectureNumber": 28,
    "prefecture": "兵庫県",
    "city": "高砂市",
    "town": "北浜町牛谷"
  },
  "6710122": {
    "zipcode": "6710122",
    "prefectureCode": "28",
    "prefectureNumber": 28,
    "prefecture": "兵庫県",
    "city": "高砂市",
    "town": "北浜町北脇"
  },
  "6710123": {
    "zipcode": "6710123",
    "prefectureCode": "28",
    "prefectureNumber": 28,
    "prefecture": "兵庫県",
    "city": "高砂市",
    "town": "北浜町西浜"
  },
  "6710201": {
    "zipcode": "6710201",
    "prefectureCode": "28",
    "prefectureNumber": 28,
    "prefecture": "兵庫県",
    "city": "姫路市",
    "town": "飾東町小原新"
  },
  "6710202": {
    "zipcode": "6710202",
    "prefectureCode": "28",
    "prefectureNumber": 28,
    "prefecture": "兵庫県",
    "city": "姫路市",
    "town": "飾東町北野"
  },
  "6710203": {
    "zipcode": "6710203",
    "prefectureCode": "28",
    "prefectureNumber": 28,
    "prefecture": "兵庫県",
    "city": "姫路市",
    "town": "飾東町大釜"
  },
  "6710204": {
    "zipcode": "6710204",
    "prefectureCode": "28",
    "prefectureNumber": 28,
    "prefecture": "兵庫県",
    "city": "姫路市",
    "town": "飾東町大釜新"
  },
  "6710205": {
    "zipcode": "6710205",
    "prefectureCode": "28",
    "prefectureNumber": 28,
    "prefecture": "兵庫県",
    "city": "姫路市",
    "town": "飾東町清住"
  },
  "6710207": {
    "zipcode": "6710207",
    "prefectureCode": "28",
    "prefectureNumber": 28,
    "prefecture": "兵庫県",
    "city": "姫路市",
    "town": "飾東町山崎"
  },
  "6710208": {
    "zipcode": "6710208",
    "prefectureCode": "28",
    "prefectureNumber": 28,
    "prefecture": "兵庫県",
    "city": "姫路市",
    "town": "飾東町八重畑"
  },
  "6710209": {
    "zipcode": "6710209",
    "prefectureCode": "28",
    "prefectureNumber": 28,
    "prefecture": "兵庫県",
    "city": "姫路市",
    "town": "飾東町小原"
  },
  "6710211": {
    "zipcode": "6710211",
    "prefectureCode": "28",
    "prefectureNumber": 28,
    "prefecture": "兵庫県",
    "city": "姫路市",
    "town": "飾東町塩崎"
  },
  "6710212": {
    "zipcode": "6710212",
    "prefectureCode": "28",
    "prefectureNumber": 28,
    "prefecture": "兵庫県",
    "city": "姫路市",
    "town": "飾東町北山"
  },
  "6710214": {
    "zipcode": "6710214",
    "prefectureCode": "28",
    "prefectureNumber": 28,
    "prefecture": "兵庫県",
    "city": "姫路市",
    "town": "飾東町唐端新"
  },
  "6710215": {
    "zipcode": "6710215",
    "prefectureCode": "28",
    "prefectureNumber": 28,
    "prefecture": "兵庫県",
    "city": "姫路市",
    "town": "飾東町夕陽ケ丘"
  },
  "6710216": {
    "zipcode": "6710216",
    "prefectureCode": "28",
    "prefectureNumber": 28,
    "prefecture": "兵庫県",
    "city": "姫路市",
    "town": "飾東町志吹"
  },
  "6710217": {
    "zipcode": "6710217",
    "prefectureCode": "28",
    "prefectureNumber": 28,
    "prefecture": "兵庫県",
    "city": "姫路市",
    "town": "飾東町佐良和"
  },
  "6710218": {
    "zipcode": "6710218",
    "prefectureCode": "28",
    "prefectureNumber": 28,
    "prefecture": "兵庫県",
    "city": "姫路市",
    "town": "飾東町庄"
  },
  "6710219": {
    "zipcode": "6710219",
    "prefectureCode": "28",
    "prefectureNumber": 28,
    "prefecture": "兵庫県",
    "city": "姫路市",
    "town": "飾東町豊国"
  },
  "6710221": {
    "zipcode": "6710221",
    "prefectureCode": "28",
    "prefectureNumber": 28,
    "prefecture": "兵庫県",
    "city": "姫路市",
    "town": "別所町別所"
  },
  "6710222": {
    "zipcode": "6710222",
    "prefectureCode": "28",
    "prefectureNumber": 28,
    "prefecture": "兵庫県",
    "city": "姫路市",
    "town": "別所町小林"
  },
  "6710223": {
    "zipcode": "6710223",
    "prefectureCode": "28",
    "prefectureNumber": 28,
    "prefecture": "兵庫県",
    "city": "姫路市",
    "town": "別所町北宿"
  },
  "6710224": {
    "zipcode": "6710224",
    "prefectureCode": "28",
    "prefectureNumber": 28,
    "prefecture": "兵庫県",
    "city": "姫路市",
    "town": "別所町佐土"
  },
  "6710225": {
    "zipcode": "6710225",
    "prefectureCode": "28",
    "prefectureNumber": 28,
    "prefecture": "兵庫県",
    "city": "姫路市",
    "town": "別所町家具町"
  },
  "6710226": {
    "zipcode": "6710226",
    "prefectureCode": "28",
    "prefectureNumber": 28,
    "prefecture": "兵庫県",
    "city": "姫路市",
    "town": "別所町佐土新"
  },
  "6710231": {
    "zipcode": "6710231",
    "prefectureCode": "28",
    "prefectureNumber": 28,
    "prefecture": "兵庫県",
    "city": "姫路市",
    "town": "御国野町深志野"
  },
  "6710232": {
    "zipcode": "6710232",
    "prefectureCode": "28",
    "prefectureNumber": 28,
    "prefecture": "兵庫県",
    "city": "姫路市",
    "town": "御国野町御着"
  },
  "6710233": {
    "zipcode": "6710233",
    "prefectureCode": "28",
    "prefectureNumber": 28,
    "prefecture": "兵庫県",
    "city": "姫路市",
    "town": "御国野町西御着"
  },
  "6710234": {
    "zipcode": "6710234",
    "prefectureCode": "28",
    "prefectureNumber": 28,
    "prefecture": "兵庫県",
    "city": "姫路市",
    "town": "御国野町国分寺"
  },
  "6710241": {
    "zipcode": "6710241",
    "prefectureCode": "28",
    "prefectureNumber": 28,
    "prefecture": "兵庫県",
    "city": "姫路市",
    "town": "四郷町上鈴"
  },
  "6710242": {
    "zipcode": "6710242",
    "prefectureCode": "28",
    "prefectureNumber": 28,
    "prefecture": "兵庫県",
    "city": "姫路市",
    "town": "四郷町中鈴"
  },
  "6710243": {
    "zipcode": "6710243",
    "prefectureCode": "28",
    "prefectureNumber": 28,
    "prefecture": "兵庫県",
    "city": "姫路市",
    "town": "四郷町本郷"
  },
  "6710244": {
    "zipcode": "6710244",
    "prefectureCode": "28",
    "prefectureNumber": 28,
    "prefecture": "兵庫県",
    "city": "姫路市",
    "town": "四郷町見野"
  },
  "6710245": {
    "zipcode": "6710245",
    "prefectureCode": "28",
    "prefectureNumber": 28,
    "prefecture": "兵庫県",
    "city": "姫路市",
    "town": "四郷町明田"
  },
  "6710246": {
    "zipcode": "6710246",
    "prefectureCode": "28",
    "prefectureNumber": 28,
    "prefecture": "兵庫県",
    "city": "姫路市",
    "town": "四郷町坂元"
  },
  "6710247": {
    "zipcode": "6710247",
    "prefectureCode": "28",
    "prefectureNumber": 28,
    "prefecture": "兵庫県",
    "city": "姫路市",
    "town": "四郷町東阿保"
  },
  "6710248": {
    "zipcode": "6710248",
    "prefectureCode": "28",
    "prefectureNumber": 28,
    "prefecture": "兵庫県",
    "city": "姫路市",
    "town": "四郷町山脇"
  },
  "6710251": {
    "zipcode": "6710251",
    "prefectureCode": "28",
    "prefectureNumber": 28,
    "prefecture": "兵庫県",
    "city": "姫路市",
    "town": "花田町上原田"
  },
  "6710252": {
    "zipcode": "6710252",
    "prefectureCode": "28",
    "prefectureNumber": 28,
    "prefecture": "兵庫県",
    "city": "姫路市",
    "town": "花田町加納原田"
  },
  "6710253": {
    "zipcode": "6710253",
    "prefectureCode": "28",
    "prefectureNumber": 28,
    "prefecture": "兵庫県",
    "city": "姫路市",
    "town": "花田町一本松"
  },
  "6710254": {
    "zipcode": "6710254",
    "prefectureCode": "28",
    "prefectureNumber": 28,
    "prefecture": "兵庫県",
    "city": "姫路市",
    "town": "花田町勅旨"
  },
  "6710255": {
    "zipcode": "6710255",
    "prefectureCode": "28",
    "prefectureNumber": 28,
    "prefecture": "兵庫県",
    "city": "姫路市",
    "town": "花田町小川"
  },
  "6710256": {
    "zipcode": "6710256",
    "prefectureCode": "28",
    "prefectureNumber": 28,
    "prefecture": "兵庫県",
    "city": "姫路市",
    "town": "花田町高木"
  },
  "6711101": {
    "zipcode": "6711101",
    "prefectureCode": "28",
    "prefectureNumber": 28,
    "prefecture": "兵庫県",
    "city": "姫路市",
    "town": "広畑区東夢前台"
  },
  "6711102": {
    "zipcode": "6711102",
    "prefectureCode": "28",
    "prefectureNumber": 28,
    "prefecture": "兵庫県",
    "city": "姫路市",
    "town": "広畑区蒲田"
  },
  "6711103": {
    "zipcode": "6711103",
    "prefectureCode": "28",
    "prefectureNumber": 28,
    "prefecture": "兵庫県",
    "city": "姫路市",
    "town": "広畑区西夢前台"
  },
  "6711104": {
    "zipcode": "6711104",
    "prefectureCode": "28",
    "prefectureNumber": 28,
    "prefecture": "兵庫県",
    "city": "姫路市",
    "town": "広畑区才"
  },
  "6711105": {
    "zipcode": "6711105",
    "prefectureCode": "28",
    "prefectureNumber": 28,
    "prefecture": "兵庫県",
    "city": "姫路市",
    "town": "広畑区則直"
  },
  "6711106": {
    "zipcode": "6711106",
    "prefectureCode": "28",
    "prefectureNumber": 28,
    "prefecture": "兵庫県",
    "city": "姫路市",
    "town": "広畑区京見町"
  },
  "6711107": {
    "zipcode": "6711107",
    "prefectureCode": "28",
    "prefectureNumber": 28,
    "prefecture": "兵庫県",
    "city": "姫路市",
    "town": "広畑区西蒲田"
  },
  "6711108": {
    "zipcode": "6711108",
    "prefectureCode": "28",
    "prefectureNumber": 28,
    "prefecture": "兵庫県",
    "city": "姫路市",
    "town": "広畑区城山町"
  },
  "6711111": {
    "zipcode": "6711111",
    "prefectureCode": "28",
    "prefectureNumber": 28,
    "prefecture": "兵庫県",
    "city": "姫路市",
    "town": "広畑区北河原町"
  },
  "6711112": {
    "zipcode": "6711112",
    "prefectureCode": "28",
    "prefectureNumber": 28,
    "prefecture": "兵庫県",
    "city": "姫路市",
    "town": "広畑区北野町"
  },
  "6711113": {
    "zipcode": "6711113",
    "prefectureCode": "28",
    "prefectureNumber": 28,
    "prefecture": "兵庫県",
    "city": "姫路市",
    "town": "広畑区清水町"
  },
  "6711114": {
    "zipcode": "6711114",
    "prefectureCode": "28",
    "prefectureNumber": 28,
    "prefecture": "兵庫県",
    "city": "姫路市",
    "town": "広畑区本町"
  },
  "6711115": {
    "zipcode": "6711115",
    "prefectureCode": "28",
    "prefectureNumber": 28,
    "prefecture": "兵庫県",
    "city": "姫路市",
    "town": "広畑区末広町"
  },
  "6711116": {
    "zipcode": "6711116",
    "prefectureCode": "28",
    "prefectureNumber": 28,
    "prefecture": "兵庫県",
    "city": "姫路市",
    "town": "広畑区正門通"
  },
  "6711121": {
    "zipcode": "6711121",
    "prefectureCode": "28",
    "prefectureNumber": 28,
    "prefecture": "兵庫県",
    "city": "姫路市",
    "town": "広畑区東新町"
  },
  "6711122": {
    "zipcode": "6711122",
    "prefectureCode": "28",
    "prefectureNumber": 28,
    "prefecture": "兵庫県",
    "city": "姫路市",
    "town": "広畑区夢前町"
  },
  "6711123": {
    "zipcode": "6711123",
    "prefectureCode": "28",
    "prefectureNumber": 28,
    "prefecture": "兵庫県",
    "city": "姫路市",
    "town": "広畑区富士町"
  },
  "6711124": {
    "zipcode": "6711124",
    "prefectureCode": "28",
    "prefectureNumber": 28,
    "prefecture": "兵庫県",
    "city": "姫路市",
    "town": "広畑区鶴町"
  },
  "6711125": {
    "zipcode": "6711125",
    "prefectureCode": "28",
    "prefectureNumber": 28,
    "prefecture": "兵庫県",
    "city": "姫路市",
    "town": "広畑区長町"
  },
  "6711131": {
    "zipcode": "6711131",
    "prefectureCode": "28",
    "prefectureNumber": 28,
    "prefecture": "兵庫県",
    "city": "姫路市",
    "town": "大津区天神町"
  },
  "6711132": {
    "zipcode": "6711132",
    "prefectureCode": "28",
    "prefectureNumber": 28,
    "prefecture": "兵庫県",
    "city": "姫路市",
    "town": "大津区勘兵衛町"
  },
  "6711133": {
    "zipcode": "6711133",
    "prefectureCode": "28",
    "prefectureNumber": 28,
    "prefecture": "兵庫県",
    "city": "姫路市",
    "town": "大津区吉美"
  },
  "6711134": {
    "zipcode": "6711134",
    "prefectureCode": "28",
    "prefectureNumber": 28,
    "prefecture": "兵庫県",
    "city": "姫路市",
    "town": "大津区真砂町"
  },
  "6711135": {
    "zipcode": "6711135",
    "prefectureCode": "28",
    "prefectureNumber": 28,
    "prefecture": "兵庫県",
    "city": "姫路市",
    "town": "大津区新町"
  },
  "6711136": {
    "zipcode": "6711136",
    "prefectureCode": "28",
    "prefectureNumber": 28,
    "prefecture": "兵庫県",
    "city": "姫路市",
    "town": "大津区恵美酒町"
  },
  "6711141": {
    "zipcode": "6711141",
    "prefectureCode": "28",
    "prefectureNumber": 28,
    "prefecture": "兵庫県",
    "city": "姫路市",
    "town": "大津区西土井"
  },
  "6711142": {
    "zipcode": "6711142",
    "prefectureCode": "28",
    "prefectureNumber": 28,
    "prefecture": "兵庫県",
    "city": "姫路市",
    "town": "大津区北天満町"
  },
  "6711143": {
    "zipcode": "6711143",
    "prefectureCode": "28",
    "prefectureNumber": 28,
    "prefecture": "兵庫県",
    "city": "姫路市",
    "town": "大津区天満"
  },
  "6711144": {
    "zipcode": "6711144",
    "prefectureCode": "28",
    "prefectureNumber": 28,
    "prefecture": "兵庫県",
    "city": "姫路市",
    "town": "大津区長松"
  },
  "6711145": {
    "zipcode": "6711145",
    "prefectureCode": "28",
    "prefectureNumber": 28,
    "prefecture": "兵庫県",
    "city": "姫路市",
    "town": "大津区平松"
  },
  "6711146": {
    "zipcode": "6711146",
    "prefectureCode": "28",
    "prefectureNumber": 28,
    "prefecture": "兵庫県",
    "city": "姫路市",
    "town": "大津区大津町"
  },
  "6711151": {
    "zipcode": "6711151",
    "prefectureCode": "28",
    "prefectureNumber": 28,
    "prefecture": "兵庫県",
    "city": "姫路市",
    "town": "広畑区早瀬町"
  },
  "6711152": {
    "zipcode": "6711152",
    "prefectureCode": "28",
    "prefectureNumber": 28,
    "prefecture": "兵庫県",
    "city": "姫路市",
    "town": "広畑区小松町"
  },
  "6711153": {
    "zipcode": "6711153",
    "prefectureCode": "28",
    "prefectureNumber": 28,
    "prefecture": "兵庫県",
    "city": "姫路市",
    "town": "広畑区高浜町"
  },
  "6711154": {
    "zipcode": "6711154",
    "prefectureCode": "28",
    "prefectureNumber": 28,
    "prefecture": "兵庫県",
    "city": "姫路市",
    "town": "広畑区吾妻町"
  },
  "6711155": {
    "zipcode": "6711155",
    "prefectureCode": "28",
    "prefectureNumber": 28,
    "prefecture": "兵庫県",
    "city": "姫路市",
    "town": "広畑区大町"
  },
  "6711156": {
    "zipcode": "6711156",
    "prefectureCode": "28",
    "prefectureNumber": 28,
    "prefecture": "兵庫県",
    "city": "姫路市",
    "town": "広畑区小坂"
  },
  "6711201": {
    "zipcode": "6711201",
    "prefectureCode": "28",
    "prefectureNumber": 28,
    "prefecture": "兵庫県",
    "city": "姫路市",
    "town": "勝原区下太田"
  },
  "6711202": {
    "zipcode": "6711202",
    "prefectureCode": "28",
    "prefectureNumber": 28,
    "prefecture": "兵庫県",
    "city": "姫路市",
    "town": "勝原区勝山町"
  },
  "6711203": {
    "zipcode": "6711203",
    "prefectureCode": "28",
    "prefectureNumber": 28,
    "prefecture": "兵庫県",
    "city": "姫路市",
    "town": "勝原区丁"
  },
  "6711204": {
    "zipcode": "6711204",
    "prefectureCode": "28",
    "prefectureNumber": 28,
    "prefecture": "兵庫県",
    "city": "姫路市",
    "town": "勝原区朝日谷"
  },
  "6711205": {
    "zipcode": "6711205",
    "prefectureCode": "28",
    "prefectureNumber": 28,
    "prefecture": "兵庫県",
    "city": "姫路市",
    "town": "勝原区大谷"
  },
  "6711211": {
    "zipcode": "6711211",
    "prefectureCode": "28",
    "prefectureNumber": 28,
    "prefecture": "兵庫県",
    "city": "姫路市",
    "town": "勝原区熊見"
  },
  "6711212": {
    "zipcode": "6711212",
    "prefectureCode": "28",
    "prefectureNumber": 28,
    "prefecture": "兵庫県",
    "city": "姫路市",
    "town": "勝原区勝原町"
  },
  "6711213": {
    "zipcode": "6711213",
    "prefectureCode": "28",
    "prefectureNumber": 28,
    "prefecture": "兵庫県",
    "city": "姫路市",
    "town": "勝原区宮田"
  },
  "6711214": {
    "zipcode": "6711214",
    "prefectureCode": "28",
    "prefectureNumber": 28,
    "prefecture": "兵庫県",
    "city": "姫路市",
    "town": "勝原区山戸"
  },
  "6711221": {
    "zipcode": "6711221",
    "prefectureCode": "28",
    "prefectureNumber": 28,
    "prefecture": "兵庫県",
    "city": "姫路市",
    "town": "網干区田井"
  },
  "6711222": {
    "zipcode": "6711222",
    "prefectureCode": "28",
    "prefectureNumber": 28,
    "prefecture": "兵庫県",
    "city": "姫路市",
    "town": "網干区宮内"
  },
  "6711223": {
    "zipcode": "6711223",
    "prefectureCode": "28",
    "prefectureNumber": 28,
    "prefecture": "兵庫県",
    "city": "姫路市",
    "town": "網干区坂上"
  },
  "6711224": {
    "zipcode": "6711224",
    "prefectureCode": "28",
    "prefectureNumber": 28,
    "prefecture": "兵庫県",
    "city": "姫路市",
    "town": "網干区津市場"
  },
  "6711225": {
    "zipcode": "6711225",
    "prefectureCode": "28",
    "prefectureNumber": 28,
    "prefecture": "兵庫県",
    "city": "姫路市",
    "town": "網干区福井"
  },
  "6711226": {
    "zipcode": "6711226",
    "prefectureCode": "28",
    "prefectureNumber": 28,
    "prefecture": "兵庫県",
    "city": "姫路市",
    "town": "網干区高田"
  },
  "6711227": {
    "zipcode": "6711227",
    "prefectureCode": "28",
    "prefectureNumber": 28,
    "prefecture": "兵庫県",
    "city": "姫路市",
    "town": "網干区和久"
  },
  "6711228": {
    "zipcode": "6711228",
    "prefectureCode": "28",
    "prefectureNumber": 28,
    "prefecture": "兵庫県",
    "city": "姫路市",
    "town": "網干区坂出"
  },
  "6711231": {
    "zipcode": "6711231",
    "prefectureCode": "28",
    "prefectureNumber": 28,
    "prefecture": "兵庫県",
    "city": "姫路市",
    "town": "網干区大江島"
  },
  "6711232": {
    "zipcode": "6711232",
    "prefectureCode": "28",
    "prefectureNumber": 28,
    "prefecture": "兵庫県",
    "city": "姫路市",
    "town": "網干区大江島寺前町"
  },
  "6711233": {
    "zipcode": "6711233",
    "prefectureCode": "28",
    "prefectureNumber": 28,
    "prefecture": "兵庫県",
    "city": "姫路市",
    "town": "網干区大江島古川町"
  },
  "6711234": {
    "zipcode": "6711234",
    "prefectureCode": "28",
    "prefectureNumber": 28,
    "prefecture": "兵庫県",
    "city": "姫路市",
    "town": "網干区新在家"
  },
  "6711235": {
    "zipcode": "6711235",
    "prefectureCode": "28",
    "prefectureNumber": 28,
    "prefecture": "兵庫県",
    "city": "姫路市",
    "town": "網干区北新在家"
  },
  "6711236": {
    "zipcode": "6711236",
    "prefectureCode": "28",
    "prefectureNumber": 28,
    "prefecture": "兵庫県",
    "city": "姫路市",
    "town": "網干区網干浜"
  },
  "6711241": {
    "zipcode": "6711241",
    "prefectureCode": "28",
    "prefectureNumber": 28,
    "prefecture": "兵庫県",
    "city": "姫路市",
    "town": "網干区興浜"
  },
  "6711242": {
    "zipcode": "6711242",
    "prefectureCode": "28",
    "prefectureNumber": 28,
    "prefecture": "兵庫県",
    "city": "姫路市",
    "town": "網干区浜田"
  },
  "6711251": {
    "zipcode": "6711251",
    "prefectureCode": "28",
    "prefectureNumber": 28,
    "prefecture": "兵庫県",
    "city": "姫路市",
    "town": "網干区垣内北町"
  },
  "6711252": {
    "zipcode": "6711252",
    "prefectureCode": "28",
    "prefectureNumber": 28,
    "prefecture": "兵庫県",
    "city": "姫路市",
    "town": "網干区垣内東町"
  },
  "6711253": {
    "zipcode": "6711253",
    "prefectureCode": "28",
    "prefectureNumber": 28,
    "prefecture": "兵庫県",
    "city": "姫路市",
    "town": "網干区垣内中町"
  },
  "6711254": {
    "zipcode": "6711254",
    "prefectureCode": "28",
    "prefectureNumber": 28,
    "prefecture": "兵庫県",
    "city": "姫路市",
    "town": "網干区余子浜"
  },
  "6711255": {
    "zipcode": "6711255",
    "prefectureCode": "28",
    "prefectureNumber": 28,
    "prefecture": "兵庫県",
    "city": "姫路市",
    "town": "網干区垣内南町"
  },
  "6711256": {
    "zipcode": "6711256",
    "prefectureCode": "28",
    "prefectureNumber": 28,
    "prefecture": "兵庫県",
    "city": "姫路市",
    "town": "網干区垣内西町"
  },
  "6711257": {
    "zipcode": "6711257",
    "prefectureCode": "28",
    "prefectureNumber": 28,
    "prefecture": "兵庫県",
    "city": "姫路市",
    "town": "網干区垣内本町"
  },
  "6711261": {
    "zipcode": "6711261",
    "prefectureCode": "28",
    "prefectureNumber": 28,
    "prefecture": "兵庫県",
    "city": "姫路市",
    "town": "余部区下余部"
  },
  "6711262": {
    "zipcode": "6711262",
    "prefectureCode": "28",
    "prefectureNumber": 28,
    "prefecture": "兵庫県",
    "city": "姫路市",
    "town": "余部区上余部"
  },
  "6711263": {
    "zipcode": "6711263",
    "prefectureCode": "28",
    "prefectureNumber": 28,
    "prefecture": "兵庫県",
    "city": "姫路市",
    "town": "余部区上川原"
  },
  "6711301": {
    "zipcode": "6711301",
    "prefectureCode": "28",
    "prefectureNumber": 28,
    "prefecture": "兵庫県",
    "city": "たつの市",
    "town": "御津町黒崎"
  },
  "6711311": {
    "zipcode": "6711311",
    "prefectureCode": "28",
    "prefectureNumber": 28,
    "prefecture": "兵庫県",
    "city": "たつの市",
    "town": "御津町中島"
  },
  "6711312": {
    "zipcode": "6711312",
    "prefectureCode": "28",
    "prefectureNumber": 28,
    "prefecture": "兵庫県",
    "city": "たつの市",
    "town": "御津町碇岩"
  },
  "6711321": {
    "zipcode": "6711321",
    "prefectureCode": "28",
    "prefectureNumber": 28,
    "prefecture": "兵庫県",
    "city": "たつの市",
    "town": "御津町苅屋"
  },
  "6711331": {
    "zipcode": "6711331",
    "prefectureCode": "28",
    "prefectureNumber": 28,
    "prefecture": "兵庫県",
    "city": "たつの市",
    "town": "御津町岩見"
  },
  "6711332": {
    "zipcode": "6711332",
    "prefectureCode": "28",
    "prefectureNumber": 28,
    "prefecture": "兵庫県",
    "city": "たつの市",
    "town": "御津町室津"
  },
  "6711341": {
    "zipcode": "6711341",
    "prefectureCode": "28",
    "prefectureNumber": 28,
    "prefecture": "兵庫県",
    "city": "たつの市",
    "town": "御津町釜屋"
  },
  "6711342": {
    "zipcode": "6711342",
    "prefectureCode": "28",
    "prefectureNumber": 28,
    "prefecture": "兵庫県",
    "city": "たつの市",
    "town": "御津町朝臣"
  },
  "6711500": {
    "zipcode": "6711500",
    "prefectureCode": "28",
    "prefectureNumber": 28,
    "prefecture": "兵庫県",
    "city": "揖保郡太子町",
    "town": "以下に掲載がない場合"
  },
  "6711501": {
    "zipcode": "6711501",
    "prefectureCode": "28",
    "prefectureNumber": 28,
    "prefecture": "兵庫県",
    "city": "揖保郡太子町",
    "town": "山田"
  },
  "6711502": {
    "zipcode": "6711502",
    "prefectureCode": "28",
    "prefectureNumber": 28,
    "prefecture": "兵庫県",
    "city": "揖保郡太子町",
    "town": "原"
  },
  "6711503": {
    "zipcode": "6711503",
    "prefectureCode": "28",
    "prefectureNumber": 28,
    "prefecture": "兵庫県",
    "city": "揖保郡太子町",
    "town": "天満山"
  },
  "6711504": {
    "zipcode": "6711504",
    "prefectureCode": "28",
    "prefectureNumber": 28,
    "prefecture": "兵庫県",
    "city": "揖保郡太子町",
    "town": "黒岡"
  },
  "6711511": {
    "zipcode": "6711511",
    "prefectureCode": "28",
    "prefectureNumber": 28,
    "prefecture": "兵庫県",
    "city": "揖保郡太子町",
    "town": "太田"
  },
  "6711521": {
    "zipcode": "6711521",
    "prefectureCode": "28",
    "prefectureNumber": 28,
    "prefecture": "兵庫県",
    "city": "揖保郡太子町",
    "town": "東出"
  },
  "6711522": {
    "zipcode": "6711522",
    "prefectureCode": "28",
    "prefectureNumber": 28,
    "prefecture": "兵庫県",
    "city": "揖保郡太子町",
    "town": "矢田部"
  },
  "6711523": {
    "zipcode": "6711523",
    "prefectureCode": "28",
    "prefectureNumber": 28,
    "prefecture": "兵庫県",
    "city": "揖保郡太子町",
    "town": "東南"
  },
  "6711524": {
    "zipcode": "6711524",
    "prefectureCode": "28",
    "prefectureNumber": 28,
    "prefecture": "兵庫県",
    "city": "揖保郡太子町",
    "town": "東保"
  },
  "6711531": {
    "zipcode": "6711531",
    "prefectureCode": "28",
    "prefectureNumber": 28,
    "prefecture": "兵庫県",
    "city": "揖保郡太子町",
    "town": "立岡"
  },
  "6711532": {
    "zipcode": "6711532",
    "prefectureCode": "28",
    "prefectureNumber": 28,
    "prefecture": "兵庫県",
    "city": "揖保郡太子町",
    "town": "糸井"
  },
  "6711533": {
    "zipcode": "6711533",
    "prefectureCode": "28",
    "prefectureNumber": 28,
    "prefecture": "兵庫県",
    "city": "揖保郡太子町",
    "town": "竹広"
  },
  "6711534": {
    "zipcode": "6711534",
    "prefectureCode": "28",
    "prefectureNumber": 28,
    "prefecture": "兵庫県",
    "city": "揖保郡太子町",
    "town": "福地"
  },
  "6711535": {
    "zipcode": "6711535",
    "prefectureCode": "28",
    "prefectureNumber": 28,
    "prefecture": "兵庫県",
    "city": "揖保郡太子町",
    "town": "蓮常寺"
  },
  "6711541": {
    "zipcode": "6711541",
    "prefectureCode": "28",
    "prefectureNumber": 28,
    "prefecture": "兵庫県",
    "city": "揖保郡太子町",
    "town": "塚森"
  },
  "6711542": {
    "zipcode": "6711542",
    "prefectureCode": "28",
    "prefectureNumber": 28,
    "prefecture": "兵庫県",
    "city": "揖保郡太子町",
    "town": "米田"
  },
  "6711543": {
    "zipcode": "6711543",
    "prefectureCode": "28",
    "prefectureNumber": 28,
    "prefecture": "兵庫県",
    "city": "揖保郡太子町",
    "town": "沖代"
  },
  "6711544": {
    "zipcode": "6711544",
    "prefectureCode": "28",
    "prefectureNumber": 28,
    "prefecture": "兵庫県",
    "city": "揖保郡太子町",
    "town": "吉福"
  },
  "6711545": {
    "zipcode": "6711545",
    "prefectureCode": "28",
    "prefectureNumber": 28,
    "prefecture": "兵庫県",
    "city": "揖保郡太子町",
    "town": "岩見構"
  },
  "6711551": {
    "zipcode": "6711551",
    "prefectureCode": "28",
    "prefectureNumber": 28,
    "prefecture": "兵庫県",
    "city": "揖保郡太子町",
    "town": "馬場"
  },
  "6711552": {
    "zipcode": "6711552",
    "prefectureCode": "28",
    "prefectureNumber": 28,
    "prefecture": "兵庫県",
    "city": "揖保郡太子町",
    "town": "下阿曽"
  },
  "6711553": {
    "zipcode": "6711553",
    "prefectureCode": "28",
    "prefectureNumber": 28,
    "prefecture": "兵庫県",
    "city": "揖保郡太子町",
    "town": "老原"
  },
  "6711554": {
    "zipcode": "6711554",
    "prefectureCode": "28",
    "prefectureNumber": 28,
    "prefecture": "兵庫県",
    "city": "揖保郡太子町",
    "town": "船代"
  },
  "6711555": {
    "zipcode": "6711555",
    "prefectureCode": "28",
    "prefectureNumber": 28,
    "prefecture": "兵庫県",
    "city": "揖保郡太子町",
    "town": "宮本"
  },
  "6711556": {
    "zipcode": "6711556",
    "prefectureCode": "28",
    "prefectureNumber": 28,
    "prefecture": "兵庫県",
    "city": "揖保郡太子町",
    "town": "常全"
  },
  "6711557": {
    "zipcode": "6711557",
    "prefectureCode": "28",
    "prefectureNumber": 28,
    "prefecture": "兵庫県",
    "city": "揖保郡太子町",
    "town": "阿曽"
  },
  "6711561": {
    "zipcode": "6711561",
    "prefectureCode": "28",
    "prefectureNumber": 28,
    "prefecture": "兵庫県",
    "city": "揖保郡太子町",
    "town": "鵤"
  },
  "6711571": {
    "zipcode": "6711571",
    "prefectureCode": "28",
    "prefectureNumber": 28,
    "prefecture": "兵庫県",
    "city": "揖保郡太子町",
    "town": "広坂"
  },
  "6711572": {
    "zipcode": "6711572",
    "prefectureCode": "28",
    "prefectureNumber": 28,
    "prefecture": "兵庫県",
    "city": "揖保郡太子町",
    "town": "王子"
  },
  "6711573": {
    "zipcode": "6711573",
    "prefectureCode": "28",
    "prefectureNumber": 28,
    "prefecture": "兵庫県",
    "city": "揖保郡太子町",
    "town": "上太田"
  },
  "6711574": {
    "zipcode": "6711574",
    "prefectureCode": "28",
    "prefectureNumber": 28,
    "prefecture": "兵庫県",
    "city": "揖保郡太子町",
    "town": "松ケ下"
  },
  "6711575": {
    "zipcode": "6711575",
    "prefectureCode": "28",
    "prefectureNumber": 28,
    "prefecture": "兵庫県",
    "city": "揖保郡太子町",
    "town": "佐用岡"
  },
  "6711576": {
    "zipcode": "6711576",
    "prefectureCode": "28",
    "prefectureNumber": 28,
    "prefecture": "兵庫県",
    "city": "揖保郡太子町",
    "town": "松尾"
  },
  "6711601": {
    "zipcode": "6711601",
    "prefectureCode": "28",
    "prefectureNumber": 28,
    "prefecture": "兵庫県",
    "city": "たつの市",
    "town": "揖保川町半田"
  },
  "6711602": {
    "zipcode": "6711602",
    "prefectureCode": "28",
    "prefectureNumber": 28,
    "prefecture": "兵庫県",
    "city": "たつの市",
    "town": "揖保川町野田"
  },
  "6711603": {
    "zipcode": "6711603",
    "prefectureCode": "28",
    "prefectureNumber": 28,
    "prefecture": "兵庫県",
    "city": "たつの市",
    "town": "揖保川町養久"
  },
  "6711611": {
    "zipcode": "6711611",
    "prefectureCode": "28",
    "prefectureNumber": 28,
    "prefecture": "兵庫県",
    "city": "たつの市",
    "town": "揖保川町新在家"
  },
  "6711612": {
    "zipcode": "6711612",
    "prefectureCode": "28",
    "prefectureNumber": 28,
    "prefecture": "兵庫県",
    "city": "たつの市",
    "town": "揖保川町本條"
  },
  "6711613": {
    "zipcode": "6711613",
    "prefectureCode": "28",
    "prefectureNumber": 28,
    "prefecture": "兵庫県",
    "city": "たつの市",
    "town": "揖保川町二塚"
  },
  "6711621": {
    "zipcode": "6711621",
    "prefectureCode": "28",
    "prefectureNumber": 28,
    "prefecture": "兵庫県",
    "city": "たつの市",
    "town": "揖保川町正條"
  },
  "6711631": {
    "zipcode": "6711631",
    "prefectureCode": "28",
    "prefectureNumber": 28,
    "prefecture": "兵庫県",
    "city": "たつの市",
    "town": "揖保川町山津屋"
  },
  "6711632": {
    "zipcode": "6711632",
    "prefectureCode": "28",
    "prefectureNumber": 28,
    "prefecture": "兵庫県",
    "city": "たつの市",
    "town": "揖保川町黍田"
  },
  "6711641": {
    "zipcode": "6711641",
    "prefectureCode": "28",
    "prefectureNumber": 28,
    "prefecture": "兵庫県",
    "city": "たつの市",
    "town": "揖保川町原"
  },
  "6711642": {
    "zipcode": "6711642",
    "prefectureCode": "28",
    "prefectureNumber": 28,
    "prefecture": "兵庫県",
    "city": "たつの市",
    "town": "揖保川町大門"
  },
  "6711643": {
    "zipcode": "6711643",
    "prefectureCode": "28",
    "prefectureNumber": 28,
    "prefecture": "兵庫県",
    "city": "たつの市",
    "town": "揖保川町神戸北山"
  },
  "6711651": {
    "zipcode": "6711651",
    "prefectureCode": "28",
    "prefectureNumber": 28,
    "prefecture": "兵庫県",
    "city": "たつの市",
    "town": "揖保川町片島"
  },
  "6711661": {
    "zipcode": "6711661",
    "prefectureCode": "28",
    "prefectureNumber": 28,
    "prefecture": "兵庫県",
    "city": "たつの市",
    "town": "揖保川町袋尻"
  },
  "6711662": {
    "zipcode": "6711662",
    "prefectureCode": "28",
    "prefectureNumber": 28,
    "prefecture": "兵庫県",
    "city": "たつの市",
    "town": "揖保川町市場"
  },
  "6711663": {
    "zipcode": "6711663",
    "prefectureCode": "28",
    "prefectureNumber": 28,
    "prefecture": "兵庫県",
    "city": "たつの市",
    "town": "揖保川町浦部"
  },
  "6711664": {
    "zipcode": "6711664",
    "prefectureCode": "28",
    "prefectureNumber": 28,
    "prefecture": "兵庫県",
    "city": "たつの市",
    "town": "揖保川町金剛山"
  },
  "6711665": {
    "zipcode": "6711665",
    "prefectureCode": "28",
    "prefectureNumber": 28,
    "prefecture": "兵庫県",
    "city": "たつの市",
    "town": "揖保川町馬場"
  },
  "6712101": {
    "zipcode": "6712101",
    "prefectureCode": "28",
    "prefectureNumber": 28,
    "prefecture": "兵庫県",
    "city": "姫路市",
    "town": "夢前町山之内"
  },
  "6712102": {
    "zipcode": "6712102",
    "prefectureCode": "28",
    "prefectureNumber": 28,
    "prefecture": "兵庫県",
    "city": "姫路市",
    "town": "夢前町新庄"
  },
  "6712103": {
    "zipcode": "6712103",
    "prefectureCode": "28",
    "prefectureNumber": 28,
    "prefecture": "兵庫県",
    "city": "姫路市",
    "town": "夢前町前之庄"
  },
  "6712105": {
    "zipcode": "6712105",
    "prefectureCode": "28",
    "prefectureNumber": 28,
    "prefecture": "兵庫県",
    "city": "姫路市",
    "town": "夢前町神種"
  },
  "6712106": {
    "zipcode": "6712106",
    "prefectureCode": "28",
    "prefectureNumber": 28,
    "prefecture": "兵庫県",
    "city": "姫路市",
    "town": "夢前町莇野"
  },
  "6712111": {
    "zipcode": "6712111",
    "prefectureCode": "28",
    "prefectureNumber": 28,
    "prefecture": "兵庫県",
    "city": "姫路市",
    "town": "夢前町杉之内"
  },
  "6712112": {
    "zipcode": "6712112",
    "prefectureCode": "28",
    "prefectureNumber": 28,
    "prefecture": "兵庫県",
    "city": "姫路市",
    "town": "夢前町塩田"
  },
  "6712113": {
    "zipcode": "6712113",
    "prefectureCode": "28",
    "prefectureNumber": 28,
    "prefecture": "兵庫県",
    "city": "姫路市",
    "town": "夢前町古知之庄"
  },
  "6712114": {
    "zipcode": "6712114",
    "prefectureCode": "28",
    "prefectureNumber": 28,
    "prefecture": "兵庫県",
    "city": "姫路市",
    "town": "夢前町糸田"
  },
  "6712115": {
    "zipcode": "6712115",
    "prefectureCode": "28",
    "prefectureNumber": 28,
    "prefecture": "兵庫県",
    "city": "姫路市",
    "town": "夢前町又坂"
  },
  "6712116": {
    "zipcode": "6712116",
    "prefectureCode": "28",
    "prefectureNumber": 28,
    "prefecture": "兵庫県",
    "city": "姫路市",
    "town": "夢前町寺"
  },
  "6712117": {
    "zipcode": "6712117",
    "prefectureCode": "28",
    "prefectureNumber": 28,
    "prefecture": "兵庫県",
    "city": "姫路市",
    "town": "夢前町高長"
  },
  "6712121": {
    "zipcode": "6712121",
    "prefectureCode": "28",
    "prefectureNumber": 28,
    "prefecture": "兵庫県",
    "city": "姫路市",
    "town": "夢前町宮置"
  },
  "6712122": {
    "zipcode": "6712122",
    "prefectureCode": "28",
    "prefectureNumber": 28,
    "prefecture": "兵庫県",
    "city": "姫路市",
    "town": "夢前町置本"
  },
  "6712123": {
    "zipcode": "6712123",
    "prefectureCode": "28",
    "prefectureNumber": 28,
    "prefecture": "兵庫県",
    "city": "姫路市",
    "town": "夢前町山冨"
  },
  "6712124": {
    "zipcode": "6712124",
    "prefectureCode": "28",
    "prefectureNumber": 28,
    "prefecture": "兵庫県",
    "city": "姫路市",
    "town": "夢前町玉田"
  },
  "6712131": {
    "zipcode": "6712131",
    "prefectureCode": "28",
    "prefectureNumber": 28,
    "prefecture": "兵庫県",
    "city": "姫路市",
    "town": "夢前町戸倉"
  },
  "6712132": {
    "zipcode": "6712132",
    "prefectureCode": "28",
    "prefectureNumber": 28,
    "prefecture": "兵庫県",
    "city": "姫路市",
    "town": "夢前町古瀬畑"
  },
  "6712133": {
    "zipcode": "6712133",
    "prefectureCode": "28",
    "prefectureNumber": 28,
    "prefecture": "兵庫県",
    "city": "姫路市",
    "town": "夢前町芦田"
  },
  "6712134": {
    "zipcode": "6712134",
    "prefectureCode": "28",
    "prefectureNumber": 28,
    "prefecture": "兵庫県",
    "city": "姫路市",
    "town": "夢前町菅生澗"
  },
  "6712135": {
    "zipcode": "6712135",
    "prefectureCode": "28",
    "prefectureNumber": 28,
    "prefecture": "兵庫県",
    "city": "姫路市",
    "town": "夢前町塚本"
  },
  "6712136": {
    "zipcode": "6712136",
    "prefectureCode": "28",
    "prefectureNumber": 28,
    "prefecture": "兵庫県",
    "city": "姫路市",
    "town": "夢前町護持"
  },
  "6712137": {
    "zipcode": "6712137",
    "prefectureCode": "28",
    "prefectureNumber": 28,
    "prefecture": "兵庫県",
    "city": "姫路市",
    "town": "夢前町野畑"
  },
  "6712201": {
    "zipcode": "6712201",
    "prefectureCode": "28",
    "prefectureNumber": 28,
    "prefecture": "兵庫県",
    "city": "姫路市",
    "town": "書写"
  },
  "6712202": {
    "zipcode": "6712202",
    "prefectureCode": "28",
    "prefectureNumber": 28,
    "prefecture": "兵庫県",
    "city": "姫路市",
    "town": "北夢前台（１丁目１〜７７番地）"
  },
  "6712203": {
    "zipcode": "6712203",
    "prefectureCode": "28",
    "prefectureNumber": 28,
    "prefecture": "兵庫県",
    "city": "姫路市",
    "town": "書写台"
  },
  "6712211": {
    "zipcode": "6712211",
    "prefectureCode": "28",
    "prefectureNumber": 28,
    "prefecture": "兵庫県",
    "city": "姫路市",
    "town": "田井台"
  },
  "6712212": {
    "zipcode": "6712212",
    "prefectureCode": "28",
    "prefectureNumber": 28,
    "prefecture": "兵庫県",
    "city": "姫路市",
    "town": "川西"
  },
  "6712213": {
    "zipcode": "6712213",
    "prefectureCode": "28",
    "prefectureNumber": 28,
    "prefecture": "兵庫県",
    "city": "姫路市",
    "town": "川西台"
  },
  "6712214": {
    "zipcode": "6712214",
    "prefectureCode": "28",
    "prefectureNumber": 28,
    "prefecture": "兵庫県",
    "city": "姫路市",
    "town": "西夢前台"
  },
  "6712215": {
    "zipcode": "6712215",
    "prefectureCode": "28",
    "prefectureNumber": 28,
    "prefecture": "兵庫県",
    "city": "姫路市",
    "town": "飾西台"
  },
  "6712216": {
    "zipcode": "6712216",
    "prefectureCode": "28",
    "prefectureNumber": 28,
    "prefecture": "兵庫県",
    "city": "姫路市",
    "town": "飾西"
  },
  "6712217": {
    "zipcode": "6712217",
    "prefectureCode": "28",
    "prefectureNumber": 28,
    "prefecture": "兵庫県",
    "city": "姫路市",
    "town": "町田"
  },
  "6712221": {
    "zipcode": "6712221",
    "prefectureCode": "28",
    "prefectureNumber": 28,
    "prefecture": "兵庫県",
    "city": "姫路市",
    "town": "青山北"
  },
  "6712222": {
    "zipcode": "6712222",
    "prefectureCode": "28",
    "prefectureNumber": 28,
    "prefecture": "兵庫県",
    "city": "姫路市",
    "town": "青山"
  },
  "6712223": {
    "zipcode": "6712223",
    "prefectureCode": "28",
    "prefectureNumber": 28,
    "prefecture": "兵庫県",
    "city": "姫路市",
    "town": "青山南"
  },
  "6712224": {
    "zipcode": "6712224",
    "prefectureCode": "28",
    "prefectureNumber": 28,
    "prefecture": "兵庫県",
    "city": "姫路市",
    "town": "青山西"
  },
  "6712231": {
    "zipcode": "6712231",
    "prefectureCode": "28",
    "prefectureNumber": 28,
    "prefecture": "兵庫県",
    "city": "姫路市",
    "town": "石倉"
  },
  "6712232": {
    "zipcode": "6712232",
    "prefectureCode": "28",
    "prefectureNumber": 28,
    "prefecture": "兵庫県",
    "city": "姫路市",
    "town": "相野"
  },
  "6712233": {
    "zipcode": "6712233",
    "prefectureCode": "28",
    "prefectureNumber": 28,
    "prefecture": "兵庫県",
    "city": "姫路市",
    "town": "太市中"
  },
  "6712234": {
    "zipcode": "6712234",
    "prefectureCode": "28",
    "prefectureNumber": 28,
    "prefecture": "兵庫県",
    "city": "姫路市",
    "town": "西脇"
  },
  "6712241": {
    "zipcode": "6712241",
    "prefectureCode": "28",
    "prefectureNumber": 28,
    "prefecture": "兵庫県",
    "city": "姫路市",
    "town": "刀出"
  },
  "6712242": {
    "zipcode": "6712242",
    "prefectureCode": "28",
    "prefectureNumber": 28,
    "prefecture": "兵庫県",
    "city": "姫路市",
    "town": "六角"
  },
  "6712243": {
    "zipcode": "6712243",
    "prefectureCode": "28",
    "prefectureNumber": 28,
    "prefecture": "兵庫県",
    "city": "姫路市",
    "town": "菅生台"
  },
  "6712244": {
    "zipcode": "6712244",
    "prefectureCode": "28",
    "prefectureNumber": 28,
    "prefecture": "兵庫県",
    "city": "姫路市",
    "town": "実法寺"
  },
  "6712245": {
    "zipcode": "6712245",
    "prefectureCode": "28",
    "prefectureNumber": 28,
    "prefecture": "兵庫県",
    "city": "姫路市",
    "town": "白鳥台"
  },
  "6712246": {
    "zipcode": "6712246",
    "prefectureCode": "28",
    "prefectureNumber": 28,
    "prefecture": "兵庫県",
    "city": "姫路市",
    "town": "打越"
  },
  "6712247": {
    "zipcode": "6712247",
    "prefectureCode": "28",
    "prefectureNumber": 28,
    "prefecture": "兵庫県",
    "city": "姫路市",
    "town": "緑台"
  },
  "6712401": {
    "zipcode": "6712401",
    "prefectureCode": "28",
    "prefectureNumber": 28,
    "prefecture": "兵庫県",
    "city": "姫路市",
    "town": "安富町安志"
  },
  "6712411": {
    "zipcode": "6712411",
    "prefectureCode": "28",
    "prefectureNumber": 28,
    "prefecture": "兵庫県",
    "city": "姫路市",
    "town": "安富町三森"
  },
  "6712412": {
    "zipcode": "6712412",
    "prefectureCode": "28",
    "prefectureNumber": 28,
    "prefecture": "兵庫県",
    "city": "姫路市",
    "town": "安富町名坂"
  },
  "6712413": {
    "zipcode": "6712413",
    "prefectureCode": "28",
    "prefectureNumber": 28,
    "prefecture": "兵庫県",
    "city": "姫路市",
    "town": "安富町末広"
  },
  "6712414": {
    "zipcode": "6712414",
    "prefectureCode": "28",
    "prefectureNumber": 28,
    "prefecture": "兵庫県",
    "city": "姫路市",
    "town": "安富町杤原"
  },
  "6712415": {
    "zipcode": "6712415",
    "prefectureCode": "28",
    "prefectureNumber": 28,
    "prefecture": "兵庫県",
    "city": "姫路市",
    "town": "安富町皆河"
  },
  "6712416": {
    "zipcode": "6712416",
    "prefectureCode": "28",
    "prefectureNumber": 28,
    "prefecture": "兵庫県",
    "city": "姫路市",
    "town": "安富町関"
  },
  "6712421": {
    "zipcode": "6712421",
    "prefectureCode": "28",
    "prefectureNumber": 28,
    "prefecture": "兵庫県",
    "city": "姫路市",
    "town": "安富町長野"
  },
  "6712422": {
    "zipcode": "6712422",
    "prefectureCode": "28",
    "prefectureNumber": 28,
    "prefecture": "兵庫県",
    "city": "姫路市",
    "town": "安富町塩野"
  },
  "6712423": {
    "zipcode": "6712423",
    "prefectureCode": "28",
    "prefectureNumber": 28,
    "prefecture": "兵庫県",
    "city": "姫路市",
    "town": "安富町狭戸"
  },
  "6712424": {
    "zipcode": "6712424",
    "prefectureCode": "28",
    "prefectureNumber": 28,
    "prefecture": "兵庫県",
    "city": "姫路市",
    "town": "安富町瀬川"
  },
  "6712425": {
    "zipcode": "6712425",
    "prefectureCode": "28",
    "prefectureNumber": 28,
    "prefecture": "兵庫県",
    "city": "姫路市",
    "town": "安富町三坂"
  },
  "6712426": {
    "zipcode": "6712426",
    "prefectureCode": "28",
    "prefectureNumber": 28,
    "prefecture": "兵庫県",
    "city": "姫路市",
    "town": "安富町植木野"
  },
  "6712500": {
    "zipcode": "6712500",
    "prefectureCode": "28",
    "prefectureNumber": 28,
    "prefecture": "兵庫県",
    "city": "宍粟市",
    "town": "以下に掲載がない場合"
  },
  "6712501": {
    "zipcode": "6712501",
    "prefectureCode": "28",
    "prefectureNumber": 28,
    "prefecture": "兵庫県",
    "city": "宍粟市",
    "town": "山崎町上ノ"
  },
  "6712502": {
    "zipcode": "6712502",
    "prefectureCode": "28",
    "prefectureNumber": 28,
    "prefecture": "兵庫県",
    "city": "宍粟市",
    "town": "山崎町中野"
  },
  "6712503": {
    "zipcode": "6712503",
    "prefectureCode": "28",
    "prefectureNumber": 28,
    "prefecture": "兵庫県",
    "city": "宍粟市",
    "town": "山崎町大谷"
  },
  "6712504": {
    "zipcode": "6712504",
    "prefectureCode": "28",
    "prefectureNumber": 28,
    "prefecture": "兵庫県",
    "city": "宍粟市",
    "town": "山崎町東下野"
  },
  "6712505": {
    "zipcode": "6712505",
    "prefectureCode": "28",
    "prefectureNumber": 28,
    "prefecture": "兵庫県",
    "city": "宍粟市",
    "town": "山崎町片山"
  },
  "6712506": {
    "zipcode": "6712506",
    "prefectureCode": "28",
    "prefectureNumber": 28,
    "prefecture": "兵庫県",
    "city": "宍粟市",
    "town": "山崎町宇野"
  },
  "6712507": {
    "zipcode": "6712507",
    "prefectureCode": "28",
    "prefectureNumber": 28,
    "prefecture": "兵庫県",
    "city": "宍粟市",
    "town": "山崎町下牧谷"
  },
  "6712508": {
    "zipcode": "6712508",
    "prefectureCode": "28",
    "prefectureNumber": 28,
    "prefecture": "兵庫県",
    "city": "宍粟市",
    "town": "山崎町上牧谷"
  },
  "6712511": {
    "zipcode": "6712511",
    "prefectureCode": "28",
    "prefectureNumber": 28,
    "prefecture": "兵庫県",
    "city": "宍粟市",
    "town": "山崎町清野"
  },
  "6712512": {
    "zipcode": "6712512",
    "prefectureCode": "28",
    "prefectureNumber": 28,
    "prefecture": "兵庫県",
    "city": "宍粟市",
    "town": "山崎町与位"
  },
  "6712513": {
    "zipcode": "6712513",
    "prefectureCode": "28",
    "prefectureNumber": 28,
    "prefecture": "兵庫県",
    "city": "宍粟市",
    "town": "山崎町梯"
  },
  "6712514": {
    "zipcode": "6712514",
    "prefectureCode": "28",
    "prefectureNumber": 28,
    "prefecture": "兵庫県",
    "city": "宍粟市",
    "town": "山崎町田井"
  },
  "6712515": {
    "zipcode": "6712515",
    "prefectureCode": "28",
    "prefectureNumber": 28,
    "prefecture": "兵庫県",
    "city": "宍粟市",
    "town": "山崎町五十波"
  },
  "6712516": {
    "zipcode": "6712516",
    "prefectureCode": "28",
    "prefectureNumber": 28,
    "prefecture": "兵庫県",
    "city": "宍粟市",
    "town": "山崎町三津"
  },
  "6712517": {
    "zipcode": "6712517",
    "prefectureCode": "28",
    "prefectureNumber": 28,
    "prefecture": "兵庫県",
    "city": "宍粟市",
    "town": "山崎町生谷"
  },
  "6712518": {
    "zipcode": "6712518",
    "prefectureCode": "28",
    "prefectureNumber": 28,
    "prefecture": "兵庫県",
    "city": "宍粟市",
    "town": "山崎町横須"
  },
  "6712519": {
    "zipcode": "6712519",
    "prefectureCode": "28",
    "prefectureNumber": 28,
    "prefecture": "兵庫県",
    "city": "宍粟市",
    "town": "山崎町下町"
  },
  "6712521": {
    "zipcode": "6712521",
    "prefectureCode": "28",
    "prefectureNumber": 28,
    "prefecture": "兵庫県",
    "city": "宍粟市",
    "town": "山崎町木ノ谷"
  },
  "6712522": {
    "zipcode": "6712522",
    "prefectureCode": "28",
    "prefectureNumber": 28,
    "prefecture": "兵庫県",
    "city": "宍粟市",
    "town": "山崎町杉ケ瀬"
  },
  "6712523": {
    "zipcode": "6712523",
    "prefectureCode": "28",
    "prefectureNumber": 28,
    "prefecture": "兵庫県",
    "city": "宍粟市",
    "town": "山崎町母栖"
  },
  "6712524": {
    "zipcode": "6712524",
    "prefectureCode": "28",
    "prefectureNumber": 28,
    "prefecture": "兵庫県",
    "city": "宍粟市",
    "town": "山崎町三谷"
  },
  "6712525": {
    "zipcode": "6712525",
    "prefectureCode": "28",
    "prefectureNumber": 28,
    "prefecture": "兵庫県",
    "city": "宍粟市",
    "town": "山崎町神谷"
  },
  "6712526": {
    "zipcode": "6712526",
    "prefectureCode": "28",
    "prefectureNumber": 28,
    "prefecture": "兵庫県",
    "city": "宍粟市",
    "town": "山崎町矢原"
  },
  "6712527": {
    "zipcode": "6712527",
    "prefectureCode": "28",
    "prefectureNumber": 28,
    "prefecture": "兵庫県",
    "city": "宍粟市",
    "town": "山崎町岸田"
  },
  "6712528": {
    "zipcode": "6712528",
    "prefectureCode": "28",
    "prefectureNumber": 28,
    "prefecture": "兵庫県",
    "city": "宍粟市",
    "town": "山崎町野々上"
  },
  "6712531": {
    "zipcode": "6712531",
    "prefectureCode": "28",
    "prefectureNumber": 28,
    "prefecture": "兵庫県",
    "city": "宍粟市",
    "town": "山崎町中"
  },
  "6712532": {
    "zipcode": "6712532",
    "prefectureCode": "28",
    "prefectureNumber": 28,
    "prefecture": "兵庫県",
    "city": "宍粟市",
    "town": "山崎町高所"
  },
  "6712533": {
    "zipcode": "6712533",
    "prefectureCode": "28",
    "prefectureNumber": 28,
    "prefecture": "兵庫県",
    "city": "宍粟市",
    "town": "山崎町須賀沢"
  },
  "6712534": {
    "zipcode": "6712534",
    "prefectureCode": "28",
    "prefectureNumber": 28,
    "prefecture": "兵庫県",
    "city": "宍粟市",
    "town": "山崎町川戸"
  },
  "6712535": {
    "zipcode": "6712535",
    "prefectureCode": "28",
    "prefectureNumber": 28,
    "prefecture": "兵庫県",
    "city": "宍粟市",
    "town": "山崎町宇原"
  },
  "6712536": {
    "zipcode": "6712536",
    "prefectureCode": "28",
    "prefectureNumber": 28,
    "prefecture": "兵庫県",
    "city": "宍粟市",
    "town": "山崎町下宇原"
  },
  "6712541": {
    "zipcode": "6712541",
    "prefectureCode": "28",
    "prefectureNumber": 28,
    "prefecture": "兵庫県",
    "city": "宍粟市",
    "town": "山崎町下広瀬"
  },
  "6712542": {
    "zipcode": "6712542",
    "prefectureCode": "28",
    "prefectureNumber": 28,
    "prefecture": "兵庫県",
    "city": "宍粟市",
    "town": "山崎町船元"
  },
  "6712543": {
    "zipcode": "6712543",
    "prefectureCode": "28",
    "prefectureNumber": 28,
    "prefecture": "兵庫県",
    "city": "宍粟市",
    "town": "山崎町野"
  },
  "6712544": {
    "zipcode": "6712544",
    "prefectureCode": "28",
    "prefectureNumber": 28,
    "prefecture": "兵庫県",
    "city": "宍粟市",
    "town": "山崎町千本屋"
  },
  "6712545": {
    "zipcode": "6712545",
    "prefectureCode": "28",
    "prefectureNumber": 28,
    "prefecture": "兵庫県",
    "city": "宍粟市",
    "town": "山崎町中井"
  },
  "6712551": {
    "zipcode": "6712551",
    "prefectureCode": "28",
    "prefectureNumber": 28,
    "prefecture": "兵庫県",
    "city": "宍粟市",
    "town": "山崎町春安"
  },
  "6712552": {
    "zipcode": "6712552",
    "prefectureCode": "28",
    "prefectureNumber": 28,
    "prefecture": "兵庫県",
    "city": "宍粟市",
    "town": "山崎町段"
  },
  "6712553": {
    "zipcode": "6712553",
    "prefectureCode": "28",
    "prefectureNumber": 28,
    "prefecture": "兵庫県",
    "city": "宍粟市",
    "town": "山崎町鶴木"
  },
  "6712554": {
    "zipcode": "6712554",
    "prefectureCode": "28",
    "prefectureNumber": 28,
    "prefecture": "兵庫県",
    "city": "宍粟市",
    "town": "山崎町御名"
  },
  "6712555": {
    "zipcode": "6712555",
    "prefectureCode": "28",
    "prefectureNumber": 28,
    "prefecture": "兵庫県",
    "city": "宍粟市",
    "town": "山崎町金谷"
  },
  "6712556": {
    "zipcode": "6712556",
    "prefectureCode": "28",
    "prefectureNumber": 28,
    "prefecture": "兵庫県",
    "city": "宍粟市",
    "town": "山崎町下比地"
  },
  "6712557": {
    "zipcode": "6712557",
    "prefectureCode": "28",
    "prefectureNumber": 28,
    "prefecture": "兵庫県",
    "city": "宍粟市",
    "town": "山崎町中比地"
  },
  "6712558": {
    "zipcode": "6712558",
    "prefectureCode": "28",
    "prefectureNumber": 28,
    "prefecture": "兵庫県",
    "city": "宍粟市",
    "town": "山崎町上比地"
  },
  "6712560": {
    "zipcode": "6712560",
    "prefectureCode": "28",
    "prefectureNumber": 28,
    "prefecture": "兵庫県",
    "city": "宍粟市",
    "town": "山崎町塩山"
  },
  "6712561": {
    "zipcode": "6712561",
    "prefectureCode": "28",
    "prefectureNumber": 28,
    "prefecture": "兵庫県",
    "city": "宍粟市",
    "town": "山崎町小茅野"
  },
  "6712562": {
    "zipcode": "6712562",
    "prefectureCode": "28",
    "prefectureNumber": 28,
    "prefecture": "兵庫県",
    "city": "宍粟市",
    "town": "山崎町大沢"
  },
  "6712563": {
    "zipcode": "6712563",
    "prefectureCode": "28",
    "prefectureNumber": 28,
    "prefecture": "兵庫県",
    "city": "宍粟市",
    "town": "山崎町塩田"
  },
  "6712564": {
    "zipcode": "6712564",
    "prefectureCode": "28",
    "prefectureNumber": 28,
    "prefecture": "兵庫県",
    "city": "宍粟市",
    "town": "山崎町青木"
  },
  "6712565": {
    "zipcode": "6712565",
    "prefectureCode": "28",
    "prefectureNumber": 28,
    "prefecture": "兵庫県",
    "city": "宍粟市",
    "town": "山崎町高下"
  },
  "6712566": {
    "zipcode": "6712566",
    "prefectureCode": "28",
    "prefectureNumber": 28,
    "prefecture": "兵庫県",
    "city": "宍粟市",
    "town": "山崎町市場"
  },
  "6712567": {
    "zipcode": "6712567",
    "prefectureCode": "28",
    "prefectureNumber": 28,
    "prefecture": "兵庫県",
    "city": "宍粟市",
    "town": "山崎町木谷"
  },
  "6712568": {
    "zipcode": "6712568",
    "prefectureCode": "28",
    "prefectureNumber": 28,
    "prefecture": "兵庫県",
    "city": "宍粟市",
    "town": "山崎町葛根"
  },
  "6712569": {
    "zipcode": "6712569",
    "prefectureCode": "28",
    "prefectureNumber": 28,
    "prefecture": "兵庫県",
    "city": "宍粟市",
    "town": "山崎町土万"
  },
  "6712570": {
    "zipcode": "6712570",
    "prefectureCode": "28",
    "prefectureNumber": 28,
    "prefecture": "兵庫県",
    "city": "宍粟市",
    "town": "山崎町加生"
  },
  "6712571": {
    "zipcode": "6712571",
    "prefectureCode": "28",
    "prefectureNumber": 28,
    "prefecture": "兵庫県",
    "city": "宍粟市",
    "town": "山崎町上寺"
  },
  "6712572": {
    "zipcode": "6712572",
    "prefectureCode": "28",
    "prefectureNumber": 28,
    "prefecture": "兵庫県",
    "city": "宍粟市",
    "town": "山崎町庄能"
  },
  "6712573": {
    "zipcode": "6712573",
    "prefectureCode": "28",
    "prefectureNumber": 28,
    "prefecture": "兵庫県",
    "city": "宍粟市",
    "town": "山崎町今宿"
  },
  "6712574": {
    "zipcode": "6712574",
    "prefectureCode": "28",
    "prefectureNumber": 28,
    "prefecture": "兵庫県",
    "city": "宍粟市",
    "town": "山崎町中広瀬"
  },
  "6712575": {
    "zipcode": "6712575",
    "prefectureCode": "28",
    "prefectureNumber": 28,
    "prefecture": "兵庫県",
    "city": "宍粟市",
    "town": "山崎町山田"
  },
  "6712576": {
    "zipcode": "6712576",
    "prefectureCode": "28",
    "prefectureNumber": 28,
    "prefecture": "兵庫県",
    "city": "宍粟市",
    "town": "山崎町鹿沢"
  },
  "6712577": {
    "zipcode": "6712577",
    "prefectureCode": "28",
    "prefectureNumber": 28,
    "prefecture": "兵庫県",
    "city": "宍粟市",
    "town": "山崎町山崎"
  },
  "6712578": {
    "zipcode": "6712578",
    "prefectureCode": "28",
    "prefectureNumber": 28,
    "prefecture": "兵庫県",
    "city": "宍粟市",
    "town": "山崎町元山崎"
  },
  "6712579": {
    "zipcode": "6712579",
    "prefectureCode": "28",
    "prefectureNumber": 28,
    "prefecture": "兵庫県",
    "city": "宍粟市",
    "town": "山崎町門前"
  },
  "6713201": {
    "zipcode": "6713201",
    "prefectureCode": "28",
    "prefectureNumber": 28,
    "prefecture": "兵庫県",
    "city": "宍粟市",
    "town": "千種町千草"
  },
  "6713202": {
    "zipcode": "6713202",
    "prefectureCode": "28",
    "prefectureNumber": 28,
    "prefecture": "兵庫県",
    "city": "宍粟市",
    "town": "千種町黒土"
  },
  "6713211": {
    "zipcode": "6713211",
    "prefectureCode": "28",
    "prefectureNumber": 28,
    "prefecture": "兵庫県",
    "city": "宍粟市",
    "town": "千種町岩野辺"
  },
  "6713212": {
    "zipcode": "6713212",
    "prefectureCode": "28",
    "prefectureNumber": 28,
    "prefecture": "兵庫県",
    "city": "宍粟市",
    "town": "千種町鷹巣"
  },
  "6713221": {
    "zipcode": "6713221",
    "prefectureCode": "28",
    "prefectureNumber": 28,
    "prefecture": "兵庫県",
    "city": "宍粟市",
    "town": "千種町西山"
  },
  "6713222": {
    "zipcode": "6713222",
    "prefectureCode": "28",
    "prefectureNumber": 28,
    "prefecture": "兵庫県",
    "city": "宍粟市",
    "town": "千種町奥西山"
  },
  "6713223": {
    "zipcode": "6713223",
    "prefectureCode": "28",
    "prefectureNumber": 28,
    "prefecture": "兵庫県",
    "city": "宍粟市",
    "town": "千種町室"
  },
  "6713224": {
    "zipcode": "6713224",
    "prefectureCode": "28",
    "prefectureNumber": 28,
    "prefecture": "兵庫県",
    "city": "宍粟市",
    "town": "千種町七野"
  },
  "6713225": {
    "zipcode": "6713225",
    "prefectureCode": "28",
    "prefectureNumber": 28,
    "prefecture": "兵庫県",
    "city": "宍粟市",
    "town": "千種町下河野"
  },
  "6713231": {
    "zipcode": "6713231",
    "prefectureCode": "28",
    "prefectureNumber": 28,
    "prefecture": "兵庫県",
    "city": "宍粟市",
    "town": "千種町河呂"
  },
  "6713232": {
    "zipcode": "6713232",
    "prefectureCode": "28",
    "prefectureNumber": 28,
    "prefecture": "兵庫県",
    "city": "宍粟市",
    "town": "千種町河内"
  },
  "6713233": {
    "zipcode": "6713233",
    "prefectureCode": "28",
    "prefectureNumber": 28,
    "prefecture": "兵庫県",
    "city": "宍粟市",
    "town": "千種町西河内"
  },
  "6714101": {
    "zipcode": "6714101",
    "prefectureCode": "28",
    "prefectureNumber": 28,
    "prefecture": "兵庫県",
    "city": "宍粟市",
    "town": "一宮町倉床"
  },
  "6714102": {
    "zipcode": "6714102",
    "prefectureCode": "28",
    "prefectureNumber": 28,
    "prefecture": "兵庫県",
    "city": "宍粟市",
    "town": "一宮町横山"
  },
  "6714103": {
    "zipcode": "6714103",
    "prefectureCode": "28",
    "prefectureNumber": 28,
    "prefecture": "兵庫県",
    "city": "宍粟市",
    "town": "一宮町黒原"
  },
  "6714104": {
    "zipcode": "6714104",
    "prefectureCode": "28",
    "prefectureNumber": 28,
    "prefecture": "兵庫県",
    "city": "宍粟市",
    "town": "一宮町井内"
  },
  "6714105": {
    "zipcode": "6714105",
    "prefectureCode": "28",
    "prefectureNumber": 28,
    "prefecture": "兵庫県",
    "city": "宍粟市",
    "town": "一宮町上岸田"
  },
  "6714106": {
    "zipcode": "6714106",
    "prefectureCode": "28",
    "prefectureNumber": 28,
    "prefecture": "兵庫県",
    "city": "宍粟市",
    "town": "一宮町百千家満"
  },
  "6714107": {
    "zipcode": "6714107",
    "prefectureCode": "28",
    "prefectureNumber": 28,
    "prefecture": "兵庫県",
    "city": "宍粟市",
    "town": "一宮町草木"
  },
  "6714108": {
    "zipcode": "6714108",
    "prefectureCode": "28",
    "prefectureNumber": 28,
    "prefecture": "兵庫県",
    "city": "宍粟市",
    "town": "一宮町千町"
  },
  "6714111": {
    "zipcode": "6714111",
    "prefectureCode": "28",
    "prefectureNumber": 28,
    "prefecture": "兵庫県",
    "city": "宍粟市",
    "town": "一宮町公文"
  },
  "6714112": {
    "zipcode": "6714112",
    "prefectureCode": "28",
    "prefectureNumber": 28,
    "prefecture": "兵庫県",
    "city": "宍粟市",
    "town": "一宮町森添"
  },
  "6714113": {
    "zipcode": "6714113",
    "prefectureCode": "28",
    "prefectureNumber": 28,
    "prefecture": "兵庫県",
    "city": "宍粟市",
    "town": "一宮町三方町"
  },
  "6714114": {
    "zipcode": "6714114",
    "prefectureCode": "28",
    "prefectureNumber": 28,
    "prefecture": "兵庫県",
    "city": "宍粟市",
    "town": "一宮町福野"
  },
  "6714115": {
    "zipcode": "6714115",
    "prefectureCode": "28",
    "prefectureNumber": 28,
    "prefecture": "兵庫県",
    "city": "宍粟市",
    "town": "一宮町河原田"
  },
  "6714121": {
    "zipcode": "6714121",
    "prefectureCode": "28",
    "prefectureNumber": 28,
    "prefecture": "兵庫県",
    "city": "宍粟市",
    "town": "一宮町福中"
  },
  "6714122": {
    "zipcode": "6714122",
    "prefectureCode": "28",
    "prefectureNumber": 28,
    "prefecture": "兵庫県",
    "city": "宍粟市",
    "town": "一宮町福知"
  },
  "6714123": {
    "zipcode": "6714123",
    "prefectureCode": "28",
    "prefectureNumber": 28,
    "prefecture": "兵庫県",
    "city": "宍粟市",
    "town": "一宮町生栖"
  },
  "6714124": {
    "zipcode": "6714124",
    "prefectureCode": "28",
    "prefectureNumber": 28,
    "prefecture": "兵庫県",
    "city": "宍粟市",
    "town": "一宮町深河谷"
  },
  "6714125": {
    "zipcode": "6714125",
    "prefectureCode": "28",
    "prefectureNumber": 28,
    "prefecture": "兵庫県",
    "city": "宍粟市",
    "town": "一宮町西深"
  },
  "6714131": {
    "zipcode": "6714131",
    "prefectureCode": "28",
    "prefectureNumber": 28,
    "prefecture": "兵庫県",
    "city": "宍粟市",
    "town": "一宮町安積"
  },
  "6714132": {
    "zipcode": "6714132",
    "prefectureCode": "28",
    "prefectureNumber": 28,
    "prefecture": "兵庫県",
    "city": "宍粟市",
    "town": "一宮町東市場"
  },
  "6714133": {
    "zipcode": "6714133",
    "prefectureCode": "28",
    "prefectureNumber": 28,
    "prefecture": "兵庫県",
    "city": "宍粟市",
    "town": "一宮町須行名"
  },
  "6714134": {
    "zipcode": "6714134",
    "prefectureCode": "28",
    "prefectureNumber": 28,
    "prefecture": "兵庫県",
    "city": "宍粟市",
    "town": "一宮町伊和"
  },
  "6714135": {
    "zipcode": "6714135",
    "prefectureCode": "28",
    "prefectureNumber": 28,
    "prefecture": "兵庫県",
    "city": "宍粟市",
    "town": "一宮町安黒"
  },
  "6714136": {
    "zipcode": "6714136",
    "prefectureCode": "28",
    "prefectureNumber": 28,
    "prefecture": "兵庫県",
    "city": "宍粟市",
    "town": "一宮町嶋田"
  },
  "6714137": {
    "zipcode": "6714137",
    "prefectureCode": "28",
    "prefectureNumber": 28,
    "prefecture": "兵庫県",
    "city": "宍粟市",
    "town": "一宮町閏賀"
  },
  "6714138": {
    "zipcode": "6714138",
    "prefectureCode": "28",
    "prefectureNumber": 28,
    "prefecture": "兵庫県",
    "city": "宍粟市",
    "town": "一宮町西安積"
  },
  "6714139": {
    "zipcode": "6714139",
    "prefectureCode": "28",
    "prefectureNumber": 28,
    "prefecture": "兵庫県",
    "city": "宍粟市",
    "town": "一宮町杉田"
  },
  "6714141": {
    "zipcode": "6714141",
    "prefectureCode": "28",
    "prefectureNumber": 28,
    "prefecture": "兵庫県",
    "city": "宍粟市",
    "town": "一宮町東河内"
  },
  "6714142": {
    "zipcode": "6714142",
    "prefectureCode": "28",
    "prefectureNumber": 28,
    "prefecture": "兵庫県",
    "city": "宍粟市",
    "town": "一宮町能倉"
  },
  "6714143": {
    "zipcode": "6714143",
    "prefectureCode": "28",
    "prefectureNumber": 28,
    "prefecture": "兵庫県",
    "city": "宍粟市",
    "town": "一宮町上野田"
  },
  "6714144": {
    "zipcode": "6714144",
    "prefectureCode": "28",
    "prefectureNumber": 28,
    "prefecture": "兵庫県",
    "city": "宍粟市",
    "town": "一宮町下野田"
  },
  "6714201": {
    "zipcode": "6714201",
    "prefectureCode": "28",
    "prefectureNumber": 28,
    "prefecture": "兵庫県",
    "city": "宍粟市",
    "town": "波賀町戸倉"
  },
  "6714202": {
    "zipcode": "6714202",
    "prefectureCode": "28",
    "prefectureNumber": 28,
    "prefecture": "兵庫県",
    "city": "宍粟市",
    "town": "波賀町道谷"
  },
  "6714203": {
    "zipcode": "6714203",
    "prefectureCode": "28",
    "prefectureNumber": 28,
    "prefecture": "兵庫県",
    "city": "宍粟市",
    "town": "波賀町鹿伏"
  },
  "6714204": {
    "zipcode": "6714204",
    "prefectureCode": "28",
    "prefectureNumber": 28,
    "prefecture": "兵庫県",
    "city": "宍粟市",
    "town": "波賀町引原"
  },
  "6714211": {
    "zipcode": "6714211",
    "prefectureCode": "28",
    "prefectureNumber": 28,
    "prefecture": "兵庫県",
    "city": "宍粟市",
    "town": "波賀町音水"
  },
  "6714212": {
    "zipcode": "6714212",
    "prefectureCode": "28",
    "prefectureNumber": 28,
    "prefecture": "兵庫県",
    "city": "宍粟市",
    "town": "波賀町日ノ原"
  },
  "6714213": {
    "zipcode": "6714213",
    "prefectureCode": "28",
    "prefectureNumber": 28,
    "prefecture": "兵庫県",
    "city": "宍粟市",
    "town": "波賀町原"
  },
  "6714214": {
    "zipcode": "6714214",
    "prefectureCode": "28",
    "prefectureNumber": 28,
    "prefecture": "兵庫県",
    "city": "宍粟市",
    "town": "波賀町野尻"
  },
  "6714215": {
    "zipcode": "6714215",
    "prefectureCode": "28",
    "prefectureNumber": 28,
    "prefecture": "兵庫県",
    "city": "宍粟市",
    "town": "波賀町飯見"
  },
  "6714216": {
    "zipcode": "6714216",
    "prefectureCode": "28",
    "prefectureNumber": 28,
    "prefecture": "兵庫県",
    "city": "宍粟市",
    "town": "波賀町皆木"
  },
  "6714221": {
    "zipcode": "6714221",
    "prefectureCode": "28",
    "prefectureNumber": 28,
    "prefecture": "兵庫県",
    "city": "宍粟市",
    "town": "波賀町上野"
  },
  "6714231": {
    "zipcode": "6714231",
    "prefectureCode": "28",
    "prefectureNumber": 28,
    "prefecture": "兵庫県",
    "city": "宍粟市",
    "town": "波賀町有賀"
  },
  "6714232": {
    "zipcode": "6714232",
    "prefectureCode": "28",
    "prefectureNumber": 28,
    "prefecture": "兵庫県",
    "city": "宍粟市",
    "town": "波賀町斉木"
  },
  "6714241": {
    "zipcode": "6714241",
    "prefectureCode": "28",
    "prefectureNumber": 28,
    "prefecture": "兵庫県",
    "city": "宍粟市",
    "town": "波賀町安賀"
  },
  "6714242": {
    "zipcode": "6714242",
    "prefectureCode": "28",
    "prefectureNumber": 28,
    "prefecture": "兵庫県",
    "city": "宍粟市",
    "town": "波賀町今市"
  },
  "6714243": {
    "zipcode": "6714243",
    "prefectureCode": "28",
    "prefectureNumber": 28,
    "prefecture": "兵庫県",
    "city": "宍粟市",
    "town": "波賀町小野"
  },
  "6714244": {
    "zipcode": "6714244",
    "prefectureCode": "28",
    "prefectureNumber": 28,
    "prefecture": "兵庫県",
    "city": "宍粟市",
    "town": "波賀町谷"
  },
  "6714245": {
    "zipcode": "6714245",
    "prefectureCode": "28",
    "prefectureNumber": 28,
    "prefecture": "兵庫県",
    "city": "宍粟市",
    "town": "波賀町日見谷"
  }
}
