{
  "6730000": {
    "zipcode": "6730000",
    "prefectureCode": "28",
    "prefectureNumber": 28,
    "prefecture": "兵庫県",
    "city": "明石市",
    "town": "以下に掲載がない場合"
  },
  "6730001": {
    "zipcode": "6730001",
    "prefectureCode": "28",
    "prefectureNumber": 28,
    "prefecture": "兵庫県",
    "city": "明石市",
    "town": "明南町"
  },
  "6730002": {
    "zipcode": "6730002",
    "prefectureCode": "28",
    "prefectureNumber": 28,
    "prefecture": "兵庫県",
    "city": "明石市",
    "town": "旭が丘"
  },
  "6730003": {
    "zipcode": "6730003",
    "prefectureCode": "28",
    "prefectureNumber": 28,
    "prefecture": "兵庫県",
    "city": "明石市",
    "town": "鳥羽"
  },
  "6730004": {
    "zipcode": "6730004",
    "prefectureCode": "28",
    "prefectureNumber": 28,
    "prefecture": "兵庫県",
    "city": "明石市",
    "town": "鳥羽弁財天"
  },
  "6730005": {
    "zipcode": "6730005",
    "prefectureCode": "28",
    "prefectureNumber": 28,
    "prefecture": "兵庫県",
    "city": "明石市",
    "town": "小久保"
  },
  "6730006": {
    "zipcode": "6730006",
    "prefectureCode": "28",
    "prefectureNumber": 28,
    "prefecture": "兵庫県",
    "city": "明石市",
    "town": "鳥羽二本松"
  },
  "6730007": {
    "zipcode": "6730007",
    "prefectureCode": "28",
    "prefectureNumber": 28,
    "prefecture": "兵庫県",
    "city": "明石市",
    "town": "鳥羽西鳥羽"
  },
  "6730008": {
    "zipcode": "6730008",
    "prefectureCode": "28",
    "prefectureNumber": 28,
    "prefecture": "兵庫県",
    "city": "明石市",
    "town": "沢野"
  },
  "6730009": {
    "zipcode": "6730009",
    "prefectureCode": "28",
    "prefectureNumber": 28,
    "prefecture": "兵庫県",
    "city": "明石市",
    "town": "西明石東町"
  },
  "6730011": {
    "zipcode": "6730011",
    "prefectureCode": "28",
    "prefectureNumber": 28,
    "prefecture": "兵庫県",
    "city": "明石市",
    "town": "西明石町"
  },
  "6730012": {
    "zipcode": "6730012",
    "prefectureCode": "28",
    "prefectureNumber": 28,
    "prefecture": "兵庫県",
    "city": "明石市",
    "town": "和坂"
  },
  "6730013": {
    "zipcode": "6730013",
    "prefectureCode": "28",
    "prefectureNumber": 28,
    "prefecture": "兵庫県",
    "city": "明石市",
    "town": "和坂稲荷町"
  },
  "6730014": {
    "zipcode": "6730014",
    "prefectureCode": "28",
    "prefectureNumber": 28,
    "prefecture": "兵庫県",
    "city": "明石市",
    "town": "川崎町"
  },
  "6730015": {
    "zipcode": "6730015",
    "prefectureCode": "28",
    "prefectureNumber": 28,
    "prefecture": "兵庫県",
    "city": "明石市",
    "town": "花園町"
  },
  "6730016": {
    "zipcode": "6730016",
    "prefectureCode": "28",
    "prefectureNumber": 28,
    "prefecture": "兵庫県",
    "city": "明石市",
    "town": "松の内"
  },
  "6730017": {
    "zipcode": "6730017",
    "prefectureCode": "28",
    "prefectureNumber": 28,
    "prefecture": "兵庫県",
    "city": "明石市",
    "town": "野々上"
  },
  "6730018": {
    "zipcode": "6730018",
    "prefectureCode": "28",
    "prefectureNumber": 28,
    "prefecture": "兵庫県",
    "city": "明石市",
    "town": "西明石北町"
  },
  "6730019": {
    "zipcode": "6730019",
    "prefectureCode": "28",
    "prefectureNumber": 28,
    "prefecture": "兵庫県",
    "city": "明石市",
    "town": "沢野南町"
  },
  "6730021": {
    "zipcode": "6730021",
    "prefectureCode": "28",
    "prefectureNumber": 28,
    "prefecture": "兵庫県",
    "city": "明石市",
    "town": "北王子町"
  },
  "6730022": {
    "zipcode": "6730022",
    "prefectureCode": "28",
    "prefectureNumber": 28,
    "prefecture": "兵庫県",
    "city": "明石市",
    "town": "王子"
  },
  "6730023": {
    "zipcode": "6730023",
    "prefectureCode": "28",
    "prefectureNumber": 28,
    "prefecture": "兵庫県",
    "city": "明石市",
    "town": "西新町"
  },
  "6730024": {
    "zipcode": "6730024",
    "prefectureCode": "28",
    "prefectureNumber": 28,
    "prefecture": "兵庫県",
    "city": "明石市",
    "town": "南王子町"
  },
  "6730025": {
    "zipcode": "6730025",
    "prefectureCode": "28",
    "prefectureNumber": 28,
    "prefecture": "兵庫県",
    "city": "明石市",
    "town": "田町"
  },
  "6730026": {
    "zipcode": "6730026",
    "prefectureCode": "28",
    "prefectureNumber": 28,
    "prefecture": "兵庫県",
    "city": "明石市",
    "town": "船上町"
  },
  "6730027": {
    "zipcode": "6730027",
    "prefectureCode": "28",
    "prefectureNumber": 28,
    "prefecture": "兵庫県",
    "city": "明石市",
    "town": "新明町"
  },
  "6730028": {
    "zipcode": "6730028",
    "prefectureCode": "28",
    "prefectureNumber": 28,
    "prefecture": "兵庫県",
    "city": "明石市",
    "town": "硯町"
  },
  "6730029": {
    "zipcode": "6730029",
    "prefectureCode": "28",
    "prefectureNumber": 28,
    "prefecture": "兵庫県",
    "city": "明石市",
    "town": "大道町"
  },
  "6730031": {
    "zipcode": "6730031",
    "prefectureCode": "28",
    "prefectureNumber": 28,
    "prefecture": "兵庫県",
    "city": "明石市",
    "town": "宮の上"
  },
  "6730032": {
    "zipcode": "6730032",
    "prefectureCode": "28",
    "prefectureNumber": 28,
    "prefecture": "兵庫県",
    "city": "明石市",
    "town": "立石"
  },
  "6730033": {
    "zipcode": "6730033",
    "prefectureCode": "28",
    "prefectureNumber": 28,
    "prefecture": "兵庫県",
    "city": "明石市",
    "town": "林崎町"
  },
  "6730034": {
    "zipcode": "6730034",
    "prefectureCode": "28",
    "prefectureNumber": 28,
    "prefecture": "兵庫県",
    "city": "明石市",
    "town": "林"
  },
  "6730035": {
    "zipcode": "6730035",
    "prefectureCode": "28",
    "prefectureNumber": 28,
    "prefecture": "兵庫県",
    "city": "明石市",
    "town": "南貴崎町"
  },
  "6730036": {
    "zipcode": "6730036",
    "prefectureCode": "28",
    "prefectureNumber": 28,
    "prefecture": "兵庫県",
    "city": "明石市",
    "town": "松江"
  },
  "6730037": {
    "zipcode": "6730037",
    "prefectureCode": "28",
    "prefectureNumber": 28,
    "prefecture": "兵庫県",
    "city": "明石市",
    "town": "貴崎"
  },
  "6730038": {
    "zipcode": "6730038",
    "prefectureCode": "28",
    "prefectureNumber": 28,
    "prefecture": "兵庫県",
    "city": "明石市",
    "town": "別所町"
  },
  "6730041": {
    "zipcode": "6730041",
    "prefectureCode": "28",
    "prefectureNumber": 28,
    "prefecture": "兵庫県",
    "city": "明石市",
    "town": "西明石南町"
  },
  "6730042": {
    "zipcode": "6730042",
    "prefectureCode": "28",
    "prefectureNumber": 28,
    "prefecture": "兵庫県",
    "city": "明石市",
    "town": "東藤江"
  },
  "6730043": {
    "zipcode": "6730043",
    "prefectureCode": "28",
    "prefectureNumber": 28,
    "prefecture": "兵庫県",
    "city": "明石市",
    "town": "藤江（川添）"
  },
  "6730044": {
    "zipcode": "6730044",
    "prefectureCode": "28",
    "prefectureNumber": 28,
    "prefecture": "兵庫県",
    "city": "明石市",
    "town": "藤江"
  },
  "6730045": {
    "zipcode": "6730045",
    "prefectureCode": "28",
    "prefectureNumber": 28,
    "prefecture": "兵庫県",
    "city": "明石市",
    "town": "藤江（若林）"
  },
  "6730046": {
    "zipcode": "6730046",
    "prefectureCode": "28",
    "prefectureNumber": 28,
    "prefecture": "兵庫県",
    "city": "明石市",
    "town": "藤が丘"
  },
  "6730047": {
    "zipcode": "6730047",
    "prefectureCode": "28",
    "prefectureNumber": 28,
    "prefecture": "兵庫県",
    "city": "明石市",
    "town": "藤江（中谷町）"
  },
  "6730048": {
    "zipcode": "6730048",
    "prefectureCode": "28",
    "prefectureNumber": 28,
    "prefecture": "兵庫県",
    "city": "明石市",
    "town": "藤江（中谷山）"
  },
  "6730049": {
    "zipcode": "6730049",
    "prefectureCode": "28",
    "prefectureNumber": 28,
    "prefecture": "兵庫県",
    "city": "明石市",
    "town": "西明石西町"
  },
  "6730400": {
    "zipcode": "6730400",
    "prefectureCode": "28",
    "prefectureNumber": 28,
    "prefecture": "兵庫県",
    "city": "三木市",
    "town": "以下に掲載がない場合"
  },
  "6730401": {
    "zipcode": "6730401",
    "prefectureCode": "28",
    "prefectureNumber": 28,
    "prefecture": "兵庫県",
    "city": "三木市",
    "town": "跡部"
  },
  "6730402": {
    "zipcode": "6730402",
    "prefectureCode": "28",
    "prefectureNumber": 28,
    "prefecture": "兵庫県",
    "city": "三木市",
    "town": "加佐"
  },
  "6730403": {
    "zipcode": "6730403",
    "prefectureCode": "28",
    "prefectureNumber": 28,
    "prefecture": "兵庫県",
    "city": "三木市",
    "town": "末広"
  },
  "6730404": {
    "zipcode": "6730404",
    "prefectureCode": "28",
    "prefectureNumber": 28,
    "prefecture": "兵庫県",
    "city": "三木市",
    "town": "大村"
  },
  "6730405": {
    "zipcode": "6730405",
    "prefectureCode": "28",
    "prefectureNumber": 28,
    "prefecture": "兵庫県",
    "city": "三木市",
    "town": "平田"
  },
  "6730411": {
    "zipcode": "6730411",
    "prefectureCode": "28",
    "prefectureNumber": 28,
    "prefecture": "兵庫県",
    "city": "三木市",
    "town": "久留美"
  },
  "6730412": {
    "zipcode": "6730412",
    "prefectureCode": "28",
    "prefectureNumber": 28,
    "prefecture": "兵庫県",
    "city": "三木市",
    "town": "岩宮"
  },
  "6730413": {
    "zipcode": "6730413",
    "prefectureCode": "28",
    "prefectureNumber": 28,
    "prefecture": "兵庫県",
    "city": "三木市",
    "town": "大塚"
  },
  "6730414": {
    "zipcode": "6730414",
    "prefectureCode": "28",
    "prefectureNumber": 28,
    "prefecture": "兵庫県",
    "city": "三木市",
    "town": "芝町"
  },
  "6730415": {
    "zipcode": "6730415",
    "prefectureCode": "28",
    "prefectureNumber": 28,
    "prefecture": "兵庫県",
    "city": "三木市",
    "town": "府内"
  },
  "6730416": {
    "zipcode": "6730416",
    "prefectureCode": "28",
    "prefectureNumber": 28,
    "prefecture": "兵庫県",
    "city": "三木市",
    "town": "府内町"
  },
  "6730421": {
    "zipcode": "6730421",
    "prefectureCode": "28",
    "prefectureNumber": 28,
    "prefecture": "兵庫県",
    "city": "三木市",
    "town": "平井"
  },
  "6730422": {
    "zipcode": "6730422",
    "prefectureCode": "28",
    "prefectureNumber": 28,
    "prefecture": "兵庫県",
    "city": "三木市",
    "town": "与呂木"
  },
  "6730423": {
    "zipcode": "6730423",
    "prefectureCode": "28",
    "prefectureNumber": 28,
    "prefecture": "兵庫県",
    "city": "三木市",
    "town": "宿原"
  },
  "6730424": {
    "zipcode": "6730424",
    "prefectureCode": "28",
    "prefectureNumber": 28,
    "prefecture": "兵庫県",
    "city": "三木市",
    "town": "自由が丘本町"
  },
  "6730425": {
    "zipcode": "6730425",
    "prefectureCode": "28",
    "prefectureNumber": 28,
    "prefecture": "兵庫県",
    "city": "三木市",
    "town": "君が峰町"
  },
  "6730431": {
    "zipcode": "6730431",
    "prefectureCode": "28",
    "prefectureNumber": 28,
    "prefecture": "兵庫県",
    "city": "三木市",
    "town": "本町"
  },
  "6730432": {
    "zipcode": "6730432",
    "prefectureCode": "28",
    "prefectureNumber": 28,
    "prefecture": "兵庫県",
    "city": "三木市",
    "town": "上の丸町"
  },
  "6730433": {
    "zipcode": "6730433",
    "prefectureCode": "28",
    "prefectureNumber": 28,
    "prefecture": "兵庫県",
    "city": "三木市",
    "town": "福井"
  },
  "6730434": {
    "zipcode": "6730434",
    "prefectureCode": "28",
    "prefectureNumber": 28,
    "prefecture": "兵庫県",
    "city": "三木市",
    "town": "別所町小林"
  },
  "6730435": {
    "zipcode": "6730435",
    "prefectureCode": "28",
    "prefectureNumber": 28,
    "prefecture": "兵庫県",
    "city": "三木市",
    "town": "別所町高木"
  },
  "6730436": {
    "zipcode": "6730436",
    "prefectureCode": "28",
    "prefectureNumber": 28,
    "prefecture": "兵庫県",
    "city": "三木市",
    "town": "さつき台"
  },
  "6730441": {
    "zipcode": "6730441",
    "prefectureCode": "28",
    "prefectureNumber": 28,
    "prefecture": "兵庫県",
    "city": "三木市",
    "town": "別所町朝日ケ丘"
  },
  "6730442": {
    "zipcode": "6730442",
    "prefectureCode": "28",
    "prefectureNumber": 28,
    "prefecture": "兵庫県",
    "city": "三木市",
    "town": "別所町興治"
  },
  "6730443": {
    "zipcode": "6730443",
    "prefectureCode": "28",
    "prefectureNumber": 28,
    "prefecture": "兵庫県",
    "city": "三木市",
    "town": "別所町巴"
  },
  "6730444": {
    "zipcode": "6730444",
    "prefectureCode": "28",
    "prefectureNumber": 28,
    "prefecture": "兵庫県",
    "city": "三木市",
    "town": "別所町東這田"
  },
  "6730445": {
    "zipcode": "6730445",
    "prefectureCode": "28",
    "prefectureNumber": 28,
    "prefecture": "兵庫県",
    "city": "三木市",
    "town": "別所町西這田"
  },
  "6730446": {
    "zipcode": "6730446",
    "prefectureCode": "28",
    "prefectureNumber": 28,
    "prefecture": "兵庫県",
    "city": "三木市",
    "town": "別所町花尻"
  },
  "6730451": {
    "zipcode": "6730451",
    "prefectureCode": "28",
    "prefectureNumber": 28,
    "prefecture": "兵庫県",
    "city": "三木市",
    "town": "別所町近藤"
  },
  "6730452": {
    "zipcode": "6730452",
    "prefectureCode": "28",
    "prefectureNumber": 28,
    "prefecture": "兵庫県",
    "city": "三木市",
    "town": "別所町石野"
  },
  "6730453": {
    "zipcode": "6730453",
    "prefectureCode": "28",
    "prefectureNumber": 28,
    "prefecture": "兵庫県",
    "city": "三木市",
    "town": "別所町下石野"
  },
  "6730454": {
    "zipcode": "6730454",
    "prefectureCode": "28",
    "prefectureNumber": 28,
    "prefecture": "兵庫県",
    "city": "三木市",
    "town": "別所町正法寺"
  },
  "6730455": {
    "zipcode": "6730455",
    "prefectureCode": "28",
    "prefectureNumber": 28,
    "prefecture": "兵庫県",
    "city": "三木市",
    "town": "別所町和田"
  },
  "6730456": {
    "zipcode": "6730456",
    "prefectureCode": "28",
    "prefectureNumber": 28,
    "prefecture": "兵庫県",
    "city": "三木市",
    "town": "鳥町"
  },
  "6730501": {
    "zipcode": "6730501",
    "prefectureCode": "28",
    "prefectureNumber": 28,
    "prefecture": "兵庫県",
    "city": "三木市",
    "town": "志染町吉田"
  },
  "6730502": {
    "zipcode": "6730502",
    "prefectureCode": "28",
    "prefectureNumber": 28,
    "prefecture": "兵庫県",
    "city": "三木市",
    "town": "志染町安福田"
  },
  "6730503": {
    "zipcode": "6730503",
    "prefectureCode": "28",
    "prefectureNumber": 28,
    "prefecture": "兵庫県",
    "city": "三木市",
    "town": "志染町窟屋"
  },
  "6730504": {
    "zipcode": "6730504",
    "prefectureCode": "28",
    "prefectureNumber": 28,
    "prefecture": "兵庫県",
    "city": "三木市",
    "town": "志染町高男寺"
  },
  "6730505": {
    "zipcode": "6730505",
    "prefectureCode": "28",
    "prefectureNumber": 28,
    "prefecture": "兵庫県",
    "city": "三木市",
    "town": "志染町細目"
  },
  "6730506": {
    "zipcode": "6730506",
    "prefectureCode": "28",
    "prefectureNumber": 28,
    "prefecture": "兵庫県",
    "city": "三木市",
    "town": "志染町四合谷"
  },
  "6730511": {
    "zipcode": "6730511",
    "prefectureCode": "28",
    "prefectureNumber": 28,
    "prefecture": "兵庫県",
    "city": "三木市",
    "town": "志染町志染中"
  },
  "6730512": {
    "zipcode": "6730512",
    "prefectureCode": "28",
    "prefectureNumber": 28,
    "prefecture": "兵庫県",
    "city": "三木市",
    "town": "志染町井上"
  },
  "6730513": {
    "zipcode": "6730513",
    "prefectureCode": "28",
    "prefectureNumber": 28,
    "prefecture": "兵庫県",
    "city": "三木市",
    "town": "志染町大谷"
  },
  "6730514": {
    "zipcode": "6730514",
    "prefectureCode": "28",
    "prefectureNumber": 28,
    "prefecture": "兵庫県",
    "city": "三木市",
    "town": "志染町戸田"
  },
  "6730515": {
    "zipcode": "6730515",
    "prefectureCode": "28",
    "prefectureNumber": 28,
    "prefecture": "兵庫県",
    "city": "三木市",
    "town": "志染町三津田"
  },
  "6730516": {
    "zipcode": "6730516",
    "prefectureCode": "28",
    "prefectureNumber": 28,
    "prefecture": "兵庫県",
    "city": "三木市",
    "town": "志染町御坂"
  },
  "6730521": {
    "zipcode": "6730521",
    "prefectureCode": "28",
    "prefectureNumber": 28,
    "prefecture": "兵庫県",
    "city": "三木市",
    "town": "志染町青山"
  },
  "6730531": {
    "zipcode": "6730531",
    "prefectureCode": "28",
    "prefectureNumber": 28,
    "prefecture": "兵庫県",
    "city": "三木市",
    "town": "緑が丘町西"
  },
  "6730532": {
    "zipcode": "6730532",
    "prefectureCode": "28",
    "prefectureNumber": 28,
    "prefecture": "兵庫県",
    "city": "三木市",
    "town": "緑が丘町中"
  },
  "6730533": {
    "zipcode": "6730533",
    "prefectureCode": "28",
    "prefectureNumber": 28,
    "prefecture": "兵庫県",
    "city": "三木市",
    "town": "緑が丘町東"
  },
  "6730534": {
    "zipcode": "6730534",
    "prefectureCode": "28",
    "prefectureNumber": 28,
    "prefecture": "兵庫県",
    "city": "三木市",
    "town": "緑が丘町本町"
  },
  "6730541": {
    "zipcode": "6730541",
    "prefectureCode": "28",
    "prefectureNumber": 28,
    "prefecture": "兵庫県",
    "city": "三木市",
    "town": "志染町広野"
  },
  "6730551": {
    "zipcode": "6730551",
    "prefectureCode": "28",
    "prefectureNumber": 28,
    "prefecture": "兵庫県",
    "city": "三木市",
    "town": "志染町西自由が丘"
  },
  "6730552": {
    "zipcode": "6730552",
    "prefectureCode": "28",
    "prefectureNumber": 28,
    "prefecture": "兵庫県",
    "city": "三木市",
    "town": "志染町中自由が丘"
  },
  "6730553": {
    "zipcode": "6730553",
    "prefectureCode": "28",
    "prefectureNumber": 28,
    "prefecture": "兵庫県",
    "city": "三木市",
    "town": "志染町東自由が丘"
  },
  "6730701": {
    "zipcode": "6730701",
    "prefectureCode": "28",
    "prefectureNumber": 28,
    "prefecture": "兵庫県",
    "city": "三木市",
    "town": "細川町瑞穂"
  },
  "6730702": {
    "zipcode": "6730702",
    "prefectureCode": "28",
    "prefectureNumber": 28,
    "prefecture": "兵庫県",
    "city": "三木市",
    "town": "細川町中里"
  },
  "6730703": {
    "zipcode": "6730703",
    "prefectureCode": "28",
    "prefectureNumber": 28,
    "prefecture": "兵庫県",
    "city": "三木市",
    "town": "細川町垂穂"
  },
  "6730704": {
    "zipcode": "6730704",
    "prefectureCode": "28",
    "prefectureNumber": 28,
    "prefecture": "兵庫県",
    "city": "三木市",
    "town": "細川町増田"
  },
  "6730711": {
    "zipcode": "6730711",
    "prefectureCode": "28",
    "prefectureNumber": 28,
    "prefecture": "兵庫県",
    "city": "三木市",
    "town": "細川町金屋"
  },
  "6730712": {
    "zipcode": "6730712",
    "prefectureCode": "28",
    "prefectureNumber": 28,
    "prefecture": "兵庫県",
    "city": "三木市",
    "town": "細川町桃津"
  },
  "6730713": {
    "zipcode": "6730713",
    "prefectureCode": "28",
    "prefectureNumber": 28,
    "prefecture": "兵庫県",
    "city": "三木市",
    "town": "細川町豊地"
  },
  "6730714": {
    "zipcode": "6730714",
    "prefectureCode": "28",
    "prefectureNumber": 28,
    "prefecture": "兵庫県",
    "city": "三木市",
    "town": "細川町細川中"
  },
  "6730715": {
    "zipcode": "6730715",
    "prefectureCode": "28",
    "prefectureNumber": 28,
    "prefecture": "兵庫県",
    "city": "三木市",
    "town": "細川町西"
  },
  "6730721": {
    "zipcode": "6730721",
    "prefectureCode": "28",
    "prefectureNumber": 28,
    "prefecture": "兵庫県",
    "city": "三木市",
    "town": "細川町高篠"
  },
  "6730722": {
    "zipcode": "6730722",
    "prefectureCode": "28",
    "prefectureNumber": 28,
    "prefecture": "兵庫県",
    "city": "三木市",
    "town": "細川町脇川"
  },
  "6730723": {
    "zipcode": "6730723",
    "prefectureCode": "28",
    "prefectureNumber": 28,
    "prefecture": "兵庫県",
    "city": "三木市",
    "town": "加佐草荷野"
  },
  "6730724": {
    "zipcode": "6730724",
    "prefectureCode": "28",
    "prefectureNumber": 28,
    "prefecture": "兵庫県",
    "city": "三木市",
    "town": "細川町高畑"
  },
  "6730731": {
    "zipcode": "6730731",
    "prefectureCode": "28",
    "prefectureNumber": 28,
    "prefecture": "兵庫県",
    "city": "三木市",
    "town": "口吉川町東中"
  },
  "6730732": {
    "zipcode": "6730732",
    "prefectureCode": "28",
    "prefectureNumber": 28,
    "prefecture": "兵庫県",
    "city": "三木市",
    "town": "口吉川町馬場"
  },
  "6730733": {
    "zipcode": "6730733",
    "prefectureCode": "28",
    "prefectureNumber": 28,
    "prefecture": "兵庫県",
    "city": "三木市",
    "town": "口吉川町東"
  },
  "6730734": {
    "zipcode": "6730734",
    "prefectureCode": "28",
    "prefectureNumber": 28,
    "prefecture": "兵庫県",
    "city": "三木市",
    "town": "口吉川町蓮花寺"
  },
  "6730735": {
    "zipcode": "6730735",
    "prefectureCode": "28",
    "prefectureNumber": 28,
    "prefecture": "兵庫県",
    "city": "三木市",
    "town": "口吉川町西中"
  },
  "6730736": {
    "zipcode": "6730736",
    "prefectureCode": "28",
    "prefectureNumber": 28,
    "prefecture": "兵庫県",
    "city": "三木市",
    "town": "口吉川町桃坂"
  },
  "6730741": {
    "zipcode": "6730741",
    "prefectureCode": "28",
    "prefectureNumber": 28,
    "prefecture": "兵庫県",
    "city": "三木市",
    "town": "口吉川町殿畑"
  },
  "6730742": {
    "zipcode": "6730742",
    "prefectureCode": "28",
    "prefectureNumber": 28,
    "prefecture": "兵庫県",
    "city": "三木市",
    "town": "口吉川町保木"
  },
  "6730743": {
    "zipcode": "6730743",
    "prefectureCode": "28",
    "prefectureNumber": 28,
    "prefecture": "兵庫県",
    "city": "三木市",
    "town": "口吉川町桾原"
  },
  "6730751": {
    "zipcode": "6730751",
    "prefectureCode": "28",
    "prefectureNumber": 28,
    "prefecture": "兵庫県",
    "city": "三木市",
    "town": "口吉川町里脇"
  },
  "6730752": {
    "zipcode": "6730752",
    "prefectureCode": "28",
    "prefectureNumber": 28,
    "prefecture": "兵庫県",
    "city": "三木市",
    "town": "口吉川町吉祥寺"
  },
  "6730753": {
    "zipcode": "6730753",
    "prefectureCode": "28",
    "prefectureNumber": 28,
    "prefecture": "兵庫県",
    "city": "三木市",
    "town": "口吉川町槇"
  },
  "6730754": {
    "zipcode": "6730754",
    "prefectureCode": "28",
    "prefectureNumber": 28,
    "prefecture": "兵庫県",
    "city": "三木市",
    "town": "口吉川町善祥寺"
  },
  "6730755": {
    "zipcode": "6730755",
    "prefectureCode": "28",
    "prefectureNumber": 28,
    "prefecture": "兵庫県",
    "city": "三木市",
    "town": "口吉川町大島"
  },
  "6730756": {
    "zipcode": "6730756",
    "prefectureCode": "28",
    "prefectureNumber": 28,
    "prefecture": "兵庫県",
    "city": "三木市",
    "town": "口吉川町南畑"
  },
  "6730757": {
    "zipcode": "6730757",
    "prefectureCode": "28",
    "prefectureNumber": 28,
    "prefecture": "兵庫県",
    "city": "三木市",
    "town": "口吉川町笹原"
  },
  "6730758": {
    "zipcode": "6730758",
    "prefectureCode": "28",
    "prefectureNumber": 28,
    "prefecture": "兵庫県",
    "city": "三木市",
    "town": "口吉川町久次"
  },
  "6730841": {
    "zipcode": "6730841",
    "prefectureCode": "28",
    "prefectureNumber": 28,
    "prefecture": "兵庫県",
    "city": "明石市",
    "town": "太寺天王町"
  },
  "6730842": {
    "zipcode": "6730842",
    "prefectureCode": "28",
    "prefectureNumber": 28,
    "prefecture": "兵庫県",
    "city": "明石市",
    "town": "荷山町"
  },
  "6730843": {
    "zipcode": "6730843",
    "prefectureCode": "28",
    "prefectureNumber": 28,
    "prefecture": "兵庫県",
    "city": "明石市",
    "town": "太寺大野町"
  },
  "6730844": {
    "zipcode": "6730844",
    "prefectureCode": "28",
    "prefectureNumber": 28,
    "prefecture": "兵庫県",
    "city": "明石市",
    "town": "東野町"
  },
  "6730845": {
    "zipcode": "6730845",
    "prefectureCode": "28",
    "prefectureNumber": 28,
    "prefecture": "兵庫県",
    "city": "明石市",
    "town": "太寺"
  },
  "6730846": {
    "zipcode": "6730846",
    "prefectureCode": "28",
    "prefectureNumber": 28,
    "prefecture": "兵庫県",
    "city": "明石市",
    "town": "上ノ丸"
  },
  "6730847": {
    "zipcode": "6730847",
    "prefectureCode": "28",
    "prefectureNumber": 28,
    "prefecture": "兵庫県",
    "city": "明石市",
    "town": "明石公園"
  },
  "6730848": {
    "zipcode": "6730848",
    "prefectureCode": "28",
    "prefectureNumber": 28,
    "prefecture": "兵庫県",
    "city": "明石市",
    "town": "鷹匠町"
  },
  "6730849": {
    "zipcode": "6730849",
    "prefectureCode": "28",
    "prefectureNumber": 28,
    "prefecture": "兵庫県",
    "city": "明石市",
    "town": "茶園場町"
  },
  "6730851": {
    "zipcode": "6730851",
    "prefectureCode": "28",
    "prefectureNumber": 28,
    "prefecture": "兵庫県",
    "city": "明石市",
    "town": "朝霧北町"
  },
  "6730852": {
    "zipcode": "6730852",
    "prefectureCode": "28",
    "prefectureNumber": 28,
    "prefecture": "兵庫県",
    "city": "明石市",
    "town": "朝霧台"
  },
  "6730853": {
    "zipcode": "6730853",
    "prefectureCode": "28",
    "prefectureNumber": 28,
    "prefecture": "兵庫県",
    "city": "明石市",
    "town": "朝霧山手町"
  },
  "6730854": {
    "zipcode": "6730854",
    "prefectureCode": "28",
    "prefectureNumber": 28,
    "prefecture": "兵庫県",
    "city": "明石市",
    "town": "東朝霧丘"
  },
  "6730855": {
    "zipcode": "6730855",
    "prefectureCode": "28",
    "prefectureNumber": 28,
    "prefecture": "兵庫県",
    "city": "明石市",
    "town": "中朝霧丘"
  },
  "6730856": {
    "zipcode": "6730856",
    "prefectureCode": "28",
    "prefectureNumber": 28,
    "prefecture": "兵庫県",
    "city": "明石市",
    "town": "西朝霧丘"
  },
  "6730857": {
    "zipcode": "6730857",
    "prefectureCode": "28",
    "prefectureNumber": 28,
    "prefecture": "兵庫県",
    "city": "明石市",
    "town": "北朝霧丘"
  },
  "6730860": {
    "zipcode": "6730860",
    "prefectureCode": "28",
    "prefectureNumber": 28,
    "prefecture": "兵庫県",
    "city": "明石市",
    "town": "朝霧東町"
  },
  "6730861": {
    "zipcode": "6730861",
    "prefectureCode": "28",
    "prefectureNumber": 28,
    "prefecture": "兵庫県",
    "city": "明石市",
    "town": "松が丘北町"
  },
  "6730862": {
    "zipcode": "6730862",
    "prefectureCode": "28",
    "prefectureNumber": 28,
    "prefecture": "兵庫県",
    "city": "明石市",
    "town": "松が丘"
  },
  "6730866": {
    "zipcode": "6730866",
    "prefectureCode": "28",
    "prefectureNumber": 28,
    "prefecture": "兵庫県",
    "city": "明石市",
    "town": "朝霧町"
  },
  "6730867": {
    "zipcode": "6730867",
    "prefectureCode": "28",
    "prefectureNumber": 28,
    "prefecture": "兵庫県",
    "city": "明石市",
    "town": "大蔵谷奥"
  },
  "6730868": {
    "zipcode": "6730868",
    "prefectureCode": "28",
    "prefectureNumber": 28,
    "prefecture": "兵庫県",
    "city": "明石市",
    "town": "東山町"
  },
  "6730870": {
    "zipcode": "6730870",
    "prefectureCode": "28",
    "prefectureNumber": 28,
    "prefecture": "兵庫県",
    "city": "明石市",
    "town": "朝霧南町"
  },
  "6730871": {
    "zipcode": "6730871",
    "prefectureCode": "28",
    "prefectureNumber": 28,
    "prefecture": "兵庫県",
    "city": "明石市",
    "town": "大蔵八幡町"
  },
  "6730872": {
    "zipcode": "6730872",
    "prefectureCode": "28",
    "prefectureNumber": 28,
    "prefecture": "兵庫県",
    "city": "明石市",
    "town": "大蔵町"
  },
  "6730873": {
    "zipcode": "6730873",
    "prefectureCode": "28",
    "prefectureNumber": 28,
    "prefecture": "兵庫県",
    "city": "明石市",
    "town": "大蔵中町"
  },
  "6730874": {
    "zipcode": "6730874",
    "prefectureCode": "28",
    "prefectureNumber": 28,
    "prefecture": "兵庫県",
    "city": "明石市",
    "town": "大蔵本町"
  },
  "6730875": {
    "zipcode": "6730875",
    "prefectureCode": "28",
    "prefectureNumber": 28,
    "prefecture": "兵庫県",
    "city": "明石市",
    "town": "大蔵天神町"
  },
  "6730876": {
    "zipcode": "6730876",
    "prefectureCode": "28",
    "prefectureNumber": 28,
    "prefecture": "兵庫県",
    "city": "明石市",
    "town": "東人丸町"
  },
  "6730877": {
    "zipcode": "6730877",
    "prefectureCode": "28",
    "prefectureNumber": 28,
    "prefecture": "兵庫県",
    "city": "明石市",
    "town": "人丸町"
  },
  "6730878": {
    "zipcode": "6730878",
    "prefectureCode": "28",
    "prefectureNumber": 28,
    "prefecture": "兵庫県",
    "city": "明石市",
    "town": "山下町"
  },
  "6730879": {
    "zipcode": "6730879",
    "prefectureCode": "28",
    "prefectureNumber": 28,
    "prefecture": "兵庫県",
    "city": "明石市",
    "town": "大蔵海岸通"
  },
  "6730881": {
    "zipcode": "6730881",
    "prefectureCode": "28",
    "prefectureNumber": 28,
    "prefecture": "兵庫県",
    "city": "明石市",
    "town": "天文町"
  },
  "6730882": {
    "zipcode": "6730882",
    "prefectureCode": "28",
    "prefectureNumber": 28,
    "prefecture": "兵庫県",
    "city": "明石市",
    "town": "相生町"
  },
  "6730883": {
    "zipcode": "6730883",
    "prefectureCode": "28",
    "prefectureNumber": 28,
    "prefecture": "兵庫県",
    "city": "明石市",
    "town": "中崎"
  },
  "6730884": {
    "zipcode": "6730884",
    "prefectureCode": "28",
    "prefectureNumber": 28,
    "prefecture": "兵庫県",
    "city": "明石市",
    "town": "鍛治屋町"
  },
  "6730885": {
    "zipcode": "6730885",
    "prefectureCode": "28",
    "prefectureNumber": 28,
    "prefecture": "兵庫県",
    "city": "明石市",
    "town": "桜町"
  },
  "6730886": {
    "zipcode": "6730886",
    "prefectureCode": "28",
    "prefectureNumber": 28,
    "prefecture": "兵庫県",
    "city": "明石市",
    "town": "東仲ノ町"
  },
  "6730891": {
    "zipcode": "6730891",
    "prefectureCode": "28",
    "prefectureNumber": 28,
    "prefecture": "兵庫県",
    "city": "明石市",
    "town": "大明石町"
  },
  "6730892": {
    "zipcode": "6730892",
    "prefectureCode": "28",
    "prefectureNumber": 28,
    "prefecture": "兵庫県",
    "city": "明石市",
    "town": "本町"
  },
  "6730893": {
    "zipcode": "6730893",
    "prefectureCode": "28",
    "prefectureNumber": 28,
    "prefecture": "兵庫県",
    "city": "明石市",
    "town": "材木町"
  },
  "6730894": {
    "zipcode": "6730894",
    "prefectureCode": "28",
    "prefectureNumber": 28,
    "prefecture": "兵庫県",
    "city": "明石市",
    "town": "港町"
  },
  "6730895": {
    "zipcode": "6730895",
    "prefectureCode": "28",
    "prefectureNumber": 28,
    "prefecture": "兵庫県",
    "city": "明石市",
    "town": "岬町"
  },
  "6730896": {
    "zipcode": "6730896",
    "prefectureCode": "28",
    "prefectureNumber": 28,
    "prefecture": "兵庫県",
    "city": "明石市",
    "town": "日富美町"
  },
  "6730897": {
    "zipcode": "6730897",
    "prefectureCode": "28",
    "prefectureNumber": 28,
    "prefecture": "兵庫県",
    "city": "明石市",
    "town": "大観町"
  },
  "6730898": {
    "zipcode": "6730898",
    "prefectureCode": "28",
    "prefectureNumber": 28,
    "prefecture": "兵庫県",
    "city": "明石市",
    "town": "樽屋町"
  },
  "6731101": {
    "zipcode": "6731101",
    "prefectureCode": "28",
    "prefectureNumber": 28,
    "prefecture": "兵庫県",
    "city": "三木市",
    "town": "吉川町新田"
  },
  "6731102": {
    "zipcode": "6731102",
    "prefectureCode": "28",
    "prefectureNumber": 28,
    "prefecture": "兵庫県",
    "city": "三木市",
    "town": "吉川町冨岡"
  },
  "6731103": {
    "zipcode": "6731103",
    "prefectureCode": "28",
    "prefectureNumber": 28,
    "prefecture": "兵庫県",
    "city": "三木市",
    "town": "吉川町前田"
  },
  "6731104": {
    "zipcode": "6731104",
    "prefectureCode": "28",
    "prefectureNumber": 28,
    "prefecture": "兵庫県",
    "city": "三木市",
    "town": "吉川町上中"
  },
  "6731105": {
    "zipcode": "6731105",
    "prefectureCode": "28",
    "prefectureNumber": 28,
    "prefecture": "兵庫県",
    "city": "三木市",
    "town": "吉川町古川"
  },
  "6731106": {
    "zipcode": "6731106",
    "prefectureCode": "28",
    "prefectureNumber": 28,
    "prefecture": "兵庫県",
    "city": "三木市",
    "town": "吉川町実楽"
  },
  "6731107": {
    "zipcode": "6731107",
    "prefectureCode": "28",
    "prefectureNumber": 28,
    "prefecture": "兵庫県",
    "city": "三木市",
    "town": "吉川町有安"
  },
  "6731108": {
    "zipcode": "6731108",
    "prefectureCode": "28",
    "prefectureNumber": 28,
    "prefecture": "兵庫県",
    "city": "三木市",
    "town": "吉川町古市"
  },
  "6731111": {
    "zipcode": "6731111",
    "prefectureCode": "28",
    "prefectureNumber": 28,
    "prefecture": "兵庫県",
    "city": "三木市",
    "town": "吉川町上荒川"
  },
  "6731112": {
    "zipcode": "6731112",
    "prefectureCode": "28",
    "prefectureNumber": 28,
    "prefecture": "兵庫県",
    "city": "三木市",
    "town": "吉川町畑枝"
  },
  "6731113": {
    "zipcode": "6731113",
    "prefectureCode": "28",
    "prefectureNumber": 28,
    "prefecture": "兵庫県",
    "city": "三木市",
    "town": "吉川町福井"
  },
  "6731114": {
    "zipcode": "6731114",
    "prefectureCode": "28",
    "prefectureNumber": 28,
    "prefecture": "兵庫県",
    "city": "三木市",
    "town": "吉川町吉安"
  },
  "6731115": {
    "zipcode": "6731115",
    "prefectureCode": "28",
    "prefectureNumber": 28,
    "prefecture": "兵庫県",
    "city": "三木市",
    "town": "吉川町大沢"
  },
  "6731116": {
    "zipcode": "6731116",
    "prefectureCode": "28",
    "prefectureNumber": 28,
    "prefecture": "兵庫県",
    "city": "三木市",
    "town": "吉川町大畑"
  },
  "6731117": {
    "zipcode": "6731117",
    "prefectureCode": "28",
    "prefectureNumber": 28,
    "prefecture": "兵庫県",
    "city": "三木市",
    "town": "吉川町みなぎ台"
  },
  "6731118": {
    "zipcode": "6731118",
    "prefectureCode": "28",
    "prefectureNumber": 28,
    "prefecture": "兵庫県",
    "city": "三木市",
    "town": "吉川町貸潮"
  },
  "6731119": {
    "zipcode": "6731119",
    "prefectureCode": "28",
    "prefectureNumber": 28,
    "prefecture": "兵庫県",
    "city": "三木市",
    "town": "吉川町鍛治屋"
  },
  "6731121": {
    "zipcode": "6731121",
    "prefectureCode": "28",
    "prefectureNumber": 28,
    "prefecture": "兵庫県",
    "city": "三木市",
    "town": "吉川町米田"
  },
  "6731122": {
    "zipcode": "6731122",
    "prefectureCode": "28",
    "prefectureNumber": 28,
    "prefecture": "兵庫県",
    "city": "三木市",
    "town": "吉川町西奥"
  },
  "6731123": {
    "zipcode": "6731123",
    "prefectureCode": "28",
    "prefectureNumber": 28,
    "prefecture": "兵庫県",
    "city": "三木市",
    "town": "吉川町湯谷"
  },
  "6731124": {
    "zipcode": "6731124",
    "prefectureCode": "28",
    "prefectureNumber": 28,
    "prefecture": "兵庫県",
    "city": "三木市",
    "town": "吉川町法光寺"
  },
  "6731125": {
    "zipcode": "6731125",
    "prefectureCode": "28",
    "prefectureNumber": 28,
    "prefecture": "兵庫県",
    "city": "三木市",
    "town": "吉川町田谷"
  },
  "6731126": {
    "zipcode": "6731126",
    "prefectureCode": "28",
    "prefectureNumber": 28,
    "prefecture": "兵庫県",
    "city": "三木市",
    "town": "吉川町上松"
  },
  "6731127": {
    "zipcode": "6731127",
    "prefectureCode": "28",
    "prefectureNumber": 28,
    "prefecture": "兵庫県",
    "city": "三木市",
    "town": "吉川町長谷"
  },
  "6731128": {
    "zipcode": "6731128",
    "prefectureCode": "28",
    "prefectureNumber": 28,
    "prefecture": "兵庫県",
    "city": "三木市",
    "town": "吉川町山上"
  },
  "6731129": {
    "zipcode": "6731129",
    "prefectureCode": "28",
    "prefectureNumber": 28,
    "prefecture": "兵庫県",
    "city": "三木市",
    "town": "吉川町渡瀬"
  },
  "6731231": {
    "zipcode": "6731231",
    "prefectureCode": "28",
    "prefectureNumber": 28,
    "prefecture": "兵庫県",
    "city": "三木市",
    "town": "吉川町稲田"
  },
  "6731232": {
    "zipcode": "6731232",
    "prefectureCode": "28",
    "prefectureNumber": 28,
    "prefecture": "兵庫県",
    "city": "三木市",
    "town": "吉川町金会"
  },
  "6731233": {
    "zipcode": "6731233",
    "prefectureCode": "28",
    "prefectureNumber": 28,
    "prefecture": "兵庫県",
    "city": "三木市",
    "town": "吉川町毘沙門"
  },
  "6731234": {
    "zipcode": "6731234",
    "prefectureCode": "28",
    "prefectureNumber": 28,
    "prefecture": "兵庫県",
    "city": "三木市",
    "town": "吉川町福吉"
  },
  "6731235": {
    "zipcode": "6731235",
    "prefectureCode": "28",
    "prefectureNumber": 28,
    "prefecture": "兵庫県",
    "city": "三木市",
    "town": "吉川町市野瀬"
  },
  "6731236": {
    "zipcode": "6731236",
    "prefectureCode": "28",
    "prefectureNumber": 28,
    "prefecture": "兵庫県",
    "city": "三木市",
    "town": "吉川町東田"
  },
  "6731241": {
    "zipcode": "6731241",
    "prefectureCode": "28",
    "prefectureNumber": 28,
    "prefecture": "兵庫県",
    "city": "三木市",
    "town": "吉川町楠原"
  },
  "6731242": {
    "zipcode": "6731242",
    "prefectureCode": "28",
    "prefectureNumber": 28,
    "prefecture": "兵庫県",
    "city": "三木市",
    "town": "吉川町奥谷"
  },
  "6731243": {
    "zipcode": "6731243",
    "prefectureCode": "28",
    "prefectureNumber": 28,
    "prefecture": "兵庫県",
    "city": "三木市",
    "town": "吉川町豊岡"
  },
  "6731244": {
    "zipcode": "6731244",
    "prefectureCode": "28",
    "prefectureNumber": 28,
    "prefecture": "兵庫県",
    "city": "三木市",
    "town": "吉川町水上"
  },
  "6731301": {
    "zipcode": "6731301",
    "prefectureCode": "28",
    "prefectureNumber": 28,
    "prefecture": "兵庫県",
    "city": "加東市",
    "town": "黒谷"
  },
  "6731302": {
    "zipcode": "6731302",
    "prefectureCode": "28",
    "prefectureNumber": 28,
    "prefecture": "兵庫県",
    "city": "加東市",
    "town": "秋津"
  },
  "6731303": {
    "zipcode": "6731303",
    "prefectureCode": "28",
    "prefectureNumber": 28,
    "prefecture": "兵庫県",
    "city": "加東市",
    "town": "少分谷"
  },
  "6731304": {
    "zipcode": "6731304",
    "prefectureCode": "28",
    "prefectureNumber": 28,
    "prefecture": "兵庫県",
    "city": "加東市",
    "town": "長貞"
  },
  "6731311": {
    "zipcode": "6731311",
    "prefectureCode": "28",
    "prefectureNumber": 28,
    "prefecture": "兵庫県",
    "city": "加東市",
    "town": "天神"
  },
  "6731312": {
    "zipcode": "6731312",
    "prefectureCode": "28",
    "prefectureNumber": 28,
    "prefecture": "兵庫県",
    "city": "加東市",
    "town": "掎鹿谷"
  },
  "6731313": {
    "zipcode": "6731313",
    "prefectureCode": "28",
    "prefectureNumber": 28,
    "prefecture": "兵庫県",
    "city": "加東市",
    "town": "永福"
  },
  "6731314": {
    "zipcode": "6731314",
    "prefectureCode": "28",
    "prefectureNumber": 28,
    "prefecture": "兵庫県",
    "city": "加東市",
    "town": "横谷"
  },
  "6731321": {
    "zipcode": "6731321",
    "prefectureCode": "28",
    "prefectureNumber": 28,
    "prefecture": "兵庫県",
    "city": "加東市",
    "town": "岩屋"
  },
  "6731322": {
    "zipcode": "6731322",
    "prefectureCode": "28",
    "prefectureNumber": 28,
    "prefecture": "兵庫県",
    "city": "加東市",
    "town": "森"
  },
  "6731323": {
    "zipcode": "6731323",
    "prefectureCode": "28",
    "prefectureNumber": 28,
    "prefecture": "兵庫県",
    "city": "加東市",
    "town": "岡本"
  },
  "6731324": {
    "zipcode": "6731324",
    "prefectureCode": "28",
    "prefectureNumber": 28,
    "prefecture": "兵庫県",
    "city": "加東市",
    "town": "新定"
  },
  "6731325": {
    "zipcode": "6731325",
    "prefectureCode": "28",
    "prefectureNumber": 28,
    "prefecture": "兵庫県",
    "city": "加東市",
    "town": "大畑"
  },
  "6731331": {
    "zipcode": "6731331",
    "prefectureCode": "28",
    "prefectureNumber": 28,
    "prefecture": "兵庫県",
    "city": "加東市",
    "town": "森尾"
  },
  "6731332": {
    "zipcode": "6731332",
    "prefectureCode": "28",
    "prefectureNumber": 28,
    "prefecture": "兵庫県",
    "city": "加東市",
    "town": "栄枝"
  },
  "6731333": {
    "zipcode": "6731333",
    "prefectureCode": "28",
    "prefectureNumber": 28,
    "prefecture": "兵庫県",
    "city": "加東市",
    "town": "小沢"
  },
  "6731334": {
    "zipcode": "6731334",
    "prefectureCode": "28",
    "prefectureNumber": 28,
    "prefecture": "兵庫県",
    "city": "加東市",
    "town": "吉井"
  },
  "6731335": {
    "zipcode": "6731335",
    "prefectureCode": "28",
    "prefectureNumber": 28,
    "prefecture": "兵庫県",
    "city": "加東市",
    "town": "藪"
  },
  "6731336": {
    "zipcode": "6731336",
    "prefectureCode": "28",
    "prefectureNumber": 28,
    "prefecture": "兵庫県",
    "city": "加東市",
    "town": "東垂水"
  },
  "6731337": {
    "zipcode": "6731337",
    "prefectureCode": "28",
    "prefectureNumber": 28,
    "prefecture": "兵庫県",
    "city": "加東市",
    "town": "松沢"
  },
  "6731338": {
    "zipcode": "6731338",
    "prefectureCode": "28",
    "prefectureNumber": 28,
    "prefecture": "兵庫県",
    "city": "加東市",
    "town": "厚利"
  },
  "6731341": {
    "zipcode": "6731341",
    "prefectureCode": "28",
    "prefectureNumber": 28,
    "prefecture": "兵庫県",
    "city": "加東市",
    "town": "南山"
  },
  "6731400": {
    "zipcode": "6731400",
    "prefectureCode": "28",
    "prefectureNumber": 28,
    "prefecture": "兵庫県",
    "city": "加東市",
    "town": "以下に掲載がない場合"
  },
  "6731401": {
    "zipcode": "6731401",
    "prefectureCode": "28",
    "prefectureNumber": 28,
    "prefecture": "兵庫県",
    "city": "加東市",
    "town": "上鴨川"
  },
  "6731402": {
    "zipcode": "6731402",
    "prefectureCode": "28",
    "prefectureNumber": 28,
    "prefecture": "兵庫県",
    "city": "加東市",
    "town": "平木"
  },
  "6731403": {
    "zipcode": "6731403",
    "prefectureCode": "28",
    "prefectureNumber": 28,
    "prefecture": "兵庫県",
    "city": "加東市",
    "town": "下鴨川"
  },
  "6731404": {
    "zipcode": "6731404",
    "prefectureCode": "28",
    "prefectureNumber": 28,
    "prefecture": "兵庫県",
    "city": "加東市",
    "town": "馬瀬"
  },
  "6731411": {
    "zipcode": "6731411",
    "prefectureCode": "28",
    "prefectureNumber": 28,
    "prefecture": "兵庫県",
    "city": "加東市",
    "town": "畑"
  },
  "6731412": {
    "zipcode": "6731412",
    "prefectureCode": "28",
    "prefectureNumber": 28,
    "prefecture": "兵庫県",
    "city": "加東市",
    "town": "廻渕"
  },
  "6731413": {
    "zipcode": "6731413",
    "prefectureCode": "28",
    "prefectureNumber": 28,
    "prefecture": "兵庫県",
    "city": "加東市",
    "town": "池之内"
  },
  "6731414": {
    "zipcode": "6731414",
    "prefectureCode": "28",
    "prefectureNumber": 28,
    "prefecture": "兵庫県",
    "city": "加東市",
    "town": "上久米"
  },
  "6731415": {
    "zipcode": "6731415",
    "prefectureCode": "28",
    "prefectureNumber": 28,
    "prefecture": "兵庫県",
    "city": "加東市",
    "town": "下久米"
  },
  "6731416": {
    "zipcode": "6731416",
    "prefectureCode": "28",
    "prefectureNumber": 28,
    "prefecture": "兵庫県",
    "city": "加東市",
    "town": "久米"
  },
  "6731421": {
    "zipcode": "6731421",
    "prefectureCode": "28",
    "prefectureNumber": 28,
    "prefecture": "兵庫県",
    "city": "加東市",
    "town": "山国"
  },
  "6731422": {
    "zipcode": "6731422",
    "prefectureCode": "28",
    "prefectureNumber": 28,
    "prefecture": "兵庫県",
    "city": "加東市",
    "town": "屋度"
  },
  "6731423": {
    "zipcode": "6731423",
    "prefectureCode": "28",
    "prefectureNumber": 28,
    "prefecture": "兵庫県",
    "city": "加東市",
    "town": "東古瀬"
  },
  "6731424": {
    "zipcode": "6731424",
    "prefectureCode": "28",
    "prefectureNumber": 28,
    "prefecture": "兵庫県",
    "city": "加東市",
    "town": "中古瀬"
  },
  "6731425": {
    "zipcode": "6731425",
    "prefectureCode": "28",
    "prefectureNumber": 28,
    "prefecture": "兵庫県",
    "city": "加東市",
    "town": "西古瀬"
  },
  "6731431": {
    "zipcode": "6731431",
    "prefectureCode": "28",
    "prefectureNumber": 28,
    "prefecture": "兵庫県",
    "city": "加東市",
    "town": "社"
  },
  "6731432": {
    "zipcode": "6731432",
    "prefectureCode": "28",
    "prefectureNumber": 28,
    "prefecture": "兵庫県",
    "city": "加東市",
    "town": "ひろのが丘"
  },
  "6731433": {
    "zipcode": "6731433",
    "prefectureCode": "28",
    "prefectureNumber": 28,
    "prefecture": "兵庫県",
    "city": "加東市",
    "town": "松尾"
  },
  "6731434": {
    "zipcode": "6731434",
    "prefectureCode": "28",
    "prefectureNumber": 28,
    "prefecture": "兵庫県",
    "city": "加東市",
    "town": "東実"
  },
  "6731441": {
    "zipcode": "6731441",
    "prefectureCode": "28",
    "prefectureNumber": 28,
    "prefecture": "兵庫県",
    "city": "加東市",
    "town": "田中"
  },
  "6731442": {
    "zipcode": "6731442",
    "prefectureCode": "28",
    "prefectureNumber": 28,
    "prefecture": "兵庫県",
    "city": "加東市",
    "town": "出水"
  },
  "6731443": {
    "zipcode": "6731443",
    "prefectureCode": "28",
    "prefectureNumber": 28,
    "prefecture": "兵庫県",
    "city": "加東市",
    "town": "福吉"
  },
  "6731444": {
    "zipcode": "6731444",
    "prefectureCode": "28",
    "prefectureNumber": 28,
    "prefecture": "兵庫県",
    "city": "加東市",
    "town": "沢部"
  },
  "6731445": {
    "zipcode": "6731445",
    "prefectureCode": "28",
    "prefectureNumber": 28,
    "prefecture": "兵庫県",
    "city": "加東市",
    "town": "大門"
  },
  "6731446": {
    "zipcode": "6731446",
    "prefectureCode": "28",
    "prefectureNumber": 28,
    "prefecture": "兵庫県",
    "city": "加東市",
    "town": "上田"
  },
  "6731447": {
    "zipcode": "6731447",
    "prefectureCode": "28",
    "prefectureNumber": 28,
    "prefecture": "兵庫県",
    "city": "加東市",
    "town": "佐保"
  },
  "6731451": {
    "zipcode": "6731451",
    "prefectureCode": "28",
    "prefectureNumber": 28,
    "prefecture": "兵庫県",
    "city": "加東市",
    "town": "家原"
  },
  "6731452": {
    "zipcode": "6731452",
    "prefectureCode": "28",
    "prefectureNumber": 28,
    "prefecture": "兵庫県",
    "city": "加東市",
    "town": "鳥居"
  },
  "6731453": {
    "zipcode": "6731453",
    "prefectureCode": "28",
    "prefectureNumber": 28,
    "prefecture": "兵庫県",
    "city": "加東市",
    "town": "貝原"
  },
  "6731454": {
    "zipcode": "6731454",
    "prefectureCode": "28",
    "prefectureNumber": 28,
    "prefecture": "兵庫県",
    "city": "加東市",
    "town": "野村"
  },
  "6731455": {
    "zipcode": "6731455",
    "prefectureCode": "28",
    "prefectureNumber": 28,
    "prefecture": "兵庫県",
    "city": "加東市",
    "town": "西垂水"
  },
  "6731456": {
    "zipcode": "6731456",
    "prefectureCode": "28",
    "prefectureNumber": 28,
    "prefecture": "兵庫県",
    "city": "加東市",
    "town": "窪田"
  },
  "6731461": {
    "zipcode": "6731461",
    "prefectureCode": "28",
    "prefectureNumber": 28,
    "prefecture": "兵庫県",
    "city": "加東市",
    "town": "木梨"
  },
  "6731462": {
    "zipcode": "6731462",
    "prefectureCode": "28",
    "prefectureNumber": 28,
    "prefecture": "兵庫県",
    "city": "加東市",
    "town": "藤田"
  },
  "6731463": {
    "zipcode": "6731463",
    "prefectureCode": "28",
    "prefectureNumber": 28,
    "prefecture": "兵庫県",
    "city": "加東市",
    "town": "梶原"
  },
  "6731464": {
    "zipcode": "6731464",
    "prefectureCode": "28",
    "prefectureNumber": 28,
    "prefecture": "兵庫県",
    "city": "加東市",
    "town": "上中"
  },
  "6731465": {
    "zipcode": "6731465",
    "prefectureCode": "28",
    "prefectureNumber": 28,
    "prefecture": "兵庫県",
    "city": "加東市",
    "town": "喜田"
  },
  "6731471": {
    "zipcode": "6731471",
    "prefectureCode": "28",
    "prefectureNumber": 28,
    "prefecture": "兵庫県",
    "city": "加東市",
    "town": "山口"
  },
  "6731472": {
    "zipcode": "6731472",
    "prefectureCode": "28",
    "prefectureNumber": 28,
    "prefecture": "兵庫県",
    "city": "加東市",
    "town": "上三草"
  },
  "6731473": {
    "zipcode": "6731473",
    "prefectureCode": "28",
    "prefectureNumber": 28,
    "prefecture": "兵庫県",
    "city": "加東市",
    "town": "下三草"
  },
  "6731474": {
    "zipcode": "6731474",
    "prefectureCode": "28",
    "prefectureNumber": 28,
    "prefecture": "兵庫県",
    "city": "加東市",
    "town": "牧野"
  },
  "6731475": {
    "zipcode": "6731475",
    "prefectureCode": "28",
    "prefectureNumber": 28,
    "prefecture": "兵庫県",
    "city": "加東市",
    "town": "吉馬"
  }
}
