{
  "6740050": {
    "zipcode": "6740050",
    "prefectureCode": "28",
    "prefectureNumber": 28,
    "prefecture": "兵庫県",
    "city": "明石市",
    "town": "大久保町松陰山手"
  },
  "6740051": {
    "zipcode": "6740051",
    "prefectureCode": "28",
    "prefectureNumber": 28,
    "prefecture": "兵庫県",
    "city": "明石市",
    "town": "大久保町大窪"
  },
  "6740052": {
    "zipcode": "6740052",
    "prefectureCode": "28",
    "prefectureNumber": 28,
    "prefecture": "兵庫県",
    "city": "明石市",
    "town": "大久保町松陰新田"
  },
  "6740053": {
    "zipcode": "6740053",
    "prefectureCode": "28",
    "prefectureNumber": 28,
    "prefecture": "兵庫県",
    "city": "明石市",
    "town": "大久保町松陰"
  },
  "6740054": {
    "zipcode": "6740054",
    "prefectureCode": "28",
    "prefectureNumber": 28,
    "prefecture": "兵庫県",
    "city": "明石市",
    "town": "大久保町西脇"
  },
  "6740055": {
    "zipcode": "6740055",
    "prefectureCode": "28",
    "prefectureNumber": 28,
    "prefecture": "兵庫県",
    "city": "明石市",
    "town": "大久保町緑が丘"
  },
  "6740056": {
    "zipcode": "6740056",
    "prefectureCode": "28",
    "prefectureNumber": 28,
    "prefecture": "兵庫県",
    "city": "明石市",
    "town": "大久保町山手台"
  },
  "6740057": {
    "zipcode": "6740057",
    "prefectureCode": "28",
    "prefectureNumber": 28,
    "prefecture": "兵庫県",
    "city": "明石市",
    "town": "大久保町高丘"
  },
  "6740058": {
    "zipcode": "6740058",
    "prefectureCode": "28",
    "prefectureNumber": 28,
    "prefecture": "兵庫県",
    "city": "明石市",
    "town": "大久保町駅前"
  },
  "6740059": {
    "zipcode": "6740059",
    "prefectureCode": "28",
    "prefectureNumber": 28,
    "prefecture": "兵庫県",
    "city": "明石市",
    "town": "大久保町茜"
  },
  "6740061": {
    "zipcode": "6740061",
    "prefectureCode": "28",
    "prefectureNumber": 28,
    "prefecture": "兵庫県",
    "city": "明石市",
    "town": "大久保町森田"
  },
  "6740062": {
    "zipcode": "6740062",
    "prefectureCode": "28",
    "prefectureNumber": 28,
    "prefecture": "兵庫県",
    "city": "明石市",
    "town": "大久保町谷八木"
  },
  "6740063": {
    "zipcode": "6740063",
    "prefectureCode": "28",
    "prefectureNumber": 28,
    "prefecture": "兵庫県",
    "city": "明石市",
    "town": "大久保町八木"
  },
  "6740064": {
    "zipcode": "6740064",
    "prefectureCode": "28",
    "prefectureNumber": 28,
    "prefecture": "兵庫県",
    "city": "明石市",
    "town": "大久保町江井島"
  },
  "6740065": {
    "zipcode": "6740065",
    "prefectureCode": "28",
    "prefectureNumber": 28,
    "prefecture": "兵庫県",
    "city": "明石市",
    "town": "大久保町西島"
  },
  "6740066": {
    "zipcode": "6740066",
    "prefectureCode": "28",
    "prefectureNumber": 28,
    "prefecture": "兵庫県",
    "city": "明石市",
    "town": "大久保町福田"
  },
  "6740067": {
    "zipcode": "6740067",
    "prefectureCode": "28",
    "prefectureNumber": 28,
    "prefecture": "兵庫県",
    "city": "明石市",
    "town": "大久保町大久保町"
  },
  "6740068": {
    "zipcode": "6740068",
    "prefectureCode": "28",
    "prefectureNumber": 28,
    "prefecture": "兵庫県",
    "city": "明石市",
    "town": "大久保町ゆりのき通"
  },
  "6740069": {
    "zipcode": "6740069",
    "prefectureCode": "28",
    "prefectureNumber": 28,
    "prefecture": "兵庫県",
    "city": "明石市",
    "town": "大久保町わかば"
  },
  "6740071": {
    "zipcode": "6740071",
    "prefectureCode": "28",
    "prefectureNumber": 28,
    "prefecture": "兵庫県",
    "city": "明石市",
    "town": "魚住町金ケ崎"
  },
  "6740072": {
    "zipcode": "6740072",
    "prefectureCode": "28",
    "prefectureNumber": 28,
    "prefecture": "兵庫県",
    "city": "明石市",
    "town": "魚住町長坂寺"
  },
  "6740073": {
    "zipcode": "6740073",
    "prefectureCode": "28",
    "prefectureNumber": 28,
    "prefecture": "兵庫県",
    "city": "明石市",
    "town": "魚住町鴨池"
  },
  "6740074": {
    "zipcode": "6740074",
    "prefectureCode": "28",
    "prefectureNumber": 28,
    "prefecture": "兵庫県",
    "city": "明石市",
    "town": "魚住町清水"
  },
  "6740081": {
    "zipcode": "6740081",
    "prefectureCode": "28",
    "prefectureNumber": 28,
    "prefecture": "兵庫県",
    "city": "明石市",
    "town": "魚住町錦が丘"
  },
  "6740082": {
    "zipcode": "6740082",
    "prefectureCode": "28",
    "prefectureNumber": 28,
    "prefecture": "兵庫県",
    "city": "明石市",
    "town": "魚住町中尾"
  },
  "6740083": {
    "zipcode": "6740083",
    "prefectureCode": "28",
    "prefectureNumber": 28,
    "prefecture": "兵庫県",
    "city": "明石市",
    "town": "魚住町住吉"
  },
  "6740084": {
    "zipcode": "6740084",
    "prefectureCode": "28",
    "prefectureNumber": 28,
    "prefecture": "兵庫県",
    "city": "明石市",
    "town": "魚住町西岡"
  },
  "6740091": {
    "zipcode": "6740091",
    "prefectureCode": "28",
    "prefectureNumber": 28,
    "prefecture": "兵庫県",
    "city": "明石市",
    "town": "二見町福里"
  },
  "6740092": {
    "zipcode": "6740092",
    "prefectureCode": "28",
    "prefectureNumber": 28,
    "prefecture": "兵庫県",
    "city": "明石市",
    "town": "二見町東二見"
  },
  "6740093": {
    "zipcode": "6740093",
    "prefectureCode": "28",
    "prefectureNumber": 28,
    "prefecture": "兵庫県",
    "city": "明石市",
    "town": "二見町南二見"
  },
  "6740094": {
    "zipcode": "6740094",
    "prefectureCode": "28",
    "prefectureNumber": 28,
    "prefecture": "兵庫県",
    "city": "明石市",
    "town": "二見町西二見"
  },
  "6740095": {
    "zipcode": "6740095",
    "prefectureCode": "28",
    "prefectureNumber": 28,
    "prefecture": "兵庫県",
    "city": "明石市",
    "town": "二見町西二見駅前"
  }
}
