{
  "6750000": {
    "zipcode": "6750000",
    "prefectureCode": "28",
    "prefectureNumber": 28,
    "prefecture": "兵庫県",
    "city": "加西市",
    "town": "以下に掲載がない場合"
  },
  "6750001": {
    "zipcode": "6750001",
    "prefectureCode": "28",
    "prefectureNumber": 28,
    "prefecture": "兵庫県",
    "city": "加古川市",
    "town": "西条山手"
  },
  "6750002": {
    "zipcode": "6750002",
    "prefectureCode": "28",
    "prefectureNumber": 28,
    "prefecture": "兵庫県",
    "city": "加古川市",
    "town": "山手"
  },
  "6750003": {
    "zipcode": "6750003",
    "prefectureCode": "28",
    "prefectureNumber": 28,
    "prefecture": "兵庫県",
    "city": "加古川市",
    "town": "神野町神野"
  },
  "6750004": {
    "zipcode": "6750004",
    "prefectureCode": "28",
    "prefectureNumber": 28,
    "prefecture": "兵庫県",
    "city": "加古川市",
    "town": "神野町福留"
  },
  "6750005": {
    "zipcode": "6750005",
    "prefectureCode": "28",
    "prefectureNumber": 28,
    "prefecture": "兵庫県",
    "city": "加古川市",
    "town": "神野町石守"
  },
  "6750006": {
    "zipcode": "6750006",
    "prefectureCode": "28",
    "prefectureNumber": 28,
    "prefecture": "兵庫県",
    "city": "加古川市",
    "town": "神野町日岡苑"
  },
  "6750007": {
    "zipcode": "6750007",
    "prefectureCode": "28",
    "prefectureNumber": 28,
    "prefecture": "兵庫県",
    "city": "加古川市",
    "town": "神野町西之山"
  },
  "6750008": {
    "zipcode": "6750008",
    "prefectureCode": "28",
    "prefectureNumber": 28,
    "prefecture": "兵庫県",
    "city": "加古川市",
    "town": "新神野"
  },
  "6750009": {
    "zipcode": "6750009",
    "prefectureCode": "28",
    "prefectureNumber": 28,
    "prefecture": "兵庫県",
    "city": "加古川市",
    "town": "神野町西条"
  },
  "6750010": {
    "zipcode": "6750010",
    "prefectureCode": "28",
    "prefectureNumber": 28,
    "prefecture": "兵庫県",
    "city": "加古川市",
    "town": "野口町坂元北"
  },
  "6750011": {
    "zipcode": "6750011",
    "prefectureCode": "28",
    "prefectureNumber": 28,
    "prefecture": "兵庫県",
    "city": "加古川市",
    "town": "野口町北野"
  },
  "6750012": {
    "zipcode": "6750012",
    "prefectureCode": "28",
    "prefectureNumber": 28,
    "prefecture": "兵庫県",
    "city": "加古川市",
    "town": "野口町野口"
  },
  "6750013": {
    "zipcode": "6750013",
    "prefectureCode": "28",
    "prefectureNumber": 28,
    "prefecture": "兵庫県",
    "city": "加古川市",
    "town": "野口町二屋"
  },
  "6750014": {
    "zipcode": "6750014",
    "prefectureCode": "28",
    "prefectureNumber": 28,
    "prefecture": "兵庫県",
    "city": "加古川市",
    "town": "野口町古大内"
  },
  "6750015": {
    "zipcode": "6750015",
    "prefectureCode": "28",
    "prefectureNumber": 28,
    "prefecture": "兵庫県",
    "city": "加古川市",
    "town": "野口町坂井"
  },
  "6750016": {
    "zipcode": "6750016",
    "prefectureCode": "28",
    "prefectureNumber": 28,
    "prefecture": "兵庫県",
    "city": "加古川市",
    "town": "野口町長砂"
  },
  "6750017": {
    "zipcode": "6750017",
    "prefectureCode": "28",
    "prefectureNumber": 28,
    "prefecture": "兵庫県",
    "city": "加古川市",
    "town": "野口町良野"
  },
  "6750018": {
    "zipcode": "6750018",
    "prefectureCode": "28",
    "prefectureNumber": 28,
    "prefecture": "兵庫県",
    "city": "加古川市",
    "town": "野口町坂元"
  },
  "6750019": {
    "zipcode": "6750019",
    "prefectureCode": "28",
    "prefectureNumber": 28,
    "prefecture": "兵庫県",
    "city": "加古川市",
    "town": "野口町水足"
  },
  "6750021": {
    "zipcode": "6750021",
    "prefectureCode": "28",
    "prefectureNumber": 28,
    "prefecture": "兵庫県",
    "city": "加古川市",
    "town": "尾上町安田"
  },
  "6750022": {
    "zipcode": "6750022",
    "prefectureCode": "28",
    "prefectureNumber": 28,
    "prefecture": "兵庫県",
    "city": "加古川市",
    "town": "尾上町口里"
  },
  "6750023": {
    "zipcode": "6750023",
    "prefectureCode": "28",
    "prefectureNumber": 28,
    "prefecture": "兵庫県",
    "city": "加古川市",
    "town": "尾上町池田"
  },
  "6750024": {
    "zipcode": "6750024",
    "prefectureCode": "28",
    "prefectureNumber": 28,
    "prefecture": "兵庫県",
    "city": "加古川市",
    "town": "尾上町長田"
  },
  "6750025": {
    "zipcode": "6750025",
    "prefectureCode": "28",
    "prefectureNumber": 28,
    "prefecture": "兵庫県",
    "city": "加古川市",
    "town": "尾上町養田"
  },
  "6750026": {
    "zipcode": "6750026",
    "prefectureCode": "28",
    "prefectureNumber": 28,
    "prefecture": "兵庫県",
    "city": "加古川市",
    "town": "尾上町旭"
  },
  "6750027": {
    "zipcode": "6750027",
    "prefectureCode": "28",
    "prefectureNumber": 28,
    "prefecture": "兵庫県",
    "city": "加古川市",
    "town": "尾上町今福"
  },
  "6750031": {
    "zipcode": "6750031",
    "prefectureCode": "28",
    "prefectureNumber": 28,
    "prefecture": "兵庫県",
    "city": "加古川市",
    "town": "加古川町北在家"
  },
  "6750032": {
    "zipcode": "6750032",
    "prefectureCode": "28",
    "prefectureNumber": 28,
    "prefecture": "兵庫県",
    "city": "加古川市",
    "town": "加古川町備後"
  },
  "6750033": {
    "zipcode": "6750033",
    "prefectureCode": "28",
    "prefectureNumber": 28,
    "prefecture": "兵庫県",
    "city": "加古川市",
    "town": "加古川町南備後"
  },
  "6750034": {
    "zipcode": "6750034",
    "prefectureCode": "28",
    "prefectureNumber": 28,
    "prefecture": "兵庫県",
    "city": "加古川市",
    "town": "加古川町稲屋"
  },
  "6750035": {
    "zipcode": "6750035",
    "prefectureCode": "28",
    "prefectureNumber": 28,
    "prefecture": "兵庫県",
    "city": "加古川市",
    "town": "加古川町友沢"
  },
  "6750036": {
    "zipcode": "6750036",
    "prefectureCode": "28",
    "prefectureNumber": 28,
    "prefecture": "兵庫県",
    "city": "加古川市",
    "town": "加古川町西河原"
  },
  "6750037": {
    "zipcode": "6750037",
    "prefectureCode": "28",
    "prefectureNumber": 28,
    "prefecture": "兵庫県",
    "city": "加古川市",
    "town": "加古川町本町"
  },
  "6750038": {
    "zipcode": "6750038",
    "prefectureCode": "28",
    "prefectureNumber": 28,
    "prefecture": "兵庫県",
    "city": "加古川市",
    "town": "加古川町木村"
  },
  "6750039": {
    "zipcode": "6750039",
    "prefectureCode": "28",
    "prefectureNumber": 28,
    "prefecture": "兵庫県",
    "city": "加古川市",
    "town": "加古川町粟津"
  },
  "6750041": {
    "zipcode": "6750041",
    "prefectureCode": "28",
    "prefectureNumber": 28,
    "prefecture": "兵庫県",
    "city": "加古川市",
    "town": "西神吉町宮前"
  },
  "6750042": {
    "zipcode": "6750042",
    "prefectureCode": "28",
    "prefectureNumber": 28,
    "prefecture": "兵庫県",
    "city": "加古川市",
    "town": "西神吉町西村"
  },
  "6750043": {
    "zipcode": "6750043",
    "prefectureCode": "28",
    "prefectureNumber": 28,
    "prefecture": "兵庫県",
    "city": "加古川市",
    "town": "西神吉町中西"
  },
  "6750044": {
    "zipcode": "6750044",
    "prefectureCode": "28",
    "prefectureNumber": 28,
    "prefecture": "兵庫県",
    "city": "加古川市",
    "town": "西神吉町大国"
  },
  "6750045": {
    "zipcode": "6750045",
    "prefectureCode": "28",
    "prefectureNumber": 28,
    "prefecture": "兵庫県",
    "city": "加古川市",
    "town": "西神吉町岸"
  },
  "6750046": {
    "zipcode": "6750046",
    "prefectureCode": "28",
    "prefectureNumber": 28,
    "prefecture": "兵庫県",
    "city": "加古川市",
    "town": "西神吉町辻"
  },
  "6750047": {
    "zipcode": "6750047",
    "prefectureCode": "28",
    "prefectureNumber": 28,
    "prefecture": "兵庫県",
    "city": "加古川市",
    "town": "西神吉町鼎"
  },
  "6750051": {
    "zipcode": "6750051",
    "prefectureCode": "28",
    "prefectureNumber": 28,
    "prefecture": "兵庫県",
    "city": "加古川市",
    "town": "東神吉町升田"
  },
  "6750052": {
    "zipcode": "6750052",
    "prefectureCode": "28",
    "prefectureNumber": 28,
    "prefecture": "兵庫県",
    "city": "加古川市",
    "town": "東神吉町出河原"
  },
  "6750053": {
    "zipcode": "6750053",
    "prefectureCode": "28",
    "prefectureNumber": 28,
    "prefecture": "兵庫県",
    "city": "加古川市",
    "town": "米田町船頭"
  },
  "6750054": {
    "zipcode": "6750054",
    "prefectureCode": "28",
    "prefectureNumber": 28,
    "prefecture": "兵庫県",
    "city": "加古川市",
    "town": "米田町平津"
  },
  "6750055": {
    "zipcode": "6750055",
    "prefectureCode": "28",
    "prefectureNumber": 28,
    "prefecture": "兵庫県",
    "city": "加古川市",
    "town": "東神吉町西井ノ口"
  },
  "6750056": {
    "zipcode": "6750056",
    "prefectureCode": "28",
    "prefectureNumber": 28,
    "prefecture": "兵庫県",
    "city": "加古川市",
    "town": "東神吉町砂部"
  },
  "6750057": {
    "zipcode": "6750057",
    "prefectureCode": "28",
    "prefectureNumber": 28,
    "prefecture": "兵庫県",
    "city": "加古川市",
    "town": "東神吉町神吉"
  },
  "6750058": {
    "zipcode": "6750058",
    "prefectureCode": "28",
    "prefectureNumber": 28,
    "prefecture": "兵庫県",
    "city": "加古川市",
    "town": "東神吉町天下原"
  },
  "6750061": {
    "zipcode": "6750061",
    "prefectureCode": "28",
    "prefectureNumber": 28,
    "prefecture": "兵庫県",
    "city": "加古川市",
    "town": "加古川町大野"
  },
  "6750062": {
    "zipcode": "6750062",
    "prefectureCode": "28",
    "prefectureNumber": 28,
    "prefecture": "兵庫県",
    "city": "加古川市",
    "town": "加古川町美乃利"
  },
  "6750063": {
    "zipcode": "6750063",
    "prefectureCode": "28",
    "prefectureNumber": 28,
    "prefecture": "兵庫県",
    "city": "加古川市",
    "town": "加古川町平野"
  },
  "6750064": {
    "zipcode": "6750064",
    "prefectureCode": "28",
    "prefectureNumber": 28,
    "prefecture": "兵庫県",
    "city": "加古川市",
    "town": "加古川町溝之口"
  },
  "6750065": {
    "zipcode": "6750065",
    "prefectureCode": "28",
    "prefectureNumber": 28,
    "prefecture": "兵庫県",
    "city": "加古川市",
    "town": "加古川町篠原町"
  },
  "6750066": {
    "zipcode": "6750066",
    "prefectureCode": "28",
    "prefectureNumber": 28,
    "prefecture": "兵庫県",
    "city": "加古川市",
    "town": "加古川町寺家町"
  },
  "6750067": {
    "zipcode": "6750067",
    "prefectureCode": "28",
    "prefectureNumber": 28,
    "prefecture": "兵庫県",
    "city": "加古川市",
    "town": "加古川町河原"
  },
  "6750068": {
    "zipcode": "6750068",
    "prefectureCode": "28",
    "prefectureNumber": 28,
    "prefecture": "兵庫県",
    "city": "加古川市",
    "town": "加古川町中津"
  },
  "6750100": {
    "zipcode": "6750100",
    "prefectureCode": "28",
    "prefectureNumber": 28,
    "prefecture": "兵庫県",
    "city": "加古郡播磨町",
    "town": "以下に掲載がない場合"
  },
  "6750101": {
    "zipcode": "6750101",
    "prefectureCode": "28",
    "prefectureNumber": 28,
    "prefecture": "兵庫県",
    "city": "加古川市",
    "town": "平岡町新在家"
  },
  "6750102": {
    "zipcode": "6750102",
    "prefectureCode": "28",
    "prefectureNumber": 28,
    "prefecture": "兵庫県",
    "city": "加古川市",
    "town": "平岡町西谷"
  },
  "6750103": {
    "zipcode": "6750103",
    "prefectureCode": "28",
    "prefectureNumber": 28,
    "prefecture": "兵庫県",
    "city": "加古川市",
    "town": "平岡町高畑"
  },
  "6750104": {
    "zipcode": "6750104",
    "prefectureCode": "28",
    "prefectureNumber": 28,
    "prefecture": "兵庫県",
    "city": "加古川市",
    "town": "平岡町土山"
  },
  "6750105": {
    "zipcode": "6750105",
    "prefectureCode": "28",
    "prefectureNumber": 28,
    "prefecture": "兵庫県",
    "city": "加古川市",
    "town": "平岡町つつじ野"
  },
  "6750111": {
    "zipcode": "6750111",
    "prefectureCode": "28",
    "prefectureNumber": 28,
    "prefecture": "兵庫県",
    "city": "加古川市",
    "town": "平岡町二俣"
  },
  "6750112": {
    "zipcode": "6750112",
    "prefectureCode": "28",
    "prefectureNumber": 28,
    "prefecture": "兵庫県",
    "city": "加古川市",
    "town": "平岡町山之上"
  },
  "6750113": {
    "zipcode": "6750113",
    "prefectureCode": "28",
    "prefectureNumber": 28,
    "prefecture": "兵庫県",
    "city": "加古川市",
    "town": "平岡町中野"
  },
  "6750114": {
    "zipcode": "6750114",
    "prefectureCode": "28",
    "prefectureNumber": 28,
    "prefecture": "兵庫県",
    "city": "加古川市",
    "town": "平岡町八反田"
  },
  "6750115": {
    "zipcode": "6750115",
    "prefectureCode": "28",
    "prefectureNumber": 28,
    "prefecture": "兵庫県",
    "city": "加古川市",
    "town": "平岡町一色"
  },
  "6750116": {
    "zipcode": "6750116",
    "prefectureCode": "28",
    "prefectureNumber": 28,
    "prefecture": "兵庫県",
    "city": "加古川市",
    "town": "平岡町一色東"
  },
  "6750117": {
    "zipcode": "6750117",
    "prefectureCode": "28",
    "prefectureNumber": 28,
    "prefecture": "兵庫県",
    "city": "加古川市",
    "town": "平岡町一色西"
  },
  "6750121": {
    "zipcode": "6750121",
    "prefectureCode": "28",
    "prefectureNumber": 28,
    "prefecture": "兵庫県",
    "city": "加古川市",
    "town": "別府町新野辺北町"
  },
  "6750122": {
    "zipcode": "6750122",
    "prefectureCode": "28",
    "prefectureNumber": 28,
    "prefecture": "兵庫県",
    "city": "加古川市",
    "town": "別府町別府"
  },
  "6750123": {
    "zipcode": "6750123",
    "prefectureCode": "28",
    "prefectureNumber": 28,
    "prefecture": "兵庫県",
    "city": "加古川市",
    "town": "別府町朝日町"
  },
  "6750124": {
    "zipcode": "6750124",
    "prefectureCode": "28",
    "prefectureNumber": 28,
    "prefecture": "兵庫県",
    "city": "加古川市",
    "town": "別府町緑町"
  },
  "6750125": {
    "zipcode": "6750125",
    "prefectureCode": "28",
    "prefectureNumber": 28,
    "prefecture": "兵庫県",
    "city": "加古川市",
    "town": "別府町西脇"
  },
  "6750126": {
    "zipcode": "6750126",
    "prefectureCode": "28",
    "prefectureNumber": 28,
    "prefecture": "兵庫県",
    "city": "加古川市",
    "town": "別府町本町"
  },
  "6750127": {
    "zipcode": "6750127",
    "prefectureCode": "28",
    "prefectureNumber": 28,
    "prefecture": "兵庫県",
    "city": "加古川市",
    "town": "別府町石町"
  },
  "6750128": {
    "zipcode": "6750128",
    "prefectureCode": "28",
    "prefectureNumber": 28,
    "prefecture": "兵庫県",
    "city": "加古川市",
    "town": "別府町中島町"
  },
  "6750131": {
    "zipcode": "6750131",
    "prefectureCode": "28",
    "prefectureNumber": 28,
    "prefecture": "兵庫県",
    "city": "加古川市",
    "town": "別府町新野辺"
  },
  "6750132": {
    "zipcode": "6750132",
    "prefectureCode": "28",
    "prefectureNumber": 28,
    "prefecture": "兵庫県",
    "city": "加古川市",
    "town": "別府町宮田町"
  },
  "6750133": {
    "zipcode": "6750133",
    "prefectureCode": "28",
    "prefectureNumber": 28,
    "prefecture": "兵庫県",
    "city": "加古川市",
    "town": "別府町西町"
  },
  "6750134": {
    "zipcode": "6750134",
    "prefectureCode": "28",
    "prefectureNumber": 28,
    "prefecture": "兵庫県",
    "city": "加古川市",
    "town": "別府町元町"
  },
  "6750135": {
    "zipcode": "6750135",
    "prefectureCode": "28",
    "prefectureNumber": 28,
    "prefecture": "兵庫県",
    "city": "加古川市",
    "town": "別府町東町"
  },
  "6750136": {
    "zipcode": "6750136",
    "prefectureCode": "28",
    "prefectureNumber": 28,
    "prefecture": "兵庫県",
    "city": "加古川市",
    "town": "別府町港町"
  },
  "6750137": {
    "zipcode": "6750137",
    "prefectureCode": "28",
    "prefectureNumber": 28,
    "prefecture": "兵庫県",
    "city": "加古川市",
    "town": "金沢町"
  },
  "6750141": {
    "zipcode": "6750141",
    "prefectureCode": "28",
    "prefectureNumber": 28,
    "prefecture": "兵庫県",
    "city": "加古郡播磨町",
    "town": "野添城"
  },
  "6750142": {
    "zipcode": "6750142",
    "prefectureCode": "28",
    "prefectureNumber": 28,
    "prefecture": "兵庫県",
    "city": "加古郡播磨町",
    "town": "大中"
  },
  "6750143": {
    "zipcode": "6750143",
    "prefectureCode": "28",
    "prefectureNumber": 28,
    "prefecture": "兵庫県",
    "city": "加古郡播磨町",
    "town": "宮北"
  },
  "6750144": {
    "zipcode": "6750144",
    "prefectureCode": "28",
    "prefectureNumber": 28,
    "prefecture": "兵庫県",
    "city": "加古郡播磨町",
    "town": "北本荘"
  },
  "6750145": {
    "zipcode": "6750145",
    "prefectureCode": "28",
    "prefectureNumber": 28,
    "prefecture": "兵庫県",
    "city": "加古郡播磨町",
    "town": "宮西"
  },
  "6750146": {
    "zipcode": "6750146",
    "prefectureCode": "28",
    "prefectureNumber": 28,
    "prefecture": "兵庫県",
    "city": "加古郡播磨町",
    "town": "古田"
  },
  "6750147": {
    "zipcode": "6750147",
    "prefectureCode": "28",
    "prefectureNumber": 28,
    "prefecture": "兵庫県",
    "city": "加古郡播磨町",
    "town": "南大中"
  },
  "6750148": {
    "zipcode": "6750148",
    "prefectureCode": "28",
    "prefectureNumber": 28,
    "prefecture": "兵庫県",
    "city": "加古郡播磨町",
    "town": "北古田"
  },
  "6750150": {
    "zipcode": "6750150",
    "prefectureCode": "28",
    "prefectureNumber": 28,
    "prefecture": "兵庫県",
    "city": "加古郡播磨町",
    "town": "南野添"
  },
  "6750151": {
    "zipcode": "6750151",
    "prefectureCode": "28",
    "prefectureNumber": 28,
    "prefecture": "兵庫県",
    "city": "加古郡播磨町",
    "town": "野添"
  },
  "6750154": {
    "zipcode": "6750154",
    "prefectureCode": "28",
    "prefectureNumber": 28,
    "prefecture": "兵庫県",
    "city": "加古郡播磨町",
    "town": "本荘"
  },
  "6750155": {
    "zipcode": "6750155",
    "prefectureCode": "28",
    "prefectureNumber": 28,
    "prefecture": "兵庫県",
    "city": "加古郡播磨町",
    "town": "新島"
  },
  "6750156": {
    "zipcode": "6750156",
    "prefectureCode": "28",
    "prefectureNumber": 28,
    "prefecture": "兵庫県",
    "city": "加古郡播磨町",
    "town": "東本荘"
  },
  "6750157": {
    "zipcode": "6750157",
    "prefectureCode": "28",
    "prefectureNumber": 28,
    "prefecture": "兵庫県",
    "city": "加古郡播磨町",
    "town": "上野添"
  },
  "6750158": {
    "zipcode": "6750158",
    "prefectureCode": "28",
    "prefectureNumber": 28,
    "prefecture": "兵庫県",
    "city": "加古郡播磨町",
    "town": "北野添"
  },
  "6750159": {
    "zipcode": "6750159",
    "prefectureCode": "28",
    "prefectureNumber": 28,
    "prefecture": "兵庫県",
    "city": "加古郡播磨町",
    "town": "東野添"
  },
  "6750160": {
    "zipcode": "6750160",
    "prefectureCode": "28",
    "prefectureNumber": 28,
    "prefecture": "兵庫県",
    "city": "加古郡播磨町",
    "town": "西野添"
  },
  "6750162": {
    "zipcode": "6750162",
    "prefectureCode": "28",
    "prefectureNumber": 28,
    "prefecture": "兵庫県",
    "city": "加古郡播磨町",
    "town": "二子"
  },
  "6750163": {
    "zipcode": "6750163",
    "prefectureCode": "28",
    "prefectureNumber": 28,
    "prefecture": "兵庫県",
    "city": "加古郡播磨町",
    "town": "古宮"
  },
  "6750164": {
    "zipcode": "6750164",
    "prefectureCode": "28",
    "prefectureNumber": 28,
    "prefecture": "兵庫県",
    "city": "加古郡播磨町",
    "town": "東新島"
  },
  "6750301": {
    "zipcode": "6750301",
    "prefectureCode": "28",
    "prefectureNumber": 28,
    "prefecture": "兵庫県",
    "city": "加古川市",
    "town": "志方町大澤"
  },
  "6750302": {
    "zipcode": "6750302",
    "prefectureCode": "28",
    "prefectureNumber": 28,
    "prefecture": "兵庫県",
    "city": "加古川市",
    "town": "志方町野尻"
  },
  "6750303": {
    "zipcode": "6750303",
    "prefectureCode": "28",
    "prefectureNumber": 28,
    "prefecture": "兵庫県",
    "city": "加古川市",
    "town": "志方町細工所"
  },
  "6750304": {
    "zipcode": "6750304",
    "prefectureCode": "28",
    "prefectureNumber": 28,
    "prefecture": "兵庫県",
    "city": "加古川市",
    "town": "志方町高畑"
  },
  "6750305": {
    "zipcode": "6750305",
    "prefectureCode": "28",
    "prefectureNumber": 28,
    "prefecture": "兵庫県",
    "city": "加古川市",
    "town": "志方町大宗"
  },
  "6750306": {
    "zipcode": "6750306",
    "prefectureCode": "28",
    "prefectureNumber": 28,
    "prefecture": "兵庫県",
    "city": "加古川市",
    "town": "志方町東中"
  },
  "6750311": {
    "zipcode": "6750311",
    "prefectureCode": "28",
    "prefectureNumber": 28,
    "prefecture": "兵庫県",
    "city": "加古川市",
    "town": "志方町岡"
  },
  "6750312": {
    "zipcode": "6750312",
    "prefectureCode": "28",
    "prefectureNumber": 28,
    "prefecture": "兵庫県",
    "city": "加古川市",
    "town": "志方町広尾"
  },
  "6750313": {
    "zipcode": "6750313",
    "prefectureCode": "28",
    "prefectureNumber": 28,
    "prefecture": "兵庫県",
    "city": "加古川市",
    "town": "志方町投松"
  },
  "6750314": {
    "zipcode": "6750314",
    "prefectureCode": "28",
    "prefectureNumber": 28,
    "prefecture": "兵庫県",
    "city": "加古川市",
    "town": "志方町上冨木"
  },
  "6750321": {
    "zipcode": "6750321",
    "prefectureCode": "28",
    "prefectureNumber": 28,
    "prefecture": "兵庫県",
    "city": "加古川市",
    "town": "志方町志方町"
  },
  "6750331": {
    "zipcode": "6750331",
    "prefectureCode": "28",
    "prefectureNumber": 28,
    "prefecture": "兵庫県",
    "city": "加古川市",
    "town": "志方町西牧"
  },
  "6750332": {
    "zipcode": "6750332",
    "prefectureCode": "28",
    "prefectureNumber": 28,
    "prefecture": "兵庫県",
    "city": "加古川市",
    "town": "志方町横大路"
  },
  "6750333": {
    "zipcode": "6750333",
    "prefectureCode": "28",
    "prefectureNumber": 28,
    "prefecture": "兵庫県",
    "city": "加古川市",
    "town": "志方町西山"
  },
  "6750334": {
    "zipcode": "6750334",
    "prefectureCode": "28",
    "prefectureNumber": 28,
    "prefecture": "兵庫県",
    "city": "加古川市",
    "town": "志方町成井"
  },
  "6750335": {
    "zipcode": "6750335",
    "prefectureCode": "28",
    "prefectureNumber": 28,
    "prefecture": "兵庫県",
    "city": "加古川市",
    "town": "志方町原"
  },
  "6750336": {
    "zipcode": "6750336",
    "prefectureCode": "28",
    "prefectureNumber": 28,
    "prefecture": "兵庫県",
    "city": "加古川市",
    "town": "志方町山中"
  },
  "6750341": {
    "zipcode": "6750341",
    "prefectureCode": "28",
    "prefectureNumber": 28,
    "prefecture": "兵庫県",
    "city": "加古川市",
    "town": "志方町畑"
  },
  "6750342": {
    "zipcode": "6750342",
    "prefectureCode": "28",
    "prefectureNumber": 28,
    "prefecture": "兵庫県",
    "city": "加古川市",
    "town": "志方町雑郷"
  },
  "6750343": {
    "zipcode": "6750343",
    "prefectureCode": "28",
    "prefectureNumber": 28,
    "prefecture": "兵庫県",
    "city": "加古川市",
    "town": "志方町行常"
  },
  "6750344": {
    "zipcode": "6750344",
    "prefectureCode": "28",
    "prefectureNumber": 28,
    "prefecture": "兵庫県",
    "city": "加古川市",
    "town": "志方町東飯坂"
  },
  "6750345": {
    "zipcode": "6750345",
    "prefectureCode": "28",
    "prefectureNumber": 28,
    "prefecture": "兵庫県",
    "city": "加古川市",
    "town": "志方町西飯坂"
  },
  "6750346": {
    "zipcode": "6750346",
    "prefectureCode": "28",
    "prefectureNumber": 28,
    "prefecture": "兵庫県",
    "city": "加古川市",
    "town": "志方町西中"
  },
  "6750347": {
    "zipcode": "6750347",
    "prefectureCode": "28",
    "prefectureNumber": 28,
    "prefecture": "兵庫県",
    "city": "加古川市",
    "town": "志方町永室"
  },
  "6751100": {
    "zipcode": "6751100",
    "prefectureCode": "28",
    "prefectureNumber": 28,
    "prefecture": "兵庫県",
    "city": "加古郡稲美町",
    "town": "以下に掲載がない場合"
  },
  "6751101": {
    "zipcode": "6751101",
    "prefectureCode": "28",
    "prefectureNumber": 28,
    "prefecture": "兵庫県",
    "city": "加古郡稲美町",
    "town": "下草谷"
  },
  "6751102": {
    "zipcode": "6751102",
    "prefectureCode": "28",
    "prefectureNumber": 28,
    "prefecture": "兵庫県",
    "city": "加古郡稲美町",
    "town": "草谷"
  },
  "6751103": {
    "zipcode": "6751103",
    "prefectureCode": "28",
    "prefectureNumber": 28,
    "prefecture": "兵庫県",
    "city": "加古郡稲美町",
    "town": "野谷"
  },
  "6751104": {
    "zipcode": "6751104",
    "prefectureCode": "28",
    "prefectureNumber": 28,
    "prefecture": "兵庫県",
    "city": "加古郡稲美町",
    "town": "野寺"
  },
  "6751105": {
    "zipcode": "6751105",
    "prefectureCode": "28",
    "prefectureNumber": 28,
    "prefecture": "兵庫県",
    "city": "加古郡稲美町",
    "town": "加古"
  },
  "6751111": {
    "zipcode": "6751111",
    "prefectureCode": "28",
    "prefectureNumber": 28,
    "prefecture": "兵庫県",
    "city": "加古郡稲美町",
    "town": "印南"
  },
  "6751112": {
    "zipcode": "6751112",
    "prefectureCode": "28",
    "prefectureNumber": 28,
    "prefecture": "兵庫県",
    "city": "加古郡稲美町",
    "town": "六分一"
  },
  "6751113": {
    "zipcode": "6751113",
    "prefectureCode": "28",
    "prefectureNumber": 28,
    "prefecture": "兵庫県",
    "city": "加古郡稲美町",
    "town": "岡"
  },
  "6751114": {
    "zipcode": "6751114",
    "prefectureCode": "28",
    "prefectureNumber": 28,
    "prefecture": "兵庫県",
    "city": "加古郡稲美町",
    "town": "国安"
  },
  "6751115": {
    "zipcode": "6751115",
    "prefectureCode": "28",
    "prefectureNumber": 28,
    "prefecture": "兵庫県",
    "city": "加古郡稲美町",
    "town": "国岡"
  },
  "6751116": {
    "zipcode": "6751116",
    "prefectureCode": "28",
    "prefectureNumber": 28,
    "prefecture": "兵庫県",
    "city": "加古郡稲美町",
    "town": "蛸草"
  },
  "6751121": {
    "zipcode": "6751121",
    "prefectureCode": "28",
    "prefectureNumber": 28,
    "prefecture": "兵庫県",
    "city": "加古郡稲美町",
    "town": "北山"
  },
  "6751122": {
    "zipcode": "6751122",
    "prefectureCode": "28",
    "prefectureNumber": 28,
    "prefecture": "兵庫県",
    "city": "加古郡稲美町",
    "town": "中村"
  },
  "6751123": {
    "zipcode": "6751123",
    "prefectureCode": "28",
    "prefectureNumber": 28,
    "prefecture": "兵庫県",
    "city": "加古郡稲美町",
    "town": "国北"
  },
  "6751124": {
    "zipcode": "6751124",
    "prefectureCode": "28",
    "prefectureNumber": 28,
    "prefecture": "兵庫県",
    "city": "加古郡稲美町",
    "town": "森安"
  },
  "6751125": {
    "zipcode": "6751125",
    "prefectureCode": "28",
    "prefectureNumber": 28,
    "prefecture": "兵庫県",
    "city": "加古郡稲美町",
    "town": "和田"
  },
  "6751126": {
    "zipcode": "6751126",
    "prefectureCode": "28",
    "prefectureNumber": 28,
    "prefecture": "兵庫県",
    "city": "加古郡稲美町",
    "town": "幸竹"
  },
  "6751127": {
    "zipcode": "6751127",
    "prefectureCode": "28",
    "prefectureNumber": 28,
    "prefecture": "兵庫県",
    "city": "加古郡稲美町",
    "town": "中一色"
  },
  "6751201": {
    "zipcode": "6751201",
    "prefectureCode": "28",
    "prefectureNumber": 28,
    "prefecture": "兵庫県",
    "city": "加古川市",
    "town": "八幡町宗佐"
  },
  "6751202": {
    "zipcode": "6751202",
    "prefectureCode": "28",
    "prefectureNumber": 28,
    "prefecture": "兵庫県",
    "city": "加古川市",
    "town": "八幡町野村"
  },
  "6751203": {
    "zipcode": "6751203",
    "prefectureCode": "28",
    "prefectureNumber": 28,
    "prefecture": "兵庫県",
    "city": "加古川市",
    "town": "八幡町下村"
  },
  "6751204": {
    "zipcode": "6751204",
    "prefectureCode": "28",
    "prefectureNumber": 28,
    "prefecture": "兵庫県",
    "city": "加古川市",
    "town": "八幡町上西条"
  },
  "6751205": {
    "zipcode": "6751205",
    "prefectureCode": "28",
    "prefectureNumber": 28,
    "prefecture": "兵庫県",
    "city": "加古川市",
    "town": "八幡町中西条"
  },
  "6751206": {
    "zipcode": "6751206",
    "prefectureCode": "28",
    "prefectureNumber": 28,
    "prefecture": "兵庫県",
    "city": "加古川市",
    "town": "八幡町船町"
  },
  "6751211": {
    "zipcode": "6751211",
    "prefectureCode": "28",
    "prefectureNumber": 28,
    "prefecture": "兵庫県",
    "city": "加古川市",
    "town": "上荘町白沢"
  },
  "6751212": {
    "zipcode": "6751212",
    "prefectureCode": "28",
    "prefectureNumber": 28,
    "prefecture": "兵庫県",
    "city": "加古川市",
    "town": "上荘町井ノ口"
  },
  "6751213": {
    "zipcode": "6751213",
    "prefectureCode": "28",
    "prefectureNumber": 28,
    "prefecture": "兵庫県",
    "city": "加古川市",
    "town": "上荘町国包"
  },
  "6751214": {
    "zipcode": "6751214",
    "prefectureCode": "28",
    "prefectureNumber": 28,
    "prefecture": "兵庫県",
    "city": "加古川市",
    "town": "上荘町見土呂"
  },
  "6751215": {
    "zipcode": "6751215",
    "prefectureCode": "28",
    "prefectureNumber": 28,
    "prefecture": "兵庫県",
    "city": "加古川市",
    "town": "上荘町都台"
  },
  "6751216": {
    "zipcode": "6751216",
    "prefectureCode": "28",
    "prefectureNumber": 28,
    "prefecture": "兵庫県",
    "city": "加古川市",
    "town": "上荘町都染"
  },
  "6751217": {
    "zipcode": "6751217",
    "prefectureCode": "28",
    "prefectureNumber": 28,
    "prefecture": "兵庫県",
    "city": "加古川市",
    "town": "上荘町薬栗"
  },
  "6751218": {
    "zipcode": "6751218",
    "prefectureCode": "28",
    "prefectureNumber": 28,
    "prefecture": "兵庫県",
    "city": "加古川市",
    "town": "上荘町小野"
  },
  "6751221": {
    "zipcode": "6751221",
    "prefectureCode": "28",
    "prefectureNumber": 28,
    "prefecture": "兵庫県",
    "city": "加古川市",
    "town": "平荘町山角"
  },
  "6751222": {
    "zipcode": "6751222",
    "prefectureCode": "28",
    "prefectureNumber": 28,
    "prefecture": "兵庫県",
    "city": "加古川市",
    "town": "平荘町神木"
  },
  "6751223": {
    "zipcode": "6751223",
    "prefectureCode": "28",
    "prefectureNumber": 28,
    "prefecture": "兵庫県",
    "city": "加古川市",
    "town": "平荘町新中山"
  },
  "6751224": {
    "zipcode": "6751224",
    "prefectureCode": "28",
    "prefectureNumber": 28,
    "prefecture": "兵庫県",
    "city": "加古川市",
    "town": "平荘町上原"
  },
  "6751225": {
    "zipcode": "6751225",
    "prefectureCode": "28",
    "prefectureNumber": 28,
    "prefecture": "兵庫県",
    "city": "加古川市",
    "town": "平荘町中山"
  },
  "6751226": {
    "zipcode": "6751226",
    "prefectureCode": "28",
    "prefectureNumber": 28,
    "prefecture": "兵庫県",
    "city": "加古川市",
    "town": "平荘町磐"
  },
  "6751231": {
    "zipcode": "6751231",
    "prefectureCode": "28",
    "prefectureNumber": 28,
    "prefecture": "兵庫県",
    "city": "加古川市",
    "town": "平荘町養老"
  },
  "6751232": {
    "zipcode": "6751232",
    "prefectureCode": "28",
    "prefectureNumber": 28,
    "prefecture": "兵庫県",
    "city": "加古川市",
    "town": "平荘町里"
  },
  "6751233": {
    "zipcode": "6751233",
    "prefectureCode": "28",
    "prefectureNumber": 28,
    "prefecture": "兵庫県",
    "city": "加古川市",
    "town": "平荘町池尻"
  },
  "6751234": {
    "zipcode": "6751234",
    "prefectureCode": "28",
    "prefectureNumber": 28,
    "prefecture": "兵庫県",
    "city": "加古川市",
    "town": "平荘町西山"
  },
  "6751235": {
    "zipcode": "6751235",
    "prefectureCode": "28",
    "prefectureNumber": 28,
    "prefecture": "兵庫県",
    "city": "加古川市",
    "town": "平荘町小畑"
  },
  "6751236": {
    "zipcode": "6751236",
    "prefectureCode": "28",
    "prefectureNumber": 28,
    "prefecture": "兵庫県",
    "city": "加古川市",
    "town": "平荘町一本松"
  },
  "6751300": {
    "zipcode": "6751300",
    "prefectureCode": "28",
    "prefectureNumber": 28,
    "prefecture": "兵庫県",
    "city": "小野市",
    "town": "以下に掲載がない場合"
  },
  "6751301": {
    "zipcode": "6751301",
    "prefectureCode": "28",
    "prefectureNumber": 28,
    "prefecture": "兵庫県",
    "city": "小野市",
    "town": "小田町"
  },
  "6751302": {
    "zipcode": "6751302",
    "prefectureCode": "28",
    "prefectureNumber": 28,
    "prefecture": "兵庫県",
    "city": "小野市",
    "town": "曽根町"
  },
  "6751303": {
    "zipcode": "6751303",
    "prefectureCode": "28",
    "prefectureNumber": 28,
    "prefecture": "兵庫県",
    "city": "小野市",
    "town": "池田町"
  },
  "6751304": {
    "zipcode": "6751304",
    "prefectureCode": "28",
    "prefectureNumber": 28,
    "prefecture": "兵庫県",
    "city": "小野市",
    "town": "中谷町"
  },
  "6751305": {
    "zipcode": "6751305",
    "prefectureCode": "28",
    "prefectureNumber": 28,
    "prefecture": "兵庫県",
    "city": "小野市",
    "town": "脇本町"
  },
  "6751306": {
    "zipcode": "6751306",
    "prefectureCode": "28",
    "prefectureNumber": 28,
    "prefecture": "兵庫県",
    "city": "小野市",
    "town": "船木町"
  },
  "6751307": {
    "zipcode": "6751307",
    "prefectureCode": "28",
    "prefectureNumber": 28,
    "prefecture": "兵庫県",
    "city": "小野市",
    "town": "菅田町"
  },
  "6751308": {
    "zipcode": "6751308",
    "prefectureCode": "28",
    "prefectureNumber": 28,
    "prefecture": "兵庫県",
    "city": "小野市",
    "town": "中番町"
  },
  "6751309": {
    "zipcode": "6751309",
    "prefectureCode": "28",
    "prefectureNumber": 28,
    "prefecture": "兵庫県",
    "city": "小野市",
    "town": "福住町"
  },
  "6751311": {
    "zipcode": "6751311",
    "prefectureCode": "28",
    "prefectureNumber": 28,
    "prefecture": "兵庫県",
    "city": "小野市",
    "town": "万勝寺町"
  },
  "6751312": {
    "zipcode": "6751312",
    "prefectureCode": "28",
    "prefectureNumber": 28,
    "prefecture": "兵庫県",
    "city": "小野市",
    "town": "栄町"
  },
  "6751313": {
    "zipcode": "6751313",
    "prefectureCode": "28",
    "prefectureNumber": 28,
    "prefecture": "兵庫県",
    "city": "小野市",
    "town": "大開町"
  },
  "6751314": {
    "zipcode": "6751314",
    "prefectureCode": "28",
    "prefectureNumber": 28,
    "prefecture": "兵庫県",
    "city": "小野市",
    "town": "長尾町"
  },
  "6751315": {
    "zipcode": "6751315",
    "prefectureCode": "28",
    "prefectureNumber": 28,
    "prefecture": "兵庫県",
    "city": "小野市",
    "town": "日吉町"
  },
  "6751316": {
    "zipcode": "6751316",
    "prefectureCode": "28",
    "prefectureNumber": 28,
    "prefecture": "兵庫県",
    "city": "小野市",
    "town": "天神町"
  },
  "6751317": {
    "zipcode": "6751317",
    "prefectureCode": "28",
    "prefectureNumber": 28,
    "prefecture": "兵庫県",
    "city": "小野市",
    "town": "浄谷町"
  },
  "6751318": {
    "zipcode": "6751318",
    "prefectureCode": "28",
    "prefectureNumber": 28,
    "prefecture": "兵庫県",
    "city": "小野市",
    "town": "北丘町"
  },
  "6751321": {
    "zipcode": "6751321",
    "prefectureCode": "28",
    "prefectureNumber": 28,
    "prefecture": "兵庫県",
    "city": "小野市",
    "town": "山田町"
  },
  "6751322": {
    "zipcode": "6751322",
    "prefectureCode": "28",
    "prefectureNumber": 28,
    "prefecture": "兵庫県",
    "city": "小野市",
    "town": "匠台"
  },
  "6751323": {
    "zipcode": "6751323",
    "prefectureCode": "28",
    "prefectureNumber": 28,
    "prefecture": "兵庫県",
    "city": "小野市",
    "town": "榊町"
  },
  "6751324": {
    "zipcode": "6751324",
    "prefectureCode": "28",
    "prefectureNumber": 28,
    "prefecture": "兵庫県",
    "city": "小野市",
    "town": "育ケ丘町"
  },
  "6751325": {
    "zipcode": "6751325",
    "prefectureCode": "28",
    "prefectureNumber": 28,
    "prefecture": "兵庫県",
    "city": "小野市",
    "town": "樫山町"
  },
  "6751326": {
    "zipcode": "6751326",
    "prefectureCode": "28",
    "prefectureNumber": 28,
    "prefecture": "兵庫県",
    "city": "小野市",
    "town": "池尻町"
  },
  "6751327": {
    "zipcode": "6751327",
    "prefectureCode": "28",
    "prefectureNumber": 28,
    "prefecture": "兵庫県",
    "city": "小野市",
    "town": "市場町"
  },
  "6751328": {
    "zipcode": "6751328",
    "prefectureCode": "28",
    "prefectureNumber": 28,
    "prefecture": "兵庫県",
    "city": "小野市",
    "town": "二葉町"
  },
  "6751331": {
    "zipcode": "6751331",
    "prefectureCode": "28",
    "prefectureNumber": 28,
    "prefecture": "兵庫県",
    "city": "小野市",
    "town": "神明町"
  },
  "6751332": {
    "zipcode": "6751332",
    "prefectureCode": "28",
    "prefectureNumber": 28,
    "prefecture": "兵庫県",
    "city": "小野市",
    "town": "中町"
  },
  "6751333": {
    "zipcode": "6751333",
    "prefectureCode": "28",
    "prefectureNumber": 28,
    "prefecture": "兵庫県",
    "city": "小野市",
    "town": "垂井町"
  },
  "6751334": {
    "zipcode": "6751334",
    "prefectureCode": "28",
    "prefectureNumber": 28,
    "prefecture": "兵庫県",
    "city": "小野市",
    "town": "大島町"
  },
  "6751335": {
    "zipcode": "6751335",
    "prefectureCode": "28",
    "prefectureNumber": 28,
    "prefecture": "兵庫県",
    "city": "小野市",
    "town": "片山町"
  },
  "6751336": {
    "zipcode": "6751336",
    "prefectureCode": "28",
    "prefectureNumber": 28,
    "prefecture": "兵庫県",
    "city": "小野市",
    "town": "下大部町"
  },
  "6751337": {
    "zipcode": "6751337",
    "prefectureCode": "28",
    "prefectureNumber": 28,
    "prefecture": "兵庫県",
    "city": "小野市",
    "town": "久茂町"
  },
  "6751338": {
    "zipcode": "6751338",
    "prefectureCode": "28",
    "prefectureNumber": 28,
    "prefecture": "兵庫県",
    "city": "小野市",
    "town": "田園町"
  },
  "6751341": {
    "zipcode": "6751341",
    "prefectureCode": "28",
    "prefectureNumber": 28,
    "prefecture": "兵庫県",
    "city": "小野市",
    "town": "西脇町"
  },
  "6751342": {
    "zipcode": "6751342",
    "prefectureCode": "28",
    "prefectureNumber": 28,
    "prefecture": "兵庫県",
    "city": "小野市",
    "town": "阿形町"
  },
  "6751343": {
    "zipcode": "6751343",
    "prefectureCode": "28",
    "prefectureNumber": 28,
    "prefecture": "兵庫県",
    "city": "小野市",
    "town": "来住町"
  },
  "6751344": {
    "zipcode": "6751344",
    "prefectureCode": "28",
    "prefectureNumber": 28,
    "prefecture": "兵庫県",
    "city": "小野市",
    "town": "下来住町"
  },
  "6751345": {
    "zipcode": "6751345",
    "prefectureCode": "28",
    "prefectureNumber": 28,
    "prefecture": "兵庫県",
    "city": "小野市",
    "town": "黍田町"
  },
  "6751346": {
    "zipcode": "6751346",
    "prefectureCode": "28",
    "prefectureNumber": 28,
    "prefecture": "兵庫県",
    "city": "小野市",
    "town": "福甸町"
  },
  "6751350": {
    "zipcode": "6751350",
    "prefectureCode": "28",
    "prefectureNumber": 28,
    "prefecture": "兵庫県",
    "city": "小野市",
    "town": "南青野町"
  },
  "6751351": {
    "zipcode": "6751351",
    "prefectureCode": "28",
    "prefectureNumber": 28,
    "prefecture": "兵庫県",
    "city": "小野市",
    "town": "桜台"
  },
  "6751352": {
    "zipcode": "6751352",
    "prefectureCode": "28",
    "prefectureNumber": 28,
    "prefecture": "兵庫県",
    "city": "小野市",
    "town": "復井町"
  },
  "6751353": {
    "zipcode": "6751353",
    "prefectureCode": "28",
    "prefectureNumber": 28,
    "prefecture": "兵庫県",
    "city": "小野市",
    "town": "河合中町"
  },
  "6751354": {
    "zipcode": "6751354",
    "prefectureCode": "28",
    "prefectureNumber": 28,
    "prefecture": "兵庫県",
    "city": "小野市",
    "town": "河合西町"
  },
  "6751355": {
    "zipcode": "6751355",
    "prefectureCode": "28",
    "prefectureNumber": 28,
    "prefecture": "兵庫県",
    "city": "小野市",
    "town": "新部町"
  },
  "6751356": {
    "zipcode": "6751356",
    "prefectureCode": "28",
    "prefectureNumber": 28,
    "prefecture": "兵庫県",
    "city": "小野市",
    "town": "旭町"
  },
  "6751357": {
    "zipcode": "6751357",
    "prefectureCode": "28",
    "prefectureNumber": 28,
    "prefecture": "兵庫県",
    "city": "小野市",
    "town": "三和町"
  },
  "6751358": {
    "zipcode": "6751358",
    "prefectureCode": "28",
    "prefectureNumber": 28,
    "prefecture": "兵庫県",
    "city": "小野市",
    "town": "粟生町"
  },
  "6751359": {
    "zipcode": "6751359",
    "prefectureCode": "28",
    "prefectureNumber": 28,
    "prefecture": "兵庫県",
    "city": "小野市",
    "town": "昭和町"
  },
  "6751360": {
    "zipcode": "6751360",
    "prefectureCode": "28",
    "prefectureNumber": 28,
    "prefecture": "兵庫県",
    "city": "小野市",
    "town": "喜多町"
  },
  "6751361": {
    "zipcode": "6751361",
    "prefectureCode": "28",
    "prefectureNumber": 28,
    "prefecture": "兵庫県",
    "city": "小野市",
    "town": "住吉町"
  },
  "6751362": {
    "zipcode": "6751362",
    "prefectureCode": "28",
    "prefectureNumber": 28,
    "prefecture": "兵庫県",
    "city": "小野市",
    "town": "高山町"
  },
  "6751363": {
    "zipcode": "6751363",
    "prefectureCode": "28",
    "prefectureNumber": 28,
    "prefecture": "兵庫県",
    "city": "小野市",
    "town": "古川町"
  },
  "6751364": {
    "zipcode": "6751364",
    "prefectureCode": "28",
    "prefectureNumber": 28,
    "prefecture": "兵庫県",
    "city": "小野市",
    "town": "鹿野町"
  },
  "6751365": {
    "zipcode": "6751365",
    "prefectureCode": "28",
    "prefectureNumber": 28,
    "prefecture": "兵庫県",
    "city": "小野市",
    "town": "広渡町"
  },
  "6751366": {
    "zipcode": "6751366",
    "prefectureCode": "28",
    "prefectureNumber": 28,
    "prefecture": "兵庫県",
    "city": "小野市",
    "town": "中島町"
  },
  "6751367": {
    "zipcode": "6751367",
    "prefectureCode": "28",
    "prefectureNumber": 28,
    "prefecture": "兵庫県",
    "city": "小野市",
    "town": "敷地町"
  },
  "6751368": {
    "zipcode": "6751368",
    "prefectureCode": "28",
    "prefectureNumber": 28,
    "prefecture": "兵庫県",
    "city": "小野市",
    "town": "住永町"
  },
  "6751369": {
    "zipcode": "6751369",
    "prefectureCode": "28",
    "prefectureNumber": 28,
    "prefecture": "兵庫県",
    "city": "小野市",
    "town": "高田町"
  },
  "6751371": {
    "zipcode": "6751371",
    "prefectureCode": "28",
    "prefectureNumber": 28,
    "prefecture": "兵庫県",
    "city": "小野市",
    "town": "黒川町"
  },
  "6751372": {
    "zipcode": "6751372",
    "prefectureCode": "28",
    "prefectureNumber": 28,
    "prefecture": "兵庫県",
    "city": "小野市",
    "town": "本町（その他）"
  },
  "6751373": {
    "zipcode": "6751373",
    "prefectureCode": "28",
    "prefectureNumber": 28,
    "prefecture": "兵庫県",
    "city": "小野市",
    "town": "東本町"
  },
  "6751374": {
    "zipcode": "6751374",
    "prefectureCode": "28",
    "prefectureNumber": 28,
    "prefecture": "兵庫県",
    "city": "小野市",
    "town": "本町（１丁目）"
  },
  "6751375": {
    "zipcode": "6751375",
    "prefectureCode": "28",
    "prefectureNumber": 28,
    "prefecture": "兵庫県",
    "city": "小野市",
    "town": "西本町"
  },
  "6751376": {
    "zipcode": "6751376",
    "prefectureCode": "28",
    "prefectureNumber": 28,
    "prefecture": "兵庫県",
    "city": "小野市",
    "town": "丸山町"
  },
  "6751377": {
    "zipcode": "6751377",
    "prefectureCode": "28",
    "prefectureNumber": 28,
    "prefecture": "兵庫県",
    "city": "小野市",
    "town": "葉多町"
  },
  "6751378": {
    "zipcode": "6751378",
    "prefectureCode": "28",
    "prefectureNumber": 28,
    "prefecture": "兵庫県",
    "city": "小野市",
    "town": "上新町"
  },
  "6751379": {
    "zipcode": "6751379",
    "prefectureCode": "28",
    "prefectureNumber": 28,
    "prefecture": "兵庫県",
    "city": "小野市",
    "town": "上本町"
  },
  "6752101": {
    "zipcode": "6752101",
    "prefectureCode": "28",
    "prefectureNumber": 28,
    "prefecture": "兵庫県",
    "city": "加西市",
    "town": "繁昌町"
  },
  "6752102": {
    "zipcode": "6752102",
    "prefectureCode": "28",
    "prefectureNumber": 28,
    "prefecture": "兵庫県",
    "city": "加西市",
    "town": "中野町"
  },
  "6752103": {
    "zipcode": "6752103",
    "prefectureCode": "28",
    "prefectureNumber": 28,
    "prefecture": "兵庫県",
    "city": "加西市",
    "town": "鶉野町"
  },
  "6752104": {
    "zipcode": "6752104",
    "prefectureCode": "28",
    "prefectureNumber": 28,
    "prefecture": "兵庫県",
    "city": "加西市",
    "town": "上宮木町"
  },
  "6752105": {
    "zipcode": "6752105",
    "prefectureCode": "28",
    "prefectureNumber": 28,
    "prefecture": "兵庫県",
    "city": "加西市",
    "town": "下宮木町"
  },
  "6752111": {
    "zipcode": "6752111",
    "prefectureCode": "28",
    "prefectureNumber": 28,
    "prefecture": "兵庫県",
    "city": "加西市",
    "town": "桑原田町"
  },
  "6752112": {
    "zipcode": "6752112",
    "prefectureCode": "28",
    "prefectureNumber": 28,
    "prefecture": "兵庫県",
    "city": "加西市",
    "town": "栄町"
  },
  "6752113": {
    "zipcode": "6752113",
    "prefectureCode": "28",
    "prefectureNumber": 28,
    "prefecture": "兵庫県",
    "city": "加西市",
    "town": "網引町"
  },
  "6752114": {
    "zipcode": "6752114",
    "prefectureCode": "28",
    "prefectureNumber": 28,
    "prefecture": "兵庫県",
    "city": "加西市",
    "town": "田原町"
  },
  "6752201": {
    "zipcode": "6752201",
    "prefectureCode": "28",
    "prefectureNumber": 28,
    "prefecture": "兵庫県",
    "city": "加西市",
    "town": "琵琶甲町"
  },
  "6752202": {
    "zipcode": "6752202",
    "prefectureCode": "28",
    "prefectureNumber": 28,
    "prefecture": "兵庫県",
    "city": "加西市",
    "town": "野条町"
  },
  "6752203": {
    "zipcode": "6752203",
    "prefectureCode": "28",
    "prefectureNumber": 28,
    "prefecture": "兵庫県",
    "city": "加西市",
    "town": "牛居町"
  },
  "6752204": {
    "zipcode": "6752204",
    "prefectureCode": "28",
    "prefectureNumber": 28,
    "prefecture": "兵庫県",
    "city": "加西市",
    "town": "新生町"
  },
  "6752211": {
    "zipcode": "6752211",
    "prefectureCode": "28",
    "prefectureNumber": 28,
    "prefecture": "兵庫県",
    "city": "加西市",
    "town": "野田町"
  },
  "6752212": {
    "zipcode": "6752212",
    "prefectureCode": "28",
    "prefectureNumber": 28,
    "prefecture": "兵庫県",
    "city": "加西市",
    "town": "東笠原町"
  },
  "6752213": {
    "zipcode": "6752213",
    "prefectureCode": "28",
    "prefectureNumber": 28,
    "prefecture": "兵庫県",
    "city": "加西市",
    "town": "西笠原町"
  },
  "6752221": {
    "zipcode": "6752221",
    "prefectureCode": "28",
    "prefectureNumber": 28,
    "prefecture": "兵庫県",
    "city": "加西市",
    "town": "倉谷町"
  },
  "6752222": {
    "zipcode": "6752222",
    "prefectureCode": "28",
    "prefectureNumber": 28,
    "prefecture": "兵庫県",
    "city": "加西市",
    "town": "坂本町"
  },
  "6752223": {
    "zipcode": "6752223",
    "prefectureCode": "28",
    "prefectureNumber": 28,
    "prefecture": "兵庫県",
    "city": "加西市",
    "town": "三口町"
  },
  "6752231": {
    "zipcode": "6752231",
    "prefectureCode": "28",
    "prefectureNumber": 28,
    "prefecture": "兵庫県",
    "city": "加西市",
    "town": "王子町"
  },
  "6752232": {
    "zipcode": "6752232",
    "prefectureCode": "28",
    "prefectureNumber": 28,
    "prefecture": "兵庫県",
    "city": "加西市",
    "town": "戸田井町"
  },
  "6752233": {
    "zipcode": "6752233",
    "prefectureCode": "28",
    "prefectureNumber": 28,
    "prefecture": "兵庫県",
    "city": "加西市",
    "town": "両月町"
  },
  "6752234": {
    "zipcode": "6752234",
    "prefectureCode": "28",
    "prefectureNumber": 28,
    "prefecture": "兵庫県",
    "city": "加西市",
    "town": "大村町"
  },
  "6752241": {
    "zipcode": "6752241",
    "prefectureCode": "28",
    "prefectureNumber": 28,
    "prefecture": "兵庫県",
    "city": "加西市",
    "town": "段下町"
  },
  "6752242": {
    "zipcode": "6752242",
    "prefectureCode": "28",
    "prefectureNumber": 28,
    "prefecture": "兵庫県",
    "city": "加西市",
    "town": "尾崎町"
  },
  "6752243": {
    "zipcode": "6752243",
    "prefectureCode": "28",
    "prefectureNumber": 28,
    "prefecture": "兵庫県",
    "city": "加西市",
    "town": "中西町"
  },
  "6752301": {
    "zipcode": "6752301",
    "prefectureCode": "28",
    "prefectureNumber": 28,
    "prefecture": "兵庫県",
    "city": "加西市",
    "town": "北条町小谷"
  },
  "6752302": {
    "zipcode": "6752302",
    "prefectureCode": "28",
    "prefectureNumber": 28,
    "prefecture": "兵庫県",
    "city": "加西市",
    "town": "北条町栗田"
  },
  "6752303": {
    "zipcode": "6752303",
    "prefectureCode": "28",
    "prefectureNumber": 28,
    "prefecture": "兵庫県",
    "city": "加西市",
    "town": "北条町古坂"
  },
  "6752311": {
    "zipcode": "6752311",
    "prefectureCode": "28",
    "prefectureNumber": 28,
    "prefecture": "兵庫県",
    "city": "加西市",
    "town": "北条町横尾"
  },
  "6752312": {
    "zipcode": "6752312",
    "prefectureCode": "28",
    "prefectureNumber": 28,
    "prefecture": "兵庫県",
    "city": "加西市",
    "town": "北条町北条"
  },
  "6752313": {
    "zipcode": "6752313",
    "prefectureCode": "28",
    "prefectureNumber": 28,
    "prefecture": "兵庫県",
    "city": "加西市",
    "town": "北条町黒駒"
  },
  "6752321": {
    "zipcode": "6752321",
    "prefectureCode": "28",
    "prefectureNumber": 28,
    "prefecture": "兵庫県",
    "city": "加西市",
    "town": "北条町東高室"
  },
  "6752322": {
    "zipcode": "6752322",
    "prefectureCode": "28",
    "prefectureNumber": 28,
    "prefecture": "兵庫県",
    "city": "加西市",
    "town": "北条町西高室"
  },
  "6752323": {
    "zipcode": "6752323",
    "prefectureCode": "28",
    "prefectureNumber": 28,
    "prefecture": "兵庫県",
    "city": "加西市",
    "town": "北条町西南"
  },
  "6752324": {
    "zipcode": "6752324",
    "prefectureCode": "28",
    "prefectureNumber": 28,
    "prefecture": "兵庫県",
    "city": "加西市",
    "town": "北条町東南"
  },
  "6752331": {
    "zipcode": "6752331",
    "prefectureCode": "28",
    "prefectureNumber": 28,
    "prefecture": "兵庫県",
    "city": "加西市",
    "town": "東横田町"
  },
  "6752332": {
    "zipcode": "6752332",
    "prefectureCode": "28",
    "prefectureNumber": 28,
    "prefecture": "兵庫県",
    "city": "加西市",
    "town": "鎮岩町"
  },
  "6752333": {
    "zipcode": "6752333",
    "prefectureCode": "28",
    "prefectureNumber": 28,
    "prefecture": "兵庫県",
    "city": "加西市",
    "town": "岸呂町"
  },
  "6752334": {
    "zipcode": "6752334",
    "prefectureCode": "28",
    "prefectureNumber": 28,
    "prefecture": "兵庫県",
    "city": "加西市",
    "town": "福住町"
  },
  "6752335": {
    "zipcode": "6752335",
    "prefectureCode": "28",
    "prefectureNumber": 28,
    "prefecture": "兵庫県",
    "city": "加西市",
    "town": "西横田町"
  },
  "6752336": {
    "zipcode": "6752336",
    "prefectureCode": "28",
    "prefectureNumber": 28,
    "prefecture": "兵庫県",
    "city": "加西市",
    "town": "坂元町"
  },
  "6752337": {
    "zipcode": "6752337",
    "prefectureCode": "28",
    "prefectureNumber": 28,
    "prefecture": "兵庫県",
    "city": "加西市",
    "town": "市村町"
  },
  "6752341": {
    "zipcode": "6752341",
    "prefectureCode": "28",
    "prefectureNumber": 28,
    "prefecture": "兵庫県",
    "city": "加西市",
    "town": "東長町"
  },
  "6752342": {
    "zipcode": "6752342",
    "prefectureCode": "28",
    "prefectureNumber": 28,
    "prefecture": "兵庫県",
    "city": "加西市",
    "town": "西長町"
  },
  "6752343": {
    "zipcode": "6752343",
    "prefectureCode": "28",
    "prefectureNumber": 28,
    "prefecture": "兵庫県",
    "city": "加西市",
    "town": "中山町"
  },
  "6752344": {
    "zipcode": "6752344",
    "prefectureCode": "28",
    "prefectureNumber": 28,
    "prefecture": "兵庫県",
    "city": "加西市",
    "town": "大柳町"
  },
  "6752345": {
    "zipcode": "6752345",
    "prefectureCode": "28",
    "prefectureNumber": 28,
    "prefecture": "兵庫県",
    "city": "加西市",
    "town": "西剣坂町"
  },
  "6752346": {
    "zipcode": "6752346",
    "prefectureCode": "28",
    "prefectureNumber": 28,
    "prefecture": "兵庫県",
    "city": "加西市",
    "town": "東剣坂町"
  },
  "6752351": {
    "zipcode": "6752351",
    "prefectureCode": "28",
    "prefectureNumber": 28,
    "prefecture": "兵庫県",
    "city": "加西市",
    "town": "福居町"
  },
  "6752352": {
    "zipcode": "6752352",
    "prefectureCode": "28",
    "prefectureNumber": 28,
    "prefecture": "兵庫県",
    "city": "加西市",
    "town": "谷口町"
  },
  "6752353": {
    "zipcode": "6752353",
    "prefectureCode": "28",
    "prefectureNumber": 28,
    "prefecture": "兵庫県",
    "city": "加西市",
    "town": "吉野町"
  },
  "6752354": {
    "zipcode": "6752354",
    "prefectureCode": "28",
    "prefectureNumber": 28,
    "prefecture": "兵庫県",
    "city": "加西市",
    "town": "山下町"
  },
  "6752361": {
    "zipcode": "6752361",
    "prefectureCode": "28",
    "prefectureNumber": 28,
    "prefecture": "兵庫県",
    "city": "加西市",
    "town": "谷町"
  },
  "6752362": {
    "zipcode": "6752362",
    "prefectureCode": "28",
    "prefectureNumber": 28,
    "prefecture": "兵庫県",
    "city": "加西市",
    "town": "西上野町"
  },
  "6752363": {
    "zipcode": "6752363",
    "prefectureCode": "28",
    "prefectureNumber": 28,
    "prefecture": "兵庫県",
    "city": "加西市",
    "town": "吸谷町"
  },
  "6752364": {
    "zipcode": "6752364",
    "prefectureCode": "28",
    "prefectureNumber": 28,
    "prefecture": "兵庫県",
    "city": "加西市",
    "town": "窪田町"
  },
  "6752365": {
    "zipcode": "6752365",
    "prefectureCode": "28",
    "prefectureNumber": 28,
    "prefecture": "兵庫県",
    "city": "加西市",
    "town": "畑町"
  },
  "6752366": {
    "zipcode": "6752366",
    "prefectureCode": "28",
    "prefectureNumber": 28,
    "prefecture": "兵庫県",
    "city": "加西市",
    "town": "西谷町"
  },
  "6752401": {
    "zipcode": "6752401",
    "prefectureCode": "28",
    "prefectureNumber": 28,
    "prefecture": "兵庫県",
    "city": "加西市",
    "town": "国正町"
  },
  "6752402": {
    "zipcode": "6752402",
    "prefectureCode": "28",
    "prefectureNumber": 28,
    "prefecture": "兵庫県",
    "city": "加西市",
    "town": "田谷町"
  },
  "6752403": {
    "zipcode": "6752403",
    "prefectureCode": "28",
    "prefectureNumber": 28,
    "prefecture": "兵庫県",
    "city": "加西市",
    "town": "小印南町"
  },
  "6752404": {
    "zipcode": "6752404",
    "prefectureCode": "28",
    "prefectureNumber": 28,
    "prefecture": "兵庫県",
    "city": "加西市",
    "town": "油谷町"
  },
  "6752411": {
    "zipcode": "6752411",
    "prefectureCode": "28",
    "prefectureNumber": 28,
    "prefecture": "兵庫県",
    "city": "加西市",
    "town": "大工町"
  },
  "6752412": {
    "zipcode": "6752412",
    "prefectureCode": "28",
    "prefectureNumber": 28,
    "prefecture": "兵庫県",
    "city": "加西市",
    "town": "鍛治屋町"
  },
  "6752413": {
    "zipcode": "6752413",
    "prefectureCode": "28",
    "prefectureNumber": 28,
    "prefecture": "兵庫県",
    "city": "加西市",
    "town": "青野町"
  },
  "6752414": {
    "zipcode": "6752414",
    "prefectureCode": "28",
    "prefectureNumber": 28,
    "prefecture": "兵庫県",
    "city": "加西市",
    "town": "馬渡谷町"
  },
  "6752421": {
    "zipcode": "6752421",
    "prefectureCode": "28",
    "prefectureNumber": 28,
    "prefecture": "兵庫県",
    "city": "加西市",
    "town": "河内町"
  },
  "6752422": {
    "zipcode": "6752422",
    "prefectureCode": "28",
    "prefectureNumber": 28,
    "prefecture": "兵庫県",
    "city": "加西市",
    "town": "山田町"
  },
  "6752423": {
    "zipcode": "6752423",
    "prefectureCode": "28",
    "prefectureNumber": 28,
    "prefecture": "兵庫県",
    "city": "加西市",
    "town": "和泉町"
  },
  "6752424": {
    "zipcode": "6752424",
    "prefectureCode": "28",
    "prefectureNumber": 28,
    "prefecture": "兵庫県",
    "city": "加西市",
    "town": "野上町"
  },
  "6752425": {
    "zipcode": "6752425",
    "prefectureCode": "28",
    "prefectureNumber": 28,
    "prefecture": "兵庫県",
    "city": "加西市",
    "town": "池上町"
  },
  "6752426": {
    "zipcode": "6752426",
    "prefectureCode": "28",
    "prefectureNumber": 28,
    "prefecture": "兵庫県",
    "city": "加西市",
    "town": "西野々町"
  },
  "6752431": {
    "zipcode": "6752431",
    "prefectureCode": "28",
    "prefectureNumber": 28,
    "prefecture": "兵庫県",
    "city": "加西市",
    "town": "島町"
  },
  "6752432": {
    "zipcode": "6752432",
    "prefectureCode": "28",
    "prefectureNumber": 28,
    "prefecture": "兵庫県",
    "city": "加西市",
    "town": "満久町"
  },
  "6752433": {
    "zipcode": "6752433",
    "prefectureCode": "28",
    "prefectureNumber": 28,
    "prefecture": "兵庫県",
    "city": "加西市",
    "town": "北町"
  },
  "6752434": {
    "zipcode": "6752434",
    "prefectureCode": "28",
    "prefectureNumber": 28,
    "prefecture": "兵庫県",
    "city": "加西市",
    "town": "上野町"
  },
  "6752441": {
    "zipcode": "6752441",
    "prefectureCode": "28",
    "prefectureNumber": 28,
    "prefecture": "兵庫県",
    "city": "加西市",
    "town": "越水町"
  },
  "6752442": {
    "zipcode": "6752442",
    "prefectureCode": "28",
    "prefectureNumber": 28,
    "prefecture": "兵庫県",
    "city": "加西市",
    "town": "中富町"
  },
  "6752443": {
    "zipcode": "6752443",
    "prefectureCode": "28",
    "prefectureNumber": 28,
    "prefecture": "兵庫県",
    "city": "加西市",
    "town": "笹倉町"
  },
  "6752444": {
    "zipcode": "6752444",
    "prefectureCode": "28",
    "prefectureNumber": 28,
    "prefecture": "兵庫県",
    "city": "加西市",
    "town": "鴨谷町"
  },
  "6752445": {
    "zipcode": "6752445",
    "prefectureCode": "28",
    "prefectureNumber": 28,
    "prefecture": "兵庫県",
    "city": "加西市",
    "town": "殿原町"
  },
  "6752451": {
    "zipcode": "6752451",
    "prefectureCode": "28",
    "prefectureNumber": 28,
    "prefecture": "兵庫県",
    "city": "加西市",
    "town": "上万願寺町"
  },
  "6752452": {
    "zipcode": "6752452",
    "prefectureCode": "28",
    "prefectureNumber": 28,
    "prefecture": "兵庫県",
    "city": "加西市",
    "town": "下万願寺町"
  },
  "6752453": {
    "zipcode": "6752453",
    "prefectureCode": "28",
    "prefectureNumber": 28,
    "prefecture": "兵庫県",
    "city": "加西市",
    "town": "上道山町"
  },
  "6752454": {
    "zipcode": "6752454",
    "prefectureCode": "28",
    "prefectureNumber": 28,
    "prefecture": "兵庫県",
    "city": "加西市",
    "town": "下道山町"
  },
  "6752455": {
    "zipcode": "6752455",
    "prefectureCode": "28",
    "prefectureNumber": 28,
    "prefecture": "兵庫県",
    "city": "加西市",
    "town": "大内町"
  },
  "6752456": {
    "zipcode": "6752456",
    "prefectureCode": "28",
    "prefectureNumber": 28,
    "prefecture": "兵庫県",
    "city": "加西市",
    "town": "若井町"
  },
  "6752461": {
    "zipcode": "6752461",
    "prefectureCode": "28",
    "prefectureNumber": 28,
    "prefecture": "兵庫県",
    "city": "加西市",
    "town": "佐谷町"
  },
  "6752462": {
    "zipcode": "6752462",
    "prefectureCode": "28",
    "prefectureNumber": 28,
    "prefecture": "兵庫県",
    "city": "加西市",
    "town": "別所町"
  },
  "6752463": {
    "zipcode": "6752463",
    "prefectureCode": "28",
    "prefectureNumber": 28,
    "prefecture": "兵庫県",
    "city": "加西市",
    "town": "広原町"
  },
  "6752464": {
    "zipcode": "6752464",
    "prefectureCode": "28",
    "prefectureNumber": 28,
    "prefecture": "兵庫県",
    "city": "加西市",
    "town": "下芥田町"
  },
  "6752465": {
    "zipcode": "6752465",
    "prefectureCode": "28",
    "prefectureNumber": 28,
    "prefecture": "兵庫県",
    "city": "加西市",
    "town": "上芥田町"
  }
}
