{
  "6800000": {
    "zipcode": "6800000",
    "prefectureCode": "31",
    "prefectureNumber": 31,
    "prefecture": "鳥取県",
    "city": "鳥取市",
    "town": "以下に掲載がない場合"
  },
  "6800001": {
    "zipcode": "6800001",
    "prefectureCode": "31",
    "prefectureNumber": 31,
    "prefecture": "鳥取県",
    "city": "鳥取市",
    "town": "浜坂"
  },
  "6800002": {
    "zipcode": "6800002",
    "prefectureCode": "31",
    "prefectureNumber": 31,
    "prefecture": "鳥取県",
    "city": "鳥取市",
    "town": "浜坂東"
  },
  "6800003": {
    "zipcode": "6800003",
    "prefectureCode": "31",
    "prefectureNumber": 31,
    "prefecture": "鳥取県",
    "city": "鳥取市",
    "town": "覚寺"
  },
  "6800004": {
    "zipcode": "6800004",
    "prefectureCode": "31",
    "prefectureNumber": 31,
    "prefecture": "鳥取県",
    "city": "鳥取市",
    "town": "北園"
  },
  "6800005": {
    "zipcode": "6800005",
    "prefectureCode": "31",
    "prefectureNumber": 31,
    "prefecture": "鳥取県",
    "city": "鳥取市",
    "town": "円護寺"
  },
  "6800006": {
    "zipcode": "6800006",
    "prefectureCode": "31",
    "prefectureNumber": 31,
    "prefecture": "鳥取県",
    "city": "鳥取市",
    "town": "丸山町"
  },
  "6800007": {
    "zipcode": "6800007",
    "prefectureCode": "31",
    "prefectureNumber": 31,
    "prefecture": "鳥取県",
    "city": "鳥取市",
    "town": "湯所町"
  },
  "6800008": {
    "zipcode": "6800008",
    "prefectureCode": "31",
    "prefectureNumber": 31,
    "prefecture": "鳥取県",
    "city": "鳥取市",
    "town": "山城町"
  },
  "6800011": {
    "zipcode": "6800011",
    "prefectureCode": "31",
    "prefectureNumber": 31,
    "prefecture": "鳥取県",
    "city": "鳥取市",
    "town": "東町"
  },
  "6800012": {
    "zipcode": "6800012",
    "prefectureCode": "31",
    "prefectureNumber": 31,
    "prefecture": "鳥取県",
    "city": "鳥取市",
    "town": "栗谷町"
  },
  "6800013": {
    "zipcode": "6800013",
    "prefectureCode": "31",
    "prefectureNumber": 31,
    "prefecture": "鳥取県",
    "city": "鳥取市",
    "town": "江崎町"
  },
  "6800014": {
    "zipcode": "6800014",
    "prefectureCode": "31",
    "prefectureNumber": 31,
    "prefecture": "鳥取県",
    "city": "鳥取市",
    "town": "馬場町"
  },
  "6800015": {
    "zipcode": "6800015",
    "prefectureCode": "31",
    "prefectureNumber": 31,
    "prefecture": "鳥取県",
    "city": "鳥取市",
    "town": "上町"
  },
  "6800016": {
    "zipcode": "6800016",
    "prefectureCode": "31",
    "prefectureNumber": 31,
    "prefecture": "鳥取県",
    "city": "鳥取市",
    "town": "中町"
  },
  "6800017": {
    "zipcode": "6800017",
    "prefectureCode": "31",
    "prefectureNumber": 31,
    "prefecture": "鳥取県",
    "city": "鳥取市",
    "town": "尚徳町"
  },
  "6800021": {
    "zipcode": "6800021",
    "prefectureCode": "31",
    "prefectureNumber": 31,
    "prefecture": "鳥取県",
    "city": "鳥取市",
    "town": "材木町"
  },
  "6800022": {
    "zipcode": "6800022",
    "prefectureCode": "31",
    "prefectureNumber": 31,
    "prefecture": "鳥取県",
    "city": "鳥取市",
    "town": "西町"
  },
  "6800023": {
    "zipcode": "6800023",
    "prefectureCode": "31",
    "prefectureNumber": 31,
    "prefecture": "鳥取県",
    "city": "鳥取市",
    "town": "片原"
  },
  "6800024": {
    "zipcode": "6800024",
    "prefectureCode": "31",
    "prefectureNumber": 31,
    "prefecture": "鳥取県",
    "city": "鳥取市",
    "town": "玄好町"
  },
  "6800031": {
    "zipcode": "6800031",
    "prefectureCode": "31",
    "prefectureNumber": 31,
    "prefecture": "鳥取県",
    "city": "鳥取市",
    "town": "本町"
  },
  "6800032": {
    "zipcode": "6800032",
    "prefectureCode": "31",
    "prefectureNumber": 31,
    "prefecture": "鳥取県",
    "city": "鳥取市",
    "town": "茶町"
  },
  "6800033": {
    "zipcode": "6800033",
    "prefectureCode": "31",
    "prefectureNumber": 31,
    "prefecture": "鳥取県",
    "city": "鳥取市",
    "town": "二階町"
  },
  "6800034": {
    "zipcode": "6800034",
    "prefectureCode": "31",
    "prefectureNumber": 31,
    "prefecture": "鳥取県",
    "city": "鳥取市",
    "town": "元魚町"
  },
  "6800035": {
    "zipcode": "6800035",
    "prefectureCode": "31",
    "prefectureNumber": 31,
    "prefecture": "鳥取県",
    "city": "鳥取市",
    "town": "新町"
  },
  "6800036": {
    "zipcode": "6800036",
    "prefectureCode": "31",
    "prefectureNumber": 31,
    "prefecture": "鳥取県",
    "city": "鳥取市",
    "town": "川端"
  },
  "6800037": {
    "zipcode": "6800037",
    "prefectureCode": "31",
    "prefectureNumber": 31,
    "prefecture": "鳥取県",
    "city": "鳥取市",
    "town": "元町"
  },
  "6800041": {
    "zipcode": "6800041",
    "prefectureCode": "31",
    "prefectureNumber": 31,
    "prefecture": "鳥取県",
    "city": "鳥取市",
    "town": "掛出町"
  },
  "6800042": {
    "zipcode": "6800042",
    "prefectureCode": "31",
    "prefectureNumber": 31,
    "prefecture": "鳥取県",
    "city": "鳥取市",
    "town": "庖丁人町"
  },
  "6800043": {
    "zipcode": "6800043",
    "prefectureCode": "31",
    "prefectureNumber": 31,
    "prefecture": "鳥取県",
    "city": "鳥取市",
    "town": "大榎町"
  },
  "6800044": {
    "zipcode": "6800044",
    "prefectureCode": "31",
    "prefectureNumber": 31,
    "prefecture": "鳥取県",
    "city": "鳥取市",
    "town": "御弓町"
  },
  "6800045": {
    "zipcode": "6800045",
    "prefectureCode": "31",
    "prefectureNumber": 31,
    "prefecture": "鳥取県",
    "city": "鳥取市",
    "town": "大工町頭"
  },
  "6800046": {
    "zipcode": "6800046",
    "prefectureCode": "31",
    "prefectureNumber": 31,
    "prefecture": "鳥取県",
    "city": "鳥取市",
    "town": "元大工町"
  },
  "6800047": {
    "zipcode": "6800047",
    "prefectureCode": "31",
    "prefectureNumber": 31,
    "prefecture": "鳥取県",
    "city": "鳥取市",
    "town": "上魚町"
  },
  "6800051": {
    "zipcode": "6800051",
    "prefectureCode": "31",
    "prefectureNumber": 31,
    "prefecture": "鳥取県",
    "city": "鳥取市",
    "town": "若桜町"
  },
  "6800052": {
    "zipcode": "6800052",
    "prefectureCode": "31",
    "prefectureNumber": 31,
    "prefecture": "鳥取県",
    "city": "鳥取市",
    "town": "鍛冶町"
  },
  "6800053": {
    "zipcode": "6800053",
    "prefectureCode": "31",
    "prefectureNumber": 31,
    "prefecture": "鳥取県",
    "city": "鳥取市",
    "town": "寺町"
  },
  "6800054": {
    "zipcode": "6800054",
    "prefectureCode": "31",
    "prefectureNumber": 31,
    "prefecture": "鳥取県",
    "city": "鳥取市",
    "town": "桶屋町"
  },
  "6800055": {
    "zipcode": "6800055",
    "prefectureCode": "31",
    "prefectureNumber": 31,
    "prefecture": "鳥取県",
    "city": "鳥取市",
    "town": "戎町"
  },
  "6800056": {
    "zipcode": "6800056",
    "prefectureCode": "31",
    "prefectureNumber": 31,
    "prefecture": "鳥取県",
    "city": "鳥取市",
    "town": "職人町"
  },
  "6800061": {
    "zipcode": "6800061",
    "prefectureCode": "31",
    "prefectureNumber": 31,
    "prefecture": "鳥取県",
    "city": "鳥取市",
    "town": "立川町"
  },
  "6800062": {
    "zipcode": "6800062",
    "prefectureCode": "31",
    "prefectureNumber": 31,
    "prefecture": "鳥取県",
    "city": "鳥取市",
    "town": "吉方町"
  },
  "6800071": {
    "zipcode": "6800071",
    "prefectureCode": "31",
    "prefectureNumber": 31,
    "prefecture": "鳥取県",
    "city": "鳥取市",
    "town": "百谷"
  },
  "6800072": {
    "zipcode": "6800072",
    "prefectureCode": "31",
    "prefectureNumber": 31,
    "prefecture": "鳥取県",
    "city": "鳥取市",
    "town": "滝山"
  },
  "6800073": {
    "zipcode": "6800073",
    "prefectureCode": "31",
    "prefectureNumber": 31,
    "prefecture": "鳥取県",
    "city": "鳥取市",
    "town": "小西谷"
  },
  "6800074": {
    "zipcode": "6800074",
    "prefectureCode": "31",
    "prefectureNumber": 31,
    "prefecture": "鳥取県",
    "city": "鳥取市",
    "town": "卯垣"
  },
  "6800081": {
    "zipcode": "6800081",
    "prefectureCode": "31",
    "prefectureNumber": 31,
    "prefecture": "鳥取県",
    "city": "鳥取市",
    "town": "岩倉"
  },
  "6800131": {
    "zipcode": "6800131",
    "prefectureCode": "31",
    "prefectureNumber": 31,
    "prefecture": "鳥取県",
    "city": "鳥取市",
    "town": "国府町高岡"
  },
  "6800132": {
    "zipcode": "6800132",
    "prefectureCode": "31",
    "prefectureNumber": 31,
    "prefecture": "鳥取県",
    "city": "鳥取市",
    "town": "国府町神垣"
  },
  "6800133": {
    "zipcode": "6800133",
    "prefectureCode": "31",
    "prefectureNumber": 31,
    "prefecture": "鳥取県",
    "city": "鳥取市",
    "town": "国府町山根"
  },
  "6800134": {
    "zipcode": "6800134",
    "prefectureCode": "31",
    "prefectureNumber": 31,
    "prefecture": "鳥取県",
    "city": "鳥取市",
    "town": "国府町清水"
  },
  "6800135": {
    "zipcode": "6800135",
    "prefectureCode": "31",
    "prefectureNumber": 31,
    "prefecture": "鳥取県",
    "city": "鳥取市",
    "town": "国府町谷"
  },
  "6800136": {
    "zipcode": "6800136",
    "prefectureCode": "31",
    "prefectureNumber": 31,
    "prefecture": "鳥取県",
    "city": "鳥取市",
    "town": "国府町糸谷"
  },
  "6800141": {
    "zipcode": "6800141",
    "prefectureCode": "31",
    "prefectureNumber": 31,
    "prefecture": "鳥取県",
    "city": "鳥取市",
    "town": "国府町美歎"
  },
  "6800142": {
    "zipcode": "6800142",
    "prefectureCode": "31",
    "prefectureNumber": 31,
    "prefecture": "鳥取県",
    "city": "鳥取市",
    "town": "国府町麻生"
  },
  "6800143": {
    "zipcode": "6800143",
    "prefectureCode": "31",
    "prefectureNumber": 31,
    "prefecture": "鳥取県",
    "city": "鳥取市",
    "town": "国府町玉鉾"
  },
  "6800144": {
    "zipcode": "6800144",
    "prefectureCode": "31",
    "prefectureNumber": 31,
    "prefecture": "鳥取県",
    "city": "鳥取市",
    "town": "国府町岡益"
  },
  "6800145": {
    "zipcode": "6800145",
    "prefectureCode": "31",
    "prefectureNumber": 31,
    "prefecture": "鳥取県",
    "city": "鳥取市",
    "town": "国府町広西"
  },
  "6800146": {
    "zipcode": "6800146",
    "prefectureCode": "31",
    "prefectureNumber": 31,
    "prefecture": "鳥取県",
    "city": "鳥取市",
    "town": "国府町町屋"
  },
  "6800151": {
    "zipcode": "6800151",
    "prefectureCode": "31",
    "prefectureNumber": 31,
    "prefecture": "鳥取県",
    "city": "鳥取市",
    "town": "国府町宮下"
  },
  "6800152": {
    "zipcode": "6800152",
    "prefectureCode": "31",
    "prefectureNumber": 31,
    "prefecture": "鳥取県",
    "city": "鳥取市",
    "town": "国府町庁"
  },
  "6800153": {
    "zipcode": "6800153",
    "prefectureCode": "31",
    "prefectureNumber": 31,
    "prefecture": "鳥取県",
    "city": "鳥取市",
    "town": "国府町法花寺"
  },
  "6800154": {
    "zipcode": "6800154",
    "prefectureCode": "31",
    "prefectureNumber": 31,
    "prefecture": "鳥取県",
    "city": "鳥取市",
    "town": "国府町三代寺"
  },
  "6800155": {
    "zipcode": "6800155",
    "prefectureCode": "31",
    "prefectureNumber": 31,
    "prefecture": "鳥取県",
    "city": "鳥取市",
    "town": "国府町国分寺"
  },
  "6800156": {
    "zipcode": "6800156",
    "prefectureCode": "31",
    "prefectureNumber": 31,
    "prefecture": "鳥取県",
    "city": "鳥取市",
    "town": "国府町中郷"
  },
  "6800201": {
    "zipcode": "6800201",
    "prefectureCode": "31",
    "prefectureNumber": 31,
    "prefecture": "鳥取県",
    "city": "鳥取市",
    "town": "国府町雨滝"
  },
  "6800202": {
    "zipcode": "6800202",
    "prefectureCode": "31",
    "prefectureNumber": 31,
    "prefecture": "鳥取県",
    "city": "鳥取市",
    "town": "国府町石井谷"
  },
  "6800203": {
    "zipcode": "6800203",
    "prefectureCode": "31",
    "prefectureNumber": 31,
    "prefecture": "鳥取県",
    "city": "鳥取市",
    "town": "国府町大石"
  },
  "6800204": {
    "zipcode": "6800204",
    "prefectureCode": "31",
    "prefectureNumber": 31,
    "prefecture": "鳥取県",
    "city": "鳥取市",
    "town": "国府町楠城"
  },
  "6800205": {
    "zipcode": "6800205",
    "prefectureCode": "31",
    "prefectureNumber": 31,
    "prefecture": "鳥取県",
    "city": "鳥取市",
    "town": "国府町拾石"
  },
  "6800206": {
    "zipcode": "6800206",
    "prefectureCode": "31",
    "prefectureNumber": 31,
    "prefecture": "鳥取県",
    "city": "鳥取市",
    "town": "国府町栃本"
  },
  "6800207": {
    "zipcode": "6800207",
    "prefectureCode": "31",
    "prefectureNumber": 31,
    "prefecture": "鳥取県",
    "city": "鳥取市",
    "town": "国府町下木原"
  },
  "6800208": {
    "zipcode": "6800208",
    "prefectureCode": "31",
    "prefectureNumber": 31,
    "prefecture": "鳥取県",
    "city": "鳥取市",
    "town": "国府町木原"
  },
  "6800211": {
    "zipcode": "6800211",
    "prefectureCode": "31",
    "prefectureNumber": 31,
    "prefecture": "鳥取県",
    "city": "鳥取市",
    "town": "国府町菅野"
  },
  "6800212": {
    "zipcode": "6800212",
    "prefectureCode": "31",
    "prefectureNumber": 31,
    "prefecture": "鳥取県",
    "city": "鳥取市",
    "town": "国府町上地"
  },
  "6800213": {
    "zipcode": "6800213",
    "prefectureCode": "31",
    "prefectureNumber": 31,
    "prefecture": "鳥取県",
    "city": "鳥取市",
    "town": "国府町上上地"
  },
  "6800214": {
    "zipcode": "6800214",
    "prefectureCode": "31",
    "prefectureNumber": 31,
    "prefecture": "鳥取県",
    "city": "鳥取市",
    "town": "国府町上荒舟"
  },
  "6800215": {
    "zipcode": "6800215",
    "prefectureCode": "31",
    "prefectureNumber": 31,
    "prefecture": "鳥取県",
    "city": "鳥取市",
    "town": "国府町山崎"
  },
  "6800216": {
    "zipcode": "6800216",
    "prefectureCode": "31",
    "prefectureNumber": 31,
    "prefecture": "鳥取県",
    "city": "鳥取市",
    "town": "国府町荒舟"
  },
  "6800221": {
    "zipcode": "6800221",
    "prefectureCode": "31",
    "prefectureNumber": 31,
    "prefecture": "鳥取県",
    "city": "鳥取市",
    "town": "国府町神護"
  },
  "6800222": {
    "zipcode": "6800222",
    "prefectureCode": "31",
    "prefectureNumber": 31,
    "prefecture": "鳥取県",
    "city": "鳥取市",
    "town": "国府町殿"
  },
  "6800223": {
    "zipcode": "6800223",
    "prefectureCode": "31",
    "prefectureNumber": 31,
    "prefecture": "鳥取県",
    "city": "鳥取市",
    "town": "国府町中河原"
  },
  "6800224": {
    "zipcode": "6800224",
    "prefectureCode": "31",
    "prefectureNumber": 31,
    "prefecture": "鳥取県",
    "city": "鳥取市",
    "town": "国府町松尾"
  },
  "6800225": {
    "zipcode": "6800225",
    "prefectureCode": "31",
    "prefectureNumber": 31,
    "prefecture": "鳥取県",
    "city": "鳥取市",
    "town": "国府町吉野"
  },
  "6800226": {
    "zipcode": "6800226",
    "prefectureCode": "31",
    "prefectureNumber": 31,
    "prefecture": "鳥取県",
    "city": "鳥取市",
    "town": "国府町新井"
  },
  "6800301": {
    "zipcode": "6800301",
    "prefectureCode": "31",
    "prefectureNumber": 31,
    "prefecture": "鳥取県",
    "city": "八頭郡八頭町",
    "town": "姫路"
  },
  "6800302": {
    "zipcode": "6800302",
    "prefectureCode": "31",
    "prefectureNumber": 31,
    "prefecture": "鳥取県",
    "city": "八頭郡八頭町",
    "town": "明辺"
  },
  "6800303": {
    "zipcode": "6800303",
    "prefectureCode": "31",
    "prefectureNumber": 31,
    "prefecture": "鳥取県",
    "city": "八頭郡八頭町",
    "town": "落岩"
  },
  "6800304": {
    "zipcode": "6800304",
    "prefectureCode": "31",
    "prefectureNumber": 31,
    "prefecture": "鳥取県",
    "city": "八頭郡八頭町",
    "town": "山志谷"
  },
  "6800305": {
    "zipcode": "6800305",
    "prefectureCode": "31",
    "prefectureNumber": 31,
    "prefecture": "鳥取県",
    "city": "八頭郡八頭町",
    "town": "麻生"
  },
  "6800306": {
    "zipcode": "6800306",
    "prefectureCode": "31",
    "prefectureNumber": 31,
    "prefecture": "鳥取県",
    "city": "八頭郡八頭町",
    "town": "野町"
  },
  "6800307": {
    "zipcode": "6800307",
    "prefectureCode": "31",
    "prefectureNumber": 31,
    "prefecture": "鳥取県",
    "city": "八頭郡八頭町",
    "town": "福地"
  },
  "6800311": {
    "zipcode": "6800311",
    "prefectureCode": "31",
    "prefectureNumber": 31,
    "prefecture": "鳥取県",
    "city": "八頭郡八頭町",
    "town": "市場"
  },
  "6800312": {
    "zipcode": "6800312",
    "prefectureCode": "31",
    "prefectureNumber": 31,
    "prefecture": "鳥取県",
    "city": "八頭郡八頭町",
    "town": "覚王寺"
  },
  "6800313": {
    "zipcode": "6800313",
    "prefectureCode": "31",
    "prefectureNumber": 31,
    "prefecture": "鳥取県",
    "city": "八頭郡八頭町",
    "town": "上津黒"
  },
  "6800314": {
    "zipcode": "6800314",
    "prefectureCode": "31",
    "prefectureNumber": 31,
    "prefecture": "鳥取県",
    "city": "八頭郡八頭町",
    "town": "下津黒"
  },
  "6800315": {
    "zipcode": "6800315",
    "prefectureCode": "31",
    "prefectureNumber": 31,
    "prefecture": "鳥取県",
    "city": "八頭郡八頭町",
    "town": "別府"
  },
  "6800316": {
    "zipcode": "6800316",
    "prefectureCode": "31",
    "prefectureNumber": 31,
    "prefecture": "鳥取県",
    "city": "八頭郡八頭町",
    "town": "篠波"
  },
  "6800400": {
    "zipcode": "6800400",
    "prefectureCode": "31",
    "prefectureNumber": 31,
    "prefecture": "鳥取県",
    "city": "八頭郡八頭町",
    "town": "以下に掲載がない場合"
  },
  "6800401": {
    "zipcode": "6800401",
    "prefectureCode": "31",
    "prefectureNumber": 31,
    "prefecture": "鳥取県",
    "city": "八頭郡八頭町",
    "town": "上野"
  },
  "6800402": {
    "zipcode": "6800402",
    "prefectureCode": "31",
    "prefectureNumber": 31,
    "prefecture": "鳥取県",
    "city": "八頭郡八頭町",
    "town": "隼福"
  },
  "6800403": {
    "zipcode": "6800403",
    "prefectureCode": "31",
    "prefectureNumber": 31,
    "prefecture": "鳥取県",
    "city": "八頭郡八頭町",
    "town": "福井"
  },
  "6800404": {
    "zipcode": "6800404",
    "prefectureCode": "31",
    "prefectureNumber": 31,
    "prefecture": "鳥取県",
    "city": "八頭郡八頭町",
    "town": "見槻中"
  },
  "6800405": {
    "zipcode": "6800405",
    "prefectureCode": "31",
    "prefectureNumber": 31,
    "prefecture": "鳥取県",
    "city": "八頭郡八頭町",
    "town": "隼郡家"
  },
  "6800406": {
    "zipcode": "6800406",
    "prefectureCode": "31",
    "prefectureNumber": 31,
    "prefecture": "鳥取県",
    "city": "八頭郡八頭町",
    "town": "見槻"
  },
  "6800407": {
    "zipcode": "6800407",
    "prefectureCode": "31",
    "prefectureNumber": 31,
    "prefecture": "鳥取県",
    "city": "八頭郡八頭町",
    "town": "志子部"
  },
  "6800408": {
    "zipcode": "6800408",
    "prefectureCode": "31",
    "prefectureNumber": 31,
    "prefecture": "鳥取県",
    "city": "八頭郡八頭町",
    "town": "西谷"
  },
  "6800411": {
    "zipcode": "6800411",
    "prefectureCode": "31",
    "prefectureNumber": 31,
    "prefecture": "鳥取県",
    "city": "八頭郡八頭町",
    "town": "船岡殿"
  },
  "6800412": {
    "zipcode": "6800412",
    "prefectureCode": "31",
    "prefectureNumber": 31,
    "prefecture": "鳥取県",
    "city": "八頭郡八頭町",
    "town": "水口"
  },
  "6800413": {
    "zipcode": "6800413",
    "prefectureCode": "31",
    "prefectureNumber": 31,
    "prefecture": "鳥取県",
    "city": "八頭郡八頭町",
    "town": "塩上"
  },
  "6800414": {
    "zipcode": "6800414",
    "prefectureCode": "31",
    "prefectureNumber": 31,
    "prefecture": "鳥取県",
    "city": "八頭郡八頭町",
    "town": "橋本"
  },
  "6800415": {
    "zipcode": "6800415",
    "prefectureCode": "31",
    "prefectureNumber": 31,
    "prefecture": "鳥取県",
    "city": "八頭郡八頭町",
    "town": "下野"
  },
  "6800416": {
    "zipcode": "6800416",
    "prefectureCode": "31",
    "prefectureNumber": 31,
    "prefecture": "鳥取県",
    "city": "八頭郡八頭町",
    "town": "大江"
  },
  "6800421": {
    "zipcode": "6800421",
    "prefectureCode": "31",
    "prefectureNumber": 31,
    "prefecture": "鳥取県",
    "city": "八頭郡八頭町",
    "town": "下門尾"
  },
  "6800422": {
    "zipcode": "6800422",
    "prefectureCode": "31",
    "prefectureNumber": 31,
    "prefecture": "鳥取県",
    "city": "八頭郡八頭町",
    "town": "門尾"
  },
  "6800423": {
    "zipcode": "6800423",
    "prefectureCode": "31",
    "prefectureNumber": 31,
    "prefecture": "鳥取県",
    "city": "八頭郡八頭町",
    "town": "堀越"
  },
  "6800424": {
    "zipcode": "6800424",
    "prefectureCode": "31",
    "prefectureNumber": 31,
    "prefecture": "鳥取県",
    "city": "八頭郡八頭町",
    "town": "稲荷"
  },
  "6800425": {
    "zipcode": "6800425",
    "prefectureCode": "31",
    "prefectureNumber": 31,
    "prefecture": "鳥取県",
    "city": "八頭郡八頭町",
    "town": "井古"
  },
  "6800426": {
    "zipcode": "6800426",
    "prefectureCode": "31",
    "prefectureNumber": 31,
    "prefecture": "鳥取県",
    "city": "八頭郡八頭町",
    "town": "下坂"
  },
  "6800427": {
    "zipcode": "6800427",
    "prefectureCode": "31",
    "prefectureNumber": 31,
    "prefecture": "鳥取県",
    "city": "八頭郡八頭町",
    "town": "奥谷"
  },
  "6800431": {
    "zipcode": "6800431",
    "prefectureCode": "31",
    "prefectureNumber": 31,
    "prefecture": "鳥取県",
    "city": "八頭郡八頭町",
    "town": "下峰寺"
  },
  "6800432": {
    "zipcode": "6800432",
    "prefectureCode": "31",
    "prefectureNumber": 31,
    "prefecture": "鳥取県",
    "city": "八頭郡八頭町",
    "town": "上峰寺"
  },
  "6800433": {
    "zipcode": "6800433",
    "prefectureCode": "31",
    "prefectureNumber": 31,
    "prefecture": "鳥取県",
    "city": "八頭郡八頭町",
    "town": "山上"
  },
  "6800434": {
    "zipcode": "6800434",
    "prefectureCode": "31",
    "prefectureNumber": 31,
    "prefecture": "鳥取県",
    "city": "八頭郡八頭町",
    "town": "延命寺"
  },
  "6800435": {
    "zipcode": "6800435",
    "prefectureCode": "31",
    "prefectureNumber": 31,
    "prefecture": "鳥取県",
    "city": "八頭郡八頭町",
    "town": "大坪"
  },
  "6800436": {
    "zipcode": "6800436",
    "prefectureCode": "31",
    "prefectureNumber": 31,
    "prefecture": "鳥取県",
    "city": "八頭郡八頭町",
    "town": "山路"
  },
  "6800437": {
    "zipcode": "6800437",
    "prefectureCode": "31",
    "prefectureNumber": 31,
    "prefecture": "鳥取県",
    "city": "八頭郡八頭町",
    "town": "花原"
  },
  "6800438": {
    "zipcode": "6800438",
    "prefectureCode": "31",
    "prefectureNumber": 31,
    "prefecture": "鳥取県",
    "city": "八頭郡八頭町",
    "town": "山田"
  },
  "6800441": {
    "zipcode": "6800441",
    "prefectureCode": "31",
    "prefectureNumber": 31,
    "prefecture": "鳥取県",
    "city": "八頭郡八頭町",
    "town": "西御門"
  },
  "6800442": {
    "zipcode": "6800442",
    "prefectureCode": "31",
    "prefectureNumber": 31,
    "prefecture": "鳥取県",
    "city": "八頭郡八頭町",
    "town": "市谷"
  },
  "6800443": {
    "zipcode": "6800443",
    "prefectureCode": "31",
    "prefectureNumber": 31,
    "prefecture": "鳥取県",
    "city": "八頭郡八頭町",
    "town": "郡家殿"
  },
  "6800444": {
    "zipcode": "6800444",
    "prefectureCode": "31",
    "prefectureNumber": 31,
    "prefecture": "鳥取県",
    "city": "八頭郡八頭町",
    "town": "花"
  },
  "6800445": {
    "zipcode": "6800445",
    "prefectureCode": "31",
    "prefectureNumber": 31,
    "prefecture": "鳥取県",
    "city": "八頭郡八頭町",
    "town": "大門"
  },
  "6800451": {
    "zipcode": "6800451",
    "prefectureCode": "31",
    "prefectureNumber": 31,
    "prefecture": "鳥取県",
    "city": "八頭郡八頭町",
    "town": "久能寺"
  },
  "6800452": {
    "zipcode": "6800452",
    "prefectureCode": "31",
    "prefectureNumber": 31,
    "prefecture": "鳥取県",
    "city": "八頭郡八頭町",
    "town": "池田"
  },
  "6800453": {
    "zipcode": "6800453",
    "prefectureCode": "31",
    "prefectureNumber": 31,
    "prefecture": "鳥取県",
    "city": "八頭郡八頭町",
    "town": "万代寺"
  },
  "6800454": {
    "zipcode": "6800454",
    "prefectureCode": "31",
    "prefectureNumber": 31,
    "prefecture": "鳥取県",
    "city": "八頭郡八頭町",
    "town": "石田百井"
  },
  "6800455": {
    "zipcode": "6800455",
    "prefectureCode": "31",
    "prefectureNumber": 31,
    "prefecture": "鳥取県",
    "city": "八頭郡八頭町",
    "town": "土師百井"
  },
  "6800456": {
    "zipcode": "6800456",
    "prefectureCode": "31",
    "prefectureNumber": 31,
    "prefecture": "鳥取県",
    "city": "八頭郡八頭町",
    "town": "米岡"
  },
  "6800457": {
    "zipcode": "6800457",
    "prefectureCode": "31",
    "prefectureNumber": 31,
    "prefecture": "鳥取県",
    "city": "八頭郡八頭町",
    "town": "国中"
  },
  "6800461": {
    "zipcode": "6800461",
    "prefectureCode": "31",
    "prefectureNumber": 31,
    "prefecture": "鳥取県",
    "city": "八頭郡八頭町",
    "town": "郡家"
  },
  "6800462": {
    "zipcode": "6800462",
    "prefectureCode": "31",
    "prefectureNumber": 31,
    "prefecture": "鳥取県",
    "city": "八頭郡八頭町",
    "town": "福本"
  },
  "6800463": {
    "zipcode": "6800463",
    "prefectureCode": "31",
    "prefectureNumber": 31,
    "prefecture": "鳥取県",
    "city": "八頭郡八頭町",
    "town": "宮谷"
  },
  "6800471": {
    "zipcode": "6800471",
    "prefectureCode": "31",
    "prefectureNumber": 31,
    "prefecture": "鳥取県",
    "city": "八頭郡八頭町",
    "town": "船岡"
  },
  "6800472": {
    "zipcode": "6800472",
    "prefectureCode": "31",
    "prefectureNumber": 31,
    "prefecture": "鳥取県",
    "city": "八頭郡八頭町",
    "town": "下濃"
  },
  "6800473": {
    "zipcode": "6800473",
    "prefectureCode": "31",
    "prefectureNumber": 31,
    "prefecture": "鳥取県",
    "city": "八頭郡八頭町",
    "town": "坂田"
  },
  "6800474": {
    "zipcode": "6800474",
    "prefectureCode": "31",
    "prefectureNumber": 31,
    "prefecture": "鳥取県",
    "city": "八頭郡八頭町",
    "town": "破岩"
  },
  "6800521": {
    "zipcode": "6800521",
    "prefectureCode": "31",
    "prefectureNumber": 31,
    "prefecture": "鳥取県",
    "city": "八頭郡八頭町",
    "town": "安井宿"
  },
  "6800522": {
    "zipcode": "6800522",
    "prefectureCode": "31",
    "prefectureNumber": 31,
    "prefecture": "鳥取県",
    "city": "八頭郡八頭町",
    "town": "新興寺"
  },
  "6800523": {
    "zipcode": "6800523",
    "prefectureCode": "31",
    "prefectureNumber": 31,
    "prefecture": "鳥取県",
    "city": "八頭郡八頭町",
    "town": "小別府"
  },
  "6800524": {
    "zipcode": "6800524",
    "prefectureCode": "31",
    "prefectureNumber": 31,
    "prefecture": "鳥取県",
    "city": "八頭郡八頭町",
    "town": "茂田"
  },
  "6800525": {
    "zipcode": "6800525",
    "prefectureCode": "31",
    "prefectureNumber": 31,
    "prefecture": "鳥取県",
    "city": "八頭郡八頭町",
    "town": "横田"
  },
  "6800526": {
    "zipcode": "6800526",
    "prefectureCode": "31",
    "prefectureNumber": 31,
    "prefecture": "鳥取県",
    "city": "八頭郡八頭町",
    "town": "日下部"
  },
  "6800527": {
    "zipcode": "6800527",
    "prefectureCode": "31",
    "prefectureNumber": 31,
    "prefecture": "鳥取県",
    "city": "八頭郡八頭町",
    "town": "桜ヶ丘"
  },
  "6800531": {
    "zipcode": "6800531",
    "prefectureCode": "31",
    "prefectureNumber": 31,
    "prefecture": "鳥取県",
    "city": "八頭郡八頭町",
    "town": "才代"
  },
  "6800532": {
    "zipcode": "6800532",
    "prefectureCode": "31",
    "prefectureNumber": 31,
    "prefecture": "鳥取県",
    "city": "八頭郡八頭町",
    "town": "東"
  },
  "6800533": {
    "zipcode": "6800533",
    "prefectureCode": "31",
    "prefectureNumber": 31,
    "prefecture": "鳥取県",
    "city": "八頭郡八頭町",
    "town": "皆原"
  },
  "6800534": {
    "zipcode": "6800534",
    "prefectureCode": "31",
    "prefectureNumber": 31,
    "prefecture": "鳥取県",
    "city": "八頭郡八頭町",
    "town": "鍛冶屋"
  },
  "6800535": {
    "zipcode": "6800535",
    "prefectureCode": "31",
    "prefectureNumber": 31,
    "prefecture": "鳥取県",
    "city": "八頭郡八頭町",
    "town": "三山口"
  },
  "6800536": {
    "zipcode": "6800536",
    "prefectureCode": "31",
    "prefectureNumber": 31,
    "prefecture": "鳥取県",
    "city": "八頭郡八頭町",
    "town": "三浦"
  },
  "6800537": {
    "zipcode": "6800537",
    "prefectureCode": "31",
    "prefectureNumber": 31,
    "prefecture": "鳥取県",
    "city": "八頭郡八頭町",
    "town": "岩淵"
  },
  "6800541": {
    "zipcode": "6800541",
    "prefectureCode": "31",
    "prefectureNumber": 31,
    "prefecture": "鳥取県",
    "city": "八頭郡八頭町",
    "town": "清徳"
  },
  "6800542": {
    "zipcode": "6800542",
    "prefectureCode": "31",
    "prefectureNumber": 31,
    "prefecture": "鳥取県",
    "city": "八頭郡八頭町",
    "town": "茂谷"
  },
  "6800543": {
    "zipcode": "6800543",
    "prefectureCode": "31",
    "prefectureNumber": 31,
    "prefecture": "鳥取県",
    "city": "八頭郡八頭町",
    "town": "奥野"
  },
  "6800544": {
    "zipcode": "6800544",
    "prefectureCode": "31",
    "prefectureNumber": 31,
    "prefecture": "鳥取県",
    "city": "八頭郡八頭町",
    "town": "佐崎"
  },
  "6800545": {
    "zipcode": "6800545",
    "prefectureCode": "31",
    "prefectureNumber": 31,
    "prefecture": "鳥取県",
    "city": "八頭郡八頭町",
    "town": "柿原"
  },
  "6800601": {
    "zipcode": "6800601",
    "prefectureCode": "31",
    "prefectureNumber": 31,
    "prefecture": "鳥取県",
    "city": "八頭郡八頭町",
    "town": "北山"
  },
  "6800602": {
    "zipcode": "6800602",
    "prefectureCode": "31",
    "prefectureNumber": 31,
    "prefecture": "鳥取県",
    "city": "八頭郡八頭町",
    "town": "用呂"
  },
  "6800603": {
    "zipcode": "6800603",
    "prefectureCode": "31",
    "prefectureNumber": 31,
    "prefecture": "鳥取県",
    "city": "八頭郡八頭町",
    "town": "日田"
  },
  "6800604": {
    "zipcode": "6800604",
    "prefectureCode": "31",
    "prefectureNumber": 31,
    "prefecture": "鳥取県",
    "city": "八頭郡八頭町",
    "town": "南"
  },
  "6800605": {
    "zipcode": "6800605",
    "prefectureCode": "31",
    "prefectureNumber": 31,
    "prefecture": "鳥取県",
    "city": "八頭郡八頭町",
    "town": "島"
  },
  "6800606": {
    "zipcode": "6800606",
    "prefectureCode": "31",
    "prefectureNumber": 31,
    "prefecture": "鳥取県",
    "city": "八頭郡八頭町",
    "town": "重枝"
  },
  "6800607": {
    "zipcode": "6800607",
    "prefectureCode": "31",
    "prefectureNumber": 31,
    "prefecture": "鳥取県",
    "city": "八頭郡八頭町",
    "town": "徳丸"
  },
  "6800611": {
    "zipcode": "6800611",
    "prefectureCode": "31",
    "prefectureNumber": 31,
    "prefecture": "鳥取県",
    "city": "八頭郡八頭町",
    "town": "富枝"
  },
  "6800612": {
    "zipcode": "6800612",
    "prefectureCode": "31",
    "prefectureNumber": 31,
    "prefecture": "鳥取県",
    "city": "八頭郡八頭町",
    "town": "志谷"
  },
  "6800613": {
    "zipcode": "6800613",
    "prefectureCode": "31",
    "prefectureNumber": 31,
    "prefecture": "鳥取県",
    "city": "八頭郡八頭町",
    "town": "稗谷"
  },
  "6800614": {
    "zipcode": "6800614",
    "prefectureCode": "31",
    "prefectureNumber": 31,
    "prefecture": "鳥取県",
    "city": "八頭郡八頭町",
    "town": "中"
  },
  "6800700": {
    "zipcode": "6800700",
    "prefectureCode": "31",
    "prefectureNumber": 31,
    "prefecture": "鳥取県",
    "city": "八頭郡若桜町",
    "town": "以下に掲載がない場合"
  },
  "6800701": {
    "zipcode": "6800701",
    "prefectureCode": "31",
    "prefectureNumber": 31,
    "prefecture": "鳥取県",
    "city": "八頭郡若桜町",
    "town": "若桜"
  },
  "6800711": {
    "zipcode": "6800711",
    "prefectureCode": "31",
    "prefectureNumber": 31,
    "prefecture": "鳥取県",
    "city": "八頭郡若桜町",
    "town": "三倉"
  },
  "6800712": {
    "zipcode": "6800712",
    "prefectureCode": "31",
    "prefectureNumber": 31,
    "prefecture": "鳥取県",
    "city": "八頭郡若桜町",
    "town": "高野"
  },
  "6800713": {
    "zipcode": "6800713",
    "prefectureCode": "31",
    "prefectureNumber": 31,
    "prefecture": "鳥取県",
    "city": "八頭郡若桜町",
    "town": "赤松"
  },
  "6800714": {
    "zipcode": "6800714",
    "prefectureCode": "31",
    "prefectureNumber": 31,
    "prefecture": "鳥取県",
    "city": "八頭郡若桜町",
    "town": "来見野"
  },
  "6800715": {
    "zipcode": "6800715",
    "prefectureCode": "31",
    "prefectureNumber": 31,
    "prefecture": "鳥取県",
    "city": "八頭郡若桜町",
    "town": "諸鹿"
  },
  "6800721": {
    "zipcode": "6800721",
    "prefectureCode": "31",
    "prefectureNumber": 31,
    "prefecture": "鳥取県",
    "city": "八頭郡若桜町",
    "town": "屋堂羅"
  },
  "6800722": {
    "zipcode": "6800722",
    "prefectureCode": "31",
    "prefectureNumber": 31,
    "prefecture": "鳥取県",
    "city": "八頭郡若桜町",
    "town": "浅井"
  },
  "6800723": {
    "zipcode": "6800723",
    "prefectureCode": "31",
    "prefectureNumber": 31,
    "prefecture": "鳥取県",
    "city": "八頭郡若桜町",
    "town": "香田"
  },
  "6800724": {
    "zipcode": "6800724",
    "prefectureCode": "31",
    "prefectureNumber": 31,
    "prefecture": "鳥取県",
    "city": "八頭郡若桜町",
    "town": "長砂"
  },
  "6800725": {
    "zipcode": "6800725",
    "prefectureCode": "31",
    "prefectureNumber": 31,
    "prefecture": "鳥取県",
    "city": "八頭郡若桜町",
    "town": "湯原"
  },
  "6800726": {
    "zipcode": "6800726",
    "prefectureCode": "31",
    "prefectureNumber": 31,
    "prefecture": "鳥取県",
    "city": "八頭郡若桜町",
    "town": "淵見"
  },
  "6800727": {
    "zipcode": "6800727",
    "prefectureCode": "31",
    "prefectureNumber": 31,
    "prefecture": "鳥取県",
    "city": "八頭郡若桜町",
    "town": "茗荷谷"
  },
  "6800728": {
    "zipcode": "6800728",
    "prefectureCode": "31",
    "prefectureNumber": 31,
    "prefecture": "鳥取県",
    "city": "八頭郡若桜町",
    "town": "つく米"
  },
  "6800731": {
    "zipcode": "6800731",
    "prefectureCode": "31",
    "prefectureNumber": 31,
    "prefecture": "鳥取県",
    "city": "八頭郡若桜町",
    "town": "岩屋堂"
  },
  "6800732": {
    "zipcode": "6800732",
    "prefectureCode": "31",
    "prefectureNumber": 31,
    "prefecture": "鳥取県",
    "city": "八頭郡若桜町",
    "town": "中原"
  },
  "6800733": {
    "zipcode": "6800733",
    "prefectureCode": "31",
    "prefectureNumber": 31,
    "prefecture": "鳥取県",
    "city": "八頭郡若桜町",
    "town": "大野"
  },
  "6800734": {
    "zipcode": "6800734",
    "prefectureCode": "31",
    "prefectureNumber": 31,
    "prefecture": "鳥取県",
    "city": "八頭郡若桜町",
    "town": "小船"
  },
  "6800735": {
    "zipcode": "6800735",
    "prefectureCode": "31",
    "prefectureNumber": 31,
    "prefecture": "鳥取県",
    "city": "八頭郡若桜町",
    "town": "落折"
  },
  "6800741": {
    "zipcode": "6800741",
    "prefectureCode": "31",
    "prefectureNumber": 31,
    "prefecture": "鳥取県",
    "city": "八頭郡若桜町",
    "town": "大炊"
  },
  "6800742": {
    "zipcode": "6800742",
    "prefectureCode": "31",
    "prefectureNumber": 31,
    "prefecture": "鳥取県",
    "city": "八頭郡若桜町",
    "town": "岸野"
  },
  "6800743": {
    "zipcode": "6800743",
    "prefectureCode": "31",
    "prefectureNumber": 31,
    "prefecture": "鳥取県",
    "city": "八頭郡若桜町",
    "town": "糸白見"
  },
  "6800744": {
    "zipcode": "6800744",
    "prefectureCode": "31",
    "prefectureNumber": 31,
    "prefecture": "鳥取県",
    "city": "八頭郡若桜町",
    "town": "根安"
  },
  "6800745": {
    "zipcode": "6800745",
    "prefectureCode": "31",
    "prefectureNumber": 31,
    "prefecture": "鳥取県",
    "city": "八頭郡若桜町",
    "town": "須澄"
  },
  "6800746": {
    "zipcode": "6800746",
    "prefectureCode": "31",
    "prefectureNumber": 31,
    "prefecture": "鳥取県",
    "city": "八頭郡若桜町",
    "town": "吉川"
  },
  "6800801": {
    "zipcode": "6800801",
    "prefectureCode": "31",
    "prefectureNumber": 31,
    "prefecture": "鳥取県",
    "city": "鳥取市",
    "town": "松並町"
  },
  "6800802": {
    "zipcode": "6800802",
    "prefectureCode": "31",
    "prefectureNumber": 31,
    "prefecture": "鳥取県",
    "city": "鳥取市",
    "town": "青葉町"
  },
  "6800803": {
    "zipcode": "6800803",
    "prefectureCode": "31",
    "prefectureNumber": 31,
    "prefecture": "鳥取県",
    "city": "鳥取市",
    "town": "田園町"
  },
  "6800804": {
    "zipcode": "6800804",
    "prefectureCode": "31",
    "prefectureNumber": 31,
    "prefecture": "鳥取県",
    "city": "鳥取市",
    "town": "田島"
  },
  "6800805": {
    "zipcode": "6800805",
    "prefectureCode": "31",
    "prefectureNumber": 31,
    "prefecture": "鳥取県",
    "city": "鳥取市",
    "town": "相生町"
  },
  "6800806": {
    "zipcode": "6800806",
    "prefectureCode": "31",
    "prefectureNumber": 31,
    "prefecture": "鳥取県",
    "city": "鳥取市",
    "town": "薬師町"
  },
  "6800811": {
    "zipcode": "6800811",
    "prefectureCode": "31",
    "prefectureNumber": 31,
    "prefecture": "鳥取県",
    "city": "鳥取市",
    "town": "西品治"
  },
  "6800812": {
    "zipcode": "6800812",
    "prefectureCode": "31",
    "prefectureNumber": 31,
    "prefecture": "鳥取県",
    "city": "鳥取市",
    "town": "新品治町"
  },
  "6800813": {
    "zipcode": "6800813",
    "prefectureCode": "31",
    "prefectureNumber": 31,
    "prefecture": "鳥取県",
    "city": "鳥取市",
    "town": "寿町"
  },
  "6800814": {
    "zipcode": "6800814",
    "prefectureCode": "31",
    "prefectureNumber": 31,
    "prefecture": "鳥取県",
    "city": "鳥取市",
    "town": "南町"
  },
  "6800821": {
    "zipcode": "6800821",
    "prefectureCode": "31",
    "prefectureNumber": 31,
    "prefecture": "鳥取県",
    "city": "鳥取市",
    "town": "瓦町"
  },
  "6800822": {
    "zipcode": "6800822",
    "prefectureCode": "31",
    "prefectureNumber": 31,
    "prefecture": "鳥取県",
    "city": "鳥取市",
    "town": "今町"
  },
  "6800823": {
    "zipcode": "6800823",
    "prefectureCode": "31",
    "prefectureNumber": 31,
    "prefecture": "鳥取県",
    "city": "鳥取市",
    "town": "幸町"
  },
  "6800824": {
    "zipcode": "6800824",
    "prefectureCode": "31",
    "prefectureNumber": 31,
    "prefecture": "鳥取県",
    "city": "鳥取市",
    "town": "行徳"
  },
  "6800831": {
    "zipcode": "6800831",
    "prefectureCode": "31",
    "prefectureNumber": 31,
    "prefecture": "鳥取県",
    "city": "鳥取市",
    "town": "栄町"
  },
  "6800832": {
    "zipcode": "6800832",
    "prefectureCode": "31",
    "prefectureNumber": 31,
    "prefecture": "鳥取県",
    "city": "鳥取市",
    "town": "弥生町"
  },
  "6800833": {
    "zipcode": "6800833",
    "prefectureCode": "31",
    "prefectureNumber": 31,
    "prefecture": "鳥取県",
    "city": "鳥取市",
    "town": "末広温泉町"
  },
  "6800834": {
    "zipcode": "6800834",
    "prefectureCode": "31",
    "prefectureNumber": 31,
    "prefecture": "鳥取県",
    "city": "鳥取市",
    "town": "永楽温泉町"
  },
  "6800835": {
    "zipcode": "6800835",
    "prefectureCode": "31",
    "prefectureNumber": 31,
    "prefecture": "鳥取県",
    "city": "鳥取市",
    "town": "東品治町"
  },
  "6800841": {
    "zipcode": "6800841",
    "prefectureCode": "31",
    "prefectureNumber": 31,
    "prefecture": "鳥取県",
    "city": "鳥取市",
    "town": "吉方温泉"
  },
  "6800842": {
    "zipcode": "6800842",
    "prefectureCode": "31",
    "prefectureNumber": 31,
    "prefecture": "鳥取県",
    "city": "鳥取市",
    "town": "吉方"
  },
  "6800843": {
    "zipcode": "6800843",
    "prefectureCode": "31",
    "prefectureNumber": 31,
    "prefecture": "鳥取県",
    "city": "鳥取市",
    "town": "南吉方"
  },
  "6800844": {
    "zipcode": "6800844",
    "prefectureCode": "31",
    "prefectureNumber": 31,
    "prefecture": "鳥取県",
    "city": "鳥取市",
    "town": "興南町"
  },
  "6800845": {
    "zipcode": "6800845",
    "prefectureCode": "31",
    "prefectureNumber": 31,
    "prefecture": "鳥取県",
    "city": "鳥取市",
    "town": "富安"
  },
  "6800846": {
    "zipcode": "6800846",
    "prefectureCode": "31",
    "prefectureNumber": 31,
    "prefecture": "鳥取県",
    "city": "鳥取市",
    "town": "扇町"
  },
  "6800847": {
    "zipcode": "6800847",
    "prefectureCode": "31",
    "prefectureNumber": 31,
    "prefecture": "鳥取県",
    "city": "鳥取市",
    "town": "天神町"
  },
  "6800851": {
    "zipcode": "6800851",
    "prefectureCode": "31",
    "prefectureNumber": 31,
    "prefecture": "鳥取県",
    "city": "鳥取市",
    "town": "大杙"
  },
  "6800852": {
    "zipcode": "6800852",
    "prefectureCode": "31",
    "prefectureNumber": 31,
    "prefecture": "鳥取県",
    "city": "鳥取市",
    "town": "東今在家"
  },
  "6800853": {
    "zipcode": "6800853",
    "prefectureCode": "31",
    "prefectureNumber": 31,
    "prefecture": "鳥取県",
    "city": "鳥取市",
    "town": "桜谷"
  },
  "6800854": {
    "zipcode": "6800854",
    "prefectureCode": "31",
    "prefectureNumber": 31,
    "prefecture": "鳥取県",
    "city": "鳥取市",
    "town": "正蓮寺"
  },
  "6800855": {
    "zipcode": "6800855",
    "prefectureCode": "31",
    "prefectureNumber": 31,
    "prefecture": "鳥取県",
    "city": "鳥取市",
    "town": "面影"
  },
  "6800861": {
    "zipcode": "6800861",
    "prefectureCode": "31",
    "prefectureNumber": 31,
    "prefecture": "鳥取県",
    "city": "鳥取市",
    "town": "新"
  },
  "6800862": {
    "zipcode": "6800862",
    "prefectureCode": "31",
    "prefectureNumber": 31,
    "prefecture": "鳥取県",
    "city": "鳥取市",
    "town": "雲山"
  },
  "6800863": {
    "zipcode": "6800863",
    "prefectureCode": "31",
    "prefectureNumber": 31,
    "prefecture": "鳥取県",
    "city": "鳥取市",
    "town": "大覚寺"
  },
  "6800864": {
    "zipcode": "6800864",
    "prefectureCode": "31",
    "prefectureNumber": 31,
    "prefecture": "鳥取県",
    "city": "鳥取市",
    "town": "吉成"
  },
  "6800865": {
    "zipcode": "6800865",
    "prefectureCode": "31",
    "prefectureNumber": 31,
    "prefecture": "鳥取県",
    "city": "鳥取市",
    "town": "古市"
  },
  "6800871": {
    "zipcode": "6800871",
    "prefectureCode": "31",
    "prefectureNumber": 31,
    "prefecture": "鳥取県",
    "city": "鳥取市",
    "town": "吉成南町"
  },
  "6800872": {
    "zipcode": "6800872",
    "prefectureCode": "31",
    "prefectureNumber": 31,
    "prefecture": "鳥取県",
    "city": "鳥取市",
    "town": "宮長"
  },
  "6800873": {
    "zipcode": "6800873",
    "prefectureCode": "31",
    "prefectureNumber": 31,
    "prefecture": "鳥取県",
    "city": "鳥取市",
    "town": "的場"
  },
  "6800874": {
    "zipcode": "6800874",
    "prefectureCode": "31",
    "prefectureNumber": 31,
    "prefecture": "鳥取県",
    "city": "鳥取市",
    "town": "叶"
  },
  "6800875": {
    "zipcode": "6800875",
    "prefectureCode": "31",
    "prefectureNumber": 31,
    "prefecture": "鳥取県",
    "city": "鳥取市",
    "town": "数津"
  },
  "6800901": {
    "zipcode": "6800901",
    "prefectureCode": "31",
    "prefectureNumber": 31,
    "prefecture": "鳥取県",
    "city": "鳥取市",
    "town": "江津"
  },
  "6800902": {
    "zipcode": "6800902",
    "prefectureCode": "31",
    "prefectureNumber": 31,
    "prefecture": "鳥取県",
    "city": "鳥取市",
    "town": "秋里"
  },
  "6800903": {
    "zipcode": "6800903",
    "prefectureCode": "31",
    "prefectureNumber": 31,
    "prefecture": "鳥取県",
    "city": "鳥取市",
    "town": "南隈"
  },
  "6800904": {
    "zipcode": "6800904",
    "prefectureCode": "31",
    "prefectureNumber": 31,
    "prefecture": "鳥取県",
    "city": "鳥取市",
    "town": "晩稲"
  },
  "6800905": {
    "zipcode": "6800905",
    "prefectureCode": "31",
    "prefectureNumber": 31,
    "prefecture": "鳥取県",
    "city": "鳥取市",
    "town": "賀露町"
  },
  "6800906": {
    "zipcode": "6800906",
    "prefectureCode": "31",
    "prefectureNumber": 31,
    "prefecture": "鳥取県",
    "city": "鳥取市",
    "town": "港町"
  },
  "6800907": {
    "zipcode": "6800907",
    "prefectureCode": "31",
    "prefectureNumber": 31,
    "prefecture": "鳥取県",
    "city": "鳥取市",
    "town": "賀露町北"
  },
  "6800908": {
    "zipcode": "6800908",
    "prefectureCode": "31",
    "prefectureNumber": 31,
    "prefecture": "鳥取県",
    "city": "鳥取市",
    "town": "賀露町西"
  },
  "6800909": {
    "zipcode": "6800909",
    "prefectureCode": "31",
    "prefectureNumber": 31,
    "prefecture": "鳥取県",
    "city": "鳥取市",
    "town": "賀露町南"
  },
  "6800911": {
    "zipcode": "6800911",
    "prefectureCode": "31",
    "prefectureNumber": 31,
    "prefecture": "鳥取県",
    "city": "鳥取市",
    "town": "千代水"
  },
  "6800912": {
    "zipcode": "6800912",
    "prefectureCode": "31",
    "prefectureNumber": 31,
    "prefecture": "鳥取県",
    "city": "鳥取市",
    "town": "商栄町"
  },
  "6800913": {
    "zipcode": "6800913",
    "prefectureCode": "31",
    "prefectureNumber": 31,
    "prefecture": "鳥取県",
    "city": "鳥取市",
    "town": "安長"
  },
  "6800914": {
    "zipcode": "6800914",
    "prefectureCode": "31",
    "prefectureNumber": 31,
    "prefecture": "鳥取県",
    "city": "鳥取市",
    "town": "南安長"
  },
  "6800915": {
    "zipcode": "6800915",
    "prefectureCode": "31",
    "prefectureNumber": 31,
    "prefecture": "鳥取県",
    "city": "鳥取市",
    "town": "緑ケ丘"
  },
  "6800921": {
    "zipcode": "6800921",
    "prefectureCode": "31",
    "prefectureNumber": 31,
    "prefecture": "鳥取県",
    "city": "鳥取市",
    "town": "古海"
  },
  "6800922": {
    "zipcode": "6800922",
    "prefectureCode": "31",
    "prefectureNumber": 31,
    "prefecture": "鳥取県",
    "city": "鳥取市",
    "town": "菖蒲"
  },
  "6800923": {
    "zipcode": "6800923",
    "prefectureCode": "31",
    "prefectureNumber": 31,
    "prefecture": "鳥取県",
    "city": "鳥取市",
    "town": "服部"
  },
  "6800924": {
    "zipcode": "6800924",
    "prefectureCode": "31",
    "prefectureNumber": 31,
    "prefecture": "鳥取県",
    "city": "鳥取市",
    "town": "野寺"
  },
  "6800931": {
    "zipcode": "6800931",
    "prefectureCode": "31",
    "prefectureNumber": 31,
    "prefecture": "鳥取県",
    "city": "鳥取市",
    "town": "岩吉"
  },
  "6800932": {
    "zipcode": "6800932",
    "prefectureCode": "31",
    "prefectureNumber": 31,
    "prefecture": "鳥取県",
    "city": "鳥取市",
    "town": "五反田町"
  },
  "6800933": {
    "zipcode": "6800933",
    "prefectureCode": "31",
    "prefectureNumber": 31,
    "prefecture": "鳥取県",
    "city": "鳥取市",
    "town": "徳吉"
  },
  "6800934": {
    "zipcode": "6800934",
    "prefectureCode": "31",
    "prefectureNumber": 31,
    "prefecture": "鳥取県",
    "city": "鳥取市",
    "town": "徳尾"
  },
  "6800935": {
    "zipcode": "6800935",
    "prefectureCode": "31",
    "prefectureNumber": 31,
    "prefecture": "鳥取県",
    "city": "鳥取市",
    "town": "里仁"
  },
  "6800941": {
    "zipcode": "6800941",
    "prefectureCode": "31",
    "prefectureNumber": 31,
    "prefecture": "鳥取県",
    "city": "鳥取市",
    "town": "湖山町北"
  },
  "6800942": {
    "zipcode": "6800942",
    "prefectureCode": "31",
    "prefectureNumber": 31,
    "prefecture": "鳥取県",
    "city": "鳥取市",
    "town": "湖山町東"
  },
  "6800943": {
    "zipcode": "6800943",
    "prefectureCode": "31",
    "prefectureNumber": 31,
    "prefecture": "鳥取県",
    "city": "鳥取市",
    "town": "足山"
  },
  "6800944": {
    "zipcode": "6800944",
    "prefectureCode": "31",
    "prefectureNumber": 31,
    "prefecture": "鳥取県",
    "city": "鳥取市",
    "town": "布勢"
  },
  "6800945": {
    "zipcode": "6800945",
    "prefectureCode": "31",
    "prefectureNumber": 31,
    "prefecture": "鳥取県",
    "city": "鳥取市",
    "town": "湖山町南"
  },
  "6800946": {
    "zipcode": "6800946",
    "prefectureCode": "31",
    "prefectureNumber": 31,
    "prefecture": "鳥取県",
    "city": "鳥取市",
    "town": "湖山町"
  },
  "6800947": {
    "zipcode": "6800947",
    "prefectureCode": "31",
    "prefectureNumber": 31,
    "prefecture": "鳥取県",
    "city": "鳥取市",
    "town": "湖山町西"
  },
  "6801131": {
    "zipcode": "6801131",
    "prefectureCode": "31",
    "prefectureNumber": 31,
    "prefecture": "鳥取県",
    "city": "鳥取市",
    "town": "馬場"
  },
  "6801132": {
    "zipcode": "6801132",
    "prefectureCode": "31",
    "prefectureNumber": 31,
    "prefecture": "鳥取県",
    "city": "鳥取市",
    "town": "国安"
  },
  "6801133": {
    "zipcode": "6801133",
    "prefectureCode": "31",
    "prefectureNumber": 31,
    "prefecture": "鳥取県",
    "city": "鳥取市",
    "town": "源太"
  },
  "6801141": {
    "zipcode": "6801141",
    "prefectureCode": "31",
    "prefectureNumber": 31,
    "prefecture": "鳥取県",
    "city": "鳥取市",
    "town": "蔵田"
  },
  "6801142": {
    "zipcode": "6801142",
    "prefectureCode": "31",
    "prefectureNumber": 31,
    "prefecture": "鳥取県",
    "city": "鳥取市",
    "town": "橋本"
  },
  "6801143": {
    "zipcode": "6801143",
    "prefectureCode": "31",
    "prefectureNumber": 31,
    "prefecture": "鳥取県",
    "city": "鳥取市",
    "town": "八坂"
  },
  "6801144": {
    "zipcode": "6801144",
    "prefectureCode": "31",
    "prefectureNumber": 31,
    "prefecture": "鳥取県",
    "city": "鳥取市",
    "town": "円通寺"
  },
  "6801145": {
    "zipcode": "6801145",
    "prefectureCode": "31",
    "prefectureNumber": 31,
    "prefecture": "鳥取県",
    "city": "鳥取市",
    "town": "西円通寺"
  },
  "6801146": {
    "zipcode": "6801146",
    "prefectureCode": "31",
    "prefectureNumber": 31,
    "prefecture": "鳥取県",
    "city": "鳥取市",
    "town": "赤子田"
  },
  "6801151": {
    "zipcode": "6801151",
    "prefectureCode": "31",
    "prefectureNumber": 31,
    "prefecture": "鳥取県",
    "city": "鳥取市",
    "town": "倭文"
  },
  "6801152": {
    "zipcode": "6801152",
    "prefectureCode": "31",
    "prefectureNumber": 31,
    "prefecture": "鳥取県",
    "city": "鳥取市",
    "town": "玉津"
  },
  "6801153": {
    "zipcode": "6801153",
    "prefectureCode": "31",
    "prefectureNumber": 31,
    "prefecture": "鳥取県",
    "city": "鳥取市",
    "town": "長谷"
  },
  "6801154": {
    "zipcode": "6801154",
    "prefectureCode": "31",
    "prefectureNumber": 31,
    "prefecture": "鳥取県",
    "city": "鳥取市",
    "town": "下砂見"
  },
  "6801155": {
    "zipcode": "6801155",
    "prefectureCode": "31",
    "prefectureNumber": 31,
    "prefecture": "鳥取県",
    "city": "鳥取市",
    "town": "中砂見"
  },
  "6801156": {
    "zipcode": "6801156",
    "prefectureCode": "31",
    "prefectureNumber": 31,
    "prefecture": "鳥取県",
    "city": "鳥取市",
    "town": "上砂見"
  },
  "6801157": {
    "zipcode": "6801157",
    "prefectureCode": "31",
    "prefectureNumber": 31,
    "prefecture": "鳥取県",
    "city": "鳥取市",
    "town": "岩坪"
  },
  "6801161": {
    "zipcode": "6801161",
    "prefectureCode": "31",
    "prefectureNumber": 31,
    "prefecture": "鳥取県",
    "city": "鳥取市",
    "town": "向国安"
  },
  "6801162": {
    "zipcode": "6801162",
    "prefectureCode": "31",
    "prefectureNumber": 31,
    "prefecture": "鳥取県",
    "city": "鳥取市",
    "town": "竹生"
  },
  "6801163": {
    "zipcode": "6801163",
    "prefectureCode": "31",
    "prefectureNumber": 31,
    "prefecture": "鳥取県",
    "city": "鳥取市",
    "town": "横枕"
  },
  "6801164": {
    "zipcode": "6801164",
    "prefectureCode": "31",
    "prefectureNumber": 31,
    "prefecture": "鳥取県",
    "city": "鳥取市",
    "town": "猪子"
  },
  "6801165": {
    "zipcode": "6801165",
    "prefectureCode": "31",
    "prefectureNumber": 31,
    "prefecture": "鳥取県",
    "city": "鳥取市",
    "town": "下味野"
  },
  "6801166": {
    "zipcode": "6801166",
    "prefectureCode": "31",
    "prefectureNumber": 31,
    "prefecture": "鳥取県",
    "city": "鳥取市",
    "town": "朝月"
  },
  "6801167": {
    "zipcode": "6801167",
    "prefectureCode": "31",
    "prefectureNumber": 31,
    "prefecture": "鳥取県",
    "city": "鳥取市",
    "town": "上味野"
  },
  "6801171": {
    "zipcode": "6801171",
    "prefectureCode": "31",
    "prefectureNumber": 31,
    "prefecture": "鳥取県",
    "city": "鳥取市",
    "town": "本高"
  },
  "6801172": {
    "zipcode": "6801172",
    "prefectureCode": "31",
    "prefectureNumber": 31,
    "prefecture": "鳥取県",
    "city": "鳥取市",
    "town": "北村"
  },
  "6801173": {
    "zipcode": "6801173",
    "prefectureCode": "31",
    "prefectureNumber": 31,
    "prefecture": "鳥取県",
    "city": "鳥取市",
    "town": "西今在家"
  },
  "6801174": {
    "zipcode": "6801174",
    "prefectureCode": "31",
    "prefectureNumber": 31,
    "prefecture": "鳥取県",
    "city": "鳥取市",
    "town": "篠坂"
  },
  "6801175": {
    "zipcode": "6801175",
    "prefectureCode": "31",
    "prefectureNumber": 31,
    "prefecture": "鳥取県",
    "city": "鳥取市",
    "town": "中村"
  },
  "6801176": {
    "zipcode": "6801176",
    "prefectureCode": "31",
    "prefectureNumber": 31,
    "prefecture": "鳥取県",
    "city": "鳥取市",
    "town": "有富"
  },
  "6801177": {
    "zipcode": "6801177",
    "prefectureCode": "31",
    "prefectureNumber": 31,
    "prefecture": "鳥取県",
    "city": "鳥取市",
    "town": "高路"
  },
  "6801201": {
    "zipcode": "6801201",
    "prefectureCode": "31",
    "prefectureNumber": 31,
    "prefecture": "鳥取県",
    "city": "鳥取市",
    "town": "河原町袋河原"
  },
  "6801202": {
    "zipcode": "6801202",
    "prefectureCode": "31",
    "prefectureNumber": 31,
    "prefecture": "鳥取県",
    "city": "鳥取市",
    "town": "河原町布袋"
  },
  "6801203": {
    "zipcode": "6801203",
    "prefectureCode": "31",
    "prefectureNumber": 31,
    "prefecture": "鳥取県",
    "city": "鳥取市",
    "town": "河原町稲常"
  },
  "6801204": {
    "zipcode": "6801204",
    "prefectureCode": "31",
    "prefectureNumber": 31,
    "prefecture": "鳥取県",
    "city": "鳥取市",
    "town": "河原町片山"
  },
  "6801205": {
    "zipcode": "6801205",
    "prefectureCode": "31",
    "prefectureNumber": 31,
    "prefecture": "鳥取県",
    "city": "鳥取市",
    "town": "河原町今在家"
  },
  "6801206": {
    "zipcode": "6801206",
    "prefectureCode": "31",
    "prefectureNumber": 31,
    "prefecture": "鳥取県",
    "city": "鳥取市",
    "town": "河原町三谷"
  },
  "6801207": {
    "zipcode": "6801207",
    "prefectureCode": "31",
    "prefectureNumber": 31,
    "prefecture": "鳥取県",
    "city": "鳥取市",
    "town": "河原町郷原"
  },
  "6801208": {
    "zipcode": "6801208",
    "prefectureCode": "31",
    "prefectureNumber": 31,
    "prefecture": "鳥取県",
    "city": "鳥取市",
    "town": "河原町鮎ケ丘"
  },
  "6801209": {
    "zipcode": "6801209",
    "prefectureCode": "31",
    "prefectureNumber": 31,
    "prefecture": "鳥取県",
    "city": "鳥取市",
    "town": "河原町西円通寺"
  },
  "6801211": {
    "zipcode": "6801211",
    "prefectureCode": "31",
    "prefectureNumber": 31,
    "prefecture": "鳥取県",
    "city": "鳥取市",
    "town": "河原町山手"
  },
  "6801212": {
    "zipcode": "6801212",
    "prefectureCode": "31",
    "prefectureNumber": 31,
    "prefecture": "鳥取県",
    "city": "鳥取市",
    "town": "河原町徳吉"
  },
  "6801213": {
    "zipcode": "6801213",
    "prefectureCode": "31",
    "prefectureNumber": 31,
    "prefecture": "鳥取県",
    "city": "鳥取市",
    "town": "河原町高福"
  },
  "6801214": {
    "zipcode": "6801214",
    "prefectureCode": "31",
    "prefectureNumber": 31,
    "prefecture": "鳥取県",
    "city": "鳥取市",
    "town": "河原町八日市"
  },
  "6801215": {
    "zipcode": "6801215",
    "prefectureCode": "31",
    "prefectureNumber": 31,
    "prefecture": "鳥取県",
    "city": "鳥取市",
    "town": "河原町和奈見"
  },
  "6801216": {
    "zipcode": "6801216",
    "prefectureCode": "31",
    "prefectureNumber": 31,
    "prefecture": "鳥取県",
    "city": "鳥取市",
    "town": "河原町釜口"
  },
  "6801221": {
    "zipcode": "6801221",
    "prefectureCode": "31",
    "prefectureNumber": 31,
    "prefecture": "鳥取県",
    "city": "鳥取市",
    "town": "河原町渡一木"
  },
  "6801222": {
    "zipcode": "6801222",
    "prefectureCode": "31",
    "prefectureNumber": 31,
    "prefecture": "鳥取県",
    "city": "鳥取市",
    "town": "河原町曳田"
  },
  "6801223": {
    "zipcode": "6801223",
    "prefectureCode": "31",
    "prefectureNumber": 31,
    "prefecture": "鳥取県",
    "city": "鳥取市",
    "town": "河原町天神原"
  },
  "6801224": {
    "zipcode": "6801224",
    "prefectureCode": "31",
    "prefectureNumber": 31,
    "prefecture": "鳥取県",
    "city": "鳥取市",
    "town": "河原町中井"
  },
  "6801225": {
    "zipcode": "6801225",
    "prefectureCode": "31",
    "prefectureNumber": 31,
    "prefecture": "鳥取県",
    "city": "鳥取市",
    "town": "河原町牛戸"
  },
  "6801231": {
    "zipcode": "6801231",
    "prefectureCode": "31",
    "prefectureNumber": 31,
    "prefecture": "鳥取県",
    "city": "鳥取市",
    "town": "河原町湯谷"
  },
  "6801232": {
    "zipcode": "6801232",
    "prefectureCode": "31",
    "prefectureNumber": 31,
    "prefecture": "鳥取県",
    "city": "鳥取市",
    "town": "河原町小畑"
  },
  "6801233": {
    "zipcode": "6801233",
    "prefectureCode": "31",
    "prefectureNumber": 31,
    "prefecture": "鳥取県",
    "city": "鳥取市",
    "town": "河原町弓河内"
  },
  "6801234": {
    "zipcode": "6801234",
    "prefectureCode": "31",
    "prefectureNumber": 31,
    "prefecture": "鳥取県",
    "city": "鳥取市",
    "town": "河原町北村"
  },
  "6801241": {
    "zipcode": "6801241",
    "prefectureCode": "31",
    "prefectureNumber": 31,
    "prefecture": "鳥取県",
    "city": "鳥取市",
    "town": "河原町長瀬"
  },
  "6801242": {
    "zipcode": "6801242",
    "prefectureCode": "31",
    "prefectureNumber": 31,
    "prefecture": "鳥取県",
    "city": "鳥取市",
    "town": "河原町谷一木"
  },
  "6801243": {
    "zipcode": "6801243",
    "prefectureCode": "31",
    "prefectureNumber": 31,
    "prefecture": "鳥取県",
    "city": "鳥取市",
    "town": "河原町佐貫"
  },
  "6801244": {
    "zipcode": "6801244",
    "prefectureCode": "31",
    "prefectureNumber": 31,
    "prefecture": "鳥取県",
    "city": "鳥取市",
    "town": "河原町水根"
  },
  "6801245": {
    "zipcode": "6801245",
    "prefectureCode": "31",
    "prefectureNumber": 31,
    "prefecture": "鳥取県",
    "city": "鳥取市",
    "town": "河原町小倉"
  },
  "6801246": {
    "zipcode": "6801246",
    "prefectureCode": "31",
    "prefectureNumber": 31,
    "prefecture": "鳥取県",
    "city": "鳥取市",
    "town": "河原町山上"
  },
  "6801251": {
    "zipcode": "6801251",
    "prefectureCode": "31",
    "prefectureNumber": 31,
    "prefecture": "鳥取県",
    "city": "鳥取市",
    "town": "河原町河原"
  },
  "6801252": {
    "zipcode": "6801252",
    "prefectureCode": "31",
    "prefectureNumber": 31,
    "prefecture": "鳥取県",
    "city": "鳥取市",
    "town": "河原町本鹿"
  },
  "6801253": {
    "zipcode": "6801253",
    "prefectureCode": "31",
    "prefectureNumber": 31,
    "prefecture": "鳥取県",
    "city": "鳥取市",
    "town": "河原町小河内"
  },
  "6801254": {
    "zipcode": "6801254",
    "prefectureCode": "31",
    "prefectureNumber": 31,
    "prefecture": "鳥取県",
    "city": "鳥取市",
    "town": "河原町神馬"
  },
  "6801411": {
    "zipcode": "6801411",
    "prefectureCode": "31",
    "prefectureNumber": 31,
    "prefecture": "鳥取県",
    "city": "鳥取市",
    "town": "嶋"
  },
  "6801412": {
    "zipcode": "6801412",
    "prefectureCode": "31",
    "prefectureNumber": 31,
    "prefecture": "鳥取県",
    "city": "鳥取市",
    "town": "宮谷"
  },
  "6801413": {
    "zipcode": "6801413",
    "prefectureCode": "31",
    "prefectureNumber": 31,
    "prefecture": "鳥取県",
    "city": "鳥取市",
    "town": "野坂"
  },
  "6801414": {
    "zipcode": "6801414",
    "prefectureCode": "31",
    "prefectureNumber": 31,
    "prefecture": "鳥取県",
    "city": "鳥取市",
    "town": "下段"
  },
  "6801415": {
    "zipcode": "6801415",
    "prefectureCode": "31",
    "prefectureNumber": 31,
    "prefecture": "鳥取県",
    "city": "鳥取市",
    "town": "大塚"
  },
  "6801416": {
    "zipcode": "6801416",
    "prefectureCode": "31",
    "prefectureNumber": 31,
    "prefecture": "鳥取県",
    "city": "鳥取市",
    "town": "高住"
  },
  "6801417": {
    "zipcode": "6801417",
    "prefectureCode": "31",
    "prefectureNumber": 31,
    "prefecture": "鳥取県",
    "city": "鳥取市",
    "town": "桂見"
  },
  "6801418": {
    "zipcode": "6801418",
    "prefectureCode": "31",
    "prefectureNumber": 31,
    "prefecture": "鳥取県",
    "city": "鳥取市",
    "town": "大桷"
  },
  "6801421": {
    "zipcode": "6801421",
    "prefectureCode": "31",
    "prefectureNumber": 31,
    "prefecture": "鳥取県",
    "city": "鳥取市",
    "town": "上段"
  },
  "6801422": {
    "zipcode": "6801422",
    "prefectureCode": "31",
    "prefectureNumber": 31,
    "prefecture": "鳥取県",
    "city": "鳥取市",
    "town": "上原"
  },
  "6801423": {
    "zipcode": "6801423",
    "prefectureCode": "31",
    "prefectureNumber": 31,
    "prefecture": "鳥取県",
    "city": "鳥取市",
    "town": "松上"
  },
  "6801424": {
    "zipcode": "6801424",
    "prefectureCode": "31",
    "prefectureNumber": 31,
    "prefecture": "鳥取県",
    "city": "鳥取市",
    "town": "槇原"
  },
  "6801425": {
    "zipcode": "6801425",
    "prefectureCode": "31",
    "prefectureNumber": 31,
    "prefecture": "鳥取県",
    "city": "鳥取市",
    "town": "河内"
  },
  "6801426": {
    "zipcode": "6801426",
    "prefectureCode": "31",
    "prefectureNumber": 31,
    "prefecture": "鳥取県",
    "city": "鳥取市",
    "town": "細見"
  },
  "6801427": {
    "zipcode": "6801427",
    "prefectureCode": "31",
    "prefectureNumber": 31,
    "prefecture": "鳥取県",
    "city": "鳥取市",
    "town": "尾崎"
  },
  "6801428": {
    "zipcode": "6801428",
    "prefectureCode": "31",
    "prefectureNumber": 31,
    "prefecture": "鳥取県",
    "city": "鳥取市",
    "town": "三山口"
  },
  "6801431": {
    "zipcode": "6801431",
    "prefectureCode": "31",
    "prefectureNumber": 31,
    "prefecture": "鳥取県",
    "city": "鳥取市",
    "town": "妙徳寺"
  },
  "6801432": {
    "zipcode": "6801432",
    "prefectureCode": "31",
    "prefectureNumber": 31,
    "prefecture": "鳥取県",
    "city": "鳥取市",
    "town": "双六原"
  },
  "6801433": {
    "zipcode": "6801433",
    "prefectureCode": "31",
    "prefectureNumber": 31,
    "prefecture": "鳥取県",
    "city": "鳥取市",
    "town": "矢矯"
  },
  "6801434": {
    "zipcode": "6801434",
    "prefectureCode": "31",
    "prefectureNumber": 31,
    "prefecture": "鳥取県",
    "city": "鳥取市",
    "town": "洞谷"
  },
  "6801435": {
    "zipcode": "6801435",
    "prefectureCode": "31",
    "prefectureNumber": 31,
    "prefecture": "鳥取県",
    "city": "鳥取市",
    "town": "瀬田蔵"
  },
  "6801436": {
    "zipcode": "6801436",
    "prefectureCode": "31",
    "prefectureNumber": 31,
    "prefecture": "鳥取県",
    "city": "鳥取市",
    "town": "長柄"
  },
  "6801437": {
    "zipcode": "6801437",
    "prefectureCode": "31",
    "prefectureNumber": 31,
    "prefecture": "鳥取県",
    "city": "鳥取市",
    "town": "大畑"
  },
  "6801438": {
    "zipcode": "6801438",
    "prefectureCode": "31",
    "prefectureNumber": 31,
    "prefecture": "鳥取県",
    "city": "鳥取市",
    "town": "福井"
  },
  "6801439": {
    "zipcode": "6801439",
    "prefectureCode": "31",
    "prefectureNumber": 31,
    "prefecture": "鳥取県",
    "city": "鳥取市",
    "town": "金沢"
  },
  "6801441": {
    "zipcode": "6801441",
    "prefectureCode": "31",
    "prefectureNumber": 31,
    "prefecture": "鳥取県",
    "city": "鳥取市",
    "town": "良田"
  },
  "6801442": {
    "zipcode": "6801442",
    "prefectureCode": "31",
    "prefectureNumber": 31,
    "prefecture": "鳥取県",
    "city": "鳥取市",
    "town": "吉岡温泉町"
  },
  "6801443": {
    "zipcode": "6801443",
    "prefectureCode": "31",
    "prefectureNumber": 31,
    "prefecture": "鳥取県",
    "city": "鳥取市",
    "town": "六反田"
  },
  "6801444": {
    "zipcode": "6801444",
    "prefectureCode": "31",
    "prefectureNumber": 31,
    "prefecture": "鳥取県",
    "city": "鳥取市",
    "town": "松原"
  },
  "6808021": {
    "zipcode": "6808021",
    "prefectureCode": "31",
    "prefectureNumber": 31,
    "prefecture": "鳥取県",
    "city": "鳥取市",
    "town": "福部町久志羅（上野）"
  },
  "6808022": {
    "zipcode": "6808022",
    "prefectureCode": "31",
    "prefectureNumber": 31,
    "prefecture": "鳥取県",
    "city": "鳥取市",
    "town": "福部町左近（上野）"
  },
  "6808062": {
    "zipcode": "6808062",
    "prefectureCode": "31",
    "prefectureNumber": 31,
    "prefecture": "鳥取県",
    "city": "鳥取市",
    "town": "国府町稲葉丘"
  },
  "6808063": {
    "zipcode": "6808063",
    "prefectureCode": "31",
    "prefectureNumber": 31,
    "prefecture": "鳥取県",
    "city": "鳥取市",
    "town": "国府町奥谷"
  },
  "6808064": {
    "zipcode": "6808064",
    "prefectureCode": "31",
    "prefectureNumber": 31,
    "prefecture": "鳥取県",
    "city": "鳥取市",
    "town": "国府町分上"
  },
  "6808065": {
    "zipcode": "6808065",
    "prefectureCode": "31",
    "prefectureNumber": 31,
    "prefecture": "鳥取県",
    "city": "鳥取市",
    "town": "国府町新町"
  },
  "6808066": {
    "zipcode": "6808066",
    "prefectureCode": "31",
    "prefectureNumber": 31,
    "prefecture": "鳥取県",
    "city": "鳥取市",
    "town": "国府町新通り"
  }
}
