{
  "6810000": {
    "zipcode": "6810000",
    "prefectureCode": "31",
    "prefectureNumber": 31,
    "prefecture": "鳥取県",
    "city": "岩美郡岩美町",
    "town": "以下に掲載がない場合"
  },
  "6810001": {
    "zipcode": "6810001",
    "prefectureCode": "31",
    "prefectureNumber": 31,
    "prefecture": "鳥取県",
    "city": "岩美郡岩美町",
    "town": "牧谷"
  },
  "6810002": {
    "zipcode": "6810002",
    "prefectureCode": "31",
    "prefectureNumber": 31,
    "prefecture": "鳥取県",
    "city": "岩美郡岩美町",
    "town": "相谷"
  },
  "6810003": {
    "zipcode": "6810003",
    "prefectureCode": "31",
    "prefectureNumber": 31,
    "prefecture": "鳥取県",
    "city": "岩美郡岩美町",
    "town": "浦富"
  },
  "6810011": {
    "zipcode": "6810011",
    "prefectureCode": "31",
    "prefectureNumber": 31,
    "prefecture": "鳥取県",
    "city": "岩美郡岩美町",
    "town": "陸上"
  },
  "6810012": {
    "zipcode": "6810012",
    "prefectureCode": "31",
    "prefectureNumber": 31,
    "prefecture": "鳥取県",
    "city": "岩美郡岩美町",
    "town": "田河内"
  },
  "6810013": {
    "zipcode": "6810013",
    "prefectureCode": "31",
    "prefectureNumber": 31,
    "prefecture": "鳥取県",
    "city": "岩美郡岩美町",
    "town": "小羽尾"
  },
  "6810014": {
    "zipcode": "6810014",
    "prefectureCode": "31",
    "prefectureNumber": 31,
    "prefecture": "鳥取県",
    "city": "岩美郡岩美町",
    "town": "大羽尾"
  },
  "6810021": {
    "zipcode": "6810021",
    "prefectureCode": "31",
    "prefectureNumber": 31,
    "prefecture": "鳥取県",
    "city": "岩美郡岩美町",
    "town": "長谷"
  },
  "6810022": {
    "zipcode": "6810022",
    "prefectureCode": "31",
    "prefectureNumber": 31,
    "prefecture": "鳥取県",
    "city": "岩美郡岩美町",
    "town": "白地"
  },
  "6810023": {
    "zipcode": "6810023",
    "prefectureCode": "31",
    "prefectureNumber": 31,
    "prefecture": "鳥取県",
    "city": "岩美郡岩美町",
    "town": "真名"
  },
  "6810024": {
    "zipcode": "6810024",
    "prefectureCode": "31",
    "prefectureNumber": 31,
    "prefecture": "鳥取県",
    "city": "岩美郡岩美町",
    "town": "岩井"
  },
  "6810025": {
    "zipcode": "6810025",
    "prefectureCode": "31",
    "prefectureNumber": 31,
    "prefecture": "鳥取県",
    "city": "岩美郡岩美町",
    "town": "宇治"
  },
  "6810031": {
    "zipcode": "6810031",
    "prefectureCode": "31",
    "prefectureNumber": 31,
    "prefecture": "鳥取県",
    "city": "岩美郡岩美町",
    "town": "蒲生"
  },
  "6810032": {
    "zipcode": "6810032",
    "prefectureCode": "31",
    "prefectureNumber": 31,
    "prefecture": "鳥取県",
    "city": "岩美郡岩美町",
    "town": "洗井"
  },
  "6810033": {
    "zipcode": "6810033",
    "prefectureCode": "31",
    "prefectureNumber": 31,
    "prefecture": "鳥取県",
    "city": "岩美郡岩美町",
    "town": "鳥越"
  },
  "6810034": {
    "zipcode": "6810034",
    "prefectureCode": "31",
    "prefectureNumber": 31,
    "prefecture": "鳥取県",
    "city": "岩美郡岩美町",
    "town": "銀山"
  },
  "6810035": {
    "zipcode": "6810035",
    "prefectureCode": "31",
    "prefectureNumber": 31,
    "prefecture": "鳥取県",
    "city": "岩美郡岩美町",
    "town": "馬場"
  },
  "6810036": {
    "zipcode": "6810036",
    "prefectureCode": "31",
    "prefectureNumber": 31,
    "prefecture": "鳥取県",
    "city": "岩美郡岩美町",
    "town": "相山"
  },
  "6810041": {
    "zipcode": "6810041",
    "prefectureCode": "31",
    "prefectureNumber": 31,
    "prefecture": "鳥取県",
    "city": "岩美郡岩美町",
    "town": "黒谷"
  },
  "6810042": {
    "zipcode": "6810042",
    "prefectureCode": "31",
    "prefectureNumber": 31,
    "prefecture": "鳥取県",
    "city": "岩美郡岩美町",
    "town": "小田"
  },
  "6810043": {
    "zipcode": "6810043",
    "prefectureCode": "31",
    "prefectureNumber": 31,
    "prefecture": "鳥取県",
    "city": "岩美郡岩美町",
    "town": "大坂"
  },
  "6810044": {
    "zipcode": "6810044",
    "prefectureCode": "31",
    "prefectureNumber": 31,
    "prefecture": "鳥取県",
    "city": "岩美郡岩美町",
    "town": "外邑"
  },
  "6810045": {
    "zipcode": "6810045",
    "prefectureCode": "31",
    "prefectureNumber": 31,
    "prefecture": "鳥取県",
    "city": "岩美郡岩美町",
    "town": "唐川"
  },
  "6810046": {
    "zipcode": "6810046",
    "prefectureCode": "31",
    "prefectureNumber": 31,
    "prefecture": "鳥取県",
    "city": "岩美郡岩美町",
    "town": "延興寺"
  },
  "6810047": {
    "zipcode": "6810047",
    "prefectureCode": "31",
    "prefectureNumber": 31,
    "prefecture": "鳥取県",
    "city": "岩美郡岩美町",
    "town": "池谷"
  },
  "6810051": {
    "zipcode": "6810051",
    "prefectureCode": "31",
    "prefectureNumber": 31,
    "prefecture": "鳥取県",
    "city": "岩美郡岩美町",
    "town": "河崎"
  },
  "6810052": {
    "zipcode": "6810052",
    "prefectureCode": "31",
    "prefectureNumber": 31,
    "prefecture": "鳥取県",
    "city": "岩美郡岩美町",
    "town": "岩常"
  },
  "6810053": {
    "zipcode": "6810053",
    "prefectureCode": "31",
    "prefectureNumber": 31,
    "prefecture": "鳥取県",
    "city": "岩美郡岩美町",
    "town": "高住"
  },
  "6810054": {
    "zipcode": "6810054",
    "prefectureCode": "31",
    "prefectureNumber": 31,
    "prefecture": "鳥取県",
    "city": "岩美郡岩美町",
    "town": "院内"
  },
  "6810055": {
    "zipcode": "6810055",
    "prefectureCode": "31",
    "prefectureNumber": 31,
    "prefecture": "鳥取県",
    "city": "岩美郡岩美町",
    "town": "荒金"
  },
  "6810056": {
    "zipcode": "6810056",
    "prefectureCode": "31",
    "prefectureNumber": 31,
    "prefecture": "鳥取県",
    "city": "岩美郡岩美町",
    "town": "長郷"
  },
  "6810061": {
    "zipcode": "6810061",
    "prefectureCode": "31",
    "prefectureNumber": 31,
    "prefecture": "鳥取県",
    "city": "岩美郡岩美町",
    "town": "高山"
  },
  "6810062": {
    "zipcode": "6810062",
    "prefectureCode": "31",
    "prefectureNumber": 31,
    "prefecture": "鳥取県",
    "city": "岩美郡岩美町",
    "town": "恩志"
  },
  "6810063": {
    "zipcode": "6810063",
    "prefectureCode": "31",
    "prefectureNumber": 31,
    "prefecture": "鳥取県",
    "city": "岩美郡岩美町",
    "town": "太田"
  },
  "6810064": {
    "zipcode": "6810064",
    "prefectureCode": "31",
    "prefectureNumber": 31,
    "prefecture": "鳥取県",
    "city": "岩美郡岩美町",
    "town": "本庄"
  },
  "6810065": {
    "zipcode": "6810065",
    "prefectureCode": "31",
    "prefectureNumber": 31,
    "prefecture": "鳥取県",
    "city": "岩美郡岩美町",
    "town": "新井"
  },
  "6810071": {
    "zipcode": "6810071",
    "prefectureCode": "31",
    "prefectureNumber": 31,
    "prefecture": "鳥取県",
    "city": "岩美郡岩美町",
    "town": "田後"
  },
  "6810072": {
    "zipcode": "6810072",
    "prefectureCode": "31",
    "prefectureNumber": 31,
    "prefecture": "鳥取県",
    "city": "岩美郡岩美町",
    "town": "岩本"
  },
  "6810073": {
    "zipcode": "6810073",
    "prefectureCode": "31",
    "prefectureNumber": 31,
    "prefecture": "鳥取県",
    "city": "岩美郡岩美町",
    "town": "大谷"
  },
  "6810074": {
    "zipcode": "6810074",
    "prefectureCode": "31",
    "prefectureNumber": 31,
    "prefecture": "鳥取県",
    "city": "岩美郡岩美町",
    "town": "網代"
  }
}
