{
  "6820000": {
    "zipcode": "6820000",
    "prefectureCode": "31",
    "prefectureNumber": 31,
    "prefecture": "鳥取県",
    "city": "倉吉市",
    "town": "以下に掲載がない場合"
  },
  "6820001": {
    "zipcode": "6820001",
    "prefectureCode": "31",
    "prefectureNumber": 31,
    "prefecture": "鳥取県",
    "city": "倉吉市",
    "town": "穴窪"
  },
  "6820002": {
    "zipcode": "6820002",
    "prefectureCode": "31",
    "prefectureNumber": 31,
    "prefecture": "鳥取県",
    "city": "倉吉市",
    "town": "中江"
  },
  "6820003": {
    "zipcode": "6820003",
    "prefectureCode": "31",
    "prefectureNumber": 31,
    "prefecture": "鳥取県",
    "city": "倉吉市",
    "town": "新田"
  },
  "6820004": {
    "zipcode": "6820004",
    "prefectureCode": "31",
    "prefectureNumber": 31,
    "prefecture": "鳥取県",
    "city": "倉吉市",
    "town": "古川沢"
  },
  "6820005": {
    "zipcode": "6820005",
    "prefectureCode": "31",
    "prefectureNumber": 31,
    "prefecture": "鳥取県",
    "city": "倉吉市",
    "town": "下古川"
  },
  "6820006": {
    "zipcode": "6820006",
    "prefectureCode": "31",
    "prefectureNumber": 31,
    "prefecture": "鳥取県",
    "city": "倉吉市",
    "town": "井手畑"
  },
  "6820011": {
    "zipcode": "6820011",
    "prefectureCode": "31",
    "prefectureNumber": 31,
    "prefecture": "鳥取県",
    "city": "倉吉市",
    "town": "大塚"
  },
  "6820012": {
    "zipcode": "6820012",
    "prefectureCode": "31",
    "prefectureNumber": 31,
    "prefecture": "鳥取県",
    "city": "倉吉市",
    "town": "清谷"
  },
  "6820013": {
    "zipcode": "6820013",
    "prefectureCode": "31",
    "prefectureNumber": 31,
    "prefecture": "鳥取県",
    "city": "倉吉市",
    "town": "福庭"
  },
  "6820014": {
    "zipcode": "6820014",
    "prefectureCode": "31",
    "prefectureNumber": 31,
    "prefecture": "鳥取県",
    "city": "倉吉市",
    "town": "海田東町"
  },
  "6820015": {
    "zipcode": "6820015",
    "prefectureCode": "31",
    "prefectureNumber": 31,
    "prefecture": "鳥取県",
    "city": "倉吉市",
    "town": "海田南町"
  },
  "6820016": {
    "zipcode": "6820016",
    "prefectureCode": "31",
    "prefectureNumber": 31,
    "prefecture": "鳥取県",
    "city": "倉吉市",
    "town": "海田西町"
  },
  "6820017": {
    "zipcode": "6820017",
    "prefectureCode": "31",
    "prefectureNumber": 31,
    "prefecture": "鳥取県",
    "city": "倉吉市",
    "town": "清谷町"
  },
  "6820018": {
    "zipcode": "6820018",
    "prefectureCode": "31",
    "prefectureNumber": 31,
    "prefecture": "鳥取県",
    "city": "倉吉市",
    "town": "福庭町"
  },
  "6820021": {
    "zipcode": "6820021",
    "prefectureCode": "31",
    "prefectureNumber": 31,
    "prefecture": "鳥取県",
    "city": "倉吉市",
    "town": "上井"
  },
  "6820022": {
    "zipcode": "6820022",
    "prefectureCode": "31",
    "prefectureNumber": 31,
    "prefecture": "鳥取県",
    "city": "倉吉市",
    "town": "上井町"
  },
  "6820023": {
    "zipcode": "6820023",
    "prefectureCode": "31",
    "prefectureNumber": 31,
    "prefecture": "鳥取県",
    "city": "倉吉市",
    "town": "山根"
  },
  "6820024": {
    "zipcode": "6820024",
    "prefectureCode": "31",
    "prefectureNumber": 31,
    "prefecture": "鳥取県",
    "city": "倉吉市",
    "town": "伊木"
  },
  "6820025": {
    "zipcode": "6820025",
    "prefectureCode": "31",
    "prefectureNumber": 31,
    "prefecture": "鳥取県",
    "city": "倉吉市",
    "town": "八屋"
  },
  "6820031": {
    "zipcode": "6820031",
    "prefectureCode": "31",
    "prefectureNumber": 31,
    "prefecture": "鳥取県",
    "city": "倉吉市",
    "town": "下余戸"
  },
  "6820032": {
    "zipcode": "6820032",
    "prefectureCode": "31",
    "prefectureNumber": 31,
    "prefecture": "鳥取県",
    "city": "倉吉市",
    "town": "上余戸"
  },
  "6820033": {
    "zipcode": "6820033",
    "prefectureCode": "31",
    "prefectureNumber": 31,
    "prefecture": "鳥取県",
    "city": "倉吉市",
    "town": "栗尾"
  },
  "6820034": {
    "zipcode": "6820034",
    "prefectureCode": "31",
    "prefectureNumber": 31,
    "prefecture": "鳥取県",
    "city": "倉吉市",
    "town": "大原"
  },
  "6820035": {
    "zipcode": "6820035",
    "prefectureCode": "31",
    "prefectureNumber": 31,
    "prefecture": "鳥取県",
    "city": "倉吉市",
    "town": "広栄町"
  },
  "6820036": {
    "zipcode": "6820036",
    "prefectureCode": "31",
    "prefectureNumber": 31,
    "prefecture": "鳥取県",
    "city": "倉吉市",
    "town": "虹ケ丘町"
  },
  "6820041": {
    "zipcode": "6820041",
    "prefectureCode": "31",
    "prefectureNumber": 31,
    "prefecture": "鳥取県",
    "city": "倉吉市",
    "town": "河北町"
  },
  "6820042": {
    "zipcode": "6820042",
    "prefectureCode": "31",
    "prefectureNumber": 31,
    "prefecture": "鳥取県",
    "city": "倉吉市",
    "town": "大平町"
  },
  "6820043": {
    "zipcode": "6820043",
    "prefectureCode": "31",
    "prefectureNumber": 31,
    "prefecture": "鳥取県",
    "city": "倉吉市",
    "town": "天神町"
  },
  "6820044": {
    "zipcode": "6820044",
    "prefectureCode": "31",
    "prefectureNumber": 31,
    "prefecture": "鳥取県",
    "city": "倉吉市",
    "town": "小田"
  },
  "6820045": {
    "zipcode": "6820045",
    "prefectureCode": "31",
    "prefectureNumber": 31,
    "prefecture": "鳥取県",
    "city": "倉吉市",
    "town": "小田東"
  },
  "6820100": {
    "zipcode": "6820100",
    "prefectureCode": "31",
    "prefectureNumber": 31,
    "prefecture": "鳥取県",
    "city": "東伯郡三朝町",
    "town": "以下に掲載がない場合"
  },
  "6820121": {
    "zipcode": "6820121",
    "prefectureCode": "31",
    "prefectureNumber": 31,
    "prefecture": "鳥取県",
    "city": "東伯郡三朝町",
    "town": "大瀬"
  },
  "6820122": {
    "zipcode": "6820122",
    "prefectureCode": "31",
    "prefectureNumber": 31,
    "prefecture": "鳥取県",
    "city": "東伯郡三朝町",
    "town": "山田"
  },
  "6820123": {
    "zipcode": "6820123",
    "prefectureCode": "31",
    "prefectureNumber": 31,
    "prefecture": "鳥取県",
    "city": "東伯郡三朝町",
    "town": "三朝"
  },
  "6820124": {
    "zipcode": "6820124",
    "prefectureCode": "31",
    "prefectureNumber": 31,
    "prefecture": "鳥取県",
    "city": "東伯郡三朝町",
    "town": "砂原"
  },
  "6820125": {
    "zipcode": "6820125",
    "prefectureCode": "31",
    "prefectureNumber": 31,
    "prefecture": "鳥取県",
    "city": "東伯郡三朝町",
    "town": "横手"
  },
  "6820131": {
    "zipcode": "6820131",
    "prefectureCode": "31",
    "prefectureNumber": 31,
    "prefecture": "鳥取県",
    "city": "東伯郡三朝町",
    "town": "俵原"
  },
  "6820132": {
    "zipcode": "6820132",
    "prefectureCode": "31",
    "prefectureNumber": 31,
    "prefecture": "鳥取県",
    "city": "東伯郡三朝町",
    "town": "三徳"
  },
  "6820133": {
    "zipcode": "6820133",
    "prefectureCode": "31",
    "prefectureNumber": 31,
    "prefecture": "鳥取県",
    "city": "東伯郡三朝町",
    "town": "吉田"
  },
  "6820134": {
    "zipcode": "6820134",
    "prefectureCode": "31",
    "prefectureNumber": 31,
    "prefecture": "鳥取県",
    "city": "東伯郡三朝町",
    "town": "余戸"
  },
  "6820135": {
    "zipcode": "6820135",
    "prefectureCode": "31",
    "prefectureNumber": 31,
    "prefecture": "鳥取県",
    "city": "東伯郡三朝町",
    "town": "片柴"
  },
  "6820136": {
    "zipcode": "6820136",
    "prefectureCode": "31",
    "prefectureNumber": 31,
    "prefecture": "鳥取県",
    "city": "東伯郡三朝町",
    "town": "坂本"
  },
  "6820141": {
    "zipcode": "6820141",
    "prefectureCode": "31",
    "prefectureNumber": 31,
    "prefecture": "鳥取県",
    "city": "東伯郡三朝町",
    "town": "中津"
  },
  "6820142": {
    "zipcode": "6820142",
    "prefectureCode": "31",
    "prefectureNumber": 31,
    "prefecture": "鳥取県",
    "city": "東伯郡三朝町",
    "town": "神倉"
  },
  "6820143": {
    "zipcode": "6820143",
    "prefectureCode": "31",
    "prefectureNumber": 31,
    "prefecture": "鳥取県",
    "city": "東伯郡三朝町",
    "town": "東小鹿"
  },
  "6820144": {
    "zipcode": "6820144",
    "prefectureCode": "31",
    "prefectureNumber": 31,
    "prefecture": "鳥取県",
    "city": "東伯郡三朝町",
    "town": "西小鹿"
  },
  "6820145": {
    "zipcode": "6820145",
    "prefectureCode": "31",
    "prefectureNumber": 31,
    "prefecture": "鳥取県",
    "city": "東伯郡三朝町",
    "town": "西尾"
  },
  "6820146": {
    "zipcode": "6820146",
    "prefectureCode": "31",
    "prefectureNumber": 31,
    "prefecture": "鳥取県",
    "city": "東伯郡三朝町",
    "town": "高橋"
  },
  "6820151": {
    "zipcode": "6820151",
    "prefectureCode": "31",
    "prefectureNumber": 31,
    "prefecture": "鳥取県",
    "city": "東伯郡三朝町",
    "town": "若宮"
  },
  "6820152": {
    "zipcode": "6820152",
    "prefectureCode": "31",
    "prefectureNumber": 31,
    "prefecture": "鳥取県",
    "city": "東伯郡三朝町",
    "town": "本泉"
  },
  "6820153": {
    "zipcode": "6820153",
    "prefectureCode": "31",
    "prefectureNumber": 31,
    "prefecture": "鳥取県",
    "city": "東伯郡三朝町",
    "town": "森"
  },
  "6820154": {
    "zipcode": "6820154",
    "prefectureCode": "31",
    "prefectureNumber": 31,
    "prefecture": "鳥取県",
    "city": "東伯郡三朝町",
    "town": "鎌田"
  },
  "6820155": {
    "zipcode": "6820155",
    "prefectureCode": "31",
    "prefectureNumber": 31,
    "prefecture": "鳥取県",
    "city": "東伯郡三朝町",
    "town": "吉尾"
  },
  "6820156": {
    "zipcode": "6820156",
    "prefectureCode": "31",
    "prefectureNumber": 31,
    "prefecture": "鳥取県",
    "city": "東伯郡三朝町",
    "town": "下谷"
  },
  "6820157": {
    "zipcode": "6820157",
    "prefectureCode": "31",
    "prefectureNumber": 31,
    "prefecture": "鳥取県",
    "city": "東伯郡三朝町",
    "town": "小河内"
  },
  "6820158": {
    "zipcode": "6820158",
    "prefectureCode": "31",
    "prefectureNumber": 31,
    "prefecture": "鳥取県",
    "city": "東伯郡三朝町",
    "town": "笏賀"
  },
  "6820159": {
    "zipcode": "6820159",
    "prefectureCode": "31",
    "prefectureNumber": 31,
    "prefecture": "鳥取県",
    "city": "東伯郡三朝町",
    "town": "福田"
  },
  "6820161": {
    "zipcode": "6820161",
    "prefectureCode": "31",
    "prefectureNumber": 31,
    "prefecture": "鳥取県",
    "city": "東伯郡三朝町",
    "town": "柿谷"
  },
  "6820162": {
    "zipcode": "6820162",
    "prefectureCode": "31",
    "prefectureNumber": 31,
    "prefecture": "鳥取県",
    "city": "東伯郡三朝町",
    "town": "鉛山"
  },
  "6820163": {
    "zipcode": "6820163",
    "prefectureCode": "31",
    "prefectureNumber": 31,
    "prefecture": "鳥取県",
    "city": "東伯郡三朝町",
    "town": "福吉"
  },
  "6820171": {
    "zipcode": "6820171",
    "prefectureCode": "31",
    "prefectureNumber": 31,
    "prefecture": "鳥取県",
    "city": "東伯郡三朝町",
    "town": "湯谷"
  },
  "6820172": {
    "zipcode": "6820172",
    "prefectureCode": "31",
    "prefectureNumber": 31,
    "prefecture": "鳥取県",
    "city": "東伯郡三朝町",
    "town": "赤松"
  },
  "6820173": {
    "zipcode": "6820173",
    "prefectureCode": "31",
    "prefectureNumber": 31,
    "prefecture": "鳥取県",
    "city": "東伯郡三朝町",
    "town": "恩地"
  },
  "6820176": {
    "zipcode": "6820176",
    "prefectureCode": "31",
    "prefectureNumber": 31,
    "prefecture": "鳥取県",
    "city": "東伯郡三朝町",
    "town": "助谷"
  },
  "6820177": {
    "zipcode": "6820177",
    "prefectureCode": "31",
    "prefectureNumber": 31,
    "prefecture": "鳥取県",
    "city": "東伯郡三朝町",
    "town": "大柿"
  },
  "6820178": {
    "zipcode": "6820178",
    "prefectureCode": "31",
    "prefectureNumber": 31,
    "prefecture": "鳥取県",
    "city": "東伯郡三朝町",
    "town": "牧"
  },
  "6820301": {
    "zipcode": "6820301",
    "prefectureCode": "31",
    "prefectureNumber": 31,
    "prefecture": "鳥取県",
    "city": "東伯郡三朝町",
    "town": "木地山"
  },
  "6820302": {
    "zipcode": "6820302",
    "prefectureCode": "31",
    "prefectureNumber": 31,
    "prefecture": "鳥取県",
    "city": "東伯郡三朝町",
    "town": "加谷"
  },
  "6820303": {
    "zipcode": "6820303",
    "prefectureCode": "31",
    "prefectureNumber": 31,
    "prefecture": "鳥取県",
    "city": "東伯郡三朝町",
    "town": "穴鴨"
  },
  "6820311": {
    "zipcode": "6820311",
    "prefectureCode": "31",
    "prefectureNumber": 31,
    "prefecture": "鳥取県",
    "city": "東伯郡三朝町",
    "town": "福山"
  },
  "6820312": {
    "zipcode": "6820312",
    "prefectureCode": "31",
    "prefectureNumber": 31,
    "prefecture": "鳥取県",
    "city": "東伯郡三朝町",
    "town": "下西谷"
  },
  "6820313": {
    "zipcode": "6820313",
    "prefectureCode": "31",
    "prefectureNumber": 31,
    "prefecture": "鳥取県",
    "city": "東伯郡三朝町",
    "town": "上西谷"
  },
  "6820314": {
    "zipcode": "6820314",
    "prefectureCode": "31",
    "prefectureNumber": 31,
    "prefecture": "鳥取県",
    "city": "東伯郡三朝町",
    "town": "田代"
  },
  "6820315": {
    "zipcode": "6820315",
    "prefectureCode": "31",
    "prefectureNumber": 31,
    "prefecture": "鳥取県",
    "city": "東伯郡三朝町",
    "town": "大谷"
  },
  "6820316": {
    "zipcode": "6820316",
    "prefectureCode": "31",
    "prefectureNumber": 31,
    "prefecture": "鳥取県",
    "city": "東伯郡三朝町",
    "town": "下畑"
  },
  "6820317": {
    "zipcode": "6820317",
    "prefectureCode": "31",
    "prefectureNumber": 31,
    "prefecture": "鳥取県",
    "city": "東伯郡三朝町",
    "town": "福本"
  },
  "6820374": {
    "zipcode": "6820374",
    "prefectureCode": "31",
    "prefectureNumber": 31,
    "prefecture": "鳥取県",
    "city": "東伯郡三朝町",
    "town": "曹源寺"
  },
  "6820375": {
    "zipcode": "6820375",
    "prefectureCode": "31",
    "prefectureNumber": 31,
    "prefecture": "鳥取県",
    "city": "東伯郡三朝町",
    "town": "久原"
  },
  "6820401": {
    "zipcode": "6820401",
    "prefectureCode": "31",
    "prefectureNumber": 31,
    "prefecture": "鳥取県",
    "city": "倉吉市",
    "town": "関金町安歩"
  },
  "6820402": {
    "zipcode": "6820402",
    "prefectureCode": "31",
    "prefectureNumber": 31,
    "prefecture": "鳥取県",
    "city": "倉吉市",
    "town": "関金町大鳥居"
  },
  "6820403": {
    "zipcode": "6820403",
    "prefectureCode": "31",
    "prefectureNumber": 31,
    "prefecture": "鳥取県",
    "city": "倉吉市",
    "town": "関金町松河原"
  },
  "6820404": {
    "zipcode": "6820404",
    "prefectureCode": "31",
    "prefectureNumber": 31,
    "prefecture": "鳥取県",
    "city": "倉吉市",
    "town": "関金町泰久寺"
  },
  "6820411": {
    "zipcode": "6820411",
    "prefectureCode": "31",
    "prefectureNumber": 31,
    "prefecture": "鳥取県",
    "city": "倉吉市",
    "town": "関金町関金宿"
  },
  "6820412": {
    "zipcode": "6820412",
    "prefectureCode": "31",
    "prefectureNumber": 31,
    "prefecture": "鳥取県",
    "city": "倉吉市",
    "town": "関金町山口"
  },
  "6820413": {
    "zipcode": "6820413",
    "prefectureCode": "31",
    "prefectureNumber": 31,
    "prefecture": "鳥取県",
    "city": "倉吉市",
    "town": "関金町郡家"
  },
  "6820421": {
    "zipcode": "6820421",
    "prefectureCode": "31",
    "prefectureNumber": 31,
    "prefecture": "鳥取県",
    "city": "倉吉市",
    "town": "関金町今西"
  },
  "6820422": {
    "zipcode": "6820422",
    "prefectureCode": "31",
    "prefectureNumber": 31,
    "prefecture": "鳥取県",
    "city": "倉吉市",
    "town": "関金町堀"
  },
  "6820423": {
    "zipcode": "6820423",
    "prefectureCode": "31",
    "prefectureNumber": 31,
    "prefecture": "鳥取県",
    "city": "倉吉市",
    "town": "関金町明高"
  },
  "6820431": {
    "zipcode": "6820431",
    "prefectureCode": "31",
    "prefectureNumber": 31,
    "prefecture": "鳥取県",
    "city": "倉吉市",
    "town": "関金町米富"
  },
  "6820432": {
    "zipcode": "6820432",
    "prefectureCode": "31",
    "prefectureNumber": 31,
    "prefecture": "鳥取県",
    "city": "倉吉市",
    "town": "関金町福原"
  },
  "6820433": {
    "zipcode": "6820433",
    "prefectureCode": "31",
    "prefectureNumber": 31,
    "prefecture": "鳥取県",
    "city": "倉吉市",
    "town": "関金町小泉"
  },
  "6820434": {
    "zipcode": "6820434",
    "prefectureCode": "31",
    "prefectureNumber": 31,
    "prefecture": "鳥取県",
    "city": "倉吉市",
    "town": "関金町野添"
  },
  "6820601": {
    "zipcode": "6820601",
    "prefectureCode": "31",
    "prefectureNumber": 31,
    "prefecture": "鳥取県",
    "city": "倉吉市",
    "town": "下米積"
  },
  "6820602": {
    "zipcode": "6820602",
    "prefectureCode": "31",
    "prefectureNumber": 31,
    "prefecture": "鳥取県",
    "city": "倉吉市",
    "town": "上米積"
  },
  "6820603": {
    "zipcode": "6820603",
    "prefectureCode": "31",
    "prefectureNumber": 31,
    "prefecture": "鳥取県",
    "city": "倉吉市",
    "town": "三江"
  },
  "6820604": {
    "zipcode": "6820604",
    "prefectureCode": "31",
    "prefectureNumber": 31,
    "prefecture": "鳥取県",
    "city": "倉吉市",
    "town": "福本"
  },
  "6820605": {
    "zipcode": "6820605",
    "prefectureCode": "31",
    "prefectureNumber": 31,
    "prefecture": "鳥取県",
    "city": "倉吉市",
    "town": "福富"
  },
  "6820606": {
    "zipcode": "6820606",
    "prefectureCode": "31",
    "prefectureNumber": 31,
    "prefecture": "鳥取県",
    "city": "倉吉市",
    "town": "沢谷"
  },
  "6820607": {
    "zipcode": "6820607",
    "prefectureCode": "31",
    "prefectureNumber": 31,
    "prefecture": "鳥取県",
    "city": "倉吉市",
    "town": "尾田"
  },
  "6820611": {
    "zipcode": "6820611",
    "prefectureCode": "31",
    "prefectureNumber": 31,
    "prefecture": "鳥取県",
    "city": "倉吉市",
    "town": "杉野"
  },
  "6820612": {
    "zipcode": "6820612",
    "prefectureCode": "31",
    "prefectureNumber": 31,
    "prefecture": "鳥取県",
    "city": "倉吉市",
    "town": "中野"
  },
  "6820613": {
    "zipcode": "6820613",
    "prefectureCode": "31",
    "prefectureNumber": 31,
    "prefecture": "鳥取県",
    "city": "倉吉市",
    "town": "志津"
  },
  "6820615": {
    "zipcode": "6820615",
    "prefectureCode": "31",
    "prefectureNumber": 31,
    "prefecture": "鳥取県",
    "city": "倉吉市",
    "town": "森"
  },
  "6820621": {
    "zipcode": "6820621",
    "prefectureCode": "31",
    "prefectureNumber": 31,
    "prefecture": "鳥取県",
    "city": "倉吉市",
    "town": "忰谷"
  },
  "6820622": {
    "zipcode": "6820622",
    "prefectureCode": "31",
    "prefectureNumber": 31,
    "prefecture": "鳥取県",
    "city": "倉吉市",
    "town": "長谷"
  },
  "6820623": {
    "zipcode": "6820623",
    "prefectureCode": "31",
    "prefectureNumber": 31,
    "prefecture": "鳥取県",
    "city": "倉吉市",
    "town": "大河内"
  },
  "6820624": {
    "zipcode": "6820624",
    "prefectureCode": "31",
    "prefectureNumber": 31,
    "prefecture": "鳥取県",
    "city": "倉吉市",
    "town": "般若"
  },
  "6820625": {
    "zipcode": "6820625",
    "prefectureCode": "31",
    "prefectureNumber": 31,
    "prefecture": "鳥取県",
    "city": "倉吉市",
    "town": "椋波"
  },
  "6820626": {
    "zipcode": "6820626",
    "prefectureCode": "31",
    "prefectureNumber": 31,
    "prefecture": "鳥取県",
    "city": "倉吉市",
    "town": "立見"
  },
  "6820631": {
    "zipcode": "6820631",
    "prefectureCode": "31",
    "prefectureNumber": 31,
    "prefecture": "鳥取県",
    "city": "倉吉市",
    "town": "上大立"
  },
  "6820632": {
    "zipcode": "6820632",
    "prefectureCode": "31",
    "prefectureNumber": 31,
    "prefecture": "鳥取県",
    "city": "倉吉市",
    "town": "大立"
  },
  "6820633": {
    "zipcode": "6820633",
    "prefectureCode": "31",
    "prefectureNumber": 31,
    "prefecture": "鳥取県",
    "city": "倉吉市",
    "town": "河来見"
  },
  "6820634": {
    "zipcode": "6820634",
    "prefectureCode": "31",
    "prefectureNumber": 31,
    "prefecture": "鳥取県",
    "city": "倉吉市",
    "town": "桜"
  },
  "6820635": {
    "zipcode": "6820635",
    "prefectureCode": "31",
    "prefectureNumber": 31,
    "prefecture": "鳥取県",
    "city": "倉吉市",
    "town": "服部"
  },
  "6820641": {
    "zipcode": "6820641",
    "prefectureCode": "31",
    "prefectureNumber": 31,
    "prefecture": "鳥取県",
    "city": "倉吉市",
    "town": "今在家"
  },
  "6820642": {
    "zipcode": "6820642",
    "prefectureCode": "31",
    "prefectureNumber": 31,
    "prefecture": "鳥取県",
    "city": "倉吉市",
    "town": "上福田"
  },
  "6820643": {
    "zipcode": "6820643",
    "prefectureCode": "31",
    "prefectureNumber": 31,
    "prefecture": "鳥取県",
    "city": "倉吉市",
    "town": "下福田"
  },
  "6820644": {
    "zipcode": "6820644",
    "prefectureCode": "31",
    "prefectureNumber": 31,
    "prefecture": "鳥取県",
    "city": "倉吉市",
    "town": "福積"
  },
  "6820645": {
    "zipcode": "6820645",
    "prefectureCode": "31",
    "prefectureNumber": 31,
    "prefecture": "鳥取県",
    "city": "倉吉市",
    "town": "岡"
  },
  "6820700": {
    "zipcode": "6820700",
    "prefectureCode": "31",
    "prefectureNumber": 31,
    "prefecture": "鳥取県",
    "city": "東伯郡湯梨浜町",
    "town": "以下に掲載がない場合"
  },
  "6820701": {
    "zipcode": "6820701",
    "prefectureCode": "31",
    "prefectureNumber": 31,
    "prefecture": "鳥取県",
    "city": "東伯郡湯梨浜町",
    "town": "宇野"
  },
  "6820702": {
    "zipcode": "6820702",
    "prefectureCode": "31",
    "prefectureNumber": 31,
    "prefecture": "鳥取県",
    "city": "東伯郡湯梨浜町",
    "town": "橋津"
  },
  "6820703": {
    "zipcode": "6820703",
    "prefectureCode": "31",
    "prefectureNumber": 31,
    "prefecture": "鳥取県",
    "city": "東伯郡湯梨浜町",
    "town": "上橋津"
  },
  "6820704": {
    "zipcode": "6820704",
    "prefectureCode": "31",
    "prefectureNumber": 31,
    "prefecture": "鳥取県",
    "city": "東伯郡湯梨浜町",
    "town": "南谷"
  },
  "6820711": {
    "zipcode": "6820711",
    "prefectureCode": "31",
    "prefectureNumber": 31,
    "prefecture": "鳥取県",
    "city": "東伯郡湯梨浜町",
    "town": "下浅津"
  },
  "6820712": {
    "zipcode": "6820712",
    "prefectureCode": "31",
    "prefectureNumber": 31,
    "prefecture": "鳥取県",
    "city": "東伯郡湯梨浜町",
    "town": "上浅津"
  },
  "6820713": {
    "zipcode": "6820713",
    "prefectureCode": "31",
    "prefectureNumber": 31,
    "prefecture": "鳥取県",
    "city": "東伯郡湯梨浜町",
    "town": "光吉"
  },
  "6820714": {
    "zipcode": "6820714",
    "prefectureCode": "31",
    "prefectureNumber": 31,
    "prefecture": "鳥取県",
    "city": "東伯郡湯梨浜町",
    "town": "赤池"
  },
  "6820715": {
    "zipcode": "6820715",
    "prefectureCode": "31",
    "prefectureNumber": 31,
    "prefecture": "鳥取県",
    "city": "東伯郡湯梨浜町",
    "town": "はわい温泉"
  },
  "6820721": {
    "zipcode": "6820721",
    "prefectureCode": "31",
    "prefectureNumber": 31,
    "prefecture": "鳥取県",
    "city": "東伯郡湯梨浜町",
    "town": "田後"
  },
  "6820722": {
    "zipcode": "6820722",
    "prefectureCode": "31",
    "prefectureNumber": 31,
    "prefecture": "鳥取県",
    "city": "東伯郡湯梨浜町",
    "town": "はわい長瀬"
  },
  "6820723": {
    "zipcode": "6820723",
    "prefectureCode": "31",
    "prefectureNumber": 31,
    "prefecture": "鳥取県",
    "city": "東伯郡湯梨浜町",
    "town": "久留"
  },
  "6820724": {
    "zipcode": "6820724",
    "prefectureCode": "31",
    "prefectureNumber": 31,
    "prefecture": "鳥取県",
    "city": "東伯郡湯梨浜町",
    "town": "水下"
  },
  "6820801": {
    "zipcode": "6820801",
    "prefectureCode": "31",
    "prefectureNumber": 31,
    "prefecture": "鳥取県",
    "city": "倉吉市",
    "town": "巌城"
  },
  "6820802": {
    "zipcode": "6820802",
    "prefectureCode": "31",
    "prefectureNumber": 31,
    "prefecture": "鳥取県",
    "city": "倉吉市",
    "town": "東巌城町"
  },
  "6820803": {
    "zipcode": "6820803",
    "prefectureCode": "31",
    "prefectureNumber": 31,
    "prefecture": "鳥取県",
    "city": "倉吉市",
    "town": "見日町"
  },
  "6820804": {
    "zipcode": "6820804",
    "prefectureCode": "31",
    "prefectureNumber": 31,
    "prefecture": "鳥取県",
    "city": "倉吉市",
    "town": "東昭和町"
  },
  "6820805": {
    "zipcode": "6820805",
    "prefectureCode": "31",
    "prefectureNumber": 31,
    "prefecture": "鳥取県",
    "city": "倉吉市",
    "town": "南昭和町"
  },
  "6820806": {
    "zipcode": "6820806",
    "prefectureCode": "31",
    "prefectureNumber": 31,
    "prefecture": "鳥取県",
    "city": "倉吉市",
    "town": "昭和町"
  },
  "6820807": {
    "zipcode": "6820807",
    "prefectureCode": "31",
    "prefectureNumber": 31,
    "prefecture": "鳥取県",
    "city": "倉吉市",
    "town": "幸町"
  },
  "6820811": {
    "zipcode": "6820811",
    "prefectureCode": "31",
    "prefectureNumber": 31,
    "prefecture": "鳥取県",
    "city": "倉吉市",
    "town": "上灘町"
  },
  "6820812": {
    "zipcode": "6820812",
    "prefectureCode": "31",
    "prefectureNumber": 31,
    "prefecture": "鳥取県",
    "city": "倉吉市",
    "town": "下田中町"
  },
  "6820813": {
    "zipcode": "6820813",
    "prefectureCode": "31",
    "prefectureNumber": 31,
    "prefecture": "鳥取県",
    "city": "倉吉市",
    "town": "円谷町"
  },
  "6820814": {
    "zipcode": "6820814",
    "prefectureCode": "31",
    "prefectureNumber": 31,
    "prefecture": "鳥取県",
    "city": "倉吉市",
    "town": "米田町"
  },
  "6820815": {
    "zipcode": "6820815",
    "prefectureCode": "31",
    "prefectureNumber": 31,
    "prefecture": "鳥取県",
    "city": "倉吉市",
    "town": "新陽町"
  },
  "6820816": {
    "zipcode": "6820816",
    "prefectureCode": "31",
    "prefectureNumber": 31,
    "prefecture": "鳥取県",
    "city": "倉吉市",
    "town": "駄経寺町"
  },
  "6820817": {
    "zipcode": "6820817",
    "prefectureCode": "31",
    "prefectureNumber": 31,
    "prefecture": "鳥取県",
    "city": "倉吉市",
    "town": "住吉町"
  },
  "6820821": {
    "zipcode": "6820821",
    "prefectureCode": "31",
    "prefectureNumber": 31,
    "prefecture": "鳥取県",
    "city": "倉吉市",
    "town": "魚町"
  },
  "6820822": {
    "zipcode": "6820822",
    "prefectureCode": "31",
    "prefectureNumber": 31,
    "prefecture": "鳥取県",
    "city": "倉吉市",
    "town": "葵町"
  },
  "6820823": {
    "zipcode": "6820823",
    "prefectureCode": "31",
    "prefectureNumber": 31,
    "prefecture": "鳥取県",
    "city": "倉吉市",
    "town": "東町"
  },
  "6820824": {
    "zipcode": "6820824",
    "prefectureCode": "31",
    "prefectureNumber": 31,
    "prefecture": "鳥取県",
    "city": "倉吉市",
    "town": "仲ノ町"
  },
  "6820825": {
    "zipcode": "6820825",
    "prefectureCode": "31",
    "prefectureNumber": 31,
    "prefecture": "鳥取県",
    "city": "倉吉市",
    "town": "西仲町"
  },
  "6820826": {
    "zipcode": "6820826",
    "prefectureCode": "31",
    "prefectureNumber": 31,
    "prefecture": "鳥取県",
    "city": "倉吉市",
    "town": "東仲町"
  },
  "6820831": {
    "zipcode": "6820831",
    "prefectureCode": "31",
    "prefectureNumber": 31,
    "prefecture": "鳥取県",
    "city": "倉吉市",
    "town": "八幡町"
  },
  "6820832": {
    "zipcode": "6820832",
    "prefectureCode": "31",
    "prefectureNumber": 31,
    "prefecture": "鳥取県",
    "city": "倉吉市",
    "town": "富海"
  },
  "6820833": {
    "zipcode": "6820833",
    "prefectureCode": "31",
    "prefectureNumber": 31,
    "prefecture": "鳥取県",
    "city": "倉吉市",
    "town": "東鴨新町"
  },
  "6820834": {
    "zipcode": "6820834",
    "prefectureCode": "31",
    "prefectureNumber": 31,
    "prefecture": "鳥取県",
    "city": "倉吉市",
    "town": "東鴨"
  },
  "6820835": {
    "zipcode": "6820835",
    "prefectureCode": "31",
    "prefectureNumber": 31,
    "prefecture": "鳥取県",
    "city": "倉吉市",
    "town": "長坂町"
  },
  "6820836": {
    "zipcode": "6820836",
    "prefectureCode": "31",
    "prefectureNumber": 31,
    "prefecture": "鳥取県",
    "city": "倉吉市",
    "town": "長坂新町"
  },
  "6820837": {
    "zipcode": "6820837",
    "prefectureCode": "31",
    "prefectureNumber": 31,
    "prefecture": "鳥取県",
    "city": "倉吉市",
    "town": "下大江"
  },
  "6820841": {
    "zipcode": "6820841",
    "prefectureCode": "31",
    "prefectureNumber": 31,
    "prefecture": "鳥取県",
    "city": "倉吉市",
    "town": "大宮"
  },
  "6820842": {
    "zipcode": "6820842",
    "prefectureCode": "31",
    "prefectureNumber": 31,
    "prefecture": "鳥取県",
    "city": "倉吉市",
    "town": "岩倉"
  },
  "6820843": {
    "zipcode": "6820843",
    "prefectureCode": "31",
    "prefectureNumber": 31,
    "prefecture": "鳥取県",
    "city": "倉吉市",
    "town": "菅原"
  },
  "6820844": {
    "zipcode": "6820844",
    "prefectureCode": "31",
    "prefectureNumber": 31,
    "prefecture": "鳥取県",
    "city": "倉吉市",
    "town": "広瀬"
  },
  "6820845": {
    "zipcode": "6820845",
    "prefectureCode": "31",
    "prefectureNumber": 31,
    "prefecture": "鳥取県",
    "city": "倉吉市",
    "town": "耳"
  },
  "6820846": {
    "zipcode": "6820846",
    "prefectureCode": "31",
    "prefectureNumber": 31,
    "prefecture": "鳥取県",
    "city": "倉吉市",
    "town": "鴨河内"
  },
  "6820847": {
    "zipcode": "6820847",
    "prefectureCode": "31",
    "prefectureNumber": 31,
    "prefecture": "鳥取県",
    "city": "倉吉市",
    "town": "福山"
  },
  "6820851": {
    "zipcode": "6820851",
    "prefectureCode": "31",
    "prefectureNumber": 31,
    "prefecture": "鳥取県",
    "city": "倉吉市",
    "town": "西倉吉町"
  },
  "6820852": {
    "zipcode": "6820852",
    "prefectureCode": "31",
    "prefectureNumber": 31,
    "prefecture": "鳥取県",
    "city": "倉吉市",
    "town": "丸山町"
  },
  "6820853": {
    "zipcode": "6820853",
    "prefectureCode": "31",
    "prefectureNumber": 31,
    "prefecture": "鳥取県",
    "city": "倉吉市",
    "town": "余戸谷町"
  },
  "6820854": {
    "zipcode": "6820854",
    "prefectureCode": "31",
    "prefectureNumber": 31,
    "prefecture": "鳥取県",
    "city": "倉吉市",
    "town": "みどり町"
  },
  "6820855": {
    "zipcode": "6820855",
    "prefectureCode": "31",
    "prefectureNumber": 31,
    "prefecture": "鳥取県",
    "city": "倉吉市",
    "town": "生田"
  },
  "6820856": {
    "zipcode": "6820856",
    "prefectureCode": "31",
    "prefectureNumber": 31,
    "prefecture": "鳥取県",
    "city": "倉吉市",
    "town": "中河原"
  },
  "6820857": {
    "zipcode": "6820857",
    "prefectureCode": "31",
    "prefectureNumber": 31,
    "prefecture": "鳥取県",
    "city": "倉吉市",
    "town": "北野"
  },
  "6820861": {
    "zipcode": "6820861",
    "prefectureCode": "31",
    "prefectureNumber": 31,
    "prefecture": "鳥取県",
    "city": "倉吉市",
    "town": "新町"
  },
  "6820862": {
    "zipcode": "6820862",
    "prefectureCode": "31",
    "prefectureNumber": 31,
    "prefecture": "鳥取県",
    "city": "倉吉市",
    "town": "西町"
  },
  "6820863": {
    "zipcode": "6820863",
    "prefectureCode": "31",
    "prefectureNumber": 31,
    "prefecture": "鳥取県",
    "city": "倉吉市",
    "town": "瀬崎町"
  },
  "6820864": {
    "zipcode": "6820864",
    "prefectureCode": "31",
    "prefectureNumber": 31,
    "prefecture": "鳥取県",
    "city": "倉吉市",
    "town": "鍛冶町"
  },
  "6820865": {
    "zipcode": "6820865",
    "prefectureCode": "31",
    "prefectureNumber": 31,
    "prefecture": "鳥取県",
    "city": "倉吉市",
    "town": "越中町"
  },
  "6820866": {
    "zipcode": "6820866",
    "prefectureCode": "31",
    "prefectureNumber": 31,
    "prefecture": "鳥取県",
    "city": "倉吉市",
    "town": "広瀬町"
  },
  "6820867": {
    "zipcode": "6820867",
    "prefectureCode": "31",
    "prefectureNumber": 31,
    "prefecture": "鳥取県",
    "city": "倉吉市",
    "town": "越殿町"
  },
  "6820871": {
    "zipcode": "6820871",
    "prefectureCode": "31",
    "prefectureNumber": 31,
    "prefecture": "鳥取県",
    "city": "倉吉市",
    "town": "旭田町"
  },
  "6820872": {
    "zipcode": "6820872",
    "prefectureCode": "31",
    "prefectureNumber": 31,
    "prefecture": "鳥取県",
    "city": "倉吉市",
    "town": "福吉町"
  },
  "6820873": {
    "zipcode": "6820873",
    "prefectureCode": "31",
    "prefectureNumber": 31,
    "prefecture": "鳥取県",
    "city": "倉吉市",
    "town": "東岩倉町"
  },
  "6820874": {
    "zipcode": "6820874",
    "prefectureCode": "31",
    "prefectureNumber": 31,
    "prefecture": "鳥取県",
    "city": "倉吉市",
    "town": "西岩倉町"
  },
  "6820875": {
    "zipcode": "6820875",
    "prefectureCode": "31",
    "prefectureNumber": 31,
    "prefecture": "鳥取県",
    "city": "倉吉市",
    "town": "金森町"
  },
  "6820881": {
    "zipcode": "6820881",
    "prefectureCode": "31",
    "prefectureNumber": 31,
    "prefecture": "鳥取県",
    "city": "倉吉市",
    "town": "宮川町"
  },
  "6820882": {
    "zipcode": "6820882",
    "prefectureCode": "31",
    "prefectureNumber": 31,
    "prefecture": "鳥取県",
    "city": "倉吉市",
    "town": "湊町"
  },
  "6820883": {
    "zipcode": "6820883",
    "prefectureCode": "31",
    "prefectureNumber": 31,
    "prefecture": "鳥取県",
    "city": "倉吉市",
    "town": "荒神町"
  },
  "6820884": {
    "zipcode": "6820884",
    "prefectureCode": "31",
    "prefectureNumber": 31,
    "prefecture": "鳥取県",
    "city": "倉吉市",
    "town": "研屋町"
  },
  "6820885": {
    "zipcode": "6820885",
    "prefectureCode": "31",
    "prefectureNumber": 31,
    "prefecture": "鳥取県",
    "city": "倉吉市",
    "town": "堺町"
  },
  "6820886": {
    "zipcode": "6820886",
    "prefectureCode": "31",
    "prefectureNumber": 31,
    "prefecture": "鳥取県",
    "city": "倉吉市",
    "town": "大正町"
  },
  "6820887": {
    "zipcode": "6820887",
    "prefectureCode": "31",
    "prefectureNumber": 31,
    "prefecture": "鳥取県",
    "city": "倉吉市",
    "town": "明治町"
  },
  "6820901": {
    "zipcode": "6820901",
    "prefectureCode": "31",
    "prefectureNumber": 31,
    "prefecture": "鳥取県",
    "city": "倉吉市",
    "town": "穴沢"
  },
  "6820902": {
    "zipcode": "6820902",
    "prefectureCode": "31",
    "prefectureNumber": 31,
    "prefecture": "鳥取県",
    "city": "倉吉市",
    "town": "上神"
  },
  "6820903": {
    "zipcode": "6820903",
    "prefectureCode": "31",
    "prefectureNumber": 31,
    "prefecture": "鳥取県",
    "city": "倉吉市",
    "town": "北面"
  },
  "6820904": {
    "zipcode": "6820904",
    "prefectureCode": "31",
    "prefectureNumber": 31,
    "prefecture": "鳥取県",
    "city": "倉吉市",
    "town": "尾原"
  },
  "6820905": {
    "zipcode": "6820905",
    "prefectureCode": "31",
    "prefectureNumber": 31,
    "prefecture": "鳥取県",
    "city": "倉吉市",
    "town": "別所"
  },
  "6820911": {
    "zipcode": "6820911",
    "prefectureCode": "31",
    "prefectureNumber": 31,
    "prefecture": "鳥取県",
    "city": "倉吉市",
    "town": "寺谷"
  },
  "6820912": {
    "zipcode": "6820912",
    "prefectureCode": "31",
    "prefectureNumber": 31,
    "prefecture": "鳥取県",
    "city": "倉吉市",
    "town": "和田"
  },
  "6820913": {
    "zipcode": "6820913",
    "prefectureCode": "31",
    "prefectureNumber": 31,
    "prefecture": "鳥取県",
    "city": "倉吉市",
    "town": "和田東町"
  },
  "6820914": {
    "zipcode": "6820914",
    "prefectureCode": "31",
    "prefectureNumber": 31,
    "prefecture": "鳥取県",
    "city": "倉吉市",
    "town": "馬場町"
  },
  "6820915": {
    "zipcode": "6820915",
    "prefectureCode": "31",
    "prefectureNumber": 31,
    "prefecture": "鳥取県",
    "city": "倉吉市",
    "town": "不入岡"
  },
  "6820921": {
    "zipcode": "6820921",
    "prefectureCode": "31",
    "prefectureNumber": 31,
    "prefecture": "鳥取県",
    "city": "倉吉市",
    "town": "西福守町"
  },
  "6820922": {
    "zipcode": "6820922",
    "prefectureCode": "31",
    "prefectureNumber": 31,
    "prefecture": "鳥取県",
    "city": "倉吉市",
    "town": "福守町"
  },
  "6820923": {
    "zipcode": "6820923",
    "prefectureCode": "31",
    "prefectureNumber": 31,
    "prefecture": "鳥取県",
    "city": "倉吉市",
    "town": "鴨川町"
  },
  "6820924": {
    "zipcode": "6820924",
    "prefectureCode": "31",
    "prefectureNumber": 31,
    "prefecture": "鳥取県",
    "city": "倉吉市",
    "town": "河原町"
  },
  "6820925": {
    "zipcode": "6820925",
    "prefectureCode": "31",
    "prefectureNumber": 31,
    "prefecture": "鳥取県",
    "city": "倉吉市",
    "town": "秋喜"
  },
  "6820926": {
    "zipcode": "6820926",
    "prefectureCode": "31",
    "prefectureNumber": 31,
    "prefecture": "鳥取県",
    "city": "倉吉市",
    "town": "秋喜西町"
  },
  "6820931": {
    "zipcode": "6820931",
    "prefectureCode": "31",
    "prefectureNumber": 31,
    "prefecture": "鳥取県",
    "city": "倉吉市",
    "town": "小鴨"
  },
  "6820932": {
    "zipcode": "6820932",
    "prefectureCode": "31",
    "prefectureNumber": 31,
    "prefecture": "鳥取県",
    "city": "倉吉市",
    "town": "蔵内"
  },
  "6820933": {
    "zipcode": "6820933",
    "prefectureCode": "31",
    "prefectureNumber": 31,
    "prefecture": "鳥取県",
    "city": "倉吉市",
    "town": "石塚"
  },
  "6820934": {
    "zipcode": "6820934",
    "prefectureCode": "31",
    "prefectureNumber": 31,
    "prefecture": "鳥取県",
    "city": "倉吉市",
    "town": "上古川"
  },
  "6820941": {
    "zipcode": "6820941",
    "prefectureCode": "31",
    "prefectureNumber": 31,
    "prefecture": "鳥取県",
    "city": "倉吉市",
    "town": "大谷"
  },
  "6820942": {
    "zipcode": "6820942",
    "prefectureCode": "31",
    "prefectureNumber": 31,
    "prefecture": "鳥取県",
    "city": "倉吉市",
    "town": "国府"
  },
  "6820943": {
    "zipcode": "6820943",
    "prefectureCode": "31",
    "prefectureNumber": 31,
    "prefecture": "鳥取県",
    "city": "倉吉市",
    "town": "国分寺"
  },
  "6820944": {
    "zipcode": "6820944",
    "prefectureCode": "31",
    "prefectureNumber": 31,
    "prefecture": "鳥取県",
    "city": "倉吉市",
    "town": "福光"
  },
  "6820945": {
    "zipcode": "6820945",
    "prefectureCode": "31",
    "prefectureNumber": 31,
    "prefecture": "鳥取県",
    "city": "倉吉市",
    "town": "黒見"
  },
  "6820946": {
    "zipcode": "6820946",
    "prefectureCode": "31",
    "prefectureNumber": 31,
    "prefecture": "鳥取県",
    "city": "倉吉市",
    "town": "横田"
  },
  "6820947": {
    "zipcode": "6820947",
    "prefectureCode": "31",
    "prefectureNumber": 31,
    "prefecture": "鳥取県",
    "city": "倉吉市",
    "town": "大沢"
  },
  "6820948": {
    "zipcode": "6820948",
    "prefectureCode": "31",
    "prefectureNumber": 31,
    "prefecture": "鳥取県",
    "city": "倉吉市",
    "town": "大谷茶屋"
  },
  "6820951": {
    "zipcode": "6820951",
    "prefectureCode": "31",
    "prefectureNumber": 31,
    "prefecture": "鳥取県",
    "city": "倉吉市",
    "town": "津原"
  },
  "6820952": {
    "zipcode": "6820952",
    "prefectureCode": "31",
    "prefectureNumber": 31,
    "prefecture": "鳥取県",
    "city": "倉吉市",
    "town": "鋤"
  },
  "6820953": {
    "zipcode": "6820953",
    "prefectureCode": "31",
    "prefectureNumber": 31,
    "prefecture": "鳥取県",
    "city": "倉吉市",
    "town": "半坂"
  },
  "6820954": {
    "zipcode": "6820954",
    "prefectureCode": "31",
    "prefectureNumber": 31,
    "prefecture": "鳥取県",
    "city": "倉吉市",
    "town": "谷"
  }
}
