{
  "6830000": {
    "zipcode": "6830000",
    "prefectureCode": "31",
    "prefectureNumber": 31,
    "prefecture": "鳥取県",
    "city": "米子市",
    "town": "以下に掲載がない場合"
  },
  "6830001": {
    "zipcode": "6830001",
    "prefectureCode": "31",
    "prefectureNumber": 31,
    "prefecture": "鳥取県",
    "city": "米子市",
    "town": "皆生温泉"
  },
  "6830002": {
    "zipcode": "6830002",
    "prefectureCode": "31",
    "prefectureNumber": 31,
    "prefecture": "鳥取県",
    "city": "米子市",
    "town": "皆生新田"
  },
  "6830003": {
    "zipcode": "6830003",
    "prefectureCode": "31",
    "prefectureNumber": 31,
    "prefecture": "鳥取県",
    "city": "米子市",
    "town": "皆生"
  },
  "6830004": {
    "zipcode": "6830004",
    "prefectureCode": "31",
    "prefectureNumber": 31,
    "prefecture": "鳥取県",
    "city": "米子市",
    "town": "上福原"
  },
  "6830005": {
    "zipcode": "6830005",
    "prefectureCode": "31",
    "prefectureNumber": 31,
    "prefecture": "鳥取県",
    "city": "米子市",
    "town": "中島"
  },
  "6830006": {
    "zipcode": "6830006",
    "prefectureCode": "31",
    "prefectureNumber": 31,
    "prefecture": "鳥取県",
    "city": "米子市",
    "town": "車尾"
  },
  "6830007": {
    "zipcode": "6830007",
    "prefectureCode": "31",
    "prefectureNumber": 31,
    "prefecture": "鳥取県",
    "city": "米子市",
    "town": "観音寺"
  },
  "6830008": {
    "zipcode": "6830008",
    "prefectureCode": "31",
    "prefectureNumber": 31,
    "prefecture": "鳥取県",
    "city": "米子市",
    "town": "車尾南"
  },
  "6830009": {
    "zipcode": "6830009",
    "prefectureCode": "31",
    "prefectureNumber": 31,
    "prefecture": "鳥取県",
    "city": "米子市",
    "town": "観音寺新町"
  },
  "6830011": {
    "zipcode": "6830011",
    "prefectureCode": "31",
    "prefectureNumber": 31,
    "prefecture": "鳥取県",
    "city": "米子市",
    "town": "福市"
  },
  "6830012": {
    "zipcode": "6830012",
    "prefectureCode": "31",
    "prefectureNumber": 31,
    "prefecture": "鳥取県",
    "city": "米子市",
    "town": "八幡"
  },
  "6830013": {
    "zipcode": "6830013",
    "prefectureCode": "31",
    "prefectureNumber": 31,
    "prefecture": "鳥取県",
    "city": "米子市",
    "town": "諏訪"
  },
  "6830014": {
    "zipcode": "6830014",
    "prefectureCode": "31",
    "prefectureNumber": 31,
    "prefecture": "鳥取県",
    "city": "米子市",
    "town": "永江"
  },
  "6830015": {
    "zipcode": "6830015",
    "prefectureCode": "31",
    "prefectureNumber": 31,
    "prefecture": "鳥取県",
    "city": "米子市",
    "town": "日原"
  },
  "6830016": {
    "zipcode": "6830016",
    "prefectureCode": "31",
    "prefectureNumber": 31,
    "prefecture": "鳥取県",
    "city": "米子市",
    "town": "奥谷"
  },
  "6830017": {
    "zipcode": "6830017",
    "prefectureCode": "31",
    "prefectureNumber": 31,
    "prefecture": "鳥取県",
    "city": "米子市",
    "town": "宗像"
  },
  "6830021": {
    "zipcode": "6830021",
    "prefectureCode": "31",
    "prefectureNumber": 31,
    "prefecture": "鳥取県",
    "city": "米子市",
    "town": "石井"
  },
  "6830022": {
    "zipcode": "6830022",
    "prefectureCode": "31",
    "prefectureNumber": 31,
    "prefecture": "鳥取県",
    "city": "米子市",
    "town": "奈喜良"
  },
  "6830023": {
    "zipcode": "6830023",
    "prefectureCode": "31",
    "prefectureNumber": 31,
    "prefecture": "鳥取県",
    "city": "米子市",
    "town": "橋本"
  },
  "6830024": {
    "zipcode": "6830024",
    "prefectureCode": "31",
    "prefectureNumber": 31,
    "prefecture": "鳥取県",
    "city": "米子市",
    "town": "吉谷"
  },
  "6830025": {
    "zipcode": "6830025",
    "prefectureCode": "31",
    "prefectureNumber": 31,
    "prefecture": "鳥取県",
    "city": "米子市",
    "town": "古市"
  },
  "6830026": {
    "zipcode": "6830026",
    "prefectureCode": "31",
    "prefectureNumber": 31,
    "prefecture": "鳥取県",
    "city": "米子市",
    "town": "新山"
  },
  "6830027": {
    "zipcode": "6830027",
    "prefectureCode": "31",
    "prefectureNumber": 31,
    "prefecture": "鳥取県",
    "city": "米子市",
    "town": "陰田町"
  },
  "6830031": {
    "zipcode": "6830031",
    "prefectureCode": "31",
    "prefectureNumber": 31,
    "prefecture": "鳥取県",
    "city": "米子市",
    "town": "東山町"
  },
  "6830032": {
    "zipcode": "6830032",
    "prefectureCode": "31",
    "prefectureNumber": 31,
    "prefecture": "鳥取県",
    "city": "米子市",
    "town": "陽田町"
  },
  "6830033": {
    "zipcode": "6830033",
    "prefectureCode": "31",
    "prefectureNumber": 31,
    "prefecture": "鳥取県",
    "city": "米子市",
    "town": "長砂町"
  },
  "6830034": {
    "zipcode": "6830034",
    "prefectureCode": "31",
    "prefectureNumber": 31,
    "prefecture": "鳥取県",
    "city": "米子市",
    "town": "美吉"
  },
  "6830035": {
    "zipcode": "6830035",
    "prefectureCode": "31",
    "prefectureNumber": 31,
    "prefecture": "鳥取県",
    "city": "米子市",
    "town": "目久美町"
  },
  "6830036": {
    "zipcode": "6830036",
    "prefectureCode": "31",
    "prefectureNumber": 31,
    "prefecture": "鳥取県",
    "city": "米子市",
    "town": "弥生町"
  },
  "6830037": {
    "zipcode": "6830037",
    "prefectureCode": "31",
    "prefectureNumber": 31,
    "prefecture": "鳥取県",
    "city": "米子市",
    "town": "昭和町"
  },
  "6830041": {
    "zipcode": "6830041",
    "prefectureCode": "31",
    "prefectureNumber": 31,
    "prefecture": "鳥取県",
    "city": "米子市",
    "town": "茶町"
  },
  "6830042": {
    "zipcode": "6830042",
    "prefectureCode": "31",
    "prefectureNumber": 31,
    "prefecture": "鳥取県",
    "city": "米子市",
    "town": "塩町"
  },
  "6830043": {
    "zipcode": "6830043",
    "prefectureCode": "31",
    "prefectureNumber": 31,
    "prefecture": "鳥取県",
    "city": "米子市",
    "town": "末広町"
  },
  "6830044": {
    "zipcode": "6830044",
    "prefectureCode": "31",
    "prefectureNumber": 31,
    "prefecture": "鳥取県",
    "city": "米子市",
    "town": "大工町"
  },
  "6830045": {
    "zipcode": "6830045",
    "prefectureCode": "31",
    "prefectureNumber": 31,
    "prefecture": "鳥取県",
    "city": "米子市",
    "town": "大谷町"
  },
  "6830046": {
    "zipcode": "6830046",
    "prefectureCode": "31",
    "prefectureNumber": 31,
    "prefecture": "鳥取県",
    "city": "米子市",
    "town": "愛宕町"
  },
  "6830047": {
    "zipcode": "6830047",
    "prefectureCode": "31",
    "prefectureNumber": 31,
    "prefecture": "鳥取県",
    "city": "米子市",
    "town": "祇園町"
  },
  "6830051": {
    "zipcode": "6830051",
    "prefectureCode": "31",
    "prefectureNumber": 31,
    "prefecture": "鳥取県",
    "city": "米子市",
    "town": "勝田町"
  },
  "6830052": {
    "zipcode": "6830052",
    "prefectureCode": "31",
    "prefectureNumber": 31,
    "prefecture": "鳥取県",
    "city": "米子市",
    "town": "博労町"
  },
  "6830053": {
    "zipcode": "6830053",
    "prefectureCode": "31",
    "prefectureNumber": 31,
    "prefecture": "鳥取県",
    "city": "米子市",
    "town": "明治町"
  },
  "6830054": {
    "zipcode": "6830054",
    "prefectureCode": "31",
    "prefectureNumber": 31,
    "prefecture": "鳥取県",
    "city": "米子市",
    "town": "糀町"
  },
  "6830055": {
    "zipcode": "6830055",
    "prefectureCode": "31",
    "prefectureNumber": 31,
    "prefecture": "鳥取県",
    "city": "米子市",
    "town": "冨士見町"
  },
  "6830061": {
    "zipcode": "6830061",
    "prefectureCode": "31",
    "prefectureNumber": 31,
    "prefecture": "鳥取県",
    "city": "米子市",
    "town": "四日市町"
  },
  "6830062": {
    "zipcode": "6830062",
    "prefectureCode": "31",
    "prefectureNumber": 31,
    "prefecture": "鳥取県",
    "city": "米子市",
    "town": "紺屋町"
  },
  "6830063": {
    "zipcode": "6830063",
    "prefectureCode": "31",
    "prefectureNumber": 31,
    "prefecture": "鳥取県",
    "city": "米子市",
    "town": "法勝寺町"
  },
  "6830064": {
    "zipcode": "6830064",
    "prefectureCode": "31",
    "prefectureNumber": 31,
    "prefecture": "鳥取県",
    "city": "米子市",
    "town": "道笑町"
  },
  "6830065": {
    "zipcode": "6830065",
    "prefectureCode": "31",
    "prefectureNumber": 31,
    "prefecture": "鳥取県",
    "city": "米子市",
    "town": "万能町"
  },
  "6830066": {
    "zipcode": "6830066",
    "prefectureCode": "31",
    "prefectureNumber": 31,
    "prefecture": "鳥取県",
    "city": "米子市",
    "town": "日野町"
  },
  "6830067": {
    "zipcode": "6830067",
    "prefectureCode": "31",
    "prefectureNumber": 31,
    "prefecture": "鳥取県",
    "city": "米子市",
    "town": "東町"
  },
  "6830101": {
    "zipcode": "6830101",
    "prefectureCode": "31",
    "prefectureNumber": 31,
    "prefecture": "鳥取県",
    "city": "米子市",
    "town": "大篠津町"
  },
  "6830102": {
    "zipcode": "6830102",
    "prefectureCode": "31",
    "prefectureNumber": 31,
    "prefecture": "鳥取県",
    "city": "米子市",
    "town": "和田町"
  },
  "6830103": {
    "zipcode": "6830103",
    "prefectureCode": "31",
    "prefectureNumber": 31,
    "prefecture": "鳥取県",
    "city": "米子市",
    "town": "富益町"
  },
  "6830104": {
    "zipcode": "6830104",
    "prefectureCode": "31",
    "prefectureNumber": 31,
    "prefecture": "鳥取県",
    "city": "米子市",
    "town": "大崎"
  },
  "6830105": {
    "zipcode": "6830105",
    "prefectureCode": "31",
    "prefectureNumber": 31,
    "prefecture": "鳥取県",
    "city": "米子市",
    "town": "葭津"
  },
  "6830201": {
    "zipcode": "6830201",
    "prefectureCode": "31",
    "prefectureNumber": 31,
    "prefecture": "鳥取県",
    "city": "西伯郡南部町",
    "town": "天万"
  },
  "6830202": {
    "zipcode": "6830202",
    "prefectureCode": "31",
    "prefectureNumber": 31,
    "prefecture": "鳥取県",
    "city": "西伯郡南部町",
    "town": "寺内"
  },
  "6830203": {
    "zipcode": "6830203",
    "prefectureCode": "31",
    "prefectureNumber": 31,
    "prefecture": "鳥取県",
    "city": "西伯郡南部町",
    "town": "三崎"
  },
  "6830204": {
    "zipcode": "6830204",
    "prefectureCode": "31",
    "prefectureNumber": 31,
    "prefecture": "鳥取県",
    "city": "西伯郡南部町",
    "town": "福里"
  },
  "6830211": {
    "zipcode": "6830211",
    "prefectureCode": "31",
    "prefectureNumber": 31,
    "prefecture": "鳥取県",
    "city": "西伯郡南部町",
    "town": "円山"
  },
  "6830212": {
    "zipcode": "6830212",
    "prefectureCode": "31",
    "prefectureNumber": 31,
    "prefecture": "鳥取県",
    "city": "西伯郡南部町",
    "town": "諸木"
  },
  "6830213": {
    "zipcode": "6830213",
    "prefectureCode": "31",
    "prefectureNumber": 31,
    "prefecture": "鳥取県",
    "city": "西伯郡南部町",
    "town": "西原"
  },
  "6830214": {
    "zipcode": "6830214",
    "prefectureCode": "31",
    "prefectureNumber": 31,
    "prefecture": "鳥取県",
    "city": "西伯郡南部町",
    "town": "田住"
  },
  "6830215": {
    "zipcode": "6830215",
    "prefectureCode": "31",
    "prefectureNumber": 31,
    "prefecture": "鳥取県",
    "city": "西伯郡南部町",
    "town": "荻名"
  },
  "6830216": {
    "zipcode": "6830216",
    "prefectureCode": "31",
    "prefectureNumber": 31,
    "prefecture": "鳥取県",
    "city": "西伯郡南部町",
    "town": "朝金"
  },
  "6830217": {
    "zipcode": "6830217",
    "prefectureCode": "31",
    "prefectureNumber": 31,
    "prefecture": "鳥取県",
    "city": "西伯郡南部町",
    "town": "鶴田"
  },
  "6830218": {
    "zipcode": "6830218",
    "prefectureCode": "31",
    "prefectureNumber": 31,
    "prefecture": "鳥取県",
    "city": "西伯郡南部町",
    "town": "池野"
  },
  "6830221": {
    "zipcode": "6830221",
    "prefectureCode": "31",
    "prefectureNumber": 31,
    "prefecture": "鳥取県",
    "city": "西伯郡南部町",
    "town": "宮前"
  },
  "6830222": {
    "zipcode": "6830222",
    "prefectureCode": "31",
    "prefectureNumber": 31,
    "prefecture": "鳥取県",
    "city": "西伯郡南部町",
    "town": "市山"
  },
  "6830223": {
    "zipcode": "6830223",
    "prefectureCode": "31",
    "prefectureNumber": 31,
    "prefecture": "鳥取県",
    "city": "西伯郡南部町",
    "town": "井上"
  },
  "6830224": {
    "zipcode": "6830224",
    "prefectureCode": "31",
    "prefectureNumber": 31,
    "prefecture": "鳥取県",
    "city": "西伯郡南部町",
    "town": "金田"
  },
  "6830225": {
    "zipcode": "6830225",
    "prefectureCode": "31",
    "prefectureNumber": 31,
    "prefecture": "鳥取県",
    "city": "西伯郡南部町",
    "town": "御内谷"
  },
  "6830226": {
    "zipcode": "6830226",
    "prefectureCode": "31",
    "prefectureNumber": 31,
    "prefecture": "鳥取県",
    "city": "西伯郡南部町",
    "town": "高姫"
  },
  "6830227": {
    "zipcode": "6830227",
    "prefectureCode": "31",
    "prefectureNumber": 31,
    "prefecture": "鳥取県",
    "city": "西伯郡南部町",
    "town": "浅井"
  },
  "6830251": {
    "zipcode": "6830251",
    "prefectureCode": "31",
    "prefectureNumber": 31,
    "prefecture": "鳥取県",
    "city": "米子市",
    "town": "兼久"
  },
  "6830252": {
    "zipcode": "6830252",
    "prefectureCode": "31",
    "prefectureNumber": 31,
    "prefecture": "鳥取県",
    "city": "米子市",
    "town": "青木"
  },
  "6830253": {
    "zipcode": "6830253",
    "prefectureCode": "31",
    "prefectureNumber": 31,
    "prefecture": "鳥取県",
    "city": "米子市",
    "town": "下安曇"
  },
  "6830254": {
    "zipcode": "6830254",
    "prefectureCode": "31",
    "prefectureNumber": 31,
    "prefecture": "鳥取県",
    "city": "米子市",
    "town": "別所"
  },
  "6830255": {
    "zipcode": "6830255",
    "prefectureCode": "31",
    "prefectureNumber": 31,
    "prefecture": "鳥取県",
    "city": "米子市",
    "town": "上安曇"
  },
  "6830256": {
    "zipcode": "6830256",
    "prefectureCode": "31",
    "prefectureNumber": 31,
    "prefecture": "鳥取県",
    "city": "米子市",
    "town": "大袋"
  },
  "6830257": {
    "zipcode": "6830257",
    "prefectureCode": "31",
    "prefectureNumber": 31,
    "prefecture": "鳥取県",
    "city": "米子市",
    "town": "榎原"
  },
  "6830300": {
    "zipcode": "6830300",
    "prefectureCode": "31",
    "prefectureNumber": 31,
    "prefecture": "鳥取県",
    "city": "西伯郡南部町",
    "town": "以下に掲載がない場合"
  },
  "6830301": {
    "zipcode": "6830301",
    "prefectureCode": "31",
    "prefectureNumber": 31,
    "prefecture": "鳥取県",
    "city": "西伯郡南部町",
    "town": "東町"
  },
  "6830302": {
    "zipcode": "6830302",
    "prefectureCode": "31",
    "prefectureNumber": 31,
    "prefecture": "鳥取県",
    "city": "西伯郡南部町",
    "town": "西町"
  },
  "6830311": {
    "zipcode": "6830311",
    "prefectureCode": "31",
    "prefectureNumber": 31,
    "prefecture": "鳥取県",
    "city": "西伯郡南部町",
    "town": "境"
  },
  "6830312": {
    "zipcode": "6830312",
    "prefectureCode": "31",
    "prefectureNumber": 31,
    "prefecture": "鳥取県",
    "city": "西伯郡南部町",
    "town": "福成"
  },
  "6830321": {
    "zipcode": "6830321",
    "prefectureCode": "31",
    "prefectureNumber": 31,
    "prefecture": "鳥取県",
    "city": "西伯郡南部町",
    "town": "清水川"
  },
  "6830322": {
    "zipcode": "6830322",
    "prefectureCode": "31",
    "prefectureNumber": 31,
    "prefecture": "鳥取県",
    "city": "西伯郡南部町",
    "town": "阿賀"
  },
  "6830323": {
    "zipcode": "6830323",
    "prefectureCode": "31",
    "prefectureNumber": 31,
    "prefecture": "鳥取県",
    "city": "西伯郡南部町",
    "town": "倭"
  },
  "6830331": {
    "zipcode": "6830331",
    "prefectureCode": "31",
    "prefectureNumber": 31,
    "prefecture": "鳥取県",
    "city": "西伯郡南部町",
    "town": "掛相"
  },
  "6830332": {
    "zipcode": "6830332",
    "prefectureCode": "31",
    "prefectureNumber": 31,
    "prefecture": "鳥取県",
    "city": "西伯郡南部町",
    "town": "馬佐良"
  },
  "6830333": {
    "zipcode": "6830333",
    "prefectureCode": "31",
    "prefectureNumber": 31,
    "prefecture": "鳥取県",
    "city": "西伯郡南部町",
    "town": "八金"
  },
  "6830334": {
    "zipcode": "6830334",
    "prefectureCode": "31",
    "prefectureNumber": 31,
    "prefecture": "鳥取県",
    "city": "西伯郡南部町",
    "town": "東上"
  },
  "6830335": {
    "zipcode": "6830335",
    "prefectureCode": "31",
    "prefectureNumber": 31,
    "prefecture": "鳥取県",
    "city": "西伯郡南部町",
    "town": "中"
  },
  "6830336": {
    "zipcode": "6830336",
    "prefectureCode": "31",
    "prefectureNumber": 31,
    "prefecture": "鳥取県",
    "city": "西伯郡南部町",
    "town": "福頼"
  },
  "6830337": {
    "zipcode": "6830337",
    "prefectureCode": "31",
    "prefectureNumber": 31,
    "prefecture": "鳥取県",
    "city": "西伯郡南部町",
    "town": "落合"
  },
  "6830341": {
    "zipcode": "6830341",
    "prefectureCode": "31",
    "prefectureNumber": 31,
    "prefecture": "鳥取県",
    "city": "西伯郡南部町",
    "town": "鴨部"
  },
  "6830342": {
    "zipcode": "6830342",
    "prefectureCode": "31",
    "prefectureNumber": 31,
    "prefecture": "鳥取県",
    "city": "西伯郡南部町",
    "town": "能竹"
  },
  "6830343": {
    "zipcode": "6830343",
    "prefectureCode": "31",
    "prefectureNumber": 31,
    "prefecture": "鳥取県",
    "city": "西伯郡南部町",
    "town": "下中谷"
  },
  "6830344": {
    "zipcode": "6830344",
    "prefectureCode": "31",
    "prefectureNumber": 31,
    "prefecture": "鳥取県",
    "city": "西伯郡南部町",
    "town": "上中谷"
  },
  "6830345": {
    "zipcode": "6830345",
    "prefectureCode": "31",
    "prefectureNumber": 31,
    "prefecture": "鳥取県",
    "city": "西伯郡南部町",
    "town": "大木屋"
  },
  "6830351": {
    "zipcode": "6830351",
    "prefectureCode": "31",
    "prefectureNumber": 31,
    "prefecture": "鳥取県",
    "city": "西伯郡南部町",
    "town": "法勝寺"
  },
  "6830352": {
    "zipcode": "6830352",
    "prefectureCode": "31",
    "prefectureNumber": 31,
    "prefecture": "鳥取県",
    "city": "西伯郡南部町",
    "town": "馬場"
  },
  "6830353": {
    "zipcode": "6830353",
    "prefectureCode": "31",
    "prefectureNumber": 31,
    "prefecture": "鳥取県",
    "city": "西伯郡南部町",
    "town": "徳長"
  },
  "6830354": {
    "zipcode": "6830354",
    "prefectureCode": "31",
    "prefectureNumber": 31,
    "prefecture": "鳥取県",
    "city": "西伯郡南部町",
    "town": "武信"
  },
  "6830355": {
    "zipcode": "6830355",
    "prefectureCode": "31",
    "prefectureNumber": 31,
    "prefecture": "鳥取県",
    "city": "西伯郡南部町",
    "town": "道河内"
  },
  "6830356": {
    "zipcode": "6830356",
    "prefectureCode": "31",
    "prefectureNumber": 31,
    "prefecture": "鳥取県",
    "city": "西伯郡南部町",
    "town": "伐株"
  },
  "6830361": {
    "zipcode": "6830361",
    "prefectureCode": "31",
    "prefectureNumber": 31,
    "prefecture": "鳥取県",
    "city": "西伯郡南部町",
    "town": "北方"
  },
  "6830362": {
    "zipcode": "6830362",
    "prefectureCode": "31",
    "prefectureNumber": 31,
    "prefecture": "鳥取県",
    "city": "西伯郡南部町",
    "town": "原"
  },
  "6830363": {
    "zipcode": "6830363",
    "prefectureCode": "31",
    "prefectureNumber": 31,
    "prefecture": "鳥取県",
    "city": "西伯郡南部町",
    "town": "西"
  },
  "6830364": {
    "zipcode": "6830364",
    "prefectureCode": "31",
    "prefectureNumber": 31,
    "prefecture": "鳥取県",
    "city": "西伯郡南部町",
    "town": "絹屋"
  },
  "6830365": {
    "zipcode": "6830365",
    "prefectureCode": "31",
    "prefectureNumber": 31,
    "prefecture": "鳥取県",
    "city": "西伯郡南部町",
    "town": "鍋倉"
  },
  "6830366": {
    "zipcode": "6830366",
    "prefectureCode": "31",
    "prefectureNumber": 31,
    "prefecture": "鳥取県",
    "city": "西伯郡南部町",
    "town": "与一谷"
  },
  "6830367": {
    "zipcode": "6830367",
    "prefectureCode": "31",
    "prefectureNumber": 31,
    "prefecture": "鳥取県",
    "city": "西伯郡南部町",
    "town": "猪小路"
  },
  "6830801": {
    "zipcode": "6830801",
    "prefectureCode": "31",
    "prefectureNumber": 31,
    "prefecture": "鳥取県",
    "city": "米子市",
    "town": "新開"
  },
  "6830802": {
    "zipcode": "6830802",
    "prefectureCode": "31",
    "prefectureNumber": 31,
    "prefecture": "鳥取県",
    "city": "米子市",
    "town": "東福原"
  },
  "6830803": {
    "zipcode": "6830803",
    "prefectureCode": "31",
    "prefectureNumber": 31,
    "prefecture": "鳥取県",
    "city": "米子市",
    "town": "日ノ出町"
  },
  "6830804": {
    "zipcode": "6830804",
    "prefectureCode": "31",
    "prefectureNumber": 31,
    "prefecture": "鳥取県",
    "city": "米子市",
    "town": "米原"
  },
  "6830805": {
    "zipcode": "6830805",
    "prefectureCode": "31",
    "prefectureNumber": 31,
    "prefecture": "鳥取県",
    "city": "米子市",
    "town": "西福原"
  },
  "6830811": {
    "zipcode": "6830811",
    "prefectureCode": "31",
    "prefectureNumber": 31,
    "prefecture": "鳥取県",
    "city": "米子市",
    "town": "錦町"
  },
  "6830812": {
    "zipcode": "6830812",
    "prefectureCode": "31",
    "prefectureNumber": 31,
    "prefecture": "鳥取県",
    "city": "米子市",
    "town": "角盤町"
  },
  "6830813": {
    "zipcode": "6830813",
    "prefectureCode": "31",
    "prefectureNumber": 31,
    "prefecture": "鳥取県",
    "city": "米子市",
    "town": "朝日町"
  },
  "6830814": {
    "zipcode": "6830814",
    "prefectureCode": "31",
    "prefectureNumber": 31,
    "prefecture": "鳥取県",
    "city": "米子市",
    "town": "尾高町"
  },
  "6830815": {
    "zipcode": "6830815",
    "prefectureCode": "31",
    "prefectureNumber": 31,
    "prefecture": "鳥取県",
    "city": "米子市",
    "town": "東倉吉町"
  },
  "6830816": {
    "zipcode": "6830816",
    "prefectureCode": "31",
    "prefectureNumber": 31,
    "prefecture": "鳥取県",
    "city": "米子市",
    "town": "西倉吉町"
  },
  "6830821": {
    "zipcode": "6830821",
    "prefectureCode": "31",
    "prefectureNumber": 31,
    "prefecture": "鳥取県",
    "city": "米子市",
    "town": "天神町"
  },
  "6830822": {
    "zipcode": "6830822",
    "prefectureCode": "31",
    "prefectureNumber": 31,
    "prefecture": "鳥取県",
    "city": "米子市",
    "town": "中町"
  },
  "6830823": {
    "zipcode": "6830823",
    "prefectureCode": "31",
    "prefectureNumber": 31,
    "prefecture": "鳥取県",
    "city": "米子市",
    "town": "加茂町"
  },
  "6830824": {
    "zipcode": "6830824",
    "prefectureCode": "31",
    "prefectureNumber": 31,
    "prefecture": "鳥取県",
    "city": "米子市",
    "town": "久米町"
  },
  "6830825": {
    "zipcode": "6830825",
    "prefectureCode": "31",
    "prefectureNumber": 31,
    "prefecture": "鳥取県",
    "city": "米子市",
    "town": "錦海町"
  },
  "6830826": {
    "zipcode": "6830826",
    "prefectureCode": "31",
    "prefectureNumber": 31,
    "prefecture": "鳥取県",
    "city": "米子市",
    "town": "西町"
  },
  "6830831": {
    "zipcode": "6830831",
    "prefectureCode": "31",
    "prefectureNumber": 31,
    "prefecture": "鳥取県",
    "city": "米子市",
    "town": "寺町"
  },
  "6830832": {
    "zipcode": "6830832",
    "prefectureCode": "31",
    "prefectureNumber": 31,
    "prefecture": "鳥取県",
    "city": "米子市",
    "town": "立町"
  },
  "6830833": {
    "zipcode": "6830833",
    "prefectureCode": "31",
    "prefectureNumber": 31,
    "prefecture": "鳥取県",
    "city": "米子市",
    "town": "岩倉町"
  },
  "6830834": {
    "zipcode": "6830834",
    "prefectureCode": "31",
    "prefectureNumber": 31,
    "prefecture": "鳥取県",
    "city": "米子市",
    "town": "内町"
  },
  "6830835": {
    "zipcode": "6830835",
    "prefectureCode": "31",
    "prefectureNumber": 31,
    "prefecture": "鳥取県",
    "city": "米子市",
    "town": "灘町"
  },
  "6830836": {
    "zipcode": "6830836",
    "prefectureCode": "31",
    "prefectureNumber": 31,
    "prefecture": "鳥取県",
    "city": "米子市",
    "town": "花園町"
  },
  "6830841": {
    "zipcode": "6830841",
    "prefectureCode": "31",
    "prefectureNumber": 31,
    "prefecture": "鳥取県",
    "city": "米子市",
    "town": "上後藤"
  },
  "6830842": {
    "zipcode": "6830842",
    "prefectureCode": "31",
    "prefectureNumber": 31,
    "prefecture": "鳥取県",
    "city": "米子市",
    "town": "三本松"
  },
  "6830843": {
    "zipcode": "6830843",
    "prefectureCode": "31",
    "prefectureNumber": 31,
    "prefecture": "鳥取県",
    "city": "米子市",
    "town": "三旗町"
  },
  "6830844": {
    "zipcode": "6830844",
    "prefectureCode": "31",
    "prefectureNumber": 31,
    "prefecture": "鳥取県",
    "city": "米子市",
    "town": "義方町"
  },
  "6830845": {
    "zipcode": "6830845",
    "prefectureCode": "31",
    "prefectureNumber": 31,
    "prefecture": "鳥取県",
    "city": "米子市",
    "town": "旗ヶ崎"
  },
  "6830846": {
    "zipcode": "6830846",
    "prefectureCode": "31",
    "prefectureNumber": 31,
    "prefecture": "鳥取県",
    "city": "米子市",
    "town": "安倍"
  },
  "6830851": {
    "zipcode": "6830851",
    "prefectureCode": "31",
    "prefectureNumber": 31,
    "prefecture": "鳥取県",
    "city": "米子市",
    "town": "夜見町"
  },
  "6830852": {
    "zipcode": "6830852",
    "prefectureCode": "31",
    "prefectureNumber": 31,
    "prefecture": "鳥取県",
    "city": "米子市",
    "town": "河崎"
  },
  "6830853": {
    "zipcode": "6830853",
    "prefectureCode": "31",
    "prefectureNumber": 31,
    "prefecture": "鳥取県",
    "city": "米子市",
    "town": "両三柳"
  },
  "6830854": {
    "zipcode": "6830854",
    "prefectureCode": "31",
    "prefectureNumber": 31,
    "prefecture": "鳥取県",
    "city": "米子市",
    "town": "彦名町"
  },
  "6830855": {
    "zipcode": "6830855",
    "prefectureCode": "31",
    "prefectureNumber": 31,
    "prefecture": "鳥取県",
    "city": "米子市",
    "town": "彦名新田"
  }
}
