{
  "6850000": {
    "zipcode": "6850000",
    "prefectureCode": "32",
    "prefectureNumber": 32,
    "prefecture": "島根県",
    "city": "隠岐郡隠岐の島町",
    "town": "以下に掲載がない場合"
  },
  "6850001": {
    "zipcode": "6850001",
    "prefectureCode": "32",
    "prefectureNumber": 32,
    "prefecture": "島根県",
    "city": "隠岐郡隠岐の島町",
    "town": "大久"
  },
  "6850002": {
    "zipcode": "6850002",
    "prefectureCode": "32",
    "prefectureNumber": 32,
    "prefecture": "島根県",
    "city": "隠岐郡隠岐の島町",
    "town": "釜"
  },
  "6850003": {
    "zipcode": "6850003",
    "prefectureCode": "32",
    "prefectureNumber": 32,
    "prefecture": "島根県",
    "city": "隠岐郡隠岐の島町",
    "town": "犬来"
  },
  "6850004": {
    "zipcode": "6850004",
    "prefectureCode": "32",
    "prefectureNumber": 32,
    "prefecture": "島根県",
    "city": "隠岐郡隠岐の島町",
    "town": "飯田"
  },
  "6850005": {
    "zipcode": "6850005",
    "prefectureCode": "32",
    "prefectureNumber": 32,
    "prefecture": "島根県",
    "city": "隠岐郡隠岐の島町",
    "town": "東郷"
  },
  "6850006": {
    "zipcode": "6850006",
    "prefectureCode": "32",
    "prefectureNumber": 32,
    "prefecture": "島根県",
    "city": "隠岐郡隠岐の島町",
    "town": "有木"
  },
  "6850007": {
    "zipcode": "6850007",
    "prefectureCode": "32",
    "prefectureNumber": 32,
    "prefecture": "島根県",
    "city": "隠岐郡隠岐の島町",
    "town": "池田"
  },
  "6850011": {
    "zipcode": "6850011",
    "prefectureCode": "32",
    "prefectureNumber": 32,
    "prefecture": "島根県",
    "city": "隠岐郡隠岐の島町",
    "town": "栄町"
  },
  "6850012": {
    "zipcode": "6850012",
    "prefectureCode": "32",
    "prefectureNumber": 32,
    "prefecture": "島根県",
    "city": "隠岐郡隠岐の島町",
    "town": "東町"
  },
  "6850013": {
    "zipcode": "6850013",
    "prefectureCode": "32",
    "prefectureNumber": 32,
    "prefecture": "島根県",
    "city": "隠岐郡隠岐の島町",
    "town": "中町"
  },
  "6850014": {
    "zipcode": "6850014",
    "prefectureCode": "32",
    "prefectureNumber": 32,
    "prefecture": "島根県",
    "city": "隠岐郡隠岐の島町",
    "town": "西町"
  },
  "6850015": {
    "zipcode": "6850015",
    "prefectureCode": "32",
    "prefectureNumber": 32,
    "prefecture": "島根県",
    "city": "隠岐郡隠岐の島町",
    "town": "港町"
  },
  "6850016": {
    "zipcode": "6850016",
    "prefectureCode": "32",
    "prefectureNumber": 32,
    "prefecture": "島根県",
    "city": "隠岐郡隠岐の島町",
    "town": "城北町"
  },
  "6850017": {
    "zipcode": "6850017",
    "prefectureCode": "32",
    "prefectureNumber": 32,
    "prefecture": "島根県",
    "city": "隠岐郡隠岐の島町",
    "town": "下西"
  },
  "6850021": {
    "zipcode": "6850021",
    "prefectureCode": "32",
    "prefectureNumber": 32,
    "prefecture": "島根県",
    "city": "隠岐郡隠岐の島町",
    "town": "岬町"
  },
  "6850022": {
    "zipcode": "6850022",
    "prefectureCode": "32",
    "prefectureNumber": 32,
    "prefecture": "島根県",
    "city": "隠岐郡隠岐の島町",
    "town": "今津"
  },
  "6850023": {
    "zipcode": "6850023",
    "prefectureCode": "32",
    "prefectureNumber": 32,
    "prefecture": "島根県",
    "city": "隠岐郡隠岐の島町",
    "town": "西田"
  },
  "6850024": {
    "zipcode": "6850024",
    "prefectureCode": "32",
    "prefectureNumber": 32,
    "prefecture": "島根県",
    "city": "隠岐郡隠岐の島町",
    "town": "加茂"
  },
  "6850025": {
    "zipcode": "6850025",
    "prefectureCode": "32",
    "prefectureNumber": 32,
    "prefecture": "島根県",
    "city": "隠岐郡隠岐の島町",
    "town": "平"
  },
  "6850026": {
    "zipcode": "6850026",
    "prefectureCode": "32",
    "prefectureNumber": 32,
    "prefecture": "島根県",
    "city": "隠岐郡隠岐の島町",
    "town": "上西"
  },
  "6850027": {
    "zipcode": "6850027",
    "prefectureCode": "32",
    "prefectureNumber": 32,
    "prefecture": "島根県",
    "city": "隠岐郡隠岐の島町",
    "town": "原田"
  },
  "6850101": {
    "zipcode": "6850101",
    "prefectureCode": "32",
    "prefectureNumber": 32,
    "prefecture": "島根県",
    "city": "隠岐郡隠岐の島町",
    "town": "蔵田"
  },
  "6850102": {
    "zipcode": "6850102",
    "prefectureCode": "32",
    "prefectureNumber": 32,
    "prefecture": "島根県",
    "city": "隠岐郡隠岐の島町",
    "town": "油井"
  },
  "6850103": {
    "zipcode": "6850103",
    "prefectureCode": "32",
    "prefectureNumber": 32,
    "prefecture": "島根県",
    "city": "隠岐郡隠岐の島町",
    "town": "那久"
  },
  "6850104": {
    "zipcode": "6850104",
    "prefectureCode": "32",
    "prefectureNumber": 32,
    "prefecture": "島根県",
    "city": "隠岐郡隠岐の島町",
    "town": "都万"
  },
  "6850105": {
    "zipcode": "6850105",
    "prefectureCode": "32",
    "prefectureNumber": 32,
    "prefecture": "島根県",
    "city": "隠岐郡隠岐の島町",
    "town": "津戸"
  },
  "6850106": {
    "zipcode": "6850106",
    "prefectureCode": "32",
    "prefectureNumber": 32,
    "prefecture": "島根県",
    "city": "隠岐郡隠岐の島町",
    "town": "蛸木"
  },
  "6850301": {
    "zipcode": "6850301",
    "prefectureCode": "32",
    "prefectureNumber": 32,
    "prefecture": "島根県",
    "city": "隠岐郡隠岐の島町",
    "town": "北方"
  },
  "6850302": {
    "zipcode": "6850302",
    "prefectureCode": "32",
    "prefectureNumber": 32,
    "prefecture": "島根県",
    "city": "隠岐郡隠岐の島町",
    "town": "苗代田"
  },
  "6850303": {
    "zipcode": "6850303",
    "prefectureCode": "32",
    "prefectureNumber": 32,
    "prefecture": "島根県",
    "city": "隠岐郡隠岐の島町",
    "town": "南方"
  },
  "6850304": {
    "zipcode": "6850304",
    "prefectureCode": "32",
    "prefectureNumber": 32,
    "prefecture": "島根県",
    "city": "隠岐郡隠岐の島町",
    "town": "代"
  },
  "6850305": {
    "zipcode": "6850305",
    "prefectureCode": "32",
    "prefectureNumber": 32,
    "prefecture": "島根県",
    "city": "隠岐郡隠岐の島町",
    "town": "久見"
  },
  "6850306": {
    "zipcode": "6850306",
    "prefectureCode": "32",
    "prefectureNumber": 32,
    "prefecture": "島根県",
    "city": "隠岐郡隠岐の島町",
    "town": "伊後（向ケ丘）"
  },
  "6850311": {
    "zipcode": "6850311",
    "prefectureCode": "32",
    "prefectureNumber": 32,
    "prefecture": "島根県",
    "city": "隠岐郡隠岐の島町",
    "town": "郡"
  },
  "6850312": {
    "zipcode": "6850312",
    "prefectureCode": "32",
    "prefectureNumber": 32,
    "prefecture": "島根県",
    "city": "隠岐郡隠岐の島町",
    "town": "小路"
  },
  "6850313": {
    "zipcode": "6850313",
    "prefectureCode": "32",
    "prefectureNumber": 32,
    "prefecture": "島根県",
    "city": "隠岐郡隠岐の島町",
    "town": "那久路"
  },
  "6850314": {
    "zipcode": "6850314",
    "prefectureCode": "32",
    "prefectureNumber": 32,
    "prefecture": "島根県",
    "city": "隠岐郡隠岐の島町",
    "town": "山田"
  },
  "6850411": {
    "zipcode": "6850411",
    "prefectureCode": "32",
    "prefectureNumber": 32,
    "prefecture": "島根県",
    "city": "隠岐郡隠岐の島町",
    "town": "飯美"
  },
  "6850412": {
    "zipcode": "6850412",
    "prefectureCode": "32",
    "prefectureNumber": 32,
    "prefecture": "島根県",
    "city": "隠岐郡隠岐の島町",
    "town": "布施"
  },
  "6850413": {
    "zipcode": "6850413",
    "prefectureCode": "32",
    "prefectureNumber": 32,
    "prefecture": "島根県",
    "city": "隠岐郡隠岐の島町",
    "town": "卯敷"
  },
  "6850431": {
    "zipcode": "6850431",
    "prefectureCode": "32",
    "prefectureNumber": 32,
    "prefecture": "島根県",
    "city": "隠岐郡隠岐の島町",
    "town": "伊後（その他）"
  },
  "6850432": {
    "zipcode": "6850432",
    "prefectureCode": "32",
    "prefectureNumber": 32,
    "prefecture": "島根県",
    "city": "隠岐郡隠岐の島町",
    "town": "西村"
  },
  "6850433": {
    "zipcode": "6850433",
    "prefectureCode": "32",
    "prefectureNumber": 32,
    "prefecture": "島根県",
    "city": "隠岐郡隠岐の島町",
    "town": "湊"
  },
  "6850434": {
    "zipcode": "6850434",
    "prefectureCode": "32",
    "prefectureNumber": 32,
    "prefecture": "島根県",
    "city": "隠岐郡隠岐の島町",
    "town": "中村"
  },
  "6850435": {
    "zipcode": "6850435",
    "prefectureCode": "32",
    "prefectureNumber": 32,
    "prefecture": "島根県",
    "city": "隠岐郡隠岐の島町",
    "town": "元屋"
  }
}
