{
  "6910001": {
    "zipcode": "6910001",
    "prefectureCode": "32",
    "prefectureNumber": 32,
    "prefecture": "島根県",
    "city": "出雲市",
    "town": "平田町"
  },
  "6910002": {
    "zipcode": "6910002",
    "prefectureCode": "32",
    "prefectureNumber": 32,
    "prefecture": "島根県",
    "city": "出雲市",
    "town": "西平田町"
  },
  "6910003": {
    "zipcode": "6910003",
    "prefectureCode": "32",
    "prefectureNumber": 32,
    "prefecture": "島根県",
    "city": "出雲市",
    "town": "灘分町"
  },
  "6910004": {
    "zipcode": "6910004",
    "prefectureCode": "32",
    "prefectureNumber": 32,
    "prefecture": "島根県",
    "city": "出雲市",
    "town": "島村町"
  },
  "6910011": {
    "zipcode": "6910011",
    "prefectureCode": "32",
    "prefectureNumber": 32,
    "prefecture": "島根県",
    "city": "出雲市",
    "town": "国富町"
  },
  "6910012": {
    "zipcode": "6910012",
    "prefectureCode": "32",
    "prefectureNumber": 32,
    "prefecture": "島根県",
    "city": "出雲市",
    "town": "西代町"
  },
  "6910013": {
    "zipcode": "6910013",
    "prefectureCode": "32",
    "prefectureNumber": 32,
    "prefecture": "島根県",
    "city": "出雲市",
    "town": "美談町"
  },
  "6910014": {
    "zipcode": "6910014",
    "prefectureCode": "32",
    "prefectureNumber": 32,
    "prefecture": "島根県",
    "city": "出雲市",
    "town": "口宇賀町"
  },
  "6910015": {
    "zipcode": "6910015",
    "prefectureCode": "32",
    "prefectureNumber": 32,
    "prefecture": "島根県",
    "city": "出雲市",
    "town": "西郷町"
  },
  "6910021": {
    "zipcode": "6910021",
    "prefectureCode": "32",
    "prefectureNumber": 32,
    "prefecture": "島根県",
    "city": "出雲市",
    "town": "奥宇賀町"
  },
  "6910022": {
    "zipcode": "6910022",
    "prefectureCode": "32",
    "prefectureNumber": 32,
    "prefecture": "島根県",
    "city": "出雲市",
    "town": "別所町"
  },
  "6910023": {
    "zipcode": "6910023",
    "prefectureCode": "32",
    "prefectureNumber": 32,
    "prefecture": "島根県",
    "city": "出雲市",
    "town": "唐川町"
  },
  "6910024": {
    "zipcode": "6910024",
    "prefectureCode": "32",
    "prefectureNumber": 32,
    "prefecture": "島根県",
    "city": "出雲市",
    "town": "猪目町"
  },
  "6910025": {
    "zipcode": "6910025",
    "prefectureCode": "32",
    "prefectureNumber": 32,
    "prefecture": "島根県",
    "city": "出雲市",
    "town": "河下町"
  },
  "6910031": {
    "zipcode": "6910031",
    "prefectureCode": "32",
    "prefectureNumber": 32,
    "prefecture": "島根県",
    "city": "出雲市",
    "town": "東福町"
  },
  "6910032": {
    "zipcode": "6910032",
    "prefectureCode": "32",
    "prefectureNumber": 32,
    "prefecture": "島根県",
    "city": "出雲市",
    "town": "本庄町"
  },
  "6910033": {
    "zipcode": "6910033",
    "prefectureCode": "32",
    "prefectureNumber": 32,
    "prefecture": "島根県",
    "city": "出雲市",
    "town": "万田町"
  },
  "6910034": {
    "zipcode": "6910034",
    "prefectureCode": "32",
    "prefectureNumber": 32,
    "prefecture": "島根県",
    "city": "出雲市",
    "town": "久多見町"
  },
  "6910041": {
    "zipcode": "6910041",
    "prefectureCode": "32",
    "prefectureNumber": 32,
    "prefecture": "島根県",
    "city": "出雲市",
    "town": "小津町"
  },
  "6910042": {
    "zipcode": "6910042",
    "prefectureCode": "32",
    "prefectureNumber": 32,
    "prefecture": "島根県",
    "city": "出雲市",
    "town": "十六島町"
  },
  "6910043": {
    "zipcode": "6910043",
    "prefectureCode": "32",
    "prefectureNumber": 32,
    "prefecture": "島根県",
    "city": "出雲市",
    "town": "釜浦町"
  },
  "6910044": {
    "zipcode": "6910044",
    "prefectureCode": "32",
    "prefectureNumber": 32,
    "prefecture": "島根県",
    "city": "出雲市",
    "town": "塩津町"
  },
  "6910045": {
    "zipcode": "6910045",
    "prefectureCode": "32",
    "prefectureNumber": 32,
    "prefecture": "島根県",
    "city": "出雲市",
    "town": "美保町"
  },
  "6910051": {
    "zipcode": "6910051",
    "prefectureCode": "32",
    "prefectureNumber": 32,
    "prefecture": "島根県",
    "city": "出雲市",
    "town": "坂浦町"
  },
  "6910052": {
    "zipcode": "6910052",
    "prefectureCode": "32",
    "prefectureNumber": 32,
    "prefecture": "島根県",
    "city": "出雲市",
    "town": "小伊津町"
  },
  "6910053": {
    "zipcode": "6910053",
    "prefectureCode": "32",
    "prefectureNumber": 32,
    "prefecture": "島根県",
    "city": "出雲市",
    "town": "三津町"
  },
  "6910061": {
    "zipcode": "6910061",
    "prefectureCode": "32",
    "prefectureNumber": 32,
    "prefecture": "島根県",
    "city": "出雲市",
    "town": "多久町"
  },
  "6910062": {
    "zipcode": "6910062",
    "prefectureCode": "32",
    "prefectureNumber": 32,
    "prefecture": "島根県",
    "city": "出雲市",
    "town": "多久谷町"
  },
  "6910063": {
    "zipcode": "6910063",
    "prefectureCode": "32",
    "prefectureNumber": 32,
    "prefecture": "島根県",
    "city": "出雲市",
    "town": "岡田町"
  },
  "6910064": {
    "zipcode": "6910064",
    "prefectureCode": "32",
    "prefectureNumber": 32,
    "prefecture": "島根県",
    "city": "出雲市",
    "town": "上岡田町"
  },
  "6910065": {
    "zipcode": "6910065",
    "prefectureCode": "32",
    "prefectureNumber": 32,
    "prefecture": "島根県",
    "city": "出雲市",
    "town": "東郷町"
  },
  "6910066": {
    "zipcode": "6910066",
    "prefectureCode": "32",
    "prefectureNumber": 32,
    "prefecture": "島根県",
    "city": "出雲市",
    "town": "野石谷町"
  },
  "6910071": {
    "zipcode": "6910071",
    "prefectureCode": "32",
    "prefectureNumber": 32,
    "prefecture": "島根県",
    "city": "出雲市",
    "town": "地合町"
  },
  "6910072": {
    "zipcode": "6910072",
    "prefectureCode": "32",
    "prefectureNumber": 32,
    "prefecture": "島根県",
    "city": "出雲市",
    "town": "野郷町"
  },
  "6910073": {
    "zipcode": "6910073",
    "prefectureCode": "32",
    "prefectureNumber": 32,
    "prefecture": "島根県",
    "city": "出雲市",
    "town": "美野町"
  },
  "6910074": {
    "zipcode": "6910074",
    "prefectureCode": "32",
    "prefectureNumber": 32,
    "prefecture": "島根県",
    "city": "出雲市",
    "town": "小境町"
  },
  "6910075": {
    "zipcode": "6910075",
    "prefectureCode": "32",
    "prefectureNumber": 32,
    "prefecture": "島根県",
    "city": "出雲市",
    "town": "鹿園寺町"
  },
  "6910076": {
    "zipcode": "6910076",
    "prefectureCode": "32",
    "prefectureNumber": 32,
    "prefecture": "島根県",
    "city": "出雲市",
    "town": "園町"
  }
}
