{
  "6920000": {
    "zipcode": "6920000",
    "prefectureCode": "32",
    "prefectureNumber": 32,
    "prefecture": "島根県",
    "city": "安来市",
    "town": "以下に掲載がない場合"
  },
  "6920001": {
    "zipcode": "6920001",
    "prefectureCode": "32",
    "prefectureNumber": 32,
    "prefecture": "島根県",
    "city": "安来市",
    "town": "赤江町"
  },
  "6920002": {
    "zipcode": "6920002",
    "prefectureCode": "32",
    "prefectureNumber": 32,
    "prefecture": "島根県",
    "city": "安来市",
    "town": "上坂田町"
  },
  "6920003": {
    "zipcode": "6920003",
    "prefectureCode": "32",
    "prefectureNumber": 32,
    "prefecture": "島根県",
    "city": "安来市",
    "town": "西赤江町"
  },
  "6920004": {
    "zipcode": "6920004",
    "prefectureCode": "32",
    "prefectureNumber": 32,
    "prefecture": "島根県",
    "city": "安来市",
    "town": "久白町"
  },
  "6920005": {
    "zipcode": "6920005",
    "prefectureCode": "32",
    "prefectureNumber": 32,
    "prefecture": "島根県",
    "city": "安来市",
    "town": "日白町"
  },
  "6920006": {
    "zipcode": "6920006",
    "prefectureCode": "32",
    "prefectureNumber": 32,
    "prefecture": "島根県",
    "city": "安来市",
    "town": "西荒島町"
  },
  "6920007": {
    "zipcode": "6920007",
    "prefectureCode": "32",
    "prefectureNumber": 32,
    "prefecture": "島根県",
    "city": "安来市",
    "town": "荒島町"
  },
  "6920011": {
    "zipcode": "6920011",
    "prefectureCode": "32",
    "prefectureNumber": 32,
    "prefecture": "島根県",
    "city": "安来市",
    "town": "安来町"
  },
  "6920012": {
    "zipcode": "6920012",
    "prefectureCode": "32",
    "prefectureNumber": 32,
    "prefecture": "島根県",
    "city": "安来市",
    "town": "宮内町"
  },
  "6920013": {
    "zipcode": "6920013",
    "prefectureCode": "32",
    "prefectureNumber": 32,
    "prefecture": "島根県",
    "city": "安来市",
    "town": "月坂町"
  },
  "6920014": {
    "zipcode": "6920014",
    "prefectureCode": "32",
    "prefectureNumber": 32,
    "prefecture": "島根県",
    "city": "安来市",
    "town": "飯島町"
  },
  "6920015": {
    "zipcode": "6920015",
    "prefectureCode": "32",
    "prefectureNumber": 32,
    "prefecture": "島根県",
    "city": "安来市",
    "town": "今津町"
  },
  "6920016": {
    "zipcode": "6920016",
    "prefectureCode": "32",
    "prefectureNumber": 32,
    "prefecture": "島根県",
    "city": "安来市",
    "town": "東赤江町"
  },
  "6920017": {
    "zipcode": "6920017",
    "prefectureCode": "32",
    "prefectureNumber": 32,
    "prefecture": "島根県",
    "city": "安来市",
    "town": "下坂田町"
  },
  "6920021": {
    "zipcode": "6920021",
    "prefectureCode": "32",
    "prefectureNumber": 32,
    "prefecture": "島根県",
    "city": "安来市",
    "town": "新十神町"
  },
  "6920022": {
    "zipcode": "6920022",
    "prefectureCode": "32",
    "prefectureNumber": 32,
    "prefecture": "島根県",
    "city": "安来市",
    "town": "南十神町"
  },
  "6920023": {
    "zipcode": "6920023",
    "prefectureCode": "32",
    "prefectureNumber": 32,
    "prefecture": "島根県",
    "city": "安来市",
    "town": "黒井田町"
  },
  "6920024": {
    "zipcode": "6920024",
    "prefectureCode": "32",
    "prefectureNumber": 32,
    "prefecture": "島根県",
    "city": "安来市",
    "town": "島田町"
  },
  "6920025": {
    "zipcode": "6920025",
    "prefectureCode": "32",
    "prefectureNumber": 32,
    "prefecture": "島根県",
    "city": "安来市",
    "town": "穂日島町"
  },
  "6920026": {
    "zipcode": "6920026",
    "prefectureCode": "32",
    "prefectureNumber": 32,
    "prefecture": "島根県",
    "city": "安来市",
    "town": "吉佐町"
  },
  "6920027": {
    "zipcode": "6920027",
    "prefectureCode": "32",
    "prefectureNumber": 32,
    "prefecture": "島根県",
    "city": "安来市",
    "town": "門生町"
  },
  "6920028": {
    "zipcode": "6920028",
    "prefectureCode": "32",
    "prefectureNumber": 32,
    "prefecture": "島根県",
    "city": "安来市",
    "town": "汐手が丘"
  },
  "6920031": {
    "zipcode": "6920031",
    "prefectureCode": "32",
    "prefectureNumber": 32,
    "prefecture": "島根県",
    "city": "安来市",
    "town": "佐久保町"
  },
  "6920032": {
    "zipcode": "6920032",
    "prefectureCode": "32",
    "prefectureNumber": 32,
    "prefecture": "島根県",
    "city": "安来市",
    "town": "九重町"
  },
  "6920033": {
    "zipcode": "6920033",
    "prefectureCode": "32",
    "prefectureNumber": 32,
    "prefecture": "島根県",
    "city": "安来市",
    "town": "清水町"
  },
  "6920034": {
    "zipcode": "6920034",
    "prefectureCode": "32",
    "prefectureNumber": 32,
    "prefecture": "島根県",
    "city": "安来市",
    "town": "宇賀荘町"
  },
  "6920035": {
    "zipcode": "6920035",
    "prefectureCode": "32",
    "prefectureNumber": 32,
    "prefecture": "島根県",
    "city": "安来市",
    "town": "清瀬町"
  },
  "6920036": {
    "zipcode": "6920036",
    "prefectureCode": "32",
    "prefectureNumber": 32,
    "prefecture": "島根県",
    "city": "安来市",
    "town": "野方町"
  },
  "6920037": {
    "zipcode": "6920037",
    "prefectureCode": "32",
    "prefectureNumber": 32,
    "prefecture": "島根県",
    "city": "安来市",
    "town": "吉岡町"
  },
  "6920041": {
    "zipcode": "6920041",
    "prefectureCode": "32",
    "prefectureNumber": 32,
    "prefecture": "島根県",
    "city": "安来市",
    "town": "鳥木町"
  },
  "6920042": {
    "zipcode": "6920042",
    "prefectureCode": "32",
    "prefectureNumber": 32,
    "prefecture": "島根県",
    "city": "安来市",
    "town": "大塚町"
  },
  "6920043": {
    "zipcode": "6920043",
    "prefectureCode": "32",
    "prefectureNumber": 32,
    "prefecture": "島根県",
    "city": "安来市",
    "town": "上吉田町"
  },
  "6920044": {
    "zipcode": "6920044",
    "prefectureCode": "32",
    "prefectureNumber": 32,
    "prefecture": "島根県",
    "city": "安来市",
    "town": "下吉田町"
  },
  "6920045": {
    "zipcode": "6920045",
    "prefectureCode": "32",
    "prefectureNumber": 32,
    "prefecture": "島根県",
    "city": "安来市",
    "town": "柿谷町"
  },
  "6920046": {
    "zipcode": "6920046",
    "prefectureCode": "32",
    "prefectureNumber": 32,
    "prefecture": "島根県",
    "city": "安来市",
    "town": "折坂町"
  },
  "6920047": {
    "zipcode": "6920047",
    "prefectureCode": "32",
    "prefectureNumber": 32,
    "prefecture": "島根県",
    "city": "安来市",
    "town": "早田町"
  },
  "6920051": {
    "zipcode": "6920051",
    "prefectureCode": "32",
    "prefectureNumber": 32,
    "prefecture": "島根県",
    "city": "安来市",
    "town": "切川町"
  },
  "6920052": {
    "zipcode": "6920052",
    "prefectureCode": "32",
    "prefectureNumber": 32,
    "prefecture": "島根県",
    "city": "安来市",
    "town": "赤崎町"
  },
  "6920053": {
    "zipcode": "6920053",
    "prefectureCode": "32",
    "prefectureNumber": 32,
    "prefecture": "島根県",
    "city": "安来市",
    "town": "沢町"
  },
  "6920054": {
    "zipcode": "6920054",
    "prefectureCode": "32",
    "prefectureNumber": 32,
    "prefecture": "島根県",
    "city": "安来市",
    "town": "利弘町"
  },
  "6920055": {
    "zipcode": "6920055",
    "prefectureCode": "32",
    "prefectureNumber": 32,
    "prefecture": "島根県",
    "city": "安来市",
    "town": "飯生町"
  },
  "6920056": {
    "zipcode": "6920056",
    "prefectureCode": "32",
    "prefectureNumber": 32,
    "prefecture": "島根県",
    "city": "安来市",
    "town": "清井町"
  },
  "6920057": {
    "zipcode": "6920057",
    "prefectureCode": "32",
    "prefectureNumber": 32,
    "prefecture": "島根県",
    "city": "安来市",
    "town": "恵乃島町"
  },
  "6920058": {
    "zipcode": "6920058",
    "prefectureCode": "32",
    "prefectureNumber": 32,
    "prefecture": "島根県",
    "city": "安来市",
    "town": "西恵乃島町"
  },
  "6920061": {
    "zipcode": "6920061",
    "prefectureCode": "32",
    "prefectureNumber": 32,
    "prefecture": "島根県",
    "city": "安来市",
    "town": "中津町"
  },
  "6920062": {
    "zipcode": "6920062",
    "prefectureCode": "32",
    "prefectureNumber": 32,
    "prefecture": "島根県",
    "city": "安来市",
    "town": "実松町"
  },
  "6920063": {
    "zipcode": "6920063",
    "prefectureCode": "32",
    "prefectureNumber": 32,
    "prefecture": "島根県",
    "city": "安来市",
    "town": "植田町"
  },
  "6920064": {
    "zipcode": "6920064",
    "prefectureCode": "32",
    "prefectureNumber": 32,
    "prefecture": "島根県",
    "city": "安来市",
    "town": "古川町"
  },
  "6920065": {
    "zipcode": "6920065",
    "prefectureCode": "32",
    "prefectureNumber": 32,
    "prefecture": "島根県",
    "city": "安来市",
    "town": "岩舟町"
  },
  "6920066": {
    "zipcode": "6920066",
    "prefectureCode": "32",
    "prefectureNumber": 32,
    "prefecture": "島根県",
    "city": "安来市",
    "town": "飯梨町"
  },
  "6920067": {
    "zipcode": "6920067",
    "prefectureCode": "32",
    "prefectureNumber": 32,
    "prefecture": "島根県",
    "city": "安来市",
    "town": "田頼町"
  },
  "6920071": {
    "zipcode": "6920071",
    "prefectureCode": "32",
    "prefectureNumber": 32,
    "prefecture": "島根県",
    "city": "安来市",
    "town": "亀島町"
  },
  "6920072": {
    "zipcode": "6920072",
    "prefectureCode": "32",
    "prefectureNumber": 32,
    "prefecture": "島根県",
    "city": "安来市",
    "town": "能義町"
  },
  "6920073": {
    "zipcode": "6920073",
    "prefectureCode": "32",
    "prefectureNumber": 32,
    "prefecture": "島根県",
    "city": "安来市",
    "town": "矢田町"
  },
  "6920074": {
    "zipcode": "6920074",
    "prefectureCode": "32",
    "prefectureNumber": 32,
    "prefecture": "島根県",
    "city": "安来市",
    "town": "中海町"
  },
  "6920075": {
    "zipcode": "6920075",
    "prefectureCode": "32",
    "prefectureNumber": 32,
    "prefecture": "島根県",
    "city": "安来市",
    "town": "神庭町"
  },
  "6920077": {
    "zipcode": "6920077",
    "prefectureCode": "32",
    "prefectureNumber": 32,
    "prefecture": "島根県",
    "city": "安来市",
    "town": "西松井町"
  },
  "6920201": {
    "zipcode": "6920201",
    "prefectureCode": "32",
    "prefectureNumber": 32,
    "prefecture": "島根県",
    "city": "安来市",
    "town": "伯太町安田山形"
  },
  "6920202": {
    "zipcode": "6920202",
    "prefectureCode": "32",
    "prefectureNumber": 32,
    "prefecture": "島根県",
    "city": "安来市",
    "town": "伯太町安田関"
  },
  "6920203": {
    "zipcode": "6920203",
    "prefectureCode": "32",
    "prefectureNumber": 32,
    "prefecture": "島根県",
    "city": "安来市",
    "town": "伯太町未明"
  },
  "6920204": {
    "zipcode": "6920204",
    "prefectureCode": "32",
    "prefectureNumber": 32,
    "prefecture": "島根県",
    "city": "安来市",
    "town": "伯太町安田宮内"
  },
  "6920205": {
    "zipcode": "6920205",
    "prefectureCode": "32",
    "prefectureNumber": 32,
    "prefecture": "島根県",
    "city": "安来市",
    "town": "伯太町安田中"
  },
  "6920206": {
    "zipcode": "6920206",
    "prefectureCode": "32",
    "prefectureNumber": 32,
    "prefecture": "島根県",
    "city": "安来市",
    "town": "伯太町安田"
  },
  "6920207": {
    "zipcode": "6920207",
    "prefectureCode": "32",
    "prefectureNumber": 32,
    "prefecture": "島根県",
    "city": "安来市",
    "town": "伯太町東母里"
  },
  "6920211": {
    "zipcode": "6920211",
    "prefectureCode": "32",
    "prefectureNumber": 32,
    "prefecture": "島根県",
    "city": "安来市",
    "town": "伯太町母里"
  },
  "6920212": {
    "zipcode": "6920212",
    "prefectureCode": "32",
    "prefectureNumber": 32,
    "prefecture": "島根県",
    "city": "安来市",
    "town": "伯太町西母里"
  },
  "6920213": {
    "zipcode": "6920213",
    "prefectureCode": "32",
    "prefectureNumber": 32,
    "prefecture": "島根県",
    "city": "安来市",
    "town": "伯太町井尻"
  },
  "6920214": {
    "zipcode": "6920214",
    "prefectureCode": "32",
    "prefectureNumber": 32,
    "prefecture": "島根県",
    "city": "安来市",
    "town": "伯太町須山福冨"
  },
  "6920215": {
    "zipcode": "6920215",
    "prefectureCode": "32",
    "prefectureNumber": 32,
    "prefecture": "島根県",
    "city": "安来市",
    "town": "伯太町高江寸次"
  },
  "6920216": {
    "zipcode": "6920216",
    "prefectureCode": "32",
    "prefectureNumber": 32,
    "prefecture": "島根県",
    "city": "安来市",
    "town": "伯太町日次"
  },
  "6920217": {
    "zipcode": "6920217",
    "prefectureCode": "32",
    "prefectureNumber": 32,
    "prefecture": "島根県",
    "city": "安来市",
    "town": "伯太町横屋"
  },
  "6920218": {
    "zipcode": "6920218",
    "prefectureCode": "32",
    "prefectureNumber": 32,
    "prefecture": "島根県",
    "city": "安来市",
    "town": "伯太町峠之内"
  },
  "6920321": {
    "zipcode": "6920321",
    "prefectureCode": "32",
    "prefectureNumber": 32,
    "prefecture": "島根県",
    "city": "安来市",
    "town": "伯太町赤屋"
  },
  "6920322": {
    "zipcode": "6920322",
    "prefectureCode": "32",
    "prefectureNumber": 32,
    "prefecture": "島根県",
    "city": "安来市",
    "town": "伯太町上小竹"
  },
  "6920323": {
    "zipcode": "6920323",
    "prefectureCode": "32",
    "prefectureNumber": 32,
    "prefecture": "島根県",
    "city": "安来市",
    "town": "伯太町下小竹"
  },
  "6920324": {
    "zipcode": "6920324",
    "prefectureCode": "32",
    "prefectureNumber": 32,
    "prefecture": "島根県",
    "city": "安来市",
    "town": "伯太町草野"
  },
  "6920325": {
    "zipcode": "6920325",
    "prefectureCode": "32",
    "prefectureNumber": 32,
    "prefecture": "島根県",
    "city": "安来市",
    "town": "伯太町上十年畑"
  },
  "6920326": {
    "zipcode": "6920326",
    "prefectureCode": "32",
    "prefectureNumber": 32,
    "prefecture": "島根県",
    "city": "安来市",
    "town": "伯太町下十年畑"
  },
  "6920401": {
    "zipcode": "6920401",
    "prefectureCode": "32",
    "prefectureNumber": 32,
    "prefecture": "島根県",
    "city": "安来市",
    "town": "広瀬町石原"
  },
  "6920402": {
    "zipcode": "6920402",
    "prefectureCode": "32",
    "prefectureNumber": 32,
    "prefecture": "島根県",
    "city": "安来市",
    "town": "広瀬町町帳"
  },
  "6920403": {
    "zipcode": "6920403",
    "prefectureCode": "32",
    "prefectureNumber": 32,
    "prefecture": "島根県",
    "city": "安来市",
    "town": "広瀬町富田"
  },
  "6920404": {
    "zipcode": "6920404",
    "prefectureCode": "32",
    "prefectureNumber": 32,
    "prefecture": "島根県",
    "city": "安来市",
    "town": "広瀬町広瀬"
  },
  "6920405": {
    "zipcode": "6920405",
    "prefectureCode": "32",
    "prefectureNumber": 32,
    "prefecture": "島根県",
    "city": "安来市",
    "town": "広瀬町祖父谷"
  },
  "6920411": {
    "zipcode": "6920411",
    "prefectureCode": "32",
    "prefectureNumber": 32,
    "prefecture": "島根県",
    "city": "安来市",
    "town": "広瀬町菅原（下田原）"
  },
  "6920412": {
    "zipcode": "6920412",
    "prefectureCode": "32",
    "prefectureNumber": 32,
    "prefecture": "島根県",
    "city": "安来市",
    "town": "広瀬町下山佐"
  },
  "6920413": {
    "zipcode": "6920413",
    "prefectureCode": "32",
    "prefectureNumber": 32,
    "prefecture": "島根県",
    "city": "安来市",
    "town": "広瀬町上山佐"
  },
  "6920621": {
    "zipcode": "6920621",
    "prefectureCode": "32",
    "prefectureNumber": 32,
    "prefecture": "島根県",
    "city": "安来市",
    "town": "広瀬町菅原（その他）"
  },
  "6920622": {
    "zipcode": "6920622",
    "prefectureCode": "32",
    "prefectureNumber": 32,
    "prefecture": "島根県",
    "city": "安来市",
    "town": "広瀬町宇波"
  },
  "6920623": {
    "zipcode": "6920623",
    "prefectureCode": "32",
    "prefectureNumber": 32,
    "prefecture": "島根県",
    "city": "安来市",
    "town": "広瀬町布部"
  },
  "6920624": {
    "zipcode": "6920624",
    "prefectureCode": "32",
    "prefectureNumber": 32,
    "prefecture": "島根県",
    "city": "安来市",
    "town": "広瀬町西谷"
  },
  "6920625": {
    "zipcode": "6920625",
    "prefectureCode": "32",
    "prefectureNumber": 32,
    "prefecture": "島根県",
    "city": "安来市",
    "town": "広瀬町奥田原"
  },
  "6920731": {
    "zipcode": "6920731",
    "prefectureCode": "32",
    "prefectureNumber": 32,
    "prefecture": "島根県",
    "city": "安来市",
    "town": "広瀬町西比田"
  },
  "6920732": {
    "zipcode": "6920732",
    "prefectureCode": "32",
    "prefectureNumber": 32,
    "prefecture": "島根県",
    "city": "安来市",
    "town": "広瀬町梶福留"
  },
  "6920733": {
    "zipcode": "6920733",
    "prefectureCode": "32",
    "prefectureNumber": 32,
    "prefecture": "島根県",
    "city": "安来市",
    "town": "広瀬町東比田"
  }
}
