{
  "6950000": {
    "zipcode": "6950000",
    "prefectureCode": "32",
    "prefectureNumber": 32,
    "prefecture": "島根県",
    "city": "江津市",
    "town": "以下に掲載がない場合"
  },
  "6950001": {
    "zipcode": "6950001",
    "prefectureCode": "32",
    "prefectureNumber": 32,
    "prefecture": "島根県",
    "city": "江津市",
    "town": "渡津町"
  },
  "6950002": {
    "zipcode": "6950002",
    "prefectureCode": "32",
    "prefectureNumber": 32,
    "prefecture": "島根県",
    "city": "江津市",
    "town": "浅利町"
  },
  "6950003": {
    "zipcode": "6950003",
    "prefectureCode": "32",
    "prefectureNumber": 32,
    "prefecture": "島根県",
    "city": "江津市",
    "town": "松川町下河戸"
  },
  "6950004": {
    "zipcode": "6950004",
    "prefectureCode": "32",
    "prefectureNumber": 32,
    "prefecture": "島根県",
    "city": "江津市",
    "town": "松川町市村"
  },
  "6950005": {
    "zipcode": "6950005",
    "prefectureCode": "32",
    "prefectureNumber": 32,
    "prefecture": "島根県",
    "city": "江津市",
    "town": "松川町長良"
  },
  "6950006": {
    "zipcode": "6950006",
    "prefectureCode": "32",
    "prefectureNumber": 32,
    "prefecture": "島根県",
    "city": "江津市",
    "town": "松川町八神"
  },
  "6950007": {
    "zipcode": "6950007",
    "prefectureCode": "32",
    "prefectureNumber": 32,
    "prefecture": "島根県",
    "city": "江津市",
    "town": "松川町太田"
  },
  "6950011": {
    "zipcode": "6950011",
    "prefectureCode": "32",
    "prefectureNumber": 32,
    "prefecture": "島根県",
    "city": "江津市",
    "town": "江津町"
  },
  "6950012": {
    "zipcode": "6950012",
    "prefectureCode": "32",
    "prefectureNumber": 32,
    "prefecture": "島根県",
    "city": "江津市",
    "town": "金田町"
  },
  "6950013": {
    "zipcode": "6950013",
    "prefectureCode": "32",
    "prefectureNumber": 32,
    "prefecture": "島根県",
    "city": "江津市",
    "town": "川平町南川上"
  },
  "6950014": {
    "zipcode": "6950014",
    "prefectureCode": "32",
    "prefectureNumber": 32,
    "prefecture": "島根県",
    "city": "江津市",
    "town": "川平町平田"
  },
  "6950015": {
    "zipcode": "6950015",
    "prefectureCode": "32",
    "prefectureNumber": 32,
    "prefecture": "島根県",
    "city": "江津市",
    "town": "島の星町"
  },
  "6950016": {
    "zipcode": "6950016",
    "prefectureCode": "32",
    "prefectureNumber": 32,
    "prefecture": "島根県",
    "city": "江津市",
    "town": "嘉久志町"
  },
  "6950017": {
    "zipcode": "6950017",
    "prefectureCode": "32",
    "prefectureNumber": 32,
    "prefecture": "島根県",
    "city": "江津市",
    "town": "和木町"
  },
  "6950021": {
    "zipcode": "6950021",
    "prefectureCode": "32",
    "prefectureNumber": 32,
    "prefecture": "島根県",
    "city": "江津市",
    "town": "都野津町"
  },
  "6950022": {
    "zipcode": "6950022",
    "prefectureCode": "32",
    "prefectureNumber": 32,
    "prefecture": "島根県",
    "city": "江津市",
    "town": "二宮町羽代"
  },
  "6950023": {
    "zipcode": "6950023",
    "prefectureCode": "32",
    "prefectureNumber": 32,
    "prefecture": "島根県",
    "city": "江津市",
    "town": "二宮町神村"
  },
  "6950024": {
    "zipcode": "6950024",
    "prefectureCode": "32",
    "prefectureNumber": 32,
    "prefecture": "島根県",
    "city": "江津市",
    "town": "二宮町神主"
  },
  "6950101": {
    "zipcode": "6950101",
    "prefectureCode": "32",
    "prefectureNumber": 32,
    "prefecture": "島根県",
    "city": "浜田市",
    "town": "下有福町"
  },
  "6950102": {
    "zipcode": "6950102",
    "prefectureCode": "32",
    "prefectureNumber": 32,
    "prefecture": "島根県",
    "city": "浜田市",
    "town": "宇野町"
  },
  "6950103": {
    "zipcode": "6950103",
    "prefectureCode": "32",
    "prefectureNumber": 32,
    "prefecture": "島根県",
    "city": "浜田市",
    "town": "大金町"
  },
  "6950151": {
    "zipcode": "6950151",
    "prefectureCode": "32",
    "prefectureNumber": 32,
    "prefecture": "島根県",
    "city": "江津市",
    "town": "千田町"
  },
  "6950152": {
    "zipcode": "6950152",
    "prefectureCode": "32",
    "prefectureNumber": 32,
    "prefecture": "島根県",
    "city": "江津市",
    "town": "跡市町"
  },
  "6950153": {
    "zipcode": "6950153",
    "prefectureCode": "32",
    "prefectureNumber": 32,
    "prefecture": "島根県",
    "city": "江津市",
    "town": "清見町"
  },
  "6950154": {
    "zipcode": "6950154",
    "prefectureCode": "32",
    "prefectureNumber": 32,
    "prefecture": "島根県",
    "city": "江津市",
    "town": "井沢町"
  },
  "6950155": {
    "zipcode": "6950155",
    "prefectureCode": "32",
    "prefectureNumber": 32,
    "prefecture": "島根県",
    "city": "江津市",
    "town": "有福温泉町本明"
  },
  "6950156": {
    "zipcode": "6950156",
    "prefectureCode": "32",
    "prefectureNumber": 32,
    "prefecture": "島根県",
    "city": "江津市",
    "town": "有福温泉町"
  }
}
