{
  "6990101": {
    "zipcode": "6990101",
    "prefectureCode": "32",
    "prefectureNumber": 32,
    "prefecture": "島根県",
    "city": "松江市",
    "town": "東出雲町揖屋"
  },
  "6990102": {
    "zipcode": "6990102",
    "prefectureCode": "32",
    "prefectureNumber": 32,
    "prefecture": "島根県",
    "city": "松江市",
    "town": "東出雲町下意東"
  },
  "6990103": {
    "zipcode": "6990103",
    "prefectureCode": "32",
    "prefectureNumber": 32,
    "prefecture": "島根県",
    "city": "松江市",
    "town": "東出雲町上意東"
  },
  "6990104": {
    "zipcode": "6990104",
    "prefectureCode": "32",
    "prefectureNumber": 32,
    "prefecture": "島根県",
    "city": "松江市",
    "town": "東出雲町須田"
  },
  "6990105": {
    "zipcode": "6990105",
    "prefectureCode": "32",
    "prefectureNumber": 32,
    "prefecture": "島根県",
    "city": "松江市",
    "town": "東出雲町内馬"
  },
  "6990106": {
    "zipcode": "6990106",
    "prefectureCode": "32",
    "prefectureNumber": 32,
    "prefecture": "島根県",
    "city": "松江市",
    "town": "東出雲町春日"
  },
  "6990107": {
    "zipcode": "6990107",
    "prefectureCode": "32",
    "prefectureNumber": 32,
    "prefecture": "島根県",
    "city": "松江市",
    "town": "東出雲町今宮"
  },
  "6990108": {
    "zipcode": "6990108",
    "prefectureCode": "32",
    "prefectureNumber": 32,
    "prefecture": "島根県",
    "city": "松江市",
    "town": "東出雲町出雲郷"
  },
  "6990109": {
    "zipcode": "6990109",
    "prefectureCode": "32",
    "prefectureNumber": 32,
    "prefecture": "島根県",
    "city": "松江市",
    "town": "東出雲町錦浜"
  },
  "6990110": {
    "zipcode": "6990110",
    "prefectureCode": "32",
    "prefectureNumber": 32,
    "prefecture": "島根県",
    "city": "松江市",
    "town": "東出雲町錦新町"
  },
  "6990111": {
    "zipcode": "6990111",
    "prefectureCode": "32",
    "prefectureNumber": 32,
    "prefecture": "島根県",
    "city": "松江市",
    "town": "東出雲町意宇南"
  },
  "6990112": {
    "zipcode": "6990112",
    "prefectureCode": "32",
    "prefectureNumber": 32,
    "prefecture": "島根県",
    "city": "松江市",
    "town": "東出雲町意宇東"
  },
  "6990201": {
    "zipcode": "6990201",
    "prefectureCode": "32",
    "prefectureNumber": 32,
    "prefecture": "島根県",
    "city": "松江市",
    "town": "玉湯町玉造"
  },
  "6990202": {
    "zipcode": "6990202",
    "prefectureCode": "32",
    "prefectureNumber": 32,
    "prefecture": "島根県",
    "city": "松江市",
    "town": "玉湯町湯町"
  },
  "6990203": {
    "zipcode": "6990203",
    "prefectureCode": "32",
    "prefectureNumber": 32,
    "prefecture": "島根県",
    "city": "松江市",
    "town": "玉湯町布志名"
  },
  "6990204": {
    "zipcode": "6990204",
    "prefectureCode": "32",
    "prefectureNumber": 32,
    "prefecture": "島根県",
    "city": "松江市",
    "town": "玉湯町林"
  },
  "6990205": {
    "zipcode": "6990205",
    "prefectureCode": "32",
    "prefectureNumber": 32,
    "prefecture": "島根県",
    "city": "松江市",
    "town": "玉湯町大谷"
  },
  "6990401": {
    "zipcode": "6990401",
    "prefectureCode": "32",
    "prefectureNumber": 32,
    "prefecture": "島根県",
    "city": "松江市",
    "town": "宍道町宍道"
  },
  "6990402": {
    "zipcode": "6990402",
    "prefectureCode": "32",
    "prefectureNumber": 32,
    "prefecture": "島根県",
    "city": "松江市",
    "town": "宍道町白石"
  },
  "6990403": {
    "zipcode": "6990403",
    "prefectureCode": "32",
    "prefectureNumber": 32,
    "prefecture": "島根県",
    "city": "松江市",
    "town": "宍道町西来待"
  },
  "6990404": {
    "zipcode": "6990404",
    "prefectureCode": "32",
    "prefectureNumber": 32,
    "prefecture": "島根県",
    "city": "松江市",
    "town": "宍道町東来待"
  },
  "6990405": {
    "zipcode": "6990405",
    "prefectureCode": "32",
    "prefectureNumber": 32,
    "prefecture": "島根県",
    "city": "松江市",
    "town": "宍道町上来待"
  },
  "6990406": {
    "zipcode": "6990406",
    "prefectureCode": "32",
    "prefectureNumber": 32,
    "prefecture": "島根県",
    "city": "松江市",
    "town": "宍道町佐々布"
  },
  "6990407": {
    "zipcode": "6990407",
    "prefectureCode": "32",
    "prefectureNumber": 32,
    "prefecture": "島根県",
    "city": "松江市",
    "town": "宍道町伊志見"
  },
  "6990408": {
    "zipcode": "6990408",
    "prefectureCode": "32",
    "prefectureNumber": 32,
    "prefecture": "島根県",
    "city": "松江市",
    "town": "宍道町昭和"
  },
  "6990501": {
    "zipcode": "6990501",
    "prefectureCode": "32",
    "prefectureNumber": 32,
    "prefecture": "島根県",
    "city": "出雲市",
    "town": "斐川町学頭"
  },
  "6990502": {
    "zipcode": "6990502",
    "prefectureCode": "32",
    "prefectureNumber": 32,
    "prefecture": "島根県",
    "city": "出雲市",
    "town": "斐川町荘原"
  },
  "6990503": {
    "zipcode": "6990503",
    "prefectureCode": "32",
    "prefectureNumber": 32,
    "prefecture": "島根県",
    "city": "出雲市",
    "town": "斐川町神庭"
  },
  "6990504": {
    "zipcode": "6990504",
    "prefectureCode": "32",
    "prefectureNumber": 32,
    "prefecture": "島根県",
    "city": "出雲市",
    "town": "斐川町三絡"
  },
  "6990505": {
    "zipcode": "6990505",
    "prefectureCode": "32",
    "prefectureNumber": 32,
    "prefecture": "島根県",
    "city": "出雲市",
    "town": "斐川町上庄原"
  },
  "6990551": {
    "zipcode": "6990551",
    "prefectureCode": "32",
    "prefectureNumber": 32,
    "prefecture": "島根県",
    "city": "出雲市",
    "town": "斐川町沖洲"
  },
  "6990552": {
    "zipcode": "6990552",
    "prefectureCode": "32",
    "prefectureNumber": 32,
    "prefecture": "島根県",
    "city": "出雲市",
    "town": "斐川町中洲"
  },
  "6990553": {
    "zipcode": "6990553",
    "prefectureCode": "32",
    "prefectureNumber": 32,
    "prefecture": "島根県",
    "city": "出雲市",
    "town": "斐川町黒目"
  },
  "6990554": {
    "zipcode": "6990554",
    "prefectureCode": "32",
    "prefectureNumber": 32,
    "prefecture": "島根県",
    "city": "出雲市",
    "town": "斐川町三分市"
  },
  "6990555": {
    "zipcode": "6990555",
    "prefectureCode": "32",
    "prefectureNumber": 32,
    "prefecture": "島根県",
    "city": "出雲市",
    "town": "斐川町坂田"
  },
  "6990611": {
    "zipcode": "6990611",
    "prefectureCode": "32",
    "prefectureNumber": 32,
    "prefecture": "島根県",
    "city": "出雲市",
    "town": "斐川町阿宮"
  },
  "6990612": {
    "zipcode": "6990612",
    "prefectureCode": "32",
    "prefectureNumber": 32,
    "prefecture": "島根県",
    "city": "出雲市",
    "town": "斐川町出西"
  },
  "6990613": {
    "zipcode": "6990613",
    "prefectureCode": "32",
    "prefectureNumber": 32,
    "prefecture": "島根県",
    "city": "出雲市",
    "town": "斐川町神氷"
  },
  "6990614": {
    "zipcode": "6990614",
    "prefectureCode": "32",
    "prefectureNumber": 32,
    "prefecture": "島根県",
    "city": "出雲市",
    "town": "斐川町求院"
  },
  "6990615": {
    "zipcode": "6990615",
    "prefectureCode": "32",
    "prefectureNumber": 32,
    "prefecture": "島根県",
    "city": "出雲市",
    "town": "斐川町併川"
  },
  "6990621": {
    "zipcode": "6990621",
    "prefectureCode": "32",
    "prefectureNumber": 32,
    "prefecture": "島根県",
    "city": "出雲市",
    "town": "斐川町富村"
  },
  "6990622": {
    "zipcode": "6990622",
    "prefectureCode": "32",
    "prefectureNumber": 32,
    "prefecture": "島根県",
    "city": "出雲市",
    "town": "斐川町名島"
  },
  "6990623": {
    "zipcode": "6990623",
    "prefectureCode": "32",
    "prefectureNumber": 32,
    "prefecture": "島根県",
    "city": "出雲市",
    "town": "斐川町鳥井"
  },
  "6990624": {
    "zipcode": "6990624",
    "prefectureCode": "32",
    "prefectureNumber": 32,
    "prefecture": "島根県",
    "city": "出雲市",
    "town": "斐川町上直江"
  },
  "6990631": {
    "zipcode": "6990631",
    "prefectureCode": "32",
    "prefectureNumber": 32,
    "prefecture": "島根県",
    "city": "出雲市",
    "town": "斐川町直江"
  },
  "6990641": {
    "zipcode": "6990641",
    "prefectureCode": "32",
    "prefectureNumber": 32,
    "prefecture": "島根県",
    "city": "出雲市",
    "town": "斐川町美南"
  },
  "6990642": {
    "zipcode": "6990642",
    "prefectureCode": "32",
    "prefectureNumber": 32,
    "prefecture": "島根県",
    "city": "出雲市",
    "town": "斐川町福富"
  },
  "6990643": {
    "zipcode": "6990643",
    "prefectureCode": "32",
    "prefectureNumber": 32,
    "prefecture": "島根県",
    "city": "出雲市",
    "town": "斐川町原鹿"
  },
  "6990644": {
    "zipcode": "6990644",
    "prefectureCode": "32",
    "prefectureNumber": 32,
    "prefecture": "島根県",
    "city": "出雲市",
    "town": "斐川町今在家"
  },
  "6990701": {
    "zipcode": "6990701",
    "prefectureCode": "32",
    "prefectureNumber": 32,
    "prefecture": "島根県",
    "city": "出雲市",
    "town": "大社町杵築東"
  },
  "6990702": {
    "zipcode": "6990702",
    "prefectureCode": "32",
    "prefectureNumber": 32,
    "prefecture": "島根県",
    "city": "出雲市",
    "town": "大社町杵築北"
  },
  "6990711": {
    "zipcode": "6990711",
    "prefectureCode": "32",
    "prefectureNumber": 32,
    "prefecture": "島根県",
    "city": "出雲市",
    "town": "大社町杵築南"
  },
  "6990721": {
    "zipcode": "6990721",
    "prefectureCode": "32",
    "prefectureNumber": 32,
    "prefecture": "島根県",
    "city": "出雲市",
    "town": "大社町修理免"
  },
  "6990722": {
    "zipcode": "6990722",
    "prefectureCode": "32",
    "prefectureNumber": 32,
    "prefecture": "島根県",
    "city": "出雲市",
    "town": "大社町北荒木"
  },
  "6990731": {
    "zipcode": "6990731",
    "prefectureCode": "32",
    "prefectureNumber": 32,
    "prefecture": "島根県",
    "city": "出雲市",
    "town": "大社町遙堪"
  },
  "6990732": {
    "zipcode": "6990732",
    "prefectureCode": "32",
    "prefectureNumber": 32,
    "prefecture": "島根県",
    "city": "出雲市",
    "town": "大社町入南"
  },
  "6990733": {
    "zipcode": "6990733",
    "prefectureCode": "32",
    "prefectureNumber": 32,
    "prefecture": "島根県",
    "city": "出雲市",
    "town": "大社町菱根"
  },
  "6990741": {
    "zipcode": "6990741",
    "prefectureCode": "32",
    "prefectureNumber": 32,
    "prefecture": "島根県",
    "city": "出雲市",
    "town": "大社町中荒木"
  },
  "6990751": {
    "zipcode": "6990751",
    "prefectureCode": "32",
    "prefectureNumber": 32,
    "prefecture": "島根県",
    "city": "出雲市",
    "town": "大社町杵築西"
  },
  "6990761": {
    "zipcode": "6990761",
    "prefectureCode": "32",
    "prefectureNumber": 32,
    "prefecture": "島根県",
    "city": "出雲市",
    "town": "大社町鷺浦"
  },
  "6990762": {
    "zipcode": "6990762",
    "prefectureCode": "32",
    "prefectureNumber": 32,
    "prefecture": "島根県",
    "city": "出雲市",
    "town": "大社町鵜峠"
  },
  "6990763": {
    "zipcode": "6990763",
    "prefectureCode": "32",
    "prefectureNumber": 32,
    "prefecture": "島根県",
    "city": "出雲市",
    "town": "大社町日御碕"
  },
  "6990764": {
    "zipcode": "6990764",
    "prefectureCode": "32",
    "prefectureNumber": 32,
    "prefecture": "島根県",
    "city": "出雲市",
    "town": "大社町宇龍"
  },
  "6990811": {
    "zipcode": "6990811",
    "prefectureCode": "32",
    "prefectureNumber": 32,
    "prefecture": "島根県",
    "city": "出雲市",
    "town": "湖陵町差海"
  },
  "6990812": {
    "zipcode": "6990812",
    "prefectureCode": "32",
    "prefectureNumber": 32,
    "prefecture": "島根県",
    "city": "出雲市",
    "town": "湖陵町二部"
  },
  "6990813": {
    "zipcode": "6990813",
    "prefectureCode": "32",
    "prefectureNumber": 32,
    "prefecture": "島根県",
    "city": "出雲市",
    "town": "湖陵町三部"
  },
  "6990814": {
    "zipcode": "6990814",
    "prefectureCode": "32",
    "prefectureNumber": 32,
    "prefecture": "島根県",
    "city": "出雲市",
    "town": "湖陵町常楽寺"
  },
  "6990815": {
    "zipcode": "6990815",
    "prefectureCode": "32",
    "prefectureNumber": 32,
    "prefecture": "島根県",
    "city": "出雲市",
    "town": "湖陵町畑村"
  },
  "6990816": {
    "zipcode": "6990816",
    "prefectureCode": "32",
    "prefectureNumber": 32,
    "prefecture": "島根県",
    "city": "出雲市",
    "town": "湖陵町大池"
  },
  "6990817": {
    "zipcode": "6990817",
    "prefectureCode": "32",
    "prefectureNumber": 32,
    "prefecture": "島根県",
    "city": "出雲市",
    "town": "湖陵町板津"
  },
  "6990821": {
    "zipcode": "6990821",
    "prefectureCode": "32",
    "prefectureNumber": 32,
    "prefecture": "島根県",
    "city": "出雲市",
    "town": "大島町"
  },
  "6990822": {
    "zipcode": "6990822",
    "prefectureCode": "32",
    "prefectureNumber": 32,
    "prefecture": "島根県",
    "city": "出雲市",
    "town": "神西沖町"
  },
  "6990823": {
    "zipcode": "6990823",
    "prefectureCode": "32",
    "prefectureNumber": 32,
    "prefecture": "島根県",
    "city": "出雲市",
    "town": "東神西町"
  },
  "6990824": {
    "zipcode": "6990824",
    "prefectureCode": "32",
    "prefectureNumber": 32,
    "prefecture": "島根県",
    "city": "出雲市",
    "town": "西神西町"
  },
  "6990825": {
    "zipcode": "6990825",
    "prefectureCode": "32",
    "prefectureNumber": 32,
    "prefecture": "島根県",
    "city": "出雲市",
    "town": "神西新町"
  },
  "6990901": {
    "zipcode": "6990901",
    "prefectureCode": "32",
    "prefectureNumber": 32,
    "prefecture": "島根県",
    "city": "出雲市",
    "town": "多伎町久村"
  },
  "6990902": {
    "zipcode": "6990902",
    "prefectureCode": "32",
    "prefectureNumber": 32,
    "prefecture": "島根県",
    "city": "出雲市",
    "town": "多伎町多岐"
  },
  "6990903": {
    "zipcode": "6990903",
    "prefectureCode": "32",
    "prefectureNumber": 32,
    "prefecture": "島根県",
    "city": "出雲市",
    "town": "多伎町小田"
  },
  "6990904": {
    "zipcode": "6990904",
    "prefectureCode": "32",
    "prefectureNumber": 32,
    "prefecture": "島根県",
    "city": "出雲市",
    "town": "多伎町口田儀"
  },
  "6990905": {
    "zipcode": "6990905",
    "prefectureCode": "32",
    "prefectureNumber": 32,
    "prefecture": "島根県",
    "city": "出雲市",
    "town": "多伎町奥田儀"
  },
  "6990906": {
    "zipcode": "6990906",
    "prefectureCode": "32",
    "prefectureNumber": 32,
    "prefecture": "島根県",
    "city": "出雲市",
    "town": "多伎町神原"
  },
  "6991101": {
    "zipcode": "6991101",
    "prefectureCode": "32",
    "prefectureNumber": 32,
    "prefecture": "島根県",
    "city": "雲南市",
    "town": "加茂町大西"
  },
  "6991102": {
    "zipcode": "6991102",
    "prefectureCode": "32",
    "prefectureNumber": 32,
    "prefecture": "島根県",
    "city": "雲南市",
    "town": "加茂町立原"
  },
  "6991103": {
    "zipcode": "6991103",
    "prefectureCode": "32",
    "prefectureNumber": 32,
    "prefecture": "島根県",
    "city": "雲南市",
    "town": "加茂町近松"
  },
  "6991104": {
    "zipcode": "6991104",
    "prefectureCode": "32",
    "prefectureNumber": 32,
    "prefecture": "島根県",
    "city": "雲南市",
    "town": "加茂町南加茂"
  },
  "6991105": {
    "zipcode": "6991105",
    "prefectureCode": "32",
    "prefectureNumber": 32,
    "prefecture": "島根県",
    "city": "雲南市",
    "town": "加茂町宇治"
  },
  "6991106": {
    "zipcode": "6991106",
    "prefectureCode": "32",
    "prefectureNumber": 32,
    "prefecture": "島根県",
    "city": "雲南市",
    "town": "加茂町加茂中"
  },
  "6991111": {
    "zipcode": "6991111",
    "prefectureCode": "32",
    "prefectureNumber": 32,
    "prefecture": "島根県",
    "city": "雲南市",
    "town": "加茂町砂子原"
  },
  "6991112": {
    "zipcode": "6991112",
    "prefectureCode": "32",
    "prefectureNumber": 32,
    "prefecture": "島根県",
    "city": "雲南市",
    "town": "加茂町新宮"
  },
  "6991113": {
    "zipcode": "6991113",
    "prefectureCode": "32",
    "prefectureNumber": 32,
    "prefecture": "島根県",
    "city": "雲南市",
    "town": "加茂町東谷"
  },
  "6991114": {
    "zipcode": "6991114",
    "prefectureCode": "32",
    "prefectureNumber": 32,
    "prefecture": "島根県",
    "city": "雲南市",
    "town": "加茂町猪尾"
  },
  "6991115": {
    "zipcode": "6991115",
    "prefectureCode": "32",
    "prefectureNumber": 32,
    "prefecture": "島根県",
    "city": "雲南市",
    "town": "加茂町岩倉"
  },
  "6991121": {
    "zipcode": "6991121",
    "prefectureCode": "32",
    "prefectureNumber": 32,
    "prefecture": "島根県",
    "city": "雲南市",
    "town": "加茂町神原"
  },
  "6991122": {
    "zipcode": "6991122",
    "prefectureCode": "32",
    "prefectureNumber": 32,
    "prefecture": "島根県",
    "city": "雲南市",
    "town": "加茂町三代"
  },
  "6991123": {
    "zipcode": "6991123",
    "prefectureCode": "32",
    "prefectureNumber": 32,
    "prefecture": "島根県",
    "city": "雲南市",
    "town": "加茂町大竹"
  },
  "6991124": {
    "zipcode": "6991124",
    "prefectureCode": "32",
    "prefectureNumber": 32,
    "prefecture": "島根県",
    "city": "雲南市",
    "town": "加茂町延野"
  },
  "6991125": {
    "zipcode": "6991125",
    "prefectureCode": "32",
    "prefectureNumber": 32,
    "prefecture": "島根県",
    "city": "雲南市",
    "town": "加茂町大崎"
  },
  "6991201": {
    "zipcode": "6991201",
    "prefectureCode": "32",
    "prefectureNumber": 32,
    "prefecture": "島根県",
    "city": "雲南市",
    "town": "大東町小河内"
  },
  "6991202": {
    "zipcode": "6991202",
    "prefectureCode": "32",
    "prefectureNumber": 32,
    "prefecture": "島根県",
    "city": "雲南市",
    "town": "大東町刈畑"
  },
  "6991203": {
    "zipcode": "6991203",
    "prefectureCode": "32",
    "prefectureNumber": 32,
    "prefecture": "島根県",
    "city": "雲南市",
    "town": "大東町北村"
  },
  "6991204": {
    "zipcode": "6991204",
    "prefectureCode": "32",
    "prefectureNumber": 32,
    "prefecture": "島根県",
    "city": "雲南市",
    "town": "大東町薦澤"
  },
  "6991205": {
    "zipcode": "6991205",
    "prefectureCode": "32",
    "prefectureNumber": 32,
    "prefecture": "島根県",
    "city": "雲南市",
    "town": "大東町須賀"
  },
  "6991206": {
    "zipcode": "6991206",
    "prefectureCode": "32",
    "prefectureNumber": 32,
    "prefecture": "島根県",
    "city": "雲南市",
    "town": "大東町南村"
  },
  "6991211": {
    "zipcode": "6991211",
    "prefectureCode": "32",
    "prefectureNumber": 32,
    "prefecture": "島根県",
    "city": "雲南市",
    "town": "大東町上久野"
  },
  "6991212": {
    "zipcode": "6991212",
    "prefectureCode": "32",
    "prefectureNumber": 32,
    "prefecture": "島根県",
    "city": "雲南市",
    "town": "大東町下久野"
  },
  "6991213": {
    "zipcode": "6991213",
    "prefectureCode": "32",
    "prefectureNumber": 32,
    "prefecture": "島根県",
    "city": "雲南市",
    "town": "大東町大ケ谷"
  },
  "6991214": {
    "zipcode": "6991214",
    "prefectureCode": "32",
    "prefectureNumber": 32,
    "prefecture": "島根県",
    "city": "雲南市",
    "town": "大東町上佐世"
  },
  "6991215": {
    "zipcode": "6991215",
    "prefectureCode": "32",
    "prefectureNumber": 32,
    "prefecture": "島根県",
    "city": "雲南市",
    "town": "大東町下佐世"
  },
  "6991216": {
    "zipcode": "6991216",
    "prefectureCode": "32",
    "prefectureNumber": 32,
    "prefecture": "島根県",
    "city": "雲南市",
    "town": "大東町西阿用"
  },
  "6991221": {
    "zipcode": "6991221",
    "prefectureCode": "32",
    "prefectureNumber": 32,
    "prefecture": "島根県",
    "city": "雲南市",
    "town": "大東町岡村"
  },
  "6991222": {
    "zipcode": "6991222",
    "prefectureCode": "32",
    "prefectureNumber": 32,
    "prefecture": "島根県",
    "city": "雲南市",
    "town": "大東町川井"
  },
  "6991223": {
    "zipcode": "6991223",
    "prefectureCode": "32",
    "prefectureNumber": 32,
    "prefecture": "島根県",
    "city": "雲南市",
    "town": "大東町下阿用"
  },
  "6991224": {
    "zipcode": "6991224",
    "prefectureCode": "32",
    "prefectureNumber": 32,
    "prefecture": "島根県",
    "city": "雲南市",
    "town": "大東町東阿用"
  },
  "6991231": {
    "zipcode": "6991231",
    "prefectureCode": "32",
    "prefectureNumber": 32,
    "prefecture": "島根県",
    "city": "雲南市",
    "town": "大東町遠所"
  },
  "6991232": {
    "zipcode": "6991232",
    "prefectureCode": "32",
    "prefectureNumber": 32,
    "prefecture": "島根県",
    "city": "雲南市",
    "town": "大東町仁和寺"
  },
  "6991233": {
    "zipcode": "6991233",
    "prefectureCode": "32",
    "prefectureNumber": 32,
    "prefecture": "島根県",
    "city": "雲南市",
    "town": "大東町幡屋"
  },
  "6991234": {
    "zipcode": "6991234",
    "prefectureCode": "32",
    "prefectureNumber": 32,
    "prefecture": "島根県",
    "city": "雲南市",
    "town": "大東町前原"
  },
  "6991241": {
    "zipcode": "6991241",
    "prefectureCode": "32",
    "prefectureNumber": 32,
    "prefecture": "島根県",
    "city": "雲南市",
    "town": "大東町山王寺"
  },
  "6991242": {
    "zipcode": "6991242",
    "prefectureCode": "32",
    "prefectureNumber": 32,
    "prefecture": "島根県",
    "city": "雲南市",
    "town": "大東町大東下分"
  },
  "6991243": {
    "zipcode": "6991243",
    "prefectureCode": "32",
    "prefectureNumber": 32,
    "prefecture": "島根県",
    "city": "雲南市",
    "town": "大東町畑鵯"
  },
  "6991244": {
    "zipcode": "6991244",
    "prefectureCode": "32",
    "prefectureNumber": 32,
    "prefecture": "島根県",
    "city": "雲南市",
    "town": "大東町山田"
  },
  "6991245": {
    "zipcode": "6991245",
    "prefectureCode": "32",
    "prefectureNumber": 32,
    "prefecture": "島根県",
    "city": "雲南市",
    "town": "大東町養賀"
  },
  "6991251": {
    "zipcode": "6991251",
    "prefectureCode": "32",
    "prefectureNumber": 32,
    "prefecture": "島根県",
    "city": "雲南市",
    "town": "大東町大東"
  },
  "6991252": {
    "zipcode": "6991252",
    "prefectureCode": "32",
    "prefectureNumber": 32,
    "prefecture": "島根県",
    "city": "雲南市",
    "town": "大東町田中"
  },
  "6991253": {
    "zipcode": "6991253",
    "prefectureCode": "32",
    "prefectureNumber": 32,
    "prefecture": "島根県",
    "city": "雲南市",
    "town": "大東町中湯石"
  },
  "6991261": {
    "zipcode": "6991261",
    "prefectureCode": "32",
    "prefectureNumber": 32,
    "prefecture": "島根県",
    "city": "雲南市",
    "town": "大東町金成"
  },
  "6991262": {
    "zipcode": "6991262",
    "prefectureCode": "32",
    "prefectureNumber": 32,
    "prefecture": "島根県",
    "city": "雲南市",
    "town": "大東町塩田"
  },
  "6991263": {
    "zipcode": "6991263",
    "prefectureCode": "32",
    "prefectureNumber": 32,
    "prefecture": "島根県",
    "city": "雲南市",
    "town": "大東町篠淵"
  },
  "6991264": {
    "zipcode": "6991264",
    "prefectureCode": "32",
    "prefectureNumber": 32,
    "prefecture": "島根県",
    "city": "雲南市",
    "town": "大東町清田"
  },
  "6991311": {
    "zipcode": "6991311",
    "prefectureCode": "32",
    "prefectureNumber": 32,
    "prefecture": "島根県",
    "city": "雲南市",
    "town": "木次町里方"
  },
  "6991312": {
    "zipcode": "6991312",
    "prefectureCode": "32",
    "prefectureNumber": 32,
    "prefecture": "島根県",
    "city": "雲南市",
    "town": "木次町山方"
  },
  "6991321": {
    "zipcode": "6991321",
    "prefectureCode": "32",
    "prefectureNumber": 32,
    "prefecture": "島根県",
    "city": "雲南市",
    "town": "木次町宇谷"
  },
  "6991322": {
    "zipcode": "6991322",
    "prefectureCode": "32",
    "prefectureNumber": 32,
    "prefecture": "島根県",
    "city": "雲南市",
    "town": "木次町寺領"
  },
  "6991323": {
    "zipcode": "6991323",
    "prefectureCode": "32",
    "prefectureNumber": 32,
    "prefecture": "島根県",
    "city": "雲南市",
    "town": "木次町東日登"
  },
  "6991324": {
    "zipcode": "6991324",
    "prefectureCode": "32",
    "prefectureNumber": 32,
    "prefecture": "島根県",
    "city": "雲南市",
    "town": "木次町西日登"
  },
  "6991331": {
    "zipcode": "6991331",
    "prefectureCode": "32",
    "prefectureNumber": 32,
    "prefecture": "島根県",
    "city": "雲南市",
    "town": "木次町上熊谷"
  },
  "6991332": {
    "zipcode": "6991332",
    "prefectureCode": "32",
    "prefectureNumber": 32,
    "prefecture": "島根県",
    "city": "雲南市",
    "town": "木次町木次"
  },
  "6991333": {
    "zipcode": "6991333",
    "prefectureCode": "32",
    "prefectureNumber": 32,
    "prefecture": "島根県",
    "city": "雲南市",
    "town": "木次町下熊谷"
  },
  "6991334": {
    "zipcode": "6991334",
    "prefectureCode": "32",
    "prefectureNumber": 32,
    "prefecture": "島根県",
    "city": "雲南市",
    "town": "木次町新市"
  },
  "6991341": {
    "zipcode": "6991341",
    "prefectureCode": "32",
    "prefectureNumber": 32,
    "prefecture": "島根県",
    "city": "雲南市",
    "town": "木次町北原（その他）"
  },
  "6991342": {
    "zipcode": "6991342",
    "prefectureCode": "32",
    "prefectureNumber": 32,
    "prefecture": "島根県",
    "city": "雲南市",
    "town": "木次町平田"
  },
  "6991343": {
    "zipcode": "6991343",
    "prefectureCode": "32",
    "prefectureNumber": 32,
    "prefecture": "島根県",
    "city": "雲南市",
    "town": "木次町湯村"
  },
  "6991401": {
    "zipcode": "6991401",
    "prefectureCode": "32",
    "prefectureNumber": 32,
    "prefecture": "島根県",
    "city": "雲南市",
    "town": "木次町北原（尾白）"
  },
  "6991431": {
    "zipcode": "6991431",
    "prefectureCode": "32",
    "prefectureNumber": 32,
    "prefecture": "島根県",
    "city": "仁多郡奥出雲町",
    "town": "上三所"
  },
  "6991432": {
    "zipcode": "6991432",
    "prefectureCode": "32",
    "prefectureNumber": 32,
    "prefecture": "島根県",
    "city": "仁多郡奥出雲町",
    "town": "馬馳"
  },
  "6991433": {
    "zipcode": "6991433",
    "prefectureCode": "32",
    "prefectureNumber": 32,
    "prefecture": "島根県",
    "city": "仁多郡奥出雲町",
    "town": "八代"
  },
  "6991434": {
    "zipcode": "6991434",
    "prefectureCode": "32",
    "prefectureNumber": 32,
    "prefecture": "島根県",
    "city": "仁多郡奥出雲町",
    "town": "佐白"
  },
  "6991500": {
    "zipcode": "6991500",
    "prefectureCode": "32",
    "prefectureNumber": 32,
    "prefecture": "島根県",
    "city": "仁多郡奥出雲町",
    "town": "以下に掲載がない場合"
  },
  "6991511": {
    "zipcode": "6991511",
    "prefectureCode": "32",
    "prefectureNumber": 32,
    "prefecture": "島根県",
    "city": "仁多郡奥出雲町",
    "town": "三成"
  },
  "6991512": {
    "zipcode": "6991512",
    "prefectureCode": "32",
    "prefectureNumber": 32,
    "prefecture": "島根県",
    "city": "仁多郡奥出雲町",
    "town": "高尾"
  },
  "6991513": {
    "zipcode": "6991513",
    "prefectureCode": "32",
    "prefectureNumber": 32,
    "prefecture": "島根県",
    "city": "仁多郡奥出雲町",
    "town": "三沢"
  },
  "6991514": {
    "zipcode": "6991514",
    "prefectureCode": "32",
    "prefectureNumber": 32,
    "prefecture": "島根県",
    "city": "仁多郡奥出雲町",
    "town": "河内"
  },
  "6991515": {
    "zipcode": "6991515",
    "prefectureCode": "32",
    "prefectureNumber": 32,
    "prefecture": "島根県",
    "city": "仁多郡奥出雲町",
    "town": "鴨倉"
  },
  "6991516": {
    "zipcode": "6991516",
    "prefectureCode": "32",
    "prefectureNumber": 32,
    "prefecture": "島根県",
    "city": "仁多郡奥出雲町",
    "town": "三所"
  },
  "6991517": {
    "zipcode": "6991517",
    "prefectureCode": "32",
    "prefectureNumber": 32,
    "prefecture": "島根県",
    "city": "仁多郡奥出雲町",
    "town": "下阿井（宇根路）"
  },
  "6991621": {
    "zipcode": "6991621",
    "prefectureCode": "32",
    "prefectureNumber": 32,
    "prefecture": "島根県",
    "city": "仁多郡奥出雲町",
    "town": "上阿井"
  },
  "6991622": {
    "zipcode": "6991622",
    "prefectureCode": "32",
    "prefectureNumber": 32,
    "prefecture": "島根県",
    "city": "仁多郡奥出雲町",
    "town": "下阿井（その他）"
  },
  "6991701": {
    "zipcode": "6991701",
    "prefectureCode": "32",
    "prefectureNumber": 32,
    "prefecture": "島根県",
    "city": "仁多郡奥出雲町",
    "town": "亀嵩"
  },
  "6991702": {
    "zipcode": "6991702",
    "prefectureCode": "32",
    "prefectureNumber": 32,
    "prefecture": "島根県",
    "city": "仁多郡奥出雲町",
    "town": "郡"
  },
  "6991703": {
    "zipcode": "6991703",
    "prefectureCode": "32",
    "prefectureNumber": 32,
    "prefecture": "島根県",
    "city": "仁多郡奥出雲町",
    "town": "高田"
  },
  "6991801": {
    "zipcode": "6991801",
    "prefectureCode": "32",
    "prefectureNumber": 32,
    "prefecture": "島根県",
    "city": "仁多郡奥出雲町",
    "town": "竹崎"
  },
  "6991802": {
    "zipcode": "6991802",
    "prefectureCode": "32",
    "prefectureNumber": 32,
    "prefecture": "島根県",
    "city": "仁多郡奥出雲町",
    "town": "大呂"
  },
  "6991811": {
    "zipcode": "6991811",
    "prefectureCode": "32",
    "prefectureNumber": 32,
    "prefecture": "島根県",
    "city": "仁多郡奥出雲町",
    "town": "八川"
  },
  "6991812": {
    "zipcode": "6991812",
    "prefectureCode": "32",
    "prefectureNumber": 32,
    "prefecture": "島根県",
    "city": "仁多郡奥出雲町",
    "town": "大谷"
  },
  "6991821": {
    "zipcode": "6991821",
    "prefectureCode": "32",
    "prefectureNumber": 32,
    "prefecture": "島根県",
    "city": "仁多郡奥出雲町",
    "town": "稲原"
  },
  "6991822": {
    "zipcode": "6991822",
    "prefectureCode": "32",
    "prefectureNumber": 32,
    "prefecture": "島根県",
    "city": "仁多郡奥出雲町",
    "town": "下横田"
  },
  "6991831": {
    "zipcode": "6991831",
    "prefectureCode": "32",
    "prefectureNumber": 32,
    "prefecture": "島根県",
    "city": "仁多郡奥出雲町",
    "town": "中村"
  },
  "6991832": {
    "zipcode": "6991832",
    "prefectureCode": "32",
    "prefectureNumber": 32,
    "prefecture": "島根県",
    "city": "仁多郡奥出雲町",
    "town": "横田"
  },
  "6991941": {
    "zipcode": "6991941",
    "prefectureCode": "32",
    "prefectureNumber": 32,
    "prefecture": "島根県",
    "city": "仁多郡奥出雲町",
    "town": "大馬木"
  },
  "6991942": {
    "zipcode": "6991942",
    "prefectureCode": "32",
    "prefectureNumber": 32,
    "prefecture": "島根県",
    "city": "仁多郡奥出雲町",
    "town": "小馬木"
  },
  "6992211": {
    "zipcode": "6992211",
    "prefectureCode": "32",
    "prefectureNumber": 32,
    "prefecture": "島根県",
    "city": "大田市",
    "town": "波根町"
  },
  "6992212": {
    "zipcode": "6992212",
    "prefectureCode": "32",
    "prefectureNumber": 32,
    "prefecture": "島根県",
    "city": "大田市",
    "town": "朝山町仙山"
  },
  "6992213": {
    "zipcode": "6992213",
    "prefectureCode": "32",
    "prefectureNumber": 32,
    "prefecture": "島根県",
    "city": "大田市",
    "town": "朝山町朝倉"
  },
  "6992214": {
    "zipcode": "6992214",
    "prefectureCode": "32",
    "prefectureNumber": 32,
    "prefecture": "島根県",
    "city": "大田市",
    "town": "富山町神原"
  },
  "6992215": {
    "zipcode": "6992215",
    "prefectureCode": "32",
    "prefectureNumber": 32,
    "prefecture": "島根県",
    "city": "大田市",
    "town": "富山町才坂"
  },
  "6992216": {
    "zipcode": "6992216",
    "prefectureCode": "32",
    "prefectureNumber": 32,
    "prefecture": "島根県",
    "city": "大田市",
    "town": "富山町山中（その他）"
  },
  "6992301": {
    "zipcode": "6992301",
    "prefectureCode": "32",
    "prefectureNumber": 32,
    "prefecture": "島根県",
    "city": "大田市",
    "town": "仁摩町仁万"
  },
  "6992302": {
    "zipcode": "6992302",
    "prefectureCode": "32",
    "prefectureNumber": 32,
    "prefecture": "島根県",
    "city": "大田市",
    "town": "仁摩町宅野"
  },
  "6992303": {
    "zipcode": "6992303",
    "prefectureCode": "32",
    "prefectureNumber": 32,
    "prefecture": "島根県",
    "city": "大田市",
    "town": "仁摩町大国"
  },
  "6992304": {
    "zipcode": "6992304",
    "prefectureCode": "32",
    "prefectureNumber": 32,
    "prefecture": "島根県",
    "city": "大田市",
    "town": "仁摩町馬路"
  },
  "6992305": {
    "zipcode": "6992305",
    "prefectureCode": "32",
    "prefectureNumber": 32,
    "prefecture": "島根県",
    "city": "大田市",
    "town": "仁摩町天河内"
  },
  "6992501": {
    "zipcode": "6992501",
    "prefectureCode": "32",
    "prefectureNumber": 32,
    "prefecture": "島根県",
    "city": "大田市",
    "town": "温泉津町温泉津"
  },
  "6992502": {
    "zipcode": "6992502",
    "prefectureCode": "32",
    "prefectureNumber": 32,
    "prefecture": "島根県",
    "city": "大田市",
    "town": "温泉津町湯里"
  },
  "6992503": {
    "zipcode": "6992503",
    "prefectureCode": "32",
    "prefectureNumber": 32,
    "prefecture": "島根県",
    "city": "大田市",
    "town": "温泉津町西田"
  },
  "6992504": {
    "zipcode": "6992504",
    "prefectureCode": "32",
    "prefectureNumber": 32,
    "prefecture": "島根県",
    "city": "大田市",
    "town": "温泉津町荻村"
  },
  "6992505": {
    "zipcode": "6992505",
    "prefectureCode": "32",
    "prefectureNumber": 32,
    "prefecture": "島根県",
    "city": "大田市",
    "town": "温泉津町太田"
  },
  "6992506": {
    "zipcode": "6992506",
    "prefectureCode": "32",
    "prefectureNumber": 32,
    "prefecture": "島根県",
    "city": "大田市",
    "town": "温泉津町福田"
  },
  "6992507": {
    "zipcode": "6992507",
    "prefectureCode": "32",
    "prefectureNumber": 32,
    "prefecture": "島根県",
    "city": "大田市",
    "town": "温泉津町井田"
  },
  "6992511": {
    "zipcode": "6992511",
    "prefectureCode": "32",
    "prefectureNumber": 32,
    "prefecture": "島根県",
    "city": "大田市",
    "town": "温泉津町小浜"
  },
  "6992512": {
    "zipcode": "6992512",
    "prefectureCode": "32",
    "prefectureNumber": 32,
    "prefecture": "島根県",
    "city": "大田市",
    "town": "温泉津町飯原"
  },
  "6992513": {
    "zipcode": "6992513",
    "prefectureCode": "32",
    "prefectureNumber": 32,
    "prefecture": "島根県",
    "city": "大田市",
    "town": "温泉津町上村"
  },
  "6992514": {
    "zipcode": "6992514",
    "prefectureCode": "32",
    "prefectureNumber": 32,
    "prefecture": "島根県",
    "city": "大田市",
    "town": "温泉津町福光"
  },
  "6992515": {
    "zipcode": "6992515",
    "prefectureCode": "32",
    "prefectureNumber": 32,
    "prefecture": "島根県",
    "city": "大田市",
    "town": "温泉津町今浦"
  },
  "6992516": {
    "zipcode": "6992516",
    "prefectureCode": "32",
    "prefectureNumber": 32,
    "prefecture": "島根県",
    "city": "大田市",
    "town": "温泉津町吉浦"
  },
  "6992831": {
    "zipcode": "6992831",
    "prefectureCode": "32",
    "prefectureNumber": 32,
    "prefecture": "島根県",
    "city": "江津市",
    "town": "黒松町"
  },
  "6992832": {
    "zipcode": "6992832",
    "prefectureCode": "32",
    "prefectureNumber": 32,
    "prefecture": "島根県",
    "city": "江津市",
    "town": "波積町北"
  },
  "6992833": {
    "zipcode": "6992833",
    "prefectureCode": "32",
    "prefectureNumber": 32,
    "prefecture": "島根県",
    "city": "江津市",
    "town": "波積町本郷"
  },
  "6992834": {
    "zipcode": "6992834",
    "prefectureCode": "32",
    "prefectureNumber": 32,
    "prefecture": "島根県",
    "city": "江津市",
    "town": "波積町南"
  },
  "6992835": {
    "zipcode": "6992835",
    "prefectureCode": "32",
    "prefectureNumber": 32,
    "prefecture": "島根県",
    "city": "江津市",
    "town": "松川町上津井"
  },
  "6992836": {
    "zipcode": "6992836",
    "prefectureCode": "32",
    "prefectureNumber": 32,
    "prefecture": "島根県",
    "city": "江津市",
    "town": "松川町畑田"
  },
  "6992837": {
    "zipcode": "6992837",
    "prefectureCode": "32",
    "prefectureNumber": 32,
    "prefecture": "島根県",
    "city": "江津市",
    "town": "松川町上河戸"
  },
  "6992841": {
    "zipcode": "6992841",
    "prefectureCode": "32",
    "prefectureNumber": 32,
    "prefecture": "島根県",
    "city": "江津市",
    "town": "後地町"
  },
  "6992842": {
    "zipcode": "6992842",
    "prefectureCode": "32",
    "prefectureNumber": 32,
    "prefecture": "島根県",
    "city": "江津市",
    "town": "都治町"
  },
  "6993161": {
    "zipcode": "6993161",
    "prefectureCode": "32",
    "prefectureNumber": 32,
    "prefecture": "島根県",
    "city": "江津市",
    "town": "波子町"
  },
  "6993162": {
    "zipcode": "6993162",
    "prefectureCode": "32",
    "prefectureNumber": 32,
    "prefecture": "島根県",
    "city": "江津市",
    "town": "敬川町"
  },
  "6993211": {
    "zipcode": "6993211",
    "prefectureCode": "32",
    "prefectureNumber": 32,
    "prefecture": "島根県",
    "city": "浜田市",
    "town": "三隅町三隅"
  },
  "6993212": {
    "zipcode": "6993212",
    "prefectureCode": "32",
    "prefectureNumber": 32,
    "prefecture": "島根県",
    "city": "浜田市",
    "town": "三隅町向野田"
  },
  "6993213": {
    "zipcode": "6993213",
    "prefectureCode": "32",
    "prefectureNumber": 32,
    "prefecture": "島根県",
    "city": "浜田市",
    "town": "三隅町河内"
  },
  "6993214": {
    "zipcode": "6993214",
    "prefectureCode": "32",
    "prefectureNumber": 32,
    "prefecture": "島根県",
    "city": "浜田市",
    "town": "三隅町矢原"
  },
  "6993215": {
    "zipcode": "6993215",
    "prefectureCode": "32",
    "prefectureNumber": 32,
    "prefecture": "島根県",
    "city": "浜田市",
    "town": "三隅町下古和"
  },
  "6993216": {
    "zipcode": "6993216",
    "prefectureCode": "32",
    "prefectureNumber": 32,
    "prefecture": "島根県",
    "city": "浜田市",
    "town": "三隅町上古和"
  },
  "6993217": {
    "zipcode": "6993217",
    "prefectureCode": "32",
    "prefectureNumber": 32,
    "prefecture": "島根県",
    "city": "浜田市",
    "town": "三隅町黒沢"
  },
  "6993221": {
    "zipcode": "6993221",
    "prefectureCode": "32",
    "prefectureNumber": 32,
    "prefecture": "島根県",
    "city": "浜田市",
    "town": "三隅町東平原"
  },
  "6993222": {
    "zipcode": "6993222",
    "prefectureCode": "32",
    "prefectureNumber": 32,
    "prefecture": "島根県",
    "city": "浜田市",
    "town": "三隅町折居"
  },
  "6993223": {
    "zipcode": "6993223",
    "prefectureCode": "32",
    "prefectureNumber": 32,
    "prefecture": "島根県",
    "city": "浜田市",
    "town": "三隅町西河内"
  },
  "6993224": {
    "zipcode": "6993224",
    "prefectureCode": "32",
    "prefectureNumber": 32,
    "prefecture": "島根県",
    "city": "浜田市",
    "town": "三隅町湊浦"
  },
  "6993225": {
    "zipcode": "6993225",
    "prefectureCode": "32",
    "prefectureNumber": 32,
    "prefecture": "島根県",
    "city": "浜田市",
    "town": "三隅町古市場"
  },
  "6993226": {
    "zipcode": "6993226",
    "prefectureCode": "32",
    "prefectureNumber": 32,
    "prefecture": "島根県",
    "city": "浜田市",
    "town": "三隅町岡見"
  },
  "6993301": {
    "zipcode": "6993301",
    "prefectureCode": "32",
    "prefectureNumber": 32,
    "prefecture": "島根県",
    "city": "浜田市",
    "town": "三隅町井野"
  },
  "6993302": {
    "zipcode": "6993302",
    "prefectureCode": "32",
    "prefectureNumber": 32,
    "prefecture": "島根県",
    "city": "浜田市",
    "town": "三隅町芦谷"
  },
  "6993303": {
    "zipcode": "6993303",
    "prefectureCode": "32",
    "prefectureNumber": 32,
    "prefecture": "島根県",
    "city": "浜田市",
    "town": "三隅町室谷"
  },
  "6993501": {
    "zipcode": "6993501",
    "prefectureCode": "32",
    "prefectureNumber": 32,
    "prefecture": "島根県",
    "city": "益田市",
    "town": "金山町"
  },
  "6993502": {
    "zipcode": "6993502",
    "prefectureCode": "32",
    "prefectureNumber": 32,
    "prefecture": "島根県",
    "city": "益田市",
    "town": "木部町"
  },
  "6993503": {
    "zipcode": "6993503",
    "prefectureCode": "32",
    "prefectureNumber": 32,
    "prefecture": "島根県",
    "city": "益田市",
    "town": "下種町"
  },
  "6993504": {
    "zipcode": "6993504",
    "prefectureCode": "32",
    "prefectureNumber": 32,
    "prefecture": "島根県",
    "city": "益田市",
    "town": "種村町"
  },
  "6993505": {
    "zipcode": "6993505",
    "prefectureCode": "32",
    "prefectureNumber": 32,
    "prefecture": "島根県",
    "city": "益田市",
    "town": "土田町"
  },
  "6993506": {
    "zipcode": "6993506",
    "prefectureCode": "32",
    "prefectureNumber": 32,
    "prefecture": "島根県",
    "city": "益田市",
    "town": "西平原町"
  },
  "6993671": {
    "zipcode": "6993671",
    "prefectureCode": "32",
    "prefectureNumber": 32,
    "prefecture": "島根県",
    "city": "益田市",
    "town": "津田町"
  },
  "6993672": {
    "zipcode": "6993672",
    "prefectureCode": "32",
    "prefectureNumber": 32,
    "prefecture": "島根県",
    "city": "益田市",
    "town": "赤雁町"
  },
  "6993673": {
    "zipcode": "6993673",
    "prefectureCode": "32",
    "prefectureNumber": 32,
    "prefecture": "島根県",
    "city": "益田市",
    "town": "山折町"
  },
  "6993674": {
    "zipcode": "6993674",
    "prefectureCode": "32",
    "prefectureNumber": 32,
    "prefecture": "島根県",
    "city": "益田市",
    "town": "大草町"
  },
  "6993675": {
    "zipcode": "6993675",
    "prefectureCode": "32",
    "prefectureNumber": 32,
    "prefecture": "島根県",
    "city": "益田市",
    "town": "乙子町"
  },
  "6993676": {
    "zipcode": "6993676",
    "prefectureCode": "32",
    "prefectureNumber": 32,
    "prefecture": "島根県",
    "city": "益田市",
    "town": "遠田町"
  },
  "6993761": {
    "zipcode": "6993761",
    "prefectureCode": "32",
    "prefectureNumber": 32,
    "prefecture": "島根県",
    "city": "益田市",
    "town": "飯浦町"
  },
  "6993762": {
    "zipcode": "6993762",
    "prefectureCode": "32",
    "prefectureNumber": 32,
    "prefecture": "島根県",
    "city": "益田市",
    "town": "小浜町"
  },
  "6993763": {
    "zipcode": "6993763",
    "prefectureCode": "32",
    "prefectureNumber": 32,
    "prefecture": "島根県",
    "city": "益田市",
    "town": "戸田町"
  },
  "6993764": {
    "zipcode": "6993764",
    "prefectureCode": "32",
    "prefectureNumber": 32,
    "prefecture": "島根県",
    "city": "益田市",
    "town": "喜阿弥町"
  },
  "6993765": {
    "zipcode": "6993765",
    "prefectureCode": "32",
    "prefectureNumber": 32,
    "prefecture": "島根県",
    "city": "益田市",
    "town": "有田町"
  },
  "6993766": {
    "zipcode": "6993766",
    "prefectureCode": "32",
    "prefectureNumber": 32,
    "prefecture": "島根県",
    "city": "益田市",
    "town": "美濃地町"
  },
  "6994111": {
    "zipcode": "6994111",
    "prefectureCode": "32",
    "prefectureNumber": 32,
    "prefecture": "島根県",
    "city": "江津市",
    "town": "桜江町谷住郷"
  },
  "6994221": {
    "zipcode": "6994221",
    "prefectureCode": "32",
    "prefectureNumber": 32,
    "prefecture": "島根県",
    "city": "江津市",
    "town": "桜江町市山"
  },
  "6994222": {
    "zipcode": "6994222",
    "prefectureCode": "32",
    "prefectureNumber": 32,
    "prefecture": "島根県",
    "city": "江津市",
    "town": "桜江町今田"
  },
  "6994223": {
    "zipcode": "6994223",
    "prefectureCode": "32",
    "prefectureNumber": 32,
    "prefecture": "島根県",
    "city": "江津市",
    "town": "桜江町後山"
  },
  "6994224": {
    "zipcode": "6994224",
    "prefectureCode": "32",
    "prefectureNumber": 32,
    "prefecture": "島根県",
    "city": "江津市",
    "town": "桜江町江尾"
  },
  "6994225": {
    "zipcode": "6994225",
    "prefectureCode": "32",
    "prefectureNumber": 32,
    "prefecture": "島根県",
    "city": "江津市",
    "town": "桜江町小田"
  },
  "6994226": {
    "zipcode": "6994226",
    "prefectureCode": "32",
    "prefectureNumber": 32,
    "prefecture": "島根県",
    "city": "江津市",
    "town": "桜江町川戸"
  },
  "6994311": {
    "zipcode": "6994311",
    "prefectureCode": "32",
    "prefectureNumber": 32,
    "prefecture": "島根県",
    "city": "邑智郡邑南町",
    "town": "日貫"
  },
  "6994431": {
    "zipcode": "6994431",
    "prefectureCode": "32",
    "prefectureNumber": 32,
    "prefecture": "島根県",
    "city": "江津市",
    "town": "桜江町長谷"
  },
  "6994432": {
    "zipcode": "6994432",
    "prefectureCode": "32",
    "prefectureNumber": 32,
    "prefecture": "島根県",
    "city": "江津市",
    "town": "桜江町八戸"
  },
  "6994501": {
    "zipcode": "6994501",
    "prefectureCode": "32",
    "prefectureNumber": 32,
    "prefecture": "島根県",
    "city": "江津市",
    "town": "桜江町鹿賀"
  },
  "6994502": {
    "zipcode": "6994502",
    "prefectureCode": "32",
    "prefectureNumber": 32,
    "prefecture": "島根県",
    "city": "江津市",
    "town": "桜江町川越"
  },
  "6994503": {
    "zipcode": "6994503",
    "prefectureCode": "32",
    "prefectureNumber": 32,
    "prefecture": "島根県",
    "city": "江津市",
    "town": "桜江町田津"
  },
  "6994504": {
    "zipcode": "6994504",
    "prefectureCode": "32",
    "prefectureNumber": 32,
    "prefecture": "島根県",
    "city": "江津市",
    "town": "桜江町大貫"
  },
  "6994505": {
    "zipcode": "6994505",
    "prefectureCode": "32",
    "prefectureNumber": 32,
    "prefecture": "島根県",
    "city": "江津市",
    "town": "桜江町坂本"
  },
  "6994600": {
    "zipcode": "6994600",
    "prefectureCode": "32",
    "prefectureNumber": 32,
    "prefecture": "島根県",
    "city": "邑智郡美郷町",
    "town": "以下に掲載がない場合"
  },
  "6994605": {
    "zipcode": "6994605",
    "prefectureCode": "32",
    "prefectureNumber": 32,
    "prefecture": "島根県",
    "city": "邑智郡美郷町",
    "town": "高山"
  },
  "6994621": {
    "zipcode": "6994621",
    "prefectureCode": "32",
    "prefectureNumber": 32,
    "prefecture": "島根県",
    "city": "邑智郡美郷町",
    "town": "粕渕"
  },
  "6994622": {
    "zipcode": "6994622",
    "prefectureCode": "32",
    "prefectureNumber": 32,
    "prefecture": "島根県",
    "city": "邑智郡美郷町",
    "town": "久保"
  },
  "6994623": {
    "zipcode": "6994623",
    "prefectureCode": "32",
    "prefectureNumber": 32,
    "prefecture": "島根県",
    "city": "邑智郡美郷町",
    "town": "野井"
  },
  "6994624": {
    "zipcode": "6994624",
    "prefectureCode": "32",
    "prefectureNumber": 32,
    "prefecture": "島根県",
    "city": "邑智郡美郷町",
    "town": "明塚"
  },
  "6994625": {
    "zipcode": "6994625",
    "prefectureCode": "32",
    "prefectureNumber": 32,
    "prefecture": "島根県",
    "city": "邑智郡美郷町",
    "town": "簗瀬"
  },
  "6994626": {
    "zipcode": "6994626",
    "prefectureCode": "32",
    "prefectureNumber": 32,
    "prefecture": "島根県",
    "city": "邑智郡美郷町",
    "town": "乙原"
  },
  "6994627": {
    "zipcode": "6994627",
    "prefectureCode": "32",
    "prefectureNumber": 32,
    "prefecture": "島根県",
    "city": "邑智郡美郷町",
    "town": "吾郷"
  },
  "6994631": {
    "zipcode": "6994631",
    "prefectureCode": "32",
    "prefectureNumber": 32,
    "prefecture": "島根県",
    "city": "邑智郡美郷町",
    "town": "奥山"
  },
  "6994632": {
    "zipcode": "6994632",
    "prefectureCode": "32",
    "prefectureNumber": 32,
    "prefecture": "島根県",
    "city": "邑智郡美郷町",
    "town": "高畑"
  },
  "6994633": {
    "zipcode": "6994633",
    "prefectureCode": "32",
    "prefectureNumber": 32,
    "prefecture": "島根県",
    "city": "邑智郡美郷町",
    "town": "湯抱"
  },
  "6994701": {
    "zipcode": "6994701",
    "prefectureCode": "32",
    "prefectureNumber": 32,
    "prefecture": "島根県",
    "city": "邑智郡美郷町",
    "town": "浜原"
  },
  "6994702": {
    "zipcode": "6994702",
    "prefectureCode": "32",
    "prefectureNumber": 32,
    "prefecture": "島根県",
    "city": "邑智郡美郷町",
    "town": "上川戸"
  },
  "6994703": {
    "zipcode": "6994703",
    "prefectureCode": "32",
    "prefectureNumber": 32,
    "prefecture": "島根県",
    "city": "邑智郡美郷町",
    "town": "熊見"
  },
  "6994704": {
    "zipcode": "6994704",
    "prefectureCode": "32",
    "prefectureNumber": 32,
    "prefecture": "島根県",
    "city": "邑智郡美郷町",
    "town": "信喜"
  },
  "6994706": {
    "zipcode": "6994706",
    "prefectureCode": "32",
    "prefectureNumber": 32,
    "prefecture": "島根県",
    "city": "邑智郡美郷町",
    "town": "滝原"
  },
  "6994707": {
    "zipcode": "6994707",
    "prefectureCode": "32",
    "prefectureNumber": 32,
    "prefecture": "島根県",
    "city": "邑智郡美郷町",
    "town": "亀村"
  },
  "6994711": {
    "zipcode": "6994711",
    "prefectureCode": "32",
    "prefectureNumber": 32,
    "prefecture": "島根県",
    "city": "邑智郡美郷町",
    "town": "千原"
  },
  "6994712": {
    "zipcode": "6994712",
    "prefectureCode": "32",
    "prefectureNumber": 32,
    "prefecture": "島根県",
    "city": "邑智郡美郷町",
    "town": "九日市"
  },
  "6994713": {
    "zipcode": "6994713",
    "prefectureCode": "32",
    "prefectureNumber": 32,
    "prefecture": "島根県",
    "city": "邑智郡美郷町",
    "town": "酒谷"
  },
  "6994714": {
    "zipcode": "6994714",
    "prefectureCode": "32",
    "prefectureNumber": 32,
    "prefecture": "島根県",
    "city": "邑智郡美郷町",
    "town": "片山"
  },
  "6994715": {
    "zipcode": "6994715",
    "prefectureCode": "32",
    "prefectureNumber": 32,
    "prefecture": "島根県",
    "city": "邑智郡美郷町",
    "town": "石原"
  },
  "6995121": {
    "zipcode": "6995121",
    "prefectureCode": "32",
    "prefectureNumber": 32,
    "prefecture": "島根県",
    "city": "益田市",
    "town": "左ケ山町"
  },
  "6995122": {
    "zipcode": "6995122",
    "prefectureCode": "32",
    "prefectureNumber": 32,
    "prefecture": "島根県",
    "city": "益田市",
    "town": "本俣賀町"
  },
  "6995123": {
    "zipcode": "6995123",
    "prefectureCode": "32",
    "prefectureNumber": 32,
    "prefecture": "島根県",
    "city": "益田市",
    "town": "猪木谷町"
  },
  "6995124": {
    "zipcode": "6995124",
    "prefectureCode": "32",
    "prefectureNumber": 32,
    "prefecture": "島根県",
    "city": "益田市",
    "town": "薄原町"
  },
  "6995125": {
    "zipcode": "6995125",
    "prefectureCode": "32",
    "prefectureNumber": 32,
    "prefecture": "島根県",
    "city": "益田市",
    "town": "白岩町"
  },
  "6995126": {
    "zipcode": "6995126",
    "prefectureCode": "32",
    "prefectureNumber": 32,
    "prefecture": "島根県",
    "city": "益田市",
    "town": "隅村町"
  },
  "6995127": {
    "zipcode": "6995127",
    "prefectureCode": "32",
    "prefectureNumber": 32,
    "prefecture": "島根県",
    "city": "益田市",
    "town": "梅月町"
  },
  "6995131": {
    "zipcode": "6995131",
    "prefectureCode": "32",
    "prefectureNumber": 32,
    "prefecture": "島根県",
    "city": "益田市",
    "town": "安富町"
  },
  "6995132": {
    "zipcode": "6995132",
    "prefectureCode": "32",
    "prefectureNumber": 32,
    "prefecture": "島根県",
    "city": "益田市",
    "town": "横田町"
  },
  "6995133": {
    "zipcode": "6995133",
    "prefectureCode": "32",
    "prefectureNumber": 32,
    "prefecture": "島根県",
    "city": "益田市",
    "town": "神田町"
  },
  "6995134": {
    "zipcode": "6995134",
    "prefectureCode": "32",
    "prefectureNumber": 32,
    "prefecture": "島根県",
    "city": "益田市",
    "town": "向横田町"
  },
  "6995201": {
    "zipcode": "6995201",
    "prefectureCode": "32",
    "prefectureNumber": 32,
    "prefecture": "島根県",
    "city": "鹿足郡津和野町",
    "town": "商人（９２９〜１１１７、１３４３〜１７３４番地）"
  },
  "6995202": {
    "zipcode": "6995202",
    "prefectureCode": "32",
    "prefectureNumber": 32,
    "prefecture": "島根県",
    "city": "鹿足郡津和野町",
    "town": "左鐙"
  },
  "6995203": {
    "zipcode": "6995203",
    "prefectureCode": "32",
    "prefectureNumber": 32,
    "prefecture": "島根県",
    "city": "鹿足郡津和野町",
    "town": "相撲ケ原"
  },
  "6995204": {
    "zipcode": "6995204",
    "prefectureCode": "32",
    "prefectureNumber": 32,
    "prefecture": "島根県",
    "city": "鹿足郡津和野町",
    "town": "須川"
  },
  "6995205": {
    "zipcode": "6995205",
    "prefectureCode": "32",
    "prefectureNumber": 32,
    "prefecture": "島根県",
    "city": "鹿足郡津和野町",
    "town": "瀧谷"
  },
  "6995206": {
    "zipcode": "6995206",
    "prefectureCode": "32",
    "prefectureNumber": 32,
    "prefecture": "島根県",
    "city": "鹿足郡津和野町",
    "town": "瀧元"
  },
  "6995207": {
    "zipcode": "6995207",
    "prefectureCode": "32",
    "prefectureNumber": 32,
    "prefecture": "島根県",
    "city": "鹿足郡津和野町",
    "town": "枕瀬"
  },
  "6995211": {
    "zipcode": "6995211",
    "prefectureCode": "32",
    "prefectureNumber": 32,
    "prefecture": "島根県",
    "city": "鹿足郡津和野町",
    "town": "青原"
  },
  "6995212": {
    "zipcode": "6995212",
    "prefectureCode": "32",
    "prefectureNumber": 32,
    "prefecture": "島根県",
    "city": "鹿足郡津和野町",
    "town": "河村"
  },
  "6995213": {
    "zipcode": "6995213",
    "prefectureCode": "32",
    "prefectureNumber": 32,
    "prefecture": "島根県",
    "city": "鹿足郡津和野町",
    "town": "添谷"
  },
  "6995214": {
    "zipcode": "6995214",
    "prefectureCode": "32",
    "prefectureNumber": 32,
    "prefecture": "島根県",
    "city": "鹿足郡津和野町",
    "town": "溪村"
  },
  "6995215": {
    "zipcode": "6995215",
    "prefectureCode": "32",
    "prefectureNumber": 32,
    "prefecture": "島根県",
    "city": "鹿足郡津和野町",
    "town": "冨田"
  },
  "6995216": {
    "zipcode": "6995216",
    "prefectureCode": "32",
    "prefectureNumber": 32,
    "prefecture": "島根県",
    "city": "鹿足郡津和野町",
    "town": "池村"
  },
  "6995217": {
    "zipcode": "6995217",
    "prefectureCode": "32",
    "prefectureNumber": 32,
    "prefecture": "島根県",
    "city": "鹿足郡津和野町",
    "town": "柳村"
  },
  "6995221": {
    "zipcode": "6995221",
    "prefectureCode": "32",
    "prefectureNumber": 32,
    "prefecture": "島根県",
    "city": "鹿足郡津和野町",
    "town": "日原"
  },
  "6995301": {
    "zipcode": "6995301",
    "prefectureCode": "32",
    "prefectureNumber": 32,
    "prefecture": "島根県",
    "city": "鹿足郡吉賀町",
    "town": "柿木"
  },
  "6995302": {
    "zipcode": "6995302",
    "prefectureCode": "32",
    "prefectureNumber": 32,
    "prefecture": "島根県",
    "city": "鹿足郡吉賀町",
    "town": "福川"
  },
  "6995303": {
    "zipcode": "6995303",
    "prefectureCode": "32",
    "prefectureNumber": 32,
    "prefecture": "島根県",
    "city": "鹿足郡吉賀町",
    "town": "椛谷"
  },
  "6995304": {
    "zipcode": "6995304",
    "prefectureCode": "32",
    "prefectureNumber": 32,
    "prefecture": "島根県",
    "city": "鹿足郡吉賀町",
    "town": "白谷"
  },
  "6995305": {
    "zipcode": "6995305",
    "prefectureCode": "32",
    "prefectureNumber": 32,
    "prefecture": "島根県",
    "city": "鹿足郡吉賀町",
    "town": "下須"
  },
  "6995306": {
    "zipcode": "6995306",
    "prefectureCode": "32",
    "prefectureNumber": 32,
    "prefecture": "島根県",
    "city": "鹿足郡吉賀町",
    "town": "大野原"
  },
  "6995307": {
    "zipcode": "6995307",
    "prefectureCode": "32",
    "prefectureNumber": 32,
    "prefecture": "島根県",
    "city": "鹿足郡吉賀町",
    "town": "木部谷"
  },
  "6995500": {
    "zipcode": "6995500",
    "prefectureCode": "32",
    "prefectureNumber": 32,
    "prefecture": "島根県",
    "city": "鹿足郡吉賀町",
    "town": "以下に掲載がない場合"
  },
  "6995501": {
    "zipcode": "6995501",
    "prefectureCode": "32",
    "prefectureNumber": 32,
    "prefecture": "島根県",
    "city": "鹿足郡吉賀町",
    "town": "上高尻"
  },
  "6995502": {
    "zipcode": "6995502",
    "prefectureCode": "32",
    "prefectureNumber": 32,
    "prefecture": "島根県",
    "city": "鹿足郡吉賀町",
    "town": "田野原"
  },
  "6995503": {
    "zipcode": "6995503",
    "prefectureCode": "32",
    "prefectureNumber": 32,
    "prefecture": "島根県",
    "city": "鹿足郡吉賀町",
    "town": "樋口"
  },
  "6995504": {
    "zipcode": "6995504",
    "prefectureCode": "32",
    "prefectureNumber": 32,
    "prefecture": "島根県",
    "city": "鹿足郡吉賀町",
    "town": "蔵木"
  },
  "6995505": {
    "zipcode": "6995505",
    "prefectureCode": "32",
    "prefectureNumber": 32,
    "prefecture": "島根県",
    "city": "鹿足郡吉賀町",
    "town": "九郎原"
  },
  "6995506": {
    "zipcode": "6995506",
    "prefectureCode": "32",
    "prefectureNumber": 32,
    "prefecture": "島根県",
    "city": "鹿足郡吉賀町",
    "town": "有飯"
  },
  "6995507": {
    "zipcode": "6995507",
    "prefectureCode": "32",
    "prefectureNumber": 32,
    "prefecture": "島根県",
    "city": "鹿足郡吉賀町",
    "town": "下高尻"
  },
  "6995511": {
    "zipcode": "6995511",
    "prefectureCode": "32",
    "prefectureNumber": 32,
    "prefecture": "島根県",
    "city": "鹿足郡吉賀町",
    "town": "立戸"
  },
  "6995512": {
    "zipcode": "6995512",
    "prefectureCode": "32",
    "prefectureNumber": 32,
    "prefecture": "島根県",
    "city": "鹿足郡吉賀町",
    "town": "広石"
  },
  "6995513": {
    "zipcode": "6995513",
    "prefectureCode": "32",
    "prefectureNumber": 32,
    "prefecture": "島根県",
    "city": "鹿足郡吉賀町",
    "town": "六日市"
  },
  "6995514": {
    "zipcode": "6995514",
    "prefectureCode": "32",
    "prefectureNumber": 32,
    "prefecture": "島根県",
    "city": "鹿足郡吉賀町",
    "town": "立河内"
  },
  "6995515": {
    "zipcode": "6995515",
    "prefectureCode": "32",
    "prefectureNumber": 32,
    "prefecture": "島根県",
    "city": "鹿足郡吉賀町",
    "town": "幸地"
  },
  "6995516": {
    "zipcode": "6995516",
    "prefectureCode": "32",
    "prefectureNumber": 32,
    "prefecture": "島根県",
    "city": "鹿足郡吉賀町",
    "town": "沢田"
  },
  "6995517": {
    "zipcode": "6995517",
    "prefectureCode": "32",
    "prefectureNumber": 32,
    "prefecture": "島根県",
    "city": "鹿足郡吉賀町",
    "town": "注連川"
  },
  "6995521": {
    "zipcode": "6995521",
    "prefectureCode": "32",
    "prefectureNumber": 32,
    "prefecture": "島根県",
    "city": "鹿足郡吉賀町",
    "town": "真田"
  },
  "6995522": {
    "zipcode": "6995522",
    "prefectureCode": "32",
    "prefectureNumber": 32,
    "prefecture": "島根県",
    "city": "鹿足郡吉賀町",
    "town": "七日市"
  },
  "6995523": {
    "zipcode": "6995523",
    "prefectureCode": "32",
    "prefectureNumber": 32,
    "prefecture": "島根県",
    "city": "鹿足郡吉賀町",
    "town": "朝倉"
  },
  "6995524": {
    "zipcode": "6995524",
    "prefectureCode": "32",
    "prefectureNumber": 32,
    "prefecture": "島根県",
    "city": "鹿足郡吉賀町",
    "town": "蓼野"
  },
  "6995525": {
    "zipcode": "6995525",
    "prefectureCode": "32",
    "prefectureNumber": 32,
    "prefecture": "島根県",
    "city": "鹿足郡吉賀町",
    "town": "抜月"
  },
  "6995600": {
    "zipcode": "6995600",
    "prefectureCode": "32",
    "prefectureNumber": 32,
    "prefecture": "島根県",
    "city": "鹿足郡津和野町",
    "town": "以下に掲載がない場合"
  },
  "6995601": {
    "zipcode": "6995601",
    "prefectureCode": "32",
    "prefectureNumber": 32,
    "prefecture": "島根県",
    "city": "鹿足郡津和野町",
    "town": "商人（その他）"
  },
  "6995602": {
    "zipcode": "6995602",
    "prefectureCode": "32",
    "prefectureNumber": 32,
    "prefecture": "島根県",
    "city": "鹿足郡津和野町",
    "town": "直地"
  },
  "6995603": {
    "zipcode": "6995603",
    "prefectureCode": "32",
    "prefectureNumber": 32,
    "prefecture": "島根県",
    "city": "鹿足郡津和野町",
    "town": "笹山"
  },
  "6995604": {
    "zipcode": "6995604",
    "prefectureCode": "32",
    "prefectureNumber": 32,
    "prefecture": "島根県",
    "city": "鹿足郡津和野町",
    "town": "森村"
  },
  "6995605": {
    "zipcode": "6995605",
    "prefectureCode": "32",
    "prefectureNumber": 32,
    "prefecture": "島根県",
    "city": "鹿足郡津和野町",
    "town": "後田"
  },
  "6995606": {
    "zipcode": "6995606",
    "prefectureCode": "32",
    "prefectureNumber": 32,
    "prefecture": "島根県",
    "city": "鹿足郡津和野町",
    "town": "寺田"
  },
  "6995607": {
    "zipcode": "6995607",
    "prefectureCode": "32",
    "prefectureNumber": 32,
    "prefecture": "島根県",
    "city": "鹿足郡津和野町",
    "town": "耕田"
  },
  "6995611": {
    "zipcode": "6995611",
    "prefectureCode": "32",
    "prefectureNumber": 32,
    "prefecture": "島根県",
    "city": "鹿足郡津和野町",
    "town": "町田"
  },
  "6995612": {
    "zipcode": "6995612",
    "prefectureCode": "32",
    "prefectureNumber": 32,
    "prefecture": "島根県",
    "city": "鹿足郡津和野町",
    "town": "中座"
  },
  "6995613": {
    "zipcode": "6995613",
    "prefectureCode": "32",
    "prefectureNumber": 32,
    "prefecture": "島根県",
    "city": "鹿足郡津和野町",
    "town": "鷲原"
  },
  "6995614": {
    "zipcode": "6995614",
    "prefectureCode": "32",
    "prefectureNumber": 32,
    "prefecture": "島根県",
    "city": "鹿足郡津和野町",
    "town": "高峯"
  },
  "6995615": {
    "zipcode": "6995615",
    "prefectureCode": "32",
    "prefectureNumber": 32,
    "prefecture": "島根県",
    "city": "鹿足郡津和野町",
    "town": "名賀"
  },
  "6995616": {
    "zipcode": "6995616",
    "prefectureCode": "32",
    "prefectureNumber": 32,
    "prefecture": "島根県",
    "city": "鹿足郡津和野町",
    "town": "部栄"
  },
  "6995617": {
    "zipcode": "6995617",
    "prefectureCode": "32",
    "prefectureNumber": 32,
    "prefecture": "島根県",
    "city": "鹿足郡津和野町",
    "town": "田二穂"
  },
  "6995621": {
    "zipcode": "6995621",
    "prefectureCode": "32",
    "prefectureNumber": 32,
    "prefecture": "島根県",
    "city": "鹿足郡津和野町",
    "town": "内美"
  },
  "6995622": {
    "zipcode": "6995622",
    "prefectureCode": "32",
    "prefectureNumber": 32,
    "prefecture": "島根県",
    "city": "鹿足郡津和野町",
    "town": "邑輝"
  },
  "6995631": {
    "zipcode": "6995631",
    "prefectureCode": "32",
    "prefectureNumber": 32,
    "prefecture": "島根県",
    "city": "鹿足郡津和野町",
    "town": "中山"
  },
  "6995632": {
    "zipcode": "6995632",
    "prefectureCode": "32",
    "prefectureNumber": 32,
    "prefecture": "島根県",
    "city": "鹿足郡津和野町",
    "town": "豊稼"
  },
  "6995633": {
    "zipcode": "6995633",
    "prefectureCode": "32",
    "prefectureNumber": 32,
    "prefecture": "島根県",
    "city": "鹿足郡津和野町",
    "town": "長福"
  },
  "6995634": {
    "zipcode": "6995634",
    "prefectureCode": "32",
    "prefectureNumber": 32,
    "prefecture": "島根県",
    "city": "鹿足郡津和野町",
    "town": "中川"
  },
  "6995635": {
    "zipcode": "6995635",
    "prefectureCode": "32",
    "prefectureNumber": 32,
    "prefecture": "島根県",
    "city": "鹿足郡津和野町",
    "town": "山下"
  },
  "6995636": {
    "zipcode": "6995636",
    "prefectureCode": "32",
    "prefectureNumber": 32,
    "prefecture": "島根県",
    "city": "鹿足郡津和野町",
    "town": "中曽野"
  },
  "6995637": {
    "zipcode": "6995637",
    "prefectureCode": "32",
    "prefectureNumber": 32,
    "prefecture": "島根県",
    "city": "鹿足郡津和野町",
    "town": "吹野"
  }
}
