{
  "7000000": {
    "zipcode": "7000000",
    "prefectureCode": "33",
    "prefectureNumber": 33,
    "prefecture": "岡山県",
    "city": "岡山市南区",
    "town": "以下に掲載がない場合"
  },
  "7000001": {
    "zipcode": "7000001",
    "prefectureCode": "33",
    "prefectureNumber": 33,
    "prefecture": "岡山県",
    "city": "岡山市北区",
    "town": "宿"
  },
  "7000002": {
    "zipcode": "7000002",
    "prefectureCode": "33",
    "prefectureNumber": 33,
    "prefecture": "岡山県",
    "city": "岡山市北区",
    "town": "宿本町"
  },
  "7000003": {
    "zipcode": "7000003",
    "prefectureCode": "33",
    "prefectureNumber": 33,
    "prefecture": "岡山県",
    "city": "岡山市北区",
    "town": "半田町"
  },
  "7000004": {
    "zipcode": "7000004",
    "prefectureCode": "33",
    "prefectureNumber": 33,
    "prefecture": "岡山県",
    "city": "岡山市北区",
    "town": "法界院"
  },
  "7000005": {
    "zipcode": "7000005",
    "prefectureCode": "33",
    "prefectureNumber": 33,
    "prefecture": "岡山県",
    "city": "岡山市北区",
    "town": "理大町"
  },
  "7000011": {
    "zipcode": "7000011",
    "prefectureCode": "33",
    "prefectureNumber": 33,
    "prefecture": "岡山県",
    "city": "岡山市北区",
    "town": "学南町"
  },
  "7000012": {
    "zipcode": "7000012",
    "prefectureCode": "33",
    "prefectureNumber": 33,
    "prefecture": "岡山県",
    "city": "岡山市北区",
    "town": "いずみ町"
  },
  "7000013": {
    "zipcode": "7000013",
    "prefectureCode": "33",
    "prefectureNumber": 33,
    "prefecture": "岡山県",
    "city": "岡山市北区",
    "town": "伊福町"
  },
  "7000014": {
    "zipcode": "7000014",
    "prefectureCode": "33",
    "prefectureNumber": 33,
    "prefecture": "岡山県",
    "city": "岡山市北区",
    "town": "津倉町"
  },
  "7000015": {
    "zipcode": "7000015",
    "prefectureCode": "33",
    "prefectureNumber": 33,
    "prefecture": "岡山県",
    "city": "岡山市北区",
    "town": "京山"
  },
  "7000016": {
    "zipcode": "7000016",
    "prefectureCode": "33",
    "prefectureNumber": 33,
    "prefecture": "岡山県",
    "city": "岡山市北区",
    "town": "伊島町"
  },
  "7000017": {
    "zipcode": "7000017",
    "prefectureCode": "33",
    "prefectureNumber": 33,
    "prefecture": "岡山県",
    "city": "岡山市北区",
    "town": "伊島北町"
  },
  "7000021": {
    "zipcode": "7000021",
    "prefectureCode": "33",
    "prefectureNumber": 33,
    "prefecture": "岡山県",
    "city": "岡山市北区",
    "town": "国体町"
  },
  "7000022": {
    "zipcode": "7000022",
    "prefectureCode": "33",
    "prefectureNumber": 33,
    "prefecture": "岡山県",
    "city": "岡山市北区",
    "town": "岩田町"
  },
  "7000023": {
    "zipcode": "7000023",
    "prefectureCode": "33",
    "prefectureNumber": 33,
    "prefecture": "岡山県",
    "city": "岡山市北区",
    "town": "駅前町"
  },
  "7000024": {
    "zipcode": "7000024",
    "prefectureCode": "33",
    "prefectureNumber": 33,
    "prefecture": "岡山県",
    "city": "岡山市北区",
    "town": "駅元町"
  },
  "7000025": {
    "zipcode": "7000025",
    "prefectureCode": "33",
    "prefectureNumber": 33,
    "prefecture": "岡山県",
    "city": "岡山市北区",
    "town": "寿町"
  },
  "7000026": {
    "zipcode": "7000026",
    "prefectureCode": "33",
    "prefectureNumber": 33,
    "prefecture": "岡山県",
    "city": "岡山市北区",
    "town": "奉還町"
  },
  "7000027": {
    "zipcode": "7000027",
    "prefectureCode": "33",
    "prefectureNumber": 33,
    "prefecture": "岡山県",
    "city": "岡山市北区",
    "town": "清心町"
  },
  "7000028": {
    "zipcode": "7000028",
    "prefectureCode": "33",
    "prefectureNumber": 33,
    "prefecture": "岡山県",
    "city": "岡山市北区",
    "town": "絵図町"
  },
  "7000031": {
    "zipcode": "7000031",
    "prefectureCode": "33",
    "prefectureNumber": 33,
    "prefecture": "岡山県",
    "city": "岡山市北区",
    "town": "富町"
  },
  "7000032": {
    "zipcode": "7000032",
    "prefectureCode": "33",
    "prefectureNumber": 33,
    "prefecture": "岡山県",
    "city": "岡山市北区",
    "town": "昭和町"
  },
  "7000033": {
    "zipcode": "7000033",
    "prefectureCode": "33",
    "prefectureNumber": 33,
    "prefecture": "岡山県",
    "city": "岡山市北区",
    "town": "島田本町"
  },
  "7000034": {
    "zipcode": "7000034",
    "prefectureCode": "33",
    "prefectureNumber": 33,
    "prefecture": "岡山県",
    "city": "岡山市北区",
    "town": "高柳東町"
  },
  "7000035": {
    "zipcode": "7000035",
    "prefectureCode": "33",
    "prefectureNumber": 33,
    "prefecture": "岡山県",
    "city": "岡山市北区",
    "town": "高柳西町"
  },
  "7000041": {
    "zipcode": "7000041",
    "prefectureCode": "33",
    "prefectureNumber": 33,
    "prefecture": "岡山県",
    "city": "岡山市北区",
    "town": "岩井宮裏"
  },
  "7000042": {
    "zipcode": "7000042",
    "prefectureCode": "33",
    "prefectureNumber": 33,
    "prefecture": "岡山県",
    "city": "岡山市北区",
    "town": "三門東町"
  },
  "7000043": {
    "zipcode": "7000043",
    "prefectureCode": "33",
    "prefectureNumber": 33,
    "prefecture": "岡山県",
    "city": "岡山市北区",
    "town": "三門中町"
  },
  "7000044": {
    "zipcode": "7000044",
    "prefectureCode": "33",
    "prefectureNumber": 33,
    "prefecture": "岡山県",
    "city": "岡山市北区",
    "town": "三門西町"
  },
  "7000045": {
    "zipcode": "7000045",
    "prefectureCode": "33",
    "prefectureNumber": 33,
    "prefecture": "岡山県",
    "city": "岡山市北区",
    "town": "葵町"
  },
  "7000046": {
    "zipcode": "7000046",
    "prefectureCode": "33",
    "prefectureNumber": 33,
    "prefecture": "岡山県",
    "city": "岡山市北区",
    "town": "岩井"
  },
  "7000047": {
    "zipcode": "7000047",
    "prefectureCode": "33",
    "prefectureNumber": 33,
    "prefecture": "岡山県",
    "city": "岡山市北区",
    "town": "関西町"
  },
  "7000051": {
    "zipcode": "7000051",
    "prefectureCode": "33",
    "prefectureNumber": 33,
    "prefecture": "岡山県",
    "city": "岡山市北区",
    "town": "下伊福上町"
  },
  "7000052": {
    "zipcode": "7000052",
    "prefectureCode": "33",
    "prefectureNumber": 33,
    "prefecture": "岡山県",
    "city": "岡山市北区",
    "town": "下伊福"
  },
  "7000053": {
    "zipcode": "7000053",
    "prefectureCode": "33",
    "prefectureNumber": 33,
    "prefecture": "岡山県",
    "city": "岡山市北区",
    "town": "下伊福本町"
  },
  "7000054": {
    "zipcode": "7000054",
    "prefectureCode": "33",
    "prefectureNumber": 33,
    "prefecture": "岡山県",
    "city": "岡山市北区",
    "town": "下伊福西町"
  },
  "7000055": {
    "zipcode": "7000055",
    "prefectureCode": "33",
    "prefectureNumber": 33,
    "prefecture": "岡山県",
    "city": "岡山市北区",
    "town": "西崎"
  },
  "7000056": {
    "zipcode": "7000056",
    "prefectureCode": "33",
    "prefectureNumber": 33,
    "prefecture": "岡山県",
    "city": "岡山市北区",
    "town": "西崎本町"
  },
  "7000061": {
    "zipcode": "7000061",
    "prefectureCode": "33",
    "prefectureNumber": 33,
    "prefecture": "岡山県",
    "city": "岡山市北区",
    "town": "大安寺西町"
  },
  "7000062": {
    "zipcode": "7000062",
    "prefectureCode": "33",
    "prefectureNumber": 33,
    "prefecture": "岡山県",
    "city": "岡山市北区",
    "town": "大安寺中町"
  },
  "7000063": {
    "zipcode": "7000063",
    "prefectureCode": "33",
    "prefectureNumber": 33,
    "prefecture": "岡山県",
    "city": "岡山市北区",
    "town": "大安寺東町"
  },
  "7000064": {
    "zipcode": "7000064",
    "prefectureCode": "33",
    "prefectureNumber": 33,
    "prefecture": "岡山県",
    "city": "岡山市北区",
    "town": "大安寺南町"
  },
  "7000065": {
    "zipcode": "7000065",
    "prefectureCode": "33",
    "prefectureNumber": 33,
    "prefecture": "岡山県",
    "city": "岡山市北区",
    "town": "野殿東町"
  },
  "7000066": {
    "zipcode": "7000066",
    "prefectureCode": "33",
    "prefectureNumber": 33,
    "prefecture": "岡山県",
    "city": "岡山市北区",
    "town": "野殿西町"
  },
  "7000067": {
    "zipcode": "7000067",
    "prefectureCode": "33",
    "prefectureNumber": 33,
    "prefecture": "岡山県",
    "city": "岡山市北区",
    "town": "西野山町"
  },
  "7000068": {
    "zipcode": "7000068",
    "prefectureCode": "33",
    "prefectureNumber": 33,
    "prefecture": "岡山県",
    "city": "岡山市北区",
    "town": "東野山町"
  },
  "7000071": {
    "zipcode": "7000071",
    "prefectureCode": "33",
    "prefectureNumber": 33,
    "prefecture": "岡山県",
    "city": "岡山市北区",
    "town": "谷万成"
  },
  "7000072": {
    "zipcode": "7000072",
    "prefectureCode": "33",
    "prefectureNumber": 33,
    "prefecture": "岡山県",
    "city": "岡山市北区",
    "town": "万成東町"
  },
  "7000073": {
    "zipcode": "7000073",
    "prefectureCode": "33",
    "prefectureNumber": 33,
    "prefecture": "岡山県",
    "city": "岡山市北区",
    "town": "万成西町"
  },
  "7000074": {
    "zipcode": "7000074",
    "prefectureCode": "33",
    "prefectureNumber": 33,
    "prefecture": "岡山県",
    "city": "岡山市北区",
    "town": "矢坂東町"
  },
  "7000075": {
    "zipcode": "7000075",
    "prefectureCode": "33",
    "prefectureNumber": 33,
    "prefecture": "岡山県",
    "city": "岡山市北区",
    "town": "矢坂本町"
  },
  "7000076": {
    "zipcode": "7000076",
    "prefectureCode": "33",
    "prefectureNumber": 33,
    "prefecture": "岡山県",
    "city": "岡山市北区",
    "town": "矢坂西町"
  },
  "7000080": {
    "zipcode": "7000080",
    "prefectureCode": "33",
    "prefectureNumber": 33,
    "prefecture": "岡山県",
    "city": "岡山市北区",
    "town": "津島福居"
  },
  "7000081": {
    "zipcode": "7000081",
    "prefectureCode": "33",
    "prefectureNumber": 33,
    "prefecture": "岡山県",
    "city": "岡山市北区",
    "town": "津島東"
  },
  "7000082": {
    "zipcode": "7000082",
    "prefectureCode": "33",
    "prefectureNumber": 33,
    "prefecture": "岡山県",
    "city": "岡山市北区",
    "town": "津島中"
  },
  "7000083": {
    "zipcode": "7000083",
    "prefectureCode": "33",
    "prefectureNumber": 33,
    "prefecture": "岡山県",
    "city": "岡山市北区",
    "town": "津島新野"
  },
  "7000084": {
    "zipcode": "7000084",
    "prefectureCode": "33",
    "prefectureNumber": 33,
    "prefecture": "岡山県",
    "city": "岡山市北区",
    "town": "津島桑の木町"
  },
  "7000085": {
    "zipcode": "7000085",
    "prefectureCode": "33",
    "prefectureNumber": 33,
    "prefecture": "岡山県",
    "city": "岡山市北区",
    "town": "津島南"
  },
  "7000086": {
    "zipcode": "7000086",
    "prefectureCode": "33",
    "prefectureNumber": 33,
    "prefecture": "岡山県",
    "city": "岡山市北区",
    "town": "津島西坂"
  },
  "7000087": {
    "zipcode": "7000087",
    "prefectureCode": "33",
    "prefectureNumber": 33,
    "prefecture": "岡山県",
    "city": "岡山市北区",
    "town": "津島京町"
  },
  "7000088": {
    "zipcode": "7000088",
    "prefectureCode": "33",
    "prefectureNumber": 33,
    "prefecture": "岡山県",
    "city": "岡山市北区",
    "town": "津島笹が瀬"
  },
  "7000089": {
    "zipcode": "7000089",
    "prefectureCode": "33",
    "prefectureNumber": 33,
    "prefecture": "岡山県",
    "city": "岡山市北区",
    "town": "津島本町"
  },
  "7000801": {
    "zipcode": "7000801",
    "prefectureCode": "33",
    "prefectureNumber": 33,
    "prefecture": "岡山県",
    "city": "岡山市北区",
    "town": "三野本町"
  },
  "7000802": {
    "zipcode": "7000802",
    "prefectureCode": "33",
    "prefectureNumber": 33,
    "prefecture": "岡山県",
    "city": "岡山市北区",
    "town": "三野"
  },
  "7000803": {
    "zipcode": "7000803",
    "prefectureCode": "33",
    "prefectureNumber": 33,
    "prefecture": "岡山県",
    "city": "岡山市北区",
    "town": "北方"
  },
  "7000804": {
    "zipcode": "7000804",
    "prefectureCode": "33",
    "prefectureNumber": 33,
    "prefecture": "岡山県",
    "city": "岡山市北区",
    "town": "中井町"
  },
  "7000805": {
    "zipcode": "7000805",
    "prefectureCode": "33",
    "prefectureNumber": 33,
    "prefecture": "岡山県",
    "city": "岡山市北区",
    "town": "兵団"
  },
  "7000806": {
    "zipcode": "7000806",
    "prefectureCode": "33",
    "prefectureNumber": 33,
    "prefecture": "岡山県",
    "city": "岡山市北区",
    "town": "広瀬町"
  },
  "7000807": {
    "zipcode": "7000807",
    "prefectureCode": "33",
    "prefectureNumber": 33,
    "prefecture": "岡山県",
    "city": "岡山市北区",
    "town": "南方"
  },
  "7000808": {
    "zipcode": "7000808",
    "prefectureCode": "33",
    "prefectureNumber": 33,
    "prefecture": "岡山県",
    "city": "岡山市北区",
    "town": "大和町"
  },
  "7000811": {
    "zipcode": "7000811",
    "prefectureCode": "33",
    "prefectureNumber": 33,
    "prefecture": "岡山県",
    "city": "岡山市北区",
    "town": "番町"
  },
  "7000812": {
    "zipcode": "7000812",
    "prefectureCode": "33",
    "prefectureNumber": 33,
    "prefecture": "岡山県",
    "city": "岡山市北区",
    "town": "出石町"
  },
  "7000813": {
    "zipcode": "7000813",
    "prefectureCode": "33",
    "prefectureNumber": 33,
    "prefecture": "岡山県",
    "city": "岡山市北区",
    "town": "石関町"
  },
  "7000814": {
    "zipcode": "7000814",
    "prefectureCode": "33",
    "prefectureNumber": 33,
    "prefecture": "岡山県",
    "city": "岡山市北区",
    "town": "天神町"
  },
  "7000815": {
    "zipcode": "7000815",
    "prefectureCode": "33",
    "prefectureNumber": 33,
    "prefecture": "岡山県",
    "city": "岡山市北区",
    "town": "野田屋町"
  },
  "7000816": {
    "zipcode": "7000816",
    "prefectureCode": "33",
    "prefectureNumber": 33,
    "prefecture": "岡山県",
    "city": "岡山市北区",
    "town": "富田町"
  },
  "7000817": {
    "zipcode": "7000817",
    "prefectureCode": "33",
    "prefectureNumber": 33,
    "prefecture": "岡山県",
    "city": "岡山市北区",
    "town": "弓之町"
  },
  "7000818": {
    "zipcode": "7000818",
    "prefectureCode": "33",
    "prefectureNumber": 33,
    "prefecture": "岡山県",
    "city": "岡山市北区",
    "town": "蕃山町"
  },
  "7000821": {
    "zipcode": "7000821",
    "prefectureCode": "33",
    "prefectureNumber": 33,
    "prefecture": "岡山県",
    "city": "岡山市北区",
    "town": "中山下"
  },
  "7000822": {
    "zipcode": "7000822",
    "prefectureCode": "33",
    "prefectureNumber": 33,
    "prefecture": "岡山県",
    "city": "岡山市北区",
    "town": "表町"
  },
  "7000823": {
    "zipcode": "7000823",
    "prefectureCode": "33",
    "prefectureNumber": 33,
    "prefecture": "岡山県",
    "city": "岡山市北区",
    "town": "丸の内"
  },
  "7000824": {
    "zipcode": "7000824",
    "prefectureCode": "33",
    "prefectureNumber": 33,
    "prefecture": "岡山県",
    "city": "岡山市北区",
    "town": "内山下"
  },
  "7000825": {
    "zipcode": "7000825",
    "prefectureCode": "33",
    "prefectureNumber": 33,
    "prefecture": "岡山県",
    "city": "岡山市北区",
    "town": "田町"
  },
  "7000826": {
    "zipcode": "7000826",
    "prefectureCode": "33",
    "prefectureNumber": 33,
    "prefecture": "岡山県",
    "city": "岡山市北区",
    "town": "磨屋町"
  },
  "7000827": {
    "zipcode": "7000827",
    "prefectureCode": "33",
    "prefectureNumber": 33,
    "prefecture": "岡山県",
    "city": "岡山市北区",
    "town": "平和町"
  },
  "7000831": {
    "zipcode": "7000831",
    "prefectureCode": "33",
    "prefectureNumber": 33,
    "prefecture": "岡山県",
    "city": "岡山市北区",
    "town": "京橋町"
  },
  "7000832": {
    "zipcode": "7000832",
    "prefectureCode": "33",
    "prefectureNumber": 33,
    "prefecture": "岡山県",
    "city": "岡山市北区",
    "town": "京橋南町"
  },
  "7000833": {
    "zipcode": "7000833",
    "prefectureCode": "33",
    "prefectureNumber": 33,
    "prefecture": "岡山県",
    "city": "岡山市北区",
    "town": "天瀬"
  },
  "7000834": {
    "zipcode": "7000834",
    "prefectureCode": "33",
    "prefectureNumber": 33,
    "prefecture": "岡山県",
    "city": "岡山市北区",
    "town": "天瀬南町"
  },
  "7000835": {
    "zipcode": "7000835",
    "prefectureCode": "33",
    "prefectureNumber": 33,
    "prefecture": "岡山県",
    "city": "岡山市北区",
    "town": "東中央町"
  },
  "7000836": {
    "zipcode": "7000836",
    "prefectureCode": "33",
    "prefectureNumber": 33,
    "prefecture": "岡山県",
    "city": "岡山市北区",
    "town": "中央町"
  },
  "7000837": {
    "zipcode": "7000837",
    "prefectureCode": "33",
    "prefectureNumber": 33,
    "prefecture": "岡山県",
    "city": "岡山市北区",
    "town": "南中央町"
  },
  "7000838": {
    "zipcode": "7000838",
    "prefectureCode": "33",
    "prefectureNumber": 33,
    "prefecture": "岡山県",
    "city": "岡山市北区",
    "town": "京町"
  },
  "7000841": {
    "zipcode": "7000841",
    "prefectureCode": "33",
    "prefectureNumber": 33,
    "prefecture": "岡山県",
    "city": "岡山市北区",
    "town": "舟橋町"
  },
  "7000842": {
    "zipcode": "7000842",
    "prefectureCode": "33",
    "prefectureNumber": 33,
    "prefecture": "岡山県",
    "city": "岡山市北区",
    "town": "船頭町"
  },
  "7000843": {
    "zipcode": "7000843",
    "prefectureCode": "33",
    "prefectureNumber": 33,
    "prefecture": "岡山県",
    "city": "岡山市北区",
    "town": "二日市町"
  },
  "7000844": {
    "zipcode": "7000844",
    "prefectureCode": "33",
    "prefectureNumber": 33,
    "prefecture": "岡山県",
    "city": "岡山市北区",
    "town": "御舟入町"
  },
  "7000845": {
    "zipcode": "7000845",
    "prefectureCode": "33",
    "prefectureNumber": 33,
    "prefecture": "岡山県",
    "city": "岡山市南区",
    "town": "浜野"
  },
  "7000846": {
    "zipcode": "7000846",
    "prefectureCode": "33",
    "prefectureNumber": 33,
    "prefecture": "岡山県",
    "city": "岡山市北区",
    "town": "下内田町"
  },
  "7000847": {
    "zipcode": "7000847",
    "prefectureCode": "33",
    "prefectureNumber": 33,
    "prefecture": "岡山県",
    "city": "岡山市北区",
    "town": "山科町"
  },
  "7000851": {
    "zipcode": "7000851",
    "prefectureCode": "33",
    "prefectureNumber": 33,
    "prefecture": "岡山県",
    "city": "岡山市北区",
    "town": "七日市西町"
  },
  "7000852": {
    "zipcode": "7000852",
    "prefectureCode": "33",
    "prefectureNumber": 33,
    "prefecture": "岡山県",
    "city": "岡山市北区",
    "town": "七日市東町"
  },
  "7000853": {
    "zipcode": "7000853",
    "prefectureCode": "33",
    "prefectureNumber": 33,
    "prefecture": "岡山県",
    "city": "岡山市南区",
    "town": "豊浜町"
  },
  "7000854": {
    "zipcode": "7000854",
    "prefectureCode": "33",
    "prefectureNumber": 33,
    "prefecture": "岡山県",
    "city": "岡山市北区",
    "town": "十日市東町"
  },
  "7000855": {
    "zipcode": "7000855",
    "prefectureCode": "33",
    "prefectureNumber": 33,
    "prefecture": "岡山県",
    "city": "岡山市北区",
    "town": "十日市中町"
  },
  "7000856": {
    "zipcode": "7000856",
    "prefectureCode": "33",
    "prefectureNumber": 33,
    "prefecture": "岡山県",
    "city": "岡山市北区",
    "town": "十日市西町"
  },
  "7000861": {
    "zipcode": "7000861",
    "prefectureCode": "33",
    "prefectureNumber": 33,
    "prefecture": "岡山県",
    "city": "岡山市北区",
    "town": "清輝橋"
  },
  "7000862": {
    "zipcode": "7000862",
    "prefectureCode": "33",
    "prefectureNumber": 33,
    "prefecture": "岡山県",
    "city": "岡山市北区",
    "town": "清輝本町"
  },
  "7000863": {
    "zipcode": "7000863",
    "prefectureCode": "33",
    "prefectureNumber": 33,
    "prefecture": "岡山県",
    "city": "岡山市北区",
    "town": "新道"
  },
  "7000864": {
    "zipcode": "7000864",
    "prefectureCode": "33",
    "prefectureNumber": 33,
    "prefecture": "岡山県",
    "city": "岡山市北区",
    "town": "旭町"
  },
  "7000865": {
    "zipcode": "7000865",
    "prefectureCode": "33",
    "prefectureNumber": 33,
    "prefecture": "岡山県",
    "city": "岡山市北区",
    "town": "旭本町"
  },
  "7000866": {
    "zipcode": "7000866",
    "prefectureCode": "33",
    "prefectureNumber": 33,
    "prefecture": "岡山県",
    "city": "岡山市北区",
    "town": "岡南町"
  },
  "7000867": {
    "zipcode": "7000867",
    "prefectureCode": "33",
    "prefectureNumber": 33,
    "prefecture": "岡山県",
    "city": "岡山市北区",
    "town": "岡町"
  },
  "7000901": {
    "zipcode": "7000901",
    "prefectureCode": "33",
    "prefectureNumber": 33,
    "prefecture": "岡山県",
    "city": "岡山市北区",
    "town": "本町"
  },
  "7000902": {
    "zipcode": "7000902",
    "prefectureCode": "33",
    "prefectureNumber": 33,
    "prefecture": "岡山県",
    "city": "岡山市北区",
    "town": "錦町"
  },
  "7000903": {
    "zipcode": "7000903",
    "prefectureCode": "33",
    "prefectureNumber": 33,
    "prefecture": "岡山県",
    "city": "岡山市北区",
    "town": "幸町"
  },
  "7000904": {
    "zipcode": "7000904",
    "prefectureCode": "33",
    "prefectureNumber": 33,
    "prefecture": "岡山県",
    "city": "岡山市北区",
    "town": "柳町"
  },
  "7000905": {
    "zipcode": "7000905",
    "prefectureCode": "33",
    "prefectureNumber": 33,
    "prefecture": "岡山県",
    "city": "岡山市北区",
    "town": "春日町"
  },
  "7000906": {
    "zipcode": "7000906",
    "prefectureCode": "33",
    "prefectureNumber": 33,
    "prefecture": "岡山県",
    "city": "岡山市北区",
    "town": "大学町"
  },
  "7000907": {
    "zipcode": "7000907",
    "prefectureCode": "33",
    "prefectureNumber": 33,
    "prefecture": "岡山県",
    "city": "岡山市北区",
    "town": "下石井"
  },
  "7000911": {
    "zipcode": "7000911",
    "prefectureCode": "33",
    "prefectureNumber": 33,
    "prefecture": "岡山県",
    "city": "岡山市北区",
    "town": "大供本町"
  },
  "7000912": {
    "zipcode": "7000912",
    "prefectureCode": "33",
    "prefectureNumber": 33,
    "prefecture": "岡山県",
    "city": "岡山市北区",
    "town": "大供表町"
  },
  "7000913": {
    "zipcode": "7000913",
    "prefectureCode": "33",
    "prefectureNumber": 33,
    "prefecture": "岡山県",
    "city": "岡山市北区",
    "town": "大供"
  },
  "7000914": {
    "zipcode": "7000914",
    "prefectureCode": "33",
    "prefectureNumber": 33,
    "prefecture": "岡山県",
    "city": "岡山市北区",
    "town": "鹿田町"
  },
  "7000915": {
    "zipcode": "7000915",
    "prefectureCode": "33",
    "prefectureNumber": 33,
    "prefecture": "岡山県",
    "city": "岡山市北区",
    "town": "鹿田本町"
  },
  "7000916": {
    "zipcode": "7000916",
    "prefectureCode": "33",
    "prefectureNumber": 33,
    "prefecture": "岡山県",
    "city": "岡山市北区",
    "town": "西之町"
  },
  "7000921": {
    "zipcode": "7000921",
    "prefectureCode": "33",
    "prefectureNumber": 33,
    "prefecture": "岡山県",
    "city": "岡山市北区",
    "town": "東古松"
  },
  "7000922": {
    "zipcode": "7000922",
    "prefectureCode": "33",
    "prefectureNumber": 33,
    "prefecture": "岡山県",
    "city": "岡山市北区",
    "town": "東古松南町"
  },
  "7000923": {
    "zipcode": "7000923",
    "prefectureCode": "33",
    "prefectureNumber": 33,
    "prefecture": "岡山県",
    "city": "岡山市北区",
    "town": "大元駅前"
  },
  "7000924": {
    "zipcode": "7000924",
    "prefectureCode": "33",
    "prefectureNumber": 33,
    "prefecture": "岡山県",
    "city": "岡山市北区",
    "town": "大元"
  },
  "7000925": {
    "zipcode": "7000925",
    "prefectureCode": "33",
    "prefectureNumber": 33,
    "prefecture": "岡山県",
    "city": "岡山市北区",
    "town": "大元上町"
  },
  "7000926": {
    "zipcode": "7000926",
    "prefectureCode": "33",
    "prefectureNumber": 33,
    "prefecture": "岡山県",
    "city": "岡山市北区",
    "town": "西古松西町"
  },
  "7000927": {
    "zipcode": "7000927",
    "prefectureCode": "33",
    "prefectureNumber": 33,
    "prefecture": "岡山県",
    "city": "岡山市北区",
    "town": "西古松"
  },
  "7000931": {
    "zipcode": "7000931",
    "prefectureCode": "33",
    "prefectureNumber": 33,
    "prefecture": "岡山県",
    "city": "岡山市北区",
    "town": "奥田西町"
  },
  "7000932": {
    "zipcode": "7000932",
    "prefectureCode": "33",
    "prefectureNumber": 33,
    "prefecture": "岡山県",
    "city": "岡山市北区",
    "town": "奥田本町"
  },
  "7000933": {
    "zipcode": "7000933",
    "prefectureCode": "33",
    "prefectureNumber": 33,
    "prefecture": "岡山県",
    "city": "岡山市北区",
    "town": "奥田"
  },
  "7000934": {
    "zipcode": "7000934",
    "prefectureCode": "33",
    "prefectureNumber": 33,
    "prefecture": "岡山県",
    "city": "岡山市北区",
    "town": "奥田南町"
  },
  "7000935": {
    "zipcode": "7000935",
    "prefectureCode": "33",
    "prefectureNumber": 33,
    "prefecture": "岡山県",
    "city": "岡山市北区",
    "town": "神田町"
  },
  "7000936": {
    "zipcode": "7000936",
    "prefectureCode": "33",
    "prefectureNumber": 33,
    "prefecture": "岡山県",
    "city": "岡山市北区",
    "town": "富田"
  },
  "7000941": {
    "zipcode": "7000941",
    "prefectureCode": "33",
    "prefectureNumber": 33,
    "prefecture": "岡山県",
    "city": "岡山市南区",
    "town": "青江"
  },
  "7000942": {
    "zipcode": "7000942",
    "prefectureCode": "33",
    "prefectureNumber": 33,
    "prefecture": "岡山県",
    "city": "岡山市南区",
    "town": "豊成"
  },
  "7000943": {
    "zipcode": "7000943",
    "prefectureCode": "33",
    "prefectureNumber": 33,
    "prefecture": "岡山県",
    "city": "岡山市南区",
    "town": "新福"
  },
  "7000944": {
    "zipcode": "7000944",
    "prefectureCode": "33",
    "prefectureNumber": 33,
    "prefecture": "岡山県",
    "city": "岡山市南区",
    "town": "泉田"
  },
  "7000945": {
    "zipcode": "7000945",
    "prefectureCode": "33",
    "prefectureNumber": 33,
    "prefecture": "岡山県",
    "city": "岡山市南区",
    "town": "新保"
  },
  "7000951": {
    "zipcode": "7000951",
    "prefectureCode": "33",
    "prefectureNumber": 33,
    "prefecture": "岡山県",
    "city": "岡山市北区",
    "town": "田中"
  },
  "7000952": {
    "zipcode": "7000952",
    "prefectureCode": "33",
    "prefectureNumber": 33,
    "prefecture": "岡山県",
    "city": "岡山市北区",
    "town": "平田"
  },
  "7000953": {
    "zipcode": "7000953",
    "prefectureCode": "33",
    "prefectureNumber": 33,
    "prefecture": "岡山県",
    "city": "岡山市南区",
    "town": "西市"
  },
  "7000954": {
    "zipcode": "7000954",
    "prefectureCode": "33",
    "prefectureNumber": 33,
    "prefecture": "岡山県",
    "city": "岡山市南区",
    "town": "米倉"
  },
  "7000955": {
    "zipcode": "7000955",
    "prefectureCode": "33",
    "prefectureNumber": 33,
    "prefecture": "岡山県",
    "city": "岡山市南区",
    "town": "万倍"
  },
  "7000956": {
    "zipcode": "7000956",
    "prefectureCode": "33",
    "prefectureNumber": 33,
    "prefecture": "岡山県",
    "city": "岡山市南区",
    "town": "当新田"
  },
  "7000961": {
    "zipcode": "7000961",
    "prefectureCode": "33",
    "prefectureNumber": 33,
    "prefecture": "岡山県",
    "city": "岡山市北区",
    "town": "北長瀬本町"
  },
  "7000962": {
    "zipcode": "7000962",
    "prefectureCode": "33",
    "prefectureNumber": 33,
    "prefecture": "岡山県",
    "city": "岡山市北区",
    "town": "北長瀬表町"
  },
  "7000963": {
    "zipcode": "7000963",
    "prefectureCode": "33",
    "prefectureNumber": 33,
    "prefecture": "岡山県",
    "city": "岡山市北区",
    "town": "北長瀬"
  },
  "7000964": {
    "zipcode": "7000964",
    "prefectureCode": "33",
    "prefectureNumber": 33,
    "prefecture": "岡山県",
    "city": "岡山市北区",
    "town": "中仙道"
  },
  "7000965": {
    "zipcode": "7000965",
    "prefectureCode": "33",
    "prefectureNumber": 33,
    "prefecture": "岡山県",
    "city": "岡山市北区",
    "town": "西長瀬"
  },
  "7000966": {
    "zipcode": "7000966",
    "prefectureCode": "33",
    "prefectureNumber": 33,
    "prefecture": "岡山県",
    "city": "岡山市北区",
    "town": "日吉町"
  },
  "7000971": {
    "zipcode": "7000971",
    "prefectureCode": "33",
    "prefectureNumber": 33,
    "prefecture": "岡山県",
    "city": "岡山市北区",
    "town": "野田"
  },
  "7000972": {
    "zipcode": "7000972",
    "prefectureCode": "33",
    "prefectureNumber": 33,
    "prefecture": "岡山県",
    "city": "岡山市北区",
    "town": "上中野"
  },
  "7000973": {
    "zipcode": "7000973",
    "prefectureCode": "33",
    "prefectureNumber": 33,
    "prefecture": "岡山県",
    "city": "岡山市南区",
    "town": "下中野"
  },
  "7000974": {
    "zipcode": "7000974",
    "prefectureCode": "33",
    "prefectureNumber": 33,
    "prefecture": "岡山県",
    "city": "岡山市北区",
    "town": "今村"
  },
  "7000975": {
    "zipcode": "7000975",
    "prefectureCode": "33",
    "prefectureNumber": 33,
    "prefecture": "岡山県",
    "city": "岡山市北区",
    "town": "今"
  },
  "7000976": {
    "zipcode": "7000976",
    "prefectureCode": "33",
    "prefectureNumber": 33,
    "prefecture": "岡山県",
    "city": "岡山市北区",
    "town": "辰巳"
  },
  "7000977": {
    "zipcode": "7000977",
    "prefectureCode": "33",
    "prefectureNumber": 33,
    "prefecture": "岡山県",
    "city": "岡山市北区",
    "town": "問屋町"
  },
  "7000981": {
    "zipcode": "7000981",
    "prefectureCode": "33",
    "prefectureNumber": 33,
    "prefecture": "岡山県",
    "city": "岡山市北区",
    "town": "西島田町"
  },
  "7000982": {
    "zipcode": "7000982",
    "prefectureCode": "33",
    "prefectureNumber": 33,
    "prefecture": "岡山県",
    "city": "岡山市北区",
    "town": "中島田町"
  },
  "7000983": {
    "zipcode": "7000983",
    "prefectureCode": "33",
    "prefectureNumber": 33,
    "prefecture": "岡山県",
    "city": "岡山市北区",
    "town": "東島田町"
  },
  "7000984": {
    "zipcode": "7000984",
    "prefectureCode": "33",
    "prefectureNumber": 33,
    "prefecture": "岡山県",
    "city": "岡山市北区",
    "town": "桑田町"
  },
  "7000985": {
    "zipcode": "7000985",
    "prefectureCode": "33",
    "prefectureNumber": 33,
    "prefecture": "岡山県",
    "city": "岡山市北区",
    "town": "厚生町"
  },
  "7000986": {
    "zipcode": "7000986",
    "prefectureCode": "33",
    "prefectureNumber": 33,
    "prefecture": "岡山県",
    "city": "岡山市北区",
    "town": "新屋敷町"
  }
}
