{
  "7010101": {
    "zipcode": "7010101",
    "prefectureCode": "33",
    "prefectureNumber": 33,
    "prefecture": "岡山県",
    "city": "倉敷市",
    "town": "日畑"
  },
  "7010102": {
    "zipcode": "7010102",
    "prefectureCode": "33",
    "prefectureNumber": 33,
    "prefecture": "岡山県",
    "city": "倉敷市",
    "town": "庄新町"
  },
  "7010103": {
    "zipcode": "7010103",
    "prefectureCode": "33",
    "prefectureNumber": 33,
    "prefecture": "岡山県",
    "city": "倉敷市",
    "town": "西尾"
  },
  "7010104": {
    "zipcode": "7010104",
    "prefectureCode": "33",
    "prefectureNumber": 33,
    "prefecture": "岡山県",
    "city": "倉敷市",
    "town": "山地"
  },
  "7010105": {
    "zipcode": "7010105",
    "prefectureCode": "33",
    "prefectureNumber": 33,
    "prefecture": "岡山県",
    "city": "倉敷市",
    "town": "矢部"
  },
  "7010111": {
    "zipcode": "7010111",
    "prefectureCode": "33",
    "prefectureNumber": 33,
    "prefecture": "岡山県",
    "city": "倉敷市",
    "town": "上東"
  },
  "7010112": {
    "zipcode": "7010112",
    "prefectureCode": "33",
    "prefectureNumber": 33,
    "prefecture": "岡山県",
    "city": "倉敷市",
    "town": "下庄"
  },
  "7010113": {
    "zipcode": "7010113",
    "prefectureCode": "33",
    "prefectureNumber": 33,
    "prefecture": "岡山県",
    "city": "倉敷市",
    "town": "栗坂"
  },
  "7010114": {
    "zipcode": "7010114",
    "prefectureCode": "33",
    "prefectureNumber": 33,
    "prefecture": "岡山県",
    "city": "倉敷市",
    "town": "松島"
  },
  "7010115": {
    "zipcode": "7010115",
    "prefectureCode": "33",
    "prefectureNumber": 33,
    "prefecture": "岡山県",
    "city": "倉敷市",
    "town": "二子"
  },
  "7010131": {
    "zipcode": "7010131",
    "prefectureCode": "33",
    "prefectureNumber": 33,
    "prefecture": "岡山県",
    "city": "岡山市北区",
    "town": "花尻みどり町"
  },
  "7010132": {
    "zipcode": "7010132",
    "prefectureCode": "33",
    "prefectureNumber": 33,
    "prefecture": "岡山県",
    "city": "岡山市北区",
    "town": "花尻ききょう町"
  },
  "7010133": {
    "zipcode": "7010133",
    "prefectureCode": "33",
    "prefectureNumber": 33,
    "prefecture": "岡山県",
    "city": "岡山市北区",
    "town": "花尻あかね町"
  },
  "7010134": {
    "zipcode": "7010134",
    "prefectureCode": "33",
    "prefectureNumber": 33,
    "prefecture": "岡山県",
    "city": "岡山市北区",
    "town": "花尻"
  },
  "7010135": {
    "zipcode": "7010135",
    "prefectureCode": "33",
    "prefectureNumber": 33,
    "prefecture": "岡山県",
    "city": "岡山市北区",
    "town": "東花尻"
  },
  "7010136": {
    "zipcode": "7010136",
    "prefectureCode": "33",
    "prefectureNumber": 33,
    "prefecture": "岡山県",
    "city": "岡山市北区",
    "town": "西花尻"
  },
  "7010141": {
    "zipcode": "7010141",
    "prefectureCode": "33",
    "prefectureNumber": 33,
    "prefecture": "岡山県",
    "city": "岡山市北区",
    "town": "白石東新町"
  },
  "7010142": {
    "zipcode": "7010142",
    "prefectureCode": "33",
    "prefectureNumber": 33,
    "prefecture": "岡山県",
    "city": "岡山市北区",
    "town": "白石西新町"
  },
  "7010143": {
    "zipcode": "7010143",
    "prefectureCode": "33",
    "prefectureNumber": 33,
    "prefecture": "岡山県",
    "city": "岡山市北区",
    "town": "白石"
  },
  "7010144": {
    "zipcode": "7010144",
    "prefectureCode": "33",
    "prefectureNumber": 33,
    "prefecture": "岡山県",
    "city": "岡山市北区",
    "town": "久米"
  },
  "7010145": {
    "zipcode": "7010145",
    "prefectureCode": "33",
    "prefectureNumber": 33,
    "prefecture": "岡山県",
    "city": "岡山市北区",
    "town": "今保"
  },
  "7010151": {
    "zipcode": "7010151",
    "prefectureCode": "33",
    "prefectureNumber": 33,
    "prefecture": "岡山県",
    "city": "岡山市北区",
    "town": "平野"
  },
  "7010152": {
    "zipcode": "7010152",
    "prefectureCode": "33",
    "prefectureNumber": 33,
    "prefecture": "岡山県",
    "city": "岡山市北区",
    "town": "延友"
  },
  "7010153": {
    "zipcode": "7010153",
    "prefectureCode": "33",
    "prefectureNumber": 33,
    "prefecture": "岡山県",
    "city": "岡山市北区",
    "town": "庭瀬"
  },
  "7010161": {
    "zipcode": "7010161",
    "prefectureCode": "33",
    "prefectureNumber": 33,
    "prefecture": "岡山県",
    "city": "岡山市北区",
    "town": "川入"
  },
  "7010162": {
    "zipcode": "7010162",
    "prefectureCode": "33",
    "prefectureNumber": 33,
    "prefecture": "岡山県",
    "city": "岡山市北区",
    "town": "納所"
  },
  "7010163": {
    "zipcode": "7010163",
    "prefectureCode": "33",
    "prefectureNumber": 33,
    "prefecture": "岡山県",
    "city": "岡山市北区",
    "town": "中撫川"
  },
  "7010164": {
    "zipcode": "7010164",
    "prefectureCode": "33",
    "prefectureNumber": 33,
    "prefecture": "岡山県",
    "city": "岡山市北区",
    "town": "撫川"
  },
  "7010165": {
    "zipcode": "7010165",
    "prefectureCode": "33",
    "prefectureNumber": 33,
    "prefecture": "岡山県",
    "city": "岡山市北区",
    "town": "大内田"
  },
  "7010201": {
    "zipcode": "7010201",
    "prefectureCode": "33",
    "prefectureNumber": 33,
    "prefecture": "岡山県",
    "city": "岡山市南区",
    "town": "妹尾崎"
  },
  "7010202": {
    "zipcode": "7010202",
    "prefectureCode": "33",
    "prefectureNumber": 33,
    "prefecture": "岡山県",
    "city": "岡山市南区",
    "town": "山田"
  },
  "7010203": {
    "zipcode": "7010203",
    "prefectureCode": "33",
    "prefectureNumber": 33,
    "prefecture": "岡山県",
    "city": "岡山市南区",
    "town": "古新田"
  },
  "7010204": {
    "zipcode": "7010204",
    "prefectureCode": "33",
    "prefectureNumber": 33,
    "prefecture": "岡山県",
    "city": "岡山市南区",
    "town": "大福"
  },
  "7010205": {
    "zipcode": "7010205",
    "prefectureCode": "33",
    "prefectureNumber": 33,
    "prefecture": "岡山県",
    "city": "岡山市南区",
    "town": "妹尾"
  },
  "7010206": {
    "zipcode": "7010206",
    "prefectureCode": "33",
    "prefectureNumber": 33,
    "prefecture": "岡山県",
    "city": "岡山市南区",
    "town": "箕島"
  },
  "7010211": {
    "zipcode": "7010211",
    "prefectureCode": "33",
    "prefectureNumber": 33,
    "prefecture": "岡山県",
    "city": "岡山市南区",
    "town": "東畦"
  },
  "7010212": {
    "zipcode": "7010212",
    "prefectureCode": "33",
    "prefectureNumber": 33,
    "prefecture": "岡山県",
    "city": "岡山市南区",
    "town": "内尾"
  },
  "7010213": {
    "zipcode": "7010213",
    "prefectureCode": "33",
    "prefectureNumber": 33,
    "prefecture": "岡山県",
    "city": "岡山市南区",
    "town": "中畦"
  },
  "7010214": {
    "zipcode": "7010214",
    "prefectureCode": "33",
    "prefectureNumber": 33,
    "prefecture": "岡山県",
    "city": "岡山市南区",
    "town": "曽根"
  },
  "7010215": {
    "zipcode": "7010215",
    "prefectureCode": "33",
    "prefectureNumber": 33,
    "prefecture": "岡山県",
    "city": "岡山市南区",
    "town": "西畦"
  },
  "7010221": {
    "zipcode": "7010221",
    "prefectureCode": "33",
    "prefectureNumber": 33,
    "prefecture": "岡山県",
    "city": "岡山市南区",
    "town": "藤田"
  },
  "7010300": {
    "zipcode": "7010300",
    "prefectureCode": "33",
    "prefectureNumber": 33,
    "prefecture": "岡山県",
    "city": "都窪郡早島町",
    "town": "以下に掲載がない場合"
  },
  "7010301": {
    "zipcode": "7010301",
    "prefectureCode": "33",
    "prefectureNumber": 33,
    "prefecture": "岡山県",
    "city": "都窪郡早島町",
    "town": "矢尾"
  },
  "7010302": {
    "zipcode": "7010302",
    "prefectureCode": "33",
    "prefectureNumber": 33,
    "prefecture": "岡山県",
    "city": "都窪郡早島町",
    "town": "若宮"
  },
  "7010303": {
    "zipcode": "7010303",
    "prefectureCode": "33",
    "prefectureNumber": 33,
    "prefecture": "岡山県",
    "city": "都窪郡早島町",
    "town": "前潟"
  },
  "7010304": {
    "zipcode": "7010304",
    "prefectureCode": "33",
    "prefectureNumber": 33,
    "prefecture": "岡山県",
    "city": "都窪郡早島町",
    "town": "早島"
  },
  "7011131": {
    "zipcode": "7011131",
    "prefectureCode": "33",
    "prefectureNumber": 33,
    "prefecture": "岡山県",
    "city": "岡山市北区",
    "town": "日応寺"
  },
  "7011132": {
    "zipcode": "7011132",
    "prefectureCode": "33",
    "prefectureNumber": 33,
    "prefecture": "岡山県",
    "city": "岡山市北区",
    "town": "田原"
  },
  "7011133": {
    "zipcode": "7011133",
    "prefectureCode": "33",
    "prefectureNumber": 33,
    "prefecture": "岡山県",
    "city": "岡山市北区",
    "town": "富吉"
  },
  "7011134": {
    "zipcode": "7011134",
    "prefectureCode": "33",
    "prefectureNumber": 33,
    "prefecture": "岡山県",
    "city": "岡山市北区",
    "town": "三和"
  },
  "7011141": {
    "zipcode": "7011141",
    "prefectureCode": "33",
    "prefectureNumber": 33,
    "prefecture": "岡山県",
    "city": "岡山市北区",
    "town": "菅野"
  },
  "7011142": {
    "zipcode": "7011142",
    "prefectureCode": "33",
    "prefectureNumber": 33,
    "prefecture": "岡山県",
    "city": "岡山市北区",
    "town": "高野"
  },
  "7011143": {
    "zipcode": "7011143",
    "prefectureCode": "33",
    "prefectureNumber": 33,
    "prefecture": "岡山県",
    "city": "岡山市北区",
    "town": "吉宗"
  },
  "7011144": {
    "zipcode": "7011144",
    "prefectureCode": "33",
    "prefectureNumber": 33,
    "prefecture": "岡山県",
    "city": "岡山市北区",
    "town": "栢谷"
  },
  "7011145": {
    "zipcode": "7011145",
    "prefectureCode": "33",
    "prefectureNumber": 33,
    "prefecture": "岡山県",
    "city": "岡山市北区",
    "town": "横井上"
  },
  "7011151": {
    "zipcode": "7011151",
    "prefectureCode": "33",
    "prefectureNumber": 33,
    "prefecture": "岡山県",
    "city": "岡山市北区",
    "town": "津高台"
  },
  "7011152": {
    "zipcode": "7011152",
    "prefectureCode": "33",
    "prefectureNumber": 33,
    "prefecture": "岡山県",
    "city": "岡山市北区",
    "town": "津高"
  },
  "7011153": {
    "zipcode": "7011153",
    "prefectureCode": "33",
    "prefectureNumber": 33,
    "prefecture": "岡山県",
    "city": "岡山市北区",
    "town": "富原"
  },
  "7011154": {
    "zipcode": "7011154",
    "prefectureCode": "33",
    "prefectureNumber": 33,
    "prefecture": "岡山県",
    "city": "岡山市北区",
    "town": "田益"
  },
  "7011201": {
    "zipcode": "7011201",
    "prefectureCode": "33",
    "prefectureNumber": 33,
    "prefecture": "岡山県",
    "city": "岡山市北区",
    "town": "首部"
  },
  "7011202": {
    "zipcode": "7011202",
    "prefectureCode": "33",
    "prefectureNumber": 33,
    "prefecture": "岡山県",
    "city": "岡山市北区",
    "town": "楢津"
  },
  "7011203": {
    "zipcode": "7011203",
    "prefectureCode": "33",
    "prefectureNumber": 33,
    "prefecture": "岡山県",
    "city": "岡山市北区",
    "town": "一宮山崎"
  },
  "7011204": {
    "zipcode": "7011204",
    "prefectureCode": "33",
    "prefectureNumber": 33,
    "prefecture": "岡山県",
    "city": "岡山市北区",
    "town": "今岡"
  },
  "7011205": {
    "zipcode": "7011205",
    "prefectureCode": "33",
    "prefectureNumber": 33,
    "prefecture": "岡山県",
    "city": "岡山市北区",
    "town": "佐山"
  },
  "7011211": {
    "zipcode": "7011211",
    "prefectureCode": "33",
    "prefectureNumber": 33,
    "prefecture": "岡山県",
    "city": "岡山市北区",
    "town": "一宮"
  },
  "7011212": {
    "zipcode": "7011212",
    "prefectureCode": "33",
    "prefectureNumber": 33,
    "prefecture": "岡山県",
    "city": "岡山市北区",
    "town": "尾上"
  },
  "7011213": {
    "zipcode": "7011213",
    "prefectureCode": "33",
    "prefectureNumber": 33,
    "prefecture": "岡山県",
    "city": "岡山市北区",
    "town": "西辛川"
  },
  "7011214": {
    "zipcode": "7011214",
    "prefectureCode": "33",
    "prefectureNumber": 33,
    "prefecture": "岡山県",
    "city": "岡山市北区",
    "town": "辛川市場"
  },
  "7011221": {
    "zipcode": "7011221",
    "prefectureCode": "33",
    "prefectureNumber": 33,
    "prefecture": "岡山県",
    "city": "岡山市北区",
    "town": "芳賀"
  },
  "7011222": {
    "zipcode": "7011222",
    "prefectureCode": "33",
    "prefectureNumber": 33,
    "prefecture": "岡山県",
    "city": "岡山市北区",
    "town": "松尾"
  },
  "7011223": {
    "zipcode": "7011223",
    "prefectureCode": "33",
    "prefectureNumber": 33,
    "prefecture": "岡山県",
    "city": "岡山市北区",
    "town": "大窪"
  },
  "7011224": {
    "zipcode": "7011224",
    "prefectureCode": "33",
    "prefectureNumber": 33,
    "prefecture": "岡山県",
    "city": "岡山市北区",
    "town": "長野"
  },
  "7011225": {
    "zipcode": "7011225",
    "prefectureCode": "33",
    "prefectureNumber": 33,
    "prefecture": "岡山県",
    "city": "岡山市北区",
    "town": "福谷"
  },
  "7011226": {
    "zipcode": "7011226",
    "prefectureCode": "33",
    "prefectureNumber": 33,
    "prefecture": "岡山県",
    "city": "岡山市北区",
    "town": "横尾"
  },
  "7011331": {
    "zipcode": "7011331",
    "prefectureCode": "33",
    "prefectureNumber": 33,
    "prefecture": "岡山県",
    "city": "岡山市北区",
    "town": "高松稲荷"
  },
  "7011332": {
    "zipcode": "7011332",
    "prefectureCode": "33",
    "prefectureNumber": 33,
    "prefecture": "岡山県",
    "city": "岡山市北区",
    "town": "平山"
  },
  "7011333": {
    "zipcode": "7011333",
    "prefectureCode": "33",
    "prefectureNumber": 33,
    "prefecture": "岡山県",
    "city": "岡山市北区",
    "town": "立田"
  },
  "7011334": {
    "zipcode": "7011334",
    "prefectureCode": "33",
    "prefectureNumber": 33,
    "prefecture": "岡山県",
    "city": "岡山市北区",
    "town": "高松原古才"
  },
  "7011335": {
    "zipcode": "7011335",
    "prefectureCode": "33",
    "prefectureNumber": 33,
    "prefecture": "岡山県",
    "city": "岡山市北区",
    "town": "高松"
  },
  "7011336": {
    "zipcode": "7011336",
    "prefectureCode": "33",
    "prefectureNumber": 33,
    "prefecture": "岡山県",
    "city": "岡山市北区",
    "town": "大崎"
  },
  "7011337": {
    "zipcode": "7011337",
    "prefectureCode": "33",
    "prefectureNumber": 33,
    "prefecture": "岡山県",
    "city": "岡山市北区",
    "town": "和井元"
  },
  "7011341": {
    "zipcode": "7011341",
    "prefectureCode": "33",
    "prefectureNumber": 33,
    "prefecture": "岡山県",
    "city": "岡山市北区",
    "town": "吉備津"
  },
  "7011342": {
    "zipcode": "7011342",
    "prefectureCode": "33",
    "prefectureNumber": 33,
    "prefecture": "岡山県",
    "city": "岡山市北区",
    "town": "加茂"
  },
  "7011343": {
    "zipcode": "7011343",
    "prefectureCode": "33",
    "prefectureNumber": 33,
    "prefecture": "岡山県",
    "city": "岡山市北区",
    "town": "惣爪"
  },
  "7011344": {
    "zipcode": "7011344",
    "prefectureCode": "33",
    "prefectureNumber": 33,
    "prefecture": "岡山県",
    "city": "岡山市北区",
    "town": "新庄下"
  },
  "7011345": {
    "zipcode": "7011345",
    "prefectureCode": "33",
    "prefectureNumber": 33,
    "prefecture": "岡山県",
    "city": "岡山市北区",
    "town": "新庄上"
  },
  "7011346": {
    "zipcode": "7011346",
    "prefectureCode": "33",
    "prefectureNumber": 33,
    "prefecture": "岡山県",
    "city": "岡山市北区",
    "town": "津寺"
  },
  "7011351": {
    "zipcode": "7011351",
    "prefectureCode": "33",
    "prefectureNumber": 33,
    "prefecture": "岡山県",
    "city": "岡山市北区",
    "town": "門前"
  },
  "7011352": {
    "zipcode": "7011352",
    "prefectureCode": "33",
    "prefectureNumber": 33,
    "prefecture": "岡山県",
    "city": "岡山市北区",
    "town": "小山"
  },
  "7011353": {
    "zipcode": "7011353",
    "prefectureCode": "33",
    "prefectureNumber": 33,
    "prefecture": "岡山県",
    "city": "岡山市北区",
    "town": "三手"
  },
  "7011354": {
    "zipcode": "7011354",
    "prefectureCode": "33",
    "prefectureNumber": 33,
    "prefecture": "岡山県",
    "city": "岡山市北区",
    "town": "高塚"
  },
  "7011355": {
    "zipcode": "7011355",
    "prefectureCode": "33",
    "prefectureNumber": 33,
    "prefecture": "岡山県",
    "city": "岡山市北区",
    "town": "高松田中"
  },
  "7011356": {
    "zipcode": "7011356",
    "prefectureCode": "33",
    "prefectureNumber": 33,
    "prefecture": "岡山県",
    "city": "岡山市北区",
    "town": "下土田"
  },
  "7011357": {
    "zipcode": "7011357",
    "prefectureCode": "33",
    "prefectureNumber": 33,
    "prefecture": "岡山県",
    "city": "岡山市北区",
    "town": "福崎"
  },
  "7011461": {
    "zipcode": "7011461",
    "prefectureCode": "33",
    "prefectureNumber": 33,
    "prefecture": "岡山県",
    "city": "岡山市北区",
    "town": "粟井"
  },
  "7011462": {
    "zipcode": "7011462",
    "prefectureCode": "33",
    "prefectureNumber": 33,
    "prefecture": "岡山県",
    "city": "岡山市北区",
    "town": "大井"
  },
  "7011463": {
    "zipcode": "7011463",
    "prefectureCode": "33",
    "prefectureNumber": 33,
    "prefecture": "岡山県",
    "city": "岡山市北区",
    "town": "足守"
  },
  "7011464": {
    "zipcode": "7011464",
    "prefectureCode": "33",
    "prefectureNumber": 33,
    "prefecture": "岡山県",
    "city": "岡山市北区",
    "town": "下足守"
  },
  "7011465": {
    "zipcode": "7011465",
    "prefectureCode": "33",
    "prefectureNumber": 33,
    "prefecture": "岡山県",
    "city": "岡山市北区",
    "town": "上土田"
  },
  "7011521": {
    "zipcode": "7011521",
    "prefectureCode": "33",
    "prefectureNumber": 33,
    "prefecture": "岡山県",
    "city": "岡山市北区",
    "town": "日近"
  },
  "7011522": {
    "zipcode": "7011522",
    "prefectureCode": "33",
    "prefectureNumber": 33,
    "prefecture": "岡山県",
    "city": "岡山市北区",
    "town": "杉谷"
  },
  "7011523": {
    "zipcode": "7011523",
    "prefectureCode": "33",
    "prefectureNumber": 33,
    "prefecture": "岡山県",
    "city": "岡山市北区",
    "town": "吉"
  },
  "7011524": {
    "zipcode": "7011524",
    "prefectureCode": "33",
    "prefectureNumber": 33,
    "prefecture": "岡山県",
    "city": "岡山市北区",
    "town": "下高田"
  },
  "7011525": {
    "zipcode": "7011525",
    "prefectureCode": "33",
    "prefectureNumber": 33,
    "prefecture": "岡山県",
    "city": "岡山市北区",
    "town": "上高田"
  },
  "7011526": {
    "zipcode": "7011526",
    "prefectureCode": "33",
    "prefectureNumber": 33,
    "prefecture": "岡山県",
    "city": "岡山市北区",
    "town": "山上"
  },
  "7011527": {
    "zipcode": "7011527",
    "prefectureCode": "33",
    "prefectureNumber": 33,
    "prefecture": "岡山県",
    "city": "岡山市北区",
    "town": "石妻"
  },
  "7011601": {
    "zipcode": "7011601",
    "prefectureCode": "33",
    "prefectureNumber": 33,
    "prefecture": "岡山県",
    "city": "岡山市北区",
    "town": "掛畑"
  },
  "7011602": {
    "zipcode": "7011602",
    "prefectureCode": "33",
    "prefectureNumber": 33,
    "prefecture": "岡山県",
    "city": "岡山市北区",
    "town": "真星"
  },
  "7011603": {
    "zipcode": "7011603",
    "prefectureCode": "33",
    "prefectureNumber": 33,
    "prefecture": "岡山県",
    "city": "岡山市北区",
    "town": "庄田"
  },
  "7011604": {
    "zipcode": "7011604",
    "prefectureCode": "33",
    "prefectureNumber": 33,
    "prefecture": "岡山県",
    "city": "岡山市北区",
    "town": "苔山"
  },
  "7011605": {
    "zipcode": "7011605",
    "prefectureCode": "33",
    "prefectureNumber": 33,
    "prefecture": "岡山県",
    "city": "岡山市北区",
    "town": "河原"
  },
  "7011611": {
    "zipcode": "7011611",
    "prefectureCode": "33",
    "prefectureNumber": 33,
    "prefecture": "岡山県",
    "city": "岡山市北区",
    "town": "東山内"
  },
  "7011612": {
    "zipcode": "7011612",
    "prefectureCode": "33",
    "prefectureNumber": 33,
    "prefecture": "岡山県",
    "city": "岡山市北区",
    "town": "西山内"
  },
  "7011613": {
    "zipcode": "7011613",
    "prefectureCode": "33",
    "prefectureNumber": 33,
    "prefecture": "岡山県",
    "city": "岡山市北区",
    "town": "間倉"
  },
  "7012141": {
    "zipcode": "7012141",
    "prefectureCode": "33",
    "prefectureNumber": 33,
    "prefecture": "岡山県",
    "city": "岡山市北区",
    "town": "牟佐"
  },
  "7012142": {
    "zipcode": "7012142",
    "prefectureCode": "33",
    "prefectureNumber": 33,
    "prefecture": "岡山県",
    "city": "岡山市北区",
    "town": "玉柏"
  },
  "7012143": {
    "zipcode": "7012143",
    "prefectureCode": "33",
    "prefectureNumber": 33,
    "prefecture": "岡山県",
    "city": "岡山市北区",
    "town": "下牧"
  },
  "7012144": {
    "zipcode": "7012144",
    "prefectureCode": "33",
    "prefectureNumber": 33,
    "prefecture": "岡山県",
    "city": "岡山市北区",
    "town": "中牧"
  },
  "7012151": {
    "zipcode": "7012151",
    "prefectureCode": "33",
    "prefectureNumber": 33,
    "prefecture": "岡山県",
    "city": "岡山市北区",
    "town": "金山寺"
  },
  "7012152": {
    "zipcode": "7012152",
    "prefectureCode": "33",
    "prefectureNumber": 33,
    "prefecture": "岡山県",
    "city": "岡山市北区",
    "town": "高野尻"
  },
  "7012153": {
    "zipcode": "7012153",
    "prefectureCode": "33",
    "prefectureNumber": 33,
    "prefecture": "岡山県",
    "city": "岡山市北区",
    "town": "畑鮎"
  },
  "7012154": {
    "zipcode": "7012154",
    "prefectureCode": "33",
    "prefectureNumber": 33,
    "prefecture": "岡山県",
    "city": "岡山市北区",
    "town": "原"
  },
  "7012155": {
    "zipcode": "7012155",
    "prefectureCode": "33",
    "prefectureNumber": 33,
    "prefecture": "岡山県",
    "city": "岡山市北区",
    "town": "中原"
  },
  "7012201": {
    "zipcode": "7012201",
    "prefectureCode": "33",
    "prefectureNumber": 33,
    "prefecture": "岡山県",
    "city": "赤磐市",
    "town": "小原"
  },
  "7012202": {
    "zipcode": "7012202",
    "prefectureCode": "33",
    "prefectureNumber": 33,
    "prefecture": "岡山県",
    "city": "赤磐市",
    "town": "坂辺"
  },
  "7012203": {
    "zipcode": "7012203",
    "prefectureCode": "33",
    "prefectureNumber": 33,
    "prefecture": "岡山県",
    "city": "赤磐市",
    "town": "惣分"
  },
  "7012204": {
    "zipcode": "7012204",
    "prefectureCode": "33",
    "prefectureNumber": 33,
    "prefecture": "岡山県",
    "city": "赤磐市",
    "town": "山手"
  },
  "7012205": {
    "zipcode": "7012205",
    "prefectureCode": "33",
    "prefectureNumber": 33,
    "prefecture": "岡山県",
    "city": "赤磐市",
    "town": "大屋"
  },
  "7012211": {
    "zipcode": "7012211",
    "prefectureCode": "33",
    "prefectureNumber": 33,
    "prefecture": "岡山県",
    "city": "赤磐市",
    "town": "北佐古田"
  },
  "7012212": {
    "zipcode": "7012212",
    "prefectureCode": "33",
    "prefectureNumber": 33,
    "prefecture": "岡山県",
    "city": "赤磐市",
    "town": "南佐古田"
  },
  "7012213": {
    "zipcode": "7012213",
    "prefectureCode": "33",
    "prefectureNumber": 33,
    "prefecture": "岡山県",
    "city": "赤磐市",
    "town": "今井"
  },
  "7012214": {
    "zipcode": "7012214",
    "prefectureCode": "33",
    "prefectureNumber": 33,
    "prefecture": "岡山県",
    "city": "赤磐市",
    "town": "東軽部"
  },
  "7012215": {
    "zipcode": "7012215",
    "prefectureCode": "33",
    "prefectureNumber": 33,
    "prefecture": "岡山県",
    "city": "赤磐市",
    "town": "西軽部"
  },
  "7012216": {
    "zipcode": "7012216",
    "prefectureCode": "33",
    "prefectureNumber": 33,
    "prefecture": "岡山県",
    "city": "赤磐市",
    "town": "多賀"
  },
  "7012221": {
    "zipcode": "7012221",
    "prefectureCode": "33",
    "prefectureNumber": 33,
    "prefecture": "岡山県",
    "city": "赤磐市",
    "town": "大苅田"
  },
  "7012222": {
    "zipcode": "7012222",
    "prefectureCode": "33",
    "prefectureNumber": 33,
    "prefecture": "岡山県",
    "city": "赤磐市",
    "town": "町苅田"
  },
  "7012223": {
    "zipcode": "7012223",
    "prefectureCode": "33",
    "prefectureNumber": 33,
    "prefecture": "岡山県",
    "city": "赤磐市",
    "town": "東窪田"
  },
  "7012224": {
    "zipcode": "7012224",
    "prefectureCode": "33",
    "prefectureNumber": 33,
    "prefecture": "岡山県",
    "city": "赤磐市",
    "town": "西窪田"
  },
  "7012225": {
    "zipcode": "7012225",
    "prefectureCode": "33",
    "prefectureNumber": 33,
    "prefecture": "岡山県",
    "city": "赤磐市",
    "town": "山口"
  },
  "7012226": {
    "zipcode": "7012226",
    "prefectureCode": "33",
    "prefectureNumber": 33,
    "prefecture": "岡山県",
    "city": "赤磐市",
    "town": "由津里"
  },
  "7012431": {
    "zipcode": "7012431",
    "prefectureCode": "33",
    "prefectureNumber": 33,
    "prefecture": "岡山県",
    "city": "赤磐市",
    "town": "戸津野"
  },
  "7012432": {
    "zipcode": "7012432",
    "prefectureCode": "33",
    "prefectureNumber": 33,
    "prefecture": "岡山県",
    "city": "赤磐市",
    "town": "塩木"
  },
  "7012433": {
    "zipcode": "7012433",
    "prefectureCode": "33",
    "prefectureNumber": 33,
    "prefecture": "岡山県",
    "city": "赤磐市",
    "town": "平山"
  },
  "7012434": {
    "zipcode": "7012434",
    "prefectureCode": "33",
    "prefectureNumber": 33,
    "prefecture": "岡山県",
    "city": "赤磐市",
    "town": "仁堀東"
  },
  "7012435": {
    "zipcode": "7012435",
    "prefectureCode": "33",
    "prefectureNumber": 33,
    "prefecture": "岡山県",
    "city": "赤磐市",
    "town": "仁堀中"
  },
  "7012436": {
    "zipcode": "7012436",
    "prefectureCode": "33",
    "prefectureNumber": 33,
    "prefecture": "岡山県",
    "city": "赤磐市",
    "town": "仁堀西"
  },
  "7012437": {
    "zipcode": "7012437",
    "prefectureCode": "33",
    "prefectureNumber": 33,
    "prefecture": "岡山県",
    "city": "赤磐市",
    "town": "中勢実"
  },
  "7012441": {
    "zipcode": "7012441",
    "prefectureCode": "33",
    "prefectureNumber": 33,
    "prefecture": "岡山県",
    "city": "赤磐市",
    "town": "西勢実"
  },
  "7012442": {
    "zipcode": "7012442",
    "prefectureCode": "33",
    "prefectureNumber": 33,
    "prefecture": "岡山県",
    "city": "赤磐市",
    "town": "広戸"
  },
  "7012443": {
    "zipcode": "7012443",
    "prefectureCode": "33",
    "prefectureNumber": 33,
    "prefecture": "岡山県",
    "city": "赤磐市",
    "town": "合田"
  },
  "7012444": {
    "zipcode": "7012444",
    "prefectureCode": "33",
    "prefectureNumber": 33,
    "prefecture": "岡山県",
    "city": "赤磐市",
    "town": "中畑"
  },
  "7012445": {
    "zipcode": "7012445",
    "prefectureCode": "33",
    "prefectureNumber": 33,
    "prefecture": "岡山県",
    "city": "赤磐市",
    "town": "石上"
  },
  "7012446": {
    "zipcode": "7012446",
    "prefectureCode": "33",
    "prefectureNumber": 33,
    "prefecture": "岡山県",
    "city": "赤磐市",
    "town": "小鎌"
  },
  "7012501": {
    "zipcode": "7012501",
    "prefectureCode": "33",
    "prefectureNumber": 33,
    "prefecture": "岡山県",
    "city": "赤磐市",
    "town": "河原屋"
  },
  "7012502": {
    "zipcode": "7012502",
    "prefectureCode": "33",
    "prefectureNumber": 33,
    "prefecture": "岡山県",
    "city": "赤磐市",
    "town": "草生"
  },
  "7012503": {
    "zipcode": "7012503",
    "prefectureCode": "33",
    "prefectureNumber": 33,
    "prefecture": "岡山県",
    "city": "赤磐市",
    "town": "周匝"
  },
  "7012504": {
    "zipcode": "7012504",
    "prefectureCode": "33",
    "prefectureNumber": 33,
    "prefecture": "岡山県",
    "city": "赤磐市",
    "town": "福田"
  },
  "7012511": {
    "zipcode": "7012511",
    "prefectureCode": "33",
    "prefectureNumber": 33,
    "prefecture": "岡山県",
    "city": "赤磐市",
    "town": "稲蒔"
  },
  "7012512": {
    "zipcode": "7012512",
    "prefectureCode": "33",
    "prefectureNumber": 33,
    "prefecture": "岡山県",
    "city": "赤磐市",
    "town": "暮田"
  },
  "7012513": {
    "zipcode": "7012513",
    "prefectureCode": "33",
    "prefectureNumber": 33,
    "prefecture": "岡山県",
    "city": "赤磐市",
    "town": "八島田"
  },
  "7012514": {
    "zipcode": "7012514",
    "prefectureCode": "33",
    "prefectureNumber": 33,
    "prefecture": "岡山県",
    "city": "赤磐市",
    "town": "石"
  },
  "7012515": {
    "zipcode": "7012515",
    "prefectureCode": "33",
    "prefectureNumber": 33,
    "prefecture": "岡山県",
    "city": "赤磐市",
    "town": "光木"
  },
  "7012521": {
    "zipcode": "7012521",
    "prefectureCode": "33",
    "prefectureNumber": 33,
    "prefecture": "岡山県",
    "city": "赤磐市",
    "town": "黒本"
  },
  "7012522": {
    "zipcode": "7012522",
    "prefectureCode": "33",
    "prefectureNumber": 33,
    "prefecture": "岡山県",
    "city": "赤磐市",
    "town": "黒沢"
  },
  "7012523": {
    "zipcode": "7012523",
    "prefectureCode": "33",
    "prefectureNumber": 33,
    "prefecture": "岡山県",
    "city": "赤磐市",
    "town": "中山"
  },
  "7012524": {
    "zipcode": "7012524",
    "prefectureCode": "33",
    "prefectureNumber": 33,
    "prefecture": "岡山県",
    "city": "赤磐市",
    "town": "滝山"
  },
  "7012525": {
    "zipcode": "7012525",
    "prefectureCode": "33",
    "prefectureNumber": 33,
    "prefecture": "岡山県",
    "city": "赤磐市",
    "town": "是里"
  },
  "7012601": {
    "zipcode": "7012601",
    "prefectureCode": "33",
    "prefectureNumber": 33,
    "prefecture": "岡山県",
    "city": "美作市",
    "town": "尾谷"
  },
  "7012602": {
    "zipcode": "7012602",
    "prefectureCode": "33",
    "prefectureNumber": 33,
    "prefecture": "岡山県",
    "city": "美作市",
    "town": "真神"
  },
  "7012603": {
    "zipcode": "7012603",
    "prefectureCode": "33",
    "prefectureNumber": 33,
    "prefecture": "岡山県",
    "city": "美作市",
    "town": "三保原"
  },
  "7012604": {
    "zipcode": "7012604",
    "prefectureCode": "33",
    "prefectureNumber": 33,
    "prefecture": "岡山県",
    "city": "美作市",
    "town": "福本"
  },
  "7012605": {
    "zipcode": "7012605",
    "prefectureCode": "33",
    "prefectureNumber": 33,
    "prefecture": "岡山県",
    "city": "美作市",
    "town": "奥"
  },
  "7012606": {
    "zipcode": "7012606",
    "prefectureCode": "33",
    "prefectureNumber": 33,
    "prefecture": "岡山県",
    "city": "美作市",
    "town": "井口"
  },
  "7012611": {
    "zipcode": "7012611",
    "prefectureCode": "33",
    "prefectureNumber": 33,
    "prefecture": "岡山県",
    "city": "美作市",
    "town": "北"
  },
  "7012612": {
    "zipcode": "7012612",
    "prefectureCode": "33",
    "prefectureNumber": 33,
    "prefecture": "岡山県",
    "city": "美作市",
    "town": "滝宮"
  },
  "7012613": {
    "zipcode": "7012613",
    "prefectureCode": "33",
    "prefectureNumber": 33,
    "prefecture": "岡山県",
    "city": "美作市",
    "town": "横尾"
  },
  "7012614": {
    "zipcode": "7012614",
    "prefectureCode": "33",
    "prefectureNumber": 33,
    "prefecture": "岡山県",
    "city": "美作市",
    "town": "上山"
  },
  "7012615": {
    "zipcode": "7012615",
    "prefectureCode": "33",
    "prefectureNumber": 33,
    "prefecture": "岡山県",
    "city": "美作市",
    "town": "中川"
  },
  "7012616": {
    "zipcode": "7012616",
    "prefectureCode": "33",
    "prefectureNumber": 33,
    "prefecture": "岡山県",
    "city": "美作市",
    "town": "南"
  },
  "7012621": {
    "zipcode": "7012621",
    "prefectureCode": "33",
    "prefectureNumber": 33,
    "prefecture": "岡山県",
    "city": "美作市",
    "town": "下山"
  },
  "7012622": {
    "zipcode": "7012622",
    "prefectureCode": "33",
    "prefectureNumber": 33,
    "prefecture": "岡山県",
    "city": "美作市",
    "town": "鳥渕"
  },
  "7012623": {
    "zipcode": "7012623",
    "prefectureCode": "33",
    "prefectureNumber": 33,
    "prefecture": "岡山県",
    "city": "美作市",
    "town": "英田青野"
  },
  "7012624": {
    "zipcode": "7012624",
    "prefectureCode": "33",
    "prefectureNumber": 33,
    "prefecture": "岡山県",
    "city": "美作市",
    "town": "中河内"
  },
  "7012625": {
    "zipcode": "7012625",
    "prefectureCode": "33",
    "prefectureNumber": 33,
    "prefecture": "岡山県",
    "city": "美作市",
    "town": "城田"
  },
  "7013201": {
    "zipcode": "7013201",
    "prefectureCode": "33",
    "prefectureNumber": 33,
    "prefecture": "岡山県",
    "city": "備前市",
    "town": "日生町寺山"
  },
  "7013202": {
    "zipcode": "7013202",
    "prefectureCode": "33",
    "prefectureNumber": 33,
    "prefecture": "岡山県",
    "city": "備前市",
    "town": "日生町寒河"
  },
  "7013203": {
    "zipcode": "7013203",
    "prefectureCode": "33",
    "prefectureNumber": 33,
    "prefecture": "岡山県",
    "city": "備前市",
    "town": "日生町大多府"
  },
  "7013204": {
    "zipcode": "7013204",
    "prefectureCode": "33",
    "prefectureNumber": 33,
    "prefecture": "岡山県",
    "city": "備前市",
    "town": "日生町日生"
  },
  "7014200": {
    "zipcode": "7014200",
    "prefectureCode": "33",
    "prefectureNumber": 33,
    "prefecture": "岡山県",
    "city": "瀬戸内市",
    "town": "以下に掲載がない場合"
  },
  "7014211": {
    "zipcode": "7014211",
    "prefectureCode": "33",
    "prefectureNumber": 33,
    "prefecture": "岡山県",
    "city": "瀬戸内市",
    "town": "邑久町庄田"
  },
  "7014212": {
    "zipcode": "7014212",
    "prefectureCode": "33",
    "prefectureNumber": 33,
    "prefecture": "岡山県",
    "city": "瀬戸内市",
    "town": "邑久町尻海"
  },
  "7014213": {
    "zipcode": "7014213",
    "prefectureCode": "33",
    "prefectureNumber": 33,
    "prefecture": "岡山県",
    "city": "瀬戸内市",
    "town": "邑久町山手"
  },
  "7014214": {
    "zipcode": "7014214",
    "prefectureCode": "33",
    "prefectureNumber": 33,
    "prefecture": "岡山県",
    "city": "瀬戸内市",
    "town": "邑久町本庄"
  },
  "7014215": {
    "zipcode": "7014215",
    "prefectureCode": "33",
    "prefectureNumber": 33,
    "prefecture": "岡山県",
    "city": "瀬戸内市",
    "town": "邑久町上山田"
  },
  "7014216": {
    "zipcode": "7014216",
    "prefectureCode": "33",
    "prefectureNumber": 33,
    "prefecture": "岡山県",
    "city": "瀬戸内市",
    "town": "邑久町下山田"
  },
  "7014221": {
    "zipcode": "7014221",
    "prefectureCode": "33",
    "prefectureNumber": 33,
    "prefecture": "岡山県",
    "city": "瀬戸内市",
    "town": "邑久町尾張"
  },
  "7014222": {
    "zipcode": "7014222",
    "prefectureCode": "33",
    "prefectureNumber": 33,
    "prefecture": "岡山県",
    "city": "瀬戸内市",
    "town": "邑久町豊安"
  },
  "7014223": {
    "zipcode": "7014223",
    "prefectureCode": "33",
    "prefectureNumber": 33,
    "prefecture": "岡山県",
    "city": "瀬戸内市",
    "town": "邑久町豊原"
  },
  "7014224": {
    "zipcode": "7014224",
    "prefectureCode": "33",
    "prefectureNumber": 33,
    "prefecture": "岡山県",
    "city": "瀬戸内市",
    "town": "邑久町東谷"
  },
  "7014231": {
    "zipcode": "7014231",
    "prefectureCode": "33",
    "prefectureNumber": 33,
    "prefecture": "岡山県",
    "city": "瀬戸内市",
    "town": "邑久町大窪"
  },
  "7014232": {
    "zipcode": "7014232",
    "prefectureCode": "33",
    "prefectureNumber": 33,
    "prefecture": "岡山県",
    "city": "瀬戸内市",
    "town": "邑久町北島"
  },
  "7014233": {
    "zipcode": "7014233",
    "prefectureCode": "33",
    "prefectureNumber": 33,
    "prefecture": "岡山県",
    "city": "瀬戸内市",
    "town": "邑久町向山"
  },
  "7014234": {
    "zipcode": "7014234",
    "prefectureCode": "33",
    "prefectureNumber": 33,
    "prefecture": "岡山県",
    "city": "瀬戸内市",
    "town": "邑久町大富"
  },
  "7014241": {
    "zipcode": "7014241",
    "prefectureCode": "33",
    "prefectureNumber": 33,
    "prefecture": "岡山県",
    "city": "瀬戸内市",
    "town": "邑久町福元"
  },
  "7014243": {
    "zipcode": "7014243",
    "prefectureCode": "33",
    "prefectureNumber": 33,
    "prefecture": "岡山県",
    "city": "瀬戸内市",
    "town": "邑久町宗三"
  },
  "7014244": {
    "zipcode": "7014244",
    "prefectureCode": "33",
    "prefectureNumber": 33,
    "prefecture": "岡山県",
    "city": "瀬戸内市",
    "town": "邑久町福中"
  },
  "7014245": {
    "zipcode": "7014245",
    "prefectureCode": "33",
    "prefectureNumber": 33,
    "prefecture": "岡山県",
    "city": "瀬戸内市",
    "town": "邑久町福山"
  },
  "7014246": {
    "zipcode": "7014246",
    "prefectureCode": "33",
    "prefectureNumber": 33,
    "prefecture": "岡山県",
    "city": "瀬戸内市",
    "town": "邑久町山田庄"
  },
  "7014247": {
    "zipcode": "7014247",
    "prefectureCode": "33",
    "prefectureNumber": 33,
    "prefecture": "岡山県",
    "city": "瀬戸内市",
    "town": "邑久町下笠加"
  },
  "7014248": {
    "zipcode": "7014248",
    "prefectureCode": "33",
    "prefectureNumber": 33,
    "prefecture": "岡山県",
    "city": "瀬戸内市",
    "town": "邑久町百田"
  },
  "7014251": {
    "zipcode": "7014251",
    "prefectureCode": "33",
    "prefectureNumber": 33,
    "prefecture": "岡山県",
    "city": "瀬戸内市",
    "town": "邑久町北池"
  },
  "7014252": {
    "zipcode": "7014252",
    "prefectureCode": "33",
    "prefectureNumber": 33,
    "prefecture": "岡山県",
    "city": "瀬戸内市",
    "town": "邑久町上笠加"
  },
  "7014253": {
    "zipcode": "7014253",
    "prefectureCode": "33",
    "prefectureNumber": 33,
    "prefecture": "岡山県",
    "city": "瀬戸内市",
    "town": "邑久町箕輪"
  },
  "7014254": {
    "zipcode": "7014254",
    "prefectureCode": "33",
    "prefectureNumber": 33,
    "prefecture": "岡山県",
    "city": "瀬戸内市",
    "town": "邑久町豆田"
  },
  "7014261": {
    "zipcode": "7014261",
    "prefectureCode": "33",
    "prefectureNumber": 33,
    "prefecture": "岡山県",
    "city": "瀬戸内市",
    "town": "長船町飯井"
  },
  "7014262": {
    "zipcode": "7014262",
    "prefectureCode": "33",
    "prefectureNumber": 33,
    "prefecture": "岡山県",
    "city": "瀬戸内市",
    "town": "長船町東須恵"
  },
  "7014263": {
    "zipcode": "7014263",
    "prefectureCode": "33",
    "prefectureNumber": 33,
    "prefecture": "岡山県",
    "city": "瀬戸内市",
    "town": "長船町西須恵"
  },
  "7014264": {
    "zipcode": "7014264",
    "prefectureCode": "33",
    "prefectureNumber": 33,
    "prefecture": "岡山県",
    "city": "瀬戸内市",
    "town": "長船町土師"
  },
  "7014265": {
    "zipcode": "7014265",
    "prefectureCode": "33",
    "prefectureNumber": 33,
    "prefecture": "岡山県",
    "city": "瀬戸内市",
    "town": "長船町福岡"
  },
  "7014271": {
    "zipcode": "7014271",
    "prefectureCode": "33",
    "prefectureNumber": 33,
    "prefecture": "岡山県",
    "city": "瀬戸内市",
    "town": "長船町長船"
  },
  "7014272": {
    "zipcode": "7014272",
    "prefectureCode": "33",
    "prefectureNumber": 33,
    "prefecture": "岡山県",
    "city": "瀬戸内市",
    "town": "長船町八日市"
  },
  "7014273": {
    "zipcode": "7014273",
    "prefectureCode": "33",
    "prefectureNumber": 33,
    "prefecture": "岡山県",
    "city": "瀬戸内市",
    "town": "長船町磯上"
  },
  "7014274": {
    "zipcode": "7014274",
    "prefectureCode": "33",
    "prefectureNumber": 33,
    "prefecture": "岡山県",
    "city": "瀬戸内市",
    "town": "長船町牛文"
  },
  "7014275": {
    "zipcode": "7014275",
    "prefectureCode": "33",
    "prefectureNumber": 33,
    "prefecture": "岡山県",
    "city": "瀬戸内市",
    "town": "長船町福里"
  },
  "7014276": {
    "zipcode": "7014276",
    "prefectureCode": "33",
    "prefectureNumber": 33,
    "prefecture": "岡山県",
    "city": "瀬戸内市",
    "town": "長船町服部"
  },
  "7014301": {
    "zipcode": "7014301",
    "prefectureCode": "33",
    "prefectureNumber": 33,
    "prefecture": "岡山県",
    "city": "瀬戸内市",
    "town": "牛窓町長浜"
  },
  "7014302": {
    "zipcode": "7014302",
    "prefectureCode": "33",
    "prefectureNumber": 33,
    "prefecture": "岡山県",
    "city": "瀬戸内市",
    "town": "牛窓町牛窓"
  },
  "7014303": {
    "zipcode": "7014303",
    "prefectureCode": "33",
    "prefectureNumber": 33,
    "prefecture": "岡山県",
    "city": "瀬戸内市",
    "town": "牛窓町鹿忍"
  },
  "7014304": {
    "zipcode": "7014304",
    "prefectureCode": "33",
    "prefectureNumber": 33,
    "prefecture": "岡山県",
    "city": "瀬戸内市",
    "town": "牛窓町千手"
  },
  "7014501": {
    "zipcode": "7014501",
    "prefectureCode": "33",
    "prefectureNumber": 33,
    "prefecture": "岡山県",
    "city": "瀬戸内市",
    "town": "邑久町虫明"
  },
  "7014502": {
    "zipcode": "7014502",
    "prefectureCode": "33",
    "prefectureNumber": 33,
    "prefecture": "岡山県",
    "city": "瀬戸内市",
    "town": "邑久町福谷"
  }
}
