{
  "7028001": {
    "zipcode": "7028001",
    "prefectureCode": "33",
    "prefectureNumber": 33,
    "prefecture": "岡山県",
    "city": "岡山市中区",
    "town": "沖元"
  },
  "7028002": {
    "zipcode": "7028002",
    "prefectureCode": "33",
    "prefectureNumber": 33,
    "prefecture": "岡山県",
    "city": "岡山市中区",
    "town": "桑野"
  },
  "7028003": {
    "zipcode": "7028003",
    "prefectureCode": "33",
    "prefectureNumber": 33,
    "prefecture": "岡山県",
    "city": "岡山市中区",
    "town": "新築港"
  },
  "7028004": {
    "zipcode": "7028004",
    "prefectureCode": "33",
    "prefectureNumber": 33,
    "prefecture": "岡山県",
    "city": "岡山市中区",
    "town": "江並"
  },
  "7028005": {
    "zipcode": "7028005",
    "prefectureCode": "33",
    "prefectureNumber": 33,
    "prefecture": "岡山県",
    "city": "岡山市中区",
    "town": "江崎"
  },
  "7028006": {
    "zipcode": "7028006",
    "prefectureCode": "33",
    "prefectureNumber": 33,
    "prefecture": "岡山県",
    "city": "岡山市中区",
    "town": "藤崎"
  },
  "7028011": {
    "zipcode": "7028011",
    "prefectureCode": "33",
    "prefectureNumber": 33,
    "prefecture": "岡山県",
    "city": "岡山市南区",
    "town": "郡"
  },
  "7028012": {
    "zipcode": "7028012",
    "prefectureCode": "33",
    "prefectureNumber": 33,
    "prefecture": "岡山県",
    "city": "岡山市南区",
    "town": "北浦"
  },
  "7028013": {
    "zipcode": "7028013",
    "prefectureCode": "33",
    "prefectureNumber": 33,
    "prefecture": "岡山県",
    "city": "岡山市南区",
    "town": "飽浦"
  },
  "7028014": {
    "zipcode": "7028014",
    "prefectureCode": "33",
    "prefectureNumber": 33,
    "prefecture": "岡山県",
    "city": "岡山市南区",
    "town": "宮浦"
  },
  "7028015": {
    "zipcode": "7028015",
    "prefectureCode": "33",
    "prefectureNumber": 33,
    "prefecture": "岡山県",
    "city": "岡山市南区",
    "town": "阿津"
  },
  "7028016": {
    "zipcode": "7028016",
    "prefectureCode": "33",
    "prefectureNumber": 33,
    "prefecture": "岡山県",
    "city": "岡山市南区",
    "town": "小串"
  },
  "7028021": {
    "zipcode": "7028021",
    "prefectureCode": "33",
    "prefectureNumber": 33,
    "prefecture": "岡山県",
    "city": "岡山市南区",
    "town": "福田"
  },
  "7028022": {
    "zipcode": "7028022",
    "prefectureCode": "33",
    "prefectureNumber": 33,
    "prefecture": "岡山県",
    "city": "岡山市南区",
    "town": "福成"
  },
  "7028023": {
    "zipcode": "7028023",
    "prefectureCode": "33",
    "prefectureNumber": 33,
    "prefecture": "岡山県",
    "city": "岡山市南区",
    "town": "南輝"
  },
  "7028024": {
    "zipcode": "7028024",
    "prefectureCode": "33",
    "prefectureNumber": 33,
    "prefecture": "岡山県",
    "city": "岡山市南区",
    "town": "浦安南町"
  },
  "7028025": {
    "zipcode": "7028025",
    "prefectureCode": "33",
    "prefectureNumber": 33,
    "prefecture": "岡山県",
    "city": "岡山市南区",
    "town": "浦安西町"
  },
  "7028026": {
    "zipcode": "7028026",
    "prefectureCode": "33",
    "prefectureNumber": 33,
    "prefecture": "岡山県",
    "city": "岡山市南区",
    "town": "浦安本町"
  },
  "7028027": {
    "zipcode": "7028027",
    "prefectureCode": "33",
    "prefectureNumber": 33,
    "prefecture": "岡山県",
    "city": "岡山市南区",
    "town": "芳泉"
  },
  "7028031": {
    "zipcode": "7028031",
    "prefectureCode": "33",
    "prefectureNumber": 33,
    "prefecture": "岡山県",
    "city": "岡山市南区",
    "town": "福富西"
  },
  "7028032": {
    "zipcode": "7028032",
    "prefectureCode": "33",
    "prefectureNumber": 33,
    "prefecture": "岡山県",
    "city": "岡山市南区",
    "town": "福富中"
  },
  "7028033": {
    "zipcode": "7028033",
    "prefectureCode": "33",
    "prefectureNumber": 33,
    "prefecture": "岡山県",
    "city": "岡山市南区",
    "town": "福富東"
  },
  "7028034": {
    "zipcode": "7028034",
    "prefectureCode": "33",
    "prefectureNumber": 33,
    "prefecture": "岡山県",
    "city": "岡山市南区",
    "town": "福浜西町"
  },
  "7028035": {
    "zipcode": "7028035",
    "prefectureCode": "33",
    "prefectureNumber": 33,
    "prefecture": "岡山県",
    "city": "岡山市南区",
    "town": "福浜町"
  },
  "7028036": {
    "zipcode": "7028036",
    "prefectureCode": "33",
    "prefectureNumber": 33,
    "prefecture": "岡山県",
    "city": "岡山市南区",
    "town": "三浜町"
  },
  "7028037": {
    "zipcode": "7028037",
    "prefectureCode": "33",
    "prefectureNumber": 33,
    "prefecture": "岡山県",
    "city": "岡山市南区",
    "town": "千鳥町"
  },
  "7028038": {
    "zipcode": "7028038",
    "prefectureCode": "33",
    "prefectureNumber": 33,
    "prefecture": "岡山県",
    "city": "岡山市南区",
    "town": "松浜町"
  },
  "7028041": {
    "zipcode": "7028041",
    "prefectureCode": "33",
    "prefectureNumber": 33,
    "prefecture": "岡山県",
    "city": "岡山市南区",
    "town": "富浜町"
  },
  "7028042": {
    "zipcode": "7028042",
    "prefectureCode": "33",
    "prefectureNumber": 33,
    "prefecture": "岡山県",
    "city": "岡山市南区",
    "town": "洲崎"
  },
  "7028043": {
    "zipcode": "7028043",
    "prefectureCode": "33",
    "prefectureNumber": 33,
    "prefecture": "岡山県",
    "city": "岡山市南区",
    "town": "平福"
  },
  "7028044": {
    "zipcode": "7028044",
    "prefectureCode": "33",
    "prefectureNumber": 33,
    "prefecture": "岡山県",
    "city": "岡山市南区",
    "town": "福島"
  },
  "7028045": {
    "zipcode": "7028045",
    "prefectureCode": "33",
    "prefectureNumber": 33,
    "prefecture": "岡山県",
    "city": "岡山市南区",
    "town": "海岸通"
  },
  "7028046": {
    "zipcode": "7028046",
    "prefectureCode": "33",
    "prefectureNumber": 33,
    "prefecture": "岡山県",
    "city": "岡山市南区",
    "town": "立川町"
  },
  "7028047": {
    "zipcode": "7028047",
    "prefectureCode": "33",
    "prefectureNumber": 33,
    "prefecture": "岡山県",
    "city": "岡山市南区",
    "town": "若葉町"
  },
  "7028048": {
    "zipcode": "7028048",
    "prefectureCode": "33",
    "prefectureNumber": 33,
    "prefecture": "岡山県",
    "city": "岡山市南区",
    "town": "福吉町"
  },
  "7028051": {
    "zipcode": "7028051",
    "prefectureCode": "33",
    "prefectureNumber": 33,
    "prefecture": "岡山県",
    "city": "岡山市南区",
    "town": "築港元町"
  },
  "7028052": {
    "zipcode": "7028052",
    "prefectureCode": "33",
    "prefectureNumber": 33,
    "prefecture": "岡山県",
    "city": "岡山市南区",
    "town": "市場"
  },
  "7028053": {
    "zipcode": "7028053",
    "prefectureCode": "33",
    "prefectureNumber": 33,
    "prefecture": "岡山県",
    "city": "岡山市南区",
    "town": "築港栄町"
  },
  "7028054": {
    "zipcode": "7028054",
    "prefectureCode": "33",
    "prefectureNumber": 33,
    "prefecture": "岡山県",
    "city": "岡山市南区",
    "town": "築港ひかり町"
  },
  "7028055": {
    "zipcode": "7028055",
    "prefectureCode": "33",
    "prefectureNumber": 33,
    "prefecture": "岡山県",
    "city": "岡山市南区",
    "town": "築港緑町"
  },
  "7028056": {
    "zipcode": "7028056",
    "prefectureCode": "33",
    "prefectureNumber": 33,
    "prefecture": "岡山県",
    "city": "岡山市南区",
    "town": "築港新町"
  },
  "7028057": {
    "zipcode": "7028057",
    "prefectureCode": "33",
    "prefectureNumber": 33,
    "prefecture": "岡山県",
    "city": "岡山市南区",
    "town": "あけぼの町"
  },
  "7028058": {
    "zipcode": "7028058",
    "prefectureCode": "33",
    "prefectureNumber": 33,
    "prefecture": "岡山県",
    "city": "岡山市南区",
    "town": "並木町"
  }
}
