{
  "7038201": {
    "zipcode": "7038201",
    "prefectureCode": "33",
    "prefectureNumber": 33,
    "prefecture": "岡山県",
    "city": "岡山市中区",
    "town": "四御神"
  },
  "7038202": {
    "zipcode": "7038202",
    "prefectureCode": "33",
    "prefectureNumber": 33,
    "prefecture": "岡山県",
    "city": "岡山市中区",
    "town": "湯迫"
  },
  "7038203": {
    "zipcode": "7038203",
    "prefectureCode": "33",
    "prefectureNumber": 33,
    "prefecture": "岡山県",
    "city": "岡山市中区",
    "town": "国府市場"
  },
  "7038204": {
    "zipcode": "7038204",
    "prefectureCode": "33",
    "prefectureNumber": 33,
    "prefecture": "岡山県",
    "city": "岡山市中区",
    "town": "雄町"
  },
  "7038205": {
    "zipcode": "7038205",
    "prefectureCode": "33",
    "prefectureNumber": 33,
    "prefecture": "岡山県",
    "city": "岡山市中区",
    "town": "中井"
  },
  "7038206": {
    "zipcode": "7038206",
    "prefectureCode": "33",
    "prefectureNumber": 33,
    "prefecture": "岡山県",
    "city": "岡山市中区",
    "town": "賞田"
  },
  "7038207": {
    "zipcode": "7038207",
    "prefectureCode": "33",
    "prefectureNumber": 33,
    "prefecture": "岡山県",
    "city": "岡山市中区",
    "town": "祇園"
  },
  "7038208": {
    "zipcode": "7038208",
    "prefectureCode": "33",
    "prefectureNumber": 33,
    "prefecture": "岡山県",
    "city": "岡山市中区",
    "town": "今在家"
  },
  "7038211": {
    "zipcode": "7038211",
    "prefectureCode": "33",
    "prefectureNumber": 33,
    "prefecture": "岡山県",
    "city": "岡山市東区",
    "town": "矢津"
  },
  "7038212": {
    "zipcode": "7038212",
    "prefectureCode": "33",
    "prefectureNumber": 33,
    "prefecture": "岡山県",
    "city": "岡山市東区",
    "town": "古都宿"
  },
  "7038213": {
    "zipcode": "7038213",
    "prefectureCode": "33",
    "prefectureNumber": 33,
    "prefecture": "岡山県",
    "city": "岡山市東区",
    "town": "藤井"
  },
  "7038214": {
    "zipcode": "7038214",
    "prefectureCode": "33",
    "prefectureNumber": 33,
    "prefecture": "岡山県",
    "city": "岡山市東区",
    "town": "鉄"
  },
  "7038215": {
    "zipcode": "7038215",
    "prefectureCode": "33",
    "prefectureNumber": 33,
    "prefecture": "岡山県",
    "city": "岡山市東区",
    "town": "古都南方"
  },
  "7038216": {
    "zipcode": "7038216",
    "prefectureCode": "33",
    "prefectureNumber": 33,
    "prefecture": "岡山県",
    "city": "岡山市東区",
    "town": "宍甘"
  },
  "7038217": {
    "zipcode": "7038217",
    "prefectureCode": "33",
    "prefectureNumber": 33,
    "prefecture": "岡山県",
    "city": "岡山市中区",
    "town": "土田"
  },
  "7038221": {
    "zipcode": "7038221",
    "prefectureCode": "33",
    "prefectureNumber": 33,
    "prefecture": "岡山県",
    "city": "岡山市中区",
    "town": "長岡"
  },
  "7038222": {
    "zipcode": "7038222",
    "prefectureCode": "33",
    "prefectureNumber": 33,
    "prefecture": "岡山県",
    "city": "岡山市中区",
    "town": "下"
  },
  "7038223": {
    "zipcode": "7038223",
    "prefectureCode": "33",
    "prefectureNumber": 33,
    "prefecture": "岡山県",
    "city": "岡山市中区",
    "town": "長利"
  },
  "7038224": {
    "zipcode": "7038224",
    "prefectureCode": "33",
    "prefectureNumber": 33,
    "prefecture": "岡山県",
    "city": "岡山市中区",
    "town": "米田"
  },
  "7038225": {
    "zipcode": "7038225",
    "prefectureCode": "33",
    "prefectureNumber": 33,
    "prefecture": "岡山県",
    "city": "岡山市中区",
    "town": "神下"
  },
  "7038226": {
    "zipcode": "7038226",
    "prefectureCode": "33",
    "prefectureNumber": 33,
    "prefecture": "岡山県",
    "city": "岡山市中区",
    "town": "今谷"
  },
  "7038227": {
    "zipcode": "7038227",
    "prefectureCode": "33",
    "prefectureNumber": 33,
    "prefecture": "岡山県",
    "city": "岡山市中区",
    "town": "兼基"
  },
  "7038228": {
    "zipcode": "7038228",
    "prefectureCode": "33",
    "prefectureNumber": 33,
    "prefecture": "岡山県",
    "city": "岡山市中区",
    "town": "乙多見"
  },
  "7038231": {
    "zipcode": "7038231",
    "prefectureCode": "33",
    "prefectureNumber": 33,
    "prefecture": "岡山県",
    "city": "岡山市中区",
    "town": "赤田"
  },
  "7038232": {
    "zipcode": "7038232",
    "prefectureCode": "33",
    "prefectureNumber": 33,
    "prefecture": "岡山県",
    "city": "岡山市中区",
    "town": "関"
  },
  "7038233": {
    "zipcode": "7038233",
    "prefectureCode": "33",
    "prefectureNumber": 33,
    "prefecture": "岡山県",
    "city": "岡山市中区",
    "town": "高屋"
  },
  "7038234": {
    "zipcode": "7038234",
    "prefectureCode": "33",
    "prefectureNumber": 33,
    "prefecture": "岡山県",
    "city": "岡山市中区",
    "town": "沢田"
  },
  "7038235": {
    "zipcode": "7038235",
    "prefectureCode": "33",
    "prefectureNumber": 33,
    "prefecture": "岡山県",
    "city": "岡山市中区",
    "town": "原尾島"
  },
  "7038236": {
    "zipcode": "7038236",
    "prefectureCode": "33",
    "prefectureNumber": 33,
    "prefecture": "岡山県",
    "city": "岡山市中区",
    "town": "国富"
  },
  "7038237": {
    "zipcode": "7038237",
    "prefectureCode": "33",
    "prefectureNumber": 33,
    "prefecture": "岡山県",
    "city": "岡山市中区",
    "town": "森下町"
  },
  "7038238": {
    "zipcode": "7038238",
    "prefectureCode": "33",
    "prefectureNumber": 33,
    "prefecture": "岡山県",
    "city": "岡山市中区",
    "town": "住吉町"
  },
  "7038241": {
    "zipcode": "7038241",
    "prefectureCode": "33",
    "prefectureNumber": 33,
    "prefecture": "岡山県",
    "city": "岡山市中区",
    "town": "高島新屋敷"
  },
  "7038242": {
    "zipcode": "7038242",
    "prefectureCode": "33",
    "prefectureNumber": 33,
    "prefecture": "岡山県",
    "city": "岡山市中区",
    "town": "高島"
  },
  "7038243": {
    "zipcode": "7038243",
    "prefectureCode": "33",
    "prefectureNumber": 33,
    "prefecture": "岡山県",
    "city": "岡山市中区",
    "town": "清水"
  },
  "7038244": {
    "zipcode": "7038244",
    "prefectureCode": "33",
    "prefectureNumber": 33,
    "prefecture": "岡山県",
    "city": "岡山市中区",
    "town": "藤原西町"
  },
  "7038245": {
    "zipcode": "7038245",
    "prefectureCode": "33",
    "prefectureNumber": 33,
    "prefecture": "岡山県",
    "city": "岡山市中区",
    "town": "藤原"
  },
  "7038246": {
    "zipcode": "7038246",
    "prefectureCode": "33",
    "prefectureNumber": 33,
    "prefecture": "岡山県",
    "city": "岡山市中区",
    "town": "藤原光町"
  },
  "7038247": {
    "zipcode": "7038247",
    "prefectureCode": "33",
    "prefectureNumber": 33,
    "prefecture": "岡山県",
    "city": "岡山市中区",
    "town": "さい東町"
  },
  "7038248": {
    "zipcode": "7038248",
    "prefectureCode": "33",
    "prefectureNumber": 33,
    "prefecture": "岡山県",
    "city": "岡山市中区",
    "town": "さい"
  },
  "7038251": {
    "zipcode": "7038251",
    "prefectureCode": "33",
    "prefectureNumber": 33,
    "prefecture": "岡山県",
    "city": "岡山市中区",
    "town": "竹田"
  },
  "7038252": {
    "zipcode": "7038252",
    "prefectureCode": "33",
    "prefectureNumber": 33,
    "prefecture": "岡山県",
    "city": "岡山市中区",
    "town": "中島"
  },
  "7038253": {
    "zipcode": "7038253",
    "prefectureCode": "33",
    "prefectureNumber": 33,
    "prefecture": "岡山県",
    "city": "岡山市中区",
    "town": "八幡東町"
  },
  "7038254": {
    "zipcode": "7038254",
    "prefectureCode": "33",
    "prefectureNumber": 33,
    "prefecture": "岡山県",
    "city": "岡山市中区",
    "town": "八幡"
  },
  "7038255": {
    "zipcode": "7038255",
    "prefectureCode": "33",
    "prefectureNumber": 33,
    "prefecture": "岡山県",
    "city": "岡山市中区",
    "town": "東川原"
  },
  "7038256": {
    "zipcode": "7038256",
    "prefectureCode": "33",
    "prefectureNumber": 33,
    "prefecture": "岡山県",
    "city": "岡山市中区",
    "town": "浜"
  },
  "7038257": {
    "zipcode": "7038257",
    "prefectureCode": "33",
    "prefectureNumber": 33,
    "prefecture": "岡山県",
    "city": "岡山市北区",
    "town": "後楽園"
  },
  "7038258": {
    "zipcode": "7038258",
    "prefectureCode": "33",
    "prefectureNumber": 33,
    "prefecture": "岡山県",
    "city": "岡山市中区",
    "town": "西川原"
  },
  "7038261": {
    "zipcode": "7038261",
    "prefectureCode": "33",
    "prefectureNumber": 33,
    "prefecture": "岡山県",
    "city": "岡山市中区",
    "town": "海吉"
  },
  "7038262": {
    "zipcode": "7038262",
    "prefectureCode": "33",
    "prefectureNumber": 33,
    "prefecture": "岡山県",
    "city": "岡山市中区",
    "town": "福泊"
  },
  "7038263": {
    "zipcode": "7038263",
    "prefectureCode": "33",
    "prefectureNumber": 33,
    "prefecture": "岡山県",
    "city": "岡山市中区",
    "town": "倉益"
  },
  "7038264": {
    "zipcode": "7038264",
    "prefectureCode": "33",
    "prefectureNumber": 33,
    "prefecture": "岡山県",
    "city": "岡山市中区",
    "town": "倉富"
  },
  "7038265": {
    "zipcode": "7038265",
    "prefectureCode": "33",
    "prefectureNumber": 33,
    "prefecture": "岡山県",
    "city": "岡山市中区",
    "town": "倉田"
  },
  "7038266": {
    "zipcode": "7038266",
    "prefectureCode": "33",
    "prefectureNumber": 33,
    "prefecture": "岡山県",
    "city": "岡山市中区",
    "town": "湊"
  },
  "7038267": {
    "zipcode": "7038267",
    "prefectureCode": "33",
    "prefectureNumber": 33,
    "prefecture": "岡山県",
    "city": "岡山市中区",
    "town": "山崎"
  },
  "7038271": {
    "zipcode": "7038271",
    "prefectureCode": "33",
    "prefectureNumber": 33,
    "prefecture": "岡山県",
    "city": "岡山市中区",
    "town": "円山"
  },
  "7038272": {
    "zipcode": "7038272",
    "prefectureCode": "33",
    "prefectureNumber": 33,
    "prefecture": "岡山県",
    "city": "岡山市中区",
    "town": "奥市"
  },
  "7038273": {
    "zipcode": "7038273",
    "prefectureCode": "33",
    "prefectureNumber": 33,
    "prefecture": "岡山県",
    "city": "岡山市中区",
    "town": "門田文化町"
  },
  "7038274": {
    "zipcode": "7038274",
    "prefectureCode": "33",
    "prefectureNumber": 33,
    "prefecture": "岡山県",
    "city": "岡山市中区",
    "town": "門田本町"
  },
  "7038275": {
    "zipcode": "7038275",
    "prefectureCode": "33",
    "prefectureNumber": 33,
    "prefecture": "岡山県",
    "city": "岡山市中区",
    "town": "門田屋敷"
  },
  "7038276": {
    "zipcode": "7038276",
    "prefectureCode": "33",
    "prefectureNumber": 33,
    "prefecture": "岡山県",
    "city": "岡山市中区",
    "town": "門田屋敷本町"
  },
  "7038277": {
    "zipcode": "7038277",
    "prefectureCode": "33",
    "prefectureNumber": 33,
    "prefecture": "岡山県",
    "city": "岡山市中区",
    "town": "御成町"
  },
  "7038278": {
    "zipcode": "7038278",
    "prefectureCode": "33",
    "prefectureNumber": 33,
    "prefecture": "岡山県",
    "city": "岡山市中区",
    "town": "古京町"
  },
  "7038281": {
    "zipcode": "7038281",
    "prefectureCode": "33",
    "prefectureNumber": 33,
    "prefecture": "岡山県",
    "city": "岡山市中区",
    "town": "東山"
  },
  "7038282": {
    "zipcode": "7038282",
    "prefectureCode": "33",
    "prefectureNumber": 33,
    "prefecture": "岡山県",
    "city": "岡山市中区",
    "town": "平井"
  },
  "7038283": {
    "zipcode": "7038283",
    "prefectureCode": "33",
    "prefectureNumber": 33,
    "prefecture": "岡山県",
    "city": "岡山市中区",
    "town": "赤坂南新町"
  },
  "7038284": {
    "zipcode": "7038284",
    "prefectureCode": "33",
    "prefectureNumber": 33,
    "prefecture": "岡山県",
    "city": "岡山市中区",
    "town": "網浜"
  },
  "7038285": {
    "zipcode": "7038285",
    "prefectureCode": "33",
    "prefectureNumber": 33,
    "prefecture": "岡山県",
    "city": "岡山市中区",
    "town": "桜橋"
  },
  "7038286": {
    "zipcode": "7038286",
    "prefectureCode": "33",
    "prefectureNumber": 33,
    "prefecture": "岡山県",
    "city": "岡山市中区",
    "town": "旭東町"
  },
  "7038287": {
    "zipcode": "7038287",
    "prefectureCode": "33",
    "prefectureNumber": 33,
    "prefecture": "岡山県",
    "city": "岡山市中区",
    "town": "赤坂台"
  },
  "7038288": {
    "zipcode": "7038288",
    "prefectureCode": "33",
    "prefectureNumber": 33,
    "prefecture": "岡山県",
    "city": "岡山市中区",
    "town": "赤坂本町"
  },
  "7038291": {
    "zipcode": "7038291",
    "prefectureCode": "33",
    "prefectureNumber": 33,
    "prefecture": "岡山県",
    "city": "岡山市中区",
    "town": "徳吉町"
  },
  "7038292": {
    "zipcode": "7038292",
    "prefectureCode": "33",
    "prefectureNumber": 33,
    "prefecture": "岡山県",
    "city": "岡山市中区",
    "town": "中納言町"
  },
  "7038293": {
    "zipcode": "7038293",
    "prefectureCode": "33",
    "prefectureNumber": 33,
    "prefecture": "岡山県",
    "city": "岡山市中区",
    "town": "小橋町"
  },
  "7038294": {
    "zipcode": "7038294",
    "prefectureCode": "33",
    "prefectureNumber": 33,
    "prefecture": "岡山県",
    "city": "岡山市中区",
    "town": "新京橋"
  },
  "7038295": {
    "zipcode": "7038295",
    "prefectureCode": "33",
    "prefectureNumber": 33,
    "prefecture": "岡山県",
    "city": "岡山市中区",
    "town": "御幸町"
  },
  "7038296": {
    "zipcode": "7038296",
    "prefectureCode": "33",
    "prefectureNumber": 33,
    "prefecture": "岡山県",
    "city": "岡山市中区",
    "town": "さくら住座"
  },
  "7038297": {
    "zipcode": "7038297",
    "prefectureCode": "33",
    "prefectureNumber": 33,
    "prefecture": "岡山県",
    "city": "岡山市中区",
    "town": "東中島町"
  },
  "7038298": {
    "zipcode": "7038298",
    "prefectureCode": "33",
    "prefectureNumber": 33,
    "prefecture": "岡山県",
    "city": "岡山市中区",
    "town": "西中島町"
  }
}
