{
  "7048101": {
    "zipcode": "7048101",
    "prefectureCode": "33",
    "prefectureNumber": 33,
    "prefecture": "岡山県",
    "city": "岡山市東区",
    "town": "西隆寺"
  },
  "7048102": {
    "zipcode": "7048102",
    "prefectureCode": "33",
    "prefectureNumber": 33,
    "prefecture": "岡山県",
    "city": "岡山市東区",
    "town": "久保"
  },
  "7048103": {
    "zipcode": "7048103",
    "prefectureCode": "33",
    "prefectureNumber": 33,
    "prefecture": "岡山県",
    "city": "岡山市東区",
    "town": "河本町"
  },
  "7048104": {
    "zipcode": "7048104",
    "prefectureCode": "33",
    "prefectureNumber": 33,
    "prefecture": "岡山県",
    "city": "岡山市東区",
    "town": "富崎"
  },
  "7048105": {
    "zipcode": "7048105",
    "prefectureCode": "33",
    "prefectureNumber": 33,
    "prefecture": "岡山県",
    "city": "岡山市東区",
    "town": "吉原"
  },
  "7048106": {
    "zipcode": "7048106",
    "prefectureCode": "33",
    "prefectureNumber": 33,
    "prefecture": "岡山県",
    "city": "岡山市東区",
    "town": "西庄"
  },
  "7048107": {
    "zipcode": "7048107",
    "prefectureCode": "33",
    "prefectureNumber": 33,
    "prefecture": "岡山県",
    "city": "岡山市東区",
    "town": "福治"
  },
  "7048111": {
    "zipcode": "7048111",
    "prefectureCode": "33",
    "prefectureNumber": 33,
    "prefecture": "岡山県",
    "city": "岡山市東区",
    "town": "西大寺北"
  },
  "7048112": {
    "zipcode": "7048112",
    "prefectureCode": "33",
    "prefectureNumber": 33,
    "prefecture": "岡山県",
    "city": "岡山市東区",
    "town": "西大寺上"
  },
  "7048113": {
    "zipcode": "7048113",
    "prefectureCode": "33",
    "prefectureNumber": 33,
    "prefecture": "岡山県",
    "city": "岡山市東区",
    "town": "西大寺"
  },
  "7048114": {
    "zipcode": "7048114",
    "prefectureCode": "33",
    "prefectureNumber": 33,
    "prefecture": "岡山県",
    "city": "岡山市東区",
    "town": "西大寺東"
  },
  "7048115": {
    "zipcode": "7048115",
    "prefectureCode": "33",
    "prefectureNumber": 33,
    "prefecture": "岡山県",
    "city": "岡山市東区",
    "town": "向州"
  },
  "7048116": {
    "zipcode": "7048116",
    "prefectureCode": "33",
    "prefectureNumber": 33,
    "prefecture": "岡山県",
    "city": "岡山市東区",
    "town": "西大寺中"
  },
  "7048117": {
    "zipcode": "7048117",
    "prefectureCode": "33",
    "prefectureNumber": 33,
    "prefecture": "岡山県",
    "city": "岡山市東区",
    "town": "西大寺南"
  },
  "7048121": {
    "zipcode": "7048121",
    "prefectureCode": "33",
    "prefectureNumber": 33,
    "prefecture": "岡山県",
    "city": "岡山市東区",
    "town": "西大寺射越"
  },
  "7048122": {
    "zipcode": "7048122",
    "prefectureCode": "33",
    "prefectureNumber": 33,
    "prefecture": "岡山県",
    "city": "岡山市東区",
    "town": "西大寺新地"
  },
  "7048123": {
    "zipcode": "7048123",
    "prefectureCode": "33",
    "prefectureNumber": 33,
    "prefecture": "岡山県",
    "city": "岡山市東区",
    "town": "西大寺門前"
  },
  "7048124": {
    "zipcode": "7048124",
    "prefectureCode": "33",
    "prefectureNumber": 33,
    "prefecture": "岡山県",
    "city": "岡山市東区",
    "town": "西大寺五明"
  },
  "7048125": {
    "zipcode": "7048125",
    "prefectureCode": "33",
    "prefectureNumber": 33,
    "prefecture": "岡山県",
    "city": "岡山市東区",
    "town": "西大寺川口"
  },
  "7048126": {
    "zipcode": "7048126",
    "prefectureCode": "33",
    "prefectureNumber": 33,
    "prefecture": "岡山県",
    "city": "岡山市東区",
    "town": "西大寺浜"
  },
  "7048127": {
    "zipcode": "7048127",
    "prefectureCode": "33",
    "prefectureNumber": 33,
    "prefecture": "岡山県",
    "city": "岡山市東区",
    "town": "西大寺新"
  },
  "7048131": {
    "zipcode": "7048131",
    "prefectureCode": "33",
    "prefectureNumber": 33,
    "prefecture": "岡山県",
    "city": "岡山市東区",
    "town": "長沼"
  },
  "7048132": {
    "zipcode": "7048132",
    "prefectureCode": "33",
    "prefectureNumber": 33,
    "prefecture": "岡山県",
    "city": "岡山市東区",
    "town": "邑久郷"
  },
  "7048133": {
    "zipcode": "7048133",
    "prefectureCode": "33",
    "prefectureNumber": 33,
    "prefecture": "岡山県",
    "city": "岡山市東区",
    "town": "宿毛"
  },
  "7048134": {
    "zipcode": "7048134",
    "prefectureCode": "33",
    "prefectureNumber": 33,
    "prefecture": "岡山県",
    "city": "岡山市東区",
    "town": "北幸田"
  },
  "7048135": {
    "zipcode": "7048135",
    "prefectureCode": "33",
    "prefectureNumber": 33,
    "prefecture": "岡山県",
    "city": "岡山市東区",
    "town": "東幸西"
  },
  "7048136": {
    "zipcode": "7048136",
    "prefectureCode": "33",
    "prefectureNumber": 33,
    "prefecture": "岡山県",
    "city": "岡山市東区",
    "town": "西幸西"
  },
  "7048137": {
    "zipcode": "7048137",
    "prefectureCode": "33",
    "prefectureNumber": 33,
    "prefecture": "岡山県",
    "city": "岡山市東区",
    "town": "乙子"
  },
  "7048138": {
    "zipcode": "7048138",
    "prefectureCode": "33",
    "prefectureNumber": 33,
    "prefecture": "岡山県",
    "city": "岡山市東区",
    "town": "神崎町"
  },
  "7048141": {
    "zipcode": "7048141",
    "prefectureCode": "33",
    "prefectureNumber": 33,
    "prefecture": "岡山県",
    "city": "岡山市東区",
    "town": "下阿知"
  },
  "7048142": {
    "zipcode": "7048142",
    "prefectureCode": "33",
    "prefectureNumber": 33,
    "prefecture": "岡山県",
    "city": "岡山市東区",
    "town": "上阿知"
  },
  "7048143": {
    "zipcode": "7048143",
    "prefectureCode": "33",
    "prefectureNumber": 33,
    "prefecture": "岡山県",
    "city": "岡山市東区",
    "town": "千手"
  },
  "7048144": {
    "zipcode": "7048144",
    "prefectureCode": "33",
    "prefectureNumber": 33,
    "prefecture": "岡山県",
    "city": "岡山市東区",
    "town": "西大寺一宮"
  },
  "7048145": {
    "zipcode": "7048145",
    "prefectureCode": "33",
    "prefectureNumber": 33,
    "prefecture": "岡山県",
    "city": "岡山市東区",
    "town": "東幸崎"
  },
  "7048146": {
    "zipcode": "7048146",
    "prefectureCode": "33",
    "prefectureNumber": 33,
    "prefecture": "岡山県",
    "city": "岡山市東区",
    "town": "南水門町"
  },
  "7048147": {
    "zipcode": "7048147",
    "prefectureCode": "33",
    "prefectureNumber": 33,
    "prefecture": "岡山県",
    "city": "岡山市東区",
    "town": "正儀"
  },
  "7048148": {
    "zipcode": "7048148",
    "prefectureCode": "33",
    "prefectureNumber": 33,
    "prefecture": "岡山県",
    "city": "岡山市東区",
    "town": "水門町"
  },
  "7048149": {
    "zipcode": "7048149",
    "prefectureCode": "33",
    "prefectureNumber": 33,
    "prefecture": "岡山県",
    "city": "岡山市東区",
    "town": "幸地崎町"
  },
  "7048151": {
    "zipcode": "7048151",
    "prefectureCode": "33",
    "prefectureNumber": 33,
    "prefecture": "岡山県",
    "city": "岡山市東区",
    "town": "東片岡"
  },
  "7048152": {
    "zipcode": "7048152",
    "prefectureCode": "33",
    "prefectureNumber": 33,
    "prefecture": "岡山県",
    "city": "岡山市東区",
    "town": "宝伝"
  },
  "7048153": {
    "zipcode": "7048153",
    "prefectureCode": "33",
    "prefectureNumber": 33,
    "prefecture": "岡山県",
    "city": "岡山市東区",
    "town": "犬島"
  },
  "7048154": {
    "zipcode": "7048154",
    "prefectureCode": "33",
    "prefectureNumber": 33,
    "prefecture": "岡山県",
    "city": "岡山市東区",
    "town": "久々井"
  },
  "7048155": {
    "zipcode": "7048155",
    "prefectureCode": "33",
    "prefectureNumber": 33,
    "prefecture": "岡山県",
    "city": "岡山市東区",
    "town": "西片岡"
  },
  "7048161": {
    "zipcode": "7048161",
    "prefectureCode": "33",
    "prefectureNumber": 33,
    "prefecture": "岡山県",
    "city": "岡山市東区",
    "town": "九蟠"
  },
  "7048162": {
    "zipcode": "7048162",
    "prefectureCode": "33",
    "prefectureNumber": 33,
    "prefecture": "岡山県",
    "city": "岡山市東区",
    "town": "豊田"
  },
  "7048163": {
    "zipcode": "7048163",
    "prefectureCode": "33",
    "prefectureNumber": 33,
    "prefecture": "岡山県",
    "city": "岡山市東区",
    "town": "升田"
  },
  "7048164": {
    "zipcode": "7048164",
    "prefectureCode": "33",
    "prefectureNumber": 33,
    "prefecture": "岡山県",
    "city": "岡山市東区",
    "town": "光津"
  },
  "7048165": {
    "zipcode": "7048165",
    "prefectureCode": "33",
    "prefectureNumber": 33,
    "prefecture": "岡山県",
    "city": "岡山市東区",
    "town": "政津"
  },
  "7048166": {
    "zipcode": "7048166",
    "prefectureCode": "33",
    "prefectureNumber": 33,
    "prefecture": "岡山県",
    "city": "岡山市東区",
    "town": "君津"
  },
  "7048171": {
    "zipcode": "7048171",
    "prefectureCode": "33",
    "prefectureNumber": 33,
    "prefecture": "岡山県",
    "city": "岡山市東区",
    "town": "目黒町"
  },
  "7048172": {
    "zipcode": "7048172",
    "prefectureCode": "33",
    "prefectureNumber": 33,
    "prefecture": "岡山県",
    "city": "岡山市東区",
    "town": "大多羅町"
  },
  "7048173": {
    "zipcode": "7048173",
    "prefectureCode": "33",
    "prefectureNumber": 33,
    "prefecture": "岡山県",
    "city": "岡山市東区",
    "town": "可知"
  },
  "7048174": {
    "zipcode": "7048174",
    "prefectureCode": "33",
    "prefectureNumber": 33,
    "prefecture": "岡山県",
    "city": "岡山市東区",
    "town": "松新町"
  },
  "7048175": {
    "zipcode": "7048175",
    "prefectureCode": "33",
    "prefectureNumber": 33,
    "prefecture": "岡山県",
    "city": "岡山市東区",
    "town": "益野町"
  },
  "7048176": {
    "zipcode": "7048176",
    "prefectureCode": "33",
    "prefectureNumber": 33,
    "prefecture": "岡山県",
    "city": "岡山市東区",
    "town": "中川町"
  },
  "7048181": {
    "zipcode": "7048181",
    "prefectureCode": "33",
    "prefectureNumber": 33,
    "prefecture": "岡山県",
    "city": "岡山市東区",
    "town": "浅越"
  },
  "7048182": {
    "zipcode": "7048182",
    "prefectureCode": "33",
    "prefectureNumber": 33,
    "prefecture": "岡山県",
    "city": "岡山市東区",
    "town": "広谷"
  },
  "7048183": {
    "zipcode": "7048183",
    "prefectureCode": "33",
    "prefectureNumber": 33,
    "prefecture": "岡山県",
    "city": "岡山市東区",
    "town": "西大寺松崎"
  },
  "7048184": {
    "zipcode": "7048184",
    "prefectureCode": "33",
    "prefectureNumber": 33,
    "prefecture": "岡山県",
    "city": "岡山市東区",
    "town": "富士見町"
  },
  "7048191": {
    "zipcode": "7048191",
    "prefectureCode": "33",
    "prefectureNumber": 33,
    "prefecture": "岡山県",
    "city": "岡山市東区",
    "town": "西大寺中野"
  },
  "7048192": {
    "zipcode": "7048192",
    "prefectureCode": "33",
    "prefectureNumber": 33,
    "prefecture": "岡山県",
    "city": "岡山市東区",
    "town": "西大寺中野本町"
  },
  "7048193": {
    "zipcode": "7048193",
    "prefectureCode": "33",
    "prefectureNumber": 33,
    "prefecture": "岡山県",
    "city": "岡山市東区",
    "town": "金岡西町"
  },
  "7048194": {
    "zipcode": "7048194",
    "prefectureCode": "33",
    "prefectureNumber": 33,
    "prefecture": "岡山県",
    "city": "岡山市東区",
    "town": "金岡東町"
  },
  "7048195": {
    "zipcode": "7048195",
    "prefectureCode": "33",
    "prefectureNumber": 33,
    "prefecture": "岡山県",
    "city": "岡山市東区",
    "town": "西大寺金岡"
  },
  "7048196": {
    "zipcode": "7048196",
    "prefectureCode": "33",
    "prefectureNumber": 33,
    "prefecture": "岡山県",
    "city": "岡山市東区",
    "town": "金田"
  }
}
