{
  "7050000": {
    "zipcode": "7050000",
    "prefectureCode": "33",
    "prefectureNumber": 33,
    "prefecture": "岡山県",
    "city": "備前市",
    "town": "以下に掲載がない場合"
  },
  "7050001": {
    "zipcode": "7050001",
    "prefectureCode": "33",
    "prefectureNumber": 33,
    "prefecture": "岡山県",
    "city": "備前市",
    "town": "伊部"
  },
  "7050002": {
    "zipcode": "7050002",
    "prefectureCode": "33",
    "prefectureNumber": 33,
    "prefecture": "岡山県",
    "city": "備前市",
    "town": "浦伊部"
  },
  "7050003": {
    "zipcode": "7050003",
    "prefectureCode": "33",
    "prefectureNumber": 33,
    "prefecture": "岡山県",
    "city": "備前市",
    "town": "大内"
  },
  "7050011": {
    "zipcode": "7050011",
    "prefectureCode": "33",
    "prefectureNumber": 33,
    "prefecture": "岡山県",
    "city": "備前市",
    "town": "香登西"
  },
  "7050012": {
    "zipcode": "7050012",
    "prefectureCode": "33",
    "prefectureNumber": 33,
    "prefecture": "岡山県",
    "city": "備前市",
    "town": "香登本"
  },
  "7050013": {
    "zipcode": "7050013",
    "prefectureCode": "33",
    "prefectureNumber": 33,
    "prefecture": "岡山県",
    "city": "備前市",
    "town": "福田"
  },
  "7050014": {
    "zipcode": "7050014",
    "prefectureCode": "33",
    "prefectureNumber": 33,
    "prefecture": "岡山県",
    "city": "備前市",
    "town": "新庄"
  },
  "7050015": {
    "zipcode": "7050015",
    "prefectureCode": "33",
    "prefectureNumber": 33,
    "prefecture": "岡山県",
    "city": "備前市",
    "town": "畠田"
  },
  "7050016": {
    "zipcode": "7050016",
    "prefectureCode": "33",
    "prefectureNumber": 33,
    "prefecture": "岡山県",
    "city": "備前市",
    "town": "坂根"
  },
  "7050021": {
    "zipcode": "7050021",
    "prefectureCode": "33",
    "prefectureNumber": 33,
    "prefecture": "岡山県",
    "city": "備前市",
    "town": "西片上"
  },
  "7050022": {
    "zipcode": "7050022",
    "prefectureCode": "33",
    "prefectureNumber": 33,
    "prefecture": "岡山県",
    "city": "備前市",
    "town": "東片上"
  },
  "7050023": {
    "zipcode": "7050023",
    "prefectureCode": "33",
    "prefectureNumber": 33,
    "prefecture": "岡山県",
    "city": "備前市",
    "town": "伊里中"
  },
  "7050024": {
    "zipcode": "7050024",
    "prefectureCode": "33",
    "prefectureNumber": 33,
    "prefecture": "岡山県",
    "city": "備前市",
    "town": "久々井"
  },
  "7050025": {
    "zipcode": "7050025",
    "prefectureCode": "33",
    "prefectureNumber": 33,
    "prefecture": "岡山県",
    "city": "備前市",
    "town": "鶴海"
  },
  "7050026": {
    "zipcode": "7050026",
    "prefectureCode": "33",
    "prefectureNumber": 33,
    "prefecture": "岡山県",
    "city": "備前市",
    "town": "佐山"
  },
  "7050031": {
    "zipcode": "7050031",
    "prefectureCode": "33",
    "prefectureNumber": 33,
    "prefecture": "岡山県",
    "city": "備前市",
    "town": "蕃山"
  },
  "7050032": {
    "zipcode": "7050032",
    "prefectureCode": "33",
    "prefectureNumber": 33,
    "prefecture": "岡山県",
    "city": "備前市",
    "town": "麻宇那"
  },
  "7050033": {
    "zipcode": "7050033",
    "prefectureCode": "33",
    "prefectureNumber": 33,
    "prefecture": "岡山県",
    "city": "備前市",
    "town": "穂浪"
  },
  "7050034": {
    "zipcode": "7050034",
    "prefectureCode": "33",
    "prefectureNumber": 33,
    "prefecture": "岡山県",
    "city": "備前市",
    "town": "友延"
  },
  "7050035": {
    "zipcode": "7050035",
    "prefectureCode": "33",
    "prefectureNumber": 33,
    "prefecture": "岡山県",
    "city": "備前市",
    "town": "木谷"
  },
  "7050036": {
    "zipcode": "7050036",
    "prefectureCode": "33",
    "prefectureNumber": 33,
    "prefecture": "岡山県",
    "city": "備前市",
    "town": "閑谷"
  },
  "7050131": {
    "zipcode": "7050131",
    "prefectureCode": "33",
    "prefectureNumber": 33,
    "prefecture": "岡山県",
    "city": "備前市",
    "town": "野谷"
  },
  "7050132": {
    "zipcode": "7050132",
    "prefectureCode": "33",
    "prefectureNumber": 33,
    "prefecture": "岡山県",
    "city": "備前市",
    "town": "三石"
  },
  "7050133": {
    "zipcode": "7050133",
    "prefectureCode": "33",
    "prefectureNumber": 33,
    "prefecture": "岡山県",
    "city": "備前市",
    "town": "八木山"
  }
}
