{
  "7080000": {
    "zipcode": "7080000",
    "prefectureCode": "33",
    "prefectureNumber": 33,
    "prefecture": "岡山県",
    "city": "津山市",
    "town": "以下に掲載がない場合"
  },
  "7080001": {
    "zipcode": "7080001",
    "prefectureCode": "33",
    "prefectureNumber": 33,
    "prefecture": "岡山県",
    "city": "津山市",
    "town": "小原"
  },
  "7080002": {
    "zipcode": "7080002",
    "prefectureCode": "33",
    "prefectureNumber": 33,
    "prefecture": "岡山県",
    "city": "津山市",
    "town": "上河原"
  },
  "7080003": {
    "zipcode": "7080003",
    "prefectureCode": "33",
    "prefectureNumber": 33,
    "prefecture": "岡山県",
    "city": "津山市",
    "town": "北園町"
  },
  "7080004": {
    "zipcode": "7080004",
    "prefectureCode": "33",
    "prefectureNumber": 33,
    "prefecture": "岡山県",
    "city": "津山市",
    "town": "山北"
  },
  "7080005": {
    "zipcode": "7080005",
    "prefectureCode": "33",
    "prefectureNumber": 33,
    "prefecture": "岡山県",
    "city": "津山市",
    "town": "城代町"
  },
  "7080006": {
    "zipcode": "7080006",
    "prefectureCode": "33",
    "prefectureNumber": 33,
    "prefecture": "岡山県",
    "city": "津山市",
    "town": "小田中"
  },
  "7080007": {
    "zipcode": "7080007",
    "prefectureCode": "33",
    "prefectureNumber": 33,
    "prefecture": "岡山県",
    "city": "津山市",
    "town": "総社"
  },
  "7080011": {
    "zipcode": "7080011",
    "prefectureCode": "33",
    "prefectureNumber": 33,
    "prefecture": "岡山県",
    "city": "津山市",
    "town": "上田邑"
  },
  "7080012": {
    "zipcode": "7080012",
    "prefectureCode": "33",
    "prefectureNumber": 33,
    "prefecture": "岡山県",
    "city": "津山市",
    "town": "下田邑"
  },
  "7080013": {
    "zipcode": "7080013",
    "prefectureCode": "33",
    "prefectureNumber": 33,
    "prefecture": "岡山県",
    "city": "津山市",
    "town": "二宮"
  },
  "7080014": {
    "zipcode": "7080014",
    "prefectureCode": "33",
    "prefectureNumber": 33,
    "prefecture": "岡山県",
    "city": "津山市",
    "town": "院庄"
  },
  "7080015": {
    "zipcode": "7080015",
    "prefectureCode": "33",
    "prefectureNumber": 33,
    "prefecture": "岡山県",
    "city": "津山市",
    "town": "神戸"
  },
  "7080016": {
    "zipcode": "7080016",
    "prefectureCode": "33",
    "prefectureNumber": 33,
    "prefecture": "岡山県",
    "city": "津山市",
    "town": "戸島"
  },
  "7080021": {
    "zipcode": "7080021",
    "prefectureCode": "33",
    "prefectureNumber": 33,
    "prefecture": "岡山県",
    "city": "津山市",
    "town": "北町"
  },
  "7080022": {
    "zipcode": "7080022",
    "prefectureCode": "33",
    "prefectureNumber": 33,
    "prefecture": "岡山県",
    "city": "津山市",
    "town": "山下"
  },
  "7080023": {
    "zipcode": "7080023",
    "prefectureCode": "33",
    "prefectureNumber": 33,
    "prefecture": "岡山県",
    "city": "津山市",
    "town": "大手町"
  },
  "7080024": {
    "zipcode": "7080024",
    "prefectureCode": "33",
    "prefectureNumber": 33,
    "prefecture": "岡山県",
    "city": "津山市",
    "town": "二階町"
  },
  "7080031": {
    "zipcode": "7080031",
    "prefectureCode": "33",
    "prefectureNumber": 33,
    "prefecture": "岡山県",
    "city": "津山市",
    "town": "材木町"
  },
  "7080032": {
    "zipcode": "7080032",
    "prefectureCode": "33",
    "prefectureNumber": 33,
    "prefecture": "岡山県",
    "city": "津山市",
    "town": "伏見町"
  },
  "7080033": {
    "zipcode": "7080033",
    "prefectureCode": "33",
    "prefectureNumber": 33,
    "prefecture": "岡山県",
    "city": "津山市",
    "town": "河原町"
  },
  "7080034": {
    "zipcode": "7080034",
    "prefectureCode": "33",
    "prefectureNumber": 33,
    "prefecture": "岡山県",
    "city": "津山市",
    "town": "船頭町"
  },
  "7080035": {
    "zipcode": "7080035",
    "prefectureCode": "33",
    "prefectureNumber": 33,
    "prefecture": "岡山県",
    "city": "津山市",
    "town": "吹屋町"
  },
  "7080036": {
    "zipcode": "7080036",
    "prefectureCode": "33",
    "prefectureNumber": 33,
    "prefecture": "岡山県",
    "city": "津山市",
    "town": "南新座"
  },
  "7080037": {
    "zipcode": "7080037",
    "prefectureCode": "33",
    "prefectureNumber": 33,
    "prefecture": "岡山県",
    "city": "津山市",
    "town": "戸川町"
  },
  "7080041": {
    "zipcode": "7080041",
    "prefectureCode": "33",
    "prefectureNumber": 33,
    "prefecture": "岡山県",
    "city": "津山市",
    "town": "鉄砲町"
  },
  "7080042": {
    "zipcode": "7080042",
    "prefectureCode": "33",
    "prefectureNumber": 33,
    "prefecture": "岡山県",
    "city": "津山市",
    "town": "新茅町"
  },
  "7080043": {
    "zipcode": "7080043",
    "prefectureCode": "33",
    "prefectureNumber": 33,
    "prefecture": "岡山県",
    "city": "津山市",
    "town": "茅町"
  },
  "7080044": {
    "zipcode": "7080044",
    "prefectureCode": "33",
    "prefectureNumber": 33,
    "prefecture": "岡山県",
    "city": "津山市",
    "town": "安岡町"
  },
  "7080045": {
    "zipcode": "7080045",
    "prefectureCode": "33",
    "prefectureNumber": 33,
    "prefecture": "岡山県",
    "city": "津山市",
    "town": "西寺町"
  },
  "7080046": {
    "zipcode": "7080046",
    "prefectureCode": "33",
    "prefectureNumber": 33,
    "prefecture": "岡山県",
    "city": "津山市",
    "town": "西今町"
  },
  "7080047": {
    "zipcode": "7080047",
    "prefectureCode": "33",
    "prefectureNumber": 33,
    "prefecture": "岡山県",
    "city": "津山市",
    "town": "宮脇町"
  },
  "7080051": {
    "zipcode": "7080051",
    "prefectureCode": "33",
    "prefectureNumber": 33,
    "prefecture": "岡山県",
    "city": "津山市",
    "town": "椿高下"
  },
  "7080052": {
    "zipcode": "7080052",
    "prefectureCode": "33",
    "prefectureNumber": 33,
    "prefecture": "岡山県",
    "city": "津山市",
    "town": "田町"
  },
  "7080053": {
    "zipcode": "7080053",
    "prefectureCode": "33",
    "prefectureNumber": 33,
    "prefecture": "岡山県",
    "city": "津山市",
    "town": "細工町"
  },
  "7080061": {
    "zipcode": "7080061",
    "prefectureCode": "33",
    "prefectureNumber": 33,
    "prefecture": "岡山県",
    "city": "津山市",
    "town": "元魚町"
  },
  "7080062": {
    "zipcode": "7080062",
    "prefectureCode": "33",
    "prefectureNumber": 33,
    "prefecture": "岡山県",
    "city": "津山市",
    "town": "京町"
  },
  "7080063": {
    "zipcode": "7080063",
    "prefectureCode": "33",
    "prefectureNumber": 33,
    "prefecture": "岡山県",
    "city": "津山市",
    "town": "小性町"
  },
  "7080064": {
    "zipcode": "7080064",
    "prefectureCode": "33",
    "prefectureNumber": 33,
    "prefecture": "岡山県",
    "city": "津山市",
    "town": "堺町"
  },
  "7080065": {
    "zipcode": "7080065",
    "prefectureCode": "33",
    "prefectureNumber": 33,
    "prefecture": "岡山県",
    "city": "津山市",
    "town": "新魚町"
  },
  "7080066": {
    "zipcode": "7080066",
    "prefectureCode": "33",
    "prefectureNumber": 33,
    "prefecture": "岡山県",
    "city": "津山市",
    "town": "桶屋町"
  },
  "7080067": {
    "zipcode": "7080067",
    "prefectureCode": "33",
    "prefectureNumber": 33,
    "prefecture": "岡山県",
    "city": "津山市",
    "town": "新職人町"
  },
  "7080071": {
    "zipcode": "7080071",
    "prefectureCode": "33",
    "prefectureNumber": 33,
    "prefecture": "岡山県",
    "city": "津山市",
    "town": "下紺屋町"
  },
  "7080072": {
    "zipcode": "7080072",
    "prefectureCode": "33",
    "prefectureNumber": 33,
    "prefecture": "岡山県",
    "city": "津山市",
    "town": "美濃町"
  },
  "7080073": {
    "zipcode": "7080073",
    "prefectureCode": "33",
    "prefectureNumber": 33,
    "prefecture": "岡山県",
    "city": "津山市",
    "town": "本町"
  },
  "7080074": {
    "zipcode": "7080074",
    "prefectureCode": "33",
    "prefectureNumber": 33,
    "prefecture": "岡山県",
    "city": "津山市",
    "town": "福渡町"
  },
  "7080075": {
    "zipcode": "7080075",
    "prefectureCode": "33",
    "prefectureNumber": 33,
    "prefecture": "岡山県",
    "city": "津山市",
    "town": "坪井町"
  },
  "7080076": {
    "zipcode": "7080076",
    "prefectureCode": "33",
    "prefectureNumber": 33,
    "prefecture": "岡山県",
    "city": "津山市",
    "town": "上紺屋町"
  },
  "7080077": {
    "zipcode": "7080077",
    "prefectureCode": "33",
    "prefectureNumber": 33,
    "prefecture": "岡山県",
    "city": "津山市",
    "town": "鍛治町"
  },
  "7080300": {
    "zipcode": "7080300",
    "prefectureCode": "33",
    "prefectureNumber": 33,
    "prefecture": "岡山県",
    "city": "苫田郡鏡野町",
    "town": "以下に掲載がない場合"
  },
  "7080301": {
    "zipcode": "7080301",
    "prefectureCode": "33",
    "prefectureNumber": 33,
    "prefecture": "岡山県",
    "city": "苫田郡鏡野町",
    "town": "越畑"
  },
  "7080302": {
    "zipcode": "7080302",
    "prefectureCode": "33",
    "prefectureNumber": 33,
    "prefecture": "岡山県",
    "city": "苫田郡鏡野町",
    "town": "岩屋"
  },
  "7080303": {
    "zipcode": "7080303",
    "prefectureCode": "33",
    "prefectureNumber": 33,
    "prefecture": "岡山県",
    "city": "苫田郡鏡野町",
    "town": "大町"
  },
  "7080304": {
    "zipcode": "7080304",
    "prefectureCode": "33",
    "prefectureNumber": 33,
    "prefecture": "岡山県",
    "city": "苫田郡鏡野町",
    "town": "真経"
  },
  "7080305": {
    "zipcode": "7080305",
    "prefectureCode": "33",
    "prefectureNumber": 33,
    "prefecture": "岡山県",
    "city": "苫田郡鏡野町",
    "town": "百谷"
  },
  "7080311": {
    "zipcode": "7080311",
    "prefectureCode": "33",
    "prefectureNumber": 33,
    "prefecture": "岡山県",
    "city": "苫田郡鏡野町",
    "town": "寺和田"
  },
  "7080312": {
    "zipcode": "7080312",
    "prefectureCode": "33",
    "prefectureNumber": 33,
    "prefecture": "岡山県",
    "city": "苫田郡鏡野町",
    "town": "香々美"
  },
  "7080313": {
    "zipcode": "7080313",
    "prefectureCode": "33",
    "prefectureNumber": 33,
    "prefecture": "岡山県",
    "city": "苫田郡鏡野町",
    "town": "公保田"
  },
  "7080314": {
    "zipcode": "7080314",
    "prefectureCode": "33",
    "prefectureNumber": 33,
    "prefecture": "岡山県",
    "city": "苫田郡鏡野町",
    "town": "沢田"
  },
  "7080315": {
    "zipcode": "7080315",
    "prefectureCode": "33",
    "prefectureNumber": 33,
    "prefecture": "岡山県",
    "city": "苫田郡鏡野町",
    "town": "市場"
  },
  "7080316": {
    "zipcode": "7080316",
    "prefectureCode": "33",
    "prefectureNumber": 33,
    "prefecture": "岡山県",
    "city": "苫田郡鏡野町",
    "town": "和田"
  },
  "7080317": {
    "zipcode": "7080317",
    "prefectureCode": "33",
    "prefectureNumber": 33,
    "prefecture": "岡山県",
    "city": "苫田郡鏡野町",
    "town": "土居"
  },
  "7080321": {
    "zipcode": "7080321",
    "prefectureCode": "33",
    "prefectureNumber": 33,
    "prefecture": "岡山県",
    "city": "苫田郡鏡野町",
    "town": "円宗寺"
  },
  "7080322": {
    "zipcode": "7080322",
    "prefectureCode": "33",
    "prefectureNumber": 33,
    "prefecture": "岡山県",
    "city": "苫田郡鏡野町",
    "town": "沖"
  },
  "7080323": {
    "zipcode": "7080323",
    "prefectureCode": "33",
    "prefectureNumber": 33,
    "prefecture": "岡山県",
    "city": "苫田郡鏡野町",
    "town": "寺元"
  },
  "7080324": {
    "zipcode": "7080324",
    "prefectureCode": "33",
    "prefectureNumber": 33,
    "prefecture": "岡山県",
    "city": "苫田郡鏡野町",
    "town": "竹田"
  },
  "7080325": {
    "zipcode": "7080325",
    "prefectureCode": "33",
    "prefectureNumber": 33,
    "prefecture": "岡山県",
    "city": "苫田郡鏡野町",
    "town": "瀬戸"
  },
  "7080331": {
    "zipcode": "7080331",
    "prefectureCode": "33",
    "prefectureNumber": 33,
    "prefecture": "岡山県",
    "city": "苫田郡鏡野町",
    "town": "布原"
  },
  "7080332": {
    "zipcode": "7080332",
    "prefectureCode": "33",
    "prefectureNumber": 33,
    "prefecture": "岡山県",
    "city": "苫田郡鏡野町",
    "town": "吉原"
  },
  "7080333": {
    "zipcode": "7080333",
    "prefectureCode": "33",
    "prefectureNumber": 33,
    "prefecture": "岡山県",
    "city": "苫田郡鏡野町",
    "town": "古川"
  },
  "7080334": {
    "zipcode": "7080334",
    "prefectureCode": "33",
    "prefectureNumber": 33,
    "prefecture": "岡山県",
    "city": "苫田郡鏡野町",
    "town": "宗枝"
  },
  "7080335": {
    "zipcode": "7080335",
    "prefectureCode": "33",
    "prefectureNumber": 33,
    "prefecture": "岡山県",
    "city": "苫田郡鏡野町",
    "town": "真加部"
  },
  "7080341": {
    "zipcode": "7080341",
    "prefectureCode": "33",
    "prefectureNumber": 33,
    "prefecture": "岡山県",
    "city": "苫田郡鏡野町",
    "town": "下原"
  },
  "7080342": {
    "zipcode": "7080342",
    "prefectureCode": "33",
    "prefectureNumber": 33,
    "prefecture": "岡山県",
    "city": "苫田郡鏡野町",
    "town": "薪森原"
  },
  "7080343": {
    "zipcode": "7080343",
    "prefectureCode": "33",
    "prefectureNumber": 33,
    "prefecture": "岡山県",
    "city": "苫田郡鏡野町",
    "town": "河本"
  },
  "7080344": {
    "zipcode": "7080344",
    "prefectureCode": "33",
    "prefectureNumber": 33,
    "prefecture": "岡山県",
    "city": "苫田郡鏡野町",
    "town": "原"
  },
  "7080345": {
    "zipcode": "7080345",
    "prefectureCode": "33",
    "prefectureNumber": 33,
    "prefecture": "岡山県",
    "city": "苫田郡鏡野町",
    "town": "高山"
  },
  "7080351": {
    "zipcode": "7080351",
    "prefectureCode": "33",
    "prefectureNumber": 33,
    "prefecture": "岡山県",
    "city": "苫田郡鏡野町",
    "town": "入"
  },
  "7080352": {
    "zipcode": "7080352",
    "prefectureCode": "33",
    "prefectureNumber": 33,
    "prefecture": "岡山県",
    "city": "苫田郡鏡野町",
    "town": "山城"
  },
  "7080353": {
    "zipcode": "7080353",
    "prefectureCode": "33",
    "prefectureNumber": 33,
    "prefecture": "岡山県",
    "city": "苫田郡鏡野町",
    "town": "中谷"
  },
  "7080361": {
    "zipcode": "7080361",
    "prefectureCode": "33",
    "prefectureNumber": 33,
    "prefecture": "岡山県",
    "city": "苫田郡鏡野町",
    "town": "上森原"
  },
  "7080362": {
    "zipcode": "7080362",
    "prefectureCode": "33",
    "prefectureNumber": 33,
    "prefecture": "岡山県",
    "city": "苫田郡鏡野町",
    "town": "貞永寺"
  },
  "7080363": {
    "zipcode": "7080363",
    "prefectureCode": "33",
    "prefectureNumber": 33,
    "prefecture": "岡山県",
    "city": "苫田郡鏡野町",
    "town": "小座"
  },
  "7080364": {
    "zipcode": "7080364",
    "prefectureCode": "33",
    "prefectureNumber": 33,
    "prefecture": "岡山県",
    "city": "苫田郡鏡野町",
    "town": "下森原"
  },
  "7080365": {
    "zipcode": "7080365",
    "prefectureCode": "33",
    "prefectureNumber": 33,
    "prefecture": "岡山県",
    "city": "苫田郡鏡野町",
    "town": "塚谷"
  },
  "7080366": {
    "zipcode": "7080366",
    "prefectureCode": "33",
    "prefectureNumber": 33,
    "prefecture": "岡山県",
    "city": "苫田郡鏡野町",
    "town": "馬場"
  },
  "7080421": {
    "zipcode": "7080421",
    "prefectureCode": "33",
    "prefectureNumber": 33,
    "prefecture": "岡山県",
    "city": "苫田郡鏡野町",
    "town": "井坂"
  },
  "7080422": {
    "zipcode": "7080422",
    "prefectureCode": "33",
    "prefectureNumber": 33,
    "prefecture": "岡山県",
    "city": "苫田郡鏡野町",
    "town": "養野"
  },
  "7080423": {
    "zipcode": "7080423",
    "prefectureCode": "33",
    "prefectureNumber": 33,
    "prefecture": "岡山県",
    "city": "苫田郡鏡野町",
    "town": "女原"
  },
  "7080424": {
    "zipcode": "7080424",
    "prefectureCode": "33",
    "prefectureNumber": 33,
    "prefecture": "岡山県",
    "city": "苫田郡鏡野町",
    "town": "杉"
  },
  "7080425": {
    "zipcode": "7080425",
    "prefectureCode": "33",
    "prefectureNumber": 33,
    "prefecture": "岡山県",
    "city": "苫田郡鏡野町",
    "town": "箱"
  },
  "7080426": {
    "zipcode": "7080426",
    "prefectureCode": "33",
    "prefectureNumber": 33,
    "prefecture": "岡山県",
    "city": "苫田郡鏡野町",
    "town": "西屋"
  },
  "7080427": {
    "zipcode": "7080427",
    "prefectureCode": "33",
    "prefectureNumber": 33,
    "prefecture": "岡山県",
    "city": "苫田郡鏡野町",
    "town": "至孝農"
  },
  "7080431": {
    "zipcode": "7080431",
    "prefectureCode": "33",
    "prefectureNumber": 33,
    "prefecture": "岡山県",
    "city": "苫田郡鏡野町",
    "town": "河内"
  },
  "7080432": {
    "zipcode": "7080432",
    "prefectureCode": "33",
    "prefectureNumber": 33,
    "prefecture": "岡山県",
    "city": "苫田郡鏡野町",
    "town": "久田上原"
  },
  "7080433": {
    "zipcode": "7080433",
    "prefectureCode": "33",
    "prefectureNumber": 33,
    "prefecture": "岡山県",
    "city": "苫田郡鏡野町",
    "town": "久田下原"
  },
  "7080434": {
    "zipcode": "7080434",
    "prefectureCode": "33",
    "prefectureNumber": 33,
    "prefecture": "岡山県",
    "city": "苫田郡鏡野町",
    "town": "土生"
  },
  "7080435": {
    "zipcode": "7080435",
    "prefectureCode": "33",
    "prefectureNumber": 33,
    "prefecture": "岡山県",
    "city": "苫田郡鏡野町",
    "town": "黒木"
  },
  "7080501": {
    "zipcode": "7080501",
    "prefectureCode": "33",
    "prefectureNumber": 33,
    "prefecture": "岡山県",
    "city": "苫田郡鏡野町",
    "town": "下斎原"
  },
  "7080502": {
    "zipcode": "7080502",
    "prefectureCode": "33",
    "prefectureNumber": 33,
    "prefecture": "岡山県",
    "city": "苫田郡鏡野町",
    "town": "長藤"
  },
  "7080503": {
    "zipcode": "7080503",
    "prefectureCode": "33",
    "prefectureNumber": 33,
    "prefecture": "岡山県",
    "city": "苫田郡鏡野町",
    "town": "奥津"
  },
  "7080504": {
    "zipcode": "7080504",
    "prefectureCode": "33",
    "prefectureNumber": 33,
    "prefecture": "岡山県",
    "city": "苫田郡鏡野町",
    "town": "奥津川西"
  },
  "7080511": {
    "zipcode": "7080511",
    "prefectureCode": "33",
    "prefectureNumber": 33,
    "prefecture": "岡山県",
    "city": "苫田郡鏡野町",
    "town": "羽出"
  },
  "7080512": {
    "zipcode": "7080512",
    "prefectureCode": "33",
    "prefectureNumber": 33,
    "prefecture": "岡山県",
    "city": "苫田郡鏡野町",
    "town": "羽出西谷"
  },
  "7080601": {
    "zipcode": "7080601",
    "prefectureCode": "33",
    "prefectureNumber": 33,
    "prefecture": "岡山県",
    "city": "苫田郡鏡野町",
    "town": "上齋原"
  },
  "7080701": {
    "zipcode": "7080701",
    "prefectureCode": "33",
    "prefectureNumber": 33,
    "prefecture": "岡山県",
    "city": "苫田郡鏡野町",
    "town": "富西谷"
  },
  "7080702": {
    "zipcode": "7080702",
    "prefectureCode": "33",
    "prefectureNumber": 33,
    "prefecture": "岡山県",
    "city": "苫田郡鏡野町",
    "town": "富東谷"
  },
  "7080703": {
    "zipcode": "7080703",
    "prefectureCode": "33",
    "prefectureNumber": 33,
    "prefecture": "岡山県",
    "city": "苫田郡鏡野町",
    "town": "富仲間"
  },
  "7080704": {
    "zipcode": "7080704",
    "prefectureCode": "33",
    "prefectureNumber": 33,
    "prefecture": "岡山県",
    "city": "苫田郡鏡野町",
    "town": "大"
  },
  "7080705": {
    "zipcode": "7080705",
    "prefectureCode": "33",
    "prefectureNumber": 33,
    "prefecture": "岡山県",
    "city": "苫田郡鏡野町",
    "town": "楠"
  },
  "7080801": {
    "zipcode": "7080801",
    "prefectureCode": "33",
    "prefectureNumber": 33,
    "prefecture": "岡山県",
    "city": "津山市",
    "town": "上横野"
  },
  "7080802": {
    "zipcode": "7080802",
    "prefectureCode": "33",
    "prefectureNumber": 33,
    "prefecture": "岡山県",
    "city": "津山市",
    "town": "大篠"
  },
  "7080803": {
    "zipcode": "7080803",
    "prefectureCode": "33",
    "prefectureNumber": 33,
    "prefecture": "岡山県",
    "city": "津山市",
    "town": "籾保"
  },
  "7080804": {
    "zipcode": "7080804",
    "prefectureCode": "33",
    "prefectureNumber": 33,
    "prefecture": "岡山県",
    "city": "津山市",
    "town": "勝部"
  },
  "7080805": {
    "zipcode": "7080805",
    "prefectureCode": "33",
    "prefectureNumber": 33,
    "prefecture": "岡山県",
    "city": "津山市",
    "town": "紫保井"
  },
  "7080806": {
    "zipcode": "7080806",
    "prefectureCode": "33",
    "prefectureNumber": 33,
    "prefecture": "岡山県",
    "city": "津山市",
    "town": "大田"
  },
  "7080807": {
    "zipcode": "7080807",
    "prefectureCode": "33",
    "prefectureNumber": 33,
    "prefecture": "岡山県",
    "city": "津山市",
    "town": "下横野"
  },
  "7080811": {
    "zipcode": "7080811",
    "prefectureCode": "33",
    "prefectureNumber": 33,
    "prefecture": "岡山県",
    "city": "津山市",
    "town": "西田辺"
  },
  "7080812": {
    "zipcode": "7080812",
    "prefectureCode": "33",
    "prefectureNumber": 33,
    "prefecture": "岡山県",
    "city": "津山市",
    "town": "東田辺"
  },
  "7080813": {
    "zipcode": "7080813",
    "prefectureCode": "33",
    "prefectureNumber": 33,
    "prefecture": "岡山県",
    "city": "津山市",
    "town": "山方"
  },
  "7080814": {
    "zipcode": "7080814",
    "prefectureCode": "33",
    "prefectureNumber": 33,
    "prefecture": "岡山県",
    "city": "津山市",
    "town": "東一宮"
  },
  "7080815": {
    "zipcode": "7080815",
    "prefectureCode": "33",
    "prefectureNumber": 33,
    "prefecture": "岡山県",
    "city": "津山市",
    "town": "一宮"
  },
  "7080821": {
    "zipcode": "7080821",
    "prefectureCode": "33",
    "prefectureNumber": 33,
    "prefecture": "岡山県",
    "city": "津山市",
    "town": "野介代"
  },
  "7080822": {
    "zipcode": "7080822",
    "prefectureCode": "33",
    "prefectureNumber": 33,
    "prefecture": "岡山県",
    "city": "津山市",
    "town": "林田"
  },
  "7080823": {
    "zipcode": "7080823",
    "prefectureCode": "33",
    "prefectureNumber": 33,
    "prefecture": "岡山県",
    "city": "津山市",
    "town": "弥生町"
  },
  "7080824": {
    "zipcode": "7080824",
    "prefectureCode": "33",
    "prefectureNumber": 33,
    "prefecture": "岡山県",
    "city": "津山市",
    "town": "沼"
  },
  "7080825": {
    "zipcode": "7080825",
    "prefectureCode": "33",
    "prefectureNumber": 33,
    "prefecture": "岡山県",
    "city": "津山市",
    "town": "志戸部"
  },
  "7080831": {
    "zipcode": "7080831",
    "prefectureCode": "33",
    "prefectureNumber": 33,
    "prefecture": "岡山県",
    "city": "津山市",
    "town": "上之町"
  },
  "7080832": {
    "zipcode": "7080832",
    "prefectureCode": "33",
    "prefectureNumber": 33,
    "prefecture": "岡山県",
    "city": "津山市",
    "town": "東新町"
  },
  "7080833": {
    "zipcode": "7080833",
    "prefectureCode": "33",
    "prefectureNumber": 33,
    "prefecture": "岡山県",
    "city": "津山市",
    "town": "西新町"
  },
  "7080834": {
    "zipcode": "7080834",
    "prefectureCode": "33",
    "prefectureNumber": 33,
    "prefecture": "岡山県",
    "city": "津山市",
    "town": "中之町"
  },
  "7080835": {
    "zipcode": "7080835",
    "prefectureCode": "33",
    "prefectureNumber": 33,
    "prefecture": "岡山県",
    "city": "津山市",
    "town": "勝間田町"
  },
  "7080836": {
    "zipcode": "7080836",
    "prefectureCode": "33",
    "prefectureNumber": 33,
    "prefecture": "岡山県",
    "city": "津山市",
    "town": "林田町"
  },
  "7080837": {
    "zipcode": "7080837",
    "prefectureCode": "33",
    "prefectureNumber": 33,
    "prefecture": "岡山県",
    "city": "津山市",
    "town": "橋本町"
  },
  "7080841": {
    "zipcode": "7080841",
    "prefectureCode": "33",
    "prefectureNumber": 33,
    "prefecture": "岡山県",
    "city": "津山市",
    "town": "川崎"
  },
  "7080842": {
    "zipcode": "7080842",
    "prefectureCode": "33",
    "prefectureNumber": 33,
    "prefecture": "岡山県",
    "city": "津山市",
    "town": "河辺"
  },
  "7080843": {
    "zipcode": "7080843",
    "prefectureCode": "33",
    "prefectureNumber": 33,
    "prefecture": "岡山県",
    "city": "津山市",
    "town": "国分寺"
  },
  "7080844": {
    "zipcode": "7080844",
    "prefectureCode": "33",
    "prefectureNumber": 33,
    "prefecture": "岡山県",
    "city": "津山市",
    "town": "瓜生原"
  },
  "7080845": {
    "zipcode": "7080845",
    "prefectureCode": "33",
    "prefectureNumber": 33,
    "prefecture": "岡山県",
    "city": "津山市",
    "town": "日上"
  },
  "7080851": {
    "zipcode": "7080851",
    "prefectureCode": "33",
    "prefectureNumber": 33,
    "prefecture": "岡山県",
    "city": "津山市",
    "town": "新田"
  },
  "7080852": {
    "zipcode": "7080852",
    "prefectureCode": "33",
    "prefectureNumber": 33,
    "prefecture": "岡山県",
    "city": "津山市",
    "town": "池ケ原"
  },
  "7080853": {
    "zipcode": "7080853",
    "prefectureCode": "33",
    "prefectureNumber": 33,
    "prefecture": "岡山県",
    "city": "津山市",
    "town": "堂尾"
  },
  "7080854": {
    "zipcode": "7080854",
    "prefectureCode": "33",
    "prefectureNumber": 33,
    "prefecture": "岡山県",
    "city": "津山市",
    "town": "中原"
  },
  "7080855": {
    "zipcode": "7080855",
    "prefectureCode": "33",
    "prefectureNumber": 33,
    "prefecture": "岡山県",
    "city": "津山市",
    "town": "金井"
  },
  "7080856": {
    "zipcode": "7080856",
    "prefectureCode": "33",
    "prefectureNumber": 33,
    "prefecture": "岡山県",
    "city": "津山市",
    "town": "西吉田"
  },
  "7080857": {
    "zipcode": "7080857",
    "prefectureCode": "33",
    "prefectureNumber": 33,
    "prefecture": "岡山県",
    "city": "津山市",
    "town": "福力"
  },
  "7080861": {
    "zipcode": "7080861",
    "prefectureCode": "33",
    "prefectureNumber": 33,
    "prefecture": "岡山県",
    "city": "津山市",
    "town": "八出"
  },
  "7080862": {
    "zipcode": "7080862",
    "prefectureCode": "33",
    "prefectureNumber": 33,
    "prefecture": "岡山県",
    "city": "津山市",
    "town": "横山"
  },
  "7080863": {
    "zipcode": "7080863",
    "prefectureCode": "33",
    "prefectureNumber": 33,
    "prefecture": "岡山県",
    "city": "津山市",
    "town": "小桁"
  },
  "7080864": {
    "zipcode": "7080864",
    "prefectureCode": "33",
    "prefectureNumber": 33,
    "prefecture": "岡山県",
    "city": "津山市",
    "town": "金屋"
  },
  "7080865": {
    "zipcode": "7080865",
    "prefectureCode": "33",
    "prefectureNumber": 33,
    "prefecture": "岡山県",
    "city": "津山市",
    "town": "押渕"
  },
  "7080866": {
    "zipcode": "7080866",
    "prefectureCode": "33",
    "prefectureNumber": 33,
    "prefecture": "岡山県",
    "city": "津山市",
    "town": "荒神山"
  },
  "7080871": {
    "zipcode": "7080871",
    "prefectureCode": "33",
    "prefectureNumber": 33,
    "prefecture": "岡山県",
    "city": "津山市",
    "town": "中島"
  },
  "7080872": {
    "zipcode": "7080872",
    "prefectureCode": "33",
    "prefectureNumber": 33,
    "prefecture": "岡山県",
    "city": "津山市",
    "town": "平福"
  },
  "7080873": {
    "zipcode": "7080873",
    "prefectureCode": "33",
    "prefectureNumber": 33,
    "prefecture": "岡山県",
    "city": "津山市",
    "town": "皿"
  },
  "7080874": {
    "zipcode": "7080874",
    "prefectureCode": "33",
    "prefectureNumber": 33,
    "prefecture": "岡山県",
    "city": "津山市",
    "town": "種"
  },
  "7080875": {
    "zipcode": "7080875",
    "prefectureCode": "33",
    "prefectureNumber": 33,
    "prefecture": "岡山県",
    "city": "津山市",
    "town": "福田"
  },
  "7080876": {
    "zipcode": "7080876",
    "prefectureCode": "33",
    "prefectureNumber": 33,
    "prefecture": "岡山県",
    "city": "津山市",
    "town": "高尾"
  },
  "7080881": {
    "zipcode": "7080881",
    "prefectureCode": "33",
    "prefectureNumber": 33,
    "prefecture": "岡山県",
    "city": "津山市",
    "town": "南町"
  },
  "7080882": {
    "zipcode": "7080882",
    "prefectureCode": "33",
    "prefectureNumber": 33,
    "prefecture": "岡山県",
    "city": "津山市",
    "town": "大谷"
  },
  "7080883": {
    "zipcode": "7080883",
    "prefectureCode": "33",
    "prefectureNumber": 33,
    "prefecture": "岡山県",
    "city": "津山市",
    "town": "一方"
  },
  "7080884": {
    "zipcode": "7080884",
    "prefectureCode": "33",
    "prefectureNumber": 33,
    "prefecture": "岡山県",
    "city": "津山市",
    "town": "津山口"
  },
  "7080885": {
    "zipcode": "7080885",
    "prefectureCode": "33",
    "prefectureNumber": 33,
    "prefecture": "岡山県",
    "city": "津山市",
    "town": "井口"
  },
  "7080886": {
    "zipcode": "7080886",
    "prefectureCode": "33",
    "prefectureNumber": 33,
    "prefecture": "岡山県",
    "city": "津山市",
    "town": "昭和町"
  },
  "7081101": {
    "zipcode": "7081101",
    "prefectureCode": "33",
    "prefectureNumber": 33,
    "prefecture": "岡山県",
    "city": "津山市",
    "town": "三浦"
  },
  "7081102": {
    "zipcode": "7081102",
    "prefectureCode": "33",
    "prefectureNumber": 33,
    "prefecture": "岡山県",
    "city": "津山市",
    "town": "妙原"
  },
  "7081103": {
    "zipcode": "7081103",
    "prefectureCode": "33",
    "prefectureNumber": 33,
    "prefecture": "岡山県",
    "city": "津山市",
    "town": "堀坂"
  },
  "7081104": {
    "zipcode": "7081104",
    "prefectureCode": "33",
    "prefectureNumber": 33,
    "prefecture": "岡山県",
    "city": "津山市",
    "town": "綾部"
  },
  "7081105": {
    "zipcode": "7081105",
    "prefectureCode": "33",
    "prefectureNumber": 33,
    "prefecture": "岡山県",
    "city": "津山市",
    "town": "吉見"
  },
  "7081111": {
    "zipcode": "7081111",
    "prefectureCode": "33",
    "prefectureNumber": 33,
    "prefecture": "岡山県",
    "city": "津山市",
    "town": "楢"
  },
  "7081112": {
    "zipcode": "7081112",
    "prefectureCode": "33",
    "prefectureNumber": 33,
    "prefecture": "岡山県",
    "city": "津山市",
    "town": "近長"
  },
  "7081113": {
    "zipcode": "7081113",
    "prefectureCode": "33",
    "prefectureNumber": 33,
    "prefecture": "岡山県",
    "city": "津山市",
    "town": "田熊"
  },
  "7081114": {
    "zipcode": "7081114",
    "prefectureCode": "33",
    "prefectureNumber": 33,
    "prefecture": "岡山県",
    "city": "津山市",
    "town": "福井"
  },
  "7081115": {
    "zipcode": "7081115",
    "prefectureCode": "33",
    "prefectureNumber": 33,
    "prefecture": "岡山県",
    "city": "津山市",
    "town": "河面"
  },
  "7081116": {
    "zipcode": "7081116",
    "prefectureCode": "33",
    "prefectureNumber": 33,
    "prefecture": "岡山県",
    "city": "津山市",
    "town": "野村"
  },
  "7081117": {
    "zipcode": "7081117",
    "prefectureCode": "33",
    "prefectureNumber": 33,
    "prefecture": "岡山県",
    "city": "津山市",
    "town": "草加部"
  },
  "7081121": {
    "zipcode": "7081121",
    "prefectureCode": "33",
    "prefectureNumber": 33,
    "prefecture": "岡山県",
    "city": "津山市",
    "town": "上高倉"
  },
  "7081122": {
    "zipcode": "7081122",
    "prefectureCode": "33",
    "prefectureNumber": 33,
    "prefecture": "岡山県",
    "city": "津山市",
    "town": "下高倉東"
  },
  "7081123": {
    "zipcode": "7081123",
    "prefectureCode": "33",
    "prefectureNumber": 33,
    "prefecture": "岡山県",
    "city": "津山市",
    "town": "下高倉西"
  },
  "7081124": {
    "zipcode": "7081124",
    "prefectureCode": "33",
    "prefectureNumber": 33,
    "prefecture": "岡山県",
    "city": "津山市",
    "town": "高野山西"
  },
  "7081125": {
    "zipcode": "7081125",
    "prefectureCode": "33",
    "prefectureNumber": 33,
    "prefecture": "岡山県",
    "city": "津山市",
    "town": "高野本郷"
  },
  "7081126": {
    "zipcode": "7081126",
    "prefectureCode": "33",
    "prefectureNumber": 33,
    "prefecture": "岡山県",
    "city": "津山市",
    "town": "押入"
  },
  "7081201": {
    "zipcode": "7081201",
    "prefectureCode": "33",
    "prefectureNumber": 33,
    "prefecture": "岡山県",
    "city": "津山市",
    "town": "加茂町下津川（奥津川）"
  },
  "7081202": {
    "zipcode": "7081202",
    "prefectureCode": "33",
    "prefectureNumber": 33,
    "prefecture": "岡山県",
    "city": "津山市",
    "town": "大岩"
  },
  "7081203": {
    "zipcode": "7081203",
    "prefectureCode": "33",
    "prefectureNumber": 33,
    "prefecture": "岡山県",
    "city": "津山市",
    "town": "大吉"
  },
  "7081204": {
    "zipcode": "7081204",
    "prefectureCode": "33",
    "prefectureNumber": 33,
    "prefecture": "岡山県",
    "city": "津山市",
    "town": "日本原"
  },
  "7081205": {
    "zipcode": "7081205",
    "prefectureCode": "33",
    "prefectureNumber": 33,
    "prefecture": "岡山県",
    "city": "津山市",
    "town": "新野東"
  },
  "7081206": {
    "zipcode": "7081206",
    "prefectureCode": "33",
    "prefectureNumber": 33,
    "prefecture": "岡山県",
    "city": "津山市",
    "town": "市場"
  },
  "7081211": {
    "zipcode": "7081211",
    "prefectureCode": "33",
    "prefectureNumber": 33,
    "prefecture": "岡山県",
    "city": "津山市",
    "town": "原"
  },
  "7081212": {
    "zipcode": "7081212",
    "prefectureCode": "33",
    "prefectureNumber": 33,
    "prefecture": "岡山県",
    "city": "津山市",
    "town": "安井"
  },
  "7081213": {
    "zipcode": "7081213",
    "prefectureCode": "33",
    "prefectureNumber": 33,
    "prefecture": "岡山県",
    "city": "津山市",
    "town": "下野田"
  },
  "7081214": {
    "zipcode": "7081214",
    "prefectureCode": "33",
    "prefectureNumber": 33,
    "prefecture": "岡山県",
    "city": "津山市",
    "town": "上野田"
  },
  "7081215": {
    "zipcode": "7081215",
    "prefectureCode": "33",
    "prefectureNumber": 33,
    "prefecture": "岡山県",
    "city": "津山市",
    "town": "杉宮"
  },
  "7081216": {
    "zipcode": "7081216",
    "prefectureCode": "33",
    "prefectureNumber": 33,
    "prefecture": "岡山県",
    "city": "津山市",
    "town": "中村"
  },
  "7081221": {
    "zipcode": "7081221",
    "prefectureCode": "33",
    "prefectureNumber": 33,
    "prefecture": "岡山県",
    "city": "津山市",
    "town": "西上"
  },
  "7081222": {
    "zipcode": "7081222",
    "prefectureCode": "33",
    "prefectureNumber": 33,
    "prefecture": "岡山県",
    "city": "津山市",
    "town": "西中"
  },
  "7081223": {
    "zipcode": "7081223",
    "prefectureCode": "33",
    "prefectureNumber": 33,
    "prefecture": "岡山県",
    "city": "津山市",
    "town": "坂上"
  },
  "7081224": {
    "zipcode": "7081224",
    "prefectureCode": "33",
    "prefectureNumber": 33,
    "prefecture": "岡山県",
    "city": "津山市",
    "town": "上村"
  },
  "7081225": {
    "zipcode": "7081225",
    "prefectureCode": "33",
    "prefectureNumber": 33,
    "prefecture": "岡山県",
    "city": "津山市",
    "town": "西下"
  },
  "7081226": {
    "zipcode": "7081226",
    "prefectureCode": "33",
    "prefectureNumber": 33,
    "prefecture": "岡山県",
    "city": "津山市",
    "town": "新野山形"
  },
  "7081300": {
    "zipcode": "7081300",
    "prefectureCode": "33",
    "prefectureNumber": 33,
    "prefecture": "岡山県",
    "city": "勝田郡奈義町",
    "town": "以下に掲載がない場合"
  },
  "7081301": {
    "zipcode": "7081301",
    "prefectureCode": "33",
    "prefectureNumber": 33,
    "prefecture": "岡山県",
    "city": "勝田郡奈義町",
    "town": "馬桑"
  },
  "7081302": {
    "zipcode": "7081302",
    "prefectureCode": "33",
    "prefectureNumber": 33,
    "prefecture": "岡山県",
    "city": "勝田郡奈義町",
    "town": "小坂"
  },
  "7081303": {
    "zipcode": "7081303",
    "prefectureCode": "33",
    "prefectureNumber": 33,
    "prefecture": "岡山県",
    "city": "勝田郡奈義町",
    "town": "皆木"
  },
  "7081304": {
    "zipcode": "7081304",
    "prefectureCode": "33",
    "prefectureNumber": 33,
    "prefecture": "岡山県",
    "city": "勝田郡奈義町",
    "town": "関本"
  },
  "7081305": {
    "zipcode": "7081305",
    "prefectureCode": "33",
    "prefectureNumber": 33,
    "prefecture": "岡山県",
    "city": "勝田郡奈義町",
    "town": "行方"
  },
  "7081306": {
    "zipcode": "7081306",
    "prefectureCode": "33",
    "prefectureNumber": 33,
    "prefecture": "岡山県",
    "city": "勝田郡奈義町",
    "town": "西原"
  },
  "7081307": {
    "zipcode": "7081307",
    "prefectureCode": "33",
    "prefectureNumber": 33,
    "prefecture": "岡山県",
    "city": "勝田郡奈義町",
    "town": "高円"
  },
  "7081311": {
    "zipcode": "7081311",
    "prefectureCode": "33",
    "prefectureNumber": 33,
    "prefecture": "岡山県",
    "city": "勝田郡奈義町",
    "town": "久常"
  },
  "7081312": {
    "zipcode": "7081312",
    "prefectureCode": "33",
    "prefectureNumber": 33,
    "prefecture": "岡山県",
    "city": "勝田郡奈義町",
    "town": "柿"
  },
  "7081313": {
    "zipcode": "7081313",
    "prefectureCode": "33",
    "prefectureNumber": 33,
    "prefecture": "岡山県",
    "city": "勝田郡奈義町",
    "town": "中島東"
  },
  "7081314": {
    "zipcode": "7081314",
    "prefectureCode": "33",
    "prefectureNumber": 33,
    "prefecture": "岡山県",
    "city": "勝田郡奈義町",
    "town": "荒内西"
  },
  "7081315": {
    "zipcode": "7081315",
    "prefectureCode": "33",
    "prefectureNumber": 33,
    "prefecture": "岡山県",
    "city": "勝田郡奈義町",
    "town": "中島西"
  },
  "7081321": {
    "zipcode": "7081321",
    "prefectureCode": "33",
    "prefectureNumber": 33,
    "prefecture": "岡山県",
    "city": "勝田郡奈義町",
    "town": "宮内"
  },
  "7081322": {
    "zipcode": "7081322",
    "prefectureCode": "33",
    "prefectureNumber": 33,
    "prefecture": "岡山県",
    "city": "勝田郡奈義町",
    "town": "成松"
  },
  "7081323": {
    "zipcode": "7081323",
    "prefectureCode": "33",
    "prefectureNumber": 33,
    "prefecture": "岡山県",
    "city": "勝田郡奈義町",
    "town": "豊沢"
  },
  "7081324": {
    "zipcode": "7081324",
    "prefectureCode": "33",
    "prefectureNumber": 33,
    "prefecture": "岡山県",
    "city": "勝田郡奈義町",
    "town": "広岡"
  },
  "7081325": {
    "zipcode": "7081325",
    "prefectureCode": "33",
    "prefectureNumber": 33,
    "prefecture": "岡山県",
    "city": "勝田郡奈義町",
    "town": "滝本"
  },
  "7081326": {
    "zipcode": "7081326",
    "prefectureCode": "33",
    "prefectureNumber": 33,
    "prefecture": "岡山県",
    "city": "勝田郡奈義町",
    "town": "上町川"
  },
  "7081501": {
    "zipcode": "7081501",
    "prefectureCode": "33",
    "prefectureNumber": 33,
    "prefecture": "岡山県",
    "city": "久米郡美咲町",
    "town": "安井"
  },
  "7081502": {
    "zipcode": "7081502",
    "prefectureCode": "33",
    "prefectureNumber": 33,
    "prefecture": "岡山県",
    "city": "久米郡美咲町",
    "town": "宮山"
  },
  "7081503": {
    "zipcode": "7081503",
    "prefectureCode": "33",
    "prefectureNumber": 33,
    "prefecture": "岡山県",
    "city": "久米郡美咲町",
    "town": "塩気"
  },
  "7081504": {
    "zipcode": "7081504",
    "prefectureCode": "33",
    "prefectureNumber": 33,
    "prefecture": "岡山県",
    "city": "久米郡美咲町",
    "town": "吉留"
  },
  "7081505": {
    "zipcode": "7081505",
    "prefectureCode": "33",
    "prefectureNumber": 33,
    "prefecture": "岡山県",
    "city": "久米郡美咲町",
    "town": "重藤"
  },
  "7081506": {
    "zipcode": "7081506",
    "prefectureCode": "33",
    "prefectureNumber": 33,
    "prefecture": "岡山県",
    "city": "久米郡美咲町",
    "town": "上間"
  },
  "7081507": {
    "zipcode": "7081507",
    "prefectureCode": "33",
    "prefectureNumber": 33,
    "prefecture": "岡山県",
    "city": "久米郡美咲町",
    "town": "百々"
  },
  "7081511": {
    "zipcode": "7081511",
    "prefectureCode": "33",
    "prefectureNumber": 33,
    "prefecture": "岡山県",
    "city": "久米郡美咲町",
    "town": "行信"
  },
  "7081512": {
    "zipcode": "7081512",
    "prefectureCode": "33",
    "prefectureNumber": 33,
    "prefecture": "岡山県",
    "city": "久米郡美咲町",
    "town": "松尾"
  },
  "7081513": {
    "zipcode": "7081513",
    "prefectureCode": "33",
    "prefectureNumber": 33,
    "prefecture": "岡山県",
    "city": "久米郡美咲町",
    "town": "藤田下"
  },
  "7081514": {
    "zipcode": "7081514",
    "prefectureCode": "33",
    "prefectureNumber": 33,
    "prefecture": "岡山県",
    "city": "久米郡美咲町",
    "town": "藤田上"
  },
  "7081515": {
    "zipcode": "7081515",
    "prefectureCode": "33",
    "prefectureNumber": 33,
    "prefecture": "岡山県",
    "city": "久米郡美咲町",
    "town": "下谷"
  },
  "7081516": {
    "zipcode": "7081516",
    "prefectureCode": "33",
    "prefectureNumber": 33,
    "prefecture": "岡山県",
    "city": "久米郡美咲町",
    "town": "連石"
  },
  "7081521": {
    "zipcode": "7081521",
    "prefectureCode": "33",
    "prefectureNumber": 33,
    "prefecture": "岡山県",
    "city": "久米郡美咲町",
    "town": "休石"
  },
  "7081522": {
    "zipcode": "7081522",
    "prefectureCode": "33",
    "prefectureNumber": 33,
    "prefecture": "岡山県",
    "city": "久米郡美咲町",
    "town": "惣田"
  },
  "7081523": {
    "zipcode": "7081523",
    "prefectureCode": "33",
    "prefectureNumber": 33,
    "prefecture": "岡山県",
    "city": "久米郡美咲町",
    "town": "吉ケ原"
  },
  "7081524": {
    "zipcode": "7081524",
    "prefectureCode": "33",
    "prefectureNumber": 33,
    "prefecture": "岡山県",
    "city": "久米郡美咲町",
    "town": "飯岡"
  },
  "7081525": {
    "zipcode": "7081525",
    "prefectureCode": "33",
    "prefectureNumber": 33,
    "prefecture": "岡山県",
    "city": "久米郡美咲町",
    "town": "王子"
  },
  "7081526": {
    "zipcode": "7081526",
    "prefectureCode": "33",
    "prefectureNumber": 33,
    "prefecture": "岡山県",
    "city": "久米郡美咲町",
    "town": "高下"
  },
  "7081527": {
    "zipcode": "7081527",
    "prefectureCode": "33",
    "prefectureNumber": 33,
    "prefecture": "岡山県",
    "city": "久米郡美咲町",
    "town": "柵原"
  },
  "7081531": {
    "zipcode": "7081531",
    "prefectureCode": "33",
    "prefectureNumber": 33,
    "prefecture": "岡山県",
    "city": "久米郡美咲町",
    "town": "栗子"
  },
  "7081532": {
    "zipcode": "7081532",
    "prefectureCode": "33",
    "prefectureNumber": 33,
    "prefecture": "岡山県",
    "city": "久米郡美咲町",
    "town": "小瀬"
  },
  "7081533": {
    "zipcode": "7081533",
    "prefectureCode": "33",
    "prefectureNumber": 33,
    "prefecture": "岡山県",
    "city": "久米郡美咲町",
    "town": "久木"
  },
  "7081534": {
    "zipcode": "7081534",
    "prefectureCode": "33",
    "prefectureNumber": 33,
    "prefecture": "岡山県",
    "city": "久米郡美咲町",
    "town": "藤原"
  },
  "7081535": {
    "zipcode": "7081535",
    "prefectureCode": "33",
    "prefectureNumber": 33,
    "prefecture": "岡山県",
    "city": "久米郡美咲町",
    "town": "高城"
  },
  "7081536": {
    "zipcode": "7081536",
    "prefectureCode": "33",
    "prefectureNumber": 33,
    "prefecture": "岡山県",
    "city": "久米郡美咲町",
    "town": "定宗"
  },
  "7081541": {
    "zipcode": "7081541",
    "prefectureCode": "33",
    "prefectureNumber": 33,
    "prefecture": "岡山県",
    "city": "久米郡美咲町",
    "town": "塚角"
  },
  "7081542": {
    "zipcode": "7081542",
    "prefectureCode": "33",
    "prefectureNumber": 33,
    "prefecture": "岡山県",
    "city": "久米郡美咲町",
    "town": "羽仁"
  },
  "7081543": {
    "zipcode": "7081543",
    "prefectureCode": "33",
    "prefectureNumber": 33,
    "prefecture": "岡山県",
    "city": "久米郡美咲町",
    "town": "書副"
  },
  "7081544": {
    "zipcode": "7081544",
    "prefectureCode": "33",
    "prefectureNumber": 33,
    "prefecture": "岡山県",
    "city": "久米郡美咲町",
    "town": "周佐"
  },
  "7081545": {
    "zipcode": "7081545",
    "prefectureCode": "33",
    "prefectureNumber": 33,
    "prefecture": "岡山県",
    "city": "久米郡美咲町",
    "town": "大戸上"
  },
  "7081546": {
    "zipcode": "7081546",
    "prefectureCode": "33",
    "prefectureNumber": 33,
    "prefecture": "岡山県",
    "city": "久米郡美咲町",
    "town": "大戸下"
  },
  "7081547": {
    "zipcode": "7081547",
    "prefectureCode": "33",
    "prefectureNumber": 33,
    "prefecture": "岡山県",
    "city": "久米郡美咲町",
    "town": "八神"
  }
}
