{
  "7090211": {
    "zipcode": "7090211",
    "prefectureCode": "33",
    "prefectureNumber": 33,
    "prefecture": "岡山県",
    "city": "備前市",
    "town": "吉永町高田"
  },
  "7090212": {
    "zipcode": "7090212",
    "prefectureCode": "33",
    "prefectureNumber": 33,
    "prefecture": "岡山県",
    "city": "備前市",
    "town": "吉永町神根本"
  },
  "7090213": {
    "zipcode": "7090213",
    "prefectureCode": "33",
    "prefectureNumber": 33,
    "prefecture": "岡山県",
    "city": "備前市",
    "town": "吉永町今崎"
  },
  "7090214": {
    "zipcode": "7090214",
    "prefectureCode": "33",
    "prefectureNumber": 33,
    "prefecture": "岡山県",
    "city": "備前市",
    "town": "吉永町和意谷"
  },
  "7090221": {
    "zipcode": "7090221",
    "prefectureCode": "33",
    "prefectureNumber": 33,
    "prefecture": "岡山県",
    "city": "備前市",
    "town": "吉永町金谷"
  },
  "7090222": {
    "zipcode": "7090222",
    "prefectureCode": "33",
    "prefectureNumber": 33,
    "prefecture": "岡山県",
    "city": "備前市",
    "town": "吉永町福満"
  },
  "7090223": {
    "zipcode": "7090223",
    "prefectureCode": "33",
    "prefectureNumber": 33,
    "prefecture": "岡山県",
    "city": "備前市",
    "town": "吉永町南方"
  },
  "7090224": {
    "zipcode": "7090224",
    "prefectureCode": "33",
    "prefectureNumber": 33,
    "prefecture": "岡山県",
    "city": "備前市",
    "town": "吉永町吉永中"
  },
  "7090225": {
    "zipcode": "7090225",
    "prefectureCode": "33",
    "prefectureNumber": 33,
    "prefecture": "岡山県",
    "city": "備前市",
    "town": "吉永町三股"
  },
  "7090226": {
    "zipcode": "7090226",
    "prefectureCode": "33",
    "prefectureNumber": 33,
    "prefecture": "岡山県",
    "city": "備前市",
    "town": "吉永町岩崎"
  },
  "7090301": {
    "zipcode": "7090301",
    "prefectureCode": "33",
    "prefectureNumber": 33,
    "prefecture": "岡山県",
    "city": "備前市",
    "town": "吉永町加賀美"
  },
  "7090302": {
    "zipcode": "7090302",
    "prefectureCode": "33",
    "prefectureNumber": 33,
    "prefecture": "岡山県",
    "city": "備前市",
    "town": "吉永町多麻"
  },
  "7090303": {
    "zipcode": "7090303",
    "prefectureCode": "33",
    "prefectureNumber": 33,
    "prefecture": "岡山県",
    "city": "備前市",
    "town": "吉永町都留岐"
  },
  "7090304": {
    "zipcode": "7090304",
    "prefectureCode": "33",
    "prefectureNumber": 33,
    "prefecture": "岡山県",
    "city": "備前市",
    "town": "吉永町笹目"
  },
  "7090400": {
    "zipcode": "7090400",
    "prefectureCode": "33",
    "prefectureNumber": 33,
    "prefecture": "岡山県",
    "city": "和気郡和気町",
    "town": "以下に掲載がない場合"
  },
  "7090401": {
    "zipcode": "7090401",
    "prefectureCode": "33",
    "prefectureNumber": 33,
    "prefecture": "岡山県",
    "city": "和気郡和気町",
    "town": "保曽"
  },
  "7090402": {
    "zipcode": "7090402",
    "prefectureCode": "33",
    "prefectureNumber": 33,
    "prefecture": "岡山県",
    "city": "和気郡和気町",
    "town": "日笠上"
  },
  "7090403": {
    "zipcode": "7090403",
    "prefectureCode": "33",
    "prefectureNumber": 33,
    "prefecture": "岡山県",
    "city": "和気郡和気町",
    "town": "日笠下"
  },
  "7090404": {
    "zipcode": "7090404",
    "prefectureCode": "33",
    "prefectureNumber": 33,
    "prefecture": "岡山県",
    "city": "和気郡和気町",
    "town": "木倉"
  },
  "7090411": {
    "zipcode": "7090411",
    "prefectureCode": "33",
    "prefectureNumber": 33,
    "prefecture": "岡山県",
    "city": "和気郡和気町",
    "town": "吉田"
  },
  "7090412": {
    "zipcode": "7090412",
    "prefectureCode": "33",
    "prefectureNumber": 33,
    "prefecture": "岡山県",
    "city": "和気郡和気町",
    "town": "藤野"
  },
  "7090413": {
    "zipcode": "7090413",
    "prefectureCode": "33",
    "prefectureNumber": 33,
    "prefecture": "岡山県",
    "city": "和気郡和気町",
    "town": "泉"
  },
  "7090414": {
    "zipcode": "7090414",
    "prefectureCode": "33",
    "prefectureNumber": 33,
    "prefecture": "岡山県",
    "city": "和気郡和気町",
    "town": "大田原"
  },
  "7090421": {
    "zipcode": "7090421",
    "prefectureCode": "33",
    "prefectureNumber": 33,
    "prefecture": "岡山県",
    "city": "和気郡和気町",
    "town": "日室"
  },
  "7090422": {
    "zipcode": "7090422",
    "prefectureCode": "33",
    "prefectureNumber": 33,
    "prefecture": "岡山県",
    "city": "和気郡和気町",
    "town": "尺所"
  },
  "7090431": {
    "zipcode": "7090431",
    "prefectureCode": "33",
    "prefectureNumber": 33,
    "prefecture": "岡山県",
    "city": "和気郡和気町",
    "town": "清水"
  },
  "7090432": {
    "zipcode": "7090432",
    "prefectureCode": "33",
    "prefectureNumber": 33,
    "prefecture": "岡山県",
    "city": "和気郡和気町",
    "town": "大中山"
  },
  "7090441": {
    "zipcode": "7090441",
    "prefectureCode": "33",
    "prefectureNumber": 33,
    "prefecture": "岡山県",
    "city": "和気郡和気町",
    "town": "衣笠"
  },
  "7090442": {
    "zipcode": "7090442",
    "prefectureCode": "33",
    "prefectureNumber": 33,
    "prefecture": "岡山県",
    "city": "和気郡和気町",
    "town": "福富"
  },
  "7090451": {
    "zipcode": "7090451",
    "prefectureCode": "33",
    "prefectureNumber": 33,
    "prefecture": "岡山県",
    "city": "和気郡和気町",
    "town": "和気"
  },
  "7090452": {
    "zipcode": "7090452",
    "prefectureCode": "33",
    "prefectureNumber": 33,
    "prefecture": "岡山県",
    "city": "和気郡和気町",
    "town": "益原"
  },
  "7090461": {
    "zipcode": "7090461",
    "prefectureCode": "33",
    "prefectureNumber": 33,
    "prefecture": "岡山県",
    "city": "和気郡和気町",
    "town": "原"
  },
  "7090462": {
    "zipcode": "7090462",
    "prefectureCode": "33",
    "prefectureNumber": 33,
    "prefecture": "岡山県",
    "city": "和気郡和気町",
    "town": "本"
  },
  "7090463": {
    "zipcode": "7090463",
    "prefectureCode": "33",
    "prefectureNumber": 33,
    "prefecture": "岡山県",
    "city": "和気郡和気町",
    "town": "田原上"
  },
  "7090464": {
    "zipcode": "7090464",
    "prefectureCode": "33",
    "prefectureNumber": 33,
    "prefecture": "岡山県",
    "city": "和気郡和気町",
    "town": "田原下"
  },
  "7090501": {
    "zipcode": "7090501",
    "prefectureCode": "33",
    "prefectureNumber": 33,
    "prefecture": "岡山県",
    "city": "和気郡和気町",
    "town": "奥塩田"
  },
  "7090502": {
    "zipcode": "7090502",
    "prefectureCode": "33",
    "prefectureNumber": 33,
    "prefecture": "岡山県",
    "city": "和気郡和気町",
    "town": "丸山"
  },
  "7090503": {
    "zipcode": "7090503",
    "prefectureCode": "33",
    "prefectureNumber": 33,
    "prefecture": "岡山県",
    "city": "和気郡和気町",
    "town": "南山方"
  },
  "7090504": {
    "zipcode": "7090504",
    "prefectureCode": "33",
    "prefectureNumber": 33,
    "prefecture": "岡山県",
    "city": "和気郡和気町",
    "town": "北山方"
  },
  "7090505": {
    "zipcode": "7090505",
    "prefectureCode": "33",
    "prefectureNumber": 33,
    "prefecture": "岡山県",
    "city": "和気郡和気町",
    "town": "苦木"
  },
  "7090506": {
    "zipcode": "7090506",
    "prefectureCode": "33",
    "prefectureNumber": 33,
    "prefecture": "岡山県",
    "city": "和気郡和気町",
    "town": "塩田"
  },
  "7090511": {
    "zipcode": "7090511",
    "prefectureCode": "33",
    "prefectureNumber": 33,
    "prefecture": "岡山県",
    "city": "和気郡和気町",
    "town": "矢田"
  },
  "7090512": {
    "zipcode": "7090512",
    "prefectureCode": "33",
    "prefectureNumber": 33,
    "prefecture": "岡山県",
    "city": "和気郡和気町",
    "town": "田土"
  },
  "7090513": {
    "zipcode": "7090513",
    "prefectureCode": "33",
    "prefectureNumber": 33,
    "prefecture": "岡山県",
    "city": "和気郡和気町",
    "town": "岩戸"
  },
  "7090514": {
    "zipcode": "7090514",
    "prefectureCode": "33",
    "prefectureNumber": 33,
    "prefecture": "岡山県",
    "city": "和気郡和気町",
    "town": "佐伯"
  },
  "7090515": {
    "zipcode": "7090515",
    "prefectureCode": "33",
    "prefectureNumber": 33,
    "prefecture": "岡山県",
    "city": "和気郡和気町",
    "town": "米澤"
  },
  "7090516": {
    "zipcode": "7090516",
    "prefectureCode": "33",
    "prefectureNumber": 33,
    "prefecture": "岡山県",
    "city": "和気郡和気町",
    "town": "津瀬"
  },
  "7090521": {
    "zipcode": "7090521",
    "prefectureCode": "33",
    "prefectureNumber": 33,
    "prefecture": "岡山県",
    "city": "和気郡和気町",
    "town": "父井原"
  },
  "7090522": {
    "zipcode": "7090522",
    "prefectureCode": "33",
    "prefectureNumber": 33,
    "prefecture": "岡山県",
    "city": "和気郡和気町",
    "town": "加三方"
  },
  "7090523": {
    "zipcode": "7090523",
    "prefectureCode": "33",
    "prefectureNumber": 33,
    "prefecture": "岡山県",
    "city": "和気郡和気町",
    "town": "小坂"
  },
  "7090524": {
    "zipcode": "7090524",
    "prefectureCode": "33",
    "prefectureNumber": 33,
    "prefecture": "岡山県",
    "city": "和気郡和気町",
    "town": "田賀"
  },
  "7090525": {
    "zipcode": "7090525",
    "prefectureCode": "33",
    "prefectureNumber": 33,
    "prefecture": "岡山県",
    "city": "和気郡和気町",
    "town": "宇生"
  },
  "7090526": {
    "zipcode": "7090526",
    "prefectureCode": "33",
    "prefectureNumber": 33,
    "prefecture": "岡山県",
    "city": "和気郡和気町",
    "town": "矢田部"
  },
  "7090601": {
    "zipcode": "7090601",
    "prefectureCode": "33",
    "prefectureNumber": 33,
    "prefecture": "岡山県",
    "city": "岡山市東区",
    "town": "吉井"
  },
  "7090602": {
    "zipcode": "7090602",
    "prefectureCode": "33",
    "prefectureNumber": 33,
    "prefecture": "岡山県",
    "city": "岡山市東区",
    "town": "一日市"
  },
  "7090603": {
    "zipcode": "7090603",
    "prefectureCode": "33",
    "prefectureNumber": 33,
    "prefecture": "岡山県",
    "city": "岡山市東区",
    "town": "西祖"
  },
  "7090604": {
    "zipcode": "7090604",
    "prefectureCode": "33",
    "prefectureNumber": 33,
    "prefecture": "岡山県",
    "city": "岡山市東区",
    "town": "寺山"
  },
  "7090605": {
    "zipcode": "7090605",
    "prefectureCode": "33",
    "prefectureNumber": 33,
    "prefecture": "岡山県",
    "city": "岡山市東区",
    "town": "浅川"
  },
  "7090606": {
    "zipcode": "7090606",
    "prefectureCode": "33",
    "prefectureNumber": 33,
    "prefecture": "岡山県",
    "city": "岡山市東区",
    "town": "矢井"
  },
  "7090607": {
    "zipcode": "7090607",
    "prefectureCode": "33",
    "prefectureNumber": 33,
    "prefecture": "岡山県",
    "city": "岡山市東区",
    "town": "浦間"
  },
  "7090611": {
    "zipcode": "7090611",
    "prefectureCode": "33",
    "prefectureNumber": 33,
    "prefecture": "岡山県",
    "city": "岡山市東区",
    "town": "楢原"
  },
  "7090612": {
    "zipcode": "7090612",
    "prefectureCode": "33",
    "prefectureNumber": 33,
    "prefecture": "岡山県",
    "city": "岡山市東区",
    "town": "内ケ原"
  },
  "7090613": {
    "zipcode": "7090613",
    "prefectureCode": "33",
    "prefectureNumber": 33,
    "prefecture": "岡山県",
    "city": "岡山市東区",
    "town": "百枝月"
  },
  "7090614": {
    "zipcode": "7090614",
    "prefectureCode": "33",
    "prefectureNumber": 33,
    "prefecture": "岡山県",
    "city": "岡山市東区",
    "town": "竹原"
  },
  "7090615": {
    "zipcode": "7090615",
    "prefectureCode": "33",
    "prefectureNumber": 33,
    "prefecture": "岡山県",
    "city": "岡山市東区",
    "town": "才崎"
  },
  "7090621": {
    "zipcode": "7090621",
    "prefectureCode": "33",
    "prefectureNumber": 33,
    "prefecture": "岡山県",
    "city": "岡山市東区",
    "town": "沼"
  },
  "7090622": {
    "zipcode": "7090622",
    "prefectureCode": "33",
    "prefectureNumber": 33,
    "prefecture": "岡山県",
    "city": "岡山市東区",
    "town": "城東台東"
  },
  "7090623": {
    "zipcode": "7090623",
    "prefectureCode": "33",
    "prefectureNumber": 33,
    "prefecture": "岡山県",
    "city": "岡山市東区",
    "town": "城東台南"
  },
  "7090624": {
    "zipcode": "7090624",
    "prefectureCode": "33",
    "prefectureNumber": 33,
    "prefecture": "岡山県",
    "city": "岡山市東区",
    "town": "城東台西"
  },
  "7090625": {
    "zipcode": "7090625",
    "prefectureCode": "33",
    "prefectureNumber": 33,
    "prefecture": "岡山県",
    "city": "岡山市東区",
    "town": "上道北方"
  },
  "7090626": {
    "zipcode": "7090626",
    "prefectureCode": "33",
    "prefectureNumber": 33,
    "prefecture": "岡山県",
    "city": "岡山市東区",
    "town": "中尾"
  },
  "7090631": {
    "zipcode": "7090631",
    "prefectureCode": "33",
    "prefectureNumber": 33,
    "prefecture": "岡山県",
    "city": "岡山市東区",
    "town": "東平島"
  },
  "7090632": {
    "zipcode": "7090632",
    "prefectureCode": "33",
    "prefectureNumber": 33,
    "prefecture": "岡山県",
    "city": "岡山市東区",
    "town": "南古都"
  },
  "7090633": {
    "zipcode": "7090633",
    "prefectureCode": "33",
    "prefectureNumber": 33,
    "prefecture": "岡山県",
    "city": "岡山市東区",
    "town": "西平島"
  },
  "7090634": {
    "zipcode": "7090634",
    "prefectureCode": "33",
    "prefectureNumber": 33,
    "prefecture": "岡山県",
    "city": "岡山市東区",
    "town": "砂場"
  },
  "7090635": {
    "zipcode": "7090635",
    "prefectureCode": "33",
    "prefectureNumber": 33,
    "prefecture": "岡山県",
    "city": "岡山市東区",
    "town": "草ケ部"
  },
  "7090636": {
    "zipcode": "7090636",
    "prefectureCode": "33",
    "prefectureNumber": 33,
    "prefecture": "岡山県",
    "city": "岡山市東区",
    "town": "谷尻"
  },
  "7090701": {
    "zipcode": "7090701",
    "prefectureCode": "33",
    "prefectureNumber": 33,
    "prefecture": "岡山県",
    "city": "赤磐市",
    "town": "酌田"
  },
  "7090702": {
    "zipcode": "7090702",
    "prefectureCode": "33",
    "prefectureNumber": 33,
    "prefecture": "岡山県",
    "city": "赤磐市",
    "town": "岡"
  },
  "7090703": {
    "zipcode": "7090703",
    "prefectureCode": "33",
    "prefectureNumber": 33,
    "prefecture": "岡山県",
    "city": "赤磐市",
    "town": "殿谷"
  },
  "7090704": {
    "zipcode": "7090704",
    "prefectureCode": "33",
    "prefectureNumber": 33,
    "prefecture": "岡山県",
    "city": "赤磐市",
    "town": "沢原"
  },
  "7090705": {
    "zipcode": "7090705",
    "prefectureCode": "33",
    "prefectureNumber": 33,
    "prefecture": "岡山県",
    "city": "赤磐市",
    "town": "松木"
  },
  "7090706": {
    "zipcode": "7090706",
    "prefectureCode": "33",
    "prefectureNumber": 33,
    "prefecture": "岡山県",
    "city": "赤磐市",
    "town": "佐古"
  },
  "7090711": {
    "zipcode": "7090711",
    "prefectureCode": "33",
    "prefectureNumber": 33,
    "prefecture": "岡山県",
    "city": "赤磐市",
    "town": "円光寺"
  },
  "7090712": {
    "zipcode": "7090712",
    "prefectureCode": "33",
    "prefectureNumber": 33,
    "prefecture": "岡山県",
    "city": "赤磐市",
    "town": "吉原"
  },
  "7090713": {
    "zipcode": "7090713",
    "prefectureCode": "33",
    "prefectureNumber": 33,
    "prefecture": "岡山県",
    "city": "赤磐市",
    "town": "奥吉原"
  },
  "7090714": {
    "zipcode": "7090714",
    "prefectureCode": "33",
    "prefectureNumber": 33,
    "prefecture": "岡山県",
    "city": "赤磐市",
    "town": "千躰"
  },
  "7090715": {
    "zipcode": "7090715",
    "prefectureCode": "33",
    "prefectureNumber": 33,
    "prefecture": "岡山県",
    "city": "赤磐市",
    "town": "勢力"
  },
  "7090716": {
    "zipcode": "7090716",
    "prefectureCode": "33",
    "prefectureNumber": 33,
    "prefecture": "岡山県",
    "city": "赤磐市",
    "town": "徳富"
  },
  "7090717": {
    "zipcode": "7090717",
    "prefectureCode": "33",
    "prefectureNumber": 33,
    "prefecture": "岡山県",
    "city": "赤磐市",
    "town": "小瀬木"
  },
  "7090718": {
    "zipcode": "7090718",
    "prefectureCode": "33",
    "prefectureNumber": 33,
    "prefecture": "岡山県",
    "city": "赤磐市",
    "town": "釣井"
  },
  "7090719": {
    "zipcode": "7090719",
    "prefectureCode": "33",
    "prefectureNumber": 33,
    "prefecture": "岡山県",
    "city": "赤磐市",
    "town": "河田原"
  },
  "7090721": {
    "zipcode": "7090721",
    "prefectureCode": "33",
    "prefectureNumber": 33,
    "prefecture": "岡山県",
    "city": "赤磐市",
    "town": "桜が丘東"
  },
  "7090731": {
    "zipcode": "7090731",
    "prefectureCode": "33",
    "prefectureNumber": 33,
    "prefecture": "岡山県",
    "city": "赤磐市",
    "town": "石蓮寺"
  },
  "7090732": {
    "zipcode": "7090732",
    "prefectureCode": "33",
    "prefectureNumber": 33,
    "prefecture": "岡山県",
    "city": "赤磐市",
    "town": "可真下"
  },
  "7090733": {
    "zipcode": "7090733",
    "prefectureCode": "33",
    "prefectureNumber": 33,
    "prefecture": "岡山県",
    "city": "赤磐市",
    "town": "可真上"
  },
  "7090734": {
    "zipcode": "7090734",
    "prefectureCode": "33",
    "prefectureNumber": 33,
    "prefecture": "岡山県",
    "city": "赤磐市",
    "town": "弥上"
  },
  "7090735": {
    "zipcode": "7090735",
    "prefectureCode": "33",
    "prefectureNumber": 33,
    "prefecture": "岡山県",
    "city": "赤磐市",
    "town": "野間"
  },
  "7090736": {
    "zipcode": "7090736",
    "prefectureCode": "33",
    "prefectureNumber": 33,
    "prefecture": "岡山県",
    "city": "赤磐市",
    "town": "稗田"
  },
  "7090800": {
    "zipcode": "7090800",
    "prefectureCode": "33",
    "prefectureNumber": 33,
    "prefecture": "岡山県",
    "city": "赤磐市",
    "town": "以下に掲載がない場合"
  },
  "7090801": {
    "zipcode": "7090801",
    "prefectureCode": "33",
    "prefectureNumber": 33,
    "prefecture": "岡山県",
    "city": "赤磐市",
    "town": "神田"
  },
  "7090802": {
    "zipcode": "7090802",
    "prefectureCode": "33",
    "prefectureNumber": 33,
    "prefecture": "岡山県",
    "city": "赤磐市",
    "town": "桜が丘西"
  },
  "7090803": {
    "zipcode": "7090803",
    "prefectureCode": "33",
    "prefectureNumber": 33,
    "prefecture": "岡山県",
    "city": "赤磐市",
    "town": "中島"
  },
  "7090804": {
    "zipcode": "7090804",
    "prefectureCode": "33",
    "prefectureNumber": 33,
    "prefecture": "岡山県",
    "city": "赤磐市",
    "town": "日古木"
  },
  "7090805": {
    "zipcode": "7090805",
    "prefectureCode": "33",
    "prefectureNumber": 33,
    "prefecture": "岡山県",
    "city": "赤磐市",
    "town": "二井"
  },
  "7090806": {
    "zipcode": "7090806",
    "prefectureCode": "33",
    "prefectureNumber": 33,
    "prefecture": "岡山県",
    "city": "赤磐市",
    "town": "尾谷"
  },
  "7090807": {
    "zipcode": "7090807",
    "prefectureCode": "33",
    "prefectureNumber": 33,
    "prefecture": "岡山県",
    "city": "赤磐市",
    "town": "津崎"
  },
  "7090811": {
    "zipcode": "7090811",
    "prefectureCode": "33",
    "prefectureNumber": 33,
    "prefecture": "岡山県",
    "city": "赤磐市",
    "town": "高屋"
  },
  "7090812": {
    "zipcode": "7090812",
    "prefectureCode": "33",
    "prefectureNumber": 33,
    "prefecture": "岡山県",
    "city": "赤磐市",
    "town": "沼田"
  },
  "7090813": {
    "zipcode": "7090813",
    "prefectureCode": "33",
    "prefectureNumber": 33,
    "prefecture": "岡山県",
    "city": "赤磐市",
    "town": "斎富"
  },
  "7090814": {
    "zipcode": "7090814",
    "prefectureCode": "33",
    "prefectureNumber": 33,
    "prefecture": "岡山県",
    "city": "赤磐市",
    "town": "南方"
  },
  "7090815": {
    "zipcode": "7090815",
    "prefectureCode": "33",
    "prefectureNumber": 33,
    "prefecture": "岡山県",
    "city": "赤磐市",
    "town": "立川"
  },
  "7090816": {
    "zipcode": "7090816",
    "prefectureCode": "33",
    "prefectureNumber": 33,
    "prefecture": "岡山県",
    "city": "赤磐市",
    "town": "下市"
  },
  "7090817": {
    "zipcode": "7090817",
    "prefectureCode": "33",
    "prefectureNumber": 33,
    "prefecture": "岡山県",
    "city": "赤磐市",
    "town": "上市"
  },
  "7090821": {
    "zipcode": "7090821",
    "prefectureCode": "33",
    "prefectureNumber": 33,
    "prefecture": "岡山県",
    "city": "赤磐市",
    "town": "河本"
  },
  "7090822": {
    "zipcode": "7090822",
    "prefectureCode": "33",
    "prefectureNumber": 33,
    "prefecture": "岡山県",
    "city": "赤磐市",
    "town": "岩田"
  },
  "7090823": {
    "zipcode": "7090823",
    "prefectureCode": "33",
    "prefectureNumber": 33,
    "prefecture": "岡山県",
    "city": "赤磐市",
    "town": "長尾"
  },
  "7090824": {
    "zipcode": "7090824",
    "prefectureCode": "33",
    "prefectureNumber": 33,
    "prefecture": "岡山県",
    "city": "赤磐市",
    "town": "穂崎"
  },
  "7090825": {
    "zipcode": "7090825",
    "prefectureCode": "33",
    "prefectureNumber": 33,
    "prefecture": "岡山県",
    "city": "赤磐市",
    "town": "馬屋"
  },
  "7090826": {
    "zipcode": "7090826",
    "prefectureCode": "33",
    "prefectureNumber": 33,
    "prefecture": "岡山県",
    "city": "赤磐市",
    "town": "和田"
  },
  "7090827": {
    "zipcode": "7090827",
    "prefectureCode": "33",
    "prefectureNumber": 33,
    "prefecture": "岡山県",
    "city": "赤磐市",
    "town": "山陽"
  },
  "7090831": {
    "zipcode": "7090831",
    "prefectureCode": "33",
    "prefectureNumber": 33,
    "prefecture": "岡山県",
    "city": "赤磐市",
    "town": "五日市"
  },
  "7090832": {
    "zipcode": "7090832",
    "prefectureCode": "33",
    "prefectureNumber": 33,
    "prefecture": "岡山県",
    "city": "赤磐市",
    "town": "正崎"
  },
  "7090833": {
    "zipcode": "7090833",
    "prefectureCode": "33",
    "prefectureNumber": 33,
    "prefecture": "岡山県",
    "city": "赤磐市",
    "town": "熊崎"
  },
  "7090834": {
    "zipcode": "7090834",
    "prefectureCode": "33",
    "prefectureNumber": 33,
    "prefecture": "岡山県",
    "city": "赤磐市",
    "town": "鴨前"
  },
  "7090835": {
    "zipcode": "7090835",
    "prefectureCode": "33",
    "prefectureNumber": 33,
    "prefecture": "岡山県",
    "city": "赤磐市",
    "town": "西中"
  },
  "7090836": {
    "zipcode": "7090836",
    "prefectureCode": "33",
    "prefectureNumber": 33,
    "prefecture": "岡山県",
    "city": "赤磐市",
    "town": "下仁保"
  },
  "7090837": {
    "zipcode": "7090837",
    "prefectureCode": "33",
    "prefectureNumber": 33,
    "prefecture": "岡山県",
    "city": "赤磐市",
    "town": "上仁保"
  },
  "7090838": {
    "zipcode": "7090838",
    "prefectureCode": "33",
    "prefectureNumber": 33,
    "prefecture": "岡山県",
    "city": "赤磐市",
    "town": "斗有"
  },
  "7090841": {
    "zipcode": "7090841",
    "prefectureCode": "33",
    "prefectureNumber": 33,
    "prefecture": "岡山県",
    "city": "岡山市東区",
    "town": "瀬戸町万富"
  },
  "7090842": {
    "zipcode": "7090842",
    "prefectureCode": "33",
    "prefectureNumber": 33,
    "prefecture": "岡山県",
    "city": "岡山市東区",
    "town": "瀬戸町二日市"
  },
  "7090843": {
    "zipcode": "7090843",
    "prefectureCode": "33",
    "prefectureNumber": 33,
    "prefecture": "岡山県",
    "city": "岡山市東区",
    "town": "瀬戸町弓削"
  },
  "7090844": {
    "zipcode": "7090844",
    "prefectureCode": "33",
    "prefectureNumber": 33,
    "prefecture": "岡山県",
    "city": "岡山市東区",
    "town": "瀬戸町南方"
  },
  "7090845": {
    "zipcode": "7090845",
    "prefectureCode": "33",
    "prefectureNumber": 33,
    "prefecture": "岡山県",
    "city": "岡山市東区",
    "town": "瀬戸町鍛冶屋"
  },
  "7090846": {
    "zipcode": "7090846",
    "prefectureCode": "33",
    "prefectureNumber": 33,
    "prefecture": "岡山県",
    "city": "岡山市東区",
    "town": "瀬戸町大井"
  },
  "7090851": {
    "zipcode": "7090851",
    "prefectureCode": "33",
    "prefectureNumber": 33,
    "prefecture": "岡山県",
    "city": "岡山市東区",
    "town": "瀬戸町大内"
  },
  "7090852": {
    "zipcode": "7090852",
    "prefectureCode": "33",
    "prefectureNumber": 33,
    "prefecture": "岡山県",
    "city": "岡山市東区",
    "town": "瀬戸町肩脊"
  },
  "7090853": {
    "zipcode": "7090853",
    "prefectureCode": "33",
    "prefectureNumber": 33,
    "prefecture": "岡山県",
    "city": "岡山市東区",
    "town": "瀬戸町旭ヶ丘"
  },
  "7090854": {
    "zipcode": "7090854",
    "prefectureCode": "33",
    "prefectureNumber": 33,
    "prefecture": "岡山県",
    "city": "岡山市東区",
    "town": "瀬戸町江尻"
  },
  "7090855": {
    "zipcode": "7090855",
    "prefectureCode": "33",
    "prefectureNumber": 33,
    "prefecture": "岡山県",
    "city": "岡山市東区",
    "town": "瀬戸町沖"
  },
  "7090856": {
    "zipcode": "7090856",
    "prefectureCode": "33",
    "prefectureNumber": 33,
    "prefecture": "岡山県",
    "city": "岡山市東区",
    "town": "瀬戸町下"
  },
  "7090861": {
    "zipcode": "7090861",
    "prefectureCode": "33",
    "prefectureNumber": 33,
    "prefecture": "岡山県",
    "city": "岡山市東区",
    "town": "瀬戸町瀬戸"
  },
  "7090862": {
    "zipcode": "7090862",
    "prefectureCode": "33",
    "prefectureNumber": 33,
    "prefecture": "岡山県",
    "city": "岡山市東区",
    "town": "瀬戸町笹岡"
  },
  "7090863": {
    "zipcode": "7090863",
    "prefectureCode": "33",
    "prefectureNumber": 33,
    "prefecture": "岡山県",
    "city": "岡山市東区",
    "town": "瀬戸町観音寺"
  },
  "7090864": {
    "zipcode": "7090864",
    "prefectureCode": "33",
    "prefectureNumber": 33,
    "prefecture": "岡山県",
    "city": "岡山市東区",
    "town": "瀬戸町宿奥"
  },
  "7090865": {
    "zipcode": "7090865",
    "prefectureCode": "33",
    "prefectureNumber": 33,
    "prefecture": "岡山県",
    "city": "岡山市東区",
    "town": "瀬戸町菊山"
  },
  "7090871": {
    "zipcode": "7090871",
    "prefectureCode": "33",
    "prefectureNumber": 33,
    "prefecture": "岡山県",
    "city": "岡山市東区",
    "town": "瀬戸町塩納"
  },
  "7090872": {
    "zipcode": "7090872",
    "prefectureCode": "33",
    "prefectureNumber": 33,
    "prefecture": "岡山県",
    "city": "岡山市東区",
    "town": "瀬戸町宗堂"
  },
  "7090873": {
    "zipcode": "7090873",
    "prefectureCode": "33",
    "prefectureNumber": 33,
    "prefecture": "岡山県",
    "city": "岡山市東区",
    "town": "瀬戸町坂根"
  },
  "7090874": {
    "zipcode": "7090874",
    "prefectureCode": "33",
    "prefectureNumber": 33,
    "prefecture": "岡山県",
    "city": "岡山市東区",
    "town": "瀬戸町森末"
  },
  "7090875": {
    "zipcode": "7090875",
    "prefectureCode": "33",
    "prefectureNumber": 33,
    "prefecture": "岡山県",
    "city": "岡山市東区",
    "town": "瀬戸町寺地"
  },
  "7090876": {
    "zipcode": "7090876",
    "prefectureCode": "33",
    "prefectureNumber": 33,
    "prefecture": "岡山県",
    "city": "岡山市東区",
    "town": "瀬戸町光明谷"
  },
  "7091201": {
    "zipcode": "7091201",
    "prefectureCode": "33",
    "prefectureNumber": 33,
    "prefecture": "岡山県",
    "city": "岡山市南区",
    "town": "北七区"
  },
  "7091202": {
    "zipcode": "7091202",
    "prefectureCode": "33",
    "prefectureNumber": 33,
    "prefecture": "岡山県",
    "city": "岡山市南区",
    "town": "西七区"
  },
  "7091203": {
    "zipcode": "7091203",
    "prefectureCode": "33",
    "prefectureNumber": 33,
    "prefecture": "岡山県",
    "city": "岡山市南区",
    "town": "西紅陽台"
  },
  "7091204": {
    "zipcode": "7091204",
    "prefectureCode": "33",
    "prefectureNumber": 33,
    "prefecture": "岡山県",
    "city": "岡山市南区",
    "town": "西高崎"
  },
  "7091211": {
    "zipcode": "7091211",
    "prefectureCode": "33",
    "prefectureNumber": 33,
    "prefecture": "岡山県",
    "city": "岡山市南区",
    "town": "迫川"
  },
  "7091212": {
    "zipcode": "7091212",
    "prefectureCode": "33",
    "prefectureNumber": 33,
    "prefecture": "岡山県",
    "city": "岡山市南区",
    "town": "奥迫川"
  },
  "7091213": {
    "zipcode": "7091213",
    "prefectureCode": "33",
    "prefectureNumber": 33,
    "prefecture": "岡山県",
    "city": "岡山市南区",
    "town": "彦崎"
  },
  "7091214": {
    "zipcode": "7091214",
    "prefectureCode": "33",
    "prefectureNumber": 33,
    "prefecture": "岡山県",
    "city": "岡山市南区",
    "town": "川張"
  },
  "7091215": {
    "zipcode": "7091215",
    "prefectureCode": "33",
    "prefectureNumber": 33,
    "prefecture": "岡山県",
    "city": "岡山市南区",
    "town": "片岡"
  },
  "7091216": {
    "zipcode": "7091216",
    "prefectureCode": "33",
    "prefectureNumber": 33,
    "prefecture": "岡山県",
    "city": "岡山市南区",
    "town": "宗津"
  },
  "7092101": {
    "zipcode": "7092101",
    "prefectureCode": "33",
    "prefectureNumber": 33,
    "prefecture": "岡山県",
    "city": "岡山市北区",
    "town": "御津石上"
  },
  "7092102": {
    "zipcode": "7092102",
    "prefectureCode": "33",
    "prefectureNumber": 33,
    "prefecture": "岡山県",
    "city": "岡山市北区",
    "town": "御津中畑"
  },
  "7092103": {
    "zipcode": "7092103",
    "prefectureCode": "33",
    "prefectureNumber": 33,
    "prefecture": "岡山県",
    "city": "岡山市北区",
    "town": "御津矢知"
  },
  "7092104": {
    "zipcode": "7092104",
    "prefectureCode": "33",
    "prefectureNumber": 33,
    "prefecture": "岡山県",
    "city": "岡山市北区",
    "town": "御津平岡西"
  },
  "7092105": {
    "zipcode": "7092105",
    "prefectureCode": "33",
    "prefectureNumber": 33,
    "prefecture": "岡山県",
    "city": "岡山市北区",
    "town": "御津伊田"
  },
  "7092106": {
    "zipcode": "7092106",
    "prefectureCode": "33",
    "prefectureNumber": 33,
    "prefecture": "岡山県",
    "city": "岡山市北区",
    "town": "御津新庄"
  },
  "7092107": {
    "zipcode": "7092107",
    "prefectureCode": "33",
    "prefectureNumber": 33,
    "prefecture": "岡山県",
    "city": "岡山市北区",
    "town": "御津矢原"
  },
  "7092111": {
    "zipcode": "7092111",
    "prefectureCode": "33",
    "prefectureNumber": 33,
    "prefecture": "岡山県",
    "city": "岡山市北区",
    "town": "御津川高"
  },
  "7092112": {
    "zipcode": "7092112",
    "prefectureCode": "33",
    "prefectureNumber": 33,
    "prefecture": "岡山県",
    "city": "岡山市北区",
    "town": "御津国ケ原"
  },
  "7092113": {
    "zipcode": "7092113",
    "prefectureCode": "33",
    "prefectureNumber": 33,
    "prefecture": "岡山県",
    "city": "岡山市北区",
    "town": "御津芳谷"
  },
  "7092114": {
    "zipcode": "7092114",
    "prefectureCode": "33",
    "prefectureNumber": 33,
    "prefecture": "岡山県",
    "city": "岡山市北区",
    "town": "御津中牧"
  },
  "7092115": {
    "zipcode": "7092115",
    "prefectureCode": "33",
    "prefectureNumber": 33,
    "prefecture": "岡山県",
    "city": "岡山市北区",
    "town": "御津北野"
  },
  "7092116": {
    "zipcode": "7092116",
    "prefectureCode": "33",
    "prefectureNumber": 33,
    "prefecture": "岡山県",
    "city": "岡山市北区",
    "town": "御津中山"
  },
  "7092117": {
    "zipcode": "7092117",
    "prefectureCode": "33",
    "prefectureNumber": 33,
    "prefecture": "岡山県",
    "city": "岡山市北区",
    "town": "御津野々口"
  },
  "7092121": {
    "zipcode": "7092121",
    "prefectureCode": "33",
    "prefectureNumber": 33,
    "prefecture": "岡山県",
    "city": "岡山市北区",
    "town": "御津宇垣"
  },
  "7092122": {
    "zipcode": "7092122",
    "prefectureCode": "33",
    "prefectureNumber": 33,
    "prefecture": "岡山県",
    "city": "岡山市北区",
    "town": "御津吉尾"
  },
  "7092123": {
    "zipcode": "7092123",
    "prefectureCode": "33",
    "prefectureNumber": 33,
    "prefecture": "岡山県",
    "city": "岡山市北区",
    "town": "御津河内"
  },
  "7092124": {
    "zipcode": "7092124",
    "prefectureCode": "33",
    "prefectureNumber": 33,
    "prefecture": "岡山県",
    "city": "岡山市北区",
    "town": "御津高津"
  },
  "7092125": {
    "zipcode": "7092125",
    "prefectureCode": "33",
    "prefectureNumber": 33,
    "prefecture": "岡山県",
    "city": "岡山市北区",
    "town": "御津宇甘"
  },
  "7092126": {
    "zipcode": "7092126",
    "prefectureCode": "33",
    "prefectureNumber": 33,
    "prefecture": "岡山県",
    "city": "岡山市北区",
    "town": "御津勝尾"
  },
  "7092131": {
    "zipcode": "7092131",
    "prefectureCode": "33",
    "prefectureNumber": 33,
    "prefecture": "岡山県",
    "city": "岡山市北区",
    "town": "御津鹿瀬"
  },
  "7092132": {
    "zipcode": "7092132",
    "prefectureCode": "33",
    "prefectureNumber": 33,
    "prefecture": "岡山県",
    "city": "岡山市北区",
    "town": "御津草生"
  },
  "7092133": {
    "zipcode": "7092133",
    "prefectureCode": "33",
    "prefectureNumber": 33,
    "prefecture": "岡山県",
    "city": "岡山市北区",
    "town": "御津金川"
  },
  "7092134": {
    "zipcode": "7092134",
    "prefectureCode": "33",
    "prefectureNumber": 33,
    "prefecture": "岡山県",
    "city": "岡山市北区",
    "town": "御津下田"
  },
  "7092135": {
    "zipcode": "7092135",
    "prefectureCode": "33",
    "prefectureNumber": 33,
    "prefecture": "岡山県",
    "city": "岡山市北区",
    "town": "御津中泉"
  },
  "7092136": {
    "zipcode": "7092136",
    "prefectureCode": "33",
    "prefectureNumber": 33,
    "prefecture": "岡山県",
    "city": "岡山市北区",
    "town": "御津紙工"
  },
  "7092137": {
    "zipcode": "7092137",
    "prefectureCode": "33",
    "prefectureNumber": 33,
    "prefecture": "岡山県",
    "city": "岡山市北区",
    "town": "御津虎倉"
  },
  "7092331": {
    "zipcode": "7092331",
    "prefectureCode": "33",
    "prefectureNumber": 33,
    "prefecture": "岡山県",
    "city": "加賀郡吉備中央町",
    "town": "下加茂"
  },
  "7092332": {
    "zipcode": "7092332",
    "prefectureCode": "33",
    "prefectureNumber": 33,
    "prefecture": "岡山県",
    "city": "加賀郡吉備中央町",
    "town": "高谷"
  },
  "7092333": {
    "zipcode": "7092333",
    "prefectureCode": "33",
    "prefectureNumber": 33,
    "prefecture": "岡山県",
    "city": "加賀郡吉備中央町",
    "town": "加茂市場"
  },
  "7092334": {
    "zipcode": "7092334",
    "prefectureCode": "33",
    "prefectureNumber": 33,
    "prefecture": "岡山県",
    "city": "加賀郡吉備中央町",
    "town": "美原"
  },
  "7092341": {
    "zipcode": "7092341",
    "prefectureCode": "33",
    "prefectureNumber": 33,
    "prefecture": "岡山県",
    "city": "加賀郡吉備中央町",
    "town": "上加茂"
  },
  "7092342": {
    "zipcode": "7092342",
    "prefectureCode": "33",
    "prefectureNumber": 33,
    "prefecture": "岡山県",
    "city": "加賀郡吉備中央町",
    "town": "広面"
  },
  "7092343": {
    "zipcode": "7092343",
    "prefectureCode": "33",
    "prefectureNumber": 33,
    "prefecture": "岡山県",
    "city": "加賀郡吉備中央町",
    "town": "竹部"
  },
  "7092344": {
    "zipcode": "7092344",
    "prefectureCode": "33",
    "prefectureNumber": 33,
    "prefecture": "岡山県",
    "city": "加賀郡吉備中央町",
    "town": "上野"
  },
  "7092345": {
    "zipcode": "7092345",
    "prefectureCode": "33",
    "prefectureNumber": 33,
    "prefecture": "岡山県",
    "city": "加賀郡吉備中央町",
    "town": "平岡"
  },
  "7092401": {
    "zipcode": "7092401",
    "prefectureCode": "33",
    "prefectureNumber": 33,
    "prefecture": "岡山県",
    "city": "加賀郡吉備中央町",
    "town": "神瀬"
  },
  "7092402": {
    "zipcode": "7092402",
    "prefectureCode": "33",
    "prefectureNumber": 33,
    "prefecture": "岡山県",
    "city": "加賀郡吉備中央町",
    "town": "高富"
  },
  "7092403": {
    "zipcode": "7092403",
    "prefectureCode": "33",
    "prefectureNumber": 33,
    "prefecture": "岡山県",
    "city": "加賀郡吉備中央町",
    "town": "案田"
  },
  "7092404": {
    "zipcode": "7092404",
    "prefectureCode": "33",
    "prefectureNumber": 33,
    "prefecture": "岡山県",
    "city": "加賀郡吉備中央町",
    "town": "小森"
  },
  "7092411": {
    "zipcode": "7092411",
    "prefectureCode": "33",
    "prefectureNumber": 33,
    "prefecture": "岡山県",
    "city": "加賀郡吉備中央町",
    "town": "上田東"
  },
  "7092412": {
    "zipcode": "7092412",
    "prefectureCode": "33",
    "prefectureNumber": 33,
    "prefecture": "岡山県",
    "city": "加賀郡吉備中央町",
    "town": "円城"
  },
  "7092413": {
    "zipcode": "7092413",
    "prefectureCode": "33",
    "prefectureNumber": 33,
    "prefecture": "岡山県",
    "city": "加賀郡吉備中央町",
    "town": "上田西"
  },
  "7092421": {
    "zipcode": "7092421",
    "prefectureCode": "33",
    "prefectureNumber": 33,
    "prefecture": "岡山県",
    "city": "加賀郡吉備中央町",
    "town": "細田"
  },
  "7092422": {
    "zipcode": "7092422",
    "prefectureCode": "33",
    "prefectureNumber": 33,
    "prefecture": "岡山県",
    "city": "加賀郡吉備中央町",
    "town": "三納谷"
  },
  "7092551": {
    "zipcode": "7092551",
    "prefectureCode": "33",
    "prefectureNumber": 33,
    "prefecture": "岡山県",
    "city": "加賀郡吉備中央町",
    "town": "下土井"
  },
  "7092552": {
    "zipcode": "7092552",
    "prefectureCode": "33",
    "prefectureNumber": 33,
    "prefecture": "岡山県",
    "city": "加賀郡吉備中央町",
    "town": "井原"
  },
  "7092553": {
    "zipcode": "7092553",
    "prefectureCode": "33",
    "prefectureNumber": 33,
    "prefecture": "岡山県",
    "city": "加賀郡吉備中央町",
    "town": "富永"
  },
  "7092554": {
    "zipcode": "7092554",
    "prefectureCode": "33",
    "prefectureNumber": 33,
    "prefecture": "岡山県",
    "city": "加賀郡吉備中央町",
    "town": "和田"
  },
  "7092661": {
    "zipcode": "7092661",
    "prefectureCode": "33",
    "prefectureNumber": 33,
    "prefecture": "岡山県",
    "city": "加賀郡吉備中央町",
    "town": "豊岡下"
  },
  "7092662": {
    "zipcode": "7092662",
    "prefectureCode": "33",
    "prefectureNumber": 33,
    "prefecture": "岡山県",
    "city": "加賀郡吉備中央町",
    "town": "三谷"
  },
  "7092663": {
    "zipcode": "7092663",
    "prefectureCode": "33",
    "prefectureNumber": 33,
    "prefecture": "岡山県",
    "city": "加賀郡吉備中央町",
    "town": "大木"
  },
  "7092664": {
    "zipcode": "7092664",
    "prefectureCode": "33",
    "prefectureNumber": 33,
    "prefecture": "岡山県",
    "city": "加賀郡吉備中央町",
    "town": "豊岡上"
  },
  "7092671": {
    "zipcode": "7092671",
    "prefectureCode": "33",
    "prefectureNumber": 33,
    "prefecture": "岡山県",
    "city": "加賀郡吉備中央町",
    "town": "杉谷"
  },
  "7092672": {
    "zipcode": "7092672",
    "prefectureCode": "33",
    "prefectureNumber": 33,
    "prefecture": "岡山県",
    "city": "加賀郡吉備中央町",
    "town": "粟井谷"
  },
  "7092673": {
    "zipcode": "7092673",
    "prefectureCode": "33",
    "prefectureNumber": 33,
    "prefecture": "岡山県",
    "city": "加賀郡吉備中央町",
    "town": "尾原"
  },
  "7092674": {
    "zipcode": "7092674",
    "prefectureCode": "33",
    "prefectureNumber": 33,
    "prefecture": "岡山県",
    "city": "加賀郡吉備中央町",
    "town": "笹目"
  },
  "7092675": {
    "zipcode": "7092675",
    "prefectureCode": "33",
    "prefectureNumber": 33,
    "prefecture": "岡山県",
    "city": "加賀郡吉備中央町",
    "town": "福沢"
  },
  "7092676": {
    "zipcode": "7092676",
    "prefectureCode": "33",
    "prefectureNumber": 33,
    "prefecture": "岡山県",
    "city": "加賀郡吉備中央町",
    "town": "溝部"
  },
  "7093101": {
    "zipcode": "7093101",
    "prefectureCode": "33",
    "prefectureNumber": 33,
    "prefecture": "岡山県",
    "city": "岡山市北区",
    "town": "建部町鶴田"
  },
  "7093102": {
    "zipcode": "7093102",
    "prefectureCode": "33",
    "prefectureNumber": 33,
    "prefecture": "岡山県",
    "city": "岡山市北区",
    "town": "建部町和田南"
  },
  "7093103": {
    "zipcode": "7093103",
    "prefectureCode": "33",
    "prefectureNumber": 33,
    "prefecture": "岡山県",
    "city": "岡山市北区",
    "town": "建部町角石畝"
  },
  "7093104": {
    "zipcode": "7093104",
    "prefectureCode": "33",
    "prefectureNumber": 33,
    "prefecture": "岡山県",
    "city": "岡山市北区",
    "town": "建部町角石谷"
  },
  "7093105": {
    "zipcode": "7093105",
    "prefectureCode": "33",
    "prefectureNumber": 33,
    "prefecture": "岡山県",
    "city": "岡山市北区",
    "town": "建部町三明寺"
  },
  "7093111": {
    "zipcode": "7093111",
    "prefectureCode": "33",
    "prefectureNumber": 33,
    "prefecture": "岡山県",
    "city": "岡山市北区",
    "town": "建部町福渡"
  },
  "7093112": {
    "zipcode": "7093112",
    "prefectureCode": "33",
    "prefectureNumber": 33,
    "prefecture": "岡山県",
    "city": "岡山市北区",
    "town": "建部町川口"
  },
  "7093113": {
    "zipcode": "7093113",
    "prefectureCode": "33",
    "prefectureNumber": 33,
    "prefecture": "岡山県",
    "city": "岡山市北区",
    "town": "建部町下神目"
  },
  "7093114": {
    "zipcode": "7093114",
    "prefectureCode": "33",
    "prefectureNumber": 33,
    "prefecture": "岡山県",
    "city": "岡山市北区",
    "town": "建部町豊楽寺"
  },
  "7093121": {
    "zipcode": "7093121",
    "prefectureCode": "33",
    "prefectureNumber": 33,
    "prefecture": "岡山県",
    "city": "岡山市北区",
    "town": "建部町大田"
  },
  "7093122": {
    "zipcode": "7093122",
    "prefectureCode": "33",
    "prefectureNumber": 33,
    "prefecture": "岡山県",
    "city": "岡山市北区",
    "town": "建部町吉田"
  },
  "7093123": {
    "zipcode": "7093123",
    "prefectureCode": "33",
    "prefectureNumber": 33,
    "prefecture": "岡山県",
    "city": "岡山市北区",
    "town": "建部町土師方"
  },
  "7093124": {
    "zipcode": "7093124",
    "prefectureCode": "33",
    "prefectureNumber": 33,
    "prefecture": "岡山県",
    "city": "岡山市北区",
    "town": "建部町小倉"
  },
  "7093131": {
    "zipcode": "7093131",
    "prefectureCode": "33",
    "prefectureNumber": 33,
    "prefecture": "岡山県",
    "city": "岡山市北区",
    "town": "建部町市場"
  },
  "7093132": {
    "zipcode": "7093132",
    "prefectureCode": "33",
    "prefectureNumber": 33,
    "prefecture": "岡山県",
    "city": "岡山市北区",
    "town": "建部町中田"
  },
  "7093133": {
    "zipcode": "7093133",
    "prefectureCode": "33",
    "prefectureNumber": 33,
    "prefecture": "岡山県",
    "city": "岡山市北区",
    "town": "建部町西原"
  },
  "7093134": {
    "zipcode": "7093134",
    "prefectureCode": "33",
    "prefectureNumber": 33,
    "prefecture": "岡山県",
    "city": "岡山市北区",
    "town": "建部町桜"
  },
  "7093141": {
    "zipcode": "7093141",
    "prefectureCode": "33",
    "prefectureNumber": 33,
    "prefecture": "岡山県",
    "city": "岡山市北区",
    "town": "建部町品田"
  },
  "7093142": {
    "zipcode": "7093142",
    "prefectureCode": "33",
    "prefectureNumber": 33,
    "prefecture": "岡山県",
    "city": "岡山市北区",
    "town": "建部町建部上"
  },
  "7093143": {
    "zipcode": "7093143",
    "prefectureCode": "33",
    "prefectureNumber": 33,
    "prefecture": "岡山県",
    "city": "岡山市北区",
    "town": "建部町宮地"
  },
  "7093144": {
    "zipcode": "7093144",
    "prefectureCode": "33",
    "prefectureNumber": 33,
    "prefecture": "岡山県",
    "city": "岡山市北区",
    "town": "建部町富沢"
  },
  "7093145": {
    "zipcode": "7093145",
    "prefectureCode": "33",
    "prefectureNumber": 33,
    "prefecture": "岡山県",
    "city": "岡山市北区",
    "town": "建部町田地子"
  },
  "7093401": {
    "zipcode": "7093401",
    "prefectureCode": "33",
    "prefectureNumber": 33,
    "prefecture": "岡山県",
    "city": "久米郡美咲町",
    "town": "北"
  },
  "7093402": {
    "zipcode": "7093402",
    "prefectureCode": "33",
    "prefectureNumber": 33,
    "prefecture": "岡山県",
    "city": "久米郡美咲町",
    "town": "南"
  },
  "7093403": {
    "zipcode": "7093403",
    "prefectureCode": "33",
    "prefectureNumber": 33,
    "prefecture": "岡山県",
    "city": "久米郡美咲町",
    "town": "里"
  },
  "7093404": {
    "zipcode": "7093404",
    "prefectureCode": "33",
    "prefectureNumber": 33,
    "prefecture": "岡山県",
    "city": "久米郡美咲町",
    "town": "西川"
  },
  "7093405": {
    "zipcode": "7093405",
    "prefectureCode": "33",
    "prefectureNumber": 33,
    "prefecture": "岡山県",
    "city": "久米郡美咲町",
    "town": "西"
  },
  "7093406": {
    "zipcode": "7093406",
    "prefectureCode": "33",
    "prefectureNumber": 33,
    "prefecture": "岡山県",
    "city": "久米郡美咲町",
    "town": "西川上"
  },
  "7093407": {
    "zipcode": "7093407",
    "prefectureCode": "33",
    "prefectureNumber": 33,
    "prefecture": "岡山県",
    "city": "久米郡美咲町",
    "town": "中"
  },
  "7093411": {
    "zipcode": "7093411",
    "prefectureCode": "33",
    "prefectureNumber": 33,
    "prefecture": "岡山県",
    "city": "久米郡美咲町",
    "town": "上口"
  },
  "7093412": {
    "zipcode": "7093412",
    "prefectureCode": "33",
    "prefectureNumber": 33,
    "prefecture": "岡山県",
    "city": "久米郡美咲町",
    "town": "小山"
  },
  "7093413": {
    "zipcode": "7093413",
    "prefectureCode": "33",
    "prefectureNumber": 33,
    "prefecture": "岡山県",
    "city": "久米郡美咲町",
    "town": "栃原"
  },
  "7093414": {
    "zipcode": "7093414",
    "prefectureCode": "33",
    "prefectureNumber": 33,
    "prefecture": "岡山県",
    "city": "久米郡美咲町",
    "town": "西垪和"
  },
  "7093415": {
    "zipcode": "7093415",
    "prefectureCode": "33",
    "prefectureNumber": 33,
    "prefecture": "岡山県",
    "city": "久米郡美咲町",
    "town": "江与味"
  },
  "7093416": {
    "zipcode": "7093416",
    "prefectureCode": "33",
    "prefectureNumber": 33,
    "prefecture": "岡山県",
    "city": "久米郡美咲町",
    "town": "東垪和"
  },
  "7093417": {
    "zipcode": "7093417",
    "prefectureCode": "33",
    "prefectureNumber": 33,
    "prefecture": "岡山県",
    "city": "久米郡美咲町",
    "town": "中垪和"
  },
  "7093600": {
    "zipcode": "7093600",
    "prefectureCode": "33",
    "prefectureNumber": 33,
    "prefecture": "岡山県",
    "city": "久米郡久米南町",
    "town": "以下に掲載がない場合"
  },
  "7093601": {
    "zipcode": "7093601",
    "prefectureCode": "33",
    "prefectureNumber": 33,
    "prefecture": "岡山県",
    "city": "久米郡久米南町",
    "town": "北庄"
  },
  "7093602": {
    "zipcode": "7093602",
    "prefectureCode": "33",
    "prefectureNumber": 33,
    "prefecture": "岡山県",
    "city": "久米郡久米南町",
    "town": "里方"
  },
  "7093603": {
    "zipcode": "7093603",
    "prefectureCode": "33",
    "prefectureNumber": 33,
    "prefecture": "岡山県",
    "city": "久米郡久米南町",
    "town": "山ノ城"
  },
  "7093604": {
    "zipcode": "7093604",
    "prefectureCode": "33",
    "prefectureNumber": 33,
    "prefecture": "岡山県",
    "city": "久米郡久米南町",
    "town": "南庄"
  },
  "7093605": {
    "zipcode": "7093605",
    "prefectureCode": "33",
    "prefectureNumber": 33,
    "prefecture": "岡山県",
    "city": "久米郡久米南町",
    "town": "塩之内"
  },
  "7093606": {
    "zipcode": "7093606",
    "prefectureCode": "33",
    "prefectureNumber": 33,
    "prefecture": "岡山県",
    "city": "久米郡久米南町",
    "town": "羽出木"
  },
  "7093611": {
    "zipcode": "7093611",
    "prefectureCode": "33",
    "prefectureNumber": 33,
    "prefecture": "岡山県",
    "city": "久米郡久米南町",
    "town": "松"
  },
  "7093612": {
    "zipcode": "7093612",
    "prefectureCode": "33",
    "prefectureNumber": 33,
    "prefecture": "岡山県",
    "city": "久米郡久米南町",
    "town": "上弓削"
  },
  "7093613": {
    "zipcode": "7093613",
    "prefectureCode": "33",
    "prefectureNumber": 33,
    "prefecture": "岡山県",
    "city": "久米郡久米南町",
    "town": "西山寺"
  },
  "7093614": {
    "zipcode": "7093614",
    "prefectureCode": "33",
    "prefectureNumber": 33,
    "prefecture": "岡山県",
    "city": "久米郡久米南町",
    "town": "下弓削"
  },
  "7093615": {
    "zipcode": "7093615",
    "prefectureCode": "33",
    "prefectureNumber": 33,
    "prefecture": "岡山県",
    "city": "久米郡久米南町",
    "town": "上二ケ"
  },
  "7093616": {
    "zipcode": "7093616",
    "prefectureCode": "33",
    "prefectureNumber": 33,
    "prefecture": "岡山県",
    "city": "久米郡久米南町",
    "town": "全間"
  },
  "7093617": {
    "zipcode": "7093617",
    "prefectureCode": "33",
    "prefectureNumber": 33,
    "prefecture": "岡山県",
    "city": "久米郡久米南町",
    "town": "下二ケ"
  },
  "7093621": {
    "zipcode": "7093621",
    "prefectureCode": "33",
    "prefectureNumber": 33,
    "prefecture": "岡山県",
    "city": "久米郡久米南町",
    "town": "上籾"
  },
  "7093622": {
    "zipcode": "7093622",
    "prefectureCode": "33",
    "prefectureNumber": 33,
    "prefecture": "岡山県",
    "city": "久米郡久米南町",
    "town": "仏教寺"
  },
  "7093623": {
    "zipcode": "7093623",
    "prefectureCode": "33",
    "prefectureNumber": 33,
    "prefecture": "岡山県",
    "city": "久米郡久米南町",
    "town": "中籾"
  },
  "7093624": {
    "zipcode": "7093624",
    "prefectureCode": "33",
    "prefectureNumber": 33,
    "prefecture": "岡山県",
    "city": "久米郡久米南町",
    "town": "下籾"
  },
  "7093625": {
    "zipcode": "7093625",
    "prefectureCode": "33",
    "prefectureNumber": 33,
    "prefecture": "岡山県",
    "city": "久米郡久米南町",
    "town": "別所"
  },
  "7093626": {
    "zipcode": "7093626",
    "prefectureCode": "33",
    "prefectureNumber": 33,
    "prefecture": "岡山県",
    "city": "久米郡久米南町",
    "town": "上神目"
  },
  "7093627": {
    "zipcode": "7093627",
    "prefectureCode": "33",
    "prefectureNumber": 33,
    "prefecture": "岡山県",
    "city": "久米郡久米南町",
    "town": "神目中"
  },
  "7093631": {
    "zipcode": "7093631",
    "prefectureCode": "33",
    "prefectureNumber": 33,
    "prefecture": "岡山県",
    "city": "久米郡久米南町",
    "town": "宮地"
  },
  "7093632": {
    "zipcode": "7093632",
    "prefectureCode": "33",
    "prefectureNumber": 33,
    "prefecture": "岡山県",
    "city": "久米郡久米南町",
    "town": "山手"
  },
  "7093633": {
    "zipcode": "7093633",
    "prefectureCode": "33",
    "prefectureNumber": 33,
    "prefecture": "岡山県",
    "city": "久米郡久米南町",
    "town": "峠"
  },
  "7093634": {
    "zipcode": "7093634",
    "prefectureCode": "33",
    "prefectureNumber": 33,
    "prefecture": "岡山県",
    "city": "久米郡久米南町",
    "town": "京尾"
  },
  "7093635": {
    "zipcode": "7093635",
    "prefectureCode": "33",
    "prefectureNumber": 33,
    "prefecture": "岡山県",
    "city": "久米郡久米南町",
    "town": "南畑"
  },
  "7093636": {
    "zipcode": "7093636",
    "prefectureCode": "33",
    "prefectureNumber": 33,
    "prefecture": "岡山県",
    "city": "久米郡久米南町",
    "town": "安ケ乢"
  },
  "7093700": {
    "zipcode": "7093700",
    "prefectureCode": "33",
    "prefectureNumber": 33,
    "prefecture": "岡山県",
    "city": "久米郡美咲町",
    "town": "以下に掲載がない場合"
  },
  "7093701": {
    "zipcode": "7093701",
    "prefectureCode": "33",
    "prefectureNumber": 33,
    "prefecture": "岡山県",
    "city": "久米郡美咲町",
    "town": "錦織"
  },
  "7093702": {
    "zipcode": "7093702",
    "prefectureCode": "33",
    "prefectureNumber": 33,
    "prefecture": "岡山県",
    "city": "久米郡美咲町",
    "town": "打穴下"
  },
  "7093703": {
    "zipcode": "7093703",
    "prefectureCode": "33",
    "prefectureNumber": 33,
    "prefecture": "岡山県",
    "city": "久米郡美咲町",
    "town": "打穴中"
  },
  "7093704": {
    "zipcode": "7093704",
    "prefectureCode": "33",
    "prefectureNumber": 33,
    "prefecture": "岡山県",
    "city": "久米郡美咲町",
    "town": "打穴里"
  },
  "7093705": {
    "zipcode": "7093705",
    "prefectureCode": "33",
    "prefectureNumber": 33,
    "prefecture": "岡山県",
    "city": "久米郡美咲町",
    "town": "打穴上"
  },
  "7093706": {
    "zipcode": "7093706",
    "prefectureCode": "33",
    "prefectureNumber": 33,
    "prefecture": "岡山県",
    "city": "久米郡美咲町",
    "town": "打穴北"
  },
  "7093707": {
    "zipcode": "7093707",
    "prefectureCode": "33",
    "prefectureNumber": 33,
    "prefecture": "岡山県",
    "city": "久米郡美咲町",
    "town": "打穴西"
  },
  "7093711": {
    "zipcode": "7093711",
    "prefectureCode": "33",
    "prefectureNumber": 33,
    "prefecture": "岡山県",
    "city": "久米郡美咲町",
    "town": "越尾"
  },
  "7093712": {
    "zipcode": "7093712",
    "prefectureCode": "33",
    "prefectureNumber": 33,
    "prefecture": "岡山県",
    "city": "久米郡美咲町",
    "town": "金堀"
  },
  "7093713": {
    "zipcode": "7093713",
    "prefectureCode": "33",
    "prefectureNumber": 33,
    "prefecture": "岡山県",
    "city": "久米郡美咲町",
    "town": "新城"
  },
  "7093714": {
    "zipcode": "7093714",
    "prefectureCode": "33",
    "prefectureNumber": 33,
    "prefecture": "岡山県",
    "city": "久米郡美咲町",
    "town": "小原"
  },
  "7093715": {
    "zipcode": "7093715",
    "prefectureCode": "33",
    "prefectureNumber": 33,
    "prefecture": "岡山県",
    "city": "久米郡美咲町",
    "town": "西幸"
  },
  "7093716": {
    "zipcode": "7093716",
    "prefectureCode": "33",
    "prefectureNumber": 33,
    "prefecture": "岡山県",
    "city": "久米郡美咲町",
    "town": "頼元"
  },
  "7093717": {
    "zipcode": "7093717",
    "prefectureCode": "33",
    "prefectureNumber": 33,
    "prefecture": "岡山県",
    "city": "久米郡美咲町",
    "town": "原田"
  },
  "7093721": {
    "zipcode": "7093721",
    "prefectureCode": "33",
    "prefectureNumber": 33,
    "prefecture": "岡山県",
    "city": "久米郡美咲町",
    "town": "両山寺"
  },
  "7093722": {
    "zipcode": "7093722",
    "prefectureCode": "33",
    "prefectureNumber": 33,
    "prefecture": "岡山県",
    "city": "久米郡美咲町",
    "town": "大垪和東"
  },
  "7093723": {
    "zipcode": "7093723",
    "prefectureCode": "33",
    "prefectureNumber": 33,
    "prefecture": "岡山県",
    "city": "久米郡美咲町",
    "town": "境"
  },
  "7093724": {
    "zipcode": "7093724",
    "prefectureCode": "33",
    "prefectureNumber": 33,
    "prefecture": "岡山県",
    "city": "久米郡美咲町",
    "town": "角石祖母"
  },
  "7093725": {
    "zipcode": "7093725",
    "prefectureCode": "33",
    "prefectureNumber": 33,
    "prefecture": "岡山県",
    "city": "久米郡美咲町",
    "town": "和田北"
  },
  "7093726": {
    "zipcode": "7093726",
    "prefectureCode": "33",
    "prefectureNumber": 33,
    "prefecture": "岡山県",
    "city": "久米郡美咲町",
    "town": "大垪和西"
  },
  "7093901": {
    "zipcode": "7093901",
    "prefectureCode": "33",
    "prefectureNumber": 33,
    "prefecture": "岡山県",
    "city": "津山市",
    "town": "加茂町倉見"
  },
  "7093902": {
    "zipcode": "7093902",
    "prefectureCode": "33",
    "prefectureNumber": 33,
    "prefecture": "岡山県",
    "city": "津山市",
    "town": "加茂町黒木"
  },
  "7093903": {
    "zipcode": "7093903",
    "prefectureCode": "33",
    "prefectureNumber": 33,
    "prefecture": "岡山県",
    "city": "津山市",
    "town": "加茂町戸賀"
  },
  "7093904": {
    "zipcode": "7093904",
    "prefectureCode": "33",
    "prefectureNumber": 33,
    "prefecture": "岡山県",
    "city": "津山市",
    "town": "加茂町斉野谷"
  },
  "7093905": {
    "zipcode": "7093905",
    "prefectureCode": "33",
    "prefectureNumber": 33,
    "prefecture": "岡山県",
    "city": "津山市",
    "town": "加茂町塔中"
  },
  "7093906": {
    "zipcode": "7093906",
    "prefectureCode": "33",
    "prefectureNumber": 33,
    "prefecture": "岡山県",
    "city": "津山市",
    "town": "加茂町小中原"
  },
  "7093907": {
    "zipcode": "7093907",
    "prefectureCode": "33",
    "prefectureNumber": 33,
    "prefecture": "岡山県",
    "city": "津山市",
    "town": "加茂町宇野"
  },
  "7093908": {
    "zipcode": "7093908",
    "prefectureCode": "33",
    "prefectureNumber": 33,
    "prefecture": "岡山県",
    "city": "津山市",
    "town": "加茂町原口"
  },
  "7093911": {
    "zipcode": "7093911",
    "prefectureCode": "33",
    "prefectureNumber": 33,
    "prefecture": "岡山県",
    "city": "津山市",
    "town": "加茂町物見"
  },
  "7093912": {
    "zipcode": "7093912",
    "prefectureCode": "33",
    "prefectureNumber": 33,
    "prefecture": "岡山県",
    "city": "津山市",
    "town": "加茂町河井"
  },
  "7093913": {
    "zipcode": "7093913",
    "prefectureCode": "33",
    "prefectureNumber": 33,
    "prefecture": "岡山県",
    "city": "津山市",
    "town": "加茂町山下"
  },
  "7093914": {
    "zipcode": "7093914",
    "prefectureCode": "33",
    "prefectureNumber": 33,
    "prefecture": "岡山県",
    "city": "津山市",
    "town": "加茂町知和"
  },
  "7093915": {
    "zipcode": "7093915",
    "prefectureCode": "33",
    "prefectureNumber": 33,
    "prefecture": "岡山県",
    "city": "津山市",
    "town": "加茂町青柳"
  },
  "7093921": {
    "zipcode": "7093921",
    "prefectureCode": "33",
    "prefectureNumber": 33,
    "prefecture": "岡山県",
    "city": "津山市",
    "town": "加茂町公郷"
  },
  "7093922": {
    "zipcode": "7093922",
    "prefectureCode": "33",
    "prefectureNumber": 33,
    "prefecture": "岡山県",
    "city": "津山市",
    "town": "加茂町下津川"
  },
  "7093923": {
    "zipcode": "7093923",
    "prefectureCode": "33",
    "prefectureNumber": 33,
    "prefecture": "岡山県",
    "city": "津山市",
    "town": "加茂町桑原"
  },
  "7093924": {
    "zipcode": "7093924",
    "prefectureCode": "33",
    "prefectureNumber": 33,
    "prefecture": "岡山県",
    "city": "津山市",
    "town": "加茂町小渕"
  },
  "7093931": {
    "zipcode": "7093931",
    "prefectureCode": "33",
    "prefectureNumber": 33,
    "prefecture": "岡山県",
    "city": "津山市",
    "town": "加茂町中原"
  },
  "7093932": {
    "zipcode": "7093932",
    "prefectureCode": "33",
    "prefectureNumber": 33,
    "prefecture": "岡山県",
    "city": "津山市",
    "town": "加茂町成安"
  },
  "7093933": {
    "zipcode": "7093933",
    "prefectureCode": "33",
    "prefectureNumber": 33,
    "prefecture": "岡山県",
    "city": "津山市",
    "town": "加茂町行重"
  },
  "7093934": {
    "zipcode": "7093934",
    "prefectureCode": "33",
    "prefectureNumber": 33,
    "prefecture": "岡山県",
    "city": "津山市",
    "town": "加茂町楢井"
  },
  "7093935": {
    "zipcode": "7093935",
    "prefectureCode": "33",
    "prefectureNumber": 33,
    "prefecture": "岡山県",
    "city": "津山市",
    "town": "加茂町百々"
  },
  "7093951": {
    "zipcode": "7093951",
    "prefectureCode": "33",
    "prefectureNumber": 33,
    "prefecture": "岡山県",
    "city": "津山市",
    "town": "阿波"
  },
  "7094201": {
    "zipcode": "7094201",
    "prefectureCode": "33",
    "prefectureNumber": 33,
    "prefecture": "岡山県",
    "city": "美作市",
    "town": "小房"
  },
  "7094202": {
    "zipcode": "7094202",
    "prefectureCode": "33",
    "prefectureNumber": 33,
    "prefecture": "岡山県",
    "city": "美作市",
    "town": "梶原"
  },
  "7094203": {
    "zipcode": "7094203",
    "prefectureCode": "33",
    "prefectureNumber": 33,
    "prefecture": "岡山県",
    "city": "美作市",
    "town": "小野"
  },
  "7094204": {
    "zipcode": "7094204",
    "prefectureCode": "33",
    "prefectureNumber": 33,
    "prefecture": "岡山県",
    "city": "美作市",
    "town": "鷺巣"
  },
  "7094205": {
    "zipcode": "7094205",
    "prefectureCode": "33",
    "prefectureNumber": 33,
    "prefecture": "岡山県",
    "city": "美作市",
    "town": "粟井中"
  },
  "7094211": {
    "zipcode": "7094211",
    "prefectureCode": "33",
    "prefectureNumber": 33,
    "prefecture": "岡山県",
    "city": "美作市",
    "town": "五名"
  },
  "7094212": {
    "zipcode": "7094212",
    "prefectureCode": "33",
    "prefectureNumber": 33,
    "prefecture": "岡山県",
    "city": "美作市",
    "town": "宮原"
  },
  "7094213": {
    "zipcode": "7094213",
    "prefectureCode": "33",
    "prefectureNumber": 33,
    "prefecture": "岡山県",
    "city": "美作市",
    "town": "大聖寺"
  },
  "7094214": {
    "zipcode": "7094214",
    "prefectureCode": "33",
    "prefectureNumber": 33,
    "prefecture": "岡山県",
    "city": "美作市",
    "town": "豆田"
  },
  "7094215": {
    "zipcode": "7094215",
    "prefectureCode": "33",
    "prefectureNumber": 33,
    "prefecture": "岡山県",
    "city": "美作市",
    "town": "小ノ谷"
  },
  "7094216": {
    "zipcode": "7094216",
    "prefectureCode": "33",
    "prefectureNumber": 33,
    "prefecture": "岡山県",
    "city": "美作市",
    "town": "山手"
  },
  "7094221": {
    "zipcode": "7094221",
    "prefectureCode": "33",
    "prefectureNumber": 33,
    "prefecture": "岡山県",
    "city": "美作市",
    "town": "瀬戸"
  },
  "7094222": {
    "zipcode": "7094222",
    "prefectureCode": "33",
    "prefectureNumber": 33,
    "prefecture": "岡山県",
    "city": "美作市",
    "town": "岩辺"
  },
  "7094223": {
    "zipcode": "7094223",
    "prefectureCode": "33",
    "prefectureNumber": 33,
    "prefecture": "岡山県",
    "city": "美作市",
    "town": "大内谷"
  },
  "7094224": {
    "zipcode": "7094224",
    "prefectureCode": "33",
    "prefectureNumber": 33,
    "prefecture": "岡山県",
    "city": "美作市",
    "town": "豊野"
  },
  "7094225": {
    "zipcode": "7094225",
    "prefectureCode": "33",
    "prefectureNumber": 33,
    "prefecture": "岡山県",
    "city": "美作市",
    "town": "松脇"
  },
  "7094226": {
    "zipcode": "7094226",
    "prefectureCode": "33",
    "prefectureNumber": 33,
    "prefecture": "岡山県",
    "city": "美作市",
    "town": "鯰"
  },
  "7094227": {
    "zipcode": "7094227",
    "prefectureCode": "33",
    "prefectureNumber": 33,
    "prefecture": "岡山県",
    "city": "美作市",
    "town": "江見吉田"
  },
  "7094231": {
    "zipcode": "7094231",
    "prefectureCode": "33",
    "prefectureNumber": 33,
    "prefecture": "岡山県",
    "city": "美作市",
    "town": "南海"
  },
  "7094232": {
    "zipcode": "7094232",
    "prefectureCode": "33",
    "prefectureNumber": 33,
    "prefecture": "岡山県",
    "city": "美作市",
    "town": "芦河内"
  },
  "7094233": {
    "zipcode": "7094233",
    "prefectureCode": "33",
    "prefectureNumber": 33,
    "prefecture": "岡山県",
    "city": "美作市",
    "town": "藤生"
  },
  "7094234": {
    "zipcode": "7094234",
    "prefectureCode": "33",
    "prefectureNumber": 33,
    "prefecture": "岡山県",
    "city": "美作市",
    "town": "江見"
  },
  "7094235": {
    "zipcode": "7094235",
    "prefectureCode": "33",
    "prefectureNumber": 33,
    "prefecture": "岡山県",
    "city": "美作市",
    "town": "原"
  },
  "7094236": {
    "zipcode": "7094236",
    "prefectureCode": "33",
    "prefectureNumber": 33,
    "prefecture": "岡山県",
    "city": "美作市",
    "town": "川北"
  },
  "7094241": {
    "zipcode": "7094241",
    "prefectureCode": "33",
    "prefectureNumber": 33,
    "prefecture": "岡山県",
    "city": "美作市",
    "town": "日指"
  },
  "7094242": {
    "zipcode": "7094242",
    "prefectureCode": "33",
    "prefectureNumber": 33,
    "prefecture": "岡山県",
    "city": "美作市",
    "town": "田原"
  },
  "7094243": {
    "zipcode": "7094243",
    "prefectureCode": "33",
    "prefectureNumber": 33,
    "prefecture": "岡山県",
    "city": "美作市",
    "town": "蓮花寺"
  },
  "7094244": {
    "zipcode": "7094244",
    "prefectureCode": "33",
    "prefectureNumber": 33,
    "prefecture": "岡山県",
    "city": "美作市",
    "town": "土居"
  },
  "7094245": {
    "zipcode": "7094245",
    "prefectureCode": "33",
    "prefectureNumber": 33,
    "prefecture": "岡山県",
    "city": "美作市",
    "town": "竹田"
  },
  "7094246": {
    "zipcode": "7094246",
    "prefectureCode": "33",
    "prefectureNumber": 33,
    "prefecture": "岡山県",
    "city": "美作市",
    "town": "上福原"
  },
  "7094247": {
    "zipcode": "7094247",
    "prefectureCode": "33",
    "prefectureNumber": 33,
    "prefecture": "岡山県",
    "city": "美作市",
    "town": "山城"
  },
  "7094251": {
    "zipcode": "7094251",
    "prefectureCode": "33",
    "prefectureNumber": 33,
    "prefecture": "岡山県",
    "city": "美作市",
    "town": "白水"
  },
  "7094252": {
    "zipcode": "7094252",
    "prefectureCode": "33",
    "prefectureNumber": 33,
    "prefecture": "岡山県",
    "city": "美作市",
    "town": "角南"
  },
  "7094253": {
    "zipcode": "7094253",
    "prefectureCode": "33",
    "prefectureNumber": 33,
    "prefecture": "岡山県",
    "city": "美作市",
    "town": "柿ケ原"
  },
  "7094254": {
    "zipcode": "7094254",
    "prefectureCode": "33",
    "prefectureNumber": 33,
    "prefecture": "岡山県",
    "city": "美作市",
    "town": "万善"
  },
  "7094255": {
    "zipcode": "7094255",
    "prefectureCode": "33",
    "prefectureNumber": 33,
    "prefecture": "岡山県",
    "city": "美作市",
    "town": "国貞"
  },
  "7094256": {
    "zipcode": "7094256",
    "prefectureCode": "33",
    "prefectureNumber": 33,
    "prefecture": "岡山県",
    "city": "美作市",
    "town": "鈴家"
  },
  "7094257": {
    "zipcode": "7094257",
    "prefectureCode": "33",
    "prefectureNumber": 33,
    "prefecture": "岡山県",
    "city": "美作市",
    "town": "田渕"
  },
  "7094300": {
    "zipcode": "7094300",
    "prefectureCode": "33",
    "prefectureNumber": 33,
    "prefecture": "岡山県",
    "city": "勝田郡勝央町",
    "town": "以下に掲載がない場合"
  },
  "7094301": {
    "zipcode": "7094301",
    "prefectureCode": "33",
    "prefectureNumber": 33,
    "prefecture": "岡山県",
    "city": "勝田郡勝央町",
    "town": "下町川"
  },
  "7094302": {
    "zipcode": "7094302",
    "prefectureCode": "33",
    "prefectureNumber": 33,
    "prefecture": "岡山県",
    "city": "勝田郡勝央町",
    "town": "河原"
  },
  "7094303": {
    "zipcode": "7094303",
    "prefectureCode": "33",
    "prefectureNumber": 33,
    "prefecture": "岡山県",
    "city": "勝田郡勝央町",
    "town": "豊久田"
  },
  "7094304": {
    "zipcode": "7094304",
    "prefectureCode": "33",
    "prefectureNumber": 33,
    "prefecture": "岡山県",
    "city": "勝田郡勝央町",
    "town": "上香山"
  },
  "7094305": {
    "zipcode": "7094305",
    "prefectureCode": "33",
    "prefectureNumber": 33,
    "prefecture": "岡山県",
    "city": "勝田郡勝央町",
    "town": "曽井"
  },
  "7094306": {
    "zipcode": "7094306",
    "prefectureCode": "33",
    "prefectureNumber": 33,
    "prefecture": "岡山県",
    "city": "勝田郡勝央町",
    "town": "美野"
  },
  "7094307": {
    "zipcode": "7094307",
    "prefectureCode": "33",
    "prefectureNumber": 33,
    "prefecture": "岡山県",
    "city": "勝田郡勝央町",
    "town": "石生"
  },
  "7094311": {
    "zipcode": "7094311",
    "prefectureCode": "33",
    "prefectureNumber": 33,
    "prefecture": "岡山県",
    "city": "勝田郡勝央町",
    "town": "岡"
  },
  "7094312": {
    "zipcode": "7094312",
    "prefectureCode": "33",
    "prefectureNumber": 33,
    "prefecture": "岡山県",
    "city": "勝田郡勝央町",
    "town": "黒土"
  },
  "7094313": {
    "zipcode": "7094313",
    "prefectureCode": "33",
    "prefectureNumber": 33,
    "prefecture": "岡山県",
    "city": "勝田郡勝央町",
    "town": "小矢田"
  },
  "7094314": {
    "zipcode": "7094314",
    "prefectureCode": "33",
    "prefectureNumber": 33,
    "prefecture": "岡山県",
    "city": "勝田郡勝央町",
    "town": "東吉田"
  },
  "7094315": {
    "zipcode": "7094315",
    "prefectureCode": "33",
    "prefectureNumber": 33,
    "prefecture": "岡山県",
    "city": "勝田郡勝央町",
    "town": "畑屋"
  },
  "7094316": {
    "zipcode": "7094316",
    "prefectureCode": "33",
    "prefectureNumber": 33,
    "prefecture": "岡山県",
    "city": "勝田郡勝央町",
    "town": "勝間田"
  },
  "7094321": {
    "zipcode": "7094321",
    "prefectureCode": "33",
    "prefectureNumber": 33,
    "prefecture": "岡山県",
    "city": "勝田郡勝央町",
    "town": "太平台"
  },
  "7094322": {
    "zipcode": "7094322",
    "prefectureCode": "33",
    "prefectureNumber": 33,
    "prefecture": "岡山県",
    "city": "勝田郡勝央町",
    "town": "福吉"
  },
  "7094323": {
    "zipcode": "7094323",
    "prefectureCode": "33",
    "prefectureNumber": 33,
    "prefecture": "岡山県",
    "city": "勝田郡勝央町",
    "town": "黒坂"
  },
  "7094324": {
    "zipcode": "7094324",
    "prefectureCode": "33",
    "prefectureNumber": 33,
    "prefecture": "岡山県",
    "city": "勝田郡勝央町",
    "town": "為本"
  },
  "7094331": {
    "zipcode": "7094331",
    "prefectureCode": "33",
    "prefectureNumber": 33,
    "prefecture": "岡山県",
    "city": "勝田郡勝央町",
    "town": "植月北"
  },
  "7094332": {
    "zipcode": "7094332",
    "prefectureCode": "33",
    "prefectureNumber": 33,
    "prefecture": "岡山県",
    "city": "勝田郡勝央町",
    "town": "植月東"
  },
  "7094333": {
    "zipcode": "7094333",
    "prefectureCode": "33",
    "prefectureNumber": 33,
    "prefecture": "岡山県",
    "city": "勝田郡勝央町",
    "town": "田井"
  },
  "7094334": {
    "zipcode": "7094334",
    "prefectureCode": "33",
    "prefectureNumber": 33,
    "prefecture": "岡山県",
    "city": "勝田郡勝央町",
    "town": "平"
  },
  "7094335": {
    "zipcode": "7094335",
    "prefectureCode": "33",
    "prefectureNumber": 33,
    "prefecture": "岡山県",
    "city": "勝田郡勝央町",
    "town": "植月中"
  },
  "7094601": {
    "zipcode": "7094601",
    "prefectureCode": "33",
    "prefectureNumber": 33,
    "prefecture": "岡山県",
    "city": "津山市",
    "town": "宮部上"
  },
  "7094602": {
    "zipcode": "7094602",
    "prefectureCode": "33",
    "prefectureNumber": 33,
    "prefecture": "岡山県",
    "city": "津山市",
    "town": "宮部下"
  },
  "7094603": {
    "zipcode": "7094603",
    "prefectureCode": "33",
    "prefectureNumber": 33,
    "prefecture": "岡山県",
    "city": "津山市",
    "town": "中北下"
  },
  "7094604": {
    "zipcode": "7094604",
    "prefectureCode": "33",
    "prefectureNumber": 33,
    "prefecture": "岡山県",
    "city": "津山市",
    "town": "坪井下"
  },
  "7094605": {
    "zipcode": "7094605",
    "prefectureCode": "33",
    "prefectureNumber": 33,
    "prefecture": "岡山県",
    "city": "津山市",
    "town": "坪井上"
  },
  "7094606": {
    "zipcode": "7094606",
    "prefectureCode": "33",
    "prefectureNumber": 33,
    "prefecture": "岡山県",
    "city": "津山市",
    "town": "中北上"
  },
  "7094611": {
    "zipcode": "7094611",
    "prefectureCode": "33",
    "prefectureNumber": 33,
    "prefecture": "岡山県",
    "city": "津山市",
    "town": "領家"
  },
  "7094612": {
    "zipcode": "7094612",
    "prefectureCode": "33",
    "prefectureNumber": 33,
    "prefecture": "岡山県",
    "city": "津山市",
    "town": "くめ"
  },
  "7094613": {
    "zipcode": "7094613",
    "prefectureCode": "33",
    "prefectureNumber": 33,
    "prefecture": "岡山県",
    "city": "津山市",
    "town": "宮尾"
  },
  "7094614": {
    "zipcode": "7094614",
    "prefectureCode": "33",
    "prefectureNumber": 33,
    "prefecture": "岡山県",
    "city": "津山市",
    "town": "久米川南"
  },
  "7094615": {
    "zipcode": "7094615",
    "prefectureCode": "33",
    "prefectureNumber": 33,
    "prefecture": "岡山県",
    "city": "津山市",
    "town": "一色"
  },
  "7094616": {
    "zipcode": "7094616",
    "prefectureCode": "33",
    "prefectureNumber": 33,
    "prefecture": "岡山県",
    "city": "津山市",
    "town": "南方中"
  },
  "7094621": {
    "zipcode": "7094621",
    "prefectureCode": "33",
    "prefectureNumber": 33,
    "prefecture": "岡山県",
    "city": "津山市",
    "town": "神代"
  },
  "7094622": {
    "zipcode": "7094622",
    "prefectureCode": "33",
    "prefectureNumber": 33,
    "prefecture": "岡山県",
    "city": "津山市",
    "town": "戸脇"
  },
  "7094623": {
    "zipcode": "7094623",
    "prefectureCode": "33",
    "prefectureNumber": 33,
    "prefecture": "岡山県",
    "city": "津山市",
    "town": "桑下"
  },
  "7094624": {
    "zipcode": "7094624",
    "prefectureCode": "33",
    "prefectureNumber": 33,
    "prefecture": "岡山県",
    "city": "津山市",
    "town": "桑上"
  },
  "7094625": {
    "zipcode": "7094625",
    "prefectureCode": "33",
    "prefectureNumber": 33,
    "prefecture": "岡山県",
    "city": "津山市",
    "town": "里公文"
  },
  "7094626": {
    "zipcode": "7094626",
    "prefectureCode": "33",
    "prefectureNumber": 33,
    "prefecture": "岡山県",
    "city": "津山市",
    "town": "里公文上"
  },
  "7094631": {
    "zipcode": "7094631",
    "prefectureCode": "33",
    "prefectureNumber": 33,
    "prefecture": "岡山県",
    "city": "津山市",
    "town": "福田下"
  },
  "7094632": {
    "zipcode": "7094632",
    "prefectureCode": "33",
    "prefectureNumber": 33,
    "prefecture": "岡山県",
    "city": "津山市",
    "town": "八社"
  },
  "7094633": {
    "zipcode": "7094633",
    "prefectureCode": "33",
    "prefectureNumber": 33,
    "prefecture": "岡山県",
    "city": "津山市",
    "town": "油木上"
  },
  "7094634": {
    "zipcode": "7094634",
    "prefectureCode": "33",
    "prefectureNumber": 33,
    "prefecture": "岡山県",
    "city": "津山市",
    "town": "油木下"
  },
  "7094635": {
    "zipcode": "7094635",
    "prefectureCode": "33",
    "prefectureNumber": 33,
    "prefecture": "岡山県",
    "city": "津山市",
    "town": "油木北"
  }
}
