{
  "7110901": {
    "zipcode": "7110901",
    "prefectureCode": "33",
    "prefectureNumber": 33,
    "prefecture": "岡山県",
    "city": "倉敷市",
    "town": "児島由加"
  },
  "7110902": {
    "zipcode": "7110902",
    "prefectureCode": "33",
    "prefectureNumber": 33,
    "prefecture": "岡山県",
    "city": "倉敷市",
    "town": "児島白尾"
  },
  "7110903": {
    "zipcode": "7110903",
    "prefectureCode": "33",
    "prefectureNumber": 33,
    "prefecture": "岡山県",
    "city": "倉敷市",
    "town": "児島田の口"
  },
  "7110904": {
    "zipcode": "7110904",
    "prefectureCode": "33",
    "prefectureNumber": 33,
    "prefecture": "岡山県",
    "city": "倉敷市",
    "town": "児島唐琴"
  },
  "7110905": {
    "zipcode": "7110905",
    "prefectureCode": "33",
    "prefectureNumber": 33,
    "prefecture": "岡山県",
    "city": "倉敷市",
    "town": "児島唐琴町"
  },
  "7110906": {
    "zipcode": "7110906",
    "prefectureCode": "33",
    "prefectureNumber": 33,
    "prefecture": "岡山県",
    "city": "倉敷市",
    "town": "児島下の町"
  },
  "7110907": {
    "zipcode": "7110907",
    "prefectureCode": "33",
    "prefectureNumber": 33,
    "prefecture": "岡山県",
    "city": "倉敷市",
    "town": "児島上の町"
  },
  "7110911": {
    "zipcode": "7110911",
    "prefectureCode": "33",
    "prefectureNumber": 33,
    "prefecture": "岡山県",
    "city": "倉敷市",
    "town": "児島小川"
  },
  "7110912": {
    "zipcode": "7110912",
    "prefectureCode": "33",
    "prefectureNumber": 33,
    "prefecture": "岡山県",
    "city": "倉敷市",
    "town": "児島小川町"
  },
  "7110913": {
    "zipcode": "7110913",
    "prefectureCode": "33",
    "prefectureNumber": 33,
    "prefecture": "岡山県",
    "city": "倉敷市",
    "town": "児島味野"
  },
  "7110914": {
    "zipcode": "7110914",
    "prefectureCode": "33",
    "prefectureNumber": 33,
    "prefecture": "岡山県",
    "city": "倉敷市",
    "town": "児島味野城"
  },
  "7110915": {
    "zipcode": "7110915",
    "prefectureCode": "33",
    "prefectureNumber": 33,
    "prefecture": "岡山県",
    "city": "倉敷市",
    "town": "児島味野山田町"
  },
  "7110916": {
    "zipcode": "7110916",
    "prefectureCode": "33",
    "prefectureNumber": 33,
    "prefecture": "岡山県",
    "city": "倉敷市",
    "town": "児島味野城山"
  },
  "7110917": {
    "zipcode": "7110917",
    "prefectureCode": "33",
    "prefectureNumber": 33,
    "prefecture": "岡山県",
    "city": "倉敷市",
    "town": "児島味野上"
  },
  "7110921": {
    "zipcode": "7110921",
    "prefectureCode": "33",
    "prefectureNumber": 33,
    "prefecture": "岡山県",
    "city": "倉敷市",
    "town": "児島駅前"
  },
  "7110922": {
    "zipcode": "7110922",
    "prefectureCode": "33",
    "prefectureNumber": 33,
    "prefecture": "岡山県",
    "city": "倉敷市",
    "town": "児島元浜町"
  },
  "7110923": {
    "zipcode": "7110923",
    "prefectureCode": "33",
    "prefectureNumber": 33,
    "prefecture": "岡山県",
    "city": "倉敷市",
    "town": "児島阿津"
  },
  "7110924": {
    "zipcode": "7110924",
    "prefectureCode": "33",
    "prefectureNumber": 33,
    "prefecture": "岡山県",
    "city": "倉敷市",
    "town": "大畠"
  },
  "7110925": {
    "zipcode": "7110925",
    "prefectureCode": "33",
    "prefectureNumber": 33,
    "prefecture": "岡山県",
    "city": "倉敷市",
    "town": "下津井田之浦"
  },
  "7110926": {
    "zipcode": "7110926",
    "prefectureCode": "33",
    "prefectureNumber": 33,
    "prefecture": "岡山県",
    "city": "倉敷市",
    "town": "下津井吹上"
  },
  "7110927": {
    "zipcode": "7110927",
    "prefectureCode": "33",
    "prefectureNumber": 33,
    "prefecture": "岡山県",
    "city": "倉敷市",
    "town": "下津井"
  },
  "7110931": {
    "zipcode": "7110931",
    "prefectureCode": "33",
    "prefectureNumber": 33,
    "prefecture": "岡山県",
    "city": "倉敷市",
    "town": "児島赤崎"
  },
  "7110932": {
    "zipcode": "7110932",
    "prefectureCode": "33",
    "prefectureNumber": 33,
    "prefecture": "岡山県",
    "city": "倉敷市",
    "town": "菰池"
  },
  "7110933": {
    "zipcode": "7110933",
    "prefectureCode": "33",
    "prefectureNumber": 33,
    "prefecture": "岡山県",
    "city": "倉敷市",
    "town": "児島通生"
  },
  "7110934": {
    "zipcode": "7110934",
    "prefectureCode": "33",
    "prefectureNumber": 33,
    "prefecture": "岡山県",
    "city": "倉敷市",
    "town": "児島塩生"
  },
  "7110935": {
    "zipcode": "7110935",
    "prefectureCode": "33",
    "prefectureNumber": 33,
    "prefecture": "岡山県",
    "city": "倉敷市",
    "town": "児島宇野津"
  },
  "7110936": {
    "zipcode": "7110936",
    "prefectureCode": "33",
    "prefectureNumber": 33,
    "prefecture": "岡山県",
    "city": "倉敷市",
    "town": "児島柳田町"
  },
  "7110937": {
    "zipcode": "7110937",
    "prefectureCode": "33",
    "prefectureNumber": 33,
    "prefecture": "岡山県",
    "city": "倉敷市",
    "town": "児島稗田町"
  }
}
