{
  "7128001": {
    "zipcode": "7128001",
    "prefectureCode": "33",
    "prefectureNumber": 33,
    "prefecture": "岡山県",
    "city": "倉敷市",
    "town": "連島町西之浦"
  },
  "7128002": {
    "zipcode": "7128002",
    "prefectureCode": "33",
    "prefectureNumber": 33,
    "prefecture": "岡山県",
    "city": "倉敷市",
    "town": "連島町亀島新田"
  },
  "7128003": {
    "zipcode": "7128003",
    "prefectureCode": "33",
    "prefectureNumber": 33,
    "prefecture": "岡山県",
    "city": "倉敷市",
    "town": "水島明神町"
  },
  "7128004": {
    "zipcode": "7128004",
    "prefectureCode": "33",
    "prefectureNumber": 33,
    "prefecture": "岡山県",
    "city": "倉敷市",
    "town": "水島南亀島町"
  },
  "7128005": {
    "zipcode": "7128005",
    "prefectureCode": "33",
    "prefectureNumber": 33,
    "prefecture": "岡山県",
    "city": "倉敷市",
    "town": "水島北亀島町"
  },
  "7128006": {
    "zipcode": "7128006",
    "prefectureCode": "33",
    "prefectureNumber": 33,
    "prefecture": "岡山県",
    "city": "倉敷市",
    "town": "連島町鶴新田"
  },
  "7128007": {
    "zipcode": "7128007",
    "prefectureCode": "33",
    "prefectureNumber": 33,
    "prefecture": "岡山県",
    "city": "倉敷市",
    "town": "鶴の浦"
  },
  "7128011": {
    "zipcode": "7128011",
    "prefectureCode": "33",
    "prefectureNumber": 33,
    "prefecture": "岡山県",
    "city": "倉敷市",
    "town": "連島町連島"
  },
  "7128012": {
    "zipcode": "7128012",
    "prefectureCode": "33",
    "prefectureNumber": 33,
    "prefecture": "岡山県",
    "city": "倉敷市",
    "town": "連島"
  },
  "7128013": {
    "zipcode": "7128013",
    "prefectureCode": "33",
    "prefectureNumber": 33,
    "prefecture": "岡山県",
    "city": "倉敷市",
    "town": "亀島"
  },
  "7128014": {
    "zipcode": "7128014",
    "prefectureCode": "33",
    "prefectureNumber": 33,
    "prefecture": "岡山県",
    "city": "倉敷市",
    "town": "連島中央"
  },
  "7128015": {
    "zipcode": "7128015",
    "prefectureCode": "33",
    "prefectureNumber": 33,
    "prefecture": "岡山県",
    "city": "倉敷市",
    "town": "連島町矢柄"
  },
  "7128021": {
    "zipcode": "7128021",
    "prefectureCode": "33",
    "prefectureNumber": 33,
    "prefecture": "岡山県",
    "city": "倉敷市",
    "town": "水島東川町"
  },
  "7128022": {
    "zipcode": "7128022",
    "prefectureCode": "33",
    "prefectureNumber": 33,
    "prefecture": "岡山県",
    "city": "倉敷市",
    "town": "水島北緑町"
  },
  "7128023": {
    "zipcode": "7128023",
    "prefectureCode": "33",
    "prefectureNumber": 33,
    "prefecture": "岡山県",
    "city": "倉敷市",
    "town": "水島南緑町"
  },
  "7128024": {
    "zipcode": "7128024",
    "prefectureCode": "33",
    "prefectureNumber": 33,
    "prefecture": "岡山県",
    "city": "倉敷市",
    "town": "水島北春日町"
  },
  "7128025": {
    "zipcode": "7128025",
    "prefectureCode": "33",
    "prefectureNumber": 33,
    "prefecture": "岡山県",
    "city": "倉敷市",
    "town": "水島南春日町"
  },
  "7128026": {
    "zipcode": "7128026",
    "prefectureCode": "33",
    "prefectureNumber": 33,
    "prefecture": "岡山県",
    "city": "倉敷市",
    "town": "水島南瑞穂町"
  },
  "7128027": {
    "zipcode": "7128027",
    "prefectureCode": "33",
    "prefectureNumber": 33,
    "prefecture": "岡山県",
    "city": "倉敷市",
    "town": "水島北瑞穂町"
  },
  "7128031": {
    "zipcode": "7128031",
    "prefectureCode": "33",
    "prefectureNumber": 33,
    "prefecture": "岡山県",
    "city": "倉敷市",
    "town": "福田町浦田"
  },
  "7128032": {
    "zipcode": "7128032",
    "prefectureCode": "33",
    "prefectureNumber": 33,
    "prefecture": "岡山県",
    "city": "倉敷市",
    "town": "北畝"
  },
  "7128033": {
    "zipcode": "7128033",
    "prefectureCode": "33",
    "prefectureNumber": 33,
    "prefecture": "岡山県",
    "city": "倉敷市",
    "town": "水島東栄町"
  },
  "7128034": {
    "zipcode": "7128034",
    "prefectureCode": "33",
    "prefectureNumber": 33,
    "prefecture": "岡山県",
    "city": "倉敷市",
    "town": "水島西栄町"
  },
  "7128035": {
    "zipcode": "7128035",
    "prefectureCode": "33",
    "prefectureNumber": 33,
    "prefecture": "岡山県",
    "city": "倉敷市",
    "town": "水島東弥生町"
  },
  "7128036": {
    "zipcode": "7128036",
    "prefectureCode": "33",
    "prefectureNumber": 33,
    "prefecture": "岡山県",
    "city": "倉敷市",
    "town": "水島西弥生町"
  },
  "7128037": {
    "zipcode": "7128037",
    "prefectureCode": "33",
    "prefectureNumber": 33,
    "prefecture": "岡山県",
    "city": "倉敷市",
    "town": "水島東寿町"
  },
  "7128038": {
    "zipcode": "7128038",
    "prefectureCode": "33",
    "prefectureNumber": 33,
    "prefecture": "岡山県",
    "city": "倉敷市",
    "town": "水島西寿町"
  },
  "7128039": {
    "zipcode": "7128039",
    "prefectureCode": "33",
    "prefectureNumber": 33,
    "prefecture": "岡山県",
    "city": "倉敷市",
    "town": "水島相生町"
  },
  "7128041": {
    "zipcode": "7128041",
    "prefectureCode": "33",
    "prefectureNumber": 33,
    "prefecture": "岡山県",
    "city": "倉敷市",
    "town": "福田町福田"
  },
  "7128042": {
    "zipcode": "7128042",
    "prefectureCode": "33",
    "prefectureNumber": 33,
    "prefecture": "岡山県",
    "city": "倉敷市",
    "town": "福田町広江"
  },
  "7128043": {
    "zipcode": "7128043",
    "prefectureCode": "33",
    "prefectureNumber": 33,
    "prefecture": "岡山県",
    "city": "倉敷市",
    "town": "広江"
  },
  "7128044": {
    "zipcode": "7128044",
    "prefectureCode": "33",
    "prefectureNumber": 33,
    "prefecture": "岡山県",
    "city": "倉敷市",
    "town": "東塚"
  },
  "7128045": {
    "zipcode": "7128045",
    "prefectureCode": "33",
    "prefectureNumber": 33,
    "prefecture": "岡山県",
    "city": "倉敷市",
    "town": "福田町東塚"
  },
  "7128046": {
    "zipcode": "7128046",
    "prefectureCode": "33",
    "prefectureNumber": 33,
    "prefecture": "岡山県",
    "city": "倉敷市",
    "town": "福田町古新田"
  },
  "7128051": {
    "zipcode": "7128051",
    "prefectureCode": "33",
    "prefectureNumber": 33,
    "prefecture": "岡山県",
    "city": "倉敷市",
    "town": "中畝"
  },
  "7128052": {
    "zipcode": "7128052",
    "prefectureCode": "33",
    "prefectureNumber": 33,
    "prefecture": "岡山県",
    "city": "倉敷市",
    "town": "松江"
  },
  "7128053": {
    "zipcode": "7128053",
    "prefectureCode": "33",
    "prefectureNumber": 33,
    "prefecture": "岡山県",
    "city": "倉敷市",
    "town": "呼松町"
  },
  "7128054": {
    "zipcode": "7128054",
    "prefectureCode": "33",
    "prefectureNumber": 33,
    "prefecture": "岡山県",
    "city": "倉敷市",
    "town": "潮通"
  },
  "7128055": {
    "zipcode": "7128055",
    "prefectureCode": "33",
    "prefectureNumber": 33,
    "prefecture": "岡山県",
    "city": "倉敷市",
    "town": "南畝"
  },
  "7128056": {
    "zipcode": "7128056",
    "prefectureCode": "33",
    "prefectureNumber": 33,
    "prefecture": "岡山県",
    "city": "倉敷市",
    "town": "水島福崎町"
  },
  "7128057": {
    "zipcode": "7128057",
    "prefectureCode": "33",
    "prefectureNumber": 33,
    "prefecture": "岡山県",
    "city": "倉敷市",
    "town": "水島東千鳥町"
  },
  "7128058": {
    "zipcode": "7128058",
    "prefectureCode": "33",
    "prefectureNumber": 33,
    "prefecture": "岡山県",
    "city": "倉敷市",
    "town": "水島東常盤町"
  },
  "7128059": {
    "zipcode": "7128059",
    "prefectureCode": "33",
    "prefectureNumber": 33,
    "prefecture": "岡山県",
    "city": "倉敷市",
    "town": "水島西常盤町"
  },
  "7128061": {
    "zipcode": "7128061",
    "prefectureCode": "33",
    "prefectureNumber": 33,
    "prefecture": "岡山県",
    "city": "倉敷市",
    "town": "神田"
  },
  "7128062": {
    "zipcode": "7128062",
    "prefectureCode": "33",
    "prefectureNumber": 33,
    "prefecture": "岡山県",
    "city": "倉敷市",
    "town": "水島北幸町"
  },
  "7128063": {
    "zipcode": "7128063",
    "prefectureCode": "33",
    "prefectureNumber": 33,
    "prefecture": "岡山県",
    "city": "倉敷市",
    "town": "水島南幸町"
  },
  "7128064": {
    "zipcode": "7128064",
    "prefectureCode": "33",
    "prefectureNumber": 33,
    "prefecture": "岡山県",
    "city": "倉敷市",
    "town": "水島青葉町"
  },
  "7128065": {
    "zipcode": "7128065",
    "prefectureCode": "33",
    "prefectureNumber": 33,
    "prefecture": "岡山県",
    "city": "倉敷市",
    "town": "水島西千鳥町"
  },
  "7128066": {
    "zipcode": "7128066",
    "prefectureCode": "33",
    "prefectureNumber": 33,
    "prefecture": "岡山県",
    "city": "倉敷市",
    "town": "水島高砂町"
  },
  "7128071": {
    "zipcode": "7128071",
    "prefectureCode": "33",
    "prefectureNumber": 33,
    "prefecture": "岡山県",
    "city": "倉敷市",
    "town": "水島海岸通"
  },
  "7128072": {
    "zipcode": "7128072",
    "prefectureCode": "33",
    "prefectureNumber": 33,
    "prefecture": "岡山県",
    "city": "倉敷市",
    "town": "水島中通"
  },
  "7128073": {
    "zipcode": "7128073",
    "prefectureCode": "33",
    "prefectureNumber": 33,
    "prefecture": "岡山県",
    "city": "倉敷市",
    "town": "水島西通"
  },
  "7128074": {
    "zipcode": "7128074",
    "prefectureCode": "33",
    "prefectureNumber": 33,
    "prefecture": "岡山県",
    "city": "倉敷市",
    "town": "水島川崎通"
  }
}
