{
  "7138101": {
    "zipcode": "7138101",
    "prefectureCode": "33",
    "prefectureNumber": 33,
    "prefecture": "岡山県",
    "city": "倉敷市",
    "town": "玉島上成"
  },
  "7138102": {
    "zipcode": "7138102",
    "prefectureCode": "33",
    "prefectureNumber": 33,
    "prefecture": "岡山県",
    "city": "倉敷市",
    "town": "玉島"
  },
  "7138103": {
    "zipcode": "7138103",
    "prefectureCode": "33",
    "prefectureNumber": 33,
    "prefecture": "岡山県",
    "city": "倉敷市",
    "town": "玉島乙島"
  },
  "7138111": {
    "zipcode": "7138111",
    "prefectureCode": "33",
    "prefectureNumber": 33,
    "prefecture": "岡山県",
    "city": "倉敷市",
    "town": "玉島服部"
  },
  "7138112": {
    "zipcode": "7138112",
    "prefectureCode": "33",
    "prefectureNumber": 33,
    "prefecture": "岡山県",
    "city": "倉敷市",
    "town": "玉島陶"
  },
  "7138113": {
    "zipcode": "7138113",
    "prefectureCode": "33",
    "prefectureNumber": 33,
    "prefecture": "岡山県",
    "city": "倉敷市",
    "town": "玉島八島"
  },
  "7138114": {
    "zipcode": "7138114",
    "prefectureCode": "33",
    "prefectureNumber": 33,
    "prefecture": "岡山県",
    "city": "倉敷市",
    "town": "玉島道越"
  },
  "7138115": {
    "zipcode": "7138115",
    "prefectureCode": "33",
    "prefectureNumber": 33,
    "prefecture": "岡山県",
    "city": "倉敷市",
    "town": "玉島道口"
  },
  "7138116": {
    "zipcode": "7138116",
    "prefectureCode": "33",
    "prefectureNumber": 33,
    "prefecture": "岡山県",
    "city": "倉敷市",
    "town": "玉島富"
  },
  "7138121": {
    "zipcode": "7138121",
    "prefectureCode": "33",
    "prefectureNumber": 33,
    "prefecture": "岡山県",
    "city": "倉敷市",
    "town": "玉島阿賀崎"
  },
  "7138122": {
    "zipcode": "7138122",
    "prefectureCode": "33",
    "prefectureNumber": 33,
    "prefecture": "岡山県",
    "city": "倉敷市",
    "town": "玉島中央町"
  },
  "7138123": {
    "zipcode": "7138123",
    "prefectureCode": "33",
    "prefectureNumber": 33,
    "prefecture": "岡山県",
    "city": "倉敷市",
    "town": "玉島柏島"
  },
  "7138124": {
    "zipcode": "7138124",
    "prefectureCode": "33",
    "prefectureNumber": 33,
    "prefecture": "岡山県",
    "city": "倉敷市",
    "town": "玉島柏台"
  },
  "7138125": {
    "zipcode": "7138125",
    "prefectureCode": "33",
    "prefectureNumber": 33,
    "prefecture": "岡山県",
    "city": "倉敷市",
    "town": "玉島勇崎"
  },
  "7138126": {
    "zipcode": "7138126",
    "prefectureCode": "33",
    "prefectureNumber": 33,
    "prefecture": "岡山県",
    "city": "倉敷市",
    "town": "玉島黒崎"
  },
  "7138127": {
    "zipcode": "7138127",
    "prefectureCode": "33",
    "prefectureNumber": 33,
    "prefecture": "岡山県",
    "city": "倉敷市",
    "town": "玉島黒崎新町"
  }
}
