{
  "7150000": {
    "zipcode": "7150000",
    "prefectureCode": "33",
    "prefectureNumber": 33,
    "prefecture": "岡山県",
    "city": "井原市",
    "town": "以下に掲載がない場合"
  },
  "7150001": {
    "zipcode": "7150001",
    "prefectureCode": "33",
    "prefectureNumber": 33,
    "prefecture": "岡山県",
    "city": "井原市",
    "town": "野上町"
  },
  "7150002": {
    "zipcode": "7150002",
    "prefectureCode": "33",
    "prefectureNumber": 33,
    "prefecture": "岡山県",
    "city": "井原市",
    "town": "神代町"
  },
  "7150003": {
    "zipcode": "7150003",
    "prefectureCode": "33",
    "prefectureNumber": 33,
    "prefecture": "岡山県",
    "city": "井原市",
    "town": "東江原町"
  },
  "7150004": {
    "zipcode": "7150004",
    "prefectureCode": "33",
    "prefectureNumber": 33,
    "prefecture": "岡山県",
    "city": "井原市",
    "town": "木之子町"
  },
  "7150005": {
    "zipcode": "7150005",
    "prefectureCode": "33",
    "prefectureNumber": 33,
    "prefecture": "岡山県",
    "city": "井原市",
    "town": "門田町"
  },
  "7150006": {
    "zipcode": "7150006",
    "prefectureCode": "33",
    "prefectureNumber": 33,
    "prefecture": "岡山県",
    "city": "井原市",
    "town": "西江原町"
  },
  "7150011": {
    "zipcode": "7150011",
    "prefectureCode": "33",
    "prefectureNumber": 33,
    "prefecture": "岡山県",
    "city": "井原市",
    "town": "稗原町"
  },
  "7150012": {
    "zipcode": "7150012",
    "prefectureCode": "33",
    "prefectureNumber": 33,
    "prefecture": "岡山県",
    "city": "井原市",
    "town": "青野町"
  },
  "7150013": {
    "zipcode": "7150013",
    "prefectureCode": "33",
    "prefectureNumber": 33,
    "prefecture": "岡山県",
    "city": "井原市",
    "town": "北山町"
  },
  "7150014": {
    "zipcode": "7150014",
    "prefectureCode": "33",
    "prefectureNumber": 33,
    "prefecture": "岡山県",
    "city": "井原市",
    "town": "七日市町"
  },
  "7150015": {
    "zipcode": "7150015",
    "prefectureCode": "33",
    "prefectureNumber": 33,
    "prefecture": "岡山県",
    "city": "井原市",
    "town": "西方町"
  },
  "7150016": {
    "zipcode": "7150016",
    "prefectureCode": "33",
    "prefectureNumber": 33,
    "prefecture": "岡山県",
    "city": "井原市",
    "town": "岩倉町"
  },
  "7150017": {
    "zipcode": "7150017",
    "prefectureCode": "33",
    "prefectureNumber": 33,
    "prefecture": "岡山県",
    "city": "井原市",
    "town": "下稲木町"
  },
  "7150018": {
    "zipcode": "7150018",
    "prefectureCode": "33",
    "prefectureNumber": 33,
    "prefecture": "岡山県",
    "city": "井原市",
    "town": "上稲木町"
  },
  "7150019": {
    "zipcode": "7150019",
    "prefectureCode": "33",
    "prefectureNumber": 33,
    "prefecture": "岡山県",
    "city": "井原市",
    "town": "井原町"
  },
  "7150021": {
    "zipcode": "7150021",
    "prefectureCode": "33",
    "prefectureNumber": 33,
    "prefecture": "岡山県",
    "city": "井原市",
    "town": "上出部町"
  },
  "7150022": {
    "zipcode": "7150022",
    "prefectureCode": "33",
    "prefectureNumber": 33,
    "prefecture": "岡山県",
    "city": "井原市",
    "town": "下出部町"
  },
  "7150023": {
    "zipcode": "7150023",
    "prefectureCode": "33",
    "prefectureNumber": 33,
    "prefecture": "岡山県",
    "city": "井原市",
    "town": "大江町"
  },
  "7150024": {
    "zipcode": "7150024",
    "prefectureCode": "33",
    "prefectureNumber": 33,
    "prefecture": "岡山県",
    "city": "井原市",
    "town": "高屋町"
  },
  "7150025": {
    "zipcode": "7150025",
    "prefectureCode": "33",
    "prefectureNumber": 33,
    "prefecture": "岡山県",
    "city": "井原市",
    "town": "笹賀町"
  },
  "7150026": {
    "zipcode": "7150026",
    "prefectureCode": "33",
    "prefectureNumber": 33,
    "prefecture": "岡山県",
    "city": "井原市",
    "town": "上出部町四季が丘"
  }
}
