{
  "7160000": {
    "zipcode": "7160000",
    "prefectureCode": "33",
    "prefectureNumber": 33,
    "prefecture": "岡山県",
    "city": "高梁市",
    "town": "以下に掲載がない場合"
  },
  "7160001": {
    "zipcode": "7160001",
    "prefectureCode": "33",
    "prefectureNumber": 33,
    "prefecture": "岡山県",
    "city": "高梁市",
    "town": "津川町八川"
  },
  "7160002": {
    "zipcode": "7160002",
    "prefectureCode": "33",
    "prefectureNumber": 33,
    "prefecture": "岡山県",
    "city": "高梁市",
    "town": "津川町今津"
  },
  "7160003": {
    "zipcode": "7160003",
    "prefectureCode": "33",
    "prefectureNumber": 33,
    "prefecture": "岡山県",
    "city": "高梁市",
    "town": "高倉町大瀬八長"
  },
  "7160004": {
    "zipcode": "7160004",
    "prefectureCode": "33",
    "prefectureNumber": 33,
    "prefecture": "岡山県",
    "city": "高梁市",
    "town": "内山下"
  },
  "7160005": {
    "zipcode": "7160005",
    "prefectureCode": "33",
    "prefectureNumber": 33,
    "prefecture": "岡山県",
    "city": "高梁市",
    "town": "川端町"
  },
  "7160006": {
    "zipcode": "7160006",
    "prefectureCode": "33",
    "prefectureNumber": 33,
    "prefecture": "岡山県",
    "city": "高梁市",
    "town": "小高下町"
  },
  "7160007": {
    "zipcode": "7160007",
    "prefectureCode": "33",
    "prefectureNumber": 33,
    "prefecture": "岡山県",
    "city": "高梁市",
    "town": "奥万田町"
  },
  "7160008": {
    "zipcode": "7160008",
    "prefectureCode": "33",
    "prefectureNumber": 33,
    "prefecture": "岡山県",
    "city": "高梁市",
    "town": "和田町"
  },
  "7160009": {
    "zipcode": "7160009",
    "prefectureCode": "33",
    "prefectureNumber": 33,
    "prefecture": "岡山県",
    "city": "高梁市",
    "town": "間之町"
  },
  "7160011": {
    "zipcode": "7160011",
    "prefectureCode": "33",
    "prefectureNumber": 33,
    "prefecture": "岡山県",
    "city": "高梁市",
    "town": "本町"
  },
  "7160012": {
    "zipcode": "7160012",
    "prefectureCode": "33",
    "prefectureNumber": 33,
    "prefecture": "岡山県",
    "city": "高梁市",
    "town": "新町"
  },
  "7160013": {
    "zipcode": "7160013",
    "prefectureCode": "33",
    "prefectureNumber": 33,
    "prefecture": "岡山県",
    "city": "高梁市",
    "town": "片原町"
  },
  "7160014": {
    "zipcode": "7160014",
    "prefectureCode": "33",
    "prefectureNumber": 33,
    "prefecture": "岡山県",
    "city": "高梁市",
    "town": "中之町"
  },
  "7160015": {
    "zipcode": "7160015",
    "prefectureCode": "33",
    "prefectureNumber": 33,
    "prefecture": "岡山県",
    "city": "高梁市",
    "town": "石火矢町"
  },
  "7160016": {
    "zipcode": "7160016",
    "prefectureCode": "33",
    "prefectureNumber": 33,
    "prefecture": "岡山県",
    "city": "高梁市",
    "town": "頼久寺町"
  },
  "7160017": {
    "zipcode": "7160017",
    "prefectureCode": "33",
    "prefectureNumber": 33,
    "prefecture": "岡山県",
    "city": "高梁市",
    "town": "御前町"
  },
  "7160018": {
    "zipcode": "7160018",
    "prefectureCode": "33",
    "prefectureNumber": 33,
    "prefecture": "岡山県",
    "city": "高梁市",
    "town": "伊賀町"
  },
  "7160019": {
    "zipcode": "7160019",
    "prefectureCode": "33",
    "prefectureNumber": 33,
    "prefecture": "岡山県",
    "city": "高梁市",
    "town": "寺町"
  },
  "7160021": {
    "zipcode": "7160021",
    "prefectureCode": "33",
    "prefectureNumber": 33,
    "prefecture": "岡山県",
    "city": "高梁市",
    "town": "中間町"
  },
  "7160022": {
    "zipcode": "7160022",
    "prefectureCode": "33",
    "prefectureNumber": 33,
    "prefecture": "岡山県",
    "city": "高梁市",
    "town": "下町"
  },
  "7160023": {
    "zipcode": "7160023",
    "prefectureCode": "33",
    "prefectureNumber": 33,
    "prefecture": "岡山県",
    "city": "高梁市",
    "town": "鍜冶町"
  },
  "7160024": {
    "zipcode": "7160024",
    "prefectureCode": "33",
    "prefectureNumber": 33,
    "prefecture": "岡山県",
    "city": "高梁市",
    "town": "大工町"
  },
  "7160025": {
    "zipcode": "7160025",
    "prefectureCode": "33",
    "prefectureNumber": 33,
    "prefecture": "岡山県",
    "city": "高梁市",
    "town": "荒神町"
  },
  "7160026": {
    "zipcode": "7160026",
    "prefectureCode": "33",
    "prefectureNumber": 33,
    "prefecture": "岡山県",
    "city": "高梁市",
    "town": "甲賀町"
  },
  "7160027": {
    "zipcode": "7160027",
    "prefectureCode": "33",
    "prefectureNumber": 33,
    "prefecture": "岡山県",
    "city": "高梁市",
    "town": "八幡町"
  },
  "7160028": {
    "zipcode": "7160028",
    "prefectureCode": "33",
    "prefectureNumber": 33,
    "prefecture": "岡山県",
    "city": "高梁市",
    "town": "柿木町"
  },
  "7160029": {
    "zipcode": "7160029",
    "prefectureCode": "33",
    "prefectureNumber": 33,
    "prefecture": "岡山県",
    "city": "高梁市",
    "town": "向町"
  },
  "7160031": {
    "zipcode": "7160031",
    "prefectureCode": "33",
    "prefectureNumber": 33,
    "prefecture": "岡山県",
    "city": "高梁市",
    "town": "鉄砲町"
  },
  "7160032": {
    "zipcode": "7160032",
    "prefectureCode": "33",
    "prefectureNumber": 33,
    "prefecture": "岡山県",
    "city": "高梁市",
    "town": "弓之町"
  },
  "7160033": {
    "zipcode": "7160033",
    "prefectureCode": "33",
    "prefectureNumber": 33,
    "prefecture": "岡山県",
    "city": "高梁市",
    "town": "南町"
  },
  "7160034": {
    "zipcode": "7160034",
    "prefectureCode": "33",
    "prefectureNumber": 33,
    "prefecture": "岡山県",
    "city": "高梁市",
    "town": "東町"
  },
  "7160035": {
    "zipcode": "7160035",
    "prefectureCode": "33",
    "prefectureNumber": 33,
    "prefecture": "岡山県",
    "city": "高梁市",
    "town": "栄町"
  },
  "7160036": {
    "zipcode": "7160036",
    "prefectureCode": "33",
    "prefectureNumber": 33,
    "prefecture": "岡山県",
    "city": "高梁市",
    "town": "松原通"
  },
  "7160037": {
    "zipcode": "7160037",
    "prefectureCode": "33",
    "prefectureNumber": 33,
    "prefecture": "岡山県",
    "city": "高梁市",
    "town": "正宗町"
  },
  "7160038": {
    "zipcode": "7160038",
    "prefectureCode": "33",
    "prefectureNumber": 33,
    "prefecture": "岡山県",
    "city": "高梁市",
    "town": "浜町"
  },
  "7160039": {
    "zipcode": "7160039",
    "prefectureCode": "33",
    "prefectureNumber": 33,
    "prefecture": "岡山県",
    "city": "高梁市",
    "town": "旭町"
  },
  "7160041": {
    "zipcode": "7160041",
    "prefectureCode": "33",
    "prefectureNumber": 33,
    "prefecture": "岡山県",
    "city": "高梁市",
    "town": "上谷町"
  },
  "7160042": {
    "zipcode": "7160042",
    "prefectureCode": "33",
    "prefectureNumber": 33,
    "prefecture": "岡山県",
    "city": "高梁市",
    "town": "下谷町"
  },
  "7160043": {
    "zipcode": "7160043",
    "prefectureCode": "33",
    "prefectureNumber": 33,
    "prefecture": "岡山県",
    "city": "高梁市",
    "town": "原田北町"
  },
  "7160044": {
    "zipcode": "7160044",
    "prefectureCode": "33",
    "prefectureNumber": 33,
    "prefecture": "岡山県",
    "city": "高梁市",
    "town": "原田南町"
  },
  "7160045": {
    "zipcode": "7160045",
    "prefectureCode": "33",
    "prefectureNumber": 33,
    "prefecture": "岡山県",
    "city": "高梁市",
    "town": "中原町"
  },
  "7160046": {
    "zipcode": "7160046",
    "prefectureCode": "33",
    "prefectureNumber": 33,
    "prefecture": "岡山県",
    "city": "高梁市",
    "town": "横町"
  },
  "7160047": {
    "zipcode": "7160047",
    "prefectureCode": "33",
    "prefectureNumber": 33,
    "prefecture": "岡山県",
    "city": "高梁市",
    "town": "段町"
  },
  "7160051": {
    "zipcode": "7160051",
    "prefectureCode": "33",
    "prefectureNumber": 33,
    "prefecture": "岡山県",
    "city": "高梁市",
    "town": "松山"
  },
  "7160052": {
    "zipcode": "7160052",
    "prefectureCode": "33",
    "prefectureNumber": 33,
    "prefecture": "岡山県",
    "city": "高梁市",
    "town": "玉川町玉"
  },
  "7160053": {
    "zipcode": "7160053",
    "prefectureCode": "33",
    "prefectureNumber": 33,
    "prefecture": "岡山県",
    "city": "高梁市",
    "town": "玉川町下切"
  },
  "7160054": {
    "zipcode": "7160054",
    "prefectureCode": "33",
    "prefectureNumber": 33,
    "prefecture": "岡山県",
    "city": "高梁市",
    "town": "玉川町増原"
  },
  "7160061": {
    "zipcode": "7160061",
    "prefectureCode": "33",
    "prefectureNumber": 33,
    "prefecture": "岡山県",
    "city": "高梁市",
    "town": "落合町阿部"
  },
  "7160062": {
    "zipcode": "7160062",
    "prefectureCode": "33",
    "prefectureNumber": 33,
    "prefecture": "岡山県",
    "city": "高梁市",
    "town": "落合町近似"
  },
  "7160063": {
    "zipcode": "7160063",
    "prefectureCode": "33",
    "prefectureNumber": 33,
    "prefecture": "岡山県",
    "city": "高梁市",
    "town": "落合町原田"
  },
  "7160064": {
    "zipcode": "7160064",
    "prefectureCode": "33",
    "prefectureNumber": 33,
    "prefecture": "岡山県",
    "city": "高梁市",
    "town": "落合町福地"
  },
  "7160065": {
    "zipcode": "7160065",
    "prefectureCode": "33",
    "prefectureNumber": 33,
    "prefecture": "岡山県",
    "city": "高梁市",
    "town": "松原町大津寄"
  },
  "7160066": {
    "zipcode": "7160066",
    "prefectureCode": "33",
    "prefectureNumber": 33,
    "prefecture": "岡山県",
    "city": "高梁市",
    "town": "松原町松岡"
  },
  "7160067": {
    "zipcode": "7160067",
    "prefectureCode": "33",
    "prefectureNumber": 33,
    "prefecture": "岡山県",
    "city": "高梁市",
    "town": "松原町春木"
  },
  "7160068": {
    "zipcode": "7160068",
    "prefectureCode": "33",
    "prefectureNumber": 33,
    "prefecture": "岡山県",
    "city": "高梁市",
    "town": "松原町神原"
  },
  "7160101": {
    "zipcode": "7160101",
    "prefectureCode": "33",
    "prefectureNumber": 33,
    "prefecture": "岡山県",
    "city": "高梁市",
    "town": "成羽町下日名"
  },
  "7160102": {
    "zipcode": "7160102",
    "prefectureCode": "33",
    "prefectureNumber": 33,
    "prefecture": "岡山県",
    "city": "高梁市",
    "town": "成羽町上日名"
  },
  "7160111": {
    "zipcode": "7160111",
    "prefectureCode": "33",
    "prefectureNumber": 33,
    "prefecture": "岡山県",
    "city": "高梁市",
    "town": "成羽町下原"
  },
  "7160112": {
    "zipcode": "7160112",
    "prefectureCode": "33",
    "prefectureNumber": 33,
    "prefecture": "岡山県",
    "city": "高梁市",
    "town": "成羽町星原"
  },
  "7160113": {
    "zipcode": "7160113",
    "prefectureCode": "33",
    "prefectureNumber": 33,
    "prefecture": "岡山県",
    "city": "高梁市",
    "town": "成羽町佐々木"
  },
  "7160121": {
    "zipcode": "7160121",
    "prefectureCode": "33",
    "prefectureNumber": 33,
    "prefecture": "岡山県",
    "city": "高梁市",
    "town": "成羽町成羽"
  },
  "7160122": {
    "zipcode": "7160122",
    "prefectureCode": "33",
    "prefectureNumber": 33,
    "prefecture": "岡山県",
    "city": "高梁市",
    "town": "成羽町羽山"
  },
  "7160201": {
    "zipcode": "7160201",
    "prefectureCode": "33",
    "prefectureNumber": 33,
    "prefecture": "岡山県",
    "city": "高梁市",
    "town": "川上町地頭"
  },
  "7160202": {
    "zipcode": "7160202",
    "prefectureCode": "33",
    "prefectureNumber": 33,
    "prefecture": "岡山県",
    "city": "高梁市",
    "town": "川上町七地"
  },
  "7160203": {
    "zipcode": "7160203",
    "prefectureCode": "33",
    "prefectureNumber": 33,
    "prefecture": "岡山県",
    "city": "高梁市",
    "town": "川上町三沢"
  },
  "7160204": {
    "zipcode": "7160204",
    "prefectureCode": "33",
    "prefectureNumber": 33,
    "prefecture": "岡山県",
    "city": "高梁市",
    "town": "川上町領家"
  },
  "7160205": {
    "zipcode": "7160205",
    "prefectureCode": "33",
    "prefectureNumber": 33,
    "prefecture": "岡山県",
    "city": "高梁市",
    "town": "川上町臘数"
  },
  "7160206": {
    "zipcode": "7160206",
    "prefectureCode": "33",
    "prefectureNumber": 33,
    "prefecture": "岡山県",
    "city": "高梁市",
    "town": "川上町吉木"
  },
  "7160207": {
    "zipcode": "7160207",
    "prefectureCode": "33",
    "prefectureNumber": 33,
    "prefecture": "岡山県",
    "city": "高梁市",
    "town": "川上町仁賀"
  },
  "7160211": {
    "zipcode": "7160211",
    "prefectureCode": "33",
    "prefectureNumber": 33,
    "prefecture": "岡山県",
    "city": "高梁市",
    "town": "川上町上大竹"
  },
  "7160212": {
    "zipcode": "7160212",
    "prefectureCode": "33",
    "prefectureNumber": 33,
    "prefecture": "岡山県",
    "city": "高梁市",
    "town": "川上町下大竹"
  },
  "7160221": {
    "zipcode": "7160221",
    "prefectureCode": "33",
    "prefectureNumber": 33,
    "prefecture": "岡山県",
    "city": "高梁市",
    "town": "川上町高山市"
  },
  "7160222": {
    "zipcode": "7160222",
    "prefectureCode": "33",
    "prefectureNumber": 33,
    "prefecture": "岡山県",
    "city": "高梁市",
    "town": "川上町大原"
  },
  "7160223": {
    "zipcode": "7160223",
    "prefectureCode": "33",
    "prefectureNumber": 33,
    "prefecture": "岡山県",
    "city": "高梁市",
    "town": "川上町高山"
  },
  "7160301": {
    "zipcode": "7160301",
    "prefectureCode": "33",
    "prefectureNumber": 33,
    "prefecture": "岡山県",
    "city": "高梁市",
    "town": "備中町志藤用瀬"
  },
  "7160302": {
    "zipcode": "7160302",
    "prefectureCode": "33",
    "prefectureNumber": 33,
    "prefecture": "岡山県",
    "city": "高梁市",
    "town": "備中町布瀬"
  },
  "7160303": {
    "zipcode": "7160303",
    "prefectureCode": "33",
    "prefectureNumber": 33,
    "prefecture": "岡山県",
    "city": "高梁市",
    "town": "備中町長屋"
  },
  "7160304": {
    "zipcode": "7160304",
    "prefectureCode": "33",
    "prefectureNumber": 33,
    "prefecture": "岡山県",
    "city": "高梁市",
    "town": "備中町布賀"
  },
  "7160311": {
    "zipcode": "7160311",
    "prefectureCode": "33",
    "prefectureNumber": 33,
    "prefecture": "岡山県",
    "city": "高梁市",
    "town": "備中町平川"
  },
  "7160321": {
    "zipcode": "7160321",
    "prefectureCode": "33",
    "prefectureNumber": 33,
    "prefecture": "岡山県",
    "city": "高梁市",
    "town": "備中町東油野"
  },
  "7160322": {
    "zipcode": "7160322",
    "prefectureCode": "33",
    "prefectureNumber": 33,
    "prefecture": "岡山県",
    "city": "高梁市",
    "town": "備中町西油野"
  },
  "7160323": {
    "zipcode": "7160323",
    "prefectureCode": "33",
    "prefectureNumber": 33,
    "prefecture": "岡山県",
    "city": "高梁市",
    "town": "備中町西山"
  },
  "7160331": {
    "zipcode": "7160331",
    "prefectureCode": "33",
    "prefectureNumber": 33,
    "prefecture": "岡山県",
    "city": "高梁市",
    "town": "成羽町羽根"
  },
  "7160332": {
    "zipcode": "7160332",
    "prefectureCode": "33",
    "prefectureNumber": 33,
    "prefecture": "岡山県",
    "city": "高梁市",
    "town": "成羽町小泉"
  },
  "7160333": {
    "zipcode": "7160333",
    "prefectureCode": "33",
    "prefectureNumber": 33,
    "prefecture": "岡山県",
    "city": "高梁市",
    "town": "成羽町相坂"
  },
  "7160334": {
    "zipcode": "7160334",
    "prefectureCode": "33",
    "prefectureNumber": 33,
    "prefecture": "岡山県",
    "city": "高梁市",
    "town": "成羽町長地"
  },
  "7160335": {
    "zipcode": "7160335",
    "prefectureCode": "33",
    "prefectureNumber": 33,
    "prefecture": "岡山県",
    "city": "高梁市",
    "town": "成羽町布寄"
  },
  "7161100": {
    "zipcode": "7161100",
    "prefectureCode": "33",
    "prefectureNumber": 33,
    "prefecture": "岡山県",
    "city": "加賀郡吉備中央町",
    "town": "以下に掲載がない場合"
  },
  "7161101": {
    "zipcode": "7161101",
    "prefectureCode": "33",
    "prefectureNumber": 33,
    "prefecture": "岡山県",
    "city": "加賀郡吉備中央町",
    "town": "豊野"
  },
  "7161102": {
    "zipcode": "7161102",
    "prefectureCode": "33",
    "prefectureNumber": 33,
    "prefecture": "岡山県",
    "city": "加賀郡吉備中央町",
    "town": "黒土"
  },
  "7161111": {
    "zipcode": "7161111",
    "prefectureCode": "33",
    "prefectureNumber": 33,
    "prefecture": "岡山県",
    "city": "加賀郡吉備中央町",
    "town": "田土"
  },
  "7161112": {
    "zipcode": "7161112",
    "prefectureCode": "33",
    "prefectureNumber": 33,
    "prefecture": "岡山県",
    "city": "加賀郡吉備中央町",
    "town": "湯山"
  },
  "7161121": {
    "zipcode": "7161121",
    "prefectureCode": "33",
    "prefectureNumber": 33,
    "prefecture": "岡山県",
    "city": "加賀郡吉備中央町",
    "town": "納地"
  },
  "7161122": {
    "zipcode": "7161122",
    "prefectureCode": "33",
    "prefectureNumber": 33,
    "prefecture": "岡山県",
    "city": "加賀郡吉備中央町",
    "town": "竹荘"
  },
  "7161131": {
    "zipcode": "7161131",
    "prefectureCode": "33",
    "prefectureNumber": 33,
    "prefecture": "岡山県",
    "city": "加賀郡吉備中央町",
    "town": "上竹"
  },
  "7161241": {
    "zipcode": "7161241",
    "prefectureCode": "33",
    "prefectureNumber": 33,
    "prefecture": "岡山県",
    "city": "加賀郡吉備中央町",
    "town": "吉川"
  },
  "7161242": {
    "zipcode": "7161242",
    "prefectureCode": "33",
    "prefectureNumber": 33,
    "prefecture": "岡山県",
    "city": "加賀郡吉備中央町",
    "town": "黒山"
  },
  "7161311": {
    "zipcode": "7161311",
    "prefectureCode": "33",
    "prefectureNumber": 33,
    "prefecture": "岡山県",
    "city": "高梁市",
    "town": "巨瀬町"
  },
  "7161321": {
    "zipcode": "7161321",
    "prefectureCode": "33",
    "prefectureNumber": 33,
    "prefecture": "岡山県",
    "city": "高梁市",
    "town": "有漢町有漢"
  },
  "7161322": {
    "zipcode": "7161322",
    "prefectureCode": "33",
    "prefectureNumber": 33,
    "prefecture": "岡山県",
    "city": "高梁市",
    "town": "有漢町上有漢"
  },
  "7161401": {
    "zipcode": "7161401",
    "prefectureCode": "33",
    "prefectureNumber": 33,
    "prefecture": "岡山県",
    "city": "真庭市",
    "town": "五名"
  },
  "7161402": {
    "zipcode": "7161402",
    "prefectureCode": "33",
    "prefectureNumber": 33,
    "prefecture": "岡山県",
    "city": "真庭市",
    "town": "山田"
  },
  "7161403": {
    "zipcode": "7161403",
    "prefectureCode": "33",
    "prefectureNumber": 33,
    "prefecture": "岡山県",
    "city": "真庭市",
    "town": "宮地"
  },
  "7161411": {
    "zipcode": "7161411",
    "prefectureCode": "33",
    "prefectureNumber": 33,
    "prefecture": "岡山県",
    "city": "真庭市",
    "town": "上水田"
  },
  "7161421": {
    "zipcode": "7161421",
    "prefectureCode": "33",
    "prefectureNumber": 33,
    "prefecture": "岡山県",
    "city": "真庭市",
    "town": "下中津井"
  },
  "7161422": {
    "zipcode": "7161422",
    "prefectureCode": "33",
    "prefectureNumber": 33,
    "prefecture": "岡山県",
    "city": "真庭市",
    "town": "上中津井"
  },
  "7161431": {
    "zipcode": "7161431",
    "prefectureCode": "33",
    "prefectureNumber": 33,
    "prefecture": "岡山県",
    "city": "真庭市",
    "town": "阿口"
  },
  "7161432": {
    "zipcode": "7161432",
    "prefectureCode": "33",
    "prefectureNumber": 33,
    "prefecture": "岡山県",
    "city": "真庭市",
    "town": "上呰部"
  },
  "7161433": {
    "zipcode": "7161433",
    "prefectureCode": "33",
    "prefectureNumber": 33,
    "prefecture": "岡山県",
    "city": "真庭市",
    "town": "下呰部"
  },
  "7161551": {
    "zipcode": "7161551",
    "prefectureCode": "33",
    "prefectureNumber": 33,
    "prefecture": "岡山県",
    "city": "加賀郡吉備中央町",
    "town": "北"
  },
  "7161552": {
    "zipcode": "7161552",
    "prefectureCode": "33",
    "prefectureNumber": 33,
    "prefecture": "岡山県",
    "city": "加賀郡吉備中央町",
    "town": "岨谷"
  },
  "7161553": {
    "zipcode": "7161553",
    "prefectureCode": "33",
    "prefectureNumber": 33,
    "prefecture": "岡山県",
    "city": "加賀郡吉備中央町",
    "town": "宮地"
  },
  "7161554": {
    "zipcode": "7161554",
    "prefectureCode": "33",
    "prefectureNumber": 33,
    "prefecture": "岡山県",
    "city": "加賀郡吉備中央町",
    "town": "西"
  }
}
