{
  "7170001": {
    "zipcode": "7170001",
    "prefectureCode": "33",
    "prefectureNumber": 33,
    "prefecture": "岡山県",
    "city": "真庭市",
    "town": "星山"
  },
  "7170002": {
    "zipcode": "7170002",
    "prefectureCode": "33",
    "prefectureNumber": 33,
    "prefecture": "岡山県",
    "city": "真庭市",
    "town": "菅谷"
  },
  "7170003": {
    "zipcode": "7170003",
    "prefectureCode": "33",
    "prefectureNumber": 33,
    "prefecture": "岡山県",
    "city": "真庭市",
    "town": "竹原"
  },
  "7170004": {
    "zipcode": "7170004",
    "prefectureCode": "33",
    "prefectureNumber": 33,
    "prefecture": "岡山県",
    "city": "真庭市",
    "town": "神庭"
  },
  "7170005": {
    "zipcode": "7170005",
    "prefectureCode": "33",
    "prefectureNumber": 33,
    "prefecture": "岡山県",
    "city": "真庭市",
    "town": "横部"
  },
  "7170006": {
    "zipcode": "7170006",
    "prefectureCode": "33",
    "prefectureNumber": 33,
    "prefecture": "岡山県",
    "city": "真庭市",
    "town": "組"
  },
  "7170007": {
    "zipcode": "7170007",
    "prefectureCode": "33",
    "prefectureNumber": 33,
    "prefecture": "岡山県",
    "city": "真庭市",
    "town": "本郷"
  },
  "7170011": {
    "zipcode": "7170011",
    "prefectureCode": "33",
    "prefectureNumber": 33,
    "prefecture": "岡山県",
    "city": "真庭市",
    "town": "見尾"
  },
  "7170012": {
    "zipcode": "7170012",
    "prefectureCode": "33",
    "prefectureNumber": 33,
    "prefecture": "岡山県",
    "city": "真庭市",
    "town": "山久世"
  },
  "7170013": {
    "zipcode": "7170013",
    "prefectureCode": "33",
    "prefectureNumber": 33,
    "prefecture": "岡山県",
    "city": "真庭市",
    "town": "勝山"
  },
  "7170014": {
    "zipcode": "7170014",
    "prefectureCode": "33",
    "prefectureNumber": 33,
    "prefecture": "岡山県",
    "city": "真庭市",
    "town": "柴原"
  },
  "7170015": {
    "zipcode": "7170015",
    "prefectureCode": "33",
    "prefectureNumber": 33,
    "prefecture": "岡山県",
    "city": "真庭市",
    "town": "岡"
  },
  "7170016": {
    "zipcode": "7170016",
    "prefectureCode": "33",
    "prefectureNumber": 33,
    "prefecture": "岡山県",
    "city": "真庭市",
    "town": "正吉"
  },
  "7170017": {
    "zipcode": "7170017",
    "prefectureCode": "33",
    "prefectureNumber": 33,
    "prefecture": "岡山県",
    "city": "真庭市",
    "town": "真賀"
  },
  "7170021": {
    "zipcode": "7170021",
    "prefectureCode": "33",
    "prefectureNumber": 33,
    "prefecture": "岡山県",
    "city": "真庭市",
    "town": "福谷"
  },
  "7170022": {
    "zipcode": "7170022",
    "prefectureCode": "33",
    "prefectureNumber": 33,
    "prefecture": "岡山県",
    "city": "真庭市",
    "town": "三田"
  },
  "7170023": {
    "zipcode": "7170023",
    "prefectureCode": "33",
    "prefectureNumber": 33,
    "prefecture": "岡山県",
    "city": "真庭市",
    "town": "江川"
  },
  "7170024": {
    "zipcode": "7170024",
    "prefectureCode": "33",
    "prefectureNumber": 33,
    "prefecture": "岡山県",
    "city": "真庭市",
    "town": "月田"
  },
  "7170025": {
    "zipcode": "7170025",
    "prefectureCode": "33",
    "prefectureNumber": 33,
    "prefecture": "岡山県",
    "city": "真庭市",
    "town": "後谷畝"
  },
  "7170026": {
    "zipcode": "7170026",
    "prefectureCode": "33",
    "prefectureNumber": 33,
    "prefecture": "岡山県",
    "city": "真庭市",
    "town": "荒田"
  },
  "7170027": {
    "zipcode": "7170027",
    "prefectureCode": "33",
    "prefectureNumber": 33,
    "prefecture": "岡山県",
    "city": "真庭市",
    "town": "神代"
  },
  "7170101": {
    "zipcode": "7170101",
    "prefectureCode": "33",
    "prefectureNumber": 33,
    "prefecture": "岡山県",
    "city": "真庭市",
    "town": "鉄山"
  },
  "7170102": {
    "zipcode": "7170102",
    "prefectureCode": "33",
    "prefectureNumber": 33,
    "prefecture": "岡山県",
    "city": "真庭市",
    "town": "黒田"
  },
  "7170103": {
    "zipcode": "7170103",
    "prefectureCode": "33",
    "prefectureNumber": 33,
    "prefecture": "岡山県",
    "city": "真庭市",
    "town": "田口"
  },
  "7170104": {
    "zipcode": "7170104",
    "prefectureCode": "33",
    "prefectureNumber": 33,
    "prefecture": "岡山県",
    "city": "真庭市",
    "town": "延風"
  },
  "7170105": {
    "zipcode": "7170105",
    "prefectureCode": "33",
    "prefectureNumber": 33,
    "prefecture": "岡山県",
    "city": "真庭市",
    "town": "美甘"
  },
  "7170201": {
    "zipcode": "7170201",
    "prefectureCode": "33",
    "prefectureNumber": 33,
    "prefecture": "岡山県",
    "city": "真庭郡新庄村",
    "town": "新庄村一円"
  },
  "7170401": {
    "zipcode": "7170401",
    "prefectureCode": "33",
    "prefectureNumber": 33,
    "prefecture": "岡山県",
    "city": "真庭市",
    "town": "田羽根"
  },
  "7170402": {
    "zipcode": "7170402",
    "prefectureCode": "33",
    "prefectureNumber": 33,
    "prefecture": "岡山県",
    "city": "真庭市",
    "town": "湯原温泉"
  },
  "7170403": {
    "zipcode": "7170403",
    "prefectureCode": "33",
    "prefectureNumber": 33,
    "prefecture": "岡山県",
    "city": "真庭市",
    "town": "下湯原"
  },
  "7170404": {
    "zipcode": "7170404",
    "prefectureCode": "33",
    "prefectureNumber": 33,
    "prefecture": "岡山県",
    "city": "真庭市",
    "town": "社"
  },
  "7170405": {
    "zipcode": "7170405",
    "prefectureCode": "33",
    "prefectureNumber": 33,
    "prefecture": "岡山県",
    "city": "真庭市",
    "town": "久見"
  },
  "7170406": {
    "zipcode": "7170406",
    "prefectureCode": "33",
    "prefectureNumber": 33,
    "prefecture": "岡山県",
    "city": "真庭市",
    "town": "豊栄"
  },
  "7170411": {
    "zipcode": "7170411",
    "prefectureCode": "33",
    "prefectureNumber": 33,
    "prefecture": "岡山県",
    "city": "真庭市",
    "town": "見明戸"
  },
  "7170412": {
    "zipcode": "7170412",
    "prefectureCode": "33",
    "prefectureNumber": 33,
    "prefecture": "岡山県",
    "city": "真庭市",
    "town": "本庄"
  },
  "7170413": {
    "zipcode": "7170413",
    "prefectureCode": "33",
    "prefectureNumber": 33,
    "prefecture": "岡山県",
    "city": "真庭市",
    "town": "禾津"
  },
  "7170414": {
    "zipcode": "7170414",
    "prefectureCode": "33",
    "prefectureNumber": 33,
    "prefecture": "岡山県",
    "city": "真庭市",
    "town": "釘貫小川"
  },
  "7170415": {
    "zipcode": "7170415",
    "prefectureCode": "33",
    "prefectureNumber": 33,
    "prefecture": "岡山県",
    "city": "真庭市",
    "town": "都喜足"
  },
  "7170416": {
    "zipcode": "7170416",
    "prefectureCode": "33",
    "prefectureNumber": 33,
    "prefecture": "岡山県",
    "city": "真庭市",
    "town": "仲間"
  },
  "7170421": {
    "zipcode": "7170421",
    "prefectureCode": "33",
    "prefectureNumber": 33,
    "prefecture": "岡山県",
    "city": "真庭市",
    "town": "粟谷"
  },
  "7170422": {
    "zipcode": "7170422",
    "prefectureCode": "33",
    "prefectureNumber": 33,
    "prefecture": "岡山県",
    "city": "真庭市",
    "town": "藤森"
  },
  "7170423": {
    "zipcode": "7170423",
    "prefectureCode": "33",
    "prefectureNumber": 33,
    "prefecture": "岡山県",
    "city": "真庭市",
    "town": "黒杭"
  },
  "7170424": {
    "zipcode": "7170424",
    "prefectureCode": "33",
    "prefectureNumber": 33,
    "prefecture": "岡山県",
    "city": "真庭市",
    "town": "種"
  },
  "7170425": {
    "zipcode": "7170425",
    "prefectureCode": "33",
    "prefectureNumber": 33,
    "prefecture": "岡山県",
    "city": "真庭市",
    "town": "小童谷"
  },
  "7170426": {
    "zipcode": "7170426",
    "prefectureCode": "33",
    "prefectureNumber": 33,
    "prefecture": "岡山県",
    "city": "真庭市",
    "town": "三世七原"
  },
  "7170501": {
    "zipcode": "7170501",
    "prefectureCode": "33",
    "prefectureNumber": 33,
    "prefecture": "岡山県",
    "city": "真庭市",
    "town": "蒜山中福田"
  },
  "7170502": {
    "zipcode": "7170502",
    "prefectureCode": "33",
    "prefectureNumber": 33,
    "prefecture": "岡山県",
    "city": "真庭市",
    "town": "蒜山富掛田"
  },
  "7170503": {
    "zipcode": "7170503",
    "prefectureCode": "33",
    "prefectureNumber": 33,
    "prefecture": "岡山県",
    "city": "真庭市",
    "town": "蒜山富山根"
  },
  "7170504": {
    "zipcode": "7170504",
    "prefectureCode": "33",
    "prefectureNumber": 33,
    "prefecture": "岡山県",
    "city": "真庭市",
    "town": "蒜山下福田"
  },
  "7170505": {
    "zipcode": "7170505",
    "prefectureCode": "33",
    "prefectureNumber": 33,
    "prefecture": "岡山県",
    "city": "真庭市",
    "town": "蒜山上長田"
  },
  "7170506": {
    "zipcode": "7170506",
    "prefectureCode": "33",
    "prefectureNumber": 33,
    "prefecture": "岡山県",
    "city": "真庭市",
    "town": "蒜山下長田"
  },
  "7170507": {
    "zipcode": "7170507",
    "prefectureCode": "33",
    "prefectureNumber": 33,
    "prefecture": "岡山県",
    "city": "真庭市",
    "town": "蒜山下見"
  },
  "7170511": {
    "zipcode": "7170511",
    "prefectureCode": "33",
    "prefectureNumber": 33,
    "prefecture": "岡山県",
    "city": "真庭市",
    "town": "蒜山初和"
  },
  "7170512": {
    "zipcode": "7170512",
    "prefectureCode": "33",
    "prefectureNumber": 33,
    "prefecture": "岡山県",
    "city": "真庭市",
    "town": "蒜山真加子"
  },
  "7170513": {
    "zipcode": "7170513",
    "prefectureCode": "33",
    "prefectureNumber": 33,
    "prefecture": "岡山県",
    "city": "真庭市",
    "town": "蒜山下和"
  },
  "7170514": {
    "zipcode": "7170514",
    "prefectureCode": "33",
    "prefectureNumber": 33,
    "prefecture": "岡山県",
    "city": "真庭市",
    "town": "蒜山吉田"
  },
  "7170515": {
    "zipcode": "7170515",
    "prefectureCode": "33",
    "prefectureNumber": 33,
    "prefecture": "岡山県",
    "city": "真庭市",
    "town": "蒜山別所"
  },
  "7170601": {
    "zipcode": "7170601",
    "prefectureCode": "33",
    "prefectureNumber": 33,
    "prefecture": "岡山県",
    "city": "真庭市",
    "town": "蒜山湯船"
  },
  "7170602": {
    "zipcode": "7170602",
    "prefectureCode": "33",
    "prefectureNumber": 33,
    "prefecture": "岡山県",
    "city": "真庭市",
    "town": "蒜山上福田"
  },
  "7170603": {
    "zipcode": "7170603",
    "prefectureCode": "33",
    "prefectureNumber": 33,
    "prefecture": "岡山県",
    "city": "真庭市",
    "town": "蒜山東茅部"
  },
  "7170604": {
    "zipcode": "7170604",
    "prefectureCode": "33",
    "prefectureNumber": 33,
    "prefecture": "岡山県",
    "city": "真庭市",
    "town": "蒜山西茅部"
  },
  "7170611": {
    "zipcode": "7170611",
    "prefectureCode": "33",
    "prefectureNumber": 33,
    "prefecture": "岡山県",
    "city": "真庭市",
    "town": "蒜山本茅部"
  },
  "7170612": {
    "zipcode": "7170612",
    "prefectureCode": "33",
    "prefectureNumber": 33,
    "prefecture": "岡山県",
    "city": "真庭市",
    "town": "蒜山上徳山"
  },
  "7170613": {
    "zipcode": "7170613",
    "prefectureCode": "33",
    "prefectureNumber": 33,
    "prefecture": "岡山県",
    "city": "真庭市",
    "town": "蒜山下徳山"
  },
  "7170731": {
    "zipcode": "7170731",
    "prefectureCode": "33",
    "prefectureNumber": 33,
    "prefecture": "岡山県",
    "city": "真庭市",
    "town": "曲り"
  },
  "7170732": {
    "zipcode": "7170732",
    "prefectureCode": "33",
    "prefectureNumber": 33,
    "prefecture": "岡山県",
    "city": "真庭市",
    "town": "高田山上"
  },
  "7170733": {
    "zipcode": "7170733",
    "prefectureCode": "33",
    "prefectureNumber": 33,
    "prefecture": "岡山県",
    "city": "真庭市",
    "town": "若代畝"
  },
  "7170734": {
    "zipcode": "7170734",
    "prefectureCode": "33",
    "prefectureNumber": 33,
    "prefecture": "岡山県",
    "city": "真庭市",
    "town": "野"
  },
  "7170735": {
    "zipcode": "7170735",
    "prefectureCode": "33",
    "prefectureNumber": 33,
    "prefecture": "岡山県",
    "city": "真庭市",
    "town": "下岩"
  },
  "7170736": {
    "zipcode": "7170736",
    "prefectureCode": "33",
    "prefectureNumber": 33,
    "prefecture": "岡山県",
    "city": "真庭市",
    "town": "古呂々尾中"
  },
  "7170737": {
    "zipcode": "7170737",
    "prefectureCode": "33",
    "prefectureNumber": 33,
    "prefecture": "岡山県",
    "city": "真庭市",
    "town": "清谷"
  },
  "7170741": {
    "zipcode": "7170741",
    "prefectureCode": "33",
    "prefectureNumber": 33,
    "prefecture": "岡山県",
    "city": "真庭市",
    "town": "若代"
  },
  "7170742": {
    "zipcode": "7170742",
    "prefectureCode": "33",
    "prefectureNumber": 33,
    "prefecture": "岡山県",
    "city": "真庭市",
    "town": "後谷"
  },
  "7170743": {
    "zipcode": "7170743",
    "prefectureCode": "33",
    "prefectureNumber": 33,
    "prefecture": "岡山県",
    "city": "真庭市",
    "town": "月田本"
  },
  "7170744": {
    "zipcode": "7170744",
    "prefectureCode": "33",
    "prefectureNumber": 33,
    "prefecture": "岡山県",
    "city": "真庭市",
    "town": "岩井谷"
  },
  "7170745": {
    "zipcode": "7170745",
    "prefectureCode": "33",
    "prefectureNumber": 33,
    "prefecture": "岡山県",
    "city": "真庭市",
    "town": "岩井畝"
  },
  "7170746": {
    "zipcode": "7170746",
    "prefectureCode": "33",
    "prefectureNumber": 33,
    "prefecture": "岡山県",
    "city": "真庭市",
    "town": "上"
  }
}
