{
  "7220000": {
    "zipcode": "7220000",
    "prefectureCode": "34",
    "prefectureNumber": 34,
    "prefecture": "広島県",
    "city": "尾道市",
    "town": "以下に掲載がない場合"
  },
  "7220001": {
    "zipcode": "7220001",
    "prefectureCode": "34",
    "prefectureNumber": 34,
    "prefecture": "広島県",
    "city": "尾道市",
    "town": "手崎町"
  },
  "7220002": {
    "zipcode": "7220002",
    "prefectureCode": "34",
    "prefectureNumber": 34,
    "prefecture": "広島県",
    "city": "尾道市",
    "town": "古浜町"
  },
  "7220003": {
    "zipcode": "7220003",
    "prefectureCode": "34",
    "prefectureNumber": 34,
    "prefecture": "広島県",
    "city": "尾道市",
    "town": "東元町"
  },
  "7220004": {
    "zipcode": "7220004",
    "prefectureCode": "34",
    "prefectureNumber": 34,
    "prefecture": "広島県",
    "city": "尾道市",
    "town": "正徳町"
  },
  "7220005": {
    "zipcode": "7220005",
    "prefectureCode": "34",
    "prefectureNumber": 34,
    "prefecture": "広島県",
    "city": "尾道市",
    "town": "福地町"
  },
  "7220006": {
    "zipcode": "7220006",
    "prefectureCode": "34",
    "prefectureNumber": 34,
    "prefecture": "広島県",
    "city": "尾道市",
    "town": "沖側町"
  },
  "7220007": {
    "zipcode": "7220007",
    "prefectureCode": "34",
    "prefectureNumber": 34,
    "prefecture": "広島県",
    "city": "尾道市",
    "town": "吉和西元町"
  },
  "7220008": {
    "zipcode": "7220008",
    "prefectureCode": "34",
    "prefectureNumber": 34,
    "prefecture": "広島県",
    "city": "尾道市",
    "town": "吉和町"
  },
  "7220011": {
    "zipcode": "7220011",
    "prefectureCode": "34",
    "prefectureNumber": 34,
    "prefecture": "広島県",
    "city": "尾道市",
    "town": "桜町"
  },
  "7220012": {
    "zipcode": "7220012",
    "prefectureCode": "34",
    "prefectureNumber": 34,
    "prefecture": "広島県",
    "city": "尾道市",
    "town": "潮見町"
  },
  "7220013": {
    "zipcode": "7220013",
    "prefectureCode": "34",
    "prefectureNumber": 34,
    "prefecture": "広島県",
    "city": "尾道市",
    "town": "日比崎町"
  },
  "7220014": {
    "zipcode": "7220014",
    "prefectureCode": "34",
    "prefectureNumber": 34,
    "prefecture": "広島県",
    "city": "尾道市",
    "town": "新浜"
  },
  "7220015": {
    "zipcode": "7220015",
    "prefectureCode": "34",
    "prefectureNumber": 34,
    "prefecture": "広島県",
    "city": "尾道市",
    "town": "吉浦町"
  },
  "7220016": {
    "zipcode": "7220016",
    "prefectureCode": "34",
    "prefectureNumber": 34,
    "prefecture": "広島県",
    "city": "尾道市",
    "town": "神田町"
  },
  "7220017": {
    "zipcode": "7220017",
    "prefectureCode": "34",
    "prefectureNumber": 34,
    "prefecture": "広島県",
    "city": "尾道市",
    "town": "門田町"
  },
  "7220018": {
    "zipcode": "7220018",
    "prefectureCode": "34",
    "prefectureNumber": 34,
    "prefecture": "広島県",
    "city": "尾道市",
    "town": "平原"
  },
  "7220021": {
    "zipcode": "7220021",
    "prefectureCode": "34",
    "prefectureNumber": 34,
    "prefecture": "広島県",
    "city": "尾道市",
    "town": "久山田町"
  },
  "7220022": {
    "zipcode": "7220022",
    "prefectureCode": "34",
    "prefectureNumber": 34,
    "prefecture": "広島県",
    "city": "尾道市",
    "town": "栗原町"
  },
  "7220023": {
    "zipcode": "7220023",
    "prefectureCode": "34",
    "prefectureNumber": 34,
    "prefecture": "広島県",
    "city": "尾道市",
    "town": "東則末町"
  },
  "7220024": {
    "zipcode": "7220024",
    "prefectureCode": "34",
    "prefectureNumber": 34,
    "prefecture": "広島県",
    "city": "尾道市",
    "town": "西則末町"
  },
  "7220025": {
    "zipcode": "7220025",
    "prefectureCode": "34",
    "prefectureNumber": 34,
    "prefecture": "広島県",
    "city": "尾道市",
    "town": "栗原東"
  },
  "7220026": {
    "zipcode": "7220026",
    "prefectureCode": "34",
    "prefectureNumber": 34,
    "prefecture": "広島県",
    "city": "尾道市",
    "town": "栗原西"
  },
  "7220031": {
    "zipcode": "7220031",
    "prefectureCode": "34",
    "prefectureNumber": 34,
    "prefecture": "広島県",
    "city": "尾道市",
    "town": "三軒家町"
  },
  "7220032": {
    "zipcode": "7220032",
    "prefectureCode": "34",
    "prefectureNumber": 34,
    "prefecture": "広島県",
    "city": "尾道市",
    "town": "西土堂町"
  },
  "7220033": {
    "zipcode": "7220033",
    "prefectureCode": "34",
    "prefectureNumber": 34,
    "prefecture": "広島県",
    "city": "尾道市",
    "town": "東土堂町"
  },
  "7220034": {
    "zipcode": "7220034",
    "prefectureCode": "34",
    "prefectureNumber": 34,
    "prefecture": "広島県",
    "city": "尾道市",
    "town": "十四日元町"
  },
  "7220035": {
    "zipcode": "7220035",
    "prefectureCode": "34",
    "prefectureNumber": 34,
    "prefecture": "広島県",
    "city": "尾道市",
    "town": "土堂"
  },
  "7220036": {
    "zipcode": "7220036",
    "prefectureCode": "34",
    "prefectureNumber": 34,
    "prefecture": "広島県",
    "city": "尾道市",
    "town": "東御所町"
  },
  "7220037": {
    "zipcode": "7220037",
    "prefectureCode": "34",
    "prefectureNumber": 34,
    "prefecture": "広島県",
    "city": "尾道市",
    "town": "西御所町"
  },
  "7220038": {
    "zipcode": "7220038",
    "prefectureCode": "34",
    "prefectureNumber": 34,
    "prefecture": "広島県",
    "city": "尾道市",
    "town": "天満町"
  },
  "7220041": {
    "zipcode": "7220041",
    "prefectureCode": "34",
    "prefectureNumber": 34,
    "prefecture": "広島県",
    "city": "尾道市",
    "town": "防地町"
  },
  "7220042": {
    "zipcode": "7220042",
    "prefectureCode": "34",
    "prefectureNumber": 34,
    "prefecture": "広島県",
    "city": "尾道市",
    "town": "久保町"
  },
  "7220043": {
    "zipcode": "7220043",
    "prefectureCode": "34",
    "prefectureNumber": 34,
    "prefecture": "広島県",
    "city": "尾道市",
    "town": "東久保町"
  },
  "7220044": {
    "zipcode": "7220044",
    "prefectureCode": "34",
    "prefectureNumber": 34,
    "prefecture": "広島県",
    "city": "尾道市",
    "town": "西久保町"
  },
  "7220045": {
    "zipcode": "7220045",
    "prefectureCode": "34",
    "prefectureNumber": 34,
    "prefecture": "広島県",
    "city": "尾道市",
    "town": "久保"
  },
  "7220046": {
    "zipcode": "7220046",
    "prefectureCode": "34",
    "prefectureNumber": 34,
    "prefecture": "広島県",
    "city": "尾道市",
    "town": "長江"
  },
  "7220047": {
    "zipcode": "7220047",
    "prefectureCode": "34",
    "prefectureNumber": 34,
    "prefecture": "広島県",
    "city": "尾道市",
    "town": "十四日町"
  },
  "7220051": {
    "zipcode": "7220051",
    "prefectureCode": "34",
    "prefectureNumber": 34,
    "prefecture": "広島県",
    "city": "尾道市",
    "town": "東尾道"
  },
  "7220052": {
    "zipcode": "7220052",
    "prefectureCode": "34",
    "prefectureNumber": 34,
    "prefecture": "広島県",
    "city": "尾道市",
    "town": "山波町"
  },
  "7220053": {
    "zipcode": "7220053",
    "prefectureCode": "34",
    "prefectureNumber": 34,
    "prefecture": "広島県",
    "city": "尾道市",
    "town": "尾崎町"
  },
  "7220054": {
    "zipcode": "7220054",
    "prefectureCode": "34",
    "prefectureNumber": 34,
    "prefecture": "広島県",
    "city": "尾道市",
    "town": "尾崎本町"
  },
  "7220055": {
    "zipcode": "7220055",
    "prefectureCode": "34",
    "prefectureNumber": 34,
    "prefecture": "広島県",
    "city": "尾道市",
    "town": "新高山"
  },
  "7220061": {
    "zipcode": "7220061",
    "prefectureCode": "34",
    "prefectureNumber": 34,
    "prefecture": "広島県",
    "city": "尾道市",
    "town": "百島町"
  },
  "7220062": {
    "zipcode": "7220062",
    "prefectureCode": "34",
    "prefectureNumber": 34,
    "prefecture": "広島県",
    "city": "尾道市",
    "town": "向東町"
  },
  "7220071": {
    "zipcode": "7220071",
    "prefectureCode": "34",
    "prefectureNumber": 34,
    "prefecture": "広島県",
    "city": "尾道市",
    "town": "向島町立花"
  },
  "7220072": {
    "zipcode": "7220072",
    "prefectureCode": "34",
    "prefectureNumber": 34,
    "prefecture": "広島県",
    "city": "尾道市",
    "town": "向島町岩子島"
  },
  "7220073": {
    "zipcode": "7220073",
    "prefectureCode": "34",
    "prefectureNumber": 34,
    "prefecture": "広島県",
    "city": "尾道市",
    "town": "向島町"
  },
  "7220201": {
    "zipcode": "7220201",
    "prefectureCode": "34",
    "prefectureNumber": 34,
    "prefecture": "広島県",
    "city": "尾道市",
    "town": "原田町小原"
  },
  "7220202": {
    "zipcode": "7220202",
    "prefectureCode": "34",
    "prefectureNumber": 34,
    "prefecture": "広島県",
    "city": "尾道市",
    "town": "原田町梶山田"
  },
  "7220211": {
    "zipcode": "7220211",
    "prefectureCode": "34",
    "prefectureNumber": 34,
    "prefecture": "広島県",
    "city": "尾道市",
    "town": "美ノ郷町中野"
  },
  "7220212": {
    "zipcode": "7220212",
    "prefectureCode": "34",
    "prefectureNumber": 34,
    "prefecture": "広島県",
    "city": "尾道市",
    "town": "美ノ郷町本郷"
  },
  "7220213": {
    "zipcode": "7220213",
    "prefectureCode": "34",
    "prefectureNumber": 34,
    "prefecture": "広島県",
    "city": "尾道市",
    "town": "美ノ郷町白江"
  },
  "7220214": {
    "zipcode": "7220214",
    "prefectureCode": "34",
    "prefectureNumber": 34,
    "prefecture": "広島県",
    "city": "尾道市",
    "town": "美ノ郷町猪子迫"
  },
  "7220215": {
    "zipcode": "7220215",
    "prefectureCode": "34",
    "prefectureNumber": 34,
    "prefecture": "広島県",
    "city": "尾道市",
    "town": "美ノ郷町三成"
  },
  "7220221": {
    "zipcode": "7220221",
    "prefectureCode": "34",
    "prefectureNumber": 34,
    "prefecture": "広島県",
    "city": "尾道市",
    "town": "長者原"
  },
  "7220231": {
    "zipcode": "7220231",
    "prefectureCode": "34",
    "prefectureNumber": 34,
    "prefecture": "広島県",
    "city": "尾道市",
    "town": "木ノ庄町畑"
  },
  "7220232": {
    "zipcode": "7220232",
    "prefectureCode": "34",
    "prefectureNumber": 34,
    "prefecture": "広島県",
    "city": "尾道市",
    "town": "木ノ庄町木門田"
  },
  "7220233": {
    "zipcode": "7220233",
    "prefectureCode": "34",
    "prefectureNumber": 34,
    "prefecture": "広島県",
    "city": "尾道市",
    "town": "木ノ庄町市原"
  },
  "7220234": {
    "zipcode": "7220234",
    "prefectureCode": "34",
    "prefectureNumber": 34,
    "prefecture": "広島県",
    "city": "尾道市",
    "town": "木ノ庄町木梨"
  },
  "7220235": {
    "zipcode": "7220235",
    "prefectureCode": "34",
    "prefectureNumber": 34,
    "prefecture": "広島県",
    "city": "尾道市",
    "town": "木ノ庄町木梨山方"
  },
  "7220311": {
    "zipcode": "7220311",
    "prefectureCode": "34",
    "prefectureNumber": 34,
    "prefecture": "広島県",
    "city": "尾道市",
    "town": "御調町市"
  },
  "7220312": {
    "zipcode": "7220312",
    "prefectureCode": "34",
    "prefectureNumber": 34,
    "prefecture": "広島県",
    "city": "尾道市",
    "town": "御調町貝ケ原"
  },
  "7220313": {
    "zipcode": "7220313",
    "prefectureCode": "34",
    "prefectureNumber": 34,
    "prefecture": "広島県",
    "city": "尾道市",
    "town": "御調町平"
  },
  "7220314": {
    "zipcode": "7220314",
    "prefectureCode": "34",
    "prefectureNumber": 34,
    "prefecture": "広島県",
    "city": "尾道市",
    "town": "御調町大町"
  },
  "7220315": {
    "zipcode": "7220315",
    "prefectureCode": "34",
    "prefectureNumber": 34,
    "prefecture": "広島県",
    "city": "尾道市",
    "town": "御調町釜窪"
  },
  "7220316": {
    "zipcode": "7220316",
    "prefectureCode": "34",
    "prefectureNumber": 34,
    "prefecture": "広島県",
    "city": "尾道市",
    "town": "御調町花尻"
  },
  "7220321": {
    "zipcode": "7220321",
    "prefectureCode": "34",
    "prefectureNumber": 34,
    "prefecture": "広島県",
    "city": "尾道市",
    "town": "御調町本"
  },
  "7220322": {
    "zipcode": "7220322",
    "prefectureCode": "34",
    "prefectureNumber": 34,
    "prefecture": "広島県",
    "city": "尾道市",
    "town": "御調町三郎丸"
  },
  "7220323": {
    "zipcode": "7220323",
    "prefectureCode": "34",
    "prefectureNumber": 34,
    "prefecture": "広島県",
    "city": "尾道市",
    "town": "御調町大蔵"
  },
  "7220324": {
    "zipcode": "7220324",
    "prefectureCode": "34",
    "prefectureNumber": 34,
    "prefecture": "広島県",
    "city": "尾道市",
    "town": "御調町白太"
  },
  "7220325": {
    "zipcode": "7220325",
    "prefectureCode": "34",
    "prefectureNumber": 34,
    "prefecture": "広島県",
    "city": "尾道市",
    "town": "御調町中原"
  },
  "7220326": {
    "zipcode": "7220326",
    "prefectureCode": "34",
    "prefectureNumber": 34,
    "prefecture": "広島県",
    "city": "尾道市",
    "town": "御調町岩根"
  },
  "7220331": {
    "zipcode": "7220331",
    "prefectureCode": "34",
    "prefectureNumber": 34,
    "prefecture": "広島県",
    "city": "尾道市",
    "town": "御調町仁野"
  },
  "7220332": {
    "zipcode": "7220332",
    "prefectureCode": "34",
    "prefectureNumber": 34,
    "prefecture": "広島県",
    "city": "尾道市",
    "town": "御調町平木"
  },
  "7220333": {
    "zipcode": "7220333",
    "prefectureCode": "34",
    "prefectureNumber": 34,
    "prefecture": "広島県",
    "city": "尾道市",
    "town": "御調町大塔"
  },
  "7220334": {
    "zipcode": "7220334",
    "prefectureCode": "34",
    "prefectureNumber": 34,
    "prefecture": "広島県",
    "city": "尾道市",
    "town": "御調町菅"
  },
  "7220335": {
    "zipcode": "7220335",
    "prefectureCode": "34",
    "prefectureNumber": 34,
    "prefecture": "広島県",
    "city": "尾道市",
    "town": "御調町国守"
  },
  "7220336": {
    "zipcode": "7220336",
    "prefectureCode": "34",
    "prefectureNumber": 34,
    "prefecture": "広島県",
    "city": "尾道市",
    "town": "御調町江田"
  },
  "7220341": {
    "zipcode": "7220341",
    "prefectureCode": "34",
    "prefectureNumber": 34,
    "prefecture": "広島県",
    "city": "尾道市",
    "town": "御調町神"
  },
  "7220342": {
    "zipcode": "7220342",
    "prefectureCode": "34",
    "prefectureNumber": 34,
    "prefecture": "広島県",
    "city": "尾道市",
    "town": "御調町大田"
  },
  "7220343": {
    "zipcode": "7220343",
    "prefectureCode": "34",
    "prefectureNumber": 34,
    "prefecture": "広島県",
    "city": "尾道市",
    "town": "御調町丸河南"
  },
  "7220344": {
    "zipcode": "7220344",
    "prefectureCode": "34",
    "prefectureNumber": 34,
    "prefecture": "広島県",
    "city": "尾道市",
    "town": "御調町丸門田"
  },
  "7220345": {
    "zipcode": "7220345",
    "prefectureCode": "34",
    "prefectureNumber": 34,
    "prefecture": "広島県",
    "city": "尾道市",
    "town": "御調町徳永"
  },
  "7220351": {
    "zipcode": "7220351",
    "prefectureCode": "34",
    "prefectureNumber": 34,
    "prefecture": "広島県",
    "city": "尾道市",
    "town": "御調町大原"
  },
  "7220352": {
    "zipcode": "7220352",
    "prefectureCode": "34",
    "prefectureNumber": 34,
    "prefecture": "広島県",
    "city": "尾道市",
    "town": "御調町公文"
  },
  "7220353": {
    "zipcode": "7220353",
    "prefectureCode": "34",
    "prefectureNumber": 34,
    "prefecture": "広島県",
    "city": "尾道市",
    "town": "御調町高尾"
  },
  "7220354": {
    "zipcode": "7220354",
    "prefectureCode": "34",
    "prefectureNumber": 34,
    "prefecture": "広島県",
    "city": "尾道市",
    "town": "御調町綾目"
  },
  "7220355": {
    "zipcode": "7220355",
    "prefectureCode": "34",
    "prefectureNumber": 34,
    "prefecture": "広島県",
    "city": "尾道市",
    "town": "御調町山岡"
  },
  "7220401": {
    "zipcode": "7220401",
    "prefectureCode": "34",
    "prefectureNumber": 34,
    "prefecture": "広島県",
    "city": "尾道市",
    "town": "御調町千堂"
  },
  "7220402": {
    "zipcode": "7220402",
    "prefectureCode": "34",
    "prefectureNumber": 34,
    "prefecture": "広島県",
    "city": "尾道市",
    "town": "御調町下山田"
  },
  "7220403": {
    "zipcode": "7220403",
    "prefectureCode": "34",
    "prefectureNumber": 34,
    "prefecture": "広島県",
    "city": "尾道市",
    "town": "御調町大山田"
  },
  "7220411": {
    "zipcode": "7220411",
    "prefectureCode": "34",
    "prefectureNumber": 34,
    "prefecture": "広島県",
    "city": "世羅郡世羅町",
    "town": "宇津戸"
  },
  "7220431": {
    "zipcode": "7220431",
    "prefectureCode": "34",
    "prefectureNumber": 34,
    "prefecture": "広島県",
    "city": "府中市",
    "town": "諸毛町"
  },
  "7220432": {
    "zipcode": "7220432",
    "prefectureCode": "34",
    "prefectureNumber": 34,
    "prefecture": "広島県",
    "city": "府中市",
    "town": "小国町"
  },
  "7221100": {
    "zipcode": "7221100",
    "prefectureCode": "34",
    "prefectureNumber": 34,
    "prefecture": "広島県",
    "city": "世羅郡世羅町",
    "town": "以下に掲載がない場合"
  },
  "7221111": {
    "zipcode": "7221111",
    "prefectureCode": "34",
    "prefectureNumber": 34,
    "prefecture": "広島県",
    "city": "世羅郡世羅町",
    "town": "寺町"
  },
  "7221112": {
    "zipcode": "7221112",
    "prefectureCode": "34",
    "prefectureNumber": 34,
    "prefecture": "広島県",
    "city": "世羅郡世羅町",
    "town": "本郷"
  },
  "7221113": {
    "zipcode": "7221113",
    "prefectureCode": "34",
    "prefectureNumber": 34,
    "prefecture": "広島県",
    "city": "世羅郡世羅町",
    "town": "井折"
  },
  "7221114": {
    "zipcode": "7221114",
    "prefectureCode": "34",
    "prefectureNumber": 34,
    "prefecture": "広島県",
    "city": "世羅郡世羅町",
    "town": "東神崎"
  },
  "7221115": {
    "zipcode": "7221115",
    "prefectureCode": "34",
    "prefectureNumber": 34,
    "prefecture": "広島県",
    "city": "世羅郡世羅町",
    "town": "西神崎"
  },
  "7221116": {
    "zipcode": "7221116",
    "prefectureCode": "34",
    "prefectureNumber": 34,
    "prefecture": "広島県",
    "city": "世羅郡世羅町",
    "town": "青山"
  },
  "7221117": {
    "zipcode": "7221117",
    "prefectureCode": "34",
    "prefectureNumber": 34,
    "prefecture": "広島県",
    "city": "世羅郡世羅町",
    "town": "三郎丸"
  },
  "7221121": {
    "zipcode": "7221121",
    "prefectureCode": "34",
    "prefectureNumber": 34,
    "prefecture": "広島県",
    "city": "世羅郡世羅町",
    "town": "西上原"
  },
  "7221122": {
    "zipcode": "7221122",
    "prefectureCode": "34",
    "prefectureNumber": 34,
    "prefecture": "広島県",
    "city": "世羅郡世羅町",
    "town": "小世良"
  },
  "7221123": {
    "zipcode": "7221123",
    "prefectureCode": "34",
    "prefectureNumber": 34,
    "prefecture": "広島県",
    "city": "世羅郡世羅町",
    "town": "甲山"
  },
  "7221201": {
    "zipcode": "7221201",
    "prefectureCode": "34",
    "prefectureNumber": 34,
    "prefecture": "広島県",
    "city": "世羅郡世羅町",
    "town": "戸張"
  },
  "7221202": {
    "zipcode": "7221202",
    "prefectureCode": "34",
    "prefectureNumber": 34,
    "prefecture": "広島県",
    "city": "世羅郡世羅町",
    "town": "安田"
  },
  "7221203": {
    "zipcode": "7221203",
    "prefectureCode": "34",
    "prefectureNumber": 34,
    "prefecture": "広島県",
    "city": "世羅郡世羅町",
    "town": "徳市"
  },
  "7221204": {
    "zipcode": "7221204",
    "prefectureCode": "34",
    "prefectureNumber": 34,
    "prefecture": "広島県",
    "city": "世羅郡世羅町",
    "town": "京丸（石川、水の別）"
  },
  "7221301": {
    "zipcode": "7221301",
    "prefectureCode": "34",
    "prefectureNumber": 34,
    "prefecture": "広島県",
    "city": "三原市",
    "town": "久井町莇原"
  },
  "7221302": {
    "zipcode": "7221302",
    "prefectureCode": "34",
    "prefectureNumber": 34,
    "prefecture": "広島県",
    "city": "三原市",
    "town": "久井町吉田"
  },
  "7221303": {
    "zipcode": "7221303",
    "prefectureCode": "34",
    "prefectureNumber": 34,
    "prefecture": "広島県",
    "city": "三原市",
    "town": "久井町下津"
  },
  "7221304": {
    "zipcode": "7221304",
    "prefectureCode": "34",
    "prefectureNumber": 34,
    "prefecture": "広島県",
    "city": "三原市",
    "town": "久井町江木"
  },
  "7221401": {
    "zipcode": "7221401",
    "prefectureCode": "34",
    "prefectureNumber": 34,
    "prefecture": "広島県",
    "city": "三原市",
    "town": "本郷町船木（芋堀）"
  },
  "7221411": {
    "zipcode": "7221411",
    "prefectureCode": "34",
    "prefectureNumber": 34,
    "prefecture": "広島県",
    "city": "三原市",
    "town": "久井町泉"
  },
  "7221412": {
    "zipcode": "7221412",
    "prefectureCode": "34",
    "prefectureNumber": 34,
    "prefecture": "広島県",
    "city": "三原市",
    "town": "久井町和草"
  },
  "7221413": {
    "zipcode": "7221413",
    "prefectureCode": "34",
    "prefectureNumber": 34,
    "prefecture": "広島県",
    "city": "三原市",
    "town": "久井町羽倉"
  },
  "7221414": {
    "zipcode": "7221414",
    "prefectureCode": "34",
    "prefectureNumber": 34,
    "prefecture": "広島県",
    "city": "三原市",
    "town": "久井町坂井原"
  },
  "7221415": {
    "zipcode": "7221415",
    "prefectureCode": "34",
    "prefectureNumber": 34,
    "prefecture": "広島県",
    "city": "三原市",
    "town": "久井町土取"
  },
  "7221416": {
    "zipcode": "7221416",
    "prefectureCode": "34",
    "prefectureNumber": 34,
    "prefecture": "広島県",
    "city": "三原市",
    "town": "久井町山中野"
  },
  "7221417": {
    "zipcode": "7221417",
    "prefectureCode": "34",
    "prefectureNumber": 34,
    "prefecture": "広島県",
    "city": "三原市",
    "town": "久井町小林"
  },
  "7221501": {
    "zipcode": "7221501",
    "prefectureCode": "34",
    "prefectureNumber": 34,
    "prefecture": "広島県",
    "city": "三原市",
    "town": "八幡町垣内"
  },
  "7221511": {
    "zipcode": "7221511",
    "prefectureCode": "34",
    "prefectureNumber": 34,
    "prefecture": "広島県",
    "city": "三原市",
    "town": "八幡町篝"
  },
  "7221512": {
    "zipcode": "7221512",
    "prefectureCode": "34",
    "prefectureNumber": 34,
    "prefecture": "広島県",
    "city": "三原市",
    "town": "八幡町野串"
  },
  "7221513": {
    "zipcode": "7221513",
    "prefectureCode": "34",
    "prefectureNumber": 34,
    "prefecture": "広島県",
    "city": "三原市",
    "town": "八幡町宮内"
  },
  "7221514": {
    "zipcode": "7221514",
    "prefectureCode": "34",
    "prefectureNumber": 34,
    "prefecture": "広島県",
    "city": "三原市",
    "town": "八幡町屋中"
  },
  "7221515": {
    "zipcode": "7221515",
    "prefectureCode": "34",
    "prefectureNumber": 34,
    "prefecture": "広島県",
    "city": "三原市",
    "town": "八幡町美生"
  },
  "7221516": {
    "zipcode": "7221516",
    "prefectureCode": "34",
    "prefectureNumber": 34,
    "prefecture": "広島県",
    "city": "三原市",
    "town": "八幡町本庄"
  },
  "7221561": {
    "zipcode": "7221561",
    "prefectureCode": "34",
    "prefectureNumber": 34,
    "prefecture": "広島県",
    "city": "尾道市",
    "town": "御調町福井"
  },
  "7221562": {
    "zipcode": "7221562",
    "prefectureCode": "34",
    "prefectureNumber": 34,
    "prefecture": "広島県",
    "city": "尾道市",
    "town": "御調町津蟹"
  },
  "7221563": {
    "zipcode": "7221563",
    "prefectureCode": "34",
    "prefectureNumber": 34,
    "prefecture": "広島県",
    "city": "尾道市",
    "town": "御調町植野"
  },
  "7221564": {
    "zipcode": "7221564",
    "prefectureCode": "34",
    "prefectureNumber": 34,
    "prefecture": "広島県",
    "city": "尾道市",
    "town": "御調町今田"
  },
  "7221565": {
    "zipcode": "7221565",
    "prefectureCode": "34",
    "prefectureNumber": 34,
    "prefecture": "広島県",
    "city": "尾道市",
    "town": "御調町野間"
  },
  "7221621": {
    "zipcode": "7221621",
    "prefectureCode": "34",
    "prefectureNumber": 34,
    "prefecture": "広島県",
    "city": "世羅郡世羅町",
    "town": "京丸（その他）"
  },
  "7221622": {
    "zipcode": "7221622",
    "prefectureCode": "34",
    "prefectureNumber": 34,
    "prefecture": "広島県",
    "city": "世羅郡世羅町",
    "town": "堀越"
  },
  "7221623": {
    "zipcode": "7221623",
    "prefectureCode": "34",
    "prefectureNumber": 34,
    "prefecture": "広島県",
    "city": "世羅郡世羅町",
    "town": "中原"
  },
  "7221624": {
    "zipcode": "7221624",
    "prefectureCode": "34",
    "prefectureNumber": 34,
    "prefecture": "広島県",
    "city": "世羅郡世羅町",
    "town": "田打"
  },
  "7221625": {
    "zipcode": "7221625",
    "prefectureCode": "34",
    "prefectureNumber": 34,
    "prefecture": "広島県",
    "city": "世羅郡世羅町",
    "town": "重永"
  },
  "7221626": {
    "zipcode": "7221626",
    "prefectureCode": "34",
    "prefectureNumber": 34,
    "prefecture": "広島県",
    "city": "世羅郡世羅町",
    "town": "賀茂"
  },
  "7221627": {
    "zipcode": "7221627",
    "prefectureCode": "34",
    "prefectureNumber": 34,
    "prefecture": "広島県",
    "city": "世羅郡世羅町",
    "town": "青水"
  },
  "7221701": {
    "zipcode": "7221701",
    "prefectureCode": "34",
    "prefectureNumber": 34,
    "prefecture": "広島県",
    "city": "世羅郡世羅町",
    "town": "小国"
  },
  "7221702": {
    "zipcode": "7221702",
    "prefectureCode": "34",
    "prefectureNumber": 34,
    "prefecture": "広島県",
    "city": "世羅郡世羅町",
    "town": "山中福田"
  },
  "7221731": {
    "zipcode": "7221731",
    "prefectureCode": "34",
    "prefectureNumber": 34,
    "prefecture": "広島県",
    "city": "世羅郡世羅町",
    "town": "津口"
  },
  "7221732": {
    "zipcode": "7221732",
    "prefectureCode": "34",
    "prefectureNumber": 34,
    "prefecture": "広島県",
    "city": "世羅郡世羅町",
    "town": "黒渕"
  },
  "7222101": {
    "zipcode": "7222101",
    "prefectureCode": "34",
    "prefectureNumber": 34,
    "prefecture": "広島県",
    "city": "尾道市",
    "town": "因島大浜町"
  },
  "7222102": {
    "zipcode": "7222102",
    "prefectureCode": "34",
    "prefectureNumber": 34,
    "prefecture": "広島県",
    "city": "尾道市",
    "town": "因島重井町"
  },
  "7222211": {
    "zipcode": "7222211",
    "prefectureCode": "34",
    "prefectureNumber": 34,
    "prefecture": "広島県",
    "city": "尾道市",
    "town": "因島中庄町"
  },
  "7222212": {
    "zipcode": "7222212",
    "prefectureCode": "34",
    "prefectureNumber": 34,
    "prefecture": "広島県",
    "city": "尾道市",
    "town": "因島鏡浦町"
  },
  "7222213": {
    "zipcode": "7222213",
    "prefectureCode": "34",
    "prefectureNumber": 34,
    "prefecture": "広島県",
    "city": "尾道市",
    "town": "因島外浦町"
  },
  "7222321": {
    "zipcode": "7222321",
    "prefectureCode": "34",
    "prefectureNumber": 34,
    "prefecture": "広島県",
    "city": "尾道市",
    "town": "因島椋浦町"
  },
  "7222322": {
    "zipcode": "7222322",
    "prefectureCode": "34",
    "prefectureNumber": 34,
    "prefecture": "広島県",
    "city": "尾道市",
    "town": "因島三庄町"
  },
  "7222323": {
    "zipcode": "7222323",
    "prefectureCode": "34",
    "prefectureNumber": 34,
    "prefecture": "広島県",
    "city": "尾道市",
    "town": "因島土生町"
  },
  "7222324": {
    "zipcode": "7222324",
    "prefectureCode": "34",
    "prefectureNumber": 34,
    "prefecture": "広島県",
    "city": "尾道市",
    "town": "因島田熊町"
  },
  "7222401": {
    "zipcode": "7222401",
    "prefectureCode": "34",
    "prefectureNumber": 34,
    "prefecture": "広島県",
    "city": "尾道市",
    "town": "瀬戸田町御寺"
  },
  "7222402": {
    "zipcode": "7222402",
    "prefectureCode": "34",
    "prefectureNumber": 34,
    "prefecture": "広島県",
    "city": "尾道市",
    "town": "瀬戸田町宮原"
  },
  "7222403": {
    "zipcode": "7222403",
    "prefectureCode": "34",
    "prefectureNumber": 34,
    "prefecture": "広島県",
    "city": "尾道市",
    "town": "瀬戸田町荻"
  },
  "7222404": {
    "zipcode": "7222404",
    "prefectureCode": "34",
    "prefectureNumber": 34,
    "prefecture": "広島県",
    "city": "尾道市",
    "town": "瀬戸田町垂水"
  },
  "7222405": {
    "zipcode": "7222405",
    "prefectureCode": "34",
    "prefectureNumber": 34,
    "prefecture": "広島県",
    "city": "尾道市",
    "town": "瀬戸田町福田"
  },
  "7222411": {
    "zipcode": "7222411",
    "prefectureCode": "34",
    "prefectureNumber": 34,
    "prefecture": "広島県",
    "city": "尾道市",
    "town": "瀬戸田町瀬戸田"
  },
  "7222412": {
    "zipcode": "7222412",
    "prefectureCode": "34",
    "prefectureNumber": 34,
    "prefecture": "広島県",
    "city": "尾道市",
    "town": "瀬戸田町高根"
  },
  "7222413": {
    "zipcode": "7222413",
    "prefectureCode": "34",
    "prefectureNumber": 34,
    "prefecture": "広島県",
    "city": "尾道市",
    "town": "瀬戸田町沢"
  },
  "7222414": {
    "zipcode": "7222414",
    "prefectureCode": "34",
    "prefectureNumber": 34,
    "prefecture": "広島県",
    "city": "尾道市",
    "town": "瀬戸田町鹿田原"
  },
  "7222415": {
    "zipcode": "7222415",
    "prefectureCode": "34",
    "prefectureNumber": 34,
    "prefecture": "広島県",
    "city": "尾道市",
    "town": "瀬戸田町中野"
  },
  "7222416": {
    "zipcode": "7222416",
    "prefectureCode": "34",
    "prefectureNumber": 34,
    "prefecture": "広島県",
    "city": "尾道市",
    "town": "瀬戸田町林"
  },
  "7222417": {
    "zipcode": "7222417",
    "prefectureCode": "34",
    "prefectureNumber": 34,
    "prefecture": "広島県",
    "city": "尾道市",
    "town": "瀬戸田町名荷"
  },
  "7222431": {
    "zipcode": "7222431",
    "prefectureCode": "34",
    "prefectureNumber": 34,
    "prefecture": "広島県",
    "city": "尾道市",
    "town": "因島洲江町"
  },
  "7222432": {
    "zipcode": "7222432",
    "prefectureCode": "34",
    "prefectureNumber": 34,
    "prefecture": "広島県",
    "city": "尾道市",
    "town": "因島原町"
  },
  "7222631": {
    "zipcode": "7222631",
    "prefectureCode": "34",
    "prefectureNumber": 34,
    "prefecture": "広島県",
    "city": "福山市",
    "town": "内海町イ"
  },
  "7222632": {
    "zipcode": "7222632",
    "prefectureCode": "34",
    "prefectureNumber": 34,
    "prefecture": "広島県",
    "city": "福山市",
    "town": "内海町ロ"
  },
  "7222633": {
    "zipcode": "7222633",
    "prefectureCode": "34",
    "prefectureNumber": 34,
    "prefecture": "広島県",
    "city": "福山市",
    "town": "内海町ハ"
  },
  "7222641": {
    "zipcode": "7222641",
    "prefectureCode": "34",
    "prefectureNumber": 34,
    "prefecture": "広島県",
    "city": "福山市",
    "town": "内海町"
  }
}
