{
  "7250000": {
    "zipcode": "7250000",
    "prefectureCode": "34",
    "prefectureNumber": 34,
    "prefecture": "広島県",
    "city": "竹原市",
    "town": "以下に掲載がない場合"
  },
  "7250001": {
    "zipcode": "7250001",
    "prefectureCode": "34",
    "prefectureNumber": 34,
    "prefecture": "広島県",
    "city": "竹原市",
    "town": "田万里町"
  },
  "7250002": {
    "zipcode": "7250002",
    "prefectureCode": "34",
    "prefectureNumber": 34,
    "prefecture": "広島県",
    "city": "竹原市",
    "town": "西野町"
  },
  "7250003": {
    "zipcode": "7250003",
    "prefectureCode": "34",
    "prefectureNumber": 34,
    "prefecture": "広島県",
    "city": "竹原市",
    "town": "新庄町"
  },
  "7250004": {
    "zipcode": "7250004",
    "prefectureCode": "34",
    "prefectureNumber": 34,
    "prefecture": "広島県",
    "city": "竹原市",
    "town": "東野町"
  },
  "7250005": {
    "zipcode": "7250005",
    "prefectureCode": "34",
    "prefectureNumber": 34,
    "prefecture": "広島県",
    "city": "竹原市",
    "town": "仁賀町"
  },
  "7250011": {
    "zipcode": "7250011",
    "prefectureCode": "34",
    "prefectureNumber": 34,
    "prefecture": "広島県",
    "city": "竹原市",
    "town": "小梨町"
  },
  "7250012": {
    "zipcode": "7250012",
    "prefectureCode": "34",
    "prefectureNumber": 34,
    "prefecture": "広島県",
    "city": "竹原市",
    "town": "下野町"
  },
  "7250013": {
    "zipcode": "7250013",
    "prefectureCode": "34",
    "prefectureNumber": 34,
    "prefecture": "広島県",
    "city": "竹原市",
    "town": "吉名町"
  },
  "7250021": {
    "zipcode": "7250021",
    "prefectureCode": "34",
    "prefectureNumber": 34,
    "prefecture": "広島県",
    "city": "竹原市",
    "town": "竹原町"
  },
  "7250022": {
    "zipcode": "7250022",
    "prefectureCode": "34",
    "prefectureNumber": 34,
    "prefecture": "広島県",
    "city": "竹原市",
    "town": "本町"
  },
  "7250023": {
    "zipcode": "7250023",
    "prefectureCode": "34",
    "prefectureNumber": 34,
    "prefecture": "広島県",
    "city": "竹原市",
    "town": "田ノ浦"
  },
  "7250024": {
    "zipcode": "7250024",
    "prefectureCode": "34",
    "prefectureNumber": 34,
    "prefecture": "広島県",
    "city": "竹原市",
    "town": "港町"
  },
  "7250025": {
    "zipcode": "7250025",
    "prefectureCode": "34",
    "prefectureNumber": 34,
    "prefecture": "広島県",
    "city": "竹原市",
    "town": "塩町"
  },
  "7250026": {
    "zipcode": "7250026",
    "prefectureCode": "34",
    "prefectureNumber": 34,
    "prefecture": "広島県",
    "city": "竹原市",
    "town": "中央"
  },
  "7250200": {
    "zipcode": "7250200",
    "prefectureCode": "34",
    "prefectureNumber": 34,
    "prefecture": "広島県",
    "city": "豊田郡大崎上島町",
    "town": "以下に掲載がない場合"
  },
  "7250231": {
    "zipcode": "7250231",
    "prefectureCode": "34",
    "prefectureNumber": 34,
    "prefecture": "広島県",
    "city": "豊田郡大崎上島町",
    "town": "東野"
  },
  "7250301": {
    "zipcode": "7250301",
    "prefectureCode": "34",
    "prefectureNumber": 34,
    "prefecture": "広島県",
    "city": "豊田郡大崎上島町",
    "town": "中野"
  },
  "7250302": {
    "zipcode": "7250302",
    "prefectureCode": "34",
    "prefectureNumber": 34,
    "prefecture": "広島県",
    "city": "豊田郡大崎上島町",
    "town": "原田"
  },
  "7250303": {
    "zipcode": "7250303",
    "prefectureCode": "34",
    "prefectureNumber": 34,
    "prefecture": "広島県",
    "city": "豊田郡大崎上島町",
    "town": "大串"
  },
  "7250401": {
    "zipcode": "7250401",
    "prefectureCode": "34",
    "prefectureNumber": 34,
    "prefecture": "広島県",
    "city": "豊田郡大崎上島町",
    "town": "木江"
  },
  "7250402": {
    "zipcode": "7250402",
    "prefectureCode": "34",
    "prefectureNumber": 34,
    "prefecture": "広島県",
    "city": "豊田郡大崎上島町",
    "town": "沖浦"
  },
  "7250403": {
    "zipcode": "7250403",
    "prefectureCode": "34",
    "prefectureNumber": 34,
    "prefecture": "広島県",
    "city": "豊田郡大崎上島町",
    "town": "明石"
  }
}
