{
  "7270000": {
    "zipcode": "7270000",
    "prefectureCode": "34",
    "prefectureNumber": 34,
    "prefecture": "広島県",
    "city": "庄原市",
    "town": "以下に掲載がない場合"
  },
  "7270001": {
    "zipcode": "7270001",
    "prefectureCode": "34",
    "prefectureNumber": 34,
    "prefecture": "広島県",
    "city": "庄原市",
    "town": "大久保町"
  },
  "7270002": {
    "zipcode": "7270002",
    "prefectureCode": "34",
    "prefectureNumber": 34,
    "prefecture": "広島県",
    "city": "庄原市",
    "town": "高門町"
  },
  "7270003": {
    "zipcode": "7270003",
    "prefectureCode": "34",
    "prefectureNumber": 34,
    "prefecture": "広島県",
    "city": "庄原市",
    "town": "是松町"
  },
  "7270004": {
    "zipcode": "7270004",
    "prefectureCode": "34",
    "prefectureNumber": 34,
    "prefecture": "広島県",
    "city": "庄原市",
    "town": "新庄町"
  },
  "7270005": {
    "zipcode": "7270005",
    "prefectureCode": "34",
    "prefectureNumber": 34,
    "prefecture": "広島県",
    "city": "庄原市",
    "town": "川手町"
  },
  "7270006": {
    "zipcode": "7270006",
    "prefectureCode": "34",
    "prefectureNumber": 34,
    "prefecture": "広島県",
    "city": "庄原市",
    "town": "本町"
  },
  "7270007": {
    "zipcode": "7270007",
    "prefectureCode": "34",
    "prefectureNumber": 34,
    "prefecture": "広島県",
    "city": "庄原市",
    "town": "宮内町"
  },
  "7270008": {
    "zipcode": "7270008",
    "prefectureCode": "34",
    "prefectureNumber": 34,
    "prefecture": "広島県",
    "city": "庄原市",
    "town": "永末町"
  },
  "7270011": {
    "zipcode": "7270011",
    "prefectureCode": "34",
    "prefectureNumber": 34,
    "prefecture": "広島県",
    "city": "庄原市",
    "town": "東本町"
  },
  "7270012": {
    "zipcode": "7270012",
    "prefectureCode": "34",
    "prefectureNumber": 34,
    "prefecture": "広島県",
    "city": "庄原市",
    "town": "中本町"
  },
  "7270013": {
    "zipcode": "7270013",
    "prefectureCode": "34",
    "prefectureNumber": 34,
    "prefecture": "広島県",
    "city": "庄原市",
    "town": "西本町"
  },
  "7270014": {
    "zipcode": "7270014",
    "prefectureCode": "34",
    "prefectureNumber": 34,
    "prefecture": "広島県",
    "city": "庄原市",
    "town": "板橋町"
  },
  "7270015": {
    "zipcode": "7270015",
    "prefectureCode": "34",
    "prefectureNumber": 34,
    "prefecture": "広島県",
    "city": "庄原市",
    "town": "実留町"
  },
  "7270016": {
    "zipcode": "7270016",
    "prefectureCode": "34",
    "prefectureNumber": 34,
    "prefecture": "広島県",
    "city": "庄原市",
    "town": "一木町"
  },
  "7270017": {
    "zipcode": "7270017",
    "prefectureCode": "34",
    "prefectureNumber": 34,
    "prefecture": "広島県",
    "city": "庄原市",
    "town": "戸郷町"
  },
  "7270021": {
    "zipcode": "7270021",
    "prefectureCode": "34",
    "prefectureNumber": 34,
    "prefecture": "広島県",
    "city": "庄原市",
    "town": "三日市町"
  },
  "7270022": {
    "zipcode": "7270022",
    "prefectureCode": "34",
    "prefectureNumber": 34,
    "prefecture": "広島県",
    "city": "庄原市",
    "town": "上原町"
  },
  "7270023": {
    "zipcode": "7270023",
    "prefectureCode": "34",
    "prefectureNumber": 34,
    "prefecture": "広島県",
    "city": "庄原市",
    "town": "七塚町"
  },
  "7270024": {
    "zipcode": "7270024",
    "prefectureCode": "34",
    "prefectureNumber": 34,
    "prefecture": "広島県",
    "city": "庄原市",
    "town": "田原町"
  },
  "7270025": {
    "zipcode": "7270025",
    "prefectureCode": "34",
    "prefectureNumber": 34,
    "prefecture": "広島県",
    "city": "庄原市",
    "town": "市町"
  },
  "7270026": {
    "zipcode": "7270026",
    "prefectureCode": "34",
    "prefectureNumber": 34,
    "prefecture": "広島県",
    "city": "庄原市",
    "town": "掛田町"
  },
  "7270111": {
    "zipcode": "7270111",
    "prefectureCode": "34",
    "prefectureNumber": 34,
    "prefecture": "広島県",
    "city": "庄原市",
    "town": "口和町湯木"
  },
  "7270112": {
    "zipcode": "7270112",
    "prefectureCode": "34",
    "prefectureNumber": 34,
    "prefecture": "広島県",
    "city": "庄原市",
    "town": "口和町金田"
  },
  "7270113": {
    "zipcode": "7270113",
    "prefectureCode": "34",
    "prefectureNumber": 34,
    "prefecture": "広島県",
    "city": "庄原市",
    "town": "口和町常定"
  },
  "7270114": {
    "zipcode": "7270114",
    "prefectureCode": "34",
    "prefectureNumber": 34,
    "prefecture": "広島県",
    "city": "庄原市",
    "town": "口和町永田"
  },
  "7270201": {
    "zipcode": "7270201",
    "prefectureCode": "34",
    "prefectureNumber": 34,
    "prefecture": "広島県",
    "city": "庄原市",
    "town": "門田町"
  },
  "7270202": {
    "zipcode": "7270202",
    "prefectureCode": "34",
    "prefectureNumber": 34,
    "prefecture": "広島県",
    "city": "庄原市",
    "town": "濁川町"
  },
  "7270203": {
    "zipcode": "7270203",
    "prefectureCode": "34",
    "prefectureNumber": 34,
    "prefecture": "広島県",
    "city": "庄原市",
    "town": "川北町"
  },
  "7270301": {
    "zipcode": "7270301",
    "prefectureCode": "34",
    "prefectureNumber": 34,
    "prefecture": "広島県",
    "city": "庄原市",
    "town": "比和町比和"
  },
  "7270302": {
    "zipcode": "7270302",
    "prefectureCode": "34",
    "prefectureNumber": 34,
    "prefecture": "広島県",
    "city": "庄原市",
    "town": "比和町古頃"
  },
  "7270311": {
    "zipcode": "7270311",
    "prefectureCode": "34",
    "prefectureNumber": 34,
    "prefecture": "広島県",
    "city": "庄原市",
    "town": "比和町三河内"
  },
  "7270312": {
    "zipcode": "7270312",
    "prefectureCode": "34",
    "prefectureNumber": 34,
    "prefecture": "広島県",
    "city": "庄原市",
    "town": "比和町木屋原"
  },
  "7270321": {
    "zipcode": "7270321",
    "prefectureCode": "34",
    "prefectureNumber": 34,
    "prefecture": "広島県",
    "city": "庄原市",
    "town": "比和町森脇"
  },
  "7270401": {
    "zipcode": "7270401",
    "prefectureCode": "34",
    "prefectureNumber": 34,
    "prefecture": "広島県",
    "city": "庄原市",
    "town": "高野町和南原"
  },
  "7270402": {
    "zipcode": "7270402",
    "prefectureCode": "34",
    "prefectureNumber": 34,
    "prefecture": "広島県",
    "city": "庄原市",
    "town": "高野町新市"
  },
  "7270403": {
    "zipcode": "7270403",
    "prefectureCode": "34",
    "prefectureNumber": 34,
    "prefecture": "広島県",
    "city": "庄原市",
    "town": "高野町岡大内"
  },
  "7270411": {
    "zipcode": "7270411",
    "prefectureCode": "34",
    "prefectureNumber": 34,
    "prefecture": "広島県",
    "city": "庄原市",
    "town": "高野町上湯川"
  },
  "7270412": {
    "zipcode": "7270412",
    "prefectureCode": "34",
    "prefectureNumber": 34,
    "prefecture": "広島県",
    "city": "庄原市",
    "town": "高野町下湯川"
  },
  "7270413": {
    "zipcode": "7270413",
    "prefectureCode": "34",
    "prefectureNumber": 34,
    "prefecture": "広島県",
    "city": "庄原市",
    "town": "高野町南"
  },
  "7270421": {
    "zipcode": "7270421",
    "prefectureCode": "34",
    "prefectureNumber": 34,
    "prefecture": "広島県",
    "city": "庄原市",
    "town": "高野町中門田"
  },
  "7270422": {
    "zipcode": "7270422",
    "prefectureCode": "34",
    "prefectureNumber": 34,
    "prefecture": "広島県",
    "city": "庄原市",
    "town": "高野町奥門田"
  },
  "7270423": {
    "zipcode": "7270423",
    "prefectureCode": "34",
    "prefectureNumber": 34,
    "prefecture": "広島県",
    "city": "庄原市",
    "town": "高野町下門田"
  },
  "7270424": {
    "zipcode": "7270424",
    "prefectureCode": "34",
    "prefectureNumber": 34,
    "prefecture": "広島県",
    "city": "庄原市",
    "town": "高野町高暮"
  },
  "7270425": {
    "zipcode": "7270425",
    "prefectureCode": "34",
    "prefectureNumber": 34,
    "prefecture": "広島県",
    "city": "庄原市",
    "town": "高野町上里原"
  },
  "7270621": {
    "zipcode": "7270621",
    "prefectureCode": "34",
    "prefectureNumber": 34,
    "prefecture": "広島県",
    "city": "庄原市",
    "town": "春田町"
  },
  "7270622": {
    "zipcode": "7270622",
    "prefectureCode": "34",
    "prefectureNumber": 34,
    "prefecture": "広島県",
    "city": "庄原市",
    "town": "峰田町"
  },
  "7270623": {
    "zipcode": "7270623",
    "prefectureCode": "34",
    "prefectureNumber": 34,
    "prefecture": "広島県",
    "city": "庄原市",
    "town": "本村町"
  },
  "7270624": {
    "zipcode": "7270624",
    "prefectureCode": "34",
    "prefectureNumber": 34,
    "prefecture": "広島県",
    "city": "庄原市",
    "town": "上谷町"
  }
}
