{
  "7280000": {
    "zipcode": "7280000",
    "prefectureCode": "34",
    "prefectureNumber": 34,
    "prefecture": "広島県",
    "city": "三次市",
    "town": "以下に掲載がない場合"
  },
  "7280001": {
    "zipcode": "7280001",
    "prefectureCode": "34",
    "prefectureNumber": 34,
    "prefecture": "広島県",
    "city": "三次市",
    "town": "山家町"
  },
  "7280002": {
    "zipcode": "7280002",
    "prefectureCode": "34",
    "prefectureNumber": 34,
    "prefecture": "広島県",
    "city": "三次市",
    "town": "西河内町"
  },
  "7280003": {
    "zipcode": "7280003",
    "prefectureCode": "34",
    "prefectureNumber": 34,
    "prefecture": "広島県",
    "city": "三次市",
    "town": "東河内町"
  },
  "7280004": {
    "zipcode": "7280004",
    "prefectureCode": "34",
    "prefectureNumber": 34,
    "prefecture": "広島県",
    "city": "三次市",
    "town": "穴笠町"
  },
  "7280005": {
    "zipcode": "7280005",
    "prefectureCode": "34",
    "prefectureNumber": 34,
    "prefecture": "広島県",
    "city": "三次市",
    "town": "後山町"
  },
  "7280006": {
    "zipcode": "7280006",
    "prefectureCode": "34",
    "prefectureNumber": 34,
    "prefecture": "広島県",
    "city": "三次市",
    "town": "畠敷町"
  },
  "7280007": {
    "zipcode": "7280007",
    "prefectureCode": "34",
    "prefectureNumber": 34,
    "prefecture": "広島県",
    "city": "三次市",
    "town": "小文町"
  },
  "7280011": {
    "zipcode": "7280011",
    "prefectureCode": "34",
    "prefectureNumber": 34,
    "prefecture": "広島県",
    "city": "三次市",
    "town": "十日市西"
  },
  "7280012": {
    "zipcode": "7280012",
    "prefectureCode": "34",
    "prefectureNumber": 34,
    "prefecture": "広島県",
    "city": "三次市",
    "town": "十日市中"
  },
  "7280013": {
    "zipcode": "7280013",
    "prefectureCode": "34",
    "prefectureNumber": 34,
    "prefecture": "広島県",
    "city": "三次市",
    "town": "十日市東"
  },
  "7280014": {
    "zipcode": "7280014",
    "prefectureCode": "34",
    "prefectureNumber": 34,
    "prefecture": "広島県",
    "city": "三次市",
    "town": "十日市南"
  },
  "7280015": {
    "zipcode": "7280015",
    "prefectureCode": "34",
    "prefectureNumber": 34,
    "prefecture": "広島県",
    "city": "三次市",
    "town": "十日市町"
  },
  "7280016": {
    "zipcode": "7280016",
    "prefectureCode": "34",
    "prefectureNumber": 34,
    "prefecture": "広島県",
    "city": "三次市",
    "town": "四拾貫町"
  },
  "7280017": {
    "zipcode": "7280017",
    "prefectureCode": "34",
    "prefectureNumber": 34,
    "prefecture": "広島県",
    "city": "三次市",
    "town": "南畑敷町"
  },
  "7280021": {
    "zipcode": "7280021",
    "prefectureCode": "34",
    "prefectureNumber": 34,
    "prefecture": "広島県",
    "city": "三次市",
    "town": "三次町"
  },
  "7280022": {
    "zipcode": "7280022",
    "prefectureCode": "34",
    "prefectureNumber": 34,
    "prefecture": "広島県",
    "city": "三次市",
    "town": "西酒屋町"
  },
  "7280023": {
    "zipcode": "7280023",
    "prefectureCode": "34",
    "prefectureNumber": 34,
    "prefecture": "広島県",
    "city": "三次市",
    "town": "東酒屋町"
  },
  "7280024": {
    "zipcode": "7280024",
    "prefectureCode": "34",
    "prefectureNumber": 34,
    "prefecture": "広島県",
    "city": "三次市",
    "town": "青河町"
  },
  "7280025": {
    "zipcode": "7280025",
    "prefectureCode": "34",
    "prefectureNumber": 34,
    "prefecture": "広島県",
    "city": "三次市",
    "town": "粟屋町"
  },
  "7280026": {
    "zipcode": "7280026",
    "prefectureCode": "34",
    "prefectureNumber": 34,
    "prefecture": "広島県",
    "city": "三次市",
    "town": "日下町"
  },
  "7280027": {
    "zipcode": "7280027",
    "prefectureCode": "34",
    "prefectureNumber": 34,
    "prefecture": "広島県",
    "city": "三次市",
    "town": "三原町"
  },
  "7280101": {
    "zipcode": "7280101",
    "prefectureCode": "34",
    "prefectureNumber": 34,
    "prefecture": "広島県",
    "city": "三次市",
    "town": "作木町岡三渕"
  },
  "7280111": {
    "zipcode": "7280111",
    "prefectureCode": "34",
    "prefectureNumber": 34,
    "prefecture": "広島県",
    "city": "三次市",
    "town": "作木町伊賀和志"
  },
  "7280112": {
    "zipcode": "7280112",
    "prefectureCode": "34",
    "prefectureNumber": 34,
    "prefecture": "広島県",
    "city": "三次市",
    "town": "作木町森山西"
  },
  "7280113": {
    "zipcode": "7280113",
    "prefectureCode": "34",
    "prefectureNumber": 34,
    "prefecture": "広島県",
    "city": "三次市",
    "town": "作木町森山東"
  },
  "7280114": {
    "zipcode": "7280114",
    "prefectureCode": "34",
    "prefectureNumber": 34,
    "prefecture": "広島県",
    "city": "三次市",
    "town": "作木町森山中"
  },
  "7280115": {
    "zipcode": "7280115",
    "prefectureCode": "34",
    "prefectureNumber": 34,
    "prefecture": "広島県",
    "city": "三次市",
    "town": "作木町大津"
  },
  "7280121": {
    "zipcode": "7280121",
    "prefectureCode": "34",
    "prefectureNumber": 34,
    "prefecture": "広島県",
    "city": "三次市",
    "town": "作木町大畠"
  },
  "7280122": {
    "zipcode": "7280122",
    "prefectureCode": "34",
    "prefectureNumber": 34,
    "prefecture": "広島県",
    "city": "三次市",
    "town": "作木町西野"
  },
  "7280123": {
    "zipcode": "7280123",
    "prefectureCode": "34",
    "prefectureNumber": 34,
    "prefecture": "広島県",
    "city": "三次市",
    "town": "作木町上作木"
  },
  "7280124": {
    "zipcode": "7280124",
    "prefectureCode": "34",
    "prefectureNumber": 34,
    "prefecture": "広島県",
    "city": "三次市",
    "town": "作木町下作木"
  },
  "7280125": {
    "zipcode": "7280125",
    "prefectureCode": "34",
    "prefectureNumber": 34,
    "prefecture": "広島県",
    "city": "三次市",
    "town": "作木町光守"
  },
  "7280131": {
    "zipcode": "7280131",
    "prefectureCode": "34",
    "prefectureNumber": 34,
    "prefecture": "広島県",
    "city": "三次市",
    "town": "作木町香淀"
  },
  "7280132": {
    "zipcode": "7280132",
    "prefectureCode": "34",
    "prefectureNumber": 34,
    "prefecture": "広島県",
    "city": "三次市",
    "town": "作木町大山"
  },
  "7280133": {
    "zipcode": "7280133",
    "prefectureCode": "34",
    "prefectureNumber": 34,
    "prefecture": "広島県",
    "city": "三次市",
    "town": "作木町門田"
  },
  "7280201": {
    "zipcode": "7280201",
    "prefectureCode": "34",
    "prefectureNumber": 34,
    "prefecture": "広島県",
    "city": "三次市",
    "town": "布野町上布野"
  },
  "7280202": {
    "zipcode": "7280202",
    "prefectureCode": "34",
    "prefectureNumber": 34,
    "prefecture": "広島県",
    "city": "三次市",
    "town": "布野町下布野"
  },
  "7280203": {
    "zipcode": "7280203",
    "prefectureCode": "34",
    "prefectureNumber": 34,
    "prefecture": "広島県",
    "city": "三次市",
    "town": "布野町戸河内"
  },
  "7280211": {
    "zipcode": "7280211",
    "prefectureCode": "34",
    "prefectureNumber": 34,
    "prefecture": "広島県",
    "city": "三次市",
    "town": "布野町横谷"
  },
  "7280401": {
    "zipcode": "7280401",
    "prefectureCode": "34",
    "prefectureNumber": 34,
    "prefecture": "広島県",
    "city": "三次市",
    "town": "君田町東入君"
  },
  "7280402": {
    "zipcode": "7280402",
    "prefectureCode": "34",
    "prefectureNumber": 34,
    "prefecture": "広島県",
    "city": "三次市",
    "town": "君田町西入君"
  },
  "7280403": {
    "zipcode": "7280403",
    "prefectureCode": "34",
    "prefectureNumber": 34,
    "prefecture": "広島県",
    "city": "三次市",
    "town": "君田町藤兼"
  },
  "7280404": {
    "zipcode": "7280404",
    "prefectureCode": "34",
    "prefectureNumber": 34,
    "prefecture": "広島県",
    "city": "三次市",
    "town": "君田町石原"
  },
  "7280405": {
    "zipcode": "7280405",
    "prefectureCode": "34",
    "prefectureNumber": 34,
    "prefecture": "広島県",
    "city": "三次市",
    "town": "君田町泉吉田"
  },
  "7280406": {
    "zipcode": "7280406",
    "prefectureCode": "34",
    "prefectureNumber": 34,
    "prefecture": "広島県",
    "city": "三次市",
    "town": "君田町櫃田"
  },
  "7280407": {
    "zipcode": "7280407",
    "prefectureCode": "34",
    "prefectureNumber": 34,
    "prefecture": "広島県",
    "city": "三次市",
    "town": "君田町茂田"
  },
  "7280501": {
    "zipcode": "7280501",
    "prefectureCode": "34",
    "prefectureNumber": 34,
    "prefecture": "広島県",
    "city": "庄原市",
    "town": "口和町宮内"
  },
  "7280502": {
    "zipcode": "7280502",
    "prefectureCode": "34",
    "prefectureNumber": 34,
    "prefecture": "広島県",
    "city": "庄原市",
    "town": "口和町向泉"
  },
  "7280503": {
    "zipcode": "7280503",
    "prefectureCode": "34",
    "prefectureNumber": 34,
    "prefecture": "広島県",
    "city": "庄原市",
    "town": "口和町大月"
  },
  "7280504": {
    "zipcode": "7280504",
    "prefectureCode": "34",
    "prefectureNumber": 34,
    "prefecture": "広島県",
    "city": "庄原市",
    "town": "口和町竹地谷"
  },
  "7280621": {
    "zipcode": "7280621",
    "prefectureCode": "34",
    "prefectureNumber": 34,
    "prefecture": "広島県",
    "city": "三次市",
    "town": "三若町"
  },
  "7280622": {
    "zipcode": "7280622",
    "prefectureCode": "34",
    "prefectureNumber": 34,
    "prefecture": "広島県",
    "city": "三次市",
    "town": "海渡町"
  },
  "7280623": {
    "zipcode": "7280623",
    "prefectureCode": "34",
    "prefectureNumber": 34,
    "prefecture": "広島県",
    "city": "三次市",
    "town": "石原町"
  },
  "7280624": {
    "zipcode": "7280624",
    "prefectureCode": "34",
    "prefectureNumber": 34,
    "prefecture": "広島県",
    "city": "三次市",
    "town": "上田町"
  },
  "7280625": {
    "zipcode": "7280625",
    "prefectureCode": "34",
    "prefectureNumber": 34,
    "prefecture": "広島県",
    "city": "三次市",
    "town": "有原町"
  }
}
