{
  "7290101": {
    "zipcode": "7290101",
    "prefectureCode": "34",
    "prefectureNumber": 34,
    "prefecture": "広島県",
    "city": "福山市",
    "town": "高西町川尻"
  },
  "7290102": {
    "zipcode": "7290102",
    "prefectureCode": "34",
    "prefectureNumber": 34,
    "prefecture": "広島県",
    "city": "福山市",
    "town": "高西町真田"
  },
  "7290103": {
    "zipcode": "7290103",
    "prefectureCode": "34",
    "prefectureNumber": 34,
    "prefecture": "広島県",
    "city": "福山市",
    "town": "高西町南"
  },
  "7290104": {
    "zipcode": "7290104",
    "prefectureCode": "34",
    "prefectureNumber": 34,
    "prefecture": "広島県",
    "city": "福山市",
    "town": "松永町"
  },
  "7290105": {
    "zipcode": "7290105",
    "prefectureCode": "34",
    "prefectureNumber": 34,
    "prefecture": "広島県",
    "city": "福山市",
    "town": "南松永町"
  },
  "7290106": {
    "zipcode": "7290106",
    "prefectureCode": "34",
    "prefectureNumber": 34,
    "prefecture": "広島県",
    "city": "福山市",
    "town": "高西町"
  },
  "7290111": {
    "zipcode": "7290111",
    "prefectureCode": "34",
    "prefectureNumber": 34,
    "prefecture": "広島県",
    "city": "福山市",
    "town": "今津町"
  },
  "7290112": {
    "zipcode": "7290112",
    "prefectureCode": "34",
    "prefectureNumber": 34,
    "prefecture": "広島県",
    "city": "福山市",
    "town": "神村町"
  },
  "7290113": {
    "zipcode": "7290113",
    "prefectureCode": "34",
    "prefectureNumber": 34,
    "prefecture": "広島県",
    "city": "福山市",
    "town": "宮前町"
  },
  "7290114": {
    "zipcode": "7290114",
    "prefectureCode": "34",
    "prefectureNumber": 34,
    "prefecture": "広島県",
    "city": "福山市",
    "town": "柳津町"
  },
  "7290115": {
    "zipcode": "7290115",
    "prefectureCode": "34",
    "prefectureNumber": 34,
    "prefecture": "広島県",
    "city": "福山市",
    "town": "南今津町"
  },
  "7290141": {
    "zipcode": "7290141",
    "prefectureCode": "34",
    "prefectureNumber": 34,
    "prefecture": "広島県",
    "city": "尾道市",
    "town": "高須町"
  },
  "7290142": {
    "zipcode": "7290142",
    "prefectureCode": "34",
    "prefectureNumber": 34,
    "prefecture": "広島県",
    "city": "尾道市",
    "town": "西藤町"
  },
  "7290251": {
    "zipcode": "7290251",
    "prefectureCode": "34",
    "prefectureNumber": 34,
    "prefecture": "広島県",
    "city": "福山市",
    "town": "東村町"
  },
  "7290252": {
    "zipcode": "7290252",
    "prefectureCode": "34",
    "prefectureNumber": 34,
    "prefecture": "広島県",
    "city": "福山市",
    "town": "本郷町"
  },
  "7290321": {
    "zipcode": "7290321",
    "prefectureCode": "34",
    "prefectureNumber": 34,
    "prefecture": "広島県",
    "city": "三原市",
    "town": "木原町"
  },
  "7290322": {
    "zipcode": "7290322",
    "prefectureCode": "34",
    "prefectureNumber": 34,
    "prefecture": "広島県",
    "city": "三原市",
    "town": "奥野山町"
  },
  "7290323": {
    "zipcode": "7290323",
    "prefectureCode": "34",
    "prefectureNumber": 34,
    "prefecture": "広島県",
    "city": "三原市",
    "town": "鉢ケ峰町"
  },
  "7290324": {
    "zipcode": "7290324",
    "prefectureCode": "34",
    "prefectureNumber": 34,
    "prefecture": "広島県",
    "city": "三原市",
    "town": "糸崎"
  },
  "7290329": {
    "zipcode": "7290329",
    "prefectureCode": "34",
    "prefectureNumber": 34,
    "prefecture": "広島県",
    "city": "三原市",
    "town": "糸崎南"
  },
  "7290411": {
    "zipcode": "7290411",
    "prefectureCode": "34",
    "prefectureNumber": 34,
    "prefecture": "広島県",
    "city": "三原市",
    "town": "本郷町船木（その他）"
  },
  "7290412": {
    "zipcode": "7290412",
    "prefectureCode": "34",
    "prefectureNumber": 34,
    "prefecture": "広島県",
    "city": "三原市",
    "town": "本郷町本郷"
  },
  "7290413": {
    "zipcode": "7290413",
    "prefectureCode": "34",
    "prefectureNumber": 34,
    "prefecture": "広島県",
    "city": "三原市",
    "town": "本郷町南方"
  },
  "7290414": {
    "zipcode": "7290414",
    "prefectureCode": "34",
    "prefectureNumber": 34,
    "prefecture": "広島県",
    "city": "三原市",
    "town": "本郷町下北方"
  },
  "7290415": {
    "zipcode": "7290415",
    "prefectureCode": "34",
    "prefectureNumber": 34,
    "prefecture": "広島県",
    "city": "三原市",
    "town": "本郷町上北方"
  },
  "7290416": {
    "zipcode": "7290416",
    "prefectureCode": "34",
    "prefectureNumber": 34,
    "prefecture": "広島県",
    "city": "三原市",
    "town": "本郷町善入寺"
  },
  "7290417": {
    "zipcode": "7290417",
    "prefectureCode": "34",
    "prefectureNumber": 34,
    "prefecture": "広島県",
    "city": "三原市",
    "town": "本郷南"
  },
  "7290418": {
    "zipcode": "7290418",
    "prefectureCode": "34",
    "prefectureNumber": 34,
    "prefecture": "広島県",
    "city": "三原市",
    "town": "本郷北"
  },
  "7290419": {
    "zipcode": "7290419",
    "prefectureCode": "34",
    "prefectureNumber": 34,
    "prefecture": "広島県",
    "city": "三原市",
    "town": "南方"
  },
  "7290471": {
    "zipcode": "7290471",
    "prefectureCode": "34",
    "prefectureNumber": 34,
    "prefecture": "広島県",
    "city": "三原市",
    "town": "高坂町許山"
  },
  "7290472": {
    "zipcode": "7290472",
    "prefectureCode": "34",
    "prefectureNumber": 34,
    "prefecture": "広島県",
    "city": "三原市",
    "town": "高坂町真良"
  },
  "7290473": {
    "zipcode": "7290473",
    "prefectureCode": "34",
    "prefectureNumber": 34,
    "prefecture": "広島県",
    "city": "三原市",
    "town": "沼田西町小原"
  },
  "7290474": {
    "zipcode": "7290474",
    "prefectureCode": "34",
    "prefectureNumber": 34,
    "prefecture": "広島県",
    "city": "三原市",
    "town": "沼田西町惣定"
  },
  "7290475": {
    "zipcode": "7290475",
    "prefectureCode": "34",
    "prefectureNumber": 34,
    "prefecture": "広島県",
    "city": "三原市",
    "town": "沼田西町松江"
  },
  "7291211": {
    "zipcode": "7291211",
    "prefectureCode": "34",
    "prefectureNumber": 34,
    "prefecture": "広島県",
    "city": "三原市",
    "town": "大和町大草"
  },
  "7291212": {
    "zipcode": "7291212",
    "prefectureCode": "34",
    "prefectureNumber": 34,
    "prefecture": "広島県",
    "city": "三原市",
    "town": "大和町姥ケ原"
  },
  "7291213": {
    "zipcode": "7291213",
    "prefectureCode": "34",
    "prefectureNumber": 34,
    "prefecture": "広島県",
    "city": "三原市",
    "town": "大和町平坂"
  },
  "7291321": {
    "zipcode": "7291321",
    "prefectureCode": "34",
    "prefectureNumber": 34,
    "prefecture": "広島県",
    "city": "三原市",
    "town": "大和町和木"
  },
  "7291322": {
    "zipcode": "7291322",
    "prefectureCode": "34",
    "prefectureNumber": 34,
    "prefecture": "広島県",
    "city": "三原市",
    "town": "大和町箱川"
  },
  "7291323": {
    "zipcode": "7291323",
    "prefectureCode": "34",
    "prefectureNumber": 34,
    "prefecture": "広島県",
    "city": "三原市",
    "town": "大和町大具"
  },
  "7291331": {
    "zipcode": "7291331",
    "prefectureCode": "34",
    "prefectureNumber": 34,
    "prefecture": "広島県",
    "city": "三原市",
    "town": "大和町椋梨"
  },
  "7291332": {
    "zipcode": "7291332",
    "prefectureCode": "34",
    "prefectureNumber": 34,
    "prefecture": "広島県",
    "city": "三原市",
    "town": "大和町上草井"
  },
  "7291333": {
    "zipcode": "7291333",
    "prefectureCode": "34",
    "prefectureNumber": 34,
    "prefecture": "広島県",
    "city": "三原市",
    "town": "大和町下草井"
  },
  "7291401": {
    "zipcode": "7291401",
    "prefectureCode": "34",
    "prefectureNumber": 34,
    "prefecture": "広島県",
    "city": "三原市",
    "town": "大和町蔵宗"
  },
  "7291402": {
    "zipcode": "7291402",
    "prefectureCode": "34",
    "prefectureNumber": 34,
    "prefecture": "広島県",
    "city": "三原市",
    "town": "大和町篠"
  },
  "7291403": {
    "zipcode": "7291403",
    "prefectureCode": "34",
    "prefectureNumber": 34,
    "prefecture": "広島県",
    "city": "三原市",
    "town": "大和町萩原"
  },
  "7291404": {
    "zipcode": "7291404",
    "prefectureCode": "34",
    "prefectureNumber": 34,
    "prefecture": "広島県",
    "city": "三原市",
    "town": "大和町福田"
  },
  "7291405": {
    "zipcode": "7291405",
    "prefectureCode": "34",
    "prefectureNumber": 34,
    "prefecture": "広島県",
    "city": "三原市",
    "town": "大和町上徳良"
  },
  "7291406": {
    "zipcode": "7291406",
    "prefectureCode": "34",
    "prefectureNumber": 34,
    "prefecture": "広島県",
    "city": "三原市",
    "town": "大和町下徳良"
  },
  "7292251": {
    "zipcode": "7292251",
    "prefectureCode": "34",
    "prefectureNumber": 34,
    "prefecture": "広島県",
    "city": "三原市",
    "town": "幸崎町久和喜"
  },
  "7292252": {
    "zipcode": "7292252",
    "prefectureCode": "34",
    "prefectureNumber": 34,
    "prefecture": "広島県",
    "city": "三原市",
    "town": "幸崎町能地"
  },
  "7292253": {
    "zipcode": "7292253",
    "prefectureCode": "34",
    "prefectureNumber": 34,
    "prefecture": "広島県",
    "city": "三原市",
    "town": "幸崎町渡瀬"
  },
  "7292311": {
    "zipcode": "7292311",
    "prefectureCode": "34",
    "prefectureNumber": 34,
    "prefecture": "広島県",
    "city": "竹原市",
    "town": "忠海町"
  },
  "7292312": {
    "zipcode": "7292312",
    "prefectureCode": "34",
    "prefectureNumber": 34,
    "prefecture": "広島県",
    "city": "竹原市",
    "town": "福田町"
  },
  "7292313": {
    "zipcode": "7292313",
    "prefectureCode": "34",
    "prefectureNumber": 34,
    "prefecture": "広島県",
    "city": "竹原市",
    "town": "高崎町"
  },
  "7292314": {
    "zipcode": "7292314",
    "prefectureCode": "34",
    "prefectureNumber": 34,
    "prefecture": "広島県",
    "city": "竹原市",
    "town": "忠海床浦"
  },
  "7292315": {
    "zipcode": "7292315",
    "prefectureCode": "34",
    "prefectureNumber": 34,
    "prefecture": "広島県",
    "city": "竹原市",
    "town": "忠海長浜"
  },
  "7292316": {
    "zipcode": "7292316",
    "prefectureCode": "34",
    "prefectureNumber": 34,
    "prefecture": "広島県",
    "city": "竹原市",
    "town": "忠海中町"
  },
  "7292317": {
    "zipcode": "7292317",
    "prefectureCode": "34",
    "prefectureNumber": 34,
    "prefecture": "広島県",
    "city": "竹原市",
    "town": "忠海東町"
  },
  "7292361": {
    "zipcode": "7292361",
    "prefectureCode": "34",
    "prefectureNumber": 34,
    "prefecture": "広島県",
    "city": "三原市",
    "town": "小泉町"
  },
  "7293101": {
    "zipcode": "7293101",
    "prefectureCode": "34",
    "prefectureNumber": 34,
    "prefecture": "広島県",
    "city": "福山市",
    "town": "新市町戸手"
  },
  "7293102": {
    "zipcode": "7293102",
    "prefectureCode": "34",
    "prefectureNumber": 34,
    "prefecture": "広島県",
    "city": "福山市",
    "town": "新市町相方"
  },
  "7293103": {
    "zipcode": "7293103",
    "prefectureCode": "34",
    "prefectureNumber": 34,
    "prefecture": "広島県",
    "city": "福山市",
    "town": "新市町新市"
  },
  "7293104": {
    "zipcode": "7293104",
    "prefectureCode": "34",
    "prefectureNumber": 34,
    "prefecture": "広島県",
    "city": "福山市",
    "town": "新市町宮内"
  },
  "7293105": {
    "zipcode": "7293105",
    "prefectureCode": "34",
    "prefectureNumber": 34,
    "prefecture": "広島県",
    "city": "福山市",
    "town": "新市町下安井"
  },
  "7293106": {
    "zipcode": "7293106",
    "prefectureCode": "34",
    "prefectureNumber": 34,
    "prefecture": "広島県",
    "city": "福山市",
    "town": "新市町上安井"
  },
  "7293107": {
    "zipcode": "7293107",
    "prefectureCode": "34",
    "prefectureNumber": 34,
    "prefecture": "広島県",
    "city": "福山市",
    "town": "新市町常"
  },
  "7293111": {
    "zipcode": "7293111",
    "prefectureCode": "34",
    "prefectureNumber": 34,
    "prefecture": "広島県",
    "city": "福山市",
    "town": "新市町金丸"
  },
  "7293112": {
    "zipcode": "7293112",
    "prefectureCode": "34",
    "prefectureNumber": 34,
    "prefecture": "広島県",
    "city": "福山市",
    "town": "新市町藤尾"
  },
  "7293201": {
    "zipcode": "7293201",
    "prefectureCode": "34",
    "prefectureNumber": 34,
    "prefecture": "広島県",
    "city": "府中市",
    "town": "斗升町"
  },
  "7293202": {
    "zipcode": "7293202",
    "prefectureCode": "34",
    "prefectureNumber": 34,
    "prefecture": "広島県",
    "city": "府中市",
    "town": "行縢町"
  },
  "7293211": {
    "zipcode": "7293211",
    "prefectureCode": "34",
    "prefectureNumber": 34,
    "prefecture": "広島県",
    "city": "府中市",
    "town": "木野山町"
  },
  "7293212": {
    "zipcode": "7293212",
    "prefectureCode": "34",
    "prefectureNumber": 34,
    "prefecture": "広島県",
    "city": "府中市",
    "town": "阿字町"
  },
  "7293221": {
    "zipcode": "7293221",
    "prefectureCode": "34",
    "prefectureNumber": 34,
    "prefecture": "広島県",
    "city": "府中市",
    "town": "河佐町"
  },
  "7293222": {
    "zipcode": "7293222",
    "prefectureCode": "34",
    "prefectureNumber": 34,
    "prefecture": "広島県",
    "city": "府中市",
    "town": "久佐町"
  },
  "7293301": {
    "zipcode": "7293301",
    "prefectureCode": "34",
    "prefectureNumber": 34,
    "prefecture": "広島県",
    "city": "世羅郡世羅町",
    "town": "小谷"
  },
  "7293302": {
    "zipcode": "7293302",
    "prefectureCode": "34",
    "prefectureNumber": 34,
    "prefecture": "広島県",
    "city": "世羅郡世羅町",
    "town": "川尻"
  },
  "7293303": {
    "zipcode": "7293303",
    "prefectureCode": "34",
    "prefectureNumber": 34,
    "prefecture": "広島県",
    "city": "世羅郡世羅町",
    "town": "東上原"
  },
  "7293304": {
    "zipcode": "7293304",
    "prefectureCode": "34",
    "prefectureNumber": 34,
    "prefecture": "広島県",
    "city": "世羅郡世羅町",
    "town": "赤屋"
  },
  "7293305": {
    "zipcode": "7293305",
    "prefectureCode": "34",
    "prefectureNumber": 34,
    "prefecture": "広島県",
    "city": "世羅郡世羅町",
    "town": "別迫"
  },
  "7293306": {
    "zipcode": "7293306",
    "prefectureCode": "34",
    "prefectureNumber": 34,
    "prefecture": "広島県",
    "city": "世羅郡世羅町",
    "town": "青近"
  },
  "7293307": {
    "zipcode": "7293307",
    "prefectureCode": "34",
    "prefectureNumber": 34,
    "prefecture": "広島県",
    "city": "世羅郡世羅町",
    "town": "伊尾"
  },
  "7293401": {
    "zipcode": "7293401",
    "prefectureCode": "34",
    "prefectureNumber": 34,
    "prefecture": "広島県",
    "city": "府中市",
    "town": "上下町小塚"
  },
  "7293402": {
    "zipcode": "7293402",
    "prefectureCode": "34",
    "prefectureNumber": 34,
    "prefecture": "広島県",
    "city": "府中市",
    "town": "上下町小堀"
  },
  "7293403": {
    "zipcode": "7293403",
    "prefectureCode": "34",
    "prefectureNumber": 34,
    "prefecture": "広島県",
    "city": "府中市",
    "town": "上下町階見"
  },
  "7293404": {
    "zipcode": "7293404",
    "prefectureCode": "34",
    "prefectureNumber": 34,
    "prefecture": "広島県",
    "city": "府中市",
    "town": "上下町二森"
  },
  "7293405": {
    "zipcode": "7293405",
    "prefectureCode": "34",
    "prefectureNumber": 34,
    "prefecture": "広島県",
    "city": "府中市",
    "town": "上下町有福"
  },
  "7293411": {
    "zipcode": "7293411",
    "prefectureCode": "34",
    "prefectureNumber": 34,
    "prefecture": "広島県",
    "city": "府中市",
    "town": "上下町井永"
  },
  "7293412": {
    "zipcode": "7293412",
    "prefectureCode": "34",
    "prefectureNumber": 34,
    "prefecture": "広島県",
    "city": "府中市",
    "town": "上下町岡屋"
  },
  "7293413": {
    "zipcode": "7293413",
    "prefectureCode": "34",
    "prefectureNumber": 34,
    "prefecture": "広島県",
    "city": "府中市",
    "town": "上下町水永"
  },
  "7293414": {
    "zipcode": "7293414",
    "prefectureCode": "34",
    "prefectureNumber": 34,
    "prefecture": "広島県",
    "city": "府中市",
    "town": "上下町佐倉"
  },
  "7293415": {
    "zipcode": "7293415",
    "prefectureCode": "34",
    "prefectureNumber": 34,
    "prefecture": "広島県",
    "city": "府中市",
    "town": "上下町矢多田"
  },
  "7293421": {
    "zipcode": "7293421",
    "prefectureCode": "34",
    "prefectureNumber": 34,
    "prefecture": "広島県",
    "city": "府中市",
    "town": "上下町深江"
  },
  "7293422": {
    "zipcode": "7293422",
    "prefectureCode": "34",
    "prefectureNumber": 34,
    "prefecture": "広島県",
    "city": "府中市",
    "town": "上下町国留"
  },
  "7293423": {
    "zipcode": "7293423",
    "prefectureCode": "34",
    "prefectureNumber": 34,
    "prefecture": "広島県",
    "city": "府中市",
    "town": "上下町矢野"
  },
  "7293424": {
    "zipcode": "7293424",
    "prefectureCode": "34",
    "prefectureNumber": 34,
    "prefecture": "広島県",
    "city": "府中市",
    "town": "上下町松崎"
  },
  "7293431": {
    "zipcode": "7293431",
    "prefectureCode": "34",
    "prefectureNumber": 34,
    "prefecture": "広島県",
    "city": "府中市",
    "town": "上下町上下"
  },
  "7293511": {
    "zipcode": "7293511",
    "prefectureCode": "34",
    "prefectureNumber": 34,
    "prefecture": "広島県",
    "city": "神石郡神石高原町",
    "town": "高光"
  },
  "7293512": {
    "zipcode": "7293512",
    "prefectureCode": "34",
    "prefectureNumber": 34,
    "prefecture": "広島県",
    "city": "神石郡神石高原町",
    "town": "草木"
  },
  "7293513": {
    "zipcode": "7293513",
    "prefectureCode": "34",
    "prefectureNumber": 34,
    "prefecture": "広島県",
    "city": "神石郡神石高原町",
    "town": "牧"
  },
  "7293514": {
    "zipcode": "7293514",
    "prefectureCode": "34",
    "prefectureNumber": 34,
    "prefecture": "広島県",
    "city": "神石郡神石高原町",
    "town": "田頭"
  },
  "7293515": {
    "zipcode": "7293515",
    "prefectureCode": "34",
    "prefectureNumber": 34,
    "prefecture": "広島県",
    "city": "神石郡神石高原町",
    "town": "福永"
  },
  "7293516": {
    "zipcode": "7293516",
    "prefectureCode": "34",
    "prefectureNumber": 34,
    "prefecture": "広島県",
    "city": "神石郡神石高原町",
    "town": "古川"
  },
  "7293601": {
    "zipcode": "7293601",
    "prefectureCode": "34",
    "prefectureNumber": 34,
    "prefecture": "広島県",
    "city": "神石郡神石高原町",
    "town": "相渡"
  },
  "7293602": {
    "zipcode": "7293602",
    "prefectureCode": "34",
    "prefectureNumber": 34,
    "prefecture": "広島県",
    "city": "神石郡神石高原町",
    "town": "永野"
  },
  "7293701": {
    "zipcode": "7293701",
    "prefectureCode": "34",
    "prefectureNumber": 34,
    "prefecture": "広島県",
    "city": "庄原市",
    "town": "総領町黒目"
  },
  "7293702": {
    "zipcode": "7293702",
    "prefectureCode": "34",
    "prefectureNumber": 34,
    "prefecture": "広島県",
    "city": "庄原市",
    "town": "総領町亀谷"
  },
  "7293703": {
    "zipcode": "7293703",
    "prefectureCode": "34",
    "prefectureNumber": 34,
    "prefecture": "広島県",
    "city": "庄原市",
    "town": "総領町下領家"
  },
  "7293711": {
    "zipcode": "7293711",
    "prefectureCode": "34",
    "prefectureNumber": 34,
    "prefecture": "広島県",
    "city": "庄原市",
    "town": "総領町五箇"
  },
  "7293712": {
    "zipcode": "7293712",
    "prefectureCode": "34",
    "prefectureNumber": 34,
    "prefecture": "広島県",
    "city": "庄原市",
    "town": "総領町上領家"
  },
  "7293713": {
    "zipcode": "7293713",
    "prefectureCode": "34",
    "prefectureNumber": 34,
    "prefecture": "広島県",
    "city": "庄原市",
    "town": "総領町中領家"
  },
  "7293721": {
    "zipcode": "7293721",
    "prefectureCode": "34",
    "prefectureNumber": 34,
    "prefecture": "広島県",
    "city": "庄原市",
    "town": "総領町稲草"
  },
  "7293722": {
    "zipcode": "7293722",
    "prefectureCode": "34",
    "prefectureNumber": 34,
    "prefecture": "広島県",
    "city": "庄原市",
    "town": "総領町木屋"
  },
  "7294101": {
    "zipcode": "7294101",
    "prefectureCode": "34",
    "prefectureNumber": 34,
    "prefecture": "広島県",
    "city": "三次市",
    "town": "甲奴町本郷"
  },
  "7294102": {
    "zipcode": "7294102",
    "prefectureCode": "34",
    "prefectureNumber": 34,
    "prefecture": "広島県",
    "city": "三次市",
    "town": "甲奴町西野"
  },
  "7294103": {
    "zipcode": "7294103",
    "prefectureCode": "34",
    "prefectureNumber": 34,
    "prefecture": "広島県",
    "city": "三次市",
    "town": "甲奴町小童"
  },
  "7294104": {
    "zipcode": "7294104",
    "prefectureCode": "34",
    "prefectureNumber": 34,
    "prefecture": "広島県",
    "city": "三次市",
    "town": "甲奴町宇賀"
  },
  "7294105": {
    "zipcode": "7294105",
    "prefectureCode": "34",
    "prefectureNumber": 34,
    "prefecture": "広島県",
    "city": "三次市",
    "town": "甲奴町梶田"
  },
  "7294106": {
    "zipcode": "7294106",
    "prefectureCode": "34",
    "prefectureNumber": 34,
    "prefecture": "広島県",
    "city": "三次市",
    "town": "甲奴町有田"
  },
  "7294111": {
    "zipcode": "7294111",
    "prefectureCode": "34",
    "prefectureNumber": 34,
    "prefecture": "広島県",
    "city": "三次市",
    "town": "甲奴町福田"
  },
  "7294112": {
    "zipcode": "7294112",
    "prefectureCode": "34",
    "prefectureNumber": 34,
    "prefecture": "広島県",
    "city": "三次市",
    "town": "甲奴町抜湯"
  },
  "7294113": {
    "zipcode": "7294113",
    "prefectureCode": "34",
    "prefectureNumber": 34,
    "prefecture": "広島県",
    "city": "三次市",
    "town": "甲奴町太郎丸"
  },
  "7294201": {
    "zipcode": "7294201",
    "prefectureCode": "34",
    "prefectureNumber": 34,
    "prefecture": "広島県",
    "city": "三次市",
    "town": "吉舎町知和"
  },
  "7294202": {
    "zipcode": "7294202",
    "prefectureCode": "34",
    "prefectureNumber": 34,
    "prefecture": "広島県",
    "city": "三次市",
    "town": "吉舎町上安田"
  },
  "7294203": {
    "zipcode": "7294203",
    "prefectureCode": "34",
    "prefectureNumber": 34,
    "prefecture": "広島県",
    "city": "三次市",
    "town": "吉舎町安田"
  },
  "7294204": {
    "zipcode": "7294204",
    "prefectureCode": "34",
    "prefectureNumber": 34,
    "prefecture": "広島県",
    "city": "三次市",
    "town": "吉舎町三玉"
  },
  "7294205": {
    "zipcode": "7294205",
    "prefectureCode": "34",
    "prefectureNumber": 34,
    "prefecture": "広島県",
    "city": "三次市",
    "town": "吉舎町海田原"
  },
  "7294206": {
    "zipcode": "7294206",
    "prefectureCode": "34",
    "prefectureNumber": 34,
    "prefecture": "広島県",
    "city": "三次市",
    "town": "吉舎町矢井"
  },
  "7294207": {
    "zipcode": "7294207",
    "prefectureCode": "34",
    "prefectureNumber": 34,
    "prefecture": "広島県",
    "city": "三次市",
    "town": "吉舎町敷地"
  },
  "7294208": {
    "zipcode": "7294208",
    "prefectureCode": "34",
    "prefectureNumber": 34,
    "prefecture": "広島県",
    "city": "三次市",
    "town": "吉舎町矢野地"
  },
  "7294211": {
    "zipcode": "7294211",
    "prefectureCode": "34",
    "prefectureNumber": 34,
    "prefecture": "広島県",
    "city": "三次市",
    "town": "吉舎町吉舎"
  },
  "7294221": {
    "zipcode": "7294221",
    "prefectureCode": "34",
    "prefectureNumber": 34,
    "prefecture": "広島県",
    "city": "三次市",
    "town": "吉舎町清綱"
  },
  "7294222": {
    "zipcode": "7294222",
    "prefectureCode": "34",
    "prefectureNumber": 34,
    "prefecture": "広島県",
    "city": "三次市",
    "town": "吉舎町丸田"
  },
  "7294223": {
    "zipcode": "7294223",
    "prefectureCode": "34",
    "prefectureNumber": 34,
    "prefecture": "広島県",
    "city": "三次市",
    "town": "吉舎町雲通"
  },
  "7294224": {
    "zipcode": "7294224",
    "prefectureCode": "34",
    "prefectureNumber": 34,
    "prefecture": "広島県",
    "city": "三次市",
    "town": "吉舎町辻"
  },
  "7294225": {
    "zipcode": "7294225",
    "prefectureCode": "34",
    "prefectureNumber": 34,
    "prefecture": "広島県",
    "city": "三次市",
    "town": "吉舎町徳市"
  },
  "7294226": {
    "zipcode": "7294226",
    "prefectureCode": "34",
    "prefectureNumber": 34,
    "prefecture": "広島県",
    "city": "三次市",
    "town": "吉舎町吉舎川之内"
  },
  "7294227": {
    "zipcode": "7294227",
    "prefectureCode": "34",
    "prefectureNumber": 34,
    "prefecture": "広島県",
    "city": "三次市",
    "town": "吉舎町檜"
  },
  "7294301": {
    "zipcode": "7294301",
    "prefectureCode": "34",
    "prefectureNumber": 34,
    "prefecture": "広島県",
    "city": "三次市",
    "town": "三良坂町光清"
  },
  "7294302": {
    "zipcode": "7294302",
    "prefectureCode": "34",
    "prefectureNumber": 34,
    "prefecture": "広島県",
    "city": "三次市",
    "town": "三良坂町仁賀"
  },
  "7294303": {
    "zipcode": "7294303",
    "prefectureCode": "34",
    "prefectureNumber": 34,
    "prefecture": "広島県",
    "city": "三次市",
    "town": "三良坂町灰塚"
  },
  "7294304": {
    "zipcode": "7294304",
    "prefectureCode": "34",
    "prefectureNumber": 34,
    "prefecture": "広島県",
    "city": "三次市",
    "town": "三良坂町三良坂"
  },
  "7294305": {
    "zipcode": "7294305",
    "prefectureCode": "34",
    "prefectureNumber": 34,
    "prefecture": "広島県",
    "city": "三次市",
    "town": "三良坂町長田"
  },
  "7294306": {
    "zipcode": "7294306",
    "prefectureCode": "34",
    "prefectureNumber": 34,
    "prefecture": "広島県",
    "city": "三次市",
    "town": "三良坂町岡田"
  },
  "7294307": {
    "zipcode": "7294307",
    "prefectureCode": "34",
    "prefectureNumber": 34,
    "prefecture": "広島県",
    "city": "三次市",
    "town": "三良坂町皆瀬"
  },
  "7294308": {
    "zipcode": "7294308",
    "prefectureCode": "34",
    "prefectureNumber": 34,
    "prefecture": "広島県",
    "city": "三次市",
    "town": "三良坂町田利"
  },
  "7295111": {
    "zipcode": "7295111",
    "prefectureCode": "34",
    "prefectureNumber": 34,
    "prefecture": "広島県",
    "city": "庄原市",
    "town": "東城町福代"
  },
  "7295112": {
    "zipcode": "7295112",
    "prefectureCode": "34",
    "prefectureNumber": 34,
    "prefecture": "広島県",
    "city": "庄原市",
    "town": "東城町新福代"
  },
  "7295121": {
    "zipcode": "7295121",
    "prefectureCode": "34",
    "prefectureNumber": 34,
    "prefecture": "広島県",
    "city": "庄原市",
    "town": "東城町川東"
  },
  "7295122": {
    "zipcode": "7295122",
    "prefectureCode": "34",
    "prefectureNumber": 34,
    "prefecture": "広島県",
    "city": "庄原市",
    "town": "東城町久代"
  },
  "7295123": {
    "zipcode": "7295123",
    "prefectureCode": "34",
    "prefectureNumber": 34,
    "prefecture": "広島県",
    "city": "庄原市",
    "town": "東城町戸宇"
  },
  "7295124": {
    "zipcode": "7295124",
    "prefectureCode": "34",
    "prefectureNumber": 34,
    "prefecture": "広島県",
    "city": "庄原市",
    "town": "東城町東城"
  },
  "7295125": {
    "zipcode": "7295125",
    "prefectureCode": "34",
    "prefectureNumber": 34,
    "prefecture": "広島県",
    "city": "庄原市",
    "town": "東城町川西"
  },
  "7295126": {
    "zipcode": "7295126",
    "prefectureCode": "34",
    "prefectureNumber": 34,
    "prefecture": "広島県",
    "city": "庄原市",
    "town": "東城町竹森"
  },
  "7295127": {
    "zipcode": "7295127",
    "prefectureCode": "34",
    "prefectureNumber": 34,
    "prefecture": "広島県",
    "city": "庄原市",
    "town": "東城町粟田"
  },
  "7295128": {
    "zipcode": "7295128",
    "prefectureCode": "34",
    "prefectureNumber": 34,
    "prefecture": "広島県",
    "city": "庄原市",
    "town": "東城町受原（隠地、中ノ谷）"
  },
  "7295131": {
    "zipcode": "7295131",
    "prefectureCode": "34",
    "prefectureNumber": 34,
    "prefecture": "広島県",
    "city": "庄原市",
    "town": "東城町新免"
  },
  "7295132": {
    "zipcode": "7295132",
    "prefectureCode": "34",
    "prefectureNumber": 34,
    "prefecture": "広島県",
    "city": "庄原市",
    "town": "東城町三坂"
  },
  "7295241": {
    "zipcode": "7295241",
    "prefectureCode": "34",
    "prefectureNumber": 34,
    "prefecture": "広島県",
    "city": "庄原市",
    "town": "東城町帝釈宇山"
  },
  "7295242": {
    "zipcode": "7295242",
    "prefectureCode": "34",
    "prefectureNumber": 34,
    "prefecture": "広島県",
    "city": "庄原市",
    "town": "東城町帝釈山中"
  },
  "7295243": {
    "zipcode": "7295243",
    "prefectureCode": "34",
    "prefectureNumber": 34,
    "prefecture": "広島県",
    "city": "庄原市",
    "town": "東城町帝釈始終"
  },
  "7295244": {
    "zipcode": "7295244",
    "prefectureCode": "34",
    "prefectureNumber": 34,
    "prefecture": "広島県",
    "city": "庄原市",
    "town": "東城町帝釈未渡"
  },
  "7295451": {
    "zipcode": "7295451",
    "prefectureCode": "34",
    "prefectureNumber": 34,
    "prefecture": "広島県",
    "city": "庄原市",
    "town": "東城町田黒"
  },
  "7295452": {
    "zipcode": "7295452",
    "prefectureCode": "34",
    "prefectureNumber": 34,
    "prefecture": "広島県",
    "city": "庄原市",
    "town": "東城町菅"
  },
  "7295453": {
    "zipcode": "7295453",
    "prefectureCode": "34",
    "prefectureNumber": 34,
    "prefecture": "広島県",
    "city": "庄原市",
    "town": "東城町受原（その他）"
  },
  "7295454": {
    "zipcode": "7295454",
    "prefectureCode": "34",
    "prefectureNumber": 34,
    "prefecture": "広島県",
    "city": "庄原市",
    "town": "東城町川鳥"
  },
  "7295455": {
    "zipcode": "7295455",
    "prefectureCode": "34",
    "prefectureNumber": 34,
    "prefecture": "広島県",
    "city": "庄原市",
    "town": "東城町保田"
  },
  "7295456": {
    "zipcode": "7295456",
    "prefectureCode": "34",
    "prefectureNumber": 34,
    "prefecture": "広島県",
    "city": "庄原市",
    "town": "東城町森"
  },
  "7295501": {
    "zipcode": "7295501",
    "prefectureCode": "34",
    "prefectureNumber": 34,
    "prefecture": "広島県",
    "city": "庄原市",
    "town": "東城町小奴可"
  },
  "7295502": {
    "zipcode": "7295502",
    "prefectureCode": "34",
    "prefectureNumber": 34,
    "prefecture": "広島県",
    "city": "庄原市",
    "town": "東城町内堀"
  },
  "7295503": {
    "zipcode": "7295503",
    "prefectureCode": "34",
    "prefectureNumber": 34,
    "prefecture": "広島県",
    "city": "庄原市",
    "town": "東城町千鳥"
  },
  "7295504": {
    "zipcode": "7295504",
    "prefectureCode": "34",
    "prefectureNumber": 34,
    "prefecture": "広島県",
    "city": "庄原市",
    "town": "東城町小串"
  },
  "7295505": {
    "zipcode": "7295505",
    "prefectureCode": "34",
    "prefectureNumber": 34,
    "prefecture": "広島県",
    "city": "庄原市",
    "town": "東城町塩原"
  },
  "7295506": {
    "zipcode": "7295506",
    "prefectureCode": "34",
    "prefectureNumber": 34,
    "prefecture": "広島県",
    "city": "庄原市",
    "town": "東城町加谷"
  },
  "7295601": {
    "zipcode": "7295601",
    "prefectureCode": "34",
    "prefectureNumber": 34,
    "prefecture": "広島県",
    "city": "庄原市",
    "town": "西城町小鳥原"
  },
  "7295602": {
    "zipcode": "7295602",
    "prefectureCode": "34",
    "prefectureNumber": 34,
    "prefecture": "広島県",
    "city": "庄原市",
    "town": "西城町油木"
  },
  "7295603": {
    "zipcode": "7295603",
    "prefectureCode": "34",
    "prefectureNumber": 34,
    "prefecture": "広島県",
    "city": "庄原市",
    "town": "西城町熊野（上梶谷、下梶谷、落合、明賀）"
  },
  "7295611": {
    "zipcode": "7295611",
    "prefectureCode": "34",
    "prefectureNumber": 34,
    "prefecture": "広島県",
    "city": "庄原市",
    "town": "西城町三坂"
  },
  "7295612": {
    "zipcode": "7295612",
    "prefectureCode": "34",
    "prefectureNumber": 34,
    "prefecture": "広島県",
    "city": "庄原市",
    "town": "西城町高尾"
  },
  "7295613": {
    "zipcode": "7295613",
    "prefectureCode": "34",
    "prefectureNumber": 34,
    "prefecture": "広島県",
    "city": "庄原市",
    "town": "西城町八鳥（明賀、杉ノ原、落合駅前、石塚、二重坂）"
  },
  "7295721": {
    "zipcode": "7295721",
    "prefectureCode": "34",
    "prefectureNumber": 34,
    "prefecture": "広島県",
    "city": "庄原市",
    "town": "西城町八鳥（その他）"
  },
  "7295722": {
    "zipcode": "7295722",
    "prefectureCode": "34",
    "prefectureNumber": 34,
    "prefecture": "広島県",
    "city": "庄原市",
    "town": "西城町大佐"
  },
  "7295723": {
    "zipcode": "7295723",
    "prefectureCode": "34",
    "prefectureNumber": 34,
    "prefecture": "広島県",
    "city": "庄原市",
    "town": "西城町平子"
  },
  "7295731": {
    "zipcode": "7295731",
    "prefectureCode": "34",
    "prefectureNumber": 34,
    "prefecture": "広島県",
    "city": "庄原市",
    "town": "西城町西城"
  },
  "7295732": {
    "zipcode": "7295732",
    "prefectureCode": "34",
    "prefectureNumber": 34,
    "prefecture": "広島県",
    "city": "庄原市",
    "town": "西城町栗"
  },
  "7295733": {
    "zipcode": "7295733",
    "prefectureCode": "34",
    "prefectureNumber": 34,
    "prefecture": "広島県",
    "city": "庄原市",
    "town": "西城町入江"
  },
  "7295741": {
    "zipcode": "7295741",
    "prefectureCode": "34",
    "prefectureNumber": 34,
    "prefecture": "広島県",
    "city": "庄原市",
    "town": "西城町熊野（その他）"
  },
  "7295742": {
    "zipcode": "7295742",
    "prefectureCode": "34",
    "prefectureNumber": 34,
    "prefecture": "広島県",
    "city": "庄原市",
    "town": "西城町中野"
  },
  "7295743": {
    "zipcode": "7295743",
    "prefectureCode": "34",
    "prefectureNumber": 34,
    "prefecture": "広島県",
    "city": "庄原市",
    "town": "西城町中迫"
  },
  "7295744": {
    "zipcode": "7295744",
    "prefectureCode": "34",
    "prefectureNumber": 34,
    "prefecture": "広島県",
    "city": "庄原市",
    "town": "西城町大屋"
  },
  "7295745": {
    "zipcode": "7295745",
    "prefectureCode": "34",
    "prefectureNumber": 34,
    "prefecture": "広島県",
    "city": "庄原市",
    "town": "西城町福山"
  },
  "7295811": {
    "zipcode": "7295811",
    "prefectureCode": "34",
    "prefectureNumber": 34,
    "prefecture": "広島県",
    "city": "庄原市",
    "town": "高町"
  },
  "7295812": {
    "zipcode": "7295812",
    "prefectureCode": "34",
    "prefectureNumber": 34,
    "prefecture": "広島県",
    "city": "庄原市",
    "town": "小用町"
  },
  "7295813": {
    "zipcode": "7295813",
    "prefectureCode": "34",
    "prefectureNumber": 34,
    "prefecture": "広島県",
    "city": "庄原市",
    "town": "川西町"
  },
  "7296131": {
    "zipcode": "7296131",
    "prefectureCode": "34",
    "prefectureNumber": 34,
    "prefecture": "広島県",
    "city": "庄原市",
    "town": "山内町"
  },
  "7296132": {
    "zipcode": "7296132",
    "prefectureCode": "34",
    "prefectureNumber": 34,
    "prefecture": "広島県",
    "city": "庄原市",
    "town": "本郷町"
  },
  "7296133": {
    "zipcode": "7296133",
    "prefectureCode": "34",
    "prefectureNumber": 34,
    "prefecture": "広島県",
    "city": "庄原市",
    "town": "殿垣内町"
  },
  "7296134": {
    "zipcode": "7296134",
    "prefectureCode": "34",
    "prefectureNumber": 34,
    "prefecture": "広島県",
    "city": "庄原市",
    "town": "木戸町"
  },
  "7296141": {
    "zipcode": "7296141",
    "prefectureCode": "34",
    "prefectureNumber": 34,
    "prefecture": "広島県",
    "city": "庄原市",
    "town": "水越町"
  },
  "7296142": {
    "zipcode": "7296142",
    "prefectureCode": "34",
    "prefectureNumber": 34,
    "prefecture": "広島県",
    "city": "庄原市",
    "town": "高茂町"
  },
  "7296143": {
    "zipcode": "7296143",
    "prefectureCode": "34",
    "prefectureNumber": 34,
    "prefecture": "広島県",
    "city": "庄原市",
    "town": "尾引町"
  },
  "7296144": {
    "zipcode": "7296144",
    "prefectureCode": "34",
    "prefectureNumber": 34,
    "prefecture": "広島県",
    "city": "庄原市",
    "town": "平和町"
  },
  "7296201": {
    "zipcode": "7296201",
    "prefectureCode": "34",
    "prefectureNumber": 34,
    "prefecture": "広島県",
    "city": "三次市",
    "town": "和知町"
  },
  "7296202": {
    "zipcode": "7296202",
    "prefectureCode": "34",
    "prefectureNumber": 34,
    "prefecture": "広島県",
    "city": "三次市",
    "town": "向江田町"
  },
  "7296203": {
    "zipcode": "7296203",
    "prefectureCode": "34",
    "prefectureNumber": 34,
    "prefecture": "広島県",
    "city": "三次市",
    "town": "志幸町"
  },
  "7296204": {
    "zipcode": "7296204",
    "prefectureCode": "34",
    "prefectureNumber": 34,
    "prefecture": "広島県",
    "city": "三次市",
    "town": "木乗町"
  },
  "7296205": {
    "zipcode": "7296205",
    "prefectureCode": "34",
    "prefectureNumber": 34,
    "prefecture": "広島県",
    "city": "三次市",
    "town": "塩町"
  },
  "7296211": {
    "zipcode": "7296211",
    "prefectureCode": "34",
    "prefectureNumber": 34,
    "prefecture": "広島県",
    "city": "三次市",
    "town": "大田幸町"
  },
  "7296212": {
    "zipcode": "7296212",
    "prefectureCode": "34",
    "prefectureNumber": 34,
    "prefecture": "広島県",
    "city": "三次市",
    "town": "糸井町"
  },
  "7296213": {
    "zipcode": "7296213",
    "prefectureCode": "34",
    "prefectureNumber": 34,
    "prefecture": "広島県",
    "city": "三次市",
    "town": "廻神町"
  },
  "7296214": {
    "zipcode": "7296214",
    "prefectureCode": "34",
    "prefectureNumber": 34,
    "prefecture": "広島県",
    "city": "三次市",
    "town": "高杉町"
  },
  "7296215": {
    "zipcode": "7296215",
    "prefectureCode": "34",
    "prefectureNumber": 34,
    "prefecture": "広島県",
    "city": "三次市",
    "town": "江田川之内町"
  },
  "7296216": {
    "zipcode": "7296216",
    "prefectureCode": "34",
    "prefectureNumber": 34,
    "prefecture": "広島県",
    "city": "三次市",
    "town": "小田幸町"
  },
  "7296331": {
    "zipcode": "7296331",
    "prefectureCode": "34",
    "prefectureNumber": 34,
    "prefecture": "広島県",
    "city": "三次市",
    "town": "下志和地町"
  },
  "7296332": {
    "zipcode": "7296332",
    "prefectureCode": "34",
    "prefectureNumber": 34,
    "prefecture": "広島県",
    "city": "三次市",
    "town": "上志和地町"
  },
  "7296333": {
    "zipcode": "7296333",
    "prefectureCode": "34",
    "prefectureNumber": 34,
    "prefecture": "広島県",
    "city": "三次市",
    "town": "下川立町"
  },
  "7296334": {
    "zipcode": "7296334",
    "prefectureCode": "34",
    "prefectureNumber": 34,
    "prefecture": "広島県",
    "city": "三次市",
    "town": "上川立町"
  },
  "7296335": {
    "zipcode": "7296335",
    "prefectureCode": "34",
    "prefectureNumber": 34,
    "prefecture": "広島県",
    "city": "三次市",
    "town": "秋町"
  },
  "7296611": {
    "zipcode": "7296611",
    "prefectureCode": "34",
    "prefectureNumber": 34,
    "prefecture": "広島県",
    "city": "三次市",
    "town": "三和町福田"
  },
  "7296612": {
    "zipcode": "7296612",
    "prefectureCode": "34",
    "prefectureNumber": 34,
    "prefecture": "広島県",
    "city": "三次市",
    "town": "三和町下板木"
  },
  "7296613": {
    "zipcode": "7296613",
    "prefectureCode": "34",
    "prefectureNumber": 34,
    "prefecture": "広島県",
    "city": "三次市",
    "town": "三和町有原"
  },
  "7296614": {
    "zipcode": "7296614",
    "prefectureCode": "34",
    "prefectureNumber": 34,
    "prefecture": "広島県",
    "city": "三次市",
    "town": "三和町羽出庭"
  },
  "7296615": {
    "zipcode": "7296615",
    "prefectureCode": "34",
    "prefectureNumber": 34,
    "prefecture": "広島県",
    "city": "三次市",
    "town": "三和町上板木"
  },
  "7296616": {
    "zipcode": "7296616",
    "prefectureCode": "34",
    "prefectureNumber": 34,
    "prefecture": "広島県",
    "city": "三次市",
    "town": "三和町大力谷"
  },
  "7296701": {
    "zipcode": "7296701",
    "prefectureCode": "34",
    "prefectureNumber": 34,
    "prefecture": "広島県",
    "city": "三次市",
    "town": "三和町上壱"
  },
  "7296702": {
    "zipcode": "7296702",
    "prefectureCode": "34",
    "prefectureNumber": 34,
    "prefecture": "広島県",
    "city": "三次市",
    "town": "三和町敷名（その他）"
  },
  "7296711": {
    "zipcode": "7296711",
    "prefectureCode": "34",
    "prefectureNumber": 34,
    "prefecture": "広島県",
    "city": "世羅郡世羅町",
    "town": "黒川"
  },
  "7296712": {
    "zipcode": "7296712",
    "prefectureCode": "34",
    "prefectureNumber": 34,
    "prefecture": "広島県",
    "city": "世羅郡世羅町",
    "town": "吉原"
  },
  "7296713": {
    "zipcode": "7296713",
    "prefectureCode": "34",
    "prefectureNumber": 34,
    "prefecture": "広島県",
    "city": "世羅郡世羅町",
    "town": "中"
  },
  "7296714": {
    "zipcode": "7296714",
    "prefectureCode": "34",
    "prefectureNumber": 34,
    "prefecture": "広島県",
    "city": "世羅郡世羅町",
    "town": "上津田"
  },
  "7296715": {
    "zipcode": "7296715",
    "prefectureCode": "34",
    "prefectureNumber": 34,
    "prefecture": "広島県",
    "city": "世羅郡世羅町",
    "town": "下津田"
  },
  "7296716": {
    "zipcode": "7296716",
    "prefectureCode": "34",
    "prefectureNumber": 34,
    "prefecture": "広島県",
    "city": "世羅郡世羅町",
    "town": "長田"
  }
}
