{
  "7310100": {
    "zipcode": "7310100",
    "prefectureCode": "34",
    "prefectureNumber": 34,
    "prefecture": "広島県",
    "city": "広島市安佐南区",
    "town": "以下に掲載がない場合"
  },
  "7310101": {
    "zipcode": "7310101",
    "prefectureCode": "34",
    "prefectureNumber": 34,
    "prefecture": "広島県",
    "city": "広島市安佐南区",
    "town": "八木町"
  },
  "7310102": {
    "zipcode": "7310102",
    "prefectureCode": "34",
    "prefectureNumber": 34,
    "prefecture": "広島県",
    "city": "広島市安佐南区",
    "town": "川内"
  },
  "7310103": {
    "zipcode": "7310103",
    "prefectureCode": "34",
    "prefectureNumber": 34,
    "prefecture": "広島県",
    "city": "広島市安佐南区",
    "town": "緑井"
  },
  "7310111": {
    "zipcode": "7310111",
    "prefectureCode": "34",
    "prefectureNumber": 34,
    "prefecture": "広島県",
    "city": "広島市安佐南区",
    "town": "東野"
  },
  "7310112": {
    "zipcode": "7310112",
    "prefectureCode": "34",
    "prefectureNumber": 34,
    "prefecture": "広島県",
    "city": "広島市安佐南区",
    "town": "東原"
  },
  "7310113": {
    "zipcode": "7310113",
    "prefectureCode": "34",
    "prefectureNumber": 34,
    "prefecture": "広島県",
    "city": "広島市安佐南区",
    "town": "西原"
  },
  "7310121": {
    "zipcode": "7310121",
    "prefectureCode": "34",
    "prefectureNumber": 34,
    "prefecture": "広島県",
    "city": "広島市安佐南区",
    "town": "中須"
  },
  "7310122": {
    "zipcode": "7310122",
    "prefectureCode": "34",
    "prefectureNumber": 34,
    "prefecture": "広島県",
    "city": "広島市安佐南区",
    "town": "中筋"
  },
  "7310123": {
    "zipcode": "7310123",
    "prefectureCode": "34",
    "prefectureNumber": 34,
    "prefecture": "広島県",
    "city": "広島市安佐南区",
    "town": "古市"
  },
  "7310124": {
    "zipcode": "7310124",
    "prefectureCode": "34",
    "prefectureNumber": 34,
    "prefecture": "広島県",
    "city": "広島市安佐南区",
    "town": "大町東"
  },
  "7310125": {
    "zipcode": "7310125",
    "prefectureCode": "34",
    "prefectureNumber": 34,
    "prefecture": "広島県",
    "city": "広島市安佐南区",
    "town": "大町西"
  },
  "7310126": {
    "zipcode": "7310126",
    "prefectureCode": "34",
    "prefectureNumber": 34,
    "prefecture": "広島県",
    "city": "広島市安佐南区",
    "town": "大町"
  },
  "7310135": {
    "zipcode": "7310135",
    "prefectureCode": "34",
    "prefectureNumber": 34,
    "prefecture": "広島県",
    "city": "広島市安佐南区",
    "town": "長束"
  },
  "7310136": {
    "zipcode": "7310136",
    "prefectureCode": "34",
    "prefectureNumber": 34,
    "prefecture": "広島県",
    "city": "広島市安佐南区",
    "town": "長束西"
  },
  "7310137": {
    "zipcode": "7310137",
    "prefectureCode": "34",
    "prefectureNumber": 34,
    "prefecture": "広島県",
    "city": "広島市安佐南区",
    "town": "山本町"
  },
  "7310138": {
    "zipcode": "7310138",
    "prefectureCode": "34",
    "prefectureNumber": 34,
    "prefecture": "広島県",
    "city": "広島市安佐南区",
    "town": "祇園"
  },
  "7310139": {
    "zipcode": "7310139",
    "prefectureCode": "34",
    "prefectureNumber": 34,
    "prefecture": "広島県",
    "city": "広島市安佐南区",
    "town": "山本新町"
  },
  "7310141": {
    "zipcode": "7310141",
    "prefectureCode": "34",
    "prefectureNumber": 34,
    "prefecture": "広島県",
    "city": "広島市安佐南区",
    "town": "相田"
  },
  "7310142": {
    "zipcode": "7310142",
    "prefectureCode": "34",
    "prefectureNumber": 34,
    "prefecture": "広島県",
    "city": "広島市安佐南区",
    "town": "高取南町"
  },
  "7310143": {
    "zipcode": "7310143",
    "prefectureCode": "34",
    "prefectureNumber": 34,
    "prefecture": "広島県",
    "city": "広島市安佐南区",
    "town": "長楽寺町"
  },
  "7310144": {
    "zipcode": "7310144",
    "prefectureCode": "34",
    "prefectureNumber": 34,
    "prefecture": "広島県",
    "city": "広島市安佐南区",
    "town": "高取北"
  },
  "7310151": {
    "zipcode": "7310151",
    "prefectureCode": "34",
    "prefectureNumber": 34,
    "prefecture": "広島県",
    "city": "広島市安佐南区",
    "town": "毘沙門台東"
  },
  "7310152": {
    "zipcode": "7310152",
    "prefectureCode": "34",
    "prefectureNumber": 34,
    "prefecture": "広島県",
    "city": "広島市安佐南区",
    "town": "毘沙門台"
  },
  "7310153": {
    "zipcode": "7310153",
    "prefectureCode": "34",
    "prefectureNumber": 34,
    "prefecture": "広島県",
    "city": "広島市安佐南区",
    "town": "安東"
  },
  "7310154": {
    "zipcode": "7310154",
    "prefectureCode": "34",
    "prefectureNumber": 34,
    "prefecture": "広島県",
    "city": "広島市安佐南区",
    "town": "上安町"
  },
  "7310201": {
    "zipcode": "7310201",
    "prefectureCode": "34",
    "prefectureNumber": 34,
    "prefecture": "広島県",
    "city": "広島市安佐北区",
    "town": "大林"
  },
  "7310202": {
    "zipcode": "7310202",
    "prefectureCode": "34",
    "prefectureNumber": 34,
    "prefecture": "広島県",
    "city": "広島市安佐北区",
    "town": "大林町"
  },
  "7310211": {
    "zipcode": "7310211",
    "prefectureCode": "34",
    "prefectureNumber": 34,
    "prefecture": "広島県",
    "city": "広島市安佐北区",
    "town": "三入"
  },
  "7310212": {
    "zipcode": "7310212",
    "prefectureCode": "34",
    "prefectureNumber": 34,
    "prefecture": "広島県",
    "city": "広島市安佐北区",
    "town": "三入東"
  },
  "7310213": {
    "zipcode": "7310213",
    "prefectureCode": "34",
    "prefectureNumber": 34,
    "prefecture": "広島県",
    "city": "広島市安佐北区",
    "town": "三入南"
  },
  "7310214": {
    "zipcode": "7310214",
    "prefectureCode": "34",
    "prefectureNumber": 34,
    "prefecture": "広島県",
    "city": "広島市安佐北区",
    "town": "可部町桐原"
  },
  "7310215": {
    "zipcode": "7310215",
    "prefectureCode": "34",
    "prefectureNumber": 34,
    "prefecture": "広島県",
    "city": "広島市安佐北区",
    "town": "可部町南原"
  },
  "7310216": {
    "zipcode": "7310216",
    "prefectureCode": "34",
    "prefectureNumber": 34,
    "prefecture": "広島県",
    "city": "広島市安佐北区",
    "town": "可部町上町屋"
  },
  "7310217": {
    "zipcode": "7310217",
    "prefectureCode": "34",
    "prefectureNumber": 34,
    "prefecture": "広島県",
    "city": "広島市安佐北区",
    "town": "可部町下町屋"
  },
  "7310221": {
    "zipcode": "7310221",
    "prefectureCode": "34",
    "prefectureNumber": 34,
    "prefecture": "広島県",
    "city": "広島市安佐北区",
    "town": "可部"
  },
  "7310222": {
    "zipcode": "7310222",
    "prefectureCode": "34",
    "prefectureNumber": 34,
    "prefecture": "広島県",
    "city": "広島市安佐北区",
    "town": "可部東"
  },
  "7310223": {
    "zipcode": "7310223",
    "prefectureCode": "34",
    "prefectureNumber": 34,
    "prefecture": "広島県",
    "city": "広島市安佐北区",
    "town": "可部南"
  },
  "7310224": {
    "zipcode": "7310224",
    "prefectureCode": "34",
    "prefectureNumber": 34,
    "prefecture": "広島県",
    "city": "広島市安佐北区",
    "town": "可部町中島"
  },
  "7310225": {
    "zipcode": "7310225",
    "prefectureCode": "34",
    "prefectureNumber": 34,
    "prefecture": "広島県",
    "city": "広島市安佐北区",
    "town": "可部町上原"
  },
  "7310231": {
    "zipcode": "7310231",
    "prefectureCode": "34",
    "prefectureNumber": 34,
    "prefecture": "広島県",
    "city": "広島市安佐北区",
    "town": "亀山"
  },
  "7310232": {
    "zipcode": "7310232",
    "prefectureCode": "34",
    "prefectureNumber": 34,
    "prefecture": "広島県",
    "city": "広島市安佐北区",
    "town": "亀山南"
  },
  "7310233": {
    "zipcode": "7310233",
    "prefectureCode": "34",
    "prefectureNumber": 34,
    "prefecture": "広島県",
    "city": "広島市安佐北区",
    "town": "亀山西"
  },
  "7310234": {
    "zipcode": "7310234",
    "prefectureCode": "34",
    "prefectureNumber": 34,
    "prefecture": "広島県",
    "city": "広島市安佐北区",
    "town": "可部町今井田"
  },
  "7310235": {
    "zipcode": "7310235",
    "prefectureCode": "34",
    "prefectureNumber": 34,
    "prefecture": "広島県",
    "city": "広島市安佐北区",
    "town": "可部町勝木"
  },
  "7310236": {
    "zipcode": "7310236",
    "prefectureCode": "34",
    "prefectureNumber": 34,
    "prefecture": "広島県",
    "city": "広島市安佐北区",
    "town": "可部町綾ケ谷"
  },
  "7310301": {
    "zipcode": "7310301",
    "prefectureCode": "34",
    "prefectureNumber": 34,
    "prefecture": "広島県",
    "city": "安芸高田市",
    "town": "八千代町土師"
  },
  "7310302": {
    "zipcode": "7310302",
    "prefectureCode": "34",
    "prefectureNumber": 34,
    "prefecture": "広島県",
    "city": "安芸高田市",
    "town": "八千代町勝田"
  },
  "7310303": {
    "zipcode": "7310303",
    "prefectureCode": "34",
    "prefectureNumber": 34,
    "prefecture": "広島県",
    "city": "安芸高田市",
    "town": "八千代町佐々井"
  },
  "7310304": {
    "zipcode": "7310304",
    "prefectureCode": "34",
    "prefectureNumber": 34,
    "prefecture": "広島県",
    "city": "安芸高田市",
    "town": "八千代町下根"
  },
  "7310305": {
    "zipcode": "7310305",
    "prefectureCode": "34",
    "prefectureNumber": 34,
    "prefecture": "広島県",
    "city": "安芸高田市",
    "town": "八千代町上根"
  },
  "7310306": {
    "zipcode": "7310306",
    "prefectureCode": "34",
    "prefectureNumber": 34,
    "prefecture": "広島県",
    "city": "安芸高田市",
    "town": "八千代町向山"
  },
  "7310500": {
    "zipcode": "7310500",
    "prefectureCode": "34",
    "prefectureNumber": 34,
    "prefecture": "広島県",
    "city": "安芸高田市",
    "town": "以下に掲載がない場合"
  },
  "7310501": {
    "zipcode": "7310501",
    "prefectureCode": "34",
    "prefectureNumber": 34,
    "prefecture": "広島県",
    "city": "安芸高田市",
    "town": "吉田町吉田"
  },
  "7310502": {
    "zipcode": "7310502",
    "prefectureCode": "34",
    "prefectureNumber": 34,
    "prefecture": "広島県",
    "city": "安芸高田市",
    "town": "吉田町国司"
  },
  "7310511": {
    "zipcode": "7310511",
    "prefectureCode": "34",
    "prefectureNumber": 34,
    "prefecture": "広島県",
    "city": "安芸高田市",
    "town": "吉田町竹原"
  },
  "7310512": {
    "zipcode": "7310512",
    "prefectureCode": "34",
    "prefectureNumber": 34,
    "prefecture": "広島県",
    "city": "安芸高田市",
    "town": "吉田町小山"
  },
  "7310513": {
    "zipcode": "7310513",
    "prefectureCode": "34",
    "prefectureNumber": 34,
    "prefecture": "広島県",
    "city": "安芸高田市",
    "town": "吉田町福原"
  },
  "7310521": {
    "zipcode": "7310521",
    "prefectureCode": "34",
    "prefectureNumber": 34,
    "prefecture": "広島県",
    "city": "安芸高田市",
    "town": "吉田町常友"
  },
  "7310522": {
    "zipcode": "7310522",
    "prefectureCode": "34",
    "prefectureNumber": 34,
    "prefecture": "広島県",
    "city": "安芸高田市",
    "town": "吉田町常楽寺"
  },
  "7310523": {
    "zipcode": "7310523",
    "prefectureCode": "34",
    "prefectureNumber": 34,
    "prefecture": "広島県",
    "city": "安芸高田市",
    "town": "吉田町山手"
  },
  "7310524": {
    "zipcode": "7310524",
    "prefectureCode": "34",
    "prefectureNumber": 34,
    "prefecture": "広島県",
    "city": "安芸高田市",
    "town": "吉田町川本"
  },
  "7310525": {
    "zipcode": "7310525",
    "prefectureCode": "34",
    "prefectureNumber": 34,
    "prefecture": "広島県",
    "city": "安芸高田市",
    "town": "吉田町中馬"
  },
  "7310531": {
    "zipcode": "7310531",
    "prefectureCode": "34",
    "prefectureNumber": 34,
    "prefecture": "広島県",
    "city": "安芸高田市",
    "town": "吉田町下入江"
  },
  "7310532": {
    "zipcode": "7310532",
    "prefectureCode": "34",
    "prefectureNumber": 34,
    "prefecture": "広島県",
    "city": "安芸高田市",
    "town": "吉田町上入江"
  },
  "7310533": {
    "zipcode": "7310533",
    "prefectureCode": "34",
    "prefectureNumber": 34,
    "prefecture": "広島県",
    "city": "安芸高田市",
    "town": "吉田町長屋"
  },
  "7310534": {
    "zipcode": "7310534",
    "prefectureCode": "34",
    "prefectureNumber": 34,
    "prefecture": "広島県",
    "city": "安芸高田市",
    "town": "吉田町桂"
  },
  "7310535": {
    "zipcode": "7310535",
    "prefectureCode": "34",
    "prefectureNumber": 34,
    "prefecture": "広島県",
    "city": "安芸高田市",
    "town": "吉田町高野"
  },
  "7310541": {
    "zipcode": "7310541",
    "prefectureCode": "34",
    "prefectureNumber": 34,
    "prefecture": "広島県",
    "city": "安芸高田市",
    "town": "吉田町山部"
  },
  "7310542": {
    "zipcode": "7310542",
    "prefectureCode": "34",
    "prefectureNumber": 34,
    "prefecture": "広島県",
    "city": "安芸高田市",
    "town": "吉田町相合"
  },
  "7310543": {
    "zipcode": "7310543",
    "prefectureCode": "34",
    "prefectureNumber": 34,
    "prefecture": "広島県",
    "city": "安芸高田市",
    "town": "吉田町西浦"
  },
  "7310544": {
    "zipcode": "7310544",
    "prefectureCode": "34",
    "prefectureNumber": 34,
    "prefecture": "広島県",
    "city": "安芸高田市",
    "town": "吉田町多治比"
  },
  "7310611": {
    "zipcode": "7310611",
    "prefectureCode": "34",
    "prefectureNumber": 34,
    "prefecture": "広島県",
    "city": "安芸高田市",
    "town": "美土里町横田"
  },
  "7310612": {
    "zipcode": "7310612",
    "prefectureCode": "34",
    "prefectureNumber": 34,
    "prefecture": "広島県",
    "city": "安芸高田市",
    "town": "美土里町本郷"
  },
  "7310701": {
    "zipcode": "7310701",
    "prefectureCode": "34",
    "prefectureNumber": 34,
    "prefecture": "広島県",
    "city": "安芸高田市",
    "town": "美土里町北"
  },
  "7310702": {
    "zipcode": "7310702",
    "prefectureCode": "34",
    "prefectureNumber": 34,
    "prefecture": "広島県",
    "city": "安芸高田市",
    "town": "美土里町桑田"
  },
  "7310703": {
    "zipcode": "7310703",
    "prefectureCode": "34",
    "prefectureNumber": 34,
    "prefecture": "広島県",
    "city": "安芸高田市",
    "town": "美土里町生田"
  },
  "7311141": {
    "zipcode": "7311141",
    "prefectureCode": "34",
    "prefectureNumber": 34,
    "prefecture": "広島県",
    "city": "広島市安佐北区",
    "town": "安佐町鈴張"
  },
  "7311142": {
    "zipcode": "7311142",
    "prefectureCode": "34",
    "prefectureNumber": 34,
    "prefecture": "広島県",
    "city": "広島市安佐北区",
    "town": "安佐町飯室"
  },
  "7311171": {
    "zipcode": "7311171",
    "prefectureCode": "34",
    "prefectureNumber": 34,
    "prefecture": "広島県",
    "city": "広島市安佐北区",
    "town": "安佐町小河内"
  },
  "7311221": {
    "zipcode": "7311221",
    "prefectureCode": "34",
    "prefectureNumber": 34,
    "prefecture": "広島県",
    "city": "山県郡北広島町",
    "town": "今吉田"
  },
  "7311222": {
    "zipcode": "7311222",
    "prefectureCode": "34",
    "prefectureNumber": 34,
    "prefecture": "広島県",
    "city": "山県郡北広島町",
    "town": "阿坂"
  },
  "7311223": {
    "zipcode": "7311223",
    "prefectureCode": "34",
    "prefectureNumber": 34,
    "prefecture": "広島県",
    "city": "山県郡北広島町",
    "town": "吉木（その他）"
  },
  "7311500": {
    "zipcode": "7311500",
    "prefectureCode": "34",
    "prefectureNumber": 34,
    "prefecture": "広島県",
    "city": "山県郡北広島町",
    "town": "以下に掲載がない場合"
  },
  "7311501": {
    "zipcode": "7311501",
    "prefectureCode": "34",
    "prefectureNumber": 34,
    "prefecture": "広島県",
    "city": "山県郡北広島町",
    "town": "川戸"
  },
  "7311502": {
    "zipcode": "7311502",
    "prefectureCode": "34",
    "prefectureNumber": 34,
    "prefecture": "広島県",
    "city": "山県郡北広島町",
    "town": "蔵迫"
  },
  "7311503": {
    "zipcode": "7311503",
    "prefectureCode": "34",
    "prefectureNumber": 34,
    "prefecture": "広島県",
    "city": "山県郡北広島町",
    "town": "有間"
  },
  "7311504": {
    "zipcode": "7311504",
    "prefectureCode": "34",
    "prefectureNumber": 34,
    "prefecture": "広島県",
    "city": "山県郡北広島町",
    "town": "寺原"
  },
  "7311505": {
    "zipcode": "7311505",
    "prefectureCode": "34",
    "prefectureNumber": 34,
    "prefecture": "広島県",
    "city": "山県郡北広島町",
    "town": "舞綱"
  },
  "7311506": {
    "zipcode": "7311506",
    "prefectureCode": "34",
    "prefectureNumber": 34,
    "prefecture": "広島県",
    "city": "山県郡北広島町",
    "town": "中山"
  },
  "7311511": {
    "zipcode": "7311511",
    "prefectureCode": "34",
    "prefectureNumber": 34,
    "prefecture": "広島県",
    "city": "山県郡北広島町",
    "town": "惣森"
  },
  "7311512": {
    "zipcode": "7311512",
    "prefectureCode": "34",
    "prefectureNumber": 34,
    "prefecture": "広島県",
    "city": "山県郡北広島町",
    "town": "川東"
  },
  "7311513": {
    "zipcode": "7311513",
    "prefectureCode": "34",
    "prefectureNumber": 34,
    "prefecture": "広島県",
    "city": "山県郡北広島町",
    "town": "川井"
  },
  "7311514": {
    "zipcode": "7311514",
    "prefectureCode": "34",
    "prefectureNumber": 34,
    "prefecture": "広島県",
    "city": "山県郡北広島町",
    "town": "新氏神"
  },
  "7311515": {
    "zipcode": "7311515",
    "prefectureCode": "34",
    "prefectureNumber": 34,
    "prefecture": "広島県",
    "city": "山県郡北広島町",
    "town": "壬生"
  },
  "7311516": {
    "zipcode": "7311516",
    "prefectureCode": "34",
    "prefectureNumber": 34,
    "prefecture": "広島県",
    "city": "山県郡北広島町",
    "town": "川西"
  },
  "7311521": {
    "zipcode": "7311521",
    "prefectureCode": "34",
    "prefectureNumber": 34,
    "prefecture": "広島県",
    "city": "山県郡北広島町",
    "town": "丁保余原"
  },
  "7311522": {
    "zipcode": "7311522",
    "prefectureCode": "34",
    "prefectureNumber": 34,
    "prefecture": "広島県",
    "city": "山県郡北広島町",
    "town": "新郷"
  },
  "7311523": {
    "zipcode": "7311523",
    "prefectureCode": "34",
    "prefectureNumber": 34,
    "prefecture": "広島県",
    "city": "山県郡北広島町",
    "town": "南方"
  },
  "7311524": {
    "zipcode": "7311524",
    "prefectureCode": "34",
    "prefectureNumber": 34,
    "prefecture": "広島県",
    "city": "山県郡北広島町",
    "town": "木次"
  },
  "7311525": {
    "zipcode": "7311525",
    "prefectureCode": "34",
    "prefectureNumber": 34,
    "prefecture": "広島県",
    "city": "山県郡北広島町",
    "town": "石井谷"
  },
  "7311526": {
    "zipcode": "7311526",
    "prefectureCode": "34",
    "prefectureNumber": 34,
    "prefecture": "広島県",
    "city": "山県郡北広島町",
    "town": "本地"
  },
  "7311531": {
    "zipcode": "7311531",
    "prefectureCode": "34",
    "prefectureNumber": 34,
    "prefecture": "広島県",
    "city": "山県郡北広島町",
    "town": "春木"
  },
  "7311532": {
    "zipcode": "7311532",
    "prefectureCode": "34",
    "prefectureNumber": 34,
    "prefecture": "広島県",
    "city": "山県郡北広島町",
    "town": "古保利"
  },
  "7311533": {
    "zipcode": "7311533",
    "prefectureCode": "34",
    "prefectureNumber": 34,
    "prefecture": "広島県",
    "city": "山県郡北広島町",
    "town": "有田"
  },
  "7311534": {
    "zipcode": "7311534",
    "prefectureCode": "34",
    "prefectureNumber": 34,
    "prefecture": "広島県",
    "city": "山県郡北広島町",
    "town": "後有田"
  },
  "7311535": {
    "zipcode": "7311535",
    "prefectureCode": "34",
    "prefectureNumber": 34,
    "prefecture": "広島県",
    "city": "山県郡北広島町",
    "town": "今田"
  },
  "7311701": {
    "zipcode": "7311701",
    "prefectureCode": "34",
    "prefectureNumber": 34,
    "prefecture": "広島県",
    "city": "山県郡北広島町",
    "town": "志路原"
  },
  "7311702": {
    "zipcode": "7311702",
    "prefectureCode": "34",
    "prefectureNumber": 34,
    "prefecture": "広島県",
    "city": "山県郡北広島町",
    "town": "上石"
  },
  "7311703": {
    "zipcode": "7311703",
    "prefectureCode": "34",
    "prefectureNumber": 34,
    "prefecture": "広島県",
    "city": "山県郡北広島町",
    "town": "海応寺"
  },
  "7311704": {
    "zipcode": "7311704",
    "prefectureCode": "34",
    "prefectureNumber": 34,
    "prefecture": "広島県",
    "city": "山県郡北広島町",
    "town": "下石"
  },
  "7311705": {
    "zipcode": "7311705",
    "prefectureCode": "34",
    "prefectureNumber": 34,
    "prefecture": "広島県",
    "city": "山県郡北広島町",
    "town": "西宗"
  },
  "7311706": {
    "zipcode": "7311706",
    "prefectureCode": "34",
    "prefectureNumber": 34,
    "prefecture": "広島県",
    "city": "山県郡北広島町",
    "town": "中原"
  },
  "7311711": {
    "zipcode": "7311711",
    "prefectureCode": "34",
    "prefectureNumber": 34,
    "prefecture": "広島県",
    "city": "山県郡北広島町",
    "town": "戸谷"
  },
  "7311712": {
    "zipcode": "7311712",
    "prefectureCode": "34",
    "prefectureNumber": 34,
    "prefecture": "広島県",
    "city": "山県郡北広島町",
    "town": "都志見"
  },
  "7311713": {
    "zipcode": "7311713",
    "prefectureCode": "34",
    "prefectureNumber": 34,
    "prefecture": "広島県",
    "city": "山県郡北広島町",
    "town": "長笹"
  },
  "7311714": {
    "zipcode": "7311714",
    "prefectureCode": "34",
    "prefectureNumber": 34,
    "prefecture": "広島県",
    "city": "山県郡北広島町",
    "town": "吉木（水根）"
  },
  "7312101": {
    "zipcode": "7312101",
    "prefectureCode": "34",
    "prefectureNumber": 34,
    "prefecture": "広島県",
    "city": "山県郡北広島町",
    "town": "宮迫"
  },
  "7312102": {
    "zipcode": "7312102",
    "prefectureCode": "34",
    "prefectureNumber": 34,
    "prefecture": "広島県",
    "city": "山県郡北広島町",
    "town": "岩戸"
  },
  "7312103": {
    "zipcode": "7312103",
    "prefectureCode": "34",
    "prefectureNumber": 34,
    "prefecture": "広島県",
    "city": "山県郡北広島町",
    "town": "新庄"
  },
  "7312104": {
    "zipcode": "7312104",
    "prefectureCode": "34",
    "prefectureNumber": 34,
    "prefecture": "広島県",
    "city": "山県郡北広島町",
    "town": "大朝"
  },
  "7312105": {
    "zipcode": "7312105",
    "prefectureCode": "34",
    "prefectureNumber": 34,
    "prefecture": "広島県",
    "city": "山県郡北広島町",
    "town": "田原"
  },
  "7312106": {
    "zipcode": "7312106",
    "prefectureCode": "34",
    "prefectureNumber": 34,
    "prefecture": "広島県",
    "city": "山県郡北広島町",
    "town": "筏津"
  },
  "7312107": {
    "zipcode": "7312107",
    "prefectureCode": "34",
    "prefectureNumber": 34,
    "prefecture": "広島県",
    "city": "山県郡北広島町",
    "town": "大塚"
  },
  "7312201": {
    "zipcode": "7312201",
    "prefectureCode": "34",
    "prefectureNumber": 34,
    "prefecture": "広島県",
    "city": "山県郡北広島町",
    "town": "高野"
  },
  "7312202": {
    "zipcode": "7312202",
    "prefectureCode": "34",
    "prefectureNumber": 34,
    "prefecture": "広島県",
    "city": "山県郡北広島町",
    "town": "溝口"
  },
  "7312203": {
    "zipcode": "7312203",
    "prefectureCode": "34",
    "prefectureNumber": 34,
    "prefecture": "広島県",
    "city": "山県郡北広島町",
    "town": "小原"
  },
  "7312204": {
    "zipcode": "7312204",
    "prefectureCode": "34",
    "prefectureNumber": 34,
    "prefecture": "広島県",
    "city": "山県郡北広島町",
    "town": "大暮"
  },
  "7312205": {
    "zipcode": "7312205",
    "prefectureCode": "34",
    "prefectureNumber": 34,
    "prefecture": "広島県",
    "city": "山県郡北広島町",
    "town": "米沢"
  },
  "7312206": {
    "zipcode": "7312206",
    "prefectureCode": "34",
    "prefectureNumber": 34,
    "prefecture": "広島県",
    "city": "山県郡北広島町",
    "town": "移原"
  },
  "7312311": {
    "zipcode": "7312311",
    "prefectureCode": "34",
    "prefectureNumber": 34,
    "prefecture": "広島県",
    "city": "山県郡北広島町",
    "town": "土橋"
  },
  "7312312": {
    "zipcode": "7312312",
    "prefectureCode": "34",
    "prefectureNumber": 34,
    "prefecture": "広島県",
    "city": "山県郡北広島町",
    "town": "奥原"
  },
  "7312313": {
    "zipcode": "7312313",
    "prefectureCode": "34",
    "prefectureNumber": 34,
    "prefecture": "広島県",
    "city": "山県郡北広島町",
    "town": "草安"
  },
  "7312314": {
    "zipcode": "7312314",
    "prefectureCode": "34",
    "prefectureNumber": 34,
    "prefecture": "広島県",
    "city": "山県郡北広島町",
    "town": "才乙"
  },
  "7312315": {
    "zipcode": "7312315",
    "prefectureCode": "34",
    "prefectureNumber": 34,
    "prefecture": "広島県",
    "city": "山県郡北広島町",
    "town": "大利原"
  },
  "7312316": {
    "zipcode": "7312316",
    "prefectureCode": "34",
    "prefectureNumber": 34,
    "prefecture": "広島県",
    "city": "山県郡北広島町",
    "town": "南門原"
  },
  "7312317": {
    "zipcode": "7312317",
    "prefectureCode": "34",
    "prefectureNumber": 34,
    "prefecture": "広島県",
    "city": "山県郡北広島町",
    "town": "苅屋形"
  },
  "7312321": {
    "zipcode": "7312321",
    "prefectureCode": "34",
    "prefectureNumber": 34,
    "prefecture": "広島県",
    "city": "山県郡北広島町",
    "town": "板村"
  },
  "7312322": {
    "zipcode": "7312322",
    "prefectureCode": "34",
    "prefectureNumber": 34,
    "prefecture": "広島県",
    "city": "山県郡北広島町",
    "town": "細見（その他）"
  },
  "7312323": {
    "zipcode": "7312323",
    "prefectureCode": "34",
    "prefectureNumber": 34,
    "prefecture": "広島県",
    "city": "山県郡北広島町",
    "town": "川小田"
  },
  "7312324": {
    "zipcode": "7312324",
    "prefectureCode": "34",
    "prefectureNumber": 34,
    "prefecture": "広島県",
    "city": "山県郡北広島町",
    "town": "奥中原"
  },
  "7312431": {
    "zipcode": "7312431",
    "prefectureCode": "34",
    "prefectureNumber": 34,
    "prefecture": "広島県",
    "city": "山県郡北広島町",
    "town": "荒神原"
  },
  "7312432": {
    "zipcode": "7312432",
    "prefectureCode": "34",
    "prefectureNumber": 34,
    "prefecture": "広島県",
    "city": "山県郡北広島町",
    "town": "中祖"
  },
  "7312433": {
    "zipcode": "7312433",
    "prefectureCode": "34",
    "prefectureNumber": 34,
    "prefecture": "広島県",
    "city": "山県郡北広島町",
    "town": "吉見坂"
  },
  "7312434": {
    "zipcode": "7312434",
    "prefectureCode": "34",
    "prefectureNumber": 34,
    "prefecture": "広島県",
    "city": "山県郡北広島町",
    "town": "橋山"
  },
  "7312435": {
    "zipcode": "7312435",
    "prefectureCode": "34",
    "prefectureNumber": 34,
    "prefecture": "広島県",
    "city": "山県郡北広島町",
    "town": "空城"
  },
  "7312436": {
    "zipcode": "7312436",
    "prefectureCode": "34",
    "prefectureNumber": 34,
    "prefecture": "広島県",
    "city": "山県郡北広島町",
    "town": "政所"
  },
  "7312437": {
    "zipcode": "7312437",
    "prefectureCode": "34",
    "prefectureNumber": 34,
    "prefecture": "広島県",
    "city": "山県郡北広島町",
    "town": "大元"
  },
  "7312441": {
    "zipcode": "7312441",
    "prefectureCode": "34",
    "prefectureNumber": 34,
    "prefecture": "広島県",
    "city": "山県郡北広島町",
    "town": "宮地"
  },
  "7312442": {
    "zipcode": "7312442",
    "prefectureCode": "34",
    "prefectureNumber": 34,
    "prefecture": "広島県",
    "city": "山県郡北広島町",
    "town": "雲耕"
  },
  "7312551": {
    "zipcode": "7312551",
    "prefectureCode": "34",
    "prefectureNumber": 34,
    "prefecture": "広島県",
    "city": "山県郡北広島町",
    "town": "東八幡原"
  },
  "7312552": {
    "zipcode": "7312552",
    "prefectureCode": "34",
    "prefectureNumber": 34,
    "prefecture": "広島県",
    "city": "山県郡北広島町",
    "town": "西八幡原"
  },
  "7313161": {
    "zipcode": "7313161",
    "prefectureCode": "34",
    "prefectureNumber": 34,
    "prefecture": "広島県",
    "city": "広島市安佐南区",
    "town": "沼田町伴"
  },
  "7313163": {
    "zipcode": "7313163",
    "prefectureCode": "34",
    "prefectureNumber": 34,
    "prefecture": "広島県",
    "city": "広島市安佐南区",
    "town": "伴北"
  },
  "7313164": {
    "zipcode": "7313164",
    "prefectureCode": "34",
    "prefectureNumber": 34,
    "prefecture": "広島県",
    "city": "広島市安佐南区",
    "town": "伴東"
  },
  "7313165": {
    "zipcode": "7313165",
    "prefectureCode": "34",
    "prefectureNumber": 34,
    "prefecture": "広島県",
    "city": "広島市安佐南区",
    "town": "伴中央"
  },
  "7313166": {
    "zipcode": "7313166",
    "prefectureCode": "34",
    "prefectureNumber": 34,
    "prefecture": "広島県",
    "city": "広島市安佐南区",
    "town": "大塚東"
  },
  "7313167": {
    "zipcode": "7313167",
    "prefectureCode": "34",
    "prefectureNumber": 34,
    "prefecture": "広島県",
    "city": "広島市安佐南区",
    "town": "大塚西"
  },
  "7313168": {
    "zipcode": "7313168",
    "prefectureCode": "34",
    "prefectureNumber": 34,
    "prefecture": "広島県",
    "city": "広島市安佐南区",
    "town": "伴南"
  },
  "7313169": {
    "zipcode": "7313169",
    "prefectureCode": "34",
    "prefectureNumber": 34,
    "prefecture": "広島県",
    "city": "広島市安佐南区",
    "town": "伴西"
  },
  "7313171": {
    "zipcode": "7313171",
    "prefectureCode": "34",
    "prefectureNumber": 34,
    "prefecture": "広島県",
    "city": "広島市安佐南区",
    "town": "伴北町"
  },
  "7313172": {
    "zipcode": "7313172",
    "prefectureCode": "34",
    "prefectureNumber": 34,
    "prefecture": "広島県",
    "city": "広島市安佐南区",
    "town": "伴東町"
  },
  "7313173": {
    "zipcode": "7313173",
    "prefectureCode": "34",
    "prefectureNumber": 34,
    "prefecture": "広島県",
    "city": "広島市安佐南区",
    "town": "大塚東町"
  },
  "7313174": {
    "zipcode": "7313174",
    "prefectureCode": "34",
    "prefectureNumber": 34,
    "prefecture": "広島県",
    "city": "広島市安佐南区",
    "town": "大塚西町"
  },
  "7313175": {
    "zipcode": "7313175",
    "prefectureCode": "34",
    "prefectureNumber": 34,
    "prefecture": "広島県",
    "city": "広島市安佐南区",
    "town": "伴西町"
  },
  "7313271": {
    "zipcode": "7313271",
    "prefectureCode": "34",
    "prefectureNumber": 34,
    "prefecture": "広島県",
    "city": "広島市安佐南区",
    "town": "沼田町阿戸"
  },
  "7313272": {
    "zipcode": "7313272",
    "prefectureCode": "34",
    "prefectureNumber": 34,
    "prefecture": "広島県",
    "city": "広島市安佐南区",
    "town": "沼田町吉山"
  },
  "7313351": {
    "zipcode": "7313351",
    "prefectureCode": "34",
    "prefectureNumber": 34,
    "prefecture": "広島県",
    "city": "広島市安佐北区",
    "town": "安佐町毛木"
  },
  "7313352": {
    "zipcode": "7313352",
    "prefectureCode": "34",
    "prefectureNumber": 34,
    "prefecture": "広島県",
    "city": "広島市安佐北区",
    "town": "安佐町後山"
  },
  "7313353": {
    "zipcode": "7313353",
    "prefectureCode": "34",
    "prefectureNumber": 34,
    "prefecture": "広島県",
    "city": "広島市安佐北区",
    "town": "安佐町宮野"
  },
  "7313354": {
    "zipcode": "7313354",
    "prefectureCode": "34",
    "prefectureNumber": 34,
    "prefecture": "広島県",
    "city": "広島市安佐北区",
    "town": "安佐町筒瀬"
  },
  "7313355": {
    "zipcode": "7313355",
    "prefectureCode": "34",
    "prefectureNumber": 34,
    "prefecture": "広島県",
    "city": "広島市安佐北区",
    "town": "安佐町動物園"
  },
  "7313361": {
    "zipcode": "7313361",
    "prefectureCode": "34",
    "prefectureNumber": 34,
    "prefecture": "広島県",
    "city": "広島市安佐北区",
    "town": "あさひが丘"
  },
  "7313362": {
    "zipcode": "7313362",
    "prefectureCode": "34",
    "prefectureNumber": 34,
    "prefecture": "広島県",
    "city": "広島市安佐北区",
    "town": "安佐町久地"
  },
  "7313363": {
    "zipcode": "7313363",
    "prefectureCode": "34",
    "prefectureNumber": 34,
    "prefecture": "広島県",
    "city": "広島市安佐北区",
    "town": "安佐町くすの木台"
  },
  "7313411": {
    "zipcode": "7313411",
    "prefectureCode": "34",
    "prefectureNumber": 34,
    "prefecture": "広島県",
    "city": "山県郡安芸太田町",
    "town": "穴"
  },
  "7313412": {
    "zipcode": "7313412",
    "prefectureCode": "34",
    "prefectureNumber": 34,
    "prefecture": "広島県",
    "city": "山県郡安芸太田町",
    "town": "坪野"
  },
  "7313500": {
    "zipcode": "7313500",
    "prefectureCode": "34",
    "prefectureNumber": 34,
    "prefecture": "広島県",
    "city": "山県郡安芸太田町",
    "town": "以下に掲載がない場合"
  },
  "7313501": {
    "zipcode": "7313501",
    "prefectureCode": "34",
    "prefectureNumber": 34,
    "prefecture": "広島県",
    "city": "山県郡安芸太田町",
    "town": "加計"
  },
  "7313502": {
    "zipcode": "7313502",
    "prefectureCode": "34",
    "prefectureNumber": 34,
    "prefecture": "広島県",
    "city": "山県郡安芸太田町",
    "town": "津浪"
  },
  "7313503": {
    "zipcode": "7313503",
    "prefectureCode": "34",
    "prefectureNumber": 34,
    "prefecture": "広島県",
    "city": "山県郡安芸太田町",
    "town": "観音"
  },
  "7313551": {
    "zipcode": "7313551",
    "prefectureCode": "34",
    "prefectureNumber": 34,
    "prefecture": "広島県",
    "city": "山県郡安芸太田町",
    "town": "猪山"
  },
  "7313552": {
    "zipcode": "7313552",
    "prefectureCode": "34",
    "prefectureNumber": 34,
    "prefecture": "広島県",
    "city": "山県郡安芸太田町",
    "town": "平見谷"
  },
  "7313561": {
    "zipcode": "7313561",
    "prefectureCode": "34",
    "prefectureNumber": 34,
    "prefecture": "広島県",
    "city": "山県郡北広島町",
    "town": "細見（下山）"
  },
  "7313621": {
    "zipcode": "7313621",
    "prefectureCode": "34",
    "prefectureNumber": 34,
    "prefecture": "広島県",
    "city": "山県郡安芸太田町",
    "town": "下筒賀"
  },
  "7313622": {
    "zipcode": "7313622",
    "prefectureCode": "34",
    "prefectureNumber": 34,
    "prefecture": "広島県",
    "city": "山県郡安芸太田町",
    "town": "下殿河内"
  },
  "7313664": {
    "zipcode": "7313664",
    "prefectureCode": "34",
    "prefectureNumber": 34,
    "prefecture": "広島県",
    "city": "山県郡安芸太田町",
    "town": "上殿"
  },
  "7313701": {
    "zipcode": "7313701",
    "prefectureCode": "34",
    "prefectureNumber": 34,
    "prefecture": "広島県",
    "city": "山県郡安芸太田町",
    "town": "上筒賀"
  },
  "7313702": {
    "zipcode": "7313702",
    "prefectureCode": "34",
    "prefectureNumber": 34,
    "prefecture": "広島県",
    "city": "山県郡安芸太田町",
    "town": "中筒賀"
  },
  "7313801": {
    "zipcode": "7313801",
    "prefectureCode": "34",
    "prefectureNumber": 34,
    "prefecture": "広島県",
    "city": "山県郡安芸太田町",
    "town": "横川"
  },
  "7313810": {
    "zipcode": "7313810",
    "prefectureCode": "34",
    "prefectureNumber": 34,
    "prefecture": "広島県",
    "city": "山県郡安芸太田町",
    "town": "戸河内"
  },
  "7313812": {
    "zipcode": "7313812",
    "prefectureCode": "34",
    "prefectureNumber": 34,
    "prefecture": "広島県",
    "city": "山県郡安芸太田町",
    "town": "遊谷"
  },
  "7313813": {
    "zipcode": "7313813",
    "prefectureCode": "34",
    "prefectureNumber": 34,
    "prefecture": "広島県",
    "city": "山県郡安芸太田町",
    "town": "柴木"
  },
  "7313821": {
    "zipcode": "7313821",
    "prefectureCode": "34",
    "prefectureNumber": 34,
    "prefecture": "広島県",
    "city": "山県郡安芸太田町",
    "town": "土居"
  },
  "7313824": {
    "zipcode": "7313824",
    "prefectureCode": "34",
    "prefectureNumber": 34,
    "prefecture": "広島県",
    "city": "山県郡安芸太田町",
    "town": "寺領"
  },
  "7313831": {
    "zipcode": "7313831",
    "prefectureCode": "34",
    "prefectureNumber": 34,
    "prefecture": "広島県",
    "city": "山県郡安芸太田町",
    "town": "川手"
  },
  "7313832": {
    "zipcode": "7313832",
    "prefectureCode": "34",
    "prefectureNumber": 34,
    "prefecture": "広島県",
    "city": "山県郡安芸太田町",
    "town": "梶ノ木"
  },
  "7313833": {
    "zipcode": "7313833",
    "prefectureCode": "34",
    "prefectureNumber": 34,
    "prefecture": "広島県",
    "city": "山県郡安芸太田町",
    "town": "板ケ谷"
  },
  "7313834": {
    "zipcode": "7313834",
    "prefectureCode": "34",
    "prefectureNumber": 34,
    "prefecture": "広島県",
    "city": "山県郡安芸太田町",
    "town": "松原"
  },
  "7313835": {
    "zipcode": "7313835",
    "prefectureCode": "34",
    "prefectureNumber": 34,
    "prefecture": "広島県",
    "city": "山県郡安芸太田町",
    "town": "小板"
  },
  "7313842": {
    "zipcode": "7313842",
    "prefectureCode": "34",
    "prefectureNumber": 34,
    "prefecture": "広島県",
    "city": "山県郡安芸太田町",
    "town": "田吹"
  },
  "7313843": {
    "zipcode": "7313843",
    "prefectureCode": "34",
    "prefectureNumber": 34,
    "prefecture": "広島県",
    "city": "山県郡安芸太田町",
    "town": "吉和郷"
  },
  "7313844": {
    "zipcode": "7313844",
    "prefectureCode": "34",
    "prefectureNumber": 34,
    "prefecture": "広島県",
    "city": "山県郡安芸太田町",
    "town": "打梨"
  },
  "7313845": {
    "zipcode": "7313845",
    "prefectureCode": "34",
    "prefectureNumber": 34,
    "prefecture": "広島県",
    "city": "山県郡安芸太田町",
    "town": "那須"
  },
  "7314200": {
    "zipcode": "7314200",
    "prefectureCode": "34",
    "prefectureNumber": 34,
    "prefecture": "広島県",
    "city": "安芸郡熊野町",
    "town": "以下に掲載がない場合"
  },
  "7314211": {
    "zipcode": "7314211",
    "prefectureCode": "34",
    "prefectureNumber": 34,
    "prefecture": "広島県",
    "city": "安芸郡熊野町",
    "town": "新宮"
  },
  "7314212": {
    "zipcode": "7314212",
    "prefectureCode": "34",
    "prefectureNumber": 34,
    "prefecture": "広島県",
    "city": "安芸郡熊野町",
    "town": "初神"
  },
  "7314213": {
    "zipcode": "7314213",
    "prefectureCode": "34",
    "prefectureNumber": 34,
    "prefecture": "広島県",
    "city": "安芸郡熊野町",
    "town": "萩原"
  },
  "7314214": {
    "zipcode": "7314214",
    "prefectureCode": "34",
    "prefectureNumber": 34,
    "prefecture": "広島県",
    "city": "安芸郡熊野町",
    "town": "中溝"
  },
  "7314215": {
    "zipcode": "7314215",
    "prefectureCode": "34",
    "prefectureNumber": 34,
    "prefecture": "広島県",
    "city": "安芸郡熊野町",
    "town": "城之堀"
  },
  "7314221": {
    "zipcode": "7314221",
    "prefectureCode": "34",
    "prefectureNumber": 34,
    "prefecture": "広島県",
    "city": "安芸郡熊野町",
    "town": "出来庭"
  },
  "7314222": {
    "zipcode": "7314222",
    "prefectureCode": "34",
    "prefectureNumber": 34,
    "prefecture": "広島県",
    "city": "安芸郡熊野町",
    "town": "呉地"
  },
  "7314223": {
    "zipcode": "7314223",
    "prefectureCode": "34",
    "prefectureNumber": 34,
    "prefecture": "広島県",
    "city": "安芸郡熊野町",
    "town": "川角"
  },
  "7314224": {
    "zipcode": "7314224",
    "prefectureCode": "34",
    "prefectureNumber": 34,
    "prefecture": "広島県",
    "city": "安芸郡熊野町",
    "town": "神田"
  },
  "7314225": {
    "zipcode": "7314225",
    "prefectureCode": "34",
    "prefectureNumber": 34,
    "prefecture": "広島県",
    "city": "安芸郡熊野町",
    "town": "石神"
  },
  "7314226": {
    "zipcode": "7314226",
    "prefectureCode": "34",
    "prefectureNumber": 34,
    "prefecture": "広島県",
    "city": "安芸郡熊野町",
    "town": "東山"
  },
  "7314227": {
    "zipcode": "7314227",
    "prefectureCode": "34",
    "prefectureNumber": 34,
    "prefecture": "広島県",
    "city": "安芸郡熊野町",
    "town": "貴船"
  },
  "7314228": {
    "zipcode": "7314228",
    "prefectureCode": "34",
    "prefectureNumber": 34,
    "prefecture": "広島県",
    "city": "安芸郡熊野町",
    "town": "柿迫"
  },
  "7314229": {
    "zipcode": "7314229",
    "prefectureCode": "34",
    "prefectureNumber": 34,
    "prefecture": "広島県",
    "city": "安芸郡熊野町",
    "town": "平谷"
  },
  "7314231": {
    "zipcode": "7314231",
    "prefectureCode": "34",
    "prefectureNumber": 34,
    "prefecture": "広島県",
    "city": "広島市安芸区",
    "town": "阿戸町"
  },
  "7314300": {
    "zipcode": "7314300",
    "prefectureCode": "34",
    "prefectureNumber": 34,
    "prefecture": "広島県",
    "city": "安芸郡坂町",
    "town": "以下に掲載がない場合"
  },
  "7314301": {
    "zipcode": "7314301",
    "prefectureCode": "34",
    "prefectureNumber": 34,
    "prefecture": "広島県",
    "city": "安芸郡坂町",
    "town": "坂町の次に番地がくる場合"
  },
  "7314311": {
    "zipcode": "7314311",
    "prefectureCode": "34",
    "prefectureNumber": 34,
    "prefecture": "広島県",
    "city": "安芸郡坂町",
    "town": "北新地"
  },
  "7314312": {
    "zipcode": "7314312",
    "prefectureCode": "34",
    "prefectureNumber": 34,
    "prefecture": "広島県",
    "city": "安芸郡坂町",
    "town": "平成ケ浜"
  },
  "7314313": {
    "zipcode": "7314313",
    "prefectureCode": "34",
    "prefectureNumber": 34,
    "prefecture": "広島県",
    "city": "安芸郡坂町",
    "town": "坂東"
  },
  "7314314": {
    "zipcode": "7314314",
    "prefectureCode": "34",
    "prefectureNumber": 34,
    "prefecture": "広島県",
    "city": "安芸郡坂町",
    "town": "坂西"
  },
  "7314321": {
    "zipcode": "7314321",
    "prefectureCode": "34",
    "prefectureNumber": 34,
    "prefecture": "広島県",
    "city": "安芸郡坂町",
    "town": "植田"
  },
  "7314322": {
    "zipcode": "7314322",
    "prefectureCode": "34",
    "prefectureNumber": 34,
    "prefecture": "広島県",
    "city": "安芸郡坂町",
    "town": "横浜東"
  },
  "7314323": {
    "zipcode": "7314323",
    "prefectureCode": "34",
    "prefectureNumber": 34,
    "prefecture": "広島県",
    "city": "安芸郡坂町",
    "town": "横浜中央"
  },
  "7314324": {
    "zipcode": "7314324",
    "prefectureCode": "34",
    "prefectureNumber": 34,
    "prefecture": "広島県",
    "city": "安芸郡坂町",
    "town": "横浜西"
  },
  "7314325": {
    "zipcode": "7314325",
    "prefectureCode": "34",
    "prefectureNumber": 34,
    "prefecture": "広島県",
    "city": "安芸郡坂町",
    "town": "鯛尾"
  },
  "7314331": {
    "zipcode": "7314331",
    "prefectureCode": "34",
    "prefectureNumber": 34,
    "prefecture": "広島県",
    "city": "安芸郡坂町",
    "town": "小屋浦"
  },
  "7315100": {
    "zipcode": "7315100",
    "prefectureCode": "34",
    "prefectureNumber": 34,
    "prefecture": "広島県",
    "city": "広島市佐伯区",
    "town": "以下に掲載がない場合"
  },
  "7315101": {
    "zipcode": "7315101",
    "prefectureCode": "34",
    "prefectureNumber": 34,
    "prefecture": "広島県",
    "city": "広島市佐伯区",
    "town": "五月が丘"
  },
  "7315102": {
    "zipcode": "7315102",
    "prefectureCode": "34",
    "prefectureNumber": 34,
    "prefecture": "広島県",
    "city": "広島市佐伯区",
    "town": "五日市町石内"
  },
  "7315103": {
    "zipcode": "7315103",
    "prefectureCode": "34",
    "prefectureNumber": 34,
    "prefecture": "広島県",
    "city": "広島市佐伯区",
    "town": "藤の木"
  },
  "7315104": {
    "zipcode": "7315104",
    "prefectureCode": "34",
    "prefectureNumber": 34,
    "prefecture": "広島県",
    "city": "広島市佐伯区",
    "town": "五日市町上小深川"
  },
  "7315105": {
    "zipcode": "7315105",
    "prefectureCode": "34",
    "prefectureNumber": 34,
    "prefecture": "広島県",
    "city": "広島市佐伯区",
    "town": "五日市町下小深川"
  },
  "7315106": {
    "zipcode": "7315106",
    "prefectureCode": "34",
    "prefectureNumber": 34,
    "prefecture": "広島県",
    "city": "広島市佐伯区",
    "town": "利松"
  },
  "7315107": {
    "zipcode": "7315107",
    "prefectureCode": "34",
    "prefectureNumber": 34,
    "prefecture": "広島県",
    "city": "広島市佐伯区",
    "town": "石内上"
  },
  "7315108": {
    "zipcode": "7315108",
    "prefectureCode": "34",
    "prefectureNumber": 34,
    "prefecture": "広島県",
    "city": "広島市佐伯区",
    "town": "石内南"
  },
  "7315109": {
    "zipcode": "7315109",
    "prefectureCode": "34",
    "prefectureNumber": 34,
    "prefecture": "広島県",
    "city": "広島市佐伯区",
    "town": "石内北"
  },
  "7315111": {
    "zipcode": "7315111",
    "prefectureCode": "34",
    "prefectureNumber": 34,
    "prefecture": "広島県",
    "city": "広島市佐伯区",
    "town": "美鈴が丘東"
  },
  "7315112": {
    "zipcode": "7315112",
    "prefectureCode": "34",
    "prefectureNumber": 34,
    "prefecture": "広島県",
    "city": "広島市佐伯区",
    "town": "美鈴が丘南"
  },
  "7315113": {
    "zipcode": "7315113",
    "prefectureCode": "34",
    "prefectureNumber": 34,
    "prefecture": "広島県",
    "city": "広島市佐伯区",
    "town": "美鈴が丘緑"
  },
  "7315114": {
    "zipcode": "7315114",
    "prefectureCode": "34",
    "prefectureNumber": 34,
    "prefecture": "広島県",
    "city": "広島市佐伯区",
    "town": "美鈴が丘西"
  },
  "7315115": {
    "zipcode": "7315115",
    "prefectureCode": "34",
    "prefectureNumber": 34,
    "prefecture": "広島県",
    "city": "広島市佐伯区",
    "town": "八幡東"
  },
  "7315116": {
    "zipcode": "7315116",
    "prefectureCode": "34",
    "prefectureNumber": 34,
    "prefecture": "広島県",
    "city": "広島市佐伯区",
    "town": "八幡"
  },
  "7315117": {
    "zipcode": "7315117",
    "prefectureCode": "34",
    "prefectureNumber": 34,
    "prefecture": "広島県",
    "city": "広島市佐伯区",
    "town": "八幡が丘"
  },
  "7315121": {
    "zipcode": "7315121",
    "prefectureCode": "34",
    "prefectureNumber": 34,
    "prefecture": "広島県",
    "city": "広島市佐伯区",
    "town": "五日市町美鈴園"
  },
  "7315122": {
    "zipcode": "7315122",
    "prefectureCode": "34",
    "prefectureNumber": 34,
    "prefecture": "広島県",
    "city": "広島市佐伯区",
    "town": "五日市町皆賀"
  },
  "7315123": {
    "zipcode": "7315123",
    "prefectureCode": "34",
    "prefectureNumber": 34,
    "prefecture": "広島県",
    "city": "広島市佐伯区",
    "town": "五日市町昭和台"
  },
  "7315124": {
    "zipcode": "7315124",
    "prefectureCode": "34",
    "prefectureNumber": 34,
    "prefecture": "広島県",
    "city": "広島市佐伯区",
    "town": "皆賀"
  },
  "7315125": {
    "zipcode": "7315125",
    "prefectureCode": "34",
    "prefectureNumber": 34,
    "prefecture": "広島県",
    "city": "広島市佐伯区",
    "town": "五日市駅前"
  },
  "7315126": {
    "zipcode": "7315126",
    "prefectureCode": "34",
    "prefectureNumber": 34,
    "prefecture": "広島県",
    "city": "広島市佐伯区",
    "town": "新宮苑"
  },
  "7315127": {
    "zipcode": "7315127",
    "prefectureCode": "34",
    "prefectureNumber": 34,
    "prefecture": "広島県",
    "city": "広島市佐伯区",
    "town": "五日市"
  },
  "7315128": {
    "zipcode": "7315128",
    "prefectureCode": "34",
    "prefectureNumber": 34,
    "prefecture": "広島県",
    "city": "広島市佐伯区",
    "town": "五日市中央"
  },
  "7315131": {
    "zipcode": "7315131",
    "prefectureCode": "34",
    "prefectureNumber": 34,
    "prefecture": "広島県",
    "city": "広島市佐伯区",
    "town": "藤垂園"
  },
  "7315132": {
    "zipcode": "7315132",
    "prefectureCode": "34",
    "prefectureNumber": 34,
    "prefecture": "広島県",
    "city": "広島市佐伯区",
    "town": "吉見園"
  },
  "7315133": {
    "zipcode": "7315133",
    "prefectureCode": "34",
    "prefectureNumber": 34,
    "prefecture": "広島県",
    "city": "広島市佐伯区",
    "town": "旭園"
  },
  "7315134": {
    "zipcode": "7315134",
    "prefectureCode": "34",
    "prefectureNumber": 34,
    "prefecture": "広島県",
    "city": "広島市佐伯区",
    "town": "海老山町"
  },
  "7315135": {
    "zipcode": "7315135",
    "prefectureCode": "34",
    "prefectureNumber": 34,
    "prefecture": "広島県",
    "city": "広島市佐伯区",
    "town": "海老園"
  },
  "7315136": {
    "zipcode": "7315136",
    "prefectureCode": "34",
    "prefectureNumber": 34,
    "prefecture": "広島県",
    "city": "広島市佐伯区",
    "town": "楽々園"
  },
  "7315137": {
    "zipcode": "7315137",
    "prefectureCode": "34",
    "prefectureNumber": 34,
    "prefecture": "広島県",
    "city": "広島市佐伯区",
    "town": "美の里"
  },
  "7315138": {
    "zipcode": "7315138",
    "prefectureCode": "34",
    "prefectureNumber": 34,
    "prefecture": "広島県",
    "city": "広島市佐伯区",
    "town": "海老山南"
  },
  "7315141": {
    "zipcode": "7315141",
    "prefectureCode": "34",
    "prefectureNumber": 34,
    "prefecture": "広島県",
    "city": "広島市佐伯区",
    "town": "千同"
  },
  "7315142": {
    "zipcode": "7315142",
    "prefectureCode": "34",
    "prefectureNumber": 34,
    "prefecture": "広島県",
    "city": "広島市佐伯区",
    "town": "坪井町"
  },
  "7315143": {
    "zipcode": "7315143",
    "prefectureCode": "34",
    "prefectureNumber": 34,
    "prefecture": "広島県",
    "city": "広島市佐伯区",
    "town": "三宅町"
  },
  "7315144": {
    "zipcode": "7315144",
    "prefectureCode": "34",
    "prefectureNumber": 34,
    "prefecture": "広島県",
    "city": "広島市佐伯区",
    "town": "三筋"
  },
  "7315145": {
    "zipcode": "7315145",
    "prefectureCode": "34",
    "prefectureNumber": 34,
    "prefecture": "広島県",
    "city": "広島市佐伯区",
    "town": "隅の浜"
  },
  "7315146": {
    "zipcode": "7315146",
    "prefectureCode": "34",
    "prefectureNumber": 34,
    "prefecture": "広島県",
    "city": "広島市佐伯区",
    "town": "屋代"
  },
  "7315147": {
    "zipcode": "7315147",
    "prefectureCode": "34",
    "prefectureNumber": 34,
    "prefecture": "広島県",
    "city": "広島市佐伯区",
    "town": "屋代町"
  },
  "7315151": {
    "zipcode": "7315151",
    "prefectureCode": "34",
    "prefectureNumber": 34,
    "prefecture": "広島県",
    "city": "広島市佐伯区",
    "town": "五日市町上河内"
  },
  "7315152": {
    "zipcode": "7315152",
    "prefectureCode": "34",
    "prefectureNumber": 34,
    "prefecture": "広島県",
    "city": "広島市佐伯区",
    "town": "五日市町下河内"
  },
  "7315153": {
    "zipcode": "7315153",
    "prefectureCode": "34",
    "prefectureNumber": 34,
    "prefecture": "広島県",
    "city": "広島市佐伯区",
    "town": "河内南"
  },
  "7315154": {
    "zipcode": "7315154",
    "prefectureCode": "34",
    "prefectureNumber": 34,
    "prefecture": "広島県",
    "city": "広島市佐伯区",
    "town": "薬師が丘"
  },
  "7315155": {
    "zipcode": "7315155",
    "prefectureCode": "34",
    "prefectureNumber": 34,
    "prefecture": "広島県",
    "city": "広島市佐伯区",
    "town": "城山"
  },
  "7315156": {
    "zipcode": "7315156",
    "prefectureCode": "34",
    "prefectureNumber": 34,
    "prefecture": "広島県",
    "city": "広島市佐伯区",
    "town": "倉重"
  },
  "7315157": {
    "zipcode": "7315157",
    "prefectureCode": "34",
    "prefectureNumber": 34,
    "prefecture": "広島県",
    "city": "広島市佐伯区",
    "town": "観音台"
  },
  "7315161": {
    "zipcode": "7315161",
    "prefectureCode": "34",
    "prefectureNumber": 34,
    "prefecture": "広島県",
    "city": "広島市佐伯区",
    "town": "五日市港"
  },
  "7315162": {
    "zipcode": "7315162",
    "prefectureCode": "34",
    "prefectureNumber": 34,
    "prefecture": "広島県",
    "city": "広島市佐伯区",
    "town": "石内東"
  }
}
