{
  "7340000": {
    "zipcode": "7340000",
    "prefectureCode": "34",
    "prefectureNumber": 34,
    "prefecture": "広島県",
    "city": "広島市南区",
    "town": "以下に掲載がない場合"
  },
  "7340001": {
    "zipcode": "7340001",
    "prefectureCode": "34",
    "prefectureNumber": 34,
    "prefecture": "広島県",
    "city": "広島市南区",
    "town": "出汐"
  },
  "7340002": {
    "zipcode": "7340002",
    "prefectureCode": "34",
    "prefectureNumber": 34,
    "prefecture": "広島県",
    "city": "広島市南区",
    "town": "西旭町"
  },
  "7340003": {
    "zipcode": "7340003",
    "prefectureCode": "34",
    "prefectureNumber": 34,
    "prefecture": "広島県",
    "city": "広島市南区",
    "town": "宇品東"
  },
  "7340004": {
    "zipcode": "7340004",
    "prefectureCode": "34",
    "prefectureNumber": 34,
    "prefecture": "広島県",
    "city": "広島市南区",
    "town": "宇品神田"
  },
  "7340005": {
    "zipcode": "7340005",
    "prefectureCode": "34",
    "prefectureNumber": 34,
    "prefecture": "広島県",
    "city": "広島市南区",
    "town": "翠"
  },
  "7340006": {
    "zipcode": "7340006",
    "prefectureCode": "34",
    "prefectureNumber": 34,
    "prefecture": "広島県",
    "city": "広島市南区",
    "town": "西翠町"
  },
  "7340007": {
    "zipcode": "7340007",
    "prefectureCode": "34",
    "prefectureNumber": 34,
    "prefecture": "広島県",
    "city": "広島市南区",
    "town": "皆実町"
  },
  "7340011": {
    "zipcode": "7340011",
    "prefectureCode": "34",
    "prefectureNumber": 34,
    "prefecture": "広島県",
    "city": "広島市南区",
    "town": "宇品海岸"
  },
  "7340012": {
    "zipcode": "7340012",
    "prefectureCode": "34",
    "prefectureNumber": 34,
    "prefecture": "広島県",
    "city": "広島市南区",
    "town": "元宇品町"
  },
  "7340013": {
    "zipcode": "7340013",
    "prefectureCode": "34",
    "prefectureNumber": 34,
    "prefecture": "広島県",
    "city": "広島市南区",
    "town": "出島"
  },
  "7340014": {
    "zipcode": "7340014",
    "prefectureCode": "34",
    "prefectureNumber": 34,
    "prefecture": "広島県",
    "city": "広島市南区",
    "town": "宇品西"
  },
  "7340015": {
    "zipcode": "7340015",
    "prefectureCode": "34",
    "prefectureNumber": 34,
    "prefecture": "広島県",
    "city": "広島市南区",
    "town": "宇品御幸"
  },
  "7340016": {
    "zipcode": "7340016",
    "prefectureCode": "34",
    "prefectureNumber": 34,
    "prefecture": "広島県",
    "city": "広島市南区",
    "town": "宇品町"
  },
  "7340017": {
    "zipcode": "7340017",
    "prefectureCode": "34",
    "prefectureNumber": 34,
    "prefecture": "広島県",
    "city": "広島市南区",
    "town": "似島町"
  },
  "7340021": {
    "zipcode": "7340021",
    "prefectureCode": "34",
    "prefectureNumber": 34,
    "prefecture": "広島県",
    "city": "広島市南区",
    "town": "上東雲町"
  },
  "7340022": {
    "zipcode": "7340022",
    "prefectureCode": "34",
    "prefectureNumber": 34,
    "prefecture": "広島県",
    "city": "広島市南区",
    "town": "東雲"
  },
  "7340023": {
    "zipcode": "7340023",
    "prefectureCode": "34",
    "prefectureNumber": 34,
    "prefecture": "広島県",
    "city": "広島市南区",
    "town": "東雲本町"
  },
  "7340024": {
    "zipcode": "7340024",
    "prefectureCode": "34",
    "prefectureNumber": 34,
    "prefecture": "広島県",
    "city": "広島市南区",
    "town": "仁保新町"
  },
  "7340025": {
    "zipcode": "7340025",
    "prefectureCode": "34",
    "prefectureNumber": 34,
    "prefecture": "広島県",
    "city": "広島市南区",
    "town": "東本浦町"
  },
  "7340026": {
    "zipcode": "7340026",
    "prefectureCode": "34",
    "prefectureNumber": 34,
    "prefecture": "広島県",
    "city": "広島市南区",
    "town": "仁保"
  },
  "7340027": {
    "zipcode": "7340027",
    "prefectureCode": "34",
    "prefectureNumber": 34,
    "prefecture": "広島県",
    "city": "広島市南区",
    "town": "仁保南"
  },
  "7340031": {
    "zipcode": "7340031",
    "prefectureCode": "34",
    "prefectureNumber": 34,
    "prefecture": "広島県",
    "city": "広島市南区",
    "town": "日宇那町"
  },
  "7340032": {
    "zipcode": "7340032",
    "prefectureCode": "34",
    "prefectureNumber": 34,
    "prefecture": "広島県",
    "city": "広島市南区",
    "town": "楠那町"
  },
  "7340033": {
    "zipcode": "7340033",
    "prefectureCode": "34",
    "prefectureNumber": 34,
    "prefecture": "広島県",
    "city": "広島市南区",
    "town": "丹那新町"
  },
  "7340034": {
    "zipcode": "7340034",
    "prefectureCode": "34",
    "prefectureNumber": 34,
    "prefecture": "広島県",
    "city": "広島市南区",
    "town": "丹那町"
  },
  "7340035": {
    "zipcode": "7340035",
    "prefectureCode": "34",
    "prefectureNumber": 34,
    "prefecture": "広島県",
    "city": "広島市南区",
    "town": "山城町"
  },
  "7340036": {
    "zipcode": "7340036",
    "prefectureCode": "34",
    "prefectureNumber": 34,
    "prefecture": "広島県",
    "city": "広島市南区",
    "town": "旭"
  },
  "7340037": {
    "zipcode": "7340037",
    "prefectureCode": "34",
    "prefectureNumber": 34,
    "prefecture": "広島県",
    "city": "広島市南区",
    "town": "霞"
  },
  "7340041": {
    "zipcode": "7340041",
    "prefectureCode": "34",
    "prefectureNumber": 34,
    "prefecture": "広島県",
    "city": "広島市南区",
    "town": "黄金山町"
  },
  "7340042": {
    "zipcode": "7340042",
    "prefectureCode": "34",
    "prefectureNumber": 34,
    "prefecture": "広島県",
    "city": "広島市南区",
    "town": "北大河町"
  },
  "7340043": {
    "zipcode": "7340043",
    "prefectureCode": "34",
    "prefectureNumber": 34,
    "prefecture": "広島県",
    "city": "広島市南区",
    "town": "南大河町"
  },
  "7340044": {
    "zipcode": "7340044",
    "prefectureCode": "34",
    "prefectureNumber": 34,
    "prefecture": "広島県",
    "city": "広島市南区",
    "town": "西霞町"
  },
  "7340045": {
    "zipcode": "7340045",
    "prefectureCode": "34",
    "prefectureNumber": 34,
    "prefecture": "広島県",
    "city": "広島市南区",
    "town": "西本浦町"
  },
  "7340046": {
    "zipcode": "7340046",
    "prefectureCode": "34",
    "prefectureNumber": 34,
    "prefecture": "広島県",
    "city": "広島市南区",
    "town": "東霞町"
  },
  "7340047": {
    "zipcode": "7340047",
    "prefectureCode": "34",
    "prefectureNumber": 34,
    "prefecture": "広島県",
    "city": "広島市南区",
    "town": "本浦町"
  },
  "7340051": {
    "zipcode": "7340051",
    "prefectureCode": "34",
    "prefectureNumber": 34,
    "prefecture": "広島県",
    "city": "広島市南区",
    "town": "東青崎町"
  },
  "7340052": {
    "zipcode": "7340052",
    "prefectureCode": "34",
    "prefectureNumber": 34,
    "prefecture": "広島県",
    "city": "広島市南区",
    "town": "堀越"
  },
  "7340053": {
    "zipcode": "7340053",
    "prefectureCode": "34",
    "prefectureNumber": 34,
    "prefecture": "広島県",
    "city": "広島市南区",
    "town": "青崎"
  },
  "7340054": {
    "zipcode": "7340054",
    "prefectureCode": "34",
    "prefectureNumber": 34,
    "prefecture": "広島県",
    "city": "広島市南区",
    "town": "月見町"
  },
  "7340055": {
    "zipcode": "7340055",
    "prefectureCode": "34",
    "prefectureNumber": 34,
    "prefecture": "広島県",
    "city": "広島市南区",
    "town": "向洋新町"
  },
  "7340056": {
    "zipcode": "7340056",
    "prefectureCode": "34",
    "prefectureNumber": 34,
    "prefecture": "広島県",
    "city": "広島市南区",
    "town": "向洋沖町"
  },
  "7340057": {
    "zipcode": "7340057",
    "prefectureCode": "34",
    "prefectureNumber": 34,
    "prefecture": "広島県",
    "city": "広島市南区",
    "town": "仁保沖町"
  },
  "7340061": {
    "zipcode": "7340061",
    "prefectureCode": "34",
    "prefectureNumber": 34,
    "prefecture": "広島県",
    "city": "広島市南区",
    "town": "向洋中町"
  },
  "7340062": {
    "zipcode": "7340062",
    "prefectureCode": "34",
    "prefectureNumber": 34,
    "prefecture": "広島県",
    "city": "広島市南区",
    "town": "向洋本町"
  },
  "7340063": {
    "zipcode": "7340063",
    "prefectureCode": "34",
    "prefectureNumber": 34,
    "prefecture": "広島県",
    "city": "広島市南区",
    "town": "向洋大原町"
  },
  "7340064": {
    "zipcode": "7340064",
    "prefectureCode": "34",
    "prefectureNumber": 34,
    "prefecture": "広島県",
    "city": "広島市南区",
    "town": "小磯町"
  },
  "7340101": {
    "zipcode": "7340101",
    "prefectureCode": "34",
    "prefectureNumber": 34,
    "prefecture": "広島県",
    "city": "呉市",
    "town": "豊浜町豊島"
  },
  "7340102": {
    "zipcode": "7340102",
    "prefectureCode": "34",
    "prefectureNumber": 34,
    "prefecture": "広島県",
    "city": "呉市",
    "town": "豊浜町大浜"
  },
  "7340103": {
    "zipcode": "7340103",
    "prefectureCode": "34",
    "prefectureNumber": 34,
    "prefecture": "広島県",
    "city": "呉市",
    "town": "豊浜町斎島"
  },
  "7340301": {
    "zipcode": "7340301",
    "prefectureCode": "34",
    "prefectureNumber": 34,
    "prefecture": "広島県",
    "city": "呉市",
    "town": "豊町大長"
  },
  "7340302": {
    "zipcode": "7340302",
    "prefectureCode": "34",
    "prefectureNumber": 34,
    "prefecture": "広島県",
    "city": "呉市",
    "town": "豊町御手洗"
  },
  "7340303": {
    "zipcode": "7340303",
    "prefectureCode": "34",
    "prefectureNumber": 34,
    "prefecture": "広島県",
    "city": "呉市",
    "town": "豊町沖友"
  },
  "7340304": {
    "zipcode": "7340304",
    "prefectureCode": "34",
    "prefectureNumber": 34,
    "prefecture": "広島県",
    "city": "呉市",
    "town": "豊町久比"
  }
}
