{
  "7350000": {
    "zipcode": "7350000",
    "prefectureCode": "34",
    "prefectureNumber": 34,
    "prefecture": "広島県",
    "city": "安芸郡府中町",
    "town": "以下に掲載がない場合"
  },
  "7350001": {
    "zipcode": "7350001",
    "prefectureCode": "34",
    "prefectureNumber": 34,
    "prefecture": "広島県",
    "city": "安芸郡府中町",
    "town": "桜ケ丘"
  },
  "7350002": {
    "zipcode": "7350002",
    "prefectureCode": "34",
    "prefectureNumber": 34,
    "prefecture": "広島県",
    "city": "安芸郡府中町",
    "town": "清水ケ丘"
  },
  "7350003": {
    "zipcode": "7350003",
    "prefectureCode": "34",
    "prefectureNumber": 34,
    "prefecture": "広島県",
    "city": "安芸郡府中町",
    "town": "みくまり"
  },
  "7350004": {
    "zipcode": "7350004",
    "prefectureCode": "34",
    "prefectureNumber": 34,
    "prefecture": "広島県",
    "city": "安芸郡府中町",
    "town": "山田"
  },
  "7350005": {
    "zipcode": "7350005",
    "prefectureCode": "34",
    "prefectureNumber": 34,
    "prefecture": "広島県",
    "city": "安芸郡府中町",
    "town": "宮の町"
  },
  "7350006": {
    "zipcode": "7350006",
    "prefectureCode": "34",
    "prefectureNumber": 34,
    "prefecture": "広島県",
    "city": "安芸郡府中町",
    "town": "本町"
  },
  "7350007": {
    "zipcode": "7350007",
    "prefectureCode": "34",
    "prefectureNumber": 34,
    "prefecture": "広島県",
    "city": "安芸郡府中町",
    "town": "石井城"
  },
  "7350008": {
    "zipcode": "7350008",
    "prefectureCode": "34",
    "prefectureNumber": 34,
    "prefecture": "広島県",
    "city": "安芸郡府中町",
    "town": "鶴江"
  },
  "7350009": {
    "zipcode": "7350009",
    "prefectureCode": "34",
    "prefectureNumber": 34,
    "prefecture": "広島県",
    "city": "安芸郡府中町",
    "town": "城ケ丘"
  },
  "7350011": {
    "zipcode": "7350011",
    "prefectureCode": "34",
    "prefectureNumber": 34,
    "prefecture": "広島県",
    "city": "安芸郡府中町",
    "town": "瀬戸ハイム"
  },
  "7350012": {
    "zipcode": "7350012",
    "prefectureCode": "34",
    "prefectureNumber": 34,
    "prefecture": "広島県",
    "city": "安芸郡府中町",
    "town": "八幡"
  },
  "7350013": {
    "zipcode": "7350013",
    "prefectureCode": "34",
    "prefectureNumber": 34,
    "prefecture": "広島県",
    "city": "安芸郡府中町",
    "town": "浜田"
  },
  "7350014": {
    "zipcode": "7350014",
    "prefectureCode": "34",
    "prefectureNumber": 34,
    "prefecture": "広島県",
    "city": "安芸郡府中町",
    "town": "柳ケ丘"
  },
  "7350015": {
    "zipcode": "7350015",
    "prefectureCode": "34",
    "prefectureNumber": 34,
    "prefecture": "広島県",
    "city": "安芸郡府中町",
    "town": "青崎東"
  },
  "7350016": {
    "zipcode": "7350016",
    "prefectureCode": "34",
    "prefectureNumber": 34,
    "prefecture": "広島県",
    "city": "安芸郡府中町",
    "town": "青崎中"
  },
  "7350017": {
    "zipcode": "7350017",
    "prefectureCode": "34",
    "prefectureNumber": 34,
    "prefecture": "広島県",
    "city": "安芸郡府中町",
    "town": "青崎南"
  },
  "7350021": {
    "zipcode": "7350021",
    "prefectureCode": "34",
    "prefectureNumber": 34,
    "prefecture": "広島県",
    "city": "安芸郡府中町",
    "town": "大須"
  },
  "7350022": {
    "zipcode": "7350022",
    "prefectureCode": "34",
    "prefectureNumber": 34,
    "prefecture": "広島県",
    "city": "安芸郡府中町",
    "town": "大通"
  },
  "7350023": {
    "zipcode": "7350023",
    "prefectureCode": "34",
    "prefectureNumber": 34,
    "prefecture": "広島県",
    "city": "安芸郡府中町",
    "town": "浜田本町"
  },
  "7350024": {
    "zipcode": "7350024",
    "prefectureCode": "34",
    "prefectureNumber": 34,
    "prefecture": "広島県",
    "city": "安芸郡府中町",
    "town": "緑ケ丘"
  },
  "7350025": {
    "zipcode": "7350025",
    "prefectureCode": "34",
    "prefectureNumber": 34,
    "prefecture": "広島県",
    "city": "安芸郡府中町",
    "town": "鹿籠"
  },
  "7350026": {
    "zipcode": "7350026",
    "prefectureCode": "34",
    "prefectureNumber": 34,
    "prefecture": "広島県",
    "city": "安芸郡府中町",
    "town": "桃山"
  },
  "7350027": {
    "zipcode": "7350027",
    "prefectureCode": "34",
    "prefectureNumber": 34,
    "prefecture": "広島県",
    "city": "安芸郡府中町",
    "town": "千代"
  },
  "7350028": {
    "zipcode": "7350028",
    "prefectureCode": "34",
    "prefectureNumber": 34,
    "prefecture": "広島県",
    "city": "安芸郡府中町",
    "town": "新地"
  },
  "7350029": {
    "zipcode": "7350029",
    "prefectureCode": "34",
    "prefectureNumber": 34,
    "prefecture": "広島県",
    "city": "安芸郡府中町",
    "town": "茂陰"
  }
}
