{
  "7360000": {
    "zipcode": "7360000",
    "prefectureCode": "34",
    "prefectureNumber": 34,
    "prefecture": "広島県",
    "city": "安芸郡海田町",
    "town": "以下に掲載がない場合"
  },
  "7360001": {
    "zipcode": "7360001",
    "prefectureCode": "34",
    "prefectureNumber": 34,
    "prefecture": "広島県",
    "city": "安芸郡海田町",
    "town": "砂走"
  },
  "7360002": {
    "zipcode": "7360002",
    "prefectureCode": "34",
    "prefectureNumber": 34,
    "prefecture": "広島県",
    "city": "安芸郡海田町",
    "town": "国信"
  },
  "7360003": {
    "zipcode": "7360003",
    "prefectureCode": "34",
    "prefectureNumber": 34,
    "prefecture": "広島県",
    "city": "安芸郡海田町",
    "town": "曽田"
  },
  "7360004": {
    "zipcode": "7360004",
    "prefectureCode": "34",
    "prefectureNumber": 34,
    "prefecture": "広島県",
    "city": "安芸郡海田町",
    "town": "石原"
  },
  "7360005": {
    "zipcode": "7360005",
    "prefectureCode": "34",
    "prefectureNumber": 34,
    "prefecture": "広島県",
    "city": "安芸郡海田町",
    "town": "畝"
  },
  "7360011": {
    "zipcode": "7360011",
    "prefectureCode": "34",
    "prefectureNumber": 34,
    "prefecture": "広島県",
    "city": "安芸郡海田町",
    "town": "寺迫"
  },
  "7360012": {
    "zipcode": "7360012",
    "prefectureCode": "34",
    "prefectureNumber": 34,
    "prefecture": "広島県",
    "city": "安芸郡海田町",
    "town": "稲葉"
  },
  "7360013": {
    "zipcode": "7360013",
    "prefectureCode": "34",
    "prefectureNumber": 34,
    "prefecture": "広島県",
    "city": "安芸郡海田町",
    "town": "東"
  },
  "7360014": {
    "zipcode": "7360014",
    "prefectureCode": "34",
    "prefectureNumber": 34,
    "prefecture": "広島県",
    "city": "安芸郡海田町",
    "town": "三迫"
  },
  "7360021": {
    "zipcode": "7360021",
    "prefectureCode": "34",
    "prefectureNumber": 34,
    "prefecture": "広島県",
    "city": "安芸郡海田町",
    "town": "成本"
  },
  "7360022": {
    "zipcode": "7360022",
    "prefectureCode": "34",
    "prefectureNumber": 34,
    "prefecture": "広島県",
    "city": "安芸郡海田町",
    "town": "蟹原"
  },
  "7360023": {
    "zipcode": "7360023",
    "prefectureCode": "34",
    "prefectureNumber": 34,
    "prefecture": "広島県",
    "city": "安芸郡海田町",
    "town": "浜角"
  },
  "7360024": {
    "zipcode": "7360024",
    "prefectureCode": "34",
    "prefectureNumber": 34,
    "prefecture": "広島県",
    "city": "安芸郡海田町",
    "town": "西浜"
  },
  "7360025": {
    "zipcode": "7360025",
    "prefectureCode": "34",
    "prefectureNumber": 34,
    "prefecture": "広島県",
    "city": "安芸郡海田町",
    "town": "大立町"
  },
  "7360026": {
    "zipcode": "7360026",
    "prefectureCode": "34",
    "prefectureNumber": 34,
    "prefecture": "広島県",
    "city": "安芸郡海田町",
    "town": "幸町"
  },
  "7360031": {
    "zipcode": "7360031",
    "prefectureCode": "34",
    "prefectureNumber": 34,
    "prefecture": "広島県",
    "city": "安芸郡海田町",
    "town": "曙町"
  },
  "7360032": {
    "zipcode": "7360032",
    "prefectureCode": "34",
    "prefectureNumber": 34,
    "prefecture": "広島県",
    "city": "安芸郡海田町",
    "town": "南幸町"
  },
  "7360033": {
    "zipcode": "7360033",
    "prefectureCode": "34",
    "prefectureNumber": 34,
    "prefecture": "広島県",
    "city": "安芸郡海田町",
    "town": "南本町"
  },
  "7360034": {
    "zipcode": "7360034",
    "prefectureCode": "34",
    "prefectureNumber": 34,
    "prefecture": "広島県",
    "city": "安芸郡海田町",
    "town": "月見町"
  },
  "7360035": {
    "zipcode": "7360035",
    "prefectureCode": "34",
    "prefectureNumber": 34,
    "prefecture": "広島県",
    "city": "安芸郡海田町",
    "town": "日の出町"
  },
  "7360041": {
    "zipcode": "7360041",
    "prefectureCode": "34",
    "prefectureNumber": 34,
    "prefecture": "広島県",
    "city": "安芸郡海田町",
    "town": "大正町"
  },
  "7360042": {
    "zipcode": "7360042",
    "prefectureCode": "34",
    "prefectureNumber": 34,
    "prefecture": "広島県",
    "city": "安芸郡海田町",
    "town": "南大正町"
  },
  "7360043": {
    "zipcode": "7360043",
    "prefectureCode": "34",
    "prefectureNumber": 34,
    "prefecture": "広島県",
    "city": "安芸郡海田町",
    "town": "栄町"
  },
  "7360044": {
    "zipcode": "7360044",
    "prefectureCode": "34",
    "prefectureNumber": 34,
    "prefecture": "広島県",
    "city": "安芸郡海田町",
    "town": "南堀川町"
  },
  "7360045": {
    "zipcode": "7360045",
    "prefectureCode": "34",
    "prefectureNumber": 34,
    "prefecture": "広島県",
    "city": "安芸郡海田町",
    "town": "堀川町"
  },
  "7360046": {
    "zipcode": "7360046",
    "prefectureCode": "34",
    "prefectureNumber": 34,
    "prefecture": "広島県",
    "city": "安芸郡海田町",
    "town": "窪町"
  },
  "7360051": {
    "zipcode": "7360051",
    "prefectureCode": "34",
    "prefectureNumber": 34,
    "prefecture": "広島県",
    "city": "安芸郡海田町",
    "town": "つくも町"
  },
  "7360052": {
    "zipcode": "7360052",
    "prefectureCode": "34",
    "prefectureNumber": 34,
    "prefecture": "広島県",
    "city": "安芸郡海田町",
    "town": "南つくも町"
  },
  "7360053": {
    "zipcode": "7360053",
    "prefectureCode": "34",
    "prefectureNumber": 34,
    "prefecture": "広島県",
    "city": "安芸郡海田町",
    "town": "寿町"
  },
  "7360054": {
    "zipcode": "7360054",
    "prefectureCode": "34",
    "prefectureNumber": 34,
    "prefecture": "広島県",
    "city": "安芸郡海田町",
    "town": "西明神町"
  },
  "7360055": {
    "zipcode": "7360055",
    "prefectureCode": "34",
    "prefectureNumber": 34,
    "prefecture": "広島県",
    "city": "安芸郡海田町",
    "town": "南明神町"
  },
  "7360056": {
    "zipcode": "7360056",
    "prefectureCode": "34",
    "prefectureNumber": 34,
    "prefecture": "広島県",
    "city": "安芸郡海田町",
    "town": "明神町"
  },
  "7360061": {
    "zipcode": "7360061",
    "prefectureCode": "34",
    "prefectureNumber": 34,
    "prefecture": "広島県",
    "city": "安芸郡海田町",
    "town": "上市"
  },
  "7360062": {
    "zipcode": "7360062",
    "prefectureCode": "34",
    "prefectureNumber": 34,
    "prefecture": "広島県",
    "city": "安芸郡海田町",
    "town": "昭和町"
  },
  "7360063": {
    "zipcode": "7360063",
    "prefectureCode": "34",
    "prefectureNumber": 34,
    "prefecture": "広島県",
    "city": "安芸郡海田町",
    "town": "東昭和町"
  },
  "7360064": {
    "zipcode": "7360064",
    "prefectureCode": "34",
    "prefectureNumber": 34,
    "prefecture": "広島県",
    "city": "安芸郡海田町",
    "town": "昭和中町"
  },
  "7360065": {
    "zipcode": "7360065",
    "prefectureCode": "34",
    "prefectureNumber": 34,
    "prefecture": "広島県",
    "city": "安芸郡海田町",
    "town": "南昭和町"
  },
  "7360066": {
    "zipcode": "7360066",
    "prefectureCode": "34",
    "prefectureNumber": 34,
    "prefecture": "広島県",
    "city": "安芸郡海田町",
    "town": "中店"
  },
  "7360067": {
    "zipcode": "7360067",
    "prefectureCode": "34",
    "prefectureNumber": 34,
    "prefecture": "広島県",
    "city": "安芸郡海田町",
    "town": "稲荷町"
  },
  "7360068": {
    "zipcode": "7360068",
    "prefectureCode": "34",
    "prefectureNumber": 34,
    "prefecture": "広島県",
    "city": "安芸郡海田町",
    "town": "新町"
  },
  "7360071": {
    "zipcode": "7360071",
    "prefectureCode": "34",
    "prefectureNumber": 34,
    "prefecture": "広島県",
    "city": "安芸郡海田町",
    "town": "東海田"
  },
  "7360081": {
    "zipcode": "7360081",
    "prefectureCode": "34",
    "prefectureNumber": 34,
    "prefecture": "広島県",
    "city": "広島市安芸区",
    "town": "船越"
  },
  "7360082": {
    "zipcode": "7360082",
    "prefectureCode": "34",
    "prefectureNumber": 34,
    "prefecture": "広島県",
    "city": "広島市安芸区",
    "town": "船越南"
  },
  "7360083": {
    "zipcode": "7360083",
    "prefectureCode": "34",
    "prefectureNumber": 34,
    "prefecture": "広島県",
    "city": "広島市安芸区",
    "town": "矢野東"
  },
  "7360084": {
    "zipcode": "7360084",
    "prefectureCode": "34",
    "prefectureNumber": 34,
    "prefecture": "広島県",
    "city": "広島市安芸区",
    "town": "矢野新町"
  },
  "7360085": {
    "zipcode": "7360085",
    "prefectureCode": "34",
    "prefectureNumber": 34,
    "prefecture": "広島県",
    "city": "広島市安芸区",
    "town": "矢野西"
  },
  "7360086": {
    "zipcode": "7360086",
    "prefectureCode": "34",
    "prefectureNumber": 34,
    "prefecture": "広島県",
    "city": "広島市安芸区",
    "town": "矢野南"
  },
  "7360087": {
    "zipcode": "7360087",
    "prefectureCode": "34",
    "prefectureNumber": 34,
    "prefecture": "広島県",
    "city": "広島市安芸区",
    "town": "矢野町"
  },
  "7360088": {
    "zipcode": "7360088",
    "prefectureCode": "34",
    "prefectureNumber": 34,
    "prefecture": "広島県",
    "city": "広島市安芸区",
    "town": "畑賀"
  },
  "7360089": {
    "zipcode": "7360089",
    "prefectureCode": "34",
    "prefectureNumber": 34,
    "prefecture": "広島県",
    "city": "広島市安芸区",
    "town": "畑賀町"
  }
}
