{
  "7370000": {
    "zipcode": "7370000",
    "prefectureCode": "34",
    "prefectureNumber": 34,
    "prefecture": "広島県",
    "city": "呉市",
    "town": "以下に掲載がない場合"
  },
  "7370001": {
    "zipcode": "7370001",
    "prefectureCode": "34",
    "prefectureNumber": 34,
    "prefecture": "広島県",
    "city": "呉市",
    "town": "阿賀北"
  },
  "7370002": {
    "zipcode": "7370002",
    "prefectureCode": "34",
    "prefectureNumber": 34,
    "prefecture": "広島県",
    "city": "呉市",
    "town": "広町（大空山）"
  },
  "7370003": {
    "zipcode": "7370003",
    "prefectureCode": "34",
    "prefectureNumber": 34,
    "prefecture": "広島県",
    "city": "呉市",
    "town": "阿賀中央"
  },
  "7370004": {
    "zipcode": "7370004",
    "prefectureCode": "34",
    "prefectureNumber": 34,
    "prefecture": "広島県",
    "city": "呉市",
    "town": "阿賀南"
  },
  "7370005": {
    "zipcode": "7370005",
    "prefectureCode": "34",
    "prefectureNumber": 34,
    "prefecture": "広島県",
    "city": "呉市",
    "town": "阿賀町"
  },
  "7370011": {
    "zipcode": "7370011",
    "prefectureCode": "34",
    "prefectureNumber": 34,
    "prefecture": "広島県",
    "city": "呉市",
    "town": "見晴"
  },
  "7370012": {
    "zipcode": "7370012",
    "prefectureCode": "34",
    "prefectureNumber": 34,
    "prefecture": "広島県",
    "city": "呉市",
    "town": "警固屋"
  },
  "7370013": {
    "zipcode": "7370013",
    "prefectureCode": "34",
    "prefectureNumber": 34,
    "prefecture": "広島県",
    "city": "呉市",
    "town": "的場"
  },
  "7370014": {
    "zipcode": "7370014",
    "prefectureCode": "34",
    "prefectureNumber": 34,
    "prefecture": "広島県",
    "city": "呉市",
    "town": "坪ノ内町"
  },
  "7370015": {
    "zipcode": "7370015",
    "prefectureCode": "34",
    "prefectureNumber": 34,
    "prefecture": "広島県",
    "city": "呉市",
    "town": "船見町"
  },
  "7370021": {
    "zipcode": "7370021",
    "prefectureCode": "34",
    "prefectureNumber": 34,
    "prefecture": "広島県",
    "city": "呉市",
    "town": "三和町"
  },
  "7370022": {
    "zipcode": "7370022",
    "prefectureCode": "34",
    "prefectureNumber": 34,
    "prefecture": "広島県",
    "city": "呉市",
    "town": "清水"
  },
  "7370023": {
    "zipcode": "7370023",
    "prefectureCode": "34",
    "prefectureNumber": 34,
    "prefecture": "広島県",
    "city": "呉市",
    "town": "青山町"
  },
  "7370024": {
    "zipcode": "7370024",
    "prefectureCode": "34",
    "prefectureNumber": 34,
    "prefecture": "広島県",
    "city": "呉市",
    "town": "宮原"
  },
  "7370025": {
    "zipcode": "7370025",
    "prefectureCode": "34",
    "prefectureNumber": 34,
    "prefecture": "広島県",
    "city": "呉市",
    "town": "室瀬町"
  },
  "7370026": {
    "zipcode": "7370026",
    "prefectureCode": "34",
    "prefectureNumber": 34,
    "prefecture": "広島県",
    "city": "呉市",
    "town": "神原町"
  },
  "7370027": {
    "zipcode": "7370027",
    "prefectureCode": "34",
    "prefectureNumber": 34,
    "prefecture": "広島県",
    "city": "呉市",
    "town": "昭和町"
  },
  "7370028": {
    "zipcode": "7370028",
    "prefectureCode": "34",
    "prefectureNumber": 34,
    "prefecture": "広島県",
    "city": "呉市",
    "town": "幸町"
  },
  "7370029": {
    "zipcode": "7370029",
    "prefectureCode": "34",
    "prefectureNumber": 34,
    "prefecture": "広島県",
    "city": "呉市",
    "town": "宝町"
  },
  "7370031": {
    "zipcode": "7370031",
    "prefectureCode": "34",
    "prefectureNumber": 34,
    "prefecture": "広島県",
    "city": "呉市",
    "town": "上長迫町"
  },
  "7370032": {
    "zipcode": "7370032",
    "prefectureCode": "34",
    "prefectureNumber": 34,
    "prefecture": "広島県",
    "city": "呉市",
    "town": "本町"
  },
  "7370033": {
    "zipcode": "7370033",
    "prefectureCode": "34",
    "prefectureNumber": 34,
    "prefecture": "広島県",
    "city": "呉市",
    "town": "寺本町"
  },
  "7370034": {
    "zipcode": "7370034",
    "prefectureCode": "34",
    "prefectureNumber": 34,
    "prefecture": "広島県",
    "city": "呉市",
    "town": "溝路町"
  },
  "7370035": {
    "zipcode": "7370035",
    "prefectureCode": "34",
    "prefectureNumber": 34,
    "prefecture": "広島県",
    "city": "呉市",
    "town": "長迫町"
  },
  "7370041": {
    "zipcode": "7370041",
    "prefectureCode": "34",
    "prefectureNumber": 34,
    "prefecture": "広島県",
    "city": "呉市",
    "town": "和庄"
  },
  "7370042": {
    "zipcode": "7370042",
    "prefectureCode": "34",
    "prefectureNumber": 34,
    "prefecture": "広島県",
    "city": "呉市",
    "town": "和庄本町"
  },
  "7370043": {
    "zipcode": "7370043",
    "prefectureCode": "34",
    "prefectureNumber": 34,
    "prefecture": "広島県",
    "city": "呉市",
    "town": "和庄登町"
  },
  "7370044": {
    "zipcode": "7370044",
    "prefectureCode": "34",
    "prefectureNumber": 34,
    "prefecture": "広島県",
    "city": "呉市",
    "town": "八幡町"
  },
  "7370045": {
    "zipcode": "7370045",
    "prefectureCode": "34",
    "prefectureNumber": 34,
    "prefecture": "広島県",
    "city": "呉市",
    "town": "本通"
  },
  "7370046": {
    "zipcode": "7370046",
    "prefectureCode": "34",
    "prefectureNumber": 34,
    "prefecture": "広島県",
    "city": "呉市",
    "town": "中通"
  },
  "7370051": {
    "zipcode": "7370051",
    "prefectureCode": "34",
    "prefectureNumber": 34,
    "prefecture": "広島県",
    "city": "呉市",
    "town": "中央"
  },
  "7370052": {
    "zipcode": "7370052",
    "prefectureCode": "34",
    "prefectureNumber": 34,
    "prefecture": "広島県",
    "city": "呉市",
    "town": "東中央"
  },
  "7370053": {
    "zipcode": "7370053",
    "prefectureCode": "34",
    "prefectureNumber": 34,
    "prefecture": "広島県",
    "city": "呉市",
    "town": "長ノ木町"
  },
  "7370054": {
    "zipcode": "7370054",
    "prefectureCode": "34",
    "prefectureNumber": 34,
    "prefecture": "広島県",
    "city": "呉市",
    "town": "上山田町"
  },
  "7370055": {
    "zipcode": "7370055",
    "prefectureCode": "34",
    "prefectureNumber": 34,
    "prefecture": "広島県",
    "city": "呉市",
    "town": "下山田町"
  },
  "7370056": {
    "zipcode": "7370056",
    "prefectureCode": "34",
    "prefectureNumber": 34,
    "prefecture": "広島県",
    "city": "呉市",
    "town": "朝日町"
  },
  "7370061": {
    "zipcode": "7370061",
    "prefectureCode": "34",
    "prefectureNumber": 34,
    "prefecture": "広島県",
    "city": "呉市",
    "town": "畝原町"
  },
  "7370062": {
    "zipcode": "7370062",
    "prefectureCode": "34",
    "prefectureNumber": 34,
    "prefecture": "広島県",
    "city": "呉市",
    "town": "西惣付町"
  },
  "7370063": {
    "zipcode": "7370063",
    "prefectureCode": "34",
    "prefectureNumber": 34,
    "prefecture": "広島県",
    "city": "呉市",
    "town": "東惣付町"
  },
  "7370064": {
    "zipcode": "7370064",
    "prefectureCode": "34",
    "prefectureNumber": 34,
    "prefecture": "広島県",
    "city": "呉市",
    "town": "西谷町"
  },
  "7370065": {
    "zipcode": "7370065",
    "prefectureCode": "34",
    "prefectureNumber": 34,
    "prefecture": "広島県",
    "city": "呉市",
    "town": "望地町"
  },
  "7370071": {
    "zipcode": "7370071",
    "prefectureCode": "34",
    "prefectureNumber": 34,
    "prefecture": "広島県",
    "city": "呉市",
    "town": "上畑町"
  },
  "7370072": {
    "zipcode": "7370072",
    "prefectureCode": "34",
    "prefectureNumber": 34,
    "prefecture": "広島県",
    "city": "呉市",
    "town": "東畑"
  },
  "7370073": {
    "zipcode": "7370073",
    "prefectureCode": "34",
    "prefectureNumber": 34,
    "prefecture": "広島県",
    "city": "呉市",
    "town": "東鹿田町"
  },
  "7370074": {
    "zipcode": "7370074",
    "prefectureCode": "34",
    "prefectureNumber": 34,
    "prefecture": "広島県",
    "city": "呉市",
    "town": "西鹿田"
  },
  "7370075": {
    "zipcode": "7370075",
    "prefectureCode": "34",
    "prefectureNumber": 34,
    "prefecture": "広島県",
    "city": "呉市",
    "town": "西畑町"
  },
  "7370076": {
    "zipcode": "7370076",
    "prefectureCode": "34",
    "prefectureNumber": 34,
    "prefecture": "広島県",
    "city": "呉市",
    "town": "吾妻"
  },
  "7370077": {
    "zipcode": "7370077",
    "prefectureCode": "34",
    "prefectureNumber": 34,
    "prefecture": "広島県",
    "city": "呉市",
    "town": "伏原"
  },
  "7370078": {
    "zipcode": "7370078",
    "prefectureCode": "34",
    "prefectureNumber": 34,
    "prefecture": "広島県",
    "city": "呉市",
    "town": "平原町"
  },
  "7370079": {
    "zipcode": "7370079",
    "prefectureCode": "34",
    "prefectureNumber": 34,
    "prefecture": "広島県",
    "city": "呉市",
    "town": "上平原町"
  },
  "7370101": {
    "zipcode": "7370101",
    "prefectureCode": "34",
    "prefectureNumber": 34,
    "prefecture": "広島県",
    "city": "呉市",
    "town": "広石内"
  },
  "7370102": {
    "zipcode": "7370102",
    "prefectureCode": "34",
    "prefectureNumber": 34,
    "prefecture": "広島県",
    "city": "呉市",
    "town": "広徳丸町"
  },
  "7370103": {
    "zipcode": "7370103",
    "prefectureCode": "34",
    "prefectureNumber": 34,
    "prefecture": "広島県",
    "city": "呉市",
    "town": "広塩焼"
  },
  "7370104": {
    "zipcode": "7370104",
    "prefectureCode": "34",
    "prefectureNumber": 34,
    "prefecture": "広島県",
    "city": "呉市",
    "town": "広町田"
  },
  "7370105": {
    "zipcode": "7370105",
    "prefectureCode": "34",
    "prefectureNumber": 34,
    "prefecture": "広島県",
    "city": "呉市",
    "town": "広中迫町"
  },
  "7370106": {
    "zipcode": "7370106",
    "prefectureCode": "34",
    "prefectureNumber": 34,
    "prefecture": "広島県",
    "city": "呉市",
    "town": "広三芦"
  },
  "7370107": {
    "zipcode": "7370107",
    "prefectureCode": "34",
    "prefectureNumber": 34,
    "prefecture": "広島県",
    "city": "呉市",
    "town": "広弁天橋町"
  },
  "7370111": {
    "zipcode": "7370111",
    "prefectureCode": "34",
    "prefectureNumber": 34,
    "prefecture": "広島県",
    "city": "呉市",
    "town": "広大広"
  },
  "7370112": {
    "zipcode": "7370112",
    "prefectureCode": "34",
    "prefectureNumber": 34,
    "prefecture": "広島県",
    "city": "呉市",
    "town": "広古新開"
  },
  "7370113": {
    "zipcode": "7370113",
    "prefectureCode": "34",
    "prefectureNumber": 34,
    "prefecture": "広島県",
    "city": "呉市",
    "town": "広横路"
  },
  "7370114": {
    "zipcode": "7370114",
    "prefectureCode": "34",
    "prefectureNumber": 34,
    "prefecture": "広島県",
    "city": "呉市",
    "town": "広文化町"
  },
  "7370115": {
    "zipcode": "7370115",
    "prefectureCode": "34",
    "prefectureNumber": 34,
    "prefecture": "広島県",
    "city": "呉市",
    "town": "広町（その他）"
  },
  "7370121": {
    "zipcode": "7370121",
    "prefectureCode": "34",
    "prefectureNumber": 34,
    "prefecture": "広島県",
    "city": "呉市",
    "town": "広吉松"
  },
  "7370122": {
    "zipcode": "7370122",
    "prefectureCode": "34",
    "prefectureNumber": 34,
    "prefecture": "広島県",
    "city": "呉市",
    "town": "広杭本町"
  },
  "7370123": {
    "zipcode": "7370123",
    "prefectureCode": "34",
    "prefectureNumber": 34,
    "prefecture": "広島県",
    "city": "呉市",
    "town": "広両谷"
  },
  "7370124": {
    "zipcode": "7370124",
    "prefectureCode": "34",
    "prefectureNumber": 34,
    "prefecture": "広島県",
    "city": "呉市",
    "town": "広中新開"
  },
  "7370125": {
    "zipcode": "7370125",
    "prefectureCode": "34",
    "prefectureNumber": 34,
    "prefecture": "広島県",
    "city": "呉市",
    "town": "広本町"
  },
  "7370131": {
    "zipcode": "7370131",
    "prefectureCode": "34",
    "prefectureNumber": 34,
    "prefecture": "広島県",
    "city": "呉市",
    "town": "広中町"
  },
  "7370132": {
    "zipcode": "7370132",
    "prefectureCode": "34",
    "prefectureNumber": 34,
    "prefecture": "広島県",
    "city": "呉市",
    "town": "広名田"
  },
  "7370133": {
    "zipcode": "7370133",
    "prefectureCode": "34",
    "prefectureNumber": 34,
    "prefecture": "広島県",
    "city": "呉市",
    "town": "広末広"
  },
  "7370134": {
    "zipcode": "7370134",
    "prefectureCode": "34",
    "prefectureNumber": 34,
    "prefecture": "広島県",
    "city": "呉市",
    "town": "広多賀谷"
  },
  "7370135": {
    "zipcode": "7370135",
    "prefectureCode": "34",
    "prefectureNumber": 34,
    "prefecture": "広島県",
    "city": "呉市",
    "town": "広津久茂町"
  },
  "7370136": {
    "zipcode": "7370136",
    "prefectureCode": "34",
    "prefectureNumber": 34,
    "prefecture": "広島県",
    "city": "呉市",
    "town": "広長浜"
  },
  "7370137": {
    "zipcode": "7370137",
    "prefectureCode": "34",
    "prefectureNumber": 34,
    "prefecture": "広島県",
    "city": "呉市",
    "town": "広小坪"
  },
  "7370138": {
    "zipcode": "7370138",
    "prefectureCode": "34",
    "prefectureNumber": 34,
    "prefecture": "広島県",
    "city": "呉市",
    "town": "広黄幡町"
  },
  "7370141": {
    "zipcode": "7370141",
    "prefectureCode": "34",
    "prefectureNumber": 34,
    "prefecture": "広島県",
    "city": "呉市",
    "town": "広大新開"
  },
  "7370142": {
    "zipcode": "7370142",
    "prefectureCode": "34",
    "prefectureNumber": 34,
    "prefecture": "広島県",
    "city": "呉市",
    "town": "広駅前"
  },
  "7370143": {
    "zipcode": "7370143",
    "prefectureCode": "34",
    "prefectureNumber": 34,
    "prefecture": "広島県",
    "city": "呉市",
    "town": "広白石"
  },
  "7370144": {
    "zipcode": "7370144",
    "prefectureCode": "34",
    "prefectureNumber": 34,
    "prefecture": "広島県",
    "city": "呉市",
    "town": "広白岳"
  },
  "7370145": {
    "zipcode": "7370145",
    "prefectureCode": "34",
    "prefectureNumber": 34,
    "prefecture": "広島県",
    "city": "呉市",
    "town": "仁方西神町"
  },
  "7370146": {
    "zipcode": "7370146",
    "prefectureCode": "34",
    "prefectureNumber": 34,
    "prefecture": "広島県",
    "city": "呉市",
    "town": "仁方宮上町"
  },
  "7370151": {
    "zipcode": "7370151",
    "prefectureCode": "34",
    "prefectureNumber": 34,
    "prefecture": "広島県",
    "city": "呉市",
    "town": "仁方中筋町"
  },
  "7370152": {
    "zipcode": "7370152",
    "prefectureCode": "34",
    "prefectureNumber": 34,
    "prefecture": "広島県",
    "city": "呉市",
    "town": "仁方本町"
  },
  "7370153": {
    "zipcode": "7370153",
    "prefectureCode": "34",
    "prefectureNumber": 34,
    "prefecture": "広島県",
    "city": "呉市",
    "town": "仁方大歳町"
  },
  "7370154": {
    "zipcode": "7370154",
    "prefectureCode": "34",
    "prefectureNumber": 34,
    "prefecture": "広島県",
    "city": "呉市",
    "town": "仁方桟橋通"
  },
  "7370155": {
    "zipcode": "7370155",
    "prefectureCode": "34",
    "prefectureNumber": 34,
    "prefecture": "広島県",
    "city": "呉市",
    "town": "仁方錦町"
  },
  "7370156": {
    "zipcode": "7370156",
    "prefectureCode": "34",
    "prefectureNumber": 34,
    "prefecture": "広島県",
    "city": "呉市",
    "town": "仁方皆実町"
  },
  "7370157": {
    "zipcode": "7370157",
    "prefectureCode": "34",
    "prefectureNumber": 34,
    "prefecture": "広島県",
    "city": "呉市",
    "town": "仁方町（その他）"
  },
  "7370161": {
    "zipcode": "7370161",
    "prefectureCode": "34",
    "prefectureNumber": 34,
    "prefecture": "広島県",
    "city": "呉市",
    "town": "郷原町"
  },
  "7370162": {
    "zipcode": "7370162",
    "prefectureCode": "34",
    "prefectureNumber": 34,
    "prefecture": "広島県",
    "city": "呉市",
    "town": "郷原学びの丘"
  },
  "7370163": {
    "zipcode": "7370163",
    "prefectureCode": "34",
    "prefectureNumber": 34,
    "prefecture": "広島県",
    "city": "呉市",
    "town": "郷原野路の里"
  },
  "7370301": {
    "zipcode": "7370301",
    "prefectureCode": "34",
    "prefectureNumber": 34,
    "prefecture": "広島県",
    "city": "呉市",
    "town": "下蒲刈町三之瀬"
  },
  "7370302": {
    "zipcode": "7370302",
    "prefectureCode": "34",
    "prefectureNumber": 34,
    "prefecture": "広島県",
    "city": "呉市",
    "town": "下蒲刈町大地蔵"
  },
  "7370303": {
    "zipcode": "7370303",
    "prefectureCode": "34",
    "prefectureNumber": 34,
    "prefecture": "広島県",
    "city": "呉市",
    "town": "下蒲刈町下島"
  },
  "7370311": {
    "zipcode": "7370311",
    "prefectureCode": "34",
    "prefectureNumber": 34,
    "prefecture": "広島県",
    "city": "呉市",
    "town": "蒲刈町向"
  },
  "7370401": {
    "zipcode": "7370401",
    "prefectureCode": "34",
    "prefectureNumber": 34,
    "prefecture": "広島県",
    "city": "呉市",
    "town": "蒲刈町宮盛"
  },
  "7370402": {
    "zipcode": "7370402",
    "prefectureCode": "34",
    "prefectureNumber": 34,
    "prefecture": "広島県",
    "city": "呉市",
    "town": "蒲刈町大浦"
  },
  "7370403": {
    "zipcode": "7370403",
    "prefectureCode": "34",
    "prefectureNumber": 34,
    "prefecture": "広島県",
    "city": "呉市",
    "town": "蒲刈町田戸"
  },
  "7370801": {
    "zipcode": "7370801",
    "prefectureCode": "34",
    "prefectureNumber": 34,
    "prefecture": "広島県",
    "city": "呉市",
    "town": "東辰川町"
  },
  "7370802": {
    "zipcode": "7370802",
    "prefectureCode": "34",
    "prefectureNumber": 34,
    "prefecture": "広島県",
    "city": "呉市",
    "town": "南辰川町"
  },
  "7370803": {
    "zipcode": "7370803",
    "prefectureCode": "34",
    "prefectureNumber": 34,
    "prefecture": "広島県",
    "city": "呉市",
    "town": "郷町"
  },
  "7370804": {
    "zipcode": "7370804",
    "prefectureCode": "34",
    "prefectureNumber": 34,
    "prefecture": "広島県",
    "city": "呉市",
    "town": "内神町"
  },
  "7370805": {
    "zipcode": "7370805",
    "prefectureCode": "34",
    "prefectureNumber": 34,
    "prefecture": "広島県",
    "city": "呉市",
    "town": "東片山町"
  },
  "7370806": {
    "zipcode": "7370806",
    "prefectureCode": "34",
    "prefectureNumber": 34,
    "prefecture": "広島県",
    "city": "呉市",
    "town": "西片山町"
  },
  "7370807": {
    "zipcode": "7370807",
    "prefectureCode": "34",
    "prefectureNumber": 34,
    "prefecture": "広島県",
    "city": "呉市",
    "town": "江原町"
  },
  "7370808": {
    "zipcode": "7370808",
    "prefectureCode": "34",
    "prefectureNumber": 34,
    "prefecture": "広島県",
    "city": "呉市",
    "town": "上内神町"
  },
  "7370809": {
    "zipcode": "7370809",
    "prefectureCode": "34",
    "prefectureNumber": 34,
    "prefecture": "広島県",
    "city": "呉市",
    "town": "西辰川"
  },
  "7370811": {
    "zipcode": "7370811",
    "prefectureCode": "34",
    "prefectureNumber": 34,
    "prefecture": "広島県",
    "city": "呉市",
    "town": "西中央"
  },
  "7370812": {
    "zipcode": "7370812",
    "prefectureCode": "34",
    "prefectureNumber": 34,
    "prefecture": "広島県",
    "city": "呉市",
    "town": "西三津田町"
  },
  "7370813": {
    "zipcode": "7370813",
    "prefectureCode": "34",
    "prefectureNumber": 34,
    "prefecture": "広島県",
    "city": "呉市",
    "town": "東三津田町"
  },
  "7370814": {
    "zipcode": "7370814",
    "prefectureCode": "34",
    "prefectureNumber": 34,
    "prefecture": "広島県",
    "city": "呉市",
    "town": "山手"
  },
  "7370815": {
    "zipcode": "7370815",
    "prefectureCode": "34",
    "prefectureNumber": 34,
    "prefecture": "広島県",
    "city": "呉市",
    "town": "荘山田村（二河山）"
  },
  "7370816": {
    "zipcode": "7370816",
    "prefectureCode": "34",
    "prefectureNumber": 34,
    "prefecture": "広島県",
    "city": "呉市",
    "town": "二河峡町"
  },
  "7370817": {
    "zipcode": "7370817",
    "prefectureCode": "34",
    "prefectureNumber": 34,
    "prefecture": "広島県",
    "city": "呉市",
    "town": "上二河町"
  },
  "7370818": {
    "zipcode": "7370818",
    "prefectureCode": "34",
    "prefectureNumber": 34,
    "prefecture": "広島県",
    "city": "呉市",
    "town": "二河町"
  },
  "7370821": {
    "zipcode": "7370821",
    "prefectureCode": "34",
    "prefectureNumber": 34,
    "prefecture": "広島県",
    "city": "呉市",
    "town": "三条"
  },
  "7370822": {
    "zipcode": "7370822",
    "prefectureCode": "34",
    "prefectureNumber": 34,
    "prefecture": "広島県",
    "city": "呉市",
    "town": "築地町"
  },
  "7370823": {
    "zipcode": "7370823",
    "prefectureCode": "34",
    "prefectureNumber": 34,
    "prefecture": "広島県",
    "city": "呉市",
    "town": "海岸"
  },
  "7370824": {
    "zipcode": "7370824",
    "prefectureCode": "34",
    "prefectureNumber": 34,
    "prefecture": "広島県",
    "city": "呉市",
    "town": "東川原石町"
  },
  "7370825": {
    "zipcode": "7370825",
    "prefectureCode": "34",
    "prefectureNumber": 34,
    "prefecture": "広島県",
    "city": "呉市",
    "town": "西川原石町"
  },
  "7370826": {
    "zipcode": "7370826",
    "prefectureCode": "34",
    "prefectureNumber": 34,
    "prefecture": "広島県",
    "city": "呉市",
    "town": "両城"
  },
  "7370827": {
    "zipcode": "7370827",
    "prefectureCode": "34",
    "prefectureNumber": 34,
    "prefecture": "広島県",
    "city": "呉市",
    "town": "西愛宕町"
  },
  "7370828": {
    "zipcode": "7370828",
    "prefectureCode": "34",
    "prefectureNumber": 34,
    "prefecture": "広島県",
    "city": "呉市",
    "town": "東愛宕町"
  },
  "7370831": {
    "zipcode": "7370831",
    "prefectureCode": "34",
    "prefectureNumber": 34,
    "prefecture": "広島県",
    "city": "呉市",
    "town": "光町"
  },
  "7370832": {
    "zipcode": "7370832",
    "prefectureCode": "34",
    "prefectureNumber": 34,
    "prefecture": "広島県",
    "city": "呉市",
    "town": "若葉町"
  },
  "7370833": {
    "zipcode": "7370833",
    "prefectureCode": "34",
    "prefectureNumber": 34,
    "prefecture": "広島県",
    "city": "呉市",
    "town": "晴海町"
  },
  "7370834": {
    "zipcode": "7370834",
    "prefectureCode": "34",
    "prefectureNumber": 34,
    "prefecture": "広島県",
    "city": "呉市",
    "town": "瀬戸見町"
  },
  "7370835": {
    "zipcode": "7370835",
    "prefectureCode": "34",
    "prefectureNumber": 34,
    "prefecture": "広島県",
    "city": "呉市",
    "town": "新宮町"
  },
  "7370836": {
    "zipcode": "7370836",
    "prefectureCode": "34",
    "prefectureNumber": 34,
    "prefecture": "広島県",
    "city": "呉市",
    "town": "北塩屋町"
  },
  "7370837": {
    "zipcode": "7370837",
    "prefectureCode": "34",
    "prefectureNumber": 34,
    "prefecture": "広島県",
    "city": "呉市",
    "town": "東塩屋町"
  },
  "7370838": {
    "zipcode": "7370838",
    "prefectureCode": "34",
    "prefectureNumber": 34,
    "prefecture": "広島県",
    "city": "呉市",
    "town": "西塩屋町"
  },
  "7370841": {
    "zipcode": "7370841",
    "prefectureCode": "34",
    "prefectureNumber": 34,
    "prefecture": "広島県",
    "city": "呉市",
    "town": "吉浦神賀町"
  },
  "7370842": {
    "zipcode": "7370842",
    "prefectureCode": "34",
    "prefectureNumber": 34,
    "prefecture": "広島県",
    "city": "呉市",
    "town": "吉浦東町"
  },
  "7370843": {
    "zipcode": "7370843",
    "prefectureCode": "34",
    "prefectureNumber": 34,
    "prefecture": "広島県",
    "city": "呉市",
    "town": "吉浦潭鼓町"
  },
  "7370844": {
    "zipcode": "7370844",
    "prefectureCode": "34",
    "prefectureNumber": 34,
    "prefecture": "広島県",
    "city": "呉市",
    "town": "吉浦池ノ浦町"
  },
  "7370845": {
    "zipcode": "7370845",
    "prefectureCode": "34",
    "prefectureNumber": 34,
    "prefecture": "広島県",
    "city": "呉市",
    "town": "吉浦新町"
  },
  "7370846": {
    "zipcode": "7370846",
    "prefectureCode": "34",
    "prefectureNumber": 34,
    "prefecture": "広島県",
    "city": "呉市",
    "town": "吉浦町（乙廻り）"
  },
  "7370851": {
    "zipcode": "7370851",
    "prefectureCode": "34",
    "prefectureNumber": 34,
    "prefecture": "広島県",
    "city": "呉市",
    "town": "吉浦新出町"
  },
  "7370852": {
    "zipcode": "7370852",
    "prefectureCode": "34",
    "prefectureNumber": 34,
    "prefecture": "広島県",
    "city": "呉市",
    "town": "吉浦東本町"
  },
  "7370853": {
    "zipcode": "7370853",
    "prefectureCode": "34",
    "prefectureNumber": 34,
    "prefecture": "広島県",
    "city": "呉市",
    "town": "吉浦中町"
  },
  "7370854": {
    "zipcode": "7370854",
    "prefectureCode": "34",
    "prefectureNumber": 34,
    "prefecture": "広島県",
    "city": "呉市",
    "town": "吉浦町（その他）"
  },
  "7370861": {
    "zipcode": "7370861",
    "prefectureCode": "34",
    "prefectureNumber": 34,
    "prefecture": "広島県",
    "city": "呉市",
    "town": "吉浦本町"
  },
  "7370862": {
    "zipcode": "7370862",
    "prefectureCode": "34",
    "prefectureNumber": 34,
    "prefecture": "広島県",
    "city": "呉市",
    "town": "狩留賀町"
  },
  "7370863": {
    "zipcode": "7370863",
    "prefectureCode": "34",
    "prefectureNumber": 34,
    "prefecture": "広島県",
    "city": "呉市",
    "town": "吉浦宮花町"
  },
  "7370864": {
    "zipcode": "7370864",
    "prefectureCode": "34",
    "prefectureNumber": 34,
    "prefecture": "広島県",
    "city": "呉市",
    "town": "吉浦西城町"
  },
  "7370865": {
    "zipcode": "7370865",
    "prefectureCode": "34",
    "prefectureNumber": 34,
    "prefecture": "広島県",
    "city": "呉市",
    "town": "吉浦岩神町"
  },
  "7370866": {
    "zipcode": "7370866",
    "prefectureCode": "34",
    "prefectureNumber": 34,
    "prefecture": "広島県",
    "city": "呉市",
    "town": "吉浦松葉町"
  },
  "7370867": {
    "zipcode": "7370867",
    "prefectureCode": "34",
    "prefectureNumber": 34,
    "prefecture": "広島県",
    "city": "呉市",
    "town": "吉浦上城町"
  },
  "7370871": {
    "zipcode": "7370871",
    "prefectureCode": "34",
    "prefectureNumber": 34,
    "prefecture": "広島県",
    "city": "呉市",
    "town": "長谷町"
  },
  "7370872": {
    "zipcode": "7370872",
    "prefectureCode": "34",
    "prefectureNumber": 34,
    "prefecture": "広島県",
    "city": "呉市",
    "town": "梅木町"
  },
  "7370873": {
    "zipcode": "7370873",
    "prefectureCode": "34",
    "prefectureNumber": 34,
    "prefecture": "広島県",
    "city": "呉市",
    "town": "汐見町"
  },
  "7370874": {
    "zipcode": "7370874",
    "prefectureCode": "34",
    "prefectureNumber": 34,
    "prefecture": "広島県",
    "city": "呉市",
    "town": "天応南町"
  },
  "7370875": {
    "zipcode": "7370875",
    "prefectureCode": "34",
    "prefectureNumber": 34,
    "prefecture": "広島県",
    "city": "呉市",
    "town": "天応大浜"
  },
  "7370876": {
    "zipcode": "7370876",
    "prefectureCode": "34",
    "prefectureNumber": 34,
    "prefecture": "広島県",
    "city": "呉市",
    "town": "天応宮町"
  },
  "7370877": {
    "zipcode": "7370877",
    "prefectureCode": "34",
    "prefectureNumber": 34,
    "prefecture": "広島県",
    "city": "呉市",
    "town": "弥生町"
  },
  "7370878": {
    "zipcode": "7370878",
    "prefectureCode": "34",
    "prefectureNumber": 34,
    "prefecture": "広島県",
    "city": "呉市",
    "town": "大山町"
  },
  "7370881": {
    "zipcode": "7370881",
    "prefectureCode": "34",
    "prefectureNumber": 34,
    "prefecture": "広島県",
    "city": "呉市",
    "town": "天応塩谷町"
  },
  "7370882": {
    "zipcode": "7370882",
    "prefectureCode": "34",
    "prefectureNumber": 34,
    "prefecture": "広島県",
    "city": "呉市",
    "town": "天応東久保"
  },
  "7370883": {
    "zipcode": "7370883",
    "prefectureCode": "34",
    "prefectureNumber": 34,
    "prefecture": "広島県",
    "city": "呉市",
    "town": "天応西条"
  },
  "7370884": {
    "zipcode": "7370884",
    "prefectureCode": "34",
    "prefectureNumber": 34,
    "prefecture": "広島県",
    "city": "呉市",
    "town": "天応伝十原町"
  },
  "7370885": {
    "zipcode": "7370885",
    "prefectureCode": "34",
    "prefectureNumber": 34,
    "prefecture": "広島県",
    "city": "呉市",
    "town": "天応福浦町"
  },
  "7370901": {
    "zipcode": "7370901",
    "prefectureCode": "34",
    "prefectureNumber": 34,
    "prefecture": "広島県",
    "city": "呉市",
    "town": "焼山ひばりケ丘町"
  },
  "7370902": {
    "zipcode": "7370902",
    "prefectureCode": "34",
    "prefectureNumber": 34,
    "prefecture": "広島県",
    "city": "呉市",
    "town": "焼山此原町"
  },
  "7370903": {
    "zipcode": "7370903",
    "prefectureCode": "34",
    "prefectureNumber": 34,
    "prefecture": "広島県",
    "city": "呉市",
    "town": "焼山西"
  },
  "7370904": {
    "zipcode": "7370904",
    "prefectureCode": "34",
    "prefectureNumber": 34,
    "prefecture": "広島県",
    "city": "呉市",
    "town": "焼山（打田）"
  },
  "7370905": {
    "zipcode": "7370905",
    "prefectureCode": "34",
    "prefectureNumber": 34,
    "prefecture": "広島県",
    "city": "呉市",
    "town": "焼山町（山の神）"
  },
  "7370906": {
    "zipcode": "7370906",
    "prefectureCode": "34",
    "prefectureNumber": 34,
    "prefecture": "広島県",
    "city": "呉市",
    "town": "焼山町（野登呂）"
  },
  "7370907": {
    "zipcode": "7370907",
    "prefectureCode": "34",
    "prefectureNumber": 34,
    "prefecture": "広島県",
    "city": "呉市",
    "town": "焼山町（その他）"
  },
  "7370908": {
    "zipcode": "7370908",
    "prefectureCode": "34",
    "prefectureNumber": 34,
    "prefecture": "広島県",
    "city": "呉市",
    "town": "焼山宮ケ迫"
  },
  "7370911": {
    "zipcode": "7370911",
    "prefectureCode": "34",
    "prefectureNumber": 34,
    "prefecture": "広島県",
    "city": "呉市",
    "town": "焼山北"
  },
  "7370912": {
    "zipcode": "7370912",
    "prefectureCode": "34",
    "prefectureNumber": 34,
    "prefecture": "広島県",
    "city": "呉市",
    "town": "焼山本庄"
  },
  "7370913": {
    "zipcode": "7370913",
    "prefectureCode": "34",
    "prefectureNumber": 34,
    "prefecture": "広島県",
    "city": "呉市",
    "town": "焼山泉ケ丘"
  },
  "7370914": {
    "zipcode": "7370914",
    "prefectureCode": "34",
    "prefectureNumber": 34,
    "prefecture": "広島県",
    "city": "呉市",
    "town": "押込西平町"
  },
  "7370915": {
    "zipcode": "7370915",
    "prefectureCode": "34",
    "prefectureNumber": 34,
    "prefecture": "広島県",
    "city": "呉市",
    "town": "押込"
  },
  "7370921": {
    "zipcode": "7370921",
    "prefectureCode": "34",
    "prefectureNumber": 34,
    "prefecture": "広島県",
    "city": "呉市",
    "town": "苗代町"
  },
  "7370922": {
    "zipcode": "7370922",
    "prefectureCode": "34",
    "prefectureNumber": 34,
    "prefecture": "広島県",
    "city": "呉市",
    "town": "栃原町"
  },
  "7370923": {
    "zipcode": "7370923",
    "prefectureCode": "34",
    "prefectureNumber": 34,
    "prefecture": "広島県",
    "city": "呉市",
    "town": "神山"
  },
  "7370924": {
    "zipcode": "7370924",
    "prefectureCode": "34",
    "prefectureNumber": 34,
    "prefecture": "広島県",
    "city": "呉市",
    "town": "焼山南"
  },
  "7370931": {
    "zipcode": "7370931",
    "prefectureCode": "34",
    "prefectureNumber": 34,
    "prefecture": "広島県",
    "city": "呉市",
    "town": "焼山三ツ石町"
  },
  "7370932": {
    "zipcode": "7370932",
    "prefectureCode": "34",
    "prefectureNumber": 34,
    "prefecture": "広島県",
    "city": "呉市",
    "town": "焼山松ケ丘"
  },
  "7370933": {
    "zipcode": "7370933",
    "prefectureCode": "34",
    "prefectureNumber": 34,
    "prefecture": "広島県",
    "city": "呉市",
    "town": "焼山桜ケ丘"
  },
  "7370934": {
    "zipcode": "7370934",
    "prefectureCode": "34",
    "prefectureNumber": 34,
    "prefecture": "広島県",
    "city": "呉市",
    "town": "焼山政畝"
  },
  "7370935": {
    "zipcode": "7370935",
    "prefectureCode": "34",
    "prefectureNumber": 34,
    "prefecture": "広島県",
    "city": "呉市",
    "town": "焼山中央"
  },
  "7370936": {
    "zipcode": "7370936",
    "prefectureCode": "34",
    "prefectureNumber": 34,
    "prefecture": "広島県",
    "city": "呉市",
    "town": "焼山東"
  },
  "7371201": {
    "zipcode": "7371201",
    "prefectureCode": "34",
    "prefectureNumber": 34,
    "prefecture": "広島県",
    "city": "呉市",
    "town": "音戸町坪井"
  },
  "7371202": {
    "zipcode": "7371202",
    "prefectureCode": "34",
    "prefectureNumber": 34,
    "prefecture": "広島県",
    "city": "呉市",
    "town": "音戸町引地"
  },
  "7371203": {
    "zipcode": "7371203",
    "prefectureCode": "34",
    "prefectureNumber": 34,
    "prefecture": "広島県",
    "city": "呉市",
    "town": "音戸町鰯浜"
  },
  "7371204": {
    "zipcode": "7371204",
    "prefectureCode": "34",
    "prefectureNumber": 34,
    "prefecture": "広島県",
    "city": "呉市",
    "town": "音戸町北隠渡"
  },
  "7371205": {
    "zipcode": "7371205",
    "prefectureCode": "34",
    "prefectureNumber": 34,
    "prefecture": "広島県",
    "city": "呉市",
    "town": "音戸町南隠渡"
  },
  "7371206": {
    "zipcode": "7371206",
    "prefectureCode": "34",
    "prefectureNumber": 34,
    "prefecture": "広島県",
    "city": "呉市",
    "town": "音戸町高須"
  },
  "7371207": {
    "zipcode": "7371207",
    "prefectureCode": "34",
    "prefectureNumber": 34,
    "prefecture": "広島県",
    "city": "呉市",
    "town": "音戸町波多見"
  },
  "7371211": {
    "zipcode": "7371211",
    "prefectureCode": "34",
    "prefectureNumber": 34,
    "prefecture": "広島県",
    "city": "呉市",
    "town": "音戸町畑"
  },
  "7371212": {
    "zipcode": "7371212",
    "prefectureCode": "34",
    "prefectureNumber": 34,
    "prefecture": "広島県",
    "city": "呉市",
    "town": "音戸町有清"
  },
  "7371213": {
    "zipcode": "7371213",
    "prefectureCode": "34",
    "prefectureNumber": 34,
    "prefecture": "広島県",
    "city": "呉市",
    "town": "音戸町先奥"
  },
  "7371214": {
    "zipcode": "7371214",
    "prefectureCode": "34",
    "prefectureNumber": 34,
    "prefecture": "広島県",
    "city": "呉市",
    "town": "音戸町藤脇"
  },
  "7371215": {
    "zipcode": "7371215",
    "prefectureCode": "34",
    "prefectureNumber": 34,
    "prefecture": "広島県",
    "city": "呉市",
    "town": "音戸町早瀬"
  },
  "7371216": {
    "zipcode": "7371216",
    "prefectureCode": "34",
    "prefectureNumber": 34,
    "prefecture": "広島県",
    "city": "呉市",
    "town": "音戸町田原"
  },
  "7371217": {
    "zipcode": "7371217",
    "prefectureCode": "34",
    "prefectureNumber": 34,
    "prefecture": "広島県",
    "city": "呉市",
    "town": "音戸町渡子"
  },
  "7371377": {
    "zipcode": "7371377",
    "prefectureCode": "34",
    "prefectureNumber": 34,
    "prefecture": "広島県",
    "city": "呉市",
    "town": "倉橋町"
  },
  "7372100": {
    "zipcode": "7372100",
    "prefectureCode": "34",
    "prefectureNumber": 34,
    "prefecture": "広島県",
    "city": "江田島市",
    "town": "以下に掲載がない場合"
  },
  "7372101": {
    "zipcode": "7372101",
    "prefectureCode": "34",
    "prefectureNumber": 34,
    "prefecture": "広島県",
    "city": "江田島市",
    "town": "大柿町飛渡瀬"
  },
  "7372111": {
    "zipcode": "7372111",
    "prefectureCode": "34",
    "prefectureNumber": 34,
    "prefecture": "広島県",
    "city": "江田島市",
    "town": "江田島町切串"
  },
  "7372112": {
    "zipcode": "7372112",
    "prefectureCode": "34",
    "prefectureNumber": 34,
    "prefecture": "広島県",
    "city": "江田島市",
    "town": "江田島町幸ノ浦"
  },
  "7372113": {
    "zipcode": "7372113",
    "prefectureCode": "34",
    "prefectureNumber": 34,
    "prefecture": "広島県",
    "city": "江田島市",
    "town": "江田島町大須"
  },
  "7372121": {
    "zipcode": "7372121",
    "prefectureCode": "34",
    "prefectureNumber": 34,
    "prefecture": "広島県",
    "city": "江田島市",
    "town": "江田島町小用"
  },
  "7372122": {
    "zipcode": "7372122",
    "prefectureCode": "34",
    "prefectureNumber": 34,
    "prefecture": "広島県",
    "city": "江田島市",
    "town": "江田島町中央"
  },
  "7372123": {
    "zipcode": "7372123",
    "prefectureCode": "34",
    "prefectureNumber": 34,
    "prefecture": "広島県",
    "city": "江田島市",
    "town": "江田島町国有無番地"
  },
  "7372124": {
    "zipcode": "7372124",
    "prefectureCode": "34",
    "prefectureNumber": 34,
    "prefecture": "広島県",
    "city": "江田島市",
    "town": "江田島町宮ノ原"
  },
  "7372125": {
    "zipcode": "7372125",
    "prefectureCode": "34",
    "prefectureNumber": 34,
    "prefecture": "広島県",
    "city": "江田島市",
    "town": "江田島町大原特借宿舎"
  },
  "7372126": {
    "zipcode": "7372126",
    "prefectureCode": "34",
    "prefectureNumber": 34,
    "prefecture": "広島県",
    "city": "江田島市",
    "town": "江田島町津久茂"
  },
  "7372131": {
    "zipcode": "7372131",
    "prefectureCode": "34",
    "prefectureNumber": 34,
    "prefecture": "広島県",
    "city": "江田島市",
    "town": "江田島町秋月"
  },
  "7372132": {
    "zipcode": "7372132",
    "prefectureCode": "34",
    "prefectureNumber": 34,
    "prefecture": "広島県",
    "city": "江田島市",
    "town": "江田島町江南"
  },
  "7372133": {
    "zipcode": "7372133",
    "prefectureCode": "34",
    "prefectureNumber": 34,
    "prefecture": "広島県",
    "city": "江田島市",
    "town": "江田島町鷲部"
  },
  "7372211": {
    "zipcode": "7372211",
    "prefectureCode": "34",
    "prefectureNumber": 34,
    "prefecture": "広島県",
    "city": "江田島市",
    "town": "大柿町柿浦"
  },
  "7372212": {
    "zipcode": "7372212",
    "prefectureCode": "34",
    "prefectureNumber": 34,
    "prefecture": "広島県",
    "city": "江田島市",
    "town": "大柿町大君"
  },
  "7372213": {
    "zipcode": "7372213",
    "prefectureCode": "34",
    "prefectureNumber": 34,
    "prefecture": "広島県",
    "city": "江田島市",
    "town": "大柿町大原"
  },
  "7372214": {
    "zipcode": "7372214",
    "prefectureCode": "34",
    "prefectureNumber": 34,
    "prefecture": "広島県",
    "city": "江田島市",
    "town": "大柿町深江"
  },
  "7372215": {
    "zipcode": "7372215",
    "prefectureCode": "34",
    "prefectureNumber": 34,
    "prefecture": "広島県",
    "city": "江田島市",
    "town": "大柿町小古江"
  },
  "7372301": {
    "zipcode": "7372301",
    "prefectureCode": "34",
    "prefectureNumber": 34,
    "prefecture": "広島県",
    "city": "江田島市",
    "town": "能美町中町"
  },
  "7372302": {
    "zipcode": "7372302",
    "prefectureCode": "34",
    "prefectureNumber": 34,
    "prefecture": "広島県",
    "city": "江田島市",
    "town": "能美町鹿川"
  },
  "7372303": {
    "zipcode": "7372303",
    "prefectureCode": "34",
    "prefectureNumber": 34,
    "prefecture": "広島県",
    "city": "江田島市",
    "town": "能美町高田"
  },
  "7372311": {
    "zipcode": "7372311",
    "prefectureCode": "34",
    "prefectureNumber": 34,
    "prefecture": "広島県",
    "city": "江田島市",
    "town": "沖美町岡大王"
  },
  "7372312": {
    "zipcode": "7372312",
    "prefectureCode": "34",
    "prefectureNumber": 34,
    "prefecture": "広島県",
    "city": "江田島市",
    "town": "沖美町畑"
  },
  "7372313": {
    "zipcode": "7372313",
    "prefectureCode": "34",
    "prefectureNumber": 34,
    "prefecture": "広島県",
    "city": "江田島市",
    "town": "沖美町是長"
  },
  "7372314": {
    "zipcode": "7372314",
    "prefectureCode": "34",
    "prefectureNumber": 34,
    "prefecture": "広島県",
    "city": "江田島市",
    "town": "沖美町美能"
  },
  "7372315": {
    "zipcode": "7372315",
    "prefectureCode": "34",
    "prefectureNumber": 34,
    "prefecture": "広島県",
    "city": "江田島市",
    "town": "沖美町高祖"
  },
  "7372316": {
    "zipcode": "7372316",
    "prefectureCode": "34",
    "prefectureNumber": 34,
    "prefecture": "広島県",
    "city": "江田島市",
    "town": "沖美町三吉"
  },
  "7372501": {
    "zipcode": "7372501",
    "prefectureCode": "34",
    "prefectureNumber": 34,
    "prefecture": "広島県",
    "city": "呉市",
    "town": "安浦町女子畑"
  },
  "7372502": {
    "zipcode": "7372502",
    "prefectureCode": "34",
    "prefectureNumber": 34,
    "prefecture": "広島県",
    "city": "呉市",
    "town": "安浦町三津口"
  },
  "7372503": {
    "zipcode": "7372503",
    "prefectureCode": "34",
    "prefectureNumber": 34,
    "prefecture": "広島県",
    "city": "呉市",
    "town": "安浦町安登"
  },
  "7372504": {
    "zipcode": "7372504",
    "prefectureCode": "34",
    "prefectureNumber": 34,
    "prefecture": "広島県",
    "city": "呉市",
    "town": "安浦町中切（その他）"
  },
  "7372505": {
    "zipcode": "7372505",
    "prefectureCode": "34",
    "prefectureNumber": 34,
    "prefecture": "広島県",
    "city": "呉市",
    "town": "安浦町内平"
  },
  "7372506": {
    "zipcode": "7372506",
    "prefectureCode": "34",
    "prefectureNumber": 34,
    "prefecture": "広島県",
    "city": "呉市",
    "town": "安浦町原畑"
  },
  "7372507": {
    "zipcode": "7372507",
    "prefectureCode": "34",
    "prefectureNumber": 34,
    "prefecture": "広島県",
    "city": "呉市",
    "town": "安浦町内海"
  },
  "7372508": {
    "zipcode": "7372508",
    "prefectureCode": "34",
    "prefectureNumber": 34,
    "prefecture": "広島県",
    "city": "呉市",
    "town": "安浦町中畑（その他）"
  },
  "7372509": {
    "zipcode": "7372509",
    "prefectureCode": "34",
    "prefectureNumber": 34,
    "prefecture": "広島県",
    "city": "呉市",
    "town": "安浦町下垣内"
  },
  "7372511": {
    "zipcode": "7372511",
    "prefectureCode": "34",
    "prefectureNumber": 34,
    "prefecture": "広島県",
    "city": "呉市",
    "town": "安浦町赤向坂"
  },
  "7372512": {
    "zipcode": "7372512",
    "prefectureCode": "34",
    "prefectureNumber": 34,
    "prefecture": "広島県",
    "city": "呉市",
    "town": "安浦町安登西"
  },
  "7372513": {
    "zipcode": "7372513",
    "prefectureCode": "34",
    "prefectureNumber": 34,
    "prefecture": "広島県",
    "city": "呉市",
    "town": "安浦町安登東"
  },
  "7372514": {
    "zipcode": "7372514",
    "prefectureCode": "34",
    "prefectureNumber": 34,
    "prefecture": "広島県",
    "city": "呉市",
    "town": "安浦町中央ハイツ"
  },
  "7372515": {
    "zipcode": "7372515",
    "prefectureCode": "34",
    "prefectureNumber": 34,
    "prefecture": "広島県",
    "city": "呉市",
    "town": "安浦町中央北"
  },
  "7372516": {
    "zipcode": "7372516",
    "prefectureCode": "34",
    "prefectureNumber": 34,
    "prefecture": "広島県",
    "city": "呉市",
    "town": "安浦町中央"
  },
  "7372517": {
    "zipcode": "7372517",
    "prefectureCode": "34",
    "prefectureNumber": 34,
    "prefecture": "広島県",
    "city": "呉市",
    "town": "安浦町水尻"
  },
  "7372518": {
    "zipcode": "7372518",
    "prefectureCode": "34",
    "prefectureNumber": 34,
    "prefecture": "広島県",
    "city": "呉市",
    "town": "安浦町内海北"
  },
  "7372519": {
    "zipcode": "7372519",
    "prefectureCode": "34",
    "prefectureNumber": 34,
    "prefecture": "広島県",
    "city": "呉市",
    "town": "安浦町内海南"
  },
  "7372601": {
    "zipcode": "7372601",
    "prefectureCode": "34",
    "prefectureNumber": 34,
    "prefecture": "広島県",
    "city": "呉市",
    "town": "川尻町原山"
  },
  "7372602": {
    "zipcode": "7372602",
    "prefectureCode": "34",
    "prefectureNumber": 34,
    "prefecture": "広島県",
    "city": "呉市",
    "town": "川尻町森"
  },
  "7372603": {
    "zipcode": "7372603",
    "prefectureCode": "34",
    "prefectureNumber": 34,
    "prefecture": "広島県",
    "city": "呉市",
    "town": "川尻町西"
  },
  "7372604": {
    "zipcode": "7372604",
    "prefectureCode": "34",
    "prefectureNumber": 34,
    "prefecture": "広島県",
    "city": "呉市",
    "town": "川尻町小仁方"
  },
  "7372605": {
    "zipcode": "7372605",
    "prefectureCode": "34",
    "prefectureNumber": 34,
    "prefecture": "広島県",
    "city": "呉市",
    "town": "川尻町久俊"
  },
  "7372606": {
    "zipcode": "7372606",
    "prefectureCode": "34",
    "prefectureNumber": 34,
    "prefecture": "広島県",
    "city": "呉市",
    "town": "川尻町久筋"
  },
  "7372607": {
    "zipcode": "7372607",
    "prefectureCode": "34",
    "prefectureNumber": 34,
    "prefecture": "広島県",
    "city": "呉市",
    "town": "川尻町東"
  },
  "7372608": {
    "zipcode": "7372608",
    "prefectureCode": "34",
    "prefectureNumber": 34,
    "prefecture": "広島県",
    "city": "呉市",
    "town": "川尻町小用"
  },
  "7372609": {
    "zipcode": "7372609",
    "prefectureCode": "34",
    "prefectureNumber": 34,
    "prefecture": "広島県",
    "city": "呉市",
    "town": "安浦町野呂山"
  },
  "7372614": {
    "zipcode": "7372614",
    "prefectureCode": "34",
    "prefectureNumber": 34,
    "prefecture": "広島県",
    "city": "呉市",
    "town": "川尻町大原"
  },
  "7372615": {
    "zipcode": "7372615",
    "prefectureCode": "34",
    "prefectureNumber": 34,
    "prefecture": "広島県",
    "city": "呉市",
    "town": "川尻町真光地"
  },
  "7372616": {
    "zipcode": "7372616",
    "prefectureCode": "34",
    "prefectureNumber": 34,
    "prefecture": "広島県",
    "city": "呉市",
    "town": "川尻町水落"
  },
  "7372617": {
    "zipcode": "7372617",
    "prefectureCode": "34",
    "prefectureNumber": 34,
    "prefecture": "広島県",
    "city": "呉市",
    "town": "川尻町小畑"
  },
  "7372631": {
    "zipcode": "7372631",
    "prefectureCode": "34",
    "prefectureNumber": 34,
    "prefecture": "広島県",
    "city": "呉市",
    "town": "川尻町板休"
  },
  "7372632": {
    "zipcode": "7372632",
    "prefectureCode": "34",
    "prefectureNumber": 34,
    "prefecture": "広島県",
    "city": "呉市",
    "town": "川尻町上畑"
  },
  "7372633": {
    "zipcode": "7372633",
    "prefectureCode": "34",
    "prefectureNumber": 34,
    "prefecture": "広島県",
    "city": "呉市",
    "town": "川尻町沖田"
  },
  "7372634": {
    "zipcode": "7372634",
    "prefectureCode": "34",
    "prefectureNumber": 34,
    "prefecture": "広島県",
    "city": "呉市",
    "town": "川尻町岩戸"
  },
  "7372635": {
    "zipcode": "7372635",
    "prefectureCode": "34",
    "prefectureNumber": 34,
    "prefecture": "広島県",
    "city": "呉市",
    "town": "川尻町柳迫"
  },
  "7372636": {
    "zipcode": "7372636",
    "prefectureCode": "34",
    "prefectureNumber": 34,
    "prefecture": "広島県",
    "city": "呉市",
    "town": "川尻町才野谷"
  },
  "7372637": {
    "zipcode": "7372637",
    "prefectureCode": "34",
    "prefectureNumber": 34,
    "prefecture": "広島県",
    "city": "呉市",
    "town": "川尻町後懸"
  }
}
