{
  "7390000": {
    "zipcode": "7390000",
    "prefectureCode": "34",
    "prefectureNumber": 34,
    "prefecture": "広島県",
    "city": "東広島市",
    "town": "以下に掲載がない場合"
  },
  "7390001": {
    "zipcode": "7390001",
    "prefectureCode": "34",
    "prefectureNumber": 34,
    "prefecture": "広島県",
    "city": "東広島市",
    "town": "西条町西条"
  },
  "7390002": {
    "zipcode": "7390002",
    "prefectureCode": "34",
    "prefectureNumber": 34,
    "prefecture": "広島県",
    "city": "東広島市",
    "town": "西条町吉行"
  },
  "7390003": {
    "zipcode": "7390003",
    "prefectureCode": "34",
    "prefectureNumber": 34,
    "prefecture": "広島県",
    "city": "東広島市",
    "town": "西条町土与丸"
  },
  "7390004": {
    "zipcode": "7390004",
    "prefectureCode": "34",
    "prefectureNumber": 34,
    "prefecture": "広島県",
    "city": "東広島市",
    "town": "西条末広町"
  },
  "7390005": {
    "zipcode": "7390005",
    "prefectureCode": "34",
    "prefectureNumber": 34,
    "prefecture": "広島県",
    "city": "東広島市",
    "town": "西条大坪町"
  },
  "7390006": {
    "zipcode": "7390006",
    "prefectureCode": "34",
    "prefectureNumber": 34,
    "prefecture": "広島県",
    "city": "東広島市",
    "town": "西条上市町"
  },
  "7390007": {
    "zipcode": "7390007",
    "prefectureCode": "34",
    "prefectureNumber": 34,
    "prefecture": "広島県",
    "city": "東広島市",
    "town": "西条土与丸"
  },
  "7390008": {
    "zipcode": "7390008",
    "prefectureCode": "34",
    "prefectureNumber": 34,
    "prefecture": "広島県",
    "city": "東広島市",
    "town": "西条吉行東"
  },
  "7390011": {
    "zipcode": "7390011",
    "prefectureCode": "34",
    "prefectureNumber": 34,
    "prefecture": "広島県",
    "city": "東広島市",
    "town": "西条本町"
  },
  "7390012": {
    "zipcode": "7390012",
    "prefectureCode": "34",
    "prefectureNumber": 34,
    "prefecture": "広島県",
    "city": "東広島市",
    "town": "西条朝日町"
  },
  "7390013": {
    "zipcode": "7390013",
    "prefectureCode": "34",
    "prefectureNumber": 34,
    "prefecture": "広島県",
    "city": "東広島市",
    "town": "西条御条町"
  },
  "7390014": {
    "zipcode": "7390014",
    "prefectureCode": "34",
    "prefectureNumber": 34,
    "prefecture": "広島県",
    "city": "東広島市",
    "town": "西条昭和町"
  },
  "7390015": {
    "zipcode": "7390015",
    "prefectureCode": "34",
    "prefectureNumber": 34,
    "prefecture": "広島県",
    "city": "東広島市",
    "town": "西条栄町"
  },
  "7390016": {
    "zipcode": "7390016",
    "prefectureCode": "34",
    "prefectureNumber": 34,
    "prefecture": "広島県",
    "city": "東広島市",
    "town": "西条岡町"
  },
  "7390021": {
    "zipcode": "7390021",
    "prefectureCode": "34",
    "prefectureNumber": 34,
    "prefecture": "広島県",
    "city": "東広島市",
    "town": "西条町助実"
  },
  "7390022": {
    "zipcode": "7390022",
    "prefectureCode": "34",
    "prefectureNumber": 34,
    "prefecture": "広島県",
    "city": "東広島市",
    "town": "西条町上三永"
  },
  "7390023": {
    "zipcode": "7390023",
    "prefectureCode": "34",
    "prefectureNumber": 34,
    "prefecture": "広島県",
    "city": "東広島市",
    "town": "西条町下三永"
  },
  "7390024": {
    "zipcode": "7390024",
    "prefectureCode": "34",
    "prefectureNumber": 34,
    "prefecture": "広島県",
    "city": "東広島市",
    "town": "西条町御薗宇"
  },
  "7390025": {
    "zipcode": "7390025",
    "prefectureCode": "34",
    "prefectureNumber": 34,
    "prefecture": "広島県",
    "city": "東広島市",
    "town": "西条中央"
  },
  "7390026": {
    "zipcode": "7390026",
    "prefectureCode": "34",
    "prefectureNumber": 34,
    "prefecture": "広島県",
    "city": "東広島市",
    "town": "三永"
  },
  "7390031": {
    "zipcode": "7390031",
    "prefectureCode": "34",
    "prefectureNumber": 34,
    "prefecture": "広島県",
    "city": "東広島市",
    "town": "西条町福本"
  },
  "7390032": {
    "zipcode": "7390032",
    "prefectureCode": "34",
    "prefectureNumber": 34,
    "prefecture": "広島県",
    "city": "東広島市",
    "town": "西条町森近"
  },
  "7390033": {
    "zipcode": "7390033",
    "prefectureCode": "34",
    "prefectureNumber": 34,
    "prefecture": "広島県",
    "city": "東広島市",
    "town": "西条町馬木"
  },
  "7390034": {
    "zipcode": "7390034",
    "prefectureCode": "34",
    "prefectureNumber": 34,
    "prefecture": "広島県",
    "city": "東広島市",
    "town": "西条町大沢"
  },
  "7390035": {
    "zipcode": "7390035",
    "prefectureCode": "34",
    "prefectureNumber": 34,
    "prefecture": "広島県",
    "city": "東広島市",
    "town": "西条町郷曽"
  },
  "7390036": {
    "zipcode": "7390036",
    "prefectureCode": "34",
    "prefectureNumber": 34,
    "prefecture": "広島県",
    "city": "東広島市",
    "town": "西条町田口"
  },
  "7390037": {
    "zipcode": "7390037",
    "prefectureCode": "34",
    "prefectureNumber": 34,
    "prefecture": "広島県",
    "city": "東広島市",
    "town": "西大沢"
  },
  "7390038": {
    "zipcode": "7390038",
    "prefectureCode": "34",
    "prefectureNumber": 34,
    "prefecture": "広島県",
    "city": "東広島市",
    "town": "田口研究団地"
  },
  "7390040": {
    "zipcode": "7390040",
    "prefectureCode": "34",
    "prefectureNumber": 34,
    "prefecture": "広島県",
    "city": "東広島市",
    "town": "寺家駅前"
  },
  "7390041": {
    "zipcode": "7390041",
    "prefectureCode": "34",
    "prefectureNumber": 34,
    "prefecture": "広島県",
    "city": "東広島市",
    "town": "西条町寺家"
  },
  "7390042": {
    "zipcode": "7390042",
    "prefectureCode": "34",
    "prefectureNumber": 34,
    "prefecture": "広島県",
    "city": "東広島市",
    "town": "西条町西条東"
  },
  "7390043": {
    "zipcode": "7390043",
    "prefectureCode": "34",
    "prefectureNumber": 34,
    "prefecture": "広島県",
    "city": "東広島市",
    "town": "西条西本町"
  },
  "7390044": {
    "zipcode": "7390044",
    "prefectureCode": "34",
    "prefectureNumber": 34,
    "prefecture": "広島県",
    "city": "東広島市",
    "town": "西条町下見"
  },
  "7390045": {
    "zipcode": "7390045",
    "prefectureCode": "34",
    "prefectureNumber": 34,
    "prefecture": "広島県",
    "city": "東広島市",
    "town": "鏡山北"
  },
  "7390046": {
    "zipcode": "7390046",
    "prefectureCode": "34",
    "prefectureNumber": 34,
    "prefecture": "広島県",
    "city": "東広島市",
    "town": "鏡山"
  },
  "7390047": {
    "zipcode": "7390047",
    "prefectureCode": "34",
    "prefectureNumber": 34,
    "prefecture": "広島県",
    "city": "東広島市",
    "town": "西条下見"
  },
  "7390048": {
    "zipcode": "7390048",
    "prefectureCode": "34",
    "prefectureNumber": 34,
    "prefecture": "広島県",
    "city": "東広島市",
    "town": "西条東北町"
  },
  "7390049": {
    "zipcode": "7390049",
    "prefectureCode": "34",
    "prefectureNumber": 34,
    "prefecture": "広島県",
    "city": "東広島市",
    "town": "寺家産業団地"
  },
  "7390131": {
    "zipcode": "7390131",
    "prefectureCode": "34",
    "prefectureNumber": 34,
    "prefecture": "広島県",
    "city": "東広島市",
    "town": "八本松町篠"
  },
  "7390132": {
    "zipcode": "7390132",
    "prefectureCode": "34",
    "prefectureNumber": 34,
    "prefecture": "広島県",
    "city": "東広島市",
    "town": "八本松町正力"
  },
  "7390133": {
    "zipcode": "7390133",
    "prefectureCode": "34",
    "prefectureNumber": 34,
    "prefecture": "広島県",
    "city": "東広島市",
    "town": "八本松町米満"
  },
  "7390141": {
    "zipcode": "7390141",
    "prefectureCode": "34",
    "prefectureNumber": 34,
    "prefecture": "広島県",
    "city": "東広島市",
    "town": "八本松町飯田"
  },
  "7390142": {
    "zipcode": "7390142",
    "prefectureCode": "34",
    "prefectureNumber": 34,
    "prefecture": "広島県",
    "city": "東広島市",
    "town": "八本松東"
  },
  "7390144": {
    "zipcode": "7390144",
    "prefectureCode": "34",
    "prefectureNumber": 34,
    "prefecture": "広島県",
    "city": "東広島市",
    "town": "八本松南"
  },
  "7390145": {
    "zipcode": "7390145",
    "prefectureCode": "34",
    "prefectureNumber": 34,
    "prefecture": "広島県",
    "city": "東広島市",
    "town": "八本松町宗吉"
  },
  "7390146": {
    "zipcode": "7390146",
    "prefectureCode": "34",
    "prefectureNumber": 34,
    "prefecture": "広島県",
    "city": "東広島市",
    "town": "八本松飯田"
  },
  "7390147": {
    "zipcode": "7390147",
    "prefectureCode": "34",
    "prefectureNumber": 34,
    "prefecture": "広島県",
    "city": "東広島市",
    "town": "八本松西"
  },
  "7390151": {
    "zipcode": "7390151",
    "prefectureCode": "34",
    "prefectureNumber": 34,
    "prefecture": "広島県",
    "city": "東広島市",
    "town": "八本松町原"
  },
  "7390152": {
    "zipcode": "7390152",
    "prefectureCode": "34",
    "prefectureNumber": 34,
    "prefecture": "広島県",
    "city": "東広島市",
    "town": "八本松町吉川"
  },
  "7390153": {
    "zipcode": "7390153",
    "prefectureCode": "34",
    "prefectureNumber": 34,
    "prefecture": "広島県",
    "city": "東広島市",
    "town": "吉川工業団地"
  },
  "7390261": {
    "zipcode": "7390261",
    "prefectureCode": "34",
    "prefectureNumber": 34,
    "prefecture": "広島県",
    "city": "東広島市",
    "town": "志和町内"
  },
  "7390262": {
    "zipcode": "7390262",
    "prefectureCode": "34",
    "prefectureNumber": 34,
    "prefecture": "広島県",
    "city": "東広島市",
    "town": "志和町志和東"
  },
  "7390263": {
    "zipcode": "7390263",
    "prefectureCode": "34",
    "prefectureNumber": 34,
    "prefecture": "広島県",
    "city": "東広島市",
    "town": "志和流通"
  },
  "7390264": {
    "zipcode": "7390264",
    "prefectureCode": "34",
    "prefectureNumber": 34,
    "prefecture": "広島県",
    "city": "東広島市",
    "town": "志和町七条椛坂"
  },
  "7390265": {
    "zipcode": "7390265",
    "prefectureCode": "34",
    "prefectureNumber": 34,
    "prefecture": "広島県",
    "city": "東広島市",
    "town": "志和町冠"
  },
  "7390266": {
    "zipcode": "7390266",
    "prefectureCode": "34",
    "prefectureNumber": 34,
    "prefecture": "広島県",
    "city": "東広島市",
    "town": "志和町奥屋"
  },
  "7390267": {
    "zipcode": "7390267",
    "prefectureCode": "34",
    "prefectureNumber": 34,
    "prefecture": "広島県",
    "city": "東広島市",
    "town": "志和町別府"
  },
  "7390268": {
    "zipcode": "7390268",
    "prefectureCode": "34",
    "prefectureNumber": 34,
    "prefecture": "広島県",
    "city": "東広島市",
    "town": "志和町志和西"
  },
  "7390269": {
    "zipcode": "7390269",
    "prefectureCode": "34",
    "prefectureNumber": 34,
    "prefecture": "広島県",
    "city": "東広島市",
    "town": "志和町志和堀"
  },
  "7390301": {
    "zipcode": "7390301",
    "prefectureCode": "34",
    "prefectureNumber": 34,
    "prefecture": "広島県",
    "city": "広島市安芸区",
    "town": "上瀬野"
  },
  "7390302": {
    "zipcode": "7390302",
    "prefectureCode": "34",
    "prefectureNumber": 34,
    "prefecture": "広島県",
    "city": "広島市安芸区",
    "town": "上瀬野町"
  },
  "7390303": {
    "zipcode": "7390303",
    "prefectureCode": "34",
    "prefectureNumber": 34,
    "prefecture": "広島県",
    "city": "広島市安芸区",
    "town": "上瀬野南"
  },
  "7390311": {
    "zipcode": "7390311",
    "prefectureCode": "34",
    "prefectureNumber": 34,
    "prefecture": "広島県",
    "city": "広島市安芸区",
    "town": "瀬野"
  },
  "7390312": {
    "zipcode": "7390312",
    "prefectureCode": "34",
    "prefectureNumber": 34,
    "prefecture": "広島県",
    "city": "広島市安芸区",
    "town": "瀬野町"
  },
  "7390313": {
    "zipcode": "7390313",
    "prefectureCode": "34",
    "prefectureNumber": 34,
    "prefecture": "広島県",
    "city": "広島市安芸区",
    "town": "瀬野西"
  },
  "7390314": {
    "zipcode": "7390314",
    "prefectureCode": "34",
    "prefectureNumber": 34,
    "prefecture": "広島県",
    "city": "広島市安芸区",
    "town": "瀬野南"
  },
  "7390315": {
    "zipcode": "7390315",
    "prefectureCode": "34",
    "prefectureNumber": 34,
    "prefecture": "広島県",
    "city": "広島市安芸区",
    "town": "瀬野南町"
  },
  "7390321": {
    "zipcode": "7390321",
    "prefectureCode": "34",
    "prefectureNumber": 34,
    "prefecture": "広島県",
    "city": "広島市安芸区",
    "town": "中野"
  },
  "7390322": {
    "zipcode": "7390322",
    "prefectureCode": "34",
    "prefectureNumber": 34,
    "prefecture": "広島県",
    "city": "広島市安芸区",
    "town": "中野町"
  },
  "7390323": {
    "zipcode": "7390323",
    "prefectureCode": "34",
    "prefectureNumber": 34,
    "prefecture": "広島県",
    "city": "広島市安芸区",
    "town": "中野東"
  },
  "7390324": {
    "zipcode": "7390324",
    "prefectureCode": "34",
    "prefectureNumber": 34,
    "prefecture": "広島県",
    "city": "広島市安芸区",
    "town": "中野東町"
  },
  "7390401": {
    "zipcode": "7390401",
    "prefectureCode": "34",
    "prefectureNumber": 34,
    "prefecture": "広島県",
    "city": "廿日市市",
    "town": "福面"
  },
  "7390402": {
    "zipcode": "7390402",
    "prefectureCode": "34",
    "prefectureNumber": 34,
    "prefecture": "広島県",
    "city": "廿日市市",
    "town": "対厳山"
  },
  "7390403": {
    "zipcode": "7390403",
    "prefectureCode": "34",
    "prefectureNumber": 34,
    "prefecture": "広島県",
    "city": "廿日市市",
    "town": "大野下更地"
  },
  "7390404": {
    "zipcode": "7390404",
    "prefectureCode": "34",
    "prefectureNumber": 34,
    "prefecture": "広島県",
    "city": "廿日市市",
    "town": "大野十郎原"
  },
  "7390405": {
    "zipcode": "7390405",
    "prefectureCode": "34",
    "prefectureNumber": 34,
    "prefecture": "広島県",
    "city": "廿日市市",
    "town": "大野戸石川"
  },
  "7390406": {
    "zipcode": "7390406",
    "prefectureCode": "34",
    "prefectureNumber": 34,
    "prefecture": "広島県",
    "city": "廿日市市",
    "town": "大野中山"
  },
  "7390407": {
    "zipcode": "7390407",
    "prefectureCode": "34",
    "prefectureNumber": 34,
    "prefecture": "広島県",
    "city": "廿日市市",
    "town": "大野上更地"
  },
  "7390408": {
    "zipcode": "7390408",
    "prefectureCode": "34",
    "prefectureNumber": 34,
    "prefecture": "広島県",
    "city": "廿日市市",
    "town": "大野鯛ノ原"
  },
  "7390411": {
    "zipcode": "7390411",
    "prefectureCode": "34",
    "prefectureNumber": 34,
    "prefecture": "広島県",
    "city": "廿日市市",
    "town": "宮島口"
  },
  "7390412": {
    "zipcode": "7390412",
    "prefectureCode": "34",
    "prefectureNumber": 34,
    "prefecture": "広島県",
    "city": "廿日市市",
    "town": "宮島口西"
  },
  "7390413": {
    "zipcode": "7390413",
    "prefectureCode": "34",
    "prefectureNumber": 34,
    "prefecture": "広島県",
    "city": "廿日市市",
    "town": "宮島口上"
  },
  "7390414": {
    "zipcode": "7390414",
    "prefectureCode": "34",
    "prefectureNumber": 34,
    "prefecture": "広島県",
    "city": "廿日市市",
    "town": "宮島口東"
  },
  "7390421": {
    "zipcode": "7390421",
    "prefectureCode": "34",
    "prefectureNumber": 34,
    "prefecture": "広島県",
    "city": "廿日市市",
    "town": "深江"
  },
  "7390422": {
    "zipcode": "7390422",
    "prefectureCode": "34",
    "prefectureNumber": 34,
    "prefecture": "広島県",
    "city": "廿日市市",
    "town": "大野早時"
  },
  "7390423": {
    "zipcode": "7390423",
    "prefectureCode": "34",
    "prefectureNumber": 34,
    "prefecture": "広島県",
    "city": "廿日市市",
    "town": "大野賀撫津"
  },
  "7390424": {
    "zipcode": "7390424",
    "prefectureCode": "34",
    "prefectureNumber": 34,
    "prefecture": "広島県",
    "city": "廿日市市",
    "town": "前空"
  },
  "7390425": {
    "zipcode": "7390425",
    "prefectureCode": "34",
    "prefectureNumber": 34,
    "prefecture": "広島県",
    "city": "廿日市市",
    "town": "物見西"
  },
  "7390426": {
    "zipcode": "7390426",
    "prefectureCode": "34",
    "prefectureNumber": 34,
    "prefecture": "広島県",
    "city": "廿日市市",
    "town": "物見東"
  },
  "7390432": {
    "zipcode": "7390432",
    "prefectureCode": "34",
    "prefectureNumber": 34,
    "prefecture": "広島県",
    "city": "廿日市市",
    "town": "上の浜"
  },
  "7390433": {
    "zipcode": "7390433",
    "prefectureCode": "34",
    "prefectureNumber": 34,
    "prefecture": "広島県",
    "city": "廿日市市",
    "town": "下の浜"
  },
  "7390434": {
    "zipcode": "7390434",
    "prefectureCode": "34",
    "prefectureNumber": 34,
    "prefecture": "広島県",
    "city": "廿日市市",
    "town": "大野（１、２丁目）"
  },
  "7390437": {
    "zipcode": "7390437",
    "prefectureCode": "34",
    "prefectureNumber": 34,
    "prefecture": "広島県",
    "city": "廿日市市",
    "town": "大野中央"
  },
  "7390441": {
    "zipcode": "7390441",
    "prefectureCode": "34",
    "prefectureNumber": 34,
    "prefecture": "広島県",
    "city": "廿日市市",
    "town": "大野原"
  },
  "7390442": {
    "zipcode": "7390442",
    "prefectureCode": "34",
    "prefectureNumber": 34,
    "prefecture": "広島県",
    "city": "廿日市市",
    "town": "梅原"
  },
  "7390443": {
    "zipcode": "7390443",
    "prefectureCode": "34",
    "prefectureNumber": 34,
    "prefecture": "広島県",
    "city": "廿日市市",
    "town": "沖塩屋"
  },
  "7390444": {
    "zipcode": "7390444",
    "prefectureCode": "34",
    "prefectureNumber": 34,
    "prefecture": "広島県",
    "city": "廿日市市",
    "town": "林が原"
  },
  "7390445": {
    "zipcode": "7390445",
    "prefectureCode": "34",
    "prefectureNumber": 34,
    "prefecture": "広島県",
    "city": "廿日市市",
    "town": "塩屋"
  },
  "7390446": {
    "zipcode": "7390446",
    "prefectureCode": "34",
    "prefectureNumber": 34,
    "prefecture": "広島県",
    "city": "廿日市市",
    "town": "大野小山"
  },
  "7390452": {
    "zipcode": "7390452",
    "prefectureCode": "34",
    "prefectureNumber": 34,
    "prefecture": "広島県",
    "city": "廿日市市",
    "town": "丸石"
  },
  "7390454": {
    "zipcode": "7390454",
    "prefectureCode": "34",
    "prefectureNumber": 34,
    "prefecture": "広島県",
    "city": "廿日市市",
    "town": "宮浜温泉"
  },
  "7390455": {
    "zipcode": "7390455",
    "prefectureCode": "34",
    "prefectureNumber": 34,
    "prefecture": "広島県",
    "city": "廿日市市",
    "town": "八坂"
  },
  "7390456": {
    "zipcode": "7390456",
    "prefectureCode": "34",
    "prefectureNumber": 34,
    "prefecture": "広島県",
    "city": "廿日市市",
    "town": "大野垣ノ浦"
  },
  "7390457": {
    "zipcode": "7390457",
    "prefectureCode": "34",
    "prefectureNumber": 34,
    "prefecture": "広島県",
    "city": "廿日市市",
    "town": "大野下灘"
  },
  "7390458": {
    "zipcode": "7390458",
    "prefectureCode": "34",
    "prefectureNumber": 34,
    "prefecture": "広島県",
    "city": "廿日市市",
    "town": "大野鳴川"
  },
  "7390459": {
    "zipcode": "7390459",
    "prefectureCode": "34",
    "prefectureNumber": 34,
    "prefecture": "広島県",
    "city": "廿日市市",
    "town": "大野四十八坂"
  },
  "7390461": {
    "zipcode": "7390461",
    "prefectureCode": "34",
    "prefectureNumber": 34,
    "prefecture": "広島県",
    "city": "廿日市市",
    "town": "大野郷"
  },
  "7390462": {
    "zipcode": "7390462",
    "prefectureCode": "34",
    "prefectureNumber": 34,
    "prefecture": "広島県",
    "city": "廿日市市",
    "town": "大野陣場"
  },
  "7390463": {
    "zipcode": "7390463",
    "prefectureCode": "34",
    "prefectureNumber": 34,
    "prefecture": "広島県",
    "city": "廿日市市",
    "town": "大野小田ノ口"
  },
  "7390464": {
    "zipcode": "7390464",
    "prefectureCode": "34",
    "prefectureNumber": 34,
    "prefecture": "広島県",
    "city": "廿日市市",
    "town": "大野水ノ越"
  },
  "7390466": {
    "zipcode": "7390466",
    "prefectureCode": "34",
    "prefectureNumber": 34,
    "prefecture": "広島県",
    "city": "廿日市市",
    "town": "大野滝ノ下"
  },
  "7390467": {
    "zipcode": "7390467",
    "prefectureCode": "34",
    "prefectureNumber": 34,
    "prefecture": "広島県",
    "city": "廿日市市",
    "town": "大野中津岡"
  },
  "7390471": {
    "zipcode": "7390471",
    "prefectureCode": "34",
    "prefectureNumber": 34,
    "prefecture": "広島県",
    "city": "廿日市市",
    "town": "大野別府"
  },
  "7390472": {
    "zipcode": "7390472",
    "prefectureCode": "34",
    "prefectureNumber": 34,
    "prefecture": "広島県",
    "city": "廿日市市",
    "town": "大野棚田"
  },
  "7390473": {
    "zipcode": "7390473",
    "prefectureCode": "34",
    "prefectureNumber": 34,
    "prefecture": "広島県",
    "city": "廿日市市",
    "town": "大野田屋"
  },
  "7390474": {
    "zipcode": "7390474",
    "prefectureCode": "34",
    "prefectureNumber": 34,
    "prefecture": "広島県",
    "city": "廿日市市",
    "town": "大野土井"
  },
  "7390475": {
    "zipcode": "7390475",
    "prefectureCode": "34",
    "prefectureNumber": 34,
    "prefecture": "広島県",
    "city": "廿日市市",
    "town": "大野高畑"
  },
  "7390476": {
    "zipcode": "7390476",
    "prefectureCode": "34",
    "prefectureNumber": 34,
    "prefecture": "広島県",
    "city": "廿日市市",
    "town": "大野高見"
  },
  "7390477": {
    "zipcode": "7390477",
    "prefectureCode": "34",
    "prefectureNumber": 34,
    "prefecture": "広島県",
    "city": "廿日市市",
    "town": "大野水口"
  },
  "7390478": {
    "zipcode": "7390478",
    "prefectureCode": "34",
    "prefectureNumber": 34,
    "prefecture": "広島県",
    "city": "廿日市市",
    "town": "大野筏津"
  },
  "7390479": {
    "zipcode": "7390479",
    "prefectureCode": "34",
    "prefectureNumber": 34,
    "prefecture": "広島県",
    "city": "廿日市市",
    "town": "大野池田"
  },
  "7390488": {
    "zipcode": "7390488",
    "prefectureCode": "34",
    "prefectureNumber": 34,
    "prefecture": "広島県",
    "city": "廿日市市",
    "town": "大野（その他）"
  },
  "7390501": {
    "zipcode": "7390501",
    "prefectureCode": "34",
    "prefectureNumber": 34,
    "prefecture": "広島県",
    "city": "廿日市市",
    "town": "宮島町（杉之浦）"
  },
  "7390502": {
    "zipcode": "7390502",
    "prefectureCode": "34",
    "prefectureNumber": 34,
    "prefecture": "広島県",
    "city": "廿日市市",
    "town": "宮島町（杉之浦住宅）"
  },
  "7390503": {
    "zipcode": "7390503",
    "prefectureCode": "34",
    "prefectureNumber": 34,
    "prefecture": "広島県",
    "city": "廿日市市",
    "town": "宮島町（ひの木団地）"
  },
  "7390504": {
    "zipcode": "7390504",
    "prefectureCode": "34",
    "prefectureNumber": 34,
    "prefecture": "広島県",
    "city": "廿日市市",
    "town": "宮島町（港町）"
  },
  "7390505": {
    "zipcode": "7390505",
    "prefectureCode": "34",
    "prefectureNumber": 34,
    "prefecture": "広島県",
    "city": "廿日市市",
    "town": "宮島町（胡町）"
  },
  "7390506": {
    "zipcode": "7390506",
    "prefectureCode": "34",
    "prefectureNumber": 34,
    "prefecture": "広島県",
    "city": "廿日市市",
    "town": "宮島町（緑町）"
  },
  "7390507": {
    "zipcode": "7390507",
    "prefectureCode": "34",
    "prefectureNumber": 34,
    "prefecture": "広島県",
    "city": "廿日市市",
    "town": "宮島町（大砂利）"
  },
  "7390511": {
    "zipcode": "7390511",
    "prefectureCode": "34",
    "prefectureNumber": 34,
    "prefecture": "広島県",
    "city": "廿日市市",
    "town": "宮島町（伊勢町）"
  },
  "7390512": {
    "zipcode": "7390512",
    "prefectureCode": "34",
    "prefectureNumber": 34,
    "prefecture": "広島県",
    "city": "廿日市市",
    "town": "宮島町（新町）"
  },
  "7390513": {
    "zipcode": "7390513",
    "prefectureCode": "34",
    "prefectureNumber": 34,
    "prefecture": "広島県",
    "city": "廿日市市",
    "town": "宮島町（上西連町）"
  },
  "7390514": {
    "zipcode": "7390514",
    "prefectureCode": "34",
    "prefectureNumber": 34,
    "prefecture": "広島県",
    "city": "廿日市市",
    "town": "宮島町（東西連町）"
  },
  "7390515": {
    "zipcode": "7390515",
    "prefectureCode": "34",
    "prefectureNumber": 34,
    "prefecture": "広島県",
    "city": "廿日市市",
    "town": "宮島町（魚之棚町）"
  },
  "7390516": {
    "zipcode": "7390516",
    "prefectureCode": "34",
    "prefectureNumber": 34,
    "prefecture": "広島県",
    "city": "廿日市市",
    "town": "宮島町（桜町）"
  },
  "7390517": {
    "zipcode": "7390517",
    "prefectureCode": "34",
    "prefectureNumber": 34,
    "prefecture": "広島県",
    "city": "廿日市市",
    "town": "宮島町（大和町）"
  },
  "7390518": {
    "zipcode": "7390518",
    "prefectureCode": "34",
    "prefectureNumber": 34,
    "prefecture": "広島県",
    "city": "廿日市市",
    "town": "宮島町（下西連町）"
  },
  "7390521": {
    "zipcode": "7390521",
    "prefectureCode": "34",
    "prefectureNumber": 34,
    "prefecture": "広島県",
    "city": "廿日市市",
    "town": "宮島町（大町）"
  },
  "7390522": {
    "zipcode": "7390522",
    "prefectureCode": "34",
    "prefectureNumber": 34,
    "prefecture": "広島県",
    "city": "廿日市市",
    "town": "宮島町（南町）"
  },
  "7390523": {
    "zipcode": "7390523",
    "prefectureCode": "34",
    "prefectureNumber": 34,
    "prefecture": "広島県",
    "city": "廿日市市",
    "town": "宮島町（中江町）"
  },
  "7390524": {
    "zipcode": "7390524",
    "prefectureCode": "34",
    "prefectureNumber": 34,
    "prefecture": "広島県",
    "city": "廿日市市",
    "town": "宮島町（滝町）"
  },
  "7390525": {
    "zipcode": "7390525",
    "prefectureCode": "34",
    "prefectureNumber": 34,
    "prefecture": "広島県",
    "city": "廿日市市",
    "town": "宮島町（久保町）"
  },
  "7390531": {
    "zipcode": "7390531",
    "prefectureCode": "34",
    "prefectureNumber": 34,
    "prefecture": "広島県",
    "city": "廿日市市",
    "town": "宮島町（上中西町）"
  },
  "7390532": {
    "zipcode": "7390532",
    "prefectureCode": "34",
    "prefectureNumber": 34,
    "prefecture": "広島県",
    "city": "廿日市市",
    "town": "宮島町（東大西町）"
  },
  "7390533": {
    "zipcode": "7390533",
    "prefectureCode": "34",
    "prefectureNumber": 34,
    "prefecture": "広島県",
    "city": "廿日市市",
    "town": "宮島町（南大西町）"
  },
  "7390534": {
    "zipcode": "7390534",
    "prefectureCode": "34",
    "prefectureNumber": 34,
    "prefecture": "広島県",
    "city": "廿日市市",
    "town": "宮島町（西大西町）"
  },
  "7390535": {
    "zipcode": "7390535",
    "prefectureCode": "34",
    "prefectureNumber": 34,
    "prefecture": "広島県",
    "city": "廿日市市",
    "town": "宮島町（北大西町）"
  },
  "7390536": {
    "zipcode": "7390536",
    "prefectureCode": "34",
    "prefectureNumber": 34,
    "prefecture": "広島県",
    "city": "廿日市市",
    "town": "宮島町（下中西町）"
  },
  "7390541": {
    "zipcode": "7390541",
    "prefectureCode": "34",
    "prefectureNumber": 34,
    "prefecture": "広島県",
    "city": "廿日市市",
    "town": "宮島町（網之浦）"
  },
  "7390542": {
    "zipcode": "7390542",
    "prefectureCode": "34",
    "prefectureNumber": 34,
    "prefecture": "広島県",
    "city": "廿日市市",
    "town": "宮島町（多々良潟）"
  },
  "7390543": {
    "zipcode": "7390543",
    "prefectureCode": "34",
    "prefectureNumber": 34,
    "prefecture": "広島県",
    "city": "廿日市市",
    "town": "宮島町（室浜）"
  },
  "7390550": {
    "zipcode": "7390550",
    "prefectureCode": "34",
    "prefectureNumber": 34,
    "prefecture": "広島県",
    "city": "廿日市市",
    "town": "宮島町（浜之町）"
  },
  "7390551": {
    "zipcode": "7390551",
    "prefectureCode": "34",
    "prefectureNumber": 34,
    "prefecture": "広島県",
    "city": "廿日市市",
    "town": "宮島町（北之町東表）"
  },
  "7390552": {
    "zipcode": "7390552",
    "prefectureCode": "34",
    "prefectureNumber": 34,
    "prefecture": "広島県",
    "city": "廿日市市",
    "town": "宮島町（北之町西表）"
  },
  "7390553": {
    "zipcode": "7390553",
    "prefectureCode": "34",
    "prefectureNumber": 34,
    "prefecture": "広島県",
    "city": "廿日市市",
    "town": "宮島町（中之町表）"
  },
  "7390554": {
    "zipcode": "7390554",
    "prefectureCode": "34",
    "prefectureNumber": 34,
    "prefecture": "広島県",
    "city": "廿日市市",
    "town": "宮島町（幸町東表）"
  },
  "7390555": {
    "zipcode": "7390555",
    "prefectureCode": "34",
    "prefectureNumber": 34,
    "prefecture": "広島県",
    "city": "廿日市市",
    "town": "宮島町（幸町西表）"
  },
  "7390556": {
    "zipcode": "7390556",
    "prefectureCode": "34",
    "prefectureNumber": 34,
    "prefecture": "広島県",
    "city": "廿日市市",
    "town": "宮島町（幸町西浜）"
  },
  "7390557": {
    "zipcode": "7390557",
    "prefectureCode": "34",
    "prefectureNumber": 34,
    "prefecture": "広島県",
    "city": "廿日市市",
    "town": "宮島町（幸町東浜）"
  },
  "7390558": {
    "zipcode": "7390558",
    "prefectureCode": "34",
    "prefectureNumber": 34,
    "prefecture": "広島県",
    "city": "廿日市市",
    "town": "宮島町（中之町浜）"
  },
  "7390559": {
    "zipcode": "7390559",
    "prefectureCode": "34",
    "prefectureNumber": 34,
    "prefecture": "広島県",
    "city": "廿日市市",
    "town": "宮島町（北之町浜）"
  },
  "7390588": {
    "zipcode": "7390588",
    "prefectureCode": "34",
    "prefectureNumber": 34,
    "prefecture": "広島県",
    "city": "廿日市市",
    "town": "宮島町（その他）"
  },
  "7390600": {
    "zipcode": "7390600",
    "prefectureCode": "34",
    "prefectureNumber": 34,
    "prefecture": "広島県",
    "city": "大竹市",
    "town": "以下に掲載がない場合"
  },
  "7390601": {
    "zipcode": "7390601",
    "prefectureCode": "34",
    "prefectureNumber": 34,
    "prefecture": "広島県",
    "city": "大竹市",
    "town": "東栄"
  },
  "7390602": {
    "zipcode": "7390602",
    "prefectureCode": "34",
    "prefectureNumber": 34,
    "prefecture": "広島県",
    "city": "大竹市",
    "town": "南栄"
  },
  "7390603": {
    "zipcode": "7390603",
    "prefectureCode": "34",
    "prefectureNumber": 34,
    "prefecture": "広島県",
    "city": "大竹市",
    "town": "西栄"
  },
  "7390604": {
    "zipcode": "7390604",
    "prefectureCode": "34",
    "prefectureNumber": 34,
    "prefecture": "広島県",
    "city": "大竹市",
    "town": "北栄"
  },
  "7390605": {
    "zipcode": "7390605",
    "prefectureCode": "34",
    "prefectureNumber": 34,
    "prefecture": "広島県",
    "city": "大竹市",
    "town": "立戸"
  },
  "7390606": {
    "zipcode": "7390606",
    "prefectureCode": "34",
    "prefectureNumber": 34,
    "prefecture": "広島県",
    "city": "大竹市",
    "town": "御幸町"
  },
  "7390607": {
    "zipcode": "7390607",
    "prefectureCode": "34",
    "prefectureNumber": 34,
    "prefecture": "広島県",
    "city": "大竹市",
    "town": "阿多田"
  },
  "7390611": {
    "zipcode": "7390611",
    "prefectureCode": "34",
    "prefectureNumber": 34,
    "prefecture": "広島県",
    "city": "大竹市",
    "town": "新町"
  },
  "7390612": {
    "zipcode": "7390612",
    "prefectureCode": "34",
    "prefectureNumber": 34,
    "prefecture": "広島県",
    "city": "大竹市",
    "town": "油見"
  },
  "7390613": {
    "zipcode": "7390613",
    "prefectureCode": "34",
    "prefectureNumber": 34,
    "prefecture": "広島県",
    "city": "大竹市",
    "town": "本町"
  },
  "7390614": {
    "zipcode": "7390614",
    "prefectureCode": "34",
    "prefectureNumber": 34,
    "prefecture": "広島県",
    "city": "大竹市",
    "town": "白石"
  },
  "7390615": {
    "zipcode": "7390615",
    "prefectureCode": "34",
    "prefectureNumber": 34,
    "prefecture": "広島県",
    "city": "大竹市",
    "town": "元町"
  },
  "7390616": {
    "zipcode": "7390616",
    "prefectureCode": "34",
    "prefectureNumber": 34,
    "prefecture": "広島県",
    "city": "大竹市",
    "town": "木野"
  },
  "7390621": {
    "zipcode": "7390621",
    "prefectureCode": "34",
    "prefectureNumber": 34,
    "prefecture": "広島県",
    "city": "大竹市",
    "town": "港町"
  },
  "7390622": {
    "zipcode": "7390622",
    "prefectureCode": "34",
    "prefectureNumber": 34,
    "prefecture": "広島県",
    "city": "大竹市",
    "town": "晴海"
  },
  "7390623": {
    "zipcode": "7390623",
    "prefectureCode": "34",
    "prefectureNumber": 34,
    "prefecture": "広島県",
    "city": "大竹市",
    "town": "小方"
  },
  "7390624": {
    "zipcode": "7390624",
    "prefectureCode": "34",
    "prefectureNumber": 34,
    "prefecture": "広島県",
    "city": "大竹市",
    "town": "御園"
  },
  "7390625": {
    "zipcode": "7390625",
    "prefectureCode": "34",
    "prefectureNumber": 34,
    "prefecture": "広島県",
    "city": "大竹市",
    "town": "御園台"
  },
  "7390626": {
    "zipcode": "7390626",
    "prefectureCode": "34",
    "prefectureNumber": 34,
    "prefecture": "広島県",
    "city": "大竹市",
    "town": "三ツ石町"
  },
  "7390627": {
    "zipcode": "7390627",
    "prefectureCode": "34",
    "prefectureNumber": 34,
    "prefecture": "広島県",
    "city": "大竹市",
    "town": "小方町小方"
  },
  "7390628": {
    "zipcode": "7390628",
    "prefectureCode": "34",
    "prefectureNumber": 34,
    "prefecture": "広島県",
    "city": "大竹市",
    "town": "小方ケ丘"
  },
  "7390631": {
    "zipcode": "7390631",
    "prefectureCode": "34",
    "prefectureNumber": 34,
    "prefecture": "広島県",
    "city": "大竹市",
    "town": "防鹿"
  },
  "7390632": {
    "zipcode": "7390632",
    "prefectureCode": "34",
    "prefectureNumber": 34,
    "prefecture": "広島県",
    "city": "大竹市",
    "town": "穂仁原"
  },
  "7390633": {
    "zipcode": "7390633",
    "prefectureCode": "34",
    "prefectureNumber": 34,
    "prefecture": "広島県",
    "city": "大竹市",
    "town": "比作"
  },
  "7390634": {
    "zipcode": "7390634",
    "prefectureCode": "34",
    "prefectureNumber": 34,
    "prefecture": "広島県",
    "city": "大竹市",
    "town": "安条"
  },
  "7390635": {
    "zipcode": "7390635",
    "prefectureCode": "34",
    "prefectureNumber": 34,
    "prefecture": "広島県",
    "city": "大竹市",
    "town": "八丁"
  },
  "7390636": {
    "zipcode": "7390636",
    "prefectureCode": "34",
    "prefectureNumber": 34,
    "prefecture": "広島県",
    "city": "大竹市",
    "town": "前飯谷"
  },
  "7390637": {
    "zipcode": "7390637",
    "prefectureCode": "34",
    "prefectureNumber": 34,
    "prefecture": "広島県",
    "city": "大竹市",
    "town": "後飯谷"
  },
  "7390641": {
    "zipcode": "7390641",
    "prefectureCode": "34",
    "prefectureNumber": 34,
    "prefecture": "広島県",
    "city": "大竹市",
    "town": "栗谷町広原"
  },
  "7390642": {
    "zipcode": "7390642",
    "prefectureCode": "34",
    "prefectureNumber": 34,
    "prefecture": "広島県",
    "city": "大竹市",
    "town": "栗谷町奥谷尻"
  },
  "7390643": {
    "zipcode": "7390643",
    "prefectureCode": "34",
    "prefectureNumber": 34,
    "prefecture": "広島県",
    "city": "大竹市",
    "town": "栗谷町谷和"
  },
  "7390644": {
    "zipcode": "7390644",
    "prefectureCode": "34",
    "prefectureNumber": 34,
    "prefecture": "広島県",
    "city": "大竹市",
    "town": "栗谷町後原"
  },
  "7390645": {
    "zipcode": "7390645",
    "prefectureCode": "34",
    "prefectureNumber": 34,
    "prefecture": "広島県",
    "city": "大竹市",
    "town": "栗谷町小栗林"
  },
  "7390646": {
    "zipcode": "7390646",
    "prefectureCode": "34",
    "prefectureNumber": 34,
    "prefecture": "広島県",
    "city": "大竹市",
    "town": "栗谷町大栗林"
  },
  "7390651": {
    "zipcode": "7390651",
    "prefectureCode": "34",
    "prefectureNumber": 34,
    "prefecture": "広島県",
    "city": "大竹市",
    "town": "玖波"
  },
  "7390652": {
    "zipcode": "7390652",
    "prefectureCode": "34",
    "prefectureNumber": 34,
    "prefecture": "広島県",
    "city": "大竹市",
    "town": "明治新開"
  },
  "7390653": {
    "zipcode": "7390653",
    "prefectureCode": "34",
    "prefectureNumber": 34,
    "prefecture": "広島県",
    "city": "大竹市",
    "town": "黒川"
  },
  "7390654": {
    "zipcode": "7390654",
    "prefectureCode": "34",
    "prefectureNumber": 34,
    "prefecture": "広島県",
    "city": "大竹市",
    "town": "小方町黒川"
  },
  "7390655": {
    "zipcode": "7390655",
    "prefectureCode": "34",
    "prefectureNumber": 34,
    "prefecture": "広島県",
    "city": "大竹市",
    "town": "湯舟町"
  },
  "7390656": {
    "zipcode": "7390656",
    "prefectureCode": "34",
    "prefectureNumber": 34,
    "prefecture": "広島県",
    "city": "大竹市",
    "town": "玖波町"
  },
  "7390657": {
    "zipcode": "7390657",
    "prefectureCode": "34",
    "prefectureNumber": 34,
    "prefecture": "広島県",
    "city": "大竹市",
    "town": "松ケ原町"
  },
  "7390661": {
    "zipcode": "7390661",
    "prefectureCode": "34",
    "prefectureNumber": 34,
    "prefecture": "広島県",
    "city": "廿日市市",
    "town": "大野経小屋"
  },
  "7390663": {
    "zipcode": "7390663",
    "prefectureCode": "34",
    "prefectureNumber": 34,
    "prefecture": "広島県",
    "city": "廿日市市",
    "town": "大野奴メリ谷"
  },
  "7390664": {
    "zipcode": "7390664",
    "prefectureCode": "34",
    "prefectureNumber": 34,
    "prefecture": "広島県",
    "city": "廿日市市",
    "town": "大野嵐谷"
  },
  "7390665": {
    "zipcode": "7390665",
    "prefectureCode": "34",
    "prefectureNumber": 34,
    "prefecture": "広島県",
    "city": "廿日市市",
    "town": "大野横撫"
  },
  "7390667": {
    "zipcode": "7390667",
    "prefectureCode": "34",
    "prefectureNumber": 34,
    "prefecture": "広島県",
    "city": "廿日市市",
    "town": "大野猪ノウツ"
  },
  "7391101": {
    "zipcode": "7391101",
    "prefectureCode": "34",
    "prefectureNumber": 34,
    "prefecture": "広島県",
    "city": "安芸高田市",
    "town": "甲田町高田原"
  },
  "7391102": {
    "zipcode": "7391102",
    "prefectureCode": "34",
    "prefectureNumber": 34,
    "prefecture": "広島県",
    "city": "安芸高田市",
    "town": "甲田町上小原"
  },
  "7391103": {
    "zipcode": "7391103",
    "prefectureCode": "34",
    "prefectureNumber": 34,
    "prefecture": "広島県",
    "city": "安芸高田市",
    "town": "甲田町下小原"
  },
  "7391104": {
    "zipcode": "7391104",
    "prefectureCode": "34",
    "prefectureNumber": 34,
    "prefecture": "広島県",
    "city": "安芸高田市",
    "town": "甲田町上甲立"
  },
  "7391105": {
    "zipcode": "7391105",
    "prefectureCode": "34",
    "prefectureNumber": 34,
    "prefecture": "広島県",
    "city": "安芸高田市",
    "town": "甲田町下甲立"
  },
  "7391106": {
    "zipcode": "7391106",
    "prefectureCode": "34",
    "prefectureNumber": 34,
    "prefecture": "広島県",
    "city": "安芸高田市",
    "town": "甲田町浅塚"
  },
  "7391107": {
    "zipcode": "7391107",
    "prefectureCode": "34",
    "prefectureNumber": 34,
    "prefecture": "広島県",
    "city": "安芸高田市",
    "town": "甲田町糘地"
  },
  "7391108": {
    "zipcode": "7391108",
    "prefectureCode": "34",
    "prefectureNumber": 34,
    "prefecture": "広島県",
    "city": "安芸高田市",
    "town": "甲田町深瀬"
  },
  "7391201": {
    "zipcode": "7391201",
    "prefectureCode": "34",
    "prefectureNumber": 34,
    "prefecture": "広島県",
    "city": "安芸高田市",
    "town": "向原町坂"
  },
  "7391202": {
    "zipcode": "7391202",
    "prefectureCode": "34",
    "prefectureNumber": 34,
    "prefecture": "広島県",
    "city": "安芸高田市",
    "town": "向原町戸島"
  },
  "7391203": {
    "zipcode": "7391203",
    "prefectureCode": "34",
    "prefectureNumber": 34,
    "prefecture": "広島県",
    "city": "安芸高田市",
    "town": "向原町長田"
  },
  "7391204": {
    "zipcode": "7391204",
    "prefectureCode": "34",
    "prefectureNumber": 34,
    "prefecture": "広島県",
    "city": "安芸高田市",
    "town": "向原町有留"
  },
  "7391205": {
    "zipcode": "7391205",
    "prefectureCode": "34",
    "prefectureNumber": 34,
    "prefecture": "広島県",
    "city": "安芸高田市",
    "town": "向原町保垣"
  },
  "7391301": {
    "zipcode": "7391301",
    "prefectureCode": "34",
    "prefectureNumber": 34,
    "prefecture": "広島県",
    "city": "広島市安佐北区",
    "town": "白木町井原"
  },
  "7391302": {
    "zipcode": "7391302",
    "prefectureCode": "34",
    "prefectureNumber": 34,
    "prefecture": "広島県",
    "city": "広島市安佐北区",
    "town": "白木町古屋"
  },
  "7391303": {
    "zipcode": "7391303",
    "prefectureCode": "34",
    "prefectureNumber": 34,
    "prefecture": "広島県",
    "city": "広島市安佐北区",
    "town": "白木町志路"
  },
  "7391411": {
    "zipcode": "7391411",
    "prefectureCode": "34",
    "prefectureNumber": 34,
    "prefecture": "広島県",
    "city": "広島市安佐北区",
    "town": "白木町市川"
  },
  "7391412": {
    "zipcode": "7391412",
    "prefectureCode": "34",
    "prefectureNumber": 34,
    "prefecture": "広島県",
    "city": "広島市安佐北区",
    "town": "白木町小越"
  },
  "7391413": {
    "zipcode": "7391413",
    "prefectureCode": "34",
    "prefectureNumber": 34,
    "prefecture": "広島県",
    "city": "広島市安佐北区",
    "town": "白木町有留"
  },
  "7391414": {
    "zipcode": "7391414",
    "prefectureCode": "34",
    "prefectureNumber": 34,
    "prefecture": "広島県",
    "city": "広島市安佐北区",
    "town": "白木町秋山"
  },
  "7391521": {
    "zipcode": "7391521",
    "prefectureCode": "34",
    "prefectureNumber": 34,
    "prefecture": "広島県",
    "city": "広島市安佐北区",
    "town": "白木町三田"
  },
  "7391700": {
    "zipcode": "7391700",
    "prefectureCode": "34",
    "prefectureNumber": 34,
    "prefecture": "広島県",
    "city": "広島市安佐北区",
    "town": "以下に掲載がない場合"
  },
  "7391731": {
    "zipcode": "7391731",
    "prefectureCode": "34",
    "prefectureNumber": 34,
    "prefecture": "広島県",
    "city": "広島市安佐北区",
    "town": "落合"
  },
  "7391732": {
    "zipcode": "7391732",
    "prefectureCode": "34",
    "prefectureNumber": 34,
    "prefecture": "広島県",
    "city": "広島市安佐北区",
    "town": "落合南町"
  },
  "7391733": {
    "zipcode": "7391733",
    "prefectureCode": "34",
    "prefectureNumber": 34,
    "prefecture": "広島県",
    "city": "広島市安佐北区",
    "town": "口田南町"
  },
  "7391734": {
    "zipcode": "7391734",
    "prefectureCode": "34",
    "prefectureNumber": 34,
    "prefecture": "広島県",
    "city": "広島市安佐北区",
    "town": "口田町"
  },
  "7391741": {
    "zipcode": "7391741",
    "prefectureCode": "34",
    "prefectureNumber": 34,
    "prefecture": "広島県",
    "city": "広島市安佐北区",
    "town": "真亀"
  },
  "7391742": {
    "zipcode": "7391742",
    "prefectureCode": "34",
    "prefectureNumber": 34,
    "prefecture": "広島県",
    "city": "広島市安佐北区",
    "town": "亀崎"
  },
  "7391743": {
    "zipcode": "7391743",
    "prefectureCode": "34",
    "prefectureNumber": 34,
    "prefecture": "広島県",
    "city": "広島市安佐北区",
    "town": "倉掛"
  },
  "7391751": {
    "zipcode": "7391751",
    "prefectureCode": "34",
    "prefectureNumber": 34,
    "prefecture": "広島県",
    "city": "広島市安佐北区",
    "town": "深川町"
  },
  "7391752": {
    "zipcode": "7391752",
    "prefectureCode": "34",
    "prefectureNumber": 34,
    "prefecture": "広島県",
    "city": "広島市安佐北区",
    "town": "上深川町"
  },
  "7391753": {
    "zipcode": "7391753",
    "prefectureCode": "34",
    "prefectureNumber": 34,
    "prefecture": "広島県",
    "city": "広島市安佐北区",
    "town": "狩留家町"
  },
  "7391754": {
    "zipcode": "7391754",
    "prefectureCode": "34",
    "prefectureNumber": 34,
    "prefecture": "広島県",
    "city": "広島市安佐北区",
    "town": "小河原町"
  },
  "7391801": {
    "zipcode": "7391801",
    "prefectureCode": "34",
    "prefectureNumber": 34,
    "prefecture": "広島県",
    "city": "安芸高田市",
    "town": "高宮町川根"
  },
  "7391802": {
    "zipcode": "7391802",
    "prefectureCode": "34",
    "prefectureNumber": 34,
    "prefecture": "広島県",
    "city": "安芸高田市",
    "town": "高宮町佐々部"
  },
  "7391803": {
    "zipcode": "7391803",
    "prefectureCode": "34",
    "prefectureNumber": 34,
    "prefecture": "広島県",
    "city": "安芸高田市",
    "town": "高宮町船木"
  },
  "7391804": {
    "zipcode": "7391804",
    "prefectureCode": "34",
    "prefectureNumber": 34,
    "prefecture": "広島県",
    "city": "安芸高田市",
    "town": "高宮町房後"
  },
  "7391805": {
    "zipcode": "7391805",
    "prefectureCode": "34",
    "prefectureNumber": 34,
    "prefecture": "広島県",
    "city": "安芸高田市",
    "town": "高宮町原田"
  },
  "7391806": {
    "zipcode": "7391806",
    "prefectureCode": "34",
    "prefectureNumber": 34,
    "prefecture": "広島県",
    "city": "安芸高田市",
    "town": "高宮町来女木"
  },
  "7391807": {
    "zipcode": "7391807",
    "prefectureCode": "34",
    "prefectureNumber": 34,
    "prefecture": "広島県",
    "city": "安芸高田市",
    "town": "高宮町羽佐竹"
  },
  "7392101": {
    "zipcode": "7392101",
    "prefectureCode": "34",
    "prefectureNumber": 34,
    "prefecture": "広島県",
    "city": "東広島市",
    "town": "高屋町造賀"
  },
  "7392102": {
    "zipcode": "7392102",
    "prefectureCode": "34",
    "prefectureNumber": 34,
    "prefecture": "広島県",
    "city": "東広島市",
    "town": "高屋町杵原"
  },
  "7392103": {
    "zipcode": "7392103",
    "prefectureCode": "34",
    "prefectureNumber": 34,
    "prefecture": "広島県",
    "city": "東広島市",
    "town": "高屋町宮領"
  },
  "7392104": {
    "zipcode": "7392104",
    "prefectureCode": "34",
    "prefectureNumber": 34,
    "prefecture": "広島県",
    "city": "東広島市",
    "town": "高屋町大畠"
  },
  "7392105": {
    "zipcode": "7392105",
    "prefectureCode": "34",
    "prefectureNumber": 34,
    "prefecture": "広島県",
    "city": "東広島市",
    "town": "高屋町檜山"
  },
  "7392106": {
    "zipcode": "7392106",
    "prefectureCode": "34",
    "prefectureNumber": 34,
    "prefecture": "広島県",
    "city": "東広島市",
    "town": "高屋町稲木"
  },
  "7392111": {
    "zipcode": "7392111",
    "prefectureCode": "34",
    "prefectureNumber": 34,
    "prefecture": "広島県",
    "city": "東広島市",
    "town": "高屋町高屋堀"
  },
  "7392112": {
    "zipcode": "7392112",
    "prefectureCode": "34",
    "prefectureNumber": 34,
    "prefecture": "広島県",
    "city": "東広島市",
    "town": "高屋町貞重"
  },
  "7392113": {
    "zipcode": "7392113",
    "prefectureCode": "34",
    "prefectureNumber": 34,
    "prefecture": "広島県",
    "city": "東広島市",
    "town": "高屋町高屋東"
  },
  "7392114": {
    "zipcode": "7392114",
    "prefectureCode": "34",
    "prefectureNumber": 34,
    "prefecture": "広島県",
    "city": "東広島市",
    "town": "高屋町白市"
  },
  "7392115": {
    "zipcode": "7392115",
    "prefectureCode": "34",
    "prefectureNumber": 34,
    "prefecture": "広島県",
    "city": "東広島市",
    "town": "高屋高美が丘"
  },
  "7392116": {
    "zipcode": "7392116",
    "prefectureCode": "34",
    "prefectureNumber": 34,
    "prefecture": "広島県",
    "city": "東広島市",
    "town": "高屋うめの辺"
  },
  "7392117": {
    "zipcode": "7392117",
    "prefectureCode": "34",
    "prefectureNumber": 34,
    "prefecture": "広島県",
    "city": "東広島市",
    "town": "高屋台"
  },
  "7392121": {
    "zipcode": "7392121",
    "prefectureCode": "34",
    "prefectureNumber": 34,
    "prefecture": "広島県",
    "city": "東広島市",
    "town": "高屋町小谷"
  },
  "7392122": {
    "zipcode": "7392122",
    "prefectureCode": "34",
    "prefectureNumber": 34,
    "prefecture": "広島県",
    "city": "東広島市",
    "town": "高屋町重兼"
  },
  "7392123": {
    "zipcode": "7392123",
    "prefectureCode": "34",
    "prefectureNumber": 34,
    "prefecture": "広島県",
    "city": "東広島市",
    "town": "高屋町溝口"
  },
  "7392124": {
    "zipcode": "7392124",
    "prefectureCode": "34",
    "prefectureNumber": 34,
    "prefecture": "広島県",
    "city": "東広島市",
    "town": "高屋町郷"
  },
  "7392125": {
    "zipcode": "7392125",
    "prefectureCode": "34",
    "prefectureNumber": 34,
    "prefecture": "広島県",
    "city": "東広島市",
    "town": "高屋町中島"
  },
  "7392201": {
    "zipcode": "7392201",
    "prefectureCode": "34",
    "prefectureNumber": 34,
    "prefecture": "広島県",
    "city": "東広島市",
    "town": "河内町中河内"
  },
  "7392202": {
    "zipcode": "7392202",
    "prefectureCode": "34",
    "prefectureNumber": 34,
    "prefecture": "広島県",
    "city": "東広島市",
    "town": "河内町下河内"
  },
  "7392203": {
    "zipcode": "7392203",
    "prefectureCode": "34",
    "prefectureNumber": 34,
    "prefecture": "広島県",
    "city": "東広島市",
    "town": "河内町上河内"
  },
  "7392204": {
    "zipcode": "7392204",
    "prefectureCode": "34",
    "prefectureNumber": 34,
    "prefecture": "広島県",
    "city": "東広島市",
    "town": "河内町河戸"
  },
  "7392205": {
    "zipcode": "7392205",
    "prefectureCode": "34",
    "prefectureNumber": 34,
    "prefecture": "広島県",
    "city": "東広島市",
    "town": "河内町戸野"
  },
  "7392206": {
    "zipcode": "7392206",
    "prefectureCode": "34",
    "prefectureNumber": 34,
    "prefecture": "広島県",
    "city": "東広島市",
    "town": "河内町宇山"
  },
  "7392207": {
    "zipcode": "7392207",
    "prefectureCode": "34",
    "prefectureNumber": 34,
    "prefecture": "広島県",
    "city": "東広島市",
    "town": "河内町小田"
  },
  "7392208": {
    "zipcode": "7392208",
    "prefectureCode": "34",
    "prefectureNumber": 34,
    "prefecture": "広島県",
    "city": "東広島市",
    "town": "河内町入野"
  },
  "7392209": {
    "zipcode": "7392209",
    "prefectureCode": "34",
    "prefectureNumber": 34,
    "prefecture": "広島県",
    "city": "東広島市",
    "town": "入野中山台"
  },
  "7392211": {
    "zipcode": "7392211",
    "prefectureCode": "34",
    "prefectureNumber": 34,
    "prefecture": "広島県",
    "city": "東広島市",
    "town": "河内臨空団地"
  },
  "7392301": {
    "zipcode": "7392301",
    "prefectureCode": "34",
    "prefectureNumber": 34,
    "prefecture": "広島県",
    "city": "東広島市",
    "town": "福富町上竹仁"
  },
  "7392302": {
    "zipcode": "7392302",
    "prefectureCode": "34",
    "prefectureNumber": 34,
    "prefecture": "広島県",
    "city": "東広島市",
    "town": "福富町下竹仁"
  },
  "7392303": {
    "zipcode": "7392303",
    "prefectureCode": "34",
    "prefectureNumber": 34,
    "prefecture": "広島県",
    "city": "東広島市",
    "town": "福富町久芳"
  },
  "7392304": {
    "zipcode": "7392304",
    "prefectureCode": "34",
    "prefectureNumber": 34,
    "prefecture": "広島県",
    "city": "東広島市",
    "town": "福富町上戸野"
  },
  "7392311": {
    "zipcode": "7392311",
    "prefectureCode": "34",
    "prefectureNumber": 34,
    "prefecture": "広島県",
    "city": "東広島市",
    "town": "豊栄町乃美"
  },
  "7392312": {
    "zipcode": "7392312",
    "prefectureCode": "34",
    "prefectureNumber": 34,
    "prefecture": "広島県",
    "city": "東広島市",
    "town": "豊栄町別府"
  },
  "7392313": {
    "zipcode": "7392313",
    "prefectureCode": "34",
    "prefectureNumber": 34,
    "prefecture": "広島県",
    "city": "東広島市",
    "town": "豊栄町清武"
  },
  "7392314": {
    "zipcode": "7392314",
    "prefectureCode": "34",
    "prefectureNumber": 34,
    "prefecture": "広島県",
    "city": "東広島市",
    "town": "豊栄町飯田"
  },
  "7392315": {
    "zipcode": "7392315",
    "prefectureCode": "34",
    "prefectureNumber": 34,
    "prefecture": "広島県",
    "city": "東広島市",
    "town": "豊栄町吉原"
  },
  "7392316": {
    "zipcode": "7392316",
    "prefectureCode": "34",
    "prefectureNumber": 34,
    "prefecture": "広島県",
    "city": "東広島市",
    "town": "豊栄町安宿"
  },
  "7392317": {
    "zipcode": "7392317",
    "prefectureCode": "34",
    "prefectureNumber": 34,
    "prefecture": "広島県",
    "city": "東広島市",
    "town": "豊栄町鍛冶屋"
  },
  "7392318": {
    "zipcode": "7392318",
    "prefectureCode": "34",
    "prefectureNumber": 34,
    "prefecture": "広島県",
    "city": "東広島市",
    "town": "豊栄町能良"
  },
  "7392401": {
    "zipcode": "7392401",
    "prefectureCode": "34",
    "prefectureNumber": 34,
    "prefecture": "広島県",
    "city": "東広島市",
    "town": "安芸津町木谷"
  },
  "7392402": {
    "zipcode": "7392402",
    "prefectureCode": "34",
    "prefectureNumber": 34,
    "prefecture": "広島県",
    "city": "東広島市",
    "town": "安芸津町三津"
  },
  "7392403": {
    "zipcode": "7392403",
    "prefectureCode": "34",
    "prefectureNumber": 34,
    "prefecture": "広島県",
    "city": "東広島市",
    "town": "安芸津町風早"
  },
  "7392404": {
    "zipcode": "7392404",
    "prefectureCode": "34",
    "prefectureNumber": 34,
    "prefecture": "広島県",
    "city": "東広島市",
    "town": "安芸津町大田"
  },
  "7392405": {
    "zipcode": "7392405",
    "prefectureCode": "34",
    "prefectureNumber": 34,
    "prefecture": "広島県",
    "city": "東広島市",
    "town": "安芸津町小松原"
  },
  "7392501": {
    "zipcode": "7392501",
    "prefectureCode": "34",
    "prefectureNumber": 34,
    "prefecture": "広島県",
    "city": "東広島市",
    "town": "黒瀬町小多田"
  },
  "7392502": {
    "zipcode": "7392502",
    "prefectureCode": "34",
    "prefectureNumber": 34,
    "prefecture": "広島県",
    "city": "東広島市",
    "town": "黒瀬町国近"
  },
  "7392503": {
    "zipcode": "7392503",
    "prefectureCode": "34",
    "prefectureNumber": 34,
    "prefecture": "広島県",
    "city": "東広島市",
    "town": "黒瀬町南方"
  },
  "7392504": {
    "zipcode": "7392504",
    "prefectureCode": "34",
    "prefectureNumber": 34,
    "prefecture": "広島県",
    "city": "東広島市",
    "town": "黒瀬町宗近柳国"
  },
  "7392611": {
    "zipcode": "7392611",
    "prefectureCode": "34",
    "prefectureNumber": 34,
    "prefecture": "広島県",
    "city": "東広島市",
    "town": "黒瀬町大多田"
  },
  "7392612": {
    "zipcode": "7392612",
    "prefectureCode": "34",
    "prefectureNumber": 34,
    "prefecture": "広島県",
    "city": "東広島市",
    "town": "黒瀬町丸山"
  },
  "7392613": {
    "zipcode": "7392613",
    "prefectureCode": "34",
    "prefectureNumber": 34,
    "prefecture": "広島県",
    "city": "東広島市",
    "town": "黒瀬町楢原"
  },
  "7392614": {
    "zipcode": "7392614",
    "prefectureCode": "34",
    "prefectureNumber": 34,
    "prefecture": "広島県",
    "city": "東広島市",
    "town": "黒瀬松ケ丘"
  },
  "7392615": {
    "zipcode": "7392615",
    "prefectureCode": "34",
    "prefectureNumber": 34,
    "prefecture": "広島県",
    "city": "東広島市",
    "town": "黒瀬春日野"
  },
  "7392616": {
    "zipcode": "7392616",
    "prefectureCode": "34",
    "prefectureNumber": 34,
    "prefecture": "広島県",
    "city": "東広島市",
    "town": "黒瀬町兼広"
  },
  "7392617": {
    "zipcode": "7392617",
    "prefectureCode": "34",
    "prefectureNumber": 34,
    "prefecture": "広島県",
    "city": "東広島市",
    "town": "黒瀬町切田"
  },
  "7392618": {
    "zipcode": "7392618",
    "prefectureCode": "34",
    "prefectureNumber": 34,
    "prefecture": "広島県",
    "city": "東広島市",
    "town": "黒瀬桜が丘"
  },
  "7392619": {
    "zipcode": "7392619",
    "prefectureCode": "34",
    "prefectureNumber": 34,
    "prefecture": "広島県",
    "city": "東広島市",
    "town": "黒瀬切田が丘"
  },
  "7392621": {
    "zipcode": "7392621",
    "prefectureCode": "34",
    "prefectureNumber": 34,
    "prefecture": "広島県",
    "city": "東広島市",
    "town": "黒瀬町南方（賀茂精神医療センター）"
  },
  "7392622": {
    "zipcode": "7392622",
    "prefectureCode": "34",
    "prefectureNumber": 34,
    "prefecture": "広島県",
    "city": "東広島市",
    "town": "黒瀬町乃美尾"
  },
  "7392623": {
    "zipcode": "7392623",
    "prefectureCode": "34",
    "prefectureNumber": 34,
    "prefecture": "広島県",
    "city": "東広島市",
    "town": "黒瀬町川角"
  },
  "7392624": {
    "zipcode": "7392624",
    "prefectureCode": "34",
    "prefectureNumber": 34,
    "prefecture": "広島県",
    "city": "東広島市",
    "town": "黒瀬町菅田"
  },
  "7392625": {
    "zipcode": "7392625",
    "prefectureCode": "34",
    "prefectureNumber": 34,
    "prefecture": "広島県",
    "city": "東広島市",
    "town": "黒瀬町上保田"
  },
  "7392626": {
    "zipcode": "7392626",
    "prefectureCode": "34",
    "prefectureNumber": 34,
    "prefecture": "広島県",
    "city": "東広島市",
    "town": "黒瀬町市飯田"
  },
  "7392627": {
    "zipcode": "7392627",
    "prefectureCode": "34",
    "prefectureNumber": 34,
    "prefecture": "広島県",
    "city": "東広島市",
    "town": "黒瀬楢原北"
  },
  "7392628": {
    "zipcode": "7392628",
    "prefectureCode": "34",
    "prefectureNumber": 34,
    "prefecture": "広島県",
    "city": "東広島市",
    "town": "黒瀬楢原東"
  },
  "7392629": {
    "zipcode": "7392629",
    "prefectureCode": "34",
    "prefectureNumber": 34,
    "prefecture": "広島県",
    "city": "東広島市",
    "town": "黒瀬楢原西"
  },
  "7392631": {
    "zipcode": "7392631",
    "prefectureCode": "34",
    "prefectureNumber": 34,
    "prefecture": "広島県",
    "city": "東広島市",
    "town": "黒瀬学園台"
  },
  "7392731": {
    "zipcode": "7392731",
    "prefectureCode": "34",
    "prefectureNumber": 34,
    "prefecture": "広島県",
    "city": "東広島市",
    "town": "黒瀬町兼沢"
  },
  "7392732": {
    "zipcode": "7392732",
    "prefectureCode": "34",
    "prefectureNumber": 34,
    "prefecture": "広島県",
    "city": "東広島市",
    "town": "黒瀬町津江"
  }
}
