{
  "7410061": {
    "zipcode": "7410061",
    "prefectureCode": "35",
    "prefectureNumber": 35,
    "prefecture": "山口県",
    "city": "岩国市",
    "town": "錦見"
  },
  "7410062": {
    "zipcode": "7410062",
    "prefectureCode": "35",
    "prefectureNumber": 35,
    "prefecture": "山口県",
    "city": "岩国市",
    "town": "岩国"
  },
  "7410063": {
    "zipcode": "7410063",
    "prefectureCode": "35",
    "prefectureNumber": 35,
    "prefecture": "山口県",
    "city": "岩国市",
    "town": "関戸"
  },
  "7410071": {
    "zipcode": "7410071",
    "prefectureCode": "35",
    "prefectureNumber": 35,
    "prefecture": "山口県",
    "city": "岩国市",
    "town": "牛野谷町"
  },
  "7410072": {
    "zipcode": "7410072",
    "prefectureCode": "35",
    "prefectureNumber": 35,
    "prefecture": "山口県",
    "city": "岩国市",
    "town": "平田"
  },
  "7410073": {
    "zipcode": "7410073",
    "prefectureCode": "35",
    "prefectureNumber": 35,
    "prefecture": "山口県",
    "city": "岩国市",
    "town": "柱野"
  },
  "7410074": {
    "zipcode": "7410074",
    "prefectureCode": "35",
    "prefectureNumber": 35,
    "prefecture": "山口県",
    "city": "岩国市",
    "town": "六呂師"
  },
  "7410075": {
    "zipcode": "7410075",
    "prefectureCode": "35",
    "prefectureNumber": 35,
    "prefecture": "山口県",
    "city": "岩国市",
    "town": "叶木"
  },
  "7410081": {
    "zipcode": "7410081",
    "prefectureCode": "35",
    "prefectureNumber": 35,
    "prefecture": "山口県",
    "city": "岩国市",
    "town": "横山"
  },
  "7410082": {
    "zipcode": "7410082",
    "prefectureCode": "35",
    "prefectureNumber": 35,
    "prefecture": "山口県",
    "city": "岩国市",
    "town": "川西"
  },
  "7410083": {
    "zipcode": "7410083",
    "prefectureCode": "35",
    "prefectureNumber": 35,
    "prefecture": "山口県",
    "city": "岩国市",
    "town": "御庄"
  },
  "7410084": {
    "zipcode": "7410084",
    "prefectureCode": "35",
    "prefectureNumber": 35,
    "prefecture": "山口県",
    "city": "岩国市",
    "town": "大谷"
  },
  "7410085": {
    "zipcode": "7410085",
    "prefectureCode": "35",
    "prefectureNumber": 35,
    "prefecture": "山口県",
    "city": "岩国市",
    "town": "持国"
  },
  "7410091": {
    "zipcode": "7410091",
    "prefectureCode": "35",
    "prefectureNumber": 35,
    "prefecture": "山口県",
    "city": "岩国市",
    "town": "小瀬"
  },
  "7410092": {
    "zipcode": "7410092",
    "prefectureCode": "35",
    "prefectureNumber": 35,
    "prefecture": "山口県",
    "city": "岩国市",
    "town": "多田"
  },
  "7410093": {
    "zipcode": "7410093",
    "prefectureCode": "35",
    "prefectureNumber": 35,
    "prefecture": "山口県",
    "city": "岩国市",
    "town": "田原"
  },
  "7410094": {
    "zipcode": "7410094",
    "prefectureCode": "35",
    "prefectureNumber": 35,
    "prefecture": "山口県",
    "city": "岩国市",
    "town": "阿品"
  }
}
