{
  "7420000": {
    "zipcode": "7420000",
    "prefectureCode": "35",
    "prefectureNumber": 35,
    "prefecture": "山口県",
    "city": "柳井市",
    "town": "以下に掲載がない場合"
  },
  "7420001": {
    "zipcode": "7420001",
    "prefectureCode": "35",
    "prefectureNumber": 35,
    "prefecture": "山口県",
    "city": "柳井市",
    "town": "姫田"
  },
  "7420002": {
    "zipcode": "7420002",
    "prefectureCode": "35",
    "prefectureNumber": 35,
    "prefecture": "山口県",
    "city": "柳井市",
    "town": "山根"
  },
  "7420003": {
    "zipcode": "7420003",
    "prefectureCode": "35",
    "prefectureNumber": 35,
    "prefecture": "山口県",
    "city": "柳井市",
    "town": "片野西"
  },
  "7420004": {
    "zipcode": "7420004",
    "prefectureCode": "35",
    "prefectureNumber": 35,
    "prefecture": "山口県",
    "city": "柳井市",
    "town": "土手町"
  },
  "7420005": {
    "zipcode": "7420005",
    "prefectureCode": "35",
    "prefectureNumber": 35,
    "prefecture": "山口県",
    "city": "柳井市",
    "town": "天神"
  },
  "7420006": {
    "zipcode": "7420006",
    "prefectureCode": "35",
    "prefectureNumber": 35,
    "prefecture": "山口県",
    "city": "柳井市",
    "town": "新天地"
  },
  "7420007": {
    "zipcode": "7420007",
    "prefectureCode": "35",
    "prefectureNumber": 35,
    "prefecture": "山口県",
    "city": "柳井市",
    "town": "東土手"
  },
  "7420008": {
    "zipcode": "7420008",
    "prefectureCode": "35",
    "prefectureNumber": 35,
    "prefecture": "山口県",
    "city": "柳井市",
    "town": "新市北"
  },
  "7420009": {
    "zipcode": "7420009",
    "prefectureCode": "35",
    "prefectureNumber": 35,
    "prefecture": "山口県",
    "city": "柳井市",
    "town": "新市"
  },
  "7420010": {
    "zipcode": "7420010",
    "prefectureCode": "35",
    "prefectureNumber": 35,
    "prefecture": "山口県",
    "city": "柳井市",
    "town": "新市南"
  },
  "7420011": {
    "zipcode": "7420011",
    "prefectureCode": "35",
    "prefectureNumber": 35,
    "prefecture": "山口県",
    "city": "柳井市",
    "town": "新市沖"
  },
  "7420012": {
    "zipcode": "7420012",
    "prefectureCode": "35",
    "prefectureNumber": 35,
    "prefecture": "山口県",
    "city": "柳井市",
    "town": "北浜"
  },
  "7420021": {
    "zipcode": "7420021",
    "prefectureCode": "35",
    "prefectureNumber": 35,
    "prefecture": "山口県",
    "city": "柳井市",
    "town": "柳井"
  },
  "7420022": {
    "zipcode": "7420022",
    "prefectureCode": "35",
    "prefectureNumber": 35,
    "prefecture": "山口県",
    "city": "柳井市",
    "town": "柳井津"
  },
  "7420023": {
    "zipcode": "7420023",
    "prefectureCode": "35",
    "prefectureNumber": 35,
    "prefecture": "山口県",
    "city": "柳井市",
    "town": "南浜"
  },
  "7420024": {
    "zipcode": "7420024",
    "prefectureCode": "35",
    "prefectureNumber": 35,
    "prefecture": "山口県",
    "city": "柳井市",
    "town": "ニュータウン南町"
  },
  "7420031": {
    "zipcode": "7420031",
    "prefectureCode": "35",
    "prefectureNumber": 35,
    "prefecture": "山口県",
    "city": "柳井市",
    "town": "南町"
  },
  "7420032": {
    "zipcode": "7420032",
    "prefectureCode": "35",
    "prefectureNumber": 35,
    "prefecture": "山口県",
    "city": "柳井市",
    "town": "古開作"
  },
  "7420033": {
    "zipcode": "7420033",
    "prefectureCode": "35",
    "prefectureNumber": 35,
    "prefecture": "山口県",
    "city": "柳井市",
    "town": "新庄"
  },
  "7420034": {
    "zipcode": "7420034",
    "prefectureCode": "35",
    "prefectureNumber": 35,
    "prefecture": "山口県",
    "city": "柳井市",
    "town": "余田"
  },
  "7420035": {
    "zipcode": "7420035",
    "prefectureCode": "35",
    "prefectureNumber": 35,
    "prefecture": "山口県",
    "city": "柳井市",
    "town": "中央"
  },
  "7420036": {
    "zipcode": "7420036",
    "prefectureCode": "35",
    "prefectureNumber": 35,
    "prefecture": "山口県",
    "city": "柳井市",
    "town": "駅南"
  },
  "7420041": {
    "zipcode": "7420041",
    "prefectureCode": "35",
    "prefectureNumber": 35,
    "prefecture": "山口県",
    "city": "柳井市",
    "town": "平郡"
  },
  "7420111": {
    "zipcode": "7420111",
    "prefectureCode": "35",
    "prefectureNumber": 35,
    "prefecture": "山口県",
    "city": "柳井市",
    "town": "日積"
  },
  "7420201": {
    "zipcode": "7420201",
    "prefectureCode": "35",
    "prefectureNumber": 35,
    "prefecture": "山口県",
    "city": "柳井市",
    "town": "伊陸"
  },
  "7420301": {
    "zipcode": "7420301",
    "prefectureCode": "35",
    "prefectureNumber": 35,
    "prefecture": "山口県",
    "city": "岩国市",
    "town": "周東町祖生"
  },
  "7420311": {
    "zipcode": "7420311",
    "prefectureCode": "35",
    "prefectureNumber": 35,
    "prefecture": "山口県",
    "city": "岩国市",
    "town": "玖珂町（欽明路）"
  },
  "7420312": {
    "zipcode": "7420312",
    "prefectureCode": "35",
    "prefectureNumber": 35,
    "prefecture": "山口県",
    "city": "岩国市",
    "town": "玖珂町（上谷）"
  },
  "7420313": {
    "zipcode": "7420313",
    "prefectureCode": "35",
    "prefectureNumber": 35,
    "prefecture": "山口県",
    "city": "岩国市",
    "town": "玖珂町（下谷）"
  },
  "7420314": {
    "zipcode": "7420314",
    "prefectureCode": "35",
    "prefectureNumber": 35,
    "prefecture": "山口県",
    "city": "岩国市",
    "town": "玖珂町（野口）"
  },
  "7420315": {
    "zipcode": "7420315",
    "prefectureCode": "35",
    "prefectureNumber": 35,
    "prefecture": "山口県",
    "city": "岩国市",
    "town": "玖珂町（瀬田）"
  },
  "7420321": {
    "zipcode": "7420321",
    "prefectureCode": "35",
    "prefectureNumber": 35,
    "prefecture": "山口県",
    "city": "岩国市",
    "town": "玖珂町（市頭）"
  },
  "7420322": {
    "zipcode": "7420322",
    "prefectureCode": "35",
    "prefectureNumber": 35,
    "prefecture": "山口県",
    "city": "岩国市",
    "town": "玖珂町（上市）"
  },
  "7420323": {
    "zipcode": "7420323",
    "prefectureCode": "35",
    "prefectureNumber": 35,
    "prefecture": "山口県",
    "city": "岩国市",
    "town": "玖珂町（谷津）"
  },
  "7420324": {
    "zipcode": "7420324",
    "prefectureCode": "35",
    "prefectureNumber": 35,
    "prefecture": "山口県",
    "city": "岩国市",
    "town": "玖珂町（駅通）"
  },
  "7420325": {
    "zipcode": "7420325",
    "prefectureCode": "35",
    "prefectureNumber": 35,
    "prefecture": "山口県",
    "city": "岩国市",
    "town": "玖珂町（本町）"
  },
  "7420326": {
    "zipcode": "7420326",
    "prefectureCode": "35",
    "prefectureNumber": 35,
    "prefecture": "山口県",
    "city": "岩国市",
    "town": "玖珂町（同道）"
  },
  "7420331": {
    "zipcode": "7420331",
    "prefectureCode": "35",
    "prefectureNumber": 35,
    "prefecture": "山口県",
    "city": "岩国市",
    "town": "玖珂町（鞍掛）"
  },
  "7420332": {
    "zipcode": "7420332",
    "prefectureCode": "35",
    "prefectureNumber": 35,
    "prefecture": "山口県",
    "city": "岩国市",
    "town": "玖珂町（阿山）"
  },
  "7420333": {
    "zipcode": "7420333",
    "prefectureCode": "35",
    "prefectureNumber": 35,
    "prefecture": "山口県",
    "city": "岩国市",
    "town": "玖珂町（千束）"
  },
  "7420334": {
    "zipcode": "7420334",
    "prefectureCode": "35",
    "prefectureNumber": 35,
    "prefecture": "山口県",
    "city": "岩国市",
    "town": "玖珂町（臼田）"
  },
  "7420335": {
    "zipcode": "7420335",
    "prefectureCode": "35",
    "prefectureNumber": 35,
    "prefecture": "山口県",
    "city": "岩国市",
    "town": "玖珂町（新町）"
  },
  "7420336": {
    "zipcode": "7420336",
    "prefectureCode": "35",
    "prefectureNumber": 35,
    "prefecture": "山口県",
    "city": "岩国市",
    "town": "玖珂町（新市）"
  },
  "7420337": {
    "zipcode": "7420337",
    "prefectureCode": "35",
    "prefectureNumber": 35,
    "prefecture": "山口県",
    "city": "岩国市",
    "town": "玖珂町（久門給）"
  },
  "7420338": {
    "zipcode": "7420338",
    "prefectureCode": "35",
    "prefectureNumber": 35,
    "prefecture": "山口県",
    "city": "岩国市",
    "town": "玖珂町（有延）"
  },
  "7420341": {
    "zipcode": "7420341",
    "prefectureCode": "35",
    "prefectureNumber": 35,
    "prefecture": "山口県",
    "city": "岩国市",
    "town": "玖珂町（柳井田）"
  },
  "7420342": {
    "zipcode": "7420342",
    "prefectureCode": "35",
    "prefectureNumber": 35,
    "prefecture": "山口県",
    "city": "岩国市",
    "town": "玖珂町（大田）"
  },
  "7420343": {
    "zipcode": "7420343",
    "prefectureCode": "35",
    "prefectureNumber": 35,
    "prefecture": "山口県",
    "city": "岩国市",
    "town": "玖珂町（野地）"
  },
  "7420344": {
    "zipcode": "7420344",
    "prefectureCode": "35",
    "prefectureNumber": 35,
    "prefecture": "山口県",
    "city": "岩国市",
    "town": "玖珂町（番地のみ）"
  },
  "7420411": {
    "zipcode": "7420411",
    "prefectureCode": "35",
    "prefectureNumber": 35,
    "prefecture": "山口県",
    "city": "岩国市",
    "town": "周東町明見谷"
  },
  "7420412": {
    "zipcode": "7420412",
    "prefectureCode": "35",
    "prefectureNumber": 35,
    "prefecture": "山口県",
    "city": "岩国市",
    "town": "周東町川上"
  },
  "7420413": {
    "zipcode": "7420413",
    "prefectureCode": "35",
    "prefectureNumber": 35,
    "prefecture": "山口県",
    "city": "岩国市",
    "town": "周東町上久原"
  },
  "7420414": {
    "zipcode": "7420414",
    "prefectureCode": "35",
    "prefectureNumber": 35,
    "prefecture": "山口県",
    "city": "岩国市",
    "town": "周東町田尻"
  },
  "7420415": {
    "zipcode": "7420415",
    "prefectureCode": "35",
    "prefectureNumber": 35,
    "prefecture": "山口県",
    "city": "岩国市",
    "town": "周東町中山"
  },
  "7420416": {
    "zipcode": "7420416",
    "prefectureCode": "35",
    "prefectureNumber": 35,
    "prefecture": "山口県",
    "city": "岩国市",
    "town": "周東町用田"
  },
  "7420417": {
    "zipcode": "7420417",
    "prefectureCode": "35",
    "prefectureNumber": 35,
    "prefecture": "山口県",
    "city": "岩国市",
    "town": "周東町下久原"
  },
  "7420421": {
    "zipcode": "7420421",
    "prefectureCode": "35",
    "prefectureNumber": 35,
    "prefecture": "山口県",
    "city": "岩国市",
    "town": "周東町三瀬川"
  },
  "7420422": {
    "zipcode": "7420422",
    "prefectureCode": "35",
    "prefectureNumber": 35,
    "prefecture": "山口県",
    "city": "岩国市",
    "town": "周東町獺越"
  },
  "7420423": {
    "zipcode": "7420423",
    "prefectureCode": "35",
    "prefectureNumber": 35,
    "prefecture": "山口県",
    "city": "岩国市",
    "town": "周東町下須通"
  },
  "7420424": {
    "zipcode": "7420424",
    "prefectureCode": "35",
    "prefectureNumber": 35,
    "prefecture": "山口県",
    "city": "岩国市",
    "town": "周東町差川"
  },
  "7420425": {
    "zipcode": "7420425",
    "prefectureCode": "35",
    "prefectureNumber": 35,
    "prefecture": "山口県",
    "city": "岩国市",
    "town": "周東町西長野"
  },
  "7420426": {
    "zipcode": "7420426",
    "prefectureCode": "35",
    "prefectureNumber": 35,
    "prefecture": "山口県",
    "city": "岩国市",
    "town": "周東町上須通"
  },
  "7420427": {
    "zipcode": "7420427",
    "prefectureCode": "35",
    "prefectureNumber": 35,
    "prefecture": "山口県",
    "city": "岩国市",
    "town": "周東町樋余地"
  },
  "7421100": {
    "zipcode": "7421100",
    "prefectureCode": "35",
    "prefectureNumber": 35,
    "prefecture": "山口県",
    "city": "熊毛郡平生町",
    "town": "以下に掲載がない場合"
  },
  "7421101": {
    "zipcode": "7421101",
    "prefectureCode": "35",
    "prefectureNumber": 35,
    "prefecture": "山口県",
    "city": "熊毛郡平生町",
    "town": "平生町"
  },
  "7421102": {
    "zipcode": "7421102",
    "prefectureCode": "35",
    "prefectureNumber": 35,
    "prefecture": "山口県",
    "city": "熊毛郡平生町",
    "town": "平生村"
  },
  "7421103": {
    "zipcode": "7421103",
    "prefectureCode": "35",
    "prefectureNumber": 35,
    "prefecture": "山口県",
    "city": "熊毛郡平生町",
    "town": "竪ケ浜"
  },
  "7421104": {
    "zipcode": "7421104",
    "prefectureCode": "35",
    "prefectureNumber": 35,
    "prefecture": "山口県",
    "city": "熊毛郡平生町",
    "town": "宇佐木"
  },
  "7421105": {
    "zipcode": "7421105",
    "prefectureCode": "35",
    "prefectureNumber": 35,
    "prefecture": "山口県",
    "city": "熊毛郡平生町",
    "town": "大野北"
  },
  "7421106": {
    "zipcode": "7421106",
    "prefectureCode": "35",
    "prefectureNumber": 35,
    "prefecture": "山口県",
    "city": "熊毛郡平生町",
    "town": "大野南"
  },
  "7421107": {
    "zipcode": "7421107",
    "prefectureCode": "35",
    "prefectureNumber": 35,
    "prefecture": "山口県",
    "city": "熊毛郡平生町",
    "town": "曽根"
  },
  "7421111": {
    "zipcode": "7421111",
    "prefectureCode": "35",
    "prefectureNumber": 35,
    "prefecture": "山口県",
    "city": "熊毛郡平生町",
    "town": "佐賀"
  },
  "7421112": {
    "zipcode": "7421112",
    "prefectureCode": "35",
    "prefectureNumber": 35,
    "prefecture": "山口県",
    "city": "熊毛郡平生町",
    "town": "小郡"
  },
  "7421113": {
    "zipcode": "7421113",
    "prefectureCode": "35",
    "prefectureNumber": 35,
    "prefecture": "山口県",
    "city": "熊毛郡平生町",
    "town": "尾国"
  },
  "7421114": {
    "zipcode": "7421114",
    "prefectureCode": "35",
    "prefectureNumber": 35,
    "prefecture": "山口県",
    "city": "熊毛郡平生町",
    "town": "佐合島"
  },
  "7421351": {
    "zipcode": "7421351",
    "prefectureCode": "35",
    "prefectureNumber": 35,
    "prefecture": "山口県",
    "city": "柳井市",
    "town": "旭ケ丘"
  },
  "7421352": {
    "zipcode": "7421352",
    "prefectureCode": "35",
    "prefectureNumber": 35,
    "prefecture": "山口県",
    "city": "柳井市",
    "town": "伊保庄"
  },
  "7421353": {
    "zipcode": "7421353",
    "prefectureCode": "35",
    "prefectureNumber": 35,
    "prefecture": "山口県",
    "city": "柳井市",
    "town": "阿月"
  },
  "7421400": {
    "zipcode": "7421400",
    "prefectureCode": "35",
    "prefectureNumber": 35,
    "prefecture": "山口県",
    "city": "熊毛郡上関町",
    "town": "以下に掲載がない場合"
  },
  "7421401": {
    "zipcode": "7421401",
    "prefectureCode": "35",
    "prefectureNumber": 35,
    "prefecture": "山口県",
    "city": "熊毛郡上関町",
    "town": "祝島"
  },
  "7421402": {
    "zipcode": "7421402",
    "prefectureCode": "35",
    "prefectureNumber": 35,
    "prefecture": "山口県",
    "city": "熊毛郡上関町",
    "town": "長島"
  },
  "7421403": {
    "zipcode": "7421403",
    "prefectureCode": "35",
    "prefectureNumber": 35,
    "prefecture": "山口県",
    "city": "熊毛郡上関町",
    "town": "室津"
  },
  "7421404": {
    "zipcode": "7421404",
    "prefectureCode": "35",
    "prefectureNumber": 35,
    "prefecture": "山口県",
    "city": "熊毛郡上関町",
    "town": "八島"
  },
  "7421500": {
    "zipcode": "7421500",
    "prefectureCode": "35",
    "prefectureNumber": 35,
    "prefecture": "山口県",
    "city": "熊毛郡田布施町",
    "town": "以下に掲載がない場合"
  },
  "7421501": {
    "zipcode": "7421501",
    "prefectureCode": "35",
    "prefectureNumber": 35,
    "prefecture": "山口県",
    "city": "熊毛郡田布施町",
    "town": "大波野"
  },
  "7421502": {
    "zipcode": "7421502",
    "prefectureCode": "35",
    "prefectureNumber": 35,
    "prefecture": "山口県",
    "city": "熊毛郡田布施町",
    "town": "波野"
  },
  "7421503": {
    "zipcode": "7421503",
    "prefectureCode": "35",
    "prefectureNumber": 35,
    "prefecture": "山口県",
    "city": "熊毛郡田布施町",
    "town": "宿井"
  },
  "7421504": {
    "zipcode": "7421504",
    "prefectureCode": "35",
    "prefectureNumber": 35,
    "prefecture": "山口県",
    "city": "熊毛郡田布施町",
    "town": "川西"
  },
  "7421511": {
    "zipcode": "7421511",
    "prefectureCode": "35",
    "prefectureNumber": 35,
    "prefecture": "山口県",
    "city": "熊毛郡田布施町",
    "town": "下田布施"
  },
  "7421512": {
    "zipcode": "7421512",
    "prefectureCode": "35",
    "prefectureNumber": 35,
    "prefecture": "山口県",
    "city": "熊毛郡田布施町",
    "town": "麻郷奥"
  },
  "7421513": {
    "zipcode": "7421513",
    "prefectureCode": "35",
    "prefectureNumber": 35,
    "prefecture": "山口県",
    "city": "熊毛郡田布施町",
    "town": "麻郷団地"
  },
  "7421514": {
    "zipcode": "7421514",
    "prefectureCode": "35",
    "prefectureNumber": 35,
    "prefecture": "山口県",
    "city": "熊毛郡田布施町",
    "town": "別府"
  },
  "7421515": {
    "zipcode": "7421515",
    "prefectureCode": "35",
    "prefectureNumber": 35,
    "prefecture": "山口県",
    "city": "熊毛郡田布施町",
    "town": "上田布施"
  },
  "7421516": {
    "zipcode": "7421516",
    "prefectureCode": "35",
    "prefectureNumber": 35,
    "prefecture": "山口県",
    "city": "熊毛郡田布施町",
    "town": "馬島"
  },
  "7421517": {
    "zipcode": "7421517",
    "prefectureCode": "35",
    "prefectureNumber": 35,
    "prefecture": "山口県",
    "city": "熊毛郡田布施町",
    "town": "中央南"
  },
  "7422100": {
    "zipcode": "7422100",
    "prefectureCode": "35",
    "prefectureNumber": 35,
    "prefecture": "山口県",
    "city": "大島郡周防大島町",
    "town": "以下に掲載がない場合"
  },
  "7422101": {
    "zipcode": "7422101",
    "prefectureCode": "35",
    "prefectureNumber": 35,
    "prefecture": "山口県",
    "city": "大島郡周防大島町",
    "town": "西三蒲"
  },
  "7422102": {
    "zipcode": "7422102",
    "prefectureCode": "35",
    "prefectureNumber": 35,
    "prefecture": "山口県",
    "city": "大島郡周防大島町",
    "town": "東三蒲"
  },
  "7422103": {
    "zipcode": "7422103",
    "prefectureCode": "35",
    "prefectureNumber": 35,
    "prefecture": "山口県",
    "city": "大島郡周防大島町",
    "town": "西屋代"
  },
  "7422104": {
    "zipcode": "7422104",
    "prefectureCode": "35",
    "prefectureNumber": 35,
    "prefecture": "山口県",
    "city": "大島郡周防大島町",
    "town": "志佐"
  },
  "7422105": {
    "zipcode": "7422105",
    "prefectureCode": "35",
    "prefectureNumber": 35,
    "prefecture": "山口県",
    "city": "大島郡周防大島町",
    "town": "小松開作"
  },
  "7422106": {
    "zipcode": "7422106",
    "prefectureCode": "35",
    "prefectureNumber": 35,
    "prefecture": "山口県",
    "city": "大島郡周防大島町",
    "town": "小松"
  },
  "7422107": {
    "zipcode": "7422107",
    "prefectureCode": "35",
    "prefectureNumber": 35,
    "prefecture": "山口県",
    "city": "大島郡周防大島町",
    "town": "東屋代"
  },
  "7422108": {
    "zipcode": "7422108",
    "prefectureCode": "35",
    "prefectureNumber": 35,
    "prefecture": "山口県",
    "city": "大島郡周防大島町",
    "town": "笠佐島"
  },
  "7422301": {
    "zipcode": "7422301",
    "prefectureCode": "35",
    "prefectureNumber": 35,
    "prefecture": "山口県",
    "city": "大島郡周防大島町",
    "town": "久賀"
  },
  "7422302": {
    "zipcode": "7422302",
    "prefectureCode": "35",
    "prefectureNumber": 35,
    "prefecture": "山口県",
    "city": "大島郡周防大島町",
    "town": "椋野"
  },
  "7422511": {
    "zipcode": "7422511",
    "prefectureCode": "35",
    "prefectureNumber": 35,
    "prefecture": "山口県",
    "city": "大島郡周防大島町",
    "town": "片添"
  },
  "7422512": {
    "zipcode": "7422512",
    "prefectureCode": "35",
    "prefectureNumber": 35,
    "prefecture": "山口県",
    "city": "大島郡周防大島町",
    "town": "平野"
  },
  "7422513": {
    "zipcode": "7422513",
    "prefectureCode": "35",
    "prefectureNumber": 35,
    "prefecture": "山口県",
    "city": "大島郡周防大島町",
    "town": "森"
  },
  "7422514": {
    "zipcode": "7422514",
    "prefectureCode": "35",
    "prefectureNumber": 35,
    "prefecture": "山口県",
    "city": "大島郡周防大島町",
    "town": "神浦"
  },
  "7422515": {
    "zipcode": "7422515",
    "prefectureCode": "35",
    "prefectureNumber": 35,
    "prefecture": "山口県",
    "city": "大島郡周防大島町",
    "town": "内入"
  },
  "7422516": {
    "zipcode": "7422516",
    "prefectureCode": "35",
    "prefectureNumber": 35,
    "prefecture": "山口県",
    "city": "大島郡周防大島町",
    "town": "和田"
  },
  "7422517": {
    "zipcode": "7422517",
    "prefectureCode": "35",
    "prefectureNumber": 35,
    "prefecture": "山口県",
    "city": "大島郡周防大島町",
    "town": "小泊"
  },
  "7422518": {
    "zipcode": "7422518",
    "prefectureCode": "35",
    "prefectureNumber": 35,
    "prefecture": "山口県",
    "city": "大島郡周防大島町",
    "town": "和佐"
  },
  "7422601": {
    "zipcode": "7422601",
    "prefectureCode": "35",
    "prefectureNumber": 35,
    "prefecture": "山口県",
    "city": "大島郡周防大島町",
    "town": "伊保田（両源田）"
  },
  "7422602": {
    "zipcode": "7422602",
    "prefectureCode": "35",
    "prefectureNumber": 35,
    "prefecture": "山口県",
    "city": "大島郡周防大島町",
    "town": "油宇（日向泊）"
  },
  "7422711": {
    "zipcode": "7422711",
    "prefectureCode": "35",
    "prefectureNumber": 35,
    "prefecture": "山口県",
    "city": "大島郡周防大島町",
    "town": "家房"
  },
  "7422712": {
    "zipcode": "7422712",
    "prefectureCode": "35",
    "prefectureNumber": 35,
    "prefecture": "山口県",
    "city": "大島郡周防大島町",
    "town": "出井"
  },
  "7422713": {
    "zipcode": "7422713",
    "prefectureCode": "35",
    "prefectureNumber": 35,
    "prefecture": "山口県",
    "city": "大島郡周防大島町",
    "town": "津海木"
  },
  "7422714": {
    "zipcode": "7422714",
    "prefectureCode": "35",
    "prefectureNumber": 35,
    "prefecture": "山口県",
    "city": "大島郡周防大島町",
    "town": "戸田"
  },
  "7422715": {
    "zipcode": "7422715",
    "prefectureCode": "35",
    "prefectureNumber": 35,
    "prefecture": "山口県",
    "city": "大島郡周防大島町",
    "town": "横見"
  },
  "7422716": {
    "zipcode": "7422716",
    "prefectureCode": "35",
    "prefectureNumber": 35,
    "prefecture": "山口県",
    "city": "大島郡周防大島町",
    "town": "日見"
  },
  "7422801": {
    "zipcode": "7422801",
    "prefectureCode": "35",
    "prefectureNumber": 35,
    "prefecture": "山口県",
    "city": "大島郡周防大島町",
    "town": "浮島"
  },
  "7422802": {
    "zipcode": "7422802",
    "prefectureCode": "35",
    "prefectureNumber": 35,
    "prefecture": "山口県",
    "city": "大島郡周防大島町",
    "town": "油良"
  },
  "7422803": {
    "zipcode": "7422803",
    "prefectureCode": "35",
    "prefectureNumber": 35,
    "prefecture": "山口県",
    "city": "大島郡周防大島町",
    "town": "土居"
  },
  "7422804": {
    "zipcode": "7422804",
    "prefectureCode": "35",
    "prefectureNumber": 35,
    "prefecture": "山口県",
    "city": "大島郡周防大島町",
    "town": "日前"
  },
  "7422805": {
    "zipcode": "7422805",
    "prefectureCode": "35",
    "prefectureNumber": 35,
    "prefecture": "山口県",
    "city": "大島郡周防大島町",
    "town": "東安下庄"
  },
  "7422806": {
    "zipcode": "7422806",
    "prefectureCode": "35",
    "prefectureNumber": 35,
    "prefecture": "山口県",
    "city": "大島郡周防大島町",
    "town": "西安下庄"
  },
  "7422807": {
    "zipcode": "7422807",
    "prefectureCode": "35",
    "prefectureNumber": 35,
    "prefecture": "山口県",
    "city": "大島郡周防大島町",
    "town": "秋"
  },
  "7422921": {
    "zipcode": "7422921",
    "prefectureCode": "35",
    "prefectureNumber": 35,
    "prefecture": "山口県",
    "city": "大島郡周防大島町",
    "town": "西方（船越）"
  },
  "7422922": {
    "zipcode": "7422922",
    "prefectureCode": "35",
    "prefectureNumber": 35,
    "prefecture": "山口県",
    "city": "大島郡周防大島町",
    "town": "沖家室島"
  },
  "7422923": {
    "zipcode": "7422923",
    "prefectureCode": "35",
    "prefectureNumber": 35,
    "prefecture": "山口県",
    "city": "大島郡周防大島町",
    "town": "地家室（佐連）"
  },
  "7422924": {
    "zipcode": "7422924",
    "prefectureCode": "35",
    "prefectureNumber": 35,
    "prefecture": "山口県",
    "city": "大島郡周防大島町",
    "town": "外入（伊崎）"
  }
}
