{
  "7430000": {
    "zipcode": "7430000",
    "prefectureCode": "35",
    "prefectureNumber": 35,
    "prefecture": "山口県",
    "city": "光市",
    "town": "以下に掲載がない場合"
  },
  "7430001": {
    "zipcode": "7430001",
    "prefectureCode": "35",
    "prefectureNumber": 35,
    "prefecture": "山口県",
    "city": "光市",
    "town": "室積村"
  },
  "7430002": {
    "zipcode": "7430002",
    "prefectureCode": "35",
    "prefectureNumber": 35,
    "prefecture": "山口県",
    "city": "光市",
    "town": "室積浦"
  },
  "7430003": {
    "zipcode": "7430003",
    "prefectureCode": "35",
    "prefectureNumber": 35,
    "prefecture": "山口県",
    "city": "光市",
    "town": "牛島"
  },
  "7430004": {
    "zipcode": "7430004",
    "prefectureCode": "35",
    "prefectureNumber": 35,
    "prefecture": "山口県",
    "city": "光市",
    "town": "室積市延"
  },
  "7430005": {
    "zipcode": "7430005",
    "prefectureCode": "35",
    "prefectureNumber": 35,
    "prefecture": "山口県",
    "city": "光市",
    "town": "室積東ノ庄"
  },
  "7430006": {
    "zipcode": "7430006",
    "prefectureCode": "35",
    "prefectureNumber": 35,
    "prefecture": "山口県",
    "city": "光市",
    "town": "室積神田"
  },
  "7430007": {
    "zipcode": "7430007",
    "prefectureCode": "35",
    "prefectureNumber": 35,
    "prefecture": "山口県",
    "city": "光市",
    "town": "室積"
  },
  "7430008": {
    "zipcode": "7430008",
    "prefectureCode": "35",
    "prefectureNumber": 35,
    "prefecture": "山口県",
    "city": "光市",
    "town": "室積中央町"
  },
  "7430009": {
    "zipcode": "7430009",
    "prefectureCode": "35",
    "prefectureNumber": 35,
    "prefecture": "山口県",
    "city": "光市",
    "town": "室積松原"
  },
  "7430011": {
    "zipcode": "7430011",
    "prefectureCode": "35",
    "prefectureNumber": 35,
    "prefecture": "山口県",
    "city": "光市",
    "town": "光井"
  },
  "7430012": {
    "zipcode": "7430012",
    "prefectureCode": "35",
    "prefectureNumber": 35,
    "prefecture": "山口県",
    "city": "光市",
    "town": "千坊台"
  },
  "7430013": {
    "zipcode": "7430013",
    "prefectureCode": "35",
    "prefectureNumber": 35,
    "prefecture": "山口県",
    "city": "光市",
    "town": "中央"
  },
  "7430021": {
    "zipcode": "7430021",
    "prefectureCode": "35",
    "prefectureNumber": 35,
    "prefecture": "山口県",
    "city": "光市",
    "town": "浅江"
  },
  "7430022": {
    "zipcode": "7430022",
    "prefectureCode": "35",
    "prefectureNumber": 35,
    "prefecture": "山口県",
    "city": "光市",
    "town": "虹ケ浜"
  },
  "7430023": {
    "zipcode": "7430023",
    "prefectureCode": "35",
    "prefectureNumber": 35,
    "prefecture": "山口県",
    "city": "光市",
    "town": "光ケ丘"
  },
  "7430031": {
    "zipcode": "7430031",
    "prefectureCode": "35",
    "prefectureNumber": 35,
    "prefecture": "山口県",
    "city": "光市",
    "town": "虹ケ丘"
  },
  "7430041": {
    "zipcode": "7430041",
    "prefectureCode": "35",
    "prefectureNumber": 35,
    "prefecture": "山口県",
    "city": "光市",
    "town": "丸山町"
  },
  "7430042": {
    "zipcode": "7430042",
    "prefectureCode": "35",
    "prefectureNumber": 35,
    "prefecture": "山口県",
    "city": "光市",
    "town": "宝町"
  },
  "7430043": {
    "zipcode": "7430043",
    "prefectureCode": "35",
    "prefectureNumber": 35,
    "prefecture": "山口県",
    "city": "光市",
    "town": "協和町"
  },
  "7430044": {
    "zipcode": "7430044",
    "prefectureCode": "35",
    "prefectureNumber": 35,
    "prefecture": "山口県",
    "city": "光市",
    "town": "和田町"
  },
  "7430045": {
    "zipcode": "7430045",
    "prefectureCode": "35",
    "prefectureNumber": 35,
    "prefecture": "山口県",
    "city": "光市",
    "town": "宮ノ下町"
  },
  "7430046": {
    "zipcode": "7430046",
    "prefectureCode": "35",
    "prefectureNumber": 35,
    "prefecture": "山口県",
    "city": "光市",
    "town": "木園"
  },
  "7430047": {
    "zipcode": "7430047",
    "prefectureCode": "35",
    "prefectureNumber": 35,
    "prefecture": "山口県",
    "city": "光市",
    "town": "花園"
  },
  "7430048": {
    "zipcode": "7430048",
    "prefectureCode": "35",
    "prefectureNumber": 35,
    "prefecture": "山口県",
    "city": "光市",
    "town": "中村町"
  },
  "7430051": {
    "zipcode": "7430051",
    "prefectureCode": "35",
    "prefectureNumber": 35,
    "prefecture": "山口県",
    "city": "光市",
    "town": "岩狩"
  },
  "7430052": {
    "zipcode": "7430052",
    "prefectureCode": "35",
    "prefectureNumber": 35,
    "prefecture": "山口県",
    "city": "光市",
    "town": "三井"
  },
  "7430061": {
    "zipcode": "7430061",
    "prefectureCode": "35",
    "prefectureNumber": 35,
    "prefecture": "山口県",
    "city": "光市",
    "town": "小周防"
  },
  "7430062": {
    "zipcode": "7430062",
    "prefectureCode": "35",
    "prefectureNumber": 35,
    "prefecture": "山口県",
    "city": "光市",
    "town": "立野"
  },
  "7430063": {
    "zipcode": "7430063",
    "prefectureCode": "35",
    "prefectureNumber": 35,
    "prefecture": "山口県",
    "city": "光市",
    "town": "島田"
  },
  "7430064": {
    "zipcode": "7430064",
    "prefectureCode": "35",
    "prefectureNumber": 35,
    "prefecture": "山口県",
    "city": "光市",
    "town": "中島田"
  },
  "7430065": {
    "zipcode": "7430065",
    "prefectureCode": "35",
    "prefectureNumber": 35,
    "prefecture": "山口県",
    "city": "光市",
    "town": "上島田"
  },
  "7430071": {
    "zipcode": "7430071",
    "prefectureCode": "35",
    "prefectureNumber": 35,
    "prefecture": "山口県",
    "city": "光市",
    "town": "室積新開"
  },
  "7430072": {
    "zipcode": "7430072",
    "prefectureCode": "35",
    "prefectureNumber": 35,
    "prefecture": "山口県",
    "city": "光市",
    "town": "室積大町"
  },
  "7430073": {
    "zipcode": "7430073",
    "prefectureCode": "35",
    "prefectureNumber": 35,
    "prefecture": "山口県",
    "city": "光市",
    "town": "室積正木"
  },
  "7430074": {
    "zipcode": "7430074",
    "prefectureCode": "35",
    "prefectureNumber": 35,
    "prefecture": "山口県",
    "city": "光市",
    "town": "室積西ノ庄"
  },
  "7430075": {
    "zipcode": "7430075",
    "prefectureCode": "35",
    "prefectureNumber": 35,
    "prefecture": "山口県",
    "city": "光市",
    "town": "室積沖田"
  },
  "7430101": {
    "zipcode": "7430101",
    "prefectureCode": "35",
    "prefectureNumber": 35,
    "prefecture": "山口県",
    "city": "光市",
    "town": "塩田"
  },
  "7430102": {
    "zipcode": "7430102",
    "prefectureCode": "35",
    "prefectureNumber": 35,
    "prefecture": "山口県",
    "city": "光市",
    "town": "三輪"
  },
  "7430103": {
    "zipcode": "7430103",
    "prefectureCode": "35",
    "prefectureNumber": 35,
    "prefecture": "山口県",
    "city": "光市",
    "town": "岩田"
  },
  "7430104": {
    "zipcode": "7430104",
    "prefectureCode": "35",
    "prefectureNumber": 35,
    "prefecture": "山口県",
    "city": "光市",
    "town": "岩田立野"
  },
  "7430105": {
    "zipcode": "7430105",
    "prefectureCode": "35",
    "prefectureNumber": 35,
    "prefecture": "山口県",
    "city": "光市",
    "town": "束荷"
  }
}
