{
  "7440000": {
    "zipcode": "7440000",
    "prefectureCode": "35",
    "prefectureNumber": 35,
    "prefecture": "山口県",
    "city": "下松市",
    "town": "以下に掲載がない場合"
  },
  "7440001": {
    "zipcode": "7440001",
    "prefectureCode": "35",
    "prefectureNumber": 35,
    "prefecture": "山口県",
    "city": "下松市",
    "town": "笠戸島（本浦）"
  },
  "7440002": {
    "zipcode": "7440002",
    "prefectureCode": "35",
    "prefectureNumber": 35,
    "prefecture": "山口県",
    "city": "下松市",
    "town": "東豊井（松神町）"
  },
  "7440003": {
    "zipcode": "7440003",
    "prefectureCode": "35",
    "prefectureNumber": 35,
    "prefecture": "山口県",
    "city": "下松市",
    "town": "琴平町"
  },
  "7440004": {
    "zipcode": "7440004",
    "prefectureCode": "35",
    "prefectureNumber": 35,
    "prefecture": "山口県",
    "city": "下松市",
    "town": "青柳"
  },
  "7440005": {
    "zipcode": "7440005",
    "prefectureCode": "35",
    "prefectureNumber": 35,
    "prefecture": "山口県",
    "city": "下松市",
    "town": "古川町"
  },
  "7440006": {
    "zipcode": "7440006",
    "prefectureCode": "35",
    "prefectureNumber": 35,
    "prefecture": "山口県",
    "city": "下松市",
    "town": "旗岡"
  },
  "7440007": {
    "zipcode": "7440007",
    "prefectureCode": "35",
    "prefectureNumber": 35,
    "prefecture": "山口県",
    "city": "下松市",
    "town": "駅南"
  },
  "7440008": {
    "zipcode": "7440008",
    "prefectureCode": "35",
    "prefectureNumber": 35,
    "prefecture": "山口県",
    "city": "下松市",
    "town": "新川"
  },
  "7440011": {
    "zipcode": "7440011",
    "prefectureCode": "35",
    "prefectureNumber": 35,
    "prefecture": "山口県",
    "city": "下松市",
    "town": "西豊井（元町西）"
  },
  "7440012": {
    "zipcode": "7440012",
    "prefectureCode": "35",
    "prefectureNumber": 35,
    "prefecture": "山口県",
    "city": "下松市",
    "town": "北斗町"
  },
  "7440013": {
    "zipcode": "7440013",
    "prefectureCode": "35",
    "prefectureNumber": 35,
    "prefecture": "山口県",
    "city": "下松市",
    "town": "栄町"
  },
  "7440014": {
    "zipcode": "7440014",
    "prefectureCode": "35",
    "prefectureNumber": 35,
    "prefecture": "山口県",
    "city": "下松市",
    "town": "中市"
  },
  "7440015": {
    "zipcode": "7440015",
    "prefectureCode": "35",
    "prefectureNumber": 35,
    "prefecture": "山口県",
    "city": "下松市",
    "town": "大手町"
  },
  "7440017": {
    "zipcode": "7440017",
    "prefectureCode": "35",
    "prefectureNumber": 35,
    "prefecture": "山口県",
    "city": "下松市",
    "town": "東柳"
  },
  "7440018": {
    "zipcode": "7440018",
    "prefectureCode": "35",
    "prefectureNumber": 35,
    "prefecture": "山口県",
    "city": "下松市",
    "town": "西柳"
  },
  "7440019": {
    "zipcode": "7440019",
    "prefectureCode": "35",
    "prefectureNumber": 35,
    "prefecture": "山口県",
    "city": "下松市",
    "town": "桜町"
  },
  "7440021": {
    "zipcode": "7440021",
    "prefectureCode": "35",
    "prefectureNumber": 35,
    "prefecture": "山口県",
    "city": "下松市",
    "town": "平田（西開作）"
  },
  "7440022": {
    "zipcode": "7440022",
    "prefectureCode": "35",
    "prefectureNumber": 35,
    "prefecture": "山口県",
    "city": "下松市",
    "town": "末武下（弥生町）"
  },
  "7440023": {
    "zipcode": "7440023",
    "prefectureCode": "35",
    "prefectureNumber": 35,
    "prefecture": "山口県",
    "city": "下松市",
    "town": "末武中（和田）"
  },
  "7440024": {
    "zipcode": "7440024",
    "prefectureCode": "35",
    "prefectureNumber": 35,
    "prefecture": "山口県",
    "city": "下松市",
    "town": "末武上（南花岡）"
  },
  "7440025": {
    "zipcode": "7440025",
    "prefectureCode": "35",
    "prefectureNumber": 35,
    "prefecture": "山口県",
    "city": "下松市",
    "town": "中央町"
  },
  "7440027": {
    "zipcode": "7440027",
    "prefectureCode": "35",
    "prefectureNumber": 35,
    "prefecture": "山口県",
    "city": "下松市",
    "town": "南花岡"
  },
  "7440028": {
    "zipcode": "7440028",
    "prefectureCode": "35",
    "prefectureNumber": 35,
    "prefecture": "山口県",
    "city": "下松市",
    "town": "藤光町"
  },
  "7440029": {
    "zipcode": "7440029",
    "prefectureCode": "35",
    "prefectureNumber": 35,
    "prefecture": "山口県",
    "city": "下松市",
    "town": "楠木町"
  },
  "7440031": {
    "zipcode": "7440031",
    "prefectureCode": "35",
    "prefectureNumber": 35,
    "prefecture": "山口県",
    "city": "下松市",
    "town": "生野屋（宮本）"
  },
  "7440032": {
    "zipcode": "7440032",
    "prefectureCode": "35",
    "prefectureNumber": 35,
    "prefecture": "山口県",
    "city": "下松市",
    "town": "生野屋西"
  },
  "7440033": {
    "zipcode": "7440033",
    "prefectureCode": "35",
    "prefectureNumber": 35,
    "prefecture": "山口県",
    "city": "下松市",
    "town": "生野屋南"
  },
  "7440041": {
    "zipcode": "7440041",
    "prefectureCode": "35",
    "prefectureNumber": 35,
    "prefecture": "山口県",
    "city": "下松市",
    "town": "山田（山田下）"
  },
  "7440042": {
    "zipcode": "7440042",
    "prefectureCode": "35",
    "prefectureNumber": 35,
    "prefecture": "山口県",
    "city": "下松市",
    "town": "切山（中）"
  },
  "7440043": {
    "zipcode": "7440043",
    "prefectureCode": "35",
    "prefectureNumber": 35,
    "prefecture": "山口県",
    "city": "下松市",
    "town": "東陽"
  },
  "7440051": {
    "zipcode": "7440051",
    "prefectureCode": "35",
    "prefectureNumber": 35,
    "prefecture": "山口県",
    "city": "下松市",
    "town": "来巻（西）"
  },
  "7440052": {
    "zipcode": "7440052",
    "prefectureCode": "35",
    "prefectureNumber": 35,
    "prefecture": "山口県",
    "city": "下松市",
    "town": "桃山町"
  },
  "7440053": {
    "zipcode": "7440053",
    "prefectureCode": "35",
    "prefectureNumber": 35,
    "prefecture": "山口県",
    "city": "下松市",
    "town": "東和"
  },
  "7440061": {
    "zipcode": "7440061",
    "prefectureCode": "35",
    "prefectureNumber": 35,
    "prefecture": "山口県",
    "city": "下松市",
    "town": "河内（吉原）"
  },
  "7440062": {
    "zipcode": "7440062",
    "prefectureCode": "35",
    "prefectureNumber": 35,
    "prefecture": "山口県",
    "city": "下松市",
    "town": "昭和町"
  },
  "7440063": {
    "zipcode": "7440063",
    "prefectureCode": "35",
    "prefectureNumber": 35,
    "prefecture": "山口県",
    "city": "下松市",
    "town": "若宮町"
  },
  "7440065": {
    "zipcode": "7440065",
    "prefectureCode": "35",
    "prefectureNumber": 35,
    "prefecture": "山口県",
    "city": "下松市",
    "town": "星が丘"
  },
  "7440071": {
    "zipcode": "7440071",
    "prefectureCode": "35",
    "prefectureNumber": 35,
    "prefecture": "山口県",
    "city": "下松市",
    "town": "清瀬町"
  },
  "7440072": {
    "zipcode": "7440072",
    "prefectureCode": "35",
    "prefectureNumber": 35,
    "prefecture": "山口県",
    "city": "下松市",
    "town": "望町"
  },
  "7440073": {
    "zipcode": "7440073",
    "prefectureCode": "35",
    "prefectureNumber": 35,
    "prefecture": "山口県",
    "city": "下松市",
    "town": "美里町"
  },
  "7440074": {
    "zipcode": "7440074",
    "prefectureCode": "35",
    "prefectureNumber": 35,
    "prefecture": "山口県",
    "city": "下松市",
    "town": "潮音町"
  },
  "7440075": {
    "zipcode": "7440075",
    "prefectureCode": "35",
    "prefectureNumber": 35,
    "prefecture": "山口県",
    "city": "下松市",
    "town": "瑞穂町"
  },
  "7440076": {
    "zipcode": "7440076",
    "prefectureCode": "35",
    "prefectureNumber": 35,
    "prefecture": "山口県",
    "city": "下松市",
    "town": "せせらぎ町"
  },
  "7440077": {
    "zipcode": "7440077",
    "prefectureCode": "35",
    "prefectureNumber": 35,
    "prefecture": "山口県",
    "city": "下松市",
    "town": "中島町"
  },
  "7440078": {
    "zipcode": "7440078",
    "prefectureCode": "35",
    "prefectureNumber": 35,
    "prefecture": "山口県",
    "city": "下松市",
    "town": "西市"
  },
  "7440271": {
    "zipcode": "7440271",
    "prefectureCode": "35",
    "prefectureNumber": 35,
    "prefecture": "山口県",
    "city": "下松市",
    "town": "下谷（山高）"
  },
  "7440272": {
    "zipcode": "7440272",
    "prefectureCode": "35",
    "prefectureNumber": 35,
    "prefecture": "山口県",
    "city": "下松市",
    "town": "大藤谷"
  },
  "7440273": {
    "zipcode": "7440273",
    "prefectureCode": "35",
    "prefectureNumber": 35,
    "prefecture": "山口県",
    "city": "下松市",
    "town": "瀬戸（中原）"
  },
  "7440274": {
    "zipcode": "7440274",
    "prefectureCode": "35",
    "prefectureNumber": 35,
    "prefecture": "山口県",
    "city": "下松市",
    "town": "温見（道谷）"
  },
  "7440275": {
    "zipcode": "7440275",
    "prefectureCode": "35",
    "prefectureNumber": 35,
    "prefecture": "山口県",
    "city": "下松市",
    "town": "中須南"
  },
  "7440276": {
    "zipcode": "7440276",
    "prefectureCode": "35",
    "prefectureNumber": 35,
    "prefecture": "山口県",
    "city": "下松市",
    "town": "米川"
  }
}
