{
  "7450000": {
    "zipcode": "7450000",
    "prefectureCode": "35",
    "prefectureNumber": 35,
    "prefecture": "山口県",
    "city": "周南市",
    "town": "以下に掲載がない場合"
  },
  "7450001": {
    "zipcode": "7450001",
    "prefectureCode": "35",
    "prefectureNumber": 35,
    "prefecture": "山口県",
    "city": "周南市",
    "town": "辻町"
  },
  "7450002": {
    "zipcode": "7450002",
    "prefectureCode": "35",
    "prefectureNumber": 35,
    "prefecture": "山口県",
    "city": "周南市",
    "town": "二番町"
  },
  "7450003": {
    "zipcode": "7450003",
    "prefectureCode": "35",
    "prefectureNumber": 35,
    "prefecture": "山口県",
    "city": "周南市",
    "town": "三番町"
  },
  "7450004": {
    "zipcode": "7450004",
    "prefectureCode": "35",
    "prefectureNumber": 35,
    "prefecture": "山口県",
    "city": "周南市",
    "town": "毛利町"
  },
  "7450005": {
    "zipcode": "7450005",
    "prefectureCode": "35",
    "prefectureNumber": 35,
    "prefecture": "山口県",
    "city": "周南市",
    "town": "児玉町"
  },
  "7450006": {
    "zipcode": "7450006",
    "prefectureCode": "35",
    "prefectureNumber": 35,
    "prefecture": "山口県",
    "city": "周南市",
    "town": "花畠町"
  },
  "7450007": {
    "zipcode": "7450007",
    "prefectureCode": "35",
    "prefectureNumber": 35,
    "prefecture": "山口県",
    "city": "周南市",
    "town": "岐南町"
  },
  "7450011": {
    "zipcode": "7450011",
    "prefectureCode": "35",
    "prefectureNumber": 35,
    "prefecture": "山口県",
    "city": "周南市",
    "town": "桜馬場通り"
  },
  "7450012": {
    "zipcode": "7450012",
    "prefectureCode": "35",
    "prefectureNumber": 35,
    "prefecture": "山口県",
    "city": "周南市",
    "town": "川端町"
  },
  "7450013": {
    "zipcode": "7450013",
    "prefectureCode": "35",
    "prefectureNumber": 35,
    "prefecture": "山口県",
    "city": "周南市",
    "town": "昭和通り"
  },
  "7450014": {
    "zipcode": "7450014",
    "prefectureCode": "35",
    "prefectureNumber": 35,
    "prefecture": "山口県",
    "city": "周南市",
    "town": "飯島町"
  },
  "7450015": {
    "zipcode": "7450015",
    "prefectureCode": "35",
    "prefectureNumber": 35,
    "prefecture": "山口県",
    "city": "周南市",
    "town": "平和通り"
  },
  "7450016": {
    "zipcode": "7450016",
    "prefectureCode": "35",
    "prefectureNumber": 35,
    "prefecture": "山口県",
    "city": "周南市",
    "town": "若宮町"
  },
  "7450017": {
    "zipcode": "7450017",
    "prefectureCode": "35",
    "prefectureNumber": 35,
    "prefecture": "山口県",
    "city": "周南市",
    "town": "新町"
  },
  "7450021": {
    "zipcode": "7450021",
    "prefectureCode": "35",
    "prefectureNumber": 35,
    "prefecture": "山口県",
    "city": "周南市",
    "town": "柳町"
  },
  "7450022": {
    "zipcode": "7450022",
    "prefectureCode": "35",
    "prefectureNumber": 35,
    "prefecture": "山口県",
    "city": "周南市",
    "town": "橋本町"
  },
  "7450023": {
    "zipcode": "7450023",
    "prefectureCode": "35",
    "prefectureNumber": 35,
    "prefecture": "山口県",
    "city": "周南市",
    "town": "那智町"
  },
  "7450024": {
    "zipcode": "7450024",
    "prefectureCode": "35",
    "prefectureNumber": 35,
    "prefecture": "山口県",
    "city": "周南市",
    "town": "晴海町"
  },
  "7450025": {
    "zipcode": "7450025",
    "prefectureCode": "35",
    "prefectureNumber": 35,
    "prefecture": "山口県",
    "city": "周南市",
    "town": "築港町"
  },
  "7450026": {
    "zipcode": "7450026",
    "prefectureCode": "35",
    "prefectureNumber": 35,
    "prefecture": "山口県",
    "city": "周南市",
    "town": "住崎町"
  },
  "7450027": {
    "zipcode": "7450027",
    "prefectureCode": "35",
    "prefectureNumber": 35,
    "prefecture": "山口県",
    "city": "周南市",
    "town": "糀町"
  },
  "7450031": {
    "zipcode": "7450031",
    "prefectureCode": "35",
    "prefectureNumber": 35,
    "prefecture": "山口県",
    "city": "周南市",
    "town": "銀南街"
  },
  "7450032": {
    "zipcode": "7450032",
    "prefectureCode": "35",
    "prefectureNumber": 35,
    "prefecture": "山口県",
    "city": "周南市",
    "town": "銀座"
  },
  "7450033": {
    "zipcode": "7450033",
    "prefectureCode": "35",
    "prefectureNumber": 35,
    "prefecture": "山口県",
    "city": "周南市",
    "town": "みなみ銀座"
  },
  "7450034": {
    "zipcode": "7450034",
    "prefectureCode": "35",
    "prefectureNumber": 35,
    "prefecture": "山口県",
    "city": "周南市",
    "town": "御幸通り"
  },
  "7450035": {
    "zipcode": "7450035",
    "prefectureCode": "35",
    "prefectureNumber": 35,
    "prefecture": "山口県",
    "city": "周南市",
    "town": "有楽町"
  },
  "7450036": {
    "zipcode": "7450036",
    "prefectureCode": "35",
    "prefectureNumber": 35,
    "prefecture": "山口県",
    "city": "周南市",
    "town": "本町"
  },
  "7450037": {
    "zipcode": "7450037",
    "prefectureCode": "35",
    "prefectureNumber": 35,
    "prefecture": "山口県",
    "city": "周南市",
    "town": "栄町"
  },
  "7450041": {
    "zipcode": "7450041",
    "prefectureCode": "35",
    "prefectureNumber": 35,
    "prefecture": "山口県",
    "city": "周南市",
    "town": "戎町"
  },
  "7450042": {
    "zipcode": "7450042",
    "prefectureCode": "35",
    "prefectureNumber": 35,
    "prefecture": "山口県",
    "city": "周南市",
    "town": "野上町"
  },
  "7450043": {
    "zipcode": "7450043",
    "prefectureCode": "35",
    "prefectureNumber": 35,
    "prefecture": "山口県",
    "city": "周南市",
    "town": "都町"
  },
  "7450044": {
    "zipcode": "7450044",
    "prefectureCode": "35",
    "prefectureNumber": 35,
    "prefecture": "山口県",
    "city": "周南市",
    "town": "千代田町"
  },
  "7450045": {
    "zipcode": "7450045",
    "prefectureCode": "35",
    "prefectureNumber": 35,
    "prefecture": "山口県",
    "city": "周南市",
    "town": "徳山港町"
  },
  "7450046": {
    "zipcode": "7450046",
    "prefectureCode": "35",
    "prefectureNumber": 35,
    "prefecture": "山口県",
    "city": "周南市",
    "town": "権現町"
  },
  "7450047": {
    "zipcode": "7450047",
    "prefectureCode": "35",
    "prefectureNumber": 35,
    "prefecture": "山口県",
    "city": "周南市",
    "town": "入船町"
  },
  "7450051": {
    "zipcode": "7450051",
    "prefectureCode": "35",
    "prefectureNumber": 35,
    "prefecture": "山口県",
    "city": "周南市",
    "town": "沖見町"
  },
  "7450052": {
    "zipcode": "7450052",
    "prefectureCode": "35",
    "prefectureNumber": 35,
    "prefecture": "山口県",
    "city": "周南市",
    "town": "初音町"
  },
  "7450053": {
    "zipcode": "7450053",
    "prefectureCode": "35",
    "prefectureNumber": 35,
    "prefecture": "山口県",
    "city": "周南市",
    "town": "御影町"
  },
  "7450054": {
    "zipcode": "7450054",
    "prefectureCode": "35",
    "prefectureNumber": 35,
    "prefecture": "山口県",
    "city": "周南市",
    "town": "西松原"
  },
  "7450055": {
    "zipcode": "7450055",
    "prefectureCode": "35",
    "prefectureNumber": 35,
    "prefecture": "山口県",
    "city": "周南市",
    "town": "相生町"
  },
  "7450056": {
    "zipcode": "7450056",
    "prefectureCode": "35",
    "prefectureNumber": 35,
    "prefecture": "山口県",
    "city": "周南市",
    "town": "新宿通"
  },
  "7450057": {
    "zipcode": "7450057",
    "prefectureCode": "35",
    "prefectureNumber": 35,
    "prefecture": "山口県",
    "city": "周南市",
    "town": "大津島"
  },
  "7450061": {
    "zipcode": "7450061",
    "prefectureCode": "35",
    "prefectureNumber": 35,
    "prefecture": "山口県",
    "city": "周南市",
    "town": "鐘楼町"
  },
  "7450062": {
    "zipcode": "7450062",
    "prefectureCode": "35",
    "prefectureNumber": 35,
    "prefecture": "山口県",
    "city": "周南市",
    "town": "月丘町"
  },
  "7450063": {
    "zipcode": "7450063",
    "prefectureCode": "35",
    "prefectureNumber": 35,
    "prefecture": "山口県",
    "city": "周南市",
    "town": "今住町"
  },
  "7450064": {
    "zipcode": "7450064",
    "prefectureCode": "35",
    "prefectureNumber": 35,
    "prefecture": "山口県",
    "city": "周南市",
    "town": "住吉町"
  },
  "7450065": {
    "zipcode": "7450065",
    "prefectureCode": "35",
    "prefectureNumber": 35,
    "prefecture": "山口県",
    "city": "周南市",
    "town": "原宿町"
  },
  "7450066": {
    "zipcode": "7450066",
    "prefectureCode": "35",
    "prefectureNumber": 35,
    "prefecture": "山口県",
    "city": "周南市",
    "town": "岡田町"
  },
  "7450071": {
    "zipcode": "7450071",
    "prefectureCode": "35",
    "prefectureNumber": 35,
    "prefecture": "山口県",
    "city": "周南市",
    "town": "岐山通り"
  },
  "7450072": {
    "zipcode": "7450072",
    "prefectureCode": "35",
    "prefectureNumber": 35,
    "prefecture": "山口県",
    "city": "周南市",
    "town": "弥生町"
  },
  "7450073": {
    "zipcode": "7450073",
    "prefectureCode": "35",
    "prefectureNumber": 35,
    "prefecture": "山口県",
    "city": "周南市",
    "town": "代々木通り"
  },
  "7450074": {
    "zipcode": "7450074",
    "prefectureCode": "35",
    "prefectureNumber": 35,
    "prefecture": "山口県",
    "city": "周南市",
    "town": "今宿町"
  },
  "7450075": {
    "zipcode": "7450075",
    "prefectureCode": "35",
    "prefectureNumber": 35,
    "prefecture": "山口県",
    "city": "周南市",
    "town": "緑町"
  },
  "7450076": {
    "zipcode": "7450076",
    "prefectureCode": "35",
    "prefectureNumber": 35,
    "prefecture": "山口県",
    "city": "周南市",
    "town": "梅園町"
  },
  "7450121": {
    "zipcode": "7450121",
    "prefectureCode": "35",
    "prefectureNumber": 35,
    "prefecture": "山口県",
    "city": "周南市",
    "town": "須々万奥"
  },
  "7450122": {
    "zipcode": "7450122",
    "prefectureCode": "35",
    "prefectureNumber": 35,
    "prefecture": "山口県",
    "city": "周南市",
    "town": "須々万本郷"
  },
  "7450123": {
    "zipcode": "7450123",
    "prefectureCode": "35",
    "prefectureNumber": 35,
    "prefecture": "山口県",
    "city": "周南市",
    "town": "徳山（杉ケ峠）"
  },
  "7450124": {
    "zipcode": "7450124",
    "prefectureCode": "35",
    "prefectureNumber": 35,
    "prefecture": "山口県",
    "city": "周南市",
    "town": "莇地"
  },
  "7450125": {
    "zipcode": "7450125",
    "prefectureCode": "35",
    "prefectureNumber": 35,
    "prefecture": "山口県",
    "city": "周南市",
    "town": "長穂"
  },
  "7450241": {
    "zipcode": "7450241",
    "prefectureCode": "35",
    "prefectureNumber": 35,
    "prefecture": "山口県",
    "city": "周南市",
    "town": "大向"
  },
  "7450242": {
    "zipcode": "7450242",
    "prefectureCode": "35",
    "prefectureNumber": 35,
    "prefecture": "山口県",
    "city": "周南市",
    "town": "大道理"
  },
  "7450301": {
    "zipcode": "7450301",
    "prefectureCode": "35",
    "prefectureNumber": 35,
    "prefecture": "山口県",
    "city": "周南市",
    "town": "大潮"
  },
  "7450302": {
    "zipcode": "7450302",
    "prefectureCode": "35",
    "prefectureNumber": 35,
    "prefecture": "山口県",
    "city": "周南市",
    "town": "鹿野上"
  },
  "7450303": {
    "zipcode": "7450303",
    "prefectureCode": "35",
    "prefectureNumber": 35,
    "prefecture": "山口県",
    "city": "周南市",
    "town": "鹿野中"
  },
  "7450304": {
    "zipcode": "7450304",
    "prefectureCode": "35",
    "prefectureNumber": 35,
    "prefecture": "山口県",
    "city": "周南市",
    "town": "鹿野下"
  },
  "7450401": {
    "zipcode": "7450401",
    "prefectureCode": "35",
    "prefectureNumber": 35,
    "prefecture": "山口県",
    "city": "周南市",
    "town": "須万"
  },
  "7450402": {
    "zipcode": "7450402",
    "prefectureCode": "35",
    "prefectureNumber": 35,
    "prefecture": "山口県",
    "city": "周南市",
    "town": "金峰"
  },
  "7450501": {
    "zipcode": "7450501",
    "prefectureCode": "35",
    "prefectureNumber": 35,
    "prefecture": "山口県",
    "city": "周南市",
    "town": "八代"
  },
  "7450511": {
    "zipcode": "7450511",
    "prefectureCode": "35",
    "prefectureNumber": 35,
    "prefecture": "山口県",
    "city": "周南市",
    "town": "中須北"
  },
  "7450512": {
    "zipcode": "7450512",
    "prefectureCode": "35",
    "prefectureNumber": 35,
    "prefecture": "山口県",
    "city": "周南市",
    "town": "中須南"
  },
  "7450611": {
    "zipcode": "7450611",
    "prefectureCode": "35",
    "prefectureNumber": 35,
    "prefecture": "山口県",
    "city": "周南市",
    "town": "奥関屋"
  },
  "7450612": {
    "zipcode": "7450612",
    "prefectureCode": "35",
    "prefectureNumber": 35,
    "prefecture": "山口県",
    "city": "周南市",
    "town": "呼坂"
  },
  "7450613": {
    "zipcode": "7450613",
    "prefectureCode": "35",
    "prefectureNumber": 35,
    "prefecture": "山口県",
    "city": "周南市",
    "town": "夢ヶ丘"
  },
  "7450614": {
    "zipcode": "7450614",
    "prefectureCode": "35",
    "prefectureNumber": 35,
    "prefecture": "山口県",
    "city": "周南市",
    "town": "御所尾原"
  },
  "7450615": {
    "zipcode": "7450615",
    "prefectureCode": "35",
    "prefectureNumber": 35,
    "prefecture": "山口県",
    "city": "周南市",
    "town": "勝間ヶ丘"
  },
  "7450616": {
    "zipcode": "7450616",
    "prefectureCode": "35",
    "prefectureNumber": 35,
    "prefecture": "山口県",
    "city": "周南市",
    "town": "緑ケ丘"
  },
  "7450617": {
    "zipcode": "7450617",
    "prefectureCode": "35",
    "prefectureNumber": 35,
    "prefecture": "山口県",
    "city": "周南市",
    "town": "勝間原"
  },
  "7450618": {
    "zipcode": "7450618",
    "prefectureCode": "35",
    "prefectureNumber": 35,
    "prefecture": "山口県",
    "city": "周南市",
    "town": "藤ヶ台"
  },
  "7450621": {
    "zipcode": "7450621",
    "prefectureCode": "35",
    "prefectureNumber": 35,
    "prefecture": "山口県",
    "city": "周南市",
    "town": "原"
  },
  "7450622": {
    "zipcode": "7450622",
    "prefectureCode": "35",
    "prefectureNumber": 35,
    "prefecture": "山口県",
    "city": "周南市",
    "town": "樋口"
  },
  "7450623": {
    "zipcode": "7450623",
    "prefectureCode": "35",
    "prefectureNumber": 35,
    "prefecture": "山口県",
    "city": "周南市",
    "town": "清尾"
  },
  "7450631": {
    "zipcode": "7450631",
    "prefectureCode": "35",
    "prefectureNumber": 35,
    "prefecture": "山口県",
    "city": "周南市",
    "town": "安田"
  },
  "7450632": {
    "zipcode": "7450632",
    "prefectureCode": "35",
    "prefectureNumber": 35,
    "prefecture": "山口県",
    "city": "周南市",
    "town": "鶴見台"
  },
  "7450641": {
    "zipcode": "7450641",
    "prefectureCode": "35",
    "prefectureNumber": 35,
    "prefecture": "山口県",
    "city": "周南市",
    "town": "小松原"
  },
  "7450642": {
    "zipcode": "7450642",
    "prefectureCode": "35",
    "prefectureNumber": 35,
    "prefecture": "山口県",
    "city": "周南市",
    "town": "中村"
  },
  "7450643": {
    "zipcode": "7450643",
    "prefectureCode": "35",
    "prefectureNumber": 35,
    "prefecture": "山口県",
    "city": "周南市",
    "town": "新清光台"
  },
  "7450651": {
    "zipcode": "7450651",
    "prefectureCode": "35",
    "prefectureNumber": 35,
    "prefecture": "山口県",
    "city": "周南市",
    "town": "大河内"
  },
  "7450652": {
    "zipcode": "7450652",
    "prefectureCode": "35",
    "prefectureNumber": 35,
    "prefecture": "山口県",
    "city": "周南市",
    "town": "幸ケ丘"
  },
  "7450653": {
    "zipcode": "7450653",
    "prefectureCode": "35",
    "prefectureNumber": 35,
    "prefecture": "山口県",
    "city": "周南市",
    "town": "清光台町"
  },
  "7450654": {
    "zipcode": "7450654",
    "prefectureCode": "35",
    "prefectureNumber": 35,
    "prefecture": "山口県",
    "city": "周南市",
    "town": "自由ケ丘"
  },
  "7450661": {
    "zipcode": "7450661",
    "prefectureCode": "35",
    "prefectureNumber": 35,
    "prefecture": "山口県",
    "city": "周南市",
    "town": "呼坂本町"
  },
  "7450662": {
    "zipcode": "7450662",
    "prefectureCode": "35",
    "prefectureNumber": 35,
    "prefecture": "山口県",
    "city": "周南市",
    "town": "高水原"
  },
  "7450663": {
    "zipcode": "7450663",
    "prefectureCode": "35",
    "prefectureNumber": 35,
    "prefecture": "山口県",
    "city": "周南市",
    "town": "熊毛中央町"
  },
  "7450801": {
    "zipcode": "7450801",
    "prefectureCode": "35",
    "prefectureNumber": 35,
    "prefecture": "山口県",
    "city": "周南市",
    "town": "久米"
  },
  "7450802": {
    "zipcode": "7450802",
    "prefectureCode": "35",
    "prefectureNumber": 35,
    "prefecture": "山口県",
    "city": "周南市",
    "town": "栗屋"
  },
  "7450803": {
    "zipcode": "7450803",
    "prefectureCode": "35",
    "prefectureNumber": 35,
    "prefecture": "山口県",
    "city": "周南市",
    "town": "大島"
  },
  "7450804": {
    "zipcode": "7450804",
    "prefectureCode": "35",
    "prefectureNumber": 35,
    "prefecture": "山口県",
    "city": "周南市",
    "town": "粭島"
  },
  "7450805": {
    "zipcode": "7450805",
    "prefectureCode": "35",
    "prefectureNumber": 35,
    "prefecture": "山口県",
    "city": "周南市",
    "town": "櫛ヶ浜"
  },
  "7450806": {
    "zipcode": "7450806",
    "prefectureCode": "35",
    "prefectureNumber": 35,
    "prefecture": "山口県",
    "city": "周南市",
    "town": "桜木"
  },
  "7450807": {
    "zipcode": "7450807",
    "prefectureCode": "35",
    "prefectureNumber": 35,
    "prefecture": "山口県",
    "city": "周南市",
    "town": "城ケ丘"
  },
  "7450808": {
    "zipcode": "7450808",
    "prefectureCode": "35",
    "prefectureNumber": 35,
    "prefecture": "山口県",
    "city": "周南市",
    "town": "平原町"
  },
  "7450809": {
    "zipcode": "7450809",
    "prefectureCode": "35",
    "prefectureNumber": 35,
    "prefecture": "山口県",
    "city": "周南市",
    "town": "久米中央"
  },
  "7450811": {
    "zipcode": "7450811",
    "prefectureCode": "35",
    "prefectureNumber": 35,
    "prefecture": "山口県",
    "city": "周南市",
    "town": "五月町"
  },
  "7450812": {
    "zipcode": "7450812",
    "prefectureCode": "35",
    "prefectureNumber": 35,
    "prefecture": "山口県",
    "city": "周南市",
    "town": "横浜町"
  },
  "7450813": {
    "zipcode": "7450813",
    "prefectureCode": "35",
    "prefectureNumber": 35,
    "prefecture": "山口県",
    "city": "周南市",
    "town": "由加町"
  },
  "7450814": {
    "zipcode": "7450814",
    "prefectureCode": "35",
    "prefectureNumber": 35,
    "prefecture": "山口県",
    "city": "周南市",
    "town": "鼓海"
  },
  "7450815": {
    "zipcode": "7450815",
    "prefectureCode": "35",
    "prefectureNumber": 35,
    "prefecture": "山口県",
    "city": "周南市",
    "town": "宮前町"
  },
  "7450816": {
    "zipcode": "7450816",
    "prefectureCode": "35",
    "prefectureNumber": 35,
    "prefecture": "山口県",
    "city": "周南市",
    "town": "遠石"
  },
  "7450817": {
    "zipcode": "7450817",
    "prefectureCode": "35",
    "prefectureNumber": 35,
    "prefecture": "山口県",
    "city": "周南市",
    "town": "上遠石町"
  },
  "7450821": {
    "zipcode": "7450821",
    "prefectureCode": "35",
    "prefectureNumber": 35,
    "prefecture": "山口県",
    "city": "周南市",
    "town": "曙町"
  },
  "7450822": {
    "zipcode": "7450822",
    "prefectureCode": "35",
    "prefectureNumber": 35,
    "prefecture": "山口県",
    "city": "周南市",
    "town": "孝田町"
  },
  "7450823": {
    "zipcode": "7450823",
    "prefectureCode": "35",
    "prefectureNumber": 35,
    "prefecture": "山口県",
    "city": "周南市",
    "town": "周陽"
  },
  "7450824": {
    "zipcode": "7450824",
    "prefectureCode": "35",
    "prefectureNumber": 35,
    "prefecture": "山口県",
    "city": "周南市",
    "town": "大内町"
  },
  "7450825": {
    "zipcode": "7450825",
    "prefectureCode": "35",
    "prefectureNumber": 35,
    "prefecture": "山口県",
    "city": "周南市",
    "town": "秋月"
  },
  "7450826": {
    "zipcode": "7450826",
    "prefectureCode": "35",
    "prefectureNumber": 35,
    "prefecture": "山口県",
    "city": "周南市",
    "town": "江の宮町"
  },
  "7450827": {
    "zipcode": "7450827",
    "prefectureCode": "35",
    "prefectureNumber": 35,
    "prefecture": "山口県",
    "city": "周南市",
    "town": "瀬戸見町"
  },
  "7450831": {
    "zipcode": "7450831",
    "prefectureCode": "35",
    "prefectureNumber": 35,
    "prefecture": "山口県",
    "city": "周南市",
    "town": "楠木"
  },
  "7450832": {
    "zipcode": "7450832",
    "prefectureCode": "35",
    "prefectureNumber": 35,
    "prefecture": "山口県",
    "city": "周南市",
    "town": "扇町"
  },
  "7450833": {
    "zipcode": "7450833",
    "prefectureCode": "35",
    "prefectureNumber": 35,
    "prefecture": "山口県",
    "city": "周南市",
    "town": "泉原町"
  },
  "7450834": {
    "zipcode": "7450834",
    "prefectureCode": "35",
    "prefectureNumber": 35,
    "prefecture": "山口県",
    "city": "周南市",
    "town": "清水町"
  },
  "7450835": {
    "zipcode": "7450835",
    "prefectureCode": "35",
    "prefectureNumber": 35,
    "prefecture": "山口県",
    "city": "周南市",
    "town": "舞車町"
  },
  "7450836": {
    "zipcode": "7450836",
    "prefectureCode": "35",
    "prefectureNumber": 35,
    "prefecture": "山口県",
    "city": "周南市",
    "town": "慶万町"
  },
  "7450837": {
    "zipcode": "7450837",
    "prefectureCode": "35",
    "prefectureNumber": 35,
    "prefecture": "山口県",
    "city": "周南市",
    "town": "譲羽"
  },
  "7450841": {
    "zipcode": "7450841",
    "prefectureCode": "35",
    "prefectureNumber": 35,
    "prefecture": "山口県",
    "city": "周南市",
    "town": "若草町"
  },
  "7450842": {
    "zipcode": "7450842",
    "prefectureCode": "35",
    "prefectureNumber": 35,
    "prefecture": "山口県",
    "city": "周南市",
    "town": "青山町"
  },
  "7450843": {
    "zipcode": "7450843",
    "prefectureCode": "35",
    "prefectureNumber": 35,
    "prefecture": "山口県",
    "city": "周南市",
    "town": "新宮町"
  },
  "7450844": {
    "zipcode": "7450844",
    "prefectureCode": "35",
    "prefectureNumber": 35,
    "prefecture": "山口県",
    "city": "周南市",
    "town": "速玉町"
  },
  "7450845": {
    "zipcode": "7450845",
    "prefectureCode": "35",
    "prefectureNumber": 35,
    "prefecture": "山口県",
    "city": "周南市",
    "town": "河東町"
  },
  "7450846": {
    "zipcode": "7450846",
    "prefectureCode": "35",
    "prefectureNumber": 35,
    "prefecture": "山口県",
    "city": "周南市",
    "town": "東山町"
  },
  "7450847": {
    "zipcode": "7450847",
    "prefectureCode": "35",
    "prefectureNumber": 35,
    "prefecture": "山口県",
    "city": "周南市",
    "town": "松保町"
  },
  "7450851": {
    "zipcode": "7450851",
    "prefectureCode": "35",
    "prefectureNumber": 35,
    "prefecture": "山口県",
    "city": "周南市",
    "town": "徳山（その他）"
  },
  "7450852": {
    "zipcode": "7450852",
    "prefectureCode": "35",
    "prefectureNumber": 35,
    "prefecture": "山口県",
    "city": "周南市",
    "town": "川曲"
  },
  "7450853": {
    "zipcode": "7450853",
    "prefectureCode": "35",
    "prefectureNumber": 35,
    "prefecture": "山口県",
    "city": "周南市",
    "town": "上村"
  },
  "7450854": {
    "zipcode": "7450854",
    "prefectureCode": "35",
    "prefectureNumber": 35,
    "prefecture": "山口県",
    "city": "周南市",
    "town": "中野"
  },
  "7450855": {
    "zipcode": "7450855",
    "prefectureCode": "35",
    "prefectureNumber": 35,
    "prefecture": "山口県",
    "city": "周南市",
    "town": "川上"
  },
  "7450856": {
    "zipcode": "7450856",
    "prefectureCode": "35",
    "prefectureNumber": 35,
    "prefecture": "山口県",
    "city": "周南市",
    "town": "浦山"
  },
  "7450857": {
    "zipcode": "7450857",
    "prefectureCode": "35",
    "prefectureNumber": 35,
    "prefecture": "山口県",
    "city": "周南市",
    "town": "浦山開作"
  },
  "7450858": {
    "zipcode": "7450858",
    "prefectureCode": "35",
    "prefectureNumber": 35,
    "prefecture": "山口県",
    "city": "周南市",
    "town": "花陽"
  },
  "7450861": {
    "zipcode": "7450861",
    "prefectureCode": "35",
    "prefectureNumber": 35,
    "prefecture": "山口県",
    "city": "周南市",
    "town": "新地"
  },
  "7450862": {
    "zipcode": "7450862",
    "prefectureCode": "35",
    "prefectureNumber": 35,
    "prefecture": "山口県",
    "city": "周南市",
    "town": "江口"
  },
  "7450863": {
    "zipcode": "7450863",
    "prefectureCode": "35",
    "prefectureNumber": 35,
    "prefecture": "山口県",
    "city": "周南市",
    "town": "御山町"
  },
  "7450864": {
    "zipcode": "7450864",
    "prefectureCode": "35",
    "prefectureNumber": 35,
    "prefecture": "山口県",
    "city": "周南市",
    "town": "北山"
  },
  "7450865": {
    "zipcode": "7450865",
    "prefectureCode": "35",
    "prefectureNumber": 35,
    "prefecture": "山口県",
    "city": "周南市",
    "town": "蓮ヶ浴"
  },
  "7450866": {
    "zipcode": "7450866",
    "prefectureCode": "35",
    "prefectureNumber": 35,
    "prefecture": "山口県",
    "city": "周南市",
    "town": "土越"
  },
  "7450867": {
    "zipcode": "7450867",
    "prefectureCode": "35",
    "prefectureNumber": 35,
    "prefecture": "山口県",
    "city": "周南市",
    "town": "新堀"
  },
  "7450868": {
    "zipcode": "7450868",
    "prefectureCode": "35",
    "prefectureNumber": 35,
    "prefecture": "山口県",
    "city": "周南市",
    "town": "南浦山町"
  },
  "7450869": {
    "zipcode": "7450869",
    "prefectureCode": "35",
    "prefectureNumber": 35,
    "prefecture": "山口県",
    "city": "周南市",
    "town": "東北山"
  },
  "7450871": {
    "zipcode": "7450871",
    "prefectureCode": "35",
    "prefectureNumber": 35,
    "prefecture": "山口県",
    "city": "周南市",
    "town": "御弓町"
  },
  "7450872": {
    "zipcode": "7450872",
    "prefectureCode": "35",
    "prefectureNumber": 35,
    "prefecture": "山口県",
    "city": "周南市",
    "town": "一番丁"
  },
  "7450873": {
    "zipcode": "7450873",
    "prefectureCode": "35",
    "prefectureNumber": 35,
    "prefecture": "山口県",
    "city": "周南市",
    "town": "三田川"
  },
  "7450874": {
    "zipcode": "7450874",
    "prefectureCode": "35",
    "prefectureNumber": 35,
    "prefecture": "山口県",
    "city": "周南市",
    "town": "公園区"
  },
  "7450875": {
    "zipcode": "7450875",
    "prefectureCode": "35",
    "prefectureNumber": 35,
    "prefecture": "山口県",
    "city": "周南市",
    "town": "西金剛山"
  },
  "7450876": {
    "zipcode": "7450876",
    "prefectureCode": "35",
    "prefectureNumber": 35,
    "prefecture": "山口県",
    "city": "周南市",
    "town": "中金剛山"
  },
  "7450877": {
    "zipcode": "7450877",
    "prefectureCode": "35",
    "prefectureNumber": 35,
    "prefecture": "山口県",
    "city": "周南市",
    "town": "東金剛山"
  },
  "7450878": {
    "zipcode": "7450878",
    "prefectureCode": "35",
    "prefectureNumber": 35,
    "prefecture": "山口県",
    "city": "周南市",
    "town": "幸の台"
  },
  "7450881": {
    "zipcode": "7450881",
    "prefectureCode": "35",
    "prefectureNumber": 35,
    "prefecture": "山口県",
    "city": "周南市",
    "town": "東辻"
  },
  "7450882": {
    "zipcode": "7450882",
    "prefectureCode": "35",
    "prefectureNumber": 35,
    "prefecture": "山口県",
    "city": "周南市",
    "town": "一ノ井手"
  },
  "7450883": {
    "zipcode": "7450883",
    "prefectureCode": "35",
    "prefectureNumber": 35,
    "prefecture": "山口県",
    "city": "周南市",
    "town": "栄谷"
  },
  "7450884": {
    "zipcode": "7450884",
    "prefectureCode": "35",
    "prefectureNumber": 35,
    "prefecture": "山口県",
    "city": "周南市",
    "town": "二ノ井手"
  },
  "7450885": {
    "zipcode": "7450885",
    "prefectureCode": "35",
    "prefectureNumber": 35,
    "prefecture": "山口県",
    "city": "周南市",
    "town": "高尾団地"
  },
  "7450886": {
    "zipcode": "7450886",
    "prefectureCode": "35",
    "prefectureNumber": 35,
    "prefecture": "山口県",
    "city": "周南市",
    "town": "黒岩町"
  },
  "7450887": {
    "zipcode": "7450887",
    "prefectureCode": "35",
    "prefectureNumber": 35,
    "prefecture": "山口県",
    "city": "周南市",
    "town": "馬屋"
  },
  "7451131": {
    "zipcode": "7451131",
    "prefectureCode": "35",
    "prefectureNumber": 35,
    "prefecture": "山口県",
    "city": "周南市",
    "town": "戸田"
  },
  "7451132": {
    "zipcode": "7451132",
    "prefectureCode": "35",
    "prefectureNumber": 35,
    "prefecture": "山口県",
    "city": "周南市",
    "town": "湯野"
  }
}
