{
  "7460001": {
    "zipcode": "7460001",
    "prefectureCode": "35",
    "prefectureNumber": 35,
    "prefecture": "山口県",
    "city": "周南市",
    "town": "川崎"
  },
  "7460002": {
    "zipcode": "7460002",
    "prefectureCode": "35",
    "prefectureNumber": 35,
    "prefecture": "山口県",
    "city": "周南市",
    "town": "西千代田町"
  },
  "7460003": {
    "zipcode": "7460003",
    "prefectureCode": "35",
    "prefectureNumber": 35,
    "prefecture": "山口県",
    "city": "周南市",
    "town": "道源町"
  },
  "7460004": {
    "zipcode": "7460004",
    "prefectureCode": "35",
    "prefectureNumber": 35,
    "prefecture": "山口県",
    "city": "周南市",
    "town": "三笹町"
  },
  "7460005": {
    "zipcode": "7460005",
    "prefectureCode": "35",
    "prefectureNumber": 35,
    "prefecture": "山口県",
    "city": "周南市",
    "town": "渚町"
  },
  "7460006": {
    "zipcode": "7460006",
    "prefectureCode": "35",
    "prefectureNumber": 35,
    "prefecture": "山口県",
    "city": "周南市",
    "town": "開成町"
  },
  "7460007": {
    "zipcode": "7460007",
    "prefectureCode": "35",
    "prefectureNumber": 35,
    "prefecture": "山口県",
    "city": "周南市",
    "town": "竹島町"
  },
  "7460008": {
    "zipcode": "7460008",
    "prefectureCode": "35",
    "prefectureNumber": 35,
    "prefecture": "山口県",
    "city": "周南市",
    "town": "椎木町"
  },
  "7460009": {
    "zipcode": "7460009",
    "prefectureCode": "35",
    "prefectureNumber": 35,
    "prefecture": "山口県",
    "city": "周南市",
    "town": "川手"
  },
  "7460011": {
    "zipcode": "7460011",
    "prefectureCode": "35",
    "prefectureNumber": 35,
    "prefecture": "山口県",
    "city": "周南市",
    "town": "土井"
  },
  "7460012": {
    "zipcode": "7460012",
    "prefectureCode": "35",
    "prefectureNumber": 35,
    "prefecture": "山口県",
    "city": "周南市",
    "town": "政所"
  },
  "7460013": {
    "zipcode": "7460013",
    "prefectureCode": "35",
    "prefectureNumber": 35,
    "prefecture": "山口県",
    "city": "周南市",
    "town": "桶川町"
  },
  "7460014": {
    "zipcode": "7460014",
    "prefectureCode": "35",
    "prefectureNumber": 35,
    "prefecture": "山口県",
    "city": "周南市",
    "town": "古川町"
  },
  "7460015": {
    "zipcode": "7460015",
    "prefectureCode": "35",
    "prefectureNumber": 35,
    "prefecture": "山口県",
    "city": "周南市",
    "town": "清水"
  },
  "7460016": {
    "zipcode": "7460016",
    "prefectureCode": "35",
    "prefectureNumber": 35,
    "prefecture": "山口県",
    "city": "周南市",
    "town": "中央町"
  },
  "7460017": {
    "zipcode": "7460017",
    "prefectureCode": "35",
    "prefectureNumber": 35,
    "prefecture": "山口県",
    "city": "周南市",
    "town": "宮の前"
  },
  "7460018": {
    "zipcode": "7460018",
    "prefectureCode": "35",
    "prefectureNumber": 35,
    "prefecture": "山口県",
    "city": "周南市",
    "town": "大神"
  },
  "7460019": {
    "zipcode": "7460019",
    "prefectureCode": "35",
    "prefectureNumber": 35,
    "prefecture": "山口県",
    "city": "周南市",
    "town": "臨海町"
  },
  "7460021": {
    "zipcode": "7460021",
    "prefectureCode": "35",
    "prefectureNumber": 35,
    "prefecture": "山口県",
    "city": "周南市",
    "town": "花園町"
  },
  "7460022": {
    "zipcode": "7460022",
    "prefectureCode": "35",
    "prefectureNumber": 35,
    "prefecture": "山口県",
    "city": "周南市",
    "town": "野村"
  },
  "7460023": {
    "zipcode": "7460023",
    "prefectureCode": "35",
    "prefectureNumber": 35,
    "prefecture": "山口県",
    "city": "周南市",
    "town": "野村南町"
  },
  "7460024": {
    "zipcode": "7460024",
    "prefectureCode": "35",
    "prefectureNumber": 35,
    "prefecture": "山口県",
    "city": "周南市",
    "town": "古泉"
  },
  "7460025": {
    "zipcode": "7460025",
    "prefectureCode": "35",
    "prefectureNumber": 35,
    "prefecture": "山口県",
    "city": "周南市",
    "town": "古市"
  },
  "7460026": {
    "zipcode": "7460026",
    "prefectureCode": "35",
    "prefectureNumber": 35,
    "prefecture": "山口県",
    "city": "周南市",
    "town": "浜田"
  },
  "7460027": {
    "zipcode": "7460027",
    "prefectureCode": "35",
    "prefectureNumber": 35,
    "prefecture": "山口県",
    "city": "周南市",
    "town": "小川屋町"
  },
  "7460028": {
    "zipcode": "7460028",
    "prefectureCode": "35",
    "prefectureNumber": 35,
    "prefecture": "山口県",
    "city": "周南市",
    "town": "港町"
  },
  "7460029": {
    "zipcode": "7460029",
    "prefectureCode": "35",
    "prefectureNumber": 35,
    "prefecture": "山口県",
    "city": "周南市",
    "town": "平野"
  },
  "7460031": {
    "zipcode": "7460031",
    "prefectureCode": "35",
    "prefectureNumber": 35,
    "prefecture": "山口県",
    "city": "周南市",
    "town": "坂根町"
  },
  "7460032": {
    "zipcode": "7460032",
    "prefectureCode": "35",
    "prefectureNumber": 35,
    "prefecture": "山口県",
    "city": "周南市",
    "town": "河内町"
  },
  "7460033": {
    "zipcode": "7460033",
    "prefectureCode": "35",
    "prefectureNumber": 35,
    "prefecture": "山口県",
    "city": "周南市",
    "town": "新堤町"
  },
  "7460034": {
    "zipcode": "7460034",
    "prefectureCode": "35",
    "prefectureNumber": 35,
    "prefecture": "山口県",
    "city": "周南市",
    "town": "富田"
  },
  "7460035": {
    "zipcode": "7460035",
    "prefectureCode": "35",
    "prefectureNumber": 35,
    "prefecture": "山口県",
    "city": "周南市",
    "town": "日地町"
  },
  "7460036": {
    "zipcode": "7460036",
    "prefectureCode": "35",
    "prefectureNumber": 35,
    "prefecture": "山口県",
    "city": "周南市",
    "town": "温田"
  },
  "7460037": {
    "zipcode": "7460037",
    "prefectureCode": "35",
    "prefectureNumber": 35,
    "prefecture": "山口県",
    "city": "周南市",
    "town": "丸山町"
  },
  "7460038": {
    "zipcode": "7460038",
    "prefectureCode": "35",
    "prefectureNumber": 35,
    "prefecture": "山口県",
    "city": "周南市",
    "town": "福川"
  },
  "7460039": {
    "zipcode": "7460039",
    "prefectureCode": "35",
    "prefectureNumber": 35,
    "prefecture": "山口県",
    "city": "周南市",
    "town": "富田新町"
  },
  "7460041": {
    "zipcode": "7460041",
    "prefectureCode": "35",
    "prefectureNumber": 35,
    "prefecture": "山口県",
    "city": "周南市",
    "town": "社地町"
  },
  "7460042": {
    "zipcode": "7460042",
    "prefectureCode": "35",
    "prefectureNumber": 35,
    "prefecture": "山口県",
    "city": "周南市",
    "town": "福川南町"
  },
  "7460043": {
    "zipcode": "7460043",
    "prefectureCode": "35",
    "prefectureNumber": 35,
    "prefecture": "山口県",
    "city": "周南市",
    "town": "新田"
  },
  "7460044": {
    "zipcode": "7460044",
    "prefectureCode": "35",
    "prefectureNumber": 35,
    "prefecture": "山口県",
    "city": "周南市",
    "town": "西桝町"
  },
  "7460045": {
    "zipcode": "7460045",
    "prefectureCode": "35",
    "prefectureNumber": 35,
    "prefecture": "山口県",
    "city": "周南市",
    "town": "新地町"
  },
  "7460051": {
    "zipcode": "7460051",
    "prefectureCode": "35",
    "prefectureNumber": 35,
    "prefecture": "山口県",
    "city": "周南市",
    "town": "御姫町"
  },
  "7460052": {
    "zipcode": "7460052",
    "prefectureCode": "35",
    "prefectureNumber": 35,
    "prefecture": "山口県",
    "city": "周南市",
    "town": "中畷町"
  },
  "7460053": {
    "zipcode": "7460053",
    "prefectureCode": "35",
    "prefectureNumber": 35,
    "prefecture": "山口県",
    "city": "周南市",
    "town": "室尾"
  },
  "7460054": {
    "zipcode": "7460054",
    "prefectureCode": "35",
    "prefectureNumber": 35,
    "prefecture": "山口県",
    "city": "周南市",
    "town": "長田町"
  },
  "7460055": {
    "zipcode": "7460055",
    "prefectureCode": "35",
    "prefectureNumber": 35,
    "prefecture": "山口県",
    "city": "周南市",
    "town": "かせ河原町"
  },
  "7460056": {
    "zipcode": "7460056",
    "prefectureCode": "35",
    "prefectureNumber": 35,
    "prefecture": "山口県",
    "city": "周南市",
    "town": "羽島"
  },
  "7460061": {
    "zipcode": "7460061",
    "prefectureCode": "35",
    "prefectureNumber": 35,
    "prefecture": "山口県",
    "city": "周南市",
    "town": "皿山町"
  },
  "7460062": {
    "zipcode": "7460062",
    "prefectureCode": "35",
    "prefectureNumber": 35,
    "prefecture": "山口県",
    "city": "周南市",
    "town": "福川中市町"
  },
  "7460063": {
    "zipcode": "7460063",
    "prefectureCode": "35",
    "prefectureNumber": 35,
    "prefecture": "山口県",
    "city": "周南市",
    "town": "本陣町"
  },
  "7460064": {
    "zipcode": "7460064",
    "prefectureCode": "35",
    "prefectureNumber": 35,
    "prefecture": "山口県",
    "city": "周南市",
    "town": "若山"
  },
  "7460065": {
    "zipcode": "7460065",
    "prefectureCode": "35",
    "prefectureNumber": 35,
    "prefecture": "山口県",
    "city": "周南市",
    "town": "上迫町"
  },
  "7460081": {
    "zipcode": "7460081",
    "prefectureCode": "35",
    "prefectureNumber": 35,
    "prefecture": "山口県",
    "city": "周南市",
    "town": "四熊"
  },
  "7460082": {
    "zipcode": "7460082",
    "prefectureCode": "35",
    "prefectureNumber": 35,
    "prefecture": "山口県",
    "city": "周南市",
    "town": "下上"
  },
  "7460083": {
    "zipcode": "7460083",
    "prefectureCode": "35",
    "prefectureNumber": 35,
    "prefecture": "山口県",
    "city": "周南市",
    "town": "小畑"
  },
  "7460084": {
    "zipcode": "7460084",
    "prefectureCode": "35",
    "prefectureNumber": 35,
    "prefecture": "山口県",
    "city": "周南市",
    "town": "夜市"
  },
  "7460101": {
    "zipcode": "7460101",
    "prefectureCode": "35",
    "prefectureNumber": 35,
    "prefecture": "山口県",
    "city": "周南市",
    "town": "高瀬"
  },
  "7460102": {
    "zipcode": "7460102",
    "prefectureCode": "35",
    "prefectureNumber": 35,
    "prefecture": "山口県",
    "city": "周南市",
    "town": "夏切"
  },
  "7460103": {
    "zipcode": "7460103",
    "prefectureCode": "35",
    "prefectureNumber": 35,
    "prefecture": "山口県",
    "city": "周南市",
    "town": "垰"
  },
  "7460104": {
    "zipcode": "7460104",
    "prefectureCode": "35",
    "prefectureNumber": 35,
    "prefecture": "山口県",
    "city": "周南市",
    "town": "米光"
  },
  "7460105": {
    "zipcode": "7460105",
    "prefectureCode": "35",
    "prefectureNumber": 35,
    "prefecture": "山口県",
    "city": "周南市",
    "town": "馬神"
  }
}
