{
  "7470000": {
    "zipcode": "7470000",
    "prefectureCode": "35",
    "prefectureNumber": 35,
    "prefecture": "山口県",
    "city": "防府市",
    "town": "以下に掲載がない場合"
  },
  "7470001": {
    "zipcode": "7470001",
    "prefectureCode": "35",
    "prefectureNumber": 35,
    "prefecture": "山口県",
    "city": "防府市",
    "town": "岩畠"
  },
  "7470002": {
    "zipcode": "7470002",
    "prefectureCode": "35",
    "prefectureNumber": 35,
    "prefecture": "山口県",
    "city": "防府市",
    "town": "酢貝"
  },
  "7470003": {
    "zipcode": "7470003",
    "prefectureCode": "35",
    "prefectureNumber": 35,
    "prefecture": "山口県",
    "city": "防府市",
    "town": "牟礼柳"
  },
  "7470004": {
    "zipcode": "7470004",
    "prefectureCode": "35",
    "prefectureNumber": 35,
    "prefecture": "山口県",
    "city": "防府市",
    "town": "牟礼"
  },
  "7470005": {
    "zipcode": "7470005",
    "prefectureCode": "35",
    "prefectureNumber": 35,
    "prefecture": "山口県",
    "city": "防府市",
    "town": "中西"
  },
  "7470006": {
    "zipcode": "7470006",
    "prefectureCode": "35",
    "prefectureNumber": 35,
    "prefecture": "山口県",
    "city": "防府市",
    "town": "敷山町"
  },
  "7470011": {
    "zipcode": "7470011",
    "prefectureCode": "35",
    "prefectureNumber": 35,
    "prefecture": "山口県",
    "city": "防府市",
    "town": "岸津"
  },
  "7470012": {
    "zipcode": "7470012",
    "prefectureCode": "35",
    "prefectureNumber": 35,
    "prefecture": "山口県",
    "city": "防府市",
    "town": "牟礼今宿"
  },
  "7470013": {
    "zipcode": "7470013",
    "prefectureCode": "35",
    "prefectureNumber": 35,
    "prefecture": "山口県",
    "city": "防府市",
    "town": "沖今宿"
  },
  "7470014": {
    "zipcode": "7470014",
    "prefectureCode": "35",
    "prefectureNumber": 35,
    "prefecture": "山口県",
    "city": "防府市",
    "town": "江泊"
  },
  "7470021": {
    "zipcode": "7470021",
    "prefectureCode": "35",
    "prefectureNumber": 35,
    "prefecture": "山口県",
    "city": "防府市",
    "town": "国分寺町"
  },
  "7470022": {
    "zipcode": "7470022",
    "prefectureCode": "35",
    "prefectureNumber": 35,
    "prefecture": "山口県",
    "city": "防府市",
    "town": "惣社町"
  },
  "7470023": {
    "zipcode": "7470023",
    "prefectureCode": "35",
    "prefectureNumber": 35,
    "prefecture": "山口県",
    "city": "防府市",
    "town": "多々良"
  },
  "7470024": {
    "zipcode": "7470024",
    "prefectureCode": "35",
    "prefectureNumber": 35,
    "prefecture": "山口県",
    "city": "防府市",
    "town": "国衙"
  },
  "7470025": {
    "zipcode": "7470025",
    "prefectureCode": "35",
    "prefectureNumber": 35,
    "prefecture": "山口県",
    "city": "防府市",
    "town": "美和町"
  },
  "7470026": {
    "zipcode": "7470026",
    "prefectureCode": "35",
    "prefectureNumber": 35,
    "prefecture": "山口県",
    "city": "防府市",
    "town": "緑町"
  },
  "7470027": {
    "zipcode": "7470027",
    "prefectureCode": "35",
    "prefectureNumber": 35,
    "prefecture": "山口県",
    "city": "防府市",
    "town": "南松崎町"
  },
  "7470028": {
    "zipcode": "7470028",
    "prefectureCode": "35",
    "prefectureNumber": 35,
    "prefecture": "山口県",
    "city": "防府市",
    "town": "東松崎町"
  },
  "7470029": {
    "zipcode": "7470029",
    "prefectureCode": "35",
    "prefectureNumber": 35,
    "prefecture": "山口県",
    "city": "防府市",
    "town": "松崎町"
  },
  "7470031": {
    "zipcode": "7470031",
    "prefectureCode": "35",
    "prefectureNumber": 35,
    "prefecture": "山口県",
    "city": "防府市",
    "town": "迫戸町"
  },
  "7470032": {
    "zipcode": "7470032",
    "prefectureCode": "35",
    "prefectureNumber": 35,
    "prefecture": "山口県",
    "city": "防府市",
    "town": "宮市町"
  },
  "7470033": {
    "zipcode": "7470033",
    "prefectureCode": "35",
    "prefectureNumber": 35,
    "prefecture": "山口県",
    "city": "防府市",
    "town": "上天神町"
  },
  "7470034": {
    "zipcode": "7470034",
    "prefectureCode": "35",
    "prefectureNumber": 35,
    "prefecture": "山口県",
    "city": "防府市",
    "town": "天神"
  },
  "7470035": {
    "zipcode": "7470035",
    "prefectureCode": "35",
    "prefectureNumber": 35,
    "prefecture": "山口県",
    "city": "防府市",
    "town": "栄町"
  },
  "7470036": {
    "zipcode": "7470036",
    "prefectureCode": "35",
    "prefectureNumber": 35,
    "prefecture": "山口県",
    "city": "防府市",
    "town": "戎町"
  },
  "7470037": {
    "zipcode": "7470037",
    "prefectureCode": "35",
    "prefectureNumber": 35,
    "prefecture": "山口県",
    "city": "防府市",
    "town": "八王子"
  },
  "7470041": {
    "zipcode": "7470041",
    "prefectureCode": "35",
    "prefectureNumber": 35,
    "prefecture": "山口県",
    "city": "防府市",
    "town": "本橋町"
  },
  "7470042": {
    "zipcode": "7470042",
    "prefectureCode": "35",
    "prefectureNumber": 35,
    "prefecture": "山口県",
    "city": "防府市",
    "town": "今市町"
  },
  "7470043": {
    "zipcode": "7470043",
    "prefectureCode": "35",
    "prefectureNumber": 35,
    "prefecture": "山口県",
    "city": "防府市",
    "town": "平和町"
  },
  "7470044": {
    "zipcode": "7470044",
    "prefectureCode": "35",
    "prefectureNumber": 35,
    "prefecture": "山口県",
    "city": "防府市",
    "town": "佐波"
  },
  "7470045": {
    "zipcode": "7470045",
    "prefectureCode": "35",
    "prefectureNumber": 35,
    "prefecture": "山口県",
    "city": "防府市",
    "town": "高倉"
  },
  "7470046": {
    "zipcode": "7470046",
    "prefectureCode": "35",
    "prefectureNumber": 35,
    "prefecture": "山口県",
    "city": "防府市",
    "town": "千日"
  },
  "7470047": {
    "zipcode": "7470047",
    "prefectureCode": "35",
    "prefectureNumber": 35,
    "prefecture": "山口県",
    "city": "防府市",
    "town": "新橋町"
  },
  "7470051": {
    "zipcode": "7470051",
    "prefectureCode": "35",
    "prefectureNumber": 35,
    "prefecture": "山口県",
    "city": "防府市",
    "town": "泉町"
  },
  "7470052": {
    "zipcode": "7470052",
    "prefectureCode": "35",
    "prefectureNumber": 35,
    "prefecture": "山口県",
    "city": "防府市",
    "town": "開出"
  },
  "7470053": {
    "zipcode": "7470053",
    "prefectureCode": "35",
    "prefectureNumber": 35,
    "prefecture": "山口県",
    "city": "防府市",
    "town": "開出本町"
  },
  "7470054": {
    "zipcode": "7470054",
    "prefectureCode": "35",
    "prefectureNumber": 35,
    "prefecture": "山口県",
    "city": "防府市",
    "town": "開出西町"
  },
  "7470055": {
    "zipcode": "7470055",
    "prefectureCode": "35",
    "prefectureNumber": 35,
    "prefecture": "山口県",
    "city": "防府市",
    "town": "中泉町"
  },
  "7470056": {
    "zipcode": "7470056",
    "prefectureCode": "35",
    "prefectureNumber": 35,
    "prefecture": "山口県",
    "city": "防府市",
    "town": "古祖原"
  },
  "7470061": {
    "zipcode": "7470061",
    "prefectureCode": "35",
    "prefectureNumber": 35,
    "prefecture": "山口県",
    "city": "防府市",
    "town": "東佐波令"
  },
  "7470062": {
    "zipcode": "7470062",
    "prefectureCode": "35",
    "prefectureNumber": 35,
    "prefecture": "山口県",
    "city": "防府市",
    "town": "上右田"
  },
  "7470063": {
    "zipcode": "7470063",
    "prefectureCode": "35",
    "prefectureNumber": 35,
    "prefecture": "山口県",
    "city": "防府市",
    "town": "下右田"
  },
  "7470064": {
    "zipcode": "7470064",
    "prefectureCode": "35",
    "prefectureNumber": 35,
    "prefecture": "山口県",
    "city": "防府市",
    "town": "高井"
  },
  "7470065": {
    "zipcode": "7470065",
    "prefectureCode": "35",
    "prefectureNumber": 35,
    "prefecture": "山口県",
    "city": "防府市",
    "town": "大崎"
  },
  "7470066": {
    "zipcode": "7470066",
    "prefectureCode": "35",
    "prefectureNumber": 35,
    "prefecture": "山口県",
    "city": "防府市",
    "town": "自由ケ丘"
  },
  "7470067": {
    "zipcode": "7470067",
    "prefectureCode": "35",
    "prefectureNumber": 35,
    "prefecture": "山口県",
    "city": "防府市",
    "town": "佐野"
  },
  "7470101": {
    "zipcode": "7470101",
    "prefectureCode": "35",
    "prefectureNumber": 35,
    "prefecture": "山口県",
    "city": "防府市",
    "town": "奥畑"
  },
  "7470102": {
    "zipcode": "7470102",
    "prefectureCode": "35",
    "prefectureNumber": 35,
    "prefecture": "山口県",
    "city": "防府市",
    "town": "久兼"
  },
  "7470103": {
    "zipcode": "7470103",
    "prefectureCode": "35",
    "prefectureNumber": 35,
    "prefecture": "山口県",
    "city": "防府市",
    "town": "和字"
  },
  "7470104": {
    "zipcode": "7470104",
    "prefectureCode": "35",
    "prefectureNumber": 35,
    "prefecture": "山口県",
    "city": "防府市",
    "town": "真尾"
  },
  "7470105": {
    "zipcode": "7470105",
    "prefectureCode": "35",
    "prefectureNumber": 35,
    "prefecture": "山口県",
    "city": "防府市",
    "town": "鈴屋"
  },
  "7470106": {
    "zipcode": "7470106",
    "prefectureCode": "35",
    "prefectureNumber": 35,
    "prefecture": "山口県",
    "city": "防府市",
    "town": "奈美"
  },
  "7470107": {
    "zipcode": "7470107",
    "prefectureCode": "35",
    "prefectureNumber": 35,
    "prefecture": "山口県",
    "city": "防府市",
    "town": "中山"
  },
  "7470231": {
    "zipcode": "7470231",
    "prefectureCode": "35",
    "prefectureNumber": 35,
    "prefecture": "山口県",
    "city": "山口市",
    "town": "徳地堀"
  },
  "7470232": {
    "zipcode": "7470232",
    "prefectureCode": "35",
    "prefectureNumber": 35,
    "prefecture": "山口県",
    "city": "山口市",
    "town": "徳地伊賀地"
  },
  "7470233": {
    "zipcode": "7470233",
    "prefectureCode": "35",
    "prefectureNumber": 35,
    "prefecture": "山口県",
    "city": "山口市",
    "town": "徳地岸見"
  },
  "7470234": {
    "zipcode": "7470234",
    "prefectureCode": "35",
    "prefectureNumber": 35,
    "prefecture": "山口県",
    "city": "山口市",
    "town": "徳地小古祖"
  },
  "7470235": {
    "zipcode": "7470235",
    "prefectureCode": "35",
    "prefectureNumber": 35,
    "prefecture": "山口県",
    "city": "山口市",
    "town": "徳地深谷"
  },
  "7470341": {
    "zipcode": "7470341",
    "prefectureCode": "35",
    "prefectureNumber": 35,
    "prefecture": "山口県",
    "city": "山口市",
    "town": "徳地引谷"
  },
  "7470342": {
    "zipcode": "7470342",
    "prefectureCode": "35",
    "prefectureNumber": 35,
    "prefecture": "山口県",
    "city": "山口市",
    "town": "徳地船路"
  },
  "7470343": {
    "zipcode": "7470343",
    "prefectureCode": "35",
    "prefectureNumber": 35,
    "prefecture": "山口県",
    "city": "山口市",
    "town": "徳地三谷"
  },
  "7470344": {
    "zipcode": "7470344",
    "prefectureCode": "35",
    "prefectureNumber": 35,
    "prefecture": "山口県",
    "city": "山口市",
    "town": "徳地八坂"
  },
  "7470401": {
    "zipcode": "7470401",
    "prefectureCode": "35",
    "prefectureNumber": 35,
    "prefecture": "山口県",
    "city": "山口市",
    "town": "徳地野谷"
  },
  "7470402": {
    "zipcode": "7470402",
    "prefectureCode": "35",
    "prefectureNumber": 35,
    "prefecture": "山口県",
    "city": "山口市",
    "town": "徳地柚木"
  },
  "7470521": {
    "zipcode": "7470521",
    "prefectureCode": "35",
    "prefectureNumber": 35,
    "prefecture": "山口県",
    "city": "山口市",
    "town": "徳地山畑"
  },
  "7470522": {
    "zipcode": "7470522",
    "prefectureCode": "35",
    "prefectureNumber": 35,
    "prefecture": "山口県",
    "city": "山口市",
    "town": "徳地島地"
  },
  "7470523": {
    "zipcode": "7470523",
    "prefectureCode": "35",
    "prefectureNumber": 35,
    "prefecture": "山口県",
    "city": "山口市",
    "town": "徳地上村"
  },
  "7470524": {
    "zipcode": "7470524",
    "prefectureCode": "35",
    "prefectureNumber": 35,
    "prefecture": "山口県",
    "city": "山口市",
    "town": "徳地藤木"
  },
  "7470611": {
    "zipcode": "7470611",
    "prefectureCode": "35",
    "prefectureNumber": 35,
    "prefecture": "山口県",
    "city": "山口市",
    "town": "徳地鯖河内"
  },
  "7470612": {
    "zipcode": "7470612",
    "prefectureCode": "35",
    "prefectureNumber": 35,
    "prefecture": "山口県",
    "city": "山口市",
    "town": "徳地串"
  },
  "7470621": {
    "zipcode": "7470621",
    "prefectureCode": "35",
    "prefectureNumber": 35,
    "prefecture": "山口県",
    "city": "周南市",
    "town": "巣山"
  },
  "7470801": {
    "zipcode": "7470801",
    "prefectureCode": "35",
    "prefectureNumber": 35,
    "prefecture": "山口県",
    "city": "防府市",
    "town": "駅南町"
  },
  "7470802": {
    "zipcode": "7470802",
    "prefectureCode": "35",
    "prefectureNumber": 35,
    "prefecture": "山口県",
    "city": "防府市",
    "town": "中央町"
  },
  "7470803": {
    "zipcode": "7470803",
    "prefectureCode": "35",
    "prefectureNumber": 35,
    "prefecture": "山口県",
    "city": "防府市",
    "town": "岡村町"
  },
  "7470804": {
    "zipcode": "7470804",
    "prefectureCode": "35",
    "prefectureNumber": 35,
    "prefecture": "山口県",
    "city": "防府市",
    "town": "松原町"
  },
  "7470805": {
    "zipcode": "7470805",
    "prefectureCode": "35",
    "prefectureNumber": 35,
    "prefecture": "山口県",
    "city": "防府市",
    "town": "鞠生町"
  },
  "7470806": {
    "zipcode": "7470806",
    "prefectureCode": "35",
    "prefectureNumber": 35,
    "prefecture": "山口県",
    "city": "防府市",
    "town": "石が口"
  },
  "7470807": {
    "zipcode": "7470807",
    "prefectureCode": "35",
    "prefectureNumber": 35,
    "prefecture": "山口県",
    "city": "防府市",
    "town": "桑南"
  },
  "7470808": {
    "zipcode": "7470808",
    "prefectureCode": "35",
    "prefectureNumber": 35,
    "prefecture": "山口県",
    "city": "防府市",
    "town": "桑山"
  },
  "7470809": {
    "zipcode": "7470809",
    "prefectureCode": "35",
    "prefectureNumber": 35,
    "prefecture": "山口県",
    "city": "防府市",
    "town": "寿町"
  },
  "7470811": {
    "zipcode": "7470811",
    "prefectureCode": "35",
    "prefectureNumber": 35,
    "prefecture": "山口県",
    "city": "防府市",
    "town": "車塚町"
  },
  "7470812": {
    "zipcode": "7470812",
    "prefectureCode": "35",
    "prefectureNumber": 35,
    "prefecture": "山口県",
    "city": "防府市",
    "town": "鋳物師町"
  },
  "7470813": {
    "zipcode": "7470813",
    "prefectureCode": "35",
    "prefectureNumber": 35,
    "prefecture": "山口県",
    "city": "防府市",
    "town": "東三田尻"
  },
  "7470814": {
    "zipcode": "7470814",
    "prefectureCode": "35",
    "prefectureNumber": 35,
    "prefecture": "山口県",
    "city": "防府市",
    "town": "三田尻"
  },
  "7470815": {
    "zipcode": "7470815",
    "prefectureCode": "35",
    "prefectureNumber": 35,
    "prefecture": "山口県",
    "city": "防府市",
    "town": "協和町"
  },
  "7470816": {
    "zipcode": "7470816",
    "prefectureCode": "35",
    "prefectureNumber": 35,
    "prefecture": "山口県",
    "city": "防府市",
    "town": "華浦"
  },
  "7470817": {
    "zipcode": "7470817",
    "prefectureCode": "35",
    "prefectureNumber": 35,
    "prefecture": "山口県",
    "city": "防府市",
    "town": "自力町"
  },
  "7470818": {
    "zipcode": "7470818",
    "prefectureCode": "35",
    "prefectureNumber": 35,
    "prefecture": "山口県",
    "city": "防府市",
    "town": "三田尻本町"
  },
  "7470819": {
    "zipcode": "7470819",
    "prefectureCode": "35",
    "prefectureNumber": 35,
    "prefecture": "山口県",
    "city": "防府市",
    "town": "お茶屋町"
  },
  "7470821": {
    "zipcode": "7470821",
    "prefectureCode": "35",
    "prefectureNumber": 35,
    "prefecture": "山口県",
    "city": "防府市",
    "town": "警固町"
  },
  "7470822": {
    "zipcode": "7470822",
    "prefectureCode": "35",
    "prefectureNumber": 35,
    "prefecture": "山口県",
    "city": "防府市",
    "town": "勝間"
  },
  "7470823": {
    "zipcode": "7470823",
    "prefectureCode": "35",
    "prefectureNumber": 35,
    "prefecture": "山口県",
    "city": "防府市",
    "town": "鐘紡町"
  },
  "7470824": {
    "zipcode": "7470824",
    "prefectureCode": "35",
    "prefectureNumber": 35,
    "prefecture": "山口県",
    "city": "防府市",
    "town": "新築地町"
  },
  "7470825": {
    "zipcode": "7470825",
    "prefectureCode": "35",
    "prefectureNumber": 35,
    "prefecture": "山口県",
    "city": "防府市",
    "town": "新田"
  },
  "7470831": {
    "zipcode": "7470831",
    "prefectureCode": "35",
    "prefectureNumber": 35,
    "prefecture": "山口県",
    "city": "防府市",
    "town": "向島"
  },
  "7470832": {
    "zipcode": "7470832",
    "prefectureCode": "35",
    "prefectureNumber": 35,
    "prefecture": "山口県",
    "city": "防府市",
    "town": "野島"
  },
  "7470833": {
    "zipcode": "7470833",
    "prefectureCode": "35",
    "prefectureNumber": 35,
    "prefecture": "山口県",
    "city": "防府市",
    "town": "浜方"
  },
  "7470834": {
    "zipcode": "7470834",
    "prefectureCode": "35",
    "prefectureNumber": 35,
    "prefecture": "山口県",
    "city": "防府市",
    "town": "田島"
  },
  "7470835": {
    "zipcode": "7470835",
    "prefectureCode": "35",
    "prefectureNumber": 35,
    "prefecture": "山口県",
    "city": "防府市",
    "town": "西浦"
  },
  "7470836": {
    "zipcode": "7470836",
    "prefectureCode": "35",
    "prefectureNumber": 35,
    "prefecture": "山口県",
    "city": "防府市",
    "town": "植松"
  },
  "7470841": {
    "zipcode": "7470841",
    "prefectureCode": "35",
    "prefectureNumber": 35,
    "prefecture": "山口県",
    "city": "防府市",
    "town": "仁井令町"
  },
  "7470842": {
    "zipcode": "7470842",
    "prefectureCode": "35",
    "prefectureNumber": 35,
    "prefecture": "山口県",
    "city": "防府市",
    "town": "清水町"
  },
  "7470843": {
    "zipcode": "7470843",
    "prefectureCode": "35",
    "prefectureNumber": 35,
    "prefecture": "山口県",
    "city": "防府市",
    "town": "東仁井令町"
  },
  "7470844": {
    "zipcode": "7470844",
    "prefectureCode": "35",
    "prefectureNumber": 35,
    "prefecture": "山口県",
    "city": "防府市",
    "town": "華園町"
  },
  "7470845": {
    "zipcode": "7470845",
    "prefectureCode": "35",
    "prefectureNumber": 35,
    "prefecture": "山口県",
    "city": "防府市",
    "town": "仁井令"
  },
  "7470846": {
    "zipcode": "7470846",
    "prefectureCode": "35",
    "prefectureNumber": 35,
    "prefecture": "山口県",
    "city": "防府市",
    "town": "伊佐江"
  },
  "7470847": {
    "zipcode": "7470847",
    "prefectureCode": "35",
    "prefectureNumber": 35,
    "prefecture": "山口県",
    "city": "防府市",
    "town": "伊佐江町"
  },
  "7470848": {
    "zipcode": "7470848",
    "prefectureCode": "35",
    "prefectureNumber": 35,
    "prefecture": "山口県",
    "city": "防府市",
    "town": "華城中央"
  },
  "7470849": {
    "zipcode": "7470849",
    "prefectureCode": "35",
    "prefectureNumber": 35,
    "prefecture": "山口県",
    "city": "防府市",
    "town": "西仁井令"
  },
  "7471111": {
    "zipcode": "7471111",
    "prefectureCode": "35",
    "prefectureNumber": 35,
    "prefecture": "山口県",
    "city": "防府市",
    "town": "富海"
  },
  "7471221": {
    "zipcode": "7471221",
    "prefectureCode": "35",
    "prefectureNumber": 35,
    "prefecture": "山口県",
    "city": "山口市",
    "town": "鋳銭司"
  },
  "7471231": {
    "zipcode": "7471231",
    "prefectureCode": "35",
    "prefectureNumber": 35,
    "prefecture": "山口県",
    "city": "防府市",
    "town": "切畑"
  },
  "7471232": {
    "zipcode": "7471232",
    "prefectureCode": "35",
    "prefectureNumber": 35,
    "prefecture": "山口県",
    "city": "防府市",
    "town": "台道"
  }
}
