{
  "7500000": {
    "zipcode": "7500000",
    "prefectureCode": "35",
    "prefectureNumber": 35,
    "prefecture": "山口県",
    "city": "下関市",
    "town": "以下に掲載がない場合"
  },
  "7500001": {
    "zipcode": "7500001",
    "prefectureCode": "35",
    "prefectureNumber": 35,
    "prefecture": "山口県",
    "city": "下関市",
    "town": "幸町"
  },
  "7500002": {
    "zipcode": "7500002",
    "prefectureCode": "35",
    "prefectureNumber": 35,
    "prefecture": "山口県",
    "city": "下関市",
    "town": "宮田町"
  },
  "7500003": {
    "zipcode": "7500003",
    "prefectureCode": "35",
    "prefectureNumber": 35,
    "prefecture": "山口県",
    "city": "下関市",
    "town": "阿弥陀寺町"
  },
  "7500004": {
    "zipcode": "7500004",
    "prefectureCode": "35",
    "prefectureNumber": 35,
    "prefecture": "山口県",
    "city": "下関市",
    "town": "中之町"
  },
  "7500005": {
    "zipcode": "7500005",
    "prefectureCode": "35",
    "prefectureNumber": 35,
    "prefecture": "山口県",
    "city": "下関市",
    "town": "唐戸町"
  },
  "7500006": {
    "zipcode": "7500006",
    "prefectureCode": "35",
    "prefectureNumber": 35,
    "prefecture": "山口県",
    "city": "下関市",
    "town": "南部町"
  },
  "7500007": {
    "zipcode": "7500007",
    "prefectureCode": "35",
    "prefectureNumber": 35,
    "prefecture": "山口県",
    "city": "下関市",
    "town": "赤間町"
  },
  "7500008": {
    "zipcode": "7500008",
    "prefectureCode": "35",
    "prefectureNumber": 35,
    "prefecture": "山口県",
    "city": "下関市",
    "town": "田中町"
  },
  "7500009": {
    "zipcode": "7500009",
    "prefectureCode": "35",
    "prefectureNumber": 35,
    "prefecture": "山口県",
    "city": "下関市",
    "town": "上田中町"
  },
  "7500011": {
    "zipcode": "7500011",
    "prefectureCode": "35",
    "prefectureNumber": 35,
    "prefecture": "山口県",
    "city": "下関市",
    "town": "名池町"
  },
  "7500012": {
    "zipcode": "7500012",
    "prefectureCode": "35",
    "prefectureNumber": 35,
    "prefecture": "山口県",
    "city": "下関市",
    "town": "観音崎町"
  },
  "7500013": {
    "zipcode": "7500013",
    "prefectureCode": "35",
    "prefectureNumber": 35,
    "prefecture": "山口県",
    "city": "下関市",
    "town": "入江町"
  },
  "7500014": {
    "zipcode": "7500014",
    "prefectureCode": "35",
    "prefectureNumber": 35,
    "prefecture": "山口県",
    "city": "下関市",
    "town": "岬之町"
  },
  "7500015": {
    "zipcode": "7500015",
    "prefectureCode": "35",
    "prefectureNumber": 35,
    "prefecture": "山口県",
    "city": "下関市",
    "town": "西入江町"
  },
  "7500016": {
    "zipcode": "7500016",
    "prefectureCode": "35",
    "prefectureNumber": 35,
    "prefecture": "山口県",
    "city": "下関市",
    "town": "細江町"
  },
  "7500017": {
    "zipcode": "7500017",
    "prefectureCode": "35",
    "prefectureNumber": 35,
    "prefecture": "山口県",
    "city": "下関市",
    "town": "細江新町"
  },
  "7500018": {
    "zipcode": "7500018",
    "prefectureCode": "35",
    "prefectureNumber": 35,
    "prefecture": "山口県",
    "city": "下関市",
    "town": "豊前田町"
  },
  "7500019": {
    "zipcode": "7500019",
    "prefectureCode": "35",
    "prefectureNumber": 35,
    "prefecture": "山口県",
    "city": "下関市",
    "town": "丸山町"
  },
  "7500021": {
    "zipcode": "7500021",
    "prefectureCode": "35",
    "prefectureNumber": 35,
    "prefecture": "山口県",
    "city": "下関市",
    "town": "長崎中央町"
  },
  "7500022": {
    "zipcode": "7500022",
    "prefectureCode": "35",
    "prefectureNumber": 35,
    "prefecture": "山口県",
    "city": "下関市",
    "town": "関西本町"
  },
  "7500023": {
    "zipcode": "7500023",
    "prefectureCode": "35",
    "prefectureNumber": 35,
    "prefecture": "山口県",
    "city": "下関市",
    "town": "長崎新町"
  },
  "7500024": {
    "zipcode": "7500024",
    "prefectureCode": "35",
    "prefectureNumber": 35,
    "prefecture": "山口県",
    "city": "下関市",
    "town": "笹山町"
  },
  "7500025": {
    "zipcode": "7500025",
    "prefectureCode": "35",
    "prefectureNumber": 35,
    "prefecture": "山口県",
    "city": "下関市",
    "town": "竹崎町"
  },
  "7500026": {
    "zipcode": "7500026",
    "prefectureCode": "35",
    "prefectureNumber": 35,
    "prefecture": "山口県",
    "city": "下関市",
    "town": "長門町"
  },
  "7500027": {
    "zipcode": "7500027",
    "prefectureCode": "35",
    "prefectureNumber": 35,
    "prefecture": "山口県",
    "city": "下関市",
    "town": "上条町"
  },
  "7500028": {
    "zipcode": "7500028",
    "prefectureCode": "35",
    "prefectureNumber": 35,
    "prefecture": "山口県",
    "city": "下関市",
    "town": "長崎本町"
  },
  "7500029": {
    "zipcode": "7500029",
    "prefectureCode": "35",
    "prefectureNumber": 35,
    "prefecture": "山口県",
    "city": "下関市",
    "town": "長崎町"
  },
  "7500031": {
    "zipcode": "7500031",
    "prefectureCode": "35",
    "prefectureNumber": 35,
    "prefecture": "山口県",
    "city": "下関市",
    "town": "春日町"
  },
  "7500032": {
    "zipcode": "7500032",
    "prefectureCode": "35",
    "prefectureNumber": 35,
    "prefecture": "山口県",
    "city": "下関市",
    "town": "関西町"
  },
  "7500033": {
    "zipcode": "7500033",
    "prefectureCode": "35",
    "prefectureNumber": 35,
    "prefecture": "山口県",
    "city": "下関市",
    "town": "山手町"
  },
  "7500034": {
    "zipcode": "7500034",
    "prefectureCode": "35",
    "prefectureNumber": 35,
    "prefecture": "山口県",
    "city": "下関市",
    "town": "西神田町"
  },
  "7500035": {
    "zipcode": "7500035",
    "prefectureCode": "35",
    "prefectureNumber": 35,
    "prefecture": "山口県",
    "city": "下関市",
    "town": "桜山町"
  },
  "7500036": {
    "zipcode": "7500036",
    "prefectureCode": "35",
    "prefectureNumber": 35,
    "prefecture": "山口県",
    "city": "下関市",
    "town": "あるかぽーと"
  },
  "7500041": {
    "zipcode": "7500041",
    "prefectureCode": "35",
    "prefectureNumber": 35,
    "prefecture": "山口県",
    "city": "下関市",
    "town": "向洋町"
  },
  "7500042": {
    "zipcode": "7500042",
    "prefectureCode": "35",
    "prefectureNumber": 35,
    "prefecture": "山口県",
    "city": "下関市",
    "town": "中央町"
  },
  "7500043": {
    "zipcode": "7500043",
    "prefectureCode": "35",
    "prefectureNumber": 35,
    "prefecture": "山口県",
    "city": "下関市",
    "town": "東神田町"
  },
  "7500044": {
    "zipcode": "7500044",
    "prefectureCode": "35",
    "prefectureNumber": 35,
    "prefecture": "山口県",
    "city": "下関市",
    "town": "神田町"
  },
  "7500045": {
    "zipcode": "7500045",
    "prefectureCode": "35",
    "prefectureNumber": 35,
    "prefecture": "山口県",
    "city": "下関市",
    "town": "元町"
  },
  "7500046": {
    "zipcode": "7500046",
    "prefectureCode": "35",
    "prefectureNumber": 35,
    "prefecture": "山口県",
    "city": "下関市",
    "town": "羽山町"
  },
  "7500047": {
    "zipcode": "7500047",
    "prefectureCode": "35",
    "prefectureNumber": 35,
    "prefecture": "山口県",
    "city": "下関市",
    "town": "向山町"
  },
  "7500048": {
    "zipcode": "7500048",
    "prefectureCode": "35",
    "prefectureNumber": 35,
    "prefecture": "山口県",
    "city": "下関市",
    "town": "東向山町"
  },
  "7500049": {
    "zipcode": "7500049",
    "prefectureCode": "35",
    "prefectureNumber": 35,
    "prefecture": "山口県",
    "city": "下関市",
    "town": "栄町"
  },
  "7500051": {
    "zipcode": "7500051",
    "prefectureCode": "35",
    "prefectureNumber": 35,
    "prefecture": "山口県",
    "city": "下関市",
    "town": "大坪本町"
  },
  "7500052": {
    "zipcode": "7500052",
    "prefectureCode": "35",
    "prefectureNumber": 35,
    "prefecture": "山口県",
    "city": "下関市",
    "town": "藤附町"
  },
  "7500053": {
    "zipcode": "7500053",
    "prefectureCode": "35",
    "prefectureNumber": 35,
    "prefecture": "山口県",
    "city": "下関市",
    "town": "大平町"
  },
  "7500054": {
    "zipcode": "7500054",
    "prefectureCode": "35",
    "prefectureNumber": 35,
    "prefecture": "山口県",
    "city": "下関市",
    "town": "西大坪町"
  },
  "7500055": {
    "zipcode": "7500055",
    "prefectureCode": "35",
    "prefectureNumber": 35,
    "prefecture": "山口県",
    "city": "下関市",
    "town": "南大坪町"
  },
  "7500056": {
    "zipcode": "7500056",
    "prefectureCode": "35",
    "prefectureNumber": 35,
    "prefecture": "山口県",
    "city": "下関市",
    "town": "筋ケ浜町"
  },
  "7500057": {
    "zipcode": "7500057",
    "prefectureCode": "35",
    "prefectureNumber": 35,
    "prefecture": "山口県",
    "city": "下関市",
    "town": "筋川町"
  },
  "7500058": {
    "zipcode": "7500058",
    "prefectureCode": "35",
    "prefectureNumber": 35,
    "prefecture": "山口県",
    "city": "下関市",
    "town": "金比羅町"
  },
  "7500059": {
    "zipcode": "7500059",
    "prefectureCode": "35",
    "prefectureNumber": 35,
    "prefecture": "山口県",
    "city": "下関市",
    "town": "汐入町"
  },
  "7500061": {
    "zipcode": "7500061",
    "prefectureCode": "35",
    "prefectureNumber": 35,
    "prefecture": "山口県",
    "city": "下関市",
    "town": "上新地町"
  },
  "7500062": {
    "zipcode": "7500062",
    "prefectureCode": "35",
    "prefectureNumber": 35,
    "prefecture": "山口県",
    "city": "下関市",
    "town": "新地西町"
  },
  "7500063": {
    "zipcode": "7500063",
    "prefectureCode": "35",
    "prefectureNumber": 35,
    "prefecture": "山口県",
    "city": "下関市",
    "town": "新地町"
  },
  "7500064": {
    "zipcode": "7500064",
    "prefectureCode": "35",
    "prefectureNumber": 35,
    "prefecture": "山口県",
    "city": "下関市",
    "town": "今浦町"
  },
  "7500065": {
    "zipcode": "7500065",
    "prefectureCode": "35",
    "prefectureNumber": 35,
    "prefecture": "山口県",
    "city": "下関市",
    "town": "伊崎町"
  },
  "7500066": {
    "zipcode": "7500066",
    "prefectureCode": "35",
    "prefectureNumber": 35,
    "prefecture": "山口県",
    "city": "下関市",
    "town": "東大和町"
  },
  "7500067": {
    "zipcode": "7500067",
    "prefectureCode": "35",
    "prefectureNumber": 35,
    "prefecture": "山口県",
    "city": "下関市",
    "town": "大和町"
  },
  "7500071": {
    "zipcode": "7500071",
    "prefectureCode": "35",
    "prefectureNumber": 35,
    "prefecture": "山口県",
    "city": "下関市",
    "town": "彦島海士郷町"
  },
  "7500072": {
    "zipcode": "7500072",
    "prefectureCode": "35",
    "prefectureNumber": 35,
    "prefecture": "山口県",
    "city": "下関市",
    "town": "彦島老町"
  },
  "7500073": {
    "zipcode": "7500073",
    "prefectureCode": "35",
    "prefectureNumber": 35,
    "prefecture": "山口県",
    "city": "下関市",
    "town": "彦島老の山公園"
  },
  "7500074": {
    "zipcode": "7500074",
    "prefectureCode": "35",
    "prefectureNumber": 35,
    "prefecture": "山口県",
    "city": "下関市",
    "town": "彦島本村町"
  },
  "7500075": {
    "zipcode": "7500075",
    "prefectureCode": "35",
    "prefectureNumber": 35,
    "prefecture": "山口県",
    "city": "下関市",
    "town": "彦島江の浦町"
  },
  "7500076": {
    "zipcode": "7500076",
    "prefectureCode": "35",
    "prefectureNumber": 35,
    "prefecture": "山口県",
    "city": "下関市",
    "town": "彦島弟子待町"
  },
  "7500077": {
    "zipcode": "7500077",
    "prefectureCode": "35",
    "prefectureNumber": 35,
    "prefecture": "山口県",
    "city": "下関市",
    "town": "彦島弟子待東町"
  },
  "7500078": {
    "zipcode": "7500078",
    "prefectureCode": "35",
    "prefectureNumber": 35,
    "prefecture": "山口県",
    "city": "下関市",
    "town": "彦島杉田町"
  },
  "7500081": {
    "zipcode": "7500081",
    "prefectureCode": "35",
    "prefectureNumber": 35,
    "prefecture": "山口県",
    "city": "下関市",
    "town": "彦島角倉町"
  },
  "7500082": {
    "zipcode": "7500082",
    "prefectureCode": "35",
    "prefectureNumber": 35,
    "prefecture": "山口県",
    "city": "下関市",
    "town": "彦島山中町"
  },
  "7500083": {
    "zipcode": "7500083",
    "prefectureCode": "35",
    "prefectureNumber": 35,
    "prefecture": "山口県",
    "city": "下関市",
    "town": "彦島桜ケ丘町"
  },
  "7500084": {
    "zipcode": "7500084",
    "prefectureCode": "35",
    "prefectureNumber": 35,
    "prefecture": "山口県",
    "city": "下関市",
    "town": "彦島向井町"
  },
  "7500085": {
    "zipcode": "7500085",
    "prefectureCode": "35",
    "prefectureNumber": 35,
    "prefecture": "山口県",
    "city": "下関市",
    "town": "彦島田の首町"
  },
  "7500086": {
    "zipcode": "7500086",
    "prefectureCode": "35",
    "prefectureNumber": 35,
    "prefecture": "山口県",
    "city": "下関市",
    "town": "彦島塩浜町"
  },
  "7500087": {
    "zipcode": "7500087",
    "prefectureCode": "35",
    "prefectureNumber": 35,
    "prefecture": "山口県",
    "city": "下関市",
    "town": "彦島福浦町"
  },
  "7500091": {
    "zipcode": "7500091",
    "prefectureCode": "35",
    "prefectureNumber": 35,
    "prefecture": "山口県",
    "city": "下関市",
    "town": "彦島緑町"
  },
  "7500092": {
    "zipcode": "7500092",
    "prefectureCode": "35",
    "prefectureNumber": 35,
    "prefecture": "山口県",
    "city": "下関市",
    "town": "彦島迫町"
  },
  "7500093": {
    "zipcode": "7500093",
    "prefectureCode": "35",
    "prefectureNumber": 35,
    "prefecture": "山口県",
    "city": "下関市",
    "town": "彦島西山町"
  },
  "7500094": {
    "zipcode": "7500094",
    "prefectureCode": "35",
    "prefectureNumber": 35,
    "prefecture": "山口県",
    "city": "下関市",
    "town": "彦島竹ノ子島町"
  },
  "7500095": {
    "zipcode": "7500095",
    "prefectureCode": "35",
    "prefectureNumber": 35,
    "prefecture": "山口県",
    "city": "下関市",
    "town": "六連島"
  },
  "7500251": {
    "zipcode": "7500251",
    "prefectureCode": "35",
    "prefectureNumber": 35,
    "prefecture": "山口県",
    "city": "下関市",
    "town": "植田"
  },
  "7500252": {
    "zipcode": "7500252",
    "prefectureCode": "35",
    "prefectureNumber": 35,
    "prefecture": "山口県",
    "city": "下関市",
    "town": "内日上"
  },
  "7500253": {
    "zipcode": "7500253",
    "prefectureCode": "35",
    "prefectureNumber": 35,
    "prefecture": "山口県",
    "city": "下関市",
    "town": "内日下"
  },
  "7500301": {
    "zipcode": "7500301",
    "prefectureCode": "35",
    "prefectureNumber": 35,
    "prefecture": "山口県",
    "city": "下関市",
    "town": "菊川町西中山"
  },
  "7500302": {
    "zipcode": "7500302",
    "prefectureCode": "35",
    "prefectureNumber": 35,
    "prefecture": "山口県",
    "city": "下関市",
    "town": "菊川町東中山"
  },
  "7500303": {
    "zipcode": "7500303",
    "prefectureCode": "35",
    "prefectureNumber": 35,
    "prefecture": "山口県",
    "city": "下関市",
    "town": "菊川町樅ノ木"
  },
  "7500304": {
    "zipcode": "7500304",
    "prefectureCode": "35",
    "prefectureNumber": 35,
    "prefecture": "山口県",
    "city": "下関市",
    "town": "菊川町道市"
  },
  "7500305": {
    "zipcode": "7500305",
    "prefectureCode": "35",
    "prefectureNumber": 35,
    "prefecture": "山口県",
    "city": "下関市",
    "town": "菊川町轡井"
  },
  "7500306": {
    "zipcode": "7500306",
    "prefectureCode": "35",
    "prefectureNumber": 35,
    "prefecture": "山口県",
    "city": "下関市",
    "town": "菊川町下保木"
  },
  "7500307": {
    "zipcode": "7500307",
    "prefectureCode": "35",
    "prefectureNumber": 35,
    "prefecture": "山口県",
    "city": "下関市",
    "town": "菊川町上保木"
  },
  "7500311": {
    "zipcode": "7500311",
    "prefectureCode": "35",
    "prefectureNumber": 35,
    "prefecture": "山口県",
    "city": "下関市",
    "town": "菊川町上大野"
  },
  "7500312": {
    "zipcode": "7500312",
    "prefectureCode": "35",
    "prefectureNumber": 35,
    "prefecture": "山口県",
    "city": "下関市",
    "town": "菊川町下大野"
  },
  "7500313": {
    "zipcode": "7500313",
    "prefectureCode": "35",
    "prefectureNumber": 35,
    "prefecture": "山口県",
    "city": "下関市",
    "town": "菊川町田部"
  },
  "7500314": {
    "zipcode": "7500314",
    "prefectureCode": "35",
    "prefectureNumber": 35,
    "prefecture": "山口県",
    "city": "下関市",
    "town": "菊川町上田部"
  },
  "7500315": {
    "zipcode": "7500315",
    "prefectureCode": "35",
    "prefectureNumber": 35,
    "prefecture": "山口県",
    "city": "下関市",
    "town": "菊川町七見"
  },
  "7500316": {
    "zipcode": "7500316",
    "prefectureCode": "35",
    "prefectureNumber": 35,
    "prefecture": "山口県",
    "city": "下関市",
    "town": "菊川町吉賀"
  },
  "7500317": {
    "zipcode": "7500317",
    "prefectureCode": "35",
    "prefectureNumber": 35,
    "prefecture": "山口県",
    "city": "下関市",
    "town": "菊川町下岡枝"
  },
  "7500321": {
    "zipcode": "7500321",
    "prefectureCode": "35",
    "prefectureNumber": 35,
    "prefecture": "山口県",
    "city": "下関市",
    "town": "菊川町上岡枝"
  },
  "7500322": {
    "zipcode": "7500322",
    "prefectureCode": "35",
    "prefectureNumber": 35,
    "prefecture": "山口県",
    "city": "下関市",
    "town": "菊川町楢崎"
  },
  "7500323": {
    "zipcode": "7500323",
    "prefectureCode": "35",
    "prefectureNumber": 35,
    "prefecture": "山口県",
    "city": "下関市",
    "town": "菊川町日新"
  },
  "7500324": {
    "zipcode": "7500324",
    "prefectureCode": "35",
    "prefectureNumber": 35,
    "prefecture": "山口県",
    "city": "下関市",
    "town": "菊川町久野"
  },
  "7500325": {
    "zipcode": "7500325",
    "prefectureCode": "35",
    "prefectureNumber": 35,
    "prefecture": "山口県",
    "city": "下関市",
    "town": "菊川町貴飯"
  },
  "7500401": {
    "zipcode": "7500401",
    "prefectureCode": "35",
    "prefectureNumber": 35,
    "prefecture": "山口県",
    "city": "下関市",
    "town": "豊田町殿居"
  },
  "7500402": {
    "zipcode": "7500402",
    "prefectureCode": "35",
    "prefectureNumber": 35,
    "prefecture": "山口県",
    "city": "下関市",
    "town": "豊田町佐野"
  },
  "7500403": {
    "zipcode": "7500403",
    "prefectureCode": "35",
    "prefectureNumber": 35,
    "prefecture": "山口県",
    "city": "下関市",
    "town": "豊田町一ノ俣"
  },
  "7500404": {
    "zipcode": "7500404",
    "prefectureCode": "35",
    "prefectureNumber": 35,
    "prefecture": "山口県",
    "city": "下関市",
    "town": "豊田町荒木"
  },
  "7500405": {
    "zipcode": "7500405",
    "prefectureCode": "35",
    "prefectureNumber": 35,
    "prefecture": "山口県",
    "city": "下関市",
    "town": "豊田町杢路子"
  },
  "7500411": {
    "zipcode": "7500411",
    "prefectureCode": "35",
    "prefectureNumber": 35,
    "prefecture": "山口県",
    "city": "下関市",
    "town": "豊田町宇内"
  },
  "7500412": {
    "zipcode": "7500412",
    "prefectureCode": "35",
    "prefectureNumber": 35,
    "prefecture": "山口県",
    "city": "下関市",
    "town": "豊田町稲見"
  },
  "7500413": {
    "zipcode": "7500413",
    "prefectureCode": "35",
    "prefectureNumber": 35,
    "prefecture": "山口県",
    "city": "下関市",
    "town": "豊田町金道"
  },
  "7500414": {
    "zipcode": "7500414",
    "prefectureCode": "35",
    "prefectureNumber": 35,
    "prefecture": "山口県",
    "city": "下関市",
    "town": "豊田町八道"
  },
  "7500415": {
    "zipcode": "7500415",
    "prefectureCode": "35",
    "prefectureNumber": 35,
    "prefecture": "山口県",
    "city": "下関市",
    "town": "豊田町浮石"
  },
  "7500416": {
    "zipcode": "7500416",
    "prefectureCode": "35",
    "prefectureNumber": 35,
    "prefecture": "山口県",
    "city": "下関市",
    "town": "豊田町鷹子"
  },
  "7500421": {
    "zipcode": "7500421",
    "prefectureCode": "35",
    "prefectureNumber": 35,
    "prefecture": "山口県",
    "city": "下関市",
    "town": "豊田町殿敷"
  },
  "7500422": {
    "zipcode": "7500422",
    "prefectureCode": "35",
    "prefectureNumber": 35,
    "prefecture": "山口県",
    "city": "下関市",
    "town": "豊田町楢原"
  },
  "7500423": {
    "zipcode": "7500423",
    "prefectureCode": "35",
    "prefectureNumber": 35,
    "prefecture": "山口県",
    "city": "下関市",
    "town": "豊田町西市"
  },
  "7500424": {
    "zipcode": "7500424",
    "prefectureCode": "35",
    "prefectureNumber": 35,
    "prefecture": "山口県",
    "city": "下関市",
    "town": "豊田町矢田"
  },
  "7500425": {
    "zipcode": "7500425",
    "prefectureCode": "35",
    "prefectureNumber": 35,
    "prefecture": "山口県",
    "city": "下関市",
    "town": "豊田町庭田"
  },
  "7500431": {
    "zipcode": "7500431",
    "prefectureCode": "35",
    "prefectureNumber": 35,
    "prefecture": "山口県",
    "city": "下関市",
    "town": "豊田町今出"
  },
  "7500432": {
    "zipcode": "7500432",
    "prefectureCode": "35",
    "prefectureNumber": 35,
    "prefecture": "山口県",
    "city": "下関市",
    "town": "豊田町地吉"
  },
  "7500433": {
    "zipcode": "7500433",
    "prefectureCode": "35",
    "prefectureNumber": 35,
    "prefecture": "山口県",
    "city": "下関市",
    "town": "豊田町大河内"
  },
  "7500441": {
    "zipcode": "7500441",
    "prefectureCode": "35",
    "prefectureNumber": 35,
    "prefecture": "山口県",
    "city": "下関市",
    "town": "豊田町中村"
  },
  "7500442": {
    "zipcode": "7500442",
    "prefectureCode": "35",
    "prefectureNumber": 35,
    "prefecture": "山口県",
    "city": "下関市",
    "town": "豊田町稲光"
  },
  "7500443": {
    "zipcode": "7500443",
    "prefectureCode": "35",
    "prefectureNumber": 35,
    "prefecture": "山口県",
    "city": "下関市",
    "town": "豊田町日野"
  },
  "7500444": {
    "zipcode": "7500444",
    "prefectureCode": "35",
    "prefectureNumber": 35,
    "prefecture": "山口県",
    "city": "下関市",
    "town": "豊田町萩原"
  },
  "7500445": {
    "zipcode": "7500445",
    "prefectureCode": "35",
    "prefectureNumber": 35,
    "prefecture": "山口県",
    "city": "下関市",
    "town": "豊田町東長野"
  },
  "7500446": {
    "zipcode": "7500446",
    "prefectureCode": "35",
    "prefectureNumber": 35,
    "prefecture": "山口県",
    "city": "下関市",
    "town": "豊田町高山"
  },
  "7500451": {
    "zipcode": "7500451",
    "prefectureCode": "35",
    "prefectureNumber": 35,
    "prefecture": "山口県",
    "city": "下関市",
    "town": "豊田町阿座上"
  },
  "7500452": {
    "zipcode": "7500452",
    "prefectureCode": "35",
    "prefectureNumber": 35,
    "prefecture": "山口県",
    "city": "下関市",
    "town": "豊田町江良"
  },
  "7500453": {
    "zipcode": "7500453",
    "prefectureCode": "35",
    "prefectureNumber": 35,
    "prefecture": "山口県",
    "city": "下関市",
    "town": "豊田町手洗"
  },
  "7500454": {
    "zipcode": "7500454",
    "prefectureCode": "35",
    "prefectureNumber": 35,
    "prefecture": "山口県",
    "city": "下関市",
    "town": "豊田町西長野"
  },
  "7500455": {
    "zipcode": "7500455",
    "prefectureCode": "35",
    "prefectureNumber": 35,
    "prefecture": "山口県",
    "city": "下関市",
    "town": "豊田町城戸"
  },
  "7500601": {
    "zipcode": "7500601",
    "prefectureCode": "35",
    "prefectureNumber": 35,
    "prefecture": "山口県",
    "city": "美祢市",
    "town": "豊田前町麻生上"
  },
  "7500602": {
    "zipcode": "7500602",
    "prefectureCode": "35",
    "prefectureNumber": 35,
    "prefecture": "山口県",
    "city": "美祢市",
    "town": "豊田前町麻生下"
  },
  "7500603": {
    "zipcode": "7500603",
    "prefectureCode": "35",
    "prefectureNumber": 35,
    "prefecture": "山口県",
    "city": "美祢市",
    "town": "豊田前町今山"
  },
  "7500604": {
    "zipcode": "7500604",
    "prefectureCode": "35",
    "prefectureNumber": 35,
    "prefecture": "山口県",
    "city": "美祢市",
    "town": "豊田前町保々"
  },
  "7500605": {
    "zipcode": "7500605",
    "prefectureCode": "35",
    "prefectureNumber": 35,
    "prefecture": "山口県",
    "city": "美祢市",
    "town": "豊田前町古烏帽子"
  },
  "7500606": {
    "zipcode": "7500606",
    "prefectureCode": "35",
    "prefectureNumber": 35,
    "prefecture": "山口県",
    "city": "美祢市",
    "town": "豊田前町嶽"
  },
  "7501101": {
    "zipcode": "7501101",
    "prefectureCode": "35",
    "prefectureNumber": 35,
    "prefecture": "山口県",
    "city": "下関市",
    "town": "吉田"
  },
  "7501102": {
    "zipcode": "7501102",
    "prefectureCode": "35",
    "prefectureNumber": 35,
    "prefecture": "山口県",
    "city": "下関市",
    "town": "吉田地方"
  },
  "7501111": {
    "zipcode": "7501111",
    "prefectureCode": "35",
    "prefectureNumber": 35,
    "prefecture": "山口県",
    "city": "下関市",
    "town": "宇津井"
  },
  "7501112": {
    "zipcode": "7501112",
    "prefectureCode": "35",
    "prefectureNumber": 35,
    "prefecture": "山口県",
    "city": "下関市",
    "town": "木屋川本町"
  },
  "7501113": {
    "zipcode": "7501113",
    "prefectureCode": "35",
    "prefectureNumber": 35,
    "prefecture": "山口県",
    "city": "下関市",
    "town": "木屋川南町"
  },
  "7501114": {
    "zipcode": "7501114",
    "prefectureCode": "35",
    "prefectureNumber": 35,
    "prefecture": "山口県",
    "city": "下関市",
    "town": "王喜本町"
  },
  "7501115": {
    "zipcode": "7501115",
    "prefectureCode": "35",
    "prefectureNumber": 35,
    "prefecture": "山口県",
    "city": "下関市",
    "town": "王喜宇津井"
  },
  "7501116": {
    "zipcode": "7501116",
    "prefectureCode": "35",
    "prefectureNumber": 35,
    "prefecture": "山口県",
    "city": "下関市",
    "town": "白崎"
  },
  "7501121": {
    "zipcode": "7501121",
    "prefectureCode": "35",
    "prefectureNumber": 35,
    "prefecture": "山口県",
    "city": "下関市",
    "town": "松屋"
  },
  "7501122": {
    "zipcode": "7501122",
    "prefectureCode": "35",
    "prefectureNumber": 35,
    "prefecture": "山口県",
    "city": "下関市",
    "town": "松屋上町"
  },
  "7501123": {
    "zipcode": "7501123",
    "prefectureCode": "35",
    "prefectureNumber": 35,
    "prefecture": "山口県",
    "city": "下関市",
    "town": "松屋東町"
  },
  "7501124": {
    "zipcode": "7501124",
    "prefectureCode": "35",
    "prefectureNumber": 35,
    "prefecture": "山口県",
    "city": "下関市",
    "town": "松屋本町"
  },
  "7501131": {
    "zipcode": "7501131",
    "prefectureCode": "35",
    "prefectureNumber": 35,
    "prefecture": "山口県",
    "city": "下関市",
    "town": "小月町"
  },
  "7501132": {
    "zipcode": "7501132",
    "prefectureCode": "35",
    "prefectureNumber": 35,
    "prefecture": "山口県",
    "city": "下関市",
    "town": "小月宮の町"
  },
  "7501133": {
    "zipcode": "7501133",
    "prefectureCode": "35",
    "prefectureNumber": 35,
    "prefecture": "山口県",
    "city": "下関市",
    "town": "小月高雄町"
  },
  "7501134": {
    "zipcode": "7501134",
    "prefectureCode": "35",
    "prefectureNumber": 35,
    "prefecture": "山口県",
    "city": "下関市",
    "town": "小月京泊"
  },
  "7501135": {
    "zipcode": "7501135",
    "prefectureCode": "35",
    "prefectureNumber": 35,
    "prefecture": "山口県",
    "city": "下関市",
    "town": "小月西の台"
  },
  "7501136": {
    "zipcode": "7501136",
    "prefectureCode": "35",
    "prefectureNumber": 35,
    "prefecture": "山口県",
    "city": "下関市",
    "town": "小月小島"
  },
  "7501137": {
    "zipcode": "7501137",
    "prefectureCode": "35",
    "prefectureNumber": 35,
    "prefecture": "山口県",
    "city": "下関市",
    "town": "小月南町"
  },
  "7501141": {
    "zipcode": "7501141",
    "prefectureCode": "35",
    "prefectureNumber": 35,
    "prefecture": "山口県",
    "city": "下関市",
    "town": "小月幸町"
  },
  "7501142": {
    "zipcode": "7501142",
    "prefectureCode": "35",
    "prefectureNumber": 35,
    "prefecture": "山口県",
    "city": "下関市",
    "town": "小月本町"
  },
  "7501143": {
    "zipcode": "7501143",
    "prefectureCode": "35",
    "prefectureNumber": 35,
    "prefecture": "山口県",
    "city": "下関市",
    "town": "小月駅前"
  },
  "7501144": {
    "zipcode": "7501144",
    "prefectureCode": "35",
    "prefectureNumber": 35,
    "prefecture": "山口県",
    "city": "下関市",
    "town": "小月茶屋"
  },
  "7501145": {
    "zipcode": "7501145",
    "prefectureCode": "35",
    "prefectureNumber": 35,
    "prefecture": "山口県",
    "city": "下関市",
    "town": "小月杉迫"
  },
  "7501146": {
    "zipcode": "7501146",
    "prefectureCode": "35",
    "prefectureNumber": 35,
    "prefecture": "山口県",
    "city": "下関市",
    "town": "小月公園町"
  },
  "7501147": {
    "zipcode": "7501147",
    "prefectureCode": "35",
    "prefectureNumber": 35,
    "prefecture": "山口県",
    "city": "下関市",
    "town": "小月市原町"
  },
  "7501151": {
    "zipcode": "7501151",
    "prefectureCode": "35",
    "prefectureNumber": 35,
    "prefecture": "山口県",
    "city": "下関市",
    "town": "清末"
  },
  "7501152": {
    "zipcode": "7501152",
    "prefectureCode": "35",
    "prefectureNumber": 35,
    "prefecture": "山口県",
    "city": "下関市",
    "town": "清末陣屋"
  },
  "7501153": {
    "zipcode": "7501153",
    "prefectureCode": "35",
    "prefectureNumber": 35,
    "prefecture": "山口県",
    "city": "下関市",
    "town": "清末鞍馬"
  },
  "7501154": {
    "zipcode": "7501154",
    "prefectureCode": "35",
    "prefectureNumber": 35,
    "prefecture": "山口県",
    "city": "下関市",
    "town": "清末本町"
  },
  "7501155": {
    "zipcode": "7501155",
    "prefectureCode": "35",
    "prefectureNumber": 35,
    "prefecture": "山口県",
    "city": "下関市",
    "town": "清末中町"
  },
  "7501156": {
    "zipcode": "7501156",
    "prefectureCode": "35",
    "prefectureNumber": 35,
    "prefecture": "山口県",
    "city": "下関市",
    "town": "清末東町"
  },
  "7501161": {
    "zipcode": "7501161",
    "prefectureCode": "35",
    "prefectureNumber": 35,
    "prefecture": "山口県",
    "city": "下関市",
    "town": "清末西町"
  },
  "7501162": {
    "zipcode": "7501162",
    "prefectureCode": "35",
    "prefectureNumber": 35,
    "prefecture": "山口県",
    "city": "下関市",
    "town": "清末五毛"
  },
  "7501163": {
    "zipcode": "7501163",
    "prefectureCode": "35",
    "prefectureNumber": 35,
    "prefecture": "山口県",
    "city": "下関市",
    "town": "清末千房"
  },
  "7501164": {
    "zipcode": "7501164",
    "prefectureCode": "35",
    "prefectureNumber": 35,
    "prefecture": "山口県",
    "city": "下関市",
    "town": "清末大門"
  },
  "7501171": {
    "zipcode": "7501171",
    "prefectureCode": "35",
    "prefectureNumber": 35,
    "prefecture": "山口県",
    "city": "下関市",
    "town": "阿内"
  }
}
