{
  "7510801": {
    "zipcode": "7510801",
    "prefectureCode": "35",
    "prefectureNumber": 35,
    "prefecture": "山口県",
    "city": "下関市",
    "town": "勝谷"
  },
  "7510802": {
    "zipcode": "7510802",
    "prefectureCode": "35",
    "prefectureNumber": 35,
    "prefecture": "山口県",
    "city": "下関市",
    "town": "勝谷新町"
  },
  "7510803": {
    "zipcode": "7510803",
    "prefectureCode": "35",
    "prefectureNumber": 35,
    "prefecture": "山口県",
    "city": "下関市",
    "town": "前勝谷町"
  },
  "7510804": {
    "zipcode": "7510804",
    "prefectureCode": "35",
    "prefectureNumber": 35,
    "prefecture": "山口県",
    "city": "下関市",
    "town": "楠乃"
  },
  "7510805": {
    "zipcode": "7510805",
    "prefectureCode": "35",
    "prefectureNumber": 35,
    "prefecture": "山口県",
    "city": "下関市",
    "town": "一の宮住吉"
  },
  "7510806": {
    "zipcode": "7510806",
    "prefectureCode": "35",
    "prefectureNumber": 35,
    "prefecture": "山口県",
    "city": "下関市",
    "town": "一の宮町"
  },
  "7510807": {
    "zipcode": "7510807",
    "prefectureCode": "35",
    "prefectureNumber": 35,
    "prefecture": "山口県",
    "city": "下関市",
    "town": "一の宮学園町"
  },
  "7510808": {
    "zipcode": "7510808",
    "prefectureCode": "35",
    "prefectureNumber": 35,
    "prefecture": "山口県",
    "city": "下関市",
    "town": "一の宮本町"
  },
  "7510809": {
    "zipcode": "7510809",
    "prefectureCode": "35",
    "prefectureNumber": 35,
    "prefecture": "山口県",
    "city": "下関市",
    "town": "一の宮東町"
  },
  "7510811": {
    "zipcode": "7510811",
    "prefectureCode": "35",
    "prefectureNumber": 35,
    "prefecture": "山口県",
    "city": "下関市",
    "town": "藤ケ谷町"
  },
  "7510812": {
    "zipcode": "7510812",
    "prefectureCode": "35",
    "prefectureNumber": 35,
    "prefecture": "山口県",
    "city": "下関市",
    "town": "椋野上町"
  },
  "7510813": {
    "zipcode": "7510813",
    "prefectureCode": "35",
    "prefectureNumber": 35,
    "prefecture": "山口県",
    "city": "下関市",
    "town": "みもすそ川町"
  },
  "7510814": {
    "zipcode": "7510814",
    "prefectureCode": "35",
    "prefectureNumber": 35,
    "prefecture": "山口県",
    "city": "下関市",
    "town": "壇之浦町"
  },
  "7510815": {
    "zipcode": "7510815",
    "prefectureCode": "35",
    "prefectureNumber": 35,
    "prefecture": "山口県",
    "city": "下関市",
    "town": "本町"
  },
  "7510816": {
    "zipcode": "7510816",
    "prefectureCode": "35",
    "prefectureNumber": 35,
    "prefecture": "山口県",
    "city": "下関市",
    "town": "椋野町"
  },
  "7510817": {
    "zipcode": "7510817",
    "prefectureCode": "35",
    "prefectureNumber": 35,
    "prefecture": "山口県",
    "city": "下関市",
    "town": "一の宮卸本町"
  },
  "7510818": {
    "zipcode": "7510818",
    "prefectureCode": "35",
    "prefectureNumber": 35,
    "prefecture": "山口県",
    "city": "下関市",
    "town": "卸新町"
  },
  "7510819": {
    "zipcode": "7510819",
    "prefectureCode": "35",
    "prefectureNumber": 35,
    "prefecture": "山口県",
    "city": "下関市",
    "town": "武久西原台"
  },
  "7510820": {
    "zipcode": "7510820",
    "prefectureCode": "35",
    "prefectureNumber": 35,
    "prefecture": "山口県",
    "city": "下関市",
    "town": "新椋野"
  },
  "7510821": {
    "zipcode": "7510821",
    "prefectureCode": "35",
    "prefectureNumber": 35,
    "prefecture": "山口県",
    "city": "下関市",
    "town": "三河町"
  },
  "7510822": {
    "zipcode": "7510822",
    "prefectureCode": "35",
    "prefectureNumber": 35,
    "prefecture": "山口県",
    "city": "下関市",
    "town": "宝町"
  },
  "7510823": {
    "zipcode": "7510823",
    "prefectureCode": "35",
    "prefectureNumber": 35,
    "prefecture": "山口県",
    "city": "下関市",
    "town": "貴船町"
  },
  "7510824": {
    "zipcode": "7510824",
    "prefectureCode": "35",
    "prefectureNumber": 35,
    "prefecture": "山口県",
    "city": "下関市",
    "town": "山の口町"
  },
  "7510825": {
    "zipcode": "7510825",
    "prefectureCode": "35",
    "prefectureNumber": 35,
    "prefecture": "山口県",
    "city": "下関市",
    "town": "石神町"
  },
  "7510826": {
    "zipcode": "7510826",
    "prefectureCode": "35",
    "prefectureNumber": 35,
    "prefecture": "山口県",
    "city": "下関市",
    "town": "後田町"
  },
  "7510827": {
    "zipcode": "7510827",
    "prefectureCode": "35",
    "prefectureNumber": 35,
    "prefecture": "山口県",
    "city": "下関市",
    "town": "幡生本町"
  },
  "7510828": {
    "zipcode": "7510828",
    "prefectureCode": "35",
    "prefectureNumber": 35,
    "prefecture": "山口県",
    "city": "下関市",
    "town": "幡生町"
  },
  "7510829": {
    "zipcode": "7510829",
    "prefectureCode": "35",
    "prefectureNumber": 35,
    "prefecture": "山口県",
    "city": "下関市",
    "town": "幡生宮の下町"
  },
  "7510830": {
    "zipcode": "7510830",
    "prefectureCode": "35",
    "prefectureNumber": 35,
    "prefecture": "山口県",
    "city": "下関市",
    "town": "幡生新町"
  },
  "7510831": {
    "zipcode": "7510831",
    "prefectureCode": "35",
    "prefectureNumber": 35,
    "prefecture": "山口県",
    "city": "下関市",
    "town": "大学町"
  },
  "7510832": {
    "zipcode": "7510832",
    "prefectureCode": "35",
    "prefectureNumber": 35,
    "prefecture": "山口県",
    "city": "下関市",
    "town": "生野町"
  },
  "7510833": {
    "zipcode": "7510833",
    "prefectureCode": "35",
    "prefectureNumber": 35,
    "prefecture": "山口県",
    "city": "下関市",
    "town": "武久町"
  },
  "7510834": {
    "zipcode": "7510834",
    "prefectureCode": "35",
    "prefectureNumber": 35,
    "prefecture": "山口県",
    "city": "下関市",
    "town": "山の田東町"
  },
  "7510835": {
    "zipcode": "7510835",
    "prefectureCode": "35",
    "prefectureNumber": 35,
    "prefecture": "山口県",
    "city": "下関市",
    "town": "山の田南町"
  },
  "7510836": {
    "zipcode": "7510836",
    "prefectureCode": "35",
    "prefectureNumber": 35,
    "prefecture": "山口県",
    "city": "下関市",
    "town": "山の田西町"
  },
  "7510837": {
    "zipcode": "7510837",
    "prefectureCode": "35",
    "prefectureNumber": 35,
    "prefecture": "山口県",
    "city": "下関市",
    "town": "山の田中央町"
  },
  "7510838": {
    "zipcode": "7510838",
    "prefectureCode": "35",
    "prefectureNumber": 35,
    "prefecture": "山口県",
    "city": "下関市",
    "town": "山の田本町"
  },
  "7510839": {
    "zipcode": "7510839",
    "prefectureCode": "35",
    "prefectureNumber": 35,
    "prefecture": "山口県",
    "city": "下関市",
    "town": "山の田北町"
  },
  "7510840": {
    "zipcode": "7510840",
    "prefectureCode": "35",
    "prefectureNumber": 35,
    "prefecture": "山口県",
    "city": "下関市",
    "town": "長州出島"
  },
  "7510841": {
    "zipcode": "7510841",
    "prefectureCode": "35",
    "prefectureNumber": 35,
    "prefecture": "山口県",
    "city": "下関市",
    "town": "垢田町"
  },
  "7510842": {
    "zipcode": "7510842",
    "prefectureCode": "35",
    "prefectureNumber": 35,
    "prefecture": "山口県",
    "city": "下関市",
    "town": "新垢田南町"
  },
  "7510843": {
    "zipcode": "7510843",
    "prefectureCode": "35",
    "prefectureNumber": 35,
    "prefecture": "山口県",
    "city": "下関市",
    "town": "新垢田東町"
  },
  "7510844": {
    "zipcode": "7510844",
    "prefectureCode": "35",
    "prefectureNumber": 35,
    "prefecture": "山口県",
    "city": "下関市",
    "town": "新垢田西町"
  },
  "7510845": {
    "zipcode": "7510845",
    "prefectureCode": "35",
    "prefectureNumber": 35,
    "prefecture": "山口県",
    "city": "下関市",
    "town": "新垢田北町"
  },
  "7510846": {
    "zipcode": "7510846",
    "prefectureCode": "35",
    "prefectureNumber": 35,
    "prefecture": "山口県",
    "city": "下関市",
    "town": "垢田"
  },
  "7510847": {
    "zipcode": "7510847",
    "prefectureCode": "35",
    "prefectureNumber": 35,
    "prefecture": "山口県",
    "city": "下関市",
    "town": "古屋町"
  },
  "7510848": {
    "zipcode": "7510848",
    "prefectureCode": "35",
    "prefectureNumber": 35,
    "prefecture": "山口県",
    "city": "下関市",
    "town": "綾羅木南町"
  },
  "7510849": {
    "zipcode": "7510849",
    "prefectureCode": "35",
    "prefectureNumber": 35,
    "prefecture": "山口県",
    "city": "下関市",
    "town": "綾羅木本町"
  },
  "7510851": {
    "zipcode": "7510851",
    "prefectureCode": "35",
    "prefectureNumber": 35,
    "prefecture": "山口県",
    "city": "下関市",
    "town": "熊野西町"
  },
  "7510852": {
    "zipcode": "7510852",
    "prefectureCode": "35",
    "prefectureNumber": 35,
    "prefecture": "山口県",
    "city": "下関市",
    "town": "熊野町"
  },
  "7510853": {
    "zipcode": "7510853",
    "prefectureCode": "35",
    "prefectureNumber": 35,
    "prefecture": "山口県",
    "city": "下関市",
    "town": "川中豊町"
  },
  "7510854": {
    "zipcode": "7510854",
    "prefectureCode": "35",
    "prefectureNumber": 35,
    "prefecture": "山口県",
    "city": "下関市",
    "town": "稗田南町"
  },
  "7510855": {
    "zipcode": "7510855",
    "prefectureCode": "35",
    "prefectureNumber": 35,
    "prefecture": "山口県",
    "city": "下関市",
    "town": "稗田西町"
  },
  "7510856": {
    "zipcode": "7510856",
    "prefectureCode": "35",
    "prefectureNumber": 35,
    "prefecture": "山口県",
    "city": "下関市",
    "town": "稗田中町"
  },
  "7510857": {
    "zipcode": "7510857",
    "prefectureCode": "35",
    "prefectureNumber": 35,
    "prefecture": "山口県",
    "city": "下関市",
    "town": "稗田北町"
  },
  "7510858": {
    "zipcode": "7510858",
    "prefectureCode": "35",
    "prefectureNumber": 35,
    "prefecture": "山口県",
    "city": "下関市",
    "town": "稗田町"
  },
  "7510859": {
    "zipcode": "7510859",
    "prefectureCode": "35",
    "prefectureNumber": 35,
    "prefecture": "山口県",
    "city": "下関市",
    "town": "川中本町"
  },
  "7510861": {
    "zipcode": "7510861",
    "prefectureCode": "35",
    "prefectureNumber": 35,
    "prefecture": "山口県",
    "city": "下関市",
    "town": "伊倉東町"
  },
  "7510862": {
    "zipcode": "7510862",
    "prefectureCode": "35",
    "prefectureNumber": 35,
    "prefecture": "山口県",
    "city": "下関市",
    "town": "伊倉"
  },
  "7510863": {
    "zipcode": "7510863",
    "prefectureCode": "35",
    "prefectureNumber": 35,
    "prefecture": "山口県",
    "city": "下関市",
    "town": "伊倉本町"
  },
  "7510864": {
    "zipcode": "7510864",
    "prefectureCode": "35",
    "prefectureNumber": 35,
    "prefecture": "山口県",
    "city": "下関市",
    "town": "伊倉町"
  },
  "7510865": {
    "zipcode": "7510865",
    "prefectureCode": "35",
    "prefectureNumber": 35,
    "prefecture": "山口県",
    "city": "下関市",
    "town": "綾羅木新町"
  },
  "7510866": {
    "zipcode": "7510866",
    "prefectureCode": "35",
    "prefectureNumber": 35,
    "prefecture": "山口県",
    "city": "下関市",
    "town": "綾羅木"
  },
  "7510867": {
    "zipcode": "7510867",
    "prefectureCode": "35",
    "prefectureNumber": 35,
    "prefecture": "山口県",
    "city": "下関市",
    "town": "延行"
  },
  "7510868": {
    "zipcode": "7510868",
    "prefectureCode": "35",
    "prefectureNumber": 35,
    "prefecture": "山口県",
    "city": "下関市",
    "town": "有冨"
  },
  "7510869": {
    "zipcode": "7510869",
    "prefectureCode": "35",
    "prefectureNumber": 35,
    "prefecture": "山口県",
    "city": "下関市",
    "town": "伊倉新町"
  },
  "7510871": {
    "zipcode": "7510871",
    "prefectureCode": "35",
    "prefectureNumber": 35,
    "prefecture": "山口県",
    "city": "下関市",
    "town": "秋根"
  },
  "7510872": {
    "zipcode": "7510872",
    "prefectureCode": "35",
    "prefectureNumber": 35,
    "prefecture": "山口県",
    "city": "下関市",
    "town": "秋根南町"
  },
  "7510873": {
    "zipcode": "7510873",
    "prefectureCode": "35",
    "prefectureNumber": 35,
    "prefecture": "山口県",
    "city": "下関市",
    "town": "秋根西町"
  },
  "7510874": {
    "zipcode": "7510874",
    "prefectureCode": "35",
    "prefectureNumber": 35,
    "prefecture": "山口県",
    "city": "下関市",
    "town": "秋根新町"
  },
  "7510875": {
    "zipcode": "7510875",
    "prefectureCode": "35",
    "prefectureNumber": 35,
    "prefecture": "山口県",
    "city": "下関市",
    "town": "秋根本町"
  },
  "7510876": {
    "zipcode": "7510876",
    "prefectureCode": "35",
    "prefectureNumber": 35,
    "prefecture": "山口県",
    "city": "下関市",
    "town": "秋根北町"
  },
  "7510877": {
    "zipcode": "7510877",
    "prefectureCode": "35",
    "prefectureNumber": 35,
    "prefecture": "山口県",
    "city": "下関市",
    "town": "秋根東町"
  },
  "7510878": {
    "zipcode": "7510878",
    "prefectureCode": "35",
    "prefectureNumber": 35,
    "prefecture": "山口県",
    "city": "下関市",
    "town": "秋根上町"
  },
  "7510879": {
    "zipcode": "7510879",
    "prefectureCode": "35",
    "prefectureNumber": 35,
    "prefecture": "山口県",
    "city": "下関市",
    "town": "東勝谷"
  },
  "7510881": {
    "zipcode": "7510881",
    "prefectureCode": "35",
    "prefectureNumber": 35,
    "prefecture": "山口県",
    "city": "下関市",
    "town": "井田"
  },
  "7510882": {
    "zipcode": "7510882",
    "prefectureCode": "35",
    "prefectureNumber": 35,
    "prefecture": "山口県",
    "city": "下関市",
    "town": "田倉御殿町"
  },
  "7510883": {
    "zipcode": "7510883",
    "prefectureCode": "35",
    "prefectureNumber": 35,
    "prefecture": "山口県",
    "city": "下関市",
    "town": "田倉"
  },
  "7510884": {
    "zipcode": "7510884",
    "prefectureCode": "35",
    "prefectureNumber": 35,
    "prefecture": "山口県",
    "city": "下関市",
    "town": "形山"
  },
  "7510885": {
    "zipcode": "7510885",
    "prefectureCode": "35",
    "prefectureNumber": 35,
    "prefecture": "山口県",
    "city": "下関市",
    "town": "形山みどり町"
  },
  "7510886": {
    "zipcode": "7510886",
    "prefectureCode": "35",
    "prefectureNumber": 35,
    "prefecture": "山口県",
    "city": "下関市",
    "town": "石原"
  },
  "7510887": {
    "zipcode": "7510887",
    "prefectureCode": "35",
    "prefectureNumber": 35,
    "prefecture": "山口県",
    "city": "下関市",
    "town": "小野"
  },
  "7510888": {
    "zipcode": "7510888",
    "prefectureCode": "35",
    "prefectureNumber": 35,
    "prefecture": "山口県",
    "city": "下関市",
    "town": "形山町"
  }
}
