{
  "7520901": {
    "zipcode": "7520901",
    "prefectureCode": "35",
    "prefectureNumber": 35,
    "prefecture": "山口県",
    "city": "下関市",
    "town": "山田"
  },
  "7520902": {
    "zipcode": "7520902",
    "prefectureCode": "35",
    "prefectureNumber": 35,
    "prefecture": "山口県",
    "city": "下関市",
    "town": "赤池町"
  },
  "7520903": {
    "zipcode": "7520903",
    "prefectureCode": "35",
    "prefectureNumber": 35,
    "prefecture": "山口県",
    "city": "下関市",
    "town": "員光町"
  },
  "7520904": {
    "zipcode": "7520904",
    "prefectureCode": "35",
    "prefectureNumber": 35,
    "prefecture": "山口県",
    "city": "下関市",
    "town": "員光"
  },
  "7520905": {
    "zipcode": "7520905",
    "prefectureCode": "35",
    "prefectureNumber": 35,
    "prefecture": "山口県",
    "city": "下関市",
    "town": "西観音町"
  },
  "7520906": {
    "zipcode": "7520906",
    "prefectureCode": "35",
    "prefectureNumber": 35,
    "prefecture": "山口県",
    "city": "下関市",
    "town": "東観音町"
  },
  "7520907": {
    "zipcode": "7520907",
    "prefectureCode": "35",
    "prefectureNumber": 35,
    "prefecture": "山口県",
    "city": "下関市",
    "town": "神田"
  },
  "7520911": {
    "zipcode": "7520911",
    "prefectureCode": "35",
    "prefectureNumber": 35,
    "prefecture": "山口県",
    "city": "下関市",
    "town": "王司神田"
  },
  "7520912": {
    "zipcode": "7520912",
    "prefectureCode": "35",
    "prefectureNumber": 35,
    "prefecture": "山口県",
    "city": "下関市",
    "town": "王司川端"
  },
  "7520913": {
    "zipcode": "7520913",
    "prefectureCode": "35",
    "prefectureNumber": 35,
    "prefecture": "山口県",
    "city": "下関市",
    "town": "乃木浜"
  },
  "7520914": {
    "zipcode": "7520914",
    "prefectureCode": "35",
    "prefectureNumber": 35,
    "prefecture": "山口県",
    "city": "下関市",
    "town": "千鳥浜町"
  },
  "7520915": {
    "zipcode": "7520915",
    "prefectureCode": "35",
    "prefectureNumber": 35,
    "prefecture": "山口県",
    "city": "下関市",
    "town": "王司本町"
  },
  "7520916": {
    "zipcode": "7520916",
    "prefectureCode": "35",
    "prefectureNumber": 35,
    "prefecture": "山口県",
    "city": "下関市",
    "town": "王司上町"
  },
  "7520921": {
    "zipcode": "7520921",
    "prefectureCode": "35",
    "prefectureNumber": 35,
    "prefecture": "山口県",
    "city": "下関市",
    "town": "才川"
  },
  "7520922": {
    "zipcode": "7520922",
    "prefectureCode": "35",
    "prefectureNumber": 35,
    "prefecture": "山口県",
    "city": "下関市",
    "town": "千鳥ケ丘町"
  },
  "7520923": {
    "zipcode": "7520923",
    "prefectureCode": "35",
    "prefectureNumber": 35,
    "prefecture": "山口県",
    "city": "下関市",
    "town": "宇部"
  },
  "7520924": {
    "zipcode": "7520924",
    "prefectureCode": "35",
    "prefectureNumber": 35,
    "prefecture": "山口県",
    "city": "下関市",
    "town": "王司南町"
  },
  "7520925": {
    "zipcode": "7520925",
    "prefectureCode": "35",
    "prefectureNumber": 35,
    "prefecture": "山口県",
    "city": "下関市",
    "town": "亀浜町"
  },
  "7520926": {
    "zipcode": "7520926",
    "prefectureCode": "35",
    "prefectureNumber": 35,
    "prefecture": "山口県",
    "city": "下関市",
    "town": "ゆめタウン"
  },
  "7520927": {
    "zipcode": "7520927",
    "prefectureCode": "35",
    "prefectureNumber": 35,
    "prefecture": "山口県",
    "city": "下関市",
    "town": "長府扇町"
  },
  "7520928": {
    "zipcode": "7520928",
    "prefectureCode": "35",
    "prefectureNumber": 35,
    "prefecture": "山口県",
    "city": "下関市",
    "town": "長府才川"
  },
  "7520931": {
    "zipcode": "7520931",
    "prefectureCode": "35",
    "prefectureNumber": 35,
    "prefecture": "山口県",
    "city": "下関市",
    "town": "松小田"
  },
  "7520932": {
    "zipcode": "7520932",
    "prefectureCode": "35",
    "prefectureNumber": 35,
    "prefecture": "山口県",
    "city": "下関市",
    "town": "長府松小田北町"
  },
  "7520933": {
    "zipcode": "7520933",
    "prefectureCode": "35",
    "prefectureNumber": 35,
    "prefecture": "山口県",
    "city": "下関市",
    "town": "長府松小田本町"
  },
  "7520934": {
    "zipcode": "7520934",
    "prefectureCode": "35",
    "prefectureNumber": 35,
    "prefecture": "山口県",
    "city": "下関市",
    "town": "長府松小田東町"
  },
  "7520935": {
    "zipcode": "7520935",
    "prefectureCode": "35",
    "prefectureNumber": 35,
    "prefecture": "山口県",
    "city": "下関市",
    "town": "長府松小田中町"
  },
  "7520936": {
    "zipcode": "7520936",
    "prefectureCode": "35",
    "prefectureNumber": 35,
    "prefecture": "山口県",
    "city": "下関市",
    "town": "長府松小田南町"
  },
  "7520937": {
    "zipcode": "7520937",
    "prefectureCode": "35",
    "prefectureNumber": 35,
    "prefecture": "山口県",
    "city": "下関市",
    "town": "長府松小田西町"
  },
  "7520941": {
    "zipcode": "7520941",
    "prefectureCode": "35",
    "prefectureNumber": 35,
    "prefecture": "山口県",
    "city": "下関市",
    "town": "長府新四王司町"
  },
  "7520942": {
    "zipcode": "7520942",
    "prefectureCode": "35",
    "prefectureNumber": 35,
    "prefecture": "山口県",
    "city": "下関市",
    "town": "長府四王司町"
  },
  "7520943": {
    "zipcode": "7520943",
    "prefectureCode": "35",
    "prefectureNumber": 35,
    "prefecture": "山口県",
    "city": "下関市",
    "town": "長府豊城町"
  },
  "7520944": {
    "zipcode": "7520944",
    "prefectureCode": "35",
    "prefectureNumber": 35,
    "prefecture": "山口県",
    "city": "下関市",
    "town": "長府中六波町"
  },
  "7520945": {
    "zipcode": "7520945",
    "prefectureCode": "35",
    "prefectureNumber": 35,
    "prefecture": "山口県",
    "city": "下関市",
    "town": "長府豊浦町"
  },
  "7520946": {
    "zipcode": "7520946",
    "prefectureCode": "35",
    "prefectureNumber": 35,
    "prefecture": "山口県",
    "city": "下関市",
    "town": "長府中尾町"
  },
  "7520947": {
    "zipcode": "7520947",
    "prefectureCode": "35",
    "prefectureNumber": 35,
    "prefecture": "山口県",
    "city": "下関市",
    "town": "長府満珠町"
  },
  "7520948": {
    "zipcode": "7520948",
    "prefectureCode": "35",
    "prefectureNumber": 35,
    "prefecture": "山口県",
    "city": "下関市",
    "town": "長府満珠新町"
  },
  "7520951": {
    "zipcode": "7520951",
    "prefectureCode": "35",
    "prefectureNumber": 35,
    "prefecture": "山口県",
    "city": "下関市",
    "town": "長府日の出町"
  },
  "7520952": {
    "zipcode": "7520952",
    "prefectureCode": "35",
    "prefectureNumber": 35,
    "prefecture": "山口県",
    "city": "下関市",
    "town": "長府江下町"
  },
  "7520953": {
    "zipcode": "7520953",
    "prefectureCode": "35",
    "prefectureNumber": 35,
    "prefecture": "山口県",
    "city": "下関市",
    "town": "長府港町"
  },
  "7520954": {
    "zipcode": "7520954",
    "prefectureCode": "35",
    "prefectureNumber": 35,
    "prefecture": "山口県",
    "city": "下関市",
    "town": "長府古城町"
  },
  "7520955": {
    "zipcode": "7520955",
    "prefectureCode": "35",
    "prefectureNumber": 35,
    "prefecture": "山口県",
    "city": "下関市",
    "town": "長府八幡町"
  },
  "7520956": {
    "zipcode": "7520956",
    "prefectureCode": "35",
    "prefectureNumber": 35,
    "prefecture": "山口県",
    "city": "下関市",
    "town": "長府前八幡町"
  },
  "7520957": {
    "zipcode": "7520957",
    "prefectureCode": "35",
    "prefectureNumber": 35,
    "prefecture": "山口県",
    "city": "下関市",
    "town": "長府印内町"
  },
  "7520958": {
    "zipcode": "7520958",
    "prefectureCode": "35",
    "prefectureNumber": 35,
    "prefecture": "山口県",
    "city": "下関市",
    "town": "長府金屋浜町"
  },
  "7520959": {
    "zipcode": "7520959",
    "prefectureCode": "35",
    "prefectureNumber": 35,
    "prefecture": "山口県",
    "city": "下関市",
    "town": "長府金屋町"
  },
  "7520961": {
    "zipcode": "7520961",
    "prefectureCode": "35",
    "prefectureNumber": 35,
    "prefecture": "山口県",
    "city": "下関市",
    "town": "長府珠の浦町"
  },
  "7520962": {
    "zipcode": "7520962",
    "prefectureCode": "35",
    "prefectureNumber": 35,
    "prefecture": "山口県",
    "city": "下関市",
    "town": "長府安養寺"
  },
  "7520963": {
    "zipcode": "7520963",
    "prefectureCode": "35",
    "prefectureNumber": 35,
    "prefecture": "山口県",
    "city": "下関市",
    "town": "長府中土居北町"
  },
  "7520964": {
    "zipcode": "7520964",
    "prefectureCode": "35",
    "prefectureNumber": 35,
    "prefecture": "山口県",
    "city": "下関市",
    "town": "長府中土居本町"
  },
  "7520965": {
    "zipcode": "7520965",
    "prefectureCode": "35",
    "prefectureNumber": 35,
    "prefecture": "山口県",
    "city": "下関市",
    "town": "長府三島町"
  },
  "7520966": {
    "zipcode": "7520966",
    "prefectureCode": "35",
    "prefectureNumber": 35,
    "prefecture": "山口県",
    "city": "下関市",
    "town": "長府亀の甲"
  },
  "7520967": {
    "zipcode": "7520967",
    "prefectureCode": "35",
    "prefectureNumber": 35,
    "prefecture": "山口県",
    "city": "下関市",
    "town": "長府宮の内町"
  },
  "7520968": {
    "zipcode": "7520968",
    "prefectureCode": "35",
    "prefectureNumber": 35,
    "prefecture": "山口県",
    "city": "下関市",
    "town": "長府紺屋町"
  },
  "7520970": {
    "zipcode": "7520970",
    "prefectureCode": "35",
    "prefectureNumber": 35,
    "prefecture": "山口県",
    "city": "下関市",
    "town": "長府惣社町"
  },
  "7520971": {
    "zipcode": "7520971",
    "prefectureCode": "35",
    "prefectureNumber": 35,
    "prefecture": "山口県",
    "city": "下関市",
    "town": "長府逢坂町"
  },
  "7520972": {
    "zipcode": "7520972",
    "prefectureCode": "35",
    "prefectureNumber": 35,
    "prefecture": "山口県",
    "city": "下関市",
    "town": "長府古江小路町"
  },
  "7520973": {
    "zipcode": "7520973",
    "prefectureCode": "35",
    "prefectureNumber": 35,
    "prefecture": "山口県",
    "city": "下関市",
    "town": "長府中之町"
  },
  "7520974": {
    "zipcode": "7520974",
    "prefectureCode": "35",
    "prefectureNumber": 35,
    "prefecture": "山口県",
    "city": "下関市",
    "town": "長府土居の内町"
  },
  "7520975": {
    "zipcode": "7520975",
    "prefectureCode": "35",
    "prefectureNumber": 35,
    "prefecture": "山口県",
    "city": "下関市",
    "town": "長府中浜町"
  },
  "7520976": {
    "zipcode": "7520976",
    "prefectureCode": "35",
    "prefectureNumber": 35,
    "prefecture": "山口県",
    "city": "下関市",
    "town": "長府南之町"
  },
  "7520977": {
    "zipcode": "7520977",
    "prefectureCode": "35",
    "prefectureNumber": 35,
    "prefecture": "山口県",
    "city": "下関市",
    "town": "長府東侍町"
  },
  "7520978": {
    "zipcode": "7520978",
    "prefectureCode": "35",
    "prefectureNumber": 35,
    "prefecture": "山口県",
    "city": "下関市",
    "town": "長府侍町"
  },
  "7520979": {
    "zipcode": "7520979",
    "prefectureCode": "35",
    "prefectureNumber": 35,
    "prefecture": "山口県",
    "city": "下関市",
    "town": "長府川端"
  },
  "7520980": {
    "zipcode": "7520980",
    "prefectureCode": "35",
    "prefectureNumber": 35,
    "prefecture": "山口県",
    "city": "下関市",
    "town": "長府黒門町"
  },
  "7520981": {
    "zipcode": "7520981",
    "prefectureCode": "35",
    "prefectureNumber": 35,
    "prefecture": "山口県",
    "city": "下関市",
    "town": "豊浦村"
  },
  "7520982": {
    "zipcode": "7520982",
    "prefectureCode": "35",
    "prefectureNumber": 35,
    "prefecture": "山口県",
    "city": "下関市",
    "town": "長府新松原町"
  },
  "7520983": {
    "zipcode": "7520983",
    "prefectureCode": "35",
    "prefectureNumber": 35,
    "prefecture": "山口県",
    "city": "下関市",
    "town": "長府松原町"
  },
  "7520984": {
    "zipcode": "7520984",
    "prefectureCode": "35",
    "prefectureNumber": 35,
    "prefecture": "山口県",
    "city": "下関市",
    "town": "長府宮崎町"
  },
  "7520985": {
    "zipcode": "7520985",
    "prefectureCode": "35",
    "prefectureNumber": 35,
    "prefecture": "山口県",
    "city": "下関市",
    "town": "長府外浦町"
  },
  "7520986": {
    "zipcode": "7520986",
    "prefectureCode": "35",
    "prefectureNumber": 35,
    "prefecture": "山口県",
    "city": "下関市",
    "town": "長府黒門東町"
  },
  "7520987": {
    "zipcode": "7520987",
    "prefectureCode": "35",
    "prefectureNumber": 35,
    "prefecture": "山口県",
    "city": "下関市",
    "town": "長府羽衣町"
  },
  "7520988": {
    "zipcode": "7520988",
    "prefectureCode": "35",
    "prefectureNumber": 35,
    "prefecture": "山口県",
    "city": "下関市",
    "town": "長府羽衣南町"
  },
  "7520989": {
    "zipcode": "7520989",
    "prefectureCode": "35",
    "prefectureNumber": 35,
    "prefecture": "山口県",
    "city": "下関市",
    "town": "長府黒門南町"
  },
  "7520991": {
    "zipcode": "7520991",
    "prefectureCode": "35",
    "prefectureNumber": 35,
    "prefecture": "山口県",
    "city": "下関市",
    "town": "高畑"
  },
  "7520992": {
    "zipcode": "7520992",
    "prefectureCode": "35",
    "prefectureNumber": 35,
    "prefecture": "山口県",
    "city": "下関市",
    "town": "長府野久留米町"
  },
  "7520993": {
    "zipcode": "7520993",
    "prefectureCode": "35",
    "prefectureNumber": 35,
    "prefecture": "山口県",
    "city": "下関市",
    "town": "長府浜浦町"
  },
  "7520994": {
    "zipcode": "7520994",
    "prefectureCode": "35",
    "prefectureNumber": 35,
    "prefecture": "山口県",
    "city": "下関市",
    "town": "長府高場町"
  },
  "7520995": {
    "zipcode": "7520995",
    "prefectureCode": "35",
    "prefectureNumber": 35,
    "prefecture": "山口県",
    "city": "下関市",
    "town": "長府浜浦南町"
  },
  "7520996": {
    "zipcode": "7520996",
    "prefectureCode": "35",
    "prefectureNumber": 35,
    "prefecture": "山口県",
    "city": "下関市",
    "town": "長府向田町"
  },
  "7520997": {
    "zipcode": "7520997",
    "prefectureCode": "35",
    "prefectureNumber": 35,
    "prefecture": "山口県",
    "city": "下関市",
    "town": "前田"
  },
  "7520998": {
    "zipcode": "7520998",
    "prefectureCode": "35",
    "prefectureNumber": 35,
    "prefecture": "山口県",
    "city": "下関市",
    "town": "長府浜浦西町"
  }
}
