{
  "7550000": {
    "zipcode": "7550000",
    "prefectureCode": "35",
    "prefectureNumber": 35,
    "prefecture": "山口県",
    "city": "宇部市",
    "town": "以下に掲載がない場合"
  },
  "7550001": {
    "zipcode": "7550001",
    "prefectureCode": "35",
    "prefectureNumber": 35,
    "prefecture": "山口県",
    "city": "宇部市",
    "town": "沖宇部"
  },
  "7550002": {
    "zipcode": "7550002",
    "prefectureCode": "35",
    "prefectureNumber": 35,
    "prefecture": "山口県",
    "city": "宇部市",
    "town": "亀浦"
  },
  "7550003": {
    "zipcode": "7550003",
    "prefectureCode": "35",
    "prefectureNumber": 35,
    "prefecture": "山口県",
    "city": "宇部市",
    "town": "則貞"
  },
  "7550004": {
    "zipcode": "7550004",
    "prefectureCode": "35",
    "prefectureNumber": 35,
    "prefecture": "山口県",
    "city": "宇部市",
    "town": "草江"
  },
  "7550005": {
    "zipcode": "7550005",
    "prefectureCode": "35",
    "prefectureNumber": 35,
    "prefecture": "山口県",
    "city": "宇部市",
    "town": "五十目山町"
  },
  "7550006": {
    "zipcode": "7550006",
    "prefectureCode": "35",
    "prefectureNumber": 35,
    "prefecture": "山口県",
    "city": "宇部市",
    "town": "岬町"
  },
  "7550007": {
    "zipcode": "7550007",
    "prefectureCode": "35",
    "prefectureNumber": 35,
    "prefecture": "山口県",
    "city": "宇部市",
    "town": "八王子町"
  },
  "7550008": {
    "zipcode": "7550008",
    "prefectureCode": "35",
    "prefectureNumber": 35,
    "prefecture": "山口県",
    "city": "宇部市",
    "town": "明神町"
  },
  "7550009": {
    "zipcode": "7550009",
    "prefectureCode": "35",
    "prefectureNumber": 35,
    "prefecture": "山口県",
    "city": "宇部市",
    "town": "東見初町"
  },
  "7550011": {
    "zipcode": "7550011",
    "prefectureCode": "35",
    "prefectureNumber": 35,
    "prefecture": "山口県",
    "city": "宇部市",
    "town": "昭和町"
  },
  "7550012": {
    "zipcode": "7550012",
    "prefectureCode": "35",
    "prefectureNumber": 35,
    "prefecture": "山口県",
    "city": "宇部市",
    "town": "幸町"
  },
  "7550013": {
    "zipcode": "7550013",
    "prefectureCode": "35",
    "prefectureNumber": 35,
    "prefecture": "山口県",
    "city": "宇部市",
    "town": "明治町"
  },
  "7550014": {
    "zipcode": "7550014",
    "prefectureCode": "35",
    "prefectureNumber": 35,
    "prefecture": "山口県",
    "city": "宇部市",
    "town": "末広町"
  },
  "7550015": {
    "zipcode": "7550015",
    "prefectureCode": "35",
    "prefectureNumber": 35,
    "prefecture": "山口県",
    "city": "宇部市",
    "town": "笹山町"
  },
  "7550016": {
    "zipcode": "7550016",
    "prefectureCode": "35",
    "prefectureNumber": 35,
    "prefecture": "山口県",
    "city": "宇部市",
    "town": "東芝中町"
  },
  "7550017": {
    "zipcode": "7550017",
    "prefectureCode": "35",
    "prefectureNumber": 35,
    "prefecture": "山口県",
    "city": "宇部市",
    "town": "芝中町"
  },
  "7550018": {
    "zipcode": "7550018",
    "prefectureCode": "35",
    "prefectureNumber": 35,
    "prefecture": "山口県",
    "city": "宇部市",
    "town": "錦町"
  },
  "7550019": {
    "zipcode": "7550019",
    "prefectureCode": "35",
    "prefectureNumber": 35,
    "prefecture": "山口県",
    "city": "宇部市",
    "town": "東新川町"
  },
  "7550021": {
    "zipcode": "7550021",
    "prefectureCode": "35",
    "prefectureNumber": 35,
    "prefecture": "山口県",
    "city": "宇部市",
    "town": "常藤町"
  },
  "7550022": {
    "zipcode": "7550022",
    "prefectureCode": "35",
    "prefectureNumber": 35,
    "prefecture": "山口県",
    "city": "宇部市",
    "town": "神原町"
  },
  "7550023": {
    "zipcode": "7550023",
    "prefectureCode": "35",
    "prefectureNumber": 35,
    "prefecture": "山口県",
    "city": "宇部市",
    "town": "恩田町"
  },
  "7550024": {
    "zipcode": "7550024",
    "prefectureCode": "35",
    "prefectureNumber": 35,
    "prefecture": "山口県",
    "city": "宇部市",
    "town": "野原"
  },
  "7550025": {
    "zipcode": "7550025",
    "prefectureCode": "35",
    "prefectureNumber": 35,
    "prefecture": "山口県",
    "city": "宇部市",
    "town": "野中"
  },
  "7550026": {
    "zipcode": "7550026",
    "prefectureCode": "35",
    "prefectureNumber": 35,
    "prefecture": "山口県",
    "city": "宇部市",
    "town": "松山町"
  },
  "7550027": {
    "zipcode": "7550027",
    "prefectureCode": "35",
    "prefectureNumber": 35,
    "prefecture": "山口県",
    "city": "宇部市",
    "town": "港町"
  },
  "7550028": {
    "zipcode": "7550028",
    "prefectureCode": "35",
    "prefectureNumber": 35,
    "prefecture": "山口県",
    "city": "宇部市",
    "town": "東本町"
  },
  "7550029": {
    "zipcode": "7550029",
    "prefectureCode": "35",
    "prefectureNumber": 35,
    "prefecture": "山口県",
    "city": "宇部市",
    "town": "新天町"
  },
  "7550031": {
    "zipcode": "7550031",
    "prefectureCode": "35",
    "prefectureNumber": 35,
    "prefecture": "山口県",
    "city": "宇部市",
    "town": "常盤町"
  },
  "7550032": {
    "zipcode": "7550032",
    "prefectureCode": "35",
    "prefectureNumber": 35,
    "prefecture": "山口県",
    "city": "宇部市",
    "town": "寿町"
  },
  "7550033": {
    "zipcode": "7550033",
    "prefectureCode": "35",
    "prefectureNumber": 35,
    "prefecture": "山口県",
    "city": "宇部市",
    "town": "琴芝町"
  },
  "7550034": {
    "zipcode": "7550034",
    "prefectureCode": "35",
    "prefectureNumber": 35,
    "prefecture": "山口県",
    "city": "宇部市",
    "town": "東琴芝"
  },
  "7550035": {
    "zipcode": "7550035",
    "prefectureCode": "35",
    "prefectureNumber": 35,
    "prefecture": "山口県",
    "city": "宇部市",
    "town": "西琴芝"
  },
  "7550036": {
    "zipcode": "7550036",
    "prefectureCode": "35",
    "prefectureNumber": 35,
    "prefecture": "山口県",
    "city": "宇部市",
    "town": "北琴芝"
  },
  "7550037": {
    "zipcode": "7550037",
    "prefectureCode": "35",
    "prefectureNumber": 35,
    "prefecture": "山口県",
    "city": "宇部市",
    "town": "西梶返"
  },
  "7550038": {
    "zipcode": "7550038",
    "prefectureCode": "35",
    "prefectureNumber": 35,
    "prefecture": "山口県",
    "city": "宇部市",
    "town": "海南町"
  },
  "7550039": {
    "zipcode": "7550039",
    "prefectureCode": "35",
    "prefectureNumber": 35,
    "prefecture": "山口県",
    "city": "宇部市",
    "town": "東梶返"
  },
  "7550041": {
    "zipcode": "7550041",
    "prefectureCode": "35",
    "prefectureNumber": 35,
    "prefecture": "山口県",
    "city": "宇部市",
    "town": "朝日町"
  },
  "7550042": {
    "zipcode": "7550042",
    "prefectureCode": "35",
    "prefectureNumber": 35,
    "prefecture": "山口県",
    "city": "宇部市",
    "town": "松島町"
  },
  "7550043": {
    "zipcode": "7550043",
    "prefectureCode": "35",
    "prefectureNumber": 35,
    "prefecture": "山口県",
    "city": "宇部市",
    "town": "相生町"
  },
  "7550044": {
    "zipcode": "7550044",
    "prefectureCode": "35",
    "prefectureNumber": 35,
    "prefecture": "山口県",
    "city": "宇部市",
    "town": "新町"
  },
  "7550045": {
    "zipcode": "7550045",
    "prefectureCode": "35",
    "prefectureNumber": 35,
    "prefecture": "山口県",
    "city": "宇部市",
    "town": "中央町"
  },
  "7550046": {
    "zipcode": "7550046",
    "prefectureCode": "35",
    "prefectureNumber": 35,
    "prefecture": "山口県",
    "city": "宇部市",
    "town": "南小串"
  },
  "7550047": {
    "zipcode": "7550047",
    "prefectureCode": "35",
    "prefectureNumber": 35,
    "prefecture": "山口県",
    "city": "宇部市",
    "town": "島"
  },
  "7550048": {
    "zipcode": "7550048",
    "prefectureCode": "35",
    "prefectureNumber": 35,
    "prefecture": "山口県",
    "city": "宇部市",
    "town": "下条"
  },
  "7550049": {
    "zipcode": "7550049",
    "prefectureCode": "35",
    "prefectureNumber": 35,
    "prefecture": "山口県",
    "city": "宇部市",
    "town": "西小串"
  },
  "7550051": {
    "zipcode": "7550051",
    "prefectureCode": "35",
    "prefectureNumber": 35,
    "prefecture": "山口県",
    "city": "宇部市",
    "town": "上町"
  },
  "7550052": {
    "zipcode": "7550052",
    "prefectureCode": "35",
    "prefectureNumber": 35,
    "prefecture": "山口県",
    "city": "宇部市",
    "town": "西本町"
  },
  "7550053": {
    "zipcode": "7550053",
    "prefectureCode": "35",
    "prefectureNumber": 35,
    "prefecture": "山口県",
    "city": "宇部市",
    "town": "西中町"
  },
  "7550054": {
    "zipcode": "7550054",
    "prefectureCode": "35",
    "prefectureNumber": 35,
    "prefecture": "山口県",
    "city": "宇部市",
    "town": "助田町"
  },
  "7550055": {
    "zipcode": "7550055",
    "prefectureCode": "35",
    "prefectureNumber": 35,
    "prefecture": "山口県",
    "city": "宇部市",
    "town": "居能町"
  },
  "7550056": {
    "zipcode": "7550056",
    "prefectureCode": "35",
    "prefectureNumber": 35,
    "prefecture": "山口県",
    "city": "宇部市",
    "town": "文京町"
  },
  "7550057": {
    "zipcode": "7550057",
    "prefectureCode": "35",
    "prefectureNumber": 35,
    "prefecture": "山口県",
    "city": "宇部市",
    "town": "藤曲"
  },
  "7550058": {
    "zipcode": "7550058",
    "prefectureCode": "35",
    "prefectureNumber": 35,
    "prefecture": "山口県",
    "city": "宇部市",
    "town": "中山"
  },
  "7550061": {
    "zipcode": "7550061",
    "prefectureCode": "35",
    "prefectureNumber": 35,
    "prefecture": "山口県",
    "city": "宇部市",
    "town": "若松町"
  },
  "7550062": {
    "zipcode": "7550062",
    "prefectureCode": "35",
    "prefectureNumber": 35,
    "prefecture": "山口県",
    "city": "宇部市",
    "town": "鵜の島町"
  },
  "7550063": {
    "zipcode": "7550063",
    "prefectureCode": "35",
    "prefectureNumber": 35,
    "prefecture": "山口県",
    "city": "宇部市",
    "town": "南浜町"
  },
  "7550064": {
    "zipcode": "7550064",
    "prefectureCode": "35",
    "prefectureNumber": 35,
    "prefecture": "山口県",
    "city": "宇部市",
    "town": "鍋倉町"
  },
  "7550065": {
    "zipcode": "7550065",
    "prefectureCode": "35",
    "prefectureNumber": 35,
    "prefecture": "山口県",
    "city": "宇部市",
    "town": "浜町"
  },
  "7550066": {
    "zipcode": "7550066",
    "prefectureCode": "35",
    "prefectureNumber": 35,
    "prefecture": "山口県",
    "city": "宇部市",
    "town": "小松原町"
  },
  "7550067": {
    "zipcode": "7550067",
    "prefectureCode": "35",
    "prefectureNumber": 35,
    "prefecture": "山口県",
    "city": "宇部市",
    "town": "小串"
  },
  "7550068": {
    "zipcode": "7550068",
    "prefectureCode": "35",
    "prefectureNumber": 35,
    "prefecture": "山口県",
    "city": "宇部市",
    "town": "東小串"
  },
  "7550069": {
    "zipcode": "7550069",
    "prefectureCode": "35",
    "prefectureNumber": 35,
    "prefecture": "山口県",
    "city": "宇部市",
    "town": "西桃山"
  },
  "7550071": {
    "zipcode": "7550071",
    "prefectureCode": "35",
    "prefectureNumber": 35,
    "prefecture": "山口県",
    "city": "宇部市",
    "town": "宮地町"
  },
  "7550072": {
    "zipcode": "7550072",
    "prefectureCode": "35",
    "prefectureNumber": 35,
    "prefecture": "山口県",
    "city": "宇部市",
    "town": "中村"
  },
  "7550073": {
    "zipcode": "7550073",
    "prefectureCode": "35",
    "prefectureNumber": 35,
    "prefecture": "山口県",
    "city": "宇部市",
    "town": "中尾"
  },
  "7550074": {
    "zipcode": "7550074",
    "prefectureCode": "35",
    "prefectureNumber": 35,
    "prefecture": "山口県",
    "city": "宇部市",
    "town": "川添"
  },
  "7550075": {
    "zipcode": "7550075",
    "prefectureCode": "35",
    "prefectureNumber": 35,
    "prefecture": "山口県",
    "city": "宇部市",
    "town": "琴崎町"
  },
  "7550076": {
    "zipcode": "7550076",
    "prefectureCode": "35",
    "prefectureNumber": 35,
    "prefecture": "山口県",
    "city": "宇部市",
    "town": "大小路"
  },
  "7550077": {
    "zipcode": "7550077",
    "prefectureCode": "35",
    "prefectureNumber": 35,
    "prefecture": "山口県",
    "city": "宇部市",
    "town": "山門"
  },
  "7550078": {
    "zipcode": "7550078",
    "prefectureCode": "35",
    "prefectureNumber": 35,
    "prefecture": "山口県",
    "city": "宇部市",
    "town": "寺の前町"
  },
  "7550081": {
    "zipcode": "7550081",
    "prefectureCode": "35",
    "prefectureNumber": 35,
    "prefecture": "山口県",
    "city": "宇部市",
    "town": "北小羽山町"
  },
  "7550082": {
    "zipcode": "7550082",
    "prefectureCode": "35",
    "prefectureNumber": 35,
    "prefecture": "山口県",
    "city": "宇部市",
    "town": "東小羽山町"
  },
  "7550083": {
    "zipcode": "7550083",
    "prefectureCode": "35",
    "prefectureNumber": 35,
    "prefecture": "山口県",
    "city": "宇部市",
    "town": "南小羽山町"
  },
  "7550084": {
    "zipcode": "7550084",
    "prefectureCode": "35",
    "prefectureNumber": 35,
    "prefecture": "山口県",
    "city": "宇部市",
    "town": "川上"
  },
  "7550085": {
    "zipcode": "7550085",
    "prefectureCode": "35",
    "prefectureNumber": 35,
    "prefecture": "山口県",
    "city": "宇部市",
    "town": "沼"
  },
  "7550086": {
    "zipcode": "7550086",
    "prefectureCode": "35",
    "prefectureNumber": 35,
    "prefecture": "山口県",
    "city": "宇部市",
    "town": "中宇部"
  },
  "7550091": {
    "zipcode": "7550091",
    "prefectureCode": "35",
    "prefectureNumber": 35,
    "prefecture": "山口県",
    "city": "宇部市",
    "town": "上宇部"
  },
  "7550092": {
    "zipcode": "7550092",
    "prefectureCode": "35",
    "prefectureNumber": 35,
    "prefecture": "山口県",
    "city": "宇部市",
    "town": "上野中町"
  },
  "7550093": {
    "zipcode": "7550093",
    "prefectureCode": "35",
    "prefectureNumber": 35,
    "prefecture": "山口県",
    "city": "宇部市",
    "town": "北迫新町"
  },
  "7550094": {
    "zipcode": "7550094",
    "prefectureCode": "35",
    "prefectureNumber": 35,
    "prefecture": "山口県",
    "city": "宇部市",
    "town": "ひらき台"
  },
  "7550095": {
    "zipcode": "7550095",
    "prefectureCode": "35",
    "prefectureNumber": 35,
    "prefecture": "山口県",
    "city": "宇部市",
    "town": "風呂ケ迫町"
  },
  "7550096": {
    "zipcode": "7550096",
    "prefectureCode": "35",
    "prefectureNumber": 35,
    "prefecture": "山口県",
    "city": "宇部市",
    "town": "開"
  },
  "7550097": {
    "zipcode": "7550097",
    "prefectureCode": "35",
    "prefectureNumber": 35,
    "prefecture": "山口県",
    "city": "宇部市",
    "town": "常盤台"
  },
  "7550151": {
    "zipcode": "7550151",
    "prefectureCode": "35",
    "prefectureNumber": 35,
    "prefecture": "山口県",
    "city": "宇部市",
    "town": "西岐波"
  },
  "7550152": {
    "zipcode": "7550152",
    "prefectureCode": "35",
    "prefectureNumber": 35,
    "prefecture": "山口県",
    "city": "宇部市",
    "town": "あすとぴあ"
  },
  "7550153": {
    "zipcode": "7550153",
    "prefectureCode": "35",
    "prefectureNumber": 35,
    "prefecture": "山口県",
    "city": "宇部市",
    "town": "床波"
  },
  "7550154": {
    "zipcode": "7550154",
    "prefectureCode": "35",
    "prefectureNumber": 35,
    "prefecture": "山口県",
    "city": "宇部市",
    "town": "今村南"
  },
  "7550155": {
    "zipcode": "7550155",
    "prefectureCode": "35",
    "prefectureNumber": 35,
    "prefecture": "山口県",
    "city": "宇部市",
    "town": "今村北"
  },
  "7550241": {
    "zipcode": "7550241",
    "prefectureCode": "35",
    "prefectureNumber": 35,
    "prefecture": "山口県",
    "city": "宇部市",
    "town": "東岐波"
  },
  "7550801": {
    "zipcode": "7550801",
    "prefectureCode": "35",
    "prefectureNumber": 35,
    "prefecture": "山口県",
    "city": "宇部市",
    "town": "上条"
  },
  "7550802": {
    "zipcode": "7550802",
    "prefectureCode": "35",
    "prefectureNumber": 35,
    "prefecture": "山口県",
    "city": "宇部市",
    "town": "北条"
  },
  "7550803": {
    "zipcode": "7550803",
    "prefectureCode": "35",
    "prefectureNumber": 35,
    "prefecture": "山口県",
    "city": "宇部市",
    "town": "東藤曲"
  },
  "7550804": {
    "zipcode": "7550804",
    "prefectureCode": "35",
    "prefectureNumber": 35,
    "prefecture": "山口県",
    "city": "宇部市",
    "town": "南中山町"
  },
  "7550805": {
    "zipcode": "7550805",
    "prefectureCode": "35",
    "prefectureNumber": 35,
    "prefecture": "山口県",
    "city": "宇部市",
    "town": "文京台"
  },
  "7550806": {
    "zipcode": "7550806",
    "prefectureCode": "35",
    "prefectureNumber": 35,
    "prefecture": "山口県",
    "city": "宇部市",
    "town": "浜田"
  },
  "7550807": {
    "zipcode": "7550807",
    "prefectureCode": "35",
    "prefectureNumber": 35,
    "prefecture": "山口県",
    "city": "宇部市",
    "town": "東平原"
  },
  "7550808": {
    "zipcode": "7550808",
    "prefectureCode": "35",
    "prefectureNumber": 35,
    "prefecture": "山口県",
    "city": "宇部市",
    "town": "西平原"
  },
  "7550809": {
    "zipcode": "7550809",
    "prefectureCode": "35",
    "prefectureNumber": 35,
    "prefecture": "山口県",
    "city": "宇部市",
    "town": "松崎町"
  },
  "7550810": {
    "zipcode": "7550810",
    "prefectureCode": "35",
    "prefectureNumber": 35,
    "prefecture": "山口県",
    "city": "宇部市",
    "town": "岩鼻町"
  }
}
