{
  "7560000": {
    "zipcode": "7560000",
    "prefectureCode": "35",
    "prefectureNumber": 35,
    "prefecture": "山口県",
    "city": "山陽小野田市",
    "town": "以下に掲載がない場合"
  },
  "7560001": {
    "zipcode": "7560001",
    "prefectureCode": "35",
    "prefectureNumber": 35,
    "prefecture": "山口県",
    "city": "山陽小野田市",
    "town": "大休"
  },
  "7560003": {
    "zipcode": "7560003",
    "prefectureCode": "35",
    "prefectureNumber": 35,
    "prefecture": "山口県",
    "city": "山陽小野田市",
    "town": "有帆新町"
  },
  "7560004": {
    "zipcode": "7560004",
    "prefectureCode": "35",
    "prefectureNumber": 35,
    "prefecture": "山口県",
    "city": "山陽小野田市",
    "town": "中里"
  },
  "7560005": {
    "zipcode": "7560005",
    "prefectureCode": "35",
    "prefectureNumber": 35,
    "prefecture": "山口県",
    "city": "山陽小野田市",
    "town": "中村"
  },
  "7560007": {
    "zipcode": "7560007",
    "prefectureCode": "35",
    "prefectureNumber": 35,
    "prefecture": "山口県",
    "city": "山陽小野田市",
    "town": "北真土郷"
  },
  "7560008": {
    "zipcode": "7560008",
    "prefectureCode": "35",
    "prefectureNumber": 35,
    "prefecture": "山口県",
    "city": "山陽小野田市",
    "town": "大休団地"
  },
  "7560009": {
    "zipcode": "7560009",
    "prefectureCode": "35",
    "prefectureNumber": 35,
    "prefecture": "山口県",
    "city": "山陽小野田市",
    "town": "有帆上町"
  },
  "7560010": {
    "zipcode": "7560010",
    "prefectureCode": "35",
    "prefectureNumber": 35,
    "prefecture": "山口県",
    "city": "山陽小野田市",
    "town": "新有帆町"
  },
  "7560011": {
    "zipcode": "7560011",
    "prefectureCode": "35",
    "prefectureNumber": 35,
    "prefecture": "山口県",
    "city": "山陽小野田市",
    "town": "共和台"
  },
  "7560012": {
    "zipcode": "7560012",
    "prefectureCode": "35",
    "prefectureNumber": 35,
    "prefecture": "山口県",
    "city": "山陽小野田市",
    "town": "角石"
  },
  "7560013": {
    "zipcode": "7560013",
    "prefectureCode": "35",
    "prefectureNumber": 35,
    "prefecture": "山口県",
    "city": "山陽小野田市",
    "town": "片山"
  },
  "7560014": {
    "zipcode": "7560014",
    "prefectureCode": "35",
    "prefectureNumber": 35,
    "prefecture": "山口県",
    "city": "山陽小野田市",
    "town": "彼岸田"
  },
  "7560015": {
    "zipcode": "7560015",
    "prefectureCode": "35",
    "prefectureNumber": 35,
    "prefecture": "山口県",
    "city": "山陽小野田市",
    "town": "ひがんだ団地"
  },
  "7560016": {
    "zipcode": "7560016",
    "prefectureCode": "35",
    "prefectureNumber": 35,
    "prefecture": "山口県",
    "city": "山陽小野田市",
    "town": "南平台"
  },
  "7560017": {
    "zipcode": "7560017",
    "prefectureCode": "35",
    "prefectureNumber": 35,
    "prefecture": "山口県",
    "city": "山陽小野田市",
    "town": "仁保の上"
  },
  "7560018": {
    "zipcode": "7560018",
    "prefectureCode": "35",
    "prefectureNumber": 35,
    "prefecture": "山口県",
    "city": "山陽小野田市",
    "town": "東町"
  },
  "7560019": {
    "zipcode": "7560019",
    "prefectureCode": "35",
    "prefectureNumber": 35,
    "prefecture": "山口県",
    "city": "山陽小野田市",
    "town": "南真土郷"
  },
  "7560021": {
    "zipcode": "7560021",
    "prefectureCode": "35",
    "prefectureNumber": 35,
    "prefecture": "山口県",
    "city": "山陽小野田市",
    "town": "高畑"
  },
  "7560022": {
    "zipcode": "7560022",
    "prefectureCode": "35",
    "prefectureNumber": 35,
    "prefecture": "山口県",
    "city": "山陽小野田市",
    "town": "千崎西"
  },
  "7560023": {
    "zipcode": "7560023",
    "prefectureCode": "35",
    "prefectureNumber": 35,
    "prefecture": "山口県",
    "city": "山陽小野田市",
    "town": "千崎東"
  },
  "7560024": {
    "zipcode": "7560024",
    "prefectureCode": "35",
    "prefectureNumber": 35,
    "prefecture": "山口県",
    "city": "山陽小野田市",
    "town": "萩森"
  },
  "7560025": {
    "zipcode": "7560025",
    "prefectureCode": "35",
    "prefectureNumber": 35,
    "prefecture": "山口県",
    "city": "山陽小野田市",
    "town": "烏帽子岩"
  },
  "7560026": {
    "zipcode": "7560026",
    "prefectureCode": "35",
    "prefectureNumber": 35,
    "prefecture": "山口県",
    "city": "山陽小野田市",
    "town": "烏帽子岩団地"
  },
  "7560027": {
    "zipcode": "7560027",
    "prefectureCode": "35",
    "prefectureNumber": 35,
    "prefecture": "山口県",
    "city": "山陽小野田市",
    "town": "烏帽子岩前"
  },
  "7560028": {
    "zipcode": "7560028",
    "prefectureCode": "35",
    "prefectureNumber": 35,
    "prefecture": "山口県",
    "city": "山陽小野田市",
    "town": "共和町"
  },
  "7560029": {
    "zipcode": "7560029",
    "prefectureCode": "35",
    "prefectureNumber": 35,
    "prefecture": "山口県",
    "city": "山陽小野田市",
    "town": "船越"
  },
  "7560030": {
    "zipcode": "7560030",
    "prefectureCode": "35",
    "prefectureNumber": 35,
    "prefecture": "山口県",
    "city": "山陽小野田市",
    "town": "青葉台"
  },
  "7560031": {
    "zipcode": "7560031",
    "prefectureCode": "35",
    "prefectureNumber": 35,
    "prefecture": "山口県",
    "city": "山陽小野田市",
    "town": "平和町"
  },
  "7560032": {
    "zipcode": "7560032",
    "prefectureCode": "35",
    "prefectureNumber": 35,
    "prefecture": "山口県",
    "city": "山陽小野田市",
    "town": "平生町"
  },
  "7560033": {
    "zipcode": "7560033",
    "prefectureCode": "35",
    "prefectureNumber": 35,
    "prefecture": "山口県",
    "city": "山陽小野田市",
    "town": "若草町"
  },
  "7560034": {
    "zipcode": "7560034",
    "prefectureCode": "35",
    "prefectureNumber": 35,
    "prefecture": "山口県",
    "city": "山陽小野田市",
    "town": "緑が丘"
  },
  "7560035": {
    "zipcode": "7560035",
    "prefectureCode": "35",
    "prefectureNumber": 35,
    "prefecture": "山口県",
    "city": "山陽小野田市",
    "town": "平原"
  },
  "7560036": {
    "zipcode": "7560036",
    "prefectureCode": "35",
    "prefectureNumber": 35,
    "prefecture": "山口県",
    "city": "山陽小野田市",
    "town": "大塚団地"
  },
  "7560037": {
    "zipcode": "7560037",
    "prefectureCode": "35",
    "prefectureNumber": 35,
    "prefecture": "山口県",
    "city": "山陽小野田市",
    "town": "小松尾"
  },
  "7560038": {
    "zipcode": "7560038",
    "prefectureCode": "35",
    "prefectureNumber": 35,
    "prefecture": "山口県",
    "city": "山陽小野田市",
    "town": "有帆"
  },
  "7560039": {
    "zipcode": "7560039",
    "prefectureCode": "35",
    "prefectureNumber": 35,
    "prefecture": "山口県",
    "city": "山陽小野田市",
    "town": "千崎"
  },
  "7560041": {
    "zipcode": "7560041",
    "prefectureCode": "35",
    "prefectureNumber": 35,
    "prefecture": "山口県",
    "city": "山陽小野田市",
    "town": "上の郷"
  },
  "7560042": {
    "zipcode": "7560042",
    "prefectureCode": "35",
    "prefectureNumber": 35,
    "prefecture": "山口県",
    "city": "山陽小野田市",
    "town": "大塚"
  },
  "7560043": {
    "zipcode": "7560043",
    "prefectureCode": "35",
    "prefectureNumber": 35,
    "prefecture": "山口県",
    "city": "山陽小野田市",
    "town": "浜"
  },
  "7560044": {
    "zipcode": "7560044",
    "prefectureCode": "35",
    "prefectureNumber": 35,
    "prefecture": "山口県",
    "city": "山陽小野田市",
    "town": "郷"
  },
  "7560045": {
    "zipcode": "7560045",
    "prefectureCode": "35",
    "prefectureNumber": 35,
    "prefecture": "山口県",
    "city": "山陽小野田市",
    "town": "南高泊"
  },
  "7560046": {
    "zipcode": "7560046",
    "prefectureCode": "35",
    "prefectureNumber": 35,
    "prefecture": "山口県",
    "city": "山陽小野田市",
    "town": "西の郷"
  },
  "7560047": {
    "zipcode": "7560047",
    "prefectureCode": "35",
    "prefectureNumber": 35,
    "prefecture": "山口県",
    "city": "山陽小野田市",
    "town": "高浜"
  },
  "7560048": {
    "zipcode": "7560048",
    "prefectureCode": "35",
    "prefectureNumber": 35,
    "prefecture": "山口県",
    "city": "山陽小野田市",
    "town": "後潟下"
  },
  "7560049": {
    "zipcode": "7560049",
    "prefectureCode": "35",
    "prefectureNumber": 35,
    "prefecture": "山口県",
    "city": "山陽小野田市",
    "town": "後潟上"
  },
  "7560051": {
    "zipcode": "7560051",
    "prefectureCode": "35",
    "prefectureNumber": 35,
    "prefecture": "山口県",
    "city": "山陽小野田市",
    "town": "杵築"
  },
  "7560052": {
    "zipcode": "7560052",
    "prefectureCode": "35",
    "prefectureNumber": 35,
    "prefecture": "山口県",
    "city": "山陽小野田市",
    "town": "浜田町"
  },
  "7560053": {
    "zipcode": "7560053",
    "prefectureCode": "35",
    "prefectureNumber": 35,
    "prefecture": "山口県",
    "city": "山陽小野田市",
    "town": "下木屋"
  },
  "7560054": {
    "zipcode": "7560054",
    "prefectureCode": "35",
    "prefectureNumber": 35,
    "prefecture": "山口県",
    "city": "山陽小野田市",
    "town": "旦東"
  },
  "7560055": {
    "zipcode": "7560055",
    "prefectureCode": "35",
    "prefectureNumber": 35,
    "prefecture": "山口県",
    "city": "山陽小野田市",
    "town": "旦西"
  },
  "7560056": {
    "zipcode": "7560056",
    "prefectureCode": "35",
    "prefectureNumber": 35,
    "prefecture": "山口県",
    "city": "山陽小野田市",
    "town": "上木屋"
  },
  "7560057": {
    "zipcode": "7560057",
    "prefectureCode": "35",
    "prefectureNumber": 35,
    "prefecture": "山口県",
    "city": "山陽小野田市",
    "town": "西高泊"
  },
  "7560060": {
    "zipcode": "7560060",
    "prefectureCode": "35",
    "prefectureNumber": 35,
    "prefecture": "山口県",
    "city": "山陽小野田市",
    "town": "高千帆"
  },
  "7560063": {
    "zipcode": "7560063",
    "prefectureCode": "35",
    "prefectureNumber": 35,
    "prefecture": "山口県",
    "city": "山陽小野田市",
    "town": "石井手"
  },
  "7560067": {
    "zipcode": "7560067",
    "prefectureCode": "35",
    "prefectureNumber": 35,
    "prefecture": "山口県",
    "city": "山陽小野田市",
    "town": "柿の木坂"
  },
  "7560071": {
    "zipcode": "7560071",
    "prefectureCode": "35",
    "prefectureNumber": 35,
    "prefecture": "山口県",
    "city": "山陽小野田市",
    "town": "目出文化町"
  },
  "7560072": {
    "zipcode": "7560072",
    "prefectureCode": "35",
    "prefectureNumber": 35,
    "prefecture": "山口県",
    "city": "山陽小野田市",
    "town": "目出緑町"
  },
  "7560073": {
    "zipcode": "7560073",
    "prefectureCode": "35",
    "prefectureNumber": 35,
    "prefecture": "山口県",
    "city": "山陽小野田市",
    "town": "目出幸町"
  },
  "7560074": {
    "zipcode": "7560074",
    "prefectureCode": "35",
    "prefectureNumber": 35,
    "prefecture": "山口県",
    "city": "山陽小野田市",
    "town": "目出湖畔町"
  },
  "7560075": {
    "zipcode": "7560075",
    "prefectureCode": "35",
    "prefectureNumber": 35,
    "prefecture": "山口県",
    "city": "山陽小野田市",
    "town": "亀の甲"
  },
  "7560076": {
    "zipcode": "7560076",
    "prefectureCode": "35",
    "prefectureNumber": 35,
    "prefecture": "山口県",
    "city": "山陽小野田市",
    "town": "目出"
  },
  "7560077": {
    "zipcode": "7560077",
    "prefectureCode": "35",
    "prefectureNumber": 35,
    "prefecture": "山口県",
    "city": "山陽小野田市",
    "town": "目出新町"
  },
  "7560080": {
    "zipcode": "7560080",
    "prefectureCode": "35",
    "prefectureNumber": 35,
    "prefecture": "山口県",
    "city": "山陽小野田市",
    "town": "くし山"
  },
  "7560086": {
    "zipcode": "7560086",
    "prefectureCode": "35",
    "prefectureNumber": 35,
    "prefecture": "山口県",
    "city": "山陽小野田市",
    "town": "神帆町"
  },
  "7560087": {
    "zipcode": "7560087",
    "prefectureCode": "35",
    "prefectureNumber": 35,
    "prefecture": "山口県",
    "city": "山陽小野田市",
    "town": "高須"
  },
  "7560088": {
    "zipcode": "7560088",
    "prefectureCode": "35",
    "prefectureNumber": 35,
    "prefecture": "山口県",
    "city": "山陽小野田市",
    "town": "東高泊"
  },
  "7560091": {
    "zipcode": "7560091",
    "prefectureCode": "35",
    "prefectureNumber": 35,
    "prefecture": "山口県",
    "city": "山陽小野田市",
    "town": "日の出"
  },
  "7560092": {
    "zipcode": "7560092",
    "prefectureCode": "35",
    "prefectureNumber": 35,
    "prefecture": "山口県",
    "city": "山陽小野田市",
    "town": "新生"
  },
  "7560093": {
    "zipcode": "7560093",
    "prefectureCode": "35",
    "prefectureNumber": 35,
    "prefecture": "山口県",
    "city": "山陽小野田市",
    "town": "日産"
  },
  "7560094": {
    "zipcode": "7560094",
    "prefectureCode": "35",
    "prefectureNumber": 35,
    "prefecture": "山口県",
    "city": "山陽小野田市",
    "town": "市立病院"
  },
  "7560095": {
    "zipcode": "7560095",
    "prefectureCode": "35",
    "prefectureNumber": 35,
    "prefecture": "山口県",
    "city": "山陽小野田市",
    "town": "労災病院"
  },
  "7560801": {
    "zipcode": "7560801",
    "prefectureCode": "35",
    "prefectureNumber": 35,
    "prefecture": "山口県",
    "city": "山陽小野田市",
    "town": "北栄町"
  },
  "7560802": {
    "zipcode": "7560802",
    "prefectureCode": "35",
    "prefectureNumber": 35,
    "prefecture": "山口県",
    "city": "山陽小野田市",
    "town": "栄町"
  },
  "7560803": {
    "zipcode": "7560803",
    "prefectureCode": "35",
    "prefectureNumber": 35,
    "prefecture": "山口県",
    "city": "山陽小野田市",
    "town": "南中川町"
  },
  "7560804": {
    "zipcode": "7560804",
    "prefectureCode": "35",
    "prefectureNumber": 35,
    "prefecture": "山口県",
    "city": "山陽小野田市",
    "town": "長寿園"
  },
  "7560805": {
    "zipcode": "7560805",
    "prefectureCode": "35",
    "prefectureNumber": 35,
    "prefecture": "山口県",
    "city": "山陽小野田市",
    "town": "自由ヶ丘"
  },
  "7560806": {
    "zipcode": "7560806",
    "prefectureCode": "35",
    "prefectureNumber": 35,
    "prefecture": "山口県",
    "city": "山陽小野田市",
    "town": "中川"
  },
  "7560807": {
    "zipcode": "7560807",
    "prefectureCode": "35",
    "prefectureNumber": 35,
    "prefecture": "山口県",
    "city": "山陽小野田市",
    "town": "硫酸町"
  },
  "7560808": {
    "zipcode": "7560808",
    "prefectureCode": "35",
    "prefectureNumber": 35,
    "prefecture": "山口県",
    "city": "山陽小野田市",
    "town": "旭町"
  },
  "7560809": {
    "zipcode": "7560809",
    "prefectureCode": "35",
    "prefectureNumber": 35,
    "prefecture": "山口県",
    "city": "山陽小野田市",
    "town": "横土手"
  },
  "7560811": {
    "zipcode": "7560811",
    "prefectureCode": "35",
    "prefectureNumber": 35,
    "prefecture": "山口県",
    "city": "山陽小野田市",
    "town": "稲荷町"
  },
  "7560812": {
    "zipcode": "7560812",
    "prefectureCode": "35",
    "prefectureNumber": 35,
    "prefecture": "山口県",
    "city": "山陽小野田市",
    "town": "小野山"
  },
  "7560813": {
    "zipcode": "7560813",
    "prefectureCode": "35",
    "prefectureNumber": 35,
    "prefecture": "山口県",
    "city": "山陽小野田市",
    "town": "住吉本町"
  },
  "7560814": {
    "zipcode": "7560814",
    "prefectureCode": "35",
    "prefectureNumber": 35,
    "prefecture": "山口県",
    "city": "山陽小野田市",
    "town": "千代町"
  },
  "7560815": {
    "zipcode": "7560815",
    "prefectureCode": "35",
    "prefectureNumber": 35,
    "prefecture": "山口県",
    "city": "山陽小野田市",
    "town": "高栄"
  },
  "7560816": {
    "zipcode": "7560816",
    "prefectureCode": "35",
    "prefectureNumber": 35,
    "prefecture": "山口県",
    "city": "山陽小野田市",
    "town": "西住吉町"
  },
  "7560817": {
    "zipcode": "7560817",
    "prefectureCode": "35",
    "prefectureNumber": 35,
    "prefecture": "山口県",
    "city": "山陽小野田市",
    "town": "小野田"
  },
  "7560821": {
    "zipcode": "7560821",
    "prefectureCode": "35",
    "prefectureNumber": 35,
    "prefecture": "山口県",
    "city": "山陽小野田市",
    "town": "丸河内"
  },
  "7560822": {
    "zipcode": "7560822",
    "prefectureCode": "35",
    "prefectureNumber": 35,
    "prefecture": "山口県",
    "city": "山陽小野田市",
    "town": "北若山"
  },
  "7560823": {
    "zipcode": "7560823",
    "prefectureCode": "35",
    "prefectureNumber": 35,
    "prefecture": "山口県",
    "city": "山陽小野田市",
    "town": "心和園"
  },
  "7560824": {
    "zipcode": "7560824",
    "prefectureCode": "35",
    "prefectureNumber": 35,
    "prefecture": "山口県",
    "city": "山陽小野田市",
    "town": "中央"
  },
  "7560825": {
    "zipcode": "7560825",
    "prefectureCode": "35",
    "prefectureNumber": 35,
    "prefecture": "山口県",
    "city": "山陽小野田市",
    "town": "東住吉町"
  },
  "7560831": {
    "zipcode": "7560831",
    "prefectureCode": "35",
    "prefectureNumber": 35,
    "prefecture": "山口県",
    "city": "山陽小野田市",
    "town": "南若山"
  },
  "7560832": {
    "zipcode": "7560832",
    "prefectureCode": "35",
    "prefectureNumber": 35,
    "prefecture": "山口県",
    "city": "山陽小野田市",
    "town": "南竜王町"
  },
  "7560833": {
    "zipcode": "7560833",
    "prefectureCode": "35",
    "prefectureNumber": 35,
    "prefecture": "山口県",
    "city": "山陽小野田市",
    "town": "北竜王町"
  },
  "7560834": {
    "zipcode": "7560834",
    "prefectureCode": "35",
    "prefectureNumber": 35,
    "prefecture": "山口県",
    "city": "山陽小野田市",
    "town": "港町"
  },
  "7560835": {
    "zipcode": "7560835",
    "prefectureCode": "35",
    "prefectureNumber": 35,
    "prefecture": "山口県",
    "city": "山陽小野田市",
    "town": "セメント町"
  },
  "7560836": {
    "zipcode": "7560836",
    "prefectureCode": "35",
    "prefectureNumber": 35,
    "prefecture": "山口県",
    "city": "山陽小野田市",
    "town": "須恵"
  },
  "7560837": {
    "zipcode": "7560837",
    "prefectureCode": "35",
    "prefectureNumber": 35,
    "prefecture": "山口県",
    "city": "山陽小野田市",
    "town": "平成町"
  },
  "7560841": {
    "zipcode": "7560841",
    "prefectureCode": "35",
    "prefectureNumber": 35,
    "prefecture": "山口県",
    "city": "山陽小野田市",
    "town": "赤崎"
  },
  "7560842": {
    "zipcode": "7560842",
    "prefectureCode": "35",
    "prefectureNumber": 35,
    "prefecture": "山口県",
    "city": "山陽小野田市",
    "town": "刈屋中村"
  },
  "7560843": {
    "zipcode": "7560843",
    "prefectureCode": "35",
    "prefectureNumber": 35,
    "prefecture": "山口県",
    "city": "山陽小野田市",
    "town": "刈屋上条"
  },
  "7560844": {
    "zipcode": "7560844",
    "prefectureCode": "35",
    "prefectureNumber": 35,
    "prefecture": "山口県",
    "city": "山陽小野田市",
    "town": "木戸大鼻"
  },
  "7560845": {
    "zipcode": "7560845",
    "prefectureCode": "35",
    "prefectureNumber": 35,
    "prefecture": "山口県",
    "city": "山陽小野田市",
    "town": "木戸中ノ町"
  },
  "7560846": {
    "zipcode": "7560846",
    "prefectureCode": "35",
    "prefectureNumber": 35,
    "prefecture": "山口県",
    "city": "山陽小野田市",
    "town": "木戸新町"
  },
  "7560847": {
    "zipcode": "7560847",
    "prefectureCode": "35",
    "prefectureNumber": 35,
    "prefecture": "山口県",
    "city": "山陽小野田市",
    "town": "新沖"
  },
  "7560848": {
    "zipcode": "7560848",
    "prefectureCode": "35",
    "prefectureNumber": 35,
    "prefecture": "山口県",
    "city": "山陽小野田市",
    "town": "刈屋西条"
  },
  "7560851": {
    "zipcode": "7560851",
    "prefectureCode": "35",
    "prefectureNumber": 35,
    "prefecture": "山口県",
    "city": "山陽小野田市",
    "town": "桜が丘"
  },
  "7560852": {
    "zipcode": "7560852",
    "prefectureCode": "35",
    "prefectureNumber": 35,
    "prefecture": "山口県",
    "city": "山陽小野田市",
    "town": "奥若山"
  },
  "7560853": {
    "zipcode": "7560853",
    "prefectureCode": "35",
    "prefectureNumber": 35,
    "prefecture": "山口県",
    "city": "山陽小野田市",
    "town": "野来見"
  },
  "7560854": {
    "zipcode": "7560854",
    "prefectureCode": "35",
    "prefectureNumber": 35,
    "prefecture": "山口県",
    "city": "山陽小野田市",
    "town": "叶松"
  },
  "7560855": {
    "zipcode": "7560855",
    "prefectureCode": "35",
    "prefectureNumber": 35,
    "prefecture": "山口県",
    "city": "山陽小野田市",
    "town": "えびす町"
  },
  "7560856": {
    "zipcode": "7560856",
    "prefectureCode": "35",
    "prefectureNumber": 35,
    "prefecture": "山口県",
    "city": "山陽小野田市",
    "town": "古開作"
  },
  "7560857": {
    "zipcode": "7560857",
    "prefectureCode": "35",
    "prefectureNumber": 35,
    "prefecture": "山口県",
    "city": "山陽小野田市",
    "town": "古開作団地"
  },
  "7560861": {
    "zipcode": "7560861",
    "prefectureCode": "35",
    "prefectureNumber": 35,
    "prefecture": "山口県",
    "city": "山陽小野田市",
    "town": "波瀬"
  },
  "7560862": {
    "zipcode": "7560862",
    "prefectureCode": "35",
    "prefectureNumber": 35,
    "prefecture": "山口県",
    "city": "山陽小野田市",
    "town": "須恵西"
  },
  "7560863": {
    "zipcode": "7560863",
    "prefectureCode": "35",
    "prefectureNumber": 35,
    "prefecture": "山口県",
    "city": "山陽小野田市",
    "town": "上の台"
  },
  "7560864": {
    "zipcode": "7560864",
    "prefectureCode": "35",
    "prefectureNumber": 35,
    "prefecture": "山口県",
    "city": "山陽小野田市",
    "town": "西が迫"
  },
  "7560865": {
    "zipcode": "7560865",
    "prefectureCode": "35",
    "prefectureNumber": 35,
    "prefecture": "山口県",
    "city": "山陽小野田市",
    "town": "田の尻"
  },
  "7560866": {
    "zipcode": "7560866",
    "prefectureCode": "35",
    "prefectureNumber": 35,
    "prefecture": "山口県",
    "city": "山陽小野田市",
    "town": "大浜"
  },
  "7560871": {
    "zipcode": "7560871",
    "prefectureCode": "35",
    "prefectureNumber": 35,
    "prefecture": "山口県",
    "city": "山陽小野田市",
    "town": "あさひが丘"
  },
  "7560872": {
    "zipcode": "7560872",
    "prefectureCode": "35",
    "prefectureNumber": 35,
    "prefecture": "山口県",
    "city": "山陽小野田市",
    "town": "浜河内"
  },
  "7560873": {
    "zipcode": "7560873",
    "prefectureCode": "35",
    "prefectureNumber": 35,
    "prefecture": "山口県",
    "city": "山陽小野田市",
    "town": "大須恵"
  },
  "7560874": {
    "zipcode": "7560874",
    "prefectureCode": "35",
    "prefectureNumber": 35,
    "prefecture": "山口県",
    "city": "山陽小野田市",
    "town": "本山町"
  },
  "7560875": {
    "zipcode": "7560875",
    "prefectureCode": "35",
    "prefectureNumber": 35,
    "prefecture": "山口県",
    "city": "山陽小野田市",
    "town": "南松浜"
  },
  "7560876": {
    "zipcode": "7560876",
    "prefectureCode": "35",
    "prefectureNumber": 35,
    "prefecture": "山口県",
    "city": "山陽小野田市",
    "town": "本山団地"
  },
  "7560877": {
    "zipcode": "7560877",
    "prefectureCode": "35",
    "prefectureNumber": 35,
    "prefecture": "山口県",
    "city": "山陽小野田市",
    "town": "松浜"
  },
  "7560878": {
    "zipcode": "7560878",
    "prefectureCode": "35",
    "prefectureNumber": 35,
    "prefecture": "山口県",
    "city": "山陽小野田市",
    "town": "松浜団地"
  },
  "7560881": {
    "zipcode": "7560881",
    "prefectureCode": "35",
    "prefectureNumber": 35,
    "prefecture": "山口県",
    "city": "山陽小野田市",
    "town": "笹尾東"
  },
  "7560882": {
    "zipcode": "7560882",
    "prefectureCode": "35",
    "prefectureNumber": 35,
    "prefecture": "山口県",
    "city": "山陽小野田市",
    "town": "須田ノ木"
  },
  "7560883": {
    "zipcode": "7560883",
    "prefectureCode": "35",
    "prefectureNumber": 35,
    "prefecture": "山口県",
    "city": "山陽小野田市",
    "town": "東須田の木"
  },
  "7560884": {
    "zipcode": "7560884",
    "prefectureCode": "35",
    "prefectureNumber": 35,
    "prefecture": "山口県",
    "city": "山陽小野田市",
    "town": "大学通"
  },
  "7560885": {
    "zipcode": "7560885",
    "prefectureCode": "35",
    "prefectureNumber": 35,
    "prefecture": "山口県",
    "city": "山陽小野田市",
    "town": "西沖"
  },
  "7560886": {
    "zipcode": "7560886",
    "prefectureCode": "35",
    "prefectureNumber": 35,
    "prefecture": "山口県",
    "city": "山陽小野田市",
    "town": "夏目"
  },
  "7560887": {
    "zipcode": "7560887",
    "prefectureCode": "35",
    "prefectureNumber": 35,
    "prefecture": "山口県",
    "city": "山陽小野田市",
    "town": "松角"
  },
  "7560888": {
    "zipcode": "7560888",
    "prefectureCode": "35",
    "prefectureNumber": 35,
    "prefecture": "山口県",
    "city": "山陽小野田市",
    "town": "笹尾西"
  },
  "7560889": {
    "zipcode": "7560889",
    "prefectureCode": "35",
    "prefectureNumber": 35,
    "prefecture": "山口県",
    "city": "山陽小野田市",
    "town": "須恵東"
  }
}
