{
  "7580000": {
    "zipcode": "7580000",
    "prefectureCode": "35",
    "prefectureNumber": 35,
    "prefecture": "山口県",
    "city": "萩市",
    "town": "以下に掲載がない場合"
  },
  "7580001": {
    "zipcode": "7580001",
    "prefectureCode": "35",
    "prefectureNumber": 35,
    "prefecture": "山口県",
    "city": "萩市",
    "town": "相島"
  },
  "7580002": {
    "zipcode": "7580002",
    "prefectureCode": "35",
    "prefectureNumber": 35,
    "prefecture": "山口県",
    "city": "萩市",
    "town": "櫃島"
  },
  "7580003": {
    "zipcode": "7580003",
    "prefectureCode": "35",
    "prefectureNumber": 35,
    "prefecture": "山口県",
    "city": "萩市",
    "town": "大島"
  },
  "7580004": {
    "zipcode": "7580004",
    "prefectureCode": "35",
    "prefectureNumber": 35,
    "prefecture": "山口県",
    "city": "萩市",
    "town": "肥島"
  },
  "7580011": {
    "zipcode": "7580011",
    "prefectureCode": "35",
    "prefectureNumber": 35,
    "prefecture": "山口県",
    "city": "萩市",
    "town": "椿東"
  },
  "7580021": {
    "zipcode": "7580021",
    "prefectureCode": "35",
    "prefectureNumber": 35,
    "prefecture": "山口県",
    "city": "萩市",
    "town": "今古萩町"
  },
  "7580022": {
    "zipcode": "7580022",
    "prefectureCode": "35",
    "prefectureNumber": 35,
    "prefecture": "山口県",
    "city": "萩市",
    "town": "浜崎町"
  },
  "7580023": {
    "zipcode": "7580023",
    "prefectureCode": "35",
    "prefectureNumber": 35,
    "prefecture": "山口県",
    "city": "萩市",
    "town": "浜崎新町"
  },
  "7580024": {
    "zipcode": "7580024",
    "prefectureCode": "35",
    "prefectureNumber": 35,
    "prefecture": "山口県",
    "city": "萩市",
    "town": "東浜崎町"
  },
  "7580025": {
    "zipcode": "7580025",
    "prefectureCode": "35",
    "prefectureNumber": 35,
    "prefecture": "山口県",
    "city": "萩市",
    "town": "土原"
  },
  "7580026": {
    "zipcode": "7580026",
    "prefectureCode": "35",
    "prefectureNumber": 35,
    "prefecture": "山口県",
    "city": "萩市",
    "town": "古萩町"
  },
  "7580027": {
    "zipcode": "7580027",
    "prefectureCode": "35",
    "prefectureNumber": 35,
    "prefecture": "山口県",
    "city": "萩市",
    "town": "吉田町"
  },
  "7580031": {
    "zipcode": "7580031",
    "prefectureCode": "35",
    "prefectureNumber": 35,
    "prefecture": "山口県",
    "city": "萩市",
    "town": "川島"
  },
  "7580032": {
    "zipcode": "7580032",
    "prefectureCode": "35",
    "prefectureNumber": 35,
    "prefecture": "山口県",
    "city": "萩市",
    "town": "北古萩町"
  },
  "7580033": {
    "zipcode": "7580033",
    "prefectureCode": "35",
    "prefectureNumber": 35,
    "prefecture": "山口県",
    "city": "萩市",
    "town": "恵美須町"
  },
  "7580034": {
    "zipcode": "7580034",
    "prefectureCode": "35",
    "prefectureNumber": 35,
    "prefecture": "山口県",
    "city": "萩市",
    "town": "熊谷町"
  },
  "7580035": {
    "zipcode": "7580035",
    "prefectureCode": "35",
    "prefectureNumber": 35,
    "prefecture": "山口県",
    "city": "萩市",
    "town": "細工町"
  },
  "7580036": {
    "zipcode": "7580036",
    "prefectureCode": "35",
    "prefectureNumber": 35,
    "prefecture": "山口県",
    "city": "萩市",
    "town": "塩屋町"
  },
  "7580037": {
    "zipcode": "7580037",
    "prefectureCode": "35",
    "prefectureNumber": 35,
    "prefecture": "山口県",
    "city": "萩市",
    "town": "津守町"
  },
  "7580041": {
    "zipcode": "7580041",
    "prefectureCode": "35",
    "prefectureNumber": 35,
    "prefecture": "山口県",
    "city": "萩市",
    "town": "江向"
  },
  "7580042": {
    "zipcode": "7580042",
    "prefectureCode": "35",
    "prefectureNumber": 35,
    "prefecture": "山口県",
    "city": "萩市",
    "town": "御許町"
  },
  "7580043": {
    "zipcode": "7580043",
    "prefectureCode": "35",
    "prefectureNumber": 35,
    "prefecture": "山口県",
    "city": "萩市",
    "town": "下五間町"
  },
  "7580044": {
    "zipcode": "7580044",
    "prefectureCode": "35",
    "prefectureNumber": 35,
    "prefecture": "山口県",
    "city": "萩市",
    "town": "唐樋町"
  },
  "7580045": {
    "zipcode": "7580045",
    "prefectureCode": "35",
    "prefectureNumber": 35,
    "prefecture": "山口県",
    "city": "萩市",
    "town": "米屋町"
  },
  "7580046": {
    "zipcode": "7580046",
    "prefectureCode": "35",
    "prefectureNumber": 35,
    "prefecture": "山口県",
    "city": "萩市",
    "town": "西田町"
  },
  "7580047": {
    "zipcode": "7580047",
    "prefectureCode": "35",
    "prefectureNumber": 35,
    "prefecture": "山口県",
    "city": "萩市",
    "town": "東田町"
  },
  "7580051": {
    "zipcode": "7580051",
    "prefectureCode": "35",
    "prefectureNumber": 35,
    "prefecture": "山口県",
    "city": "萩市",
    "town": "油屋町"
  },
  "7580052": {
    "zipcode": "7580052",
    "prefectureCode": "35",
    "prefectureNumber": 35,
    "prefecture": "山口県",
    "city": "萩市",
    "town": "今魚店町"
  },
  "7580053": {
    "zipcode": "7580053",
    "prefectureCode": "35",
    "prefectureNumber": 35,
    "prefecture": "山口県",
    "city": "萩市",
    "town": "北片河町"
  },
  "7580054": {
    "zipcode": "7580054",
    "prefectureCode": "35",
    "prefectureNumber": 35,
    "prefecture": "山口県",
    "city": "萩市",
    "town": "樽屋町"
  },
  "7580055": {
    "zipcode": "7580055",
    "prefectureCode": "35",
    "prefectureNumber": 35,
    "prefecture": "山口県",
    "city": "萩市",
    "town": "春若町"
  },
  "7580056": {
    "zipcode": "7580056",
    "prefectureCode": "35",
    "prefectureNumber": 35,
    "prefecture": "山口県",
    "city": "萩市",
    "town": "古魚店町"
  },
  "7580057": {
    "zipcode": "7580057",
    "prefectureCode": "35",
    "prefectureNumber": 35,
    "prefecture": "山口県",
    "city": "萩市",
    "town": "堀内"
  },
  "7580061": {
    "zipcode": "7580061",
    "prefectureCode": "35",
    "prefectureNumber": 35,
    "prefecture": "山口県",
    "city": "萩市",
    "town": "椿"
  },
  "7580062": {
    "zipcode": "7580062",
    "prefectureCode": "35",
    "prefectureNumber": 35,
    "prefecture": "山口県",
    "city": "萩市",
    "town": "橋本町"
  },
  "7580063": {
    "zipcode": "7580063",
    "prefectureCode": "35",
    "prefectureNumber": 35,
    "prefecture": "山口県",
    "city": "萩市",
    "town": "山田"
  },
  "7580071": {
    "zipcode": "7580071",
    "prefectureCode": "35",
    "prefectureNumber": 35,
    "prefecture": "山口県",
    "city": "萩市",
    "town": "瓦町"
  },
  "7580072": {
    "zipcode": "7580072",
    "prefectureCode": "35",
    "prefectureNumber": 35,
    "prefecture": "山口県",
    "city": "萩市",
    "town": "呉服町"
  },
  "7580073": {
    "zipcode": "7580073",
    "prefectureCode": "35",
    "prefectureNumber": 35,
    "prefecture": "山口県",
    "city": "萩市",
    "town": "河添"
  },
  "7580074": {
    "zipcode": "7580074",
    "prefectureCode": "35",
    "prefectureNumber": 35,
    "prefecture": "山口県",
    "city": "萩市",
    "town": "平安古町"
  },
  "7580076": {
    "zipcode": "7580076",
    "prefectureCode": "35",
    "prefectureNumber": 35,
    "prefecture": "山口県",
    "city": "萩市",
    "town": "南片河町"
  },
  "7580077": {
    "zipcode": "7580077",
    "prefectureCode": "35",
    "prefectureNumber": 35,
    "prefecture": "山口県",
    "city": "萩市",
    "town": "南古萩町"
  },
  "7580141": {
    "zipcode": "7580141",
    "prefectureCode": "35",
    "prefectureNumber": 35,
    "prefecture": "山口県",
    "city": "萩市",
    "town": "川上"
  },
  "7580211": {
    "zipcode": "7580211",
    "prefectureCode": "35",
    "prefectureNumber": 35,
    "prefecture": "山口県",
    "city": "萩市",
    "town": "福井上"
  },
  "7580212": {
    "zipcode": "7580212",
    "prefectureCode": "35",
    "prefectureNumber": 35,
    "prefecture": "山口県",
    "city": "萩市",
    "town": "福井下"
  },
  "7580213": {
    "zipcode": "7580213",
    "prefectureCode": "35",
    "prefectureNumber": 35,
    "prefecture": "山口県",
    "city": "萩市",
    "town": "黒川"
  },
  "7580301": {
    "zipcode": "7580301",
    "prefectureCode": "35",
    "prefectureNumber": 35,
    "prefecture": "山口県",
    "city": "萩市",
    "town": "片俣"
  },
  "7580302": {
    "zipcode": "7580302",
    "prefectureCode": "35",
    "prefectureNumber": 35,
    "prefecture": "山口県",
    "city": "萩市",
    "town": "高佐上"
  },
  "7580303": {
    "zipcode": "7580303",
    "prefectureCode": "35",
    "prefectureNumber": 35,
    "prefecture": "山口県",
    "city": "萩市",
    "town": "高佐下"
  },
  "7580304": {
    "zipcode": "7580304",
    "prefectureCode": "35",
    "prefectureNumber": 35,
    "prefecture": "山口県",
    "city": "萩市",
    "town": "吉部上"
  },
  "7580305": {
    "zipcode": "7580305",
    "prefectureCode": "35",
    "prefectureNumber": 35,
    "prefecture": "山口県",
    "city": "萩市",
    "town": "吉部下"
  },
  "7580501": {
    "zipcode": "7580501",
    "prefectureCode": "35",
    "prefectureNumber": 35,
    "prefecture": "山口県",
    "city": "萩市",
    "town": "紫福"
  },
  "7580611": {
    "zipcode": "7580611",
    "prefectureCode": "35",
    "prefectureNumber": 35,
    "prefecture": "山口県",
    "city": "阿武郡阿武町",
    "town": "福田下"
  },
  "7580612": {
    "zipcode": "7580612",
    "prefectureCode": "35",
    "prefectureNumber": 35,
    "prefecture": "山口県",
    "city": "阿武郡阿武町",
    "town": "福田上"
  },
  "7580613": {
    "zipcode": "7580613",
    "prefectureCode": "35",
    "prefectureNumber": 35,
    "prefecture": "山口県",
    "city": "阿武郡阿武町",
    "town": "宇生賀"
  },
  "7580701": {
    "zipcode": "7580701",
    "prefectureCode": "35",
    "prefectureNumber": 35,
    "prefecture": "山口県",
    "city": "萩市",
    "town": "見島"
  }
}
