{
  "7590121": {
    "zipcode": "7590121",
    "prefectureCode": "35",
    "prefectureNumber": 35,
    "prefecture": "山口県",
    "city": "宇部市",
    "town": "棚井"
  },
  "7590122": {
    "zipcode": "7590122",
    "prefectureCode": "35",
    "prefectureNumber": 35,
    "prefecture": "山口県",
    "city": "宇部市",
    "town": "吉見"
  },
  "7590123": {
    "zipcode": "7590123",
    "prefectureCode": "35",
    "prefectureNumber": 35,
    "prefecture": "山口県",
    "city": "宇部市",
    "town": "末信"
  },
  "7590124": {
    "zipcode": "7590124",
    "prefectureCode": "35",
    "prefectureNumber": 35,
    "prefecture": "山口県",
    "city": "宇部市",
    "town": "広瀬"
  },
  "7590131": {
    "zipcode": "7590131",
    "prefectureCode": "35",
    "prefectureNumber": 35,
    "prefecture": "山口県",
    "city": "宇部市",
    "town": "荒瀬"
  },
  "7590132": {
    "zipcode": "7590132",
    "prefectureCode": "35",
    "prefectureNumber": 35,
    "prefecture": "山口県",
    "city": "宇部市",
    "town": "山中"
  },
  "7590133": {
    "zipcode": "7590133",
    "prefectureCode": "35",
    "prefectureNumber": 35,
    "prefecture": "山口県",
    "city": "宇部市",
    "town": "車地"
  },
  "7590134": {
    "zipcode": "7590134",
    "prefectureCode": "35",
    "prefectureNumber": 35,
    "prefecture": "山口県",
    "city": "宇部市",
    "town": "善和"
  },
  "7590135": {
    "zipcode": "7590135",
    "prefectureCode": "35",
    "prefectureNumber": 35,
    "prefecture": "山口県",
    "city": "宇部市",
    "town": "瓜生野"
  },
  "7590136": {
    "zipcode": "7590136",
    "prefectureCode": "35",
    "prefectureNumber": 35,
    "prefecture": "山口県",
    "city": "宇部市",
    "town": "木田"
  },
  "7590201": {
    "zipcode": "7590201",
    "prefectureCode": "35",
    "prefectureNumber": 35,
    "prefecture": "山口県",
    "city": "宇部市",
    "town": "山の手町"
  },
  "7590202": {
    "zipcode": "7590202",
    "prefectureCode": "35",
    "prefectureNumber": 35,
    "prefecture": "山口県",
    "city": "宇部市",
    "town": "沖ノ旦"
  },
  "7590203": {
    "zipcode": "7590203",
    "prefectureCode": "35",
    "prefectureNumber": 35,
    "prefecture": "山口県",
    "city": "宇部市",
    "town": "中野開作"
  },
  "7590204": {
    "zipcode": "7590204",
    "prefectureCode": "35",
    "prefectureNumber": 35,
    "prefecture": "山口県",
    "city": "宇部市",
    "town": "妻崎開作"
  },
  "7590205": {
    "zipcode": "7590205",
    "prefectureCode": "35",
    "prefectureNumber": 35,
    "prefecture": "山口県",
    "city": "宇部市",
    "town": "西沖の山"
  },
  "7590206": {
    "zipcode": "7590206",
    "prefectureCode": "35",
    "prefectureNumber": 35,
    "prefecture": "山口県",
    "city": "宇部市",
    "town": "東須恵"
  },
  "7590207": {
    "zipcode": "7590207",
    "prefectureCode": "35",
    "prefectureNumber": 35,
    "prefecture": "山口県",
    "city": "宇部市",
    "town": "際波"
  },
  "7590208": {
    "zipcode": "7590208",
    "prefectureCode": "35",
    "prefectureNumber": 35,
    "prefecture": "山口県",
    "city": "宇部市",
    "town": "西宇部南"
  },
  "7590209": {
    "zipcode": "7590209",
    "prefectureCode": "35",
    "prefectureNumber": 35,
    "prefecture": "山口県",
    "city": "宇部市",
    "town": "厚南北"
  },
  "7590211": {
    "zipcode": "7590211",
    "prefectureCode": "35",
    "prefectureNumber": 35,
    "prefecture": "山口県",
    "city": "宇部市",
    "town": "西宇部北"
  },
  "7590212": {
    "zipcode": "7590212",
    "prefectureCode": "35",
    "prefectureNumber": 35,
    "prefecture": "山口県",
    "city": "宇部市",
    "town": "厚南中央"
  },
  "7590213": {
    "zipcode": "7590213",
    "prefectureCode": "35",
    "prefectureNumber": 35,
    "prefecture": "山口県",
    "city": "宇部市",
    "town": "黒石北"
  },
  "7591231": {
    "zipcode": "7591231",
    "prefectureCode": "35",
    "prefectureNumber": 35,
    "prefecture": "山口県",
    "city": "山口市",
    "town": "阿東生雲東分"
  },
  "7591232": {
    "zipcode": "7591232",
    "prefectureCode": "35",
    "prefectureNumber": 35,
    "prefecture": "山口県",
    "city": "山口市",
    "town": "阿東篠目"
  },
  "7591341": {
    "zipcode": "7591341",
    "prefectureCode": "35",
    "prefectureNumber": 35,
    "prefecture": "山口県",
    "city": "山口市",
    "town": "阿東生雲西分"
  },
  "7591342": {
    "zipcode": "7591342",
    "prefectureCode": "35",
    "prefectureNumber": 35,
    "prefecture": "山口県",
    "city": "山口市",
    "town": "阿東生雲中"
  },
  "7591343": {
    "zipcode": "7591343",
    "prefectureCode": "35",
    "prefectureNumber": 35,
    "prefecture": "山口県",
    "city": "山口市",
    "town": "阿東蔵目喜"
  },
  "7591421": {
    "zipcode": "7591421",
    "prefectureCode": "35",
    "prefectureNumber": 35,
    "prefecture": "山口県",
    "city": "山口市",
    "town": "阿東地福上"
  },
  "7591422": {
    "zipcode": "7591422",
    "prefectureCode": "35",
    "prefectureNumber": 35,
    "prefecture": "山口県",
    "city": "山口市",
    "town": "阿東地福下"
  },
  "7591511": {
    "zipcode": "7591511",
    "prefectureCode": "35",
    "prefectureNumber": 35,
    "prefecture": "山口県",
    "city": "山口市",
    "town": "阿東徳佐上"
  },
  "7591512": {
    "zipcode": "7591512",
    "prefectureCode": "35",
    "prefectureNumber": 35,
    "prefecture": "山口県",
    "city": "山口市",
    "town": "阿東徳佐中"
  },
  "7591513": {
    "zipcode": "7591513",
    "prefectureCode": "35",
    "prefectureNumber": 35,
    "prefecture": "山口県",
    "city": "山口市",
    "town": "阿東徳佐下"
  },
  "7591601": {
    "zipcode": "7591601",
    "prefectureCode": "35",
    "prefectureNumber": 35,
    "prefecture": "山口県",
    "city": "山口市",
    "town": "阿東嘉年上"
  },
  "7591602": {
    "zipcode": "7591602",
    "prefectureCode": "35",
    "prefectureNumber": 35,
    "prefecture": "山口県",
    "city": "山口市",
    "town": "阿東嘉年下"
  },
  "7592131": {
    "zipcode": "7592131",
    "prefectureCode": "35",
    "prefectureNumber": 35,
    "prefecture": "山口県",
    "city": "美祢市",
    "town": "伊佐町堀越"
  },
  "7592141": {
    "zipcode": "7592141",
    "prefectureCode": "35",
    "prefectureNumber": 35,
    "prefecture": "山口県",
    "city": "美祢市",
    "town": "東厚保町山中"
  },
  "7592142": {
    "zipcode": "7592142",
    "prefectureCode": "35",
    "prefectureNumber": 35,
    "prefecture": "山口県",
    "city": "美祢市",
    "town": "東厚保町川東"
  },
  "7592151": {
    "zipcode": "7592151",
    "prefectureCode": "35",
    "prefectureNumber": 35,
    "prefecture": "山口県",
    "city": "美祢市",
    "town": "西厚保町本郷"
  },
  "7592152": {
    "zipcode": "7592152",
    "prefectureCode": "35",
    "prefectureNumber": 35,
    "prefecture": "山口県",
    "city": "美祢市",
    "town": "西厚保町原"
  },
  "7592200": {
    "zipcode": "7592200",
    "prefectureCode": "35",
    "prefectureNumber": 35,
    "prefecture": "山口県",
    "city": "美祢市",
    "town": "以下に掲載がない場合"
  },
  "7592211": {
    "zipcode": "7592211",
    "prefectureCode": "35",
    "prefectureNumber": 35,
    "prefecture": "山口県",
    "city": "美祢市",
    "town": "大嶺町北分"
  },
  "7592212": {
    "zipcode": "7592212",
    "prefectureCode": "35",
    "prefectureNumber": 35,
    "prefecture": "山口県",
    "city": "美祢市",
    "town": "大嶺町東分"
  },
  "7592213": {
    "zipcode": "7592213",
    "prefectureCode": "35",
    "prefectureNumber": 35,
    "prefecture": "山口県",
    "city": "美祢市",
    "town": "大嶺町西分"
  },
  "7592214": {
    "zipcode": "7592214",
    "prefectureCode": "35",
    "prefectureNumber": 35,
    "prefecture": "山口県",
    "city": "美祢市",
    "town": "大嶺町奥分"
  },
  "7592221": {
    "zipcode": "7592221",
    "prefectureCode": "35",
    "prefectureNumber": 35,
    "prefecture": "山口県",
    "city": "美祢市",
    "town": "伊佐町河原"
  },
  "7592222": {
    "zipcode": "7592222",
    "prefectureCode": "35",
    "prefectureNumber": 35,
    "prefecture": "山口県",
    "city": "美祢市",
    "town": "伊佐町伊佐"
  },
  "7592223": {
    "zipcode": "7592223",
    "prefectureCode": "35",
    "prefectureNumber": 35,
    "prefecture": "山口県",
    "city": "美祢市",
    "town": "伊佐町奥万倉"
  },
  "7592301": {
    "zipcode": "7592301",
    "prefectureCode": "35",
    "prefectureNumber": 35,
    "prefecture": "山口県",
    "city": "美祢市",
    "town": "於福町上（駅前、岡田、上田代、栗ケ原、下田代、神柳、大明、立石、西寺、平野、古屋、宗済、横道、竜現地）"
  },
  "7592302": {
    "zipcode": "7592302",
    "prefectureCode": "35",
    "prefectureNumber": 35,
    "prefecture": "山口県",
    "city": "美祢市",
    "town": "於福町下（入水、榎田、金山、小杉、砂地、台、西畑、萩原、東中村、平国木、緑ケ丘、宮の前）"
  },
  "7593111": {
    "zipcode": "7593111",
    "prefectureCode": "35",
    "prefectureNumber": 35,
    "prefecture": "山口県",
    "city": "萩市",
    "town": "上田万"
  },
  "7593112": {
    "zipcode": "7593112",
    "prefectureCode": "35",
    "prefectureNumber": 35,
    "prefecture": "山口県",
    "city": "萩市",
    "town": "下田万"
  },
  "7593113": {
    "zipcode": "7593113",
    "prefectureCode": "35",
    "prefectureNumber": 35,
    "prefecture": "山口県",
    "city": "萩市",
    "town": "江崎"
  },
  "7593201": {
    "zipcode": "7593201",
    "prefectureCode": "35",
    "prefectureNumber": 35,
    "prefecture": "山口県",
    "city": "萩市",
    "town": "上小川西分"
  },
  "7593202": {
    "zipcode": "7593202",
    "prefectureCode": "35",
    "prefectureNumber": 35,
    "prefecture": "山口県",
    "city": "萩市",
    "town": "上小川東分"
  },
  "7593203": {
    "zipcode": "7593203",
    "prefectureCode": "35",
    "prefectureNumber": 35,
    "prefecture": "山口県",
    "city": "萩市",
    "town": "中小川"
  },
  "7593204": {
    "zipcode": "7593204",
    "prefectureCode": "35",
    "prefectureNumber": 35,
    "prefecture": "山口県",
    "city": "萩市",
    "town": "下小川"
  },
  "7593301": {
    "zipcode": "7593301",
    "prefectureCode": "35",
    "prefectureNumber": 35,
    "prefecture": "山口県",
    "city": "萩市",
    "town": "弥富上"
  },
  "7593302": {
    "zipcode": "7593302",
    "prefectureCode": "35",
    "prefectureNumber": 35,
    "prefecture": "山口県",
    "city": "萩市",
    "town": "弥富下"
  },
  "7593303": {
    "zipcode": "7593303",
    "prefectureCode": "35",
    "prefectureNumber": 35,
    "prefecture": "山口県",
    "city": "萩市",
    "town": "鈴野川"
  },
  "7593411": {
    "zipcode": "7593411",
    "prefectureCode": "35",
    "prefectureNumber": 35,
    "prefecture": "山口県",
    "city": "萩市",
    "town": "須佐"
  },
  "7593501": {
    "zipcode": "7593501",
    "prefectureCode": "35",
    "prefectureNumber": 35,
    "prefecture": "山口県",
    "city": "阿武郡阿武町",
    "town": "宇田"
  },
  "7593502": {
    "zipcode": "7593502",
    "prefectureCode": "35",
    "prefectureNumber": 35,
    "prefecture": "山口県",
    "city": "阿武郡阿武町",
    "town": "惣郷"
  },
  "7593600": {
    "zipcode": "7593600",
    "prefectureCode": "35",
    "prefectureNumber": 35,
    "prefecture": "山口県",
    "city": "阿武郡阿武町",
    "town": "以下に掲載がない場合"
  },
  "7593611": {
    "zipcode": "7593611",
    "prefectureCode": "35",
    "prefectureNumber": 35,
    "prefecture": "山口県",
    "city": "萩市",
    "town": "大井"
  },
  "7593621": {
    "zipcode": "7593621",
    "prefectureCode": "35",
    "prefectureNumber": 35,
    "prefecture": "山口県",
    "city": "阿武郡阿武町",
    "town": "木与"
  },
  "7593622": {
    "zipcode": "7593622",
    "prefectureCode": "35",
    "prefectureNumber": 35,
    "prefecture": "山口県",
    "city": "阿武郡阿武町",
    "town": "奈古"
  },
  "7593721": {
    "zipcode": "7593721",
    "prefectureCode": "35",
    "prefectureNumber": 35,
    "prefecture": "山口県",
    "city": "萩市",
    "town": "三見"
  },
  "7593801": {
    "zipcode": "7593801",
    "prefectureCode": "35",
    "prefectureNumber": 35,
    "prefecture": "山口県",
    "city": "長門市",
    "town": "三隅上"
  },
  "7593802": {
    "zipcode": "7593802",
    "prefectureCode": "35",
    "prefectureNumber": 35,
    "prefecture": "山口県",
    "city": "長門市",
    "town": "三隅中"
  },
  "7593803": {
    "zipcode": "7593803",
    "prefectureCode": "35",
    "prefectureNumber": 35,
    "prefecture": "山口県",
    "city": "長門市",
    "town": "三隅下"
  },
  "7594100": {
    "zipcode": "7594100",
    "prefectureCode": "35",
    "prefectureNumber": 35,
    "prefecture": "山口県",
    "city": "長門市",
    "town": "以下に掲載がない場合"
  },
  "7594101": {
    "zipcode": "7594101",
    "prefectureCode": "35",
    "prefectureNumber": 35,
    "prefecture": "山口県",
    "city": "長門市",
    "town": "東深川"
  },
  "7594102": {
    "zipcode": "7594102",
    "prefectureCode": "35",
    "prefectureNumber": 35,
    "prefecture": "山口県",
    "city": "長門市",
    "town": "西深川"
  },
  "7594103": {
    "zipcode": "7594103",
    "prefectureCode": "35",
    "prefectureNumber": 35,
    "prefecture": "山口県",
    "city": "長門市",
    "town": "深川湯本"
  },
  "7594104": {
    "zipcode": "7594104",
    "prefectureCode": "35",
    "prefectureNumber": 35,
    "prefecture": "山口県",
    "city": "長門市",
    "town": "渋木"
  },
  "7594105": {
    "zipcode": "7594105",
    "prefectureCode": "35",
    "prefectureNumber": 35,
    "prefecture": "山口県",
    "city": "長門市",
    "town": "真木"
  },
  "7594106": {
    "zipcode": "7594106",
    "prefectureCode": "35",
    "prefectureNumber": 35,
    "prefecture": "山口県",
    "city": "長門市",
    "town": "仙崎"
  },
  "7594107": {
    "zipcode": "7594107",
    "prefectureCode": "35",
    "prefectureNumber": 35,
    "prefecture": "山口県",
    "city": "長門市",
    "town": "通"
  },
  "7594211": {
    "zipcode": "7594211",
    "prefectureCode": "35",
    "prefectureNumber": 35,
    "prefecture": "山口県",
    "city": "長門市",
    "town": "俵山"
  },
  "7594401": {
    "zipcode": "7594401",
    "prefectureCode": "35",
    "prefectureNumber": 35,
    "prefecture": "山口県",
    "city": "長門市",
    "town": "日置上"
  },
  "7594402": {
    "zipcode": "7594402",
    "prefectureCode": "35",
    "prefectureNumber": 35,
    "prefecture": "山口県",
    "city": "長門市",
    "town": "日置中"
  },
  "7594403": {
    "zipcode": "7594403",
    "prefectureCode": "35",
    "prefectureNumber": 35,
    "prefecture": "山口県",
    "city": "長門市",
    "town": "日置下"
  },
  "7594404": {
    "zipcode": "7594404",
    "prefectureCode": "35",
    "prefectureNumber": 35,
    "prefecture": "山口県",
    "city": "長門市",
    "town": "日置野田"
  },
  "7594405": {
    "zipcode": "7594405",
    "prefectureCode": "35",
    "prefectureNumber": 35,
    "prefecture": "山口県",
    "city": "長門市",
    "town": "日置蔵小田"
  },
  "7594501": {
    "zipcode": "7594501",
    "prefectureCode": "35",
    "prefectureNumber": 35,
    "prefecture": "山口県",
    "city": "長門市",
    "town": "油谷蔵小田"
  },
  "7594502": {
    "zipcode": "7594502",
    "prefectureCode": "35",
    "prefectureNumber": 35,
    "prefecture": "山口県",
    "city": "長門市",
    "town": "油谷久富"
  },
  "7594503": {
    "zipcode": "7594503",
    "prefectureCode": "35",
    "prefectureNumber": 35,
    "prefecture": "山口県",
    "city": "長門市",
    "town": "油谷新別名"
  },
  "7594504": {
    "zipcode": "7594504",
    "prefectureCode": "35",
    "prefectureNumber": 35,
    "prefecture": "山口県",
    "city": "長門市",
    "town": "油谷河原"
  },
  "7594505": {
    "zipcode": "7594505",
    "prefectureCode": "35",
    "prefectureNumber": 35,
    "prefecture": "山口県",
    "city": "長門市",
    "town": "油谷伊上"
  },
  "7594621": {
    "zipcode": "7594621",
    "prefectureCode": "35",
    "prefectureNumber": 35,
    "prefecture": "山口県",
    "city": "長門市",
    "town": "油谷川尻"
  },
  "7594622": {
    "zipcode": "7594622",
    "prefectureCode": "35",
    "prefectureNumber": 35,
    "prefecture": "山口県",
    "city": "長門市",
    "town": "油谷向津具上"
  },
  "7594623": {
    "zipcode": "7594623",
    "prefectureCode": "35",
    "prefectureNumber": 35,
    "prefecture": "山口県",
    "city": "長門市",
    "town": "油谷向津具下（久津）"
  },
  "7594711": {
    "zipcode": "7594711",
    "prefectureCode": "35",
    "prefectureNumber": 35,
    "prefecture": "山口県",
    "city": "長門市",
    "town": "油谷後畑"
  },
  "7594712": {
    "zipcode": "7594712",
    "prefectureCode": "35",
    "prefectureNumber": 35,
    "prefecture": "山口県",
    "city": "長門市",
    "town": "油谷津黄"
  },
  "7594713": {
    "zipcode": "7594713",
    "prefectureCode": "35",
    "prefectureNumber": 35,
    "prefecture": "山口県",
    "city": "長門市",
    "town": "油谷角山"
  },
  "7595101": {
    "zipcode": "7595101",
    "prefectureCode": "35",
    "prefectureNumber": 35,
    "prefecture": "山口県",
    "city": "下関市",
    "town": "豊北町粟野"
  },
  "7595241": {
    "zipcode": "7595241",
    "prefectureCode": "35",
    "prefectureNumber": 35,
    "prefecture": "山口県",
    "city": "下関市",
    "town": "豊北町阿川"
  },
  "7595331": {
    "zipcode": "7595331",
    "prefectureCode": "35",
    "prefectureNumber": 35,
    "prefecture": "山口県",
    "city": "下関市",
    "town": "豊北町神田"
  },
  "7595332": {
    "zipcode": "7595332",
    "prefectureCode": "35",
    "prefectureNumber": 35,
    "prefecture": "山口県",
    "city": "下関市",
    "town": "豊北町角島"
  },
  "7595511": {
    "zipcode": "7595511",
    "prefectureCode": "35",
    "prefectureNumber": 35,
    "prefecture": "山口県",
    "city": "下関市",
    "town": "豊北町滝部"
  },
  "7595512": {
    "zipcode": "7595512",
    "prefectureCode": "35",
    "prefectureNumber": 35,
    "prefecture": "山口県",
    "city": "下関市",
    "town": "豊北町田耕"
  },
  "7595513": {
    "zipcode": "7595513",
    "prefectureCode": "35",
    "prefectureNumber": 35,
    "prefecture": "山口県",
    "city": "下関市",
    "town": "豊北町北宇賀"
  },
  "7596121": {
    "zipcode": "7596121",
    "prefectureCode": "35",
    "prefectureNumber": 35,
    "prefecture": "山口県",
    "city": "下関市",
    "town": "豊北町神田上（その他）"
  },
  "7596122": {
    "zipcode": "7596122",
    "prefectureCode": "35",
    "prefectureNumber": 35,
    "prefecture": "山口県",
    "city": "下関市",
    "town": "豊北町矢玉"
  },
  "7596301": {
    "zipcode": "7596301",
    "prefectureCode": "35",
    "prefectureNumber": 35,
    "prefecture": "山口県",
    "city": "下関市",
    "town": "豊浦町川棚"
  },
  "7596302": {
    "zipcode": "7596302",
    "prefectureCode": "35",
    "prefectureNumber": 35,
    "prefecture": "山口県",
    "city": "下関市",
    "town": "豊浦町小串"
  },
  "7596303": {
    "zipcode": "7596303",
    "prefectureCode": "35",
    "prefectureNumber": 35,
    "prefecture": "山口県",
    "city": "下関市",
    "town": "豊浦町宇賀"
  },
  "7596311": {
    "zipcode": "7596311",
    "prefectureCode": "35",
    "prefectureNumber": 35,
    "prefecture": "山口県",
    "city": "下関市",
    "town": "豊浦町吉永"
  },
  "7596312": {
    "zipcode": "7596312",
    "prefectureCode": "35",
    "prefectureNumber": 35,
    "prefecture": "山口県",
    "city": "下関市",
    "town": "豊浦町黒井"
  },
  "7596313": {
    "zipcode": "7596313",
    "prefectureCode": "35",
    "prefectureNumber": 35,
    "prefecture": "山口県",
    "city": "下関市",
    "town": "豊浦町豊洋台新町"
  },
  "7596314": {
    "zipcode": "7596314",
    "prefectureCode": "35",
    "prefectureNumber": 35,
    "prefecture": "山口県",
    "city": "下関市",
    "town": "豊浦町厚母郷"
  },
  "7596315": {
    "zipcode": "7596315",
    "prefectureCode": "35",
    "prefectureNumber": 35,
    "prefecture": "山口県",
    "city": "下関市",
    "town": "豊浦町室津上"
  },
  "7596316": {
    "zipcode": "7596316",
    "prefectureCode": "35",
    "prefectureNumber": 35,
    "prefecture": "山口県",
    "city": "下関市",
    "town": "豊浦町室津下"
  },
  "7596317": {
    "zipcode": "7596317",
    "prefectureCode": "35",
    "prefectureNumber": 35,
    "prefecture": "山口県",
    "city": "下関市",
    "town": "豊浦町涌田後地"
  },
  "7596521": {
    "zipcode": "7596521",
    "prefectureCode": "35",
    "prefectureNumber": 35,
    "prefecture": "山口県",
    "city": "下関市",
    "town": "吉見古宿町"
  },
  "7596522": {
    "zipcode": "7596522",
    "prefectureCode": "35",
    "prefectureNumber": 35,
    "prefecture": "山口県",
    "city": "下関市",
    "town": "吉見竜王町"
  },
  "7596523": {
    "zipcode": "7596523",
    "prefectureCode": "35",
    "prefectureNumber": 35,
    "prefecture": "山口県",
    "city": "下関市",
    "town": "吉見下"
  },
  "7596524": {
    "zipcode": "7596524",
    "prefectureCode": "35",
    "prefectureNumber": 35,
    "prefecture": "山口県",
    "city": "下関市",
    "town": "吉見上"
  },
  "7596525": {
    "zipcode": "7596525",
    "prefectureCode": "35",
    "prefectureNumber": 35,
    "prefecture": "山口県",
    "city": "下関市",
    "town": "吉見里町"
  },
  "7596531": {
    "zipcode": "7596531",
    "prefectureCode": "35",
    "prefectureNumber": 35,
    "prefecture": "山口県",
    "city": "下関市",
    "town": "吉見本町"
  },
  "7596532": {
    "zipcode": "7596532",
    "prefectureCode": "35",
    "prefectureNumber": 35,
    "prefecture": "山口県",
    "city": "下関市",
    "town": "吉見新町"
  },
  "7596533": {
    "zipcode": "7596533",
    "prefectureCode": "35",
    "prefectureNumber": 35,
    "prefecture": "山口県",
    "city": "下関市",
    "town": "永田本町"
  },
  "7596534": {
    "zipcode": "7596534",
    "prefectureCode": "35",
    "prefectureNumber": 35,
    "prefecture": "山口県",
    "city": "下関市",
    "town": "永田郷"
  },
  "7596541": {
    "zipcode": "7596541",
    "prefectureCode": "35",
    "prefectureNumber": 35,
    "prefecture": "山口県",
    "city": "下関市",
    "town": "吉母"
  },
  "7596542": {
    "zipcode": "7596542",
    "prefectureCode": "35",
    "prefectureNumber": 35,
    "prefecture": "山口県",
    "city": "下関市",
    "town": "蓋井島"
  },
  "7596601": {
    "zipcode": "7596601",
    "prefectureCode": "35",
    "prefectureNumber": 35,
    "prefecture": "山口県",
    "city": "下関市",
    "town": "福江"
  },
  "7596602": {
    "zipcode": "7596602",
    "prefectureCode": "35",
    "prefectureNumber": 35,
    "prefecture": "山口県",
    "city": "下関市",
    "town": "蒲生野"
  },
  "7596603": {
    "zipcode": "7596603",
    "prefectureCode": "35",
    "prefectureNumber": 35,
    "prefecture": "山口県",
    "city": "下関市",
    "town": "安岡町"
  },
  "7596604": {
    "zipcode": "7596604",
    "prefectureCode": "35",
    "prefectureNumber": 35,
    "prefecture": "山口県",
    "city": "下関市",
    "town": "横野町"
  },
  "7596605": {
    "zipcode": "7596605",
    "prefectureCode": "35",
    "prefectureNumber": 35,
    "prefecture": "山口県",
    "city": "下関市",
    "town": "安岡"
  },
  "7596611": {
    "zipcode": "7596611",
    "prefectureCode": "35",
    "prefectureNumber": 35,
    "prefecture": "山口県",
    "city": "下関市",
    "town": "安岡本町"
  },
  "7596612": {
    "zipcode": "7596612",
    "prefectureCode": "35",
    "prefectureNumber": 35,
    "prefecture": "山口県",
    "city": "下関市",
    "town": "安岡駅前"
  },
  "7596613": {
    "zipcode": "7596613",
    "prefectureCode": "35",
    "prefectureNumber": 35,
    "prefecture": "山口県",
    "city": "下関市",
    "town": "富任町"
  },
  "7596614": {
    "zipcode": "7596614",
    "prefectureCode": "35",
    "prefectureNumber": 35,
    "prefecture": "山口県",
    "city": "下関市",
    "town": "梶栗町"
  },
  "7596615": {
    "zipcode": "7596615",
    "prefectureCode": "35",
    "prefectureNumber": 35,
    "prefecture": "山口県",
    "city": "下関市",
    "town": "冨任"
  }
}
