{
  "7610101": {
    "zipcode": "7610101",
    "prefectureCode": "37",
    "prefectureNumber": 37,
    "prefecture": "香川県",
    "city": "高松市",
    "town": "春日町"
  },
  "7610102": {
    "zipcode": "7610102",
    "prefectureCode": "37",
    "prefectureNumber": 37,
    "prefecture": "香川県",
    "city": "高松市",
    "town": "新田町甲"
  },
  "7610103": {
    "zipcode": "7610103",
    "prefectureCode": "37",
    "prefectureNumber": 37,
    "prefecture": "香川県",
    "city": "高松市",
    "town": "新田町乙"
  },
  "7610104": {
    "zipcode": "7610104",
    "prefectureCode": "37",
    "prefectureNumber": 37,
    "prefecture": "香川県",
    "city": "高松市",
    "town": "高松町"
  },
  "7610111": {
    "zipcode": "7610111",
    "prefectureCode": "37",
    "prefectureNumber": 37,
    "prefecture": "香川県",
    "city": "高松市",
    "town": "屋島東町"
  },
  "7610112": {
    "zipcode": "7610112",
    "prefectureCode": "37",
    "prefectureNumber": 37,
    "prefecture": "香川県",
    "city": "高松市",
    "town": "屋島中町"
  },
  "7610113": {
    "zipcode": "7610113",
    "prefectureCode": "37",
    "prefectureNumber": 37,
    "prefecture": "香川県",
    "city": "高松市",
    "town": "屋島西町"
  },
  "7610121": {
    "zipcode": "7610121",
    "prefectureCode": "37",
    "prefectureNumber": 37,
    "prefecture": "香川県",
    "city": "高松市",
    "town": "牟礼町牟礼"
  },
  "7610122": {
    "zipcode": "7610122",
    "prefectureCode": "37",
    "prefectureNumber": 37,
    "prefecture": "香川県",
    "city": "高松市",
    "town": "牟礼町大町"
  },
  "7610123": {
    "zipcode": "7610123",
    "prefectureCode": "37",
    "prefectureNumber": 37,
    "prefecture": "香川県",
    "city": "高松市",
    "town": "牟礼町原"
  },
  "7610130": {
    "zipcode": "7610130",
    "prefectureCode": "37",
    "prefectureNumber": 37,
    "prefecture": "香川県",
    "city": "高松市",
    "town": "庵治町"
  },
  "7610301": {
    "zipcode": "7610301",
    "prefectureCode": "37",
    "prefectureNumber": 37,
    "prefecture": "香川県",
    "city": "高松市",
    "town": "林町"
  },
  "7610302": {
    "zipcode": "7610302",
    "prefectureCode": "37",
    "prefectureNumber": 37,
    "prefecture": "香川県",
    "city": "高松市",
    "town": "上林町"
  },
  "7610303": {
    "zipcode": "7610303",
    "prefectureCode": "37",
    "prefectureNumber": 37,
    "prefecture": "香川県",
    "city": "高松市",
    "town": "六条町"
  },
  "7610311": {
    "zipcode": "7610311",
    "prefectureCode": "37",
    "prefectureNumber": 37,
    "prefecture": "香川県",
    "city": "高松市",
    "town": "元山町"
  },
  "7610312": {
    "zipcode": "7610312",
    "prefectureCode": "37",
    "prefectureNumber": 37,
    "prefecture": "香川県",
    "city": "高松市",
    "town": "東山崎町"
  },
  "7610313": {
    "zipcode": "7610313",
    "prefectureCode": "37",
    "prefectureNumber": 37,
    "prefecture": "香川県",
    "city": "高松市",
    "town": "下田井町"
  },
  "7610321": {
    "zipcode": "7610321",
    "prefectureCode": "37",
    "prefectureNumber": 37,
    "prefecture": "香川県",
    "city": "高松市",
    "town": "前田西町"
  },
  "7610322": {
    "zipcode": "7610322",
    "prefectureCode": "37",
    "prefectureNumber": 37,
    "prefecture": "香川県",
    "city": "高松市",
    "town": "前田東町"
  },
  "7610323": {
    "zipcode": "7610323",
    "prefectureCode": "37",
    "prefectureNumber": 37,
    "prefecture": "香川県",
    "city": "高松市",
    "town": "亀田町"
  },
  "7610431": {
    "zipcode": "7610431",
    "prefectureCode": "37",
    "prefectureNumber": 37,
    "prefecture": "香川県",
    "city": "高松市",
    "town": "小村町"
  },
  "7610432": {
    "zipcode": "7610432",
    "prefectureCode": "37",
    "prefectureNumber": 37,
    "prefecture": "香川県",
    "city": "高松市",
    "town": "亀田南町"
  },
  "7610433": {
    "zipcode": "7610433",
    "prefectureCode": "37",
    "prefectureNumber": 37,
    "prefecture": "香川県",
    "city": "高松市",
    "town": "十川西町"
  },
  "7610434": {
    "zipcode": "7610434",
    "prefectureCode": "37",
    "prefectureNumber": 37,
    "prefecture": "香川県",
    "city": "高松市",
    "town": "十川東町"
  },
  "7610441": {
    "zipcode": "7610441",
    "prefectureCode": "37",
    "prefectureNumber": 37,
    "prefecture": "香川県",
    "city": "高松市",
    "town": "由良町"
  },
  "7610442": {
    "zipcode": "7610442",
    "prefectureCode": "37",
    "prefectureNumber": 37,
    "prefecture": "香川県",
    "city": "高松市",
    "town": "川島本町"
  },
  "7610443": {
    "zipcode": "7610443",
    "prefectureCode": "37",
    "prefectureNumber": 37,
    "prefecture": "香川県",
    "city": "高松市",
    "town": "川島東町"
  },
  "7610444": {
    "zipcode": "7610444",
    "prefectureCode": "37",
    "prefectureNumber": 37,
    "prefecture": "香川県",
    "city": "高松市",
    "town": "池田町"
  },
  "7610445": {
    "zipcode": "7610445",
    "prefectureCode": "37",
    "prefectureNumber": 37,
    "prefecture": "香川県",
    "city": "高松市",
    "town": "西植田町"
  },
  "7610446": {
    "zipcode": "7610446",
    "prefectureCode": "37",
    "prefectureNumber": 37,
    "prefecture": "香川県",
    "city": "高松市",
    "town": "東植田町"
  },
  "7610450": {
    "zipcode": "7610450",
    "prefectureCode": "37",
    "prefectureNumber": 37,
    "prefecture": "香川県",
    "city": "高松市",
    "town": "三谷町"
  },
  "7610611": {
    "zipcode": "7610611",
    "prefectureCode": "37",
    "prefectureNumber": 37,
    "prefecture": "香川県",
    "city": "木田郡三木町",
    "town": "田中"
  },
  "7610612": {
    "zipcode": "7610612",
    "prefectureCode": "37",
    "prefectureNumber": 37,
    "prefecture": "香川県",
    "city": "木田郡三木町",
    "town": "氷上"
  },
  "7610613": {
    "zipcode": "7610613",
    "prefectureCode": "37",
    "prefectureNumber": 37,
    "prefecture": "香川県",
    "city": "木田郡三木町",
    "town": "上高岡"
  },
  "7610614": {
    "zipcode": "7610614",
    "prefectureCode": "37",
    "prefectureNumber": 37,
    "prefecture": "香川県",
    "city": "木田郡三木町",
    "town": "朝倉"
  },
  "7610615": {
    "zipcode": "7610615",
    "prefectureCode": "37",
    "prefectureNumber": 37,
    "prefecture": "香川県",
    "city": "木田郡三木町",
    "town": "小蓑"
  },
  "7610700": {
    "zipcode": "7610700",
    "prefectureCode": "37",
    "prefectureNumber": 37,
    "prefecture": "香川県",
    "city": "木田郡三木町",
    "town": "以下に掲載がない場合"
  },
  "7610701": {
    "zipcode": "7610701",
    "prefectureCode": "37",
    "prefectureNumber": 37,
    "prefecture": "香川県",
    "city": "木田郡三木町",
    "town": "池戸"
  },
  "7610702": {
    "zipcode": "7610702",
    "prefectureCode": "37",
    "prefectureNumber": 37,
    "prefecture": "香川県",
    "city": "木田郡三木町",
    "town": "平木"
  },
  "7610703": {
    "zipcode": "7610703",
    "prefectureCode": "37",
    "prefectureNumber": 37,
    "prefecture": "香川県",
    "city": "木田郡三木町",
    "town": "鹿伏"
  },
  "7610704": {
    "zipcode": "7610704",
    "prefectureCode": "37",
    "prefectureNumber": 37,
    "prefecture": "香川県",
    "city": "木田郡三木町",
    "town": "下高岡"
  },
  "7610705": {
    "zipcode": "7610705",
    "prefectureCode": "37",
    "prefectureNumber": 37,
    "prefecture": "香川県",
    "city": "木田郡三木町",
    "town": "井上"
  },
  "7610821": {
    "zipcode": "7610821",
    "prefectureCode": "37",
    "prefectureNumber": 37,
    "prefecture": "香川県",
    "city": "木田郡三木町",
    "town": "鹿庭"
  },
  "7610822": {
    "zipcode": "7610822",
    "prefectureCode": "37",
    "prefectureNumber": 37,
    "prefecture": "香川県",
    "city": "木田郡三木町",
    "town": "奥山"
  },
  "7610823": {
    "zipcode": "7610823",
    "prefectureCode": "37",
    "prefectureNumber": 37,
    "prefecture": "香川県",
    "city": "木田郡三木町",
    "town": "井戸"
  },
  "7610901": {
    "zipcode": "7610901",
    "prefectureCode": "37",
    "prefectureNumber": 37,
    "prefecture": "香川県",
    "city": "さぬき市",
    "town": "大川町富田西"
  },
  "7610902": {
    "zipcode": "7610902",
    "prefectureCode": "37",
    "prefectureNumber": 37,
    "prefecture": "香川県",
    "city": "さぬき市",
    "town": "大川町富田中"
  },
  "7610903": {
    "zipcode": "7610903",
    "prefectureCode": "37",
    "prefectureNumber": 37,
    "prefecture": "香川県",
    "city": "さぬき市",
    "town": "大川町富田東"
  },
  "7610904": {
    "zipcode": "7610904",
    "prefectureCode": "37",
    "prefectureNumber": 37,
    "prefecture": "香川県",
    "city": "さぬき市",
    "town": "大川町田面"
  },
  "7610905": {
    "zipcode": "7610905",
    "prefectureCode": "37",
    "prefectureNumber": 37,
    "prefecture": "香川県",
    "city": "さぬき市",
    "town": "大川町南川"
  },
  "7611401": {
    "zipcode": "7611401",
    "prefectureCode": "37",
    "prefectureNumber": 37,
    "prefecture": "香川県",
    "city": "高松市",
    "town": "香南町岡"
  },
  "7611402": {
    "zipcode": "7611402",
    "prefectureCode": "37",
    "prefectureNumber": 37,
    "prefecture": "香川県",
    "city": "高松市",
    "town": "香南町由佐"
  },
  "7611403": {
    "zipcode": "7611403",
    "prefectureCode": "37",
    "prefectureNumber": 37,
    "prefecture": "香川県",
    "city": "高松市",
    "town": "香南町吉光"
  },
  "7611404": {
    "zipcode": "7611404",
    "prefectureCode": "37",
    "prefectureNumber": 37,
    "prefecture": "香川県",
    "city": "高松市",
    "town": "香南町横井"
  },
  "7611405": {
    "zipcode": "7611405",
    "prefectureCode": "37",
    "prefectureNumber": 37,
    "prefecture": "香川県",
    "city": "高松市",
    "town": "香南町池内"
  },
  "7611406": {
    "zipcode": "7611406",
    "prefectureCode": "37",
    "prefectureNumber": 37,
    "prefecture": "香川県",
    "city": "高松市",
    "town": "香南町西庄"
  },
  "7611501": {
    "zipcode": "7611501",
    "prefectureCode": "37",
    "prefectureNumber": 37,
    "prefecture": "香川県",
    "city": "高松市",
    "town": "塩江町安原下（第１号）"
  },
  "7611502": {
    "zipcode": "7611502",
    "prefectureCode": "37",
    "prefectureNumber": 37,
    "prefecture": "香川県",
    "city": "高松市",
    "town": "塩江町安原下（第２号）"
  },
  "7611503": {
    "zipcode": "7611503",
    "prefectureCode": "37",
    "prefectureNumber": 37,
    "prefecture": "香川県",
    "city": "高松市",
    "town": "塩江町安原下（第３号）"
  },
  "7611504": {
    "zipcode": "7611504",
    "prefectureCode": "37",
    "prefectureNumber": 37,
    "prefecture": "香川県",
    "city": "高松市",
    "town": "塩江町安原下（その他）"
  },
  "7611611": {
    "zipcode": "7611611",
    "prefectureCode": "37",
    "prefectureNumber": 37,
    "prefecture": "香川県",
    "city": "高松市",
    "town": "塩江町安原上"
  },
  "7611612": {
    "zipcode": "7611612",
    "prefectureCode": "37",
    "prefectureNumber": 37,
    "prefecture": "香川県",
    "city": "高松市",
    "town": "塩江町安原上東"
  },
  "7611613": {
    "zipcode": "7611613",
    "prefectureCode": "37",
    "prefectureNumber": 37,
    "prefecture": "香川県",
    "city": "高松市",
    "town": "塩江町上西甲"
  },
  "7611614": {
    "zipcode": "7611614",
    "prefectureCode": "37",
    "prefectureNumber": 37,
    "prefecture": "香川県",
    "city": "高松市",
    "town": "塩江町上西乙"
  },
  "7611615": {
    "zipcode": "7611615",
    "prefectureCode": "37",
    "prefectureNumber": 37,
    "prefecture": "香川県",
    "city": "高松市",
    "town": "塩江町安原下（炭谷）"
  },
  "7611616": {
    "zipcode": "7611616",
    "prefectureCode": "37",
    "prefectureNumber": 37,
    "prefecture": "香川県",
    "city": "高松市",
    "town": "菅沢町"
  },
  "7611701": {
    "zipcode": "7611701",
    "prefectureCode": "37",
    "prefectureNumber": 37,
    "prefecture": "香川県",
    "city": "高松市",
    "town": "香川町大野"
  },
  "7611702": {
    "zipcode": "7611702",
    "prefectureCode": "37",
    "prefectureNumber": 37,
    "prefecture": "香川県",
    "city": "高松市",
    "town": "香川町寺井"
  },
  "7611703": {
    "zipcode": "7611703",
    "prefectureCode": "37",
    "prefectureNumber": 37,
    "prefecture": "香川県",
    "city": "高松市",
    "town": "香川町浅野"
  },
  "7611704": {
    "zipcode": "7611704",
    "prefectureCode": "37",
    "prefectureNumber": 37,
    "prefecture": "香川県",
    "city": "高松市",
    "town": "香川町川内原"
  },
  "7611705": {
    "zipcode": "7611705",
    "prefectureCode": "37",
    "prefectureNumber": 37,
    "prefecture": "香川県",
    "city": "高松市",
    "town": "香川町川東下"
  },
  "7611706": {
    "zipcode": "7611706",
    "prefectureCode": "37",
    "prefectureNumber": 37,
    "prefecture": "香川県",
    "city": "高松市",
    "town": "香川町川東上"
  },
  "7611707": {
    "zipcode": "7611707",
    "prefectureCode": "37",
    "prefectureNumber": 37,
    "prefecture": "香川県",
    "city": "高松市",
    "town": "香川町東谷"
  },
  "7611708": {
    "zipcode": "7611708",
    "prefectureCode": "37",
    "prefectureNumber": 37,
    "prefecture": "香川県",
    "city": "高松市",
    "town": "香川町安原下"
  },
  "7612101": {
    "zipcode": "7612101",
    "prefectureCode": "37",
    "prefectureNumber": 37,
    "prefecture": "香川県",
    "city": "綾歌郡綾川町",
    "town": "畑田"
  },
  "7612102": {
    "zipcode": "7612102",
    "prefectureCode": "37",
    "prefectureNumber": 37,
    "prefecture": "香川県",
    "city": "綾歌郡綾川町",
    "town": "千疋"
  },
  "7612103": {
    "zipcode": "7612103",
    "prefectureCode": "37",
    "prefectureNumber": 37,
    "prefecture": "香川県",
    "city": "綾歌郡綾川町",
    "town": "陶"
  },
  "7612201": {
    "zipcode": "7612201",
    "prefectureCode": "37",
    "prefectureNumber": 37,
    "prefecture": "香川県",
    "city": "綾歌郡綾川町",
    "town": "枌所東"
  },
  "7612202": {
    "zipcode": "7612202",
    "prefectureCode": "37",
    "prefectureNumber": 37,
    "prefecture": "香川県",
    "city": "綾歌郡綾川町",
    "town": "枌所西"
  },
  "7612203": {
    "zipcode": "7612203",
    "prefectureCode": "37",
    "prefectureNumber": 37,
    "prefecture": "香川県",
    "city": "綾歌郡綾川町",
    "town": "山田上"
  },
  "7612204": {
    "zipcode": "7612204",
    "prefectureCode": "37",
    "prefectureNumber": 37,
    "prefecture": "香川県",
    "city": "綾歌郡綾川町",
    "town": "山田下"
  },
  "7612205": {
    "zipcode": "7612205",
    "prefectureCode": "37",
    "prefectureNumber": 37,
    "prefecture": "香川県",
    "city": "綾歌郡綾川町",
    "town": "東分"
  },
  "7612206": {
    "zipcode": "7612206",
    "prefectureCode": "37",
    "prefectureNumber": 37,
    "prefecture": "香川県",
    "city": "綾歌郡綾川町",
    "town": "西分"
  },
  "7612207": {
    "zipcode": "7612207",
    "prefectureCode": "37",
    "prefectureNumber": 37,
    "prefecture": "香川県",
    "city": "綾歌郡綾川町",
    "town": "羽床上"
  },
  "7612208": {
    "zipcode": "7612208",
    "prefectureCode": "37",
    "prefectureNumber": 37,
    "prefecture": "香川県",
    "city": "綾歌郡綾川町",
    "town": "牛川"
  },
  "7612300": {
    "zipcode": "7612300",
    "prefectureCode": "37",
    "prefectureNumber": 37,
    "prefecture": "香川県",
    "city": "綾歌郡綾川町",
    "town": "以下に掲載がない場合"
  },
  "7612304": {
    "zipcode": "7612304",
    "prefectureCode": "37",
    "prefectureNumber": 37,
    "prefecture": "香川県",
    "city": "綾歌郡綾川町",
    "town": "萱原"
  },
  "7612305": {
    "zipcode": "7612305",
    "prefectureCode": "37",
    "prefectureNumber": 37,
    "prefecture": "香川県",
    "city": "綾歌郡綾川町",
    "town": "滝宮"
  },
  "7612306": {
    "zipcode": "7612306",
    "prefectureCode": "37",
    "prefectureNumber": 37,
    "prefecture": "香川県",
    "city": "綾歌郡綾川町",
    "town": "北"
  },
  "7612307": {
    "zipcode": "7612307",
    "prefectureCode": "37",
    "prefectureNumber": 37,
    "prefecture": "香川県",
    "city": "綾歌郡綾川町",
    "town": "小野"
  },
  "7612308": {
    "zipcode": "7612308",
    "prefectureCode": "37",
    "prefectureNumber": 37,
    "prefecture": "香川県",
    "city": "綾歌郡綾川町",
    "town": "羽床下"
  },
  "7612401": {
    "zipcode": "7612401",
    "prefectureCode": "37",
    "prefectureNumber": 37,
    "prefecture": "香川県",
    "city": "丸亀市",
    "town": "綾歌町岡田上"
  },
  "7612402": {
    "zipcode": "7612402",
    "prefectureCode": "37",
    "prefectureNumber": 37,
    "prefecture": "香川県",
    "city": "丸亀市",
    "town": "綾歌町岡田下"
  },
  "7612403": {
    "zipcode": "7612403",
    "prefectureCode": "37",
    "prefectureNumber": 37,
    "prefecture": "香川県",
    "city": "丸亀市",
    "town": "綾歌町岡田西"
  },
  "7612404": {
    "zipcode": "7612404",
    "prefectureCode": "37",
    "prefectureNumber": 37,
    "prefecture": "香川県",
    "city": "丸亀市",
    "town": "綾歌町岡田東"
  },
  "7612405": {
    "zipcode": "7612405",
    "prefectureCode": "37",
    "prefectureNumber": 37,
    "prefecture": "香川県",
    "city": "丸亀市",
    "town": "綾歌町栗熊西"
  },
  "7612406": {
    "zipcode": "7612406",
    "prefectureCode": "37",
    "prefectureNumber": 37,
    "prefecture": "香川県",
    "city": "丸亀市",
    "town": "綾歌町栗熊東"
  },
  "7612407": {
    "zipcode": "7612407",
    "prefectureCode": "37",
    "prefectureNumber": 37,
    "prefecture": "香川県",
    "city": "丸亀市",
    "town": "綾歌町富熊（その他）"
  },
  "7612408": {
    "zipcode": "7612408",
    "prefectureCode": "37",
    "prefectureNumber": 37,
    "prefecture": "香川県",
    "city": "丸亀市",
    "town": "綾歌町富熊（富士見坂）"
  },
  "7613110": {
    "zipcode": "7613110",
    "prefectureCode": "37",
    "prefectureNumber": 37,
    "prefecture": "香川県",
    "city": "香川郡直島町",
    "town": "直島町一円"
  },
  "7614100": {
    "zipcode": "7614100",
    "prefectureCode": "37",
    "prefectureNumber": 37,
    "prefecture": "香川県",
    "city": "小豆郡土庄町",
    "town": "以下に掲載がない場合"
  },
  "7614101": {
    "zipcode": "7614101",
    "prefectureCode": "37",
    "prefectureNumber": 37,
    "prefecture": "香川県",
    "city": "小豆郡土庄町",
    "town": "甲、乙（その他）"
  },
  "7614102": {
    "zipcode": "7614102",
    "prefectureCode": "37",
    "prefectureNumber": 37,
    "prefecture": "香川県",
    "city": "小豆郡土庄町",
    "town": "甲、乙（港新町）"
  },
  "7614103": {
    "zipcode": "7614103",
    "prefectureCode": "37",
    "prefectureNumber": 37,
    "prefecture": "香川県",
    "city": "小豆郡土庄町",
    "town": "甲、乙（大木戸）"
  },
  "7614104": {
    "zipcode": "7614104",
    "prefectureCode": "37",
    "prefectureNumber": 37,
    "prefecture": "香川県",
    "city": "小豆郡土庄町",
    "town": "甲、乙（吉ケ浦）"
  },
  "7614105": {
    "zipcode": "7614105",
    "prefectureCode": "37",
    "prefectureNumber": 37,
    "prefecture": "香川県",
    "city": "小豆郡土庄町",
    "town": "甲、乙（西本町）"
  },
  "7614106": {
    "zipcode": "7614106",
    "prefectureCode": "37",
    "prefectureNumber": 37,
    "prefecture": "香川県",
    "city": "小豆郡土庄町",
    "town": "甲、乙（本町）"
  },
  "7614111": {
    "zipcode": "7614111",
    "prefectureCode": "37",
    "prefectureNumber": 37,
    "prefecture": "香川県",
    "city": "小豆郡土庄町",
    "town": "甲、乙（東港）"
  },
  "7614112": {
    "zipcode": "7614112",
    "prefectureCode": "37",
    "prefectureNumber": 37,
    "prefecture": "香川県",
    "city": "小豆郡土庄町",
    "town": "甲、乙（鹿島）"
  },
  "7614113": {
    "zipcode": "7614113",
    "prefectureCode": "37",
    "prefectureNumber": 37,
    "prefecture": "香川県",
    "city": "小豆郡土庄町",
    "town": "甲、乙（柳）"
  },
  "7614114": {
    "zipcode": "7614114",
    "prefectureCode": "37",
    "prefectureNumber": 37,
    "prefecture": "香川県",
    "city": "小豆郡土庄町",
    "town": "甲、乙（千軒）"
  },
  "7614115": {
    "zipcode": "7614115",
    "prefectureCode": "37",
    "prefectureNumber": 37,
    "prefecture": "香川県",
    "city": "小豆郡土庄町",
    "town": "甲、乙（小瀬）"
  },
  "7614121": {
    "zipcode": "7614121",
    "prefectureCode": "37",
    "prefectureNumber": 37,
    "prefecture": "香川県",
    "city": "小豆郡土庄町",
    "town": "渕崎"
  },
  "7614122": {
    "zipcode": "7614122",
    "prefectureCode": "37",
    "prefectureNumber": 37,
    "prefecture": "香川県",
    "city": "小豆郡土庄町",
    "town": "上庄"
  },
  "7614131": {
    "zipcode": "7614131",
    "prefectureCode": "37",
    "prefectureNumber": 37,
    "prefecture": "香川県",
    "city": "小豆郡土庄町",
    "town": "伊喜末（その他）"
  },
  "7614132": {
    "zipcode": "7614132",
    "prefectureCode": "37",
    "prefectureNumber": 37,
    "prefecture": "香川県",
    "city": "小豆郡土庄町",
    "town": "小江"
  },
  "7614133": {
    "zipcode": "7614133",
    "prefectureCode": "37",
    "prefectureNumber": 37,
    "prefecture": "香川県",
    "city": "小豆郡土庄町",
    "town": "長浜"
  },
  "7614134": {
    "zipcode": "7614134",
    "prefectureCode": "37",
    "prefectureNumber": 37,
    "prefecture": "香川県",
    "city": "小豆郡土庄町",
    "town": "滝宮"
  },
  "7614141": {
    "zipcode": "7614141",
    "prefectureCode": "37",
    "prefectureNumber": 37,
    "prefecture": "香川県",
    "city": "小豆郡土庄町",
    "town": "馬越"
  },
  "7614142": {
    "zipcode": "7614142",
    "prefectureCode": "37",
    "prefectureNumber": 37,
    "prefecture": "香川県",
    "city": "小豆郡土庄町",
    "town": "屋形崎"
  },
  "7614143": {
    "zipcode": "7614143",
    "prefectureCode": "37",
    "prefectureNumber": 37,
    "prefecture": "香川県",
    "city": "小豆郡土庄町",
    "town": "見目"
  },
  "7614144": {
    "zipcode": "7614144",
    "prefectureCode": "37",
    "prefectureNumber": 37,
    "prefecture": "香川県",
    "city": "小豆郡土庄町",
    "town": "小海"
  },
  "7614145": {
    "zipcode": "7614145",
    "prefectureCode": "37",
    "prefectureNumber": 37,
    "prefecture": "香川県",
    "city": "小豆郡土庄町",
    "town": "大部"
  },
  "7614146": {
    "zipcode": "7614146",
    "prefectureCode": "37",
    "prefectureNumber": 37,
    "prefecture": "香川県",
    "city": "小豆郡土庄町",
    "town": "小部"
  },
  "7614151": {
    "zipcode": "7614151",
    "prefectureCode": "37",
    "prefectureNumber": 37,
    "prefecture": "香川県",
    "city": "小豆郡土庄町",
    "town": "肥土山"
  },
  "7614152": {
    "zipcode": "7614152",
    "prefectureCode": "37",
    "prefectureNumber": 37,
    "prefecture": "香川県",
    "city": "小豆郡土庄町",
    "town": "黒岩"
  },
  "7614153": {
    "zipcode": "7614153",
    "prefectureCode": "37",
    "prefectureNumber": 37,
    "prefecture": "香川県",
    "city": "小豆郡土庄町",
    "town": "小馬越"
  },
  "7614154": {
    "zipcode": "7614154",
    "prefectureCode": "37",
    "prefectureNumber": 37,
    "prefecture": "香川県",
    "city": "小豆郡土庄町",
    "town": "笠滝"
  },
  "7614155": {
    "zipcode": "7614155",
    "prefectureCode": "37",
    "prefectureNumber": 37,
    "prefecture": "香川県",
    "city": "小豆郡小豆島町",
    "town": "中山（蛙子鳴滝）"
  },
  "7614300": {
    "zipcode": "7614300",
    "prefectureCode": "37",
    "prefectureNumber": 37,
    "prefecture": "香川県",
    "city": "小豆郡小豆島町",
    "town": "以下に掲載がない場合"
  },
  "7614301": {
    "zipcode": "7614301",
    "prefectureCode": "37",
    "prefectureNumber": 37,
    "prefecture": "香川県",
    "city": "小豆郡小豆島町",
    "town": "池田"
  },
  "7614302": {
    "zipcode": "7614302",
    "prefectureCode": "37",
    "prefectureNumber": 37,
    "prefecture": "香川県",
    "city": "小豆郡小豆島町",
    "town": "蒲生"
  },
  "7614303": {
    "zipcode": "7614303",
    "prefectureCode": "37",
    "prefectureNumber": 37,
    "prefecture": "香川県",
    "city": "小豆郡小豆島町",
    "town": "中山（その他）"
  },
  "7614304": {
    "zipcode": "7614304",
    "prefectureCode": "37",
    "prefectureNumber": 37,
    "prefecture": "香川県",
    "city": "小豆郡小豆島町",
    "town": "室生"
  },
  "7614305": {
    "zipcode": "7614305",
    "prefectureCode": "37",
    "prefectureNumber": 37,
    "prefecture": "香川県",
    "city": "小豆郡小豆島町",
    "town": "二面"
  },
  "7614306": {
    "zipcode": "7614306",
    "prefectureCode": "37",
    "prefectureNumber": 37,
    "prefecture": "香川県",
    "city": "小豆郡小豆島町",
    "town": "吉野"
  },
  "7614307": {
    "zipcode": "7614307",
    "prefectureCode": "37",
    "prefectureNumber": 37,
    "prefecture": "香川県",
    "city": "小豆郡小豆島町",
    "town": "蒲野"
  },
  "7614308": {
    "zipcode": "7614308",
    "prefectureCode": "37",
    "prefectureNumber": 37,
    "prefecture": "香川県",
    "city": "小豆郡小豆島町",
    "town": "神浦"
  },
  "7614401": {
    "zipcode": "7614401",
    "prefectureCode": "37",
    "prefectureNumber": 37,
    "prefecture": "香川県",
    "city": "小豆郡小豆島町",
    "town": "吉田"
  },
  "7614402": {
    "zipcode": "7614402",
    "prefectureCode": "37",
    "prefectureNumber": 37,
    "prefecture": "香川県",
    "city": "小豆郡小豆島町",
    "town": "福田"
  },
  "7614403": {
    "zipcode": "7614403",
    "prefectureCode": "37",
    "prefectureNumber": 37,
    "prefecture": "香川県",
    "city": "小豆郡小豆島町",
    "town": "当浜"
  },
  "7614404": {
    "zipcode": "7614404",
    "prefectureCode": "37",
    "prefectureNumber": 37,
    "prefecture": "香川県",
    "city": "小豆郡小豆島町",
    "town": "岩谷"
  },
  "7614405": {
    "zipcode": "7614405",
    "prefectureCode": "37",
    "prefectureNumber": 37,
    "prefecture": "香川県",
    "city": "小豆郡小豆島町",
    "town": "橘"
  },
  "7614411": {
    "zipcode": "7614411",
    "prefectureCode": "37",
    "prefectureNumber": 37,
    "prefecture": "香川県",
    "city": "小豆郡小豆島町",
    "town": "安田"
  },
  "7614412": {
    "zipcode": "7614412",
    "prefectureCode": "37",
    "prefectureNumber": 37,
    "prefecture": "香川県",
    "city": "小豆郡小豆島町",
    "town": "木庄"
  },
  "7614421": {
    "zipcode": "7614421",
    "prefectureCode": "37",
    "prefectureNumber": 37,
    "prefecture": "香川県",
    "city": "小豆郡小豆島町",
    "town": "苗羽"
  },
  "7614422": {
    "zipcode": "7614422",
    "prefectureCode": "37",
    "prefectureNumber": 37,
    "prefecture": "香川県",
    "city": "小豆郡小豆島町",
    "town": "古江"
  },
  "7614423": {
    "zipcode": "7614423",
    "prefectureCode": "37",
    "prefectureNumber": 37,
    "prefecture": "香川県",
    "city": "小豆郡小豆島町",
    "town": "堀越"
  },
  "7614424": {
    "zipcode": "7614424",
    "prefectureCode": "37",
    "prefectureNumber": 37,
    "prefecture": "香川県",
    "city": "小豆郡小豆島町",
    "town": "田浦"
  },
  "7614425": {
    "zipcode": "7614425",
    "prefectureCode": "37",
    "prefectureNumber": 37,
    "prefecture": "香川県",
    "city": "小豆郡小豆島町",
    "town": "坂手"
  },
  "7614426": {
    "zipcode": "7614426",
    "prefectureCode": "37",
    "prefectureNumber": 37,
    "prefecture": "香川県",
    "city": "小豆郡小豆島町",
    "town": "馬木"
  },
  "7614431": {
    "zipcode": "7614431",
    "prefectureCode": "37",
    "prefectureNumber": 37,
    "prefecture": "香川県",
    "city": "小豆郡小豆島町",
    "town": "片城"
  },
  "7614432": {
    "zipcode": "7614432",
    "prefectureCode": "37",
    "prefectureNumber": 37,
    "prefecture": "香川県",
    "city": "小豆郡小豆島町",
    "town": "草壁本町"
  },
  "7614433": {
    "zipcode": "7614433",
    "prefectureCode": "37",
    "prefectureNumber": 37,
    "prefecture": "香川県",
    "city": "小豆郡小豆島町",
    "town": "神懸通"
  },
  "7614434": {
    "zipcode": "7614434",
    "prefectureCode": "37",
    "prefectureNumber": 37,
    "prefecture": "香川県",
    "city": "小豆郡小豆島町",
    "town": "西村"
  },
  "7614661": {
    "zipcode": "7614661",
    "prefectureCode": "37",
    "prefectureNumber": 37,
    "prefecture": "香川県",
    "city": "小豆郡土庄町",
    "town": "豊島家浦"
  },
  "7614662": {
    "zipcode": "7614662",
    "prefectureCode": "37",
    "prefectureNumber": 37,
    "prefecture": "香川県",
    "city": "小豆郡土庄町",
    "town": "豊島唐櫃"
  },
  "7614663": {
    "zipcode": "7614663",
    "prefectureCode": "37",
    "prefectureNumber": 37,
    "prefecture": "香川県",
    "city": "小豆郡土庄町",
    "town": "豊島甲生"
  },
  "7614664": {
    "zipcode": "7614664",
    "prefectureCode": "37",
    "prefectureNumber": 37,
    "prefecture": "香川県",
    "city": "小豆郡土庄町",
    "town": "伊喜末（小豊島）"
  },
  "7618001": {
    "zipcode": "7618001",
    "prefectureCode": "37",
    "prefectureNumber": 37,
    "prefecture": "香川県",
    "city": "高松市",
    "town": "亀水町"
  },
  "7618002": {
    "zipcode": "7618002",
    "prefectureCode": "37",
    "prefectureNumber": 37,
    "prefecture": "香川県",
    "city": "高松市",
    "town": "生島町"
  },
  "7618003": {
    "zipcode": "7618003",
    "prefectureCode": "37",
    "prefectureNumber": 37,
    "prefecture": "香川県",
    "city": "高松市",
    "town": "神在川窪町"
  },
  "7618004": {
    "zipcode": "7618004",
    "prefectureCode": "37",
    "prefectureNumber": 37,
    "prefecture": "香川県",
    "city": "高松市",
    "town": "中山町"
  },
  "7618005": {
    "zipcode": "7618005",
    "prefectureCode": "37",
    "prefectureNumber": 37,
    "prefecture": "香川県",
    "city": "高松市",
    "town": "植松町"
  },
  "7618011": {
    "zipcode": "7618011",
    "prefectureCode": "37",
    "prefectureNumber": 37,
    "prefecture": "香川県",
    "city": "高松市",
    "town": "香西北町"
  },
  "7618012": {
    "zipcode": "7618012",
    "prefectureCode": "37",
    "prefectureNumber": 37,
    "prefecture": "香川県",
    "city": "高松市",
    "town": "香西本町"
  },
  "7618013": {
    "zipcode": "7618013",
    "prefectureCode": "37",
    "prefectureNumber": 37,
    "prefecture": "香川県",
    "city": "高松市",
    "town": "香西東町"
  },
  "7618014": {
    "zipcode": "7618014",
    "prefectureCode": "37",
    "prefectureNumber": 37,
    "prefecture": "香川県",
    "city": "高松市",
    "town": "香西南町"
  },
  "7618015": {
    "zipcode": "7618015",
    "prefectureCode": "37",
    "prefectureNumber": 37,
    "prefecture": "香川県",
    "city": "高松市",
    "town": "香西西町"
  },
  "7618021": {
    "zipcode": "7618021",
    "prefectureCode": "37",
    "prefectureNumber": 37,
    "prefecture": "香川県",
    "city": "高松市",
    "town": "鬼無町是竹"
  },
  "7618022": {
    "zipcode": "7618022",
    "prefectureCode": "37",
    "prefectureNumber": 37,
    "prefecture": "香川県",
    "city": "高松市",
    "town": "鬼無町佐料"
  },
  "7618023": {
    "zipcode": "7618023",
    "prefectureCode": "37",
    "prefectureNumber": 37,
    "prefecture": "香川県",
    "city": "高松市",
    "town": "鬼無町佐藤"
  },
  "7618024": {
    "zipcode": "7618024",
    "prefectureCode": "37",
    "prefectureNumber": 37,
    "prefecture": "香川県",
    "city": "高松市",
    "town": "鬼無町藤井"
  },
  "7618025": {
    "zipcode": "7618025",
    "prefectureCode": "37",
    "prefectureNumber": 37,
    "prefecture": "香川県",
    "city": "高松市",
    "town": "鬼無町山口"
  },
  "7618026": {
    "zipcode": "7618026",
    "prefectureCode": "37",
    "prefectureNumber": 37,
    "prefecture": "香川県",
    "city": "高松市",
    "town": "鬼無町鬼無"
  },
  "7618031": {
    "zipcode": "7618031",
    "prefectureCode": "37",
    "prefectureNumber": 37,
    "prefecture": "香川県",
    "city": "高松市",
    "town": "郷東町"
  },
  "7618032": {
    "zipcode": "7618032",
    "prefectureCode": "37",
    "prefectureNumber": 37,
    "prefecture": "香川県",
    "city": "高松市",
    "town": "鶴市町（その他）"
  },
  "7618033": {
    "zipcode": "7618033",
    "prefectureCode": "37",
    "prefectureNumber": 37,
    "prefecture": "香川県",
    "city": "高松市",
    "town": "飯田町"
  },
  "7618041": {
    "zipcode": "7618041",
    "prefectureCode": "37",
    "prefectureNumber": 37,
    "prefecture": "香川県",
    "city": "高松市",
    "town": "檀紙町"
  },
  "7618042": {
    "zipcode": "7618042",
    "prefectureCode": "37",
    "prefectureNumber": 37,
    "prefecture": "香川県",
    "city": "高松市",
    "town": "御厩町"
  },
  "7618043": {
    "zipcode": "7618043",
    "prefectureCode": "37",
    "prefectureNumber": 37,
    "prefecture": "香川県",
    "city": "高松市",
    "town": "中間町"
  },
  "7618044": {
    "zipcode": "7618044",
    "prefectureCode": "37",
    "prefectureNumber": 37,
    "prefecture": "香川県",
    "city": "高松市",
    "town": "円座町"
  },
  "7618045": {
    "zipcode": "7618045",
    "prefectureCode": "37",
    "prefectureNumber": 37,
    "prefecture": "香川県",
    "city": "高松市",
    "town": "西山崎町"
  },
  "7618046": {
    "zipcode": "7618046",
    "prefectureCode": "37",
    "prefectureNumber": 37,
    "prefecture": "香川県",
    "city": "高松市",
    "town": "川部町"
  },
  "7618047": {
    "zipcode": "7618047",
    "prefectureCode": "37",
    "prefectureNumber": 37,
    "prefecture": "香川県",
    "city": "高松市",
    "town": "岡本町"
  },
  "7618051": {
    "zipcode": "7618051",
    "prefectureCode": "37",
    "prefectureNumber": 37,
    "prefecture": "香川県",
    "city": "高松市",
    "town": "西春日町"
  },
  "7618052": {
    "zipcode": "7618052",
    "prefectureCode": "37",
    "prefectureNumber": 37,
    "prefecture": "香川県",
    "city": "高松市",
    "town": "松並町"
  },
  "7618053": {
    "zipcode": "7618053",
    "prefectureCode": "37",
    "prefectureNumber": 37,
    "prefecture": "香川県",
    "city": "高松市",
    "town": "西ハゼ町"
  },
  "7618054": {
    "zipcode": "7618054",
    "prefectureCode": "37",
    "prefectureNumber": 37,
    "prefecture": "香川県",
    "city": "高松市",
    "town": "東ハゼ町"
  },
  "7618055": {
    "zipcode": "7618055",
    "prefectureCode": "37",
    "prefectureNumber": 37,
    "prefecture": "香川県",
    "city": "高松市",
    "town": "紙町"
  },
  "7618056": {
    "zipcode": "7618056",
    "prefectureCode": "37",
    "prefectureNumber": 37,
    "prefecture": "香川県",
    "city": "高松市",
    "town": "上天神町"
  },
  "7618057": {
    "zipcode": "7618057",
    "prefectureCode": "37",
    "prefectureNumber": 37,
    "prefecture": "香川県",
    "city": "高松市",
    "town": "田村町"
  },
  "7618058": {
    "zipcode": "7618058",
    "prefectureCode": "37",
    "prefectureNumber": 37,
    "prefecture": "香川県",
    "city": "高松市",
    "town": "勅使町"
  },
  "7618061": {
    "zipcode": "7618061",
    "prefectureCode": "37",
    "prefectureNumber": 37,
    "prefecture": "香川県",
    "city": "高松市",
    "town": "室町"
  },
  "7618062": {
    "zipcode": "7618062",
    "prefectureCode": "37",
    "prefectureNumber": 37,
    "prefecture": "香川県",
    "city": "高松市",
    "town": "室新町"
  },
  "7618063": {
    "zipcode": "7618063",
    "prefectureCode": "37",
    "prefectureNumber": 37,
    "prefecture": "香川県",
    "city": "高松市",
    "town": "花ノ宮町"
  },
  "7618064": {
    "zipcode": "7618064",
    "prefectureCode": "37",
    "prefectureNumber": 37,
    "prefecture": "香川県",
    "city": "高松市",
    "town": "上之町"
  },
  "7618071": {
    "zipcode": "7618071",
    "prefectureCode": "37",
    "prefectureNumber": 37,
    "prefecture": "香川県",
    "city": "高松市",
    "town": "伏石町"
  },
  "7618072": {
    "zipcode": "7618072",
    "prefectureCode": "37",
    "prefectureNumber": 37,
    "prefecture": "香川県",
    "city": "高松市",
    "town": "三条町"
  },
  "7618073": {
    "zipcode": "7618073",
    "prefectureCode": "37",
    "prefectureNumber": 37,
    "prefecture": "香川県",
    "city": "高松市",
    "town": "太田下町"
  },
  "7618074": {
    "zipcode": "7618074",
    "prefectureCode": "37",
    "prefectureNumber": 37,
    "prefecture": "香川県",
    "city": "高松市",
    "town": "太田上町"
  },
  "7618075": {
    "zipcode": "7618075",
    "prefectureCode": "37",
    "prefectureNumber": 37,
    "prefecture": "香川県",
    "city": "高松市",
    "town": "多肥下町"
  },
  "7618076": {
    "zipcode": "7618076",
    "prefectureCode": "37",
    "prefectureNumber": 37,
    "prefecture": "香川県",
    "city": "高松市",
    "town": "多肥上町"
  },
  "7618077": {
    "zipcode": "7618077",
    "prefectureCode": "37",
    "prefectureNumber": 37,
    "prefecture": "香川県",
    "city": "高松市",
    "town": "出作町"
  },
  "7618078": {
    "zipcode": "7618078",
    "prefectureCode": "37",
    "prefectureNumber": 37,
    "prefecture": "香川県",
    "city": "高松市",
    "town": "仏生山町甲"
  },
  "7618079": {
    "zipcode": "7618079",
    "prefectureCode": "37",
    "prefectureNumber": 37,
    "prefecture": "香川県",
    "city": "高松市",
    "town": "仏生山町乙"
  },
  "7618081": {
    "zipcode": "7618081",
    "prefectureCode": "37",
    "prefectureNumber": 37,
    "prefecture": "香川県",
    "city": "高松市",
    "town": "成合町"
  },
  "7618082": {
    "zipcode": "7618082",
    "prefectureCode": "37",
    "prefectureNumber": 37,
    "prefecture": "香川県",
    "city": "高松市",
    "town": "鹿角町"
  },
  "7618083": {
    "zipcode": "7618083",
    "prefectureCode": "37",
    "prefectureNumber": 37,
    "prefecture": "香川県",
    "city": "高松市",
    "town": "三名町"
  },
  "7618084": {
    "zipcode": "7618084",
    "prefectureCode": "37",
    "prefectureNumber": 37,
    "prefecture": "香川県",
    "city": "高松市",
    "town": "一宮町"
  },
  "7618085": {
    "zipcode": "7618085",
    "prefectureCode": "37",
    "prefectureNumber": 37,
    "prefecture": "香川県",
    "city": "高松市",
    "town": "寺井町"
  }
}
