{
  "7640000": {
    "zipcode": "7640000",
    "prefectureCode": "37",
    "prefectureNumber": 37,
    "prefecture": "香川県",
    "city": "仲多度郡多度津町",
    "town": "以下に掲載がない場合"
  },
  "7640001": {
    "zipcode": "7640001",
    "prefectureCode": "37",
    "prefectureNumber": 37,
    "prefecture": "香川県",
    "city": "仲多度郡多度津町",
    "town": "東新町"
  },
  "7640002": {
    "zipcode": "7640002",
    "prefectureCode": "37",
    "prefectureNumber": 37,
    "prefecture": "香川県",
    "city": "仲多度郡多度津町",
    "town": "家中"
  },
  "7640003": {
    "zipcode": "7640003",
    "prefectureCode": "37",
    "prefectureNumber": 37,
    "prefecture": "香川県",
    "city": "仲多度郡多度津町",
    "town": "元町"
  },
  "7640004": {
    "zipcode": "7640004",
    "prefectureCode": "37",
    "prefectureNumber": 37,
    "prefecture": "香川県",
    "city": "仲多度郡多度津町",
    "town": "仲ノ町"
  },
  "7640005": {
    "zipcode": "7640005",
    "prefectureCode": "37",
    "prefectureNumber": 37,
    "prefecture": "香川県",
    "city": "仲多度郡多度津町",
    "town": "大通り"
  },
  "7640006": {
    "zipcode": "7640006",
    "prefectureCode": "37",
    "prefectureNumber": 37,
    "prefecture": "香川県",
    "city": "仲多度郡多度津町",
    "town": "日の出町"
  },
  "7640011": {
    "zipcode": "7640011",
    "prefectureCode": "37",
    "prefectureNumber": 37,
    "prefecture": "香川県",
    "city": "仲多度郡多度津町",
    "town": "栄町"
  },
  "7640012": {
    "zipcode": "7640012",
    "prefectureCode": "37",
    "prefectureNumber": 37,
    "prefecture": "香川県",
    "city": "仲多度郡多度津町",
    "town": "桜川"
  },
  "7640013": {
    "zipcode": "7640013",
    "prefectureCode": "37",
    "prefectureNumber": 37,
    "prefecture": "香川県",
    "city": "仲多度郡多度津町",
    "town": "京町"
  },
  "7640014": {
    "zipcode": "7640014",
    "prefectureCode": "37",
    "prefectureNumber": 37,
    "prefecture": "香川県",
    "city": "仲多度郡多度津町",
    "town": "本通"
  },
  "7640015": {
    "zipcode": "7640015",
    "prefectureCode": "37",
    "prefectureNumber": 37,
    "prefecture": "香川県",
    "city": "仲多度郡多度津町",
    "town": "西浜"
  },
  "7640016": {
    "zipcode": "7640016",
    "prefectureCode": "37",
    "prefectureNumber": 37,
    "prefecture": "香川県",
    "city": "仲多度郡多度津町",
    "town": "東浜"
  },
  "7640017": {
    "zipcode": "7640017",
    "prefectureCode": "37",
    "prefectureNumber": 37,
    "prefecture": "香川県",
    "city": "仲多度郡多度津町",
    "town": "西港町"
  },
  "7640018": {
    "zipcode": "7640018",
    "prefectureCode": "37",
    "prefectureNumber": 37,
    "prefecture": "香川県",
    "city": "仲多度郡多度津町",
    "town": "東港町"
  },
  "7640021": {
    "zipcode": "7640021",
    "prefectureCode": "37",
    "prefectureNumber": 37,
    "prefecture": "香川県",
    "city": "仲多度郡多度津町",
    "town": "堀江"
  },
  "7640022": {
    "zipcode": "7640022",
    "prefectureCode": "37",
    "prefectureNumber": 37,
    "prefecture": "香川県",
    "city": "仲多度郡多度津町",
    "town": "北鴨"
  },
  "7640023": {
    "zipcode": "7640023",
    "prefectureCode": "37",
    "prefectureNumber": 37,
    "prefecture": "香川県",
    "city": "仲多度郡多度津町",
    "town": "若葉町"
  },
  "7640024": {
    "zipcode": "7640024",
    "prefectureCode": "37",
    "prefectureNumber": 37,
    "prefecture": "香川県",
    "city": "仲多度郡多度津町",
    "town": "幸町"
  },
  "7640025": {
    "zipcode": "7640025",
    "prefectureCode": "37",
    "prefectureNumber": 37,
    "prefecture": "香川県",
    "city": "仲多度郡多度津町",
    "town": "寿町"
  },
  "7640026": {
    "zipcode": "7640026",
    "prefectureCode": "37",
    "prefectureNumber": 37,
    "prefecture": "香川県",
    "city": "仲多度郡多度津町",
    "town": "南鴨"
  },
  "7640027": {
    "zipcode": "7640027",
    "prefectureCode": "37",
    "prefectureNumber": 37,
    "prefecture": "香川県",
    "city": "仲多度郡多度津町",
    "town": "道福寺"
  },
  "7640028": {
    "zipcode": "7640028",
    "prefectureCode": "37",
    "prefectureNumber": 37,
    "prefecture": "香川県",
    "city": "仲多度郡多度津町",
    "town": "葛原"
  },
  "7640031": {
    "zipcode": "7640031",
    "prefectureCode": "37",
    "prefectureNumber": 37,
    "prefecture": "香川県",
    "city": "仲多度郡多度津町",
    "town": "庄"
  },
  "7640032": {
    "zipcode": "7640032",
    "prefectureCode": "37",
    "prefectureNumber": 37,
    "prefecture": "香川県",
    "city": "仲多度郡多度津町",
    "town": "三井"
  },
  "7640033": {
    "zipcode": "7640033",
    "prefectureCode": "37",
    "prefectureNumber": 37,
    "prefecture": "香川県",
    "city": "仲多度郡多度津町",
    "town": "青木"
  },
  "7640034": {
    "zipcode": "7640034",
    "prefectureCode": "37",
    "prefectureNumber": 37,
    "prefecture": "香川県",
    "city": "仲多度郡多度津町",
    "town": "山階"
  },
  "7640035": {
    "zipcode": "7640035",
    "prefectureCode": "37",
    "prefectureNumber": 37,
    "prefecture": "香川県",
    "city": "仲多度郡多度津町",
    "town": "奥白方"
  },
  "7640036": {
    "zipcode": "7640036",
    "prefectureCode": "37",
    "prefectureNumber": 37,
    "prefecture": "香川県",
    "city": "仲多度郡多度津町",
    "town": "見立"
  },
  "7640037": {
    "zipcode": "7640037",
    "prefectureCode": "37",
    "prefectureNumber": 37,
    "prefecture": "香川県",
    "city": "仲多度郡多度津町",
    "town": "西白方"
  },
  "7640038": {
    "zipcode": "7640038",
    "prefectureCode": "37",
    "prefectureNumber": 37,
    "prefecture": "香川県",
    "city": "仲多度郡多度津町",
    "town": "東白方"
  },
  "7640040": {
    "zipcode": "7640040",
    "prefectureCode": "37",
    "prefectureNumber": 37,
    "prefecture": "香川県",
    "city": "仲多度郡多度津町",
    "town": "佐柳"
  },
  "7640050": {
    "zipcode": "7640050",
    "prefectureCode": "37",
    "prefectureNumber": 37,
    "prefecture": "香川県",
    "city": "仲多度郡多度津町",
    "town": "高見"
  }
}
