{
  "7650000": {
    "zipcode": "7650000",
    "prefectureCode": "37",
    "prefectureNumber": 37,
    "prefecture": "香川県",
    "city": "善通寺市",
    "town": "以下に掲載がない場合"
  },
  "7650001": {
    "zipcode": "7650001",
    "prefectureCode": "37",
    "prefectureNumber": 37,
    "prefecture": "香川県",
    "city": "善通寺市",
    "town": "仙遊町"
  },
  "7650002": {
    "zipcode": "7650002",
    "prefectureCode": "37",
    "prefectureNumber": 37,
    "prefecture": "香川県",
    "city": "善通寺市",
    "town": "南町"
  },
  "7650003": {
    "zipcode": "7650003",
    "prefectureCode": "37",
    "prefectureNumber": 37,
    "prefecture": "香川県",
    "city": "善通寺市",
    "town": "善通寺町（丁目）"
  },
  "7650004": {
    "zipcode": "7650004",
    "prefectureCode": "37",
    "prefectureNumber": 37,
    "prefecture": "香川県",
    "city": "善通寺市",
    "town": "善通寺町（その他）"
  },
  "7650011": {
    "zipcode": "7650011",
    "prefectureCode": "37",
    "prefectureNumber": 37,
    "prefecture": "香川県",
    "city": "善通寺市",
    "town": "上吉田町（丁目）"
  },
  "7650012": {
    "zipcode": "7650012",
    "prefectureCode": "37",
    "prefectureNumber": 37,
    "prefecture": "香川県",
    "city": "善通寺市",
    "town": "上吉田町（その他）"
  },
  "7650013": {
    "zipcode": "7650013",
    "prefectureCode": "37",
    "prefectureNumber": 37,
    "prefecture": "香川県",
    "city": "善通寺市",
    "town": "文京町"
  },
  "7650014": {
    "zipcode": "7650014",
    "prefectureCode": "37",
    "prefectureNumber": 37,
    "prefecture": "香川県",
    "city": "善通寺市",
    "town": "生野本町"
  },
  "7650021": {
    "zipcode": "7650021",
    "prefectureCode": "37",
    "prefectureNumber": 37,
    "prefecture": "香川県",
    "city": "善通寺市",
    "town": "下吉田町"
  },
  "7650022": {
    "zipcode": "7650022",
    "prefectureCode": "37",
    "prefectureNumber": 37,
    "prefecture": "香川県",
    "city": "善通寺市",
    "town": "稲木町"
  },
  "7650031": {
    "zipcode": "7650031",
    "prefectureCode": "37",
    "prefectureNumber": 37,
    "prefecture": "香川県",
    "city": "善通寺市",
    "town": "金蔵寺町"
  },
  "7650032": {
    "zipcode": "7650032",
    "prefectureCode": "37",
    "prefectureNumber": 37,
    "prefecture": "香川県",
    "city": "善通寺市",
    "town": "原田町"
  },
  "7650033": {
    "zipcode": "7650033",
    "prefectureCode": "37",
    "prefectureNumber": 37,
    "prefecture": "香川県",
    "city": "善通寺市",
    "town": "木徳町"
  },
  "7650040": {
    "zipcode": "7650040",
    "prefectureCode": "37",
    "prefectureNumber": 37,
    "prefecture": "香川県",
    "city": "善通寺市",
    "town": "与北町"
  },
  "7650051": {
    "zipcode": "7650051",
    "prefectureCode": "37",
    "prefectureNumber": 37,
    "prefecture": "香川県",
    "city": "善通寺市",
    "town": "櫛梨町"
  },
  "7650052": {
    "zipcode": "7650052",
    "prefectureCode": "37",
    "prefectureNumber": 37,
    "prefecture": "香川県",
    "city": "善通寺市",
    "town": "大麻町"
  },
  "7650053": {
    "zipcode": "7650053",
    "prefectureCode": "37",
    "prefectureNumber": 37,
    "prefecture": "香川県",
    "city": "善通寺市",
    "town": "生野町"
  },
  "7650061": {
    "zipcode": "7650061",
    "prefectureCode": "37",
    "prefectureNumber": 37,
    "prefecture": "香川県",
    "city": "善通寺市",
    "town": "吉原町"
  },
  "7650062": {
    "zipcode": "7650062",
    "prefectureCode": "37",
    "prefectureNumber": 37,
    "prefecture": "香川県",
    "city": "善通寺市",
    "town": "碑殿町"
  },
  "7650071": {
    "zipcode": "7650071",
    "prefectureCode": "37",
    "prefectureNumber": 37,
    "prefecture": "香川県",
    "city": "善通寺市",
    "town": "弘田町"
  },
  "7650072": {
    "zipcode": "7650072",
    "prefectureCode": "37",
    "prefectureNumber": 37,
    "prefecture": "香川県",
    "city": "善通寺市",
    "town": "中村町（丁目）"
  },
  "7650073": {
    "zipcode": "7650073",
    "prefectureCode": "37",
    "prefectureNumber": 37,
    "prefecture": "香川県",
    "city": "善通寺市",
    "town": "中村町（その他）"
  }
}
