{
  "7660000": {
    "zipcode": "7660000",
    "prefectureCode": "37",
    "prefectureNumber": 37,
    "prefecture": "香川県",
    "city": "仲多度郡まんのう町",
    "town": "以下に掲載がない場合"
  },
  "7660001": {
    "zipcode": "7660001",
    "prefectureCode": "37",
    "prefectureNumber": 37,
    "prefecture": "香川県",
    "city": "仲多度郡琴平町",
    "town": "琴平町の次に４２７番地以降がくる場合（川西）"
  },
  "7660002": {
    "zipcode": "7660002",
    "prefectureCode": "37",
    "prefectureNumber": 37,
    "prefecture": "香川県",
    "city": "仲多度郡琴平町",
    "town": "琴平町の次に１〜４２６番地がくる場合（川東）"
  },
  "7660003": {
    "zipcode": "7660003",
    "prefectureCode": "37",
    "prefectureNumber": 37,
    "prefecture": "香川県",
    "city": "仲多度郡琴平町",
    "town": "五條"
  },
  "7660004": {
    "zipcode": "7660004",
    "prefectureCode": "37",
    "prefectureNumber": 37,
    "prefecture": "香川県",
    "city": "仲多度郡琴平町",
    "town": "榎井"
  },
  "7660005": {
    "zipcode": "7660005",
    "prefectureCode": "37",
    "prefectureNumber": 37,
    "prefecture": "香川県",
    "city": "仲多度郡琴平町",
    "town": "苗田"
  },
  "7660006": {
    "zipcode": "7660006",
    "prefectureCode": "37",
    "prefectureNumber": 37,
    "prefecture": "香川県",
    "city": "仲多度郡琴平町",
    "town": "上櫛梨"
  },
  "7660007": {
    "zipcode": "7660007",
    "prefectureCode": "37",
    "prefectureNumber": 37,
    "prefecture": "香川県",
    "city": "仲多度郡琴平町",
    "town": "下櫛梨"
  },
  "7660011": {
    "zipcode": "7660011",
    "prefectureCode": "37",
    "prefectureNumber": 37,
    "prefecture": "香川県",
    "city": "仲多度郡まんのう町",
    "town": "公文"
  },
  "7660012": {
    "zipcode": "7660012",
    "prefectureCode": "37",
    "prefectureNumber": 37,
    "prefecture": "香川県",
    "city": "仲多度郡まんのう町",
    "town": "西高篠"
  },
  "7660013": {
    "zipcode": "7660013",
    "prefectureCode": "37",
    "prefectureNumber": 37,
    "prefecture": "香川県",
    "city": "仲多度郡まんのう町",
    "town": "東高篠"
  },
  "7660014": {
    "zipcode": "7660014",
    "prefectureCode": "37",
    "prefectureNumber": 37,
    "prefecture": "香川県",
    "city": "仲多度郡まんのう町",
    "town": "羽間"
  },
  "7660015": {
    "zipcode": "7660015",
    "prefectureCode": "37",
    "prefectureNumber": 37,
    "prefecture": "香川県",
    "city": "仲多度郡まんのう町",
    "town": "長尾"
  },
  "7660016": {
    "zipcode": "7660016",
    "prefectureCode": "37",
    "prefectureNumber": 37,
    "prefecture": "香川県",
    "city": "仲多度郡まんのう町",
    "town": "炭所東"
  },
  "7660017": {
    "zipcode": "7660017",
    "prefectureCode": "37",
    "prefectureNumber": 37,
    "prefecture": "香川県",
    "city": "仲多度郡まんのう町",
    "town": "炭所西"
  },
  "7660021": {
    "zipcode": "7660021",
    "prefectureCode": "37",
    "prefectureNumber": 37,
    "prefecture": "香川県",
    "city": "仲多度郡まんのう町",
    "town": "四條"
  },
  "7660022": {
    "zipcode": "7660022",
    "prefectureCode": "37",
    "prefectureNumber": 37,
    "prefecture": "香川県",
    "city": "仲多度郡まんのう町",
    "town": "吉野下"
  },
  "7660023": {
    "zipcode": "7660023",
    "prefectureCode": "37",
    "prefectureNumber": 37,
    "prefecture": "香川県",
    "city": "仲多度郡まんのう町",
    "town": "吉野"
  },
  "7660024": {
    "zipcode": "7660024",
    "prefectureCode": "37",
    "prefectureNumber": 37,
    "prefecture": "香川県",
    "city": "仲多度郡まんのう町",
    "town": "神野"
  },
  "7660025": {
    "zipcode": "7660025",
    "prefectureCode": "37",
    "prefectureNumber": 37,
    "prefecture": "香川県",
    "city": "仲多度郡まんのう町",
    "town": "真野"
  },
  "7660026": {
    "zipcode": "7660026",
    "prefectureCode": "37",
    "prefectureNumber": 37,
    "prefecture": "香川県",
    "city": "仲多度郡まんのう町",
    "town": "岸上"
  },
  "7660027": {
    "zipcode": "7660027",
    "prefectureCode": "37",
    "prefectureNumber": 37,
    "prefecture": "香川県",
    "city": "仲多度郡まんのう町",
    "town": "五條"
  },
  "7660201": {
    "zipcode": "7660201",
    "prefectureCode": "37",
    "prefectureNumber": 37,
    "prefecture": "香川県",
    "city": "仲多度郡まんのう町",
    "town": "造田"
  },
  "7660202": {
    "zipcode": "7660202",
    "prefectureCode": "37",
    "prefectureNumber": 37,
    "prefecture": "香川県",
    "city": "仲多度郡まんのう町",
    "town": "中通"
  },
  "7660203": {
    "zipcode": "7660203",
    "prefectureCode": "37",
    "prefectureNumber": 37,
    "prefecture": "香川県",
    "city": "仲多度郡まんのう町",
    "town": "川東"
  },
  "7660204": {
    "zipcode": "7660204",
    "prefectureCode": "37",
    "prefectureNumber": 37,
    "prefecture": "香川県",
    "city": "仲多度郡まんのう町",
    "town": "勝浦"
  }
}
