{
  "7680000": {
    "zipcode": "7680000",
    "prefectureCode": "37",
    "prefectureNumber": 37,
    "prefecture": "香川県",
    "city": "観音寺市",
    "town": "以下に掲載がない場合"
  },
  "7680001": {
    "zipcode": "7680001",
    "prefectureCode": "37",
    "prefectureNumber": 37,
    "prefecture": "香川県",
    "city": "観音寺市",
    "town": "室本町"
  },
  "7680002": {
    "zipcode": "7680002",
    "prefectureCode": "37",
    "prefectureNumber": 37,
    "prefecture": "香川県",
    "city": "観音寺市",
    "town": "高屋町"
  },
  "7680011": {
    "zipcode": "7680011",
    "prefectureCode": "37",
    "prefectureNumber": 37,
    "prefecture": "香川県",
    "city": "観音寺市",
    "town": "出作町"
  },
  "7680012": {
    "zipcode": "7680012",
    "prefectureCode": "37",
    "prefectureNumber": 37,
    "prefecture": "香川県",
    "city": "観音寺市",
    "town": "植田町"
  },
  "7680013": {
    "zipcode": "7680013",
    "prefectureCode": "37",
    "prefectureNumber": 37,
    "prefecture": "香川県",
    "city": "観音寺市",
    "town": "村黒町"
  },
  "7680014": {
    "zipcode": "7680014",
    "prefectureCode": "37",
    "prefectureNumber": 37,
    "prefecture": "香川県",
    "city": "観音寺市",
    "town": "流岡町"
  },
  "7680021": {
    "zipcode": "7680021",
    "prefectureCode": "37",
    "prefectureNumber": 37,
    "prefecture": "香川県",
    "city": "観音寺市",
    "town": "吉岡町"
  },
  "7680022": {
    "zipcode": "7680022",
    "prefectureCode": "37",
    "prefectureNumber": 37,
    "prefecture": "香川県",
    "city": "観音寺市",
    "town": "本大町"
  },
  "7680023": {
    "zipcode": "7680023",
    "prefectureCode": "37",
    "prefectureNumber": 37,
    "prefecture": "香川県",
    "city": "観音寺市",
    "town": "古川町"
  },
  "7680024": {
    "zipcode": "7680024",
    "prefectureCode": "37",
    "prefectureNumber": 37,
    "prefecture": "香川県",
    "city": "観音寺市",
    "town": "中田井町"
  },
  "7680031": {
    "zipcode": "7680031",
    "prefectureCode": "37",
    "prefectureNumber": 37,
    "prefecture": "香川県",
    "city": "観音寺市",
    "town": "池之尻町"
  },
  "7680032": {
    "zipcode": "7680032",
    "prefectureCode": "37",
    "prefectureNumber": 37,
    "prefecture": "香川県",
    "city": "観音寺市",
    "town": "原町"
  },
  "7680033": {
    "zipcode": "7680033",
    "prefectureCode": "37",
    "prefectureNumber": 37,
    "prefecture": "香川県",
    "city": "観音寺市",
    "town": "新田町"
  },
  "7680040": {
    "zipcode": "7680040",
    "prefectureCode": "37",
    "prefectureNumber": 37,
    "prefecture": "香川県",
    "city": "観音寺市",
    "town": "柞田町"
  },
  "7680051": {
    "zipcode": "7680051",
    "prefectureCode": "37",
    "prefectureNumber": 37,
    "prefecture": "香川県",
    "city": "観音寺市",
    "town": "木之郷町"
  },
  "7680052": {
    "zipcode": "7680052",
    "prefectureCode": "37",
    "prefectureNumber": 37,
    "prefecture": "香川県",
    "city": "観音寺市",
    "town": "粟井町"
  },
  "7680060": {
    "zipcode": "7680060",
    "prefectureCode": "37",
    "prefectureNumber": 37,
    "prefecture": "香川県",
    "city": "観音寺市",
    "town": "観音寺町"
  },
  "7680061": {
    "zipcode": "7680061",
    "prefectureCode": "37",
    "prefectureNumber": 37,
    "prefecture": "香川県",
    "city": "観音寺市",
    "town": "八幡町"
  },
  "7680062": {
    "zipcode": "7680062",
    "prefectureCode": "37",
    "prefectureNumber": 37,
    "prefecture": "香川県",
    "city": "観音寺市",
    "town": "有明町"
  },
  "7680063": {
    "zipcode": "7680063",
    "prefectureCode": "37",
    "prefectureNumber": 37,
    "prefecture": "香川県",
    "city": "観音寺市",
    "town": "三本松町"
  },
  "7680064": {
    "zipcode": "7680064",
    "prefectureCode": "37",
    "prefectureNumber": 37,
    "prefecture": "香川県",
    "city": "観音寺市",
    "town": "琴浪町"
  },
  "7680065": {
    "zipcode": "7680065",
    "prefectureCode": "37",
    "prefectureNumber": 37,
    "prefecture": "香川県",
    "city": "観音寺市",
    "town": "瀬戸町"
  },
  "7680066": {
    "zipcode": "7680066",
    "prefectureCode": "37",
    "prefectureNumber": 37,
    "prefecture": "香川県",
    "city": "観音寺市",
    "town": "昭和町"
  },
  "7680067": {
    "zipcode": "7680067",
    "prefectureCode": "37",
    "prefectureNumber": 37,
    "prefecture": "香川県",
    "city": "観音寺市",
    "town": "坂本町"
  },
  "7680068": {
    "zipcode": "7680068",
    "prefectureCode": "37",
    "prefectureNumber": 37,
    "prefecture": "香川県",
    "city": "観音寺市",
    "town": "天神町"
  },
  "7680069": {
    "zipcode": "7680069",
    "prefectureCode": "37",
    "prefectureNumber": 37,
    "prefecture": "香川県",
    "city": "観音寺市",
    "town": "茂木町"
  },
  "7680070": {
    "zipcode": "7680070",
    "prefectureCode": "37",
    "prefectureNumber": 37,
    "prefecture": "香川県",
    "city": "観音寺市",
    "town": "南町"
  },
  "7680071": {
    "zipcode": "7680071",
    "prefectureCode": "37",
    "prefectureNumber": 37,
    "prefecture": "香川県",
    "city": "観音寺市",
    "town": "伊吹町"
  },
  "7680072": {
    "zipcode": "7680072",
    "prefectureCode": "37",
    "prefectureNumber": 37,
    "prefecture": "香川県",
    "city": "観音寺市",
    "town": "栄町"
  },
  "7680073": {
    "zipcode": "7680073",
    "prefectureCode": "37",
    "prefectureNumber": 37,
    "prefecture": "香川県",
    "city": "観音寺市",
    "town": "茂西町"
  },
  "7680074": {
    "zipcode": "7680074",
    "prefectureCode": "37",
    "prefectureNumber": 37,
    "prefecture": "香川県",
    "city": "観音寺市",
    "town": "幸町"
  },
  "7680075": {
    "zipcode": "7680075",
    "prefectureCode": "37",
    "prefectureNumber": 37,
    "prefecture": "香川県",
    "city": "観音寺市",
    "town": "西本町"
  },
  "7680076": {
    "zipcode": "7680076",
    "prefectureCode": "37",
    "prefectureNumber": 37,
    "prefecture": "香川県",
    "city": "観音寺市",
    "town": "港町"
  },
  "7680077": {
    "zipcode": "7680077",
    "prefectureCode": "37",
    "prefectureNumber": 37,
    "prefecture": "香川県",
    "city": "観音寺市",
    "town": "凪瀬町"
  },
  "7680101": {
    "zipcode": "7680101",
    "prefectureCode": "37",
    "prefectureNumber": 37,
    "prefecture": "香川県",
    "city": "三豊市",
    "town": "山本町辻"
  },
  "7680102": {
    "zipcode": "7680102",
    "prefectureCode": "37",
    "prefectureNumber": 37,
    "prefecture": "香川県",
    "city": "三豊市",
    "town": "山本町大野"
  },
  "7680103": {
    "zipcode": "7680103",
    "prefectureCode": "37",
    "prefectureNumber": 37,
    "prefecture": "香川県",
    "city": "三豊市",
    "town": "山本町財田西"
  },
  "7680104": {
    "zipcode": "7680104",
    "prefectureCode": "37",
    "prefectureNumber": 37,
    "prefecture": "香川県",
    "city": "三豊市",
    "town": "山本町神田"
  },
  "7680105": {
    "zipcode": "7680105",
    "prefectureCode": "37",
    "prefectureNumber": 37,
    "prefecture": "香川県",
    "city": "三豊市",
    "town": "山本町河内"
  }
}
