{
  "7690101": {
    "zipcode": "7690101",
    "prefectureCode": "37",
    "prefectureNumber": 37,
    "prefecture": "香川県",
    "city": "高松市",
    "town": "国分寺町新居"
  },
  "7690102": {
    "zipcode": "7690102",
    "prefectureCode": "37",
    "prefectureNumber": 37,
    "prefecture": "香川県",
    "city": "高松市",
    "town": "国分寺町国分"
  },
  "7690103": {
    "zipcode": "7690103",
    "prefectureCode": "37",
    "prefectureNumber": 37,
    "prefecture": "香川県",
    "city": "高松市",
    "town": "国分寺町福家"
  },
  "7690104": {
    "zipcode": "7690104",
    "prefectureCode": "37",
    "prefectureNumber": 37,
    "prefecture": "香川県",
    "city": "高松市",
    "town": "国分寺町新名"
  },
  "7690105": {
    "zipcode": "7690105",
    "prefectureCode": "37",
    "prefectureNumber": 37,
    "prefecture": "香川県",
    "city": "高松市",
    "town": "国分寺町柏原"
  },
  "7690200": {
    "zipcode": "7690200",
    "prefectureCode": "37",
    "prefectureNumber": 37,
    "prefecture": "香川県",
    "city": "綾歌郡宇多津町",
    "town": "以下に掲載がない場合"
  },
  "7690201": {
    "zipcode": "7690201",
    "prefectureCode": "37",
    "prefectureNumber": 37,
    "prefecture": "香川県",
    "city": "綾歌郡宇多津町",
    "town": "浜一番丁"
  },
  "7690202": {
    "zipcode": "7690202",
    "prefectureCode": "37",
    "prefectureNumber": 37,
    "prefecture": "香川県",
    "city": "綾歌郡宇多津町",
    "town": "浜二番丁"
  },
  "7690203": {
    "zipcode": "7690203",
    "prefectureCode": "37",
    "prefectureNumber": 37,
    "prefecture": "香川県",
    "city": "綾歌郡宇多津町",
    "town": "浜三番丁"
  },
  "7690204": {
    "zipcode": "7690204",
    "prefectureCode": "37",
    "prefectureNumber": 37,
    "prefecture": "香川県",
    "city": "綾歌郡宇多津町",
    "town": "浜四番丁"
  },
  "7690205": {
    "zipcode": "7690205",
    "prefectureCode": "37",
    "prefectureNumber": 37,
    "prefecture": "香川県",
    "city": "綾歌郡宇多津町",
    "town": "浜五番丁"
  },
  "7690206": {
    "zipcode": "7690206",
    "prefectureCode": "37",
    "prefectureNumber": 37,
    "prefecture": "香川県",
    "city": "綾歌郡宇多津町",
    "town": "浜六番丁"
  },
  "7690207": {
    "zipcode": "7690207",
    "prefectureCode": "37",
    "prefectureNumber": 37,
    "prefecture": "香川県",
    "city": "綾歌郡宇多津町",
    "town": "浜七番丁"
  },
  "7690208": {
    "zipcode": "7690208",
    "prefectureCode": "37",
    "prefectureNumber": 37,
    "prefecture": "香川県",
    "city": "綾歌郡宇多津町",
    "town": "浜八番丁"
  },
  "7690209": {
    "zipcode": "7690209",
    "prefectureCode": "37",
    "prefectureNumber": 37,
    "prefecture": "香川県",
    "city": "綾歌郡宇多津町",
    "town": "浜九番丁"
  },
  "7690210": {
    "zipcode": "7690210",
    "prefectureCode": "37",
    "prefectureNumber": 37,
    "prefecture": "香川県",
    "city": "綾歌郡宇多津町",
    "town": "宇多津町の次に番地がくる場合"
  },
  "7690211": {
    "zipcode": "7690211",
    "prefectureCode": "37",
    "prefectureNumber": 37,
    "prefecture": "香川県",
    "city": "綾歌郡宇多津町",
    "town": "十楽寺"
  },
  "7690212": {
    "zipcode": "7690212",
    "prefectureCode": "37",
    "prefectureNumber": 37,
    "prefecture": "香川県",
    "city": "綾歌郡宇多津町",
    "town": "沼ノ池"
  },
  "7690213": {
    "zipcode": "7690213",
    "prefectureCode": "37",
    "prefectureNumber": 37,
    "prefecture": "香川県",
    "city": "綾歌郡宇多津町",
    "town": "東分"
  },
  "7690221": {
    "zipcode": "7690221",
    "prefectureCode": "37",
    "prefectureNumber": 37,
    "prefecture": "香川県",
    "city": "綾歌郡宇多津町",
    "town": "吉田"
  },
  "7690222": {
    "zipcode": "7690222",
    "prefectureCode": "37",
    "prefectureNumber": 37,
    "prefecture": "香川県",
    "city": "綾歌郡宇多津町",
    "town": "大橋"
  },
  "7690223": {
    "zipcode": "7690223",
    "prefectureCode": "37",
    "prefectureNumber": 37,
    "prefecture": "香川県",
    "city": "綾歌郡宇多津町",
    "town": "新開"
  },
  "7690224": {
    "zipcode": "7690224",
    "prefectureCode": "37",
    "prefectureNumber": 37,
    "prefecture": "香川県",
    "city": "綾歌郡宇多津町",
    "town": "平山"
  },
  "7690225": {
    "zipcode": "7690225",
    "prefectureCode": "37",
    "prefectureNumber": 37,
    "prefecture": "香川県",
    "city": "綾歌郡宇多津町",
    "town": "新町"
  },
  "7690226": {
    "zipcode": "7690226",
    "prefectureCode": "37",
    "prefectureNumber": 37,
    "prefecture": "香川県",
    "city": "綾歌郡宇多津町",
    "town": "坂下"
  },
  "7690227": {
    "zipcode": "7690227",
    "prefectureCode": "37",
    "prefectureNumber": 37,
    "prefecture": "香川県",
    "city": "綾歌郡宇多津町",
    "town": "岩屋"
  },
  "7690228": {
    "zipcode": "7690228",
    "prefectureCode": "37",
    "prefectureNumber": 37,
    "prefecture": "香川県",
    "city": "綾歌郡宇多津町",
    "town": "向山"
  },
  "7690301": {
    "zipcode": "7690301",
    "prefectureCode": "37",
    "prefectureNumber": 37,
    "prefecture": "香川県",
    "city": "仲多度郡まんのう町",
    "town": "佐文"
  },
  "7690302": {
    "zipcode": "7690302",
    "prefectureCode": "37",
    "prefectureNumber": 37,
    "prefecture": "香川県",
    "city": "仲多度郡まんのう町",
    "town": "塩入"
  },
  "7690303": {
    "zipcode": "7690303",
    "prefectureCode": "37",
    "prefectureNumber": 37,
    "prefecture": "香川県",
    "city": "仲多度郡まんのう町",
    "town": "七箇"
  },
  "7690311": {
    "zipcode": "7690311",
    "prefectureCode": "37",
    "prefectureNumber": 37,
    "prefecture": "香川県",
    "city": "仲多度郡まんのう町",
    "town": "買田"
  },
  "7690312": {
    "zipcode": "7690312",
    "prefectureCode": "37",
    "prefectureNumber": 37,
    "prefecture": "香川県",
    "city": "仲多度郡まんのう町",
    "town": "宮田"
  },
  "7690313": {
    "zipcode": "7690313",
    "prefectureCode": "37",
    "prefectureNumber": 37,
    "prefecture": "香川県",
    "city": "仲多度郡まんのう町",
    "town": "生間"
  },
  "7690314": {
    "zipcode": "7690314",
    "prefectureCode": "37",
    "prefectureNumber": 37,
    "prefecture": "香川県",
    "city": "仲多度郡まんのう町",
    "town": "帆山"
  },
  "7690315": {
    "zipcode": "7690315",
    "prefectureCode": "37",
    "prefectureNumber": 37,
    "prefecture": "香川県",
    "city": "仲多度郡まんのう町",
    "town": "後山"
  },
  "7690316": {
    "zipcode": "7690316",
    "prefectureCode": "37",
    "prefectureNumber": 37,
    "prefecture": "香川県",
    "city": "仲多度郡まんのう町",
    "town": "大口"
  },
  "7690317": {
    "zipcode": "7690317",
    "prefectureCode": "37",
    "prefectureNumber": 37,
    "prefecture": "香川県",
    "city": "仲多度郡まんのう町",
    "town": "新目"
  },
  "7690318": {
    "zipcode": "7690318",
    "prefectureCode": "37",
    "prefectureNumber": 37,
    "prefecture": "香川県",
    "city": "仲多度郡まんのう町",
    "town": "山脇"
  },
  "7690319": {
    "zipcode": "7690319",
    "prefectureCode": "37",
    "prefectureNumber": 37,
    "prefecture": "香川県",
    "city": "仲多度郡まんのう町",
    "town": "追上"
  },
  "7690401": {
    "zipcode": "7690401",
    "prefectureCode": "37",
    "prefectureNumber": 37,
    "prefecture": "香川県",
    "city": "三豊市",
    "town": "財田町財田上"
  },
  "7690402": {
    "zipcode": "7690402",
    "prefectureCode": "37",
    "prefectureNumber": 37,
    "prefecture": "香川県",
    "city": "三豊市",
    "town": "財田町財田中"
  },
  "7691101": {
    "zipcode": "7691101",
    "prefectureCode": "37",
    "prefectureNumber": 37,
    "prefecture": "香川県",
    "city": "三豊市",
    "town": "詫間町詫間"
  },
  "7691102": {
    "zipcode": "7691102",
    "prefectureCode": "37",
    "prefectureNumber": 37,
    "prefecture": "香川県",
    "city": "三豊市",
    "town": "詫間町松崎"
  },
  "7691103": {
    "zipcode": "7691103",
    "prefectureCode": "37",
    "prefectureNumber": 37,
    "prefecture": "香川県",
    "city": "三豊市",
    "town": "詫間町香田"
  },
  "7691104": {
    "zipcode": "7691104",
    "prefectureCode": "37",
    "prefectureNumber": 37,
    "prefecture": "香川県",
    "city": "三豊市",
    "town": "詫間町大浜"
  },
  "7691105": {
    "zipcode": "7691105",
    "prefectureCode": "37",
    "prefectureNumber": 37,
    "prefecture": "香川県",
    "city": "三豊市",
    "town": "詫間町積"
  },
  "7691106": {
    "zipcode": "7691106",
    "prefectureCode": "37",
    "prefectureNumber": 37,
    "prefecture": "香川県",
    "city": "三豊市",
    "town": "詫間町箱"
  },
  "7691107": {
    "zipcode": "7691107",
    "prefectureCode": "37",
    "prefectureNumber": 37,
    "prefecture": "香川県",
    "city": "三豊市",
    "town": "詫間町生里"
  },
  "7691108": {
    "zipcode": "7691108",
    "prefectureCode": "37",
    "prefectureNumber": 37,
    "prefecture": "香川県",
    "city": "三豊市",
    "town": "詫間町粟島"
  },
  "7691109": {
    "zipcode": "7691109",
    "prefectureCode": "37",
    "prefectureNumber": 37,
    "prefecture": "香川県",
    "city": "三豊市",
    "town": "詫間町志々島"
  },
  "7691401": {
    "zipcode": "7691401",
    "prefectureCode": "37",
    "prefectureNumber": 37,
    "prefecture": "香川県",
    "city": "三豊市",
    "town": "仁尾町仁尾己"
  },
  "7691402": {
    "zipcode": "7691402",
    "prefectureCode": "37",
    "prefectureNumber": 37,
    "prefecture": "香川県",
    "city": "三豊市",
    "town": "仁尾町仁尾戊"
  },
  "7691403": {
    "zipcode": "7691403",
    "prefectureCode": "37",
    "prefectureNumber": 37,
    "prefecture": "香川県",
    "city": "三豊市",
    "town": "仁尾町仁尾丙"
  },
  "7691404": {
    "zipcode": "7691404",
    "prefectureCode": "37",
    "prefectureNumber": 37,
    "prefecture": "香川県",
    "city": "三豊市",
    "town": "仁尾町仁尾乙"
  },
  "7691405": {
    "zipcode": "7691405",
    "prefectureCode": "37",
    "prefectureNumber": 37,
    "prefecture": "香川県",
    "city": "三豊市",
    "town": "仁尾町仁尾庚"
  },
  "7691406": {
    "zipcode": "7691406",
    "prefectureCode": "37",
    "prefectureNumber": 37,
    "prefecture": "香川県",
    "city": "三豊市",
    "town": "仁尾町仁尾辛"
  },
  "7691407": {
    "zipcode": "7691407",
    "prefectureCode": "37",
    "prefectureNumber": 37,
    "prefecture": "香川県",
    "city": "三豊市",
    "town": "仁尾町仁尾丁"
  },
  "7691408": {
    "zipcode": "7691408",
    "prefectureCode": "37",
    "prefectureNumber": 37,
    "prefecture": "香川県",
    "city": "三豊市",
    "town": "仁尾町仁尾甲"
  },
  "7691410": {
    "zipcode": "7691410",
    "prefectureCode": "37",
    "prefectureNumber": 37,
    "prefecture": "香川県",
    "city": "三豊市",
    "town": "仁尾町家の浦"
  },
  "7691501": {
    "zipcode": "7691501",
    "prefectureCode": "37",
    "prefectureNumber": 37,
    "prefecture": "香川県",
    "city": "三豊市",
    "town": "豊中町比地大"
  },
  "7691502": {
    "zipcode": "7691502",
    "prefectureCode": "37",
    "prefectureNumber": 37,
    "prefecture": "香川県",
    "city": "三豊市",
    "town": "豊中町笠田笠岡"
  },
  "7691503": {
    "zipcode": "7691503",
    "prefectureCode": "37",
    "prefectureNumber": 37,
    "prefecture": "香川県",
    "city": "三豊市",
    "town": "豊中町笠田竹田"
  },
  "7691504": {
    "zipcode": "7691504",
    "prefectureCode": "37",
    "prefectureNumber": 37,
    "prefecture": "香川県",
    "city": "三豊市",
    "town": "豊中町上高野"
  },
  "7691505": {
    "zipcode": "7691505",
    "prefectureCode": "37",
    "prefectureNumber": 37,
    "prefecture": "香川県",
    "city": "三豊市",
    "town": "豊中町本山乙"
  },
  "7691506": {
    "zipcode": "7691506",
    "prefectureCode": "37",
    "prefectureNumber": 37,
    "prefecture": "香川県",
    "city": "三豊市",
    "town": "豊中町本山甲"
  },
  "7691507": {
    "zipcode": "7691507",
    "prefectureCode": "37",
    "prefectureNumber": 37,
    "prefecture": "香川県",
    "city": "三豊市",
    "town": "豊中町岡本"
  },
  "7691508": {
    "zipcode": "7691508",
    "prefectureCode": "37",
    "prefectureNumber": 37,
    "prefecture": "香川県",
    "city": "三豊市",
    "town": "豊中町下高野"
  },
  "7691601": {
    "zipcode": "7691601",
    "prefectureCode": "37",
    "prefectureNumber": 37,
    "prefecture": "香川県",
    "city": "観音寺市",
    "town": "豊浜町姫浜"
  },
  "7691602": {
    "zipcode": "7691602",
    "prefectureCode": "37",
    "prefectureNumber": 37,
    "prefecture": "香川県",
    "city": "観音寺市",
    "town": "豊浜町和田浜"
  },
  "7691603": {
    "zipcode": "7691603",
    "prefectureCode": "37",
    "prefectureNumber": 37,
    "prefecture": "香川県",
    "city": "観音寺市",
    "town": "豊浜町和田"
  },
  "7691604": {
    "zipcode": "7691604",
    "prefectureCode": "37",
    "prefectureNumber": 37,
    "prefecture": "香川県",
    "city": "観音寺市",
    "town": "豊浜町箕浦"
  },
  "7691611": {
    "zipcode": "7691611",
    "prefectureCode": "37",
    "prefectureNumber": 37,
    "prefecture": "香川県",
    "city": "観音寺市",
    "town": "大野原町大野原"
  },
  "7691612": {
    "zipcode": "7691612",
    "prefectureCode": "37",
    "prefectureNumber": 37,
    "prefecture": "香川県",
    "city": "観音寺市",
    "town": "大野原町中姫"
  },
  "7691613": {
    "zipcode": "7691613",
    "prefectureCode": "37",
    "prefectureNumber": 37,
    "prefecture": "香川県",
    "city": "観音寺市",
    "town": "大野原町花稲"
  },
  "7691614": {
    "zipcode": "7691614",
    "prefectureCode": "37",
    "prefectureNumber": 37,
    "prefecture": "香川県",
    "city": "観音寺市",
    "town": "大野原町萩原"
  },
  "7691615": {
    "zipcode": "7691615",
    "prefectureCode": "37",
    "prefectureNumber": 37,
    "prefecture": "香川県",
    "city": "観音寺市",
    "town": "大野原町丸井"
  },
  "7691616": {
    "zipcode": "7691616",
    "prefectureCode": "37",
    "prefectureNumber": 37,
    "prefecture": "香川県",
    "city": "観音寺市",
    "town": "大野原町福田原"
  },
  "7691617": {
    "zipcode": "7691617",
    "prefectureCode": "37",
    "prefectureNumber": 37,
    "prefecture": "香川県",
    "city": "観音寺市",
    "town": "大野原町青岡"
  },
  "7691621": {
    "zipcode": "7691621",
    "prefectureCode": "37",
    "prefectureNumber": 37,
    "prefecture": "香川県",
    "city": "観音寺市",
    "town": "大野原町井関"
  },
  "7691622": {
    "zipcode": "7691622",
    "prefectureCode": "37",
    "prefectureNumber": 37,
    "prefecture": "香川県",
    "city": "観音寺市",
    "town": "大野原町内野々"
  },
  "7691623": {
    "zipcode": "7691623",
    "prefectureCode": "37",
    "prefectureNumber": 37,
    "prefecture": "香川県",
    "city": "観音寺市",
    "town": "大野原町田野々"
  },
  "7691624": {
    "zipcode": "7691624",
    "prefectureCode": "37",
    "prefectureNumber": 37,
    "prefecture": "香川県",
    "city": "観音寺市",
    "town": "大野原町有木"
  },
  "7691625": {
    "zipcode": "7691625",
    "prefectureCode": "37",
    "prefectureNumber": 37,
    "prefecture": "香川県",
    "city": "観音寺市",
    "town": "大野原町海老済"
  },
  "7692101": {
    "zipcode": "7692101",
    "prefectureCode": "37",
    "prefectureNumber": 37,
    "prefecture": "香川県",
    "city": "さぬき市",
    "town": "志度"
  },
  "7692102": {
    "zipcode": "7692102",
    "prefectureCode": "37",
    "prefectureNumber": 37,
    "prefecture": "香川県",
    "city": "さぬき市",
    "town": "鴨庄"
  },
  "7692103": {
    "zipcode": "7692103",
    "prefectureCode": "37",
    "prefectureNumber": 37,
    "prefecture": "香川県",
    "city": "さぬき市",
    "town": "小田"
  },
  "7692104": {
    "zipcode": "7692104",
    "prefectureCode": "37",
    "prefectureNumber": 37,
    "prefecture": "香川県",
    "city": "さぬき市",
    "town": "鴨部"
  },
  "7692105": {
    "zipcode": "7692105",
    "prefectureCode": "37",
    "prefectureNumber": 37,
    "prefecture": "香川県",
    "city": "さぬき市",
    "town": "末"
  },
  "7692300": {
    "zipcode": "7692300",
    "prefectureCode": "37",
    "prefectureNumber": 37,
    "prefecture": "香川県",
    "city": "さぬき市",
    "town": "以下に掲載がない場合"
  },
  "7692301": {
    "zipcode": "7692301",
    "prefectureCode": "37",
    "prefectureNumber": 37,
    "prefecture": "香川県",
    "city": "さぬき市",
    "town": "長尾東"
  },
  "7692302": {
    "zipcode": "7692302",
    "prefectureCode": "37",
    "prefectureNumber": 37,
    "prefecture": "香川県",
    "city": "さぬき市",
    "town": "長尾西"
  },
  "7692303": {
    "zipcode": "7692303",
    "prefectureCode": "37",
    "prefectureNumber": 37,
    "prefecture": "香川県",
    "city": "さぬき市",
    "town": "長尾名"
  },
  "7692304": {
    "zipcode": "7692304",
    "prefectureCode": "37",
    "prefectureNumber": 37,
    "prefecture": "香川県",
    "city": "さぬき市",
    "town": "昭和"
  },
  "7692305": {
    "zipcode": "7692305",
    "prefectureCode": "37",
    "prefectureNumber": 37,
    "prefecture": "香川県",
    "city": "さぬき市",
    "town": "前山"
  },
  "7692306": {
    "zipcode": "7692306",
    "prefectureCode": "37",
    "prefectureNumber": 37,
    "prefecture": "香川県",
    "city": "さぬき市",
    "town": "多和"
  },
  "7692311": {
    "zipcode": "7692311",
    "prefectureCode": "37",
    "prefectureNumber": 37,
    "prefecture": "香川県",
    "city": "さぬき市",
    "town": "造田宮西"
  },
  "7692312": {
    "zipcode": "7692312",
    "prefectureCode": "37",
    "prefectureNumber": 37,
    "prefecture": "香川県",
    "city": "さぬき市",
    "town": "造田是弘"
  },
  "7692313": {
    "zipcode": "7692313",
    "prefectureCode": "37",
    "prefectureNumber": 37,
    "prefecture": "香川県",
    "city": "さぬき市",
    "town": "造田野間田"
  },
  "7692314": {
    "zipcode": "7692314",
    "prefectureCode": "37",
    "prefectureNumber": 37,
    "prefecture": "香川県",
    "city": "さぬき市",
    "town": "造田乙井"
  },
  "7692315": {
    "zipcode": "7692315",
    "prefectureCode": "37",
    "prefectureNumber": 37,
    "prefecture": "香川県",
    "city": "さぬき市",
    "town": "造田（オレンジタウン）"
  },
  "7692321": {
    "zipcode": "7692321",
    "prefectureCode": "37",
    "prefectureNumber": 37,
    "prefecture": "香川県",
    "city": "さぬき市",
    "town": "寒川町石田東"
  },
  "7692322": {
    "zipcode": "7692322",
    "prefectureCode": "37",
    "prefectureNumber": 37,
    "prefecture": "香川県",
    "city": "さぬき市",
    "town": "寒川町石田西"
  },
  "7692323": {
    "zipcode": "7692323",
    "prefectureCode": "37",
    "prefectureNumber": 37,
    "prefecture": "香川県",
    "city": "さぬき市",
    "town": "寒川町神前"
  },
  "7692401": {
    "zipcode": "7692401",
    "prefectureCode": "37",
    "prefectureNumber": 37,
    "prefecture": "香川県",
    "city": "さぬき市",
    "town": "津田町津田"
  },
  "7692402": {
    "zipcode": "7692402",
    "prefectureCode": "37",
    "prefectureNumber": 37,
    "prefecture": "香川県",
    "city": "さぬき市",
    "town": "津田町鶴羽"
  },
  "7692511": {
    "zipcode": "7692511",
    "prefectureCode": "37",
    "prefectureNumber": 37,
    "prefecture": "香川県",
    "city": "東かがわ市",
    "town": "小磯"
  },
  "7692512": {
    "zipcode": "7692512",
    "prefectureCode": "37",
    "prefectureNumber": 37,
    "prefecture": "香川県",
    "city": "東かがわ市",
    "town": "落合"
  },
  "7692513": {
    "zipcode": "7692513",
    "prefectureCode": "37",
    "prefectureNumber": 37,
    "prefecture": "香川県",
    "city": "東かがわ市",
    "town": "大谷"
  },
  "7692514": {
    "zipcode": "7692514",
    "prefectureCode": "37",
    "prefectureNumber": 37,
    "prefecture": "香川県",
    "city": "東かがわ市",
    "town": "松崎"
  },
  "7692515": {
    "zipcode": "7692515",
    "prefectureCode": "37",
    "prefectureNumber": 37,
    "prefecture": "香川県",
    "city": "東かがわ市",
    "town": "町田"
  },
  "7692516": {
    "zipcode": "7692516",
    "prefectureCode": "37",
    "prefectureNumber": 37,
    "prefecture": "香川県",
    "city": "東かがわ市",
    "town": "土居"
  },
  "7692517": {
    "zipcode": "7692517",
    "prefectureCode": "37",
    "prefectureNumber": 37,
    "prefecture": "香川県",
    "city": "東かがわ市",
    "town": "三殿"
  },
  "7692518": {
    "zipcode": "7692518",
    "prefectureCode": "37",
    "prefectureNumber": 37,
    "prefecture": "香川県",
    "city": "東かがわ市",
    "town": "中山"
  },
  "7692519": {
    "zipcode": "7692519",
    "prefectureCode": "37",
    "prefectureNumber": 37,
    "prefecture": "香川県",
    "city": "東かがわ市",
    "town": "小砂"
  },
  "7692520": {
    "zipcode": "7692520",
    "prefectureCode": "37",
    "prefectureNumber": 37,
    "prefecture": "香川県",
    "city": "東かがわ市",
    "town": "馬篠"
  },
  "7692521": {
    "zipcode": "7692521",
    "prefectureCode": "37",
    "prefectureNumber": 37,
    "prefecture": "香川県",
    "city": "東かがわ市",
    "town": "大内"
  },
  "7692601": {
    "zipcode": "7692601",
    "prefectureCode": "37",
    "prefectureNumber": 37,
    "prefecture": "香川県",
    "city": "東かがわ市",
    "town": "三本松"
  },
  "7692602": {
    "zipcode": "7692602",
    "prefectureCode": "37",
    "prefectureNumber": 37,
    "prefecture": "香川県",
    "city": "東かがわ市",
    "town": "川東"
  },
  "7692603": {
    "zipcode": "7692603",
    "prefectureCode": "37",
    "prefectureNumber": 37,
    "prefecture": "香川県",
    "city": "東かがわ市",
    "town": "横内"
  },
  "7692604": {
    "zipcode": "7692604",
    "prefectureCode": "37",
    "prefectureNumber": 37,
    "prefecture": "香川県",
    "city": "東かがわ市",
    "town": "西村"
  },
  "7692605": {
    "zipcode": "7692605",
    "prefectureCode": "37",
    "prefectureNumber": 37,
    "prefecture": "香川県",
    "city": "東かがわ市",
    "town": "中筋"
  },
  "7692606": {
    "zipcode": "7692606",
    "prefectureCode": "37",
    "prefectureNumber": 37,
    "prefecture": "香川県",
    "city": "東かがわ市",
    "town": "水主"
  },
  "7692700": {
    "zipcode": "7692700",
    "prefectureCode": "37",
    "prefectureNumber": 37,
    "prefecture": "香川県",
    "city": "東かがわ市",
    "town": "以下に掲載がない場合"
  },
  "7692701": {
    "zipcode": "7692701",
    "prefectureCode": "37",
    "prefectureNumber": 37,
    "prefecture": "香川県",
    "city": "東かがわ市",
    "town": "湊"
  },
  "7692702": {
    "zipcode": "7692702",
    "prefectureCode": "37",
    "prefectureNumber": 37,
    "prefecture": "香川県",
    "city": "東かがわ市",
    "town": "松原"
  },
  "7692703": {
    "zipcode": "7692703",
    "prefectureCode": "37",
    "prefectureNumber": 37,
    "prefecture": "香川県",
    "city": "東かがわ市",
    "town": "伊座"
  },
  "7692704": {
    "zipcode": "7692704",
    "prefectureCode": "37",
    "prefectureNumber": 37,
    "prefecture": "香川県",
    "city": "東かがわ市",
    "town": "帰来"
  },
  "7692705": {
    "zipcode": "7692705",
    "prefectureCode": "37",
    "prefectureNumber": 37,
    "prefecture": "香川県",
    "city": "東かがわ市",
    "town": "白鳥"
  },
  "7692711": {
    "zipcode": "7692711",
    "prefectureCode": "37",
    "prefectureNumber": 37,
    "prefecture": "香川県",
    "city": "東かがわ市",
    "town": "東山"
  },
  "7692712": {
    "zipcode": "7692712",
    "prefectureCode": "37",
    "prefectureNumber": 37,
    "prefecture": "香川県",
    "city": "東かがわ市",
    "town": "西山"
  },
  "7692713": {
    "zipcode": "7692713",
    "prefectureCode": "37",
    "prefectureNumber": 37,
    "prefecture": "香川県",
    "city": "東かがわ市",
    "town": "与田山"
  },
  "7692714": {
    "zipcode": "7692714",
    "prefectureCode": "37",
    "prefectureNumber": 37,
    "prefecture": "香川県",
    "city": "東かがわ市",
    "town": "入野山"
  },
  "7692715": {
    "zipcode": "7692715",
    "prefectureCode": "37",
    "prefectureNumber": 37,
    "prefecture": "香川県",
    "city": "東かがわ市",
    "town": "五名"
  },
  "7692901": {
    "zipcode": "7692901",
    "prefectureCode": "37",
    "prefectureNumber": 37,
    "prefecture": "香川県",
    "city": "東かがわ市",
    "town": "引田"
  },
  "7692902": {
    "zipcode": "7692902",
    "prefectureCode": "37",
    "prefectureNumber": 37,
    "prefecture": "香川県",
    "city": "東かがわ市",
    "town": "馬宿"
  },
  "7692903": {
    "zipcode": "7692903",
    "prefectureCode": "37",
    "prefectureNumber": 37,
    "prefecture": "香川県",
    "city": "東かがわ市",
    "town": "南野"
  },
  "7692904": {
    "zipcode": "7692904",
    "prefectureCode": "37",
    "prefectureNumber": 37,
    "prefecture": "香川県",
    "city": "東かがわ市",
    "town": "坂元"
  },
  "7692905": {
    "zipcode": "7692905",
    "prefectureCode": "37",
    "prefectureNumber": 37,
    "prefecture": "香川県",
    "city": "東かがわ市",
    "town": "黒羽"
  },
  "7692906": {
    "zipcode": "7692906",
    "prefectureCode": "37",
    "prefectureNumber": 37,
    "prefecture": "香川県",
    "city": "東かがわ市",
    "town": "川股"
  },
  "7692907": {
    "zipcode": "7692907",
    "prefectureCode": "37",
    "prefectureNumber": 37,
    "prefecture": "香川県",
    "city": "東かがわ市",
    "town": "吉田"
  },
  "7692908": {
    "zipcode": "7692908",
    "prefectureCode": "37",
    "prefectureNumber": 37,
    "prefecture": "香川県",
    "city": "東かがわ市",
    "town": "小海"
  }
}
