{
  "7700000": {
    "zipcode": "7700000",
    "prefectureCode": "36",
    "prefectureNumber": 36,
    "prefecture": "徳島県",
    "city": "徳島市",
    "town": "以下に掲載がない場合"
  },
  "7700001": {
    "zipcode": "7700001",
    "prefectureCode": "36",
    "prefectureNumber": 36,
    "prefecture": "徳島県",
    "city": "徳島市",
    "town": "春日町"
  },
  "7700002": {
    "zipcode": "7700002",
    "prefectureCode": "36",
    "prefectureNumber": 36,
    "prefecture": "徳島県",
    "city": "徳島市",
    "town": "春日"
  },
  "7700003": {
    "zipcode": "7700003",
    "prefectureCode": "36",
    "prefectureNumber": 36,
    "prefecture": "徳島県",
    "city": "徳島市",
    "town": "北田宮"
  },
  "7700004": {
    "zipcode": "7700004",
    "prefectureCode": "36",
    "prefectureNumber": 36,
    "prefecture": "徳島県",
    "city": "徳島市",
    "town": "南田宮"
  },
  "7700005": {
    "zipcode": "7700005",
    "prefectureCode": "36",
    "prefectureNumber": 36,
    "prefecture": "徳島県",
    "city": "徳島市",
    "town": "南矢三町"
  },
  "7700006": {
    "zipcode": "7700006",
    "prefectureCode": "36",
    "prefectureNumber": 36,
    "prefecture": "徳島県",
    "city": "徳島市",
    "town": "北矢三町"
  },
  "7700011": {
    "zipcode": "7700011",
    "prefectureCode": "36",
    "prefectureNumber": 36,
    "prefecture": "徳島県",
    "city": "徳島市",
    "town": "北佐古一番町"
  },
  "7700012": {
    "zipcode": "7700012",
    "prefectureCode": "36",
    "prefectureNumber": 36,
    "prefecture": "徳島県",
    "city": "徳島市",
    "town": "北佐古二番町"
  },
  "7700021": {
    "zipcode": "7700021",
    "prefectureCode": "36",
    "prefectureNumber": 36,
    "prefecture": "徳島県",
    "city": "徳島市",
    "town": "佐古一番町"
  },
  "7700022": {
    "zipcode": "7700022",
    "prefectureCode": "36",
    "prefectureNumber": 36,
    "prefecture": "徳島県",
    "city": "徳島市",
    "town": "佐古二番町"
  },
  "7700023": {
    "zipcode": "7700023",
    "prefectureCode": "36",
    "prefectureNumber": 36,
    "prefecture": "徳島県",
    "city": "徳島市",
    "town": "佐古三番町"
  },
  "7700024": {
    "zipcode": "7700024",
    "prefectureCode": "36",
    "prefectureNumber": 36,
    "prefecture": "徳島県",
    "city": "徳島市",
    "town": "佐古四番町"
  },
  "7700025": {
    "zipcode": "7700025",
    "prefectureCode": "36",
    "prefectureNumber": 36,
    "prefecture": "徳島県",
    "city": "徳島市",
    "town": "佐古五番町"
  },
  "7700026": {
    "zipcode": "7700026",
    "prefectureCode": "36",
    "prefectureNumber": 36,
    "prefecture": "徳島県",
    "city": "徳島市",
    "town": "佐古六番町"
  },
  "7700027": {
    "zipcode": "7700027",
    "prefectureCode": "36",
    "prefectureNumber": 36,
    "prefecture": "徳島県",
    "city": "徳島市",
    "town": "佐古七番町"
  },
  "7700028": {
    "zipcode": "7700028",
    "prefectureCode": "36",
    "prefectureNumber": 36,
    "prefecture": "徳島県",
    "city": "徳島市",
    "town": "佐古八番町"
  },
  "7700031": {
    "zipcode": "7700031",
    "prefectureCode": "36",
    "prefectureNumber": 36,
    "prefecture": "徳島県",
    "city": "徳島市",
    "town": "南佐古一番町"
  },
  "7700032": {
    "zipcode": "7700032",
    "prefectureCode": "36",
    "prefectureNumber": 36,
    "prefecture": "徳島県",
    "city": "徳島市",
    "town": "南佐古二番町"
  },
  "7700033": {
    "zipcode": "7700033",
    "prefectureCode": "36",
    "prefectureNumber": 36,
    "prefecture": "徳島県",
    "city": "徳島市",
    "town": "南佐古三番町"
  },
  "7700034": {
    "zipcode": "7700034",
    "prefectureCode": "36",
    "prefectureNumber": 36,
    "prefecture": "徳島県",
    "city": "徳島市",
    "town": "南佐古四番町"
  },
  "7700035": {
    "zipcode": "7700035",
    "prefectureCode": "36",
    "prefectureNumber": 36,
    "prefecture": "徳島県",
    "city": "徳島市",
    "town": "南佐古五番町"
  },
  "7700036": {
    "zipcode": "7700036",
    "prefectureCode": "36",
    "prefectureNumber": 36,
    "prefecture": "徳島県",
    "city": "徳島市",
    "town": "南佐古六番町"
  },
  "7700037": {
    "zipcode": "7700037",
    "prefectureCode": "36",
    "prefectureNumber": 36,
    "prefecture": "徳島県",
    "city": "徳島市",
    "town": "南佐古七番町"
  },
  "7700038": {
    "zipcode": "7700038",
    "prefectureCode": "36",
    "prefectureNumber": 36,
    "prefecture": "徳島県",
    "city": "徳島市",
    "town": "南佐古八番町"
  },
  "7700039": {
    "zipcode": "7700039",
    "prefectureCode": "36",
    "prefectureNumber": 36,
    "prefecture": "徳島県",
    "city": "徳島市",
    "town": "佐古山町"
  },
  "7700041": {
    "zipcode": "7700041",
    "prefectureCode": "36",
    "prefectureNumber": 36,
    "prefecture": "徳島県",
    "city": "徳島市",
    "town": "蔵本元町"
  },
  "7700042": {
    "zipcode": "7700042",
    "prefectureCode": "36",
    "prefectureNumber": 36,
    "prefecture": "徳島県",
    "city": "徳島市",
    "town": "蔵本町"
  },
  "7700043": {
    "zipcode": "7700043",
    "prefectureCode": "36",
    "prefectureNumber": 36,
    "prefecture": "徳島県",
    "city": "徳島市",
    "town": "南蔵本町"
  },
  "7700044": {
    "zipcode": "7700044",
    "prefectureCode": "36",
    "prefectureNumber": 36,
    "prefecture": "徳島県",
    "city": "徳島市",
    "town": "庄町"
  },
  "7700045": {
    "zipcode": "7700045",
    "prefectureCode": "36",
    "prefectureNumber": 36,
    "prefecture": "徳島県",
    "city": "徳島市",
    "town": "南庄町"
  },
  "7700046": {
    "zipcode": "7700046",
    "prefectureCode": "36",
    "prefectureNumber": 36,
    "prefecture": "徳島県",
    "city": "徳島市",
    "town": "鮎喰町"
  },
  "7700047": {
    "zipcode": "7700047",
    "prefectureCode": "36",
    "prefectureNumber": 36,
    "prefecture": "徳島県",
    "city": "徳島市",
    "town": "名東町"
  },
  "7700048": {
    "zipcode": "7700048",
    "prefectureCode": "36",
    "prefectureNumber": 36,
    "prefecture": "徳島県",
    "city": "徳島市",
    "town": "加茂名町"
  },
  "7700051": {
    "zipcode": "7700051",
    "prefectureCode": "36",
    "prefectureNumber": 36,
    "prefecture": "徳島県",
    "city": "徳島市",
    "town": "北島田町"
  },
  "7700052": {
    "zipcode": "7700052",
    "prefectureCode": "36",
    "prefectureNumber": 36,
    "prefecture": "徳島県",
    "city": "徳島市",
    "town": "中島田町"
  },
  "7700053": {
    "zipcode": "7700053",
    "prefectureCode": "36",
    "prefectureNumber": 36,
    "prefecture": "徳島県",
    "city": "徳島市",
    "town": "南島田町"
  },
  "7700061": {
    "zipcode": "7700061",
    "prefectureCode": "36",
    "prefectureNumber": 36,
    "prefecture": "徳島県",
    "city": "徳島市",
    "town": "不動北町"
  },
  "7700062": {
    "zipcode": "7700062",
    "prefectureCode": "36",
    "prefectureNumber": 36,
    "prefecture": "徳島県",
    "city": "徳島市",
    "town": "不動東町"
  },
  "7700063": {
    "zipcode": "7700063",
    "prefectureCode": "36",
    "prefectureNumber": 36,
    "prefecture": "徳島県",
    "city": "徳島市",
    "town": "不動本町"
  },
  "7700064": {
    "zipcode": "7700064",
    "prefectureCode": "36",
    "prefectureNumber": 36,
    "prefecture": "徳島県",
    "city": "徳島市",
    "town": "不動西町"
  },
  "7700801": {
    "zipcode": "7700801",
    "prefectureCode": "36",
    "prefectureNumber": 36,
    "prefecture": "徳島県",
    "city": "徳島市",
    "town": "上助任町"
  },
  "7700802": {
    "zipcode": "7700802",
    "prefectureCode": "36",
    "prefectureNumber": 36,
    "prefecture": "徳島県",
    "city": "徳島市",
    "town": "吉野本町"
  },
  "7700803": {
    "zipcode": "7700803",
    "prefectureCode": "36",
    "prefectureNumber": 36,
    "prefecture": "徳島県",
    "city": "徳島市",
    "town": "上吉野町"
  },
  "7700804": {
    "zipcode": "7700804",
    "prefectureCode": "36",
    "prefectureNumber": 36,
    "prefecture": "徳島県",
    "city": "徳島市",
    "town": "中吉野町"
  },
  "7700805": {
    "zipcode": "7700805",
    "prefectureCode": "36",
    "prefectureNumber": 36,
    "prefecture": "徳島県",
    "city": "徳島市",
    "town": "下助任町"
  },
  "7700806": {
    "zipcode": "7700806",
    "prefectureCode": "36",
    "prefectureNumber": 36,
    "prefecture": "徳島県",
    "city": "徳島市",
    "town": "北前川町"
  },
  "7700807": {
    "zipcode": "7700807",
    "prefectureCode": "36",
    "prefectureNumber": 36,
    "prefecture": "徳島県",
    "city": "徳島市",
    "town": "中前川町"
  },
  "7700808": {
    "zipcode": "7700808",
    "prefectureCode": "36",
    "prefectureNumber": 36,
    "prefecture": "徳島県",
    "city": "徳島市",
    "town": "南前川町"
  },
  "7700811": {
    "zipcode": "7700811",
    "prefectureCode": "36",
    "prefectureNumber": 36,
    "prefecture": "徳島県",
    "city": "徳島市",
    "town": "東吉野町"
  },
  "7700812": {
    "zipcode": "7700812",
    "prefectureCode": "36",
    "prefectureNumber": 36,
    "prefecture": "徳島県",
    "city": "徳島市",
    "town": "北常三島町"
  },
  "7700813": {
    "zipcode": "7700813",
    "prefectureCode": "36",
    "prefectureNumber": 36,
    "prefecture": "徳島県",
    "city": "徳島市",
    "town": "中常三島町"
  },
  "7700814": {
    "zipcode": "7700814",
    "prefectureCode": "36",
    "prefectureNumber": 36,
    "prefecture": "徳島県",
    "city": "徳島市",
    "town": "南常三島町"
  },
  "7700815": {
    "zipcode": "7700815",
    "prefectureCode": "36",
    "prefectureNumber": 36,
    "prefecture": "徳島県",
    "city": "徳島市",
    "town": "助任橋"
  },
  "7700816": {
    "zipcode": "7700816",
    "prefectureCode": "36",
    "prefectureNumber": 36,
    "prefecture": "徳島県",
    "city": "徳島市",
    "town": "助任本町"
  },
  "7700821": {
    "zipcode": "7700821",
    "prefectureCode": "36",
    "prefectureNumber": 36,
    "prefecture": "徳島県",
    "city": "徳島市",
    "town": "北出来島町"
  },
  "7700822": {
    "zipcode": "7700822",
    "prefectureCode": "36",
    "prefectureNumber": 36,
    "prefecture": "徳島県",
    "city": "徳島市",
    "town": "東出来島町"
  },
  "7700823": {
    "zipcode": "7700823",
    "prefectureCode": "36",
    "prefectureNumber": 36,
    "prefecture": "徳島県",
    "city": "徳島市",
    "town": "出来島本町"
  },
  "7700824": {
    "zipcode": "7700824",
    "prefectureCode": "36",
    "prefectureNumber": 36,
    "prefecture": "徳島県",
    "city": "徳島市",
    "town": "南出来島町"
  },
  "7700831": {
    "zipcode": "7700831",
    "prefectureCode": "36",
    "prefectureNumber": 36,
    "prefecture": "徳島県",
    "city": "徳島市",
    "town": "寺島本町西"
  },
  "7700832": {
    "zipcode": "7700832",
    "prefectureCode": "36",
    "prefectureNumber": 36,
    "prefecture": "徳島県",
    "city": "徳島市",
    "town": "寺島本町東"
  },
  "7700833": {
    "zipcode": "7700833",
    "prefectureCode": "36",
    "prefectureNumber": 36,
    "prefecture": "徳島県",
    "city": "徳島市",
    "town": "一番町"
  },
  "7700834": {
    "zipcode": "7700834",
    "prefectureCode": "36",
    "prefectureNumber": 36,
    "prefecture": "徳島県",
    "city": "徳島市",
    "town": "元町"
  },
  "7700835": {
    "zipcode": "7700835",
    "prefectureCode": "36",
    "prefectureNumber": 36,
    "prefecture": "徳島県",
    "city": "徳島市",
    "town": "藍場町"
  },
  "7700841": {
    "zipcode": "7700841",
    "prefectureCode": "36",
    "prefectureNumber": 36,
    "prefecture": "徳島県",
    "city": "徳島市",
    "town": "八百屋町"
  },
  "7700842": {
    "zipcode": "7700842",
    "prefectureCode": "36",
    "prefectureNumber": 36,
    "prefecture": "徳島県",
    "city": "徳島市",
    "town": "通町"
  },
  "7700843": {
    "zipcode": "7700843",
    "prefectureCode": "36",
    "prefectureNumber": 36,
    "prefecture": "徳島県",
    "city": "徳島市",
    "town": "両国本町"
  },
  "7700844": {
    "zipcode": "7700844",
    "prefectureCode": "36",
    "prefectureNumber": 36,
    "prefecture": "徳島県",
    "city": "徳島市",
    "town": "中通町"
  },
  "7700845": {
    "zipcode": "7700845",
    "prefectureCode": "36",
    "prefectureNumber": 36,
    "prefecture": "徳島県",
    "city": "徳島市",
    "town": "新内町"
  },
  "7700846": {
    "zipcode": "7700846",
    "prefectureCode": "36",
    "prefectureNumber": 36,
    "prefecture": "徳島県",
    "city": "徳島市",
    "town": "南内町"
  },
  "7700847": {
    "zipcode": "7700847",
    "prefectureCode": "36",
    "prefectureNumber": 36,
    "prefecture": "徳島県",
    "city": "徳島市",
    "town": "幸町"
  },
  "7700851": {
    "zipcode": "7700851",
    "prefectureCode": "36",
    "prefectureNumber": 36,
    "prefecture": "徳島県",
    "city": "徳島市",
    "town": "徳島町城内"
  },
  "7700852": {
    "zipcode": "7700852",
    "prefectureCode": "36",
    "prefectureNumber": 36,
    "prefecture": "徳島県",
    "city": "徳島市",
    "town": "徳島町"
  },
  "7700853": {
    "zipcode": "7700853",
    "prefectureCode": "36",
    "prefectureNumber": 36,
    "prefecture": "徳島県",
    "city": "徳島市",
    "town": "中徳島町"
  },
  "7700854": {
    "zipcode": "7700854",
    "prefectureCode": "36",
    "prefectureNumber": 36,
    "prefecture": "徳島県",
    "city": "徳島市",
    "town": "徳島本町"
  },
  "7700855": {
    "zipcode": "7700855",
    "prefectureCode": "36",
    "prefectureNumber": 36,
    "prefecture": "徳島県",
    "city": "徳島市",
    "town": "新蔵町"
  },
  "7700856": {
    "zipcode": "7700856",
    "prefectureCode": "36",
    "prefectureNumber": 36,
    "prefecture": "徳島県",
    "city": "徳島市",
    "town": "中洲町"
  },
  "7700861": {
    "zipcode": "7700861",
    "prefectureCode": "36",
    "prefectureNumber": 36,
    "prefecture": "徳島県",
    "city": "徳島市",
    "town": "住吉"
  },
  "7700862": {
    "zipcode": "7700862",
    "prefectureCode": "36",
    "prefectureNumber": 36,
    "prefecture": "徳島県",
    "city": "徳島市",
    "town": "城東町"
  },
  "7700863": {
    "zipcode": "7700863",
    "prefectureCode": "36",
    "prefectureNumber": 36,
    "prefecture": "徳島県",
    "city": "徳島市",
    "town": "安宅"
  },
  "7700864": {
    "zipcode": "7700864",
    "prefectureCode": "36",
    "prefectureNumber": 36,
    "prefecture": "徳島県",
    "city": "徳島市",
    "town": "大和町"
  },
  "7700865": {
    "zipcode": "7700865",
    "prefectureCode": "36",
    "prefectureNumber": 36,
    "prefecture": "徳島県",
    "city": "徳島市",
    "town": "南末広町"
  },
  "7700866": {
    "zipcode": "7700866",
    "prefectureCode": "36",
    "prefectureNumber": 36,
    "prefecture": "徳島県",
    "city": "徳島市",
    "town": "末広"
  },
  "7700867": {
    "zipcode": "7700867",
    "prefectureCode": "36",
    "prefectureNumber": 36,
    "prefecture": "徳島県",
    "city": "徳島市",
    "town": "新南福島"
  },
  "7700868": {
    "zipcode": "7700868",
    "prefectureCode": "36",
    "prefectureNumber": 36,
    "prefecture": "徳島県",
    "city": "徳島市",
    "town": "福島"
  },
  "7700871": {
    "zipcode": "7700871",
    "prefectureCode": "36",
    "prefectureNumber": 36,
    "prefecture": "徳島県",
    "city": "徳島市",
    "town": "金沢"
  },
  "7700872": {
    "zipcode": "7700872",
    "prefectureCode": "36",
    "prefectureNumber": 36,
    "prefecture": "徳島県",
    "city": "徳島市",
    "town": "北沖洲"
  },
  "7700873": {
    "zipcode": "7700873",
    "prefectureCode": "36",
    "prefectureNumber": 36,
    "prefecture": "徳島県",
    "city": "徳島市",
    "town": "東沖洲"
  },
  "7700874": {
    "zipcode": "7700874",
    "prefectureCode": "36",
    "prefectureNumber": 36,
    "prefecture": "徳島県",
    "city": "徳島市",
    "town": "南沖洲"
  },
  "7700901": {
    "zipcode": "7700901",
    "prefectureCode": "36",
    "prefectureNumber": 36,
    "prefecture": "徳島県",
    "city": "徳島市",
    "town": "西船場町"
  },
  "7700902": {
    "zipcode": "7700902",
    "prefectureCode": "36",
    "prefectureNumber": 36,
    "prefecture": "徳島県",
    "city": "徳島市",
    "town": "西新町"
  },
  "7700903": {
    "zipcode": "7700903",
    "prefectureCode": "36",
    "prefectureNumber": 36,
    "prefecture": "徳島県",
    "city": "徳島市",
    "town": "西大工町"
  },
  "7700904": {
    "zipcode": "7700904",
    "prefectureCode": "36",
    "prefectureNumber": 36,
    "prefecture": "徳島県",
    "city": "徳島市",
    "town": "新町橋"
  },
  "7700905": {
    "zipcode": "7700905",
    "prefectureCode": "36",
    "prefectureNumber": 36,
    "prefecture": "徳島県",
    "city": "徳島市",
    "town": "東大工町"
  },
  "7700906": {
    "zipcode": "7700906",
    "prefectureCode": "36",
    "prefectureNumber": 36,
    "prefecture": "徳島県",
    "city": "徳島市",
    "town": "東山手町"
  },
  "7700907": {
    "zipcode": "7700907",
    "prefectureCode": "36",
    "prefectureNumber": 36,
    "prefecture": "徳島県",
    "city": "徳島市",
    "town": "西山手町"
  },
  "7700908": {
    "zipcode": "7700908",
    "prefectureCode": "36",
    "prefectureNumber": 36,
    "prefecture": "徳島県",
    "city": "徳島市",
    "town": "眉山町"
  },
  "7700909": {
    "zipcode": "7700909",
    "prefectureCode": "36",
    "prefectureNumber": 36,
    "prefecture": "徳島県",
    "city": "徳島市",
    "town": "寺町"
  },
  "7700911": {
    "zipcode": "7700911",
    "prefectureCode": "36",
    "prefectureNumber": 36,
    "prefecture": "徳島県",
    "city": "徳島市",
    "town": "東船場町"
  },
  "7700912": {
    "zipcode": "7700912",
    "prefectureCode": "36",
    "prefectureNumber": 36,
    "prefecture": "徳島県",
    "city": "徳島市",
    "town": "東新町"
  },
  "7700913": {
    "zipcode": "7700913",
    "prefectureCode": "36",
    "prefectureNumber": 36,
    "prefecture": "徳島県",
    "city": "徳島市",
    "town": "南新町"
  },
  "7700914": {
    "zipcode": "7700914",
    "prefectureCode": "36",
    "prefectureNumber": 36,
    "prefecture": "徳島県",
    "city": "徳島市",
    "town": "籠屋町"
  },
  "7700915": {
    "zipcode": "7700915",
    "prefectureCode": "36",
    "prefectureNumber": 36,
    "prefecture": "徳島県",
    "city": "徳島市",
    "town": "富田町"
  },
  "7700916": {
    "zipcode": "7700916",
    "prefectureCode": "36",
    "prefectureNumber": 36,
    "prefecture": "徳島県",
    "city": "徳島市",
    "town": "銀座"
  },
  "7700917": {
    "zipcode": "7700917",
    "prefectureCode": "36",
    "prefectureNumber": 36,
    "prefecture": "徳島県",
    "city": "徳島市",
    "town": "両国橋"
  },
  "7700918": {
    "zipcode": "7700918",
    "prefectureCode": "36",
    "prefectureNumber": 36,
    "prefecture": "徳島県",
    "city": "徳島市",
    "town": "紺屋町"
  },
  "7700921": {
    "zipcode": "7700921",
    "prefectureCode": "36",
    "prefectureNumber": 36,
    "prefecture": "徳島県",
    "city": "徳島市",
    "town": "栄町"
  },
  "7700922": {
    "zipcode": "7700922",
    "prefectureCode": "36",
    "prefectureNumber": 36,
    "prefecture": "徳島県",
    "city": "徳島市",
    "town": "鷹匠町"
  },
  "7700923": {
    "zipcode": "7700923",
    "prefectureCode": "36",
    "prefectureNumber": 36,
    "prefecture": "徳島県",
    "city": "徳島市",
    "town": "大道"
  },
  "7700924": {
    "zipcode": "7700924",
    "prefectureCode": "36",
    "prefectureNumber": 36,
    "prefecture": "徳島県",
    "city": "徳島市",
    "town": "幟町"
  },
  "7700925": {
    "zipcode": "7700925",
    "prefectureCode": "36",
    "prefectureNumber": 36,
    "prefecture": "徳島県",
    "city": "徳島市",
    "town": "弓町"
  },
  "7700926": {
    "zipcode": "7700926",
    "prefectureCode": "36",
    "prefectureNumber": 36,
    "prefecture": "徳島県",
    "city": "徳島市",
    "town": "伊賀町"
  },
  "7700927": {
    "zipcode": "7700927",
    "prefectureCode": "36",
    "prefectureNumber": 36,
    "prefecture": "徳島県",
    "city": "徳島市",
    "town": "勢見町"
  },
  "7700928": {
    "zipcode": "7700928",
    "prefectureCode": "36",
    "prefectureNumber": 36,
    "prefecture": "徳島県",
    "city": "徳島市",
    "town": "二軒屋町"
  },
  "7700929": {
    "zipcode": "7700929",
    "prefectureCode": "36",
    "prefectureNumber": 36,
    "prefecture": "徳島県",
    "city": "徳島市",
    "town": "西富田町"
  },
  "7700931": {
    "zipcode": "7700931",
    "prefectureCode": "36",
    "prefectureNumber": 36,
    "prefecture": "徳島県",
    "city": "徳島市",
    "town": "富田浜"
  },
  "7700932": {
    "zipcode": "7700932",
    "prefectureCode": "36",
    "prefectureNumber": 36,
    "prefecture": "徳島県",
    "city": "徳島市",
    "town": "仲之町"
  },
  "7700933": {
    "zipcode": "7700933",
    "prefectureCode": "36",
    "prefectureNumber": 36,
    "prefecture": "徳島県",
    "city": "徳島市",
    "town": "南仲之町"
  },
  "7700934": {
    "zipcode": "7700934",
    "prefectureCode": "36",
    "prefectureNumber": 36,
    "prefecture": "徳島県",
    "city": "徳島市",
    "town": "秋田町"
  },
  "7700935": {
    "zipcode": "7700935",
    "prefectureCode": "36",
    "prefectureNumber": 36,
    "prefecture": "徳島県",
    "city": "徳島市",
    "town": "伊月町"
  },
  "7700936": {
    "zipcode": "7700936",
    "prefectureCode": "36",
    "prefectureNumber": 36,
    "prefecture": "徳島県",
    "city": "徳島市",
    "town": "中央通"
  },
  "7700937": {
    "zipcode": "7700937",
    "prefectureCode": "36",
    "prefectureNumber": 36,
    "prefecture": "徳島県",
    "city": "徳島市",
    "town": "富田橋"
  },
  "7700938": {
    "zipcode": "7700938",
    "prefectureCode": "36",
    "prefectureNumber": 36,
    "prefecture": "徳島県",
    "city": "徳島市",
    "town": "明神町"
  },
  "7700939": {
    "zipcode": "7700939",
    "prefectureCode": "36",
    "prefectureNumber": 36,
    "prefecture": "徳島県",
    "city": "徳島市",
    "town": "かちどき橋"
  },
  "7700941": {
    "zipcode": "7700941",
    "prefectureCode": "36",
    "prefectureNumber": 36,
    "prefecture": "徳島県",
    "city": "徳島市",
    "town": "万代町"
  },
  "7700942": {
    "zipcode": "7700942",
    "prefectureCode": "36",
    "prefectureNumber": 36,
    "prefecture": "徳島県",
    "city": "徳島市",
    "town": "昭和町"
  },
  "7700943": {
    "zipcode": "7700943",
    "prefectureCode": "36",
    "prefectureNumber": 36,
    "prefecture": "徳島県",
    "city": "徳島市",
    "town": "中昭和町"
  },
  "7700944": {
    "zipcode": "7700944",
    "prefectureCode": "36",
    "prefectureNumber": 36,
    "prefecture": "徳島県",
    "city": "徳島市",
    "town": "南昭和町"
  },
  "7708001": {
    "zipcode": "7708001",
    "prefectureCode": "36",
    "prefectureNumber": 36,
    "prefecture": "徳島県",
    "city": "徳島市",
    "town": "津田海岸町"
  },
  "7708002": {
    "zipcode": "7708002",
    "prefectureCode": "36",
    "prefectureNumber": 36,
    "prefecture": "徳島県",
    "city": "徳島市",
    "town": "津田町"
  },
  "7708003": {
    "zipcode": "7708003",
    "prefectureCode": "36",
    "prefectureNumber": 36,
    "prefecture": "徳島県",
    "city": "徳島市",
    "town": "津田本町"
  },
  "7708004": {
    "zipcode": "7708004",
    "prefectureCode": "36",
    "prefectureNumber": 36,
    "prefecture": "徳島県",
    "city": "徳島市",
    "town": "津田西町"
  },
  "7708005": {
    "zipcode": "7708005",
    "prefectureCode": "36",
    "prefectureNumber": 36,
    "prefecture": "徳島県",
    "city": "徳島市",
    "town": "津田浜之町"
  },
  "7708006": {
    "zipcode": "7708006",
    "prefectureCode": "36",
    "prefectureNumber": 36,
    "prefecture": "徳島県",
    "city": "徳島市",
    "town": "新浜町"
  },
  "7708007": {
    "zipcode": "7708007",
    "prefectureCode": "36",
    "prefectureNumber": 36,
    "prefecture": "徳島県",
    "city": "徳島市",
    "town": "新浜本町"
  },
  "7708008": {
    "zipcode": "7708008",
    "prefectureCode": "36",
    "prefectureNumber": 36,
    "prefecture": "徳島県",
    "city": "徳島市",
    "town": "西新浜町"
  },
  "7708011": {
    "zipcode": "7708011",
    "prefectureCode": "36",
    "prefectureNumber": 36,
    "prefecture": "徳島県",
    "city": "徳島市",
    "town": "論田町"
  },
  "7708012": {
    "zipcode": "7708012",
    "prefectureCode": "36",
    "prefectureNumber": 36,
    "prefecture": "徳島県",
    "city": "徳島市",
    "town": "大原町（その他）"
  },
  "7708021": {
    "zipcode": "7708021",
    "prefectureCode": "36",
    "prefectureNumber": 36,
    "prefecture": "徳島県",
    "city": "徳島市",
    "town": "雑賀町"
  },
  "7708022": {
    "zipcode": "7708022",
    "prefectureCode": "36",
    "prefectureNumber": 36,
    "prefecture": "徳島県",
    "city": "徳島市",
    "town": "大松町"
  },
  "7708023": {
    "zipcode": "7708023",
    "prefectureCode": "36",
    "prefectureNumber": 36,
    "prefecture": "徳島県",
    "city": "徳島市",
    "town": "勝占町"
  },
  "7708024": {
    "zipcode": "7708024",
    "prefectureCode": "36",
    "prefectureNumber": 36,
    "prefecture": "徳島県",
    "city": "徳島市",
    "town": "西須賀町"
  },
  "7708025": {
    "zipcode": "7708025",
    "prefectureCode": "36",
    "prefectureNumber": 36,
    "prefecture": "徳島県",
    "city": "徳島市",
    "town": "三軒屋町"
  },
  "7708031": {
    "zipcode": "7708031",
    "prefectureCode": "36",
    "prefectureNumber": 36,
    "prefecture": "徳島県",
    "city": "徳島市",
    "town": "大谷町"
  },
  "7708032": {
    "zipcode": "7708032",
    "prefectureCode": "36",
    "prefectureNumber": 36,
    "prefecture": "徳島県",
    "city": "徳島市",
    "town": "北山町"
  },
  "7708033": {
    "zipcode": "7708033",
    "prefectureCode": "36",
    "prefectureNumber": 36,
    "prefecture": "徳島県",
    "city": "徳島市",
    "town": "方上町"
  },
  "7708040": {
    "zipcode": "7708040",
    "prefectureCode": "36",
    "prefectureNumber": 36,
    "prefecture": "徳島県",
    "city": "徳島市",
    "town": "上八万町（その他）"
  },
  "7708041": {
    "zipcode": "7708041",
    "prefectureCode": "36",
    "prefectureNumber": 36,
    "prefecture": "徳島県",
    "city": "徳島市",
    "town": "上八万町西山（しらさぎ台）"
  },
  "7708051": {
    "zipcode": "7708051",
    "prefectureCode": "36",
    "prefectureNumber": 36,
    "prefecture": "徳島県",
    "city": "徳島市",
    "town": "沖浜町"
  },
  "7708052": {
    "zipcode": "7708052",
    "prefectureCode": "36",
    "prefectureNumber": 36,
    "prefecture": "徳島県",
    "city": "徳島市",
    "town": "沖浜"
  },
  "7708053": {
    "zipcode": "7708053",
    "prefectureCode": "36",
    "prefectureNumber": 36,
    "prefecture": "徳島県",
    "city": "徳島市",
    "town": "沖浜東"
  },
  "7708054": {
    "zipcode": "7708054",
    "prefectureCode": "36",
    "prefectureNumber": 36,
    "prefecture": "徳島県",
    "city": "徳島市",
    "town": "山城西"
  },
  "7708055": {
    "zipcode": "7708055",
    "prefectureCode": "36",
    "prefectureNumber": 36,
    "prefecture": "徳島県",
    "city": "徳島市",
    "town": "山城町"
  },
  "7708056": {
    "zipcode": "7708056",
    "prefectureCode": "36",
    "prefectureNumber": 36,
    "prefecture": "徳島県",
    "city": "徳島市",
    "town": "問屋町"
  },
  "7708061": {
    "zipcode": "7708061",
    "prefectureCode": "36",
    "prefectureNumber": 36,
    "prefecture": "徳島県",
    "city": "徳島市",
    "town": "西二軒屋町"
  },
  "7708063": {
    "zipcode": "7708063",
    "prefectureCode": "36",
    "prefectureNumber": 36,
    "prefecture": "徳島県",
    "city": "徳島市",
    "town": "南二軒屋町"
  },
  "7708064": {
    "zipcode": "7708064",
    "prefectureCode": "36",
    "prefectureNumber": 36,
    "prefecture": "徳島県",
    "city": "徳島市",
    "town": "城南町"
  },
  "7708070": {
    "zipcode": "7708070",
    "prefectureCode": "36",
    "prefectureNumber": 36,
    "prefecture": "徳島県",
    "city": "徳島市",
    "town": "八万町（その他）"
  },
  "7708071": {
    "zipcode": "7708071",
    "prefectureCode": "36",
    "prefectureNumber": 36,
    "prefecture": "徳島県",
    "city": "徳島市",
    "town": "八万町（中津山）"
  },
  "7708072": {
    "zipcode": "7708072",
    "prefectureCode": "36",
    "prefectureNumber": 36,
    "prefecture": "徳島県",
    "city": "徳島市",
    "town": "八万町（中津浦）"
  },
  "7708073": {
    "zipcode": "7708073",
    "prefectureCode": "36",
    "prefectureNumber": 36,
    "prefecture": "徳島県",
    "city": "徳島市",
    "town": "八万町（上福万）"
  },
  "7708074": {
    "zipcode": "7708074",
    "prefectureCode": "36",
    "prefectureNumber": 36,
    "prefecture": "徳島県",
    "city": "徳島市",
    "town": "八万町（下福万）"
  },
  "7708075": {
    "zipcode": "7708075",
    "prefectureCode": "36",
    "prefectureNumber": 36,
    "prefecture": "徳島県",
    "city": "徳島市",
    "town": "八万町（千鳥）"
  },
  "7708076": {
    "zipcode": "7708076",
    "prefectureCode": "36",
    "prefectureNumber": 36,
    "prefecture": "徳島県",
    "city": "徳島市",
    "town": "八万町（内浜）"
  },
  "7708077": {
    "zipcode": "7708077",
    "prefectureCode": "36",
    "prefectureNumber": 36,
    "prefecture": "徳島県",
    "city": "徳島市",
    "town": "八万町（夷山）"
  },
  "7708078": {
    "zipcode": "7708078",
    "prefectureCode": "36",
    "prefectureNumber": 36,
    "prefecture": "徳島県",
    "city": "徳島市",
    "town": "八万町（橋本）"
  },
  "7708079": {
    "zipcode": "7708079",
    "prefectureCode": "36",
    "prefectureNumber": 36,
    "prefecture": "徳島県",
    "city": "徳島市",
    "town": "八万町（大坪）"
  },
  "7708081": {
    "zipcode": "7708081",
    "prefectureCode": "36",
    "prefectureNumber": 36,
    "prefecture": "徳島県",
    "city": "徳島市",
    "town": "八万町（弐丈）"
  },
  "7708082": {
    "zipcode": "7708082",
    "prefectureCode": "36",
    "prefectureNumber": 36,
    "prefecture": "徳島県",
    "city": "徳島市",
    "town": "八万町（川南）"
  },
  "7708083": {
    "zipcode": "7708083",
    "prefectureCode": "36",
    "prefectureNumber": 36,
    "prefecture": "徳島県",
    "city": "徳島市",
    "town": "八万町（法花）"
  },
  "7708084": {
    "zipcode": "7708084",
    "prefectureCode": "36",
    "prefectureNumber": 36,
    "prefecture": "徳島県",
    "city": "徳島市",
    "town": "八万町（法花谷）"
  }
}
