{
  "7710101": {
    "zipcode": "7710101",
    "prefectureCode": "36",
    "prefectureNumber": 36,
    "prefecture": "徳島県",
    "city": "徳島市",
    "town": "川内町（旭野）"
  },
  "7710102": {
    "zipcode": "7710102",
    "prefectureCode": "36",
    "prefectureNumber": 36,
    "prefecture": "徳島県",
    "city": "徳島市",
    "town": "川内町（小松北）"
  },
  "7710103": {
    "zipcode": "7710103",
    "prefectureCode": "36",
    "prefectureNumber": 36,
    "prefecture": "徳島県",
    "city": "徳島市",
    "town": "川内町（小松東）"
  },
  "7710104": {
    "zipcode": "7710104",
    "prefectureCode": "36",
    "prefectureNumber": 36,
    "prefecture": "徳島県",
    "city": "徳島市",
    "town": "川内町（小松西）"
  },
  "7710105": {
    "zipcode": "7710105",
    "prefectureCode": "36",
    "prefectureNumber": 36,
    "prefecture": "徳島県",
    "city": "徳島市",
    "town": "川内町（下別宮西）"
  },
  "7710106": {
    "zipcode": "7710106",
    "prefectureCode": "36",
    "prefectureNumber": 36,
    "prefecture": "徳島県",
    "city": "徳島市",
    "town": "川内町（下別宮東）"
  },
  "7710111": {
    "zipcode": "7710111",
    "prefectureCode": "36",
    "prefectureNumber": 36,
    "prefecture": "徳島県",
    "city": "徳島市",
    "town": "川内町（富久）"
  },
  "7710112": {
    "zipcode": "7710112",
    "prefectureCode": "36",
    "prefectureNumber": 36,
    "prefecture": "徳島県",
    "city": "徳島市",
    "town": "川内町（富吉）"
  },
  "7710113": {
    "zipcode": "7710113",
    "prefectureCode": "36",
    "prefectureNumber": 36,
    "prefecture": "徳島県",
    "city": "徳島市",
    "town": "川内町（松岡）"
  },
  "7710114": {
    "zipcode": "7710114",
    "prefectureCode": "36",
    "prefectureNumber": 36,
    "prefecture": "徳島県",
    "city": "徳島市",
    "town": "川内町（宮島本浦）"
  },
  "7710115": {
    "zipcode": "7710115",
    "prefectureCode": "36",
    "prefectureNumber": 36,
    "prefecture": "徳島県",
    "city": "徳島市",
    "town": "川内町（宮島浜）"
  },
  "7710116": {
    "zipcode": "7710116",
    "prefectureCode": "36",
    "prefectureNumber": 36,
    "prefecture": "徳島県",
    "city": "徳島市",
    "town": "川内町（宮島錦野）"
  },
  "7710117": {
    "zipcode": "7710117",
    "prefectureCode": "36",
    "prefectureNumber": 36,
    "prefecture": "徳島県",
    "city": "徳島市",
    "town": "川内町（鶴島）"
  },
  "7710121": {
    "zipcode": "7710121",
    "prefectureCode": "36",
    "prefectureNumber": 36,
    "prefecture": "徳島県",
    "city": "徳島市",
    "town": "川内町（鈴江東）"
  },
  "7710122": {
    "zipcode": "7710122",
    "prefectureCode": "36",
    "prefectureNumber": 36,
    "prefecture": "徳島県",
    "city": "徳島市",
    "town": "川内町（鈴江西）"
  },
  "7710123": {
    "zipcode": "7710123",
    "prefectureCode": "36",
    "prefectureNumber": 36,
    "prefecture": "徳島県",
    "city": "徳島市",
    "town": "川内町（鈴江北）"
  },
  "7710124": {
    "zipcode": "7710124",
    "prefectureCode": "36",
    "prefectureNumber": 36,
    "prefecture": "徳島県",
    "city": "徳島市",
    "town": "川内町（鈴江南）"
  },
  "7710125": {
    "zipcode": "7710125",
    "prefectureCode": "36",
    "prefectureNumber": 36,
    "prefecture": "徳島県",
    "city": "徳島市",
    "town": "川内町（金岡）"
  },
  "7710126": {
    "zipcode": "7710126",
    "prefectureCode": "36",
    "prefectureNumber": 36,
    "prefecture": "徳島県",
    "city": "徳島市",
    "town": "川内町（上別宮東）"
  },
  "7710127": {
    "zipcode": "7710127",
    "prefectureCode": "36",
    "prefectureNumber": 36,
    "prefecture": "徳島県",
    "city": "徳島市",
    "town": "川内町（上別宮南）"
  },
  "7710128": {
    "zipcode": "7710128",
    "prefectureCode": "36",
    "prefectureNumber": 36,
    "prefecture": "徳島県",
    "city": "徳島市",
    "town": "川内町（上別宮北）"
  },
  "7710129": {
    "zipcode": "7710129",
    "prefectureCode": "36",
    "prefectureNumber": 36,
    "prefecture": "徳島県",
    "city": "徳島市",
    "town": "川内町（北原）"
  },
  "7710130": {
    "zipcode": "7710130",
    "prefectureCode": "36",
    "prefectureNumber": 36,
    "prefecture": "徳島県",
    "city": "徳島市",
    "town": "川内町（加賀須野）"
  },
  "7710131": {
    "zipcode": "7710131",
    "prefectureCode": "36",
    "prefectureNumber": 36,
    "prefecture": "徳島県",
    "city": "徳島市",
    "town": "川内町（大松）"
  },
  "7710132": {
    "zipcode": "7710132",
    "prefectureCode": "36",
    "prefectureNumber": 36,
    "prefecture": "徳島県",
    "city": "徳島市",
    "town": "川内町（平石夷野）"
  },
  "7710133": {
    "zipcode": "7710133",
    "prefectureCode": "36",
    "prefectureNumber": 36,
    "prefecture": "徳島県",
    "city": "徳島市",
    "town": "川内町（平石夷野番外）"
  },
  "7710134": {
    "zipcode": "7710134",
    "prefectureCode": "36",
    "prefectureNumber": 36,
    "prefecture": "徳島県",
    "city": "徳島市",
    "town": "川内町（平石住吉）"
  },
  "7710135": {
    "zipcode": "7710135",
    "prefectureCode": "36",
    "prefectureNumber": 36,
    "prefecture": "徳島県",
    "city": "徳島市",
    "town": "川内町（平石若松）"
  },
  "7710136": {
    "zipcode": "7710136",
    "prefectureCode": "36",
    "prefectureNumber": 36,
    "prefecture": "徳島県",
    "city": "徳島市",
    "town": "川内町（平石古田）"
  },
  "7710137": {
    "zipcode": "7710137",
    "prefectureCode": "36",
    "prefectureNumber": 36,
    "prefecture": "徳島県",
    "city": "徳島市",
    "town": "川内町（平石若宮）"
  },
  "7710138": {
    "zipcode": "7710138",
    "prefectureCode": "36",
    "prefectureNumber": 36,
    "prefecture": "徳島県",
    "city": "徳島市",
    "town": "川内町（平石流通団地）"
  },
  "7710139": {
    "zipcode": "7710139",
    "prefectureCode": "36",
    "prefectureNumber": 36,
    "prefecture": "徳島県",
    "city": "徳島市",
    "town": "川内町（米津）"
  },
  "7710141": {
    "zipcode": "7710141",
    "prefectureCode": "36",
    "prefectureNumber": 36,
    "prefecture": "徳島県",
    "city": "徳島市",
    "town": "川内町（竹須賀）"
  },
  "7710142": {
    "zipcode": "7710142",
    "prefectureCode": "36",
    "prefectureNumber": 36,
    "prefecture": "徳島県",
    "city": "徳島市",
    "town": "川内町（沖島）"
  },
  "7710143": {
    "zipcode": "7710143",
    "prefectureCode": "36",
    "prefectureNumber": 36,
    "prefecture": "徳島県",
    "city": "徳島市",
    "town": "川内町（中島）"
  },
  "7710144": {
    "zipcode": "7710144",
    "prefectureCode": "36",
    "prefectureNumber": 36,
    "prefecture": "徳島県",
    "city": "徳島市",
    "town": "川内町（榎瀬）"
  },
  "7710200": {
    "zipcode": "7710200",
    "prefectureCode": "36",
    "prefectureNumber": 36,
    "prefecture": "徳島県",
    "city": "板野郡北島町",
    "town": "以下に掲載がない場合"
  },
  "7710201": {
    "zipcode": "7710201",
    "prefectureCode": "36",
    "prefectureNumber": 36,
    "prefecture": "徳島県",
    "city": "板野郡北島町",
    "town": "北村"
  },
  "7710202": {
    "zipcode": "7710202",
    "prefectureCode": "36",
    "prefectureNumber": 36,
    "prefecture": "徳島県",
    "city": "板野郡北島町",
    "town": "太郎八須"
  },
  "7710203": {
    "zipcode": "7710203",
    "prefectureCode": "36",
    "prefectureNumber": 36,
    "prefecture": "徳島県",
    "city": "板野郡北島町",
    "town": "中村"
  },
  "7710204": {
    "zipcode": "7710204",
    "prefectureCode": "36",
    "prefectureNumber": 36,
    "prefecture": "徳島県",
    "city": "板野郡北島町",
    "town": "鯛浜"
  },
  "7710205": {
    "zipcode": "7710205",
    "prefectureCode": "36",
    "prefectureNumber": 36,
    "prefecture": "徳島県",
    "city": "板野郡北島町",
    "town": "江尻"
  },
  "7710206": {
    "zipcode": "7710206",
    "prefectureCode": "36",
    "prefectureNumber": 36,
    "prefecture": "徳島県",
    "city": "板野郡北島町",
    "town": "高房"
  },
  "7710207": {
    "zipcode": "7710207",
    "prefectureCode": "36",
    "prefectureNumber": 36,
    "prefecture": "徳島県",
    "city": "板野郡北島町",
    "town": "新喜来"
  },
  "7710211": {
    "zipcode": "7710211",
    "prefectureCode": "36",
    "prefectureNumber": 36,
    "prefecture": "徳島県",
    "city": "板野郡松茂町",
    "town": "長岸"
  },
  "7710212": {
    "zipcode": "7710212",
    "prefectureCode": "36",
    "prefectureNumber": 36,
    "prefecture": "徳島県",
    "city": "板野郡松茂町",
    "town": "中喜来"
  },
  "7710213": {
    "zipcode": "7710213",
    "prefectureCode": "36",
    "prefectureNumber": 36,
    "prefecture": "徳島県",
    "city": "板野郡松茂町",
    "town": "豊久"
  },
  "7710214": {
    "zipcode": "7710214",
    "prefectureCode": "36",
    "prefectureNumber": 36,
    "prefecture": "徳島県",
    "city": "板野郡松茂町",
    "town": "満穂"
  },
  "7710215": {
    "zipcode": "7710215",
    "prefectureCode": "36",
    "prefectureNumber": 36,
    "prefecture": "徳島県",
    "city": "板野郡松茂町",
    "town": "豊岡"
  },
  "7710216": {
    "zipcode": "7710216",
    "prefectureCode": "36",
    "prefectureNumber": 36,
    "prefecture": "徳島県",
    "city": "板野郡松茂町",
    "town": "長原"
  },
  "7710217": {
    "zipcode": "7710217",
    "prefectureCode": "36",
    "prefectureNumber": 36,
    "prefecture": "徳島県",
    "city": "板野郡松茂町",
    "town": "豊中"
  },
  "7710218": {
    "zipcode": "7710218",
    "prefectureCode": "36",
    "prefectureNumber": 36,
    "prefecture": "徳島県",
    "city": "板野郡松茂町",
    "town": "住吉"
  },
  "7710219": {
    "zipcode": "7710219",
    "prefectureCode": "36",
    "prefectureNumber": 36,
    "prefecture": "徳島県",
    "city": "板野郡松茂町",
    "town": "笹木野"
  },
  "7710220": {
    "zipcode": "7710220",
    "prefectureCode": "36",
    "prefectureNumber": 36,
    "prefecture": "徳島県",
    "city": "板野郡松茂町",
    "town": "広島"
  },
  "7710360": {
    "zipcode": "7710360",
    "prefectureCode": "36",
    "prefectureNumber": 36,
    "prefecture": "徳島県",
    "city": "鳴門市",
    "town": "瀬戸町明神（その他）"
  },
  "7710361": {
    "zipcode": "7710361",
    "prefectureCode": "36",
    "prefectureNumber": 36,
    "prefecture": "徳島県",
    "city": "鳴門市",
    "town": "瀬戸町堂浦"
  },
  "7710362": {
    "zipcode": "7710362",
    "prefectureCode": "36",
    "prefectureNumber": 36,
    "prefecture": "徳島県",
    "city": "鳴門市",
    "town": "瀬戸町北泊（小海）"
  },
  "7710363": {
    "zipcode": "7710363",
    "prefectureCode": "36",
    "prefectureNumber": 36,
    "prefecture": "徳島県",
    "city": "鳴門市",
    "town": "瀬戸町湊谷"
  },
  "7710364": {
    "zipcode": "7710364",
    "prefectureCode": "36",
    "prefectureNumber": 36,
    "prefecture": "徳島県",
    "city": "鳴門市",
    "town": "瀬戸町北泊（その他）"
  },
  "7710365": {
    "zipcode": "7710365",
    "prefectureCode": "36",
    "prefectureNumber": 36,
    "prefecture": "徳島県",
    "city": "鳴門市",
    "town": "瀬戸町小島田"
  },
  "7710366": {
    "zipcode": "7710366",
    "prefectureCode": "36",
    "prefectureNumber": 36,
    "prefecture": "徳島県",
    "city": "鳴門市",
    "town": "瀬戸町中島田"
  },
  "7710367": {
    "zipcode": "7710367",
    "prefectureCode": "36",
    "prefectureNumber": 36,
    "prefecture": "徳島県",
    "city": "鳴門市",
    "town": "瀬戸町大島田"
  },
  "7710368": {
    "zipcode": "7710368",
    "prefectureCode": "36",
    "prefectureNumber": 36,
    "prefecture": "徳島県",
    "city": "鳴門市",
    "town": "瀬戸町室"
  },
  "7710369": {
    "zipcode": "7710369",
    "prefectureCode": "36",
    "prefectureNumber": 36,
    "prefecture": "徳島県",
    "city": "鳴門市",
    "town": "瀬戸町撫佐"
  },
  "7710371": {
    "zipcode": "7710371",
    "prefectureCode": "36",
    "prefectureNumber": 36,
    "prefecture": "徳島県",
    "city": "鳴門市",
    "town": "北灘町櫛木"
  },
  "7710372": {
    "zipcode": "7710372",
    "prefectureCode": "36",
    "prefectureNumber": 36,
    "prefecture": "徳島県",
    "city": "鳴門市",
    "town": "北灘町粟田"
  },
  "7710373": {
    "zipcode": "7710373",
    "prefectureCode": "36",
    "prefectureNumber": 36,
    "prefecture": "徳島県",
    "city": "鳴門市",
    "town": "北灘町大浦"
  },
  "7710374": {
    "zipcode": "7710374",
    "prefectureCode": "36",
    "prefectureNumber": 36,
    "prefecture": "徳島県",
    "city": "鳴門市",
    "town": "北灘町宿毛谷"
  },
  "7710375": {
    "zipcode": "7710375",
    "prefectureCode": "36",
    "prefectureNumber": 36,
    "prefecture": "徳島県",
    "city": "鳴門市",
    "town": "北灘町鳥ケ丸"
  },
  "7710376": {
    "zipcode": "7710376",
    "prefectureCode": "36",
    "prefectureNumber": 36,
    "prefecture": "徳島県",
    "city": "鳴門市",
    "town": "北灘町折野"
  },
  "7710377": {
    "zipcode": "7710377",
    "prefectureCode": "36",
    "prefectureNumber": 36,
    "prefecture": "徳島県",
    "city": "鳴門市",
    "town": "北灘町大須"
  },
  "7710378": {
    "zipcode": "7710378",
    "prefectureCode": "36",
    "prefectureNumber": 36,
    "prefecture": "徳島県",
    "city": "鳴門市",
    "town": "北灘町碁浦"
  },
  "7711151": {
    "zipcode": "7711151",
    "prefectureCode": "36",
    "prefectureNumber": 36,
    "prefecture": "徳島県",
    "city": "徳島市",
    "town": "応神町古川"
  },
  "7711152": {
    "zipcode": "7711152",
    "prefectureCode": "36",
    "prefectureNumber": 36,
    "prefecture": "徳島県",
    "city": "徳島市",
    "town": "応神町中原"
  },
  "7711153": {
    "zipcode": "7711153",
    "prefectureCode": "36",
    "prefectureNumber": 36,
    "prefecture": "徳島県",
    "city": "徳島市",
    "town": "応神町吉成"
  },
  "7711154": {
    "zipcode": "7711154",
    "prefectureCode": "36",
    "prefectureNumber": 36,
    "prefecture": "徳島県",
    "city": "徳島市",
    "town": "応神町東貞方"
  },
  "7711155": {
    "zipcode": "7711155",
    "prefectureCode": "36",
    "prefectureNumber": 36,
    "prefecture": "徳島県",
    "city": "徳島市",
    "town": "応神町西貞方"
  },
  "7711156": {
    "zipcode": "7711156",
    "prefectureCode": "36",
    "prefectureNumber": 36,
    "prefecture": "徳島県",
    "city": "徳島市",
    "town": "応神町応神産業団地"
  },
  "7711200": {
    "zipcode": "7711200",
    "prefectureCode": "36",
    "prefectureNumber": 36,
    "prefecture": "徳島県",
    "city": "板野郡藍住町",
    "town": "以下に掲載がない場合"
  },
  "7711201": {
    "zipcode": "7711201",
    "prefectureCode": "36",
    "prefectureNumber": 36,
    "prefecture": "徳島県",
    "city": "板野郡藍住町",
    "town": "奥野（その他）"
  },
  "7711202": {
    "zipcode": "7711202",
    "prefectureCode": "36",
    "prefectureNumber": 36,
    "prefecture": "徳島県",
    "city": "板野郡藍住町",
    "town": "奥野（和田）"
  },
  "7711203": {
    "zipcode": "7711203",
    "prefectureCode": "36",
    "prefectureNumber": 36,
    "prefecture": "徳島県",
    "city": "板野郡藍住町",
    "town": "奥野（矢上前）"
  },
  "7711210": {
    "zipcode": "7711210",
    "prefectureCode": "36",
    "prefectureNumber": 36,
    "prefecture": "徳島県",
    "city": "板野郡藍住町",
    "town": "徳命（その他）"
  },
  "7711211": {
    "zipcode": "7711211",
    "prefectureCode": "36",
    "prefectureNumber": 36,
    "prefecture": "徳島県",
    "city": "板野郡藍住町",
    "town": "徳命（元村東）"
  },
  "7711212": {
    "zipcode": "7711212",
    "prefectureCode": "36",
    "prefectureNumber": 36,
    "prefecture": "徳島県",
    "city": "板野郡藍住町",
    "town": "徳命（前須西）"
  },
  "7711220": {
    "zipcode": "7711220",
    "prefectureCode": "36",
    "prefectureNumber": 36,
    "prefecture": "徳島県",
    "city": "板野郡藍住町",
    "town": "東中富（その他）"
  },
  "7711221": {
    "zipcode": "7711221",
    "prefectureCode": "36",
    "prefectureNumber": 36,
    "prefecture": "徳島県",
    "city": "板野郡藍住町",
    "town": "東中富（長江傍示）"
  },
  "7711222": {
    "zipcode": "7711222",
    "prefectureCode": "36",
    "prefectureNumber": 36,
    "prefecture": "徳島県",
    "city": "板野郡藍住町",
    "town": "東中富（北傍示）"
  },
  "7711223": {
    "zipcode": "7711223",
    "prefectureCode": "36",
    "prefectureNumber": 36,
    "prefecture": "徳島県",
    "city": "板野郡藍住町",
    "town": "東中富（天王傍示）"
  },
  "7711224": {
    "zipcode": "7711224",
    "prefectureCode": "36",
    "prefectureNumber": 36,
    "prefecture": "徳島県",
    "city": "板野郡藍住町",
    "town": "東中富（鑓場傍示）"
  },
  "7711230": {
    "zipcode": "7711230",
    "prefectureCode": "36",
    "prefectureNumber": 36,
    "prefecture": "徳島県",
    "city": "板野郡藍住町",
    "town": "富吉（その他）"
  },
  "7711231": {
    "zipcode": "7711231",
    "prefectureCode": "36",
    "prefectureNumber": 36,
    "prefecture": "徳島県",
    "city": "板野郡藍住町",
    "town": "富吉（豊吉）"
  },
  "7711232": {
    "zipcode": "7711232",
    "prefectureCode": "36",
    "prefectureNumber": 36,
    "prefecture": "徳島県",
    "city": "板野郡藍住町",
    "town": "富吉（穂実）"
  },
  "7711240": {
    "zipcode": "7711240",
    "prefectureCode": "36",
    "prefectureNumber": 36,
    "prefecture": "徳島県",
    "city": "板野郡藍住町",
    "town": "乙瀬"
  },
  "7711250": {
    "zipcode": "7711250",
    "prefectureCode": "36",
    "prefectureNumber": 36,
    "prefecture": "徳島県",
    "city": "板野郡藍住町",
    "town": "矢上（その他）"
  },
  "7711251": {
    "zipcode": "7711251",
    "prefectureCode": "36",
    "prefectureNumber": 36,
    "prefecture": "徳島県",
    "city": "板野郡藍住町",
    "town": "矢上（原）"
  },
  "7711252": {
    "zipcode": "7711252",
    "prefectureCode": "36",
    "prefectureNumber": 36,
    "prefecture": "徳島県",
    "city": "板野郡藍住町",
    "town": "矢上（北分）"
  },
  "7711253": {
    "zipcode": "7711253",
    "prefectureCode": "36",
    "prefectureNumber": 36,
    "prefecture": "徳島県",
    "city": "板野郡藍住町",
    "town": "矢上（安任）"
  },
  "7711260": {
    "zipcode": "7711260",
    "prefectureCode": "36",
    "prefectureNumber": 36,
    "prefecture": "徳島県",
    "city": "板野郡藍住町",
    "town": "笠木（その他）"
  },
  "7711261": {
    "zipcode": "7711261",
    "prefectureCode": "36",
    "prefectureNumber": 36,
    "prefecture": "徳島県",
    "city": "板野郡藍住町",
    "town": "笠木（東野）"
  },
  "7711262": {
    "zipcode": "7711262",
    "prefectureCode": "36",
    "prefectureNumber": 36,
    "prefecture": "徳島県",
    "city": "板野郡藍住町",
    "town": "笠木（西野）"
  },
  "7711264": {
    "zipcode": "7711264",
    "prefectureCode": "36",
    "prefectureNumber": 36,
    "prefecture": "徳島県",
    "city": "板野郡藍住町",
    "town": "住吉（その他）"
  },
  "7711265": {
    "zipcode": "7711265",
    "prefectureCode": "36",
    "prefectureNumber": 36,
    "prefecture": "徳島県",
    "city": "板野郡藍住町",
    "town": "住吉（千鳥ケ浜）"
  },
  "7711266": {
    "zipcode": "7711266",
    "prefectureCode": "36",
    "prefectureNumber": 36,
    "prefecture": "徳島県",
    "city": "板野郡藍住町",
    "town": "住吉（若宮）"
  },
  "7711267": {
    "zipcode": "7711267",
    "prefectureCode": "36",
    "prefectureNumber": 36,
    "prefecture": "徳島県",
    "city": "板野郡藍住町",
    "town": "住吉（江端）"
  },
  "7711270": {
    "zipcode": "7711270",
    "prefectureCode": "36",
    "prefectureNumber": 36,
    "prefecture": "徳島県",
    "city": "板野郡藍住町",
    "town": "勝瑞（その他）"
  },
  "7711271": {
    "zipcode": "7711271",
    "prefectureCode": "36",
    "prefectureNumber": 36,
    "prefecture": "徳島県",
    "city": "板野郡藍住町",
    "town": "勝瑞（幸島）"
  },
  "7711272": {
    "zipcode": "7711272",
    "prefectureCode": "36",
    "prefectureNumber": 36,
    "prefecture": "徳島県",
    "city": "板野郡藍住町",
    "town": "勝瑞（成長）"
  },
  "7711273": {
    "zipcode": "7711273",
    "prefectureCode": "36",
    "prefectureNumber": 36,
    "prefecture": "徳島県",
    "city": "板野郡藍住町",
    "town": "勝瑞（東勝地）"
  },
  "7711300": {
    "zipcode": "7711300",
    "prefectureCode": "36",
    "prefectureNumber": 36,
    "prefecture": "徳島県",
    "city": "板野郡上板町",
    "town": "以下に掲載がない場合"
  },
  "7711301": {
    "zipcode": "7711301",
    "prefectureCode": "36",
    "prefectureNumber": 36,
    "prefecture": "徳島県",
    "city": "板野郡上板町",
    "town": "鍛冶屋原"
  },
  "7711302": {
    "zipcode": "7711302",
    "prefectureCode": "36",
    "prefectureNumber": 36,
    "prefecture": "徳島県",
    "city": "板野郡上板町",
    "town": "七條"
  },
  "7711310": {
    "zipcode": "7711310",
    "prefectureCode": "36",
    "prefectureNumber": 36,
    "prefecture": "徳島県",
    "city": "板野郡上板町",
    "town": "泉谷"
  },
  "7711311": {
    "zipcode": "7711311",
    "prefectureCode": "36",
    "prefectureNumber": 36,
    "prefecture": "徳島県",
    "city": "板野郡上板町",
    "town": "引野"
  },
  "7711320": {
    "zipcode": "7711320",
    "prefectureCode": "36",
    "prefectureNumber": 36,
    "prefecture": "徳島県",
    "city": "板野郡上板町",
    "town": "神宅"
  },
  "7711330": {
    "zipcode": "7711330",
    "prefectureCode": "36",
    "prefectureNumber": 36,
    "prefecture": "徳島県",
    "city": "板野郡上板町",
    "town": "西分"
  },
  "7711341": {
    "zipcode": "7711341",
    "prefectureCode": "36",
    "prefectureNumber": 36,
    "prefecture": "徳島県",
    "city": "板野郡上板町",
    "town": "第十新田"
  },
  "7711342": {
    "zipcode": "7711342",
    "prefectureCode": "36",
    "prefectureNumber": 36,
    "prefecture": "徳島県",
    "city": "板野郡上板町",
    "town": "佐藤塚"
  },
  "7711343": {
    "zipcode": "7711343",
    "prefectureCode": "36",
    "prefectureNumber": 36,
    "prefecture": "徳島県",
    "city": "板野郡上板町",
    "town": "椎本"
  },
  "7711344": {
    "zipcode": "7711344",
    "prefectureCode": "36",
    "prefectureNumber": 36,
    "prefecture": "徳島県",
    "city": "板野郡上板町",
    "town": "下六條"
  },
  "7711345": {
    "zipcode": "7711345",
    "prefectureCode": "36",
    "prefectureNumber": 36,
    "prefecture": "徳島県",
    "city": "板野郡上板町",
    "town": "上六條"
  },
  "7711346": {
    "zipcode": "7711346",
    "prefectureCode": "36",
    "prefectureNumber": 36,
    "prefecture": "徳島県",
    "city": "板野郡上板町",
    "town": "高磯"
  },
  "7711347": {
    "zipcode": "7711347",
    "prefectureCode": "36",
    "prefectureNumber": 36,
    "prefecture": "徳島県",
    "city": "板野郡上板町",
    "town": "高瀬"
  },
  "7711350": {
    "zipcode": "7711350",
    "prefectureCode": "36",
    "prefectureNumber": 36,
    "prefecture": "徳島県",
    "city": "板野郡上板町",
    "town": "瀬部"
  },
  "7711401": {
    "zipcode": "7711401",
    "prefectureCode": "36",
    "prefectureNumber": 36,
    "prefecture": "徳島県",
    "city": "阿波市",
    "town": "吉野町柿原"
  },
  "7711402": {
    "zipcode": "7711402",
    "prefectureCode": "36",
    "prefectureNumber": 36,
    "prefecture": "徳島県",
    "city": "阿波市",
    "town": "吉野町西条"
  },
  "7711403": {
    "zipcode": "7711403",
    "prefectureCode": "36",
    "prefectureNumber": 36,
    "prefecture": "徳島県",
    "city": "阿波市",
    "town": "吉野町五条"
  },
  "7711501": {
    "zipcode": "7711501",
    "prefectureCode": "36",
    "prefectureNumber": 36,
    "prefecture": "徳島県",
    "city": "阿波市",
    "town": "土成町秋月"
  },
  "7711502": {
    "zipcode": "7711502",
    "prefectureCode": "36",
    "prefectureNumber": 36,
    "prefecture": "徳島県",
    "city": "阿波市",
    "town": "土成町水田"
  },
  "7711503": {
    "zipcode": "7711503",
    "prefectureCode": "36",
    "prefectureNumber": 36,
    "prefecture": "徳島県",
    "city": "阿波市",
    "town": "土成町浦池"
  },
  "7711504": {
    "zipcode": "7711504",
    "prefectureCode": "36",
    "prefectureNumber": 36,
    "prefecture": "徳島県",
    "city": "阿波市",
    "town": "土成町成当"
  },
  "7711505": {
    "zipcode": "7711505",
    "prefectureCode": "36",
    "prefectureNumber": 36,
    "prefecture": "徳島県",
    "city": "阿波市",
    "town": "土成町郡"
  },
  "7711506": {
    "zipcode": "7711506",
    "prefectureCode": "36",
    "prefectureNumber": 36,
    "prefecture": "徳島県",
    "city": "阿波市",
    "town": "土成町土成"
  },
  "7711507": {
    "zipcode": "7711507",
    "prefectureCode": "36",
    "prefectureNumber": 36,
    "prefecture": "徳島県",
    "city": "阿波市",
    "town": "土成町吉田"
  },
  "7711508": {
    "zipcode": "7711508",
    "prefectureCode": "36",
    "prefectureNumber": 36,
    "prefecture": "徳島県",
    "city": "阿波市",
    "town": "土成町宮川内"
  },
  "7711509": {
    "zipcode": "7711509",
    "prefectureCode": "36",
    "prefectureNumber": 36,
    "prefecture": "徳島県",
    "city": "阿波市",
    "town": "土成町高尾"
  },
  "7711601": {
    "zipcode": "7711601",
    "prefectureCode": "36",
    "prefectureNumber": 36,
    "prefecture": "徳島県",
    "city": "阿波市",
    "town": "市場町市場（興崎）"
  },
  "7711602": {
    "zipcode": "7711602",
    "prefectureCode": "36",
    "prefectureNumber": 36,
    "prefecture": "徳島県",
    "city": "阿波市",
    "town": "市場町市場（上野段）"
  },
  "7711603": {
    "zipcode": "7711603",
    "prefectureCode": "36",
    "prefectureNumber": 36,
    "prefecture": "徳島県",
    "city": "阿波市",
    "town": "市場町市場（岸ノ下）"
  },
  "7711604": {
    "zipcode": "7711604",
    "prefectureCode": "36",
    "prefectureNumber": 36,
    "prefecture": "徳島県",
    "city": "阿波市",
    "town": "市場町市場（町筋）"
  },
  "7711610": {
    "zipcode": "7711610",
    "prefectureCode": "36",
    "prefectureNumber": 36,
    "prefecture": "徳島県",
    "city": "阿波市",
    "town": "市場町香美（その他）"
  },
  "7711611": {
    "zipcode": "7711611",
    "prefectureCode": "36",
    "prefectureNumber": 36,
    "prefecture": "徳島県",
    "city": "阿波市",
    "town": "市場町香美（北香美）"
  },
  "7711612": {
    "zipcode": "7711612",
    "prefectureCode": "36",
    "prefectureNumber": 36,
    "prefecture": "徳島県",
    "city": "阿波市",
    "town": "市場町上喜来"
  },
  "7711613": {
    "zipcode": "7711613",
    "prefectureCode": "36",
    "prefectureNumber": 36,
    "prefecture": "徳島県",
    "city": "阿波市",
    "town": "市場町大俣"
  },
  "7711614": {
    "zipcode": "7711614",
    "prefectureCode": "36",
    "prefectureNumber": 36,
    "prefecture": "徳島県",
    "city": "阿波市",
    "town": "市場町犬墓（その他）"
  },
  "7711615": {
    "zipcode": "7711615",
    "prefectureCode": "36",
    "prefectureNumber": 36,
    "prefecture": "徳島県",
    "city": "阿波市",
    "town": "市場町大影"
  },
  "7711616": {
    "zipcode": "7711616",
    "prefectureCode": "36",
    "prefectureNumber": 36,
    "prefecture": "徳島県",
    "city": "阿波市",
    "town": "市場町日開谷"
  },
  "7711621": {
    "zipcode": "7711621",
    "prefectureCode": "36",
    "prefectureNumber": 36,
    "prefecture": "徳島県",
    "city": "阿波市",
    "town": "市場町尾開"
  },
  "7711622": {
    "zipcode": "7711622",
    "prefectureCode": "36",
    "prefectureNumber": 36,
    "prefecture": "徳島県",
    "city": "阿波市",
    "town": "市場町興崎"
  },
  "7711623": {
    "zipcode": "7711623",
    "prefectureCode": "36",
    "prefectureNumber": 36,
    "prefecture": "徳島県",
    "city": "阿波市",
    "town": "市場町切幡"
  },
  "7711624": {
    "zipcode": "7711624",
    "prefectureCode": "36",
    "prefectureNumber": 36,
    "prefecture": "徳島県",
    "city": "阿波市",
    "town": "市場町山野上"
  },
  "7711625": {
    "zipcode": "7711625",
    "prefectureCode": "36",
    "prefectureNumber": 36,
    "prefecture": "徳島県",
    "city": "阿波市",
    "town": "市場町八幡"
  },
  "7711626": {
    "zipcode": "7711626",
    "prefectureCode": "36",
    "prefectureNumber": 36,
    "prefecture": "徳島県",
    "city": "阿波市",
    "town": "市場町伊月"
  },
  "7711627": {
    "zipcode": "7711627",
    "prefectureCode": "36",
    "prefectureNumber": 36,
    "prefecture": "徳島県",
    "city": "阿波市",
    "town": "市場町大野島"
  },
  "7711700": {
    "zipcode": "7711700",
    "prefectureCode": "36",
    "prefectureNumber": 36,
    "prefecture": "徳島県",
    "city": "阿波市",
    "town": "以下に掲載がない場合"
  },
  "7711701": {
    "zipcode": "7711701",
    "prefectureCode": "36",
    "prefectureNumber": 36,
    "prefecture": "徳島県",
    "city": "阿波市",
    "town": "阿波町南谷島"
  },
  "7711702": {
    "zipcode": "7711702",
    "prefectureCode": "36",
    "prefectureNumber": 36,
    "prefecture": "徳島県",
    "city": "阿波市",
    "town": "阿波町早田"
  },
  "7711703": {
    "zipcode": "7711703",
    "prefectureCode": "36",
    "prefectureNumber": 36,
    "prefecture": "徳島県",
    "city": "阿波市",
    "town": "阿波町南柴生"
  },
  "7711704": {
    "zipcode": "7711704",
    "prefectureCode": "36",
    "prefectureNumber": 36,
    "prefecture": "徳島県",
    "city": "阿波市",
    "town": "阿波町山ノ神"
  },
  "7711705": {
    "zipcode": "7711705",
    "prefectureCode": "36",
    "prefectureNumber": 36,
    "prefecture": "徳島県",
    "city": "阿波市",
    "town": "阿波町松川内"
  },
  "7711706": {
    "zipcode": "7711706",
    "prefectureCode": "36",
    "prefectureNumber": 36,
    "prefecture": "徳島県",
    "city": "阿波市",
    "town": "阿波町南西谷"
  },
  "7711714": {
    "zipcode": "7711714",
    "prefectureCode": "36",
    "prefectureNumber": 36,
    "prefecture": "徳島県",
    "city": "阿波市",
    "town": "市場町犬墓（小竹）"
  },
  "7712101": {
    "zipcode": "7712101",
    "prefectureCode": "36",
    "prefectureNumber": 36,
    "prefecture": "徳島県",
    "city": "美馬市",
    "town": "美馬町（入倉、大久保、切久保、正部、丈寄、清田）"
  },
  "7712102": {
    "zipcode": "7712102",
    "prefectureCode": "36",
    "prefectureNumber": 36,
    "prefecture": "徳島県",
    "city": "美馬市",
    "town": "美馬町（家ノ前、大池、大上、大北、大佐古、大前、岡ノ内、押上、茅原、川ノ上、観音、栗林、黒砂、狙ケ内、猿坂、下白地、白地、炭釜、芹佐古、惣後、惣田、外墓、滝ノ上、立見山、田ノ岡、狙坂、中岡、中野田ノ井、中横尾、長地、西浦、西ノ谷、野田ノ井、橋谷、場シ所、東筋、平尾、平野、藤宇、前坂、水ノ岡、味噌ケ久保、道ノ上、宮ノ岡、南畠、薬師ケ久保、山西屋敷、山橋谷、横尾）"
  },
  "7712103": {
    "zipcode": "7712103",
    "prefectureCode": "36",
    "prefectureNumber": 36,
    "prefecture": "徳島県",
    "city": "美馬市",
    "town": "美馬町（一ノ宮、後谷、倉尾、三頭山、下後谷、高惣、谷尻、露口、中沼田、中野、夏弥喜、ナロヲ、西大久保、西沼田、沼田、八ノ坪、坊ケ谷、水久保、宗ノ分、屋内）"
  },
  "7712104": {
    "zipcode": "7712104",
    "prefectureCode": "36",
    "prefectureNumber": 36,
    "prefecture": "徳島県",
    "city": "美馬市",
    "town": "美馬町（鵜飼口、岡、小長谷、小長谷端、笠仏、川縁、荒神、助松、高畑、辰角、谷頭、玉振前、チゲジ、天神東、轟、中黒、中須、中道北、中道南、ノツゴ、ノリコヘ、橋本、東岸ノ下、東段、東宗重、坊僧、丸山、南原、明神原、宗重、薬師）"
  },
  "7712105": {
    "zipcode": "7712105",
    "prefectureCode": "36",
    "prefectureNumber": 36,
    "prefecture": "徳島県",
    "city": "美馬市",
    "town": "美馬町（池ノ浦、銀杏木、梅ケ久保、駅、蛭子、柿木、鍵掛、願勝寺、北土ケ久保、喜入道、滝宮、土ケ久保、西段、宮東、宮西、宮南、養泉）"
  },
  "7712106": {
    "zipcode": "7712106",
    "prefectureCode": "36",
    "prefectureNumber": 36,
    "prefecture": "徳島県",
    "city": "美馬市",
    "town": "美馬町（荒川、井出縁、井ノ神、大泉、大宮西、上突出、岸ノ下、北東原、喜来市、里平野、下突出、谷ヨリ西、乳ノ木、寺ノ下、天神、天神北、中東原、西荒川、沼田島、東荒川、南荒川、南東原、妙見、山嫁坂）"
  },
  "7712107": {
    "zipcode": "7712107",
    "prefectureCode": "36",
    "prefectureNumber": 36,
    "prefecture": "徳島県",
    "city": "美馬市",
    "town": "美馬町（雨下、上野、小原、境目、里西屋敷、下ノ段、城、滝下、竹ノ内、田辺、谷口、栂尾、突落、中尾、中耕地、中筋、中通、中西、中山、長畑、夏蕨、西宮ノ上、東宮ノ上、細野、前田、松ノ花、松ノ本、宮前、宮北、八幡、山夏蕨、吉水）"
  },
  "7712301": {
    "zipcode": "7712301",
    "prefectureCode": "36",
    "prefectureNumber": 36,
    "prefecture": "徳島県",
    "city": "三好市",
    "town": "三野町清水"
  },
  "7712302": {
    "zipcode": "7712302",
    "prefectureCode": "36",
    "prefectureNumber": 36,
    "prefecture": "徳島県",
    "city": "三好市",
    "town": "三野町加茂野宮"
  },
  "7712303": {
    "zipcode": "7712303",
    "prefectureCode": "36",
    "prefectureNumber": 36,
    "prefecture": "徳島県",
    "city": "三好市",
    "town": "三野町勢力"
  },
  "7712304": {
    "zipcode": "7712304",
    "prefectureCode": "36",
    "prefectureNumber": 36,
    "prefecture": "徳島県",
    "city": "三好市",
    "town": "三野町芝生"
  },
  "7712305": {
    "zipcode": "7712305",
    "prefectureCode": "36",
    "prefectureNumber": 36,
    "prefecture": "徳島県",
    "city": "三好市",
    "town": "三野町太刀野"
  },
  "7712306": {
    "zipcode": "7712306",
    "prefectureCode": "36",
    "prefectureNumber": 36,
    "prefecture": "徳島県",
    "city": "三好市",
    "town": "三野町太刀野山"
  },
  "7712501": {
    "zipcode": "7712501",
    "prefectureCode": "36",
    "prefectureNumber": 36,
    "prefecture": "徳島県",
    "city": "三好郡東みよし町",
    "town": "昼間"
  },
  "7712502": {
    "zipcode": "7712502",
    "prefectureCode": "36",
    "prefectureNumber": 36,
    "prefecture": "徳島県",
    "city": "三好郡東みよし町",
    "town": "足代"
  },
  "7712503": {
    "zipcode": "7712503",
    "prefectureCode": "36",
    "prefectureNumber": 36,
    "prefecture": "徳島県",
    "city": "三好郡東みよし町",
    "town": "東山"
  },
  "7713200": {
    "zipcode": "7713200",
    "prefectureCode": "36",
    "prefectureNumber": 36,
    "prefecture": "徳島県",
    "city": "名西郡神山町",
    "town": "以下に掲載がない場合"
  },
  "7713201": {
    "zipcode": "7713201",
    "prefectureCode": "36",
    "prefectureNumber": 36,
    "prefecture": "徳島県",
    "city": "名西郡神山町",
    "town": "阿野（その他）"
  },
  "7713202": {
    "zipcode": "7713202",
    "prefectureCode": "36",
    "prefectureNumber": 36,
    "prefecture": "徳島県",
    "city": "名西郡神山町",
    "town": "阿野（代次）"
  },
  "7713203": {
    "zipcode": "7713203",
    "prefectureCode": "36",
    "prefectureNumber": 36,
    "prefecture": "徳島県",
    "city": "名西郡神山町",
    "town": "鬼籠野"
  },
  "7713310": {
    "zipcode": "7713310",
    "prefectureCode": "36",
    "prefectureNumber": 36,
    "prefecture": "徳島県",
    "city": "名西郡神山町",
    "town": "神領（その他）"
  },
  "7713311": {
    "zipcode": "7713311",
    "prefectureCode": "36",
    "prefectureNumber": 36,
    "prefecture": "徳島県",
    "city": "名西郡神山町",
    "town": "神領（本野間）"
  },
  "7713421": {
    "zipcode": "7713421",
    "prefectureCode": "36",
    "prefectureNumber": 36,
    "prefecture": "徳島県",
    "city": "名西郡神山町",
    "town": "下分"
  },
  "7713422": {
    "zipcode": "7713422",
    "prefectureCode": "36",
    "prefectureNumber": 36,
    "prefecture": "徳島県",
    "city": "名西郡神山町",
    "town": "上分"
  },
  "7714100": {
    "zipcode": "7714100",
    "prefectureCode": "36",
    "prefectureNumber": 36,
    "prefecture": "徳島県",
    "city": "名東郡佐那河内村",
    "town": "以下に掲載がない場合"
  },
  "7714101": {
    "zipcode": "7714101",
    "prefectureCode": "36",
    "prefectureNumber": 36,
    "prefecture": "徳島県",
    "city": "名東郡佐那河内村",
    "town": "下"
  },
  "7714102": {
    "zipcode": "7714102",
    "prefectureCode": "36",
    "prefectureNumber": 36,
    "prefecture": "徳島県",
    "city": "名東郡佐那河内村",
    "town": "上"
  },
  "7714261": {
    "zipcode": "7714261",
    "prefectureCode": "36",
    "prefectureNumber": 36,
    "prefecture": "徳島県",
    "city": "徳島市",
    "town": "丈六町（その他）"
  },
  "7714262": {
    "zipcode": "7714262",
    "prefectureCode": "36",
    "prefectureNumber": 36,
    "prefecture": "徳島県",
    "city": "徳島市",
    "town": "丈六町（長尾）"
  },
  "7714263": {
    "zipcode": "7714263",
    "prefectureCode": "36",
    "prefectureNumber": 36,
    "prefecture": "徳島県",
    "city": "徳島市",
    "town": "丈六町（丈領）"
  },
  "7714264": {
    "zipcode": "7714264",
    "prefectureCode": "36",
    "prefectureNumber": 36,
    "prefecture": "徳島県",
    "city": "徳島市",
    "town": "多家良町"
  },
  "7714265": {
    "zipcode": "7714265",
    "prefectureCode": "36",
    "prefectureNumber": 36,
    "prefecture": "徳島県",
    "city": "徳島市",
    "town": "飯谷町"
  },
  "7714266": {
    "zipcode": "7714266",
    "prefectureCode": "36",
    "prefectureNumber": 36,
    "prefecture": "徳島県",
    "city": "徳島市",
    "town": "八多町"
  },
  "7714267": {
    "zipcode": "7714267",
    "prefectureCode": "36",
    "prefectureNumber": 36,
    "prefecture": "徳島県",
    "city": "徳島市",
    "town": "渋野町"
  },
  "7714300": {
    "zipcode": "7714300",
    "prefectureCode": "36",
    "prefectureNumber": 36,
    "prefecture": "徳島県",
    "city": "勝浦郡勝浦町",
    "town": "以下に掲載がない場合"
  },
  "7714301": {
    "zipcode": "7714301",
    "prefectureCode": "36",
    "prefectureNumber": 36,
    "prefecture": "徳島県",
    "city": "勝浦郡勝浦町",
    "town": "沼江"
  },
  "7714302": {
    "zipcode": "7714302",
    "prefectureCode": "36",
    "prefectureNumber": 36,
    "prefecture": "徳島県",
    "city": "勝浦郡勝浦町",
    "town": "中角"
  },
  "7714303": {
    "zipcode": "7714303",
    "prefectureCode": "36",
    "prefectureNumber": 36,
    "prefecture": "徳島県",
    "city": "勝浦郡勝浦町",
    "town": "生名"
  },
  "7714304": {
    "zipcode": "7714304",
    "prefectureCode": "36",
    "prefectureNumber": 36,
    "prefecture": "徳島県",
    "city": "勝浦郡勝浦町",
    "town": "星谷"
  },
  "7714305": {
    "zipcode": "7714305",
    "prefectureCode": "36",
    "prefectureNumber": 36,
    "prefecture": "徳島県",
    "city": "勝浦郡勝浦町",
    "town": "久国"
  },
  "7714306": {
    "zipcode": "7714306",
    "prefectureCode": "36",
    "prefectureNumber": 36,
    "prefecture": "徳島県",
    "city": "勝浦郡勝浦町",
    "town": "棚野"
  },
  "7714307": {
    "zipcode": "7714307",
    "prefectureCode": "36",
    "prefectureNumber": 36,
    "prefecture": "徳島県",
    "city": "勝浦郡勝浦町",
    "town": "三渓"
  },
  "7714308": {
    "zipcode": "7714308",
    "prefectureCode": "36",
    "prefectureNumber": 36,
    "prefecture": "徳島県",
    "city": "勝浦郡勝浦町",
    "town": "坂本"
  },
  "7714500": {
    "zipcode": "7714500",
    "prefectureCode": "36",
    "prefectureNumber": 36,
    "prefecture": "徳島県",
    "city": "勝浦郡上勝町",
    "town": "以下に掲載がない場合"
  },
  "7714501": {
    "zipcode": "7714501",
    "prefectureCode": "36",
    "prefectureNumber": 36,
    "prefecture": "徳島県",
    "city": "勝浦郡上勝町",
    "town": "福原"
  },
  "7714502": {
    "zipcode": "7714502",
    "prefectureCode": "36",
    "prefectureNumber": 36,
    "prefecture": "徳島県",
    "city": "勝浦郡上勝町",
    "town": "旭"
  },
  "7714503": {
    "zipcode": "7714503",
    "prefectureCode": "36",
    "prefectureNumber": 36,
    "prefecture": "徳島県",
    "city": "勝浦郡上勝町",
    "town": "生実"
  },
  "7714504": {
    "zipcode": "7714504",
    "prefectureCode": "36",
    "prefectureNumber": 36,
    "prefecture": "徳島県",
    "city": "勝浦郡上勝町",
    "town": "傍示"
  },
  "7714505": {
    "zipcode": "7714505",
    "prefectureCode": "36",
    "prefectureNumber": 36,
    "prefecture": "徳島県",
    "city": "勝浦郡上勝町",
    "town": "正木"
  },
  "7715170": {
    "zipcode": "7715170",
    "prefectureCode": "36",
    "prefectureNumber": 36,
    "prefecture": "徳島県",
    "city": "阿南市",
    "town": "楠根町"
  },
  "7715171": {
    "zipcode": "7715171",
    "prefectureCode": "36",
    "prefectureNumber": 36,
    "prefecture": "徳島県",
    "city": "阿南市",
    "town": "熊谷町"
  },
  "7715172": {
    "zipcode": "7715172",
    "prefectureCode": "36",
    "prefectureNumber": 36,
    "prefecture": "徳島県",
    "city": "阿南市",
    "town": "吉井町"
  },
  "7715173": {
    "zipcode": "7715173",
    "prefectureCode": "36",
    "prefectureNumber": 36,
    "prefecture": "徳島県",
    "city": "阿南市",
    "town": "加茂町"
  },
  "7715174": {
    "zipcode": "7715174",
    "prefectureCode": "36",
    "prefectureNumber": 36,
    "prefecture": "徳島県",
    "city": "阿南市",
    "town": "水井町"
  },
  "7715175": {
    "zipcode": "7715175",
    "prefectureCode": "36",
    "prefectureNumber": 36,
    "prefecture": "徳島県",
    "city": "阿南市",
    "town": "細野町"
  },
  "7715176": {
    "zipcode": "7715176",
    "prefectureCode": "36",
    "prefectureNumber": 36,
    "prefecture": "徳島県",
    "city": "阿南市",
    "town": "大田井町"
  },
  "7715177": {
    "zipcode": "7715177",
    "prefectureCode": "36",
    "prefectureNumber": 36,
    "prefecture": "徳島県",
    "city": "阿南市",
    "town": "大井町"
  },
  "7715178": {
    "zipcode": "7715178",
    "prefectureCode": "36",
    "prefectureNumber": 36,
    "prefecture": "徳島県",
    "city": "阿南市",
    "town": "十八女町"
  },
  "7715179": {
    "zipcode": "7715179",
    "prefectureCode": "36",
    "prefectureNumber": 36,
    "prefecture": "徳島県",
    "city": "阿南市",
    "town": "深瀬町"
  },
  "7715200": {
    "zipcode": "7715200",
    "prefectureCode": "36",
    "prefectureNumber": 36,
    "prefecture": "徳島県",
    "city": "那賀郡那賀町",
    "town": "以下に掲載がない場合"
  },
  "7715201": {
    "zipcode": "7715201",
    "prefectureCode": "36",
    "prefectureNumber": 36,
    "prefecture": "徳島県",
    "city": "那賀郡那賀町",
    "town": "和食"
  },
  "7715202": {
    "zipcode": "7715202",
    "prefectureCode": "36",
    "prefectureNumber": 36,
    "prefecture": "徳島県",
    "city": "那賀郡那賀町",
    "town": "土佐"
  },
  "7715203": {
    "zipcode": "7715203",
    "prefectureCode": "36",
    "prefectureNumber": 36,
    "prefecture": "徳島県",
    "city": "那賀郡那賀町",
    "town": "和食郷"
  },
  "7715204": {
    "zipcode": "7715204",
    "prefectureCode": "36",
    "prefectureNumber": 36,
    "prefecture": "徳島県",
    "city": "那賀郡那賀町",
    "town": "中山"
  },
  "7715205": {
    "zipcode": "7715205",
    "prefectureCode": "36",
    "prefectureNumber": 36,
    "prefecture": "徳島県",
    "city": "那賀郡那賀町",
    "town": "百合谷"
  },
  "7715206": {
    "zipcode": "7715206",
    "prefectureCode": "36",
    "prefectureNumber": 36,
    "prefecture": "徳島県",
    "city": "那賀郡那賀町",
    "town": "百合"
  },
  "7715207": {
    "zipcode": "7715207",
    "prefectureCode": "36",
    "prefectureNumber": 36,
    "prefecture": "徳島県",
    "city": "那賀郡那賀町",
    "town": "阿井"
  },
  "7715208": {
    "zipcode": "7715208",
    "prefectureCode": "36",
    "prefectureNumber": 36,
    "prefecture": "徳島県",
    "city": "那賀郡那賀町",
    "town": "仁宇"
  },
  "7715209": {
    "zipcode": "7715209",
    "prefectureCode": "36",
    "prefectureNumber": 36,
    "prefecture": "徳島県",
    "city": "那賀郡那賀町",
    "town": "小仁宇"
  },
  "7715320": {
    "zipcode": "7715320",
    "prefectureCode": "36",
    "prefectureNumber": 36,
    "prefecture": "徳島県",
    "city": "那賀郡那賀町",
    "town": "榎谷"
  },
  "7715321": {
    "zipcode": "7715321",
    "prefectureCode": "36",
    "prefectureNumber": 36,
    "prefecture": "徳島県",
    "city": "那賀郡那賀町",
    "town": "馬路"
  },
  "7715322": {
    "zipcode": "7715322",
    "prefectureCode": "36",
    "prefectureNumber": 36,
    "prefecture": "徳島県",
    "city": "那賀郡那賀町",
    "town": "谷内"
  },
  "7715323": {
    "zipcode": "7715323",
    "prefectureCode": "36",
    "prefectureNumber": 36,
    "prefecture": "徳島県",
    "city": "那賀郡那賀町",
    "town": "相名"
  },
  "7715324": {
    "zipcode": "7715324",
    "prefectureCode": "36",
    "prefectureNumber": 36,
    "prefecture": "徳島県",
    "city": "那賀郡那賀町",
    "town": "井ノ谷"
  },
  "7715325": {
    "zipcode": "7715325",
    "prefectureCode": "36",
    "prefectureNumber": 36,
    "prefecture": "徳島県",
    "city": "那賀郡那賀町",
    "town": "平野"
  },
  "7715326": {
    "zipcode": "7715326",
    "prefectureCode": "36",
    "prefectureNumber": 36,
    "prefecture": "徳島県",
    "city": "那賀郡那賀町",
    "town": "内山"
  },
  "7715327": {
    "zipcode": "7715327",
    "prefectureCode": "36",
    "prefectureNumber": 36,
    "prefecture": "徳島県",
    "city": "那賀郡那賀町",
    "town": "西納"
  },
  "7715328": {
    "zipcode": "7715328",
    "prefectureCode": "36",
    "prefectureNumber": 36,
    "prefecture": "徳島県",
    "city": "那賀郡那賀町",
    "town": "請ノ谷"
  },
  "7715329": {
    "zipcode": "7715329",
    "prefectureCode": "36",
    "prefectureNumber": 36,
    "prefecture": "徳島県",
    "city": "那賀郡那賀町",
    "town": "竹ケ谷"
  },
  "7715401": {
    "zipcode": "7715401",
    "prefectureCode": "36",
    "prefectureNumber": 36,
    "prefecture": "徳島県",
    "city": "那賀郡那賀町",
    "town": "朝生"
  },
  "7715402": {
    "zipcode": "7715402",
    "prefectureCode": "36",
    "prefectureNumber": 36,
    "prefecture": "徳島県",
    "city": "那賀郡那賀町",
    "town": "簗ノ上"
  },
  "7715403": {
    "zipcode": "7715403",
    "prefectureCode": "36",
    "prefectureNumber": 36,
    "prefecture": "徳島県",
    "city": "那賀郡那賀町",
    "town": "鮎川"
  },
  "7715404": {
    "zipcode": "7715404",
    "prefectureCode": "36",
    "prefectureNumber": 36,
    "prefecture": "徳島県",
    "city": "那賀郡那賀町",
    "town": "牛輪"
  },
  "7715405": {
    "zipcode": "7715405",
    "prefectureCode": "36",
    "prefectureNumber": 36,
    "prefecture": "徳島県",
    "city": "那賀郡那賀町",
    "town": "入野"
  },
  "7715406": {
    "zipcode": "7715406",
    "prefectureCode": "36",
    "prefectureNumber": 36,
    "prefecture": "徳島県",
    "city": "那賀郡那賀町",
    "town": "延野"
  },
  "7715407": {
    "zipcode": "7715407",
    "prefectureCode": "36",
    "prefectureNumber": 36,
    "prefecture": "徳島県",
    "city": "那賀郡那賀町",
    "town": "雄"
  },
  "7715408": {
    "zipcode": "7715408",
    "prefectureCode": "36",
    "prefectureNumber": 36,
    "prefecture": "徳島県",
    "city": "那賀郡那賀町",
    "town": "吉野"
  },
  "7715409": {
    "zipcode": "7715409",
    "prefectureCode": "36",
    "prefectureNumber": 36,
    "prefecture": "徳島県",
    "city": "那賀郡那賀町",
    "town": "鉢"
  },
  "7715410": {
    "zipcode": "7715410",
    "prefectureCode": "36",
    "prefectureNumber": 36,
    "prefecture": "徳島県",
    "city": "那賀郡那賀町",
    "town": "大久保"
  },
  "7715411": {
    "zipcode": "7715411",
    "prefectureCode": "36",
    "prefectureNumber": 36,
    "prefecture": "徳島県",
    "city": "那賀郡那賀町",
    "town": "横石"
  },
  "7715412": {
    "zipcode": "7715412",
    "prefectureCode": "36",
    "prefectureNumber": 36,
    "prefecture": "徳島県",
    "city": "那賀郡那賀町",
    "town": "朴野"
  },
  "7715413": {
    "zipcode": "7715413",
    "prefectureCode": "36",
    "prefectureNumber": 36,
    "prefecture": "徳島県",
    "city": "那賀郡那賀町",
    "town": "蔭谷"
  },
  "7715501": {
    "zipcode": "7715501",
    "prefectureCode": "36",
    "prefectureNumber": 36,
    "prefecture": "徳島県",
    "city": "那賀郡那賀町",
    "town": "音谷"
  },
  "7715502": {
    "zipcode": "7715502",
    "prefectureCode": "36",
    "prefectureNumber": 36,
    "prefecture": "徳島県",
    "city": "那賀郡那賀町",
    "town": "桜谷"
  },
  "7715503": {
    "zipcode": "7715503",
    "prefectureCode": "36",
    "prefectureNumber": 36,
    "prefecture": "徳島県",
    "city": "那賀郡那賀町",
    "town": "小浜"
  },
  "7715504": {
    "zipcode": "7715504",
    "prefectureCode": "36",
    "prefectureNumber": 36,
    "prefecture": "徳島県",
    "city": "那賀郡那賀町",
    "town": "臼ケ谷"
  },
  "7715505": {
    "zipcode": "7715505",
    "prefectureCode": "36",
    "prefectureNumber": 36,
    "prefecture": "徳島県",
    "city": "那賀郡那賀町",
    "town": "長安"
  },
  "7715506": {
    "zipcode": "7715506",
    "prefectureCode": "36",
    "prefectureNumber": 36,
    "prefecture": "徳島県",
    "city": "那賀郡那賀町",
    "town": "桧曽根"
  },
  "7715507": {
    "zipcode": "7715507",
    "prefectureCode": "36",
    "prefectureNumber": 36,
    "prefecture": "徳島県",
    "city": "那賀郡那賀町",
    "town": "菖蒲"
  },
  "7715508": {
    "zipcode": "7715508",
    "prefectureCode": "36",
    "prefectureNumber": 36,
    "prefecture": "徳島県",
    "city": "那賀郡那賀町",
    "town": "東尾"
  },
  "7715511": {
    "zipcode": "7715511",
    "prefectureCode": "36",
    "prefectureNumber": 36,
    "prefecture": "徳島県",
    "city": "那賀郡那賀町",
    "town": "水崎"
  },
  "7715512": {
    "zipcode": "7715512",
    "prefectureCode": "36",
    "prefectureNumber": 36,
    "prefecture": "徳島県",
    "city": "那賀郡那賀町",
    "town": "小計"
  },
  "7715513": {
    "zipcode": "7715513",
    "prefectureCode": "36",
    "prefectureNumber": 36,
    "prefecture": "徳島県",
    "city": "那賀郡那賀町",
    "town": "古屋"
  },
  "7715514": {
    "zipcode": "7715514",
    "prefectureCode": "36",
    "prefectureNumber": 36,
    "prefecture": "徳島県",
    "city": "那賀郡那賀町",
    "town": "深森"
  },
  "7715515": {
    "zipcode": "7715515",
    "prefectureCode": "36",
    "prefectureNumber": 36,
    "prefecture": "徳島県",
    "city": "那賀郡那賀町",
    "town": "川俣"
  },
  "7715516": {
    "zipcode": "7715516",
    "prefectureCode": "36",
    "prefectureNumber": 36,
    "prefecture": "徳島県",
    "city": "那賀郡那賀町",
    "town": "大戸"
  },
  "7715517": {
    "zipcode": "7715517",
    "prefectureCode": "36",
    "prefectureNumber": 36,
    "prefecture": "徳島県",
    "city": "那賀郡那賀町",
    "town": "日真"
  },
  "7715518": {
    "zipcode": "7715518",
    "prefectureCode": "36",
    "prefectureNumber": 36,
    "prefecture": "徳島県",
    "city": "那賀郡那賀町",
    "town": "拝宮"
  },
  "7715531": {
    "zipcode": "7715531",
    "prefectureCode": "36",
    "prefectureNumber": 36,
    "prefecture": "徳島県",
    "city": "那賀郡那賀町",
    "town": "日浦"
  },
  "7715532": {
    "zipcode": "7715532",
    "prefectureCode": "36",
    "prefectureNumber": 36,
    "prefecture": "徳島県",
    "city": "那賀郡那賀町",
    "town": "花瀬"
  },
  "7716101": {
    "zipcode": "7716101",
    "prefectureCode": "36",
    "prefectureNumber": 36,
    "prefecture": "徳島県",
    "city": "那賀郡那賀町",
    "town": "阿津江"
  },
  "7716102": {
    "zipcode": "7716102",
    "prefectureCode": "36",
    "prefectureNumber": 36,
    "prefecture": "徳島県",
    "city": "那賀郡那賀町",
    "town": "木頭名"
  },
  "7716103": {
    "zipcode": "7716103",
    "prefectureCode": "36",
    "prefectureNumber": 36,
    "prefecture": "徳島県",
    "city": "那賀郡那賀町",
    "town": "出羽"
  },
  "7716104": {
    "zipcode": "7716104",
    "prefectureCode": "36",
    "prefectureNumber": 36,
    "prefecture": "徳島県",
    "city": "那賀郡那賀町",
    "town": "当山"
  },
  "7716105": {
    "zipcode": "7716105",
    "prefectureCode": "36",
    "prefectureNumber": 36,
    "prefecture": "徳島県",
    "city": "那賀郡那賀町",
    "town": "木頭"
  },
  "7716106": {
    "zipcode": "7716106",
    "prefectureCode": "36",
    "prefectureNumber": 36,
    "prefecture": "徳島県",
    "city": "那賀郡那賀町",
    "town": "坂州"
  },
  "7716107": {
    "zipcode": "7716107",
    "prefectureCode": "36",
    "prefectureNumber": 36,
    "prefecture": "徳島県",
    "city": "那賀郡那賀町",
    "town": "掛盤"
  },
  "7716111": {
    "zipcode": "7716111",
    "prefectureCode": "36",
    "prefectureNumber": 36,
    "prefecture": "徳島県",
    "city": "那賀郡那賀町",
    "town": "小泉"
  },
  "7716112": {
    "zipcode": "7716112",
    "prefectureCode": "36",
    "prefectureNumber": 36,
    "prefecture": "徳島県",
    "city": "那賀郡那賀町",
    "town": "高野"
  },
  "7716113": {
    "zipcode": "7716113",
    "prefectureCode": "36",
    "prefectureNumber": 36,
    "prefecture": "徳島県",
    "city": "那賀郡那賀町",
    "town": "寺内"
  },
  "7716114": {
    "zipcode": "7716114",
    "prefectureCode": "36",
    "prefectureNumber": 36,
    "prefecture": "徳島県",
    "city": "那賀郡那賀町",
    "town": "沢谷"
  },
  "7716115": {
    "zipcode": "7716115",
    "prefectureCode": "36",
    "prefectureNumber": 36,
    "prefecture": "徳島県",
    "city": "那賀郡那賀町",
    "town": "小畠"
  },
  "7716116": {
    "zipcode": "7716116",
    "prefectureCode": "36",
    "prefectureNumber": 36,
    "prefecture": "徳島県",
    "city": "那賀郡那賀町",
    "town": "横谷"
  },
  "7716117": {
    "zipcode": "7716117",
    "prefectureCode": "36",
    "prefectureNumber": 36,
    "prefecture": "徳島県",
    "city": "那賀郡那賀町",
    "town": "川成"
  },
  "7716118": {
    "zipcode": "7716118",
    "prefectureCode": "36",
    "prefectureNumber": 36,
    "prefecture": "徳島県",
    "city": "那賀郡那賀町",
    "town": "岩倉"
  },
  "7716321": {
    "zipcode": "7716321",
    "prefectureCode": "36",
    "prefectureNumber": 36,
    "prefecture": "徳島県",
    "city": "那賀郡那賀町",
    "town": "平谷"
  },
  "7716322": {
    "zipcode": "7716322",
    "prefectureCode": "36",
    "prefectureNumber": 36,
    "prefecture": "徳島県",
    "city": "那賀郡那賀町",
    "town": "大殿"
  },
  "7716323": {
    "zipcode": "7716323",
    "prefectureCode": "36",
    "prefectureNumber": 36,
    "prefecture": "徳島県",
    "city": "那賀郡那賀町",
    "town": "白石"
  },
  "7716324": {
    "zipcode": "7716324",
    "prefectureCode": "36",
    "prefectureNumber": 36,
    "prefecture": "徳島県",
    "city": "那賀郡那賀町",
    "town": "御所谷"
  },
  "7716325": {
    "zipcode": "7716325",
    "prefectureCode": "36",
    "prefectureNumber": 36,
    "prefecture": "徳島県",
    "city": "那賀郡那賀町",
    "town": "丈ケ谷"
  },
  "7716326": {
    "zipcode": "7716326",
    "prefectureCode": "36",
    "prefectureNumber": 36,
    "prefecture": "徳島県",
    "city": "那賀郡那賀町",
    "town": "府殿"
  },
  "7716327": {
    "zipcode": "7716327",
    "prefectureCode": "36",
    "prefectureNumber": 36,
    "prefecture": "徳島県",
    "city": "那賀郡那賀町",
    "town": "成瀬"
  },
  "7716328": {
    "zipcode": "7716328",
    "prefectureCode": "36",
    "prefectureNumber": 36,
    "prefecture": "徳島県",
    "city": "那賀郡那賀町",
    "town": "海川"
  },
  "7716401": {
    "zipcode": "7716401",
    "prefectureCode": "36",
    "prefectureNumber": 36,
    "prefecture": "徳島県",
    "city": "那賀郡那賀町",
    "town": "木頭助"
  },
  "7716402": {
    "zipcode": "7716402",
    "prefectureCode": "36",
    "prefectureNumber": 36,
    "prefecture": "徳島県",
    "city": "那賀郡那賀町",
    "town": "木頭出原"
  },
  "7716403": {
    "zipcode": "7716403",
    "prefectureCode": "36",
    "prefectureNumber": 36,
    "prefecture": "徳島県",
    "city": "那賀郡那賀町",
    "town": "木頭和無田"
  },
  "7716404": {
    "zipcode": "7716404",
    "prefectureCode": "36",
    "prefectureNumber": 36,
    "prefecture": "徳島県",
    "city": "那賀郡那賀町",
    "town": "木頭南宇"
  },
  "7716405": {
    "zipcode": "7716405",
    "prefectureCode": "36",
    "prefectureNumber": 36,
    "prefecture": "徳島県",
    "city": "那賀郡那賀町",
    "town": "木頭西宇"
  },
  "7716511": {
    "zipcode": "7716511",
    "prefectureCode": "36",
    "prefectureNumber": 36,
    "prefecture": "徳島県",
    "city": "那賀郡那賀町",
    "town": "木頭折宇"
  },
  "7716512": {
    "zipcode": "7716512",
    "prefectureCode": "36",
    "prefectureNumber": 36,
    "prefecture": "徳島県",
    "city": "那賀郡那賀町",
    "town": "木頭北川"
  }
}
