{
  "7720000": {
    "zipcode": "7720000",
    "prefectureCode": "36",
    "prefectureNumber": 36,
    "prefecture": "徳島県",
    "city": "鳴門市",
    "town": "以下に掲載がない場合"
  },
  "7720001": {
    "zipcode": "7720001",
    "prefectureCode": "36",
    "prefectureNumber": 36,
    "prefecture": "徳島県",
    "city": "鳴門市",
    "town": "撫養町黒崎"
  },
  "7720002": {
    "zipcode": "7720002",
    "prefectureCode": "36",
    "prefectureNumber": 36,
    "prefecture": "徳島県",
    "city": "鳴門市",
    "town": "撫養町斎田"
  },
  "7720003": {
    "zipcode": "7720003",
    "prefectureCode": "36",
    "prefectureNumber": 36,
    "prefecture": "徳島県",
    "city": "鳴門市",
    "town": "撫養町南浜"
  },
  "7720004": {
    "zipcode": "7720004",
    "prefectureCode": "36",
    "prefectureNumber": 36,
    "prefecture": "徳島県",
    "city": "鳴門市",
    "town": "撫養町木津"
  },
  "7720011": {
    "zipcode": "7720011",
    "prefectureCode": "36",
    "prefectureNumber": 36,
    "prefecture": "徳島県",
    "city": "鳴門市",
    "town": "撫養町大桑島"
  },
  "7720012": {
    "zipcode": "7720012",
    "prefectureCode": "36",
    "prefectureNumber": 36,
    "prefecture": "徳島県",
    "city": "鳴門市",
    "town": "撫養町小桑島"
  },
  "7720013": {
    "zipcode": "7720013",
    "prefectureCode": "36",
    "prefectureNumber": 36,
    "prefecture": "徳島県",
    "city": "鳴門市",
    "town": "撫養町岡崎"
  },
  "7720014": {
    "zipcode": "7720014",
    "prefectureCode": "36",
    "prefectureNumber": 36,
    "prefecture": "徳島県",
    "city": "鳴門市",
    "town": "撫養町弁財天"
  },
  "7720015": {
    "zipcode": "7720015",
    "prefectureCode": "36",
    "prefectureNumber": 36,
    "prefecture": "徳島県",
    "city": "鳴門市",
    "town": "撫養町北浜"
  },
  "7720016": {
    "zipcode": "7720016",
    "prefectureCode": "36",
    "prefectureNumber": 36,
    "prefecture": "徳島県",
    "city": "鳴門市",
    "town": "撫養町林崎"
  },
  "7720017": {
    "zipcode": "7720017",
    "prefectureCode": "36",
    "prefectureNumber": 36,
    "prefecture": "徳島県",
    "city": "鳴門市",
    "town": "撫養町立岩"
  },
  "7720021": {
    "zipcode": "7720021",
    "prefectureCode": "36",
    "prefectureNumber": 36,
    "prefecture": "徳島県",
    "city": "鳴門市",
    "town": "里浦町里浦"
  },
  "7720022": {
    "zipcode": "7720022",
    "prefectureCode": "36",
    "prefectureNumber": 36,
    "prefecture": "徳島県",
    "city": "鳴門市",
    "town": "里浦町粟津"
  },
  "7720031": {
    "zipcode": "7720031",
    "prefectureCode": "36",
    "prefectureNumber": 36,
    "prefecture": "徳島県",
    "city": "鳴門市",
    "town": "大津町木津野"
  },
  "7720032": {
    "zipcode": "7720032",
    "prefectureCode": "36",
    "prefectureNumber": 36,
    "prefecture": "徳島県",
    "city": "鳴門市",
    "town": "大津町吉永"
  },
  "7720033": {
    "zipcode": "7720033",
    "prefectureCode": "36",
    "prefectureNumber": 36,
    "prefecture": "徳島県",
    "city": "鳴門市",
    "town": "大津町長江"
  },
  "7720034": {
    "zipcode": "7720034",
    "prefectureCode": "36",
    "prefectureNumber": 36,
    "prefecture": "徳島県",
    "city": "鳴門市",
    "town": "大津町徳長"
  },
  "7720035": {
    "zipcode": "7720035",
    "prefectureCode": "36",
    "prefectureNumber": 36,
    "prefecture": "徳島県",
    "city": "鳴門市",
    "town": "大津町矢倉"
  },
  "7720041": {
    "zipcode": "7720041",
    "prefectureCode": "36",
    "prefectureNumber": 36,
    "prefecture": "徳島県",
    "city": "鳴門市",
    "town": "大津町大代"
  },
  "7720042": {
    "zipcode": "7720042",
    "prefectureCode": "36",
    "prefectureNumber": 36,
    "prefecture": "徳島県",
    "city": "鳴門市",
    "town": "大津町備前島"
  },
  "7720043": {
    "zipcode": "7720043",
    "prefectureCode": "36",
    "prefectureNumber": 36,
    "prefecture": "徳島県",
    "city": "鳴門市",
    "town": "大津町段関"
  },
  "7720044": {
    "zipcode": "7720044",
    "prefectureCode": "36",
    "prefectureNumber": 36,
    "prefecture": "徳島県",
    "city": "鳴門市",
    "town": "大津町大幸"
  },
  "7720051": {
    "zipcode": "7720051",
    "prefectureCode": "36",
    "prefectureNumber": 36,
    "prefecture": "徳島県",
    "city": "鳴門市",
    "town": "鳴門町高島"
  },
  "7720052": {
    "zipcode": "7720052",
    "prefectureCode": "36",
    "prefectureNumber": 36,
    "prefecture": "徳島県",
    "city": "鳴門市",
    "town": "鳴門町三ツ石"
  },
  "7720053": {
    "zipcode": "7720053",
    "prefectureCode": "36",
    "prefectureNumber": 36,
    "prefecture": "徳島県",
    "city": "鳴門市",
    "town": "鳴門町土佐泊浦"
  },
  "7720060": {
    "zipcode": "7720060",
    "prefectureCode": "36",
    "prefectureNumber": 36,
    "prefecture": "徳島県",
    "city": "鳴門市",
    "town": "瀬戸町明神（楠谷、弐軒家、水汲谷）"
  }
}
