{
  "7740000": {
    "zipcode": "7740000",
    "prefectureCode": "36",
    "prefectureNumber": 36,
    "prefecture": "徳島県",
    "city": "阿南市",
    "town": "以下に掲載がない場合"
  },
  "7740001": {
    "zipcode": "7740001",
    "prefectureCode": "36",
    "prefectureNumber": 36,
    "prefecture": "徳島県",
    "city": "阿南市",
    "town": "辰巳町"
  },
  "7740002": {
    "zipcode": "7740002",
    "prefectureCode": "36",
    "prefectureNumber": 36,
    "prefecture": "徳島県",
    "city": "阿南市",
    "town": "豊益町"
  },
  "7740003": {
    "zipcode": "7740003",
    "prefectureCode": "36",
    "prefectureNumber": 36,
    "prefecture": "徳島県",
    "city": "阿南市",
    "town": "畭町"
  },
  "7740004": {
    "zipcode": "7740004",
    "prefectureCode": "36",
    "prefectureNumber": 36,
    "prefecture": "徳島県",
    "city": "阿南市",
    "town": "福村町"
  },
  "7740005": {
    "zipcode": "7740005",
    "prefectureCode": "36",
    "prefectureNumber": 36,
    "prefecture": "徳島県",
    "city": "阿南市",
    "town": "向原町"
  },
  "7740006": {
    "zipcode": "7740006",
    "prefectureCode": "36",
    "prefectureNumber": 36,
    "prefecture": "徳島県",
    "city": "阿南市",
    "town": "黒津地町"
  },
  "7740007": {
    "zipcode": "7740007",
    "prefectureCode": "36",
    "prefectureNumber": 36,
    "prefecture": "徳島県",
    "city": "阿南市",
    "town": "出来町"
  },
  "7740008": {
    "zipcode": "7740008",
    "prefectureCode": "36",
    "prefectureNumber": 36,
    "prefecture": "徳島県",
    "city": "阿南市",
    "town": "原ケ崎町"
  },
  "7740009": {
    "zipcode": "7740009",
    "prefectureCode": "36",
    "prefectureNumber": 36,
    "prefecture": "徳島県",
    "city": "阿南市",
    "town": "西路見町"
  },
  "7740011": {
    "zipcode": "7740011",
    "prefectureCode": "36",
    "prefectureNumber": 36,
    "prefecture": "徳島県",
    "city": "阿南市",
    "town": "領家町"
  },
  "7740012": {
    "zipcode": "7740012",
    "prefectureCode": "36",
    "prefectureNumber": 36,
    "prefecture": "徳島県",
    "city": "阿南市",
    "town": "七見町"
  },
  "7740013": {
    "zipcode": "7740013",
    "prefectureCode": "36",
    "prefectureNumber": 36,
    "prefecture": "徳島県",
    "city": "阿南市",
    "town": "日開野町"
  },
  "7740014": {
    "zipcode": "7740014",
    "prefectureCode": "36",
    "prefectureNumber": 36,
    "prefecture": "徳島県",
    "city": "阿南市",
    "town": "学原町"
  },
  "7740015": {
    "zipcode": "7740015",
    "prefectureCode": "36",
    "prefectureNumber": 36,
    "prefecture": "徳島県",
    "city": "阿南市",
    "town": "才見町"
  },
  "7740016": {
    "zipcode": "7740016",
    "prefectureCode": "36",
    "prefectureNumber": 36,
    "prefecture": "徳島県",
    "city": "阿南市",
    "town": "中林町"
  },
  "7740017": {
    "zipcode": "7740017",
    "prefectureCode": "36",
    "prefectureNumber": 36,
    "prefecture": "徳島県",
    "city": "阿南市",
    "town": "見能林町"
  },
  "7740021": {
    "zipcode": "7740021",
    "prefectureCode": "36",
    "prefectureNumber": 36,
    "prefecture": "徳島県",
    "city": "阿南市",
    "town": "津乃峰町"
  },
  "7740022": {
    "zipcode": "7740022",
    "prefectureCode": "36",
    "prefectureNumber": 36,
    "prefecture": "徳島県",
    "city": "阿南市",
    "town": "大潟町"
  },
  "7740023": {
    "zipcode": "7740023",
    "prefectureCode": "36",
    "prefectureNumber": 36,
    "prefecture": "徳島県",
    "city": "阿南市",
    "town": "橘町（その他）"
  },
  "7740030": {
    "zipcode": "7740030",
    "prefectureCode": "36",
    "prefectureNumber": 36,
    "prefecture": "徳島県",
    "city": "阿南市",
    "town": "富岡町"
  },
  "7740041": {
    "zipcode": "7740041",
    "prefectureCode": "36",
    "prefectureNumber": 36,
    "prefecture": "徳島県",
    "city": "阿南市",
    "town": "住吉町"
  },
  "7740042": {
    "zipcode": "7740042",
    "prefectureCode": "36",
    "prefectureNumber": 36,
    "prefecture": "徳島県",
    "city": "阿南市",
    "town": "横見町"
  },
  "7740043": {
    "zipcode": "7740043",
    "prefectureCode": "36",
    "prefectureNumber": 36,
    "prefecture": "徳島県",
    "city": "阿南市",
    "town": "柳島町"
  },
  "7740044": {
    "zipcode": "7740044",
    "prefectureCode": "36",
    "prefectureNumber": 36,
    "prefecture": "徳島県",
    "city": "阿南市",
    "town": "上中町"
  },
  "7740045": {
    "zipcode": "7740045",
    "prefectureCode": "36",
    "prefectureNumber": 36,
    "prefecture": "徳島県",
    "city": "阿南市",
    "town": "宝田町"
  },
  "7740046": {
    "zipcode": "7740046",
    "prefectureCode": "36",
    "prefectureNumber": 36,
    "prefecture": "徳島県",
    "city": "阿南市",
    "town": "長生町"
  },
  "7740047": {
    "zipcode": "7740047",
    "prefectureCode": "36",
    "prefectureNumber": 36,
    "prefecture": "徳島県",
    "city": "阿南市",
    "town": "下大野町"
  },
  "7740048": {
    "zipcode": "7740048",
    "prefectureCode": "36",
    "prefectureNumber": 36,
    "prefecture": "徳島県",
    "city": "阿南市",
    "town": "中大野町"
  },
  "7740049": {
    "zipcode": "7740049",
    "prefectureCode": "36",
    "prefectureNumber": 36,
    "prefecture": "徳島県",
    "city": "阿南市",
    "town": "上大野町"
  },
  "7741760": {
    "zipcode": "7741760",
    "prefectureCode": "36",
    "prefectureNumber": 36,
    "prefecture": "徳島県",
    "city": "阿南市",
    "town": "伊島町"
  }
}
