{
  "7750000": {
    "zipcode": "7750000",
    "prefectureCode": "36",
    "prefectureNumber": 36,
    "prefecture": "徳島県",
    "city": "海部郡牟岐町",
    "town": "以下に掲載がない場合"
  },
  "7750001": {
    "zipcode": "7750001",
    "prefectureCode": "36",
    "prefectureNumber": 36,
    "prefecture": "徳島県",
    "city": "海部郡牟岐町",
    "town": "河内"
  },
  "7750002": {
    "zipcode": "7750002",
    "prefectureCode": "36",
    "prefectureNumber": 36,
    "prefecture": "徳島県",
    "city": "海部郡牟岐町",
    "town": "橘"
  },
  "7750003": {
    "zipcode": "7750003",
    "prefectureCode": "36",
    "prefectureNumber": 36,
    "prefecture": "徳島県",
    "city": "海部郡牟岐町",
    "town": "辺川"
  },
  "7750004": {
    "zipcode": "7750004",
    "prefectureCode": "36",
    "prefectureNumber": 36,
    "prefecture": "徳島県",
    "city": "海部郡牟岐町",
    "town": "川長"
  },
  "7750005": {
    "zipcode": "7750005",
    "prefectureCode": "36",
    "prefectureNumber": 36,
    "prefecture": "徳島県",
    "city": "海部郡牟岐町",
    "town": "灘"
  },
  "7750006": {
    "zipcode": "7750006",
    "prefectureCode": "36",
    "prefectureNumber": 36,
    "prefecture": "徳島県",
    "city": "海部郡牟岐町",
    "town": "中村"
  },
  "7750007": {
    "zipcode": "7750007",
    "prefectureCode": "36",
    "prefectureNumber": 36,
    "prefecture": "徳島県",
    "city": "海部郡牟岐町",
    "town": "内妻"
  },
  "7750010": {
    "zipcode": "7750010",
    "prefectureCode": "36",
    "prefectureNumber": 36,
    "prefecture": "徳島県",
    "city": "海部郡牟岐町",
    "town": "牟岐浦（その他）"
  },
  "7750011": {
    "zipcode": "7750011",
    "prefectureCode": "36",
    "prefectureNumber": 36,
    "prefecture": "徳島県",
    "city": "海部郡牟岐町",
    "town": "牟岐浦（浜崎）"
  },
  "7750012": {
    "zipcode": "7750012",
    "prefectureCode": "36",
    "prefectureNumber": 36,
    "prefecture": "徳島県",
    "city": "海部郡牟岐町",
    "town": "牟岐浦（宮ノ本）"
  },
  "7750013": {
    "zipcode": "7750013",
    "prefectureCode": "36",
    "prefectureNumber": 36,
    "prefecture": "徳島県",
    "city": "海部郡牟岐町",
    "town": "牟岐浦（出羽島）"
  },
  "7750101": {
    "zipcode": "7750101",
    "prefectureCode": "36",
    "prefectureNumber": 36,
    "prefecture": "徳島県",
    "city": "海部郡海陽町",
    "town": "浅川"
  },
  "7750200": {
    "zipcode": "7750200",
    "prefectureCode": "36",
    "prefectureNumber": 36,
    "prefecture": "徳島県",
    "city": "海部郡海陽町",
    "town": "以下に掲載がない場合"
  },
  "7750202": {
    "zipcode": "7750202",
    "prefectureCode": "36",
    "prefectureNumber": 36,
    "prefecture": "徳島県",
    "city": "海部郡海陽町",
    "town": "四方原"
  },
  "7750203": {
    "zipcode": "7750203",
    "prefectureCode": "36",
    "prefectureNumber": 36,
    "prefecture": "徳島県",
    "city": "海部郡海陽町",
    "town": "大里"
  },
  "7750204": {
    "zipcode": "7750204",
    "prefectureCode": "36",
    "prefectureNumber": 36,
    "prefecture": "徳島県",
    "city": "海部郡海陽町",
    "town": "多良"
  },
  "7750205": {
    "zipcode": "7750205",
    "prefectureCode": "36",
    "prefectureNumber": 36,
    "prefecture": "徳島県",
    "city": "海部郡海陽町",
    "town": "吉野"
  },
  "7750206": {
    "zipcode": "7750206",
    "prefectureCode": "36",
    "prefectureNumber": 36,
    "prefecture": "徳島県",
    "city": "海部郡海陽町",
    "town": "熟田"
  },
  "7750301": {
    "zipcode": "7750301",
    "prefectureCode": "36",
    "prefectureNumber": 36,
    "prefecture": "徳島県",
    "city": "海部郡海陽町",
    "town": "鞆浦"
  },
  "7750302": {
    "zipcode": "7750302",
    "prefectureCode": "36",
    "prefectureNumber": 36,
    "prefecture": "徳島県",
    "city": "海部郡海陽町",
    "town": "奥浦"
  },
  "7750303": {
    "zipcode": "7750303",
    "prefectureCode": "36",
    "prefectureNumber": 36,
    "prefecture": "徳島県",
    "city": "海部郡海陽町",
    "town": "高園"
  },
  "7750304": {
    "zipcode": "7750304",
    "prefectureCode": "36",
    "prefectureNumber": 36,
    "prefecture": "徳島県",
    "city": "海部郡海陽町",
    "town": "野江"
  },
  "7750305": {
    "zipcode": "7750305",
    "prefectureCode": "36",
    "prefectureNumber": 36,
    "prefecture": "徳島県",
    "city": "海部郡海陽町",
    "town": "中山"
  },
  "7750306": {
    "zipcode": "7750306",
    "prefectureCode": "36",
    "prefectureNumber": 36,
    "prefecture": "徳島県",
    "city": "海部郡海陽町",
    "town": "櫛川"
  },
  "7750307": {
    "zipcode": "7750307",
    "prefectureCode": "36",
    "prefectureNumber": 36,
    "prefecture": "徳島県",
    "city": "海部郡海陽町",
    "town": "芝"
  },
  "7750308": {
    "zipcode": "7750308",
    "prefectureCode": "36",
    "prefectureNumber": 36,
    "prefecture": "徳島県",
    "city": "海部郡海陽町",
    "town": "吉田"
  },
  "7750309": {
    "zipcode": "7750309",
    "prefectureCode": "36",
    "prefectureNumber": 36,
    "prefecture": "徳島県",
    "city": "海部郡海陽町",
    "town": "富田"
  },
  "7750310": {
    "zipcode": "7750310",
    "prefectureCode": "36",
    "prefectureNumber": 36,
    "prefecture": "徳島県",
    "city": "海部郡海陽町",
    "town": "大井"
  },
  "7750411": {
    "zipcode": "7750411",
    "prefectureCode": "36",
    "prefectureNumber": 36,
    "prefecture": "徳島県",
    "city": "海部郡海陽町",
    "town": "平井"
  },
  "7750412": {
    "zipcode": "7750412",
    "prefectureCode": "36",
    "prefectureNumber": 36,
    "prefecture": "徳島県",
    "city": "海部郡海陽町",
    "town": "小川"
  },
  "7750413": {
    "zipcode": "7750413",
    "prefectureCode": "36",
    "prefectureNumber": 36,
    "prefecture": "徳島県",
    "city": "海部郡海陽町",
    "town": "神野"
  },
  "7750414": {
    "zipcode": "7750414",
    "prefectureCode": "36",
    "prefectureNumber": 36,
    "prefecture": "徳島県",
    "city": "海部郡海陽町",
    "town": "若松"
  },
  "7750415": {
    "zipcode": "7750415",
    "prefectureCode": "36",
    "prefectureNumber": 36,
    "prefecture": "徳島県",
    "city": "海部郡海陽町",
    "town": "相川"
  },
  "7750501": {
    "zipcode": "7750501",
    "prefectureCode": "36",
    "prefectureNumber": 36,
    "prefecture": "徳島県",
    "city": "海部郡海陽町",
    "town": "宍喰浦（その他）"
  },
  "7750502": {
    "zipcode": "7750502",
    "prefectureCode": "36",
    "prefectureNumber": 36,
    "prefecture": "徳島県",
    "city": "海部郡海陽町",
    "town": "久保"
  },
  "7750503": {
    "zipcode": "7750503",
    "prefectureCode": "36",
    "prefectureNumber": 36,
    "prefecture": "徳島県",
    "city": "海部郡海陽町",
    "town": "日比原"
  },
  "7750504": {
    "zipcode": "7750504",
    "prefectureCode": "36",
    "prefectureNumber": 36,
    "prefecture": "徳島県",
    "city": "海部郡海陽町",
    "town": "尾崎"
  },
  "7750505": {
    "zipcode": "7750505",
    "prefectureCode": "36",
    "prefectureNumber": 36,
    "prefecture": "徳島県",
    "city": "海部郡海陽町",
    "town": "芥附"
  },
  "7750506": {
    "zipcode": "7750506",
    "prefectureCode": "36",
    "prefectureNumber": 36,
    "prefecture": "徳島県",
    "city": "海部郡海陽町",
    "town": "角坂"
  },
  "7750507": {
    "zipcode": "7750507",
    "prefectureCode": "36",
    "prefectureNumber": 36,
    "prefecture": "徳島県",
    "city": "海部郡海陽町",
    "town": "広岡"
  },
  "7750508": {
    "zipcode": "7750508",
    "prefectureCode": "36",
    "prefectureNumber": 36,
    "prefecture": "徳島県",
    "city": "海部郡海陽町",
    "town": "小谷"
  },
  "7750509": {
    "zipcode": "7750509",
    "prefectureCode": "36",
    "prefectureNumber": 36,
    "prefecture": "徳島県",
    "city": "海部郡海陽町",
    "town": "塩深"
  },
  "7750510": {
    "zipcode": "7750510",
    "prefectureCode": "36",
    "prefectureNumber": 36,
    "prefecture": "徳島県",
    "city": "海部郡海陽町",
    "town": "船津"
  },
  "7750511": {
    "zipcode": "7750511",
    "prefectureCode": "36",
    "prefectureNumber": 36,
    "prefecture": "徳島県",
    "city": "海部郡海陽町",
    "town": "久尾"
  },
  "7750512": {
    "zipcode": "7750512",
    "prefectureCode": "36",
    "prefectureNumber": 36,
    "prefecture": "徳島県",
    "city": "海部郡海陽町",
    "town": "宍喰浦（那佐）"
  },
  "7750513": {
    "zipcode": "7750513",
    "prefectureCode": "36",
    "prefectureNumber": 36,
    "prefecture": "徳島県",
    "city": "海部郡海陽町",
    "town": "宍喰浦（竹ケ島）"
  }
}
