{
  "7760000": {
    "zipcode": "7760000",
    "prefectureCode": "36",
    "prefectureNumber": 36,
    "prefecture": "徳島県",
    "city": "吉野川市",
    "town": "以下に掲載がない場合"
  },
  "7760001": {
    "zipcode": "7760001",
    "prefectureCode": "36",
    "prefectureNumber": 36,
    "prefecture": "徳島県",
    "city": "吉野川市",
    "town": "鴨島町牛島"
  },
  "7760002": {
    "zipcode": "7760002",
    "prefectureCode": "36",
    "prefectureNumber": 36,
    "prefecture": "徳島県",
    "city": "吉野川市",
    "town": "鴨島町麻植塚"
  },
  "7760003": {
    "zipcode": "7760003",
    "prefectureCode": "36",
    "prefectureNumber": 36,
    "prefecture": "徳島県",
    "city": "吉野川市",
    "town": "鴨島町内原"
  },
  "7760004": {
    "zipcode": "7760004",
    "prefectureCode": "36",
    "prefectureNumber": 36,
    "prefecture": "徳島県",
    "city": "吉野川市",
    "town": "鴨島町中島"
  },
  "7760005": {
    "zipcode": "7760005",
    "prefectureCode": "36",
    "prefectureNumber": 36,
    "prefecture": "徳島県",
    "city": "吉野川市",
    "town": "鴨島町喜来"
  },
  "7760006": {
    "zipcode": "7760006",
    "prefectureCode": "36",
    "prefectureNumber": 36,
    "prefecture": "徳島県",
    "city": "吉野川市",
    "town": "鴨島町喜来甲"
  },
  "7760007": {
    "zipcode": "7760007",
    "prefectureCode": "36",
    "prefectureNumber": 36,
    "prefecture": "徳島県",
    "city": "吉野川市",
    "town": "鴨島町喜来乙"
  },
  "7760010": {
    "zipcode": "7760010",
    "prefectureCode": "36",
    "prefectureNumber": 36,
    "prefecture": "徳島県",
    "city": "吉野川市",
    "town": "鴨島町鴨島"
  },
  "7760011": {
    "zipcode": "7760011",
    "prefectureCode": "36",
    "prefectureNumber": 36,
    "prefecture": "徳島県",
    "city": "吉野川市",
    "town": "鴨島町鴨島甲"
  },
  "7760012": {
    "zipcode": "7760012",
    "prefectureCode": "36",
    "prefectureNumber": 36,
    "prefecture": "徳島県",
    "city": "吉野川市",
    "town": "鴨島町鴨島乙"
  },
  "7760013": {
    "zipcode": "7760013",
    "prefectureCode": "36",
    "prefectureNumber": 36,
    "prefecture": "徳島県",
    "city": "吉野川市",
    "town": "鴨島町上下島"
  },
  "7760014": {
    "zipcode": "7760014",
    "prefectureCode": "36",
    "prefectureNumber": 36,
    "prefecture": "徳島県",
    "city": "吉野川市",
    "town": "鴨島町知恵島"
  },
  "7760015": {
    "zipcode": "7760015",
    "prefectureCode": "36",
    "prefectureNumber": 36,
    "prefecture": "徳島県",
    "city": "吉野川市",
    "town": "鴨島町粟島"
  },
  "7760020": {
    "zipcode": "7760020",
    "prefectureCode": "36",
    "prefectureNumber": 36,
    "prefecture": "徳島県",
    "city": "吉野川市",
    "town": "鴨島町西麻植"
  },
  "7760031": {
    "zipcode": "7760031",
    "prefectureCode": "36",
    "prefectureNumber": 36,
    "prefecture": "徳島県",
    "city": "吉野川市",
    "town": "鴨島町敷地"
  },
  "7760032": {
    "zipcode": "7760032",
    "prefectureCode": "36",
    "prefectureNumber": 36,
    "prefecture": "徳島県",
    "city": "吉野川市",
    "town": "鴨島町樋山地"
  },
  "7760033": {
    "zipcode": "7760033",
    "prefectureCode": "36",
    "prefectureNumber": 36,
    "prefecture": "徳島県",
    "city": "吉野川市",
    "town": "鴨島町飯尾"
  },
  "7760034": {
    "zipcode": "7760034",
    "prefectureCode": "36",
    "prefectureNumber": 36,
    "prefecture": "徳島県",
    "city": "吉野川市",
    "town": "鴨島町呉郷団地"
  },
  "7760035": {
    "zipcode": "7760035",
    "prefectureCode": "36",
    "prefectureNumber": 36,
    "prefecture": "徳島県",
    "city": "吉野川市",
    "town": "鴨島町森藤"
  },
  "7760036": {
    "zipcode": "7760036",
    "prefectureCode": "36",
    "prefectureNumber": 36,
    "prefecture": "徳島県",
    "city": "吉野川市",
    "town": "鴨島町山路"
  },
  "7760037": {
    "zipcode": "7760037",
    "prefectureCode": "36",
    "prefectureNumber": 36,
    "prefecture": "徳島県",
    "city": "吉野川市",
    "town": "鴨島町上浦"
  }
}
