{
  "7770001": {
    "zipcode": "7770001",
    "prefectureCode": "36",
    "prefectureNumber": 36,
    "prefecture": "徳島県",
    "city": "美馬市",
    "town": "穴吹町三島（小島）"
  },
  "7770002": {
    "zipcode": "7770002",
    "prefectureCode": "36",
    "prefectureNumber": 36,
    "prefecture": "徳島県",
    "city": "美馬市",
    "town": "穴吹町三島（舞中島）"
  },
  "7770003": {
    "zipcode": "7770003",
    "prefectureCode": "36",
    "prefectureNumber": 36,
    "prefecture": "徳島県",
    "city": "美馬市",
    "town": "穴吹町三島（三谷）"
  },
  "7770004": {
    "zipcode": "7770004",
    "prefectureCode": "36",
    "prefectureNumber": 36,
    "prefecture": "徳島県",
    "city": "美馬市",
    "town": "穴吹町三島（大重）"
  },
  "7770005": {
    "zipcode": "7770005",
    "prefectureCode": "36",
    "prefectureNumber": 36,
    "prefecture": "徳島県",
    "city": "美馬市",
    "town": "穴吹町穴吹"
  },
  "7770006": {
    "zipcode": "7770006",
    "prefectureCode": "36",
    "prefectureNumber": 36,
    "prefecture": "徳島県",
    "city": "美馬市",
    "town": "穴吹町口山"
  },
  "7770007": {
    "zipcode": "7770007",
    "prefectureCode": "36",
    "prefectureNumber": 36,
    "prefecture": "徳島県",
    "city": "美馬市",
    "town": "穴吹町古宮"
  },
  "7770301": {
    "zipcode": "7770301",
    "prefectureCode": "36",
    "prefectureNumber": 36,
    "prefecture": "徳島県",
    "city": "美馬市",
    "town": "木屋平（市初、今丸、尾山、カゴミ、樫原、木中、桑柄、ケヤキヒラ、小日浦、地神滝、菅蔵、杖谷、葛尾、ハジコノ、ビヤガイチ、二戸、三ツ木、貢、南張、向樫原）"
  },
  "7770302": {
    "zipcode": "7770302",
    "prefectureCode": "36",
    "prefectureNumber": 36,
    "prefecture": "徳島県",
    "city": "美馬市",
    "town": "木屋平（麻衣、大北、川井、下名、竹尾、櫟木）"
  },
  "7770303": {
    "zipcode": "7770303",
    "prefectureCode": "36",
    "prefectureNumber": 36,
    "prefecture": "徳島県",
    "city": "美馬市",
    "town": "木屋平（川上、川上カケ、太合、太合カケ、谷口、谷口カケ、森遠、八幡、弓道）"
  }
}
