{
  "7780000": {
    "zipcode": "7780000",
    "prefectureCode": "36",
    "prefectureNumber": 36,
    "prefecture": "徳島県",
    "city": "三好市",
    "town": "以下に掲載がない場合"
  },
  "7780001": {
    "zipcode": "7780001",
    "prefectureCode": "36",
    "prefectureNumber": 36,
    "prefecture": "徳島県",
    "city": "三好市",
    "town": "池田町ウエノ"
  },
  "7780002": {
    "zipcode": "7780002",
    "prefectureCode": "36",
    "prefectureNumber": 36,
    "prefecture": "徳島県",
    "city": "三好市",
    "town": "池田町マチ"
  },
  "7780003": {
    "zipcode": "7780003",
    "prefectureCode": "36",
    "prefectureNumber": 36,
    "prefecture": "徳島県",
    "city": "三好市",
    "town": "池田町サラダ"
  },
  "7780004": {
    "zipcode": "7780004",
    "prefectureCode": "36",
    "prefectureNumber": 36,
    "prefecture": "徳島県",
    "city": "三好市",
    "town": "池田町シンマチ"
  },
  "7780005": {
    "zipcode": "7780005",
    "prefectureCode": "36",
    "prefectureNumber": 36,
    "prefecture": "徳島県",
    "city": "三好市",
    "town": "池田町シマ"
  },
  "7780006": {
    "zipcode": "7780006",
    "prefectureCode": "36",
    "prefectureNumber": 36,
    "prefecture": "徳島県",
    "city": "三好市",
    "town": "池田町トウゲ"
  },
  "7780007": {
    "zipcode": "7780007",
    "prefectureCode": "36",
    "prefectureNumber": 36,
    "prefecture": "徳島県",
    "city": "三好市",
    "town": "池田町ヤマダ"
  },
  "7780008": {
    "zipcode": "7780008",
    "prefectureCode": "36",
    "prefectureNumber": 36,
    "prefecture": "徳島県",
    "city": "三好市",
    "town": "池田町クヤウジ"
  },
  "7780009": {
    "zipcode": "7780009",
    "prefectureCode": "36",
    "prefectureNumber": 36,
    "prefecture": "徳島県",
    "city": "三好市",
    "town": "池田町ヤサン"
  },
  "7780010": {
    "zipcode": "7780010",
    "prefectureCode": "36",
    "prefectureNumber": 36,
    "prefecture": "徳島県",
    "city": "三好市",
    "town": "池田町ウエマツ"
  },
  "7780011": {
    "zipcode": "7780011",
    "prefectureCode": "36",
    "prefectureNumber": 36,
    "prefecture": "徳島県",
    "city": "三好市",
    "town": "池田町ハヤシ"
  },
  "7780012": {
    "zipcode": "7780012",
    "prefectureCode": "36",
    "prefectureNumber": 36,
    "prefecture": "徳島県",
    "city": "三好市",
    "town": "池田町イケミナミ"
  },
  "7780013": {
    "zipcode": "7780013",
    "prefectureCode": "36",
    "prefectureNumber": 36,
    "prefecture": "徳島県",
    "city": "三好市",
    "town": "池田町シンヤマ"
  },
  "7780014": {
    "zipcode": "7780014",
    "prefectureCode": "36",
    "prefectureNumber": 36,
    "prefecture": "徳島県",
    "city": "三好市",
    "town": "池田町イタノ"
  },
  "7780020": {
    "zipcode": "7780020",
    "prefectureCode": "36",
    "prefectureNumber": 36,
    "prefecture": "徳島県",
    "city": "三好市",
    "town": "池田町州津"
  },
  "7780031": {
    "zipcode": "7780031",
    "prefectureCode": "36",
    "prefectureNumber": 36,
    "prefecture": "徳島県",
    "city": "三好市",
    "town": "池田町西山（横佐古）"
  },
  "7780032": {
    "zipcode": "7780032",
    "prefectureCode": "36",
    "prefectureNumber": 36,
    "prefecture": "徳島県",
    "city": "三好市",
    "town": "池田町西山（宮ノ東）"
  },
  "7780040": {
    "zipcode": "7780040",
    "prefectureCode": "36",
    "prefectureNumber": 36,
    "prefecture": "徳島県",
    "city": "三好市",
    "town": "池田町西山（その他）"
  },
  "7780101": {
    "zipcode": "7780101",
    "prefectureCode": "36",
    "prefectureNumber": 36,
    "prefecture": "徳島県",
    "city": "三好市",
    "town": "西祖谷山村冥地"
  },
  "7780102": {
    "zipcode": "7780102",
    "prefectureCode": "36",
    "prefectureNumber": 36,
    "prefecture": "徳島県",
    "city": "三好市",
    "town": "西祖谷山村中尾"
  },
  "7780103": {
    "zipcode": "7780103",
    "prefectureCode": "36",
    "prefectureNumber": 36,
    "prefecture": "徳島県",
    "city": "三好市",
    "town": "西祖谷山村有瀬"
  },
  "7780104": {
    "zipcode": "7780104",
    "prefectureCode": "36",
    "prefectureNumber": 36,
    "prefecture": "徳島県",
    "city": "三好市",
    "town": "西祖谷山村南山"
  },
  "7780105": {
    "zipcode": "7780105",
    "prefectureCode": "36",
    "prefectureNumber": 36,
    "prefecture": "徳島県",
    "city": "三好市",
    "town": "西祖谷山村東西岡"
  },
  "7780165": {
    "zipcode": "7780165",
    "prefectureCode": "36",
    "prefectureNumber": 36,
    "prefecture": "徳島県",
    "city": "三好市",
    "town": "池田町松尾（祖谷温泉、松本３６７−２番地）"
  },
  "7780201": {
    "zipcode": "7780201",
    "prefectureCode": "36",
    "prefectureNumber": 36,
    "prefecture": "徳島県",
    "city": "三好市",
    "town": "東祖谷見ノ越"
  },
  "7780202": {
    "zipcode": "7780202",
    "prefectureCode": "36",
    "prefectureNumber": 36,
    "prefecture": "徳島県",
    "city": "三好市",
    "town": "東祖谷久保"
  },
  "7780203": {
    "zipcode": "7780203",
    "prefectureCode": "36",
    "prefectureNumber": 36,
    "prefecture": "徳島県",
    "city": "三好市",
    "town": "東祖谷林"
  },
  "7780204": {
    "zipcode": "7780204",
    "prefectureCode": "36",
    "prefectureNumber": 36,
    "prefecture": "徳島県",
    "city": "三好市",
    "town": "東祖谷若林"
  },
  "7780205": {
    "zipcode": "7780205",
    "prefectureCode": "36",
    "prefectureNumber": 36,
    "prefecture": "徳島県",
    "city": "三好市",
    "town": "東祖谷元井"
  },
  "7780206": {
    "zipcode": "7780206",
    "prefectureCode": "36",
    "prefectureNumber": 36,
    "prefecture": "徳島県",
    "city": "三好市",
    "town": "東祖谷和田"
  },
  "7785251": {
    "zipcode": "7785251",
    "prefectureCode": "36",
    "prefectureNumber": 36,
    "prefecture": "徳島県",
    "city": "三好市",
    "town": "池田町白地"
  },
  "7785252": {
    "zipcode": "7785252",
    "prefectureCode": "36",
    "prefectureNumber": 36,
    "prefecture": "徳島県",
    "city": "三好市",
    "town": "池田町馬路"
  },
  "7785253": {
    "zipcode": "7785253",
    "prefectureCode": "36",
    "prefectureNumber": 36,
    "prefecture": "徳島県",
    "city": "三好市",
    "town": "池田町佐野"
  },
  "7785254": {
    "zipcode": "7785254",
    "prefectureCode": "36",
    "prefectureNumber": 36,
    "prefecture": "徳島県",
    "city": "三好市",
    "town": "山城町佐連（ミネ畑）"
  }
}
