{
  "7790100": {
    "zipcode": "7790100",
    "prefectureCode": "36",
    "prefectureNumber": 36,
    "prefecture": "徳島県",
    "city": "板野郡板野町",
    "town": "以下に掲載がない場合"
  },
  "7790101": {
    "zipcode": "7790101",
    "prefectureCode": "36",
    "prefectureNumber": 36,
    "prefecture": "徳島県",
    "city": "板野郡板野町",
    "town": "大坂"
  },
  "7790102": {
    "zipcode": "7790102",
    "prefectureCode": "36",
    "prefectureNumber": 36,
    "prefecture": "徳島県",
    "city": "板野郡板野町",
    "town": "川端（その他）"
  },
  "7790103": {
    "zipcode": "7790103",
    "prefectureCode": "36",
    "prefectureNumber": 36,
    "prefecture": "徳島県",
    "city": "板野郡板野町",
    "town": "川端（新田）"
  },
  "7790104": {
    "zipcode": "7790104",
    "prefectureCode": "36",
    "prefectureNumber": 36,
    "prefecture": "徳島県",
    "city": "板野郡板野町",
    "town": "吹田"
  },
  "7790105": {
    "zipcode": "7790105",
    "prefectureCode": "36",
    "prefectureNumber": 36,
    "prefecture": "徳島県",
    "city": "板野郡板野町",
    "town": "大寺（その他）"
  },
  "7790106": {
    "zipcode": "7790106",
    "prefectureCode": "36",
    "prefectureNumber": 36,
    "prefecture": "徳島県",
    "city": "板野郡板野町",
    "town": "大寺（岡ノ宮）"
  },
  "7790107": {
    "zipcode": "7790107",
    "prefectureCode": "36",
    "prefectureNumber": 36,
    "prefecture": "徳島県",
    "city": "板野郡板野町",
    "town": "古城"
  },
  "7790108": {
    "zipcode": "7790108",
    "prefectureCode": "36",
    "prefectureNumber": 36,
    "prefecture": "徳島県",
    "city": "板野郡板野町",
    "town": "犬伏"
  },
  "7790111": {
    "zipcode": "7790111",
    "prefectureCode": "36",
    "prefectureNumber": 36,
    "prefecture": "徳島県",
    "city": "板野郡板野町",
    "town": "那東"
  },
  "7790112": {
    "zipcode": "7790112",
    "prefectureCode": "36",
    "prefectureNumber": 36,
    "prefecture": "徳島県",
    "city": "板野郡板野町",
    "town": "松谷"
  },
  "7790113": {
    "zipcode": "7790113",
    "prefectureCode": "36",
    "prefectureNumber": 36,
    "prefecture": "徳島県",
    "city": "板野郡板野町",
    "town": "黒谷"
  },
  "7790114": {
    "zipcode": "7790114",
    "prefectureCode": "36",
    "prefectureNumber": 36,
    "prefecture": "徳島県",
    "city": "板野郡板野町",
    "town": "羅漢"
  },
  "7790115": {
    "zipcode": "7790115",
    "prefectureCode": "36",
    "prefectureNumber": 36,
    "prefecture": "徳島県",
    "city": "板野郡板野町",
    "town": "矢武"
  },
  "7790116": {
    "zipcode": "7790116",
    "prefectureCode": "36",
    "prefectureNumber": 36,
    "prefecture": "徳島県",
    "city": "板野郡板野町",
    "town": "唐園"
  },
  "7790117": {
    "zipcode": "7790117",
    "prefectureCode": "36",
    "prefectureNumber": 36,
    "prefecture": "徳島県",
    "city": "板野郡板野町",
    "town": "中久保"
  },
  "7790118": {
    "zipcode": "7790118",
    "prefectureCode": "36",
    "prefectureNumber": 36,
    "prefecture": "徳島県",
    "city": "板野郡板野町",
    "town": "下庄"
  },
  "7790119": {
    "zipcode": "7790119",
    "prefectureCode": "36",
    "prefectureNumber": 36,
    "prefecture": "徳島県",
    "city": "板野郡板野町",
    "town": "西中富"
  },
  "7790221": {
    "zipcode": "7790221",
    "prefectureCode": "36",
    "prefectureNumber": 36,
    "prefecture": "徳島県",
    "city": "鳴門市",
    "town": "大麻町萩原"
  },
  "7790222": {
    "zipcode": "7790222",
    "prefectureCode": "36",
    "prefectureNumber": 36,
    "prefecture": "徳島県",
    "city": "鳴門市",
    "town": "大麻町三俣"
  },
  "7790223": {
    "zipcode": "7790223",
    "prefectureCode": "36",
    "prefectureNumber": 36,
    "prefecture": "徳島県",
    "city": "鳴門市",
    "town": "大麻町川崎"
  },
  "7790224": {
    "zipcode": "7790224",
    "prefectureCode": "36",
    "prefectureNumber": 36,
    "prefecture": "徳島県",
    "city": "鳴門市",
    "town": "大麻町津慈"
  },
  "7790225": {
    "zipcode": "7790225",
    "prefectureCode": "36",
    "prefectureNumber": 36,
    "prefecture": "徳島県",
    "city": "鳴門市",
    "town": "大麻町檜"
  },
  "7790230": {
    "zipcode": "7790230",
    "prefectureCode": "36",
    "prefectureNumber": 36,
    "prefecture": "徳島県",
    "city": "鳴門市",
    "town": "大麻町板東（その他）"
  },
  "7790231": {
    "zipcode": "7790231",
    "prefectureCode": "36",
    "prefectureNumber": 36,
    "prefecture": "徳島県",
    "city": "鳴門市",
    "town": "大麻町板東（大林）"
  },
  "7790232": {
    "zipcode": "7790232",
    "prefectureCode": "36",
    "prefectureNumber": 36,
    "prefecture": "徳島県",
    "city": "鳴門市",
    "town": "大麻町板東（辻見堂）"
  },
  "7790233": {
    "zipcode": "7790233",
    "prefectureCode": "36",
    "prefectureNumber": 36,
    "prefecture": "徳島県",
    "city": "鳴門市",
    "town": "大麻町板東（宝蔵）"
  },
  "7790234": {
    "zipcode": "7790234",
    "prefectureCode": "36",
    "prefectureNumber": 36,
    "prefecture": "徳島県",
    "city": "鳴門市",
    "town": "大麻町板東（采女）"
  },
  "7790235": {
    "zipcode": "7790235",
    "prefectureCode": "36",
    "prefectureNumber": 36,
    "prefecture": "徳島県",
    "city": "鳴門市",
    "town": "大麻町板東（永井）"
  },
  "7790236": {
    "zipcode": "7790236",
    "prefectureCode": "36",
    "prefectureNumber": 36,
    "prefecture": "徳島県",
    "city": "鳴門市",
    "town": "大麻町板東（西山田）"
  },
  "7790237": {
    "zipcode": "7790237",
    "prefectureCode": "36",
    "prefectureNumber": 36,
    "prefecture": "徳島県",
    "city": "鳴門市",
    "town": "大麻町板東（北条）"
  },
  "7790238": {
    "zipcode": "7790238",
    "prefectureCode": "36",
    "prefectureNumber": 36,
    "prefecture": "徳島県",
    "city": "鳴門市",
    "town": "大麻町板東（東山田）"
  },
  "7790301": {
    "zipcode": "7790301",
    "prefectureCode": "36",
    "prefectureNumber": 36,
    "prefecture": "徳島県",
    "city": "鳴門市",
    "town": "大麻町姫田"
  },
  "7790302": {
    "zipcode": "7790302",
    "prefectureCode": "36",
    "prefectureNumber": 36,
    "prefecture": "徳島県",
    "city": "鳴門市",
    "town": "大麻町大谷"
  },
  "7790303": {
    "zipcode": "7790303",
    "prefectureCode": "36",
    "prefectureNumber": 36,
    "prefecture": "徳島県",
    "city": "鳴門市",
    "town": "大麻町池谷"
  },
  "7790304": {
    "zipcode": "7790304",
    "prefectureCode": "36",
    "prefectureNumber": 36,
    "prefecture": "徳島県",
    "city": "鳴門市",
    "town": "大麻町松村"
  },
  "7790305": {
    "zipcode": "7790305",
    "prefectureCode": "36",
    "prefectureNumber": 36,
    "prefecture": "徳島県",
    "city": "鳴門市",
    "town": "大麻町高畑"
  },
  "7790311": {
    "zipcode": "7790311",
    "prefectureCode": "36",
    "prefectureNumber": 36,
    "prefecture": "徳島県",
    "city": "鳴門市",
    "town": "大麻町牛屋島"
  },
  "7790312": {
    "zipcode": "7790312",
    "prefectureCode": "36",
    "prefectureNumber": 36,
    "prefecture": "徳島県",
    "city": "鳴門市",
    "town": "大麻町東馬詰"
  },
  "7790313": {
    "zipcode": "7790313",
    "prefectureCode": "36",
    "prefectureNumber": 36,
    "prefecture": "徳島県",
    "city": "鳴門市",
    "town": "大麻町中馬詰"
  },
  "7790314": {
    "zipcode": "7790314",
    "prefectureCode": "36",
    "prefectureNumber": 36,
    "prefecture": "徳島県",
    "city": "鳴門市",
    "town": "大麻町西馬詰"
  },
  "7790315": {
    "zipcode": "7790315",
    "prefectureCode": "36",
    "prefectureNumber": 36,
    "prefecture": "徳島県",
    "city": "鳴門市",
    "town": "大麻町市場"
  },
  "7791101": {
    "zipcode": "7791101",
    "prefectureCode": "36",
    "prefectureNumber": 36,
    "prefecture": "徳島県",
    "city": "阿南市",
    "town": "羽ノ浦町中庄"
  },
  "7791102": {
    "zipcode": "7791102",
    "prefectureCode": "36",
    "prefectureNumber": 36,
    "prefecture": "徳島県",
    "city": "阿南市",
    "town": "羽ノ浦町宮倉"
  },
  "7791103": {
    "zipcode": "7791103",
    "prefectureCode": "36",
    "prefectureNumber": 36,
    "prefecture": "徳島県",
    "city": "阿南市",
    "town": "羽ノ浦町春日野"
  },
  "7791104": {
    "zipcode": "7791104",
    "prefectureCode": "36",
    "prefectureNumber": 36,
    "prefecture": "徳島県",
    "city": "阿南市",
    "town": "羽ノ浦町西春日野"
  },
  "7791105": {
    "zipcode": "7791105",
    "prefectureCode": "36",
    "prefectureNumber": 36,
    "prefecture": "徳島県",
    "city": "阿南市",
    "town": "羽ノ浦町古庄"
  },
  "7791106": {
    "zipcode": "7791106",
    "prefectureCode": "36",
    "prefectureNumber": 36,
    "prefecture": "徳島県",
    "city": "阿南市",
    "town": "羽ノ浦町岩脇（その他）"
  },
  "7791107": {
    "zipcode": "7791107",
    "prefectureCode": "36",
    "prefectureNumber": 36,
    "prefecture": "徳島県",
    "city": "阿南市",
    "town": "羽ノ浦町岩脇（奥ノ谷）"
  },
  "7791108": {
    "zipcode": "7791108",
    "prefectureCode": "36",
    "prefectureNumber": 36,
    "prefecture": "徳島県",
    "city": "阿南市",
    "town": "羽ノ浦町明見"
  },
  "7791109": {
    "zipcode": "7791109",
    "prefectureCode": "36",
    "prefectureNumber": 36,
    "prefecture": "徳島県",
    "city": "阿南市",
    "town": "羽ノ浦町古毛"
  },
  "7791111": {
    "zipcode": "7791111",
    "prefectureCode": "36",
    "prefectureNumber": 36,
    "prefecture": "徳島県",
    "city": "阿南市",
    "town": "那賀川町江野島"
  },
  "7791112": {
    "zipcode": "7791112",
    "prefectureCode": "36",
    "prefectureNumber": 36,
    "prefecture": "徳島県",
    "city": "阿南市",
    "town": "那賀川町色ケ島"
  },
  "7791113": {
    "zipcode": "7791113",
    "prefectureCode": "36",
    "prefectureNumber": 36,
    "prefecture": "徳島県",
    "city": "阿南市",
    "town": "那賀川町芳崎"
  },
  "7791114": {
    "zipcode": "7791114",
    "prefectureCode": "36",
    "prefectureNumber": 36,
    "prefecture": "徳島県",
    "city": "阿南市",
    "town": "那賀川町今津浦"
  },
  "7791115": {
    "zipcode": "7791115",
    "prefectureCode": "36",
    "prefectureNumber": 36,
    "prefecture": "徳島県",
    "city": "阿南市",
    "town": "那賀川町敷地"
  },
  "7791116": {
    "zipcode": "7791116",
    "prefectureCode": "36",
    "prefectureNumber": 36,
    "prefecture": "徳島県",
    "city": "阿南市",
    "town": "那賀川町小延"
  },
  "7791117": {
    "zipcode": "7791117",
    "prefectureCode": "36",
    "prefectureNumber": 36,
    "prefecture": "徳島県",
    "city": "阿南市",
    "town": "那賀川町島尻"
  },
  "7791118": {
    "zipcode": "7791118",
    "prefectureCode": "36",
    "prefectureNumber": 36,
    "prefecture": "徳島県",
    "city": "阿南市",
    "town": "那賀川町豊香野"
  },
  "7791119": {
    "zipcode": "7791119",
    "prefectureCode": "36",
    "prefectureNumber": 36,
    "prefecture": "徳島県",
    "city": "阿南市",
    "town": "那賀川町日向"
  },
  "7791121": {
    "zipcode": "7791121",
    "prefectureCode": "36",
    "prefectureNumber": 36,
    "prefecture": "徳島県",
    "city": "阿南市",
    "town": "那賀川町黒地"
  },
  "7791122": {
    "zipcode": "7791122",
    "prefectureCode": "36",
    "prefectureNumber": 36,
    "prefecture": "徳島県",
    "city": "阿南市",
    "town": "那賀川町八幡"
  },
  "7791123": {
    "zipcode": "7791123",
    "prefectureCode": "36",
    "prefectureNumber": 36,
    "prefecture": "徳島県",
    "city": "阿南市",
    "town": "那賀川町手島"
  },
  "7791231": {
    "zipcode": "7791231",
    "prefectureCode": "36",
    "prefectureNumber": 36,
    "prefecture": "徳島県",
    "city": "阿南市",
    "town": "那賀川町原"
  },
  "7791232": {
    "zipcode": "7791232",
    "prefectureCode": "36",
    "prefectureNumber": 36,
    "prefecture": "徳島県",
    "city": "阿南市",
    "town": "那賀川町西原"
  },
  "7791233": {
    "zipcode": "7791233",
    "prefectureCode": "36",
    "prefectureNumber": 36,
    "prefecture": "徳島県",
    "city": "阿南市",
    "town": "那賀川町大京原"
  },
  "7791234": {
    "zipcode": "7791234",
    "prefectureCode": "36",
    "prefectureNumber": 36,
    "prefecture": "徳島県",
    "city": "阿南市",
    "town": "那賀川町古津"
  },
  "7791235": {
    "zipcode": "7791235",
    "prefectureCode": "36",
    "prefectureNumber": 36,
    "prefecture": "徳島県",
    "city": "阿南市",
    "town": "那賀川町苅屋"
  },
  "7791236": {
    "zipcode": "7791236",
    "prefectureCode": "36",
    "prefectureNumber": 36,
    "prefecture": "徳島県",
    "city": "阿南市",
    "town": "那賀川町工地"
  },
  "7791241": {
    "zipcode": "7791241",
    "prefectureCode": "36",
    "prefectureNumber": 36,
    "prefecture": "徳島県",
    "city": "阿南市",
    "town": "那賀川町三栗"
  },
  "7791242": {
    "zipcode": "7791242",
    "prefectureCode": "36",
    "prefectureNumber": 36,
    "prefecture": "徳島県",
    "city": "阿南市",
    "town": "那賀川町赤池"
  },
  "7791243": {
    "zipcode": "7791243",
    "prefectureCode": "36",
    "prefectureNumber": 36,
    "prefecture": "徳島県",
    "city": "阿南市",
    "town": "那賀川町上福井"
  },
  "7791244": {
    "zipcode": "7791244",
    "prefectureCode": "36",
    "prefectureNumber": 36,
    "prefecture": "徳島県",
    "city": "阿南市",
    "town": "那賀川町みどり台"
  },
  "7791245": {
    "zipcode": "7791245",
    "prefectureCode": "36",
    "prefectureNumber": 36,
    "prefecture": "徳島県",
    "city": "阿南市",
    "town": "那賀川町中島"
  },
  "7791246": {
    "zipcode": "7791246",
    "prefectureCode": "36",
    "prefectureNumber": 36,
    "prefecture": "徳島県",
    "city": "阿南市",
    "town": "那賀川町北中島"
  },
  "7791401": {
    "zipcode": "7791401",
    "prefectureCode": "36",
    "prefectureNumber": 36,
    "prefecture": "徳島県",
    "city": "阿南市",
    "town": "内原町"
  },
  "7791402": {
    "zipcode": "7791402",
    "prefectureCode": "36",
    "prefectureNumber": 36,
    "prefecture": "徳島県",
    "city": "阿南市",
    "town": "桑野町"
  },
  "7791403": {
    "zipcode": "7791403",
    "prefectureCode": "36",
    "prefectureNumber": 36,
    "prefecture": "徳島県",
    "city": "阿南市",
    "town": "山口町"
  },
  "7791404": {
    "zipcode": "7791404",
    "prefectureCode": "36",
    "prefectureNumber": 36,
    "prefecture": "徳島県",
    "city": "阿南市",
    "town": "阿瀬比町"
  },
  "7791510": {
    "zipcode": "7791510",
    "prefectureCode": "36",
    "prefectureNumber": 36,
    "prefecture": "徳島県",
    "city": "阿南市",
    "town": "新野町"
  },
  "7791620": {
    "zipcode": "7791620",
    "prefectureCode": "36",
    "prefectureNumber": 36,
    "prefecture": "徳島県",
    "city": "阿南市",
    "town": "福井町"
  },
  "7791630": {
    "zipcode": "7791630",
    "prefectureCode": "36",
    "prefectureNumber": 36,
    "prefecture": "徳島県",
    "city": "阿南市",
    "town": "橘町（タテアジロ、袴、袴傍示、棒面）"
  },
  "7791631": {
    "zipcode": "7791631",
    "prefectureCode": "36",
    "prefectureNumber": 36,
    "prefecture": "徳島県",
    "city": "阿南市",
    "town": "橘町（小勝）"
  },
  "7791740": {
    "zipcode": "7791740",
    "prefectureCode": "36",
    "prefectureNumber": 36,
    "prefecture": "徳島県",
    "city": "阿南市",
    "town": "椿泊町"
  },
  "7791750": {
    "zipcode": "7791750",
    "prefectureCode": "36",
    "prefectureNumber": 36,
    "prefecture": "徳島県",
    "city": "阿南市",
    "town": "椿町"
  },
  "7792101": {
    "zipcode": "7792101",
    "prefectureCode": "36",
    "prefectureNumber": 36,
    "prefecture": "徳島県",
    "city": "海部郡美波町",
    "town": "西由岐"
  },
  "7792102": {
    "zipcode": "7792102",
    "prefectureCode": "36",
    "prefectureNumber": 36,
    "prefecture": "徳島県",
    "city": "海部郡美波町",
    "town": "港町"
  },
  "7792103": {
    "zipcode": "7792103",
    "prefectureCode": "36",
    "prefectureNumber": 36,
    "prefecture": "徳島県",
    "city": "海部郡美波町",
    "town": "西の地"
  },
  "7792104": {
    "zipcode": "7792104",
    "prefectureCode": "36",
    "prefectureNumber": 36,
    "prefecture": "徳島県",
    "city": "海部郡美波町",
    "town": "東由岐"
  },
  "7792105": {
    "zipcode": "7792105",
    "prefectureCode": "36",
    "prefectureNumber": 36,
    "prefecture": "徳島県",
    "city": "海部郡美波町",
    "town": "志和岐"
  },
  "7792106": {
    "zipcode": "7792106",
    "prefectureCode": "36",
    "prefectureNumber": 36,
    "prefecture": "徳島県",
    "city": "海部郡美波町",
    "town": "阿部"
  },
  "7792107": {
    "zipcode": "7792107",
    "prefectureCode": "36",
    "prefectureNumber": 36,
    "prefecture": "徳島県",
    "city": "海部郡美波町",
    "town": "伊座利"
  },
  "7792108": {
    "zipcode": "7792108",
    "prefectureCode": "36",
    "prefectureNumber": 36,
    "prefecture": "徳島県",
    "city": "海部郡美波町",
    "town": "木岐"
  },
  "7792109": {
    "zipcode": "7792109",
    "prefectureCode": "36",
    "prefectureNumber": 36,
    "prefecture": "徳島県",
    "city": "海部郡美波町",
    "town": "田井"
  },
  "7792300": {
    "zipcode": "7792300",
    "prefectureCode": "36",
    "prefectureNumber": 36,
    "prefecture": "徳島県",
    "city": "海部郡美波町",
    "town": "以下に掲載がない場合"
  },
  "7792301": {
    "zipcode": "7792301",
    "prefectureCode": "36",
    "prefectureNumber": 36,
    "prefecture": "徳島県",
    "city": "海部郡美波町",
    "town": "赤松"
  },
  "7792302": {
    "zipcode": "7792302",
    "prefectureCode": "36",
    "prefectureNumber": 36,
    "prefecture": "徳島県",
    "city": "海部郡美波町",
    "town": "北河内"
  },
  "7792303": {
    "zipcode": "7792303",
    "prefectureCode": "36",
    "prefectureNumber": 36,
    "prefecture": "徳島県",
    "city": "海部郡美波町",
    "town": "恵比須浜"
  },
  "7792304": {
    "zipcode": "7792304",
    "prefectureCode": "36",
    "prefectureNumber": 36,
    "prefecture": "徳島県",
    "city": "海部郡美波町",
    "town": "日和佐浦"
  },
  "7792305": {
    "zipcode": "7792305",
    "prefectureCode": "36",
    "prefectureNumber": 36,
    "prefecture": "徳島県",
    "city": "海部郡美波町",
    "town": "奥河内"
  },
  "7792306": {
    "zipcode": "7792306",
    "prefectureCode": "36",
    "prefectureNumber": 36,
    "prefecture": "徳島県",
    "city": "海部郡美波町",
    "town": "西河内"
  },
  "7792307": {
    "zipcode": "7792307",
    "prefectureCode": "36",
    "prefectureNumber": 36,
    "prefecture": "徳島県",
    "city": "海部郡美波町",
    "town": "山河内"
  },
  "7793101": {
    "zipcode": "7793101",
    "prefectureCode": "36",
    "prefectureNumber": 36,
    "prefecture": "徳島県",
    "city": "徳島市",
    "town": "国府町佐野塚"
  },
  "7793102": {
    "zipcode": "7793102",
    "prefectureCode": "36",
    "prefectureNumber": 36,
    "prefecture": "徳島県",
    "city": "徳島市",
    "town": "国府町西黒田"
  },
  "7793103": {
    "zipcode": "7793103",
    "prefectureCode": "36",
    "prefectureNumber": 36,
    "prefecture": "徳島県",
    "city": "徳島市",
    "town": "国府町東黒田"
  },
  "7793104": {
    "zipcode": "7793104",
    "prefectureCode": "36",
    "prefectureNumber": 36,
    "prefecture": "徳島県",
    "city": "徳島市",
    "town": "国府町西高輪"
  },
  "7793105": {
    "zipcode": "7793105",
    "prefectureCode": "36",
    "prefectureNumber": 36,
    "prefecture": "徳島県",
    "city": "徳島市",
    "town": "国府町東高輪"
  },
  "7793106": {
    "zipcode": "7793106",
    "prefectureCode": "36",
    "prefectureNumber": 36,
    "prefecture": "徳島県",
    "city": "徳島市",
    "town": "国府町花園"
  },
  "7793111": {
    "zipcode": "7793111",
    "prefectureCode": "36",
    "prefectureNumber": 36,
    "prefecture": "徳島県",
    "city": "徳島市",
    "town": "国府町竜王"
  },
  "7793112": {
    "zipcode": "7793112",
    "prefectureCode": "36",
    "prefectureNumber": 36,
    "prefecture": "徳島県",
    "city": "徳島市",
    "town": "国府町芝原"
  },
  "7793113": {
    "zipcode": "7793113",
    "prefectureCode": "36",
    "prefectureNumber": 36,
    "prefecture": "徳島県",
    "city": "徳島市",
    "town": "国府町川原田"
  },
  "7793114": {
    "zipcode": "7793114",
    "prefectureCode": "36",
    "prefectureNumber": 36,
    "prefecture": "徳島県",
    "city": "徳島市",
    "town": "国府町桜間"
  },
  "7793115": {
    "zipcode": "7793115",
    "prefectureCode": "36",
    "prefectureNumber": 36,
    "prefecture": "徳島県",
    "city": "徳島市",
    "town": "国府町敷地"
  },
  "7793116": {
    "zipcode": "7793116",
    "prefectureCode": "36",
    "prefectureNumber": 36,
    "prefecture": "徳島県",
    "city": "徳島市",
    "town": "国府町池尻"
  },
  "7793117": {
    "zipcode": "7793117",
    "prefectureCode": "36",
    "prefectureNumber": 36,
    "prefecture": "徳島県",
    "city": "徳島市",
    "town": "国府町日開"
  },
  "7793118": {
    "zipcode": "7793118",
    "prefectureCode": "36",
    "prefectureNumber": 36,
    "prefecture": "徳島県",
    "city": "徳島市",
    "town": "国府町井戸"
  },
  "7793119": {
    "zipcode": "7793119",
    "prefectureCode": "36",
    "prefectureNumber": 36,
    "prefecture": "徳島県",
    "city": "徳島市",
    "town": "国府町北岩延"
  },
  "7793120": {
    "zipcode": "7793120",
    "prefectureCode": "36",
    "prefectureNumber": 36,
    "prefecture": "徳島県",
    "city": "徳島市",
    "town": "国府町南岩延"
  },
  "7793121": {
    "zipcode": "7793121",
    "prefectureCode": "36",
    "prefectureNumber": 36,
    "prefecture": "徳島県",
    "city": "徳島市",
    "town": "国府町和田"
  },
  "7793122": {
    "zipcode": "7793122",
    "prefectureCode": "36",
    "prefectureNumber": 36,
    "prefecture": "徳島県",
    "city": "徳島市",
    "town": "国府町府中"
  },
  "7793123": {
    "zipcode": "7793123",
    "prefectureCode": "36",
    "prefectureNumber": 36,
    "prefecture": "徳島県",
    "city": "徳島市",
    "town": "国府町観音寺"
  },
  "7793124": {
    "zipcode": "7793124",
    "prefectureCode": "36",
    "prefectureNumber": 36,
    "prefecture": "徳島県",
    "city": "徳島市",
    "town": "国府町中"
  },
  "7793125": {
    "zipcode": "7793125",
    "prefectureCode": "36",
    "prefectureNumber": 36,
    "prefecture": "徳島県",
    "city": "徳島市",
    "town": "国府町早淵"
  },
  "7793126": {
    "zipcode": "7793126",
    "prefectureCode": "36",
    "prefectureNumber": 36,
    "prefecture": "徳島県",
    "city": "徳島市",
    "town": "国府町矢野"
  },
  "7793127": {
    "zipcode": "7793127",
    "prefectureCode": "36",
    "prefectureNumber": 36,
    "prefecture": "徳島県",
    "city": "徳島市",
    "town": "国府町西矢野"
  },
  "7793128": {
    "zipcode": "7793128",
    "prefectureCode": "36",
    "prefectureNumber": 36,
    "prefecture": "徳島県",
    "city": "徳島市",
    "town": "国府町延命"
  },
  "7793131": {
    "zipcode": "7793131",
    "prefectureCode": "36",
    "prefectureNumber": 36,
    "prefecture": "徳島県",
    "city": "徳島市",
    "town": "下町"
  },
  "7793132": {
    "zipcode": "7793132",
    "prefectureCode": "36",
    "prefectureNumber": 36,
    "prefecture": "徳島県",
    "city": "徳島市",
    "town": "一宮町"
  },
  "7793133": {
    "zipcode": "7793133",
    "prefectureCode": "36",
    "prefectureNumber": 36,
    "prefecture": "徳島県",
    "city": "徳島市",
    "town": "入田町"
  },
  "7793200": {
    "zipcode": "7793200",
    "prefectureCode": "36",
    "prefectureNumber": 36,
    "prefecture": "徳島県",
    "city": "名西郡石井町",
    "town": "以下に掲載がない場合"
  },
  "7793201": {
    "zipcode": "7793201",
    "prefectureCode": "36",
    "prefectureNumber": 36,
    "prefecture": "徳島県",
    "city": "名西郡石井町",
    "town": "高原（中須）"
  },
  "7793202": {
    "zipcode": "7793202",
    "prefectureCode": "36",
    "prefectureNumber": 36,
    "prefecture": "徳島県",
    "city": "名西郡石井町",
    "town": "高原（関）"
  },
  "7793203": {
    "zipcode": "7793203",
    "prefectureCode": "36",
    "prefectureNumber": 36,
    "prefecture": "徳島県",
    "city": "名西郡石井町",
    "town": "高原（平島）"
  },
  "7793204": {
    "zipcode": "7793204",
    "prefectureCode": "36",
    "prefectureNumber": 36,
    "prefecture": "徳島県",
    "city": "名西郡石井町",
    "town": "高原（西高原）"
  },
  "7793205": {
    "zipcode": "7793205",
    "prefectureCode": "36",
    "prefectureNumber": 36,
    "prefecture": "徳島県",
    "city": "名西郡石井町",
    "town": "高原（東高原）"
  },
  "7793206": {
    "zipcode": "7793206",
    "prefectureCode": "36",
    "prefectureNumber": 36,
    "prefecture": "徳島県",
    "city": "名西郡石井町",
    "town": "高原（池北）"
  },
  "7793207": {
    "zipcode": "7793207",
    "prefectureCode": "36",
    "prefectureNumber": 36,
    "prefecture": "徳島県",
    "city": "名西郡石井町",
    "town": "高原（桑島）"
  },
  "7793208": {
    "zipcode": "7793208",
    "prefectureCode": "36",
    "prefectureNumber": 36,
    "prefecture": "徳島県",
    "city": "名西郡石井町",
    "town": "高原（中島）"
  },
  "7793211": {
    "zipcode": "7793211",
    "prefectureCode": "36",
    "prefectureNumber": 36,
    "prefecture": "徳島県",
    "city": "名西郡石井町",
    "town": "藍畑（西覚円）"
  },
  "7793212": {
    "zipcode": "7793212",
    "prefectureCode": "36",
    "prefectureNumber": 36,
    "prefecture": "徳島県",
    "city": "名西郡石井町",
    "town": "藍畑（東覚円）"
  },
  "7793213": {
    "zipcode": "7793213",
    "prefectureCode": "36",
    "prefectureNumber": 36,
    "prefecture": "徳島県",
    "city": "名西郡石井町",
    "town": "藍畑（高畑）"
  },
  "7793214": {
    "zipcode": "7793214",
    "prefectureCode": "36",
    "prefectureNumber": 36,
    "prefecture": "徳島県",
    "city": "名西郡石井町",
    "town": "藍畑（第十）"
  },
  "7793215": {
    "zipcode": "7793215",
    "prefectureCode": "36",
    "prefectureNumber": 36,
    "prefecture": "徳島県",
    "city": "名西郡石井町",
    "town": "藍畑（竜王）"
  },
  "7793221": {
    "zipcode": "7793221",
    "prefectureCode": "36",
    "prefectureNumber": 36,
    "prefecture": "徳島県",
    "city": "名西郡石井町",
    "town": "高川原（南島）"
  },
  "7793222": {
    "zipcode": "7793222",
    "prefectureCode": "36",
    "prefectureNumber": 36,
    "prefecture": "徳島県",
    "city": "名西郡石井町",
    "town": "高川原（天神）"
  },
  "7793223": {
    "zipcode": "7793223",
    "prefectureCode": "36",
    "prefectureNumber": 36,
    "prefecture": "徳島県",
    "city": "名西郡石井町",
    "town": "高川原（高川原）"
  },
  "7793224": {
    "zipcode": "7793224",
    "prefectureCode": "36",
    "prefectureNumber": 36,
    "prefecture": "徳島県",
    "city": "名西郡石井町",
    "town": "高川原（加茂野）"
  },
  "7793225": {
    "zipcode": "7793225",
    "prefectureCode": "36",
    "prefectureNumber": 36,
    "prefecture": "徳島県",
    "city": "名西郡石井町",
    "town": "高川原（桜間）"
  },
  "7793226": {
    "zipcode": "7793226",
    "prefectureCode": "36",
    "prefectureNumber": 36,
    "prefecture": "徳島県",
    "city": "名西郡石井町",
    "town": "高川原（市楽）"
  },
  "7793231": {
    "zipcode": "7793231",
    "prefectureCode": "36",
    "prefectureNumber": 36,
    "prefecture": "徳島県",
    "city": "名西郡石井町",
    "town": "石井（重松）"
  },
  "7793232": {
    "zipcode": "7793232",
    "prefectureCode": "36",
    "prefectureNumber": 36,
    "prefecture": "徳島県",
    "city": "名西郡石井町",
    "town": "石井（城の内）"
  },
  "7793233": {
    "zipcode": "7793233",
    "prefectureCode": "36",
    "prefectureNumber": 36,
    "prefecture": "徳島県",
    "city": "名西郡石井町",
    "town": "石井（石井）"
  },
  "7793234": {
    "zipcode": "7793234",
    "prefectureCode": "36",
    "prefectureNumber": 36,
    "prefecture": "徳島県",
    "city": "名西郡石井町",
    "town": "石井（白鳥）"
  },
  "7793235": {
    "zipcode": "7793235",
    "prefectureCode": "36",
    "prefectureNumber": 36,
    "prefecture": "徳島県",
    "city": "名西郡石井町",
    "town": "石井（尼寺）"
  },
  "7793236": {
    "zipcode": "7793236",
    "prefectureCode": "36",
    "prefectureNumber": 36,
    "prefecture": "徳島県",
    "city": "名西郡石井町",
    "town": "石井（内谷）"
  },
  "7793241": {
    "zipcode": "7793241",
    "prefectureCode": "36",
    "prefectureNumber": 36,
    "prefecture": "徳島県",
    "city": "名西郡石井町",
    "town": "浦庄（諏訪）"
  },
  "7793242": {
    "zipcode": "7793242",
    "prefectureCode": "36",
    "prefectureNumber": 36,
    "prefecture": "徳島県",
    "city": "名西郡石井町",
    "town": "浦庄（国実）"
  },
  "7793243": {
    "zipcode": "7793243",
    "prefectureCode": "36",
    "prefectureNumber": 36,
    "prefecture": "徳島県",
    "city": "名西郡石井町",
    "town": "浦庄（大万）"
  },
  "7793244": {
    "zipcode": "7793244",
    "prefectureCode": "36",
    "prefectureNumber": 36,
    "prefecture": "徳島県",
    "city": "名西郡石井町",
    "town": "浦庄（下浦）"
  },
  "7793245": {
    "zipcode": "7793245",
    "prefectureCode": "36",
    "prefectureNumber": 36,
    "prefecture": "徳島県",
    "city": "名西郡石井町",
    "town": "浦庄（上浦）"
  },
  "7793301": {
    "zipcode": "7793301",
    "prefectureCode": "36",
    "prefectureNumber": 36,
    "prefecture": "徳島県",
    "city": "吉野川市",
    "town": "川島町川島"
  },
  "7793302": {
    "zipcode": "7793302",
    "prefectureCode": "36",
    "prefectureNumber": 36,
    "prefecture": "徳島県",
    "city": "吉野川市",
    "town": "川島町山田"
  },
  "7793303": {
    "zipcode": "7793303",
    "prefectureCode": "36",
    "prefectureNumber": 36,
    "prefecture": "徳島県",
    "city": "吉野川市",
    "town": "川島町桑村"
  },
  "7793304": {
    "zipcode": "7793304",
    "prefectureCode": "36",
    "prefectureNumber": 36,
    "prefecture": "徳島県",
    "city": "吉野川市",
    "town": "川島町宮島"
  },
  "7793305": {
    "zipcode": "7793305",
    "prefectureCode": "36",
    "prefectureNumber": 36,
    "prefecture": "徳島県",
    "city": "吉野川市",
    "town": "川島町児島"
  },
  "7793306": {
    "zipcode": "7793306",
    "prefectureCode": "36",
    "prefectureNumber": 36,
    "prefecture": "徳島県",
    "city": "吉野川市",
    "town": "川島町学"
  },
  "7793307": {
    "zipcode": "7793307",
    "prefectureCode": "36",
    "prefectureNumber": 36,
    "prefecture": "徳島県",
    "city": "吉野川市",
    "town": "川島町三ツ島"
  },
  "7793401": {
    "zipcode": "7793401",
    "prefectureCode": "36",
    "prefectureNumber": 36,
    "prefecture": "徳島県",
    "city": "吉野川市",
    "town": "山川町町"
  },
  "7793402": {
    "zipcode": "7793402",
    "prefectureCode": "36",
    "prefectureNumber": 36,
    "prefecture": "徳島県",
    "city": "吉野川市",
    "town": "山川町山路"
  },
  "7793403": {
    "zipcode": "7793403",
    "prefectureCode": "36",
    "prefectureNumber": 36,
    "prefecture": "徳島県",
    "city": "吉野川市",
    "town": "山川町若宮"
  },
  "7793404": {
    "zipcode": "7793404",
    "prefectureCode": "36",
    "prefectureNumber": 36,
    "prefecture": "徳島県",
    "city": "吉野川市",
    "town": "山川町湯立"
  },
  "7793405": {
    "zipcode": "7793405",
    "prefectureCode": "36",
    "prefectureNumber": 36,
    "prefecture": "徳島県",
    "city": "吉野川市",
    "town": "山川町木綿麻山"
  },
  "7793406": {
    "zipcode": "7793406",
    "prefectureCode": "36",
    "prefectureNumber": 36,
    "prefecture": "徳島県",
    "city": "吉野川市",
    "town": "山川町馬見尾"
  },
  "7793407": {
    "zipcode": "7793407",
    "prefectureCode": "36",
    "prefectureNumber": 36,
    "prefecture": "徳島県",
    "city": "吉野川市",
    "town": "山川町横走"
  },
  "7793501": {
    "zipcode": "7793501",
    "prefectureCode": "36",
    "prefectureNumber": 36,
    "prefecture": "徳島県",
    "city": "吉野川市",
    "town": "美郷宗田"
  },
  "7793502": {
    "zipcode": "7793502",
    "prefectureCode": "36",
    "prefectureNumber": 36,
    "prefecture": "徳島県",
    "city": "吉野川市",
    "town": "美郷矢ノ丸"
  },
  "7793503": {
    "zipcode": "7793503",
    "prefectureCode": "36",
    "prefectureNumber": 36,
    "prefecture": "徳島県",
    "city": "吉野川市",
    "town": "美郷湯殿"
  },
  "7793504": {
    "zipcode": "7793504",
    "prefectureCode": "36",
    "prefectureNumber": 36,
    "prefecture": "徳島県",
    "city": "吉野川市",
    "town": "美郷刷石"
  },
  "7793505": {
    "zipcode": "7793505",
    "prefectureCode": "36",
    "prefectureNumber": 36,
    "prefecture": "徳島県",
    "city": "吉野川市",
    "town": "美郷湯下"
  },
  "7793600": {
    "zipcode": "7793600",
    "prefectureCode": "36",
    "prefectureNumber": 36,
    "prefecture": "徳島県",
    "city": "美馬市",
    "town": "以下に掲載がない場合"
  },
  "7793601": {
    "zipcode": "7793601",
    "prefectureCode": "36",
    "prefectureNumber": 36,
    "prefecture": "徳島県",
    "city": "美馬市",
    "town": "脇町（拝原）"
  },
  "7793602": {
    "zipcode": "7793602",
    "prefectureCode": "36",
    "prefectureNumber": 36,
    "prefecture": "徳島県",
    "city": "美馬市",
    "town": "脇町猪尻（その他）"
  },
  "7793603": {
    "zipcode": "7793603",
    "prefectureCode": "36",
    "prefectureNumber": 36,
    "prefecture": "徳島県",
    "city": "美馬市",
    "town": "脇町猪尻（庄、土井、西上野）"
  },
  "7793604": {
    "zipcode": "7793604",
    "prefectureCode": "36",
    "prefectureNumber": 36,
    "prefecture": "徳島県",
    "city": "美馬市",
    "town": "脇町（北庄）"
  },
  "7793610": {
    "zipcode": "7793610",
    "prefectureCode": "36",
    "prefectureNumber": 36,
    "prefecture": "徳島県",
    "city": "美馬市",
    "town": "脇町脇町"
  },
  "7793620": {
    "zipcode": "7793620",
    "prefectureCode": "36",
    "prefectureNumber": 36,
    "prefecture": "徳島県",
    "city": "美馬市",
    "town": "脇町別所"
  },
  "7793625": {
    "zipcode": "7793625",
    "prefectureCode": "36",
    "prefectureNumber": 36,
    "prefecture": "徳島県",
    "city": "美馬市",
    "town": "脇町（北星）"
  },
  "7793631": {
    "zipcode": "7793631",
    "prefectureCode": "36",
    "prefectureNumber": 36,
    "prefecture": "徳島県",
    "city": "美馬市",
    "town": "脇町（新山）"
  },
  "7793632": {
    "zipcode": "7793632",
    "prefectureCode": "36",
    "prefectureNumber": 36,
    "prefecture": "徳島県",
    "city": "美馬市",
    "town": "脇町（井口東、上ノ原）"
  },
  "7793633": {
    "zipcode": "7793633",
    "prefectureCode": "36",
    "prefectureNumber": 36,
    "prefecture": "徳島県",
    "city": "美馬市",
    "town": "脇町（井口）"
  },
  "7793634": {
    "zipcode": "7793634",
    "prefectureCode": "36",
    "prefectureNumber": 36,
    "prefecture": "徳島県",
    "city": "美馬市",
    "town": "脇町（小星）"
  },
  "7793635": {
    "zipcode": "7793635",
    "prefectureCode": "36",
    "prefectureNumber": 36,
    "prefecture": "徳島県",
    "city": "美馬市",
    "town": "脇町（川原柴、暮畑、梨子木、横倉）"
  },
  "7793636": {
    "zipcode": "7793636",
    "prefectureCode": "36",
    "prefectureNumber": 36,
    "prefecture": "徳島県",
    "city": "美馬市",
    "town": "脇町（芋穴、中八）"
  },
  "7793637": {
    "zipcode": "7793637",
    "prefectureCode": "36",
    "prefectureNumber": 36,
    "prefecture": "徳島県",
    "city": "美馬市",
    "town": "脇町（上中野、下中野、平帽子、舟木）"
  },
  "7793638": {
    "zipcode": "7793638",
    "prefectureCode": "36",
    "prefectureNumber": 36,
    "prefecture": "徳島県",
    "city": "美馬市",
    "town": "脇町（神楽田、西大谷、東大谷）"
  },
  "7793639": {
    "zipcode": "7793639",
    "prefectureCode": "36",
    "prefectureNumber": 36,
    "prefecture": "徳島県",
    "city": "美馬市",
    "town": "脇町（芋尻、小丸、白木、段、段名、中段、羽出床）"
  },
  "7793741": {
    "zipcode": "7793741",
    "prefectureCode": "36",
    "prefectureNumber": 36,
    "prefecture": "徳島県",
    "city": "美馬市",
    "town": "脇町（曽江名）"
  },
  "7793742": {
    "zipcode": "7793742",
    "prefectureCode": "36",
    "prefectureNumber": 36,
    "prefecture": "徳島県",
    "city": "美馬市",
    "town": "脇町（西赤谷）"
  },
  "7793743": {
    "zipcode": "7793743",
    "prefectureCode": "36",
    "prefectureNumber": 36,
    "prefecture": "徳島県",
    "city": "美馬市",
    "town": "脇町（東赤谷名）"
  },
  "7793744": {
    "zipcode": "7793744",
    "prefectureCode": "36",
    "prefectureNumber": 36,
    "prefecture": "徳島県",
    "city": "美馬市",
    "town": "脇町（西俣名）"
  },
  "7793745": {
    "zipcode": "7793745",
    "prefectureCode": "36",
    "prefectureNumber": 36,
    "prefecture": "徳島県",
    "city": "美馬市",
    "town": "脇町（東俣名）"
  },
  "7794100": {
    "zipcode": "7794100",
    "prefectureCode": "36",
    "prefectureNumber": 36,
    "prefecture": "徳島県",
    "city": "美馬郡つるぎ町",
    "town": "以下に掲載がない場合"
  },
  "7794101": {
    "zipcode": "7794101",
    "prefectureCode": "36",
    "prefectureNumber": 36,
    "prefecture": "徳島県",
    "city": "美馬郡つるぎ町",
    "town": "貞光（馬出、大須賀、中須賀、西浦、東浦、町、宮下）"
  },
  "7794102": {
    "zipcode": "7794102",
    "prefectureCode": "36",
    "prefectureNumber": 36,
    "prefecture": "徳島県",
    "city": "美馬郡つるぎ町",
    "town": "貞光（大坊、辻、西山、野口、平石、別所、前田）"
  },
  "7794103": {
    "zipcode": "7794103",
    "prefectureCode": "36",
    "prefectureNumber": 36,
    "prefecture": "徳島県",
    "city": "美馬郡つるぎ町",
    "town": "貞光（江ノ脇、岡、せせらぎ、宮内）"
  },
  "7794104": {
    "zipcode": "7794104",
    "prefectureCode": "36",
    "prefectureNumber": 36,
    "prefecture": "徳島県",
    "city": "美馬郡つるぎ町",
    "town": "貞光（太田西、太田東、太田東山、小長谷、小山北、柴内、柴山、僧地、僧山）"
  },
  "7794105": {
    "zipcode": "7794105",
    "prefectureCode": "36",
    "prefectureNumber": 36,
    "prefecture": "徳島県",
    "city": "美馬郡つるぎ町",
    "town": "貞光（浦山、乙部、皆瀬、竹屋敷、長谷、西丸井、引地、宅熊）"
  },
  "7794106": {
    "zipcode": "7794106",
    "prefectureCode": "36",
    "prefectureNumber": 36,
    "prefecture": "徳島県",
    "city": "美馬郡つるぎ町",
    "town": "貞光（大久保、皆瀬川向、捨子谷南、捨子谷北、谷向、中山、西谷、白村）"
  },
  "7794107": {
    "zipcode": "7794107",
    "prefectureCode": "36",
    "prefectureNumber": 36,
    "prefecture": "徳島県",
    "city": "美馬郡つるぎ町",
    "town": "貞光（家賀道上、家賀道下、平野、長木、長木影、広谷、広谷影、広谷東）"
  },
  "7794108": {
    "zipcode": "7794108",
    "prefectureCode": "36",
    "prefectureNumber": 36,
    "prefecture": "徳島県",
    "city": "美馬郡つるぎ町",
    "town": "貞光（川見、川見津、川見西、長瀬、日浦川向、東丸井、三木枋、森ノ本）"
  },
  "7794109": {
    "zipcode": "7794109",
    "prefectureCode": "36",
    "prefectureNumber": 36,
    "prefecture": "徳島県",
    "city": "美馬郡つるぎ町",
    "town": "貞光（吉良、木屋、猿飼、成谷、日浦、宮平、横野）"
  },
  "7794301": {
    "zipcode": "7794301",
    "prefectureCode": "36",
    "prefectureNumber": 36,
    "prefecture": "徳島県",
    "city": "美馬郡つるぎ町",
    "town": "一宇（一宇、蔭、樫地、剪宇、太刀之本）"
  },
  "7794302": {
    "zipcode": "7794302",
    "prefectureCode": "36",
    "prefectureNumber": 36,
    "prefecture": "徳島県",
    "city": "美馬郡つるぎ町",
    "town": "一宇（赤松、寺地）"
  },
  "7794303": {
    "zipcode": "7794303",
    "prefectureCode": "36",
    "prefectureNumber": 36,
    "prefecture": "徳島県",
    "city": "美馬郡つるぎ町",
    "town": "一宇（大横、木地屋、切越、十家、中横）"
  },
  "7794304": {
    "zipcode": "7794304",
    "prefectureCode": "36",
    "prefectureNumber": 36,
    "prefecture": "徳島県",
    "city": "美馬郡つるぎ町",
    "town": "一宇（伊良原、大野、九藤中、子安、久藪）"
  },
  "7794305": {
    "zipcode": "7794305",
    "prefectureCode": "36",
    "prefectureNumber": 36,
    "prefecture": "徳島県",
    "city": "美馬郡つるぎ町",
    "town": "一宇（出羽、臼木、漆日浦、大屋内、白井、平、明谷）"
  },
  "7794306": {
    "zipcode": "7794306",
    "prefectureCode": "36",
    "prefectureNumber": 36,
    "prefecture": "徳島県",
    "city": "美馬郡つるぎ町",
    "town": "一宇（漆野瀬、河内、桑平、葛籠、平井、廣澤、法正）"
  },
  "7794307": {
    "zipcode": "7794307",
    "prefectureCode": "36",
    "prefectureNumber": 36,
    "prefecture": "徳島県",
    "city": "美馬郡つるぎ町",
    "town": "一宇（大佐古、奥大野、川又、實平、中野）"
  },
  "7794401": {
    "zipcode": "7794401",
    "prefectureCode": "36",
    "prefectureNumber": 36,
    "prefecture": "徳島県",
    "city": "美馬郡つるぎ町",
    "town": "半田（逢坂、小野、天皇、中藪、松生）"
  },
  "7794402": {
    "zipcode": "7794402",
    "prefectureCode": "36",
    "prefectureNumber": 36,
    "prefecture": "徳島県",
    "city": "美馬郡つるぎ町",
    "town": "半田（上蔭、蔭名、田井、日浦）"
  },
  "7794403": {
    "zipcode": "7794403",
    "prefectureCode": "36",
    "prefectureNumber": 36,
    "prefecture": "徳島県",
    "city": "美馬郡つるぎ町",
    "town": "半田（木ノ内、京都、猿飼、白石、西久保、東久保、平良石）"
  },
  "7794404": {
    "zipcode": "7794404",
    "prefectureCode": "36",
    "prefectureNumber": 36,
    "prefecture": "徳島県",
    "city": "美馬郡つるぎ町",
    "town": "半田（青野、折坂、小井野、高清、坂根、下尾尻、下竹、上蓮、日谷尾）"
  },
  "7794405": {
    "zipcode": "7794405",
    "prefectureCode": "36",
    "prefectureNumber": 36,
    "prefecture": "徳島県",
    "city": "美馬郡つるぎ町",
    "town": "半田（葛城、上喜来、中熊、長野、日開野）"
  },
  "7794406": {
    "zipcode": "7794406",
    "prefectureCode": "36",
    "prefectureNumber": 36,
    "prefecture": "徳島県",
    "city": "美馬郡つるぎ町",
    "town": "半田（樫尾、紙屋、小谷、佐古戸、下喜来）"
  },
  "7794407": {
    "zipcode": "7794407",
    "prefectureCode": "36",
    "prefectureNumber": 36,
    "prefecture": "徳島県",
    "city": "美馬郡つるぎ町",
    "town": "半田（東毛田）"
  },
  "7794700": {
    "zipcode": "7794700",
    "prefectureCode": "36",
    "prefectureNumber": 36,
    "prefecture": "徳島県",
    "city": "三好郡東みよし町",
    "town": "以下に掲載がない場合"
  },
  "7794701": {
    "zipcode": "7794701",
    "prefectureCode": "36",
    "prefectureNumber": 36,
    "prefecture": "徳島県",
    "city": "三好郡東みよし町",
    "town": "加茂"
  },
  "7794702": {
    "zipcode": "7794702",
    "prefectureCode": "36",
    "prefectureNumber": 36,
    "prefecture": "徳島県",
    "city": "三好郡東みよし町",
    "town": "西庄"
  },
  "7794703": {
    "zipcode": "7794703",
    "prefectureCode": "36",
    "prefectureNumber": 36,
    "prefecture": "徳島県",
    "city": "三好郡東みよし町",
    "town": "中庄（その他）"
  },
  "7794704": {
    "zipcode": "7794704",
    "prefectureCode": "36",
    "prefectureNumber": 36,
    "prefecture": "徳島県",
    "city": "三好郡東みよし町",
    "town": "中庄（奥村）"
  },
  "7794705": {
    "zipcode": "7794705",
    "prefectureCode": "36",
    "prefectureNumber": 36,
    "prefecture": "徳島県",
    "city": "三好郡東みよし町",
    "town": "毛田（その他）"
  },
  "7794706": {
    "zipcode": "7794706",
    "prefectureCode": "36",
    "prefectureNumber": 36,
    "prefecture": "徳島県",
    "city": "三好郡東みよし町",
    "town": "毛田（黒長谷）"
  },
  "7794707": {
    "zipcode": "7794707",
    "prefectureCode": "36",
    "prefectureNumber": 36,
    "prefecture": "徳島県",
    "city": "三好郡東みよし町",
    "town": "毛田（大藤）"
  },
  "7794801": {
    "zipcode": "7794801",
    "prefectureCode": "36",
    "prefectureNumber": 36,
    "prefecture": "徳島県",
    "city": "三好市",
    "town": "井川町本町"
  },
  "7794802": {
    "zipcode": "7794802",
    "prefectureCode": "36",
    "prefectureNumber": 36,
    "prefecture": "徳島県",
    "city": "三好市",
    "town": "井川町向坂"
  },
  "7794803": {
    "zipcode": "7794803",
    "prefectureCode": "36",
    "prefectureNumber": 36,
    "prefecture": "徳島県",
    "city": "三好市",
    "town": "井川町吉岡"
  },
  "7794804": {
    "zipcode": "7794804",
    "prefectureCode": "36",
    "prefectureNumber": 36,
    "prefecture": "徳島県",
    "city": "三好市",
    "town": "井川町井内東"
  },
  "7794805": {
    "zipcode": "7794805",
    "prefectureCode": "36",
    "prefectureNumber": 36,
    "prefecture": "徳島県",
    "city": "三好市",
    "town": "井川町井内西"
  },
  "7794806": {
    "zipcode": "7794806",
    "prefectureCode": "36",
    "prefectureNumber": 36,
    "prefecture": "徳島県",
    "city": "三好市",
    "town": "井川町西井川"
  },
  "7794807": {
    "zipcode": "7794807",
    "prefectureCode": "36",
    "prefectureNumber": 36,
    "prefecture": "徳島県",
    "city": "三好市",
    "town": "井川町里川"
  },
  "7795161": {
    "zipcode": "7795161",
    "prefectureCode": "36",
    "prefectureNumber": 36,
    "prefecture": "徳島県",
    "city": "三好市",
    "town": "池田町中西"
  },
  "7795162": {
    "zipcode": "7795162",
    "prefectureCode": "36",
    "prefectureNumber": 36,
    "prefecture": "徳島県",
    "city": "三好市",
    "town": "池田町漆川"
  },
  "7795163": {
    "zipcode": "7795163",
    "prefectureCode": "36",
    "prefectureNumber": 36,
    "prefecture": "徳島県",
    "city": "三好市",
    "town": "池田町中津川"
  },
  "7795164": {
    "zipcode": "7795164",
    "prefectureCode": "36",
    "prefectureNumber": 36,
    "prefecture": "徳島県",
    "city": "三好市",
    "town": "池田町大利"
  },
  "7795165": {
    "zipcode": "7795165",
    "prefectureCode": "36",
    "prefectureNumber": 36,
    "prefecture": "徳島県",
    "city": "三好市",
    "town": "池田町松尾（その他）"
  },
  "7795166": {
    "zipcode": "7795166",
    "prefectureCode": "36",
    "prefectureNumber": 36,
    "prefecture": "徳島県",
    "city": "三好市",
    "town": "池田町川崎"
  },
  "7795171": {
    "zipcode": "7795171",
    "prefectureCode": "36",
    "prefectureNumber": 36,
    "prefecture": "徳島県",
    "city": "三好市",
    "town": "西祖谷山村下名"
  },
  "7795172": {
    "zipcode": "7795172",
    "prefectureCode": "36",
    "prefectureNumber": 36,
    "prefecture": "徳島県",
    "city": "三好市",
    "town": "西祖谷山村小祖谷"
  },
  "7795173": {
    "zipcode": "7795173",
    "prefectureCode": "36",
    "prefectureNumber": 36,
    "prefecture": "徳島県",
    "city": "三好市",
    "town": "西祖谷山村坂瀬"
  },
  "7795301": {
    "zipcode": "7795301",
    "prefectureCode": "36",
    "prefectureNumber": 36,
    "prefecture": "徳島県",
    "city": "三好市",
    "town": "山城町大和川"
  },
  "7795302": {
    "zipcode": "7795302",
    "prefectureCode": "36",
    "prefectureNumber": 36,
    "prefecture": "徳島県",
    "city": "三好市",
    "town": "山城町若山"
  },
  "7795303": {
    "zipcode": "7795303",
    "prefectureCode": "36",
    "prefectureNumber": 36,
    "prefecture": "徳島県",
    "city": "三好市",
    "town": "山城町下川"
  },
  "7795304": {
    "zipcode": "7795304",
    "prefectureCode": "36",
    "prefectureNumber": 36,
    "prefecture": "徳島県",
    "city": "三好市",
    "town": "山城町大川持"
  },
  "7795305": {
    "zipcode": "7795305",
    "prefectureCode": "36",
    "prefectureNumber": 36,
    "prefecture": "徳島県",
    "city": "三好市",
    "town": "山城町川口"
  },
  "7795306": {
    "zipcode": "7795306",
    "prefectureCode": "36",
    "prefectureNumber": 36,
    "prefecture": "徳島県",
    "city": "三好市",
    "town": "山城町寺野"
  },
  "7795307": {
    "zipcode": "7795307",
    "prefectureCode": "36",
    "prefectureNumber": 36,
    "prefecture": "徳島県",
    "city": "三好市",
    "town": "山城町相川"
  },
  "7795311": {
    "zipcode": "7795311",
    "prefectureCode": "36",
    "prefectureNumber": 36,
    "prefecture": "徳島県",
    "city": "三好市",
    "town": "山城町中ノ瀬"
  },
  "7795312": {
    "zipcode": "7795312",
    "prefectureCode": "36",
    "prefectureNumber": 36,
    "prefecture": "徳島県",
    "city": "三好市",
    "town": "山城町八千坊"
  },
  "7795313": {
    "zipcode": "7795313",
    "prefectureCode": "36",
    "prefectureNumber": 36,
    "prefecture": "徳島県",
    "city": "三好市",
    "town": "山城町黒川"
  },
  "7795314": {
    "zipcode": "7795314",
    "prefectureCode": "36",
    "prefectureNumber": 36,
    "prefecture": "徳島県",
    "city": "三好市",
    "town": "山城町岩戸"
  },
  "7795315": {
    "zipcode": "7795315",
    "prefectureCode": "36",
    "prefectureNumber": 36,
    "prefecture": "徳島県",
    "city": "三好市",
    "town": "山城町引地"
  },
  "7795316": {
    "zipcode": "7795316",
    "prefectureCode": "36",
    "prefectureNumber": 36,
    "prefecture": "徳島県",
    "city": "三好市",
    "town": "山城町末貞"
  },
  "7795321": {
    "zipcode": "7795321",
    "prefectureCode": "36",
    "prefectureNumber": 36,
    "prefecture": "徳島県",
    "city": "三好市",
    "town": "山城町国政"
  },
  "7795322": {
    "zipcode": "7795322",
    "prefectureCode": "36",
    "prefectureNumber": 36,
    "prefecture": "徳島県",
    "city": "三好市",
    "town": "山城町重実（その他）"
  },
  "7795323": {
    "zipcode": "7795323",
    "prefectureCode": "36",
    "prefectureNumber": 36,
    "prefecture": "徳島県",
    "city": "三好市",
    "town": "山城町中野"
  },
  "7795324": {
    "zipcode": "7795324",
    "prefectureCode": "36",
    "prefectureNumber": 36,
    "prefecture": "徳島県",
    "city": "三好市",
    "town": "山城町白川"
  },
  "7795325": {
    "zipcode": "7795325",
    "prefectureCode": "36",
    "prefectureNumber": 36,
    "prefecture": "徳島県",
    "city": "三好市",
    "town": "山城町光兼"
  },
  "7795326": {
    "zipcode": "7795326",
    "prefectureCode": "36",
    "prefectureNumber": 36,
    "prefecture": "徳島県",
    "city": "三好市",
    "town": "山城町仏子"
  },
  "7795327": {
    "zipcode": "7795327",
    "prefectureCode": "36",
    "prefectureNumber": 36,
    "prefecture": "徳島県",
    "city": "三好市",
    "town": "山城町尾又"
  },
  "7795328": {
    "zipcode": "7795328",
    "prefectureCode": "36",
    "prefectureNumber": 36,
    "prefecture": "徳島県",
    "city": "三好市",
    "town": "山城町粟山"
  },
  "7795331": {
    "zipcode": "7795331",
    "prefectureCode": "36",
    "prefectureNumber": 36,
    "prefecture": "徳島県",
    "city": "三好市",
    "town": "山城町茂地"
  },
  "7795332": {
    "zipcode": "7795332",
    "prefectureCode": "36",
    "prefectureNumber": 36,
    "prefecture": "徳島県",
    "city": "三好市",
    "town": "山城町小川谷"
  },
  "7795333": {
    "zipcode": "7795333",
    "prefectureCode": "36",
    "prefectureNumber": 36,
    "prefecture": "徳島県",
    "city": "三好市",
    "town": "山城町大野"
  },
  "7795334": {
    "zipcode": "7795334",
    "prefectureCode": "36",
    "prefectureNumber": 36,
    "prefecture": "徳島県",
    "city": "三好市",
    "town": "山城町信正"
  },
  "7795335": {
    "zipcode": "7795335",
    "prefectureCode": "36",
    "prefectureNumber": 36,
    "prefecture": "徳島県",
    "city": "三好市",
    "town": "山城町頼広"
  },
  "7795336": {
    "zipcode": "7795336",
    "prefectureCode": "36",
    "prefectureNumber": 36,
    "prefecture": "徳島県",
    "city": "三好市",
    "town": "山城町赤谷"
  },
  "7795337": {
    "zipcode": "7795337",
    "prefectureCode": "36",
    "prefectureNumber": 36,
    "prefecture": "徳島県",
    "city": "三好市",
    "town": "山城町平野"
  },
  "7795341": {
    "zipcode": "7795341",
    "prefectureCode": "36",
    "prefectureNumber": 36,
    "prefecture": "徳島県",
    "city": "三好市",
    "town": "山城町佐連（その他）"
  },
  "7795342": {
    "zipcode": "7795342",
    "prefectureCode": "36",
    "prefectureNumber": 36,
    "prefecture": "徳島県",
    "city": "三好市",
    "town": "山城町大谷"
  },
  "7795343": {
    "zipcode": "7795343",
    "prefectureCode": "36",
    "prefectureNumber": 36,
    "prefecture": "徳島県",
    "city": "三好市",
    "town": "山城町柴川"
  },
  "7795344": {
    "zipcode": "7795344",
    "prefectureCode": "36",
    "prefectureNumber": 36,
    "prefecture": "徳島県",
    "city": "三好市",
    "town": "山城町政友"
  },
  "7795345": {
    "zipcode": "7795345",
    "prefectureCode": "36",
    "prefectureNumber": 36,
    "prefecture": "徳島県",
    "city": "三好市",
    "town": "山城町瀬貝"
  },
  "7795346": {
    "zipcode": "7795346",
    "prefectureCode": "36",
    "prefectureNumber": 36,
    "prefecture": "徳島県",
    "city": "三好市",
    "town": "山城町脇"
  },
  "7795347": {
    "zipcode": "7795347",
    "prefectureCode": "36",
    "prefectureNumber": 36,
    "prefecture": "徳島県",
    "city": "三好市",
    "town": "山城町大月"
  },
  "7795422": {
    "zipcode": "7795422",
    "prefectureCode": "36",
    "prefectureNumber": 36,
    "prefecture": "徳島県",
    "city": "三好市",
    "town": "山城町重実（殿野）"
  },
  "7795451": {
    "zipcode": "7795451",
    "prefectureCode": "36",
    "prefectureNumber": 36,
    "prefecture": "徳島県",
    "city": "三好市",
    "town": "山城町西宇"
  },
  "7795452": {
    "zipcode": "7795452",
    "prefectureCode": "36",
    "prefectureNumber": 36,
    "prefecture": "徳島県",
    "city": "三好市",
    "town": "山城町上名"
  },
  "7795453": {
    "zipcode": "7795453",
    "prefectureCode": "36",
    "prefectureNumber": 36,
    "prefecture": "徳島県",
    "city": "三好市",
    "town": "山城町下名"
  }
}
