{
  "7800000": {
    "zipcode": "7800000",
    "prefectureCode": "39",
    "prefectureNumber": 39,
    "prefecture": "高知県",
    "city": "高知市",
    "town": "以下に掲載がない場合"
  },
  "7800001": {
    "zipcode": "7800001",
    "prefectureCode": "39",
    "prefectureNumber": 39,
    "prefecture": "高知県",
    "city": "高知市",
    "town": "久礼野"
  },
  "7800002": {
    "zipcode": "7800002",
    "prefectureCode": "39",
    "prefectureNumber": 39,
    "prefecture": "高知県",
    "city": "高知市",
    "town": "重倉"
  },
  "7800003": {
    "zipcode": "7800003",
    "prefectureCode": "39",
    "prefectureNumber": 39,
    "prefecture": "高知県",
    "city": "高知市",
    "town": "七ツ淵"
  },
  "7800004": {
    "zipcode": "7800004",
    "prefectureCode": "39",
    "prefectureNumber": 39,
    "prefecture": "高知県",
    "city": "高知市",
    "town": "三谷"
  },
  "7800021": {
    "zipcode": "7800021",
    "prefectureCode": "39",
    "prefectureNumber": 39,
    "prefecture": "高知県",
    "city": "高知市",
    "town": "中秦泉寺"
  },
  "7800022": {
    "zipcode": "7800022",
    "prefectureCode": "39",
    "prefectureNumber": 39,
    "prefecture": "高知県",
    "city": "高知市",
    "town": "北秦泉寺"
  },
  "7800023": {
    "zipcode": "7800023",
    "prefectureCode": "39",
    "prefectureNumber": 39,
    "prefecture": "高知県",
    "city": "高知市",
    "town": "東秦泉寺"
  },
  "7800024": {
    "zipcode": "7800024",
    "prefectureCode": "39",
    "prefectureNumber": 39,
    "prefecture": "高知県",
    "city": "高知市",
    "town": "前里"
  },
  "7800025": {
    "zipcode": "7800025",
    "prefectureCode": "39",
    "prefectureNumber": 39,
    "prefecture": "高知県",
    "city": "高知市",
    "town": "愛宕山"
  },
  "7800026": {
    "zipcode": "7800026",
    "prefectureCode": "39",
    "prefectureNumber": 39,
    "prefecture": "高知県",
    "city": "高知市",
    "town": "秦南町"
  },
  "7800027": {
    "zipcode": "7800027",
    "prefectureCode": "39",
    "prefectureNumber": 39,
    "prefecture": "高知県",
    "city": "高知市",
    "town": "愛宕山南町"
  },
  "7800031": {
    "zipcode": "7800031",
    "prefectureCode": "39",
    "prefectureNumber": 39,
    "prefecture": "高知県",
    "city": "高知市",
    "town": "宇津野"
  },
  "7800032": {
    "zipcode": "7800032",
    "prefectureCode": "39",
    "prefectureNumber": 39,
    "prefecture": "高知県",
    "city": "高知市",
    "town": "加賀野井"
  },
  "7800033": {
    "zipcode": "7800033",
    "prefectureCode": "39",
    "prefectureNumber": 39,
    "prefecture": "高知県",
    "city": "高知市",
    "town": "西秦泉寺"
  },
  "7800034": {
    "zipcode": "7800034",
    "prefectureCode": "39",
    "prefectureNumber": 39,
    "prefecture": "高知県",
    "city": "高知市",
    "town": "三園町"
  },
  "7800041": {
    "zipcode": "7800041",
    "prefectureCode": "39",
    "prefectureNumber": 39,
    "prefecture": "高知県",
    "city": "高知市",
    "town": "入明町"
  },
  "7800042": {
    "zipcode": "7800042",
    "prefectureCode": "39",
    "prefectureNumber": 39,
    "prefecture": "高知県",
    "city": "高知市",
    "town": "洞ケ島町"
  },
  "7800043": {
    "zipcode": "7800043",
    "prefectureCode": "39",
    "prefectureNumber": 39,
    "prefecture": "高知県",
    "city": "高知市",
    "town": "寿町"
  },
  "7800044": {
    "zipcode": "7800044",
    "prefectureCode": "39",
    "prefectureNumber": 39,
    "prefecture": "高知県",
    "city": "高知市",
    "town": "中水道"
  },
  "7800045": {
    "zipcode": "7800045",
    "prefectureCode": "39",
    "prefectureNumber": 39,
    "prefecture": "高知県",
    "city": "高知市",
    "town": "幸町"
  },
  "7800046": {
    "zipcode": "7800046",
    "prefectureCode": "39",
    "prefectureNumber": 39,
    "prefecture": "高知県",
    "city": "高知市",
    "town": "伊勢崎町"
  },
  "7800047": {
    "zipcode": "7800047",
    "prefectureCode": "39",
    "prefectureNumber": 39,
    "prefecture": "高知県",
    "city": "高知市",
    "town": "相模町"
  },
  "7800048": {
    "zipcode": "7800048",
    "prefectureCode": "39",
    "prefectureNumber": 39,
    "prefecture": "高知県",
    "city": "高知市",
    "town": "吉田町"
  },
  "7800051": {
    "zipcode": "7800051",
    "prefectureCode": "39",
    "prefectureNumber": 39,
    "prefecture": "高知県",
    "city": "高知市",
    "town": "愛宕町"
  },
  "7800052": {
    "zipcode": "7800052",
    "prefectureCode": "39",
    "prefectureNumber": 39,
    "prefecture": "高知県",
    "city": "高知市",
    "town": "大川筋"
  },
  "7800053": {
    "zipcode": "7800053",
    "prefectureCode": "39",
    "prefectureNumber": 39,
    "prefecture": "高知県",
    "city": "高知市",
    "town": "駅前町"
  },
  "7800054": {
    "zipcode": "7800054",
    "prefectureCode": "39",
    "prefectureNumber": 39,
    "prefecture": "高知県",
    "city": "高知市",
    "town": "相生町"
  },
  "7800055": {
    "zipcode": "7800055",
    "prefectureCode": "39",
    "prefectureNumber": 39,
    "prefecture": "高知県",
    "city": "高知市",
    "town": "江陽町"
  },
  "7800056": {
    "zipcode": "7800056",
    "prefectureCode": "39",
    "prefectureNumber": 39,
    "prefecture": "高知県",
    "city": "高知市",
    "town": "北本町"
  },
  "7800061": {
    "zipcode": "7800061",
    "prefectureCode": "39",
    "prefectureNumber": 39,
    "prefecture": "高知県",
    "city": "高知市",
    "town": "栄田町"
  },
  "7800062": {
    "zipcode": "7800062",
    "prefectureCode": "39",
    "prefectureNumber": 39,
    "prefecture": "高知県",
    "city": "高知市",
    "town": "新本町"
  },
  "7800063": {
    "zipcode": "7800063",
    "prefectureCode": "39",
    "prefectureNumber": 39,
    "prefecture": "高知県",
    "city": "高知市",
    "town": "昭和町"
  },
  "7800064": {
    "zipcode": "7800064",
    "prefectureCode": "39",
    "prefectureNumber": 39,
    "prefecture": "高知県",
    "city": "高知市",
    "town": "和泉町"
  },
  "7800065": {
    "zipcode": "7800065",
    "prefectureCode": "39",
    "prefectureNumber": 39,
    "prefecture": "高知県",
    "city": "高知市",
    "town": "塩田町"
  },
  "7800066": {
    "zipcode": "7800066",
    "prefectureCode": "39",
    "prefectureNumber": 39,
    "prefecture": "高知県",
    "city": "高知市",
    "town": "比島町"
  },
  "7800071": {
    "zipcode": "7800071",
    "prefectureCode": "39",
    "prefectureNumber": 39,
    "prefecture": "高知県",
    "city": "高知市",
    "town": "高そね"
  },
  "7800072": {
    "zipcode": "7800072",
    "prefectureCode": "39",
    "prefectureNumber": 39,
    "prefecture": "高知県",
    "city": "高知市",
    "town": "杉井流"
  },
  "7800816": {
    "zipcode": "7800816",
    "prefectureCode": "39",
    "prefectureNumber": 39,
    "prefecture": "高知県",
    "city": "高知市",
    "town": "南宝永町"
  },
  "7800817": {
    "zipcode": "7800817",
    "prefectureCode": "39",
    "prefectureNumber": 39,
    "prefecture": "高知県",
    "city": "高知市",
    "town": "中宝永町"
  },
  "7800818": {
    "zipcode": "7800818",
    "prefectureCode": "39",
    "prefectureNumber": 39,
    "prefecture": "高知県",
    "city": "高知市",
    "town": "宝永町"
  },
  "7800821": {
    "zipcode": "7800821",
    "prefectureCode": "39",
    "prefectureNumber": 39,
    "prefecture": "高知県",
    "city": "高知市",
    "town": "桜井町"
  },
  "7800822": {
    "zipcode": "7800822",
    "prefectureCode": "39",
    "prefectureNumber": 39,
    "prefecture": "高知県",
    "city": "高知市",
    "town": "はりまや町"
  },
  "7800823": {
    "zipcode": "7800823",
    "prefectureCode": "39",
    "prefectureNumber": 39,
    "prefecture": "高知県",
    "city": "高知市",
    "town": "菜園場町"
  },
  "7800824": {
    "zipcode": "7800824",
    "prefectureCode": "39",
    "prefectureNumber": 39,
    "prefecture": "高知県",
    "city": "高知市",
    "town": "城見町"
  },
  "7800825": {
    "zipcode": "7800825",
    "prefectureCode": "39",
    "prefectureNumber": 39,
    "prefecture": "高知県",
    "city": "高知市",
    "town": "農人町"
  },
  "7800833": {
    "zipcode": "7800833",
    "prefectureCode": "39",
    "prefectureNumber": 39,
    "prefecture": "高知県",
    "city": "高知市",
    "town": "南はりまや町"
  },
  "7800834": {
    "zipcode": "7800834",
    "prefectureCode": "39",
    "prefectureNumber": 39,
    "prefecture": "高知県",
    "city": "高知市",
    "town": "堺町"
  },
  "7800841": {
    "zipcode": "7800841",
    "prefectureCode": "39",
    "prefectureNumber": 39,
    "prefecture": "高知県",
    "city": "高知市",
    "town": "帯屋町"
  },
  "7800842": {
    "zipcode": "7800842",
    "prefectureCode": "39",
    "prefectureNumber": 39,
    "prefecture": "高知県",
    "city": "高知市",
    "town": "追手筋"
  },
  "7800843": {
    "zipcode": "7800843",
    "prefectureCode": "39",
    "prefectureNumber": 39,
    "prefecture": "高知県",
    "city": "高知市",
    "town": "廿代町"
  },
  "7800844": {
    "zipcode": "7800844",
    "prefectureCode": "39",
    "prefectureNumber": 39,
    "prefecture": "高知県",
    "city": "高知市",
    "town": "永国寺町"
  },
  "7800850": {
    "zipcode": "7800850",
    "prefectureCode": "39",
    "prefectureNumber": 39,
    "prefecture": "高知県",
    "city": "高知市",
    "town": "丸ノ内"
  },
  "7800861": {
    "zipcode": "7800861",
    "prefectureCode": "39",
    "prefectureNumber": 39,
    "prefecture": "高知県",
    "city": "高知市",
    "town": "升形"
  },
  "7800862": {
    "zipcode": "7800862",
    "prefectureCode": "39",
    "prefectureNumber": 39,
    "prefecture": "高知県",
    "city": "高知市",
    "town": "鷹匠町"
  },
  "7800863": {
    "zipcode": "7800863",
    "prefectureCode": "39",
    "prefectureNumber": 39,
    "prefecture": "高知県",
    "city": "高知市",
    "town": "与力町"
  },
  "7800864": {
    "zipcode": "7800864",
    "prefectureCode": "39",
    "prefectureNumber": 39,
    "prefecture": "高知県",
    "city": "高知市",
    "town": "唐人町"
  },
  "7800870": {
    "zipcode": "7800870",
    "prefectureCode": "39",
    "prefectureNumber": 39,
    "prefecture": "高知県",
    "city": "高知市",
    "town": "本町"
  },
  "7800901": {
    "zipcode": "7800901",
    "prefectureCode": "39",
    "prefectureNumber": 39,
    "prefecture": "高知県",
    "city": "高知市",
    "town": "上町"
  },
  "7800902": {
    "zipcode": "7800902",
    "prefectureCode": "39",
    "prefectureNumber": 39,
    "prefecture": "高知県",
    "city": "高知市",
    "town": "本丁筋"
  },
  "7800903": {
    "zipcode": "7800903",
    "prefectureCode": "39",
    "prefectureNumber": 39,
    "prefecture": "高知県",
    "city": "高知市",
    "town": "水通町"
  },
  "7800904": {
    "zipcode": "7800904",
    "prefectureCode": "39",
    "prefectureNumber": 39,
    "prefecture": "高知県",
    "city": "高知市",
    "town": "通町"
  },
  "7800911": {
    "zipcode": "7800911",
    "prefectureCode": "39",
    "prefectureNumber": 39,
    "prefecture": "高知県",
    "city": "高知市",
    "town": "新屋敷"
  },
  "7800912": {
    "zipcode": "7800912",
    "prefectureCode": "39",
    "prefectureNumber": 39,
    "prefecture": "高知県",
    "city": "高知市",
    "town": "八反町"
  },
  "7800913": {
    "zipcode": "7800913",
    "prefectureCode": "39",
    "prefectureNumber": 39,
    "prefecture": "高知県",
    "city": "高知市",
    "town": "北八反町"
  },
  "7800914": {
    "zipcode": "7800914",
    "prefectureCode": "39",
    "prefectureNumber": 39,
    "prefecture": "高知県",
    "city": "高知市",
    "town": "宝町"
  },
  "7800915": {
    "zipcode": "7800915",
    "prefectureCode": "39",
    "prefectureNumber": 39,
    "prefecture": "高知県",
    "city": "高知市",
    "town": "小津町"
  },
  "7800916": {
    "zipcode": "7800916",
    "prefectureCode": "39",
    "prefectureNumber": 39,
    "prefecture": "高知県",
    "city": "高知市",
    "town": "城北町"
  },
  "7800921": {
    "zipcode": "7800921",
    "prefectureCode": "39",
    "prefectureNumber": 39,
    "prefecture": "高知県",
    "city": "高知市",
    "town": "井口町"
  },
  "7800922": {
    "zipcode": "7800922",
    "prefectureCode": "39",
    "prefectureNumber": 39,
    "prefecture": "高知県",
    "city": "高知市",
    "town": "平和町"
  },
  "7800923": {
    "zipcode": "7800923",
    "prefectureCode": "39",
    "prefectureNumber": 39,
    "prefecture": "高知県",
    "city": "高知市",
    "town": "三ノ丸"
  },
  "7800924": {
    "zipcode": "7800924",
    "prefectureCode": "39",
    "prefectureNumber": 39,
    "prefecture": "高知県",
    "city": "高知市",
    "town": "宮前町"
  },
  "7800925": {
    "zipcode": "7800925",
    "prefectureCode": "39",
    "prefectureNumber": 39,
    "prefecture": "高知県",
    "city": "高知市",
    "town": "西町"
  },
  "7800926": {
    "zipcode": "7800926",
    "prefectureCode": "39",
    "prefectureNumber": 39,
    "prefecture": "高知県",
    "city": "高知市",
    "town": "大膳町"
  },
  "7800927": {
    "zipcode": "7800927",
    "prefectureCode": "39",
    "prefectureNumber": 39,
    "prefecture": "高知県",
    "city": "高知市",
    "town": "山ノ端町"
  },
  "7800928": {
    "zipcode": "7800928",
    "prefectureCode": "39",
    "prefectureNumber": 39,
    "prefecture": "高知県",
    "city": "高知市",
    "town": "越前町"
  },
  "7800929": {
    "zipcode": "7800929",
    "prefectureCode": "39",
    "prefectureNumber": 39,
    "prefecture": "高知県",
    "city": "高知市",
    "town": "桜馬場"
  },
  "7800931": {
    "zipcode": "7800931",
    "prefectureCode": "39",
    "prefectureNumber": 39,
    "prefecture": "高知県",
    "city": "高知市",
    "town": "玉水町"
  },
  "7800932": {
    "zipcode": "7800932",
    "prefectureCode": "39",
    "prefectureNumber": 39,
    "prefecture": "高知県",
    "city": "高知市",
    "town": "縄手町"
  },
  "7800933": {
    "zipcode": "7800933",
    "prefectureCode": "39",
    "prefectureNumber": 39,
    "prefecture": "高知県",
    "city": "高知市",
    "town": "鏡川町"
  },
  "7800934": {
    "zipcode": "7800934",
    "prefectureCode": "39",
    "prefectureNumber": 39,
    "prefecture": "高知県",
    "city": "高知市",
    "town": "下島町"
  },
  "7800935": {
    "zipcode": "7800935",
    "prefectureCode": "39",
    "prefectureNumber": 39,
    "prefecture": "高知県",
    "city": "高知市",
    "town": "旭町"
  },
  "7800936": {
    "zipcode": "7800936",
    "prefectureCode": "39",
    "prefectureNumber": 39,
    "prefecture": "高知県",
    "city": "高知市",
    "town": "赤石町"
  },
  "7800937": {
    "zipcode": "7800937",
    "prefectureCode": "39",
    "prefectureNumber": 39,
    "prefecture": "高知県",
    "city": "高知市",
    "town": "中須賀町"
  },
  "7800938": {
    "zipcode": "7800938",
    "prefectureCode": "39",
    "prefectureNumber": 39,
    "prefecture": "高知県",
    "city": "高知市",
    "town": "旭駅前町"
  },
  "7800941": {
    "zipcode": "7800941",
    "prefectureCode": "39",
    "prefectureNumber": 39,
    "prefecture": "高知県",
    "city": "高知市",
    "town": "元町"
  },
  "7800942": {
    "zipcode": "7800942",
    "prefectureCode": "39",
    "prefectureNumber": 39,
    "prefecture": "高知県",
    "city": "高知市",
    "town": "南元町"
  },
  "7800943": {
    "zipcode": "7800943",
    "prefectureCode": "39",
    "prefectureNumber": 39,
    "prefecture": "高知県",
    "city": "高知市",
    "town": "旭上町"
  },
  "7800944": {
    "zipcode": "7800944",
    "prefectureCode": "39",
    "prefectureNumber": 39,
    "prefecture": "高知県",
    "city": "高知市",
    "town": "水源町"
  },
  "7800945": {
    "zipcode": "7800945",
    "prefectureCode": "39",
    "prefectureNumber": 39,
    "prefecture": "高知県",
    "city": "高知市",
    "town": "本宮町"
  },
  "7800946": {
    "zipcode": "7800946",
    "prefectureCode": "39",
    "prefectureNumber": 39,
    "prefecture": "高知県",
    "city": "高知市",
    "town": "上本宮町"
  },
  "7800947": {
    "zipcode": "7800947",
    "prefectureCode": "39",
    "prefectureNumber": 39,
    "prefecture": "高知県",
    "city": "高知市",
    "town": "大谷"
  },
  "7800948": {
    "zipcode": "7800948",
    "prefectureCode": "39",
    "prefectureNumber": 39,
    "prefecture": "高知県",
    "city": "高知市",
    "town": "岩ケ淵"
  },
  "7800949": {
    "zipcode": "7800949",
    "prefectureCode": "39",
    "prefectureNumber": 39,
    "prefecture": "高知県",
    "city": "高知市",
    "town": "鳥越"
  },
  "7800951": {
    "zipcode": "7800951",
    "prefectureCode": "39",
    "prefectureNumber": 39,
    "prefecture": "高知県",
    "city": "高知市",
    "town": "西塚ノ原"
  },
  "7800952": {
    "zipcode": "7800952",
    "prefectureCode": "39",
    "prefectureNumber": 39,
    "prefecture": "高知県",
    "city": "高知市",
    "town": "塚ノ原"
  },
  "7800953": {
    "zipcode": "7800953",
    "prefectureCode": "39",
    "prefectureNumber": 39,
    "prefecture": "高知県",
    "city": "高知市",
    "town": "長尾山町"
  },
  "7800954": {
    "zipcode": "7800954",
    "prefectureCode": "39",
    "prefectureNumber": 39,
    "prefecture": "高知県",
    "city": "高知市",
    "town": "佐々木町"
  },
  "7800955": {
    "zipcode": "7800955",
    "prefectureCode": "39",
    "prefectureNumber": 39,
    "prefecture": "高知県",
    "city": "高知市",
    "town": "旭天神町"
  },
  "7800956": {
    "zipcode": "7800956",
    "prefectureCode": "39",
    "prefectureNumber": 39,
    "prefecture": "高知県",
    "city": "高知市",
    "town": "北端町"
  },
  "7800957": {
    "zipcode": "7800957",
    "prefectureCode": "39",
    "prefectureNumber": 39,
    "prefecture": "高知県",
    "city": "高知市",
    "town": "山手町"
  },
  "7800961": {
    "zipcode": "7800961",
    "prefectureCode": "39",
    "prefectureNumber": 39,
    "prefecture": "高知県",
    "city": "高知市",
    "town": "蓮台"
  },
  "7800962": {
    "zipcode": "7800962",
    "prefectureCode": "39",
    "prefectureNumber": 39,
    "prefecture": "高知県",
    "city": "高知市",
    "town": "尾立"
  },
  "7800963": {
    "zipcode": "7800963",
    "prefectureCode": "39",
    "prefectureNumber": 39,
    "prefecture": "高知県",
    "city": "高知市",
    "town": "口細山"
  },
  "7800964": {
    "zipcode": "7800964",
    "prefectureCode": "39",
    "prefectureNumber": 39,
    "prefecture": "高知県",
    "city": "高知市",
    "town": "横内"
  },
  "7800965": {
    "zipcode": "7800965",
    "prefectureCode": "39",
    "prefectureNumber": 39,
    "prefecture": "高知県",
    "city": "高知市",
    "town": "福井町"
  },
  "7800966": {
    "zipcode": "7800966",
    "prefectureCode": "39",
    "prefectureNumber": 39,
    "prefecture": "高知県",
    "city": "高知市",
    "town": "福井扇町"
  },
  "7800967": {
    "zipcode": "7800967",
    "prefectureCode": "39",
    "prefectureNumber": 39,
    "prefecture": "高知県",
    "city": "高知市",
    "town": "福井東町"
  },
  "7800971": {
    "zipcode": "7800971",
    "prefectureCode": "39",
    "prefectureNumber": 39,
    "prefecture": "高知県",
    "city": "高知市",
    "town": "南万々"
  },
  "7800972": {
    "zipcode": "7800972",
    "prefectureCode": "39",
    "prefectureNumber": 39,
    "prefecture": "高知県",
    "city": "高知市",
    "town": "中万々"
  },
  "7800973": {
    "zipcode": "7800973",
    "prefectureCode": "39",
    "prefectureNumber": 39,
    "prefecture": "高知県",
    "city": "高知市",
    "town": "万々"
  },
  "7800974": {
    "zipcode": "7800974",
    "prefectureCode": "39",
    "prefectureNumber": 39,
    "prefecture": "高知県",
    "city": "高知市",
    "town": "円行寺"
  },
  "7800975": {
    "zipcode": "7800975",
    "prefectureCode": "39",
    "prefectureNumber": 39,
    "prefecture": "高知県",
    "city": "高知市",
    "town": "柴巻"
  },
  "7800976": {
    "zipcode": "7800976",
    "prefectureCode": "39",
    "prefectureNumber": 39,
    "prefecture": "高知県",
    "city": "高知市",
    "town": "みづき"
  },
  "7800977": {
    "zipcode": "7800977",
    "prefectureCode": "39",
    "prefectureNumber": 39,
    "prefecture": "高知県",
    "city": "高知市",
    "town": "みづき山"
  },
  "7800981": {
    "zipcode": "7800981",
    "prefectureCode": "39",
    "prefectureNumber": 39,
    "prefecture": "高知県",
    "city": "高知市",
    "town": "一ツ橋町"
  },
  "7800982": {
    "zipcode": "7800982",
    "prefectureCode": "39",
    "prefectureNumber": 39,
    "prefecture": "高知県",
    "city": "高知市",
    "town": "東久万"
  },
  "7800983": {
    "zipcode": "7800983",
    "prefectureCode": "39",
    "prefectureNumber": 39,
    "prefecture": "高知県",
    "city": "高知市",
    "town": "中久万"
  },
  "7800984": {
    "zipcode": "7800984",
    "prefectureCode": "39",
    "prefectureNumber": 39,
    "prefecture": "高知県",
    "city": "高知市",
    "town": "西久万"
  },
  "7800985": {
    "zipcode": "7800985",
    "prefectureCode": "39",
    "prefectureNumber": 39,
    "prefecture": "高知県",
    "city": "高知市",
    "town": "南久万"
  },
  "7800991": {
    "zipcode": "7800991",
    "prefectureCode": "39",
    "prefectureNumber": 39,
    "prefecture": "高知県",
    "city": "高知市",
    "town": "宗安寺"
  },
  "7800992": {
    "zipcode": "7800992",
    "prefectureCode": "39",
    "prefectureNumber": 39,
    "prefecture": "高知県",
    "city": "高知市",
    "town": "行川"
  },
  "7800993": {
    "zipcode": "7800993",
    "prefectureCode": "39",
    "prefectureNumber": 39,
    "prefecture": "高知県",
    "city": "高知市",
    "town": "針原"
  },
  "7800994": {
    "zipcode": "7800994",
    "prefectureCode": "39",
    "prefectureNumber": 39,
    "prefecture": "高知県",
    "city": "高知市",
    "town": "唐岩"
  },
  "7800995": {
    "zipcode": "7800995",
    "prefectureCode": "39",
    "prefectureNumber": 39,
    "prefecture": "高知県",
    "city": "高知市",
    "town": "領家"
  },
  "7800996": {
    "zipcode": "7800996",
    "prefectureCode": "39",
    "prefectureNumber": 39,
    "prefecture": "高知県",
    "city": "高知市",
    "town": "上里"
  },
  "7808011": {
    "zipcode": "7808011",
    "prefectureCode": "39",
    "prefectureNumber": 39,
    "prefecture": "高知県",
    "city": "高知市",
    "town": "梅ノ辻"
  },
  "7808012": {
    "zipcode": "7808012",
    "prefectureCode": "39",
    "prefectureNumber": 39,
    "prefecture": "高知県",
    "city": "高知市",
    "town": "天神町"
  },
  "7808013": {
    "zipcode": "7808013",
    "prefectureCode": "39",
    "prefectureNumber": 39,
    "prefecture": "高知県",
    "city": "高知市",
    "town": "筆山町"
  },
  "7808014": {
    "zipcode": "7808014",
    "prefectureCode": "39",
    "prefectureNumber": 39,
    "prefecture": "高知県",
    "city": "高知市",
    "town": "塩屋崎町"
  },
  "7808015": {
    "zipcode": "7808015",
    "prefectureCode": "39",
    "prefectureNumber": 39,
    "prefecture": "高知県",
    "city": "高知市",
    "town": "百石町"
  },
  "7808017": {
    "zipcode": "7808017",
    "prefectureCode": "39",
    "prefectureNumber": 39,
    "prefecture": "高知県",
    "city": "高知市",
    "town": "南竹島町"
  },
  "7808018": {
    "zipcode": "7808018",
    "prefectureCode": "39",
    "prefectureNumber": 39,
    "prefecture": "高知県",
    "city": "高知市",
    "town": "竹島町"
  },
  "7808019": {
    "zipcode": "7808019",
    "prefectureCode": "39",
    "prefectureNumber": 39,
    "prefecture": "高知県",
    "city": "高知市",
    "town": "北竹島町"
  },
  "7808021": {
    "zipcode": "7808021",
    "prefectureCode": "39",
    "prefectureNumber": 39,
    "prefecture": "高知県",
    "city": "高知市",
    "town": "孕東町"
  },
  "7808022": {
    "zipcode": "7808022",
    "prefectureCode": "39",
    "prefectureNumber": 39,
    "prefecture": "高知県",
    "city": "高知市",
    "town": "孕西町"
  },
  "7808023": {
    "zipcode": "7808023",
    "prefectureCode": "39",
    "prefectureNumber": 39,
    "prefecture": "高知県",
    "city": "高知市",
    "town": "六泉寺町"
  },
  "7808024": {
    "zipcode": "7808024",
    "prefectureCode": "39",
    "prefectureNumber": 39,
    "prefecture": "高知県",
    "city": "高知市",
    "town": "深谷町"
  },
  "7808025": {
    "zipcode": "7808025",
    "prefectureCode": "39",
    "prefectureNumber": 39,
    "prefecture": "高知県",
    "city": "高知市",
    "town": "南中山"
  },
  "7808026": {
    "zipcode": "7808026",
    "prefectureCode": "39",
    "prefectureNumber": 39,
    "prefecture": "高知県",
    "city": "高知市",
    "town": "北中山"
  },
  "7808027": {
    "zipcode": "7808027",
    "prefectureCode": "39",
    "prefectureNumber": 39,
    "prefecture": "高知県",
    "city": "高知市",
    "town": "高見町"
  },
  "7808028": {
    "zipcode": "7808028",
    "prefectureCode": "39",
    "prefectureNumber": 39,
    "prefecture": "高知県",
    "city": "高知市",
    "town": "北高見町"
  },
  "7808031": {
    "zipcode": "7808031",
    "prefectureCode": "39",
    "prefectureNumber": 39,
    "prefecture": "高知県",
    "city": "高知市",
    "town": "大原町"
  },
  "7808032": {
    "zipcode": "7808032",
    "prefectureCode": "39",
    "prefectureNumber": 39,
    "prefecture": "高知県",
    "city": "高知市",
    "town": "小石木町"
  },
  "7808033": {
    "zipcode": "7808033",
    "prefectureCode": "39",
    "prefectureNumber": 39,
    "prefecture": "高知県",
    "city": "高知市",
    "town": "幸崎"
  },
  "7808034": {
    "zipcode": "7808034",
    "prefectureCode": "39",
    "prefectureNumber": 39,
    "prefecture": "高知県",
    "city": "高知市",
    "town": "南河ノ瀬町"
  },
  "7808035": {
    "zipcode": "7808035",
    "prefectureCode": "39",
    "prefectureNumber": 39,
    "prefecture": "高知県",
    "city": "高知市",
    "town": "河ノ瀬町"
  },
  "7808036": {
    "zipcode": "7808036",
    "prefectureCode": "39",
    "prefectureNumber": 39,
    "prefecture": "高知県",
    "city": "高知市",
    "town": "東城山町"
  },
  "7808037": {
    "zipcode": "7808037",
    "prefectureCode": "39",
    "prefectureNumber": 39,
    "prefecture": "高知県",
    "city": "高知市",
    "town": "城山町"
  },
  "7808038": {
    "zipcode": "7808038",
    "prefectureCode": "39",
    "prefectureNumber": 39,
    "prefecture": "高知県",
    "city": "高知市",
    "town": "石立町"
  },
  "7808039": {
    "zipcode": "7808039",
    "prefectureCode": "39",
    "prefectureNumber": 39,
    "prefecture": "高知県",
    "city": "高知市",
    "town": "東石立町"
  },
  "7808040": {
    "zipcode": "7808040",
    "prefectureCode": "39",
    "prefectureNumber": 39,
    "prefecture": "高知県",
    "city": "高知市",
    "town": "神田"
  },
  "7808050": {
    "zipcode": "7808050",
    "prefectureCode": "39",
    "prefectureNumber": 39,
    "prefecture": "高知県",
    "city": "高知市",
    "town": "鴨部（その他）"
  },
  "7808051": {
    "zipcode": "7808051",
    "prefectureCode": "39",
    "prefectureNumber": 39,
    "prefecture": "高知県",
    "city": "高知市",
    "town": "鴨部上町"
  },
  "7808052": {
    "zipcode": "7808052",
    "prefectureCode": "39",
    "prefectureNumber": 39,
    "prefecture": "高知県",
    "city": "高知市",
    "town": "鴨部（丁目）"
  },
  "7808061": {
    "zipcode": "7808061",
    "prefectureCode": "39",
    "prefectureNumber": 39,
    "prefecture": "高知県",
    "city": "高知市",
    "town": "朝倉甲"
  },
  "7808062": {
    "zipcode": "7808062",
    "prefectureCode": "39",
    "prefectureNumber": 39,
    "prefecture": "高知県",
    "city": "高知市",
    "town": "朝倉乙"
  },
  "7808063": {
    "zipcode": "7808063",
    "prefectureCode": "39",
    "prefectureNumber": 39,
    "prefecture": "高知県",
    "city": "高知市",
    "town": "朝倉丙"
  },
  "7808064": {
    "zipcode": "7808064",
    "prefectureCode": "39",
    "prefectureNumber": 39,
    "prefecture": "高知県",
    "city": "高知市",
    "town": "朝倉丁"
  },
  "7808065": {
    "zipcode": "7808065",
    "prefectureCode": "39",
    "prefectureNumber": 39,
    "prefecture": "高知県",
    "city": "高知市",
    "town": "朝倉戊"
  },
  "7808066": {
    "zipcode": "7808066",
    "prefectureCode": "39",
    "prefectureNumber": 39,
    "prefecture": "高知県",
    "city": "高知市",
    "town": "朝倉己"
  },
  "7808071": {
    "zipcode": "7808071",
    "prefectureCode": "39",
    "prefectureNumber": 39,
    "prefecture": "高知県",
    "city": "高知市",
    "town": "鴨部高町"
  },
  "7808072": {
    "zipcode": "7808072",
    "prefectureCode": "39",
    "prefectureNumber": 39,
    "prefecture": "高知県",
    "city": "高知市",
    "town": "曙町"
  },
  "7808073": {
    "zipcode": "7808073",
    "prefectureCode": "39",
    "prefectureNumber": 39,
    "prefecture": "高知県",
    "city": "高知市",
    "town": "朝倉本町"
  },
  "7808074": {
    "zipcode": "7808074",
    "prefectureCode": "39",
    "prefectureNumber": 39,
    "prefecture": "高知県",
    "city": "高知市",
    "town": "朝倉横町"
  },
  "7808075": {
    "zipcode": "7808075",
    "prefectureCode": "39",
    "prefectureNumber": 39,
    "prefecture": "高知県",
    "city": "高知市",
    "town": "朝倉南町"
  },
  "7808076": {
    "zipcode": "7808076",
    "prefectureCode": "39",
    "prefectureNumber": 39,
    "prefecture": "高知県",
    "city": "高知市",
    "town": "朝倉東町"
  },
  "7808077": {
    "zipcode": "7808077",
    "prefectureCode": "39",
    "prefectureNumber": 39,
    "prefecture": "高知県",
    "city": "高知市",
    "town": "朝倉西町"
  },
  "7808081": {
    "zipcode": "7808081",
    "prefectureCode": "39",
    "prefectureNumber": 39,
    "prefecture": "高知県",
    "city": "高知市",
    "town": "若草町"
  },
  "7808082": {
    "zipcode": "7808082",
    "prefectureCode": "39",
    "prefectureNumber": 39,
    "prefecture": "高知県",
    "city": "高知市",
    "town": "若草南町"
  },
  "7808083": {
    "zipcode": "7808083",
    "prefectureCode": "39",
    "prefectureNumber": 39,
    "prefecture": "高知県",
    "city": "高知市",
    "town": "鵜来巣"
  },
  "7808084": {
    "zipcode": "7808084",
    "prefectureCode": "39",
    "prefectureNumber": 39,
    "prefecture": "高知県",
    "city": "高知市",
    "town": "槇山町"
  },
  "7808085": {
    "zipcode": "7808085",
    "prefectureCode": "39",
    "prefectureNumber": 39,
    "prefecture": "高知県",
    "city": "高知市",
    "town": "大谷公園町"
  },
  "7808086": {
    "zipcode": "7808086",
    "prefectureCode": "39",
    "prefectureNumber": 39,
    "prefecture": "高知県",
    "city": "高知市",
    "town": "針木東町"
  },
  "7808087": {
    "zipcode": "7808087",
    "prefectureCode": "39",
    "prefectureNumber": 39,
    "prefecture": "高知県",
    "city": "高知市",
    "town": "針木北"
  },
  "7808088": {
    "zipcode": "7808088",
    "prefectureCode": "39",
    "prefectureNumber": 39,
    "prefecture": "高知県",
    "city": "高知市",
    "town": "針木本町"
  },
  "7808089": {
    "zipcode": "7808089",
    "prefectureCode": "39",
    "prefectureNumber": 39,
    "prefecture": "高知県",
    "city": "高知市",
    "town": "針木南"
  },
  "7808090": {
    "zipcode": "7808090",
    "prefectureCode": "39",
    "prefectureNumber": 39,
    "prefecture": "高知県",
    "city": "高知市",
    "town": "針木西"
  }
}
