{
  "7830000": {
    "zipcode": "7830000",
    "prefectureCode": "39",
    "prefectureNumber": 39,
    "prefecture": "高知県",
    "city": "南国市",
    "town": "以下に掲載がない場合"
  },
  "7830001": {
    "zipcode": "7830001",
    "prefectureCode": "39",
    "prefectureNumber": 39,
    "prefecture": "高知県",
    "city": "南国市",
    "town": "日吉町"
  },
  "7830002": {
    "zipcode": "7830002",
    "prefectureCode": "39",
    "prefectureNumber": 39,
    "prefecture": "高知県",
    "city": "南国市",
    "town": "駅前町"
  },
  "7830003": {
    "zipcode": "7830003",
    "prefectureCode": "39",
    "prefectureNumber": 39,
    "prefecture": "高知県",
    "city": "南国市",
    "town": "西野田町"
  },
  "7830004": {
    "zipcode": "7830004",
    "prefectureCode": "39",
    "prefectureNumber": 39,
    "prefecture": "高知県",
    "city": "南国市",
    "town": "大そね甲"
  },
  "7830005": {
    "zipcode": "7830005",
    "prefectureCode": "39",
    "prefectureNumber": 39,
    "prefecture": "高知県",
    "city": "南国市",
    "town": "大そね乙"
  },
  "7830006": {
    "zipcode": "7830006",
    "prefectureCode": "39",
    "prefectureNumber": 39,
    "prefecture": "高知県",
    "city": "南国市",
    "town": "篠原"
  },
  "7830007": {
    "zipcode": "7830007",
    "prefectureCode": "39",
    "prefectureNumber": 39,
    "prefecture": "高知県",
    "city": "南国市",
    "town": "明見"
  },
  "7830008": {
    "zipcode": "7830008",
    "prefectureCode": "39",
    "prefectureNumber": 39,
    "prefecture": "高知県",
    "city": "南国市",
    "town": "伊達野"
  },
  "7830011": {
    "zipcode": "7830011",
    "prefectureCode": "39",
    "prefectureNumber": 39,
    "prefecture": "高知県",
    "city": "南国市",
    "town": "後免町"
  },
  "7830012": {
    "zipcode": "7830012",
    "prefectureCode": "39",
    "prefectureNumber": 39,
    "prefecture": "高知県",
    "city": "南国市",
    "town": "東山町"
  },
  "7830013": {
    "zipcode": "7830013",
    "prefectureCode": "39",
    "prefectureNumber": 39,
    "prefecture": "高知県",
    "city": "南国市",
    "town": "幸町"
  },
  "7830014": {
    "zipcode": "7830014",
    "prefectureCode": "39",
    "prefectureNumber": 39,
    "prefecture": "高知県",
    "city": "南国市",
    "town": "元町"
  },
  "7830021": {
    "zipcode": "7830021",
    "prefectureCode": "39",
    "prefectureNumber": 39,
    "prefecture": "高知県",
    "city": "南国市",
    "town": "野中"
  },
  "7830022": {
    "zipcode": "7830022",
    "prefectureCode": "39",
    "prefectureNumber": 39,
    "prefecture": "高知県",
    "city": "南国市",
    "town": "小籠"
  },
  "7830023": {
    "zipcode": "7830023",
    "prefectureCode": "39",
    "prefectureNumber": 39,
    "prefecture": "高知県",
    "city": "南国市",
    "town": "廿枝"
  },
  "7830024": {
    "zipcode": "7830024",
    "prefectureCode": "39",
    "prefectureNumber": 39,
    "prefecture": "高知県",
    "city": "南国市",
    "town": "東崎"
  },
  "7830025": {
    "zipcode": "7830025",
    "prefectureCode": "39",
    "prefectureNumber": 39,
    "prefecture": "高知県",
    "city": "南国市",
    "town": "下末松"
  },
  "7830026": {
    "zipcode": "7830026",
    "prefectureCode": "39",
    "prefectureNumber": 39,
    "prefecture": "高知県",
    "city": "南国市",
    "town": "上末松"
  },
  "7830027": {
    "zipcode": "7830027",
    "prefectureCode": "39",
    "prefectureNumber": 39,
    "prefecture": "高知県",
    "city": "南国市",
    "town": "三畠"
  },
  "7830028": {
    "zipcode": "7830028",
    "prefectureCode": "39",
    "prefectureNumber": 39,
    "prefecture": "高知県",
    "city": "南国市",
    "town": "陣山"
  },
  "7830029": {
    "zipcode": "7830029",
    "prefectureCode": "39",
    "prefectureNumber": 39,
    "prefecture": "高知県",
    "city": "南国市",
    "town": "西山"
  },
  "7830031": {
    "zipcode": "7830031",
    "prefectureCode": "39",
    "prefectureNumber": 39,
    "prefecture": "高知県",
    "city": "南国市",
    "town": "下野田"
  },
  "7830032": {
    "zipcode": "7830032",
    "prefectureCode": "39",
    "prefectureNumber": 39,
    "prefecture": "高知県",
    "city": "南国市",
    "town": "上野田"
  },
  "7830033": {
    "zipcode": "7830033",
    "prefectureCode": "39",
    "prefectureNumber": 39,
    "prefecture": "高知県",
    "city": "南国市",
    "town": "包末"
  },
  "7830034": {
    "zipcode": "7830034",
    "prefectureCode": "39",
    "prefectureNumber": 39,
    "prefecture": "高知県",
    "city": "南国市",
    "town": "堀ノ内"
  },
  "7830035": {
    "zipcode": "7830035",
    "prefectureCode": "39",
    "prefectureNumber": 39,
    "prefecture": "高知県",
    "city": "南国市",
    "town": "金地"
  },
  "7830036": {
    "zipcode": "7830036",
    "prefectureCode": "39",
    "prefectureNumber": 39,
    "prefecture": "高知県",
    "city": "南国市",
    "town": "福船"
  },
  "7830037": {
    "zipcode": "7830037",
    "prefectureCode": "39",
    "prefectureNumber": 39,
    "prefecture": "高知県",
    "city": "南国市",
    "town": "蔵福寺島"
  },
  "7830040": {
    "zipcode": "7830040",
    "prefectureCode": "39",
    "prefectureNumber": 39,
    "prefecture": "高知県",
    "city": "南国市",
    "town": "岡豊町滝本"
  },
  "7830041": {
    "zipcode": "7830041",
    "prefectureCode": "39",
    "prefectureNumber": 39,
    "prefecture": "高知県",
    "city": "南国市",
    "town": "岡豊町定林寺"
  },
  "7830042": {
    "zipcode": "7830042",
    "prefectureCode": "39",
    "prefectureNumber": 39,
    "prefecture": "高知県",
    "city": "南国市",
    "town": "岡豊町蒲原"
  },
  "7830043": {
    "zipcode": "7830043",
    "prefectureCode": "39",
    "prefectureNumber": 39,
    "prefecture": "高知県",
    "city": "南国市",
    "town": "岡豊町小蓮"
  },
  "7830044": {
    "zipcode": "7830044",
    "prefectureCode": "39",
    "prefectureNumber": 39,
    "prefecture": "高知県",
    "city": "南国市",
    "town": "岡豊町八幡"
  },
  "7830045": {
    "zipcode": "7830045",
    "prefectureCode": "39",
    "prefectureNumber": 39,
    "prefecture": "高知県",
    "city": "南国市",
    "town": "岡豊町吉田"
  },
  "7830046": {
    "zipcode": "7830046",
    "prefectureCode": "39",
    "prefectureNumber": 39,
    "prefecture": "高知県",
    "city": "南国市",
    "town": "岡豊町江村"
  },
  "7830047": {
    "zipcode": "7830047",
    "prefectureCode": "39",
    "prefectureNumber": 39,
    "prefecture": "高知県",
    "city": "南国市",
    "town": "岡豊町常通寺島"
  },
  "7830048": {
    "zipcode": "7830048",
    "prefectureCode": "39",
    "prefectureNumber": 39,
    "prefecture": "高知県",
    "city": "南国市",
    "town": "岡豊町小篭"
  },
  "7830049": {
    "zipcode": "7830049",
    "prefectureCode": "39",
    "prefectureNumber": 39,
    "prefecture": "高知県",
    "city": "南国市",
    "town": "岡豊町中島"
  },
  "7830051": {
    "zipcode": "7830051",
    "prefectureCode": "39",
    "prefectureNumber": 39,
    "prefecture": "高知県",
    "city": "南国市",
    "town": "岡豊町笠ノ川"
  },
  "7830052": {
    "zipcode": "7830052",
    "prefectureCode": "39",
    "prefectureNumber": 39,
    "prefecture": "高知県",
    "city": "南国市",
    "town": "左右山"
  },
  "7830053": {
    "zipcode": "7830053",
    "prefectureCode": "39",
    "prefectureNumber": 39,
    "prefecture": "高知県",
    "city": "南国市",
    "town": "国分"
  },
  "7830054": {
    "zipcode": "7830054",
    "prefectureCode": "39",
    "prefectureNumber": 39,
    "prefecture": "高知県",
    "city": "南国市",
    "town": "比江"
  },
  "7830055": {
    "zipcode": "7830055",
    "prefectureCode": "39",
    "prefectureNumber": 39,
    "prefecture": "高知県",
    "city": "南国市",
    "town": "双葉台"
  },
  "7830056": {
    "zipcode": "7830056",
    "prefectureCode": "39",
    "prefectureNumber": 39,
    "prefecture": "高知県",
    "city": "南国市",
    "town": "領石"
  },
  "7830057": {
    "zipcode": "7830057",
    "prefectureCode": "39",
    "prefectureNumber": 39,
    "prefecture": "高知県",
    "city": "南国市",
    "town": "八京"
  },
  "7830058": {
    "zipcode": "7830058",
    "prefectureCode": "39",
    "prefectureNumber": 39,
    "prefecture": "高知県",
    "city": "南国市",
    "town": "白木谷"
  },
  "7830060": {
    "zipcode": "7830060",
    "prefectureCode": "39",
    "prefectureNumber": 39,
    "prefecture": "高知県",
    "city": "南国市",
    "town": "蛍が丘"
  },
  "7830061": {
    "zipcode": "7830061",
    "prefectureCode": "39",
    "prefectureNumber": 39,
    "prefecture": "高知県",
    "city": "南国市",
    "town": "植野"
  },
  "7830062": {
    "zipcode": "7830062",
    "prefectureCode": "39",
    "prefectureNumber": 39,
    "prefecture": "高知県",
    "city": "南国市",
    "town": "久礼田"
  },
  "7830063": {
    "zipcode": "7830063",
    "prefectureCode": "39",
    "prefectureNumber": 39,
    "prefecture": "高知県",
    "city": "南国市",
    "town": "植田"
  },
  "7830064": {
    "zipcode": "7830064",
    "prefectureCode": "39",
    "prefectureNumber": 39,
    "prefecture": "高知県",
    "city": "南国市",
    "town": "宍崎"
  },
  "7830065": {
    "zipcode": "7830065",
    "prefectureCode": "39",
    "prefectureNumber": 39,
    "prefecture": "高知県",
    "city": "南国市",
    "town": "外山"
  },
  "7830066": {
    "zipcode": "7830066",
    "prefectureCode": "39",
    "prefectureNumber": 39,
    "prefecture": "高知県",
    "city": "南国市",
    "town": "成合"
  },
  "7830067": {
    "zipcode": "7830067",
    "prefectureCode": "39",
    "prefectureNumber": 39,
    "prefecture": "高知県",
    "city": "南国市",
    "town": "天行寺"
  },
  "7830068": {
    "zipcode": "7830068",
    "prefectureCode": "39",
    "prefectureNumber": 39,
    "prefecture": "高知県",
    "city": "南国市",
    "town": "才谷"
  },
  "7830071": {
    "zipcode": "7830071",
    "prefectureCode": "39",
    "prefectureNumber": 39,
    "prefecture": "高知県",
    "city": "南国市",
    "town": "亀岩"
  },
  "7830072": {
    "zipcode": "7830072",
    "prefectureCode": "39",
    "prefectureNumber": 39,
    "prefecture": "高知県",
    "city": "南国市",
    "town": "奈路"
  },
  "7830073": {
    "zipcode": "7830073",
    "prefectureCode": "39",
    "prefectureNumber": 39,
    "prefecture": "高知県",
    "city": "南国市",
    "town": "中谷"
  },
  "7830074": {
    "zipcode": "7830074",
    "prefectureCode": "39",
    "prefectureNumber": 39,
    "prefecture": "高知県",
    "city": "南国市",
    "town": "上倉"
  },
  "7830075": {
    "zipcode": "7830075",
    "prefectureCode": "39",
    "prefectureNumber": 39,
    "prefecture": "高知県",
    "city": "南国市",
    "town": "桑ノ川"
  },
  "7830076": {
    "zipcode": "7830076",
    "prefectureCode": "39",
    "prefectureNumber": 39,
    "prefecture": "高知県",
    "city": "南国市",
    "town": "黒滝"
  },
  "7830077": {
    "zipcode": "7830077",
    "prefectureCode": "39",
    "prefectureNumber": 39,
    "prefecture": "高知県",
    "city": "南国市",
    "town": "大改野"
  },
  "7830078": {
    "zipcode": "7830078",
    "prefectureCode": "39",
    "prefectureNumber": 39,
    "prefecture": "高知県",
    "city": "南国市",
    "town": "中ノ川"
  },
  "7830081": {
    "zipcode": "7830081",
    "prefectureCode": "39",
    "prefectureNumber": 39,
    "prefecture": "高知県",
    "city": "南国市",
    "town": "片山"
  },
  "7830082": {
    "zipcode": "7830082",
    "prefectureCode": "39",
    "prefectureNumber": 39,
    "prefecture": "高知県",
    "city": "南国市",
    "town": "里改田"
  },
  "7830083": {
    "zipcode": "7830083",
    "prefectureCode": "39",
    "prefectureNumber": 39,
    "prefecture": "高知県",
    "city": "南国市",
    "town": "浜改田"
  },
  "7830084": {
    "zipcode": "7830084",
    "prefectureCode": "39",
    "prefectureNumber": 39,
    "prefecture": "高知県",
    "city": "南国市",
    "town": "稲生"
  },
  "7830085": {
    "zipcode": "7830085",
    "prefectureCode": "39",
    "prefectureNumber": 39,
    "prefecture": "高知県",
    "city": "南国市",
    "town": "十市"
  },
  "7830086": {
    "zipcode": "7830086",
    "prefectureCode": "39",
    "prefectureNumber": 39,
    "prefecture": "高知県",
    "city": "南国市",
    "town": "緑ケ丘"
  },
  "7830087": {
    "zipcode": "7830087",
    "prefectureCode": "39",
    "prefectureNumber": 39,
    "prefecture": "高知県",
    "city": "南国市",
    "town": "三和琴平"
  },
  "7830091": {
    "zipcode": "7830091",
    "prefectureCode": "39",
    "prefectureNumber": 39,
    "prefecture": "高知県",
    "city": "南国市",
    "town": "立田"
  },
  "7830092": {
    "zipcode": "7830092",
    "prefectureCode": "39",
    "prefectureNumber": 39,
    "prefecture": "高知県",
    "city": "南国市",
    "town": "田村"
  },
  "7830093": {
    "zipcode": "7830093",
    "prefectureCode": "39",
    "prefectureNumber": 39,
    "prefecture": "高知県",
    "city": "南国市",
    "town": "物部"
  },
  "7830094": {
    "zipcode": "7830094",
    "prefectureCode": "39",
    "prefectureNumber": 39,
    "prefecture": "高知県",
    "city": "南国市",
    "town": "前浜"
  },
  "7830095": {
    "zipcode": "7830095",
    "prefectureCode": "39",
    "prefectureNumber": 39,
    "prefecture": "高知県",
    "city": "南国市",
    "town": "下島"
  },
  "7830096": {
    "zipcode": "7830096",
    "prefectureCode": "39",
    "prefectureNumber": 39,
    "prefecture": "高知県",
    "city": "南国市",
    "town": "久枝"
  },
  "7830097": {
    "zipcode": "7830097",
    "prefectureCode": "39",
    "prefectureNumber": 39,
    "prefecture": "高知県",
    "city": "南国市",
    "town": "日章あけぼの"
  }
}
