{
  "7840000": {
    "zipcode": "7840000",
    "prefectureCode": "39",
    "prefectureNumber": 39,
    "prefecture": "高知県",
    "city": "安芸市",
    "town": "以下に掲載がない場合"
  },
  "7840001": {
    "zipcode": "7840001",
    "prefectureCode": "39",
    "prefectureNumber": 39,
    "prefecture": "高知県",
    "city": "安芸市",
    "town": "矢ノ丸"
  },
  "7840002": {
    "zipcode": "7840002",
    "prefectureCode": "39",
    "prefectureNumber": 39,
    "prefecture": "高知県",
    "city": "安芸市",
    "town": "花園町"
  },
  "7840003": {
    "zipcode": "7840003",
    "prefectureCode": "39",
    "prefectureNumber": 39,
    "prefecture": "高知県",
    "city": "安芸市",
    "town": "久世町"
  },
  "7840004": {
    "zipcode": "7840004",
    "prefectureCode": "39",
    "prefectureNumber": 39,
    "prefecture": "高知県",
    "city": "安芸市",
    "town": "本町"
  },
  "7840005": {
    "zipcode": "7840005",
    "prefectureCode": "39",
    "prefectureNumber": 39,
    "prefecture": "高知県",
    "city": "安芸市",
    "town": "港町"
  },
  "7840006": {
    "zipcode": "7840006",
    "prefectureCode": "39",
    "prefectureNumber": 39,
    "prefecture": "高知県",
    "city": "安芸市",
    "town": "日ノ出町"
  },
  "7840007": {
    "zipcode": "7840007",
    "prefectureCode": "39",
    "prefectureNumber": 39,
    "prefecture": "高知県",
    "city": "安芸市",
    "town": "寿町"
  },
  "7840008": {
    "zipcode": "7840008",
    "prefectureCode": "39",
    "prefectureNumber": 39,
    "prefecture": "高知県",
    "city": "安芸市",
    "town": "清和町"
  },
  "7840010": {
    "zipcode": "7840010",
    "prefectureCode": "39",
    "prefectureNumber": 39,
    "prefecture": "高知県",
    "city": "安芸市",
    "town": "東浜"
  },
  "7840020": {
    "zipcode": "7840020",
    "prefectureCode": "39",
    "prefectureNumber": 39,
    "prefecture": "高知県",
    "city": "安芸市",
    "town": "西浜"
  },
  "7840021": {
    "zipcode": "7840021",
    "prefectureCode": "39",
    "prefectureNumber": 39,
    "prefecture": "高知県",
    "city": "安芸市",
    "town": "幸町"
  },
  "7840022": {
    "zipcode": "7840022",
    "prefectureCode": "39",
    "prefectureNumber": 39,
    "prefecture": "高知県",
    "city": "安芸市",
    "town": "庄之芝町"
  },
  "7840023": {
    "zipcode": "7840023",
    "prefectureCode": "39",
    "prefectureNumber": 39,
    "prefecture": "高知県",
    "city": "安芸市",
    "town": "染井町"
  },
  "7840024": {
    "zipcode": "7840024",
    "prefectureCode": "39",
    "prefectureNumber": 39,
    "prefecture": "高知県",
    "city": "安芸市",
    "town": "千歳町"
  },
  "7840025": {
    "zipcode": "7840025",
    "prefectureCode": "39",
    "prefectureNumber": 39,
    "prefecture": "高知県",
    "city": "安芸市",
    "town": "津久茂町"
  },
  "7840026": {
    "zipcode": "7840026",
    "prefectureCode": "39",
    "prefectureNumber": 39,
    "prefecture": "高知県",
    "city": "安芸市",
    "town": "桜ケ丘町"
  },
  "7840027": {
    "zipcode": "7840027",
    "prefectureCode": "39",
    "prefectureNumber": 39,
    "prefecture": "高知県",
    "city": "安芸市",
    "town": "宝永町"
  },
  "7840028": {
    "zipcode": "7840028",
    "prefectureCode": "39",
    "prefectureNumber": 39,
    "prefecture": "高知県",
    "city": "安芸市",
    "town": "黒鳥"
  },
  "7840029": {
    "zipcode": "7840029",
    "prefectureCode": "39",
    "prefectureNumber": 39,
    "prefecture": "高知県",
    "city": "安芸市",
    "town": "植野"
  },
  "7840031": {
    "zipcode": "7840031",
    "prefectureCode": "39",
    "prefectureNumber": 39,
    "prefecture": "高知県",
    "city": "安芸市",
    "town": "穴内甲"
  },
  "7840032": {
    "zipcode": "7840032",
    "prefectureCode": "39",
    "prefectureNumber": 39,
    "prefecture": "高知県",
    "city": "安芸市",
    "town": "穴内乙"
  },
  "7840033": {
    "zipcode": "7840033",
    "prefectureCode": "39",
    "prefectureNumber": 39,
    "prefecture": "高知県",
    "city": "安芸市",
    "town": "赤野甲"
  },
  "7840034": {
    "zipcode": "7840034",
    "prefectureCode": "39",
    "prefectureNumber": 39,
    "prefecture": "高知県",
    "city": "安芸市",
    "town": "赤野乙"
  },
  "7840041": {
    "zipcode": "7840041",
    "prefectureCode": "39",
    "prefectureNumber": 39,
    "prefecture": "高知県",
    "city": "安芸市",
    "town": "僧津"
  },
  "7840042": {
    "zipcode": "7840042",
    "prefectureCode": "39",
    "prefectureNumber": 39,
    "prefecture": "高知県",
    "city": "安芸市",
    "town": "土居"
  },
  "7840043": {
    "zipcode": "7840043",
    "prefectureCode": "39",
    "prefectureNumber": 39,
    "prefecture": "高知県",
    "city": "安芸市",
    "town": "川北甲"
  },
  "7840044": {
    "zipcode": "7840044",
    "prefectureCode": "39",
    "prefectureNumber": 39,
    "prefecture": "高知県",
    "city": "安芸市",
    "town": "川北乙"
  },
  "7840045": {
    "zipcode": "7840045",
    "prefectureCode": "39",
    "prefectureNumber": 39,
    "prefecture": "高知県",
    "city": "安芸市",
    "town": "伊尾木"
  },
  "7840046": {
    "zipcode": "7840046",
    "prefectureCode": "39",
    "prefectureNumber": 39,
    "prefecture": "高知県",
    "city": "安芸市",
    "town": "下山"
  },
  "7840051": {
    "zipcode": "7840051",
    "prefectureCode": "39",
    "prefectureNumber": 39,
    "prefecture": "高知県",
    "city": "安芸市",
    "town": "井ノ口甲"
  },
  "7840052": {
    "zipcode": "7840052",
    "prefectureCode": "39",
    "prefectureNumber": 39,
    "prefecture": "高知県",
    "city": "安芸市",
    "town": "井ノ口乙"
  },
  "7840053": {
    "zipcode": "7840053",
    "prefectureCode": "39",
    "prefectureNumber": 39,
    "prefecture": "高知県",
    "city": "安芸市",
    "town": "小谷"
  },
  "7840054": {
    "zipcode": "7840054",
    "prefectureCode": "39",
    "prefectureNumber": 39,
    "prefecture": "高知県",
    "city": "安芸市",
    "town": "栃ノ木"
  },
  "7840055": {
    "zipcode": "7840055",
    "prefectureCode": "39",
    "prefectureNumber": 39,
    "prefecture": "高知県",
    "city": "安芸市",
    "town": "尾川甲"
  },
  "7840056": {
    "zipcode": "7840056",
    "prefectureCode": "39",
    "prefectureNumber": 39,
    "prefecture": "高知県",
    "city": "安芸市",
    "town": "尾川乙"
  },
  "7840057": {
    "zipcode": "7840057",
    "prefectureCode": "39",
    "prefectureNumber": 39,
    "prefecture": "高知県",
    "city": "安芸市",
    "town": "安芸ノ川甲"
  },
  "7840058": {
    "zipcode": "7840058",
    "prefectureCode": "39",
    "prefectureNumber": 39,
    "prefecture": "高知県",
    "city": "安芸市",
    "town": "安芸ノ川乙"
  },
  "7840061": {
    "zipcode": "7840061",
    "prefectureCode": "39",
    "prefectureNumber": 39,
    "prefecture": "高知県",
    "city": "安芸市",
    "town": "畑山甲"
  },
  "7840062": {
    "zipcode": "7840062",
    "prefectureCode": "39",
    "prefectureNumber": 39,
    "prefecture": "高知県",
    "city": "安芸市",
    "town": "畑山乙"
  },
  "7840063": {
    "zipcode": "7840063",
    "prefectureCode": "39",
    "prefectureNumber": 39,
    "prefecture": "高知県",
    "city": "安芸市",
    "town": "畑山丙"
  },
  "7840064": {
    "zipcode": "7840064",
    "prefectureCode": "39",
    "prefectureNumber": 39,
    "prefecture": "高知県",
    "city": "安芸市",
    "town": "舞川"
  },
  "7840065": {
    "zipcode": "7840065",
    "prefectureCode": "39",
    "prefectureNumber": 39,
    "prefecture": "高知県",
    "city": "香美市",
    "town": "物部町中津尾"
  },
  "7840271": {
    "zipcode": "7840271",
    "prefectureCode": "39",
    "prefectureNumber": 39,
    "prefecture": "高知県",
    "city": "安芸市",
    "town": "奈比賀"
  },
  "7840272": {
    "zipcode": "7840272",
    "prefectureCode": "39",
    "prefectureNumber": 39,
    "prefecture": "高知県",
    "city": "安芸市",
    "town": "入河内"
  },
  "7840273": {
    "zipcode": "7840273",
    "prefectureCode": "39",
    "prefectureNumber": 39,
    "prefecture": "高知県",
    "city": "安芸市",
    "town": "黒瀬"
  },
  "7840274": {
    "zipcode": "7840274",
    "prefectureCode": "39",
    "prefectureNumber": 39,
    "prefecture": "高知県",
    "city": "安芸市",
    "town": "大井甲"
  },
  "7840275": {
    "zipcode": "7840275",
    "prefectureCode": "39",
    "prefectureNumber": 39,
    "prefecture": "高知県",
    "city": "安芸市",
    "town": "大井乙"
  },
  "7840276": {
    "zipcode": "7840276",
    "prefectureCode": "39",
    "prefectureNumber": 39,
    "prefecture": "高知県",
    "city": "安芸市",
    "town": "古井"
  },
  "7840277": {
    "zipcode": "7840277",
    "prefectureCode": "39",
    "prefectureNumber": 39,
    "prefecture": "高知県",
    "city": "安芸市",
    "town": "島"
  },
  "7840278": {
    "zipcode": "7840278",
    "prefectureCode": "39",
    "prefectureNumber": 39,
    "prefecture": "高知県",
    "city": "安芸市",
    "town": "別役"
  }
}
