{
  "7850000": {
    "zipcode": "7850000",
    "prefectureCode": "39",
    "prefectureNumber": 39,
    "prefecture": "高知県",
    "city": "須崎市",
    "town": "以下に掲載がない場合"
  },
  "7850001": {
    "zipcode": "7850001",
    "prefectureCode": "39",
    "prefectureNumber": 39,
    "prefecture": "高知県",
    "city": "須崎市",
    "town": "原町"
  },
  "7850002": {
    "zipcode": "7850002",
    "prefectureCode": "39",
    "prefectureNumber": 39,
    "prefecture": "高知県",
    "city": "須崎市",
    "town": "港町"
  },
  "7850003": {
    "zipcode": "7850003",
    "prefectureCode": "39",
    "prefectureNumber": 39,
    "prefecture": "高知県",
    "city": "須崎市",
    "town": "新町"
  },
  "7850004": {
    "zipcode": "7850004",
    "prefectureCode": "39",
    "prefectureNumber": 39,
    "prefecture": "高知県",
    "city": "須崎市",
    "town": "青木町"
  },
  "7850005": {
    "zipcode": "7850005",
    "prefectureCode": "39",
    "prefectureNumber": 39,
    "prefecture": "高知県",
    "city": "須崎市",
    "town": "東古市町"
  },
  "7850006": {
    "zipcode": "7850006",
    "prefectureCode": "39",
    "prefectureNumber": 39,
    "prefecture": "高知県",
    "city": "須崎市",
    "town": "浜町"
  },
  "7850007": {
    "zipcode": "7850007",
    "prefectureCode": "39",
    "prefectureNumber": 39,
    "prefecture": "高知県",
    "city": "須崎市",
    "town": "南古市町"
  },
  "7850008": {
    "zipcode": "7850008",
    "prefectureCode": "39",
    "prefectureNumber": 39,
    "prefecture": "高知県",
    "city": "須崎市",
    "town": "中町"
  },
  "7850009": {
    "zipcode": "7850009",
    "prefectureCode": "39",
    "prefectureNumber": 39,
    "prefecture": "高知県",
    "city": "須崎市",
    "town": "西町"
  },
  "7850010": {
    "zipcode": "7850010",
    "prefectureCode": "39",
    "prefectureNumber": 39,
    "prefecture": "高知県",
    "city": "須崎市",
    "town": "鍛冶町"
  },
  "7850011": {
    "zipcode": "7850011",
    "prefectureCode": "39",
    "prefectureNumber": 39,
    "prefecture": "高知県",
    "city": "須崎市",
    "town": "東糺町"
  },
  "7850012": {
    "zipcode": "7850012",
    "prefectureCode": "39",
    "prefectureNumber": 39,
    "prefecture": "高知県",
    "city": "須崎市",
    "town": "西糺町"
  },
  "7850013": {
    "zipcode": "7850013",
    "prefectureCode": "39",
    "prefectureNumber": 39,
    "prefecture": "高知県",
    "city": "須崎市",
    "town": "西古市町"
  },
  "7850014": {
    "zipcode": "7850014",
    "prefectureCode": "39",
    "prefectureNumber": 39,
    "prefecture": "高知県",
    "city": "須崎市",
    "town": "横町"
  },
  "7850015": {
    "zipcode": "7850015",
    "prefectureCode": "39",
    "prefectureNumber": 39,
    "prefecture": "高知県",
    "city": "須崎市",
    "town": "幸町"
  },
  "7850016": {
    "zipcode": "7850016",
    "prefectureCode": "39",
    "prefectureNumber": 39,
    "prefecture": "高知県",
    "city": "須崎市",
    "town": "栄町"
  },
  "7850017": {
    "zipcode": "7850017",
    "prefectureCode": "39",
    "prefectureNumber": 39,
    "prefecture": "高知県",
    "city": "須崎市",
    "town": "泉町"
  },
  "7850018": {
    "zipcode": "7850018",
    "prefectureCode": "39",
    "prefectureNumber": 39,
    "prefecture": "高知県",
    "city": "須崎市",
    "town": "須崎"
  },
  "7850021": {
    "zipcode": "7850021",
    "prefectureCode": "39",
    "prefectureNumber": 39,
    "prefecture": "高知県",
    "city": "須崎市",
    "town": "池ノ内"
  },
  "7850022": {
    "zipcode": "7850022",
    "prefectureCode": "39",
    "prefectureNumber": 39,
    "prefecture": "高知県",
    "city": "須崎市",
    "town": "下分甲"
  },
  "7850023": {
    "zipcode": "7850023",
    "prefectureCode": "39",
    "prefectureNumber": 39,
    "prefecture": "高知県",
    "city": "須崎市",
    "town": "下分乙"
  },
  "7850024": {
    "zipcode": "7850024",
    "prefectureCode": "39",
    "prefectureNumber": 39,
    "prefecture": "高知県",
    "city": "須崎市",
    "town": "安和"
  },
  "7850025": {
    "zipcode": "7850025",
    "prefectureCode": "39",
    "prefectureNumber": 39,
    "prefecture": "高知県",
    "city": "須崎市",
    "town": "下郷"
  },
  "7850026": {
    "zipcode": "7850026",
    "prefectureCode": "39",
    "prefectureNumber": 39,
    "prefecture": "高知県",
    "city": "須崎市",
    "town": "上分甲"
  },
  "7850027": {
    "zipcode": "7850027",
    "prefectureCode": "39",
    "prefectureNumber": 39,
    "prefecture": "高知県",
    "city": "須崎市",
    "town": "上分乙"
  },
  "7850028": {
    "zipcode": "7850028",
    "prefectureCode": "39",
    "prefectureNumber": 39,
    "prefecture": "高知県",
    "city": "須崎市",
    "town": "上分丙"
  },
  "7850030": {
    "zipcode": "7850030",
    "prefectureCode": "39",
    "prefectureNumber": 39,
    "prefecture": "高知県",
    "city": "須崎市",
    "town": "多ノ郷甲"
  },
  "7850031": {
    "zipcode": "7850031",
    "prefectureCode": "39",
    "prefectureNumber": 39,
    "prefecture": "高知県",
    "city": "須崎市",
    "town": "山手町"
  },
  "7850032": {
    "zipcode": "7850032",
    "prefectureCode": "39",
    "prefectureNumber": 39,
    "prefecture": "高知県",
    "city": "須崎市",
    "town": "潮田町"
  },
  "7850033": {
    "zipcode": "7850033",
    "prefectureCode": "39",
    "prefectureNumber": 39,
    "prefecture": "高知県",
    "city": "須崎市",
    "town": "大間西町"
  },
  "7850034": {
    "zipcode": "7850034",
    "prefectureCode": "39",
    "prefectureNumber": 39,
    "prefecture": "高知県",
    "city": "須崎市",
    "town": "大間本町"
  },
  "7850035": {
    "zipcode": "7850035",
    "prefectureCode": "39",
    "prefectureNumber": 39,
    "prefecture": "高知県",
    "city": "須崎市",
    "town": "大間東町"
  },
  "7850036": {
    "zipcode": "7850036",
    "prefectureCode": "39",
    "prefectureNumber": 39,
    "prefecture": "高知県",
    "city": "須崎市",
    "town": "緑町"
  },
  "7850037": {
    "zipcode": "7850037",
    "prefectureCode": "39",
    "prefectureNumber": 39,
    "prefecture": "高知県",
    "city": "須崎市",
    "town": "赤崎町"
  },
  "7850041": {
    "zipcode": "7850041",
    "prefectureCode": "39",
    "prefectureNumber": 39,
    "prefecture": "高知県",
    "city": "須崎市",
    "town": "西崎町"
  },
  "7850042": {
    "zipcode": "7850042",
    "prefectureCode": "39",
    "prefectureNumber": 39,
    "prefecture": "高知県",
    "city": "須崎市",
    "town": "妙見町"
  },
  "7850043": {
    "zipcode": "7850043",
    "prefectureCode": "39",
    "prefectureNumber": 39,
    "prefecture": "高知県",
    "city": "須崎市",
    "town": "土崎町"
  },
  "7850044": {
    "zipcode": "7850044",
    "prefectureCode": "39",
    "prefectureNumber": 39,
    "prefecture": "高知県",
    "city": "須崎市",
    "town": "吾井郷乙"
  },
  "7850045": {
    "zipcode": "7850045",
    "prefectureCode": "39",
    "prefectureNumber": 39,
    "prefecture": "高知県",
    "city": "須崎市",
    "town": "桑田山乙"
  },
  "7850046": {
    "zipcode": "7850046",
    "prefectureCode": "39",
    "prefectureNumber": 39,
    "prefecture": "高知県",
    "city": "須崎市",
    "town": "桑田山甲"
  },
  "7850047": {
    "zipcode": "7850047",
    "prefectureCode": "39",
    "prefectureNumber": 39,
    "prefecture": "高知県",
    "city": "須崎市",
    "town": "吾井郷甲"
  },
  "7850051": {
    "zipcode": "7850051",
    "prefectureCode": "39",
    "prefectureNumber": 39,
    "prefecture": "高知県",
    "city": "須崎市",
    "town": "神田"
  },
  "7850052": {
    "zipcode": "7850052",
    "prefectureCode": "39",
    "prefectureNumber": 39,
    "prefecture": "高知県",
    "city": "須崎市",
    "town": "押岡"
  },
  "7850053": {
    "zipcode": "7850053",
    "prefectureCode": "39",
    "prefectureNumber": 39,
    "prefecture": "高知県",
    "city": "須崎市",
    "town": "久通"
  },
  "7850054": {
    "zipcode": "7850054",
    "prefectureCode": "39",
    "prefectureNumber": 39,
    "prefecture": "高知県",
    "city": "須崎市",
    "town": "多ノ郷乙"
  },
  "7850055": {
    "zipcode": "7850055",
    "prefectureCode": "39",
    "prefectureNumber": 39,
    "prefecture": "高知県",
    "city": "須崎市",
    "town": "大谷"
  },
  "7850056": {
    "zipcode": "7850056",
    "prefectureCode": "39",
    "prefectureNumber": 39,
    "prefecture": "高知県",
    "city": "須崎市",
    "town": "野見"
  },
  "7850057": {
    "zipcode": "7850057",
    "prefectureCode": "39",
    "prefectureNumber": 39,
    "prefecture": "高知県",
    "city": "須崎市",
    "town": "桐間東"
  },
  "7850058": {
    "zipcode": "7850058",
    "prefectureCode": "39",
    "prefectureNumber": 39,
    "prefecture": "高知県",
    "city": "須崎市",
    "town": "桐間南"
  },
  "7850059": {
    "zipcode": "7850059",
    "prefectureCode": "39",
    "prefectureNumber": 39,
    "prefecture": "高知県",
    "city": "須崎市",
    "town": "桐間西"
  },
  "7850161": {
    "zipcode": "7850161",
    "prefectureCode": "39",
    "prefectureNumber": 39,
    "prefecture": "高知県",
    "city": "須崎市",
    "town": "浦ノ内西分"
  },
  "7850162": {
    "zipcode": "7850162",
    "prefectureCode": "39",
    "prefectureNumber": 39,
    "prefecture": "高知県",
    "city": "須崎市",
    "town": "浦ノ内東分（その他）"
  },
  "7850163": {
    "zipcode": "7850163",
    "prefectureCode": "39",
    "prefectureNumber": 39,
    "prefecture": "高知県",
    "city": "須崎市",
    "town": "浦ノ内東分（鳴無・坂内）"
  },
  "7850164": {
    "zipcode": "7850164",
    "prefectureCode": "39",
    "prefectureNumber": 39,
    "prefecture": "高知県",
    "city": "須崎市",
    "town": "浦ノ内立目摺木"
  },
  "7850165": {
    "zipcode": "7850165",
    "prefectureCode": "39",
    "prefectureNumber": 39,
    "prefecture": "高知県",
    "city": "須崎市",
    "town": "浦ノ内出見"
  },
  "7850166": {
    "zipcode": "7850166",
    "prefectureCode": "39",
    "prefectureNumber": 39,
    "prefecture": "高知県",
    "city": "須崎市",
    "town": "浦ノ内塩間"
  },
  "7850167": {
    "zipcode": "7850167",
    "prefectureCode": "39",
    "prefectureNumber": 39,
    "prefecture": "高知県",
    "city": "須崎市",
    "town": "浦ノ内灰方"
  },
  "7850171": {
    "zipcode": "7850171",
    "prefectureCode": "39",
    "prefectureNumber": 39,
    "prefecture": "高知県",
    "city": "須崎市",
    "town": "浦ノ内須ノ浦"
  },
  "7850172": {
    "zipcode": "7850172",
    "prefectureCode": "39",
    "prefectureNumber": 39,
    "prefecture": "高知県",
    "city": "須崎市",
    "town": "浦ノ内福良"
  },
  "7850173": {
    "zipcode": "7850173",
    "prefectureCode": "39",
    "prefectureNumber": 39,
    "prefecture": "高知県",
    "city": "須崎市",
    "town": "浦ノ内今川内"
  },
  "7850174": {
    "zipcode": "7850174",
    "prefectureCode": "39",
    "prefectureNumber": 39,
    "prefecture": "高知県",
    "city": "須崎市",
    "town": "浦ノ内下中山"
  },
  "7850200": {
    "zipcode": "7850200",
    "prefectureCode": "39",
    "prefectureNumber": 39,
    "prefecture": "高知県",
    "city": "高岡郡津野町",
    "town": "以下に掲載がない場合"
  },
  "7850201": {
    "zipcode": "7850201",
    "prefectureCode": "39",
    "prefectureNumber": 39,
    "prefecture": "高知県",
    "city": "高岡郡津野町",
    "town": "永野"
  },
  "7850202": {
    "zipcode": "7850202",
    "prefectureCode": "39",
    "prefectureNumber": 39,
    "prefecture": "高知県",
    "city": "高岡郡津野町",
    "town": "姫野々"
  },
  "7850203": {
    "zipcode": "7850203",
    "prefectureCode": "39",
    "prefectureNumber": 39,
    "prefecture": "高知県",
    "city": "高岡郡津野町",
    "town": "貝ノ川"
  },
  "7850204": {
    "zipcode": "7850204",
    "prefectureCode": "39",
    "prefectureNumber": 39,
    "prefecture": "高知県",
    "city": "高岡郡津野町",
    "town": "久保川"
  },
  "7850205": {
    "zipcode": "7850205",
    "prefectureCode": "39",
    "prefectureNumber": 39,
    "prefecture": "高知県",
    "city": "高岡郡津野町",
    "town": "西谷甲"
  },
  "7850206": {
    "zipcode": "7850206",
    "prefectureCode": "39",
    "prefectureNumber": 39,
    "prefecture": "高知県",
    "city": "高岡郡津野町",
    "town": "樺の川"
  },
  "7850207": {
    "zipcode": "7850207",
    "prefectureCode": "39",
    "prefectureNumber": 39,
    "prefecture": "高知県",
    "city": "高岡郡津野町",
    "town": "新土居"
  },
  "7850208": {
    "zipcode": "7850208",
    "prefectureCode": "39",
    "prefectureNumber": 39,
    "prefecture": "高知県",
    "city": "高岡郡津野町",
    "town": "三間川"
  },
  "7850209": {
    "zipcode": "7850209",
    "prefectureCode": "39",
    "prefectureNumber": 39,
    "prefecture": "高知県",
    "city": "高岡郡津野町",
    "town": "西谷乙"
  },
  "7850210": {
    "zipcode": "7850210",
    "prefectureCode": "39",
    "prefectureNumber": 39,
    "prefecture": "高知県",
    "city": "高岡郡津野町",
    "town": "貝ノ川床鍋"
  },
  "7850211": {
    "zipcode": "7850211",
    "prefectureCode": "39",
    "prefectureNumber": 39,
    "prefecture": "高知県",
    "city": "高岡郡津野町",
    "town": "白石甲"
  },
  "7850212": {
    "zipcode": "7850212",
    "prefectureCode": "39",
    "prefectureNumber": 39,
    "prefecture": "高知県",
    "city": "高岡郡津野町",
    "town": "白石乙"
  },
  "7850213": {
    "zipcode": "7850213",
    "prefectureCode": "39",
    "prefectureNumber": 39,
    "prefecture": "高知県",
    "city": "高岡郡津野町",
    "town": "白石丙"
  },
  "7850214": {
    "zipcode": "7850214",
    "prefectureCode": "39",
    "prefectureNumber": 39,
    "prefecture": "高知県",
    "city": "高岡郡津野町",
    "town": "杉ノ川甲"
  },
  "7850215": {
    "zipcode": "7850215",
    "prefectureCode": "39",
    "prefectureNumber": 39,
    "prefecture": "高知県",
    "city": "高岡郡津野町",
    "town": "杉ノ川乙"
  },
  "7850216": {
    "zipcode": "7850216",
    "prefectureCode": "39",
    "prefectureNumber": 39,
    "prefecture": "高知県",
    "city": "高岡郡津野町",
    "town": "杉ノ川丙"
  },
  "7850217": {
    "zipcode": "7850217",
    "prefectureCode": "39",
    "prefectureNumber": 39,
    "prefecture": "高知県",
    "city": "高岡郡津野町",
    "town": "黒川"
  },
  "7850218": {
    "zipcode": "7850218",
    "prefectureCode": "39",
    "prefectureNumber": 39,
    "prefecture": "高知県",
    "city": "高岡郡津野町",
    "town": "大野"
  },
  "7850219": {
    "zipcode": "7850219",
    "prefectureCode": "39",
    "prefectureNumber": 39,
    "prefecture": "高知県",
    "city": "高岡郡津野町",
    "town": "赤木"
  },
  "7850411": {
    "zipcode": "7850411",
    "prefectureCode": "39",
    "prefectureNumber": 39,
    "prefecture": "高知県",
    "city": "高岡郡津野町",
    "town": "船戸"
  },
  "7850412": {
    "zipcode": "7850412",
    "prefectureCode": "39",
    "prefectureNumber": 39,
    "prefecture": "高知県",
    "city": "高岡郡津野町",
    "town": "桑ケ市"
  },
  "7850413": {
    "zipcode": "7850413",
    "prefectureCode": "39",
    "prefectureNumber": 39,
    "prefecture": "高知県",
    "city": "高岡郡津野町",
    "town": "烏出川"
  },
  "7850501": {
    "zipcode": "7850501",
    "prefectureCode": "39",
    "prefectureNumber": 39,
    "prefecture": "高知県",
    "city": "高岡郡津野町",
    "town": "力石"
  },
  "7850502": {
    "zipcode": "7850502",
    "prefectureCode": "39",
    "prefectureNumber": 39,
    "prefecture": "高知県",
    "city": "高岡郡津野町",
    "town": "北川"
  },
  "7850503": {
    "zipcode": "7850503",
    "prefectureCode": "39",
    "prefectureNumber": 39,
    "prefecture": "高知県",
    "city": "高岡郡津野町",
    "town": "芳生野甲"
  },
  "7850504": {
    "zipcode": "7850504",
    "prefectureCode": "39",
    "prefectureNumber": 39,
    "prefecture": "高知県",
    "city": "高岡郡津野町",
    "town": "芳生野乙"
  },
  "7850505": {
    "zipcode": "7850505",
    "prefectureCode": "39",
    "prefectureNumber": 39,
    "prefecture": "高知県",
    "city": "高岡郡津野町",
    "town": "芳生野丙"
  },
  "7850600": {
    "zipcode": "7850600",
    "prefectureCode": "39",
    "prefectureNumber": 39,
    "prefecture": "高知県",
    "city": "高岡郡檮原町",
    "town": "以下に掲載がない場合"
  },
  "7850601": {
    "zipcode": "7850601",
    "prefectureCode": "39",
    "prefectureNumber": 39,
    "prefecture": "高知県",
    "city": "高岡郡檮原町",
    "town": "永野"
  },
  "7850602": {
    "zipcode": "7850602",
    "prefectureCode": "39",
    "prefectureNumber": 39,
    "prefecture": "高知県",
    "city": "高岡郡檮原町",
    "town": "井の谷"
  },
  "7850603": {
    "zipcode": "7850603",
    "prefectureCode": "39",
    "prefectureNumber": 39,
    "prefecture": "高知県",
    "city": "高岡郡檮原町",
    "town": "太田戸"
  },
  "7850604": {
    "zipcode": "7850604",
    "prefectureCode": "39",
    "prefectureNumber": 39,
    "prefecture": "高知県",
    "city": "高岡郡檮原町",
    "town": "横貝"
  },
  "7850605": {
    "zipcode": "7850605",
    "prefectureCode": "39",
    "prefectureNumber": 39,
    "prefecture": "高知県",
    "city": "高岡郡檮原町",
    "town": "下本村"
  },
  "7850606": {
    "zipcode": "7850606",
    "prefectureCode": "39",
    "prefectureNumber": 39,
    "prefecture": "高知県",
    "city": "高岡郡檮原町",
    "town": "上本村"
  },
  "7850607": {
    "zipcode": "7850607",
    "prefectureCode": "39",
    "prefectureNumber": 39,
    "prefecture": "高知県",
    "city": "高岡郡檮原町",
    "town": "田野々"
  },
  "7850608": {
    "zipcode": "7850608",
    "prefectureCode": "39",
    "prefectureNumber": 39,
    "prefecture": "高知県",
    "city": "高岡郡檮原町",
    "town": "後別当"
  },
  "7850610": {
    "zipcode": "7850610",
    "prefectureCode": "39",
    "prefectureNumber": 39,
    "prefecture": "高知県",
    "city": "高岡郡檮原町",
    "town": "檮原"
  },
  "7850611": {
    "zipcode": "7850611",
    "prefectureCode": "39",
    "prefectureNumber": 39,
    "prefecture": "高知県",
    "city": "高岡郡檮原町",
    "town": "飯母"
  },
  "7850612": {
    "zipcode": "7850612",
    "prefectureCode": "39",
    "prefectureNumber": 39,
    "prefecture": "高知県",
    "city": "高岡郡檮原町",
    "town": "川西路"
  },
  "7850613": {
    "zipcode": "7850613",
    "prefectureCode": "39",
    "prefectureNumber": 39,
    "prefecture": "高知県",
    "city": "高岡郡檮原町",
    "town": "大蔵谷"
  },
  "7850621": {
    "zipcode": "7850621",
    "prefectureCode": "39",
    "prefectureNumber": 39,
    "prefecture": "高知県",
    "city": "高岡郡檮原町",
    "town": "太郎川"
  },
  "7850622": {
    "zipcode": "7850622",
    "prefectureCode": "39",
    "prefectureNumber": 39,
    "prefecture": "高知県",
    "city": "高岡郡檮原町",
    "town": "神在居"
  },
  "7850623": {
    "zipcode": "7850623",
    "prefectureCode": "39",
    "prefectureNumber": 39,
    "prefecture": "高知県",
    "city": "高岡郡檮原町",
    "town": "仲洞"
  },
  "7850624": {
    "zipcode": "7850624",
    "prefectureCode": "39",
    "prefectureNumber": 39,
    "prefecture": "高知県",
    "city": "高岡郡檮原町",
    "town": "下折渡"
  },
  "7850625": {
    "zipcode": "7850625",
    "prefectureCode": "39",
    "prefectureNumber": 39,
    "prefecture": "高知県",
    "city": "高岡郡檮原町",
    "town": "上折渡"
  },
  "7850626": {
    "zipcode": "7850626",
    "prefectureCode": "39",
    "prefectureNumber": 39,
    "prefecture": "高知県",
    "city": "高岡郡檮原町",
    "town": "大野地"
  },
  "7850627": {
    "zipcode": "7850627",
    "prefectureCode": "39",
    "prefectureNumber": 39,
    "prefecture": "高知県",
    "city": "高岡郡檮原町",
    "town": "影野地"
  },
  "7850631": {
    "zipcode": "7850631",
    "prefectureCode": "39",
    "prefectureNumber": 39,
    "prefecture": "高知県",
    "city": "高岡郡檮原町",
    "town": "佐渡"
  },
  "7850632": {
    "zipcode": "7850632",
    "prefectureCode": "39",
    "prefectureNumber": 39,
    "prefecture": "高知県",
    "city": "高岡郡檮原町",
    "town": "初瀬本村"
  },
  "7850633": {
    "zipcode": "7850633",
    "prefectureCode": "39",
    "prefectureNumber": 39,
    "prefecture": "高知県",
    "city": "高岡郡檮原町",
    "town": "豊原"
  },
  "7850634": {
    "zipcode": "7850634",
    "prefectureCode": "39",
    "prefectureNumber": 39,
    "prefecture": "高知県",
    "city": "高岡郡檮原町",
    "town": "仲久保"
  },
  "7850635": {
    "zipcode": "7850635",
    "prefectureCode": "39",
    "prefectureNumber": 39,
    "prefecture": "高知県",
    "city": "高岡郡檮原町",
    "town": "川井"
  },
  "7850636": {
    "zipcode": "7850636",
    "prefectureCode": "39",
    "prefectureNumber": 39,
    "prefecture": "高知県",
    "city": "高岡郡檮原町",
    "town": "川口"
  },
  "7850641": {
    "zipcode": "7850641",
    "prefectureCode": "39",
    "prefectureNumber": 39,
    "prefecture": "高知県",
    "city": "高岡郡檮原町",
    "town": "上成"
  },
  "7850642": {
    "zipcode": "7850642",
    "prefectureCode": "39",
    "prefectureNumber": 39,
    "prefecture": "高知県",
    "city": "高岡郡檮原町",
    "town": "松谷"
  },
  "7850643": {
    "zipcode": "7850643",
    "prefectureCode": "39",
    "prefectureNumber": 39,
    "prefecture": "高知県",
    "city": "高岡郡檮原町",
    "town": "宮野々"
  },
  "7850644": {
    "zipcode": "7850644",
    "prefectureCode": "39",
    "prefectureNumber": 39,
    "prefecture": "高知県",
    "city": "高岡郡檮原町",
    "town": "広野"
  },
  "7850645": {
    "zipcode": "7850645",
    "prefectureCode": "39",
    "prefectureNumber": 39,
    "prefecture": "高知県",
    "city": "高岡郡檮原町",
    "town": "竹の薮"
  },
  "7850646": {
    "zipcode": "7850646",
    "prefectureCode": "39",
    "prefectureNumber": 39,
    "prefecture": "高知県",
    "city": "高岡郡檮原町",
    "town": "上西の川"
  },
  "7850647": {
    "zipcode": "7850647",
    "prefectureCode": "39",
    "prefectureNumber": 39,
    "prefecture": "高知県",
    "city": "高岡郡檮原町",
    "town": "下西の川"
  },
  "7850648": {
    "zipcode": "7850648",
    "prefectureCode": "39",
    "prefectureNumber": 39,
    "prefecture": "高知県",
    "city": "高岡郡檮原町",
    "town": "仲間"
  },
  "7850651": {
    "zipcode": "7850651",
    "prefectureCode": "39",
    "prefectureNumber": 39,
    "prefecture": "高知県",
    "city": "高岡郡檮原町",
    "town": "茶や谷"
  },
  "7850652": {
    "zipcode": "7850652",
    "prefectureCode": "39",
    "prefectureNumber": 39,
    "prefecture": "高知県",
    "city": "高岡郡檮原町",
    "town": "本も谷"
  },
  "7850653": {
    "zipcode": "7850653",
    "prefectureCode": "39",
    "prefectureNumber": 39,
    "prefecture": "高知県",
    "city": "高岡郡檮原町",
    "town": "中の川"
  },
  "7850654": {
    "zipcode": "7850654",
    "prefectureCode": "39",
    "prefectureNumber": 39,
    "prefecture": "高知県",
    "city": "高岡郡檮原町",
    "town": "上組"
  },
  "7850655": {
    "zipcode": "7850655",
    "prefectureCode": "39",
    "prefectureNumber": 39,
    "prefecture": "高知県",
    "city": "高岡郡檮原町",
    "town": "下組"
  },
  "7850656": {
    "zipcode": "7850656",
    "prefectureCode": "39",
    "prefectureNumber": 39,
    "prefecture": "高知県",
    "city": "高岡郡檮原町",
    "town": "東川"
  },
  "7850657": {
    "zipcode": "7850657",
    "prefectureCode": "39",
    "prefectureNumber": 39,
    "prefecture": "高知県",
    "city": "高岡郡檮原町",
    "town": "東向"
  },
  "7850658": {
    "zipcode": "7850658",
    "prefectureCode": "39",
    "prefectureNumber": 39,
    "prefecture": "高知県",
    "city": "高岡郡檮原町",
    "town": "富永"
  },
  "7850661": {
    "zipcode": "7850661",
    "prefectureCode": "39",
    "prefectureNumber": 39,
    "prefecture": "高知県",
    "city": "高岡郡檮原町",
    "town": "六丁"
  },
  "7850662": {
    "zipcode": "7850662",
    "prefectureCode": "39",
    "prefectureNumber": 39,
    "prefecture": "高知県",
    "city": "高岡郡檮原町",
    "town": "坂本川"
  },
  "7850663": {
    "zipcode": "7850663",
    "prefectureCode": "39",
    "prefectureNumber": 39,
    "prefecture": "高知県",
    "city": "高岡郡檮原町",
    "town": "文丸"
  },
  "7850664": {
    "zipcode": "7850664",
    "prefectureCode": "39",
    "prefectureNumber": 39,
    "prefecture": "高知県",
    "city": "高岡郡檮原町",
    "town": "神の山"
  },
  "7850665": {
    "zipcode": "7850665",
    "prefectureCode": "39",
    "prefectureNumber": 39,
    "prefecture": "高知県",
    "city": "高岡郡檮原町",
    "town": "坪野田"
  },
  "7850666": {
    "zipcode": "7850666",
    "prefectureCode": "39",
    "prefectureNumber": 39,
    "prefecture": "高知県",
    "city": "高岡郡檮原町",
    "town": "井高"
  },
  "7850771": {
    "zipcode": "7850771",
    "prefectureCode": "39",
    "prefectureNumber": 39,
    "prefecture": "高知県",
    "city": "高岡郡檮原町",
    "town": "大向"
  },
  "7850772": {
    "zipcode": "7850772",
    "prefectureCode": "39",
    "prefectureNumber": 39,
    "prefecture": "高知県",
    "city": "高岡郡檮原町",
    "town": "中平"
  },
  "7850773": {
    "zipcode": "7850773",
    "prefectureCode": "39",
    "prefectureNumber": 39,
    "prefecture": "高知県",
    "city": "高岡郡檮原町",
    "town": "松原"
  },
  "7850774": {
    "zipcode": "7850774",
    "prefectureCode": "39",
    "prefectureNumber": 39,
    "prefecture": "高知県",
    "city": "高岡郡檮原町",
    "town": "久保谷"
  },
  "7850775": {
    "zipcode": "7850775",
    "prefectureCode": "39",
    "prefectureNumber": 39,
    "prefecture": "高知県",
    "city": "高岡郡檮原町",
    "town": "島中"
  },
  "7850776": {
    "zipcode": "7850776",
    "prefectureCode": "39",
    "prefectureNumber": 39,
    "prefecture": "高知県",
    "city": "高岡郡檮原町",
    "town": "家籠戸"
  }
}
