{
  "7890156": {
    "zipcode": "7890156",
    "prefectureCode": "39",
    "prefectureNumber": 39,
    "prefecture": "高知県",
    "city": "長岡郡大豊町",
    "town": "八川"
  },
  "7890157": {
    "zipcode": "7890157",
    "prefectureCode": "39",
    "prefectureNumber": 39,
    "prefecture": "高知県",
    "city": "長岡郡大豊町",
    "town": "筏木"
  },
  "7890158": {
    "zipcode": "7890158",
    "prefectureCode": "39",
    "prefectureNumber": 39,
    "prefecture": "高知県",
    "city": "長岡郡大豊町",
    "town": "岩原"
  },
  "7890159": {
    "zipcode": "7890159",
    "prefectureCode": "39",
    "prefectureNumber": 39,
    "prefecture": "高知県",
    "city": "長岡郡大豊町",
    "town": "西峰（三谷）"
  },
  "7890160": {
    "zipcode": "7890160",
    "prefectureCode": "39",
    "prefectureNumber": 39,
    "prefecture": "高知県",
    "city": "長岡郡大豊町",
    "town": "西峰（その他）"
  },
  "7890161": {
    "zipcode": "7890161",
    "prefectureCode": "39",
    "prefectureNumber": 39,
    "prefecture": "高知県",
    "city": "長岡郡大豊町",
    "town": "柚木"
  },
  "7890162": {
    "zipcode": "7890162",
    "prefectureCode": "39",
    "prefectureNumber": 39,
    "prefecture": "高知県",
    "city": "長岡郡大豊町",
    "town": "怒田"
  },
  "7890163": {
    "zipcode": "7890163",
    "prefectureCode": "39",
    "prefectureNumber": 39,
    "prefecture": "高知県",
    "city": "長岡郡大豊町",
    "town": "南大王"
  },
  "7890164": {
    "zipcode": "7890164",
    "prefectureCode": "39",
    "prefectureNumber": 39,
    "prefecture": "高知県",
    "city": "長岡郡大豊町",
    "town": "八畝"
  },
  "7890165": {
    "zipcode": "7890165",
    "prefectureCode": "39",
    "prefectureNumber": 39,
    "prefecture": "高知県",
    "city": "長岡郡大豊町",
    "town": "西川"
  },
  "7890166": {
    "zipcode": "7890166",
    "prefectureCode": "39",
    "prefectureNumber": 39,
    "prefecture": "高知県",
    "city": "長岡郡大豊町",
    "town": "東土居"
  },
  "7890167": {
    "zipcode": "7890167",
    "prefectureCode": "39",
    "prefectureNumber": 39,
    "prefecture": "高知県",
    "city": "長岡郡大豊町",
    "town": "粟生"
  },
  "7890168": {
    "zipcode": "7890168",
    "prefectureCode": "39",
    "prefectureNumber": 39,
    "prefecture": "高知県",
    "city": "長岡郡大豊町",
    "town": "立野"
  },
  "7890169": {
    "zipcode": "7890169",
    "prefectureCode": "39",
    "prefectureNumber": 39,
    "prefecture": "高知県",
    "city": "長岡郡大豊町",
    "town": "大平（その他）"
  },
  "7890170": {
    "zipcode": "7890170",
    "prefectureCode": "39",
    "prefectureNumber": 39,
    "prefecture": "高知県",
    "city": "長岡郡大豊町",
    "town": "大滝（落合）"
  },
  "7890171": {
    "zipcode": "7890171",
    "prefectureCode": "39",
    "prefectureNumber": 39,
    "prefecture": "高知県",
    "city": "長岡郡大豊町",
    "town": "大滝（その他）"
  },
  "7890172": {
    "zipcode": "7890172",
    "prefectureCode": "39",
    "prefectureNumber": 39,
    "prefecture": "高知県",
    "city": "長岡郡大豊町",
    "town": "川井"
  },
  "7890173": {
    "zipcode": "7890173",
    "prefectureCode": "39",
    "prefectureNumber": 39,
    "prefecture": "高知県",
    "city": "長岡郡大豊町",
    "town": "大平（高原）"
  },
  "7890174": {
    "zipcode": "7890174",
    "prefectureCode": "39",
    "prefectureNumber": 39,
    "prefecture": "高知県",
    "city": "長岡郡大豊町",
    "town": "中内"
  },
  "7890231": {
    "zipcode": "7890231",
    "prefectureCode": "39",
    "prefectureNumber": 39,
    "prefecture": "高知県",
    "city": "長岡郡大豊町",
    "town": "奥大田"
  },
  "7890232": {
    "zipcode": "7890232",
    "prefectureCode": "39",
    "prefectureNumber": 39,
    "prefecture": "高知県",
    "city": "長岡郡大豊町",
    "town": "梶ケ内（石堂、佐賀井）"
  },
  "7890233": {
    "zipcode": "7890233",
    "prefectureCode": "39",
    "prefectureNumber": 39,
    "prefecture": "高知県",
    "city": "長岡郡大豊町",
    "town": "磯谷"
  },
  "7890234": {
    "zipcode": "7890234",
    "prefectureCode": "39",
    "prefectureNumber": 39,
    "prefecture": "高知県",
    "city": "長岡郡大豊町",
    "town": "寺内（大田口）"
  },
  "7890235": {
    "zipcode": "7890235",
    "prefectureCode": "39",
    "prefectureNumber": 39,
    "prefecture": "高知県",
    "city": "長岡郡大豊町",
    "town": "船戸"
  },
  "7890236": {
    "zipcode": "7890236",
    "prefectureCode": "39",
    "prefectureNumber": 39,
    "prefecture": "高知県",
    "city": "長岡郡大豊町",
    "town": "和田（目付）"
  },
  "7890237": {
    "zipcode": "7890237",
    "prefectureCode": "39",
    "prefectureNumber": 39,
    "prefecture": "高知県",
    "city": "長岡郡大豊町",
    "town": "庵谷"
  },
  "7890241": {
    "zipcode": "7890241",
    "prefectureCode": "39",
    "prefectureNumber": 39,
    "prefecture": "高知県",
    "city": "長岡郡大豊町",
    "town": "川戸"
  },
  "7890242": {
    "zipcode": "7890242",
    "prefectureCode": "39",
    "prefectureNumber": 39,
    "prefecture": "高知県",
    "city": "長岡郡大豊町",
    "town": "連火"
  },
  "7890243": {
    "zipcode": "7890243",
    "prefectureCode": "39",
    "prefectureNumber": 39,
    "prefecture": "高知県",
    "city": "長岡郡大豊町",
    "town": "西久保"
  },
  "7890244": {
    "zipcode": "7890244",
    "prefectureCode": "39",
    "prefectureNumber": 39,
    "prefecture": "高知県",
    "city": "長岡郡大豊町",
    "town": "桃原"
  },
  "7890245": {
    "zipcode": "7890245",
    "prefectureCode": "39",
    "prefectureNumber": 39,
    "prefecture": "高知県",
    "city": "長岡郡大豊町",
    "town": "永淵"
  },
  "7890246": {
    "zipcode": "7890246",
    "prefectureCode": "39",
    "prefectureNumber": 39,
    "prefecture": "高知県",
    "city": "長岡郡大豊町",
    "town": "柳野"
  },
  "7890247": {
    "zipcode": "7890247",
    "prefectureCode": "39",
    "prefectureNumber": 39,
    "prefecture": "高知県",
    "city": "長岡郡大豊町",
    "town": "大砂子"
  },
  "7890248": {
    "zipcode": "7890248",
    "prefectureCode": "39",
    "prefectureNumber": 39,
    "prefecture": "高知県",
    "city": "長岡郡大豊町",
    "town": "大久保"
  },
  "7890250": {
    "zipcode": "7890250",
    "prefectureCode": "39",
    "prefectureNumber": 39,
    "prefecture": "高知県",
    "city": "長岡郡大豊町",
    "town": "黒石"
  },
  "7890251": {
    "zipcode": "7890251",
    "prefectureCode": "39",
    "prefectureNumber": 39,
    "prefecture": "高知県",
    "city": "長岡郡大豊町",
    "town": "中屋"
  },
  "7890252": {
    "zipcode": "7890252",
    "prefectureCode": "39",
    "prefectureNumber": 39,
    "prefecture": "高知県",
    "city": "長岡郡大豊町",
    "town": "上東"
  },
  "7890253": {
    "zipcode": "7890253",
    "prefectureCode": "39",
    "prefectureNumber": 39,
    "prefecture": "高知県",
    "city": "長岡郡大豊町",
    "town": "安野々"
  },
  "7890254": {
    "zipcode": "7890254",
    "prefectureCode": "39",
    "prefectureNumber": 39,
    "prefecture": "高知県",
    "city": "長岡郡大豊町",
    "town": "西土居"
  },
  "7890255": {
    "zipcode": "7890255",
    "prefectureCode": "39",
    "prefectureNumber": 39,
    "prefecture": "高知県",
    "city": "長岡郡大豊町",
    "town": "佐賀山"
  },
  "7890300": {
    "zipcode": "7890300",
    "prefectureCode": "39",
    "prefectureNumber": 39,
    "prefecture": "高知県",
    "city": "長岡郡大豊町",
    "town": "以下に掲載がない場合"
  },
  "7890301": {
    "zipcode": "7890301",
    "prefectureCode": "39",
    "prefectureNumber": 39,
    "prefecture": "高知県",
    "city": "長岡郡大豊町",
    "town": "津家（桧生）"
  },
  "7890302": {
    "zipcode": "7890302",
    "prefectureCode": "39",
    "prefectureNumber": 39,
    "prefecture": "高知県",
    "city": "長岡郡大豊町",
    "town": "葛原（その他）"
  },
  "7890303": {
    "zipcode": "7890303",
    "prefectureCode": "39",
    "prefectureNumber": 39,
    "prefecture": "高知県",
    "city": "長岡郡大豊町",
    "town": "川口"
  },
  "7890304": {
    "zipcode": "7890304",
    "prefectureCode": "39",
    "prefectureNumber": 39,
    "prefecture": "高知県",
    "city": "長岡郡大豊町",
    "town": "谷"
  },
  "7890305": {
    "zipcode": "7890305",
    "prefectureCode": "39",
    "prefectureNumber": 39,
    "prefecture": "高知県",
    "city": "長岡郡大豊町",
    "town": "式岩"
  },
  "7890306": {
    "zipcode": "7890306",
    "prefectureCode": "39",
    "prefectureNumber": 39,
    "prefecture": "高知県",
    "city": "長岡郡大豊町",
    "town": "尾生"
  },
  "7890307": {
    "zipcode": "7890307",
    "prefectureCode": "39",
    "prefectureNumber": 39,
    "prefecture": "高知県",
    "city": "長岡郡大豊町",
    "town": "穴内"
  },
  "7890311": {
    "zipcode": "7890311",
    "prefectureCode": "39",
    "prefectureNumber": 39,
    "prefecture": "高知県",
    "city": "長岡郡大豊町",
    "town": "杉"
  },
  "7890312": {
    "zipcode": "7890312",
    "prefectureCode": "39",
    "prefectureNumber": 39,
    "prefecture": "高知県",
    "city": "長岡郡大豊町",
    "town": "高須"
  },
  "7890313": {
    "zipcode": "7890313",
    "prefectureCode": "39",
    "prefectureNumber": 39,
    "prefecture": "高知県",
    "city": "長岡郡大豊町",
    "town": "川口南"
  },
  "7890314": {
    "zipcode": "7890314",
    "prefectureCode": "39",
    "prefectureNumber": 39,
    "prefecture": "高知県",
    "city": "長岡郡大豊町",
    "town": "日浦"
  },
  "7890315": {
    "zipcode": "7890315",
    "prefectureCode": "39",
    "prefectureNumber": 39,
    "prefecture": "高知県",
    "city": "長岡郡大豊町",
    "town": "中村大王"
  },
  "7890316": {
    "zipcode": "7890316",
    "prefectureCode": "39",
    "prefectureNumber": 39,
    "prefecture": "高知県",
    "city": "長岡郡大豊町",
    "town": "小川"
  },
  "7890321": {
    "zipcode": "7890321",
    "prefectureCode": "39",
    "prefectureNumber": 39,
    "prefecture": "高知県",
    "city": "長岡郡大豊町",
    "town": "角茂谷"
  },
  "7890322": {
    "zipcode": "7890322",
    "prefectureCode": "39",
    "prefectureNumber": 39,
    "prefecture": "高知県",
    "city": "長岡郡大豊町",
    "town": "戸手野"
  },
  "7890323": {
    "zipcode": "7890323",
    "prefectureCode": "39",
    "prefectureNumber": 39,
    "prefecture": "高知県",
    "city": "長岡郡大豊町",
    "town": "馬瀬"
  },
  "7890324": {
    "zipcode": "7890324",
    "prefectureCode": "39",
    "prefectureNumber": 39,
    "prefecture": "高知県",
    "city": "長岡郡大豊町",
    "town": "久寿軒"
  },
  "7890325": {
    "zipcode": "7890325",
    "prefectureCode": "39",
    "prefectureNumber": 39,
    "prefecture": "高知県",
    "city": "長岡郡大豊町",
    "town": "北川"
  },
  "7890426": {
    "zipcode": "7890426",
    "prefectureCode": "39",
    "prefectureNumber": 39,
    "prefecture": "高知県",
    "city": "長岡郡大豊町",
    "town": "立川上名"
  },
  "7890427": {
    "zipcode": "7890427",
    "prefectureCode": "39",
    "prefectureNumber": 39,
    "prefecture": "高知県",
    "city": "長岡郡大豊町",
    "town": "立川下名"
  },
  "7890428": {
    "zipcode": "7890428",
    "prefectureCode": "39",
    "prefectureNumber": 39,
    "prefecture": "高知県",
    "city": "長岡郡大豊町",
    "town": "葛原（千野々）"
  },
  "7890581": {
    "zipcode": "7890581",
    "prefectureCode": "39",
    "prefectureNumber": 39,
    "prefecture": "高知県",
    "city": "香美市",
    "town": "土佐山田町西又"
  },
  "7890582": {
    "zipcode": "7890582",
    "prefectureCode": "39",
    "prefectureNumber": 39,
    "prefecture": "高知県",
    "city": "香美市",
    "town": "土佐山田町角茂谷"
  },
  "7890583": {
    "zipcode": "7890583",
    "prefectureCode": "39",
    "prefectureNumber": 39,
    "prefecture": "高知県",
    "city": "香美市",
    "town": "土佐山田町平山（岡田丸、双子岩、向田）"
  },
  "7890584": {
    "zipcode": "7890584",
    "prefectureCode": "39",
    "prefectureNumber": 39,
    "prefecture": "高知県",
    "city": "香美市",
    "town": "土佐山田町北滝本"
  },
  "7890585": {
    "zipcode": "7890585",
    "prefectureCode": "39",
    "prefectureNumber": 39,
    "prefecture": "高知県",
    "city": "香美市",
    "town": "土佐山田町繁藤"
  },
  "7890586": {
    "zipcode": "7890586",
    "prefectureCode": "39",
    "prefectureNumber": 39,
    "prefecture": "高知県",
    "city": "香美市",
    "town": "土佐山田町樫谷"
  },
  "7890587": {
    "zipcode": "7890587",
    "prefectureCode": "39",
    "prefectureNumber": 39,
    "prefecture": "高知県",
    "city": "香美市",
    "town": "土佐山田町上穴内"
  },
  "7891200": {
    "zipcode": "7891200",
    "prefectureCode": "39",
    "prefectureNumber": 39,
    "prefecture": "高知県",
    "city": "高岡郡佐川町",
    "town": "以下に掲載がない場合"
  },
  "7891201": {
    "zipcode": "7891201",
    "prefectureCode": "39",
    "prefectureNumber": 39,
    "prefecture": "高知県",
    "city": "高岡郡佐川町",
    "town": "甲"
  },
  "7891202": {
    "zipcode": "7891202",
    "prefectureCode": "39",
    "prefectureNumber": 39,
    "prefecture": "高知県",
    "city": "高岡郡佐川町",
    "town": "乙"
  },
  "7891203": {
    "zipcode": "7891203",
    "prefectureCode": "39",
    "prefectureNumber": 39,
    "prefecture": "高知県",
    "city": "高岡郡佐川町",
    "town": "丙"
  },
  "7891204": {
    "zipcode": "7891204",
    "prefectureCode": "39",
    "prefectureNumber": 39,
    "prefecture": "高知県",
    "city": "高岡郡佐川町",
    "town": "加茂"
  },
  "7891205": {
    "zipcode": "7891205",
    "prefectureCode": "39",
    "prefectureNumber": 39,
    "prefecture": "高知県",
    "city": "高岡郡佐川町",
    "town": "室原"
  },
  "7891211": {
    "zipcode": "7891211",
    "prefectureCode": "39",
    "prefectureNumber": 39,
    "prefecture": "高知県",
    "city": "高岡郡佐川町",
    "town": "黒原"
  },
  "7891212": {
    "zipcode": "7891212",
    "prefectureCode": "39",
    "prefectureNumber": 39,
    "prefecture": "高知県",
    "city": "高岡郡佐川町",
    "town": "四ツ白"
  },
  "7891213": {
    "zipcode": "7891213",
    "prefectureCode": "39",
    "prefectureNumber": 39,
    "prefecture": "高知県",
    "city": "高岡郡佐川町",
    "town": "二ツ野"
  },
  "7891214": {
    "zipcode": "7891214",
    "prefectureCode": "39",
    "prefectureNumber": 39,
    "prefecture": "高知県",
    "city": "高岡郡佐川町",
    "town": "中野"
  },
  "7891215": {
    "zipcode": "7891215",
    "prefectureCode": "39",
    "prefectureNumber": 39,
    "prefecture": "高知県",
    "city": "高岡郡佐川町",
    "town": "瑞応"
  },
  "7891216": {
    "zipcode": "7891216",
    "prefectureCode": "39",
    "prefectureNumber": 39,
    "prefecture": "高知県",
    "city": "高岡郡佐川町",
    "town": "庄田"
  },
  "7891217": {
    "zipcode": "7891217",
    "prefectureCode": "39",
    "prefectureNumber": 39,
    "prefecture": "高知県",
    "city": "高岡郡佐川町",
    "town": "大田川"
  },
  "7891218": {
    "zipcode": "7891218",
    "prefectureCode": "39",
    "prefectureNumber": 39,
    "prefecture": "高知県",
    "city": "高岡郡佐川町",
    "town": "平野"
  },
  "7891221": {
    "zipcode": "7891221",
    "prefectureCode": "39",
    "prefectureNumber": 39,
    "prefecture": "高知県",
    "city": "高岡郡佐川町",
    "town": "本郷耕"
  },
  "7891222": {
    "zipcode": "7891222",
    "prefectureCode": "39",
    "prefectureNumber": 39,
    "prefecture": "高知県",
    "city": "高岡郡佐川町",
    "town": "西山組"
  },
  "7891223": {
    "zipcode": "7891223",
    "prefectureCode": "39",
    "prefectureNumber": 39,
    "prefecture": "高知県",
    "city": "高岡郡佐川町",
    "town": "西山耕"
  },
  "7891224": {
    "zipcode": "7891224",
    "prefectureCode": "39",
    "prefectureNumber": 39,
    "prefecture": "高知県",
    "city": "高岡郡佐川町",
    "town": "古畑耕"
  },
  "7891225": {
    "zipcode": "7891225",
    "prefectureCode": "39",
    "prefectureNumber": 39,
    "prefecture": "高知県",
    "city": "高岡郡佐川町",
    "town": "峰耕"
  },
  "7891231": {
    "zipcode": "7891231",
    "prefectureCode": "39",
    "prefectureNumber": 39,
    "prefecture": "高知県",
    "city": "高岡郡佐川町",
    "town": "永野"
  },
  "7891232": {
    "zipcode": "7891232",
    "prefectureCode": "39",
    "prefectureNumber": 39,
    "prefecture": "高知県",
    "city": "高岡郡佐川町",
    "town": "東組"
  },
  "7891233": {
    "zipcode": "7891233",
    "prefectureCode": "39",
    "prefectureNumber": 39,
    "prefecture": "高知県",
    "city": "高岡郡佐川町",
    "town": "中組"
  },
  "7891234": {
    "zipcode": "7891234",
    "prefectureCode": "39",
    "prefectureNumber": 39,
    "prefecture": "高知県",
    "city": "高岡郡佐川町",
    "town": "西組"
  },
  "7891235": {
    "zipcode": "7891235",
    "prefectureCode": "39",
    "prefectureNumber": 39,
    "prefecture": "高知県",
    "city": "高岡郡佐川町",
    "town": "川ノ内組"
  },
  "7891300": {
    "zipcode": "7891300",
    "prefectureCode": "39",
    "prefectureNumber": 39,
    "prefecture": "高知県",
    "city": "高岡郡中土佐町",
    "town": "以下に掲載がない場合"
  },
  "7891301": {
    "zipcode": "7891301",
    "prefectureCode": "39",
    "prefectureNumber": 39,
    "prefecture": "高知県",
    "city": "高岡郡中土佐町",
    "town": "久礼"
  },
  "7891302": {
    "zipcode": "7891302",
    "prefectureCode": "39",
    "prefectureNumber": 39,
    "prefecture": "高知県",
    "city": "高岡郡中土佐町",
    "town": "上ノ加江"
  },
  "7891303": {
    "zipcode": "7891303",
    "prefectureCode": "39",
    "prefectureNumber": 39,
    "prefecture": "高知県",
    "city": "高岡郡中土佐町",
    "town": "矢井賀甲"
  },
  "7891304": {
    "zipcode": "7891304",
    "prefectureCode": "39",
    "prefectureNumber": 39,
    "prefecture": "高知県",
    "city": "高岡郡中土佐町",
    "town": "矢井賀乙"
  },
  "7891401": {
    "zipcode": "7891401",
    "prefectureCode": "39",
    "prefectureNumber": 39,
    "prefecture": "高知県",
    "city": "高岡郡中土佐町",
    "town": "大野見吉野"
  },
  "7891402": {
    "zipcode": "7891402",
    "prefectureCode": "39",
    "prefectureNumber": 39,
    "prefecture": "高知県",
    "city": "高岡郡中土佐町",
    "town": "大野見橋谷"
  },
  "7891403": {
    "zipcode": "7891403",
    "prefectureCode": "39",
    "prefectureNumber": 39,
    "prefecture": "高知県",
    "city": "高岡郡中土佐町",
    "town": "大野見久万秋"
  },
  "7891404": {
    "zipcode": "7891404",
    "prefectureCode": "39",
    "prefectureNumber": 39,
    "prefecture": "高知県",
    "city": "高岡郡中土佐町",
    "town": "大野見奈路"
  },
  "7891405": {
    "zipcode": "7891405",
    "prefectureCode": "39",
    "prefectureNumber": 39,
    "prefecture": "高知県",
    "city": "高岡郡中土佐町",
    "town": "大野見伊勢川"
  },
  "7891406": {
    "zipcode": "7891406",
    "prefectureCode": "39",
    "prefectureNumber": 39,
    "prefecture": "高知県",
    "city": "高岡郡中土佐町",
    "town": "大野見槇野々"
  },
  "7891407": {
    "zipcode": "7891407",
    "prefectureCode": "39",
    "prefectureNumber": 39,
    "prefecture": "高知県",
    "city": "高岡郡中土佐町",
    "town": "大野見三ツ又"
  },
  "7891408": {
    "zipcode": "7891408",
    "prefectureCode": "39",
    "prefectureNumber": 39,
    "prefecture": "高知県",
    "city": "高岡郡中土佐町",
    "town": "大野見長野"
  },
  "7891409": {
    "zipcode": "7891409",
    "prefectureCode": "39",
    "prefectureNumber": 39,
    "prefecture": "高知県",
    "city": "高岡郡中土佐町",
    "town": "大野見竹原"
  },
  "7891410": {
    "zipcode": "7891410",
    "prefectureCode": "39",
    "prefectureNumber": 39,
    "prefecture": "高知県",
    "city": "高岡郡中土佐町",
    "town": "大野見栂ノ川"
  },
  "7891411": {
    "zipcode": "7891411",
    "prefectureCode": "39",
    "prefectureNumber": 39,
    "prefecture": "高知県",
    "city": "高岡郡中土佐町",
    "town": "大野見野老野"
  },
  "7891412": {
    "zipcode": "7891412",
    "prefectureCode": "39",
    "prefectureNumber": 39,
    "prefecture": "高知県",
    "city": "高岡郡中土佐町",
    "town": "大野見川奥"
  },
  "7891413": {
    "zipcode": "7891413",
    "prefectureCode": "39",
    "prefectureNumber": 39,
    "prefecture": "高知県",
    "city": "高岡郡中土佐町",
    "town": "大野見荒瀬"
  },
  "7891414": {
    "zipcode": "7891414",
    "prefectureCode": "39",
    "prefectureNumber": 39,
    "prefecture": "高知県",
    "city": "高岡郡中土佐町",
    "town": "大野見神母野"
  },
  "7891415": {
    "zipcode": "7891415",
    "prefectureCode": "39",
    "prefectureNumber": 39,
    "prefecture": "高知県",
    "city": "高岡郡中土佐町",
    "town": "大野見寺野"
  },
  "7891416": {
    "zipcode": "7891416",
    "prefectureCode": "39",
    "prefectureNumber": 39,
    "prefecture": "高知県",
    "city": "高岡郡中土佐町",
    "town": "大野見下ル川"
  },
  "7891417": {
    "zipcode": "7891417",
    "prefectureCode": "39",
    "prefectureNumber": 39,
    "prefecture": "高知県",
    "city": "高岡郡中土佐町",
    "town": "大野見萩中"
  },
  "7891418": {
    "zipcode": "7891418",
    "prefectureCode": "39",
    "prefectureNumber": 39,
    "prefecture": "高知県",
    "city": "高岡郡中土佐町",
    "town": "大野見大股"
  },
  "7891419": {
    "zipcode": "7891419",
    "prefectureCode": "39",
    "prefectureNumber": 39,
    "prefecture": "高知県",
    "city": "高岡郡中土佐町",
    "town": "大野見島ノ川"
  },
  "7891701": {
    "zipcode": "7891701",
    "prefectureCode": "39",
    "prefectureNumber": 39,
    "prefecture": "高知県",
    "city": "幡多郡黒潮町",
    "town": "市野瀬"
  },
  "7891702": {
    "zipcode": "7891702",
    "prefectureCode": "39",
    "prefectureNumber": 39,
    "prefecture": "高知県",
    "city": "幡多郡黒潮町",
    "town": "佐賀橘川"
  },
  "7891703": {
    "zipcode": "7891703",
    "prefectureCode": "39",
    "prefectureNumber": 39,
    "prefecture": "高知県",
    "city": "幡多郡黒潮町",
    "town": "拳ノ川"
  },
  "7891704": {
    "zipcode": "7891704",
    "prefectureCode": "39",
    "prefectureNumber": 39,
    "prefecture": "高知県",
    "city": "幡多郡黒潮町",
    "town": "川奥"
  },
  "7891705": {
    "zipcode": "7891705",
    "prefectureCode": "39",
    "prefectureNumber": 39,
    "prefecture": "高知県",
    "city": "幡多郡黒潮町",
    "town": "荷稲"
  },
  "7891706": {
    "zipcode": "7891706",
    "prefectureCode": "39",
    "prefectureNumber": 39,
    "prefecture": "高知県",
    "city": "幡多郡黒潮町",
    "town": "小黒ノ川"
  },
  "7891707": {
    "zipcode": "7891707",
    "prefectureCode": "39",
    "prefectureNumber": 39,
    "prefecture": "高知県",
    "city": "幡多郡黒潮町",
    "town": "中ノ川"
  },
  "7891708": {
    "zipcode": "7891708",
    "prefectureCode": "39",
    "prefectureNumber": 39,
    "prefecture": "高知県",
    "city": "幡多郡黒潮町",
    "town": "鈴"
  },
  "7891711": {
    "zipcode": "7891711",
    "prefectureCode": "39",
    "prefectureNumber": 39,
    "prefecture": "高知県",
    "city": "幡多郡黒潮町",
    "town": "市野々川"
  },
  "7891712": {
    "zipcode": "7891712",
    "prefectureCode": "39",
    "prefectureNumber": 39,
    "prefecture": "高知県",
    "city": "幡多郡黒潮町",
    "town": "不破原"
  },
  "7891713": {
    "zipcode": "7891713",
    "prefectureCode": "39",
    "prefectureNumber": 39,
    "prefecture": "高知県",
    "city": "幡多郡黒潮町",
    "town": "伊与喜"
  },
  "7891714": {
    "zipcode": "7891714",
    "prefectureCode": "39",
    "prefectureNumber": 39,
    "prefecture": "高知県",
    "city": "幡多郡黒潮町",
    "town": "藤縄"
  },
  "7891715": {
    "zipcode": "7891715",
    "prefectureCode": "39",
    "prefectureNumber": 39,
    "prefecture": "高知県",
    "city": "幡多郡黒潮町",
    "town": "熊井"
  },
  "7891716": {
    "zipcode": "7891716",
    "prefectureCode": "39",
    "prefectureNumber": 39,
    "prefecture": "高知県",
    "city": "幡多郡黒潮町",
    "town": "熊野浦"
  },
  "7891720": {
    "zipcode": "7891720",
    "prefectureCode": "39",
    "prefectureNumber": 39,
    "prefecture": "高知県",
    "city": "幡多郡黒潮町",
    "town": "佐賀（その他）"
  },
  "7891721": {
    "zipcode": "7891721",
    "prefectureCode": "39",
    "prefectureNumber": 39,
    "prefecture": "高知県",
    "city": "幡多郡黒潮町",
    "town": "佐賀（中角）"
  },
  "7891722": {
    "zipcode": "7891722",
    "prefectureCode": "39",
    "prefectureNumber": 39,
    "prefecture": "高知県",
    "city": "幡多郡黒潮町",
    "town": "佐賀（坂折）"
  },
  "7891723": {
    "zipcode": "7891723",
    "prefectureCode": "39",
    "prefectureNumber": 39,
    "prefecture": "高知県",
    "city": "幡多郡黒潮町",
    "town": "佐賀（馬地）"
  },
  "7891724": {
    "zipcode": "7891724",
    "prefectureCode": "39",
    "prefectureNumber": 39,
    "prefecture": "高知県",
    "city": "幡多郡黒潮町",
    "town": "佐賀（横浜）"
  },
  "7891725": {
    "zipcode": "7891725",
    "prefectureCode": "39",
    "prefectureNumber": 39,
    "prefecture": "高知県",
    "city": "幡多郡黒潮町",
    "town": "白浜"
  },
  "7891900": {
    "zipcode": "7891900",
    "prefectureCode": "39",
    "prefectureNumber": 39,
    "prefecture": "高知県",
    "city": "幡多郡黒潮町",
    "town": "以下に掲載がない場合"
  },
  "7891901": {
    "zipcode": "7891901",
    "prefectureCode": "39",
    "prefectureNumber": 39,
    "prefecture": "高知県",
    "city": "幡多郡黒潮町",
    "town": "上川口"
  },
  "7891902": {
    "zipcode": "7891902",
    "prefectureCode": "39",
    "prefectureNumber": 39,
    "prefecture": "高知県",
    "city": "幡多郡黒潮町",
    "town": "蜷川"
  },
  "7891903": {
    "zipcode": "7891903",
    "prefectureCode": "39",
    "prefectureNumber": 39,
    "prefecture": "高知県",
    "city": "幡多郡黒潮町",
    "town": "有井川"
  },
  "7891904": {
    "zipcode": "7891904",
    "prefectureCode": "39",
    "prefectureNumber": 39,
    "prefecture": "高知県",
    "city": "幡多郡黒潮町",
    "town": "伊田"
  },
  "7891905": {
    "zipcode": "7891905",
    "prefectureCode": "39",
    "prefectureNumber": 39,
    "prefecture": "高知県",
    "city": "幡多郡黒潮町",
    "town": "灘"
  },
  "7891911": {
    "zipcode": "7891911",
    "prefectureCode": "39",
    "prefectureNumber": 39,
    "prefecture": "高知県",
    "city": "幡多郡黒潮町",
    "town": "浮鞭"
  },
  "7891912": {
    "zipcode": "7891912",
    "prefectureCode": "39",
    "prefectureNumber": 39,
    "prefecture": "高知県",
    "city": "幡多郡黒潮町",
    "town": "口湊川"
  },
  "7891913": {
    "zipcode": "7891913",
    "prefectureCode": "39",
    "prefectureNumber": 39,
    "prefecture": "高知県",
    "city": "幡多郡黒潮町",
    "town": "奥湊川"
  },
  "7891921": {
    "zipcode": "7891921",
    "prefectureCode": "39",
    "prefectureNumber": 39,
    "prefecture": "高知県",
    "city": "幡多郡黒潮町",
    "town": "加持"
  },
  "7891922": {
    "zipcode": "7891922",
    "prefectureCode": "39",
    "prefectureNumber": 39,
    "prefecture": "高知県",
    "city": "幡多郡黒潮町",
    "town": "加持川"
  },
  "7891923": {
    "zipcode": "7891923",
    "prefectureCode": "39",
    "prefectureNumber": 39,
    "prefecture": "高知県",
    "city": "幡多郡黒潮町",
    "town": "大井川"
  },
  "7891924": {
    "zipcode": "7891924",
    "prefectureCode": "39",
    "prefectureNumber": 39,
    "prefecture": "高知県",
    "city": "幡多郡黒潮町",
    "town": "馬荷"
  },
  "7891925": {
    "zipcode": "7891925",
    "prefectureCode": "39",
    "prefectureNumber": 39,
    "prefecture": "高知県",
    "city": "幡多郡黒潮町",
    "town": "大方橘川"
  },
  "7891931": {
    "zipcode": "7891931",
    "prefectureCode": "39",
    "prefectureNumber": 39,
    "prefecture": "高知県",
    "city": "幡多郡黒潮町",
    "town": "入野"
  },
  "7891932": {
    "zipcode": "7891932",
    "prefectureCode": "39",
    "prefectureNumber": 39,
    "prefecture": "高知県",
    "city": "幡多郡黒潮町",
    "town": "下田の口"
  },
  "7891933": {
    "zipcode": "7891933",
    "prefectureCode": "39",
    "prefectureNumber": 39,
    "prefecture": "高知県",
    "city": "幡多郡黒潮町",
    "town": "田野浦"
  },
  "7891934": {
    "zipcode": "7891934",
    "prefectureCode": "39",
    "prefectureNumber": 39,
    "prefecture": "高知県",
    "city": "幡多郡黒潮町",
    "town": "出口"
  },
  "7891935": {
    "zipcode": "7891935",
    "prefectureCode": "39",
    "prefectureNumber": 39,
    "prefecture": "高知県",
    "city": "幡多郡黒潮町",
    "town": "上田の口"
  },
  "7891936": {
    "zipcode": "7891936",
    "prefectureCode": "39",
    "prefectureNumber": 39,
    "prefecture": "高知県",
    "city": "幡多郡黒潮町",
    "town": "御坊畑"
  }
}
