{
  "7910000": {
    "zipcode": "7910000",
    "prefectureCode": "38",
    "prefectureNumber": 38,
    "prefecture": "愛媛県",
    "city": "松山市",
    "town": "以下に掲載がない場合"
  },
  "7910054": {
    "zipcode": "7910054",
    "prefectureCode": "38",
    "prefectureNumber": 38,
    "prefecture": "愛媛県",
    "city": "松山市",
    "town": "空港通（３〜７丁目）"
  },
  "7910101": {
    "zipcode": "7910101",
    "prefectureCode": "38",
    "prefectureNumber": 38,
    "prefecture": "愛媛県",
    "city": "松山市",
    "town": "溝辺町"
  },
  "7910102": {
    "zipcode": "7910102",
    "prefectureCode": "38",
    "prefectureNumber": 38,
    "prefecture": "愛媛県",
    "city": "松山市",
    "town": "高野町"
  },
  "7910103": {
    "zipcode": "7910103",
    "prefectureCode": "38",
    "prefectureNumber": 38,
    "prefecture": "愛媛県",
    "city": "松山市",
    "town": "上高野町"
  },
  "7910104": {
    "zipcode": "7910104",
    "prefectureCode": "38",
    "prefectureNumber": 38,
    "prefecture": "愛媛県",
    "city": "松山市",
    "town": "食場町"
  },
  "7910105": {
    "zipcode": "7910105",
    "prefectureCode": "38",
    "prefectureNumber": 38,
    "prefecture": "愛媛県",
    "city": "松山市",
    "town": "杉立町"
  },
  "7910111": {
    "zipcode": "7910111",
    "prefectureCode": "38",
    "prefectureNumber": 38,
    "prefecture": "愛媛県",
    "city": "松山市",
    "town": "上伊台町"
  },
  "7910112": {
    "zipcode": "7910112",
    "prefectureCode": "38",
    "prefectureNumber": 38,
    "prefecture": "愛媛県",
    "city": "松山市",
    "town": "下伊台町"
  },
  "7910113": {
    "zipcode": "7910113",
    "prefectureCode": "38",
    "prefectureNumber": 38,
    "prefecture": "愛媛県",
    "city": "松山市",
    "town": "白水台"
  },
  "7910114": {
    "zipcode": "7910114",
    "prefectureCode": "38",
    "prefectureNumber": 38,
    "prefecture": "愛媛県",
    "city": "松山市",
    "town": "南白水"
  },
  "7910120": {
    "zipcode": "7910120",
    "prefectureCode": "38",
    "prefectureNumber": 38,
    "prefecture": "愛媛県",
    "city": "松山市",
    "town": "湯の山東"
  },
  "7910121": {
    "zipcode": "7910121",
    "prefectureCode": "38",
    "prefectureNumber": 38,
    "prefecture": "愛媛県",
    "city": "松山市",
    "town": "湯の山"
  },
  "7910122": {
    "zipcode": "7910122",
    "prefectureCode": "38",
    "prefectureNumber": 38,
    "prefecture": "愛媛県",
    "city": "松山市",
    "town": "末町"
  },
  "7910123": {
    "zipcode": "7910123",
    "prefectureCode": "38",
    "prefectureNumber": 38,
    "prefecture": "愛媛県",
    "city": "松山市",
    "town": "宿野町"
  },
  "7910124": {
    "zipcode": "7910124",
    "prefectureCode": "38",
    "prefectureNumber": 38,
    "prefecture": "愛媛県",
    "city": "松山市",
    "town": "青波町"
  },
  "7910125": {
    "zipcode": "7910125",
    "prefectureCode": "38",
    "prefectureNumber": 38,
    "prefecture": "愛媛県",
    "city": "松山市",
    "town": "湯山柳"
  },
  "7910126": {
    "zipcode": "7910126",
    "prefectureCode": "38",
    "prefectureNumber": 38,
    "prefecture": "愛媛県",
    "city": "松山市",
    "town": "玉谷町"
  },
  "7910127": {
    "zipcode": "7910127",
    "prefectureCode": "38",
    "prefectureNumber": 38,
    "prefecture": "愛媛県",
    "city": "松山市",
    "town": "藤野町"
  },
  "7910128": {
    "zipcode": "7910128",
    "prefectureCode": "38",
    "prefectureNumber": 38,
    "prefecture": "愛媛県",
    "city": "松山市",
    "town": "福見川町"
  },
  "7910129": {
    "zipcode": "7910129",
    "prefectureCode": "38",
    "prefectureNumber": 38,
    "prefecture": "愛媛県",
    "city": "松山市",
    "town": "川の郷町"
  },
  "7910131": {
    "zipcode": "7910131",
    "prefectureCode": "38",
    "prefectureNumber": 38,
    "prefecture": "愛媛県",
    "city": "松山市",
    "town": "水口町"
  },
  "7910132": {
    "zipcode": "7910132",
    "prefectureCode": "38",
    "prefectureNumber": 38,
    "prefecture": "愛媛県",
    "city": "松山市",
    "town": "河中町"
  },
  "7910133": {
    "zipcode": "7910133",
    "prefectureCode": "38",
    "prefectureNumber": 38,
    "prefecture": "愛媛県",
    "city": "松山市",
    "town": "東川町"
  },
  "7910134": {
    "zipcode": "7910134",
    "prefectureCode": "38",
    "prefectureNumber": 38,
    "prefecture": "愛媛県",
    "city": "松山市",
    "town": "大井野町"
  },
  "7910135": {
    "zipcode": "7910135",
    "prefectureCode": "38",
    "prefectureNumber": 38,
    "prefecture": "愛媛県",
    "city": "松山市",
    "town": "米野町"
  },
  "7910150": {
    "zipcode": "7910150",
    "prefectureCode": "38",
    "prefectureNumber": 38,
    "prefecture": "愛媛県",
    "city": "松山市",
    "town": "九川"
  },
  "7910200": {
    "zipcode": "7910200",
    "prefectureCode": "38",
    "prefectureNumber": 38,
    "prefecture": "愛媛県",
    "city": "東温市",
    "town": "以下に掲載がない場合"
  },
  "7910201": {
    "zipcode": "7910201",
    "prefectureCode": "38",
    "prefectureNumber": 38,
    "prefecture": "愛媛県",
    "city": "東温市",
    "town": "山之内"
  },
  "7910202": {
    "zipcode": "7910202",
    "prefectureCode": "38",
    "prefectureNumber": 38,
    "prefecture": "愛媛県",
    "city": "東温市",
    "town": "樋口"
  },
  "7910203": {
    "zipcode": "7910203",
    "prefectureCode": "38",
    "prefectureNumber": 38,
    "prefecture": "愛媛県",
    "city": "東温市",
    "town": "横河原"
  },
  "7910204": {
    "zipcode": "7910204",
    "prefectureCode": "38",
    "prefectureNumber": 38,
    "prefecture": "愛媛県",
    "city": "東温市",
    "town": "志津川"
  },
  "7910205": {
    "zipcode": "7910205",
    "prefectureCode": "38",
    "prefectureNumber": 38,
    "prefecture": "愛媛県",
    "city": "東温市",
    "town": "西岡"
  },
  "7910206": {
    "zipcode": "7910206",
    "prefectureCode": "38",
    "prefectureNumber": 38,
    "prefecture": "愛媛県",
    "city": "東温市",
    "town": "志津川南"
  },
  "7910211": {
    "zipcode": "7910211",
    "prefectureCode": "38",
    "prefectureNumber": 38,
    "prefecture": "愛媛県",
    "city": "東温市",
    "town": "見奈良"
  },
  "7910212": {
    "zipcode": "7910212",
    "prefectureCode": "38",
    "prefectureNumber": 38,
    "prefecture": "愛媛県",
    "city": "東温市",
    "town": "田窪"
  },
  "7910213": {
    "zipcode": "7910213",
    "prefectureCode": "38",
    "prefectureNumber": 38,
    "prefecture": "愛媛県",
    "city": "東温市",
    "town": "牛渕"
  },
  "7910214": {
    "zipcode": "7910214",
    "prefectureCode": "38",
    "prefectureNumber": 38,
    "prefecture": "愛媛県",
    "city": "東温市",
    "town": "南野田"
  },
  "7910215": {
    "zipcode": "7910215",
    "prefectureCode": "38",
    "prefectureNumber": 38,
    "prefecture": "愛媛県",
    "city": "東温市",
    "town": "北野田"
  },
  "7910216": {
    "zipcode": "7910216",
    "prefectureCode": "38",
    "prefectureNumber": 38,
    "prefecture": "愛媛県",
    "city": "東温市",
    "town": "野田"
  },
  "7910221": {
    "zipcode": "7910221",
    "prefectureCode": "38",
    "prefectureNumber": 38,
    "prefecture": "愛媛県",
    "city": "東温市",
    "town": "上村"
  },
  "7910222": {
    "zipcode": "7910222",
    "prefectureCode": "38",
    "prefectureNumber": 38,
    "prefecture": "愛媛県",
    "city": "東温市",
    "town": "下林"
  },
  "7910223": {
    "zipcode": "7910223",
    "prefectureCode": "38",
    "prefectureNumber": 38,
    "prefecture": "愛媛県",
    "city": "東温市",
    "town": "上林"
  },
  "7910241": {
    "zipcode": "7910241",
    "prefectureCode": "38",
    "prefectureNumber": 38,
    "prefecture": "愛媛県",
    "city": "松山市",
    "town": "小野町"
  },
  "7910242": {
    "zipcode": "7910242",
    "prefectureCode": "38",
    "prefectureNumber": 38,
    "prefecture": "愛媛県",
    "city": "松山市",
    "town": "北梅本町"
  },
  "7910243": {
    "zipcode": "7910243",
    "prefectureCode": "38",
    "prefectureNumber": 38,
    "prefecture": "愛媛県",
    "city": "松山市",
    "town": "平井町"
  },
  "7910244": {
    "zipcode": "7910244",
    "prefectureCode": "38",
    "prefectureNumber": 38,
    "prefecture": "愛媛県",
    "city": "松山市",
    "town": "水泥町"
  },
  "7910245": {
    "zipcode": "7910245",
    "prefectureCode": "38",
    "prefectureNumber": 38,
    "prefecture": "愛媛県",
    "city": "松山市",
    "town": "南梅本町"
  },
  "7910301": {
    "zipcode": "7910301",
    "prefectureCode": "38",
    "prefectureNumber": 38,
    "prefecture": "愛媛県",
    "city": "東温市",
    "town": "南方"
  },
  "7910302": {
    "zipcode": "7910302",
    "prefectureCode": "38",
    "prefectureNumber": 38,
    "prefecture": "愛媛県",
    "city": "東温市",
    "town": "吉久"
  },
  "7910303": {
    "zipcode": "7910303",
    "prefectureCode": "38",
    "prefectureNumber": 38,
    "prefecture": "愛媛県",
    "city": "東温市",
    "town": "北方"
  },
  "7910311": {
    "zipcode": "7910311",
    "prefectureCode": "38",
    "prefectureNumber": 38,
    "prefecture": "愛媛県",
    "city": "東温市",
    "town": "則之内甲"
  },
  "7910312": {
    "zipcode": "7910312",
    "prefectureCode": "38",
    "prefectureNumber": 38,
    "prefecture": "愛媛県",
    "city": "東温市",
    "town": "則之内乙"
  },
  "7910313": {
    "zipcode": "7910313",
    "prefectureCode": "38",
    "prefectureNumber": 38,
    "prefecture": "愛媛県",
    "city": "東温市",
    "town": "則之内丙"
  },
  "7910314": {
    "zipcode": "7910314",
    "prefectureCode": "38",
    "prefectureNumber": 38,
    "prefecture": "愛媛県",
    "city": "東温市",
    "town": "松瀬川"
  },
  "7910315": {
    "zipcode": "7910315",
    "prefectureCode": "38",
    "prefectureNumber": 38,
    "prefecture": "愛媛県",
    "city": "東温市",
    "town": "井内"
  },
  "7910321": {
    "zipcode": "7910321",
    "prefectureCode": "38",
    "prefectureNumber": 38,
    "prefecture": "愛媛県",
    "city": "東温市",
    "town": "河之内"
  },
  "7910322": {
    "zipcode": "7910322",
    "prefectureCode": "38",
    "prefectureNumber": 38,
    "prefecture": "愛媛県",
    "city": "東温市",
    "town": "滑川"
  },
  "7910323": {
    "zipcode": "7910323",
    "prefectureCode": "38",
    "prefectureNumber": 38,
    "prefecture": "愛媛県",
    "city": "東温市",
    "town": "明河"
  },
  "7910501": {
    "zipcode": "7910501",
    "prefectureCode": "38",
    "prefectureNumber": 38,
    "prefecture": "愛媛県",
    "city": "西条市",
    "town": "丹原町徳能出作"
  },
  "7910502": {
    "zipcode": "7910502",
    "prefectureCode": "38",
    "prefectureNumber": 38,
    "prefecture": "愛媛県",
    "city": "西条市",
    "town": "丹原町願連寺"
  },
  "7910503": {
    "zipcode": "7910503",
    "prefectureCode": "38",
    "prefectureNumber": 38,
    "prefecture": "愛媛県",
    "city": "西条市",
    "town": "丹原町今井"
  },
  "7910504": {
    "zipcode": "7910504",
    "prefectureCode": "38",
    "prefectureNumber": 38,
    "prefecture": "愛媛県",
    "city": "西条市",
    "town": "丹原町久妙寺"
  },
  "7910505": {
    "zipcode": "7910505",
    "prefectureCode": "38",
    "prefectureNumber": 38,
    "prefecture": "愛媛県",
    "city": "西条市",
    "town": "丹原町古田"
  },
  "7910506": {
    "zipcode": "7910506",
    "prefectureCode": "38",
    "prefectureNumber": 38,
    "prefecture": "愛媛県",
    "city": "西条市",
    "town": "丹原町徳能"
  },
  "7910507": {
    "zipcode": "7910507",
    "prefectureCode": "38",
    "prefectureNumber": 38,
    "prefecture": "愛媛県",
    "city": "西条市",
    "town": "丹原町高知"
  },
  "7910508": {
    "zipcode": "7910508",
    "prefectureCode": "38",
    "prefectureNumber": 38,
    "prefecture": "愛媛県",
    "city": "西条市",
    "town": "丹原町池田"
  },
  "7910510": {
    "zipcode": "7910510",
    "prefectureCode": "38",
    "prefectureNumber": 38,
    "prefecture": "愛媛県",
    "city": "西条市",
    "town": "丹原町丹原"
  },
  "7910521": {
    "zipcode": "7910521",
    "prefectureCode": "38",
    "prefectureNumber": 38,
    "prefecture": "愛媛県",
    "city": "西条市",
    "town": "丹原町長野"
  },
  "7910522": {
    "zipcode": "7910522",
    "prefectureCode": "38",
    "prefectureNumber": 38,
    "prefecture": "愛媛県",
    "city": "西条市",
    "town": "丹原町田野上方"
  },
  "7910523": {
    "zipcode": "7910523",
    "prefectureCode": "38",
    "prefectureNumber": 38,
    "prefecture": "愛媛県",
    "city": "西条市",
    "town": "丹原町北田野"
  },
  "7910524": {
    "zipcode": "7910524",
    "prefectureCode": "38",
    "prefectureNumber": 38,
    "prefecture": "愛媛県",
    "city": "西条市",
    "town": "丹原町高松"
  },
  "7910525": {
    "zipcode": "7910525",
    "prefectureCode": "38",
    "prefectureNumber": 38,
    "prefecture": "愛媛県",
    "city": "西条市",
    "town": "丹原町川根"
  },
  "7910526": {
    "zipcode": "7910526",
    "prefectureCode": "38",
    "prefectureNumber": 38,
    "prefecture": "愛媛県",
    "city": "西条市",
    "town": "丹原町田滝"
  },
  "7910527": {
    "zipcode": "7910527",
    "prefectureCode": "38",
    "prefectureNumber": 38,
    "prefecture": "愛媛県",
    "city": "西条市",
    "town": "丹原町関屋"
  },
  "7910531": {
    "zipcode": "7910531",
    "prefectureCode": "38",
    "prefectureNumber": 38,
    "prefecture": "愛媛県",
    "city": "西条市",
    "town": "丹原町来見"
  },
  "7910532": {
    "zipcode": "7910532",
    "prefectureCode": "38",
    "prefectureNumber": 38,
    "prefecture": "愛媛県",
    "city": "西条市",
    "town": "丹原町石経"
  },
  "7910533": {
    "zipcode": "7910533",
    "prefectureCode": "38",
    "prefectureNumber": 38,
    "prefecture": "愛媛県",
    "city": "西条市",
    "town": "丹原町明穂"
  },
  "7910534": {
    "zipcode": "7910534",
    "prefectureCode": "38",
    "prefectureNumber": 38,
    "prefecture": "愛媛県",
    "city": "西条市",
    "town": "丹原町寺尾"
  },
  "7910535": {
    "zipcode": "7910535",
    "prefectureCode": "38",
    "prefectureNumber": 38,
    "prefecture": "愛媛県",
    "city": "西条市",
    "town": "丹原町志川"
  },
  "7910536": {
    "zipcode": "7910536",
    "prefectureCode": "38",
    "prefectureNumber": 38,
    "prefecture": "愛媛県",
    "city": "西条市",
    "town": "丹原町湯谷口"
  },
  "7910537": {
    "zipcode": "7910537",
    "prefectureCode": "38",
    "prefectureNumber": 38,
    "prefecture": "愛媛県",
    "city": "西条市",
    "town": "丹原町臼坂"
  },
  "7910538": {
    "zipcode": "7910538",
    "prefectureCode": "38",
    "prefectureNumber": 38,
    "prefecture": "愛媛県",
    "city": "西条市",
    "town": "丹原町千原"
  },
  "7910541": {
    "zipcode": "7910541",
    "prefectureCode": "38",
    "prefectureNumber": 38,
    "prefecture": "愛媛県",
    "city": "西条市",
    "town": "丹原町鞍瀬"
  },
  "7910542": {
    "zipcode": "7910542",
    "prefectureCode": "38",
    "prefectureNumber": 38,
    "prefecture": "愛媛県",
    "city": "西条市",
    "town": "丹原町楠窪"
  },
  "7910543": {
    "zipcode": "7910543",
    "prefectureCode": "38",
    "prefectureNumber": 38,
    "prefecture": "愛媛県",
    "city": "西条市",
    "town": "丹原町明河"
  },
  "7910562": {
    "zipcode": "7910562",
    "prefectureCode": "38",
    "prefectureNumber": 38,
    "prefecture": "愛媛県",
    "city": "西条市",
    "town": "小松町石鎚（上戸石）"
  },
  "7911101": {
    "zipcode": "7911101",
    "prefectureCode": "38",
    "prefectureNumber": 38,
    "prefecture": "愛媛県",
    "city": "松山市",
    "town": "久米窪田町"
  },
  "7911102": {
    "zipcode": "7911102",
    "prefectureCode": "38",
    "prefectureNumber": 38,
    "prefecture": "愛媛県",
    "city": "松山市",
    "town": "来住町"
  },
  "7911103": {
    "zipcode": "7911103",
    "prefectureCode": "38",
    "prefectureNumber": 38,
    "prefecture": "愛媛県",
    "city": "松山市",
    "town": "今在家町"
  },
  "7911104": {
    "zipcode": "7911104",
    "prefectureCode": "38",
    "prefectureNumber": 38,
    "prefecture": "愛媛県",
    "city": "松山市",
    "town": "北土居"
  },
  "7911105": {
    "zipcode": "7911105",
    "prefectureCode": "38",
    "prefectureNumber": 38,
    "prefecture": "愛媛県",
    "city": "松山市",
    "town": "北井門"
  },
  "7911106": {
    "zipcode": "7911106",
    "prefectureCode": "38",
    "prefectureNumber": 38,
    "prefecture": "愛媛県",
    "city": "松山市",
    "town": "今在家"
  },
  "7911111": {
    "zipcode": "7911111",
    "prefectureCode": "38",
    "prefectureNumber": 38,
    "prefecture": "愛媛県",
    "city": "松山市",
    "town": "高井町"
  },
  "7911112": {
    "zipcode": "7911112",
    "prefectureCode": "38",
    "prefectureNumber": 38,
    "prefecture": "愛媛県",
    "city": "松山市",
    "town": "南高井町"
  },
  "7911113": {
    "zipcode": "7911113",
    "prefectureCode": "38",
    "prefectureNumber": 38,
    "prefecture": "愛媛県",
    "city": "松山市",
    "town": "森松町"
  },
  "7911114": {
    "zipcode": "7911114",
    "prefectureCode": "38",
    "prefectureNumber": 38,
    "prefecture": "愛媛県",
    "city": "松山市",
    "town": "井門町"
  },
  "7911115": {
    "zipcode": "7911115",
    "prefectureCode": "38",
    "prefectureNumber": 38,
    "prefecture": "愛媛県",
    "city": "松山市",
    "town": "土居町"
  },
  "7911116": {
    "zipcode": "7911116",
    "prefectureCode": "38",
    "prefectureNumber": 38,
    "prefecture": "愛媛県",
    "city": "松山市",
    "town": "南土居町"
  },
  "7911121": {
    "zipcode": "7911121",
    "prefectureCode": "38",
    "prefectureNumber": 38,
    "prefecture": "愛媛県",
    "city": "松山市",
    "town": "中野町"
  },
  "7911122": {
    "zipcode": "7911122",
    "prefectureCode": "38",
    "prefectureNumber": 38,
    "prefecture": "愛媛県",
    "city": "松山市",
    "town": "津吉町"
  },
  "7911123": {
    "zipcode": "7911123",
    "prefectureCode": "38",
    "prefectureNumber": 38,
    "prefecture": "愛媛県",
    "city": "松山市",
    "town": "東方町"
  },
  "7911124": {
    "zipcode": "7911124",
    "prefectureCode": "38",
    "prefectureNumber": 38,
    "prefecture": "愛媛県",
    "city": "松山市",
    "town": "上川原町"
  },
  "7911125": {
    "zipcode": "7911125",
    "prefectureCode": "38",
    "prefectureNumber": 38,
    "prefecture": "愛媛県",
    "city": "松山市",
    "town": "小村町"
  },
  "7911126": {
    "zipcode": "7911126",
    "prefectureCode": "38",
    "prefectureNumber": 38,
    "prefecture": "愛媛県",
    "city": "松山市",
    "town": "大橋町"
  },
  "7911131": {
    "zipcode": "7911131",
    "prefectureCode": "38",
    "prefectureNumber": 38,
    "prefecture": "愛媛県",
    "city": "松山市",
    "town": "窪野町"
  },
  "7911132": {
    "zipcode": "7911132",
    "prefectureCode": "38",
    "prefectureNumber": 38,
    "prefecture": "愛媛県",
    "city": "松山市",
    "town": "久谷町"
  },
  "7911133": {
    "zipcode": "7911133",
    "prefectureCode": "38",
    "prefectureNumber": 38,
    "prefecture": "愛媛県",
    "city": "松山市",
    "town": "浄瑠璃町"
  },
  "7911134": {
    "zipcode": "7911134",
    "prefectureCode": "38",
    "prefectureNumber": 38,
    "prefecture": "愛媛県",
    "city": "松山市",
    "town": "恵原町"
  },
  "7911135": {
    "zipcode": "7911135",
    "prefectureCode": "38",
    "prefectureNumber": 38,
    "prefecture": "愛媛県",
    "city": "松山市",
    "town": "西野町"
  },
  "7911136": {
    "zipcode": "7911136",
    "prefectureCode": "38",
    "prefectureNumber": 38,
    "prefecture": "愛媛県",
    "city": "松山市",
    "town": "上野町"
  },
  "7911200": {
    "zipcode": "7911200",
    "prefectureCode": "38",
    "prefectureNumber": 38,
    "prefecture": "愛媛県",
    "city": "上浮穴郡久万高原町",
    "town": "以下に掲載がない場合"
  },
  "7911201": {
    "zipcode": "7911201",
    "prefectureCode": "38",
    "prefectureNumber": 38,
    "prefecture": "愛媛県",
    "city": "上浮穴郡久万高原町",
    "town": "久万"
  },
  "7911202": {
    "zipcode": "7911202",
    "prefectureCode": "38",
    "prefectureNumber": 38,
    "prefecture": "愛媛県",
    "city": "上浮穴郡久万高原町",
    "town": "入野"
  },
  "7911203": {
    "zipcode": "7911203",
    "prefectureCode": "38",
    "prefectureNumber": 38,
    "prefecture": "愛媛県",
    "city": "上浮穴郡久万高原町",
    "town": "西明神"
  },
  "7911204": {
    "zipcode": "7911204",
    "prefectureCode": "38",
    "prefectureNumber": 38,
    "prefecture": "愛媛県",
    "city": "上浮穴郡久万高原町",
    "town": "東明神"
  },
  "7911205": {
    "zipcode": "7911205",
    "prefectureCode": "38",
    "prefectureNumber": 38,
    "prefecture": "愛媛県",
    "city": "上浮穴郡久万高原町",
    "town": "菅生"
  },
  "7911206": {
    "zipcode": "7911206",
    "prefectureCode": "38",
    "prefectureNumber": 38,
    "prefecture": "愛媛県",
    "city": "上浮穴郡久万高原町",
    "town": "上野尻"
  },
  "7911207": {
    "zipcode": "7911207",
    "prefectureCode": "38",
    "prefectureNumber": 38,
    "prefecture": "愛媛県",
    "city": "上浮穴郡久万高原町",
    "town": "下野尻"
  },
  "7911211": {
    "zipcode": "7911211",
    "prefectureCode": "38",
    "prefectureNumber": 38,
    "prefecture": "愛媛県",
    "city": "上浮穴郡久万高原町",
    "town": "上畑野川"
  },
  "7911212": {
    "zipcode": "7911212",
    "prefectureCode": "38",
    "prefectureNumber": 38,
    "prefecture": "愛媛県",
    "city": "上浮穴郡久万高原町",
    "town": "下畑野川"
  },
  "7911213": {
    "zipcode": "7911213",
    "prefectureCode": "38",
    "prefectureNumber": 38,
    "prefecture": "愛媛県",
    "city": "上浮穴郡久万高原町",
    "town": "直瀬"
  },
  "7911221": {
    "zipcode": "7911221",
    "prefectureCode": "38",
    "prefectureNumber": 38,
    "prefecture": "愛媛県",
    "city": "上浮穴郡久万高原町",
    "town": "露峰"
  },
  "7911222": {
    "zipcode": "7911222",
    "prefectureCode": "38",
    "prefectureNumber": 38,
    "prefecture": "愛媛県",
    "city": "上浮穴郡久万高原町",
    "town": "二名"
  },
  "7911223": {
    "zipcode": "7911223",
    "prefectureCode": "38",
    "prefectureNumber": 38,
    "prefecture": "愛媛県",
    "city": "上浮穴郡久万高原町",
    "town": "父野川"
  },
  "7911501": {
    "zipcode": "7911501",
    "prefectureCode": "38",
    "prefectureNumber": 38,
    "prefecture": "愛媛県",
    "city": "上浮穴郡久万高原町",
    "town": "上黒岩"
  },
  "7911502": {
    "zipcode": "7911502",
    "prefectureCode": "38",
    "prefectureNumber": 38,
    "prefecture": "愛媛県",
    "city": "上浮穴郡久万高原町",
    "town": "中黒岩"
  },
  "7911503": {
    "zipcode": "7911503",
    "prefectureCode": "38",
    "prefectureNumber": 38,
    "prefecture": "愛媛県",
    "city": "上浮穴郡久万高原町",
    "town": "日野浦"
  },
  "7911504": {
    "zipcode": "7911504",
    "prefectureCode": "38",
    "prefectureNumber": 38,
    "prefecture": "愛媛県",
    "city": "上浮穴郡久万高原町",
    "town": "大川"
  },
  "7911505": {
    "zipcode": "7911505",
    "prefectureCode": "38",
    "prefectureNumber": 38,
    "prefecture": "愛媛県",
    "city": "上浮穴郡久万高原町",
    "town": "有枝"
  },
  "7911511": {
    "zipcode": "7911511",
    "prefectureCode": "38",
    "prefectureNumber": 38,
    "prefecture": "愛媛県",
    "city": "上浮穴郡久万高原町",
    "town": "七鳥"
  },
  "7911512": {
    "zipcode": "7911512",
    "prefectureCode": "38",
    "prefectureNumber": 38,
    "prefecture": "愛媛県",
    "city": "上浮穴郡久万高原町",
    "town": "東川"
  },
  "7911513": {
    "zipcode": "7911513",
    "prefectureCode": "38",
    "prefectureNumber": 38,
    "prefecture": "愛媛県",
    "city": "上浮穴郡久万高原町",
    "town": "仕出"
  },
  "7911514": {
    "zipcode": "7911514",
    "prefectureCode": "38",
    "prefectureNumber": 38,
    "prefecture": "愛媛県",
    "city": "上浮穴郡久万高原町",
    "town": "沢渡"
  },
  "7911515": {
    "zipcode": "7911515",
    "prefectureCode": "38",
    "prefectureNumber": 38,
    "prefecture": "愛媛県",
    "city": "上浮穴郡久万高原町",
    "town": "黒藤川"
  },
  "7911701": {
    "zipcode": "7911701",
    "prefectureCode": "38",
    "prefectureNumber": 38,
    "prefecture": "愛媛県",
    "city": "上浮穴郡久万高原町",
    "town": "渋草"
  },
  "7911702": {
    "zipcode": "7911702",
    "prefectureCode": "38",
    "prefectureNumber": 38,
    "prefecture": "愛媛県",
    "city": "上浮穴郡久万高原町",
    "town": "大成"
  },
  "7911703": {
    "zipcode": "7911703",
    "prefectureCode": "38",
    "prefectureNumber": 38,
    "prefecture": "愛媛県",
    "city": "上浮穴郡久万高原町",
    "town": "笠方"
  },
  "7911704": {
    "zipcode": "7911704",
    "prefectureCode": "38",
    "prefectureNumber": 38,
    "prefecture": "愛媛県",
    "city": "上浮穴郡久万高原町",
    "town": "前組"
  },
  "7911705": {
    "zipcode": "7911705",
    "prefectureCode": "38",
    "prefectureNumber": 38,
    "prefecture": "愛媛県",
    "city": "上浮穴郡久万高原町",
    "town": "相の峰"
  },
  "7911706": {
    "zipcode": "7911706",
    "prefectureCode": "38",
    "prefectureNumber": 38,
    "prefecture": "愛媛県",
    "city": "上浮穴郡久万高原町",
    "town": "本組"
  },
  "7911707": {
    "zipcode": "7911707",
    "prefectureCode": "38",
    "prefectureNumber": 38,
    "prefecture": "愛媛県",
    "city": "上浮穴郡久万高原町",
    "town": "中組"
  },
  "7911708": {
    "zipcode": "7911708",
    "prefectureCode": "38",
    "prefectureNumber": 38,
    "prefecture": "愛媛県",
    "city": "上浮穴郡久万高原町",
    "town": "河の子"
  },
  "7911709": {
    "zipcode": "7911709",
    "prefectureCode": "38",
    "prefectureNumber": 38,
    "prefecture": "愛媛県",
    "city": "上浮穴郡久万高原町",
    "town": "相の木"
  },
  "7911710": {
    "zipcode": "7911710",
    "prefectureCode": "38",
    "prefectureNumber": 38,
    "prefecture": "愛媛県",
    "city": "上浮穴郡久万高原町",
    "town": "若山"
  },
  "7911801": {
    "zipcode": "7911801",
    "prefectureCode": "38",
    "prefectureNumber": 38,
    "prefecture": "愛媛県",
    "city": "上浮穴郡久万高原町",
    "town": "柳井川"
  },
  "7911802": {
    "zipcode": "7911802",
    "prefectureCode": "38",
    "prefectureNumber": 38,
    "prefecture": "愛媛県",
    "city": "上浮穴郡久万高原町",
    "town": "西谷"
  },
  "7911803": {
    "zipcode": "7911803",
    "prefectureCode": "38",
    "prefectureNumber": 38,
    "prefecture": "愛媛県",
    "city": "上浮穴郡久万高原町",
    "town": "中津"
  },
  "7912100": {
    "zipcode": "7912100",
    "prefectureCode": "38",
    "prefectureNumber": 38,
    "prefecture": "愛媛県",
    "city": "伊予郡砥部町",
    "town": "以下に掲載がない場合"
  },
  "7912101": {
    "zipcode": "7912101",
    "prefectureCode": "38",
    "prefectureNumber": 38,
    "prefecture": "愛媛県",
    "city": "伊予郡砥部町",
    "town": "高尾田（その他）"
  },
  "7912102": {
    "zipcode": "7912102",
    "prefectureCode": "38",
    "prefectureNumber": 38,
    "prefecture": "愛媛県",
    "city": "伊予郡砥部町",
    "town": "高尾田（砥部団地）"
  },
  "7912103": {
    "zipcode": "7912103",
    "prefectureCode": "38",
    "prefectureNumber": 38,
    "prefecture": "愛媛県",
    "city": "伊予郡砥部町",
    "town": "高尾田（上野団地）"
  },
  "7912111": {
    "zipcode": "7912111",
    "prefectureCode": "38",
    "prefectureNumber": 38,
    "prefecture": "愛媛県",
    "city": "伊予郡砥部町",
    "town": "八倉"
  },
  "7912112": {
    "zipcode": "7912112",
    "prefectureCode": "38",
    "prefectureNumber": 38,
    "prefecture": "愛媛県",
    "city": "伊予郡砥部町",
    "town": "重光"
  },
  "7912113": {
    "zipcode": "7912113",
    "prefectureCode": "38",
    "prefectureNumber": 38,
    "prefecture": "愛媛県",
    "city": "伊予郡砥部町",
    "town": "拾町"
  },
  "7912114": {
    "zipcode": "7912114",
    "prefectureCode": "38",
    "prefectureNumber": 38,
    "prefecture": "愛媛県",
    "city": "伊予郡砥部町",
    "town": "麻生"
  },
  "7912115": {
    "zipcode": "7912115",
    "prefectureCode": "38",
    "prefectureNumber": 38,
    "prefecture": "愛媛県",
    "city": "伊予郡砥部町",
    "town": "三角"
  },
  "7912116": {
    "zipcode": "7912116",
    "prefectureCode": "38",
    "prefectureNumber": 38,
    "prefecture": "愛媛県",
    "city": "伊予郡砥部町",
    "town": "原町"
  },
  "7912117": {
    "zipcode": "7912117",
    "prefectureCode": "38",
    "prefectureNumber": 38,
    "prefecture": "愛媛県",
    "city": "伊予郡砥部町",
    "town": "上原町"
  },
  "7912120": {
    "zipcode": "7912120",
    "prefectureCode": "38",
    "prefectureNumber": 38,
    "prefecture": "愛媛県",
    "city": "伊予郡砥部町",
    "town": "宮内（その他）"
  },
  "7912121": {
    "zipcode": "7912121",
    "prefectureCode": "38",
    "prefectureNumber": 38,
    "prefecture": "愛媛県",
    "city": "伊予郡砥部町",
    "town": "宮内（山並）"
  },
  "7912122": {
    "zipcode": "7912122",
    "prefectureCode": "38",
    "prefectureNumber": 38,
    "prefecture": "愛媛県",
    "city": "伊予郡砥部町",
    "town": "千足"
  },
  "7912123": {
    "zipcode": "7912123",
    "prefectureCode": "38",
    "prefectureNumber": 38,
    "prefecture": "愛媛県",
    "city": "伊予郡砥部町",
    "town": "川井"
  },
  "7912124": {
    "zipcode": "7912124",
    "prefectureCode": "38",
    "prefectureNumber": 38,
    "prefecture": "愛媛県",
    "city": "伊予郡砥部町",
    "town": "田ノ浦"
  },
  "7912125": {
    "zipcode": "7912125",
    "prefectureCode": "38",
    "prefectureNumber": 38,
    "prefecture": "愛媛県",
    "city": "伊予郡砥部町",
    "town": "七折"
  },
  "7912126": {
    "zipcode": "7912126",
    "prefectureCode": "38",
    "prefectureNumber": 38,
    "prefecture": "愛媛県",
    "city": "伊予郡砥部町",
    "town": "大角蔵"
  },
  "7912131": {
    "zipcode": "7912131",
    "prefectureCode": "38",
    "prefectureNumber": 38,
    "prefecture": "愛媛県",
    "city": "伊予郡砥部町",
    "town": "北川毛"
  },
  "7912132": {
    "zipcode": "7912132",
    "prefectureCode": "38",
    "prefectureNumber": 38,
    "prefecture": "愛媛県",
    "city": "伊予郡砥部町",
    "town": "大南"
  },
  "7912133": {
    "zipcode": "7912133",
    "prefectureCode": "38",
    "prefectureNumber": 38,
    "prefecture": "愛媛県",
    "city": "伊予郡砥部町",
    "town": "五本松"
  },
  "7912134": {
    "zipcode": "7912134",
    "prefectureCode": "38",
    "prefectureNumber": 38,
    "prefecture": "愛媛県",
    "city": "伊予郡砥部町",
    "town": "外山"
  },
  "7912135": {
    "zipcode": "7912135",
    "prefectureCode": "38",
    "prefectureNumber": 38,
    "prefecture": "愛媛県",
    "city": "伊予郡砥部町",
    "town": "鵜ノ崎"
  },
  "7912141": {
    "zipcode": "7912141",
    "prefectureCode": "38",
    "prefectureNumber": 38,
    "prefecture": "愛媛県",
    "city": "伊予郡砥部町",
    "town": "岩谷口"
  },
  "7912142": {
    "zipcode": "7912142",
    "prefectureCode": "38",
    "prefectureNumber": 38,
    "prefecture": "愛媛県",
    "city": "伊予郡砥部町",
    "town": "岩谷"
  },
  "7912143": {
    "zipcode": "7912143",
    "prefectureCode": "38",
    "prefectureNumber": 38,
    "prefecture": "愛媛県",
    "city": "伊予郡砥部町",
    "town": "川登"
  },
  "7912144": {
    "zipcode": "7912144",
    "prefectureCode": "38",
    "prefectureNumber": 38,
    "prefecture": "愛媛県",
    "city": "伊予郡砥部町",
    "town": "万年"
  },
  "7912145": {
    "zipcode": "7912145",
    "prefectureCode": "38",
    "prefectureNumber": 38,
    "prefecture": "愛媛県",
    "city": "伊予郡砥部町",
    "town": "大平"
  },
  "7912201": {
    "zipcode": "7912201",
    "prefectureCode": "38",
    "prefectureNumber": 38,
    "prefecture": "愛媛県",
    "city": "伊予郡砥部町",
    "town": "満穂"
  },
  "7912202": {
    "zipcode": "7912202",
    "prefectureCode": "38",
    "prefectureNumber": 38,
    "prefecture": "愛媛県",
    "city": "伊予郡砥部町",
    "town": "玉谷"
  },
  "7912203": {
    "zipcode": "7912203",
    "prefectureCode": "38",
    "prefectureNumber": 38,
    "prefecture": "愛媛県",
    "city": "伊予郡砥部町",
    "town": "中野川"
  },
  "7912204": {
    "zipcode": "7912204",
    "prefectureCode": "38",
    "prefectureNumber": 38,
    "prefecture": "愛媛県",
    "city": "伊予郡砥部町",
    "town": "高市"
  },
  "7912205": {
    "zipcode": "7912205",
    "prefectureCode": "38",
    "prefectureNumber": 38,
    "prefecture": "愛媛県",
    "city": "伊予郡砥部町",
    "town": "総津"
  },
  "7912206": {
    "zipcode": "7912206",
    "prefectureCode": "38",
    "prefectureNumber": 38,
    "prefecture": "愛媛県",
    "city": "伊予郡砥部町",
    "town": "多居谷"
  },
  "7912207": {
    "zipcode": "7912207",
    "prefectureCode": "38",
    "prefectureNumber": 38,
    "prefecture": "愛媛県",
    "city": "伊予郡砥部町",
    "town": "仙波"
  },
  "7913100": {
    "zipcode": "7913100",
    "prefectureCode": "38",
    "prefectureNumber": 38,
    "prefecture": "愛媛県",
    "city": "伊予郡松前町",
    "town": "以下に掲載がない場合"
  },
  "7913101": {
    "zipcode": "7913101",
    "prefectureCode": "38",
    "prefectureNumber": 38,
    "prefecture": "愛媛県",
    "city": "伊予郡松前町",
    "town": "南黒田"
  },
  "7913102": {
    "zipcode": "7913102",
    "prefectureCode": "38",
    "prefectureNumber": 38,
    "prefecture": "愛媛県",
    "city": "伊予郡松前町",
    "town": "北黒田"
  },
  "7913110": {
    "zipcode": "7913110",
    "prefectureCode": "38",
    "prefectureNumber": 38,
    "prefecture": "愛媛県",
    "city": "伊予郡松前町",
    "town": "浜"
  },
  "7913120": {
    "zipcode": "7913120",
    "prefectureCode": "38",
    "prefectureNumber": 38,
    "prefecture": "愛媛県",
    "city": "伊予郡松前町",
    "town": "筒井"
  },
  "7913131": {
    "zipcode": "7913131",
    "prefectureCode": "38",
    "prefectureNumber": 38,
    "prefecture": "愛媛県",
    "city": "伊予郡松前町",
    "town": "北川原"
  },
  "7913132": {
    "zipcode": "7913132",
    "prefectureCode": "38",
    "prefectureNumber": 38,
    "prefecture": "愛媛県",
    "city": "伊予郡松前町",
    "town": "西高柳"
  },
  "7913133": {
    "zipcode": "7913133",
    "prefectureCode": "38",
    "prefectureNumber": 38,
    "prefecture": "愛媛県",
    "city": "伊予郡松前町",
    "town": "昌農内"
  },
  "7913134": {
    "zipcode": "7913134",
    "prefectureCode": "38",
    "prefectureNumber": 38,
    "prefecture": "愛媛県",
    "city": "伊予郡松前町",
    "town": "西古泉"
  },
  "7913141": {
    "zipcode": "7913141",
    "prefectureCode": "38",
    "prefectureNumber": 38,
    "prefecture": "愛媛県",
    "city": "伊予郡松前町",
    "town": "恵久美"
  },
  "7913142": {
    "zipcode": "7913142",
    "prefectureCode": "38",
    "prefectureNumber": 38,
    "prefecture": "愛媛県",
    "city": "伊予郡松前町",
    "town": "上高柳"
  },
  "7913143": {
    "zipcode": "7913143",
    "prefectureCode": "38",
    "prefectureNumber": 38,
    "prefecture": "愛媛県",
    "city": "伊予郡松前町",
    "town": "大間"
  },
  "7913151": {
    "zipcode": "7913151",
    "prefectureCode": "38",
    "prefectureNumber": 38,
    "prefecture": "愛媛県",
    "city": "伊予郡松前町",
    "town": "東古泉"
  },
  "7913152": {
    "zipcode": "7913152",
    "prefectureCode": "38",
    "prefectureNumber": 38,
    "prefecture": "愛媛県",
    "city": "伊予郡松前町",
    "town": "永田"
  },
  "7913153": {
    "zipcode": "7913153",
    "prefectureCode": "38",
    "prefectureNumber": 38,
    "prefecture": "愛媛県",
    "city": "伊予郡松前町",
    "town": "大溝"
  },
  "7913154": {
    "zipcode": "7913154",
    "prefectureCode": "38",
    "prefectureNumber": 38,
    "prefecture": "愛媛県",
    "city": "伊予郡松前町",
    "town": "横田"
  },
  "7913155": {
    "zipcode": "7913155",
    "prefectureCode": "38",
    "prefectureNumber": 38,
    "prefecture": "愛媛県",
    "city": "伊予郡松前町",
    "town": "鶴吉"
  },
  "7913161": {
    "zipcode": "7913161",
    "prefectureCode": "38",
    "prefectureNumber": 38,
    "prefecture": "愛媛県",
    "city": "伊予郡松前町",
    "town": "神崎"
  },
  "7913162": {
    "zipcode": "7913162",
    "prefectureCode": "38",
    "prefectureNumber": 38,
    "prefecture": "愛媛県",
    "city": "伊予郡松前町",
    "town": "出作"
  },
  "7913163": {
    "zipcode": "7913163",
    "prefectureCode": "38",
    "prefectureNumber": 38,
    "prefecture": "愛媛県",
    "city": "伊予郡松前町",
    "town": "徳丸"
  },
  "7913164": {
    "zipcode": "7913164",
    "prefectureCode": "38",
    "prefectureNumber": 38,
    "prefecture": "愛媛県",
    "city": "伊予郡松前町",
    "town": "中川原"
  },
  "7913201": {
    "zipcode": "7913201",
    "prefectureCode": "38",
    "prefectureNumber": 38,
    "prefecture": "愛媛県",
    "city": "伊予市",
    "town": "中山町佐礼谷"
  },
  "7913202": {
    "zipcode": "7913202",
    "prefectureCode": "38",
    "prefectureNumber": 38,
    "prefecture": "愛媛県",
    "city": "伊予市",
    "town": "中山町栗田"
  },
  "7913203": {
    "zipcode": "7913203",
    "prefectureCode": "38",
    "prefectureNumber": 38,
    "prefecture": "愛媛県",
    "city": "伊予市",
    "town": "中山町出渕（豊岡・東町）"
  },
  "7913204": {
    "zipcode": "7913204",
    "prefectureCode": "38",
    "prefectureNumber": 38,
    "prefecture": "愛媛県",
    "city": "伊予市",
    "town": "中山町出渕（その他）"
  },
  "7913205": {
    "zipcode": "7913205",
    "prefectureCode": "38",
    "prefectureNumber": 38,
    "prefecture": "愛媛県",
    "city": "伊予市",
    "town": "中山町中山（泉町）"
  },
  "7913206": {
    "zipcode": "7913206",
    "prefectureCode": "38",
    "prefectureNumber": 38,
    "prefecture": "愛媛県",
    "city": "伊予市",
    "town": "中山町中山（その他）"
  },
  "7913300": {
    "zipcode": "7913300",
    "prefectureCode": "38",
    "prefectureNumber": 38,
    "prefecture": "愛媛県",
    "city": "喜多郡内子町",
    "town": "以下に掲載がない場合"
  },
  "7913301": {
    "zipcode": "7913301",
    "prefectureCode": "38",
    "prefectureNumber": 38,
    "prefecture": "愛媛県",
    "city": "喜多郡内子町",
    "town": "内子"
  },
  "7913310": {
    "zipcode": "7913310",
    "prefectureCode": "38",
    "prefectureNumber": 38,
    "prefecture": "愛媛県",
    "city": "喜多郡内子町",
    "town": "城廻"
  },
  "7913321": {
    "zipcode": "7913321",
    "prefectureCode": "38",
    "prefectureNumber": 38,
    "prefecture": "愛媛県",
    "city": "喜多郡内子町",
    "town": "川中"
  },
  "7913322": {
    "zipcode": "7913322",
    "prefectureCode": "38",
    "prefectureNumber": 38,
    "prefecture": "愛媛県",
    "city": "喜多郡内子町",
    "town": "知清"
  },
  "7913331": {
    "zipcode": "7913331",
    "prefectureCode": "38",
    "prefectureNumber": 38,
    "prefecture": "愛媛県",
    "city": "喜多郡内子町",
    "town": "立山"
  },
  "7913332": {
    "zipcode": "7913332",
    "prefectureCode": "38",
    "prefectureNumber": 38,
    "prefecture": "愛媛県",
    "city": "喜多郡内子町",
    "town": "袋口"
  },
  "7913341": {
    "zipcode": "7913341",
    "prefectureCode": "38",
    "prefectureNumber": 38,
    "prefecture": "愛媛県",
    "city": "喜多郡内子町",
    "town": "論田"
  },
  "7913342": {
    "zipcode": "7913342",
    "prefectureCode": "38",
    "prefectureNumber": 38,
    "prefecture": "愛媛県",
    "city": "喜多郡内子町",
    "town": "河内"
  },
  "7913343": {
    "zipcode": "7913343",
    "prefectureCode": "38",
    "prefectureNumber": 38,
    "prefecture": "愛媛県",
    "city": "喜多郡内子町",
    "town": "石畳"
  },
  "7913351": {
    "zipcode": "7913351",
    "prefectureCode": "38",
    "prefectureNumber": 38,
    "prefecture": "愛媛県",
    "city": "喜多郡内子町",
    "town": "五百木"
  },
  "7913352": {
    "zipcode": "7913352",
    "prefectureCode": "38",
    "prefectureNumber": 38,
    "prefecture": "愛媛県",
    "city": "喜多郡内子町",
    "town": "村前"
  },
  "7913360": {
    "zipcode": "7913360",
    "prefectureCode": "38",
    "prefectureNumber": 38,
    "prefecture": "愛媛県",
    "city": "喜多郡内子町",
    "town": "大瀬"
  },
  "7913361": {
    "zipcode": "7913361",
    "prefectureCode": "38",
    "prefectureNumber": 38,
    "prefecture": "愛媛県",
    "city": "喜多郡内子町",
    "town": "大瀬中央（鵜川、大久保、乙成、中野、本町１〜３）"
  },
  "7913362": {
    "zipcode": "7913362",
    "prefectureCode": "38",
    "prefectureNumber": 38,
    "prefecture": "愛媛県",
    "city": "喜多郡内子町",
    "town": "大瀬北（乙影山、熊の滝、甲影山、程内）"
  },
  "7913363": {
    "zipcode": "7913363",
    "prefectureCode": "38",
    "prefectureNumber": 38,
    "prefecture": "愛媛県",
    "city": "喜多郡内子町",
    "town": "大瀬東"
  },
  "7913364": {
    "zipcode": "7913364",
    "prefectureCode": "38",
    "prefectureNumber": 38,
    "prefecture": "愛媛県",
    "city": "喜多郡内子町",
    "town": "大瀬南"
  },
  "7913501": {
    "zipcode": "7913501",
    "prefectureCode": "38",
    "prefectureNumber": 38,
    "prefecture": "愛媛県",
    "city": "喜多郡内子町",
    "town": "小田"
  },
  "7913502": {
    "zipcode": "7913502",
    "prefectureCode": "38",
    "prefectureNumber": 38,
    "prefecture": "愛媛県",
    "city": "喜多郡内子町",
    "town": "寺村"
  },
  "7913503": {
    "zipcode": "7913503",
    "prefectureCode": "38",
    "prefectureNumber": 38,
    "prefecture": "愛媛県",
    "city": "喜多郡内子町",
    "town": "日野川"
  },
  "7913504": {
    "zipcode": "7913504",
    "prefectureCode": "38",
    "prefectureNumber": 38,
    "prefecture": "愛媛県",
    "city": "喜多郡内子町",
    "town": "大平"
  },
  "7913505": {
    "zipcode": "7913505",
    "prefectureCode": "38",
    "prefectureNumber": 38,
    "prefecture": "愛媛県",
    "city": "喜多郡内子町",
    "town": "立石"
  },
  "7913506": {
    "zipcode": "7913506",
    "prefectureCode": "38",
    "prefectureNumber": 38,
    "prefecture": "愛媛県",
    "city": "喜多郡内子町",
    "town": "南山"
  },
  "7913511": {
    "zipcode": "7913511",
    "prefectureCode": "38",
    "prefectureNumber": 38,
    "prefecture": "愛媛県",
    "city": "喜多郡内子町",
    "town": "吉野川"
  },
  "7913512": {
    "zipcode": "7913512",
    "prefectureCode": "38",
    "prefectureNumber": 38,
    "prefecture": "愛媛県",
    "city": "喜多郡内子町",
    "town": "中田渡"
  },
  "7913513": {
    "zipcode": "7913513",
    "prefectureCode": "38",
    "prefectureNumber": 38,
    "prefecture": "愛媛県",
    "city": "喜多郡内子町",
    "town": "上田渡"
  },
  "7913514": {
    "zipcode": "7913514",
    "prefectureCode": "38",
    "prefectureNumber": 38,
    "prefecture": "愛媛県",
    "city": "喜多郡内子町",
    "town": "臼杵"
  },
  "7913521": {
    "zipcode": "7913521",
    "prefectureCode": "38",
    "prefectureNumber": 38,
    "prefecture": "愛媛県",
    "city": "喜多郡内子町",
    "town": "本川"
  },
  "7913522": {
    "zipcode": "7913522",
    "prefectureCode": "38",
    "prefectureNumber": 38,
    "prefecture": "愛媛県",
    "city": "喜多郡内子町",
    "town": "中川"
  },
  "7913523": {
    "zipcode": "7913523",
    "prefectureCode": "38",
    "prefectureNumber": 38,
    "prefecture": "愛媛県",
    "city": "喜多郡内子町",
    "town": "上川"
  },
  "7913524": {
    "zipcode": "7913524",
    "prefectureCode": "38",
    "prefectureNumber": 38,
    "prefecture": "愛媛県",
    "city": "喜多郡内子町",
    "town": "小田深山"
  },
  "7914321": {
    "zipcode": "7914321",
    "prefectureCode": "38",
    "prefectureNumber": 38,
    "prefecture": "愛媛県",
    "city": "松山市",
    "town": "元怒和"
  },
  "7914322": {
    "zipcode": "7914322",
    "prefectureCode": "38",
    "prefectureNumber": 38,
    "prefecture": "愛媛県",
    "city": "松山市",
    "town": "上怒和"
  },
  "7914323": {
    "zipcode": "7914323",
    "prefectureCode": "38",
    "prefectureNumber": 38,
    "prefecture": "愛媛県",
    "city": "松山市",
    "town": "二神"
  },
  "7914324": {
    "zipcode": "7914324",
    "prefectureCode": "38",
    "prefectureNumber": 38,
    "prefecture": "愛媛県",
    "city": "松山市",
    "town": "津和地"
  },
  "7914431": {
    "zipcode": "7914431",
    "prefectureCode": "38",
    "prefectureNumber": 38,
    "prefecture": "愛媛県",
    "city": "松山市",
    "town": "睦月"
  },
  "7914432": {
    "zipcode": "7914432",
    "prefectureCode": "38",
    "prefectureNumber": 38,
    "prefecture": "愛媛県",
    "city": "松山市",
    "town": "野忽那"
  },
  "7914501": {
    "zipcode": "7914501",
    "prefectureCode": "38",
    "prefectureNumber": 38,
    "prefecture": "愛媛県",
    "city": "松山市",
    "town": "中島大浦"
  },
  "7914502": {
    "zipcode": "7914502",
    "prefectureCode": "38",
    "prefectureNumber": 38,
    "prefecture": "愛媛県",
    "city": "松山市",
    "town": "小浜"
  },
  "7914503": {
    "zipcode": "7914503",
    "prefectureCode": "38",
    "prefectureNumber": 38,
    "prefecture": "愛媛県",
    "city": "松山市",
    "town": "長師"
  },
  "7914504": {
    "zipcode": "7914504",
    "prefectureCode": "38",
    "prefectureNumber": 38,
    "prefecture": "愛媛県",
    "city": "松山市",
    "town": "宮野"
  },
  "7914505": {
    "zipcode": "7914505",
    "prefectureCode": "38",
    "prefectureNumber": 38,
    "prefecture": "愛媛県",
    "city": "松山市",
    "town": "神浦"
  },
  "7914506": {
    "zipcode": "7914506",
    "prefectureCode": "38",
    "prefectureNumber": 38,
    "prefecture": "愛媛県",
    "city": "松山市",
    "town": "宇和間"
  },
  "7914507": {
    "zipcode": "7914507",
    "prefectureCode": "38",
    "prefectureNumber": 38,
    "prefecture": "愛媛県",
    "city": "松山市",
    "town": "熊田"
  },
  "7914508": {
    "zipcode": "7914508",
    "prefectureCode": "38",
    "prefectureNumber": 38,
    "prefecture": "愛媛県",
    "city": "松山市",
    "town": "吉木"
  },
  "7914509": {
    "zipcode": "7914509",
    "prefectureCode": "38",
    "prefectureNumber": 38,
    "prefecture": "愛媛県",
    "city": "松山市",
    "town": "饒"
  },
  "7914510": {
    "zipcode": "7914510",
    "prefectureCode": "38",
    "prefectureNumber": 38,
    "prefecture": "愛媛県",
    "city": "松山市",
    "town": "畑里"
  },
  "7914511": {
    "zipcode": "7914511",
    "prefectureCode": "38",
    "prefectureNumber": 38,
    "prefecture": "愛媛県",
    "city": "松山市",
    "town": "中島粟井"
  },
  "7918001": {
    "zipcode": "7918001",
    "prefectureCode": "38",
    "prefectureNumber": 38,
    "prefecture": "愛媛県",
    "city": "松山市",
    "town": "平田町"
  },
  "7918002": {
    "zipcode": "7918002",
    "prefectureCode": "38",
    "prefectureNumber": 38,
    "prefecture": "愛媛県",
    "city": "松山市",
    "town": "谷町"
  },
  "7918003": {
    "zipcode": "7918003",
    "prefectureCode": "38",
    "prefectureNumber": 38,
    "prefecture": "愛媛県",
    "city": "松山市",
    "town": "志津川町"
  },
  "7918004": {
    "zipcode": "7918004",
    "prefectureCode": "38",
    "prefectureNumber": 38,
    "prefecture": "愛媛県",
    "city": "松山市",
    "town": "鴨川"
  },
  "7918005": {
    "zipcode": "7918005",
    "prefectureCode": "38",
    "prefectureNumber": 38,
    "prefecture": "愛媛県",
    "city": "松山市",
    "town": "東長戸"
  },
  "7918006": {
    "zipcode": "7918006",
    "prefectureCode": "38",
    "prefectureNumber": 38,
    "prefecture": "愛媛県",
    "city": "松山市",
    "town": "安城寺町"
  },
  "7918007": {
    "zipcode": "7918007",
    "prefectureCode": "38",
    "prefectureNumber": 38,
    "prefecture": "愛媛県",
    "city": "松山市",
    "town": "高木町"
  },
  "7918011": {
    "zipcode": "7918011",
    "prefectureCode": "38",
    "prefectureNumber": 38,
    "prefecture": "愛媛県",
    "city": "松山市",
    "town": "吉藤"
  },
  "7918012": {
    "zipcode": "7918012",
    "prefectureCode": "38",
    "prefectureNumber": 38,
    "prefecture": "愛媛県",
    "city": "松山市",
    "town": "姫原"
  },
  "7918013": {
    "zipcode": "7918013",
    "prefectureCode": "38",
    "prefectureNumber": 38,
    "prefecture": "愛媛県",
    "city": "松山市",
    "town": "山越（丁目）"
  },
  "7918014": {
    "zipcode": "7918014",
    "prefectureCode": "38",
    "prefectureNumber": 38,
    "prefecture": "愛媛県",
    "city": "松山市",
    "town": "山越町"
  },
  "7918015": {
    "zipcode": "7918015",
    "prefectureCode": "38",
    "prefectureNumber": 38,
    "prefecture": "愛媛県",
    "city": "松山市",
    "town": "中央"
  },
  "7918016": {
    "zipcode": "7918016",
    "prefectureCode": "38",
    "prefectureNumber": 38,
    "prefecture": "愛媛県",
    "city": "松山市",
    "town": "久万ノ台"
  },
  "7918017": {
    "zipcode": "7918017",
    "prefectureCode": "38",
    "prefectureNumber": 38,
    "prefecture": "愛媛県",
    "city": "松山市",
    "town": "西長戸町"
  },
  "7918018": {
    "zipcode": "7918018",
    "prefectureCode": "38",
    "prefectureNumber": 38,
    "prefecture": "愛媛県",
    "city": "松山市",
    "town": "問屋町"
  },
  "7918019": {
    "zipcode": "7918019",
    "prefectureCode": "38",
    "prefectureNumber": 38,
    "prefecture": "愛媛県",
    "city": "松山市",
    "town": "青葉台"
  },
  "7918021": {
    "zipcode": "7918021",
    "prefectureCode": "38",
    "prefectureNumber": 38,
    "prefecture": "愛媛県",
    "city": "松山市",
    "town": "六軒家町"
  },
  "7918022": {
    "zipcode": "7918022",
    "prefectureCode": "38",
    "prefectureNumber": 38,
    "prefecture": "愛媛県",
    "city": "松山市",
    "town": "美沢"
  },
  "7918023": {
    "zipcode": "7918023",
    "prefectureCode": "38",
    "prefectureNumber": 38,
    "prefecture": "愛媛県",
    "city": "松山市",
    "town": "朝美"
  },
  "7918024": {
    "zipcode": "7918024",
    "prefectureCode": "38",
    "prefectureNumber": 38,
    "prefecture": "愛媛県",
    "city": "松山市",
    "town": "朝日ケ丘"
  },
  "7918025": {
    "zipcode": "7918025",
    "prefectureCode": "38",
    "prefectureNumber": 38,
    "prefecture": "愛媛県",
    "city": "松山市",
    "town": "衣山"
  },
  "7918026": {
    "zipcode": "7918026",
    "prefectureCode": "38",
    "prefectureNumber": 38,
    "prefecture": "愛媛県",
    "city": "松山市",
    "town": "山西町"
  },
  "7918027": {
    "zipcode": "7918027",
    "prefectureCode": "38",
    "prefectureNumber": 38,
    "prefecture": "愛媛県",
    "city": "松山市",
    "town": "明神丘"
  },
  "7918031": {
    "zipcode": "7918031",
    "prefectureCode": "38",
    "prefectureNumber": 38,
    "prefecture": "愛媛県",
    "city": "松山市",
    "town": "北斎院町"
  },
  "7918032": {
    "zipcode": "7918032",
    "prefectureCode": "38",
    "prefectureNumber": 38,
    "prefecture": "愛媛県",
    "city": "松山市",
    "town": "南斎院町"
  },
  "7918034": {
    "zipcode": "7918034",
    "prefectureCode": "38",
    "prefectureNumber": 38,
    "prefecture": "愛媛県",
    "city": "松山市",
    "town": "富久町"
  },
  "7918035": {
    "zipcode": "7918035",
    "prefectureCode": "38",
    "prefectureNumber": 38,
    "prefecture": "愛媛県",
    "city": "松山市",
    "town": "久保田町"
  },
  "7918036": {
    "zipcode": "7918036",
    "prefectureCode": "38",
    "prefectureNumber": 38,
    "prefecture": "愛媛県",
    "city": "松山市",
    "town": "高岡町"
  },
  "7918041": {
    "zipcode": "7918041",
    "prefectureCode": "38",
    "prefectureNumber": 38,
    "prefecture": "愛媛県",
    "city": "松山市",
    "town": "北吉田町"
  },
  "7918042": {
    "zipcode": "7918042",
    "prefectureCode": "38",
    "prefectureNumber": 38,
    "prefecture": "愛媛県",
    "city": "松山市",
    "town": "南吉田町"
  },
  "7918043": {
    "zipcode": "7918043",
    "prefectureCode": "38",
    "prefectureNumber": 38,
    "prefecture": "愛媛県",
    "city": "松山市",
    "town": "東垣生町"
  },
  "7918044": {
    "zipcode": "7918044",
    "prefectureCode": "38",
    "prefectureNumber": 38,
    "prefecture": "愛媛県",
    "city": "松山市",
    "town": "西垣生町"
  },
  "7918051": {
    "zipcode": "7918051",
    "prefectureCode": "38",
    "prefectureNumber": 38,
    "prefecture": "愛媛県",
    "city": "松山市",
    "town": "梅田町"
  },
  "7918052": {
    "zipcode": "7918052",
    "prefectureCode": "38",
    "prefectureNumber": 38,
    "prefecture": "愛媛県",
    "city": "松山市",
    "town": "須賀町"
  },
  "7918053": {
    "zipcode": "7918053",
    "prefectureCode": "38",
    "prefectureNumber": 38,
    "prefecture": "愛媛県",
    "city": "松山市",
    "town": "若葉町"
  },
  "7918054": {
    "zipcode": "7918054",
    "prefectureCode": "38",
    "prefectureNumber": 38,
    "prefecture": "愛媛県",
    "city": "松山市",
    "town": "松江町"
  },
  "7918055": {
    "zipcode": "7918055",
    "prefectureCode": "38",
    "prefectureNumber": 38,
    "prefecture": "愛媛県",
    "city": "松山市",
    "town": "清住"
  },
  "7918056": {
    "zipcode": "7918056",
    "prefectureCode": "38",
    "prefectureNumber": 38,
    "prefecture": "愛媛県",
    "city": "松山市",
    "town": "別府町"
  },
  "7918057": {
    "zipcode": "7918057",
    "prefectureCode": "38",
    "prefectureNumber": 38,
    "prefecture": "愛媛県",
    "city": "松山市",
    "town": "大可賀"
  },
  "7918058": {
    "zipcode": "7918058",
    "prefectureCode": "38",
    "prefectureNumber": 38,
    "prefecture": "愛媛県",
    "city": "松山市",
    "town": "海岸通"
  },
  "7918060": {
    "zipcode": "7918060",
    "prefectureCode": "38",
    "prefectureNumber": 38,
    "prefecture": "愛媛県",
    "city": "松山市",
    "town": "三津ふ頭"
  },
  "7918061": {
    "zipcode": "7918061",
    "prefectureCode": "38",
    "prefectureNumber": 38,
    "prefecture": "愛媛県",
    "city": "松山市",
    "town": "三津"
  },
  "7918062": {
    "zipcode": "7918062",
    "prefectureCode": "38",
    "prefectureNumber": 38,
    "prefecture": "愛媛県",
    "city": "松山市",
    "town": "住吉"
  },
  "7918063": {
    "zipcode": "7918063",
    "prefectureCode": "38",
    "prefectureNumber": 38,
    "prefecture": "愛媛県",
    "city": "松山市",
    "town": "神田町"
  },
  "7918064": {
    "zipcode": "7918064",
    "prefectureCode": "38",
    "prefectureNumber": 38,
    "prefecture": "愛媛県",
    "city": "松山市",
    "town": "元町"
  },
  "7918065": {
    "zipcode": "7918065",
    "prefectureCode": "38",
    "prefectureNumber": 38,
    "prefecture": "愛媛県",
    "city": "松山市",
    "town": "三杉町"
  },
  "7918066": {
    "zipcode": "7918066",
    "prefectureCode": "38",
    "prefectureNumber": 38,
    "prefecture": "愛媛県",
    "city": "松山市",
    "town": "祓川"
  },
  "7918067": {
    "zipcode": "7918067",
    "prefectureCode": "38",
    "prefectureNumber": 38,
    "prefecture": "愛媛県",
    "city": "松山市",
    "town": "古三津町"
  },
  "7918068": {
    "zipcode": "7918068",
    "prefectureCode": "38",
    "prefectureNumber": 38,
    "prefecture": "愛媛県",
    "city": "松山市",
    "town": "みどりケ丘"
  },
  "7918069": {
    "zipcode": "7918069",
    "prefectureCode": "38",
    "prefectureNumber": 38,
    "prefecture": "愛媛県",
    "city": "松山市",
    "town": "吉野町"
  },
  "7918071": {
    "zipcode": "7918071",
    "prefectureCode": "38",
    "prefectureNumber": 38,
    "prefecture": "愛媛県",
    "city": "松山市",
    "town": "松ノ木"
  },
  "7918072": {
    "zipcode": "7918072",
    "prefectureCode": "38",
    "prefectureNumber": 38,
    "prefecture": "愛媛県",
    "city": "松山市",
    "town": "桜ケ丘"
  },
  "7918073": {
    "zipcode": "7918073",
    "prefectureCode": "38",
    "prefectureNumber": 38,
    "prefecture": "愛媛県",
    "city": "松山市",
    "town": "船ケ谷町"
  },
  "7918074": {
    "zipcode": "7918074",
    "prefectureCode": "38",
    "prefectureNumber": 38,
    "prefecture": "愛媛県",
    "city": "松山市",
    "town": "東山町"
  },
  "7918075": {
    "zipcode": "7918075",
    "prefectureCode": "38",
    "prefectureNumber": 38,
    "prefecture": "愛媛県",
    "city": "松山市",
    "town": "ひばりケ丘"
  },
  "7918076": {
    "zipcode": "7918076",
    "prefectureCode": "38",
    "prefectureNumber": 38,
    "prefecture": "愛媛県",
    "city": "松山市",
    "town": "会津町"
  },
  "7918077": {
    "zipcode": "7918077",
    "prefectureCode": "38",
    "prefectureNumber": 38,
    "prefecture": "愛媛県",
    "city": "松山市",
    "town": "内浜町"
  },
  "7918078": {
    "zipcode": "7918078",
    "prefectureCode": "38",
    "prefectureNumber": 38,
    "prefecture": "愛媛県",
    "city": "松山市",
    "town": "中須賀"
  },
  "7918079": {
    "zipcode": "7918079",
    "prefectureCode": "38",
    "prefectureNumber": 38,
    "prefecture": "愛媛県",
    "city": "松山市",
    "town": "高山町"
  },
  "7918081": {
    "zipcode": "7918081",
    "prefectureCode": "38",
    "prefectureNumber": 38,
    "prefecture": "愛媛県",
    "city": "松山市",
    "town": "高浜町"
  },
  "7918082": {
    "zipcode": "7918082",
    "prefectureCode": "38",
    "prefectureNumber": 38,
    "prefecture": "愛媛県",
    "city": "松山市",
    "town": "梅津寺町"
  },
  "7918083": {
    "zipcode": "7918083",
    "prefectureCode": "38",
    "prefectureNumber": 38,
    "prefecture": "愛媛県",
    "city": "松山市",
    "town": "新浜町"
  },
  "7918084": {
    "zipcode": "7918084",
    "prefectureCode": "38",
    "prefectureNumber": 38,
    "prefecture": "愛媛県",
    "city": "松山市",
    "town": "石風呂町"
  },
  "7918085": {
    "zipcode": "7918085",
    "prefectureCode": "38",
    "prefectureNumber": 38,
    "prefecture": "愛媛県",
    "city": "松山市",
    "town": "港山町"
  },
  "7918086": {
    "zipcode": "7918086",
    "prefectureCode": "38",
    "prefectureNumber": 38,
    "prefecture": "愛媛県",
    "city": "松山市",
    "town": "辰巳町"
  },
  "7918087": {
    "zipcode": "7918087",
    "prefectureCode": "38",
    "prefectureNumber": 38,
    "prefecture": "愛媛県",
    "city": "松山市",
    "town": "春美町"
  },
  "7918091": {
    "zipcode": "7918091",
    "prefectureCode": "38",
    "prefectureNumber": 38,
    "prefecture": "愛媛県",
    "city": "松山市",
    "town": "門田町"
  },
  "7918092": {
    "zipcode": "7918092",
    "prefectureCode": "38",
    "prefectureNumber": 38,
    "prefecture": "愛媛県",
    "city": "松山市",
    "town": "由良町"
  },
  "7918093": {
    "zipcode": "7918093",
    "prefectureCode": "38",
    "prefectureNumber": 38,
    "prefecture": "愛媛県",
    "city": "松山市",
    "town": "泊町"
  }
}
