{
  "7940000": {
    "zipcode": "7940000",
    "prefectureCode": "38",
    "prefectureNumber": 38,
    "prefecture": "愛媛県",
    "city": "今治市",
    "town": "以下に掲載がない場合"
  },
  "7940001": {
    "zipcode": "7940001",
    "prefectureCode": "38",
    "prefectureNumber": 38,
    "prefecture": "愛媛県",
    "city": "今治市",
    "town": "砂場町"
  },
  "7940002": {
    "zipcode": "7940002",
    "prefectureCode": "38",
    "prefectureNumber": 38,
    "prefecture": "愛媛県",
    "city": "今治市",
    "town": "大浜町"
  },
  "7940003": {
    "zipcode": "7940003",
    "prefectureCode": "38",
    "prefectureNumber": 38,
    "prefecture": "愛媛県",
    "city": "今治市",
    "town": "湊町"
  },
  "7940004": {
    "zipcode": "7940004",
    "prefectureCode": "38",
    "prefectureNumber": 38,
    "prefecture": "愛媛県",
    "city": "今治市",
    "town": "鐘場町"
  },
  "7940005": {
    "zipcode": "7940005",
    "prefectureCode": "38",
    "prefectureNumber": 38,
    "prefecture": "愛媛県",
    "city": "今治市",
    "town": "大新田町"
  },
  "7940006": {
    "zipcode": "7940006",
    "prefectureCode": "38",
    "prefectureNumber": 38,
    "prefecture": "愛媛県",
    "city": "今治市",
    "town": "石井町"
  },
  "7940007": {
    "zipcode": "7940007",
    "prefectureCode": "38",
    "prefectureNumber": 38,
    "prefecture": "愛媛県",
    "city": "今治市",
    "town": "近見町"
  },
  "7940011": {
    "zipcode": "7940011",
    "prefectureCode": "38",
    "prefectureNumber": 38,
    "prefecture": "愛媛県",
    "city": "今治市",
    "town": "北浜町"
  },
  "7940012": {
    "zipcode": "7940012",
    "prefectureCode": "38",
    "prefectureNumber": 38,
    "prefecture": "愛媛県",
    "city": "今治市",
    "town": "美保町"
  },
  "7940013": {
    "zipcode": "7940013",
    "prefectureCode": "38",
    "prefectureNumber": 38,
    "prefecture": "愛媛県",
    "city": "今治市",
    "town": "片原町"
  },
  "7940014": {
    "zipcode": "7940014",
    "prefectureCode": "38",
    "prefectureNumber": 38,
    "prefecture": "愛媛県",
    "city": "今治市",
    "town": "今治村（比岐島）"
  },
  "7940015": {
    "zipcode": "7940015",
    "prefectureCode": "38",
    "prefectureNumber": 38,
    "prefecture": "愛媛県",
    "city": "今治市",
    "town": "常盤町"
  },
  "7940016": {
    "zipcode": "7940016",
    "prefectureCode": "38",
    "prefectureNumber": 38,
    "prefecture": "愛媛県",
    "city": "今治市",
    "town": "中浜町"
  },
  "7940017": {
    "zipcode": "7940017",
    "prefectureCode": "38",
    "prefectureNumber": 38,
    "prefecture": "愛媛県",
    "city": "今治市",
    "town": "風早町"
  },
  "7940018": {
    "zipcode": "7940018",
    "prefectureCode": "38",
    "prefectureNumber": 38,
    "prefecture": "愛媛県",
    "city": "今治市",
    "town": "本町"
  },
  "7940021": {
    "zipcode": "7940021",
    "prefectureCode": "38",
    "prefectureNumber": 38,
    "prefecture": "愛媛県",
    "city": "今治市",
    "town": "米屋町"
  },
  "7940022": {
    "zipcode": "7940022",
    "prefectureCode": "38",
    "prefectureNumber": 38,
    "prefecture": "愛媛県",
    "city": "今治市",
    "town": "室屋町"
  },
  "7940023": {
    "zipcode": "7940023",
    "prefectureCode": "38",
    "prefectureNumber": 38,
    "prefecture": "愛媛県",
    "city": "今治市",
    "town": "栄町"
  },
  "7940024": {
    "zipcode": "7940024",
    "prefectureCode": "38",
    "prefectureNumber": 38,
    "prefecture": "愛媛県",
    "city": "今治市",
    "town": "共栄町"
  },
  "7940025": {
    "zipcode": "7940025",
    "prefectureCode": "38",
    "prefectureNumber": 38,
    "prefecture": "愛媛県",
    "city": "今治市",
    "town": "大正町"
  },
  "7940026": {
    "zipcode": "7940026",
    "prefectureCode": "38",
    "prefectureNumber": 38,
    "prefecture": "愛媛県",
    "city": "今治市",
    "town": "別宮町"
  },
  "7940027": {
    "zipcode": "7940027",
    "prefectureCode": "38",
    "prefectureNumber": 38,
    "prefecture": "愛媛県",
    "city": "今治市",
    "town": "南大門町"
  },
  "7940028": {
    "zipcode": "7940028",
    "prefectureCode": "38",
    "prefectureNumber": 38,
    "prefecture": "愛媛県",
    "city": "今治市",
    "town": "北宝来町"
  },
  "7940031": {
    "zipcode": "7940031",
    "prefectureCode": "38",
    "prefectureNumber": 38,
    "prefecture": "愛媛県",
    "city": "今治市",
    "town": "恵美須町"
  },
  "7940032": {
    "zipcode": "7940032",
    "prefectureCode": "38",
    "prefectureNumber": 38,
    "prefecture": "愛媛県",
    "city": "今治市",
    "town": "天保山町"
  },
  "7940033": {
    "zipcode": "7940033",
    "prefectureCode": "38",
    "prefectureNumber": 38,
    "prefecture": "愛媛県",
    "city": "今治市",
    "town": "東門町"
  },
  "7940034": {
    "zipcode": "7940034",
    "prefectureCode": "38",
    "prefectureNumber": 38,
    "prefecture": "愛媛県",
    "city": "今治市",
    "town": "美須賀町"
  },
  "7940035": {
    "zipcode": "7940035",
    "prefectureCode": "38",
    "prefectureNumber": 38,
    "prefecture": "愛媛県",
    "city": "今治市",
    "town": "枝堀町"
  },
  "7940036": {
    "zipcode": "7940036",
    "prefectureCode": "38",
    "prefectureNumber": 38,
    "prefecture": "愛媛県",
    "city": "今治市",
    "town": "通町"
  },
  "7940037": {
    "zipcode": "7940037",
    "prefectureCode": "38",
    "prefectureNumber": 38,
    "prefecture": "愛媛県",
    "city": "今治市",
    "town": "黄金町"
  },
  "7940038": {
    "zipcode": "7940038",
    "prefectureCode": "38",
    "prefectureNumber": 38,
    "prefecture": "愛媛県",
    "city": "今治市",
    "town": "末広町"
  },
  "7940041": {
    "zipcode": "7940041",
    "prefectureCode": "38",
    "prefectureNumber": 38,
    "prefecture": "愛媛県",
    "city": "今治市",
    "town": "松本町"
  },
  "7940042": {
    "zipcode": "7940042",
    "prefectureCode": "38",
    "prefectureNumber": 38,
    "prefecture": "愛媛県",
    "city": "今治市",
    "town": "旭町"
  },
  "7940043": {
    "zipcode": "7940043",
    "prefectureCode": "38",
    "prefectureNumber": 38,
    "prefecture": "愛媛県",
    "city": "今治市",
    "town": "南宝来町"
  },
  "7940044": {
    "zipcode": "7940044",
    "prefectureCode": "38",
    "prefectureNumber": 38,
    "prefecture": "愛媛県",
    "city": "今治市",
    "town": "蔵敷町"
  },
  "7940051": {
    "zipcode": "7940051",
    "prefectureCode": "38",
    "prefectureNumber": 38,
    "prefecture": "愛媛県",
    "city": "今治市",
    "town": "高地町"
  },
  "7940052": {
    "zipcode": "7940052",
    "prefectureCode": "38",
    "prefectureNumber": 38,
    "prefecture": "愛媛県",
    "city": "今治市",
    "town": "宮下町"
  },
  "7940053": {
    "zipcode": "7940053",
    "prefectureCode": "38",
    "prefectureNumber": 38,
    "prefecture": "愛媛県",
    "city": "今治市",
    "town": "山方町"
  },
  "7940054": {
    "zipcode": "7940054",
    "prefectureCode": "38",
    "prefectureNumber": 38,
    "prefecture": "愛媛県",
    "city": "今治市",
    "town": "北日吉町"
  },
  "7940055": {
    "zipcode": "7940055",
    "prefectureCode": "38",
    "prefectureNumber": 38,
    "prefecture": "愛媛県",
    "city": "今治市",
    "town": "中日吉町"
  },
  "7940056": {
    "zipcode": "7940056",
    "prefectureCode": "38",
    "prefectureNumber": 38,
    "prefecture": "愛媛県",
    "city": "今治市",
    "town": "南日吉町"
  },
  "7940057": {
    "zipcode": "7940057",
    "prefectureCode": "38",
    "prefectureNumber": 38,
    "prefecture": "愛媛県",
    "city": "今治市",
    "town": "泉川町"
  },
  "7940058": {
    "zipcode": "7940058",
    "prefectureCode": "38",
    "prefectureNumber": 38,
    "prefecture": "愛媛県",
    "city": "今治市",
    "town": "蒼社町"
  },
  "7940059": {
    "zipcode": "7940059",
    "prefectureCode": "38",
    "prefectureNumber": 38,
    "prefecture": "愛媛県",
    "city": "今治市",
    "town": "鯉池町"
  },
  "7940061": {
    "zipcode": "7940061",
    "prefectureCode": "38",
    "prefectureNumber": 38,
    "prefecture": "愛媛県",
    "city": "今治市",
    "town": "馬越二番耕地"
  },
  "7940062": {
    "zipcode": "7940062",
    "prefectureCode": "38",
    "prefectureNumber": 38,
    "prefecture": "愛媛県",
    "city": "今治市",
    "town": "馬越町"
  },
  "7940063": {
    "zipcode": "7940063",
    "prefectureCode": "38",
    "prefectureNumber": 38,
    "prefecture": "愛媛県",
    "city": "今治市",
    "town": "片山"
  },
  "7940064": {
    "zipcode": "7940064",
    "prefectureCode": "38",
    "prefectureNumber": 38,
    "prefecture": "愛媛県",
    "city": "今治市",
    "town": "小泉"
  },
  "7940065": {
    "zipcode": "7940065",
    "prefectureCode": "38",
    "prefectureNumber": 38,
    "prefecture": "愛媛県",
    "city": "今治市",
    "town": "別名"
  },
  "7940066": {
    "zipcode": "7940066",
    "prefectureCode": "38",
    "prefectureNumber": 38,
    "prefecture": "愛媛県",
    "city": "今治市",
    "town": "高橋"
  },
  "7940067": {
    "zipcode": "7940067",
    "prefectureCode": "38",
    "prefectureNumber": 38,
    "prefecture": "愛媛県",
    "city": "今治市",
    "town": "高橋ふれあいの丘"
  },
  "7940068": {
    "zipcode": "7940068",
    "prefectureCode": "38",
    "prefectureNumber": 38,
    "prefecture": "愛媛県",
    "city": "今治市",
    "town": "にぎわい広場"
  },
  "7940069": {
    "zipcode": "7940069",
    "prefectureCode": "38",
    "prefectureNumber": 38,
    "prefecture": "愛媛県",
    "city": "今治市",
    "town": "クリエイティブヒルズ"
  },
  "7940071": {
    "zipcode": "7940071",
    "prefectureCode": "38",
    "prefectureNumber": 38,
    "prefecture": "愛媛県",
    "city": "今治市",
    "town": "山路町"
  },
  "7940072": {
    "zipcode": "7940072",
    "prefectureCode": "38",
    "prefectureNumber": 38,
    "prefecture": "愛媛県",
    "city": "今治市",
    "town": "山路"
  },
  "7940073": {
    "zipcode": "7940073",
    "prefectureCode": "38",
    "prefectureNumber": 38,
    "prefecture": "愛媛県",
    "city": "今治市",
    "town": "矢田"
  },
  "7940074": {
    "zipcode": "7940074",
    "prefectureCode": "38",
    "prefectureNumber": 38,
    "prefecture": "愛媛県",
    "city": "今治市",
    "town": "神宮"
  },
  "7940081": {
    "zipcode": "7940081",
    "prefectureCode": "38",
    "prefectureNumber": 38,
    "prefecture": "愛媛県",
    "city": "今治市",
    "town": "阿方"
  },
  "7940082": {
    "zipcode": "7940082",
    "prefectureCode": "38",
    "prefectureNumber": 38,
    "prefecture": "愛媛県",
    "city": "今治市",
    "town": "野間"
  },
  "7940083": {
    "zipcode": "7940083",
    "prefectureCode": "38",
    "prefectureNumber": 38,
    "prefecture": "愛媛県",
    "city": "今治市",
    "town": "宅間"
  },
  "7940084": {
    "zipcode": "7940084",
    "prefectureCode": "38",
    "prefectureNumber": 38,
    "prefecture": "愛媛県",
    "city": "今治市",
    "town": "延喜"
  },
  "7940085": {
    "zipcode": "7940085",
    "prefectureCode": "38",
    "prefectureNumber": 38,
    "prefecture": "愛媛県",
    "city": "今治市",
    "town": "いこいの丘"
  },
  "7940086": {
    "zipcode": "7940086",
    "prefectureCode": "38",
    "prefectureNumber": 38,
    "prefecture": "愛媛県",
    "city": "今治市",
    "town": "しまなみの杜"
  },
  "7940087": {
    "zipcode": "7940087",
    "prefectureCode": "38",
    "prefectureNumber": 38,
    "prefecture": "愛媛県",
    "city": "今治市",
    "town": "しまなみヒルズ"
  },
  "7940101": {
    "zipcode": "7940101",
    "prefectureCode": "38",
    "prefectureNumber": 38,
    "prefecture": "愛媛県",
    "city": "今治市",
    "town": "玉川町三反地"
  },
  "7940102": {
    "zipcode": "7940102",
    "prefectureCode": "38",
    "prefectureNumber": 38,
    "prefecture": "愛媛県",
    "city": "今治市",
    "town": "玉川町大野"
  },
  "7940103": {
    "zipcode": "7940103",
    "prefectureCode": "38",
    "prefectureNumber": 38,
    "prefecture": "愛媛県",
    "city": "今治市",
    "town": "玉川町法界寺"
  },
  "7940104": {
    "zipcode": "7940104",
    "prefectureCode": "38",
    "prefectureNumber": 38,
    "prefecture": "愛媛県",
    "city": "今治市",
    "town": "玉川町摺木"
  },
  "7940105": {
    "zipcode": "7940105",
    "prefectureCode": "38",
    "prefectureNumber": 38,
    "prefecture": "愛媛県",
    "city": "今治市",
    "town": "玉川町與和木"
  },
  "7940106": {
    "zipcode": "7940106",
    "prefectureCode": "38",
    "prefectureNumber": 38,
    "prefecture": "愛媛県",
    "city": "今治市",
    "town": "玉川町鍋地"
  },
  "7940107": {
    "zipcode": "7940107",
    "prefectureCode": "38",
    "prefectureNumber": 38,
    "prefecture": "愛媛県",
    "city": "今治市",
    "town": "玉川町桂"
  },
  "7940108": {
    "zipcode": "7940108",
    "prefectureCode": "38",
    "prefectureNumber": 38,
    "prefecture": "愛媛県",
    "city": "今治市",
    "town": "玉川町御厩"
  },
  "7940109": {
    "zipcode": "7940109",
    "prefectureCode": "38",
    "prefectureNumber": 38,
    "prefecture": "愛媛県",
    "city": "今治市",
    "town": "玉川町長谷"
  },
  "7940111": {
    "zipcode": "7940111",
    "prefectureCode": "38",
    "prefectureNumber": 38,
    "prefecture": "愛媛県",
    "city": "今治市",
    "town": "玉川町中村"
  },
  "7940112": {
    "zipcode": "7940112",
    "prefectureCode": "38",
    "prefectureNumber": 38,
    "prefecture": "愛媛県",
    "city": "今治市",
    "town": "玉川町小鴨部"
  },
  "7940113": {
    "zipcode": "7940113",
    "prefectureCode": "38",
    "prefectureNumber": 38,
    "prefecture": "愛媛県",
    "city": "今治市",
    "town": "玉川町別所"
  },
  "7940114": {
    "zipcode": "7940114",
    "prefectureCode": "38",
    "prefectureNumber": 38,
    "prefecture": "愛媛県",
    "city": "今治市",
    "town": "玉川町八幡"
  },
  "7940115": {
    "zipcode": "7940115",
    "prefectureCode": "38",
    "prefectureNumber": 38,
    "prefecture": "愛媛県",
    "city": "今治市",
    "town": "玉川町高野"
  },
  "7940116": {
    "zipcode": "7940116",
    "prefectureCode": "38",
    "prefectureNumber": 38,
    "prefecture": "愛媛県",
    "city": "今治市",
    "town": "玉川町畑寺"
  },
  "7940117": {
    "zipcode": "7940117",
    "prefectureCode": "38",
    "prefectureNumber": 38,
    "prefecture": "愛媛県",
    "city": "今治市",
    "town": "玉川町鬼原"
  },
  "7940121": {
    "zipcode": "7940121",
    "prefectureCode": "38",
    "prefectureNumber": 38,
    "prefecture": "愛媛県",
    "city": "今治市",
    "town": "玉川町鈍川"
  },
  "7940122": {
    "zipcode": "7940122",
    "prefectureCode": "38",
    "prefectureNumber": 38,
    "prefecture": "愛媛県",
    "city": "今治市",
    "town": "玉川町木地"
  },
  "7940123": {
    "zipcode": "7940123",
    "prefectureCode": "38",
    "prefectureNumber": 38,
    "prefecture": "愛媛県",
    "city": "今治市",
    "town": "玉川町龍岡下"
  },
  "7940124": {
    "zipcode": "7940124",
    "prefectureCode": "38",
    "prefectureNumber": 38,
    "prefecture": "愛媛県",
    "city": "今治市",
    "town": "玉川町龍岡上"
  },
  "7940125": {
    "zipcode": "7940125",
    "prefectureCode": "38",
    "prefectureNumber": 38,
    "prefecture": "愛媛県",
    "city": "今治市",
    "town": "玉川町葛谷"
  },
  "7940801": {
    "zipcode": "7940801",
    "prefectureCode": "38",
    "prefectureNumber": 38,
    "prefecture": "愛媛県",
    "city": "今治市",
    "town": "東鳥生町"
  },
  "7940802": {
    "zipcode": "7940802",
    "prefectureCode": "38",
    "prefectureNumber": 38,
    "prefecture": "愛媛県",
    "city": "今治市",
    "town": "南鳥生町"
  },
  "7940803": {
    "zipcode": "7940803",
    "prefectureCode": "38",
    "prefectureNumber": 38,
    "prefecture": "愛媛県",
    "city": "今治市",
    "town": "北鳥生町"
  },
  "7940804": {
    "zipcode": "7940804",
    "prefectureCode": "38",
    "prefectureNumber": 38,
    "prefecture": "愛媛県",
    "city": "今治市",
    "town": "祇園町"
  },
  "7940805": {
    "zipcode": "7940805",
    "prefectureCode": "38",
    "prefectureNumber": 38,
    "prefecture": "愛媛県",
    "city": "今治市",
    "town": "広紹寺町"
  },
  "7940811": {
    "zipcode": "7940811",
    "prefectureCode": "38",
    "prefectureNumber": 38,
    "prefecture": "愛媛県",
    "city": "今治市",
    "town": "南高下町"
  },
  "7940812": {
    "zipcode": "7940812",
    "prefectureCode": "38",
    "prefectureNumber": 38,
    "prefecture": "愛媛県",
    "city": "今治市",
    "town": "北高下町"
  },
  "7940813": {
    "zipcode": "7940813",
    "prefectureCode": "38",
    "prefectureNumber": 38,
    "prefecture": "愛媛県",
    "city": "今治市",
    "town": "衣干町"
  },
  "7940814": {
    "zipcode": "7940814",
    "prefectureCode": "38",
    "prefectureNumber": 38,
    "prefecture": "愛媛県",
    "city": "今治市",
    "town": "横田町"
  },
  "7940815": {
    "zipcode": "7940815",
    "prefectureCode": "38",
    "prefectureNumber": 38,
    "prefecture": "愛媛県",
    "city": "今治市",
    "town": "土橋町"
  },
  "7940821": {
    "zipcode": "7940821",
    "prefectureCode": "38",
    "prefectureNumber": 38,
    "prefecture": "愛媛県",
    "city": "今治市",
    "town": "立花町"
  },
  "7940822": {
    "zipcode": "7940822",
    "prefectureCode": "38",
    "prefectureNumber": 38,
    "prefecture": "愛媛県",
    "city": "今治市",
    "town": "河南町"
  },
  "7940823": {
    "zipcode": "7940823",
    "prefectureCode": "38",
    "prefectureNumber": 38,
    "prefecture": "愛媛県",
    "city": "今治市",
    "town": "郷本町"
  },
  "7940824": {
    "zipcode": "7940824",
    "prefectureCode": "38",
    "prefectureNumber": 38,
    "prefecture": "愛媛県",
    "city": "今治市",
    "town": "石橋町"
  },
  "7940825": {
    "zipcode": "7940825",
    "prefectureCode": "38",
    "prefectureNumber": 38,
    "prefecture": "愛媛県",
    "city": "今治市",
    "town": "郷六ケ内町"
  },
  "7940826": {
    "zipcode": "7940826",
    "prefectureCode": "38",
    "prefectureNumber": 38,
    "prefecture": "愛媛県",
    "city": "今治市",
    "town": "郷新屋敷町"
  },
  "7940827": {
    "zipcode": "7940827",
    "prefectureCode": "38",
    "prefectureNumber": 38,
    "prefecture": "愛媛県",
    "city": "今治市",
    "town": "辻堂"
  },
  "7940831": {
    "zipcode": "7940831",
    "prefectureCode": "38",
    "prefectureNumber": 38,
    "prefecture": "愛媛県",
    "city": "今治市",
    "town": "八町東"
  },
  "7940832": {
    "zipcode": "7940832",
    "prefectureCode": "38",
    "prefectureNumber": 38,
    "prefecture": "愛媛県",
    "city": "今治市",
    "town": "八町西"
  },
  "7940840": {
    "zipcode": "7940840",
    "prefectureCode": "38",
    "prefectureNumber": 38,
    "prefecture": "愛媛県",
    "city": "今治市",
    "town": "中寺"
  },
  "7940850": {
    "zipcode": "7940850",
    "prefectureCode": "38",
    "prefectureNumber": 38,
    "prefecture": "愛媛県",
    "city": "今治市",
    "town": "新谷"
  },
  "7940861": {
    "zipcode": "7940861",
    "prefectureCode": "38",
    "prefectureNumber": 38,
    "prefecture": "愛媛県",
    "city": "今治市",
    "town": "五十嵐"
  },
  "7940862": {
    "zipcode": "7940862",
    "prefectureCode": "38",
    "prefectureNumber": 38,
    "prefecture": "愛媛県",
    "city": "今治市",
    "town": "四村"
  },
  "7940863": {
    "zipcode": "7940863",
    "prefectureCode": "38",
    "prefectureNumber": 38,
    "prefecture": "愛媛県",
    "city": "今治市",
    "town": "徳重"
  },
  "7941101": {
    "zipcode": "7941101",
    "prefectureCode": "38",
    "prefectureNumber": 38,
    "prefecture": "愛媛県",
    "city": "今治市",
    "town": "関前岡村"
  },
  "7941102": {
    "zipcode": "7941102",
    "prefectureCode": "38",
    "prefectureNumber": 38,
    "prefecture": "愛媛県",
    "city": "今治市",
    "town": "関前小大下"
  },
  "7941103": {
    "zipcode": "7941103",
    "prefectureCode": "38",
    "prefectureNumber": 38,
    "prefecture": "愛媛県",
    "city": "今治市",
    "town": "関前大下"
  },
  "7941301": {
    "zipcode": "7941301",
    "prefectureCode": "38",
    "prefectureNumber": 38,
    "prefecture": "愛媛県",
    "city": "今治市",
    "town": "大三島町肥海"
  },
  "7941302": {
    "zipcode": "7941302",
    "prefectureCode": "38",
    "prefectureNumber": 38,
    "prefecture": "愛媛県",
    "city": "今治市",
    "town": "大三島町大見"
  },
  "7941303": {
    "zipcode": "7941303",
    "prefectureCode": "38",
    "prefectureNumber": 38,
    "prefecture": "愛媛県",
    "city": "今治市",
    "town": "大三島町明日"
  },
  "7941304": {
    "zipcode": "7941304",
    "prefectureCode": "38",
    "prefectureNumber": 38,
    "prefecture": "愛媛県",
    "city": "今治市",
    "town": "大三島町宮浦"
  },
  "7941305": {
    "zipcode": "7941305",
    "prefectureCode": "38",
    "prefectureNumber": 38,
    "prefecture": "愛媛県",
    "city": "今治市",
    "town": "大三島町台"
  },
  "7941306": {
    "zipcode": "7941306",
    "prefectureCode": "38",
    "prefectureNumber": 38,
    "prefecture": "愛媛県",
    "city": "今治市",
    "town": "大三島町野々江"
  },
  "7941307": {
    "zipcode": "7941307",
    "prefectureCode": "38",
    "prefectureNumber": 38,
    "prefecture": "愛媛県",
    "city": "今治市",
    "town": "大三島町口総"
  },
  "7941308": {
    "zipcode": "7941308",
    "prefectureCode": "38",
    "prefectureNumber": 38,
    "prefecture": "愛媛県",
    "city": "今治市",
    "town": "大三島町浦戸"
  },
  "7941309": {
    "zipcode": "7941309",
    "prefectureCode": "38",
    "prefectureNumber": 38,
    "prefecture": "愛媛県",
    "city": "今治市",
    "town": "大三島町宗方"
  },
  "7941401": {
    "zipcode": "7941401",
    "prefectureCode": "38",
    "prefectureNumber": 38,
    "prefecture": "愛媛県",
    "city": "今治市",
    "town": "上浦町盛"
  },
  "7941402": {
    "zipcode": "7941402",
    "prefectureCode": "38",
    "prefectureNumber": 38,
    "prefecture": "愛媛県",
    "city": "今治市",
    "town": "上浦町井口"
  },
  "7941403": {
    "zipcode": "7941403",
    "prefectureCode": "38",
    "prefectureNumber": 38,
    "prefecture": "愛媛県",
    "city": "今治市",
    "town": "上浦町甘崎"
  },
  "7941404": {
    "zipcode": "7941404",
    "prefectureCode": "38",
    "prefectureNumber": 38,
    "prefecture": "愛媛県",
    "city": "今治市",
    "town": "上浦町瀬戸"
  },
  "7942101": {
    "zipcode": "7942101",
    "prefectureCode": "38",
    "prefectureNumber": 38,
    "prefecture": "愛媛県",
    "city": "今治市",
    "town": "吉海町田浦"
  },
  "7942102": {
    "zipcode": "7942102",
    "prefectureCode": "38",
    "prefectureNumber": 38,
    "prefecture": "愛媛県",
    "city": "今治市",
    "town": "吉海町泊"
  },
  "7942103": {
    "zipcode": "7942103",
    "prefectureCode": "38",
    "prefectureNumber": 38,
    "prefecture": "愛媛県",
    "city": "今治市",
    "town": "吉海町福田"
  },
  "7942104": {
    "zipcode": "7942104",
    "prefectureCode": "38",
    "prefectureNumber": 38,
    "prefecture": "愛媛県",
    "city": "今治市",
    "town": "吉海町仁江"
  },
  "7942110": {
    "zipcode": "7942110",
    "prefectureCode": "38",
    "prefectureNumber": 38,
    "prefecture": "愛媛県",
    "city": "今治市",
    "town": "吉海町八幡"
  },
  "7942111": {
    "zipcode": "7942111",
    "prefectureCode": "38",
    "prefectureNumber": 38,
    "prefecture": "愛媛県",
    "city": "今治市",
    "town": "吉海町幸新田"
  },
  "7942112": {
    "zipcode": "7942112",
    "prefectureCode": "38",
    "prefectureNumber": 38,
    "prefecture": "愛媛県",
    "city": "今治市",
    "town": "吉海町本庄"
  },
  "7942113": {
    "zipcode": "7942113",
    "prefectureCode": "38",
    "prefectureNumber": 38,
    "prefecture": "愛媛県",
    "city": "今治市",
    "town": "吉海町椋名"
  },
  "7942114": {
    "zipcode": "7942114",
    "prefectureCode": "38",
    "prefectureNumber": 38,
    "prefecture": "愛媛県",
    "city": "今治市",
    "town": "吉海町名"
  },
  "7942115": {
    "zipcode": "7942115",
    "prefectureCode": "38",
    "prefectureNumber": 38,
    "prefecture": "愛媛県",
    "city": "今治市",
    "town": "吉海町南浦"
  },
  "7942116": {
    "zipcode": "7942116",
    "prefectureCode": "38",
    "prefectureNumber": 38,
    "prefecture": "愛媛県",
    "city": "今治市",
    "town": "吉海町名駒"
  },
  "7942117": {
    "zipcode": "7942117",
    "prefectureCode": "38",
    "prefectureNumber": 38,
    "prefecture": "愛媛県",
    "city": "今治市",
    "town": "吉海町正味"
  },
  "7942118": {
    "zipcode": "7942118",
    "prefectureCode": "38",
    "prefectureNumber": 38,
    "prefecture": "愛媛県",
    "city": "今治市",
    "town": "吉海町臥間"
  },
  "7942119": {
    "zipcode": "7942119",
    "prefectureCode": "38",
    "prefectureNumber": 38,
    "prefecture": "愛媛県",
    "city": "今治市",
    "town": "吉海町津島"
  },
  "7942201": {
    "zipcode": "7942201",
    "prefectureCode": "38",
    "prefectureNumber": 38,
    "prefecture": "愛媛県",
    "city": "今治市",
    "town": "宮窪町早川"
  },
  "7942202": {
    "zipcode": "7942202",
    "prefectureCode": "38",
    "prefectureNumber": 38,
    "prefecture": "愛媛県",
    "city": "今治市",
    "town": "宮窪町余所国"
  },
  "7942203": {
    "zipcode": "7942203",
    "prefectureCode": "38",
    "prefectureNumber": 38,
    "prefecture": "愛媛県",
    "city": "今治市",
    "town": "宮窪町宮窪"
  },
  "7942204": {
    "zipcode": "7942204",
    "prefectureCode": "38",
    "prefectureNumber": 38,
    "prefecture": "愛媛県",
    "city": "今治市",
    "town": "宮窪町友浦"
  },
  "7942301": {
    "zipcode": "7942301",
    "prefectureCode": "38",
    "prefectureNumber": 38,
    "prefecture": "愛媛県",
    "city": "今治市",
    "town": "伯方町有津"
  },
  "7942302": {
    "zipcode": "7942302",
    "prefectureCode": "38",
    "prefectureNumber": 38,
    "prefecture": "愛媛県",
    "city": "今治市",
    "town": "伯方町叶浦"
  },
  "7942303": {
    "zipcode": "7942303",
    "prefectureCode": "38",
    "prefectureNumber": 38,
    "prefecture": "愛媛県",
    "city": "今治市",
    "town": "伯方町伊方"
  },
  "7942304": {
    "zipcode": "7942304",
    "prefectureCode": "38",
    "prefectureNumber": 38,
    "prefecture": "愛媛県",
    "city": "今治市",
    "town": "伯方町北浦"
  },
  "7942305": {
    "zipcode": "7942305",
    "prefectureCode": "38",
    "prefectureNumber": 38,
    "prefecture": "愛媛県",
    "city": "今治市",
    "town": "伯方町木浦"
  },
  "7942410": {
    "zipcode": "7942410",
    "prefectureCode": "38",
    "prefectureNumber": 38,
    "prefecture": "愛媛県",
    "city": "越智郡上島町",
    "town": "岩城"
  },
  "7942500": {
    "zipcode": "7942500",
    "prefectureCode": "38",
    "prefectureNumber": 38,
    "prefecture": "愛媛県",
    "city": "越智郡上島町",
    "town": "以下に掲載がない場合"
  },
  "7942501": {
    "zipcode": "7942501",
    "prefectureCode": "38",
    "prefectureNumber": 38,
    "prefecture": "愛媛県",
    "city": "越智郡上島町",
    "town": "弓削久司浦"
  },
  "7942502": {
    "zipcode": "7942502",
    "prefectureCode": "38",
    "prefectureNumber": 38,
    "prefecture": "愛媛県",
    "city": "越智郡上島町",
    "town": "弓削沢津"
  },
  "7942503": {
    "zipcode": "7942503",
    "prefectureCode": "38",
    "prefectureNumber": 38,
    "prefecture": "愛媛県",
    "city": "越智郡上島町",
    "town": "弓削百貫"
  },
  "7942504": {
    "zipcode": "7942504",
    "prefectureCode": "38",
    "prefectureNumber": 38,
    "prefecture": "愛媛県",
    "city": "越智郡上島町",
    "town": "弓削引野"
  },
  "7942505": {
    "zipcode": "7942505",
    "prefectureCode": "38",
    "prefectureNumber": 38,
    "prefecture": "愛媛県",
    "city": "越智郡上島町",
    "town": "弓削明神"
  },
  "7942506": {
    "zipcode": "7942506",
    "prefectureCode": "38",
    "prefectureNumber": 38,
    "prefecture": "愛媛県",
    "city": "越智郡上島町",
    "town": "弓削下弓削"
  },
  "7942507": {
    "zipcode": "7942507",
    "prefectureCode": "38",
    "prefectureNumber": 38,
    "prefecture": "愛媛県",
    "city": "越智郡上島町",
    "town": "弓削藤谷"
  },
  "7942508": {
    "zipcode": "7942508",
    "prefectureCode": "38",
    "prefectureNumber": 38,
    "prefecture": "愛媛県",
    "city": "越智郡上島町",
    "town": "弓削太田"
  },
  "7942509": {
    "zipcode": "7942509",
    "prefectureCode": "38",
    "prefectureNumber": 38,
    "prefecture": "愛媛県",
    "city": "越智郡上島町",
    "town": "弓削土生"
  },
  "7942510": {
    "zipcode": "7942510",
    "prefectureCode": "38",
    "prefectureNumber": 38,
    "prefecture": "愛媛県",
    "city": "越智郡上島町",
    "town": "弓削鎌田"
  },
  "7942511": {
    "zipcode": "7942511",
    "prefectureCode": "38",
    "prefectureNumber": 38,
    "prefecture": "愛媛県",
    "city": "越智郡上島町",
    "town": "弓削日比"
  },
  "7942512": {
    "zipcode": "7942512",
    "prefectureCode": "38",
    "prefectureNumber": 38,
    "prefecture": "愛媛県",
    "city": "越智郡上島町",
    "town": "弓削狩尾"
  },
  "7942513": {
    "zipcode": "7942513",
    "prefectureCode": "38",
    "prefectureNumber": 38,
    "prefecture": "愛媛県",
    "city": "越智郡上島町",
    "town": "弓削大谷"
  },
  "7942520": {
    "zipcode": "7942520",
    "prefectureCode": "38",
    "prefectureNumber": 38,
    "prefecture": "愛媛県",
    "city": "越智郡上島町",
    "town": "弓削佐島"
  },
  "7942530": {
    "zipcode": "7942530",
    "prefectureCode": "38",
    "prefectureNumber": 38,
    "prefecture": "愛媛県",
    "city": "越智郡上島町",
    "town": "弓削豊島"
  },
  "7942540": {
    "zipcode": "7942540",
    "prefectureCode": "38",
    "prefectureNumber": 38,
    "prefecture": "愛媛県",
    "city": "越智郡上島町",
    "town": "魚島一番耕地"
  },
  "7942541": {
    "zipcode": "7942541",
    "prefectureCode": "38",
    "prefectureNumber": 38,
    "prefecture": "愛媛県",
    "city": "越智郡上島町",
    "town": "魚島二番耕地"
  },
  "7942542": {
    "zipcode": "7942542",
    "prefectureCode": "38",
    "prefectureNumber": 38,
    "prefecture": "愛媛県",
    "city": "越智郡上島町",
    "town": "魚島三番耕地"
  },
  "7942550": {
    "zipcode": "7942550",
    "prefectureCode": "38",
    "prefectureNumber": 38,
    "prefecture": "愛媛県",
    "city": "越智郡上島町",
    "town": "生名"
  }
}
