{
  "7950000": {
    "zipcode": "7950000",
    "prefectureCode": "38",
    "prefectureNumber": 38,
    "prefecture": "愛媛県",
    "city": "大洲市",
    "town": "以下に掲載がない場合"
  },
  "7950001": {
    "zipcode": "7950001",
    "prefectureCode": "38",
    "prefectureNumber": 38,
    "prefecture": "愛媛県",
    "city": "大洲市",
    "town": "北只"
  },
  "7950002": {
    "zipcode": "7950002",
    "prefectureCode": "38",
    "prefectureNumber": 38,
    "prefecture": "愛媛県",
    "city": "大洲市",
    "town": "松尾"
  },
  "7950003": {
    "zipcode": "7950003",
    "prefectureCode": "38",
    "prefectureNumber": 38,
    "prefecture": "愛媛県",
    "city": "大洲市",
    "town": "梅川"
  },
  "7950004": {
    "zipcode": "7950004",
    "prefectureCode": "38",
    "prefectureNumber": 38,
    "prefecture": "愛媛県",
    "city": "大洲市",
    "town": "長谷"
  },
  "7950005": {
    "zipcode": "7950005",
    "prefectureCode": "38",
    "prefectureNumber": 38,
    "prefecture": "愛媛県",
    "city": "大洲市",
    "town": "横野（久保）"
  },
  "7950006": {
    "zipcode": "7950006",
    "prefectureCode": "38",
    "prefectureNumber": 38,
    "prefecture": "愛媛県",
    "city": "大洲市",
    "town": "野佐来"
  },
  "7950007": {
    "zipcode": "7950007",
    "prefectureCode": "38",
    "prefectureNumber": 38,
    "prefecture": "愛媛県",
    "city": "大洲市",
    "town": "稲積"
  },
  "7950008": {
    "zipcode": "7950008",
    "prefectureCode": "38",
    "prefectureNumber": 38,
    "prefecture": "愛媛県",
    "city": "大洲市",
    "town": "黒木"
  },
  "7950009": {
    "zipcode": "7950009",
    "prefectureCode": "38",
    "prefectureNumber": 38,
    "prefecture": "愛媛県",
    "city": "大洲市",
    "town": "北裏"
  },
  "7950011": {
    "zipcode": "7950011",
    "prefectureCode": "38",
    "prefectureNumber": 38,
    "prefecture": "愛媛県",
    "city": "大洲市",
    "town": "柚木"
  },
  "7950012": {
    "zipcode": "7950012",
    "prefectureCode": "38",
    "prefectureNumber": 38,
    "prefecture": "愛媛県",
    "city": "大洲市",
    "town": "大洲"
  },
  "7950013": {
    "zipcode": "7950013",
    "prefectureCode": "38",
    "prefectureNumber": 38,
    "prefecture": "愛媛県",
    "city": "大洲市",
    "town": "西大洲"
  },
  "7950021": {
    "zipcode": "7950021",
    "prefectureCode": "38",
    "prefectureNumber": 38,
    "prefecture": "愛媛県",
    "city": "大洲市",
    "town": "平野町野田"
  },
  "7950022": {
    "zipcode": "7950022",
    "prefectureCode": "38",
    "prefectureNumber": 38,
    "prefecture": "愛媛県",
    "city": "大洲市",
    "town": "平野町平地（その他）"
  },
  "7950023": {
    "zipcode": "7950023",
    "prefectureCode": "38",
    "prefectureNumber": 38,
    "prefecture": "愛媛県",
    "city": "大洲市",
    "town": "平野町平地（横野）"
  },
  "7950024": {
    "zipcode": "7950024",
    "prefectureCode": "38",
    "prefectureNumber": 38,
    "prefecture": "愛媛県",
    "city": "大洲市",
    "town": "高山"
  },
  "7950025": {
    "zipcode": "7950025",
    "prefectureCode": "38",
    "prefectureNumber": 38,
    "prefecture": "愛媛県",
    "city": "大洲市",
    "town": "阿蔵"
  },
  "7950031": {
    "zipcode": "7950031",
    "prefectureCode": "38",
    "prefectureNumber": 38,
    "prefecture": "愛媛県",
    "city": "大洲市",
    "town": "多田"
  },
  "7950032": {
    "zipcode": "7950032",
    "prefectureCode": "38",
    "prefectureNumber": 38,
    "prefecture": "愛媛県",
    "city": "大洲市",
    "town": "上須戒"
  },
  "7950041": {
    "zipcode": "7950041",
    "prefectureCode": "38",
    "prefectureNumber": 38,
    "prefecture": "愛媛県",
    "city": "大洲市",
    "town": "八多喜町"
  },
  "7950042": {
    "zipcode": "7950042",
    "prefectureCode": "38",
    "prefectureNumber": 38,
    "prefecture": "愛媛県",
    "city": "大洲市",
    "town": "米津"
  },
  "7950043": {
    "zipcode": "7950043",
    "prefectureCode": "38",
    "prefectureNumber": 38,
    "prefecture": "愛媛県",
    "city": "大洲市",
    "town": "米津（甲）"
  },
  "7950044": {
    "zipcode": "7950044",
    "prefectureCode": "38",
    "prefectureNumber": 38,
    "prefecture": "愛媛県",
    "city": "大洲市",
    "town": "手成"
  },
  "7950045": {
    "zipcode": "7950045",
    "prefectureCode": "38",
    "prefectureNumber": 38,
    "prefecture": "愛媛県",
    "city": "大洲市",
    "town": "東宇山"
  },
  "7950046": {
    "zipcode": "7950046",
    "prefectureCode": "38",
    "prefectureNumber": 38,
    "prefecture": "愛媛県",
    "city": "大洲市",
    "town": "春賀"
  },
  "7950051": {
    "zipcode": "7950051",
    "prefectureCode": "38",
    "prefectureNumber": 38,
    "prefecture": "愛媛県",
    "city": "大洲市",
    "town": "五郎"
  },
  "7950052": {
    "zipcode": "7950052",
    "prefectureCode": "38",
    "prefectureNumber": 38,
    "prefecture": "愛媛県",
    "city": "大洲市",
    "town": "若宮"
  },
  "7950053": {
    "zipcode": "7950053",
    "prefectureCode": "38",
    "prefectureNumber": 38,
    "prefecture": "愛媛県",
    "city": "大洲市",
    "town": "常磐町"
  },
  "7950054": {
    "zipcode": "7950054",
    "prefectureCode": "38",
    "prefectureNumber": 38,
    "prefecture": "愛媛県",
    "city": "大洲市",
    "town": "中村"
  },
  "7950061": {
    "zipcode": "7950061",
    "prefectureCode": "38",
    "prefectureNumber": 38,
    "prefecture": "愛媛県",
    "city": "大洲市",
    "town": "徳森"
  },
  "7950062": {
    "zipcode": "7950062",
    "prefectureCode": "38",
    "prefectureNumber": 38,
    "prefecture": "愛媛県",
    "city": "大洲市",
    "town": "市木"
  },
  "7950063": {
    "zipcode": "7950063",
    "prefectureCode": "38",
    "prefectureNumber": 38,
    "prefecture": "愛媛県",
    "city": "大洲市",
    "town": "田口"
  },
  "7950064": {
    "zipcode": "7950064",
    "prefectureCode": "38",
    "prefectureNumber": 38,
    "prefecture": "愛媛県",
    "city": "大洲市",
    "town": "東大洲"
  },
  "7950065": {
    "zipcode": "7950065",
    "prefectureCode": "38",
    "prefectureNumber": 38,
    "prefecture": "愛媛県",
    "city": "大洲市",
    "town": "東若宮"
  },
  "7950069": {
    "zipcode": "7950069",
    "prefectureCode": "38",
    "prefectureNumber": 38,
    "prefecture": "愛媛県",
    "city": "大洲市",
    "town": "新谷"
  },
  "7950070": {
    "zipcode": "7950070",
    "prefectureCode": "38",
    "prefectureNumber": 38,
    "prefecture": "愛媛県",
    "city": "大洲市",
    "town": "新谷丙"
  },
  "7950071": {
    "zipcode": "7950071",
    "prefectureCode": "38",
    "prefectureNumber": 38,
    "prefecture": "愛媛県",
    "city": "大洲市",
    "town": "新谷乙"
  },
  "7950072": {
    "zipcode": "7950072",
    "prefectureCode": "38",
    "prefectureNumber": 38,
    "prefecture": "愛媛県",
    "city": "大洲市",
    "town": "新谷甲"
  },
  "7950073": {
    "zipcode": "7950073",
    "prefectureCode": "38",
    "prefectureNumber": 38,
    "prefecture": "愛媛県",
    "city": "大洲市",
    "town": "新谷町"
  },
  "7950074": {
    "zipcode": "7950074",
    "prefectureCode": "38",
    "prefectureNumber": 38,
    "prefecture": "愛媛県",
    "city": "大洲市",
    "town": "恋木"
  },
  "7950075": {
    "zipcode": "7950075",
    "prefectureCode": "38",
    "prefectureNumber": 38,
    "prefecture": "愛媛県",
    "city": "大洲市",
    "town": "喜多山"
  },
  "7950076": {
    "zipcode": "7950076",
    "prefectureCode": "38",
    "prefectureNumber": 38,
    "prefecture": "愛媛県",
    "city": "大洲市",
    "town": "藤縄"
  },
  "7950077": {
    "zipcode": "7950077",
    "prefectureCode": "38",
    "prefectureNumber": 38,
    "prefecture": "愛媛県",
    "city": "大洲市",
    "town": "柳沢"
  },
  "7950078": {
    "zipcode": "7950078",
    "prefectureCode": "38",
    "prefectureNumber": 38,
    "prefecture": "愛媛県",
    "city": "大洲市",
    "town": "田処"
  },
  "7950081": {
    "zipcode": "7950081",
    "prefectureCode": "38",
    "prefectureNumber": 38,
    "prefecture": "愛媛県",
    "city": "大洲市",
    "town": "菅田町菅田丙"
  },
  "7950082": {
    "zipcode": "7950082",
    "prefectureCode": "38",
    "prefectureNumber": 38,
    "prefecture": "愛媛県",
    "city": "大洲市",
    "town": "菅田町菅田乙"
  },
  "7950083": {
    "zipcode": "7950083",
    "prefectureCode": "38",
    "prefectureNumber": 38,
    "prefecture": "愛媛県",
    "city": "大洲市",
    "town": "菅田町大竹"
  },
  "7950084": {
    "zipcode": "7950084",
    "prefectureCode": "38",
    "prefectureNumber": 38,
    "prefecture": "愛媛県",
    "city": "大洲市",
    "town": "菅田町宇津甲"
  },
  "7950085": {
    "zipcode": "7950085",
    "prefectureCode": "38",
    "prefectureNumber": 38,
    "prefecture": "愛媛県",
    "city": "大洲市",
    "town": "菅田町宇津乙"
  },
  "7950086": {
    "zipcode": "7950086",
    "prefectureCode": "38",
    "prefectureNumber": 38,
    "prefecture": "愛媛県",
    "city": "大洲市",
    "town": "成能"
  },
  "7950087": {
    "zipcode": "7950087",
    "prefectureCode": "38",
    "prefectureNumber": 38,
    "prefecture": "愛媛県",
    "city": "大洲市",
    "town": "森山"
  },
  "7950088": {
    "zipcode": "7950088",
    "prefectureCode": "38",
    "prefectureNumber": 38,
    "prefecture": "愛媛県",
    "city": "大洲市",
    "town": "宇和川"
  },
  "7950089": {
    "zipcode": "7950089",
    "prefectureCode": "38",
    "prefectureNumber": 38,
    "prefecture": "愛媛県",
    "city": "大洲市",
    "town": "蔵川"
  },
  "7950301": {
    "zipcode": "7950301",
    "prefectureCode": "38",
    "prefectureNumber": 38,
    "prefecture": "愛媛県",
    "city": "喜多郡内子町",
    "town": "五十崎"
  },
  "7950302": {
    "zipcode": "7950302",
    "prefectureCode": "38",
    "prefectureNumber": 38,
    "prefecture": "愛媛県",
    "city": "喜多郡内子町",
    "town": "大久喜"
  },
  "7950303": {
    "zipcode": "7950303",
    "prefectureCode": "38",
    "prefectureNumber": 38,
    "prefecture": "愛媛県",
    "city": "喜多郡内子町",
    "town": "平岡"
  },
  "7950304": {
    "zipcode": "7950304",
    "prefectureCode": "38",
    "prefectureNumber": 38,
    "prefecture": "愛媛県",
    "city": "喜多郡内子町",
    "town": "重松"
  },
  "7950305": {
    "zipcode": "7950305",
    "prefectureCode": "38",
    "prefectureNumber": 38,
    "prefecture": "愛媛県",
    "city": "喜多郡内子町",
    "town": "宿間"
  },
  "7950306": {
    "zipcode": "7950306",
    "prefectureCode": "38",
    "prefectureNumber": 38,
    "prefecture": "愛媛県",
    "city": "喜多郡内子町",
    "town": "福岡"
  },
  "7950307": {
    "zipcode": "7950307",
    "prefectureCode": "38",
    "prefectureNumber": 38,
    "prefecture": "愛媛県",
    "city": "喜多郡内子町",
    "town": "北表"
  },
  "7950308": {
    "zipcode": "7950308",
    "prefectureCode": "38",
    "prefectureNumber": 38,
    "prefecture": "愛媛県",
    "city": "喜多郡内子町",
    "town": "山鳥坂"
  },
  "7950309": {
    "zipcode": "7950309",
    "prefectureCode": "38",
    "prefectureNumber": 38,
    "prefecture": "愛媛県",
    "city": "喜多郡内子町",
    "town": "只海"
  }
}
