{
  "7960000": {
    "zipcode": "7960000",
    "prefectureCode": "38",
    "prefectureNumber": 38,
    "prefecture": "愛媛県",
    "city": "八幡浜市",
    "town": "以下に掲載がない場合"
  },
  "7960001": {
    "zipcode": "7960001",
    "prefectureCode": "38",
    "prefectureNumber": 38,
    "prefecture": "愛媛県",
    "city": "八幡浜市",
    "town": "向灘"
  },
  "7960002": {
    "zipcode": "7960002",
    "prefectureCode": "38",
    "prefectureNumber": 38,
    "prefecture": "愛媛県",
    "city": "八幡浜市",
    "town": "大平（花園町）"
  },
  "7960003": {
    "zipcode": "7960003",
    "prefectureCode": "38",
    "prefectureNumber": 38,
    "prefecture": "愛媛県",
    "city": "八幡浜市",
    "town": "大平（その他）"
  },
  "7960004": {
    "zipcode": "7960004",
    "prefectureCode": "38",
    "prefectureNumber": 38,
    "prefecture": "愛媛県",
    "city": "八幡浜市",
    "town": "大平（津羽井）"
  },
  "7960005": {
    "zipcode": "7960005",
    "prefectureCode": "38",
    "prefectureNumber": 38,
    "prefecture": "愛媛県",
    "city": "八幡浜市",
    "town": "高野地"
  },
  "7960010": {
    "zipcode": "7960010",
    "prefectureCode": "38",
    "prefectureNumber": 38,
    "prefecture": "愛媛県",
    "city": "八幡浜市",
    "town": "松柏"
  },
  "7960011": {
    "zipcode": "7960011",
    "prefectureCode": "38",
    "prefectureNumber": 38,
    "prefecture": "愛媛県",
    "city": "八幡浜市",
    "town": "木多町"
  },
  "7960012": {
    "zipcode": "7960012",
    "prefectureCode": "38",
    "prefectureNumber": 38,
    "prefecture": "愛媛県",
    "city": "八幡浜市",
    "town": "南柏"
  },
  "7960013": {
    "zipcode": "7960013",
    "prefectureCode": "38",
    "prefectureNumber": 38,
    "prefecture": "愛媛県",
    "city": "八幡浜市",
    "town": "山越"
  },
  "7960014": {
    "zipcode": "7960014",
    "prefectureCode": "38",
    "prefectureNumber": 38,
    "prefecture": "愛媛県",
    "city": "八幡浜市",
    "town": "新和田町"
  },
  "7960020": {
    "zipcode": "7960020",
    "prefectureCode": "38",
    "prefectureNumber": 38,
    "prefecture": "愛媛県",
    "city": "八幡浜市",
    "town": "神宮"
  },
  "7960021": {
    "zipcode": "7960021",
    "prefectureCode": "38",
    "prefectureNumber": 38,
    "prefecture": "愛媛県",
    "city": "八幡浜市",
    "town": "桧谷"
  },
  "7960022": {
    "zipcode": "7960022",
    "prefectureCode": "38",
    "prefectureNumber": 38,
    "prefecture": "愛媛県",
    "city": "八幡浜市",
    "town": "駅前"
  },
  "7960023": {
    "zipcode": "7960023",
    "prefectureCode": "38",
    "prefectureNumber": 38,
    "prefecture": "愛媛県",
    "city": "八幡浜市",
    "town": "神宮前"
  },
  "7960024": {
    "zipcode": "7960024",
    "prefectureCode": "38",
    "prefectureNumber": 38,
    "prefecture": "愛媛県",
    "city": "八幡浜市",
    "town": "神宮通"
  },
  "7960025": {
    "zipcode": "7960025",
    "prefectureCode": "38",
    "prefectureNumber": 38,
    "prefecture": "愛媛県",
    "city": "八幡浜市",
    "town": "東矢野町"
  },
  "7960026": {
    "zipcode": "7960026",
    "prefectureCode": "38",
    "prefectureNumber": 38,
    "prefecture": "愛媛県",
    "city": "八幡浜市",
    "town": "矢野町（その他）"
  },
  "7960027": {
    "zipcode": "7960027",
    "prefectureCode": "38",
    "prefectureNumber": 38,
    "prefecture": "愛媛県",
    "city": "八幡浜市",
    "town": "松蔭町"
  },
  "7960028": {
    "zipcode": "7960028",
    "prefectureCode": "38",
    "prefectureNumber": 38,
    "prefecture": "愛媛県",
    "city": "八幡浜市",
    "town": "清水町"
  },
  "7960029": {
    "zipcode": "7960029",
    "prefectureCode": "38",
    "prefectureNumber": 38,
    "prefecture": "愛媛県",
    "city": "八幡浜市",
    "town": "花小路"
  },
  "7960031": {
    "zipcode": "7960031",
    "prefectureCode": "38",
    "prefectureNumber": 38,
    "prefecture": "愛媛県",
    "city": "八幡浜市",
    "town": "江戸岡"
  },
  "7960032": {
    "zipcode": "7960032",
    "prefectureCode": "38",
    "prefectureNumber": 38,
    "prefecture": "愛媛県",
    "city": "八幡浜市",
    "town": "東新川"
  },
  "7960033": {
    "zipcode": "7960033",
    "prefectureCode": "38",
    "prefectureNumber": 38,
    "prefecture": "愛媛県",
    "city": "八幡浜市",
    "town": "大正町"
  },
  "7960034": {
    "zipcode": "7960034",
    "prefectureCode": "38",
    "prefectureNumber": 38,
    "prefecture": "愛媛県",
    "city": "八幡浜市",
    "town": "浜田町"
  },
  "7960035": {
    "zipcode": "7960035",
    "prefectureCode": "38",
    "prefectureNumber": 38,
    "prefecture": "愛媛県",
    "city": "八幡浜市",
    "town": "須崎"
  },
  "7960036": {
    "zipcode": "7960036",
    "prefectureCode": "38",
    "prefectureNumber": 38,
    "prefecture": "愛媛県",
    "city": "八幡浜市",
    "town": "新川"
  },
  "7960037": {
    "zipcode": "7960037",
    "prefectureCode": "38",
    "prefectureNumber": 38,
    "prefecture": "愛媛県",
    "city": "八幡浜市",
    "town": "昭和通"
  },
  "7960038": {
    "zipcode": "7960038",
    "prefectureCode": "38",
    "prefectureNumber": 38,
    "prefecture": "愛媛県",
    "city": "八幡浜市",
    "town": "清水町花小路"
  },
  "7960041": {
    "zipcode": "7960041",
    "prefectureCode": "38",
    "prefectureNumber": 38,
    "prefecture": "愛媛県",
    "city": "八幡浜市",
    "town": "裁判所通"
  },
  "7960042": {
    "zipcode": "7960042",
    "prefectureCode": "38",
    "prefectureNumber": 38,
    "prefecture": "愛媛県",
    "city": "八幡浜市",
    "town": "喜多町"
  },
  "7960043": {
    "zipcode": "7960043",
    "prefectureCode": "38",
    "prefectureNumber": 38,
    "prefecture": "愛媛県",
    "city": "八幡浜市",
    "town": "東近江屋町"
  },
  "7960044": {
    "zipcode": "7960044",
    "prefectureCode": "38",
    "prefectureNumber": 38,
    "prefecture": "愛媛県",
    "city": "八幡浜市",
    "town": "西近江屋町"
  },
  "7960045": {
    "zipcode": "7960045",
    "prefectureCode": "38",
    "prefectureNumber": 38,
    "prefecture": "愛媛県",
    "city": "八幡浜市",
    "town": "西近江屋町浜通"
  },
  "7960046": {
    "zipcode": "7960046",
    "prefectureCode": "38",
    "prefectureNumber": 38,
    "prefecture": "愛媛県",
    "city": "八幡浜市",
    "town": "旧港"
  },
  "7960047": {
    "zipcode": "7960047",
    "prefectureCode": "38",
    "prefectureNumber": 38,
    "prefecture": "愛媛県",
    "city": "八幡浜市",
    "town": "白浜通"
  },
  "7960048": {
    "zipcode": "7960048",
    "prefectureCode": "38",
    "prefectureNumber": 38,
    "prefecture": "愛媛県",
    "city": "八幡浜市",
    "town": "北浜"
  },
  "7960051": {
    "zipcode": "7960051",
    "prefectureCode": "38",
    "prefectureNumber": 38,
    "prefecture": "愛媛県",
    "city": "八幡浜市",
    "town": "幸町"
  },
  "7960052": {
    "zipcode": "7960052",
    "prefectureCode": "38",
    "prefectureNumber": 38,
    "prefecture": "愛媛県",
    "city": "八幡浜市",
    "town": "松本町"
  },
  "7960053": {
    "zipcode": "7960053",
    "prefectureCode": "38",
    "prefectureNumber": 38,
    "prefecture": "愛媛県",
    "city": "八幡浜市",
    "town": "海望園"
  },
  "7960054": {
    "zipcode": "7960054",
    "prefectureCode": "38",
    "prefectureNumber": 38,
    "prefecture": "愛媛県",
    "city": "八幡浜市",
    "town": "琴平町"
  },
  "7960055": {
    "zipcode": "7960055",
    "prefectureCode": "38",
    "prefectureNumber": 38,
    "prefecture": "愛媛県",
    "city": "八幡浜市",
    "town": "大門"
  },
  "7960056": {
    "zipcode": "7960056",
    "prefectureCode": "38",
    "prefectureNumber": 38,
    "prefecture": "愛媛県",
    "city": "八幡浜市",
    "town": "愛宕"
  },
  "7960057": {
    "zipcode": "7960057",
    "prefectureCode": "38",
    "prefectureNumber": 38,
    "prefecture": "愛媛県",
    "city": "八幡浜市",
    "town": "愛宕山団地"
  },
  "7960061": {
    "zipcode": "7960061",
    "prefectureCode": "38",
    "prefectureNumber": 38,
    "prefecture": "愛媛県",
    "city": "八幡浜市",
    "town": "海老崎"
  },
  "7960062": {
    "zipcode": "7960062",
    "prefectureCode": "38",
    "prefectureNumber": 38,
    "prefecture": "愛媛県",
    "city": "八幡浜市",
    "town": "新栄町"
  },
  "7960063": {
    "zipcode": "7960063",
    "prefectureCode": "38",
    "prefectureNumber": 38,
    "prefecture": "愛媛県",
    "city": "八幡浜市",
    "town": "横町"
  },
  "7960064": {
    "zipcode": "7960064",
    "prefectureCode": "38",
    "prefectureNumber": 38,
    "prefecture": "愛媛県",
    "city": "八幡浜市",
    "town": "船場通"
  },
  "7960065": {
    "zipcode": "7960065",
    "prefectureCode": "38",
    "prefectureNumber": 38,
    "prefecture": "愛媛県",
    "city": "八幡浜市",
    "town": "片山町"
  },
  "7960066": {
    "zipcode": "7960066",
    "prefectureCode": "38",
    "prefectureNumber": 38,
    "prefecture": "愛媛県",
    "city": "八幡浜市",
    "town": "本町"
  },
  "7960067": {
    "zipcode": "7960067",
    "prefectureCode": "38",
    "prefectureNumber": 38,
    "prefecture": "愛媛県",
    "city": "八幡浜市",
    "town": "中央"
  },
  "7960068": {
    "zipcode": "7960068",
    "prefectureCode": "38",
    "prefectureNumber": 38,
    "prefecture": "愛媛県",
    "city": "八幡浜市",
    "town": "浜之町"
  },
  "7960069": {
    "zipcode": "7960069",
    "prefectureCode": "38",
    "prefectureNumber": 38,
    "prefecture": "愛媛県",
    "city": "八幡浜市",
    "town": "下道"
  },
  "7960071": {
    "zipcode": "7960071",
    "prefectureCode": "38",
    "prefectureNumber": 38,
    "prefecture": "愛媛県",
    "city": "八幡浜市",
    "town": "新町"
  },
  "7960072": {
    "zipcode": "7960072",
    "prefectureCode": "38",
    "prefectureNumber": 38,
    "prefecture": "愛媛県",
    "city": "八幡浜市",
    "town": "港町"
  },
  "7960073": {
    "zipcode": "7960073",
    "prefectureCode": "38",
    "prefectureNumber": 38,
    "prefecture": "愛媛県",
    "city": "八幡浜市",
    "town": "戎町"
  },
  "7960074": {
    "zipcode": "7960074",
    "prefectureCode": "38",
    "prefectureNumber": 38,
    "prefecture": "愛媛県",
    "city": "八幡浜市",
    "town": "新港"
  },
  "7960075": {
    "zipcode": "7960075",
    "prefectureCode": "38",
    "prefectureNumber": 38,
    "prefecture": "愛媛県",
    "city": "八幡浜市",
    "town": "仲之町"
  },
  "7960076": {
    "zipcode": "7960076",
    "prefectureCode": "38",
    "prefectureNumber": 38,
    "prefecture": "愛媛県",
    "city": "八幡浜市",
    "town": "千代田町"
  },
  "7960077": {
    "zipcode": "7960077",
    "prefectureCode": "38",
    "prefectureNumber": 38,
    "prefecture": "愛媛県",
    "city": "八幡浜市",
    "town": "旧役場前通"
  },
  "7960079": {
    "zipcode": "7960079",
    "prefectureCode": "38",
    "prefectureNumber": 38,
    "prefecture": "愛媛県",
    "city": "八幡浜市",
    "town": "新港戎町"
  },
  "7960081": {
    "zipcode": "7960081",
    "prefectureCode": "38",
    "prefectureNumber": 38,
    "prefecture": "愛媛県",
    "city": "八幡浜市",
    "town": "朝潮橋"
  },
  "7960082": {
    "zipcode": "7960082",
    "prefectureCode": "38",
    "prefectureNumber": 38,
    "prefecture": "愛媛県",
    "city": "八幡浜市",
    "town": "北大黒町"
  },
  "7960083": {
    "zipcode": "7960083",
    "prefectureCode": "38",
    "prefectureNumber": 38,
    "prefecture": "愛媛県",
    "city": "八幡浜市",
    "town": "大黒町"
  },
  "7960084": {
    "zipcode": "7960084",
    "prefectureCode": "38",
    "prefectureNumber": 38,
    "prefecture": "愛媛県",
    "city": "八幡浜市",
    "town": "南大黒町"
  },
  "7960085": {
    "zipcode": "7960085",
    "prefectureCode": "38",
    "prefectureNumber": 38,
    "prefecture": "愛媛県",
    "city": "八幡浜市",
    "town": "天神通"
  },
  "7960086": {
    "zipcode": "7960086",
    "prefectureCode": "38",
    "prefectureNumber": 38,
    "prefecture": "愛媛県",
    "city": "八幡浜市",
    "town": "旭町"
  },
  "7960087": {
    "zipcode": "7960087",
    "prefectureCode": "38",
    "prefectureNumber": 38,
    "prefecture": "愛媛県",
    "city": "八幡浜市",
    "town": "沖新田"
  },
  "7960088": {
    "zipcode": "7960088",
    "prefectureCode": "38",
    "prefectureNumber": 38,
    "prefecture": "愛媛県",
    "city": "八幡浜市",
    "town": "八幡浜市の次に番地がくる場合"
  },
  "7960089": {
    "zipcode": "7960089",
    "prefectureCode": "38",
    "prefectureNumber": 38,
    "prefecture": "愛媛県",
    "city": "八幡浜市",
    "town": "出島"
  },
  "7960111": {
    "zipcode": "7960111",
    "prefectureCode": "38",
    "prefectureNumber": 38,
    "prefecture": "愛媛県",
    "city": "八幡浜市",
    "town": "保内町喜木"
  },
  "7960112": {
    "zipcode": "7960112",
    "prefectureCode": "38",
    "prefectureNumber": 38,
    "prefecture": "愛媛県",
    "city": "八幡浜市",
    "town": "保内町須川"
  },
  "7960170": {
    "zipcode": "7960170",
    "prefectureCode": "38",
    "prefectureNumber": 38,
    "prefecture": "愛媛県",
    "city": "八幡浜市",
    "town": "日土町"
  },
  "7960201": {
    "zipcode": "7960201",
    "prefectureCode": "38",
    "prefectureNumber": 38,
    "prefecture": "愛媛県",
    "city": "八幡浜市",
    "town": "保内町川之石"
  },
  "7960202": {
    "zipcode": "7960202",
    "prefectureCode": "38",
    "prefectureNumber": 38,
    "prefecture": "愛媛県",
    "city": "八幡浜市",
    "town": "保内町宮内"
  },
  "7960203": {
    "zipcode": "7960203",
    "prefectureCode": "38",
    "prefectureNumber": 38,
    "prefecture": "愛媛県",
    "city": "八幡浜市",
    "town": "保内町磯崎"
  },
  "7960204": {
    "zipcode": "7960204",
    "prefectureCode": "38",
    "prefectureNumber": 38,
    "prefecture": "愛媛県",
    "city": "八幡浜市",
    "town": "保内町喜木津"
  },
  "7960205": {
    "zipcode": "7960205",
    "prefectureCode": "38",
    "prefectureNumber": 38,
    "prefecture": "愛媛県",
    "city": "八幡浜市",
    "town": "保内町広早"
  },
  "7960300": {
    "zipcode": "7960300",
    "prefectureCode": "38",
    "prefectureNumber": 38,
    "prefecture": "愛媛県",
    "city": "西宇和郡伊方町",
    "town": "以下に掲載がない場合"
  },
  "7960301": {
    "zipcode": "7960301",
    "prefectureCode": "38",
    "prefectureNumber": 38,
    "prefecture": "愛媛県",
    "city": "西宇和郡伊方町",
    "town": "湊浦"
  },
  "7960302": {
    "zipcode": "7960302",
    "prefectureCode": "38",
    "prefectureNumber": 38,
    "prefecture": "愛媛県",
    "city": "西宇和郡伊方町",
    "town": "小中浦"
  },
  "7960303": {
    "zipcode": "7960303",
    "prefectureCode": "38",
    "prefectureNumber": 38,
    "prefecture": "愛媛県",
    "city": "西宇和郡伊方町",
    "town": "亀浦"
  },
  "7960304": {
    "zipcode": "7960304",
    "prefectureCode": "38",
    "prefectureNumber": 38,
    "prefecture": "愛媛県",
    "city": "西宇和郡伊方町",
    "town": "伊方越"
  },
  "7960305": {
    "zipcode": "7960305",
    "prefectureCode": "38",
    "prefectureNumber": 38,
    "prefecture": "愛媛県",
    "city": "西宇和郡伊方町",
    "town": "河内"
  },
  "7960306": {
    "zipcode": "7960306",
    "prefectureCode": "38",
    "prefectureNumber": 38,
    "prefecture": "愛媛県",
    "city": "西宇和郡伊方町",
    "town": "仁田之浜"
  },
  "7960307": {
    "zipcode": "7960307",
    "prefectureCode": "38",
    "prefectureNumber": 38,
    "prefecture": "愛媛県",
    "city": "西宇和郡伊方町",
    "town": "中之浜"
  },
  "7960308": {
    "zipcode": "7960308",
    "prefectureCode": "38",
    "prefectureNumber": 38,
    "prefecture": "愛媛県",
    "city": "西宇和郡伊方町",
    "town": "大浜"
  },
  "7960311": {
    "zipcode": "7960311",
    "prefectureCode": "38",
    "prefectureNumber": 38,
    "prefecture": "愛媛県",
    "city": "西宇和郡伊方町",
    "town": "中浦"
  },
  "7960312": {
    "zipcode": "7960312",
    "prefectureCode": "38",
    "prefectureNumber": 38,
    "prefecture": "愛媛県",
    "city": "西宇和郡伊方町",
    "town": "川永田"
  },
  "7960313": {
    "zipcode": "7960313",
    "prefectureCode": "38",
    "prefectureNumber": 38,
    "prefecture": "愛媛県",
    "city": "西宇和郡伊方町",
    "town": "豊之浦"
  },
  "7960421": {
    "zipcode": "7960421",
    "prefectureCode": "38",
    "prefectureNumber": 38,
    "prefecture": "愛媛県",
    "city": "西宇和郡伊方町",
    "town": "九町"
  },
  "7960422": {
    "zipcode": "7960422",
    "prefectureCode": "38",
    "prefectureNumber": 38,
    "prefecture": "愛媛県",
    "city": "西宇和郡伊方町",
    "town": "二見"
  },
  "7960501": {
    "zipcode": "7960501",
    "prefectureCode": "38",
    "prefectureNumber": 38,
    "prefecture": "愛媛県",
    "city": "西宇和郡伊方町",
    "town": "足成"
  },
  "7960502": {
    "zipcode": "7960502",
    "prefectureCode": "38",
    "prefectureNumber": 38,
    "prefecture": "愛媛県",
    "city": "西宇和郡伊方町",
    "town": "三机"
  },
  "7960503": {
    "zipcode": "7960503",
    "prefectureCode": "38",
    "prefectureNumber": 38,
    "prefecture": "愛媛県",
    "city": "西宇和郡伊方町",
    "town": "大江"
  },
  "7960504": {
    "zipcode": "7960504",
    "prefectureCode": "38",
    "prefectureNumber": 38,
    "prefecture": "愛媛県",
    "city": "西宇和郡伊方町",
    "town": "志津"
  },
  "7960505": {
    "zipcode": "7960505",
    "prefectureCode": "38",
    "prefectureNumber": 38,
    "prefecture": "愛媛県",
    "city": "西宇和郡伊方町",
    "town": "小島"
  },
  "7960506": {
    "zipcode": "7960506",
    "prefectureCode": "38",
    "prefectureNumber": 38,
    "prefecture": "愛媛県",
    "city": "西宇和郡伊方町",
    "town": "塩成"
  },
  "7960611": {
    "zipcode": "7960611",
    "prefectureCode": "38",
    "prefectureNumber": 38,
    "prefecture": "愛媛県",
    "city": "西宇和郡伊方町",
    "town": "川之浜"
  },
  "7960612": {
    "zipcode": "7960612",
    "prefectureCode": "38",
    "prefectureNumber": 38,
    "prefecture": "愛媛県",
    "city": "西宇和郡伊方町",
    "town": "大久"
  },
  "7960613": {
    "zipcode": "7960613",
    "prefectureCode": "38",
    "prefectureNumber": 38,
    "prefecture": "愛媛県",
    "city": "西宇和郡伊方町",
    "town": "神崎"
  },
  "7960614": {
    "zipcode": "7960614",
    "prefectureCode": "38",
    "prefectureNumber": 38,
    "prefecture": "愛媛県",
    "city": "西宇和郡伊方町",
    "town": "田部"
  },
  "7960615": {
    "zipcode": "7960615",
    "prefectureCode": "38",
    "prefectureNumber": 38,
    "prefecture": "愛媛県",
    "city": "西宇和郡伊方町",
    "town": "高茂"
  },
  "7960801": {
    "zipcode": "7960801",
    "prefectureCode": "38",
    "prefectureNumber": 38,
    "prefecture": "愛媛県",
    "city": "西宇和郡伊方町",
    "town": "三崎"
  },
  "7960802": {
    "zipcode": "7960802",
    "prefectureCode": "38",
    "prefectureNumber": 38,
    "prefecture": "愛媛県",
    "city": "西宇和郡伊方町",
    "town": "高浦"
  },
  "7960803": {
    "zipcode": "7960803",
    "prefectureCode": "38",
    "prefectureNumber": 38,
    "prefecture": "愛媛県",
    "city": "西宇和郡伊方町",
    "town": "佐田"
  },
  "7960804": {
    "zipcode": "7960804",
    "prefectureCode": "38",
    "prefectureNumber": 38,
    "prefecture": "愛媛県",
    "city": "西宇和郡伊方町",
    "town": "大佐田"
  },
  "7960805": {
    "zipcode": "7960805",
    "prefectureCode": "38",
    "prefectureNumber": 38,
    "prefecture": "愛媛県",
    "city": "西宇和郡伊方町",
    "town": "井野浦"
  },
  "7960811": {
    "zipcode": "7960811",
    "prefectureCode": "38",
    "prefectureNumber": 38,
    "prefecture": "愛媛県",
    "city": "西宇和郡伊方町",
    "town": "松"
  },
  "7960812": {
    "zipcode": "7960812",
    "prefectureCode": "38",
    "prefectureNumber": 38,
    "prefecture": "愛媛県",
    "city": "西宇和郡伊方町",
    "town": "明神"
  },
  "7960813": {
    "zipcode": "7960813",
    "prefectureCode": "38",
    "prefectureNumber": 38,
    "prefecture": "愛媛県",
    "city": "西宇和郡伊方町",
    "town": "二名津"
  },
  "7960814": {
    "zipcode": "7960814",
    "prefectureCode": "38",
    "prefectureNumber": 38,
    "prefecture": "愛媛県",
    "city": "西宇和郡伊方町",
    "town": "平礒"
  },
  "7960815": {
    "zipcode": "7960815",
    "prefectureCode": "38",
    "prefectureNumber": 38,
    "prefecture": "愛媛県",
    "city": "西宇和郡伊方町",
    "town": "釜木"
  },
  "7960816": {
    "zipcode": "7960816",
    "prefectureCode": "38",
    "prefectureNumber": 38,
    "prefecture": "愛媛県",
    "city": "西宇和郡伊方町",
    "town": "名取"
  },
  "7960821": {
    "zipcode": "7960821",
    "prefectureCode": "38",
    "prefectureNumber": 38,
    "prefecture": "愛媛県",
    "city": "西宇和郡伊方町",
    "town": "与侈"
  },
  "7960822": {
    "zipcode": "7960822",
    "prefectureCode": "38",
    "prefectureNumber": 38,
    "prefecture": "愛媛県",
    "city": "西宇和郡伊方町",
    "town": "串"
  },
  "7960823": {
    "zipcode": "7960823",
    "prefectureCode": "38",
    "prefectureNumber": 38,
    "prefecture": "愛媛県",
    "city": "西宇和郡伊方町",
    "town": "正野"
  },
  "7960901": {
    "zipcode": "7960901",
    "prefectureCode": "38",
    "prefectureNumber": 38,
    "prefecture": "愛媛県",
    "city": "西予市",
    "town": "三瓶町周木"
  },
  "7960902": {
    "zipcode": "7960902",
    "prefectureCode": "38",
    "prefectureNumber": 38,
    "prefecture": "愛媛県",
    "city": "西予市",
    "town": "三瓶町長早"
  },
  "7960903": {
    "zipcode": "7960903",
    "prefectureCode": "38",
    "prefectureNumber": 38,
    "prefecture": "愛媛県",
    "city": "西予市",
    "town": "三瓶町二及"
  },
  "7960904": {
    "zipcode": "7960904",
    "prefectureCode": "38",
    "prefectureNumber": 38,
    "prefecture": "愛媛県",
    "city": "西予市",
    "town": "三瓶町垣生"
  },
  "7960905": {
    "zipcode": "7960905",
    "prefectureCode": "38",
    "prefectureNumber": 38,
    "prefecture": "愛媛県",
    "city": "西予市",
    "town": "三瓶町鴫山"
  },
  "7960906": {
    "zipcode": "7960906",
    "prefectureCode": "38",
    "prefectureNumber": 38,
    "prefecture": "愛媛県",
    "city": "西予市",
    "town": "三瓶町和泉"
  },
  "7960907": {
    "zipcode": "7960907",
    "prefectureCode": "38",
    "prefectureNumber": 38,
    "prefecture": "愛媛県",
    "city": "西予市",
    "town": "三瓶町朝立"
  },
  "7960908": {
    "zipcode": "7960908",
    "prefectureCode": "38",
    "prefectureNumber": 38,
    "prefecture": "愛媛県",
    "city": "西予市",
    "town": "三瓶町津布理"
  },
  "7960909": {
    "zipcode": "7960909",
    "prefectureCode": "38",
    "prefectureNumber": 38,
    "prefecture": "愛媛県",
    "city": "西予市",
    "town": "三瓶町安土"
  },
  "7960910": {
    "zipcode": "7960910",
    "prefectureCode": "38",
    "prefectureNumber": 38,
    "prefecture": "愛媛県",
    "city": "西予市",
    "town": "三瓶町有網代"
  },
  "7960911": {
    "zipcode": "7960911",
    "prefectureCode": "38",
    "prefectureNumber": 38,
    "prefecture": "愛媛県",
    "city": "西予市",
    "town": "三瓶町有太刀"
  },
  "7960912": {
    "zipcode": "7960912",
    "prefectureCode": "38",
    "prefectureNumber": 38,
    "prefecture": "愛媛県",
    "city": "西予市",
    "town": "三瓶町蔵貫浦"
  },
  "7960913": {
    "zipcode": "7960913",
    "prefectureCode": "38",
    "prefectureNumber": 38,
    "prefecture": "愛媛県",
    "city": "西予市",
    "town": "三瓶町蔵貫"
  },
  "7960914": {
    "zipcode": "7960914",
    "prefectureCode": "38",
    "prefectureNumber": 38,
    "prefecture": "愛媛県",
    "city": "西予市",
    "town": "三瓶町皆江"
  },
  "7960915": {
    "zipcode": "7960915",
    "prefectureCode": "38",
    "prefectureNumber": 38,
    "prefecture": "愛媛県",
    "city": "西予市",
    "town": "三瓶町下泊"
  },
  "7968001": {
    "zipcode": "7968001",
    "prefectureCode": "38",
    "prefectureNumber": 38,
    "prefecture": "愛媛県",
    "city": "八幡浜市",
    "town": "大谷口"
  },
  "7968002": {
    "zipcode": "7968002",
    "prefectureCode": "38",
    "prefectureNumber": 38,
    "prefecture": "愛媛県",
    "city": "八幡浜市",
    "town": "広瀬"
  },
  "7968003": {
    "zipcode": "7968003",
    "prefectureCode": "38",
    "prefectureNumber": 38,
    "prefecture": "愛媛県",
    "city": "八幡浜市",
    "town": "古町"
  },
  "7968004": {
    "zipcode": "7968004",
    "prefectureCode": "38",
    "prefectureNumber": 38,
    "prefecture": "愛媛県",
    "city": "八幡浜市",
    "town": "産業通"
  },
  "7968005": {
    "zipcode": "7968005",
    "prefectureCode": "38",
    "prefectureNumber": 38,
    "prefecture": "愛媛県",
    "city": "八幡浜市",
    "town": "矢野町（徳雲坊）"
  },
  "7968006": {
    "zipcode": "7968006",
    "prefectureCode": "38",
    "prefectureNumber": 38,
    "prefecture": "愛媛県",
    "city": "八幡浜市",
    "town": "八代（丁目）"
  },
  "7968007": {
    "zipcode": "7968007",
    "prefectureCode": "38",
    "prefectureNumber": 38,
    "prefecture": "愛媛県",
    "city": "八幡浜市",
    "town": "八代（番地）"
  },
  "7968008": {
    "zipcode": "7968008",
    "prefectureCode": "38",
    "prefectureNumber": 38,
    "prefecture": "愛媛県",
    "city": "八幡浜市",
    "town": "栗野浦"
  },
  "7968010": {
    "zipcode": "7968010",
    "prefectureCode": "38",
    "prefectureNumber": 38,
    "prefecture": "愛媛県",
    "city": "八幡浜市",
    "town": "五反田"
  },
  "7968011": {
    "zipcode": "7968011",
    "prefectureCode": "38",
    "prefectureNumber": 38,
    "prefecture": "愛媛県",
    "city": "八幡浜市",
    "town": "元城団地"
  },
  "7968015": {
    "zipcode": "7968015",
    "prefectureCode": "38",
    "prefectureNumber": 38,
    "prefecture": "愛媛県",
    "city": "八幡浜市",
    "town": "国木"
  },
  "7968020": {
    "zipcode": "7968020",
    "prefectureCode": "38",
    "prefectureNumber": 38,
    "prefecture": "愛媛県",
    "city": "八幡浜市",
    "town": "郷"
  },
  "7968025": {
    "zipcode": "7968025",
    "prefectureCode": "38",
    "prefectureNumber": 38,
    "prefecture": "愛媛県",
    "city": "八幡浜市",
    "town": "川之内"
  },
  "7968030": {
    "zipcode": "7968030",
    "prefectureCode": "38",
    "prefectureNumber": 38,
    "prefecture": "愛媛県",
    "city": "八幡浜市",
    "town": "中津川"
  },
  "7968035": {
    "zipcode": "7968035",
    "prefectureCode": "38",
    "prefectureNumber": 38,
    "prefecture": "愛媛県",
    "city": "八幡浜市",
    "town": "若山"
  },
  "7968036": {
    "zipcode": "7968036",
    "prefectureCode": "38",
    "prefectureNumber": 38,
    "prefecture": "愛媛県",
    "city": "八幡浜市",
    "town": "釜倉"
  },
  "7968037": {
    "zipcode": "7968037",
    "prefectureCode": "38",
    "prefectureNumber": 38,
    "prefecture": "愛媛県",
    "city": "八幡浜市",
    "town": "谷"
  },
  "7968038": {
    "zipcode": "7968038",
    "prefectureCode": "38",
    "prefectureNumber": 38,
    "prefecture": "愛媛県",
    "city": "八幡浜市",
    "town": "横平"
  },
  "7968039": {
    "zipcode": "7968039",
    "prefectureCode": "38",
    "prefectureNumber": 38,
    "prefecture": "愛媛県",
    "city": "八幡浜市",
    "town": "布喜川"
  },
  "7968040": {
    "zipcode": "7968040",
    "prefectureCode": "38",
    "prefectureNumber": 38,
    "prefecture": "愛媛県",
    "city": "八幡浜市",
    "town": "舌間"
  },
  "7968041": {
    "zipcode": "7968041",
    "prefectureCode": "38",
    "prefectureNumber": 38,
    "prefecture": "愛媛県",
    "city": "八幡浜市",
    "town": "合田"
  },
  "7968050": {
    "zipcode": "7968050",
    "prefectureCode": "38",
    "prefectureNumber": 38,
    "prefecture": "愛媛県",
    "city": "八幡浜市",
    "town": "川上町川名津"
  },
  "7968051": {
    "zipcode": "7968051",
    "prefectureCode": "38",
    "prefectureNumber": 38,
    "prefecture": "愛媛県",
    "city": "八幡浜市",
    "town": "川上町上泊"
  },
  "7968052": {
    "zipcode": "7968052",
    "prefectureCode": "38",
    "prefectureNumber": 38,
    "prefecture": "愛媛県",
    "city": "八幡浜市",
    "town": "川上町白石"
  },
  "7968053": {
    "zipcode": "7968053",
    "prefectureCode": "38",
    "prefectureNumber": 38,
    "prefecture": "愛媛県",
    "city": "八幡浜市",
    "town": "真網代"
  },
  "7968054": {
    "zipcode": "7968054",
    "prefectureCode": "38",
    "prefectureNumber": 38,
    "prefecture": "愛媛県",
    "city": "八幡浜市",
    "town": "穴井"
  },
  "7968060": {
    "zipcode": "7968060",
    "prefectureCode": "38",
    "prefectureNumber": 38,
    "prefecture": "愛媛県",
    "city": "八幡浜市",
    "town": "大島"
  }
}
