{
  "7970000": {
    "zipcode": "7970000",
    "prefectureCode": "38",
    "prefectureNumber": 38,
    "prefecture": "愛媛県",
    "city": "西予市",
    "town": "以下に掲載がない場合"
  },
  "7970001": {
    "zipcode": "7970001",
    "prefectureCode": "38",
    "prefectureNumber": 38,
    "prefecture": "愛媛県",
    "city": "西予市",
    "town": "宇和町田野中"
  },
  "7970002": {
    "zipcode": "7970002",
    "prefectureCode": "38",
    "prefectureNumber": 38,
    "prefecture": "愛媛県",
    "city": "西予市",
    "town": "宇和町平野"
  },
  "7970003": {
    "zipcode": "7970003",
    "prefectureCode": "38",
    "prefectureNumber": 38,
    "prefecture": "愛媛県",
    "city": "西予市",
    "town": "宇和町窪"
  },
  "7970004": {
    "zipcode": "7970004",
    "prefectureCode": "38",
    "prefectureNumber": 38,
    "prefecture": "愛媛県",
    "city": "西予市",
    "town": "宇和町伊崎"
  },
  "7970005": {
    "zipcode": "7970005",
    "prefectureCode": "38",
    "prefectureNumber": 38,
    "prefecture": "愛媛県",
    "city": "西予市",
    "town": "宇和町常定寺"
  },
  "7970006": {
    "zipcode": "7970006",
    "prefectureCode": "38",
    "prefectureNumber": 38,
    "prefecture": "愛媛県",
    "city": "西予市",
    "town": "宇和町新城"
  },
  "7970007": {
    "zipcode": "7970007",
    "prefectureCode": "38",
    "prefectureNumber": 38,
    "prefecture": "愛媛県",
    "city": "西予市",
    "town": "宇和町明石"
  },
  "7970008": {
    "zipcode": "7970008",
    "prefectureCode": "38",
    "prefectureNumber": 38,
    "prefecture": "愛媛県",
    "city": "西予市",
    "town": "宇和町さくら"
  },
  "7970010": {
    "zipcode": "7970010",
    "prefectureCode": "38",
    "prefectureNumber": 38,
    "prefecture": "愛媛県",
    "city": "西予市",
    "town": "宇和町明間"
  },
  "7970011": {
    "zipcode": "7970011",
    "prefectureCode": "38",
    "prefectureNumber": 38,
    "prefecture": "愛媛県",
    "city": "西予市",
    "town": "宇和町下川"
  },
  "7970012": {
    "zipcode": "7970012",
    "prefectureCode": "38",
    "prefectureNumber": 38,
    "prefecture": "愛媛県",
    "city": "西予市",
    "town": "宇和町皆田"
  },
  "7970013": {
    "zipcode": "7970013",
    "prefectureCode": "38",
    "prefectureNumber": 38,
    "prefecture": "愛媛県",
    "city": "西予市",
    "town": "宇和町稲生"
  },
  "7970014": {
    "zipcode": "7970014",
    "prefectureCode": "38",
    "prefectureNumber": 38,
    "prefecture": "愛媛県",
    "city": "西予市",
    "town": "宇和町伊賀上"
  },
  "7970015": {
    "zipcode": "7970015",
    "prefectureCode": "38",
    "prefectureNumber": 38,
    "prefecture": "愛媛県",
    "city": "西予市",
    "town": "宇和町卯之町"
  },
  "7970016": {
    "zipcode": "7970016",
    "prefectureCode": "38",
    "prefectureNumber": 38,
    "prefecture": "愛媛県",
    "city": "西予市",
    "town": "宇和町神領"
  },
  "7970017": {
    "zipcode": "7970017",
    "prefectureCode": "38",
    "prefectureNumber": 38,
    "prefecture": "愛媛県",
    "city": "西予市",
    "town": "宇和町ひまわり"
  },
  "7970018": {
    "zipcode": "7970018",
    "prefectureCode": "38",
    "prefectureNumber": 38,
    "prefecture": "愛媛県",
    "city": "西予市",
    "town": "宇和町下松葉"
  },
  "7970020": {
    "zipcode": "7970020",
    "prefectureCode": "38",
    "prefectureNumber": 38,
    "prefecture": "愛媛県",
    "city": "西予市",
    "town": "宇和町久枝"
  },
  "7970021": {
    "zipcode": "7970021",
    "prefectureCode": "38",
    "prefectureNumber": 38,
    "prefecture": "愛媛県",
    "city": "西予市",
    "town": "宇和町野田"
  },
  "7970022": {
    "zipcode": "7970022",
    "prefectureCode": "38",
    "prefectureNumber": 38,
    "prefecture": "愛媛県",
    "city": "西予市",
    "town": "宇和町小野田"
  },
  "7970023": {
    "zipcode": "7970023",
    "prefectureCode": "38",
    "prefectureNumber": 38,
    "prefecture": "愛媛県",
    "city": "西予市",
    "town": "宇和町山田"
  },
  "7970024": {
    "zipcode": "7970024",
    "prefectureCode": "38",
    "prefectureNumber": 38,
    "prefecture": "愛媛県",
    "city": "西予市",
    "town": "宇和町西山田"
  },
  "7970025": {
    "zipcode": "7970025",
    "prefectureCode": "38",
    "prefectureNumber": 38,
    "prefecture": "愛媛県",
    "city": "西予市",
    "town": "宇和町郷内"
  },
  "7970026": {
    "zipcode": "7970026",
    "prefectureCode": "38",
    "prefectureNumber": 38,
    "prefecture": "愛媛県",
    "city": "西予市",
    "town": "宇和町岩木"
  },
  "7970027": {
    "zipcode": "7970027",
    "prefectureCode": "38",
    "prefectureNumber": 38,
    "prefecture": "愛媛県",
    "city": "西予市",
    "town": "宇和町小原"
  },
  "7970028": {
    "zipcode": "7970028",
    "prefectureCode": "38",
    "prefectureNumber": 38,
    "prefecture": "愛媛県",
    "city": "西予市",
    "town": "宇和町れんげ"
  },
  "7970029": {
    "zipcode": "7970029",
    "prefectureCode": "38",
    "prefectureNumber": 38,
    "prefecture": "愛媛県",
    "city": "西予市",
    "town": "宇和町永長"
  },
  "7970030": {
    "zipcode": "7970030",
    "prefectureCode": "38",
    "prefectureNumber": 38,
    "prefecture": "愛媛県",
    "city": "西予市",
    "town": "宇和町清沢"
  },
  "7970031": {
    "zipcode": "7970031",
    "prefectureCode": "38",
    "prefectureNumber": 38,
    "prefecture": "愛媛県",
    "city": "西予市",
    "town": "宇和町杢所"
  },
  "7970032": {
    "zipcode": "7970032",
    "prefectureCode": "38",
    "prefectureNumber": 38,
    "prefecture": "愛媛県",
    "city": "西予市",
    "town": "宇和町田苗真土"
  },
  "7970033": {
    "zipcode": "7970033",
    "prefectureCode": "38",
    "prefectureNumber": 38,
    "prefecture": "愛媛県",
    "city": "西予市",
    "town": "宇和町岡山"
  },
  "7970034": {
    "zipcode": "7970034",
    "prefectureCode": "38",
    "prefectureNumber": 38,
    "prefecture": "愛媛県",
    "city": "西予市",
    "town": "宇和町伊延"
  },
  "7970035": {
    "zipcode": "7970035",
    "prefectureCode": "38",
    "prefectureNumber": 38,
    "prefecture": "愛媛県",
    "city": "西予市",
    "town": "宇和町河内"
  },
  "7970036": {
    "zipcode": "7970036",
    "prefectureCode": "38",
    "prefectureNumber": 38,
    "prefecture": "愛媛県",
    "city": "西予市",
    "town": "宇和町久保"
  },
  "7970037": {
    "zipcode": "7970037",
    "prefectureCode": "38",
    "prefectureNumber": 38,
    "prefecture": "愛媛県",
    "city": "西予市",
    "town": "宇和町信里"
  },
  "7970041": {
    "zipcode": "7970041",
    "prefectureCode": "38",
    "prefectureNumber": 38,
    "prefecture": "愛媛県",
    "city": "西予市",
    "town": "宇和町東多田"
  },
  "7970042": {
    "zipcode": "7970042",
    "prefectureCode": "38",
    "prefectureNumber": 38,
    "prefecture": "愛媛県",
    "city": "西予市",
    "town": "宇和町瀬戸"
  },
  "7970043": {
    "zipcode": "7970043",
    "prefectureCode": "38",
    "prefectureNumber": 38,
    "prefecture": "愛媛県",
    "city": "西予市",
    "town": "宇和町大江"
  },
  "7970044": {
    "zipcode": "7970044",
    "prefectureCode": "38",
    "prefectureNumber": 38,
    "prefecture": "愛媛県",
    "city": "西予市",
    "town": "宇和町加茂"
  },
  "7970045": {
    "zipcode": "7970045",
    "prefectureCode": "38",
    "prefectureNumber": 38,
    "prefecture": "愛媛県",
    "city": "西予市",
    "town": "宇和町坂戸"
  },
  "7970046": {
    "zipcode": "7970046",
    "prefectureCode": "38",
    "prefectureNumber": 38,
    "prefecture": "愛媛県",
    "city": "西予市",
    "town": "宇和町上松葉"
  },
  "7970111": {
    "zipcode": "7970111",
    "prefectureCode": "38",
    "prefectureNumber": 38,
    "prefecture": "愛媛県",
    "city": "西予市",
    "town": "明浜町俵津"
  },
  "7970112": {
    "zipcode": "7970112",
    "prefectureCode": "38",
    "prefectureNumber": 38,
    "prefecture": "愛媛県",
    "city": "西予市",
    "town": "明浜町渡江"
  },
  "7970113": {
    "zipcode": "7970113",
    "prefectureCode": "38",
    "prefectureNumber": 38,
    "prefecture": "愛媛県",
    "city": "西予市",
    "town": "明浜町狩浜"
  },
  "7970201": {
    "zipcode": "7970201",
    "prefectureCode": "38",
    "prefectureNumber": 38,
    "prefecture": "愛媛県",
    "city": "西予市",
    "town": "明浜町高山"
  },
  "7970202": {
    "zipcode": "7970202",
    "prefectureCode": "38",
    "prefectureNumber": 38,
    "prefecture": "愛媛県",
    "city": "西予市",
    "town": "明浜町宮野浦"
  },
  "7970203": {
    "zipcode": "7970203",
    "prefectureCode": "38",
    "prefectureNumber": 38,
    "prefecture": "愛媛県",
    "city": "西予市",
    "town": "明浜町田之浜"
  },
  "7971101": {
    "zipcode": "7971101",
    "prefectureCode": "38",
    "prefectureNumber": 38,
    "prefecture": "愛媛県",
    "city": "西予市",
    "town": "野村町白髭"
  },
  "7971102": {
    "zipcode": "7971102",
    "prefectureCode": "38",
    "prefectureNumber": 38,
    "prefecture": "愛媛県",
    "city": "西予市",
    "town": "野村町松渓"
  },
  "7971103": {
    "zipcode": "7971103",
    "prefectureCode": "38",
    "prefectureNumber": 38,
    "prefecture": "愛媛県",
    "city": "西予市",
    "town": "野村町四郎谷"
  },
  "7971104": {
    "zipcode": "7971104",
    "prefectureCode": "38",
    "prefectureNumber": 38,
    "prefecture": "愛媛県",
    "city": "西予市",
    "town": "野村町河西"
  },
  "7971105": {
    "zipcode": "7971105",
    "prefectureCode": "38",
    "prefectureNumber": 38,
    "prefecture": "愛媛県",
    "city": "西予市",
    "town": "野村町長谷"
  },
  "7971106": {
    "zipcode": "7971106",
    "prefectureCode": "38",
    "prefectureNumber": 38,
    "prefecture": "愛媛県",
    "city": "西予市",
    "town": "野村町旭"
  },
  "7971107": {
    "zipcode": "7971107",
    "prefectureCode": "38",
    "prefectureNumber": 38,
    "prefecture": "愛媛県",
    "city": "西予市",
    "town": "野村町鳥鹿野"
  },
  "7971211": {
    "zipcode": "7971211",
    "prefectureCode": "38",
    "prefectureNumber": 38,
    "prefecture": "愛媛県",
    "city": "西予市",
    "town": "野村町阿下"
  },
  "7971212": {
    "zipcode": "7971212",
    "prefectureCode": "38",
    "prefectureNumber": 38,
    "prefecture": "愛媛県",
    "city": "西予市",
    "town": "野村町野村"
  },
  "7971213": {
    "zipcode": "7971213",
    "prefectureCode": "38",
    "prefectureNumber": 38,
    "prefecture": "愛媛県",
    "city": "西予市",
    "town": "野村町片川"
  },
  "7971214": {
    "zipcode": "7971214",
    "prefectureCode": "38",
    "prefectureNumber": 38,
    "prefecture": "愛媛県",
    "city": "西予市",
    "town": "野村町富野川"
  },
  "7971215": {
    "zipcode": "7971215",
    "prefectureCode": "38",
    "prefectureNumber": 38,
    "prefecture": "愛媛県",
    "city": "西予市",
    "town": "野村町高瀬"
  },
  "7971216": {
    "zipcode": "7971216",
    "prefectureCode": "38",
    "prefectureNumber": 38,
    "prefecture": "愛媛県",
    "city": "西予市",
    "town": "野村町蔵良"
  },
  "7971217": {
    "zipcode": "7971217",
    "prefectureCode": "38",
    "prefectureNumber": 38,
    "prefecture": "愛媛県",
    "city": "西予市",
    "town": "野村町平野"
  },
  "7971321": {
    "zipcode": "7971321",
    "prefectureCode": "38",
    "prefectureNumber": 38,
    "prefecture": "愛媛県",
    "city": "西予市",
    "town": "野村町予子林"
  },
  "7971322": {
    "zipcode": "7971322",
    "prefectureCode": "38",
    "prefectureNumber": 38,
    "prefecture": "愛媛県",
    "city": "西予市",
    "town": "野村町坂石"
  },
  "7971323": {
    "zipcode": "7971323",
    "prefectureCode": "38",
    "prefectureNumber": 38,
    "prefecture": "愛媛県",
    "city": "西予市",
    "town": "野村町釜川"
  },
  "7971324": {
    "zipcode": "7971324",
    "prefectureCode": "38",
    "prefectureNumber": 38,
    "prefecture": "愛媛県",
    "city": "西予市",
    "town": "野村町大西"
  },
  "7971325": {
    "zipcode": "7971325",
    "prefectureCode": "38",
    "prefectureNumber": 38,
    "prefecture": "愛媛県",
    "city": "西予市",
    "town": "野村町中通川"
  },
  "7971326": {
    "zipcode": "7971326",
    "prefectureCode": "38",
    "prefectureNumber": 38,
    "prefecture": "愛媛県",
    "city": "西予市",
    "town": "野村町鎌田"
  },
  "7971327": {
    "zipcode": "7971327",
    "prefectureCode": "38",
    "prefectureNumber": 38,
    "prefecture": "愛媛県",
    "city": "西予市",
    "town": "野村町栗木"
  },
  "7971328": {
    "zipcode": "7971328",
    "prefectureCode": "38",
    "prefectureNumber": 38,
    "prefecture": "愛媛県",
    "city": "西予市",
    "town": "野村町西"
  },
  "7971431": {
    "zipcode": "7971431",
    "prefectureCode": "38",
    "prefectureNumber": 38,
    "prefecture": "愛媛県",
    "city": "西予市",
    "town": "野村町舟戸"
  },
  "7971432": {
    "zipcode": "7971432",
    "prefectureCode": "38",
    "prefectureNumber": 38,
    "prefecture": "愛媛県",
    "city": "西予市",
    "town": "野村町惣川"
  },
  "7971433": {
    "zipcode": "7971433",
    "prefectureCode": "38",
    "prefectureNumber": 38,
    "prefecture": "愛媛県",
    "city": "西予市",
    "town": "野村町小松"
  },
  "7971434": {
    "zipcode": "7971434",
    "prefectureCode": "38",
    "prefectureNumber": 38,
    "prefecture": "愛媛県",
    "city": "西予市",
    "town": "野村町大野ケ原"
  },
  "7971501": {
    "zipcode": "7971501",
    "prefectureCode": "38",
    "prefectureNumber": 38,
    "prefecture": "愛媛県",
    "city": "大洲市",
    "town": "肱川町中居谷"
  },
  "7971502": {
    "zipcode": "7971502",
    "prefectureCode": "38",
    "prefectureNumber": 38,
    "prefecture": "愛媛県",
    "city": "大洲市",
    "town": "肱川町名荷谷"
  },
  "7971503": {
    "zipcode": "7971503",
    "prefectureCode": "38",
    "prefectureNumber": 38,
    "prefecture": "愛媛県",
    "city": "大洲市",
    "town": "肱川町宇和川"
  },
  "7971504": {
    "zipcode": "7971504",
    "prefectureCode": "38",
    "prefectureNumber": 38,
    "prefecture": "愛媛県",
    "city": "大洲市",
    "town": "肱川町山鳥坂"
  },
  "7971505": {
    "zipcode": "7971505",
    "prefectureCode": "38",
    "prefectureNumber": 38,
    "prefecture": "愛媛県",
    "city": "大洲市",
    "town": "肱川町予子林"
  },
  "7971506": {
    "zipcode": "7971506",
    "prefectureCode": "38",
    "prefectureNumber": 38,
    "prefecture": "愛媛県",
    "city": "大洲市",
    "town": "肱川町中津"
  },
  "7971507": {
    "zipcode": "7971507",
    "prefectureCode": "38",
    "prefectureNumber": 38,
    "prefecture": "愛媛県",
    "city": "大洲市",
    "town": "肱川町大谷"
  },
  "7971508": {
    "zipcode": "7971508",
    "prefectureCode": "38",
    "prefectureNumber": 38,
    "prefecture": "愛媛県",
    "city": "大洲市",
    "town": "肱川町西"
  },
  "7971601": {
    "zipcode": "7971601",
    "prefectureCode": "38",
    "prefectureNumber": 38,
    "prefecture": "愛媛県",
    "city": "大洲市",
    "town": "河辺町植松"
  },
  "7971602": {
    "zipcode": "7971602",
    "prefectureCode": "38",
    "prefectureNumber": 38,
    "prefecture": "愛媛県",
    "city": "大洲市",
    "town": "河辺町山鳥坂"
  },
  "7971603": {
    "zipcode": "7971603",
    "prefectureCode": "38",
    "prefectureNumber": 38,
    "prefecture": "愛媛県",
    "city": "大洲市",
    "town": "河辺町横山"
  },
  "7971604": {
    "zipcode": "7971604",
    "prefectureCode": "38",
    "prefectureNumber": 38,
    "prefecture": "愛媛県",
    "city": "大洲市",
    "town": "河辺町川崎"
  },
  "7971605": {
    "zipcode": "7971605",
    "prefectureCode": "38",
    "prefectureNumber": 38,
    "prefecture": "愛媛県",
    "city": "大洲市",
    "town": "河辺町河都"
  },
  "7971606": {
    "zipcode": "7971606",
    "prefectureCode": "38",
    "prefectureNumber": 38,
    "prefecture": "愛媛県",
    "city": "大洲市",
    "town": "河辺町三嶋"
  },
  "7971607": {
    "zipcode": "7971607",
    "prefectureCode": "38",
    "prefectureNumber": 38,
    "prefecture": "愛媛県",
    "city": "大洲市",
    "town": "河辺町川上"
  },
  "7971608": {
    "zipcode": "7971608",
    "prefectureCode": "38",
    "prefectureNumber": 38,
    "prefecture": "愛媛県",
    "city": "大洲市",
    "town": "河辺町北平"
  },
  "7971701": {
    "zipcode": "7971701",
    "prefectureCode": "38",
    "prefectureNumber": 38,
    "prefecture": "愛媛県",
    "city": "西予市",
    "town": "城川町土居"
  },
  "7971702": {
    "zipcode": "7971702",
    "prefectureCode": "38",
    "prefectureNumber": 38,
    "prefecture": "愛媛県",
    "city": "西予市",
    "town": "城川町古市"
  },
  "7971703": {
    "zipcode": "7971703",
    "prefectureCode": "38",
    "prefectureNumber": 38,
    "prefecture": "愛媛県",
    "city": "西予市",
    "town": "城川町窪野"
  },
  "7971704": {
    "zipcode": "7971704",
    "prefectureCode": "38",
    "prefectureNumber": 38,
    "prefecture": "愛媛県",
    "city": "西予市",
    "town": "城川町川津南"
  },
  "7971705": {
    "zipcode": "7971705",
    "prefectureCode": "38",
    "prefectureNumber": 38,
    "prefecture": "愛媛県",
    "city": "西予市",
    "town": "城川町高野子"
  },
  "7971711": {
    "zipcode": "7971711",
    "prefectureCode": "38",
    "prefectureNumber": 38,
    "prefecture": "愛媛県",
    "city": "西予市",
    "town": "城川町野井川"
  },
  "7971712": {
    "zipcode": "7971712",
    "prefectureCode": "38",
    "prefectureNumber": 38,
    "prefecture": "愛媛県",
    "city": "西予市",
    "town": "城川町遊子谷"
  },
  "7971713": {
    "zipcode": "7971713",
    "prefectureCode": "38",
    "prefectureNumber": 38,
    "prefecture": "愛媛県",
    "city": "西予市",
    "town": "城川町嘉喜尾"
  },
  "7971714": {
    "zipcode": "7971714",
    "prefectureCode": "38",
    "prefectureNumber": 38,
    "prefecture": "愛媛県",
    "city": "西予市",
    "town": "城川町男河内"
  },
  "7971715": {
    "zipcode": "7971715",
    "prefectureCode": "38",
    "prefectureNumber": 38,
    "prefecture": "愛媛県",
    "city": "西予市",
    "town": "城川町田穂"
  },
  "7971716": {
    "zipcode": "7971716",
    "prefectureCode": "38",
    "prefectureNumber": 38,
    "prefecture": "愛媛県",
    "city": "西予市",
    "town": "城川町魚成"
  },
  "7971717": {
    "zipcode": "7971717",
    "prefectureCode": "38",
    "prefectureNumber": 38,
    "prefecture": "愛媛県",
    "city": "西予市",
    "town": "城川町下相"
  }
}
