{
  "7980000": {
    "zipcode": "7980000",
    "prefectureCode": "38",
    "prefectureNumber": 38,
    "prefecture": "愛媛県",
    "city": "宇和島市",
    "town": "以下に掲載がない場合"
  },
  "7980001": {
    "zipcode": "7980001",
    "prefectureCode": "38",
    "prefectureNumber": 38,
    "prefecture": "愛媛県",
    "city": "宇和島市",
    "town": "大浦（赤松）"
  },
  "7980002": {
    "zipcode": "7980002",
    "prefectureCode": "38",
    "prefectureNumber": 38,
    "prefecture": "愛媛県",
    "city": "宇和島市",
    "town": "大浦（その他）"
  },
  "7980003": {
    "zipcode": "7980003",
    "prefectureCode": "38",
    "prefectureNumber": 38,
    "prefecture": "愛媛県",
    "city": "宇和島市",
    "town": "住吉町"
  },
  "7980004": {
    "zipcode": "7980004",
    "prefectureCode": "38",
    "prefectureNumber": 38,
    "prefecture": "愛媛県",
    "city": "宇和島市",
    "town": "朝日町"
  },
  "7980005": {
    "zipcode": "7980005",
    "prefectureCode": "38",
    "prefectureNumber": 38,
    "prefecture": "愛媛県",
    "city": "宇和島市",
    "town": "築地町"
  },
  "7980006": {
    "zipcode": "7980006",
    "prefectureCode": "38",
    "prefectureNumber": 38,
    "prefecture": "愛媛県",
    "city": "宇和島市",
    "town": "弁天町"
  },
  "7980007": {
    "zipcode": "7980007",
    "prefectureCode": "38",
    "prefectureNumber": 38,
    "prefecture": "愛媛県",
    "city": "宇和島市",
    "town": "寿町"
  },
  "7980010": {
    "zipcode": "7980010",
    "prefectureCode": "38",
    "prefectureNumber": 38,
    "prefecture": "愛媛県",
    "city": "宇和島市",
    "town": "藤江"
  },
  "7980011": {
    "zipcode": "7980011",
    "prefectureCode": "38",
    "prefectureNumber": 38,
    "prefecture": "愛媛県",
    "city": "宇和島市",
    "town": "須賀通"
  },
  "7980012": {
    "zipcode": "7980012",
    "prefectureCode": "38",
    "prefectureNumber": 38,
    "prefecture": "愛媛県",
    "city": "宇和島市",
    "town": "和霊町"
  },
  "7980013": {
    "zipcode": "7980013",
    "prefectureCode": "38",
    "prefectureNumber": 38,
    "prefecture": "愛媛県",
    "city": "宇和島市",
    "town": "御幸町"
  },
  "7980014": {
    "zipcode": "7980014",
    "prefectureCode": "38",
    "prefectureNumber": 38,
    "prefecture": "愛媛県",
    "city": "宇和島市",
    "town": "和霊公園"
  },
  "7980015": {
    "zipcode": "7980015",
    "prefectureCode": "38",
    "prefectureNumber": 38,
    "prefecture": "愛媛県",
    "city": "宇和島市",
    "town": "和霊元町"
  },
  "7980016": {
    "zipcode": "7980016",
    "prefectureCode": "38",
    "prefectureNumber": 38,
    "prefecture": "愛媛県",
    "city": "宇和島市",
    "town": "和霊中町"
  },
  "7980017": {
    "zipcode": "7980017",
    "prefectureCode": "38",
    "prefectureNumber": 38,
    "prefecture": "愛媛県",
    "city": "宇和島市",
    "town": "和霊東町"
  },
  "7980020": {
    "zipcode": "7980020",
    "prefectureCode": "38",
    "prefectureNumber": 38,
    "prefecture": "愛媛県",
    "city": "宇和島市",
    "town": "高串"
  },
  "7980021": {
    "zipcode": "7980021",
    "prefectureCode": "38",
    "prefectureNumber": 38,
    "prefecture": "愛媛県",
    "city": "宇和島市",
    "town": "光満"
  },
  "7980022": {
    "zipcode": "7980022",
    "prefectureCode": "38",
    "prefectureNumber": 38,
    "prefecture": "愛媛県",
    "city": "宇和島市",
    "town": "伊吹町（その他）"
  },
  "7980023": {
    "zipcode": "7980023",
    "prefectureCode": "38",
    "prefectureNumber": 38,
    "prefecture": "愛媛県",
    "city": "宇和島市",
    "town": "伊吹町（北宇和島町）"
  },
  "7980024": {
    "zipcode": "7980024",
    "prefectureCode": "38",
    "prefectureNumber": 38,
    "prefecture": "愛媛県",
    "city": "宇和島市",
    "town": "伊吹町（北通）"
  },
  "7980025": {
    "zipcode": "7980025",
    "prefectureCode": "38",
    "prefectureNumber": 38,
    "prefecture": "愛媛県",
    "city": "宇和島市",
    "town": "伊吹町（東通）"
  },
  "7980026": {
    "zipcode": "7980026",
    "prefectureCode": "38",
    "prefectureNumber": 38,
    "prefecture": "愛媛県",
    "city": "宇和島市",
    "town": "泉町"
  },
  "7980027": {
    "zipcode": "7980027",
    "prefectureCode": "38",
    "prefectureNumber": 38,
    "prefecture": "愛媛県",
    "city": "宇和島市",
    "town": "柿原"
  },
  "7980030": {
    "zipcode": "7980030",
    "prefectureCode": "38",
    "prefectureNumber": 38,
    "prefecture": "愛媛県",
    "city": "宇和島市",
    "town": "曙町"
  },
  "7980031": {
    "zipcode": "7980031",
    "prefectureCode": "38",
    "prefectureNumber": 38,
    "prefecture": "愛媛県",
    "city": "宇和島市",
    "town": "栄町港"
  },
  "7980032": {
    "zipcode": "7980032",
    "prefectureCode": "38",
    "prefectureNumber": 38,
    "prefecture": "愛媛県",
    "city": "宇和島市",
    "town": "恵美須町"
  },
  "7980033": {
    "zipcode": "7980033",
    "prefectureCode": "38",
    "prefectureNumber": 38,
    "prefecture": "愛媛県",
    "city": "宇和島市",
    "town": "鶴島町"
  },
  "7980034": {
    "zipcode": "7980034",
    "prefectureCode": "38",
    "prefectureNumber": 38,
    "prefecture": "愛媛県",
    "city": "宇和島市",
    "town": "錦町"
  },
  "7980035": {
    "zipcode": "7980035",
    "prefectureCode": "38",
    "prefectureNumber": 38,
    "prefecture": "愛媛県",
    "city": "宇和島市",
    "town": "新町"
  },
  "7980036": {
    "zipcode": "7980036",
    "prefectureCode": "38",
    "prefectureNumber": 38,
    "prefecture": "愛媛県",
    "city": "宇和島市",
    "town": "天神町"
  },
  "7980037": {
    "zipcode": "7980037",
    "prefectureCode": "38",
    "prefectureNumber": 38,
    "prefecture": "愛媛県",
    "city": "宇和島市",
    "town": "丸穂町（丁目）"
  },
  "7980038": {
    "zipcode": "7980038",
    "prefectureCode": "38",
    "prefectureNumber": 38,
    "prefecture": "愛媛県",
    "city": "宇和島市",
    "town": "丸穂（番地）"
  },
  "7980039": {
    "zipcode": "7980039",
    "prefectureCode": "38",
    "prefectureNumber": 38,
    "prefecture": "愛媛県",
    "city": "宇和島市",
    "town": "大宮町"
  },
  "7980040": {
    "zipcode": "7980040",
    "prefectureCode": "38",
    "prefectureNumber": 38,
    "prefecture": "愛媛県",
    "city": "宇和島市",
    "town": "中央町"
  },
  "7980041": {
    "zipcode": "7980041",
    "prefectureCode": "38",
    "prefectureNumber": 38,
    "prefecture": "愛媛県",
    "city": "宇和島市",
    "town": "本町追手"
  },
  "7980042": {
    "zipcode": "7980042",
    "prefectureCode": "38",
    "prefectureNumber": 38,
    "prefecture": "愛媛県",
    "city": "宇和島市",
    "town": "愛宕町"
  },
  "7980043": {
    "zipcode": "7980043",
    "prefectureCode": "38",
    "prefectureNumber": 38,
    "prefecture": "愛媛県",
    "city": "宇和島市",
    "town": "宇和津町"
  },
  "7980044": {
    "zipcode": "7980044",
    "prefectureCode": "38",
    "prefectureNumber": 38,
    "prefecture": "愛媛県",
    "city": "宇和島市",
    "town": "野川（その他）"
  },
  "7980045": {
    "zipcode": "7980045",
    "prefectureCode": "38",
    "prefectureNumber": 38,
    "prefecture": "愛媛県",
    "city": "宇和島市",
    "town": "大超寺奥"
  },
  "7980050": {
    "zipcode": "7980050",
    "prefectureCode": "38",
    "prefectureNumber": 38,
    "prefecture": "愛媛県",
    "city": "宇和島市",
    "town": "堀端町"
  },
  "7980051": {
    "zipcode": "7980051",
    "prefectureCode": "38",
    "prefectureNumber": 38,
    "prefecture": "愛媛県",
    "city": "宇和島市",
    "town": "広小路"
  },
  "7980052": {
    "zipcode": "7980052",
    "prefectureCode": "38",
    "prefectureNumber": 38,
    "prefecture": "愛媛県",
    "city": "宇和島市",
    "town": "京町"
  },
  "7980053": {
    "zipcode": "7980053",
    "prefectureCode": "38",
    "prefectureNumber": 38,
    "prefecture": "愛媛県",
    "city": "宇和島市",
    "town": "賀古町"
  },
  "7980054": {
    "zipcode": "7980054",
    "prefectureCode": "38",
    "prefectureNumber": 38,
    "prefecture": "愛媛県",
    "city": "宇和島市",
    "town": "笹町"
  },
  "7980060": {
    "zipcode": "7980060",
    "prefectureCode": "38",
    "prefectureNumber": 38,
    "prefecture": "愛媛県",
    "city": "宇和島市",
    "town": "丸之内"
  },
  "7980061": {
    "zipcode": "7980061",
    "prefectureCode": "38",
    "prefectureNumber": 38,
    "prefecture": "愛媛県",
    "city": "宇和島市",
    "town": "御殿町"
  },
  "7980062": {
    "zipcode": "7980062",
    "prefectureCode": "38",
    "prefectureNumber": 38,
    "prefecture": "愛媛県",
    "city": "宇和島市",
    "town": "桜町"
  },
  "7980063": {
    "zipcode": "7980063",
    "prefectureCode": "38",
    "prefectureNumber": 38,
    "prefecture": "愛媛県",
    "city": "宇和島市",
    "town": "御徒町"
  },
  "7980064": {
    "zipcode": "7980064",
    "prefectureCode": "38",
    "prefectureNumber": 38,
    "prefecture": "愛媛県",
    "city": "宇和島市",
    "town": "佐伯町"
  },
  "7980065": {
    "zipcode": "7980065",
    "prefectureCode": "38",
    "prefectureNumber": 38,
    "prefecture": "愛媛県",
    "city": "宇和島市",
    "town": "天赦公園"
  },
  "7980066": {
    "zipcode": "7980066",
    "prefectureCode": "38",
    "prefectureNumber": 38,
    "prefecture": "愛媛県",
    "city": "宇和島市",
    "town": "文京町"
  },
  "7980067": {
    "zipcode": "7980067",
    "prefectureCode": "38",
    "prefectureNumber": 38,
    "prefecture": "愛媛県",
    "city": "宇和島市",
    "town": "桝形町"
  },
  "7980068": {
    "zipcode": "7980068",
    "prefectureCode": "38",
    "prefectureNumber": 38,
    "prefecture": "愛媛県",
    "city": "宇和島市",
    "town": "明倫町"
  },
  "7980070": {
    "zipcode": "7980070",
    "prefectureCode": "38",
    "prefectureNumber": 38,
    "prefecture": "愛媛県",
    "city": "宇和島市",
    "town": "神田川原"
  },
  "7980071": {
    "zipcode": "7980071",
    "prefectureCode": "38",
    "prefectureNumber": 38,
    "prefecture": "愛媛県",
    "city": "宇和島市",
    "town": "妙典寺前"
  },
  "7980072": {
    "zipcode": "7980072",
    "prefectureCode": "38",
    "prefectureNumber": 38,
    "prefecture": "愛媛県",
    "city": "宇和島市",
    "town": "元結掛"
  },
  "7980073": {
    "zipcode": "7980073",
    "prefectureCode": "38",
    "prefectureNumber": 38,
    "prefecture": "愛媛県",
    "city": "宇和島市",
    "town": "山際"
  },
  "7980074": {
    "zipcode": "7980074",
    "prefectureCode": "38",
    "prefectureNumber": 38,
    "prefecture": "愛媛県",
    "city": "宇和島市",
    "town": "並松"
  },
  "7980075": {
    "zipcode": "7980075",
    "prefectureCode": "38",
    "prefectureNumber": 38,
    "prefecture": "愛媛県",
    "city": "宇和島市",
    "town": "川内（その他）"
  },
  "7980076": {
    "zipcode": "7980076",
    "prefectureCode": "38",
    "prefectureNumber": 38,
    "prefecture": "愛媛県",
    "city": "宇和島市",
    "town": "川内（薬師谷）"
  },
  "7980077": {
    "zipcode": "7980077",
    "prefectureCode": "38",
    "prefectureNumber": 38,
    "prefecture": "愛媛県",
    "city": "宇和島市",
    "town": "保田"
  },
  "7980078": {
    "zipcode": "7980078",
    "prefectureCode": "38",
    "prefectureNumber": 38,
    "prefecture": "愛媛県",
    "city": "宇和島市",
    "town": "祝森"
  },
  "7980080": {
    "zipcode": "7980080",
    "prefectureCode": "38",
    "prefectureNumber": 38,
    "prefecture": "愛媛県",
    "city": "宇和島市",
    "town": "新田町"
  },
  "7980081": {
    "zipcode": "7980081",
    "prefectureCode": "38",
    "prefectureNumber": 38,
    "prefecture": "愛媛県",
    "city": "宇和島市",
    "town": "中沢町"
  },
  "7980082": {
    "zipcode": "7980082",
    "prefectureCode": "38",
    "prefectureNumber": 38,
    "prefecture": "愛媛県",
    "city": "宇和島市",
    "town": "長堀"
  },
  "7980083": {
    "zipcode": "7980083",
    "prefectureCode": "38",
    "prefectureNumber": 38,
    "prefecture": "愛媛県",
    "city": "宇和島市",
    "town": "夏目町"
  },
  "7980084": {
    "zipcode": "7980084",
    "prefectureCode": "38",
    "prefectureNumber": 38,
    "prefecture": "愛媛県",
    "city": "宇和島市",
    "town": "寄松"
  },
  "7980085": {
    "zipcode": "7980085",
    "prefectureCode": "38",
    "prefectureNumber": 38,
    "prefecture": "愛媛県",
    "city": "宇和島市",
    "town": "宮下"
  },
  "7980086": {
    "zipcode": "7980086",
    "prefectureCode": "38",
    "prefectureNumber": 38,
    "prefecture": "愛媛県",
    "city": "宇和島市",
    "town": "別当"
  },
  "7980087": {
    "zipcode": "7980087",
    "prefectureCode": "38",
    "prefectureNumber": 38,
    "prefecture": "愛媛県",
    "city": "宇和島市",
    "town": "坂下津"
  },
  "7980088": {
    "zipcode": "7980088",
    "prefectureCode": "38",
    "prefectureNumber": 38,
    "prefecture": "愛媛県",
    "city": "宇和島市",
    "town": "保手"
  },
  "7980090": {
    "zipcode": "7980090",
    "prefectureCode": "38",
    "prefectureNumber": 38,
    "prefecture": "愛媛県",
    "city": "宇和島市",
    "town": "白浜"
  },
  "7980091": {
    "zipcode": "7980091",
    "prefectureCode": "38",
    "prefectureNumber": 38,
    "prefecture": "愛媛県",
    "city": "宇和島市",
    "town": "石応"
  },
  "7980092": {
    "zipcode": "7980092",
    "prefectureCode": "38",
    "prefectureNumber": 38,
    "prefecture": "愛媛県",
    "city": "宇和島市",
    "town": "小浜"
  },
  "7980093": {
    "zipcode": "7980093",
    "prefectureCode": "38",
    "prefectureNumber": 38,
    "prefecture": "愛媛県",
    "city": "宇和島市",
    "town": "小池"
  },
  "7980094": {
    "zipcode": "7980094",
    "prefectureCode": "38",
    "prefectureNumber": 38,
    "prefecture": "愛媛県",
    "city": "宇和島市",
    "town": "蕨"
  },
  "7980095": {
    "zipcode": "7980095",
    "prefectureCode": "38",
    "prefectureNumber": 38,
    "prefecture": "愛媛県",
    "city": "宇和島市",
    "town": "平浦"
  },
  "7980096": {
    "zipcode": "7980096",
    "prefectureCode": "38",
    "prefectureNumber": 38,
    "prefecture": "愛媛県",
    "city": "宇和島市",
    "town": "本九島"
  },
  "7980097": {
    "zipcode": "7980097",
    "prefectureCode": "38",
    "prefectureNumber": 38,
    "prefecture": "愛媛県",
    "city": "宇和島市",
    "town": "百之浦"
  },
  "7980098": {
    "zipcode": "7980098",
    "prefectureCode": "38",
    "prefectureNumber": 38,
    "prefecture": "愛媛県",
    "city": "宇和島市",
    "town": "蛤"
  },
  "7980099": {
    "zipcode": "7980099",
    "prefectureCode": "38",
    "prefectureNumber": 38,
    "prefecture": "愛媛県",
    "city": "宇和島市",
    "town": "日振島"
  },
  "7980101": {
    "zipcode": "7980101",
    "prefectureCode": "38",
    "prefectureNumber": 38,
    "prefecture": "愛媛県",
    "city": "宇和島市",
    "town": "三浦東"
  },
  "7980102": {
    "zipcode": "7980102",
    "prefectureCode": "38",
    "prefectureNumber": 38,
    "prefecture": "愛媛県",
    "city": "宇和島市",
    "town": "三浦西"
  },
  "7980103": {
    "zipcode": "7980103",
    "prefectureCode": "38",
    "prefectureNumber": 38,
    "prefecture": "愛媛県",
    "city": "宇和島市",
    "town": "遊子"
  },
  "7980104": {
    "zipcode": "7980104",
    "prefectureCode": "38",
    "prefectureNumber": 38,
    "prefecture": "愛媛県",
    "city": "宇和島市",
    "town": "下波"
  },
  "7980211": {
    "zipcode": "7980211",
    "prefectureCode": "38",
    "prefectureNumber": 38,
    "prefecture": "愛媛県",
    "city": "宇和島市",
    "town": "蒋渕"
  },
  "7980212": {
    "zipcode": "7980212",
    "prefectureCode": "38",
    "prefectureNumber": 38,
    "prefecture": "愛媛県",
    "city": "宇和島市",
    "town": "戸島"
  },
  "7981101": {
    "zipcode": "7981101",
    "prefectureCode": "38",
    "prefectureNumber": 38,
    "prefecture": "愛媛県",
    "city": "宇和島市",
    "town": "三間町大藤"
  },
  "7981102": {
    "zipcode": "7981102",
    "prefectureCode": "38",
    "prefectureNumber": 38,
    "prefecture": "愛媛県",
    "city": "宇和島市",
    "town": "三間町則"
  },
  "7981103": {
    "zipcode": "7981103",
    "prefectureCode": "38",
    "prefectureNumber": 38,
    "prefecture": "愛媛県",
    "city": "宇和島市",
    "town": "三間町成家"
  },
  "7981104": {
    "zipcode": "7981104",
    "prefectureCode": "38",
    "prefectureNumber": 38,
    "prefecture": "愛媛県",
    "city": "宇和島市",
    "town": "三間町曽根"
  },
  "7981105": {
    "zipcode": "7981105",
    "prefectureCode": "38",
    "prefectureNumber": 38,
    "prefecture": "愛媛県",
    "city": "宇和島市",
    "town": "三間町是能"
  },
  "7981111": {
    "zipcode": "7981111",
    "prefectureCode": "38",
    "prefectureNumber": 38,
    "prefecture": "愛媛県",
    "city": "宇和島市",
    "town": "三間町北増穂"
  },
  "7981112": {
    "zipcode": "7981112",
    "prefectureCode": "38",
    "prefectureNumber": 38,
    "prefecture": "愛媛県",
    "city": "宇和島市",
    "town": "三間町宮野下"
  },
  "7981113": {
    "zipcode": "7981113",
    "prefectureCode": "38",
    "prefectureNumber": 38,
    "prefecture": "愛媛県",
    "city": "宇和島市",
    "town": "三間町迫目"
  },
  "7981114": {
    "zipcode": "7981114",
    "prefectureCode": "38",
    "prefectureNumber": 38,
    "prefecture": "愛媛県",
    "city": "宇和島市",
    "town": "三間町務田"
  },
  "7981115": {
    "zipcode": "7981115",
    "prefectureCode": "38",
    "prefectureNumber": 38,
    "prefecture": "愛媛県",
    "city": "宇和島市",
    "town": "三間町戸雁"
  },
  "7981116": {
    "zipcode": "7981116",
    "prefectureCode": "38",
    "prefectureNumber": 38,
    "prefecture": "愛媛県",
    "city": "宇和島市",
    "town": "三間町黒井地"
  },
  "7981121": {
    "zipcode": "7981121",
    "prefectureCode": "38",
    "prefectureNumber": 38,
    "prefecture": "愛媛県",
    "city": "宇和島市",
    "town": "三間町川之内"
  },
  "7981122": {
    "zipcode": "7981122",
    "prefectureCode": "38",
    "prefectureNumber": 38,
    "prefecture": "愛媛県",
    "city": "宇和島市",
    "town": "三間町小沢川"
  },
  "7981123": {
    "zipcode": "7981123",
    "prefectureCode": "38",
    "prefectureNumber": 38,
    "prefecture": "愛媛県",
    "city": "宇和島市",
    "town": "三間町元宗"
  },
  "7981124": {
    "zipcode": "7981124",
    "prefectureCode": "38",
    "prefectureNumber": 38,
    "prefecture": "愛媛県",
    "city": "宇和島市",
    "town": "三間町増田"
  },
  "7981125": {
    "zipcode": "7981125",
    "prefectureCode": "38",
    "prefectureNumber": 38,
    "prefecture": "愛媛県",
    "city": "宇和島市",
    "town": "三間町土居中"
  },
  "7981131": {
    "zipcode": "7981131",
    "prefectureCode": "38",
    "prefectureNumber": 38,
    "prefecture": "愛媛県",
    "city": "宇和島市",
    "town": "三間町田川"
  },
  "7981132": {
    "zipcode": "7981132",
    "prefectureCode": "38",
    "prefectureNumber": 38,
    "prefecture": "愛媛県",
    "city": "宇和島市",
    "town": "三間町波岡"
  },
  "7981133": {
    "zipcode": "7981133",
    "prefectureCode": "38",
    "prefectureNumber": 38,
    "prefecture": "愛媛県",
    "city": "宇和島市",
    "town": "三間町中野中"
  },
  "7981134": {
    "zipcode": "7981134",
    "prefectureCode": "38",
    "prefectureNumber": 38,
    "prefecture": "愛媛県",
    "city": "宇和島市",
    "town": "三間町金銅"
  },
  "7981135": {
    "zipcode": "7981135",
    "prefectureCode": "38",
    "prefectureNumber": 38,
    "prefecture": "愛媛県",
    "city": "宇和島市",
    "town": "三間町古藤田"
  },
  "7981136": {
    "zipcode": "7981136",
    "prefectureCode": "38",
    "prefectureNumber": 38,
    "prefecture": "愛媛県",
    "city": "宇和島市",
    "town": "三間町大内"
  },
  "7981137": {
    "zipcode": "7981137",
    "prefectureCode": "38",
    "prefectureNumber": 38,
    "prefecture": "愛媛県",
    "city": "宇和島市",
    "town": "三間町兼近"
  },
  "7981138": {
    "zipcode": "7981138",
    "prefectureCode": "38",
    "prefectureNumber": 38,
    "prefecture": "愛媛県",
    "city": "宇和島市",
    "town": "三間町土居垣内"
  },
  "7981139": {
    "zipcode": "7981139",
    "prefectureCode": "38",
    "prefectureNumber": 38,
    "prefecture": "愛媛県",
    "city": "宇和島市",
    "town": "三間町是延"
  },
  "7981141": {
    "zipcode": "7981141",
    "prefectureCode": "38",
    "prefectureNumber": 38,
    "prefecture": "愛媛県",
    "city": "宇和島市",
    "town": "三間町音地"
  },
  "7981142": {
    "zipcode": "7981142",
    "prefectureCode": "38",
    "prefectureNumber": 38,
    "prefecture": "愛媛県",
    "city": "宇和島市",
    "town": "三間町三間中間"
  },
  "7981143": {
    "zipcode": "7981143",
    "prefectureCode": "38",
    "prefectureNumber": 38,
    "prefecture": "愛媛県",
    "city": "宇和島市",
    "town": "三間町黒川"
  },
  "7981300": {
    "zipcode": "7981300",
    "prefectureCode": "38",
    "prefectureNumber": 38,
    "prefecture": "愛媛県",
    "city": "北宇和郡鬼北町",
    "town": "以下に掲載がない場合"
  },
  "7981301": {
    "zipcode": "7981301",
    "prefectureCode": "38",
    "prefectureNumber": 38,
    "prefecture": "愛媛県",
    "city": "北宇和郡鬼北町",
    "town": "大宿"
  },
  "7981302": {
    "zipcode": "7981302",
    "prefectureCode": "38",
    "prefectureNumber": 38,
    "prefecture": "愛媛県",
    "city": "北宇和郡鬼北町",
    "town": "下大野"
  },
  "7981303": {
    "zipcode": "7981303",
    "prefectureCode": "38",
    "prefectureNumber": 38,
    "prefecture": "愛媛県",
    "city": "北宇和郡鬼北町",
    "town": "広見"
  },
  "7981311": {
    "zipcode": "7981311",
    "prefectureCode": "38",
    "prefectureNumber": 38,
    "prefecture": "愛媛県",
    "city": "北宇和郡鬼北町",
    "town": "小松"
  },
  "7981312": {
    "zipcode": "7981312",
    "prefectureCode": "38",
    "prefectureNumber": 38,
    "prefecture": "愛媛県",
    "city": "北宇和郡鬼北町",
    "town": "川上"
  },
  "7981313": {
    "zipcode": "7981313",
    "prefectureCode": "38",
    "prefectureNumber": 38,
    "prefecture": "愛媛県",
    "city": "北宇和郡鬼北町",
    "town": "延川"
  },
  "7981314": {
    "zipcode": "7981314",
    "prefectureCode": "38",
    "prefectureNumber": 38,
    "prefecture": "愛媛県",
    "city": "北宇和郡鬼北町",
    "town": "久保"
  },
  "7981321": {
    "zipcode": "7981321",
    "prefectureCode": "38",
    "prefectureNumber": 38,
    "prefecture": "愛媛県",
    "city": "北宇和郡鬼北町",
    "town": "小倉"
  },
  "7981322": {
    "zipcode": "7981322",
    "prefectureCode": "38",
    "prefectureNumber": 38,
    "prefecture": "愛媛県",
    "city": "北宇和郡鬼北町",
    "town": "上川"
  },
  "7981323": {
    "zipcode": "7981323",
    "prefectureCode": "38",
    "prefectureNumber": 38,
    "prefecture": "愛媛県",
    "city": "北宇和郡鬼北町",
    "town": "岩谷"
  },
  "7981324": {
    "zipcode": "7981324",
    "prefectureCode": "38",
    "prefectureNumber": 38,
    "prefecture": "愛媛県",
    "city": "北宇和郡鬼北町",
    "town": "小西野々"
  },
  "7981331": {
    "zipcode": "7981331",
    "prefectureCode": "38",
    "prefectureNumber": 38,
    "prefecture": "愛媛県",
    "city": "北宇和郡鬼北町",
    "town": "興野々"
  },
  "7981332": {
    "zipcode": "7981332",
    "prefectureCode": "38",
    "prefectureNumber": 38,
    "prefecture": "愛媛県",
    "city": "北宇和郡鬼北町",
    "town": "出目"
  },
  "7981333": {
    "zipcode": "7981333",
    "prefectureCode": "38",
    "prefectureNumber": 38,
    "prefecture": "愛媛県",
    "city": "北宇和郡鬼北町",
    "town": "永野市"
  },
  "7981341": {
    "zipcode": "7981341",
    "prefectureCode": "38",
    "prefectureNumber": 38,
    "prefecture": "愛媛県",
    "city": "北宇和郡鬼北町",
    "town": "近永（旭町）"
  },
  "7981342": {
    "zipcode": "7981342",
    "prefectureCode": "38",
    "prefectureNumber": 38,
    "prefecture": "愛媛県",
    "city": "北宇和郡鬼北町",
    "town": "近永（栄町）"
  },
  "7981343": {
    "zipcode": "7981343",
    "prefectureCode": "38",
    "prefectureNumber": 38,
    "prefecture": "愛媛県",
    "city": "北宇和郡鬼北町",
    "town": "近永（新町）"
  },
  "7981344": {
    "zipcode": "7981344",
    "prefectureCode": "38",
    "prefectureNumber": 38,
    "prefecture": "愛媛県",
    "city": "北宇和郡鬼北町",
    "town": "近永（本町）"
  },
  "7981345": {
    "zipcode": "7981345",
    "prefectureCode": "38",
    "prefectureNumber": 38,
    "prefecture": "愛媛県",
    "city": "北宇和郡鬼北町",
    "town": "近永（南町）"
  },
  "7981351": {
    "zipcode": "7981351",
    "prefectureCode": "38",
    "prefectureNumber": 38,
    "prefecture": "愛媛県",
    "city": "北宇和郡鬼北町",
    "town": "奈良（その他）"
  },
  "7981352": {
    "zipcode": "7981352",
    "prefectureCode": "38",
    "prefectureNumber": 38,
    "prefecture": "愛媛県",
    "city": "北宇和郡鬼北町",
    "town": "奈良（成川）"
  },
  "7981353": {
    "zipcode": "7981353",
    "prefectureCode": "38",
    "prefectureNumber": 38,
    "prefecture": "愛媛県",
    "city": "北宇和郡鬼北町",
    "town": "奈良（水分）"
  },
  "7981354": {
    "zipcode": "7981354",
    "prefectureCode": "38",
    "prefectureNumber": 38,
    "prefecture": "愛媛県",
    "city": "北宇和郡鬼北町",
    "town": "北川"
  },
  "7981355": {
    "zipcode": "7981355",
    "prefectureCode": "38",
    "prefectureNumber": 38,
    "prefecture": "愛媛県",
    "city": "北宇和郡鬼北町",
    "town": "芝"
  },
  "7981356": {
    "zipcode": "7981356",
    "prefectureCode": "38",
    "prefectureNumber": 38,
    "prefecture": "愛媛県",
    "city": "北宇和郡鬼北町",
    "town": "中野川"
  },
  "7981361": {
    "zipcode": "7981361",
    "prefectureCode": "38",
    "prefectureNumber": 38,
    "prefecture": "愛媛県",
    "city": "北宇和郡鬼北町",
    "town": "国遠"
  },
  "7981362": {
    "zipcode": "7981362",
    "prefectureCode": "38",
    "prefectureNumber": 38,
    "prefecture": "愛媛県",
    "city": "北宇和郡鬼北町",
    "town": "清延"
  },
  "7981363": {
    "zipcode": "7981363",
    "prefectureCode": "38",
    "prefectureNumber": 38,
    "prefecture": "愛媛県",
    "city": "北宇和郡鬼北町",
    "town": "内深田"
  },
  "7981364": {
    "zipcode": "7981364",
    "prefectureCode": "38",
    "prefectureNumber": 38,
    "prefecture": "愛媛県",
    "city": "北宇和郡鬼北町",
    "town": "吉波"
  },
  "7981365": {
    "zipcode": "7981365",
    "prefectureCode": "38",
    "prefectureNumber": 38,
    "prefecture": "愛媛県",
    "city": "北宇和郡鬼北町",
    "town": "西仲"
  },
  "7981366": {
    "zipcode": "7981366",
    "prefectureCode": "38",
    "prefectureNumber": 38,
    "prefecture": "愛媛県",
    "city": "北宇和郡鬼北町",
    "town": "東仲"
  },
  "7981367": {
    "zipcode": "7981367",
    "prefectureCode": "38",
    "prefectureNumber": 38,
    "prefecture": "愛媛県",
    "city": "北宇和郡鬼北町",
    "town": "沢松"
  },
  "7981371": {
    "zipcode": "7981371",
    "prefectureCode": "38",
    "prefectureNumber": 38,
    "prefecture": "愛媛県",
    "city": "北宇和郡鬼北町",
    "town": "生田"
  },
  "7981372": {
    "zipcode": "7981372",
    "prefectureCode": "38",
    "prefectureNumber": 38,
    "prefecture": "愛媛県",
    "city": "北宇和郡鬼北町",
    "town": "西野々"
  },
  "7981373": {
    "zipcode": "7981373",
    "prefectureCode": "38",
    "prefectureNumber": 38,
    "prefecture": "愛媛県",
    "city": "北宇和郡鬼北町",
    "town": "清水"
  },
  "7981374": {
    "zipcode": "7981374",
    "prefectureCode": "38",
    "prefectureNumber": 38,
    "prefecture": "愛媛県",
    "city": "北宇和郡鬼北町",
    "town": "成藤"
  },
  "7981375": {
    "zipcode": "7981375",
    "prefectureCode": "38",
    "prefectureNumber": 38,
    "prefecture": "愛媛県",
    "city": "北宇和郡鬼北町",
    "town": "畔屋"
  },
  "7981501": {
    "zipcode": "7981501",
    "prefectureCode": "38",
    "prefectureNumber": 38,
    "prefecture": "愛媛県",
    "city": "北宇和郡鬼北町",
    "town": "上鍵山"
  },
  "7981502": {
    "zipcode": "7981502",
    "prefectureCode": "38",
    "prefectureNumber": 38,
    "prefecture": "愛媛県",
    "city": "北宇和郡鬼北町",
    "town": "下鍵山"
  },
  "7981503": {
    "zipcode": "7981503",
    "prefectureCode": "38",
    "prefectureNumber": 38,
    "prefecture": "愛媛県",
    "city": "北宇和郡鬼北町",
    "town": "上大野"
  },
  "7981504": {
    "zipcode": "7981504",
    "prefectureCode": "38",
    "prefectureNumber": 38,
    "prefecture": "愛媛県",
    "city": "北宇和郡鬼北町",
    "town": "日向谷"
  },
  "7981505": {
    "zipcode": "7981505",
    "prefectureCode": "38",
    "prefectureNumber": 38,
    "prefecture": "愛媛県",
    "city": "北宇和郡鬼北町",
    "town": "父野川上"
  },
  "7981506": {
    "zipcode": "7981506",
    "prefectureCode": "38",
    "prefectureNumber": 38,
    "prefecture": "愛媛県",
    "city": "北宇和郡鬼北町",
    "town": "父野川中"
  },
  "7981507": {
    "zipcode": "7981507",
    "prefectureCode": "38",
    "prefectureNumber": 38,
    "prefecture": "愛媛県",
    "city": "北宇和郡鬼北町",
    "town": "父野川下"
  },
  "7982100": {
    "zipcode": "7982100",
    "prefectureCode": "38",
    "prefectureNumber": 38,
    "prefecture": "愛媛県",
    "city": "北宇和郡松野町",
    "town": "以下に掲載がない場合"
  },
  "7982101": {
    "zipcode": "7982101",
    "prefectureCode": "38",
    "prefectureNumber": 38,
    "prefecture": "愛媛県",
    "city": "北宇和郡松野町",
    "town": "松丸"
  },
  "7982102": {
    "zipcode": "7982102",
    "prefectureCode": "38",
    "prefectureNumber": 38,
    "prefecture": "愛媛県",
    "city": "北宇和郡松野町",
    "town": "延野々"
  },
  "7982103": {
    "zipcode": "7982103",
    "prefectureCode": "38",
    "prefectureNumber": 38,
    "prefecture": "愛媛県",
    "city": "北宇和郡松野町",
    "town": "豊岡"
  },
  "7982104": {
    "zipcode": "7982104",
    "prefectureCode": "38",
    "prefectureNumber": 38,
    "prefecture": "愛媛県",
    "city": "北宇和郡松野町",
    "town": "富岡"
  },
  "7982105": {
    "zipcode": "7982105",
    "prefectureCode": "38",
    "prefectureNumber": 38,
    "prefecture": "愛媛県",
    "city": "北宇和郡松野町",
    "town": "上家地"
  },
  "7982106": {
    "zipcode": "7982106",
    "prefectureCode": "38",
    "prefectureNumber": 38,
    "prefecture": "愛媛県",
    "city": "北宇和郡松野町",
    "town": "目黒"
  },
  "7982111": {
    "zipcode": "7982111",
    "prefectureCode": "38",
    "prefectureNumber": 38,
    "prefecture": "愛媛県",
    "city": "北宇和郡松野町",
    "town": "吉野"
  },
  "7982112": {
    "zipcode": "7982112",
    "prefectureCode": "38",
    "prefectureNumber": 38,
    "prefecture": "愛媛県",
    "city": "北宇和郡松野町",
    "town": "蕨生"
  },
  "7982113": {
    "zipcode": "7982113",
    "prefectureCode": "38",
    "prefectureNumber": 38,
    "prefecture": "愛媛県",
    "city": "北宇和郡松野町",
    "town": "奥野川"
  },
  "7982146": {
    "zipcode": "7982146",
    "prefectureCode": "38",
    "prefectureNumber": 38,
    "prefecture": "愛媛県",
    "city": "宇和島市",
    "town": "野川（滑床）"
  },
  "7983271": {
    "zipcode": "7983271",
    "prefectureCode": "38",
    "prefectureNumber": 38,
    "prefecture": "愛媛県",
    "city": "宇和島市",
    "town": "津島町御内"
  },
  "7983272": {
    "zipcode": "7983272",
    "prefectureCode": "38",
    "prefectureNumber": 38,
    "prefecture": "愛媛県",
    "city": "宇和島市",
    "town": "津島町槇川"
  },
  "7983301": {
    "zipcode": "7983301",
    "prefectureCode": "38",
    "prefectureNumber": 38,
    "prefecture": "愛媛県",
    "city": "宇和島市",
    "town": "津島町岩松"
  },
  "7983302": {
    "zipcode": "7983302",
    "prefectureCode": "38",
    "prefectureNumber": 38,
    "prefecture": "愛媛県",
    "city": "宇和島市",
    "town": "津島町高田"
  },
  "7983303": {
    "zipcode": "7983303",
    "prefectureCode": "38",
    "prefectureNumber": 38,
    "prefecture": "愛媛県",
    "city": "宇和島市",
    "town": "津島町近家"
  },
  "7983311": {
    "zipcode": "7983311",
    "prefectureCode": "38",
    "prefectureNumber": 38,
    "prefecture": "愛媛県",
    "city": "宇和島市",
    "town": "津島町岩渕"
  },
  "7983312": {
    "zipcode": "7983312",
    "prefectureCode": "38",
    "prefectureNumber": 38,
    "prefecture": "愛媛県",
    "city": "宇和島市",
    "town": "津島町山財"
  },
  "7983313": {
    "zipcode": "7983313",
    "prefectureCode": "38",
    "prefectureNumber": 38,
    "prefecture": "愛媛県",
    "city": "宇和島市",
    "town": "津島町増穂"
  },
  "7983321": {
    "zipcode": "7983321",
    "prefectureCode": "38",
    "prefectureNumber": 38,
    "prefecture": "愛媛県",
    "city": "宇和島市",
    "town": "津島町下畑地（乙を除く）"
  },
  "7983322": {
    "zipcode": "7983322",
    "prefectureCode": "38",
    "prefectureNumber": 38,
    "prefecture": "愛媛県",
    "city": "宇和島市",
    "town": "津島町下畑地乙（上槇）"
  },
  "7983323": {
    "zipcode": "7983323",
    "prefectureCode": "38",
    "prefectureNumber": 38,
    "prefecture": "愛媛県",
    "city": "宇和島市",
    "town": "津島町上畑地"
  },
  "7983331": {
    "zipcode": "7983331",
    "prefectureCode": "38",
    "prefectureNumber": 38,
    "prefecture": "愛媛県",
    "city": "宇和島市",
    "town": "津島町後"
  },
  "7983332": {
    "zipcode": "7983332",
    "prefectureCode": "38",
    "prefectureNumber": 38,
    "prefecture": "愛媛県",
    "city": "宇和島市",
    "town": "津島町須下"
  },
  "7983333": {
    "zipcode": "7983333",
    "prefectureCode": "38",
    "prefectureNumber": 38,
    "prefecture": "愛媛県",
    "city": "宇和島市",
    "town": "津島町成"
  },
  "7983334": {
    "zipcode": "7983334",
    "prefectureCode": "38",
    "prefectureNumber": 38,
    "prefecture": "愛媛県",
    "city": "宇和島市",
    "town": "津島町漁家"
  },
  "7983335": {
    "zipcode": "7983335",
    "prefectureCode": "38",
    "prefectureNumber": 38,
    "prefecture": "愛媛県",
    "city": "宇和島市",
    "town": "津島町平井"
  },
  "7983336": {
    "zipcode": "7983336",
    "prefectureCode": "38",
    "prefectureNumber": 38,
    "prefecture": "愛媛県",
    "city": "宇和島市",
    "town": "津島町曲烏"
  },
  "7983337": {
    "zipcode": "7983337",
    "prefectureCode": "38",
    "prefectureNumber": 38,
    "prefecture": "愛媛県",
    "city": "宇和島市",
    "town": "津島町大浦"
  },
  "7983338": {
    "zipcode": "7983338",
    "prefectureCode": "38",
    "prefectureNumber": 38,
    "prefecture": "愛媛県",
    "city": "宇和島市",
    "town": "津島町柿之浦"
  },
  "7983341": {
    "zipcode": "7983341",
    "prefectureCode": "38",
    "prefectureNumber": 38,
    "prefecture": "愛媛県",
    "city": "宇和島市",
    "town": "津島町塩定"
  },
  "7983342": {
    "zipcode": "7983342",
    "prefectureCode": "38",
    "prefectureNumber": 38,
    "prefecture": "愛媛県",
    "city": "宇和島市",
    "town": "津島町浦知"
  },
  "7983343": {
    "zipcode": "7983343",
    "prefectureCode": "38",
    "prefectureNumber": 38,
    "prefecture": "愛媛県",
    "city": "宇和島市",
    "town": "津島町針木"
  },
  "7983344": {
    "zipcode": "7983344",
    "prefectureCode": "38",
    "prefectureNumber": 38,
    "prefecture": "愛媛県",
    "city": "宇和島市",
    "town": "津島町嵐"
  },
  "7983345": {
    "zipcode": "7983345",
    "prefectureCode": "38",
    "prefectureNumber": 38,
    "prefecture": "愛媛県",
    "city": "宇和島市",
    "town": "津島町横浦"
  },
  "7983346": {
    "zipcode": "7983346",
    "prefectureCode": "38",
    "prefectureNumber": 38,
    "prefecture": "愛媛県",
    "city": "宇和島市",
    "town": "津島町鼡鳴"
  },
  "7983351": {
    "zipcode": "7983351",
    "prefectureCode": "38",
    "prefectureNumber": 38,
    "prefecture": "愛媛県",
    "city": "宇和島市",
    "town": "津島町弓立"
  },
  "7983352": {
    "zipcode": "7983352",
    "prefectureCode": "38",
    "prefectureNumber": 38,
    "prefecture": "愛媛県",
    "city": "宇和島市",
    "town": "津島町坪井"
  },
  "7983353": {
    "zipcode": "7983353",
    "prefectureCode": "38",
    "prefectureNumber": 38,
    "prefecture": "愛媛県",
    "city": "宇和島市",
    "town": "津島町泥目水"
  },
  "7983354": {
    "zipcode": "7983354",
    "prefectureCode": "38",
    "prefectureNumber": 38,
    "prefecture": "愛媛県",
    "city": "宇和島市",
    "town": "津島町田颪"
  },
  "7983355": {
    "zipcode": "7983355",
    "prefectureCode": "38",
    "prefectureNumber": 38,
    "prefecture": "愛媛県",
    "city": "宇和島市",
    "town": "津島町脇"
  },
  "7983356": {
    "zipcode": "7983356",
    "prefectureCode": "38",
    "prefectureNumber": 38,
    "prefecture": "愛媛県",
    "city": "宇和島市",
    "town": "津島町曽根"
  },
  "7983357": {
    "zipcode": "7983357",
    "prefectureCode": "38",
    "prefectureNumber": 38,
    "prefecture": "愛媛県",
    "city": "宇和島市",
    "town": "津島町田之浜"
  },
  "7983358": {
    "zipcode": "7983358",
    "prefectureCode": "38",
    "prefectureNumber": 38,
    "prefecture": "愛媛県",
    "city": "宇和島市",
    "town": "津島町竹ケ島"
  },
  "7983361": {
    "zipcode": "7983361",
    "prefectureCode": "38",
    "prefectureNumber": 38,
    "prefecture": "愛媛県",
    "city": "宇和島市",
    "town": "津島町北灘甲"
  },
  "7983362": {
    "zipcode": "7983362",
    "prefectureCode": "38",
    "prefectureNumber": 38,
    "prefecture": "愛媛県",
    "city": "宇和島市",
    "town": "津島町北灘乙"
  },
  "7983363": {
    "zipcode": "7983363",
    "prefectureCode": "38",
    "prefectureNumber": 38,
    "prefecture": "愛媛県",
    "city": "宇和島市",
    "town": "津島町北灘丙"
  },
  "7983364": {
    "zipcode": "7983364",
    "prefectureCode": "38",
    "prefectureNumber": 38,
    "prefecture": "愛媛県",
    "city": "宇和島市",
    "town": "津島町北灘丁（大日提、小日提）"
  },
  "7983701": {
    "zipcode": "7983701",
    "prefectureCode": "38",
    "prefectureNumber": 38,
    "prefecture": "愛媛県",
    "city": "南宇和郡愛南町",
    "town": "柏"
  },
  "7983702": {
    "zipcode": "7983702",
    "prefectureCode": "38",
    "prefectureNumber": 38,
    "prefecture": "愛媛県",
    "city": "南宇和郡愛南町",
    "town": "柏崎"
  },
  "7983703": {
    "zipcode": "7983703",
    "prefectureCode": "38",
    "prefectureNumber": 38,
    "prefecture": "愛媛県",
    "city": "南宇和郡愛南町",
    "town": "須ノ川"
  },
  "7983704": {
    "zipcode": "7983704",
    "prefectureCode": "38",
    "prefectureNumber": 38,
    "prefecture": "愛媛県",
    "city": "南宇和郡愛南町",
    "town": "平碆"
  },
  "7983705": {
    "zipcode": "7983705",
    "prefectureCode": "38",
    "prefectureNumber": 38,
    "prefecture": "愛媛県",
    "city": "南宇和郡愛南町",
    "town": "家串"
  },
  "7983706": {
    "zipcode": "7983706",
    "prefectureCode": "38",
    "prefectureNumber": 38,
    "prefecture": "愛媛県",
    "city": "南宇和郡愛南町",
    "town": "油袋"
  },
  "7983707": {
    "zipcode": "7983707",
    "prefectureCode": "38",
    "prefectureNumber": 38,
    "prefecture": "愛媛県",
    "city": "南宇和郡愛南町",
    "town": "魚神山"
  },
  "7983708": {
    "zipcode": "7983708",
    "prefectureCode": "38",
    "prefectureNumber": 38,
    "prefecture": "愛媛県",
    "city": "南宇和郡愛南町",
    "town": "網代"
  },
  "7984100": {
    "zipcode": "7984100",
    "prefectureCode": "38",
    "prefectureNumber": 38,
    "prefecture": "愛媛県",
    "city": "南宇和郡愛南町",
    "town": "以下に掲載がない場合"
  },
  "7984101": {
    "zipcode": "7984101",
    "prefectureCode": "38",
    "prefectureNumber": 38,
    "prefecture": "愛媛県",
    "city": "南宇和郡愛南町",
    "town": "御荘菊川"
  },
  "7984102": {
    "zipcode": "7984102",
    "prefectureCode": "38",
    "prefectureNumber": 38,
    "prefecture": "愛媛県",
    "city": "南宇和郡愛南町",
    "town": "御荘平山"
  },
  "7984103": {
    "zipcode": "7984103",
    "prefectureCode": "38",
    "prefectureNumber": 38,
    "prefecture": "愛媛県",
    "city": "南宇和郡愛南町",
    "town": "御荘長洲"
  },
  "7984104": {
    "zipcode": "7984104",
    "prefectureCode": "38",
    "prefectureNumber": 38,
    "prefecture": "愛媛県",
    "city": "南宇和郡愛南町",
    "town": "御荘和口"
  },
  "7984105": {
    "zipcode": "7984105",
    "prefectureCode": "38",
    "prefectureNumber": 38,
    "prefecture": "愛媛県",
    "city": "南宇和郡愛南町",
    "town": "御荘長月"
  },
  "7984110": {
    "zipcode": "7984110",
    "prefectureCode": "38",
    "prefectureNumber": 38,
    "prefecture": "愛媛県",
    "city": "南宇和郡愛南町",
    "town": "御荘平城"
  },
  "7984121": {
    "zipcode": "7984121",
    "prefectureCode": "38",
    "prefectureNumber": 38,
    "prefecture": "愛媛県",
    "city": "南宇和郡愛南町",
    "town": "御荘深泥"
  },
  "7984122": {
    "zipcode": "7984122",
    "prefectureCode": "38",
    "prefectureNumber": 38,
    "prefecture": "愛媛県",
    "city": "南宇和郡愛南町",
    "town": "防城成川"
  },
  "7984123": {
    "zipcode": "7984123",
    "prefectureCode": "38",
    "prefectureNumber": 38,
    "prefecture": "愛媛県",
    "city": "南宇和郡愛南町",
    "town": "赤水"
  },
  "7984124": {
    "zipcode": "7984124",
    "prefectureCode": "38",
    "prefectureNumber": 38,
    "prefecture": "愛媛県",
    "city": "南宇和郡愛南町",
    "town": "高畑"
  },
  "7984125": {
    "zipcode": "7984125",
    "prefectureCode": "38",
    "prefectureNumber": 38,
    "prefecture": "愛媛県",
    "city": "南宇和郡愛南町",
    "town": "中浦"
  },
  "7984126": {
    "zipcode": "7984126",
    "prefectureCode": "38",
    "prefectureNumber": 38,
    "prefecture": "愛媛県",
    "city": "南宇和郡愛南町",
    "town": "猿鳴"
  },
  "7984131": {
    "zipcode": "7984131",
    "prefectureCode": "38",
    "prefectureNumber": 38,
    "prefecture": "愛媛県",
    "city": "南宇和郡愛南町",
    "town": "城辺甲"
  },
  "7984132": {
    "zipcode": "7984132",
    "prefectureCode": "38",
    "prefectureNumber": 38,
    "prefecture": "愛媛県",
    "city": "南宇和郡愛南町",
    "town": "城辺乙"
  },
  "7984133": {
    "zipcode": "7984133",
    "prefectureCode": "38",
    "prefectureNumber": 38,
    "prefecture": "愛媛県",
    "city": "南宇和郡愛南町",
    "town": "緑乙"
  },
  "7984134": {
    "zipcode": "7984134",
    "prefectureCode": "38",
    "prefectureNumber": 38,
    "prefecture": "愛媛県",
    "city": "南宇和郡愛南町",
    "town": "緑甲"
  },
  "7984135": {
    "zipcode": "7984135",
    "prefectureCode": "38",
    "prefectureNumber": 38,
    "prefecture": "愛媛県",
    "city": "南宇和郡愛南町",
    "town": "緑丙"
  },
  "7984136": {
    "zipcode": "7984136",
    "prefectureCode": "38",
    "prefectureNumber": 38,
    "prefecture": "愛媛県",
    "city": "南宇和郡愛南町",
    "town": "僧都"
  },
  "7984201": {
    "zipcode": "7984201",
    "prefectureCode": "38",
    "prefectureNumber": 38,
    "prefecture": "愛媛県",
    "city": "南宇和郡愛南町",
    "town": "越田"
  },
  "7984202": {
    "zipcode": "7984202",
    "prefectureCode": "38",
    "prefectureNumber": 38,
    "prefecture": "愛媛県",
    "city": "南宇和郡愛南町",
    "town": "弓立"
  },
  "7984203": {
    "zipcode": "7984203",
    "prefectureCode": "38",
    "prefectureNumber": 38,
    "prefecture": "愛媛県",
    "city": "南宇和郡愛南町",
    "town": "小浦"
  },
  "7984204": {
    "zipcode": "7984204",
    "prefectureCode": "38",
    "prefectureNumber": 38,
    "prefecture": "愛媛県",
    "city": "南宇和郡愛南町",
    "town": "樫月"
  },
  "7984205": {
    "zipcode": "7984205",
    "prefectureCode": "38",
    "prefectureNumber": 38,
    "prefecture": "愛媛県",
    "city": "南宇和郡愛南町",
    "town": "船越"
  },
  "7984206": {
    "zipcode": "7984206",
    "prefectureCode": "38",
    "prefectureNumber": 38,
    "prefecture": "愛媛県",
    "city": "南宇和郡愛南町",
    "town": "内泊"
  },
  "7984207": {
    "zipcode": "7984207",
    "prefectureCode": "38",
    "prefectureNumber": 38,
    "prefecture": "愛媛県",
    "city": "南宇和郡愛南町",
    "town": "中泊"
  },
  "7984208": {
    "zipcode": "7984208",
    "prefectureCode": "38",
    "prefectureNumber": 38,
    "prefecture": "愛媛県",
    "city": "南宇和郡愛南町",
    "town": "外泊"
  },
  "7984209": {
    "zipcode": "7984209",
    "prefectureCode": "38",
    "prefectureNumber": 38,
    "prefecture": "愛媛県",
    "city": "南宇和郡愛南町",
    "town": "鹿島"
  },
  "7984211": {
    "zipcode": "7984211",
    "prefectureCode": "38",
    "prefectureNumber": 38,
    "prefecture": "愛媛県",
    "city": "南宇和郡愛南町",
    "town": "久家"
  },
  "7984212": {
    "zipcode": "7984212",
    "prefectureCode": "38",
    "prefectureNumber": 38,
    "prefecture": "愛媛県",
    "city": "南宇和郡愛南町",
    "town": "下久家"
  },
  "7984213": {
    "zipcode": "7984213",
    "prefectureCode": "38",
    "prefectureNumber": 38,
    "prefecture": "愛媛県",
    "city": "南宇和郡愛南町",
    "town": "樽見"
  },
  "7984214": {
    "zipcode": "7984214",
    "prefectureCode": "38",
    "prefectureNumber": 38,
    "prefecture": "愛媛県",
    "city": "南宇和郡愛南町",
    "town": "大成川"
  },
  "7984215": {
    "zipcode": "7984215",
    "prefectureCode": "38",
    "prefectureNumber": 38,
    "prefecture": "愛媛県",
    "city": "南宇和郡愛南町",
    "town": "小成川"
  },
  "7984216": {
    "zipcode": "7984216",
    "prefectureCode": "38",
    "prefectureNumber": 38,
    "prefecture": "愛媛県",
    "city": "南宇和郡愛南町",
    "town": "福浦"
  },
  "7984217": {
    "zipcode": "7984217",
    "prefectureCode": "38",
    "prefectureNumber": 38,
    "prefecture": "愛媛県",
    "city": "南宇和郡愛南町",
    "town": "麦ケ浦"
  },
  "7984218": {
    "zipcode": "7984218",
    "prefectureCode": "38",
    "prefectureNumber": 38,
    "prefecture": "愛媛県",
    "city": "南宇和郡愛南町",
    "town": "武者泊"
  },
  "7984219": {
    "zipcode": "7984219",
    "prefectureCode": "38",
    "prefectureNumber": 38,
    "prefecture": "愛媛県",
    "city": "南宇和郡愛南町",
    "town": "高茂"
  },
  "7984341": {
    "zipcode": "7984341",
    "prefectureCode": "38",
    "prefectureNumber": 38,
    "prefecture": "愛媛県",
    "city": "南宇和郡愛南町",
    "town": "蓮乗寺"
  },
  "7984342": {
    "zipcode": "7984342",
    "prefectureCode": "38",
    "prefectureNumber": 38,
    "prefecture": "愛媛県",
    "city": "南宇和郡愛南町",
    "town": "深浦"
  },
  "7984343": {
    "zipcode": "7984343",
    "prefectureCode": "38",
    "prefectureNumber": 38,
    "prefecture": "愛媛県",
    "city": "南宇和郡愛南町",
    "town": "垣内"
  },
  "7984344": {
    "zipcode": "7984344",
    "prefectureCode": "38",
    "prefectureNumber": 38,
    "prefecture": "愛媛県",
    "city": "南宇和郡愛南町",
    "town": "岩水"
  },
  "7984345": {
    "zipcode": "7984345",
    "prefectureCode": "38",
    "prefectureNumber": 38,
    "prefecture": "愛媛県",
    "city": "南宇和郡愛南町",
    "town": "敦盛"
  },
  "7984346": {
    "zipcode": "7984346",
    "prefectureCode": "38",
    "prefectureNumber": 38,
    "prefecture": "愛媛県",
    "city": "南宇和郡愛南町",
    "town": "柿ノ浦"
  },
  "7984347": {
    "zipcode": "7984347",
    "prefectureCode": "38",
    "prefectureNumber": 38,
    "prefecture": "愛媛県",
    "city": "南宇和郡愛南町",
    "town": "大浜"
  },
  "7984348": {
    "zipcode": "7984348",
    "prefectureCode": "38",
    "prefectureNumber": 38,
    "prefecture": "愛媛県",
    "city": "南宇和郡愛南町",
    "town": "中玉"
  },
  "7984349": {
    "zipcode": "7984349",
    "prefectureCode": "38",
    "prefectureNumber": 38,
    "prefecture": "愛媛県",
    "city": "南宇和郡愛南町",
    "town": "脇本"
  },
  "7984351": {
    "zipcode": "7984351",
    "prefectureCode": "38",
    "prefectureNumber": 38,
    "prefecture": "愛媛県",
    "city": "南宇和郡愛南町",
    "town": "鯆越"
  },
  "7984352": {
    "zipcode": "7984352",
    "prefectureCode": "38",
    "prefectureNumber": 38,
    "prefecture": "愛媛県",
    "city": "南宇和郡愛南町",
    "town": "古月"
  },
  "7984353": {
    "zipcode": "7984353",
    "prefectureCode": "38",
    "prefectureNumber": 38,
    "prefecture": "愛媛県",
    "city": "南宇和郡愛南町",
    "town": "久良"
  },
  "7984401": {
    "zipcode": "7984401",
    "prefectureCode": "38",
    "prefectureNumber": 38,
    "prefecture": "愛媛県",
    "city": "南宇和郡愛南町",
    "town": "正木"
  },
  "7984402": {
    "zipcode": "7984402",
    "prefectureCode": "38",
    "prefectureNumber": 38,
    "prefecture": "愛媛県",
    "city": "南宇和郡愛南町",
    "town": "増田"
  },
  "7984403": {
    "zipcode": "7984403",
    "prefectureCode": "38",
    "prefectureNumber": 38,
    "prefecture": "愛媛県",
    "city": "南宇和郡愛南町",
    "town": "小山"
  },
  "7984404": {
    "zipcode": "7984404",
    "prefectureCode": "38",
    "prefectureNumber": 38,
    "prefecture": "愛媛県",
    "city": "南宇和郡愛南町",
    "town": "中川"
  },
  "7984405": {
    "zipcode": "7984405",
    "prefectureCode": "38",
    "prefectureNumber": 38,
    "prefecture": "愛媛県",
    "city": "南宇和郡愛南町",
    "town": "満倉"
  },
  "7984406": {
    "zipcode": "7984406",
    "prefectureCode": "38",
    "prefectureNumber": 38,
    "prefecture": "愛媛県",
    "city": "南宇和郡愛南町",
    "town": "広見"
  },
  "7984407": {
    "zipcode": "7984407",
    "prefectureCode": "38",
    "prefectureNumber": 38,
    "prefecture": "愛媛県",
    "city": "南宇和郡愛南町",
    "town": "上大道"
  },
  "7984408": {
    "zipcode": "7984408",
    "prefectureCode": "38",
    "prefectureNumber": 38,
    "prefecture": "愛媛県",
    "city": "南宇和郡愛南町",
    "town": "一本松"
  }
}
