{
  "7990101": {
    "zipcode": "7990101",
    "prefectureCode": "38",
    "prefectureNumber": 38,
    "prefecture": "愛媛県",
    "city": "四国中央市",
    "town": "川之江町"
  },
  "7990102": {
    "zipcode": "7990102",
    "prefectureCode": "38",
    "prefectureNumber": 38,
    "prefecture": "愛媛県",
    "city": "四国中央市",
    "town": "川之江町長須"
  },
  "7990103": {
    "zipcode": "7990103",
    "prefectureCode": "38",
    "prefectureNumber": 38,
    "prefecture": "愛媛県",
    "city": "四国中央市",
    "town": "川之江町余木"
  },
  "7990111": {
    "zipcode": "7990111",
    "prefectureCode": "38",
    "prefectureNumber": 38,
    "prefecture": "愛媛県",
    "city": "四国中央市",
    "town": "金生町下分"
  },
  "7990112": {
    "zipcode": "7990112",
    "prefectureCode": "38",
    "prefectureNumber": 38,
    "prefecture": "愛媛県",
    "city": "四国中央市",
    "town": "金生町山田井"
  },
  "7990113": {
    "zipcode": "7990113",
    "prefectureCode": "38",
    "prefectureNumber": 38,
    "prefecture": "愛媛県",
    "city": "四国中央市",
    "town": "妻鳥町"
  },
  "7990121": {
    "zipcode": "7990121",
    "prefectureCode": "38",
    "prefectureNumber": 38,
    "prefecture": "愛媛県",
    "city": "四国中央市",
    "town": "上分町"
  },
  "7990122": {
    "zipcode": "7990122",
    "prefectureCode": "38",
    "prefectureNumber": 38,
    "prefecture": "愛媛県",
    "city": "四国中央市",
    "town": "金田町半田"
  },
  "7990123": {
    "zipcode": "7990123",
    "prefectureCode": "38",
    "prefectureNumber": 38,
    "prefecture": "愛媛県",
    "city": "四国中央市",
    "town": "金田町金川"
  },
  "7990124": {
    "zipcode": "7990124",
    "prefectureCode": "38",
    "prefectureNumber": 38,
    "prefecture": "愛媛県",
    "city": "四国中央市",
    "town": "金田町三角寺"
  },
  "7990125": {
    "zipcode": "7990125",
    "prefectureCode": "38",
    "prefectureNumber": 38,
    "prefecture": "愛媛県",
    "city": "四国中央市",
    "town": "柴生町"
  },
  "7990126": {
    "zipcode": "7990126",
    "prefectureCode": "38",
    "prefectureNumber": 38,
    "prefecture": "愛媛県",
    "city": "四国中央市",
    "town": "下川町"
  },
  "7990127": {
    "zipcode": "7990127",
    "prefectureCode": "38",
    "prefectureNumber": 38,
    "prefecture": "愛媛県",
    "city": "四国中央市",
    "town": "川滝町下山"
  },
  "7990128": {
    "zipcode": "7990128",
    "prefectureCode": "38",
    "prefectureNumber": 38,
    "prefecture": "愛媛県",
    "city": "四国中央市",
    "town": "川滝町領家"
  },
  "7990301": {
    "zipcode": "7990301",
    "prefectureCode": "38",
    "prefectureNumber": 38,
    "prefecture": "愛媛県",
    "city": "四国中央市",
    "town": "新宮町馬立"
  },
  "7990302": {
    "zipcode": "7990302",
    "prefectureCode": "38",
    "prefectureNumber": 38,
    "prefecture": "愛媛県",
    "city": "四国中央市",
    "town": "新宮町上山"
  },
  "7990303": {
    "zipcode": "7990303",
    "prefectureCode": "38",
    "prefectureNumber": 38,
    "prefecture": "愛媛県",
    "city": "四国中央市",
    "town": "新宮町新宮"
  },
  "7990304": {
    "zipcode": "7990304",
    "prefectureCode": "38",
    "prefectureNumber": 38,
    "prefecture": "愛媛県",
    "city": "四国中央市",
    "town": "新宮町新瀬川"
  },
  "7990400": {
    "zipcode": "7990400",
    "prefectureCode": "38",
    "prefectureNumber": 38,
    "prefecture": "愛媛県",
    "city": "四国中央市",
    "town": "以下に掲載がない場合"
  },
  "7990401": {
    "zipcode": "7990401",
    "prefectureCode": "38",
    "prefectureNumber": 38,
    "prefecture": "愛媛県",
    "city": "四国中央市",
    "town": "村松町"
  },
  "7990402": {
    "zipcode": "7990402",
    "prefectureCode": "38",
    "prefectureNumber": 38,
    "prefecture": "愛媛県",
    "city": "四国中央市",
    "town": "三島紙屋町"
  },
  "7990403": {
    "zipcode": "7990403",
    "prefectureCode": "38",
    "prefectureNumber": 38,
    "prefecture": "愛媛県",
    "city": "四国中央市",
    "town": "三島朝日"
  },
  "7990404": {
    "zipcode": "7990404",
    "prefectureCode": "38",
    "prefectureNumber": 38,
    "prefecture": "愛媛県",
    "city": "四国中央市",
    "town": "三島宮川"
  },
  "7990405": {
    "zipcode": "7990405",
    "prefectureCode": "38",
    "prefectureNumber": 38,
    "prefecture": "愛媛県",
    "city": "四国中央市",
    "town": "三島中央"
  },
  "7990411": {
    "zipcode": "7990411",
    "prefectureCode": "38",
    "prefectureNumber": 38,
    "prefecture": "愛媛県",
    "city": "四国中央市",
    "town": "下柏町"
  },
  "7990412": {
    "zipcode": "7990412",
    "prefectureCode": "38",
    "prefectureNumber": 38,
    "prefecture": "愛媛県",
    "city": "四国中央市",
    "town": "上柏町"
  },
  "7990413": {
    "zipcode": "7990413",
    "prefectureCode": "38",
    "prefectureNumber": 38,
    "prefecture": "愛媛県",
    "city": "四国中央市",
    "town": "中曽根町"
  },
  "7990421": {
    "zipcode": "7990421",
    "prefectureCode": "38",
    "prefectureNumber": 38,
    "prefecture": "愛媛県",
    "city": "四国中央市",
    "town": "三島金子"
  },
  "7990422": {
    "zipcode": "7990422",
    "prefectureCode": "38",
    "prefectureNumber": 38,
    "prefecture": "愛媛県",
    "city": "四国中央市",
    "town": "中之庄町"
  },
  "7990423": {
    "zipcode": "7990423",
    "prefectureCode": "38",
    "prefectureNumber": 38,
    "prefecture": "愛媛県",
    "city": "四国中央市",
    "town": "具定町"
  },
  "7990431": {
    "zipcode": "7990431",
    "prefectureCode": "38",
    "prefectureNumber": 38,
    "prefecture": "愛媛県",
    "city": "四国中央市",
    "town": "寒川町"
  },
  "7990432": {
    "zipcode": "7990432",
    "prefectureCode": "38",
    "prefectureNumber": 38,
    "prefecture": "愛媛県",
    "city": "四国中央市",
    "town": "豊岡町大町"
  },
  "7990433": {
    "zipcode": "7990433",
    "prefectureCode": "38",
    "prefectureNumber": 38,
    "prefecture": "愛媛県",
    "city": "四国中央市",
    "town": "豊岡町豊田"
  },
  "7990434": {
    "zipcode": "7990434",
    "prefectureCode": "38",
    "prefectureNumber": 38,
    "prefecture": "愛媛県",
    "city": "四国中央市",
    "town": "豊岡町五良野"
  },
  "7990435": {
    "zipcode": "7990435",
    "prefectureCode": "38",
    "prefectureNumber": 38,
    "prefecture": "愛媛県",
    "city": "四国中央市",
    "town": "豊岡町長田"
  },
  "7990436": {
    "zipcode": "7990436",
    "prefectureCode": "38",
    "prefectureNumber": 38,
    "prefecture": "愛媛県",
    "city": "四国中央市",
    "town": "豊岡町岡銅"
  },
  "7990641": {
    "zipcode": "7990641",
    "prefectureCode": "38",
    "prefectureNumber": 38,
    "prefecture": "愛媛県",
    "city": "四国中央市",
    "town": "金砂町小川山"
  },
  "7990642": {
    "zipcode": "7990642",
    "prefectureCode": "38",
    "prefectureNumber": 38,
    "prefecture": "愛媛県",
    "city": "四国中央市",
    "town": "金砂町平野山"
  },
  "7990643": {
    "zipcode": "7990643",
    "prefectureCode": "38",
    "prefectureNumber": 38,
    "prefecture": "愛媛県",
    "city": "四国中央市",
    "town": "富郷町寒川山"
  },
  "7990644": {
    "zipcode": "7990644",
    "prefectureCode": "38",
    "prefectureNumber": 38,
    "prefecture": "愛媛県",
    "city": "四国中央市",
    "town": "富郷町豊坂"
  },
  "7990645": {
    "zipcode": "7990645",
    "prefectureCode": "38",
    "prefectureNumber": 38,
    "prefecture": "愛媛県",
    "city": "四国中央市",
    "town": "富郷町津根山"
  },
  "7990650": {
    "zipcode": "7990650",
    "prefectureCode": "38",
    "prefectureNumber": 38,
    "prefecture": "愛媛県",
    "city": "新居浜市",
    "town": "別子山"
  },
  "7990701": {
    "zipcode": "7990701",
    "prefectureCode": "38",
    "prefectureNumber": 38,
    "prefecture": "愛媛県",
    "city": "四国中央市",
    "town": "土居町中村"
  },
  "7990702": {
    "zipcode": "7990702",
    "prefectureCode": "38",
    "prefectureNumber": 38,
    "prefecture": "愛媛県",
    "city": "四国中央市",
    "town": "土居町小林"
  },
  "7990703": {
    "zipcode": "7990703",
    "prefectureCode": "38",
    "prefectureNumber": 38,
    "prefecture": "愛媛県",
    "city": "四国中央市",
    "town": "土居町藤原"
  },
  "7990704": {
    "zipcode": "7990704",
    "prefectureCode": "38",
    "prefectureNumber": 38,
    "prefecture": "愛媛県",
    "city": "四国中央市",
    "town": "土居町津根"
  },
  "7990705": {
    "zipcode": "7990705",
    "prefectureCode": "38",
    "prefectureNumber": 38,
    "prefecture": "愛媛県",
    "city": "四国中央市",
    "town": "土居町野田"
  },
  "7990711": {
    "zipcode": "7990711",
    "prefectureCode": "38",
    "prefectureNumber": 38,
    "prefecture": "愛媛県",
    "city": "四国中央市",
    "town": "土居町土居"
  },
  "7990712": {
    "zipcode": "7990712",
    "prefectureCode": "38",
    "prefectureNumber": 38,
    "prefecture": "愛媛県",
    "city": "四国中央市",
    "town": "土居町入野"
  },
  "7990713": {
    "zipcode": "7990713",
    "prefectureCode": "38",
    "prefectureNumber": 38,
    "prefecture": "愛媛県",
    "city": "四国中央市",
    "town": "土居町浦山"
  },
  "7990714": {
    "zipcode": "7990714",
    "prefectureCode": "38",
    "prefectureNumber": 38,
    "prefecture": "愛媛県",
    "city": "四国中央市",
    "town": "土居町畑野"
  },
  "7990721": {
    "zipcode": "7990721",
    "prefectureCode": "38",
    "prefectureNumber": 38,
    "prefecture": "愛媛県",
    "city": "四国中央市",
    "town": "土居町上野"
  },
  "7990722": {
    "zipcode": "7990722",
    "prefectureCode": "38",
    "prefectureNumber": 38,
    "prefecture": "愛媛県",
    "city": "四国中央市",
    "town": "土居町北野"
  },
  "7990723": {
    "zipcode": "7990723",
    "prefectureCode": "38",
    "prefectureNumber": 38,
    "prefecture": "愛媛県",
    "city": "四国中央市",
    "town": "土居町天満"
  },
  "7990724": {
    "zipcode": "7990724",
    "prefectureCode": "38",
    "prefectureNumber": 38,
    "prefecture": "愛媛県",
    "city": "四国中央市",
    "town": "土居町蕪崎"
  },
  "7991101": {
    "zipcode": "7991101",
    "prefectureCode": "38",
    "prefectureNumber": 38,
    "prefecture": "愛媛県",
    "city": "西条市",
    "town": "小松町新屋敷"
  },
  "7991102": {
    "zipcode": "7991102",
    "prefectureCode": "38",
    "prefectureNumber": 38,
    "prefecture": "愛媛県",
    "city": "西条市",
    "town": "小松町南川"
  },
  "7991103": {
    "zipcode": "7991103",
    "prefectureCode": "38",
    "prefectureNumber": 38,
    "prefecture": "愛媛県",
    "city": "西条市",
    "town": "小松町北川"
  },
  "7991104": {
    "zipcode": "7991104",
    "prefectureCode": "38",
    "prefectureNumber": 38,
    "prefecture": "愛媛県",
    "city": "西条市",
    "town": "小松町妙口"
  },
  "7991105": {
    "zipcode": "7991105",
    "prefectureCode": "38",
    "prefectureNumber": 38,
    "prefecture": "愛媛県",
    "city": "西条市",
    "town": "小松町大郷"
  },
  "7991106": {
    "zipcode": "7991106",
    "prefectureCode": "38",
    "prefectureNumber": 38,
    "prefecture": "愛媛県",
    "city": "西条市",
    "town": "小松町大頭"
  },
  "7991107": {
    "zipcode": "7991107",
    "prefectureCode": "38",
    "prefectureNumber": 38,
    "prefecture": "愛媛県",
    "city": "西条市",
    "town": "小松町明穂"
  },
  "7991108": {
    "zipcode": "7991108",
    "prefectureCode": "38",
    "prefectureNumber": 38,
    "prefecture": "愛媛県",
    "city": "西条市",
    "town": "小松町安井"
  },
  "7991111": {
    "zipcode": "7991111",
    "prefectureCode": "38",
    "prefectureNumber": 38,
    "prefecture": "愛媛県",
    "city": "西条市",
    "town": "小松町石鎚（湯浪）"
  },
  "7991112": {
    "zipcode": "7991112",
    "prefectureCode": "38",
    "prefectureNumber": 38,
    "prefecture": "愛媛県",
    "city": "西条市",
    "town": "小松町石鎚（その他）"
  },
  "7991301": {
    "zipcode": "7991301",
    "prefectureCode": "38",
    "prefectureNumber": 38,
    "prefecture": "愛媛県",
    "city": "西条市",
    "town": "三芳"
  },
  "7991302": {
    "zipcode": "7991302",
    "prefectureCode": "38",
    "prefectureNumber": 38,
    "prefecture": "愛媛県",
    "city": "西条市",
    "town": "楠"
  },
  "7991303": {
    "zipcode": "7991303",
    "prefectureCode": "38",
    "prefectureNumber": 38,
    "prefecture": "愛媛県",
    "city": "西条市",
    "town": "河原津"
  },
  "7991304": {
    "zipcode": "7991304",
    "prefectureCode": "38",
    "prefectureNumber": 38,
    "prefecture": "愛媛県",
    "city": "西条市",
    "town": "河原津新田"
  },
  "7991311": {
    "zipcode": "7991311",
    "prefectureCode": "38",
    "prefectureNumber": 38,
    "prefecture": "愛媛県",
    "city": "西条市",
    "town": "宮之内"
  },
  "7991312": {
    "zipcode": "7991312",
    "prefectureCode": "38",
    "prefectureNumber": 38,
    "prefecture": "愛媛県",
    "city": "西条市",
    "town": "大野"
  },
  "7991313": {
    "zipcode": "7991313",
    "prefectureCode": "38",
    "prefectureNumber": 38,
    "prefecture": "愛媛県",
    "city": "西条市",
    "town": "旦之上"
  },
  "7991314": {
    "zipcode": "7991314",
    "prefectureCode": "38",
    "prefectureNumber": 38,
    "prefecture": "愛媛県",
    "city": "西条市",
    "town": "河之内"
  },
  "7991315": {
    "zipcode": "7991315",
    "prefectureCode": "38",
    "prefectureNumber": 38,
    "prefecture": "愛媛県",
    "city": "西条市",
    "town": "黒谷"
  },
  "7991316": {
    "zipcode": "7991316",
    "prefectureCode": "38",
    "prefectureNumber": 38,
    "prefecture": "愛媛県",
    "city": "西条市",
    "town": "福成寺"
  },
  "7991317": {
    "zipcode": "7991317",
    "prefectureCode": "38",
    "prefectureNumber": 38,
    "prefecture": "愛媛県",
    "city": "西条市",
    "town": "実報寺"
  },
  "7991321": {
    "zipcode": "7991321",
    "prefectureCode": "38",
    "prefectureNumber": 38,
    "prefecture": "愛媛県",
    "city": "西条市",
    "town": "高田（その他）"
  },
  "7991322": {
    "zipcode": "7991322",
    "prefectureCode": "38",
    "prefectureNumber": 38,
    "prefecture": "愛媛県",
    "city": "西条市",
    "town": "国安"
  },
  "7991323": {
    "zipcode": "7991323",
    "prefectureCode": "38",
    "prefectureNumber": 38,
    "prefecture": "愛媛県",
    "city": "西条市",
    "town": "桑村"
  },
  "7991324": {
    "zipcode": "7991324",
    "prefectureCode": "38",
    "prefectureNumber": 38,
    "prefecture": "愛媛県",
    "city": "西条市",
    "town": "高田（正法寺）"
  },
  "7991325": {
    "zipcode": "7991325",
    "prefectureCode": "38",
    "prefectureNumber": 38,
    "prefecture": "愛媛県",
    "city": "西条市",
    "town": "新市"
  },
  "7991331": {
    "zipcode": "7991331",
    "prefectureCode": "38",
    "prefectureNumber": 38,
    "prefecture": "愛媛県",
    "city": "西条市",
    "town": "新町"
  },
  "7991332": {
    "zipcode": "7991332",
    "prefectureCode": "38",
    "prefectureNumber": 38,
    "prefecture": "愛媛県",
    "city": "西条市",
    "town": "安用出作"
  },
  "7991333": {
    "zipcode": "7991333",
    "prefectureCode": "38",
    "prefectureNumber": 38,
    "prefecture": "愛媛県",
    "city": "西条市",
    "town": "安用"
  },
  "7991334": {
    "zipcode": "7991334",
    "prefectureCode": "38",
    "prefectureNumber": 38,
    "prefecture": "愛媛県",
    "city": "西条市",
    "town": "広岡"
  },
  "7991335": {
    "zipcode": "7991335",
    "prefectureCode": "38",
    "prefectureNumber": 38,
    "prefecture": "愛媛県",
    "city": "西条市",
    "town": "石延"
  },
  "7991336": {
    "zipcode": "7991336",
    "prefectureCode": "38",
    "prefectureNumber": 38,
    "prefecture": "愛媛県",
    "city": "西条市",
    "town": "上市"
  },
  "7991341": {
    "zipcode": "7991341",
    "prefectureCode": "38",
    "prefectureNumber": 38,
    "prefecture": "愛媛県",
    "city": "西条市",
    "town": "壬生川"
  },
  "7991342": {
    "zipcode": "7991342",
    "prefectureCode": "38",
    "prefectureNumber": 38,
    "prefecture": "愛媛県",
    "city": "西条市",
    "town": "大新田"
  },
  "7991343": {
    "zipcode": "7991343",
    "prefectureCode": "38",
    "prefectureNumber": 38,
    "prefecture": "愛媛県",
    "city": "西条市",
    "town": "喜多台"
  },
  "7991344": {
    "zipcode": "7991344",
    "prefectureCode": "38",
    "prefectureNumber": 38,
    "prefecture": "愛媛県",
    "city": "西条市",
    "town": "円海寺"
  },
  "7991345": {
    "zipcode": "7991345",
    "prefectureCode": "38",
    "prefectureNumber": 38,
    "prefecture": "愛媛県",
    "city": "西条市",
    "town": "明理川"
  },
  "7991351": {
    "zipcode": "7991351",
    "prefectureCode": "38",
    "prefectureNumber": 38,
    "prefecture": "愛媛県",
    "city": "西条市",
    "town": "三津屋"
  },
  "7991352": {
    "zipcode": "7991352",
    "prefectureCode": "38",
    "prefectureNumber": 38,
    "prefecture": "愛媛県",
    "city": "西条市",
    "town": "三津屋東"
  },
  "7991353": {
    "zipcode": "7991353",
    "prefectureCode": "38",
    "prefectureNumber": 38,
    "prefecture": "愛媛県",
    "city": "西条市",
    "town": "三津屋南"
  },
  "7991354": {
    "zipcode": "7991354",
    "prefectureCode": "38",
    "prefectureNumber": 38,
    "prefecture": "愛媛県",
    "city": "西条市",
    "town": "北条"
  },
  "7991361": {
    "zipcode": "7991361",
    "prefectureCode": "38",
    "prefectureNumber": 38,
    "prefecture": "愛媛県",
    "city": "西条市",
    "town": "広江"
  },
  "7991362": {
    "zipcode": "7991362",
    "prefectureCode": "38",
    "prefectureNumber": 38,
    "prefecture": "愛媛県",
    "city": "西条市",
    "town": "今在家"
  },
  "7991363": {
    "zipcode": "7991363",
    "prefectureCode": "38",
    "prefectureNumber": 38,
    "prefecture": "愛媛県",
    "city": "西条市",
    "town": "玉之江"
  },
  "7991364": {
    "zipcode": "7991364",
    "prefectureCode": "38",
    "prefectureNumber": 38,
    "prefecture": "愛媛県",
    "city": "西条市",
    "town": "石田"
  },
  "7991371": {
    "zipcode": "7991371",
    "prefectureCode": "38",
    "prefectureNumber": 38,
    "prefecture": "愛媛県",
    "city": "西条市",
    "town": "周布"
  },
  "7991372": {
    "zipcode": "7991372",
    "prefectureCode": "38",
    "prefectureNumber": 38,
    "prefecture": "愛媛県",
    "city": "西条市",
    "town": "吉田"
  },
  "7991501": {
    "zipcode": "7991501",
    "prefectureCode": "38",
    "prefectureNumber": 38,
    "prefecture": "愛媛県",
    "city": "今治市",
    "town": "喜田村（番地）"
  },
  "7991502": {
    "zipcode": "7991502",
    "prefectureCode": "38",
    "prefectureNumber": 38,
    "prefecture": "愛媛県",
    "city": "今治市",
    "town": "喜田村（丁目）"
  },
  "7991503": {
    "zipcode": "7991503",
    "prefectureCode": "38",
    "prefectureNumber": 38,
    "prefecture": "愛媛県",
    "city": "今治市",
    "town": "富田新港"
  },
  "7991504": {
    "zipcode": "7991504",
    "prefectureCode": "38",
    "prefectureNumber": 38,
    "prefecture": "愛媛県",
    "city": "今治市",
    "town": "拝志"
  },
  "7991505": {
    "zipcode": "7991505",
    "prefectureCode": "38",
    "prefectureNumber": 38,
    "prefecture": "愛媛県",
    "city": "今治市",
    "town": "東村（番地）"
  },
  "7991506": {
    "zipcode": "7991506",
    "prefectureCode": "38",
    "prefectureNumber": 38,
    "prefecture": "愛媛県",
    "city": "今治市",
    "town": "東村（丁目）"
  },
  "7991507": {
    "zipcode": "7991507",
    "prefectureCode": "38",
    "prefectureNumber": 38,
    "prefecture": "愛媛県",
    "city": "今治市",
    "town": "東村南"
  },
  "7991511": {
    "zipcode": "7991511",
    "prefectureCode": "38",
    "prefectureNumber": 38,
    "prefecture": "愛媛県",
    "city": "今治市",
    "town": "上徳"
  },
  "7991512": {
    "zipcode": "7991512",
    "prefectureCode": "38",
    "prefectureNumber": 38,
    "prefecture": "愛媛県",
    "city": "今治市",
    "town": "高市"
  },
  "7991513": {
    "zipcode": "7991513",
    "prefectureCode": "38",
    "prefectureNumber": 38,
    "prefecture": "愛媛県",
    "city": "今治市",
    "town": "松木"
  },
  "7991514": {
    "zipcode": "7991514",
    "prefectureCode": "38",
    "prefectureNumber": 38,
    "prefecture": "愛媛県",
    "city": "今治市",
    "town": "町谷"
  },
  "7991521": {
    "zipcode": "7991521",
    "prefectureCode": "38",
    "prefectureNumber": 38,
    "prefecture": "愛媛県",
    "city": "今治市",
    "town": "古国分"
  },
  "7991522": {
    "zipcode": "7991522",
    "prefectureCode": "38",
    "prefectureNumber": 38,
    "prefecture": "愛媛県",
    "city": "今治市",
    "town": "桜井（丁目）"
  },
  "7991523": {
    "zipcode": "7991523",
    "prefectureCode": "38",
    "prefectureNumber": 38,
    "prefecture": "愛媛県",
    "city": "今治市",
    "town": "郷桜井"
  },
  "7991524": {
    "zipcode": "7991524",
    "prefectureCode": "38",
    "prefectureNumber": 38,
    "prefecture": "愛媛県",
    "city": "今治市",
    "town": "桜井（番地）"
  },
  "7991525": {
    "zipcode": "7991525",
    "prefectureCode": "38",
    "prefectureNumber": 38,
    "prefecture": "愛媛県",
    "city": "今治市",
    "town": "湯ノ浦"
  },
  "7991526": {
    "zipcode": "7991526",
    "prefectureCode": "38",
    "prefectureNumber": 38,
    "prefecture": "愛媛県",
    "city": "今治市",
    "town": "孫兵衛作"
  },
  "7991527": {
    "zipcode": "7991527",
    "prefectureCode": "38",
    "prefectureNumber": 38,
    "prefecture": "愛媛県",
    "city": "今治市",
    "town": "長沢"
  },
  "7991531": {
    "zipcode": "7991531",
    "prefectureCode": "38",
    "prefectureNumber": 38,
    "prefecture": "愛媛県",
    "city": "今治市",
    "town": "唐子台東"
  },
  "7991532": {
    "zipcode": "7991532",
    "prefectureCode": "38",
    "prefectureNumber": 38,
    "prefecture": "愛媛県",
    "city": "今治市",
    "town": "唐子台西"
  },
  "7991533": {
    "zipcode": "7991533",
    "prefectureCode": "38",
    "prefectureNumber": 38,
    "prefecture": "愛媛県",
    "city": "今治市",
    "town": "国分"
  },
  "7991534": {
    "zipcode": "7991534",
    "prefectureCode": "38",
    "prefectureNumber": 38,
    "prefecture": "愛媛県",
    "city": "今治市",
    "town": "桜井団地"
  },
  "7991535": {
    "zipcode": "7991535",
    "prefectureCode": "38",
    "prefectureNumber": 38,
    "prefecture": "愛媛県",
    "city": "今治市",
    "town": "登畑"
  },
  "7991536": {
    "zipcode": "7991536",
    "prefectureCode": "38",
    "prefectureNumber": 38,
    "prefecture": "愛媛県",
    "city": "今治市",
    "town": "旦"
  },
  "7991537": {
    "zipcode": "7991537",
    "prefectureCode": "38",
    "prefectureNumber": 38,
    "prefecture": "愛媛県",
    "city": "今治市",
    "town": "宮ヶ崎"
  },
  "7991601": {
    "zipcode": "7991601",
    "prefectureCode": "38",
    "prefectureNumber": 38,
    "prefecture": "愛媛県",
    "city": "今治市",
    "town": "古谷"
  },
  "7991602": {
    "zipcode": "7991602",
    "prefectureCode": "38",
    "prefectureNumber": 38,
    "prefecture": "愛媛県",
    "city": "今治市",
    "town": "山口"
  },
  "7991603": {
    "zipcode": "7991603",
    "prefectureCode": "38",
    "prefectureNumber": 38,
    "prefecture": "愛媛県",
    "city": "今治市",
    "town": "朝倉下"
  },
  "7991604": {
    "zipcode": "7991604",
    "prefectureCode": "38",
    "prefectureNumber": 38,
    "prefecture": "愛媛県",
    "city": "今治市",
    "town": "朝倉北"
  },
  "7991605": {
    "zipcode": "7991605",
    "prefectureCode": "38",
    "prefectureNumber": 38,
    "prefecture": "愛媛県",
    "city": "今治市",
    "town": "朝倉南甲"
  },
  "7991606": {
    "zipcode": "7991606",
    "prefectureCode": "38",
    "prefectureNumber": 38,
    "prefecture": "愛媛県",
    "city": "今治市",
    "town": "朝倉南乙"
  },
  "7991607": {
    "zipcode": "7991607",
    "prefectureCode": "38",
    "prefectureNumber": 38,
    "prefecture": "愛媛県",
    "city": "今治市",
    "town": "朝倉上"
  },
  "7991608": {
    "zipcode": "7991608",
    "prefectureCode": "38",
    "prefectureNumber": 38,
    "prefecture": "愛媛県",
    "city": "今治市",
    "town": "朝倉南丙"
  },
  "7992101": {
    "zipcode": "7992101",
    "prefectureCode": "38",
    "prefectureNumber": 38,
    "prefecture": "愛媛県",
    "city": "今治市",
    "town": "波方町波方"
  },
  "7992102": {
    "zipcode": "7992102",
    "prefectureCode": "38",
    "prefectureNumber": 38,
    "prefecture": "愛媛県",
    "city": "今治市",
    "town": "波方町樋口"
  },
  "7992103": {
    "zipcode": "7992103",
    "prefectureCode": "38",
    "prefectureNumber": 38,
    "prefecture": "愛媛県",
    "city": "今治市",
    "town": "波方町小部"
  },
  "7992104": {
    "zipcode": "7992104",
    "prefectureCode": "38",
    "prefectureNumber": 38,
    "prefecture": "愛媛県",
    "city": "今治市",
    "town": "波方町宮崎"
  },
  "7992105": {
    "zipcode": "7992105",
    "prefectureCode": "38",
    "prefectureNumber": 38,
    "prefecture": "愛媛県",
    "city": "今治市",
    "town": "波方町馬刀潟"
  },
  "7992106": {
    "zipcode": "7992106",
    "prefectureCode": "38",
    "prefectureNumber": 38,
    "prefecture": "愛媛県",
    "city": "今治市",
    "town": "波方町森上"
  },
  "7992107": {
    "zipcode": "7992107",
    "prefectureCode": "38",
    "prefectureNumber": 38,
    "prefecture": "愛媛県",
    "city": "今治市",
    "town": "波方町西浦"
  },
  "7992108": {
    "zipcode": "7992108",
    "prefectureCode": "38",
    "prefectureNumber": 38,
    "prefecture": "愛媛県",
    "city": "今治市",
    "town": "波方町岡"
  },
  "7992109": {
    "zipcode": "7992109",
    "prefectureCode": "38",
    "prefectureNumber": 38,
    "prefecture": "愛媛県",
    "city": "今治市",
    "town": "波方町養老"
  },
  "7992110": {
    "zipcode": "7992110",
    "prefectureCode": "38",
    "prefectureNumber": 38,
    "prefecture": "愛媛県",
    "city": "今治市",
    "town": "波方町郷"
  },
  "7992111": {
    "zipcode": "7992111",
    "prefectureCode": "38",
    "prefectureNumber": 38,
    "prefecture": "愛媛県",
    "city": "今治市",
    "town": "小浦町"
  },
  "7992112": {
    "zipcode": "7992112",
    "prefectureCode": "38",
    "prefectureNumber": 38,
    "prefecture": "愛媛県",
    "city": "今治市",
    "town": "波止浜（丁目）"
  },
  "7992113": {
    "zipcode": "7992113",
    "prefectureCode": "38",
    "prefectureNumber": 38,
    "prefecture": "愛媛県",
    "city": "今治市",
    "town": "高部"
  },
  "7992114": {
    "zipcode": "7992114",
    "prefectureCode": "38",
    "prefectureNumber": 38,
    "prefecture": "愛媛県",
    "city": "今治市",
    "town": "杣田"
  },
  "7992115": {
    "zipcode": "7992115",
    "prefectureCode": "38",
    "prefectureNumber": 38,
    "prefecture": "愛媛県",
    "city": "今治市",
    "town": "中堀"
  },
  "7992116": {
    "zipcode": "7992116",
    "prefectureCode": "38",
    "prefectureNumber": 38,
    "prefecture": "愛媛県",
    "city": "今治市",
    "town": "内堀"
  },
  "7992117": {
    "zipcode": "7992117",
    "prefectureCode": "38",
    "prefectureNumber": 38,
    "prefecture": "愛媛県",
    "city": "今治市",
    "town": "地堀"
  },
  "7992118": {
    "zipcode": "7992118",
    "prefectureCode": "38",
    "prefectureNumber": 38,
    "prefecture": "愛媛県",
    "city": "今治市",
    "town": "波止浜（番地）"
  },
  "7992121": {
    "zipcode": "7992121",
    "prefectureCode": "38",
    "prefectureNumber": 38,
    "prefecture": "愛媛県",
    "city": "今治市",
    "town": "来島（その他）"
  },
  "7992122": {
    "zipcode": "7992122",
    "prefectureCode": "38",
    "prefectureNumber": 38,
    "prefecture": "愛媛県",
    "city": "今治市",
    "town": "来島（小島）"
  },
  "7992123": {
    "zipcode": "7992123",
    "prefectureCode": "38",
    "prefectureNumber": 38,
    "prefecture": "愛媛県",
    "city": "今治市",
    "town": "馬島"
  },
  "7992201": {
    "zipcode": "7992201",
    "prefectureCode": "38",
    "prefectureNumber": 38,
    "prefecture": "愛媛県",
    "city": "今治市",
    "town": "大西町九王"
  },
  "7992202": {
    "zipcode": "7992202",
    "prefectureCode": "38",
    "prefectureNumber": 38,
    "prefecture": "愛媛県",
    "city": "今治市",
    "town": "大西町紺原"
  },
  "7992203": {
    "zipcode": "7992203",
    "prefectureCode": "38",
    "prefectureNumber": 38,
    "prefecture": "愛媛県",
    "city": "今治市",
    "town": "大西町新町"
  },
  "7992204": {
    "zipcode": "7992204",
    "prefectureCode": "38",
    "prefectureNumber": 38,
    "prefecture": "愛媛県",
    "city": "今治市",
    "town": "大西町大井浜"
  },
  "7992205": {
    "zipcode": "7992205",
    "prefectureCode": "38",
    "prefectureNumber": 38,
    "prefecture": "愛媛県",
    "city": "今治市",
    "town": "大西町宮脇"
  },
  "7992206": {
    "zipcode": "7992206",
    "prefectureCode": "38",
    "prefectureNumber": 38,
    "prefecture": "愛媛県",
    "city": "今治市",
    "town": "大西町脇"
  },
  "7992207": {
    "zipcode": "7992207",
    "prefectureCode": "38",
    "prefectureNumber": 38,
    "prefecture": "愛媛県",
    "city": "今治市",
    "town": "大西町山之内"
  },
  "7992208": {
    "zipcode": "7992208",
    "prefectureCode": "38",
    "prefectureNumber": 38,
    "prefecture": "愛媛県",
    "city": "今治市",
    "town": "大西町星浦"
  },
  "7992209": {
    "zipcode": "7992209",
    "prefectureCode": "38",
    "prefectureNumber": 38,
    "prefecture": "愛媛県",
    "city": "今治市",
    "town": "大西町別府"
  },
  "7992301": {
    "zipcode": "7992301",
    "prefectureCode": "38",
    "prefectureNumber": 38,
    "prefecture": "愛媛県",
    "city": "今治市",
    "town": "菊間町佐方"
  },
  "7992302": {
    "zipcode": "7992302",
    "prefectureCode": "38",
    "prefectureNumber": 38,
    "prefecture": "愛媛県",
    "city": "今治市",
    "town": "菊間町種"
  },
  "7992303": {
    "zipcode": "7992303",
    "prefectureCode": "38",
    "prefectureNumber": 38,
    "prefecture": "愛媛県",
    "city": "今治市",
    "town": "菊間町浜"
  },
  "7992304": {
    "zipcode": "7992304",
    "prefectureCode": "38",
    "prefectureNumber": 38,
    "prefecture": "愛媛県",
    "city": "今治市",
    "town": "菊間町池原"
  },
  "7992305": {
    "zipcode": "7992305",
    "prefectureCode": "38",
    "prefectureNumber": 38,
    "prefecture": "愛媛県",
    "city": "今治市",
    "town": "菊間町松尾"
  },
  "7992306": {
    "zipcode": "7992306",
    "prefectureCode": "38",
    "prefectureNumber": 38,
    "prefecture": "愛媛県",
    "city": "今治市",
    "town": "菊間町河之内"
  },
  "7992307": {
    "zipcode": "7992307",
    "prefectureCode": "38",
    "prefectureNumber": 38,
    "prefecture": "愛媛県",
    "city": "今治市",
    "town": "菊間町川上"
  },
  "7992308": {
    "zipcode": "7992308",
    "prefectureCode": "38",
    "prefectureNumber": 38,
    "prefecture": "愛媛県",
    "city": "今治市",
    "town": "菊間町中川"
  },
  "7992309": {
    "zipcode": "7992309",
    "prefectureCode": "38",
    "prefectureNumber": 38,
    "prefecture": "愛媛県",
    "city": "今治市",
    "town": "菊間町高田"
  },
  "7992310": {
    "zipcode": "7992310",
    "prefectureCode": "38",
    "prefectureNumber": 38,
    "prefecture": "愛媛県",
    "city": "今治市",
    "town": "菊間町長坂"
  },
  "7992311": {
    "zipcode": "7992311",
    "prefectureCode": "38",
    "prefectureNumber": 38,
    "prefecture": "愛媛県",
    "city": "今治市",
    "town": "菊間町西山"
  },
  "7992312": {
    "zipcode": "7992312",
    "prefectureCode": "38",
    "prefectureNumber": 38,
    "prefecture": "愛媛県",
    "city": "今治市",
    "town": "菊間町田之尻"
  },
  "7992401": {
    "zipcode": "7992401",
    "prefectureCode": "38",
    "prefectureNumber": 38,
    "prefecture": "愛媛県",
    "city": "松山市",
    "town": "浅海原"
  },
  "7992402": {
    "zipcode": "7992402",
    "prefectureCode": "38",
    "prefectureNumber": 38,
    "prefecture": "愛媛県",
    "city": "松山市",
    "town": "浅海本谷"
  },
  "7992403": {
    "zipcode": "7992403",
    "prefectureCode": "38",
    "prefectureNumber": 38,
    "prefecture": "愛媛県",
    "city": "松山市",
    "town": "萩原"
  },
  "7992404": {
    "zipcode": "7992404",
    "prefectureCode": "38",
    "prefectureNumber": 38,
    "prefecture": "愛媛県",
    "city": "松山市",
    "town": "庄"
  },
  "7992405": {
    "zipcode": "7992405",
    "prefectureCode": "38",
    "prefectureNumber": 38,
    "prefecture": "愛媛県",
    "city": "松山市",
    "town": "上難波"
  },
  "7992406": {
    "zipcode": "7992406",
    "prefectureCode": "38",
    "prefectureNumber": 38,
    "prefecture": "愛媛県",
    "city": "松山市",
    "town": "中通"
  },
  "7992407": {
    "zipcode": "7992407",
    "prefectureCode": "38",
    "prefectureNumber": 38,
    "prefecture": "愛媛県",
    "city": "松山市",
    "town": "下難波"
  },
  "7992408": {
    "zipcode": "7992408",
    "prefectureCode": "38",
    "prefectureNumber": 38,
    "prefecture": "愛媛県",
    "city": "松山市",
    "town": "大浦"
  },
  "7992410": {
    "zipcode": "7992410",
    "prefectureCode": "38",
    "prefectureNumber": 38,
    "prefecture": "愛媛県",
    "city": "松山市",
    "town": "小山田"
  },
  "7992411": {
    "zipcode": "7992411",
    "prefectureCode": "38",
    "prefectureNumber": 38,
    "prefecture": "愛媛県",
    "city": "松山市",
    "town": "儀式"
  },
  "7992412": {
    "zipcode": "7992412",
    "prefectureCode": "38",
    "prefectureNumber": 38,
    "prefecture": "愛媛県",
    "city": "松山市",
    "town": "庄府"
  },
  "7992413": {
    "zipcode": "7992413",
    "prefectureCode": "38",
    "prefectureNumber": 38,
    "prefecture": "愛媛県",
    "city": "松山市",
    "town": "立岩米之野"
  },
  "7992414": {
    "zipcode": "7992414",
    "prefectureCode": "38",
    "prefectureNumber": 38,
    "prefecture": "愛媛県",
    "city": "松山市",
    "town": "立岩中村"
  },
  "7992415": {
    "zipcode": "7992415",
    "prefectureCode": "38",
    "prefectureNumber": 38,
    "prefecture": "愛媛県",
    "city": "松山市",
    "town": "猿川"
  },
  "7992416": {
    "zipcode": "7992416",
    "prefectureCode": "38",
    "prefectureNumber": 38,
    "prefecture": "愛媛県",
    "city": "松山市",
    "town": "滝本"
  },
  "7992417": {
    "zipcode": "7992417",
    "prefectureCode": "38",
    "prefectureNumber": 38,
    "prefecture": "愛媛県",
    "city": "松山市",
    "town": "才之原"
  },
  "7992418": {
    "zipcode": "7992418",
    "prefectureCode": "38",
    "prefectureNumber": 38,
    "prefecture": "愛媛県",
    "city": "松山市",
    "town": "尾儀原"
  },
  "7992419": {
    "zipcode": "7992419",
    "prefectureCode": "38",
    "prefectureNumber": 38,
    "prefecture": "愛媛県",
    "city": "松山市",
    "town": "猿川原"
  },
  "7992421": {
    "zipcode": "7992421",
    "prefectureCode": "38",
    "prefectureNumber": 38,
    "prefecture": "愛媛県",
    "city": "松山市",
    "town": "正岡神田"
  },
  "7992422": {
    "zipcode": "7992422",
    "prefectureCode": "38",
    "prefectureNumber": 38,
    "prefecture": "愛媛県",
    "city": "松山市",
    "town": "高田"
  },
  "7992423": {
    "zipcode": "7992423",
    "prefectureCode": "38",
    "prefectureNumber": 38,
    "prefecture": "愛媛県",
    "city": "松山市",
    "town": "院内"
  },
  "7992424": {
    "zipcode": "7992424",
    "prefectureCode": "38",
    "prefectureNumber": 38,
    "prefecture": "愛媛県",
    "city": "松山市",
    "town": "八反地"
  },
  "7992425": {
    "zipcode": "7992425",
    "prefectureCode": "38",
    "prefectureNumber": 38,
    "prefecture": "愛媛県",
    "city": "松山市",
    "town": "中西外"
  },
  "7992426": {
    "zipcode": "7992426",
    "prefectureCode": "38",
    "prefectureNumber": 38,
    "prefecture": "愛媛県",
    "city": "松山市",
    "town": "中西内"
  },
  "7992430": {
    "zipcode": "7992430",
    "prefectureCode": "38",
    "prefectureNumber": 38,
    "prefecture": "愛媛県",
    "city": "松山市",
    "town": "北条辻"
  },
  "7992431": {
    "zipcode": "7992431",
    "prefectureCode": "38",
    "prefectureNumber": 38,
    "prefecture": "愛媛県",
    "city": "松山市",
    "town": "北条"
  },
  "7992432": {
    "zipcode": "7992432",
    "prefectureCode": "38",
    "prefectureNumber": 38,
    "prefecture": "愛媛県",
    "city": "松山市",
    "town": "土手内"
  },
  "7992433": {
    "zipcode": "7992433",
    "prefectureCode": "38",
    "prefectureNumber": 38,
    "prefecture": "愛媛県",
    "city": "松山市",
    "town": "安居島"
  },
  "7992434": {
    "zipcode": "7992434",
    "prefectureCode": "38",
    "prefectureNumber": 38,
    "prefecture": "愛媛県",
    "city": "松山市",
    "town": "柳原"
  },
  "7992435": {
    "zipcode": "7992435",
    "prefectureCode": "38",
    "prefectureNumber": 38,
    "prefecture": "愛媛県",
    "city": "松山市",
    "town": "府中"
  },
  "7992436": {
    "zipcode": "7992436",
    "prefectureCode": "38",
    "prefectureNumber": 38,
    "prefecture": "愛媛県",
    "city": "松山市",
    "town": "河野別府"
  },
  "7992437": {
    "zipcode": "7992437",
    "prefectureCode": "38",
    "prefectureNumber": 38,
    "prefecture": "愛媛県",
    "city": "松山市",
    "town": "夏目"
  },
  "7992438": {
    "zipcode": "7992438",
    "prefectureCode": "38",
    "prefectureNumber": 38,
    "prefecture": "愛媛県",
    "city": "松山市",
    "town": "河野中須賀"
  },
  "7992439": {
    "zipcode": "7992439",
    "prefectureCode": "38",
    "prefectureNumber": 38,
    "prefecture": "愛媛県",
    "city": "松山市",
    "town": "片山"
  },
  "7992441": {
    "zipcode": "7992441",
    "prefectureCode": "38",
    "prefectureNumber": 38,
    "prefecture": "愛媛県",
    "city": "松山市",
    "town": "宮内"
  },
  "7992442": {
    "zipcode": "7992442",
    "prefectureCode": "38",
    "prefectureNumber": 38,
    "prefecture": "愛媛県",
    "city": "松山市",
    "town": "常保免"
  },
  "7992443": {
    "zipcode": "7992443",
    "prefectureCode": "38",
    "prefectureNumber": 38,
    "prefecture": "愛媛県",
    "city": "松山市",
    "town": "善応寺"
  },
  "7992444": {
    "zipcode": "7992444",
    "prefectureCode": "38",
    "prefectureNumber": 38,
    "prefecture": "愛媛県",
    "city": "松山市",
    "town": "横谷"
  },
  "7992445": {
    "zipcode": "7992445",
    "prefectureCode": "38",
    "prefectureNumber": 38,
    "prefecture": "愛媛県",
    "city": "松山市",
    "town": "河野高山"
  },
  "7992446": {
    "zipcode": "7992446",
    "prefectureCode": "38",
    "prefectureNumber": 38,
    "prefecture": "愛媛県",
    "city": "松山市",
    "town": "牛谷"
  },
  "7992447": {
    "zipcode": "7992447",
    "prefectureCode": "38",
    "prefectureNumber": 38,
    "prefecture": "愛媛県",
    "city": "松山市",
    "town": "佐古"
  },
  "7992451": {
    "zipcode": "7992451",
    "prefectureCode": "38",
    "prefectureNumber": 38,
    "prefecture": "愛媛県",
    "city": "松山市",
    "town": "小川谷"
  },
  "7992452": {
    "zipcode": "7992452",
    "prefectureCode": "38",
    "prefectureNumber": 38,
    "prefecture": "愛媛県",
    "city": "松山市",
    "town": "平林"
  },
  "7992453": {
    "zipcode": "7992453",
    "prefectureCode": "38",
    "prefectureNumber": 38,
    "prefecture": "愛媛県",
    "city": "松山市",
    "town": "麓"
  },
  "7992454": {
    "zipcode": "7992454",
    "prefectureCode": "38",
    "prefectureNumber": 38,
    "prefecture": "愛媛県",
    "city": "松山市",
    "town": "客"
  },
  "7992455": {
    "zipcode": "7992455",
    "prefectureCode": "38",
    "prefectureNumber": 38,
    "prefecture": "愛媛県",
    "city": "松山市",
    "town": "常竹"
  },
  "7992456": {
    "zipcode": "7992456",
    "prefectureCode": "38",
    "prefectureNumber": 38,
    "prefecture": "愛媛県",
    "city": "松山市",
    "town": "本谷"
  },
  "7992457": {
    "zipcode": "7992457",
    "prefectureCode": "38",
    "prefectureNumber": 38,
    "prefecture": "愛媛県",
    "city": "松山市",
    "town": "西谷"
  },
  "7992458": {
    "zipcode": "7992458",
    "prefectureCode": "38",
    "prefectureNumber": 38,
    "prefecture": "愛媛県",
    "city": "松山市",
    "town": "大西谷"
  },
  "7992460": {
    "zipcode": "7992460",
    "prefectureCode": "38",
    "prefectureNumber": 38,
    "prefecture": "愛媛県",
    "city": "松山市",
    "town": "苞木"
  },
  "7992461": {
    "zipcode": "7992461",
    "prefectureCode": "38",
    "prefectureNumber": 38,
    "prefecture": "愛媛県",
    "city": "松山市",
    "town": "鹿峰"
  },
  "7992462": {
    "zipcode": "7992462",
    "prefectureCode": "38",
    "prefectureNumber": 38,
    "prefecture": "愛媛県",
    "city": "松山市",
    "town": "久保"
  },
  "7992463": {
    "zipcode": "7992463",
    "prefectureCode": "38",
    "prefectureNumber": 38,
    "prefecture": "愛媛県",
    "city": "松山市",
    "town": "粟井河原"
  },
  "7992464": {
    "zipcode": "7992464",
    "prefectureCode": "38",
    "prefectureNumber": 38,
    "prefecture": "愛媛県",
    "city": "松山市",
    "town": "安岡"
  },
  "7992465": {
    "zipcode": "7992465",
    "prefectureCode": "38",
    "prefectureNumber": 38,
    "prefecture": "愛媛県",
    "city": "松山市",
    "town": "和田"
  },
  "7992466": {
    "zipcode": "7992466",
    "prefectureCode": "38",
    "prefectureNumber": 38,
    "prefecture": "愛媛県",
    "city": "松山市",
    "town": "鴨之池"
  },
  "7992467": {
    "zipcode": "7992467",
    "prefectureCode": "38",
    "prefectureNumber": 38,
    "prefecture": "愛媛県",
    "city": "松山市",
    "town": "磯河内"
  },
  "7992468": {
    "zipcode": "7992468",
    "prefectureCode": "38",
    "prefectureNumber": 38,
    "prefecture": "愛媛県",
    "city": "松山市",
    "town": "小川"
  },
  "7992469": {
    "zipcode": "7992469",
    "prefectureCode": "38",
    "prefectureNumber": 38,
    "prefecture": "愛媛県",
    "city": "松山市",
    "town": "光洋台"
  },
  "7992649": {
    "zipcode": "7992649",
    "prefectureCode": "38",
    "prefectureNumber": 38,
    "prefecture": "愛媛県",
    "city": "松山市",
    "town": "東大栗町"
  },
  "7992651": {
    "zipcode": "7992651",
    "prefectureCode": "38",
    "prefectureNumber": 38,
    "prefecture": "愛媛県",
    "city": "松山市",
    "town": "堀江町"
  },
  "7992652": {
    "zipcode": "7992652",
    "prefectureCode": "38",
    "prefectureNumber": 38,
    "prefecture": "愛媛県",
    "city": "松山市",
    "town": "福角町"
  },
  "7992653": {
    "zipcode": "7992653",
    "prefectureCode": "38",
    "prefectureNumber": 38,
    "prefecture": "愛媛県",
    "city": "松山市",
    "town": "権現町"
  },
  "7992654": {
    "zipcode": "7992654",
    "prefectureCode": "38",
    "prefectureNumber": 38,
    "prefecture": "愛媛県",
    "city": "松山市",
    "town": "内宮町"
  },
  "7992655": {
    "zipcode": "7992655",
    "prefectureCode": "38",
    "prefectureNumber": 38,
    "prefecture": "愛媛県",
    "city": "松山市",
    "town": "馬木町"
  },
  "7992656": {
    "zipcode": "7992656",
    "prefectureCode": "38",
    "prefectureNumber": 38,
    "prefecture": "愛媛県",
    "city": "松山市",
    "town": "和気町"
  },
  "7992661": {
    "zipcode": "7992661",
    "prefectureCode": "38",
    "prefectureNumber": 38,
    "prefecture": "愛媛県",
    "city": "松山市",
    "town": "勝岡町"
  },
  "7992662": {
    "zipcode": "7992662",
    "prefectureCode": "38",
    "prefectureNumber": 38,
    "prefecture": "愛媛県",
    "city": "松山市",
    "town": "太山寺町"
  },
  "7993100": {
    "zipcode": "7993100",
    "prefectureCode": "38",
    "prefectureNumber": 38,
    "prefecture": "愛媛県",
    "city": "伊予市",
    "town": "以下に掲載がない場合"
  },
  "7993101": {
    "zipcode": "7993101",
    "prefectureCode": "38",
    "prefectureNumber": 38,
    "prefecture": "愛媛県",
    "city": "伊予市",
    "town": "八倉"
  },
  "7993102": {
    "zipcode": "7993102",
    "prefectureCode": "38",
    "prefectureNumber": 38,
    "prefecture": "愛媛県",
    "city": "伊予市",
    "town": "宮下"
  },
  "7993103": {
    "zipcode": "7993103",
    "prefectureCode": "38",
    "prefectureNumber": 38,
    "prefecture": "愛媛県",
    "city": "伊予市",
    "town": "上野"
  },
  "7993104": {
    "zipcode": "7993104",
    "prefectureCode": "38",
    "prefectureNumber": 38,
    "prefecture": "愛媛県",
    "city": "伊予市",
    "town": "上三谷"
  },
  "7993105": {
    "zipcode": "7993105",
    "prefectureCode": "38",
    "prefectureNumber": 38,
    "prefecture": "愛媛県",
    "city": "伊予市",
    "town": "下三谷"
  },
  "7993111": {
    "zipcode": "7993111",
    "prefectureCode": "38",
    "prefectureNumber": 38,
    "prefecture": "愛媛県",
    "city": "伊予市",
    "town": "下吾川"
  },
  "7993112": {
    "zipcode": "7993112",
    "prefectureCode": "38",
    "prefectureNumber": 38,
    "prefecture": "愛媛県",
    "city": "伊予市",
    "town": "上吾川"
  },
  "7993113": {
    "zipcode": "7993113",
    "prefectureCode": "38",
    "prefectureNumber": 38,
    "prefecture": "愛媛県",
    "city": "伊予市",
    "town": "米湊"
  },
  "7993114": {
    "zipcode": "7993114",
    "prefectureCode": "38",
    "prefectureNumber": 38,
    "prefecture": "愛媛県",
    "city": "伊予市",
    "town": "灘町"
  },
  "7993115": {
    "zipcode": "7993115",
    "prefectureCode": "38",
    "prefectureNumber": 38,
    "prefecture": "愛媛県",
    "city": "伊予市",
    "town": "湊町"
  },
  "7993121": {
    "zipcode": "7993121",
    "prefectureCode": "38",
    "prefectureNumber": 38,
    "prefecture": "愛媛県",
    "city": "伊予市",
    "town": "稲荷"
  },
  "7993122": {
    "zipcode": "7993122",
    "prefectureCode": "38",
    "prefectureNumber": 38,
    "prefecture": "愛媛県",
    "city": "伊予市",
    "town": "市場"
  },
  "7993123": {
    "zipcode": "7993123",
    "prefectureCode": "38",
    "prefectureNumber": 38,
    "prefecture": "愛媛県",
    "city": "伊予市",
    "town": "中村"
  },
  "7993124": {
    "zipcode": "7993124",
    "prefectureCode": "38",
    "prefectureNumber": 38,
    "prefecture": "愛媛県",
    "city": "伊予市",
    "town": "三秋"
  },
  "7993125": {
    "zipcode": "7993125",
    "prefectureCode": "38",
    "prefectureNumber": 38,
    "prefecture": "愛媛県",
    "city": "伊予市",
    "town": "森"
  },
  "7993126": {
    "zipcode": "7993126",
    "prefectureCode": "38",
    "prefectureNumber": 38,
    "prefecture": "愛媛県",
    "city": "伊予市",
    "town": "本郡"
  },
  "7993127": {
    "zipcode": "7993127",
    "prefectureCode": "38",
    "prefectureNumber": 38,
    "prefecture": "愛媛県",
    "city": "伊予市",
    "town": "尾崎"
  },
  "7993128": {
    "zipcode": "7993128",
    "prefectureCode": "38",
    "prefectureNumber": 38,
    "prefecture": "愛媛県",
    "city": "伊予市",
    "town": "三島町"
  },
  "7993131": {
    "zipcode": "7993131",
    "prefectureCode": "38",
    "prefectureNumber": 38,
    "prefecture": "愛媛県",
    "city": "伊予市",
    "town": "大平"
  },
  "7993132": {
    "zipcode": "7993132",
    "prefectureCode": "38",
    "prefectureNumber": 38,
    "prefecture": "愛媛県",
    "city": "伊予市",
    "town": "平岡"
  },
  "7993133": {
    "zipcode": "7993133",
    "prefectureCode": "38",
    "prefectureNumber": 38,
    "prefecture": "愛媛県",
    "city": "伊予市",
    "town": "下唐川"
  },
  "7993134": {
    "zipcode": "7993134",
    "prefectureCode": "38",
    "prefectureNumber": 38,
    "prefecture": "愛媛県",
    "city": "伊予市",
    "town": "上唐川"
  },
  "7993135": {
    "zipcode": "7993135",
    "prefectureCode": "38",
    "prefectureNumber": 38,
    "prefecture": "愛媛県",
    "city": "伊予市",
    "town": "両沢"
  },
  "7993136": {
    "zipcode": "7993136",
    "prefectureCode": "38",
    "prefectureNumber": 38,
    "prefecture": "愛媛県",
    "city": "伊予市",
    "town": "鵜崎"
  },
  "7993201": {
    "zipcode": "7993201",
    "prefectureCode": "38",
    "prefectureNumber": 38,
    "prefecture": "愛媛県",
    "city": "伊予市",
    "town": "双海町高野川"
  },
  "7993202": {
    "zipcode": "7993202",
    "prefectureCode": "38",
    "prefectureNumber": 38,
    "prefecture": "愛媛県",
    "city": "伊予市",
    "town": "双海町上灘"
  },
  "7993207": {
    "zipcode": "7993207",
    "prefectureCode": "38",
    "prefectureNumber": 38,
    "prefecture": "愛媛県",
    "city": "伊予市",
    "town": "双海町高岸"
  },
  "7993311": {
    "zipcode": "7993311",
    "prefectureCode": "38",
    "prefectureNumber": 38,
    "prefecture": "愛媛県",
    "city": "伊予市",
    "town": "双海町大久保"
  },
  "7993312": {
    "zipcode": "7993312",
    "prefectureCode": "38",
    "prefectureNumber": 38,
    "prefecture": "愛媛県",
    "city": "伊予市",
    "town": "双海町串（その他）"
  },
  "7993313": {
    "zipcode": "7993313",
    "prefectureCode": "38",
    "prefectureNumber": 38,
    "prefecture": "愛媛県",
    "city": "伊予市",
    "town": "双海町串（上浜）"
  },
  "7993314": {
    "zipcode": "7993314",
    "prefectureCode": "38",
    "prefectureNumber": 38,
    "prefecture": "愛媛県",
    "city": "伊予市",
    "town": "双海町串（下浜）"
  },
  "7993401": {
    "zipcode": "7993401",
    "prefectureCode": "38",
    "prefectureNumber": 38,
    "prefecture": "愛媛県",
    "city": "大洲市",
    "town": "長浜甲"
  },
  "7993402": {
    "zipcode": "7993402",
    "prefectureCode": "38",
    "prefectureNumber": 38,
    "prefecture": "愛媛県",
    "city": "大洲市",
    "town": "長浜乙"
  },
  "7993403": {
    "zipcode": "7993403",
    "prefectureCode": "38",
    "prefectureNumber": 38,
    "prefecture": "愛媛県",
    "city": "大洲市",
    "town": "長浜町仁久甲"
  },
  "7993404": {
    "zipcode": "7993404",
    "prefectureCode": "38",
    "prefectureNumber": 38,
    "prefecture": "愛媛県",
    "city": "大洲市",
    "town": "長浜町沖浦甲"
  },
  "7993405": {
    "zipcode": "7993405",
    "prefectureCode": "38",
    "prefectureNumber": 38,
    "prefecture": "愛媛県",
    "city": "大洲市",
    "town": "長浜町沖浦乙"
  },
  "7993406": {
    "zipcode": "7993406",
    "prefectureCode": "38",
    "prefectureNumber": 38,
    "prefecture": "愛媛県",
    "city": "大洲市",
    "town": "長浜町沖浦丙"
  },
  "7993407": {
    "zipcode": "7993407",
    "prefectureCode": "38",
    "prefectureNumber": 38,
    "prefecture": "愛媛県",
    "city": "大洲市",
    "town": "長浜町黒田甲"
  },
  "7993411": {
    "zipcode": "7993411",
    "prefectureCode": "38",
    "prefectureNumber": 38,
    "prefecture": "愛媛県",
    "city": "大洲市",
    "town": "長浜町今坊甲"
  },
  "7993412": {
    "zipcode": "7993412",
    "prefectureCode": "38",
    "prefectureNumber": 38,
    "prefecture": "愛媛県",
    "city": "大洲市",
    "town": "長浜町晴海"
  },
  "7993413": {
    "zipcode": "7993413",
    "prefectureCode": "38",
    "prefectureNumber": 38,
    "prefecture": "愛媛県",
    "city": "大洲市",
    "town": "長浜町拓海"
  },
  "7993421": {
    "zipcode": "7993421",
    "prefectureCode": "38",
    "prefectureNumber": 38,
    "prefecture": "愛媛県",
    "city": "大洲市",
    "town": "戒川甲"
  },
  "7993422": {
    "zipcode": "7993422",
    "prefectureCode": "38",
    "prefectureNumber": 38,
    "prefecture": "愛媛県",
    "city": "大洲市",
    "town": "長浜町大越甲"
  },
  "7993431": {
    "zipcode": "7993431",
    "prefectureCode": "38",
    "prefectureNumber": 38,
    "prefecture": "愛媛県",
    "city": "大洲市",
    "town": "白滝甲"
  },
  "7993432": {
    "zipcode": "7993432",
    "prefectureCode": "38",
    "prefectureNumber": 38,
    "prefecture": "愛媛県",
    "city": "大洲市",
    "town": "柴甲"
  },
  "7993433": {
    "zipcode": "7993433",
    "prefectureCode": "38",
    "prefectureNumber": 38,
    "prefecture": "愛媛県",
    "city": "大洲市",
    "town": "柴乙"
  },
  "7993441": {
    "zipcode": "7993441",
    "prefectureCode": "38",
    "prefectureNumber": 38,
    "prefecture": "愛媛県",
    "city": "大洲市",
    "town": "長浜町下須戒甲"
  },
  "7993442": {
    "zipcode": "7993442",
    "prefectureCode": "38",
    "prefectureNumber": 38,
    "prefecture": "愛媛県",
    "city": "大洲市",
    "town": "長浜町穂積甲"
  },
  "7993443": {
    "zipcode": "7993443",
    "prefectureCode": "38",
    "prefectureNumber": 38,
    "prefecture": "愛媛県",
    "city": "大洲市",
    "town": "長浜町穂積乙"
  },
  "7993444": {
    "zipcode": "7993444",
    "prefectureCode": "38",
    "prefectureNumber": 38,
    "prefecture": "愛媛県",
    "city": "大洲市",
    "town": "長浜町上老松甲"
  },
  "7993451": {
    "zipcode": "7993451",
    "prefectureCode": "38",
    "prefectureNumber": 38,
    "prefecture": "愛媛県",
    "city": "大洲市",
    "town": "長浜町須沢丙"
  },
  "7993452": {
    "zipcode": "7993452",
    "prefectureCode": "38",
    "prefectureNumber": 38,
    "prefecture": "愛媛県",
    "city": "大洲市",
    "town": "長浜町櫛生甲"
  },
  "7993453": {
    "zipcode": "7993453",
    "prefectureCode": "38",
    "prefectureNumber": 38,
    "prefecture": "愛媛県",
    "city": "大洲市",
    "town": "長浜町櫛生乙"
  },
  "7993454": {
    "zipcode": "7993454",
    "prefectureCode": "38",
    "prefectureNumber": 38,
    "prefecture": "愛媛県",
    "city": "大洲市",
    "town": "長浜町櫛生丙"
  },
  "7993455": {
    "zipcode": "7993455",
    "prefectureCode": "38",
    "prefectureNumber": 38,
    "prefecture": "愛媛県",
    "city": "大洲市",
    "town": "長浜町出海甲"
  },
  "7993456": {
    "zipcode": "7993456",
    "prefectureCode": "38",
    "prefectureNumber": 38,
    "prefecture": "愛媛県",
    "city": "大洲市",
    "town": "長浜町出海乙"
  },
  "7993461": {
    "zipcode": "7993461",
    "prefectureCode": "38",
    "prefectureNumber": 38,
    "prefecture": "愛媛県",
    "city": "大洲市",
    "town": "豊茂甲"
  },
  "7993462": {
    "zipcode": "7993462",
    "prefectureCode": "38",
    "prefectureNumber": 38,
    "prefecture": "愛媛県",
    "city": "大洲市",
    "town": "豊茂乙"
  },
  "7993463": {
    "zipcode": "7993463",
    "prefectureCode": "38",
    "prefectureNumber": 38,
    "prefecture": "愛媛県",
    "city": "大洲市",
    "town": "豊茂丙"
  },
  "7993464": {
    "zipcode": "7993464",
    "prefectureCode": "38",
    "prefectureNumber": 38,
    "prefecture": "愛媛県",
    "city": "大洲市",
    "town": "豊茂丁"
  },
  "7993470": {
    "zipcode": "7993470",
    "prefectureCode": "38",
    "prefectureNumber": 38,
    "prefecture": "愛媛県",
    "city": "大洲市",
    "town": "長浜町青島"
  },
  "7993701": {
    "zipcode": "7993701",
    "prefectureCode": "38",
    "prefectureNumber": 38,
    "prefecture": "愛媛県",
    "city": "宇和島市",
    "town": "吉田町北小路"
  },
  "7993702": {
    "zipcode": "7993702",
    "prefectureCode": "38",
    "prefectureNumber": 38,
    "prefecture": "愛媛県",
    "city": "宇和島市",
    "town": "吉田町西小路"
  },
  "7993703": {
    "zipcode": "7993703",
    "prefectureCode": "38",
    "prefectureNumber": 38,
    "prefecture": "愛媛県",
    "city": "宇和島市",
    "town": "吉田町東小路"
  },
  "7993704": {
    "zipcode": "7993704",
    "prefectureCode": "38",
    "prefectureNumber": 38,
    "prefecture": "愛媛県",
    "city": "宇和島市",
    "town": "吉田町魚棚"
  },
  "7993705": {
    "zipcode": "7993705",
    "prefectureCode": "38",
    "prefectureNumber": 38,
    "prefecture": "愛媛県",
    "city": "宇和島市",
    "town": "吉田町本町"
  },
  "7993706": {
    "zipcode": "7993706",
    "prefectureCode": "38",
    "prefectureNumber": 38,
    "prefecture": "愛媛県",
    "city": "宇和島市",
    "town": "吉田町裡町"
  },
  "7993707": {
    "zipcode": "7993707",
    "prefectureCode": "38",
    "prefectureNumber": 38,
    "prefecture": "愛媛県",
    "city": "宇和島市",
    "town": "吉田町鶴間（御殿内）"
  },
  "7993710": {
    "zipcode": "7993710",
    "prefectureCode": "38",
    "prefectureNumber": 38,
    "prefecture": "愛媛県",
    "city": "宇和島市",
    "town": "吉田町立間尻"
  },
  "7993720": {
    "zipcode": "7993720",
    "prefectureCode": "38",
    "prefectureNumber": 38,
    "prefecture": "愛媛県",
    "city": "宇和島市",
    "town": "吉田町知永"
  },
  "7993730": {
    "zipcode": "7993730",
    "prefectureCode": "38",
    "prefectureNumber": 38,
    "prefecture": "愛媛県",
    "city": "宇和島市",
    "town": "吉田町立間"
  },
  "7993741": {
    "zipcode": "7993741",
    "prefectureCode": "38",
    "prefectureNumber": 38,
    "prefecture": "愛媛県",
    "city": "宇和島市",
    "town": "吉田町白浦"
  },
  "7993742": {
    "zipcode": "7993742",
    "prefectureCode": "38",
    "prefectureNumber": 38,
    "prefecture": "愛媛県",
    "city": "宇和島市",
    "town": "吉田町法花津"
  },
  "7993743": {
    "zipcode": "7993743",
    "prefectureCode": "38",
    "prefectureNumber": 38,
    "prefecture": "愛媛県",
    "city": "宇和島市",
    "town": "吉田町深浦"
  },
  "7993751": {
    "zipcode": "7993751",
    "prefectureCode": "38",
    "prefectureNumber": 38,
    "prefecture": "愛媛県",
    "city": "宇和島市",
    "town": "吉田町沖村"
  },
  "7993752": {
    "zipcode": "7993752",
    "prefectureCode": "38",
    "prefectureNumber": 38,
    "prefecture": "愛媛県",
    "city": "宇和島市",
    "town": "吉田町河内"
  },
  "7993761": {
    "zipcode": "7993761",
    "prefectureCode": "38",
    "prefectureNumber": 38,
    "prefecture": "愛媛県",
    "city": "宇和島市",
    "town": "吉田町鶴間（その他）"
  },
  "7993762": {
    "zipcode": "7993762",
    "prefectureCode": "38",
    "prefectureNumber": 38,
    "prefecture": "愛媛県",
    "city": "宇和島市",
    "town": "吉田町鶴間（鶴間団地）"
  },
  "7993763": {
    "zipcode": "7993763",
    "prefectureCode": "38",
    "prefectureNumber": 38,
    "prefecture": "愛媛県",
    "city": "宇和島市",
    "town": "吉田町浅川"
  },
  "7993771": {
    "zipcode": "7993771",
    "prefectureCode": "38",
    "prefectureNumber": 38,
    "prefecture": "愛媛県",
    "city": "宇和島市",
    "town": "吉田町南君"
  },
  "7993772": {
    "zipcode": "7993772",
    "prefectureCode": "38",
    "prefectureNumber": 38,
    "prefecture": "愛媛県",
    "city": "宇和島市",
    "town": "吉田町奥浦"
  }
}
