{
  "8010801": {
    "zipcode": "8010801",
    "prefectureCode": "40",
    "prefectureNumber": 40,
    "prefecture": "福岡県",
    "city": "北九州市門司区",
    "town": "風師（１〜３丁目）"
  },
  "8010802": {
    "zipcode": "8010802",
    "prefectureCode": "40",
    "prefectureNumber": 40,
    "prefecture": "福岡県",
    "city": "北九州市門司区",
    "town": "白野江"
  },
  "8010803": {
    "zipcode": "8010803",
    "prefectureCode": "40",
    "prefectureNumber": 40,
    "prefecture": "福岡県",
    "city": "北九州市門司区",
    "town": "田野浦"
  },
  "8010804": {
    "zipcode": "8010804",
    "prefectureCode": "40",
    "prefectureNumber": 40,
    "prefecture": "福岡県",
    "city": "北九州市門司区",
    "town": "田野浦海岸"
  },
  "8010805": {
    "zipcode": "8010805",
    "prefectureCode": "40",
    "prefectureNumber": 40,
    "prefecture": "福岡県",
    "city": "北九州市門司区",
    "town": "太刀浦海岸"
  },
  "8010808": {
    "zipcode": "8010808",
    "prefectureCode": "40",
    "prefectureNumber": 40,
    "prefecture": "福岡県",
    "city": "北九州市門司区",
    "town": "葛葉（１丁目）"
  },
  "8010811": {
    "zipcode": "8010811",
    "prefectureCode": "40",
    "prefectureNumber": 40,
    "prefecture": "福岡県",
    "city": "北九州市門司区",
    "town": "大積"
  },
  "8010812": {
    "zipcode": "8010812",
    "prefectureCode": "40",
    "prefectureNumber": 40,
    "prefecture": "福岡県",
    "city": "北九州市門司区",
    "town": "喜多久"
  },
  "8010813": {
    "zipcode": "8010813",
    "prefectureCode": "40",
    "prefectureNumber": 40,
    "prefecture": "福岡県",
    "city": "北九州市門司区",
    "town": "柄杓田"
  },
  "8010814": {
    "zipcode": "8010814",
    "prefectureCode": "40",
    "prefectureNumber": 40,
    "prefecture": "福岡県",
    "city": "北九州市門司区",
    "town": "柄杓田町"
  },
  "8010821": {
    "zipcode": "8010821",
    "prefectureCode": "40",
    "prefectureNumber": 40,
    "prefecture": "福岡県",
    "city": "北九州市門司区",
    "town": "黒川"
  },
  "8010822": {
    "zipcode": "8010822",
    "prefectureCode": "40",
    "prefectureNumber": 40,
    "prefecture": "福岡県",
    "city": "北九州市門司区",
    "town": "高砂町"
  },
  "8010823": {
    "zipcode": "8010823",
    "prefectureCode": "40",
    "prefectureNumber": 40,
    "prefecture": "福岡県",
    "city": "北九州市門司区",
    "town": "春日町"
  },
  "8010824": {
    "zipcode": "8010824",
    "prefectureCode": "40",
    "prefectureNumber": 40,
    "prefecture": "福岡県",
    "city": "北九州市門司区",
    "town": "丸山吉野町"
  },
  "8010825": {
    "zipcode": "8010825",
    "prefectureCode": "40",
    "prefectureNumber": 40,
    "prefecture": "福岡県",
    "city": "北九州市門司区",
    "town": "黒川西"
  },
  "8010826": {
    "zipcode": "8010826",
    "prefectureCode": "40",
    "prefectureNumber": 40,
    "prefecture": "福岡県",
    "city": "北九州市門司区",
    "town": "黒川東"
  },
  "8010831": {
    "zipcode": "8010831",
    "prefectureCode": "40",
    "prefectureNumber": 40,
    "prefecture": "福岡県",
    "city": "北九州市門司区",
    "town": "丸山"
  },
  "8010832": {
    "zipcode": "8010832",
    "prefectureCode": "40",
    "prefectureNumber": 40,
    "prefecture": "福岡県",
    "city": "北九州市門司区",
    "town": "元清滝"
  },
  "8010833": {
    "zipcode": "8010833",
    "prefectureCode": "40",
    "prefectureNumber": 40,
    "prefecture": "福岡県",
    "city": "北九州市門司区",
    "town": "清滝"
  },
  "8010834": {
    "zipcode": "8010834",
    "prefectureCode": "40",
    "prefectureNumber": 40,
    "prefecture": "福岡県",
    "city": "北九州市門司区",
    "town": "本町"
  },
  "8010841": {
    "zipcode": "8010841",
    "prefectureCode": "40",
    "prefectureNumber": 40,
    "prefecture": "福岡県",
    "city": "北九州市門司区",
    "town": "西海岸"
  },
  "8010842": {
    "zipcode": "8010842",
    "prefectureCode": "40",
    "prefectureNumber": 40,
    "prefecture": "福岡県",
    "city": "北九州市門司区",
    "town": "広石"
  },
  "8010851": {
    "zipcode": "8010851",
    "prefectureCode": "40",
    "prefectureNumber": 40,
    "prefecture": "福岡県",
    "city": "北九州市門司区",
    "town": "東本町"
  },
  "8010852": {
    "zipcode": "8010852",
    "prefectureCode": "40",
    "prefectureNumber": 40,
    "prefecture": "福岡県",
    "city": "北九州市門司区",
    "town": "港町"
  },
  "8010853": {
    "zipcode": "8010853",
    "prefectureCode": "40",
    "prefectureNumber": 40,
    "prefecture": "福岡県",
    "city": "北九州市門司区",
    "town": "東港町"
  },
  "8010854": {
    "zipcode": "8010854",
    "prefectureCode": "40",
    "prefectureNumber": 40,
    "prefecture": "福岡県",
    "city": "北九州市門司区",
    "town": "旧門司"
  },
  "8010855": {
    "zipcode": "8010855",
    "prefectureCode": "40",
    "prefectureNumber": 40,
    "prefecture": "福岡県",
    "city": "北九州市門司区",
    "town": "門司"
  },
  "8010856": {
    "zipcode": "8010856",
    "prefectureCode": "40",
    "prefectureNumber": 40,
    "prefecture": "福岡県",
    "city": "北九州市門司区",
    "town": "浜町"
  },
  "8010861": {
    "zipcode": "8010861",
    "prefectureCode": "40",
    "prefectureNumber": 40,
    "prefecture": "福岡県",
    "city": "北九州市門司区",
    "town": "長谷"
  },
  "8010862": {
    "zipcode": "8010862",
    "prefectureCode": "40",
    "prefectureNumber": 40,
    "prefecture": "福岡県",
    "city": "北九州市門司区",
    "town": "錦町"
  },
  "8010863": {
    "zipcode": "8010863",
    "prefectureCode": "40",
    "prefectureNumber": 40,
    "prefecture": "福岡県",
    "city": "北九州市門司区",
    "town": "栄町"
  },
  "8010864": {
    "zipcode": "8010864",
    "prefectureCode": "40",
    "prefectureNumber": 40,
    "prefecture": "福岡県",
    "city": "北九州市門司区",
    "town": "老松町"
  },
  "8010865": {
    "zipcode": "8010865",
    "prefectureCode": "40",
    "prefectureNumber": 40,
    "prefecture": "福岡県",
    "city": "北九州市門司区",
    "town": "庄司町"
  },
  "8010871": {
    "zipcode": "8010871",
    "prefectureCode": "40",
    "prefectureNumber": 40,
    "prefecture": "福岡県",
    "city": "北九州市門司区",
    "town": "上本町"
  },
  "8010872": {
    "zipcode": "8010872",
    "prefectureCode": "40",
    "prefectureNumber": 40,
    "prefecture": "福岡県",
    "city": "北九州市門司区",
    "town": "谷町"
  },
  "8010873": {
    "zipcode": "8010873",
    "prefectureCode": "40",
    "prefectureNumber": 40,
    "prefecture": "福岡県",
    "city": "北九州市門司区",
    "town": "東門司"
  },
  "8010874": {
    "zipcode": "8010874",
    "prefectureCode": "40",
    "prefectureNumber": 40,
    "prefecture": "福岡県",
    "city": "北九州市門司区",
    "town": "畑田町"
  },
  "8010875": {
    "zipcode": "8010875",
    "prefectureCode": "40",
    "prefectureNumber": 40,
    "prefecture": "福岡県",
    "city": "北九州市門司区",
    "town": "法師庵"
  },
  "8010876": {
    "zipcode": "8010876",
    "prefectureCode": "40",
    "prefectureNumber": 40,
    "prefecture": "福岡県",
    "city": "北九州市門司区",
    "town": "花月園"
  },
  "8010881": {
    "zipcode": "8010881",
    "prefectureCode": "40",
    "prefectureNumber": 40,
    "prefecture": "福岡県",
    "city": "北九州市門司区",
    "town": "鳴竹"
  },
  "8010882": {
    "zipcode": "8010882",
    "prefectureCode": "40",
    "prefectureNumber": 40,
    "prefecture": "福岡県",
    "city": "北九州市門司区",
    "town": "清見"
  },
  "8010883": {
    "zipcode": "8010883",
    "prefectureCode": "40",
    "prefectureNumber": 40,
    "prefecture": "福岡県",
    "city": "北九州市門司区",
    "town": "大久保"
  },
  "8010884": {
    "zipcode": "8010884",
    "prefectureCode": "40",
    "prefectureNumber": 40,
    "prefecture": "福岡県",
    "city": "北九州市門司区",
    "town": "瀬戸町"
  },
  "8010885": {
    "zipcode": "8010885",
    "prefectureCode": "40",
    "prefectureNumber": 40,
    "prefecture": "福岡県",
    "city": "北九州市門司区",
    "town": "新開"
  },
  "8010886": {
    "zipcode": "8010886",
    "prefectureCode": "40",
    "prefectureNumber": 40,
    "prefecture": "福岡県",
    "city": "北九州市門司区",
    "town": "清見佐夜町"
  }
}
