{
  "8040000": {
    "zipcode": "8040000",
    "prefectureCode": "40",
    "prefectureNumber": 40,
    "prefecture": "福岡県",
    "city": "北九州市戸畑区",
    "town": "以下に掲載がない場合"
  },
  "8040001": {
    "zipcode": "8040001",
    "prefectureCode": "40",
    "prefectureNumber": 40,
    "prefecture": "福岡県",
    "city": "北九州市戸畑区",
    "town": "飛幡町"
  },
  "8040002": {
    "zipcode": "8040002",
    "prefectureCode": "40",
    "prefectureNumber": 40,
    "prefecture": "福岡県",
    "city": "北九州市戸畑区",
    "town": "中原（先の浜）"
  },
  "8040003": {
    "zipcode": "8040003",
    "prefectureCode": "40",
    "prefectureNumber": 40,
    "prefecture": "福岡県",
    "city": "北九州市戸畑区",
    "town": "中原新町"
  },
  "8040004": {
    "zipcode": "8040004",
    "prefectureCode": "40",
    "prefectureNumber": 40,
    "prefecture": "福岡県",
    "city": "北九州市戸畑区",
    "town": "戸畑"
  },
  "8040011": {
    "zipcode": "8040011",
    "prefectureCode": "40",
    "prefectureNumber": 40,
    "prefecture": "福岡県",
    "city": "北九州市戸畑区",
    "town": "中原西"
  },
  "8040012": {
    "zipcode": "8040012",
    "prefectureCode": "40",
    "prefectureNumber": 40,
    "prefecture": "福岡県",
    "city": "北九州市戸畑区",
    "town": "中原東"
  },
  "8040013": {
    "zipcode": "8040013",
    "prefectureCode": "40",
    "prefectureNumber": 40,
    "prefecture": "福岡県",
    "city": "北九州市戸畑区",
    "town": "境川"
  },
  "8040014": {
    "zipcode": "8040014",
    "prefectureCode": "40",
    "prefectureNumber": 40,
    "prefecture": "福岡県",
    "city": "北九州市戸畑区",
    "town": "土取町"
  },
  "8040015": {
    "zipcode": "8040015",
    "prefectureCode": "40",
    "prefectureNumber": 40,
    "prefecture": "福岡県",
    "city": "北九州市戸畑区",
    "town": "仙水町"
  },
  "8040021": {
    "zipcode": "8040021",
    "prefectureCode": "40",
    "prefectureNumber": 40,
    "prefecture": "福岡県",
    "city": "北九州市戸畑区",
    "town": "一枝"
  },
  "8040022": {
    "zipcode": "8040022",
    "prefectureCode": "40",
    "prefectureNumber": 40,
    "prefecture": "福岡県",
    "city": "北九州市戸畑区",
    "town": "金比羅町"
  },
  "8040023": {
    "zipcode": "8040023",
    "prefectureCode": "40",
    "prefectureNumber": 40,
    "prefecture": "福岡県",
    "city": "北九州市戸畑区",
    "town": "東鞘ケ谷町"
  },
  "8040024": {
    "zipcode": "8040024",
    "prefectureCode": "40",
    "prefectureNumber": 40,
    "prefecture": "福岡県",
    "city": "北九州市戸畑区",
    "town": "西鞘ケ谷町"
  },
  "8040025": {
    "zipcode": "8040025",
    "prefectureCode": "40",
    "prefectureNumber": 40,
    "prefecture": "福岡県",
    "city": "北九州市戸畑区",
    "town": "福柳木"
  },
  "8040031": {
    "zipcode": "8040031",
    "prefectureCode": "40",
    "prefectureNumber": 40,
    "prefecture": "福岡県",
    "city": "北九州市戸畑区",
    "town": "東大谷"
  },
  "8040032": {
    "zipcode": "8040032",
    "prefectureCode": "40",
    "prefectureNumber": 40,
    "prefecture": "福岡県",
    "city": "北九州市戸畑区",
    "town": "西大谷"
  },
  "8040033": {
    "zipcode": "8040033",
    "prefectureCode": "40",
    "prefectureNumber": 40,
    "prefecture": "福岡県",
    "city": "北九州市戸畑区",
    "town": "椎ノ木町"
  },
  "8040041": {
    "zipcode": "8040041",
    "prefectureCode": "40",
    "prefectureNumber": 40,
    "prefecture": "福岡県",
    "city": "北九州市戸畑区",
    "town": "天籟寺"
  },
  "8040042": {
    "zipcode": "8040042",
    "prefectureCode": "40",
    "prefectureNumber": 40,
    "prefecture": "福岡県",
    "city": "北九州市戸畑区",
    "town": "夜宮"
  },
  "8040043": {
    "zipcode": "8040043",
    "prefectureCode": "40",
    "prefectureNumber": 40,
    "prefecture": "福岡県",
    "city": "北九州市戸畑区",
    "town": "観音寺町"
  },
  "8040044": {
    "zipcode": "8040044",
    "prefectureCode": "40",
    "prefectureNumber": 40,
    "prefecture": "福岡県",
    "city": "北九州市戸畑区",
    "town": "菅原"
  },
  "8040051": {
    "zipcode": "8040051",
    "prefectureCode": "40",
    "prefectureNumber": 40,
    "prefecture": "福岡県",
    "city": "北九州市戸畑区",
    "town": "高峰"
  },
  "8040052": {
    "zipcode": "8040052",
    "prefectureCode": "40",
    "prefectureNumber": 40,
    "prefecture": "福岡県",
    "city": "北九州市戸畑区",
    "town": "丸町"
  },
  "8040053": {
    "zipcode": "8040053",
    "prefectureCode": "40",
    "prefectureNumber": 40,
    "prefecture": "福岡県",
    "city": "北九州市戸畑区",
    "town": "牧山"
  },
  "8040054": {
    "zipcode": "8040054",
    "prefectureCode": "40",
    "prefectureNumber": 40,
    "prefecture": "福岡県",
    "city": "北九州市戸畑区",
    "town": "牧山新町"
  },
  "8040061": {
    "zipcode": "8040061",
    "prefectureCode": "40",
    "prefectureNumber": 40,
    "prefecture": "福岡県",
    "city": "北九州市戸畑区",
    "town": "中本町"
  },
  "8040062": {
    "zipcode": "8040062",
    "prefectureCode": "40",
    "prefectureNumber": 40,
    "prefecture": "福岡県",
    "city": "北九州市戸畑区",
    "town": "浅生"
  },
  "8040063": {
    "zipcode": "8040063",
    "prefectureCode": "40",
    "prefectureNumber": 40,
    "prefecture": "福岡県",
    "city": "北九州市戸畑区",
    "town": "正津町"
  },
  "8040064": {
    "zipcode": "8040064",
    "prefectureCode": "40",
    "prefectureNumber": 40,
    "prefecture": "福岡県",
    "city": "北九州市戸畑区",
    "town": "沖台"
  },
  "8040065": {
    "zipcode": "8040065",
    "prefectureCode": "40",
    "prefectureNumber": 40,
    "prefecture": "福岡県",
    "city": "北九州市戸畑区",
    "town": "新川町"
  },
  "8040066": {
    "zipcode": "8040066",
    "prefectureCode": "40",
    "prefectureNumber": 40,
    "prefecture": "福岡県",
    "city": "北九州市戸畑区",
    "town": "初音町"
  },
  "8040067": {
    "zipcode": "8040067",
    "prefectureCode": "40",
    "prefectureNumber": 40,
    "prefecture": "福岡県",
    "city": "北九州市戸畑区",
    "town": "汐井町"
  },
  "8040071": {
    "zipcode": "8040071",
    "prefectureCode": "40",
    "prefectureNumber": 40,
    "prefecture": "福岡県",
    "city": "北九州市戸畑区",
    "town": "川代"
  },
  "8040072": {
    "zipcode": "8040072",
    "prefectureCode": "40",
    "prefectureNumber": 40,
    "prefecture": "福岡県",
    "city": "北九州市戸畑区",
    "town": "元宮町"
  },
  "8040073": {
    "zipcode": "8040073",
    "prefectureCode": "40",
    "prefectureNumber": 40,
    "prefecture": "福岡県",
    "city": "北九州市戸畑区",
    "town": "明治町"
  },
  "8040074": {
    "zipcode": "8040074",
    "prefectureCode": "40",
    "prefectureNumber": 40,
    "prefecture": "福岡県",
    "city": "北九州市戸畑区",
    "town": "南鳥旗町"
  },
  "8040075": {
    "zipcode": "8040075",
    "prefectureCode": "40",
    "prefectureNumber": 40,
    "prefecture": "福岡県",
    "city": "北九州市戸畑区",
    "town": "北鳥旗町"
  },
  "8040076": {
    "zipcode": "8040076",
    "prefectureCode": "40",
    "prefectureNumber": 40,
    "prefecture": "福岡県",
    "city": "北九州市戸畑区",
    "town": "銀座"
  },
  "8040077": {
    "zipcode": "8040077",
    "prefectureCode": "40",
    "prefectureNumber": 40,
    "prefecture": "福岡県",
    "city": "北九州市戸畑区",
    "town": "牧山海岸"
  },
  "8040081": {
    "zipcode": "8040081",
    "prefectureCode": "40",
    "prefectureNumber": 40,
    "prefecture": "福岡県",
    "city": "北九州市戸畑区",
    "town": "千防"
  },
  "8040082": {
    "zipcode": "8040082",
    "prefectureCode": "40",
    "prefectureNumber": 40,
    "prefecture": "福岡県",
    "city": "北九州市戸畑区",
    "town": "新池"
  },
  "8040083": {
    "zipcode": "8040083",
    "prefectureCode": "40",
    "prefectureNumber": 40,
    "prefecture": "福岡県",
    "city": "北九州市戸畑区",
    "town": "旭町"
  },
  "8040084": {
    "zipcode": "8040084",
    "prefectureCode": "40",
    "prefectureNumber": 40,
    "prefecture": "福岡県",
    "city": "北九州市戸畑区",
    "town": "幸町"
  },
  "8040091": {
    "zipcode": "8040091",
    "prefectureCode": "40",
    "prefectureNumber": 40,
    "prefecture": "福岡県",
    "city": "北九州市戸畑区",
    "town": "三六町"
  },
  "8040092": {
    "zipcode": "8040092",
    "prefectureCode": "40",
    "prefectureNumber": 40,
    "prefecture": "福岡県",
    "city": "北九州市戸畑区",
    "town": "小芝"
  },
  "8040093": {
    "zipcode": "8040093",
    "prefectureCode": "40",
    "prefectureNumber": 40,
    "prefecture": "福岡県",
    "city": "北九州市戸畑区",
    "town": "沢見"
  },
  "8040094": {
    "zipcode": "8040094",
    "prefectureCode": "40",
    "prefectureNumber": 40,
    "prefecture": "福岡県",
    "city": "北九州市戸畑区",
    "town": "天神"
  }
}
