{
  "8050000": {
    "zipcode": "8050000",
    "prefectureCode": "40",
    "prefectureNumber": 40,
    "prefecture": "福岡県",
    "city": "北九州市八幡東区",
    "town": "以下に掲載がない場合"
  },
  "8050001": {
    "zipcode": "8050001",
    "prefectureCode": "40",
    "prefectureNumber": 40,
    "prefecture": "福岡県",
    "city": "北九州市八幡東区",
    "town": "荒手"
  },
  "8050002": {
    "zipcode": "8050002",
    "prefectureCode": "40",
    "prefectureNumber": 40,
    "prefecture": "福岡県",
    "city": "北九州市八幡東区",
    "town": "枝光"
  },
  "8050003": {
    "zipcode": "8050003",
    "prefectureCode": "40",
    "prefectureNumber": 40,
    "prefecture": "福岡県",
    "city": "北九州市八幡東区",
    "town": "大宮町"
  },
  "8050004": {
    "zipcode": "8050004",
    "prefectureCode": "40",
    "prefectureNumber": 40,
    "prefecture": "福岡県",
    "city": "北九州市八幡東区",
    "town": "日の出"
  },
  "8050005": {
    "zipcode": "8050005",
    "prefectureCode": "40",
    "prefectureNumber": 40,
    "prefecture": "福岡県",
    "city": "北九州市八幡東区",
    "town": "藤見町"
  },
  "8050006": {
    "zipcode": "8050006",
    "prefectureCode": "40",
    "prefectureNumber": 40,
    "prefecture": "福岡県",
    "city": "北九州市八幡東区",
    "town": "諏訪"
  },
  "8050007": {
    "zipcode": "8050007",
    "prefectureCode": "40",
    "prefectureNumber": 40,
    "prefecture": "福岡県",
    "city": "北九州市八幡東区",
    "town": "白川町"
  },
  "8050008": {
    "zipcode": "8050008",
    "prefectureCode": "40",
    "prefectureNumber": 40,
    "prefecture": "福岡県",
    "city": "北九州市八幡東区",
    "town": "枝光本町"
  },
  "8050009": {
    "zipcode": "8050009",
    "prefectureCode": "40",
    "prefectureNumber": 40,
    "prefecture": "福岡県",
    "city": "北九州市八幡東区",
    "town": "宮田町"
  },
  "8050011": {
    "zipcode": "8050011",
    "prefectureCode": "40",
    "prefectureNumber": 40,
    "prefecture": "福岡県",
    "city": "北九州市八幡東区",
    "town": "八王寺町"
  },
  "8050012": {
    "zipcode": "8050012",
    "prefectureCode": "40",
    "prefectureNumber": 40,
    "prefecture": "福岡県",
    "city": "北九州市八幡東区",
    "town": "川淵町"
  },
  "8050013": {
    "zipcode": "8050013",
    "prefectureCode": "40",
    "prefectureNumber": 40,
    "prefecture": "福岡県",
    "city": "北九州市八幡東区",
    "town": "昭和"
  },
  "8050014": {
    "zipcode": "8050014",
    "prefectureCode": "40",
    "prefectureNumber": 40,
    "prefecture": "福岡県",
    "city": "北九州市八幡東区",
    "town": "茶屋町"
  },
  "8050015": {
    "zipcode": "8050015",
    "prefectureCode": "40",
    "prefectureNumber": 40,
    "prefecture": "福岡県",
    "city": "北九州市八幡東区",
    "town": "荒生田"
  },
  "8050016": {
    "zipcode": "8050016",
    "prefectureCode": "40",
    "prefectureNumber": 40,
    "prefecture": "福岡県",
    "city": "北九州市八幡東区",
    "town": "高見"
  },
  "8050017": {
    "zipcode": "8050017",
    "prefectureCode": "40",
    "prefectureNumber": 40,
    "prefecture": "福岡県",
    "city": "北九州市八幡東区",
    "town": "山王"
  },
  "8050018": {
    "zipcode": "8050018",
    "prefectureCode": "40",
    "prefectureNumber": 40,
    "prefecture": "福岡県",
    "city": "北九州市八幡東区",
    "town": "上本町"
  },
  "8050019": {
    "zipcode": "8050019",
    "prefectureCode": "40",
    "prefectureNumber": 40,
    "prefecture": "福岡県",
    "city": "北九州市八幡東区",
    "town": "中央"
  },
  "8050021": {
    "zipcode": "8050021",
    "prefectureCode": "40",
    "prefectureNumber": 40,
    "prefecture": "福岡県",
    "city": "北九州市八幡東区",
    "town": "石坪町"
  },
  "8050022": {
    "zipcode": "8050022",
    "prefectureCode": "40",
    "prefectureNumber": 40,
    "prefecture": "福岡県",
    "city": "北九州市八幡東区",
    "town": "竹下町"
  },
  "8050023": {
    "zipcode": "8050023",
    "prefectureCode": "40",
    "prefectureNumber": 40,
    "prefecture": "福岡県",
    "city": "北九州市八幡東区",
    "town": "宮の町"
  },
  "8050024": {
    "zipcode": "8050024",
    "prefectureCode": "40",
    "prefectureNumber": 40,
    "prefecture": "福岡県",
    "city": "北九州市八幡東区",
    "town": "中畑"
  },
  "8050025": {
    "zipcode": "8050025",
    "prefectureCode": "40",
    "prefectureNumber": 40,
    "prefecture": "福岡県",
    "city": "北九州市八幡東区",
    "town": "中尾"
  },
  "8050026": {
    "zipcode": "8050026",
    "prefectureCode": "40",
    "prefectureNumber": 40,
    "prefecture": "福岡県",
    "city": "北九州市八幡東区",
    "town": "東山"
  },
  "8050027": {
    "zipcode": "8050027",
    "prefectureCode": "40",
    "prefectureNumber": 40,
    "prefecture": "福岡県",
    "city": "北九州市八幡東区",
    "town": "東鉄町"
  },
  "8050031": {
    "zipcode": "8050031",
    "prefectureCode": "40",
    "prefectureNumber": 40,
    "prefecture": "福岡県",
    "city": "北九州市八幡東区",
    "town": "槻田"
  },
  "8050032": {
    "zipcode": "8050032",
    "prefectureCode": "40",
    "prefectureNumber": 40,
    "prefecture": "福岡県",
    "city": "北九州市八幡東区",
    "town": "松尾町"
  },
  "8050033": {
    "zipcode": "8050033",
    "prefectureCode": "40",
    "prefectureNumber": 40,
    "prefecture": "福岡県",
    "city": "北九州市八幡東区",
    "town": "山路松尾町"
  },
  "8050034": {
    "zipcode": "8050034",
    "prefectureCode": "40",
    "prefectureNumber": 40,
    "prefecture": "福岡県",
    "city": "北九州市八幡東区",
    "town": "清田"
  },
  "8050035": {
    "zipcode": "8050035",
    "prefectureCode": "40",
    "prefectureNumber": 40,
    "prefecture": "福岡県",
    "city": "北九州市八幡東区",
    "town": "山路"
  },
  "8050036": {
    "zipcode": "8050036",
    "prefectureCode": "40",
    "prefectureNumber": 40,
    "prefecture": "福岡県",
    "city": "北九州市八幡東区",
    "town": "小熊野"
  },
  "8050037": {
    "zipcode": "8050037",
    "prefectureCode": "40",
    "prefectureNumber": 40,
    "prefecture": "福岡県",
    "city": "北九州市八幡東区",
    "town": "猪倉町"
  },
  "8050038": {
    "zipcode": "8050038",
    "prefectureCode": "40",
    "prefectureNumber": 40,
    "prefecture": "福岡県",
    "city": "北九州市八幡東区",
    "town": "大平町"
  },
  "8050041": {
    "zipcode": "8050041",
    "prefectureCode": "40",
    "prefectureNumber": 40,
    "prefecture": "福岡県",
    "city": "北九州市八幡東区",
    "town": "祝町"
  },
  "8050042": {
    "zipcode": "8050042",
    "prefectureCode": "40",
    "prefectureNumber": 40,
    "prefecture": "福岡県",
    "city": "北九州市八幡東区",
    "town": "羽衣町"
  },
  "8050043": {
    "zipcode": "8050043",
    "prefectureCode": "40",
    "prefectureNumber": 40,
    "prefecture": "福岡県",
    "city": "北九州市八幡東区",
    "town": "勝山"
  },
  "8050044": {
    "zipcode": "8050044",
    "prefectureCode": "40",
    "prefectureNumber": 40,
    "prefecture": "福岡県",
    "city": "北九州市八幡東区",
    "town": "豊町"
  },
  "8050045": {
    "zipcode": "8050045",
    "prefectureCode": "40",
    "prefectureNumber": 40,
    "prefecture": "福岡県",
    "city": "北九州市八幡東区",
    "town": "河内"
  },
  "8050046": {
    "zipcode": "8050046",
    "prefectureCode": "40",
    "prefectureNumber": 40,
    "prefecture": "福岡県",
    "city": "北九州市八幡東区",
    "town": "田代"
  },
  "8050047": {
    "zipcode": "8050047",
    "prefectureCode": "40",
    "prefectureNumber": 40,
    "prefecture": "福岡県",
    "city": "北九州市八幡東区",
    "town": "景勝町"
  },
  "8050048": {
    "zipcode": "8050048",
    "prefectureCode": "40",
    "prefectureNumber": 40,
    "prefecture": "福岡県",
    "city": "北九州市八幡東区",
    "town": "大蔵"
  },
  "8050049": {
    "zipcode": "8050049",
    "prefectureCode": "40",
    "prefectureNumber": 40,
    "prefecture": "福岡県",
    "city": "北九州市八幡東区",
    "town": "末広町"
  },
  "8050050": {
    "zipcode": "8050050",
    "prefectureCode": "40",
    "prefectureNumber": 40,
    "prefecture": "福岡県",
    "city": "北九州市八幡東区",
    "town": "春の町"
  },
  "8050051": {
    "zipcode": "8050051",
    "prefectureCode": "40",
    "prefectureNumber": 40,
    "prefecture": "福岡県",
    "city": "北九州市八幡東区",
    "town": "東丸山町"
  },
  "8050052": {
    "zipcode": "8050052",
    "prefectureCode": "40",
    "prefectureNumber": 40,
    "prefecture": "福岡県",
    "city": "北九州市八幡東区",
    "town": "西丸山町"
  },
  "8050053": {
    "zipcode": "8050053",
    "prefectureCode": "40",
    "prefectureNumber": 40,
    "prefecture": "福岡県",
    "city": "北九州市八幡東区",
    "town": "大谷"
  },
  "8050054": {
    "zipcode": "8050054",
    "prefectureCode": "40",
    "prefectureNumber": 40,
    "prefecture": "福岡県",
    "city": "北九州市八幡東区",
    "town": "天神町"
  },
  "8050055": {
    "zipcode": "8050055",
    "prefectureCode": "40",
    "prefectureNumber": 40,
    "prefecture": "福岡県",
    "city": "北九州市八幡東区",
    "town": "神山町"
  },
  "8050056": {
    "zipcode": "8050056",
    "prefectureCode": "40",
    "prefectureNumber": 40,
    "prefecture": "福岡県",
    "city": "北九州市八幡東区",
    "town": "帆柱"
  },
  "8050057": {
    "zipcode": "8050057",
    "prefectureCode": "40",
    "prefectureNumber": 40,
    "prefecture": "福岡県",
    "city": "北九州市八幡東区",
    "town": "尾倉（大字）"
  },
  "8050058": {
    "zipcode": "8050058",
    "prefectureCode": "40",
    "prefectureNumber": 40,
    "prefecture": "福岡県",
    "city": "北九州市八幡東区",
    "town": "前田（大字）"
  },
  "8050059": {
    "zipcode": "8050059",
    "prefectureCode": "40",
    "prefectureNumber": 40,
    "prefecture": "福岡県",
    "city": "北九州市八幡東区",
    "town": "尾倉（丁目）"
  },
  "8050061": {
    "zipcode": "8050061",
    "prefectureCode": "40",
    "prefectureNumber": 40,
    "prefecture": "福岡県",
    "city": "北九州市八幡東区",
    "town": "西本町"
  },
  "8050062": {
    "zipcode": "8050062",
    "prefectureCode": "40",
    "prefectureNumber": 40,
    "prefecture": "福岡県",
    "city": "北九州市八幡東区",
    "town": "平野"
  },
  "8050063": {
    "zipcode": "8050063",
    "prefectureCode": "40",
    "prefectureNumber": 40,
    "prefecture": "福岡県",
    "city": "北九州市八幡東区",
    "town": "東台良町"
  },
  "8050064": {
    "zipcode": "8050064",
    "prefectureCode": "40",
    "prefectureNumber": 40,
    "prefecture": "福岡県",
    "city": "北九州市八幡東区",
    "town": "西台良町"
  },
  "8050065": {
    "zipcode": "8050065",
    "prefectureCode": "40",
    "prefectureNumber": 40,
    "prefecture": "福岡県",
    "city": "北九州市八幡東区",
    "town": "花尾町"
  },
  "8050066": {
    "zipcode": "8050066",
    "prefectureCode": "40",
    "prefectureNumber": 40,
    "prefecture": "福岡県",
    "city": "北九州市八幡東区",
    "town": "祇園原町"
  },
  "8050067": {
    "zipcode": "8050067",
    "prefectureCode": "40",
    "prefectureNumber": 40,
    "prefecture": "福岡県",
    "city": "北九州市八幡東区",
    "town": "祇園"
  },
  "8050068": {
    "zipcode": "8050068",
    "prefectureCode": "40",
    "prefectureNumber": 40,
    "prefecture": "福岡県",
    "city": "北九州市八幡東区",
    "town": "桃園"
  },
  "8050069": {
    "zipcode": "8050069",
    "prefectureCode": "40",
    "prefectureNumber": 40,
    "prefecture": "福岡県",
    "city": "北九州市八幡東区",
    "town": "前田（丁目）"
  },
  "8050071": {
    "zipcode": "8050071",
    "prefectureCode": "40",
    "prefectureNumber": 40,
    "prefecture": "福岡県",
    "city": "北九州市八幡東区",
    "town": "東田"
  }
}
