{
  "8060000": {
    "zipcode": "8060000",
    "prefectureCode": "40",
    "prefectureNumber": 40,
    "prefecture": "福岡県",
    "city": "北九州市八幡西区",
    "town": "以下に掲載がない場合"
  },
  "8060001": {
    "zipcode": "8060001",
    "prefectureCode": "40",
    "prefectureNumber": 40,
    "prefecture": "福岡県",
    "city": "北九州市八幡西区",
    "town": "築地町"
  },
  "8060002": {
    "zipcode": "8060002",
    "prefectureCode": "40",
    "prefectureNumber": 40,
    "prefecture": "福岡県",
    "city": "北九州市八幡西区",
    "town": "東浜町"
  },
  "8060003": {
    "zipcode": "8060003",
    "prefectureCode": "40",
    "prefectureNumber": 40,
    "prefecture": "福岡県",
    "city": "北九州市八幡西区",
    "town": "田町"
  },
  "8060004": {
    "zipcode": "8060004",
    "prefectureCode": "40",
    "prefectureNumber": 40,
    "prefecture": "福岡県",
    "city": "北九州市八幡西区",
    "town": "黒崎城石"
  },
  "8060005": {
    "zipcode": "8060005",
    "prefectureCode": "40",
    "prefectureNumber": 40,
    "prefecture": "福岡県",
    "city": "北九州市八幡西区",
    "town": "舟町"
  },
  "8060006": {
    "zipcode": "8060006",
    "prefectureCode": "40",
    "prefectureNumber": 40,
    "prefecture": "福岡県",
    "city": "北九州市八幡西区",
    "town": "屋敷"
  },
  "8060011": {
    "zipcode": "8060011",
    "prefectureCode": "40",
    "prefectureNumber": 40,
    "prefecture": "福岡県",
    "city": "北九州市八幡西区",
    "town": "紅梅"
  },
  "8060012": {
    "zipcode": "8060012",
    "prefectureCode": "40",
    "prefectureNumber": 40,
    "prefecture": "福岡県",
    "city": "北九州市八幡西区",
    "town": "陣山"
  },
  "8060013": {
    "zipcode": "8060013",
    "prefectureCode": "40",
    "prefectureNumber": 40,
    "prefecture": "福岡県",
    "city": "北九州市八幡西区",
    "town": "清納"
  },
  "8060014": {
    "zipcode": "8060014",
    "prefectureCode": "40",
    "prefectureNumber": 40,
    "prefecture": "福岡県",
    "city": "北九州市八幡西区",
    "town": "東川頭町"
  },
  "8060015": {
    "zipcode": "8060015",
    "prefectureCode": "40",
    "prefectureNumber": 40,
    "prefecture": "福岡県",
    "city": "北九州市八幡西区",
    "town": "元城町"
  },
  "8060016": {
    "zipcode": "8060016",
    "prefectureCode": "40",
    "prefectureNumber": 40,
    "prefecture": "福岡県",
    "city": "北九州市八幡西区",
    "town": "河桃町"
  },
  "8060017": {
    "zipcode": "8060017",
    "prefectureCode": "40",
    "prefectureNumber": 40,
    "prefecture": "福岡県",
    "city": "北九州市八幡西区",
    "town": "西川頭町"
  },
  "8060018": {
    "zipcode": "8060018",
    "prefectureCode": "40",
    "prefectureNumber": 40,
    "prefecture": "福岡県",
    "city": "北九州市八幡西区",
    "town": "平尾町"
  },
  "8060021": {
    "zipcode": "8060021",
    "prefectureCode": "40",
    "prefectureNumber": 40,
    "prefecture": "福岡県",
    "city": "北九州市八幡西区",
    "town": "黒崎"
  },
  "8060022": {
    "zipcode": "8060022",
    "prefectureCode": "40",
    "prefectureNumber": 40,
    "prefecture": "福岡県",
    "city": "北九州市八幡西区",
    "town": "藤田"
  },
  "8060023": {
    "zipcode": "8060023",
    "prefectureCode": "40",
    "prefectureNumber": 40,
    "prefecture": "福岡県",
    "city": "北九州市八幡西区",
    "town": "八千代町"
  },
  "8060024": {
    "zipcode": "8060024",
    "prefectureCode": "40",
    "prefectureNumber": 40,
    "prefecture": "福岡県",
    "city": "北九州市八幡西区",
    "town": "南八千代町"
  },
  "8060025": {
    "zipcode": "8060025",
    "prefectureCode": "40",
    "prefectureNumber": 40,
    "prefecture": "福岡県",
    "city": "北九州市八幡西区",
    "town": "東神原町"
  },
  "8060026": {
    "zipcode": "8060026",
    "prefectureCode": "40",
    "prefectureNumber": 40,
    "prefecture": "福岡県",
    "city": "北九州市八幡西区",
    "town": "西神原町"
  },
  "8060027": {
    "zipcode": "8060027",
    "prefectureCode": "40",
    "prefectureNumber": 40,
    "prefecture": "福岡県",
    "city": "北九州市八幡西区",
    "town": "菅原町"
  },
  "8060028": {
    "zipcode": "8060028",
    "prefectureCode": "40",
    "prefectureNumber": 40,
    "prefecture": "福岡県",
    "city": "北九州市八幡西区",
    "town": "熊手"
  },
  "8060030": {
    "zipcode": "8060030",
    "prefectureCode": "40",
    "prefectureNumber": 40,
    "prefecture": "福岡県",
    "city": "北九州市八幡西区",
    "town": "山寺町"
  },
  "8060031": {
    "zipcode": "8060031",
    "prefectureCode": "40",
    "prefectureNumber": 40,
    "prefecture": "福岡県",
    "city": "北九州市八幡西区",
    "town": "熊西"
  },
  "8060032": {
    "zipcode": "8060032",
    "prefectureCode": "40",
    "prefectureNumber": 40,
    "prefecture": "福岡県",
    "city": "北九州市八幡西区",
    "town": "筒井町"
  },
  "8060033": {
    "zipcode": "8060033",
    "prefectureCode": "40",
    "prefectureNumber": 40,
    "prefecture": "福岡県",
    "city": "北九州市八幡西区",
    "town": "岡田町"
  },
  "8060034": {
    "zipcode": "8060034",
    "prefectureCode": "40",
    "prefectureNumber": 40,
    "prefecture": "福岡県",
    "city": "北九州市八幡西区",
    "town": "岸の浦"
  },
  "8060035": {
    "zipcode": "8060035",
    "prefectureCode": "40",
    "prefectureNumber": 40,
    "prefecture": "福岡県",
    "city": "北九州市八幡西区",
    "town": "東曲里町"
  },
  "8060036": {
    "zipcode": "8060036",
    "prefectureCode": "40",
    "prefectureNumber": 40,
    "prefecture": "福岡県",
    "city": "北九州市八幡西区",
    "town": "西曲里町"
  },
  "8060037": {
    "zipcode": "8060037",
    "prefectureCode": "40",
    "prefectureNumber": 40,
    "prefecture": "福岡県",
    "city": "北九州市八幡西区",
    "town": "東王子町"
  },
  "8060038": {
    "zipcode": "8060038",
    "prefectureCode": "40",
    "prefectureNumber": 40,
    "prefecture": "福岡県",
    "city": "北九州市八幡西区",
    "town": "南王子町"
  },
  "8060039": {
    "zipcode": "8060039",
    "prefectureCode": "40",
    "prefectureNumber": 40,
    "prefecture": "福岡県",
    "city": "北九州市八幡西区",
    "town": "西王子町"
  },
  "8060041": {
    "zipcode": "8060041",
    "prefectureCode": "40",
    "prefectureNumber": 40,
    "prefecture": "福岡県",
    "city": "北九州市八幡西区",
    "town": "皇后崎町"
  },
  "8060042": {
    "zipcode": "8060042",
    "prefectureCode": "40",
    "prefectureNumber": 40,
    "prefecture": "福岡県",
    "city": "北九州市八幡西区",
    "town": "桜ケ丘町"
  },
  "8060043": {
    "zipcode": "8060043",
    "prefectureCode": "40",
    "prefectureNumber": 40,
    "prefecture": "福岡県",
    "city": "北九州市八幡西区",
    "town": "青山"
  },
  "8060044": {
    "zipcode": "8060044",
    "prefectureCode": "40",
    "prefectureNumber": 40,
    "prefecture": "福岡県",
    "city": "北九州市八幡西区",
    "town": "相生町"
  },
  "8060045": {
    "zipcode": "8060045",
    "prefectureCode": "40",
    "prefectureNumber": 40,
    "prefecture": "福岡県",
    "city": "北九州市八幡西区",
    "town": "竹末"
  },
  "8060046": {
    "zipcode": "8060046",
    "prefectureCode": "40",
    "prefectureNumber": 40,
    "prefecture": "福岡県",
    "city": "北九州市八幡西区",
    "town": "森下町"
  },
  "8060047": {
    "zipcode": "8060047",
    "prefectureCode": "40",
    "prefectureNumber": 40,
    "prefecture": "福岡県",
    "city": "北九州市八幡西区",
    "town": "鷹の巣"
  },
  "8060048": {
    "zipcode": "8060048",
    "prefectureCode": "40",
    "prefectureNumber": 40,
    "prefecture": "福岡県",
    "city": "北九州市八幡西区",
    "town": "樋口町"
  },
  "8060049": {
    "zipcode": "8060049",
    "prefectureCode": "40",
    "prefectureNumber": 40,
    "prefecture": "福岡県",
    "city": "北九州市八幡西区",
    "town": "穴生"
  },
  "8060051": {
    "zipcode": "8060051",
    "prefectureCode": "40",
    "prefectureNumber": 40,
    "prefecture": "福岡県",
    "city": "北九州市八幡西区",
    "town": "東鳴水"
  },
  "8060052": {
    "zipcode": "8060052",
    "prefectureCode": "40",
    "prefectureNumber": 40,
    "prefecture": "福岡県",
    "city": "北九州市八幡西区",
    "town": "鳴水町"
  },
  "8060053": {
    "zipcode": "8060053",
    "prefectureCode": "40",
    "prefectureNumber": 40,
    "prefecture": "福岡県",
    "city": "北九州市八幡西区",
    "town": "大畑町"
  },
  "8060054": {
    "zipcode": "8060054",
    "prefectureCode": "40",
    "prefectureNumber": 40,
    "prefecture": "福岡県",
    "city": "北九州市八幡西区",
    "town": "西鳴水"
  },
  "8060055": {
    "zipcode": "8060055",
    "prefectureCode": "40",
    "prefectureNumber": 40,
    "prefecture": "福岡県",
    "city": "北九州市八幡西区",
    "town": "幸神"
  },
  "8060056": {
    "zipcode": "8060056",
    "prefectureCode": "40",
    "prefectureNumber": 40,
    "prefecture": "福岡県",
    "city": "北九州市八幡西区",
    "town": "小鷺田町"
  },
  "8060057": {
    "zipcode": "8060057",
    "prefectureCode": "40",
    "prefectureNumber": 40,
    "prefecture": "福岡県",
    "city": "北九州市八幡西区",
    "town": "鉄王"
  },
  "8060058": {
    "zipcode": "8060058",
    "prefectureCode": "40",
    "prefectureNumber": 40,
    "prefecture": "福岡県",
    "city": "北九州市八幡西区",
    "town": "鉄竜"
  },
  "8060059": {
    "zipcode": "8060059",
    "prefectureCode": "40",
    "prefectureNumber": 40,
    "prefecture": "福岡県",
    "city": "北九州市八幡西区",
    "town": "萩原"
  },
  "8060061": {
    "zipcode": "8060061",
    "prefectureCode": "40",
    "prefectureNumber": 40,
    "prefecture": "福岡県",
    "city": "北九州市八幡西区",
    "town": "京良城町"
  },
  "8060062": {
    "zipcode": "8060062",
    "prefectureCode": "40",
    "prefectureNumber": 40,
    "prefecture": "福岡県",
    "city": "北九州市八幡西区",
    "town": "別当町"
  },
  "8060063": {
    "zipcode": "8060063",
    "prefectureCode": "40",
    "prefectureNumber": 40,
    "prefecture": "福岡県",
    "city": "北九州市八幡西区",
    "town": "市瀬"
  },
  "8060064": {
    "zipcode": "8060064",
    "prefectureCode": "40",
    "prefectureNumber": 40,
    "prefecture": "福岡県",
    "city": "北九州市八幡西区",
    "town": "割子川"
  },
  "8060065": {
    "zipcode": "8060065",
    "prefectureCode": "40",
    "prefectureNumber": 40,
    "prefecture": "福岡県",
    "city": "北九州市八幡西区",
    "town": "養福寺町"
  },
  "8060066": {
    "zipcode": "8060066",
    "prefectureCode": "40",
    "prefectureNumber": 40,
    "prefecture": "福岡県",
    "city": "北九州市八幡西区",
    "town": "若葉"
  },
  "8060067": {
    "zipcode": "8060067",
    "prefectureCode": "40",
    "prefectureNumber": 40,
    "prefecture": "福岡県",
    "city": "北九州市八幡西区",
    "town": "引野"
  },
  "8060068": {
    "zipcode": "8060068",
    "prefectureCode": "40",
    "prefectureNumber": 40,
    "prefecture": "福岡県",
    "city": "北九州市八幡西区",
    "town": "別所町"
  },
  "8060069": {
    "zipcode": "8060069",
    "prefectureCode": "40",
    "prefectureNumber": 40,
    "prefecture": "福岡県",
    "city": "北九州市八幡西区",
    "town": "茶売町"
  }
}
