{
  "8070000": {
    "zipcode": "8070000",
    "prefectureCode": "40",
    "prefectureNumber": 40,
    "prefecture": "福岡県",
    "city": "遠賀郡水巻町",
    "town": "以下に掲載がない場合"
  },
  "8070001": {
    "zipcode": "8070001",
    "prefectureCode": "40",
    "prefectureNumber": 40,
    "prefecture": "福岡県",
    "city": "遠賀郡水巻町",
    "town": "猪熊"
  },
  "8070002": {
    "zipcode": "8070002",
    "prefectureCode": "40",
    "prefectureNumber": 40,
    "prefecture": "福岡県",
    "city": "遠賀郡水巻町",
    "town": "樋口"
  },
  "8070003": {
    "zipcode": "8070003",
    "prefectureCode": "40",
    "prefectureNumber": 40,
    "prefecture": "福岡県",
    "city": "遠賀郡水巻町",
    "town": "おかの台"
  },
  "8070004": {
    "zipcode": "8070004",
    "prefectureCode": "40",
    "prefectureNumber": 40,
    "prefecture": "福岡県",
    "city": "遠賀郡水巻町",
    "town": "樋口東"
  },
  "8070005": {
    "zipcode": "8070005",
    "prefectureCode": "40",
    "prefectureNumber": 40,
    "prefecture": "福岡県",
    "city": "遠賀郡水巻町",
    "town": "高松"
  },
  "8070006": {
    "zipcode": "8070006",
    "prefectureCode": "40",
    "prefectureNumber": 40,
    "prefecture": "福岡県",
    "city": "遠賀郡水巻町",
    "town": "梅ノ木団地"
  },
  "8070007": {
    "zipcode": "8070007",
    "prefectureCode": "40",
    "prefectureNumber": 40,
    "prefecture": "福岡県",
    "city": "遠賀郡水巻町",
    "town": "牟田"
  },
  "8070011": {
    "zipcode": "8070011",
    "prefectureCode": "40",
    "prefectureNumber": 40,
    "prefecture": "福岡県",
    "city": "遠賀郡水巻町",
    "town": "緑ケ丘"
  },
  "8070012": {
    "zipcode": "8070012",
    "prefectureCode": "40",
    "prefectureNumber": 40,
    "prefecture": "福岡県",
    "city": "遠賀郡水巻町",
    "town": "古賀"
  },
  "8070021": {
    "zipcode": "8070021",
    "prefectureCode": "40",
    "prefectureNumber": 40,
    "prefecture": "福岡県",
    "city": "遠賀郡水巻町",
    "town": "頃末"
  },
  "8070022": {
    "zipcode": "8070022",
    "prefectureCode": "40",
    "prefectureNumber": 40,
    "prefecture": "福岡県",
    "city": "遠賀郡水巻町",
    "town": "頃末北"
  },
  "8070023": {
    "zipcode": "8070023",
    "prefectureCode": "40",
    "prefectureNumber": 40,
    "prefecture": "福岡県",
    "city": "遠賀郡水巻町",
    "town": "中央"
  },
  "8070024": {
    "zipcode": "8070024",
    "prefectureCode": "40",
    "prefectureNumber": 40,
    "prefecture": "福岡県",
    "city": "遠賀郡水巻町",
    "town": "高尾"
  },
  "8070025": {
    "zipcode": "8070025",
    "prefectureCode": "40",
    "prefectureNumber": 40,
    "prefecture": "福岡県",
    "city": "遠賀郡水巻町",
    "town": "頃末南"
  },
  "8070031": {
    "zipcode": "8070031",
    "prefectureCode": "40",
    "prefectureNumber": 40,
    "prefecture": "福岡県",
    "city": "遠賀郡水巻町",
    "town": "えぶり"
  },
  "8070041": {
    "zipcode": "8070041",
    "prefectureCode": "40",
    "prefectureNumber": 40,
    "prefecture": "福岡県",
    "city": "遠賀郡水巻町",
    "town": "宮尾台"
  },
  "8070042": {
    "zipcode": "8070042",
    "prefectureCode": "40",
    "prefectureNumber": 40,
    "prefecture": "福岡県",
    "city": "遠賀郡水巻町",
    "town": "吉田団地"
  },
  "8070043": {
    "zipcode": "8070043",
    "prefectureCode": "40",
    "prefectureNumber": 40,
    "prefecture": "福岡県",
    "city": "遠賀郡水巻町",
    "town": "下二"
  },
  "8070044": {
    "zipcode": "8070044",
    "prefectureCode": "40",
    "prefectureNumber": 40,
    "prefecture": "福岡県",
    "city": "遠賀郡水巻町",
    "town": "美吉野"
  },
  "8070045": {
    "zipcode": "8070045",
    "prefectureCode": "40",
    "prefectureNumber": 40,
    "prefecture": "福岡県",
    "city": "遠賀郡水巻町",
    "town": "吉田東"
  },
  "8070046": {
    "zipcode": "8070046",
    "prefectureCode": "40",
    "prefectureNumber": 40,
    "prefecture": "福岡県",
    "city": "遠賀郡水巻町",
    "town": "吉田西"
  },
  "8070047": {
    "zipcode": "8070047",
    "prefectureCode": "40",
    "prefectureNumber": 40,
    "prefecture": "福岡県",
    "city": "遠賀郡水巻町",
    "town": "鯉口"
  },
  "8070048": {
    "zipcode": "8070048",
    "prefectureCode": "40",
    "prefectureNumber": 40,
    "prefecture": "福岡県",
    "city": "遠賀郡水巻町",
    "town": "吉田南"
  },
  "8070051": {
    "zipcode": "8070051",
    "prefectureCode": "40",
    "prefectureNumber": 40,
    "prefecture": "福岡県",
    "city": "遠賀郡水巻町",
    "town": "立屋敷"
  },
  "8070052": {
    "zipcode": "8070052",
    "prefectureCode": "40",
    "prefectureNumber": 40,
    "prefecture": "福岡県",
    "city": "遠賀郡水巻町",
    "town": "下二西"
  },
  "8070053": {
    "zipcode": "8070053",
    "prefectureCode": "40",
    "prefectureNumber": 40,
    "prefecture": "福岡県",
    "city": "遠賀郡水巻町",
    "town": "下二東"
  },
  "8070054": {
    "zipcode": "8070054",
    "prefectureCode": "40",
    "prefectureNumber": 40,
    "prefecture": "福岡県",
    "city": "遠賀郡水巻町",
    "town": "二東"
  },
  "8070055": {
    "zipcode": "8070055",
    "prefectureCode": "40",
    "prefectureNumber": 40,
    "prefecture": "福岡県",
    "city": "遠賀郡水巻町",
    "town": "二西"
  },
  "8070056": {
    "zipcode": "8070056",
    "prefectureCode": "40",
    "prefectureNumber": 40,
    "prefecture": "福岡県",
    "city": "遠賀郡水巻町",
    "town": "伊左座"
  },
  "8070071": {
    "zipcode": "8070071",
    "prefectureCode": "40",
    "prefectureNumber": 40,
    "prefecture": "福岡県",
    "city": "北九州市八幡西区",
    "town": "上の原"
  },
  "8070072": {
    "zipcode": "8070072",
    "prefectureCode": "40",
    "prefectureNumber": 40,
    "prefecture": "福岡県",
    "city": "北九州市八幡西区",
    "town": "上上津役"
  },
  "8070073": {
    "zipcode": "8070073",
    "prefectureCode": "40",
    "prefectureNumber": 40,
    "prefecture": "福岡県",
    "city": "北九州市八幡西区",
    "town": "町上津役東"
  },
  "8070074": {
    "zipcode": "8070074",
    "prefectureCode": "40",
    "prefectureNumber": 40,
    "prefecture": "福岡県",
    "city": "北九州市八幡西区",
    "town": "町上津役西"
  },
  "8070075": {
    "zipcode": "8070075",
    "prefectureCode": "40",
    "prefectureNumber": 40,
    "prefecture": "福岡県",
    "city": "北九州市八幡西区",
    "town": "下上津役"
  },
  "8070076": {
    "zipcode": "8070076",
    "prefectureCode": "40",
    "prefectureNumber": 40,
    "prefecture": "福岡県",
    "city": "北九州市八幡西区",
    "town": "下上津役元町"
  },
  "8070077": {
    "zipcode": "8070077",
    "prefectureCode": "40",
    "prefectureNumber": 40,
    "prefecture": "福岡県",
    "city": "北九州市八幡西区",
    "town": "沖田"
  },
  "8070078": {
    "zipcode": "8070078",
    "prefectureCode": "40",
    "prefectureNumber": 40,
    "prefecture": "福岡県",
    "city": "北九州市八幡西区",
    "town": "中の原"
  },
  "8070081": {
    "zipcode": "8070081",
    "prefectureCode": "40",
    "prefectureNumber": 40,
    "prefecture": "福岡県",
    "city": "北九州市八幡西区",
    "town": "小嶺"
  },
  "8070082": {
    "zipcode": "8070082",
    "prefectureCode": "40",
    "prefectureNumber": 40,
    "prefecture": "福岡県",
    "city": "北九州市八幡西区",
    "town": "小嶺台"
  },
  "8070083": {
    "zipcode": "8070083",
    "prefectureCode": "40",
    "prefectureNumber": 40,
    "prefecture": "福岡県",
    "city": "北九州市八幡西区",
    "town": "大平"
  },
  "8070084": {
    "zipcode": "8070084",
    "prefectureCode": "40",
    "prefectureNumber": 40,
    "prefecture": "福岡県",
    "city": "北九州市八幡西区",
    "town": "大平台"
  },
  "8070085": {
    "zipcode": "8070085",
    "prefectureCode": "40",
    "prefectureNumber": 40,
    "prefecture": "福岡県",
    "city": "北九州市八幡西区",
    "town": "塔野"
  },
  "8070100": {
    "zipcode": "8070100",
    "prefectureCode": "40",
    "prefectureNumber": 40,
    "prefecture": "福岡県",
    "city": "遠賀郡芦屋町",
    "town": "以下に掲載がない場合"
  },
  "8070101": {
    "zipcode": "8070101",
    "prefectureCode": "40",
    "prefectureNumber": 40,
    "prefecture": "福岡県",
    "city": "遠賀郡芦屋町",
    "town": "幸町"
  },
  "8070102": {
    "zipcode": "8070102",
    "prefectureCode": "40",
    "prefectureNumber": 40,
    "prefecture": "福岡県",
    "city": "遠賀郡芦屋町",
    "town": "西浜町"
  },
  "8070111": {
    "zipcode": "8070111",
    "prefectureCode": "40",
    "prefectureNumber": 40,
    "prefecture": "福岡県",
    "city": "遠賀郡芦屋町",
    "town": "白浜町"
  },
  "8070112": {
    "zipcode": "8070112",
    "prefectureCode": "40",
    "prefectureNumber": 40,
    "prefecture": "福岡県",
    "city": "遠賀郡芦屋町",
    "town": "正門町"
  },
  "8070113": {
    "zipcode": "8070113",
    "prefectureCode": "40",
    "prefectureNumber": 40,
    "prefecture": "福岡県",
    "city": "遠賀郡芦屋町",
    "town": "中ノ浜"
  },
  "8070121": {
    "zipcode": "8070121",
    "prefectureCode": "40",
    "prefectureNumber": 40,
    "prefecture": "福岡県",
    "city": "遠賀郡芦屋町",
    "town": "船頭町"
  },
  "8070122": {
    "zipcode": "8070122",
    "prefectureCode": "40",
    "prefectureNumber": 40,
    "prefecture": "福岡県",
    "city": "遠賀郡芦屋町",
    "town": "高浜町"
  },
  "8070123": {
    "zipcode": "8070123",
    "prefectureCode": "40",
    "prefectureNumber": 40,
    "prefecture": "福岡県",
    "city": "遠賀郡芦屋町",
    "town": "祇園町"
  },
  "8070131": {
    "zipcode": "8070131",
    "prefectureCode": "40",
    "prefectureNumber": 40,
    "prefecture": "福岡県",
    "city": "遠賀郡芦屋町",
    "town": "緑ケ丘"
  },
  "8070132": {
    "zipcode": "8070132",
    "prefectureCode": "40",
    "prefectureNumber": 40,
    "prefecture": "福岡県",
    "city": "遠賀郡芦屋町",
    "town": "浜口町"
  },
  "8070133": {
    "zipcode": "8070133",
    "prefectureCode": "40",
    "prefectureNumber": 40,
    "prefecture": "福岡県",
    "city": "遠賀郡芦屋町",
    "town": "芦屋"
  },
  "8070141": {
    "zipcode": "8070141",
    "prefectureCode": "40",
    "prefectureNumber": 40,
    "prefecture": "福岡県",
    "city": "遠賀郡芦屋町",
    "town": "山鹿"
  },
  "8070142": {
    "zipcode": "8070142",
    "prefectureCode": "40",
    "prefectureNumber": 40,
    "prefecture": "福岡県",
    "city": "遠賀郡芦屋町",
    "town": "江川台"
  },
  "8070143": {
    "zipcode": "8070143",
    "prefectureCode": "40",
    "prefectureNumber": 40,
    "prefecture": "福岡県",
    "city": "遠賀郡芦屋町",
    "town": "花美坂"
  },
  "8070801": {
    "zipcode": "8070801",
    "prefectureCode": "40",
    "prefectureNumber": 40,
    "prefecture": "福岡県",
    "city": "北九州市八幡西区",
    "town": "本城"
  },
  "8070802": {
    "zipcode": "8070802",
    "prefectureCode": "40",
    "prefectureNumber": 40,
    "prefecture": "福岡県",
    "city": "北九州市八幡西区",
    "town": "力丸町"
  },
  "8070803": {
    "zipcode": "8070803",
    "prefectureCode": "40",
    "prefectureNumber": 40,
    "prefecture": "福岡県",
    "city": "北九州市八幡西区",
    "town": "千代ケ崎"
  },
  "8070804": {
    "zipcode": "8070804",
    "prefectureCode": "40",
    "prefectureNumber": 40,
    "prefecture": "福岡県",
    "city": "北九州市八幡西区",
    "town": "医生ケ丘"
  },
  "8070805": {
    "zipcode": "8070805",
    "prefectureCode": "40",
    "prefectureNumber": 40,
    "prefecture": "福岡県",
    "city": "北九州市八幡西区",
    "town": "光貞台"
  },
  "8070806": {
    "zipcode": "8070806",
    "prefectureCode": "40",
    "prefectureNumber": 40,
    "prefecture": "福岡県",
    "city": "北九州市八幡西区",
    "town": "御開"
  },
  "8070807": {
    "zipcode": "8070807",
    "prefectureCode": "40",
    "prefectureNumber": 40,
    "prefecture": "福岡県",
    "city": "北九州市八幡西区",
    "town": "本城学研台"
  },
  "8070811": {
    "zipcode": "8070811",
    "prefectureCode": "40",
    "prefectureNumber": 40,
    "prefecture": "福岡県",
    "city": "北九州市八幡西区",
    "town": "洞北町"
  },
  "8070812": {
    "zipcode": "8070812",
    "prefectureCode": "40",
    "prefectureNumber": 40,
    "prefecture": "福岡県",
    "city": "北九州市八幡西区",
    "town": "洞南町"
  },
  "8070813": {
    "zipcode": "8070813",
    "prefectureCode": "40",
    "prefectureNumber": 40,
    "prefecture": "福岡県",
    "city": "北九州市八幡西区",
    "town": "夕原町"
  },
  "8070814": {
    "zipcode": "8070814",
    "prefectureCode": "40",
    "prefectureNumber": 40,
    "prefecture": "福岡県",
    "city": "北九州市八幡西区",
    "town": "貴船台"
  },
  "8070815": {
    "zipcode": "8070815",
    "prefectureCode": "40",
    "prefectureNumber": 40,
    "prefecture": "福岡県",
    "city": "北九州市八幡西区",
    "town": "本城東"
  },
  "8070821": {
    "zipcode": "8070821",
    "prefectureCode": "40",
    "prefectureNumber": 40,
    "prefecture": "福岡県",
    "city": "北九州市八幡西区",
    "town": "陣原"
  },
  "8070822": {
    "zipcode": "8070822",
    "prefectureCode": "40",
    "prefectureNumber": 40,
    "prefecture": "福岡県",
    "city": "北九州市八幡西区",
    "town": "瀬板"
  },
  "8070823": {
    "zipcode": "8070823",
    "prefectureCode": "40",
    "prefectureNumber": 40,
    "prefecture": "福岡県",
    "city": "北九州市八幡西区",
    "town": "中須"
  },
  "8070824": {
    "zipcode": "8070824",
    "prefectureCode": "40",
    "prefectureNumber": 40,
    "prefecture": "福岡県",
    "city": "北九州市八幡西区",
    "town": "光明"
  },
  "8070825": {
    "zipcode": "8070825",
    "prefectureCode": "40",
    "prefectureNumber": 40,
    "prefecture": "福岡県",
    "city": "北九州市八幡西区",
    "town": "折尾（丁目）"
  },
  "8070826": {
    "zipcode": "8070826",
    "prefectureCode": "40",
    "prefectureNumber": 40,
    "prefecture": "福岡県",
    "city": "北九州市八幡西区",
    "town": "丸尾町"
  },
  "8070827": {
    "zipcode": "8070827",
    "prefectureCode": "40",
    "prefectureNumber": 40,
    "prefecture": "福岡県",
    "city": "北九州市八幡西区",
    "town": "楠木"
  },
  "8070828": {
    "zipcode": "8070828",
    "prefectureCode": "40",
    "prefectureNumber": 40,
    "prefecture": "福岡県",
    "city": "北九州市八幡西区",
    "town": "友田"
  },
  "8070829": {
    "zipcode": "8070829",
    "prefectureCode": "40",
    "prefectureNumber": 40,
    "prefecture": "福岡県",
    "city": "北九州市八幡西区",
    "town": "星和町"
  },
  "8070831": {
    "zipcode": "8070831",
    "prefectureCode": "40",
    "prefectureNumber": 40,
    "prefecture": "福岡県",
    "city": "北九州市八幡西区",
    "town": "則松"
  },
  "8070832": {
    "zipcode": "8070832",
    "prefectureCode": "40",
    "prefectureNumber": 40,
    "prefecture": "福岡県",
    "city": "北九州市八幡西区",
    "town": "東筑"
  },
  "8070833": {
    "zipcode": "8070833",
    "prefectureCode": "40",
    "prefectureNumber": 40,
    "prefecture": "福岡県",
    "city": "北九州市八幡西区",
    "town": "南鷹見町"
  },
  "8070834": {
    "zipcode": "8070834",
    "prefectureCode": "40",
    "prefectureNumber": 40,
    "prefecture": "福岡県",
    "city": "北九州市八幡西区",
    "town": "北鷹見町"
  },
  "8070835": {
    "zipcode": "8070835",
    "prefectureCode": "40",
    "prefectureNumber": 40,
    "prefecture": "福岡県",
    "city": "北九州市八幡西区",
    "town": "東折尾町"
  },
  "8070836": {
    "zipcode": "8070836",
    "prefectureCode": "40",
    "prefectureNumber": 40,
    "prefecture": "福岡県",
    "city": "北九州市八幡西区",
    "town": "長崎町"
  },
  "8070837": {
    "zipcode": "8070837",
    "prefectureCode": "40",
    "prefectureNumber": 40,
    "prefecture": "福岡県",
    "city": "北九州市八幡西区",
    "town": "則松東"
  },
  "8070841": {
    "zipcode": "8070841",
    "prefectureCode": "40",
    "prefectureNumber": 40,
    "prefecture": "福岡県",
    "city": "北九州市八幡西区",
    "town": "的場町"
  },
  "8070842": {
    "zipcode": "8070842",
    "prefectureCode": "40",
    "prefectureNumber": 40,
    "prefecture": "福岡県",
    "city": "北九州市八幡西区",
    "town": "永犬丸東町"
  },
  "8070843": {
    "zipcode": "8070843",
    "prefectureCode": "40",
    "prefectureNumber": 40,
    "prefecture": "福岡県",
    "city": "北九州市八幡西区",
    "town": "三ケ森"
  },
  "8070844": {
    "zipcode": "8070844",
    "prefectureCode": "40",
    "prefectureNumber": 40,
    "prefecture": "福岡県",
    "city": "北九州市八幡西区",
    "town": "春日台"
  },
  "8070845": {
    "zipcode": "8070845",
    "prefectureCode": "40",
    "prefectureNumber": 40,
    "prefecture": "福岡県",
    "city": "北九州市八幡西区",
    "town": "永犬丸南町"
  },
  "8070846": {
    "zipcode": "8070846",
    "prefectureCode": "40",
    "prefectureNumber": 40,
    "prefecture": "福岡県",
    "city": "北九州市八幡西区",
    "town": "里中"
  },
  "8070847": {
    "zipcode": "8070847",
    "prefectureCode": "40",
    "prefectureNumber": 40,
    "prefecture": "福岡県",
    "city": "北九州市八幡西区",
    "town": "美原町"
  },
  "8070851": {
    "zipcode": "8070851",
    "prefectureCode": "40",
    "prefectureNumber": 40,
    "prefecture": "福岡県",
    "city": "北九州市八幡西区",
    "town": "永犬丸"
  },
  "8070852": {
    "zipcode": "8070852",
    "prefectureCode": "40",
    "prefectureNumber": 40,
    "prefecture": "福岡県",
    "city": "北九州市八幡西区",
    "town": "永犬丸西町"
  },
  "8070853": {
    "zipcode": "8070853",
    "prefectureCode": "40",
    "prefectureNumber": 40,
    "prefecture": "福岡県",
    "city": "北九州市八幡西区",
    "town": "鷹見台"
  },
  "8070854": {
    "zipcode": "8070854",
    "prefectureCode": "40",
    "prefectureNumber": 40,
    "prefecture": "福岡県",
    "city": "北九州市八幡西区",
    "town": "泉ケ浦"
  },
  "8070855": {
    "zipcode": "8070855",
    "prefectureCode": "40",
    "prefectureNumber": 40,
    "prefecture": "福岡県",
    "city": "北九州市八幡西区",
    "town": "松寿山"
  },
  "8070856": {
    "zipcode": "8070856",
    "prefectureCode": "40",
    "prefectureNumber": 40,
    "prefecture": "福岡県",
    "city": "北九州市八幡西区",
    "town": "八枝"
  },
  "8070857": {
    "zipcode": "8070857",
    "prefectureCode": "40",
    "prefectureNumber": 40,
    "prefecture": "福岡県",
    "city": "北九州市八幡西区",
    "town": "北筑"
  },
  "8070861": {
    "zipcode": "8070861",
    "prefectureCode": "40",
    "prefectureNumber": 40,
    "prefecture": "福岡県",
    "city": "北九州市八幡西区",
    "town": "堀川町"
  },
  "8070862": {
    "zipcode": "8070862",
    "prefectureCode": "40",
    "prefectureNumber": 40,
    "prefecture": "福岡県",
    "city": "北九州市八幡西区",
    "town": "西折尾町"
  },
  "8070863": {
    "zipcode": "8070863",
    "prefectureCode": "40",
    "prefectureNumber": 40,
    "prefecture": "福岡県",
    "city": "北九州市八幡西区",
    "town": "大膳"
  },
  "8070864": {
    "zipcode": "8070864",
    "prefectureCode": "40",
    "prefectureNumber": 40,
    "prefecture": "福岡県",
    "city": "北九州市八幡西区",
    "town": "折尾（番地）"
  },
  "8070865": {
    "zipcode": "8070865",
    "prefectureCode": "40",
    "prefectureNumber": 40,
    "prefecture": "福岡県",
    "city": "北九州市八幡西区",
    "town": "美吉野町"
  },
  "8070866": {
    "zipcode": "8070866",
    "prefectureCode": "40",
    "prefectureNumber": 40,
    "prefecture": "福岡県",
    "city": "北九州市八幡西区",
    "town": "日吉台"
  },
  "8070867": {
    "zipcode": "8070867",
    "prefectureCode": "40",
    "prefectureNumber": 40,
    "prefecture": "福岡県",
    "city": "北九州市八幡西区",
    "town": "自由ケ丘"
  },
  "8070868": {
    "zipcode": "8070868",
    "prefectureCode": "40",
    "prefectureNumber": 40,
    "prefecture": "福岡県",
    "city": "北九州市八幡西区",
    "town": "さつき台"
  },
  "8070871": {
    "zipcode": "8070871",
    "prefectureCode": "40",
    "prefectureNumber": 40,
    "prefecture": "福岡県",
    "city": "北九州市八幡西区",
    "town": "浅川学園台"
  },
  "8070872": {
    "zipcode": "8070872",
    "prefectureCode": "40",
    "prefectureNumber": 40,
    "prefecture": "福岡県",
    "city": "北九州市八幡西区",
    "town": "浅川（丁目）"
  },
  "8070873": {
    "zipcode": "8070873",
    "prefectureCode": "40",
    "prefectureNumber": 40,
    "prefecture": "福岡県",
    "city": "北九州市八幡西区",
    "town": "藤原"
  },
  "8070874": {
    "zipcode": "8070874",
    "prefectureCode": "40",
    "prefectureNumber": 40,
    "prefecture": "福岡県",
    "city": "北九州市八幡西区",
    "town": "大浦"
  },
  "8070875": {
    "zipcode": "8070875",
    "prefectureCode": "40",
    "prefectureNumber": 40,
    "prefecture": "福岡県",
    "city": "北九州市八幡西区",
    "town": "浅川台"
  },
  "8070876": {
    "zipcode": "8070876",
    "prefectureCode": "40",
    "prefectureNumber": 40,
    "prefecture": "福岡県",
    "city": "北九州市八幡西区",
    "town": "浅川日の峯"
  },
  "8070877": {
    "zipcode": "8070877",
    "prefectureCode": "40",
    "prefectureNumber": 40,
    "prefecture": "福岡県",
    "city": "北九州市八幡西区",
    "town": "浅川（番地）"
  },
  "8070878": {
    "zipcode": "8070878",
    "prefectureCode": "40",
    "prefectureNumber": 40,
    "prefecture": "福岡県",
    "city": "北九州市八幡西区",
    "town": "三ツ頭"
  },
  "8070879": {
    "zipcode": "8070879",
    "prefectureCode": "40",
    "prefectureNumber": 40,
    "prefecture": "福岡県",
    "city": "北九州市八幡西区",
    "town": "浅川町"
  },
  "8071101": {
    "zipcode": "8071101",
    "prefectureCode": "40",
    "prefectureNumber": 40,
    "prefecture": "福岡県",
    "city": "北九州市八幡西区",
    "town": "上香月"
  },
  "8071102": {
    "zipcode": "8071102",
    "prefectureCode": "40",
    "prefectureNumber": 40,
    "prefecture": "福岡県",
    "city": "北九州市八幡西区",
    "town": "香月中央"
  },
  "8071103": {
    "zipcode": "8071103",
    "prefectureCode": "40",
    "prefectureNumber": 40,
    "prefecture": "福岡県",
    "city": "北九州市八幡西区",
    "town": "香月西"
  },
  "8071111": {
    "zipcode": "8071111",
    "prefectureCode": "40",
    "prefectureNumber": 40,
    "prefecture": "福岡県",
    "city": "北九州市八幡西区",
    "town": "船越"
  },
  "8071112": {
    "zipcode": "8071112",
    "prefectureCode": "40",
    "prefectureNumber": 40,
    "prefecture": "福岡県",
    "city": "北九州市八幡西区",
    "town": "千代"
  },
  "8071113": {
    "zipcode": "8071113",
    "prefectureCode": "40",
    "prefectureNumber": 40,
    "prefecture": "福岡県",
    "city": "北九州市八幡西区",
    "town": "白岩町"
  },
  "8071114": {
    "zipcode": "8071114",
    "prefectureCode": "40",
    "prefectureNumber": 40,
    "prefecture": "福岡県",
    "city": "北九州市八幡西区",
    "town": "吉祥寺町"
  },
  "8071115": {
    "zipcode": "8071115",
    "prefectureCode": "40",
    "prefectureNumber": 40,
    "prefecture": "福岡県",
    "city": "北九州市八幡西区",
    "town": "椋枝"
  },
  "8071121": {
    "zipcode": "8071121",
    "prefectureCode": "40",
    "prefectureNumber": 40,
    "prefecture": "福岡県",
    "city": "北九州市八幡西区",
    "town": "石坂"
  },
  "8071122": {
    "zipcode": "8071122",
    "prefectureCode": "40",
    "prefectureNumber": 40,
    "prefecture": "福岡県",
    "city": "北九州市八幡西区",
    "town": "東石坂町"
  },
  "8071123": {
    "zipcode": "8071123",
    "prefectureCode": "40",
    "prefectureNumber": 40,
    "prefecture": "福岡県",
    "city": "北九州市八幡西区",
    "town": "下畑町"
  },
  "8071124": {
    "zipcode": "8071124",
    "prefectureCode": "40",
    "prefectureNumber": 40,
    "prefecture": "福岡県",
    "city": "北九州市八幡西区",
    "town": "畑"
  },
  "8071125": {
    "zipcode": "8071125",
    "prefectureCode": "40",
    "prefectureNumber": 40,
    "prefecture": "福岡県",
    "city": "北九州市八幡西区",
    "town": "池田"
  },
  "8071131": {
    "zipcode": "8071131",
    "prefectureCode": "40",
    "prefectureNumber": 40,
    "prefecture": "福岡県",
    "city": "北九州市八幡西区",
    "town": "馬場山東"
  },
  "8071132": {
    "zipcode": "8071132",
    "prefectureCode": "40",
    "prefectureNumber": 40,
    "prefecture": "福岡県",
    "city": "北九州市八幡西区",
    "town": "馬場山西"
  },
  "8071133": {
    "zipcode": "8071133",
    "prefectureCode": "40",
    "prefectureNumber": 40,
    "prefecture": "福岡県",
    "city": "北九州市八幡西区",
    "town": "馬場山緑"
  },
  "8071134": {
    "zipcode": "8071134",
    "prefectureCode": "40",
    "prefectureNumber": 40,
    "prefecture": "福岡県",
    "city": "北九州市八幡西区",
    "town": "茶屋の原"
  },
  "8071135": {
    "zipcode": "8071135",
    "prefectureCode": "40",
    "prefectureNumber": 40,
    "prefecture": "福岡県",
    "city": "北九州市八幡西区",
    "town": "馬場山原"
  },
  "8071136": {
    "zipcode": "8071136",
    "prefectureCode": "40",
    "prefectureNumber": 40,
    "prefecture": "福岡県",
    "city": "北九州市八幡西区",
    "town": "馬場山"
  },
  "8071141": {
    "zipcode": "8071141",
    "prefectureCode": "40",
    "prefectureNumber": 40,
    "prefecture": "福岡県",
    "city": "北九州市八幡西区",
    "town": "楠橋上方"
  },
  "8071142": {
    "zipcode": "8071142",
    "prefectureCode": "40",
    "prefectureNumber": 40,
    "prefecture": "福岡県",
    "city": "北九州市八幡西区",
    "town": "楠橋東"
  },
  "8071143": {
    "zipcode": "8071143",
    "prefectureCode": "40",
    "prefectureNumber": 40,
    "prefecture": "福岡県",
    "city": "北九州市八幡西区",
    "town": "楠橋南"
  },
  "8071144": {
    "zipcode": "8071144",
    "prefectureCode": "40",
    "prefectureNumber": 40,
    "prefecture": "福岡県",
    "city": "北九州市八幡西区",
    "town": "真名子"
  },
  "8071145": {
    "zipcode": "8071145",
    "prefectureCode": "40",
    "prefectureNumber": 40,
    "prefecture": "福岡県",
    "city": "北九州市八幡西区",
    "town": "楠橋西"
  },
  "8071146": {
    "zipcode": "8071146",
    "prefectureCode": "40",
    "prefectureNumber": 40,
    "prefecture": "福岡県",
    "city": "北九州市八幡西区",
    "town": "楠橋下方"
  },
  "8071151": {
    "zipcode": "8071151",
    "prefectureCode": "40",
    "prefectureNumber": 40,
    "prefecture": "福岡県",
    "city": "北九州市八幡西区",
    "town": "楠橋"
  },
  "8071152": {
    "zipcode": "8071152",
    "prefectureCode": "40",
    "prefectureNumber": 40,
    "prefecture": "福岡県",
    "city": "北九州市八幡西区",
    "town": "高江"
  },
  "8071153": {
    "zipcode": "8071153",
    "prefectureCode": "40",
    "prefectureNumber": 40,
    "prefecture": "福岡県",
    "city": "北九州市八幡西区",
    "town": "岩崎"
  },
  "8071154": {
    "zipcode": "8071154",
    "prefectureCode": "40",
    "prefectureNumber": 40,
    "prefecture": "福岡県",
    "city": "北九州市八幡西区",
    "town": "楠北"
  },
  "8071261": {
    "zipcode": "8071261",
    "prefectureCode": "40",
    "prefectureNumber": 40,
    "prefecture": "福岡県",
    "city": "北九州市八幡西区",
    "town": "木屋瀬"
  },
  "8071262": {
    "zipcode": "8071262",
    "prefectureCode": "40",
    "prefectureNumber": 40,
    "prefecture": "福岡県",
    "city": "北九州市八幡西区",
    "town": "野面"
  },
  "8071263": {
    "zipcode": "8071263",
    "prefectureCode": "40",
    "prefectureNumber": 40,
    "prefecture": "福岡県",
    "city": "北九州市八幡西区",
    "town": "金剛"
  },
  "8071264": {
    "zipcode": "8071264",
    "prefectureCode": "40",
    "prefectureNumber": 40,
    "prefecture": "福岡県",
    "city": "北九州市八幡西区",
    "town": "星ケ丘"
  },
  "8071265": {
    "zipcode": "8071265",
    "prefectureCode": "40",
    "prefectureNumber": 40,
    "prefecture": "福岡県",
    "city": "北九州市八幡西区",
    "town": "笹田"
  },
  "8071266": {
    "zipcode": "8071266",
    "prefectureCode": "40",
    "prefectureNumber": 40,
    "prefecture": "福岡県",
    "city": "北九州市八幡西区",
    "town": "木屋瀬東"
  },
  "8071300": {
    "zipcode": "8071300",
    "prefectureCode": "40",
    "prefectureNumber": 40,
    "prefecture": "福岡県",
    "city": "鞍手郡鞍手町",
    "town": "以下に掲載がない場合"
  },
  "8071301": {
    "zipcode": "8071301",
    "prefectureCode": "40",
    "prefectureNumber": 40,
    "prefecture": "福岡県",
    "city": "鞍手郡鞍手町",
    "town": "猪倉"
  },
  "8071302": {
    "zipcode": "8071302",
    "prefectureCode": "40",
    "prefectureNumber": 40,
    "prefecture": "福岡県",
    "city": "鞍手郡鞍手町",
    "town": "上木月"
  },
  "8071303": {
    "zipcode": "8071303",
    "prefectureCode": "40",
    "prefectureNumber": 40,
    "prefecture": "福岡県",
    "city": "鞍手郡鞍手町",
    "town": "木月"
  },
  "8071304": {
    "zipcode": "8071304",
    "prefectureCode": "40",
    "prefectureNumber": 40,
    "prefecture": "福岡県",
    "city": "鞍手郡鞍手町",
    "town": "永谷"
  },
  "8071305": {
    "zipcode": "8071305",
    "prefectureCode": "40",
    "prefectureNumber": 40,
    "prefecture": "福岡県",
    "city": "鞍手郡鞍手町",
    "town": "新延"
  },
  "8071306": {
    "zipcode": "8071306",
    "prefectureCode": "40",
    "prefectureNumber": 40,
    "prefecture": "福岡県",
    "city": "鞍手郡鞍手町",
    "town": "古門"
  },
  "8071307": {
    "zipcode": "8071307",
    "prefectureCode": "40",
    "prefectureNumber": 40,
    "prefecture": "福岡県",
    "city": "鞍手郡鞍手町",
    "town": "室木"
  },
  "8071308": {
    "zipcode": "8071308",
    "prefectureCode": "40",
    "prefectureNumber": 40,
    "prefecture": "福岡県",
    "city": "鞍手郡鞍手町",
    "town": "八尋"
  },
  "8071311": {
    "zipcode": "8071311",
    "prefectureCode": "40",
    "prefectureNumber": 40,
    "prefecture": "福岡県",
    "city": "鞍手郡鞍手町",
    "town": "小牧"
  },
  "8071312": {
    "zipcode": "8071312",
    "prefectureCode": "40",
    "prefectureNumber": 40,
    "prefecture": "福岡県",
    "city": "鞍手郡鞍手町",
    "town": "中山"
  },
  "8071313": {
    "zipcode": "8071313",
    "prefectureCode": "40",
    "prefectureNumber": 40,
    "prefecture": "福岡県",
    "city": "鞍手郡鞍手町",
    "town": "新北"
  },
  "8071314": {
    "zipcode": "8071314",
    "prefectureCode": "40",
    "prefectureNumber": 40,
    "prefecture": "福岡県",
    "city": "鞍手郡鞍手町",
    "town": "長谷"
  },
  "8071315": {
    "zipcode": "8071315",
    "prefectureCode": "40",
    "prefectureNumber": 40,
    "prefecture": "福岡県",
    "city": "鞍手郡鞍手町",
    "town": "弥生"
  }
}
