{
  "8110100": {
    "zipcode": "8110100",
    "prefectureCode": "40",
    "prefectureNumber": 40,
    "prefecture": "福岡県",
    "city": "糟屋郡新宮町",
    "town": "以下に掲載がない場合"
  },
  "8110101": {
    "zipcode": "8110101",
    "prefectureCode": "40",
    "prefectureNumber": 40,
    "prefecture": "福岡県",
    "city": "糟屋郡新宮町",
    "town": "原上"
  },
  "8110102": {
    "zipcode": "8110102",
    "prefectureCode": "40",
    "prefectureNumber": 40,
    "prefecture": "福岡県",
    "city": "糟屋郡新宮町",
    "town": "立花口"
  },
  "8110103": {
    "zipcode": "8110103",
    "prefectureCode": "40",
    "prefectureNumber": 40,
    "prefecture": "福岡県",
    "city": "糟屋郡新宮町",
    "town": "花立花"
  },
  "8110104": {
    "zipcode": "8110104",
    "prefectureCode": "40",
    "prefectureNumber": 40,
    "prefecture": "福岡県",
    "city": "糟屋郡新宮町",
    "town": "的野"
  },
  "8110110": {
    "zipcode": "8110110",
    "prefectureCode": "40",
    "prefectureNumber": 40,
    "prefecture": "福岡県",
    "city": "糟屋郡新宮町",
    "town": "夜臼"
  },
  "8110111": {
    "zipcode": "8110111",
    "prefectureCode": "40",
    "prefectureNumber": 40,
    "prefecture": "福岡県",
    "city": "糟屋郡新宮町",
    "town": "三代"
  },
  "8110112": {
    "zipcode": "8110112",
    "prefectureCode": "40",
    "prefectureNumber": 40,
    "prefecture": "福岡県",
    "city": "糟屋郡新宮町",
    "town": "下府"
  },
  "8110113": {
    "zipcode": "8110113",
    "prefectureCode": "40",
    "prefectureNumber": 40,
    "prefecture": "福岡県",
    "city": "糟屋郡新宮町",
    "town": "桜山手"
  },
  "8110114": {
    "zipcode": "8110114",
    "prefectureCode": "40",
    "prefectureNumber": 40,
    "prefecture": "福岡県",
    "city": "糟屋郡新宮町",
    "town": "湊坂"
  },
  "8110115": {
    "zipcode": "8110115",
    "prefectureCode": "40",
    "prefectureNumber": 40,
    "prefecture": "福岡県",
    "city": "糟屋郡新宮町",
    "town": "新宮"
  },
  "8110116": {
    "zipcode": "8110116",
    "prefectureCode": "40",
    "prefectureNumber": 40,
    "prefecture": "福岡県",
    "city": "糟屋郡新宮町",
    "town": "湊"
  },
  "8110117": {
    "zipcode": "8110117",
    "prefectureCode": "40",
    "prefectureNumber": 40,
    "prefecture": "福岡県",
    "city": "糟屋郡新宮町",
    "town": "上府"
  },
  "8110118": {
    "zipcode": "8110118",
    "prefectureCode": "40",
    "prefectureNumber": 40,
    "prefecture": "福岡県",
    "city": "糟屋郡新宮町",
    "town": "相島"
  },
  "8110119": {
    "zipcode": "8110119",
    "prefectureCode": "40",
    "prefectureNumber": 40,
    "prefecture": "福岡県",
    "city": "糟屋郡新宮町",
    "town": "緑ケ浜"
  },
  "8110120": {
    "zipcode": "8110120",
    "prefectureCode": "40",
    "prefectureNumber": 40,
    "prefecture": "福岡県",
    "city": "糟屋郡新宮町",
    "town": "中央駅前"
  },
  "8110121": {
    "zipcode": "8110121",
    "prefectureCode": "40",
    "prefectureNumber": 40,
    "prefecture": "福岡県",
    "city": "糟屋郡新宮町",
    "town": "美咲"
  },
  "8110122": {
    "zipcode": "8110122",
    "prefectureCode": "40",
    "prefectureNumber": 40,
    "prefecture": "福岡県",
    "city": "糟屋郡新宮町",
    "town": "杜の宮"
  },
  "8110123": {
    "zipcode": "8110123",
    "prefectureCode": "40",
    "prefectureNumber": 40,
    "prefecture": "福岡県",
    "city": "糟屋郡新宮町",
    "town": "上府北"
  },
  "8110124": {
    "zipcode": "8110124",
    "prefectureCode": "40",
    "prefectureNumber": 40,
    "prefecture": "福岡県",
    "city": "糟屋郡新宮町",
    "town": "新宮東"
  },
  "8110125": {
    "zipcode": "8110125",
    "prefectureCode": "40",
    "prefectureNumber": 40,
    "prefecture": "福岡県",
    "city": "糟屋郡新宮町",
    "town": "三代西"
  },
  "8110201": {
    "zipcode": "8110201",
    "prefectureCode": "40",
    "prefectureNumber": 40,
    "prefecture": "福岡県",
    "city": "福岡市東区",
    "town": "三苫"
  },
  "8110202": {
    "zipcode": "8110202",
    "prefectureCode": "40",
    "prefectureNumber": 40,
    "prefecture": "福岡県",
    "city": "福岡市東区",
    "town": "和白"
  },
  "8110203": {
    "zipcode": "8110203",
    "prefectureCode": "40",
    "prefectureNumber": 40,
    "prefecture": "福岡県",
    "city": "福岡市東区",
    "town": "塩浜"
  },
  "8110204": {
    "zipcode": "8110204",
    "prefectureCode": "40",
    "prefectureNumber": 40,
    "prefecture": "福岡県",
    "city": "福岡市東区",
    "town": "奈多"
  },
  "8110205": {
    "zipcode": "8110205",
    "prefectureCode": "40",
    "prefectureNumber": 40,
    "prefecture": "福岡県",
    "city": "福岡市東区",
    "town": "奈多団地"
  },
  "8110206": {
    "zipcode": "8110206",
    "prefectureCode": "40",
    "prefectureNumber": 40,
    "prefecture": "福岡県",
    "city": "福岡市東区",
    "town": "雁の巣"
  },
  "8110211": {
    "zipcode": "8110211",
    "prefectureCode": "40",
    "prefectureNumber": 40,
    "prefecture": "福岡県",
    "city": "福岡市東区",
    "town": "美和台新町"
  },
  "8110212": {
    "zipcode": "8110212",
    "prefectureCode": "40",
    "prefectureNumber": 40,
    "prefecture": "福岡県",
    "city": "福岡市東区",
    "town": "美和台"
  },
  "8110213": {
    "zipcode": "8110213",
    "prefectureCode": "40",
    "prefectureNumber": 40,
    "prefecture": "福岡県",
    "city": "福岡市東区",
    "town": "和白丘"
  },
  "8110214": {
    "zipcode": "8110214",
    "prefectureCode": "40",
    "prefectureNumber": 40,
    "prefecture": "福岡県",
    "city": "福岡市東区",
    "town": "和白東"
  },
  "8110215": {
    "zipcode": "8110215",
    "prefectureCode": "40",
    "prefectureNumber": 40,
    "prefecture": "福岡県",
    "city": "福岡市東区",
    "town": "高美台"
  },
  "8110216": {
    "zipcode": "8110216",
    "prefectureCode": "40",
    "prefectureNumber": 40,
    "prefecture": "福岡県",
    "city": "福岡市東区",
    "town": "上和白"
  },
  "8110321": {
    "zipcode": "8110321",
    "prefectureCode": "40",
    "prefectureNumber": 40,
    "prefecture": "福岡県",
    "city": "福岡市東区",
    "town": "西戸崎"
  },
  "8110322": {
    "zipcode": "8110322",
    "prefectureCode": "40",
    "prefectureNumber": 40,
    "prefecture": "福岡県",
    "city": "福岡市東区",
    "town": "大岳"
  },
  "8110323": {
    "zipcode": "8110323",
    "prefectureCode": "40",
    "prefectureNumber": 40,
    "prefecture": "福岡県",
    "city": "福岡市東区",
    "town": "志賀島"
  },
  "8110324": {
    "zipcode": "8110324",
    "prefectureCode": "40",
    "prefectureNumber": 40,
    "prefecture": "福岡県",
    "city": "福岡市東区",
    "town": "弘"
  },
  "8110325": {
    "zipcode": "8110325",
    "prefectureCode": "40",
    "prefectureNumber": 40,
    "prefecture": "福岡県",
    "city": "福岡市東区",
    "town": "勝馬"
  },
  "8111101": {
    "zipcode": "8111101",
    "prefectureCode": "40",
    "prefectureNumber": 40,
    "prefecture": "福岡県",
    "city": "福岡市早良区",
    "town": "重留"
  },
  "8111102": {
    "zipcode": "8111102",
    "prefectureCode": "40",
    "prefectureNumber": 40,
    "prefecture": "福岡県",
    "city": "福岡市早良区",
    "town": "東入部"
  },
  "8111103": {
    "zipcode": "8111103",
    "prefectureCode": "40",
    "prefectureNumber": 40,
    "prefecture": "福岡県",
    "city": "福岡市早良区",
    "town": "四箇"
  },
  "8111111": {
    "zipcode": "8111111",
    "prefectureCode": "40",
    "prefectureNumber": 40,
    "prefecture": "福岡県",
    "city": "福岡市早良区",
    "town": "脇山"
  },
  "8111112": {
    "zipcode": "8111112",
    "prefectureCode": "40",
    "prefectureNumber": 40,
    "prefecture": "福岡県",
    "city": "福岡市早良区",
    "town": "小笠木"
  },
  "8111113": {
    "zipcode": "8111113",
    "prefectureCode": "40",
    "prefectureNumber": 40,
    "prefecture": "福岡県",
    "city": "福岡市早良区",
    "town": "板屋"
  },
  "8111114": {
    "zipcode": "8111114",
    "prefectureCode": "40",
    "prefectureNumber": 40,
    "prefecture": "福岡県",
    "city": "福岡市早良区",
    "town": "椎原"
  },
  "8111121": {
    "zipcode": "8111121",
    "prefectureCode": "40",
    "prefectureNumber": 40,
    "prefecture": "福岡県",
    "city": "福岡市早良区",
    "town": "西入部"
  },
  "8111122": {
    "zipcode": "8111122",
    "prefectureCode": "40",
    "prefectureNumber": 40,
    "prefecture": "福岡県",
    "city": "福岡市早良区",
    "town": "早良"
  },
  "8111123": {
    "zipcode": "8111123",
    "prefectureCode": "40",
    "prefectureNumber": 40,
    "prefecture": "福岡県",
    "city": "福岡市早良区",
    "town": "内野"
  },
  "8111131": {
    "zipcode": "8111131",
    "prefectureCode": "40",
    "prefectureNumber": 40,
    "prefecture": "福岡県",
    "city": "福岡市早良区",
    "town": "西"
  },
  "8111132": {
    "zipcode": "8111132",
    "prefectureCode": "40",
    "prefectureNumber": 40,
    "prefecture": "福岡県",
    "city": "福岡市早良区",
    "town": "石釜"
  },
  "8111133": {
    "zipcode": "8111133",
    "prefectureCode": "40",
    "prefectureNumber": 40,
    "prefecture": "福岡県",
    "city": "福岡市早良区",
    "town": "曲渕"
  },
  "8111134": {
    "zipcode": "8111134",
    "prefectureCode": "40",
    "prefectureNumber": 40,
    "prefecture": "福岡県",
    "city": "福岡市早良区",
    "town": "飯場"
  },
  "8111200": {
    "zipcode": "8111200",
    "prefectureCode": "40",
    "prefectureNumber": 40,
    "prefecture": "福岡県",
    "city": "那珂川市",
    "town": "以下に掲載がない場合"
  },
  "8111201": {
    "zipcode": "8111201",
    "prefectureCode": "40",
    "prefectureNumber": 40,
    "prefecture": "福岡県",
    "city": "那珂川市",
    "town": "片縄"
  },
  "8111202": {
    "zipcode": "8111202",
    "prefectureCode": "40",
    "prefectureNumber": 40,
    "prefecture": "福岡県",
    "city": "那珂川市",
    "town": "片縄西"
  },
  "8111203": {
    "zipcode": "8111203",
    "prefectureCode": "40",
    "prefectureNumber": 40,
    "prefecture": "福岡県",
    "city": "那珂川市",
    "town": "片縄北"
  },
  "8111204": {
    "zipcode": "8111204",
    "prefectureCode": "40",
    "prefectureNumber": 40,
    "prefecture": "福岡県",
    "city": "那珂川市",
    "town": "片縄東"
  },
  "8111211": {
    "zipcode": "8111211",
    "prefectureCode": "40",
    "prefectureNumber": 40,
    "prefecture": "福岡県",
    "city": "那珂川市",
    "town": "今光"
  },
  "8111213": {
    "zipcode": "8111213",
    "prefectureCode": "40",
    "prefectureNumber": 40,
    "prefecture": "福岡県",
    "city": "那珂川市",
    "town": "中原"
  },
  "8111214": {
    "zipcode": "8111214",
    "prefectureCode": "40",
    "prefectureNumber": 40,
    "prefecture": "福岡県",
    "city": "那珂川市",
    "town": "中原東"
  },
  "8111215": {
    "zipcode": "8111215",
    "prefectureCode": "40",
    "prefectureNumber": 40,
    "prefecture": "福岡県",
    "city": "那珂川市",
    "town": "松原"
  },
  "8111216": {
    "zipcode": "8111216",
    "prefectureCode": "40",
    "prefectureNumber": 40,
    "prefecture": "福岡県",
    "city": "那珂川市",
    "town": "観晴が丘"
  },
  "8111221": {
    "zipcode": "8111221",
    "prefectureCode": "40",
    "prefectureNumber": 40,
    "prefecture": "福岡県",
    "city": "那珂川市",
    "town": "王塚台"
  },
  "8111222": {
    "zipcode": "8111222",
    "prefectureCode": "40",
    "prefectureNumber": 40,
    "prefecture": "福岡県",
    "city": "那珂川市",
    "town": "下梶原"
  },
  "8111223": {
    "zipcode": "8111223",
    "prefectureCode": "40",
    "prefectureNumber": 40,
    "prefecture": "福岡県",
    "city": "那珂川市",
    "town": "上梶原"
  },
  "8111224": {
    "zipcode": "8111224",
    "prefectureCode": "40",
    "prefectureNumber": 40,
    "prefecture": "福岡県",
    "city": "那珂川市",
    "town": "安徳"
  },
  "8111231": {
    "zipcode": "8111231",
    "prefectureCode": "40",
    "prefectureNumber": 40,
    "prefecture": "福岡県",
    "city": "那珂川市",
    "town": "不入道"
  },
  "8111232": {
    "zipcode": "8111232",
    "prefectureCode": "40",
    "prefectureNumber": 40,
    "prefecture": "福岡県",
    "city": "那珂川市",
    "town": "埋金"
  },
  "8111233": {
    "zipcode": "8111233",
    "prefectureCode": "40",
    "prefectureNumber": 40,
    "prefecture": "福岡県",
    "city": "那珂川市",
    "town": "市ノ瀬"
  },
  "8111234": {
    "zipcode": "8111234",
    "prefectureCode": "40",
    "prefectureNumber": 40,
    "prefecture": "福岡県",
    "city": "那珂川市",
    "town": "五ケ山"
  },
  "8111235": {
    "zipcode": "8111235",
    "prefectureCode": "40",
    "prefectureNumber": 40,
    "prefecture": "福岡県",
    "city": "那珂川市",
    "town": "成竹"
  },
  "8111236": {
    "zipcode": "8111236",
    "prefectureCode": "40",
    "prefectureNumber": 40,
    "prefecture": "福岡県",
    "city": "那珂川市",
    "town": "南面里"
  },
  "8111241": {
    "zipcode": "8111241",
    "prefectureCode": "40",
    "prefectureNumber": 40,
    "prefecture": "福岡県",
    "city": "那珂川市",
    "town": "後野"
  },
  "8111242": {
    "zipcode": "8111242",
    "prefectureCode": "40",
    "prefectureNumber": 40,
    "prefecture": "福岡県",
    "city": "那珂川市",
    "town": "西隈"
  },
  "8111243": {
    "zipcode": "8111243",
    "prefectureCode": "40",
    "prefectureNumber": 40,
    "prefecture": "福岡県",
    "city": "那珂川市",
    "town": "東隈"
  },
  "8111244": {
    "zipcode": "8111244",
    "prefectureCode": "40",
    "prefectureNumber": 40,
    "prefecture": "福岡県",
    "city": "那珂川市",
    "town": "山田"
  },
  "8111245": {
    "zipcode": "8111245",
    "prefectureCode": "40",
    "prefectureNumber": 40,
    "prefecture": "福岡県",
    "city": "那珂川市",
    "town": "別所"
  },
  "8111246": {
    "zipcode": "8111246",
    "prefectureCode": "40",
    "prefectureNumber": 40,
    "prefecture": "福岡県",
    "city": "那珂川市",
    "town": "西畑"
  },
  "8111251": {
    "zipcode": "8111251",
    "prefectureCode": "40",
    "prefectureNumber": 40,
    "prefecture": "福岡県",
    "city": "那珂川市",
    "town": "松木"
  },
  "8111252": {
    "zipcode": "8111252",
    "prefectureCode": "40",
    "prefectureNumber": 40,
    "prefecture": "福岡県",
    "city": "那珂川市",
    "town": "五郎丸"
  },
  "8111253": {
    "zipcode": "8111253",
    "prefectureCode": "40",
    "prefectureNumber": 40,
    "prefecture": "福岡県",
    "city": "那珂川市",
    "town": "仲"
  },
  "8111254": {
    "zipcode": "8111254",
    "prefectureCode": "40",
    "prefectureNumber": 40,
    "prefecture": "福岡県",
    "city": "那珂川市",
    "town": "道善"
  },
  "8111255": {
    "zipcode": "8111255",
    "prefectureCode": "40",
    "prefectureNumber": 40,
    "prefecture": "福岡県",
    "city": "那珂川市",
    "town": "恵子"
  },
  "8111256": {
    "zipcode": "8111256",
    "prefectureCode": "40",
    "prefectureNumber": 40,
    "prefecture": "福岡県",
    "city": "那珂川市",
    "town": "仲丸"
  },
  "8111302": {
    "zipcode": "8111302",
    "prefectureCode": "40",
    "prefectureNumber": 40,
    "prefecture": "福岡県",
    "city": "福岡市南区",
    "town": "井尻"
  },
  "8111303": {
    "zipcode": "8111303",
    "prefectureCode": "40",
    "prefectureNumber": 40,
    "prefecture": "福岡県",
    "city": "福岡市南区",
    "town": "折立町"
  },
  "8111311": {
    "zipcode": "8111311",
    "prefectureCode": "40",
    "prefectureNumber": 40,
    "prefecture": "福岡県",
    "city": "福岡市南区",
    "town": "横手"
  },
  "8111312": {
    "zipcode": "8111312",
    "prefectureCode": "40",
    "prefectureNumber": 40,
    "prefecture": "福岡県",
    "city": "福岡市南区",
    "town": "横手南町"
  },
  "8111313": {
    "zipcode": "8111313",
    "prefectureCode": "40",
    "prefectureNumber": 40,
    "prefecture": "福岡県",
    "city": "福岡市南区",
    "town": "曰佐"
  },
  "8111314": {
    "zipcode": "8111314",
    "prefectureCode": "40",
    "prefectureNumber": 40,
    "prefecture": "福岡県",
    "city": "福岡市南区",
    "town": "的場"
  },
  "8111321": {
    "zipcode": "8111321",
    "prefectureCode": "40",
    "prefectureNumber": 40,
    "prefecture": "福岡県",
    "city": "福岡市南区",
    "town": "柳瀬"
  },
  "8111322": {
    "zipcode": "8111322",
    "prefectureCode": "40",
    "prefectureNumber": 40,
    "prefecture": "福岡県",
    "city": "福岡市南区",
    "town": "弥永団地"
  },
  "8111323": {
    "zipcode": "8111323",
    "prefectureCode": "40",
    "prefectureNumber": 40,
    "prefecture": "福岡県",
    "city": "福岡市南区",
    "town": "弥永"
  },
  "8111324": {
    "zipcode": "8111324",
    "prefectureCode": "40",
    "prefectureNumber": 40,
    "prefecture": "福岡県",
    "city": "福岡市南区",
    "town": "警弥郷"
  },
  "8111343": {
    "zipcode": "8111343",
    "prefectureCode": "40",
    "prefectureNumber": 40,
    "prefecture": "福岡県",
    "city": "福岡市南区",
    "town": "和田"
  },
  "8111344": {
    "zipcode": "8111344",
    "prefectureCode": "40",
    "prefectureNumber": 40,
    "prefecture": "福岡県",
    "city": "福岡市南区",
    "town": "三宅"
  },
  "8111345": {
    "zipcode": "8111345",
    "prefectureCode": "40",
    "prefectureNumber": 40,
    "prefecture": "福岡県",
    "city": "福岡市南区",
    "town": "向新町"
  },
  "8111346": {
    "zipcode": "8111346",
    "prefectureCode": "40",
    "prefectureNumber": 40,
    "prefecture": "福岡県",
    "city": "福岡市南区",
    "town": "老司"
  },
  "8111347": {
    "zipcode": "8111347",
    "prefectureCode": "40",
    "prefectureNumber": 40,
    "prefecture": "福岡県",
    "city": "福岡市南区",
    "town": "野多目"
  },
  "8111351": {
    "zipcode": "8111351",
    "prefectureCode": "40",
    "prefectureNumber": 40,
    "prefecture": "福岡県",
    "city": "福岡市南区",
    "town": "屋形原"
  },
  "8111352": {
    "zipcode": "8111352",
    "prefectureCode": "40",
    "prefectureNumber": 40,
    "prefecture": "福岡県",
    "city": "福岡市南区",
    "town": "鶴田"
  },
  "8111353": {
    "zipcode": "8111353",
    "prefectureCode": "40",
    "prefectureNumber": 40,
    "prefecture": "福岡県",
    "city": "福岡市南区",
    "town": "柏原"
  },
  "8111354": {
    "zipcode": "8111354",
    "prefectureCode": "40",
    "prefectureNumber": 40,
    "prefecture": "福岡県",
    "city": "福岡市南区",
    "town": "大平寺"
  },
  "8111355": {
    "zipcode": "8111355",
    "prefectureCode": "40",
    "prefectureNumber": 40,
    "prefecture": "福岡県",
    "city": "福岡市南区",
    "town": "桧原"
  },
  "8111356": {
    "zipcode": "8111356",
    "prefectureCode": "40",
    "prefectureNumber": 40,
    "prefecture": "福岡県",
    "city": "福岡市南区",
    "town": "花畑"
  },
  "8111361": {
    "zipcode": "8111361",
    "prefectureCode": "40",
    "prefectureNumber": 40,
    "prefecture": "福岡県",
    "city": "福岡市南区",
    "town": "西長住"
  },
  "8111362": {
    "zipcode": "8111362",
    "prefectureCode": "40",
    "prefectureNumber": 40,
    "prefecture": "福岡県",
    "city": "福岡市南区",
    "town": "長住"
  },
  "8111364": {
    "zipcode": "8111364",
    "prefectureCode": "40",
    "prefectureNumber": 40,
    "prefecture": "福岡県",
    "city": "福岡市南区",
    "town": "中尾"
  },
  "8111365": {
    "zipcode": "8111365",
    "prefectureCode": "40",
    "prefectureNumber": 40,
    "prefecture": "福岡県",
    "city": "福岡市南区",
    "town": "皿山"
  },
  "8112100": {
    "zipcode": "8112100",
    "prefectureCode": "40",
    "prefectureNumber": 40,
    "prefecture": "福岡県",
    "city": "糟屋郡須惠町",
    "town": "以下に掲載がない場合"
  },
  "8112101": {
    "zipcode": "8112101",
    "prefectureCode": "40",
    "prefectureNumber": 40,
    "prefecture": "福岡県",
    "city": "糟屋郡宇美町",
    "town": "宇美"
  },
  "8112102": {
    "zipcode": "8112102",
    "prefectureCode": "40",
    "prefectureNumber": 40,
    "prefecture": "福岡県",
    "city": "糟屋郡宇美町",
    "town": "炭焼"
  },
  "8112103": {
    "zipcode": "8112103",
    "prefectureCode": "40",
    "prefectureNumber": 40,
    "prefecture": "福岡県",
    "city": "糟屋郡宇美町",
    "town": "四王寺坂"
  },
  "8112104": {
    "zipcode": "8112104",
    "prefectureCode": "40",
    "prefectureNumber": 40,
    "prefecture": "福岡県",
    "city": "糟屋郡宇美町",
    "town": "井野"
  },
  "8112105": {
    "zipcode": "8112105",
    "prefectureCode": "40",
    "prefectureNumber": 40,
    "prefecture": "福岡県",
    "city": "糟屋郡宇美町",
    "town": "四王寺"
  },
  "8112106": {
    "zipcode": "8112106",
    "prefectureCode": "40",
    "prefectureNumber": 40,
    "prefecture": "福岡県",
    "city": "糟屋郡宇美町",
    "town": "ひばりが丘"
  },
  "8112107": {
    "zipcode": "8112107",
    "prefectureCode": "40",
    "prefectureNumber": 40,
    "prefecture": "福岡県",
    "city": "糟屋郡宇美町",
    "town": "とびたけ"
  },
  "8112108": {
    "zipcode": "8112108",
    "prefectureCode": "40",
    "prefectureNumber": 40,
    "prefecture": "福岡県",
    "city": "糟屋郡宇美町",
    "town": "ゆりが丘"
  },
  "8112109": {
    "zipcode": "8112109",
    "prefectureCode": "40",
    "prefectureNumber": 40,
    "prefecture": "福岡県",
    "city": "糟屋郡宇美町",
    "town": "桜原"
  },
  "8112111": {
    "zipcode": "8112111",
    "prefectureCode": "40",
    "prefectureNumber": 40,
    "prefecture": "福岡県",
    "city": "糟屋郡須惠町",
    "town": "新原"
  },
  "8112112": {
    "zipcode": "8112112",
    "prefectureCode": "40",
    "prefectureNumber": 40,
    "prefecture": "福岡県",
    "city": "糟屋郡須惠町",
    "town": "植木"
  },
  "8112113": {
    "zipcode": "8112113",
    "prefectureCode": "40",
    "prefectureNumber": 40,
    "prefecture": "福岡県",
    "city": "糟屋郡須惠町",
    "town": "須惠"
  },
  "8112114": {
    "zipcode": "8112114",
    "prefectureCode": "40",
    "prefectureNumber": 40,
    "prefecture": "福岡県",
    "city": "糟屋郡須惠町",
    "town": "上須惠"
  },
  "8112115": {
    "zipcode": "8112115",
    "prefectureCode": "40",
    "prefectureNumber": 40,
    "prefecture": "福岡県",
    "city": "糟屋郡須惠町",
    "town": "佐谷"
  },
  "8112121": {
    "zipcode": "8112121",
    "prefectureCode": "40",
    "prefectureNumber": 40,
    "prefecture": "福岡県",
    "city": "糟屋郡宇美町",
    "town": "平和"
  },
  "8112122": {
    "zipcode": "8112122",
    "prefectureCode": "40",
    "prefectureNumber": 40,
    "prefecture": "福岡県",
    "city": "糟屋郡宇美町",
    "town": "明神坂"
  },
  "8112123": {
    "zipcode": "8112123",
    "prefectureCode": "40",
    "prefectureNumber": 40,
    "prefecture": "福岡県",
    "city": "糟屋郡宇美町",
    "town": "光正寺"
  },
  "8112124": {
    "zipcode": "8112124",
    "prefectureCode": "40",
    "prefectureNumber": 40,
    "prefecture": "福岡県",
    "city": "糟屋郡宇美町",
    "town": "若草"
  },
  "8112125": {
    "zipcode": "8112125",
    "prefectureCode": "40",
    "prefectureNumber": 40,
    "prefecture": "福岡県",
    "city": "糟屋郡宇美町",
    "town": "宇美東"
  },
  "8112126": {
    "zipcode": "8112126",
    "prefectureCode": "40",
    "prefectureNumber": 40,
    "prefecture": "福岡県",
    "city": "糟屋郡宇美町",
    "town": "障子岳南"
  },
  "8112127": {
    "zipcode": "8112127",
    "prefectureCode": "40",
    "prefectureNumber": 40,
    "prefecture": "福岡県",
    "city": "糟屋郡宇美町",
    "town": "障子岳"
  },
  "8112128": {
    "zipcode": "8112128",
    "prefectureCode": "40",
    "prefectureNumber": 40,
    "prefecture": "福岡県",
    "city": "糟屋郡宇美町",
    "town": "宇美中央"
  },
  "8112129": {
    "zipcode": "8112129",
    "prefectureCode": "40",
    "prefectureNumber": 40,
    "prefecture": "福岡県",
    "city": "糟屋郡宇美町",
    "town": "神武原"
  },
  "8112131": {
    "zipcode": "8112131",
    "prefectureCode": "40",
    "prefectureNumber": 40,
    "prefecture": "福岡県",
    "city": "糟屋郡宇美町",
    "town": "貴船"
  },
  "8112132": {
    "zipcode": "8112132",
    "prefectureCode": "40",
    "prefectureNumber": 40,
    "prefecture": "福岡県",
    "city": "糟屋郡宇美町",
    "town": "原田"
  },
  "8112200": {
    "zipcode": "8112200",
    "prefectureCode": "40",
    "prefectureNumber": 40,
    "prefecture": "福岡県",
    "city": "糟屋郡志免町",
    "town": "以下に掲載がない場合"
  },
  "8112201": {
    "zipcode": "8112201",
    "prefectureCode": "40",
    "prefectureNumber": 40,
    "prefecture": "福岡県",
    "city": "糟屋郡志免町",
    "town": "桜丘"
  },
  "8112202": {
    "zipcode": "8112202",
    "prefectureCode": "40",
    "prefectureNumber": 40,
    "prefecture": "福岡県",
    "city": "糟屋郡志免町",
    "town": "志免"
  },
  "8112203": {
    "zipcode": "8112203",
    "prefectureCode": "40",
    "prefectureNumber": 40,
    "prefecture": "福岡県",
    "city": "糟屋郡志免町",
    "town": "石橋台"
  },
  "8112204": {
    "zipcode": "8112204",
    "prefectureCode": "40",
    "prefectureNumber": 40,
    "prefecture": "福岡県",
    "city": "糟屋郡志免町",
    "town": "田富"
  },
  "8112205": {
    "zipcode": "8112205",
    "prefectureCode": "40",
    "prefectureNumber": 40,
    "prefecture": "福岡県",
    "city": "糟屋郡志免町",
    "town": "別府"
  },
  "8112206": {
    "zipcode": "8112206",
    "prefectureCode": "40",
    "prefectureNumber": 40,
    "prefecture": "福岡県",
    "city": "糟屋郡志免町",
    "town": "御手洗"
  },
  "8112207": {
    "zipcode": "8112207",
    "prefectureCode": "40",
    "prefectureNumber": 40,
    "prefecture": "福岡県",
    "city": "糟屋郡志免町",
    "town": "南里"
  },
  "8112208": {
    "zipcode": "8112208",
    "prefectureCode": "40",
    "prefectureNumber": 40,
    "prefecture": "福岡県",
    "city": "糟屋郡志免町",
    "town": "吉原"
  },
  "8112209": {
    "zipcode": "8112209",
    "prefectureCode": "40",
    "prefectureNumber": 40,
    "prefecture": "福岡県",
    "city": "糟屋郡志免町",
    "town": "王子"
  },
  "8112221": {
    "zipcode": "8112221",
    "prefectureCode": "40",
    "prefectureNumber": 40,
    "prefecture": "福岡県",
    "city": "糟屋郡須惠町",
    "town": "旅石"
  },
  "8112231": {
    "zipcode": "8112231",
    "prefectureCode": "40",
    "prefectureNumber": 40,
    "prefecture": "福岡県",
    "city": "糟屋郡志免町",
    "town": "別府東"
  },
  "8112232": {
    "zipcode": "8112232",
    "prefectureCode": "40",
    "prefectureNumber": 40,
    "prefecture": "福岡県",
    "city": "糟屋郡志免町",
    "town": "別府西"
  },
  "8112233": {
    "zipcode": "8112233",
    "prefectureCode": "40",
    "prefectureNumber": 40,
    "prefecture": "福岡県",
    "city": "糟屋郡志免町",
    "town": "別府北"
  },
  "8112241": {
    "zipcode": "8112241",
    "prefectureCode": "40",
    "prefectureNumber": 40,
    "prefecture": "福岡県",
    "city": "糟屋郡志免町",
    "town": "東公園台"
  },
  "8112242": {
    "zipcode": "8112242",
    "prefectureCode": "40",
    "prefectureNumber": 40,
    "prefecture": "福岡県",
    "city": "糟屋郡志免町",
    "town": "松ケ丘"
  },
  "8112243": {
    "zipcode": "8112243",
    "prefectureCode": "40",
    "prefectureNumber": 40,
    "prefecture": "福岡県",
    "city": "糟屋郡志免町",
    "town": "志免東"
  },
  "8112244": {
    "zipcode": "8112244",
    "prefectureCode": "40",
    "prefectureNumber": 40,
    "prefecture": "福岡県",
    "city": "糟屋郡志免町",
    "town": "志免中央"
  },
  "8112245": {
    "zipcode": "8112245",
    "prefectureCode": "40",
    "prefectureNumber": 40,
    "prefecture": "福岡県",
    "city": "糟屋郡志免町",
    "town": "片峰"
  },
  "8112246": {
    "zipcode": "8112246",
    "prefectureCode": "40",
    "prefectureNumber": 40,
    "prefecture": "福岡県",
    "city": "糟屋郡志免町",
    "town": "片峰中央"
  },
  "8112247": {
    "zipcode": "8112247",
    "prefectureCode": "40",
    "prefectureNumber": 40,
    "prefecture": "福岡県",
    "city": "糟屋郡志免町",
    "town": "向ケ丘"
  },
  "8112248": {
    "zipcode": "8112248",
    "prefectureCode": "40",
    "prefectureNumber": 40,
    "prefecture": "福岡県",
    "city": "糟屋郡志免町",
    "town": "坂瀬"
  },
  "8112300": {
    "zipcode": "8112300",
    "prefectureCode": "40",
    "prefectureNumber": 40,
    "prefecture": "福岡県",
    "city": "糟屋郡粕屋町",
    "town": "以下に掲載がない場合"
  },
  "8112301": {
    "zipcode": "8112301",
    "prefectureCode": "40",
    "prefectureNumber": 40,
    "prefecture": "福岡県",
    "city": "糟屋郡粕屋町",
    "town": "上大隈"
  },
  "8112302": {
    "zipcode": "8112302",
    "prefectureCode": "40",
    "prefectureNumber": 40,
    "prefecture": "福岡県",
    "city": "糟屋郡粕屋町",
    "town": "大隈"
  },
  "8112303": {
    "zipcode": "8112303",
    "prefectureCode": "40",
    "prefectureNumber": 40,
    "prefecture": "福岡県",
    "city": "糟屋郡粕屋町",
    "town": "酒殿"
  },
  "8112304": {
    "zipcode": "8112304",
    "prefectureCode": "40",
    "prefectureNumber": 40,
    "prefecture": "福岡県",
    "city": "糟屋郡粕屋町",
    "town": "仲原"
  },
  "8112305": {
    "zipcode": "8112305",
    "prefectureCode": "40",
    "prefectureNumber": 40,
    "prefecture": "福岡県",
    "city": "糟屋郡粕屋町",
    "town": "柚須"
  },
  "8112306": {
    "zipcode": "8112306",
    "prefectureCode": "40",
    "prefectureNumber": 40,
    "prefecture": "福岡県",
    "city": "糟屋郡粕屋町",
    "town": "阿恵"
  },
  "8112307": {
    "zipcode": "8112307",
    "prefectureCode": "40",
    "prefectureNumber": 40,
    "prefecture": "福岡県",
    "city": "糟屋郡粕屋町",
    "town": "原町"
  },
  "8112308": {
    "zipcode": "8112308",
    "prefectureCode": "40",
    "prefectureNumber": 40,
    "prefecture": "福岡県",
    "city": "糟屋郡粕屋町",
    "town": "内橋"
  },
  "8112309": {
    "zipcode": "8112309",
    "prefectureCode": "40",
    "prefectureNumber": 40,
    "prefecture": "福岡県",
    "city": "糟屋郡粕屋町",
    "town": "駕与丁"
  },
  "8112310": {
    "zipcode": "8112310",
    "prefectureCode": "40",
    "prefectureNumber": 40,
    "prefecture": "福岡県",
    "city": "糟屋郡粕屋町",
    "town": "花ヶ浦"
  },
  "8112311": {
    "zipcode": "8112311",
    "prefectureCode": "40",
    "prefectureNumber": 40,
    "prefecture": "福岡県",
    "city": "糟屋郡粕屋町",
    "town": "長者原"
  },
  "8112313": {
    "zipcode": "8112313",
    "prefectureCode": "40",
    "prefectureNumber": 40,
    "prefecture": "福岡県",
    "city": "糟屋郡粕屋町",
    "town": "江辻"
  },
  "8112314": {
    "zipcode": "8112314",
    "prefectureCode": "40",
    "prefectureNumber": 40,
    "prefecture": "福岡県",
    "city": "糟屋郡粕屋町",
    "town": "若宮"
  },
  "8112315": {
    "zipcode": "8112315",
    "prefectureCode": "40",
    "prefectureNumber": 40,
    "prefecture": "福岡県",
    "city": "糟屋郡粕屋町",
    "town": "甲仲原"
  },
  "8112316": {
    "zipcode": "8112316",
    "prefectureCode": "40",
    "prefectureNumber": 40,
    "prefecture": "福岡県",
    "city": "糟屋郡粕屋町",
    "town": "長者原西"
  },
  "8112317": {
    "zipcode": "8112317",
    "prefectureCode": "40",
    "prefectureNumber": 40,
    "prefecture": "福岡県",
    "city": "糟屋郡粕屋町",
    "town": "長者原東"
  },
  "8112318": {
    "zipcode": "8112318",
    "prefectureCode": "40",
    "prefectureNumber": 40,
    "prefecture": "福岡県",
    "city": "糟屋郡粕屋町",
    "town": "戸原東"
  },
  "8112319": {
    "zipcode": "8112319",
    "prefectureCode": "40",
    "prefectureNumber": 40,
    "prefecture": "福岡県",
    "city": "糟屋郡粕屋町",
    "town": "戸原西"
  },
  "8112320": {
    "zipcode": "8112320",
    "prefectureCode": "40",
    "prefectureNumber": 40,
    "prefecture": "福岡県",
    "city": "糟屋郡粕屋町",
    "town": "内橋東"
  },
  "8112321": {
    "zipcode": "8112321",
    "prefectureCode": "40",
    "prefectureNumber": 40,
    "prefecture": "福岡県",
    "city": "糟屋郡粕屋町",
    "town": "内橋西（その他）"
  },
  "8112322": {
    "zipcode": "8112322",
    "prefectureCode": "40",
    "prefectureNumber": 40,
    "prefecture": "福岡県",
    "city": "糟屋郡粕屋町",
    "town": "戸原北"
  },
  "8112400": {
    "zipcode": "8112400",
    "prefectureCode": "40",
    "prefectureNumber": 40,
    "prefecture": "福岡県",
    "city": "糟屋郡篠栗町",
    "town": "以下に掲載がない場合"
  },
  "8112401": {
    "zipcode": "8112401",
    "prefectureCode": "40",
    "prefectureNumber": 40,
    "prefecture": "福岡県",
    "city": "糟屋郡篠栗町",
    "town": "高田"
  },
  "8112402": {
    "zipcode": "8112402",
    "prefectureCode": "40",
    "prefectureNumber": 40,
    "prefecture": "福岡県",
    "city": "糟屋郡篠栗町",
    "town": "金出"
  },
  "8112403": {
    "zipcode": "8112403",
    "prefectureCode": "40",
    "prefectureNumber": 40,
    "prefecture": "福岡県",
    "city": "糟屋郡篠栗町",
    "town": "萩尾"
  },
  "8112404": {
    "zipcode": "8112404",
    "prefectureCode": "40",
    "prefectureNumber": 40,
    "prefecture": "福岡県",
    "city": "糟屋郡篠栗町",
    "town": "内住"
  },
  "8112405": {
    "zipcode": "8112405",
    "prefectureCode": "40",
    "prefectureNumber": 40,
    "prefecture": "福岡県",
    "city": "糟屋郡篠栗町",
    "town": "篠栗"
  },
  "8112411": {
    "zipcode": "8112411",
    "prefectureCode": "40",
    "prefectureNumber": 40,
    "prefecture": "福岡県",
    "city": "糟屋郡篠栗町",
    "town": "若杉"
  },
  "8112412": {
    "zipcode": "8112412",
    "prefectureCode": "40",
    "prefectureNumber": 40,
    "prefecture": "福岡県",
    "city": "糟屋郡篠栗町",
    "town": "乙犬"
  },
  "8112413": {
    "zipcode": "8112413",
    "prefectureCode": "40",
    "prefectureNumber": 40,
    "prefecture": "福岡県",
    "city": "糟屋郡篠栗町",
    "town": "尾仲"
  },
  "8112414": {
    "zipcode": "8112414",
    "prefectureCode": "40",
    "prefectureNumber": 40,
    "prefecture": "福岡県",
    "city": "糟屋郡篠栗町",
    "town": "和田"
  },
  "8112415": {
    "zipcode": "8112415",
    "prefectureCode": "40",
    "prefectureNumber": 40,
    "prefecture": "福岡県",
    "city": "糟屋郡篠栗町",
    "town": "津波黒"
  },
  "8112416": {
    "zipcode": "8112416",
    "prefectureCode": "40",
    "prefectureNumber": 40,
    "prefecture": "福岡県",
    "city": "糟屋郡篠栗町",
    "town": "田中"
  },
  "8112417": {
    "zipcode": "8112417",
    "prefectureCode": "40",
    "prefectureNumber": 40,
    "prefecture": "福岡県",
    "city": "糟屋郡篠栗町",
    "town": "中央"
  },
  "8112418": {
    "zipcode": "8112418",
    "prefectureCode": "40",
    "prefectureNumber": 40,
    "prefecture": "福岡県",
    "city": "糟屋郡篠栗町",
    "town": "彩り台"
  },
  "8112419": {
    "zipcode": "8112419",
    "prefectureCode": "40",
    "prefectureNumber": 40,
    "prefecture": "福岡県",
    "city": "糟屋郡篠栗町",
    "town": "庄"
  },
  "8112500": {
    "zipcode": "8112500",
    "prefectureCode": "40",
    "prefectureNumber": 40,
    "prefecture": "福岡県",
    "city": "糟屋郡久山町",
    "town": "以下に掲載がない場合"
  },
  "8112501": {
    "zipcode": "8112501",
    "prefectureCode": "40",
    "prefectureNumber": 40,
    "prefecture": "福岡県",
    "city": "糟屋郡久山町",
    "town": "久原"
  },
  "8112502": {
    "zipcode": "8112502",
    "prefectureCode": "40",
    "prefectureNumber": 40,
    "prefecture": "福岡県",
    "city": "糟屋郡久山町",
    "town": "山田"
  },
  "8112503": {
    "zipcode": "8112503",
    "prefectureCode": "40",
    "prefectureNumber": 40,
    "prefecture": "福岡県",
    "city": "糟屋郡久山町",
    "town": "猪野"
  },
  "8113100": {
    "zipcode": "8113100",
    "prefectureCode": "40",
    "prefectureNumber": 40,
    "prefecture": "福岡県",
    "city": "古賀市",
    "town": "以下に掲載がない場合"
  },
  "8113101": {
    "zipcode": "8113101",
    "prefectureCode": "40",
    "prefectureNumber": 40,
    "prefecture": "福岡県",
    "city": "古賀市",
    "town": "天神"
  },
  "8113102": {
    "zipcode": "8113102",
    "prefectureCode": "40",
    "prefectureNumber": 40,
    "prefecture": "福岡県",
    "city": "古賀市",
    "town": "駅東"
  },
  "8113103": {
    "zipcode": "8113103",
    "prefectureCode": "40",
    "prefectureNumber": 40,
    "prefecture": "福岡県",
    "city": "古賀市",
    "town": "中央"
  },
  "8113104": {
    "zipcode": "8113104",
    "prefectureCode": "40",
    "prefectureNumber": 40,
    "prefecture": "福岡県",
    "city": "古賀市",
    "town": "花鶴丘"
  },
  "8113105": {
    "zipcode": "8113105",
    "prefectureCode": "40",
    "prefectureNumber": 40,
    "prefecture": "福岡県",
    "city": "古賀市",
    "town": "鹿部"
  },
  "8113106": {
    "zipcode": "8113106",
    "prefectureCode": "40",
    "prefectureNumber": 40,
    "prefecture": "福岡県",
    "city": "古賀市",
    "town": "日吉"
  },
  "8113107": {
    "zipcode": "8113107",
    "prefectureCode": "40",
    "prefectureNumber": 40,
    "prefecture": "福岡県",
    "city": "古賀市",
    "town": "美明"
  },
  "8113111": {
    "zipcode": "8113111",
    "prefectureCode": "40",
    "prefectureNumber": 40,
    "prefecture": "福岡県",
    "city": "古賀市",
    "town": "花見南"
  },
  "8113112": {
    "zipcode": "8113112",
    "prefectureCode": "40",
    "prefectureNumber": 40,
    "prefecture": "福岡県",
    "city": "古賀市",
    "town": "花見東"
  },
  "8113113": {
    "zipcode": "8113113",
    "prefectureCode": "40",
    "prefectureNumber": 40,
    "prefecture": "福岡県",
    "city": "古賀市",
    "town": "千鳥"
  },
  "8113114": {
    "zipcode": "8113114",
    "prefectureCode": "40",
    "prefectureNumber": 40,
    "prefecture": "福岡県",
    "city": "古賀市",
    "town": "舞の里"
  },
  "8113115": {
    "zipcode": "8113115",
    "prefectureCode": "40",
    "prefectureNumber": 40,
    "prefecture": "福岡県",
    "city": "古賀市",
    "town": "久保"
  },
  "8113116": {
    "zipcode": "8113116",
    "prefectureCode": "40",
    "prefectureNumber": 40,
    "prefecture": "福岡県",
    "city": "古賀市",
    "town": "庄"
  },
  "8113117": {
    "zipcode": "8113117",
    "prefectureCode": "40",
    "prefectureNumber": 40,
    "prefecture": "福岡県",
    "city": "古賀市",
    "town": "今の庄"
  },
  "8113118": {
    "zipcode": "8113118",
    "prefectureCode": "40",
    "prefectureNumber": 40,
    "prefecture": "福岡県",
    "city": "古賀市",
    "town": "新久保"
  },
  "8113119": {
    "zipcode": "8113119",
    "prefectureCode": "40",
    "prefectureNumber": 40,
    "prefecture": "福岡県",
    "city": "古賀市",
    "town": "美郷"
  },
  "8113121": {
    "zipcode": "8113121",
    "prefectureCode": "40",
    "prefectureNumber": 40,
    "prefecture": "福岡県",
    "city": "古賀市",
    "town": "筵内"
  },
  "8113122": {
    "zipcode": "8113122",
    "prefectureCode": "40",
    "prefectureNumber": 40,
    "prefecture": "福岡県",
    "city": "古賀市",
    "town": "薦野"
  },
  "8113123": {
    "zipcode": "8113123",
    "prefectureCode": "40",
    "prefectureNumber": 40,
    "prefecture": "福岡県",
    "city": "古賀市",
    "town": "米多比"
  },
  "8113124": {
    "zipcode": "8113124",
    "prefectureCode": "40",
    "prefectureNumber": 40,
    "prefecture": "福岡県",
    "city": "古賀市",
    "town": "薬王寺"
  },
  "8113125": {
    "zipcode": "8113125",
    "prefectureCode": "40",
    "prefectureNumber": 40,
    "prefecture": "福岡県",
    "city": "古賀市",
    "town": "谷山"
  },
  "8113126": {
    "zipcode": "8113126",
    "prefectureCode": "40",
    "prefectureNumber": 40,
    "prefecture": "福岡県",
    "city": "古賀市",
    "town": "小山田"
  },
  "8113127": {
    "zipcode": "8113127",
    "prefectureCode": "40",
    "prefectureNumber": 40,
    "prefecture": "福岡県",
    "city": "古賀市",
    "town": "新原"
  },
  "8113128": {
    "zipcode": "8113128",
    "prefectureCode": "40",
    "prefectureNumber": 40,
    "prefecture": "福岡県",
    "city": "古賀市",
    "town": "玄望園"
  },
  "8113131": {
    "zipcode": "8113131",
    "prefectureCode": "40",
    "prefectureNumber": 40,
    "prefecture": "福岡県",
    "city": "古賀市",
    "town": "今在家"
  },
  "8113132": {
    "zipcode": "8113132",
    "prefectureCode": "40",
    "prefectureNumber": 40,
    "prefecture": "福岡県",
    "city": "古賀市",
    "town": "川原"
  },
  "8113133": {
    "zipcode": "8113133",
    "prefectureCode": "40",
    "prefectureNumber": 40,
    "prefecture": "福岡県",
    "city": "古賀市",
    "town": "青柳町"
  },
  "8113134": {
    "zipcode": "8113134",
    "prefectureCode": "40",
    "prefectureNumber": 40,
    "prefecture": "福岡県",
    "city": "古賀市",
    "town": "青柳"
  },
  "8113135": {
    "zipcode": "8113135",
    "prefectureCode": "40",
    "prefectureNumber": 40,
    "prefecture": "福岡県",
    "city": "古賀市",
    "town": "小竹"
  },
  "8113136": {
    "zipcode": "8113136",
    "prefectureCode": "40",
    "prefectureNumber": 40,
    "prefecture": "福岡県",
    "city": "古賀市",
    "town": "糸ケ浦"
  },
  "8113137": {
    "zipcode": "8113137",
    "prefectureCode": "40",
    "prefectureNumber": 40,
    "prefecture": "福岡県",
    "city": "古賀市",
    "town": "古賀"
  },
  "8113200": {
    "zipcode": "8113200",
    "prefectureCode": "40",
    "prefectureNumber": 40,
    "prefecture": "福岡県",
    "city": "福津市",
    "town": "以下に掲載がない場合"
  },
  "8113201": {
    "zipcode": "8113201",
    "prefectureCode": "40",
    "prefectureNumber": 40,
    "prefecture": "福岡県",
    "city": "福津市",
    "town": "八並"
  },
  "8113202": {
    "zipcode": "8113202",
    "prefectureCode": "40",
    "prefectureNumber": 40,
    "prefecture": "福岡県",
    "city": "福津市",
    "town": "畦町"
  },
  "8113203": {
    "zipcode": "8113203",
    "prefectureCode": "40",
    "prefectureNumber": 40,
    "prefecture": "福岡県",
    "city": "福津市",
    "town": "本木"
  },
  "8113204": {
    "zipcode": "8113204",
    "prefectureCode": "40",
    "prefectureNumber": 40,
    "prefecture": "福岡県",
    "city": "福津市",
    "town": "舎利蔵"
  },
  "8113205": {
    "zipcode": "8113205",
    "prefectureCode": "40",
    "prefectureNumber": 40,
    "prefecture": "福岡県",
    "city": "福津市",
    "town": "内殿"
  },
  "8113206": {
    "zipcode": "8113206",
    "prefectureCode": "40",
    "prefectureNumber": 40,
    "prefecture": "福岡県",
    "city": "福津市",
    "town": "久末"
  },
  "8113207": {
    "zipcode": "8113207",
    "prefectureCode": "40",
    "prefectureNumber": 40,
    "prefecture": "福岡県",
    "city": "福津市",
    "town": "上西郷"
  },
  "8113208": {
    "zipcode": "8113208",
    "prefectureCode": "40",
    "prefectureNumber": 40,
    "prefecture": "福岡県",
    "city": "福津市",
    "town": "福間駅東"
  },
  "8113209": {
    "zipcode": "8113209",
    "prefectureCode": "40",
    "prefectureNumber": 40,
    "prefecture": "福岡県",
    "city": "福津市",
    "town": "日蒔野"
  },
  "8113211": {
    "zipcode": "8113211",
    "prefectureCode": "40",
    "prefectureNumber": 40,
    "prefecture": "福岡県",
    "city": "福津市",
    "town": "有弥の里"
  },
  "8113212": {
    "zipcode": "8113212",
    "prefectureCode": "40",
    "prefectureNumber": 40,
    "prefecture": "福岡県",
    "city": "福津市",
    "town": "福間南"
  },
  "8113213": {
    "zipcode": "8113213",
    "prefectureCode": "40",
    "prefectureNumber": 40,
    "prefecture": "福岡県",
    "city": "福津市",
    "town": "福津市の次に番地がくる場合"
  },
  "8113214": {
    "zipcode": "8113214",
    "prefectureCode": "40",
    "prefectureNumber": 40,
    "prefecture": "福岡県",
    "city": "福津市",
    "town": "花見が丘"
  },
  "8113215": {
    "zipcode": "8113215",
    "prefectureCode": "40",
    "prefectureNumber": 40,
    "prefecture": "福岡県",
    "city": "福津市",
    "town": "花見の里"
  },
  "8113216": {
    "zipcode": "8113216",
    "prefectureCode": "40",
    "prefectureNumber": 40,
    "prefecture": "福岡県",
    "city": "福津市",
    "town": "花見が浜"
  },
  "8113217": {
    "zipcode": "8113217",
    "prefectureCode": "40",
    "prefectureNumber": 40,
    "prefecture": "福岡県",
    "city": "福津市",
    "town": "中央"
  },
  "8113218": {
    "zipcode": "8113218",
    "prefectureCode": "40",
    "prefectureNumber": 40,
    "prefecture": "福岡県",
    "city": "福津市",
    "town": "手光南"
  },
  "8113219": {
    "zipcode": "8113219",
    "prefectureCode": "40",
    "prefectureNumber": 40,
    "prefecture": "福岡県",
    "city": "福津市",
    "town": "西福間"
  },
  "8113220": {
    "zipcode": "8113220",
    "prefectureCode": "40",
    "prefectureNumber": 40,
    "prefecture": "福岡県",
    "city": "福津市",
    "town": "あけぼの"
  },
  "8113221": {
    "zipcode": "8113221",
    "prefectureCode": "40",
    "prefectureNumber": 40,
    "prefecture": "福岡県",
    "city": "福津市",
    "town": "若木台"
  },
  "8113222": {
    "zipcode": "8113222",
    "prefectureCode": "40",
    "prefectureNumber": 40,
    "prefecture": "福岡県",
    "city": "福津市",
    "town": "津丸"
  },
  "8113223": {
    "zipcode": "8113223",
    "prefectureCode": "40",
    "prefectureNumber": 40,
    "prefecture": "福岡県",
    "city": "福津市",
    "town": "光陽台"
  },
  "8113224": {
    "zipcode": "8113224",
    "prefectureCode": "40",
    "prefectureNumber": 40,
    "prefecture": "福岡県",
    "city": "福津市",
    "town": "手光"
  },
  "8113225": {
    "zipcode": "8113225",
    "prefectureCode": "40",
    "prefectureNumber": 40,
    "prefecture": "福岡県",
    "city": "福津市",
    "town": "東福間"
  },
  "8113226": {
    "zipcode": "8113226",
    "prefectureCode": "40",
    "prefectureNumber": 40,
    "prefecture": "福岡県",
    "city": "福津市",
    "town": "小竹"
  },
  "8113227": {
    "zipcode": "8113227",
    "prefectureCode": "40",
    "prefectureNumber": 40,
    "prefecture": "福岡県",
    "city": "福津市",
    "town": "高平"
  },
  "8113228": {
    "zipcode": "8113228",
    "prefectureCode": "40",
    "prefectureNumber": 40,
    "prefecture": "福岡県",
    "city": "福津市",
    "town": "光陽台南"
  },
  "8113229": {
    "zipcode": "8113229",
    "prefectureCode": "40",
    "prefectureNumber": 40,
    "prefecture": "福岡県",
    "city": "福津市",
    "town": "桜川"
  },
  "8113301": {
    "zipcode": "8113301",
    "prefectureCode": "40",
    "prefectureNumber": 40,
    "prefecture": "福岡県",
    "city": "福津市",
    "town": "在自"
  },
  "8113302": {
    "zipcode": "8113302",
    "prefectureCode": "40",
    "prefectureNumber": 40,
    "prefecture": "福岡県",
    "city": "福津市",
    "town": "大石"
  },
  "8113303": {
    "zipcode": "8113303",
    "prefectureCode": "40",
    "prefectureNumber": 40,
    "prefecture": "福岡県",
    "city": "福津市",
    "town": "須多田"
  },
  "8113304": {
    "zipcode": "8113304",
    "prefectureCode": "40",
    "prefectureNumber": 40,
    "prefecture": "福岡県",
    "city": "福津市",
    "town": "津屋崎"
  },
  "8113305": {
    "zipcode": "8113305",
    "prefectureCode": "40",
    "prefectureNumber": 40,
    "prefecture": "福岡県",
    "city": "福津市",
    "town": "宮司"
  },
  "8113306": {
    "zipcode": "8113306",
    "prefectureCode": "40",
    "prefectureNumber": 40,
    "prefecture": "福岡県",
    "city": "福津市",
    "town": "生家"
  },
  "8113307": {
    "zipcode": "8113307",
    "prefectureCode": "40",
    "prefectureNumber": 40,
    "prefecture": "福岡県",
    "city": "福津市",
    "town": "渡"
  },
  "8113308": {
    "zipcode": "8113308",
    "prefectureCode": "40",
    "prefectureNumber": 40,
    "prefecture": "福岡県",
    "city": "福津市",
    "town": "星ケ丘"
  },
  "8113309": {
    "zipcode": "8113309",
    "prefectureCode": "40",
    "prefectureNumber": 40,
    "prefecture": "福岡県",
    "city": "福津市",
    "town": "宮司元町"
  },
  "8113311": {
    "zipcode": "8113311",
    "prefectureCode": "40",
    "prefectureNumber": 40,
    "prefecture": "福岡県",
    "city": "福津市",
    "town": "宮司浜"
  },
  "8113312": {
    "zipcode": "8113312",
    "prefectureCode": "40",
    "prefectureNumber": 40,
    "prefecture": "福岡県",
    "city": "福津市",
    "town": "宮司ヶ丘"
  },
  "8113400": {
    "zipcode": "8113400",
    "prefectureCode": "40",
    "prefectureNumber": 40,
    "prefecture": "福岡県",
    "city": "宗像市",
    "town": "以下に掲載がない場合"
  },
  "8113401": {
    "zipcode": "8113401",
    "prefectureCode": "40",
    "prefectureNumber": 40,
    "prefecture": "福岡県",
    "city": "宗像市",
    "town": "池浦"
  },
  "8113402": {
    "zipcode": "8113402",
    "prefectureCode": "40",
    "prefectureNumber": 40,
    "prefecture": "福岡県",
    "city": "宗像市",
    "town": "河東"
  },
  "8113403": {
    "zipcode": "8113403",
    "prefectureCode": "40",
    "prefectureNumber": 40,
    "prefecture": "福岡県",
    "city": "宗像市",
    "town": "ひかりケ丘"
  },
  "8113404": {
    "zipcode": "8113404",
    "prefectureCode": "40",
    "prefectureNumber": 40,
    "prefecture": "福岡県",
    "city": "宗像市",
    "town": "城西ケ丘"
  },
  "8113405": {
    "zipcode": "8113405",
    "prefectureCode": "40",
    "prefectureNumber": 40,
    "prefecture": "福岡県",
    "city": "宗像市",
    "town": "須恵"
  },
  "8113406": {
    "zipcode": "8113406",
    "prefectureCode": "40",
    "prefectureNumber": 40,
    "prefecture": "福岡県",
    "city": "宗像市",
    "town": "稲元"
  },
  "8113407": {
    "zipcode": "8113407",
    "prefectureCode": "40",
    "prefectureNumber": 40,
    "prefecture": "福岡県",
    "city": "宗像市",
    "town": "天平台"
  },
  "8113408": {
    "zipcode": "8113408",
    "prefectureCode": "40",
    "prefectureNumber": 40,
    "prefecture": "福岡県",
    "city": "宗像市",
    "town": "樟陽台"
  },
  "8113411": {
    "zipcode": "8113411",
    "prefectureCode": "40",
    "prefectureNumber": 40,
    "prefecture": "福岡県",
    "city": "宗像市",
    "town": "山田"
  },
  "8113412": {
    "zipcode": "8113412",
    "prefectureCode": "40",
    "prefectureNumber": 40,
    "prefecture": "福岡県",
    "city": "宗像市",
    "town": "平等寺"
  },
  "8113413": {
    "zipcode": "8113413",
    "prefectureCode": "40",
    "prefectureNumber": 40,
    "prefecture": "福岡県",
    "city": "宗像市",
    "town": "曲（その他）"
  },
  "8113414": {
    "zipcode": "8113414",
    "prefectureCode": "40",
    "prefectureNumber": 40,
    "prefecture": "福岡県",
    "city": "宗像市",
    "town": "光岡"
  },
  "8113415": {
    "zipcode": "8113415",
    "prefectureCode": "40",
    "prefectureNumber": 40,
    "prefecture": "福岡県",
    "city": "宗像市",
    "town": "朝野"
  },
  "8113416": {
    "zipcode": "8113416",
    "prefectureCode": "40",
    "prefectureNumber": 40,
    "prefecture": "福岡県",
    "city": "宗像市",
    "town": "宮田"
  },
  "8113421": {
    "zipcode": "8113421",
    "prefectureCode": "40",
    "prefectureNumber": 40,
    "prefecture": "福岡県",
    "city": "宗像市",
    "town": "大穂"
  },
  "8113422": {
    "zipcode": "8113422",
    "prefectureCode": "40",
    "prefectureNumber": 40,
    "prefecture": "福岡県",
    "city": "宗像市",
    "town": "王丸"
  },
  "8113423": {
    "zipcode": "8113423",
    "prefectureCode": "40",
    "prefectureNumber": 40,
    "prefecture": "福岡県",
    "city": "宗像市",
    "town": "野坂"
  },
  "8113424": {
    "zipcode": "8113424",
    "prefectureCode": "40",
    "prefectureNumber": 40,
    "prefecture": "福岡県",
    "city": "宗像市",
    "town": "原町"
  },
  "8113425": {
    "zipcode": "8113425",
    "prefectureCode": "40",
    "prefectureNumber": 40,
    "prefecture": "福岡県",
    "city": "宗像市",
    "town": "日の里"
  },
  "8113430": {
    "zipcode": "8113430",
    "prefectureCode": "40",
    "prefectureNumber": 40,
    "prefecture": "福岡県",
    "city": "宗像市",
    "town": "平井"
  },
  "8113431": {
    "zipcode": "8113431",
    "prefectureCode": "40",
    "prefectureNumber": 40,
    "prefecture": "福岡県",
    "city": "宗像市",
    "town": "田熊"
  },
  "8113432": {
    "zipcode": "8113432",
    "prefectureCode": "40",
    "prefectureNumber": 40,
    "prefecture": "福岡県",
    "city": "宗像市",
    "town": "大井"
  },
  "8113433": {
    "zipcode": "8113433",
    "prefectureCode": "40",
    "prefectureNumber": 40,
    "prefecture": "福岡県",
    "city": "宗像市",
    "town": "大井台"
  },
  "8113434": {
    "zipcode": "8113434",
    "prefectureCode": "40",
    "prefectureNumber": 40,
    "prefecture": "福岡県",
    "city": "宗像市",
    "town": "村山田"
  },
  "8113435": {
    "zipcode": "8113435",
    "prefectureCode": "40",
    "prefectureNumber": 40,
    "prefecture": "福岡県",
    "city": "宗像市",
    "town": "用山"
  },
  "8113436": {
    "zipcode": "8113436",
    "prefectureCode": "40",
    "prefectureNumber": 40,
    "prefecture": "福岡県",
    "city": "宗像市",
    "town": "東郷"
  },
  "8113437": {
    "zipcode": "8113437",
    "prefectureCode": "40",
    "prefectureNumber": 40,
    "prefecture": "福岡県",
    "city": "宗像市",
    "town": "久原"
  },
  "8113438": {
    "zipcode": "8113438",
    "prefectureCode": "40",
    "prefectureNumber": 40,
    "prefecture": "福岡県",
    "city": "宗像市",
    "town": "和歌美台"
  },
  "8113439": {
    "zipcode": "8113439",
    "prefectureCode": "40",
    "prefectureNumber": 40,
    "prefecture": "福岡県",
    "city": "宗像市",
    "town": "三倉"
  },
  "8113440": {
    "zipcode": "8113440",
    "prefectureCode": "40",
    "prefectureNumber": 40,
    "prefecture": "福岡県",
    "city": "宗像市",
    "town": "大井南"
  },
  "8113501": {
    "zipcode": "8113501",
    "prefectureCode": "40",
    "prefectureNumber": 40,
    "prefecture": "福岡県",
    "city": "宗像市",
    "town": "神湊"
  },
  "8113502": {
    "zipcode": "8113502",
    "prefectureCode": "40",
    "prefectureNumber": 40,
    "prefecture": "福岡県",
    "city": "宗像市",
    "town": "江口"
  },
  "8113503": {
    "zipcode": "8113503",
    "prefectureCode": "40",
    "prefectureNumber": 40,
    "prefecture": "福岡県",
    "city": "宗像市",
    "town": "牟田尻"
  },
  "8113504": {
    "zipcode": "8113504",
    "prefectureCode": "40",
    "prefectureNumber": 40,
    "prefecture": "福岡県",
    "city": "宗像市",
    "town": "深田"
  },
  "8113505": {
    "zipcode": "8113505",
    "prefectureCode": "40",
    "prefectureNumber": 40,
    "prefecture": "福岡県",
    "city": "宗像市",
    "town": "田島"
  },
  "8113506": {
    "zipcode": "8113506",
    "prefectureCode": "40",
    "prefectureNumber": 40,
    "prefecture": "福岡県",
    "city": "宗像市",
    "town": "吉田"
  },
  "8113507": {
    "zipcode": "8113507",
    "prefectureCode": "40",
    "prefectureNumber": 40,
    "prefecture": "福岡県",
    "city": "宗像市",
    "town": "多禮"
  },
  "8113511": {
    "zipcode": "8113511",
    "prefectureCode": "40",
    "prefectureNumber": 40,
    "prefecture": "福岡県",
    "city": "宗像市",
    "town": "地島"
  },
  "8113512": {
    "zipcode": "8113512",
    "prefectureCode": "40",
    "prefectureNumber": 40,
    "prefecture": "福岡県",
    "city": "宗像市",
    "town": "鐘崎"
  },
  "8113513": {
    "zipcode": "8113513",
    "prefectureCode": "40",
    "prefectureNumber": 40,
    "prefecture": "福岡県",
    "city": "宗像市",
    "town": "上八"
  },
  "8113514": {
    "zipcode": "8113514",
    "prefectureCode": "40",
    "prefectureNumber": 40,
    "prefecture": "福岡県",
    "city": "宗像市",
    "town": "田野"
  },
  "8113515": {
    "zipcode": "8113515",
    "prefectureCode": "40",
    "prefectureNumber": 40,
    "prefecture": "福岡県",
    "city": "宗像市",
    "town": "池田"
  },
  "8113516": {
    "zipcode": "8113516",
    "prefectureCode": "40",
    "prefectureNumber": 40,
    "prefecture": "福岡県",
    "city": "宗像市",
    "town": "公園通り"
  },
  "8113521": {
    "zipcode": "8113521",
    "prefectureCode": "40",
    "prefectureNumber": 40,
    "prefecture": "福岡県",
    "city": "福津市",
    "town": "勝浦"
  },
  "8113522": {
    "zipcode": "8113522",
    "prefectureCode": "40",
    "prefectureNumber": 40,
    "prefecture": "福岡県",
    "city": "福津市",
    "town": "奴山"
  },
  "8113701": {
    "zipcode": "8113701",
    "prefectureCode": "40",
    "prefectureNumber": 40,
    "prefecture": "福岡県",
    "city": "宗像市",
    "town": "大島"
  },
  "8114113": {
    "zipcode": "8114113",
    "prefectureCode": "40",
    "prefectureNumber": 40,
    "prefecture": "福岡県",
    "city": "宗像市",
    "town": "曲（２５、３５）"
  },
  "8114141": {
    "zipcode": "8114141",
    "prefectureCode": "40",
    "prefectureNumber": 40,
    "prefecture": "福岡県",
    "city": "宗像市",
    "town": "大谷"
  },
  "8114142": {
    "zipcode": "8114142",
    "prefectureCode": "40",
    "prefectureNumber": 40,
    "prefecture": "福岡県",
    "city": "宗像市",
    "town": "泉ケ丘"
  },
  "8114143": {
    "zipcode": "8114143",
    "prefectureCode": "40",
    "prefectureNumber": 40,
    "prefecture": "福岡県",
    "city": "宗像市",
    "town": "三郎丸"
  },
  "8114145": {
    "zipcode": "8114145",
    "prefectureCode": "40",
    "prefectureNumber": 40,
    "prefecture": "福岡県",
    "city": "宗像市",
    "town": "陵厳寺"
  },
  "8114146": {
    "zipcode": "8114146",
    "prefectureCode": "40",
    "prefectureNumber": 40,
    "prefecture": "福岡県",
    "city": "宗像市",
    "town": "赤間"
  },
  "8114147": {
    "zipcode": "8114147",
    "prefectureCode": "40",
    "prefectureNumber": 40,
    "prefecture": "福岡県",
    "city": "宗像市",
    "town": "石丸"
  },
  "8114148": {
    "zipcode": "8114148",
    "prefectureCode": "40",
    "prefectureNumber": 40,
    "prefecture": "福岡県",
    "city": "宗像市",
    "town": "赤間文教町"
  },
  "8114151": {
    "zipcode": "8114151",
    "prefectureCode": "40",
    "prefectureNumber": 40,
    "prefecture": "福岡県",
    "city": "宗像市",
    "town": "城南ケ丘"
  },
  "8114152": {
    "zipcode": "8114152",
    "prefectureCode": "40",
    "prefectureNumber": 40,
    "prefecture": "福岡県",
    "city": "宗像市",
    "town": "武丸"
  },
  "8114153": {
    "zipcode": "8114153",
    "prefectureCode": "40",
    "prefectureNumber": 40,
    "prefecture": "福岡県",
    "city": "宗像市",
    "town": "吉留"
  },
  "8114154": {
    "zipcode": "8114154",
    "prefectureCode": "40",
    "prefectureNumber": 40,
    "prefecture": "福岡県",
    "city": "宗像市",
    "town": "冨地原"
  },
  "8114155": {
    "zipcode": "8114155",
    "prefectureCode": "40",
    "prefectureNumber": 40,
    "prefecture": "福岡県",
    "city": "宗像市",
    "town": "名残"
  },
  "8114156": {
    "zipcode": "8114156",
    "prefectureCode": "40",
    "prefectureNumber": 40,
    "prefecture": "福岡県",
    "city": "宗像市",
    "town": "自由ケ丘南"
  },
  "8114157": {
    "zipcode": "8114157",
    "prefectureCode": "40",
    "prefectureNumber": 40,
    "prefecture": "福岡県",
    "city": "宗像市",
    "town": "アスティ"
  },
  "8114161": {
    "zipcode": "8114161",
    "prefectureCode": "40",
    "prefectureNumber": 40,
    "prefecture": "福岡県",
    "city": "宗像市",
    "town": "朝町"
  },
  "8114162": {
    "zipcode": "8114162",
    "prefectureCode": "40",
    "prefectureNumber": 40,
    "prefecture": "福岡県",
    "city": "宗像市",
    "town": "青葉台"
  },
  "8114163": {
    "zipcode": "8114163",
    "prefectureCode": "40",
    "prefectureNumber": 40,
    "prefecture": "福岡県",
    "city": "宗像市",
    "town": "自由ケ丘"
  },
  "8114164": {
    "zipcode": "8114164",
    "prefectureCode": "40",
    "prefectureNumber": 40,
    "prefecture": "福岡県",
    "city": "宗像市",
    "town": "徳重"
  },
  "8114165": {
    "zipcode": "8114165",
    "prefectureCode": "40",
    "prefectureNumber": 40,
    "prefecture": "福岡県",
    "city": "宗像市",
    "town": "広陵台"
  },
  "8114166": {
    "zipcode": "8114166",
    "prefectureCode": "40",
    "prefectureNumber": 40,
    "prefecture": "福岡県",
    "city": "宗像市",
    "town": "桜"
  },
  "8114171": {
    "zipcode": "8114171",
    "prefectureCode": "40",
    "prefectureNumber": 40,
    "prefecture": "福岡県",
    "city": "宗像市",
    "town": "葉山"
  },
  "8114172": {
    "zipcode": "8114172",
    "prefectureCode": "40",
    "prefectureNumber": 40,
    "prefecture": "福岡県",
    "city": "宗像市",
    "town": "緑町"
  },
  "8114173": {
    "zipcode": "8114173",
    "prefectureCode": "40",
    "prefectureNumber": 40,
    "prefecture": "福岡県",
    "city": "宗像市",
    "town": "栄町"
  },
  "8114174": {
    "zipcode": "8114174",
    "prefectureCode": "40",
    "prefectureNumber": 40,
    "prefecture": "福岡県",
    "city": "宗像市",
    "town": "自由ケ丘西町"
  },
  "8114175": {
    "zipcode": "8114175",
    "prefectureCode": "40",
    "prefectureNumber": 40,
    "prefecture": "福岡県",
    "city": "宗像市",
    "town": "田久"
  },
  "8114176": {
    "zipcode": "8114176",
    "prefectureCode": "40",
    "prefectureNumber": 40,
    "prefecture": "福岡県",
    "city": "宗像市",
    "town": "赤間ケ丘"
  },
  "8114177": {
    "zipcode": "8114177",
    "prefectureCode": "40",
    "prefectureNumber": 40,
    "prefecture": "福岡県",
    "city": "宗像市",
    "town": "桜美台"
  },
  "8114181": {
    "zipcode": "8114181",
    "prefectureCode": "40",
    "prefectureNumber": 40,
    "prefecture": "福岡県",
    "city": "宗像市",
    "town": "城山ニュータウン"
  },
  "8114182": {
    "zipcode": "8114182",
    "prefectureCode": "40",
    "prefectureNumber": 40,
    "prefecture": "福岡県",
    "city": "宗像市",
    "town": "城ケ谷"
  },
  "8114183": {
    "zipcode": "8114183",
    "prefectureCode": "40",
    "prefectureNumber": 40,
    "prefecture": "福岡県",
    "city": "宗像市",
    "town": "土穴"
  },
  "8114184": {
    "zipcode": "8114184",
    "prefectureCode": "40",
    "prefectureNumber": 40,
    "prefecture": "福岡県",
    "city": "宗像市",
    "town": "くりえいと"
  },
  "8114185": {
    "zipcode": "8114185",
    "prefectureCode": "40",
    "prefectureNumber": 40,
    "prefecture": "福岡県",
    "city": "宗像市",
    "town": "赤間駅前"
  },
  "8114200": {
    "zipcode": "8114200",
    "prefectureCode": "40",
    "prefectureNumber": 40,
    "prefecture": "福岡県",
    "city": "遠賀郡岡垣町",
    "town": "以下に掲載がない場合"
  },
  "8114201": {
    "zipcode": "8114201",
    "prefectureCode": "40",
    "prefectureNumber": 40,
    "prefecture": "福岡県",
    "city": "遠賀郡岡垣町",
    "town": "波津"
  },
  "8114202": {
    "zipcode": "8114202",
    "prefectureCode": "40",
    "prefectureNumber": 40,
    "prefecture": "福岡県",
    "city": "遠賀郡岡垣町",
    "town": "原"
  },
  "8114203": {
    "zipcode": "8114203",
    "prefectureCode": "40",
    "prefectureNumber": 40,
    "prefecture": "福岡県",
    "city": "遠賀郡岡垣町",
    "town": "内浦"
  },
  "8114204": {
    "zipcode": "8114204",
    "prefectureCode": "40",
    "prefectureNumber": 40,
    "prefecture": "福岡県",
    "city": "遠賀郡岡垣町",
    "town": "手野"
  },
  "8114205": {
    "zipcode": "8114205",
    "prefectureCode": "40",
    "prefectureNumber": 40,
    "prefecture": "福岡県",
    "city": "遠賀郡岡垣町",
    "town": "三吉"
  },
  "8114211": {
    "zipcode": "8114211",
    "prefectureCode": "40",
    "prefectureNumber": 40,
    "prefecture": "福岡県",
    "city": "遠賀郡岡垣町",
    "town": "吉木"
  },
  "8114212": {
    "zipcode": "8114212",
    "prefectureCode": "40",
    "prefectureNumber": 40,
    "prefecture": "福岡県",
    "city": "遠賀郡岡垣町",
    "town": "黒山"
  },
  "8114213": {
    "zipcode": "8114213",
    "prefectureCode": "40",
    "prefectureNumber": 40,
    "prefecture": "福岡県",
    "city": "遠賀郡岡垣町",
    "town": "糠塚"
  },
  "8114214": {
    "zipcode": "8114214",
    "prefectureCode": "40",
    "prefectureNumber": 40,
    "prefecture": "福岡県",
    "city": "遠賀郡岡垣町",
    "town": "松ケ台"
  },
  "8114215": {
    "zipcode": "8114215",
    "prefectureCode": "40",
    "prefectureNumber": 40,
    "prefecture": "福岡県",
    "city": "遠賀郡岡垣町",
    "town": "旭台"
  },
  "8114216": {
    "zipcode": "8114216",
    "prefectureCode": "40",
    "prefectureNumber": 40,
    "prefecture": "福岡県",
    "city": "遠賀郡岡垣町",
    "town": "旭南"
  },
  "8114217": {
    "zipcode": "8114217",
    "prefectureCode": "40",
    "prefectureNumber": 40,
    "prefecture": "福岡県",
    "city": "遠賀郡岡垣町",
    "town": "桜台"
  },
  "8114218": {
    "zipcode": "8114218",
    "prefectureCode": "40",
    "prefectureNumber": 40,
    "prefecture": "福岡県",
    "city": "遠賀郡岡垣町",
    "town": "中央台"
  },
  "8114220": {
    "zipcode": "8114220",
    "prefectureCode": "40",
    "prefectureNumber": 40,
    "prefecture": "福岡県",
    "city": "遠賀郡岡垣町",
    "town": "東山田"
  },
  "8114221": {
    "zipcode": "8114221",
    "prefectureCode": "40",
    "prefectureNumber": 40,
    "prefecture": "福岡県",
    "city": "遠賀郡岡垣町",
    "town": "山田"
  },
  "8114222": {
    "zipcode": "8114222",
    "prefectureCode": "40",
    "prefectureNumber": 40,
    "prefecture": "福岡県",
    "city": "遠賀郡岡垣町",
    "town": "戸切"
  },
  "8114223": {
    "zipcode": "8114223",
    "prefectureCode": "40",
    "prefectureNumber": 40,
    "prefecture": "福岡県",
    "city": "遠賀郡岡垣町",
    "town": "山田峠"
  },
  "8114224": {
    "zipcode": "8114224",
    "prefectureCode": "40",
    "prefectureNumber": 40,
    "prefecture": "福岡県",
    "city": "遠賀郡岡垣町",
    "town": "鍋田"
  },
  "8114225": {
    "zipcode": "8114225",
    "prefectureCode": "40",
    "prefectureNumber": 40,
    "prefecture": "福岡県",
    "city": "遠賀郡岡垣町",
    "town": "東高陽"
  },
  "8114226": {
    "zipcode": "8114226",
    "prefectureCode": "40",
    "prefectureNumber": 40,
    "prefecture": "福岡県",
    "city": "遠賀郡岡垣町",
    "town": "南高陽"
  },
  "8114227": {
    "zipcode": "8114227",
    "prefectureCode": "40",
    "prefectureNumber": 40,
    "prefecture": "福岡県",
    "city": "遠賀郡岡垣町",
    "town": "高陽台"
  },
  "8114228": {
    "zipcode": "8114228",
    "prefectureCode": "40",
    "prefectureNumber": 40,
    "prefecture": "福岡県",
    "city": "遠賀郡岡垣町",
    "town": "東松原"
  },
  "8114229": {
    "zipcode": "8114229",
    "prefectureCode": "40",
    "prefectureNumber": 40,
    "prefecture": "福岡県",
    "city": "遠賀郡岡垣町",
    "town": "百合ケ丘"
  },
  "8114231": {
    "zipcode": "8114231",
    "prefectureCode": "40",
    "prefectureNumber": 40,
    "prefecture": "福岡県",
    "city": "遠賀郡岡垣町",
    "town": "海老津"
  },
  "8114232": {
    "zipcode": "8114232",
    "prefectureCode": "40",
    "prefectureNumber": 40,
    "prefecture": "福岡県",
    "city": "遠賀郡岡垣町",
    "town": "上畑"
  },
  "8114233": {
    "zipcode": "8114233",
    "prefectureCode": "40",
    "prefectureNumber": 40,
    "prefecture": "福岡県",
    "city": "遠賀郡岡垣町",
    "town": "野間"
  },
  "8114234": {
    "zipcode": "8114234",
    "prefectureCode": "40",
    "prefectureNumber": 40,
    "prefecture": "福岡県",
    "city": "遠賀郡岡垣町",
    "town": "高倉"
  },
  "8114235": {
    "zipcode": "8114235",
    "prefectureCode": "40",
    "prefectureNumber": 40,
    "prefecture": "福岡県",
    "city": "遠賀郡岡垣町",
    "town": "公園通り"
  },
  "8114236": {
    "zipcode": "8114236",
    "prefectureCode": "40",
    "prefectureNumber": 40,
    "prefecture": "福岡県",
    "city": "遠賀郡岡垣町",
    "town": "海老津駅前"
  },
  "8114237": {
    "zipcode": "8114237",
    "prefectureCode": "40",
    "prefectureNumber": 40,
    "prefecture": "福岡県",
    "city": "遠賀郡岡垣町",
    "town": "東高倉"
  },
  "8114238": {
    "zipcode": "8114238",
    "prefectureCode": "40",
    "prefectureNumber": 40,
    "prefecture": "福岡県",
    "city": "遠賀郡岡垣町",
    "town": "海老津駅南"
  },
  "8114239": {
    "zipcode": "8114239",
    "prefectureCode": "40",
    "prefectureNumber": 40,
    "prefecture": "福岡県",
    "city": "遠賀郡岡垣町",
    "town": "野間南"
  },
  "8114241": {
    "zipcode": "8114241",
    "prefectureCode": "40",
    "prefectureNumber": 40,
    "prefecture": "福岡県",
    "city": "遠賀郡岡垣町",
    "town": "吉木東"
  },
  "8114242": {
    "zipcode": "8114242",
    "prefectureCode": "40",
    "prefectureNumber": 40,
    "prefecture": "福岡県",
    "city": "遠賀郡岡垣町",
    "town": "吉木西"
  },
  "8114300": {
    "zipcode": "8114300",
    "prefectureCode": "40",
    "prefectureNumber": 40,
    "prefecture": "福岡県",
    "city": "遠賀郡遠賀町",
    "town": "以下に掲載がない場合"
  },
  "8114301": {
    "zipcode": "8114301",
    "prefectureCode": "40",
    "prefectureNumber": 40,
    "prefecture": "福岡県",
    "city": "遠賀郡遠賀町",
    "town": "島津"
  },
  "8114302": {
    "zipcode": "8114302",
    "prefectureCode": "40",
    "prefectureNumber": 40,
    "prefecture": "福岡県",
    "city": "遠賀郡遠賀町",
    "town": "広渡"
  },
  "8114303": {
    "zipcode": "8114303",
    "prefectureCode": "40",
    "prefectureNumber": 40,
    "prefecture": "福岡県",
    "city": "遠賀郡遠賀町",
    "town": "今古賀"
  },
  "8114304": {
    "zipcode": "8114304",
    "prefectureCode": "40",
    "prefectureNumber": 40,
    "prefecture": "福岡県",
    "city": "遠賀郡遠賀町",
    "town": "若松"
  },
  "8114305": {
    "zipcode": "8114305",
    "prefectureCode": "40",
    "prefectureNumber": 40,
    "prefecture": "福岡県",
    "city": "遠賀郡遠賀町",
    "town": "松の本"
  },
  "8114306": {
    "zipcode": "8114306",
    "prefectureCode": "40",
    "prefectureNumber": 40,
    "prefecture": "福岡県",
    "city": "遠賀郡遠賀町",
    "town": "旧停"
  },
  "8114307": {
    "zipcode": "8114307",
    "prefectureCode": "40",
    "prefectureNumber": 40,
    "prefecture": "福岡県",
    "city": "遠賀郡遠賀町",
    "town": "遠賀川"
  },
  "8114311": {
    "zipcode": "8114311",
    "prefectureCode": "40",
    "prefectureNumber": 40,
    "prefecture": "福岡県",
    "city": "遠賀郡遠賀町",
    "town": "老良"
  },
  "8114312": {
    "zipcode": "8114312",
    "prefectureCode": "40",
    "prefectureNumber": 40,
    "prefecture": "福岡県",
    "city": "遠賀郡遠賀町",
    "town": "浅木"
  },
  "8114313": {
    "zipcode": "8114313",
    "prefectureCode": "40",
    "prefectureNumber": 40,
    "prefecture": "福岡県",
    "city": "遠賀郡遠賀町",
    "town": "木守"
  },
  "8114321": {
    "zipcode": "8114321",
    "prefectureCode": "40",
    "prefectureNumber": 40,
    "prefecture": "福岡県",
    "city": "遠賀郡遠賀町",
    "town": "虫生津"
  },
  "8114322": {
    "zipcode": "8114322",
    "prefectureCode": "40",
    "prefectureNumber": 40,
    "prefecture": "福岡県",
    "city": "遠賀郡遠賀町",
    "town": "芙蓉"
  },
  "8114323": {
    "zipcode": "8114323",
    "prefectureCode": "40",
    "prefectureNumber": 40,
    "prefecture": "福岡県",
    "city": "遠賀郡遠賀町",
    "town": "若葉台"
  },
  "8114324": {
    "zipcode": "8114324",
    "prefectureCode": "40",
    "prefectureNumber": 40,
    "prefecture": "福岡県",
    "city": "遠賀郡遠賀町",
    "town": "虫生津南"
  },
  "8114331": {
    "zipcode": "8114331",
    "prefectureCode": "40",
    "prefectureNumber": 40,
    "prefecture": "福岡県",
    "city": "遠賀郡遠賀町",
    "town": "別府"
  },
  "8114332": {
    "zipcode": "8114332",
    "prefectureCode": "40",
    "prefectureNumber": 40,
    "prefecture": "福岡県",
    "city": "遠賀郡遠賀町",
    "town": "上別府"
  },
  "8114333": {
    "zipcode": "8114333",
    "prefectureCode": "40",
    "prefectureNumber": 40,
    "prefecture": "福岡県",
    "city": "遠賀郡遠賀町",
    "town": "島門"
  },
  "8114334": {
    "zipcode": "8114334",
    "prefectureCode": "40",
    "prefectureNumber": 40,
    "prefecture": "福岡県",
    "city": "遠賀郡遠賀町",
    "town": "蓮角"
  },
  "8114341": {
    "zipcode": "8114341",
    "prefectureCode": "40",
    "prefectureNumber": 40,
    "prefecture": "福岡県",
    "city": "遠賀郡遠賀町",
    "town": "鬼津"
  },
  "8114342": {
    "zipcode": "8114342",
    "prefectureCode": "40",
    "prefectureNumber": 40,
    "prefecture": "福岡県",
    "city": "遠賀郡遠賀町",
    "town": "尾崎"
  },
  "8114343": {
    "zipcode": "8114343",
    "prefectureCode": "40",
    "prefectureNumber": 40,
    "prefecture": "福岡県",
    "city": "遠賀郡遠賀町",
    "town": "田園"
  },
  "8115100": {
    "zipcode": "8115100",
    "prefectureCode": "42",
    "prefectureNumber": 42,
    "prefecture": "長崎県",
    "city": "壱岐市",
    "town": "以下に掲載がない場合"
  },
  "8115101": {
    "zipcode": "8115101",
    "prefectureCode": "42",
    "prefectureNumber": 42,
    "prefecture": "長崎県",
    "city": "壱岐市",
    "town": "郷ノ浦町長峰本村触"
  },
  "8115102": {
    "zipcode": "8115102",
    "prefectureCode": "42",
    "prefectureNumber": 42,
    "prefecture": "長崎県",
    "city": "壱岐市",
    "town": "郷ノ浦町長峰東触"
  },
  "8115103": {
    "zipcode": "8115103",
    "prefectureCode": "42",
    "prefectureNumber": 42,
    "prefecture": "長崎県",
    "city": "壱岐市",
    "town": "郷ノ浦町新田触"
  },
  "8115104": {
    "zipcode": "8115104",
    "prefectureCode": "42",
    "prefectureNumber": 42,
    "prefecture": "長崎県",
    "city": "壱岐市",
    "town": "郷ノ浦町里触"
  },
  "8115105": {
    "zipcode": "8115105",
    "prefectureCode": "42",
    "prefectureNumber": 42,
    "prefecture": "長崎県",
    "city": "壱岐市",
    "town": "郷ノ浦町小牧西触"
  },
  "8115106": {
    "zipcode": "8115106",
    "prefectureCode": "42",
    "prefectureNumber": 42,
    "prefecture": "長崎県",
    "city": "壱岐市",
    "town": "郷ノ浦町小牧東触"
  },
  "8115107": {
    "zipcode": "8115107",
    "prefectureCode": "42",
    "prefectureNumber": 42,
    "prefecture": "長崎県",
    "city": "壱岐市",
    "town": "郷ノ浦町有安触"
  },
  "8115111": {
    "zipcode": "8115111",
    "prefectureCode": "42",
    "prefectureNumber": 42,
    "prefecture": "長崎県",
    "city": "壱岐市",
    "town": "郷ノ浦町半城本村触"
  },
  "8115112": {
    "zipcode": "8115112",
    "prefectureCode": "42",
    "prefectureNumber": 42,
    "prefecture": "長崎県",
    "city": "壱岐市",
    "town": "郷ノ浦町大浦触"
  },
  "8115113": {
    "zipcode": "8115113",
    "prefectureCode": "42",
    "prefectureNumber": 42,
    "prefecture": "長崎県",
    "city": "壱岐市",
    "town": "郷ノ浦町牛方触"
  },
  "8115114": {
    "zipcode": "8115114",
    "prefectureCode": "42",
    "prefectureNumber": 42,
    "prefecture": "長崎県",
    "city": "壱岐市",
    "town": "郷ノ浦町柳田触"
  },
  "8115115": {
    "zipcode": "8115115",
    "prefectureCode": "42",
    "prefectureNumber": 42,
    "prefecture": "長崎県",
    "city": "壱岐市",
    "town": "郷ノ浦町木田触"
  },
  "8115116": {
    "zipcode": "8115116",
    "prefectureCode": "42",
    "prefectureNumber": 42,
    "prefecture": "長崎県",
    "city": "壱岐市",
    "town": "郷ノ浦町物部本村触"
  },
  "8115117": {
    "zipcode": "8115117",
    "prefectureCode": "42",
    "prefectureNumber": 42,
    "prefecture": "長崎県",
    "city": "壱岐市",
    "town": "郷ノ浦町田中触"
  },
  "8115121": {
    "zipcode": "8115121",
    "prefectureCode": "42",
    "prefectureNumber": 42,
    "prefecture": "長崎県",
    "city": "壱岐市",
    "town": "郷ノ浦町平人触"
  },
  "8115122": {
    "zipcode": "8115122",
    "prefectureCode": "42",
    "prefectureNumber": 42,
    "prefecture": "長崎県",
    "city": "壱岐市",
    "town": "郷ノ浦町大原触"
  },
  "8115123": {
    "zipcode": "8115123",
    "prefectureCode": "42",
    "prefectureNumber": 42,
    "prefecture": "長崎県",
    "city": "壱岐市",
    "town": "郷ノ浦町釘山触"
  },
  "8115124": {
    "zipcode": "8115124",
    "prefectureCode": "42",
    "prefectureNumber": 42,
    "prefecture": "長崎県",
    "city": "壱岐市",
    "town": "郷ノ浦町志原南触"
  },
  "8115125": {
    "zipcode": "8115125",
    "prefectureCode": "42",
    "prefectureNumber": 42,
    "prefecture": "長崎県",
    "city": "壱岐市",
    "town": "郷ノ浦町志原西触"
  },
  "8115131": {
    "zipcode": "8115131",
    "prefectureCode": "42",
    "prefectureNumber": 42,
    "prefecture": "長崎県",
    "city": "壱岐市",
    "town": "郷ノ浦町永田触"
  },
  "8115132": {
    "zipcode": "8115132",
    "prefectureCode": "42",
    "prefectureNumber": 42,
    "prefecture": "長崎県",
    "city": "壱岐市",
    "town": "郷ノ浦町東触"
  },
  "8115133": {
    "zipcode": "8115133",
    "prefectureCode": "42",
    "prefectureNumber": 42,
    "prefecture": "長崎県",
    "city": "壱岐市",
    "town": "郷ノ浦町本村触"
  },
  "8115134": {
    "zipcode": "8115134",
    "prefectureCode": "42",
    "prefectureNumber": 42,
    "prefecture": "長崎県",
    "city": "壱岐市",
    "town": "郷ノ浦町庄触"
  },
  "8115135": {
    "zipcode": "8115135",
    "prefectureCode": "42",
    "prefectureNumber": 42,
    "prefecture": "長崎県",
    "city": "壱岐市",
    "town": "郷ノ浦町郷ノ浦"
  },
  "8115136": {
    "zipcode": "8115136",
    "prefectureCode": "42",
    "prefectureNumber": 42,
    "prefecture": "長崎県",
    "city": "壱岐市",
    "town": "郷ノ浦町片原触"
  },
  "8115141": {
    "zipcode": "8115141",
    "prefectureCode": "42",
    "prefectureNumber": 42,
    "prefecture": "長崎県",
    "city": "壱岐市",
    "town": "郷ノ浦町若松触"
  },
  "8115142": {
    "zipcode": "8115142",
    "prefectureCode": "42",
    "prefectureNumber": 42,
    "prefecture": "長崎県",
    "city": "壱岐市",
    "town": "郷ノ浦町坪触"
  },
  "8115143": {
    "zipcode": "8115143",
    "prefectureCode": "42",
    "prefectureNumber": 42,
    "prefecture": "長崎県",
    "city": "壱岐市",
    "town": "郷ノ浦町初山西触"
  },
  "8115144": {
    "zipcode": "8115144",
    "prefectureCode": "42",
    "prefectureNumber": 42,
    "prefecture": "長崎県",
    "city": "壱岐市",
    "town": "郷ノ浦町初山東触"
  },
  "8115151": {
    "zipcode": "8115151",
    "prefectureCode": "42",
    "prefectureNumber": 42,
    "prefecture": "長崎県",
    "city": "壱岐市",
    "town": "郷ノ浦町渡良浦"
  },
  "8115152": {
    "zipcode": "8115152",
    "prefectureCode": "42",
    "prefectureNumber": 42,
    "prefecture": "長崎県",
    "city": "壱岐市",
    "town": "郷ノ浦町渡良南触"
  },
  "8115153": {
    "zipcode": "8115153",
    "prefectureCode": "42",
    "prefectureNumber": 42,
    "prefecture": "長崎県",
    "city": "壱岐市",
    "town": "郷ノ浦町渡良西触"
  },
  "8115154": {
    "zipcode": "8115154",
    "prefectureCode": "42",
    "prefectureNumber": 42,
    "prefecture": "長崎県",
    "city": "壱岐市",
    "town": "郷ノ浦町渡良東触"
  },
  "8115155": {
    "zipcode": "8115155",
    "prefectureCode": "42",
    "prefectureNumber": 42,
    "prefecture": "長崎県",
    "city": "壱岐市",
    "town": "郷ノ浦町麦谷触"
  },
  "8115161": {
    "zipcode": "8115161",
    "prefectureCode": "42",
    "prefectureNumber": 42,
    "prefecture": "長崎県",
    "city": "壱岐市",
    "town": "郷ノ浦町大島"
  },
  "8115162": {
    "zipcode": "8115162",
    "prefectureCode": "42",
    "prefectureNumber": 42,
    "prefecture": "長崎県",
    "city": "壱岐市",
    "town": "郷ノ浦町長島"
  },
  "8115163": {
    "zipcode": "8115163",
    "prefectureCode": "42",
    "prefectureNumber": 42,
    "prefecture": "長崎県",
    "city": "壱岐市",
    "town": "郷ノ浦町原島"
  },
  "8115201": {
    "zipcode": "8115201",
    "prefectureCode": "42",
    "prefectureNumber": 42,
    "prefecture": "長崎県",
    "city": "壱岐市",
    "town": "石田町山崎触"
  },
  "8115202": {
    "zipcode": "8115202",
    "prefectureCode": "42",
    "prefectureNumber": 42,
    "prefecture": "長崎県",
    "city": "壱岐市",
    "town": "石田町筒城仲触"
  },
  "8115203": {
    "zipcode": "8115203",
    "prefectureCode": "42",
    "prefectureNumber": 42,
    "prefecture": "長崎県",
    "city": "壱岐市",
    "town": "石田町筒城東触"
  },
  "8115204": {
    "zipcode": "8115204",
    "prefectureCode": "42",
    "prefectureNumber": 42,
    "prefecture": "長崎県",
    "city": "壱岐市",
    "town": "石田町筒城西触"
  },
  "8115211": {
    "zipcode": "8115211",
    "prefectureCode": "42",
    "prefectureNumber": 42,
    "prefecture": "長崎県",
    "city": "壱岐市",
    "town": "石田町石田東触"
  },
  "8115212": {
    "zipcode": "8115212",
    "prefectureCode": "42",
    "prefectureNumber": 42,
    "prefecture": "長崎県",
    "city": "壱岐市",
    "town": "石田町本村触"
  },
  "8115213": {
    "zipcode": "8115213",
    "prefectureCode": "42",
    "prefectureNumber": 42,
    "prefecture": "長崎県",
    "city": "壱岐市",
    "town": "石田町南触"
  },
  "8115214": {
    "zipcode": "8115214",
    "prefectureCode": "42",
    "prefectureNumber": 42,
    "prefecture": "長崎県",
    "city": "壱岐市",
    "town": "石田町印通寺浦"
  },
  "8115215": {
    "zipcode": "8115215",
    "prefectureCode": "42",
    "prefectureNumber": 42,
    "prefecture": "長崎県",
    "city": "壱岐市",
    "town": "石田町石田西触"
  },
  "8115221": {
    "zipcode": "8115221",
    "prefectureCode": "42",
    "prefectureNumber": 42,
    "prefecture": "長崎県",
    "city": "壱岐市",
    "town": "石田町池田東触"
  },
  "8115222": {
    "zipcode": "8115222",
    "prefectureCode": "42",
    "prefectureNumber": 42,
    "prefecture": "長崎県",
    "city": "壱岐市",
    "town": "石田町池田仲触"
  },
  "8115223": {
    "zipcode": "8115223",
    "prefectureCode": "42",
    "prefectureNumber": 42,
    "prefecture": "長崎県",
    "city": "壱岐市",
    "town": "石田町久喜触"
  },
  "8115224": {
    "zipcode": "8115224",
    "prefectureCode": "42",
    "prefectureNumber": 42,
    "prefecture": "長崎県",
    "city": "壱岐市",
    "town": "石田町池田西触"
  },
  "8115225": {
    "zipcode": "8115225",
    "prefectureCode": "42",
    "prefectureNumber": 42,
    "prefecture": "長崎県",
    "city": "壱岐市",
    "town": "石田町湯岳興触"
  },
  "8115226": {
    "zipcode": "8115226",
    "prefectureCode": "42",
    "prefectureNumber": 42,
    "prefecture": "長崎県",
    "city": "壱岐市",
    "town": "石田町湯岳射手吉触"
  },
  "8115301": {
    "zipcode": "8115301",
    "prefectureCode": "42",
    "prefectureNumber": 42,
    "prefecture": "長崎県",
    "city": "壱岐市",
    "town": "芦辺町芦辺浦"
  },
  "8115311": {
    "zipcode": "8115311",
    "prefectureCode": "42",
    "prefectureNumber": 42,
    "prefecture": "長崎県",
    "city": "壱岐市",
    "town": "芦辺町諸吉本村触"
  },
  "8115312": {
    "zipcode": "8115312",
    "prefectureCode": "42",
    "prefectureNumber": 42,
    "prefecture": "長崎県",
    "city": "壱岐市",
    "town": "芦辺町諸吉南触"
  },
  "8115313": {
    "zipcode": "8115313",
    "prefectureCode": "42",
    "prefectureNumber": 42,
    "prefecture": "長崎県",
    "city": "壱岐市",
    "town": "芦辺町諸吉仲触"
  },
  "8115314": {
    "zipcode": "8115314",
    "prefectureCode": "42",
    "prefectureNumber": 42,
    "prefecture": "長崎県",
    "city": "壱岐市",
    "town": "芦辺町諸吉東触"
  },
  "8115315": {
    "zipcode": "8115315",
    "prefectureCode": "42",
    "prefectureNumber": 42,
    "prefecture": "長崎県",
    "city": "壱岐市",
    "town": "芦辺町諸吉二亦触"
  },
  "8115316": {
    "zipcode": "8115316",
    "prefectureCode": "42",
    "prefectureNumber": 42,
    "prefecture": "長崎県",
    "city": "壱岐市",
    "town": "芦辺町諸吉大石触"
  },
  "8115321": {
    "zipcode": "8115321",
    "prefectureCode": "42",
    "prefectureNumber": 42,
    "prefecture": "長崎県",
    "city": "壱岐市",
    "town": "芦辺町深江栄触"
  },
  "8115322": {
    "zipcode": "8115322",
    "prefectureCode": "42",
    "prefectureNumber": 42,
    "prefecture": "長崎県",
    "city": "壱岐市",
    "town": "芦辺町深江鶴亀触"
  },
  "8115323": {
    "zipcode": "8115323",
    "prefectureCode": "42",
    "prefectureNumber": 42,
    "prefecture": "長崎県",
    "city": "壱岐市",
    "town": "芦辺町深江平触"
  },
  "8115324": {
    "zipcode": "8115324",
    "prefectureCode": "42",
    "prefectureNumber": 42,
    "prefecture": "長崎県",
    "city": "壱岐市",
    "town": "芦辺町深江東触"
  },
  "8115325": {
    "zipcode": "8115325",
    "prefectureCode": "42",
    "prefectureNumber": 42,
    "prefecture": "長崎県",
    "city": "壱岐市",
    "town": "芦辺町深江南触"
  },
  "8115326": {
    "zipcode": "8115326",
    "prefectureCode": "42",
    "prefectureNumber": 42,
    "prefecture": "長崎県",
    "city": "壱岐市",
    "town": "芦辺町深江本村触"
  },
  "8115461": {
    "zipcode": "8115461",
    "prefectureCode": "42",
    "prefectureNumber": 42,
    "prefecture": "長崎県",
    "city": "壱岐市",
    "town": "芦辺町瀬戸浦"
  },
  "8115462": {
    "zipcode": "8115462",
    "prefectureCode": "42",
    "prefectureNumber": 42,
    "prefecture": "長崎県",
    "city": "壱岐市",
    "town": "芦辺町箱崎大左右触"
  },
  "8115463": {
    "zipcode": "8115463",
    "prefectureCode": "42",
    "prefectureNumber": 42,
    "prefecture": "長崎県",
    "city": "壱岐市",
    "town": "芦辺町箱崎中山触"
  },
  "8115464": {
    "zipcode": "8115464",
    "prefectureCode": "42",
    "prefectureNumber": 42,
    "prefecture": "長崎県",
    "city": "壱岐市",
    "town": "芦辺町箱崎谷江触"
  },
  "8115465": {
    "zipcode": "8115465",
    "prefectureCode": "42",
    "prefectureNumber": 42,
    "prefecture": "長崎県",
    "city": "壱岐市",
    "town": "芦辺町箱崎釘ノ尾触"
  },
  "8115466": {
    "zipcode": "8115466",
    "prefectureCode": "42",
    "prefectureNumber": 42,
    "prefecture": "長崎県",
    "city": "壱岐市",
    "town": "芦辺町箱崎本村触"
  },
  "8115467": {
    "zipcode": "8115467",
    "prefectureCode": "42",
    "prefectureNumber": 42,
    "prefecture": "長崎県",
    "city": "壱岐市",
    "town": "芦辺町箱崎江角触"
  },
  "8115468": {
    "zipcode": "8115468",
    "prefectureCode": "42",
    "prefectureNumber": 42,
    "prefecture": "長崎県",
    "city": "壱岐市",
    "town": "芦辺町箱崎諸津触"
  },
  "8115501": {
    "zipcode": "8115501",
    "prefectureCode": "42",
    "prefectureNumber": 42,
    "prefecture": "長崎県",
    "city": "壱岐市",
    "town": "勝本町勝本浦"
  },
  "8115511": {
    "zipcode": "8115511",
    "prefectureCode": "42",
    "prefectureNumber": 42,
    "prefecture": "長崎県",
    "city": "壱岐市",
    "town": "勝本町仲触"
  },
  "8115512": {
    "zipcode": "8115512",
    "prefectureCode": "42",
    "prefectureNumber": 42,
    "prefecture": "長崎県",
    "city": "壱岐市",
    "town": "勝本町東触"
  },
  "8115513": {
    "zipcode": "8115513",
    "prefectureCode": "42",
    "prefectureNumber": 42,
    "prefecture": "長崎県",
    "city": "壱岐市",
    "town": "勝本町北触"
  },
  "8115521": {
    "zipcode": "8115521",
    "prefectureCode": "42",
    "prefectureNumber": 42,
    "prefecture": "長崎県",
    "city": "壱岐市",
    "town": "勝本町西戸触"
  },
  "8115522": {
    "zipcode": "8115522",
    "prefectureCode": "42",
    "prefectureNumber": 42,
    "prefecture": "長崎県",
    "city": "壱岐市",
    "town": "勝本町新城東触"
  },
  "8115523": {
    "zipcode": "8115523",
    "prefectureCode": "42",
    "prefectureNumber": 42,
    "prefecture": "長崎県",
    "city": "壱岐市",
    "town": "勝本町片山触"
  },
  "8115531": {
    "zipcode": "8115531",
    "prefectureCode": "42",
    "prefectureNumber": 42,
    "prefecture": "長崎県",
    "city": "壱岐市",
    "town": "勝本町坂本触"
  },
  "8115532": {
    "zipcode": "8115532",
    "prefectureCode": "42",
    "prefectureNumber": 42,
    "prefecture": "長崎県",
    "city": "壱岐市",
    "town": "勝本町大久保触"
  },
  "8115533": {
    "zipcode": "8115533",
    "prefectureCode": "42",
    "prefectureNumber": 42,
    "prefecture": "長崎県",
    "city": "壱岐市",
    "town": "勝本町新城西触"
  },
  "8115541": {
    "zipcode": "8115541",
    "prefectureCode": "42",
    "prefectureNumber": 42,
    "prefecture": "長崎県",
    "city": "壱岐市",
    "town": "勝本町本宮西触"
  },
  "8115542": {
    "zipcode": "8115542",
    "prefectureCode": "42",
    "prefectureNumber": 42,
    "prefecture": "長崎県",
    "city": "壱岐市",
    "town": "勝本町本宮東触"
  },
  "8115543": {
    "zipcode": "8115543",
    "prefectureCode": "42",
    "prefectureNumber": 42,
    "prefecture": "長崎県",
    "city": "壱岐市",
    "town": "勝本町上場触"
  },
  "8115544": {
    "zipcode": "8115544",
    "prefectureCode": "42",
    "prefectureNumber": 42,
    "prefecture": "長崎県",
    "city": "壱岐市",
    "town": "勝本町布気触"
  },
  "8115545": {
    "zipcode": "8115545",
    "prefectureCode": "42",
    "prefectureNumber": 42,
    "prefecture": "長崎県",
    "city": "壱岐市",
    "town": "勝本町本宮南触"
  },
  "8115546": {
    "zipcode": "8115546",
    "prefectureCode": "42",
    "prefectureNumber": 42,
    "prefecture": "長崎県",
    "city": "壱岐市",
    "town": "勝本町本宮仲触"
  },
  "8115551": {
    "zipcode": "8115551",
    "prefectureCode": "42",
    "prefectureNumber": 42,
    "prefecture": "長崎県",
    "city": "壱岐市",
    "town": "勝本町湯本浦"
  },
  "8115552": {
    "zipcode": "8115552",
    "prefectureCode": "42",
    "prefectureNumber": 42,
    "prefecture": "長崎県",
    "city": "壱岐市",
    "town": "勝本町百合畑触"
  },
  "8115553": {
    "zipcode": "8115553",
    "prefectureCode": "42",
    "prefectureNumber": 42,
    "prefecture": "長崎県",
    "city": "壱岐市",
    "town": "勝本町立石東触"
  },
  "8115554": {
    "zipcode": "8115554",
    "prefectureCode": "42",
    "prefectureNumber": 42,
    "prefecture": "長崎県",
    "city": "壱岐市",
    "town": "勝本町立石仲触"
  },
  "8115555": {
    "zipcode": "8115555",
    "prefectureCode": "42",
    "prefectureNumber": 42,
    "prefecture": "長崎県",
    "city": "壱岐市",
    "town": "勝本町立石南触"
  },
  "8115556": {
    "zipcode": "8115556",
    "prefectureCode": "42",
    "prefectureNumber": 42,
    "prefecture": "長崎県",
    "city": "壱岐市",
    "town": "勝本町立石西触"
  },
  "8115731": {
    "zipcode": "8115731",
    "prefectureCode": "42",
    "prefectureNumber": 42,
    "prefecture": "長崎県",
    "city": "壱岐市",
    "town": "芦辺町国分当田触"
  },
  "8115732": {
    "zipcode": "8115732",
    "prefectureCode": "42",
    "prefectureNumber": 42,
    "prefecture": "長崎県",
    "city": "壱岐市",
    "town": "芦辺町国分東触"
  },
  "8115733": {
    "zipcode": "8115733",
    "prefectureCode": "42",
    "prefectureNumber": 42,
    "prefecture": "長崎県",
    "city": "壱岐市",
    "town": "芦辺町国分川迎触"
  },
  "8115734": {
    "zipcode": "8115734",
    "prefectureCode": "42",
    "prefectureNumber": 42,
    "prefecture": "長崎県",
    "city": "壱岐市",
    "town": "芦辺町国分本村触"
  },
  "8115741": {
    "zipcode": "8115741",
    "prefectureCode": "42",
    "prefectureNumber": 42,
    "prefecture": "長崎県",
    "city": "壱岐市",
    "town": "芦辺町住吉山信触"
  },
  "8115742": {
    "zipcode": "8115742",
    "prefectureCode": "42",
    "prefectureNumber": 42,
    "prefecture": "長崎県",
    "city": "壱岐市",
    "town": "芦辺町住吉東触"
  },
  "8115743": {
    "zipcode": "8115743",
    "prefectureCode": "42",
    "prefectureNumber": 42,
    "prefecture": "長崎県",
    "city": "壱岐市",
    "town": "芦辺町住吉前触"
  },
  "8115744": {
    "zipcode": "8115744",
    "prefectureCode": "42",
    "prefectureNumber": 42,
    "prefecture": "長崎県",
    "city": "壱岐市",
    "town": "芦辺町住吉後触"
  },
  "8115751": {
    "zipcode": "8115751",
    "prefectureCode": "42",
    "prefectureNumber": 42,
    "prefecture": "長崎県",
    "city": "壱岐市",
    "town": "芦辺町中野郷仲触"
  },
  "8115752": {
    "zipcode": "8115752",
    "prefectureCode": "42",
    "prefectureNumber": 42,
    "prefecture": "長崎県",
    "city": "壱岐市",
    "town": "芦辺町中野郷東触"
  },
  "8115753": {
    "zipcode": "8115753",
    "prefectureCode": "42",
    "prefectureNumber": 42,
    "prefecture": "長崎県",
    "city": "壱岐市",
    "town": "芦辺町湯岳本村触"
  },
  "8115754": {
    "zipcode": "8115754",
    "prefectureCode": "42",
    "prefectureNumber": 42,
    "prefecture": "長崎県",
    "city": "壱岐市",
    "town": "芦辺町湯岳今坂触"
  },
  "8115755": {
    "zipcode": "8115755",
    "prefectureCode": "42",
    "prefectureNumber": 42,
    "prefecture": "長崎県",
    "city": "壱岐市",
    "town": "芦辺町湯岳興触"
  },
  "8115756": {
    "zipcode": "8115756",
    "prefectureCode": "42",
    "prefectureNumber": 42,
    "prefecture": "長崎県",
    "city": "壱岐市",
    "town": "芦辺町中野郷本村触"
  },
  "8115757": {
    "zipcode": "8115757",
    "prefectureCode": "42",
    "prefectureNumber": 42,
    "prefecture": "長崎県",
    "city": "壱岐市",
    "town": "芦辺町中野郷西触"
  }
}
