{
  "8130000": {
    "zipcode": "8130000",
    "prefectureCode": "40",
    "prefectureNumber": 40,
    "prefecture": "福岡県",
    "city": "福岡市東区",
    "town": "以下に掲載がない場合"
  },
  "8130001": {
    "zipcode": "8130001",
    "prefectureCode": "40",
    "prefectureNumber": 40,
    "prefecture": "福岡県",
    "city": "福岡市東区",
    "town": "唐原"
  },
  "8130002": {
    "zipcode": "8130002",
    "prefectureCode": "40",
    "prefectureNumber": 40,
    "prefecture": "福岡県",
    "city": "福岡市東区",
    "town": "下原"
  },
  "8130003": {
    "zipcode": "8130003",
    "prefectureCode": "40",
    "prefectureNumber": 40,
    "prefecture": "福岡県",
    "city": "福岡市東区",
    "town": "香住ヶ丘"
  },
  "8130004": {
    "zipcode": "8130004",
    "prefectureCode": "40",
    "prefectureNumber": 40,
    "prefecture": "福岡県",
    "city": "福岡市東区",
    "town": "松香台"
  },
  "8130005": {
    "zipcode": "8130005",
    "prefectureCode": "40",
    "prefectureNumber": 40,
    "prefecture": "福岡県",
    "city": "福岡市東区",
    "town": "御島崎"
  },
  "8130008": {
    "zipcode": "8130008",
    "prefectureCode": "40",
    "prefectureNumber": 40,
    "prefecture": "福岡県",
    "city": "糟屋郡粕屋町",
    "town": "内橋西（３丁目１１番５〜８号「多の津団地」）"
  },
  "8130011": {
    "zipcode": "8130011",
    "prefectureCode": "40",
    "prefectureNumber": 40,
    "prefecture": "福岡県",
    "city": "福岡市東区",
    "town": "香椎"
  },
  "8130012": {
    "zipcode": "8130012",
    "prefectureCode": "40",
    "prefectureNumber": 40,
    "prefecture": "福岡県",
    "city": "福岡市東区",
    "town": "香椎駅東"
  },
  "8130013": {
    "zipcode": "8130013",
    "prefectureCode": "40",
    "prefectureNumber": 40,
    "prefecture": "福岡県",
    "city": "福岡市東区",
    "town": "香椎駅前"
  },
  "8130014": {
    "zipcode": "8130014",
    "prefectureCode": "40",
    "prefectureNumber": 40,
    "prefecture": "福岡県",
    "city": "福岡市東区",
    "town": "香椎台"
  },
  "8130015": {
    "zipcode": "8130015",
    "prefectureCode": "40",
    "prefectureNumber": 40,
    "prefecture": "福岡県",
    "city": "福岡市東区",
    "town": "香椎団地"
  },
  "8130016": {
    "zipcode": "8130016",
    "prefectureCode": "40",
    "prefectureNumber": 40,
    "prefecture": "福岡県",
    "city": "福岡市東区",
    "town": "香椎浜"
  },
  "8130017": {
    "zipcode": "8130017",
    "prefectureCode": "40",
    "prefectureNumber": 40,
    "prefecture": "福岡県",
    "city": "福岡市東区",
    "town": "香椎照葉"
  },
  "8130018": {
    "zipcode": "8130018",
    "prefectureCode": "40",
    "prefectureNumber": 40,
    "prefecture": "福岡県",
    "city": "福岡市東区",
    "town": "香椎浜ふ頭"
  },
  "8130019": {
    "zipcode": "8130019",
    "prefectureCode": "40",
    "prefectureNumber": 40,
    "prefecture": "福岡県",
    "city": "福岡市東区",
    "town": "みなと香椎"
  },
  "8130021": {
    "zipcode": "8130021",
    "prefectureCode": "40",
    "prefectureNumber": 40,
    "prefecture": "福岡県",
    "city": "福岡市東区",
    "town": "みどりが丘"
  },
  "8130023": {
    "zipcode": "8130023",
    "prefectureCode": "40",
    "prefectureNumber": 40,
    "prefecture": "福岡県",
    "city": "福岡市東区",
    "town": "蒲田"
  },
  "8130024": {
    "zipcode": "8130024",
    "prefectureCode": "40",
    "prefectureNumber": 40,
    "prefecture": "福岡県",
    "city": "福岡市東区",
    "town": "名子"
  },
  "8130025": {
    "zipcode": "8130025",
    "prefectureCode": "40",
    "prefectureNumber": 40,
    "prefecture": "福岡県",
    "city": "福岡市東区",
    "town": "青葉"
  },
  "8130031": {
    "zipcode": "8130031",
    "prefectureCode": "40",
    "prefectureNumber": 40,
    "prefecture": "福岡県",
    "city": "福岡市東区",
    "town": "八田"
  },
  "8130032": {
    "zipcode": "8130032",
    "prefectureCode": "40",
    "prefectureNumber": 40,
    "prefecture": "福岡県",
    "city": "福岡市東区",
    "town": "土井"
  },
  "8130033": {
    "zipcode": "8130033",
    "prefectureCode": "40",
    "prefectureNumber": 40,
    "prefecture": "福岡県",
    "city": "福岡市東区",
    "town": "多々良"
  },
  "8130034": {
    "zipcode": "8130034",
    "prefectureCode": "40",
    "prefectureNumber": 40,
    "prefecture": "福岡県",
    "city": "福岡市東区",
    "town": "多の津"
  },
  "8130035": {
    "zipcode": "8130035",
    "prefectureCode": "40",
    "prefectureNumber": 40,
    "prefecture": "福岡県",
    "city": "福岡市東区",
    "town": "松崎"
  },
  "8130036": {
    "zipcode": "8130036",
    "prefectureCode": "40",
    "prefectureNumber": 40,
    "prefecture": "福岡県",
    "city": "福岡市東区",
    "town": "若宮"
  },
  "8130041": {
    "zipcode": "8130041",
    "prefectureCode": "40",
    "prefectureNumber": 40,
    "prefecture": "福岡県",
    "city": "福岡市東区",
    "town": "水谷"
  },
  "8130042": {
    "zipcode": "8130042",
    "prefectureCode": "40",
    "prefectureNumber": 40,
    "prefecture": "福岡県",
    "city": "福岡市東区",
    "town": "舞松原"
  },
  "8130043": {
    "zipcode": "8130043",
    "prefectureCode": "40",
    "prefectureNumber": 40,
    "prefecture": "福岡県",
    "city": "福岡市東区",
    "town": "名島"
  },
  "8130044": {
    "zipcode": "8130044",
    "prefectureCode": "40",
    "prefectureNumber": 40,
    "prefecture": "福岡県",
    "city": "福岡市東区",
    "town": "千早"
  },
  "8130045": {
    "zipcode": "8130045",
    "prefectureCode": "40",
    "prefectureNumber": 40,
    "prefecture": "福岡県",
    "city": "福岡市東区",
    "town": "城浜団地"
  },
  "8130062": {
    "zipcode": "8130062",
    "prefectureCode": "40",
    "prefectureNumber": 40,
    "prefecture": "福岡県",
    "city": "福岡市東区",
    "town": "松島（３〜６丁目）"
  }
}
