{
  "8140000": {
    "zipcode": "8140000",
    "prefectureCode": "40",
    "prefectureNumber": 40,
    "prefecture": "福岡県",
    "city": "福岡市早良区",
    "town": "以下に掲載がない場合"
  },
  "8140001": {
    "zipcode": "8140001",
    "prefectureCode": "40",
    "prefectureNumber": 40,
    "prefecture": "福岡県",
    "city": "福岡市早良区",
    "town": "百道浜"
  },
  "8140002": {
    "zipcode": "8140002",
    "prefectureCode": "40",
    "prefectureNumber": 40,
    "prefecture": "福岡県",
    "city": "福岡市早良区",
    "town": "西新"
  },
  "8140003": {
    "zipcode": "8140003",
    "prefectureCode": "40",
    "prefectureNumber": 40,
    "prefecture": "福岡県",
    "city": "福岡市早良区",
    "town": "城西"
  },
  "8140004": {
    "zipcode": "8140004",
    "prefectureCode": "40",
    "prefectureNumber": 40,
    "prefecture": "福岡県",
    "city": "福岡市早良区",
    "town": "曙"
  },
  "8140005": {
    "zipcode": "8140005",
    "prefectureCode": "40",
    "prefectureNumber": 40,
    "prefecture": "福岡県",
    "city": "福岡市早良区",
    "town": "祖原"
  },
  "8140006": {
    "zipcode": "8140006",
    "prefectureCode": "40",
    "prefectureNumber": 40,
    "prefecture": "福岡県",
    "city": "福岡市早良区",
    "town": "百道"
  },
  "8140011": {
    "zipcode": "8140011",
    "prefectureCode": "40",
    "prefectureNumber": 40,
    "prefecture": "福岡県",
    "city": "福岡市早良区",
    "town": "高取"
  },
  "8140012": {
    "zipcode": "8140012",
    "prefectureCode": "40",
    "prefectureNumber": 40,
    "prefecture": "福岡県",
    "city": "福岡市早良区",
    "town": "昭代"
  },
  "8140013": {
    "zipcode": "8140013",
    "prefectureCode": "40",
    "prefectureNumber": 40,
    "prefecture": "福岡県",
    "city": "福岡市早良区",
    "town": "藤崎"
  },
  "8140014": {
    "zipcode": "8140014",
    "prefectureCode": "40",
    "prefectureNumber": 40,
    "prefecture": "福岡県",
    "city": "福岡市早良区",
    "town": "弥生"
  },
  "8140015": {
    "zipcode": "8140015",
    "prefectureCode": "40",
    "prefectureNumber": 40,
    "prefecture": "福岡県",
    "city": "福岡市早良区",
    "town": "室見"
  },
  "8140021": {
    "zipcode": "8140021",
    "prefectureCode": "40",
    "prefectureNumber": 40,
    "prefecture": "福岡県",
    "city": "福岡市早良区",
    "town": "荒江"
  },
  "8140022": {
    "zipcode": "8140022",
    "prefectureCode": "40",
    "prefectureNumber": 40,
    "prefecture": "福岡県",
    "city": "福岡市早良区",
    "town": "原"
  },
  "8140023": {
    "zipcode": "8140023",
    "prefectureCode": "40",
    "prefectureNumber": 40,
    "prefecture": "福岡県",
    "city": "福岡市早良区",
    "town": "原団地"
  },
  "8140031": {
    "zipcode": "8140031",
    "prefectureCode": "40",
    "prefectureNumber": 40,
    "prefecture": "福岡県",
    "city": "福岡市早良区",
    "town": "南庄"
  },
  "8140032": {
    "zipcode": "8140032",
    "prefectureCode": "40",
    "prefectureNumber": 40,
    "prefecture": "福岡県",
    "city": "福岡市早良区",
    "town": "小田部"
  },
  "8140033": {
    "zipcode": "8140033",
    "prefectureCode": "40",
    "prefectureNumber": 40,
    "prefecture": "福岡県",
    "city": "福岡市早良区",
    "town": "有田"
  },
  "8140034": {
    "zipcode": "8140034",
    "prefectureCode": "40",
    "prefectureNumber": 40,
    "prefecture": "福岡県",
    "city": "福岡市早良区",
    "town": "有田団地"
  },
  "8140035": {
    "zipcode": "8140035",
    "prefectureCode": "40",
    "prefectureNumber": 40,
    "prefecture": "福岡県",
    "city": "福岡市早良区",
    "town": "室住団地"
  },
  "8140100": {
    "zipcode": "8140100",
    "prefectureCode": "40",
    "prefectureNumber": 40,
    "prefecture": "福岡県",
    "city": "福岡市城南区",
    "town": "以下に掲載がない場合"
  },
  "8140101": {
    "zipcode": "8140101",
    "prefectureCode": "40",
    "prefectureNumber": 40,
    "prefecture": "福岡県",
    "city": "福岡市城南区",
    "town": "荒江"
  },
  "8140102": {
    "zipcode": "8140102",
    "prefectureCode": "40",
    "prefectureNumber": 40,
    "prefecture": "福岡県",
    "city": "福岡市城南区",
    "town": "荒江団地"
  },
  "8140103": {
    "zipcode": "8140103",
    "prefectureCode": "40",
    "prefectureNumber": 40,
    "prefecture": "福岡県",
    "city": "福岡市城南区",
    "town": "鳥飼"
  },
  "8140104": {
    "zipcode": "8140104",
    "prefectureCode": "40",
    "prefectureNumber": 40,
    "prefecture": "福岡県",
    "city": "福岡市城南区",
    "town": "別府"
  },
  "8140105": {
    "zipcode": "8140105",
    "prefectureCode": "40",
    "prefectureNumber": 40,
    "prefecture": "福岡県",
    "city": "福岡市城南区",
    "town": "城西団地"
  },
  "8140106": {
    "zipcode": "8140106",
    "prefectureCode": "40",
    "prefectureNumber": 40,
    "prefecture": "福岡県",
    "city": "福岡市城南区",
    "town": "別府団地"
  },
  "8140111": {
    "zipcode": "8140111",
    "prefectureCode": "40",
    "prefectureNumber": 40,
    "prefecture": "福岡県",
    "city": "福岡市城南区",
    "town": "茶山"
  },
  "8140112": {
    "zipcode": "8140112",
    "prefectureCode": "40",
    "prefectureNumber": 40,
    "prefecture": "福岡県",
    "city": "福岡市城南区",
    "town": "友丘"
  },
  "8140113": {
    "zipcode": "8140113",
    "prefectureCode": "40",
    "prefectureNumber": 40,
    "prefecture": "福岡県",
    "city": "福岡市城南区",
    "town": "田島"
  },
  "8140114": {
    "zipcode": "8140114",
    "prefectureCode": "40",
    "prefectureNumber": 40,
    "prefecture": "福岡県",
    "city": "福岡市城南区",
    "town": "金山団地"
  },
  "8140121": {
    "zipcode": "8140121",
    "prefectureCode": "40",
    "prefectureNumber": 40,
    "prefecture": "福岡県",
    "city": "福岡市城南区",
    "town": "神松寺"
  },
  "8140122": {
    "zipcode": "8140122",
    "prefectureCode": "40",
    "prefectureNumber": 40,
    "prefecture": "福岡県",
    "city": "福岡市城南区",
    "town": "友泉亭"
  },
  "8140123": {
    "zipcode": "8140123",
    "prefectureCode": "40",
    "prefectureNumber": 40,
    "prefecture": "福岡県",
    "city": "福岡市城南区",
    "town": "長尾"
  },
  "8140131": {
    "zipcode": "8140131",
    "prefectureCode": "40",
    "prefectureNumber": 40,
    "prefecture": "福岡県",
    "city": "福岡市城南区",
    "town": "松山"
  },
  "8140132": {
    "zipcode": "8140132",
    "prefectureCode": "40",
    "prefectureNumber": 40,
    "prefecture": "福岡県",
    "city": "福岡市城南区",
    "town": "干隈"
  },
  "8140133": {
    "zipcode": "8140133",
    "prefectureCode": "40",
    "prefectureNumber": 40,
    "prefecture": "福岡県",
    "city": "福岡市城南区",
    "town": "七隈"
  },
  "8140134": {
    "zipcode": "8140134",
    "prefectureCode": "40",
    "prefectureNumber": 40,
    "prefecture": "福岡県",
    "city": "福岡市城南区",
    "town": "飯倉"
  },
  "8140141": {
    "zipcode": "8140141",
    "prefectureCode": "40",
    "prefectureNumber": 40,
    "prefecture": "福岡県",
    "city": "福岡市城南区",
    "town": "西片江"
  },
  "8140142": {
    "zipcode": "8140142",
    "prefectureCode": "40",
    "prefectureNumber": 40,
    "prefecture": "福岡県",
    "city": "福岡市城南区",
    "town": "片江"
  },
  "8140143": {
    "zipcode": "8140143",
    "prefectureCode": "40",
    "prefectureNumber": 40,
    "prefecture": "福岡県",
    "city": "福岡市城南区",
    "town": "南片江"
  },
  "8140144": {
    "zipcode": "8140144",
    "prefectureCode": "40",
    "prefectureNumber": 40,
    "prefecture": "福岡県",
    "city": "福岡市城南区",
    "town": "梅林"
  },
  "8140151": {
    "zipcode": "8140151",
    "prefectureCode": "40",
    "prefectureNumber": 40,
    "prefecture": "福岡県",
    "city": "福岡市城南区",
    "town": "堤"
  },
  "8140152": {
    "zipcode": "8140152",
    "prefectureCode": "40",
    "prefectureNumber": 40,
    "prefecture": "福岡県",
    "city": "福岡市城南区",
    "town": "堤団地"
  },
  "8140153": {
    "zipcode": "8140153",
    "prefectureCode": "40",
    "prefectureNumber": 40,
    "prefecture": "福岡県",
    "city": "福岡市城南区",
    "town": "樋井川"
  },
  "8140154": {
    "zipcode": "8140154",
    "prefectureCode": "40",
    "prefectureNumber": 40,
    "prefecture": "福岡県",
    "city": "福岡市城南区",
    "town": "宝台団地"
  },
  "8140155": {
    "zipcode": "8140155",
    "prefectureCode": "40",
    "prefectureNumber": 40,
    "prefecture": "福岡県",
    "city": "福岡市城南区",
    "town": "東油山"
  },
  "8140161": {
    "zipcode": "8140161",
    "prefectureCode": "40",
    "prefectureNumber": 40,
    "prefecture": "福岡県",
    "city": "福岡市早良区",
    "town": "飯倉"
  },
  "8140162": {
    "zipcode": "8140162",
    "prefectureCode": "40",
    "prefectureNumber": 40,
    "prefecture": "福岡県",
    "city": "福岡市早良区",
    "town": "星の原団地"
  },
  "8140163": {
    "zipcode": "8140163",
    "prefectureCode": "40",
    "prefectureNumber": 40,
    "prefecture": "福岡県",
    "city": "福岡市早良区",
    "town": "干隈"
  },
  "8140164": {
    "zipcode": "8140164",
    "prefectureCode": "40",
    "prefectureNumber": 40,
    "prefecture": "福岡県",
    "city": "福岡市早良区",
    "town": "賀茂"
  },
  "8140165": {
    "zipcode": "8140165",
    "prefectureCode": "40",
    "prefectureNumber": 40,
    "prefecture": "福岡県",
    "city": "福岡市早良区",
    "town": "次郎丸"
  },
  "8140171": {
    "zipcode": "8140171",
    "prefectureCode": "40",
    "prefectureNumber": 40,
    "prefecture": "福岡県",
    "city": "福岡市早良区",
    "town": "野芥"
  },
  "8140172": {
    "zipcode": "8140172",
    "prefectureCode": "40",
    "prefectureNumber": 40,
    "prefecture": "福岡県",
    "city": "福岡市早良区",
    "town": "梅林"
  },
  "8140173": {
    "zipcode": "8140173",
    "prefectureCode": "40",
    "prefectureNumber": 40,
    "prefecture": "福岡県",
    "city": "福岡市早良区",
    "town": "西油山"
  },
  "8140174": {
    "zipcode": "8140174",
    "prefectureCode": "40",
    "prefectureNumber": 40,
    "prefecture": "福岡県",
    "city": "福岡市早良区",
    "town": "田隈"
  },
  "8140175": {
    "zipcode": "8140175",
    "prefectureCode": "40",
    "prefectureNumber": 40,
    "prefecture": "福岡県",
    "city": "福岡市早良区",
    "town": "田村"
  },
  "8140176": {
    "zipcode": "8140176",
    "prefectureCode": "40",
    "prefectureNumber": 40,
    "prefecture": "福岡県",
    "city": "福岡市早良区",
    "town": "四箇田団地"
  },
  "8140177": {
    "zipcode": "8140177",
    "prefectureCode": "40",
    "prefectureNumber": 40,
    "prefecture": "福岡県",
    "city": "福岡市早良区",
    "town": "田"
  }
}
