{
  "8150000": {
    "zipcode": "8150000",
    "prefectureCode": "40",
    "prefectureNumber": 40,
    "prefecture": "福岡県",
    "city": "福岡市南区",
    "town": "以下に掲載がない場合"
  },
  "8150001": {
    "zipcode": "8150001",
    "prefectureCode": "40",
    "prefectureNumber": 40,
    "prefecture": "福岡県",
    "city": "福岡市南区",
    "town": "五十川"
  },
  "8150004": {
    "zipcode": "8150004",
    "prefectureCode": "40",
    "prefectureNumber": 40,
    "prefecture": "福岡県",
    "city": "福岡市南区",
    "town": "高木"
  },
  "8150031": {
    "zipcode": "8150031",
    "prefectureCode": "40",
    "prefectureNumber": 40,
    "prefecture": "福岡県",
    "city": "福岡市南区",
    "town": "清水"
  },
  "8150032": {
    "zipcode": "8150032",
    "prefectureCode": "40",
    "prefectureNumber": 40,
    "prefecture": "福岡県",
    "city": "福岡市南区",
    "town": "塩原"
  },
  "8150033": {
    "zipcode": "8150033",
    "prefectureCode": "40",
    "prefectureNumber": 40,
    "prefecture": "福岡県",
    "city": "福岡市南区",
    "town": "大橋"
  },
  "8150034": {
    "zipcode": "8150034",
    "prefectureCode": "40",
    "prefectureNumber": 40,
    "prefecture": "福岡県",
    "city": "福岡市南区",
    "town": "南大橋"
  },
  "8150035": {
    "zipcode": "8150035",
    "prefectureCode": "40",
    "prefectureNumber": 40,
    "prefecture": "福岡県",
    "city": "福岡市南区",
    "town": "向野"
  },
  "8150036": {
    "zipcode": "8150036",
    "prefectureCode": "40",
    "prefectureNumber": 40,
    "prefecture": "福岡県",
    "city": "福岡市南区",
    "town": "筑紫丘"
  },
  "8150037": {
    "zipcode": "8150037",
    "prefectureCode": "40",
    "prefectureNumber": 40,
    "prefecture": "福岡県",
    "city": "福岡市南区",
    "town": "玉川町"
  },
  "8150038": {
    "zipcode": "8150038",
    "prefectureCode": "40",
    "prefectureNumber": 40,
    "prefecture": "福岡県",
    "city": "福岡市南区",
    "town": "大橋団地"
  },
  "8150041": {
    "zipcode": "8150041",
    "prefectureCode": "40",
    "prefectureNumber": 40,
    "prefecture": "福岡県",
    "city": "福岡市南区",
    "town": "野間"
  },
  "8150042": {
    "zipcode": "8150042",
    "prefectureCode": "40",
    "prefectureNumber": 40,
    "prefecture": "福岡県",
    "city": "福岡市南区",
    "town": "若久"
  },
  "8150048": {
    "zipcode": "8150048",
    "prefectureCode": "40",
    "prefectureNumber": 40,
    "prefecture": "福岡県",
    "city": "福岡市南区",
    "town": "若久団地"
  },
  "8150063": {
    "zipcode": "8150063",
    "prefectureCode": "40",
    "prefectureNumber": 40,
    "prefecture": "福岡県",
    "city": "福岡市南区",
    "town": "柳河内"
  },
  "8150071": {
    "zipcode": "8150071",
    "prefectureCode": "40",
    "prefectureNumber": 40,
    "prefecture": "福岡県",
    "city": "福岡市南区",
    "town": "平和"
  },
  "8150072": {
    "zipcode": "8150072",
    "prefectureCode": "40",
    "prefectureNumber": 40,
    "prefecture": "福岡県",
    "city": "福岡市南区",
    "town": "多賀"
  },
  "8150073": {
    "zipcode": "8150073",
    "prefectureCode": "40",
    "prefectureNumber": 40,
    "prefecture": "福岡県",
    "city": "福岡市南区",
    "town": "大池"
  },
  "8150074": {
    "zipcode": "8150074",
    "prefectureCode": "40",
    "prefectureNumber": 40,
    "prefecture": "福岡県",
    "city": "福岡市南区",
    "town": "寺塚"
  },
  "8150075": {
    "zipcode": "8150075",
    "prefectureCode": "40",
    "prefectureNumber": 40,
    "prefecture": "福岡県",
    "city": "福岡市南区",
    "town": "長丘"
  },
  "8150081": {
    "zipcode": "8150081",
    "prefectureCode": "40",
    "prefectureNumber": 40,
    "prefecture": "福岡県",
    "city": "福岡市南区",
    "town": "那の川"
  },
  "8150082": {
    "zipcode": "8150082",
    "prefectureCode": "40",
    "prefectureNumber": 40,
    "prefecture": "福岡県",
    "city": "福岡市南区",
    "town": "大楠"
  },
  "8150083": {
    "zipcode": "8150083",
    "prefectureCode": "40",
    "prefectureNumber": 40,
    "prefecture": "福岡県",
    "city": "福岡市南区",
    "town": "高宮"
  },
  "8150084": {
    "zipcode": "8150084",
    "prefectureCode": "40",
    "prefectureNumber": 40,
    "prefecture": "福岡県",
    "city": "福岡市南区",
    "town": "市崎"
  }
}
