{
  "8180000": {
    "zipcode": "8180000",
    "prefectureCode": "40",
    "prefectureNumber": 40,
    "prefecture": "福岡県",
    "city": "筑紫野市",
    "town": "以下に掲載がない場合"
  },
  "8180001": {
    "zipcode": "8180001",
    "prefectureCode": "40",
    "prefectureNumber": 40,
    "prefecture": "福岡県",
    "city": "筑紫野市",
    "town": "柚須原"
  },
  "8180002": {
    "zipcode": "8180002",
    "prefectureCode": "40",
    "prefectureNumber": 40,
    "prefecture": "福岡県",
    "city": "筑紫野市",
    "town": "香園"
  },
  "8180003": {
    "zipcode": "8180003",
    "prefectureCode": "40",
    "prefectureNumber": 40,
    "prefecture": "福岡県",
    "city": "筑紫野市",
    "town": "山家"
  },
  "8180004": {
    "zipcode": "8180004",
    "prefectureCode": "40",
    "prefectureNumber": 40,
    "prefecture": "福岡県",
    "city": "筑紫野市",
    "town": "吉木"
  },
  "8180005": {
    "zipcode": "8180005",
    "prefectureCode": "40",
    "prefectureNumber": 40,
    "prefecture": "福岡県",
    "city": "筑紫野市",
    "town": "原"
  },
  "8180006": {
    "zipcode": "8180006",
    "prefectureCode": "40",
    "prefectureNumber": 40,
    "prefecture": "福岡県",
    "city": "筑紫野市",
    "town": "大石"
  },
  "8180007": {
    "zipcode": "8180007",
    "prefectureCode": "40",
    "prefectureNumber": 40,
    "prefecture": "福岡県",
    "city": "筑紫野市",
    "town": "本道寺"
  },
  "8180011": {
    "zipcode": "8180011",
    "prefectureCode": "40",
    "prefectureNumber": 40,
    "prefecture": "福岡県",
    "city": "筑紫野市",
    "town": "阿志岐"
  },
  "8180012": {
    "zipcode": "8180012",
    "prefectureCode": "40",
    "prefectureNumber": 40,
    "prefecture": "福岡県",
    "city": "筑紫野市",
    "town": "天山"
  },
  "8180013": {
    "zipcode": "8180013",
    "prefectureCode": "40",
    "prefectureNumber": 40,
    "prefecture": "福岡県",
    "city": "筑紫野市",
    "town": "岡田"
  },
  "8180014": {
    "zipcode": "8180014",
    "prefectureCode": "40",
    "prefectureNumber": 40,
    "prefecture": "福岡県",
    "city": "筑紫野市",
    "town": "牛島"
  },
  "8180021": {
    "zipcode": "8180021",
    "prefectureCode": "40",
    "prefectureNumber": 40,
    "prefecture": "福岡県",
    "city": "筑紫野市",
    "town": "下見"
  },
  "8180022": {
    "zipcode": "8180022",
    "prefectureCode": "40",
    "prefectureNumber": 40,
    "prefecture": "福岡県",
    "city": "筑紫野市",
    "town": "筑紫駅前通"
  },
  "8180023": {
    "zipcode": "8180023",
    "prefectureCode": "40",
    "prefectureNumber": 40,
    "prefecture": "福岡県",
    "city": "筑紫野市",
    "town": "若江"
  },
  "8180024": {
    "zipcode": "8180024",
    "prefectureCode": "40",
    "prefectureNumber": 40,
    "prefecture": "福岡県",
    "city": "筑紫野市",
    "town": "原田"
  },
  "8180025": {
    "zipcode": "8180025",
    "prefectureCode": "40",
    "prefectureNumber": 40,
    "prefecture": "福岡県",
    "city": "筑紫野市",
    "town": "筑紫"
  },
  "8180026": {
    "zipcode": "8180026",
    "prefectureCode": "40",
    "prefectureNumber": 40,
    "prefecture": "福岡県",
    "city": "筑紫野市",
    "town": "美咲"
  },
  "8180031": {
    "zipcode": "8180031",
    "prefectureCode": "40",
    "prefectureNumber": 40,
    "prefecture": "福岡県",
    "city": "筑紫野市",
    "town": "隈"
  },
  "8180032": {
    "zipcode": "8180032",
    "prefectureCode": "40",
    "prefectureNumber": 40,
    "prefecture": "福岡県",
    "city": "筑紫野市",
    "town": "西小田"
  },
  "8180034": {
    "zipcode": "8180034",
    "prefectureCode": "40",
    "prefectureNumber": 40,
    "prefecture": "福岡県",
    "city": "筑紫野市",
    "town": "美しが丘南"
  },
  "8180035": {
    "zipcode": "8180035",
    "prefectureCode": "40",
    "prefectureNumber": 40,
    "prefecture": "福岡県",
    "city": "筑紫野市",
    "town": "美しが丘北"
  },
  "8180036": {
    "zipcode": "8180036",
    "prefectureCode": "40",
    "prefectureNumber": 40,
    "prefecture": "福岡県",
    "city": "筑紫野市",
    "town": "光が丘"
  },
  "8180041": {
    "zipcode": "8180041",
    "prefectureCode": "40",
    "prefectureNumber": 40,
    "prefecture": "福岡県",
    "city": "筑紫野市",
    "town": "上古賀"
  },
  "8180042": {
    "zipcode": "8180042",
    "prefectureCode": "40",
    "prefectureNumber": 40,
    "prefecture": "福岡県",
    "city": "筑紫野市",
    "town": "立明寺"
  },
  "8180043": {
    "zipcode": "8180043",
    "prefectureCode": "40",
    "prefectureNumber": 40,
    "prefecture": "福岡県",
    "city": "筑紫野市",
    "town": "むさしケ丘"
  },
  "8180044": {
    "zipcode": "8180044",
    "prefectureCode": "40",
    "prefectureNumber": 40,
    "prefecture": "福岡県",
    "city": "筑紫野市",
    "town": "萩原"
  },
  "8180045": {
    "zipcode": "8180045",
    "prefectureCode": "40",
    "prefectureNumber": 40,
    "prefecture": "福岡県",
    "city": "筑紫野市",
    "town": "平等寺"
  },
  "8180046": {
    "zipcode": "8180046",
    "prefectureCode": "40",
    "prefectureNumber": 40,
    "prefecture": "福岡県",
    "city": "筑紫野市",
    "town": "山口"
  },
  "8180047": {
    "zipcode": "8180047",
    "prefectureCode": "40",
    "prefectureNumber": 40,
    "prefecture": "福岡県",
    "city": "筑紫野市",
    "town": "古賀"
  },
  "8180052": {
    "zipcode": "8180052",
    "prefectureCode": "40",
    "prefectureNumber": 40,
    "prefecture": "福岡県",
    "city": "筑紫野市",
    "town": "武藏"
  },
  "8180053": {
    "zipcode": "8180053",
    "prefectureCode": "40",
    "prefectureNumber": 40,
    "prefecture": "福岡県",
    "city": "筑紫野市",
    "town": "天拝坂"
  },
  "8180054": {
    "zipcode": "8180054",
    "prefectureCode": "40",
    "prefectureNumber": 40,
    "prefecture": "福岡県",
    "city": "筑紫野市",
    "town": "杉塚"
  },
  "8180056": {
    "zipcode": "8180056",
    "prefectureCode": "40",
    "prefectureNumber": 40,
    "prefecture": "福岡県",
    "city": "筑紫野市",
    "town": "二日市北"
  },
  "8180057": {
    "zipcode": "8180057",
    "prefectureCode": "40",
    "prefectureNumber": 40,
    "prefecture": "福岡県",
    "city": "筑紫野市",
    "town": "二日市南"
  },
  "8180058": {
    "zipcode": "8180058",
    "prefectureCode": "40",
    "prefectureNumber": 40,
    "prefecture": "福岡県",
    "city": "筑紫野市",
    "town": "湯町"
  },
  "8180059": {
    "zipcode": "8180059",
    "prefectureCode": "40",
    "prefectureNumber": 40,
    "prefecture": "福岡県",
    "city": "筑紫野市",
    "town": "塔原東"
  },
  "8180061": {
    "zipcode": "8180061",
    "prefectureCode": "40",
    "prefectureNumber": 40,
    "prefecture": "福岡県",
    "city": "筑紫野市",
    "town": "紫"
  },
  "8180063": {
    "zipcode": "8180063",
    "prefectureCode": "40",
    "prefectureNumber": 40,
    "prefecture": "福岡県",
    "city": "筑紫野市",
    "town": "桜台"
  },
  "8180064": {
    "zipcode": "8180064",
    "prefectureCode": "40",
    "prefectureNumber": 40,
    "prefecture": "福岡県",
    "city": "筑紫野市",
    "town": "常松"
  },
  "8180065": {
    "zipcode": "8180065",
    "prefectureCode": "40",
    "prefectureNumber": 40,
    "prefecture": "福岡県",
    "city": "筑紫野市",
    "town": "諸田"
  },
  "8180066": {
    "zipcode": "8180066",
    "prefectureCode": "40",
    "prefectureNumber": 40,
    "prefecture": "福岡県",
    "city": "筑紫野市",
    "town": "永岡"
  },
  "8180067": {
    "zipcode": "8180067",
    "prefectureCode": "40",
    "prefectureNumber": 40,
    "prefecture": "福岡県",
    "city": "筑紫野市",
    "town": "俗明院"
  },
  "8180068": {
    "zipcode": "8180068",
    "prefectureCode": "40",
    "prefectureNumber": 40,
    "prefecture": "福岡県",
    "city": "筑紫野市",
    "town": "石崎"
  },
  "8180071": {
    "zipcode": "8180071",
    "prefectureCode": "40",
    "prefectureNumber": 40,
    "prefecture": "福岡県",
    "city": "筑紫野市",
    "town": "二日市西"
  },
  "8180072": {
    "zipcode": "8180072",
    "prefectureCode": "40",
    "prefectureNumber": 40,
    "prefecture": "福岡県",
    "city": "筑紫野市",
    "town": "二日市中央"
  },
  "8180073": {
    "zipcode": "8180073",
    "prefectureCode": "40",
    "prefectureNumber": 40,
    "prefecture": "福岡県",
    "city": "筑紫野市",
    "town": "塔原西"
  },
  "8180074": {
    "zipcode": "8180074",
    "prefectureCode": "40",
    "prefectureNumber": 40,
    "prefecture": "福岡県",
    "city": "筑紫野市",
    "town": "塔原南"
  },
  "8180081": {
    "zipcode": "8180081",
    "prefectureCode": "40",
    "prefectureNumber": 40,
    "prefecture": "福岡県",
    "city": "筑紫野市",
    "town": "針摺東"
  },
  "8180082": {
    "zipcode": "8180082",
    "prefectureCode": "40",
    "prefectureNumber": 40,
    "prefecture": "福岡県",
    "city": "筑紫野市",
    "town": "針摺南"
  },
  "8180083": {
    "zipcode": "8180083",
    "prefectureCode": "40",
    "prefectureNumber": 40,
    "prefecture": "福岡県",
    "city": "筑紫野市",
    "town": "針摺中央"
  },
  "8180084": {
    "zipcode": "8180084",
    "prefectureCode": "40",
    "prefectureNumber": 40,
    "prefecture": "福岡県",
    "city": "筑紫野市",
    "town": "針摺西"
  },
  "8180085": {
    "zipcode": "8180085",
    "prefectureCode": "40",
    "prefectureNumber": 40,
    "prefecture": "福岡県",
    "city": "筑紫野市",
    "town": "針摺北"
  },
  "8180100": {
    "zipcode": "8180100",
    "prefectureCode": "40",
    "prefectureNumber": 40,
    "prefecture": "福岡県",
    "city": "太宰府市",
    "town": "以下に掲載がない場合"
  },
  "8180101": {
    "zipcode": "8180101",
    "prefectureCode": "40",
    "prefectureNumber": 40,
    "prefecture": "福岡県",
    "city": "太宰府市",
    "town": "観世音寺"
  },
  "8180102": {
    "zipcode": "8180102",
    "prefectureCode": "40",
    "prefectureNumber": 40,
    "prefecture": "福岡県",
    "city": "太宰府市",
    "town": "白川"
  },
  "8180103": {
    "zipcode": "8180103",
    "prefectureCode": "40",
    "prefectureNumber": 40,
    "prefecture": "福岡県",
    "city": "太宰府市",
    "town": "朱雀"
  },
  "8180104": {
    "zipcode": "8180104",
    "prefectureCode": "40",
    "prefectureNumber": 40,
    "prefecture": "福岡県",
    "city": "太宰府市",
    "town": "通古賀"
  },
  "8180105": {
    "zipcode": "8180105",
    "prefectureCode": "40",
    "prefectureNumber": 40,
    "prefecture": "福岡県",
    "city": "太宰府市",
    "town": "都府楼南"
  },
  "8180110": {
    "zipcode": "8180110",
    "prefectureCode": "40",
    "prefectureNumber": 40,
    "prefecture": "福岡県",
    "city": "太宰府市",
    "town": "御笠"
  },
  "8180111": {
    "zipcode": "8180111",
    "prefectureCode": "40",
    "prefectureNumber": 40,
    "prefecture": "福岡県",
    "city": "太宰府市",
    "town": "三条"
  },
  "8180114": {
    "zipcode": "8180114",
    "prefectureCode": "40",
    "prefectureNumber": 40,
    "prefecture": "福岡県",
    "city": "太宰府市",
    "town": "北谷"
  },
  "8180115": {
    "zipcode": "8180115",
    "prefectureCode": "40",
    "prefectureNumber": 40,
    "prefecture": "福岡県",
    "city": "太宰府市",
    "town": "内山"
  },
  "8180117": {
    "zipcode": "8180117",
    "prefectureCode": "40",
    "prefectureNumber": 40,
    "prefecture": "福岡県",
    "city": "太宰府市",
    "town": "宰府"
  },
  "8180118": {
    "zipcode": "8180118",
    "prefectureCode": "40",
    "prefectureNumber": 40,
    "prefecture": "福岡県",
    "city": "太宰府市",
    "town": "石坂"
  },
  "8180119": {
    "zipcode": "8180119",
    "prefectureCode": "40",
    "prefectureNumber": 40,
    "prefecture": "福岡県",
    "city": "太宰府市",
    "town": "連歌屋"
  },
  "8180121": {
    "zipcode": "8180121",
    "prefectureCode": "40",
    "prefectureNumber": 40,
    "prefecture": "福岡県",
    "city": "太宰府市",
    "town": "青山"
  },
  "8180122": {
    "zipcode": "8180122",
    "prefectureCode": "40",
    "prefectureNumber": 40,
    "prefecture": "福岡県",
    "city": "太宰府市",
    "town": "高雄"
  },
  "8180123": {
    "zipcode": "8180123",
    "prefectureCode": "40",
    "prefectureNumber": 40,
    "prefecture": "福岡県",
    "city": "太宰府市",
    "town": "梅ケ丘"
  },
  "8180124": {
    "zipcode": "8180124",
    "prefectureCode": "40",
    "prefectureNumber": 40,
    "prefecture": "福岡県",
    "city": "太宰府市",
    "town": "梅香苑"
  },
  "8180125": {
    "zipcode": "8180125",
    "prefectureCode": "40",
    "prefectureNumber": 40,
    "prefecture": "福岡県",
    "city": "太宰府市",
    "town": "五条"
  },
  "8180131": {
    "zipcode": "8180131",
    "prefectureCode": "40",
    "prefectureNumber": 40,
    "prefecture": "福岡県",
    "city": "太宰府市",
    "town": "水城"
  },
  "8180132": {
    "zipcode": "8180132",
    "prefectureCode": "40",
    "prefectureNumber": 40,
    "prefecture": "福岡県",
    "city": "太宰府市",
    "town": "国分"
  },
  "8180133": {
    "zipcode": "8180133",
    "prefectureCode": "40",
    "prefectureNumber": 40,
    "prefecture": "福岡県",
    "city": "太宰府市",
    "town": "坂本"
  },
  "8180134": {
    "zipcode": "8180134",
    "prefectureCode": "40",
    "prefectureNumber": 40,
    "prefecture": "福岡県",
    "city": "太宰府市",
    "town": "大佐野"
  },
  "8180135": {
    "zipcode": "8180135",
    "prefectureCode": "40",
    "prefectureNumber": 40,
    "prefecture": "福岡県",
    "city": "太宰府市",
    "town": "向佐野"
  },
  "8180136": {
    "zipcode": "8180136",
    "prefectureCode": "40",
    "prefectureNumber": 40,
    "prefecture": "福岡県",
    "city": "太宰府市",
    "town": "長浦台"
  },
  "8180137": {
    "zipcode": "8180137",
    "prefectureCode": "40",
    "prefectureNumber": 40,
    "prefecture": "福岡県",
    "city": "太宰府市",
    "town": "青葉台"
  },
  "8180138": {
    "zipcode": "8180138",
    "prefectureCode": "40",
    "prefectureNumber": 40,
    "prefecture": "福岡県",
    "city": "太宰府市",
    "town": "吉松"
  },
  "8180139": {
    "zipcode": "8180139",
    "prefectureCode": "40",
    "prefectureNumber": 40,
    "prefecture": "福岡県",
    "city": "太宰府市",
    "town": "宰都"
  }
}
