{
  "8190000": {
    "zipcode": "8190000",
    "prefectureCode": "40",
    "prefectureNumber": 40,
    "prefecture": "福岡県",
    "city": "福岡市西区",
    "town": "以下に掲載がない場合"
  },
  "8190001": {
    "zipcode": "8190001",
    "prefectureCode": "40",
    "prefectureNumber": 40,
    "prefecture": "福岡県",
    "city": "福岡市西区",
    "town": "小戸"
  },
  "8190002": {
    "zipcode": "8190002",
    "prefectureCode": "40",
    "prefectureNumber": 40,
    "prefecture": "福岡県",
    "city": "福岡市西区",
    "town": "姪の浜"
  },
  "8190005": {
    "zipcode": "8190005",
    "prefectureCode": "40",
    "prefectureNumber": 40,
    "prefecture": "福岡県",
    "city": "福岡市西区",
    "town": "内浜"
  },
  "8190006": {
    "zipcode": "8190006",
    "prefectureCode": "40",
    "prefectureNumber": 40,
    "prefecture": "福岡県",
    "city": "福岡市西区",
    "town": "姪浜駅南"
  },
  "8190007": {
    "zipcode": "8190007",
    "prefectureCode": "40",
    "prefectureNumber": 40,
    "prefecture": "福岡県",
    "city": "福岡市西区",
    "town": "愛宕南"
  },
  "8190011": {
    "zipcode": "8190011",
    "prefectureCode": "40",
    "prefectureNumber": 40,
    "prefecture": "福岡県",
    "city": "福岡市西区",
    "town": "小呂島"
  },
  "8190012": {
    "zipcode": "8190012",
    "prefectureCode": "40",
    "prefectureNumber": 40,
    "prefecture": "福岡県",
    "city": "福岡市西区",
    "town": "能古"
  },
  "8190013": {
    "zipcode": "8190013",
    "prefectureCode": "40",
    "prefectureNumber": 40,
    "prefecture": "福岡県",
    "city": "福岡市西区",
    "town": "愛宕浜"
  },
  "8190014": {
    "zipcode": "8190014",
    "prefectureCode": "40",
    "prefectureNumber": 40,
    "prefecture": "福岡県",
    "city": "福岡市西区",
    "town": "豊浜"
  },
  "8190015": {
    "zipcode": "8190015",
    "prefectureCode": "40",
    "prefectureNumber": 40,
    "prefecture": "福岡県",
    "city": "福岡市西区",
    "town": "愛宕"
  },
  "8190021": {
    "zipcode": "8190021",
    "prefectureCode": "40",
    "prefectureNumber": 40,
    "prefecture": "福岡県",
    "city": "福岡市西区",
    "town": "大町団地"
  },
  "8190022": {
    "zipcode": "8190022",
    "prefectureCode": "40",
    "prefectureNumber": 40,
    "prefecture": "福岡県",
    "city": "福岡市西区",
    "town": "福重"
  },
  "8190023": {
    "zipcode": "8190023",
    "prefectureCode": "40",
    "prefectureNumber": 40,
    "prefecture": "福岡県",
    "city": "福岡市西区",
    "town": "福重団地"
  },
  "8190024": {
    "zipcode": "8190024",
    "prefectureCode": "40",
    "prefectureNumber": 40,
    "prefecture": "福岡県",
    "city": "福岡市西区",
    "town": "十郎川団地"
  },
  "8190025": {
    "zipcode": "8190025",
    "prefectureCode": "40",
    "prefectureNumber": 40,
    "prefecture": "福岡県",
    "city": "福岡市西区",
    "town": "石丸"
  },
  "8190030": {
    "zipcode": "8190030",
    "prefectureCode": "40",
    "prefectureNumber": 40,
    "prefecture": "福岡県",
    "city": "福岡市西区",
    "town": "室見が丘"
  },
  "8190031": {
    "zipcode": "8190031",
    "prefectureCode": "40",
    "prefectureNumber": 40,
    "prefecture": "福岡県",
    "city": "福岡市西区",
    "town": "橋本（丁目）"
  },
  "8190032": {
    "zipcode": "8190032",
    "prefectureCode": "40",
    "prefectureNumber": 40,
    "prefecture": "福岡県",
    "city": "福岡市西区",
    "town": "戸切"
  },
  "8190033": {
    "zipcode": "8190033",
    "prefectureCode": "40",
    "prefectureNumber": 40,
    "prefecture": "福岡県",
    "city": "福岡市西区",
    "town": "橋本（大字）"
  },
  "8190034": {
    "zipcode": "8190034",
    "prefectureCode": "40",
    "prefectureNumber": 40,
    "prefecture": "福岡県",
    "city": "福岡市西区",
    "town": "田"
  },
  "8190035": {
    "zipcode": "8190035",
    "prefectureCode": "40",
    "prefectureNumber": 40,
    "prefecture": "福岡県",
    "city": "福岡市西区",
    "town": "金武"
  },
  "8190036": {
    "zipcode": "8190036",
    "prefectureCode": "40",
    "prefectureNumber": 40,
    "prefecture": "福岡県",
    "city": "福岡市西区",
    "town": "吉武"
  },
  "8190037": {
    "zipcode": "8190037",
    "prefectureCode": "40",
    "prefectureNumber": 40,
    "prefecture": "福岡県",
    "city": "福岡市西区",
    "town": "飯盛"
  },
  "8190038": {
    "zipcode": "8190038",
    "prefectureCode": "40",
    "prefectureNumber": 40,
    "prefecture": "福岡県",
    "city": "福岡市西区",
    "town": "羽根戸"
  },
  "8190039": {
    "zipcode": "8190039",
    "prefectureCode": "40",
    "prefectureNumber": 40,
    "prefecture": "福岡県",
    "city": "福岡市西区",
    "town": "西入部"
  },
  "8190041": {
    "zipcode": "8190041",
    "prefectureCode": "40",
    "prefectureNumber": 40,
    "prefecture": "福岡県",
    "city": "福岡市西区",
    "town": "拾六町"
  },
  "8190042": {
    "zipcode": "8190042",
    "prefectureCode": "40",
    "prefectureNumber": 40,
    "prefecture": "福岡県",
    "city": "福岡市西区",
    "town": "壱岐団地"
  },
  "8190043": {
    "zipcode": "8190043",
    "prefectureCode": "40",
    "prefectureNumber": 40,
    "prefecture": "福岡県",
    "city": "福岡市西区",
    "town": "野方"
  },
  "8190044": {
    "zipcode": "8190044",
    "prefectureCode": "40",
    "prefectureNumber": 40,
    "prefecture": "福岡県",
    "city": "福岡市西区",
    "town": "生松台"
  },
  "8190045": {
    "zipcode": "8190045",
    "prefectureCode": "40",
    "prefectureNumber": 40,
    "prefecture": "福岡県",
    "city": "福岡市西区",
    "town": "拾六町団地"
  },
  "8190046": {
    "zipcode": "8190046",
    "prefectureCode": "40",
    "prefectureNumber": 40,
    "prefecture": "福岡県",
    "city": "福岡市西区",
    "town": "西の丘"
  },
  "8190051": {
    "zipcode": "8190051",
    "prefectureCode": "40",
    "prefectureNumber": 40,
    "prefecture": "福岡県",
    "city": "福岡市西区",
    "town": "下山門団地"
  },
  "8190052": {
    "zipcode": "8190052",
    "prefectureCode": "40",
    "prefectureNumber": 40,
    "prefecture": "福岡県",
    "city": "福岡市西区",
    "town": "下山門"
  },
  "8190053": {
    "zipcode": "8190053",
    "prefectureCode": "40",
    "prefectureNumber": 40,
    "prefecture": "福岡県",
    "city": "福岡市西区",
    "town": "城の原団地"
  },
  "8190054": {
    "zipcode": "8190054",
    "prefectureCode": "40",
    "prefectureNumber": 40,
    "prefecture": "福岡県",
    "city": "福岡市西区",
    "town": "上山門"
  },
  "8190055": {
    "zipcode": "8190055",
    "prefectureCode": "40",
    "prefectureNumber": 40,
    "prefecture": "福岡県",
    "city": "福岡市西区",
    "town": "生の松原"
  },
  "8190161": {
    "zipcode": "8190161",
    "prefectureCode": "40",
    "prefectureNumber": 40,
    "prefecture": "福岡県",
    "city": "福岡市西区",
    "town": "今宿東"
  },
  "8190162": {
    "zipcode": "8190162",
    "prefectureCode": "40",
    "prefectureNumber": 40,
    "prefecture": "福岡県",
    "city": "福岡市西区",
    "town": "今宿青木"
  },
  "8190163": {
    "zipcode": "8190163",
    "prefectureCode": "40",
    "prefectureNumber": 40,
    "prefecture": "福岡県",
    "city": "福岡市西区",
    "town": "今宿上ノ原"
  },
  "8190164": {
    "zipcode": "8190164",
    "prefectureCode": "40",
    "prefectureNumber": 40,
    "prefecture": "福岡県",
    "city": "福岡市西区",
    "town": "今宿町"
  },
  "8190165": {
    "zipcode": "8190165",
    "prefectureCode": "40",
    "prefectureNumber": 40,
    "prefecture": "福岡県",
    "city": "福岡市西区",
    "town": "今津"
  },
  "8190166": {
    "zipcode": "8190166",
    "prefectureCode": "40",
    "prefectureNumber": 40,
    "prefecture": "福岡県",
    "city": "福岡市西区",
    "town": "横浜（１〜２丁目）"
  },
  "8190167": {
    "zipcode": "8190167",
    "prefectureCode": "40",
    "prefectureNumber": 40,
    "prefecture": "福岡県",
    "city": "福岡市西区",
    "town": "今宿"
  },
  "8190168": {
    "zipcode": "8190168",
    "prefectureCode": "40",
    "prefectureNumber": 40,
    "prefecture": "福岡県",
    "city": "福岡市西区",
    "town": "今宿駅前"
  },
  "8190169": {
    "zipcode": "8190169",
    "prefectureCode": "40",
    "prefectureNumber": 40,
    "prefecture": "福岡県",
    "city": "福岡市西区",
    "town": "今宿西"
  },
  "8190201": {
    "zipcode": "8190201",
    "prefectureCode": "40",
    "prefectureNumber": 40,
    "prefecture": "福岡県",
    "city": "福岡市西区",
    "town": "宮浦"
  },
  "8190202": {
    "zipcode": "8190202",
    "prefectureCode": "40",
    "prefectureNumber": 40,
    "prefecture": "福岡県",
    "city": "福岡市西区",
    "town": "西浦"
  },
  "8190203": {
    "zipcode": "8190203",
    "prefectureCode": "40",
    "prefectureNumber": 40,
    "prefecture": "福岡県",
    "city": "福岡市西区",
    "town": "小田"
  },
  "8190204": {
    "zipcode": "8190204",
    "prefectureCode": "40",
    "prefectureNumber": 40,
    "prefecture": "福岡県",
    "city": "福岡市西区",
    "town": "草場"
  },
  "8190205": {
    "zipcode": "8190205",
    "prefectureCode": "40",
    "prefectureNumber": 40,
    "prefecture": "福岡県",
    "city": "福岡市西区",
    "town": "玄界島"
  },
  "8190366": {
    "zipcode": "8190366",
    "prefectureCode": "40",
    "prefectureNumber": 40,
    "prefecture": "福岡県",
    "city": "福岡市西区",
    "town": "横浜（３丁目）"
  },
  "8190367": {
    "zipcode": "8190367",
    "prefectureCode": "40",
    "prefectureNumber": 40,
    "prefecture": "福岡県",
    "city": "福岡市西区",
    "town": "西都"
  },
  "8190370": {
    "zipcode": "8190370",
    "prefectureCode": "40",
    "prefectureNumber": 40,
    "prefecture": "福岡県",
    "city": "福岡市西区",
    "town": "丸川"
  },
  "8190371": {
    "zipcode": "8190371",
    "prefectureCode": "40",
    "prefectureNumber": 40,
    "prefecture": "福岡県",
    "city": "福岡市西区",
    "town": "飯氏"
  },
  "8190372": {
    "zipcode": "8190372",
    "prefectureCode": "40",
    "prefectureNumber": 40,
    "prefecture": "福岡県",
    "city": "福岡市西区",
    "town": "宇田川原"
  },
  "8190373": {
    "zipcode": "8190373",
    "prefectureCode": "40",
    "prefectureNumber": 40,
    "prefecture": "福岡県",
    "city": "福岡市西区",
    "town": "周船寺"
  },
  "8190374": {
    "zipcode": "8190374",
    "prefectureCode": "40",
    "prefectureNumber": 40,
    "prefecture": "福岡県",
    "city": "福岡市西区",
    "town": "千里"
  },
  "8190375": {
    "zipcode": "8190375",
    "prefectureCode": "40",
    "prefectureNumber": 40,
    "prefecture": "福岡県",
    "city": "福岡市西区",
    "town": "徳永"
  },
  "8190376": {
    "zipcode": "8190376",
    "prefectureCode": "40",
    "prefectureNumber": 40,
    "prefecture": "福岡県",
    "city": "福岡市西区",
    "town": "女原"
  },
  "8190377": {
    "zipcode": "8190377",
    "prefectureCode": "40",
    "prefectureNumber": 40,
    "prefecture": "福岡県",
    "city": "福岡市西区",
    "town": "女原北"
  },
  "8190378": {
    "zipcode": "8190378",
    "prefectureCode": "40",
    "prefectureNumber": 40,
    "prefecture": "福岡県",
    "city": "福岡市西区",
    "town": "徳永北"
  },
  "8190379": {
    "zipcode": "8190379",
    "prefectureCode": "40",
    "prefectureNumber": 40,
    "prefecture": "福岡県",
    "city": "福岡市西区",
    "town": "北原"
  },
  "8190380": {
    "zipcode": "8190380",
    "prefectureCode": "40",
    "prefectureNumber": 40,
    "prefecture": "福岡県",
    "city": "福岡市西区",
    "town": "田尻東"
  },
  "8190381": {
    "zipcode": "8190381",
    "prefectureCode": "40",
    "prefectureNumber": 40,
    "prefecture": "福岡県",
    "city": "福岡市西区",
    "town": "泉"
  },
  "8190382": {
    "zipcode": "8190382",
    "prefectureCode": "40",
    "prefectureNumber": 40,
    "prefecture": "福岡県",
    "city": "福岡市西区",
    "town": "桑原"
  },
  "8190383": {
    "zipcode": "8190383",
    "prefectureCode": "40",
    "prefectureNumber": 40,
    "prefecture": "福岡県",
    "city": "福岡市西区",
    "town": "田尻"
  },
  "8190384": {
    "zipcode": "8190384",
    "prefectureCode": "40",
    "prefectureNumber": 40,
    "prefecture": "福岡県",
    "city": "福岡市西区",
    "town": "太郎丸"
  },
  "8190385": {
    "zipcode": "8190385",
    "prefectureCode": "40",
    "prefectureNumber": 40,
    "prefecture": "福岡県",
    "city": "福岡市西区",
    "town": "元岡"
  },
  "8190386": {
    "zipcode": "8190386",
    "prefectureCode": "40",
    "prefectureNumber": 40,
    "prefecture": "福岡県",
    "city": "福岡市西区",
    "town": "元浜"
  },
  "8190387": {
    "zipcode": "8190387",
    "prefectureCode": "40",
    "prefectureNumber": 40,
    "prefecture": "福岡県",
    "city": "福岡市西区",
    "town": "富士見"
  },
  "8190388": {
    "zipcode": "8190388",
    "prefectureCode": "40",
    "prefectureNumber": 40,
    "prefecture": "福岡県",
    "city": "福岡市西区",
    "town": "九大新町"
  },
  "8190389": {
    "zipcode": "8190389",
    "prefectureCode": "40",
    "prefectureNumber": 40,
    "prefecture": "福岡県",
    "city": "福岡市西区",
    "town": "学園通"
  },
  "8191100": {
    "zipcode": "8191100",
    "prefectureCode": "40",
    "prefectureNumber": 40,
    "prefecture": "福岡県",
    "city": "糸島市",
    "town": "以下に掲載がない場合"
  },
  "8191101": {
    "zipcode": "8191101",
    "prefectureCode": "40",
    "prefectureNumber": 40,
    "prefecture": "福岡県",
    "city": "糸島市",
    "town": "板持"
  },
  "8191102": {
    "zipcode": "8191102",
    "prefectureCode": "40",
    "prefectureNumber": 40,
    "prefecture": "福岡県",
    "city": "糸島市",
    "town": "高田"
  },
  "8191103": {
    "zipcode": "8191103",
    "prefectureCode": "40",
    "prefectureNumber": 40,
    "prefecture": "福岡県",
    "city": "糸島市",
    "town": "池田"
  },
  "8191104": {
    "zipcode": "8191104",
    "prefectureCode": "40",
    "prefectureNumber": 40,
    "prefecture": "福岡県",
    "city": "糸島市",
    "town": "波多江"
  },
  "8191105": {
    "zipcode": "8191105",
    "prefectureCode": "40",
    "prefectureNumber": 40,
    "prefecture": "福岡県",
    "city": "糸島市",
    "town": "潤"
  },
  "8191106": {
    "zipcode": "8191106",
    "prefectureCode": "40",
    "prefectureNumber": 40,
    "prefecture": "福岡県",
    "city": "糸島市",
    "town": "志登"
  },
  "8191107": {
    "zipcode": "8191107",
    "prefectureCode": "40",
    "prefectureNumber": 40,
    "prefecture": "福岡県",
    "city": "糸島市",
    "town": "波多江駅北"
  },
  "8191108": {
    "zipcode": "8191108",
    "prefectureCode": "40",
    "prefectureNumber": 40,
    "prefecture": "福岡県",
    "city": "糸島市",
    "town": "波多江駅南"
  },
  "8191111": {
    "zipcode": "8191111",
    "prefectureCode": "40",
    "prefectureNumber": 40,
    "prefecture": "福岡県",
    "city": "糸島市",
    "town": "泊"
  },
  "8191112": {
    "zipcode": "8191112",
    "prefectureCode": "40",
    "prefectureNumber": 40,
    "prefecture": "福岡県",
    "city": "糸島市",
    "town": "浦志"
  },
  "8191113": {
    "zipcode": "8191113",
    "prefectureCode": "40",
    "prefectureNumber": 40,
    "prefecture": "福岡県",
    "city": "糸島市",
    "town": "前原"
  },
  "8191114": {
    "zipcode": "8191114",
    "prefectureCode": "40",
    "prefectureNumber": 40,
    "prefecture": "福岡県",
    "city": "糸島市",
    "town": "新田"
  },
  "8191115": {
    "zipcode": "8191115",
    "prefectureCode": "40",
    "prefectureNumber": 40,
    "prefecture": "福岡県",
    "city": "糸島市",
    "town": "油比"
  },
  "8191116": {
    "zipcode": "8191116",
    "prefectureCode": "40",
    "prefectureNumber": 40,
    "prefecture": "福岡県",
    "city": "糸島市",
    "town": "前原中央"
  },
  "8191117": {
    "zipcode": "8191117",
    "prefectureCode": "40",
    "prefectureNumber": 40,
    "prefecture": "福岡県",
    "city": "糸島市",
    "town": "前原西"
  },
  "8191118": {
    "zipcode": "8191118",
    "prefectureCode": "40",
    "prefectureNumber": 40,
    "prefecture": "福岡県",
    "city": "糸島市",
    "town": "前原北"
  },
  "8191119": {
    "zipcode": "8191119",
    "prefectureCode": "40",
    "prefectureNumber": 40,
    "prefecture": "福岡県",
    "city": "糸島市",
    "town": "前原東"
  },
  "8191120": {
    "zipcode": "8191120",
    "prefectureCode": "40",
    "prefectureNumber": 40,
    "prefecture": "福岡県",
    "city": "糸島市",
    "town": "神在東"
  },
  "8191121": {
    "zipcode": "8191121",
    "prefectureCode": "40",
    "prefectureNumber": 40,
    "prefecture": "福岡県",
    "city": "糸島市",
    "town": "荻浦"
  },
  "8191122": {
    "zipcode": "8191122",
    "prefectureCode": "40",
    "prefectureNumber": 40,
    "prefecture": "福岡県",
    "city": "糸島市",
    "town": "東"
  },
  "8191123": {
    "zipcode": "8191123",
    "prefectureCode": "40",
    "prefectureNumber": 40,
    "prefecture": "福岡県",
    "city": "糸島市",
    "town": "神在"
  },
  "8191124": {
    "zipcode": "8191124",
    "prefectureCode": "40",
    "prefectureNumber": 40,
    "prefecture": "福岡県",
    "city": "糸島市",
    "town": "加布里"
  },
  "8191125": {
    "zipcode": "8191125",
    "prefectureCode": "40",
    "prefectureNumber": 40,
    "prefecture": "福岡県",
    "city": "糸島市",
    "town": "千早新田"
  },
  "8191126": {
    "zipcode": "8191126",
    "prefectureCode": "40",
    "prefectureNumber": 40,
    "prefecture": "福岡県",
    "city": "糸島市",
    "town": "岩本"
  },
  "8191127": {
    "zipcode": "8191127",
    "prefectureCode": "40",
    "prefectureNumber": 40,
    "prefecture": "福岡県",
    "city": "糸島市",
    "town": "有田中央"
  },
  "8191128": {
    "zipcode": "8191128",
    "prefectureCode": "40",
    "prefectureNumber": 40,
    "prefecture": "福岡県",
    "city": "糸島市",
    "town": "篠原東"
  },
  "8191129": {
    "zipcode": "8191129",
    "prefectureCode": "40",
    "prefectureNumber": 40,
    "prefecture": "福岡県",
    "city": "糸島市",
    "town": "篠原西"
  },
  "8191130": {
    "zipcode": "8191130",
    "prefectureCode": "40",
    "prefectureNumber": 40,
    "prefecture": "福岡県",
    "city": "糸島市",
    "town": "伊都の杜"
  },
  "8191131": {
    "zipcode": "8191131",
    "prefectureCode": "40",
    "prefectureNumber": 40,
    "prefecture": "福岡県",
    "city": "糸島市",
    "town": "篠原"
  },
  "8191132": {
    "zipcode": "8191132",
    "prefectureCode": "40",
    "prefectureNumber": 40,
    "prefecture": "福岡県",
    "city": "糸島市",
    "town": "有田"
  },
  "8191133": {
    "zipcode": "8191133",
    "prefectureCode": "40",
    "prefectureNumber": 40,
    "prefecture": "福岡県",
    "city": "糸島市",
    "town": "富"
  },
  "8191134": {
    "zipcode": "8191134",
    "prefectureCode": "40",
    "prefectureNumber": 40,
    "prefecture": "福岡県",
    "city": "糸島市",
    "town": "多久"
  },
  "8191135": {
    "zipcode": "8191135",
    "prefectureCode": "40",
    "prefectureNumber": 40,
    "prefecture": "福岡県",
    "city": "糸島市",
    "town": "大浦"
  },
  "8191136": {
    "zipcode": "8191136",
    "prefectureCode": "40",
    "prefectureNumber": 40,
    "prefecture": "福岡県",
    "city": "糸島市",
    "town": "美咲が丘"
  },
  "8191137": {
    "zipcode": "8191137",
    "prefectureCode": "40",
    "prefectureNumber": 40,
    "prefecture": "福岡県",
    "city": "糸島市",
    "town": "南風台"
  },
  "8191138": {
    "zipcode": "8191138",
    "prefectureCode": "40",
    "prefectureNumber": 40,
    "prefecture": "福岡県",
    "city": "糸島市",
    "town": "前原駅南"
  },
  "8191139": {
    "zipcode": "8191139",
    "prefectureCode": "40",
    "prefectureNumber": 40,
    "prefecture": "福岡県",
    "city": "糸島市",
    "town": "前原南"
  },
  "8191141": {
    "zipcode": "8191141",
    "prefectureCode": "40",
    "prefectureNumber": 40,
    "prefecture": "福岡県",
    "city": "糸島市",
    "town": "蔵持"
  },
  "8191142": {
    "zipcode": "8191142",
    "prefectureCode": "40",
    "prefectureNumber": 40,
    "prefecture": "福岡県",
    "city": "糸島市",
    "town": "八島"
  },
  "8191143": {
    "zipcode": "8191143",
    "prefectureCode": "40",
    "prefectureNumber": 40,
    "prefecture": "福岡県",
    "city": "糸島市",
    "town": "高上"
  },
  "8191144": {
    "zipcode": "8191144",
    "prefectureCode": "40",
    "prefectureNumber": 40,
    "prefecture": "福岡県",
    "city": "糸島市",
    "town": "山北"
  },
  "8191145": {
    "zipcode": "8191145",
    "prefectureCode": "40",
    "prefectureNumber": 40,
    "prefecture": "福岡県",
    "city": "糸島市",
    "town": "雷山"
  },
  "8191146": {
    "zipcode": "8191146",
    "prefectureCode": "40",
    "prefectureNumber": 40,
    "prefecture": "福岡県",
    "city": "糸島市",
    "town": "三坂"
  },
  "8191147": {
    "zipcode": "8191147",
    "prefectureCode": "40",
    "prefectureNumber": 40,
    "prefecture": "福岡県",
    "city": "糸島市",
    "town": "香力"
  },
  "8191148": {
    "zipcode": "8191148",
    "prefectureCode": "40",
    "prefectureNumber": 40,
    "prefecture": "福岡県",
    "city": "糸島市",
    "town": "神在西"
  },
  "8191149": {
    "zipcode": "8191149",
    "prefectureCode": "40",
    "prefectureNumber": 40,
    "prefecture": "福岡県",
    "city": "糸島市",
    "town": "千早新田西"
  },
  "8191151": {
    "zipcode": "8191151",
    "prefectureCode": "40",
    "prefectureNumber": 40,
    "prefecture": "福岡県",
    "city": "糸島市",
    "town": "本"
  },
  "8191152": {
    "zipcode": "8191152",
    "prefectureCode": "40",
    "prefectureNumber": 40,
    "prefecture": "福岡県",
    "city": "糸島市",
    "town": "飯原"
  },
  "8191153": {
    "zipcode": "8191153",
    "prefectureCode": "40",
    "prefectureNumber": 40,
    "prefecture": "福岡県",
    "city": "糸島市",
    "town": "長野"
  },
  "8191154": {
    "zipcode": "8191154",
    "prefectureCode": "40",
    "prefectureNumber": 40,
    "prefecture": "福岡県",
    "city": "糸島市",
    "town": "白糸"
  },
  "8191155": {
    "zipcode": "8191155",
    "prefectureCode": "40",
    "prefectureNumber": 40,
    "prefecture": "福岡県",
    "city": "糸島市",
    "town": "川付"
  },
  "8191156": {
    "zipcode": "8191156",
    "prefectureCode": "40",
    "prefectureNumber": 40,
    "prefecture": "福岡県",
    "city": "糸島市",
    "town": "瀬戸"
  },
  "8191301": {
    "zipcode": "8191301",
    "prefectureCode": "40",
    "prefectureNumber": 40,
    "prefecture": "福岡県",
    "city": "糸島市",
    "town": "志摩井田原"
  },
  "8191302": {
    "zipcode": "8191302",
    "prefectureCode": "40",
    "prefectureNumber": 40,
    "prefecture": "福岡県",
    "city": "糸島市",
    "town": "志摩吉田"
  },
  "8191303": {
    "zipcode": "8191303",
    "prefectureCode": "40",
    "prefectureNumber": 40,
    "prefecture": "福岡県",
    "city": "糸島市",
    "town": "志摩野北"
  },
  "8191304": {
    "zipcode": "8191304",
    "prefectureCode": "40",
    "prefectureNumber": 40,
    "prefecture": "福岡県",
    "city": "糸島市",
    "town": "志摩桜井"
  },
  "8191305": {
    "zipcode": "8191305",
    "prefectureCode": "40",
    "prefectureNumber": 40,
    "prefecture": "福岡県",
    "city": "糸島市",
    "town": "志摩馬場"
  },
  "8191306": {
    "zipcode": "8191306",
    "prefectureCode": "40",
    "prefectureNumber": 40,
    "prefecture": "福岡県",
    "city": "糸島市",
    "town": "志摩松隈"
  },
  "8191307": {
    "zipcode": "8191307",
    "prefectureCode": "40",
    "prefectureNumber": 40,
    "prefecture": "福岡県",
    "city": "糸島市",
    "town": "志摩井田原南"
  },
  "8191311": {
    "zipcode": "8191311",
    "prefectureCode": "40",
    "prefectureNumber": 40,
    "prefecture": "福岡県",
    "city": "糸島市",
    "town": "志摩津和崎"
  },
  "8191312": {
    "zipcode": "8191312",
    "prefectureCode": "40",
    "prefectureNumber": 40,
    "prefecture": "福岡県",
    "city": "糸島市",
    "town": "志摩初"
  },
  "8191313": {
    "zipcode": "8191313",
    "prefectureCode": "40",
    "prefectureNumber": 40,
    "prefecture": "福岡県",
    "city": "糸島市",
    "town": "志摩稲留"
  },
  "8191314": {
    "zipcode": "8191314",
    "prefectureCode": "40",
    "prefectureNumber": 40,
    "prefecture": "福岡県",
    "city": "糸島市",
    "town": "志摩師吉"
  },
  "8191315": {
    "zipcode": "8191315",
    "prefectureCode": "40",
    "prefectureNumber": 40,
    "prefecture": "福岡県",
    "city": "糸島市",
    "town": "志摩稲葉"
  },
  "8191316": {
    "zipcode": "8191316",
    "prefectureCode": "40",
    "prefectureNumber": 40,
    "prefecture": "福岡県",
    "city": "糸島市",
    "town": "志摩ひかりが丘"
  },
  "8191317": {
    "zipcode": "8191317",
    "prefectureCode": "40",
    "prefectureNumber": 40,
    "prefecture": "福岡県",
    "city": "糸島市",
    "town": "志摩稲留東"
  },
  "8191321": {
    "zipcode": "8191321",
    "prefectureCode": "40",
    "prefectureNumber": 40,
    "prefecture": "福岡県",
    "city": "糸島市",
    "town": "志摩小富士"
  },
  "8191322": {
    "zipcode": "8191322",
    "prefectureCode": "40",
    "prefectureNumber": 40,
    "prefecture": "福岡県",
    "city": "糸島市",
    "town": "志摩御床"
  },
  "8191323": {
    "zipcode": "8191323",
    "prefectureCode": "40",
    "prefectureNumber": 40,
    "prefecture": "福岡県",
    "city": "糸島市",
    "town": "志摩小金丸"
  },
  "8191324": {
    "zipcode": "8191324",
    "prefectureCode": "40",
    "prefectureNumber": 40,
    "prefecture": "福岡県",
    "city": "糸島市",
    "town": "志摩東貝塚"
  },
  "8191325": {
    "zipcode": "8191325",
    "prefectureCode": "40",
    "prefectureNumber": 40,
    "prefecture": "福岡県",
    "city": "糸島市",
    "town": "志摩西貝塚"
  },
  "8191331": {
    "zipcode": "8191331",
    "prefectureCode": "40",
    "prefectureNumber": 40,
    "prefecture": "福岡県",
    "city": "糸島市",
    "town": "志摩久家"
  },
  "8191332": {
    "zipcode": "8191332",
    "prefectureCode": "40",
    "prefectureNumber": 40,
    "prefecture": "福岡県",
    "city": "糸島市",
    "town": "志摩船越"
  },
  "8191333": {
    "zipcode": "8191333",
    "prefectureCode": "40",
    "prefectureNumber": 40,
    "prefecture": "福岡県",
    "city": "糸島市",
    "town": "志摩新町"
  },
  "8191334": {
    "zipcode": "8191334",
    "prefectureCode": "40",
    "prefectureNumber": 40,
    "prefecture": "福岡県",
    "city": "糸島市",
    "town": "志摩岐志"
  },
  "8191335": {
    "zipcode": "8191335",
    "prefectureCode": "40",
    "prefectureNumber": 40,
    "prefecture": "福岡県",
    "city": "糸島市",
    "town": "志摩芥屋"
  },
  "8191336": {
    "zipcode": "8191336",
    "prefectureCode": "40",
    "prefectureNumber": 40,
    "prefecture": "福岡県",
    "city": "糸島市",
    "town": "志摩姫島"
  },
  "8191561": {
    "zipcode": "8191561",
    "prefectureCode": "40",
    "prefectureNumber": 40,
    "prefecture": "福岡県",
    "city": "糸島市",
    "town": "曽根"
  },
  "8191562": {
    "zipcode": "8191562",
    "prefectureCode": "40",
    "prefectureNumber": 40,
    "prefecture": "福岡県",
    "city": "糸島市",
    "town": "井田"
  },
  "8191563": {
    "zipcode": "8191563",
    "prefectureCode": "40",
    "prefectureNumber": 40,
    "prefecture": "福岡県",
    "city": "糸島市",
    "town": "高来寺"
  },
  "8191564": {
    "zipcode": "8191564",
    "prefectureCode": "40",
    "prefectureNumber": 40,
    "prefecture": "福岡県",
    "city": "糸島市",
    "town": "大門"
  },
  "8191571": {
    "zipcode": "8191571",
    "prefectureCode": "40",
    "prefectureNumber": 40,
    "prefecture": "福岡県",
    "city": "糸島市",
    "town": "高祖"
  },
  "8191572": {
    "zipcode": "8191572",
    "prefectureCode": "40",
    "prefectureNumber": 40,
    "prefecture": "福岡県",
    "city": "糸島市",
    "town": "末永"
  },
  "8191573": {
    "zipcode": "8191573",
    "prefectureCode": "40",
    "prefectureNumber": 40,
    "prefecture": "福岡県",
    "city": "糸島市",
    "town": "王丸"
  },
  "8191574": {
    "zipcode": "8191574",
    "prefectureCode": "40",
    "prefectureNumber": 40,
    "prefecture": "福岡県",
    "city": "糸島市",
    "town": "川原"
  },
  "8191575": {
    "zipcode": "8191575",
    "prefectureCode": "40",
    "prefectureNumber": 40,
    "prefecture": "福岡県",
    "city": "糸島市",
    "town": "西堂"
  },
  "8191581": {
    "zipcode": "8191581",
    "prefectureCode": "40",
    "prefectureNumber": 40,
    "prefecture": "福岡県",
    "city": "糸島市",
    "town": "瑞梅寺"
  },
  "8191582": {
    "zipcode": "8191582",
    "prefectureCode": "40",
    "prefectureNumber": 40,
    "prefecture": "福岡県",
    "city": "糸島市",
    "town": "井原"
  },
  "8191583": {
    "zipcode": "8191583",
    "prefectureCode": "40",
    "prefectureNumber": 40,
    "prefecture": "福岡県",
    "city": "糸島市",
    "town": "三雲"
  },
  "8191601": {
    "zipcode": "8191601",
    "prefectureCode": "40",
    "prefectureNumber": 40,
    "prefecture": "福岡県",
    "city": "糸島市",
    "town": "二丈深江"
  },
  "8191611": {
    "zipcode": "8191611",
    "prefectureCode": "40",
    "prefectureNumber": 40,
    "prefecture": "福岡県",
    "city": "糸島市",
    "town": "二丈片山"
  },
  "8191613": {
    "zipcode": "8191613",
    "prefectureCode": "40",
    "prefectureNumber": 40,
    "prefecture": "福岡県",
    "city": "糸島市",
    "town": "二丈松末"
  },
  "8191614": {
    "zipcode": "8191614",
    "prefectureCode": "40",
    "prefectureNumber": 40,
    "prefecture": "福岡県",
    "city": "糸島市",
    "town": "二丈浜窪"
  },
  "8191615": {
    "zipcode": "8191615",
    "prefectureCode": "40",
    "prefectureNumber": 40,
    "prefecture": "福岡県",
    "city": "糸島市",
    "town": "二丈田中"
  },
  "8191616": {
    "zipcode": "8191616",
    "prefectureCode": "40",
    "prefectureNumber": 40,
    "prefecture": "福岡県",
    "city": "糸島市",
    "town": "二丈武"
  },
  "8191617": {
    "zipcode": "8191617",
    "prefectureCode": "40",
    "prefectureNumber": 40,
    "prefecture": "福岡県",
    "city": "糸島市",
    "town": "二丈松末西"
  },
  "8191621": {
    "zipcode": "8191621",
    "prefectureCode": "40",
    "prefectureNumber": 40,
    "prefecture": "福岡県",
    "city": "糸島市",
    "town": "二丈上深江"
  },
  "8191622": {
    "zipcode": "8191622",
    "prefectureCode": "40",
    "prefectureNumber": 40,
    "prefecture": "福岡県",
    "city": "糸島市",
    "town": "二丈一貴山"
  },
  "8191623": {
    "zipcode": "8191623",
    "prefectureCode": "40",
    "prefectureNumber": 40,
    "prefecture": "福岡県",
    "city": "糸島市",
    "town": "二丈石崎"
  },
  "8191624": {
    "zipcode": "8191624",
    "prefectureCode": "40",
    "prefectureNumber": 40,
    "prefecture": "福岡県",
    "city": "糸島市",
    "town": "二丈満吉"
  },
  "8191625": {
    "zipcode": "8191625",
    "prefectureCode": "40",
    "prefectureNumber": 40,
    "prefecture": "福岡県",
    "city": "糸島市",
    "town": "二丈長石"
  },
  "8191626": {
    "zipcode": "8191626",
    "prefectureCode": "40",
    "prefectureNumber": 40,
    "prefecture": "福岡県",
    "city": "糸島市",
    "town": "二丈波呂"
  },
  "8191627": {
    "zipcode": "8191627",
    "prefectureCode": "40",
    "prefectureNumber": 40,
    "prefecture": "福岡県",
    "city": "糸島市",
    "town": "二丈松国"
  },
  "8191631": {
    "zipcode": "8191631",
    "prefectureCode": "40",
    "prefectureNumber": 40,
    "prefecture": "福岡県",
    "city": "糸島市",
    "town": "二丈福井"
  },
  "8191641": {
    "zipcode": "8191641",
    "prefectureCode": "40",
    "prefectureNumber": 40,
    "prefecture": "福岡県",
    "city": "糸島市",
    "town": "二丈吉井"
  },
  "8191642": {
    "zipcode": "8191642",
    "prefectureCode": "40",
    "prefectureNumber": 40,
    "prefecture": "福岡県",
    "city": "糸島市",
    "town": "二丈鹿家"
  },
  "8191643": {
    "zipcode": "8191643",
    "prefectureCode": "40",
    "prefectureNumber": 40,
    "prefecture": "福岡県",
    "city": "糸島市",
    "town": "福吉"
  }
}
