{
  "8220000": {
    "zipcode": "8220000",
    "prefectureCode": "40",
    "prefectureNumber": 40,
    "prefecture": "福岡県",
    "city": "直方市",
    "town": "以下に掲載がない場合"
  },
  "8220001": {
    "zipcode": "8220001",
    "prefectureCode": "40",
    "prefectureNumber": 40,
    "prefecture": "福岡県",
    "city": "直方市",
    "town": "感田"
  },
  "8220002": {
    "zipcode": "8220002",
    "prefectureCode": "40",
    "prefectureNumber": 40,
    "prefecture": "福岡県",
    "city": "直方市",
    "town": "頓野"
  },
  "8220003": {
    "zipcode": "8220003",
    "prefectureCode": "40",
    "prefectureNumber": 40,
    "prefecture": "福岡県",
    "city": "直方市",
    "town": "上頓野"
  },
  "8220004": {
    "zipcode": "8220004",
    "prefectureCode": "40",
    "prefectureNumber": 40,
    "prefecture": "福岡県",
    "city": "直方市",
    "town": "畑"
  },
  "8220005": {
    "zipcode": "8220005",
    "prefectureCode": "40",
    "prefectureNumber": 40,
    "prefecture": "福岡県",
    "city": "直方市",
    "town": "永満寺"
  },
  "8220006": {
    "zipcode": "8220006",
    "prefectureCode": "40",
    "prefectureNumber": 40,
    "prefecture": "福岡県",
    "city": "直方市",
    "town": "上境"
  },
  "8220007": {
    "zipcode": "8220007",
    "prefectureCode": "40",
    "prefectureNumber": 40,
    "prefecture": "福岡県",
    "city": "直方市",
    "town": "下境"
  },
  "8220008": {
    "zipcode": "8220008",
    "prefectureCode": "40",
    "prefectureNumber": 40,
    "prefecture": "福岡県",
    "city": "直方市",
    "town": "湯野原"
  },
  "8220011": {
    "zipcode": "8220011",
    "prefectureCode": "40",
    "prefectureNumber": 40,
    "prefecture": "福岡県",
    "city": "直方市",
    "town": "中泉"
  },
  "8220012": {
    "zipcode": "8220012",
    "prefectureCode": "40",
    "prefectureNumber": 40,
    "prefecture": "福岡県",
    "city": "直方市",
    "town": "赤地"
  },
  "8220013": {
    "zipcode": "8220013",
    "prefectureCode": "40",
    "prefectureNumber": 40,
    "prefecture": "福岡県",
    "city": "直方市",
    "town": "溝堀"
  },
  "8220014": {
    "zipcode": "8220014",
    "prefectureCode": "40",
    "prefectureNumber": 40,
    "prefecture": "福岡県",
    "city": "直方市",
    "town": "丸山町"
  },
  "8220015": {
    "zipcode": "8220015",
    "prefectureCode": "40",
    "prefectureNumber": 40,
    "prefecture": "福岡県",
    "city": "直方市",
    "town": "新町"
  },
  "8220016": {
    "zipcode": "8220016",
    "prefectureCode": "40",
    "prefectureNumber": 40,
    "prefecture": "福岡県",
    "city": "直方市",
    "town": "直方"
  },
  "8220017": {
    "zipcode": "8220017",
    "prefectureCode": "40",
    "prefectureNumber": 40,
    "prefecture": "福岡県",
    "city": "直方市",
    "town": "殿町"
  },
  "8220021": {
    "zipcode": "8220021",
    "prefectureCode": "40",
    "prefectureNumber": 40,
    "prefecture": "福岡県",
    "city": "直方市",
    "town": "新知町"
  },
  "8220022": {
    "zipcode": "8220022",
    "prefectureCode": "40",
    "prefectureNumber": 40,
    "prefecture": "福岡県",
    "city": "直方市",
    "town": "知古"
  },
  "8220023": {
    "zipcode": "8220023",
    "prefectureCode": "40",
    "prefectureNumber": 40,
    "prefecture": "福岡県",
    "city": "直方市",
    "town": "神正町"
  },
  "8220024": {
    "zipcode": "8220024",
    "prefectureCode": "40",
    "prefectureNumber": 40,
    "prefecture": "福岡県",
    "city": "直方市",
    "town": "須崎町"
  },
  "8220025": {
    "zipcode": "8220025",
    "prefectureCode": "40",
    "prefectureNumber": 40,
    "prefecture": "福岡県",
    "city": "直方市",
    "town": "日吉町"
  },
  "8220026": {
    "zipcode": "8220026",
    "prefectureCode": "40",
    "prefectureNumber": 40,
    "prefecture": "福岡県",
    "city": "直方市",
    "town": "津田町"
  },
  "8220027": {
    "zipcode": "8220027",
    "prefectureCode": "40",
    "prefectureNumber": 40,
    "prefecture": "福岡県",
    "city": "直方市",
    "town": "古町"
  },
  "8220031": {
    "zipcode": "8220031",
    "prefectureCode": "40",
    "prefectureNumber": 40,
    "prefecture": "福岡県",
    "city": "直方市",
    "town": "植木"
  },
  "8220032": {
    "zipcode": "8220032",
    "prefectureCode": "40",
    "prefectureNumber": 40,
    "prefecture": "福岡県",
    "city": "直方市",
    "town": "下新入"
  },
  "8220033": {
    "zipcode": "8220033",
    "prefectureCode": "40",
    "prefectureNumber": 40,
    "prefecture": "福岡県",
    "city": "直方市",
    "town": "上新入"
  },
  "8220034": {
    "zipcode": "8220034",
    "prefectureCode": "40",
    "prefectureNumber": 40,
    "prefecture": "福岡県",
    "city": "直方市",
    "town": "山部"
  },
  "8220101": {
    "zipcode": "8220101",
    "prefectureCode": "40",
    "prefectureNumber": 40,
    "prefecture": "福岡県",
    "city": "宮若市",
    "town": "福丸"
  },
  "8220111": {
    "zipcode": "8220111",
    "prefectureCode": "40",
    "prefectureNumber": 40,
    "prefecture": "福岡県",
    "city": "宮若市",
    "town": "金丸"
  },
  "8220112": {
    "zipcode": "8220112",
    "prefectureCode": "40",
    "prefectureNumber": 40,
    "prefecture": "福岡県",
    "city": "宮若市",
    "town": "原田"
  },
  "8220113": {
    "zipcode": "8220113",
    "prefectureCode": "40",
    "prefectureNumber": 40,
    "prefecture": "福岡県",
    "city": "宮若市",
    "town": "金生"
  },
  "8220121": {
    "zipcode": "8220121",
    "prefectureCode": "40",
    "prefectureNumber": 40,
    "prefecture": "福岡県",
    "city": "宮若市",
    "town": "湯原"
  },
  "8220122": {
    "zipcode": "8220122",
    "prefectureCode": "40",
    "prefectureNumber": 40,
    "prefecture": "福岡県",
    "city": "宮若市",
    "town": "下"
  },
  "8220123": {
    "zipcode": "8220123",
    "prefectureCode": "40",
    "prefectureNumber": 40,
    "prefecture": "福岡県",
    "city": "宮若市",
    "town": "三ケ畑"
  },
  "8220124": {
    "zipcode": "8220124",
    "prefectureCode": "40",
    "prefectureNumber": 40,
    "prefecture": "福岡県",
    "city": "宮若市",
    "town": "縁山畑"
  },
  "8220131": {
    "zipcode": "8220131",
    "prefectureCode": "40",
    "prefectureNumber": 40,
    "prefecture": "福岡県",
    "city": "宮若市",
    "town": "乙野"
  },
  "8220132": {
    "zipcode": "8220132",
    "prefectureCode": "40",
    "prefectureNumber": 40,
    "prefecture": "福岡県",
    "city": "宮若市",
    "town": "小伏"
  },
  "8220133": {
    "zipcode": "8220133",
    "prefectureCode": "40",
    "prefectureNumber": 40,
    "prefecture": "福岡県",
    "city": "宮若市",
    "town": "脇田"
  },
  "8220134": {
    "zipcode": "8220134",
    "prefectureCode": "40",
    "prefectureNumber": 40,
    "prefecture": "福岡県",
    "city": "宮若市",
    "town": "犬鳴"
  },
  "8220141": {
    "zipcode": "8220141",
    "prefectureCode": "40",
    "prefectureNumber": 40,
    "prefecture": "福岡県",
    "city": "宮若市",
    "town": "平"
  },
  "8220142": {
    "zipcode": "8220142",
    "prefectureCode": "40",
    "prefectureNumber": 40,
    "prefecture": "福岡県",
    "city": "宮若市",
    "town": "竹原"
  },
  "8220143": {
    "zipcode": "8220143",
    "prefectureCode": "40",
    "prefectureNumber": 40,
    "prefecture": "福岡県",
    "city": "宮若市",
    "town": "高野"
  },
  "8220144": {
    "zipcode": "8220144",
    "prefectureCode": "40",
    "prefectureNumber": 40,
    "prefecture": "福岡県",
    "city": "宮若市",
    "town": "稲光"
  },
  "8220145": {
    "zipcode": "8220145",
    "prefectureCode": "40",
    "prefectureNumber": 40,
    "prefecture": "福岡県",
    "city": "宮若市",
    "town": "宮永"
  },
  "8220146": {
    "zipcode": "8220146",
    "prefectureCode": "40",
    "prefectureNumber": 40,
    "prefecture": "福岡県",
    "city": "宮若市",
    "town": "黒丸"
  },
  "8220151": {
    "zipcode": "8220151",
    "prefectureCode": "40",
    "prefectureNumber": 40,
    "prefecture": "福岡県",
    "city": "宮若市",
    "town": "水原"
  },
  "8220152": {
    "zipcode": "8220152",
    "prefectureCode": "40",
    "prefectureNumber": 40,
    "prefecture": "福岡県",
    "city": "宮若市",
    "town": "沼口"
  },
  "8220153": {
    "zipcode": "8220153",
    "prefectureCode": "40",
    "prefectureNumber": 40,
    "prefecture": "福岡県",
    "city": "宮若市",
    "town": "山口"
  },
  "8221101": {
    "zipcode": "8221101",
    "prefectureCode": "40",
    "prefectureNumber": 40,
    "prefecture": "福岡県",
    "city": "田川郡福智町",
    "town": "赤池"
  },
  "8221102": {
    "zipcode": "8221102",
    "prefectureCode": "40",
    "prefectureNumber": 40,
    "prefecture": "福岡県",
    "city": "田川郡福智町",
    "town": "上野"
  },
  "8221103": {
    "zipcode": "8221103",
    "prefectureCode": "40",
    "prefectureNumber": 40,
    "prefecture": "福岡県",
    "city": "田川郡福智町",
    "town": "市場"
  },
  "8221200": {
    "zipcode": "8221200",
    "prefectureCode": "40",
    "prefectureNumber": 40,
    "prefecture": "福岡県",
    "city": "田川郡福智町",
    "town": "以下に掲載がない場合"
  },
  "8221201": {
    "zipcode": "8221201",
    "prefectureCode": "40",
    "prefectureNumber": 40,
    "prefecture": "福岡県",
    "city": "田川郡福智町",
    "town": "金田"
  },
  "8221202": {
    "zipcode": "8221202",
    "prefectureCode": "40",
    "prefectureNumber": 40,
    "prefecture": "福岡県",
    "city": "田川郡福智町",
    "town": "神崎"
  },
  "8221211": {
    "zipcode": "8221211",
    "prefectureCode": "40",
    "prefectureNumber": 40,
    "prefecture": "福岡県",
    "city": "田川郡福智町",
    "town": "伊方"
  },
  "8221212": {
    "zipcode": "8221212",
    "prefectureCode": "40",
    "prefectureNumber": 40,
    "prefecture": "福岡県",
    "city": "田川郡福智町",
    "town": "弁城"
  },
  "8221300": {
    "zipcode": "8221300",
    "prefectureCode": "40",
    "prefectureNumber": 40,
    "prefecture": "福岡県",
    "city": "田川郡糸田町",
    "town": "以下に掲載がない場合"
  },
  "8221301": {
    "zipcode": "8221301",
    "prefectureCode": "40",
    "prefectureNumber": 40,
    "prefecture": "福岡県",
    "city": "田川郡糸田町",
    "town": "堀川"
  },
  "8221302": {
    "zipcode": "8221302",
    "prefectureCode": "40",
    "prefectureNumber": 40,
    "prefecture": "福岡県",
    "city": "田川郡糸田町",
    "town": "大熊"
  },
  "8221303": {
    "zipcode": "8221303",
    "prefectureCode": "40",
    "prefectureNumber": 40,
    "prefecture": "福岡県",
    "city": "田川郡糸田町",
    "town": "桃山"
  },
  "8221304": {
    "zipcode": "8221304",
    "prefectureCode": "40",
    "prefectureNumber": 40,
    "prefecture": "福岡県",
    "city": "田川郡糸田町",
    "town": "自由ケ丘"
  },
  "8221305": {
    "zipcode": "8221305",
    "prefectureCode": "40",
    "prefectureNumber": 40,
    "prefecture": "福岡県",
    "city": "田川郡糸田町",
    "town": "宮床団地"
  },
  "8221306": {
    "zipcode": "8221306",
    "prefectureCode": "40",
    "prefectureNumber": 40,
    "prefecture": "福岡県",
    "city": "田川郡糸田町",
    "town": "貴船"
  },
  "8221307": {
    "zipcode": "8221307",
    "prefectureCode": "40",
    "prefectureNumber": 40,
    "prefecture": "福岡県",
    "city": "田川郡糸田町",
    "town": "宮床"
  },
  "8221311": {
    "zipcode": "8221311",
    "prefectureCode": "40",
    "prefectureNumber": 40,
    "prefecture": "福岡県",
    "city": "田川郡糸田町",
    "town": "北区"
  },
  "8221312": {
    "zipcode": "8221312",
    "prefectureCode": "40",
    "prefectureNumber": 40,
    "prefecture": "福岡県",
    "city": "田川郡糸田町",
    "town": "下糸田"
  },
  "8221313": {
    "zipcode": "8221313",
    "prefectureCode": "40",
    "prefectureNumber": 40,
    "prefecture": "福岡県",
    "city": "田川郡糸田町",
    "town": "打越"
  },
  "8221314": {
    "zipcode": "8221314",
    "prefectureCode": "40",
    "prefectureNumber": 40,
    "prefecture": "福岡県",
    "city": "田川郡糸田町",
    "town": "中糸田"
  },
  "8221315": {
    "zipcode": "8221315",
    "prefectureCode": "40",
    "prefectureNumber": 40,
    "prefecture": "福岡県",
    "city": "田川郡糸田町",
    "town": "宮川二"
  },
  "8221316": {
    "zipcode": "8221316",
    "prefectureCode": "40",
    "prefectureNumber": 40,
    "prefecture": "福岡県",
    "city": "田川郡糸田町",
    "town": "上糸田"
  },
  "8221317": {
    "zipcode": "8221317",
    "prefectureCode": "40",
    "prefectureNumber": 40,
    "prefecture": "福岡県",
    "city": "田川郡糸田町",
    "town": "宮川一"
  },
  "8221318": {
    "zipcode": "8221318",
    "prefectureCode": "40",
    "prefectureNumber": 40,
    "prefecture": "福岡県",
    "city": "田川郡糸田町",
    "town": "原"
  },
  "8221321": {
    "zipcode": "8221321",
    "prefectureCode": "40",
    "prefectureNumber": 40,
    "prefecture": "福岡県",
    "city": "田川郡糸田町",
    "town": "宮谷"
  },
  "8221322": {
    "zipcode": "8221322",
    "prefectureCode": "40",
    "prefectureNumber": 40,
    "prefecture": "福岡県",
    "city": "田川郡糸田町",
    "town": "西部"
  },
  "8221323": {
    "zipcode": "8221323",
    "prefectureCode": "40",
    "prefectureNumber": 40,
    "prefecture": "福岡県",
    "city": "田川郡糸田町",
    "town": "真岡"
  },
  "8221324": {
    "zipcode": "8221324",
    "prefectureCode": "40",
    "prefectureNumber": 40,
    "prefecture": "福岡県",
    "city": "田川郡糸田町",
    "town": "旭ケ丘"
  },
  "8221325": {
    "zipcode": "8221325",
    "prefectureCode": "40",
    "prefectureNumber": 40,
    "prefecture": "福岡県",
    "city": "田川郡糸田町",
    "town": "南糸田"
  },
  "8221326": {
    "zipcode": "8221326",
    "prefectureCode": "40",
    "prefectureNumber": 40,
    "prefecture": "福岡県",
    "city": "田川郡糸田町",
    "town": "鼡ケ池"
  },
  "8221400": {
    "zipcode": "8221400",
    "prefectureCode": "40",
    "prefectureNumber": 40,
    "prefecture": "福岡県",
    "city": "田川郡香春町",
    "town": "以下に掲載がない場合"
  },
  "8221401": {
    "zipcode": "8221401",
    "prefectureCode": "40",
    "prefectureNumber": 40,
    "prefecture": "福岡県",
    "city": "田川郡香春町",
    "town": "採銅所"
  },
  "8221402": {
    "zipcode": "8221402",
    "prefectureCode": "40",
    "prefectureNumber": 40,
    "prefecture": "福岡県",
    "city": "田川郡香春町",
    "town": "鏡山"
  },
  "8221403": {
    "zipcode": "8221403",
    "prefectureCode": "40",
    "prefectureNumber": 40,
    "prefecture": "福岡県",
    "city": "田川郡香春町",
    "town": "高野"
  },
  "8221404": {
    "zipcode": "8221404",
    "prefectureCode": "40",
    "prefectureNumber": 40,
    "prefecture": "福岡県",
    "city": "田川郡香春町",
    "town": "柿下"
  },
  "8221405": {
    "zipcode": "8221405",
    "prefectureCode": "40",
    "prefectureNumber": 40,
    "prefecture": "福岡県",
    "city": "田川郡香春町",
    "town": "中津原"
  },
  "8221406": {
    "zipcode": "8221406",
    "prefectureCode": "40",
    "prefectureNumber": 40,
    "prefecture": "福岡県",
    "city": "田川郡香春町",
    "town": "香春"
  }
}
