{
  "8240000": {
    "zipcode": "8240000",
    "prefectureCode": "40",
    "prefectureNumber": 40,
    "prefecture": "福岡県",
    "city": "行橋市",
    "town": "以下に掲載がない場合"
  },
  "8240001": {
    "zipcode": "8240001",
    "prefectureCode": "40",
    "prefectureNumber": 40,
    "prefecture": "福岡県",
    "city": "行橋市",
    "town": "行事"
  },
  "8240002": {
    "zipcode": "8240002",
    "prefectureCode": "40",
    "prefectureNumber": 40,
    "prefecture": "福岡県",
    "city": "行橋市",
    "town": "東大橋"
  },
  "8240003": {
    "zipcode": "8240003",
    "prefectureCode": "40",
    "prefectureNumber": 40,
    "prefecture": "福岡県",
    "city": "行橋市",
    "town": "大橋"
  },
  "8240004": {
    "zipcode": "8240004",
    "prefectureCode": "40",
    "prefectureNumber": 40,
    "prefecture": "福岡県",
    "city": "行橋市",
    "town": "金屋"
  },
  "8240005": {
    "zipcode": "8240005",
    "prefectureCode": "40",
    "prefectureNumber": 40,
    "prefecture": "福岡県",
    "city": "行橋市",
    "town": "中央"
  },
  "8240006": {
    "zipcode": "8240006",
    "prefectureCode": "40",
    "prefectureNumber": 40,
    "prefecture": "福岡県",
    "city": "行橋市",
    "town": "門樋町"
  },
  "8240007": {
    "zipcode": "8240007",
    "prefectureCode": "40",
    "prefectureNumber": 40,
    "prefecture": "福岡県",
    "city": "行橋市",
    "town": "神田町"
  },
  "8240008": {
    "zipcode": "8240008",
    "prefectureCode": "40",
    "prefectureNumber": 40,
    "prefecture": "福岡県",
    "city": "行橋市",
    "town": "宮市町"
  },
  "8240011": {
    "zipcode": "8240011",
    "prefectureCode": "40",
    "prefectureNumber": 40,
    "prefecture": "福岡県",
    "city": "行橋市",
    "town": "蓑島"
  },
  "8240012": {
    "zipcode": "8240012",
    "prefectureCode": "40",
    "prefectureNumber": 40,
    "prefecture": "福岡県",
    "city": "行橋市",
    "town": "文久"
  },
  "8240013": {
    "zipcode": "8240013",
    "prefectureCode": "40",
    "prefectureNumber": 40,
    "prefecture": "福岡県",
    "city": "行橋市",
    "town": "沓尾"
  },
  "8240014": {
    "zipcode": "8240014",
    "prefectureCode": "40",
    "prefectureNumber": 40,
    "prefecture": "福岡県",
    "city": "行橋市",
    "town": "長井"
  },
  "8240015": {
    "zipcode": "8240015",
    "prefectureCode": "40",
    "prefectureNumber": 40,
    "prefecture": "福岡県",
    "city": "行橋市",
    "town": "元永"
  },
  "8240016": {
    "zipcode": "8240016",
    "prefectureCode": "40",
    "prefectureNumber": 40,
    "prefecture": "福岡県",
    "city": "行橋市",
    "town": "津留"
  },
  "8240017": {
    "zipcode": "8240017",
    "prefectureCode": "40",
    "prefectureNumber": 40,
    "prefecture": "福岡県",
    "city": "行橋市",
    "town": "真菰"
  },
  "8240018": {
    "zipcode": "8240018",
    "prefectureCode": "40",
    "prefectureNumber": 40,
    "prefecture": "福岡県",
    "city": "行橋市",
    "town": "今井"
  },
  "8240021": {
    "zipcode": "8240021",
    "prefectureCode": "40",
    "prefectureNumber": 40,
    "prefecture": "福岡県",
    "city": "行橋市",
    "town": "馬場"
  },
  "8240022": {
    "zipcode": "8240022",
    "prefectureCode": "40",
    "prefectureNumber": 40,
    "prefecture": "福岡県",
    "city": "行橋市",
    "town": "稲童"
  },
  "8240023": {
    "zipcode": "8240023",
    "prefectureCode": "40",
    "prefectureNumber": 40,
    "prefecture": "福岡県",
    "city": "行橋市",
    "town": "松原"
  },
  "8240024": {
    "zipcode": "8240024",
    "prefectureCode": "40",
    "prefectureNumber": 40,
    "prefecture": "福岡県",
    "city": "行橋市",
    "town": "袋迫"
  },
  "8240025": {
    "zipcode": "8240025",
    "prefectureCode": "40",
    "prefectureNumber": 40,
    "prefecture": "福岡県",
    "city": "行橋市",
    "town": "東徳永"
  },
  "8240026": {
    "zipcode": "8240026",
    "prefectureCode": "40",
    "prefectureNumber": 40,
    "prefecture": "福岡県",
    "city": "行橋市",
    "town": "道場寺"
  },
  "8240027": {
    "zipcode": "8240027",
    "prefectureCode": "40",
    "prefectureNumber": 40,
    "prefecture": "福岡県",
    "city": "行橋市",
    "town": "高瀬"
  },
  "8240028": {
    "zipcode": "8240028",
    "prefectureCode": "40",
    "prefectureNumber": 40,
    "prefecture": "福岡県",
    "city": "行橋市",
    "town": "辻垣"
  },
  "8240031": {
    "zipcode": "8240031",
    "prefectureCode": "40",
    "prefectureNumber": 40,
    "prefecture": "福岡県",
    "city": "行橋市",
    "town": "西宮市"
  },
  "8240032": {
    "zipcode": "8240032",
    "prefectureCode": "40",
    "prefectureNumber": 40,
    "prefecture": "福岡県",
    "city": "行橋市",
    "town": "南大橋"
  },
  "8240033": {
    "zipcode": "8240033",
    "prefectureCode": "40",
    "prefectureNumber": 40,
    "prefecture": "福岡県",
    "city": "行橋市",
    "town": "北泉"
  },
  "8240034": {
    "zipcode": "8240034",
    "prefectureCode": "40",
    "prefectureNumber": 40,
    "prefecture": "福岡県",
    "city": "行橋市",
    "town": "泉中央"
  },
  "8240035": {
    "zipcode": "8240035",
    "prefectureCode": "40",
    "prefectureNumber": 40,
    "prefecture": "福岡県",
    "city": "行橋市",
    "town": "東泉"
  },
  "8240036": {
    "zipcode": "8240036",
    "prefectureCode": "40",
    "prefectureNumber": 40,
    "prefecture": "福岡県",
    "city": "行橋市",
    "town": "南泉"
  },
  "8240037": {
    "zipcode": "8240037",
    "prefectureCode": "40",
    "prefectureNumber": 40,
    "prefecture": "福岡県",
    "city": "行橋市",
    "town": "矢留"
  },
  "8240038": {
    "zipcode": "8240038",
    "prefectureCode": "40",
    "prefectureNumber": 40,
    "prefecture": "福岡県",
    "city": "行橋市",
    "town": "西泉"
  },
  "8240041": {
    "zipcode": "8240041",
    "prefectureCode": "40",
    "prefectureNumber": 40,
    "prefecture": "福岡県",
    "city": "行橋市",
    "town": "大野井"
  },
  "8240042": {
    "zipcode": "8240042",
    "prefectureCode": "40",
    "prefectureNumber": 40,
    "prefecture": "福岡県",
    "city": "行橋市",
    "town": "寺畔"
  },
  "8240043": {
    "zipcode": "8240043",
    "prefectureCode": "40",
    "prefectureNumber": 40,
    "prefecture": "福岡県",
    "city": "行橋市",
    "town": "流末"
  },
  "8240044": {
    "zipcode": "8240044",
    "prefectureCode": "40",
    "prefectureNumber": 40,
    "prefecture": "福岡県",
    "city": "行橋市",
    "town": "天生田"
  },
  "8240045": {
    "zipcode": "8240045",
    "prefectureCode": "40",
    "prefectureNumber": 40,
    "prefecture": "福岡県",
    "city": "行橋市",
    "town": "大谷"
  },
  "8240046": {
    "zipcode": "8240046",
    "prefectureCode": "40",
    "prefectureNumber": 40,
    "prefecture": "福岡県",
    "city": "行橋市",
    "town": "西谷"
  },
  "8240047": {
    "zipcode": "8240047",
    "prefectureCode": "40",
    "prefectureNumber": 40,
    "prefecture": "福岡県",
    "city": "行橋市",
    "town": "津積"
  },
  "8240048": {
    "zipcode": "8240048",
    "prefectureCode": "40",
    "prefectureNumber": 40,
    "prefecture": "福岡県",
    "city": "行橋市",
    "town": "宝山"
  },
  "8240049": {
    "zipcode": "8240049",
    "prefectureCode": "40",
    "prefectureNumber": 40,
    "prefecture": "福岡県",
    "city": "行橋市",
    "town": "福原"
  },
  "8240051": {
    "zipcode": "8240051",
    "prefectureCode": "40",
    "prefectureNumber": 40,
    "prefecture": "福岡県",
    "city": "行橋市",
    "town": "下検地"
  },
  "8240052": {
    "zipcode": "8240052",
    "prefectureCode": "40",
    "prefectureNumber": 40,
    "prefecture": "福岡県",
    "city": "行橋市",
    "town": "上検地"
  },
  "8240053": {
    "zipcode": "8240053",
    "prefectureCode": "40",
    "prefectureNumber": 40,
    "prefecture": "福岡県",
    "city": "行橋市",
    "town": "中川"
  },
  "8240054": {
    "zipcode": "8240054",
    "prefectureCode": "40",
    "prefectureNumber": 40,
    "prefecture": "福岡県",
    "city": "行橋市",
    "town": "下稗田"
  },
  "8240055": {
    "zipcode": "8240055",
    "prefectureCode": "40",
    "prefectureNumber": 40,
    "prefecture": "福岡県",
    "city": "行橋市",
    "town": "上稗田"
  },
  "8240056": {
    "zipcode": "8240056",
    "prefectureCode": "40",
    "prefectureNumber": 40,
    "prefecture": "福岡県",
    "city": "行橋市",
    "town": "前田"
  },
  "8240057": {
    "zipcode": "8240057",
    "prefectureCode": "40",
    "prefectureNumber": 40,
    "prefecture": "福岡県",
    "city": "行橋市",
    "town": "宮の杜"
  },
  "8240058": {
    "zipcode": "8240058",
    "prefectureCode": "40",
    "prefectureNumber": 40,
    "prefecture": "福岡県",
    "city": "行橋市",
    "town": "長木"
  },
  "8240061": {
    "zipcode": "8240061",
    "prefectureCode": "40",
    "prefectureNumber": 40,
    "prefecture": "福岡県",
    "city": "行橋市",
    "town": "草野"
  },
  "8240062": {
    "zipcode": "8240062",
    "prefectureCode": "40",
    "prefectureNumber": 40,
    "prefecture": "福岡県",
    "city": "行橋市",
    "town": "下津熊"
  },
  "8240063": {
    "zipcode": "8240063",
    "prefectureCode": "40",
    "prefectureNumber": 40,
    "prefecture": "福岡県",
    "city": "行橋市",
    "town": "中津熊"
  },
  "8240064": {
    "zipcode": "8240064",
    "prefectureCode": "40",
    "prefectureNumber": 40,
    "prefecture": "福岡県",
    "city": "行橋市",
    "town": "上津熊"
  },
  "8240065": {
    "zipcode": "8240065",
    "prefectureCode": "40",
    "prefectureNumber": 40,
    "prefecture": "福岡県",
    "city": "行橋市",
    "town": "長音寺"
  },
  "8240066": {
    "zipcode": "8240066",
    "prefectureCode": "40",
    "prefectureNumber": 40,
    "prefecture": "福岡県",
    "city": "行橋市",
    "town": "吉国"
  },
  "8240067": {
    "zipcode": "8240067",
    "prefectureCode": "40",
    "prefectureNumber": 40,
    "prefecture": "福岡県",
    "city": "行橋市",
    "town": "二塚"
  },
  "8240068": {
    "zipcode": "8240068",
    "prefectureCode": "40",
    "prefectureNumber": 40,
    "prefecture": "福岡県",
    "city": "行橋市",
    "town": "延永"
  },
  "8240071": {
    "zipcode": "8240071",
    "prefectureCode": "40",
    "prefectureNumber": 40,
    "prefecture": "福岡県",
    "city": "行橋市",
    "town": "徳永"
  },
  "8240072": {
    "zipcode": "8240072",
    "prefectureCode": "40",
    "prefectureNumber": 40,
    "prefecture": "福岡県",
    "city": "行橋市",
    "town": "須磨園"
  },
  "8240073": {
    "zipcode": "8240073",
    "prefectureCode": "40",
    "prefectureNumber": 40,
    "prefecture": "福岡県",
    "city": "行橋市",
    "town": "福丸"
  },
  "8240074": {
    "zipcode": "8240074",
    "prefectureCode": "40",
    "prefectureNumber": 40,
    "prefecture": "福岡県",
    "city": "行橋市",
    "town": "常松"
  },
  "8240075": {
    "zipcode": "8240075",
    "prefectureCode": "40",
    "prefectureNumber": 40,
    "prefecture": "福岡県",
    "city": "行橋市",
    "town": "長尾"
  },
  "8240076": {
    "zipcode": "8240076",
    "prefectureCode": "40",
    "prefectureNumber": 40,
    "prefecture": "福岡県",
    "city": "行橋市",
    "town": "下崎"
  },
  "8240077": {
    "zipcode": "8240077",
    "prefectureCode": "40",
    "prefectureNumber": 40,
    "prefecture": "福岡県",
    "city": "行橋市",
    "town": "入覚"
  },
  "8240078": {
    "zipcode": "8240078",
    "prefectureCode": "40",
    "prefectureNumber": 40,
    "prefecture": "福岡県",
    "city": "行橋市",
    "town": "高来"
  },
  "8240079": {
    "zipcode": "8240079",
    "prefectureCode": "40",
    "prefectureNumber": 40,
    "prefecture": "福岡県",
    "city": "行橋市",
    "town": "矢山"
  },
  "8240101": {
    "zipcode": "8240101",
    "prefectureCode": "40",
    "prefectureNumber": 40,
    "prefecture": "福岡県",
    "city": "京都郡みやこ町",
    "town": "徳永"
  },
  "8240102": {
    "zipcode": "8240102",
    "prefectureCode": "40",
    "prefectureNumber": 40,
    "prefecture": "福岡県",
    "city": "京都郡みやこ町",
    "town": "呰見"
  },
  "8240103": {
    "zipcode": "8240103",
    "prefectureCode": "40",
    "prefectureNumber": 40,
    "prefecture": "福岡県",
    "city": "京都郡みやこ町",
    "town": "下原"
  },
  "8240104": {
    "zipcode": "8240104",
    "prefectureCode": "40",
    "prefectureNumber": 40,
    "prefecture": "福岡県",
    "city": "京都郡みやこ町",
    "town": "綾野"
  },
  "8240105": {
    "zipcode": "8240105",
    "prefectureCode": "40",
    "prefectureNumber": 40,
    "prefecture": "福岡県",
    "city": "京都郡みやこ町",
    "town": "徳政"
  },
  "8240106": {
    "zipcode": "8240106",
    "prefectureCode": "40",
    "prefectureNumber": 40,
    "prefecture": "福岡県",
    "city": "京都郡みやこ町",
    "town": "有久"
  },
  "8240107": {
    "zipcode": "8240107",
    "prefectureCode": "40",
    "prefectureNumber": 40,
    "prefecture": "福岡県",
    "city": "京都郡みやこ町",
    "town": "田中"
  },
  "8240111": {
    "zipcode": "8240111",
    "prefectureCode": "40",
    "prefectureNumber": 40,
    "prefecture": "福岡県",
    "city": "京都郡みやこ町",
    "town": "上坂"
  },
  "8240112": {
    "zipcode": "8240112",
    "prefectureCode": "40",
    "prefectureNumber": 40,
    "prefecture": "福岡県",
    "city": "京都郡みやこ町",
    "town": "上原"
  },
  "8240113": {
    "zipcode": "8240113",
    "prefectureCode": "40",
    "prefectureNumber": 40,
    "prefecture": "福岡県",
    "city": "京都郡みやこ町",
    "town": "吉岡"
  },
  "8240114": {
    "zipcode": "8240114",
    "prefectureCode": "40",
    "prefectureNumber": 40,
    "prefecture": "福岡県",
    "city": "京都郡みやこ町",
    "town": "節丸"
  },
  "8240115": {
    "zipcode": "8240115",
    "prefectureCode": "40",
    "prefectureNumber": 40,
    "prefecture": "福岡県",
    "city": "京都郡みやこ町",
    "town": "光冨"
  },
  "8240121": {
    "zipcode": "8240121",
    "prefectureCode": "40",
    "prefectureNumber": 40,
    "prefecture": "福岡県",
    "city": "京都郡みやこ町",
    "town": "豊津"
  },
  "8240122": {
    "zipcode": "8240122",
    "prefectureCode": "40",
    "prefectureNumber": 40,
    "prefecture": "福岡県",
    "city": "京都郡みやこ町",
    "town": "彦徳"
  },
  "8240123": {
    "zipcode": "8240123",
    "prefectureCode": "40",
    "prefectureNumber": 40,
    "prefecture": "福岡県",
    "city": "京都郡みやこ町",
    "town": "国分"
  },
  "8240124": {
    "zipcode": "8240124",
    "prefectureCode": "40",
    "prefectureNumber": 40,
    "prefecture": "福岡県",
    "city": "京都郡みやこ町",
    "town": "惣社"
  },
  "8240125": {
    "zipcode": "8240125",
    "prefectureCode": "40",
    "prefectureNumber": 40,
    "prefecture": "福岡県",
    "city": "京都郡みやこ町",
    "town": "国作"
  },
  "8240201": {
    "zipcode": "8240201",
    "prefectureCode": "40",
    "prefectureNumber": 40,
    "prefecture": "福岡県",
    "city": "京都郡みやこ町",
    "town": "犀川下高屋"
  },
  "8240202": {
    "zipcode": "8240202",
    "prefectureCode": "40",
    "prefectureNumber": 40,
    "prefecture": "福岡県",
    "city": "京都郡みやこ町",
    "town": "犀川上高屋"
  },
  "8240203": {
    "zipcode": "8240203",
    "prefectureCode": "40",
    "prefectureNumber": 40,
    "prefecture": "福岡県",
    "city": "京都郡みやこ町",
    "town": "犀川続命院"
  },
  "8240204": {
    "zipcode": "8240204",
    "prefectureCode": "40",
    "prefectureNumber": 40,
    "prefecture": "福岡県",
    "city": "京都郡みやこ町",
    "town": "犀川末江"
  },
  "8240205": {
    "zipcode": "8240205",
    "prefectureCode": "40",
    "prefectureNumber": 40,
    "prefecture": "福岡県",
    "city": "京都郡みやこ町",
    "town": "犀川久富"
  },
  "8240206": {
    "zipcode": "8240206",
    "prefectureCode": "40",
    "prefectureNumber": 40,
    "prefecture": "福岡県",
    "city": "京都郡みやこ町",
    "town": "犀川八ツ溝"
  },
  "8240207": {
    "zipcode": "8240207",
    "prefectureCode": "40",
    "prefectureNumber": 40,
    "prefecture": "福岡県",
    "city": "京都郡みやこ町",
    "town": "蔵持"
  },
  "8240211": {
    "zipcode": "8240211",
    "prefectureCode": "40",
    "prefectureNumber": 40,
    "prefecture": "福岡県",
    "city": "京都郡みやこ町",
    "town": "今里"
  },
  "8240212": {
    "zipcode": "8240212",
    "prefectureCode": "40",
    "prefectureNumber": 40,
    "prefecture": "福岡県",
    "city": "京都郡みやこ町",
    "town": "犀川大熊"
  },
  "8240213": {
    "zipcode": "8240213",
    "prefectureCode": "40",
    "prefectureNumber": 40,
    "prefecture": "福岡県",
    "city": "京都郡みやこ町",
    "town": "犀川喜多良"
  },
  "8240214": {
    "zipcode": "8240214",
    "prefectureCode": "40",
    "prefectureNumber": 40,
    "prefecture": "福岡県",
    "city": "京都郡みやこ町",
    "town": "犀川鐙畑"
  },
  "8240215": {
    "zipcode": "8240215",
    "prefectureCode": "40",
    "prefectureNumber": 40,
    "prefecture": "福岡県",
    "city": "京都郡みやこ町",
    "town": "犀川生立"
  },
  "8240216": {
    "zipcode": "8240216",
    "prefectureCode": "40",
    "prefectureNumber": 40,
    "prefecture": "福岡県",
    "city": "京都郡みやこ町",
    "town": "犀川谷口"
  },
  "8240217": {
    "zipcode": "8240217",
    "prefectureCode": "40",
    "prefectureNumber": 40,
    "prefecture": "福岡県",
    "city": "京都郡みやこ町",
    "town": "犀川古川"
  },
  "8240221": {
    "zipcode": "8240221",
    "prefectureCode": "40",
    "prefectureNumber": 40,
    "prefecture": "福岡県",
    "city": "京都郡みやこ町",
    "town": "犀川山鹿"
  },
  "8240222": {
    "zipcode": "8240222",
    "prefectureCode": "40",
    "prefectureNumber": 40,
    "prefecture": "福岡県",
    "city": "京都郡みやこ町",
    "town": "犀川大村"
  },
  "8240223": {
    "zipcode": "8240223",
    "prefectureCode": "40",
    "prefectureNumber": 40,
    "prefecture": "福岡県",
    "city": "京都郡みやこ町",
    "town": "犀川柳瀬"
  },
  "8240224": {
    "zipcode": "8240224",
    "prefectureCode": "40",
    "prefectureNumber": 40,
    "prefecture": "福岡県",
    "city": "京都郡みやこ町",
    "town": "犀川崎山"
  },
  "8240225": {
    "zipcode": "8240225",
    "prefectureCode": "40",
    "prefectureNumber": 40,
    "prefecture": "福岡県",
    "city": "京都郡みやこ町",
    "town": "犀川大坂"
  },
  "8240226": {
    "zipcode": "8240226",
    "prefectureCode": "40",
    "prefectureNumber": 40,
    "prefecture": "福岡県",
    "city": "京都郡みやこ町",
    "town": "松坂"
  },
  "8240231": {
    "zipcode": "8240231",
    "prefectureCode": "40",
    "prefectureNumber": 40,
    "prefecture": "福岡県",
    "city": "京都郡みやこ町",
    "town": "犀川本庄"
  },
  "8240232": {
    "zipcode": "8240232",
    "prefectureCode": "40",
    "prefectureNumber": 40,
    "prefecture": "福岡県",
    "city": "京都郡みやこ町",
    "town": "桜台"
  },
  "8240233": {
    "zipcode": "8240233",
    "prefectureCode": "40",
    "prefectureNumber": 40,
    "prefecture": "福岡県",
    "city": "京都郡みやこ町",
    "town": "犀川花熊"
  },
  "8240234": {
    "zipcode": "8240234",
    "prefectureCode": "40",
    "prefectureNumber": 40,
    "prefecture": "福岡県",
    "city": "京都郡みやこ町",
    "town": "下高屋団地"
  },
  "8240235": {
    "zipcode": "8240235",
    "prefectureCode": "40",
    "prefectureNumber": 40,
    "prefecture": "福岡県",
    "city": "京都郡みやこ町",
    "town": "犀川木山"
  },
  "8240241": {
    "zipcode": "8240241",
    "prefectureCode": "40",
    "prefectureNumber": 40,
    "prefecture": "福岡県",
    "city": "京都郡みやこ町",
    "town": "犀川内垣"
  },
  "8240242": {
    "zipcode": "8240242",
    "prefectureCode": "40",
    "prefectureNumber": 40,
    "prefecture": "福岡県",
    "city": "京都郡みやこ町",
    "town": "犀川犬丸"
  },
  "8240243": {
    "zipcode": "8240243",
    "prefectureCode": "40",
    "prefectureNumber": 40,
    "prefecture": "福岡県",
    "city": "京都郡みやこ町",
    "town": "犀川木井馬場"
  },
  "8240244": {
    "zipcode": "8240244",
    "prefectureCode": "40",
    "prefectureNumber": 40,
    "prefecture": "福岡県",
    "city": "京都郡みやこ町",
    "town": "犀川横瀬"
  },
  "8240251": {
    "zipcode": "8240251",
    "prefectureCode": "40",
    "prefectureNumber": 40,
    "prefecture": "福岡県",
    "city": "京都郡みやこ町",
    "town": "犀川下伊良原"
  },
  "8240252": {
    "zipcode": "8240252",
    "prefectureCode": "40",
    "prefectureNumber": 40,
    "prefecture": "福岡県",
    "city": "京都郡みやこ町",
    "town": "犀川上伊良原"
  },
  "8240253": {
    "zipcode": "8240253",
    "prefectureCode": "40",
    "prefectureNumber": 40,
    "prefecture": "福岡県",
    "city": "京都郡みやこ町",
    "town": "犀川帆柱"
  },
  "8240254": {
    "zipcode": "8240254",
    "prefectureCode": "40",
    "prefectureNumber": 40,
    "prefecture": "福岡県",
    "city": "京都郡みやこ町",
    "town": "犀川扇谷"
  },
  "8240400": {
    "zipcode": "8240400",
    "prefectureCode": "40",
    "prefectureNumber": 40,
    "prefecture": "福岡県",
    "city": "田川郡赤村",
    "town": "以下に掲載がない場合"
  },
  "8240411": {
    "zipcode": "8240411",
    "prefectureCode": "40",
    "prefectureNumber": 40,
    "prefecture": "福岡県",
    "city": "田川郡添田町",
    "town": "津野"
  },
  "8240431": {
    "zipcode": "8240431",
    "prefectureCode": "40",
    "prefectureNumber": 40,
    "prefecture": "福岡県",
    "city": "田川郡赤村",
    "town": "赤"
  },
  "8240432": {
    "zipcode": "8240432",
    "prefectureCode": "40",
    "prefectureNumber": 40,
    "prefecture": "福岡県",
    "city": "田川郡赤村",
    "town": "内田"
  },
  "8240500": {
    "zipcode": "8240500",
    "prefectureCode": "40",
    "prefectureNumber": 40,
    "prefecture": "福岡県",
    "city": "田川郡大任町",
    "town": "以下に掲載がない場合"
  },
  "8240511": {
    "zipcode": "8240511",
    "prefectureCode": "40",
    "prefectureNumber": 40,
    "prefecture": "福岡県",
    "city": "田川郡大任町",
    "town": "今任原"
  },
  "8240512": {
    "zipcode": "8240512",
    "prefectureCode": "40",
    "prefectureNumber": 40,
    "prefecture": "福岡県",
    "city": "田川郡大任町",
    "town": "大行事"
  },
  "8240600": {
    "zipcode": "8240600",
    "prefectureCode": "40",
    "prefectureNumber": 40,
    "prefecture": "福岡県",
    "city": "田川郡添田町",
    "town": "以下に掲載がない場合"
  },
  "8240601": {
    "zipcode": "8240601",
    "prefectureCode": "40",
    "prefectureNumber": 40,
    "prefecture": "福岡県",
    "city": "田川郡添田町",
    "town": "庄"
  },
  "8240602": {
    "zipcode": "8240602",
    "prefectureCode": "40",
    "prefectureNumber": 40,
    "prefecture": "福岡県",
    "city": "田川郡添田町",
    "town": "添田"
  },
  "8240603": {
    "zipcode": "8240603",
    "prefectureCode": "40",
    "prefectureNumber": 40,
    "prefecture": "福岡県",
    "city": "田川郡添田町",
    "town": "中元寺"
  },
  "8240604": {
    "zipcode": "8240604",
    "prefectureCode": "40",
    "prefectureNumber": 40,
    "prefecture": "福岡県",
    "city": "田川郡添田町",
    "town": "野田"
  },
  "8240721": {
    "zipcode": "8240721",
    "prefectureCode": "40",
    "prefectureNumber": 40,
    "prefecture": "福岡県",
    "city": "田川郡添田町",
    "town": "英彦山"
  },
  "8240722": {
    "zipcode": "8240722",
    "prefectureCode": "40",
    "prefectureNumber": 40,
    "prefecture": "福岡県",
    "city": "田川郡添田町",
    "town": "落合"
  },
  "8240723": {
    "zipcode": "8240723",
    "prefectureCode": "40",
    "prefectureNumber": 40,
    "prefecture": "福岡県",
    "city": "田川郡添田町",
    "town": "桝田"
  },
  "8240800": {
    "zipcode": "8240800",
    "prefectureCode": "40",
    "prefectureNumber": 40,
    "prefecture": "福岡県",
    "city": "京都郡みやこ町",
    "town": "以下に掲載がない場合"
  },
  "8240801": {
    "zipcode": "8240801",
    "prefectureCode": "40",
    "prefectureNumber": 40,
    "prefecture": "福岡県",
    "city": "京都郡みやこ町",
    "town": "勝山大久保"
  },
  "8240802": {
    "zipcode": "8240802",
    "prefectureCode": "40",
    "prefectureNumber": 40,
    "prefecture": "福岡県",
    "city": "京都郡みやこ町",
    "town": "勝山松田"
  },
  "8240811": {
    "zipcode": "8240811",
    "prefectureCode": "40",
    "prefectureNumber": 40,
    "prefecture": "福岡県",
    "city": "京都郡みやこ町",
    "town": "勝山箕田"
  },
  "8240812": {
    "zipcode": "8240812",
    "prefectureCode": "40",
    "prefectureNumber": 40,
    "prefecture": "福岡県",
    "city": "京都郡みやこ町",
    "town": "勝山長川"
  },
  "8240813": {
    "zipcode": "8240813",
    "prefectureCode": "40",
    "prefectureNumber": 40,
    "prefecture": "福岡県",
    "city": "京都郡みやこ町",
    "town": "勝山宮原"
  },
  "8240814": {
    "zipcode": "8240814",
    "prefectureCode": "40",
    "prefectureNumber": 40,
    "prefecture": "福岡県",
    "city": "京都郡みやこ町",
    "town": "勝山浦河内"
  },
  "8240815": {
    "zipcode": "8240815",
    "prefectureCode": "40",
    "prefectureNumber": 40,
    "prefecture": "福岡県",
    "city": "京都郡みやこ町",
    "town": "勝山上矢山"
  },
  "8240816": {
    "zipcode": "8240816",
    "prefectureCode": "40",
    "prefectureNumber": 40,
    "prefecture": "福岡県",
    "city": "京都郡みやこ町",
    "town": "勝山矢山"
  },
  "8240817": {
    "zipcode": "8240817",
    "prefectureCode": "40",
    "prefectureNumber": 40,
    "prefecture": "福岡県",
    "city": "京都郡みやこ町",
    "town": "勝山岩熊"
  },
  "8240818": {
    "zipcode": "8240818",
    "prefectureCode": "40",
    "prefectureNumber": 40,
    "prefecture": "福岡県",
    "city": "京都郡みやこ町",
    "town": "勝山池田"
  },
  "8240821": {
    "zipcode": "8240821",
    "prefectureCode": "40",
    "prefectureNumber": 40,
    "prefecture": "福岡県",
    "city": "京都郡みやこ町",
    "town": "勝山上田"
  },
  "8240822": {
    "zipcode": "8240822",
    "prefectureCode": "40",
    "prefectureNumber": 40,
    "prefecture": "福岡県",
    "city": "京都郡みやこ町",
    "town": "勝山黒田"
  }
}
