{
  "8250000": {
    "zipcode": "8250000",
    "prefectureCode": "40",
    "prefectureNumber": 40,
    "prefecture": "福岡県",
    "city": "田川市",
    "town": "以下に掲載がない場合"
  },
  "8250001": {
    "zipcode": "8250001",
    "prefectureCode": "40",
    "prefectureNumber": 40,
    "prefecture": "福岡県",
    "city": "田川市",
    "town": "伊加利"
  },
  "8250002": {
    "zipcode": "8250002",
    "prefectureCode": "40",
    "prefectureNumber": 40,
    "prefecture": "福岡県",
    "city": "田川市",
    "town": "伊田"
  },
  "8250003": {
    "zipcode": "8250003",
    "prefectureCode": "40",
    "prefectureNumber": 40,
    "prefecture": "福岡県",
    "city": "田川市",
    "town": "白鳥町"
  },
  "8250004": {
    "zipcode": "8250004",
    "prefectureCode": "40",
    "prefectureNumber": 40,
    "prefecture": "福岡県",
    "city": "田川市",
    "town": "夏吉"
  },
  "8250005": {
    "zipcode": "8250005",
    "prefectureCode": "40",
    "prefectureNumber": 40,
    "prefecture": "福岡県",
    "city": "田川市",
    "town": "糒"
  },
  "8250011": {
    "zipcode": "8250011",
    "prefectureCode": "40",
    "prefectureNumber": 40,
    "prefecture": "福岡県",
    "city": "田川市",
    "town": "栄町"
  },
  "8250012": {
    "zipcode": "8250012",
    "prefectureCode": "40",
    "prefectureNumber": 40,
    "prefecture": "福岡県",
    "city": "田川市",
    "town": "日の出町"
  },
  "8250013": {
    "zipcode": "8250013",
    "prefectureCode": "40",
    "prefectureNumber": 40,
    "prefecture": "福岡県",
    "city": "田川市",
    "town": "中央町"
  },
  "8250014": {
    "zipcode": "8250014",
    "prefectureCode": "40",
    "prefectureNumber": 40,
    "prefecture": "福岡県",
    "city": "田川市",
    "town": "魚町"
  },
  "8250015": {
    "zipcode": "8250015",
    "prefectureCode": "40",
    "prefectureNumber": 40,
    "prefecture": "福岡県",
    "city": "田川市",
    "town": "伊田町"
  },
  "8250016": {
    "zipcode": "8250016",
    "prefectureCode": "40",
    "prefectureNumber": 40,
    "prefecture": "福岡県",
    "city": "田川市",
    "town": "新町"
  },
  "8250017": {
    "zipcode": "8250017",
    "prefectureCode": "40",
    "prefectureNumber": 40,
    "prefecture": "福岡県",
    "city": "田川市",
    "town": "寿町"
  },
  "8250018": {
    "zipcode": "8250018",
    "prefectureCode": "40",
    "prefectureNumber": 40,
    "prefecture": "福岡県",
    "city": "田川市",
    "town": "番田町"
  }
}
