{
  "8260002": {
    "zipcode": "8260002",
    "prefectureCode": "40",
    "prefectureNumber": 40,
    "prefecture": "福岡県",
    "city": "田川郡川崎町",
    "town": "池尻（上原、小倉畔）"
  },
  "8260021": {
    "zipcode": "8260021",
    "prefectureCode": "40",
    "prefectureNumber": 40,
    "prefecture": "福岡県",
    "city": "田川市",
    "town": "桜町"
  },
  "8260022": {
    "zipcode": "8260022",
    "prefectureCode": "40",
    "prefectureNumber": 40,
    "prefecture": "福岡県",
    "city": "田川市",
    "town": "本町"
  },
  "8260023": {
    "zipcode": "8260023",
    "prefectureCode": "40",
    "prefectureNumber": 40,
    "prefecture": "福岡県",
    "city": "田川市",
    "town": "上本町"
  },
  "8260024": {
    "zipcode": "8260024",
    "prefectureCode": "40",
    "prefectureNumber": 40,
    "prefecture": "福岡県",
    "city": "田川市",
    "town": "西本町"
  },
  "8260025": {
    "zipcode": "8260025",
    "prefectureCode": "40",
    "prefectureNumber": 40,
    "prefecture": "福岡県",
    "city": "田川市",
    "town": "大黒町"
  },
  "8260026": {
    "zipcode": "8260026",
    "prefectureCode": "40",
    "prefectureNumber": 40,
    "prefecture": "福岡県",
    "city": "田川市",
    "town": "春日町"
  },
  "8260027": {
    "zipcode": "8260027",
    "prefectureCode": "40",
    "prefectureNumber": 40,
    "prefecture": "福岡県",
    "city": "田川市",
    "town": "宮尾町"
  },
  "8260031": {
    "zipcode": "8260031",
    "prefectureCode": "40",
    "prefectureNumber": 40,
    "prefecture": "福岡県",
    "city": "田川市",
    "town": "千代町"
  },
  "8260032": {
    "zipcode": "8260032",
    "prefectureCode": "40",
    "prefectureNumber": 40,
    "prefecture": "福岡県",
    "city": "田川市",
    "town": "平松町"
  },
  "8260033": {
    "zipcode": "8260033",
    "prefectureCode": "40",
    "prefectureNumber": 40,
    "prefecture": "福岡県",
    "city": "田川市",
    "town": "丸山町"
  },
  "8260041": {
    "zipcode": "8260041",
    "prefectureCode": "40",
    "prefectureNumber": 40,
    "prefecture": "福岡県",
    "city": "田川市",
    "town": "弓削田（角銅原、野上、船尾、見立、文字山）"
  },
  "8260042": {
    "zipcode": "8260042",
    "prefectureCode": "40",
    "prefectureNumber": 40,
    "prefecture": "福岡県",
    "city": "田川市",
    "town": "川宮（大藪、新生町、高住町、平岡）"
  },
  "8260043": {
    "zipcode": "8260043",
    "prefectureCode": "40",
    "prefectureNumber": 40,
    "prefecture": "福岡県",
    "city": "田川市",
    "town": "奈良（青葉町、大浦、会社町、霞ケ丘、後藤寺西団地、後藤寺東団地、希望ケ丘、松の木、三井後藤寺、緑町、月見ケ丘）"
  },
  "8260044": {
    "zipcode": "8260044",
    "prefectureCode": "40",
    "prefectureNumber": 40,
    "prefecture": "福岡県",
    "city": "田川市",
    "town": "位登（猪位金４〜７区、清美町）"
  },
  "8260045": {
    "zipcode": "8260045",
    "prefectureCode": "40",
    "prefectureNumber": 40,
    "prefecture": "福岡県",
    "city": "田川市",
    "town": "猪国（猪位金１〜３区）"
  }
}
