{
  "8280000": {
    "zipcode": "8280000",
    "prefectureCode": "40",
    "prefectureNumber": 40,
    "prefecture": "福岡県",
    "city": "豊前市",
    "town": "以下に掲載がない場合"
  },
  "8280001": {
    "zipcode": "8280001",
    "prefectureCode": "40",
    "prefectureNumber": 40,
    "prefecture": "福岡県",
    "city": "豊前市",
    "town": "畠中"
  },
  "8280002": {
    "zipcode": "8280002",
    "prefectureCode": "40",
    "prefectureNumber": 40,
    "prefecture": "福岡県",
    "city": "豊前市",
    "town": "松江"
  },
  "8280003": {
    "zipcode": "8280003",
    "prefectureCode": "40",
    "prefectureNumber": 40,
    "prefecture": "福岡県",
    "city": "豊前市",
    "town": "中村"
  },
  "8280004": {
    "zipcode": "8280004",
    "prefectureCode": "40",
    "prefectureNumber": 40,
    "prefecture": "福岡県",
    "city": "豊前市",
    "town": "馬場"
  },
  "8280005": {
    "zipcode": "8280005",
    "prefectureCode": "40",
    "prefectureNumber": 40,
    "prefecture": "福岡県",
    "city": "豊前市",
    "town": "畑"
  },
  "8280011": {
    "zipcode": "8280011",
    "prefectureCode": "40",
    "prefectureNumber": 40,
    "prefecture": "福岡県",
    "city": "豊前市",
    "town": "四郎丸"
  },
  "8280012": {
    "zipcode": "8280012",
    "prefectureCode": "40",
    "prefectureNumber": 40,
    "prefecture": "福岡県",
    "city": "豊前市",
    "town": "鳥越"
  },
  "8280013": {
    "zipcode": "8280013",
    "prefectureCode": "40",
    "prefectureNumber": 40,
    "prefecture": "福岡県",
    "city": "豊前市",
    "town": "川内"
  },
  "8280021": {
    "zipcode": "8280021",
    "prefectureCode": "40",
    "prefectureNumber": 40,
    "prefecture": "福岡県",
    "city": "豊前市",
    "town": "八屋"
  },
  "8280022": {
    "zipcode": "8280022",
    "prefectureCode": "40",
    "prefectureNumber": 40,
    "prefecture": "福岡県",
    "city": "豊前市",
    "town": "宇島"
  },
  "8280023": {
    "zipcode": "8280023",
    "prefectureCode": "40",
    "prefectureNumber": 40,
    "prefecture": "福岡県",
    "city": "豊前市",
    "town": "沓川"
  },
  "8280024": {
    "zipcode": "8280024",
    "prefectureCode": "40",
    "prefectureNumber": 40,
    "prefecture": "福岡県",
    "city": "豊前市",
    "town": "久松"
  },
  "8280025": {
    "zipcode": "8280025",
    "prefectureCode": "40",
    "prefectureNumber": 40,
    "prefecture": "福岡県",
    "city": "豊前市",
    "town": "恒富"
  },
  "8280026": {
    "zipcode": "8280026",
    "prefectureCode": "40",
    "prefectureNumber": 40,
    "prefecture": "福岡県",
    "city": "豊前市",
    "town": "清水町"
  },
  "8280027": {
    "zipcode": "8280027",
    "prefectureCode": "40",
    "prefectureNumber": 40,
    "prefecture": "福岡県",
    "city": "豊前市",
    "town": "赤熊"
  },
  "8280028": {
    "zipcode": "8280028",
    "prefectureCode": "40",
    "prefectureNumber": 40,
    "prefecture": "福岡県",
    "city": "豊前市",
    "town": "青豊"
  },
  "8280031": {
    "zipcode": "8280031",
    "prefectureCode": "40",
    "prefectureNumber": 40,
    "prefecture": "福岡県",
    "city": "豊前市",
    "town": "三毛門"
  },
  "8280032": {
    "zipcode": "8280032",
    "prefectureCode": "40",
    "prefectureNumber": 40,
    "prefecture": "福岡県",
    "city": "豊前市",
    "town": "三楽"
  },
  "8280033": {
    "zipcode": "8280033",
    "prefectureCode": "40",
    "prefectureNumber": 40,
    "prefecture": "福岡県",
    "city": "豊前市",
    "town": "六郎"
  },
  "8280034": {
    "zipcode": "8280034",
    "prefectureCode": "40",
    "prefectureNumber": 40,
    "prefecture": "福岡県",
    "city": "豊前市",
    "town": "森久"
  },
  "8280035": {
    "zipcode": "8280035",
    "prefectureCode": "40",
    "prefectureNumber": 40,
    "prefecture": "福岡県",
    "city": "豊前市",
    "town": "市丸"
  },
  "8280036": {
    "zipcode": "8280036",
    "prefectureCode": "40",
    "prefectureNumber": 40,
    "prefecture": "福岡県",
    "city": "豊前市",
    "town": "小犬丸"
  },
  "8280041": {
    "zipcode": "8280041",
    "prefectureCode": "40",
    "prefectureNumber": 40,
    "prefecture": "福岡県",
    "city": "豊前市",
    "town": "梶屋"
  },
  "8280042": {
    "zipcode": "8280042",
    "prefectureCode": "40",
    "prefectureNumber": 40,
    "prefecture": "福岡県",
    "city": "豊前市",
    "town": "堀立"
  },
  "8280043": {
    "zipcode": "8280043",
    "prefectureCode": "40",
    "prefectureNumber": 40,
    "prefecture": "福岡県",
    "city": "豊前市",
    "town": "岸井"
  },
  "8280044": {
    "zipcode": "8280044",
    "prefectureCode": "40",
    "prefectureNumber": 40,
    "prefecture": "福岡県",
    "city": "豊前市",
    "town": "小石原"
  },
  "8280045": {
    "zipcode": "8280045",
    "prefectureCode": "40",
    "prefectureNumber": 40,
    "prefecture": "福岡県",
    "city": "豊前市",
    "town": "皆毛"
  },
  "8280046": {
    "zipcode": "8280046",
    "prefectureCode": "40",
    "prefectureNumber": 40,
    "prefecture": "福岡県",
    "city": "豊前市",
    "town": "高田"
  },
  "8280047": {
    "zipcode": "8280047",
    "prefectureCode": "40",
    "prefectureNumber": 40,
    "prefecture": "福岡県",
    "city": "豊前市",
    "town": "広瀬"
  },
  "8280048": {
    "zipcode": "8280048",
    "prefectureCode": "40",
    "prefectureNumber": 40,
    "prefecture": "福岡県",
    "city": "豊前市",
    "town": "久路土"
  },
  "8280049": {
    "zipcode": "8280049",
    "prefectureCode": "40",
    "prefectureNumber": 40,
    "prefecture": "福岡県",
    "city": "豊前市",
    "town": "鬼木"
  },
  "8280051": {
    "zipcode": "8280051",
    "prefectureCode": "40",
    "prefectureNumber": 40,
    "prefecture": "福岡県",
    "city": "豊前市",
    "town": "吉木"
  },
  "8280052": {
    "zipcode": "8280052",
    "prefectureCode": "40",
    "prefectureNumber": 40,
    "prefecture": "福岡県",
    "city": "豊前市",
    "town": "塔田"
  },
  "8280053": {
    "zipcode": "8280053",
    "prefectureCode": "40",
    "prefectureNumber": 40,
    "prefecture": "福岡県",
    "city": "豊前市",
    "town": "千束"
  },
  "8280054": {
    "zipcode": "8280054",
    "prefectureCode": "40",
    "prefectureNumber": 40,
    "prefecture": "福岡県",
    "city": "豊前市",
    "town": "永久"
  },
  "8280055": {
    "zipcode": "8280055",
    "prefectureCode": "40",
    "prefectureNumber": 40,
    "prefecture": "福岡県",
    "city": "豊前市",
    "town": "河原田"
  },
  "8280056": {
    "zipcode": "8280056",
    "prefectureCode": "40",
    "prefectureNumber": 40,
    "prefecture": "福岡県",
    "city": "豊前市",
    "town": "薬師寺"
  },
  "8280061": {
    "zipcode": "8280061",
    "prefectureCode": "40",
    "prefectureNumber": 40,
    "prefecture": "福岡県",
    "city": "豊前市",
    "town": "荒堀"
  },
  "8280062": {
    "zipcode": "8280062",
    "prefectureCode": "40",
    "prefectureNumber": 40,
    "prefecture": "福岡県",
    "city": "豊前市",
    "town": "今市"
  },
  "8280063": {
    "zipcode": "8280063",
    "prefectureCode": "40",
    "prefectureNumber": 40,
    "prefecture": "福岡県",
    "city": "豊前市",
    "town": "野田"
  },
  "8280064": {
    "zipcode": "8280064",
    "prefectureCode": "40",
    "prefectureNumber": 40,
    "prefecture": "福岡県",
    "city": "豊前市",
    "town": "大西"
  },
  "8280065": {
    "zipcode": "8280065",
    "prefectureCode": "40",
    "prefectureNumber": 40,
    "prefecture": "福岡県",
    "city": "豊前市",
    "town": "青畑"
  },
  "8280066": {
    "zipcode": "8280066",
    "prefectureCode": "40",
    "prefectureNumber": 40,
    "prefecture": "福岡県",
    "city": "豊前市",
    "town": "大村"
  },
  "8280071": {
    "zipcode": "8280071",
    "prefectureCode": "40",
    "prefectureNumber": 40,
    "prefecture": "福岡県",
    "city": "豊前市",
    "town": "山内"
  },
  "8280072": {
    "zipcode": "8280072",
    "prefectureCode": "40",
    "prefectureNumber": 40,
    "prefecture": "福岡県",
    "city": "豊前市",
    "town": "才尾"
  },
  "8280073": {
    "zipcode": "8280073",
    "prefectureCode": "40",
    "prefectureNumber": 40,
    "prefecture": "福岡県",
    "city": "豊前市",
    "town": "挾間"
  },
  "8280074": {
    "zipcode": "8280074",
    "prefectureCode": "40",
    "prefectureNumber": 40,
    "prefecture": "福岡県",
    "city": "豊前市",
    "town": "下河内"
  },
  "8280075": {
    "zipcode": "8280075",
    "prefectureCode": "40",
    "prefectureNumber": 40,
    "prefecture": "福岡県",
    "city": "豊前市",
    "town": "下川底"
  },
  "8280076": {
    "zipcode": "8280076",
    "prefectureCode": "40",
    "prefectureNumber": 40,
    "prefecture": "福岡県",
    "city": "豊前市",
    "town": "中川底"
  },
  "8280077": {
    "zipcode": "8280077",
    "prefectureCode": "40",
    "prefectureNumber": 40,
    "prefecture": "福岡県",
    "city": "豊前市",
    "town": "上川底"
  },
  "8280081": {
    "zipcode": "8280081",
    "prefectureCode": "40",
    "prefectureNumber": 40,
    "prefecture": "福岡県",
    "city": "豊前市",
    "town": "天和"
  },
  "8280082": {
    "zipcode": "8280082",
    "prefectureCode": "40",
    "prefectureNumber": 40,
    "prefecture": "福岡県",
    "city": "豊前市",
    "town": "大河内"
  },
  "8280083": {
    "zipcode": "8280083",
    "prefectureCode": "40",
    "prefectureNumber": 40,
    "prefecture": "福岡県",
    "city": "豊前市",
    "town": "岩屋"
  },
  "8280084": {
    "zipcode": "8280084",
    "prefectureCode": "40",
    "prefectureNumber": 40,
    "prefecture": "福岡県",
    "city": "豊前市",
    "town": "篠瀬"
  },
  "8280085": {
    "zipcode": "8280085",
    "prefectureCode": "40",
    "prefectureNumber": 40,
    "prefecture": "福岡県",
    "city": "豊前市",
    "town": "鳥井畑"
  },
  "8280086": {
    "zipcode": "8280086",
    "prefectureCode": "40",
    "prefectureNumber": 40,
    "prefecture": "福岡県",
    "city": "豊前市",
    "town": "求菩提"
  }
}
