{
  "8300001": {
    "zipcode": "8300001",
    "prefectureCode": "40",
    "prefectureNumber": 40,
    "prefecture": "福岡県",
    "city": "久留米市",
    "town": "小森野"
  },
  "8300002": {
    "zipcode": "8300002",
    "prefectureCode": "40",
    "prefectureNumber": 40,
    "prefecture": "福岡県",
    "city": "久留米市",
    "town": "高野"
  },
  "8300003": {
    "zipcode": "8300003",
    "prefectureCode": "40",
    "prefectureNumber": 40,
    "prefecture": "福岡県",
    "city": "久留米市",
    "town": "東櫛原町"
  },
  "8300004": {
    "zipcode": "8300004",
    "prefectureCode": "40",
    "prefectureNumber": 40,
    "prefecture": "福岡県",
    "city": "久留米市",
    "town": "南薫町"
  },
  "8300005": {
    "zipcode": "8300005",
    "prefectureCode": "40",
    "prefectureNumber": 40,
    "prefecture": "福岡県",
    "city": "久留米市",
    "town": "通外町"
  },
  "8300006": {
    "zipcode": "8300006",
    "prefectureCode": "40",
    "prefectureNumber": 40,
    "prefecture": "福岡県",
    "city": "久留米市",
    "town": "南薫西町"
  },
  "8300011": {
    "zipcode": "8300011",
    "prefectureCode": "40",
    "prefectureNumber": 40,
    "prefecture": "福岡県",
    "city": "久留米市",
    "town": "旭町"
  },
  "8300012": {
    "zipcode": "8300012",
    "prefectureCode": "40",
    "prefectureNumber": 40,
    "prefecture": "福岡県",
    "city": "久留米市",
    "town": "日ノ出町"
  },
  "8300013": {
    "zipcode": "8300013",
    "prefectureCode": "40",
    "prefectureNumber": 40,
    "prefecture": "福岡県",
    "city": "久留米市",
    "town": "櫛原町"
  },
  "8300014": {
    "zipcode": "8300014",
    "prefectureCode": "40",
    "prefectureNumber": 40,
    "prefecture": "福岡県",
    "city": "久留米市",
    "town": "寺町"
  },
  "8300015": {
    "zipcode": "8300015",
    "prefectureCode": "40",
    "prefectureNumber": 40,
    "prefecture": "福岡県",
    "city": "久留米市",
    "town": "螢川町"
  },
  "8300016": {
    "zipcode": "8300016",
    "prefectureCode": "40",
    "prefectureNumber": 40,
    "prefecture": "福岡県",
    "city": "久留米市",
    "town": "通東町"
  },
  "8300017": {
    "zipcode": "8300017",
    "prefectureCode": "40",
    "prefectureNumber": 40,
    "prefecture": "福岡県",
    "city": "久留米市",
    "town": "日吉町"
  },
  "8300018": {
    "zipcode": "8300018",
    "prefectureCode": "40",
    "prefectureNumber": 40,
    "prefecture": "福岡県",
    "city": "久留米市",
    "town": "通町"
  },
  "8300019": {
    "zipcode": "8300019",
    "prefectureCode": "40",
    "prefectureNumber": 40,
    "prefecture": "福岡県",
    "city": "久留米市",
    "town": "小森野町"
  },
  "8300021": {
    "zipcode": "8300021",
    "prefectureCode": "40",
    "prefectureNumber": 40,
    "prefecture": "福岡県",
    "city": "久留米市",
    "town": "篠山町"
  },
  "8300022": {
    "zipcode": "8300022",
    "prefectureCode": "40",
    "prefectureNumber": 40,
    "prefecture": "福岡県",
    "city": "久留米市",
    "town": "城南町"
  },
  "8300023": {
    "zipcode": "8300023",
    "prefectureCode": "40",
    "prefectureNumber": 40,
    "prefecture": "福岡県",
    "city": "久留米市",
    "town": "中央町"
  },
  "8300024": {
    "zipcode": "8300024",
    "prefectureCode": "40",
    "prefectureNumber": 40,
    "prefecture": "福岡県",
    "city": "久留米市",
    "town": "縄手町"
  },
  "8300025": {
    "zipcode": "8300025",
    "prefectureCode": "40",
    "prefectureNumber": 40,
    "prefecture": "福岡県",
    "city": "久留米市",
    "town": "瀬下町"
  },
  "8300026": {
    "zipcode": "8300026",
    "prefectureCode": "40",
    "prefectureNumber": 40,
    "prefecture": "福岡県",
    "city": "久留米市",
    "town": "長門石町"
  },
  "8300027": {
    "zipcode": "8300027",
    "prefectureCode": "40",
    "prefectureNumber": 40,
    "prefecture": "福岡県",
    "city": "久留米市",
    "town": "長門石"
  },
  "8300028": {
    "zipcode": "8300028",
    "prefectureCode": "40",
    "prefectureNumber": 40,
    "prefecture": "福岡県",
    "city": "久留米市",
    "town": "京町"
  },
  "8300029": {
    "zipcode": "8300029",
    "prefectureCode": "40",
    "prefectureNumber": 40,
    "prefecture": "福岡県",
    "city": "久留米市",
    "town": "洗町"
  },
  "8300031": {
    "zipcode": "8300031",
    "prefectureCode": "40",
    "prefectureNumber": 40,
    "prefecture": "福岡県",
    "city": "久留米市",
    "town": "六ツ門町"
  },
  "8300032": {
    "zipcode": "8300032",
    "prefectureCode": "40",
    "prefectureNumber": 40,
    "prefecture": "福岡県",
    "city": "久留米市",
    "town": "東町"
  },
  "8300033": {
    "zipcode": "8300033",
    "prefectureCode": "40",
    "prefectureNumber": 40,
    "prefecture": "福岡県",
    "city": "久留米市",
    "town": "天神町"
  },
  "8300034": {
    "zipcode": "8300034",
    "prefectureCode": "40",
    "prefectureNumber": 40,
    "prefecture": "福岡県",
    "city": "久留米市",
    "town": "大手町"
  },
  "8300035": {
    "zipcode": "8300035",
    "prefectureCode": "40",
    "prefectureNumber": 40,
    "prefecture": "福岡県",
    "city": "久留米市",
    "town": "東和町"
  },
  "8300036": {
    "zipcode": "8300036",
    "prefectureCode": "40",
    "prefectureNumber": 40,
    "prefecture": "福岡県",
    "city": "久留米市",
    "town": "篠原町"
  },
  "8300037": {
    "zipcode": "8300037",
    "prefectureCode": "40",
    "prefectureNumber": 40,
    "prefecture": "福岡県",
    "city": "久留米市",
    "town": "諏訪野町"
  },
  "8300038": {
    "zipcode": "8300038",
    "prefectureCode": "40",
    "prefectureNumber": 40,
    "prefecture": "福岡県",
    "city": "久留米市",
    "town": "西町"
  },
  "8300039": {
    "zipcode": "8300039",
    "prefectureCode": "40",
    "prefectureNumber": 40,
    "prefecture": "福岡県",
    "city": "久留米市",
    "town": "花畑"
  },
  "8300041": {
    "zipcode": "8300041",
    "prefectureCode": "40",
    "prefectureNumber": 40,
    "prefecture": "福岡県",
    "city": "久留米市",
    "town": "白山町"
  },
  "8300042": {
    "zipcode": "8300042",
    "prefectureCode": "40",
    "prefectureNumber": 40,
    "prefecture": "福岡県",
    "city": "久留米市",
    "town": "荘島町"
  },
  "8300043": {
    "zipcode": "8300043",
    "prefectureCode": "40",
    "prefectureNumber": 40,
    "prefecture": "福岡県",
    "city": "久留米市",
    "town": "松ケ枝町"
  },
  "8300044": {
    "zipcode": "8300044",
    "prefectureCode": "40",
    "prefectureNumber": 40,
    "prefecture": "福岡県",
    "city": "久留米市",
    "town": "本町"
  },
  "8300045": {
    "zipcode": "8300045",
    "prefectureCode": "40",
    "prefectureNumber": 40,
    "prefecture": "福岡県",
    "city": "久留米市",
    "town": "小頭町"
  },
  "8300046": {
    "zipcode": "8300046",
    "prefectureCode": "40",
    "prefectureNumber": 40,
    "prefecture": "福岡県",
    "city": "久留米市",
    "town": "原古賀町"
  },
  "8300047": {
    "zipcode": "8300047",
    "prefectureCode": "40",
    "prefectureNumber": 40,
    "prefecture": "福岡県",
    "city": "久留米市",
    "town": "津福本町"
  },
  "8300048": {
    "zipcode": "8300048",
    "prefectureCode": "40",
    "prefectureNumber": 40,
    "prefecture": "福岡県",
    "city": "久留米市",
    "town": "梅満町"
  },
  "8300049": {
    "zipcode": "8300049",
    "prefectureCode": "40",
    "prefectureNumber": 40,
    "prefecture": "福岡県",
    "city": "久留米市",
    "town": "大石町"
  },
  "8300051": {
    "zipcode": "8300051",
    "prefectureCode": "40",
    "prefectureNumber": 40,
    "prefecture": "福岡県",
    "city": "久留米市",
    "town": "南"
  },
  "8300052": {
    "zipcode": "8300052",
    "prefectureCode": "40",
    "prefectureNumber": 40,
    "prefecture": "福岡県",
    "city": "久留米市",
    "town": "上津町"
  },
  "8300053": {
    "zipcode": "8300053",
    "prefectureCode": "40",
    "prefectureNumber": 40,
    "prefecture": "福岡県",
    "city": "久留米市",
    "town": "藤山町"
  },
  "8300054": {
    "zipcode": "8300054",
    "prefectureCode": "40",
    "prefectureNumber": 40,
    "prefecture": "福岡県",
    "city": "久留米市",
    "town": "藤光町"
  },
  "8300055": {
    "zipcode": "8300055",
    "prefectureCode": "40",
    "prefectureNumber": 40,
    "prefecture": "福岡県",
    "city": "久留米市",
    "town": "上津"
  },
  "8300056": {
    "zipcode": "8300056",
    "prefectureCode": "40",
    "prefectureNumber": 40,
    "prefecture": "福岡県",
    "city": "久留米市",
    "town": "本山"
  },
  "8300057": {
    "zipcode": "8300057",
    "prefectureCode": "40",
    "prefectureNumber": 40,
    "prefecture": "福岡県",
    "city": "久留米市",
    "town": "藤光"
  },
  "8300058": {
    "zipcode": "8300058",
    "prefectureCode": "40",
    "prefectureNumber": 40,
    "prefecture": "福岡県",
    "city": "久留米市",
    "town": "野伏間"
  },
  "8300059": {
    "zipcode": "8300059",
    "prefectureCode": "40",
    "prefectureNumber": 40,
    "prefecture": "福岡県",
    "city": "久留米市",
    "town": "江戸屋敷"
  },
  "8300061": {
    "zipcode": "8300061",
    "prefectureCode": "40",
    "prefectureNumber": 40,
    "prefecture": "福岡県",
    "city": "久留米市",
    "town": "津福今町"
  },
  "8300062": {
    "zipcode": "8300062",
    "prefectureCode": "40",
    "prefectureNumber": 40,
    "prefecture": "福岡県",
    "city": "久留米市",
    "town": "荒木町白口"
  },
  "8300063": {
    "zipcode": "8300063",
    "prefectureCode": "40",
    "prefectureNumber": 40,
    "prefecture": "福岡県",
    "city": "久留米市",
    "town": "荒木町荒木"
  },
  "8300064": {
    "zipcode": "8300064",
    "prefectureCode": "40",
    "prefectureNumber": 40,
    "prefecture": "福岡県",
    "city": "久留米市",
    "town": "荒木町藤田"
  },
  "8300065": {
    "zipcode": "8300065",
    "prefectureCode": "40",
    "prefectureNumber": 40,
    "prefecture": "福岡県",
    "city": "久留米市",
    "town": "荒木町今"
  },
  "8300066": {
    "zipcode": "8300066",
    "prefectureCode": "40",
    "prefectureNumber": 40,
    "prefecture": "福岡県",
    "city": "久留米市",
    "town": "荒木町下荒木"
  },
  "8300070": {
    "zipcode": "8300070",
    "prefectureCode": "40",
    "prefectureNumber": 40,
    "prefecture": "福岡県",
    "city": "久留米市",
    "town": "大善寺南"
  },
  "8300071": {
    "zipcode": "8300071",
    "prefectureCode": "40",
    "prefectureNumber": 40,
    "prefecture": "福岡県",
    "city": "久留米市",
    "town": "安武町武島"
  },
  "8300072": {
    "zipcode": "8300072",
    "prefectureCode": "40",
    "prefectureNumber": 40,
    "prefecture": "福岡県",
    "city": "久留米市",
    "town": "安武町安武本"
  },
  "8300073": {
    "zipcode": "8300073",
    "prefectureCode": "40",
    "prefectureNumber": 40,
    "prefecture": "福岡県",
    "city": "久留米市",
    "town": "大善寺町宮本"
  },
  "8300074": {
    "zipcode": "8300074",
    "prefectureCode": "40",
    "prefectureNumber": 40,
    "prefecture": "福岡県",
    "city": "久留米市",
    "town": "大善寺町夜明"
  },
  "8300075": {
    "zipcode": "8300075",
    "prefectureCode": "40",
    "prefectureNumber": 40,
    "prefecture": "福岡県",
    "city": "久留米市",
    "town": "大善寺町黒田"
  },
  "8300076": {
    "zipcode": "8300076",
    "prefectureCode": "40",
    "prefectureNumber": 40,
    "prefecture": "福岡県",
    "city": "久留米市",
    "town": "大善寺町藤吉"
  },
  "8300077": {
    "zipcode": "8300077",
    "prefectureCode": "40",
    "prefectureNumber": 40,
    "prefecture": "福岡県",
    "city": "久留米市",
    "town": "大善寺町中津"
  },
  "8300078": {
    "zipcode": "8300078",
    "prefectureCode": "40",
    "prefectureNumber": 40,
    "prefecture": "福岡県",
    "city": "久留米市",
    "town": "安武町住吉"
  },
  "8300079": {
    "zipcode": "8300079",
    "prefectureCode": "40",
    "prefectureNumber": 40,
    "prefecture": "福岡県",
    "city": "久留米市",
    "town": "大善寺大橋"
  },
  "8300101": {
    "zipcode": "8300101",
    "prefectureCode": "40",
    "prefectureNumber": 40,
    "prefecture": "福岡県",
    "city": "久留米市",
    "town": "三潴町早津崎"
  },
  "8300102": {
    "zipcode": "8300102",
    "prefectureCode": "40",
    "prefectureNumber": 40,
    "prefecture": "福岡県",
    "city": "久留米市",
    "town": "三潴町田川"
  },
  "8300103": {
    "zipcode": "8300103",
    "prefectureCode": "40",
    "prefectureNumber": 40,
    "prefecture": "福岡県",
    "city": "久留米市",
    "town": "三潴町高三潴"
  },
  "8300104": {
    "zipcode": "8300104",
    "prefectureCode": "40",
    "prefectureNumber": 40,
    "prefecture": "福岡県",
    "city": "久留米市",
    "town": "三潴町原田"
  },
  "8300105": {
    "zipcode": "8300105",
    "prefectureCode": "40",
    "prefectureNumber": 40,
    "prefecture": "福岡県",
    "city": "久留米市",
    "town": "三潴町草場"
  },
  "8300111": {
    "zipcode": "8300111",
    "prefectureCode": "40",
    "prefectureNumber": 40,
    "prefecture": "福岡県",
    "city": "久留米市",
    "town": "三潴町西牟田"
  },
  "8300112": {
    "zipcode": "8300112",
    "prefectureCode": "40",
    "prefectureNumber": 40,
    "prefecture": "福岡県",
    "city": "久留米市",
    "town": "三潴町玉満"
  },
  "8300113": {
    "zipcode": "8300113",
    "prefectureCode": "40",
    "prefectureNumber": 40,
    "prefecture": "福岡県",
    "city": "久留米市",
    "town": "三潴町生岩"
  },
  "8300114": {
    "zipcode": "8300114",
    "prefectureCode": "40",
    "prefectureNumber": 40,
    "prefecture": "福岡県",
    "city": "久留米市",
    "town": "三潴町福光"
  },
  "8300115": {
    "zipcode": "8300115",
    "prefectureCode": "40",
    "prefectureNumber": 40,
    "prefecture": "福岡県",
    "city": "久留米市",
    "town": "三潴町壱町原"
  },
  "8300116": {
    "zipcode": "8300116",
    "prefectureCode": "40",
    "prefectureNumber": 40,
    "prefecture": "福岡県",
    "city": "久留米市",
    "town": "三潴町清松"
  },
  "8300201": {
    "zipcode": "8300201",
    "prefectureCode": "40",
    "prefectureNumber": 40,
    "prefecture": "福岡県",
    "city": "久留米市",
    "town": "城島町芦塚"
  },
  "8300202": {
    "zipcode": "8300202",
    "prefectureCode": "40",
    "prefectureNumber": 40,
    "prefecture": "福岡県",
    "city": "久留米市",
    "town": "城島町下田"
  },
  "8300203": {
    "zipcode": "8300203",
    "prefectureCode": "40",
    "prefectureNumber": 40,
    "prefecture": "福岡県",
    "city": "久留米市",
    "town": "城島町浜"
  },
  "8300204": {
    "zipcode": "8300204",
    "prefectureCode": "40",
    "prefectureNumber": 40,
    "prefecture": "福岡県",
    "city": "久留米市",
    "town": "城島町内野"
  },
  "8300205": {
    "zipcode": "8300205",
    "prefectureCode": "40",
    "prefectureNumber": 40,
    "prefecture": "福岡県",
    "city": "久留米市",
    "town": "城島町大依"
  },
  "8300206": {
    "zipcode": "8300206",
    "prefectureCode": "40",
    "prefectureNumber": 40,
    "prefecture": "福岡県",
    "city": "久留米市",
    "town": "城島町六町原"
  },
  "8300207": {
    "zipcode": "8300207",
    "prefectureCode": "40",
    "prefectureNumber": 40,
    "prefecture": "福岡県",
    "city": "久留米市",
    "town": "城島町城島"
  },
  "8300211": {
    "zipcode": "8300211",
    "prefectureCode": "40",
    "prefectureNumber": 40,
    "prefecture": "福岡県",
    "city": "久留米市",
    "town": "城島町楢津"
  },
  "8300212": {
    "zipcode": "8300212",
    "prefectureCode": "40",
    "prefectureNumber": 40,
    "prefecture": "福岡県",
    "city": "久留米市",
    "town": "城島町江上上"
  },
  "8300213": {
    "zipcode": "8300213",
    "prefectureCode": "40",
    "prefectureNumber": 40,
    "prefecture": "福岡県",
    "city": "久留米市",
    "town": "城島町江上"
  },
  "8300214": {
    "zipcode": "8300214",
    "prefectureCode": "40",
    "prefectureNumber": 40,
    "prefecture": "福岡県",
    "city": "久留米市",
    "town": "城島町江上本"
  },
  "8300215": {
    "zipcode": "8300215",
    "prefectureCode": "40",
    "prefectureNumber": 40,
    "prefecture": "福岡県",
    "city": "久留米市",
    "town": "城島町原中牟田"
  },
  "8300216": {
    "zipcode": "8300216",
    "prefectureCode": "40",
    "prefectureNumber": 40,
    "prefecture": "福岡県",
    "city": "久留米市",
    "town": "城島町江島"
  },
  "8300221": {
    "zipcode": "8300221",
    "prefectureCode": "40",
    "prefectureNumber": 40,
    "prefecture": "福岡県",
    "city": "久留米市",
    "town": "城島町浮島"
  },
  "8300222": {
    "zipcode": "8300222",
    "prefectureCode": "40",
    "prefectureNumber": 40,
    "prefecture": "福岡県",
    "city": "久留米市",
    "town": "城島町青木島"
  },
  "8300223": {
    "zipcode": "8300223",
    "prefectureCode": "40",
    "prefectureNumber": 40,
    "prefecture": "福岡県",
    "city": "久留米市",
    "town": "城島町四郎丸"
  },
  "8300224": {
    "zipcode": "8300224",
    "prefectureCode": "40",
    "prefectureNumber": 40,
    "prefecture": "福岡県",
    "city": "久留米市",
    "town": "城島町上青木"
  },
  "8300225": {
    "zipcode": "8300225",
    "prefectureCode": "40",
    "prefectureNumber": 40,
    "prefecture": "福岡県",
    "city": "久留米市",
    "town": "城島町下青木"
  },
  "8300226": {
    "zipcode": "8300226",
    "prefectureCode": "40",
    "prefectureNumber": 40,
    "prefecture": "福岡県",
    "city": "久留米市",
    "town": "城島町西青木"
  },
  "8300400": {
    "zipcode": "8300400",
    "prefectureCode": "40",
    "prefectureNumber": 40,
    "prefecture": "福岡県",
    "city": "三潴郡大木町",
    "town": "以下に掲載がない場合"
  },
  "8300401": {
    "zipcode": "8300401",
    "prefectureCode": "40",
    "prefectureNumber": 40,
    "prefecture": "福岡県",
    "city": "三潴郡大木町",
    "town": "笹渕"
  },
  "8300402": {
    "zipcode": "8300402",
    "prefectureCode": "40",
    "prefectureNumber": 40,
    "prefecture": "福岡県",
    "city": "三潴郡大木町",
    "town": "福土"
  },
  "8300403": {
    "zipcode": "8300403",
    "prefectureCode": "40",
    "prefectureNumber": 40,
    "prefecture": "福岡県",
    "city": "三潴郡大木町",
    "town": "大角"
  },
  "8300404": {
    "zipcode": "8300404",
    "prefectureCode": "40",
    "prefectureNumber": 40,
    "prefecture": "福岡県",
    "city": "三潴郡大木町",
    "town": "上白垣"
  },
  "8300405": {
    "zipcode": "8300405",
    "prefectureCode": "40",
    "prefectureNumber": 40,
    "prefecture": "福岡県",
    "city": "三潴郡大木町",
    "town": "横溝"
  },
  "8300406": {
    "zipcode": "8300406",
    "prefectureCode": "40",
    "prefectureNumber": 40,
    "prefecture": "福岡県",
    "city": "三潴郡大木町",
    "town": "前牟田"
  },
  "8300411": {
    "zipcode": "8300411",
    "prefectureCode": "40",
    "prefectureNumber": 40,
    "prefecture": "福岡県",
    "city": "三潴郡大木町",
    "town": "蛭池"
  },
  "8300412": {
    "zipcode": "8300412",
    "prefectureCode": "40",
    "prefectureNumber": 40,
    "prefecture": "福岡県",
    "city": "三潴郡大木町",
    "town": "侍島"
  },
  "8300413": {
    "zipcode": "8300413",
    "prefectureCode": "40",
    "prefectureNumber": 40,
    "prefecture": "福岡県",
    "city": "三潴郡大木町",
    "town": "上牟田口"
  },
  "8300414": {
    "zipcode": "8300414",
    "prefectureCode": "40",
    "prefectureNumber": 40,
    "prefecture": "福岡県",
    "city": "三潴郡大木町",
    "town": "上木佐木"
  },
  "8300415": {
    "zipcode": "8300415",
    "prefectureCode": "40",
    "prefectureNumber": 40,
    "prefecture": "福岡県",
    "city": "三潴郡大木町",
    "town": "絵下古賀"
  },
  "8300416": {
    "zipcode": "8300416",
    "prefectureCode": "40",
    "prefectureNumber": 40,
    "prefecture": "福岡県",
    "city": "三潴郡大木町",
    "town": "八町牟田"
  },
  "8300417": {
    "zipcode": "8300417",
    "prefectureCode": "40",
    "prefectureNumber": 40,
    "prefecture": "福岡県",
    "city": "三潴郡大木町",
    "town": "上八院"
  },
  "8300421": {
    "zipcode": "8300421",
    "prefectureCode": "40",
    "prefectureNumber": 40,
    "prefecture": "福岡県",
    "city": "三潴郡大木町",
    "town": "奥牟田"
  },
  "8300422": {
    "zipcode": "8300422",
    "prefectureCode": "40",
    "prefectureNumber": 40,
    "prefecture": "福岡県",
    "city": "三潴郡大木町",
    "town": "高橋"
  },
  "8300423": {
    "zipcode": "8300423",
    "prefectureCode": "40",
    "prefectureNumber": 40,
    "prefecture": "福岡県",
    "city": "三潴郡大木町",
    "town": "大藪"
  },
  "8300424": {
    "zipcode": "8300424",
    "prefectureCode": "40",
    "prefectureNumber": 40,
    "prefecture": "福岡県",
    "city": "三潴郡大木町",
    "town": "三八松"
  },
  "8300425": {
    "zipcode": "8300425",
    "prefectureCode": "40",
    "prefectureNumber": 40,
    "prefecture": "福岡県",
    "city": "三潴郡大木町",
    "town": "筏溝"
  },
  "8301101": {
    "zipcode": "8301101",
    "prefectureCode": "40",
    "prefectureNumber": 40,
    "prefecture": "福岡県",
    "city": "久留米市",
    "town": "北野町中川"
  },
  "8301102": {
    "zipcode": "8301102",
    "prefectureCode": "40",
    "prefectureNumber": 40,
    "prefecture": "福岡県",
    "city": "久留米市",
    "town": "北野町八重亀"
  },
  "8301103": {
    "zipcode": "8301103",
    "prefectureCode": "40",
    "prefectureNumber": 40,
    "prefecture": "福岡県",
    "city": "久留米市",
    "town": "北野町金島"
  },
  "8301104": {
    "zipcode": "8301104",
    "prefectureCode": "40",
    "prefectureNumber": 40,
    "prefecture": "福岡県",
    "city": "久留米市",
    "town": "北野町大城"
  },
  "8301105": {
    "zipcode": "8301105",
    "prefectureCode": "40",
    "prefectureNumber": 40,
    "prefecture": "福岡県",
    "city": "久留米市",
    "town": "北野町中島"
  },
  "8301106": {
    "zipcode": "8301106",
    "prefectureCode": "40",
    "prefectureNumber": 40,
    "prefecture": "福岡県",
    "city": "久留米市",
    "town": "北野町仁王丸"
  },
  "8301107": {
    "zipcode": "8301107",
    "prefectureCode": "40",
    "prefectureNumber": 40,
    "prefecture": "福岡県",
    "city": "久留米市",
    "town": "北野町塚島"
  },
  "8301111": {
    "zipcode": "8301111",
    "prefectureCode": "40",
    "prefectureNumber": 40,
    "prefecture": "福岡県",
    "city": "久留米市",
    "town": "北野町千代島"
  },
  "8301112": {
    "zipcode": "8301112",
    "prefectureCode": "40",
    "prefectureNumber": 40,
    "prefecture": "福岡県",
    "city": "久留米市",
    "town": "北野町陣屋"
  },
  "8301113": {
    "zipcode": "8301113",
    "prefectureCode": "40",
    "prefectureNumber": 40,
    "prefecture": "福岡県",
    "city": "久留米市",
    "town": "北野町中"
  },
  "8301114": {
    "zipcode": "8301114",
    "prefectureCode": "40",
    "prefectureNumber": 40,
    "prefecture": "福岡県",
    "city": "久留米市",
    "town": "北野町高良"
  },
  "8301115": {
    "zipcode": "8301115",
    "prefectureCode": "40",
    "prefectureNumber": 40,
    "prefecture": "福岡県",
    "city": "久留米市",
    "town": "北野町鳥巣"
  },
  "8301116": {
    "zipcode": "8301116",
    "prefectureCode": "40",
    "prefectureNumber": 40,
    "prefecture": "福岡県",
    "city": "久留米市",
    "town": "北野町石崎"
  },
  "8301117": {
    "zipcode": "8301117",
    "prefectureCode": "40",
    "prefectureNumber": 40,
    "prefecture": "福岡県",
    "city": "久留米市",
    "town": "北野町上弓削"
  },
  "8301121": {
    "zipcode": "8301121",
    "prefectureCode": "40",
    "prefectureNumber": 40,
    "prefecture": "福岡県",
    "city": "久留米市",
    "town": "北野町十郎丸"
  },
  "8301122": {
    "zipcode": "8301122",
    "prefectureCode": "40",
    "prefectureNumber": 40,
    "prefecture": "福岡県",
    "city": "久留米市",
    "town": "北野町今山"
  },
  "8301123": {
    "zipcode": "8301123",
    "prefectureCode": "40",
    "prefectureNumber": 40,
    "prefecture": "福岡県",
    "city": "久留米市",
    "town": "北野町冨多"
  },
  "8301124": {
    "zipcode": "8301124",
    "prefectureCode": "40",
    "prefectureNumber": 40,
    "prefecture": "福岡県",
    "city": "久留米市",
    "town": "北野町乙吉"
  },
  "8301125": {
    "zipcode": "8301125",
    "prefectureCode": "40",
    "prefectureNumber": 40,
    "prefecture": "福岡県",
    "city": "久留米市",
    "town": "北野町乙丸"
  },
  "8301126": {
    "zipcode": "8301126",
    "prefectureCode": "40",
    "prefectureNumber": 40,
    "prefecture": "福岡県",
    "city": "久留米市",
    "town": "北野町稲数"
  },
  "8301127": {
    "zipcode": "8301127",
    "prefectureCode": "40",
    "prefectureNumber": 40,
    "prefecture": "福岡県",
    "city": "久留米市",
    "town": "北野町赤司"
  },
  "8301200": {
    "zipcode": "8301200",
    "prefectureCode": "40",
    "prefectureNumber": 40,
    "prefecture": "福岡県",
    "city": "三井郡大刀洗町",
    "town": "以下に掲載がない場合"
  },
  "8301201": {
    "zipcode": "8301201",
    "prefectureCode": "40",
    "prefectureNumber": 40,
    "prefecture": "福岡県",
    "city": "三井郡大刀洗町",
    "town": "冨多"
  },
  "8301202": {
    "zipcode": "8301202",
    "prefectureCode": "40",
    "prefectureNumber": 40,
    "prefecture": "福岡県",
    "city": "三井郡大刀洗町",
    "town": "菅野"
  },
  "8301203": {
    "zipcode": "8301203",
    "prefectureCode": "40",
    "prefectureNumber": 40,
    "prefecture": "福岡県",
    "city": "三井郡大刀洗町",
    "town": "三川"
  },
  "8301204": {
    "zipcode": "8301204",
    "prefectureCode": "40",
    "prefectureNumber": 40,
    "prefecture": "福岡県",
    "city": "三井郡大刀洗町",
    "town": "西原"
  },
  "8301205": {
    "zipcode": "8301205",
    "prefectureCode": "40",
    "prefectureNumber": 40,
    "prefecture": "福岡県",
    "city": "三井郡大刀洗町",
    "town": "守部"
  },
  "8301206": {
    "zipcode": "8301206",
    "prefectureCode": "40",
    "prefectureNumber": 40,
    "prefecture": "福岡県",
    "city": "三井郡大刀洗町",
    "town": "中川"
  },
  "8301211": {
    "zipcode": "8301211",
    "prefectureCode": "40",
    "prefectureNumber": 40,
    "prefecture": "福岡県",
    "city": "三井郡大刀洗町",
    "town": "本郷"
  },
  "8301212": {
    "zipcode": "8301212",
    "prefectureCode": "40",
    "prefectureNumber": 40,
    "prefecture": "福岡県",
    "city": "三井郡大刀洗町",
    "town": "甲条"
  },
  "8301213": {
    "zipcode": "8301213",
    "prefectureCode": "40",
    "prefectureNumber": 40,
    "prefecture": "福岡県",
    "city": "三井郡大刀洗町",
    "town": "春日"
  },
  "8301214": {
    "zipcode": "8301214",
    "prefectureCode": "40",
    "prefectureNumber": 40,
    "prefecture": "福岡県",
    "city": "三井郡大刀洗町",
    "town": "栄田"
  },
  "8301221": {
    "zipcode": "8301221",
    "prefectureCode": "40",
    "prefectureNumber": 40,
    "prefecture": "福岡県",
    "city": "三井郡大刀洗町",
    "town": "高樋"
  },
  "8301222": {
    "zipcode": "8301222",
    "prefectureCode": "40",
    "prefectureNumber": 40,
    "prefecture": "福岡県",
    "city": "三井郡大刀洗町",
    "town": "上高橋"
  },
  "8301223": {
    "zipcode": "8301223",
    "prefectureCode": "40",
    "prefectureNumber": 40,
    "prefecture": "福岡県",
    "city": "三井郡大刀洗町",
    "town": "今"
  },
  "8301224": {
    "zipcode": "8301224",
    "prefectureCode": "40",
    "prefectureNumber": 40,
    "prefecture": "福岡県",
    "city": "三井郡大刀洗町",
    "town": "鵜木"
  },
  "8301225": {
    "zipcode": "8301225",
    "prefectureCode": "40",
    "prefectureNumber": 40,
    "prefecture": "福岡県",
    "city": "三井郡大刀洗町",
    "town": "下高橋"
  },
  "8301226": {
    "zipcode": "8301226",
    "prefectureCode": "40",
    "prefectureNumber": 40,
    "prefecture": "福岡県",
    "city": "三井郡大刀洗町",
    "town": "山隈"
  }
}
