{
  "8310000": {
    "zipcode": "8310000",
    "prefectureCode": "40",
    "prefectureNumber": 40,
    "prefecture": "福岡県",
    "city": "大川市",
    "town": "以下に掲載がない場合"
  },
  "8310001": {
    "zipcode": "8310001",
    "prefectureCode": "40",
    "prefectureNumber": 40,
    "prefecture": "福岡県",
    "city": "大川市",
    "town": "下青木"
  },
  "8310002": {
    "zipcode": "8310002",
    "prefectureCode": "40",
    "prefectureNumber": 40,
    "prefecture": "福岡県",
    "city": "大川市",
    "town": "下林"
  },
  "8310003": {
    "zipcode": "8310003",
    "prefectureCode": "40",
    "prefectureNumber": 40,
    "prefecture": "福岡県",
    "city": "大川市",
    "town": "諸富"
  },
  "8310004": {
    "zipcode": "8310004",
    "prefectureCode": "40",
    "prefectureNumber": 40,
    "prefecture": "福岡県",
    "city": "大川市",
    "town": "榎津"
  },
  "8310005": {
    "zipcode": "8310005",
    "prefectureCode": "40",
    "prefectureNumber": 40,
    "prefecture": "福岡県",
    "city": "大川市",
    "town": "向島"
  },
  "8310006": {
    "zipcode": "8310006",
    "prefectureCode": "40",
    "prefectureNumber": 40,
    "prefecture": "福岡県",
    "city": "大川市",
    "town": "中古賀"
  },
  "8310007": {
    "zipcode": "8310007",
    "prefectureCode": "40",
    "prefectureNumber": 40,
    "prefecture": "福岡県",
    "city": "大川市",
    "town": "道海島"
  },
  "8310008": {
    "zipcode": "8310008",
    "prefectureCode": "40",
    "prefectureNumber": 40,
    "prefecture": "福岡県",
    "city": "大川市",
    "town": "鐘ケ江"
  },
  "8310011": {
    "zipcode": "8310011",
    "prefectureCode": "40",
    "prefectureNumber": 40,
    "prefecture": "福岡県",
    "city": "大川市",
    "town": "下白垣"
  },
  "8310012": {
    "zipcode": "8310012",
    "prefectureCode": "40",
    "prefectureNumber": 40,
    "prefecture": "福岡県",
    "city": "大川市",
    "town": "上白垣"
  },
  "8310013": {
    "zipcode": "8310013",
    "prefectureCode": "40",
    "prefectureNumber": 40,
    "prefecture": "福岡県",
    "city": "大川市",
    "town": "中八院"
  },
  "8310014": {
    "zipcode": "8310014",
    "prefectureCode": "40",
    "prefectureNumber": 40,
    "prefecture": "福岡県",
    "city": "大川市",
    "town": "中木室"
  },
  "8310015": {
    "zipcode": "8310015",
    "prefectureCode": "40",
    "prefectureNumber": 40,
    "prefecture": "福岡県",
    "city": "大川市",
    "town": "本木室"
  },
  "8310016": {
    "zipcode": "8310016",
    "prefectureCode": "40",
    "prefectureNumber": 40,
    "prefecture": "福岡県",
    "city": "大川市",
    "town": "酒見"
  },
  "8310017": {
    "zipcode": "8310017",
    "prefectureCode": "40",
    "prefectureNumber": 40,
    "prefecture": "福岡県",
    "city": "大川市",
    "town": "下八院"
  },
  "8310021": {
    "zipcode": "8310021",
    "prefectureCode": "40",
    "prefectureNumber": 40,
    "prefecture": "福岡県",
    "city": "大川市",
    "town": "大橋"
  },
  "8310022": {
    "zipcode": "8310022",
    "prefectureCode": "40",
    "prefectureNumber": 40,
    "prefecture": "福岡県",
    "city": "大川市",
    "town": "下木佐木"
  },
  "8310023": {
    "zipcode": "8310023",
    "prefectureCode": "40",
    "prefectureNumber": 40,
    "prefecture": "福岡県",
    "city": "大川市",
    "town": "下牟田口"
  },
  "8310024": {
    "zipcode": "8310024",
    "prefectureCode": "40",
    "prefectureNumber": 40,
    "prefecture": "福岡県",
    "city": "大川市",
    "town": "鬼古賀"
  },
  "8310025": {
    "zipcode": "8310025",
    "prefectureCode": "40",
    "prefectureNumber": 40,
    "prefecture": "福岡県",
    "city": "大川市",
    "town": "坂井"
  },
  "8310026": {
    "zipcode": "8310026",
    "prefectureCode": "40",
    "prefectureNumber": 40,
    "prefecture": "福岡県",
    "city": "大川市",
    "town": "三丸"
  },
  "8310027": {
    "zipcode": "8310027",
    "prefectureCode": "40",
    "prefectureNumber": 40,
    "prefecture": "福岡県",
    "city": "大川市",
    "town": "荻島"
  },
  "8310028": {
    "zipcode": "8310028",
    "prefectureCode": "40",
    "prefectureNumber": 40,
    "prefecture": "福岡県",
    "city": "大川市",
    "town": "郷原"
  },
  "8310031": {
    "zipcode": "8310031",
    "prefectureCode": "40",
    "prefectureNumber": 40,
    "prefecture": "福岡県",
    "city": "大川市",
    "town": "上巻"
  },
  "8310032": {
    "zipcode": "8310032",
    "prefectureCode": "40",
    "prefectureNumber": 40,
    "prefecture": "福岡県",
    "city": "大川市",
    "town": "北古賀"
  },
  "8310033": {
    "zipcode": "8310033",
    "prefectureCode": "40",
    "prefectureNumber": 40,
    "prefecture": "福岡県",
    "city": "大川市",
    "town": "幡保"
  },
  "8310034": {
    "zipcode": "8310034",
    "prefectureCode": "40",
    "prefectureNumber": 40,
    "prefecture": "福岡県",
    "city": "大川市",
    "town": "一木"
  },
  "8310035": {
    "zipcode": "8310035",
    "prefectureCode": "40",
    "prefectureNumber": 40,
    "prefecture": "福岡県",
    "city": "大川市",
    "town": "津"
  },
  "8310041": {
    "zipcode": "8310041",
    "prefectureCode": "40",
    "prefectureNumber": 40,
    "prefecture": "福岡県",
    "city": "大川市",
    "town": "小保"
  },
  "8310042": {
    "zipcode": "8310042",
    "prefectureCode": "40",
    "prefectureNumber": 40,
    "prefecture": "福岡県",
    "city": "大川市",
    "town": "九網"
  },
  "8310043": {
    "zipcode": "8310043",
    "prefectureCode": "40",
    "prefectureNumber": 40,
    "prefecture": "福岡県",
    "city": "大川市",
    "town": "新田"
  },
  "8310044": {
    "zipcode": "8310044",
    "prefectureCode": "40",
    "prefectureNumber": 40,
    "prefecture": "福岡県",
    "city": "大川市",
    "town": "紅粉屋"
  },
  "8310045": {
    "zipcode": "8310045",
    "prefectureCode": "40",
    "prefectureNumber": 40,
    "prefecture": "福岡県",
    "city": "大川市",
    "town": "大野島"
  }
}
