{
  "8320000": {
    "zipcode": "8320000",
    "prefectureCode": "40",
    "prefectureNumber": 40,
    "prefecture": "福岡県",
    "city": "柳川市",
    "town": "以下に掲載がない場合"
  },
  "8320001": {
    "zipcode": "8320001",
    "prefectureCode": "40",
    "prefectureNumber": 40,
    "prefecture": "福岡県",
    "city": "柳川市",
    "town": "蒲生"
  },
  "8320002": {
    "zipcode": "8320002",
    "prefectureCode": "40",
    "prefectureNumber": 40,
    "prefecture": "福岡県",
    "city": "柳川市",
    "town": "高島"
  },
  "8320003": {
    "zipcode": "8320003",
    "prefectureCode": "40",
    "prefectureNumber": 40,
    "prefecture": "福岡県",
    "city": "柳川市",
    "town": "立石"
  },
  "8320004": {
    "zipcode": "8320004",
    "prefectureCode": "40",
    "prefectureNumber": 40,
    "prefecture": "福岡県",
    "city": "柳川市",
    "town": "矢加部"
  },
  "8320005": {
    "zipcode": "8320005",
    "prefectureCode": "40",
    "prefectureNumber": 40,
    "prefecture": "福岡県",
    "city": "柳川市",
    "town": "西蒲池"
  },
  "8320006": {
    "zipcode": "8320006",
    "prefectureCode": "40",
    "prefectureNumber": 40,
    "prefecture": "福岡県",
    "city": "柳川市",
    "town": "東蒲池"
  },
  "8320007": {
    "zipcode": "8320007",
    "prefectureCode": "40",
    "prefectureNumber": 40,
    "prefecture": "福岡県",
    "city": "柳川市",
    "town": "金納"
  },
  "8320011": {
    "zipcode": "8320011",
    "prefectureCode": "40",
    "prefectureNumber": 40,
    "prefecture": "福岡県",
    "city": "柳川市",
    "town": "保加町"
  },
  "8320012": {
    "zipcode": "8320012",
    "prefectureCode": "40",
    "prefectureNumber": 40,
    "prefecture": "福岡県",
    "city": "柳川市",
    "town": "中町"
  },
  "8320013": {
    "zipcode": "8320013",
    "prefectureCode": "40",
    "prefectureNumber": 40,
    "prefecture": "福岡県",
    "city": "柳川市",
    "town": "上町"
  },
  "8320014": {
    "zipcode": "8320014",
    "prefectureCode": "40",
    "prefectureNumber": 40,
    "prefecture": "福岡県",
    "city": "柳川市",
    "town": "八百屋町"
  },
  "8320015": {
    "zipcode": "8320015",
    "prefectureCode": "40",
    "prefectureNumber": 40,
    "prefecture": "福岡県",
    "city": "柳川市",
    "town": "西魚屋町"
  },
  "8320016": {
    "zipcode": "8320016",
    "prefectureCode": "40",
    "prefectureNumber": 40,
    "prefecture": "福岡県",
    "city": "柳川市",
    "town": "蟹町"
  },
  "8320017": {
    "zipcode": "8320017",
    "prefectureCode": "40",
    "prefectureNumber": 40,
    "prefecture": "福岡県",
    "city": "柳川市",
    "town": "材木町"
  },
  "8320018": {
    "zipcode": "8320018",
    "prefectureCode": "40",
    "prefectureNumber": 40,
    "prefecture": "福岡県",
    "city": "柳川市",
    "town": "本船津町"
  },
  "8320021": {
    "zipcode": "8320021",
    "prefectureCode": "40",
    "prefectureNumber": 40,
    "prefecture": "福岡県",
    "city": "柳川市",
    "town": "隅町"
  },
  "8320022": {
    "zipcode": "8320022",
    "prefectureCode": "40",
    "prefectureNumber": 40,
    "prefecture": "福岡県",
    "city": "柳川市",
    "town": "旭町"
  },
  "8320023": {
    "zipcode": "8320023",
    "prefectureCode": "40",
    "prefectureNumber": 40,
    "prefecture": "福岡県",
    "city": "柳川市",
    "town": "京町"
  },
  "8320024": {
    "zipcode": "8320024",
    "prefectureCode": "40",
    "prefectureNumber": 40,
    "prefecture": "福岡県",
    "city": "柳川市",
    "town": "辻町"
  },
  "8320025": {
    "zipcode": "8320025",
    "prefectureCode": "40",
    "prefectureNumber": 40,
    "prefecture": "福岡県",
    "city": "柳川市",
    "town": "恵美須町"
  },
  "8320026": {
    "zipcode": "8320026",
    "prefectureCode": "40",
    "prefectureNumber": 40,
    "prefecture": "福岡県",
    "city": "柳川市",
    "town": "曙町"
  },
  "8320027": {
    "zipcode": "8320027",
    "prefectureCode": "40",
    "prefectureNumber": 40,
    "prefecture": "福岡県",
    "city": "柳川市",
    "town": "横山町"
  },
  "8320028": {
    "zipcode": "8320028",
    "prefectureCode": "40",
    "prefectureNumber": 40,
    "prefecture": "福岡県",
    "city": "柳川市",
    "town": "常盤町"
  },
  "8320029": {
    "zipcode": "8320029",
    "prefectureCode": "40",
    "prefectureNumber": 40,
    "prefecture": "福岡県",
    "city": "柳川市",
    "town": "八軒町"
  },
  "8320031": {
    "zipcode": "8320031",
    "prefectureCode": "40",
    "prefectureNumber": 40,
    "prefecture": "福岡県",
    "city": "柳川市",
    "town": "椿原町"
  },
  "8320032": {
    "zipcode": "8320032",
    "prefectureCode": "40",
    "prefectureNumber": 40,
    "prefecture": "福岡県",
    "city": "柳川市",
    "town": "新町"
  },
  "8320033": {
    "zipcode": "8320033",
    "prefectureCode": "40",
    "prefectureNumber": 40,
    "prefecture": "福岡県",
    "city": "柳川市",
    "town": "南長柄町"
  },
  "8320034": {
    "zipcode": "8320034",
    "prefectureCode": "40",
    "prefectureNumber": 40,
    "prefecture": "福岡県",
    "city": "柳川市",
    "town": "北長柄町"
  },
  "8320035": {
    "zipcode": "8320035",
    "prefectureCode": "40",
    "prefectureNumber": 40,
    "prefecture": "福岡県",
    "city": "柳川市",
    "town": "東魚屋町"
  },
  "8320036": {
    "zipcode": "8320036",
    "prefectureCode": "40",
    "prefectureNumber": 40,
    "prefecture": "福岡県",
    "city": "柳川市",
    "town": "小道具町"
  },
  "8320037": {
    "zipcode": "8320037",
    "prefectureCode": "40",
    "prefectureNumber": 40,
    "prefecture": "福岡県",
    "city": "柳川市",
    "town": "細工町"
  },
  "8320041": {
    "zipcode": "8320041",
    "prefectureCode": "40",
    "prefectureNumber": 40,
    "prefecture": "福岡県",
    "city": "柳川市",
    "town": "片原町"
  },
  "8320042": {
    "zipcode": "8320042",
    "prefectureCode": "40",
    "prefectureNumber": 40,
    "prefecture": "福岡県",
    "city": "柳川市",
    "town": "一新町"
  },
  "8320043": {
    "zipcode": "8320043",
    "prefectureCode": "40",
    "prefectureNumber": 40,
    "prefecture": "福岡県",
    "city": "柳川市",
    "town": "出来町"
  },
  "8320044": {
    "zipcode": "8320044",
    "prefectureCode": "40",
    "prefectureNumber": 40,
    "prefecture": "福岡県",
    "city": "柳川市",
    "town": "袋町"
  },
  "8320045": {
    "zipcode": "8320045",
    "prefectureCode": "40",
    "prefectureNumber": 40,
    "prefecture": "福岡県",
    "city": "柳川市",
    "town": "本町"
  },
  "8320046": {
    "zipcode": "8320046",
    "prefectureCode": "40",
    "prefectureNumber": 40,
    "prefecture": "福岡県",
    "city": "柳川市",
    "town": "奥州町"
  },
  "8320050": {
    "zipcode": "8320050",
    "prefectureCode": "40",
    "prefectureNumber": 40,
    "prefecture": "福岡県",
    "city": "柳川市",
    "town": "矢留町"
  },
  "8320051": {
    "zipcode": "8320051",
    "prefectureCode": "40",
    "prefectureNumber": 40,
    "prefecture": "福岡県",
    "city": "柳川市",
    "town": "佃町"
  },
  "8320052": {
    "zipcode": "8320052",
    "prefectureCode": "40",
    "prefectureNumber": 40,
    "prefecture": "福岡県",
    "city": "柳川市",
    "town": "橋本町"
  },
  "8320053": {
    "zipcode": "8320053",
    "prefectureCode": "40",
    "prefectureNumber": 40,
    "prefecture": "福岡県",
    "city": "柳川市",
    "town": "大浜町"
  },
  "8320054": {
    "zipcode": "8320054",
    "prefectureCode": "40",
    "prefectureNumber": 40,
    "prefecture": "福岡県",
    "city": "柳川市",
    "town": "有明町"
  },
  "8320055": {
    "zipcode": "8320055",
    "prefectureCode": "40",
    "prefectureNumber": 40,
    "prefecture": "福岡県",
    "city": "柳川市",
    "town": "吉富町"
  },
  "8320056": {
    "zipcode": "8320056",
    "prefectureCode": "40",
    "prefectureNumber": 40,
    "prefecture": "福岡県",
    "city": "柳川市",
    "town": "矢留本町"
  },
  "8320057": {
    "zipcode": "8320057",
    "prefectureCode": "40",
    "prefectureNumber": 40,
    "prefecture": "福岡県",
    "city": "柳川市",
    "town": "弥四郎町"
  },
  "8320058": {
    "zipcode": "8320058",
    "prefectureCode": "40",
    "prefectureNumber": 40,
    "prefecture": "福岡県",
    "city": "柳川市",
    "town": "上宮永町"
  },
  "8320059": {
    "zipcode": "8320059",
    "prefectureCode": "40",
    "prefectureNumber": 40,
    "prefecture": "福岡県",
    "city": "柳川市",
    "town": "下宮永町"
  },
  "8320061": {
    "zipcode": "8320061",
    "prefectureCode": "40",
    "prefectureNumber": 40,
    "prefecture": "福岡県",
    "city": "柳川市",
    "town": "本城町"
  },
  "8320062": {
    "zipcode": "8320062",
    "prefectureCode": "40",
    "prefectureNumber": 40,
    "prefecture": "福岡県",
    "city": "柳川市",
    "town": "城南町"
  },
  "8320063": {
    "zipcode": "8320063",
    "prefectureCode": "40",
    "prefectureNumber": 40,
    "prefecture": "福岡県",
    "city": "柳川市",
    "town": "茂庵町"
  },
  "8320064": {
    "zipcode": "8320064",
    "prefectureCode": "40",
    "prefectureNumber": 40,
    "prefecture": "福岡県",
    "city": "柳川市",
    "town": "宮永町"
  },
  "8320065": {
    "zipcode": "8320065",
    "prefectureCode": "40",
    "prefectureNumber": 40,
    "prefecture": "福岡県",
    "city": "柳川市",
    "town": "沖端町"
  },
  "8320066": {
    "zipcode": "8320066",
    "prefectureCode": "40",
    "prefectureNumber": 40,
    "prefecture": "福岡県",
    "city": "柳川市",
    "town": "稲荷町"
  },
  "8320067": {
    "zipcode": "8320067",
    "prefectureCode": "40",
    "prefectureNumber": 40,
    "prefecture": "福岡県",
    "city": "柳川市",
    "town": "鬼童町"
  },
  "8320068": {
    "zipcode": "8320068",
    "prefectureCode": "40",
    "prefectureNumber": 40,
    "prefecture": "福岡県",
    "city": "柳川市",
    "town": "城隅町"
  },
  "8320069": {
    "zipcode": "8320069",
    "prefectureCode": "40",
    "prefectureNumber": 40,
    "prefecture": "福岡県",
    "city": "柳川市",
    "town": "新外町"
  },
  "8320071": {
    "zipcode": "8320071",
    "prefectureCode": "40",
    "prefectureNumber": 40,
    "prefecture": "福岡県",
    "city": "柳川市",
    "town": "新船津町"
  },
  "8320072": {
    "zipcode": "8320072",
    "prefectureCode": "40",
    "prefectureNumber": 40,
    "prefecture": "福岡県",
    "city": "柳川市",
    "town": "糀屋町"
  },
  "8320073": {
    "zipcode": "8320073",
    "prefectureCode": "40",
    "prefectureNumber": 40,
    "prefecture": "福岡県",
    "city": "柳川市",
    "town": "鍛冶屋町"
  },
  "8320074": {
    "zipcode": "8320074",
    "prefectureCode": "40",
    "prefectureNumber": 40,
    "prefecture": "福岡県",
    "city": "柳川市",
    "town": "元町"
  },
  "8320075": {
    "zipcode": "8320075",
    "prefectureCode": "40",
    "prefectureNumber": 40,
    "prefecture": "福岡県",
    "city": "柳川市",
    "town": "柳町"
  },
  "8320076": {
    "zipcode": "8320076",
    "prefectureCode": "40",
    "prefectureNumber": 40,
    "prefecture": "福岡県",
    "city": "柳川市",
    "town": "坂本町"
  },
  "8320077": {
    "zipcode": "8320077",
    "prefectureCode": "40",
    "prefectureNumber": 40,
    "prefecture": "福岡県",
    "city": "柳川市",
    "town": "筑紫町"
  },
  "8320081": {
    "zipcode": "8320081",
    "prefectureCode": "40",
    "prefectureNumber": 40,
    "prefecture": "福岡県",
    "city": "柳川市",
    "town": "西浜武"
  },
  "8320082": {
    "zipcode": "8320082",
    "prefectureCode": "40",
    "prefectureNumber": 40,
    "prefecture": "福岡県",
    "city": "柳川市",
    "town": "古賀"
  },
  "8320083": {
    "zipcode": "8320083",
    "prefectureCode": "40",
    "prefectureNumber": 40,
    "prefecture": "福岡県",
    "city": "柳川市",
    "town": "南浜武"
  },
  "8320084": {
    "zipcode": "8320084",
    "prefectureCode": "40",
    "prefectureNumber": 40,
    "prefecture": "福岡県",
    "city": "柳川市",
    "town": "昭南町"
  },
  "8320085": {
    "zipcode": "8320085",
    "prefectureCode": "40",
    "prefectureNumber": 40,
    "prefecture": "福岡県",
    "city": "柳川市",
    "town": "吉原"
  },
  "8320086": {
    "zipcode": "8320086",
    "prefectureCode": "40",
    "prefectureNumber": 40,
    "prefecture": "福岡県",
    "city": "柳川市",
    "town": "久々原"
  },
  "8320087": {
    "zipcode": "8320087",
    "prefectureCode": "40",
    "prefectureNumber": 40,
    "prefecture": "福岡県",
    "city": "柳川市",
    "town": "七ツ家"
  },
  "8320088": {
    "zipcode": "8320088",
    "prefectureCode": "40",
    "prefectureNumber": 40,
    "prefecture": "福岡県",
    "city": "柳川市",
    "town": "間"
  },
  "8320089": {
    "zipcode": "8320089",
    "prefectureCode": "40",
    "prefectureNumber": 40,
    "prefecture": "福岡県",
    "city": "柳川市",
    "town": "田脇"
  },
  "8320801": {
    "zipcode": "8320801",
    "prefectureCode": "40",
    "prefectureNumber": 40,
    "prefecture": "福岡県",
    "city": "柳川市",
    "town": "三橋町起田"
  },
  "8320802": {
    "zipcode": "8320802",
    "prefectureCode": "40",
    "prefectureNumber": 40,
    "prefecture": "福岡県",
    "city": "柳川市",
    "town": "三橋町吉開"
  },
  "8320803": {
    "zipcode": "8320803",
    "prefectureCode": "40",
    "prefectureNumber": 40,
    "prefecture": "福岡県",
    "city": "柳川市",
    "town": "三橋町新村"
  },
  "8320804": {
    "zipcode": "8320804",
    "prefectureCode": "40",
    "prefectureNumber": 40,
    "prefecture": "福岡県",
    "city": "柳川市",
    "town": "三橋町木元"
  },
  "8320805": {
    "zipcode": "8320805",
    "prefectureCode": "40",
    "prefectureNumber": 40,
    "prefecture": "福岡県",
    "city": "柳川市",
    "town": "三橋町磯鳥"
  },
  "8320806": {
    "zipcode": "8320806",
    "prefectureCode": "40",
    "prefectureNumber": 40,
    "prefecture": "福岡県",
    "city": "柳川市",
    "town": "三橋町柳河"
  },
  "8320807": {
    "zipcode": "8320807",
    "prefectureCode": "40",
    "prefectureNumber": 40,
    "prefecture": "福岡県",
    "city": "柳川市",
    "town": "三橋町枝光"
  },
  "8320811": {
    "zipcode": "8320811",
    "prefectureCode": "40",
    "prefectureNumber": 40,
    "prefecture": "福岡県",
    "city": "柳川市",
    "town": "三橋町中山"
  },
  "8320812": {
    "zipcode": "8320812",
    "prefectureCode": "40",
    "prefectureNumber": 40,
    "prefecture": "福岡県",
    "city": "柳川市",
    "town": "三橋町五拾町"
  },
  "8320813": {
    "zipcode": "8320813",
    "prefectureCode": "40",
    "prefectureNumber": 40,
    "prefecture": "福岡県",
    "city": "柳川市",
    "town": "三橋町棚町"
  },
  "8320814": {
    "zipcode": "8320814",
    "prefectureCode": "40",
    "prefectureNumber": 40,
    "prefecture": "福岡県",
    "city": "柳川市",
    "town": "三橋町垂見"
  },
  "8320815": {
    "zipcode": "8320815",
    "prefectureCode": "40",
    "prefectureNumber": 40,
    "prefecture": "福岡県",
    "city": "柳川市",
    "town": "三橋町白鳥"
  },
  "8320816": {
    "zipcode": "8320816",
    "prefectureCode": "40",
    "prefectureNumber": 40,
    "prefecture": "福岡県",
    "city": "柳川市",
    "town": "三橋町久末"
  },
  "8320821": {
    "zipcode": "8320821",
    "prefectureCode": "40",
    "prefectureNumber": 40,
    "prefecture": "福岡県",
    "city": "柳川市",
    "town": "三橋町百町"
  },
  "8320822": {
    "zipcode": "8320822",
    "prefectureCode": "40",
    "prefectureNumber": 40,
    "prefecture": "福岡県",
    "city": "柳川市",
    "town": "三橋町下百町"
  },
  "8320823": {
    "zipcode": "8320823",
    "prefectureCode": "40",
    "prefectureNumber": 40,
    "prefecture": "福岡県",
    "city": "柳川市",
    "town": "三橋町今古賀"
  },
  "8320824": {
    "zipcode": "8320824",
    "prefectureCode": "40",
    "prefectureNumber": 40,
    "prefecture": "福岡県",
    "city": "柳川市",
    "town": "三橋町藤吉"
  },
  "8320825": {
    "zipcode": "8320825",
    "prefectureCode": "40",
    "prefectureNumber": 40,
    "prefecture": "福岡県",
    "city": "柳川市",
    "town": "三橋町江曲"
  },
  "8320826": {
    "zipcode": "8320826",
    "prefectureCode": "40",
    "prefectureNumber": 40,
    "prefecture": "福岡県",
    "city": "柳川市",
    "town": "三橋町高畑"
  },
  "8320827": {
    "zipcode": "8320827",
    "prefectureCode": "40",
    "prefectureNumber": 40,
    "prefecture": "福岡県",
    "city": "柳川市",
    "town": "三橋町蒲船津"
  },
  "8320828": {
    "zipcode": "8320828",
    "prefectureCode": "40",
    "prefectureNumber": 40,
    "prefecture": "福岡県",
    "city": "柳川市",
    "town": "三橋町正行"
  }
}
