{
  "8340000": {
    "zipcode": "8340000",
    "prefectureCode": "40",
    "prefectureNumber": 40,
    "prefecture": "福岡県",
    "city": "八女市",
    "town": "以下に掲載がない場合"
  },
  "8340001": {
    "zipcode": "8340001",
    "prefectureCode": "40",
    "prefectureNumber": 40,
    "prefecture": "福岡県",
    "city": "八女市",
    "town": "宅間田"
  },
  "8340002": {
    "zipcode": "8340002",
    "prefectureCode": "40",
    "prefectureNumber": 40,
    "prefecture": "福岡県",
    "city": "八女市",
    "town": "黒土"
  },
  "8340003": {
    "zipcode": "8340003",
    "prefectureCode": "40",
    "prefectureNumber": 40,
    "prefecture": "福岡県",
    "city": "八女市",
    "town": "平田"
  },
  "8340004": {
    "zipcode": "8340004",
    "prefectureCode": "40",
    "prefectureNumber": 40,
    "prefecture": "福岡県",
    "city": "八女市",
    "town": "納楚"
  },
  "8340005": {
    "zipcode": "8340005",
    "prefectureCode": "40",
    "prefectureNumber": 40,
    "prefecture": "福岡県",
    "city": "八女市",
    "town": "大島"
  },
  "8340006": {
    "zipcode": "8340006",
    "prefectureCode": "40",
    "prefectureNumber": 40,
    "prefecture": "福岡県",
    "city": "八女市",
    "town": "吉田"
  },
  "8340011": {
    "zipcode": "8340011",
    "prefectureCode": "40",
    "prefectureNumber": 40,
    "prefecture": "福岡県",
    "city": "八女市",
    "town": "長野"
  },
  "8340012": {
    "zipcode": "8340012",
    "prefectureCode": "40",
    "prefectureNumber": 40,
    "prefecture": "福岡県",
    "city": "八女市",
    "town": "山内"
  },
  "8340013": {
    "zipcode": "8340013",
    "prefectureCode": "40",
    "prefectureNumber": 40,
    "prefecture": "福岡県",
    "city": "八女市",
    "town": "大籠"
  },
  "8340014": {
    "zipcode": "8340014",
    "prefectureCode": "40",
    "prefectureNumber": 40,
    "prefecture": "福岡県",
    "city": "八女市",
    "town": "忠見"
  },
  "8340015": {
    "zipcode": "8340015",
    "prefectureCode": "40",
    "prefectureNumber": 40,
    "prefecture": "福岡県",
    "city": "八女市",
    "town": "本"
  },
  "8340016": {
    "zipcode": "8340016",
    "prefectureCode": "40",
    "prefectureNumber": 40,
    "prefecture": "福岡県",
    "city": "八女市",
    "town": "豊福"
  },
  "8340021": {
    "zipcode": "8340021",
    "prefectureCode": "40",
    "prefectureNumber": 40,
    "prefecture": "福岡県",
    "city": "八女市",
    "town": "北田形"
  },
  "8340022": {
    "zipcode": "8340022",
    "prefectureCode": "40",
    "prefectureNumber": 40,
    "prefecture": "福岡県",
    "city": "八女市",
    "town": "柳島"
  },
  "8340023": {
    "zipcode": "8340023",
    "prefectureCode": "40",
    "prefectureNumber": 40,
    "prefecture": "福岡県",
    "city": "八女市",
    "town": "馬場"
  },
  "8340024": {
    "zipcode": "8340024",
    "prefectureCode": "40",
    "prefectureNumber": 40,
    "prefecture": "福岡県",
    "city": "八女市",
    "town": "津江"
  },
  "8340025": {
    "zipcode": "8340025",
    "prefectureCode": "40",
    "prefectureNumber": 40,
    "prefecture": "福岡県",
    "city": "八女市",
    "town": "祈祷院"
  },
  "8340026": {
    "zipcode": "8340026",
    "prefectureCode": "40",
    "prefectureNumber": 40,
    "prefecture": "福岡県",
    "city": "八女市",
    "town": "井延"
  },
  "8340031": {
    "zipcode": "8340031",
    "prefectureCode": "40",
    "prefectureNumber": 40,
    "prefecture": "福岡県",
    "city": "八女市",
    "town": "本町"
  },
  "8340032": {
    "zipcode": "8340032",
    "prefectureCode": "40",
    "prefectureNumber": 40,
    "prefecture": "福岡県",
    "city": "八女市",
    "town": "宮野"
  },
  "8340033": {
    "zipcode": "8340033",
    "prefectureCode": "40",
    "prefectureNumber": 40,
    "prefecture": "福岡県",
    "city": "八女市",
    "town": "柳瀬"
  },
  "8340034": {
    "zipcode": "8340034",
    "prefectureCode": "40",
    "prefectureNumber": 40,
    "prefecture": "福岡県",
    "city": "八女市",
    "town": "高塚"
  },
  "8340041": {
    "zipcode": "8340041",
    "prefectureCode": "40",
    "prefectureNumber": 40,
    "prefecture": "福岡県",
    "city": "八女市",
    "town": "緒玉"
  },
  "8340042": {
    "zipcode": "8340042",
    "prefectureCode": "40",
    "prefectureNumber": 40,
    "prefecture": "福岡県",
    "city": "八女市",
    "town": "酒井田"
  },
  "8340043": {
    "zipcode": "8340043",
    "prefectureCode": "40",
    "prefectureNumber": 40,
    "prefecture": "福岡県",
    "city": "八女市",
    "town": "光"
  },
  "8340044": {
    "zipcode": "8340044",
    "prefectureCode": "40",
    "prefectureNumber": 40,
    "prefecture": "福岡県",
    "city": "八女市",
    "town": "矢原"
  },
  "8340045": {
    "zipcode": "8340045",
    "prefectureCode": "40",
    "prefectureNumber": 40,
    "prefecture": "福岡県",
    "city": "八女市",
    "town": "平"
  },
  "8340046": {
    "zipcode": "8340046",
    "prefectureCode": "40",
    "prefectureNumber": 40,
    "prefecture": "福岡県",
    "city": "八女市",
    "town": "国武"
  },
  "8340047": {
    "zipcode": "8340047",
    "prefectureCode": "40",
    "prefectureNumber": 40,
    "prefecture": "福岡県",
    "city": "八女市",
    "town": "稲富"
  },
  "8340051": {
    "zipcode": "8340051",
    "prefectureCode": "40",
    "prefectureNumber": 40,
    "prefecture": "福岡県",
    "city": "八女市",
    "town": "立野"
  },
  "8340052": {
    "zipcode": "8340052",
    "prefectureCode": "40",
    "prefectureNumber": 40,
    "prefecture": "福岡県",
    "city": "八女市",
    "town": "新庄"
  },
  "8340053": {
    "zipcode": "8340053",
    "prefectureCode": "40",
    "prefectureNumber": 40,
    "prefecture": "福岡県",
    "city": "八女市",
    "town": "川犬"
  },
  "8340054": {
    "zipcode": "8340054",
    "prefectureCode": "40",
    "prefectureNumber": 40,
    "prefecture": "福岡県",
    "city": "八女市",
    "town": "前古賀"
  },
  "8340055": {
    "zipcode": "8340055",
    "prefectureCode": "40",
    "prefectureNumber": 40,
    "prefecture": "福岡県",
    "city": "八女市",
    "town": "鵜池"
  },
  "8340061": {
    "zipcode": "8340061",
    "prefectureCode": "40",
    "prefectureNumber": 40,
    "prefecture": "福岡県",
    "city": "八女市",
    "town": "今福"
  },
  "8340062": {
    "zipcode": "8340062",
    "prefectureCode": "40",
    "prefectureNumber": 40,
    "prefecture": "福岡県",
    "city": "八女市",
    "town": "岩崎"
  },
  "8340063": {
    "zipcode": "8340063",
    "prefectureCode": "40",
    "prefectureNumber": 40,
    "prefecture": "福岡県",
    "city": "八女市",
    "town": "本村"
  },
  "8340064": {
    "zipcode": "8340064",
    "prefectureCode": "40",
    "prefectureNumber": 40,
    "prefecture": "福岡県",
    "city": "八女市",
    "town": "蒲原"
  },
  "8340065": {
    "zipcode": "8340065",
    "prefectureCode": "40",
    "prefectureNumber": 40,
    "prefecture": "福岡県",
    "city": "八女市",
    "town": "亀甲"
  },
  "8340066": {
    "zipcode": "8340066",
    "prefectureCode": "40",
    "prefectureNumber": 40,
    "prefecture": "福岡県",
    "city": "八女市",
    "town": "室岡"
  },
  "8340067": {
    "zipcode": "8340067",
    "prefectureCode": "40",
    "prefectureNumber": 40,
    "prefecture": "福岡県",
    "city": "八女市",
    "town": "龍ケ原"
  },
  "8340071": {
    "zipcode": "8340071",
    "prefectureCode": "40",
    "prefectureNumber": 40,
    "prefecture": "福岡県",
    "city": "八女市",
    "town": "立花町田形"
  },
  "8340072": {
    "zipcode": "8340072",
    "prefectureCode": "40",
    "prefectureNumber": 40,
    "prefecture": "福岡県",
    "city": "八女市",
    "town": "立花町遠久谷"
  },
  "8340073": {
    "zipcode": "8340073",
    "prefectureCode": "40",
    "prefectureNumber": 40,
    "prefecture": "福岡県",
    "city": "八女市",
    "town": "立花町下辺春"
  },
  "8340074": {
    "zipcode": "8340074",
    "prefectureCode": "40",
    "prefectureNumber": 40,
    "prefecture": "福岡県",
    "city": "八女市",
    "town": "立花町谷川"
  },
  "8340075": {
    "zipcode": "8340075",
    "prefectureCode": "40",
    "prefectureNumber": 40,
    "prefecture": "福岡県",
    "city": "八女市",
    "town": "立花町原島"
  },
  "8340081": {
    "zipcode": "8340081",
    "prefectureCode": "40",
    "prefectureNumber": 40,
    "prefecture": "福岡県",
    "city": "八女市",
    "town": "立花町山崎"
  },
  "8340082": {
    "zipcode": "8340082",
    "prefectureCode": "40",
    "prefectureNumber": 40,
    "prefecture": "福岡県",
    "city": "八女市",
    "town": "立花町兼松"
  },
  "8340083": {
    "zipcode": "8340083",
    "prefectureCode": "40",
    "prefectureNumber": 40,
    "prefecture": "福岡県",
    "city": "八女市",
    "town": "立花町上辺春"
  },
  "8340084": {
    "zipcode": "8340084",
    "prefectureCode": "40",
    "prefectureNumber": 40,
    "prefecture": "福岡県",
    "city": "八女市",
    "town": "立花町白木"
  },
  "8340085": {
    "zipcode": "8340085",
    "prefectureCode": "40",
    "prefectureNumber": 40,
    "prefecture": "福岡県",
    "city": "八女市",
    "town": "立花町北山"
  },
  "8340100": {
    "zipcode": "8340100",
    "prefectureCode": "40",
    "prefectureNumber": 40,
    "prefecture": "福岡県",
    "city": "八女郡広川町",
    "town": "以下に掲載がない場合"
  },
  "8340101": {
    "zipcode": "8340101",
    "prefectureCode": "40",
    "prefectureNumber": 40,
    "prefecture": "福岡県",
    "city": "八女郡広川町",
    "town": "小椎尾"
  },
  "8340102": {
    "zipcode": "8340102",
    "prefectureCode": "40",
    "prefectureNumber": 40,
    "prefecture": "福岡県",
    "city": "八女郡広川町",
    "town": "水原"
  },
  "8340103": {
    "zipcode": "8340103",
    "prefectureCode": "40",
    "prefectureNumber": 40,
    "prefecture": "福岡県",
    "city": "八女郡広川町",
    "town": "六田"
  },
  "8340104": {
    "zipcode": "8340104",
    "prefectureCode": "40",
    "prefectureNumber": 40,
    "prefecture": "福岡県",
    "city": "八女郡広川町",
    "town": "吉常"
  },
  "8340105": {
    "zipcode": "8340105",
    "prefectureCode": "40",
    "prefectureNumber": 40,
    "prefecture": "福岡県",
    "city": "八女郡広川町",
    "town": "長延"
  },
  "8340111": {
    "zipcode": "8340111",
    "prefectureCode": "40",
    "prefectureNumber": 40,
    "prefecture": "福岡県",
    "city": "八女郡広川町",
    "town": "日吉"
  },
  "8340112": {
    "zipcode": "8340112",
    "prefectureCode": "40",
    "prefectureNumber": 40,
    "prefecture": "福岡県",
    "city": "八女郡広川町",
    "town": "久泉"
  },
  "8340113": {
    "zipcode": "8340113",
    "prefectureCode": "40",
    "prefectureNumber": 40,
    "prefecture": "福岡県",
    "city": "八女郡広川町",
    "town": "川上"
  },
  "8340114": {
    "zipcode": "8340114",
    "prefectureCode": "40",
    "prefectureNumber": 40,
    "prefecture": "福岡県",
    "city": "八女郡広川町",
    "town": "太田"
  },
  "8340115": {
    "zipcode": "8340115",
    "prefectureCode": "40",
    "prefectureNumber": 40,
    "prefecture": "福岡県",
    "city": "八女郡広川町",
    "town": "新代"
  },
  "8340121": {
    "zipcode": "8340121",
    "prefectureCode": "40",
    "prefectureNumber": 40,
    "prefecture": "福岡県",
    "city": "八女郡広川町",
    "town": "広川"
  },
  "8340122": {
    "zipcode": "8340122",
    "prefectureCode": "40",
    "prefectureNumber": 40,
    "prefecture": "福岡県",
    "city": "八女郡広川町",
    "town": "一條"
  },
  "8340123": {
    "zipcode": "8340123",
    "prefectureCode": "40",
    "prefectureNumber": 40,
    "prefecture": "福岡県",
    "city": "八女郡広川町",
    "town": "藤田"
  },
  "8340201": {
    "zipcode": "8340201",
    "prefectureCode": "40",
    "prefectureNumber": 40,
    "prefecture": "福岡県",
    "city": "八女市",
    "town": "星野村"
  },
  "8341101": {
    "zipcode": "8341101",
    "prefectureCode": "40",
    "prefectureNumber": 40,
    "prefecture": "福岡県",
    "city": "八女市",
    "town": "上陽町上横山"
  },
  "8341102": {
    "zipcode": "8341102",
    "prefectureCode": "40",
    "prefectureNumber": 40,
    "prefecture": "福岡県",
    "city": "八女市",
    "town": "上陽町北川内"
  },
  "8341103": {
    "zipcode": "8341103",
    "prefectureCode": "40",
    "prefectureNumber": 40,
    "prefecture": "福岡県",
    "city": "八女市",
    "town": "上陽町久木原"
  },
  "8341104": {
    "zipcode": "8341104",
    "prefectureCode": "40",
    "prefectureNumber": 40,
    "prefecture": "福岡県",
    "city": "八女市",
    "town": "上陽町下横山"
  },
  "8341201": {
    "zipcode": "8341201",
    "prefectureCode": "40",
    "prefectureNumber": 40,
    "prefecture": "福岡県",
    "city": "八女市",
    "town": "黒木町北大淵"
  },
  "8341202": {
    "zipcode": "8341202",
    "prefectureCode": "40",
    "prefectureNumber": 40,
    "prefecture": "福岡県",
    "city": "八女市",
    "town": "黒木町大淵"
  },
  "8341203": {
    "zipcode": "8341203",
    "prefectureCode": "40",
    "prefectureNumber": 40,
    "prefecture": "福岡県",
    "city": "八女市",
    "town": "黒木町北木屋"
  },
  "8341204": {
    "zipcode": "8341204",
    "prefectureCode": "40",
    "prefectureNumber": 40,
    "prefecture": "福岡県",
    "city": "八女市",
    "town": "黒木町木屋"
  },
  "8341205": {
    "zipcode": "8341205",
    "prefectureCode": "40",
    "prefectureNumber": 40,
    "prefecture": "福岡県",
    "city": "八女市",
    "town": "黒木町田代"
  },
  "8341211": {
    "zipcode": "8341211",
    "prefectureCode": "40",
    "prefectureNumber": 40,
    "prefecture": "福岡県",
    "city": "八女市",
    "town": "黒木町土窪"
  },
  "8341212": {
    "zipcode": "8341212",
    "prefectureCode": "40",
    "prefectureNumber": 40,
    "prefecture": "福岡県",
    "city": "八女市",
    "town": "黒木町鹿子生"
  },
  "8341213": {
    "zipcode": "8341213",
    "prefectureCode": "40",
    "prefectureNumber": 40,
    "prefecture": "福岡県",
    "city": "八女市",
    "town": "黒木町本分"
  },
  "8341214": {
    "zipcode": "8341214",
    "prefectureCode": "40",
    "prefectureNumber": 40,
    "prefecture": "福岡県",
    "city": "八女市",
    "town": "黒木町田本"
  },
  "8341215": {
    "zipcode": "8341215",
    "prefectureCode": "40",
    "prefectureNumber": 40,
    "prefecture": "福岡県",
    "city": "八女市",
    "town": "黒木町湯辺田"
  },
  "8341216": {
    "zipcode": "8341216",
    "prefectureCode": "40",
    "prefectureNumber": 40,
    "prefecture": "福岡県",
    "city": "八女市",
    "town": "黒木町桑原"
  },
  "8341217": {
    "zipcode": "8341217",
    "prefectureCode": "40",
    "prefectureNumber": 40,
    "prefecture": "福岡県",
    "city": "八女市",
    "town": "黒木町黒木"
  },
  "8341221": {
    "zipcode": "8341221",
    "prefectureCode": "40",
    "prefectureNumber": 40,
    "prefecture": "福岡県",
    "city": "八女市",
    "town": "黒木町今"
  },
  "8341222": {
    "zipcode": "8341222",
    "prefectureCode": "40",
    "prefectureNumber": 40,
    "prefecture": "福岡県",
    "city": "八女市",
    "town": "黒木町笠原"
  },
  "8341401": {
    "zipcode": "8341401",
    "prefectureCode": "40",
    "prefectureNumber": 40,
    "prefecture": "福岡県",
    "city": "八女市",
    "town": "矢部村北矢部"
  },
  "8341402": {
    "zipcode": "8341402",
    "prefectureCode": "40",
    "prefectureNumber": 40,
    "prefecture": "福岡県",
    "city": "八女市",
    "town": "矢部村矢部"
  }
}
