{
  "8360000": {
    "zipcode": "8360000",
    "prefectureCode": "40",
    "prefectureNumber": 40,
    "prefecture": "福岡県",
    "city": "大牟田市",
    "town": "以下に掲載がない場合"
  },
  "8360001": {
    "zipcode": "8360001",
    "prefectureCode": "40",
    "prefectureNumber": 40,
    "prefecture": "福岡県",
    "city": "大牟田市",
    "town": "昭和開"
  },
  "8360002": {
    "zipcode": "8360002",
    "prefectureCode": "40",
    "prefectureNumber": 40,
    "prefecture": "福岡県",
    "city": "大牟田市",
    "town": "岬"
  },
  "8360003": {
    "zipcode": "8360003",
    "prefectureCode": "40",
    "prefectureNumber": 40,
    "prefecture": "福岡県",
    "city": "大牟田市",
    "town": "唐船"
  },
  "8360004": {
    "zipcode": "8360004",
    "prefectureCode": "40",
    "prefectureNumber": 40,
    "prefecture": "福岡県",
    "city": "大牟田市",
    "town": "手鎌"
  },
  "8360005": {
    "zipcode": "8360005",
    "prefectureCode": "40",
    "prefectureNumber": 40,
    "prefecture": "福岡県",
    "city": "大牟田市",
    "town": "椿黒町"
  },
  "8360006": {
    "zipcode": "8360006",
    "prefectureCode": "40",
    "prefectureNumber": 40,
    "prefecture": "福岡県",
    "city": "大牟田市",
    "town": "大黒町"
  },
  "8360007": {
    "zipcode": "8360007",
    "prefectureCode": "40",
    "prefectureNumber": 40,
    "prefecture": "福岡県",
    "city": "大牟田市",
    "town": "城町"
  },
  "8360011": {
    "zipcode": "8360011",
    "prefectureCode": "40",
    "prefectureNumber": 40,
    "prefecture": "福岡県",
    "city": "大牟田市",
    "town": "健老町"
  },
  "8360012": {
    "zipcode": "8360012",
    "prefectureCode": "40",
    "prefectureNumber": 40,
    "prefecture": "福岡県",
    "city": "大牟田市",
    "town": "明治町"
  },
  "8360013": {
    "zipcode": "8360013",
    "prefectureCode": "40",
    "prefectureNumber": 40,
    "prefecture": "福岡県",
    "city": "大牟田市",
    "town": "中町"
  },
  "8360014": {
    "zipcode": "8360014",
    "prefectureCode": "40",
    "prefectureNumber": 40,
    "prefecture": "福岡県",
    "city": "大牟田市",
    "town": "恵比須町"
  },
  "8360015": {
    "zipcode": "8360015",
    "prefectureCode": "40",
    "prefectureNumber": 40,
    "prefecture": "福岡県",
    "city": "大牟田市",
    "town": "天神町"
  },
  "8360016": {
    "zipcode": "8360016",
    "prefectureCode": "40",
    "prefectureNumber": 40,
    "prefecture": "福岡県",
    "city": "大牟田市",
    "town": "北磯町"
  },
  "8360017": {
    "zipcode": "8360017",
    "prefectureCode": "40",
    "prefectureNumber": 40,
    "prefecture": "福岡県",
    "city": "大牟田市",
    "town": "新開町"
  },
  "8360021": {
    "zipcode": "8360021",
    "prefectureCode": "40",
    "prefectureNumber": 40,
    "prefecture": "福岡県",
    "city": "大牟田市",
    "town": "浜町"
  },
  "8360022": {
    "zipcode": "8360022",
    "prefectureCode": "40",
    "prefectureNumber": 40,
    "prefecture": "福岡県",
    "city": "大牟田市",
    "town": "港町"
  },
  "8360023": {
    "zipcode": "8360023",
    "prefectureCode": "40",
    "prefectureNumber": 40,
    "prefecture": "福岡県",
    "city": "大牟田市",
    "town": "中島町"
  },
  "8360024": {
    "zipcode": "8360024",
    "prefectureCode": "40",
    "prefectureNumber": 40,
    "prefecture": "福岡県",
    "city": "大牟田市",
    "town": "住吉町"
  },
  "8360025": {
    "zipcode": "8360025",
    "prefectureCode": "40",
    "prefectureNumber": 40,
    "prefecture": "福岡県",
    "city": "大牟田市",
    "town": "中友町"
  },
  "8360026": {
    "zipcode": "8360026",
    "prefectureCode": "40",
    "prefectureNumber": 40,
    "prefecture": "福岡県",
    "city": "大牟田市",
    "town": "浜田町"
  },
  "8360027": {
    "zipcode": "8360027",
    "prefectureCode": "40",
    "prefectureNumber": 40,
    "prefecture": "福岡県",
    "city": "大牟田市",
    "town": "西浜田町"
  },
  "8360031": {
    "zipcode": "8360031",
    "prefectureCode": "40",
    "prefectureNumber": 40,
    "prefecture": "福岡県",
    "city": "大牟田市",
    "town": "西新町"
  },
  "8360032": {
    "zipcode": "8360032",
    "prefectureCode": "40",
    "prefectureNumber": 40,
    "prefecture": "福岡県",
    "city": "大牟田市",
    "town": "新地町"
  },
  "8360033": {
    "zipcode": "8360033",
    "prefectureCode": "40",
    "prefectureNumber": 40,
    "prefecture": "福岡県",
    "city": "大牟田市",
    "town": "松原町"
  },
  "8360034": {
    "zipcode": "8360034",
    "prefectureCode": "40",
    "prefectureNumber": 40,
    "prefecture": "福岡県",
    "city": "大牟田市",
    "town": "小浜町"
  },
  "8360035": {
    "zipcode": "8360035",
    "prefectureCode": "40",
    "prefectureNumber": 40,
    "prefecture": "福岡県",
    "city": "大牟田市",
    "town": "千代町"
  },
  "8360036": {
    "zipcode": "8360036",
    "prefectureCode": "40",
    "prefectureNumber": 40,
    "prefecture": "福岡県",
    "city": "大牟田市",
    "town": "小川町"
  },
  "8360037": {
    "zipcode": "8360037",
    "prefectureCode": "40",
    "prefectureNumber": 40,
    "prefecture": "福岡県",
    "city": "大牟田市",
    "town": "岬町"
  },
  "8360041": {
    "zipcode": "8360041",
    "prefectureCode": "40",
    "prefectureNumber": 40,
    "prefecture": "福岡県",
    "city": "大牟田市",
    "town": "新栄町"
  },
  "8360042": {
    "zipcode": "8360042",
    "prefectureCode": "40",
    "prefectureNumber": 40,
    "prefecture": "福岡県",
    "city": "大牟田市",
    "town": "栄町"
  },
  "8360043": {
    "zipcode": "8360043",
    "prefectureCode": "40",
    "prefectureNumber": 40,
    "prefecture": "福岡県",
    "city": "大牟田市",
    "town": "橋口町"
  },
  "8360044": {
    "zipcode": "8360044",
    "prefectureCode": "40",
    "prefectureNumber": 40,
    "prefecture": "福岡県",
    "city": "大牟田市",
    "town": "古町"
  },
  "8360045": {
    "zipcode": "8360045",
    "prefectureCode": "40",
    "prefectureNumber": 40,
    "prefecture": "福岡県",
    "city": "大牟田市",
    "town": "久保田町"
  },
  "8360046": {
    "zipcode": "8360046",
    "prefectureCode": "40",
    "prefectureNumber": 40,
    "prefecture": "福岡県",
    "city": "大牟田市",
    "town": "本町"
  },
  "8360047": {
    "zipcode": "8360047",
    "prefectureCode": "40",
    "prefectureNumber": 40,
    "prefecture": "福岡県",
    "city": "大牟田市",
    "town": "大正町"
  },
  "8360051": {
    "zipcode": "8360051",
    "prefectureCode": "40",
    "prefectureNumber": 40,
    "prefecture": "福岡県",
    "city": "大牟田市",
    "town": "諏訪町"
  },
  "8360052": {
    "zipcode": "8360052",
    "prefectureCode": "40",
    "prefectureNumber": 40,
    "prefecture": "福岡県",
    "city": "大牟田市",
    "town": "白金町"
  },
  "8360053": {
    "zipcode": "8360053",
    "prefectureCode": "40",
    "prefectureNumber": 40,
    "prefecture": "福岡県",
    "city": "大牟田市",
    "town": "山下町"
  },
  "8360054": {
    "zipcode": "8360054",
    "prefectureCode": "40",
    "prefectureNumber": 40,
    "prefecture": "福岡県",
    "city": "大牟田市",
    "town": "天領町"
  },
  "8360055": {
    "zipcode": "8360055",
    "prefectureCode": "40",
    "prefectureNumber": 40,
    "prefecture": "福岡県",
    "city": "大牟田市",
    "town": "樋口町"
  },
  "8360056": {
    "zipcode": "8360056",
    "prefectureCode": "40",
    "prefectureNumber": 40,
    "prefecture": "福岡県",
    "city": "大牟田市",
    "town": "姫島町"
  },
  "8360057": {
    "zipcode": "8360057",
    "prefectureCode": "40",
    "prefectureNumber": 40,
    "prefecture": "福岡県",
    "city": "大牟田市",
    "town": "汐屋町"
  },
  "8360061": {
    "zipcode": "8360061",
    "prefectureCode": "40",
    "prefectureNumber": 40,
    "prefecture": "福岡県",
    "city": "大牟田市",
    "town": "新港町"
  },
  "8360062": {
    "zipcode": "8360062",
    "prefectureCode": "40",
    "prefectureNumber": 40,
    "prefecture": "福岡県",
    "city": "大牟田市",
    "town": "西港町"
  },
  "8360063": {
    "zipcode": "8360063",
    "prefectureCode": "40",
    "prefectureNumber": 40,
    "prefecture": "福岡県",
    "city": "大牟田市",
    "town": "入船町"
  },
  "8360064": {
    "zipcode": "8360064",
    "prefectureCode": "40",
    "prefectureNumber": 40,
    "prefecture": "福岡県",
    "city": "大牟田市",
    "town": "高砂町"
  },
  "8360065": {
    "zipcode": "8360065",
    "prefectureCode": "40",
    "prefectureNumber": 40,
    "prefecture": "福岡県",
    "city": "大牟田市",
    "town": "三川町"
  },
  "8360066": {
    "zipcode": "8360066",
    "prefectureCode": "40",
    "prefectureNumber": 40,
    "prefecture": "福岡県",
    "city": "大牟田市",
    "town": "浪花町"
  },
  "8360067": {
    "zipcode": "8360067",
    "prefectureCode": "40",
    "prefectureNumber": 40,
    "prefecture": "福岡県",
    "city": "大牟田市",
    "town": "四山町"
  },
  "8360071": {
    "zipcode": "8360071",
    "prefectureCode": "40",
    "prefectureNumber": 40,
    "prefecture": "福岡県",
    "city": "大牟田市",
    "town": "加納町"
  },
  "8360072": {
    "zipcode": "8360072",
    "prefectureCode": "40",
    "prefectureNumber": 40,
    "prefecture": "福岡県",
    "city": "大牟田市",
    "town": "上屋敷町"
  },
  "8360073": {
    "zipcode": "8360073",
    "prefectureCode": "40",
    "prefectureNumber": 40,
    "prefecture": "福岡県",
    "city": "大牟田市",
    "town": "船津町"
  },
  "8360074": {
    "zipcode": "8360074",
    "prefectureCode": "40",
    "prefectureNumber": 40,
    "prefecture": "福岡県",
    "city": "大牟田市",
    "town": "藤田町"
  },
  "8360075": {
    "zipcode": "8360075",
    "prefectureCode": "40",
    "prefectureNumber": 40,
    "prefecture": "福岡県",
    "city": "大牟田市",
    "town": "南船津町"
  },
  "8360076": {
    "zipcode": "8360076",
    "prefectureCode": "40",
    "prefectureNumber": 40,
    "prefecture": "福岡県",
    "city": "大牟田市",
    "town": "三里町"
  },
  "8360077": {
    "zipcode": "8360077",
    "prefectureCode": "40",
    "prefectureNumber": 40,
    "prefecture": "福岡県",
    "city": "大牟田市",
    "town": "早米来町"
  },
  "8360081": {
    "zipcode": "8360081",
    "prefectureCode": "40",
    "prefectureNumber": 40,
    "prefecture": "福岡県",
    "city": "大牟田市",
    "town": "田端町"
  },
  "8360082": {
    "zipcode": "8360082",
    "prefectureCode": "40",
    "prefectureNumber": 40,
    "prefecture": "福岡県",
    "city": "大牟田市",
    "town": "片平町"
  },
  "8360083": {
    "zipcode": "8360083",
    "prefectureCode": "40",
    "prefectureNumber": 40,
    "prefecture": "福岡県",
    "city": "大牟田市",
    "town": "長田町"
  },
  "8360084": {
    "zipcode": "8360084",
    "prefectureCode": "40",
    "prefectureNumber": 40,
    "prefecture": "福岡県",
    "city": "大牟田市",
    "town": "馬場町"
  },
  "8360085": {
    "zipcode": "8360085",
    "prefectureCode": "40",
    "prefectureNumber": 40,
    "prefecture": "福岡県",
    "city": "大牟田市",
    "town": "一部町"
  },
  "8360086": {
    "zipcode": "8360086",
    "prefectureCode": "40",
    "prefectureNumber": 40,
    "prefecture": "福岡県",
    "city": "大牟田市",
    "town": "馬込町"
  },
  "8360087": {
    "zipcode": "8360087",
    "prefectureCode": "40",
    "prefectureNumber": 40,
    "prefecture": "福岡県",
    "city": "大牟田市",
    "town": "飯田町"
  },
  "8360091": {
    "zipcode": "8360091",
    "prefectureCode": "40",
    "prefectureNumber": 40,
    "prefecture": "福岡県",
    "city": "大牟田市",
    "town": "沖田町"
  },
  "8360092": {
    "zipcode": "8360092",
    "prefectureCode": "40",
    "prefectureNumber": 40,
    "prefecture": "福岡県",
    "city": "大牟田市",
    "town": "桜町"
  },
  "8360093": {
    "zipcode": "8360093",
    "prefectureCode": "40",
    "prefectureNumber": 40,
    "prefecture": "福岡県",
    "city": "大牟田市",
    "town": "神田町"
  },
  "8360094": {
    "zipcode": "8360094",
    "prefectureCode": "40",
    "prefectureNumber": 40,
    "prefecture": "福岡県",
    "city": "大牟田市",
    "town": "臼井町"
  },
  "8360095": {
    "zipcode": "8360095",
    "prefectureCode": "40",
    "prefectureNumber": 40,
    "prefecture": "福岡県",
    "city": "大牟田市",
    "town": "野添町"
  },
  "8360096": {
    "zipcode": "8360096",
    "prefectureCode": "40",
    "prefectureNumber": 40,
    "prefecture": "福岡県",
    "city": "大牟田市",
    "town": "萩尾町"
  },
  "8360097": {
    "zipcode": "8360097",
    "prefectureCode": "40",
    "prefectureNumber": 40,
    "prefecture": "福岡県",
    "city": "大牟田市",
    "town": "東萩尾町"
  },
  "8360801": {
    "zipcode": "8360801",
    "prefectureCode": "40",
    "prefectureNumber": 40,
    "prefecture": "福岡県",
    "city": "大牟田市",
    "town": "柿園町"
  },
  "8360802": {
    "zipcode": "8360802",
    "prefectureCode": "40",
    "prefectureNumber": 40,
    "prefecture": "福岡県",
    "city": "大牟田市",
    "town": "日出町"
  },
  "8360803": {
    "zipcode": "8360803",
    "prefectureCode": "40",
    "prefectureNumber": 40,
    "prefecture": "福岡県",
    "city": "大牟田市",
    "town": "鳥塚町"
  },
  "8360804": {
    "zipcode": "8360804",
    "prefectureCode": "40",
    "prefectureNumber": 40,
    "prefecture": "福岡県",
    "city": "大牟田市",
    "town": "長溝町"
  },
  "8360805": {
    "zipcode": "8360805",
    "prefectureCode": "40",
    "prefectureNumber": 40,
    "prefecture": "福岡県",
    "city": "大牟田市",
    "town": "通町"
  },
  "8360806": {
    "zipcode": "8360806",
    "prefectureCode": "40",
    "prefectureNumber": 40,
    "prefecture": "福岡県",
    "city": "大牟田市",
    "town": "東新町"
  },
  "8360807": {
    "zipcode": "8360807",
    "prefectureCode": "40",
    "prefectureNumber": 40,
    "prefecture": "福岡県",
    "city": "大牟田市",
    "town": "旭町"
  },
  "8360811": {
    "zipcode": "8360811",
    "prefectureCode": "40",
    "prefectureNumber": 40,
    "prefecture": "福岡県",
    "city": "大牟田市",
    "town": "八尻町"
  },
  "8360812": {
    "zipcode": "8360812",
    "prefectureCode": "40",
    "prefectureNumber": 40,
    "prefecture": "福岡県",
    "city": "大牟田市",
    "town": "亀甲町"
  },
  "8360813": {
    "zipcode": "8360813",
    "prefectureCode": "40",
    "prefectureNumber": 40,
    "prefecture": "福岡県",
    "city": "大牟田市",
    "town": "平原町"
  },
  "8360814": {
    "zipcode": "8360814",
    "prefectureCode": "40",
    "prefectureNumber": 40,
    "prefecture": "福岡県",
    "city": "大牟田市",
    "town": "龍湖瀬町"
  },
  "8360815": {
    "zipcode": "8360815",
    "prefectureCode": "40",
    "prefectureNumber": 40,
    "prefecture": "福岡県",
    "city": "大牟田市",
    "town": "瓦町"
  },
  "8360816": {
    "zipcode": "8360816",
    "prefectureCode": "40",
    "prefectureNumber": 40,
    "prefecture": "福岡県",
    "city": "大牟田市",
    "town": "八本町"
  },
  "8360817": {
    "zipcode": "8360817",
    "prefectureCode": "40",
    "prefectureNumber": 40,
    "prefecture": "福岡県",
    "city": "大牟田市",
    "town": "浅牟田町"
  },
  "8360821": {
    "zipcode": "8360821",
    "prefectureCode": "40",
    "prefectureNumber": 40,
    "prefecture": "福岡県",
    "city": "大牟田市",
    "town": "東泉町"
  },
  "8360822": {
    "zipcode": "8360822",
    "prefectureCode": "40",
    "prefectureNumber": 40,
    "prefecture": "福岡県",
    "city": "大牟田市",
    "town": "稲荷町"
  },
  "8360823": {
    "zipcode": "8360823",
    "prefectureCode": "40",
    "prefectureNumber": 40,
    "prefecture": "福岡県",
    "city": "大牟田市",
    "town": "亀谷町"
  },
  "8360824": {
    "zipcode": "8360824",
    "prefectureCode": "40",
    "prefectureNumber": 40,
    "prefecture": "福岡県",
    "city": "大牟田市",
    "town": "大浦町"
  },
  "8360825": {
    "zipcode": "8360825",
    "prefectureCode": "40",
    "prefectureNumber": 40,
    "prefecture": "福岡県",
    "city": "大牟田市",
    "town": "三坑町"
  },
  "8360826": {
    "zipcode": "8360826",
    "prefectureCode": "40",
    "prefectureNumber": 40,
    "prefecture": "福岡県",
    "city": "大牟田市",
    "town": "焼石町"
  },
  "8360827": {
    "zipcode": "8360827",
    "prefectureCode": "40",
    "prefectureNumber": 40,
    "prefecture": "福岡県",
    "city": "大牟田市",
    "town": "東宮浦町"
  },
  "8360831": {
    "zipcode": "8360831",
    "prefectureCode": "40",
    "prefectureNumber": 40,
    "prefecture": "福岡県",
    "city": "大牟田市",
    "town": "泉町"
  },
  "8360832": {
    "zipcode": "8360832",
    "prefectureCode": "40",
    "prefectureNumber": 40,
    "prefecture": "福岡県",
    "city": "大牟田市",
    "town": "常盤町"
  },
  "8360833": {
    "zipcode": "8360833",
    "prefectureCode": "40",
    "prefectureNumber": 40,
    "prefecture": "福岡県",
    "city": "大牟田市",
    "town": "山上町"
  },
  "8360834": {
    "zipcode": "8360834",
    "prefectureCode": "40",
    "prefectureNumber": 40,
    "prefecture": "福岡県",
    "city": "大牟田市",
    "town": "一本町"
  },
  "8360835": {
    "zipcode": "8360835",
    "prefectureCode": "40",
    "prefectureNumber": 40,
    "prefecture": "福岡県",
    "city": "大牟田市",
    "town": "西宮浦町"
  },
  "8360836": {
    "zipcode": "8360836",
    "prefectureCode": "40",
    "prefectureNumber": 40,
    "prefecture": "福岡県",
    "city": "大牟田市",
    "town": "左古町"
  },
  "8360837": {
    "zipcode": "8360837",
    "prefectureCode": "40",
    "prefectureNumber": 40,
    "prefecture": "福岡県",
    "city": "大牟田市",
    "town": "谷町"
  },
  "8360841": {
    "zipcode": "8360841",
    "prefectureCode": "40",
    "prefectureNumber": 40,
    "prefecture": "福岡県",
    "city": "大牟田市",
    "town": "築町"
  },
  "8360842": {
    "zipcode": "8360842",
    "prefectureCode": "40",
    "prefectureNumber": 40,
    "prefecture": "福岡県",
    "city": "大牟田市",
    "town": "有明町"
  },
  "8360843": {
    "zipcode": "8360843",
    "prefectureCode": "40",
    "prefectureNumber": 40,
    "prefecture": "福岡県",
    "city": "大牟田市",
    "town": "不知火町"
  },
  "8360844": {
    "zipcode": "8360844",
    "prefectureCode": "40",
    "prefectureNumber": 40,
    "prefecture": "福岡県",
    "city": "大牟田市",
    "town": "浄真町"
  },
  "8360845": {
    "zipcode": "8360845",
    "prefectureCode": "40",
    "prefectureNumber": 40,
    "prefecture": "福岡県",
    "city": "大牟田市",
    "town": "正山町"
  },
  "8360846": {
    "zipcode": "8360846",
    "prefectureCode": "40",
    "prefectureNumber": 40,
    "prefecture": "福岡県",
    "city": "大牟田市",
    "town": "右京町"
  },
  "8360847": {
    "zipcode": "8360847",
    "prefectureCode": "40",
    "prefectureNumber": 40,
    "prefecture": "福岡県",
    "city": "大牟田市",
    "town": "八江町"
  },
  "8360851": {
    "zipcode": "8360851",
    "prefectureCode": "40",
    "prefectureNumber": 40,
    "prefecture": "福岡県",
    "city": "大牟田市",
    "town": "笹林町"
  },
  "8360852": {
    "zipcode": "8360852",
    "prefectureCode": "40",
    "prefectureNumber": 40,
    "prefecture": "福岡県",
    "city": "大牟田市",
    "town": "曙町"
  },
  "8360853": {
    "zipcode": "8360853",
    "prefectureCode": "40",
    "prefectureNumber": 40,
    "prefecture": "福岡県",
    "city": "大牟田市",
    "town": "上町"
  },
  "8360854": {
    "zipcode": "8360854",
    "prefectureCode": "40",
    "prefectureNumber": 40,
    "prefecture": "福岡県",
    "city": "大牟田市",
    "town": "出雲町"
  },
  "8360855": {
    "zipcode": "8360855",
    "prefectureCode": "40",
    "prefectureNumber": 40,
    "prefecture": "福岡県",
    "city": "大牟田市",
    "town": "松浦町"
  },
  "8360856": {
    "zipcode": "8360856",
    "prefectureCode": "40",
    "prefectureNumber": 40,
    "prefecture": "福岡県",
    "city": "大牟田市",
    "town": "宮坂町"
  },
  "8360857": {
    "zipcode": "8360857",
    "prefectureCode": "40",
    "prefectureNumber": 40,
    "prefecture": "福岡県",
    "city": "大牟田市",
    "town": "宮山町"
  },
  "8360861": {
    "zipcode": "8360861",
    "prefectureCode": "40",
    "prefectureNumber": 40,
    "prefecture": "福岡県",
    "city": "大牟田市",
    "town": "宝坂町"
  },
  "8360862": {
    "zipcode": "8360862",
    "prefectureCode": "40",
    "prefectureNumber": 40,
    "prefecture": "福岡県",
    "city": "大牟田市",
    "town": "原山町"
  },
  "8360863": {
    "zipcode": "8360863",
    "prefectureCode": "40",
    "prefectureNumber": 40,
    "prefecture": "福岡県",
    "city": "大牟田市",
    "town": "一浦町"
  },
  "8360864": {
    "zipcode": "8360864",
    "prefectureCode": "40",
    "prefectureNumber": 40,
    "prefecture": "福岡県",
    "city": "大牟田市",
    "town": "真道寺町"
  },
  "8360865": {
    "zipcode": "8360865",
    "prefectureCode": "40",
    "prefectureNumber": 40,
    "prefecture": "福岡県",
    "city": "大牟田市",
    "town": "七浦町"
  },
  "8360866": {
    "zipcode": "8360866",
    "prefectureCode": "40",
    "prefectureNumber": 40,
    "prefecture": "福岡県",
    "city": "大牟田市",
    "town": "上官町"
  },
  "8360867": {
    "zipcode": "8360867",
    "prefectureCode": "40",
    "prefectureNumber": 40,
    "prefecture": "福岡県",
    "city": "大牟田市",
    "town": "花園町"
  },
  "8360871": {
    "zipcode": "8360871",
    "prefectureCode": "40",
    "prefectureNumber": 40,
    "prefecture": "福岡県",
    "city": "大牟田市",
    "town": "昭和町"
  },
  "8360872": {
    "zipcode": "8360872",
    "prefectureCode": "40",
    "prefectureNumber": 40,
    "prefecture": "福岡県",
    "city": "大牟田市",
    "town": "黄金町"
  },
  "8360873": {
    "zipcode": "8360873",
    "prefectureCode": "40",
    "prefectureNumber": 40,
    "prefecture": "福岡県",
    "city": "大牟田市",
    "town": "駛馬町"
  },
  "8360874": {
    "zipcode": "8360874",
    "prefectureCode": "40",
    "prefectureNumber": 40,
    "prefecture": "福岡県",
    "city": "大牟田市",
    "town": "末広町"
  },
  "8360875": {
    "zipcode": "8360875",
    "prefectureCode": "40",
    "prefectureNumber": 40,
    "prefecture": "福岡県",
    "city": "大牟田市",
    "town": "宮原町"
  },
  "8360876": {
    "zipcode": "8360876",
    "prefectureCode": "40",
    "prefectureNumber": 40,
    "prefecture": "福岡県",
    "city": "大牟田市",
    "town": "若宮町"
  },
  "8360877": {
    "zipcode": "8360877",
    "prefectureCode": "40",
    "prefectureNumber": 40,
    "prefecture": "福岡県",
    "city": "大牟田市",
    "town": "延命寺町"
  },
  "8360881": {
    "zipcode": "8360881",
    "prefectureCode": "40",
    "prefectureNumber": 40,
    "prefecture": "福岡県",
    "city": "大牟田市",
    "town": "米生町"
  },
  "8360882": {
    "zipcode": "8360882",
    "prefectureCode": "40",
    "prefectureNumber": 40,
    "prefecture": "福岡県",
    "city": "大牟田市",
    "town": "臼井新町"
  },
  "8360883": {
    "zipcode": "8360883",
    "prefectureCode": "40",
    "prefectureNumber": 40,
    "prefecture": "福岡県",
    "city": "大牟田市",
    "town": "馬渡町"
  },
  "8360884": {
    "zipcode": "8360884",
    "prefectureCode": "40",
    "prefectureNumber": 40,
    "prefecture": "福岡県",
    "city": "大牟田市",
    "town": "笹原町"
  },
  "8360885": {
    "zipcode": "8360885",
    "prefectureCode": "40",
    "prefectureNumber": 40,
    "prefecture": "福岡県",
    "city": "大牟田市",
    "town": "下池町"
  },
  "8360886": {
    "zipcode": "8360886",
    "prefectureCode": "40",
    "prefectureNumber": 40,
    "prefecture": "福岡県",
    "city": "大牟田市",
    "town": "勝立"
  },
  "8360891": {
    "zipcode": "8360891",
    "prefectureCode": "40",
    "prefectureNumber": 40,
    "prefecture": "福岡県",
    "city": "大牟田市",
    "town": "合成町"
  },
  "8360892": {
    "zipcode": "8360892",
    "prefectureCode": "40",
    "prefectureNumber": 40,
    "prefecture": "福岡県",
    "city": "大牟田市",
    "town": "早鐘町"
  },
  "8360893": {
    "zipcode": "8360893",
    "prefectureCode": "40",
    "prefectureNumber": 40,
    "prefecture": "福岡県",
    "city": "大牟田市",
    "town": "櫟野"
  },
  "8360894": {
    "zipcode": "8360894",
    "prefectureCode": "40",
    "prefectureNumber": 40,
    "prefecture": "福岡県",
    "city": "大牟田市",
    "town": "教楽来"
  },
  "8360895": {
    "zipcode": "8360895",
    "prefectureCode": "40",
    "prefectureNumber": 40,
    "prefecture": "福岡県",
    "city": "大牟田市",
    "town": "新勝立町"
  },
  "8360896": {
    "zipcode": "8360896",
    "prefectureCode": "40",
    "prefectureNumber": 40,
    "prefecture": "福岡県",
    "city": "大牟田市",
    "town": "天道町"
  },
  "8360897": {
    "zipcode": "8360897",
    "prefectureCode": "40",
    "prefectureNumber": 40,
    "prefecture": "福岡県",
    "city": "大牟田市",
    "town": "青葉町"
  }
}
