{
  "8370901": {
    "zipcode": "8370901",
    "prefectureCode": "40",
    "prefectureNumber": 40,
    "prefecture": "福岡県",
    "city": "大牟田市",
    "town": "四ケ"
  },
  "8370902": {
    "zipcode": "8370902",
    "prefectureCode": "40",
    "prefectureNumber": 40,
    "prefecture": "福岡県",
    "city": "大牟田市",
    "town": "上内"
  },
  "8370903": {
    "zipcode": "8370903",
    "prefectureCode": "40",
    "prefectureNumber": 40,
    "prefecture": "福岡県",
    "city": "大牟田市",
    "town": "宮崎"
  },
  "8370904": {
    "zipcode": "8370904",
    "prefectureCode": "40",
    "prefectureNumber": 40,
    "prefecture": "福岡県",
    "city": "大牟田市",
    "town": "吉野"
  },
  "8370905": {
    "zipcode": "8370905",
    "prefectureCode": "40",
    "prefectureNumber": 40,
    "prefecture": "福岡県",
    "city": "大牟田市",
    "town": "甘木"
  },
  "8370906": {
    "zipcode": "8370906",
    "prefectureCode": "40",
    "prefectureNumber": 40,
    "prefecture": "福岡県",
    "city": "大牟田市",
    "town": "倉永"
  },
  "8370907": {
    "zipcode": "8370907",
    "prefectureCode": "40",
    "prefectureNumber": 40,
    "prefecture": "福岡県",
    "city": "大牟田市",
    "town": "四箇新町"
  },
  "8370910": {
    "zipcode": "8370910",
    "prefectureCode": "40",
    "prefectureNumber": 40,
    "prefecture": "福岡県",
    "city": "大牟田市",
    "town": "岩本新町"
  },
  "8370911": {
    "zipcode": "8370911",
    "prefectureCode": "40",
    "prefectureNumber": 40,
    "prefecture": "福岡県",
    "city": "大牟田市",
    "town": "橘"
  },
  "8370912": {
    "zipcode": "8370912",
    "prefectureCode": "40",
    "prefectureNumber": 40,
    "prefecture": "福岡県",
    "city": "大牟田市",
    "town": "白銀"
  },
  "8370913": {
    "zipcode": "8370913",
    "prefectureCode": "40",
    "prefectureNumber": 40,
    "prefecture": "福岡県",
    "city": "大牟田市",
    "town": "岩本"
  },
  "8370914": {
    "zipcode": "8370914",
    "prefectureCode": "40",
    "prefectureNumber": 40,
    "prefecture": "福岡県",
    "city": "大牟田市",
    "town": "宮部"
  },
  "8370915": {
    "zipcode": "8370915",
    "prefectureCode": "40",
    "prefectureNumber": 40,
    "prefecture": "福岡県",
    "city": "大牟田市",
    "town": "久福木"
  },
  "8370916": {
    "zipcode": "8370916",
    "prefectureCode": "40",
    "prefectureNumber": 40,
    "prefecture": "福岡県",
    "city": "大牟田市",
    "town": "田隈"
  },
  "8370917": {
    "zipcode": "8370917",
    "prefectureCode": "40",
    "prefectureNumber": 40,
    "prefecture": "福岡県",
    "city": "大牟田市",
    "town": "草木"
  },
  "8370921": {
    "zipcode": "8370921",
    "prefectureCode": "40",
    "prefectureNumber": 40,
    "prefecture": "福岡県",
    "city": "大牟田市",
    "town": "三池"
  },
  "8370922": {
    "zipcode": "8370922",
    "prefectureCode": "40",
    "prefectureNumber": 40,
    "prefecture": "福岡県",
    "city": "大牟田市",
    "town": "今山"
  },
  "8370923": {
    "zipcode": "8370923",
    "prefectureCode": "40",
    "prefectureNumber": 40,
    "prefecture": "福岡県",
    "city": "大牟田市",
    "town": "新町"
  },
  "8370924": {
    "zipcode": "8370924",
    "prefectureCode": "40",
    "prefectureNumber": 40,
    "prefecture": "福岡県",
    "city": "大牟田市",
    "town": "歴木"
  },
  "8370925": {
    "zipcode": "8370925",
    "prefectureCode": "40",
    "prefectureNumber": 40,
    "prefecture": "福岡県",
    "city": "大牟田市",
    "town": "白川"
  },
  "8370926": {
    "zipcode": "8370926",
    "prefectureCode": "40",
    "prefectureNumber": 40,
    "prefecture": "福岡県",
    "city": "大牟田市",
    "town": "上白川町"
  },
  "8370927": {
    "zipcode": "8370927",
    "prefectureCode": "40",
    "prefectureNumber": 40,
    "prefecture": "福岡県",
    "city": "大牟田市",
    "town": "中白川町"
  },
  "8370928": {
    "zipcode": "8370928",
    "prefectureCode": "40",
    "prefectureNumber": 40,
    "prefecture": "福岡県",
    "city": "大牟田市",
    "town": "下白川町"
  }
}
