{
  "8380000": {
    "zipcode": "8380000",
    "prefectureCode": "40",
    "prefectureNumber": 40,
    "prefecture": "福岡県",
    "city": "朝倉郡筑前町",
    "town": "以下に掲載がない場合"
  },
  "8380001": {
    "zipcode": "8380001",
    "prefectureCode": "40",
    "prefectureNumber": 40,
    "prefecture": "福岡県",
    "city": "朝倉市",
    "town": "秋月"
  },
  "8380002": {
    "zipcode": "8380002",
    "prefectureCode": "40",
    "prefectureNumber": 40,
    "prefecture": "福岡県",
    "city": "朝倉市",
    "town": "長谷山"
  },
  "8380003": {
    "zipcode": "8380003",
    "prefectureCode": "40",
    "prefectureNumber": 40,
    "prefecture": "福岡県",
    "city": "朝倉市",
    "town": "楢原"
  },
  "8380004": {
    "zipcode": "8380004",
    "prefectureCode": "40",
    "prefectureNumber": 40,
    "prefecture": "福岡県",
    "city": "朝倉市",
    "town": "隈江"
  },
  "8380005": {
    "zipcode": "8380005",
    "prefectureCode": "40",
    "prefectureNumber": 40,
    "prefecture": "福岡県",
    "city": "朝倉市",
    "town": "甘水"
  },
  "8380011": {
    "zipcode": "8380011",
    "prefectureCode": "40",
    "prefectureNumber": 40,
    "prefecture": "福岡県",
    "city": "朝倉市",
    "town": "秋月野鳥"
  },
  "8380012": {
    "zipcode": "8380012",
    "prefectureCode": "40",
    "prefectureNumber": 40,
    "prefecture": "福岡県",
    "city": "朝倉市",
    "town": "江川"
  },
  "8380013": {
    "zipcode": "8380013",
    "prefectureCode": "40",
    "prefectureNumber": 40,
    "prefecture": "福岡県",
    "city": "朝倉市",
    "town": "田代"
  },
  "8380014": {
    "zipcode": "8380014",
    "prefectureCode": "40",
    "prefectureNumber": 40,
    "prefecture": "福岡県",
    "city": "朝倉市",
    "town": "山見"
  },
  "8380015": {
    "zipcode": "8380015",
    "prefectureCode": "40",
    "prefectureNumber": 40,
    "prefecture": "福岡県",
    "city": "朝倉市",
    "town": "持丸"
  },
  "8380016": {
    "zipcode": "8380016",
    "prefectureCode": "40",
    "prefectureNumber": 40,
    "prefecture": "福岡県",
    "city": "朝倉市",
    "town": "下渕"
  },
  "8380017": {
    "zipcode": "8380017",
    "prefectureCode": "40",
    "prefectureNumber": 40,
    "prefecture": "福岡県",
    "city": "朝倉市",
    "town": "千手"
  },
  "8380018": {
    "zipcode": "8380018",
    "prefectureCode": "40",
    "prefectureNumber": 40,
    "prefecture": "福岡県",
    "city": "朝倉市",
    "town": "日向石"
  },
  "8380019": {
    "zipcode": "8380019",
    "prefectureCode": "40",
    "prefectureNumber": 40,
    "prefecture": "福岡県",
    "city": "朝倉市",
    "town": "上秋月"
  },
  "8380020": {
    "zipcode": "8380020",
    "prefectureCode": "40",
    "prefectureNumber": 40,
    "prefecture": "福岡県",
    "city": "朝倉市",
    "town": "美奈宜の杜"
  },
  "8380021": {
    "zipcode": "8380021",
    "prefectureCode": "40",
    "prefectureNumber": 40,
    "prefecture": "福岡県",
    "city": "朝倉市",
    "town": "矢野竹"
  },
  "8380022": {
    "zipcode": "8380022",
    "prefectureCode": "40",
    "prefectureNumber": 40,
    "prefecture": "福岡県",
    "city": "朝倉市",
    "town": "城"
  },
  "8380023": {
    "zipcode": "8380023",
    "prefectureCode": "40",
    "prefectureNumber": 40,
    "prefecture": "福岡県",
    "city": "朝倉市",
    "town": "三奈木"
  },
  "8380024": {
    "zipcode": "8380024",
    "prefectureCode": "40",
    "prefectureNumber": 40,
    "prefecture": "福岡県",
    "city": "朝倉市",
    "town": "牛鶴"
  },
  "8380025": {
    "zipcode": "8380025",
    "prefectureCode": "40",
    "prefectureNumber": 40,
    "prefecture": "福岡県",
    "city": "朝倉市",
    "town": "相窪"
  },
  "8380026": {
    "zipcode": "8380026",
    "prefectureCode": "40",
    "prefectureNumber": 40,
    "prefecture": "福岡県",
    "city": "朝倉市",
    "town": "柿原"
  },
  "8380027": {
    "zipcode": "8380027",
    "prefectureCode": "40",
    "prefectureNumber": 40,
    "prefecture": "福岡県",
    "city": "朝倉市",
    "town": "板屋"
  },
  "8380028": {
    "zipcode": "8380028",
    "prefectureCode": "40",
    "prefectureNumber": 40,
    "prefecture": "福岡県",
    "city": "朝倉市",
    "town": "屋形原"
  },
  "8380029": {
    "zipcode": "8380029",
    "prefectureCode": "40",
    "prefectureNumber": 40,
    "prefecture": "福岡県",
    "city": "朝倉市",
    "town": "荷原"
  },
  "8380031": {
    "zipcode": "8380031",
    "prefectureCode": "40",
    "prefectureNumber": 40,
    "prefecture": "福岡県",
    "city": "朝倉市",
    "town": "屋永"
  },
  "8380032": {
    "zipcode": "8380032",
    "prefectureCode": "40",
    "prefectureNumber": 40,
    "prefecture": "福岡県",
    "city": "朝倉市",
    "town": "中島田"
  },
  "8380033": {
    "zipcode": "8380033",
    "prefectureCode": "40",
    "prefectureNumber": 40,
    "prefecture": "福岡県",
    "city": "朝倉市",
    "town": "田島"
  },
  "8380034": {
    "zipcode": "8380034",
    "prefectureCode": "40",
    "prefectureNumber": 40,
    "prefecture": "福岡県",
    "city": "朝倉市",
    "town": "福光"
  },
  "8380035": {
    "zipcode": "8380035",
    "prefectureCode": "40",
    "prefectureNumber": 40,
    "prefecture": "福岡県",
    "city": "朝倉市",
    "town": "中"
  },
  "8380036": {
    "zipcode": "8380036",
    "prefectureCode": "40",
    "prefectureNumber": 40,
    "prefecture": "福岡県",
    "city": "朝倉市",
    "town": "片延"
  },
  "8380037": {
    "zipcode": "8380037",
    "prefectureCode": "40",
    "prefectureNumber": 40,
    "prefecture": "福岡県",
    "city": "朝倉市",
    "town": "林田"
  },
  "8380038": {
    "zipcode": "8380038",
    "prefectureCode": "40",
    "prefectureNumber": 40,
    "prefecture": "福岡県",
    "city": "朝倉市",
    "town": "鵜木"
  },
  "8380039": {
    "zipcode": "8380039",
    "prefectureCode": "40",
    "prefectureNumber": 40,
    "prefecture": "福岡県",
    "city": "朝倉市",
    "town": "桑原"
  },
  "8380041": {
    "zipcode": "8380041",
    "prefectureCode": "40",
    "prefectureNumber": 40,
    "prefecture": "福岡県",
    "city": "朝倉市",
    "town": "鎌崎"
  },
  "8380042": {
    "zipcode": "8380042",
    "prefectureCode": "40",
    "prefectureNumber": 40,
    "prefecture": "福岡県",
    "city": "朝倉市",
    "town": "上畑"
  },
  "8380043": {
    "zipcode": "8380043",
    "prefectureCode": "40",
    "prefectureNumber": 40,
    "prefecture": "福岡県",
    "city": "朝倉市",
    "town": "長田"
  },
  "8380044": {
    "zipcode": "8380044",
    "prefectureCode": "40",
    "prefectureNumber": 40,
    "prefecture": "福岡県",
    "city": "朝倉市",
    "town": "八重津"
  },
  "8380045": {
    "zipcode": "8380045",
    "prefectureCode": "40",
    "prefectureNumber": 40,
    "prefecture": "福岡県",
    "city": "朝倉市",
    "town": "白鳥"
  },
  "8380046": {
    "zipcode": "8380046",
    "prefectureCode": "40",
    "prefectureNumber": 40,
    "prefecture": "福岡県",
    "city": "朝倉市",
    "town": "倉吉"
  },
  "8380047": {
    "zipcode": "8380047",
    "prefectureCode": "40",
    "prefectureNumber": 40,
    "prefecture": "福岡県",
    "city": "朝倉市",
    "town": "徳渕"
  },
  "8380048": {
    "zipcode": "8380048",
    "prefectureCode": "40",
    "prefectureNumber": 40,
    "prefecture": "福岡県",
    "city": "朝倉市",
    "town": "金丸"
  },
  "8380051": {
    "zipcode": "8380051",
    "prefectureCode": "40",
    "prefectureNumber": 40,
    "prefecture": "福岡県",
    "city": "朝倉市",
    "town": "小田"
  },
  "8380052": {
    "zipcode": "8380052",
    "prefectureCode": "40",
    "prefectureNumber": 40,
    "prefecture": "福岡県",
    "city": "朝倉市",
    "town": "小隈"
  },
  "8380053": {
    "zipcode": "8380053",
    "prefectureCode": "40",
    "prefectureNumber": 40,
    "prefecture": "福岡県",
    "city": "朝倉市",
    "town": "中寒水"
  },
  "8380054": {
    "zipcode": "8380054",
    "prefectureCode": "40",
    "prefectureNumber": 40,
    "prefecture": "福岡県",
    "city": "朝倉市",
    "town": "草水"
  },
  "8380055": {
    "zipcode": "8380055",
    "prefectureCode": "40",
    "prefectureNumber": 40,
    "prefecture": "福岡県",
    "city": "朝倉市",
    "town": "下浦"
  },
  "8380056": {
    "zipcode": "8380056",
    "prefectureCode": "40",
    "prefectureNumber": 40,
    "prefecture": "福岡県",
    "city": "朝倉市",
    "town": "中原"
  },
  "8380057": {
    "zipcode": "8380057",
    "prefectureCode": "40",
    "prefectureNumber": 40,
    "prefecture": "福岡県",
    "city": "朝倉市",
    "town": "上浦"
  },
  "8380058": {
    "zipcode": "8380058",
    "prefectureCode": "40",
    "prefectureNumber": 40,
    "prefecture": "福岡県",
    "city": "朝倉市",
    "town": "馬田"
  },
  "8380059": {
    "zipcode": "8380059",
    "prefectureCode": "40",
    "prefectureNumber": 40,
    "prefecture": "福岡県",
    "city": "朝倉市",
    "town": "平塚"
  },
  "8380061": {
    "zipcode": "8380061",
    "prefectureCode": "40",
    "prefectureNumber": 40,
    "prefecture": "福岡県",
    "city": "朝倉市",
    "town": "菩提寺"
  },
  "8380062": {
    "zipcode": "8380062",
    "prefectureCode": "40",
    "prefectureNumber": 40,
    "prefecture": "福岡県",
    "city": "朝倉市",
    "town": "堤"
  },
  "8380063": {
    "zipcode": "8380063",
    "prefectureCode": "40",
    "prefectureNumber": 40,
    "prefecture": "福岡県",
    "city": "朝倉市",
    "town": "古賀"
  },
  "8380064": {
    "zipcode": "8380064",
    "prefectureCode": "40",
    "prefectureNumber": 40,
    "prefecture": "福岡県",
    "city": "朝倉市",
    "town": "頓田"
  },
  "8380065": {
    "zipcode": "8380065",
    "prefectureCode": "40",
    "prefectureNumber": 40,
    "prefecture": "福岡県",
    "city": "朝倉市",
    "town": "一木"
  },
  "8380066": {
    "zipcode": "8380066",
    "prefectureCode": "40",
    "prefectureNumber": 40,
    "prefecture": "福岡県",
    "city": "朝倉市",
    "town": "千代丸"
  },
  "8380067": {
    "zipcode": "8380067",
    "prefectureCode": "40",
    "prefectureNumber": 40,
    "prefecture": "福岡県",
    "city": "朝倉市",
    "town": "牛木"
  },
  "8380068": {
    "zipcode": "8380068",
    "prefectureCode": "40",
    "prefectureNumber": 40,
    "prefecture": "福岡県",
    "city": "朝倉市",
    "town": "甘木"
  },
  "8380069": {
    "zipcode": "8380069",
    "prefectureCode": "40",
    "prefectureNumber": 40,
    "prefecture": "福岡県",
    "city": "朝倉市",
    "town": "来春"
  },
  "8380071": {
    "zipcode": "8380071",
    "prefectureCode": "40",
    "prefectureNumber": 40,
    "prefecture": "福岡県",
    "city": "朝倉市",
    "town": "佐田"
  },
  "8380072": {
    "zipcode": "8380072",
    "prefectureCode": "40",
    "prefectureNumber": 40,
    "prefecture": "福岡県",
    "city": "朝倉市",
    "town": "黒川"
  },
  "8380100": {
    "zipcode": "8380100",
    "prefectureCode": "40",
    "prefectureNumber": 40,
    "prefecture": "福岡県",
    "city": "小郡市",
    "town": "以下に掲載がない場合"
  },
  "8380101": {
    "zipcode": "8380101",
    "prefectureCode": "40",
    "prefectureNumber": 40,
    "prefecture": "福岡県",
    "city": "小郡市",
    "town": "美鈴が丘"
  },
  "8380102": {
    "zipcode": "8380102",
    "prefectureCode": "40",
    "prefectureNumber": 40,
    "prefecture": "福岡県",
    "city": "小郡市",
    "town": "津古"
  },
  "8380103": {
    "zipcode": "8380103",
    "prefectureCode": "40",
    "prefectureNumber": 40,
    "prefecture": "福岡県",
    "city": "小郡市",
    "town": "三国が丘"
  },
  "8380104": {
    "zipcode": "8380104",
    "prefectureCode": "40",
    "prefectureNumber": 40,
    "prefecture": "福岡県",
    "city": "小郡市",
    "town": "乙隈"
  },
  "8380105": {
    "zipcode": "8380105",
    "prefectureCode": "40",
    "prefectureNumber": 40,
    "prefecture": "福岡県",
    "city": "小郡市",
    "town": "横隈"
  },
  "8380106": {
    "zipcode": "8380106",
    "prefectureCode": "40",
    "prefectureNumber": 40,
    "prefecture": "福岡県",
    "city": "小郡市",
    "town": "三沢"
  },
  "8380107": {
    "zipcode": "8380107",
    "prefectureCode": "40",
    "prefectureNumber": 40,
    "prefecture": "福岡県",
    "city": "小郡市",
    "town": "希みが丘"
  },
  "8380108": {
    "zipcode": "8380108",
    "prefectureCode": "40",
    "prefectureNumber": 40,
    "prefecture": "福岡県",
    "city": "小郡市",
    "town": "美鈴の杜"
  },
  "8380109": {
    "zipcode": "8380109",
    "prefectureCode": "40",
    "prefectureNumber": 40,
    "prefecture": "福岡県",
    "city": "小郡市",
    "town": "あすみ"
  },
  "8380111": {
    "zipcode": "8380111",
    "prefectureCode": "40",
    "prefectureNumber": 40,
    "prefecture": "福岡県",
    "city": "小郡市",
    "town": "吹上"
  },
  "8380112": {
    "zipcode": "8380112",
    "prefectureCode": "40",
    "prefectureNumber": 40,
    "prefecture": "福岡県",
    "city": "小郡市",
    "town": "干潟"
  },
  "8380113": {
    "zipcode": "8380113",
    "prefectureCode": "40",
    "prefectureNumber": 40,
    "prefecture": "福岡県",
    "city": "小郡市",
    "town": "山隈"
  },
  "8380114": {
    "zipcode": "8380114",
    "prefectureCode": "40",
    "prefectureNumber": 40,
    "prefecture": "福岡県",
    "city": "小郡市",
    "town": "井上"
  },
  "8380115": {
    "zipcode": "8380115",
    "prefectureCode": "40",
    "prefectureNumber": 40,
    "prefecture": "福岡県",
    "city": "小郡市",
    "town": "大保"
  },
  "8380116": {
    "zipcode": "8380116",
    "prefectureCode": "40",
    "prefectureNumber": 40,
    "prefecture": "福岡県",
    "city": "小郡市",
    "town": "力武"
  },
  "8380121": {
    "zipcode": "8380121",
    "prefectureCode": "40",
    "prefectureNumber": 40,
    "prefecture": "福岡県",
    "city": "小郡市",
    "town": "上岩田"
  },
  "8380122": {
    "zipcode": "8380122",
    "prefectureCode": "40",
    "prefectureNumber": 40,
    "prefecture": "福岡県",
    "city": "小郡市",
    "town": "松崎"
  },
  "8380123": {
    "zipcode": "8380123",
    "prefectureCode": "40",
    "prefectureNumber": 40,
    "prefecture": "福岡県",
    "city": "小郡市",
    "town": "下岩田"
  },
  "8380124": {
    "zipcode": "8380124",
    "prefectureCode": "40",
    "prefectureNumber": 40,
    "prefecture": "福岡県",
    "city": "小郡市",
    "town": "古飯"
  },
  "8380125": {
    "zipcode": "8380125",
    "prefectureCode": "40",
    "prefectureNumber": 40,
    "prefecture": "福岡県",
    "city": "小郡市",
    "town": "二夕"
  },
  "8380126": {
    "zipcode": "8380126",
    "prefectureCode": "40",
    "prefectureNumber": 40,
    "prefecture": "福岡県",
    "city": "小郡市",
    "town": "二森"
  },
  "8380127": {
    "zipcode": "8380127",
    "prefectureCode": "40",
    "prefectureNumber": 40,
    "prefecture": "福岡県",
    "city": "小郡市",
    "town": "大崎"
  },
  "8380128": {
    "zipcode": "8380128",
    "prefectureCode": "40",
    "prefectureNumber": 40,
    "prefecture": "福岡県",
    "city": "小郡市",
    "town": "稲吉"
  },
  "8380131": {
    "zipcode": "8380131",
    "prefectureCode": "40",
    "prefectureNumber": 40,
    "prefecture": "福岡県",
    "city": "小郡市",
    "town": "平方"
  },
  "8380132": {
    "zipcode": "8380132",
    "prefectureCode": "40",
    "prefectureNumber": 40,
    "prefecture": "福岡県",
    "city": "小郡市",
    "town": "光行"
  },
  "8380133": {
    "zipcode": "8380133",
    "prefectureCode": "40",
    "prefectureNumber": 40,
    "prefecture": "福岡県",
    "city": "小郡市",
    "town": "八坂"
  },
  "8380134": {
    "zipcode": "8380134",
    "prefectureCode": "40",
    "prefectureNumber": 40,
    "prefecture": "福岡県",
    "city": "小郡市",
    "town": "下西鰺坂"
  },
  "8380135": {
    "zipcode": "8380135",
    "prefectureCode": "40",
    "prefectureNumber": 40,
    "prefecture": "福岡県",
    "city": "小郡市",
    "town": "赤川"
  },
  "8380136": {
    "zipcode": "8380136",
    "prefectureCode": "40",
    "prefectureNumber": 40,
    "prefecture": "福岡県",
    "city": "小郡市",
    "town": "上西鰺坂"
  },
  "8380137": {
    "zipcode": "8380137",
    "prefectureCode": "40",
    "prefectureNumber": 40,
    "prefecture": "福岡県",
    "city": "小郡市",
    "town": "福童"
  },
  "8380138": {
    "zipcode": "8380138",
    "prefectureCode": "40",
    "prefectureNumber": 40,
    "prefecture": "福岡県",
    "city": "小郡市",
    "town": "寺福童"
  },
  "8380141": {
    "zipcode": "8380141",
    "prefectureCode": "40",
    "prefectureNumber": 40,
    "prefecture": "福岡県",
    "city": "小郡市",
    "town": "小郡"
  },
  "8380142": {
    "zipcode": "8380142",
    "prefectureCode": "40",
    "prefectureNumber": 40,
    "prefecture": "福岡県",
    "city": "小郡市",
    "town": "大板井"
  },
  "8380143": {
    "zipcode": "8380143",
    "prefectureCode": "40",
    "prefectureNumber": 40,
    "prefecture": "福岡県",
    "city": "小郡市",
    "town": "小板井"
  },
  "8380144": {
    "zipcode": "8380144",
    "prefectureCode": "40",
    "prefectureNumber": 40,
    "prefecture": "福岡県",
    "city": "小郡市",
    "town": "祇園"
  },
  "8380201": {
    "zipcode": "8380201",
    "prefectureCode": "40",
    "prefectureNumber": 40,
    "prefecture": "福岡県",
    "city": "朝倉郡筑前町",
    "town": "櫛木"
  },
  "8380202": {
    "zipcode": "8380202",
    "prefectureCode": "40",
    "prefectureNumber": 40,
    "prefecture": "福岡県",
    "city": "朝倉郡筑前町",
    "town": "三箇山"
  },
  "8380203": {
    "zipcode": "8380203",
    "prefectureCode": "40",
    "prefectureNumber": 40,
    "prefecture": "福岡県",
    "city": "朝倉郡筑前町",
    "town": "畑嶋"
  },
  "8380204": {
    "zipcode": "8380204",
    "prefectureCode": "40",
    "prefectureNumber": 40,
    "prefecture": "福岡県",
    "city": "朝倉郡筑前町",
    "town": "長者町"
  },
  "8380205": {
    "zipcode": "8380205",
    "prefectureCode": "40",
    "prefectureNumber": 40,
    "prefecture": "福岡県",
    "city": "朝倉郡筑前町",
    "town": "三並"
  },
  "8380206": {
    "zipcode": "8380206",
    "prefectureCode": "40",
    "prefectureNumber": 40,
    "prefecture": "福岡県",
    "city": "朝倉郡筑前町",
    "town": "曽根田"
  },
  "8380207": {
    "zipcode": "8380207",
    "prefectureCode": "40",
    "prefectureNumber": 40,
    "prefecture": "福岡県",
    "city": "朝倉郡筑前町",
    "town": "三牟田"
  },
  "8380211": {
    "zipcode": "8380211",
    "prefectureCode": "40",
    "prefectureNumber": 40,
    "prefecture": "福岡県",
    "city": "朝倉郡筑前町",
    "town": "下高場"
  },
  "8380212": {
    "zipcode": "8380212",
    "prefectureCode": "40",
    "prefectureNumber": 40,
    "prefecture": "福岡県",
    "city": "朝倉郡筑前町",
    "town": "四三嶋"
  },
  "8380213": {
    "zipcode": "8380213",
    "prefectureCode": "40",
    "prefectureNumber": 40,
    "prefecture": "福岡県",
    "city": "朝倉郡筑前町",
    "town": "安野"
  },
  "8380214": {
    "zipcode": "8380214",
    "prefectureCode": "40",
    "prefectureNumber": 40,
    "prefecture": "福岡県",
    "city": "朝倉郡筑前町",
    "town": "東小田"
  },
  "8380215": {
    "zipcode": "8380215",
    "prefectureCode": "40",
    "prefectureNumber": 40,
    "prefecture": "福岡県",
    "city": "朝倉郡筑前町",
    "town": "篠隈"
  },
  "8380221": {
    "zipcode": "8380221",
    "prefectureCode": "40",
    "prefectureNumber": 40,
    "prefecture": "福岡県",
    "city": "朝倉郡筑前町",
    "town": "吹田"
  },
  "8380222": {
    "zipcode": "8380222",
    "prefectureCode": "40",
    "prefectureNumber": 40,
    "prefecture": "福岡県",
    "city": "朝倉郡筑前町",
    "town": "赤坂"
  },
  "8380223": {
    "zipcode": "8380223",
    "prefectureCode": "40",
    "prefectureNumber": 40,
    "prefecture": "福岡県",
    "city": "朝倉郡筑前町",
    "town": "砥上"
  },
  "8380224": {
    "zipcode": "8380224",
    "prefectureCode": "40",
    "prefectureNumber": 40,
    "prefecture": "福岡県",
    "city": "朝倉郡筑前町",
    "town": "松延"
  },
  "8380225": {
    "zipcode": "8380225",
    "prefectureCode": "40",
    "prefectureNumber": 40,
    "prefecture": "福岡県",
    "city": "朝倉郡筑前町",
    "town": "石櫃"
  },
  "8380226": {
    "zipcode": "8380226",
    "prefectureCode": "40",
    "prefectureNumber": 40,
    "prefecture": "福岡県",
    "city": "朝倉郡筑前町",
    "town": "中牟田"
  },
  "8380227": {
    "zipcode": "8380227",
    "prefectureCode": "40",
    "prefectureNumber": 40,
    "prefecture": "福岡県",
    "city": "朝倉郡筑前町",
    "town": "朝日"
  },
  "8380228": {
    "zipcode": "8380228",
    "prefectureCode": "40",
    "prefectureNumber": 40,
    "prefecture": "福岡県",
    "city": "朝倉郡筑前町",
    "town": "二"
  },
  "8380801": {
    "zipcode": "8380801",
    "prefectureCode": "40",
    "prefectureNumber": 40,
    "prefecture": "福岡県",
    "city": "朝倉郡筑前町",
    "town": "栗田"
  },
  "8380802": {
    "zipcode": "8380802",
    "prefectureCode": "40",
    "prefectureNumber": 40,
    "prefecture": "福岡県",
    "city": "朝倉郡筑前町",
    "town": "久光"
  },
  "8380803": {
    "zipcode": "8380803",
    "prefectureCode": "40",
    "prefectureNumber": 40,
    "prefecture": "福岡県",
    "city": "朝倉郡筑前町",
    "town": "当所"
  },
  "8380804": {
    "zipcode": "8380804",
    "prefectureCode": "40",
    "prefectureNumber": 40,
    "prefecture": "福岡県",
    "city": "朝倉郡筑前町",
    "town": "森山"
  },
  "8380811": {
    "zipcode": "8380811",
    "prefectureCode": "40",
    "prefectureNumber": 40,
    "prefecture": "福岡県",
    "city": "朝倉郡筑前町",
    "town": "弥永"
  },
  "8380812": {
    "zipcode": "8380812",
    "prefectureCode": "40",
    "prefectureNumber": 40,
    "prefecture": "福岡県",
    "city": "朝倉郡筑前町",
    "town": "大塚"
  },
  "8380813": {
    "zipcode": "8380813",
    "prefectureCode": "40",
    "prefectureNumber": 40,
    "prefecture": "福岡県",
    "city": "朝倉郡筑前町",
    "town": "依井"
  },
  "8380814": {
    "zipcode": "8380814",
    "prefectureCode": "40",
    "prefectureNumber": 40,
    "prefecture": "福岡県",
    "city": "朝倉郡筑前町",
    "town": "高田"
  },
  "8380815": {
    "zipcode": "8380815",
    "prefectureCode": "40",
    "prefectureNumber": 40,
    "prefecture": "福岡県",
    "city": "朝倉郡筑前町",
    "town": "野町"
  },
  "8380816": {
    "zipcode": "8380816",
    "prefectureCode": "40",
    "prefectureNumber": 40,
    "prefecture": "福岡県",
    "city": "朝倉郡筑前町",
    "town": "新町"
  },
  "8380817": {
    "zipcode": "8380817",
    "prefectureCode": "40",
    "prefectureNumber": 40,
    "prefecture": "福岡県",
    "city": "朝倉郡筑前町",
    "town": "朝園"
  },
  "8380821": {
    "zipcode": "8380821",
    "prefectureCode": "40",
    "prefectureNumber": 40,
    "prefecture": "福岡県",
    "city": "朝倉郡筑前町",
    "town": "上高場"
  },
  "8380822": {
    "zipcode": "8380822",
    "prefectureCode": "40",
    "prefectureNumber": 40,
    "prefecture": "福岡県",
    "city": "朝倉郡筑前町",
    "town": "高上"
  },
  "8380823": {
    "zipcode": "8380823",
    "prefectureCode": "40",
    "prefectureNumber": 40,
    "prefecture": "福岡県",
    "city": "朝倉郡筑前町",
    "town": "山隈"
  },
  "8380824": {
    "zipcode": "8380824",
    "prefectureCode": "40",
    "prefectureNumber": 40,
    "prefecture": "福岡県",
    "city": "朝倉郡筑前町",
    "town": "原地蔵"
  },
  "8380825": {
    "zipcode": "8380825",
    "prefectureCode": "40",
    "prefectureNumber": 40,
    "prefecture": "福岡県",
    "city": "朝倉郡筑前町",
    "town": "大久保"
  },
  "8381301": {
    "zipcode": "8381301",
    "prefectureCode": "40",
    "prefectureNumber": 40,
    "prefecture": "福岡県",
    "city": "朝倉市",
    "town": "烏集院"
  },
  "8381302": {
    "zipcode": "8381302",
    "prefectureCode": "40",
    "prefectureNumber": 40,
    "prefecture": "福岡県",
    "city": "朝倉市",
    "town": "宮野"
  },
  "8381303": {
    "zipcode": "8381303",
    "prefectureCode": "40",
    "prefectureNumber": 40,
    "prefecture": "福岡県",
    "city": "朝倉市",
    "town": "比良松"
  },
  "8381304": {
    "zipcode": "8381304",
    "prefectureCode": "40",
    "prefectureNumber": 40,
    "prefecture": "福岡県",
    "city": "朝倉市",
    "town": "須川"
  },
  "8381305": {
    "zipcode": "8381305",
    "prefectureCode": "40",
    "prefectureNumber": 40,
    "prefecture": "福岡県",
    "city": "朝倉市",
    "town": "菱野"
  },
  "8381306": {
    "zipcode": "8381306",
    "prefectureCode": "40",
    "prefectureNumber": 40,
    "prefecture": "福岡県",
    "city": "朝倉市",
    "town": "山田"
  },
  "8381307": {
    "zipcode": "8381307",
    "prefectureCode": "40",
    "prefectureNumber": 40,
    "prefecture": "福岡県",
    "city": "朝倉市",
    "town": "古毛"
  },
  "8381311": {
    "zipcode": "8381311",
    "prefectureCode": "40",
    "prefectureNumber": 40,
    "prefecture": "福岡県",
    "city": "朝倉市",
    "town": "多々連"
  },
  "8381312": {
    "zipcode": "8381312",
    "prefectureCode": "40",
    "prefectureNumber": 40,
    "prefecture": "福岡県",
    "city": "朝倉市",
    "town": "田中"
  },
  "8381313": {
    "zipcode": "8381313",
    "prefectureCode": "40",
    "prefectureNumber": 40,
    "prefecture": "福岡県",
    "city": "朝倉市",
    "town": "上寺"
  },
  "8381314": {
    "zipcode": "8381314",
    "prefectureCode": "40",
    "prefectureNumber": 40,
    "prefecture": "福岡県",
    "city": "朝倉市",
    "town": "長渕"
  },
  "8381315": {
    "zipcode": "8381315",
    "prefectureCode": "40",
    "prefectureNumber": 40,
    "prefecture": "福岡県",
    "city": "朝倉市",
    "town": "入地"
  },
  "8381316": {
    "zipcode": "8381316",
    "prefectureCode": "40",
    "prefectureNumber": 40,
    "prefecture": "福岡県",
    "city": "朝倉市",
    "town": "大庭"
  },
  "8381317": {
    "zipcode": "8381317",
    "prefectureCode": "40",
    "prefectureNumber": 40,
    "prefecture": "福岡県",
    "city": "朝倉市",
    "town": "石成"
  },
  "8381501": {
    "zipcode": "8381501",
    "prefectureCode": "40",
    "prefectureNumber": 40,
    "prefecture": "福岡県",
    "city": "朝倉市",
    "town": "杷木赤谷"
  },
  "8381502": {
    "zipcode": "8381502",
    "prefectureCode": "40",
    "prefectureNumber": 40,
    "prefecture": "福岡県",
    "city": "朝倉市",
    "town": "杷木松末"
  },
  "8381503": {
    "zipcode": "8381503",
    "prefectureCode": "40",
    "prefectureNumber": 40,
    "prefecture": "福岡県",
    "city": "朝倉市",
    "town": "杷木大山"
  },
  "8381504": {
    "zipcode": "8381504",
    "prefectureCode": "40",
    "prefectureNumber": 40,
    "prefecture": "福岡県",
    "city": "朝倉市",
    "town": "杷木星丸"
  },
  "8381505": {
    "zipcode": "8381505",
    "prefectureCode": "40",
    "prefectureNumber": 40,
    "prefecture": "福岡県",
    "city": "朝倉市",
    "town": "杷木穂坂"
  },
  "8381506": {
    "zipcode": "8381506",
    "prefectureCode": "40",
    "prefectureNumber": 40,
    "prefecture": "福岡県",
    "city": "朝倉市",
    "town": "杷木林田"
  },
  "8381507": {
    "zipcode": "8381507",
    "prefectureCode": "40",
    "prefectureNumber": 40,
    "prefecture": "福岡県",
    "city": "朝倉市",
    "town": "杷木白木"
  },
  "8381511": {
    "zipcode": "8381511",
    "prefectureCode": "40",
    "prefectureNumber": 40,
    "prefecture": "福岡県",
    "city": "朝倉市",
    "town": "杷木池田"
  },
  "8381512": {
    "zipcode": "8381512",
    "prefectureCode": "40",
    "prefectureNumber": 40,
    "prefecture": "福岡県",
    "city": "朝倉市",
    "town": "杷木寒水"
  },
  "8381513": {
    "zipcode": "8381513",
    "prefectureCode": "40",
    "prefectureNumber": 40,
    "prefecture": "福岡県",
    "city": "朝倉市",
    "town": "杷木古賀"
  },
  "8381514": {
    "zipcode": "8381514",
    "prefectureCode": "40",
    "prefectureNumber": 40,
    "prefecture": "福岡県",
    "city": "朝倉市",
    "town": "杷木久喜宮"
  },
  "8381515": {
    "zipcode": "8381515",
    "prefectureCode": "40",
    "prefectureNumber": 40,
    "prefecture": "福岡県",
    "city": "朝倉市",
    "town": "杷木若市"
  },
  "8381521": {
    "zipcode": "8381521",
    "prefectureCode": "40",
    "prefectureNumber": 40,
    "prefecture": "福岡県",
    "city": "朝倉市",
    "town": "杷木志波"
  },
  "8381601": {
    "zipcode": "8381601",
    "prefectureCode": "40",
    "prefectureNumber": 40,
    "prefecture": "福岡県",
    "city": "朝倉郡東峰村",
    "town": "小石原"
  },
  "8381602": {
    "zipcode": "8381602",
    "prefectureCode": "40",
    "prefectureNumber": 40,
    "prefecture": "福岡県",
    "city": "朝倉郡東峰村",
    "town": "小石原鼓"
  },
  "8381700": {
    "zipcode": "8381700",
    "prefectureCode": "40",
    "prefectureNumber": 40,
    "prefecture": "福岡県",
    "city": "朝倉郡東峰村",
    "town": "以下に掲載がない場合"
  },
  "8381701": {
    "zipcode": "8381701",
    "prefectureCode": "40",
    "prefectureNumber": 40,
    "prefecture": "福岡県",
    "city": "朝倉郡東峰村",
    "town": "宝珠山"
  },
  "8381702": {
    "zipcode": "8381702",
    "prefectureCode": "40",
    "prefectureNumber": 40,
    "prefecture": "福岡県",
    "city": "朝倉郡東峰村",
    "town": "福井"
  }
}
