{
  "8390000": {
    "zipcode": "8390000",
    "prefectureCode": "40",
    "prefectureNumber": 40,
    "prefecture": "福岡県",
    "city": "久留米市",
    "town": "以下に掲載がない場合"
  },
  "8390201": {
    "zipcode": "8390201",
    "prefectureCode": "40",
    "prefectureNumber": 40,
    "prefecture": "福岡県",
    "city": "みやま市",
    "town": "高田町昭和開"
  },
  "8390202": {
    "zipcode": "8390202",
    "prefectureCode": "40",
    "prefectureNumber": 40,
    "prefecture": "福岡県",
    "city": "みやま市",
    "town": "高田町永治"
  },
  "8390203": {
    "zipcode": "8390203",
    "prefectureCode": "40",
    "prefectureNumber": 40,
    "prefecture": "福岡県",
    "city": "みやま市",
    "town": "高田町黒崎開"
  },
  "8390204": {
    "zipcode": "8390204",
    "prefectureCode": "40",
    "prefectureNumber": 40,
    "prefecture": "福岡県",
    "city": "みやま市",
    "town": "高田町北新開"
  },
  "8390205": {
    "zipcode": "8390205",
    "prefectureCode": "40",
    "prefectureNumber": 40,
    "prefecture": "福岡県",
    "city": "みやま市",
    "town": "高田町南新開"
  },
  "8390211": {
    "zipcode": "8390211",
    "prefectureCode": "40",
    "prefectureNumber": 40,
    "prefecture": "福岡県",
    "city": "みやま市",
    "town": "高田町徳島"
  },
  "8390212": {
    "zipcode": "8390212",
    "prefectureCode": "40",
    "prefectureNumber": 40,
    "prefecture": "福岡県",
    "city": "みやま市",
    "town": "高田町江浦町"
  },
  "8390213": {
    "zipcode": "8390213",
    "prefectureCode": "40",
    "prefectureNumber": 40,
    "prefecture": "福岡県",
    "city": "みやま市",
    "town": "高田町江浦"
  },
  "8390214": {
    "zipcode": "8390214",
    "prefectureCode": "40",
    "prefectureNumber": 40,
    "prefecture": "福岡県",
    "city": "みやま市",
    "town": "高田町今福"
  },
  "8390215": {
    "zipcode": "8390215",
    "prefectureCode": "40",
    "prefectureNumber": 40,
    "prefecture": "福岡県",
    "city": "みやま市",
    "town": "高田町濃施"
  },
  "8390221": {
    "zipcode": "8390221",
    "prefectureCode": "40",
    "prefectureNumber": 40,
    "prefecture": "福岡県",
    "city": "みやま市",
    "town": "高田町下楠田"
  },
  "8390222": {
    "zipcode": "8390222",
    "prefectureCode": "40",
    "prefectureNumber": 40,
    "prefecture": "福岡県",
    "city": "みやま市",
    "town": "高田町原"
  },
  "8390223": {
    "zipcode": "8390223",
    "prefectureCode": "40",
    "prefectureNumber": 40,
    "prefecture": "福岡県",
    "city": "みやま市",
    "town": "高田町岩津"
  },
  "8390224": {
    "zipcode": "8390224",
    "prefectureCode": "40",
    "prefectureNumber": 40,
    "prefecture": "福岡県",
    "city": "みやま市",
    "town": "高田町田尻"
  },
  "8390225": {
    "zipcode": "8390225",
    "prefectureCode": "40",
    "prefectureNumber": 40,
    "prefecture": "福岡県",
    "city": "みやま市",
    "town": "高田町上楠田"
  },
  "8390241": {
    "zipcode": "8390241",
    "prefectureCode": "40",
    "prefectureNumber": 40,
    "prefecture": "福岡県",
    "city": "柳川市",
    "town": "大和町徳益"
  },
  "8390242": {
    "zipcode": "8390242",
    "prefectureCode": "40",
    "prefectureNumber": 40,
    "prefecture": "福岡県",
    "city": "柳川市",
    "town": "大和町豊原"
  },
  "8390243": {
    "zipcode": "8390243",
    "prefectureCode": "40",
    "prefectureNumber": 40,
    "prefecture": "福岡県",
    "city": "柳川市",
    "town": "大和町塩塚"
  },
  "8390244": {
    "zipcode": "8390244",
    "prefectureCode": "40",
    "prefectureNumber": 40,
    "prefecture": "福岡県",
    "city": "柳川市",
    "town": "大和町六合"
  },
  "8390251": {
    "zipcode": "8390251",
    "prefectureCode": "40",
    "prefectureNumber": 40,
    "prefecture": "福岡県",
    "city": "柳川市",
    "town": "大和町明野"
  },
  "8390252": {
    "zipcode": "8390252",
    "prefectureCode": "40",
    "prefectureNumber": 40,
    "prefecture": "福岡県",
    "city": "柳川市",
    "town": "大和町栄"
  },
  "8390253": {
    "zipcode": "8390253",
    "prefectureCode": "40",
    "prefectureNumber": 40,
    "prefecture": "福岡県",
    "city": "柳川市",
    "town": "大和町鷹ノ尾"
  },
  "8390254": {
    "zipcode": "8390254",
    "prefectureCode": "40",
    "prefectureNumber": 40,
    "prefecture": "福岡県",
    "city": "柳川市",
    "town": "大和町中島"
  },
  "8390261": {
    "zipcode": "8390261",
    "prefectureCode": "40",
    "prefectureNumber": 40,
    "prefecture": "福岡県",
    "city": "柳川市",
    "town": "大和町皿垣開"
  },
  "8390262": {
    "zipcode": "8390262",
    "prefectureCode": "40",
    "prefectureNumber": 40,
    "prefecture": "福岡県",
    "city": "柳川市",
    "town": "大和町永田開"
  },
  "8390263": {
    "zipcode": "8390263",
    "prefectureCode": "40",
    "prefectureNumber": 40,
    "prefecture": "福岡県",
    "city": "柳川市",
    "town": "大和町大坪"
  },
  "8390264": {
    "zipcode": "8390264",
    "prefectureCode": "40",
    "prefectureNumber": 40,
    "prefecture": "福岡県",
    "city": "柳川市",
    "town": "大和町谷垣"
  },
  "8390801": {
    "zipcode": "8390801",
    "prefectureCode": "40",
    "prefectureNumber": 40,
    "prefecture": "福岡県",
    "city": "久留米市",
    "town": "宮ノ陣"
  },
  "8390802": {
    "zipcode": "8390802",
    "prefectureCode": "40",
    "prefectureNumber": 40,
    "prefecture": "福岡県",
    "city": "久留米市",
    "town": "宮ノ陣町五郎丸"
  },
  "8390803": {
    "zipcode": "8390803",
    "prefectureCode": "40",
    "prefectureNumber": 40,
    "prefecture": "福岡県",
    "city": "久留米市",
    "town": "宮ノ陣町大杜"
  },
  "8390804": {
    "zipcode": "8390804",
    "prefectureCode": "40",
    "prefectureNumber": 40,
    "prefecture": "福岡県",
    "city": "久留米市",
    "town": "宮ノ陣町若松"
  },
  "8390805": {
    "zipcode": "8390805",
    "prefectureCode": "40",
    "prefectureNumber": 40,
    "prefecture": "福岡県",
    "city": "久留米市",
    "town": "宮ノ陣町八丁島"
  },
  "8390806": {
    "zipcode": "8390806",
    "prefectureCode": "40",
    "prefectureNumber": 40,
    "prefecture": "福岡県",
    "city": "久留米市",
    "town": "東合川干出町"
  },
  "8390807": {
    "zipcode": "8390807",
    "prefectureCode": "40",
    "prefectureNumber": 40,
    "prefecture": "福岡県",
    "city": "久留米市",
    "town": "東合川町"
  },
  "8390808": {
    "zipcode": "8390808",
    "prefectureCode": "40",
    "prefectureNumber": 40,
    "prefecture": "福岡県",
    "city": "久留米市",
    "town": "東合川新町"
  },
  "8390809": {
    "zipcode": "8390809",
    "prefectureCode": "40",
    "prefectureNumber": 40,
    "prefecture": "福岡県",
    "city": "久留米市",
    "town": "東合川"
  },
  "8390811": {
    "zipcode": "8390811",
    "prefectureCode": "40",
    "prefectureNumber": 40,
    "prefecture": "福岡県",
    "city": "久留米市",
    "town": "山川神代"
  },
  "8390812": {
    "zipcode": "8390812",
    "prefectureCode": "40",
    "prefectureNumber": 40,
    "prefecture": "福岡県",
    "city": "久留米市",
    "town": "山川安居野"
  },
  "8390813": {
    "zipcode": "8390813",
    "prefectureCode": "40",
    "prefectureNumber": 40,
    "prefecture": "福岡県",
    "city": "久留米市",
    "town": "山川市ノ上町"
  },
  "8390814": {
    "zipcode": "8390814",
    "prefectureCode": "40",
    "prefectureNumber": 40,
    "prefecture": "福岡県",
    "city": "久留米市",
    "town": "山川追分"
  },
  "8390815": {
    "zipcode": "8390815",
    "prefectureCode": "40",
    "prefectureNumber": 40,
    "prefecture": "福岡県",
    "city": "久留米市",
    "town": "山川沓形町"
  },
  "8390816": {
    "zipcode": "8390816",
    "prefectureCode": "40",
    "prefectureNumber": 40,
    "prefecture": "福岡県",
    "city": "久留米市",
    "town": "山川野口町"
  },
  "8390817": {
    "zipcode": "8390817",
    "prefectureCode": "40",
    "prefectureNumber": 40,
    "prefecture": "福岡県",
    "city": "久留米市",
    "town": "山川町"
  },
  "8390821": {
    "zipcode": "8390821",
    "prefectureCode": "40",
    "prefectureNumber": 40,
    "prefecture": "福岡県",
    "city": "久留米市",
    "town": "太郎原町"
  },
  "8390822": {
    "zipcode": "8390822",
    "prefectureCode": "40",
    "prefectureNumber": 40,
    "prefecture": "福岡県",
    "city": "久留米市",
    "town": "善導寺町木塚"
  },
  "8390823": {
    "zipcode": "8390823",
    "prefectureCode": "40",
    "prefectureNumber": 40,
    "prefecture": "福岡県",
    "city": "久留米市",
    "town": "善導寺町与田"
  },
  "8390824": {
    "zipcode": "8390824",
    "prefectureCode": "40",
    "prefectureNumber": 40,
    "prefecture": "福岡県",
    "city": "久留米市",
    "town": "善導寺町飯田"
  },
  "8390825": {
    "zipcode": "8390825",
    "prefectureCode": "40",
    "prefectureNumber": 40,
    "prefecture": "福岡県",
    "city": "久留米市",
    "town": "善導寺町島"
  },
  "8390826": {
    "zipcode": "8390826",
    "prefectureCode": "40",
    "prefectureNumber": 40,
    "prefecture": "福岡県",
    "city": "久留米市",
    "town": "山本町耳納"
  },
  "8390827": {
    "zipcode": "8390827",
    "prefectureCode": "40",
    "prefectureNumber": 40,
    "prefecture": "福岡県",
    "city": "久留米市",
    "town": "山本町豊田"
  },
  "8390831": {
    "zipcode": "8390831",
    "prefectureCode": "40",
    "prefectureNumber": 40,
    "prefecture": "福岡県",
    "city": "久留米市",
    "town": "大橋町蜷川"
  },
  "8390832": {
    "zipcode": "8390832",
    "prefectureCode": "40",
    "prefectureNumber": 40,
    "prefecture": "福岡県",
    "city": "久留米市",
    "town": "大橋町合楽"
  },
  "8390833": {
    "zipcode": "8390833",
    "prefectureCode": "40",
    "prefectureNumber": 40,
    "prefecture": "福岡県",
    "city": "久留米市",
    "town": "大橋町常持"
  },
  "8390834": {
    "zipcode": "8390834",
    "prefectureCode": "40",
    "prefectureNumber": 40,
    "prefecture": "福岡県",
    "city": "久留米市",
    "town": "草野町紅桃林"
  },
  "8390835": {
    "zipcode": "8390835",
    "prefectureCode": "40",
    "prefectureNumber": 40,
    "prefecture": "福岡県",
    "city": "久留米市",
    "town": "草野町草野"
  },
  "8390836": {
    "zipcode": "8390836",
    "prefectureCode": "40",
    "prefectureNumber": 40,
    "prefecture": "福岡県",
    "city": "久留米市",
    "town": "草野町吉木"
  },
  "8390837": {
    "zipcode": "8390837",
    "prefectureCode": "40",
    "prefectureNumber": 40,
    "prefecture": "福岡県",
    "city": "久留米市",
    "town": "草野町矢作"
  },
  "8390841": {
    "zipcode": "8390841",
    "prefectureCode": "40",
    "prefectureNumber": 40,
    "prefecture": "福岡県",
    "city": "久留米市",
    "town": "御井旗崎"
  },
  "8390842": {
    "zipcode": "8390842",
    "prefectureCode": "40",
    "prefectureNumber": 40,
    "prefecture": "福岡県",
    "city": "久留米市",
    "town": "御井朝妻"
  },
  "8390843": {
    "zipcode": "8390843",
    "prefectureCode": "40",
    "prefectureNumber": 40,
    "prefecture": "福岡県",
    "city": "久留米市",
    "town": "朝妻町"
  },
  "8390851": {
    "zipcode": "8390851",
    "prefectureCode": "40",
    "prefectureNumber": 40,
    "prefecture": "福岡県",
    "city": "久留米市",
    "town": "御井町"
  },
  "8390852": {
    "zipcode": "8390852",
    "prefectureCode": "40",
    "prefectureNumber": 40,
    "prefecture": "福岡県",
    "city": "久留米市",
    "town": "高良内町"
  },
  "8390853": {
    "zipcode": "8390853",
    "prefectureCode": "40",
    "prefectureNumber": 40,
    "prefecture": "福岡県",
    "city": "久留米市",
    "town": "青峰"
  },
  "8390861": {
    "zipcode": "8390861",
    "prefectureCode": "40",
    "prefectureNumber": 40,
    "prefecture": "福岡県",
    "city": "久留米市",
    "town": "合川町"
  },
  "8390862": {
    "zipcode": "8390862",
    "prefectureCode": "40",
    "prefectureNumber": 40,
    "prefecture": "福岡県",
    "city": "久留米市",
    "town": "野中町"
  },
  "8390863": {
    "zipcode": "8390863",
    "prefectureCode": "40",
    "prefectureNumber": 40,
    "prefecture": "福岡県",
    "city": "久留米市",
    "town": "国分町"
  },
  "8390864": {
    "zipcode": "8390864",
    "prefectureCode": "40",
    "prefectureNumber": 40,
    "prefecture": "福岡県",
    "city": "久留米市",
    "town": "百年公園"
  },
  "8390865": {
    "zipcode": "8390865",
    "prefectureCode": "40",
    "prefectureNumber": 40,
    "prefecture": "福岡県",
    "city": "久留米市",
    "town": "新合川"
  },
  "8391201": {
    "zipcode": "8391201",
    "prefectureCode": "40",
    "prefectureNumber": 40,
    "prefecture": "福岡県",
    "city": "久留米市",
    "town": "田主丸町長栖"
  },
  "8391202": {
    "zipcode": "8391202",
    "prefectureCode": "40",
    "prefectureNumber": 40,
    "prefecture": "福岡県",
    "city": "久留米市",
    "town": "田主丸町鷹取"
  },
  "8391203": {
    "zipcode": "8391203",
    "prefectureCode": "40",
    "prefectureNumber": 40,
    "prefecture": "福岡県",
    "city": "久留米市",
    "town": "田主丸町秋成"
  },
  "8391204": {
    "zipcode": "8391204",
    "prefectureCode": "40",
    "prefectureNumber": 40,
    "prefecture": "福岡県",
    "city": "久留米市",
    "town": "田主丸町殖木"
  },
  "8391205": {
    "zipcode": "8391205",
    "prefectureCode": "40",
    "prefectureNumber": 40,
    "prefecture": "福岡県",
    "city": "久留米市",
    "town": "田主丸町船越"
  },
  "8391206": {
    "zipcode": "8391206",
    "prefectureCode": "40",
    "prefectureNumber": 40,
    "prefecture": "福岡県",
    "city": "久留米市",
    "town": "田主丸町吉本"
  },
  "8391211": {
    "zipcode": "8391211",
    "prefectureCode": "40",
    "prefectureNumber": 40,
    "prefecture": "福岡県",
    "city": "久留米市",
    "town": "田主丸町森部"
  },
  "8391212": {
    "zipcode": "8391212",
    "prefectureCode": "40",
    "prefectureNumber": 40,
    "prefecture": "福岡県",
    "city": "久留米市",
    "town": "田主丸町石垣"
  },
  "8391213": {
    "zipcode": "8391213",
    "prefectureCode": "40",
    "prefectureNumber": 40,
    "prefecture": "福岡県",
    "city": "久留米市",
    "town": "田主丸町益生田"
  },
  "8391214": {
    "zipcode": "8391214",
    "prefectureCode": "40",
    "prefectureNumber": 40,
    "prefecture": "福岡県",
    "city": "久留米市",
    "town": "田主丸町地徳"
  },
  "8391215": {
    "zipcode": "8391215",
    "prefectureCode": "40",
    "prefectureNumber": 40,
    "prefecture": "福岡県",
    "city": "久留米市",
    "town": "田主丸町竹野"
  },
  "8391216": {
    "zipcode": "8391216",
    "prefectureCode": "40",
    "prefectureNumber": 40,
    "prefecture": "福岡県",
    "city": "久留米市",
    "town": "田主丸町中尾"
  },
  "8391221": {
    "zipcode": "8391221",
    "prefectureCode": "40",
    "prefectureNumber": 40,
    "prefecture": "福岡県",
    "city": "久留米市",
    "town": "田主丸町上原"
  },
  "8391222": {
    "zipcode": "8391222",
    "prefectureCode": "40",
    "prefectureNumber": 40,
    "prefecture": "福岡県",
    "city": "久留米市",
    "town": "田主丸町志塚島"
  },
  "8391223": {
    "zipcode": "8391223",
    "prefectureCode": "40",
    "prefectureNumber": 40,
    "prefecture": "福岡県",
    "city": "久留米市",
    "town": "田主丸町以真恵"
  },
  "8391224": {
    "zipcode": "8391224",
    "prefectureCode": "40",
    "prefectureNumber": 40,
    "prefecture": "福岡県",
    "city": "久留米市",
    "town": "田主丸町牧"
  },
  "8391225": {
    "zipcode": "8391225",
    "prefectureCode": "40",
    "prefectureNumber": 40,
    "prefecture": "福岡県",
    "city": "久留米市",
    "town": "田主丸町菅原"
  },
  "8391226": {
    "zipcode": "8391226",
    "prefectureCode": "40",
    "prefectureNumber": 40,
    "prefecture": "福岡県",
    "city": "久留米市",
    "town": "田主丸町八幡"
  },
  "8391227": {
    "zipcode": "8391227",
    "prefectureCode": "40",
    "prefectureNumber": 40,
    "prefecture": "福岡県",
    "city": "久留米市",
    "town": "田主丸町朝森"
  },
  "8391228": {
    "zipcode": "8391228",
    "prefectureCode": "40",
    "prefectureNumber": 40,
    "prefecture": "福岡県",
    "city": "久留米市",
    "town": "田主丸町恵利"
  },
  "8391231": {
    "zipcode": "8391231",
    "prefectureCode": "40",
    "prefectureNumber": 40,
    "prefecture": "福岡県",
    "city": "久留米市",
    "town": "田主丸町野田"
  },
  "8391232": {
    "zipcode": "8391232",
    "prefectureCode": "40",
    "prefectureNumber": 40,
    "prefecture": "福岡県",
    "city": "久留米市",
    "town": "田主丸町常盤"
  },
  "8391233": {
    "zipcode": "8391233",
    "prefectureCode": "40",
    "prefectureNumber": 40,
    "prefecture": "福岡県",
    "city": "久留米市",
    "town": "田主丸町田主丸"
  },
  "8391234": {
    "zipcode": "8391234",
    "prefectureCode": "40",
    "prefectureNumber": 40,
    "prefecture": "福岡県",
    "city": "久留米市",
    "town": "田主丸町豊城"
  },
  "8391301": {
    "zipcode": "8391301",
    "prefectureCode": "40",
    "prefectureNumber": 40,
    "prefecture": "福岡県",
    "city": "うきは市",
    "town": "吉井町桜井"
  },
  "8391302": {
    "zipcode": "8391302",
    "prefectureCode": "40",
    "prefectureNumber": 40,
    "prefecture": "福岡県",
    "city": "うきは市",
    "town": "吉井町徳丸"
  },
  "8391303": {
    "zipcode": "8391303",
    "prefectureCode": "40",
    "prefectureNumber": 40,
    "prefecture": "福岡県",
    "city": "うきは市",
    "town": "吉井町宮田"
  },
  "8391304": {
    "zipcode": "8391304",
    "prefectureCode": "40",
    "prefectureNumber": 40,
    "prefecture": "福岡県",
    "city": "うきは市",
    "town": "吉井町千年"
  },
  "8391305": {
    "zipcode": "8391305",
    "prefectureCode": "40",
    "prefectureNumber": 40,
    "prefecture": "福岡県",
    "city": "うきは市",
    "town": "吉井町福永"
  },
  "8391306": {
    "zipcode": "8391306",
    "prefectureCode": "40",
    "prefectureNumber": 40,
    "prefecture": "福岡県",
    "city": "うきは市",
    "town": "吉井町新治"
  },
  "8391307": {
    "zipcode": "8391307",
    "prefectureCode": "40",
    "prefectureNumber": 40,
    "prefecture": "福岡県",
    "city": "うきは市",
    "town": "吉井町橘田"
  },
  "8391308": {
    "zipcode": "8391308",
    "prefectureCode": "40",
    "prefectureNumber": 40,
    "prefecture": "福岡県",
    "city": "うきは市",
    "town": "吉井町八和田"
  },
  "8391311": {
    "zipcode": "8391311",
    "prefectureCode": "40",
    "prefectureNumber": 40,
    "prefecture": "福岡県",
    "city": "うきは市",
    "town": "吉井町若宮"
  },
  "8391312": {
    "zipcode": "8391312",
    "prefectureCode": "40",
    "prefectureNumber": 40,
    "prefecture": "福岡県",
    "city": "うきは市",
    "town": "吉井町清瀬"
  },
  "8391321": {
    "zipcode": "8391321",
    "prefectureCode": "40",
    "prefectureNumber": 40,
    "prefecture": "福岡県",
    "city": "うきは市",
    "town": "吉井町"
  },
  "8391331": {
    "zipcode": "8391331",
    "prefectureCode": "40",
    "prefectureNumber": 40,
    "prefecture": "福岡県",
    "city": "うきは市",
    "town": "吉井町屋部"
  },
  "8391332": {
    "zipcode": "8391332",
    "prefectureCode": "40",
    "prefectureNumber": 40,
    "prefecture": "福岡県",
    "city": "うきは市",
    "town": "吉井町福益"
  },
  "8391333": {
    "zipcode": "8391333",
    "prefectureCode": "40",
    "prefectureNumber": 40,
    "prefecture": "福岡県",
    "city": "うきは市",
    "town": "吉井町富永"
  },
  "8391341": {
    "zipcode": "8391341",
    "prefectureCode": "40",
    "prefectureNumber": 40,
    "prefecture": "福岡県",
    "city": "うきは市",
    "town": "吉井町江南"
  },
  "8391342": {
    "zipcode": "8391342",
    "prefectureCode": "40",
    "prefectureNumber": 40,
    "prefecture": "福岡県",
    "city": "うきは市",
    "town": "吉井町生葉"
  },
  "8391343": {
    "zipcode": "8391343",
    "prefectureCode": "40",
    "prefectureNumber": 40,
    "prefecture": "福岡県",
    "city": "うきは市",
    "town": "吉井町鷹取"
  },
  "8391344": {
    "zipcode": "8391344",
    "prefectureCode": "40",
    "prefectureNumber": 40,
    "prefecture": "福岡県",
    "city": "うきは市",
    "town": "吉井町長栖"
  },
  "8391400": {
    "zipcode": "8391400",
    "prefectureCode": "40",
    "prefectureNumber": 40,
    "prefecture": "福岡県",
    "city": "うきは市",
    "town": "以下に掲載がない場合"
  },
  "8391401": {
    "zipcode": "8391401",
    "prefectureCode": "40",
    "prefectureNumber": 40,
    "prefecture": "福岡県",
    "city": "うきは市",
    "town": "浮羽町朝田"
  },
  "8391402": {
    "zipcode": "8391402",
    "prefectureCode": "40",
    "prefectureNumber": 40,
    "prefecture": "福岡県",
    "city": "うきは市",
    "town": "浮羽町浮羽"
  },
  "8391403": {
    "zipcode": "8391403",
    "prefectureCode": "40",
    "prefectureNumber": 40,
    "prefecture": "福岡県",
    "city": "うきは市",
    "town": "浮羽町東隈上"
  },
  "8391404": {
    "zipcode": "8391404",
    "prefectureCode": "40",
    "prefectureNumber": 40,
    "prefecture": "福岡県",
    "city": "うきは市",
    "town": "浮羽町西隈上"
  },
  "8391405": {
    "zipcode": "8391405",
    "prefectureCode": "40",
    "prefectureNumber": 40,
    "prefecture": "福岡県",
    "city": "うきは市",
    "town": "浮羽町古川"
  },
  "8391406": {
    "zipcode": "8391406",
    "prefectureCode": "40",
    "prefectureNumber": 40,
    "prefecture": "福岡県",
    "city": "うきは市",
    "town": "浮羽町高見"
  },
  "8391407": {
    "zipcode": "8391407",
    "prefectureCode": "40",
    "prefectureNumber": 40,
    "prefecture": "福岡県",
    "city": "うきは市",
    "town": "浮羽町三春"
  },
  "8391408": {
    "zipcode": "8391408",
    "prefectureCode": "40",
    "prefectureNumber": 40,
    "prefecture": "福岡県",
    "city": "うきは市",
    "town": "浮羽町山北"
  },
  "8391411": {
    "zipcode": "8391411",
    "prefectureCode": "40",
    "prefectureNumber": 40,
    "prefecture": "福岡県",
    "city": "うきは市",
    "town": "浮羽町流川"
  },
  "8391412": {
    "zipcode": "8391412",
    "prefectureCode": "40",
    "prefectureNumber": 40,
    "prefecture": "福岡県",
    "city": "うきは市",
    "town": "浮羽町小塩"
  },
  "8391413": {
    "zipcode": "8391413",
    "prefectureCode": "40",
    "prefectureNumber": 40,
    "prefecture": "福岡県",
    "city": "うきは市",
    "town": "浮羽町新川"
  },
  "8391414": {
    "zipcode": "8391414",
    "prefectureCode": "40",
    "prefectureNumber": 40,
    "prefecture": "福岡県",
    "city": "うきは市",
    "town": "浮羽町田篭"
  },
  "8391415": {
    "zipcode": "8391415",
    "prefectureCode": "40",
    "prefectureNumber": 40,
    "prefecture": "福岡県",
    "city": "うきは市",
    "town": "浮羽町妹川"
  },
  "8391421": {
    "zipcode": "8391421",
    "prefectureCode": "44",
    "prefectureNumber": 44,
    "prefecture": "大分県",
    "city": "日田市",
    "town": "前津江町柚木（１〜８００番地、千蔵木、塔ノ本、仁田原、本村）"
  }
}
