{
  "8400001": {
    "zipcode": "8400001",
    "prefectureCode": "41",
    "prefectureNumber": 41,
    "prefecture": "佐賀県",
    "city": "佐賀市",
    "town": "巨勢町修理田"
  },
  "8400002": {
    "zipcode": "8400002",
    "prefectureCode": "41",
    "prefectureNumber": 41,
    "prefecture": "佐賀県",
    "city": "佐賀市",
    "town": "蓮池町見島"
  },
  "8400003": {
    "zipcode": "8400003",
    "prefectureCode": "41",
    "prefectureNumber": 41,
    "prefecture": "佐賀県",
    "city": "佐賀市",
    "town": "蓮池町古賀"
  },
  "8400004": {
    "zipcode": "8400004",
    "prefectureCode": "41",
    "prefectureNumber": 41,
    "prefecture": "佐賀県",
    "city": "佐賀市",
    "town": "蓮池町小松"
  },
  "8400005": {
    "zipcode": "8400005",
    "prefectureCode": "41",
    "prefectureNumber": 41,
    "prefecture": "佐賀県",
    "city": "佐賀市",
    "town": "蓮池町蓮池"
  },
  "8400006": {
    "zipcode": "8400006",
    "prefectureCode": "41",
    "prefectureNumber": 41,
    "prefecture": "佐賀県",
    "city": "佐賀市",
    "town": "巨勢町東西"
  },
  "8400007": {
    "zipcode": "8400007",
    "prefectureCode": "41",
    "prefectureNumber": 41,
    "prefecture": "佐賀県",
    "city": "佐賀市",
    "town": "巨勢町高尾"
  },
  "8400008": {
    "zipcode": "8400008",
    "prefectureCode": "41",
    "prefectureNumber": 41,
    "prefecture": "佐賀県",
    "city": "佐賀市",
    "town": "巨勢町牛島"
  },
  "8400011": {
    "zipcode": "8400011",
    "prefectureCode": "41",
    "prefectureNumber": 41,
    "prefecture": "佐賀県",
    "city": "佐賀市",
    "town": "北川副町江上"
  },
  "8400012": {
    "zipcode": "8400012",
    "prefectureCode": "41",
    "prefectureNumber": 41,
    "prefecture": "佐賀県",
    "city": "佐賀市",
    "town": "北川副町光法"
  },
  "8400013": {
    "zipcode": "8400013",
    "prefectureCode": "41",
    "prefectureNumber": 41,
    "prefecture": "佐賀県",
    "city": "佐賀市",
    "town": "北川副町新郷"
  },
  "8400015": {
    "zipcode": "8400015",
    "prefectureCode": "41",
    "prefectureNumber": 41,
    "prefecture": "佐賀県",
    "city": "佐賀市",
    "town": "木原"
  },
  "8400016": {
    "zipcode": "8400016",
    "prefectureCode": "41",
    "prefectureNumber": 41,
    "prefecture": "佐賀県",
    "city": "佐賀市",
    "town": "南佐賀"
  },
  "8400017": {
    "zipcode": "8400017",
    "prefectureCode": "41",
    "prefectureNumber": 41,
    "prefecture": "佐賀県",
    "city": "佐賀市",
    "town": "新郷本町"
  },
  "8400021": {
    "zipcode": "8400021",
    "prefectureCode": "41",
    "prefectureNumber": 41,
    "prefecture": "佐賀県",
    "city": "佐賀市",
    "town": "鬼丸町"
  },
  "8400022": {
    "zipcode": "8400022",
    "prefectureCode": "41",
    "prefectureNumber": 41,
    "prefecture": "佐賀県",
    "city": "佐賀市",
    "town": "中の館町"
  },
  "8400023": {
    "zipcode": "8400023",
    "prefectureCode": "41",
    "prefectureNumber": 41,
    "prefecture": "佐賀県",
    "city": "佐賀市",
    "town": "本庄町袋"
  },
  "8400024": {
    "zipcode": "8400024",
    "prefectureCode": "41",
    "prefectureNumber": 41,
    "prefecture": "佐賀県",
    "city": "佐賀市",
    "town": "本庄町末次"
  },
  "8400025": {
    "zipcode": "8400025",
    "prefectureCode": "41",
    "prefectureNumber": 41,
    "prefecture": "佐賀県",
    "city": "佐賀市",
    "town": "本庄町鹿子"
  },
  "8400026": {
    "zipcode": "8400026",
    "prefectureCode": "41",
    "prefectureNumber": 41,
    "prefecture": "佐賀県",
    "city": "佐賀市",
    "town": "本庄町正里"
  },
  "8400027": {
    "zipcode": "8400027",
    "prefectureCode": "41",
    "prefectureNumber": 41,
    "prefecture": "佐賀県",
    "city": "佐賀市",
    "town": "本庄町本庄"
  },
  "8400031": {
    "zipcode": "8400031",
    "prefectureCode": "41",
    "prefectureNumber": 41,
    "prefecture": "佐賀県",
    "city": "佐賀市",
    "town": "下田町"
  },
  "8400032": {
    "zipcode": "8400032",
    "prefectureCode": "41",
    "prefectureNumber": 41,
    "prefecture": "佐賀県",
    "city": "佐賀市",
    "town": "末広"
  },
  "8400033": {
    "zipcode": "8400033",
    "prefectureCode": "41",
    "prefectureNumber": 41,
    "prefecture": "佐賀県",
    "city": "佐賀市",
    "town": "光"
  },
  "8400034": {
    "zipcode": "8400034",
    "prefectureCode": "41",
    "prefectureNumber": 41,
    "prefecture": "佐賀県",
    "city": "佐賀市",
    "town": "西与賀町厘外"
  },
  "8400035": {
    "zipcode": "8400035",
    "prefectureCode": "41",
    "prefectureNumber": 41,
    "prefecture": "佐賀県",
    "city": "佐賀市",
    "town": "西与賀町今津"
  },
  "8400036": {
    "zipcode": "8400036",
    "prefectureCode": "41",
    "prefectureNumber": 41,
    "prefecture": "佐賀県",
    "city": "佐賀市",
    "town": "西与賀町高太郎"
  },
  "8400037": {
    "zipcode": "8400037",
    "prefectureCode": "41",
    "prefectureNumber": 41,
    "prefecture": "佐賀県",
    "city": "佐賀市",
    "town": "西与賀町相応津"
  },
  "8400041": {
    "zipcode": "8400041",
    "prefectureCode": "41",
    "prefectureNumber": 41,
    "prefecture": "佐賀県",
    "city": "佐賀市",
    "town": "城内"
  },
  "8400042": {
    "zipcode": "8400042",
    "prefectureCode": "41",
    "prefectureNumber": 41,
    "prefecture": "佐賀県",
    "city": "佐賀市",
    "town": "赤松町"
  },
  "8400043": {
    "zipcode": "8400043",
    "prefectureCode": "41",
    "prefectureNumber": 41,
    "prefecture": "佐賀県",
    "city": "佐賀市",
    "town": "精町"
  },
  "8400044": {
    "zipcode": "8400044",
    "prefectureCode": "41",
    "prefectureNumber": 41,
    "prefecture": "佐賀県",
    "city": "佐賀市",
    "town": "道祖元町"
  },
  "8400045": {
    "zipcode": "8400045",
    "prefectureCode": "41",
    "prefectureNumber": 41,
    "prefecture": "佐賀県",
    "city": "佐賀市",
    "town": "西田代"
  },
  "8400046": {
    "zipcode": "8400046",
    "prefectureCode": "41",
    "prefectureNumber": 41,
    "prefecture": "佐賀県",
    "city": "佐賀市",
    "town": "西魚町"
  },
  "8400047": {
    "zipcode": "8400047",
    "prefectureCode": "41",
    "prefectureNumber": 41,
    "prefecture": "佐賀県",
    "city": "佐賀市",
    "town": "与賀町"
  },
  "8400051": {
    "zipcode": "8400051",
    "prefectureCode": "41",
    "prefectureNumber": 41,
    "prefecture": "佐賀県",
    "city": "佐賀市",
    "town": "田代"
  },
  "8400052": {
    "zipcode": "8400052",
    "prefectureCode": "41",
    "prefectureNumber": 41,
    "prefecture": "佐賀県",
    "city": "佐賀市",
    "town": "今宿町"
  },
  "8400053": {
    "zipcode": "8400053",
    "prefectureCode": "41",
    "prefectureNumber": 41,
    "prefecture": "佐賀県",
    "city": "佐賀市",
    "town": "朝日町"
  },
  "8400054": {
    "zipcode": "8400054",
    "prefectureCode": "41",
    "prefectureNumber": 41,
    "prefecture": "佐賀県",
    "city": "佐賀市",
    "town": "水ケ江"
  },
  "8400055": {
    "zipcode": "8400055",
    "prefectureCode": "41",
    "prefectureNumber": 41,
    "prefecture": "佐賀県",
    "city": "佐賀市",
    "town": "材木"
  },
  "8400056": {
    "zipcode": "8400056",
    "prefectureCode": "41",
    "prefectureNumber": 41,
    "prefecture": "佐賀県",
    "city": "佐賀市",
    "town": "紺屋町"
  },
  "8400201": {
    "zipcode": "8400201",
    "prefectureCode": "41",
    "prefectureNumber": 41,
    "prefecture": "佐賀県",
    "city": "佐賀市",
    "town": "大和町尼寺"
  },
  "8400202": {
    "zipcode": "8400202",
    "prefectureCode": "41",
    "prefectureNumber": 41,
    "prefecture": "佐賀県",
    "city": "佐賀市",
    "town": "大和町久池井"
  },
  "8400203": {
    "zipcode": "8400203",
    "prefectureCode": "41",
    "prefectureNumber": 41,
    "prefecture": "佐賀県",
    "city": "佐賀市",
    "town": "大和町梅野"
  },
  "8400204": {
    "zipcode": "8400204",
    "prefectureCode": "41",
    "prefectureNumber": 41,
    "prefecture": "佐賀県",
    "city": "佐賀市",
    "town": "大和町松瀬"
  },
  "8400205": {
    "zipcode": "8400205",
    "prefectureCode": "41",
    "prefectureNumber": 41,
    "prefecture": "佐賀県",
    "city": "佐賀市",
    "town": "大和町名尾"
  },
  "8400211": {
    "zipcode": "8400211",
    "prefectureCode": "41",
    "prefectureNumber": 41,
    "prefecture": "佐賀県",
    "city": "佐賀市",
    "town": "大和町東山田"
  },
  "8400212": {
    "zipcode": "8400212",
    "prefectureCode": "41",
    "prefectureNumber": 41,
    "prefecture": "佐賀県",
    "city": "佐賀市",
    "town": "大和町池上"
  },
  "8400213": {
    "zipcode": "8400213",
    "prefectureCode": "41",
    "prefectureNumber": 41,
    "prefecture": "佐賀県",
    "city": "佐賀市",
    "town": "大和町久留間"
  },
  "8400214": {
    "zipcode": "8400214",
    "prefectureCode": "41",
    "prefectureNumber": 41,
    "prefecture": "佐賀県",
    "city": "佐賀市",
    "town": "大和町川上"
  },
  "8400215": {
    "zipcode": "8400215",
    "prefectureCode": "41",
    "prefectureNumber": 41,
    "prefecture": "佐賀県",
    "city": "佐賀市",
    "town": "大和町八反原"
  },
  "8400501": {
    "zipcode": "8400501",
    "prefectureCode": "41",
    "prefectureNumber": 41,
    "prefecture": "佐賀県",
    "city": "佐賀市",
    "town": "富士町古湯"
  },
  "8400502": {
    "zipcode": "8400502",
    "prefectureCode": "41",
    "prefectureNumber": 41,
    "prefecture": "佐賀県",
    "city": "佐賀市",
    "town": "富士町杉山"
  },
  "8400503": {
    "zipcode": "8400503",
    "prefectureCode": "41",
    "prefectureNumber": 41,
    "prefecture": "佐賀県",
    "city": "佐賀市",
    "town": "富士町市川"
  },
  "8400504": {
    "zipcode": "8400504",
    "prefectureCode": "41",
    "prefectureNumber": 41,
    "prefecture": "佐賀県",
    "city": "佐賀市",
    "town": "富士町苣木"
  },
  "8400511": {
    "zipcode": "8400511",
    "prefectureCode": "41",
    "prefectureNumber": 41,
    "prefecture": "佐賀県",
    "city": "佐賀市",
    "town": "富士町鎌原"
  },
  "8400512": {
    "zipcode": "8400512",
    "prefectureCode": "41",
    "prefectureNumber": 41,
    "prefecture": "佐賀県",
    "city": "佐賀市",
    "town": "富士町上熊川"
  },
  "8400513": {
    "zipcode": "8400513",
    "prefectureCode": "41",
    "prefectureNumber": 41,
    "prefecture": "佐賀県",
    "city": "佐賀市",
    "town": "富士町下熊川"
  },
  "8400514": {
    "zipcode": "8400514",
    "prefectureCode": "41",
    "prefectureNumber": 41,
    "prefecture": "佐賀県",
    "city": "佐賀市",
    "town": "富士町内野"
  },
  "8400515": {
    "zipcode": "8400515",
    "prefectureCode": "41",
    "prefectureNumber": 41,
    "prefecture": "佐賀県",
    "city": "佐賀市",
    "town": "富士町松瀬"
  },
  "8400516": {
    "zipcode": "8400516",
    "prefectureCode": "41",
    "prefectureNumber": 41,
    "prefecture": "佐賀県",
    "city": "佐賀市",
    "town": "富士町梅野"
  },
  "8400521": {
    "zipcode": "8400521",
    "prefectureCode": "41",
    "prefectureNumber": 41,
    "prefecture": "佐賀県",
    "city": "佐賀市",
    "town": "富士町小副川"
  },
  "8400522": {
    "zipcode": "8400522",
    "prefectureCode": "41",
    "prefectureNumber": 41,
    "prefecture": "佐賀県",
    "city": "佐賀市",
    "town": "富士町畑瀬"
  },
  "8400531": {
    "zipcode": "8400531",
    "prefectureCode": "41",
    "prefectureNumber": 41,
    "prefecture": "佐賀県",
    "city": "佐賀市",
    "town": "富士町栗並"
  },
  "8400532": {
    "zipcode": "8400532",
    "prefectureCode": "41",
    "prefectureNumber": 41,
    "prefecture": "佐賀県",
    "city": "佐賀市",
    "town": "富士町大野"
  },
  "8400533": {
    "zipcode": "8400533",
    "prefectureCode": "41",
    "prefectureNumber": 41,
    "prefecture": "佐賀県",
    "city": "佐賀市",
    "town": "富士町大串"
  },
  "8400534": {
    "zipcode": "8400534",
    "prefectureCode": "41",
    "prefectureNumber": 41,
    "prefecture": "佐賀県",
    "city": "佐賀市",
    "town": "富士町中原"
  },
  "8400535": {
    "zipcode": "8400535",
    "prefectureCode": "41",
    "prefectureNumber": 41,
    "prefecture": "佐賀県",
    "city": "佐賀市",
    "town": "富士町下無津呂"
  },
  "8400536": {
    "zipcode": "8400536",
    "prefectureCode": "41",
    "prefectureNumber": 41,
    "prefecture": "佐賀県",
    "city": "佐賀市",
    "town": "富士町上無津呂"
  },
  "8400537": {
    "zipcode": "8400537",
    "prefectureCode": "41",
    "prefectureNumber": 41,
    "prefecture": "佐賀県",
    "city": "佐賀市",
    "town": "富士町麻那古"
  },
  "8400541": {
    "zipcode": "8400541",
    "prefectureCode": "41",
    "prefectureNumber": 41,
    "prefecture": "佐賀県",
    "city": "佐賀市",
    "town": "富士町関屋"
  },
  "8400542": {
    "zipcode": "8400542",
    "prefectureCode": "41",
    "prefectureNumber": 41,
    "prefecture": "佐賀県",
    "city": "佐賀市",
    "town": "富士町藤瀬"
  },
  "8400543": {
    "zipcode": "8400543",
    "prefectureCode": "41",
    "prefectureNumber": 41,
    "prefecture": "佐賀県",
    "city": "佐賀市",
    "town": "富士町古場"
  },
  "8400544": {
    "zipcode": "8400544",
    "prefectureCode": "41",
    "prefectureNumber": 41,
    "prefecture": "佐賀県",
    "city": "佐賀市",
    "town": "富士町下合瀬"
  },
  "8400545": {
    "zipcode": "8400545",
    "prefectureCode": "41",
    "prefectureNumber": 41,
    "prefecture": "佐賀県",
    "city": "佐賀市",
    "town": "富士町上合瀬"
  },
  "8400801": {
    "zipcode": "8400801",
    "prefectureCode": "41",
    "prefectureNumber": 41,
    "prefecture": "佐賀県",
    "city": "佐賀市",
    "town": "駅前中央"
  },
  "8400802": {
    "zipcode": "8400802",
    "prefectureCode": "41",
    "prefectureNumber": 41,
    "prefecture": "佐賀県",
    "city": "佐賀市",
    "town": "大財北町"
  },
  "8400803": {
    "zipcode": "8400803",
    "prefectureCode": "41",
    "prefectureNumber": 41,
    "prefecture": "佐賀県",
    "city": "佐賀市",
    "town": "栄町"
  },
  "8400804": {
    "zipcode": "8400804",
    "prefectureCode": "41",
    "prefectureNumber": 41,
    "prefecture": "佐賀県",
    "city": "佐賀市",
    "town": "神野東"
  },
  "8400805": {
    "zipcode": "8400805",
    "prefectureCode": "41",
    "prefectureNumber": 41,
    "prefecture": "佐賀県",
    "city": "佐賀市",
    "town": "神野西"
  },
  "8400806": {
    "zipcode": "8400806",
    "prefectureCode": "41",
    "prefectureNumber": 41,
    "prefecture": "佐賀県",
    "city": "佐賀市",
    "town": "神園"
  },
  "8400811": {
    "zipcode": "8400811",
    "prefectureCode": "41",
    "prefectureNumber": 41,
    "prefecture": "佐賀県",
    "city": "佐賀市",
    "town": "大財"
  },
  "8400812": {
    "zipcode": "8400812",
    "prefectureCode": "41",
    "prefectureNumber": 41,
    "prefecture": "佐賀県",
    "city": "佐賀市",
    "town": "愛敬町"
  },
  "8400813": {
    "zipcode": "8400813",
    "prefectureCode": "41",
    "prefectureNumber": 41,
    "prefecture": "佐賀県",
    "city": "佐賀市",
    "town": "唐人"
  },
  "8400814": {
    "zipcode": "8400814",
    "prefectureCode": "41",
    "prefectureNumber": 41,
    "prefecture": "佐賀県",
    "city": "佐賀市",
    "town": "成章町"
  },
  "8400815": {
    "zipcode": "8400815",
    "prefectureCode": "41",
    "prefectureNumber": 41,
    "prefecture": "佐賀県",
    "city": "佐賀市",
    "town": "天神"
  },
  "8400816": {
    "zipcode": "8400816",
    "prefectureCode": "41",
    "prefectureNumber": 41,
    "prefecture": "佐賀県",
    "city": "佐賀市",
    "town": "駅南本町"
  },
  "8400821": {
    "zipcode": "8400821",
    "prefectureCode": "41",
    "prefectureNumber": 41,
    "prefecture": "佐賀県",
    "city": "佐賀市",
    "town": "東佐賀町"
  },
  "8400822": {
    "zipcode": "8400822",
    "prefectureCode": "41",
    "prefectureNumber": 41,
    "prefecture": "佐賀県",
    "city": "佐賀市",
    "town": "高木町"
  },
  "8400823": {
    "zipcode": "8400823",
    "prefectureCode": "41",
    "prefectureNumber": 41,
    "prefecture": "佐賀県",
    "city": "佐賀市",
    "town": "柳町"
  },
  "8400824": {
    "zipcode": "8400824",
    "prefectureCode": "41",
    "prefectureNumber": 41,
    "prefecture": "佐賀県",
    "city": "佐賀市",
    "town": "呉服元町"
  },
  "8400825": {
    "zipcode": "8400825",
    "prefectureCode": "41",
    "prefectureNumber": 41,
    "prefecture": "佐賀県",
    "city": "佐賀市",
    "town": "中央本町"
  },
  "8400826": {
    "zipcode": "8400826",
    "prefectureCode": "41",
    "prefectureNumber": 41,
    "prefecture": "佐賀県",
    "city": "佐賀市",
    "town": "白山"
  },
  "8400831": {
    "zipcode": "8400831",
    "prefectureCode": "41",
    "prefectureNumber": 41,
    "prefecture": "佐賀県",
    "city": "佐賀市",
    "town": "松原"
  },
  "8400832": {
    "zipcode": "8400832",
    "prefectureCode": "41",
    "prefectureNumber": 41,
    "prefecture": "佐賀県",
    "city": "佐賀市",
    "town": "堀川町"
  },
  "8400833": {
    "zipcode": "8400833",
    "prefectureCode": "41",
    "prefectureNumber": 41,
    "prefecture": "佐賀県",
    "city": "佐賀市",
    "town": "中の小路"
  },
  "8400834": {
    "zipcode": "8400834",
    "prefectureCode": "41",
    "prefectureNumber": 41,
    "prefecture": "佐賀県",
    "city": "佐賀市",
    "town": "八幡小路"
  },
  "8400841": {
    "zipcode": "8400841",
    "prefectureCode": "41",
    "prefectureNumber": 41,
    "prefecture": "佐賀県",
    "city": "佐賀市",
    "town": "緑小路"
  },
  "8400842": {
    "zipcode": "8400842",
    "prefectureCode": "41",
    "prefectureNumber": 41,
    "prefecture": "佐賀県",
    "city": "佐賀市",
    "town": "多布施"
  },
  "8400843": {
    "zipcode": "8400843",
    "prefectureCode": "41",
    "prefectureNumber": 41,
    "prefecture": "佐賀県",
    "city": "佐賀市",
    "town": "川原町"
  },
  "8400844": {
    "zipcode": "8400844",
    "prefectureCode": "41",
    "prefectureNumber": 41,
    "prefecture": "佐賀県",
    "city": "佐賀市",
    "town": "伊勢町"
  },
  "8400845": {
    "zipcode": "8400845",
    "prefectureCode": "41",
    "prefectureNumber": 41,
    "prefecture": "佐賀県",
    "city": "佐賀市",
    "town": "六座町"
  },
  "8400850": {
    "zipcode": "8400850",
    "prefectureCode": "41",
    "prefectureNumber": 41,
    "prefecture": "佐賀県",
    "city": "佐賀市",
    "town": "新栄東"
  },
  "8400851": {
    "zipcode": "8400851",
    "prefectureCode": "41",
    "prefectureNumber": 41,
    "prefecture": "佐賀県",
    "city": "佐賀市",
    "town": "天祐"
  },
  "8400852": {
    "zipcode": "8400852",
    "prefectureCode": "41",
    "prefectureNumber": 41,
    "prefecture": "佐賀県",
    "city": "佐賀市",
    "town": "中折町"
  },
  "8400853": {
    "zipcode": "8400853",
    "prefectureCode": "41",
    "prefectureNumber": 41,
    "prefecture": "佐賀県",
    "city": "佐賀市",
    "town": "長瀬町"
  },
  "8400854": {
    "zipcode": "8400854",
    "prefectureCode": "41",
    "prefectureNumber": 41,
    "prefecture": "佐賀県",
    "city": "佐賀市",
    "town": "八戸"
  },
  "8400855": {
    "zipcode": "8400855",
    "prefectureCode": "41",
    "prefectureNumber": 41,
    "prefecture": "佐賀県",
    "city": "佐賀市",
    "town": "昭栄町"
  },
  "8400856": {
    "zipcode": "8400856",
    "prefectureCode": "41",
    "prefectureNumber": 41,
    "prefecture": "佐賀県",
    "city": "佐賀市",
    "town": "新生町"
  },
  "8400857": {
    "zipcode": "8400857",
    "prefectureCode": "41",
    "prefectureNumber": 41,
    "prefecture": "佐賀県",
    "city": "佐賀市",
    "town": "鍋島町八戸"
  },
  "8400858": {
    "zipcode": "8400858",
    "prefectureCode": "41",
    "prefectureNumber": 41,
    "prefecture": "佐賀県",
    "city": "佐賀市",
    "town": "天祐団地"
  },
  "8400859": {
    "zipcode": "8400859",
    "prefectureCode": "41",
    "prefectureNumber": 41,
    "prefecture": "佐賀県",
    "city": "佐賀市",
    "town": "新栄西"
  },
  "8400861": {
    "zipcode": "8400861",
    "prefectureCode": "41",
    "prefectureNumber": 41,
    "prefecture": "佐賀県",
    "city": "佐賀市",
    "town": "嘉瀬町中原"
  },
  "8400862": {
    "zipcode": "8400862",
    "prefectureCode": "41",
    "prefectureNumber": 41,
    "prefecture": "佐賀県",
    "city": "佐賀市",
    "town": "嘉瀬町扇町"
  },
  "8400863": {
    "zipcode": "8400863",
    "prefectureCode": "41",
    "prefectureNumber": 41,
    "prefecture": "佐賀県",
    "city": "佐賀市",
    "town": "嘉瀬町十五"
  },
  "8400864": {
    "zipcode": "8400864",
    "prefectureCode": "41",
    "prefectureNumber": 41,
    "prefecture": "佐賀県",
    "city": "佐賀市",
    "town": "嘉瀬町荻野"
  },
  "8401101": {
    "zipcode": "8401101",
    "prefectureCode": "41",
    "prefectureNumber": 41,
    "prefecture": "佐賀県",
    "city": "三養基郡みやき町",
    "town": "西島"
  },
  "8401102": {
    "zipcode": "8401102",
    "prefectureCode": "41",
    "prefectureNumber": 41,
    "prefecture": "佐賀県",
    "city": "三養基郡みやき町",
    "town": "天建寺"
  },
  "8401103": {
    "zipcode": "8401103",
    "prefectureCode": "41",
    "prefectureNumber": 41,
    "prefecture": "佐賀県",
    "city": "三養基郡みやき町",
    "town": "坂口"
  },
  "8401104": {
    "zipcode": "8401104",
    "prefectureCode": "41",
    "prefectureNumber": 41,
    "prefecture": "佐賀県",
    "city": "三養基郡みやき町",
    "town": "東津"
  },
  "8401105": {
    "zipcode": "8401105",
    "prefectureCode": "41",
    "prefectureNumber": 41,
    "prefecture": "佐賀県",
    "city": "三養基郡みやき町",
    "town": "寄人"
  },
  "8401106": {
    "zipcode": "8401106",
    "prefectureCode": "41",
    "prefectureNumber": 41,
    "prefecture": "佐賀県",
    "city": "三養基郡みやき町",
    "town": "市武"
  },
  "8402101": {
    "zipcode": "8402101",
    "prefectureCode": "41",
    "prefectureNumber": 41,
    "prefecture": "佐賀県",
    "city": "佐賀市",
    "town": "諸富町大堂"
  },
  "8402102": {
    "zipcode": "8402102",
    "prefectureCode": "41",
    "prefectureNumber": 41,
    "prefecture": "佐賀県",
    "city": "佐賀市",
    "town": "諸富町為重"
  },
  "8402103": {
    "zipcode": "8402103",
    "prefectureCode": "41",
    "prefectureNumber": 41,
    "prefecture": "佐賀県",
    "city": "佐賀市",
    "town": "諸富町寺井津"
  },
  "8402104": {
    "zipcode": "8402104",
    "prefectureCode": "41",
    "prefectureNumber": 41,
    "prefecture": "佐賀県",
    "city": "佐賀市",
    "town": "諸富町徳富"
  },
  "8402105": {
    "zipcode": "8402105",
    "prefectureCode": "41",
    "prefectureNumber": 41,
    "prefecture": "佐賀県",
    "city": "佐賀市",
    "town": "諸富町諸富津"
  },
  "8402106": {
    "zipcode": "8402106",
    "prefectureCode": "41",
    "prefectureNumber": 41,
    "prefecture": "佐賀県",
    "city": "佐賀市",
    "town": "諸富町山領"
  },
  "8402201": {
    "zipcode": "8402201",
    "prefectureCode": "41",
    "prefectureNumber": 41,
    "prefecture": "佐賀県",
    "city": "佐賀市",
    "town": "川副町福富"
  },
  "8402202": {
    "zipcode": "8402202",
    "prefectureCode": "41",
    "prefectureNumber": 41,
    "prefecture": "佐賀県",
    "city": "佐賀市",
    "town": "川副町早津江津"
  },
  "8402203": {
    "zipcode": "8402203",
    "prefectureCode": "41",
    "prefectureNumber": 41,
    "prefecture": "佐賀県",
    "city": "佐賀市",
    "town": "川副町早津江"
  },
  "8402204": {
    "zipcode": "8402204",
    "prefectureCode": "41",
    "prefectureNumber": 41,
    "prefecture": "佐賀県",
    "city": "佐賀市",
    "town": "川副町西古賀"
  },
  "8402205": {
    "zipcode": "8402205",
    "prefectureCode": "41",
    "prefectureNumber": 41,
    "prefecture": "佐賀県",
    "city": "佐賀市",
    "town": "川副町南里"
  },
  "8402211": {
    "zipcode": "8402211",
    "prefectureCode": "41",
    "prefectureNumber": 41,
    "prefecture": "佐賀県",
    "city": "佐賀市",
    "town": "川副町大詫間"
  },
  "8402212": {
    "zipcode": "8402212",
    "prefectureCode": "41",
    "prefectureNumber": 41,
    "prefecture": "佐賀県",
    "city": "佐賀市",
    "town": "川副町犬井道"
  },
  "8402213": {
    "zipcode": "8402213",
    "prefectureCode": "41",
    "prefectureNumber": 41,
    "prefecture": "佐賀県",
    "city": "佐賀市",
    "town": "川副町鹿江"
  },
  "8402214": {
    "zipcode": "8402214",
    "prefectureCode": "41",
    "prefectureNumber": 41,
    "prefecture": "佐賀県",
    "city": "佐賀市",
    "town": "川副町小々森"
  },
  "8402221": {
    "zipcode": "8402221",
    "prefectureCode": "41",
    "prefectureNumber": 41,
    "prefecture": "佐賀県",
    "city": "佐賀市",
    "town": "東与賀町下古賀"
  },
  "8402222": {
    "zipcode": "8402222",
    "prefectureCode": "41",
    "prefectureNumber": 41,
    "prefecture": "佐賀県",
    "city": "佐賀市",
    "town": "東与賀町田中"
  },
  "8402223": {
    "zipcode": "8402223",
    "prefectureCode": "41",
    "prefectureNumber": 41,
    "prefecture": "佐賀県",
    "city": "佐賀市",
    "town": "東与賀町飯盛"
  }
}
