{
  "8410000": {
    "zipcode": "8410000",
    "prefectureCode": "41",
    "prefectureNumber": 41,
    "prefecture": "佐賀県",
    "city": "鳥栖市",
    "town": "以下に掲載がない場合"
  },
  "8410001": {
    "zipcode": "8410001",
    "prefectureCode": "41",
    "prefectureNumber": 41,
    "prefecture": "佐賀県",
    "city": "鳥栖市",
    "town": "今町"
  },
  "8410002": {
    "zipcode": "8410002",
    "prefectureCode": "41",
    "prefectureNumber": 41,
    "prefecture": "佐賀県",
    "city": "鳥栖市",
    "town": "柚比町"
  },
  "8410003": {
    "zipcode": "8410003",
    "prefectureCode": "41",
    "prefectureNumber": 41,
    "prefecture": "佐賀県",
    "city": "鳥栖市",
    "town": "加藤田町"
  },
  "8410004": {
    "zipcode": "8410004",
    "prefectureCode": "41",
    "prefectureNumber": 41,
    "prefecture": "佐賀県",
    "city": "鳥栖市",
    "town": "神辺町"
  },
  "8410005": {
    "zipcode": "8410005",
    "prefectureCode": "41",
    "prefectureNumber": 41,
    "prefecture": "佐賀県",
    "city": "鳥栖市",
    "town": "弥生が丘"
  },
  "8410011": {
    "zipcode": "8410011",
    "prefectureCode": "41",
    "prefectureNumber": 41,
    "prefecture": "佐賀県",
    "city": "鳥栖市",
    "town": "永吉町"
  },
  "8410012": {
    "zipcode": "8410012",
    "prefectureCode": "41",
    "prefectureNumber": 41,
    "prefecture": "佐賀県",
    "city": "鳥栖市",
    "town": "田代昌町"
  },
  "8410013": {
    "zipcode": "8410013",
    "prefectureCode": "41",
    "prefectureNumber": 41,
    "prefecture": "佐賀県",
    "city": "鳥栖市",
    "town": "田代新町"
  },
  "8410014": {
    "zipcode": "8410014",
    "prefectureCode": "41",
    "prefectureNumber": 41,
    "prefecture": "佐賀県",
    "city": "鳥栖市",
    "town": "桜町"
  },
  "8410015": {
    "zipcode": "8410015",
    "prefectureCode": "41",
    "prefectureNumber": 41,
    "prefecture": "佐賀県",
    "city": "鳥栖市",
    "town": "田代上町"
  },
  "8410016": {
    "zipcode": "8410016",
    "prefectureCode": "41",
    "prefectureNumber": 41,
    "prefecture": "佐賀県",
    "city": "鳥栖市",
    "town": "田代外町"
  },
  "8410017": {
    "zipcode": "8410017",
    "prefectureCode": "41",
    "prefectureNumber": 41,
    "prefecture": "佐賀県",
    "city": "鳥栖市",
    "town": "田代大官町"
  },
  "8410018": {
    "zipcode": "8410018",
    "prefectureCode": "41",
    "prefectureNumber": 41,
    "prefecture": "佐賀県",
    "city": "鳥栖市",
    "town": "田代本町"
  },
  "8410021": {
    "zipcode": "8410021",
    "prefectureCode": "41",
    "prefectureNumber": 41,
    "prefecture": "佐賀県",
    "city": "鳥栖市",
    "town": "幡崎町"
  },
  "8410022": {
    "zipcode": "8410022",
    "prefectureCode": "41",
    "prefectureNumber": 41,
    "prefecture": "佐賀県",
    "city": "鳥栖市",
    "town": "飯田町"
  },
  "8410023": {
    "zipcode": "8410023",
    "prefectureCode": "41",
    "prefectureNumber": 41,
    "prefecture": "佐賀県",
    "city": "鳥栖市",
    "town": "姫方町"
  },
  "8410024": {
    "zipcode": "8410024",
    "prefectureCode": "41",
    "prefectureNumber": 41,
    "prefecture": "佐賀県",
    "city": "鳥栖市",
    "town": "原町"
  },
  "8410025": {
    "zipcode": "8410025",
    "prefectureCode": "41",
    "prefectureNumber": 41,
    "prefecture": "佐賀県",
    "city": "鳥栖市",
    "town": "曽根崎町"
  },
  "8410026": {
    "zipcode": "8410026",
    "prefectureCode": "41",
    "prefectureNumber": 41,
    "prefecture": "佐賀県",
    "city": "鳥栖市",
    "town": "本鳥栖町"
  },
  "8410027": {
    "zipcode": "8410027",
    "prefectureCode": "41",
    "prefectureNumber": 41,
    "prefecture": "佐賀県",
    "city": "鳥栖市",
    "town": "松原町"
  },
  "8410031": {
    "zipcode": "8410031",
    "prefectureCode": "41",
    "prefectureNumber": 41,
    "prefecture": "佐賀県",
    "city": "鳥栖市",
    "town": "鎗田町"
  },
  "8410032": {
    "zipcode": "8410032",
    "prefectureCode": "41",
    "prefectureNumber": 41,
    "prefecture": "佐賀県",
    "city": "鳥栖市",
    "town": "大正町"
  },
  "8410033": {
    "zipcode": "8410033",
    "prefectureCode": "41",
    "prefectureNumber": 41,
    "prefecture": "佐賀県",
    "city": "鳥栖市",
    "town": "本通町"
  },
  "8410034": {
    "zipcode": "8410034",
    "prefectureCode": "41",
    "prefectureNumber": 41,
    "prefecture": "佐賀県",
    "city": "鳥栖市",
    "town": "京町"
  },
  "8410035": {
    "zipcode": "8410035",
    "prefectureCode": "41",
    "prefectureNumber": 41,
    "prefecture": "佐賀県",
    "city": "鳥栖市",
    "town": "東町"
  },
  "8410036": {
    "zipcode": "8410036",
    "prefectureCode": "41",
    "prefectureNumber": 41,
    "prefecture": "佐賀県",
    "city": "鳥栖市",
    "town": "秋葉町"
  },
  "8410037": {
    "zipcode": "8410037",
    "prefectureCode": "41",
    "prefectureNumber": 41,
    "prefecture": "佐賀県",
    "city": "鳥栖市",
    "town": "本町"
  },
  "8410038": {
    "zipcode": "8410038",
    "prefectureCode": "41",
    "prefectureNumber": 41,
    "prefecture": "佐賀県",
    "city": "鳥栖市",
    "town": "古野町"
  },
  "8410039": {
    "zipcode": "8410039",
    "prefectureCode": "41",
    "prefectureNumber": 41,
    "prefecture": "佐賀県",
    "city": "鳥栖市",
    "town": "土井町"
  },
  "8410041": {
    "zipcode": "8410041",
    "prefectureCode": "41",
    "prefectureNumber": 41,
    "prefecture": "佐賀県",
    "city": "鳥栖市",
    "town": "酒井東町"
  },
  "8410042": {
    "zipcode": "8410042",
    "prefectureCode": "41",
    "prefectureNumber": 41,
    "prefecture": "佐賀県",
    "city": "鳥栖市",
    "town": "酒井西町"
  },
  "8410043": {
    "zipcode": "8410043",
    "prefectureCode": "41",
    "prefectureNumber": 41,
    "prefecture": "佐賀県",
    "city": "鳥栖市",
    "town": "水屋町"
  },
  "8410044": {
    "zipcode": "8410044",
    "prefectureCode": "41",
    "prefectureNumber": 41,
    "prefecture": "佐賀県",
    "city": "鳥栖市",
    "town": "高田町"
  },
  "8410045": {
    "zipcode": "8410045",
    "prefectureCode": "41",
    "prefectureNumber": 41,
    "prefecture": "佐賀県",
    "city": "鳥栖市",
    "town": "安楽寺町"
  },
  "8410046": {
    "zipcode": "8410046",
    "prefectureCode": "41",
    "prefectureNumber": 41,
    "prefecture": "佐賀県",
    "city": "鳥栖市",
    "town": "真木町"
  },
  "8410047": {
    "zipcode": "8410047",
    "prefectureCode": "41",
    "prefectureNumber": 41,
    "prefecture": "佐賀県",
    "city": "鳥栖市",
    "town": "今泉町"
  },
  "8410048": {
    "zipcode": "8410048",
    "prefectureCode": "41",
    "prefectureNumber": 41,
    "prefecture": "佐賀県",
    "city": "鳥栖市",
    "town": "藤木町"
  },
  "8410051": {
    "zipcode": "8410051",
    "prefectureCode": "41",
    "prefectureNumber": 41,
    "prefecture": "佐賀県",
    "city": "鳥栖市",
    "town": "元町"
  },
  "8410052": {
    "zipcode": "8410052",
    "prefectureCode": "41",
    "prefectureNumber": 41,
    "prefecture": "佐賀県",
    "city": "鳥栖市",
    "town": "宿町"
  },
  "8410053": {
    "zipcode": "8410053",
    "prefectureCode": "41",
    "prefectureNumber": 41,
    "prefecture": "佐賀県",
    "city": "鳥栖市",
    "town": "布津原町"
  },
  "8410054": {
    "zipcode": "8410054",
    "prefectureCode": "41",
    "prefectureNumber": 41,
    "prefecture": "佐賀県",
    "city": "鳥栖市",
    "town": "蔵上町"
  },
  "8410055": {
    "zipcode": "8410055",
    "prefectureCode": "41",
    "prefectureNumber": 41,
    "prefecture": "佐賀県",
    "city": "鳥栖市",
    "town": "養父町"
  },
  "8410056": {
    "zipcode": "8410056",
    "prefectureCode": "41",
    "prefectureNumber": 41,
    "prefecture": "佐賀県",
    "city": "鳥栖市",
    "town": "蔵上"
  },
  "8410061": {
    "zipcode": "8410061",
    "prefectureCode": "41",
    "prefectureNumber": 41,
    "prefecture": "佐賀県",
    "city": "鳥栖市",
    "town": "轟木町"
  },
  "8410062": {
    "zipcode": "8410062",
    "prefectureCode": "41",
    "prefectureNumber": 41,
    "prefecture": "佐賀県",
    "city": "鳥栖市",
    "town": "幸津町"
  },
  "8410063": {
    "zipcode": "8410063",
    "prefectureCode": "41",
    "prefectureNumber": 41,
    "prefecture": "佐賀県",
    "city": "鳥栖市",
    "town": "下野町"
  },
  "8410064": {
    "zipcode": "8410064",
    "prefectureCode": "41",
    "prefectureNumber": 41,
    "prefecture": "佐賀県",
    "city": "鳥栖市",
    "town": "三島町"
  },
  "8410065": {
    "zipcode": "8410065",
    "prefectureCode": "41",
    "prefectureNumber": 41,
    "prefecture": "佐賀県",
    "city": "鳥栖市",
    "town": "前田町"
  },
  "8410066": {
    "zipcode": "8410066",
    "prefectureCode": "41",
    "prefectureNumber": 41,
    "prefecture": "佐賀県",
    "city": "鳥栖市",
    "town": "儀徳町"
  },
  "8410067": {
    "zipcode": "8410067",
    "prefectureCode": "41",
    "prefectureNumber": 41,
    "prefecture": "佐賀県",
    "city": "鳥栖市",
    "town": "西田町"
  },
  "8410068": {
    "zipcode": "8410068",
    "prefectureCode": "41",
    "prefectureNumber": 41,
    "prefecture": "佐賀県",
    "city": "鳥栖市",
    "town": "あさひ新町"
  },
  "8410071": {
    "zipcode": "8410071",
    "prefectureCode": "41",
    "prefectureNumber": 41,
    "prefecture": "佐賀県",
    "city": "鳥栖市",
    "town": "原古賀町"
  },
  "8410072": {
    "zipcode": "8410072",
    "prefectureCode": "41",
    "prefectureNumber": 41,
    "prefecture": "佐賀県",
    "city": "鳥栖市",
    "town": "村田町"
  },
  "8410073": {
    "zipcode": "8410073",
    "prefectureCode": "41",
    "prefectureNumber": 41,
    "prefecture": "佐賀県",
    "city": "鳥栖市",
    "town": "江島町"
  },
  "8410074": {
    "zipcode": "8410074",
    "prefectureCode": "41",
    "prefectureNumber": 41,
    "prefecture": "佐賀県",
    "city": "鳥栖市",
    "town": "西新町"
  },
  "8410075": {
    "zipcode": "8410075",
    "prefectureCode": "41",
    "prefectureNumber": 41,
    "prefecture": "佐賀県",
    "city": "鳥栖市",
    "town": "立石町"
  },
  "8410076": {
    "zipcode": "8410076",
    "prefectureCode": "41",
    "prefectureNumber": 41,
    "prefecture": "佐賀県",
    "city": "鳥栖市",
    "town": "平田町"
  },
  "8410081": {
    "zipcode": "8410081",
    "prefectureCode": "41",
    "prefectureNumber": 41,
    "prefecture": "佐賀県",
    "city": "鳥栖市",
    "town": "萱方町"
  },
  "8410082": {
    "zipcode": "8410082",
    "prefectureCode": "41",
    "prefectureNumber": 41,
    "prefecture": "佐賀県",
    "city": "鳥栖市",
    "town": "浅井町"
  },
  "8410083": {
    "zipcode": "8410083",
    "prefectureCode": "41",
    "prefectureNumber": 41,
    "prefecture": "佐賀県",
    "city": "鳥栖市",
    "town": "古賀町"
  },
  "8410084": {
    "zipcode": "8410084",
    "prefectureCode": "41",
    "prefectureNumber": 41,
    "prefecture": "佐賀県",
    "city": "鳥栖市",
    "town": "山浦町"
  },
  "8410085": {
    "zipcode": "8410085",
    "prefectureCode": "41",
    "prefectureNumber": 41,
    "prefecture": "佐賀県",
    "city": "鳥栖市",
    "town": "山都町"
  },
  "8410086": {
    "zipcode": "8410086",
    "prefectureCode": "41",
    "prefectureNumber": 41,
    "prefecture": "佐賀県",
    "city": "鳥栖市",
    "town": "牛原町"
  },
  "8410087": {
    "zipcode": "8410087",
    "prefectureCode": "41",
    "prefectureNumber": 41,
    "prefecture": "佐賀県",
    "city": "鳥栖市",
    "town": "河内町"
  },
  "8410088": {
    "zipcode": "8410088",
    "prefectureCode": "41",
    "prefectureNumber": 41,
    "prefecture": "佐賀県",
    "city": "鳥栖市",
    "town": "桜ケ丘町"
  },
  "8410089": {
    "zipcode": "8410089",
    "prefectureCode": "41",
    "prefectureNumber": 41,
    "prefecture": "佐賀県",
    "city": "鳥栖市",
    "town": "虹ケ丘町"
  },
  "8410200": {
    "zipcode": "8410200",
    "prefectureCode": "41",
    "prefectureNumber": 41,
    "prefecture": "佐賀県",
    "city": "三養基郡基山町",
    "town": "以下に掲載がない場合"
  },
  "8410201": {
    "zipcode": "8410201",
    "prefectureCode": "41",
    "prefectureNumber": 41,
    "prefecture": "佐賀県",
    "city": "三養基郡基山町",
    "town": "小倉"
  },
  "8410202": {
    "zipcode": "8410202",
    "prefectureCode": "41",
    "prefectureNumber": 41,
    "prefecture": "佐賀県",
    "city": "三養基郡基山町",
    "town": "長野"
  },
  "8410203": {
    "zipcode": "8410203",
    "prefectureCode": "41",
    "prefectureNumber": 41,
    "prefecture": "佐賀県",
    "city": "三養基郡基山町",
    "town": "園部"
  },
  "8410204": {
    "zipcode": "8410204",
    "prefectureCode": "41",
    "prefectureNumber": 41,
    "prefecture": "佐賀県",
    "city": "三養基郡基山町",
    "town": "宮浦"
  },
  "8410205": {
    "zipcode": "8410205",
    "prefectureCode": "41",
    "prefectureNumber": 41,
    "prefecture": "佐賀県",
    "city": "三養基郡基山町",
    "town": "けやき台"
  }
}
