{
  "8420000": {
    "zipcode": "8420000",
    "prefectureCode": "41",
    "prefectureNumber": 41,
    "prefecture": "佐賀県",
    "city": "神埼郡吉野ヶ里町",
    "town": "以下に掲載がない場合"
  },
  "8420001": {
    "zipcode": "8420001",
    "prefectureCode": "41",
    "prefectureNumber": 41,
    "prefecture": "佐賀県",
    "city": "神埼市",
    "town": "神埼町神埼"
  },
  "8420002": {
    "zipcode": "8420002",
    "prefectureCode": "41",
    "prefectureNumber": 41,
    "prefecture": "佐賀県",
    "city": "神埼市",
    "town": "神埼町田道ケ里"
  },
  "8420003": {
    "zipcode": "8420003",
    "prefectureCode": "41",
    "prefectureNumber": 41,
    "prefecture": "佐賀県",
    "city": "神埼市",
    "town": "神埼町本堀"
  },
  "8420004": {
    "zipcode": "8420004",
    "prefectureCode": "41",
    "prefectureNumber": 41,
    "prefecture": "佐賀県",
    "city": "神埼市",
    "town": "神埼町永歌"
  },
  "8420005": {
    "zipcode": "8420005",
    "prefectureCode": "41",
    "prefectureNumber": 41,
    "prefecture": "佐賀県",
    "city": "神埼市",
    "town": "神埼町西小津ケ里"
  },
  "8420006": {
    "zipcode": "8420006",
    "prefectureCode": "41",
    "prefectureNumber": 41,
    "prefecture": "佐賀県",
    "city": "神埼市",
    "town": "神埼町枝ケ里"
  },
  "8420007": {
    "zipcode": "8420007",
    "prefectureCode": "41",
    "prefectureNumber": 41,
    "prefecture": "佐賀県",
    "city": "神埼市",
    "town": "神埼町鶴（３０００番地以降）"
  },
  "8420011": {
    "zipcode": "8420011",
    "prefectureCode": "41",
    "prefectureNumber": 41,
    "prefecture": "佐賀県",
    "city": "神埼市",
    "town": "神埼町竹"
  },
  "8420012": {
    "zipcode": "8420012",
    "prefectureCode": "41",
    "prefectureNumber": 41,
    "prefecture": "佐賀県",
    "city": "神埼市",
    "town": "神埼町横武"
  },
  "8420013": {
    "zipcode": "8420013",
    "prefectureCode": "41",
    "prefectureNumber": 41,
    "prefecture": "佐賀県",
    "city": "神埼市",
    "town": "神埼町本告牟田"
  },
  "8420014": {
    "zipcode": "8420014",
    "prefectureCode": "41",
    "prefectureNumber": 41,
    "prefecture": "佐賀県",
    "city": "神埼市",
    "town": "神埼町姉川"
  },
  "8420015": {
    "zipcode": "8420015",
    "prefectureCode": "41",
    "prefectureNumber": 41,
    "prefecture": "佐賀県",
    "city": "神埼市",
    "town": "神埼町尾崎"
  },
  "8420031": {
    "zipcode": "8420031",
    "prefectureCode": "41",
    "prefectureNumber": 41,
    "prefecture": "佐賀県",
    "city": "神埼郡吉野ヶ里町",
    "town": "吉田"
  },
  "8420032": {
    "zipcode": "8420032",
    "prefectureCode": "41",
    "prefectureNumber": 41,
    "prefecture": "佐賀県",
    "city": "神埼郡吉野ヶ里町",
    "town": "立野"
  },
  "8420033": {
    "zipcode": "8420033",
    "prefectureCode": "41",
    "prefectureNumber": 41,
    "prefecture": "佐賀県",
    "city": "神埼郡吉野ヶ里町",
    "town": "豆田"
  },
  "8420034": {
    "zipcode": "8420034",
    "prefectureCode": "41",
    "prefectureNumber": 41,
    "prefecture": "佐賀県",
    "city": "神埼郡吉野ヶ里町",
    "town": "箱川"
  },
  "8420035": {
    "zipcode": "8420035",
    "prefectureCode": "41",
    "prefectureNumber": 41,
    "prefecture": "佐賀県",
    "city": "神埼郡吉野ヶ里町",
    "town": "田手"
  },
  "8420051": {
    "zipcode": "8420051",
    "prefectureCode": "41",
    "prefectureNumber": 41,
    "prefecture": "佐賀県",
    "city": "神埼市",
    "town": "千代田町黒井"
  },
  "8420052": {
    "zipcode": "8420052",
    "prefectureCode": "41",
    "prefectureNumber": 41,
    "prefecture": "佐賀県",
    "city": "神埼市",
    "town": "千代田町姉"
  },
  "8420053": {
    "zipcode": "8420053",
    "prefectureCode": "41",
    "prefectureNumber": 41,
    "prefecture": "佐賀県",
    "city": "神埼市",
    "town": "千代田町直鳥"
  },
  "8420054": {
    "zipcode": "8420054",
    "prefectureCode": "41",
    "prefectureNumber": 41,
    "prefecture": "佐賀県",
    "city": "神埼市",
    "town": "千代田町餘江"
  },
  "8420055": {
    "zipcode": "8420055",
    "prefectureCode": "41",
    "prefectureNumber": 41,
    "prefecture": "佐賀県",
    "city": "神埼市",
    "town": "千代田町下西"
  },
  "8420056": {
    "zipcode": "8420056",
    "prefectureCode": "41",
    "prefectureNumber": 41,
    "prefecture": "佐賀県",
    "city": "神埼市",
    "town": "千代田町境原"
  },
  "8420061": {
    "zipcode": "8420061",
    "prefectureCode": "41",
    "prefectureNumber": 41,
    "prefecture": "佐賀県",
    "city": "神埼市",
    "town": "千代田町詫田"
  },
  "8420062": {
    "zipcode": "8420062",
    "prefectureCode": "41",
    "prefectureNumber": 41,
    "prefecture": "佐賀県",
    "city": "神埼市",
    "town": "千代田町柳島"
  },
  "8420063": {
    "zipcode": "8420063",
    "prefectureCode": "41",
    "prefectureNumber": 41,
    "prefecture": "佐賀県",
    "city": "神埼市",
    "town": "千代田町迎島"
  },
  "8420064": {
    "zipcode": "8420064",
    "prefectureCode": "41",
    "prefectureNumber": 41,
    "prefecture": "佐賀県",
    "city": "神埼市",
    "town": "千代田町渡瀬"
  },
  "8420065": {
    "zipcode": "8420065",
    "prefectureCode": "41",
    "prefectureNumber": 41,
    "prefecture": "佐賀県",
    "city": "神埼市",
    "town": "千代田町崎村"
  },
  "8420066": {
    "zipcode": "8420066",
    "prefectureCode": "41",
    "prefectureNumber": 41,
    "prefecture": "佐賀県",
    "city": "神埼市",
    "town": "千代田町用作"
  },
  "8420067": {
    "zipcode": "8420067",
    "prefectureCode": "41",
    "prefectureNumber": 41,
    "prefecture": "佐賀県",
    "city": "神埼市",
    "town": "千代田町嘉納"
  },
  "8420068": {
    "zipcode": "8420068",
    "prefectureCode": "41",
    "prefectureNumber": 41,
    "prefecture": "佐賀県",
    "city": "神埼市",
    "town": "千代田町下板"
  },
  "8420101": {
    "zipcode": "8420101",
    "prefectureCode": "41",
    "prefectureNumber": 41,
    "prefecture": "佐賀県",
    "city": "神埼郡吉野ヶ里町",
    "town": "松隈"
  },
  "8420102": {
    "zipcode": "8420102",
    "prefectureCode": "41",
    "prefectureNumber": 41,
    "prefecture": "佐賀県",
    "city": "神埼郡吉野ヶ里町",
    "town": "石動"
  },
  "8420103": {
    "zipcode": "8420103",
    "prefectureCode": "41",
    "prefectureNumber": 41,
    "prefecture": "佐賀県",
    "city": "神埼郡吉野ヶ里町",
    "town": "大曲"
  },
  "8420104": {
    "zipcode": "8420104",
    "prefectureCode": "41",
    "prefectureNumber": 41,
    "prefecture": "佐賀県",
    "city": "神埼郡吉野ヶ里町",
    "town": "三津"
  },
  "8420107": {
    "zipcode": "8420107",
    "prefectureCode": "41",
    "prefectureNumber": 41,
    "prefecture": "佐賀県",
    "city": "神埼市",
    "town": "神埼町鶴（１〜２９９９番地）"
  },
  "8420121": {
    "zipcode": "8420121",
    "prefectureCode": "41",
    "prefectureNumber": 41,
    "prefecture": "佐賀県",
    "city": "神埼市",
    "town": "神埼町志波屋"
  },
  "8420122": {
    "zipcode": "8420122",
    "prefectureCode": "41",
    "prefectureNumber": 41,
    "prefecture": "佐賀県",
    "city": "神埼市",
    "town": "神埼町城原"
  },
  "8420123": {
    "zipcode": "8420123",
    "prefectureCode": "41",
    "prefectureNumber": 41,
    "prefecture": "佐賀県",
    "city": "神埼市",
    "town": "神埼町的"
  },
  "8420201": {
    "zipcode": "8420201",
    "prefectureCode": "41",
    "prefectureNumber": 41,
    "prefecture": "佐賀県",
    "city": "神埼市",
    "town": "脊振町広滝"
  },
  "8420202": {
    "zipcode": "8420202",
    "prefectureCode": "41",
    "prefectureNumber": 41,
    "prefecture": "佐賀県",
    "city": "神埼市",
    "town": "脊振町鹿路"
  },
  "8420203": {
    "zipcode": "8420203",
    "prefectureCode": "41",
    "prefectureNumber": 41,
    "prefecture": "佐賀県",
    "city": "神埼市",
    "town": "脊振町服巻"
  },
  "8420301": {
    "zipcode": "8420301",
    "prefectureCode": "41",
    "prefectureNumber": 41,
    "prefecture": "佐賀県",
    "city": "佐賀市",
    "town": "三瀬村三瀬"
  },
  "8420302": {
    "zipcode": "8420302",
    "prefectureCode": "41",
    "prefectureNumber": 41,
    "prefecture": "佐賀県",
    "city": "佐賀市",
    "town": "三瀬村藤原"
  },
  "8420303": {
    "zipcode": "8420303",
    "prefectureCode": "41",
    "prefectureNumber": 41,
    "prefecture": "佐賀県",
    "city": "佐賀市",
    "town": "三瀬村杠"
  }
}
