{
  "8430000": {
    "zipcode": "8430000",
    "prefectureCode": "41",
    "prefectureNumber": 41,
    "prefecture": "佐賀県",
    "city": "武雄市",
    "town": "以下に掲載がない場合"
  },
  "8430001": {
    "zipcode": "8430001",
    "prefectureCode": "41",
    "prefectureNumber": 41,
    "prefecture": "佐賀県",
    "city": "武雄市",
    "town": "朝日町甘久"
  },
  "8430002": {
    "zipcode": "8430002",
    "prefectureCode": "41",
    "prefectureNumber": 41,
    "prefecture": "佐賀県",
    "city": "武雄市",
    "town": "朝日町中野"
  },
  "8430003": {
    "zipcode": "8430003",
    "prefectureCode": "41",
    "prefectureNumber": 41,
    "prefecture": "佐賀県",
    "city": "武雄市",
    "town": "朝日町芦原"
  },
  "8430011": {
    "zipcode": "8430011",
    "prefectureCode": "41",
    "prefectureNumber": 41,
    "prefecture": "佐賀県",
    "city": "武雄市",
    "town": "橘町芦原"
  },
  "8430012": {
    "zipcode": "8430012",
    "prefectureCode": "41",
    "prefectureNumber": 41,
    "prefecture": "佐賀県",
    "city": "武雄市",
    "town": "橘町片白"
  },
  "8430013": {
    "zipcode": "8430013",
    "prefectureCode": "41",
    "prefectureNumber": 41,
    "prefecture": "佐賀県",
    "city": "武雄市",
    "town": "橘町大日"
  },
  "8430014": {
    "zipcode": "8430014",
    "prefectureCode": "41",
    "prefectureNumber": 41,
    "prefecture": "佐賀県",
    "city": "武雄市",
    "town": "橘町永島"
  },
  "8430021": {
    "zipcode": "8430021",
    "prefectureCode": "41",
    "prefectureNumber": 41,
    "prefecture": "佐賀県",
    "city": "武雄市",
    "town": "武雄町永島"
  },
  "8430022": {
    "zipcode": "8430022",
    "prefectureCode": "41",
    "prefectureNumber": 41,
    "prefecture": "佐賀県",
    "city": "武雄市",
    "town": "武雄町武雄"
  },
  "8430023": {
    "zipcode": "8430023",
    "prefectureCode": "41",
    "prefectureNumber": 41,
    "prefecture": "佐賀県",
    "city": "武雄市",
    "town": "武雄町昭和"
  },
  "8430024": {
    "zipcode": "8430024",
    "prefectureCode": "41",
    "prefectureNumber": 41,
    "prefecture": "佐賀県",
    "city": "武雄市",
    "town": "武雄町富岡"
  },
  "8430151": {
    "zipcode": "8430151",
    "prefectureCode": "41",
    "prefectureNumber": 41,
    "prefecture": "佐賀県",
    "city": "武雄市",
    "town": "若木町川古"
  },
  "8430152": {
    "zipcode": "8430152",
    "prefectureCode": "41",
    "prefectureNumber": 41,
    "prefecture": "佐賀県",
    "city": "武雄市",
    "town": "若木町本部"
  },
  "8430153": {
    "zipcode": "8430153",
    "prefectureCode": "41",
    "prefectureNumber": 41,
    "prefecture": "佐賀県",
    "city": "武雄市",
    "town": "若木町桃川"
  },
  "8430231": {
    "zipcode": "8430231",
    "prefectureCode": "41",
    "prefectureNumber": 41,
    "prefecture": "佐賀県",
    "city": "武雄市",
    "town": "西川登町小田志"
  },
  "8430232": {
    "zipcode": "8430232",
    "prefectureCode": "41",
    "prefectureNumber": 41,
    "prefecture": "佐賀県",
    "city": "武雄市",
    "town": "西川登町神六"
  },
  "8430233": {
    "zipcode": "8430233",
    "prefectureCode": "41",
    "prefectureNumber": 41,
    "prefecture": "佐賀県",
    "city": "武雄市",
    "town": "東川登町永野"
  },
  "8430234": {
    "zipcode": "8430234",
    "prefectureCode": "41",
    "prefectureNumber": 41,
    "prefecture": "佐賀県",
    "city": "武雄市",
    "town": "東川登町袴野"
  },
  "8430300": {
    "zipcode": "8430300",
    "prefectureCode": "41",
    "prefectureNumber": 41,
    "prefecture": "佐賀県",
    "city": "嬉野市",
    "town": "以下に掲載がない場合"
  },
  "8430301": {
    "zipcode": "8430301",
    "prefectureCode": "41",
    "prefectureNumber": 41,
    "prefecture": "佐賀県",
    "city": "嬉野市",
    "town": "嬉野町下宿"
  },
  "8430302": {
    "zipcode": "8430302",
    "prefectureCode": "41",
    "prefectureNumber": 41,
    "prefecture": "佐賀県",
    "city": "嬉野市",
    "town": "嬉野町下野"
  },
  "8430303": {
    "zipcode": "8430303",
    "prefectureCode": "41",
    "prefectureNumber": 41,
    "prefecture": "佐賀県",
    "city": "嬉野市",
    "town": "嬉野町吉田"
  },
  "8430304": {
    "zipcode": "8430304",
    "prefectureCode": "41",
    "prefectureNumber": 41,
    "prefecture": "佐賀県",
    "city": "嬉野市",
    "town": "嬉野町岩屋川内"
  },
  "8430305": {
    "zipcode": "8430305",
    "prefectureCode": "41",
    "prefectureNumber": 41,
    "prefecture": "佐賀県",
    "city": "嬉野市",
    "town": "嬉野町不動山"
  }
}
