{
  "8440000": {
    "zipcode": "8440000",
    "prefectureCode": "41",
    "prefectureNumber": 41,
    "prefecture": "佐賀県",
    "city": "西松浦郡有田町",
    "town": "以下に掲載がない場合"
  },
  "8440001": {
    "zipcode": "8440001",
    "prefectureCode": "41",
    "prefectureNumber": 41,
    "prefecture": "佐賀県",
    "city": "西松浦郡有田町",
    "town": "泉山"
  },
  "8440002": {
    "zipcode": "8440002",
    "prefectureCode": "41",
    "prefectureNumber": 41,
    "prefecture": "佐賀県",
    "city": "西松浦郡有田町",
    "town": "中樽"
  },
  "8440003": {
    "zipcode": "8440003",
    "prefectureCode": "41",
    "prefectureNumber": 41,
    "prefecture": "佐賀県",
    "city": "西松浦郡有田町",
    "town": "上幸平"
  },
  "8440004": {
    "zipcode": "8440004",
    "prefectureCode": "41",
    "prefectureNumber": 41,
    "prefecture": "佐賀県",
    "city": "西松浦郡有田町",
    "town": "大樽"
  },
  "8440005": {
    "zipcode": "8440005",
    "prefectureCode": "41",
    "prefectureNumber": 41,
    "prefecture": "佐賀県",
    "city": "西松浦郡有田町",
    "town": "幸平"
  },
  "8440006": {
    "zipcode": "8440006",
    "prefectureCode": "41",
    "prefectureNumber": 41,
    "prefecture": "佐賀県",
    "city": "西松浦郡有田町",
    "town": "赤絵町"
  },
  "8440007": {
    "zipcode": "8440007",
    "prefectureCode": "41",
    "prefectureNumber": 41,
    "prefecture": "佐賀県",
    "city": "西松浦郡有田町",
    "town": "白川"
  },
  "8440008": {
    "zipcode": "8440008",
    "prefectureCode": "41",
    "prefectureNumber": 41,
    "prefecture": "佐賀県",
    "city": "西松浦郡有田町",
    "town": "稗古場"
  },
  "8440009": {
    "zipcode": "8440009",
    "prefectureCode": "41",
    "prefectureNumber": 41,
    "prefecture": "佐賀県",
    "city": "西松浦郡有田町",
    "town": "中の原"
  },
  "8440011": {
    "zipcode": "8440011",
    "prefectureCode": "41",
    "prefectureNumber": 41,
    "prefecture": "佐賀県",
    "city": "西松浦郡有田町",
    "town": "岩谷川内"
  },
  "8440012": {
    "zipcode": "8440012",
    "prefectureCode": "41",
    "prefectureNumber": 41,
    "prefecture": "佐賀県",
    "city": "西松浦郡有田町",
    "town": "桑古場"
  },
  "8440013": {
    "zipcode": "8440013",
    "prefectureCode": "41",
    "prefectureNumber": 41,
    "prefecture": "佐賀県",
    "city": "西松浦郡有田町",
    "town": "大野"
  },
  "8440014": {
    "zipcode": "8440014",
    "prefectureCode": "41",
    "prefectureNumber": 41,
    "prefecture": "佐賀県",
    "city": "西松浦郡有田町",
    "town": "戸矢"
  },
  "8440015": {
    "zipcode": "8440015",
    "prefectureCode": "41",
    "prefectureNumber": 41,
    "prefecture": "佐賀県",
    "city": "西松浦郡有田町",
    "town": "古木場"
  },
  "8440016": {
    "zipcode": "8440016",
    "prefectureCode": "41",
    "prefectureNumber": 41,
    "prefecture": "佐賀県",
    "city": "西松浦郡有田町",
    "town": "境野"
  },
  "8440017": {
    "zipcode": "8440017",
    "prefectureCode": "41",
    "prefectureNumber": 41,
    "prefecture": "佐賀県",
    "city": "西松浦郡有田町",
    "town": "戸杓"
  },
  "8440018": {
    "zipcode": "8440018",
    "prefectureCode": "41",
    "prefectureNumber": 41,
    "prefecture": "佐賀県",
    "city": "西松浦郡有田町",
    "town": "本町"
  },
  "8440021": {
    "zipcode": "8440021",
    "prefectureCode": "41",
    "prefectureNumber": 41,
    "prefecture": "佐賀県",
    "city": "西松浦郡有田町",
    "town": "応法"
  },
  "8440022": {
    "zipcode": "8440022",
    "prefectureCode": "41",
    "prefectureNumber": 41,
    "prefecture": "佐賀県",
    "city": "西松浦郡有田町",
    "town": "黒牟田"
  },
  "8440023": {
    "zipcode": "8440023",
    "prefectureCode": "41",
    "prefectureNumber": 41,
    "prefecture": "佐賀県",
    "city": "西松浦郡有田町",
    "town": "丸尾"
  },
  "8440024": {
    "zipcode": "8440024",
    "prefectureCode": "41",
    "prefectureNumber": 41,
    "prefecture": "佐賀県",
    "city": "西松浦郡有田町",
    "town": "赤坂"
  },
  "8440025": {
    "zipcode": "8440025",
    "prefectureCode": "41",
    "prefectureNumber": 41,
    "prefecture": "佐賀県",
    "city": "西松浦郡有田町",
    "town": "外尾山"
  },
  "8440026": {
    "zipcode": "8440026",
    "prefectureCode": "41",
    "prefectureNumber": 41,
    "prefecture": "佐賀県",
    "city": "西松浦郡有田町",
    "town": "外尾町"
  },
  "8440027": {
    "zipcode": "8440027",
    "prefectureCode": "41",
    "prefectureNumber": 41,
    "prefecture": "佐賀県",
    "city": "西松浦郡有田町",
    "town": "南原"
  },
  "8440028": {
    "zipcode": "8440028",
    "prefectureCode": "41",
    "prefectureNumber": 41,
    "prefecture": "佐賀県",
    "city": "西松浦郡有田町",
    "town": "南山"
  }
}
