{
  "8450000": {
    "zipcode": "8450000",
    "prefectureCode": "41",
    "prefectureNumber": 41,
    "prefecture": "佐賀県",
    "city": "小城市",
    "town": "以下に掲載がない場合"
  },
  "8450001": {
    "zipcode": "8450001",
    "prefectureCode": "41",
    "prefectureNumber": 41,
    "prefecture": "佐賀県",
    "city": "小城市",
    "town": "小城町"
  },
  "8450002": {
    "zipcode": "8450002",
    "prefectureCode": "41",
    "prefectureNumber": 41,
    "prefecture": "佐賀県",
    "city": "小城市",
    "town": "小城町畑田"
  },
  "8450003": {
    "zipcode": "8450003",
    "prefectureCode": "41",
    "prefectureNumber": 41,
    "prefecture": "佐賀県",
    "city": "小城市",
    "town": "小城町岩蔵"
  },
  "8450004": {
    "zipcode": "8450004",
    "prefectureCode": "41",
    "prefectureNumber": 41,
    "prefecture": "佐賀県",
    "city": "小城市",
    "town": "小城町松尾"
  },
  "8450005": {
    "zipcode": "8450005",
    "prefectureCode": "41",
    "prefectureNumber": 41,
    "prefecture": "佐賀県",
    "city": "小城市",
    "town": "小城町東新町"
  },
  "8450011": {
    "zipcode": "8450011",
    "prefectureCode": "41",
    "prefectureNumber": 41,
    "prefecture": "佐賀県",
    "city": "小城市",
    "town": "小城町船田"
  },
  "8450012": {
    "zipcode": "8450012",
    "prefectureCode": "41",
    "prefectureNumber": 41,
    "prefecture": "佐賀県",
    "city": "小城市",
    "town": "小城町池上"
  },
  "8450013": {
    "zipcode": "8450013",
    "prefectureCode": "41",
    "prefectureNumber": 41,
    "prefecture": "佐賀県",
    "city": "小城市",
    "town": "小城町栗原"
  },
  "8450014": {
    "zipcode": "8450014",
    "prefectureCode": "41",
    "prefectureNumber": 41,
    "prefecture": "佐賀県",
    "city": "小城市",
    "town": "小城町晴気"
  },
  "8450021": {
    "zipcode": "8450021",
    "prefectureCode": "41",
    "prefectureNumber": 41,
    "prefecture": "佐賀県",
    "city": "小城市",
    "town": "三日月町長神田"
  },
  "8450022": {
    "zipcode": "8450022",
    "prefectureCode": "41",
    "prefectureNumber": 41,
    "prefecture": "佐賀県",
    "city": "小城市",
    "town": "三日月町久米"
  },
  "8450023": {
    "zipcode": "8450023",
    "prefectureCode": "41",
    "prefectureNumber": 41,
    "prefecture": "佐賀県",
    "city": "小城市",
    "town": "三日月町織島"
  },
  "8450024": {
    "zipcode": "8450024",
    "prefectureCode": "41",
    "prefectureNumber": 41,
    "prefecture": "佐賀県",
    "city": "小城市",
    "town": "三日月町道辺"
  },
  "8450025": {
    "zipcode": "8450025",
    "prefectureCode": "41",
    "prefectureNumber": 41,
    "prefecture": "佐賀県",
    "city": "小城市",
    "town": "三日月町三ケ島"
  },
  "8450031": {
    "zipcode": "8450031",
    "prefectureCode": "41",
    "prefectureNumber": 41,
    "prefecture": "佐賀県",
    "city": "小城市",
    "town": "三日月町堀江"
  },
  "8450032": {
    "zipcode": "8450032",
    "prefectureCode": "41",
    "prefectureNumber": 41,
    "prefecture": "佐賀県",
    "city": "小城市",
    "town": "三日月町金田"
  },
  "8450033": {
    "zipcode": "8450033",
    "prefectureCode": "41",
    "prefectureNumber": 41,
    "prefecture": "佐賀県",
    "city": "小城市",
    "town": "三日月町樋口"
  },
  "8450034": {
    "zipcode": "8450034",
    "prefectureCode": "41",
    "prefectureNumber": 41,
    "prefecture": "佐賀県",
    "city": "小城市",
    "town": "三日月町甲柳原"
  },
  "8450035": {
    "zipcode": "8450035",
    "prefectureCode": "41",
    "prefectureNumber": 41,
    "prefecture": "佐賀県",
    "city": "小城市",
    "town": "三日月町石木"
  }
}
