{
  "8460000": {
    "zipcode": "8460000",
    "prefectureCode": "41",
    "prefectureNumber": 41,
    "prefecture": "佐賀県",
    "city": "多久市",
    "town": "以下に掲載がない場合"
  },
  "8460001": {
    "zipcode": "8460001",
    "prefectureCode": "41",
    "prefectureNumber": 41,
    "prefecture": "佐賀県",
    "city": "多久市",
    "town": "北多久町"
  },
  "8460002": {
    "zipcode": "8460002",
    "prefectureCode": "41",
    "prefectureNumber": 41,
    "prefecture": "佐賀県",
    "city": "多久市",
    "town": "北多久町小侍"
  },
  "8460003": {
    "zipcode": "8460003",
    "prefectureCode": "41",
    "prefectureNumber": 41,
    "prefecture": "佐賀県",
    "city": "多久市",
    "town": "北多久町多久原"
  },
  "8460004": {
    "zipcode": "8460004",
    "prefectureCode": "41",
    "prefectureNumber": 41,
    "prefecture": "佐賀県",
    "city": "多久市",
    "town": "北多久町中多久"
  },
  "8460005": {
    "zipcode": "8460005",
    "prefectureCode": "41",
    "prefectureNumber": 41,
    "prefecture": "佐賀県",
    "city": "多久市",
    "town": "北多久町砂原"
  },
  "8460006": {
    "zipcode": "8460006",
    "prefectureCode": "41",
    "prefectureNumber": 41,
    "prefecture": "佐賀県",
    "city": "多久市",
    "town": "北多久町莇原"
  },
  "8460007": {
    "zipcode": "8460007",
    "prefectureCode": "41",
    "prefectureNumber": 41,
    "prefecture": "佐賀県",
    "city": "多久市",
    "town": "北多久町メイプルタウン"
  },
  "8460011": {
    "zipcode": "8460011",
    "prefectureCode": "41",
    "prefectureNumber": 41,
    "prefecture": "佐賀県",
    "city": "多久市",
    "town": "東多久町"
  },
  "8460012": {
    "zipcode": "8460012",
    "prefectureCode": "41",
    "prefectureNumber": 41,
    "prefecture": "佐賀県",
    "city": "多久市",
    "town": "東多久町別府"
  },
  "8460013": {
    "zipcode": "8460013",
    "prefectureCode": "41",
    "prefectureNumber": 41,
    "prefecture": "佐賀県",
    "city": "多久市",
    "town": "東多久町古賀"
  },
  "8460014": {
    "zipcode": "8460014",
    "prefectureCode": "41",
    "prefectureNumber": 41,
    "prefecture": "佐賀県",
    "city": "多久市",
    "town": "東多久町納所"
  },
  "8460021": {
    "zipcode": "8460021",
    "prefectureCode": "41",
    "prefectureNumber": 41,
    "prefecture": "佐賀県",
    "city": "多久市",
    "town": "南多久町"
  },
  "8460022": {
    "zipcode": "8460022",
    "prefectureCode": "41",
    "prefectureNumber": 41,
    "prefecture": "佐賀県",
    "city": "多久市",
    "town": "南多久町泉町"
  },
  "8460023": {
    "zipcode": "8460023",
    "prefectureCode": "41",
    "prefectureNumber": 41,
    "prefecture": "佐賀県",
    "city": "多久市",
    "town": "南多久町長尾"
  },
  "8460024": {
    "zipcode": "8460024",
    "prefectureCode": "41",
    "prefectureNumber": 41,
    "prefecture": "佐賀県",
    "city": "多久市",
    "town": "南多久町下多久"
  },
  "8460025": {
    "zipcode": "8460025",
    "prefectureCode": "41",
    "prefectureNumber": 41,
    "prefecture": "佐賀県",
    "city": "多久市",
    "town": "南多久町花祭"
  },
  "8460031": {
    "zipcode": "8460031",
    "prefectureCode": "41",
    "prefectureNumber": 41,
    "prefecture": "佐賀県",
    "city": "多久市",
    "town": "多久町"
  },
  "8460041": {
    "zipcode": "8460041",
    "prefectureCode": "41",
    "prefectureNumber": 41,
    "prefecture": "佐賀県",
    "city": "多久市",
    "town": "西多久町"
  }
}
