{
  "8470000": {
    "zipcode": "8470000",
    "prefectureCode": "41",
    "prefectureNumber": 41,
    "prefecture": "佐賀県",
    "city": "唐津市",
    "town": "以下に掲載がない場合"
  },
  "8470001": {
    "zipcode": "8470001",
    "prefectureCode": "41",
    "prefectureNumber": 41,
    "prefecture": "佐賀県",
    "city": "唐津市",
    "town": "双水"
  },
  "8470002": {
    "zipcode": "8470002",
    "prefectureCode": "41",
    "prefectureNumber": 41,
    "prefecture": "佐賀県",
    "city": "唐津市",
    "town": "山本"
  },
  "8470003": {
    "zipcode": "8470003",
    "prefectureCode": "41",
    "prefectureNumber": 41,
    "prefecture": "佐賀県",
    "city": "唐津市",
    "town": "橋本"
  },
  "8470004": {
    "zipcode": "8470004",
    "prefectureCode": "41",
    "prefectureNumber": 41,
    "prefecture": "佐賀県",
    "city": "唐津市",
    "town": "養母田"
  },
  "8470005": {
    "zipcode": "8470005",
    "prefectureCode": "41",
    "prefectureNumber": 41,
    "prefecture": "佐賀県",
    "city": "唐津市",
    "town": "養母田鬼塚"
  },
  "8470011": {
    "zipcode": "8470011",
    "prefectureCode": "41",
    "prefectureNumber": 41,
    "prefecture": "佐賀県",
    "city": "唐津市",
    "town": "栄町"
  },
  "8470012": {
    "zipcode": "8470012",
    "prefectureCode": "41",
    "prefectureNumber": 41,
    "prefecture": "佐賀県",
    "city": "唐津市",
    "town": "大名小路"
  },
  "8470013": {
    "zipcode": "8470013",
    "prefectureCode": "41",
    "prefectureNumber": 41,
    "prefecture": "佐賀県",
    "city": "唐津市",
    "town": "南城内"
  },
  "8470014": {
    "zipcode": "8470014",
    "prefectureCode": "41",
    "prefectureNumber": 41,
    "prefecture": "佐賀県",
    "city": "唐津市",
    "town": "西城内"
  },
  "8470015": {
    "zipcode": "8470015",
    "prefectureCode": "41",
    "prefectureNumber": 41,
    "prefecture": "佐賀県",
    "city": "唐津市",
    "town": "北城内"
  },
  "8470016": {
    "zipcode": "8470016",
    "prefectureCode": "41",
    "prefectureNumber": 41,
    "prefecture": "佐賀県",
    "city": "唐津市",
    "town": "東城内"
  },
  "8470017": {
    "zipcode": "8470017",
    "prefectureCode": "41",
    "prefectureNumber": 41,
    "prefecture": "佐賀県",
    "city": "唐津市",
    "town": "東唐津"
  },
  "8470021": {
    "zipcode": "8470021",
    "prefectureCode": "41",
    "prefectureNumber": 41,
    "prefecture": "佐賀県",
    "city": "唐津市",
    "town": "松南町"
  },
  "8470022": {
    "zipcode": "8470022",
    "prefectureCode": "41",
    "prefectureNumber": 41,
    "prefecture": "佐賀県",
    "city": "唐津市",
    "town": "鏡"
  },
  "8470023": {
    "zipcode": "8470023",
    "prefectureCode": "41",
    "prefectureNumber": 41,
    "prefecture": "佐賀県",
    "city": "唐津市",
    "town": "半田"
  },
  "8470024": {
    "zipcode": "8470024",
    "prefectureCode": "41",
    "prefectureNumber": 41,
    "prefecture": "佐賀県",
    "city": "唐津市",
    "town": "東宇木"
  },
  "8470025": {
    "zipcode": "8470025",
    "prefectureCode": "41",
    "prefectureNumber": 41,
    "prefecture": "佐賀県",
    "city": "唐津市",
    "town": "宇木"
  },
  "8470026": {
    "zipcode": "8470026",
    "prefectureCode": "41",
    "prefectureNumber": 41,
    "prefecture": "佐賀県",
    "city": "唐津市",
    "town": "柏崎"
  },
  "8470027": {
    "zipcode": "8470027",
    "prefectureCode": "41",
    "prefectureNumber": 41,
    "prefecture": "佐賀県",
    "city": "唐津市",
    "town": "高島"
  },
  "8470028": {
    "zipcode": "8470028",
    "prefectureCode": "41",
    "prefectureNumber": 41,
    "prefecture": "佐賀県",
    "city": "唐津市",
    "town": "鏡新開"
  },
  "8470031": {
    "zipcode": "8470031",
    "prefectureCode": "41",
    "prefectureNumber": 41,
    "prefecture": "佐賀県",
    "city": "唐津市",
    "town": "原"
  },
  "8470032": {
    "zipcode": "8470032",
    "prefectureCode": "41",
    "prefectureNumber": 41,
    "prefecture": "佐賀県",
    "city": "唐津市",
    "town": "夕日"
  },
  "8470033": {
    "zipcode": "8470033",
    "prefectureCode": "41",
    "prefectureNumber": 41,
    "prefecture": "佐賀県",
    "city": "唐津市",
    "town": "久里"
  },
  "8470034": {
    "zipcode": "8470034",
    "prefectureCode": "41",
    "prefectureNumber": 41,
    "prefecture": "佐賀県",
    "city": "唐津市",
    "town": "中原"
  },
  "8470041": {
    "zipcode": "8470041",
    "prefectureCode": "41",
    "prefectureNumber": 41,
    "prefecture": "佐賀県",
    "city": "唐津市",
    "town": "千代田町"
  },
  "8470042": {
    "zipcode": "8470042",
    "prefectureCode": "41",
    "prefectureNumber": 41,
    "prefecture": "佐賀県",
    "city": "唐津市",
    "town": "魚屋町"
  },
  "8470043": {
    "zipcode": "8470043",
    "prefectureCode": "41",
    "prefectureNumber": 41,
    "prefecture": "佐賀県",
    "city": "唐津市",
    "town": "新興町（東新興町）"
  },
  "8470044": {
    "zipcode": "8470044",
    "prefectureCode": "41",
    "prefectureNumber": 41,
    "prefecture": "佐賀県",
    "city": "唐津市",
    "town": "木綿町"
  },
  "8470045": {
    "zipcode": "8470045",
    "prefectureCode": "41",
    "prefectureNumber": 41,
    "prefecture": "佐賀県",
    "city": "唐津市",
    "town": "京町"
  },
  "8470046": {
    "zipcode": "8470046",
    "prefectureCode": "41",
    "prefectureNumber": 41,
    "prefecture": "佐賀県",
    "city": "唐津市",
    "town": "高砂町"
  },
  "8470047": {
    "zipcode": "8470047",
    "prefectureCode": "41",
    "prefectureNumber": 41,
    "prefecture": "佐賀県",
    "city": "唐津市",
    "town": "本町"
  },
  "8470051": {
    "zipcode": "8470051",
    "prefectureCode": "41",
    "prefectureNumber": 41,
    "prefecture": "佐賀県",
    "city": "唐津市",
    "town": "中町"
  },
  "8470052": {
    "zipcode": "8470052",
    "prefectureCode": "41",
    "prefectureNumber": 41,
    "prefecture": "佐賀県",
    "city": "唐津市",
    "town": "呉服町"
  },
  "8470053": {
    "zipcode": "8470053",
    "prefectureCode": "41",
    "prefectureNumber": 41,
    "prefecture": "佐賀県",
    "city": "唐津市",
    "town": "紺屋町"
  },
  "8470054": {
    "zipcode": "8470054",
    "prefectureCode": "41",
    "prefectureNumber": 41,
    "prefecture": "佐賀県",
    "city": "唐津市",
    "town": "米屋町"
  },
  "8470055": {
    "zipcode": "8470055",
    "prefectureCode": "41",
    "prefectureNumber": 41,
    "prefecture": "佐賀県",
    "city": "唐津市",
    "town": "刀町"
  },
  "8470056": {
    "zipcode": "8470056",
    "prefectureCode": "41",
    "prefectureNumber": 41,
    "prefecture": "佐賀県",
    "city": "唐津市",
    "town": "坊主町"
  },
  "8470061": {
    "zipcode": "8470061",
    "prefectureCode": "41",
    "prefectureNumber": 41,
    "prefecture": "佐賀県",
    "city": "唐津市",
    "town": "材木町"
  },
  "8470062": {
    "zipcode": "8470062",
    "prefectureCode": "41",
    "prefectureNumber": 41,
    "prefecture": "佐賀県",
    "city": "唐津市",
    "town": "船宮町"
  },
  "8470063": {
    "zipcode": "8470063",
    "prefectureCode": "41",
    "prefectureNumber": 41,
    "prefecture": "佐賀県",
    "city": "唐津市",
    "town": "東町"
  },
  "8470064": {
    "zipcode": "8470064",
    "prefectureCode": "41",
    "prefectureNumber": 41,
    "prefecture": "佐賀県",
    "city": "唐津市",
    "town": "元石町"
  },
  "8470065": {
    "zipcode": "8470065",
    "prefectureCode": "41",
    "prefectureNumber": 41,
    "prefecture": "佐賀県",
    "city": "唐津市",
    "town": "水主町"
  },
  "8470066": {
    "zipcode": "8470066",
    "prefectureCode": "41",
    "prefectureNumber": 41,
    "prefecture": "佐賀県",
    "city": "唐津市",
    "town": "大石町"
  },
  "8470067": {
    "zipcode": "8470067",
    "prefectureCode": "41",
    "prefectureNumber": 41,
    "prefecture": "佐賀県",
    "city": "唐津市",
    "town": "十人町"
  },
  "8470071": {
    "zipcode": "8470071",
    "prefectureCode": "41",
    "prefectureNumber": 41,
    "prefecture": "佐賀県",
    "city": "唐津市",
    "town": "和多田海士町"
  },
  "8470072": {
    "zipcode": "8470072",
    "prefectureCode": "41",
    "prefectureNumber": 41,
    "prefecture": "佐賀県",
    "city": "唐津市",
    "town": "和多田百人町"
  },
  "8470073": {
    "zipcode": "8470073",
    "prefectureCode": "41",
    "prefectureNumber": 41,
    "prefecture": "佐賀県",
    "city": "唐津市",
    "town": "和多田東百人町"
  },
  "8470074": {
    "zipcode": "8470074",
    "prefectureCode": "41",
    "prefectureNumber": 41,
    "prefecture": "佐賀県",
    "city": "唐津市",
    "town": "和多田先石"
  },
  "8470075": {
    "zipcode": "8470075",
    "prefectureCode": "41",
    "prefectureNumber": 41,
    "prefecture": "佐賀県",
    "city": "唐津市",
    "town": "和多田用尺"
  },
  "8470081": {
    "zipcode": "8470081",
    "prefectureCode": "41",
    "prefectureNumber": 41,
    "prefecture": "佐賀県",
    "city": "唐津市",
    "town": "和多田南先石"
  },
  "8470082": {
    "zipcode": "8470082",
    "prefectureCode": "41",
    "prefectureNumber": 41,
    "prefecture": "佐賀県",
    "city": "唐津市",
    "town": "和多田天満町"
  },
  "8470083": {
    "zipcode": "8470083",
    "prefectureCode": "41",
    "prefectureNumber": 41,
    "prefecture": "佐賀県",
    "city": "唐津市",
    "town": "和多田大土井"
  },
  "8470084": {
    "zipcode": "8470084",
    "prefectureCode": "41",
    "prefectureNumber": 41,
    "prefecture": "佐賀県",
    "city": "唐津市",
    "town": "和多田西山"
  },
  "8470085": {
    "zipcode": "8470085",
    "prefectureCode": "41",
    "prefectureNumber": 41,
    "prefecture": "佐賀県",
    "city": "唐津市",
    "town": "和多田本村"
  },
  "8470101": {
    "zipcode": "8470101",
    "prefectureCode": "41",
    "prefectureNumber": 41,
    "prefecture": "佐賀県",
    "city": "唐津市",
    "town": "中瀬通"
  },
  "8470102": {
    "zipcode": "8470102",
    "prefectureCode": "41",
    "prefectureNumber": 41,
    "prefecture": "佐賀県",
    "city": "唐津市",
    "town": "八幡町"
  },
  "8470103": {
    "zipcode": "8470103",
    "prefectureCode": "41",
    "prefectureNumber": 41,
    "prefecture": "佐賀県",
    "city": "唐津市",
    "town": "橋本町"
  },
  "8470104": {
    "zipcode": "8470104",
    "prefectureCode": "41",
    "prefectureNumber": 41,
    "prefecture": "佐賀県",
    "city": "唐津市",
    "town": "桜町"
  },
  "8470111": {
    "zipcode": "8470111",
    "prefectureCode": "41",
    "prefectureNumber": 41,
    "prefecture": "佐賀県",
    "city": "唐津市",
    "town": "佐志"
  },
  "8470112": {
    "zipcode": "8470112",
    "prefectureCode": "41",
    "prefectureNumber": 41,
    "prefecture": "佐賀県",
    "city": "唐津市",
    "town": "佐志南"
  },
  "8470113": {
    "zipcode": "8470113",
    "prefectureCode": "41",
    "prefectureNumber": 41,
    "prefecture": "佐賀県",
    "city": "唐津市",
    "town": "佐志中里"
  },
  "8470114": {
    "zipcode": "8470114",
    "prefectureCode": "41",
    "prefectureNumber": 41,
    "prefecture": "佐賀県",
    "city": "唐津市",
    "town": "佐志中通"
  },
  "8470115": {
    "zipcode": "8470115",
    "prefectureCode": "41",
    "prefectureNumber": 41,
    "prefecture": "佐賀県",
    "city": "唐津市",
    "town": "佐志浜町"
  },
  "8470121": {
    "zipcode": "8470121",
    "prefectureCode": "41",
    "prefectureNumber": 41,
    "prefecture": "佐賀県",
    "city": "唐津市",
    "town": "鳩川"
  },
  "8470122": {
    "zipcode": "8470122",
    "prefectureCode": "41",
    "prefectureNumber": 41,
    "prefecture": "佐賀県",
    "city": "唐津市",
    "town": "唐房"
  },
  "8470123": {
    "zipcode": "8470123",
    "prefectureCode": "41",
    "prefectureNumber": 41,
    "prefecture": "佐賀県",
    "city": "唐津市",
    "town": "枝去木"
  },
  "8470124": {
    "zipcode": "8470124",
    "prefectureCode": "41",
    "prefectureNumber": 41,
    "prefecture": "佐賀県",
    "city": "唐津市",
    "town": "浦"
  },
  "8470131": {
    "zipcode": "8470131",
    "prefectureCode": "41",
    "prefectureNumber": 41,
    "prefecture": "佐賀県",
    "city": "唐津市",
    "town": "神集島"
  },
  "8470132": {
    "zipcode": "8470132",
    "prefectureCode": "41",
    "prefectureNumber": 41,
    "prefecture": "佐賀県",
    "city": "唐津市",
    "town": "相賀"
  },
  "8470133": {
    "zipcode": "8470133",
    "prefectureCode": "41",
    "prefectureNumber": 41,
    "prefecture": "佐賀県",
    "city": "唐津市",
    "town": "湊町"
  },
  "8470134": {
    "zipcode": "8470134",
    "prefectureCode": "41",
    "prefectureNumber": 41,
    "prefecture": "佐賀県",
    "city": "唐津市",
    "town": "中里"
  },
  "8470135": {
    "zipcode": "8470135",
    "prefectureCode": "41",
    "prefectureNumber": 41,
    "prefecture": "佐賀県",
    "city": "唐津市",
    "town": "屋形石"
  },
  "8470136": {
    "zipcode": "8470136",
    "prefectureCode": "41",
    "prefectureNumber": 41,
    "prefecture": "佐賀県",
    "city": "唐津市",
    "town": "横野"
  },
  "8470301": {
    "zipcode": "8470301",
    "prefectureCode": "41",
    "prefectureNumber": 41,
    "prefecture": "佐賀県",
    "city": "唐津市",
    "town": "呼子町大友"
  },
  "8470302": {
    "zipcode": "8470302",
    "prefectureCode": "41",
    "prefectureNumber": 41,
    "prefecture": "佐賀県",
    "city": "唐津市",
    "town": "呼子町小友"
  },
  "8470303": {
    "zipcode": "8470303",
    "prefectureCode": "41",
    "prefectureNumber": 41,
    "prefecture": "佐賀県",
    "city": "唐津市",
    "town": "呼子町呼子"
  },
  "8470304": {
    "zipcode": "8470304",
    "prefectureCode": "41",
    "prefectureNumber": 41,
    "prefecture": "佐賀県",
    "city": "唐津市",
    "town": "呼子町殿ノ浦"
  },
  "8470305": {
    "zipcode": "8470305",
    "prefectureCode": "41",
    "prefectureNumber": 41,
    "prefecture": "佐賀県",
    "city": "唐津市",
    "town": "呼子町加部島"
  },
  "8470306": {
    "zipcode": "8470306",
    "prefectureCode": "41",
    "prefectureNumber": 41,
    "prefecture": "佐賀県",
    "city": "唐津市",
    "town": "呼子町小川島"
  },
  "8470311": {
    "zipcode": "8470311",
    "prefectureCode": "41",
    "prefectureNumber": 41,
    "prefecture": "佐賀県",
    "city": "唐津市",
    "town": "鎮西町丸田"
  },
  "8470312": {
    "zipcode": "8470312",
    "prefectureCode": "41",
    "prefectureNumber": 41,
    "prefecture": "佐賀県",
    "city": "唐津市",
    "town": "鎮西町赤木"
  },
  "8470313": {
    "zipcode": "8470313",
    "prefectureCode": "41",
    "prefectureNumber": 41,
    "prefecture": "佐賀県",
    "city": "唐津市",
    "town": "鎮西町塩鶴"
  },
  "8470314": {
    "zipcode": "8470314",
    "prefectureCode": "41",
    "prefectureNumber": 41,
    "prefecture": "佐賀県",
    "city": "唐津市",
    "town": "鎮西町菖蒲"
  },
  "8470315": {
    "zipcode": "8470315",
    "prefectureCode": "41",
    "prefectureNumber": 41,
    "prefecture": "佐賀県",
    "city": "唐津市",
    "town": "鎮西町八床"
  },
  "8470316": {
    "zipcode": "8470316",
    "prefectureCode": "41",
    "prefectureNumber": 41,
    "prefecture": "佐賀県",
    "city": "唐津市",
    "town": "鎮西町中野"
  },
  "8470317": {
    "zipcode": "8470317",
    "prefectureCode": "41",
    "prefectureNumber": 41,
    "prefecture": "佐賀県",
    "city": "唐津市",
    "town": "鎮西町加唐島"
  },
  "8470321": {
    "zipcode": "8470321",
    "prefectureCode": "41",
    "prefectureNumber": 41,
    "prefecture": "佐賀県",
    "city": "唐津市",
    "town": "鎮西町横竹"
  },
  "8470322": {
    "zipcode": "8470322",
    "prefectureCode": "41",
    "prefectureNumber": 41,
    "prefecture": "佐賀県",
    "city": "唐津市",
    "town": "鎮西町打上"
  },
  "8470323": {
    "zipcode": "8470323",
    "prefectureCode": "41",
    "prefectureNumber": 41,
    "prefecture": "佐賀県",
    "city": "唐津市",
    "town": "鎮西町岩野"
  },
  "8470324": {
    "zipcode": "8470324",
    "prefectureCode": "41",
    "prefectureNumber": 41,
    "prefecture": "佐賀県",
    "city": "唐津市",
    "town": "鎮西町高野"
  },
  "8470325": {
    "zipcode": "8470325",
    "prefectureCode": "41",
    "prefectureNumber": 41,
    "prefecture": "佐賀県",
    "city": "唐津市",
    "town": "鎮西町加倉"
  },
  "8470326": {
    "zipcode": "8470326",
    "prefectureCode": "41",
    "prefectureNumber": 41,
    "prefecture": "佐賀県",
    "city": "唐津市",
    "town": "鎮西町早田"
  },
  "8470327": {
    "zipcode": "8470327",
    "prefectureCode": "41",
    "prefectureNumber": 41,
    "prefecture": "佐賀県",
    "city": "唐津市",
    "town": "鎮西町石室"
  },
  "8470401": {
    "zipcode": "8470401",
    "prefectureCode": "41",
    "prefectureNumber": 41,
    "prefecture": "佐賀県",
    "city": "唐津市",
    "town": "鎮西町名護屋"
  },
  "8470402": {
    "zipcode": "8470402",
    "prefectureCode": "41",
    "prefectureNumber": 41,
    "prefecture": "佐賀県",
    "city": "唐津市",
    "town": "鎮西町野元"
  },
  "8470403": {
    "zipcode": "8470403",
    "prefectureCode": "41",
    "prefectureNumber": 41,
    "prefecture": "佐賀県",
    "city": "唐津市",
    "town": "鎮西町串"
  },
  "8470404": {
    "zipcode": "8470404",
    "prefectureCode": "41",
    "prefectureNumber": 41,
    "prefecture": "佐賀県",
    "city": "唐津市",
    "town": "鎮西町波戸"
  },
  "8470405": {
    "zipcode": "8470405",
    "prefectureCode": "41",
    "prefectureNumber": 41,
    "prefecture": "佐賀県",
    "city": "唐津市",
    "town": "鎮西町馬渡島"
  },
  "8470406": {
    "zipcode": "8470406",
    "prefectureCode": "41",
    "prefectureNumber": 41,
    "prefecture": "佐賀県",
    "city": "唐津市",
    "town": "鎮西町松島"
  },
  "8470801": {
    "zipcode": "8470801",
    "prefectureCode": "41",
    "prefectureNumber": 41,
    "prefecture": "佐賀県",
    "city": "唐津市",
    "town": "東山"
  },
  "8470802": {
    "zipcode": "8470802",
    "prefectureCode": "41",
    "prefectureNumber": 41,
    "prefecture": "佐賀県",
    "city": "唐津市",
    "town": "梨川内"
  },
  "8470803": {
    "zipcode": "8470803",
    "prefectureCode": "41",
    "prefectureNumber": 41,
    "prefecture": "佐賀県",
    "city": "唐津市",
    "town": "大良"
  },
  "8470804": {
    "zipcode": "8470804",
    "prefectureCode": "41",
    "prefectureNumber": 41,
    "prefecture": "佐賀県",
    "city": "唐津市",
    "town": "後川内"
  },
  "8470811": {
    "zipcode": "8470811",
    "prefectureCode": "41",
    "prefectureNumber": 41,
    "prefecture": "佐賀県",
    "city": "唐津市",
    "town": "八百屋町"
  },
  "8470812": {
    "zipcode": "8470812",
    "prefectureCode": "41",
    "prefectureNumber": 41,
    "prefecture": "佐賀県",
    "city": "唐津市",
    "town": "平野町"
  },
  "8470813": {
    "zipcode": "8470813",
    "prefectureCode": "41",
    "prefectureNumber": 41,
    "prefecture": "佐賀県",
    "city": "唐津市",
    "town": "新町"
  },
  "8470814": {
    "zipcode": "8470814",
    "prefectureCode": "41",
    "prefectureNumber": 41,
    "prefecture": "佐賀県",
    "city": "唐津市",
    "town": "弓鷹町"
  },
  "8470815": {
    "zipcode": "8470815",
    "prefectureCode": "41",
    "prefectureNumber": 41,
    "prefecture": "佐賀県",
    "city": "唐津市",
    "town": "西寺町"
  },
  "8470816": {
    "zipcode": "8470816",
    "prefectureCode": "41",
    "prefectureNumber": 41,
    "prefecture": "佐賀県",
    "city": "唐津市",
    "town": "新興町（西新興町）"
  },
  "8470817": {
    "zipcode": "8470817",
    "prefectureCode": "41",
    "prefectureNumber": 41,
    "prefecture": "佐賀県",
    "city": "唐津市",
    "town": "熊原町"
  },
  "8470821": {
    "zipcode": "8470821",
    "prefectureCode": "41",
    "prefectureNumber": 41,
    "prefecture": "佐賀県",
    "city": "唐津市",
    "town": "町田"
  },
  "8470822": {
    "zipcode": "8470822",
    "prefectureCode": "41",
    "prefectureNumber": 41,
    "prefecture": "佐賀県",
    "city": "唐津市",
    "town": "長谷"
  },
  "8470823": {
    "zipcode": "8470823",
    "prefectureCode": "41",
    "prefectureNumber": 41,
    "prefecture": "佐賀県",
    "city": "唐津市",
    "town": "旭が丘"
  },
  "8470824": {
    "zipcode": "8470824",
    "prefectureCode": "41",
    "prefectureNumber": 41,
    "prefecture": "佐賀県",
    "city": "唐津市",
    "town": "神田"
  },
  "8470825": {
    "zipcode": "8470825",
    "prefectureCode": "41",
    "prefectureNumber": 41,
    "prefecture": "佐賀県",
    "city": "唐津市",
    "town": "見借"
  },
  "8470831": {
    "zipcode": "8470831",
    "prefectureCode": "41",
    "prefectureNumber": 41,
    "prefecture": "佐賀県",
    "city": "唐津市",
    "town": "千々賀"
  },
  "8470832": {
    "zipcode": "8470832",
    "prefectureCode": "41",
    "prefectureNumber": 41,
    "prefecture": "佐賀県",
    "city": "唐津市",
    "town": "石志"
  },
  "8470833": {
    "zipcode": "8470833",
    "prefectureCode": "41",
    "prefectureNumber": 41,
    "prefecture": "佐賀県",
    "city": "唐津市",
    "town": "畑島"
  },
  "8470834": {
    "zipcode": "8470834",
    "prefectureCode": "41",
    "prefectureNumber": 41,
    "prefecture": "佐賀県",
    "city": "唐津市",
    "town": "山田"
  },
  "8470841": {
    "zipcode": "8470841",
    "prefectureCode": "41",
    "prefectureNumber": 41,
    "prefecture": "佐賀県",
    "city": "唐津市",
    "town": "朝日町"
  },
  "8470842": {
    "zipcode": "8470842",
    "prefectureCode": "41",
    "prefectureNumber": 41,
    "prefecture": "佐賀県",
    "city": "唐津市",
    "town": "山下町"
  },
  "8470843": {
    "zipcode": "8470843",
    "prefectureCode": "41",
    "prefectureNumber": 41,
    "prefecture": "佐賀県",
    "city": "唐津市",
    "town": "桜馬場"
  },
  "8470844": {
    "zipcode": "8470844",
    "prefectureCode": "41",
    "prefectureNumber": 41,
    "prefecture": "佐賀県",
    "city": "唐津市",
    "town": "菜畑"
  },
  "8470851": {
    "zipcode": "8470851",
    "prefectureCode": "41",
    "prefectureNumber": 41,
    "prefecture": "佐賀県",
    "city": "唐津市",
    "town": "富士見町"
  },
  "8470852": {
    "zipcode": "8470852",
    "prefectureCode": "41",
    "prefectureNumber": 41,
    "prefecture": "佐賀県",
    "city": "唐津市",
    "town": "元旗町"
  },
  "8470853": {
    "zipcode": "8470853",
    "prefectureCode": "41",
    "prefectureNumber": 41,
    "prefecture": "佐賀県",
    "city": "唐津市",
    "town": "江川町"
  },
  "8470854": {
    "zipcode": "8470854",
    "prefectureCode": "41",
    "prefectureNumber": 41,
    "prefecture": "佐賀県",
    "city": "唐津市",
    "town": "西旗町"
  },
  "8470855": {
    "zipcode": "8470855",
    "prefectureCode": "41",
    "prefectureNumber": 41,
    "prefecture": "佐賀県",
    "city": "唐津市",
    "town": "西浜町"
  },
  "8470861": {
    "zipcode": "8470861",
    "prefectureCode": "41",
    "prefectureNumber": 41,
    "prefecture": "佐賀県",
    "city": "唐津市",
    "town": "二タ子"
  },
  "8470862": {
    "zipcode": "8470862",
    "prefectureCode": "41",
    "prefectureNumber": 41,
    "prefecture": "佐賀県",
    "city": "唐津市",
    "town": "中山町"
  },
  "8470863": {
    "zipcode": "8470863",
    "prefectureCode": "41",
    "prefectureNumber": 41,
    "prefecture": "佐賀県",
    "city": "唐津市",
    "town": "妙見町"
  },
  "8470871": {
    "zipcode": "8470871",
    "prefectureCode": "41",
    "prefectureNumber": 41,
    "prefecture": "佐賀県",
    "city": "唐津市",
    "town": "東大島町"
  },
  "8470872": {
    "zipcode": "8470872",
    "prefectureCode": "41",
    "prefectureNumber": 41,
    "prefecture": "佐賀県",
    "city": "唐津市",
    "town": "西大島町"
  },
  "8470873": {
    "zipcode": "8470873",
    "prefectureCode": "41",
    "prefectureNumber": 41,
    "prefecture": "佐賀県",
    "city": "唐津市",
    "town": "海岸通"
  },
  "8470874": {
    "zipcode": "8470874",
    "prefectureCode": "41",
    "prefectureNumber": 41,
    "prefecture": "佐賀県",
    "city": "唐津市",
    "town": "藤崎通"
  },
  "8470875": {
    "zipcode": "8470875",
    "prefectureCode": "41",
    "prefectureNumber": 41,
    "prefecture": "佐賀県",
    "city": "唐津市",
    "town": "西唐津"
  },
  "8470876": {
    "zipcode": "8470876",
    "prefectureCode": "41",
    "prefectureNumber": 41,
    "prefecture": "佐賀県",
    "city": "唐津市",
    "town": "南富士見町"
  },
  "8470881": {
    "zipcode": "8470881",
    "prefectureCode": "41",
    "prefectureNumber": 41,
    "prefecture": "佐賀県",
    "city": "唐津市",
    "town": "竹木場"
  },
  "8470882": {
    "zipcode": "8470882",
    "prefectureCode": "41",
    "prefectureNumber": 41,
    "prefecture": "佐賀県",
    "city": "唐津市",
    "town": "菅牟田"
  },
  "8470883": {
    "zipcode": "8470883",
    "prefectureCode": "41",
    "prefectureNumber": 41,
    "prefecture": "佐賀県",
    "city": "唐津市",
    "town": "重河内"
  },
  "8470884": {
    "zipcode": "8470884",
    "prefectureCode": "41",
    "prefectureNumber": 41,
    "prefecture": "佐賀県",
    "city": "唐津市",
    "town": "熊ノ峰"
  },
  "8470885": {
    "zipcode": "8470885",
    "prefectureCode": "41",
    "prefectureNumber": 41,
    "prefecture": "佐賀県",
    "city": "唐津市",
    "town": "唐川"
  },
  "8471101": {
    "zipcode": "8471101",
    "prefectureCode": "41",
    "prefectureNumber": 41,
    "prefecture": "佐賀県",
    "city": "唐津市",
    "town": "七山荒川"
  },
  "8471102": {
    "zipcode": "8471102",
    "prefectureCode": "41",
    "prefectureNumber": 41,
    "prefecture": "佐賀県",
    "city": "唐津市",
    "town": "七山馬川"
  },
  "8471103": {
    "zipcode": "8471103",
    "prefectureCode": "41",
    "prefectureNumber": 41,
    "prefecture": "佐賀県",
    "city": "唐津市",
    "town": "七山池原"
  },
  "8471104": {
    "zipcode": "8471104",
    "prefectureCode": "41",
    "prefectureNumber": 41,
    "prefecture": "佐賀県",
    "city": "唐津市",
    "town": "七山木浦"
  },
  "8471105": {
    "zipcode": "8471105",
    "prefectureCode": "41",
    "prefectureNumber": 41,
    "prefecture": "佐賀県",
    "city": "唐津市",
    "town": "七山仁部"
  },
  "8471106": {
    "zipcode": "8471106",
    "prefectureCode": "41",
    "prefectureNumber": 41,
    "prefecture": "佐賀県",
    "city": "唐津市",
    "town": "七山滝川"
  },
  "8471107": {
    "zipcode": "8471107",
    "prefectureCode": "41",
    "prefectureNumber": 41,
    "prefecture": "佐賀県",
    "city": "唐津市",
    "town": "七山藤川"
  },
  "8471108": {
    "zipcode": "8471108",
    "prefectureCode": "41",
    "prefectureNumber": 41,
    "prefecture": "佐賀県",
    "city": "唐津市",
    "town": "七山白木"
  },
  "8471201": {
    "zipcode": "8471201",
    "prefectureCode": "41",
    "prefectureNumber": 41,
    "prefecture": "佐賀県",
    "city": "唐津市",
    "town": "北波多徳須恵"
  },
  "8471202": {
    "zipcode": "8471202",
    "prefectureCode": "41",
    "prefectureNumber": 41,
    "prefecture": "佐賀県",
    "city": "唐津市",
    "town": "北波多田中"
  },
  "8471203": {
    "zipcode": "8471203",
    "prefectureCode": "41",
    "prefectureNumber": 41,
    "prefecture": "佐賀県",
    "city": "唐津市",
    "town": "北波多山彦"
  },
  "8471211": {
    "zipcode": "8471211",
    "prefectureCode": "41",
    "prefectureNumber": 41,
    "prefecture": "佐賀県",
    "city": "唐津市",
    "town": "北波多岸山"
  },
  "8471212": {
    "zipcode": "8471212",
    "prefectureCode": "41",
    "prefectureNumber": 41,
    "prefecture": "佐賀県",
    "city": "唐津市",
    "town": "北波多大杉"
  },
  "8471213": {
    "zipcode": "8471213",
    "prefectureCode": "41",
    "prefectureNumber": 41,
    "prefecture": "佐賀県",
    "city": "唐津市",
    "town": "北波多竹有"
  },
  "8471214": {
    "zipcode": "8471214",
    "prefectureCode": "41",
    "prefectureNumber": 41,
    "prefecture": "佐賀県",
    "city": "唐津市",
    "town": "北波多稗田"
  },
  "8471221": {
    "zipcode": "8471221",
    "prefectureCode": "41",
    "prefectureNumber": 41,
    "prefecture": "佐賀県",
    "city": "唐津市",
    "town": "北波多上平野"
  },
  "8471222": {
    "zipcode": "8471222",
    "prefectureCode": "41",
    "prefectureNumber": 41,
    "prefecture": "佐賀県",
    "city": "唐津市",
    "town": "北波多成渕"
  },
  "8471223": {
    "zipcode": "8471223",
    "prefectureCode": "41",
    "prefectureNumber": 41,
    "prefecture": "佐賀県",
    "city": "唐津市",
    "town": "北波多下平野"
  },
  "8471224": {
    "zipcode": "8471224",
    "prefectureCode": "41",
    "prefectureNumber": 41,
    "prefecture": "佐賀県",
    "city": "唐津市",
    "town": "北波多行合野"
  },
  "8471225": {
    "zipcode": "8471225",
    "prefectureCode": "41",
    "prefectureNumber": 41,
    "prefecture": "佐賀県",
    "city": "唐津市",
    "town": "北波多志気"
  },
  "8471400": {
    "zipcode": "8471400",
    "prefectureCode": "41",
    "prefectureNumber": 41,
    "prefecture": "佐賀県",
    "city": "東松浦郡玄海町",
    "town": "以下に掲載がない場合"
  },
  "8471401": {
    "zipcode": "8471401",
    "prefectureCode": "41",
    "prefectureNumber": 41,
    "prefecture": "佐賀県",
    "city": "東松浦郡玄海町",
    "town": "小加倉"
  },
  "8471402": {
    "zipcode": "8471402",
    "prefectureCode": "41",
    "prefectureNumber": 41,
    "prefecture": "佐賀県",
    "city": "東松浦郡玄海町",
    "town": "有浦下"
  },
  "8471403": {
    "zipcode": "8471403",
    "prefectureCode": "41",
    "prefectureNumber": 41,
    "prefecture": "佐賀県",
    "city": "東松浦郡玄海町",
    "town": "有浦上"
  },
  "8471404": {
    "zipcode": "8471404",
    "prefectureCode": "41",
    "prefectureNumber": 41,
    "prefecture": "佐賀県",
    "city": "東松浦郡玄海町",
    "town": "長倉"
  },
  "8471405": {
    "zipcode": "8471405",
    "prefectureCode": "41",
    "prefectureNumber": 41,
    "prefecture": "佐賀県",
    "city": "東松浦郡玄海町",
    "town": "藤平"
  },
  "8471411": {
    "zipcode": "8471411",
    "prefectureCode": "41",
    "prefectureNumber": 41,
    "prefecture": "佐賀県",
    "city": "東松浦郡玄海町",
    "town": "轟木"
  },
  "8471412": {
    "zipcode": "8471412",
    "prefectureCode": "41",
    "prefectureNumber": 41,
    "prefecture": "佐賀県",
    "city": "東松浦郡玄海町",
    "town": "田代"
  },
  "8471413": {
    "zipcode": "8471413",
    "prefectureCode": "41",
    "prefectureNumber": 41,
    "prefecture": "佐賀県",
    "city": "東松浦郡玄海町",
    "town": "大鳥"
  },
  "8471414": {
    "zipcode": "8471414",
    "prefectureCode": "41",
    "prefectureNumber": 41,
    "prefecture": "佐賀県",
    "city": "東松浦郡玄海町",
    "town": "湯野尾"
  },
  "8471415": {
    "zipcode": "8471415",
    "prefectureCode": "41",
    "prefectureNumber": 41,
    "prefecture": "佐賀県",
    "city": "東松浦郡玄海町",
    "town": "座川内"
  },
  "8471416": {
    "zipcode": "8471416",
    "prefectureCode": "41",
    "prefectureNumber": 41,
    "prefecture": "佐賀県",
    "city": "東松浦郡玄海町",
    "town": "牟形"
  },
  "8471421": {
    "zipcode": "8471421",
    "prefectureCode": "41",
    "prefectureNumber": 41,
    "prefecture": "佐賀県",
    "city": "東松浦郡玄海町",
    "town": "諸浦"
  },
  "8471422": {
    "zipcode": "8471422",
    "prefectureCode": "41",
    "prefectureNumber": 41,
    "prefecture": "佐賀県",
    "city": "東松浦郡玄海町",
    "town": "新田"
  },
  "8471423": {
    "zipcode": "8471423",
    "prefectureCode": "41",
    "prefectureNumber": 41,
    "prefecture": "佐賀県",
    "city": "東松浦郡玄海町",
    "town": "石田"
  },
  "8471424": {
    "zipcode": "8471424",
    "prefectureCode": "41",
    "prefectureNumber": 41,
    "prefecture": "佐賀県",
    "city": "東松浦郡玄海町",
    "town": "栄"
  },
  "8471425": {
    "zipcode": "8471425",
    "prefectureCode": "41",
    "prefectureNumber": 41,
    "prefecture": "佐賀県",
    "city": "東松浦郡玄海町",
    "town": "花の木"
  },
  "8471431": {
    "zipcode": "8471431",
    "prefectureCode": "41",
    "prefectureNumber": 41,
    "prefecture": "佐賀県",
    "city": "東松浦郡玄海町",
    "town": "普恩寺"
  },
  "8471432": {
    "zipcode": "8471432",
    "prefectureCode": "41",
    "prefectureNumber": 41,
    "prefecture": "佐賀県",
    "city": "東松浦郡玄海町",
    "town": "平尾"
  },
  "8471433": {
    "zipcode": "8471433",
    "prefectureCode": "41",
    "prefectureNumber": 41,
    "prefecture": "佐賀県",
    "city": "東松浦郡玄海町",
    "town": "浜野浦"
  },
  "8471434": {
    "zipcode": "8471434",
    "prefectureCode": "41",
    "prefectureNumber": 41,
    "prefecture": "佐賀県",
    "city": "東松浦郡玄海町",
    "town": "大薗"
  },
  "8471435": {
    "zipcode": "8471435",
    "prefectureCode": "41",
    "prefectureNumber": 41,
    "prefecture": "佐賀県",
    "city": "東松浦郡玄海町",
    "town": "仮屋"
  },
  "8471441": {
    "zipcode": "8471441",
    "prefectureCode": "41",
    "prefectureNumber": 41,
    "prefecture": "佐賀県",
    "city": "東松浦郡玄海町",
    "town": "今村"
  },
  "8471442": {
    "zipcode": "8471442",
    "prefectureCode": "41",
    "prefectureNumber": 41,
    "prefecture": "佐賀県",
    "city": "東松浦郡玄海町",
    "town": "値賀川内"
  },
  "8471443": {
    "zipcode": "8471443",
    "prefectureCode": "41",
    "prefectureNumber": 41,
    "prefecture": "佐賀県",
    "city": "東松浦郡玄海町",
    "town": "仮立"
  },
  "8471444": {
    "zipcode": "8471444",
    "prefectureCode": "41",
    "prefectureNumber": 41,
    "prefecture": "佐賀県",
    "city": "東松浦郡玄海町",
    "town": "中通"
  },
  "8471445": {
    "zipcode": "8471445",
    "prefectureCode": "41",
    "prefectureNumber": 41,
    "prefecture": "佐賀県",
    "city": "東松浦郡玄海町",
    "town": "下宮"
  },
  "8471446": {
    "zipcode": "8471446",
    "prefectureCode": "41",
    "prefectureNumber": 41,
    "prefecture": "佐賀県",
    "city": "東松浦郡玄海町",
    "town": "外津"
  },
  "8471501": {
    "zipcode": "8471501",
    "prefectureCode": "41",
    "prefectureNumber": 41,
    "prefecture": "佐賀県",
    "city": "唐津市",
    "town": "肥前町切木"
  },
  "8471502": {
    "zipcode": "8471502",
    "prefectureCode": "41",
    "prefectureNumber": 41,
    "prefecture": "佐賀県",
    "city": "唐津市",
    "town": "肥前町赤坂"
  },
  "8471503": {
    "zipcode": "8471503",
    "prefectureCode": "41",
    "prefectureNumber": 41,
    "prefecture": "佐賀県",
    "city": "唐津市",
    "town": "肥前町湯野浦"
  },
  "8471504": {
    "zipcode": "8471504",
    "prefectureCode": "41",
    "prefectureNumber": 41,
    "prefecture": "佐賀県",
    "city": "唐津市",
    "town": "肥前町中浦"
  },
  "8471505": {
    "zipcode": "8471505",
    "prefectureCode": "41",
    "prefectureNumber": 41,
    "prefecture": "佐賀県",
    "city": "唐津市",
    "town": "肥前町杉野浦"
  },
  "8471506": {
    "zipcode": "8471506",
    "prefectureCode": "41",
    "prefectureNumber": 41,
    "prefecture": "佐賀県",
    "city": "唐津市",
    "town": "肥前町大浦"
  },
  "8471507": {
    "zipcode": "8471507",
    "prefectureCode": "41",
    "prefectureNumber": 41,
    "prefecture": "佐賀県",
    "city": "唐津市",
    "town": "肥前町満越"
  },
  "8471511": {
    "zipcode": "8471511",
    "prefectureCode": "41",
    "prefectureNumber": 41,
    "prefecture": "佐賀県",
    "city": "唐津市",
    "town": "肥前町新木場"
  },
  "8471512": {
    "zipcode": "8471512",
    "prefectureCode": "41",
    "prefectureNumber": 41,
    "prefecture": "佐賀県",
    "city": "唐津市",
    "town": "肥前町梅崎"
  },
  "8471513": {
    "zipcode": "8471513",
    "prefectureCode": "41",
    "prefectureNumber": 41,
    "prefecture": "佐賀県",
    "city": "唐津市",
    "town": "肥前町寺浦"
  },
  "8471514": {
    "zipcode": "8471514",
    "prefectureCode": "41",
    "prefectureNumber": 41,
    "prefecture": "佐賀県",
    "city": "唐津市",
    "town": "肥前町仁田野尾"
  },
  "8471515": {
    "zipcode": "8471515",
    "prefectureCode": "41",
    "prefectureNumber": 41,
    "prefecture": "佐賀県",
    "city": "唐津市",
    "town": "肥前町万賀里川"
  },
  "8471516": {
    "zipcode": "8471516",
    "prefectureCode": "41",
    "prefectureNumber": 41,
    "prefecture": "佐賀県",
    "city": "唐津市",
    "town": "肥前町瓜ケ坂"
  },
  "8471517": {
    "zipcode": "8471517",
    "prefectureCode": "41",
    "prefectureNumber": 41,
    "prefecture": "佐賀県",
    "city": "唐津市",
    "town": "肥前町上ケ倉"
  },
  "8471521": {
    "zipcode": "8471521",
    "prefectureCode": "41",
    "prefectureNumber": 41,
    "prefecture": "佐賀県",
    "city": "唐津市",
    "town": "肥前町田野"
  },
  "8471522": {
    "zipcode": "8471522",
    "prefectureCode": "41",
    "prefectureNumber": 41,
    "prefecture": "佐賀県",
    "city": "唐津市",
    "town": "肥前町犬頭"
  },
  "8471523": {
    "zipcode": "8471523",
    "prefectureCode": "41",
    "prefectureNumber": 41,
    "prefecture": "佐賀県",
    "city": "唐津市",
    "town": "肥前町星賀"
  },
  "8471524": {
    "zipcode": "8471524",
    "prefectureCode": "41",
    "prefectureNumber": 41,
    "prefecture": "佐賀県",
    "city": "唐津市",
    "town": "肥前町向島"
  },
  "8471525": {
    "zipcode": "8471525",
    "prefectureCode": "41",
    "prefectureNumber": 41,
    "prefecture": "佐賀県",
    "city": "唐津市",
    "town": "肥前町納所"
  },
  "8471526": {
    "zipcode": "8471526",
    "prefectureCode": "41",
    "prefectureNumber": 41,
    "prefecture": "佐賀県",
    "city": "唐津市",
    "town": "肥前町入野"
  },
  "8471527": {
    "zipcode": "8471527",
    "prefectureCode": "41",
    "prefectureNumber": 41,
    "prefecture": "佐賀県",
    "city": "唐津市",
    "town": "肥前町鶴牧"
  }
}
