{
  "8480000": {
    "zipcode": "8480000",
    "prefectureCode": "41",
    "prefectureNumber": 41,
    "prefecture": "佐賀県",
    "city": "伊万里市",
    "town": "以下に掲載がない場合"
  },
  "8480001": {
    "zipcode": "8480001",
    "prefectureCode": "41",
    "prefectureNumber": 41,
    "prefecture": "佐賀県",
    "city": "伊万里市",
    "town": "南波多町重橋"
  },
  "8480002": {
    "zipcode": "8480002",
    "prefectureCode": "41",
    "prefectureNumber": 41,
    "prefecture": "佐賀県",
    "city": "伊万里市",
    "town": "南波多町谷口"
  },
  "8480003": {
    "zipcode": "8480003",
    "prefectureCode": "41",
    "prefectureNumber": 41,
    "prefecture": "佐賀県",
    "city": "伊万里市",
    "town": "南波多町古里"
  },
  "8480004": {
    "zipcode": "8480004",
    "prefectureCode": "41",
    "prefectureNumber": 41,
    "prefecture": "佐賀県",
    "city": "伊万里市",
    "town": "南波多町水留"
  },
  "8480005": {
    "zipcode": "8480005",
    "prefectureCode": "41",
    "prefectureNumber": 41,
    "prefecture": "佐賀県",
    "city": "伊万里市",
    "town": "南波多町大曲"
  },
  "8480006": {
    "zipcode": "8480006",
    "prefectureCode": "41",
    "prefectureNumber": 41,
    "prefecture": "佐賀県",
    "city": "伊万里市",
    "town": "南波多町高瀬"
  },
  "8480007": {
    "zipcode": "8480007",
    "prefectureCode": "41",
    "prefectureNumber": 41,
    "prefecture": "佐賀県",
    "city": "伊万里市",
    "town": "南波多町井手野"
  },
  "8480011": {
    "zipcode": "8480011",
    "prefectureCode": "41",
    "prefectureNumber": 41,
    "prefecture": "佐賀県",
    "city": "伊万里市",
    "town": "南波多町大川原"
  },
  "8480012": {
    "zipcode": "8480012",
    "prefectureCode": "41",
    "prefectureNumber": 41,
    "prefecture": "佐賀県",
    "city": "伊万里市",
    "town": "南波多町古川"
  },
  "8480013": {
    "zipcode": "8480013",
    "prefectureCode": "41",
    "prefectureNumber": 41,
    "prefecture": "佐賀県",
    "city": "伊万里市",
    "town": "南波多町笠椎"
  },
  "8480014": {
    "zipcode": "8480014",
    "prefectureCode": "41",
    "prefectureNumber": 41,
    "prefecture": "佐賀県",
    "city": "伊万里市",
    "town": "南波多町小麦原"
  },
  "8480015": {
    "zipcode": "8480015",
    "prefectureCode": "41",
    "prefectureNumber": 41,
    "prefecture": "佐賀県",
    "city": "伊万里市",
    "town": "南波多町府招"
  },
  "8480016": {
    "zipcode": "8480016",
    "prefectureCode": "41",
    "prefectureNumber": 41,
    "prefecture": "佐賀県",
    "city": "伊万里市",
    "town": "南波多町原屋敷"
  },
  "8480021": {
    "zipcode": "8480021",
    "prefectureCode": "41",
    "prefectureNumber": 41,
    "prefecture": "佐賀県",
    "city": "伊万里市",
    "town": "大坪町甲"
  },
  "8480022": {
    "zipcode": "8480022",
    "prefectureCode": "41",
    "prefectureNumber": 41,
    "prefecture": "佐賀県",
    "city": "伊万里市",
    "town": "大坪町乙"
  },
  "8480023": {
    "zipcode": "8480023",
    "prefectureCode": "41",
    "prefectureNumber": 41,
    "prefecture": "佐賀県",
    "city": "伊万里市",
    "town": "大坪町丙"
  },
  "8480024": {
    "zipcode": "8480024",
    "prefectureCode": "41",
    "prefectureNumber": 41,
    "prefecture": "佐賀県",
    "city": "伊万里市",
    "town": "大川内町甲"
  },
  "8480025": {
    "zipcode": "8480025",
    "prefectureCode": "41",
    "prefectureNumber": 41,
    "prefecture": "佐賀県",
    "city": "伊万里市",
    "town": "大川内町乙"
  },
  "8480026": {
    "zipcode": "8480026",
    "prefectureCode": "41",
    "prefectureNumber": 41,
    "prefecture": "佐賀県",
    "city": "伊万里市",
    "town": "大川内町丙"
  },
  "8480027": {
    "zipcode": "8480027",
    "prefectureCode": "41",
    "prefectureNumber": 41,
    "prefecture": "佐賀県",
    "city": "伊万里市",
    "town": "立花町"
  },
  "8480028": {
    "zipcode": "8480028",
    "prefectureCode": "41",
    "prefectureNumber": 41,
    "prefecture": "佐賀県",
    "city": "伊万里市",
    "town": "脇田町"
  },
  "8480031": {
    "zipcode": "8480031",
    "prefectureCode": "41",
    "prefectureNumber": 41,
    "prefecture": "佐賀県",
    "city": "伊万里市",
    "town": "二里町八谷搦"
  },
  "8480032": {
    "zipcode": "8480032",
    "prefectureCode": "41",
    "prefectureNumber": 41,
    "prefecture": "佐賀県",
    "city": "伊万里市",
    "town": "二里町大里甲"
  },
  "8480033": {
    "zipcode": "8480033",
    "prefectureCode": "41",
    "prefectureNumber": 41,
    "prefecture": "佐賀県",
    "city": "伊万里市",
    "town": "二里町中里乙"
  },
  "8480034": {
    "zipcode": "8480034",
    "prefectureCode": "41",
    "prefectureNumber": 41,
    "prefecture": "佐賀県",
    "city": "伊万里市",
    "town": "二里町中里甲"
  },
  "8480035": {
    "zipcode": "8480035",
    "prefectureCode": "41",
    "prefectureNumber": 41,
    "prefecture": "佐賀県",
    "city": "伊万里市",
    "town": "二里町大里乙"
  },
  "8480041": {
    "zipcode": "8480041",
    "prefectureCode": "41",
    "prefectureNumber": 41,
    "prefecture": "佐賀県",
    "city": "伊万里市",
    "town": "新天町"
  },
  "8480042": {
    "zipcode": "8480042",
    "prefectureCode": "41",
    "prefectureNumber": 41,
    "prefecture": "佐賀県",
    "city": "伊万里市",
    "town": "蓮池町"
  },
  "8480043": {
    "zipcode": "8480043",
    "prefectureCode": "41",
    "prefectureNumber": 41,
    "prefecture": "佐賀県",
    "city": "伊万里市",
    "town": "瀬戸町"
  },
  "8480044": {
    "zipcode": "8480044",
    "prefectureCode": "41",
    "prefectureNumber": 41,
    "prefecture": "佐賀県",
    "city": "伊万里市",
    "town": "木須町"
  },
  "8480045": {
    "zipcode": "8480045",
    "prefectureCode": "41",
    "prefectureNumber": 41,
    "prefecture": "佐賀県",
    "city": "伊万里市",
    "town": "松島町"
  },
  "8480046": {
    "zipcode": "8480046",
    "prefectureCode": "41",
    "prefectureNumber": 41,
    "prefecture": "佐賀県",
    "city": "伊万里市",
    "town": "伊万里町乙"
  },
  "8480047": {
    "zipcode": "8480047",
    "prefectureCode": "41",
    "prefectureNumber": 41,
    "prefecture": "佐賀県",
    "city": "伊万里市",
    "town": "伊万里町甲"
  },
  "8480101": {
    "zipcode": "8480101",
    "prefectureCode": "41",
    "prefectureNumber": 41,
    "prefecture": "佐賀県",
    "city": "伊万里市",
    "town": "波多津町辻"
  },
  "8480102": {
    "zipcode": "8480102",
    "prefectureCode": "41",
    "prefectureNumber": 41,
    "prefecture": "佐賀県",
    "city": "伊万里市",
    "town": "波多津町畑津"
  },
  "8480103": {
    "zipcode": "8480103",
    "prefectureCode": "41",
    "prefectureNumber": 41,
    "prefecture": "佐賀県",
    "city": "伊万里市",
    "town": "波多津町内野"
  },
  "8480104": {
    "zipcode": "8480104",
    "prefectureCode": "41",
    "prefectureNumber": 41,
    "prefecture": "佐賀県",
    "city": "伊万里市",
    "town": "波多津町煤屋"
  },
  "8480105": {
    "zipcode": "8480105",
    "prefectureCode": "41",
    "prefectureNumber": 41,
    "prefecture": "佐賀県",
    "city": "伊万里市",
    "town": "波多津町馬蛤潟"
  },
  "8480111": {
    "zipcode": "8480111",
    "prefectureCode": "41",
    "prefectureNumber": 41,
    "prefecture": "佐賀県",
    "city": "伊万里市",
    "town": "波多津町木場"
  },
  "8480112": {
    "zipcode": "8480112",
    "prefectureCode": "41",
    "prefectureNumber": 41,
    "prefecture": "佐賀県",
    "city": "伊万里市",
    "town": "波多津町田代"
  },
  "8480113": {
    "zipcode": "8480113",
    "prefectureCode": "41",
    "prefectureNumber": 41,
    "prefecture": "佐賀県",
    "city": "伊万里市",
    "town": "波多津町板木"
  },
  "8480114": {
    "zipcode": "8480114",
    "prefectureCode": "41",
    "prefectureNumber": 41,
    "prefecture": "佐賀県",
    "city": "伊万里市",
    "town": "波多津町津留主屋"
  },
  "8480115": {
    "zipcode": "8480115",
    "prefectureCode": "41",
    "prefectureNumber": 41,
    "prefecture": "佐賀県",
    "city": "伊万里市",
    "town": "波多津町中山"
  },
  "8480116": {
    "zipcode": "8480116",
    "prefectureCode": "41",
    "prefectureNumber": 41,
    "prefecture": "佐賀県",
    "city": "伊万里市",
    "town": "波多津町井野尾"
  },
  "8480117": {
    "zipcode": "8480117",
    "prefectureCode": "41",
    "prefectureNumber": 41,
    "prefecture": "佐賀県",
    "city": "伊万里市",
    "town": "波多津町筒井"
  },
  "8480121": {
    "zipcode": "8480121",
    "prefectureCode": "41",
    "prefectureNumber": 41,
    "prefecture": "佐賀県",
    "city": "伊万里市",
    "town": "黒川町塩屋"
  },
  "8480122": {
    "zipcode": "8480122",
    "prefectureCode": "41",
    "prefectureNumber": 41,
    "prefecture": "佐賀県",
    "city": "伊万里市",
    "town": "黒川町福田"
  },
  "8480123": {
    "zipcode": "8480123",
    "prefectureCode": "41",
    "prefectureNumber": 41,
    "prefecture": "佐賀県",
    "city": "伊万里市",
    "town": "黒川町大黒川"
  },
  "8480124": {
    "zipcode": "8480124",
    "prefectureCode": "41",
    "prefectureNumber": 41,
    "prefecture": "佐賀県",
    "city": "伊万里市",
    "town": "黒川町（名村団地）"
  },
  "8480125": {
    "zipcode": "8480125",
    "prefectureCode": "41",
    "prefectureNumber": 41,
    "prefecture": "佐賀県",
    "city": "伊万里市",
    "town": "黒川町小黒川"
  },
  "8480131": {
    "zipcode": "8480131",
    "prefectureCode": "41",
    "prefectureNumber": 41,
    "prefecture": "佐賀県",
    "city": "伊万里市",
    "town": "黒川町畑川内"
  },
  "8480132": {
    "zipcode": "8480132",
    "prefectureCode": "41",
    "prefectureNumber": 41,
    "prefecture": "佐賀県",
    "city": "伊万里市",
    "town": "黒川町長尾"
  },
  "8480133": {
    "zipcode": "8480133",
    "prefectureCode": "41",
    "prefectureNumber": 41,
    "prefecture": "佐賀県",
    "city": "伊万里市",
    "town": "黒川町真手野"
  },
  "8480134": {
    "zipcode": "8480134",
    "prefectureCode": "41",
    "prefectureNumber": 41,
    "prefecture": "佐賀県",
    "city": "伊万里市",
    "town": "黒川町花房"
  },
  "8480141": {
    "zipcode": "8480141",
    "prefectureCode": "41",
    "prefectureNumber": 41,
    "prefecture": "佐賀県",
    "city": "伊万里市",
    "town": "黒川町清水"
  },
  "8480142": {
    "zipcode": "8480142",
    "prefectureCode": "41",
    "prefectureNumber": 41,
    "prefecture": "佐賀県",
    "city": "伊万里市",
    "town": "黒川町立目"
  },
  "8480143": {
    "zipcode": "8480143",
    "prefectureCode": "41",
    "prefectureNumber": 41,
    "prefecture": "佐賀県",
    "city": "伊万里市",
    "town": "黒川町牟田"
  },
  "8480144": {
    "zipcode": "8480144",
    "prefectureCode": "41",
    "prefectureNumber": 41,
    "prefecture": "佐賀県",
    "city": "伊万里市",
    "town": "黒川町横野"
  },
  "8480145": {
    "zipcode": "8480145",
    "prefectureCode": "41",
    "prefectureNumber": 41,
    "prefecture": "佐賀県",
    "city": "伊万里市",
    "town": "黒川町椿原"
  },
  "8480146": {
    "zipcode": "8480146",
    "prefectureCode": "41",
    "prefectureNumber": 41,
    "prefecture": "佐賀県",
    "city": "伊万里市",
    "town": "黒川町黒塩"
  },
  "8480401": {
    "zipcode": "8480401",
    "prefectureCode": "42",
    "prefectureNumber": 42,
    "prefecture": "長崎県",
    "city": "松浦市",
    "town": "福島町喜内瀬免"
  },
  "8480402": {
    "zipcode": "8480402",
    "prefectureCode": "42",
    "prefectureNumber": 42,
    "prefecture": "長崎県",
    "city": "松浦市",
    "town": "福島町端免"
  },
  "8480403": {
    "zipcode": "8480403",
    "prefectureCode": "42",
    "prefectureNumber": 42,
    "prefecture": "長崎県",
    "city": "松浦市",
    "town": "福島町塩浜免"
  },
  "8480404": {
    "zipcode": "8480404",
    "prefectureCode": "42",
    "prefectureNumber": 42,
    "prefecture": "長崎県",
    "city": "松浦市",
    "town": "福島町浅谷免"
  },
  "8480405": {
    "zipcode": "8480405",
    "prefectureCode": "42",
    "prefectureNumber": 42,
    "prefecture": "長崎県",
    "city": "松浦市",
    "town": "福島町土谷免"
  },
  "8480406": {
    "zipcode": "8480406",
    "prefectureCode": "42",
    "prefectureNumber": 42,
    "prefecture": "長崎県",
    "city": "松浦市",
    "town": "福島町原免"
  },
  "8480407": {
    "zipcode": "8480407",
    "prefectureCode": "42",
    "prefectureNumber": 42,
    "prefecture": "長崎県",
    "city": "松浦市",
    "town": "福島町鍋串免"
  },
  "8480408": {
    "zipcode": "8480408",
    "prefectureCode": "42",
    "prefectureNumber": 42,
    "prefecture": "長崎県",
    "city": "松浦市",
    "town": "福島町里免"
  }
}
