{
  "8490000": {
    "zipcode": "8490000",
    "prefectureCode": "41",
    "prefectureNumber": 41,
    "prefecture": "佐賀県",
    "city": "佐賀市",
    "town": "以下に掲載がない場合"
  },
  "8490100": {
    "zipcode": "8490100",
    "prefectureCode": "41",
    "prefectureNumber": 41,
    "prefecture": "佐賀県",
    "city": "三養基郡みやき町",
    "town": "以下に掲載がない場合"
  },
  "8490101": {
    "zipcode": "8490101",
    "prefectureCode": "41",
    "prefectureNumber": 41,
    "prefecture": "佐賀県",
    "city": "三養基郡みやき町",
    "town": "原古賀"
  },
  "8490102": {
    "zipcode": "8490102",
    "prefectureCode": "41",
    "prefectureNumber": 41,
    "prefecture": "佐賀県",
    "city": "三養基郡みやき町",
    "town": "簑原"
  },
  "8490111": {
    "zipcode": "8490111",
    "prefectureCode": "41",
    "prefectureNumber": 41,
    "prefecture": "佐賀県",
    "city": "三養基郡みやき町",
    "town": "白壁"
  },
  "8490112": {
    "zipcode": "8490112",
    "prefectureCode": "41",
    "prefectureNumber": 41,
    "prefecture": "佐賀県",
    "city": "三養基郡みやき町",
    "town": "江口"
  },
  "8490113": {
    "zipcode": "8490113",
    "prefectureCode": "41",
    "prefectureNumber": 41,
    "prefecture": "佐賀県",
    "city": "三養基郡みやき町",
    "town": "東尾"
  },
  "8490114": {
    "zipcode": "8490114",
    "prefectureCode": "41",
    "prefectureNumber": 41,
    "prefecture": "佐賀県",
    "city": "三養基郡みやき町",
    "town": "中津隈"
  },
  "8490121": {
    "zipcode": "8490121",
    "prefectureCode": "41",
    "prefectureNumber": 41,
    "prefecture": "佐賀県",
    "city": "三養基郡上峰町",
    "town": "江迎"
  },
  "8490122": {
    "zipcode": "8490122",
    "prefectureCode": "41",
    "prefectureNumber": 41,
    "prefecture": "佐賀県",
    "city": "三養基郡上峰町",
    "town": "前牟田"
  },
  "8490123": {
    "zipcode": "8490123",
    "prefectureCode": "41",
    "prefectureNumber": 41,
    "prefecture": "佐賀県",
    "city": "三養基郡上峰町",
    "town": "坊所"
  },
  "8490124": {
    "zipcode": "8490124",
    "prefectureCode": "41",
    "prefectureNumber": 41,
    "prefecture": "佐賀県",
    "city": "三養基郡上峰町",
    "town": "堤"
  },
  "8490201": {
    "zipcode": "8490201",
    "prefectureCode": "41",
    "prefectureNumber": 41,
    "prefecture": "佐賀県",
    "city": "佐賀市",
    "town": "久保田町徳万"
  },
  "8490202": {
    "zipcode": "8490202",
    "prefectureCode": "41",
    "prefectureNumber": 41,
    "prefecture": "佐賀県",
    "city": "佐賀市",
    "town": "久保田町久富"
  },
  "8490203": {
    "zipcode": "8490203",
    "prefectureCode": "41",
    "prefectureNumber": 41,
    "prefecture": "佐賀県",
    "city": "佐賀市",
    "town": "久保田町新田"
  },
  "8490204": {
    "zipcode": "8490204",
    "prefectureCode": "41",
    "prefectureNumber": 41,
    "prefecture": "佐賀県",
    "city": "佐賀市",
    "town": "久保田町久保田"
  },
  "8490205": {
    "zipcode": "8490205",
    "prefectureCode": "41",
    "prefectureNumber": 41,
    "prefecture": "佐賀県",
    "city": "佐賀市",
    "town": "久保田町江戸"
  },
  "8490301": {
    "zipcode": "8490301",
    "prefectureCode": "41",
    "prefectureNumber": 41,
    "prefecture": "佐賀県",
    "city": "小城市",
    "town": "牛津町乙柳"
  },
  "8490302": {
    "zipcode": "8490302",
    "prefectureCode": "41",
    "prefectureNumber": 41,
    "prefecture": "佐賀県",
    "city": "小城市",
    "town": "牛津町柿樋瀬"
  },
  "8490303": {
    "zipcode": "8490303",
    "prefectureCode": "41",
    "prefectureNumber": 41,
    "prefecture": "佐賀県",
    "city": "小城市",
    "town": "牛津町牛津"
  },
  "8490304": {
    "zipcode": "8490304",
    "prefectureCode": "41",
    "prefectureNumber": 41,
    "prefecture": "佐賀県",
    "city": "小城市",
    "town": "牛津町下砥川"
  },
  "8490305": {
    "zipcode": "8490305",
    "prefectureCode": "41",
    "prefectureNumber": 41,
    "prefecture": "佐賀県",
    "city": "小城市",
    "town": "牛津町上砥川"
  },
  "8490306": {
    "zipcode": "8490306",
    "prefectureCode": "41",
    "prefectureNumber": 41,
    "prefecture": "佐賀県",
    "city": "小城市",
    "town": "牛津町勝"
  },
  "8490311": {
    "zipcode": "8490311",
    "prefectureCode": "41",
    "prefectureNumber": 41,
    "prefecture": "佐賀県",
    "city": "小城市",
    "town": "芦刈町芦溝"
  },
  "8490312": {
    "zipcode": "8490312",
    "prefectureCode": "41",
    "prefectureNumber": 41,
    "prefecture": "佐賀県",
    "city": "小城市",
    "town": "芦刈町下古賀"
  },
  "8490313": {
    "zipcode": "8490313",
    "prefectureCode": "41",
    "prefectureNumber": 41,
    "prefecture": "佐賀県",
    "city": "小城市",
    "town": "芦刈町永田"
  },
  "8490314": {
    "zipcode": "8490314",
    "prefectureCode": "41",
    "prefectureNumber": 41,
    "prefecture": "佐賀県",
    "city": "小城市",
    "town": "芦刈町三王崎"
  },
  "8490315": {
    "zipcode": "8490315",
    "prefectureCode": "41",
    "prefectureNumber": 41,
    "prefecture": "佐賀県",
    "city": "小城市",
    "town": "芦刈町浜枝川"
  },
  "8490316": {
    "zipcode": "8490316",
    "prefectureCode": "41",
    "prefectureNumber": 41,
    "prefecture": "佐賀県",
    "city": "小城市",
    "town": "芦刈町道免"
  },
  "8490401": {
    "zipcode": "8490401",
    "prefectureCode": "41",
    "prefectureNumber": 41,
    "prefecture": "佐賀県",
    "city": "杵島郡白石町",
    "town": "福富"
  },
  "8490402": {
    "zipcode": "8490402",
    "prefectureCode": "41",
    "prefectureNumber": 41,
    "prefecture": "佐賀県",
    "city": "杵島郡白石町",
    "town": "福富下分"
  },
  "8490403": {
    "zipcode": "8490403",
    "prefectureCode": "41",
    "prefectureNumber": 41,
    "prefecture": "佐賀県",
    "city": "杵島郡白石町",
    "town": "八平"
  },
  "8490500": {
    "zipcode": "8490500",
    "prefectureCode": "41",
    "prefectureNumber": 41,
    "prefecture": "佐賀県",
    "city": "杵島郡江北町",
    "town": "以下に掲載がない場合"
  },
  "8490501": {
    "zipcode": "8490501",
    "prefectureCode": "41",
    "prefectureNumber": 41,
    "prefecture": "佐賀県",
    "city": "杵島郡江北町",
    "town": "山口"
  },
  "8490502": {
    "zipcode": "8490502",
    "prefectureCode": "41",
    "prefectureNumber": 41,
    "prefecture": "佐賀県",
    "city": "杵島郡江北町",
    "town": "佐留志"
  },
  "8490503": {
    "zipcode": "8490503",
    "prefectureCode": "41",
    "prefectureNumber": 41,
    "prefecture": "佐賀県",
    "city": "杵島郡江北町",
    "town": "惣領分"
  },
  "8490504": {
    "zipcode": "8490504",
    "prefectureCode": "41",
    "prefectureNumber": 41,
    "prefecture": "佐賀県",
    "city": "杵島郡江北町",
    "town": "八町"
  },
  "8490505": {
    "zipcode": "8490505",
    "prefectureCode": "41",
    "prefectureNumber": 41,
    "prefecture": "佐賀県",
    "city": "杵島郡江北町",
    "town": "下小田"
  },
  "8490506": {
    "zipcode": "8490506",
    "prefectureCode": "41",
    "prefectureNumber": 41,
    "prefecture": "佐賀県",
    "city": "杵島郡江北町",
    "town": "上小田"
  },
  "8490901": {
    "zipcode": "8490901",
    "prefectureCode": "41",
    "prefectureNumber": 41,
    "prefecture": "佐賀県",
    "city": "佐賀市",
    "town": "久保泉町川久保"
  },
  "8490902": {
    "zipcode": "8490902",
    "prefectureCode": "41",
    "prefectureNumber": 41,
    "prefecture": "佐賀県",
    "city": "佐賀市",
    "town": "久保泉町上和泉"
  },
  "8490903": {
    "zipcode": "8490903",
    "prefectureCode": "41",
    "prefectureNumber": 41,
    "prefecture": "佐賀県",
    "city": "佐賀市",
    "town": "久保泉町下和泉"
  },
  "8490904": {
    "zipcode": "8490904",
    "prefectureCode": "41",
    "prefectureNumber": 41,
    "prefecture": "佐賀県",
    "city": "佐賀市",
    "town": "金立町薬師丸"
  },
  "8490905": {
    "zipcode": "8490905",
    "prefectureCode": "41",
    "prefectureNumber": 41,
    "prefecture": "佐賀県",
    "city": "佐賀市",
    "town": "金立町千布"
  },
  "8490906": {
    "zipcode": "8490906",
    "prefectureCode": "41",
    "prefectureNumber": 41,
    "prefecture": "佐賀県",
    "city": "佐賀市",
    "town": "金立町金立"
  },
  "8490911": {
    "zipcode": "8490911",
    "prefectureCode": "41",
    "prefectureNumber": 41,
    "prefecture": "佐賀県",
    "city": "佐賀市",
    "town": "兵庫町若宮"
  },
  "8490912": {
    "zipcode": "8490912",
    "prefectureCode": "41",
    "prefectureNumber": 41,
    "prefecture": "佐賀県",
    "city": "佐賀市",
    "town": "兵庫町瓦町"
  },
  "8490913": {
    "zipcode": "8490913",
    "prefectureCode": "41",
    "prefectureNumber": 41,
    "prefecture": "佐賀県",
    "city": "佐賀市",
    "town": "兵庫町渕"
  },
  "8490914": {
    "zipcode": "8490914",
    "prefectureCode": "41",
    "prefectureNumber": 41,
    "prefecture": "佐賀県",
    "city": "佐賀市",
    "town": "兵庫町西渕"
  },
  "8490915": {
    "zipcode": "8490915",
    "prefectureCode": "41",
    "prefectureNumber": 41,
    "prefecture": "佐賀県",
    "city": "佐賀市",
    "town": "兵庫町藤木"
  },
  "8490916": {
    "zipcode": "8490916",
    "prefectureCode": "41",
    "prefectureNumber": 41,
    "prefecture": "佐賀県",
    "city": "佐賀市",
    "town": "高木瀬町東高木"
  },
  "8490917": {
    "zipcode": "8490917",
    "prefectureCode": "41",
    "prefectureNumber": 41,
    "prefecture": "佐賀県",
    "city": "佐賀市",
    "town": "高木瀬町長瀬"
  },
  "8490918": {
    "zipcode": "8490918",
    "prefectureCode": "41",
    "prefectureNumber": 41,
    "prefecture": "佐賀県",
    "city": "佐賀市",
    "town": "兵庫南"
  },
  "8490919": {
    "zipcode": "8490919",
    "prefectureCode": "41",
    "prefectureNumber": 41,
    "prefecture": "佐賀県",
    "city": "佐賀市",
    "town": "兵庫北"
  },
  "8490921": {
    "zipcode": "8490921",
    "prefectureCode": "41",
    "prefectureNumber": 41,
    "prefecture": "佐賀県",
    "city": "佐賀市",
    "town": "高木瀬西"
  },
  "8490922": {
    "zipcode": "8490922",
    "prefectureCode": "41",
    "prefectureNumber": 41,
    "prefecture": "佐賀県",
    "city": "佐賀市",
    "town": "高木瀬東"
  },
  "8490923": {
    "zipcode": "8490923",
    "prefectureCode": "41",
    "prefectureNumber": 41,
    "prefecture": "佐賀県",
    "city": "佐賀市",
    "town": "日の出"
  },
  "8490924": {
    "zipcode": "8490924",
    "prefectureCode": "41",
    "prefectureNumber": 41,
    "prefecture": "佐賀県",
    "city": "佐賀市",
    "town": "新中町"
  },
  "8490925": {
    "zipcode": "8490925",
    "prefectureCode": "41",
    "prefectureNumber": 41,
    "prefecture": "佐賀県",
    "city": "佐賀市",
    "town": "八丁畷町"
  },
  "8490926": {
    "zipcode": "8490926",
    "prefectureCode": "41",
    "prefectureNumber": 41,
    "prefecture": "佐賀県",
    "city": "佐賀市",
    "town": "若宮"
  },
  "8490927": {
    "zipcode": "8490927",
    "prefectureCode": "41",
    "prefectureNumber": 41,
    "prefecture": "佐賀県",
    "city": "佐賀市",
    "town": "高木瀬団地"
  },
  "8490928": {
    "zipcode": "8490928",
    "prefectureCode": "41",
    "prefectureNumber": 41,
    "prefecture": "佐賀県",
    "city": "佐賀市",
    "town": "若楠"
  },
  "8490931": {
    "zipcode": "8490931",
    "prefectureCode": "41",
    "prefectureNumber": 41,
    "prefecture": "佐賀県",
    "city": "佐賀市",
    "town": "鍋島町蛎久"
  },
  "8490932": {
    "zipcode": "8490932",
    "prefectureCode": "41",
    "prefectureNumber": 41,
    "prefecture": "佐賀県",
    "city": "佐賀市",
    "town": "鍋島町八戸溝"
  },
  "8490933": {
    "zipcode": "8490933",
    "prefectureCode": "41",
    "prefectureNumber": 41,
    "prefecture": "佐賀県",
    "city": "佐賀市",
    "town": "卸本町"
  },
  "8490934": {
    "zipcode": "8490934",
    "prefectureCode": "41",
    "prefectureNumber": 41,
    "prefecture": "佐賀県",
    "city": "佐賀市",
    "town": "開成"
  },
  "8490935": {
    "zipcode": "8490935",
    "prefectureCode": "41",
    "prefectureNumber": 41,
    "prefecture": "佐賀県",
    "city": "佐賀市",
    "town": "八戸溝"
  },
  "8490936": {
    "zipcode": "8490936",
    "prefectureCode": "41",
    "prefectureNumber": 41,
    "prefecture": "佐賀県",
    "city": "佐賀市",
    "town": "鍋島町森田"
  },
  "8490937": {
    "zipcode": "8490937",
    "prefectureCode": "41",
    "prefectureNumber": 41,
    "prefecture": "佐賀県",
    "city": "佐賀市",
    "town": "鍋島"
  },
  "8490938": {
    "zipcode": "8490938",
    "prefectureCode": "41",
    "prefectureNumber": 41,
    "prefecture": "佐賀県",
    "city": "佐賀市",
    "town": "鍋島町鍋島"
  },
  "8491100": {
    "zipcode": "8491100",
    "prefectureCode": "41",
    "prefectureNumber": 41,
    "prefecture": "佐賀県",
    "city": "杵島郡白石町",
    "town": "以下に掲載がない場合"
  },
  "8491101": {
    "zipcode": "8491101",
    "prefectureCode": "41",
    "prefectureNumber": 41,
    "prefecture": "佐賀県",
    "city": "杵島郡白石町",
    "town": "今泉"
  },
  "8491102": {
    "zipcode": "8491102",
    "prefectureCode": "41",
    "prefectureNumber": 41,
    "prefecture": "佐賀県",
    "city": "杵島郡白石町",
    "town": "大渡"
  },
  "8491103": {
    "zipcode": "8491103",
    "prefectureCode": "41",
    "prefectureNumber": 41,
    "prefecture": "佐賀県",
    "city": "杵島郡白石町",
    "town": "築切"
  },
  "8491104": {
    "zipcode": "8491104",
    "prefectureCode": "41",
    "prefectureNumber": 41,
    "prefecture": "佐賀県",
    "city": "杵島郡白石町",
    "town": "堤"
  },
  "8491105": {
    "zipcode": "8491105",
    "prefectureCode": "41",
    "prefectureNumber": 41,
    "prefecture": "佐賀県",
    "city": "杵島郡白石町",
    "town": "遠江"
  },
  "8491106": {
    "zipcode": "8491106",
    "prefectureCode": "41",
    "prefectureNumber": 41,
    "prefecture": "佐賀県",
    "city": "杵島郡白石町",
    "town": "廿治"
  },
  "8491111": {
    "zipcode": "8491111",
    "prefectureCode": "41",
    "prefectureNumber": 41,
    "prefecture": "佐賀県",
    "city": "杵島郡白石町",
    "town": "東郷"
  },
  "8491112": {
    "zipcode": "8491112",
    "prefectureCode": "41",
    "prefectureNumber": 41,
    "prefecture": "佐賀県",
    "city": "杵島郡白石町",
    "town": "福田"
  },
  "8491113": {
    "zipcode": "8491113",
    "prefectureCode": "41",
    "prefectureNumber": 41,
    "prefecture": "佐賀県",
    "city": "杵島郡白石町",
    "town": "福吉"
  },
  "8491114": {
    "zipcode": "8491114",
    "prefectureCode": "41",
    "prefectureNumber": 41,
    "prefecture": "佐賀県",
    "city": "杵島郡白石町",
    "town": "馬洗"
  },
  "8491115": {
    "zipcode": "8491115",
    "prefectureCode": "41",
    "prefectureNumber": 41,
    "prefecture": "佐賀県",
    "city": "杵島郡白石町",
    "town": "湯崎"
  },
  "8491116": {
    "zipcode": "8491116",
    "prefectureCode": "41",
    "prefectureNumber": 41,
    "prefecture": "佐賀県",
    "city": "杵島郡白石町",
    "town": "横手"
  },
  "8491201": {
    "zipcode": "8491201",
    "prefectureCode": "41",
    "prefectureNumber": 41,
    "prefecture": "佐賀県",
    "city": "杵島郡白石町",
    "town": "牛屋"
  },
  "8491202": {
    "zipcode": "8491202",
    "prefectureCode": "41",
    "prefectureNumber": 41,
    "prefecture": "佐賀県",
    "city": "杵島郡白石町",
    "town": "新明"
  },
  "8491203": {
    "zipcode": "8491203",
    "prefectureCode": "41",
    "prefectureNumber": 41,
    "prefecture": "佐賀県",
    "city": "杵島郡白石町",
    "town": "戸ケ里"
  },
  "8491204": {
    "zipcode": "8491204",
    "prefectureCode": "41",
    "prefectureNumber": 41,
    "prefecture": "佐賀県",
    "city": "杵島郡白石町",
    "town": "坂田"
  },
  "8491205": {
    "zipcode": "8491205",
    "prefectureCode": "41",
    "prefectureNumber": 41,
    "prefecture": "佐賀県",
    "city": "杵島郡白石町",
    "town": "田野上"
  },
  "8491206": {
    "zipcode": "8491206",
    "prefectureCode": "41",
    "prefectureNumber": 41,
    "prefecture": "佐賀県",
    "city": "杵島郡白石町",
    "town": "辺田"
  },
  "8491207": {
    "zipcode": "8491207",
    "prefectureCode": "41",
    "prefectureNumber": 41,
    "prefecture": "佐賀県",
    "city": "杵島郡白石町",
    "town": "深浦"
  },
  "8491208": {
    "zipcode": "8491208",
    "prefectureCode": "41",
    "prefectureNumber": 41,
    "prefecture": "佐賀県",
    "city": "杵島郡白石町",
    "town": "新開"
  },
  "8491221": {
    "zipcode": "8491221",
    "prefectureCode": "41",
    "prefectureNumber": 41,
    "prefecture": "佐賀県",
    "city": "杵島郡白石町",
    "town": "新拓"
  },
  "8491300": {
    "zipcode": "8491300",
    "prefectureCode": "41",
    "prefectureNumber": 41,
    "prefecture": "佐賀県",
    "city": "鹿島市",
    "town": "以下に掲載がない場合"
  },
  "8491301": {
    "zipcode": "8491301",
    "prefectureCode": "41",
    "prefectureNumber": 41,
    "prefecture": "佐賀県",
    "city": "鹿島市",
    "town": "常広"
  },
  "8491302": {
    "zipcode": "8491302",
    "prefectureCode": "41",
    "prefectureNumber": 41,
    "prefecture": "佐賀県",
    "city": "鹿島市",
    "town": "井手"
  },
  "8491303": {
    "zipcode": "8491303",
    "prefectureCode": "41",
    "prefectureNumber": 41,
    "prefecture": "佐賀県",
    "city": "鹿島市",
    "town": "森"
  },
  "8491304": {
    "zipcode": "8491304",
    "prefectureCode": "41",
    "prefectureNumber": 41,
    "prefecture": "佐賀県",
    "city": "鹿島市",
    "town": "中村"
  },
  "8491311": {
    "zipcode": "8491311",
    "prefectureCode": "41",
    "prefectureNumber": 41,
    "prefecture": "佐賀県",
    "city": "鹿島市",
    "town": "高津原"
  },
  "8491312": {
    "zipcode": "8491312",
    "prefectureCode": "41",
    "prefectureNumber": 41,
    "prefecture": "佐賀県",
    "city": "鹿島市",
    "town": "納富分"
  },
  "8491313": {
    "zipcode": "8491313",
    "prefectureCode": "41",
    "prefectureNumber": 41,
    "prefecture": "佐賀県",
    "city": "鹿島市",
    "town": "重ノ木"
  },
  "8491314": {
    "zipcode": "8491314",
    "prefectureCode": "41",
    "prefectureNumber": 41,
    "prefecture": "佐賀県",
    "city": "鹿島市",
    "town": "山浦"
  },
  "8491315": {
    "zipcode": "8491315",
    "prefectureCode": "41",
    "prefectureNumber": 41,
    "prefecture": "佐賀県",
    "city": "鹿島市",
    "town": "三河内"
  },
  "8491321": {
    "zipcode": "8491321",
    "prefectureCode": "41",
    "prefectureNumber": 41,
    "prefecture": "佐賀県",
    "city": "鹿島市",
    "town": "古枝"
  },
  "8491322": {
    "zipcode": "8491322",
    "prefectureCode": "41",
    "prefectureNumber": 41,
    "prefecture": "佐賀県",
    "city": "鹿島市",
    "town": "浜町"
  },
  "8491323": {
    "zipcode": "8491323",
    "prefectureCode": "41",
    "prefectureNumber": 41,
    "prefecture": "佐賀県",
    "city": "鹿島市",
    "town": "音成"
  },
  "8491324": {
    "zipcode": "8491324",
    "prefectureCode": "41",
    "prefectureNumber": 41,
    "prefecture": "佐賀県",
    "city": "鹿島市",
    "town": "飯田"
  },
  "8491401": {
    "zipcode": "8491401",
    "prefectureCode": "41",
    "prefectureNumber": 41,
    "prefecture": "佐賀県",
    "city": "嬉野市",
    "town": "塩田町久間甲"
  },
  "8491402": {
    "zipcode": "8491402",
    "prefectureCode": "41",
    "prefectureNumber": 41,
    "prefecture": "佐賀県",
    "city": "嬉野市",
    "town": "塩田町久間乙"
  },
  "8491403": {
    "zipcode": "8491403",
    "prefectureCode": "41",
    "prefectureNumber": 41,
    "prefecture": "佐賀県",
    "city": "嬉野市",
    "town": "塩田町久間丙"
  },
  "8491404": {
    "zipcode": "8491404",
    "prefectureCode": "41",
    "prefectureNumber": 41,
    "prefecture": "佐賀県",
    "city": "嬉野市",
    "town": "塩田町久間丁"
  },
  "8491411": {
    "zipcode": "8491411",
    "prefectureCode": "41",
    "prefectureNumber": 41,
    "prefecture": "佐賀県",
    "city": "嬉野市",
    "town": "塩田町馬場下甲"
  },
  "8491412": {
    "zipcode": "8491412",
    "prefectureCode": "41",
    "prefectureNumber": 41,
    "prefecture": "佐賀県",
    "city": "嬉野市",
    "town": "塩田町馬場下乙"
  },
  "8491413": {
    "zipcode": "8491413",
    "prefectureCode": "41",
    "prefectureNumber": 41,
    "prefecture": "佐賀県",
    "city": "嬉野市",
    "town": "塩田町馬場下丙"
  },
  "8491414": {
    "zipcode": "8491414",
    "prefectureCode": "41",
    "prefectureNumber": 41,
    "prefecture": "佐賀県",
    "city": "嬉野市",
    "town": "塩田町大草野甲"
  },
  "8491415": {
    "zipcode": "8491415",
    "prefectureCode": "41",
    "prefectureNumber": 41,
    "prefecture": "佐賀県",
    "city": "嬉野市",
    "town": "塩田町大草野丙"
  },
  "8491416": {
    "zipcode": "8491416",
    "prefectureCode": "41",
    "prefectureNumber": 41,
    "prefecture": "佐賀県",
    "city": "嬉野市",
    "town": "塩田町大草野乙"
  },
  "8491421": {
    "zipcode": "8491421",
    "prefectureCode": "41",
    "prefectureNumber": 41,
    "prefecture": "佐賀県",
    "city": "嬉野市",
    "town": "塩田町真崎"
  },
  "8491422": {
    "zipcode": "8491422",
    "prefectureCode": "41",
    "prefectureNumber": 41,
    "prefecture": "佐賀県",
    "city": "嬉野市",
    "town": "塩田町谷所甲"
  },
  "8491423": {
    "zipcode": "8491423",
    "prefectureCode": "41",
    "prefectureNumber": 41,
    "prefecture": "佐賀県",
    "city": "嬉野市",
    "town": "塩田町谷所乙"
  },
  "8491424": {
    "zipcode": "8491424",
    "prefectureCode": "41",
    "prefectureNumber": 41,
    "prefecture": "佐賀県",
    "city": "嬉野市",
    "town": "塩田町谷所丙"
  },
  "8491425": {
    "zipcode": "8491425",
    "prefectureCode": "41",
    "prefectureNumber": 41,
    "prefecture": "佐賀県",
    "city": "嬉野市",
    "town": "塩田町五町田甲"
  },
  "8491426": {
    "zipcode": "8491426",
    "prefectureCode": "41",
    "prefectureNumber": 41,
    "prefecture": "佐賀県",
    "city": "嬉野市",
    "town": "塩田町五町田乙"
  },
  "8491600": {
    "zipcode": "8491600",
    "prefectureCode": "41",
    "prefectureNumber": 41,
    "prefecture": "佐賀県",
    "city": "藤津郡太良町",
    "town": "以下に掲載がない場合"
  },
  "8491601": {
    "zipcode": "8491601",
    "prefectureCode": "41",
    "prefectureNumber": 41,
    "prefecture": "佐賀県",
    "city": "藤津郡太良町",
    "town": "伊福甲"
  },
  "8491602": {
    "zipcode": "8491602",
    "prefectureCode": "41",
    "prefectureNumber": 41,
    "prefecture": "佐賀県",
    "city": "藤津郡太良町",
    "town": "多良"
  },
  "8491603": {
    "zipcode": "8491603",
    "prefectureCode": "41",
    "prefectureNumber": 41,
    "prefecture": "佐賀県",
    "city": "藤津郡太良町",
    "town": "糸岐"
  },
  "8491611": {
    "zipcode": "8491611",
    "prefectureCode": "41",
    "prefectureNumber": 41,
    "prefecture": "佐賀県",
    "city": "藤津郡太良町",
    "town": "大浦戊"
  },
  "8491612": {
    "zipcode": "8491612",
    "prefectureCode": "41",
    "prefectureNumber": 41,
    "prefecture": "佐賀県",
    "city": "藤津郡太良町",
    "town": "大浦丁"
  },
  "8491613": {
    "zipcode": "8491613",
    "prefectureCode": "41",
    "prefectureNumber": 41,
    "prefecture": "佐賀県",
    "city": "藤津郡太良町",
    "town": "大浦丙"
  },
  "8491614": {
    "zipcode": "8491614",
    "prefectureCode": "41",
    "prefectureNumber": 41,
    "prefecture": "佐賀県",
    "city": "藤津郡太良町",
    "town": "大浦甲"
  },
  "8491615": {
    "zipcode": "8491615",
    "prefectureCode": "41",
    "prefectureNumber": 41,
    "prefecture": "佐賀県",
    "city": "藤津郡太良町",
    "town": "大浦乙"
  },
  "8491616": {
    "zipcode": "8491616",
    "prefectureCode": "41",
    "prefectureNumber": 41,
    "prefecture": "佐賀県",
    "city": "藤津郡太良町",
    "town": "大浦己"
  },
  "8492100": {
    "zipcode": "8492100",
    "prefectureCode": "41",
    "prefectureNumber": 41,
    "prefecture": "佐賀県",
    "city": "杵島郡大町町",
    "town": "以下に掲載がない場合"
  },
  "8492101": {
    "zipcode": "8492101",
    "prefectureCode": "41",
    "prefectureNumber": 41,
    "prefecture": "佐賀県",
    "city": "杵島郡大町町",
    "town": "大町"
  },
  "8492102": {
    "zipcode": "8492102",
    "prefectureCode": "41",
    "prefectureNumber": 41,
    "prefecture": "佐賀県",
    "city": "杵島郡大町町",
    "town": "福母"
  },
  "8492201": {
    "zipcode": "8492201",
    "prefectureCode": "41",
    "prefectureNumber": 41,
    "prefecture": "佐賀県",
    "city": "武雄市",
    "town": "北方町志久"
  },
  "8492202": {
    "zipcode": "8492202",
    "prefectureCode": "41",
    "prefectureNumber": 41,
    "prefecture": "佐賀県",
    "city": "武雄市",
    "town": "北方町大渡"
  },
  "8492203": {
    "zipcode": "8492203",
    "prefectureCode": "41",
    "prefectureNumber": 41,
    "prefecture": "佐賀県",
    "city": "武雄市",
    "town": "北方町芦原"
  },
  "8492204": {
    "zipcode": "8492204",
    "prefectureCode": "41",
    "prefectureNumber": 41,
    "prefecture": "佐賀県",
    "city": "武雄市",
    "town": "北方町大崎"
  },
  "8492301": {
    "zipcode": "8492301",
    "prefectureCode": "41",
    "prefectureNumber": 41,
    "prefecture": "佐賀県",
    "city": "武雄市",
    "town": "山内町犬走"
  },
  "8492302": {
    "zipcode": "8492302",
    "prefectureCode": "41",
    "prefectureNumber": 41,
    "prefecture": "佐賀県",
    "city": "武雄市",
    "town": "山内町鳥海"
  },
  "8492303": {
    "zipcode": "8492303",
    "prefectureCode": "41",
    "prefectureNumber": 41,
    "prefecture": "佐賀県",
    "city": "武雄市",
    "town": "山内町三間坂"
  },
  "8492304": {
    "zipcode": "8492304",
    "prefectureCode": "41",
    "prefectureNumber": 41,
    "prefecture": "佐賀県",
    "city": "武雄市",
    "town": "山内町大野"
  },
  "8492305": {
    "zipcode": "8492305",
    "prefectureCode": "41",
    "prefectureNumber": 41,
    "prefecture": "佐賀県",
    "city": "武雄市",
    "town": "山内町宮野"
  },
  "8492341": {
    "zipcode": "8492341",
    "prefectureCode": "41",
    "prefectureNumber": 41,
    "prefecture": "佐賀県",
    "city": "武雄市",
    "town": "武内町梅野"
  },
  "8492342": {
    "zipcode": "8492342",
    "prefectureCode": "41",
    "prefectureNumber": 41,
    "prefecture": "佐賀県",
    "city": "武雄市",
    "town": "武内町真手野"
  },
  "8493101": {
    "zipcode": "8493101",
    "prefectureCode": "41",
    "prefectureNumber": 41,
    "prefecture": "佐賀県",
    "city": "唐津市",
    "town": "厳木町天川"
  },
  "8493102": {
    "zipcode": "8493102",
    "prefectureCode": "41",
    "prefectureNumber": 41,
    "prefecture": "佐賀県",
    "city": "唐津市",
    "town": "厳木町鳥越"
  },
  "8493103": {
    "zipcode": "8493103",
    "prefectureCode": "41",
    "prefectureNumber": 41,
    "prefecture": "佐賀県",
    "city": "唐津市",
    "town": "厳木町広川"
  },
  "8493104": {
    "zipcode": "8493104",
    "prefectureCode": "41",
    "prefectureNumber": 41,
    "prefecture": "佐賀県",
    "city": "唐津市",
    "town": "厳木町星領"
  },
  "8493111": {
    "zipcode": "8493111",
    "prefectureCode": "41",
    "prefectureNumber": 41,
    "prefecture": "佐賀県",
    "city": "唐津市",
    "town": "厳木町広瀬"
  },
  "8493112": {
    "zipcode": "8493112",
    "prefectureCode": "41",
    "prefectureNumber": 41,
    "prefecture": "佐賀県",
    "city": "唐津市",
    "town": "厳木町中島"
  },
  "8493113": {
    "zipcode": "8493113",
    "prefectureCode": "41",
    "prefectureNumber": 41,
    "prefecture": "佐賀県",
    "city": "唐津市",
    "town": "厳木町牧瀬"
  },
  "8493114": {
    "zipcode": "8493114",
    "prefectureCode": "41",
    "prefectureNumber": 41,
    "prefecture": "佐賀県",
    "city": "唐津市",
    "town": "厳木町浦川内"
  },
  "8493115": {
    "zipcode": "8493115",
    "prefectureCode": "41",
    "prefectureNumber": 41,
    "prefecture": "佐賀県",
    "city": "唐津市",
    "town": "厳木町平之"
  },
  "8493121": {
    "zipcode": "8493121",
    "prefectureCode": "41",
    "prefectureNumber": 41,
    "prefecture": "佐賀県",
    "city": "唐津市",
    "town": "厳木町瀬戸木場"
  },
  "8493122": {
    "zipcode": "8493122",
    "prefectureCode": "41",
    "prefectureNumber": 41,
    "prefecture": "佐賀県",
    "city": "唐津市",
    "town": "厳木町浪瀬"
  },
  "8493123": {
    "zipcode": "8493123",
    "prefectureCode": "41",
    "prefectureNumber": 41,
    "prefecture": "佐賀県",
    "city": "唐津市",
    "town": "厳木町岩屋"
  },
  "8493131": {
    "zipcode": "8493131",
    "prefectureCode": "41",
    "prefectureNumber": 41,
    "prefecture": "佐賀県",
    "city": "唐津市",
    "town": "厳木町厳木"
  },
  "8493132": {
    "zipcode": "8493132",
    "prefectureCode": "41",
    "prefectureNumber": 41,
    "prefecture": "佐賀県",
    "city": "唐津市",
    "town": "厳木町うつぼ木"
  },
  "8493133": {
    "zipcode": "8493133",
    "prefectureCode": "41",
    "prefectureNumber": 41,
    "prefecture": "佐賀県",
    "city": "唐津市",
    "town": "厳木町本山"
  },
  "8493201": {
    "zipcode": "8493201",
    "prefectureCode": "41",
    "prefectureNumber": 41,
    "prefecture": "佐賀県",
    "city": "唐津市",
    "town": "相知町相知"
  },
  "8493202": {
    "zipcode": "8493202",
    "prefectureCode": "41",
    "prefectureNumber": 41,
    "prefecture": "佐賀県",
    "city": "唐津市",
    "town": "相知町平山下"
  },
  "8493203": {
    "zipcode": "8493203",
    "prefectureCode": "41",
    "prefectureNumber": 41,
    "prefecture": "佐賀県",
    "city": "唐津市",
    "town": "相知町平山上"
  },
  "8493211": {
    "zipcode": "8493211",
    "prefectureCode": "41",
    "prefectureNumber": 41,
    "prefecture": "佐賀県",
    "city": "唐津市",
    "town": "相知町千束"
  },
  "8493212": {
    "zipcode": "8493212",
    "prefectureCode": "41",
    "prefectureNumber": 41,
    "prefecture": "佐賀県",
    "city": "唐津市",
    "town": "相知町横枕"
  },
  "8493213": {
    "zipcode": "8493213",
    "prefectureCode": "41",
    "prefectureNumber": 41,
    "prefecture": "佐賀県",
    "city": "唐津市",
    "town": "相知町湯屋"
  },
  "8493214": {
    "zipcode": "8493214",
    "prefectureCode": "41",
    "prefectureNumber": 41,
    "prefecture": "佐賀県",
    "city": "唐津市",
    "town": "相知町田頭"
  },
  "8493215": {
    "zipcode": "8493215",
    "prefectureCode": "41",
    "prefectureNumber": 41,
    "prefecture": "佐賀県",
    "city": "唐津市",
    "town": "相知町楠"
  },
  "8493216": {
    "zipcode": "8493216",
    "prefectureCode": "41",
    "prefectureNumber": 41,
    "prefecture": "佐賀県",
    "city": "唐津市",
    "town": "相知町町切"
  },
  "8493217": {
    "zipcode": "8493217",
    "prefectureCode": "41",
    "prefectureNumber": 41,
    "prefecture": "佐賀県",
    "city": "唐津市",
    "town": "相知町長部田"
  },
  "8493218": {
    "zipcode": "8493218",
    "prefectureCode": "41",
    "prefectureNumber": 41,
    "prefecture": "佐賀県",
    "city": "唐津市",
    "town": "相知町中山"
  },
  "8493219": {
    "zipcode": "8493219",
    "prefectureCode": "41",
    "prefectureNumber": 41,
    "prefecture": "佐賀県",
    "city": "唐津市",
    "town": "相知町鷹取"
  },
  "8493221": {
    "zipcode": "8493221",
    "prefectureCode": "41",
    "prefectureNumber": 41,
    "prefecture": "佐賀県",
    "city": "唐津市",
    "town": "相知町大野"
  },
  "8493222": {
    "zipcode": "8493222",
    "prefectureCode": "41",
    "prefectureNumber": 41,
    "prefecture": "佐賀県",
    "city": "唐津市",
    "town": "相知町黒岩"
  },
  "8493223": {
    "zipcode": "8493223",
    "prefectureCode": "41",
    "prefectureNumber": 41,
    "prefecture": "佐賀県",
    "city": "唐津市",
    "town": "相知町伊岐佐"
  },
  "8493224": {
    "zipcode": "8493224",
    "prefectureCode": "41",
    "prefectureNumber": 41,
    "prefecture": "佐賀県",
    "city": "唐津市",
    "town": "相知町山崎"
  },
  "8493231": {
    "zipcode": "8493231",
    "prefectureCode": "41",
    "prefectureNumber": 41,
    "prefecture": "佐賀県",
    "city": "唐津市",
    "town": "相知町牟田部"
  },
  "8493232": {
    "zipcode": "8493232",
    "prefectureCode": "41",
    "prefectureNumber": 41,
    "prefecture": "佐賀県",
    "city": "唐津市",
    "town": "相知町久保"
  },
  "8493233": {
    "zipcode": "8493233",
    "prefectureCode": "41",
    "prefectureNumber": 41,
    "prefecture": "佐賀県",
    "city": "唐津市",
    "town": "相知町佐里"
  },
  "8494141": {
    "zipcode": "8494141",
    "prefectureCode": "41",
    "prefectureNumber": 41,
    "prefecture": "佐賀県",
    "city": "西松浦郡有田町",
    "town": "二ノ瀬"
  },
  "8494142": {
    "zipcode": "8494142",
    "prefectureCode": "41",
    "prefectureNumber": 41,
    "prefecture": "佐賀県",
    "city": "西松浦郡有田町",
    "town": "山谷牧"
  },
  "8494143": {
    "zipcode": "8494143",
    "prefectureCode": "41",
    "prefectureNumber": 41,
    "prefecture": "佐賀県",
    "city": "西松浦郡有田町",
    "town": "下山谷"
  },
  "8494144": {
    "zipcode": "8494144",
    "prefectureCode": "41",
    "prefectureNumber": 41,
    "prefecture": "佐賀県",
    "city": "西松浦郡有田町",
    "town": "上山谷"
  },
  "8494145": {
    "zipcode": "8494145",
    "prefectureCode": "41",
    "prefectureNumber": 41,
    "prefecture": "佐賀県",
    "city": "西松浦郡有田町",
    "town": "山谷切口"
  },
  "8494146": {
    "zipcode": "8494146",
    "prefectureCode": "41",
    "prefectureNumber": 41,
    "prefecture": "佐賀県",
    "city": "西松浦郡有田町",
    "town": "岳"
  },
  "8494151": {
    "zipcode": "8494151",
    "prefectureCode": "41",
    "prefectureNumber": 41,
    "prefecture": "佐賀県",
    "city": "西松浦郡有田町",
    "town": "広瀬山"
  },
  "8494152": {
    "zipcode": "8494152",
    "prefectureCode": "41",
    "prefectureNumber": 41,
    "prefecture": "佐賀県",
    "city": "西松浦郡有田町",
    "town": "広瀬"
  },
  "8494153": {
    "zipcode": "8494153",
    "prefectureCode": "41",
    "prefectureNumber": 41,
    "prefecture": "佐賀県",
    "city": "西松浦郡有田町",
    "town": "立部"
  },
  "8494154": {
    "zipcode": "8494154",
    "prefectureCode": "41",
    "prefectureNumber": 41,
    "prefecture": "佐賀県",
    "city": "西松浦郡有田町",
    "town": "大木宿"
  },
  "8494155": {
    "zipcode": "8494155",
    "prefectureCode": "41",
    "prefectureNumber": 41,
    "prefecture": "佐賀県",
    "city": "西松浦郡有田町",
    "town": "山本"
  },
  "8494156": {
    "zipcode": "8494156",
    "prefectureCode": "41",
    "prefectureNumber": 41,
    "prefecture": "佐賀県",
    "city": "西松浦郡有田町",
    "town": "桑木原"
  },
  "8494161": {
    "zipcode": "8494161",
    "prefectureCode": "41",
    "prefectureNumber": 41,
    "prefecture": "佐賀県",
    "city": "西松浦郡有田町",
    "town": "蔵宿"
  },
  "8494162": {
    "zipcode": "8494162",
    "prefectureCode": "41",
    "prefectureNumber": 41,
    "prefecture": "佐賀県",
    "city": "西松浦郡有田町",
    "town": "上内野"
  },
  "8494163": {
    "zipcode": "8494163",
    "prefectureCode": "41",
    "prefectureNumber": 41,
    "prefecture": "佐賀県",
    "city": "西松浦郡有田町",
    "town": "下内野"
  },
  "8494164": {
    "zipcode": "8494164",
    "prefectureCode": "41",
    "prefectureNumber": 41,
    "prefecture": "佐賀県",
    "city": "西松浦郡有田町",
    "town": "仏ノ原"
  },
  "8494165": {
    "zipcode": "8494165",
    "prefectureCode": "41",
    "prefectureNumber": 41,
    "prefecture": "佐賀県",
    "city": "西松浦郡有田町",
    "town": "黒川"
  },
  "8494166": {
    "zipcode": "8494166",
    "prefectureCode": "41",
    "prefectureNumber": 41,
    "prefecture": "佐賀県",
    "city": "西松浦郡有田町",
    "town": "北ノ川内"
  },
  "8494171": {
    "zipcode": "8494171",
    "prefectureCode": "41",
    "prefectureNumber": 41,
    "prefecture": "佐賀県",
    "city": "西松浦郡有田町",
    "town": "代々木"
  },
  "8494172": {
    "zipcode": "8494172",
    "prefectureCode": "41",
    "prefectureNumber": 41,
    "prefecture": "佐賀県",
    "city": "西松浦郡有田町",
    "town": "下本"
  },
  "8494173": {
    "zipcode": "8494173",
    "prefectureCode": "41",
    "prefectureNumber": 41,
    "prefecture": "佐賀県",
    "city": "西松浦郡有田町",
    "town": "舞原"
  },
  "8494174": {
    "zipcode": "8494174",
    "prefectureCode": "41",
    "prefectureNumber": 41,
    "prefecture": "佐賀県",
    "city": "西松浦郡有田町",
    "town": "上本"
  },
  "8494175": {
    "zipcode": "8494175",
    "prefectureCode": "41",
    "prefectureNumber": 41,
    "prefecture": "佐賀県",
    "city": "西松浦郡有田町",
    "town": "楠木原"
  },
  "8494176": {
    "zipcode": "8494176",
    "prefectureCode": "41",
    "prefectureNumber": 41,
    "prefecture": "佐賀県",
    "city": "西松浦郡有田町",
    "town": "原明"
  },
  "8494251": {
    "zipcode": "8494251",
    "prefectureCode": "41",
    "prefectureNumber": 41,
    "prefecture": "佐賀県",
    "city": "伊万里市",
    "town": "山代町楠久"
  },
  "8494252": {
    "zipcode": "8494252",
    "prefectureCode": "41",
    "prefectureNumber": 41,
    "prefecture": "佐賀県",
    "city": "伊万里市",
    "town": "山代町楠久津"
  },
  "8494253": {
    "zipcode": "8494253",
    "prefectureCode": "41",
    "prefectureNumber": 41,
    "prefecture": "佐賀県",
    "city": "伊万里市",
    "town": "山代町峰"
  },
  "8494254": {
    "zipcode": "8494254",
    "prefectureCode": "41",
    "prefectureNumber": 41,
    "prefecture": "佐賀県",
    "city": "伊万里市",
    "town": "山代町城"
  },
  "8494255": {
    "zipcode": "8494255",
    "prefectureCode": "41",
    "prefectureNumber": 41,
    "prefecture": "佐賀県",
    "city": "伊万里市",
    "town": "山代町福川内"
  },
  "8494256": {
    "zipcode": "8494256",
    "prefectureCode": "41",
    "prefectureNumber": 41,
    "prefecture": "佐賀県",
    "city": "伊万里市",
    "town": "山代町久原"
  },
  "8494261": {
    "zipcode": "8494261",
    "prefectureCode": "41",
    "prefectureNumber": 41,
    "prefecture": "佐賀県",
    "city": "伊万里市",
    "town": "山代町立岩"
  },
  "8494262": {
    "zipcode": "8494262",
    "prefectureCode": "41",
    "prefectureNumber": 41,
    "prefecture": "佐賀県",
    "city": "伊万里市",
    "town": "山代町西分"
  },
  "8494263": {
    "zipcode": "8494263",
    "prefectureCode": "41",
    "prefectureNumber": 41,
    "prefecture": "佐賀県",
    "city": "伊万里市",
    "town": "山代町西大久保"
  },
  "8494264": {
    "zipcode": "8494264",
    "prefectureCode": "41",
    "prefectureNumber": 41,
    "prefecture": "佐賀県",
    "city": "伊万里市",
    "town": "山代町東分"
  },
  "8494271": {
    "zipcode": "8494271",
    "prefectureCode": "41",
    "prefectureNumber": 41,
    "prefecture": "佐賀県",
    "city": "伊万里市",
    "town": "東山代町長浜"
  },
  "8494272": {
    "zipcode": "8494272",
    "prefectureCode": "41",
    "prefectureNumber": 41,
    "prefecture": "佐賀県",
    "city": "伊万里市",
    "town": "東山代町日尾"
  },
  "8494273": {
    "zipcode": "8494273",
    "prefectureCode": "41",
    "prefectureNumber": 41,
    "prefecture": "佐賀県",
    "city": "伊万里市",
    "town": "東山代町天神"
  },
  "8494274": {
    "zipcode": "8494274",
    "prefectureCode": "41",
    "prefectureNumber": 41,
    "prefecture": "佐賀県",
    "city": "伊万里市",
    "town": "東山代町脇野"
  },
  "8494281": {
    "zipcode": "8494281",
    "prefectureCode": "41",
    "prefectureNumber": 41,
    "prefecture": "佐賀県",
    "city": "伊万里市",
    "town": "東山代町大久保"
  },
  "8494282": {
    "zipcode": "8494282",
    "prefectureCode": "41",
    "prefectureNumber": 41,
    "prefecture": "佐賀県",
    "city": "伊万里市",
    "town": "東山代町里"
  },
  "8494283": {
    "zipcode": "8494283",
    "prefectureCode": "41",
    "prefectureNumber": 41,
    "prefecture": "佐賀県",
    "city": "伊万里市",
    "town": "東山代町東大久保"
  },
  "8494284": {
    "zipcode": "8494284",
    "prefectureCode": "41",
    "prefectureNumber": 41,
    "prefecture": "佐賀県",
    "city": "伊万里市",
    "town": "東山代町浦川内"
  },
  "8494285": {
    "zipcode": "8494285",
    "prefectureCode": "41",
    "prefectureNumber": 41,
    "prefecture": "佐賀県",
    "city": "伊万里市",
    "town": "東山代町滝川内"
  },
  "8494286": {
    "zipcode": "8494286",
    "prefectureCode": "41",
    "prefectureNumber": 41,
    "prefecture": "佐賀県",
    "city": "伊万里市",
    "town": "東山代町川内野"
  },
  "8495101": {
    "zipcode": "8495101",
    "prefectureCode": "41",
    "prefectureNumber": 41,
    "prefecture": "佐賀県",
    "city": "唐津市",
    "town": "浜玉町岡口"
  },
  "8495102": {
    "zipcode": "8495102",
    "prefectureCode": "41",
    "prefectureNumber": 41,
    "prefecture": "佐賀県",
    "city": "唐津市",
    "town": "浜玉町五反田"
  },
  "8495103": {
    "zipcode": "8495103",
    "prefectureCode": "41",
    "prefectureNumber": 41,
    "prefecture": "佐賀県",
    "city": "唐津市",
    "town": "浜玉町大江"
  },
  "8495104": {
    "zipcode": "8495104",
    "prefectureCode": "41",
    "prefectureNumber": 41,
    "prefecture": "佐賀県",
    "city": "唐津市",
    "town": "浜玉町渕上"
  },
  "8495105": {
    "zipcode": "8495105",
    "prefectureCode": "41",
    "prefectureNumber": 41,
    "prefecture": "佐賀県",
    "city": "唐津市",
    "town": "浜玉町谷口"
  },
  "8495111": {
    "zipcode": "8495111",
    "prefectureCode": "41",
    "prefectureNumber": 41,
    "prefecture": "佐賀県",
    "city": "唐津市",
    "town": "浜玉町南山"
  },
  "8495112": {
    "zipcode": "8495112",
    "prefectureCode": "41",
    "prefectureNumber": 41,
    "prefecture": "佐賀県",
    "city": "唐津市",
    "town": "浜玉町平原"
  },
  "8495113": {
    "zipcode": "8495113",
    "prefectureCode": "41",
    "prefectureNumber": 41,
    "prefecture": "佐賀県",
    "city": "唐津市",
    "town": "浜玉町鳥巣"
  },
  "8495121": {
    "zipcode": "8495121",
    "prefectureCode": "41",
    "prefectureNumber": 41,
    "prefecture": "佐賀県",
    "city": "唐津市",
    "town": "浜玉町横田上"
  },
  "8495122": {
    "zipcode": "8495122",
    "prefectureCode": "41",
    "prefectureNumber": 41,
    "prefecture": "佐賀県",
    "city": "唐津市",
    "town": "浜玉町横田下"
  },
  "8495123": {
    "zipcode": "8495123",
    "prefectureCode": "41",
    "prefectureNumber": 41,
    "prefecture": "佐賀県",
    "city": "唐津市",
    "town": "浜玉町東山田"
  },
  "8495124": {
    "zipcode": "8495124",
    "prefectureCode": "41",
    "prefectureNumber": 41,
    "prefecture": "佐賀県",
    "city": "唐津市",
    "town": "浜玉町山瀬"
  },
  "8495131": {
    "zipcode": "8495131",
    "prefectureCode": "41",
    "prefectureNumber": 41,
    "prefecture": "佐賀県",
    "city": "唐津市",
    "town": "浜玉町浜崎"
  },
  "8495251": {
    "zipcode": "8495251",
    "prefectureCode": "41",
    "prefectureNumber": 41,
    "prefecture": "佐賀県",
    "city": "伊万里市",
    "town": "大川町大川野"
  },
  "8495252": {
    "zipcode": "8495252",
    "prefectureCode": "41",
    "prefectureNumber": 41,
    "prefecture": "佐賀県",
    "city": "伊万里市",
    "town": "大川町川西"
  },
  "8495253": {
    "zipcode": "8495253",
    "prefectureCode": "41",
    "prefectureNumber": 41,
    "prefecture": "佐賀県",
    "city": "伊万里市",
    "town": "大川町駒鳴"
  },
  "8495254": {
    "zipcode": "8495254",
    "prefectureCode": "41",
    "prefectureNumber": 41,
    "prefecture": "佐賀県",
    "city": "伊万里市",
    "town": "大川町立川"
  },
  "8495255": {
    "zipcode": "8495255",
    "prefectureCode": "41",
    "prefectureNumber": 41,
    "prefecture": "佐賀県",
    "city": "伊万里市",
    "town": "大川町山口"
  },
  "8495256": {
    "zipcode": "8495256",
    "prefectureCode": "41",
    "prefectureNumber": 41,
    "prefecture": "佐賀県",
    "city": "伊万里市",
    "town": "大川町東田代"
  },
  "8495257": {
    "zipcode": "8495257",
    "prefectureCode": "41",
    "prefectureNumber": 41,
    "prefecture": "佐賀県",
    "city": "伊万里市",
    "town": "大川町川原"
  },
  "8495261": {
    "zipcode": "8495261",
    "prefectureCode": "41",
    "prefectureNumber": 41,
    "prefecture": "佐賀県",
    "city": "伊万里市",
    "town": "松浦町桃川"
  },
  "8495262": {
    "zipcode": "8495262",
    "prefectureCode": "41",
    "prefectureNumber": 41,
    "prefecture": "佐賀県",
    "city": "伊万里市",
    "town": "松浦町中野原"
  },
  "8495263": {
    "zipcode": "8495263",
    "prefectureCode": "41",
    "prefectureNumber": 41,
    "prefecture": "佐賀県",
    "city": "伊万里市",
    "town": "松浦町山形"
  },
  "8495264": {
    "zipcode": "8495264",
    "prefectureCode": "41",
    "prefectureNumber": 41,
    "prefecture": "佐賀県",
    "city": "伊万里市",
    "town": "松浦町提川"
  }
}
