{
  "8528001": {
    "zipcode": "8528001",
    "prefectureCode": "42",
    "prefectureNumber": 42,
    "prefecture": "長崎県",
    "city": "長崎市",
    "town": "光町"
  },
  "8528002": {
    "zipcode": "8528002",
    "prefectureCode": "42",
    "prefectureNumber": 42,
    "prefecture": "長崎県",
    "city": "長崎市",
    "town": "弁天町"
  },
  "8528003": {
    "zipcode": "8528003",
    "prefectureCode": "42",
    "prefectureNumber": 42,
    "prefecture": "長崎県",
    "city": "長崎市",
    "town": "旭町"
  },
  "8528004": {
    "zipcode": "8528004",
    "prefectureCode": "42",
    "prefectureNumber": 42,
    "prefecture": "長崎県",
    "city": "長崎市",
    "town": "丸尾町"
  },
  "8528005": {
    "zipcode": "8528005",
    "prefectureCode": "42",
    "prefectureNumber": 42,
    "prefecture": "長崎県",
    "city": "長崎市",
    "town": "大鳥町"
  },
  "8528006": {
    "zipcode": "8528006",
    "prefectureCode": "42",
    "prefectureNumber": 42,
    "prefecture": "長崎県",
    "city": "長崎市",
    "town": "平戸小屋町"
  },
  "8528007": {
    "zipcode": "8528007",
    "prefectureCode": "42",
    "prefectureNumber": 42,
    "prefecture": "長崎県",
    "city": "長崎市",
    "town": "江の浦町"
  },
  "8528008": {
    "zipcode": "8528008",
    "prefectureCode": "42",
    "prefectureNumber": 42,
    "prefecture": "長崎県",
    "city": "長崎市",
    "town": "曙町"
  },
  "8528011": {
    "zipcode": "8528011",
    "prefectureCode": "42",
    "prefectureNumber": 42,
    "prefecture": "長崎県",
    "city": "長崎市",
    "town": "稲佐町"
  },
  "8528012": {
    "zipcode": "8528012",
    "prefectureCode": "42",
    "prefectureNumber": 42,
    "prefecture": "長崎県",
    "city": "長崎市",
    "town": "淵町"
  },
  "8528013": {
    "zipcode": "8528013",
    "prefectureCode": "42",
    "prefectureNumber": 42,
    "prefecture": "長崎県",
    "city": "長崎市",
    "town": "梁川町"
  },
  "8528014": {
    "zipcode": "8528014",
    "prefectureCode": "42",
    "prefectureNumber": 42,
    "prefecture": "長崎県",
    "city": "長崎市",
    "town": "竹の久保町"
  },
  "8528015": {
    "zipcode": "8528015",
    "prefectureCode": "42",
    "prefectureNumber": 42,
    "prefecture": "長崎県",
    "city": "長崎市",
    "town": "春木町"
  },
  "8528016": {
    "zipcode": "8528016",
    "prefectureCode": "42",
    "prefectureNumber": 42,
    "prefecture": "長崎県",
    "city": "長崎市",
    "town": "宝栄町"
  },
  "8528017": {
    "zipcode": "8528017",
    "prefectureCode": "42",
    "prefectureNumber": 42,
    "prefecture": "長崎県",
    "city": "長崎市",
    "town": "岩見町"
  },
  "8528021": {
    "zipcode": "8528021",
    "prefectureCode": "42",
    "prefectureNumber": 42,
    "prefecture": "長崎県",
    "city": "長崎市",
    "town": "城山町"
  },
  "8528022": {
    "zipcode": "8528022",
    "prefectureCode": "42",
    "prefectureNumber": 42,
    "prefecture": "長崎県",
    "city": "長崎市",
    "town": "富士見町"
  },
  "8528023": {
    "zipcode": "8528023",
    "prefectureCode": "42",
    "prefectureNumber": 42,
    "prefecture": "長崎県",
    "city": "長崎市",
    "town": "若草町"
  },
  "8528024": {
    "zipcode": "8528024",
    "prefectureCode": "42",
    "prefectureNumber": 42,
    "prefecture": "長崎県",
    "city": "長崎市",
    "town": "花園町"
  },
  "8528025": {
    "zipcode": "8528025",
    "prefectureCode": "42",
    "prefectureNumber": 42,
    "prefecture": "長崎県",
    "city": "長崎市",
    "town": "立岩町"
  },
  "8528026": {
    "zipcode": "8528026",
    "prefectureCode": "42",
    "prefectureNumber": 42,
    "prefecture": "長崎県",
    "city": "長崎市",
    "town": "金堀町"
  },
  "8528027": {
    "zipcode": "8528027",
    "prefectureCode": "42",
    "prefectureNumber": 42,
    "prefecture": "長崎県",
    "city": "長崎市",
    "town": "城山台"
  },
  "8528031": {
    "zipcode": "8528031",
    "prefectureCode": "42",
    "prefectureNumber": 42,
    "prefecture": "長崎県",
    "city": "長崎市",
    "town": "三芳町"
  },
  "8528032": {
    "zipcode": "8528032",
    "prefectureCode": "42",
    "prefectureNumber": 42,
    "prefecture": "長崎県",
    "city": "長崎市",
    "town": "江里町"
  },
  "8528033": {
    "zipcode": "8528033",
    "prefectureCode": "42",
    "prefectureNumber": 42,
    "prefecture": "長崎県",
    "city": "長崎市",
    "town": "緑が丘町"
  },
  "8528034": {
    "zipcode": "8528034",
    "prefectureCode": "42",
    "prefectureNumber": 42,
    "prefecture": "長崎県",
    "city": "長崎市",
    "town": "城栄町"
  },
  "8528035": {
    "zipcode": "8528035",
    "prefectureCode": "42",
    "prefectureNumber": 42,
    "prefecture": "長崎県",
    "city": "長崎市",
    "town": "油木町"
  },
  "8528036": {
    "zipcode": "8528036",
    "prefectureCode": "42",
    "prefectureNumber": 42,
    "prefecture": "長崎県",
    "city": "長崎市",
    "town": "青山町"
  },
  "8528041": {
    "zipcode": "8528041",
    "prefectureCode": "42",
    "prefectureNumber": 42,
    "prefecture": "長崎県",
    "city": "長崎市",
    "town": "清水町"
  },
  "8528042": {
    "zipcode": "8528042",
    "prefectureCode": "42",
    "prefectureNumber": 42,
    "prefecture": "長崎県",
    "city": "長崎市",
    "town": "白鳥町"
  },
  "8528043": {
    "zipcode": "8528043",
    "prefectureCode": "42",
    "prefectureNumber": 42,
    "prefecture": "長崎県",
    "city": "長崎市",
    "town": "西町"
  },
  "8528044": {
    "zipcode": "8528044",
    "prefectureCode": "42",
    "prefectureNumber": 42,
    "prefecture": "長崎県",
    "city": "長崎市",
    "town": "音無町"
  },
  "8528045": {
    "zipcode": "8528045",
    "prefectureCode": "42",
    "prefectureNumber": 42,
    "prefecture": "長崎県",
    "city": "長崎市",
    "town": "錦"
  },
  "8528046": {
    "zipcode": "8528046",
    "prefectureCode": "42",
    "prefectureNumber": 42,
    "prefecture": "長崎県",
    "city": "長崎市",
    "town": "柳谷町"
  },
  "8528047": {
    "zipcode": "8528047",
    "prefectureCode": "42",
    "prefectureNumber": 42,
    "prefecture": "長崎県",
    "city": "長崎市",
    "town": "若竹町"
  },
  "8528051": {
    "zipcode": "8528051",
    "prefectureCode": "42",
    "prefectureNumber": 42,
    "prefecture": "長崎県",
    "city": "長崎市",
    "town": "西北町"
  },
  "8528052": {
    "zipcode": "8528052",
    "prefectureCode": "42",
    "prefectureNumber": 42,
    "prefecture": "長崎県",
    "city": "長崎市",
    "town": "岩屋町"
  },
  "8528053": {
    "zipcode": "8528053",
    "prefectureCode": "42",
    "prefectureNumber": 42,
    "prefecture": "長崎県",
    "city": "長崎市",
    "town": "葉山"
  },
  "8528054": {
    "zipcode": "8528054",
    "prefectureCode": "42",
    "prefectureNumber": 42,
    "prefecture": "長崎県",
    "city": "長崎市",
    "town": "エミネント葉山町"
  },
  "8528055": {
    "zipcode": "8528055",
    "prefectureCode": "42",
    "prefectureNumber": 42,
    "prefecture": "長崎県",
    "city": "長崎市",
    "town": "虹が丘町"
  },
  "8528056": {
    "zipcode": "8528056",
    "prefectureCode": "42",
    "prefectureNumber": 42,
    "prefecture": "長崎県",
    "city": "長崎市",
    "town": "大宮町"
  },
  "8528061": {
    "zipcode": "8528061",
    "prefectureCode": "42",
    "prefectureNumber": 42,
    "prefecture": "長崎県",
    "city": "長崎市",
    "town": "滑石"
  },
  "8528062": {
    "zipcode": "8528062",
    "prefectureCode": "42",
    "prefectureNumber": 42,
    "prefecture": "長崎県",
    "city": "長崎市",
    "town": "大園町"
  },
  "8528063": {
    "zipcode": "8528063",
    "prefectureCode": "42",
    "prefectureNumber": 42,
    "prefecture": "長崎県",
    "city": "長崎市",
    "town": "北栄町"
  },
  "8528064": {
    "zipcode": "8528064",
    "prefectureCode": "42",
    "prefectureNumber": 42,
    "prefecture": "長崎県",
    "city": "長崎市",
    "town": "北陽町"
  },
  "8528065": {
    "zipcode": "8528065",
    "prefectureCode": "42",
    "prefectureNumber": 42,
    "prefecture": "長崎県",
    "city": "長崎市",
    "town": "横尾"
  },
  "8528101": {
    "zipcode": "8528101",
    "prefectureCode": "42",
    "prefectureNumber": 42,
    "prefecture": "長崎県",
    "city": "長崎市",
    "town": "江平"
  },
  "8528102": {
    "zipcode": "8528102",
    "prefectureCode": "42",
    "prefectureNumber": 42,
    "prefecture": "長崎県",
    "city": "長崎市",
    "town": "坂本"
  },
  "8528103": {
    "zipcode": "8528103",
    "prefectureCode": "42",
    "prefectureNumber": 42,
    "prefecture": "長崎県",
    "city": "長崎市",
    "town": "緑町"
  },
  "8528104": {
    "zipcode": "8528104",
    "prefectureCode": "42",
    "prefectureNumber": 42,
    "prefecture": "長崎県",
    "city": "長崎市",
    "town": "茂里町"
  },
  "8528105": {
    "zipcode": "8528105",
    "prefectureCode": "42",
    "prefectureNumber": 42,
    "prefecture": "長崎県",
    "city": "長崎市",
    "town": "目覚町"
  },
  "8528106": {
    "zipcode": "8528106",
    "prefectureCode": "42",
    "prefectureNumber": 42,
    "prefecture": "長崎県",
    "city": "長崎市",
    "town": "岩川町"
  },
  "8528107": {
    "zipcode": "8528107",
    "prefectureCode": "42",
    "prefectureNumber": 42,
    "prefecture": "長崎県",
    "city": "長崎市",
    "town": "浜口町"
  },
  "8528108": {
    "zipcode": "8528108",
    "prefectureCode": "42",
    "prefectureNumber": 42,
    "prefecture": "長崎県",
    "city": "長崎市",
    "town": "川口町"
  },
  "8528111": {
    "zipcode": "8528111",
    "prefectureCode": "42",
    "prefectureNumber": 42,
    "prefecture": "長崎県",
    "city": "長崎市",
    "town": "高尾町"
  },
  "8528112": {
    "zipcode": "8528112",
    "prefectureCode": "42",
    "prefectureNumber": 42,
    "prefecture": "長崎県",
    "city": "長崎市",
    "town": "本尾町"
  },
  "8528113": {
    "zipcode": "8528113",
    "prefectureCode": "42",
    "prefectureNumber": 42,
    "prefecture": "長崎県",
    "city": "長崎市",
    "town": "上野町"
  },
  "8528114": {
    "zipcode": "8528114",
    "prefectureCode": "42",
    "prefectureNumber": 42,
    "prefecture": "長崎県",
    "city": "長崎市",
    "town": "橋口町"
  },
  "8528115": {
    "zipcode": "8528115",
    "prefectureCode": "42",
    "prefectureNumber": 42,
    "prefecture": "長崎県",
    "city": "長崎市",
    "town": "岡町"
  },
  "8528116": {
    "zipcode": "8528116",
    "prefectureCode": "42",
    "prefectureNumber": 42,
    "prefecture": "長崎県",
    "city": "長崎市",
    "town": "平和町"
  },
  "8528117": {
    "zipcode": "8528117",
    "prefectureCode": "42",
    "prefectureNumber": 42,
    "prefecture": "長崎県",
    "city": "長崎市",
    "town": "平野町"
  },
  "8528118": {
    "zipcode": "8528118",
    "prefectureCode": "42",
    "prefectureNumber": 42,
    "prefecture": "長崎県",
    "city": "長崎市",
    "town": "松山町"
  },
  "8528121": {
    "zipcode": "8528121",
    "prefectureCode": "42",
    "prefectureNumber": 42,
    "prefecture": "長崎県",
    "city": "長崎市",
    "town": "三川町"
  },
  "8528122": {
    "zipcode": "8528122",
    "prefectureCode": "42",
    "prefectureNumber": 42,
    "prefecture": "長崎県",
    "city": "長崎市",
    "town": "西山台"
  },
  "8528123": {
    "zipcode": "8528123",
    "prefectureCode": "42",
    "prefectureNumber": 42,
    "prefecture": "長崎県",
    "city": "長崎市",
    "town": "三原"
  },
  "8528124": {
    "zipcode": "8528124",
    "prefectureCode": "42",
    "prefectureNumber": 42,
    "prefecture": "長崎県",
    "city": "長崎市",
    "town": "辻町"
  },
  "8528125": {
    "zipcode": "8528125",
    "prefectureCode": "42",
    "prefectureNumber": 42,
    "prefecture": "長崎県",
    "city": "長崎市",
    "town": "小峰町"
  },
  "8528126": {
    "zipcode": "8528126",
    "prefectureCode": "42",
    "prefectureNumber": 42,
    "prefecture": "長崎県",
    "city": "長崎市",
    "town": "石神町"
  },
  "8528127": {
    "zipcode": "8528127",
    "prefectureCode": "42",
    "prefectureNumber": 42,
    "prefecture": "長崎県",
    "city": "長崎市",
    "town": "大手"
  },
  "8528131": {
    "zipcode": "8528131",
    "prefectureCode": "42",
    "prefectureNumber": 42,
    "prefecture": "長崎県",
    "city": "長崎市",
    "town": "文教町"
  },
  "8528132": {
    "zipcode": "8528132",
    "prefectureCode": "42",
    "prefectureNumber": 42,
    "prefecture": "長崎県",
    "city": "長崎市",
    "town": "扇町"
  },
  "8528133": {
    "zipcode": "8528133",
    "prefectureCode": "42",
    "prefectureNumber": 42,
    "prefecture": "長崎県",
    "city": "長崎市",
    "town": "本原町"
  },
  "8528134": {
    "zipcode": "8528134",
    "prefectureCode": "42",
    "prefectureNumber": 42,
    "prefecture": "長崎県",
    "city": "長崎市",
    "town": "大橋町"
  },
  "8528135": {
    "zipcode": "8528135",
    "prefectureCode": "42",
    "prefectureNumber": 42,
    "prefecture": "長崎県",
    "city": "長崎市",
    "town": "千歳町"
  },
  "8528136": {
    "zipcode": "8528136",
    "prefectureCode": "42",
    "prefectureNumber": 42,
    "prefecture": "長崎県",
    "city": "長崎市",
    "town": "家野町"
  },
  "8528137": {
    "zipcode": "8528137",
    "prefectureCode": "42",
    "prefectureNumber": 42,
    "prefecture": "長崎県",
    "city": "長崎市",
    "town": "若葉町"
  },
  "8528141": {
    "zipcode": "8528141",
    "prefectureCode": "42",
    "prefectureNumber": 42,
    "prefecture": "長崎県",
    "city": "長崎市",
    "town": "畦別当町"
  },
  "8528142": {
    "zipcode": "8528142",
    "prefectureCode": "42",
    "prefectureNumber": 42,
    "prefecture": "長崎県",
    "city": "長崎市",
    "town": "三ツ山町"
  },
  "8528143": {
    "zipcode": "8528143",
    "prefectureCode": "42",
    "prefectureNumber": 42,
    "prefecture": "長崎県",
    "city": "長崎市",
    "town": "川平町"
  },
  "8528144": {
    "zipcode": "8528144",
    "prefectureCode": "42",
    "prefectureNumber": 42,
    "prefecture": "長崎県",
    "city": "長崎市",
    "town": "女の都"
  },
  "8528145": {
    "zipcode": "8528145",
    "prefectureCode": "42",
    "prefectureNumber": 42,
    "prefecture": "長崎県",
    "city": "長崎市",
    "town": "昭和"
  },
  "8528146": {
    "zipcode": "8528146",
    "prefectureCode": "42",
    "prefectureNumber": 42,
    "prefecture": "長崎県",
    "city": "長崎市",
    "town": "けやき台町"
  },
  "8528151": {
    "zipcode": "8528151",
    "prefectureCode": "42",
    "prefectureNumber": 42,
    "prefecture": "長崎県",
    "city": "長崎市",
    "town": "泉"
  },
  "8528152": {
    "zipcode": "8528152",
    "prefectureCode": "42",
    "prefectureNumber": 42,
    "prefecture": "長崎県",
    "city": "長崎市",
    "town": "住吉台町"
  },
  "8528153": {
    "zipcode": "8528153",
    "prefectureCode": "42",
    "prefectureNumber": 42,
    "prefecture": "長崎県",
    "city": "長崎市",
    "town": "花丘町"
  },
  "8528154": {
    "zipcode": "8528154",
    "prefectureCode": "42",
    "prefectureNumber": 42,
    "prefecture": "長崎県",
    "city": "長崎市",
    "town": "住吉町"
  },
  "8528155": {
    "zipcode": "8528155",
    "prefectureCode": "42",
    "prefectureNumber": 42,
    "prefecture": "長崎県",
    "city": "長崎市",
    "town": "中園町"
  },
  "8528156": {
    "zipcode": "8528156",
    "prefectureCode": "42",
    "prefectureNumber": 42,
    "prefecture": "長崎県",
    "city": "長崎市",
    "town": "赤迫"
  },
  "8528157": {
    "zipcode": "8528157",
    "prefectureCode": "42",
    "prefectureNumber": 42,
    "prefecture": "長崎県",
    "city": "長崎市",
    "town": "泉町"
  }
}
