{
  "8530000": {
    "zipcode": "8530000",
    "prefectureCode": "42",
    "prefectureNumber": 42,
    "prefecture": "長崎県",
    "city": "五島市",
    "town": "以下に掲載がない場合"
  },
  "8530001": {
    "zipcode": "8530001",
    "prefectureCode": "42",
    "prefectureNumber": 42,
    "prefecture": "長崎県",
    "city": "五島市",
    "town": "栄町"
  },
  "8530002": {
    "zipcode": "8530002",
    "prefectureCode": "42",
    "prefectureNumber": 42,
    "prefecture": "長崎県",
    "city": "五島市",
    "town": "中央町"
  },
  "8530003": {
    "zipcode": "8530003",
    "prefectureCode": "42",
    "prefectureNumber": 42,
    "prefecture": "長崎県",
    "city": "五島市",
    "town": "錦町"
  },
  "8530004": {
    "zipcode": "8530004",
    "prefectureCode": "42",
    "prefectureNumber": 42,
    "prefecture": "長崎県",
    "city": "五島市",
    "town": "幸町"
  },
  "8530005": {
    "zipcode": "8530005",
    "prefectureCode": "42",
    "prefectureNumber": 42,
    "prefecture": "長崎県",
    "city": "五島市",
    "town": "末広町"
  },
  "8530006": {
    "zipcode": "8530006",
    "prefectureCode": "42",
    "prefectureNumber": 42,
    "prefecture": "長崎県",
    "city": "五島市",
    "town": "江川町"
  },
  "8530007": {
    "zipcode": "8530007",
    "prefectureCode": "42",
    "prefectureNumber": 42,
    "prefecture": "長崎県",
    "city": "五島市",
    "town": "福江町"
  },
  "8530011": {
    "zipcode": "8530011",
    "prefectureCode": "42",
    "prefectureNumber": 42,
    "prefecture": "長崎県",
    "city": "五島市",
    "town": "下大津町"
  },
  "8530012": {
    "zipcode": "8530012",
    "prefectureCode": "42",
    "prefectureNumber": 42,
    "prefecture": "長崎県",
    "city": "五島市",
    "town": "長手町"
  },
  "8530013": {
    "zipcode": "8530013",
    "prefectureCode": "42",
    "prefectureNumber": 42,
    "prefecture": "長崎県",
    "city": "五島市",
    "town": "上大津町"
  },
  "8530014": {
    "zipcode": "8530014",
    "prefectureCode": "42",
    "prefectureNumber": 42,
    "prefecture": "長崎県",
    "city": "五島市",
    "town": "三尾野町"
  },
  "8530015": {
    "zipcode": "8530015",
    "prefectureCode": "42",
    "prefectureNumber": 42,
    "prefecture": "長崎県",
    "city": "五島市",
    "town": "東浜町"
  },
  "8530016": {
    "zipcode": "8530016",
    "prefectureCode": "42",
    "prefectureNumber": 42,
    "prefecture": "長崎県",
    "city": "五島市",
    "town": "紺屋町"
  },
  "8530017": {
    "zipcode": "8530017",
    "prefectureCode": "42",
    "prefectureNumber": 42,
    "prefecture": "長崎県",
    "city": "五島市",
    "town": "武家屋敷"
  },
  "8530018": {
    "zipcode": "8530018",
    "prefectureCode": "42",
    "prefectureNumber": 42,
    "prefecture": "長崎県",
    "city": "五島市",
    "town": "池田町"
  },
  "8530021": {
    "zipcode": "8530021",
    "prefectureCode": "42",
    "prefectureNumber": 42,
    "prefecture": "長崎県",
    "city": "五島市",
    "town": "下崎山町"
  },
  "8530022": {
    "zipcode": "8530022",
    "prefectureCode": "42",
    "prefectureNumber": 42,
    "prefecture": "長崎県",
    "city": "五島市",
    "town": "向町"
  },
  "8530023": {
    "zipcode": "8530023",
    "prefectureCode": "42",
    "prefectureNumber": 42,
    "prefecture": "長崎県",
    "city": "五島市",
    "town": "上崎山町"
  },
  "8530024": {
    "zipcode": "8530024",
    "prefectureCode": "42",
    "prefectureNumber": 42,
    "prefecture": "長崎県",
    "city": "五島市",
    "town": "野々切町"
  },
  "8530025": {
    "zipcode": "8530025",
    "prefectureCode": "42",
    "prefectureNumber": 42,
    "prefecture": "長崎県",
    "city": "五島市",
    "town": "小泊町"
  },
  "8530026": {
    "zipcode": "8530026",
    "prefectureCode": "42",
    "prefectureNumber": 42,
    "prefecture": "長崎県",
    "city": "五島市",
    "town": "浜町"
  },
  "8530027": {
    "zipcode": "8530027",
    "prefectureCode": "42",
    "prefectureNumber": 42,
    "prefecture": "長崎県",
    "city": "五島市",
    "town": "増田町"
  },
  "8530031": {
    "zipcode": "8530031",
    "prefectureCode": "42",
    "prefectureNumber": 42,
    "prefecture": "長崎県",
    "city": "五島市",
    "town": "吉久木町"
  },
  "8530032": {
    "zipcode": "8530032",
    "prefectureCode": "42",
    "prefectureNumber": 42,
    "prefecture": "長崎県",
    "city": "五島市",
    "town": "大荒町"
  },
  "8530033": {
    "zipcode": "8530033",
    "prefectureCode": "42",
    "prefectureNumber": 42,
    "prefecture": "長崎県",
    "city": "五島市",
    "town": "木場町"
  },
  "8530041": {
    "zipcode": "8530041",
    "prefectureCode": "42",
    "prefectureNumber": 42,
    "prefecture": "長崎県",
    "city": "五島市",
    "town": "籠淵町"
  },
  "8530042": {
    "zipcode": "8530042",
    "prefectureCode": "42",
    "prefectureNumber": 42,
    "prefecture": "長崎県",
    "city": "五島市",
    "town": "吉田町"
  },
  "8530043": {
    "zipcode": "8530043",
    "prefectureCode": "42",
    "prefectureNumber": 42,
    "prefecture": "長崎県",
    "city": "五島市",
    "town": "高田町"
  },
  "8530044": {
    "zipcode": "8530044",
    "prefectureCode": "42",
    "prefectureNumber": 42,
    "prefecture": "長崎県",
    "city": "五島市",
    "town": "堤町"
  },
  "8530051": {
    "zipcode": "8530051",
    "prefectureCode": "42",
    "prefectureNumber": 42,
    "prefecture": "長崎県",
    "city": "五島市",
    "town": "平蔵町"
  },
  "8530052": {
    "zipcode": "8530052",
    "prefectureCode": "42",
    "prefectureNumber": 42,
    "prefecture": "長崎県",
    "city": "五島市",
    "town": "松山町"
  },
  "8530053": {
    "zipcode": "8530053",
    "prefectureCode": "42",
    "prefectureNumber": 42,
    "prefecture": "長崎県",
    "city": "五島市",
    "town": "奥浦町"
  },
  "8530054": {
    "zipcode": "8530054",
    "prefectureCode": "42",
    "prefectureNumber": 42,
    "prefecture": "長崎県",
    "city": "五島市",
    "town": "戸岐町"
  },
  "8530061": {
    "zipcode": "8530061",
    "prefectureCode": "42",
    "prefectureNumber": 42,
    "prefecture": "長崎県",
    "city": "五島市",
    "town": "黄島町"
  },
  "8530062": {
    "zipcode": "8530062",
    "prefectureCode": "42",
    "prefectureNumber": 42,
    "prefecture": "長崎県",
    "city": "五島市",
    "town": "赤島町"
  },
  "8530063": {
    "zipcode": "8530063",
    "prefectureCode": "42",
    "prefectureNumber": 42,
    "prefecture": "長崎県",
    "city": "五島市",
    "town": "新港町"
  },
  "8530064": {
    "zipcode": "8530064",
    "prefectureCode": "42",
    "prefectureNumber": 42,
    "prefecture": "長崎県",
    "city": "五島市",
    "town": "三尾野"
  },
  "8530065": {
    "zipcode": "8530065",
    "prefectureCode": "42",
    "prefectureNumber": 42,
    "prefecture": "長崎県",
    "city": "五島市",
    "town": "坂の上"
  },
  "8530066": {
    "zipcode": "8530066",
    "prefectureCode": "42",
    "prefectureNumber": 42,
    "prefecture": "長崎県",
    "city": "五島市",
    "town": "大円寺町"
  },
  "8530201": {
    "zipcode": "8530201",
    "prefectureCode": "42",
    "prefectureNumber": 42,
    "prefecture": "長崎県",
    "city": "五島市",
    "town": "富江町富江"
  },
  "8530202": {
    "zipcode": "8530202",
    "prefectureCode": "42",
    "prefectureNumber": 42,
    "prefecture": "長崎県",
    "city": "五島市",
    "town": "富江町松尾"
  },
  "8530203": {
    "zipcode": "8530203",
    "prefectureCode": "42",
    "prefectureNumber": 42,
    "prefecture": "長崎県",
    "city": "五島市",
    "town": "富江町田尾"
  },
  "8530204": {
    "zipcode": "8530204",
    "prefectureCode": "42",
    "prefectureNumber": 42,
    "prefecture": "長崎県",
    "city": "五島市",
    "town": "富江町繁敷"
  },
  "8530205": {
    "zipcode": "8530205",
    "prefectureCode": "42",
    "prefectureNumber": 42,
    "prefecture": "長崎県",
    "city": "五島市",
    "town": "富江町狩立"
  },
  "8530206": {
    "zipcode": "8530206",
    "prefectureCode": "42",
    "prefectureNumber": 42,
    "prefecture": "長崎県",
    "city": "五島市",
    "town": "富江町山手"
  },
  "8530207": {
    "zipcode": "8530207",
    "prefectureCode": "42",
    "prefectureNumber": 42,
    "prefecture": "長崎県",
    "city": "五島市",
    "town": "富江町長峰"
  },
  "8530208": {
    "zipcode": "8530208",
    "prefectureCode": "42",
    "prefectureNumber": 42,
    "prefecture": "長崎県",
    "city": "五島市",
    "town": "富江町黒島"
  },
  "8530211": {
    "zipcode": "8530211",
    "prefectureCode": "42",
    "prefectureNumber": 42,
    "prefecture": "長崎県",
    "city": "五島市",
    "town": "富江町黒瀬"
  },
  "8530212": {
    "zipcode": "8530212",
    "prefectureCode": "42",
    "prefectureNumber": 42,
    "prefecture": "長崎県",
    "city": "五島市",
    "town": "富江町山下"
  },
  "8530213": {
    "zipcode": "8530213",
    "prefectureCode": "42",
    "prefectureNumber": 42,
    "prefecture": "長崎県",
    "city": "五島市",
    "town": "富江町岳"
  },
  "8530214": {
    "zipcode": "8530214",
    "prefectureCode": "42",
    "prefectureNumber": 42,
    "prefecture": "長崎県",
    "city": "五島市",
    "town": "富江町土取"
  },
  "8530215": {
    "zipcode": "8530215",
    "prefectureCode": "42",
    "prefectureNumber": 42,
    "prefecture": "長崎県",
    "city": "五島市",
    "town": "富江町職人"
  },
  "8530311": {
    "zipcode": "8530311",
    "prefectureCode": "42",
    "prefectureNumber": 42,
    "prefecture": "長崎県",
    "city": "五島市",
    "town": "岐宿町二本楠"
  },
  "8530312": {
    "zipcode": "8530312",
    "prefectureCode": "42",
    "prefectureNumber": 42,
    "prefecture": "長崎県",
    "city": "五島市",
    "town": "岐宿町中嶽"
  },
  "8530313": {
    "zipcode": "8530313",
    "prefectureCode": "42",
    "prefectureNumber": 42,
    "prefecture": "長崎県",
    "city": "五島市",
    "town": "岐宿町松山"
  },
  "8530411": {
    "zipcode": "8530411",
    "prefectureCode": "42",
    "prefectureNumber": 42,
    "prefecture": "長崎県",
    "city": "五島市",
    "town": "玉之浦町玉之浦"
  },
  "8530412": {
    "zipcode": "8530412",
    "prefectureCode": "42",
    "prefectureNumber": 42,
    "prefecture": "長崎県",
    "city": "五島市",
    "town": "玉之浦町立谷"
  },
  "8530413": {
    "zipcode": "8530413",
    "prefectureCode": "42",
    "prefectureNumber": 42,
    "prefecture": "長崎県",
    "city": "五島市",
    "town": "玉之浦町大宝"
  },
  "8530501": {
    "zipcode": "8530501",
    "prefectureCode": "42",
    "prefectureNumber": 42,
    "prefecture": "長崎県",
    "city": "五島市",
    "town": "玉之浦町荒川"
  },
  "8530502": {
    "zipcode": "8530502",
    "prefectureCode": "42",
    "prefectureNumber": 42,
    "prefecture": "長崎県",
    "city": "五島市",
    "town": "玉之浦町幾久山"
  },
  "8530503": {
    "zipcode": "8530503",
    "prefectureCode": "42",
    "prefectureNumber": 42,
    "prefecture": "長崎県",
    "city": "五島市",
    "town": "玉之浦町小川"
  },
  "8530504": {
    "zipcode": "8530504",
    "prefectureCode": "42",
    "prefectureNumber": 42,
    "prefecture": "長崎県",
    "city": "五島市",
    "town": "玉之浦町丹奈"
  },
  "8530505": {
    "zipcode": "8530505",
    "prefectureCode": "42",
    "prefectureNumber": 42,
    "prefecture": "長崎県",
    "city": "五島市",
    "town": "玉之浦町中須"
  },
  "8530506": {
    "zipcode": "8530506",
    "prefectureCode": "42",
    "prefectureNumber": 42,
    "prefecture": "長崎県",
    "city": "五島市",
    "town": "玉之浦町上の平"
  },
  "8530507": {
    "zipcode": "8530507",
    "prefectureCode": "42",
    "prefectureNumber": 42,
    "prefecture": "長崎県",
    "city": "五島市",
    "town": "玉之浦町頓泊"
  },
  "8530508": {
    "zipcode": "8530508",
    "prefectureCode": "42",
    "prefectureNumber": 42,
    "prefecture": "長崎県",
    "city": "五島市",
    "town": "玉之浦町布浦"
  },
  "8530601": {
    "zipcode": "8530601",
    "prefectureCode": "42",
    "prefectureNumber": 42,
    "prefecture": "長崎県",
    "city": "五島市",
    "town": "三井楽町濱ノ畔"
  },
  "8530602": {
    "zipcode": "8530602",
    "prefectureCode": "42",
    "prefectureNumber": 42,
    "prefecture": "長崎県",
    "city": "五島市",
    "town": "三井楽町大川"
  },
  "8530603": {
    "zipcode": "8530603",
    "prefectureCode": "42",
    "prefectureNumber": 42,
    "prefecture": "長崎県",
    "city": "五島市",
    "town": "三井楽町柏"
  },
  "8530604": {
    "zipcode": "8530604",
    "prefectureCode": "42",
    "prefectureNumber": 42,
    "prefecture": "長崎県",
    "city": "五島市",
    "town": "三井楽町貝津"
  },
  "8530605": {
    "zipcode": "8530605",
    "prefectureCode": "42",
    "prefectureNumber": 42,
    "prefecture": "長崎県",
    "city": "五島市",
    "town": "三井楽町濱窄"
  },
  "8530606": {
    "zipcode": "8530606",
    "prefectureCode": "42",
    "prefectureNumber": 42,
    "prefecture": "長崎県",
    "city": "五島市",
    "town": "三井楽町丑ノ浦"
  },
  "8530607": {
    "zipcode": "8530607",
    "prefectureCode": "42",
    "prefectureNumber": 42,
    "prefecture": "長崎県",
    "city": "五島市",
    "town": "三井楽町嶽"
  },
  "8530608": {
    "zipcode": "8530608",
    "prefectureCode": "42",
    "prefectureNumber": 42,
    "prefecture": "長崎県",
    "city": "五島市",
    "town": "三井楽町波砂間"
  },
  "8530609": {
    "zipcode": "8530609",
    "prefectureCode": "42",
    "prefectureNumber": 42,
    "prefecture": "長崎県",
    "city": "五島市",
    "town": "三井楽町渕ノ元"
  },
  "8530611": {
    "zipcode": "8530611",
    "prefectureCode": "42",
    "prefectureNumber": 42,
    "prefecture": "長崎県",
    "city": "五島市",
    "town": "三井楽町嵯峨島"
  },
  "8530612": {
    "zipcode": "8530612",
    "prefectureCode": "42",
    "prefectureNumber": 42,
    "prefecture": "長崎県",
    "city": "五島市",
    "town": "三井楽町高崎"
  },
  "8530613": {
    "zipcode": "8530613",
    "prefectureCode": "42",
    "prefectureNumber": 42,
    "prefecture": "長崎県",
    "city": "五島市",
    "town": "三井楽町塩水"
  },
  "8530701": {
    "zipcode": "8530701",
    "prefectureCode": "42",
    "prefectureNumber": 42,
    "prefecture": "長崎県",
    "city": "五島市",
    "town": "岐宿町岐宿"
  },
  "8530702": {
    "zipcode": "8530702",
    "prefectureCode": "42",
    "prefectureNumber": 42,
    "prefecture": "長崎県",
    "city": "五島市",
    "town": "岐宿町川原"
  },
  "8530703": {
    "zipcode": "8530703",
    "prefectureCode": "42",
    "prefectureNumber": 42,
    "prefecture": "長崎県",
    "city": "五島市",
    "town": "岐宿町楠原"
  },
  "8530704": {
    "zipcode": "8530704",
    "prefectureCode": "42",
    "prefectureNumber": 42,
    "prefecture": "長崎県",
    "city": "五島市",
    "town": "岐宿町河務"
  },
  "8530705": {
    "zipcode": "8530705",
    "prefectureCode": "42",
    "prefectureNumber": 42,
    "prefecture": "長崎県",
    "city": "五島市",
    "town": "岐宿町戸岐ノ首"
  },
  "8530706": {
    "zipcode": "8530706",
    "prefectureCode": "42",
    "prefectureNumber": 42,
    "prefecture": "長崎県",
    "city": "五島市",
    "town": "岐宿町唐船ノ浦"
  },
  "8532171": {
    "zipcode": "8532171",
    "prefectureCode": "42",
    "prefectureNumber": 42,
    "prefecture": "長崎県",
    "city": "五島市",
    "town": "久賀町"
  },
  "8532172": {
    "zipcode": "8532172",
    "prefectureCode": "42",
    "prefectureNumber": 42,
    "prefecture": "長崎県",
    "city": "五島市",
    "town": "蕨町"
  },
  "8532173": {
    "zipcode": "8532173",
    "prefectureCode": "42",
    "prefectureNumber": 42,
    "prefecture": "長崎県",
    "city": "五島市",
    "town": "田ノ浦町"
  },
  "8532174": {
    "zipcode": "8532174",
    "prefectureCode": "42",
    "prefectureNumber": 42,
    "prefecture": "長崎県",
    "city": "五島市",
    "town": "猪之木町"
  },
  "8532201": {
    "zipcode": "8532201",
    "prefectureCode": "42",
    "prefectureNumber": 42,
    "prefecture": "長崎県",
    "city": "五島市",
    "town": "奈留町浦"
  },
  "8532202": {
    "zipcode": "8532202",
    "prefectureCode": "42",
    "prefectureNumber": 42,
    "prefecture": "長崎県",
    "city": "五島市",
    "town": "奈留町大串"
  },
  "8532203": {
    "zipcode": "8532203",
    "prefectureCode": "42",
    "prefectureNumber": 42,
    "prefecture": "長崎県",
    "city": "五島市",
    "town": "奈留町泊"
  },
  "8532204": {
    "zipcode": "8532204",
    "prefectureCode": "42",
    "prefectureNumber": 42,
    "prefecture": "長崎県",
    "city": "五島市",
    "town": "奈留町船廻"
  },
  "8532301": {
    "zipcode": "8532301",
    "prefectureCode": "42",
    "prefectureNumber": 42,
    "prefecture": "長崎県",
    "city": "南松浦郡新上五島町",
    "town": "若松郷"
  },
  "8532302": {
    "zipcode": "8532302",
    "prefectureCode": "42",
    "prefectureNumber": 42,
    "prefecture": "長崎県",
    "city": "南松浦郡新上五島町",
    "town": "桐古里郷"
  },
  "8532303": {
    "zipcode": "8532303",
    "prefectureCode": "42",
    "prefectureNumber": 42,
    "prefecture": "長崎県",
    "city": "南松浦郡新上五島町",
    "town": "宿ノ浦郷"
  },
  "8532304": {
    "zipcode": "8532304",
    "prefectureCode": "42",
    "prefectureNumber": 42,
    "prefecture": "長崎県",
    "city": "南松浦郡新上五島町",
    "town": "荒川郷"
  },
  "8532305": {
    "zipcode": "8532305",
    "prefectureCode": "42",
    "prefectureNumber": 42,
    "prefecture": "長崎県",
    "city": "南松浦郡新上五島町",
    "town": "西神ノ浦郷"
  },
  "8532311": {
    "zipcode": "8532311",
    "prefectureCode": "42",
    "prefectureNumber": 42,
    "prefecture": "長崎県",
    "city": "南松浦郡新上五島町",
    "town": "榊ノ浦郷"
  },
  "8532312": {
    "zipcode": "8532312",
    "prefectureCode": "42",
    "prefectureNumber": 42,
    "prefecture": "長崎県",
    "city": "南松浦郡新上五島町",
    "town": "日島郷"
  },
  "8532313": {
    "zipcode": "8532313",
    "prefectureCode": "42",
    "prefectureNumber": 42,
    "prefecture": "長崎県",
    "city": "南松浦郡新上五島町",
    "town": "有福郷"
  },
  "8532314": {
    "zipcode": "8532314",
    "prefectureCode": "42",
    "prefectureNumber": 42,
    "prefecture": "長崎県",
    "city": "南松浦郡新上五島町",
    "town": "漁生浦郷"
  },
  "8532315": {
    "zipcode": "8532315",
    "prefectureCode": "42",
    "prefectureNumber": 42,
    "prefecture": "長崎県",
    "city": "南松浦郡新上五島町",
    "town": "間伏郷"
  },
  "8532481": {
    "zipcode": "8532481",
    "prefectureCode": "42",
    "prefectureNumber": 42,
    "prefecture": "長崎県",
    "city": "五島市",
    "town": "伊福貴町"
  },
  "8532482": {
    "zipcode": "8532482",
    "prefectureCode": "42",
    "prefectureNumber": 42,
    "prefecture": "長崎県",
    "city": "五島市",
    "town": "本窯町"
  },
  "8533101": {
    "zipcode": "8533101",
    "prefectureCode": "42",
    "prefectureNumber": 42,
    "prefecture": "長崎県",
    "city": "南松浦郡新上五島町",
    "town": "奈良尾郷"
  },
  "8533102": {
    "zipcode": "8533102",
    "prefectureCode": "42",
    "prefectureNumber": 42,
    "prefecture": "長崎県",
    "city": "南松浦郡新上五島町",
    "town": "岩瀬浦郷"
  },
  "8533321": {
    "zipcode": "8533321",
    "prefectureCode": "42",
    "prefectureNumber": 42,
    "prefecture": "長崎県",
    "city": "南松浦郡新上五島町",
    "town": "鯛ノ浦郷"
  },
  "8533322": {
    "zipcode": "8533322",
    "prefectureCode": "42",
    "prefectureNumber": 42,
    "prefecture": "長崎県",
    "city": "南松浦郡新上五島町",
    "town": "阿瀬津郷"
  },
  "8533323": {
    "zipcode": "8533323",
    "prefectureCode": "42",
    "prefectureNumber": 42,
    "prefecture": "長崎県",
    "city": "南松浦郡新上五島町",
    "town": "東神ノ浦郷"
  }
}
