{
  "8540000": {
    "zipcode": "8540000",
    "prefectureCode": "42",
    "prefectureNumber": 42,
    "prefecture": "長崎県",
    "city": "諫早市",
    "town": "以下に掲載がない場合"
  },
  "8540001": {
    "zipcode": "8540001",
    "prefectureCode": "42",
    "prefectureNumber": 42,
    "prefecture": "長崎県",
    "city": "諫早市",
    "town": "福田町"
  },
  "8540002": {
    "zipcode": "8540002",
    "prefectureCode": "42",
    "prefectureNumber": 42,
    "prefecture": "長崎県",
    "city": "諫早市",
    "town": "日の出町"
  },
  "8540003": {
    "zipcode": "8540003",
    "prefectureCode": "42",
    "prefectureNumber": 42,
    "prefecture": "長崎県",
    "city": "諫早市",
    "town": "泉町"
  },
  "8540004": {
    "zipcode": "8540004",
    "prefectureCode": "42",
    "prefectureNumber": 42,
    "prefecture": "長崎県",
    "city": "諫早市",
    "town": "金谷町"
  },
  "8540005": {
    "zipcode": "8540005",
    "prefectureCode": "42",
    "prefectureNumber": 42,
    "prefecture": "長崎県",
    "city": "諫早市",
    "town": "城見町"
  },
  "8540006": {
    "zipcode": "8540006",
    "prefectureCode": "42",
    "prefectureNumber": 42,
    "prefecture": "長崎県",
    "city": "諫早市",
    "town": "天満町"
  },
  "8540007": {
    "zipcode": "8540007",
    "prefectureCode": "42",
    "prefectureNumber": 42,
    "prefecture": "長崎県",
    "city": "諫早市",
    "town": "目代町"
  },
  "8540011": {
    "zipcode": "8540011",
    "prefectureCode": "42",
    "prefectureNumber": 42,
    "prefecture": "長崎県",
    "city": "諫早市",
    "town": "八天町"
  },
  "8540012": {
    "zipcode": "8540012",
    "prefectureCode": "42",
    "prefectureNumber": 42,
    "prefecture": "長崎県",
    "city": "諫早市",
    "town": "本町"
  },
  "8540013": {
    "zipcode": "8540013",
    "prefectureCode": "42",
    "prefectureNumber": 42,
    "prefecture": "長崎県",
    "city": "諫早市",
    "town": "栄町"
  },
  "8540014": {
    "zipcode": "8540014",
    "prefectureCode": "42",
    "prefectureNumber": 42,
    "prefecture": "長崎県",
    "city": "諫早市",
    "town": "東小路町"
  },
  "8540015": {
    "zipcode": "8540015",
    "prefectureCode": "42",
    "prefectureNumber": 42,
    "prefecture": "長崎県",
    "city": "諫早市",
    "town": "西小路町"
  },
  "8540016": {
    "zipcode": "8540016",
    "prefectureCode": "42",
    "prefectureNumber": 42,
    "prefecture": "長崎県",
    "city": "諫早市",
    "town": "高城町"
  },
  "8540021": {
    "zipcode": "8540021",
    "prefectureCode": "42",
    "prefectureNumber": 42,
    "prefecture": "長崎県",
    "city": "諫早市",
    "town": "仲沖町"
  },
  "8540022": {
    "zipcode": "8540022",
    "prefectureCode": "42",
    "prefectureNumber": 42,
    "prefecture": "長崎県",
    "city": "諫早市",
    "town": "幸町"
  },
  "8540023": {
    "zipcode": "8540023",
    "prefectureCode": "42",
    "prefectureNumber": 42,
    "prefecture": "長崎県",
    "city": "諫早市",
    "town": "厚生町"
  },
  "8540024": {
    "zipcode": "8540024",
    "prefectureCode": "42",
    "prefectureNumber": 42,
    "prefecture": "長崎県",
    "city": "諫早市",
    "town": "上町"
  },
  "8540025": {
    "zipcode": "8540025",
    "prefectureCode": "42",
    "prefectureNumber": 42,
    "prefecture": "長崎県",
    "city": "諫早市",
    "town": "八坂町"
  },
  "8540026": {
    "zipcode": "8540026",
    "prefectureCode": "42",
    "prefectureNumber": 42,
    "prefecture": "長崎県",
    "city": "諫早市",
    "town": "東本町"
  },
  "8540027": {
    "zipcode": "8540027",
    "prefectureCode": "42",
    "prefectureNumber": 42,
    "prefecture": "長崎県",
    "city": "諫早市",
    "town": "旭町"
  },
  "8540031": {
    "zipcode": "8540031",
    "prefectureCode": "42",
    "prefectureNumber": 42,
    "prefecture": "長崎県",
    "city": "諫早市",
    "town": "小野島町"
  },
  "8540032": {
    "zipcode": "8540032",
    "prefectureCode": "42",
    "prefectureNumber": 42,
    "prefecture": "長崎県",
    "city": "諫早市",
    "town": "赤崎町"
  },
  "8540033": {
    "zipcode": "8540033",
    "prefectureCode": "42",
    "prefectureNumber": 42,
    "prefecture": "長崎県",
    "city": "諫早市",
    "town": "黒崎町"
  },
  "8540034": {
    "zipcode": "8540034",
    "prefectureCode": "42",
    "prefectureNumber": 42,
    "prefecture": "長崎県",
    "city": "諫早市",
    "town": "小野町"
  },
  "8540035": {
    "zipcode": "8540035",
    "prefectureCode": "42",
    "prefectureNumber": 42,
    "prefecture": "長崎県",
    "city": "諫早市",
    "town": "宗方町"
  },
  "8540036": {
    "zipcode": "8540036",
    "prefectureCode": "42",
    "prefectureNumber": 42,
    "prefecture": "長崎県",
    "city": "諫早市",
    "town": "長野町"
  },
  "8540037": {
    "zipcode": "8540037",
    "prefectureCode": "42",
    "prefectureNumber": 42,
    "prefecture": "長崎県",
    "city": "諫早市",
    "town": "川内町"
  },
  "8540038": {
    "zipcode": "8540038",
    "prefectureCode": "42",
    "prefectureNumber": 42,
    "prefecture": "長崎県",
    "city": "諫早市",
    "town": "中央干拓"
  },
  "8540041": {
    "zipcode": "8540041",
    "prefectureCode": "42",
    "prefectureNumber": 42,
    "prefecture": "長崎県",
    "city": "諫早市",
    "town": "船越町"
  },
  "8540042": {
    "zipcode": "8540042",
    "prefectureCode": "42",
    "prefectureNumber": 42,
    "prefecture": "長崎県",
    "city": "諫早市",
    "town": "上野町"
  },
  "8540043": {
    "zipcode": "8540043",
    "prefectureCode": "42",
    "prefectureNumber": 42,
    "prefecture": "長崎県",
    "city": "諫早市",
    "town": "立石町"
  },
  "8540044": {
    "zipcode": "8540044",
    "prefectureCode": "42",
    "prefectureNumber": 42,
    "prefecture": "長崎県",
    "city": "諫早市",
    "town": "西郷町"
  },
  "8540045": {
    "zipcode": "8540045",
    "prefectureCode": "42",
    "prefectureNumber": 42,
    "prefecture": "長崎県",
    "city": "諫早市",
    "town": "新道町"
  },
  "8540046": {
    "zipcode": "8540046",
    "prefectureCode": "42",
    "prefectureNumber": 42,
    "prefecture": "長崎県",
    "city": "諫早市",
    "town": "原口町"
  },
  "8540047": {
    "zipcode": "8540047",
    "prefectureCode": "42",
    "prefectureNumber": 42,
    "prefecture": "長崎県",
    "city": "諫早市",
    "town": "野中町"
  },
  "8540051": {
    "zipcode": "8540051",
    "prefectureCode": "42",
    "prefectureNumber": 42,
    "prefecture": "長崎県",
    "city": "諫早市",
    "town": "鷲崎町"
  },
  "8540052": {
    "zipcode": "8540052",
    "prefectureCode": "42",
    "prefectureNumber": 42,
    "prefecture": "長崎県",
    "city": "諫早市",
    "town": "川床町"
  },
  "8540053": {
    "zipcode": "8540053",
    "prefectureCode": "42",
    "prefectureNumber": 42,
    "prefecture": "長崎県",
    "city": "諫早市",
    "town": "小川町"
  },
  "8540054": {
    "zipcode": "8540054",
    "prefectureCode": "42",
    "prefectureNumber": 42,
    "prefecture": "長崎県",
    "city": "諫早市",
    "town": "小ケ倉町"
  },
  "8540055": {
    "zipcode": "8540055",
    "prefectureCode": "42",
    "prefectureNumber": 42,
    "prefecture": "長崎県",
    "city": "諫早市",
    "town": "栗面町"
  },
  "8540056": {
    "zipcode": "8540056",
    "prefectureCode": "42",
    "prefectureNumber": 42,
    "prefecture": "長崎県",
    "city": "諫早市",
    "town": "土師野尾町"
  },
  "8540057": {
    "zipcode": "8540057",
    "prefectureCode": "42",
    "prefectureNumber": 42,
    "prefecture": "長崎県",
    "city": "諫早市",
    "town": "平山町"
  },
  "8540061": {
    "zipcode": "8540061",
    "prefectureCode": "42",
    "prefectureNumber": 42,
    "prefecture": "長崎県",
    "city": "諫早市",
    "town": "宇都町"
  },
  "8540062": {
    "zipcode": "8540062",
    "prefectureCode": "42",
    "prefectureNumber": 42,
    "prefecture": "長崎県",
    "city": "諫早市",
    "town": "小船越町"
  },
  "8540063": {
    "zipcode": "8540063",
    "prefectureCode": "42",
    "prefectureNumber": 42,
    "prefecture": "長崎県",
    "city": "諫早市",
    "town": "貝津町"
  },
  "8540064": {
    "zipcode": "8540064",
    "prefectureCode": "42",
    "prefectureNumber": 42,
    "prefecture": "長崎県",
    "city": "諫早市",
    "town": "若葉町"
  },
  "8540065": {
    "zipcode": "8540065",
    "prefectureCode": "42",
    "prefectureNumber": 42,
    "prefecture": "長崎県",
    "city": "諫早市",
    "town": "津久葉町"
  },
  "8540066": {
    "zipcode": "8540066",
    "prefectureCode": "42",
    "prefectureNumber": 42,
    "prefecture": "長崎県",
    "city": "諫早市",
    "town": "久山町"
  },
  "8540067": {
    "zipcode": "8540067",
    "prefectureCode": "42",
    "prefectureNumber": 42,
    "prefecture": "長崎県",
    "city": "諫早市",
    "town": "久山台"
  },
  "8540068": {
    "zipcode": "8540068",
    "prefectureCode": "42",
    "prefectureNumber": 42,
    "prefecture": "長崎県",
    "city": "諫早市",
    "town": "青葉台"
  },
  "8540069": {
    "zipcode": "8540069",
    "prefectureCode": "42",
    "prefectureNumber": 42,
    "prefecture": "長崎県",
    "city": "諫早市",
    "town": "貝津ヶ丘"
  },
  "8540071": {
    "zipcode": "8540071",
    "prefectureCode": "42",
    "prefectureNumber": 42,
    "prefecture": "長崎県",
    "city": "諫早市",
    "town": "永昌東町"
  },
  "8540072": {
    "zipcode": "8540072",
    "prefectureCode": "42",
    "prefectureNumber": 42,
    "prefecture": "長崎県",
    "city": "諫早市",
    "town": "永昌町"
  },
  "8540073": {
    "zipcode": "8540073",
    "prefectureCode": "42",
    "prefectureNumber": 42,
    "prefecture": "長崎県",
    "city": "諫早市",
    "town": "中尾町"
  },
  "8540074": {
    "zipcode": "8540074",
    "prefectureCode": "42",
    "prefectureNumber": 42,
    "prefecture": "長崎県",
    "city": "諫早市",
    "town": "山川町"
  },
  "8540075": {
    "zipcode": "8540075",
    "prefectureCode": "42",
    "prefectureNumber": 42,
    "prefecture": "長崎県",
    "city": "諫早市",
    "town": "馬渡町"
  },
  "8540076": {
    "zipcode": "8540076",
    "prefectureCode": "42",
    "prefectureNumber": 42,
    "prefecture": "長崎県",
    "city": "諫早市",
    "town": "堂崎町"
  },
  "8540077": {
    "zipcode": "8540077",
    "prefectureCode": "42",
    "prefectureNumber": 42,
    "prefecture": "長崎県",
    "city": "諫早市",
    "town": "白岩町"
  },
  "8540081": {
    "zipcode": "8540081",
    "prefectureCode": "42",
    "prefectureNumber": 42,
    "prefecture": "長崎県",
    "city": "諫早市",
    "town": "栄田町"
  },
  "8540082": {
    "zipcode": "8540082",
    "prefectureCode": "42",
    "prefectureNumber": 42,
    "prefecture": "長崎県",
    "city": "諫早市",
    "town": "西栄田町"
  },
  "8540083": {
    "zipcode": "8540083",
    "prefectureCode": "42",
    "prefectureNumber": 42,
    "prefecture": "長崎県",
    "city": "諫早市",
    "town": "津水町"
  },
  "8540084": {
    "zipcode": "8540084",
    "prefectureCode": "42",
    "prefectureNumber": 42,
    "prefecture": "長崎県",
    "city": "諫早市",
    "town": "真崎町"
  },
  "8540085": {
    "zipcode": "8540085",
    "prefectureCode": "42",
    "prefectureNumber": 42,
    "prefecture": "長崎県",
    "city": "諫早市",
    "town": "破籠井町"
  },
  "8540086": {
    "zipcode": "8540086",
    "prefectureCode": "42",
    "prefectureNumber": 42,
    "prefecture": "長崎県",
    "city": "諫早市",
    "town": "堀の内町"
  },
  "8540087": {
    "zipcode": "8540087",
    "prefectureCode": "42",
    "prefectureNumber": 42,
    "prefecture": "長崎県",
    "city": "諫早市",
    "town": "大さこ町"
  },
  "8540091": {
    "zipcode": "8540091",
    "prefectureCode": "42",
    "prefectureNumber": 42,
    "prefecture": "長崎県",
    "city": "諫早市",
    "town": "富川町"
  },
  "8540092": {
    "zipcode": "8540092",
    "prefectureCode": "42",
    "prefectureNumber": 42,
    "prefecture": "長崎県",
    "city": "諫早市",
    "town": "湯野尾町"
  },
  "8540093": {
    "zipcode": "8540093",
    "prefectureCode": "42",
    "prefectureNumber": 42,
    "prefecture": "長崎県",
    "city": "諫早市",
    "town": "本野町"
  },
  "8540094": {
    "zipcode": "8540094",
    "prefectureCode": "42",
    "prefectureNumber": 42,
    "prefecture": "長崎県",
    "city": "諫早市",
    "town": "本明町"
  },
  "8540095": {
    "zipcode": "8540095",
    "prefectureCode": "42",
    "prefectureNumber": 42,
    "prefecture": "長崎県",
    "city": "諫早市",
    "town": "上大渡野町"
  },
  "8540096": {
    "zipcode": "8540096",
    "prefectureCode": "42",
    "prefectureNumber": 42,
    "prefecture": "長崎県",
    "city": "諫早市",
    "town": "下大渡野町"
  },
  "8540121": {
    "zipcode": "8540121",
    "prefectureCode": "42",
    "prefectureNumber": 42,
    "prefecture": "長崎県",
    "city": "諫早市",
    "town": "有喜町"
  },
  "8540122": {
    "zipcode": "8540122",
    "prefectureCode": "42",
    "prefectureNumber": 42,
    "prefecture": "長崎県",
    "city": "諫早市",
    "town": "鶴田町"
  },
  "8540123": {
    "zipcode": "8540123",
    "prefectureCode": "42",
    "prefectureNumber": 42,
    "prefecture": "長崎県",
    "city": "諫早市",
    "town": "天神町"
  },
  "8540124": {
    "zipcode": "8540124",
    "prefectureCode": "42",
    "prefectureNumber": 42,
    "prefecture": "長崎県",
    "city": "諫早市",
    "town": "中通町"
  },
  "8540125": {
    "zipcode": "8540125",
    "prefectureCode": "42",
    "prefectureNumber": 42,
    "prefecture": "長崎県",
    "city": "諫早市",
    "town": "早見町"
  },
  "8540126": {
    "zipcode": "8540126",
    "prefectureCode": "42",
    "prefectureNumber": 42,
    "prefecture": "長崎県",
    "city": "諫早市",
    "town": "松里町"
  },
  "8540201": {
    "zipcode": "8540201",
    "prefectureCode": "42",
    "prefectureNumber": 42,
    "prefecture": "長崎県",
    "city": "諫早市",
    "town": "森山町下井牟田"
  },
  "8540202": {
    "zipcode": "8540202",
    "prefectureCode": "42",
    "prefectureNumber": 42,
    "prefecture": "長崎県",
    "city": "諫早市",
    "town": "森山町慶師野"
  },
  "8540203": {
    "zipcode": "8540203",
    "prefectureCode": "42",
    "prefectureNumber": 42,
    "prefecture": "長崎県",
    "city": "諫早市",
    "town": "森山町本村"
  },
  "8540204": {
    "zipcode": "8540204",
    "prefectureCode": "42",
    "prefectureNumber": 42,
    "prefecture": "長崎県",
    "city": "諫早市",
    "town": "森山町田尻"
  },
  "8540205": {
    "zipcode": "8540205",
    "prefectureCode": "42",
    "prefectureNumber": 42,
    "prefecture": "長崎県",
    "city": "諫早市",
    "town": "森山町杉谷"
  },
  "8540206": {
    "zipcode": "8540206",
    "prefectureCode": "42",
    "prefectureNumber": 42,
    "prefecture": "長崎県",
    "city": "諫早市",
    "town": "森山町唐比北"
  },
  "8540207": {
    "zipcode": "8540207",
    "prefectureCode": "42",
    "prefectureNumber": 42,
    "prefecture": "長崎県",
    "city": "諫早市",
    "town": "森山町唐比東"
  },
  "8540208": {
    "zipcode": "8540208",
    "prefectureCode": "42",
    "prefectureNumber": 42,
    "prefecture": "長崎県",
    "city": "諫早市",
    "town": "森山町唐比西"
  },
  "8540209": {
    "zipcode": "8540209",
    "prefectureCode": "42",
    "prefectureNumber": 42,
    "prefecture": "長崎県",
    "city": "諫早市",
    "town": "森山町上井牟田"
  },
  "8540301": {
    "zipcode": "8540301",
    "prefectureCode": "42",
    "prefectureNumber": 42,
    "prefecture": "長崎県",
    "city": "雲仙市",
    "town": "愛野町甲"
  },
  "8540302": {
    "zipcode": "8540302",
    "prefectureCode": "42",
    "prefectureNumber": 42,
    "prefecture": "長崎県",
    "city": "雲仙市",
    "town": "愛野町乙"
  },
  "8540401": {
    "zipcode": "8540401",
    "prefectureCode": "42",
    "prefectureNumber": 42,
    "prefecture": "長崎県",
    "city": "雲仙市",
    "town": "千々石町甲"
  },
  "8540402": {
    "zipcode": "8540402",
    "prefectureCode": "42",
    "prefectureNumber": 42,
    "prefecture": "長崎県",
    "city": "雲仙市",
    "town": "千々石町乙"
  },
  "8540403": {
    "zipcode": "8540403",
    "prefectureCode": "42",
    "prefectureNumber": 42,
    "prefecture": "長崎県",
    "city": "雲仙市",
    "town": "千々石町丙"
  },
  "8540404": {
    "zipcode": "8540404",
    "prefectureCode": "42",
    "prefectureNumber": 42,
    "prefecture": "長崎県",
    "city": "雲仙市",
    "town": "千々石町丁"
  },
  "8540405": {
    "zipcode": "8540405",
    "prefectureCode": "42",
    "prefectureNumber": 42,
    "prefecture": "長崎県",
    "city": "雲仙市",
    "town": "千々石町戊"
  },
  "8540406": {
    "zipcode": "8540406",
    "prefectureCode": "42",
    "prefectureNumber": 42,
    "prefecture": "長崎県",
    "city": "雲仙市",
    "town": "千々石町己"
  },
  "8540407": {
    "zipcode": "8540407",
    "prefectureCode": "42",
    "prefectureNumber": 42,
    "prefecture": "長崎県",
    "city": "雲仙市",
    "town": "千々石町庚"
  },
  "8540500": {
    "zipcode": "8540500",
    "prefectureCode": "42",
    "prefectureNumber": 42,
    "prefecture": "長崎県",
    "city": "雲仙市",
    "town": "以下に掲載がない場合"
  },
  "8540501": {
    "zipcode": "8540501",
    "prefectureCode": "42",
    "prefectureNumber": 42,
    "prefecture": "長崎県",
    "city": "雲仙市",
    "town": "小浜町大亀"
  },
  "8540502": {
    "zipcode": "8540502",
    "prefectureCode": "42",
    "prefectureNumber": 42,
    "prefecture": "長崎県",
    "city": "雲仙市",
    "town": "小浜町山畑"
  },
  "8540503": {
    "zipcode": "8540503",
    "prefectureCode": "42",
    "prefectureNumber": 42,
    "prefecture": "長崎県",
    "city": "雲仙市",
    "town": "小浜町飛子"
  },
  "8540504": {
    "zipcode": "8540504",
    "prefectureCode": "42",
    "prefectureNumber": 42,
    "prefecture": "長崎県",
    "city": "雲仙市",
    "town": "小浜町金浜"
  },
  "8540505": {
    "zipcode": "8540505",
    "prefectureCode": "42",
    "prefectureNumber": 42,
    "prefecture": "長崎県",
    "city": "雲仙市",
    "town": "小浜町木場"
  },
  "8540511": {
    "zipcode": "8540511",
    "prefectureCode": "42",
    "prefectureNumber": 42,
    "prefecture": "長崎県",
    "city": "雲仙市",
    "town": "小浜町南木指"
  },
  "8540512": {
    "zipcode": "8540512",
    "prefectureCode": "42",
    "prefectureNumber": 42,
    "prefecture": "長崎県",
    "city": "雲仙市",
    "town": "小浜町北木指"
  },
  "8540513": {
    "zipcode": "8540513",
    "prefectureCode": "42",
    "prefectureNumber": 42,
    "prefecture": "長崎県",
    "city": "雲仙市",
    "town": "小浜町南本町"
  },
  "8540514": {
    "zipcode": "8540514",
    "prefectureCode": "42",
    "prefectureNumber": 42,
    "prefecture": "長崎県",
    "city": "雲仙市",
    "town": "小浜町北本町"
  },
  "8540515": {
    "zipcode": "8540515",
    "prefectureCode": "42",
    "prefectureNumber": 42,
    "prefecture": "長崎県",
    "city": "雲仙市",
    "town": "小浜町北野"
  },
  "8540516": {
    "zipcode": "8540516",
    "prefectureCode": "42",
    "prefectureNumber": 42,
    "prefecture": "長崎県",
    "city": "雲仙市",
    "town": "小浜町富津"
  },
  "8540517": {
    "zipcode": "8540517",
    "prefectureCode": "42",
    "prefectureNumber": 42,
    "prefecture": "長崎県",
    "city": "雲仙市",
    "town": "小浜町マリーナ"
  },
  "8540621": {
    "zipcode": "8540621",
    "prefectureCode": "42",
    "prefectureNumber": 42,
    "prefecture": "長崎県",
    "city": "雲仙市",
    "town": "小浜町雲仙"
  },
  "8540701": {
    "zipcode": "8540701",
    "prefectureCode": "42",
    "prefectureNumber": 42,
    "prefecture": "長崎県",
    "city": "雲仙市",
    "town": "南串山町甲"
  },
  "8540702": {
    "zipcode": "8540702",
    "prefectureCode": "42",
    "prefectureNumber": 42,
    "prefecture": "長崎県",
    "city": "雲仙市",
    "town": "南串山町乙"
  },
  "8540703": {
    "zipcode": "8540703",
    "prefectureCode": "42",
    "prefectureNumber": 42,
    "prefecture": "長崎県",
    "city": "雲仙市",
    "town": "南串山町丙"
  },
  "8541101": {
    "zipcode": "8541101",
    "prefectureCode": "42",
    "prefectureNumber": 42,
    "prefecture": "長崎県",
    "city": "諫早市",
    "town": "飯盛町野中"
  },
  "8541102": {
    "zipcode": "8541102",
    "prefectureCode": "42",
    "prefectureNumber": 42,
    "prefecture": "長崎県",
    "city": "諫早市",
    "town": "飯盛町山口"
  },
  "8541103": {
    "zipcode": "8541103",
    "prefectureCode": "42",
    "prefectureNumber": 42,
    "prefecture": "長崎県",
    "city": "諫早市",
    "town": "飯盛町中山"
  },
  "8541104": {
    "zipcode": "8541104",
    "prefectureCode": "42",
    "prefectureNumber": 42,
    "prefecture": "長崎県",
    "city": "諫早市",
    "town": "飯盛町上原"
  },
  "8541105": {
    "zipcode": "8541105",
    "prefectureCode": "42",
    "prefectureNumber": 42,
    "prefecture": "長崎県",
    "city": "諫早市",
    "town": "飯盛町後田"
  },
  "8541111": {
    "zipcode": "8541111",
    "prefectureCode": "42",
    "prefectureNumber": 42,
    "prefecture": "長崎県",
    "city": "諫早市",
    "town": "飯盛町平古場"
  },
  "8541112": {
    "zipcode": "8541112",
    "prefectureCode": "42",
    "prefectureNumber": 42,
    "prefecture": "長崎県",
    "city": "諫早市",
    "town": "飯盛町開"
  },
  "8541113": {
    "zipcode": "8541113",
    "prefectureCode": "42",
    "prefectureNumber": 42,
    "prefecture": "長崎県",
    "city": "諫早市",
    "town": "飯盛町下釜"
  },
  "8541114": {
    "zipcode": "8541114",
    "prefectureCode": "42",
    "prefectureNumber": 42,
    "prefecture": "長崎県",
    "city": "諫早市",
    "town": "飯盛町久保"
  },
  "8541121": {
    "zipcode": "8541121",
    "prefectureCode": "42",
    "prefectureNumber": 42,
    "prefecture": "長崎県",
    "city": "諫早市",
    "town": "飯盛町古場"
  },
  "8541122": {
    "zipcode": "8541122",
    "prefectureCode": "42",
    "prefectureNumber": 42,
    "prefecture": "長崎県",
    "city": "諫早市",
    "town": "飯盛町佐田"
  },
  "8541123": {
    "zipcode": "8541123",
    "prefectureCode": "42",
    "prefectureNumber": 42,
    "prefecture": "長崎県",
    "city": "諫早市",
    "town": "飯盛町里"
  },
  "8541124": {
    "zipcode": "8541124",
    "prefectureCode": "42",
    "prefectureNumber": 42,
    "prefecture": "長崎県",
    "city": "諫早市",
    "town": "飯盛町川下"
  },
  "8541125": {
    "zipcode": "8541125",
    "prefectureCode": "42",
    "prefectureNumber": 42,
    "prefecture": "長崎県",
    "city": "諫早市",
    "town": "飯盛町池下"
  }
}
